<?xml version="1.0" encoding="UTF-8"?>
<osm version="0.6" generator="osmapis">
	<node id="21302548" lat="69.7678521" lon="21.0244567" version="7" timestamp="2022-07-09T04:53:00Z" changeset="123387225" uid="3497659" user="NKA">
		<tag k="name" v="Storslett - Hánssagieddi - Hansinkenttä" />
		<tag k="name:fkv" v="Hansinkenttä" />
		<tag k="name:no" v="Storslett" />
		<tag k="name:ru" v="Сторслет" />
		<tag k="name:se" v="Hánssagieddi" />
		<tag k="place" v="town" />
		<tag k="population" v="1791" />
		<tag k="population:date" v="2021-01-01" />
		<tag k="ref:ssb_tettsted" v="8182" />
		<tag k="source:population" v="SSB - befolkning i tettstedet" />
		<tag k="ssr:stedsnr" v="687207" />
	</node>
	<node id="336128755" lat="69.4566217" lon="21.5327799" version="2" timestamp="2022-07-09T04:53:00Z" changeset="123387225" uid="3497659" user="NKA">
		<tag k="name" v="Saraelv" />
		<tag k="place" v="farm" />
		<tag k="ssr:stedsnr" v="625736" />
	</node>
	<node id="766890598" lat="69.7885908" lon="20.5675998" version="4" timestamp="2022-07-09T04:53:00Z" changeset="123387225" uid="3497659" user="NKA">
		<tag k="alt_name" v="Havnnes" />
		<tag k="alt_name:no" v="Havnnes" />
		<tag k="loc_name:fkv" v="Karkko" />
		<tag k="name" v="Hamnnes - Gárgu" />
		<tag k="name:no" v="Hamnnes" />
		<tag k="name:se" v="Gárgu" />
		<tag k="place" v="hamlet" />
		<tag k="ssr:stedsnr" v="201944" />
	</node>
	<node id="766890599" lat="69.7774591" lon="20.5901527" version="3" timestamp="2022-07-09T04:53:00Z" changeset="123387225" uid="3497659" user="NKA">
		<tag k="name" v="Rotsund - Guohcanuorri - Nuora" />
		<tag k="name:fkv" v="Nuora" />
		<tag k="name:no" v="Rotsund" />
		<tag k="name:se" v="Guohcanuorri" />
		<tag k="place" v="village" />
		<tag k="ssr:stedsnr" v="451879" />
	</node>
	<node id="766890600" lat="69.7617679" lon="20.4662365" version="6" timestamp="2022-07-09T04:53:00Z" changeset="123387225" uid="3497659" user="NKA">
		<tag k="name" v="Spåkenes - Spoahkkanjárga" />
		<tag k="name:no" v="Spåkenes" />
		<tag k="name:ru" v="Спокенес" />
		<tag k="name:se" v="Spoahkkanjárga" />
		<tag k="place" v="hamlet" />
		<tag k="ssr:stedsnr" v="1072866" />
	</node>
	<node id="766890601" lat="69.7656815" lon="20.4966328" version="3" timestamp="2022-07-09T04:53:00Z" changeset="123387225" uid="3497659" user="NKA">
		<tag k="name" v="Slottet" />
		<tag k="place" v="farm" />
		<tag k="ssr:stedsnr" v="626941" />
	</node>
	<node id="805981556" lat="69.7507111" lon="20.7317356" version="2" timestamp="2022-07-09T04:53:00Z" changeset="123387225" uid="3497659" user="NKA">
		<tag k="name" v="Helgeli" />
		<tag k="place" v="farm" />
		<tag k="ssr:stedsnr" v="687619" />
	</node>
	<node id="843983051" lat="69.7860232" lon="20.9502985" version="7" timestamp="2022-07-09T04:53:00Z" changeset="123387225" uid="3497659" user="NKA">
		<tag k="name" v="Sørkjosen - Reaššegeahči - Rässikäinen" />
		<tag k="name:fkv" v="Rässikäinen" />
		<tag k="name:no" v="Sørkjosen" />
		<tag k="name:ru" v="Сёркёсен" />
		<tag k="name:se" v="Reaššegeahči" />
		<tag k="place" v="village" />
		<tag k="population" v="842" />
		<tag k="population:date" v="2021-01-01" />
		<tag k="ref:ssb_tettsted" v="8181" />
		<tag k="source:population" v="SSB - befolkning i tettstedet" />
		<tag k="ssr:stedsnr" v="201953" />
	</node>
	<node id="922908500" lat="69.8559513" lon="20.7729071" version="2" timestamp="2022-07-09T04:53:00Z" changeset="123387225" uid="3497659" user="NKA">
		<tag k="alt_name:no" v="Ravelseidet, yt;Ravelseidet" />
		<tag k="loc_name:se" v="Soakkuvuonmuorki" />
		<tag k="name" v="Ytre Ravelseidet" />
		<tag k="name:no" v="Ytre Ravelseidet" />
		<tag k="place" v="hamlet" />
		<tag k="ssr:stedsnr" v="19509" />
	</node>
	<node id="960511300" lat="69.8305668" lon="21.0482978" version="3" timestamp="2022-07-09T04:53:00Z" changeset="123387225" uid="3497659" user="NKA">
		<tag k="name" v="Indre Storvik" />
		<tag k="place" v="hamlet" />
		<tag k="ssr:stedsnr" v="470706" />
	</node>
	<node id="960511303" lat="69.9074767" lon="21.3288406" version="3" timestamp="2022-07-09T04:53:00Z" changeset="123387225" uid="3497659" user="NKA">
		<tag k="loc_name:no" v="Oksfjorden" />
		<tag k="loc_name:se" v="Ákšovuonna;Ákšovuotna" />
		<tag k="name" v="Oksfjordhamn - Aksuvuononhamina" />
		<tag k="name:fkv" v="Aksuvuononhamina" />
		<tag k="name:no" v="Oksfjordhamn" />
		<tag k="name:ru" v="Оксфьердхамн" />
		<tag k="place" v="village" />
		<tag k="ssr:stedsnr" v="565856" />
	</node>
	<node id="1337651543" lat="69.8600531" lon="20.8653785" version="2" timestamp="2022-07-09T04:53:00Z" changeset="123387225" uid="3497659" user="NKA">
		<tag k="alt_name" v="Bakkeby Indre" />
		<tag k="name" v="Indre Bakkeby" />
		<tag k="place" v="hamlet" />
		<tag k="ssr:stedsnr" v="895650" />
	</node>
	<node id="1337651720" lat="69.9286402" lon="20.9595569" version="4" timestamp="2022-07-09T04:53:00Z" changeset="123387225" uid="3497659" user="NKA">
		<tag k="name" v="Hamneidet" />
		<tag k="place" v="hamlet" />
		<tag k="ssr:stedsnr" v="322574" />
	</node>
	<node id="3368479603" lat="69.8686331" lon="21.2143702" version="2" timestamp="2022-07-09T04:53:00Z" changeset="123387225" uid="3497659" user="NKA">
		<tag k="loc_name:fkv" v="Siitivuono" />
		<tag k="loc_name:se" v="Siidavuonna;Siidavuotna" />
		<tag k="name" v="Straumfjordnes" />
		<tag k="name:no" v="Straumfjordnes" />
		<tag k="place" v="village" />
		<tag k="ssr:stedsnr" v="565826" />
	</node>
	<node id="3369125289" lat="69.8025637" lon="21.1079778" version="3" timestamp="2022-07-09T04:53:00Z" changeset="123387225" uid="3497659" user="NKA">
		<tag k="name" v="Loppevollen" />
		<tag k="place" v="hamlet" />
		<tag k="ssr:stedsnr" v="383765" />
	</node>
	<node id="3369125290" lat="69.8012287" lon="21.0938343" version="2" timestamp="2022-07-09T04:53:00Z" changeset="123387225" uid="3497659" user="NKA">
		<tag k="alt_name" v="Nysletta" />
		<tag k="name" v="Myrslett" />
		<tag k="place" v="farm" />
		<tag k="ssr:stedsnr" v="869213" />
	</node>
	<node id="5712362301" lat="69.7882167" lon="20.7105899" version="2" timestamp="2022-07-09T04:53:00Z" changeset="123387225" uid="3497659" user="NKA">
		<tag k="name" v="Rotsundelv - Cohkolatjohka" />
		<tag k="name:no" v="Rotsundelv" />
		<tag k="name:ru" v="Ротсунделв" />
		<tag k="name:se" v="Cohkolatjohka" />
		<tag k="place" v="village" />
		<tag k="ssr:stedsnr" v="755836" />
	</node>
	<node id="6668109060" lat="69.8203275" lon="20.7812475" version="2" timestamp="2022-01-26T06:08:00Z" changeset="116609992" uid="3497659" user="NKA">
		<tag k="junction" v="yes" />
		<tag k="name" v="Langslettkrysset" />
		<tag k="ssr:stedsnr" v="540080" />
	</node>
	<node id="9875698238" lat="69.7739889" lon="20.5662388" version="1" timestamp="2022-07-09T04:53:00Z" changeset="123387225" uid="3497659" user="NKA">
		<tag k="name" v="Klavenes" />
		<tag k="place" v="farm" />
		<tag k="ssr:stedsnr" v="565933" />
	</node>
	<node id="9875698239" lat="69.917864" lon="21.289972" version="1" timestamp="2022-07-09T04:53:00Z" changeset="123387225" uid="3497659" user="NKA">
		<tag k="name" v="Lilleng" />
		<tag k="place" v="farm" />
		<tag k="ssr:stedsnr" v="115928" />
	</node>
	<node id="9875698240" lat="69.8230738" lon="20.5314613" version="1" timestamp="2022-07-09T04:53:00Z" changeset="123387225" uid="3497659" user="NKA">
		<tag k="name" v="Flateng" />
		<tag k="place" v="farm" />
		<tag k="ssr:stedsnr" v="565975" />
	</node>
	<node id="9875698241" lat="69.8988473" lon="21.3923499" version="1" timestamp="2022-07-09T04:53:00Z" changeset="123387225" uid="3497659" user="NKA">
		<tag k="name" v="Pavelsnes" />
		<tag k="place" v="farm" />
		<tag k="ssr:stedsnr" v="80842" />
	</node>
	<node id="9875698242" lat="69.8222673" lon="20.5321912" version="1" timestamp="2022-07-09T04:53:00Z" changeset="123387225" uid="3497659" user="NKA">
		<tag k="loc_name:se" v="Stuoragieddi" />
		<tag k="name" v="Storsletta" />
		<tag k="name:no" v="Storsletta" />
		<tag k="place" v="hamlet" />
		<tag k="ssr:stedsnr" v="392602" />
	</node>
	<node id="9875698243" lat="69.7743283" lon="20.5771048" version="1" timestamp="2022-07-09T04:53:00Z" changeset="123387225" uid="3497659" user="NKA">
		<tag k="alt_name" v="Rotsund, s" />
		<tag k="name" v="Søndre Rotsund" />
		<tag k="place" v="farm" />
		<tag k="ssr:stedsnr" v="687928" />
	</node>
	<node id="9875698244" lat="69.7646944" lon="20.5391307" version="1" timestamp="2022-07-09T04:53:00Z" changeset="123387225" uid="3497659" user="NKA">
		<tag k="name" v="Øya" />
		<tag k="place" v="farm" />
		<tag k="ssr:stedsnr" v="175984" />
	</node>
	<node id="9875698245" lat="69.8663164" lon="21.0423507" version="1" timestamp="2022-07-09T04:53:00Z" changeset="123387225" uid="3497659" user="NKA">
		<tag k="alt_name" v="Stangnesbukt" />
		<tag k="name" v="Litlevik" />
		<tag k="place" v="farm" />
		<tag k="ssr:stedsnr" v="444801" />
	</node>
	<node id="9875698246" lat="69.8020811" lon="21.0957233" version="1" timestamp="2022-07-09T04:53:00Z" changeset="123387225" uid="3497659" user="NKA">
		<tag k="loc_name:fkv" v="Siitivuononmuotka" />
		<tag k="loc_name:se" v="Siidavuonmuotki" />
		<tag k="name" v="Nordkjoseidet" />
		<tag k="name:no" v="Nordkjoseidet" />
		<tag k="place" v="farm" />
		<tag k="ssr:stedsnr" v="747760" />
	</node>
	<node id="9875698247" lat="69.9017175" lon="21.3732417" version="1" timestamp="2022-07-09T04:53:00Z" changeset="123387225" uid="3497659" user="NKA">
		<tag k="name" v="Elvestad" />
		<tag k="place" v="farm" />
		<tag k="ssr:stedsnr" v="444844" />
	</node>
	<node id="9875698248" lat="69.7533594" lon="21.0349937" version="1" timestamp="2022-07-09T04:53:00Z" changeset="123387225" uid="3497659" user="NKA">
		<tag k="name" v="Sagstad" />
		<tag k="place" v="farm" />
		<tag k="ssr:stedsnr" v="747214" />
	</node>
	<node id="9875698249" lat="69.7721777" lon="21.0343889" version="1" timestamp="2022-07-09T04:53:00Z" changeset="123387225" uid="3497659" user="NKA">
		<tag k="name" v="Dørmamoen" />
		<tag k="place" v="quarter" />
		<tag k="ssr:stedsnr" v="722690" />
	</node>
	<node id="9875698250" lat="69.6868083" lon="21.0924695" version="1" timestamp="2022-07-09T04:53:00Z" changeset="123387225" uid="3497659" user="NKA">
		<tag k="name" v="Samueldalen" />
		<tag k="place" v="farm" />
		<tag k="ssr:stedsnr" v="747334" />
	</node>
	<node id="9875698251" lat="69.8453306" lon="21.1504334" version="1" timestamp="2022-07-09T04:53:00Z" changeset="123387225" uid="3497659" user="NKA">
		<tag k="name" v="Storbukta" />
		<tag k="place" v="farm" />
		<tag k="ssr:stedsnr" v="444768" />
	</node>
	<node id="9875698252" lat="69.7129937" lon="21.2305837" version="1" timestamp="2022-07-09T04:53:00Z" changeset="123387225" uid="3497659" user="NKA">
		<tag k="name" v="Kjellmo" />
		<tag k="place" v="farm" />
		<tag k="ssr:stedsnr" v="444704" />
	</node>
	<node id="9875698253" lat="69.7959" lon="21.0895527" version="1" timestamp="2022-07-09T04:53:00Z" changeset="123387225" uid="3497659" user="NKA">
		<tag k="name" v="Rollstad" />
		<tag k="place" v="farm" />
		<tag k="ssr:stedsnr" v="504166" />
	</node>
	<node id="9875698254" lat="69.9358421" lon="20.983855" version="1" timestamp="2022-07-09T04:53:00Z" changeset="123387225" uid="3497659" user="NKA">
		<tag k="name" v="Skogly" />
		<tag k="place" v="farm" />
		<tag k="ssr:stedsnr" v="444568" />
	</node>
	<node id="9875698255" lat="69.732753" lon="21.1836302" version="1" timestamp="2022-07-09T04:53:00Z" changeset="123387225" uid="3497659" user="NKA">
		<tag k="name" v="Solborg" />
		<tag k="old_name" v="Solberg" />
		<tag k="place" v="farm" />
		<tag k="ssr:stedsnr" v="444683" />
	</node>
	<node id="9875698256" lat="69.7833889" lon="20.6172916" version="1" timestamp="2022-07-09T04:53:00Z" changeset="123387225" uid="3497659" user="NKA">
		<tag k="name" v="Enga" />
		<tag k="place" v="farm" />
		<tag k="ssr:stedsnr" v="383941" />
	</node>
	<node id="9875698257" lat="69.5508555" lon="21.3112473" version="1" timestamp="2022-07-09T04:53:00Z" changeset="123387225" uid="3497659" user="NKA">
		<tag k="name" v="Bjørnlund" />
		<tag k="place" v="farm" />
		<tag k="ssr:stedsnr" v="444239" />
	</node>
	<node id="9875698258" lat="69.7936865" lon="21.096993" version="1" timestamp="2022-07-09T04:53:00Z" changeset="123387225" uid="3497659" user="NKA">
		<tag k="name" v="Myra" />
		<tag k="place" v="farm" />
		<tag k="ssr:stedsnr" v="262200" />
	</node>
	<node id="9875698259" lat="69.7711694" lon="20.9899723" version="1" timestamp="2022-07-09T04:53:00Z" changeset="123387225" uid="3497659" user="NKA">
		<tag k="name" v="Blomstereng" />
		<tag k="place" v="farm" />
		<tag k="ssr:stedsnr" v="261876" />
	</node>
	<node id="9875698260" lat="69.7325444" lon="21.03735" version="1" timestamp="2022-07-09T04:53:00Z" changeset="123387225" uid="3497659" user="NKA">
		<tag k="name" v="Kvernelv" />
		<tag k="place" v="farm" />
		<tag k="ssr:stedsnr" v="357417" />
	</node>
	<node id="9875698261" lat="69.9006007" lon="21.3735726" version="1" timestamp="2022-07-09T04:53:00Z" changeset="123387225" uid="3497659" user="NKA">
		<tag k="name" v="Nordrevatn" />
		<tag k="place" v="locality" />
		<tag k="ssr:stedsnr" v="323841" />
	</node>
	<node id="9875698262" lat="69.846013" lon="21.0644469" version="1" timestamp="2022-07-09T04:53:00Z" changeset="123387225" uid="3497659" user="NKA">
		<tag k="name" v="Myrvang" />
		<tag k="place" v="farm" />
		<tag k="ssr:stedsnr" v="322757" />
	</node>
	<node id="9875698263" lat="69.7782643" lon="21.0332401" version="1" timestamp="2022-07-09T04:53:00Z" changeset="123387225" uid="3497659" user="NKA">
		<tag k="name" v="Veibakken" />
		<tag k="place" v="farm" />
		<tag k="ssr:stedsnr" v="54635" />
	</node>
	<node id="9875698264" lat="69.8121528" lon="20.9940029" version="1" timestamp="2022-07-09T04:53:00Z" changeset="123387225" uid="3497659" user="NKA">
		<tag k="alt_name" v="Nordkjos" />
		<tag k="name" v="Nordkjosen" />
		<tag k="place" v="farm" />
		<tag k="ssr:stedsnr" v="19949" />
	</node>
	<node id="9875698265" lat="69.8296056" lon="21.042539" version="1" timestamp="2022-07-09T04:53:00Z" changeset="123387225" uid="3497659" user="NKA">
		<tag k="alt_name" v="Buktevoll" />
		<tag k="name" v="Buktevollen" />
		<tag k="place" v="farm" />
		<tag k="ssr:stedsnr" v="322748" />
	</node>
	<node id="9875698266" lat="69.842475" lon="20.7941056" version="1" timestamp="2022-07-09T04:53:00Z" changeset="123387225" uid="3497659" user="NKA">
		<tag k="name" v="Eldstad" />
		<tag k="place" v="farm" />
		<tag k="ssr:stedsnr" v="262992" />
	</node>
	<node id="9875698267" lat="69.7398861" lon="21.1504445" version="1" timestamp="2022-07-09T04:53:00Z" changeset="123387225" uid="3497659" user="NKA">
		<tag k="name" v="Seljelund" />
		<tag k="place" v="farm" />
		<tag k="ssr:stedsnr" v="928711" />
	</node>
	<node id="9875698268" lat="69.7899778" lon="21.0504416" version="1" timestamp="2022-07-09T04:53:00Z" changeset="123387225" uid="3497659" user="NKA">
		<tag k="name" v="Sletta" />
		<tag k="place" v="farm" />
		<tag k="ssr:stedsnr" v="201188" />
	</node>
	<node id="9875698269" lat="69.9199296" lon="21.2473841" version="1" timestamp="2022-07-09T04:53:00Z" changeset="123387225" uid="3497659" user="NKA">
		<tag k="alt_name" v="Bakkevoll" />
		<tag k="name" v="Bakkevollen" />
		<tag k="place" v="farm" />
		<tag k="ssr:stedsnr" v="262888" />
	</node>
	<node id="9875698270" lat="69.7637139" lon="21.0309723" version="1" timestamp="2022-07-09T04:53:00Z" changeset="123387225" uid="3497659" user="NKA">
		<tag k="name" v="Hesthagen" />
		<tag k="place" v="quarter" />
		<tag k="ssr:stedsnr" v="115635" />
	</node>
	<node id="9875698271" lat="69.752483" lon="21.0444665" version="1" timestamp="2022-07-09T04:53:00Z" changeset="123387225" uid="3497659" user="NKA">
		<tag k="name" v="Tangen" />
		<tag k="place" v="farm" />
		<tag k="ssr:stedsnr" v="903403" />
	</node>
	<node id="9875698272" lat="69.8718139" lon="21.4432194" version="1" timestamp="2022-07-09T04:53:00Z" changeset="123387225" uid="3497659" user="NKA">
		<tag k="name" v="Elvebakken" />
		<tag k="place" v="farm" />
		<tag k="ssr:stedsnr" v="80809" />
	</node>
	<node id="9875698273" lat="69.7418877" lon="21.15245" version="1" timestamp="2022-07-09T04:53:00Z" changeset="123387225" uid="3497659" user="NKA">
		<tag k="name" v="Furumo" />
		<tag k="place" v="farm" />
		<tag k="ssr:stedsnr" v="868699" />
	</node>
	<node id="9875698274" lat="69.8303278" lon="21.0381416" version="1" timestamp="2022-07-09T04:53:00Z" changeset="123387225" uid="3497659" user="NKA">
		<tag k="name" v="Nyheim" />
		<tag k="place" v="farm" />
		<tag k="ssr:stedsnr" v="80792" />
	</node>
	<node id="9875698275" lat="69.7552228" lon="21.0331142" version="1" timestamp="2022-07-09T04:53:00Z" changeset="123387225" uid="3497659" user="NKA">
		<tag k="alt_name" v="Forsnes" />
		<tag k="name" v="Fossnes" />
		<tag k="old_name" v="Fosnes" />
		<tag k="place" v="farm" />
		<tag k="ssr:stedsnr" v="1078136" />
	</node>
	<node id="9875698276" lat="69.7804113" lon="21.0043713" version="1" timestamp="2022-07-09T04:53:00Z" changeset="123387225" uid="3497659" user="NKA">
		<tag k="name" v="Elvenes" />
		<tag k="place" v="farm" />
		<tag k="ssr:stedsnr" v="1078177" />
	</node>
	<node id="9875698277" lat="69.7937383" lon="21.0488434" version="1" timestamp="2022-07-09T04:53:00Z" changeset="123387225" uid="3497659" user="NKA">
		<tag k="name" v="Beckmo" />
		<tag k="place" v="farm" />
		<tag k="ssr:stedsnr" v="877244" />
	</node>
	<node id="9875698278" lat="69.7649786" lon="21.0344171" version="1" timestamp="2022-07-09T04:53:00Z" changeset="123387225" uid="3497659" user="NKA">
		<tag k="alt_name" v="Lyngsmarken" />
		<tag k="name" v="Lyngsmarka" />
		<tag k="place" v="neighbourhood" />
		<tag k="ssr:stedsnr" v="1078135" />
	</node>
	<node id="9875698279" lat="69.8358278" lon="20.5229332" version="1" timestamp="2022-07-09T04:53:00Z" changeset="123387225" uid="3497659" user="NKA">
		<tag k="name" v="Bergheim" />
		<tag k="place" v="farm" />
		<tag k="ssr:stedsnr" v="322999" />
	</node>
	<node id="9875698280" lat="69.7637862" lon="20.4827805" version="1" timestamp="2022-07-09T04:53:00Z" changeset="123387225" uid="3497659" user="NKA">
		<tag k="name" v="Kriken" />
		<tag k="place" v="farm" />
		<tag k="ssr:stedsnr" v="296999" />
	</node>
	<node id="9875698281" lat="69.7936851" lon="21.1030574" version="1" timestamp="2022-07-09T04:53:00Z" changeset="123387225" uid="3497659" user="NKA">
		<tag k="name" v="Løken" />
		<tag k="place" v="farm" />
		<tag k="ssr:stedsnr" v="869215" />
	</node>
	<node id="9875698282" lat="69.7719472" lon="20.5554193" version="1" timestamp="2022-07-09T04:53:00Z" changeset="123387225" uid="3497659" user="NKA">
		<tag k="name" v="Leiknes" />
		<tag k="place" v="farm" />
		<tag k="ssr:stedsnr" v="262943" />
	</node>
	<node id="9875698283" lat="69.7758278" lon="21.0397084" version="1" timestamp="2022-07-09T04:53:00Z" changeset="123387225" uid="3497659" user="NKA">
		<tag k="name" v="Dørme" />
		<tag k="place" v="farm" />
		<tag k="ssr:stedsnr" v="661606" />
	</node>
	<node id="9875698284" lat="69.8380833" lon="20.520489" version="1" timestamp="2022-07-09T04:53:00Z" changeset="123387225" uid="3497659" user="NKA">
		<tag k="name" v="Åsheim" />
		<tag k="place" v="farm" />
		<tag k="ssr:stedsnr" v="80997" />
	</node>
	<node id="9875698285" lat="69.7501109" lon="21.0449144" version="1" timestamp="2022-07-09T04:53:00Z" changeset="123387225" uid="3497659" user="NKA">
		<tag k="name" v="Tømmernes" />
		<tag k="place" v="hamlet" />
		<tag k="ssr:stedsnr" v="721399" />
	</node>
	<node id="9875698286" lat="69.7852314" lon="21.0243169" version="1" timestamp="2022-07-09T04:53:00Z" changeset="123387225" uid="3497659" user="NKA">
		<tag k="name" v="Kippernes" />
		<tag k="place" v="farm" />
		<tag k="ssr:stedsnr" v="964477" />
	</node>
	<node id="9875698287" lat="69.9191686" lon="21.2614935" version="1" timestamp="2022-07-09T04:53:00Z" changeset="123387225" uid="3497659" user="NKA">
		<tag k="loc_name:se" v="Buregieddi" />
		<tag k="name" v="Hamn" />
		<tag k="name:no" v="Hamn" />
		<tag k="place" v="hamlet" />
		<tag k="ssr:stedsnr" v="808850" />
	</node>
	<node id="9875698288" lat="69.7741399" lon="20.9752529" version="1" timestamp="2022-07-09T04:53:00Z" changeset="123387225" uid="3497659" user="NKA">
		<tag k="alt_name:no" v="Leirbukt" />
		<tag k="loc_name:fkv" v="Keväsija" />
		<tag k="loc_name:se" v="Giđđasajji;Giđđasadji" />
		<tag k="name" v="Leirbukta" />
		<tag k="name:no" v="Leirbukta" />
		<tag k="place" v="farm" />
		<tag k="ssr:stedsnr" v="843645" />
	</node>
	<node id="9875698289" lat="69.799462" lon="20.9269456" version="1" timestamp="2022-07-09T04:53:00Z" changeset="123387225" uid="3497659" user="NKA">
		<tag k="name" v="Ytre Sørkjosen" />
		<tag k="place" v="farm" />
		<tag k="ssr:stedsnr" v="565968" />
	</node>
	<node id="9875698290" lat="69.776868" lon="20.9614104" version="1" timestamp="2022-07-09T04:53:00Z" changeset="123387225" uid="3497659" user="NKA">
		<tag k="name" v="Skogly" />
		<tag k="place" v="farm" />
		<tag k="ssr:stedsnr" v="774685" />
	</node>
	<node id="9875698291" lat="69.6728775" lon="21.2585802" version="1" timestamp="2022-07-09T04:53:00Z" changeset="123387225" uid="3497659" user="NKA">
		<tag k="name" v="Kjosvoll" />
		<tag k="place" v="farm" />
		<tag k="ssr:stedsnr" v="687335" />
	</node>
	<node id="9875698292" lat="69.7910502" lon="21.0521105" version="1" timestamp="2022-07-09T04:53:00Z" changeset="123387225" uid="3497659" user="NKA">
		<tag k="alt_name" v="Flatvoll" />
		<tag k="name" v="Flatvollen" />
		<tag k="place" v="hamlet" />
		<tag k="ssr:stedsnr" v="512005" />
	</node>
	<node id="9875698293" lat="69.7782694" lon="20.9619529" version="1" timestamp="2022-07-09T04:53:00Z" changeset="123387225" uid="3497659" user="NKA">
		<tag k="name" v="Solly" />
		<tag k="place" v="farm" />
		<tag k="ssr:stedsnr" v="565930" />
	</node>
	<node id="9875698294" lat="69.7365988" lon="21.1281573" version="1" timestamp="2022-07-09T04:53:00Z" changeset="123387225" uid="3497659" user="NKA">
		<tag k="alt_name" v="Annabakkelva;Annebakkelv" />
		<tag k="name" v="Annabakkelv" />
		<tag k="place" v="farm" />
		<tag k="ssr:stedsnr" v="504704" />
	</node>
	<node id="9875698295" lat="69.7927253" lon="21.1197825" version="1" timestamp="2022-07-09T04:53:00Z" changeset="123387225" uid="3497659" user="NKA">
		<tag k="alt_name" v="Oldervoll" />
		<tag k="name" v="Oldervollen" />
		<tag k="place" v="farm" />
		<tag k="ssr:stedsnr" v="504179" />
	</node>
	<node id="9875698296" lat="69.8674389" lon="20.8932416" version="1" timestamp="2022-07-09T04:53:00Z" changeset="123387225" uid="3497659" user="NKA">
		<tag k="name" v="Bakkesti" />
		<tag k="place" v="farm" />
		<tag k="ssr:stedsnr" v="687491" />
	</node>
	<node id="9875698297" lat="69.8769694" lon="21.0953473" version="1" timestamp="2022-07-09T04:53:00Z" changeset="123387225" uid="3497659" user="NKA">
		<tag k="alt_name" v="Vika" />
		<tag k="name" v="Fallvika" />
		<tag k="place" v="farm" />
		<tag k="ssr:stedsnr" v="673827" />
	</node>
	<node id="9875698298" lat="69.723275" lon="21.0509388" version="1" timestamp="2022-07-09T04:53:00Z" changeset="123387225" uid="3497659" user="NKA">
		<tag k="name" v="Heggenes" />
		<tag k="place" v="farm" />
		<tag k="ssr:stedsnr" v="564676" />
	</node>
	<node id="9875698299" lat="69.7686778" lon="21.0076446" version="1" timestamp="2022-07-09T04:53:00Z" changeset="123387225" uid="3497659" user="NKA">
		<tag k="name" v="Navaren" />
		<tag k="place" v="quarter" />
		<tag k="ssr:stedsnr" v="600606" />
	</node>
	<node id="9875698300" lat="69.7467084" lon="21.1096001" version="1" timestamp="2022-07-09T04:53:00Z" changeset="123387225" uid="3497659" user="NKA">
		<tag k="name" v="Ringstad" />
		<tag k="place" v="farm" />
		<tag k="ssr:stedsnr" v="564728" />
	</node>
	<node id="9875698301" lat="69.7545695" lon="21.0249361" version="1" timestamp="2022-07-09T04:53:00Z" changeset="123387225" uid="3497659" user="NKA">
		<tag k="name" v="Saga" />
		<tag k="place" v="farm" />
		<tag k="ssr:stedsnr" v="478408" />
	</node>
	<node id="9875698302" lat="69.7559006" lon="21.0231981" version="1" timestamp="2022-07-09T04:53:00Z" changeset="123387225" uid="3497659" user="NKA">
		<tag k="name" v="Elvevoll" />
		<tag k="place" v="farm" />
		<tag k="ssr:stedsnr" v="660074" />
	</node>
	<node id="9875698303" lat="69.7809861" lon="20.9619582" version="1" timestamp="2022-07-09T04:53:00Z" changeset="123387225" uid="3497659" user="NKA">
		<tag k="name" v="Bjørkelund" />
		<tag k="place" v="farm" />
		<tag k="ssr:stedsnr" v="626944" />
	</node>
	<node id="9875698304" lat="69.861825" lon="20.8754945" version="1" timestamp="2022-07-09T04:53:00Z" changeset="123387225" uid="3497659" user="NKA">
		<tag k="name" v="Bjørkestad" />
		<tag k="place" v="farm" />
		<tag k="ssr:stedsnr" v="504540" />
	</node>
	<node id="9875698305" lat="69.9652444" lon="21.2160084" version="1" timestamp="2022-07-09T04:53:00Z" changeset="123387225" uid="3497659" user="NKA">
		<tag k="name" v="Molvik" />
		<tag k="place" v="locality" />
		<tag k="ssr:stedsnr" v="329581" />
	</node>
	<node id="9875698306" lat="69.7266723" lon="21.2142077" version="1" timestamp="2022-07-09T04:53:00Z" changeset="123387225" uid="3497659" user="NKA">
		<tag k="name" v="Skogheim" />
		<tag k="place" v="farm" />
		<tag k="ssr:stedsnr" v="525184" />
	</node>
	<node id="9875698307" lat="69.7602385" lon="21.0326028" version="1" timestamp="2022-07-09T04:53:00Z" changeset="123387225" uid="3497659" user="NKA">
		<tag k="alt_name" v="Tomasjord" />
		<tag k="name" v="Tomasjorda" />
		<tag k="place" v="farm" />
		<tag k="ssr:stedsnr" v="419692" />
	</node>
	<node id="9875698308" lat="69.9227331" lon="21.2319639" version="1" timestamp="2022-07-09T04:53:00Z" changeset="123387225" uid="3497659" user="NKA">
		<tag k="name" v="Arneng" />
		<tag k="place" v="hamlet" />
		<tag k="ssr:stedsnr" v="329893" />
	</node>
	<node id="9875698309" lat="69.7691528" lon="21.0163249" version="1" timestamp="2022-07-09T04:53:00Z" changeset="123387225" uid="3497659" user="NKA">
		<tag k="name" v="Arildborg" />
		<tag k="place" v="farm" />
		<tag k="ssr:stedsnr" v="419636" />
	</node>
	<node id="9875698310" lat="69.7589027" lon="21.0224278" version="1" timestamp="2022-07-09T04:53:00Z" changeset="123387225" uid="3497659" user="NKA">
		<tag k="name" v="Sagvollen" />
		<tag k="place" v="farm" />
		<tag k="ssr:stedsnr" v="419691" />
	</node>
	<node id="9875698311" lat="69.7978667" lon="20.7179417" version="1" timestamp="2022-07-09T04:53:00Z" changeset="123387225" uid="3497659" user="NKA">
		<tag k="alt_name" v="Ladevollen" />
		<tag k="name" v="Ladevoll" />
		<tag k="place" v="farm" />
		<tag k="ssr:stedsnr" v="80973" />
	</node>
	<node id="9875698312" lat="69.8360972" lon="20.5198915" version="1" timestamp="2022-07-09T04:53:00Z" changeset="123387225" uid="3497659" user="NKA">
		<tag k="name" v="Báisigieddi" />
		<tag k="name:se" v="Báisigieddi" />
		<tag k="place" v="farm" />
		<tag k="ssr:stedsnr" v="54755" />
	</node>
	<node id="9875698313" lat="69.9043102" lon="21.3489717" version="1" timestamp="2022-07-09T04:53:00Z" changeset="123387225" uid="3497659" user="NKA">
		<tag k="name" v="Lysmen" />
		<tag k="place" v="farm" />
		<tag k="ssr:stedsnr" v="80853" />
	</node>
	<node id="9875698314" lat="69.7728083" lon="20.9814028" version="1" timestamp="2022-07-09T04:53:00Z" changeset="123387225" uid="3497659" user="NKA">
		<tag k="name" v="Fossvoll" />
		<tag k="place" v="farm" />
		<tag k="ssr:stedsnr" v="80917" />
	</node>
	<node id="9875698315" lat="69.9063988" lon="20.9565201" version="1" timestamp="2022-07-09T04:53:00Z" changeset="123387225" uid="3497659" user="NKA">
		<tag k="alt_name" v="Indre Eidet" />
		<tag k="name" v="Eidet" />
		<tag k="place" v="hamlet" />
		<tag k="ssr:stedsnr" v="80568" />
	</node>
	<node id="9875698316" lat="69.7446118" lon="21.1123941" version="1" timestamp="2022-07-09T04:53:00Z" changeset="123387225" uid="3497659" user="NKA">
		<tag k="alt_name:no" v="Snemyra" />
		<tag k="name" v="Snemyr - Muohtajeaggi - Lumijänkkä" />
		<tag k="name:fkv" v="Lumijänkkä" />
		<tag k="name:no" v="Snemyr" />
		<tag k="name:se" v="Muohtajeaggi" />
		<tag k="place" v="hamlet" />
		<tag k="ssr:stedsnr" v="624737" />
	</node>
	<node id="9875715717" lat="69.6571889" lon="21.315486" version="1" timestamp="2022-07-09T04:53:00Z" changeset="123387225" uid="3497659" user="NKA">
		<tag k="name" v="Brattfjell" />
		<tag k="place" v="farm" />
		<tag k="ssr:stedsnr" v="80319" />
	</node>
	<node id="9875715718" lat="69.8209889" lon="21.1676888" version="1" timestamp="2022-07-09T04:53:00Z" changeset="123387225" uid="3497659" user="NKA">
		<tag k="name" v="Nordli" />
		<tag k="place" v="farm" />
		<tag k="ssr:stedsnr" v="80767" />
	</node>
	<node id="9875715719" lat="69.7469194" lon="21.0308278" version="1" timestamp="2022-07-09T04:53:00Z" changeset="123387225" uid="3497659" user="NKA">
		<tag k="name" v="Øya" />
		<tag k="place" v="farm" />
		<tag k="ssr:stedsnr" v="79710" />
	</node>
	<node id="9875715720" lat="69.79295" lon="21.0798389" version="1" timestamp="2022-07-09T04:53:00Z" changeset="123387225" uid="3497659" user="NKA">
		<tag k="name" v="Myrheim" />
		<tag k="place" v="farm" />
		<tag k="ssr:stedsnr" v="383214" />
	</node>
	<node id="9875715721" lat="69.7438862" lon="21.1642889" version="1" timestamp="2022-07-09T04:53:00Z" changeset="123387225" uid="3497659" user="NKA">
		<tag k="name" v="Mølleng" />
		<tag k="place" v="farm" />
		<tag k="ssr:stedsnr" v="358591" />
	</node>
	<node id="9875715722" lat="69.7838543" lon="20.9501787" version="1" timestamp="2022-07-09T04:53:00Z" changeset="123387225" uid="3497659" user="NKA">
		<tag k="name" v="Bjørkely" />
		<tag k="place" v="farm" />
		<tag k="ssr:stedsnr" v="227612" />
	</node>
	<node id="9875715723" lat="69.8888261" lon="21.3584499" version="1" timestamp="2022-07-09T04:53:00Z" changeset="123387225" uid="3497659" user="NKA">
		<tag k="name" v="Nyheim" />
		<tag k="place" v="farm" />
		<tag k="ssr:stedsnr" v="929821" />
	</node>
	<node id="9875715724" lat="69.7729306" lon="20.9775194" version="1" timestamp="2022-07-09T04:53:00Z" changeset="123387225" uid="3497659" user="NKA">
		<tag k="name" v="Solstad" />
		<tag k="place" v="farm" />
		<tag k="ssr:stedsnr" v="201910" />
	</node>
	<node id="9875715725" lat="69.7739229" lon="21.0420752" version="1" timestamp="2022-07-09T04:53:00Z" changeset="123387225" uid="3497659" user="NKA">
		<tag k="name" v="Mælen" />
		<tag k="place" v="farm" />
		<tag k="ssr:stedsnr" v="687440" />
	</node>
	<node id="9875715726" lat="69.7732722" lon="21.0091861" version="1" timestamp="2022-07-09T04:53:00Z" changeset="123387225" uid="3497659" user="NKA">
		<tag k="name" v="Sandøra" />
		<tag k="place" v="farm" />
		<tag k="ssr:stedsnr" v="201905" />
	</node>
	<node id="9875715727" lat="69.9267305" lon="21.2162108" version="1" timestamp="2022-07-09T04:53:00Z" changeset="123387225" uid="3497659" user="NKA">
		<tag k="alt_name" v="Arneng" />
		<tag k="name" v="Ytre Arneng" />
		<tag k="place" v="farm" />
		<tag k="ssr:stedsnr" v="487871" />
	</node>
	<node id="9875715728" lat="69.8389056" lon="20.9249193" version="1" timestamp="2022-07-09T04:53:00Z" changeset="123387225" uid="3497659" user="NKA">
		<tag k="name" v="Nyheim" />
		<tag k="place" v="farm" />
		<tag k="ssr:stedsnr" v="686987" />
	</node>
	<node id="9875715729" lat="69.7402702" lon="21.1460569" version="1" timestamp="2022-07-09T04:53:00Z" changeset="123387225" uid="3497659" user="NKA">
		<tag k="name" v="Ravdilla" />
		<tag k="place" v="locality" />
		<tag k="ssr:stedsnr" v="115547" />
	</node>
	<node id="9875715730" lat="69.8456397" lon="21.2231736" version="1" timestamp="2022-07-09T04:53:00Z" changeset="123387225" uid="3497659" user="NKA">
		<tag k="name" v="Liland" />
		<tag k="place" v="farm" />
		<tag k="ssr:stedsnr" v="383790" />
	</node>
	<node id="9875715731" lat="69.91715" lon="21.2922444" version="1" timestamp="2022-07-09T04:53:00Z" changeset="123387225" uid="3497659" user="NKA">
		<tag k="name" v="Arildseng" />
		<tag k="place" v="hamlet" />
		<tag k="ssr:stedsnr" v="37776" />
	</node>
	<node id="9875715732" lat="69.7492445" lon="21.0559833" version="1" timestamp="2022-07-09T04:53:00Z" changeset="123387225" uid="3497659" user="NKA">
		<tag k="name" v="Nygård" />
		<tag k="place" v="farm" />
		<tag k="ssr:stedsnr" v="140742" />
	</node>
	<node id="9875715733" lat="69.7933289" lon="21.0557344" version="1" timestamp="2022-07-09T04:53:00Z" changeset="123387225" uid="3497659" user="NKA">
		<tag k="name" v="Nordkjosbotn" />
		<tag k="place" v="farm" />
		<tag k="ssr:stedsnr" v="80203" />
	</node>
	<node id="9875715734" lat="69.6777175" lon="21.2365036" version="1" timestamp="2022-07-09T04:53:00Z" changeset="123387225" uid="3497659" user="NKA">
		<tag k="name" v="Holmen" />
		<tag k="place" v="farm" />
		<tag k="ssr:stedsnr" v="383340" />
	</node>
	<node id="9875715735" lat="69.7805917" lon="21.0405194" version="1" timestamp="2022-07-09T04:53:00Z" changeset="123387225" uid="3497659" user="NKA">
		<tag k="name" v="Rovdas" />
		<tag k="place" v="neighbourhood" />
		<tag k="ssr:stedsnr" v="140196" />
	</node>
	<node id="9875715736" lat="69.7413" lon="21.0209862" version="1" timestamp="2022-07-09T04:53:00Z" changeset="123387225" uid="3497659" user="NKA">
		<tag k="name" v="Bakkemo" />
		<tag k="place" v="farm" />
		<tag k="ssr:stedsnr" v="79703" />
	</node>
	<node id="9875715737" lat="69.80035" lon="21.0888999" version="1" timestamp="2022-07-09T04:53:00Z" changeset="123387225" uid="3497659" user="NKA">
		<tag k="name" v="Lyngmo" />
		<tag k="place" v="farm" />
		<tag k="ssr:stedsnr" v="140184" />
	</node>
	<node id="9875715738" lat="69.7407" lon="21.0581973" version="1" timestamp="2022-07-09T04:53:00Z" changeset="123387225" uid="3497659" user="NKA">
		<tag k="name" v="Åsheim" />
		<tag k="place" v="farm" />
		<tag k="ssr:stedsnr" v="79702" />
	</node>
	<node id="9875715739" lat="69.7937528" lon="21.1104778" version="1" timestamp="2022-07-09T04:53:00Z" changeset="123387225" uid="3497659" user="NKA">
		<tag k="name" v="Løkli" />
		<tag k="place" v="farm" />
		<tag k="ssr:stedsnr" v="140189" />
	</node>
	<node id="9875715740" lat="69.7533217" lon="21.0209732" version="1" timestamp="2022-07-09T04:53:00Z" changeset="123387225" uid="3497659" user="NKA">
		<tag k="name" v="Vollstad" />
		<tag k="place" v="farm" />
		<tag k="ssr:stedsnr" v="444197" />
	</node>
	<node id="9875715741" lat="69.7766497" lon="21.0252514" version="1" timestamp="2022-07-09T04:53:00Z" changeset="123387225" uid="3497659" user="NKA">
		<tag k="name" v="Olderskogen" />
		<tag k="place" v="farm" />
		<tag k="ssr:stedsnr" v="54633" />
	</node>
	<node id="9875715742" lat="69.7869555" lon="20.9445744" version="1" timestamp="2022-07-09T04:53:00Z" changeset="123387225" uid="3497659" user="NKA">
		<tag k="name" v="Øvregård" />
		<tag k="place" v="farm" />
		<tag k="ssr:stedsnr" v="19943" />
	</node>
	<node id="9875715743" lat="69.9309995" lon="21.1978662" version="1" timestamp="2022-07-09T04:53:00Z" changeset="123387225" uid="3497659" user="NKA">
		<tag k="alt_name" v="Storeng" />
		<tag k="name" v="Storenga" />
		<tag k="place" v="farm" />
		<tag k="ssr:stedsnr" v="687877" />
	</node>
	<node id="9875715744" lat="69.8907694" lon="21.1918334" version="1" timestamp="2022-07-09T04:53:00Z" changeset="123387225" uid="3497659" user="NKA">
		<tag k="alt_name" v="Gamlevær" />
		<tag k="name" v="Gammelvær" />
		<tag k="place" v="locality" />
		<tag k="ssr:stedsnr" v="262867" />
	</node>
	<node id="9875715745" lat="69.8433033" lon="21.0617577" version="1" timestamp="2022-07-09T04:53:00Z" changeset="123387225" uid="3497659" user="NKA">
		<tag k="name" v="Storvik - Látteluokta - Isolahti" />
		<tag k="name:fkv" v="Isolahti" />
		<tag k="name:no" v="Storvik" />
		<tag k="name:se" v="Látteluokta" />
		<tag k="place" v="hamlet" />
		<tag k="ssr:stedsnr" v="694010" />
	</node>
	<node id="9875715746" lat="69.8718466" lon="21.0637333" version="1" timestamp="2022-07-09T04:53:00Z" changeset="123387225" uid="3497659" user="NKA">
		<tag k="name" v="Stornes" />
		<tag k="place" v="hamlet" />
		<tag k="ssr:stedsnr" v="383824" />
	</node>
	<node id="9875715747" lat="69.8347222" lon="21.0579611" version="1" timestamp="2022-07-09T04:53:00Z" changeset="123387225" uid="3497659" user="NKA">
		<tag k="alt_name" v="Lia" />
		<tag k="name" v="Lian" />
		<tag k="place" v="farm" />
		<tag k="ssr:stedsnr" v="383795" />
	</node>
	<node id="9875715748" lat="69.8957521" lon="21.191588" version="1" timestamp="2022-07-09T04:53:00Z" changeset="123387225" uid="3497659" user="NKA">
		<tag k="name" v="Brattvoll" />
		<tag k="place" v="farm" />
		<tag k="ssr:stedsnr" v="201823" />
	</node>
	<node id="9875715749" lat="69.9140527" lon="21.3229389" version="1" timestamp="2022-07-09T04:53:00Z" changeset="123387225" uid="3497659" user="NKA">
		<tag k="name" v="Nygård" />
		<tag k="place" v="farm" />
		<tag k="ssr:stedsnr" v="869872" />
	</node>
	<node id="9875715750" lat="69.897743" lon="21.3020782" version="1" timestamp="2022-07-09T04:53:00Z" changeset="123387225" uid="3497659" user="NKA">
		<tag k="loc_name:se" v="Láiremohkki" />
		<tag k="name" v="Leirvåg" />
		<tag k="name:no" v="Leirvåg" />
		<tag k="place" v="farm" />
		<tag k="ssr:stedsnr" v="201822" />
	</node>
	<node id="9875715751" lat="69.9346785" lon="21.1869496" version="1" timestamp="2022-07-09T04:53:00Z" changeset="123387225" uid="3497659" user="NKA">
		<tag k="name" v="Nyheim" />
		<tag k="place" v="farm" />
		<tag k="ssr:stedsnr" v="201848" />
	</node>
	<node id="9875715752" lat="69.8397431" lon="21.1465539" version="1" timestamp="2022-07-09T04:53:00Z" changeset="123387225" uid="3497659" user="NKA">
		<tag k="name" v="Vedneset" />
		<tag k="old_name" v="Sverrestad" />
		<tag k="place" v="farm" />
		<tag k="ssr:stedsnr" v="1081553" />
	</node>
	<node id="9875715753" lat="69.8929849" lon="21.325108" version="1" timestamp="2022-07-09T04:53:00Z" changeset="123387225" uid="3497659" user="NKA">
		<tag k="name" v="Myrheim" />
		<tag k="place" v="farm" />
		<tag k="ssr:stedsnr" v="383861" />
	</node>
	<node id="9875715754" lat="69.9005073" lon="21.3781991" version="1" timestamp="2022-07-09T04:53:00Z" changeset="123387225" uid="3497659" user="NKA">
		<tag k="alt_name" v="Oksfjordvannet;Oksfjordvatn" />
		<tag k="name" v="Oksfjordvatnet" />
		<tag k="place" v="farm" />
		<tag k="ssr:stedsnr" v="661918" />
	</node>
	<node id="9875715755" lat="69.9212102" lon="21.2377313" version="1" timestamp="2022-07-09T04:53:00Z" changeset="123387225" uid="3497659" user="NKA">
		<tag k="name" v="Steinnes" />
		<tag k="place" v="isolated_dwelling" />
		<tag k="ssr:stedsnr" v="288037" />
	</node>
	<node id="9875715756" lat="69.8748054" lon="21.1098378" version="1" timestamp="2022-07-09T04:53:00Z" changeset="123387225" uid="3497659" user="NKA">
		<tag k="name" v="Vika" />
		<tag k="place" v="farm" />
		<tag k="ssr:stedsnr" v="1078190" />
	</node>
	<node id="9875715757" lat="69.8777028" lon="21.1302999" version="1" timestamp="2022-07-09T04:53:00Z" changeset="123387225" uid="3497659" user="NKA">
		<tag k="name" v="Steinsvik" />
		<tag k="place" v="hamlet" />
		<tag k="ssr:stedsnr" v="201801" />
	</node>
	<node id="9875715758" lat="69.84225" lon="21.1439112" version="1" timestamp="2022-07-09T04:53:00Z" changeset="123387225" uid="3497659" user="NKA">
		<tag k="name" v="Straumsli" />
		<tag k="place" v="farm" />
		<tag k="ssr:stedsnr" v="868733" />
	</node>
	<node id="9875715759" lat="69.8673888" lon="21.0509995" version="1" timestamp="2022-07-09T04:53:00Z" changeset="123387225" uid="3497659" user="NKA">
		<tag k="name" v="Heimstad" />
		<tag k="place" v="farm" />
		<tag k="ssr:stedsnr" v="201789" />
	</node>
	<node id="9875715760" lat="69.8778783" lon="21.1294533" version="1" timestamp="2022-07-09T04:53:00Z" changeset="123387225" uid="3497659" user="NKA">
		<tag k="name" v="Storvika - Geađemohkki - Kivipahta" />
		<tag k="name:fkv" v="Kivipahta" />
		<tag k="name:no" v="Storvika" />
		<tag k="name:se" v="Geađemohkki" />
		<tag k="place" v="hamlet" />
		<tag k="ssr:stedsnr" v="1077432" />
	</node>
	<node id="9875715761" lat="69.8877003" lon="21.3475421" version="1" timestamp="2022-07-09T04:53:00Z" changeset="123387225" uid="3497659" user="NKA">
		<tag k="name" v="Bjørnnes" />
		<tag k="place" v="farm" />
		<tag k="ssr:stedsnr" v="19827" />
	</node>
	<node id="9875715762" lat="69.8291889" lon="21.1285167" version="1" timestamp="2022-07-09T04:53:00Z" changeset="123387225" uid="3497659" user="NKA">
		<tag k="name" v="Vildenvang" />
		<tag k="place" v="farm" />
		<tag k="ssr:stedsnr" v="869785" />
	</node>
	<node id="9875715763" lat="69.8840908" lon="21.441944" version="1" timestamp="2022-07-09T04:53:00Z" changeset="123387225" uid="3497659" user="NKA">
		<tag k="name" v="Mettevoll" />
		<tag k="old_name" v="Mettevollen;METTEVOLD" />
		<tag k="place" v="farm" />
		<tag k="ssr:stedsnr" v="565832" />
	</node>
	<node id="9875715764" lat="69.9016119" lon="21.3578786" version="1" timestamp="2022-07-09T04:53:00Z" changeset="123387225" uid="3497659" user="NKA">
		<tag k="name" v="Lystad" />
		<tag k="place" v="farm" />
		<tag k="ssr:stedsnr" v="201824" />
	</node>
	<node id="9875715765" lat="69.8654861" lon="21.0397472" version="1" timestamp="2022-07-09T04:53:00Z" changeset="123387225" uid="3497659" user="NKA">
		<tag k="name" v="Oksebukt" />
		<tag k="place" v="isolated_dwelling" />
		<tag k="ssr:stedsnr" v="652699" />
	</node>
	<node id="9875715766" lat="69.8909957" lon="21.3315912" version="1" timestamp="2022-07-09T04:53:00Z" changeset="123387225" uid="3497659" user="NKA">
		<tag k="name" v="Skogli" />
		<tag k="place" v="farm" />
		<tag k="ssr:stedsnr" v="565845" />
	</node>
	<node id="9875715767" lat="69.7998833" lon="21.1177501" version="1" timestamp="2022-07-09T04:53:00Z" changeset="123387225" uid="3497659" user="NKA">
		<tag k="name" v="Kringen" />
		<tag k="place" v="farm" />
		<tag k="ssr:stedsnr" v="929178" />
	</node>
	<node id="9875715768" lat="69.9015544" lon="21.3559294" version="1" timestamp="2022-07-09T04:53:00Z" changeset="123387225" uid="3497659" user="NKA">
		<tag k="name" v="Barstad" />
		<tag k="place" v="farm" />
		<tag k="ssr:stedsnr" v="930854" />
	</node>
	<node id="9875715769" lat="69.8332778" lon="21.056425" version="1" timestamp="2022-07-09T04:53:00Z" changeset="123387225" uid="3497659" user="NKA">
		<tag k="name" v="Skogly" />
		<tag k="place" v="farm" />
		<tag k="ssr:stedsnr" v="904971" />
	</node>
	<node id="9875715770" lat="69.8313528" lon="21.047375" version="1" timestamp="2022-07-09T04:53:00Z" changeset="123387225" uid="3497659" user="NKA">
		<tag k="name" v="Vang" />
		<tag k="place" v="farm" />
		<tag k="ssr:stedsnr" v="843312" />
	</node>
	<node id="9875715771" lat="69.6643444" lon="21.305075" version="1" timestamp="2022-07-09T04:53:00Z" changeset="123387225" uid="3497659" user="NKA">
		<tag k="name" v="Solheim" />
		<tag k="place" v="farm" />
		<tag k="ssr:stedsnr" v="565306" />
	</node>
	<node id="9875715772" lat="69.8365" lon="21.14515" version="1" timestamp="2022-07-09T04:53:00Z" changeset="123387225" uid="3497659" user="NKA">
		<tag k="name" v="Soleng" />
		<tag k="place" v="farm" />
		<tag k="ssr:stedsnr" v="625784" />
	</node>
	<node id="9875715773" lat="69.8987178" lon="21.2893321" version="1" timestamp="2022-07-09T04:53:00Z" changeset="123387225" uid="3497659" user="NKA">
		<tag k="name" v="Hamnes" />
		<tag k="place" v="farm" />
		<tag k="ssr:stedsnr" v="531972" />
	</node>
	<node id="9875715774" lat="69.7425034" lon="21.1564015" version="1" timestamp="2022-07-09T04:53:00Z" changeset="123387225" uid="3497659" user="NKA">
		<tag k="alt_name" v="Hysingjord" />
		<tag k="name" v="Hysingjorda" />
		<tag k="place" v="farm" />
		<tag k="ssr:stedsnr" v="503681" />
	</node>
	<node id="9875715775" lat="69.8526317" lon="21.0589133" version="1" timestamp="2022-07-09T04:53:00Z" changeset="123387225" uid="3497659" user="NKA">
		<tag k="name" v="Ytre Storvik" />
		<tag k="place" v="hamlet" />
		<tag k="ssr:stedsnr" v="834713" />
	</node>
	<node id="9875715776" lat="69.8091167" lon="20.534189" version="1" timestamp="2022-07-09T04:53:00Z" changeset="123387225" uid="3497659" user="NKA">
		<tag k="alt_name" v="Skjellet" />
		<tag k="name" v="Skilet" />
		<tag k="place" v="farm" />
		<tag k="ssr:stedsnr" v="565964" />
	</node>
	<node id="9875715777" lat="69.7623371" lon="20.53867" version="1" timestamp="2022-07-09T04:53:00Z" changeset="123387225" uid="3497659" user="NKA">
		<tag k="name" v="Kolbotn" />
		<tag k="place" v="locality" />
		<tag k="ssr:stedsnr" v="929916" />
	</node>
	<node id="9875715778" lat="69.7905111" lon="20.6668056" version="1" timestamp="2022-07-09T04:53:00Z" changeset="123387225" uid="3497659" user="NKA">
		<tag k="name" v="Eng" />
		<tag k="place" v="farm" />
		<tag k="ssr:stedsnr" v="747943" />
	</node>
	<node id="9875715779" lat="69.7782944" lon="20.5944888" version="1" timestamp="2022-07-09T04:53:00Z" changeset="123387225" uid="3497659" user="NKA">
		<tag k="name" v="Lasletta" />
		<tag k="place" v="farm" />
		<tag k="ssr:stedsnr" v="383956" />
	</node>
	<node id="9875715780" lat="69.8244222" lon="21.0467361" version="1" timestamp="2022-07-09T04:53:00Z" changeset="123387225" uid="3497659" user="NKA">
		<tag k="name" v="Sommersetet" />
		<tag k="place" v="locality" />
		<tag k="ssr:stedsnr" v="357304" />
	</node>
	<node id="9875715781" lat="69.8919194" lon="20.8012695" version="1" timestamp="2022-07-09T04:53:00Z" changeset="123387225" uid="3497659" user="NKA">
		<tag k="name" v="Russelv" />
		<tag k="place" v="locality" />
		<tag k="ssr:stedsnr" v="510155" />
	</node>
	<node id="9875715782" lat="69.7896528" lon="20.5773917" version="1" timestamp="2022-07-09T04:53:00Z" changeset="123387225" uid="3497659" user="NKA">
		<tag k="name" v="Gjerdet" />
		<tag k="place" v="farm" />
		<tag k="ssr:stedsnr" v="383973" />
	</node>
	<node id="9875715783" lat="69.7436354" lon="21.1509542" version="1" timestamp="2022-07-09T04:53:00Z" changeset="123387225" uid="3497659" user="NKA">
		<tag k="name" v="Bakketun" />
		<tag k="place" v="farm" />
		<tag k="ssr:stedsnr" v="443700" />
	</node>
	<node id="9875715784" lat="69.9257305" lon="20.9181362" version="1" timestamp="2022-07-09T04:53:00Z" changeset="123387225" uid="3497659" user="NKA">
		<tag k="name" v="Gråsanden" />
		<tag k="place" v="locality" />
		<tag k="ssr:stedsnr" v="383570" />
	</node>
	<node id="9875715785" lat="69.7868639" lon="20.6360418" version="1" timestamp="2022-07-09T04:53:00Z" changeset="123387225" uid="3497659" user="NKA">
		<tag k="name" v="Haug" />
		<tag k="place" v="farm" />
		<tag k="ssr:stedsnr" v="383952" />
	</node>
	<node id="9875715786" lat="69.856336" lon="21.0514381" version="1" timestamp="2022-07-09T04:53:00Z" changeset="123387225" uid="3497659" user="NKA">
		<tag k="name" v="Trette" />
		<tag k="place" v="farm" />
		<tag k="ssr:stedsnr" v="166710" />
	</node>
	<node id="9875715787" lat="69.8520666" lon="20.8438805" version="1" timestamp="2022-07-09T04:53:00Z" changeset="123387225" uid="3497659" user="NKA">
		<tag k="name" v="Myrenga" />
		<tag k="place" v="farm" />
		<tag k="ssr:stedsnr" v="383543" />
	</node>
	<node id="9875715788" lat="69.8524795" lon="21.0613967" version="1" timestamp="2022-07-09T04:53:00Z" changeset="123387225" uid="3497659" user="NKA">
		<tag k="name" v="Grinde" />
		<tag k="place" v="isolated_dwelling" />
		<tag k="ssr:stedsnr" v="166705" />
	</node>
	<node id="9875715789" lat="69.7885265" lon="20.6969471" version="1" timestamp="2022-07-09T04:53:00Z" changeset="123387225" uid="3497659" user="NKA">
		<tag k="name" v="Dalsletta" />
		<tag k="place" v="farm" />
		<tag k="ssr:stedsnr" v="747939" />
	</node>
	<node id="9875715790" lat="69.5078806" lon="21.4301555" version="1" timestamp="2022-07-09T04:53:00Z" changeset="123387225" uid="3497659" user="NKA">
		<tag k="name" v="Bunta - Puntta" />
		<tag k="name:fkv" v="Puntta" />
		<tag k="name:no" v="Bunta" />
		<tag k="place" v="farm" />
		<tag k="ssr:stedsnr" v="383285" />
	</node>
	<node id="9875715791" lat="69.5598707" lon="21.2944016" version="1" timestamp="2022-07-09T04:53:00Z" changeset="123387225" uid="3497659" user="NKA">
		<tag k="name" v="Lund" />
		<tag k="place" v="farm" />
		<tag k="ssr:stedsnr" v="929242" />
	</node>
	<node id="9875715792" lat="69.8338944" lon="20.5207527" version="1" timestamp="2022-07-09T04:53:00Z" changeset="123387225" uid="3497659" user="NKA">
		<tag k="name" v="Russnes" />
		<tag k="place" v="farm" />
		<tag k="ssr:stedsnr" v="747999" />
	</node>
	<node id="9875715793" lat="69.7837584" lon="20.6210279" version="1" timestamp="2022-07-09T04:53:00Z" changeset="123387225" uid="3497659" user="NKA">
		<tag k="name" v="Nybo" />
		<tag k="place" v="farm" />
		<tag k="ssr:stedsnr" v="262938" />
	</node>
	<node id="9875715794" lat="69.4818212" lon="21.4826128" version="1" timestamp="2022-07-09T04:53:00Z" changeset="123387225" uid="3497659" user="NKA">
		<tag k="name" v="Daleng" />
		<tag k="place" v="locality" />
		<tag k="ssr:stedsnr" v="746691" />
	</node>
	<node id="9875715795" lat="69.9028444" lon="20.8521195" version="1" timestamp="2022-07-09T04:53:00Z" changeset="123387225" uid="3497659" user="NKA">
		<tag k="name" v="Rotnvika" />
		<tag k="place" v="farm" />
		<tag k="ssr:stedsnr" v="80566" />
	</node>
	<node id="9875715796" lat="69.8022064" lon="21.1221074" version="1" timestamp="2022-07-09T04:53:00Z" changeset="123387225" uid="3497659" user="NKA">
		<tag k="name" v="Bakken" />
		<tag k="place" v="farm" />
		<tag k="ssr:stedsnr" v="695232" />
	</node>
	<node id="9875715797" lat="69.7787278" lon="20.5981" version="1" timestamp="2022-07-09T04:53:00Z" changeset="123387225" uid="3497659" user="NKA">
		<tag k="name" v="Bakketun" />
		<tag k="place" v="farm" />
		<tag k="ssr:stedsnr" v="687947" />
	</node>
	<node id="9875715798" lat="69.9192" lon="20.9608026" version="1" timestamp="2022-07-09T04:53:00Z" changeset="123387225" uid="3497659" user="NKA">
		<tag k="name" v="Åsheim" />
		<tag k="place" v="farm" />
		<tag k="ssr:stedsnr" v="747527" />
	</node>
	<node id="9875715799" lat="69.7491511" lon="21.0826311" version="1" timestamp="2022-07-09T04:53:00Z" changeset="123387225" uid="3497659" user="NKA">
		<tag k="alt_name" v="Kråkenes" />
		<tag k="name" v="Krakenes" />
		<tag k="place" v="farm" />
		<tag k="ssr:stedsnr" v="747755" />
	</node>
	<node id="9875715800" lat="69.9249946" lon="21.2216296" version="1" timestamp="2022-07-09T04:53:00Z" changeset="123387225" uid="3497659" user="NKA">
		<tag k="name" v="Leirbakken" />
		<tag k="place" v="farm" />
		<tag k="ssr:stedsnr" v="687875" />
	</node>
	<node id="9875715801" lat="69.8768389" lon="21.047211" version="1" timestamp="2022-07-09T04:53:00Z" changeset="123387225" uid="3497659" user="NKA">
		<tag k="name" v="Storneshamn" />
		<tag k="place" v="locality" />
		<tag k="ssr:stedsnr" v="19820" />
	</node>
	<node id="9875715802" lat="69.8882287" lon="21.1918045" version="1" timestamp="2022-07-09T04:53:00Z" changeset="123387225" uid="3497659" user="NKA">
		<tag k="name" v="Alvestad" />
		<tag k="place" v="farm" />
		<tag k="ssr:stedsnr" v="565838" />
	</node>
	<node id="9875715803" lat="69.7941063" lon="20.7204918" version="1" timestamp="2022-07-09T04:53:00Z" changeset="123387225" uid="3497659" user="NKA">
		<tag k="alt_name" v="Rotsundelven" />
		<tag k="loc_name" v="Rottsundelva" />
		<tag k="name" v="Rotsundelva" />
		<tag k="place" v="farm" />
		<tag k="ssr:stedsnr" v="964255" />
	</node>
	<node id="9875715804" lat="69.859198" lon="21.0512134" version="1" timestamp="2022-07-09T04:53:00Z" changeset="123387225" uid="3497659" user="NKA">
		<tag k="name" v="Myrli" />
		<tag k="place" v="farm" />
		<tag k="ssr:stedsnr" v="505810" />
	</node>
	<node id="9875715805" lat="69.7906346" lon="20.5535907" version="1" timestamp="2022-07-09T04:53:00Z" changeset="123387225" uid="3497659" user="NKA">
		<tag k="name" v="Danskebyvollen" />
		<tag k="place" v="isolated_dwelling" />
		<tag k="ssr:stedsnr" v="693847" />
	</node>
	<node id="9875715806" lat="69.7882138" lon="20.6425666" version="1" timestamp="2022-07-09T04:53:00Z" changeset="123387225" uid="3497659" user="NKA">
		<tag k="name" v="Skog" />
		<tag k="place" v="farm" />
		<tag k="ssr:stedsnr" v="504956" />
	</node>
	<node id="9875715807" lat="69.77295" lon="21.0259083" version="1" timestamp="2022-07-09T04:53:00Z" changeset="123387225" uid="3497659" user="NKA">
		<tag k="name" v="Strand" />
		<tag k="place" v="neighbourhood" />
		<tag k="ssr:stedsnr" v="140204" />
	</node>
	<node id="9875715808" lat="69.9432723" lon="21.0018555" version="1" timestamp="2022-07-09T04:53:00Z" changeset="123387225" uid="3497659" user="NKA">
		<tag k="name" v="Hammarvoll" />
		<tag k="place" v="farm" />
		<tag k="ssr:stedsnr" v="80600" />
	</node>
	<node id="9875715809" lat="69.9377938" lon="21.0388954" version="1" timestamp="2022-07-09T04:53:00Z" changeset="123387225" uid="3497659" user="NKA">
		<tag k="name" v="Finnby" />
		<tag k="place" v="locality" />
		<tag k="ssr:stedsnr" v="651815" />
	</node>
	<node id="9875715810" lat="69.7829292" lon="20.7188313" version="1" timestamp="2022-07-09T04:53:00Z" changeset="123387225" uid="3497659" user="NKA">
		<tag k="name" v="Vonheim" />
		<tag k="place" v="farm" />
		<tag k="ssr:stedsnr" v="323923" />
	</node>
	<node id="9875715811" lat="69.9204694" lon="20.9687833" version="1" timestamp="2022-07-09T04:53:00Z" changeset="123387225" uid="3497659" user="NKA">
		<tag k="name" v="Slettmo" />
		<tag k="place" v="farm" />
		<tag k="ssr:stedsnr" v="565544" />
	</node>
	<node id="9875715812" lat="69.7955083" lon="21.1143082" version="1" timestamp="2022-07-09T04:53:00Z" changeset="123387225" uid="3497659" user="NKA">
		<tag k="alt_name" v="Tretta" />
		<tag k="name" v="Tretten" />
		<tag k="place" v="farm" />
		<tag k="ssr:stedsnr" v="808171" />
	</node>
	<node id="9875715813" lat="69.8561705" lon="21.2318585" version="1" timestamp="2022-07-09T04:53:00Z" changeset="123387225" uid="3497659" user="NKA">
		<tag k="name" v="Rognlund" />
		<tag k="place" v="farm" />
		<tag k="ssr:stedsnr" v="808787" />
	</node>
	<node id="9875715814" lat="69.8566889" lon="20.8452251" version="1" timestamp="2022-07-09T04:53:00Z" changeset="123387225" uid="3497659" user="NKA">
		<tag k="name" v="Midtgård" />
		<tag k="place" v="farm" />
		<tag k="ssr:stedsnr" v="808509" />
	</node>
	<node id="9875715815" lat="69.8505354" lon="20.8486527" version="1" timestamp="2022-07-09T04:53:00Z" changeset="123387225" uid="3497659" user="NKA">
		<tag k="loc_name:se" v="Soakkuvuonna;Soakkuvuotna" />
		<tag k="name" v="Bakkeby - Sinjárga - Sokkuvuono" />
		<tag k="name:fkv" v="Sokkuvuono" />
		<tag k="name:no" v="Bakkeby" />
		<tag k="name:se" v="Sinjárga" />
		<tag k="place" v="hamlet" />
		<tag k="ssr:stedsnr" v="322526" />
	</node>
	<node id="9875715816" lat="69.7702083" lon="20.7223195" version="1" timestamp="2022-07-09T04:53:00Z" changeset="123387225" uid="3497659" user="NKA">
		<tag k="name" v="Rotsunddalen" />
		<tag k="place" v="farm" />
		<tag k="ssr:stedsnr" v="297226" />
	</node>
	<node id="9875715817" lat="69.7649861" lon="20.4916639" version="1" timestamp="2022-07-09T04:53:00Z" changeset="123387225" uid="3497659" user="NKA">
		<tag k="name" v="Ågekjerran" />
		<tag k="place" v="farm" />
		<tag k="ssr:stedsnr" v="782996" />
	</node>
	<node id="9875715818" lat="69.8193547" lon="20.7737971" version="1" timestamp="2022-07-09T04:53:00Z" changeset="123387225" uid="3497659" user="NKA">
		<tag k="alt_name" v="Langslett" />
		<tag k="name" v="Langsletta" />
		<tag k="place" v="farm" />
		<tag k="ssr:stedsnr" v="262986" />
	</node>
	<node id="9875715819" lat="69.9216056" lon="20.9853583" version="1" timestamp="2022-07-09T04:53:00Z" changeset="123387225" uid="3497659" user="NKA">
		<tag k="name" v="Mattisnes" />
		<tag k="place" v="locality" />
		<tag k="ssr:stedsnr" v="349811" />
	</node>
	<node id="9875715820" lat="69.7867881" lon="20.7153134" version="1" timestamp="2022-07-09T04:53:00Z" changeset="123387225" uid="3497659" user="NKA">
		<tag k="name" v="Rotsunddalen" />
		<tag k="place" v="farm" />
		<tag k="ssr:stedsnr" v="262959" />
	</node>
	<node id="9875715821" lat="69.7994332" lon="21.1236767" version="1" timestamp="2022-07-09T04:53:00Z" changeset="123387225" uid="3497659" user="NKA">
		<tag k="loc_name:fkv" v="Runka" />
		<tag k="loc_name:se" v="Roggi" />
		<tag k="name" v="Tretten" />
		<tag k="name:no" v="Tretten" />
		<tag k="place" v="hamlet" />
		<tag k="ssr:stedsnr" v="756856" />
	</node>
	<node id="9875715822" lat="69.9092991" lon="21.3276369" version="1" timestamp="2022-07-09T04:53:00Z" changeset="123387225" uid="3497659" user="NKA">
		<tag k="name" v="Sandbukt" />
		<tag k="place" v="farm" />
		<tag k="ssr:stedsnr" v="755274" />
	</node>
	<node id="9875715823" lat="69.776575" lon="20.7247444" version="1" timestamp="2022-07-09T04:53:00Z" changeset="123387225" uid="3497659" user="NKA">
		<tag k="name" v="Lundemo" />
		<tag k="place" v="farm" />
		<tag k="ssr:stedsnr" v="262936" />
	</node>
	<node id="9875715824" lat="69.89785" lon="20.9353472" version="1" timestamp="2022-07-09T04:53:00Z" changeset="123387225" uid="3497659" user="NKA">
		<tag k="name" v="Rakto" />
		<tag k="place" v="locality" />
		<tag k="ssr:stedsnr" v="19535" />
	</node>
	<node id="9875715825" lat="69.9262395" lon="20.944966" version="1" timestamp="2022-07-09T04:53:00Z" changeset="123387225" uid="3497659" user="NKA">
		<tag k="name" v="Nylund" />
		<tag k="place" v="farm" />
		<tag k="ssr:stedsnr" v="140518" />
	</node>
	<node id="9875715826" lat="69.8573416" lon="20.7642861" version="1" timestamp="2022-07-09T04:53:00Z" changeset="123387225" uid="3497659" user="NKA">
		<tag k="name" v="Storberget" />
		<tag k="place" v="farm" />
		<tag k="ssr:stedsnr" v="146787" />
	</node>
	<node id="9875715827" lat="69.8583694" lon="20.8564777" version="1" timestamp="2022-07-09T04:53:00Z" changeset="123387225" uid="3497659" user="NKA">
		<tag k="name" v="Nyeng" />
		<tag k="place" v="farm" />
		<tag k="ssr:stedsnr" v="686533" />
	</node>
	<node id="9875715828" lat="69.9408614" lon="20.9945099" version="1" timestamp="2022-07-09T04:53:00Z" changeset="123387225" uid="3497659" user="NKA">
		<tag k="name" v="Mikkelvika" />
		<tag k="place" v="farm" />
		<tag k="ssr:stedsnr" v="808585" />
	</node>
	<node id="9875715829" lat="69.8228584" lon="20.7811723" version="1" timestamp="2022-07-09T04:53:00Z" changeset="123387225" uid="3497659" user="NKA">
		<tag k="name" v="Brustad" />
		<tag k="place" v="farm" />
		<tag k="ssr:stedsnr" v="383978" />
	</node>
	<node id="9875715830" lat="69.9271949" lon="20.9344229" version="1" timestamp="2022-07-09T04:53:00Z" changeset="123387225" uid="3497659" user="NKA">
		<tag k="name" v="Klokkarvollen" />
		<tag k="place" v="farm" />
		<tag k="ssr:stedsnr" v="45760" />
	</node>
	<node id="9875715831" lat="69.6250111" lon="21.3156778" version="1" timestamp="2022-07-09T04:53:00Z" changeset="123387225" uid="3497659" user="NKA">
		<tag k="name" v="Nyheim" />
		<tag k="place" v="farm" />
		<tag k="ssr:stedsnr" v="383383" />
	</node>
	<node id="9875715832" lat="69.5991916" lon="21.3072026" version="1" timestamp="2022-07-09T04:53:00Z" changeset="123387225" uid="3497659" user="NKA">
		<tag k="name" v="Mariastilla" />
		<tag k="place" v="farm" />
		<tag k="ssr:stedsnr" v="383370" />
	</node>
	<node id="9875715833" lat="69.6800444" lon="21.2309084" version="1" timestamp="2022-07-09T04:53:00Z" changeset="123387225" uid="3497659" user="NKA">
		<tag k="name" v="Olsborg" />
		<tag k="place" v="farm" />
		<tag k="ssr:stedsnr" v="383341" />
	</node>
	<node id="9875715834" lat="69.9477943" lon="21.069138" version="1" timestamp="2022-07-09T04:53:00Z" changeset="123387225" uid="3497659" user="NKA">
		<tag k="name" v="Seglnesbukta" />
		<tag k="place" v="locality" />
		<tag k="ssr:stedsnr" v="1078198" />
	</node>
	<node id="9875715835" lat="69.7865056" lon="20.6332334" version="1" timestamp="2022-07-09T04:53:00Z" changeset="123387225" uid="3497659" user="NKA">
		<tag k="name" v="Heimstad" />
		<tag k="place" v="farm" />
		<tag k="ssr:stedsnr" v="869938" />
	</node>
	<node id="9875715836" lat="69.8563139" lon="20.7677527" version="1" timestamp="2022-07-09T04:53:00Z" changeset="123387225" uid="3497659" user="NKA">
		<tag k="name" v="Syrstad" />
		<tag k="place" v="farm" />
		<tag k="ssr:stedsnr" v="201492" />
	</node>
	<node id="9875715837" lat="69.9401333" lon="21.0567639" version="1" timestamp="2022-07-09T04:53:00Z" changeset="123387225" uid="3497659" user="NKA">
		<tag k="loc_name:se" v="Givggas" />
		<tag k="name" v="Geokkas" />
		<tag k="name:no" v="Geokkas" />
		<tag k="place" v="locality" />
		<tag k="ssr:stedsnr" v="409803" />
	</node>
	<node id="9875715838" lat="69.7759444" lon="20.5835721" version="1" timestamp="2022-07-09T04:53:00Z" changeset="123387225" uid="3497659" user="NKA">
		<tag k="name" v="Seljevoll" />
		<tag k="place" v="farm" />
		<tag k="ssr:stedsnr" v="869942" />
	</node>
	<node id="9875715839" lat="69.9052694" lon="20.9494834" version="1" timestamp="2022-07-09T04:53:00Z" changeset="123387225" uid="3497659" user="NKA">
		<tag k="name" v="Gammelgården" />
		<tag k="place" v="farm" />
		<tag k="ssr:stedsnr" v="418716" />
	</node>
	<node id="9875715840" lat="69.8116527" lon="20.7568223" version="1" timestamp="2022-07-09T04:53:00Z" changeset="123387225" uid="3497659" user="NKA">
		<tag k="name" v="Myre" />
		<tag k="place" v="farm" />
		<tag k="ssr:stedsnr" v="201976" />
	</node>
	<node id="9875715841" lat="69.7689417" lon="20.7277249" version="1" timestamp="2022-07-09T04:53:00Z" changeset="123387225" uid="3497659" user="NKA">
		<tag k="name" v="Nyheim" />
		<tag k="place" v="farm" />
		<tag k="ssr:stedsnr" v="201936" />
	</node>
	<node id="9875715842" lat="69.8456111" lon="20.8537055" version="1" timestamp="2022-07-09T04:53:00Z" changeset="123387225" uid="3497659" user="NKA">
		<tag k="name" v="Bekkevoll" />
		<tag k="place" v="farm" />
		<tag k="ssr:stedsnr" v="868980" />
	</node>
	<node id="9875715843" lat="69.7870347" lon="20.7014047" version="1" timestamp="2022-07-09T04:53:00Z" changeset="123387225" uid="3497659" user="NKA">
		<tag k="alt_name" v="Rotsundelva, store" />
		<tag k="name" v="Store Rotsundelva" />
		<tag k="place" v="farm" />
		<tag k="ssr:stedsnr" v="808939" />
	</node>
	<node id="9875715844" lat="69.7881406" lon="20.6403788" version="1" timestamp="2022-07-09T04:53:00Z" changeset="123387225" uid="3497659" user="NKA">
		<tag k="alt_name" v="Bjørklund" />
		<tag k="name" v="Boyahuset" />
		<tag k="place" v="farm" />
		<tag k="ssr:stedsnr" v="1073118" />
	</node>
	<node id="9875715845" lat="69.7315679" lon="21.0394665" version="1" timestamp="2022-07-09T04:53:00Z" changeset="123387225" uid="3497659" user="NKA">
		<tag k="name" v="Haugland" />
		<tag k="place" v="farm" />
		<tag k="ssr:stedsnr" v="686701" />
	</node>
	<node id="9875715846" lat="69.9277786" lon="20.9481721" version="1" timestamp="2022-07-09T04:53:00Z" changeset="123387225" uid="3497659" user="NKA">
		<tag k="name" v="Hamn" />
		<tag k="place" v="farm" />
		<tag k="ssr:stedsnr" v="535166" />
	</node>
	<node id="9875715847" lat="69.7984583" lon="21.0955389" version="1" timestamp="2022-07-09T04:53:00Z" changeset="123387225" uid="3497659" user="NKA">
		<tag k="name" v="Skogbakken" />
		<tag k="place" v="locality" />
		<tag k="ssr:stedsnr" v="686185" />
	</node>
	<node id="9875715848" lat="69.7954722" lon="20.7170944" version="1" timestamp="2022-07-09T04:53:00Z" changeset="123387225" uid="3497659" user="NKA">
		<tag k="name" v="Fagerli" />
		<tag k="place" v="farm" />
		<tag k="ssr:stedsnr" v="869969" />
	</node>
	<node id="9875715849" lat="69.7810212" lon="20.7079829" version="1" timestamp="2022-07-09T04:53:00Z" changeset="123387225" uid="3497659" user="NKA">
		<tag k="alt_name" v="Solhaug" />
		<tag k="name" v="Solhaugen" />
		<tag k="place" v="farm" />
		<tag k="ssr:stedsnr" v="747920" />
	</node>
	<node id="9875715850" lat="69.7735389" lon="20.7247639" version="1" timestamp="2022-07-09T04:53:00Z" changeset="123387225" uid="3497659" user="NKA">
		<tag k="name" v="Elvevoll" />
		<tag k="place" v="farm" />
		<tag k="ssr:stedsnr" v="869931" />
	</node>
	<node id="9875715851" lat="69.9204833" lon="20.976461" version="1" timestamp="2022-07-09T04:53:00Z" changeset="123387225" uid="3497659" user="NKA">
		<tag k="name" v="Utleira" />
		<tag k="place" v="farm" />
		<tag k="ssr:stedsnr" v="201512" />
	</node>
	<node id="9875715852" lat="69.9178694" lon="20.96295" version="1" timestamp="2022-07-09T04:53:00Z" changeset="123387225" uid="3497659" user="NKA">
		<tag k="name" v="Leiros" />
		<tag k="place" v="farm" />
		<tag k="ssr:stedsnr" v="565536" />
	</node>
	<node id="9875715853" lat="69.9265444" lon="20.9221528" version="1" timestamp="2022-07-09T04:53:00Z" changeset="123387225" uid="3497659" user="NKA">
		<tag k="name" v="Bakkemo" />
		<tag k="place" v="farm" />
		<tag k="ssr:stedsnr" v="201508" />
	</node>
	<node id="9875715854" lat="69.9220738" lon="20.9885197" version="1" timestamp="2022-07-09T04:53:00Z" changeset="123387225" uid="3497659" user="NKA">
		<tag k="alt_name" v="Indreidet;Eidet Indre" />
		<tag k="name" v="Indre Eidet" />
		<tag k="place" v="farm" />
		<tag k="ssr:stedsnr" v="201513" />
	</node>
	<node id="9875715855" lat="69.9388631" lon="21.0440246" version="1" timestamp="2022-07-09T04:53:00Z" changeset="123387225" uid="3497659" user="NKA">
		<tag k="alt_name" v="Eidet, Ytre" />
		<tag k="name" v="Ytre Eidet" />
		<tag k="place" v="farm" />
		<tag k="ssr:stedsnr" v="140869" />
	</node>
	<node id="9875715856" lat="69.7742543" lon="21.0501802" version="1" timestamp="2022-07-09T04:53:00Z" changeset="123387225" uid="3497659" user="NKA">
		<tag k="name" v="Holtet" />
		<tag k="place" v="farm" />
		<tag k="ssr:stedsnr" v="929196" />
	</node>
	<node id="9875715857" lat="69.7583556" lon="21.0333499" version="1" timestamp="2022-07-09T04:53:00Z" changeset="123387225" uid="3497659" user="NKA">
		<tag k="name" v="Nylund" />
		<tag k="place" v="farm" />
		<tag k="ssr:stedsnr" v="687215" />
	</node>
	<node id="9875715858" lat="69.8457333" lon="20.7942361" version="1" timestamp="2022-07-09T04:53:00Z" changeset="123387225" uid="3497659" user="NKA">
		<tag k="name" v="Eidebukta" />
		<tag k="place" v="farm" />
		<tag k="ssr:stedsnr" v="686993" />
	</node>
	<node id="9875715859" lat="69.8203362" lon="20.887239" version="1" timestamp="2022-07-09T04:53:00Z" changeset="123387225" uid="3497659" user="NKA">
		<tag k="alt_name" v="Sokkelvika, in" />
		<tag k="name" v="Indre Sokkelvika" />
		<tag k="place" v="farm" />
		<tag k="ssr:stedsnr" v="322976" />
	</node>
	<node id="9875715860" lat="69.5144139" lon="21.4098305" version="1" timestamp="2022-07-09T04:53:00Z" changeset="123387225" uid="3497659" user="NKA">
		<tag k="name" v="Vangen" />
		<tag k="place" v="farm" />
		<tag k="ssr:stedsnr" v="929231" />
	</node>
	<node id="9875715861" lat="69.8097111" lon="20.6816138" version="1" timestamp="2022-07-09T04:53:00Z" changeset="123387225" uid="3497659" user="NKA">
		<tag k="name" v="Rødberg" />
		<tag k="place" v="locality" />
		<tag k="ssr:stedsnr" v="565955" />
	</node>
	<node id="9875715862" lat="69.5216301" lon="21.3836529" version="1" timestamp="2022-07-09T04:53:00Z" changeset="123387225" uid="3497659" user="NKA">
		<tag k="name" v="Hellighesja" />
		<tag k="place" v="farm" />
		<tag k="ssr:stedsnr" v="808229" />
	</node>
	<node id="9875715863" lat="69.8291785" lon="20.7850308" version="1" timestamp="2022-07-09T04:53:00Z" changeset="123387225" uid="3497659" user="NKA">
		<tag k="alt_name" v="Ravelseidet, in;Ravelseidet indre" />
		<tag k="name" v="Indre Ravelseidet" />
		<tag k="place" v="farm" />
		<tag k="ssr:stedsnr" v="565997" />
	</node>
	<node id="9875715864" lat="69.8249417" lon="20.7845999" version="1" timestamp="2022-07-09T04:53:00Z" changeset="123387225" uid="3497659" user="NKA">
		<tag k="name" v="Myrland" />
		<tag k="place" v="farm" />
		<tag k="ssr:stedsnr" v="504977" />
	</node>
	<node id="9875715865" lat="69.5029722" lon="21.4597167" version="1" timestamp="2022-07-09T04:53:00Z" changeset="123387225" uid="3497659" user="NKA">
		<tag k="alt_name" v="Bjørkli" />
		<tag k="name" v="Bjørkly" />
		<tag k="place" v="farm" />
		<tag k="ssr:stedsnr" v="929230" />
	</node>
	<node id="9875715866" lat="69.7287056" lon="21.0425221" version="1" timestamp="2022-07-09T04:53:00Z" changeset="123387225" uid="3497659" user="NKA">
		<tag k="name" v="Nesmo" />
		<tag k="place" v="farm" />
		<tag k="ssr:stedsnr" v="747690" />
	</node>
	<node id="9875715867" lat="69.8073689" lon="20.7479471" version="1" timestamp="2022-07-09T04:53:00Z" changeset="123387225" uid="3497659" user="NKA">
		<tag k="name" v="Langlia" />
		<tag k="place" v="farm" />
		<tag k="ssr:stedsnr" v="565442" />
	</node>
	<node id="9875715868" lat="69.4973555" lon="21.4425554" version="1" timestamp="2022-07-09T04:53:00Z" changeset="123387225" uid="3497659" user="NKA">
		<tag k="name" v="Puntafoss - Puntankoski" />
		<tag k="name:fkv" v="Puntankoski" />
		<tag k="name:no" v="Puntafoss" />
		<tag k="place" v="isolated_dwelling" />
		<tag k="ssr:stedsnr" v="746665" />
	</node>
	<node id="9875715869" lat="69.8479667" lon="20.7922834" version="1" timestamp="2022-07-09T04:53:00Z" changeset="123387225" uid="3497659" user="NKA">
		<tag k="name" v="Bergheim" />
		<tag k="place" v="farm" />
		<tag k="ssr:stedsnr" v="564530" />
	</node>
	<node id="9875715870" lat="69.7876861" lon="20.715664" version="1" timestamp="2022-07-09T04:53:00Z" changeset="123387225" uid="3497659" user="NKA">
		<tag k="alt_name" v="Rotsundelva, l" />
		<tag k="name" v="Lille Rotsundelva" />
		<tag k="place" v="farm" />
		<tag k="ssr:stedsnr" v="626962" />
	</node>
	<node id="9875715871" lat="69.5815944" lon="21.2466638" version="1" timestamp="2022-07-09T04:53:00Z" changeset="123387225" uid="3497659" user="NKA">
		<tag k="alt_name" v="Bergskog øvre" />
		<tag k="name" v="Bergskog" />
		<tag k="place" v="farm" />
		<tag k="ssr:stedsnr" v="747337" />
	</node>
	<node id="9875715872" lat="69.8077916" lon="20.6559915" version="1" timestamp="2022-07-09T04:53:00Z" changeset="123387225" uid="3497659" user="NKA">
		<tag k="name" v="Leirnes" />
		<tag k="place" v="locality" />
		<tag k="ssr:stedsnr" v="935153" />
	</node>
	<node id="9875715873" lat="69.68665" lon="21.2414972" version="1" timestamp="2022-07-09T04:53:00Z" changeset="123387225" uid="3497659" user="NKA">
		<tag k="name" v="Potkaelv" />
		<tag k="place" v="farm" />
		<tag k="ssr:stedsnr" v="686314" />
	</node>
	<node id="9875715874" lat="69.7763083" lon="20.5883527" version="1" timestamp="2022-07-09T04:53:00Z" changeset="123387225" uid="3497659" user="NKA">
		<tag k="name" v="Bakkejorda" />
		<tag k="place" v="farm" />
		<tag k="ssr:stedsnr" v="626960" />
	</node>
	<node id="9875715875" lat="69.7824861" lon="20.6143112" version="1" timestamp="2022-07-09T04:53:00Z" changeset="123387225" uid="3497659" user="NKA">
		<tag k="name" v="Nordregård" />
		<tag k="place" v="farm" />
		<tag k="ssr:stedsnr" v="626959" />
	</node>
	<node id="9875715876" lat="69.8170167" lon="20.7712028" version="1" timestamp="2022-07-09T04:53:00Z" changeset="123387225" uid="3497659" user="NKA">
		<tag k="name" v="Fagerheim" />
		<tag k="place" v="farm" />
		<tag k="ssr:stedsnr" v="929981" />
	</node>
	<node id="9875715877" lat="69.8605361" lon="20.8685918" version="1" timestamp="2022-07-09T04:53:00Z" changeset="123387225" uid="3497659" user="NKA">
		<tag k="name" v="Nyheim" />
		<tag k="place" v="farm" />
		<tag k="ssr:stedsnr" v="625518" />
	</node>
	<node id="9875715878" lat="69.6555611" lon="21.3081166" version="1" timestamp="2022-07-09T04:53:00Z" changeset="123387225" uid="3497659" user="NKA">
		<tag k="alt_name" v="Gæira" />
		<tag k="name" v="Geira" />
		<tag k="place" v="farm" />
		<tag k="ssr:stedsnr" v="505336" />
	</node>
	<node id="9875715879" lat="69.8634885" lon="20.8828834" version="1" timestamp="2022-07-09T04:53:00Z" changeset="123387225" uid="3497659" user="NKA">
		<tag k="name" v="Bukta" />
		<tag k="place" v="farm" />
		<tag k="ssr:stedsnr" v="929513" />
	</node>
	<node id="9875715880" lat="69.814075" lon="20.7622305" version="1" timestamp="2022-07-09T04:53:00Z" changeset="123387225" uid="3497659" user="NKA">
		<tag k="name" v="Myrli" />
		<tag k="place" v="farm" />
		<tag k="ssr:stedsnr" v="625982" />
	</node>
	<node id="9875715881" lat="69.6366889" lon="21.2890972" version="1" timestamp="2022-07-09T04:53:00Z" changeset="123387225" uid="3497659" user="NKA">
		<tag k="name" v="Fjellstad" />
		<tag k="place" v="farm" />
		<tag k="ssr:stedsnr" v="383386" />
	</node>
	<node id="9875715882" lat="69.7210643" lon="21.2239915" version="1" timestamp="2022-07-09T04:53:00Z" changeset="123387225" uid="3497659" user="NKA">
		<tag k="name" v="Baskabut" />
		<tag k="place" v="farm" />
		<tag k="ssr:stedsnr" v="904760" />
	</node>
	<node id="9875715883" lat="69.6092917" lon="21.2576111" version="1" timestamp="2022-07-09T04:53:00Z" changeset="123387225" uid="3497659" user="NKA">
		<tag k="name" v="Fjellheim" />
		<tag k="place" v="isolated_dwelling" />
		<tag k="ssr:stedsnr" v="383380" />
	</node>
	<node id="9875715884" lat="69.8973278" lon="21.2003194" version="1" timestamp="2022-07-09T04:53:00Z" changeset="123387225" uid="3497659" user="NKA">
		<tag k="alt_name" v="Straumfjord n" />
		<tag k="name" v="Nordre Straumfjord" />
		<tag k="place" v="farm" />
		<tag k="ssr:stedsnr" v="903285" />
	</node>
	<node id="9875715885" lat="69.6050417" lon="21.2537001" version="1" timestamp="2022-07-09T04:53:00Z" changeset="123387225" uid="3497659" user="NKA">
		<tag k="name" v="Liland" />
		<tag k="place" v="hamlet" />
		<tag k="ssr:stedsnr" v="323359" />
	</node>
	<node id="9875715886" lat="69.5168278" lon="21.3969582" version="1" timestamp="2022-07-09T04:53:00Z" changeset="123387225" uid="3497659" user="NKA">
		<tag k="name" v="Svartfosslandet" />
		<tag k="place" v="farm" />
		<tag k="ssr:stedsnr" v="383281" />
	</node>
	<node id="9875715887" lat="69.8519797" lon="21.2275118" version="1" timestamp="2022-07-09T04:53:00Z" changeset="123387225" uid="3497659" user="NKA">
		<tag k="alt_name" v="Elveslett" />
		<tag k="name" v="Elvesletta" />
		<tag k="place" v="farm" />
		<tag k="ssr:stedsnr" v="323781" />
	</node>
	<node id="9875715888" lat="69.6200174" lon="21.2952269" version="1" timestamp="2022-07-09T04:53:00Z" changeset="123387225" uid="3497659" user="NKA">
		<tag k="name" v="Rognmo" />
		<tag k="place" v="farm" />
		<tag k="ssr:stedsnr" v="323356" />
	</node>
	<node id="9875715889" lat="69.8423889" lon="20.9414195" version="1" timestamp="2022-07-09T04:53:00Z" changeset="123387225" uid="3497659" user="NKA">
		<tag k="name" v="Sokkelnes" />
		<tag k="place" v="farm" />
		<tag k="ssr:stedsnr" v="322980" />
	</node>
	<node id="9875715890" lat="69.7846333" lon="20.7059083" version="1" timestamp="2022-07-09T04:53:00Z" changeset="123387225" uid="3497659" user="NKA">
		<tag k="name" v="Solvang" />
		<tag k="place" v="farm" />
		<tag k="ssr:stedsnr" v="323948" />
	</node>
	<node id="9875715891" lat="69.8093139" lon="20.7505416" version="1" timestamp="2022-07-09T04:53:00Z" changeset="123387225" uid="3497659" user="NKA">
		<tag k="name" v="Myrenga" />
		<tag k="place" v="farm" />
		<tag k="ssr:stedsnr" v="687959" />
	</node>
	<node id="9875715892" lat="69.8411083" lon="21.0620554" version="1" timestamp="2022-07-09T04:53:00Z" changeset="123387225" uid="3497659" user="NKA">
		<tag k="name" v="Fjellstad" />
		<tag k="place" v="farm" />
		<tag k="ssr:stedsnr" v="322755" />
	</node>
	<node id="9875715893" lat="69.7897314" lon="20.9496893" version="1" timestamp="2022-07-09T04:53:00Z" changeset="123387225" uid="3497659" user="NKA">
		<tag k="name" v="Baisit" />
		<tag k="place" v="isolated_dwelling" />
		<tag k="ssr:stedsnr" v="956686" />
	</node>
	<node id="9875715894" lat="69.7722278" lon="20.55615" version="1" timestamp="2022-07-09T04:53:00Z" changeset="123387225" uid="3497659" user="NKA">
		<tag k="alt_name" v="Byarnes;Biarneset" />
		<tag k="name" v="Biarnes" />
		<tag k="place" v="farm" />
		<tag k="ssr:stedsnr" v="323933" />
	</node>
	<node id="9875715895" lat="69.6133264" lon="21.2883253" version="1" timestamp="2022-07-09T04:53:00Z" changeset="123387225" uid="3497659" user="NKA">
		<tag k="alt_name" v="Bergbukt" />
		<tag k="name" v="Bergebukta" />
		<tag k="place" v="farm" />
		<tag k="ssr:stedsnr" v="80369" />
	</node>
	<node id="9875715896" lat="69.8204703" lon="20.7795007" version="1" timestamp="2022-07-09T04:53:00Z" changeset="123387225" uid="3497659" user="NKA">
		<tag k="alt_name" v="Langslett" />
		<tag k="name" v="Langsletta" />
		<tag k="place" v="hamlet" />
		<tag k="ssr:stedsnr" v="140971" />
	</node>
	<node id="9875715897" lat="69.7485355" lon="21.1046011" version="1" timestamp="2022-07-09T04:53:00Z" changeset="123387225" uid="3497659" user="NKA">
		<tag k="name" v="Andsjøen" />
		<tag k="place" v="farm" />
		<tag k="ssr:stedsnr" v="929739" />
	</node>
	<node id="9875715898" lat="69.7775272" lon="20.7170625" version="1" timestamp="2022-07-09T04:53:00Z" changeset="123387225" uid="3497659" user="NKA">
		<tag k="name" v="Bjørkelund" />
		<tag k="place" v="hamlet" />
		<tag k="ssr:stedsnr" v="140928" />
	</node>
	<node id="9875715899" lat="69.9232188" lon="21.2285084" version="1" timestamp="2022-07-09T04:53:00Z" changeset="123387225" uid="3497659" user="NKA">
		<tag k="name" v="Rydeng" />
		<tag k="place" v="isolated_dwelling" />
		<tag k="ssr:stedsnr" v="808855" />
	</node>
	<node id="9875715900" lat="69.7715277" lon="20.7270694" version="1" timestamp="2022-07-09T04:53:00Z" changeset="123387225" uid="3497659" user="NKA">
		<tag k="name" v="Lund" />
		<tag k="place" v="hamlet" />
		<tag k="ssr:stedsnr" v="140939" />
	</node>
	<node id="9875715901" lat="69.8095584" lon="20.6706835" version="1" timestamp="2022-07-09T04:53:00Z" changeset="123387225" uid="3497659" user="NKA">
		<tag k="name" v="Skognes" />
		<tag k="place" v="locality" />
		<tag k="ssr:stedsnr" v="85124" />
	</node>
	<node id="9875715902" lat="69.7663973" lon="21.0523945" version="1" timestamp="2022-07-09T04:53:00Z" changeset="123387225" uid="3497659" user="NKA">
		<tag k="name" v="Lunde" />
		<tag k="place" v="quarter" />
		<tag k="ssr:stedsnr" v="309948" />
	</node>
	<node id="9875715903" lat="69.8750723" lon="21.4160222" version="1" timestamp="2022-07-09T04:53:00Z" changeset="123387225" uid="3497659" user="NKA">
		<tag k="name" v="Elvebakken" />
		<tag k="name:se" v="Elvebakken" />
		<tag k="place" v="farm" />
		<tag k="ssr:stedsnr" v="297997" />
	</node>
	<node id="9875715904" lat="69.8135861" lon="20.7614058" version="1" timestamp="2022-07-09T04:53:00Z" changeset="123387225" uid="3497659" user="NKA">
		<tag k="name" v="Myrsletta" />
		<tag k="place" v="isolated_dwelling" />
		<tag k="ssr:stedsnr" v="45671" />
	</node>
	<node id="9875715905" lat="69.6039916" lon="21.2427084" version="1" timestamp="2022-07-09T04:53:00Z" changeset="123387225" uid="3497659" user="NKA">
		<tag k="alt_name" v="Øvrebukta" />
		<tag k="name" v="Øverbukt" />
		<tag k="place" v="farm" />
		<tag k="ssr:stedsnr" v="201338" />
	</node>
	<node id="9875715906" lat="69.6972439" lon="21.229475" version="1" timestamp="2022-07-09T04:53:00Z" changeset="123387225" uid="3497659" user="NKA">
		<tag k="loc_name:fkv" v="Kellari" />
		<tag k="loc_name:se" v="Geallir" />
		<tag k="name" v="Kjelleren" />
		<tag k="name:no" v="Kjelleren" />
		<tag k="place" v="farm" />
		<tag k="ssr:stedsnr" v="201327" />
	</node>
	<node id="9875715907" lat="69.6890278" lon="21.0813112" version="1" timestamp="2022-07-09T04:53:00Z" changeset="123387225" uid="3497659" user="NKA">
		<tag k="name" v="Furulund" />
		<tag k="place" v="farm" />
		<tag k="ssr:stedsnr" v="201320" />
	</node>
	<node id="9875715908" lat="69.7895611" lon="20.6513055" version="1" timestamp="2022-07-09T04:53:00Z" changeset="123387225" uid="3497659" user="NKA">
		<tag k="name" v="Sletta" />
		<tag k="place" v="farm" />
		<tag k="ssr:stedsnr" v="19940" />
	</node>
	<node id="9875715909" lat="69.7997911" lon="20.7172646" version="1" timestamp="2022-07-09T04:53:00Z" changeset="123387225" uid="3497659" user="NKA">
		<tag k="name" v="Neset" />
		<tag k="place" v="farm" />
		<tag k="ssr:stedsnr" v="19955" />
	</node>
	<node id="9875715910" lat="69.7914972" lon="20.5950166" version="1" timestamp="2022-07-09T04:53:00Z" changeset="123387225" uid="3497659" user="NKA">
		<tag k="name" v="Hagen" />
		<tag k="place" v="farm" />
		<tag k="ssr:stedsnr" v="19936" />
	</node>
	<node id="9875715911" lat="69.873" lon="21.4451916" version="1" timestamp="2022-07-09T04:53:00Z" changeset="123387225" uid="3497659" user="NKA">
		<tag k="name" v="Rosenlund" />
		<tag k="place" v="farm" />
		<tag k="ssr:stedsnr" v="262853" />
	</node>
	<node id="9875715912" lat="69.8231513" lon="21.439743" version="1" timestamp="2022-07-09T04:53:00Z" changeset="123387225" uid="3497659" user="NKA">
		<tag k="name" v="Solvang" />
		<tag k="place" v="farm" />
		<tag k="ssr:stedsnr" v="80770" />
	</node>
	<node id="9875715913" lat="69.5581578" lon="21.3023222" version="1" timestamp="2022-07-09T04:53:00Z" changeset="123387225" uid="3497659" user="NKA">
		<tag k="name" v="Elvestad" />
		<tag k="place" v="farm" />
		<tag k="ssr:stedsnr" v="904501" />
	</node>
	<node id="9875715914" lat="69.901066" lon="21.3700458" version="1" timestamp="2022-07-09T04:53:00Z" changeset="123387225" uid="3497659" user="NKA">
		<tag k="name" v="Gardmo" />
		<tag k="place" v="farm" />
		<tag k="ssr:stedsnr" v="869864" />
	</node>
	<node id="9875715915" lat="69.8996139" lon="21.282339" version="1" timestamp="2022-07-09T04:53:00Z" changeset="123387225" uid="3497659" user="NKA">
		<tag k="name" v="Dyrnes" />
		<tag k="place" v="farm" />
		<tag k="ssr:stedsnr" v="80858" />
	</node>
	<node id="9875715916" lat="69.8873367" lon="21.3546135" version="1" timestamp="2022-07-09T04:53:00Z" changeset="123387225" uid="3497659" user="NKA">
		<tag k="name" v="Søndre Oksfjordvatnet" />
		<tag k="place" v="farm" />
		<tag k="ssr:stedsnr" v="1078189" />
	</node>
	<node id="9875715917" lat="69.9021402" lon="21.3812144" version="1" timestamp="2022-07-09T04:53:00Z" changeset="123387225" uid="3497659" user="NKA">
		<tag k="name" v="Nordre Oksfjordvatnet" />
		<tag k="place" v="farm" />
		<tag k="ssr:stedsnr" v="1078186" />
	</node>
	<node id="9875715918" lat="69.8856361" lon="20.9205749" version="1" timestamp="2022-07-09T04:53:00Z" changeset="123387225" uid="3497659" user="NKA">
		<tag k="alt_name" v="Offern" />
		<tag k="name" v="Sæterheimen" />
		<tag k="place" v="farm" />
		<tag k="ssr:stedsnr" v="747544" />
	</node>
	<node id="9875715919" lat="69.8464028" lon="20.861111" version="1" timestamp="2022-07-09T04:53:00Z" changeset="123387225" uid="3497659" user="NKA">
		<tag k="name" v="Askheim" />
		<tag k="place" v="farm" />
		<tag k="ssr:stedsnr" v="747988" />
	</node>
	<node id="9875715920" lat="69.7425969" lon="21.0493826" version="1" timestamp="2022-07-09T04:53:00Z" changeset="123387225" uid="3497659" user="NKA">
		<tag k="name" v="Bjørkeng" />
		<tag k="place" v="farm" />
		<tag k="ssr:stedsnr" v="1078173" />
	</node>
	<node id="9875715921" lat="69.7290972" lon="21.206825" version="1" timestamp="2022-07-09T04:53:00Z" changeset="123387225" uid="3497659" user="NKA">
		<tag k="name" v="Østgård" />
		<tag k="old_name" v="Austgård" />
		<tag k="place" v="farm" />
		<tag k="ssr:stedsnr" v="869717" />
	</node>
	<node id="9875715922" lat="69.8703" lon="20.9002082" version="1" timestamp="2022-07-09T04:53:00Z" changeset="123387225" uid="3497659" user="NKA">
		<tag k="alt_name" v="Selje" />
		<tag k="name" v="Selja" />
		<tag k="place" v="farm" />
		<tag k="ssr:stedsnr" v="505511" />
	</node>
	<node id="9875715923" lat="69.8730972" lon="21.0434611" version="1" timestamp="2022-07-09T04:53:00Z" changeset="123387225" uid="3497659" user="NKA">
		<tag k="name" v="Stornes" />
		<tag k="place" v="farm" />
		<tag k="ssr:stedsnr" v="599719" />
	</node>
	<node id="9875715924" lat="69.4851183" lon="21.4779797" version="1" timestamp="2022-07-09T04:53:00Z" changeset="123387225" uid="3497659" user="NKA">
		<tag k="alt_name" v="Bitu" />
		<tag k="name" v="Bilto" />
		<tag k="place" v="hamlet" />
		<tag k="ssr:stedsnr" v="876357" />
	</node>
	<node id="9875715925" lat="69.8535809" lon="21.2318555" version="1" timestamp="2022-07-09T04:53:00Z" changeset="123387225" uid="3497659" user="NKA">
		<tag k="name" v="Durmålsskardet" />
		<tag k="place" v="farm" />
		<tag k="ssr:stedsnr" v="505787" />
	</node>
	<node id="9875715926" lat="69.7143516" lon="21.2392559" version="1" timestamp="2022-07-09T04:53:00Z" changeset="123387225" uid="3497659" user="NKA">
		<tag k="name" v="Moskodal" />
		<tag k="place" v="hamlet" />
		<tag k="ssr:stedsnr" v="869742" />
	</node>
	<node id="9875715927" lat="69.7940555" lon="20.9335194" version="1" timestamp="2022-07-09T04:53:00Z" changeset="123387225" uid="3497659" user="NKA">
		<tag k="name" v="Ramnklo" />
		<tag k="place" v="neighbourhood" />
		<tag k="ssr:stedsnr" v="444966" />
	</node>
	<node id="9875715928" lat="69.7853694" lon="20.6941138" version="1" timestamp="2022-07-09T04:53:00Z" changeset="123387225" uid="3497659" user="NKA">
		<tag k="name" v="Sommarsetet" />
		<tag k="place" v="locality" />
		<tag k="ssr:stedsnr" v="478235" />
	</node>
	<node id="9875715929" lat="69.7346862" lon="21.2105111" version="1" timestamp="2022-07-09T04:53:00Z" changeset="123387225" uid="3497659" user="NKA">
		<tag k="name" v="Enga" />
		<tag k="place" v="farm" />
		<tag k="ssr:stedsnr" v="444681" />
	</node>
	<node id="9875715930" lat="69.8478861" lon="20.8563277" version="1" timestamp="2022-07-09T04:53:00Z" changeset="123387225" uid="3497659" user="NKA">
		<tag k="name" v="Nylund" />
		<tag k="place" v="farm" />
		<tag k="ssr:stedsnr" v="747507" />
	</node>
	<node id="9875715931" lat="69.848323" lon="20.8689356" version="1" timestamp="2022-07-09T04:53:00Z" changeset="123387225" uid="3497659" user="NKA">
		<tag k="name" v="Rydningen" />
		<tag k="old_name" v="Latteren;Lattern" />
		<tag k="place" v="farm" />
		<tag k="ssr:stedsnr" v="747515" />
	</node>
	<node id="9875715932" lat="69.8659056" lon="20.8903249" version="1" timestamp="2022-07-09T04:53:00Z" changeset="123387225" uid="3497659" user="NKA">
		<tag k="name" v="Solvang" />
		<tag k="place" v="farm" />
		<tag k="ssr:stedsnr" v="565477" />
	</node>
	<node id="9875715933" lat="69.7718139" lon="20.5612666" version="1" timestamp="2022-07-09T04:53:00Z" changeset="123387225" uid="3497659" user="NKA">
		<tag k="name" v="Bakkemo" />
		<tag k="place" v="farm" />
		<tag k="ssr:stedsnr" v="808933" />
	</node>
	<node id="9875715934" lat="69.520347" lon="21.3855553" version="1" timestamp="2022-07-09T04:53:00Z" changeset="123387225" uid="3497659" user="NKA">
		<tag k="name" v="Fagerstrand" />
		<tag k="place" v="farm" />
		<tag k="ssr:stedsnr" v="989168" />
	</node>
	<node id="9875715935" lat="69.7244611" lon="21.0502667" version="1" timestamp="2022-07-09T04:53:00Z" changeset="123387225" uid="3497659" user="NKA">
		<tag k="name" v="Sakshaug" />
		<tag k="place" v="farm" />
		<tag k="ssr:stedsnr" v="625704" />
	</node>
	<node id="9875715936" lat="69.806" lon="20.9226501" version="1" timestamp="2022-07-09T04:53:00Z" changeset="123387225" uid="3497659" user="NKA">
		<tag k="name" v="Jubelen" />
		<tag k="place" v="farm" />
		<tag k="ssr:stedsnr" v="626971" />
	</node>
	<node id="9875715937" lat="69.9664555" lon="21.2365777" version="1" timestamp="2022-07-09T04:53:00Z" changeset="123387225" uid="3497659" user="NKA">
		<tag k="name" v="Sommersetet" />
		<tag k="place" v="locality" />
		<tag k="ssr:stedsnr" v="965962" />
	</node>
	<node id="9875715938" lat="69.6705611" lon="21.283002" version="1" timestamp="2022-07-09T04:53:00Z" changeset="123387225" uid="3497659" user="NKA">
		<tag k="name" v="Potka" />
		<tag k="place" v="farm" />
		<tag k="ssr:stedsnr" v="843570" />
	</node>
	<node id="9875715939" lat="69.863075" lon="20.8785917" version="1" timestamp="2022-07-09T04:53:00Z" changeset="123387225" uid="3497659" user="NKA">
		<tag k="name" v="Skoglund" />
		<tag k="place" v="farm" />
		<tag k="ssr:stedsnr" v="625526" />
	</node>
	<node id="9875715940" lat="69.6478151" lon="21.3037221" version="1" timestamp="2022-07-09T04:53:00Z" changeset="123387225" uid="3497659" user="NKA">
		<tag k="name" v="Hallen" />
		<tag k="place" v="farm" />
		<tag k="ssr:stedsnr" v="808367" />
	</node>
	<node id="9875715941" lat="69.5541667" lon="21.295725" version="1" timestamp="2022-07-09T04:53:00Z" changeset="123387225" uid="3497659" user="NKA">
		<tag k="alt_name" v="Øvresappen" />
		<tag k="name" v="Øvre Sappen" />
		<tag k="place" v="farm" />
		<tag k="ssr:stedsnr" v="808244" />
	</node>
	<node id="9875715942" lat="69.9173" lon="21.3063168" version="1" timestamp="2022-07-09T04:53:00Z" changeset="123387225" uid="3497659" user="NKA">
		<tag k="name" v="Akkarjorda" />
		<tag k="place" v="farm" />
		<tag k="ssr:stedsnr" v="747859" />
	</node>
	<node id="9875715943" lat="69.8379056" lon="20.9172027" version="1" timestamp="2022-07-09T04:53:00Z" changeset="123387225" uid="3497659" user="NKA">
		<tag k="name" v="Sokkelvik" />
		<tag k="place" v="farm" />
		<tag k="ssr:stedsnr" v="539406" />
	</node>
	<node id="9875715944" lat="69.6765017" lon="21.2424878" version="1" timestamp="2022-07-09T04:53:00Z" changeset="123387225" uid="3497659" user="NKA">
		<tag k="name" v="Nyelvholmen" />
		<tag k="place" v="farm" />
		<tag k="ssr:stedsnr" v="565319" />
	</node>
	<node id="9875715945" lat="69.8364305" lon="20.8964556" version="1" timestamp="2022-07-09T04:53:00Z" changeset="123387225" uid="3497659" user="NKA">
		<tag k="alt_name" v="Sokkelvika, yt" />
		<tag k="name" v="Ytre Sokkelvika" />
		<tag k="place" v="farm" />
		<tag k="ssr:stedsnr" v="322992" />
	</node>
	<node id="9875715946" lat="69.4931107" lon="21.4597311" version="1" timestamp="2022-07-09T04:53:00Z" changeset="123387225" uid="3497659" user="NKA">
		<tag k="name" v="Puntastilla" />
		<tag k="place" v="isolated_dwelling" />
		<tag k="ssr:stedsnr" v="504705" />
	</node>
	<node id="9875715947" lat="69.7412124" lon="21.1594634" version="1" timestamp="2022-07-09T04:53:00Z" changeset="123387225" uid="3497659" user="NKA">
		<tag k="name" v="Fagertun" />
		<tag k="place" v="farm" />
		<tag k="ssr:stedsnr" v="564719" />
	</node>
	<node id="9875715948" lat="69.7940028" lon="20.6022583" version="1" timestamp="2022-07-09T04:53:00Z" changeset="123387225" uid="3497659" user="NKA">
		<tag k="name" v="John-Kristianplassen" />
		<tag k="place" v="locality" />
		<tag k="ssr:stedsnr" v="599869" />
	</node>
	<node id="9875715949" lat="69.8649183" lon="20.8879176" version="1" timestamp="2022-07-09T04:53:00Z" changeset="123387225" uid="3497659" user="NKA">
		<tag k="name" v="Ytre Bakkeby" />
		<tag k="place" v="hamlet" />
		<tag k="ssr:stedsnr" v="167704" />
	</node>
	<node id="9875715950" lat="69.4836162" lon="21.4871564" version="1" timestamp="2022-07-09T04:53:00Z" changeset="123387225" uid="3497659" user="NKA">
		<tag k="name" v="Rognli" />
		<tag k="place" v="farm" />
		<tag k="ssr:stedsnr" v="176927" />
	</node>
	<node id="9875715951" lat="69.838519" lon="20.9205924" version="1" timestamp="2022-07-09T04:53:00Z" changeset="123387225" uid="3497659" user="NKA">
		<tag k="alt_name:no" v="Sokkelvik" />
		<tag k="loc_name:fkv" v="Vuolkkulahti" />
		<tag k="loc_name:se" v="Vuolggoluokta" />
		<tag k="name" v="Sokkelvika" />
		<tag k="name:no" v="Sokkelvika" />
		<tag k="place" v="farm" />
		<tag k="ssr:stedsnr" v="89372" />
	</node>
	<node id="9875715952" lat="69.9174334" lon="21.2870198" version="1" timestamp="2022-07-09T04:53:00Z" changeset="123387225" uid="3497659" user="NKA">
		<tag k="name" v="Nordeng" />
		<tag k="place" v="farm" />
		<tag k="ssr:stedsnr" v="504852" />
	</node>
	<node id="9875715953" lat="69.7280585" lon="21.2093452" version="1" timestamp="2022-07-09T04:53:00Z" changeset="123387225" uid="3497659" user="NKA">
		<tag k="name" v="Teigstad" />
		<tag k="place" v="farm" />
		<tag k="ssr:stedsnr" v="929672" />
	</node>
	<node id="9875715954" lat="69.7119861" lon="21.2487251" version="1" timestamp="2022-07-09T04:53:00Z" changeset="123387225" uid="3497659" user="NKA">
		<tag k="name" v="Sætrum" />
		<tag k="place" v="farm" />
		<tag k="ssr:stedsnr" v="444699" />
	</node>
	<node id="9875715955" lat="69.8481306" lon="21.2266575" version="1" timestamp="2022-07-09T04:53:00Z" changeset="123387225" uid="3497659" user="NKA">
		<tag k="loc_name:se" v="Márasvággi" />
		<tag k="name" v="Durmålsskardet" />
		<tag k="name:no" v="Durmålsskardet" />
		<tag k="place" v="farm" />
		<tag k="ssr:stedsnr" v="505788" />
	</node>
	<node id="9875715956" lat="69.8790271" lon="21.2008789" version="1" timestamp="2022-07-09T04:53:00Z" changeset="123387225" uid="3497659" user="NKA">
		<tag k="name" v="Straumen" />
		<tag k="place" v="farm" />
		<tag k="ssr:stedsnr" v="383839" />
	</node>
	<node id="9875715957" lat="69.8723194" lon="21.2105445" version="1" timestamp="2022-07-09T04:53:00Z" changeset="123387225" uid="3497659" user="NKA">
		<tag k="name" v="Nyskog" />
		<tag k="place" v="farm" />
		<tag k="ssr:stedsnr" v="383829" />
	</node>
	<node id="9875715958" lat="69.9154638" lon="21.3172418" version="1" timestamp="2022-07-09T04:53:00Z" changeset="123387225" uid="3497659" user="NKA">
		<tag k="name" v="Elvelund" />
		<tag k="place" v="farm" />
		<tag k="ssr:stedsnr" v="262884" />
	</node>
	<node id="9875715959" lat="69.8644667" lon="21.41185" version="1" timestamp="2022-07-09T04:53:00Z" changeset="123387225" uid="3497659" user="NKA">
		<tag k="name" v="Molund" />
		<tag k="place" v="farm" />
		<tag k="ssr:stedsnr" v="383816" />
	</node>
	<node id="9875715960" lat="69.8729057" lon="21.1887033" version="1" timestamp="2022-07-09T04:53:00Z" changeset="123387225" uid="3497659" user="NKA">
		<tag k="alt_name" v="Straumfjord s" />
		<tag k="name" v="Søndre Straumfjord" />
		<tag k="place" v="farm" />
		<tag k="ssr:stedsnr" v="127814" />
	</node>
	<node id="9875715961" lat="69.8448022" lon="21.2220958" version="1" timestamp="2022-07-09T04:53:00Z" changeset="123387225" uid="3497659" user="NKA">
		<tag k="name" v="Heggelund" />
		<tag k="place" v="farm" />
		<tag k="ssr:stedsnr" v="140774" />
	</node>
	<node id="9875715962" lat="69.8074611" lon="20.5357305" version="1" timestamp="2022-07-09T04:53:00Z" changeset="123387225" uid="3497659" user="NKA">
		<tag k="name" v="Urdvoll" />
		<tag k="place" v="farm" />
		<tag k="ssr:stedsnr" v="687965" />
	</node>
	<node id="9875715963" lat="69.8868225" lon="21.4373403" version="1" timestamp="2022-07-09T04:53:00Z" changeset="123387225" uid="3497659" user="NKA">
		<tag k="name" v="Nyvoll" />
		<tag k="place" v="farm" />
		<tag k="ssr:stedsnr" v="687836" />
	</node>
	<node id="9875715964" lat="69.9206666" lon="21.2418828" version="1" timestamp="2022-07-09T04:53:00Z" changeset="123387225" uid="3497659" user="NKA">
		<tag k="alt_name" v="Arneng" />
		<tag k="name" v="Indre Arneng" />
		<tag k="place" v="farm" />
		<tag k="ssr:stedsnr" v="80878" />
	</node>
	<node id="9875715965" lat="69.6702833" lon="21.2891945" version="1" timestamp="2022-07-09T04:53:00Z" changeset="123387225" uid="3497659" user="NKA">
		<tag k="name" v="Skogstad" />
		<tag k="place" v="farm" />
		<tag k="ssr:stedsnr" v="80327" />
	</node>
	<node id="9875715966" lat="69.5683778" lon="21.302161" version="1" timestamp="2022-07-09T04:53:00Z" changeset="123387225" uid="3497659" user="NKA">
		<tag k="name" v="Elvestrand" />
		<tag k="place" v="farm" />
		<tag k="ssr:stedsnr" v="929250" />
	</node>
	<node id="9875715967" lat="69.7628874" lon="20.4667045" version="1" timestamp="2022-07-09T04:53:00Z" changeset="123387225" uid="3497659" user="NKA">
		<tag k="name" v="Nordre Spåkenes" />
		<tag k="place" v="farm" />
		<tag k="ssr:stedsnr" v="478998" />
	</node>
	<node id="9875715968" lat="69.8537611" lon="21.1764527" version="1" timestamp="2022-07-09T04:53:00Z" changeset="123387225" uid="3497659" user="NKA">
		<tag k="name" v="Lian" />
		<tag k="place" v="farm" />
		<tag k="ssr:stedsnr" v="80795" />
	</node>
	<node id="9875715969" lat="69.8739958" lon="21.4109392" version="1" timestamp="2022-07-09T04:53:00Z" changeset="123387225" uid="3497659" user="NKA">
		<tag k="name" v="Arnesland" />
		<tag k="place" v="farm" />
		<tag k="ssr:stedsnr" v="19804" />
	</node>
	<node id="9875715970" lat="69.5381861" lon="21.3382416" version="1" timestamp="2022-07-09T04:53:00Z" changeset="123387225" uid="3497659" user="NKA">
		<tag k="name" v="Elveland" />
		<tag k="place" v="farm" />
		<tag k="ssr:stedsnr" v="808237" />
	</node>
	<node id="9875715971" lat="69.8307139" lon="20.5233973" version="1" timestamp="2022-07-09T04:53:00Z" changeset="123387225" uid="3497659" user="NKA">
		<tag k="name" v="Bakkemo" />
		<tag k="place" v="farm" />
		<tag k="ssr:stedsnr" v="19996" />
	</node>
	<node id="9875715972" lat="69.7591555" lon="20.5333361" version="1" timestamp="2022-07-09T04:53:00Z" changeset="123387225" uid="3497659" user="NKA">
		<tag k="name" v="Myrland" />
		<tag k="place" v="farm" />
		<tag k="ssr:stedsnr" v="140918" />
	</node>
	<node id="9875715973" lat="69.8421028" lon="21.2185139" version="1" timestamp="2022-07-09T04:53:00Z" changeset="123387225" uid="3497659" user="NKA">
		<tag k="name" v="Forsnes" />
		<tag k="place" v="farm" />
		<tag k="ssr:stedsnr" v="19775" />
	</node>
	<node id="9875715974" lat="69.8387221" lon="21.2103941" version="1" timestamp="2022-07-09T04:53:00Z" changeset="123387225" uid="3497659" user="NKA">
		<tag k="name" v="Nylund" />
		<tag k="place" v="farm" />
		<tag k="ssr:stedsnr" v="19774" />
	</node>
	<node id="9875715975" lat="69.5306139" lon="21.3720139" version="1" timestamp="2022-07-09T04:53:00Z" changeset="123387225" uid="3497659" user="NKA">
		<tag k="alt_name" v="Tromsanes" />
		<tag k="name" v="Tronsanes" />
		<tag k="place" v="farm" />
		<tag k="ssr:stedsnr" v="686248" />
	</node>
	<node id="9875715976" lat="69.8395833" lon="20.5191556" version="1" timestamp="2022-07-09T04:53:00Z" changeset="123387225" uid="3497659" user="NKA">
		<tag k="name" v="Berglund" />
		<tag k="place" v="farm" />
		<tag k="ssr:stedsnr" v="80528" />
	</node>
	<node id="9875715977" lat="69.8323556" lon="21.1959445" version="1" timestamp="2022-07-09T04:53:00Z" changeset="123387225" uid="3497659" user="NKA">
		<tag k="name" v="Sandnes" />
		<tag k="place" v="hamlet" />
		<tag k="ssr:stedsnr" v="869798" />
	</node>
	<node id="9875715978" lat="69.7173055" lon="21.2641084" version="1" timestamp="2022-07-09T04:53:00Z" changeset="123387225" uid="3497659" user="NKA">
		<tag k="name" v="Heggeslett" />
		<tag k="place" v="farm" />
		<tag k="ssr:stedsnr" v="808709" />
	</node>
	<node id="9875715979" lat="69.7244125" lon="21.1842379" version="1" timestamp="2022-07-09T04:53:00Z" changeset="123387225" uid="3497659" user="NKA">
		<tag k="name" v="Martinusli" />
		<tag k="place" v="locality" />
		<tag k="ssr:stedsnr" v="1078172" />
	</node>
	<node id="9875715980" lat="69.8673722" lon="21.2142945" version="1" timestamp="2022-07-09T04:53:00Z" changeset="123387225" uid="3497659" user="NKA">
		<tag k="alt_name" v="Marvik;Marvik, in" />
		<tag k="name" v="Indre Marvik" />
		<tag k="place" v="farm" />
		<tag k="ssr:stedsnr" v="201775" />
	</node>
	<node id="9875715981" lat="69.6961522" lon="21.2359746" version="1" timestamp="2022-07-09T04:53:00Z" changeset="123387225" uid="3497659" user="NKA">
		<tag k="name" v="Kjelleren - Geallir - Kellari" />
		<tag k="name:fkv" v="Kellari" />
		<tag k="name:no" v="Kjelleren" />
		<tag k="name:se" v="Geallir" />
		<tag k="place" v="hamlet" />
		<tag k="ssr:stedsnr" v="1074711" />
	</node>
	<node id="9875715982" lat="69.8620111" lon="21.2263666" version="1" timestamp="2022-07-09T04:53:00Z" changeset="123387225" uid="3497659" user="NKA">
		<tag k="name" v="Skoglund" />
		<tag k="place" v="farm" />
		<tag k="ssr:stedsnr" v="869817" />
	</node>
	<node id="9875715983" lat="69.859539" lon="21.1841616" version="1" timestamp="2022-07-09T04:53:00Z" changeset="123387225" uid="3497659" user="NKA">
		<tag k="name" v="Hestnes" />
		<tag k="place" v="farm" />
		<tag k="ssr:stedsnr" v="869827" />
	</node>
	<node id="9875715984" lat="69.7204944" lon="21.2344612" version="1" timestamp="2022-07-09T04:53:00Z" changeset="123387225" uid="3497659" user="NKA">
		<tag k="name" v="Nymoen" />
		<tag k="place" v="farm" />
		<tag k="ssr:stedsnr" v="747706" />
	</node>
	<node id="9875715985" lat="69.7174945" lon="21.2363861" version="1" timestamp="2022-07-09T04:53:00Z" changeset="123387225" uid="3497659" user="NKA">
		<tag k="name" v="Rydningen" />
		<tag k="place" v="farm" />
		<tag k="ssr:stedsnr" v="869744" />
	</node>
	<node id="9875715986" lat="69.6559944" lon="21.2959054" version="1" timestamp="2022-07-09T04:53:00Z" changeset="123387225" uid="3497659" user="NKA">
		<tag k="name" v="Fossland" />
		<tag k="place" v="farm" />
		<tag k="ssr:stedsnr" v="747305" />
	</node>
	<node id="9875715987" lat="69.8720752" lon="21.1925303" version="1" timestamp="2022-07-09T04:53:00Z" changeset="123387225" uid="3497659" user="NKA">
		<tag k="name" v="Storvoll" />
		<tag k="place" v="isolated_dwelling" />
		<tag k="ssr:stedsnr" v="747811" />
	</node>
	<node id="9875715988" lat="69.6819833" lon="21.2492501" version="1" timestamp="2022-07-09T04:53:00Z" changeset="123387225" uid="3497659" user="NKA">
		<tag k="name" v="Einevoll" />
		<tag k="place" v="farm" />
		<tag k="ssr:stedsnr" v="444301" />
	</node>
	<node id="9875715989" lat="69.8745936" lon="21.1820572" version="1" timestamp="2022-07-09T04:53:00Z" changeset="123387225" uid="3497659" user="NKA">
		<tag k="name" v="Lyngmo" />
		<tag k="place" v="farm" />
		<tag k="ssr:stedsnr" v="444820" />
	</node>
	<node id="9875715990" lat="69.8618786" lon="21.409124" version="1" timestamp="2022-07-09T04:53:00Z" changeset="123387225" uid="3497659" user="NKA">
		<tag k="name" v="Øvregård" />
		<tag k="old_name" v="Øvergard" />
		<tag k="place" v="farm" />
		<tag k="ssr:stedsnr" v="626814" />
	</node>
	<node id="9875715991" lat="69.7367136" lon="21.1837235" version="1" timestamp="2022-07-09T04:53:00Z" changeset="123387225" uid="3497659" user="NKA">
		<tag k="name" v="Storslett" />
		<tag k="place" v="farm" />
		<tag k="ssr:stedsnr" v="715118" />
	</node>
	<node id="9875715992" lat="69.7309056" lon="21.1955361" version="1" timestamp="2022-07-09T04:53:00Z" changeset="123387225" uid="3497659" user="NKA">
		<tag k="alt_name" v="Elvejord" />
		<tag k="name" v="Elvejorda" />
		<tag k="place" v="farm" />
		<tag k="ssr:stedsnr" v="625709" />
	</node>
	<node id="9875715993" lat="69.8626999" lon="21.0500971" version="1" timestamp="2022-07-09T04:53:00Z" changeset="123387225" uid="3497659" user="NKA">
		<tag k="name" v="Myrstad" />
		<tag k="place" v="farm" />
		<tag k="ssr:stedsnr" v="262836" />
	</node>
	<node id="9875715994" lat="69.9086944" lon="21.3276927" version="1" timestamp="2022-07-09T04:53:00Z" changeset="123387225" uid="3497659" user="NKA">
		<tag k="name" v="Sandbu" />
		<tag k="place" v="isolated_dwelling" />
		<tag k="ssr:stedsnr" v="652015" />
	</node>
	<node id="9875715995" lat="69.8583916" lon="21.2305166" version="1" timestamp="2022-07-09T04:53:00Z" changeset="123387225" uid="3497659" user="NKA">
		<tag k="name" v="Berg" />
		<tag k="place" v="farm" />
		<tag k="ssr:stedsnr" v="626806" />
	</node>
	<node id="9875715996" lat="69.9069056" lon="21.3509972" version="1" timestamp="2022-07-09T04:53:00Z" changeset="123387225" uid="3497659" user="NKA">
		<tag k="name" v="Haug" />
		<tag k="place" v="farm" />
		<tag k="ssr:stedsnr" v="565854" />
	</node>
	<node id="9875715997" lat="69.5961885" lon="21.3062631" version="1" timestamp="2022-07-09T04:53:00Z" changeset="123387225" uid="3497659" user="NKA">
		<tag k="name" v="Lyngstad" />
		<tag k="place" v="isolated_dwelling" />
		<tag k="ssr:stedsnr" v="262351" />
	</node>
	<node id="9875715998" lat="69.8784753" lon="21.4410786" version="1" timestamp="2022-07-09T04:53:00Z" changeset="123387225" uid="3497659" user="NKA">
		<tag k="name" v="Seljeland" />
		<tag k="place" v="farm" />
		<tag k="ssr:stedsnr" v="565819" />
	</node>
	<node id="9875715999" lat="69.7104084" lon="21.2496362" version="1" timestamp="2022-07-09T04:53:00Z" changeset="123387225" uid="3497659" user="NKA">
		<tag k="name" v="Myrland" />
		<tag k="place" v="farm" />
		<tag k="ssr:stedsnr" v="929690" />
	</node>
	<node id="9875716000" lat="69.7824667" lon="20.9531611" version="1" timestamp="2022-07-09T04:53:00Z" changeset="123387225" uid="3497659" user="NKA">
		<tag k="name" v="Alfheim" />
		<tag k="place" v="farm" />
		<tag k="ssr:stedsnr" v="930929" />
	</node>
	<node id="9875716001" lat="69.7047694" lon="21.2446778" version="1" timestamp="2022-07-09T04:53:00Z" changeset="123387225" uid="3497659" user="NKA">
		<tag k="name" v="Holmen" />
		<tag k="place" v="farm" />
		<tag k="ssr:stedsnr" v="929691" />
	</node>
	<node id="9875716002" lat="69.8564528" lon="21.229107" version="1" timestamp="2022-07-09T04:53:00Z" changeset="123387225" uid="3497659" user="NKA">
		<tag k="alt_name" v="Hammervoll" />
		<tag k="name" v="Hamarvoll" />
		<tag k="place" v="farm" />
		<tag k="ssr:stedsnr" v="565803" />
	</node>
	<node id="9875716003" lat="69.7218606" lon="21.2223522" version="1" timestamp="2022-07-09T04:53:00Z" changeset="123387225" uid="3497659" user="NKA">
		<tag k="name" v="Heimdal" />
		<tag k="place" v="farm" />
		<tag k="ssr:stedsnr" v="929673" />
	</node>
	<node id="9875716004" lat="69.8244306" lon="21.4322389" version="1" timestamp="2022-07-09T04:53:00Z" changeset="123387225" uid="3497659" user="NKA">
		<tag k="name" v="Dalheim" />
		<tag k="place" v="farm" />
		<tag k="ssr:stedsnr" v="565782" />
	</node>
	<node id="9875716005" lat="69.7391667" lon="21.2006918" version="1" timestamp="2022-07-09T04:53:00Z" changeset="123387225" uid="3497659" user="NKA">
		<tag k="alt_name" v="Seterli" />
		<tag k="name" v="Sæterli" />
		<tag k="place" v="isolated_dwelling" />
		<tag k="ssr:stedsnr" v="928701" />
	</node>
	<node id="9875716006" lat="69.7343" lon="21.2066277" version="1" timestamp="2022-07-09T04:53:00Z" changeset="123387225" uid="3497659" user="NKA">
		<tag k="name" v="Rundhaug" />
		<tag k="place" v="farm" />
		<tag k="ssr:stedsnr" v="564679" />
	</node>
	<node id="9875716007" lat="69.6039361" lon="21.2659695" version="1" timestamp="2022-07-09T04:53:00Z" changeset="123387225" uid="3497659" user="NKA">
		<tag k="name" v="Fielma" />
		<tag k="place" v="farm" />
		<tag k="ssr:stedsnr" v="444325" />
	</node>
	<node id="9875716008" lat="69.6903006" lon="21.076146" version="1" timestamp="2022-07-09T04:53:00Z" changeset="123387225" uid="3497659" user="NKA">
		<tag k="name" v="Lillestø" />
		<tag k="place" v="farm" />
		<tag k="ssr:stedsnr" v="783738" />
	</node>
	<node id="9875716009" lat="69.7368" lon="21.1955499" version="1" timestamp="2022-07-09T04:53:00Z" changeset="123387225" uid="3497659" user="NKA">
		<tag k="name" v="Hauge" />
		<tag k="place" v="hamlet" />
		<tag k="ssr:stedsnr" v="564678" />
	</node>
	<node id="9875716010" lat="69.8656472" lon="21.2179445" version="1" timestamp="2022-07-09T04:53:00Z" changeset="123387225" uid="3497659" user="NKA">
		<tag k="name" v="Rydningen" />
		<tag k="place" v="farm" />
		<tag k="ssr:stedsnr" v="626826" />
	</node>
	<node id="9875716011" lat="69.7480985" lon="21.0291748" version="1" timestamp="2022-07-09T04:53:00Z" changeset="123387225" uid="3497659" user="NKA">
		<tag k="alt_name" v="Sagelv" />
		<tag k="name" v="Sagelva" />
		<tag k="place" v="hamlet" />
		<tag k="ssr:stedsnr" v="807717" />
	</node>
	<node id="9875716012" lat="69.6964084" lon="21.2816944" version="1" timestamp="2022-07-09T04:53:00Z" changeset="123387225" uid="3497659" user="NKA">
		<tag k="name" v="Skogli" />
		<tag k="place" v="isolated_dwelling" />
		<tag k="ssr:stedsnr" v="747335" />
	</node>
	<node id="9875716013" lat="69.7266833" lon="21.210486" version="1" timestamp="2022-07-09T04:53:00Z" changeset="123387225" uid="3497659" user="NKA">
		<tag k="name" v="Elveskog" />
		<tag k="place" v="farm" />
		<tag k="ssr:stedsnr" v="625697" />
	</node>
	<node id="9875716014" lat="69.7014361" lon="21.2539222" version="1" timestamp="2022-07-09T04:53:00Z" changeset="123387225" uid="3497659" user="NKA">
		<tag k="name" v="Molund" />
		<tag k="place" v="farm" />
		<tag k="ssr:stedsnr" v="504316" />
	</node>
	<node id="9875716015" lat="69.78725" lon="20.7039806" version="1" timestamp="2022-07-09T04:53:00Z" changeset="123387225" uid="3497659" user="NKA">
		<tag k="name" v="Framnes" />
		<tag k="place" v="farm" />
		<tag k="ssr:stedsnr" v="929944" />
	</node>
	<node id="9875716016" lat="69.7452361" lon="21.1465056" version="1" timestamp="2022-07-09T04:53:00Z" changeset="123387225" uid="3497659" user="NKA">
		<tag k="name" v="Blomli" />
		<tag k="place" v="farm" />
		<tag k="ssr:stedsnr" v="503689" />
	</node>
	<node id="9875716017" lat="69.7856111" lon="20.6303889" version="1" timestamp="2022-07-09T04:53:00Z" changeset="123387225" uid="3497659" user="NKA">
		<tag k="name" v="Sollia" />
		<tag k="place" v="farm" />
		<tag k="ssr:stedsnr" v="80948" />
	</node>
	<node id="9875716018" lat="69.7845399" lon="20.9587904" version="1" timestamp="2022-07-09T04:53:00Z" changeset="123387225" uid="3497659" user="NKA">
		<tag k="name" v="Metambe" />
		<tag k="place" v="farm" />
		<tag k="ssr:stedsnr" v="470623" />
	</node>
	<node id="9875716019" lat="69.781348" lon="20.6100204" version="1" timestamp="2022-07-09T04:53:00Z" changeset="123387225" uid="3497659" user="NKA">
		<tag k="name" v="Nordre Rotsund" />
		<tag k="place" v="farm" />
		<tag k="ssr:stedsnr" v="235891" />
	</node>
	<node id="9875716020" lat="69.7734034" lon="21.0129272" version="1" timestamp="2022-07-09T04:53:00Z" changeset="123387225" uid="3497659" user="NKA">
		<tag k="name" v="Båtnes" />
		<tag k="place" v="farm" />
		<tag k="ssr:stedsnr" v="444925" />
	</node>
	<node id="9875716021" lat="69.6832278" lon="21.2196638" version="1" timestamp="2022-07-09T04:53:00Z" changeset="123387225" uid="3497659" user="NKA">
		<tag k="name" v="Voll" />
		<tag k="place" v="isolated_dwelling" />
		<tag k="ssr:stedsnr" v="444304" />
	</node>
	<node id="9875716022" lat="69.7438444" lon="21.1409195" version="1" timestamp="2022-07-09T04:53:00Z" changeset="123387225" uid="3497659" user="NKA">
		<tag k="name" v="Galilaen" />
		<tag k="place" v="farm" />
		<tag k="ssr:stedsnr" v="372583" />
	</node>
	<node id="9875716023" lat="69.6682222" lon="21.2647694" version="1" timestamp="2022-07-09T04:53:00Z" changeset="123387225" uid="3497659" user="NKA">
		<tag k="name" v="Slettset" />
		<tag k="place" v="farm" />
		<tag k="ssr:stedsnr" v="444293" />
	</node>
	<node id="9875716024" lat="69.7303889" lon="21.1833999" version="1" timestamp="2022-07-09T04:53:00Z" changeset="123387225" uid="3497659" user="NKA">
		<tag k="name" v="Røyelen" />
		<tag k="place" v="farm" />
		<tag k="ssr:stedsnr" v="418542" />
	</node>
	<node id="9875716025" lat="69.574774" lon="21.2510739" version="1" timestamp="2022-07-09T04:53:00Z" changeset="123387225" uid="3497659" user="NKA">
		<tag k="name" v="Fossheim" />
		<tag k="place" v="farm" />
		<tag k="ssr:stedsnr" v="322243" />
	</node>
	<node id="9875716026" lat="69.7283772" lon="21.0474742" version="1" timestamp="2022-07-09T04:53:00Z" changeset="123387225" uid="3497659" user="NKA">
		<tag k="name" v="Solstad" />
		<tag k="place" v="farm" />
		<tag k="ssr:stedsnr" v="80697" />
	</node>
	<node id="9875716027" lat="69.7363582" lon="21.1778632" version="1" timestamp="2022-07-09T04:53:00Z" changeset="123387225" uid="3497659" user="NKA">
		<tag k="name" v="Røyland" />
		<tag k="place" v="farm" />
		<tag k="ssr:stedsnr" v="444689" />
	</node>
	<node id="9875716028" lat="69.8636646" lon="21.2239973" version="1" timestamp="2022-07-09T04:53:00Z" changeset="123387225" uid="3497659" user="NKA">
		<tag k="name" v="Skogstad" />
		<tag k="place" v="farm" />
		<tag k="ssr:stedsnr" v="383806" />
	</node>
	<node id="9875716029" lat="69.8693028" lon="21.2109554" version="1" timestamp="2022-07-09T04:53:00Z" changeset="123387225" uid="3497659" user="NKA">
		<tag k="alt_name" v="Marvik;Marvik, yt" />
		<tag k="name" v="Ytre Marvik" />
		<tag k="place" v="farm" />
		<tag k="ssr:stedsnr" v="383804" />
	</node>
	<node id="9875716030" lat="69.6195486" lon="21.3046728" version="1" timestamp="2022-07-09T04:53:00Z" changeset="123387225" uid="3497659" user="NKA">
		<tag k="name" v="Vinnelys - Varppi" />
		<tag k="name:fkv" v="Varppi" />
		<tag k="name:no" v="Vinnelys" />
		<tag k="place" v="farm" />
		<tag k="ssr:stedsnr" v="687370" />
	</node>
	<node id="9875716031" lat="69.7362806" lon="21.1755611" version="1" timestamp="2022-07-09T04:53:00Z" changeset="123387225" uid="3497659" user="NKA">
		<tag k="name" v="Lantrodo" />
		<tag k="place" v="farm" />
		<tag k="ssr:stedsnr" v="661548" />
	</node>
	<node id="9875716032" lat="69.8900909" lon="21.3368652" version="1" timestamp="2022-07-09T04:53:00Z" changeset="123387225" uid="3497659" user="NKA">
		<tag k="name" v="Elverum" />
		<tag k="place" v="farm" />
		<tag k="ssr:stedsnr" v="323836" />
	</node>
	<node id="9875716033" lat="69.876475" lon="21.4375138" version="1" timestamp="2022-07-09T04:53:00Z" changeset="123387225" uid="3497659" user="NKA">
		<tag k="name" v="Teigen" />
		<tag k="place" v="farm" />
		<tag k="ssr:stedsnr" v="322789" />
	</node>
	<node id="9875716034" lat="69.7771472" lon="20.731125" version="1" timestamp="2022-07-09T04:53:00Z" changeset="123387225" uid="3497659" user="NKA">
		<tag k="name" v="Dalheim" />
		<tag k="place" v="farm" />
		<tag k="ssr:stedsnr" v="930920" />
	</node>
	<node id="9875716035" lat="69.8744027" lon="21.205925" version="1" timestamp="2022-07-09T04:53:00Z" changeset="123387225" uid="3497659" user="NKA">
		<tag k="name" v="Bliksgård" />
		<tag k="place" v="farm" />
		<tag k="ssr:stedsnr" v="322804" />
	</node>
	<node id="9875716036" lat="69.7627" lon="20.7351027" version="1" timestamp="2022-07-09T04:53:00Z" changeset="123387225" uid="3497659" user="NKA">
		<tag k="name" v="Fyn" />
		<tag k="place" v="farm" />
		<tag k="ssr:stedsnr" v="929922" />
	</node>
	<node id="9875716037" lat="69.8436084" lon="21.2213834" version="1" timestamp="2022-07-09T04:53:00Z" changeset="123387225" uid="3497659" user="NKA">
		<tag k="name" v="Forsmo" />
		<tag k="place" v="farm" />
		<tag k="ssr:stedsnr" v="929772" />
	</node>
	<node id="9875716038" lat="69.6574713" lon="21.2880058" version="1" timestamp="2022-07-09T04:53:00Z" changeset="123387225" uid="3497659" user="NKA">
		<tag k="name" v="Tørfoss" />
		<tag k="place" v="farm" />
		<tag k="ssr:stedsnr" v="357542" />
	</node>
	<node id="9875716039" lat="69.5689528" lon="21.2733888" version="1" timestamp="2022-07-09T04:53:00Z" changeset="123387225" uid="3497659" user="NKA">
		<tag k="name" v="Hauketun" />
		<tag k="place" v="farm" />
		<tag k="ssr:stedsnr" v="868252" />
	</node>
	<node id="9875716040" lat="69.7184693" lon="21.06313" version="1" timestamp="2022-07-09T04:53:00Z" changeset="123387225" uid="3497659" user="NKA">
		<tag k="loc_name:fkv" v="Sammalouta" />
		<tag k="loc_name:se" v="Sapmavuovdi" />
		<tag k="name" v="Kildal" />
		<tag k="name:no" v="Kildal" />
		<tag k="place" v="hamlet" />
		<tag k="ssr:stedsnr" v="929708" />
	</node>
	<node id="9875716041" lat="69.8567833" lon="21.1779194" version="1" timestamp="2022-07-09T04:53:00Z" changeset="123387225" uid="3497659" user="NKA">
		<tag k="historic" v="shieling" />
		<tag k="name" v="Setra" />
		<tag k="place" v="isolated_dwelling" />
		<tag k="ssr:stedsnr" v="357293" />
	</node>
	<node id="9875716042" lat="69.5591354" lon="21.2979945" version="1" timestamp="2022-07-09T04:53:00Z" changeset="123387225" uid="3497659" user="NKA">
		<tag k="name" v="Sappen - Sáhppi - Sappi" />
		<tag k="name:fkv" v="Sappi" />
		<tag k="name:no" v="Sappen" />
		<tag k="name:se" v="Sáhppi" />
		<tag k="place" v="hamlet" />
		<tag k="ssr:stedsnr" v="204287" />
	</node>
	<node id="9875716043" lat="69.6756334" lon="21.2784305" version="1" timestamp="2022-07-09T04:53:00Z" changeset="123387225" uid="3497659" user="NKA">
		<tag k="name" v="Nyvoll" />
		<tag k="place" v="farm" />
		<tag k="ssr:stedsnr" v="262314" />
	</node>
	<node id="9875716044" lat="69.9151759" lon="21.3193136" version="1" timestamp="2022-07-09T04:53:00Z" changeset="123387225" uid="3497659" user="NKA">
		<tag k="alt_name" v="Akkarjord" />
		<tag k="name" v="Akkarjorda" />
		<tag k="place" v="farm" />
		<tag k="ssr:stedsnr" v="531017" />
	</node>
	<node id="9875716045" lat="69.8951223" lon="21.3257834" version="1" timestamp="2022-07-09T04:53:00Z" changeset="123387225" uid="3497659" user="NKA">
		<tag k="name" v="Lavollen" />
		<tag k="place" v="farm" />
		<tag k="ssr:stedsnr" v="661920" />
	</node>
	<node id="9875716046" lat="69.7586546" lon="20.741082" version="1" timestamp="2022-07-09T04:53:00Z" changeset="123387225" uid="3497659" user="NKA">
		<tag k="name" v="Hornset" />
		<tag k="place" v="hamlet" />
		<tag k="ssr:stedsnr" v="808921" />
	</node>
	<node id="9875716047" lat="69.6907666" lon="21.2462556" version="1" timestamp="2022-07-09T04:53:00Z" changeset="123387225" uid="3497659" user="NKA">
		<tag k="name" v="Kjelderen" />
		<tag k="place" v="farm" />
		<tag k="ssr:stedsnr" v="236697" />
	</node>
	<node id="9875716048" lat="69.6991028" lon="21.2312362" version="1" timestamp="2022-07-09T04:53:00Z" changeset="123387225" uid="3497659" user="NKA">
		<tag k="name" v="Myrvoll" />
		<tag k="place" v="farm" />
		<tag k="ssr:stedsnr" v="808694" />
	</node>
	<node id="9875716049" lat="69.6084778" lon="21.287814" version="1" timestamp="2022-07-09T04:53:00Z" changeset="123387225" uid="3497659" user="NKA">
		<tag k="name" v="Heimlund" />
		<tag k="place" v="farm" />
		<tag k="ssr:stedsnr" v="419524" />
	</node>
	<node id="9875716050" lat="69.8494833" lon="21.0596332" version="1" timestamp="2022-07-09T04:53:00Z" changeset="123387225" uid="3497659" user="NKA">
		<tag k="name" v="Nesheim" />
		<tag k="place" v="farm" />
		<tag k="ssr:stedsnr" v="808783" />
	</node>
	<node id="9875716051" lat="69.7363905" lon="21.1953142" version="1" timestamp="2022-07-09T04:53:00Z" changeset="123387225" uid="3497659" user="NKA">
		<tag k="name" v="Aspelund" />
		<tag k="place" v="farm" />
		<tag k="ssr:stedsnr" v="229126" />
	</node>
	<node id="9875716052" lat="69.7377611" lon="21.1230388" version="1" timestamp="2022-07-09T04:53:00Z" changeset="123387225" uid="3497659" user="NKA">
		<tag k="name" v="Strandheim" />
		<tag k="place" v="farm" />
		<tag k="ssr:stedsnr" v="808690" />
	</node>
	<node id="9875716053" lat="69.7076187" lon="21.2461245" version="1" timestamp="2022-07-09T04:53:00Z" changeset="123387225" uid="3497659" user="NKA">
		<tag k="alt_name" v="Moskodal" />
		<tag k="name" v="Moskodalen" />
		<tag k="place" v="farm" />
		<tag k="ssr:stedsnr" v="661697" />
	</node>
	<node id="9875716054" lat="69.8838965" lon="21.1927415" version="1" timestamp="2022-07-09T04:53:00Z" changeset="123387225" uid="3497659" user="NKA">
		<tag k="name" v="Øyra" />
		<tag k="place" v="farm" />
		<tag k="ssr:stedsnr" v="201807" />
	</node>
	<node id="9875716055" lat="69.542055" lon="21.332461" version="1" timestamp="2022-07-09T04:53:00Z" changeset="123387225" uid="3497659" user="NKA">
		<tag k="name" v="Bjørkeng" />
		<tag k="place" v="farm" />
		<tag k="ssr:stedsnr" v="808248" />
	</node>
	<node id="9875716056" lat="69.678525" lon="21.2693778" version="1" timestamp="2022-07-09T04:53:00Z" changeset="123387225" uid="3497659" user="NKA">
		<tag k="name" v="Solberg" />
		<tag k="place" v="farm" />
		<tag k="ssr:stedsnr" v="808318" />
	</node>
	<node id="9875716057" lat="69.6727861" lon="21.2817473" version="1" timestamp="2022-07-09T04:53:00Z" changeset="123387225" uid="3497659" user="NKA">
		<tag k="name" v="Kvam" />
		<tag k="place" v="farm" />
		<tag k="ssr:stedsnr" v="808311" />
	</node>
	<node id="9875716058" lat="69.742959" lon="21.0536108" version="1" timestamp="2022-07-09T04:53:00Z" changeset="123387225" uid="3497659" user="NKA">
		<tag k="name" v="Kålheim" />
		<tag k="place" v="farm" />
		<tag k="ssr:stedsnr" v="807711" />
	</node>
	<node id="9875716059" lat="69.6301695" lon="21.2941806" version="1" timestamp="2022-07-09T04:53:00Z" changeset="123387225" uid="3497659" user="NKA">
		<tag k="name" v="Bergmo" />
		<tag k="place" v="farm" />
		<tag k="ssr:stedsnr" v="626402" />
	</node>
	<node id="9875716060" lat="69.6074676" lon="21.2540276" version="1" timestamp="2022-07-09T04:53:00Z" changeset="123387225" uid="3497659" user="NKA">
		<tag k="alt_name" v="Nedrebukta" />
		<tag k="name" v="Nerbukt" />
		<tag k="place" v="farm" />
		<tag k="ssr:stedsnr" v="626394" />
	</node>
	<node id="9875716061" lat="69.5766586" lon="21.2502728" version="1" timestamp="2022-07-09T04:53:00Z" changeset="123387225" uid="3497659" user="NKA">
		<tag k="name" v="Fossmo" />
		<tag k="place" v="farm" />
		<tag k="ssr:stedsnr" v="261269" />
	</node>
	<node id="9875716062" lat="69.6880835" lon="21.0901427" version="1" timestamp="2022-07-09T04:53:00Z" changeset="123387225" uid="3497659" user="NKA">
		<tag k="name" v="Øvre Kildal" />
		<tag k="place" v="farm" />
		<tag k="ssr:stedsnr" v="783643" />
	</node>
	<node id="9875716063" lat="69.869413" lon="21.2166355" version="1" timestamp="2022-07-09T04:53:00Z" changeset="123387225" uid="3497659" user="NKA">
		<tag k="name" v="Solås" />
		<tag k="place" v="farm" />
		<tag k="ssr:stedsnr" v="140806" />
	</node>
	<node id="9875716064" lat="69.9025963" lon="21.2094937" version="1" timestamp="2022-07-09T04:53:00Z" changeset="123387225" uid="3497659" user="NKA">
		<tag k="name" v="Klubbeneshamn" />
		<tag k="place" v="farm" />
		<tag k="ssr:stedsnr" v="140848" />
	</node>
	<node id="9875716065" lat="69.5297444" lon="21.3679249" version="1" timestamp="2022-07-09T04:53:00Z" changeset="123387225" uid="3497659" user="NKA">
		<tag k="name" v="Oskarnes" />
		<tag k="place" v="farm" />
		<tag k="ssr:stedsnr" v="747253" />
	</node>
	<node id="9875716066" lat="69.5963279" lon="21.2364168" version="1" timestamp="2022-07-09T04:53:00Z" changeset="123387225" uid="3497659" user="NKA">
		<tag k="name" v="Holmbo nedre" />
		<tag k="place" v="farm" />
		<tag k="ssr:stedsnr" v="54581" />
	</node>
	<node id="9875716067" lat="69.8571199" lon="21.1819556" version="1" timestamp="2022-07-09T04:53:00Z" changeset="123387225" uid="3497659" user="NKA">
		<tag k="name" v="Sommarset" />
		<tag k="place" v="farm" />
		<tag k="ssr:stedsnr" v="140796" />
	</node>
	<node id="9875716068" lat="69.6761889" lon="21.2735861" version="1" timestamp="2022-07-09T04:53:00Z" changeset="123387225" uid="3497659" user="NKA">
		<tag k="name" v="Skjønsfjell" />
		<tag k="place" v="farm" />
		<tag k="ssr:stedsnr" v="747418" />
	</node>
	<node id="9875716069" lat="69.7018084" lon="21.2315583" version="1" timestamp="2022-07-09T04:53:00Z" changeset="123387225" uid="3497659" user="NKA">
		<tag k="name" v="Solvang" />
		<tag k="place" v="farm" />
		<tag k="ssr:stedsnr" v="140692" />
	</node>
	<node id="9875716070" lat="69.5170472" lon="21.4207332" version="1" timestamp="2022-07-09T04:53:00Z" changeset="123387225" uid="3497659" user="NKA">
		<tag k="name" v="Lynås" />
		<tag k="place" v="locality" />
		<tag k="ssr:stedsnr" v="747245" />
	</node>
	<node id="9875716071" lat="69.6802194" lon="21.2686667" version="1" timestamp="2022-07-09T04:53:00Z" changeset="123387225" uid="3497659" user="NKA">
		<tag k="name" v="Elvegård" />
		<tag k="place" v="isolated_dwelling" />
		<tag k="ssr:stedsnr" v="140346" />
	</node>
	<node id="9875716072" lat="69.6616709" lon="21.2852235" version="1" timestamp="2022-07-09T04:53:00Z" changeset="123387225" uid="3497659" user="NKA">
		<tag k="name" v="Tørrfossnes - Heikka" />
		<tag k="name:fkv" v="Heikka" />
		<tag k="name:no" v="Tørrfossnes" />
		<tag k="place" v="farm" />
		<tag k="ssr:stedsnr" v="140334" />
	</node>
	<node id="9875716073" lat="69.8505444" lon="20.7844945" version="1" timestamp="2022-07-09T04:53:00Z" changeset="123387225" uid="3497659" user="NKA">
		<tag k="name" v="Elvebakken" />
		<tag k="place" v="farm" />
		<tag k="ssr:stedsnr" v="504524" />
	</node>
	<node id="9875716074" lat="69.7427448" lon="21.0550228" version="1" timestamp="2022-07-09T04:53:00Z" changeset="123387225" uid="3497659" user="NKA">
		<tag k="name" v="Grubbli" />
		<tag k="place" v="farm" />
		<tag k="ssr:stedsnr" v="504744" />
	</node>
	<node id="9875716075" lat="69.8805926" lon="21.200329" version="1" timestamp="2022-07-09T04:53:00Z" changeset="123387225" uid="3497659" user="NKA">
		<tag k="name" v="Rottvik" />
		<tag k="place" v="isolated_dwelling" />
		<tag k="ssr:stedsnr" v="46968" />
	</node>
	<node id="9875716076" lat="69.5365627" lon="21.3442866" version="1" timestamp="2022-07-09T04:53:00Z" changeset="123387225" uid="3497659" user="NKA">
		<tag k="name" v="Gahperus" />
		<tag k="name:se" v="Gahperus" />
		<tag k="place" v="farm" />
		<tag k="ssr:stedsnr" v="504222" />
	</node>
	<node id="9875716077" lat="69.86185" lon="21.4098001" version="1" timestamp="2022-07-09T04:53:00Z" changeset="123387225" uid="3497659" user="NKA">
		<tag k="name" v="Skoglund" />
		<tag k="place" v="farm" />
		<tag k="ssr:stedsnr" v="19787" />
	</node>
	<node id="9875716078" lat="69.773875" lon="21.0295972" version="1" timestamp="2022-07-09T04:53:00Z" changeset="123387225" uid="3497659" user="NKA">
		<tag k="name" v="Hansabakken" />
		<tag k="place" v="neighbourhood" />
		<tag k="ssr:stedsnr" v="479675" />
	</node>
	<node id="9875716079" lat="69.7077222" lon="21.2409221" version="1" timestamp="2022-07-09T04:53:00Z" changeset="123387225" uid="3497659" user="NKA">
		<tag k="name" v="Moskodal" />
		<tag k="place" v="farm" />
		<tag k="ssr:stedsnr" v="19705" />
	</node>
	<node id="9875716080" lat="69.7344974" lon="21.1842087" version="1" timestamp="2022-07-09T04:53:00Z" changeset="123387225" uid="3497659" user="NKA">
		<tag k="name" v="Røyelelv" />
		<tag k="place" v="farm" />
		<tag k="ssr:stedsnr" v="19692" />
	</node>
	<node id="9875716081" lat="69.7064261" lon="21.2392731" version="1" timestamp="2022-07-09T04:53:00Z" changeset="123387225" uid="3497659" user="NKA">
		<tag k="name" v="Rismo" />
		<tag k="place" v="farm" />
		<tag k="ssr:stedsnr" v="19702" />
	</node>
	<node id="9875716082" lat="69.6991556" lon="21.2621" version="1" timestamp="2022-07-09T04:53:00Z" changeset="123387225" uid="3497659" user="NKA">
		<tag k="name" v="Elveslett" />
		<tag k="place" v="farm" />
		<tag k="ssr:stedsnr" v="19336" />
	</node>
	<node id="9875716083" lat="69.915975" lon="21.3110973" version="1" timestamp="2022-07-09T04:53:00Z" changeset="123387225" uid="3497659" user="NKA">
		<tag k="name" v="Elvenes" />
		<tag k="place" v="farm" />
		<tag k="ssr:stedsnr" v="80869" />
	</node>
	<node id="9875716084" lat="69.65355" lon="21.3062834" version="1" timestamp="2022-07-09T04:53:00Z" changeset="123387225" uid="3497659" user="NKA">
		<tag k="name" v="Mellomjorda" />
		<tag k="place" v="farm" />
		<tag k="ssr:stedsnr" v="322286" />
	</node>
	<node id="9875716085" lat="69.8588" lon="21.2274749" version="1" timestamp="2022-07-09T04:53:00Z" changeset="123387225" uid="3497659" user="NKA">
		<tag k="name" v="Myrvang" />
		<tag k="place" v="farm" />
		<tag k="ssr:stedsnr" v="808789" />
	</node>
	<node id="9875716086" lat="69.6883" lon="21.2192528" version="1" timestamp="2022-07-09T04:53:00Z" changeset="123387225" uid="3497659" user="NKA">
		<tag k="name" v="Haugset" />
		<tag k="place" v="farm" />
		<tag k="ssr:stedsnr" v="808329" />
	</node>
	<node id="9875716087" lat="69.8740917" lon="21.1929362" version="1" timestamp="2022-07-09T04:53:00Z" changeset="123387225" uid="3497659" user="NKA">
		<tag k="name" v="Tangen" />
		<tag k="place" v="farm" />
		<tag k="ssr:stedsnr" v="747820" />
	</node>
	<node id="9875716088" lat="69.8520555" lon="20.840589" version="1" timestamp="2022-07-09T04:53:00Z" changeset="123387225" uid="3497659" user="NKA">
		<tag k="name" v="Ravelseidbotn" />
		<tag k="place" v="farm" />
		<tag k="ssr:stedsnr" v="774703" />
	</node>
	<node id="9875716089" lat="69.8668818" lon="21.4115049" version="1" timestamp="2022-07-09T04:53:00Z" changeset="123387225" uid="3497659" user="NKA">
		<tag k="name" v="Nedregård" />
		<tag k="place" v="farm" />
		<tag k="ssr:stedsnr" v="262833" />
	</node>
	<node id="9875716090" lat="69.7850003" lon="20.705" version="1" timestamp="2022-07-09T04:53:00Z" changeset="123387225" uid="3497659" user="NKA">
		<tag k="name" v="Rotsundelva" />
		<tag k="place" v="farm" />
		<tag k="ssr:stedsnr" v="262950" />
	</node>
	<node id="9875716091" lat="69.9188867" lon="21.2559888" version="1" timestamp="2022-07-09T04:53:00Z" changeset="123387225" uid="3497659" user="NKA">
		<tag k="name" v="Hamneng" />
		<tag k="place" v="farm" />
		<tag k="ssr:stedsnr" v="687870" />
	</node>
	<node id="9875716092" lat="69.8345639" lon="21.4202388" version="1" timestamp="2022-07-09T04:53:00Z" changeset="123387225" uid="3497659" user="NKA">
		<tag k="loc_name:se" v="Ákšovuonvuopmi" />
		<tag k="name" v="Oksfjorddalen" />
		<tag k="name:no" v="Oksfjorddalen" />
		<tag k="place" v="farm" />
		<tag k="ssr:stedsnr" v="55981" />
	</node>
	<node id="9875716093" lat="69.8278483" lon="20.7861214" version="1" timestamp="2022-07-09T04:53:00Z" changeset="123387225" uid="3497659" user="NKA">
		<tag k="loc_name:se" v="Soakkuvuonmuorki" />
		<tag k="name" v="Ravelseidet" />
		<tag k="name:no" v="Ravelseidet" />
		<tag k="place" v="hamlet" />
		<tag k="ssr:stedsnr" v="89355" />
	</node>
	<node id="9875716094" lat="69.8422051" lon="21.0616576" version="1" timestamp="2022-07-09T04:53:00Z" changeset="123387225" uid="3497659" user="NKA">
		<tag k="name" v="Haugen" />
		<tag k="place" v="isolated_dwelling" />
		<tag k="ssr:stedsnr" v="470703" />
	</node>
	<node id="9875716095" lat="69.4637805" lon="21.5250944" version="1" timestamp="2022-07-09T04:53:00Z" changeset="123387225" uid="3497659" user="NKA">
		<tag k="name" v="Kjerkestilla" />
		<tag k="place" v="isolated_dwelling" />
		<tag k="ssr:stedsnr" v="79711" />
	</node>
	<node id="9875716096" lat="69.8387111" lon="21.1424833" version="1" timestamp="2022-07-09T04:53:00Z" changeset="123387225" uid="3497659" user="NKA">
		<tag k="name" v="Molund" />
		<tag k="place" v="farm" />
		<tag k="ssr:stedsnr" v="80789" />
	</node>
	<node id="9875716097" lat="69.8493" lon="20.7875416" version="1" timestamp="2022-07-09T04:53:00Z" changeset="123387225" uid="3497659" user="NKA">
		<tag k="name" v="Slettvoll" />
		<tag k="place" v="farm" />
		<tag k="ssr:stedsnr" v="80520" />
	</node>
	<node id="9875716098" lat="69.823725" lon="21.4483138" version="1" timestamp="2022-07-09T04:53:00Z" changeset="123387225" uid="3497659" user="NKA">
		<tag k="name" v="Nymo" />
		<tag k="place" v="farm" />
		<tag k="ssr:stedsnr" v="965990" />
	</node>
	<node id="9875716099" lat="69.749525" lon="21.0291806" version="1" timestamp="2022-07-09T04:53:00Z" changeset="123387225" uid="3497659" user="NKA">
		<tag k="name" v="Løvstad" />
		<tag k="place" v="farm" />
		<tag k="ssr:stedsnr" v="79673" />
	</node>
	<node id="9875716100" lat="69.8740651" lon="21.4219328" version="1" timestamp="2022-07-09T04:53:00Z" changeset="123387225" uid="3497659" user="NKA">
		<tag k="loc_name:se" v="Jávrebahta" />
		<tag k="name" v="Vassbotn" />
		<tag k="name:no" v="Vassbotn" />
		<tag k="place" v="hamlet" />
		<tag k="ssr:stedsnr" v="383836" />
	</node>
	<node id="9875716101" lat="69.8795861" lon="21.4414749" version="1" timestamp="2022-07-09T04:53:00Z" changeset="123387225" uid="3497659" user="NKA">
		<tag k="name" v="Elveland" />
		<tag k="place" v="hamlet" />
		<tag k="ssr:stedsnr" v="262852" />
	</node>
	<node id="9875716102" lat="69.871925" lon="21.4116833" version="1" timestamp="2022-07-09T04:53:00Z" changeset="123387225" uid="3497659" user="NKA">
		<tag k="name" v="Sætermo" />
		<tag k="place" v="farm" />
		<tag k="ssr:stedsnr" v="383818" />
	</node>
	<node id="9875716103" lat="69.9193806" lon="21.2734084" version="1" timestamp="2022-07-09T04:53:00Z" changeset="123387225" uid="3497659" user="NKA">
		<tag k="name" v="Myrland" />
		<tag k="place" v="farm" />
		<tag k="ssr:stedsnr" v="322845" />
	</node>
	<node id="9875716104" lat="69.9271018" lon="21.3012288" version="1" timestamp="2022-07-09T04:53:00Z" changeset="123387225" uid="3497659" user="NKA">
		<tag k="name" v="Arildsdal" />
		<tag k="place" v="farm" />
		<tag k="ssr:stedsnr" v="869876" />
	</node>
	<node id="9875716105" lat="69.9003959" lon="21.3884799" version="1" timestamp="2022-07-09T04:53:00Z" changeset="123387225" uid="3497659" user="NKA">
		<tag k="name" v="Skogstad" />
		<tag k="place" v="farm" />
		<tag k="ssr:stedsnr" v="930848" />
	</node>
	<node id="9875716106" lat="69.8853756" lon="21.442782" version="1" timestamp="2022-07-09T04:53:00Z" changeset="123387225" uid="3497659" user="NKA">
		<tag k="name" v="Mettevollen - Máhtegieddi" />
		<tag k="name:no" v="Mettevollen" />
		<tag k="name:se" v="Máhtegieddi" />
		<tag k="place" v="farm" />
		<tag k="ssr:stedsnr" v="972394" />
	</node>
	<node id="9875716107" lat="69.8896639" lon="21.3397319" version="1" timestamp="2022-07-09T04:53:00Z" changeset="123387225" uid="3497659" user="NKA">
		<tag k="name" v="Vannbukta" />
		<tag k="place" v="isolated_dwelling" />
		<tag k="ssr:stedsnr" v="444825" />
	</node>
	<node id="9875716108" lat="69.8395944" lon="20.7894027" version="1" timestamp="2022-07-09T04:53:00Z" changeset="123387225" uid="3497659" user="NKA">
		<tag k="alt_name" v="Sandnes" />
		<tag k="name" v="Sandenes" />
		<tag k="place" v="farm" />
		<tag k="ssr:stedsnr" v="686991" />
	</node>
	<node id="9875716109" lat="69.7938139" lon="20.5604695" version="1" timestamp="2022-07-09T04:53:00Z" changeset="123387225" uid="3497659" user="NKA">
		<tag k="name" v="Bakkestua" />
		<tag k="place" v="isolated_dwelling" />
		<tag k="ssr:stedsnr" v="903860" />
	</node>
	<node id="9875716110" lat="69.8681083" lon="21.2175334" version="1" timestamp="2022-07-09T04:53:00Z" changeset="123387225" uid="3497659" user="NKA">
		<tag k="alt_name" v="Bjerkli" />
		<tag k="name" v="Bjørkli" />
		<tag k="place" v="farm" />
		<tag k="ssr:stedsnr" v="444807" />
	</node>
	<node id="9875716111" lat="69.8039064" lon="21.0245873" version="1" timestamp="2022-07-09T04:53:00Z" changeset="123387225" uid="3497659" user="NKA">
		<tag k="alt_name" v="Kvænnes" />
		<tag k="name" v="Kvennes" />
		<tag k="place" v="farm" />
		<tag k="ssr:stedsnr" v="808761" />
	</node>
	<node id="9875716112" lat="69.8755056" lon="21.434489" version="1" timestamp="2022-07-09T04:53:00Z" changeset="123387225" uid="3497659" user="NKA">
		<tag k="name" v="Holmen" />
		<tag k="place" v="farm" />
		<tag k="ssr:stedsnr" v="687818" />
	</node>
	<node id="9875716113" lat="69.9074528" lon="21.3365139" version="1" timestamp="2022-07-09T04:53:00Z" changeset="123387225" uid="3497659" user="NKA">
		<tag k="name" v="Vintersetet" />
		<tag k="place" v="locality" />
		<tag k="ssr:stedsnr" v="479906" />
	</node>
	<node id="9875716114" lat="69.9048556" lon="21.3240057" version="1" timestamp="2022-07-09T04:53:00Z" changeset="123387225" uid="3497659" user="NKA">
		<tag k="alt_name" v="Elveslett" />
		<tag k="name" v="Elvesletta" />
		<tag k="place" v="farm" />
		<tag k="ssr:stedsnr" v="652011" />
	</node>
	<node id="9875716115" lat="69.7691528" lon="20.7242805" version="1" timestamp="2022-07-09T04:53:00Z" changeset="123387225" uid="3497659" user="NKA">
		<tag k="name" v="Dalheim" />
		<tag k="place" v="farm" />
		<tag k="ssr:stedsnr" v="687931" />
	</node>
	<node id="9875716116" lat="69.897116" lon="20.8417053" version="1" timestamp="2022-07-09T04:53:00Z" changeset="123387225" uid="3497659" user="NKA">
		<tag k="alt_name" v="Moldfarvika" />
		<tag k="name" v="Moldforvika" />
		<tag k="place" v="farm" />
		<tag k="ssr:stedsnr" v="262560" />
	</node>
	<node id="9875716117" lat="69.8566584" lon="20.8516083" version="1" timestamp="2022-07-09T04:53:00Z" changeset="123387225" uid="3497659" user="NKA">
		<tag k="name" v="Nedregård" />
		<tag k="place" v="farm" />
		<tag k="ssr:stedsnr" v="686535" />
	</node>
	<node id="9875716118" lat="69.9109861" lon="20.8566028" version="1" timestamp="2022-07-09T04:53:00Z" changeset="123387225" uid="3497659" user="NKA">
		<tag k="name" v="Moldfarnes" />
		<tag k="place" v="locality" />
		<tag k="ssr:stedsnr" v="227755" />
	</node>
	<node id="9875716119" lat="69.6062554" lon="21.2991397" version="1" timestamp="2022-07-09T04:53:00Z" changeset="123387225" uid="3497659" user="NKA">
		<tag k="name" v="Holmbo" />
		<tag k="place" v="farm" />
		<tag k="ssr:stedsnr" v="505366" />
	</node>
	<node id="9875716120" lat="69.8946022" lon="20.8327036" version="1" timestamp="2022-07-09T04:53:00Z" changeset="123387225" uid="3497659" user="NKA">
		<tag k="name" v="Russelv" />
		<tag k="place" v="isolated_dwelling" />
		<tag k="ssr:stedsnr" v="175087" />
	</node>
	<node id="9875716121" lat="69.7253361" lon="21.2298805" version="1" timestamp="2022-07-09T04:53:00Z" changeset="123387225" uid="3497659" user="NKA">
		<tag k="name" v="Vegmo" />
		<tag k="place" v="isolated_dwelling" />
		<tag k="ssr:stedsnr" v="504687" />
	</node>
	<node id="9875716122" lat="69.8239289" lon="21.1783876" version="1" timestamp="2022-07-09T04:53:00Z" changeset="123387225" uid="3497659" user="NKA">
		<tag k="name" v="Fagerli" />
		<tag k="place" v="farm" />
		<tag k="ssr:stedsnr" v="504758" />
	</node>
	<node id="9875716123" lat="69.8760044" lon="21.445999" version="1" timestamp="2022-07-09T04:53:00Z" changeset="123387225" uid="3497659" user="NKA">
		<tag k="name" v="Livoll" />
		<tag k="place" v="farm" />
		<tag k="ssr:stedsnr" v="626825" />
	</node>
	<node id="9875716124" lat="69.5218555" lon="21.4107139" version="1" timestamp="2022-07-09T04:53:00Z" changeset="123387225" uid="3497659" user="NKA">
		<tag k="name" v="Svartfoss" />
		<tag k="place" v="hamlet" />
		<tag k="ssr:stedsnr" v="504217" />
	</node>
	<node id="9875716125" lat="69.802925" lon="20.7325555" version="1" timestamp="2022-07-09T04:53:00Z" changeset="123387225" uid="3497659" user="NKA">
		<tag k="name" v="Bakkevoll" />
		<tag k="place" v="farm" />
		<tag k="ssr:stedsnr" v="687958" />
	</node>
	<node id="9875716126" lat="69.7874167" lon="20.6396445" version="1" timestamp="2022-07-09T04:53:00Z" changeset="123387225" uid="3497659" user="NKA">
		<tag k="name" v="Sørli" />
		<tag k="place" v="farm" />
		<tag k="ssr:stedsnr" v="383953" />
	</node>
	<node id="9875716127" lat="69.96445" lon="21.2214665" version="1" timestamp="2022-07-09T04:53:00Z" changeset="123387225" uid="3497659" user="NKA">
		<tag k="name" v="Bakke" />
		<tag k="place" v="locality" />
		<tag k="ssr:stedsnr" v="55954" />
	</node>
	<node id="9875716128" lat="69.8454305" lon="20.5186917" version="1" timestamp="2022-07-09T04:53:00Z" changeset="123387225" uid="3497659" user="NKA">
		<tag k="name" v="Skjeret" />
		<tag k="place" v="farm" />
		<tag k="ssr:stedsnr" v="383547" />
	</node>
	<node id="9875716129" lat="69.8205223" lon="20.532311" version="1" timestamp="2022-07-09T04:53:00Z" changeset="123387225" uid="3497659" user="NKA">
		<tag k="alt_name:no" v="Gamlevær" />
		<tag k="loc_name:se" v="Boaresvearra" />
		<tag k="name" v="Gammelvær" />
		<tag k="name:no" v="Gammelvær" />
		<tag k="place" v="farm" />
		<tag k="ssr:stedsnr" v="201970" />
	</node>
	<node id="9875716130" lat="69.5256555" lon="21.3764361" version="1" timestamp="2022-07-09T04:53:00Z" changeset="123387225" uid="3497659" user="NKA">
		<tag k="name" v="Heggemo" />
		<tag k="place" v="farm" />
		<tag k="ssr:stedsnr" v="929235" />
	</node>
	<node id="9875716131" lat="69.8134972" lon="20.5326639" version="1" timestamp="2022-07-09T04:53:00Z" changeset="123387225" uid="3497659" user="NKA">
		<tag k="name" v="Mellomberget" />
		<tag k="place" v="farm" />
		<tag k="ssr:stedsnr" v="201977" />
	</node>
	<node id="9875716132" lat="69.9122088" lon="21.3280431" version="1" timestamp="2022-07-09T04:53:00Z" changeset="123387225" uid="3497659" user="NKA">
		<tag k="name" v="Sandelva" />
		<tag k="place" v="farm" />
		<tag k="ssr:stedsnr" v="687862" />
	</node>
	<node id="9875716133" lat="69.8215205" lon="20.5320084" version="1" timestamp="2022-07-09T04:53:00Z" changeset="123387225" uid="3497659" user="NKA">
		<tag k="name" v="Seljevoll" />
		<tag k="place" v="farm" />
		<tag k="ssr:stedsnr" v="869974" />
	</node>
	<node id="9875716134" lat="69.7628694" lon="20.4857445" version="1" timestamp="2022-07-09T04:53:00Z" changeset="123387225" uid="3497659" user="NKA">
		<tag k="name" v="Vollen" />
		<tag k="place" v="farm" />
		<tag k="ssr:stedsnr" v="747908" />
	</node>
	<node id="6682096827" lat="69.9004256" lon="21.3736096" version="1" timestamp="2019-08-04T21:33:19Z" changeset="72999373" uid="3296383" user="Reitstoen_import" />
	<node id="6682096829" lat="69.900422" lon="21.3738642" version="1" timestamp="2019-08-04T21:33:19Z" changeset="72999373" uid="3296383" user="Reitstoen_import" />
	<node id="5814778347" lat="68.7662476" lon="22.549433" version="1" timestamp="2018-08-07T12:30:20Z" changeset="61433683" uid="3497659" user="NKA" />
	<node id="5814778348" lat="69.0558056" lon="22.0742743" version="1" timestamp="2018-08-07T12:30:20Z" changeset="61433683" uid="3497659" user="NKA" />
	<node id="5814778342" lat="69.3158958" lon="22.9573032" version="1" timestamp="2018-08-07T12:30:19Z" changeset="61433683" uid="3497659" user="NKA" />
	<node id="5814778346" lat="68.6865261" lon="24.8840277" version="1" timestamp="2018-08-07T12:30:20Z" changeset="61433683" uid="3497659" user="NKA" />
	<node id="5814778343" lat="69.7223925" lon="23.8265936" version="1" timestamp="2018-08-07T12:30:19Z" changeset="61433683" uid="3497659" user="NKA" />
	<node id="5814778345" lat="69.0155153" lon="25.5487006" version="1" timestamp="2018-08-07T12:30:20Z" changeset="61433683" uid="3497659" user="NKA" />
	<node id="5814778344" lat="69.7628088" lon="25.8933966" version="1" timestamp="2018-08-07T12:30:19Z" changeset="61433683" uid="3497659" user="NKA" />
	<way id="614791809" version="58" timestamp="2020-03-08T19:59:43Z" changeset="81932379" uid="7589857" user="Marius Geitle_import">
		<tag k="name" v="Finnmarksvidda" />
		<tag k="natural" v="mountain_range" />
		<tag k="note" v="Please refine boundary based on local knowledge" />
		<tag k="ssr:stedsnr" v="754051" />
		<tag k="ssr:type" v="fjellområde" />
		<nd ref="5814778348" />
		<nd ref="5814778347" />
		<nd ref="5814778346" />
		<nd ref="5814778345" />
		<nd ref="5814778344" />
		<nd ref="5814778343" />
		<nd ref="5814778342" />
		<nd ref="5814778348" />
	</way>
	<way id="699059394" version="3" timestamp="2022-01-21T07:16:18Z" changeset="116415148" uid="3497659" user="NKA">
		<tag k="bicycle" v="yes" />
		<tag k="bridge" v="yes" />
		<tag k="destination:forward" v="Alta" />
		<tag k="foot" v="yes" />
		<tag k="highway" v="trunk" />
		<tag k="lanes" v="2" />
		<tag k="layer" v="1" />
		<tag k="lit" v="yes" />
		<tag k="maxspeed" v="80" />
		<tag k="name" v="Suselvbrua - Čuvččájogasildi" />
		<tag k="name:no" v="Suselvbrua" />
		<tag k="name:se" v="Čuvččájogasildi" />
		<tag k="ref" v="E 6" />
		<tag k="sidewalk" v="none" />
		<tag k="ssr:stedsnr" v="1081212" />
		<tag k="surface" v="asphalt" />
		<tag k="width" v="7" />
		<nd ref="6682096827" />
		<nd ref="6682096829" />
	</way>
</osm>
