<?xml version="1.0" encoding="UTF-8"?>
<<<<<<< HEAD
<osm version="0.6" generator="osmapis">
	<node lat="60.76155277349327" lon="11.335619452017953" id="-23184">
=======
<osm generator="osmapis" version="0.6">
	<node id="-310456" lat="60.7615527735" lon="11.335619452">
>>>>>>> e1d4bc35ff8a6074a6f2e91616a996b547c36f15
		<tag k="old_name" v="Nyhus" />
		<tag k="place" v="farm" />
		<tag k="ssr:date" v="2019-12-27" />
		<tag k="ssr:gruppe" v="gardsbebyggelse" />
		<tag k="ssr:hovedgruppe" v="bebyggelse" />
		<tag k="ssr:stedsnr" v="110627" />
		<tag k="ssr:type" v="bruk" />
	</node>
<<<<<<< HEAD
	<node lat="60.8308444413001" lon="11.3569333381457" id="-23639">
		<tag k="old_name" v="Kongstad" />
=======
	<node id="-310934" lat="60.9101361102" lon="11.3113666716">
		<tag k="leisure" v="pitch" />
		<tag k="old_name" v="Brattbakken" />
		<tag k="ssr:date" v="2019-12-27" />
		<tag k="ssr:gruppe" v="fritidsanlegg" />
		<tag k="ssr:hovedgruppe" v="bebyggelse" />
		<tag k="ssr:stedsnr" v="49514" />
		<tag k="ssr:type" v="idrettsanlegg" />
	</node>
	<node id="-311506" lat="60.827588888" lon="11.3190722211">
		<tag k="old_name" v="Lund" />
		<tag k="place" v="locality" />
		<tag k="ssr:date" v="2019-12-27" />
		<tag k="ssr:gruppe" v="kulturminner" />
		<tag k="ssr:hovedgruppe" v="kultur" />
		<tag k="ssr:stedsnr" v="959912" />
		<tag k="ssr:type" v="annenKulturdetalj" />
	</node>
	<node id="-310449" lat="60.8523222187" lon="11.3696527837">
		<tag k="old_name" v="Kjøsødegården" />
>>>>>>> e1d4bc35ff8a6074a6f2e91616a996b547c36f15
		<tag k="place" v="farm" />
		<tag k="ssr:date" v="2019-12-27" />
		<tag k="ssr:gruppe" v="gardsbebyggelse" />
		<tag k="ssr:hovedgruppe" v="bebyggelse" />
<<<<<<< HEAD
		<tag k="ssr:stedsnr" v="919773" />
		<tag k="ssr:type" v="bruk" />
	</node>
	<node lat="60.827588888042555" lon="11.319072221087922" id="-23706">
		<tag k="old_name" v="Lund" />
		<tag k="place" v="locality" />
		<tag k="ssr:date" v="2019-12-27" />
		<tag k="ssr:gruppe" v="kulturminner" />
		<tag k="ssr:hovedgruppe" v="kultur" />
		<tag k="ssr:stedsnr" v="959912" />
		<tag k="ssr:type" v="annenKulturdetalj" />
	</node>
	<node lat="60.91013611023438" lon="11.311366671579844" id="-23737">
=======
		<tag k="ssr:stedsnr" v="109937" />
		<tag k="ssr:type" v="bruk" />
	</node>
	<node id="-311032" lat="60.9095750019" lon="11.3102500058">
>>>>>>> e1d4bc35ff8a6074a6f2e91616a996b547c36f15
		<tag k="leisure" v="pitch" />
		<tag k="old_name" v="Brattbakken" />
		<tag k="ssr:date" v="2019-12-27" />
		<tag k="ssr:gruppe" v="fritidsanlegg" />
		<tag k="ssr:hovedgruppe" v="bebyggelse" />
<<<<<<< HEAD
		<tag k="ssr:stedsnr" v="49514" />
		<tag k="ssr:type" v="idrettsanlegg" />
	</node>
	<node lat="60.8523222186875" lon="11.369652783670752" id="-23787">
		<tag k="old_name" v="Kjøsødegården" />
=======
		<tag k="ssr:stedsnr" v="130579" />
		<tag k="ssr:type" v="idrettsanlegg" />
	</node>
	<node id="-311090" lat="60.8635305551" lon="11.3706500089">
		<tag k="old_name" v="Leivestad" />
>>>>>>> e1d4bc35ff8a6074a6f2e91616a996b547c36f15
		<tag k="place" v="farm" />
		<tag k="ssr:date" v="2019-12-27" />
		<tag k="ssr:gruppe" v="gardsbebyggelse" />
		<tag k="ssr:hovedgruppe" v="bebyggelse" />
<<<<<<< HEAD
		<tag k="ssr:stedsnr" v="109937" />
		<tag k="ssr:type" v="bruk" />
	</node>
	<node lat="60.87784722378924" lon="11.400358342614636" id="-23805">
		<tag k="old_name" v="Søndre Sjølia" />
=======
		<tag k="ssr:stedsnr" v="191635" />
		<tag k="ssr:type" v="bruk" />
	</node>
	<node id="-310890" lat="60.8308444413" lon="11.3569333381">
		<tag k="old_name" v="Kongstad" />
>>>>>>> e1d4bc35ff8a6074a6f2e91616a996b547c36f15
		<tag k="place" v="farm" />
		<tag k="ssr:date" v="2019-12-27" />
		<tag k="ssr:gruppe" v="gardsbebyggelse" />
		<tag k="ssr:hovedgruppe" v="bebyggelse" />
<<<<<<< HEAD
		<tag k="ssr:stedsnr" v="110865" />
		<tag k="ssr:type" v="bruk" />
	</node>
	<node lat="60.90957500186149" lon="11.310250005803967" id="-23820">
		<tag k="leisure" v="pitch" />
		<tag k="old_name" v="Brattbakken" />
=======
		<tag k="ssr:stedsnr" v="919773" />
		<tag k="ssr:type" v="bruk" />
	</node>
	<node id="-311272" lat="60.803199999" lon="11.3266805563">
		<tag k="amenity" v="school" />
		<tag k="old_name" v="Kvinneuniversitetet" />
>>>>>>> e1d4bc35ff8a6074a6f2e91616a996b547c36f15
		<tag k="ssr:date" v="2019-12-27" />
		<tag k="ssr:gruppe" v="institusjoner" />
		<tag k="ssr:hovedgruppe" v="bebyggelse" />
		<tag k="ssr:stedsnr" v="568998" />
		<tag k="ssr:type" v="skole" />
	</node>
<<<<<<< HEAD
	<node lat="60.7977750034645" lon="11.43472222958401" id="-23823">
		<tag k="building" v="industrial" />
		<tag k="industrial" v="factory" />
		<tag k="old_name" v="Korslund sag;Korslund" />
		<tag k="ssr:date" v="2019-12-27" />
		<tag k="ssr:gruppe" v="næring" />
		<tag k="ssr:hovedgruppe" v="bebyggelse" />
		<tag k="ssr:stedsnr" v="130855" />
		<tag k="ssr:type" v="fabrikk" />
	</node>
	<node lat="60.86353055506134" lon="11.370650008889125" id="-23871">
		<tag k="old_name" v="Leivestad" />
		<tag k="place" v="farm" />
=======
	<node id="-311013" lat="60.8778472238" lon="11.4003583426">
		<tag k="old_name" v="Søndre Sjølia" />
		<tag k="place" v="farm" />
		<tag k="ssr:date" v="2019-12-27" />
		<tag k="ssr:gruppe" v="gardsbebyggelse" />
		<tag k="ssr:hovedgruppe" v="bebyggelse" />
		<tag k="ssr:stedsnr" v="110865" />
		<tag k="ssr:type" v="bruk" />
	</node>
	<node id="-311427" lat="60.7109833355" lon="11.5522333296">
		<tag k="loc_name" v="Høgsvea" />
		<tag k="natural" v="hill" />
		<tag k="place" v="locality" />
		<tag k="ssr:date" v="2019-12-27" />
		<tag k="ssr:gruppe" v="høyder" />
		<tag k="ssr:hovedgruppe" v="terreng" />
		<tag k="ssr:stedsnr" v="830869" />
		<tag k="ssr:type" v="haug" />
	</node>
	<node id="-311042" lat="60.7977750035" lon="11.4347222296">
		<tag k="building" v="industrial" />
		<tag k="industrial" v="factory" />
		<tag k="old_name" v="Korslund sag;Korslund" />
>>>>>>> e1d4bc35ff8a6074a6f2e91616a996b547c36f15
		<tag k="ssr:date" v="2019-12-27" />
		<tag k="ssr:gruppe" v="næring" />
		<tag k="ssr:hovedgruppe" v="bebyggelse" />
<<<<<<< HEAD
		<tag k="ssr:stedsnr" v="191635" />
		<tag k="ssr:type" v="bruk" />
=======
		<tag k="ssr:stedsnr" v="130855" />
		<tag k="ssr:type" v="fabrikk" />
>>>>>>> e1d4bc35ff8a6074a6f2e91616a996b547c36f15
	</node>
	<node lat="60.80319999896606" lon="11.32668055629697" id="-24033">
		<tag k="amenity" v="school" />
		<tag k="old_name" v="Kvinneuniversitetet" />
		<tag k="ssr:date" v="2019-12-27" />
		<tag k="ssr:gruppe" v="institusjoner" />
		<tag k="ssr:hovedgruppe" v="bebyggelse" />
		<tag k="ssr:stedsnr" v="568998" />
		<tag k="ssr:type" v="skole" />
	</node>
	<node lat="60.71098333551978" lon="11.552233329635483" id="-24172">
		<tag k="loc_name" v="Høgsvea" />
		<tag k="natural" v="hill" />
		<tag k="place" v="locality" />
		<tag k="ssr:date" v="2019-12-27" />
		<tag k="ssr:gruppe" v="høyder" />
		<tag k="ssr:hovedgruppe" v="terreng" />
		<tag k="ssr:stedsnr" v="830869" />
		<tag k="ssr:type" v="haug" />
	</node>
</osm>
