<?xml version="1.0" encoding="UTF-8"?>
<osm version="0.6" generator="osmapis">
	<node lat="60.78766709299594" lon="11.272349017729676" id="-34991">
		<tag k="name" v="Hørsandvegen" />
		<tag k="ssr:date" v="2019-12-27" />
		<tag k="ssr:gruppe" v="veg" />
		<tag k="ssr:hovedgruppe" v="infrastruktur" />
		<tag k="ssr:stedsnr" v="57825" />
		<tag k="ssr:type" v="adressenavn" />
	</node>
	<node lat="60.825691432295706" lon="11.320809704036122" id="-34992">
		<tag k="name" v="Skrinhagavegen" />
		<tag k="ssr:date" v="2019-12-27" />
		<tag k="ssr:gruppe" v="veg" />
		<tag k="ssr:hovedgruppe" v="infrastruktur" />
		<tag k="ssr:stedsnr" v="57879" />
		<tag k="ssr:type" v="adressenavn" />
	</node>
	<node lat="60.801675517181145" lon="11.242762752989647" id="-35023">
		<tag k="name" v="Birkelymoen" />
		<tag k="ssr:date" v="2019-12-27" />
		<tag k="ssr:gruppe" v="veg" />
		<tag k="ssr:hovedgruppe" v="infrastruktur" />
		<tag k="ssr:stedsnr" v="118777" />
		<tag k="ssr:type" v="adressenavn" />
	</node>
	<node lat="60.76836190129792" lon="11.48121593653261" id="-35074">
		<tag k="name" v="Rokovegen" />
		<tag k="ssr:date" v="2019-12-27" />
		<tag k="ssr:gruppe" v="veg" />
		<tag k="ssr:hovedgruppe" v="infrastruktur" />
		<tag k="ssr:stedsnr" v="163318" />
		<tag k="ssr:type" v="adressenavn" />
	</node>
	<node lat="60.74883751597492" lon="11.573456605981795" id="-35075">
		<tag k="name" v="Solbergvegen" />
		<tag k="ssr:date" v="2019-12-27" />
		<tag k="ssr:gruppe" v="veg" />
		<tag k="ssr:hovedgruppe" v="infrastruktur" />
		<tag k="ssr:stedsnr" v="163322" />
		<tag k="ssr:type" v="adressenavn" />
	</node>
	<node lat="60.88488208782124" lon="11.32539234584047" id="-35084">
		<tag k="name" v="Svartbekkvegen" />
		<tag k="ssr:date" v="2019-12-27" />
		<tag k="ssr:gruppe" v="veg" />
		<tag k="ssr:hovedgruppe" v="infrastruktur" />
		<tag k="ssr:stedsnr" v="177021" />
		<tag k="ssr:type" v="adressenavn" />
	</node>
	<node lat="60.801675629901304" lon="11.242660832357283" id="-35118">
		<tag k="name" v="Fossheimvegen" />
		<tag k="ssr:date" v="2019-12-27" />
		<tag k="ssr:gruppe" v="veg" />
		<tag k="ssr:hovedgruppe" v="infrastruktur" />
		<tag k="ssr:stedsnr" v="239819" />
		<tag k="ssr:type" v="adressenavn" />
	</node>
	<node lat="60.82753041089657" lon="11.303295467096214" id="-35132">
		<tag k="name" v="Budorvegen" />
		<tag k="ssr:date" v="2019-12-27" />
		<tag k="ssr:gruppe" v="veg" />
		<tag k="ssr:hovedgruppe" v="infrastruktur" />
		<tag k="ssr:stedsnr" v="301277" />
		<tag k="ssr:type" v="adressenavn" />
	</node>
	<node lat="60.799004129805006" lon="11.433600326736313" id="-35134">
		<tag k="name" v="Mosjøvegen" />
		<tag k="ssr:date" v="2019-12-27" />
		<tag k="ssr:gruppe" v="veg" />
		<tag k="ssr:hovedgruppe" v="infrastruktur" />
		<tag k="ssr:stedsnr" v="464327" />
		<tag k="ssr:type" v="adressenavn" />
	</node>
	<node lat="60.82607703713616" lon="11.370797212259372" id="-35159">
		<tag k="name" v="Tangnesvegen" />
		<tag k="ssr:date" v="2019-12-27" />
		<tag k="ssr:gruppe" v="veg" />
		<tag k="ssr:hovedgruppe" v="infrastruktur" />
		<tag k="ssr:stedsnr" v="343296" />
		<tag k="ssr:type" v="adressenavn" />
	</node>
	<node lat="60.86842354045199" lon="11.328512609639677" id="-35206">
		<tag k="name" v="Brevadvegen" />
		<tag k="ssr:date" v="2019-12-27" />
		<tag k="ssr:gruppe" v="veg" />
		<tag k="ssr:hovedgruppe" v="infrastruktur" />
		<tag k="ssr:stedsnr" v="480036" />
		<tag k="ssr:type" v="adressenavn" />
	</node>
	<node lat="60.8438494728853" lon="11.353023973661745" id="-35219">
		<tag k="name" v="Brandsrudvegen" />
		<tag k="ssr:date" v="2019-12-27" />
		<tag k="ssr:gruppe" v="veg" />
		<tag k="ssr:hovedgruppe" v="infrastruktur" />
		<tag k="ssr:stedsnr" v="419443" />
		<tag k="ssr:type" v="adressenavn" />
	</node>
	<node lat="60.86747685677837" lon="11.293124139227103" id="-35289">
		<tag k="name" v="Rønningstadgutua" />
		<tag k="ssr:date" v="2019-12-27" />
		<tag k="ssr:gruppe" v="veg" />
		<tag k="ssr:hovedgruppe" v="infrastruktur" />
		<tag k="ssr:stedsnr" v="482409" />
		<tag k="ssr:type" v="adressenavn" />
	</node>
	<node lat="60.87829867445301" lon="11.372969851595375" id="-35324">
		<tag k="name" v="Petersborgvegen" />
		<tag k="ssr:date" v="2019-12-27" />
		<tag k="ssr:gruppe" v="veg" />
		<tag k="ssr:hovedgruppe" v="infrastruktur" />
		<tag k="ssr:stedsnr" v="541031" />
		<tag k="ssr:type" v="adressenavn" />
	</node>
	<node lat="60.79104271244389" lon="11.260810680470078" id="-35325">
		<tag k="name" v="Tofsrudvegen" />
		<tag k="ssr:date" v="2019-12-27" />
		<tag k="ssr:gruppe" v="veg" />
		<tag k="ssr:hovedgruppe" v="infrastruktur" />
		<tag k="ssr:stedsnr" v="542826" />
		<tag k="ssr:type" v="adressenavn" />
	</node>
	<node lat="60.949070645249684" lon="11.29228420141393" id="-35327">
		<tag k="name" v="Svaenlivegen" />
		<tag k="ssr:date" v="2019-12-27" />
		<tag k="ssr:gruppe" v="veg" />
		<tag k="ssr:hovedgruppe" v="infrastruktur" />
		<tag k="ssr:stedsnr" v="544304" />
		<tag k="ssr:type" v="adressenavn" />
	</node>
	<node lat="60.839748937740396" lon="11.384116483234969" id="-35380">
		<tag k="name" v="Vivelstadvegen" />
		<tag k="ssr:date" v="2019-12-27" />
		<tag k="ssr:gruppe" v="veg" />
		<tag k="ssr:hovedgruppe" v="infrastruktur" />
		<tag k="ssr:stedsnr" v="707338" />
		<tag k="ssr:type" v="adressenavn" />
	</node>
	<node lat="60.82446602804297" lon="11.364139820874238" id="-35381">
		<tag k="name" v="Hovslundvegen" />
		<tag k="ssr:date" v="2019-12-27" />
		<tag k="ssr:gruppe" v="veg" />
		<tag k="ssr:hovedgruppe" v="infrastruktur" />
		<tag k="ssr:stedsnr" v="707342" />
		<tag k="ssr:type" v="adressenavn" />
	</node>
	<node lat="60.79604514476058" lon="11.270810216178075" id="-35462">
		<tag k="name" v="Balkevegen" />
		<tag k="ssr:date" v="2019-12-27" />
		<tag k="ssr:gruppe" v="veg" />
		<tag k="ssr:hovedgruppe" v="infrastruktur" />
		<tag k="ssr:stedsnr" v="907771" />
		<tag k="ssr:type" v="adressenavn" />
	</node>
	<node lat="60.84575559194728" lon="11.35811727422263" id="-35481">
		<tag k="name" v="Heimdalsvegen" />
		<tag k="ssr:date" v="2019-12-27" />
		<tag k="ssr:gruppe" v="veg" />
		<tag k="ssr:hovedgruppe" v="infrastruktur" />
		<tag k="ssr:stedsnr" v="783447" />
		<tag k="ssr:type" v="adressenavn" />
	</node>
	<node lat="60.77470817486709" lon="11.356913029036026" id="-35546">
		<tag k="name" v="Kolsetgutua" />
		<tag k="ssr:date" v="2019-12-27" />
		<tag k="ssr:gruppe" v="veg" />
		<tag k="ssr:hovedgruppe" v="infrastruktur" />
		<tag k="ssr:stedsnr" v="846806" />
		<tag k="ssr:type" v="adressenavn" />
	</node>
	<node lat="60.85974274024942" lon="11.361789498182603" id="-35595">
		<tag k="name" v="Murstadgutua" />
		<tag k="ssr:date" v="2019-12-27" />
		<tag k="ssr:gruppe" v="veg" />
		<tag k="ssr:hovedgruppe" v="infrastruktur" />
		<tag k="ssr:stedsnr" v="965124" />
		<tag k="ssr:type" v="adressenavn" />
	</node>
	<node lat="60.86770362309882" lon="11.360750776726348" id="-35641">
		<tag k="name" v="Kvarstadgutua" />
		<tag k="ssr:date" v="2019-12-27" />
		<tag k="ssr:gruppe" v="veg" />
		<tag k="ssr:hovedgruppe" v="infrastruktur" />
		<tag k="ssr:stedsnr" v="55433" />
		<tag k="ssr:type" v="adressenavn" />
	</node>
	<node lat="60.86817711088415" lon="11.341978570574463" id="-35696">
		<tag k="name" v="Holengutua" />
		<tag k="ssr:date" v="2019-12-27" />
		<tag k="ssr:gruppe" v="veg" />
		<tag k="ssr:hovedgruppe" v="infrastruktur" />
		<tag k="ssr:stedsnr" v="116061" />
		<tag k="ssr:type" v="adressenavn" />
	</node>
	<node lat="60.81989359891592" lon="11.304323241091767" id="-35759">
		<tag k="name" v="Norderhovgutua" />
		<tag k="ssr:date" v="2019-12-27" />
		<tag k="ssr:gruppe" v="veg" />
		<tag k="ssr:hovedgruppe" v="infrastruktur" />
		<tag k="ssr:stedsnr" v="178857" />
		<tag k="ssr:type" v="adressenavn" />
	</node>
	<node lat="60.824054162484906" lon="11.289161814374676" id="-35760">
		<tag k="name" v="Nervollgutua" />
		<tag k="ssr:date" v="2019-12-27" />
		<tag k="ssr:gruppe" v="veg" />
		<tag k="ssr:hovedgruppe" v="infrastruktur" />
		<tag k="ssr:stedsnr" v="178859" />
		<tag k="ssr:type" v="adressenavn" />
	</node>
	<node lat="60.94634577274222" lon="11.274759944469679" id="-35784">
		<tag k="name" v="Furadalsvegen" />
		<tag k="ssr:date" v="2019-12-27" />
		<tag k="ssr:gruppe" v="veg" />
		<tag k="ssr:hovedgruppe" v="infrastruktur" />
		<tag k="ssr:stedsnr" v="222247" />
		<tag k="ssr:type" v="adressenavn" />
	</node>
	<node lat="60.79018596050059" lon="11.476112574342807" id="-35786">
		<tag k="name" v="Rokosjøvegen" />
		<tag k="ssr:date" v="2019-12-27" />
		<tag k="ssr:gruppe" v="veg" />
		<tag k="ssr:hovedgruppe" v="infrastruktur" />
		<tag k="ssr:stedsnr" v="224327" />
		<tag k="ssr:type" v="adressenavn" />
	</node>
	<node lat="60.88380206135619" lon="11.321848785019293" id="-35801">
		<tag k="name" v="Nordholsvegen" />
		<tag k="ssr:date" v="2019-12-27" />
		<tag k="ssr:gruppe" v="veg" />
		<tag k="ssr:hovedgruppe" v="infrastruktur" />
		<tag k="ssr:stedsnr" v="298031" />
		<tag k="ssr:type" v="adressenavn" />
	</node>
	<node lat="60.79372675299454" lon="11.352624933908505" id="-35803">
		<tag k="name" v="Trømnesvegen" />
		<tag k="ssr:date" v="2019-12-27" />
		<tag k="ssr:gruppe" v="veg" />
		<tag k="ssr:hovedgruppe" v="infrastruktur" />
		<tag k="ssr:stedsnr" v="301247" />
		<tag k="ssr:type" v="adressenavn" />
	</node>
	<node lat="60.74683042590282" lon="11.507902564306221" id="-35827">
		<tag k="name" v="Rennebruvegen" />
		<tag k="ssr:date" v="2019-12-27" />
		<tag k="ssr:gruppe" v="veg" />
		<tag k="ssr:hovedgruppe" v="infrastruktur" />
		<tag k="ssr:stedsnr" v="345337" />
		<tag k="ssr:type" v="adressenavn" />
	</node>
	<node lat="60.78772732523909" lon="11.348006873764396" id="-35828">
		<tag k="name" v="Brovollvegen" />
		<tag k="ssr:date" v="2019-12-27" />
		<tag k="ssr:gruppe" v="veg" />
		<tag k="ssr:hovedgruppe" v="infrastruktur" />
		<tag k="ssr:stedsnr" v="345349" />
		<tag k="ssr:type" v="adressenavn" />
	</node>
	<node lat="60.84809450128137" lon="11.319898365633744" id="-35850">
		<tag k="name" v="Imsetvegen" />
		<tag k="ssr:date" v="2019-12-27" />
		<tag k="ssr:gruppe" v="veg" />
		<tag k="ssr:hovedgruppe" v="infrastruktur" />
		<tag k="ssr:stedsnr" v="358130" />
		<tag k="ssr:type" v="adressenavn" />
	</node>
	<node lat="60.98269291178753" lon="11.288104750047134" id="-35853">
		<tag k="name" v="Bubekkvegen" />
		<tag k="ssr:date" v="2019-12-27" />
		<tag k="ssr:gruppe" v="veg" />
		<tag k="ssr:hovedgruppe" v="infrastruktur" />
		<tag k="ssr:stedsnr" v="362300" />
		<tag k="ssr:type" v="adressenavn" />
	</node>
	<node lat="60.95775594889642" lon="11.29737453376234" id="-35854">
		<tag k="name" v="Ruskåsvegen" />
		<tag k="ssr:date" v="2019-12-27" />
		<tag k="ssr:gruppe" v="veg" />
		<tag k="ssr:hovedgruppe" v="infrastruktur" />
		<tag k="ssr:stedsnr" v="362311" />
		<tag k="ssr:type" v="adressenavn" />
	</node>
	<node lat="60.96930015979901" lon="11.286217092171098" id="-35896">
		<tag k="name" v="Bjørkvolla" />
		<tag k="ssr:date" v="2019-12-27" />
		<tag k="ssr:gruppe" v="veg" />
		<tag k="ssr:hovedgruppe" v="infrastruktur" />
		<tag k="ssr:stedsnr" v="419247" />
		<tag k="ssr:type" v="adressenavn" />
	</node>
	<node lat="60.94267910979332" lon="11.273296217646674" id="-35898">
		<tag k="name" v="Enerstubben" />
		<tag k="ssr:date" v="2019-12-27" />
		<tag k="ssr:gruppe" v="veg" />
		<tag k="ssr:hovedgruppe" v="infrastruktur" />
		<tag k="ssr:stedsnr" v="419253" />
		<tag k="ssr:type" v="adressenavn" />
	</node>
	<node lat="60.96620204974622" lon="11.314209579427958" id="-35901">
		<tag k="name" v="Målivegen" />
		<tag k="ssr:date" v="2019-12-27" />
		<tag k="ssr:gruppe" v="veg" />
		<tag k="ssr:hovedgruppe" v="infrastruktur" />
		<tag k="ssr:stedsnr" v="419277" />
		<tag k="ssr:type" v="adressenavn" />
	</node>
	<node lat="60.783213173418794" lon="11.406305641273338" id="-35998">
		<tag k="name" v="Grønsvevegen" />
		<tag k="ssr:date" v="2019-12-27" />
		<tag k="ssr:gruppe" v="veg" />
		<tag k="ssr:hovedgruppe" v="infrastruktur" />
		<tag k="ssr:stedsnr" v="648385" />
		<tag k="ssr:type" v="adressenavn" />
	</node>
	<node lat="60.85727136962086" lon="11.299986008476237" id="-36022">
		<tag k="name" v="Vestgardsvegen" />
		<tag k="ssr:date" v="2019-12-27" />
		<tag k="ssr:gruppe" v="veg" />
		<tag k="ssr:hovedgruppe" v="infrastruktur" />
		<tag k="ssr:stedsnr" v="664393" />
		<tag k="ssr:type" v="adressenavn" />
	</node>
	<node lat="60.95775594889642" lon="11.29737453376234" id="-36023">
		<tag k="name" v="Øysætervegen" />
		<tag k="ssr:date" v="2019-12-27" />
		<tag k="ssr:gruppe" v="veg" />
		<tag k="ssr:hovedgruppe" v="infrastruktur" />
		<tag k="ssr:stedsnr" v="665344" />
		<tag k="ssr:type" v="adressenavn" />
	</node>
	<node lat="60.96814817280879" lon="11.291192408089968" id="-36037">
		<tag k="name" v="Vesleødegardsholtet" />
		<tag k="ssr:date" v="2019-12-27" />
		<tag k="ssr:gruppe" v="veg" />
		<tag k="ssr:hovedgruppe" v="infrastruktur" />
		<tag k="ssr:stedsnr" v="722261" />
		<tag k="ssr:type" v="adressenavn" />
	</node>
	<node lat="60.87194500168752" lon="11.393431944486396" id="-36039">
		<tag k="name" v="Sjølivegen" />
		<tag k="ssr:date" v="2019-12-27" />
		<tag k="ssr:gruppe" v="veg" />
		<tag k="ssr:hovedgruppe" v="infrastruktur" />
		<tag k="ssr:stedsnr" v="723022" />
		<tag k="ssr:type" v="adressenavn" />
	</node>
	<node lat="60.817702779481465" lon="11.343727785850426" id="-36114">
		<tag k="name" v="Løten kommune" />
		<tag k="ssr:date" v="2019-12-27" />
		<tag k="ssr:gruppe" v="administrativeIndelinger" />
		<tag k="ssr:hovedgruppe" v="offentligAdministrasjon" />
		<tag k="ssr:stedsnr" v="814001" />
		<tag k="ssr:type" v="kommune" />
	</node>
	<node lat="60.83215578489351" lon="11.386738646959985" id="-36115">
		<tag k="name" v="Tømmerholsroa" />
		<tag k="ssr:date" v="2019-12-27" />
		<tag k="ssr:gruppe" v="veg" />
		<tag k="ssr:hovedgruppe" v="infrastruktur" />
		<tag k="ssr:stedsnr" v="829337" />
		<tag k="ssr:type" v="adressenavn" />
	</node>
	<node lat="60.86755669815845" lon="11.375925439078372" id="-36189">
		<tag k="name" v="Ekromshagan" />
		<tag k="ssr:date" v="2019-12-27" />
		<tag k="ssr:gruppe" v="veg" />
		<tag k="ssr:hovedgruppe" v="infrastruktur" />
		<tag k="ssr:stedsnr" v="965470" />
		<tag k="ssr:type" v="adressenavn" />
	</node>
	<node lat="60.952771624690456" lon="11.294396200088975" id="-36190">
		<tag k="name" v="Gamle Budorveg" />
		<tag k="ssr:date" v="2019-12-27" />
		<tag k="ssr:gruppe" v="veg" />
		<tag k="ssr:hovedgruppe" v="infrastruktur" />
		<tag k="ssr:stedsnr" v="965266" />
		<tag k="ssr:type" v="adressenavn" />
	</node>
	<node lat="60.83212350766811" lon="11.31814453639543" id="-36195">
		<tag k="name" v="Buen" />
		<tag k="ssr:date" v="2019-12-27" />
		<tag k="ssr:gruppe" v="veg" />
		<tag k="ssr:hovedgruppe" v="infrastruktur" />
		<tag k="ssr:stedsnr" v="1002637" />
		<tag k="ssr:type" v="adressenavn" />
	</node>
	<node lat="60.809067703829776" lon="11.349650098360922" id="-36196">
		<tag k="name" v="Bjørkerudvegen" />
		<tag k="ssr:date" v="2019-12-27" />
		<tag k="ssr:gruppe" v="veg" />
		<tag k="ssr:hovedgruppe" v="infrastruktur" />
		<tag k="ssr:stedsnr" v="1002939" />
		<tag k="ssr:type" v="adressenavn" />
	</node>
	<node lat="60.81510223401984" lon="11.341745228922242" id="-36197">
		<tag k="name" v="Bergsvevegen" />
		<tag k="ssr:date" v="2019-12-27" />
		<tag k="ssr:gruppe" v="veg" />
		<tag k="ssr:hovedgruppe" v="infrastruktur" />
		<tag k="ssr:stedsnr" v="1003085" />
		<tag k="ssr:type" v="adressenavn" />
	</node>
	<node lat="60.815960907125465" lon="11.341784183024622" id="-36198">
		<tag k="name" v="Eievegen" />
		<tag k="ssr:date" v="2019-12-27" />
		<tag k="ssr:gruppe" v="veg" />
		<tag k="ssr:hovedgruppe" v="infrastruktur" />
		<tag k="ssr:stedsnr" v="1003140" />
		<tag k="ssr:type" v="adressenavn" />
	</node>
	<node lat="60.8309952816125" lon="11.300578316232386" id="-36200">
		<tag k="name" v="Ekornvegen" />
		<tag k="ssr:date" v="2019-12-27" />
		<tag k="ssr:gruppe" v="veg" />
		<tag k="ssr:hovedgruppe" v="infrastruktur" />
		<tag k="ssr:stedsnr" v="1003225" />
		<tag k="ssr:type" v="adressenavn" />
	</node>
	<node lat="60.825438069362185" lon="11.347440760852622" id="-36202">
		<tag k="name" v="Dalstuvegen" />
		<tag k="ssr:date" v="2019-12-27" />
		<tag k="ssr:gruppe" v="veg" />
		<tag k="ssr:hovedgruppe" v="infrastruktur" />
		<tag k="ssr:stedsnr" v="1003470" />
		<tag k="ssr:type" v="adressenavn" />
	</node>
	<node lat="60.87168816164644" lon="11.369998760852633" id="-36203">
		<tag k="name" v="J.B.Jacobsens veg" />
		<tag k="ssr:date" v="2019-12-27" />
		<tag k="ssr:gruppe" v="veg" />
		<tag k="ssr:hovedgruppe" v="infrastruktur" />
		<tag k="ssr:stedsnr" v="1003945" />
		<tag k="ssr:type" v="adressenavn" />
	</node>
	<node lat="60.87407958044019" lon="11.374216013705805" id="-36204">
		<tag k="name" v="Jønnvegen" />
		<tag k="ssr:date" v="2019-12-27" />
		<tag k="ssr:gruppe" v="veg" />
		<tag k="ssr:hovedgruppe" v="infrastruktur" />
		<tag k="ssr:stedsnr" v="1003997" />
		<tag k="ssr:type" v="adressenavn" />
	</node>
	<node lat="60.82588925997317" lon="11.349370332244787" id="-36205">
		<tag k="name" v="Jeslivegen" />
		<tag k="ssr:date" v="2019-12-27" />
		<tag k="ssr:gruppe" v="veg" />
		<tag k="ssr:hovedgruppe" v="infrastruktur" />
		<tag k="ssr:stedsnr" v="1004073" />
		<tag k="ssr:type" v="adressenavn" />
	</node>
	<node lat="60.807707659056874" lon="11.348546190960851" id="-36207">
		<tag k="name" v="Håvegen" />
		<tag k="ssr:date" v="2019-12-27" />
		<tag k="ssr:gruppe" v="veg" />
		<tag k="ssr:hovedgruppe" v="infrastruktur" />
		<tag k="ssr:stedsnr" v="1004328" />
		<tag k="ssr:type" v="adressenavn" />
	</node>
	<node lat="60.78797812964661" lon="11.327041550521491" id="-36213">
		<tag k="name" v="Kjelsmedvegen" />
		<tag k="ssr:date" v="2019-12-27" />
		<tag k="ssr:gruppe" v="veg" />
		<tag k="ssr:hovedgruppe" v="infrastruktur" />
		<tag k="ssr:stedsnr" v="1004373" />
		<tag k="ssr:type" v="adressenavn" />
	</node>
	<node lat="60.85278087254558" lon="11.361266780963206" id="-36214">
		<tag k="name" v="Frønsetvegen" />
		<tag k="ssr:date" v="2019-12-27" />
		<tag k="ssr:gruppe" v="veg" />
		<tag k="ssr:hovedgruppe" v="infrastruktur" />
		<tag k="ssr:stedsnr" v="1004601" />
		<tag k="ssr:type" v="adressenavn" />
	</node>
	<node lat="60.78924907338133" lon="11.327539430622572" id="-36215">
		<tag k="name" v="Formervegen" />
		<tag k="ssr:date" v="2019-12-27" />
		<tag k="ssr:gruppe" v="veg" />
		<tag k="ssr:hovedgruppe" v="infrastruktur" />
		<tag k="ssr:stedsnr" v="1004609" />
		<tag k="ssr:type" v="adressenavn" />
	</node>
	<node lat="60.81695196981257" lon="11.342340607606346" id="-36216">
		<tag k="name" v="Kildevegen" />
		<tag k="ssr:date" v="2019-12-27" />
		<tag k="ssr:gruppe" v="veg" />
		<tag k="ssr:hovedgruppe" v="infrastruktur" />
		<tag k="ssr:stedsnr" v="1004448" />
		<tag k="ssr:type" v="adressenavn" />
	</node>
	<node lat="60.825726734024826" lon="11.349339735231837" id="-36217">
		<tag k="name" v="Karudvegen" />
		<tag k="ssr:date" v="2019-12-27" />
		<tag k="ssr:gruppe" v="veg" />
		<tag k="ssr:hovedgruppe" v="infrastruktur" />
		<tag k="ssr:stedsnr" v="1004460" />
		<tag k="ssr:type" v="adressenavn" />
	</node>
	<node lat="60.87013888348153" lon="11.371232927660099" id="-36220">
		<tag k="name" v="Emil Løvliens veg" />
		<tag k="ssr:date" v="2019-12-27" />
		<tag k="ssr:gruppe" v="veg" />
		<tag k="ssr:hovedgruppe" v="infrastruktur" />
		<tag k="ssr:stedsnr" v="1004668" />
		<tag k="ssr:type" v="adressenavn" />
	</node>
	<node lat="60.83069682121966" lon="11.299894777272304" id="-36221">
		<tag k="name" v="Elgvegen" />
		<tag k="ssr:date" v="2019-12-27" />
		<tag k="ssr:gruppe" v="veg" />
		<tag k="ssr:hovedgruppe" v="infrastruktur" />
		<tag k="ssr:stedsnr" v="1004682" />
		<tag k="ssr:type" v="adressenavn" />
	</node>
	<node lat="60.83310450793523" lon="11.309231435333773" id="-36222">
		<tag k="name" v="Enervegen" />
		<tag k="ssr:date" v="2019-12-27" />
		<tag k="ssr:gruppe" v="veg" />
		<tag k="ssr:hovedgruppe" v="infrastruktur" />
		<tag k="ssr:stedsnr" v="1004631" />
		<tag k="ssr:type" v="adressenavn" />
	</node>
	<node lat="60.81101227348254" lon="11.347525847993504" id="-36223">
		<tag k="name" v="Even Olstads veg" />
		<tag k="ssr:date" v="2019-12-27" />
		<tag k="ssr:gruppe" v="veg" />
		<tag k="ssr:hovedgruppe" v="infrastruktur" />
		<tag k="ssr:stedsnr" v="1004710" />
		<tag k="ssr:type" v="adressenavn" />
	</node>
	<node lat="60.81786770685162" lon="11.348309873217131" id="-36225">
		<tag k="name" v="Esperantovegen" />
		<tag k="ssr:date" v="2019-12-27" />
		<tag k="ssr:gruppe" v="veg" />
		<tag k="ssr:hovedgruppe" v="infrastruktur" />
		<tag k="ssr:stedsnr" v="1004731" />
		<tag k="ssr:type" v="adressenavn" />
	</node>
	<node lat="60.82090377037158" lon="11.342095628775548" id="-36227">
		<tag k="name" v="Grinderengsletta" />
		<tag k="ssr:date" v="2019-12-27" />
		<tag k="ssr:gruppe" v="veg" />
		<tag k="ssr:hovedgruppe" v="infrastruktur" />
		<tag k="ssr:stedsnr" v="1004787" />
		<tag k="ssr:type" v="adressenavn" />
	</node>
	<node lat="60.820440285656765" lon="11.35080855830671" id="-36229">
		<tag k="name" v="Grindervegen" />
		<tag k="ssr:date" v="2019-12-27" />
		<tag k="ssr:gruppe" v="veg" />
		<tag k="ssr:hovedgruppe" v="infrastruktur" />
		<tag k="ssr:stedsnr" v="1004775" />
		<tag k="ssr:type" v="adressenavn" />
	</node>
	<node lat="60.80795912390062" lon="11.344650825687085" id="-36230">
		<tag k="name" v="Grasvegen" />
		<tag k="ssr:date" v="2019-12-27" />
		<tag k="ssr:gruppe" v="veg" />
		<tag k="ssr:hovedgruppe" v="infrastruktur" />
		<tag k="ssr:stedsnr" v="1004848" />
		<tag k="ssr:type" v="adressenavn" />
	</node>
	<node lat="60.83125394112066" lon="11.30725303460101" id="-36231">
		<tag k="name" v="Granvegen" />
		<tag k="ssr:date" v="2019-12-27" />
		<tag k="ssr:gruppe" v="veg" />
		<tag k="ssr:hovedgruppe" v="infrastruktur" />
		<tag k="ssr:stedsnr" v="1004891" />
		<tag k="ssr:type" v="adressenavn" />
	</node>
	<node lat="60.815071692625104" lon="11.344407437728975" id="-36232">
		<tag k="name" v="Hamninga" />
		<tag k="ssr:date" v="2019-12-27" />
		<tag k="ssr:gruppe" v="veg" />
		<tag k="ssr:hovedgruppe" v="infrastruktur" />
		<tag k="ssr:stedsnr" v="1005016" />
		<tag k="ssr:type" v="adressenavn" />
	</node>
	<node lat="60.83099584628321" lon="11.355957214040448" id="-36234">
		<tag k="name" v="Hellinga" />
		<tag k="ssr:date" v="2019-12-27" />
		<tag k="ssr:gruppe" v="veg" />
		<tag k="ssr:hovedgruppe" v="infrastruktur" />
		<tag k="ssr:stedsnr" v="1004965" />
		<tag k="ssr:type" v="adressenavn" />
	</node>
	<node lat="60.809863880405224" lon="11.343584612701452" id="-36236">
		<tag k="name" v="Grønvegen" />
		<tag k="ssr:date" v="2019-12-27" />
		<tag k="ssr:gruppe" v="veg" />
		<tag k="ssr:hovedgruppe" v="infrastruktur" />
		<tag k="ssr:stedsnr" v="1005040" />
		<tag k="ssr:type" v="adressenavn" />
	</node>
	<node lat="60.81511485569974" lon="11.343444858584407" id="-36237">
		<tag k="name" v="Gutua" />
		<tag k="ssr:date" v="2019-12-27" />
		<tag k="ssr:gruppe" v="veg" />
		<tag k="ssr:hovedgruppe" v="infrastruktur" />
		<tag k="ssr:stedsnr" v="1005044" />
		<tag k="ssr:type" v="adressenavn" />
	</node>
	<node lat="60.83300015389422" lon="11.310490027438302" id="-36238">
		<tag k="name" v="Myravegen" />
		<tag k="ssr:date" v="2019-12-27" />
		<tag k="ssr:gruppe" v="veg" />
		<tag k="ssr:hovedgruppe" v="infrastruktur" />
		<tag k="ssr:stedsnr" v="1005498" />
		<tag k="ssr:type" v="adressenavn" />
	</node>
	<node lat="60.81895514209321" lon="11.346721566671178" id="-36239">
		<tag k="name" v="Nedre Gimleveg" />
		<tag k="ssr:date" v="2019-12-27" />
		<tag k="ssr:gruppe" v="veg" />
		<tag k="ssr:hovedgruppe" v="infrastruktur" />
		<tag k="ssr:stedsnr" v="1005505" />
		<tag k="ssr:type" v="adressenavn" />
	</node>
	<node lat="60.8285957818529" lon="11.308211059008258" id="-36240">
		<tag k="name" v="Furavegen" />
		<tag k="ssr:date" v="2019-12-27" />
		<tag k="ssr:gruppe" v="veg" />
		<tag k="ssr:hovedgruppe" v="infrastruktur" />
		<tag k="ssr:stedsnr" v="1005258" />
		<tag k="ssr:type" v="adressenavn" />
	</node>
	<node lat="60.83011480782693" lon="11.315193593436929" id="-36241">
		<tag k="name" v="Gammalsrudvegen" />
		<tag k="ssr:date" v="2019-12-27" />
		<tag k="ssr:gruppe" v="veg" />
		<tag k="ssr:hovedgruppe" v="infrastruktur" />
		<tag k="ssr:stedsnr" v="1005328" />
		<tag k="ssr:type" v="adressenavn" />
	</node>
	<node lat="60.7908935229237" lon="11.328216661186346" id="-36242">
		<tag k="name" v="Trostholvegen" />
		<tag k="ssr:date" v="2019-12-27" />
		<tag k="ssr:gruppe" v="veg" />
		<tag k="ssr:hovedgruppe" v="infrastruktur" />
		<tag k="ssr:stedsnr" v="1006087" />
		<tag k="ssr:type" v="adressenavn" />
	</node>
	<node lat="60.83255944237694" lon="11.313983065123004" id="-36243">
		<tag k="name" v="Utsikten" />
		<tag k="ssr:date" v="2019-12-27" />
		<tag k="ssr:gruppe" v="veg" />
		<tag k="ssr:hovedgruppe" v="infrastruktur" />
		<tag k="ssr:stedsnr" v="1006098" />
		<tag k="ssr:type" v="adressenavn" />
	</node>
	<node lat="60.81840506276232" lon="11.344297983828474" id="-36245">
		<tag k="name" v="Østre Bergsveg" />
		<tag k="ssr:date" v="2019-12-27" />
		<tag k="ssr:gruppe" v="veg" />
		<tag k="ssr:hovedgruppe" v="infrastruktur" />
		<tag k="ssr:stedsnr" v="1006120" />
		<tag k="ssr:type" v="adressenavn" />
	</node>
	<node lat="60.83306037028703" lon="11.313931779979852" id="-36246">
		<tag k="name" v="Skogvegen" />
		<tag k="ssr:date" v="2019-12-27" />
		<tag k="ssr:gruppe" v="veg" />
		<tag k="ssr:hovedgruppe" v="infrastruktur" />
		<tag k="ssr:stedsnr" v="1006247" />
		<tag k="ssr:type" v="adressenavn" />
	</node>
	<node lat="60.817357218722485" lon="11.347352621071474" id="-36247">
		<tag k="name" v="Næstadgutua" />
		<tag k="ssr:date" v="2019-12-27" />
		<tag k="ssr:gruppe" v="veg" />
		<tag k="ssr:hovedgruppe" v="infrastruktur" />
		<tag k="ssr:stedsnr" v="1005441" />
		<tag k="ssr:type" v="adressenavn" />
	</node>
	<node lat="60.822360483048335" lon="11.343908701950046" id="-36249">
		<tag k="name" v="Nerbratta" />
		<tag k="ssr:date" v="2019-12-27" />
		<tag k="ssr:gruppe" v="veg" />
		<tag k="ssr:hovedgruppe" v="infrastruktur" />
		<tag k="ssr:stedsnr" v="1005452" />
		<tag k="ssr:type" v="adressenavn" />
	</node>
	<node lat="60.82638981801966" lon="11.350349793355015" id="-36252">
		<tag k="name" v="Rylivegen" />
		<tag k="ssr:date" v="2019-12-27" />
		<tag k="ssr:gruppe" v="veg" />
		<tag k="ssr:hovedgruppe" v="infrastruktur" />
		<tag k="ssr:stedsnr" v="1005539" />
		<tag k="ssr:type" v="adressenavn" />
	</node>
	<node lat="60.8166290984964" lon="11.344763982087587" id="-36253">
		<tag k="name" v="Rudbergvegen" />
		<tag k="ssr:date" v="2019-12-27" />
		<tag k="ssr:gruppe" v="veg" />
		<tag k="ssr:hovedgruppe" v="infrastruktur" />
		<tag k="ssr:stedsnr" v="1005548" />
		<tag k="ssr:type" v="adressenavn" />
	</node>
	<node lat="60.7872244791634" lon="11.32699186578062" id="-36255">
		<tag k="name" v="Olarovegen" />
		<tag k="ssr:date" v="2019-12-27" />
		<tag k="ssr:gruppe" v="veg" />
		<tag k="ssr:hovedgruppe" v="infrastruktur" />
		<tag k="ssr:stedsnr" v="1005607" />
		<tag k="ssr:type" v="adressenavn" />
	</node>
	<node lat="60.83289520321283" lon="11.317836419752984" id="-36257">
		<tag k="name" v="Linjen" />
		<tag k="ssr:date" v="2019-12-27" />
		<tag k="ssr:gruppe" v="veg" />
		<tag k="ssr:hovedgruppe" v="infrastruktur" />
		<tag k="ssr:stedsnr" v="1005703" />
		<tag k="ssr:type" v="adressenavn" />
	</node>
	<node lat="60.83409122302981" lon="11.314450077010845" id="-36258">
		<tag k="name" v="Lyngvegen" />
		<tag k="ssr:date" v="2019-12-27" />
		<tag k="ssr:gruppe" v="veg" />
		<tag k="ssr:hovedgruppe" v="infrastruktur" />
		<tag k="ssr:stedsnr" v="1005724" />
		<tag k="ssr:type" v="adressenavn" />
	</node>
	<node lat="60.83137209957836" lon="11.301607229138737" id="-36259">
		<tag k="name" v="Rådyrvegen" />
		<tag k="ssr:date" v="2019-12-27" />
		<tag k="ssr:gruppe" v="veg" />
		<tag k="ssr:hovedgruppe" v="infrastruktur" />
		<tag k="ssr:stedsnr" v="1005574" />
		<tag k="ssr:type" v="adressenavn" />
	</node>
	<node lat="60.787975872128186" lon="11.326105927319874" id="-36260">
		<tag k="name" v="Ljåsmedvegen" />
		<tag k="ssr:date" v="2019-12-27" />
		<tag k="ssr:gruppe" v="veg" />
		<tag k="ssr:hovedgruppe" v="infrastruktur" />
		<tag k="ssr:stedsnr" v="1005643" />
		<tag k="ssr:type" v="adressenavn" />
	</node>
	<node lat="60.80989196532348" lon="11.343170926572514" id="-36261">
		<tag k="name" v="Lovegen" />
		<tag k="ssr:date" v="2019-12-27" />
		<tag k="ssr:gruppe" v="veg" />
		<tag k="ssr:hovedgruppe" v="infrastruktur" />
		<tag k="ssr:stedsnr" v="1005741" />
		<tag k="ssr:type" v="adressenavn" />
	</node>
	<node lat="60.81016711079033" lon="11.341968382290787" id="-36262">
		<tag k="name" v="Kønnvegen" />
		<tag k="ssr:date" v="2019-12-27" />
		<tag k="ssr:gruppe" v="veg" />
		<tag k="ssr:hovedgruppe" v="infrastruktur" />
		<tag k="ssr:stedsnr" v="1005759" />
		<tag k="ssr:type" v="adressenavn" />
	</node>
	<node lat="60.8748264594969" lon="11.373054531099173" id="-36263">
		<tag k="name" v="Kølvegen" />
		<tag k="ssr:date" v="2019-12-27" />
		<tag k="ssr:gruppe" v="veg" />
		<tag k="ssr:hovedgruppe" v="infrastruktur" />
		<tag k="ssr:stedsnr" v="1005772" />
		<tag k="ssr:type" v="adressenavn" />
	</node>
	<node lat="60.87091636739761" lon="11.370639512875643" id="-36264">
		<tag k="name" v="Lars Skolemesters veg" />
		<tag k="ssr:date" v="2019-12-27" />
		<tag k="ssr:gruppe" v="veg" />
		<tag k="ssr:hovedgruppe" v="infrastruktur" />
		<tag k="ssr:stedsnr" v="1005806" />
		<tag k="ssr:type" v="adressenavn" />
	</node>
	<node lat="60.874038872024144" lon="11.369636421632794" id="-36265">
		<tag k="name" v="Milevegen" />
		<tag k="ssr:date" v="2019-12-27" />
		<tag k="ssr:gruppe" v="veg" />
		<tag k="ssr:hovedgruppe" v="infrastruktur" />
		<tag k="ssr:stedsnr" v="1005819" />
		<tag k="ssr:type" v="adressenavn" />
	</node>
	<node lat="60.79654007192202" lon="11.308837937916504" id="-36266">
		<tag k="name" v="Malmvegen" />
		<tag k="ssr:date" v="2019-12-27" />
		<tag k="ssr:gruppe" v="veg" />
		<tag k="ssr:hovedgruppe" v="infrastruktur" />
		<tag k="ssr:stedsnr" v="1005896" />
		<tag k="ssr:type" v="adressenavn" />
	</node>
	<node lat="60.7908935229237" lon="11.328216661186346" id="-36268">
		<tag k="name" v="Kurudvegen" />
		<tag k="ssr:date" v="2019-12-27" />
		<tag k="ssr:gruppe" v="veg" />
		<tag k="ssr:hovedgruppe" v="infrastruktur" />
		<tag k="ssr:stedsnr" v="1005781" />
		<tag k="ssr:type" v="adressenavn" />
	</node>
	<node lat="60.830787875540956" lon="11.306545906459348" id="-36269">
		<tag k="name" v="Midtvegen" />
		<tag k="ssr:date" v="2019-12-27" />
		<tag k="ssr:gruppe" v="veg" />
		<tag k="ssr:hovedgruppe" v="infrastruktur" />
		<tag k="ssr:stedsnr" v="1005860" />
		<tag k="ssr:type" v="adressenavn" />
	</node>
	<node lat="60.831830846759736" lon="11.307934705213816" id="-36270">
		<tag k="name" v="Mosevegen" />
		<tag k="ssr:date" v="2019-12-27" />
		<tag k="ssr:gruppe" v="veg" />
		<tag k="ssr:hovedgruppe" v="infrastruktur" />
		<tag k="ssr:stedsnr" v="1005876" />
		<tag k="ssr:type" v="adressenavn" />
	</node>
	<node lat="60.8195688696592" lon="11.342094155501924" id="-36271">
		<tag k="name" v="Meierivegen" />
		<tag k="ssr:date" v="2019-12-27" />
		<tag k="ssr:gruppe" v="veg" />
		<tag k="ssr:hovedgruppe" v="infrastruktur" />
		<tag k="ssr:stedsnr" v="1005975" />
		<tag k="ssr:type" v="adressenavn" />
	</node>
	<node lat="60.81749724736539" lon="11.340055885724539" id="-36273">
		<tag k="name" v="Skolevegen" />
		<tag k="ssr:date" v="2019-12-27" />
		<tag k="ssr:gruppe" v="veg" />
		<tag k="ssr:hovedgruppe" v="infrastruktur" />
		<tag k="ssr:stedsnr" v="1006195" />
		<tag k="ssr:type" v="adressenavn" />
	</node>
	<node lat="60.832896749835214" lon="11.35342256551535" id="-36274">
		<tag k="name" v="Seglavegen" />
		<tag k="ssr:date" v="2019-12-27" />
		<tag k="ssr:gruppe" v="veg" />
		<tag k="ssr:hovedgruppe" v="infrastruktur" />
		<tag k="ssr:stedsnr" v="1006218" />
		<tag k="ssr:type" v="adressenavn" />
	</node>
	<node lat="60.87040828088434" lon="11.374053995059317" id="-36275">
		<tag k="name" v="Savalsetervegen" />
		<tag k="ssr:date" v="2019-12-27" />
		<tag k="ssr:gruppe" v="veg" />
		<tag k="ssr:hovedgruppe" v="infrastruktur" />
		<tag k="ssr:stedsnr" v="1006222" />
		<tag k="ssr:type" v="adressenavn" />
	</node>
	<node lat="60.81542353661531" lon="11.341481234084895" id="-36277">
		<tag k="name" v="Utgardsvegen" />
		<tag k="ssr:date" v="2019-12-27" />
		<tag k="ssr:gruppe" v="veg" />
		<tag k="ssr:hovedgruppe" v="infrastruktur" />
		<tag k="ssr:stedsnr" v="1006076" />
		<tag k="ssr:type" v="adressenavn" />
	</node>
	<node lat="60.76142944165188" lon="11.550083693269952" id="-36278">
		<tag k="name" v="Vintervegen" />
		<tag k="ssr:date" v="2019-12-27" />
		<tag k="ssr:gruppe" v="veg" />
		<tag k="ssr:hovedgruppe" v="infrastruktur" />
		<tag k="ssr:stedsnr" v="1006145" />
		<tag k="ssr:type" v="adressenavn" />
	</node>
	<node lat="60.8287525990657" lon="11.354116788373895" id="-36279">
		<tag k="name" v="Skrenten" />
		<tag k="ssr:date" v="2019-12-27" />
		<tag k="ssr:gruppe" v="veg" />
		<tag k="ssr:hovedgruppe" v="infrastruktur" />
		<tag k="ssr:stedsnr" v="1006180" />
		<tag k="ssr:type" v="adressenavn" />
	</node>
	<node lat="60.827841308854346" lon="11.302793227328088" id="-36280">
		<tag k="name" v="Skauenvegen" />
		<tag k="ssr:date" v="2019-12-27" />
		<tag k="ssr:gruppe" v="veg" />
		<tag k="ssr:hovedgruppe" v="infrastruktur" />
		<tag k="ssr:stedsnr" v="1006261" />
		<tag k="ssr:type" v="adressenavn" />
	</node>
	<node lat="60.820332884267415" lon="11.352054854612065" id="-36282">
		<tag k="name" v="Sykehusvegen" />
		<tag k="ssr:date" v="2019-12-27" />
		<tag k="ssr:gruppe" v="veg" />
		<tag k="ssr:hovedgruppe" v="infrastruktur" />
		<tag k="ssr:stedsnr" v="1006374" />
		<tag k="ssr:type" v="adressenavn" />
	</node>
	<node lat="60.8088239713497" lon="11.345747981650854" id="-36283">
		<tag k="name" v="Slåttvegen" />
		<tag k="ssr:date" v="2019-12-27" />
		<tag k="ssr:gruppe" v="veg" />
		<tag k="ssr:hovedgruppe" v="infrastruktur" />
		<tag k="ssr:stedsnr" v="1006495" />
		<tag k="ssr:type" v="adressenavn" />
	</node>
	<node lat="60.83156641972325" lon="11.314210541217728" id="-36284">
		<tag k="name" v="Slettmovegen" />
		<tag k="ssr:date" v="2019-12-27" />
		<tag k="ssr:gruppe" v="veg" />
		<tag k="ssr:hovedgruppe" v="infrastruktur" />
		<tag k="ssr:stedsnr" v="1006513" />
		<tag k="ssr:type" v="adressenavn" />
	</node>
	<node lat="60.78893280056229" lon="11.330570383121414" id="-36285">
		<tag k="name" v="Slipervegen" />
		<tag k="ssr:date" v="2019-12-27" />
		<tag k="ssr:gruppe" v="veg" />
		<tag k="ssr:hovedgruppe" v="infrastruktur" />
		<tag k="ssr:stedsnr" v="1006472" />
		<tag k="ssr:type" v="adressenavn" />
	</node>
	<node lat="60.83350412327692" lon="11.317347786913894" id="-36286">
		<tag k="name" v="Svingen" />
		<tag k="ssr:date" v="2019-12-27" />
		<tag k="ssr:gruppe" v="veg" />
		<tag k="ssr:hovedgruppe" v="infrastruktur" />
		<tag k="ssr:stedsnr" v="1006552" />
		<tag k="ssr:type" v="adressenavn" />
	</node>
	<node lat="60.787244216037834" lon="11.327423698619942" id="-36287">
		<tag k="name" v="Støperigutua" />
		<tag k="ssr:date" v="2019-12-27" />
		<tag k="ssr:gruppe" v="veg" />
		<tag k="ssr:hovedgruppe" v="infrastruktur" />
		<tag k="ssr:stedsnr" v="1006559" />
		<tag k="ssr:type" v="adressenavn" />
	</node>
	<node lat="60.818013393375224" lon="11.340153845297413" id="-36288">
		<tag k="name" v="Stasjonsvegen" />
		<tag k="ssr:date" v="2019-12-27" />
		<tag k="ssr:gruppe" v="veg" />
		<tag k="ssr:hovedgruppe" v="infrastruktur" />
		<tag k="ssr:stedsnr" v="1006579" />
		<tag k="ssr:type" v="adressenavn" />
	</node>
	<node lat="60.82456581324447" lon="11.352186727666414" id="-36289">
		<tag k="name" v="Spånestadvegen" />
		<tag k="ssr:date" v="2019-12-27" />
		<tag k="ssr:gruppe" v="veg" />
		<tag k="ssr:hovedgruppe" v="infrastruktur" />
		<tag k="ssr:stedsnr" v="1006583" />
		<tag k="ssr:type" v="adressenavn" />
	</node>
	<node lat="60.823220651145675" lon="11.345088223566444" id="-36295">
		<tag k="name" v="Øverbratta" />
		<tag k="ssr:date" v="2019-12-27" />
		<tag k="ssr:gruppe" v="veg" />
		<tag k="ssr:hovedgruppe" v="infrastruktur" />
		<tag k="ssr:stedsnr" v="1006736" />
		<tag k="ssr:type" v="adressenavn" />
	</node>
	<node lat="60.82517718917415" lon="11.348221579339363" id="-36296">
		<tag k="name" v="Østvangvegen" />
		<tag k="ssr:date" v="2019-12-27" />
		<tag k="ssr:gruppe" v="veg" />
		<tag k="ssr:hovedgruppe" v="infrastruktur" />
		<tag k="ssr:stedsnr" v="1006745" />
		<tag k="ssr:type" v="adressenavn" />
	</node>
	<node lat="60.82047319853573" lon="11.356306815692308" id="-36297">
		<tag k="name" v="Østre Kildeveg" />
		<tag k="ssr:date" v="2019-12-27" />
		<tag k="ssr:gruppe" v="veg" />
		<tag k="ssr:hovedgruppe" v="infrastruktur" />
		<tag k="ssr:stedsnr" v="1006748" />
		<tag k="ssr:type" v="adressenavn" />
	</node>
	<node lat="60.82049562475995" lon="11.34994162850311" id="-36299">
		<tag k="name" v="Øvre Gimleveg" />
		<tag k="ssr:date" v="2019-12-27" />
		<tag k="ssr:gruppe" v="veg" />
		<tag k="ssr:hovedgruppe" v="infrastruktur" />
		<tag k="ssr:stedsnr" v="1006773" />
		<tag k="ssr:type" v="adressenavn" />
	</node>
	<node lat="60.903920222526004" lon="11.421049259266658" id="-36354">
		<tag k="name" v="Jugerudvegen" />
		<tag k="ssr:date" v="2020-09-03" />
		<tag k="ssr:gruppe" v="veg" />
		<tag k="ssr:hovedgruppe" v="infrastruktur" />
		<tag k="ssr:stedsnr" v="1078160" />
		<tag k="ssr:type" v="adressenavn" />
	</node>
	<node lat="60.8205187878946" lon="11.332829021551655" id="-36357">
		<tag k="name" v="Venslihagen" />
		<tag k="ssr:date" v="2020-09-03" />
		<tag k="ssr:gruppe" v="veg" />
		<tag k="ssr:hovedgruppe" v="infrastruktur" />
		<tag k="ssr:stedsnr" v="1078163" />
		<tag k="ssr:type" v="adressenavn" />
	</node>
	<node lat="60.82467414717525" lon="11.304193341537527" id="-36360">
		<tag k="name" v="Heggedalsvegen" />
		<tag k="ssr:date" v="2021-11-22" />
		<tag k="ssr:gruppe" v="veg" />
		<tag k="ssr:hovedgruppe" v="infrastruktur" />
		<tag k="ssr:stedsnr" v="1082943" />
		<tag k="ssr:type" v="adressenavn" />
	</node>
</osm>
