<?xml version="1.0" encoding="UTF-8"?>
<osm generator="osmapis" version="0.6">
	<node id="-850941" lat="64.1707277801" lon="10.4377111106">
		<tag k="name" v="Spannklumpmyra" />
		<tag k="natural" v="wetland" />
		<tag k="ssr:stedsnr" v="942290" />
	</node>
	<node id="-851960" lat="64.1778444465" lon="10.5290222321">
		<tag k="name" v="Kroksdalsmyra" />
		<tag k="natural" v="wetland" />
		<tag k="ssr:stedsnr" v="577356" />
	</node>
	<node id="-851948" lat="64.1305500032" lon="10.639280547">
		<tag k="name" v="Inner Hallen" />
		<tag k="place" v="locality" />
		<tag k="ssr:stedsnr" v="335354" />
	</node>
	<node id="-851434" lat="64.2440694417" lon="10.368808339">
		<tag k="name" v="Storenget" />
		<tag k="place" v="locality" />
		<tag k="ssr:stedsnr" v="941197" />
	</node>
	<node id="-851936" lat="64.169999996" lon="10.6706027788">
		<tag k="name" v="Elgsjømyran" />
		<tag k="natural" v="wetland" />
		<tag k="ssr:stedsnr" v="75474" />
	</node>
	<node id="-850910" lat="64.1610638904" lon="10.4947888814">
		<tag k="name" v="Rørholet" />
		<tag k="place" v="locality" />
		<tag k="ssr:stedsnr" v="759321" />
	</node>
	<node id="-850908" lat="64.1876027747" lon="10.3058527849">
		<tag k="name" v="Nordenget" />
		<tag k="place" v="locality" />
		<tag k="ssr:stedsnr" v="820022" />
	</node>
	<node id="-851706" lat="64.1226277773" lon="10.2047805576">
		<tag k="name" v="Knutkleiva" />
		<tag k="natural" v="scree" />
		<tag k="ssr:stedsnr" v="759073" />
	</node>
	<node id="-851928" lat="64.2383777799" lon="10.3291500077">
		<tag k="name" v="Bessakermarka" />
		<tag k="place" v="locality" />
		<tag k="ssr:stedsnr" v="881190" />
	</node>
	<node id="-851910" lat="64.1703583291" lon="10.5734694495">
		<tag k="name" v="Revnesa" />
		<tag k="natural" v="wetland" />
		<tag k="ssr:stedsnr" v="456272" />
	</node>
	<node id="-850880" lat="64.1319750034" lon="10.1878388877">
		<tag k="name" v="Lomtjønnmyran" />
		<tag k="natural" v="wetland" />
		<tag k="ssr:stedsnr" v="335934" />
	</node>
	<node id="-851390" lat="64.168269445" lon="10.2584611067">
		<tag k="name" v="Kaltimarka" />
		<tag k="place" v="locality" />
		<tag k="ssr:stedsnr" v="274097" />
	</node>
	<node id="-851901" lat="64.2428999977" lon="10.4149166686">
		<tag k="name" v="Joskogen" />
		<tag k="place" v="locality" />
		<tag k="ssr:stedsnr" v="881208" />
	</node>
	<node id="-852402" lat="64.1424861096" lon="10.5629333257">
		<tag k="landuse" v="meadow" />
		<tag k="name" v="Litlenget" />
		<tag k="ssr:stedsnr" v="699703" />
	</node>
	<node id="-851368" lat="64.1737361097" lon="10.2670861208">
		<tag k="name" v="Fjordamyran" />
		<tag k="natural" v="wetland" />
		<tag k="ssr:stedsnr" v="820124" />
	</node>
	<node id="-851366" lat="64.208380554" lon="10.3960694482">
		<tag k="name" v="Veltan" />
		<tag k="place" v="locality" />
		<tag k="ssr:stedsnr" v="395161" />
	</node>
	<node id="-851361" lat="64.1618083303" lon="10.3235333309">
		<tag k="name" v="Brekkmyran" />
		<tag k="natural" v="wetland" />
		<tag k="ssr:stedsnr" v="941160" />
	</node>
	<node id="-851868" lat="64.1261138869" lon="10.6873666601">
		<tag k="name" v="Flåan" />
		<tag k="natural" v="wetland" />
		<tag k="ssr:stedsnr" v="456256" />
	</node>
	<node id="-850837" lat="64.1877250006" lon="10.2928194443">
		<tag k="name" v="Ystenget" />
		<tag k="place" v="locality" />
		<tag k="ssr:stedsnr" v="395030" />
	</node>
	<node id="-851839" lat="64.0996638912" lon="10.2632722296">
		<tag k="name" v="Nesa" />
		<tag k="place" v="locality" />
		<tag k="ssr:stedsnr" v="942080" />
	</node>
	<node id="-850813" lat="64.0984722205" lon="10.2781000023">
		<tag k="name" v="Myran" />
		<tag k="natural" v="wetland" />
		<tag k="ssr:stedsnr" v="335069" />
	</node>
	<node id="-850808" lat="64.1751277769" lon="10.4696777809">
		<tag k="name" v="Storbubukta" />
		<tag k="place" v="locality" />
		<tag k="ssr:stedsnr" v="31265" />
	</node>
	<node id="-850805" lat="64.1786444481" lon="10.4353888965">
		<tag k="name" v="Nilsenget" />
		<tag k="place" v="locality" />
		<tag k="ssr:stedsnr" v="759292" />
	</node>
	<node id="-851315" lat="64.1723583367" lon="10.4414166614">
		<tag k="name" v="Erikenget" />
		<tag k="place" v="locality" />
		<tag k="ssr:stedsnr" v="213333" />
	</node>
	<node id="-852333" lat="64.1405250015" lon="10.4287833248">
		<tag k="name" v="Stormyra" />
		<tag k="natural" v="wetland" />
		<tag k="ssr:stedsnr" v="881304" />
	</node>
	<node id="-850790" lat="64.1748111105" lon="10.433616663">
		<tag k="name" v="Tommelenget" />
		<tag k="place" v="locality" />
		<tag k="ssr:stedsnr" v="759290" />
	</node>
	<node id="-851349" lat="64.128875004" lon="10.6501666671">
		<tag k="name" v="Brøytarmyra" />
		<tag k="natural" v="wetland" />
		<tag k="ssr:stedsnr" v="517265" />
	</node>
	<node id="-851804" lat="64.1580027805" lon="10.3583222313">
		<tag k="name" v="Øyan" />
		<tag k="place" v="locality" />
		<tag k="ssr:stedsnr" v="335336" />
	</node>
	<node id="-850777" lat="64.2341444406" lon="10.2947083286">
		<tag k="name" v="Sørenget" />
		<tag k="place" v="locality" />
		<tag k="ssr:stedsnr" v="941043" />
	</node>
	<node id="-851800" lat="64.1300194427" lon="10.573586102">
		<tag k="name" v="Budstadmyran" />
		<tag k="natural" v="wetland" />
		<tag k="ssr:stedsnr" v="395266" />
	</node>
	<node id="-852306" lat="64.1643222257" lon="10.4032388911">
		<tag k="historic" v="shieling" />
		<tag k="name" v="Olvikseteren" />
		<tag k="place" v="locality" />
		<tag k="ssr:stedsnr" v="274321" />
	</node>
	<node id="-851786" lat="64.1524888878" lon="10.5376611014">
		<tag k="name" v="Korsmyran" />
		<tag k="natural" v="wetland" />
		<tag k="ssr:stedsnr" v="335743" />
	</node>
	<node id="-851273" lat="64.1386888932" lon="10.543944438">
		<tag k="name" v="Langmyra" />
		<tag k="natural" v="wetland" />
		<tag k="ssr:stedsnr" v="517234" />
	</node>
	<node id="-851784" lat="64.2390750006" lon="10.3841944541">
		<tag k="name" v="Setermarka" />
		<tag k="place" v="locality" />
		<tag k="ssr:stedsnr" v="456223" />
	</node>
	<node id="-851267" lat="64.1826527797" lon="10.4244805503">
		<tag k="name" v="Nilsengmyra" />
		<tag k="natural" v="wetland" />
		<tag k="ssr:stedsnr" v="924445" />
	</node>
	<node id="-852289" lat="64.1878416657" lon="10.35736112">
		<tag k="name" v="Stormyra" />
		<tag k="natural" v="wetland" />
		<tag k="ssr:stedsnr" v="213153" />
	</node>
	<node id="-852287" lat="64.132966663" lon="10.3313638793">
		<tag k="name" v="Vesterelvmyran" />
		<tag k="natural" v="wetland" />
		<tag k="ssr:stedsnr" v="759238" />
	</node>
	<node id="-851261" lat="64.1868444415" lon="10.2982555479">
		<tag k="name" v="Buloa" />
		<tag k="place" v="locality" />
		<tag k="ssr:stedsnr" v="881025" />
	</node>
	<node id="-852281" lat="64.1306194481" lon="10.58439444">
		<tag k="name" v="Setermyran" />
		<tag k="natural" v="wetland" />
		<tag k="ssr:stedsnr" v="699235" />
	</node>
	<node id="-852276" lat="64.1465999964" lon="10.6869194344">
		<tag k="name" v="Kjølåkran" />
		<tag k="natural" v="wetland" />
		<tag k="old_name" v="Kjølakran" />
		<tag k="ssr:stedsnr" v="681412" />
	</node>
	<node id="-852273" lat="64.228025001" lon="10.3372722133">
		<tag k="name" v="Hermannslimoen" />
		<tag k="place" v="locality" />
		<tag k="ssr:stedsnr" v="31202" />
	</node>
	<node id="-852269" lat="64.1517888867" lon="10.5152527859">
		<tag k="name" v="Grovamyran" />
		<tag k="natural" v="wetland" />
		<tag k="ssr:stedsnr" v="637281" />
	</node>
	<node id="-852444" lat="64.1094555557" lon="10.2018472224">
		<tag k="name" v="Moen" />
		<tag k="place" v="locality" />
		<tag k="ssr:stedsnr" v="92908" />
	</node>
	<node id="-851931" lat="64.1677666694" lon="10.4839722177">
		<tag k="name" v="Skardmyra" />
		<tag k="natural" v="wetland" />
		<tag k="ssr:stedsnr" v="577361" />
	</node>
	<node id="-851743" lat="64.1241555533" lon="10.2819666752">
		<tag k="name" v="Eldingholmyra" />
		<tag k="natural" v="wetland" />
		<tag k="ssr:stedsnr" v="31064" />
	</node>
	<node id="-851741" lat="64.1444888892" lon="10.3465416689">
		<tag k="name" v="Stimyra" />
		<tag k="natural" v="wetland" />
		<tag k="ssr:stedsnr" v="517337" />
	</node>
	<node id="-851734" lat="64.177291668" lon="10.3904222299">
		<tag k="name" v="Staslimyra" />
		<tag k="natural" v="wetland" />
		<tag k="ssr:stedsnr" v="517341" />
	</node>
	<node id="-852242" lat="64.1674888901" lon="10.4728944536">
		<tag k="name" v="Børengmyra" />
		<tag k="natural" v="wetland" />
		<tag k="ssr:stedsnr" v="820341" />
	</node>
	<node id="-851215" lat="64.1183027755" lon="10.2902250057">
		<tag k="name" v="Seterholet" />
		<tag k="natural" v="wetland" />
		<tag k="ssr:stedsnr" v="274061" />
	</node>
	<node id="-851214" lat="64.2024166639" lon="10.400599998">
		<tag k="name" v="Varpet" />
		<tag k="place" v="locality" />
		<tag k="ssr:stedsnr" v="577186" />
	</node>
	<node id="-852235" lat="64.1866555514" lon="10.230422224">
		<tag k="name" v="Grønnlimyran" />
		<tag k="natural" v="wetland" />
		<tag k="ssr:stedsnr" v="863490" />
	</node>
	<node id="-852227" lat="64.1459055535" lon="10.3322638795">
		<tag k="landuse" v="meadow" />
		<tag k="name" v="Vesterelvslætta" />
		<tag k="ssr:stedsnr" v="881707" />
	</node>
	<node id="-852218" lat="64.1954999992" lon="10.2104027722">
		<tag k="name" v="Strået" />
		<tag k="natural" v="wetland" />
		<tag k="ssr:stedsnr" v="517052" />
	</node>
	<node id="-851184" lat="64.1269972239" lon="10.2607027869">
		<tag k="name" v="Løslimyra" />
		<tag k="natural" v="wetland" />
		<tag k="ssr:stedsnr" v="456075" />
	</node>
	<node id="-852206" lat="64.1699916632" lon="10.4517222259">
		<tag k="name" v="Tverlimyra" />
		<tag k="natural" v="wetland" />
		<tag k="ssr:stedsnr" v="881294" />
	</node>
	<node id="-851181" lat="64.205050004" lon="10.3047361087">
		<tag k="name" v="Breivollen" />
		<tag k="place" v="locality" />
		<tag k="ssr:stedsnr" v="456074" />
	</node>
	<node id="-851172" lat="64.1788416636" lon="10.4014472181">
		<tag k="name" v="Skardmyra" />
		<tag k="natural" v="wetland" />
		<tag k="ssr:stedsnr" v="942335" />
	</node>
	<node id="-851170" lat="64.1754527759" lon="10.5243972208">
		<tag k="name" v="Øyan" />
		<tag k="place" v="locality" />
		<tag k="ssr:stedsnr" v="213285" />
	</node>
	<node id="-852190" lat="64.1780000019" lon="10.5144166656">
		<tag k="name" v="Kvernhusenget" />
		<tag k="place" v="locality" />
		<tag k="ssr:stedsnr" v="456335" />
	</node>
	<node id="-852189" lat="64.1589138929" lon="10.3538083331">
		<tag k="landuse" v="meadow" />
		<tag k="name" v="Engan" />
		<tag k="ssr:stedsnr" v="274306" />
	</node>
	<node id="-852188" lat="64.2473083339" lon="10.4085111188">
		<tag k="name" v="Bjørnamyra" />
		<tag k="natural" v="wetland" />
		<tag k="ssr:stedsnr" v="699209" />
	</node>
	<node id="-852182" lat="64.1930888864" lon="10.4030249902">
		<tag k="name" v="Bommabakkan" />
		<tag k="place" v="locality" />
		<tag k="ssr:stedsnr" v="31180" />
	</node>
	<node id="-851143" lat="64.1198333369" lon="10.4258388991">
		<tag k="name" v="Elgkolva" />
		<tag k="natural" v="wetland" />
		<tag k="ssr:stedsnr" v="152362" />
	</node>
	<node id="-851649" lat="64.1789416694" lon="10.4856138887">
		<tag k="name" v="Nordmarka" />
		<tag k="place" v="locality" />
		<tag k="ssr:stedsnr" v="517330" />
	</node>
	<node id="-851136" lat="64.2022333333" lon="10.3917972182">
		<tag k="name" v="Purktrøa" />
		<tag k="place" v="locality" />
		<tag k="ssr:stedsnr" v="335154" />
	</node>
	<node id="-851127" lat="64.2404888928" lon="10.3070916621">
		<tag k="name" v="Storskardmoen" />
		<tag k="place" v="locality" />
		<tag k="ssr:stedsnr" v="274034" />
	</node>
	<node id="-852145" lat="64.1264833308" lon="10.580386112">
		<tag k="historic" v="shieling" />
		<tag k="name" v="Øystervollen" />
		<tag k="place" v="locality" />
		<tag k="ssr:stedsnr" v="395355" />
	</node>
	<node id="-851117" lat="64.1207361143" lon="10.2608138924">
		<tag k="name" v="Brenna" />
		<tag k="place" v="locality" />
		<tag k="ssr:stedsnr" v="820082" />
	</node>
	<node id="-852081" lat="64.1772444485" lon="10.343458336">
		<tag k="name" v="Fjøsmyra" />
		<tag k="natural" v="wetland" />
		<tag k="ssr:stedsnr" v="152185" />
	</node>
	<node id="-852132" lat="64.1778472201" lon="10.5231944377">
		<tag k="name" v="Fjellsmyra" />
		<tag k="natural" v="wetland" />
		<tag k="ssr:stedsnr" v="395360" />
	</node>
	<node id="-852130" lat="64.1896583305" lon="10.3436277837">
		<tag k="name" v="Demmingsmyran" />
		<tag k="natural" v="wetland" />
		<tag k="ssr:stedsnr" v="334134" />
	</node>
	<node id="-851616" lat="64.2402666708" lon="10.3741805601">
		<tag k="name" v="Halsurda" />
		<tag k="natural" v="scree" />
		<tag k="ssr:stedsnr" v="395224" />
	</node>
	<node id="-851101" lat="64.1401527779" lon="10.440380556">
		<tag k="landuse" v="meadow" />
		<tag k="name" v="Grønnlislåtten" />
		<tag k="ssr:stedsnr" v="152349" />
	</node>
	<node id="-852107" lat="64.1640694452" lon="10.301155551">
		<tag k="name" v="Tømte" />
		<tag k="place" v="locality" />
		<tag k="ssr:stedsnr" v="638093" />
	</node>
	<node id="-852106" lat="64.1958888888" lon="10.2243722157">
		<tag k="name" v="Bolkmyran" />
		<tag k="natural" v="wetland" />
		<tag k="ssr:stedsnr" v="517006" />
	</node>
	<node id="-851076" lat="64.175025004" lon="10.4378527859">
		<tag k="name" v="Blåfotenget" />
		<tag k="place" v="locality" />
		<tag k="ssr:stedsnr" v="152345" />
	</node>
	<node id="-851074" lat="64.1244833325" lon="10.5738361046">
		<tag k="historic" v="shieling" />
		<tag k="name" v="Vestervollen" />
		<tag k="place" v="locality" />
		<tag k="ssr:stedsnr" v="31331" />
	</node>
	<node id="-852416" lat="64.1423972192" lon="10.4354805517">
		<tag k="landuse" v="meadow" />
		<tag k="name" v="Seterenget" />
		<tag k="ssr:stedsnr" v="637343" />
	</node>
	<node id="-851068" lat="64.1896027793" lon="10.3202333329">
		<tag k="name" v="Stormyra" />
		<tag k="natural" v="wetland" />
		<tag k="ssr:stedsnr" v="274017" />
	</node>
	<node id="-851578" lat="64.1535111145" lon="10.4621583396">
		<tag k="name" v="Storholmen" />
		<tag k="place" v="locality" />
		<tag k="ssr:stedsnr" v="517322" />
	</node>
	<node id="-851575" lat="64.1935861085" lon="10.3088388802">
		<tag k="name" v="Sellikrommen" />
		<tag k="place" v="locality" />
		<tag k="ssr:stedsnr" v="31021" />
	</node>
	<node id="-850878" lat="64.1573194417" lon="10.4517055539">
		<tag k="name" v="Tommelhaugsetermyran" />
		<tag k="natural" v="wetland" />
		<tag k="ssr:stedsnr" v="759287" />
	</node>
	<node id="-851057" lat="64.1947388919" lon="10.3597333247">
		<tag k="name" v="Brekka" />
		<tag k="place" v="locality" />
		<tag k="ssr:stedsnr" v="92136" />
	</node>
	<node id="-851053" lat="64.1537277752" lon="10.3535694367">
		<tag k="historic" v="shieling" />
		<tag k="name" v="Setervollen" />
		<tag k="place" v="locality" />
		<tag k="ssr:stedsnr" v="31328" />
	</node>
	<node id="-851563" lat="64.1991861107" lon="10.3091416674">
		<tag k="name" v="Kjeurda" />
		<tag k="natural" v="scree" />
		<tag k="ssr:stedsnr" v="31020" />
	</node>
	<node id="-851040" lat="64.1948611147" lon="10.430247215">
		<tag k="name" v="Tjukkbaret" />
		<tag k="natural" v="wetland" />
		<tag k="ssr:stedsnr" v="92129" />
	</node>
	<node id="-851538" lat="64.1980111086" lon="10.2069305479">
		<tag k="name" v="Plassan" />
		<tag k="place" v="locality" />
		<tag k="ssr:stedsnr" v="759059" />
	</node>
	<node id="-851024" lat="64.1657638915" lon="10.4725694376">
		<tag k="landuse" v="meadow" />
		<tag k="name" v="Hauknesenget" />
		<tag k="ssr:stedsnr" v="699340" />
	</node>
	<node id="-851532" lat="64.1237111067" lon="10.559800008">
		<tag k="name" v="Nermyran" />
		<tag k="natural" v="wetland" />
		<tag k="ssr:stedsnr" v="742338" />
	</node>
	<node id="-852037" lat="64.1593888888" lon="10.4666611107">
		<tag k="name" v="Boksenget" />
		<tag k="place" v="locality" />
		<tag k="ssr:stedsnr" v="395341" />
	</node>
	<node id="-852034" lat="64.1267527811" lon="10.2040361152">
		<tag k="name" v="Gammelbrenna" />
		<tag k="natural" v="wetland" />
		<tag k="ssr:stedsnr" v="820286" />
	</node>
	<node id="-851510" lat="64.138544447" lon="10.3048583283">
		<tag k="name" v="Sørenget" />
		<tag k="natural" v="wetland" />
		<tag k="ssr:stedsnr" v="863400" />
	</node>
	<node id="-850974" lat="64.1490027779" lon="10.3091499987">
		<tag k="name" v="Nysetermyran" />
		<tag k="natural" v="wetland" />
		<tag k="ssr:stedsnr" v="92113" />
	</node>
	<node id="-851483" lat="64.180924997" lon="10.5523722209">
		<tag k="name" v="Tjønnholet" />
		<tag k="natural" v="wetland" />
		<tag k="ssr:stedsnr" v="517291" />
	</node>
	<node id="-851482" lat="64.131119442" lon="10.4288888878">
		<tag k="name" v="Rørholmyran" />
		<tag k="natural" v="wetland" />
		<tag k="ssr:stedsnr" v="863377" />
	</node>
	<node id="-851993" lat="64.1524694489" lon="10.3778527798">
		<tag k="landuse" v="meadow" />
		<tag k="name" v="Kjerringslætta" />
		<tag k="ssr:stedsnr" v="214324" />
	</node>
	<node id="-851990" lat="64.1577249964" lon="10.3198749991">
		<tag k="historic" v="shieling" />
		<tag k="name" v="Gammelsetervollen" />
		<tag k="place" v="locality" />
		<tag k="ssr:stedsnr" v="31122" />
	</node>
	<node id="-851289" lat="64.1294722237" lon="10.6638777818">
		<tag k="name" v="Indre Vargfossnesa" />
		<tag k="natural" v="wetland" />
		<tag k="ssr:stedsnr" v="627880" />
	</node>
	<node id="-851978" lat="64.168702776" lon="10.3273833353">
		<tag k="name" v="Brunnmyran" />
		<tag k="natural" v="wetland" />
		<tag k="ssr:stedsnr" v="759164" />
	</node>
	<node id="-851976" lat="64.1437972222" lon="10.4433388957">
		<tag k="landuse" v="meadow" />
		<tag k="name" v="Karienget" />
		<tag k="ssr:stedsnr" v="820303" />
	</node>
	<node id="-851975" lat="64.1797916686" lon="10.4402111011">
		<tag k="name" v="Reppmyra" />
		<tag k="natural" v="wetland" />
		<tag k="ssr:stedsnr" v="395324" />
	</node>
</osm>
