<?xml version="1.0" encoding="UTF-8"?>
<osm generator="osmapis" version="0.6">
	<node id="-850944" lat="64.1736611152" lon="10.3154583413">
		<tag k="name" v="Gunnarskardvatnet" />
		<tag k="natural" v="water" />
		<tag k="ssr:stedsnr" v="378469" />
	</node>
	<node id="-850430" lat="64.2301444457" lon="10.4601416754">
		<tag k="loc_name" v="Skjerlivatna" />
		<tag k="name" v="Skjærlivatna" />
		<tag k="natural" v="water" />
		<tag k="ssr:stedsnr" v="577760" />
		<tag k="water" v="lake" />
	</node>
	<node id="-850939" lat="64.1552694429" lon="10.6835861013">
		<tag k="name" v="Fremmer Kjølåkertjønna" />
		<tag k="natural" v="water" />
		<tag k="ssr:stedsnr" v="699267" />
	</node>
	<node id="-850423" lat="64.0829666673" lon="10.3464722177">
		<tag k="name" v="Ramnvatnet" />
		<tag k="natural" v="water" />
		<tag k="ssr:stedsnr" v="377312" />
	</node>
	<node id="-850421" lat="64.2301444457" lon="10.4601416754">
		<tag k="name" v="Øvre Skjærlivatnet" />
		<tag k="natural" v="water" />
		<tag k="ssr:stedsnr" v="620057" />
		<tag k="water" v="lake" />
	</node>
	<node id="-850420" lat="64.1968111093" lon="10.4400166615">
		<tag k="name" v="Tverrdalstjønna" />
		<tag k="natural" v="water" />
		<tag k="ssr:stedsnr" v="924019" />
	</node>
	<node id="-850930" lat="64.1497250014" lon="10.2814138814">
		<tag k="alt_name" v="Jenselivatnet, vestre" />
		<tag k="name" v="Vestre Jenselivatnet" />
		<tag k="natural" v="water" />
		<tag k="ssr:stedsnr" v="377400" />
		<tag k="water" v="lake" />
	</node>
	<node id="-850417" lat="64.1527472264" lon="10.3246055543">
		<tag k="name" v="Øyster Småtjønnan" />
		<tag k="natural" v="water" />
		<tag k="ssr:stedsnr" v="820711" />
	</node>
	<node id="-849903" lat="64.1509750042" lon="10.62025833">
		<tag k="name" v="Lomtjønna" />
		<tag k="natural" v="water" />
		<tag k="ssr:stedsnr" v="196375" />
	</node>
	<node id="-849899" lat="64.204272225" lon="10.4236250003">
		<tag k="name" v="Kuppulskardbekken" />
		<tag k="ssr:stedsnr" v="395167" />
		<tag k="waterway" v="stream" />
	</node>
	<node id="-849896" lat="64.069613892" lon="10.3493749964">
		<tag k="name" v="Holmvatnet" />
		<tag k="natural" v="water" />
		<tag k="ssr:stedsnr" v="74314" />
	</node>
	<node id="-850917" lat="64.146097221" lon="10.4546972207">
		<tag k="name" v="Seterelva" />
		<tag k="ssr:stedsnr" v="377399" />
		<tag k="waterway" v="stream" />
	</node>
	<node id="-850916" lat="64.1163250037" lon="10.1982166626">
		<tag k="name" v="Bonvatnet" />
		<tag k="natural" v="water" />
		<tag k="ssr:stedsnr" v="742188" />
	</node>
	<node id="-850403" lat="64.1710416686" lon="10.2953583386">
		<tag k="name" v="Slettskardvatnet" />
		<tag k="natural" v="water" />
		<tag k="ssr:stedsnr" v="75468" />
	</node>
	<node id="-850911" lat="64.1571555581" lon="10.5468194379">
		<tag k="name" v="Melafossen" />
		<tag k="natural" v="waterfall" />
		<tag k="ssr:stedsnr" v="699699" />
	</node>
	<node id="-850910" lat="64.2229611139" lon="10.4783111164">
		<tag k="name" v="Skjærlivasstjønna" />
		<tag k="natural" v="water" />
		<tag k="ssr:stedsnr" v="942251" />
	</node>
	<node id="-850909" lat="64.1147722226" lon="10.1873083255">
		<tag k="name" v="Mattisvatnet" />
		<tag k="natural" v="water" />
		<tag k="ssr:stedsnr" v="742190" />
	</node>
	<node id="-850908" lat="64.0628249982" lon="10.2594666692">
		<tag k="name" v="Holan" />
		<tag k="place" v="locality" />
		<tag k="ssr:stedsnr" v="196270" />
	</node>
	<node id="-850395" lat="64.0962361078" lon="10.2500027872">
		<tag k="name" v="Grandalstjønna" />
		<tag k="natural" v="water" />
		<tag k="ssr:stedsnr" v="924292" />
	</node>
	<node id="-850903" lat="64.1705000017" lon="10.5724666677">
		<tag k="name" v="Langsteinbekken" />
		<tag k="ssr:stedsnr" v="378460" />
		<tag k="waterway" v="stream" />
	</node>
	<node id="-850902" lat="64.2292611118" lon="10.4020500086">
		<tag k="name" v="Tømmerneset" />
		<tag k="natural" v="cape" />
		<tag k="ssr:stedsnr" v="213168" />
	</node>
	<node id="-850900" lat="64.1166638886" lon="10.213672227">
		<tag k="name" v="Nilsvatnet" />
		<tag k="natural" v="water" />
		<tag k="ssr:stedsnr" v="135190" />
	</node>
	<node id="-850254" lat="64.2298083312" lon="10.4061638787">
		<tag k="name" v="Granholvatnet" />
		<tag k="natural" v="water" />
		<tag k="ssr:stedsnr" v="681059" />
	</node>
	<node id="-849874" lat="64.1352416636" lon="10.3693388966">
		<tag k="name" v="Inner Elgholtjønna" />
		<tag k="natural" v="water" />
		<tag k="ssr:stedsnr" v="335233" />
	</node>
	<node id="-849613" lat="64.1401055517" lon="10.3339888828">
		<tag k="name" v="Vesterelvtjønna" />
		<tag k="natural" v="water" />
		<tag k="ssr:stedsnr" v="942321" />
	</node>
	<node id="-850383" lat="64.252627782" lon="10.3698694467">
		<tag k="name" v="Trolldalsbekken" />
		<tag k="ssr:stedsnr" v="637213" />
		<tag k="waterway" v="stream" />
	</node>
	<node id="-849870" lat="64.1186333328" lon="10.2591166711">
		<tag k="name" v="Olderbakkbekken" />
		<tag k="ssr:stedsnr" v="637071" />
		<tag k="waterway" v="stream" />
	</node>
	<node id="-850892" lat="64.2314972235" lon="10.3924333345">
		<tag k="name" v="Granholtjønna" />
		<tag k="natural" v="water" />
		<tag k="ssr:stedsnr" v="213169" />
	</node>
	<node id="-850891" lat="64.1636472205" lon="10.3298138969">
		<tag k="name" v="Einarsdalselva" />
		<tag k="ssr:stedsnr" v="378457" />
		<tag k="waterway" v="stream" />
	</node>
	<node id="-850890" lat="64.1381454914" lon="10.3343893948">
		<tag k="name" v="Vesterelvtjønnan" />
		<tag k="natural" v="water" />
		<tag k="ssr:stedsnr" v="377387" />
	</node>
	<node id="-850377" lat="64.1148750002" lon="10.356269446">
		<tag k="name" v="Storelvvatnet" />
		<tag k="natural" v="water" />
		<tag k="ssr:stedsnr" v="681364" />
		<tag k="water" v="lake" />
	</node>
	<node id="-849352" lat="64.1482444475" lon="10.4373361152">
		<tag k="name" v="Lomtjønna" />
		<tag k="natural" v="water" />
		<tag k="ssr:stedsnr" v="924389" />
	</node>
	<node id="-849484" lat="64.1616916683" lon="10.4368999975">
		<tag k="name" v="Kvernbekken" />
		<tag k="ssr:stedsnr" v="942285" />
		<tag k="waterway" v="stream" />
	</node>
	<node id="-849350" lat="64.1843166641" lon="10.5887527854">
		<tag k="name" v="Otertjønna" />
		<tag k="natural" v="water" />
		<tag k="ssr:stedsnr" v="378502" />
	</node>
	<node id="-850885" lat="64.1744611073" lon="10.5787388931">
		<tag k="name" v="Finnbekkdalsbekken" />
		<tag k="ssr:stedsnr" v="637302" />
		<tag k="waterway" v="stream" />
	</node>
	<node id="-849818" lat="64.2094166625" lon="10.4593999951">
		<tag k="name" v="Haltlitjønna" />
		<tag k="natural" v="water" />
		<tag k="ssr:stedsnr" v="378013" />
	</node>
	<node id="-850370" lat="64.1290166668" lon="10.386069444">
		<tag k="name" v="Klumpvatnet" />
		<tag k="natural" v="water" />
		<tag k="ssr:stedsnr" v="74381" />
		<tag k="water" v="lake" />
	</node>
	<node id="-850364" lat="64.1285638898" lon="10.3716499963">
		<tag k="name" v="Lunnskardtjønnan" />
		<tag k="natural" v="water" />
		<tag k="ssr:stedsnr" v="74382" />
	</node>
	<node id="-850875" lat="64.0900277767" lon="10.2662777729">
		<tag k="name" v="Kolatjønna" />
		<tag k="natural" v="water" />
		<tag k="ssr:stedsnr" v="741372" />
	</node>
	<node id="-850873" lat="64.0841444419" lon="10.2354722149">
		<tag k="name" v="Djuptjønna" />
		<tag k="natural" v="water" />
		<tag k="ssr:stedsnr" v="499246" />
	</node>
	<node id="-850360" lat="64.1573611078" lon="10.4318444503">
		<tag k="alt_name" v="Tommelhaugsetertjønnan" />
		<tag k="name" v="Frem-Kvernvatnet" />
		<tag k="natural" v="water" />
		<tag k="ssr:stedsnr" v="863433" />
	</node>
	<node id="-850871" lat="64.0627500016" lon="10.2251361122">
		<tag k="name" v="Holmvatnet" />
		<tag k="natural" v="water" />
		<tag k="ssr:stedsnr" v="196260" />
	</node>
	<node id="-849332" lat="64.1667944486" lon="10.5433888986">
		<tag k="name" v="Kistfossen" />
		<tag k="natural" v="waterfall" />
		<tag k="ssr:stedsnr" v="152287" />
	</node>
	<node id="-849841" lat="64.0963750042" lon="10.2674944452">
		<tag k="name" v="Grandalsbekken" />
		<tag k="ssr:stedsnr" v="881076" />
		<tag k="waterway" v="stream" />
	</node>
	<node id="-850350" lat="64.1335638925" lon="10.4158444497">
		<tag k="name" v="Tangen" />
		<tag k="natural" v="cape" />
		<tag k="ssr:stedsnr" v="577333" />
	</node>
	<node id="-850860" lat="64.1855138883" lon="10.4225111058">
		<tag k="name" v="Hofstaddalselva" />
		<tag k="ssr:stedsnr" v="681420" />
		<tag k="waterway" v="river" />
	</node>
	<node id="-850347" lat="64.2298000002" lon="10.4367222163">
		<tag k="name" v="Nedre Skjærlivatnet" />
		<tag k="natural" v="water" />
		<tag k="ssr:stedsnr" v="317052" />
		<tag k="water" v="lake" />
	</node>
	<node id="-849321" lat="64.1983666664" lon="10.3210000077">
		<tag k="name" v="Høgklumptjønna" />
		<tag k="natural" v="water" />
		<tag k="ssr:stedsnr" v="74487" />
	</node>
	<node id="-849319" lat="64.1226055539" lon="10.5763000067">
		<tag k="name" v="Breivadneset" />
		<tag k="natural" v="cape" />
		<tag k="ssr:stedsnr" v="699291" />
	</node>
	<node id="-849393" lat="64.2128361147" lon="10.4278055567">
		<tag k="name" v="Kuppulskardtjønna" />
		<tag k="natural" v="water" />
		<tag k="ssr:stedsnr" v="439009" />
	</node>
	<node id="-850851" lat="64.2284611073" lon="10.4119722244">
		<tag k="name" v="Elgvikbekken" />
		<tag k="ssr:stedsnr" v="516228" />
		<tag k="waterway" v="stream" />
	</node>
	<node id="-849314" lat="64.2179916628" lon="10.430747221">
		<tag k="name" v="Pinsvatnet" />
		<tag k="natural" v="water" />
		<tag k="ssr:stedsnr" v="499001" />
	</node>
	<node id="-850335" lat="64.1216472245" lon="10.5161833423">
		<tag k="name" v="Gaupkolltjønna" />
		<tag k="natural" v="water" />
		<tag k="ssr:stedsnr" v="317331" />
	</node>
	<node id="-849310" lat="64.2542277792" lon="10.3459527784">
		<tag k="name" v="Teisthaugen" />
		<tag k="natural" v="cape" />
		<tag k="ssr:stedsnr" v="269012" />
	</node>
	<node id="-850331" lat="64.1301555564" lon="10.2828111087">
		<tag k="name" v="Hanafjellbekken" />
		<tag k="ssr:stedsnr" v="699083" />
		<tag k="waterway" v="stream" />
	</node>
	<node id="-850842" lat="64.193576321" lon="10.57508192">
		<tag k="name" v="Holbekkskardtjønnan" />
		<tag k="natural" v="water" />
		<tag k="ssr:stedsnr" v="14414" />
	</node>
	<node id="-850841" lat="64.1323749986" lon="10.5417611168">
		<tag k="name" v="Storbekken" />
		<tag k="ssr:stedsnr" v="759245" />
		<tag k="waterway" v="stream" />
	</node>
	<node id="-850345" lat="64.1777388858" lon="10.2732277719">
		<tag k="name" v="Fjordabekken" />
		<tag k="ssr:stedsnr" v="152121" />
		<tag k="waterway" v="stream" />
	</node>
	<node id="-850837" lat="64.1272972209" lon="10.6464666626">
		<tag k="name" v="Fossneset" />
		<tag k="natural" v="cape" />
		<tag k="ssr:stedsnr" v="637315" />
	</node>
	<node id="-850323" lat="64.1467222251" lon="10.5980138871">
		<tag k="name" v="Merratjønna" />
		<tag k="natural" v="water" />
		<tag k="ssr:stedsnr" v="742375" />
	</node>
	<node id="-849809" lat="64.1256916706" lon="10.2541777837">
		<tag k="name" v="Løslibekken" />
		<tag k="ssr:stedsnr" v="820097" />
		<tag k="waterway" v="stream" />
	</node>
	<node id="-849807" lat="64.2592861119" lon="10.3637777699">
		<tag k="name" v="Skipholbekken" />
		<tag k="ssr:stedsnr" v="92193" />
		<tag k="waterway" v="stream" />
	</node>
	<node id="-849645" lat="64.0653083339" lon="10.2464611033">
		<tag k="name" v="Lyspæra" />
		<tag k="natural" v="water" />
		<tag k="ssr:stedsnr" v="803310" />
	</node>
	<node id="-850315" lat="64.1215972216" lon="10.3273749975">
		<tag k="name" v="Litlstorelvvatnet" />
		<tag k="natural" v="water" />
		<tag k="ssr:stedsnr" v="681353" />
	</node>
	<node id="-850314" lat="64.2204777781" lon="10.4205305596">
		<tag k="name" v="Nyvatnet" />
		<tag k="natural" v="water" />
		<tag k="ssr:stedsnr" v="924004" />
	</node>
	<node id="-850311" lat="64.1068361129" lon="10.3721361086">
		<tag k="name" v="Blankstuvatnet" />
		<tag k="natural" v="water" />
		<tag k="ssr:stedsnr" v="257390" />
	</node>
	<node id="-849798" lat="64.1439111113" lon="10.5516222125">
		<tag k="name" v="Svarttjønna" />
		<tag k="natural" v="water" />
		<tag k="ssr:stedsnr" v="499346" />
	</node>
	<node id="-850309" lat="64.2361833343" lon="10.2869638945">
		<tag k="name" v="Storvikbekken" />
		<tag k="ssr:stedsnr" v="334045" />
		<tag k="waterway" v="stream" />
	</node>
	<node id="-850820" lat="64.077975003" lon="10.1961777683">
		<tag k="name" v="Håvikvatnet" />
		<tag k="natural" v="water" />
		<tag k="ssr:stedsnr" v="681165" />
	</node>
	<node id="-849302" lat="64.1870000028" lon="10.3523777881">
		<tag k="name" v="Dalabekken" />
		<tag k="ssr:stedsnr" v="517118" />
		<tag k="waterway" v="stream" />
	</node>
	<node id="-850817" lat="64.1545944408" lon="10.3557555582">
		<tag k="name" v="Kjerringelva" />
		<tag k="ssr:stedsnr" v="881316" />
		<tag k="waterway" v="river" />
	</node>
	<node id="-850295" lat="64.1430249971" lon="10.6613138943">
		<tag k="name" v="Grønlivatnet" />
		<tag k="natural" v="water" />
		<tag k="ssr:stedsnr" v="14326" />
	</node>
	<node id="-849780" lat="64.1096444413" lon="10.3929888912">
		<tag k="name" v="Krokvatnet" />
		<tag k="natural" v="water" />
		<tag k="ssr:stedsnr" v="439352" />
		<tag k="water" v="lake" />
	</node>
	<node id="-850290" lat="64.0959750011" lon="10.3011222229">
		<tag k="name" v="Olaskardtjønna" />
		<tag k="natural" v="water" />
		<tag k="ssr:stedsnr" v="620311" />
	</node>
	<node id="-850067" lat="64.1151388921" lon="10.5499388927">
		<tag k="name" v="Tvillingstakkbekken" />
		<tag k="ssr:stedsnr" v="577267" />
		<tag k="waterway" v="stream" />
	</node>
	<node id="-850800" lat="64.2283805569" lon="10.4258444491">
		<tag k="name" v="Vestre Skjærlivatnet" />
		<tag k="natural" v="water" />
		<tag k="ssr:stedsnr" v="759213" />
		<tag k="water" v="lake" />
	</node>
	<node id="-850287" lat="64.1339999967" lon="10.2480583283">
		<tag k="name" v="Langvatnet" />
		<tag k="natural" v="water" />
		<tag k="ssr:stedsnr" v="135377" />
	</node>
	<node id="-850796" lat="64.1403722261" lon="10.2813944545">
		<tag k="name" v="Hanafjelltjønna" />
		<tag k="natural" v="water" />
		<tag k="ssr:stedsnr" v="620369" />
	</node>
	<node id="-850281" lat="64.1280416695" lon="10.234974992">
		<tag k="name" v="Andreannavatnet" />
		<tag k="natural" v="water" />
		<tag k="ssr:stedsnr" v="135378" />
	</node>
	<node id="-850279" lat="64.0663166654" lon="10.2416083256">
		<tag k="name" v="Huldervatnet" />
		<tag k="natural" v="water" />
		<tag k="ssr:stedsnr" v="377296" />
	</node>
	<node id="-850790" lat="64.1895944427" lon="10.3338361163">
		<tag k="name" v="Grønlivatna" />
		<tag k="natural" v="water" />
		<tag k="ssr:stedsnr" v="863497" />
	</node>
	<node id="-850789" lat="64.1905888871" lon="10.4067694343">
		<tag k="name" v="Holmen" />
		<tag k="place" v="islet" />
		<tag k="ssr:stedsnr" v="213148" />
	</node>
	<node id="-850788" lat="64.2304444414" lon="10.3402388901">
		<tag k="name" v="Blåfjellbekken" />
		<tag k="ssr:stedsnr" v="759208" />
		<tag k="waterway" v="stream" />
	</node>
	<node id="-850275" lat="64.2274388889" lon="10.4166611206">
		<tag k="name" v="Elgtjønna" />
		<tag k="natural" v="water" />
		<tag k="ssr:stedsnr" v="456230" />
	</node>
	<node id="-849762" lat="64.2286527741" lon="10.3203388855">
		<tag k="name" v="Nonsvatnet" />
		<tag k="natural" v="water" />
		<tag k="ssr:stedsnr" v="803049" />
	</node>
	<node id="-849723" lat="64.1146277772" lon="10.2974000021">
		<tag k="name" v="Tusstjønna" />
		<tag k="natural" v="water" />
		<tag k="ssr:stedsnr" v="456095" />
	</node>
	<node id="-850271" lat="64.1289388911" lon="10.4443694548">
		<tag k="name" v="Rundtjønna" />
		<tag k="natural" v="water" />
		<tag k="ssr:stedsnr" v="803392" />
	</node>
	<node id="-849758" lat="64.1294555575" lon="10.2540250045">
		<tag k="name" v="Aneholbekken" />
		<tag k="ssr:stedsnr" v="456090" />
		<tag k="waterway" v="stream" />
	</node>
	<node id="-850781" lat="64.1115638847" lon="10.400883335">
		<tag k="name" v="Krokvasstangen" />
		<tag k="natural" v="cape" />
		<tag k="ssr:stedsnr" v="637278" />
	</node>
	<node id="-850268" lat="64.1331888917" lon="10.1722555594">
		<tag k="name" v="Kalvtjønna" />
		<tag k="natural" v="water" />
		<tag k="ssr:stedsnr" v="152923" />
	</node>
	<node id="-849466" lat="64.1942944429" lon="10.5096250031">
		<tag k="name" v="Langvassbekken" />
		<tag k="ssr:stedsnr" v="31300" />
		<tag k="waterway" v="stream" />
	</node>
	<node id="-850266" lat="64.1865805567" lon="10.4851833241">
		<tag k="name" v="Litl Nesatjønna" />
		<tag k="natural" v="water" />
		<tag k="ssr:stedsnr" v="577304" />
	</node>
	<node id="-850264" lat="64.1834583329" lon="10.5183527863">
		<tag k="name" v="Kvernhusengbekken" />
		<tag k="ssr:stedsnr" v="335305" />
		<tag k="waterway" v="stream" />
	</node>
	<node id="-849636" lat="64.095855553" lon="10.3823499937">
		<tag k="name" v="Klotterengtjønna" />
		<tag k="natural" v="water" />
		<tag k="ssr:stedsnr" v="75343" />
	</node>
	<node id="-850261" lat="64.099188891" lon="10.3230861098">
		<tag k="name" v="Stortøssen" />
		<tag k="natural" v="water" />
		<tag k="ssr:stedsnr" v="681326" />
		<tag k="water" v="lake" />
	</node>
	<node id="-850770" lat="64.2461138902" lon="10.3692666612">
		<tag k="name" v="Mossaneset" />
		<tag k="natural" v="cape" />
		<tag k="ssr:stedsnr" v="516221" />
	</node>
	<node id="-850257" lat="64.1741000041" lon="10.3204583327">
		<tag k="alt_name" v="Kvernavatna" />
		<tag k="name" v="Kvernvatnet" />
		<tag k="natural" v="water" />
		<tag k="ssr:stedsnr" v="196423" />
	</node>
	<node id="-850768" lat="64.1769999968" lon="10.2925277717">
		<tag k="name" v="Kvernvatna" />
		<tag k="natural" v="water" />
		<tag k="ssr:stedsnr" v="135451" />
	</node>
	<node id="-850766" lat="64.2056944467" lon="10.3328472243">
		<tag k="name" v="Eshamnbekken" />
		<tag k="ssr:stedsnr" v="152218" />
		<tag k="waterway" v="stream" />
	</node>
	<node id="-849735" lat="64.121969441" lon="10.1930999942">
		<tag k="name" v="Litlkorsen" />
		<tag k="natural" v="water" />
		<tag k="ssr:stedsnr" v="870676" />
	</node>
	<node id="-850757" lat="64.1297277735" lon="10.15929722">
		<tag k="name" v="Hagadalsbekken" />
		<tag k="ssr:stedsnr" v="517901" />
		<tag k="waterway" v="stream" />
	</node>
	<node id="-850244" lat="64.2169000006" lon="10.5074000016">
		<tag k="name" v="Holmvatna" />
		<tag k="natural" v="water" />
		<tag k="ssr:stedsnr" v="620008" />
		<tag k="water" v="lake" />
	</node>
	<node id="-849729" lat="64.115580559" lon="10.2651027852">
		<tag k="name" v="Hagabekken" />
		<tag k="ssr:stedsnr" v="820109" />
		<tag k="waterway" v="stream" />
	</node>
	<node id="-850748" lat="64.1948307445" lon="10.5706477853">
		<tag k="name" v="Holbekkskardtjønna" />
		<tag k="natural" v="water" />
		<tag k="ssr:stedsnr" v="456785" />
	</node>
	<node id="-850826" lat="64.195988893" lon="10.3995499969">
		<tag k="name" v="Teistfossen" />
		<tag k="natural" v="waterfall" />
		<tag k="ssr:stedsnr" v="742460" />
	</node>
	<node id="-850233" lat="64.0958194488" lon="10.3623416611">
		<tag k="name" v="Åfjordlitltøssen" />
		<tag k="natural" v="water" />
		<tag k="ssr:stedsnr" v="681323" />
	</node>
	<node id="-850228" lat="64.1012472195" lon="10.2569305639">
		<tag k="name" v="Tysvikelva" />
		<tag k="ssr:stedsnr" v="152917" />
		<tag k="waterway" v="river" />
	</node>
	<node id="-850398" lat="64.1259916626" lon="10.6565055581">
		<tag k="name" v="Storneset" />
		<tag k="natural" v="cape" />
		<tag k="ssr:stedsnr" v="395290" />
	</node>
	<node id="-850227" lat="64.1899388896" lon="10.4985444453">
		<tag k="name" v="Nesatjønna" />
		<tag k="natural" v="water" />
		<tag k="ssr:stedsnr" v="499414" />
	</node>
	<node id="-849712" lat="64.1919527815" lon="10.5404805501">
		<tag k="name" v="Tjønnlitjønna" />
		<tag k="natural" v="water" />
		<tag k="ssr:stedsnr" v="213294" />
	</node>
	<node id="-849885" lat="64.1405888894" lon="10.6759333342">
		<tag k="name" v="Nordelva" />
		<tag k="ssr:stedsnr" v="637480" />
		<tag k="waterway" v="river" />
	</node>
	<node id="-850219" lat="64.1748111105" lon="10.3818416667">
		<tag k="name" v="Kvernelva" />
		<tag k="ssr:stedsnr" v="820204" />
		<tag k="waterway" v="river" />
	</node>
	<node id="-850730" lat="64.1521555582" lon="10.2884972192">
		<tag k="alt_name" v="Jenselivatnet, østre" />
		<tag k="name" v="Østre Jenselivatnet" />
		<tag k="natural" v="water" />
		<tag k="ssr:stedsnr" v="256376" />
		<tag k="water" v="lake" />
	</node>
	<node id="-849799" lat="64.1102694487" lon="10.2223583418">
		<tag k="name" v="Langdalsbekken" />
		<tag k="ssr:stedsnr" v="274916" />
		<tag k="waterway" v="stream" />
	</node>
	<node id="-850216" lat="64.1921083313" lon="10.4677333335">
		<tag k="name" v="Larstjønna" />
		<tag k="natural" v="water" />
		<tag k="ssr:stedsnr" v="499415" />
	</node>
	<node id="-849372" lat="64.1060666635" lon="10.6120361054">
		<tag k="name" v="Nyvatnet" />
		<tag k="natural" v="water" />
		<tag k="ssr:stedsnr" v="499282" />
		<tag k="water" v="lake" />
	</node>
	<node id="-850726" lat="64.1610888884" lon="10.3651166599">
		<tag k="name" v="Slettstranda" />
		<tag k="natural" v="beach" />
		<tag k="ssr:stedsnr" v="31182" />
	</node>
	<node id="-850210" lat="64.1138055524" lon="10.2852111156">
		<tag k="name" v="Seterholbekken" />
		<tag k="ssr:stedsnr" v="699078" />
		<tag k="waterway" v="stream" />
	</node>
	<node id="-849696" lat="64.1725527789" lon="10.3217055637">
		<tag k="name" v="Kvernabekken" />
		<tag k="ssr:stedsnr" v="395116" />
		<tag k="waterway" v="stream" />
	</node>
	<node id="-849694" lat="64.1786388899" lon="10.3479694438">
		<tag k="name" v="Tjuvholbekken" />
		<tag k="ssr:stedsnr" v="92158" />
		<tag k="waterway" v="stream" />
	</node>
	<node id="-850205" lat="64.0857500037" lon="10.1917444366">
		<tag k="name" v="Håvikelva" />
		<tag k="ssr:stedsnr" v="699077" />
		<tag k="waterway" v="river" />
	</node>
	<node id="-849335" lat="64.1558416673" lon="10.6456722147">
		<tag k="name" v="Langtjønna" />
		<tag k="natural" v="water" />
		<tag k="ssr:stedsnr" v="924397" />
	</node>
	<node id="-850711" lat="64.2381166694" lon="10.3308527824">
		<tag k="name" v="Bessakerelva" />
		<tag k="ssr:stedsnr" v="13049" />
		<tag k="waterway" v="stream" />
	</node>
	<node id="-850188" lat="64.1173916665" lon="10.1797611038">
		<tag k="name" v="Storkiranslivatnet" />
		<tag k="natural" v="water" />
		<tag k="ssr:stedsnr" v="864210" />
	</node>
	<node id="-850193" lat="64.114966665" lon="10.256711101">
		<tag k="name" v="Nordskjørelva" />
		<tag k="ssr:stedsnr" v="335291" />
		<tag k="waterway" v="river" />
	</node>
	<node id="-850704" lat="64.1214861148" lon="10.1874500034">
		<tag k="alt_name" v="Storkorsvatnet" />
		<tag k="name" v="Korsvatnet" />
		<tag k="natural" v="water" />
		<tag k="ssr:stedsnr" v="559205" />
	</node>
	<node id="-849678" lat="64.1826527752" lon="10.3453416563">
		<tag k="name" v="Høghaugtjønna" />
		<tag k="natural" v="water" />
		<tag k="ssr:stedsnr" v="377475" />
	</node>
	<node id="-849677" lat="64.2384499975" lon="10.4094500063">
		<tag k="name" v="Skjærlivasselva" />
		<tag k="ssr:stedsnr" v="559048" />
		<tag k="waterway" v="stream" />
	</node>
	<node id="-850700" lat="64.1590583364" lon="10.2810805516">
		<tag k="name" v="Prestvatnet" />
		<tag k="natural" v="water" />
		<tag k="ssr:stedsnr" v="74425" />
	</node>
	<node id="-849674" lat="64.0601611104" lon="10.223566662">
		<tag k="name" v="Langvatnet" />
		<tag k="natural" v="water" />
		<tag k="ssr:stedsnr" v="135271" />
	</node>
	<node id="-850391" lat="64.2153138873" lon="10.4424083248">
		<tag k="name" v="Rundtjønna" />
		<tag k="natural" v="water" />
		<tag k="ssr:stedsnr" v="699128" />
	</node>
	<node id="-849373" lat="64.1893333377" lon="10.5116249922">
		<tag k="name" v="Mølnlivatnet" />
		<tag k="natural" v="water" />
		<tag k="ssr:stedsnr" v="74495" />
		<tag k="water" v="lake" />
	</node>
	<node id="-850692" lat="64.1760222223" lon="10.5913027706">
		<tag k="name" v="Olviksetertjønna" />
		<tag k="natural" v="water" />
		<tag k="ssr:stedsnr" v="742416" />
	</node>
	<node id="-849878" lat="64.110447225" lon="10.2124638864">
		<tag k="name" v="Inner Joskjørbekken" />
		<tag k="ssr:stedsnr" v="881923" />
		<tag k="waterway" v="stream" />
	</node>
	<node id="-850178" lat="64.1600888917" lon="10.4970861159">
		<tag k="name" v="Grovadalselva" />
		<tag k="ssr:stedsnr" v="577295" />
		<tag k="waterway" v="river" />
	</node>
	<node id="-850688" lat="64.138541671" lon="10.2415249947">
		<tag k="name" v="Nonsfjellvatnet" />
		<tag k="natural" v="water" />
		<tag k="ssr:stedsnr" v="256367" />
	</node>
	<node id="-849450" lat="64.1399166708" lon="10.3578999995">
		<tag k="name" v="Elgholtjønna" />
		<tag k="natural" v="water" />
		<tag k="ssr:stedsnr" v="942307" />
	</node>
	<node id="-850168" lat="64.2333138924" lon="10.2956638981">
		<tag k="name" v="Sankthansbekken" />
		<tag k="ssr:stedsnr" v="31041" />
		<tag k="waterway" v="stream" />
	</node>
	<node id="-849364" lat="64.0988166693" lon="10.3067138898">
		<tag k="name" v="Eriklitjønna" />
		<tag k="natural" v="water" />
		<tag k="ssr:stedsnr" v="196294" />
	</node>
	<node id="-850678" lat="64.1628138875" lon="10.272177771">
		<tag k="name" v="Prestfossen" />
		<tag k="natural" v="waterfall" />
		<tag k="ssr:stedsnr" v="213124" />
	</node>
	<node id="-849943" lat="64.1291388908" lon="10.6414166755">
		<tag k="name" v="Inner Vargfossen" />
		<tag k="natural" v="waterfall" />
		<tag k="ssr:stedsnr" v="942433" />
	</node>
	<node id="-849651" lat="64.1434638857" lon="10.3492777717">
		<tag k="name" v="Storelva" />
		<tag k="ssr:stedsnr" v="681789" />
		<tag k="waterway" v="river" />
	</node>
	<node id="-850162" lat="64.1629555559" lon="10.3731055652">
		<tag k="name" v="Tverelva" />
		<tag k="ssr:stedsnr" v="456205" />
		<tag k="waterway" v="stream" />
	</node>
	<node id="-850671" lat="64.1541527767" lon="10.4395000019">
		<tag k="name" v="Steintjønna" />
		<tag k="natural" v="water" />
		<tag k="ssr:stedsnr" v="274282" />
	</node>
	<node id="-850670" lat="64.1670888929" lon="10.3096333353">
		<tag k="name" v="Volivatnet" />
		<tag k="natural" v="water" />
		<tag k="ssr:stedsnr" v="803462" />
	</node>
	<node id="-850157" lat="64.1121694477" lon="10.2298138836">
		<tag k="name" v="Vallskiftbekken" />
		<tag k="ssr:stedsnr" v="152906" />
		<tag k="waterway" v="stream" />
	</node>
	<node id="-849618" lat="64.1915499972" lon="10.3637027814">
		<tag k="name" v="Storbåtbekken" />
		<tag k="ssr:stedsnr" v="577140" />
		<tag k="waterway" v="stream" />
	</node>
	<node id="-849447" lat="64.1489361151" lon="10.23613333">
		<tag k="name" v="Berfjordbekken" />
		<tag k="ssr:stedsnr" v="335098" />
		<tag k="waterway" v="stream" />
	</node>
	<node id="-850151" lat="64.1394305547" lon="10.5332055648">
		<tag k="name" v="Johan-Pettertjønna" />
		<tag k="natural" v="water" />
		<tag k="ssr:stedsnr" v="559375" />
	</node>
	<node id="-849947" lat="64.1362749997" lon="10.67457499">
		<tag k="name" v="Kjølåkerbekken" />
		<tag k="ssr:stedsnr" v="863385" />
		<tag k="waterway" v="stream" />
	</node>
	<node id="-850660" lat="64.1414722184" lon="10.4665194459">
		<tag k="name" v="Nedre Tostenvatnet" />
		<tag k="natural" v="water" />
		<tag k="ssr:stedsnr" v="681392" />
	</node>
	<node id="-849702" lat="64.1059083374" lon="10.2679916581">
		<tag k="name" v="Sjursvikvatnet" />
		<tag k="natural" v="water" />
		<tag k="ssr:stedsnr" v="395107" />
		<tag k="water" v="lake" />
	</node>
	<node id="-849634" lat="64.1632722241" lon="10.4715305537">
		<tag k="name" v="Lianeset" />
		<tag k="natural" v="cape" />
		<tag k="ssr:stedsnr" v="31340" />
	</node>
	<node id="-849633" lat="64.1075111076" lon="10.2815444435">
		<tag k="name" v="Tørrmuska" />
		<tag k="natural" v="water" />
		<tag k="ssr:stedsnr" v="864372" />
	</node>
	<node id="-850655" lat="64.1635666666" lon="10.3679166619">
		<tag k="name" v="Tverelvøra" />
		<tag k="natural" v="beach" />
		<tag k="ssr:stedsnr" v="759176" />
	</node>
	<node id="-850652" lat="64.1712444413" lon="10.3700083334">
		<tag k="name" v="Straumselva" />
		<tag k="ssr:stedsnr" v="759178" />
		<tag k="waterway" v="river" />
	</node>
	<node id="-850651" lat="64.1641694419" lon="10.411238881">
		<tag k="name" v="Kvernvatnet" />
		<tag k="natural" v="water" />
		<tag k="ssr:stedsnr" v="820336" />
		<tag k="water" v="lake" />
	</node>
	<node id="-850650" lat="64.2074694439" lon="10.4458249957">
		<tag k="name" v="Litlelva" />
		<tag k="ssr:stedsnr" v="864014" />
		<tag k="waterway" v="stream" />
	</node>
	<node id="-849871" lat="64.1272166662" lon="10.6570055493">
		<tag k="name" v="Kokarstranda" />
		<tag k="natural" v="beach" />
		<tag k="ssr:stedsnr" v="335231" />
	</node>
	<node id="-850648" lat="64.1137999984" lon="10.1699166602">
		<tag k="name" v="Gammelsetervatnet" />
		<tag k="natural" v="water" />
		<tag k="ssr:stedsnr" v="559185" />
	</node>
	<node id="-850647" lat="64.0832194426" lon="10.3073749932">
		<tag k="name" v="Agnettjønna" />
		<tag k="natural" v="water" />
		<tag k="ssr:stedsnr" v="134372" />
	</node>
	<node id="-849492" lat="64.2423563593" lon="10.404099367">
		<tag k="alt_name" v="Litlvatnet;Vikvatnet, øvre" />
		<tag k="name" v="Øvre Vikvatnet" />
		<tag k="natural" v="water" />
		<tag k="ssr:stedsnr" v="499027" />
		<tag k="water" v="lake" />
	</node>
	<node id="-850058" lat="64.1597777754" lon="10.3163861076">
		<tag k="name" v="Rotjønna" />
		<tag k="natural" v="water" />
		<tag k="ssr:stedsnr" v="196392" />
	</node>
	<node id="-850644" lat="64.1929722245" lon="10.4284333348">
		<tag k="name" v="Tverrdalsbekken" />
		<tag k="ssr:stedsnr" v="334120" />
		<tag k="waterway" v="stream" />
	</node>
	<node id="-849358" lat="64.1899166653" lon="10.5424277797">
		<tag k="name" v="Tjønnlibekken" />
		<tag k="ssr:stedsnr" v="152295" />
		<tag k="waterway" v="stream" />
	</node>
	<node id="-850130" lat="64.208788891" lon="10.4888500005">
		<tag k="name" v="Indre Setervatnet" />
		<tag k="natural" v="water" />
		<tag k="ssr:stedsnr" v="317012" />
		<tag k="water" v="lake" />
	</node>
	<node id="-850639" lat="64.2265944426" lon="10.4037749993">
		<tag k="name" v="Granholbotnet" />
		<tag k="natural" v="bay" />
		<tag k="ssr:stedsnr" v="699185" />
	</node>
	<node id="-850638" lat="64.1214333339" lon="10.3754250049">
		<tag k="name" v="Straumslitjønna" />
		<tag k="natural" v="water" />
		<tag k="ssr:stedsnr" v="637267" />
	</node>
	<node id="-850125" lat="64.1820861084" lon="10.5446194428">
		<tag k="name" v="Seterfossen" />
		<tag k="natural" v="waterfall" />
		<tag k="ssr:stedsnr" v="335275" />
	</node>
	<node id="-850633" lat="64.1778999958" lon="10.3230888922">
		<tag k="name" v="Storlivatnet" />
		<tag k="natural" v="water" />
		<tag k="ssr:stedsnr" v="803473" />
	</node>
	<node id="-849606" lat="64.0799138902" lon="10.2708805621">
		<tag k="alt_name" v="Kjerringheivatnet, nedre" />
		<tag k="name" v="Nedre Kjerringheivatnet" />
		<tag k="natural" v="water" />
		<tag k="ssr:stedsnr" v="559293" />
	</node>
	<node id="-849603" lat="64.1861777814" lon="10.3603916629">
		<tag k="name" v="Sjølibekken" />
		<tag k="ssr:stedsnr" v="577143" />
		<tag k="waterway" v="stream" />
	</node>
	<node id="-850379" lat="64.1689083344" lon="10.4040499908">
		<tag k="name" v="Kvernvatnet" />
		<tag k="natural" v="water" />
		<tag k="ssr:stedsnr" v="577350" />
		<tag k="water" v="lake" />
	</node>
	<node id="-850112" lat="64.1841305534" lon="10.3819055462">
		<tag k="name" v="Olvassbekken" />
		<tag k="ssr:stedsnr" v="499397" />
		<tag k="waterway" v="stream" />
	</node>
	<node id="-850622" lat="64.1872138898" lon="10.5476361092">
		<tag k="name" v="Grønnlibekken" />
		<tag k="ssr:stedsnr" v="881259" />
		<tag k="waterway" v="stream" />
	</node>
	<node id="-849366" lat="64.1111527783" lon="10.1641305547">
		<tag k="name" v="Kvernavikbekken" />
		<tag k="ssr:stedsnr" v="577942" />
		<tag k="waterway" v="stream" />
	</node>
	<node id="-849596" lat="64.1159527736" lon="10.3133888954">
		<tag k="name" v="Litltøssen" />
		<tag k="natural" v="water" />
		<tag k="ssr:stedsnr" v="196323" />
	</node>
	<node id="-850618" lat="64.1984111135" lon="10.4898999954">
		<tag k="name" v="Ufisktjønna" />
		<tag k="natural" v="water" />
		<tag k="ssr:stedsnr" v="439474" />
	</node>
	<node id="-849592" lat="64.068644443" lon="10.2518777745">
		<tag k="name" v="Mefjellselva" />
		<tag k="ssr:stedsnr" v="559296" />
		<tag k="waterway" v="stream" />
	</node>
	<node id="-850167" lat="64.1080444422" lon="10.2050972176">
		<tag k="name" v="Ytter Joskjørbekken" />
		<tag k="ssr:stedsnr" v="699932" />
		<tag k="waterway" v="stream" />
	</node>
	<node id="-849438" lat="64.1064499989" lon="10.5855805569">
		<tag k="fixme" v="multiple name tags, choose one and add the other to alt_name" />
		<tag k="name" v="Dalamarktjønna;Finntjønna" />
		<tag k="natural" v="water" />
		<tag k="ssr:stedsnr" v="864368" />
	</node>
	<node id="-850235" lat="64.1148166655" lon="10.2487666703">
		<tag k="name" v="Fossen" />
		<tag k="natural" v="waterfall" />
		<tag k="ssr:stedsnr" v="759906" />
	</node>
	<node id="-850604" lat="64.2537111118" lon="10.3583472145">
		<tag k="name" v="Vikelva" />
		<tag k="ssr:stedsnr" v="759191" />
		<tag k="waterway" v="river" />
	</node>
	<node id="-850603" lat="64.1756888867" lon="10.3064000101">
		<tag k="name" v="Hundstivatnet" />
		<tag k="natural" v="water" />
		<tag k="ssr:stedsnr" v="742420" />
	</node>
	<node id="-849311" lat="64.1527500031" lon="10.3245666628">
		<tag k="name" v="Småtjønnan" />
		<tag k="natural" v="water" />
		<tag k="ssr:stedsnr" v="924394" />
	</node>
	<node id="-850601" lat="64.1779888887" lon="10.4810416732">
		<tag k="name" v="Grytelva" />
		<tag k="ssr:stedsnr" v="14371" />
		<tag k="waterway" v="stream" />
	</node>
	<node id="-850388" lat="64.1360637428" lon="10.36489611">
		<tag k="name" v="Elgholtjønnan" />
		<tag k="natural" v="water" />
		<tag k="ssr:stedsnr" v="135390" />
	</node>
	<node id="-850078" lat="64.1252972235" lon="10.6214749964">
		<tag k="name" v="Fremre Pissbekkvatnet" />
		<tag k="natural" v="water" />
		<tag k="ssr:stedsnr" v="803386" />
	</node>
	<node id="-850077" lat="64.1701750032" lon="10.2827250091">
		<tag k="name" v="Fjordvatna" />
		<tag k="natural" v="water" />
		<tag k="ssr:stedsnr" v="560443" />
	</node>
	<node id="-850588" lat="64.1627416638" lon="10.5982972322">
		<tag k="name" v="Finnkrutjønna" />
		<tag k="natural" v="water" />
		<tag k="ssr:stedsnr" v="135422" />
	</node>
	<node id="-849562" lat="64.1819666688" lon="10.4994722264">
		<tag k="name" v="Rundkromtjønna" />
		<tag k="natural" v="water" />
		<tag k="ssr:stedsnr" v="620456" />
	</node>
	<node id="-850132" lat="64.1366364605" lon="10.3604642915">
		<tag k="name" v="Elgholtjønna" />
		<tag k="natural" v="water" />
		<tag k="ssr:stedsnr" v="517745" />
	</node>
	<node id="-849556" lat="64.0762944475" lon="10.2534750045">
		<tag k="name" v="Storhåvikvatnet" />
		<tag k="natural" v="water" />
		<tag k="ssr:stedsnr" v="559286" />
		<tag k="water" v="lake" />
	</node>
	<node id="-849555" lat="64.2028083343" lon="10.5354694396">
		<tag k="name" v="Langvatnet" />
		<tag k="natural" v="water" />
		<tag k="ssr:stedsnr" v="256455" />
		<tag k="water" v="lake" />
	</node>
	<node id="-850578" lat="64.1443027746" lon="10.4115749932">
		<tag k="name" v="Inner Kvernvatnet" />
		<tag k="natural" v="water" />
		<tag k="ssr:stedsnr" v="395329" />
		<tag k="water" v="lake" />
	</node>
	<node id="-849876" lat="64.1129999996" lon="10.6056888813">
		<tag k="name" v="Nyvassbekken" />
		<tag k="ssr:stedsnr" v="517268" />
		<tag k="waterway" v="stream" />
	</node>
	<node id="-849551" lat="64.1397999973" lon="10.3507527776">
		<tag k="name" v="Fossan" />
		<tag k="natural" v="waterfall" />
		<tag k="ssr:stedsnr" v="942324" />
	</node>
	<node id="-849858" lat="64.0607027799" lon="10.2467083335">
		<tag k="name" v="Jotjønna" />
		<tag k="natural" v="water" />
		<tag k="ssr:stedsnr" v="317262" />
	</node>
	<node id="-850570" lat="64.1009138888" lon="10.2424750053">
		<tag k="name" v="Lauvnestjønna" />
		<tag k="natural" v="water" />
		<tag k="ssr:stedsnr" v="445888" />
	</node>
	<node id="-850057" lat="64.1768749982" lon="10.5162611019">
		<tag k="name" v="Luna" />
		<tag k="natural" v="water" />
		<tag k="ssr:stedsnr" v="92256" />
		<tag k="water" v="lake" />
	</node>
	<node id="-850568" lat="64.1272694401" lon="10.1925666584">
		<tag k="name" v="Troningsvatnet" />
		<tag k="natural" v="water" />
		<tag k="ssr:stedsnr" v="439202" />
	</node>
	<node id="-850565" lat="64.2446194404" lon="10.3809472267">
		<tag k="alt_name" v="Viksvatna" />
		<tag k="name" v="Vikvatna" />
		<tag k="natural" v="water" />
		<tag k="ssr:stedsnr" v="135419" />
	</node>
	<node id="-849540" lat="64.1656138874" lon="10.3980222259">
		<tag k="name" v="Litltjønna" />
		<tag k="natural" v="water" />
		<tag k="ssr:stedsnr" v="942327" />
	</node>
	<node id="-849539" lat="64.1576361092" lon="10.3359444511">
		<tag k="name" v="Bonfjelltjønna" />
		<tag k="natural" v="water" />
		<tag k="ssr:stedsnr" v="134473" />
	</node>
	<node id="-850049" lat="64.1577888903" lon="10.5281944408">
		<tag k="name" v="Steintjønna" />
		<tag k="natural" v="water" />
		<tag k="old_name" v="Steintj." />
		<tag k="ssr:stedsnr" v="517735" />
	</node>
	<node id="-849600" lat="64.2446527801" lon="10.3764500034">
		<tag k="name" v="Nedre Vikvatnet" />
		<tag k="natural" v="water" />
		<tag k="ssr:stedsnr" v="196037" />
		<tag k="water" v="lake" />
	</node>
	<node id="-849533" lat="64.2065555524" lon="10.4155138893">
		<tag k="name" v="Bjørnastokktjønna" />
		<tag k="natural" v="water" />
		<tag k="ssr:stedsnr" v="803016" />
	</node>
	<node id="-849530" lat="64.0790138884" lon="10.2402277873">
		<tag k="name" v="Nordavindstjønnan" />
		<tag k="natural" v="water" />
		<tag k="ssr:stedsnr" v="863294" />
	</node>
	<node id="-850041" lat="64.1155361081" lon="10.7174194505">
		<tag k="name" v="Skurvvatnet - Roepsenjaevrie" />
		<tag k="name:no" v="Skurvvatnet" />
		<tag k="name:sma" v="Roepsenjaevrie" />
		<tag k="natural" v="water" />
		<tag k="ssr:stedsnr" v="803384" />
		<tag k="water" v="lake" />
	</node>
	<node id="-850040" lat="64.1658676681" lon="10.4076777761">
		<tag k="name" v="Kvernvatna" />
		<tag k="natural" v="water" />
		<tag k="ssr:stedsnr" v="196394" />
		<tag k="water" v="lake" />
	</node>
	<node id="-850551" lat="64.1207666626" lon="10.1403111105">
		<tag k="name" v="Leirvågbekken" />
		<tag k="ssr:stedsnr" v="439204" />
		<tag k="waterway" v="stream" />
	</node>
	<node id="-850038" lat="64.1246388909" lon="10.2078722131">
		<tag k="name" v="Engavatnet" />
		<tag k="natural" v="water" />
		<tag k="ssr:stedsnr" v="748219" />
	</node>
	<node id="-850199" lat="64.1244666672" lon="10.2343638874">
		<tag k="name" v="Perholbekken" />
		<tag k="ssr:stedsnr" v="135358" />
		<tag k="waterway" v="stream" />
	</node>
	<node id="-849522" lat="64.1826611104" lon="10.565480547">
		<tag k="name" v="Hestlibekken" />
		<tag k="ssr:stedsnr" v="152325" />
		<tag k="waterway" v="stream" />
	</node>
	<node id="-849668" lat="64.2419277772" lon="10.3946722277">
		<tag k="name" v="Inner Vikelva" />
		<tag k="ssr:stedsnr" v="92151" />
		<tag k="waterway" v="river" />
	</node>
	<node id="-850544" lat="64.1109416645" lon="10.2680916755">
		<tag k="name" v="Storskardtjønna" />
		<tag k="natural" v="water" />
		<tag k="ssr:stedsnr" v="256341" />
	</node>
	<node id="-850543" lat="64.1334305532" lon="10.5963444353">
		<tag k="name" v="Telelva" />
		<tag k="ssr:stedsnr" v="317354" />
		<tag k="waterway" v="river" />
	</node>
	<node id="-849517" lat="64.1992083362" lon="10.502727776">
		<tag k="name" v="Killingbekken" />
		<tag k="ssr:stedsnr" v="256452" />
		<tag k="waterway" v="stream" />
	</node>
	<node id="-850540" lat="64.2092666694" lon="10.4632527807">
		<tag k="name" v="Setervassbekken" />
		<tag k="ssr:stedsnr" v="456277" />
		<tag k="waterway" v="stream" />
	</node>
	<node id="-850579" lat="64.1664527768" lon="10.5554500017">
		<tag k="name" v="Dyrskardbekken" />
		<tag k="ssr:stedsnr" v="820299" />
		<tag k="waterway" v="stream" />
	</node>
	<node id="-849513" lat="64.1220916629" lon="10.4139472231">
		<tag k="name" v="Elgtjønna" />
		<tag k="natural" v="water" />
		<tag k="ssr:stedsnr" v="499298" />
	</node>
	<node id="-850535" lat="64.1658638849" lon="10.3813694467">
		<tag k="name" v="Middagstjønna" />
		<tag k="natural" v="water" />
		<tag k="ssr:stedsnr" v="742404" />
	</node>
	<node id="-849510" lat="64.1633972259" lon="10.7244527798">
		<tag k="name" v="Langtjønna" />
		<tag k="natural" v="water" />
		<tag k="ssr:stedsnr" v="439565" />
	</node>
	<node id="-849509" lat="64.1671027816" lon="10.4469999922">
		<tag k="name" v="Sagfossen" />
		<tag k="natural" v="waterfall" />
		<tag k="ssr:stedsnr" v="31304" />
	</node>
	<node id="-850018" lat="64.1737055521" lon="10.3826527747">
		<tag k="name" v="Bjørnabekken" />
		<tag k="ssr:stedsnr" v="395195" />
		<tag k="waterway" v="stream" />
	</node>
	<node id="-849339" lat="64.1816000002" lon="10.5512055592">
		<tag k="name" v="Setertjønna" />
		<tag k="natural" v="water" />
		<tag k="ssr:stedsnr" v="31269" />
	</node>
	<node id="-850527" lat="64.1342416644" lon="10.7083416732">
		<tag k="name" v="Storheitjønnin" />
		<tag k="natural" v="water" />
		<tag k="ssr:stedsnr" v="681387" />
	</node>
	<node id="-850014" lat="64.082344443" lon="10.2589138973">
		<tag k="name" v="Litlhåvikvatnet" />
		<tag k="natural" v="water" />
		<tag k="ssr:stedsnr" v="438313" />
	</node>
	<node id="-850277" lat="64.1369611141" lon="10.5098027726">
		<tag k="name" v="Grovavatnet" />
		<tag k="natural" v="water" />
		<tag k="ssr:stedsnr" v="742368" />
	</node>
	<node id="-850523" lat="64.2444833325" lon="10.3879250077">
		<tag k="name" v="Inner Vikvatnet" />
		<tag k="natural" v="water" />
		<tag k="ssr:stedsnr" v="516151" />
		<tag k="water" v="lake" />
	</node>
	<node id="-850008" lat="64.2266888885" lon="10.3796388974">
		<tag k="name" v="Spissteintjønna" />
		<tag k="natural" v="water" />
		<tag k="ssr:stedsnr" v="74063" />
	</node>
	<node id="-849495" lat="64.1214055577" lon="10.3996388878">
		<tag k="name" v="Straumslitjønna" />
		<tag k="natural" v="water" />
		<tag k="ssr:stedsnr" v="499300" />
	</node>
	<node id="-849337" lat="64.2193166656" lon="10.4393916564">
		<tag k="alt_name" v="Annendagsvatna" />
		<tag k="name" v="Annandagsvatnet" />
		<tag k="natural" v="water" />
		<tag k="ssr:stedsnr" v="196002" />
	</node>
	<node id="-850004" lat="64.164136107" lon="10.3601333295">
		<tag k="name" v="Storneset" />
		<tag k="natural" v="cape" />
		<tag k="ssr:stedsnr" v="395189" />
	</node>
	<node id="-849422" lat="64.1247916626" lon="10.6546777816">
		<tag k="name" v="Olaneset" />
		<tag k="natural" v="cape" />
		<tag k="ssr:stedsnr" v="152302" />
	</node>
	<node id="-849908" lat="64.1305527812" lon="10.6086500089">
		<tag k="name" v="Lonelva" />
		<tag k="ssr:stedsnr" v="439363" />
		<tag k="waterway" v="river" />
	</node>
	<node id="-850000" lat="64.1331472233" lon="10.2787749944">
		<tag k="name" v="Brattbakktjønna" />
		<tag k="natural" v="water" />
		<tag k="ssr:stedsnr" v="881090" />
	</node>
	<node id="-849324" lat="64.2381111118" lon="10.2972861055">
		<tag k="name" v="Vettavikbekken" />
		<tag k="ssr:stedsnr" v="941039" />
		<tag k="waterway" v="stream" />
	</node>
	<node id="-849996" lat="64.1495583377" lon="10.4667194503">
		<tag k="name" v="Tostenelva" />
		<tag k="ssr:stedsnr" v="196384" />
		<tag k="waterway" v="river" />
	</node>
	<node id="-850506" lat="64.1862694426" lon="10.4621749973">
		<tag k="name" v="Repptjønna" />
		<tag k="natural" v="water" />
		<tag k="ssr:stedsnr" v="439460" />
	</node>
	<node id="-850505" lat="64.1940083296" lon="10.3449888804">
		<tag k="name" v="Hattatjønna" />
		<tag k="natural" v="water" />
		<tag k="ssr:stedsnr" v="152161" />
	</node>
	<node id="-849480" lat="64.1398638918" lon="10.4202472295">
		<tag k="name" v="Tverrheitjønna" />
		<tag k="natural" v="water" />
		<tag k="ssr:stedsnr" v="699306" />
	</node>
	<node id="-849991" lat="64.1568305542" lon="10.7030916643">
		<tag k="name" v="Inner Kjølåkertjønna" />
		<tag k="natural" v="water" />
		<tag k="ssr:stedsnr" v="31439" />
	</node>
	<node id="-849761" lat="64.1911499976" lon="10.4047777826">
		<tag k="name" v="Gjøssøra" />
		<tag k="natural" v="beach" />
		<tag k="ssr:stedsnr" v="92178" />
	</node>
	<node id="-849986" lat="64.2039388915" lon="10.3965111132">
		<tag k="name" v="Vikabekken" />
		<tag k="ssr:stedsnr" v="456164" />
		<tag k="waterway" v="stream" />
	</node>
	<node id="-849471" lat="64.147199996" lon="10.2601444454">
		<tag k="name" v="Nypvatnet" />
		<tag k="natural" v="water" />
		<tag k="ssr:stedsnr" v="134462" />
	</node>
	<node id="-850494" lat="64.1287944485" lon="10.5417444388">
		<tag k="name" v="Olaengbekken" />
		<tag k="ssr:stedsnr" v="456264" />
		<tag k="waterway" v="stream" />
	</node>
	<node id="-850492" lat="64.2061166707" lon="10.4636361073">
		<tag k="name" v="Fremre Setervatnet" />
		<tag k="natural" v="water" />
		<tag k="ssr:stedsnr" v="924011" />
		<tag k="water" v="lake" />
	</node>
	<node id="-850490" lat="64.1406972214" lon="10.4250666683">
		<tag k="name" v="Larstjønna" />
		<tag k="natural" v="water" />
		<tag k="ssr:stedsnr" v="74393" />
	</node>
	<node id="-850488" lat="64.1363511735" lon="10.334608002">
		<tag k="name" v="Inner Vesterelvtjønna" />
		<tag k="natural" v="water" />
		<tag k="ssr:stedsnr" v="517818" />
	</node>
	<node id="-849463" lat="64.1594833377" lon="10.3204333399">
		<tag k="name" v="Rotjønnbekken" />
		<tag k="ssr:stedsnr" v="92107" />
		<tag k="waterway" v="stream" />
	</node>
	<node id="-850998" lat="64.1112472257" lon="10.5630916699">
		<tag k="name" v="Fiskbekken" />
		<tag k="ssr:stedsnr" v="942238" />
		<tag k="waterway" v="stream" />
	</node>
	<node id="-850485" lat="64.1341611142" lon="10.513511105">
		<tag k="name" v="Finnlibekken" />
		<tag k="ssr:stedsnr" v="274233" />
		<tag k="waterway" v="stream" />
	</node>
	<node id="-850996" lat="64.164686114" lon="10.3623833397">
		<tag k="name" v="Straumsvatnet" />
		<tag k="natural" v="water" />
		<tag k="ssr:stedsnr" v="257493" />
		<tag k="water" v="lake" />
	</node>
	<node id="-850549" lat="64.1490750003" lon="10.6510472166">
		<tag k="name" v="Melktjønna" />
		<tag k="natural" v="water" />
		<tag k="ssr:stedsnr" v="317362" />
	</node>
	<node id="-849457" lat="64.2195138931" lon="10.3522833248">
		<tag k="name" v="Vargtjønna" />
		<tag k="natural" v="water" />
		<tag k="ssr:stedsnr" v="803001" />
	</node>
	<node id="-849967" lat="64.1597694405" lon="10.313488896">
		<tag k="name" v="Volibekken" />
		<tag k="ssr:stedsnr" v="274110" />
		<tag k="waterway" v="stream" />
	</node>
	<node id="-850478" lat="64.1402388922" lon="10.5236305594">
		<tag k="name" v="Slåttånebbtjønna" />
		<tag k="natural" v="water" />
		<tag k="ssr:stedsnr" v="74391" />
	</node>
	<node id="-849453" lat="64.2293527743" lon="10.3409888985">
		<tag k="name" v="Portdalsbekken" />
		<tag k="ssr:stedsnr" v="213229" />
		<tag k="waterway" v="stream" />
	</node>
	<node id="-850449" lat="64.1579944441" lon="10.7528694471">
		<tag k="name" v="Grasvatnet - Kraesiejaevrie" />
		<tag k="name:no" v="Grasvatnet" />
		<tag k="name:sma" v="Kraesiejaevrie" />
		<tag k="natural" v="water" />
		<tag k="ssr:stedsnr" v="377584" />
	</node>
	<node id="-849962" lat="64.1649527746" lon="10.2817666716">
		<tag k="name" v="Godmatholvatnet" />
		<tag k="natural" v="water" />
		<tag k="ssr:stedsnr" v="499372" />
	</node>
	<node id="-850471" lat="64.1214111134" lon="10.6296694543">
		<tag k="name" v="Indre Pissbekkvatnet" />
		<tag k="natural" v="water" />
		<tag k="ssr:stedsnr" v="317342" />
	</node>
	<node id="-850418" lat="64.1640555588" lon="10.534625">
		<tag k="name" v="Haugtjønna" />
		<tag k="natural" v="water" />
		<tag k="ssr:stedsnr" v="14346" />
	</node>
	<node id="-850469" lat="64.1487361086" lon="10.302236118">
		<tag k="name" v="Jenselibekken" />
		<tag k="ssr:stedsnr" v="942108" />
		<tag k="waterway" v="stream" />
	</node>
	<node id="-849499" lat="64.1522722201" lon="10.4796944515">
		<tag k="name" v="Middagsfjelltjønna" />
		<tag k="natural" v="water" />
		<tag k="ssr:stedsnr" v="134467" />
	</node>
	<node id="-850462" lat="64.1402722221" lon="10.4730000061">
		<tag k="name" v="Heimdalsbekken" />
		<tag k="ssr:stedsnr" v="820260" />
		<tag k="waterway" v="stream" />
	</node>
	<node id="-850179" lat="64.0844305512" lon="10.2817722215">
		<tag k="alt_name" v="Kjerringheivatnet, øvre" />
		<tag k="name" v="Øvre Kjerringheivatnet" />
		<tag k="natural" v="water" />
		<tag k="ssr:stedsnr" v="256288" />
	</node>
	<node id="-850459" lat="64.1700555577" lon="10.4187749959">
		<tag k="name" v="Spannklumptjønna" />
		<tag k="natural" v="water" />
		<tag k="ssr:stedsnr" v="439449" />
	</node>
	<node id="-849946" lat="64.1123777821" lon="10.3236722311">
		<tag k="name" v="Svartholtjønna" />
		<tag k="natural" v="water" />
		<tag k="ssr:stedsnr" v="559353" />
	</node>
	<node id="-850456" lat="64.1660000003" lon="10.579450002">
		<tag k="name" v="Mellomlibekken" />
		<tag k="ssr:stedsnr" v="456270" />
		<tag k="waterway" v="stream" />
	</node>
	<node id="-850180" lat="64.129086108" lon="10.2614916579">
		<tag k="name" v="Langvassbekken" />
		<tag k="ssr:stedsnr" v="152090" />
		<tag k="waterway" v="stream" />
	</node>
	<node id="-850964" lat="64.0930694443" lon="10.2446916675">
		<tag k="name" v="Kattavatnet" />
		<tag k="natural" v="water" />
		<tag k="ssr:stedsnr" v="499262" />
		<tag k="water" v="lake" />
	</node>
	<node id="-850961" lat="64.1747222232" lon="10.3401805576">
		<tag k="name" v="Myrabekken" />
		<tag k="ssr:stedsnr" v="213186" />
		<tag k="waterway" v="stream" />
	</node>
	<node id="-849423" lat="64.1344611117" lon="10.4155999999">
		<tag k="name" v="Grønnlivassundet" />
		<tag k="natural" v="strait" />
		<tag k="ssr:stedsnr" v="699317" />
	</node>
	<node id="-850446" lat="64.1750138923" lon="10.5104861135">
		<tag k="name" v="Svartfossen" />
		<tag k="natural" v="waterfall" />
		<tag k="ssr:stedsnr" v="456269" />
	</node>
	<node id="-850957" lat="64.1296972237" lon="10.2112833421">
		<tag k="name" v="Kråkfjordbekken" />
		<tag k="ssr:stedsnr" v="335062" />
		<tag k="waterway" v="stream" />
	</node>
	<node id="-850444" lat="64.1517416663" lon="10.5023416613">
		<tag k="fixme" v="multiple name tags, choose one and add the other to alt_name" />
		<tag k="name" v="Grovaseterdalselva;Rundfjelldalselva" />
		<tag k="ssr:stedsnr" v="742377" />
		<tag k="waterway" v="stream" />
	</node>
	<node id="-849930" lat="64.1331527747" lon="10.4073166593">
		<tag k="name" v="Grønnlivatnet" />
		<tag k="natural" v="water" />
		<tag k="ssr:stedsnr" v="863379" />
		<tag k="water" v="lake" />
	</node>
	<node id="-850951" lat="64.1673250011" lon="10.2509361158">
		<tag k="name" v="Prestelva" />
		<tag k="ssr:stedsnr" v="257492" />
		<tag k="waterway" v="stream" />
	</node>
	<node id="-850950" lat="64.1065027797" lon="10.1832805625">
		<tag k="name" v="Vallskiftbekken" />
		<tag k="ssr:stedsnr" v="517931" />
		<tag k="waterway" v="stream" />
	</node>
	<node id="-849428" lat="64.1446888913" lon="10.3316027823">
		<tag k="name" v="Vesterelva" />
		<tag k="ssr:stedsnr" v="802477" />
		<tag k="waterway" v="stream" />
	</node>
	<node id="-850946" lat="64.1776916635" lon="10.3325916665">
		<tag k="name" v="Svarttjønna" />
		<tag k="natural" v="water" />
		<tag k="ssr:stedsnr" v="213180" />
	</node>
	<node id="-850091" lat="64.1134055536" lon="10.4688583324">
		<tag k="name" v="Sør Tostenvatnet" />
		<tag k="natural" v="water" />
		<tag k="ssr:stedsnr" v="14295" />
		<tag k="water" v="lake" />
	</node>
</osm>
