<?xml version="1.0" encoding="UTF-8"?>
<osm generator="osmapis" version="0.6">
	<node id="-845762" lat="64.0881500031" lon="10.187711117">
		<tag k="name" v="Håvikneset" />
		<tag k="natural" v="cape" />
		<tag k="ssr:stedsnr" v="681180" />
	</node>
	<node id="-845758" lat="64.1460166702" lon="10.14885">
		<tag k="name" v="Lyngholmen" />
		<tag k="place" v="islet" />
		<tag k="ssr:stedsnr" v="803242" />
	</node>
	<node id="-845756" lat="64.1036833354" lon="10.2132027815">
		<tag k="name" v="Strandaodden" />
		<tag k="natural" v="cape" />
		<tag k="ssr:stedsnr" v="92914" />
	</node>
	<node id="-845755" lat="64.1895277747" lon="10.1604305607">
		<tag k="name" v="Indre Mulrevet" />
		<tag k="natural" v="shoal" />
		<tag k="place" v="locality" />
		<tag k="ssr:stedsnr" v="390114" />
	</node>
	<node id="-845753" lat="64.1962166698" lon="10.0548055568">
		<tag k="name" v="Svodsholman" />
		<tag k="place" v="islet" />
		<tag k="ssr:stedsnr" v="195994" />
	</node>
	<node id="-845750" lat="64.1058861146" lon="10.2250250054">
		<tag k="name" v="Sjånesodden" />
		<tag k="natural" v="cape" />
		<tag k="ssr:stedsnr" v="92913" />
	</node>
	<node id="-845749" lat="64.1542972261" lon="10.1565500094">
		<tag k="name" v="Sommarfjøsvika" />
		<tag k="natural" v="bay" />
		<tag k="ssr:stedsnr" v="577911" />
	</node>
	<node id="-845744" lat="64.2694000027" lon="10.1730916661">
		<tag k="name" v="Indre Kvalhausen" />
		<tag k="natural" v="shoal" />
		<tag k="place" v="locality" />
		<tag k="ssr:stedsnr" v="499811" />
	</node>
	<node id="-845742" lat="64.243155555" lon="10.1338888984">
		<tag k="name" v="Kaurleia" />
		<tag k="natural" v="strait" />
		<tag k="ssr:stedsnr" v="681991" />
	</node>
	<node id="-845741" lat="64.2777361126" lon="10.3308027736">
		<tag k="name" v="Drogsholmen" />
		<tag k="place" v="islet" />
		<tag k="ssr:stedsnr" v="560598" />
	</node>
	<node id="-845739" lat="64.1572194488" lon="10.1893333383">
		<tag k="fixme" v="consider seamark:type=rock or natural=shoal" />
		<tag k="name" v="Valskjæra" />
		<tag k="place" v="islet" />
		<tag k="ssr:stedsnr" v="335906" />
	</node>
	<node id="-845738" lat="64.1775888907" lon="9.92567500323">
		<tag k="name" v="Leiafallet" />
		<tag k="natural" v="shoal" />
		<tag k="place" v="locality" />
		<tag k="ssr:stedsnr" v="74209" />
	</node>
	<node id="-845736" lat="64.2482416685" lon="10.1557111054">
		<tag k="name" v="Bukkfallet" />
		<tag k="natural" v="shoal" />
		<tag k="place" v="locality" />
		<tag k="ssr:stedsnr" v="14975" />
	</node>
	<node id="-845733" lat="64.1870888898" lon="9.934925005">
		<tag k="alt_name" v="Venttaren, s" />
		<tag k="name" v="Søre Venttaren" />
		<tag k="natural" v="shoal" />
		<tag k="place" v="locality" />
		<tag k="ssr:stedsnr" v="878818" />
	</node>
	<node id="-845732" lat="64.2216805512" lon="10.2447305544">
		<tag k="name" v="Snauholmen" />
		<tag k="place" v="islet" />
		<tag k="ssr:stedsnr" v="92051" />
	</node>
	<node id="-845725" lat="64.1024444412" lon="10.2010944456">
		<tag k="name" v="Skjelbukta" />
		<tag k="natural" v="bay" />
		<tag k="ssr:stedsnr" v="92906" />
	</node>
	<node id="-845724" lat="64.2205583294" lon="10.2489388864">
		<tag k="name" v="Rotvika" />
		<tag k="natural" v="bay" />
		<tag k="ssr:stedsnr" v="92049" />
	</node>
	<node id="-845723" lat="64.18543333" lon="10.2534416615">
		<tag k="name" v="Smørvika" />
		<tag k="natural" v="bay" />
		<tag k="ssr:stedsnr" v="395001" />
	</node>
	<node id="-845721" lat="64.1469555548" lon="9.94847778262">
		<tag k="fixme" v="consider seamark:type=rock or natural=shoal" />
		<tag k="name" v="Kaura" />
		<tag k="place" v="islet" />
		<tag k="ssr:stedsnr" v="742180" />
	</node>
	<node id="-845720" lat="64.1957138896" lon="10.0742861075">
		<tag k="name" v="Kynnøya" />
		<tag k="place" v="islet" />
		<tag k="ssr:stedsnr" v="681985" />
	</node>
	<node id="-845717" lat="64.2524944416" lon="9.9483555539">
		<tag k="name" v="Gauklakken" />
		<tag k="natural" v="shoal" />
		<tag k="place" v="locality" />
		<tag k="ssr:stedsnr" v="499814" />
	</node>
	<node id="-845714" lat="64.2618416711" lon="10.3391000036">
		<tag k="name" v="Ytter Småholmen" />
		<tag k="place" v="islet" />
		<tag k="ssr:stedsnr" v="516253" />
	</node>
	<node id="-845712" lat="64.1635527806" lon="10.1648249921">
		<tag k="name" v="Vollnesodden" />
		<tag k="natural" v="cape" />
		<tag k="ssr:stedsnr" v="517081" />
	</node>
	<node id="-845693" lat="64.1999333331" lon="10.243919441">
		<tag k="bay" v="fjord" />
		<tag k="name" v="Beskelandsfjorden" />
		<tag k="natural" v="bay" />
		<tag k="ssr:stedsnr" v="75000" />
	</node>
	<node id="-845690" lat="64.1487472245" lon="10.0485222206">
		<tag k="name" v="Helsøya" />
		<tag k="place" v="islet" />
		<tag k="ssr:stedsnr" v="803246" />
	</node>
	<node id="-845688" lat="64.2327194401" lon="10.1656638808">
		<tag k="name" v="Svartskjærfalla" />
		<tag k="natural" v="shoal" />
		<tag k="place" v="locality" />
		<tag k="ssr:stedsnr" v="937278" />
	</node>
	<node id="-845683" lat="64.216783334" lon="10.0131583355">
		<tag k="alt_name" v="Røvtaren" />
		<tag k="name" v="Revtaren" />
		<tag k="natural" v="shoal" />
		<tag k="place" v="locality" />
		<tag k="ssr:stedsnr" v="681997" />
	</node>
	<node id="-845680" lat="64.2224472235" lon="10.2532444509">
		<tag k="name" v="Stuodden" />
		<tag k="natural" v="cape" />
		<tag k="ssr:stedsnr" v="577058" />
	</node>
	<node id="-845679" lat="64.2083555562" lon="10.3224527723">
		<tag k="name" v="Lianeset" />
		<tag k="natural" v="cape" />
		<tag k="ssr:stedsnr" v="334199" />
	</node>
	<node id="-845678" lat="64.1927722201" lon="10.191138883">
		<tag k="fixme" v="consider seamark:type=rock or natural=shoal" />
		<tag k="name" v="Eiansskjæret" />
		<tag k="place" v="islet" />
		<tag k="ssr:stedsnr" v="335050" />
	</node>
	<node id="-845671" lat="64.1495888914" lon="10.0247916707">
		<tag k="name" v="Torvholmen" />
		<tag k="place" v="islet" />
		<tag k="ssr:stedsnr" v="803248" />
	</node>
	<node id="-845662" lat="64.1544972255" lon="10.16488612">
		<tag k="name" v="Gnaget" />
		<tag k="natural" v="strait" />
		<tag k="ssr:stedsnr" v="438182" />
	</node>
	<node id="-845661" lat="64.2143027739" lon="10.0543611111">
		<tag k="name" v="Nøkkelbåfalla" />
		<tag k="natural" v="shoal" />
		<tag k="place" v="locality" />
		<tag k="ssr:stedsnr" v="74996" />
	</node>
	<node id="-845660" lat="64.1495305597" lon="10.0681027804">
		<tag k="name" v="Klokkarholmen" />
		<tag k="place" v="islet" />
		<tag k="ssr:stedsnr" v="559226" />
	</node>
	<node id="-845659" lat="64.1038805554" lon="10.1869666713">
		<tag k="name" v="Østvika" />
		<tag k="natural" v="bay" />
		<tag k="ssr:stedsnr" v="14146" />
	</node>
	<node id="-845653" lat="64.2761388862" lon="10.3542749993">
		<tag k="name" v="Ausa" />
		<tag k="natural" v="cape" />
		<tag k="ssr:stedsnr" v="31225" />
	</node>
	<node id="-845651" lat="64.2081555526" lon="10.1574805493">
		<tag k="name" v="Skjelrevet" />
		<tag k="natural" v="shoal" />
		<tag k="place" v="locality" />
		<tag k="ssr:stedsnr" v="208221" />
	</node>
	<node id="-845645" lat="64.228363891" lon="10.0840472219">
		<tag k="alt_name" v="Utrolangtaren" />
		<tag k="name" v="Utrorlangtaren" />
		<tag k="natural" v="shoal" />
		<tag k="place" v="locality" />
		<tag k="ssr:stedsnr" v="135995" />
	</node>
	<node id="-845644" lat="64.1115250017" lon="10.1348861122">
		<tag k="name" v="Ytter Geisneset" />
		<tag k="natural" v="cape" />
		<tag k="ssr:stedsnr" v="517925" />
	</node>
	<node id="-845643" lat="64.259380557" lon="10.2262694544">
		<tag k="name" v="Sandøytaren" />
		<tag k="natural" v="shoal" />
		<tag k="place" v="locality" />
		<tag k="ssr:stedsnr" v="270146" />
	</node>
	<node id="-845642" lat="64.1450916693" lon="10.1684611094">
		<tag k="name" v="Kleivskjæret" />
		<tag k="natural" v="cape" />
		<tag k="ssr:stedsnr" v="577889" />
	</node>
	<node id="-845633" lat="64.1779999972" lon="10.2118472291">
		<tag k="fixme" v="consider seamark:type=rock or natural=shoal" />
		<tag k="name" v="Ringskjæret" />
		<tag k="place" v="islet" />
		<tag k="ssr:stedsnr" v="512095" />
	</node>
	<node id="-845627" lat="64.2731333349" lon="10.392880557">
		<tag k="bay" v="fjord" />
		<tag k="name" v="Sørjerfjorden" />
		<tag k="natural" v="bay" />
		<tag k="ssr:stedsnr" v="516251" />
	</node>
	<node id="-845626" lat="64.2678944488" lon="10.2677916634">
		<tag k="name" v="Nygrunnen" />
		<tag k="natural" v="shoal" />
		<tag k="place" v="locality" />
		<tag k="ssr:stedsnr" v="208214" />
	</node>
	<node id="-845619" lat="64.2296305539" lon="10.199116673">
		<tag k="name" v="Bårtaren" />
		<tag k="natural" v="shoal" />
		<tag k="place" v="locality" />
		<tag k="ssr:stedsnr" v="937255" />
	</node>
	<node id="-845614" lat="64.1936194401" lon="10.0988277805">
		<tag k="name" v="Været" />
		<tag k="natural" v="cape" />
		<tag k="ssr:stedsnr" v="74986" />
	</node>
	<node id="-845599" lat="64.2015777821" lon="10.2018583385">
		<tag k="name" v="Nordstigan" />
		<tag k="natural" v="cape" />
		<tag k="ssr:stedsnr" v="681981" />
	</node>
	<node id="-845598" lat="64.2772722228" lon="10.3582027868">
		<tag k="name" v="Kynnaviksanden" />
		<tag k="natural" v="beach" />
		<tag k="place" v="locality" />
		<tag k="ssr:stedsnr" v="152238" />
	</node>
	<node id="-845593" lat="64.1687250015" lon="10.1936694365">
		<tag k="fixme" v="consider seamark:type=rock or natural=shoal" />
		<tag k="name" v="Lerva" />
		<tag k="place" v="islet" />
		<tag k="ssr:stedsnr" v="879660" />
	</node>
	<node id="-845587" lat="64.1512027819" lon="10.0147777734">
		<tag k="fixme" v="consider seamark:type=rock or natural=shoal" />
		<tag k="name" v="Buarholmen" />
		<tag k="place" v="islet" />
		<tag k="ssr:stedsnr" v="559221" />
	</node>
	<node id="-845586" lat="64.1437777737" lon="10.195186121">
		<tag k="bay" v="fjord" />
		<tag k="name" v="Kråkfjorden" />
		<tag k="natural" v="bay" />
		<tag k="ssr:stedsnr" v="135179" />
	</node>
	<node id="-845583" lat="64.129102779" lon="10.1292944408">
		<tag k="name" v="Nordsjøvika" />
		<tag k="natural" v="bay" />
		<tag k="ssr:stedsnr" v="879648" />
	</node>
	<node id="-845578" lat="64.1408888914" lon="10.1298972304">
		<tag k="fixme" v="consider seamark:type=rock or natural=shoal" />
		<tag k="name" v="Nord Veimannskjæret" />
		<tag k="place" v="islet" />
		<tag k="ssr:stedsnr" v="92866" />
	</node>
	<node id="-845572" lat="64.1085916665" lon="10.2563916692">
		<tag k="name" v="Nord Sjursvikodden" />
		<tag k="natural" v="cape" />
		<tag k="ssr:stedsnr" v="517916" />
	</node>
	<node id="-845564" lat="64.1171555571" lon="10.1272694351">
		<tag k="name" v="Otersteinan" />
		<tag k="natural" v="cape" />
		<tag k="ssr:stedsnr" v="92861" />
	</node>
	<node id="-845562" lat="64.1896722188" lon="10.2658833285">
		<tag k="name" v="Buavikbukta" />
		<tag k="natural" v="bay" />
		<tag k="ssr:stedsnr" v="335006" />
	</node>
	<node id="-845551" lat="64.1792833301" lon="9.96221667358">
		<tag k="name" v="Nordre Uersrevelskolten" />
		<tag k="natural" v="shoal" />
		<tag k="place" v="locality" />
		<tag k="ssr:stedsnr" v="577436" />
	</node>
	<node id="-845548" lat="64.176213893" lon="10.224608334">
		<tag k="name" v="Prestvika" />
		<tag k="natural" v="bay" />
		<tag k="ssr:stedsnr" v="742428" />
	</node>
	<node id="-845547" lat="64.2315999971" lon="10.2836722234">
		<tag k="name" v="Kåpvika" />
		<tag k="natural" v="bay" />
		<tag k="ssr:stedsnr" v="759210" />
	</node>
	<node id="-845544" lat="64.2174944435" lon="10.2620666629">
		<tag k="name" v="Terningen" />
		<tag k="place" v="island" />
		<tag k="ssr:stedsnr" v="511669" />
	</node>
	<node id="-845542" lat="64.1201277777" lon="10.1225472215">
		<tag k="name" v="Kreksvika" />
		<tag k="natural" v="bay" />
		<tag k="ssr:stedsnr" v="517893" />
	</node>
	<node id="-845540" lat="64.1080222251" lon="10.1572777703">
		<tag k="name" v="Kvernavika" />
		<tag k="natural" v="bay" />
		<tag k="ssr:stedsnr" v="196778" />
	</node>
	<node id="-845528" lat="64.2641055572" lon="10.3493083288">
		<tag k="name" v="Nordvika" />
		<tag k="natural" v="bay" />
		<tag k="ssr:stedsnr" v="31195" />
	</node>
	<node id="-845520" lat="64.2738583378" lon="10.3492305553">
		<tag k="fixme" v="consider seamark:type=rock or natural=shoal" />
		<tag k="name" v="Inner Lekersvikskjæret" />
		<tag k="place" v="islet" />
		<tag k="ssr:stedsnr" v="699192" />
	</node>
	<node id="-845516" lat="64.2239777744" lon="10.081463896">
		<tag k="name" v="Baren" />
		<tag k="place" v="islet" />
		<tag k="ssr:stedsnr" v="379000" />
	</node>
	<node id="-845515" lat="64.1877222249" lon="10.1075111041">
		<tag k="name" v="Litlkyrpingen" />
		<tag k="place" v="islet" />
		<tag k="ssr:stedsnr" v="559214" />
	</node>
	<node id="-845511" lat="64.1819222211" lon="10.0126499944">
		<tag k="name" v="Helsøya" />
		<tag k="place" v="island" />
		<tag k="ssr:stedsnr" v="269336" />
	</node>
	<node id="-845507" lat="64.1611361111" lon="10.0753361076">
		<tag k="name" v="Nørdstholmfluan" />
		<tag k="natural" v="shoal" />
		<tag k="place" v="locality" />
		<tag k="ssr:stedsnr" v="879628" />
	</node>
	<node id="-845504" lat="64.2375250044" lon="10.2838916583">
		<tag k="name" v="Storvika" />
		<tag k="natural" v="bay" />
		<tag k="ssr:stedsnr" v="330028" />
	</node>
	<node id="-845502" lat="64.1648166655" lon="10.1661388806">
		<tag k="name" v="Vollvika" />
		<tag k="natural" v="cape" />
		<tag k="ssr:stedsnr" v="196231" />
	</node>
	<node id="-845499" lat="64.1486416708" lon="10.0864666693">
		<tag k="fixme" v="consider seamark:type=rock or natural=shoal" />
		<tag k="name" v="Tennskjæret" />
		<tag k="place" v="islet" />
		<tag k="ssr:stedsnr" v="863233" />
	</node>
	<node id="-845490" lat="64.1797583315" lon="9.96246111372">
		<tag k="name" v="Nordre Ulsevelskolten" />
		<tag k="natural" v="shoal" />
		<tag k="place" v="locality" />
		<tag k="ssr:stedsnr" v="390416" />
	</node>
	<node id="-845487" lat="64.2572500026" lon="10.3542805654">
		<tag k="name" v="Fiskholmen" />
		<tag k="place" v="islet" />
		<tag k="ssr:stedsnr" v="516206" />
	</node>
	<node id="-845486" lat="64.1631666694" lon="9.8806888816">
		<tag k="name" v="Ramnfallet" />
		<tag k="natural" v="shoal" />
		<tag k="place" v="locality" />
		<tag k="ssr:stedsnr" v="863235" />
	</node>
	<node id="-845477" lat="64.2776166691" lon="10.3181777689">
		<tag k="name" v="Drogsholmsteinen" />
		<tag k="natural" v="shoal" />
		<tag k="place" v="locality" />
		<tag k="ssr:stedsnr" v="877971" />
	</node>
	<node id="-845473" lat="64.2339083341" lon="10.1758972296">
		<tag k="fixme" v="consider seamark:type=rock or natural=shoal" />
		<tag k="name" v="Svartskjæret" />
		<tag k="place" v="islet" />
		<tag k="ssr:stedsnr" v="257993" />
	</node>
	<node id="-845470" lat="64.1631694475" lon="9.89389165812">
		<tag k="name" v="Rundflua" />
		<tag k="natural" v="shoal" />
		<tag k="place" v="locality" />
		<tag k="ssr:stedsnr" v="196229" />
	</node>
	<node id="-845467" lat="64.2151000009" lon="10.1066666611">
		<tag k="name" v="Drevflesa" />
		<tag k="place" v="islet" />
		<tag k="ssr:stedsnr" v="559998" />
	</node>
	<node id="-845460" lat="64.2524583365" lon="10.27284167">
		<tag k="name" v="Bukkholmen" />
		<tag k="place" v="islet" />
		<tag k="ssr:stedsnr" v="937186" />
	</node>
	<node id="-845456" lat="64.2439111098" lon="10.2454833364">
		<tag k="name" v="Risøyan" />
		<tag k="place" v="islet" />
		<tag k="ssr:stedsnr" v="377087" />
	</node>
	<node id="-845450" lat="64.1697750015" lon="10.0699916621">
		<tag k="name" v="Olataren" />
		<tag k="natural" v="shoal" />
		<tag k="place" v="locality" />
		<tag k="ssr:stedsnr" v="695814" />
	</node>
	<node id="-845440" lat="64.1278416652" lon="10.1122138878">
		<tag k="alt_name" v="Storkiransholmen" />
		<tag k="name" v="Store Kiransholmen" />
		<tag k="place" v="islet" />
		<tag k="ssr:stedsnr" v="880412" />
	</node>
	<node id="-845430" lat="64.2602444418" lon="10.3413749923">
		<tag k="name" v="Småholman" />
		<tag k="place" v="islet" />
		<tag k="ssr:stedsnr" v="317380" />
	</node>
	<node id="-845412" lat="64.2110305601" lon="10.1087527713">
		<tag k="fixme" v="consider seamark:type=rock or natural=shoal" />
		<tag k="name" v="Drevflesskjæret" />
		<tag k="place" v="islet" />
		<tag k="ssr:stedsnr" v="26229" />
	</node>
	<node id="-845411" lat="64.213472225" lon="10.0809305573">
		<tag k="name" v="Angartaren" />
		<tag k="natural" v="shoal" />
		<tag k="place" v="locality" />
		<tag k="ssr:stedsnr" v="694202" />
	</node>
	<node id="-845409" lat="64.1061166666" lon="10.2578027775">
		<tag k="name" v="Sør Sjursvikodden" />
		<tag k="natural" v="cape" />
		<tag k="ssr:stedsnr" v="213915" />
	</node>
	<node id="-845402" lat="64.1974055545" lon="10.245519453">
		<tag k="fixme" v="consider seamark:type=rock or natural=shoal" />
		<tag k="name" v="Skarvskjæret" />
		<tag k="place" v="islet" />
		<tag k="ssr:stedsnr" v="633153" />
	</node>
	<node id="-845381" lat="64.2389722227" lon="9.98930555131">
		<tag k="name" v="Værknausen" />
		<tag k="natural" v="shoal" />
		<tag k="place" v="locality" />
		<tag k="ssr:stedsnr" v="257978" />
	</node>
	<node id="-845377" lat="64.2516722206" lon="10.2542083337">
		<tag k="name" v="Sandøya" />
		<tag k="place" v="island" />
		<tag k="ssr:stedsnr" v="802119" />
	</node>
	<node id="-845375" lat="64.2568416622" lon="10.332808343">
		<tag k="name" v="Løaholmen" />
		<tag k="place" v="islet" />
		<tag k="ssr:stedsnr" v="438415" />
	</node>
	<node id="-845368" lat="64.2603555544" lon="10.3412361044">
		<tag k="alt_name" v="Donsholmen" />
		<tag k="name" v="Mitter Småholmen" />
		<tag k="place" v="islet" />
		<tag k="ssr:stedsnr" v="577825" />
	</node>
	<node id="-845365" lat="64.1271405021" lon="10.1113196188">
		<tag k="name" v="Kiransholman" />
		<tag k="place" v="islet" />
		<tag k="ssr:stedsnr" v="439197" />
	</node>
	<node id="-845360" lat="64.136100001" lon="10.0477166742">
		<tag k="fixme" v="consider seamark:type=rock or natural=shoal" />
		<tag k="name" v="Kvernøyskjæret" />
		<tag k="place" v="islet" />
		<tag k="ssr:stedsnr" v="863202" />
	</node>
	<node id="-845358" lat="64.2140750025" lon="10.3544055553">
		<tag k="name" v="Kråkneset" />
		<tag k="natural" v="cape" />
		<tag k="ssr:stedsnr" v="632002" />
	</node>
	<node id="-845352" lat="64.1244805559" lon="10.0269472238">
		<tag k="name" v="Synstholmen" />
		<tag k="place" v="islet" />
		<tag k="ssr:stedsnr" v="439196" />
	</node>
	<node id="-845351" lat="64.2478472192" lon="10.1817305523">
		<tag k="fixme" v="consider seamark:type=rock or natural=shoal" />
		<tag k="name" v="Indre Ertnskjæret" />
		<tag k="place" v="islet" />
		<tag k="ssr:stedsnr" v="452116" />
	</node>
	<node id="-845350" lat="64.1544750026" lon="10.0569833321">
		<tag k="name" v="Masterholman" />
		<tag k="place" v="islet" />
		<tag k="ssr:stedsnr" v="499189" />
	</node>
	<node id="-845349" lat="64.1369277811" lon="10.0819388954">
		<tag k="fixme" v="consider seamark:type=rock or natural=shoal" />
		<tag k="name" v="Galten" />
		<tag k="place" v="islet" />
		<tag k="ssr:stedsnr" v="559179" />
	</node>
	<node id="-845343" lat="64.1415611091" lon="10.0509833285">
		<tag k="name" v="Kipperholmen" />
		<tag k="place" v="islet" />
		<tag k="ssr:stedsnr" v="559178" />
	</node>
	<node id="-845337" lat="64.1899805563" lon="10.3846888805">
		<tag k="name" v="Snelldjupet" />
		<tag k="natural" v="bay" />
		<tag k="ssr:stedsnr" v="759156" />
	</node>
	<node id="-845335" lat="64.1338444471" lon="10.128663896">
		<tag k="fixme" v="consider seamark:type=rock or natural=shoal" />
		<tag k="name" v="Sandskjæra" />
		<tag k="place" v="islet" />
		<tag k="ssr:stedsnr" v="196199" />
	</node>
	<node id="-845325" lat="64.1676027753" lon="10.2050638799">
		<tag k="bay" v="fjord" />
		<tag k="name" v="Berfjorden" />
		<tag k="natural" v="bay" />
		<tag k="ssr:stedsnr" v="438405" />
	</node>
	<node id="-845323" lat="64.1562083327" lon="10.1782666638">
		<tag k="name" v="Nesvalen" />
		<tag k="natural" v="strait" />
		<tag k="ssr:stedsnr" v="213899" />
	</node>
	<node id="-845321" lat="64.2745194432" lon="10.1519944355">
		<tag k="name" v="Brottfallet" />
		<tag k="natural" v="shoal" />
		<tag k="place" v="locality" />
		<tag k="ssr:stedsnr" v="620859" />
	</node>
	<node id="-845320" lat="64.2656333336" lon="10.3487583319">
		<tag k="name" v="Aunvika" />
		<tag k="natural" v="bay" />
		<tag k="ssr:stedsnr" v="620589" />
	</node>
	<node id="-845318" lat="64.1563611076" lon="10.1671083307">
		<tag k="fixme" v="consider seamark:type=rock or natural=shoal" />
		<tag k="name" v="Gnagsskjæret" />
		<tag k="place" v="islet" />
		<tag k="ssr:stedsnr" v="213901" />
	</node>
	<node id="-845316" lat="64.2286694428" lon="9.84463333724">
		<tag k="name" v="Medskolten" />
		<tag k="natural" v="shoal" />
		<tag k="place" v="locality" />
		<tag k="ssr:stedsnr" v="439992" />
	</node>
	<node id="-845313" lat="64.2300472188" lon="10.1310583347">
		<tag k="name" v="Kaura" />
		<tag k="place" v="islet" />
		<tag k="ssr:stedsnr" v="815689" />
	</node>
	<node id="-845302" lat="64.0987111089" lon="10.1891888918">
		<tag k="fixme" v="consider seamark:type=rock or natural=shoal" />
		<tag k="name" v="Østvikskjæret" />
		<tag k="place" v="islet" />
		<tag k="ssr:stedsnr" v="803169" />
	</node>
	<node id="-845298" lat="64.1383222216" lon="10.1428694371">
		<tag k="name" v="Stanganeset" />
		<tag k="natural" v="cape" />
		<tag k="ssr:stedsnr" v="213894" />
	</node>
	<node id="-845296" lat="64.1464222229" lon="10.1539083275">
		<tag k="name" v="Kråkøysundet" />
		<tag k="natural" v="strait" />
		<tag k="ssr:stedsnr" v="213893" />
	</node>
	<node id="-845294" lat="64.1036027759" lon="10.1736166598">
		<tag k="name" v="Mulodden" />
		<tag k="natural" v="cape" />
		<tag k="ssr:stedsnr" v="395732" />
	</node>
	<node id="-845292" lat="64.1561499986" lon="10.2155194372">
		<tag k="alt_name" v="Berfjordholman" />
		<tag k="name" v="Berfjordholmen" />
		<tag k="place" v="islet" />
		<tag k="ssr:stedsnr" v="863207" />
	</node>
	<node id="-845288" lat="64.1794194437" lon="10.3574111212">
		<tag k="alt_name" v="Vågen" />
		<tag k="name" v="Einarsdalsvågen" />
		<tag k="natural" v="bay" />
		<tag k="ssr:stedsnr" v="936048" />
	</node>
	<node id="-845286" lat="64.184249999" lon="10.1905888878">
		<tag k="name" v="Oksholmen" />
		<tag k="place" v="islet" />
		<tag k="ssr:stedsnr" v="499180" />
	</node>
	<node id="-845285" lat="64.2587166632" lon="10.3407638956">
		<tag k="name" v="Larsholmen" />
		<tag k="place" v="islet" />
		<tag k="ssr:stedsnr" v="572020" />
	</node>
	<node id="-845281" lat="64.2447194476" lon="10.2857888953">
		<tag k="name" v="Bessakersundet" />
		<tag k="natural" v="strait" />
		<tag k="ssr:stedsnr" v="317075" />
	</node>
	<node id="-845279" lat="64.2435388884" lon="10.2249222242">
		<tag k="name" v="Buholmen" />
		<tag k="place" v="islet" />
		<tag k="ssr:stedsnr" v="924035" />
	</node>
	<node id="-845278" lat="64.1645361131" lon="10.1798916646">
		<tag k="name" v="Brandsøya" />
		<tag k="place" v="island" />
		<tag k="ssr:stedsnr" v="499187" />
	</node>
	<node id="-845273" lat="64.1594222186" lon="9.90051666697">
		<tag k="name" v="Stelskolten" />
		<tag k="natural" v="shoal" />
		<tag k="place" v="locality" />
		<tag k="ssr:stedsnr" v="938813" />
	</node>
	<node id="-845270" lat="64.1054555586" lon="10.2189527881">
		<tag k="name" v="Joskjørodden" />
		<tag k="natural" v="cape" />
		<tag k="ssr:stedsnr" v="456286" />
	</node>
	<node id="-845263" lat="64.1036916709" lon="10.1779444537">
		<tag k="name" v="Mulodden" />
		<tag k="natural" v="cape" />
		<tag k="ssr:stedsnr" v="203479" />
	</node>
	<node id="-845261" lat="64.2232444472" lon="9.91986111705">
		<tag k="name" v="Melgrunnfallet" />
		<tag k="natural" v="shoal" />
		<tag k="place" v="locality" />
		<tag k="ssr:stedsnr" v="499993" />
	</node>
	<node id="-845249" lat="64.2873138868" lon="9.98396943696">
		<tag k="name" v="Grindsklakken" />
		<tag k="natural" v="shoal" />
		<tag k="place" v="locality" />
		<tag k="ssr:stedsnr" v="620847" />
	</node>
	<node id="-845243" lat="64.2357388846" lon="9.93627776984">
		<tag k="name" v="Evena" />
		<tag k="natural" v="shoal" />
		<tag k="place" v="locality" />
		<tag k="ssr:stedsnr" v="75999" />
	</node>
	<node id="-845242" lat="64.2361944466" lon="10.2755194373">
		<tag k="fixme" v="consider seamark:type=rock or natural=shoal" />
		<tag k="name" v="Skjæret" />
		<tag k="place" v="islet" />
		<tag k="ssr:stedsnr" v="881200" />
	</node>
	<node id="-845233" lat="64.1951499988" lon="10.2873194383">
		<tag k="bay" v="fjord" />
		<tag k="name" v="Hellfjorden" />
		<tag k="natural" v="bay" />
		<tag k="ssr:stedsnr" v="196461" />
	</node>
	<node id="-845232" lat="64.1040277762" lon="10.2456944425">
		<tag k="name" v="Lauvneset" />
		<tag k="natural" v="cape" />
		<tag k="ssr:stedsnr" v="506862" />
	</node>
	<node id="-845230" lat="64.1984472194" lon="10.2009500008">
		<tag k="name" v="Åkervika" />
		<tag k="natural" v="bay" />
		<tag k="ssr:stedsnr" v="213065" />
	</node>
	<node id="-845229" lat="64.1584527804" lon="10.2138166725">
		<tag k="name" v="Måvikholmen" />
		<tag k="place" v="islet" />
		<tag k="ssr:stedsnr" v="759124" />
	</node>
	<node id="-845223" lat="64.2619416641" lon="10.2904527679">
		<tag k="name" v="Børøya" />
		<tag k="place" v="island" />
		<tag k="ssr:stedsnr" v="681091" />
	</node>
	<node id="-845220" lat="64.2627756524" lon="10.4047917266">
		<tag k="name" v="Steinbitodden" />
		<tag k="natural" v="cape" />
		<tag k="ssr:stedsnr" v="87015" />
	</node>
	<node id="-845219" lat="64.177869443" lon="9.90701943814">
		<tag k="name" v="Grunnfjellskolten" />
		<tag k="natural" v="shoal" />
		<tag k="place" v="locality" />
		<tag k="ssr:stedsnr" v="499175" />
	</node>
	<node id="-845217" lat="64.233663886" lon="10.1053500097">
		<tag k="name" v="Kauragrunnen" />
		<tag k="natural" v="shoal" />
		<tag k="place" v="locality" />
		<tag k="ssr:stedsnr" v="451326" />
	</node>
	<node id="-845211" lat="64.2662972212" lon="10.2842555626">
		<tag k="name" v="Spjeldvika" />
		<tag k="natural" v="bay" />
		<tag k="ssr:stedsnr" v="208130" />
	</node>
	<node id="-845209" lat="64.2387305596" lon="9.89150554576">
		<tag k="name" v="Kverevelskolten" />
		<tag k="natural" v="shoal" />
		<tag k="place" v="locality" />
		<tag k="ssr:stedsnr" v="439974" />
	</node>
	<node id="-845203" lat="64.2152527783" lon="10.0826055484">
		<tag k="name" v="Drevflesleia" />
		<tag k="natural" v="strait" />
		<tag k="ssr:stedsnr" v="499999" />
	</node>
	<node id="-845199" lat="64.2208361145" lon="9.92178332398">
		<tag k="alt_name" v="Melgrunnfallet, s" />
		<tag k="name" v="Søre Melgrunnfallet" />
		<tag k="natural" v="shoal" />
		<tag k="place" v="locality" />
		<tag k="ssr:stedsnr" v="574843" />
	</node>
	<node id="-845198" lat="64.2599138904" lon="10.332305562">
		<tag k="fixme" v="consider seamark:type=rock or natural=shoal" />
		<tag k="name" v="Løaholmskjæret" />
		<tag k="place" v="islet" />
		<tag k="ssr:stedsnr" v="456251" />
	</node>
	<node id="-845194" lat="64.1779305557" lon="10.1972750008">
		<tag k="fixme" v="consider seamark:type=rock or natural=shoal" />
		<tag k="name" v="Krilskjæret" />
		<tag k="place" v="islet" />
		<tag k="ssr:stedsnr" v="754221" />
	</node>
	<node id="-845192" lat="64.2669361144" lon="10.3400055624">
		<tag k="fixme" v="multiple name tags, choose one and add the other to alt_name" />
		<tag k="name" v="Hattaneset;Sørneset" />
		<tag k="natural" v="cape" />
		<tag k="ssr:stedsnr" v="620587" />
	</node>
	<node id="-845182" lat="64.1303722183" lon="10.0327722297">
		<tag k="name" v="Kvitmåsholmen" />
		<tag k="place" v="islet" />
		<tag k="ssr:stedsnr" v="75191" />
	</node>
	<node id="-845181" lat="64.2405833294" lon="10.2640416576">
		<tag k="name" v="Bukken" />
		<tag k="natural" v="strait" />
		<tag k="ssr:stedsnr" v="741056" />
	</node>
	<node id="-845177" lat="64.2257000011" lon="9.92066666974">
		<tag k="alt_name" v="Melgrunnfallet, n" />
		<tag k="name" v="Nordre Melgrunnfallet" />
		<tag k="natural" v="shoal" />
		<tag k="place" v="locality" />
		<tag k="ssr:stedsnr" v="89812" />
	</node>
	<node id="-845176" lat="64.1801277801" lon="9.92738610114">
		<tag k="alt_name" v="Leiafallet, n" />
		<tag k="name" v="Nordre Leiafallet" />
		<tag k="natural" v="shoal" />
		<tag k="place" v="locality" />
		<tag k="ssr:stedsnr" v="89816" />
	</node>
	<node id="-845166" lat="64.1100489964" lon="10.1420692375">
		<tag k="name" v="Geisnesoddan" />
		<tag k="natural" v="cape" />
		<tag k="ssr:stedsnr" v="196181" />
	</node>
	<node id="-845165" lat="64.2836166664" lon="10.1818333421">
		<tag k="name" v="Slarken" />
		<tag k="natural" v="shoal" />
		<tag k="place" v="locality" />
		<tag k="ssr:stedsnr" v="620854" />
	</node>
	<node id="-845160" lat="64.1435972186" lon="10.1738166601">
		<tag k="name" v="Kråkfjordstraumen" />
		<tag k="natural" v="strait" />
		<tag k="ssr:stedsnr" v="638899" />
	</node>
	<node id="-845156" lat="64.1433250026" lon="10.1341249974">
		<tag k="name" v="Ramngrunnen" />
		<tag k="natural" v="shoal" />
		<tag k="place" v="locality" />
		<tag k="ssr:stedsnr" v="90648" />
	</node>
	<node id="-845153" lat="64.162733336" lon="10.1976944496">
		<tag k="name" v="Smørleivan" />
		<tag k="natural" v="cape" />
		<tag k="ssr:stedsnr" v="31095" />
	</node>
	<node id="-845147" lat="64.2289805576" lon="10.2890249984">
		<tag k="name" v="Ramsvika" />
		<tag k="natural" v="bay" />
		<tag k="ssr:stedsnr" v="881202" />
	</node>
	<node id="-845140" lat="64.2415777746" lon="10.2374416757">
		<tag k="name" v="Tjønnholmen" />
		<tag k="place" v="islet" />
		<tag k="ssr:stedsnr" v="377045" />
	</node>
	<node id="-845139" lat="64.1919777782" lon="10.1221805584">
		<tag k="name" v="Farmannsøya" />
		<tag k="place" v="island" />
		<tag k="ssr:stedsnr" v="571978" />
	</node>
	<node id="-845135" lat="64.2816944446" lon="10.3772444495">
		<tag k="name" v="Sandvika" />
		<tag k="natural" v="bay" />
		<tag k="ssr:stedsnr" v="820239" />
	</node>
	<node id="-845132" lat="64.199761107" lon="10.0311138901">
		<tag k="fixme" v="consider seamark:type=rock or natural=shoal" />
		<tag k="name" v="Skaftskåka" />
		<tag k="place" v="islet" />
		<tag k="ssr:stedsnr" v="632680" />
	</node>
	<node id="-845131" lat="64.2495722196" lon="10.0137611204">
		<tag k="name" v="Indre Snaustaren" />
		<tag k="natural" v="shoal" />
		<tag k="place" v="locality" />
		<tag k="ssr:stedsnr" v="75986" />
	</node>
	<node id="-845124" lat="64.2585638914" lon="10.2368416687">
		<tag k="fixme" v="consider seamark:type=rock or natural=shoal" />
		<tag k="name" v="Vektmoskjæret" />
		<tag k="place" v="islet" />
		<tag k="ssr:stedsnr" v="937110" />
	</node>
	<node id="-845122" lat="64.0991638866" lon="10.2270333261">
		<tag k="name" v="Kattavika" />
		<tag k="natural" v="bay" />
		<tag k="ssr:stedsnr" v="759936" />
	</node>
	<node id="-845110" lat="64.1431194439" lon="10.1419666578">
		<tag k="name" v="Steggelholmen" />
		<tag k="place" v="islet" />
		<tag k="ssr:stedsnr" v="439163" />
	</node>
	<node id="-845103" lat="64.2438833324" lon="10.2270249932">
		<tag k="name" v="Veddøya" />
		<tag k="place" v="islet" />
		<tag k="ssr:stedsnr" v="754180" />
	</node>
	<node id="-845100" lat="64.1017111115" lon="10.1955333376">
		<tag k="name" v="Gullbrandsøra" />
		<tag k="natural" v="beach" />
		<tag k="place" v="locality" />
		<tag k="ssr:stedsnr" v="759928" />
	</node>
	<node id="-845087" lat="64.2497249993" lon="10.161733328">
		<tag k="name" v="Bukkfallet" />
		<tag k="natural" v="shoal" />
		<tag k="place" v="locality" />
		<tag k="ssr:stedsnr" v="620839" />
	</node>
	<node id="-845065" lat="64.1043305554" lon="10.2133249995">
		<tag k="name" v="Stranda" />
		<tag k="natural" v="beach" />
		<tag k="place" v="locality" />
		<tag k="ssr:stedsnr" v="31936" />
	</node>
	<node id="-845064" lat="64.2198388925" lon="10.0669805652">
		<tag k="name" v="Djupbåen" />
		<tag k="natural" v="shoal" />
		<tag k="place" v="locality" />
		<tag k="ssr:stedsnr" v="208095" />
	</node>
	<node id="-845063" lat="64.1452055543" lon="10.1962527804">
		<tag k="name" v="Hestvika" />
		<tag k="natural" v="bay" />
		<tag k="ssr:stedsnr" v="699100" />
	</node>
	<node id="-845059" lat="64.1070472211" lon="10.2588027818">
		<tag k="name" v="Sjursvika" />
		<tag k="natural" v="bay" />
		<tag k="ssr:stedsnr" v="152110" />
	</node>
	<node id="-845058" lat="64.2807426975" lon="10.3599260965">
		<tag k="fixme" v="multiple name tags, choose one and add the other to alt_name" />
		<tag k="name" v="Augunsvika;Nordvika" />
		<tag k="natural" v="bay" />
		<tag k="ssr:stedsnr" v="88974" />
	</node>
	<node id="-845055" lat="64.2507444478" lon="10.2890444482">
		<tag k="name" v="Bonvika" />
		<tag k="natural" v="bay" />
		<tag k="ssr:stedsnr" v="754187" />
	</node>
	<node id="-845054" lat="64.161286115" lon="10.1512500001">
		<tag k="name" v="Kråkøytaren" />
		<tag k="natural" v="shoal" />
		<tag k="place" v="locality" />
		<tag k="ssr:stedsnr" v="515671" />
	</node>
	<node id="-845051" lat="64.2614138909" lon="10.3086749904">
		<tag k="name" v="Børøyvika" />
		<tag k="natural" v="bay" />
		<tag k="ssr:stedsnr" v="754188" />
	</node>
	<node id="-845050" lat="64.1788805588" lon="10.177436107">
		<tag k="fixme" v="consider seamark:type=rock or natural=shoal" />
		<tag k="name" v="Geitskjæret" />
		<tag k="place" v="islet" />
		<tag k="ssr:stedsnr" v="13247" />
	</node>
	<node id="-845036" lat="64.1470638901" lon="10.1652750087">
		<tag k="fixme" v="consider seamark:type=rock or natural=shoal" />
		<tag k="name" v="Hongsandskjæret" />
		<tag k="place" v="islet" />
		<tag k="ssr:stedsnr" v="151672" />
	</node>
	<node id="-845035" lat="64.2491499985" lon="10.3300861099">
		<tag k="name" v="Aurvollfjæra" />
		<tag k="natural" v="shoal" />
		<tag k="place" v="locality" />
		<tag k="ssr:stedsnr" v="395253" />
	</node>
	<node id="-845013" lat="64.1062555517" lon="10.1608777722">
		<tag k="name" v="Vedavika" />
		<tag k="natural" v="bay" />
		<tag k="ssr:stedsnr" v="813497" />
	</node>
	<node id="-845006" lat="64.2733638884" lon="10.2029944351">
		<tag k="fixme" v="consider seamark:type=rock or natural=shoal" />
		<tag k="name" v="Seiskjæret" />
		<tag k="place" v="islet" />
		<tag k="ssr:stedsnr" v="742874" />
	</node>
	<node id="-845002" lat="64.2736972244" lon="10.2174861181">
		<tag k="name" v="Flatøya" />
		<tag k="place" v="island" />
		<tag k="ssr:stedsnr" v="742875" />
	</node>
	<node id="-844991" lat="64.2042361104" lon="10.3533777687">
		<tag k="name" v="Kvitormen" />
		<tag k="natural" v="cape" />
		<tag k="ssr:stedsnr" v="456214" />
	</node>
	<node id="-844990" lat="64.1145972196" lon="10.2562416701">
		<tag k="name" v="Bryggneset" />
		<tag k="natural" v="cape" />
		<tag k="ssr:stedsnr" v="942907" />
	</node>
	<node id="-844972" lat="64.2789749993" lon="10.2016666581">
		<tag k="name" v="Kleppholman" />
		<tag k="place" v="islet" />
		<tag k="ssr:stedsnr" v="257910" />
	</node>
	<node id="-844962" lat="64.2788083361" lon="10.154591673">
		<tag k="name" v="Rangfallet" />
		<tag k="natural" v="shoal" />
		<tag k="place" v="locality" />
		<tag k="ssr:stedsnr" v="14852" />
	</node>
	<node id="-844957" lat="64.1056472211" lon="10.2135722279">
		<tag k="name" v="Joskjørbukta" />
		<tag k="natural" v="bay" />
		<tag k="ssr:stedsnr" v="942926" />
	</node>
	<node id="-844955" lat="64.271433333" lon="10.3499500062">
		<tag k="name" v="Lekersvika" />
		<tag k="natural" v="bay" />
		<tag k="ssr:stedsnr" v="820228" />
	</node>
	<node id="-844952" lat="64.2724722244" lon="10.2574111117">
		<tag k="name" v="Vettagrunnen" />
		<tag k="natural" v="shoal" />
		<tag k="place" v="locality" />
		<tag k="ssr:stedsnr" v="876224" />
	</node>
	<node id="-844951" lat="64.1470694481" lon="10.1652499995">
		<tag k="fixme" v="consider seamark:type=rock or natural=shoal" />
		<tag k="name" v="Hongsandskjæra" />
		<tag k="place" v="islet" />
		<tag k="ssr:stedsnr" v="335290" />
	</node>
	<node id="-844942" lat="64.1075416684" lon="10.2257305567">
		<tag k="name" v="Vorpstranda" />
		<tag k="natural" v="beach" />
		<tag k="place" v="locality" />
		<tag k="ssr:stedsnr" v="317309" />
	</node>
	<node id="-844941" lat="64.1153777765" lon="10.2512277826">
		<tag k="name" v="Einvika" />
		<tag k="natural" v="bay" />
		<tag k="ssr:stedsnr" v="152905" />
	</node>
	<node id="-844940" lat="64.2171527787" lon="10.2593472318">
		<tag k="name" v="Purkvika" />
		<tag k="natural" v="bay" />
		<tag k="ssr:stedsnr" v="334032" />
	</node>
	<node id="-844937" lat="64.1194972219" lon="10.1238305635">
		<tag k="name" v="Langneset" />
		<tag k="natural" v="cape" />
		<tag k="ssr:stedsnr" v="328487" />
	</node>
	<node id="-844930" lat="64.1821888849" lon="10.1736055608">
		<tag k="name" v="Grunntaran" />
		<tag k="natural" v="shoal" />
		<tag k="place" v="locality" />
		<tag k="ssr:stedsnr" v="876219" />
	</node>
	<node id="-844918" lat="64.2727027766" lon="10.3683972208">
		<tag k="name" v="Kalvstrandholet" />
		<tag k="natural" v="cape" />
		<tag k="ssr:stedsnr" v="395242" />
	</node>
	<node id="-844916" lat="64.1539388864" lon="10.1897472155">
		<tag k="name" v="Nesvika" />
		<tag k="natural" v="bay" />
		<tag k="ssr:stedsnr" v="31901" />
	</node>
	<node id="-844913" lat="64.216650001" lon="10.2562861018">
		<tag k="name" v="Purkvikholmen" />
		<tag k="place" v="islet" />
		<tag k="ssr:stedsnr" v="31032" />
	</node>
	<node id="-844904" lat="64.273369444" lon="9.9456250001">
		<tag k="name" v="Bårklakken" />
		<tag k="natural" v="shoal" />
		<tag k="place" v="locality" />
		<tag k="ssr:stedsnr" v="257904" />
	</node>
	<node id="-844900" lat="64.2887083295" lon="10.1609750058">
		<tag k="name" v="Jonsgrunnen" />
		<tag k="natural" v="shoal" />
		<tag k="place" v="locality" />
		<tag k="ssr:stedsnr" v="257905" />
	</node>
	<node id="-844898" lat="64.2838055564" lon="10.2058638813">
		<tag k="fixme" v="consider seamark:type=rock or natural=shoal" />
		<tag k="name" v="Kleppholmskjæra" />
		<tag k="place" v="islet" />
		<tag k="ssr:stedsnr" v="378892" />
	</node>
	<node id="-844896" lat="64.3095750002" lon="10.1114861036">
		<tag k="name" v="Tarfallet" />
		<tag k="natural" v="shoal" />
		<tag k="place" v="locality" />
		<tag k="ssr:stedsnr" v="14839" />
	</node>
	<node id="-844886" lat="64.1513861074" lon="10.1606388842">
		<tag k="name" v="Nordvika" />
		<tag k="natural" v="bay" />
		<tag k="ssr:stedsnr" v="31898" />
	</node>
	<node id="-844880" lat="64.2230138927" lon="10.2510388911">
		<tag k="name" v="Keila" />
		<tag k="natural" v="bay" />
		<tag k="ssr:stedsnr" v="152069" />
	</node>
	<node id="-844878" lat="64.1435722218" lon="10.1541611095">
		<tag k="name" v="Sandan" />
		<tag k="natural" v="beach" />
		<tag k="place" v="locality" />
		<tag k="ssr:stedsnr" v="31895" />
	</node>
	<node id="-844877" lat="64.1961388921" lon="10.2934083326">
		<tag k="name" v="Hagavikern" />
		<tag k="natural" v="bay" />
		<tag k="ssr:stedsnr" v="31027" />
	</node>
	<node id="-844872" lat="64.2982500004" lon="10.1075361132">
		<tag k="name" v="Litltaren" />
		<tag k="natural" v="shoal" />
		<tag k="place" v="locality" />
		<tag k="ssr:stedsnr" v="257900" />
	</node>
	<node id="-844870" lat="64.2039583375" lon="10.3896833289">
		<tag k="name" v="Vikabukta" />
		<tag k="natural" v="bay" />
		<tag k="ssr:stedsnr" v="820172" />
	</node>
	<node id="-844866" lat="64.2133722265" lon="10.2627722215">
		<tag k="name" v="Kilsvika" />
		<tag k="natural" v="bay" />
		<tag k="ssr:stedsnr" v="759043" />
	</node>
	<node id="-844862" lat="64.1759944411" lon="10.0540388845">
		<tag k="name" v="Skittaren" />
		<tag k="natural" v="shoal" />
		<tag k="place" v="locality" />
		<tag k="ssr:stedsnr" v="875113" />
	</node>
	<node id="-844861" lat="64.1537027756" lon="10.1308055454">
		<tag k="bay" v="fjord" />
		<tag k="name" v="Kråkøyfjorden" />
		<tag k="natural" v="bay" />
		<tag k="ssr:stedsnr" v="577288" />
	</node>
	<node id="-844860" lat="64.1099194464" lon="10.2328638789">
		<tag k="name" v="Holmsundet" />
		<tag k="natural" v="strait" />
		<tag k="ssr:stedsnr" v="637933" />
	</node>
	<node id="-844855" lat="64.1021194434" lon="10.2506583361">
		<tag k="name" v="Tysvika" />
		<tag k="natural" v="bay" />
		<tag k="ssr:stedsnr" v="699911" />
	</node>
	<node id="-844854" lat="64.2847750031" lon="10.1720694386">
		<tag k="name" v="Smellingen" />
		<tag k="natural" v="shoal" />
		<tag k="place" v="locality" />
		<tag k="ssr:stedsnr" v="742869" />
	</node>
	<node id="-844851" lat="64.2387972205" lon="10.2104444497">
		<tag k="fixme" v="consider seamark:type=rock or natural=shoal" />
		<tag k="name" v="Vekmoskjæret" />
		<tag k="place" v="islet" />
		<tag k="ssr:stedsnr" v="560978" />
	</node>
	<node id="-844848" lat="64.2094472258" lon="10.2993222167">
		<tag k="name" v="Sørausvika" />
		<tag k="natural" v="bay" />
		<tag k="ssr:stedsnr" v="699051" />
	</node>
	<node id="-844840" lat="64.1125388914" lon="10.2394527843">
		<tag k="name" v="Skreabukta" />
		<tag k="natural" v="bay" />
		<tag k="ssr:stedsnr" v="942903" />
	</node>
	<node id="-844835" lat="64.2495916692" lon="10.3223305571">
		<tag k="name" v="Årneset" />
		<tag k="natural" v="cape" />
		<tag k="ssr:stedsnr" v="941224" />
	</node>
	<node id="-844818" lat="64.1821194423" lon="9.93724722355">
		<tag k="name" v="Djupbakfallet" />
		<tag k="natural" v="shoal" />
		<tag k="place" v="locality" />
		<tag k="ssr:stedsnr" v="741269" />
	</node>
	<node id="-844812" lat="64.291911112" lon="10.1680111035">
		<tag k="name" v="Kleppholmleia" />
		<tag k="natural" v="strait" />
		<tag k="ssr:stedsnr" v="742865" />
	</node>
	<node id="-844804" lat="64.1842527774" lon="10.0723194501">
		<tag k="name" v="Annsteintaran" />
		<tag k="natural" v="shoal" />
		<tag k="place" v="locality" />
		<tag k="ssr:stedsnr" v="875112" />
	</node>
	<node id="-844799" lat="64.1824555537" lon="10.201955554">
		<tag k="name" v="Utrosanden" />
		<tag k="natural" v="shoal" />
		<tag k="place" v="locality" />
		<tag k="ssr:stedsnr" v="699040" />
	</node>
	<node id="-844796" lat="64.2671027818" lon="10.2783277734">
		<tag k="fixme" v="consider seamark:type=rock or natural=shoal" />
		<tag k="name" v="Spjeldskjæret" />
		<tag k="place" v="islet" />
		<tag k="ssr:stedsnr" v="88092" />
	</node>
	<node id="-844794" lat="64.1946527778" lon="10.2420027791">
		<tag k="name" v="Ropneset" />
		<tag k="natural" v="cape" />
		<tag k="ssr:stedsnr" v="699008" />
	</node>
	<node id="-844791" lat="64.230680552" lon="9.87648333483">
		<tag k="name" v="Ranen" />
		<tag k="natural" v="shoal" />
		<tag k="place" v="locality" />
		<tag k="ssr:stedsnr" v="864972" />
	</node>
	<node id="-844788" lat="64.2204694464" lon="10.2698555564">
		<tag k="name" v="Stokkvikholmen" />
		<tag k="place" v="islet" />
		<tag k="ssr:stedsnr" v="516035" />
	</node>
	<node id="-844787" lat="64.2648166668" lon="9.9230583411">
		<tag k="name" v="Karlsklakken" />
		<tag k="natural" v="shoal" />
		<tag k="place" v="locality" />
		<tag k="ssr:stedsnr" v="14821" />
	</node>
	<node id="-844778" lat="64.2673499983" lon="10.1612166689">
		<tag k="name" v="Skjærbaken" />
		<tag k="natural" v="shoal" />
		<tag k="place" v="locality" />
		<tag k="ssr:stedsnr" v="14820" />
	</node>
	<node id="-844776" lat="64.2728416631" lon="10.1727222138">
		<tag k="name" v="Ytre Kvalhausen" />
		<tag k="natural" v="shoal" />
		<tag k="place" v="locality" />
		<tag k="ssr:stedsnr" v="317801" />
	</node>
	<node id="-844760" lat="64.2652583323" lon="10.1231833302">
		<tag k="name" v="Leiafallet" />
		<tag k="natural" v="shoal" />
		<tag k="place" v="locality" />
		<tag k="ssr:stedsnr" v="742840" />
	</node>
	<node id="-844759" lat="64.1382083364" lon="10.0225222188">
		<tag k="name" v="Kvernøyfallet" />
		<tag k="natural" v="shoal" />
		<tag k="place" v="locality" />
		<tag k="ssr:stedsnr" v="212522" />
	</node>
	<node id="-844757" lat="64.2002944453" lon="10.2344833305">
		<tag k="name" v="Grønningsodden" />
		<tag k="natural" v="cape" />
		<tag k="ssr:stedsnr" v="699003" />
	</node>
	<node id="-844756" lat="64.2105666657" lon="10.2789694408">
		<tag k="fixme" v="consider seamark:type=rock or natural=shoal" />
		<tag k="name" v="Skjeppa" />
		<tag k="place" v="islet" />
		<tag k="ssr:stedsnr" v="681012" />
	</node>
	<node id="-844755" lat="64.2591749984" lon="10.1255999936">
		<tag k="name" v="Litltaren" />
		<tag k="natural" v="shoal" />
		<tag k="place" v="locality" />
		<tag k="ssr:stedsnr" v="257882" />
	</node>
	<node id="-844751" lat="64.2424166628" lon="10.2884250005">
		<tag k="name" v="Vettahammaren" />
		<tag k="natural" v="cape" />
		<tag k="ssr:stedsnr" v="152046" />
	</node>
	<node id="-844747" lat="64.1682500017" lon="10.1654416565">
		<tag k="name" v="Hamnavågan" />
		<tag k="natural" v="bay" />
		<tag k="ssr:stedsnr" v="881084" />
	</node>
	<node id="-844745" lat="64.2901166701" lon="10.3480944476">
		<tag k="fixme" v="consider seamark:type=rock or natural=shoal" />
		<tag k="name" v="Mosterskjæra" />
		<tag k="place" v="islet" />
		<tag k="ssr:stedsnr" v="378604" />
	</node>
	<node id="-844744" lat="64.1467111146" lon="10.2239722209">
		<tag k="name" v="Berfjordleira" />
		<tag k="natural" v="beach" />
		<tag k="place" v="locality" />
		<tag k="ssr:stedsnr" v="820149" />
	</node>
	<node id="-844742" lat="64.208219443" lon="10.3169138981">
		<tag k="name" v="Nordvika" />
		<tag k="natural" v="bay" />
		<tag k="ssr:stedsnr" v="14005" />
	</node>
	<node id="-844741" lat="64.1115305515" lon="10.1349444359">
		<tag k="name" v="Ytre Geisneset" />
		<tag k="natural" v="cape" />
		<tag k="ssr:stedsnr" v="576416" />
	</node>
	<node id="-844736" lat="64.2701166679" lon="10.1422527722">
		<tag k="name" v="Somstadflesa" />
		<tag k="place" v="island" />
		<tag k="ssr:stedsnr" v="257876" />
	</node>
	<node id="-844732" lat="64.1942722221" lon="10.1853361063">
		<tag k="fixme" v="consider seamark:type=rock or natural=shoal" />
		<tag k="name" v="Annsteinen" />
		<tag k="place" v="islet" />
		<tag k="ssr:stedsnr" v="134273" />
	</node>
	<node id="-844731" lat="64.202369445" lon="10.216894449">
		<tag k="name" v="Barkavika" />
		<tag k="natural" v="bay" />
		<tag k="ssr:stedsnr" v="942007" />
	</node>
	<node id="-844728" lat="64.197458335" lon="10.1619333234">
		<tag k="name" v="Kjeøya" />
		<tag k="place" v="islet" />
		<tag k="ssr:stedsnr" v="134271" />
	</node>
	<node id="-844725" lat="64.2453674875" lon="10.2213158921">
		<tag k="alt_name" v="Kvernholman" />
		<tag k="name" v="Kvernholmen" />
		<tag k="place" v="islet" />
		<tag k="ssr:stedsnr" v="559086" />
	</node>
	<node id="-844722" lat="64.189130554" lon="9.77521110311">
		<tag k="name" v="Sypan" />
		<tag k="natural" v="shoal" />
		<tag k="place" v="locality" />
		<tag k="ssr:stedsnr" v="455709" />
	</node>
	<node id="-844718" lat="64.2547611068" lon="10.1913555479">
		<tag k="fixme" v="consider seamark:type=rock or natural=shoal" />
		<tag k="name" v="Dorteaskjæret" />
		<tag k="place" v="islet" />
		<tag k="ssr:stedsnr" v="257879" />
	</node>
	<node id="-844709" lat="64.2053694423" lon="10.2789027749">
		<tag k="name" v="Bremvika" />
		<tag k="natural" v="bay" />
		<tag k="ssr:stedsnr" v="516030" />
	</node>
	<node id="-844702" lat="64.2123111087" lon="10.2834277775">
		<tag k="name" v="Takneset" />
		<tag k="natural" v="cape" />
		<tag k="ssr:stedsnr" v="516029" />
	</node>
	<node id="-844696" lat="64.1664833327" lon="10.1624305655">
		<tag k="name" v="Vollneset" />
		<tag k="natural" v="cape" />
		<tag k="ssr:stedsnr" v="636676" />
	</node>
	<node id="-844695" lat="64.2537333338" lon="10.069541672">
		<tag k="name" v="Låkjen" />
		<tag k="natural" v="shoal" />
		<tag k="place" v="locality" />
		<tag k="ssr:stedsnr" v="742847" />
	</node>
	<node id="-844693" lat="64.2523055563" lon="10.0040611031">
		<tag k="name" v="Ytre Snaustaren" />
		<tag k="natural" v="shoal" />
		<tag k="place" v="locality" />
		<tag k="ssr:stedsnr" v="742848" />
	</node>
	<node id="-844692" lat="64.2176694439" lon="10.2733166738">
		<tag k="name" v="Storvika" />
		<tag k="natural" v="bay" />
		<tag k="ssr:stedsnr" v="516034" />
	</node>
	<node id="-844691" lat="64.1375500011" lon="10.1224361198">
		<tag k="fixme" v="consider seamark:type=rock or natural=shoal" />
		<tag k="name" v="Sør Veimannskjæret" />
		<tag k="place" v="islet" />
		<tag k="ssr:stedsnr" v="942870" />
	</node>
	<node id="-844688" lat="64.1534638918" lon="10.1920166672">
		<tag k="name" v="Neshammaren" />
		<tag k="natural" v="cape" />
		<tag k="ssr:stedsnr" v="456149" />
	</node>
	<node id="-844684" lat="64.1836444449" lon="9.99970277986">
		<tag k="name" v="Samuelsflua" />
		<tag k="natural" v="shoal" />
		<tag k="place" v="locality" />
		<tag k="ssr:stedsnr" v="134268" />
	</node>
	<node id="-844682" lat="64.1567722203" lon="9.95857778612">
		<tag k="name" v="Tallibakskjækern" />
		<tag k="natural" v="shoal" />
		<tag k="place" v="locality" />
		<tag k="ssr:stedsnr" v="924223" />
	</node>
	<node id="-844677" lat="64.187783332" lon="10.3746999973">
		<tag k="name" v="Straumstaren" />
		<tag k="natural" v="shoal" />
		<tag k="place" v="locality" />
		<tag k="ssr:stedsnr" v="26075" />
	</node>
	<node id="-844676" lat="64.1948083361" lon="10.0344916693">
		<tag k="name" v="Vedøya" />
		<tag k="place" v="island" />
		<tag k="ssr:stedsnr" v="13993" />
	</node>
	<node id="-844674" lat="64.1644527736" lon="9.94757221738">
		<tag k="name" v="Tåfallet" />
		<tag k="natural" v="shoal" />
		<tag k="place" v="locality" />
		<tag k="ssr:stedsnr" v="377236" />
	</node>
	<node id="-844672" lat="64.1711555568" lon="9.98063610091">
		<tag k="name" v="Skattabogfallet" />
		<tag k="natural" v="shoal" />
		<tag k="place" v="locality" />
		<tag k="ssr:stedsnr" v="256248" />
	</node>
	<node id="-844669" lat="64.1477194404" lon="9.97723888575">
		<tag k="name" v="Påltaren" />
		<tag k="natural" v="shoal" />
		<tag k="place" v="locality" />
		<tag k="ssr:stedsnr" v="212501" />
	</node>
	<node id="-844662" lat="64.1755361136" lon="10.2079527696">
		<tag k="alt_name" v="Meholmen" />
		<tag k="name" v="Prestholmen" />
		<tag k="place" v="islet" />
		<tag k="ssr:stedsnr" v="924197" />
	</node>
	<node id="-844650" lat="64.2687666688" lon="10.2923388941">
		<tag k="alt_name" v="Brennvika" />
		<tag k="name" v="Bremvika" />
		<tag k="natural" v="bay" />
		<tag k="ssr:stedsnr" v="863626" />
	</node>
	<node id="-844648" lat="64.2749138867" lon="10.3400222234">
		<tag k="name" v="Tjuvholmen" />
		<tag k="place" v="islet" />
		<tag k="ssr:stedsnr" v="135589" />
	</node>
	<node id="-844646" lat="64.1910083319" lon="9.94399167443">
		<tag k="alt_name" v="Venttaren, n" />
		<tag k="name" v="Nordre Venttaren" />
		<tag k="natural" v="shoal" />
		<tag k="place" v="locality" />
		<tag k="ssr:stedsnr" v="210830" />
	</node>
	<node id="-844642" lat="64.1880222217" lon="10.3813611039">
		<tag k="name" v="Kallvika" />
		<tag k="natural" v="bay" />
		<tag k="ssr:stedsnr" v="395172" />
	</node>
	<node id="-844640" lat="64.2211014138" lon="10.100537536">
		<tag k="name" v="Langfalla" />
		<tag k="natural" v="shoal" />
		<tag k="place" v="locality" />
		<tag k="ssr:stedsnr" v="511119" />
	</node>
	<node id="-844635" lat="64.276763886" lon="10.1957277769">
		<tag k="name" v="Fletra" />
		<tag k="place" v="islet" />
		<tag k="ssr:stedsnr" v="439888" />
	</node>
	<node id="-844634" lat="64.2580027767" lon="10.3572777869">
		<tag k="name" v="Vikbukta" />
		<tag k="natural" v="bay" />
		<tag k="ssr:stedsnr" v="499364" />
	</node>
	<node id="-844631" lat="64.2061999965" lon="10.0823972296">
		<tag k="name" v="Nørdstøya" />
		<tag k="place" v="islet" />
		<tag k="ssr:stedsnr" v="13987" />
	</node>
	<node id="-844630" lat="64.1693833316" lon="10.1462361032">
		<tag k="name" v="Langtaren" />
		<tag k="natural" v="shoal" />
		<tag k="place" v="locality" />
		<tag k="ssr:stedsnr" v="210832" />
	</node>
	<node id="-844628" lat="64.2194638919" lon="10.2465250065">
		<tag k="name" v="Tjuvholmen" />
		<tag k="place" v="islet" />
		<tag k="ssr:stedsnr" v="881053" />
	</node>
	<node id="-844624" lat="64.2063416629" lon="10.2854333232">
		<tag k="name" v="Klakksneset" />
		<tag k="natural" v="cape" />
		<tag k="ssr:stedsnr" v="378020" />
	</node>
	<node id="-844621" lat="64.170699999" lon="10.1645499919">
		<tag k="name" v="Raudhammaren" />
		<tag k="natural" v="cape" />
		<tag k="ssr:stedsnr" v="637092" />
	</node>
	<node id="-844616" lat="64.1657333337" lon="10.1613361086">
		<tag k="name" v="Vollneset" />
		<tag k="natural" v="cape" />
		<tag k="ssr:stedsnr" v="637090" />
	</node>
	<node id="-844613" lat="64.1963722216" lon="10.2552750009">
		<tag k="name" v="Sandvika" />
		<tag k="natural" v="bay" />
		<tag k="ssr:stedsnr" v="875073" />
	</node>
	<node id="-844611" lat="64.2740833314" lon="10.3564916716">
		<tag k="name" v="Kleivvikstranda" />
		<tag k="natural" v="beach" />
		<tag k="place" v="locality" />
		<tag k="ssr:stedsnr" v="335208" />
	</node>
	<node id="-844610" lat="64.1655055532" lon="10.1921944446">
		<tag k="name" v="Lerva" />
		<tag k="natural" v="bay" />
		<tag k="ssr:stedsnr" v="456114" />
	</node>
	<node id="-844609" lat="64.1521055534" lon="10.1531916657">
		<tag k="alt_name" v="Kråkøya" />
		<tag k="name" v="Sørkråkøya" />
		<tag k="place" v="island" />
		<tag k="ssr:stedsnr" v="256244" />
	</node>
	<node id="-844604" lat="64.1157416635" lon="10.2536083294">
		<tag k="name" v="Rotvika" />
		<tag k="natural" v="bay" />
		<tag k="ssr:stedsnr" v="637900" />
	</node>
	<node id="-844603" lat="64.2214138902" lon="10.2429472174">
		<tag k="name" v="Skagbukta" />
		<tag k="natural" v="bay" />
		<tag k="ssr:stedsnr" v="681004" />
	</node>
	<node id="-844598" lat="64.1806111143" lon="10.196294438">
		<tag k="name" v="Haraneset" />
		<tag k="natural" v="cape" />
		<tag k="ssr:stedsnr" v="456117" />
	</node>
	<node id="-844596" lat="64.2096888908" lon="10.2653111129">
		<tag k="name" v="Flua" />
		<tag k="natural" v="strait" />
		<tag k="ssr:stedsnr" v="135028" />
	</node>
	<node id="-844594" lat="64.2088666702" lon="10.2489611027">
		<tag k="name" v="Flutaran" />
		<tag k="natural" v="shoal" />
		<tag k="place" v="locality" />
		<tag k="ssr:stedsnr" v="451201" />
	</node>
	<node id="-844593" lat="64.1834666644" lon="9.92443055753">
		<tag k="name" v="Leiafallskolten" />
		<tag k="natural" v="shoal" />
		<tag k="place" v="locality" />
		<tag k="ssr:stedsnr" v="924202" />
	</node>
	<node id="-844591" lat="64.2101583357" lon="10.088527776">
		<tag k="name" v="Jofallet" />
		<tag k="natural" v="shoal" />
		<tag k="place" v="locality" />
		<tag k="ssr:stedsnr" v="330245" />
	</node>
	<node id="-844584" lat="64.1525416681" lon="9.97121944164">
		<tag k="fixme" v="consider seamark:type=rock or natural=shoal" />
		<tag k="name" v="Pålskjæret" />
		<tag k="place" v="islet" />
		<tag k="ssr:stedsnr" v="256241" />
	</node>
	<node id="-844583" lat="64.1681555582" lon="10.2210638804">
		<tag k="name" v="Skipparvika" />
		<tag k="natural" v="bay" />
		<tag k="ssr:stedsnr" v="456120" />
	</node>
	<node id="-844578" lat="64.1042027741" lon="10.2567722119">
		<tag k="name" v="Haratoa" />
		<tag k="natural" v="cape" />
		<tag k="ssr:stedsnr" v="881905" />
	</node>
	<node id="-844571" lat="64.1896666679" lon="10.0594138872">
		<tag k="fixme" v="consider seamark:type=rock or natural=shoal" />
		<tag k="name" v="Annsteinskjæra" />
		<tag k="place" v="islet" />
		<tag k="ssr:stedsnr" v="256237" />
	</node>
	<node id="-844556" lat="64.2580638929" lon="10.168011104">
		<tag k="name" v="Langtaran" />
		<tag k="natural" v="shoal" />
		<tag k="place" v="locality" />
		<tag k="ssr:stedsnr" v="572255" />
	</node>
	<node id="-844554" lat="64.1977749971" lon="10.1469583398">
		<tag k="name" v="Kjeøytaren" />
		<tag k="natural" v="shoal" />
		<tag k="place" v="locality" />
		<tag k="ssr:stedsnr" v="148225" />
	</node>
	<node id="-844552" lat="64.2585083335" lon="10.3572722174">
		<tag k="name" v="Vikleira" />
		<tag k="natural" v="shoal" />
		<tag k="place" v="locality" />
		<tag k="ssr:stedsnr" v="577200" />
	</node>
	<node id="-844548" lat="64.1977666657" lon="10.2959694421">
		<tag k="name" v="Haganeset" />
		<tag k="natural" v="cape" />
		<tag k="ssr:stedsnr" v="268077" />
	</node>
	<node id="-844541" lat="64.2000583338" lon="10.0346861193">
		<tag k="name" v="Skaftleia" />
		<tag k="natural" v="strait" />
		<tag k="ssr:stedsnr" v="924983" />
	</node>
	<node id="-844540" lat="64.3027305592" lon="10.1169361092">
		<tag k="name" v="Slottknubbskoltan" />
		<tag k="natural" v="shoal" />
		<tag k="place" v="locality" />
		<tag k="ssr:stedsnr" v="803865" />
	</node>
	<node id="-844537" lat="64.2846194437" lon="10.3706777819">
		<tag k="fixme" v="consider seamark:type=rock or natural=shoal" />
		<tag k="name" v="Andersskjæret" />
		<tag k="place" v="islet" />
		<tag k="ssr:stedsnr" v="335203" />
	</node>
	<node id="-844536" lat="64.2531527819" lon="9.97652500209">
		<tag k="name" v="Gottafotskolten" />
		<tag k="natural" v="shoal" />
		<tag k="place" v="locality" />
		<tag k="ssr:stedsnr" v="439872" />
	</node>
	<node id="-844534" lat="64.2253833337" lon="10.12713612">
		<tag k="name" v="Kaurfallet" />
		<tag k="natural" v="shoal" />
		<tag k="place" v="locality" />
		<tag k="ssr:stedsnr" v="390222" />
	</node>
	<node id="-844531" lat="64.2347305554" lon="10.2720888955">
		<tag k="name" v="Rundholmen" />
		<tag k="place" v="islet" />
		<tag k="ssr:stedsnr" v="451176" />
	</node>
	<node id="-844530" lat="64.1790666661" lon="10.0898583345">
		<tag k="name" v="Storkyrpingen" />
		<tag k="place" v="islet" />
		<tag k="ssr:stedsnr" v="620228" />
	</node>
	<node id="-844524" lat="64.2618333355" lon="10.0171388799">
		<tag k="name" v="Breigrunnen" />
		<tag k="natural" v="shoal" />
		<tag k="place" v="locality" />
		<tag k="ssr:stedsnr" v="135832" />
	</node>
	<node id="-844523" lat="64.170277775" lon="10.2165305543">
		<tag k="name" v="Sørvikneset" />
		<tag k="natural" v="cape" />
		<tag k="ssr:stedsnr" v="269102" />
	</node>
	<node id="-844522" lat="64.1034583366" lon="10.1902944491">
		<tag k="name" v="Myllavika" />
		<tag k="natural" v="bay" />
		<tag k="ssr:stedsnr" v="274903" />
	</node>
	<node id="-844520" lat="64.1789694423" lon="10.3737722263">
		<tag k="name" v="Purkvika" />
		<tag k="natural" v="bay" />
		<tag k="ssr:stedsnr" v="577181" />
	</node>
	<node id="-844519" lat="64.209422222" lon="10.2074111136">
		<tag k="name" v="Rogrunnen" />
		<tag k="natural" v="shoal" />
		<tag k="place" v="locality" />
		<tag k="ssr:stedsnr" v="330213" />
	</node>
	<node id="-844518" lat="64.1475583293" lon="10.0187138785">
		<tag k="name" v="Vestmåsholmen" />
		<tag k="place" v="islet" />
		<tag k="ssr:stedsnr" v="317228" />
	</node>
	<node id="-844516" lat="64.2063388917" lon="10.1225916698">
		<tag k="name" v="Breitaren" />
		<tag k="natural" v="shoal" />
		<tag k="place" v="locality" />
		<tag k="ssr:stedsnr" v="572242" />
	</node>
	<node id="-844514" lat="64.1941527782" lon="10.3885222126">
		<tag k="name" v="Eldvika" />
		<tag k="natural" v="bay" />
		<tag k="ssr:stedsnr" v="577182" />
	</node>
	<node id="-844513" lat="64.176286108" lon="9.91758610914">
		<tag k="alt_name" v="Leiafallet, s" />
		<tag k="name" v="Søre Leiafallet" />
		<tag k="natural" v="shoal" />
		<tag k="place" v="locality" />
		<tag k="ssr:stedsnr" v="331819" />
	</node>
	<node id="-844512" lat="64.2216916695" lon="10.2877888896">
		<tag k="bay" v="fjord" />
		<tag k="name" v="Brandsfjorden" />
		<tag k="natural" v="bay" />
		<tag k="ssr:stedsnr" v="742006" />
	</node>
	<node id="-844511" lat="64.1908111068" lon="10.1915916736">
		<tag k="name" v="Naustholmen" />
		<tag k="place" v="islet" />
		<tag k="ssr:stedsnr" v="256224" />
	</node>
	<node id="-844510" lat="64.1924940724" lon="10.0709191478">
		<tag k="name" v="Annsteinsundet" />
		<tag k="natural" v="strait" />
		<tag k="ssr:stedsnr" v="377216" />
	</node>
	<node id="-844509" lat="64.1429944471" lon="10.2032111086">
		<tag k="name" v="Grautvika" />
		<tag k="natural" v="bay" />
		<tag k="ssr:stedsnr" v="395129" />
	</node>
	<node id="-844508" lat="64.1597805595" lon="9.92497778177">
		<tag k="name" v="Stabbknausen" />
		<tag k="natural" v="shoal" />
		<tag k="place" v="locality" />
		<tag k="ssr:stedsnr" v="317236" />
	</node>
	<node id="-844500" lat="64.1648472256" lon="10.0273694433">
		<tag k="name" v="Eistaren" />
		<tag k="natural" v="shoal" />
		<tag k="place" v="locality" />
		<tag k="ssr:stedsnr" v="331818" />
	</node>
	<node id="-844498" lat="64.234394446" lon="10.2741722231">
		<tag k="name" v="Kvassholmsundet" />
		<tag k="natural" v="strait" />
		<tag k="ssr:stedsnr" v="335190" />
	</node>
	<node id="-844494" lat="64.2530750005" lon="10.1831277757">
		<tag k="fixme" v="consider seamark:type=rock or natural=shoal" />
		<tag k="name" v="Ytre Ertnskjæret" />
		<tag k="place" v="islet" />
		<tag k="ssr:stedsnr" v="439867" />
	</node>
	<node id="-844491" lat="64.2338888868" lon="10.2170777856">
		<tag k="name" v="Vekmobåan" />
		<tag k="natural" v="shoal" />
		<tag k="place" v="locality" />
		<tag k="ssr:stedsnr" v="390224" />
	</node>
	<node id="-844485" lat="64.2013083292" lon="10.1619722131">
		<tag k="name" v="Litltaren" />
		<tag k="natural" v="shoal" />
		<tag k="place" v="locality" />
		<tag k="ssr:stedsnr" v="512218" />
	</node>
	<node id="-844475" lat="64.2235972248" lon="10.2458388864">
		<tag k="name" v="Valan" />
		<tag k="natural" v="bay" />
		<tag k="ssr:stedsnr" v="820071" />
	</node>
	<node id="-844472" lat="64.2541500031" lon="10.1542833286">
		<tag k="name" v="Langtaran" />
		<tag k="natural" v="shoal" />
		<tag k="place" v="locality" />
		<tag k="ssr:stedsnr" v="803852" />
	</node>
	<node id="-844468" lat="64.1780916636" lon="9.98196945164">
		<tag k="name" v="Treungen" />
		<tag k="natural" v="shoal" />
		<tag k="place" v="locality" />
		<tag k="ssr:stedsnr" v="377203" />
	</node>
	<node id="-844467" lat="64.2696805592" lon="10.2002305513">
		<tag k="name" v="Flatøyfallet" />
		<tag k="natural" v="shoal" />
		<tag k="place" v="locality" />
		<tag k="ssr:stedsnr" v="803845" />
	</node>
	<node id="-844464" lat="64.1403361078" lon="10.1292694539">
		<tag k="name" v="Veidmannsskjæra" />
		<tag k="place" v="island" />
		<tag k="ssr:stedsnr" v="141467" />
	</node>
	<node id="-844459" lat="64.1880666633" lon="10.1990222292">
		<tag k="name" v="Utrosjøen" />
		<tag k="natural" v="bay" />
		<tag k="ssr:stedsnr" v="141466" />
	</node>
	<node id="-844455" lat="64.1724888871" lon="9.90947776842">
		<tag k="name" v="Storfallet" />
		<tag k="natural" v="shoal" />
		<tag k="place" v="locality" />
		<tag k="ssr:stedsnr" v="377208" />
	</node>
	<node id="-844454" lat="64.1473333324" lon="10.2170472158">
		<tag k="name" v="Jektvika" />
		<tag k="natural" v="bay" />
		<tag k="ssr:stedsnr" v="940669" />
	</node>
	<node id="-844452" lat="64.1571000041" lon="10.0711472211">
		<tag k="name" v="Nørdstholmen" />
		<tag k="place" v="islet" />
		<tag k="ssr:stedsnr" v="681240" />
	</node>
	<node id="-844450" lat="64.2110583333" lon="10.302030563">
		<tag k="name" v="Spælodden" />
		<tag k="natural" v="cape" />
		<tag k="ssr:stedsnr" v="135008" />
	</node>
	<node id="-844449" lat="64.2185583349" lon="10.2464249928">
		<tag k="name" v="Sandskaget" />
		<tag k="natural" v="cape" />
		<tag k="ssr:stedsnr" v="820069" />
	</node>
	<node id="-844447" lat="64.1753916665" lon="9.95755555024">
		<tag k="name" v="Uersrevelskolten" />
		<tag k="natural" v="shoal" />
		<tag k="place" v="locality" />
		<tag k="ssr:stedsnr" v="377205" />
	</node>
	<node id="-844439" lat="64.2020694423" lon="10.1963805602">
		<tag k="fixme" v="consider seamark:type=rock or natural=shoal" />
		<tag k="name" v="Langskjæret" />
		<tag k="place" v="islet" />
		<tag k="ssr:stedsnr" v="377980" />
	</node>
	<node id="-844428" lat="64.2085499978" lon="10.0826749969">
		<tag k="name" v="Svinholmen" />
		<tag k="place" v="islet" />
		<tag k="ssr:stedsnr" v="924978" />
	</node>
	<node id="-844424" lat="64.1580722217" lon="10.041247223">
		<tag k="fixme" v="consider seamark:type=rock or natural=shoal" />
		<tag k="name" v="Moddskjæret" />
		<tag k="place" v="islet" />
		<tag k="ssr:stedsnr" v="151526" />
	</node>
	<node id="-844421" lat="64.1802277771" lon="10.3744916702">
		<tag k="name" v="Straumsvågen" />
		<tag k="natural" v="bay" />
		<tag k="ssr:stedsnr" v="511062" />
	</node>
	<node id="-844419" lat="64.1997916706" lon="10.3042555613">
		<tag k="name" v="Singsneset" />
		<tag k="natural" v="cape" />
		<tag k="ssr:stedsnr" v="274021" />
	</node>
	<node id="-844416" lat="64.2757749995" lon="10.345708341">
		<tag k="fixme" v="consider seamark:type=rock or natural=shoal" />
		<tag k="name" v="Ytter Lekersvikskjæret" />
		<tag k="place" v="islet" />
		<tag k="ssr:stedsnr" v="517200" />
	</node>
	<node id="-844404" lat="64.1269611108" lon="10.1192444383">
		<tag k="name" v="Kiranssundet" />
		<tag k="natural" v="strait" />
		<tag k="ssr:stedsnr" v="924167" />
	</node>
	<node id="-844402" lat="64.2053583344" lon="10.073505547">
		<tag k="name" v="Kuløya" />
		<tag k="place" v="islet" />
		<tag k="ssr:stedsnr" v="377982" />
	</node>
	<node id="-844394" lat="64.1102638851" lon="10.1406833426">
		<tag k="name" v="Indre Geisneset" />
		<tag k="natural" v="cape" />
		<tag k="ssr:stedsnr" v="212416" />
	</node>
	<node id="-844392" lat="64.1999527804" lon="10.0774777736">
		<tag k="name" v="Langholmen" />
		<tag k="place" v="islet" />
		<tag k="ssr:stedsnr" v="134993" />
	</node>
	<node id="-844389" lat="64.2016666631" lon="10.0625083356">
		<tag k="name" v="Torkelholmen" />
		<tag k="place" v="islet" />
		<tag k="ssr:stedsnr" v="134992" />
	</node>
	<node id="-844388" lat="64.1134305543" lon="10.2563722172">
		<tag k="name" v="Jektstøa" />
		<tag k="natural" v="bay" />
		<tag k="ssr:stedsnr" v="456914" />
	</node>
	<node id="-844386" lat="64.2105194438" lon="10.0686388893">
		<tag k="name" v="Koløyfallet" />
		<tag k="natural" v="shoal" />
		<tag k="place" v="locality" />
		<tag k="ssr:stedsnr" v="815126" />
	</node>
	<node id="-844381" lat="64.1053166687" lon="10.2152305634">
		<tag k="name" v="Joskjørleira" />
		<tag k="natural" v="bay" />
		<tag k="ssr:stedsnr" v="333434" />
	</node>
	<node id="-844379" lat="64.287624996" lon="10.3603694376">
		<tag k="name" v="Kvalen" />
		<tag k="natural" v="shoal" />
		<tag k="place" v="locality" />
		<tag k="ssr:stedsnr" v="815863" />
	</node>
	<node id="-844376" lat="64.2831805598" lon="10.3182361168">
		<tag k="name" v="Dragsholmgrunnen" />
		<tag k="natural" v="shoal" />
		<tag k="place" v="locality" />
		<tag k="ssr:stedsnr" v="209953" />
	</node>
	<node id="-844374" lat="64.1977666682" lon="10.2997583412">
		<tag k="name" v="Blikket" />
		<tag k="natural" v="bay" />
		<tag k="ssr:stedsnr" v="274020" />
	</node>
	<node id="-844369" lat="64.1905361096" lon="10.0140333332">
		<tag k="name" v="Snedorga" />
		<tag k="place" v="islet" />
		<tag k="ssr:stedsnr" v="681226" />
	</node>
	<node id="-844368" lat="64.145341667" lon="10.1732777857">
		<tag k="name" v="Strandaneset" />
		<tag k="natural" v="cape" />
		<tag k="ssr:stedsnr" v="820902" />
	</node>
	<node id="-844357" lat="64.2340222189" lon="10.1976583251">
		<tag k="name" v="Litlfallet" />
		<tag k="natural" v="shoal" />
		<tag k="place" v="locality" />
		<tag k="ssr:stedsnr" v="87209" />
	</node>
	<node id="-844356" lat="64.2109833377" lon="10.1391805584">
		<tag k="name" v="Mulrevet" />
		<tag k="natural" v="shoal" />
		<tag k="place" v="locality" />
		<tag k="ssr:stedsnr" v="87213" />
	</node>
	<node id="-844350" lat="64.1859722239" lon="10.1782722289">
		<tag k="fixme" v="consider seamark:type=rock or natural=shoal" />
		<tag k="name" v="Kåpa" />
		<tag k="place" v="islet" />
		<tag k="ssr:stedsnr" v="681224" />
	</node>
	<node id="-844348" lat="64.3099888926" lon="10.1335027716">
		<tag k="name" v="Råsskolten" />
		<tag k="natural" v="shoal" />
		<tag k="place" v="locality" />
		<tag k="ssr:stedsnr" v="196860" />
	</node>
	<node id="-844344" lat="64.2668416703" lon="10.2248638877">
		<tag k="bay" v="fjord" />
		<tag k="name" v="Flatøyfjorden" />
		<tag k="natural" v="bay" />
		<tag k="ssr:stedsnr" v="876056" />
	</node>
	<node id="-844336" lat="64.2359500044" lon="10.2711138902">
		<tag k="alt_name" v="Kvassholman" />
		<tag k="name" v="Kvassholmen" />
		<tag k="place" v="islet" />
		<tag k="ssr:stedsnr" v="499029" />
	</node>
	<node id="-844335" lat="64.1445084743" lon="10.0641963207">
		<tag k="name" v="Måøya" />
		<tag k="place" v="island" />
		<tag k="ssr:stedsnr" v="256199" />
	</node>
	<node id="-844328" lat="64.2763750038" lon="10.1138888969">
		<tag k="name" v="Børsbakkfallet" />
		<tag k="natural" v="shoal" />
		<tag k="place" v="locality" />
		<tag k="ssr:stedsnr" v="499853" />
	</node>
	<node id="-844327" lat="64.1898277737" lon="10.2875138794">
		<tag k="name" v="Ystengkråa" />
		<tag k="natural" v="bay" />
		<tag k="ssr:stedsnr" v="456028" />
	</node>
	<node id="-844325" lat="64.1640527764" lon="9.99050277217">
		<tag k="name" v="Skjåholman" />
		<tag k="place" v="islet" />
		<tag k="ssr:stedsnr" v="438240" />
	</node>
	<node id="-844321" lat="64.1328694424" lon="10.0588333258">
		<tag k="name" v="Kvernøyfluan" />
		<tag k="natural" v="shoal" />
		<tag k="place" v="locality" />
		<tag k="ssr:stedsnr" v="940651" />
	</node>
	<node id="-844317" lat="64.2545499966" lon="10.2189333269">
		<tag k="alt_name" v="Semholmen" />
		<tag k="name" v="Sønnholmen" />
		<tag k="place" v="islet" />
		<tag k="ssr:stedsnr" v="196583" />
	</node>
	<node id="-844315" lat="64.2103333341" lon="10.2503666674">
		<tag k="name" v="Kilsvikskolten" />
		<tag k="natural" v="shoal" />
		<tag k="place" v="locality" />
		<tag k="ssr:stedsnr" v="512182" />
	</node>
	<node id="-844310" lat="64.1433583309" lon="10.0847388918">
		<tag k="fixme" v="consider seamark:type=rock or natural=shoal" />
		<tag k="name" v="Seglskjæret" />
		<tag k="place" v="islet" />
		<tag k="ssr:stedsnr" v="377183" />
	</node>
	<node id="-844305" lat="64.1456250001" lon="9.99858333006">
		<tag k="fixme" v="consider seamark:type=rock or natural=shoal" />
		<tag k="name" v="Kobbskjæra" />
		<tag k="place" v="islet" />
		<tag k="ssr:stedsnr" v="317197" />
	</node>
	<node id="-844302" lat="64.1944638865" lon="10.0197361085">
		<tag k="name" v="Langmerra" />
		<tag k="natural" v="shoal" />
		<tag k="place" v="locality" />
		<tag k="ssr:stedsnr" v="620987" />
	</node>
	<node id="-844301" lat="64.2241888918" lon="10.10472222">
		<tag k="name" v="Langtaren" />
		<tag k="place" v="islet" />
		<tag k="ssr:stedsnr" v="451138" />
	</node>
	<node id="-844295" lat="64.2015333293" lon="10.0444638809">
		<tag k="fixme" v="consider seamark:type=rock or natural=shoal" />
		<tag k="name" v="Skaftfallet" />
		<tag k="place" v="islet" />
		<tag k="ssr:stedsnr" v="86120" />
	</node>
	<node id="-844294" lat="64.280288892" lon="10.0268444469">
		<tag k="name" v="Svartkinn" />
		<tag k="natural" v="shoal" />
		<tag k="place" v="locality" />
		<tag k="ssr:stedsnr" v="864883" />
	</node>
	<node id="-844293" lat="64.1610999993" lon="10.2116444492">
		<tag k="name" v="Årneset" />
		<tag k="natural" v="cape" />
		<tag k="ssr:stedsnr" v="742225" />
	</node>
	<node id="-844291" lat="64.2784666667" lon="9.96203056206">
		<tag k="name" v="Nordtaren" />
		<tag k="natural" v="shoal" />
		<tag k="place" v="locality" />
		<tag k="ssr:stedsnr" v="499844" />
	</node>
	<node id="-844279" lat="64.1978888925" lon="10.0922666715">
		<tag k="name" v="Værøya" />
		<tag k="place" v="island" />
		<tag k="ssr:stedsnr" v="256988" />
	</node>
	<node id="-844275" lat="64.20705833" lon="10.0547861144">
		<tag k="name" v="Torkelfalla" />
		<tag k="natural" v="shoal" />
		<tag k="place" v="locality" />
		<tag k="ssr:stedsnr" v="571120" />
	</node>
	<node id="-844273" lat="64.2061277813" lon="10.2127861119">
		<tag k="name" v="Roneset" />
		<tag k="natural" v="cape" />
		<tag k="ssr:stedsnr" v="256989" />
	</node>
	<node id="-844272" lat="64.1088388896" lon="10.2340222133">
		<tag k="name" v="Joskjørholmen" />
		<tag k="place" v="islet" />
		<tag k="ssr:stedsnr" v="212397" />
	</node>
	<node id="-844271" lat="64.1065361101" lon="10.160330557">
		<tag k="name" v="Røtterneset" />
		<tag k="natural" v="cape" />
		<tag k="ssr:stedsnr" v="141175" />
	</node>
	<node id="-844263" lat="64.1716777754" lon="10.1799027773">
		<tag k="name" v="Nordvika" />
		<tag k="natural" v="bay" />
		<tag k="ssr:stedsnr" v="456891" />
	</node>
	<node id="-844260" lat="64.1539277744" lon="9.93637777882">
		<tag k="name" v="Stabben" />
		<tag k="natural" v="shoal" />
		<tag k="place" v="locality" />
		<tag k="ssr:stedsnr" v="14195" />
	</node>
	<node id="-844258" lat="64.2194138849" lon="10.2503361076">
		<tag k="name" v="Tjønnvika" />
		<tag k="natural" v="bay" />
		<tag k="ssr:stedsnr" v="395061" />
	</node>
	<node id="-844256" lat="64.2829305551" lon="10.1688916655">
		<tag k="fixme" v="consider seamark:type=rock or natural=shoal" />
		<tag k="name" v="Fugltangskjæra" />
		<tag k="place" v="islet" />
		<tag k="ssr:stedsnr" v="499849" />
	</node>
	<node id="-844255" lat="64.236774996" lon="9.90886666108">
		<tag k="name" v="Kvereveltaren" />
		<tag k="natural" v="shoal" />
		<tag k="place" v="locality" />
		<tag k="ssr:stedsnr" v="317992" />
	</node>
	<node id="-844254" lat="64.2042472193" lon="10.2993777757">
		<tag k="name" v="Sjåneset" />
		<tag k="natural" v="cape" />
		<tag k="ssr:stedsnr" v="941052" />
	</node>
	<node id="-844253" lat="64.2389694418" lon="10.2824861197">
		<tag k="name" v="Storvikhammaren" />
		<tag k="natural" v="cape" />
		<tag k="ssr:stedsnr" v="213235" />
	</node>
	<node id="-844245" lat="64.1483527803" lon="10.1555111145">
		<tag k="name" v="Purkholmen" />
		<tag k="place" v="islet" />
		<tag k="ssr:stedsnr" v="456894" />
	</node>
	<node id="-844242" lat="64.2714750015" lon="10.3922833375">
		<tag k="name" v="Skardshammaren" />
		<tag k="natural" v="cape" />
		<tag k="ssr:stedsnr" v="147011" />
	</node>
	<node id="-844241" lat="64.1371583351" lon="10.0429472163">
		<tag k="name" v="Kvernøya" />
		<tag k="place" v="island" />
		<tag k="ssr:stedsnr" v="317190" />
	</node>
	<node id="-844239" lat="64.1574527813" lon="9.99752777874">
		<tag k="name" v="Grunnflua" />
		<tag k="natural" v="shoal" />
		<tag k="place" v="locality" />
		<tag k="ssr:stedsnr" v="880531" />
	</node>
	<node id="-844236" lat="64.1505666655" lon="10.0438833354">
		<tag k="name" v="Sandholmen" />
		<tag k="place" v="islet" />
		<tag k="ssr:stedsnr" v="74238" />
	</node>
	<node id="-844235" lat="64.1868722235" lon="10.0348749968">
		<tag k="name" v="Straumen" />
		<tag k="natural" v="strait" />
		<tag k="ssr:stedsnr" v="26343" />
	</node>
	<node id="-844234" lat="64.1496888906" lon="10.1466722141">
		<tag k="name" v="Skaga" />
		<tag k="natural" v="cape" />
		<tag k="ssr:stedsnr" v="456898" />
	</node>
	<node id="-844232" lat="64.2032666668" lon="10.3068305514">
		<tag k="name" v="Sumstadvika" />
		<tag k="natural" v="bay" />
		<tag k="ssr:stedsnr" v="196025" />
	</node>
	<node id="-844228" lat="64.191722221" lon="10.1831472286">
		<tag k="fixme" v="consider seamark:type=rock or natural=shoal" />
		<tag k="name" v="Utroskjæra" />
		<tag k="place" v="islet" />
		<tag k="ssr:stedsnr" v="681221" />
	</node>
	<node id="-844225" lat="64.1628194448" lon="10.2148111095">
		<tag k="fixme" v="consider seamark:type=rock or natural=shoal" />
		<tag k="name" v="Nylandsskjæret" />
		<tag k="place" v="islet" />
		<tag k="ssr:stedsnr" v="577100" />
	</node>
	<node id="-844223" lat="64.2636138867" lon="10.1793055548">
		<tag k="name" v="Olataren" />
		<tag k="natural" v="shoal" />
		<tag k="place" v="locality" />
		<tag k="ssr:stedsnr" v="196837" />
	</node>
	<node id="-844219" lat="64.287102778" lon="10.129897217">
		<tag k="name" v="Sjørevlen" />
		<tag k="natural" v="shoal" />
		<tag k="place" v="locality" />
		<tag k="ssr:stedsnr" v="499836" />
	</node>
	<node id="-844216" lat="64.206158334" lon="10.2702305579">
		<tag k="name" v="Rørskoneset" />
		<tag k="natural" v="cape" />
		<tag k="ssr:stedsnr" v="395042" />
	</node>
	<node id="-844211" lat="64.1776055563" lon="10.1730722277">
		<tag k="name" v="Geitskjærodden" />
		<tag k="natural" v="cape" />
		<tag k="ssr:stedsnr" v="820895" />
	</node>
	<node id="-844210" lat="64.2089777764" lon="10.2969000064">
		<tag k="name" v="Sørausneset" />
		<tag k="natural" v="cape" />
		<tag k="ssr:stedsnr" v="395037" />
	</node>
	<node id="-844209" lat="64.1505138923" lon="10.1616194443">
		<tag k="name" v="Åbolsneset" />
		<tag k="natural" v="cape" />
		<tag k="ssr:stedsnr" v="820899" />
	</node>
	<node id="-844203" lat="64.1818750006" lon="10.029316664">
		<tag k="name" v="Allmenningen" />
		<tag k="place" v="island" />
		<tag k="ssr:stedsnr" v="681216" />
	</node>
	<node id="-844197" lat="64.1785722209" lon="10.2150277694">
		<tag k="name" v="Ringskjærvika" />
		<tag k="natural" v="bay" />
		<tag k="ssr:stedsnr" v="577107" />
	</node>
	<node id="-844196" lat="64.1574638877" lon="10.175061106">
		<tag k="name" v="Bakkaodden" />
		<tag k="natural" v="cape" />
		<tag k="ssr:stedsnr" v="395901" />
	</node>
	<node id="-844193" lat="64.1771944402" lon="10.0072500075">
		<tag k="name" v="Kvitingsholmen" />
		<tag k="place" v="islet" />
		<tag k="ssr:stedsnr" v="26337" />
	</node>
	<node id="-844191" lat="64.1878999958" lon="10.0227888948">
		<tag k="name" v="Ytterøya" />
		<tag k="place" v="island" />
		<tag k="ssr:stedsnr" v="74231" />
	</node>
	<node id="-844186" lat="64.1096305533" lon="10.229297224">
		<tag k="name" v="Buvika" />
		<tag k="natural" v="bay" />
		<tag k="ssr:stedsnr" v="335950" />
	</node>
	<node id="-844185" lat="64.1925583207" lon="10.064209921">
		<tag k="name" v="Annsteinen" />
		<tag k="place" v="island" />
		<tag k="ssr:stedsnr" v="802996" />
	</node>
	<node id="-844184" lat="64.219825" lon="10.2674305588">
		<tag k="name" v="Stokkvika" />
		<tag k="natural" v="bay" />
		<tag k="ssr:stedsnr" v="395044" />
	</node>
	<node id="-844178" lat="64.2233444409" lon="10.2381305482">
		<tag k="alt_name" v="Skaget" />
		<tag k="name" v="Storskaget" />
		<tag k="natural" v="cape" />
		<tag k="ssr:stedsnr" v="559005" />
	</node>
	<node id="-844177" lat="64.1640194407" lon="10.0058472143">
		<tag k="fixme" v="consider seamark:type=rock or natural=shoal" />
		<tag k="name" v="Valhovdskjæret" />
		<tag k="place" v="islet" />
		<tag k="ssr:stedsnr" v="273536" />
	</node>
	<node id="-844175" lat="64.1819999991" lon="10.3644277699">
		<tag k="name" v="Minusodden" />
		<tag k="natural" v="cape" />
		<tag k="ssr:stedsnr" v="256441" />
	</node>
	<node id="-844174" lat="64.1744555575" lon="10.1090388973">
		<tag k="name" v="Kyrpingrevet" />
		<tag k="natural" v="shoal" />
		<tag k="place" v="locality" />
		<tag k="ssr:stedsnr" v="86105" />
	</node>
	<node id="-844169" lat="64.1925777767" lon="10.2981805524">
		<tag k="name" v="Djupvika" />
		<tag k="natural" v="bay" />
		<tag k="ssr:stedsnr" v="395025" />
	</node>
	<node id="-844167" lat="64.1785555538" lon="10.2026638844">
		<tag k="name" v="Litlmeholmen" />
		<tag k="place" v="islet" />
		<tag k="ssr:stedsnr" v="335087" />
	</node>
	<node id="-844166" lat="64.1744333308" lon="9.95608334075">
		<tag k="name" v="Søre Uersrevelskolten" />
		<tag k="natural" v="shoal" />
		<tag k="place" v="locality" />
		<tag k="ssr:stedsnr" v="820429" />
	</node>
	<node id="-844164" lat="64.1034527738" lon="10.2446444451">
		<tag k="name" v="Lensmannsholet" />
		<tag k="natural" v="bay" />
		<tag k="ssr:stedsnr" v="577934" />
	</node>
	<node id="-844163" lat="64.1620249966" lon="10.1314833334">
		<tag k="alt_name" v="Marflessa" />
		<tag k="name" v="Marflesa" />
		<tag k="place" v="islet" />
		<tag k="ssr:stedsnr" v="395882" />
	</node>
	<node id="-844157" lat="64.2664055594" lon="10.3512250091">
		<tag k="name" v="Vikaunbukta" />
		<tag k="natural" v="bay" />
		<tag k="ssr:stedsnr" v="213220" />
	</node>
	<node id="-844145" lat="64.2057055565" lon="10.342294436">
		<tag k="name" v="Kvalvika" />
		<tag k="natural" v="bay" />
		<tag k="ssr:stedsnr" v="213221" />
	</node>
	<node id="-844144" lat="64.2260888929" lon="10.0579861097">
		<tag k="name" v="Fåklakken" />
		<tag k="natural" v="shoal" />
		<tag k="ssr:stedsnr" v="271847" />
	</node>
	<node id="-844138" lat="64.1561583336" lon="10.029966673">
		<tag k="fixme" v="consider seamark:type=rock or natural=shoal" />
		<tag k="name" v="Rotskjæret" />
		<tag k="place" v="islet" />
		<tag k="ssr:stedsnr" v="135219" />
	</node>
	<node id="-844136" lat="64.1248083351" lon="10.1193222298">
		<tag k="alt_name" v="Litlkiransholmen" />
		<tag k="name" v="Litle Kiransholmen" />
		<tag k="place" v="islet" />
		<tag k="ssr:stedsnr" v="151444" />
	</node>
	<node id="-844130" lat="64.1302555546" lon="10.1250500059">
		<tag k="fixme" v="consider seamark:type=rock or natural=shoal" />
		<tag k="name" v="Nordsjøskjæret" />
		<tag k="place" v="islet" />
		<tag k="ssr:stedsnr" v="942261" />
	</node>
	<node id="-844121" lat="64.1263222252" lon="10.0294777808">
		<tag k="fixme" v="consider seamark:type=rock or natural=shoal" />
		<tag k="name" v="Skurven" />
		<tag k="place" v="islet" />
		<tag k="ssr:stedsnr" v="742200" />
	</node>
	<node id="-844118" lat="64.188088892" lon="9.94117499926">
		<tag k="name" v="Venttaren" />
		<tag k="natural" v="shoal" />
		<tag k="place" v="locality" />
		<tag k="ssr:stedsnr" v="438218" />
	</node>
	<node id="-844112" lat="64.2501888861" lon="10.2855888919">
		<tag k="name" v="Bonvika" />
		<tag k="natural" v="bay" />
		<tag k="ssr:stedsnr" v="377415" />
	</node>
	<node id="-844111" lat="64.2647916665" lon="10.3496472192">
		<tag k="name" v="Bryggneset" />
		<tag k="natural" v="cape" />
		<tag k="ssr:stedsnr" v="269010" />
	</node>
	<node id="-844105" lat="64.2178555521" lon="9.89297499701">
		<tag k="name" v="Hammarrevtaren" />
		<tag k="natural" v="shoal" />
		<tag k="place" v="locality" />
		<tag k="ssr:stedsnr" v="438999" />
	</node>
	<node id="-844101" lat="64.1128333365" lon="10.2428722303">
		<tag k="name" v="Finnvika" />
		<tag k="natural" v="bay" />
		<tag k="ssr:stedsnr" v="577923" />
	</node>
	<node id="-844100" lat="64.2068944431" lon="10.0931361101">
		<tag k="name" v="Skoitaren" />
		<tag k="natural" v="shoal" />
		<tag k="place" v="locality" />
		<tag k="ssr:stedsnr" v="633253" />
	</node>
	<node id="-844097" lat="64.2619611079" lon="10.1139888837">
		<tag k="name" v="Djupfallet" />
		<tag k="natural" v="shoal" />
		<tag k="place" v="locality" />
		<tag k="ssr:stedsnr" v="560856" />
	</node>
	<node id="-844096" lat="64.1692000021" lon="9.95460555084">
		<tag k="name" v="Røysbakfallet" />
		<tag k="natural" v="shoal" />
		<tag k="place" v="locality" />
		<tag k="ssr:stedsnr" v="438212" />
	</node>
	<node id="-844089" lat="64.2729583344" lon="10.3419499906">
		<tag k="name" v="Rugholmen" />
		<tag k="place" v="islet" />
		<tag k="ssr:stedsnr" v="499544" />
	</node>
	<node id="-844082" lat="64.2327500035" lon="9.83731389127">
		<tag k="name" v="Skambrekktaren" />
		<tag k="natural" v="shoal" />
		<tag k="place" v="locality" />
		<tag k="ssr:stedsnr" v="317965" />
	</node>
	<node id="-844073" lat="64.1456527776" lon="10.0961944487">
		<tag k="fixme" v="consider seamark:type=rock or natural=shoal" />
		<tag k="name" v="Krosskjæra" />
		<tag k="place" v="islet" />
		<tag k="ssr:stedsnr" v="681199" />
	</node>
</osm>
