<?xml version="1.0" encoding="UTF-8"?>
<osm generator="osmapis" version="0.6">
	<node id="-850208" lat="64.2530472234" lon="10.3599805568">
		<tag k="bridge" v="yes" />
		<tag k="layer" v="1" />
		<tag k="name" v="Øvre Vikelvbrua" />
		<tag k="ssr:stedsnr" v="411687" />
	</node>
	<node id="-850048" lat="64.2416333334" lon="10.3241166749">
		<tag k="name" v="Storsvingen" />
		<tag k="place" v="locality" />
		<tag k="ssr:stedsnr" v="395216" />
	</node>
	<node id="-850026" lat="64.1862638897" lon="10.3003222284">
		<tag k="bridge" v="yes" />
		<tag k="layer" v="1" />
		<tag k="name" v="Hellefjordbrua" />
		<tag k="ssr:stedsnr" v="713826" />
	</node>
	<node id="-850166" lat="64.1255027802" lon="10.4943861153">
		<tag k="man_made" v="cairn" />
		<tag k="name" v="Tronsvarden" />
		<tag k="place" v="locality" />
		<tag k="ssr:stedsnr" v="335295" />
	</node>
	<node id="-850933" lat="64.1317944489" lon="10.2828138875">
		<tag k="highway" v="path" />
		<tag k="name" v="Raudsandvegen" />
		<tag k="ssr:stedsnr" v="517082" />
	</node>
	<node id="-849394" lat="64.1784888865" lon="10.2081388963">
		<tag k="landuse" v="harbour" />
		<tag k="name" v="Roan hamn" />
		<tag k="seamark:type" v="harbour" />
		<tag k="ssr:stedsnr" v="335084" />
	</node>
	<node id="-850691" lat="64.2549277815" lon="10.3553138877">
		<tag k="bridge" v="yes" />
		<tag k="layer" v="1" />
		<tag k="name" v="Vikelvbrua" />
		<tag k="ssr:stedsnr" v="653739" />
	</node>
	<node id="-850064" lat="64.1478583378" lon="10.229136107">
		<tag k="bridge" v="yes" />
		<tag k="layer" v="1" />
		<tag k="name" v="Berfjordbrua" />
		<tag k="ssr:stedsnr" v="652789" />
	</node>
	<node id="-850063" lat="64.1660194435" lon="10.3349527734">
		<tag k="highway" v="path" />
		<tag k="name" v="Brekka" />
		<tag k="ssr:stedsnr" v="456175" />
	</node>
	<node id="-849805" lat="64.2067555574" lon="10.3313083322">
		<tag k="landuse" v="harbour" />
		<tag k="name" v="Eshamn" />
		<tag k="seamark:type" v="harbour" />
		<tag k="ssr:stedsnr" v="92198" />
	</node>
	<node id="-849644" lat="64.148363891" lon="10.157641657">
		<tag k="man_made" v="quay" />
		<tag k="name" v="Kråkøya havn" />
		<tag k="place" v="locality" />
		<tag k="ssr:stedsnr" v="179323" />
	</node>
	<node id="-849994" lat="64.2027416656" lon="10.3067277819">
		<tag k="leisure" v="marina" />
		<tag k="name" v="Sumstad småbåthavn" />
		<tag k="ssr:stedsnr" v="361356" />
	</node>
	<node id="-850954" lat="64.2477138871" lon="10.3210666626">
		<tag k="landuse" v="harbour" />
		<tag k="name" v="Bessaker havn" />
		<tag k="seamark:type" v="harbour" />
		<tag k="ssr:stedsnr" v="847337" />
	</node>
	<node id="-849865" lat="64.1362666671" lon="10.1489805526">
		<tag k="bridge" v="yes" />
		<tag k="layer" v="1" />
		<tag k="name" v="Hagadalsbrua" />
		<tag k="ssr:stedsnr" v="410802" />
	</node>
	<node id="-850060" lat="64.1559444428" lon="10.1827777732">
		<tag k="leisure" v="marina" />
		<tag k="name" v="Nesvalen småbåthavn" />
		<tag k="ssr:stedsnr" v="361368" />
	</node>
	<node id="-850085" lat="64.1244527812" lon="10.1233333336">
		<tag k="leisure" v="marina" />
		<tag k="name" v="Kiran småbåthavn" />
		<tag k="ssr:stedsnr" v="361362" />
	</node>
	<node id="-850723" lat="64.2560388848" lon="10.3456222201">
		<tag k="man_made" v="quay" />
		<tag k="name" v="Anlegget" />
		<tag k="place" v="locality" />
		<tag k="ssr:stedsnr" v="699212" />
	</node>
	<node id="-849985" lat="64.1788500009" lon="10.3560027841">
		<tag k="man_made" v="quay" />
		<tag k="name" v="Einarsdalen havn" />
		<tag k="place" v="locality" />
		<tag k="ssr:stedsnr" v="361354" />
	</node>
</osm>
