<?xml version="1.0" encoding="UTF-8"?>
<osm generator="osmapis" version="0.6">
	<node id="-851967" lat="64.1481472228" lon="10.5169722216">
		<tag k="name" v="Jamtlia" />
		<tag k="natural" v="slope" />
		<tag k="place" v="locality" />
		<tag k="ssr:stedsnr" v="274234" />
	</node>
	<node id="-851965" lat="64.1728750007" lon="10.5827250056">
		<tag k="alt_name" v="Finnbekkdalskollen" />
		<tag k="name" v="Finnbekkdalshaugen" />
		<tag k="natural" v="hill" />
		<tag k="place" v="locality" />
		<tag k="ssr:stedsnr" v="439443" />
	</node>
	<node id="-851963" lat="64.1589722185" lon="10.2619138845">
		<tag k="name" v="Stakkenget" />
		<tag k="natural" v="slope" />
		<tag k="place" v="locality" />
		<tag k="ssr:stedsnr" v="942105" />
	</node>
	<node id="-851962" lat="64.0785638898" lon="10.2253166573">
		<tag k="fixme" v="consider natural=peak for the most distinct mountains in the district" />
		<tag k="name" v="Finnkoiliheia" />
		<tag k="natural" v="hill" />
		<tag k="place" v="locality" />
		<tag k="ssr:stedsnr" v="802346" />
	</node>
	<node id="-851958" lat="64.1139972248" lon="10.668244439">
		<tag k="fixme" v="consider natural=peak for the most distinct mountains in the district" />
		<tag k="name" v="Storheia" />
		<tag k="natural" v="hill" />
		<tag k="place" v="locality" />
		<tag k="ssr:stedsnr" v="681361" />
	</node>
	<node id="-851957" lat="64.1628916664" lon="10.4580666576">
		<tag k="name" v="Tommelhaugen" />
		<tag k="natural" v="hill" />
		<tag k="place" v="locality" />
		<tag k="ssr:stedsnr" v="14352" />
	</node>
	<node id="-851956" lat="64.1312777796" lon="10.4521416591">
		<tag k="name" v="Sørsletta" />
		<tag k="place" v="locality" />
		<tag k="ssr:stedsnr" v="274232" />
	</node>
	<node id="-851955" lat="64.1316499957" lon="10.5618916619">
		<tag k="fixme" v="consider natural=peak for the most distinct mountains in the district" />
		<tag k="name" v="Heia" />
		<tag k="natural" v="hill" />
		<tag k="place" v="locality" />
		<tag k="ssr:stedsnr" v="317343" />
	</node>
	<node id="-851951" lat="64.1786333332" lon="10.5761638833">
		<tag k="name" v="Hestlia" />
		<tag k="natural" v="slope" />
		<tag k="place" v="locality" />
		<tag k="ssr:stedsnr" v="577358" />
	</node>
	<node id="-851950" lat="64.1812361079" lon="10.3458527858">
		<tag k="name" v="Høghaugen" />
		<tag k="natural" v="hill" />
		<tag k="place" v="locality" />
		<tag k="ssr:stedsnr" v="637202" />
	</node>
	<node id="-851949" lat="64.1329388878" lon="10.369066671">
		<tag k="name" v="Inner Elgholet" />
		<tag k="natural" v="slope" />
		<tag k="place" v="locality" />
		<tag k="ssr:stedsnr" v="274230" />
	</node>
	<node id="-851946" lat="64.1875305526" lon="10.518208339">
		<tag k="name" v="Mølnlia" />
		<tag k="natural" v="slope" />
		<tag k="place" v="locality" />
		<tag k="ssr:stedsnr" v="92361" />
	</node>
	<node id="-851941" lat="64.1641555517" lon="10.6187000078">
		<tag k="fixme" v="consider natural=peak for the most distinct mountains in the district" />
		<tag k="name" v="Elgsjøklumpan" />
		<tag k="natural" v="hill" />
		<tag k="place" v="locality" />
		<tag k="ssr:stedsnr" v="14349" />
	</node>
	<node id="-851937" lat="64.0878805539" lon="10.2463638918">
		<tag k="fixme" v="consider natural=peak for the most distinct mountains in the district" />
		<tag k="name" v="Kattengheia" />
		<tag k="natural" v="hill" />
		<tag k="place" v="locality" />
		<tag k="ssr:stedsnr" v="924282" />
	</node>
	<node id="-851934" lat="64.1814527782" lon="10.3234861149">
		<tag k="fixme" v="consider natural=peak for the most distinct mountains in the district" />
		<tag k="name" v="Storlia" />
		<tag k="natural" v="hill" />
		<tag k="place" v="locality" />
		<tag k="ssr:stedsnr" v="456698" />
	</node>
	<node id="-851926" lat="64.163463893" lon="10.4643583287">
		<tag k="name" v="Lian" />
		<tag k="natural" v="slope" />
		<tag k="place" v="locality" />
		<tag k="ssr:stedsnr" v="92350" />
	</node>
	<node id="-851924" lat="64.1324833332" lon="10.6054055539">
		<tag k="name" v="Brenna" />
		<tag k="natural" v="slope" />
		<tag k="place" v="locality" />
		<tag k="ssr:stedsnr" v="577362" />
	</node>
	<node id="-851918" lat="64.200286112" lon="10.4227666694">
		<tag k="name" v="Hongdalsklumpen" />
		<tag k="natural" v="hill" />
		<tag k="place" v="locality" />
		<tag k="ssr:stedsnr" v="152147" />
	</node>
	<node id="-851917" lat="64.1312333316" lon="10.1752111069">
		<tag k="name" v="Dumaklumpen" />
		<tag k="natural" v="hill" />
		<tag k="place" v="locality" />
		<tag k="ssr:stedsnr" v="75194" />
	</node>
	<node id="-851916" lat="64.2342416706" lon="10.3989472295">
		<tag k="name" v="Sør Granhollia" />
		<tag k="natural" v="slope" />
		<tag k="place" v="locality" />
		<tag k="ssr:stedsnr" v="516146" />
	</node>
	<node id="-851915" lat="64.2155722259" lon="10.4776944378">
		<tag k="name" v="Ytre Setervasshøgda" />
		<tag k="natural" v="hill" />
		<tag k="place" v="locality" />
		<tag k="ssr:stedsnr" v="335360" />
	</node>
	<node id="-851912" lat="64.1647944442" lon="10.3400194365">
		<tag k="fixme" v="consider natural=peak for the most distinct mountains in the district" />
		<tag k="name" v="Fossbakkmunken" />
		<tag k="natural" v="hill" />
		<tag k="place" v="locality" />
		<tag k="ssr:stedsnr" v="637194" />
	</node>
	<node id="-851911" lat="64.1878805585" lon="10.4378000092">
		<tag k="fixme" v="consider natural=peak for the most distinct mountains in the district" />
		<tag k="name" v="Repptinden" />
		<tag k="natural" v="hill" />
		<tag k="place" v="locality" />
		<tag k="ssr:stedsnr" v="196455" />
	</node>
	<node id="-851907" lat="64.1951638907" lon="10.4092638976">
		<tag k="name" v="Kjerringa" />
		<tag k="natural" v="hill" />
		<tag k="place" v="locality" />
		<tag k="ssr:stedsnr" v="152148" />
	</node>
	<node id="-851905" lat="64.1872222226" lon="10.2020916677">
		<tag k="name" v="Stangafjellet" />
		<tag k="natural" v="hill" />
		<tag k="place" v="locality" />
		<tag k="ssr:stedsnr" v="213058" />
	</node>
	<node id="-851903" lat="64.2651333292" lon="10.3608055564">
		<tag k="name" v="Skåret" />
		<tag k="natural" v="valley" />
		<tag k="place" v="locality" />
		<tag k="ssr:stedsnr" v="637221" />
	</node>
	<node id="-851900" lat="64.1496166694" lon="10.3027750085">
		<tag k="name" v="Jenselia" />
		<tag k="natural" v="slope" />
		<tag k="place" v="locality" />
		<tag k="ssr:stedsnr" v="152139" />
	</node>
	<node id="-851898" lat="64.1739249979" lon="10.4004361203">
		<tag k="fixme" v="consider natural=peak for the most distinct mountains in the district" />
		<tag k="name" v="Staslifjellet" />
		<tag k="natural" v="hill" />
		<tag k="place" v="locality" />
		<tag k="ssr:stedsnr" v="92346" />
	</node>
	<node id="-851895" lat="64.1725138917" lon="10.5375833295">
		<tag k="fixme" v="consider natural=peak for the most distinct mountains in the district" />
		<tag k="name" v="Fjellssteinen" />
		<tag k="natural" v="hill" />
		<tag k="place" v="locality" />
		<tag k="ssr:stedsnr" v="75470" />
	</node>
	<node id="-851890" lat="64.1783333335" lon="10.218233325">
		<tag k="name" v="Myrahaugen" />
		<tag k="natural" v="hill" />
		<tag k="place" v="locality" />
		<tag k="ssr:stedsnr" v="31101" />
	</node>
	<node id="-851889" lat="64.2548166693" lon="10.343741677">
		<tag k="name" v="Bjørgskardet" />
		<tag k="natural" v="valley" />
		<tag k="place" v="locality" />
		<tag k="ssr:stedsnr" v="456248" />
	</node>
	<node id="-851885" lat="64.1201111101" lon="10.1843138892">
		<tag k="name" v="Litlheia" />
		<tag k="natural" v="hill" />
		<tag k="place" v="locality" />
		<tag k="ssr:stedsnr" v="267475" />
	</node>
	<node id="-851883" lat="64.194188893" lon="10.1969833285">
		<tag k="name" v="Prestfallet" />
		<tag k="natural" v="slope" />
		<tag k="place" v="locality" />
		<tag k="ssr:stedsnr" v="213061" />
	</node>
	<node id="-851881" lat="64.111072225" lon="10.2614055647">
		<tag k="fixme" v="consider natural=peak for the most distinct mountains in the district" />
		<tag k="name" v="Blåfjellet" />
		<tag k="natural" v="hill" />
		<tag k="place" v="locality" />
		<tag k="ssr:stedsnr" v="749882" />
	</node>
	<node id="-851877" lat="64.1882611081" lon="10.3449305644">
		<tag k="name" v="Demmingshaugan" />
		<tag k="natural" v="hill" />
		<tag k="place" v="locality" />
		<tag k="ssr:stedsnr" v="759143" />
	</node>
	<node id="-851873" lat="64.1704361121" lon="10.3123388787">
		<tag k="name" v="Tveraslia" />
		<tag k="natural" v="slope" />
		<tag k="place" v="locality" />
		<tag k="ssr:stedsnr" v="31098" />
	</node>
	<node id="-851865" lat="64.1464972238" lon="10.3533138942">
		<tag k="name" v="Sagdalen" />
		<tag k="natural" v="valley" />
		<tag k="place" v="locality" />
		<tag k="ssr:stedsnr" v="92339" />
	</node>
	<node id="-851862" lat="64.1460472194" lon="10.6669472259">
		<tag k="name" v="Grønlia" />
		<tag k="natural" v="slope" />
		<tag k="place" v="locality" />
		<tag k="ssr:stedsnr" v="456255" />
	</node>
	<node id="-851861" lat="64.1235000002" lon="10.2773722243">
		<tag k="fixme" v="consider natural=peak for the most distinct mountains in the district" />
		<tag k="name" v="Heggfjellet" />
		<tag k="natural" v="hill" />
		<tag k="place" v="locality" />
		<tag k="ssr:stedsnr" v="749880" />
	</node>
	<node id="-851860" lat="64.2020527747" lon="10.3557749898">
		<tag k="name" v="Vargvegranten" />
		<tag k="natural" v="hill" />
		<tag k="place" v="locality" />
		<tag k="ssr:stedsnr" v="759139" />
	</node>
	<node id="-851856" lat="64.1829972224" lon="10.5369083408">
		<tag k="name" v="Fossholet" />
		<tag k="natural" v="slope" />
		<tag k="place" v="locality" />
		<tag k="ssr:stedsnr" v="92344" />
	</node>
	<node id="-851854" lat="64.1381527762" lon="10.5147361196">
		<tag k="name" v="Grovaseterlia" />
		<tag k="natural" v="slope" />
		<tag k="place" v="locality" />
		<tag k="ssr:stedsnr" v="456261" />
	</node>
	<node id="-851852" lat="64.2011916622" lon="10.4103138988">
		<tag k="fixme" v="consider natural=peak for the most distinct mountains in the district" />
		<tag k="name" v="Andersfjellet" />
		<tag k="natural" v="hill" />
		<tag k="place" v="locality" />
		<tag k="ssr:stedsnr" v="924017" />
	</node>
	<node id="-851851" lat="64.1437777762" lon="10.5884972235">
		<tag k="name" v="Gorrskarda" />
		<tag k="natural" v="valley" />
		<tag k="place" v="locality" />
		<tag k="ssr:stedsnr" v="820276" />
	</node>
	<node id="-851848" lat="64.1415999984" lon="10.3389388922">
		<tag k="name" v="Kjøkenholet" />
		<tag k="natural" v="valley" />
		<tag k="place" v="locality" />
		<tag k="ssr:stedsnr" v="92341" />
	</node>
	<node id="-851844" lat="64.2775416682" lon="10.3682583304">
		<tag k="name" v="Gangsmosterhaugen" />
		<tag k="natural" v="hill" />
		<tag k="place" v="locality" />
		<tag k="ssr:stedsnr" v="820237" />
	</node>
	<node id="-851843" lat="64.1609416691" lon="10.5663527768">
		<tag k="fixme" v="consider natural=peak for the most distinct mountains in the district" />
		<tag k="name" v="Ørnklumpen" />
		<tag k="natural" v="hill" />
		<tag k="place" v="locality" />
		<tag k="ssr:stedsnr" v="863429" />
	</node>
	<node id="-851838" lat="64.1008777757" lon="10.263563885">
		<tag k="name" v="Nesalia" />
		<tag k="natural" v="slope" />
		<tag k="place" v="locality" />
		<tag k="ssr:stedsnr" v="942081" />
	</node>
	<node id="-851835" lat="64.1628388885" lon="10.5038305653">
		<tag k="name" v="Grovalia" />
		<tag k="natural" v="slope" />
		<tag k="place" v="locality" />
		<tag k="ssr:stedsnr" v="92337" />
	</node>
	<node id="-851831" lat="64.2307499982" lon="10.298702772">
		<tag k="name" v="Storhøgda" />
		<tag k="natural" v="hill" />
		<tag k="place" v="locality" />
		<tag k="ssr:stedsnr" v="274203" />
	</node>
	<node id="-851830" lat="64.1563222248" lon="10.3911027698">
		<tag k="fixme" v="consider natural=peak for the most distinct mountains in the district" />
		<tag k="name" v="Tverrvassfjellet" />
		<tag k="natural" v="hill" />
		<tag k="place" v="locality" />
		<tag k="ssr:stedsnr" v="863432" />
	</node>
	<node id="-851828" lat="64.1232472242" lon="10.3968944475">
		<tag k="name" v="Straumslia" />
		<tag k="natural" v="slope" />
		<tag k="place" v="locality" />
		<tag k="ssr:stedsnr" v="577332" />
	</node>
	<node id="-851827" lat="64.1310444434" lon="10.3107305654">
		<tag k="fixme" v="consider natural=peak for the most distinct mountains in the district" />
		<tag k="name" v="Vesterfjellet" />
		<tag k="natural" v="hill" />
		<tag k="place" v="locality" />
		<tag k="ssr:stedsnr" v="742364" />
	</node>
	<node id="-851822" lat="64.1328194466" lon="10.1415861144">
		<tag k="name" v="Aksla" />
		<tag k="place" v="locality" />
		<tag k="ssr:stedsnr" v="267472" />
	</node>
	<node id="-851819" lat="64.1679055595" lon="10.2576500041">
		<tag k="name" v="Austdalen" />
		<tag k="natural" v="valley" />
		<tag k="place" v="locality" />
		<tag k="ssr:stedsnr" v="864481" />
	</node>
	<node id="-851818" lat="64.1090972214" lon="10.227933334">
		<tag k="name" v="Buhyllberget" />
		<tag k="natural" v="hill" />
		<tag k="place" v="locality" />
		<tag k="ssr:stedsnr" v="759932" />
	</node>
	<node id="-851817" lat="64.0806888897" lon="10.3569638863">
		<tag k="fixme" v="consider natural=peak for the most distinct mountains in the district" />
		<tag k="name" v="Ramnen" />
		<tag k="natural" v="hill" />
		<tag k="place" v="locality" />
		<tag k="ssr:stedsnr" v="924266" />
	</node>
	<node id="-851815" lat="64.2689055552" lon="10.3421555474">
		<tag k="name" v="Hattarova" />
		<tag k="natural" v="valley" />
		<tag k="place" v="locality" />
		<tag k="ssr:stedsnr" v="820229" />
	</node>
	<node id="-851814" lat="64.1633694436" lon="10.239219446">
		<tag k="fixme" v="consider natural=peak for the most distinct mountains in the district" />
		<tag k="name" v="Stakkenget" />
		<tag k="natural" v="hill" />
		<tag k="place" v="locality" />
		<tag k="ssr:stedsnr" v="864483" />
	</node>
	<node id="-851812" lat="64.1398944401" lon="10.3595444467">
		<tag k="name" v="Elgholet" />
		<tag k="natural" v="valley" />
		<tag k="place" v="locality" />
		<tag k="ssr:stedsnr" v="577337" />
	</node>
	<node id="-851809" lat="64.1359749963" lon="10.4528861077">
		<tag k="name" v="Nersletta" />
		<tag k="place" v="locality" />
		<tag k="ssr:stedsnr" v="335338" />
	</node>
	<node id="-851808" lat="64.1236472202" lon="10.2875416577">
		<tag k="name" v="Middagsklumpen" />
		<tag k="natural" v="hill" />
		<tag k="place" v="locality" />
		<tag k="ssr:stedsnr" v="378367" />
	</node>
	<node id="-851806" lat="64.1215416633" lon="10.3391638861">
		<tag k="name" v="Inner Vardheia" />
		<tag k="natural" v="hill" />
		<tag k="place" v="locality" />
		<tag k="ssr:stedsnr" v="335335" />
	</node>
	<node id="-851805" lat="64.1048277822" lon="10.2751250037">
		<tag k="name" v="Nordvegen" />
		<tag k="natural" v="valley" />
		<tag k="place" v="locality" />
		<tag k="ssr:stedsnr" v="942076" />
	</node>
	<node id="-851803" lat="64.1341583369" lon="10.2345888986">
		<tag k="fixme" v="consider natural=peak for the most distinct mountains in the district" />
		<tag k="name" v="Nonsfjellet" />
		<tag k="natural" v="hill" />
		<tag k="place" v="locality" />
		<tag k="ssr:stedsnr" v="803408" />
	</node>
	<node id="-851802" lat="64.1842527779" lon="10.2995611115">
		<tag k="name" v="Sørholet" />
		<tag k="natural" v="valley" />
		<tag k="place" v="locality" />
		<tag k="ssr:stedsnr" v="152123" />
	</node>
	<node id="-851801" lat="64.1804000012" lon="10.3773222204">
		<tag k="name" v="Garnberget" />
		<tag k="natural" v="hill" />
		<tag k="place" v="locality" />
		<tag k="ssr:stedsnr" v="881165" />
	</node>
	<node id="-851798" lat="64.1538611126" lon="10.523000003">
		<tag k="name" v="Grovalia" />
		<tag k="natural" v="slope" />
		<tag k="place" v="locality" />
		<tag k="ssr:stedsnr" v="335749" />
	</node>
	<node id="-851796" lat="64.1756916665" lon="10.2318249921">
		<tag k="fixme" v="consider natural=peak for the most distinct mountains in the district" />
		<tag k="name" v="Husfjellet" />
		<tag k="natural" v="hill" />
		<tag k="place" v="locality" />
		<tag k="ssr:stedsnr" v="196430" />
	</node>
	<node id="-851795" lat="64.2250500012" lon="10.3355861134">
		<tag k="name" v="Bessakerskardet" />
		<tag k="natural" v="valley" />
		<tag k="place" v="locality" />
		<tag k="ssr:stedsnr" v="924002" />
	</node>
	<node id="-851794" lat="64.1464944411" lon="10.2310138813">
		<tag k="name" v="Middagsdalen" />
		<tag k="natural" v="valley" />
		<tag k="place" v="locality" />
		<tag k="ssr:stedsnr" v="759119" />
	</node>
	<node id="-851792" lat="64.1528083293" lon="10.4933250092">
		<tag k="name" v="Tolia" />
		<tag k="natural" v="slope" />
		<tag k="place" v="locality" />
		<tag k="ssr:stedsnr" v="820256" />
	</node>
	<node id="-851789" lat="64.1608916674" lon="10.4450277856">
		<tag k="name" v="Seterhaugen" />
		<tag k="natural" v="hill" />
		<tag k="place" v="locality" />
		<tag k="ssr:stedsnr" v="577319" />
	</node>
	<node id="-851783" lat="64.1497222219" lon="10.460088893">
		<tag k="name" v="Tostendalen" />
		<tag k="natural" v="valley" />
		<tag k="place" v="locality" />
		<tag k="ssr:stedsnr" v="863434" />
	</node>
	<node id="-851781" lat="64.118955556" lon="10.2435722218">
		<tag k="name" v="Perholet" />
		<tag k="natural" v="valley" />
		<tag k="place" v="locality" />
		<tag k="ssr:stedsnr" v="31068" />
	</node>
	<node id="-851780" lat="64.1694638846" lon="10.2986333362">
		<tag k="fixme" v="consider natural=peak for the most distinct mountains in the district" />
		<tag k="name" v="Volifjellet" />
		<tag k="natural" v="hill" />
		<tag k="place" v="locality" />
		<tag k="ssr:stedsnr" v="759112" />
	</node>
	<node id="-851779" lat="64.1354277772" lon="10.4771500097">
		<tag k="fixme" v="consider natural=peak for the most distinct mountains in the district" />
		<tag k="name" v="Skarvalia" />
		<tag k="natural" v="hill" />
		<tag k="place" v="locality" />
		<tag k="ssr:stedsnr" v="742370" />
	</node>
	<node id="-851778" lat="64.2469083295" lon="10.4030944399">
		<tag k="name" v="Dyderskardet" />
		<tag k="natural" v="valley" />
		<tag k="place" v="locality" />
		<tag k="ssr:stedsnr" v="820245" />
	</node>
	<node id="-851777" lat="64.2556888847" lon="10.2981861079">
		<tag k="fixme" v="consider natural=peak for the most distinct mountains in the district" />
		<tag k="name" v="Aunfjellet" />
		<tag k="natural" v="hill" />
		<tag k="place" v="locality" />
		<tag k="ssr:stedsnr" v="317581" />
	</node>
	<node id="-851776" lat="64.1488000015" lon="10.2040388991">
		<tag k="name" v="Ramsvika" />
		<tag k="natural" v="slope" />
		<tag k="place" v="locality" />
		<tag k="ssr:stedsnr" v="699101" />
	</node>
	<node id="-851772" lat="64.1372749979" lon="10.2703000032">
		<tag k="fixme" v="consider natural=peak for the most distinct mountains in the district" />
		<tag k="name" v="Løsliheia" />
		<tag k="natural" v="hill" />
		<tag k="place" v="locality" />
		<tag k="ssr:stedsnr" v="742371" />
	</node>
	<node id="-851770" lat="64.1989194404" lon="10.2167666715">
		<tag k="fixme" v="consider natural=peak for the most distinct mountains in the district" />
		<tag k="name" v="Vardfjellet" />
		<tag k="natural" v="hill" />
		<tag k="place" v="locality" />
		<tag k="ssr:stedsnr" v="638004" />
	</node>
	<node id="-851762" lat="64.2532916706" lon="10.3662083323">
		<tag k="name" v="Rundhaugen" />
		<tag k="natural" v="hill" />
		<tag k="place" v="locality" />
		<tag k="ssr:stedsnr" v="881177" />
	</node>
	<node id="-851759" lat="64.1428249957" lon="10.4159166632">
		<tag k="name" v="Finndalen" />
		<tag k="natural" v="valley" />
		<tag k="place" v="locality" />
		<tag k="ssr:stedsnr" v="335325" />
	</node>
	<node id="-851758" lat="64.1937444418" lon="10.281063879">
		<tag k="name" v="Innerskåret" />
		<tag k="natural" v="valley" />
		<tag k="place" v="locality" />
		<tag k="ssr:stedsnr" v="213029" />
	</node>
	<node id="-851756" lat="64.1800166636" lon="10.2532166754">
		<tag k="fixme" v="consider natural=peak for the most distinct mountains in the district" />
		<tag k="name" v="Hestmarka" />
		<tag k="natural" v="hill" />
		<tag k="place" v="locality" />
		<tag k="ssr:stedsnr" v="942089" />
	</node>
	<node id="-851754" lat="64.2450555595" lon="10.3655472299">
		<tag k="fixme" v="consider natural=peak for the most distinct mountains in the district" />
		<tag k="name" v="Plottarfjella" />
		<tag k="natural" v="hill" />
		<tag k="place" v="locality" />
		<tag k="ssr:stedsnr" v="274195" />
	</node>
	<node id="-851752" lat="64.2582833329" lon="10.3652444512">
		<tag k="name" v="Nypholet" />
		<tag k="natural" v="valley" />
		<tag k="place" v="locality" />
		<tag k="ssr:stedsnr" v="820209" />
	</node>
	<node id="-851750" lat="64.2640916679" lon="10.3591250033">
		<tag k="name" v="Mastukleppen" />
		<tag k="natural" v="hill" />
		<tag k="place" v="locality" />
		<tag k="ssr:stedsnr" v="456210" />
	</node>
	<node id="-851749" lat="64.2258666701" lon="10.3247194402">
		<tag k="fixme" v="consider natural=peak for the most distinct mountains in the district" />
		<tag k="name" v="Svartlia" />
		<tag k="natural" v="hill" />
		<tag k="place" v="locality" />
		<tag k="ssr:stedsnr" v="681062" />
	</node>
	<node id="-851748" lat="64.1818916631" lon="10.5226888857">
		<tag k="name" v="Fjellslia" />
		<tag k="natural" v="slope" />
		<tag k="place" v="locality" />
		<tag k="ssr:stedsnr" v="517339" />
	</node>
	<node id="-851739" lat="64.1158027758" lon="10.1551833242">
		<tag k="name" v="Hannaskardet" />
		<tag k="natural" v="valley" />
		<tag k="place" v="locality" />
		<tag k="ssr:stedsnr" v="699925" />
	</node>
	<node id="-851738" lat="64.2502444448" lon="10.3730249924">
		<tag k="name" v="Fremmerkrommin" />
		<tag k="natural" v="slope" />
		<tag k="place" v="locality" />
		<tag k="ssr:stedsnr" v="456207" />
	</node>
	<node id="-851736" lat="64.1950444447" lon="10.4238194413">
		<tag k="fixme" v="consider natural=peak for the most distinct mountains in the district" />
		<tag k="name" v="Saglia" />
		<tag k="natural" v="hill" />
		<tag k="place" v="locality" />
		<tag k="ssr:stedsnr" v="499412" />
	</node>
	<node id="-851735" lat="64.2512222208" lon="10.3679666694">
		<tag k="name" v="Gråsteinbakkan" />
		<tag k="natural" v="slope" />
		<tag k="place" v="locality" />
		<tag k="ssr:stedsnr" v="274177" />
	</node>
	<node id="-851728" lat="64.1248749985" lon="10.2589527733">
		<tag k="fixme" v="consider natural=peak for the most distinct mountains in the district" />
		<tag k="name" v="Svartholhøgda" />
		<tag k="natural" v="hill" />
		<tag k="place" v="locality" />
		<tag k="ssr:stedsnr" v="942054" />
	</node>
	<node id="-851727" lat="64.2519888849" lon="10.3516194461">
		<tag k="fixme" v="consider natural=peak for the most distinct mountains in the district" />
		<tag k="name" v="Nonsfjellet" />
		<tag k="natural" v="hill" />
		<tag k="place" v="locality" />
		<tag k="ssr:stedsnr" v="395249" />
	</node>
	<node id="-851726" lat="64.2111555601" lon="10.3927777708">
		<tag k="name" v="Lian" />
		<tag k="natural" v="slope" />
		<tag k="place" v="locality" />
		<tag k="ssr:stedsnr" v="637151" />
	</node>
	<node id="-851722" lat="64.1685166648" lon="10.5107861146">
		<tag k="name" v="Rabban" />
		<tag k="natural" v="ridge" />
		<tag k="place" v="locality" />
		<tag k="ssr:stedsnr" v="335301" />
	</node>
	<node id="-851721" lat="64.1187638855" lon="10.2721000018">
		<tag k="name" v="Nypa" />
		<tag k="natural" v="hill" />
		<tag k="place" v="locality" />
		<tag k="ssr:stedsnr" v="699058" />
	</node>
	<node id="-851719" lat="64.1526749973" lon="10.2461250074">
		<tag k="name" v="Trollskardet" />
		<tag k="natural" v="valley" />
		<tag k="place" v="locality" />
		<tag k="ssr:stedsnr" v="559396" />
	</node>
	<node id="-851718" lat="64.2085999976" lon="10.3121111187">
		<tag k="name" v="Kjørberget" />
		<tag k="natural" v="hill" />
		<tag k="place" v="locality" />
		<tag k="ssr:stedsnr" v="31055" />
	</node>
	<node id="-851715" lat="64.2184388924" lon="10.4794111086">
		<tag k="fixme" v="consider natural=peak for the most distinct mountains in the district" />
		<tag k="name" v="Blåfjellet" />
		<tag k="natural" v="hill" />
		<tag k="place" v="locality" />
		<tag k="ssr:stedsnr" v="620007" />
	</node>
	<node id="-851714" lat="64.264602775" lon="10.3673805648">
		<tag k="fixme" v="consider natural=peak for the most distinct mountains in the district" />
		<tag k="name" v="Skåråsen" />
		<tag k="natural" v="hill" />
		<tag k="place" v="locality" />
		<tag k="ssr:stedsnr" v="274186" />
	</node>
	<node id="-851713" lat="64.1516722221" lon="10.3353277792">
		<tag k="name" v="Storlia" />
		<tag k="natural" v="slope" />
		<tag k="place" v="locality" />
		<tag k="ssr:stedsnr" v="335742" />
	</node>
	<node id="-851710" lat="64.1644416652" lon="10.4488361009">
		<tag k="name" v="Seterlia" />
		<tag k="natural" v="slope" />
		<tag k="place" v="locality" />
		<tag k="ssr:stedsnr" v="335311" />
	</node>
	<node id="-851708" lat="64.1215277811" lon="10.2906527798">
		<tag k="name" v="Bakventlia" />
		<tag k="natural" v="slope" />
		<tag k="place" v="locality" />
		<tag k="ssr:stedsnr" v="759072" />
	</node>
	<node id="-851707" lat="64.1119333312" lon="10.5703083308">
		<tag k="fixme" v="consider natural=peak for the most distinct mountains in the district" />
		<tag k="name" v="Brennfjellet" />
		<tag k="natural" v="hill" />
		<tag k="place" v="locality" />
		<tag k="ssr:stedsnr" v="378351" />
	</node>
	<node id="-851705" lat="64.1149166696" lon="10.1314861146">
		<tag k="fixme" v="consider natural=peak for the most distinct mountains in the district" />
		<tag k="name" v="Snausen" />
		<tag k="natural" v="hill" />
		<tag k="place" v="locality" />
		<tag k="ssr:stedsnr" v="699918" />
	</node>
	<node id="-851702" lat="64.1919916686" lon="10.1971027835">
		<tag k="name" v="Eianshaugen" />
		<tag k="natural" v="hill" />
		<tag k="place" v="locality" />
		<tag k="ssr:stedsnr" v="942044" />
	</node>
	<node id="-851699" lat="64.0922083365" lon="10.2218361074">
		<tag k="name" v="Øykvikskardet" />
		<tag k="natural" v="valley" />
		<tag k="place" v="locality" />
		<tag k="ssr:stedsnr" v="256299" />
	</node>
	<node id="-851698" lat="64.2501416707" lon="10.3839305544">
		<tag k="name" v="Medkrommin" />
		<tag k="natural" v="slope" />
		<tag k="place" v="locality" />
		<tag k="ssr:stedsnr" v="820206" />
	</node>
	<node id="-851697" lat="64.1270000023" lon="10.5079694449">
		<tag k="name" v="Finnlia" />
		<tag k="natural" v="slope" />
		<tag k="place" v="locality" />
		<tag k="ssr:stedsnr" v="803389" />
	</node>
	<node id="-851694" lat="64.1523861108" lon="10.1869527857">
		<tag k="name" v="Brunnskardet" />
		<tag k="natural" v="valley" />
		<tag k="place" v="locality" />
		<tag k="ssr:stedsnr" v="759902" />
	</node>
	<node id="-851693" lat="64.1839527823" lon="10.2219666592">
		<tag k="name" v="Fårråhaugen" />
		<tag k="natural" v="hill" />
		<tag k="place" v="locality" />
		<tag k="ssr:stedsnr" v="213016" />
	</node>
	<node id="-851691" lat="64.1065305562" lon="10.3512027761">
		<tag k="fixme" v="consider natural=peak for the most distinct mountains in the district" />
		<tag k="name" v="Blankstuheia" />
		<tag k="natural" v="hill" />
		<tag k="place" v="locality" />
		<tag k="ssr:stedsnr" v="317315" />
	</node>
	<node id="-851690" lat="64.1639472227" lon="10.6970611204">
		<tag k="fixme" v="consider natural=peak for the most distinct mountains in the district" />
		<tag k="name" v="Kjølåkerheia" />
		<tag k="natural" v="hill" />
		<tag k="place" v="locality" />
		<tag k="ssr:stedsnr" v="439415" />
	</node>
	<node id="-851689" lat="64.1028111154" lon="10.2404111133">
		<tag k="name" v="Helligpisset" />
		<tag k="natural" v="valley" />
		<tag k="place" v="locality" />
		<tag k="ssr:stedsnr" v="942910" />
	</node>
	<node id="-851685" lat="64.223533334" lon="10.5035944487">
		<tag k="fixme" v="consider natural=peak for the most distinct mountains in the district" />
		<tag k="name" v="Blåheia" />
		<tag k="natural" v="hill" />
		<tag k="place" v="locality" />
		<tag k="ssr:stedsnr" v="14039" />
	</node>
	<node id="-851680" lat="64.1118416694" lon="10.256588892">
		<tag k="name" v="Skarvberget" />
		<tag k="natural" v="hill" />
		<tag k="place" v="locality" />
		<tag k="ssr:stedsnr" v="152911" />
	</node>
	<node id="-851679" lat="64.2405249972" lon="10.4117638878">
		<tag k="name" v="Urdskardet" />
		<tag k="natural" v="valley" />
		<tag k="place" v="locality" />
		<tag k="ssr:stedsnr" v="395237" />
	</node>
	<node id="-851678" lat="64.1173083373" lon="10.266822218">
		<tag k="fixme" v="consider natural=peak for the most distinct mountains in the district" />
		<tag k="name" v="Smefjellet" />
		<tag k="natural" v="hill" />
		<tag k="place" v="locality" />
		<tag k="ssr:stedsnr" v="142865" />
	</node>
	<node id="-851677" lat="64.124547225" lon="10.2399444378">
		<tag k="fixme" v="consider natural=peak for the most distinct mountains in the district" />
		<tag k="name" v="Storlikammen" />
		<tag k="natural" v="hill" />
		<tag k="place" v="locality" />
		<tag k="ssr:stedsnr" v="152089" />
	</node>
	<node id="-851676" lat="64.1463500033" lon="10.7553416674">
		<tag k="name" v="Sørhaugan" />
		<tag k="natural" v="hill" />
		<tag k="place" v="locality" />
		<tag k="ssr:stedsnr" v="21822" />
	</node>
	<node id="-851674" lat="64.1356749968" lon="10.6578333345">
		<tag k="fixme" v="consider natural=peak for the most distinct mountains in the district" />
		<tag k="name" v="Grønliklumpen" />
		<tag k="natural" v="hill" />
		<tag k="place" v="locality" />
		<tag k="ssr:stedsnr" v="14314" />
	</node>
	<node id="-851673" lat="64.0931527742" lon="10.3015444459">
		<tag k="name" v="Olaskardet" />
		<tag k="natural" v="valley" />
		<tag k="place" v="locality" />
		<tag k="ssr:stedsnr" v="378339" />
	</node>
	<node id="-851670" lat="64.27953611" lon="10.3552583339">
		<tag k="name" v="Litlmostra" />
		<tag k="natural" v="hill" />
		<tag k="place" v="locality" />
		<tag k="ssr:stedsnr" v="395238" />
	</node>
	<node id="-851668" lat="64.2693027802" lon="10.3678222137">
		<tag k="name" v="Klaven" />
		<tag k="natural" v="ridge" />
		<tag k="place" v="locality" />
		<tag k="ssr:stedsnr" v="577291" />
	</node>
	<node id="-851666" lat="64.2674500039" lon="10.3819416653">
		<tag k="fixme" v="consider natural=peak for the most distinct mountains in the district" />
		<tag k="name" v="Storfjellet" />
		<tag k="natural" v="hill" />
		<tag k="place" v="locality" />
		<tag k="ssr:stedsnr" v="438614" />
	</node>
	<node id="-851663" lat="64.2284305527" lon="10.4702555602">
		<tag k="name" v="Elgdalen" />
		<tag k="natural" v="valley" />
		<tag k="place" v="locality" />
		<tag k="ssr:stedsnr" v="92295" />
	</node>
	<node id="-851659" lat="64.1524722211" lon="10.5749416723">
		<tag k="fixme" v="consider natural=peak for the most distinct mountains in the district" />
		<tag k="name" v="Storskardheia" />
		<tag k="natural" v="hill" />
		<tag k="place" v="locality" />
		<tag k="ssr:stedsnr" v="863422" />
	</node>
	<node id="-851658" lat="64.1329527741" lon="10.3551083353">
		<tag k="name" v="Lunnskardheia" />
		<tag k="natural" v="hill" />
		<tag k="place" v="locality" />
		<tag k="ssr:stedsnr" v="517327" />
	</node>
	<node id="-851657" lat="64.1569472261" lon="10.3707083426">
		<tag k="name" v="Ørnfjelldalen" />
		<tag k="natural" v="valley" />
		<tag k="place" v="locality" />
		<tag k="ssr:stedsnr" v="517328" />
	</node>
	<node id="-851653" lat="64.1291749967" lon="10.2113861165">
		<tag k="name" v="Lunnbakkan" />
		<tag k="natural" v="slope" />
		<tag k="place" v="locality" />
		<tag k="ssr:stedsnr" v="699070" />
	</node>
	<node id="-851648" lat="64.1335388931" lon="10.1814638881">
		<tag k="fixme" v="consider natural=peak for the most distinct mountains in the district" />
		<tag k="name" v="Troningsfjellet" />
		<tag k="natural" v="hill" />
		<tag k="place" v="locality" />
		<tag k="ssr:stedsnr" v="759919" />
	</node>
	<node id="-851646" lat="64.1528222206" lon="10.1811027816">
		<tag k="fixme" v="consider natural=peak for the most distinct mountains in the district" />
		<tag k="name" v="Torvfjellet" />
		<tag k="natural" v="hill" />
		<tag k="place" v="locality" />
		<tag k="ssr:stedsnr" v="152903" />
	</node>
	<node id="-851645" lat="64.2389194466" lon="10.3972555465">
		<tag k="fixme" v="consider natural=peak for the most distinct mountains in the district" />
		<tag k="name" v="Husfjellet" />
		<tag k="natural" v="hill" />
		<tag k="place" v="locality" />
		<tag k="ssr:stedsnr" v="637161" />
	</node>
	<node id="-851641" lat="64.1682694466" lon="10.3782805607">
		<tag k="fixme" v="consider natural=peak for the most distinct mountains in the district" />
		<tag k="name" v="Middagsfjellet" />
		<tag k="natural" v="hill" />
		<tag k="place" v="locality" />
		<tag k="ssr:stedsnr" v="274170" />
	</node>
	<node id="-851639" lat="64.1450250018" lon="10.3381944418">
		<tag k="fixme" v="consider natural=peak for the most distinct mountains in the district" />
		<tag k="name" v="Fjellsåsen" />
		<tag k="natural" v="hill" />
		<tag k="place" v="locality" />
		<tag k="ssr:stedsnr" v="517336" />
	</node>
	<node id="-851637" lat="64.2808222223" lon="10.3704333308">
		<tag k="name" v="Storhaugen" />
		<tag k="natural" v="hill" />
		<tag k="place" v="locality" />
		<tag k="ssr:stedsnr" v="395240" />
	</node>
	<node id="-851635" lat="64.16480833" lon="10.5673750044">
		<tag k="name" v="Dyrskardklumpen" />
		<tag k="natural" v="hill" />
		<tag k="place" v="locality" />
		<tag k="ssr:stedsnr" v="864473" />
	</node>
	<node id="-851634" lat="64.1808888909" lon="10.33838888">
		<tag k="name" v="Lusdalen" />
		<tag k="natural" v="valley" />
		<tag k="place" v="locality" />
		<tag k="ssr:stedsnr" v="335293" />
	</node>
	<node id="-851632" lat="64.2170138911" lon="10.3946305488">
		<tag k="name" v="Haralia" />
		<tag k="natural" v="slope" />
		<tag k="place" v="locality" />
		<tag k="ssr:stedsnr" v="637156" />
	</node>
	<node id="-851631" lat="64.1372500019" lon="10.5786111072">
		<tag k="name" v="Tverskardet" />
		<tag k="natural" v="valley" />
		<tag k="place" v="locality" />
		<tag k="ssr:stedsnr" v="577301" />
	</node>
	<node id="-851630" lat="64.1379083366" lon="10.189297228">
		<tag k="name" v="Kvitvegen" />
		<tag k="natural" v="slope" />
		<tag k="place" v="locality" />
		<tag k="ssr:stedsnr" v="759916" />
	</node>
	<node id="-851629" lat="64.23362778" lon="10.3287416639">
		<tag k="fixme" v="consider natural=peak for the most distinct mountains in the district" />
		<tag k="name" v="Buskaprabban" />
		<tag k="natural" v="hill" />
		<tag k="place" v="locality" />
		<tag k="ssr:stedsnr" v="335294" />
	</node>
	<node id="-851625" lat="64.1796027792" lon="10.5389055613">
		<tag k="name" v="Kroksdalslia" />
		<tag k="natural" v="slope" />
		<tag k="place" v="locality" />
		<tag k="ssr:stedsnr" v="577275" />
	</node>
	<node id="-851620" lat="64.1275583315" lon="10.3924499966">
		<tag k="fixme" v="consider natural=peak for the most distinct mountains in the district" />
		<tag k="name" v="Storklumpen" />
		<tag k="natural" v="hill" />
		<tag k="place" v="locality" />
		<tag k="ssr:stedsnr" v="14305" />
	</node>
	<node id="-851617" lat="64.2275277823" lon="10.4094972137">
		<tag k="name" v="Granholhatten" />
		<tag k="natural" v="hill" />
		<tag k="place" v="locality" />
		<tag k="ssr:stedsnr" v="941207" />
	</node>
	<node id="-851615" lat="64.1672000007" lon="10.2416055481">
		<tag k="fixme" v="consider natural=peak for the most distinct mountains in the district" />
		<tag k="name" v="Lauvåsen" />
		<tag k="natural" v="hill" />
		<tag k="place" v="locality" />
		<tag k="ssr:stedsnr" v="637128" />
	</node>
	<node id="-851613" lat="64.1484416644" lon="10.7273888951">
		<tag k="name" v="Grasvassdalen - Kraesievaajja" />
		<tag k="name:no" v="Grasvassdalen" />
		<tag k="name:sma" v="Kraesievaajja" />
		<tag k="natural" v="valley" />
		<tag k="place" v="locality" />
		<tag k="ssr:stedsnr" v="256558" />
	</node>
	<node id="-851605" lat="64.1260611124" lon="10.6304305542">
		<tag k="name" v="Pissbekk-klumpen" />
		<tag k="natural" v="hill" />
		<tag k="place" v="locality" />
		<tag k="ssr:stedsnr" v="577280" />
	</node>
	<node id="-851601" lat="64.2046722182" lon="10.4491722319">
		<tag k="name" v="Seterlia" />
		<tag k="natural" v="slope" />
		<tag k="place" v="locality" />
		<tag k="ssr:stedsnr" v="820182" />
	</node>
	<node id="-851600" lat="64.1397888907" lon="10.6537694479">
		<tag k="name" v="Grønlihalsen" />
		<tag k="natural" v="valley" />
		<tag k="place" v="locality" />
		<tag k="ssr:stedsnr" v="92279" />
	</node>
	<node id="-851599" lat="64.2148249988" lon="10.2785611028">
		<tag k="name" v="Taket" />
		<tag k="natural" v="hill" />
		<tag k="place" v="locality" />
		<tag k="ssr:stedsnr" v="31030" />
	</node>
	<node id="-851597" lat="64.0905777778" lon="10.2910805604">
		<tag k="fixme" v="consider natural=peak for the most distinct mountains in the district" />
		<tag k="name" v="Kjerringheia" />
		<tag k="natural" v="hill" />
		<tag k="place" v="locality" />
		<tag k="ssr:stedsnr" v="317293" />
	</node>
	<node id="-851595" lat="64.2400959231" lon="10.3181477406">
		<tag k="fixme" v="consider natural=peak for the most distinct mountains in the district" />
		<tag k="name" v="Storskardheia" />
		<tag k="natural" v="hill" />
		<tag k="place" v="locality" />
		<tag k="ssr:stedsnr" v="681035" />
	</node>
	<node id="-851594" lat="64.1615250038" lon="10.3284638934">
		<tag k="name" v="Munkan" />
		<tag k="natural" v="slope" />
		<tag k="place" v="locality" />
		<tag k="ssr:stedsnr" v="274157" />
	</node>
	<node id="-851593" lat="64.269090362" lon="10.3474230911">
		<tag k="name" v="Storhatten" />
		<tag k="natural" v="hill" />
		<tag k="place" v="locality" />
		<tag k="ssr:stedsnr" v="92698" />
	</node>
	<node id="-851592" lat="64.1238833359" lon="10.6748388917">
		<tag k="name" v="Storskora" />
		<tag k="natural" v="valley" />
		<tag k="place" v="locality" />
		<tag k="ssr:stedsnr" v="335287" />
	</node>
	<node id="-851586" lat="64.1214805513" lon="10.6542638827">
		<tag k="name" v="Sløynnerlia" />
		<tag k="natural" v="slope" />
		<tag k="place" v="locality" />
		<tag k="ssr:stedsnr" v="577283" />
	</node>
	<node id="-851581" lat="64.1035861152" lon="10.5937361135">
		<tag k="name" v="Finntjønndalan" />
		<tag k="natural" v="valley" />
		<tag k="place" v="locality" />
		<tag k="ssr:stedsnr" v="335286" />
	</node>
	<node id="-851577" lat="64.2091166712" lon="10.3028833237">
		<tag k="fixme" v="consider natural=peak for the most distinct mountains in the district" />
		<tag k="name" v="Ausa" />
		<tag k="natural" v="hill" />
		<tag k="place" v="locality" />
		<tag k="ssr:stedsnr" v="317016" />
	</node>
	<node id="-851574" lat="64.2342472185" lon="10.2760166763">
		<tag k="name" v="Litlkåpa" />
		<tag k="natural" v="hill" />
		<tag k="place" v="locality" />
		<tag k="ssr:stedsnr" v="395227" />
	</node>
	<node id="-851573" lat="64.2121166698" lon="10.4865805504">
		<tag k="fixme" v="consider natural=peak for the most distinct mountains in the district" />
		<tag k="name" v="Nordkrummen" />
		<tag k="natural" v="hill" />
		<tag k="place" v="locality" />
		<tag k="ssr:stedsnr" v="213387" />
	</node>
	<node id="-851569" lat="64.1403861132" lon="10.1659277727">
		<tag k="name" v="Skarda" />
		<tag k="natural" v="valley" />
		<tag k="place" v="locality" />
		<tag k="ssr:stedsnr" v="942898" />
	</node>
	<node id="-851566" lat="64.2493027739" lon="10.3951194407">
		<tag k="fixme" v="consider natural=peak for the most distinct mountains in the district" />
		<tag k="name" v="Øykfjellet" />
		<tag k="natural" v="hill" />
		<tag k="place" v="locality" />
		<tag k="ssr:stedsnr" v="941218" />
	</node>
	<node id="-851560" lat="64.1728472221" lon="10.3521444492">
		<tag k="fixme" v="consider natural=peak for the most distinct mountains in the district" />
		<tag k="name" v="Litlmunken" />
		<tag k="natural" v="hill" />
		<tag k="place" v="locality" />
		<tag k="ssr:stedsnr" v="820194" />
	</node>
	<node id="-851556" lat="64.202483333" lon="10.2078722276">
		<tag k="name" v="Rofjellet" />
		<tag k="natural" v="hill" />
		<tag k="place" v="locality" />
		<tag k="ssr:stedsnr" v="759062" />
	</node>
	<node id="-851553" lat="64.1743722192" lon="10.3607555455">
		<tag k="name" v="Kongensvika" />
		<tag k="natural" v="valley" />
		<tag k="place" v="locality" />
		<tag k="ssr:stedsnr" v="820199" />
	</node>
	<node id="-851551" lat="64.1728861102" lon="10.5231027766">
		<tag k="name" v="Soløystrandlia" />
		<tag k="natural" v="slope" />
		<tag k="place" v="locality" />
		<tag k="ssr:stedsnr" v="92266" />
	</node>
	<node id="-851549" lat="64.1830611144" lon="10.3545722256">
		<tag k="name" v="Halsan" />
		<tag k="natural" v="ridge" />
		<tag k="place" v="locality" />
		<tag k="ssr:stedsnr" v="881131" />
	</node>
	<node id="-851547" lat="64.1757583326" lon="10.4963083387">
		<tag k="name" v="Fagerdalslia" />
		<tag k="natural" v="slope" />
		<tag k="place" v="locality" />
		<tag k="ssr:stedsnr" v="335262" />
	</node>
	<node id="-851543" lat="64.1620472258" lon="10.4398361074">
		<tag k="name" v="Seterlikammen" />
		<tag k="natural" v="ridge" />
		<tag k="place" v="locality" />
		<tag k="ssr:stedsnr" v="517302" />
	</node>
	<node id="-851539" lat="64.149680556" lon="10.3130416619">
		<tag k="fixme" v="consider natural=peak for the most distinct mountains in the district" />
		<tag k="name" v="Nysetermunken" />
		<tag k="natural" v="hill" />
		<tag k="place" v="locality" />
		<tag k="ssr:stedsnr" v="637136" />
	</node>
	<node id="-851536" lat="64.1733333348" lon="10.4285277688">
		<tag k="name" v="Hofstaddalen" />
		<tag k="natural" v="valley" />
		<tag k="place" v="locality" />
		<tag k="ssr:stedsnr" v="499389" />
	</node>
	<node id="-851530" lat="64.2082083307" lon="10.439733331">
		<tag k="name" v="Haltlia" />
		<tag k="natural" v="slope" />
		<tag k="place" v="locality" />
		<tag k="ssr:stedsnr" v="274144" />
	</node>
	<node id="-851529" lat="64.1948333369" lon="10.2210111151">
		<tag k="fixme" v="consider natural=peak for the most distinct mountains in the district" />
		<tag k="name" v="Tverfjellet" />
		<tag k="natural" v="hill" />
		<tag k="place" v="locality" />
		<tag k="ssr:stedsnr" v="31013" />
	</node>
	<node id="-851527" lat="64.1280861137" lon="10.5523333244">
		<tag k="name" v="Rundklumpen" />
		<tag k="natural" v="hill" />
		<tag k="place" v="locality" />
		<tag k="ssr:stedsnr" v="92255" />
	</node>
	<node id="-851524" lat="64.1999749976" lon="10.2003333235">
		<tag k="name" v="Brennhaugen" />
		<tag k="natural" v="hill" />
		<tag k="place" v="locality" />
		<tag k="ssr:stedsnr" v="759061" />
	</node>
	<node id="-851523" lat="64.1892249958" lon="10.2003250062">
		<tag k="name" v="Monshaugen" />
		<tag k="natural" v="hill" />
		<tag k="place" v="locality" />
		<tag k="ssr:stedsnr" v="699043" />
	</node>
	<node id="-851521" lat="64.2761916698" lon="10.3667055569">
		<tag k="name" v="Øver Kjellen" />
		<tag k="natural" v="hill" />
		<tag k="place" v="locality" />
		<tag k="ssr:stedsnr" v="941214" />
	</node>
	<node id="-851520" lat="64.1676722236" lon="10.3234694369">
		<tag k="name" v="Tveråslia" />
		<tag k="natural" v="slope" />
		<tag k="place" v="locality" />
		<tag k="ssr:stedsnr" v="456178" />
	</node>
	<node id="-851519" lat="64.1407777736" lon="10.1630638882">
		<tag k="fixme" v="consider natural=peak for the most distinct mountains in the district" />
		<tag k="name" v="Båtfjellet" />
		<tag k="natural" v="hill" />
		<tag k="place" v="locality" />
		<tag k="ssr:stedsnr" v="31875" />
	</node>
	<node id="-851516" lat="64.0974722235" lon="10.2859250032">
		<tag k="name" v="Høgloftet" />
		<tag k="natural" v="hill" />
		<tag k="place" v="locality" />
		<tag k="ssr:stedsnr" v="257355" />
	</node>
	<node id="-851513" lat="64.1353666638" lon="10.1489694417">
		<tag k="name" v="Hagadalen" />
		<tag k="natural" v="valley" />
		<tag k="place" v="locality" />
		<tag k="ssr:stedsnr" v="759889" />
	</node>
	<node id="-851512" lat="64.1265138908" lon="10.1230972177">
		<tag k="name" v="Sjøhaugen" />
		<tag k="natural" v="hill" />
		<tag k="place" v="locality" />
		<tag k="ssr:stedsnr" v="31877" />
	</node>
	<node id="-851511" lat="64.1140416691" lon="10.2476833359">
		<tag k="name" v="Vorpaholten" />
		<tag k="natural" v="slope" />
		<tag k="place" v="locality" />
		<tag k="ssr:stedsnr" v="699904" />
	</node>
	<node id="-851508" lat="64.1913777812" lon="10.2687472235">
		<tag k="name" v="Bekkedalen" />
		<tag k="natural" v="valley" />
		<tag k="place" v="locality" />
		<tag k="ssr:stedsnr" v="31005" />
	</node>
	<node id="-851507" lat="64.1984416682" lon="10.2665083346">
		<tag k="fixme" v="consider natural=peak for the most distinct mountains in the district" />
		<tag k="name" v="Ramnen" />
		<tag k="natural" v="hill" />
		<tag k="place" v="locality" />
		<tag k="ssr:stedsnr" v="14015" />
	</node>
	<node id="-851505" lat="64.1881749994" lon="10.4020138825">
		<tag k="name" v="Silkehammardalen" />
		<tag k="natural" v="valley" />
		<tag k="place" v="locality" />
		<tag k="ssr:stedsnr" v="274124" />
	</node>
	<node id="-851502" lat="64.2307916686" lon="10.3716777691">
		<tag k="name" v="Storhøgda" />
		<tag k="natural" v="hill" />
		<tag k="place" v="locality" />
		<tag k="ssr:stedsnr" v="438053" />
	</node>
	<node id="-851500" lat="64.1927527817" lon="10.4165000079">
		<tag k="name" v="Strandalia" />
		<tag k="natural" v="slope" />
		<tag k="place" v="locality" />
		<tag k="ssr:stedsnr" v="456153" />
	</node>
	<node id="-851496" lat="64.2484166672" lon="10.4073277843">
		<tag k="name" v="Dyderskardhaugan" />
		<tag k="natural" v="hill" />
		<tag k="place" v="locality" />
		<tag k="ssr:stedsnr" v="577248" />
	</node>
	<node id="-851494" lat="64.202769444" lon="10.4060305461">
		<tag k="fixme" v="consider natural=peak for the most distinct mountains in the district" />
		<tag k="name" v="Storvarpet" />
		<tag k="natural" v="hill" />
		<tag k="place" v="locality" />
		<tag k="ssr:stedsnr" v="395194" />
	</node>
	<node id="-851489" lat="64.2654611124" lon="10.396119438">
		<tag k="fixme" v="consider natural=peak for the most distinct mountains in the district" />
		<tag k="name" v="Skjeldsrova" />
		<tag k="natural" v="hill" />
		<tag k="place" v="locality" />
		<tag k="ssr:stedsnr" v="577251" />
	</node>
	<node id="-851487" lat="64.2502999986" lon="10.3478833268">
		<tag k="name" v="Nonsvarden" />
		<tag k="natural" v="hill" />
		<tag k="place" v="locality" />
		<tag k="ssr:stedsnr" v="196390" />
	</node>
	<node id="-851484" lat="64.244050002" lon="10.3106250038">
		<tag k="name" v="Sørgården" />
		<tag k="natural" v="valley" />
		<tag k="place" v="locality" />
		<tag k="ssr:stedsnr" v="516042" />
	</node>
	<node id="-851480" lat="64.1996027792" lon="10.3181722286">
		<tag k="fixme" v="consider natural=peak for the most distinct mountains in the district" />
		<tag k="name" v="Høgklumpen" />
		<tag k="natural" v="hill" />
		<tag k="place" v="locality" />
		<tag k="ssr:stedsnr" v="759026" />
	</node>
	<node id="-851479" lat="64.1961500036" lon="10.2971694383">
		<tag k="name" v="Blikkhaugan" />
		<tag k="natural" v="hill" />
		<tag k="place" v="locality" />
		<tag k="ssr:stedsnr" v="759025" />
	</node>
	<node id="-851478" lat="64.1456777742" lon="10.6828999946">
		<tag k="name" v="Litlgrønlia" />
		<tag k="natural" v="slope" />
		<tag k="place" v="locality" />
		<tag k="ssr:stedsnr" v="577254" />
	</node>
	<node id="-851476" lat="64.1806194479" lon="10.5122416661">
		<tag k="name" v="Bjørndalen" />
		<tag k="natural" v="valley" />
		<tag k="place" v="locality" />
		<tag k="ssr:stedsnr" v="335260" />
	</node>
	<node id="-851472" lat="64.1691638916" lon="10.52122499">
		<tag k="fixme" v="consider natural=peak for the most distinct mountains in the district" />
		<tag k="name" v="Tiurleiken" />
		<tag k="natural" v="hill" />
		<tag k="place" v="locality" />
		<tag k="ssr:stedsnr" v="499381" />
	</node>
	<node id="-851464" lat="64.1459083351" lon="10.4698444443">
		<tag k="name" v="Vasslia" />
		<tag k="natural" v="slope" />
		<tag k="place" v="locality" />
		<tag k="ssr:stedsnr" v="577258" />
	</node>
	<node id="-851460" lat="64.108616669" lon="10.3699527706">
		<tag k="name" v="Blankstulia" />
		<tag k="natural" v="slope" />
		<tag k="place" v="locality" />
		<tag k="ssr:stedsnr" v="92245" />
	</node>
	<node id="-851458" lat="64.2079527805" lon="10.4024388835">
		<tag k="name" v="Raudberget" />
		<tag k="natural" v="hill" />
		<tag k="place" v="locality" />
		<tag k="ssr:stedsnr" v="456163" />
	</node>
	<node id="-851456" lat="64.125427782" lon="10.5353111204">
		<tag k="fixme" v="consider natural=peak for the most distinct mountains in the district" />
		<tag k="name" v="Gaupkollan" />
		<tag k="natural" v="hill" />
		<tag k="place" v="locality" />
		<tag k="ssr:stedsnr" v="335254" />
	</node>
	<node id="-851453" lat="64.1342805532" lon="10.338486102">
		<tag k="name" v="Finnkruliklumpen" />
		<tag k="natural" v="hill" />
		<tag k="place" v="locality" />
		<tag k="ssr:stedsnr" v="92244" />
	</node>
	<node id="-851450" lat="64.2153555552" lon="10.2703305604">
		<tag k="name" v="Stormåshaugen" />
		<tag k="natural" v="hill" />
		<tag k="place" v="locality" />
		<tag k="ssr:stedsnr" v="681010" />
	</node>
	<node id="-851449" lat="64.1581388902" lon="10.3286416698">
		<tag k="fixme" v="consider natural=peak for the most distinct mountains in the district" />
		<tag k="name" v="Gammelsetermunken" />
		<tag k="natural" v="hill" />
		<tag k="place" v="locality" />
		<tag k="ssr:stedsnr" v="517725" />
	</node>
	<node id="-851448" lat="64.1387527792" lon="10.4507250056">
		<tag k="fixme" v="consider natural=peak for the most distinct mountains in the district" />
		<tag k="name" v="Grønnliaksla" />
		<tag k="natural" v="hill" />
		<tag k="place" v="locality" />
		<tag k="ssr:stedsnr" v="213365" />
	</node>
	<node id="-851447" lat="64.1976999979" lon="10.234761109">
		<tag k="fixme" v="consider natural=peak for the most distinct mountains in the district" />
		<tag k="name" v="Høvringan" />
		<tag k="natural" v="hill" />
		<tag k="place" v="locality" />
		<tag k="ssr:stedsnr" v="942006" />
	</node>
	<node id="-851443" lat="64.1024694453" lon="10.3056111113">
		<tag k="fixme" v="consider natural=peak for the most distinct mountains in the district" />
		<tag k="name" v="Stortøssklumpen" />
		<tag k="natural" v="hill" />
		<tag k="place" v="locality" />
		<tag k="ssr:stedsnr" v="742323" />
	</node>
	<node id="-851440" lat="64.1897166658" lon="10.2421166588">
		<tag k="name" v="Svartflauget" />
		<tag k="natural" v="cliff" />
		<tag k="ssr:stedsnr" v="942008" />
	</node>
	<node id="-851437" lat="64.2033000027" lon="10.2518583425">
		<tag k="name" v="Ramnsnova" />
		<tag k="natural" v="hill" />
		<tag k="place" v="locality" />
		<tag k="ssr:stedsnr" v="681027" />
	</node>
	<node id="-851433" lat="64.2526249971" lon="10.3383444526">
		<tag k="fixme" v="consider natural=peak for the most distinct mountains in the district" />
		<tag k="name" v="Ner Bjørgan" />
		<tag k="natural" v="hill" />
		<tag k="place" v="locality" />
		<tag k="ssr:stedsnr" v="92238" />
	</node>
	<node id="-851431" lat="64.2010555537" lon="10.4327000074">
		<tag k="fixme" v="consider natural=peak for the most distinct mountains in the district" />
		<tag k="name" v="Svøldret" />
		<tag k="natural" v="hill" />
		<tag k="place" v="locality" />
		<tag k="ssr:stedsnr" v="820170" />
	</node>
	<node id="-851430" lat="64.185802776" lon="10.2580666585">
		<tag k="name" v="Hammaren" />
		<tag k="natural" v="hill" />
		<tag k="place" v="locality" />
		<tag k="ssr:stedsnr" v="759037" />
	</node>
	<node id="-851429" lat="64.1797583342" lon="10.330583326">
		<tag k="fixme" v="consider natural=peak for the most distinct mountains in the district" />
		<tag k="name" v="Bjørnastokken" />
		<tag k="natural" v="hill" />
		<tag k="place" v="locality" />
		<tag k="ssr:stedsnr" v="395177" />
	</node>
	<node id="-851427" lat="64.1831611074" lon="10.2238638804">
		<tag k="name" v="Rognskardet" />
		<tag k="natural" v="valley" />
		<tag k="place" v="locality" />
		<tag k="ssr:stedsnr" v="942011" />
	</node>
	<node id="-851426" lat="64.2758000012" lon="10.359100007">
		<tag k="name" v="Skjelhaugen" />
		<tag k="natural" v="hill" />
		<tag k="place" v="locality" />
		<tag k="ssr:stedsnr" v="577238" />
	</node>
	<node id="-851418" lat="64.1215583377" lon="10.4472111091">
		<tag k="fixme" v="consider natural=peak for the most distinct mountains in the district" />
		<tag k="name" v="Vesterheia" />
		<tag k="natural" v="hill" />
		<tag k="place" v="locality" />
		<tag k="ssr:stedsnr" v="803363" />
	</node>
	<node id="-851411" lat="64.1281638911" lon="10.1509444466">
		<tag k="name" v="Litlkjerka" />
		<tag k="natural" v="ridge" />
		<tag k="place" v="locality" />
		<tag k="ssr:stedsnr" v="699880" />
	</node>
	<node id="-851408" lat="64.1929222239" lon="10.3006583296">
		<tag k="name" v="Homannflauget" />
		<tag k="natural" v="cliff" />
		<tag k="ssr:stedsnr" v="699016" />
	</node>
	<node id="-851399" lat="64.145397219" lon="10.3141833297">
		<tag k="name" v="Småbakkan" />
		<tag k="natural" v="slope" />
		<tag k="place" v="locality" />
		<tag k="ssr:stedsnr" v="274113" />
	</node>
	<node id="-851397" lat="64.194341671" lon="10.2308305576">
		<tag k="name" v="Utrosaubakkan" />
		<tag k="natural" v="slope" />
		<tag k="place" v="locality" />
		<tag k="ssr:stedsnr" v="699011" />
	</node>
	<node id="-851393" lat="64.19269167" lon="10.2777194544">
		<tag k="fixme" v="consider natural=peak for the most distinct mountains in the district" />
		<tag k="name" v="Skårsfjellet" />
		<tag k="natural" v="hill" />
		<tag k="place" v="locality" />
		<tag k="ssr:stedsnr" v="152032" />
	</node>
	<node id="-851391" lat="64.2058972264" lon="10.4249972193">
		<tag k="name" v="Kuppulskardet" />
		<tag k="natural" v="valley" />
		<tag k="place" v="locality" />
		<tag k="ssr:stedsnr" v="681021" />
	</node>
	<node id="-851388" lat="64.0632333352" lon="10.2838944465">
		<tag k="fixme" v="consider natural=peak for the most distinct mountains in the district" />
		<tag k="name" v="Jotjønnheia" />
		<tag k="natural" v="hill" />
		<tag k="place" v="locality" />
		<tag k="ssr:stedsnr" v="74313" />
	</node>
	<node id="-851383" lat="64.1234416676" lon="10.2392361116">
		<tag k="name" v="Langdalen" />
		<tag k="natural" v="valley" />
		<tag k="place" v="locality" />
		<tag k="ssr:stedsnr" v="637079" />
	</node>
	<node id="-851381" lat="64.1686861137" lon="10.3034833291">
		<tag k="name" v="Nord Volia" />
		<tag k="natural" v="slope" />
		<tag k="place" v="locality" />
		<tag k="ssr:stedsnr" v="820126" />
	</node>
	<node id="-851378" lat="64.1402805536" lon="10.3430027828">
		<tag k="name" v="Hyllan" />
		<tag k="natural" v="hill" />
		<tag k="place" v="locality" />
		<tag k="ssr:stedsnr" v="638331" />
	</node>
	<node id="-851377" lat="64.1686361097" lon="10.3207249983">
		<tag k="fixme" v="consider natural=peak for the most distinct mountains in the district" />
		<tag k="name" v="Tveraslitrappen" />
		<tag k="natural" v="hill" />
		<tag k="place" v="locality" />
		<tag k="ssr:stedsnr" v="274095" />
	</node>
	<node id="-851375" lat="64.2334416635" lon="10.2798833419">
		<tag k="name" v="Kåpa" />
		<tag k="natural" v="hill" />
		<tag k="place" v="locality" />
		<tag k="ssr:stedsnr" v="577220" />
	</node>
	<node id="-851374" lat="64.1668722181" lon="10.3583666721">
		<tag k="name" v="Skardlandet" />
		<tag k="natural" v="slope" />
		<tag k="place" v="locality" />
		<tag k="ssr:stedsnr" v="941156" />
	</node>
	<node id="-851371" lat="64.1425361138" lon="10.4515527833">
		<tag k="name" v="Grønnlihallen" />
		<tag k="natural" v="valley" />
		<tag k="place" v="locality" />
		<tag k="ssr:stedsnr" v="213343" />
	</node>
	<node id="-851370" lat="64.1860138875" lon="10.3029194393">
		<tag k="name" v="Rapet" />
		<tag k="natural" v="slope" />
		<tag k="place" v="locality" />
		<tag k="ssr:stedsnr" v="274094" />
	</node>
	<node id="-851369" lat="64.1921472254" lon="10.2667055626">
		<tag k="name" v="Brattlia" />
		<tag k="natural" v="slope" />
		<tag k="place" v="locality" />
		<tag k="ssr:stedsnr" v="759002" />
	</node>
	<node id="-851365" lat="64.1559027809" lon="10.3648944441">
		<tag k="fixme" v="consider natural=peak for the most distinct mountains in the district" />
		<tag k="name" v="Ørnfjellet" />
		<tag k="natural" v="hill" />
		<tag k="place" v="locality" />
		<tag k="ssr:stedsnr" v="13458" />
	</node>
	<node id="-851364" lat="64.2292638883" lon="10.3071111128">
		<tag k="fixme" v="consider natural=peak for the most distinct mountains in the district" />
		<tag k="name" v="Storlia" />
		<tag k="natural" v="hill" />
		<tag k="place" v="locality" />
		<tag k="ssr:stedsnr" v="74044" />
	</node>
	<node id="-851363" lat="64.1189222229" lon="10.2603222202">
		<tag k="name" v="Storsteinen" />
		<tag k="natural" v="slope" />
		<tag k="place" v="locality" />
		<tag k="ssr:stedsnr" v="881060" />
	</node>
	<node id="-851359" lat="64.1776194472" lon="10.0196527859">
		<tag k="name" v="Allmenningskollen" />
		<tag k="natural" v="hill" />
		<tag k="place" v="locality" />
		<tag k="ssr:stedsnr" v="924199" />
	</node>
	<node id="-851357" lat="64.1695694478" lon="10.3373611173">
		<tag k="name" v="Brekklia" />
		<tag k="natural" v="slope" />
		<tag k="place" v="locality" />
		<tag k="ssr:stedsnr" v="941161" />
	</node>
	<node id="-851343" lat="64.2405333351" lon="10.4072944406">
		<tag k="name" v="Halsan" />
		<tag k="natural" v="hill" />
		<tag k="place" v="locality" />
		<tag k="ssr:stedsnr" v="395174" />
	</node>
	<node id="-851339" lat="64.0744777799" lon="10.2851305501">
		<tag k="name" v="Mefjellsdalen" />
		<tag k="natural" v="valley" />
		<tag k="place" v="locality" />
		<tag k="ssr:stedsnr" v="74307" />
	</node>
	<node id="-851337" lat="64.1627722194" lon="10.3159972133">
		<tag k="name" v="Johola" />
		<tag k="natural" v="valley" />
		<tag k="place" v="locality" />
		<tag k="ssr:stedsnr" v="456134" />
	</node>
	<node id="-851336" lat="64.1422138869" lon="10.2119166725">
		<tag k="name" v="Gylta" />
		<tag k="natural" v="hill" />
		<tag k="place" v="locality" />
		<tag k="ssr:stedsnr" v="456135" />
	</node>
	<node id="-851332" lat="64.2712916695" lon="10.3554138821">
		<tag k="name" v="Kleivan" />
		<tag k="natural" v="hill" />
		<tag k="place" v="locality" />
		<tag k="ssr:stedsnr" v="92215" />
	</node>
	<node id="-851330" lat="64.0834361071" lon="10.3277694387">
		<tag k="fixme" v="consider natural=peak for the most distinct mountains in the district" />
		<tag k="name" v="Steinheia" />
		<tag k="natural" v="hill" />
		<tag k="place" v="locality" />
		<tag k="ssr:stedsnr" v="74305" />
	</node>
	<node id="-851328" lat="64.1593277744" lon="10.5159333396">
		<tag k="fixme" v="consider natural=peak for the most distinct mountains in the district" />
		<tag k="name" v="Husfjellet" />
		<tag k="natural" v="hill" />
		<tag k="place" v="locality" />
		<tag k="ssr:stedsnr" v="499352" />
	</node>
	<node id="-851325" lat="64.1489500028" lon="10.1965083255">
		<tag k="fixme" v="consider natural=peak for the most distinct mountains in the district" />
		<tag k="name" v="Stifjellet" />
		<tag k="natural" v="hill" />
		<tag k="place" v="locality" />
		<tag k="ssr:stedsnr" v="820138" />
	</node>
	<node id="-851324" lat="64.1986249985" lon="10.4283638829">
		<tag k="name" v="Hongdalen" />
		<tag k="natural" v="valley" />
		<tag k="place" v="locality" />
		<tag k="ssr:stedsnr" v="395152" />
	</node>
	<node id="-851322" lat="64.2069694431" lon="10.4930638832">
		<tag k="name" v="Sørkrummen" />
		<tag k="natural" v="valley" />
		<tag k="place" v="locality" />
		<tag k="ssr:stedsnr" v="517250" />
	</node>
	<node id="-851317" lat="64.2449277756" lon="10.3348944474">
		<tag k="name" v="Bjørklia" />
		<tag k="natural" v="slope" />
		<tag k="place" v="locality" />
		<tag k="ssr:stedsnr" v="577210" />
	</node>
	<node id="-851316" lat="64.2323499969" lon="10.302647228">
		<tag k="name" v="Joholet" />
		<tag k="natural" v="valley" />
		<tag k="place" v="locality" />
		<tag k="ssr:stedsnr" v="92208" />
	</node>
	<node id="-851312" lat="64.145708331" lon="10.5293777704">
		<tag k="fixme" v="consider natural=peak for the most distinct mountains in the district" />
		<tag k="name" v="Slåttånebben" />
		<tag k="natural" v="hill" />
		<tag k="place" v="locality" />
		<tag k="ssr:stedsnr" v="196364" />
	</node>
	<node id="-851311" lat="64.1400138862" lon="10.1942444511">
		<tag k="name" v="Bernvika" />
		<tag k="natural" v="slope" />
		<tag k="place" v="locality" />
		<tag k="ssr:stedsnr" v="820132" />
	</node>
	<node id="-851310" lat="64.1938305599" lon="10.2548916753">
		<tag k="name" v="Båthaugen" />
		<tag k="natural" v="hill" />
		<tag k="place" v="locality" />
		<tag k="ssr:stedsnr" v="759007" />
	</node>
	<node id="-851309" lat="64.1241527795" lon="10.2994944359">
		<tag k="name" v="Stormoen" />
		<tag k="place" v="locality" />
		<tag k="ssr:stedsnr" v="881063" />
	</node>
	<node id="-851307" lat="64.1306499964" lon="10.2619805501">
		<tag k="fixme" v="consider natural=peak for the most distinct mountains in the district" />
		<tag k="name" v="Løsligavvelen" />
		<tag k="natural" v="hill" />
		<tag k="place" v="locality" />
		<tag k="ssr:stedsnr" v="637084" />
	</node>
	<node id="-851305" lat="64.1557694417" lon="10.3196694543">
		<tag k="name" v="Einarsdalen" />
		<tag k="natural" v="valley" />
		<tag k="place" v="locality" />
		<tag k="ssr:stedsnr" v="741495" />
	</node>
	<node id="-851300" lat="64.1185499964" lon="10.2777611057">
		<tag k="fixme" v="consider natural=peak for the most distinct mountains in the district" />
		<tag k="name" v="Heggfjellheia" />
		<tag k="natural" v="hill" />
		<tag k="place" v="locality" />
		<tag k="ssr:stedsnr" v="439356" />
	</node>
	<node id="-851299" lat="64.1463166635" lon="10.3960388972">
		<tag k="fixme" v="consider natural=peak for the most distinct mountains in the district" />
		<tag k="name" v="Haraheia" />
		<tag k="natural" v="hill" />
		<tag k="place" v="locality" />
		<tag k="ssr:stedsnr" v="13446" />
	</node>
	<node id="-851298" lat="64.1893166643" lon="10.2375444522">
		<tag k="fixme" v="consider natural=peak for the most distinct mountains in the district" />
		<tag k="name" v="Grønnlifjellet" />
		<tag k="natural" v="hill" />
		<tag k="place" v="locality" />
		<tag k="ssr:stedsnr" v="152007" />
	</node>
	<node id="-851296" lat="64.1215472227" lon="10.2546361128">
		<tag k="fixme" v="consider natural=peak for the most distinct mountains in the district" />
		<tag k="name" v="Brennholten" />
		<tag k="natural" v="hill" />
		<tag k="place" v="locality" />
		<tag k="ssr:stedsnr" v="881067" />
	</node>
	<node id="-851292" lat="64.1867499979" lon="10.3412972244">
		<tag k="name" v="Storsteinheia" />
		<tag k="natural" v="hill" />
		<tag k="place" v="locality" />
		<tag k="ssr:stedsnr" v="395155" />
	</node>
	<node id="-851291" lat="64.1572694441" lon="10.5721916636">
		<tag k="name" v="Granskardet" />
		<tag k="natural" v="valley" />
		<tag k="place" v="locality" />
		<tag k="ssr:stedsnr" v="741493" />
	</node>
	<node id="-851290" lat="64.0975777766" lon="10.2603722216">
		<tag k="name" v="Staværingsliheia" />
		<tag k="natural" v="hill" />
		<tag k="place" v="locality" />
		<tag k="ssr:stedsnr" v="274084" />
	</node>
	<node id="-851280" lat="64.1867944471" lon="10.3397861097">
		<tag k="name" v="Kartholet" />
		<tag k="natural" v="valley" />
		<tag k="place" v="locality" />
		<tag k="ssr:stedsnr" v="941131" />
	</node>
	<node id="-851278" lat="64.1127166654" lon="10.2888472192">
		<tag k="fixme" v="consider natural=peak for the most distinct mountains in the district" />
		<tag k="name" v="Seterholklumpen" />
		<tag k="natural" v="hill" />
		<tag k="place" v="locality" />
		<tag k="ssr:stedsnr" v="439348" />
	</node>
	<node id="-851277" lat="64.1203305595" lon="10.3495111137">
		<tag k="fixme" v="consider natural=peak for the most distinct mountains in the district" />
		<tag k="name" v="Mosaheia" />
		<tag k="natural" v="hill" />
		<tag k="place" v="locality" />
		<tag k="ssr:stedsnr" v="75371" />
	</node>
	<node id="-851274" lat="64.2486555564" lon="10.3784138963">
		<tag k="name" v="Kallarhyllhaugan" />
		<tag k="natural" v="hill" />
		<tag k="place" v="locality" />
		<tag k="ssr:stedsnr" v="577196" />
	</node>
	<node id="-851272" lat="64.1953027784" lon="10.2051361113">
		<tag k="name" v="Oterhaugen" />
		<tag k="natural" v="hill" />
		<tag k="place" v="locality" />
		<tag k="ssr:stedsnr" v="637048" />
	</node>
	<node id="-851270" lat="64.2026805531" lon="10.4135999998">
		<tag k="fixme" v="consider natural=peak for the most distinct mountains in the district" />
		<tag k="name" v="Bjørnastokken" />
		<tag k="natural" v="hill" />
		<tag k="place" v="locality" />
		<tag k="ssr:stedsnr" v="941122" />
	</node>
	<node id="-851269" lat="64.1957499982" lon="10.1990861167">
		<tag k="name" v="Litlvikhaugen" />
		<tag k="natural" v="hill" />
		<tag k="place" v="locality" />
		<tag k="ssr:stedsnr" v="637047" />
	</node>
	<node id="-851268" lat="64.2105527797" lon="10.3971305565">
		<tag k="name" v="Botnan" />
		<tag k="natural" v="valley" />
		<tag k="place" v="locality" />
		<tag k="ssr:stedsnr" v="135021" />
	</node>
	<node id="-851265" lat="64.2497194477" lon="10.3674833403">
		<tag k="name" v="Smådalan" />
		<tag k="natural" v="valley" />
		<tag k="place" v="locality" />
		<tag k="ssr:stedsnr" v="92186" />
	</node>
	<node id="-851263" lat="64.1365333322" lon="10.4397861065">
		<tag k="name" v="Gjertruskardet" />
		<tag k="natural" v="valley" />
		<tag k="place" v="locality" />
		<tag k="ssr:stedsnr" v="213311" />
	</node>
	<node id="-851260" lat="64.1093111143" lon="10.2560749941">
		<tag k="name" v="Lussiberget" />
		<tag k="natural" v="hill" />
		<tag k="place" v="locality" />
		<tag k="ssr:stedsnr" v="881898" />
	</node>
	<node id="-851259" lat="64.1892333367" lon="10.4719916713">
		<tag k="name" v="Nordseterlia" />
		<tag k="natural" v="slope" />
		<tag k="place" v="locality" />
		<tag k="ssr:stedsnr" v="152393" />
	</node>
	<node id="-851256" lat="64.1626416683" lon="10.4497361128">
		<tag k="name" v="Gammelolamoen" />
		<tag k="natural" v="slope" />
		<tag k="place" v="locality" />
		<tag k="ssr:stedsnr" v="638295" />
	</node>
	<node id="-851255" lat="64.1186833348" lon="10.2480500027">
		<tag k="name" v="Storospkollen" />
		<tag k="natural" v="hill" />
		<tag k="place" v="locality" />
		<tag k="ssr:stedsnr" v="820094" />
	</node>
	<node id="-851254" lat="64.0703305533" lon="10.3752388954">
		<tag k="fixme" v="consider natural=peak for the most distinct mountains in the district" />
		<tag k="name" v="Langsteinheia" />
		<tag k="natural" v="hill" />
		<tag k="place" v="locality" />
		<tag k="ssr:stedsnr" v="438288" />
	</node>
	<node id="-851253" lat="64.1156361127" lon="10.2790194407">
		<tag k="name" v="Smølmoliheia" />
		<tag k="natural" v="hill" />
		<tag k="place" v="locality" />
		<tag k="ssr:stedsnr" v="439351" />
	</node>
	<node id="-851252" lat="64.1903666661" lon="10.2254361213">
		<tag k="alt_name" v="Storfjellklumpen" />
		<tag k="fixme" v="consider natural=peak for the most distinct mountains in the district" />
		<tag k="name" v="Storfjellklumpan" />
		<tag k="natural" v="hill" />
		<tag k="place" v="locality" />
		<tag k="ssr:stedsnr" v="377490" />
	</node>
	<node id="-851249" lat="64.1944249961" lon="10.2287027854">
		<tag k="fixme" v="consider natural=peak for the most distinct mountains in the district" />
		<tag k="name" v="Brennfjellet" />
		<tag k="natural" v="hill" />
		<tag k="place" v="locality" />
		<tag k="ssr:stedsnr" v="620478" />
	</node>
	<node id="-851248" lat="64.283119442" lon="10.3668000009">
		<tag k="alt_name" v="Stormostra" />
		<tag k="name" v="Mostra" />
		<tag k="natural" v="hill" />
		<tag k="place" v="locality" />
		<tag k="ssr:stedsnr" v="803593" />
	</node>
	<node id="-851245" lat="64.1803388915" lon="10.3869194355">
		<tag k="name" v="Vargmyrpynten" />
		<tag k="natural" v="hill" />
		<tag k="place" v="locality" />
		<tag k="ssr:stedsnr" v="92181" />
	</node>
	<node id="-851243" lat="64.1777833329" lon="10.375613895">
		<tag k="name" v="Esingfjellet" />
		<tag k="natural" v="hill" />
		<tag k="place" v="locality" />
		<tag k="ssr:stedsnr" v="577178" />
	</node>
	<node id="-851242" lat="64.2021611068" lon="10.394313883">
		<tag k="name" v="Nausthaugen" />
		<tag k="natural" v="hill" />
		<tag k="place" v="locality" />
		<tag k="ssr:stedsnr" v="92180" />
	</node>
	<node id="-851231" lat="64.1378694454" lon="10.4471972234">
		<tag k="fixme" v="consider natural=peak for the most distinct mountains in the district" />
		<tag k="name" v="Grønnlia" />
		<tag k="natural" v="hill" />
		<tag k="place" v="locality" />
		<tag k="ssr:stedsnr" v="196354" />
	</node>
	<node id="-851227" lat="64.112997221" lon="10.1567138828">
		<tag k="name" v="Furuhaugan" />
		<tag k="natural" v="hill" />
		<tag k="place" v="locality" />
		<tag k="ssr:stedsnr" v="213307" />
	</node>
	<node id="-851225" lat="64.1350000024" lon="10.1646083409">
		<tag k="name" v="Kammen" />
		<tag k="natural" v="ridge" />
		<tag k="place" v="locality" />
		<tag k="ssr:stedsnr" v="274901" />
	</node>
	<node id="-851217" lat="64.2412472219" lon="10.3174194363">
		<tag k="name" v="Bessakerskardet" />
		<tag k="natural" v="valley" />
		<tag k="place" v="locality" />
		<tag k="ssr:stedsnr" v="881039" />
	</node>
	<node id="-851216" lat="64.2607361091" lon="10.38490833">
		<tag k="alt_name" v="Skjelden" />
		<tag k="fixme" v="consider natural=peak for the most distinct mountains in the district" />
		<tag k="name" v="Vikskjelm" />
		<tag k="natural" v="hill" />
		<tag k="place" v="locality" />
		<tag k="ssr:stedsnr" v="263456" />
	</node>
	<node id="-851209" lat="64.1261111069" lon="10.6079694388">
		<tag k="name" v="Pissbekklia" />
		<tag k="natural" v="slope" />
		<tag k="place" v="locality" />
		<tag k="ssr:stedsnr" v="152385" />
	</node>
	<node id="-851207" lat="64.1203916631" lon="10.2739138827">
		<tag k="name" v="Trollskardet" />
		<tag k="natural" v="valley" />
		<tag k="place" v="locality" />
		<tag k="ssr:stedsnr" v="274060" />
	</node>
	<node id="-851203" lat="64.1165722197" lon="10.2728861159">
		<tag k="name" v="Djupdalen" />
		<tag k="natural" v="valley" />
		<tag k="place" v="locality" />
		<tag k="ssr:stedsnr" v="820108" />
	</node>
	<node id="-851202" lat="64.1403749969" lon="10.5504777828">
		<tag k="fixme" v="consider natural=peak for the most distinct mountains in the district" />
		<tag k="name" v="Storheia" />
		<tag k="natural" v="hill" />
		<tag k="place" v="locality" />
		<tag k="ssr:stedsnr" v="196349" />
	</node>
	<node id="-851198" lat="64.2055416661" lon="10.4798388883">
		<tag k="alt_name" v="Setervasshøgda" />
		<tag k="fixme" v="consider natural=peak for the most distinct mountains in the district" />
		<tag k="name" v="Fremre Setervasshøgda" />
		<tag k="natural" v="hill" />
		<tag k="place" v="locality" />
		<tag k="ssr:stedsnr" v="135015" />
	</node>
	<node id="-851197" lat="64.1209388886" lon="10.2237527842">
		<tag k="fixme" v="consider natural=peak for the most distinct mountains in the district" />
		<tag k="name" v="Ørnfuruheia" />
		<tag k="natural" v="hill" />
		<tag k="place" v="locality" />
		<tag k="ssr:stedsnr" v="864408" />
	</node>
	<node id="-851196" lat="64.1376666634" lon="10.6420666686">
		<tag k="fixme" v="consider natural=peak for the most distinct mountains in the district" />
		<tag k="name" v="Vargfossheia" />
		<tag k="natural" v="hill" />
		<tag k="place" v="locality" />
		<tag k="ssr:stedsnr" v="196350" />
	</node>
	<node id="-851194" lat="64.2409250003" lon="10.4001749978">
		<tag k="name" v="Klaven" />
		<tag k="natural" v="slope" />
		<tag k="place" v="locality" />
		<tag k="ssr:stedsnr" v="941140" />
	</node>
	<node id="-851193" lat="64.236930555" lon="10.2897277748">
		<tag k="name" v="Vettavikhaugen" />
		<tag k="natural" v="hill" />
		<tag k="place" v="locality" />
		<tag k="ssr:stedsnr" v="274041" />
	</node>
	<node id="-851192" lat="64.2159888882" lon="10.5147694353">
		<tag k="name" v="Vardeheia" />
		<tag k="natural" v="hill" />
		<tag k="place" v="locality" />
		<tag k="ssr:stedsnr" v="135010" />
	</node>
	<node id="-851191" lat="64.2058861139" lon="10.3186694402">
		<tag k="name" v="Kroken" />
		<tag k="natural" v="valley" />
		<tag k="place" v="locality" />
		<tag k="ssr:stedsnr" v="456072" />
	</node>
	<node id="-851190" lat="64.1302111095" lon="10.4131777854">
		<tag k="name" v="Rørholklumpen" />
		<tag k="natural" v="hill" />
		<tag k="place" v="locality" />
		<tag k="ssr:stedsnr" v="499328" />
	</node>
	<node id="-851188" lat="64.1405111119" lon="10.4216888842">
		<tag k="name" v="Tverrheia" />
		<tag k="natural" v="hill" />
		<tag k="place" v="locality" />
		<tag k="ssr:stedsnr" v="334312" />
	</node>
	<node id="-851187" lat="64.1901638879" lon="10.2716583274">
		<tag k="fixme" v="consider natural=peak for the most distinct mountains in the district" />
		<tag k="name" v="Vikafjellet" />
		<tag k="natural" v="hill" />
		<tag k="place" v="locality" />
		<tag k="ssr:stedsnr" v="881005" />
	</node>
	<node id="-851186" lat="64.1894500027" lon="10.2776361106">
		<tag k="name" v="Stikkarrova" />
		<tag k="natural" v="valley" />
		<tag k="place" v="locality" />
		<tag k="ssr:stedsnr" v="637025" />
	</node>
	<node id="-851183" lat="64.1110638849" lon="10.2560666634">
		<tag k="name" v="Oterstokken" />
		<tag k="natural" v="hill" />
		<tag k="place" v="locality" />
		<tag k="ssr:stedsnr" v="274889" />
	</node>
	<node id="-851176" lat="64.1939611136" lon="10.3275194352">
		<tag k="fixme" v="consider natural=peak for the most distinct mountains in the district" />
		<tag k="name" v="Hagafjellet" />
		<tag k="natural" v="hill" />
		<tag k="place" v="locality" />
		<tag k="ssr:stedsnr" v="377476" />
	</node>
	<node id="-851175" lat="64.2001638896" lon="10.2122750096">
		<tag k="name" v="Buafjellet" />
		<tag k="natural" v="hill" />
		<tag k="place" v="locality" />
		<tag k="ssr:stedsnr" v="274049" />
	</node>
	<node id="-851168" lat="64.177847219" lon="10.4016638801">
		<tag k="name" v="Moltholet" />
		<tag k="natural" v="valley" />
		<tag k="place" v="locality" />
		<tag k="ssr:stedsnr" v="942336" />
	</node>
	<node id="-851167" lat="64.228702782" lon="10.3560694439">
		<tag k="fixme" v="consider natural=peak for the most distinct mountains in the district" />
		<tag k="name" v="Blåfjellet" />
		<tag k="natural" v="hill" />
		<tag k="place" v="locality" />
		<tag k="ssr:stedsnr" v="196056" />
	</node>
	<node id="-851163" lat="64.1147861136" lon="10.175269439">
		<tag k="name" v="Vassbakkan" />
		<tag k="natural" v="slope" />
		<tag k="place" v="locality" />
		<tag k="ssr:stedsnr" v="820934" />
	</node>
	<node id="-851161" lat="64.1868444422" lon="10.2851638846">
		<tag k="fixme" v="consider natural=peak for the most distinct mountains in the district" />
		<tag k="name" v="Nordfjellet" />
		<tag k="natural" v="hill" />
		<tag k="place" v="locality" />
		<tag k="ssr:stedsnr" v="620462" />
	</node>
	<node id="-851156" lat="64.2317916697" lon="10.2869805592">
		<tag k="name" v="Raudhøgda" />
		<tag k="natural" v="hill" />
		<tag k="place" v="locality" />
		<tag k="ssr:stedsnr" v="274043" />
	</node>
	<node id="-851153" lat="64.1157499967" lon="10.2337666564">
		<tag k="name" v="Lian" />
		<tag k="natural" v="slope" />
		<tag k="place" v="locality" />
		<tag k="ssr:stedsnr" v="274880" />
	</node>
	<node id="-851150" lat="64.2165250033" lon="10.3995166707">
		<tag k="name" v="Granholhalsen" />
		<tag k="natural" v="slope" />
		<tag k="place" v="locality" />
		<tag k="ssr:stedsnr" v="577150" />
	</node>
	<node id="-851148" lat="64.185513893" lon="10.2094527732">
		<tag k="name" v="Slåtta" />
		<tag k="natural" v="hill" />
		<tag k="place" v="locality" />
		<tag k="ssr:stedsnr" v="637040" />
	</node>
	<node id="-851147" lat="64.1340611143" lon="10.1354750048">
		<tag k="name" v="Fjøshaugen" />
		<tag k="natural" v="hill" />
		<tag k="place" v="locality" />
		<tag k="ssr:stedsnr" v="85443" />
	</node>
	<node id="-851144" lat="64.195961108" lon="10.5070944382">
		<tag k="name" v="Nesatjønnlia" />
		<tag k="natural" v="slope" />
		<tag k="place" v="locality" />
		<tag k="ssr:stedsnr" v="31351" />
	</node>
	<node id="-851142" lat="64.1576222266" lon="10.5396638853">
		<tag k="fixme" v="consider natural=peak for the most distinct mountains in the district" />
		<tag k="name" v="Åsan" />
		<tag k="natural" v="hill" />
		<tag k="place" v="locality" />
		<tag k="ssr:stedsnr" v="638720" />
	</node>
	<node id="-851137" lat="64.1866027792" lon="10.2141444492">
		<tag k="name" v="Fjøshaugen" />
		<tag k="natural" v="hill" />
		<tag k="place" v="locality" />
		<tag k="ssr:stedsnr" v="456060" />
	</node>
	<node id="-851135" lat="64.1200861103" lon="10.6951666605">
		<tag k="fixme" v="consider natural=peak for the most distinct mountains in the district" />
		<tag k="name" v="Skurvklumpan" />
		<tag k="natural" v="hill" />
		<tag k="place" v="locality" />
		<tag k="ssr:stedsnr" v="196336" />
	</node>
	<node id="-851133" lat="64.1908166627" lon="10.2786916674">
		<tag k="fixme" v="consider natural=peak for the most distinct mountains in the district" />
		<tag k="name" v="Slottsfjellet" />
		<tag k="natural" v="hill" />
		<tag k="place" v="locality" />
		<tag k="ssr:stedsnr" v="274023" />
	</node>
	<node id="-851132" lat="64.2339916654" lon="10.2992694489">
		<tag k="name" v="Langhaugen" />
		<tag k="natural" v="hill" />
		<tag k="place" v="locality" />
		<tag k="ssr:stedsnr" v="456058" />
	</node>
	<node id="-851130" lat="64.1804527771" lon="10.391905552">
		<tag k="name" v="Tronghaugen" />
		<tag k="natural" v="hill" />
		<tag k="place" v="locality" />
		<tag k="ssr:stedsnr" v="31348" />
	</node>
	<node id="-851125" lat="64.2362777776" lon="10.3086138949">
		<tag k="name" v="Bjørndalen" />
		<tag k="natural" v="valley" />
		<tag k="place" v="locality" />
		<tag k="ssr:stedsnr" v="274033" />
	</node>
	<node id="-851123" lat="64.2437527751" lon="10.3965027695">
		<tag k="name" v="Øykmarka" />
		<tag k="natural" v="hill" />
		<tag k="place" v="locality" />
		<tag k="ssr:stedsnr" v="577157" />
	</node>
	<node id="-851120" lat="64.1855527756" lon="10.2939416589">
		<tag k="name" v="Saubakkan" />
		<tag k="natural" v="slope" />
		<tag k="place" v="locality" />
		<tag k="ssr:stedsnr" v="274031" />
	</node>
	<node id="-851118" lat="64.0985305548" lon="10.2472750042">
		<tag k="fixme" v="consider natural=peak for the most distinct mountains in the district" />
		<tag k="name" v="Lauvneskammen" />
		<tag k="natural" v="hill" />
		<tag k="place" v="locality" />
		<tag k="ssr:stedsnr" v="577160" />
	</node>
	<node id="-851115" lat="64.1572972187" lon="10.52342778">
		<tag k="fixme" v="consider natural=peak for the most distinct mountains in the district" />
		<tag k="name" v="Kvitrantan" />
		<tag k="natural" v="hill" />
		<tag k="place" v="locality" />
		<tag k="ssr:stedsnr" v="638712" />
	</node>
	<node id="-851109" lat="64.2363972211" lon="10.2966027678">
		<tag k="name" v="Sandmohaugen" />
		<tag k="natural" v="hill" />
		<tag k="place" v="locality" />
		<tag k="ssr:stedsnr" v="820044" />
	</node>
	<node id="-851106" lat="64.150047221" lon="10.3525277697">
		<tag k="name" v="Dyrmoen" />
		<tag k="place" v="locality" />
		<tag k="ssr:stedsnr" v="942318" />
	</node>
	<node id="-851105" lat="64.1812916682" lon="10.3324972172">
		<tag k="name" v="Hagaskardet" />
		<tag k="natural" v="valley" />
		<tag k="place" v="locality" />
		<tag k="ssr:stedsnr" v="335144" />
	</node>
	<node id="-851103" lat="64.2403548417" lon="10.3186221863">
		<tag k="fixme" v="consider natural=peak for the most distinct mountains in the district" />
		<tag k="name" v="Bessakerfjellet" />
		<tag k="natural" v="hill" />
		<tag k="place" v="locality" />
		<tag k="ssr:stedsnr" v="820043" />
	</node>
	<node id="-851100" lat="64.1204499977" lon="10.2365027719">
		<tag k="name" v="Skavdalen" />
		<tag k="natural" v="valley" />
		<tag k="place" v="locality" />
		<tag k="ssr:stedsnr" v="395084" />
	</node>
	<node id="-851097" lat="64.1892750041" lon="10.3990861129">
		<tag k="fixme" v="consider natural=peak for the most distinct mountains in the district" />
		<tag k="name" v="Bomlia" />
		<tag k="natural" v="hill" />
		<tag k="place" v="locality" />
		<tag k="ssr:stedsnr" v="620449" />
	</node>
	<node id="-851094" lat="64.2343666651" lon="10.289175009">
		<tag k="name" v="Heggehaugen" />
		<tag k="natural" v="hill" />
		<tag k="place" v="locality" />
		<tag k="ssr:stedsnr" v="820048" />
	</node>
	<node id="-851093" lat="64.0935638882" lon="10.3471111119">
		<tag k="fixme" v="consider natural=peak for the most distinct mountains in the district" />
		<tag k="name" v="Stortøssliheia" />
		<tag k="natural" v="hill" />
		<tag k="place" v="locality" />
		<tag k="ssr:stedsnr" v="439317" />
	</node>
	<node id="-851092" lat="64.1154777735" lon="10.140730556">
		<tag k="name" v="Brannhaugen" />
		<tag k="natural" v="hill" />
		<tag k="place" v="locality" />
		<tag k="ssr:stedsnr" v="85437" />
	</node>
	<node id="-851087" lat="64.178372223" lon="10.3263611106">
		<tag k="name" v="Kuskardet" />
		<tag k="natural" v="valley" />
		<tag k="place" v="locality" />
		<tag k="ssr:stedsnr" v="335141" />
	</node>
	<node id="-851085" lat="64.223625" lon="10.4088388846">
		<tag k="name" v="Trolldalen" />
		<tag k="natural" v="valley" />
		<tag k="place" v="locality" />
		<tag k="ssr:stedsnr" v="92140" />
	</node>
	<node id="-851082" lat="64.2656027742" lon="10.3990611037">
		<tag k="name" v="Skjeldsberga" />
		<tag k="natural" v="hill" />
		<tag k="place" v="locality" />
		<tag k="ssr:stedsnr" v="213259" />
	</node>
	<node id="-851081" lat="64.1677055591" lon="10.4425527881">
		<tag k="name" v="Kvernhuslia" />
		<tag k="natural" v="slope" />
		<tag k="place" v="locality" />
		<tag k="ssr:stedsnr" v="152344" />
	</node>
	<node id="-851075" lat="64.193100002" lon="10.2216250071">
		<tag k="fixme" v="consider natural=peak for the most distinct mountains in the district" />
		<tag k="name" v="Mannsåsen" />
		<tag k="natural" v="hill" />
		<tag k="place" v="locality" />
		<tag k="ssr:stedsnr" v="681485" />
	</node>
	<node id="-851072" lat="64.2019388905" lon="10.2269999948">
		<tag k="alt_name" v="Sjøstein" />
		<tag k="name" v="Sjøsteinen" />
		<tag k="natural" v="hill" />
		<tag k="place" v="locality" />
		<tag k="ssr:stedsnr" v="559029" />
	</node>
	<node id="-851071" lat="64.1001916641" lon="10.2805388946">
		<tag k="name" v="Bjørnahaugen" />
		<tag k="natural" v="hill" />
		<tag k="place" v="locality" />
		<tag k="ssr:stedsnr" v="395089" />
	</node>
	<node id="-851070" lat="64.2432027777" lon="10.3146694394">
		<tag k="name" v="Småhaugan" />
		<tag k="natural" v="hill" />
		<tag k="place" v="locality" />
		<tag k="ssr:stedsnr" v="456046" />
	</node>
	<node id="-851064" lat="64.0782694408" lon="10.1856527821">
		<tag k="fixme" v="consider natural=peak for the most distinct mountains in the district" />
		<tag k="name" v="Krokanfjellet" />
		<tag k="natural" v="hill" />
		<tag k="place" v="locality" />
		<tag k="ssr:stedsnr" v="151504" />
	</node>
	<node id="-851063" lat="64.1046750021" lon="10.2630861046">
		<tag k="name" v="Haratoklumpen" />
		<tag k="natural" v="hill" />
		<tag k="place" v="locality" />
		<tag k="ssr:stedsnr" v="864371" />
	</node>
	<node id="-851062" lat="64.2717055529" lon="10.3435833373">
		<tag k="name" v="Hattaberga" />
		<tag k="natural" v="hill" />
		<tag k="place" v="locality" />
		<tag k="ssr:stedsnr" v="517192" />
	</node>
	<node id="-851061" lat="64.1730138857" lon="10.2853888942">
		<tag k="fixme" v="consider natural=peak for the most distinct mountains in the district" />
		<tag k="name" v="Middagsfjellet" />
		<tag k="natural" v="hill" />
		<tag k="place" v="locality" />
		<tag k="ssr:stedsnr" v="620446" />
	</node>
	<node id="-851059" lat="64.189833331" lon="10.3639527844">
		<tag k="name" v="Haukneslian" />
		<tag k="natural" v="slope" />
		<tag k="place" v="locality" />
		<tag k="ssr:stedsnr" v="329055" />
	</node>
	<node id="-851056" lat="64.1122416633" lon="10.6321277691">
		<tag k="alt_name" v="Pissbekk-klumpan" />
		<tag k="fixme" v="consider natural=peak for the most distinct mountains in the district" />
		<tag k="name" v="Pissbekklumpan" />
		<tag k="natural" v="hill" />
		<tag k="place" v="locality" />
		<tag k="ssr:stedsnr" v="864370" />
	</node>
	<node id="-851055" lat="64.177411111" lon="10.4380749916">
		<tag k="name" v="Leirdammen" />
		<tag k="natural" v="valley" />
		<tag k="place" v="locality" />
		<tag k="ssr:stedsnr" v="152346" />
	</node>
	<node id="-851052" lat="64.1597138898" lon="10.3402527855">
		<tag k="name" v="Bonfjellkollen" />
		<tag k="natural" v="hill" />
		<tag k="place" v="locality" />
		<tag k="ssr:stedsnr" v="759332" />
	</node>
	<node id="-851048" lat="64.1440611097" lon="10.1810166705">
		<tag k="name" v="Seiberget" />
		<tag k="natural" v="hill" />
		<tag k="place" v="locality" />
		<tag k="ssr:stedsnr" v="456903" />
	</node>
	<node id="-851047" lat="64.1480250032" lon="10.1829083391">
		<tag k="name" v="Myra" />
		<tag k="place" v="locality" />
		<tag k="ssr:stedsnr" v="620190" />
	</node>
	<node id="-851044" lat="64.1536861113" lon="10.3443222314">
		<tag k="name" v="Vesterlia" />
		<tag k="natural" v="slope" />
		<tag k="place" v="locality" />
		<tag k="ssr:stedsnr" v="31325" />
	</node>
	<node id="-851043" lat="64.1293694449" lon="10.6196305602">
		<tag k="fixme" v="consider natural=peak for the most distinct mountains in the district" />
		<tag k="name" v="Fremmer Hallen" />
		<tag k="natural" v="hill" />
		<tag k="place" v="locality" />
		<tag k="ssr:stedsnr" v="881432" />
	</node>
	<node id="-851041" lat="64.1778611109" lon="10.3958027777">
		<tag k="name" v="Staslia" />
		<tag k="natural" v="slope" />
		<tag k="place" v="locality" />
		<tag k="ssr:stedsnr" v="942333" />
	</node>
	<node id="-851036" lat="64.1911750024" lon="10.2149861017">
		<tag k="name" v="Hellskardet" />
		<tag k="natural" v="valley" />
		<tag k="place" v="locality" />
		<tag k="ssr:stedsnr" v="637008" />
	</node>
	<node id="-851030" lat="64.159669442" lon="10.3788000054">
		<tag k="fixme" v="consider natural=peak for the most distinct mountains in the district" />
		<tag k="name" v="Tverrvassklumpen" />
		<tag k="natural" v="hill" />
		<tag k="place" v="locality" />
		<tag k="ssr:stedsnr" v="699343" />
	</node>
	<node id="-851029" lat="64.1450972218" lon="10.2073888906">
		<tag k="fixme" v="consider natural=peak for the most distinct mountains in the district" />
		<tag k="name" v="Himmerikfjellet" />
		<tag k="natural" v="hill" />
		<tag k="place" v="locality" />
		<tag k="ssr:stedsnr" v="256194" />
	</node>
	<node id="-851026" lat="64.1882499992" lon="10.4055888791">
		<tag k="fixme" v="consider natural=peak for the most distinct mountains in the district" />
		<tag k="name" v="Silkehammaren" />
		<tag k="natural" v="hill" />
		<tag k="place" v="locality" />
		<tag k="ssr:stedsnr" v="92118" />
	</node>
	<node id="-851023" lat="64.1472138868" lon="10.551194438">
		<tag k="name" v="Svarttjønnrantan" />
		<tag k="natural" v="hill" />
		<tag k="place" v="locality" />
		<tag k="ssr:stedsnr" v="152746" />
	</node>
	<node id="-851022" lat="64.1878638915" lon="10.2894194504">
		<tag k="name" v="Pallen" />
		<tag k="natural" v="slope" />
		<tag k="place" v="locality" />
		<tag k="ssr:stedsnr" v="456038" />
	</node>
	<node id="-851021" lat="64.2135250017" lon="10.4119305653">
		<tag k="fixme" v="consider natural=peak for the most distinct mountains in the district" />
		<tag k="name" v="Skomakarfjellet" />
		<tag k="natural" v="hill" />
		<tag k="place" v="locality" />
		<tag k="ssr:stedsnr" v="803017" />
	</node>
	<node id="-851019" lat="64.1880138933" lon="10.3650305658">
		<tag k="fixme" v="consider natural=peak for the most distinct mountains in the district" />
		<tag k="name" v="Tømmerhylla" />
		<tag k="natural" v="hill" />
		<tag k="place" v="locality" />
		<tag k="ssr:stedsnr" v="92123" />
	</node>
	<node id="-851018" lat="64.1890416657" lon="10.3957499932">
		<tag k="fixme" v="consider natural=peak for the most distinct mountains in the district" />
		<tag k="name" v="Olvassfjellet" />
		<tag k="natural" v="hill" />
		<tag k="place" v="locality" />
		<tag k="ssr:stedsnr" v="577135" />
	</node>
	<node id="-851013" lat="64.1213555577" lon="10.2840083236">
		<tag k="name" v="Tiskardklumpen" />
		<tag k="natural" v="hill" />
		<tag k="place" v="locality" />
		<tag k="ssr:stedsnr" v="196316" />
	</node>
	<node id="-851009" lat="64.1483472183" lon="10.332805555">
		<tag k="name" v="Martaseterdalen" />
		<tag k="natural" v="valley" />
		<tag k="place" v="locality" />
		<tag k="ssr:stedsnr" v="942731" />
	</node>
	<node id="-851008" lat="64.1819861073" lon="10.2582416697">
		<tag k="name" v="Grasholrova" />
		<tag k="natural" v="valley" />
		<tag k="place" v="locality" />
		<tag k="ssr:stedsnr" v="456035" />
	</node>
	<node id="-851006" lat="64.2047555579" lon="10.3319111103">
		<tag k="name" v="Sumstadlian" />
		<tag k="natural" v="slope" />
		<tag k="place" v="locality" />
		<tag k="ssr:stedsnr" v="196026" />
	</node>
	<node id="-851002" lat="64.1930027781" lon="10.2082805513">
		<tag k="fixme" v="consider natural=peak for the most distinct mountains in the district" />
		<tag k="name" v="Fjøsfjellet" />
		<tag k="natural" v="hill" />
		<tag k="place" v="locality" />
		<tag k="ssr:stedsnr" v="395055" />
	</node>
	<node id="-851000" lat="64.1693111138" lon="10.0048861129">
		<tag k="name" v="Valhovden" />
		<tag k="natural" v="hill" />
		<tag k="place" v="locality" />
		<tag k="ssr:stedsnr" v="14200" />
	</node>
	<node id="-850998" lat="64.1365416638" lon="10.1706361143">
		<tag k="fixme" v="consider natural=peak for the most distinct mountains in the district" />
		<tag k="name" v="Grasfjellet" />
		<tag k="natural" v="hill" />
		<tag k="place" v="locality" />
		<tag k="ssr:stedsnr" v="456888" />
	</node>
	<node id="-850996" lat="64.1889277821" lon="10.216488883">
		<tag k="name" v="Vehaugen" />
		<tag k="natural" v="hill" />
		<tag k="place" v="locality" />
		<tag k="ssr:stedsnr" v="456011" />
	</node>
	<node id="-850993" lat="64.1507083292" lon="10.1873583253">
		<tag k="fixme" v="consider natural=peak for the most distinct mountains in the district" />
		<tag k="name" v="Middagsfjellet" />
		<tag k="natural" v="hill" />
		<tag k="place" v="locality" />
		<tag k="ssr:stedsnr" v="395908" />
	</node>
	<node id="-850992" lat="64.2274194482" lon="10.3976138991">
		<tag k="name" v="Rova" />
		<tag k="natural" v="valley" />
		<tag k="place" v="locality" />
		<tag k="ssr:stedsnr" v="213242" />
	</node>
	<node id="-850988" lat="64.2402111091" lon="10.2947555457">
		<tag k="name" v="Sørvettan" />
		<tag k="natural" v="hill" />
		<tag k="place" v="locality" />
		<tag k="ssr:stedsnr" v="395050" />
	</node>
	<node id="-850980" lat="64.1332555536" lon="10.6183527747">
		<tag k="name" v="Vargfosslia" />
		<tag k="natural" v="slope" />
		<tag k="place" v="locality" />
		<tag k="ssr:stedsnr" v="637380" />
	</node>
	<node id="-850978" lat="64.0964027756" lon="10.309305551">
		<tag k="fixme" v="consider natural=peak for the most distinct mountains in the district" />
		<tag k="name" v="Jøtulen" />
		<tag k="natural" v="hill" />
		<tag k="place" v="locality" />
		<tag k="ssr:stedsnr" v="864359" />
	</node>
	<node id="-850977" lat="64.1166722189" lon="10.4083722218">
		<tag k="fixme" v="consider natural=peak for the most distinct mountains in the district" />
		<tag k="name" v="Joliheia" />
		<tag k="natural" v="hill" />
		<tag k="place" v="locality" />
		<tag k="ssr:stedsnr" v="499297" />
	</node>
	<node id="-850975" lat="64.1147805539" lon="10.4043250089">
		<tag k="name" v="Jolia" />
		<tag k="natural" v="slope" />
		<tag k="place" v="locality" />
		<tag k="ssr:stedsnr" v="759312" />
	</node>
	<node id="-850971" lat="64.1278388892" lon="10.1406027827">
		<tag k="name" v="Skjelldalen" />
		<tag k="natural" v="valley" />
		<tag k="place" v="locality" />
		<tag k="ssr:stedsnr" v="274848" />
	</node>
	<node id="-850967" lat="64.21830556" lon="10.4075638862">
		<tag k="name" v="Bjørnadalen" />
		<tag k="natural" v="valley" />
		<tag k="place" v="locality" />
		<tag k="ssr:stedsnr" v="335122" />
	</node>
	<node id="-850962" lat="64.1359222265" lon="10.1401250026">
		<tag k="name" v="Flyhaugen" />
		<tag k="natural" v="hill" />
		<tag k="place" v="locality" />
		<tag k="ssr:stedsnr" v="820876" />
	</node>
	<node id="-850960" lat="64.1527999981" lon="10.2430361051">
		<tag k="name" v="Almlia" />
		<tag k="natural" v="slope" />
		<tag k="place" v="locality" />
		<tag k="ssr:stedsnr" v="577121" />
	</node>
	<node id="-850959" lat="64.1429888933" lon="10.5131972143">
		<tag k="fixme" v="consider natural=peak for the most distinct mountains in the district" />
		<tag k="name" v="Seteraksla" />
		<tag k="natural" v="hill" />
		<tag k="place" v="locality" />
		<tag k="ssr:stedsnr" v="802467" />
	</node>
	<node id="-850958" lat="64.1105833308" lon="10.3827055552">
		<tag k="name" v="Krokvasslia" />
		<tag k="natural" v="slope" />
		<tag k="place" v="locality" />
		<tag k="ssr:stedsnr" v="152315" />
	</node>
	<node id="-850954" lat="64.1457361118" lon="10.5786916728">
		<tag k="fixme" v="consider natural=peak for the most distinct mountains in the district" />
		<tag k="name" v="Kollan" />
		<tag k="natural" v="hill" />
		<tag k="place" v="locality" />
		<tag k="ssr:stedsnr" v="942728" />
	</node>
	<node id="-850953" lat="64.1219722185" lon="10.1224666572">
		<tag k="name" v="Sandvikhaugen" />
		<tag k="natural" v="hill" />
		<tag k="place" v="locality" />
		<tag k="ssr:stedsnr" v="820874" />
	</node>
	<node id="-850947" lat="64.1554805598" lon="10.7229111041">
		<tag k="alt_name" v="Halvveisklumpan" />
		<tag k="name" v="Halvvegsklumpan" />
		<tag k="natural" v="hill" />
		<tag k="place" v="locality" />
		<tag k="ssr:stedsnr" v="864622" />
	</node>
	<node id="-850939" lat="64.189691671" lon="10.2156361149">
		<tag k="name" v="Akaskardet" />
		<tag k="natural" v="valley" />
		<tag k="place" v="locality" />
		<tag k="ssr:stedsnr" v="820009" />
	</node>
	<node id="-850937" lat="64.2105000014" lon="10.541522228">
		<tag k="name" v="Mefjellsteinen" />
		<tag k="natural" v="hill" />
		<tag k="place" v="locality" />
		<tag k="ssr:stedsnr" v="196017" />
	</node>
	<node id="-850936" lat="64.1264111118" lon="10.411658338">
		<tag k="name" v="Rørholet" />
		<tag k="natural" v="slope" />
		<tag k="place" v="locality" />
		<tag k="ssr:stedsnr" v="699323" />
	</node>
	<node id="-850928" lat="64.1668833371" lon="10.2693083362">
		<tag k="fixme" v="consider natural=peak for the most distinct mountains in the district" />
		<tag k="name" v="Kaltimarkheia" />
		<tag k="natural" v="hill" />
		<tag k="place" v="locality" />
		<tag k="ssr:stedsnr" v="924413" />
	</node>
	<node id="-850923" lat="64.1826527822" lon="10.3151694453">
		<tag k="fixme" v="consider natural=peak for the most distinct mountains in the district" />
		<tag k="name" v="Gavvelen" />
		<tag k="natural" v="hill" />
		<tag k="place" v="locality" />
		<tag k="ssr:stedsnr" v="92097" />
	</node>
	<node id="-850917" lat="64.1855944442" lon="10.2462222258">
		<tag k="name" v="Bjørndalsklumpen" />
		<tag k="natural" v="hill" />
		<tag k="place" v="locality" />
		<tag k="ssr:stedsnr" v="456001" />
	</node>
	<node id="-850916" lat="64.1494166684" lon="10.3838194389">
		<tag k="name" v="Gaupdalen" />
		<tag k="natural" v="valley" />
		<tag k="place" v="locality" />
		<tag k="ssr:stedsnr" v="134456" />
	</node>
	<node id="-850912" lat="64.1861833295" lon="10.3175166693">
		<tag k="fixme" v="consider natural=peak for the most distinct mountains in the district" />
		<tag k="name" v="Ruvllia" />
		<tag k="natural" v="hill" />
		<tag k="place" v="locality" />
		<tag k="ssr:stedsnr" v="256439" />
	</node>
	<node id="-850911" lat="64.1494777789" lon="10.3471305569">
		<tag k="name" v="Vesterelvmoen" />
		<tag k="place" v="locality" />
		<tag k="ssr:stedsnr" v="759320" />
	</node>
	<node id="-850909" lat="64.1412972192" lon="10.3896861205">
		<tag k="fixme" v="consider natural=peak for the most distinct mountains in the district" />
		<tag k="name" v="Heilhornet" />
		<tag k="natural" v="hill" />
		<tag k="place" v="locality" />
		<tag k="ssr:stedsnr" v="942299" />
	</node>
	<node id="-850898" lat="64.2213555561" lon="10.3576499961">
		<tag k="name" v="Portdalen" />
		<tag k="natural" v="valley" />
		<tag k="place" v="locality" />
		<tag k="ssr:stedsnr" v="559003" />
	</node>
	<node id="-850897" lat="64.2678497121" lon="10.3483663137">
		<tag k="name" v="Hattan" />
		<tag k="natural" v="hill" />
		<tag k="place" v="locality" />
		<tag k="ssr:stedsnr" v="499561" />
	</node>
	<node id="-850893" lat="64.1480444484" lon="10.3581638881">
		<tag k="name" v="Kjerringkollen" />
		<tag k="natural" v="hill" />
		<tag k="place" v="locality" />
		<tag k="ssr:stedsnr" v="759317" />
	</node>
	<node id="-850891" lat="64.1646499978" lon="10.4837861093">
		<tag k="name" v="Fjøshaugen" />
		<tag k="natural" v="hill" />
		<tag k="place" v="locality" />
		<tag k="ssr:stedsnr" v="924409" />
	</node>
	<node id="-850890" lat="64.1724916649" lon="10.3280194459">
		<tag k="name" v="Kvernalia" />
		<tag k="natural" v="slope" />
		<tag k="place" v="locality" />
		<tag k="ssr:stedsnr" v="152308" />
	</node>
	<node id="-850886" lat="64.2396138873" lon="10.337744447">
		<tag k="name" v="Gaddheia" />
		<tag k="natural" v="hill" />
		<tag k="place" v="locality" />
		<tag k="ssr:stedsnr" v="213228" />
	</node>
	<node id="-850883" lat="64.1804666675" lon="10.2686777858">
		<tag k="name" v="Fagerlia" />
		<tag k="natural" v="slope" />
		<tag k="place" v="locality" />
		<tag k="ssr:stedsnr" v="92093" />
	</node>
	<node id="-850882" lat="64.1016611128" lon="10.2455916645">
		<tag k="fixme" v="consider natural=peak for the most distinct mountains in the district" />
		<tag k="name" v="Svarttrappen" />
		<tag k="natural" v="hill" />
		<tag k="place" v="locality" />
		<tag k="ssr:stedsnr" v="577932" />
	</node>
	<node id="-850881" lat="64.1147944464" lon="10.4107722212">
		<tag k="name" v="Jolihalsen" />
		<tag k="natural" v="valley" />
		<tag k="place" v="locality" />
		<tag k="ssr:stedsnr" v="699284" />
	</node>
	<node id="-850875" lat="64.2712138879" lon="10.3788277837">
		<tag k="alt_name" v="Litlskåret" />
		<tag k="name" v="Litlskardet" />
		<tag k="natural" v="valley" />
		<tag k="place" v="locality" />
		<tag k="ssr:stedsnr" v="196560" />
	</node>
	<node id="-850872" lat="64.1770166698" lon="10.54268612">
		<tag k="name" v="Kroksdalen" />
		<tag k="natural" v="valley" />
		<tag k="place" v="locality" />
		<tag k="ssr:stedsnr" v="620418" />
	</node>
	<node id="-850868" lat="64.1705166669" lon="10.4595666643">
		<tag k="name" v="Frukosthaugen" />
		<tag k="natural" v="hill" />
		<tag k="place" v="locality" />
		<tag k="ssr:stedsnr" v="699285" />
	</node>
	<node id="-850866" lat="64.1085111077" lon="10.2766000067">
		<tag k="name" v="Nordveghøgda" />
		<tag k="natural" v="hill" />
		<tag k="place" v="locality" />
		<tag k="ssr:stedsnr" v="92083" />
	</node>
	<node id="-850865" lat="64.0835194414" lon="10.1799638975">
		<tag k="fixme" v="consider natural=peak for the most distinct mountains in the district" />
		<tag k="name" v="Krokan" />
		<tag k="natural" v="hill" />
		<tag k="place" v="locality" />
		<tag k="ssr:stedsnr" v="577090" />
	</node>
	<node id="-850864" lat="64.1096833369" lon="10.1707944352">
		<tag k="fixme" v="consider natural=peak for the most distinct mountains in the district" />
		<tag k="name" v="Vedavikfjellet" />
		<tag k="natural" v="hill" />
		<tag k="place" v="locality" />
		<tag k="ssr:stedsnr" v="206511" />
	</node>
	<node id="-850862" lat="64.0821305559" lon="10.2067749952">
		<tag k="fixme" v="consider natural=peak for the most distinct mountains in the district" />
		<tag k="name" v="Håvikhesten" />
		<tag k="natural" v="hill" />
		<tag k="place" v="locality" />
		<tag k="ssr:stedsnr" v="377151" />
	</node>
	<node id="-850859" lat="64.1275777819" lon="10.6288027865">
		<tag k="name" v="Fremmer Vargfossnesa" />
		<tag k="natural" v="slope" />
		<tag k="place" v="locality" />
		<tag k="ssr:stedsnr" v="31279" />
	</node>
	<node id="-850858" lat="64.1409305539" lon="10.5972999932">
		<tag k="name" v="Telelvbakkan" />
		<tag k="natural" v="slope" />
		<tag k="place" v="locality" />
		<tag k="ssr:stedsnr" v="152299" />
	</node>
	<node id="-850856" lat="64.1026027794" lon="10.3688472207">
		<tag k="fixme" v="consider natural=peak for the most distinct mountains in the district" />
		<tag k="name" v="Krokvassheia" />
		<tag k="natural" v="hill" />
		<tag k="place" v="locality" />
		<tag k="ssr:stedsnr" v="560337" />
	</node>
	<node id="-850853" lat="64.2090388874" lon="10.4956305642">
		<tag k="fixme" v="consider natural=peak for the most distinct mountains in the district" />
		<tag k="name" v="Øysterkrummen" />
		<tag k="natural" v="hill" />
		<tag k="place" v="locality" />
		<tag k="ssr:stedsnr" v="31274" />
	</node>
	<node id="-850852" lat="64.1653805545" lon="10.303697218">
		<tag k="fixme" v="consider natural=peak for the most distinct mountains in the district" />
		<tag k="name" v="Hestholranten" />
		<tag k="natural" v="hill" />
		<tag k="place" v="locality" />
		<tag k="ssr:stedsnr" v="335093" />
	</node>
	<node id="-850851" lat="64.1090694454" lon="10.2700972151">
		<tag k="name" v="Sjursvikdalen" />
		<tag k="natural" v="valley" />
		<tag k="place" v="locality" />
		<tag k="ssr:stedsnr" v="92078" />
	</node>
	<node id="-850847" lat="64.1852972247" lon="10.3099361122">
		<tag k="name" v="Nordholet" />
		<tag k="natural" v="valley" />
		<tag k="place" v="locality" />
		<tag k="ssr:stedsnr" v="335092" />
	</node>
	<node id="-850844" lat="64.1423027797" lon="10.6057333259">
		<tag k="name" v="Telelvdalen" />
		<tag k="natural" v="valley" />
		<tag k="place" v="locality" />
		<tag k="ssr:stedsnr" v="924387" />
	</node>
	<node id="-850842" lat="64.1526194424" lon="10.5277166714">
		<tag k="name" v="Langløftet" />
		<tag k="natural" v="valley" />
		<tag k="place" v="locality" />
		<tag k="ssr:stedsnr" v="699713" />
	</node>
	<node id="-850839" lat="64.2599388933" lon="10.2754166632">
		<tag k="name" v="Skiva" />
		<tag k="natural" v="hill" />
		<tag k="place" v="locality" />
		<tag k="ssr:stedsnr" v="13627" />
	</node>
	<node id="-850838" lat="64.1653611069" lon="10.7421444528">
		<tag k="name" v="Nordhaugan" />
		<tag k="natural" v="hill" />
		<tag k="place" v="locality" />
		<tag k="ssr:stedsnr" v="385835" />
	</node>
	<node id="-850836" lat="64.1530833297" lon="10.7227833346">
		<tag k="name" v="Sørlia" />
		<tag k="natural" v="slope" />
		<tag k="place" v="locality" />
		<tag k="ssr:stedsnr" v="196559" />
	</node>
	<node id="-850834" lat="64.2637666658" lon="10.3733944431">
		<tag k="fixme" v="consider natural=peak for the most distinct mountains in the district" />
		<tag k="name" v="Litlskåråsen" />
		<tag k="natural" v="hill" />
		<tag k="place" v="locality" />
		<tag k="ssr:stedsnr" v="213215" />
	</node>
	<node id="-850833" lat="64.0981833351" lon="10.2422499926">
		<tag k="fixme" v="consider natural=peak for the most distinct mountains in the district" />
		<tag k="name" v="Ramnfjellet" />
		<tag k="natural" v="hill" />
		<tag k="place" v="locality" />
		<tag k="ssr:stedsnr" v="196295" />
	</node>
	<node id="-850830" lat="64.1517555562" lon="10.4311611038">
		<tag k="fixme" v="consider natural=peak for the most distinct mountains in the district" />
		<tag k="name" v="Langheia" />
		<tag k="natural" v="hill" />
		<tag k="place" v="locality" />
		<tag k="ssr:stedsnr" v="924388" />
	</node>
	<node id="-850826" lat="64.1965055597" lon="10.556086102">
		<tag k="name" v="Holbekkskardet" />
		<tag k="natural" v="valley" />
		<tag k="place" v="locality" />
		<tag k="ssr:stedsnr" v="438481" />
	</node>
	<node id="-850825" lat="64.0987250031" lon="10.2463222152">
		<tag k="fixme" v="consider natural=peak for the most distinct mountains in the district" />
		<tag k="name" v="Lauvneskammen" />
		<tag k="natural" v="hill" />
		<tag k="place" v="locality" />
		<tag k="ssr:stedsnr" v="335922" />
	</node>
	<node id="-850824" lat="64.1654138912" lon="10.5377361073">
		<tag k="fixme" v="consider natural=peak for the most distinct mountains in the district" />
		<tag k="name" v="Gammelseteråsen" />
		<tag k="natural" v="hill" />
		<tag k="place" v="locality" />
		<tag k="ssr:stedsnr" v="637372" />
	</node>
	<node id="-850823" lat="64.1600777815" lon="10.170658333">
		<tag k="name" v="Kvalholet" />
		<tag k="natural" v="hill" />
		<tag k="place" v="locality" />
		<tag k="ssr:stedsnr" v="92072" />
	</node>
	<node id="-850820" lat="64.1870222238" lon="10.5385138847">
		<tag k="name" v="Høgsteren" />
		<tag k="natural" v="hill" />
		<tag k="place" v="locality" />
		<tag k="ssr:stedsnr" v="942277" />
	</node>
	<node id="-850819" lat="64.1171027782" lon="10.1677999968">
		<tag k="name" v="Dalaholet" />
		<tag k="natural" v="valley" />
		<tag k="place" v="locality" />
		<tag k="ssr:stedsnr" v="24535" />
	</node>
	<node id="-850818" lat="64.1329861127" lon="10.154638899">
		<tag k="name" v="Hagan" />
		<tag k="natural" v="valley" />
		<tag k="place" v="locality" />
		<tag k="ssr:stedsnr" v="206497" />
	</node>
	<node id="-850803" lat="64.1731222192" lon="10.5131166643">
		<tag k="name" v="Svartfossranten" />
		<tag k="natural" v="ridge" />
		<tag k="place" v="locality" />
		<tag k="ssr:stedsnr" v="152280" />
	</node>
	<node id="-850802" lat="64.120499999" lon="10.6010583386">
		<tag k="name" v="Nyvass-skardet" />
		<tag k="natural" v="valley" />
		<tag k="place" v="locality" />
		<tag k="ssr:stedsnr" v="395450" />
	</node>
	<node id="-850797" lat="64.1206999973" lon="10.2418194395">
		<tag k="name" v="Bekkjanesa" />
		<tag k="natural" v="valley" />
		<tag k="place" v="locality" />
		<tag k="ssr:stedsnr" v="577081" />
	</node>
	<node id="-850795" lat="64.1833499955" lon="10.5121833412">
		<tag k="fixme" v="consider natural=peak for the most distinct mountains in the district" />
		<tag k="name" v="Bjørndalsaksla" />
		<tag k="natural" v="hill" />
		<tag k="place" v="locality" />
		<tag k="ssr:stedsnr" v="681463" />
	</node>
	<node id="-850794" lat="64.1902694447" lon="10.2295999981">
		<tag k="name" v="Salan" />
		<tag k="natural" v="hill" />
		<tag k="place" v="locality" />
		<tag k="ssr:stedsnr" v="395015" />
	</node>
	<node id="-850789" lat="64.1788555557" lon="10.470430551">
		<tag k="name" v="Brannhaugklumpan" />
		<tag k="natural" v="hill" />
		<tag k="place" v="locality" />
		<tag k="ssr:stedsnr" v="152283" />
	</node>
	<node id="-850785" lat="64.2221833364" lon="10.3715805593">
		<tag k="name" v="Mehøgda" />
		<tag k="natural" v="hill" />
		<tag k="place" v="locality" />
		<tag k="ssr:stedsnr" v="499002" />
	</node>
	<node id="-850784" lat="64.1785527774" lon="10.5114583314">
		<tag k="name" v="Johanliaksla" />
		<tag k="natural" v="ridge" />
		<tag k="place" v="locality" />
		<tag k="ssr:stedsnr" v="699289" />
	</node>
	<node id="-850782" lat="64.140838891" lon="10.4524027723">
		<tag k="name" v="Grønnliskardet" />
		<tag k="natural" v="valley" />
		<tag k="place" v="locality" />
		<tag k="ssr:stedsnr" v="759291" />
	</node>
	<node id="-850780" lat="64.2038750003" lon="10.4334805546">
		<tag k="name" v="Hestmarka" />
		<tag k="natural" v="valley" />
		<tag k="place" v="locality" />
		<tag k="ssr:stedsnr" v="75013" />
	</node>
	<node id="-852470" lat="64.1810249967" lon="10.4022444374">
		<tag k="fixme" v="consider natural=peak for the most distinct mountains in the district" />
		<tag k="name" v="Granmorantan" />
		<tag k="natural" v="hill" />
		<tag k="place" v="locality" />
		<tag k="ssr:stedsnr" v="881334" />
	</node>
	<node id="-852467" lat="64.2121583353" lon="10.4942027766">
		<tag k="name" v="Indre Setervasshøgda" />
		<tag k="natural" v="hill" />
		<tag k="place" v="locality" />
		<tag k="ssr:stedsnr" v="881337" />
	</node>
	<node id="-852464" lat="64.169230557" lon="10.3473638949">
		<tag k="fixme" v="consider natural=peak for the most distinct mountains in the district" />
		<tag k="name" v="Stormunken" />
		<tag k="natural" v="hill" />
		<tag k="place" v="locality" />
		<tag k="ssr:stedsnr" v="257494" />
	</node>
	<node id="-852462" lat="64.1966444424" lon="10.5252472239">
		<tag k="name" v="Tjønnliskardet" />
		<tag k="natural" v="valley" />
		<tag k="place" v="locality" />
		<tag k="ssr:stedsnr" v="699259" />
	</node>
	<node id="-852461" lat="64.2214333357" lon="10.4613277711">
		<tag k="fixme" v="consider natural=peak for the most distinct mountains in the district" />
		<tag k="name" v="Skjærlivassnova" />
		<tag k="natural" v="hill" />
		<tag k="place" v="locality" />
		<tag k="ssr:stedsnr" v="881336" />
	</node>
	<node id="-852458" lat="64.1839666664" lon="10.4991083239">
		<tag k="name" v="Snauskoltlia" />
		<tag k="natural" v="slope" />
		<tag k="place" v="locality" />
		<tag k="ssr:stedsnr" v="881338" />
	</node>
	<node id="-852457" lat="64.1378250008" lon="10.4044277842">
		<tag k="fixme" v="consider natural=peak for the most distinct mountains in the district" />
		<tag k="name" v="Klumplia" />
		<tag k="natural" v="hill" />
		<tag k="place" v="locality" />
		<tag k="ssr:stedsnr" v="924375" />
	</node>
	<node id="-852456" lat="64.1516472235" lon="10.1743138951">
		<tag k="name" v="Kråkhammaren" />
		<tag k="natural" v="hill" />
		<tag k="place" v="locality" />
		<tag k="ssr:stedsnr" v="335907" />
	</node>
	<node id="-852450" lat="64.1643999973" lon="10.4888666702">
		<tag k="name" v="Grovaskardet" />
		<tag k="natural" v="valley" />
		<tag k="place" v="locality" />
		<tag k="ssr:stedsnr" v="637328" />
	</node>
	<node id="-852447" lat="64.2310055565" lon="10.2895805607">
		<tag k="name" v="Ramsvikdalen" />
		<tag k="natural" v="valley" />
		<tag k="place" v="locality" />
		<tag k="ssr:stedsnr" v="334214" />
	</node>
	<node id="-852445" lat="64.1306500015" lon="10.2727388896">
		<tag k="name" v="Trollfuruhaugen" />
		<tag k="natural" v="hill" />
		<tag k="place" v="locality" />
		<tag k="ssr:stedsnr" v="335066" />
	</node>
	<node id="-852440" lat="64.1693722244" lon="10.5832666755">
		<tag k="name" v="Mellomlian" />
		<tag k="natural" v="slope" />
		<tag k="place" v="locality" />
		<tag k="ssr:stedsnr" v="759256" />
	</node>
	<node id="-852438" lat="64.1426444476" lon="10.4586250008">
		<tag k="fixme" v="consider natural=peak for the most distinct mountains in the district" />
		<tag k="name" v="Gråheia" />
		<tag k="natural" v="hill" />
		<tag k="place" v="locality" />
		<tag k="ssr:stedsnr" v="924370" />
	</node>
	<node id="-852428" lat="64.1659138863" lon="10.4561444428">
		<tag k="name" v="Tverlia" />
		<tag k="natural" v="slope" />
		<tag k="place" v="locality" />
		<tag k="ssr:stedsnr" v="881333" />
	</node>
	<node id="-852423" lat="64.1464583343" lon="10.4368305617">
		<tag k="name" v="Seterhaugen" />
		<tag k="natural" v="hill" />
		<tag k="place" v="locality" />
		<tag k="ssr:stedsnr" v="637344" />
	</node>
	<node id="-852420" lat="64.1307138928" lon="10.3492194475">
		<tag k="name" v="Lunnskardet" />
		<tag k="natural" v="valley" />
		<tag k="place" v="locality" />
		<tag k="ssr:stedsnr" v="699272" />
	</node>
	<node id="-852418" lat="64.1811000044" lon="10.2283000087">
		<tag k="fixme" v="consider natural=peak for the most distinct mountains in the district" />
		<tag k="name" v="Rognskardfjellet" />
		<tag k="natural" v="hill" />
		<tag k="place" v="locality" />
		<tag k="ssr:stedsnr" v="438460" />
	</node>
	<node id="-852417" lat="64.1232722219" lon="10.603863896">
		<tag k="name" v="Nyvasslia" />
		<tag k="natural" v="slope" />
		<tag k="place" v="locality" />
		<tag k="ssr:stedsnr" v="942254" />
	</node>
	<node id="-852415" lat="64.2595750043" lon="10.3702222195">
		<tag k="name" v="Ørnholet" />
		<tag k="natural" v="valley" />
		<tag k="place" v="locality" />
		<tag k="ssr:stedsnr" v="334195" />
	</node>
	<node id="-852413" lat="64.2222833336" lon="10.3730555634">
		<tag k="fixme" v="consider natural=peak for the most distinct mountains in the district" />
		<tag k="name" v="Bessakerfjellet" />
		<tag k="natural" v="hill" />
		<tag k="place" v="locality" />
		<tag k="ssr:stedsnr" v="863001" />
	</node>
	<node id="-852411" lat="64.1239194473" lon="10.1330777687">
		<tag k="name" v="Varhaugen" />
		<tag k="natural" v="hill" />
		<tag k="place" v="locality" />
		<tag k="ssr:stedsnr" v="577897" />
	</node>
	<node id="-852410" lat="64.1499138887" lon="10.5367972191">
		<tag k="name" v="Korsmyrlia" />
		<tag k="natural" v="slope" />
		<tag k="place" v="locality" />
		<tag k="ssr:stedsnr" v="699706" />
	</node>
	<node id="-852409" lat="64.1452555558" lon="10.5413666642">
		<tag k="name" v="Skavbakkan" />
		<tag k="natural" v="slope" />
		<tag k="place" v="locality" />
		<tag k="ssr:stedsnr" v="699708" />
	</node>
	<node id="-852407" lat="64.1618000012" lon="10.4274416645">
		<tag k="fixme" v="consider natural=peak for the most distinct mountains in the district" />
		<tag k="name" v="Spannklumpen" />
		<tag k="natural" v="hill" />
		<tag k="place" v="locality" />
		<tag k="ssr:stedsnr" v="257488" />
	</node>
	<node id="-852401" lat="64.1018916656" lon="10.2359805581">
		<tag k="name" v="Ramnfjellberget" />
		<tag k="natural" v="hill" />
		<tag k="place" v="locality" />
		<tag k="ssr:stedsnr" v="92895" />
	</node>
	<node id="-852399" lat="64.2135805511" lon="10.4369777828">
		<tag k="name" v="Kuppulskardklumpen" />
		<tag k="natural" v="hill" />
		<tag k="place" v="locality" />
		<tag k="ssr:stedsnr" v="213173" />
	</node>
	<node id="-852397" lat="64.2459472267" lon="10.3979472147">
		<tag k="name" v="Jens Jensadalen" />
		<tag k="natural" v="valley" />
		<tag k="place" v="locality" />
		<tag k="ssr:stedsnr" v="213174" />
	</node>
	<node id="-852396" lat="64.2439638865" lon="10.2968000054">
		<tag k="fixme" v="consider natural=peak for the most distinct mountains in the district" />
		<tag k="name" v="Mitter Vettan" />
		<tag k="natural" v="hill" />
		<tag k="place" v="locality" />
		<tag k="ssr:stedsnr" v="92035" />
	</node>
	<node id="-852395" lat="64.2510472262" lon="10.3902638813">
		<tag k="name" v="Innerkromslia" />
		<tag k="natural" v="slope" />
		<tag k="place" v="locality" />
		<tag k="ssr:stedsnr" v="31235" />
	</node>
	<node id="-852387" lat="64.1547916697" lon="10.2774916611">
		<tag k="alt_name" v="Tverfjellet" />
		<tag k="fixme" v="consider natural=peak for the most distinct mountains in the district" />
		<tag k="name" v="Tverrfjellet" />
		<tag k="natural" v="hill" />
		<tag k="place" v="locality" />
		<tag k="ssr:stedsnr" v="620406" />
	</node>
	<node id="-852382" lat="64.2491888846" lon="10.3461000055">
		<tag k="fixme" v="consider natural=peak for the most distinct mountains in the district" />
		<tag k="name" v="Hundskardfjellet" />
		<tag k="natural" v="hill" />
		<tag k="place" v="locality" />
		<tag k="ssr:stedsnr" v="152256" />
	</node>
	<node id="-852380" lat="64.1980944434" lon="10.4774805509">
		<tag k="name" v="Panna" />
		<tag k="natural" v="valley" />
		<tag k="place" v="locality" />
		<tag k="ssr:stedsnr" v="803497" />
	</node>
	<node id="-852374" lat="64.142574999" lon="10.1679055465">
		<tag k="name" v="Brennhaugen" />
		<tag k="natural" v="hill" />
		<tag k="place" v="locality" />
		<tag k="ssr:stedsnr" v="335887" />
	</node>
	<node id="-852373" lat="64.1456666638" lon="10.5171249921">
		<tag k="fixme" v="consider natural=peak for the most distinct mountains in the district" />
		<tag k="name" v="Hysjengflauget" />
		<tag k="natural" v="hill" />
		<tag k="place" v="locality" />
		<tag k="ssr:stedsnr" v="699229" />
	</node>
	<node id="-852368" lat="64.1596277792" lon="10.5297527844">
		<tag k="name" v="Haugtjønnklumpen" />
		<tag k="natural" v="hill" />
		<tag k="place" v="locality" />
		<tag k="ssr:stedsnr" v="681425" />
	</node>
	<node id="-852362" lat="64.2117611094" lon="10.4372083374">
		<tag k="name" v="Haltliheia" />
		<tag k="natural" v="hill" />
		<tag k="place" v="locality" />
		<tag k="ssr:stedsnr" v="213172" />
	</node>
	<node id="-852358" lat="64.1472083329" lon="10.4133083396">
		<tag k="name" v="Tostakkan" />
		<tag k="place" v="locality" />
		<tag k="ssr:stedsnr" v="881299" />
	</node>
	<node id="-852357" lat="64.148961107" lon="10.1886250057">
		<tag k="name" v="Siverskardet" />
		<tag k="natural" v="valley" />
		<tag k="place" v="locality" />
		<tag k="ssr:stedsnr" v="92881" />
	</node>
	<node id="-852356" lat="64.2679583346" lon="10.3880138937">
		<tag k="name" v="Storskardet" />
		<tag k="natural" v="valley" />
		<tag k="place" v="locality" />
		<tag k="ssr:stedsnr" v="759229" />
	</node>
	<node id="-852351" lat="64.1708500026" lon="10.5923833281">
		<tag k="fixme" v="consider natural=peak for the most distinct mountains in the district" />
		<tag k="name" v="Mellomliheia" />
		<tag k="natural" v="hill" />
		<tag k="place" v="locality" />
		<tag k="ssr:stedsnr" v="378466" />
	</node>
	<node id="-852349" lat="64.2345861066" lon="10.4084194511">
		<tag k="name" v="Øyster Granhollia" />
		<tag k="natural" v="slope" />
		<tag k="place" v="locality" />
		<tag k="ssr:stedsnr" v="213164" />
	</node>
	<node id="-852347" lat="64.2687361155" lon="10.3527750015">
		<tag k="name" v="Litlhatten" />
		<tag k="natural" v="hill" />
		<tag k="place" v="locality" />
		<tag k="ssr:stedsnr" v="31221" />
	</node>
	<node id="-852344" lat="64.1929999987" lon="10.3481888914">
		<tag k="name" v="Haukneshatten" />
		<tag k="natural" v="hill" />
		<tag k="place" v="locality" />
		<tag k="ssr:stedsnr" v="803494" />
	</node>
	<node id="-852342" lat="64.1261583323" lon="10.1699027736">
		<tag k="name" v="Botnbakkan" />
		<tag k="natural" v="slope" />
		<tag k="place" v="locality" />
		<tag k="ssr:stedsnr" v="517928" />
	</node>
	<node id="-852341" lat="64.2730222187" lon="10.3532638946">
		<tag k="name" v="Klumpen" />
		<tag k="natural" v="hill" />
		<tag k="place" v="locality" />
		<tag k="ssr:stedsnr" v="31216" />
	</node>
	<node id="-852339" lat="64.1446694488" lon="10.4775999923">
		<tag k="fixme" v="consider natural=peak for the most distinct mountains in the district" />
		<tag k="name" v="Middagsfjellet" />
		<tag k="natural" v="hill" />
		<tag k="place" v="locality" />
		<tag k="ssr:stedsnr" v="620379" />
	</node>
	<node id="-852338" lat="64.1163666689" lon="10.2889611082">
		<tag k="fixme" v="consider natural=peak for the most distinct mountains in the district" />
		<tag k="name" v="Øver Seterholet" />
		<tag k="natural" v="hill" />
		<tag k="place" v="locality" />
		<tag k="ssr:stedsnr" v="517078" />
	</node>
	<node id="-852331" lat="64.1274666678" lon="10.6693388838">
		<tag k="name" v="Elglia" />
		<tag k="natural" v="slope" />
		<tag k="place" v="locality" />
		<tag k="ssr:stedsnr" v="335453" />
	</node>
	<node id="-852330" lat="64.2311833298" lon="10.2931361192">
		<tag k="name" v="Ramsvikskardet" />
		<tag k="natural" v="valley" />
		<tag k="place" v="locality" />
		<tag k="ssr:stedsnr" v="31213" />
	</node>
	<node id="-852328" lat="64.1926055517" lon="10.4582666682">
		<tag k="fixme" v="consider natural=peak for the most distinct mountains in the district" />
		<tag k="name" v="Tverrdalskollen" />
		<tag k="natural" v="hill" />
		<tag k="place" v="locality" />
		<tag k="ssr:stedsnr" v="742461" />
	</node>
	<node id="-852327" lat="64.1882638854" lon="10.54208055">
		<tag k="name" v="Tjønnlia" />
		<tag k="natural" v="slope" />
		<tag k="place" v="locality" />
		<tag k="ssr:stedsnr" v="742462" />
	</node>
	<node id="-852323" lat="64.1669972224" lon="10.5020166658">
		<tag k="fixme" v="consider natural=peak for the most distinct mountains in the district" />
		<tag k="name" v="Saglia" />
		<tag k="natural" v="hill" />
		<tag k="place" v="locality" />
		<tag k="ssr:stedsnr" v="681434" />
	</node>
	<node id="-852322" lat="64.1903333307" lon="10.3002805581">
		<tag k="name" v="Stavran" />
		<tag k="natural" v="slope" />
		<tag k="place" v="locality" />
		<tag k="ssr:stedsnr" v="577018" />
	</node>
	<node id="-852321" lat="64.2833833353" lon="10.3679361042">
		<tag k="name" v="Lauvhola" />
		<tag k="natural" v="valley" />
		<tag k="place" v="locality" />
		<tag k="ssr:stedsnr" v="152237" />
	</node>
	<node id="-852320" lat="64.132466666" lon="10.6829638876">
		<tag k="name" v="Sålakroken" />
		<tag k="natural" v="valley" />
		<tag k="place" v="locality" />
		<tag k="ssr:stedsnr" v="637318" />
	</node>
	<node id="-852318" lat="64.2347388904" lon="10.4147555525">
		<tag k="name" v="Øyster Granholhøgda" />
		<tag k="natural" v="hill" />
		<tag k="place" v="locality" />
		<tag k="ssr:stedsnr" v="31214" />
	</node>
	<node id="-852314" lat="64.1375833304" lon="10.6247277858">
		<tag k="name" v="Vargklumpen" />
		<tag k="natural" v="hill" />
		<tag k="place" v="locality" />
		<tag k="ssr:stedsnr" v="335450" />
	</node>
	<node id="-852311" lat="64.1271222258" lon="10.2681638832">
		<tag k="name" v="Kjerringhaugen" />
		<tag k="natural" v="hill" />
		<tag k="place" v="locality" />
		<tag k="ssr:stedsnr" v="517061" />
	</node>
	<node id="-852310" lat="64.169163892" lon="10.4645250091">
		<tag k="name" v="Øverdal" />
		<tag k="natural" v="valley" />
		<tag k="place" v="locality" />
		<tag k="ssr:stedsnr" v="378446" />
	</node>
	<node id="-852305" lat="64.185394446" lon="10.3250111031">
		<tag k="name" v="Hagaskardet" />
		<tag k="natural" v="valley" />
		<tag k="place" v="locality" />
		<tag k="ssr:stedsnr" v="135466" />
	</node>
	<node id="-852304" lat="64.1627694434" lon="10.3504527751">
		<tag k="name" v="Enganslia" />
		<tag k="natural" v="slope" />
		<tag k="place" v="locality" />
		<tag k="ssr:stedsnr" v="334165" />
	</node>
	<node id="-852302" lat="64.2366444418" lon="10.3841694349">
		<tag k="fixme" v="consider natural=peak for the most distinct mountains in the district" />
		<tag k="name" v="Setermarkfjellet" />
		<tag k="natural" v="hill" />
		<tag k="place" v="locality" />
		<tag k="ssr:stedsnr" v="31207" />
	</node>
	<node id="-852300" lat="64.1456694451" lon="10.1578277685">
		<tag k="name" v="Hongsandhaugen" />
		<tag k="natural" v="hill" />
		<tag k="place" v="locality" />
		<tag k="ssr:stedsnr" v="92867" />
	</node>
	<node id="-852299" lat="64.1733305599" lon="10.4213055546">
		<tag k="fixme" v="consider natural=peak for the most distinct mountains in the district" />
		<tag k="name" v="Nilsengheia" />
		<tag k="natural" v="hill" />
		<tag k="place" v="locality" />
		<tag k="ssr:stedsnr" v="317406" />
	</node>
	<node id="-852291" lat="64.1951055593" lon="10.2787055585">
		<tag k="name" v="Rophaugan" />
		<tag k="natural" v="hill" />
		<tag k="place" v="locality" />
		<tag k="ssr:stedsnr" v="577027" />
	</node>
	<node id="-852290" lat="64.1160083329" lon="10.5721777712">
		<tag k="name" v="Fremmer Nyvass-skardet" />
		<tag k="natural" v="valley" />
		<tag k="place" v="locality" />
		<tag k="ssr:stedsnr" v="699239" />
	</node>
	<node id="-852283" lat="64.1970444457" lon="10.3543305608">
		<tag k="name" v="Sponvegtrappen" />
		<tag k="natural" v="slope" />
		<tag k="place" v="locality" />
		<tag k="ssr:stedsnr" v="213154" />
	</node>
	<node id="-852277" lat="64.1493500005" lon="10.4592472136">
		<tag k="name" v="Djupdalen" />
		<tag k="natural" v="valley" />
		<tag k="place" v="locality" />
		<tag k="ssr:stedsnr" v="759241" />
	</node>
	<node id="-852268" lat="64.2734888851" lon="10.3650777714">
		<tag k="name" v="Lia" />
		<tag k="natural" v="slope" />
		<tag k="place" v="locality" />
		<tag k="ssr:stedsnr" v="699203" />
	</node>
	<node id="-852266" lat="64.1473944419" lon="10.242577787">
		<tag k="fixme" v="consider natural=peak for the most distinct mountains in the district" />
		<tag k="name" v="Nypa" />
		<tag k="natural" v="hill" />
		<tag k="place" v="locality" />
		<tag k="ssr:stedsnr" v="256383" />
	</node>
	<node id="-852262" lat="64.1381833354" lon="10.1621277785">
		<tag k="name" v="Jardalen" />
		<tag k="natural" v="valley" />
		<tag k="place" v="locality" />
		<tag k="ssr:stedsnr" v="92864" />
	</node>
	<node id="-852259" lat="64.1815416674" lon="10.4553583346">
		<tag k="fixme" v="consider natural=peak for the most distinct mountains in the district" />
		<tag k="name" v="Blåfetfjellet" />
		<tag k="natural" v="hill" />
		<tag k="place" v="locality" />
		<tag k="ssr:stedsnr" v="135457" />
	</node>
	<node id="-852251" lat="64.2282249998" lon="10.2933583334">
		<tag k="name" v="Tydalen" />
		<tag k="natural" v="valley" />
		<tag k="place" v="locality" />
		<tag k="ssr:stedsnr" v="152228" />
	</node>
	<node id="-852247" lat="64.1849083298" lon="10.1960361011">
		<tag k="name" v="Harafjellet" />
		<tag k="natural" v="hill" />
		<tag k="place" v="locality" />
		<tag k="ssr:stedsnr" v="517049" />
	</node>
	<node id="-852246" lat="64.1775583327" lon="10.561136107">
		<tag k="fixme" v="consider natural=peak for the most distinct mountains in the district" />
		<tag k="name" v="Kroksdalsheia" />
		<tag k="natural" v="hill" />
		<tag k="place" v="locality" />
		<tag k="ssr:stedsnr" v="317396" />
	</node>
	<node id="-852240" lat="64.1968777803" lon="10.2146499915">
		<tag k="fixme" v="consider natural=peak for the most distinct mountains in the district" />
		<tag k="name" v="Tyttbærfjellet" />
		<tag k="natural" v="hill" />
		<tag k="place" v="locality" />
		<tag k="ssr:stedsnr" v="335009" />
	</node>
	<node id="-852239" lat="64.1472416681" lon="10.5609138945">
		<tag k="name" v="Holabakkan" />
		<tag k="natural" v="slope" />
		<tag k="place" v="locality" />
		<tag k="ssr:stedsnr" v="881706" />
	</node>
	<node id="-852237" lat="64.1162555587" lon="10.352972213">
		<tag k="name" v="Storelvvasslia" />
		<tag k="natural" v="slope" />
		<tag k="place" v="locality" />
		<tag k="ssr:stedsnr" v="637274" />
	</node>
	<node id="-852236" lat="64.1844472231" lon="10.2128861162">
		<tag k="name" v="Buafjellklumpan" />
		<tag k="natural" v="hill" />
		<tag k="place" v="locality" />
		<tag k="ssr:stedsnr" v="577013" />
	</node>
	<node id="-852234" lat="64.1841722265" lon="10.5133583423">
		<tag k="name" v="Bjørndalsheia" />
		<tag k="natural" v="hill" />
		<tag k="place" v="locality" />
		<tag k="ssr:stedsnr" v="820346" />
	</node>
	<node id="-852233" lat="64.1129249988" lon="10.1739888925">
		<tag k="name" v="Seterlia" />
		<tag k="natural" v="slope" />
		<tag k="place" v="locality" />
		<tag k="ssr:stedsnr" v="509495" />
	</node>
	<node id="-852231" lat="64.1198916672" lon="10.1749611118">
		<tag k="name" v="Storkiranslia" />
		<tag k="natural" v="slope" />
		<tag k="place" v="locality" />
		<tag k="ssr:stedsnr" v="874537" />
	</node>
	<node id="-852229" lat="64.206736112" lon="10.4683388862">
		<tag k="name" v="Lonten" />
		<tag k="natural" v="ridge" />
		<tag k="place" v="locality" />
		<tag k="ssr:stedsnr" v="820345" />
	</node>
	<node id="-852228" lat="64.1257944417" lon="10.2162055612">
		<tag k="fixme" v="consider natural=peak for the most distinct mountains in the district" />
		<tag k="name" v="Nuggen" />
		<tag k="natural" v="hill" />
		<tag k="place" v="locality" />
		<tag k="ssr:stedsnr" v="377372" />
	</node>
	<node id="-852224" lat="64.1611805575" lon="10.2441583233">
		<tag k="fixme" v="consider natural=peak for the most distinct mountains in the district" />
		<tag k="name" v="Åsen" />
		<tag k="natural" v="hill" />
		<tag k="place" v="locality" />
		<tag k="ssr:stedsnr" v="378442" />
	</node>
	<node id="-852222" lat="64.2262166648" lon="10.3406444433">
		<tag k="name" v="Hermannslia" />
		<tag k="natural" v="slope" />
		<tag k="place" v="locality" />
		<tag k="ssr:stedsnr" v="516222" />
	</node>
	<node id="-852220" lat="64.1533527737" lon="10.3161972214">
		<tag k="name" v="Kartholet" />
		<tag k="natural" v="valley" />
		<tag k="place" v="locality" />
		<tag k="ssr:stedsnr" v="213143" />
	</node>
	<node id="-852219" lat="64.1487805589" lon="10.2662000014">
		<tag k="fixme" v="consider natural=peak for the most distinct mountains in the district" />
		<tag k="name" v="Høgbakkheia" />
		<tag k="natural" v="hill" />
		<tag k="place" v="locality" />
		<tag k="ssr:stedsnr" v="256380" />
	</node>
	<node id="-852216" lat="64.2521750014" lon="10.3434166703">
		<tag k="fixme" v="consider natural=peak for the most distinct mountains in the district" />
		<tag k="name" v="Øver Bjørgan" />
		<tag k="natural" v="hill" />
		<tag k="place" v="locality" />
		<tag k="ssr:stedsnr" v="699216" />
	</node>
	<node id="-852215" lat="64.2568388895" lon="10.3708249925">
		<tag k="alt_name" v="Nypa" />
		<tag k="name" v="Nypan" />
		<tag k="natural" v="hill" />
		<tag k="place" v="locality" />
		<tag k="ssr:stedsnr" v="74432" />
	</node>
	<node id="-852213" lat="64.251600004" lon="10.3550638795">
		<tag k="fixme" v="consider natural=peak for the most distinct mountains in the district" />
		<tag k="name" v="Geitakleivhammaren" />
		<tag k="natural" v="hill" />
		<tag k="place" v="locality" />
		<tag k="ssr:stedsnr" v="31186" />
	</node>
	<node id="-852211" lat="64.1670805591" lon="10.7484250047">
		<tag k="name" v="Oppkjørarbakkan" />
		<tag k="natural" v="slope" />
		<tag k="place" v="locality" />
		<tag k="ssr:stedsnr" v="325803" />
	</node>
	<node id="-852210" lat="64.2374194439" lon="10.3927333302">
		<tag k="name" v="Setermarkdalen" />
		<tag k="natural" v="valley" />
		<tag k="place" v="locality" />
		<tag k="ssr:stedsnr" v="334142" />
	</node>
	<node id="-852207" lat="64.2113166695" lon="10.4604527696">
		<tag k="name" v="Haltlia" />
		<tag k="natural" v="slope" />
		<tag k="place" v="locality" />
		<tag k="ssr:stedsnr" v="395371" />
	</node>
	<node id="-852202" lat="64.180116669" lon="10.499286111">
		<tag k="fixme" v="consider natural=peak for the most distinct mountains in the district" />
		<tag k="name" v="Storfjellet" />
		<tag k="natural" v="hill" />
		<tag k="place" v="locality" />
		<tag k="ssr:stedsnr" v="559470" />
	</node>
	<node id="-852199" lat="64.1739722189" lon="10.2379500098">
		<tag k="name" v="Finnskardhaugan" />
		<tag k="natural" v="hill" />
		<tag k="place" v="locality" />
		<tag k="ssr:stedsnr" v="213136" />
	</node>
	<node id="-852195" lat="64.1435055591" lon="10.4031333254">
		<tag k="name" v="Kvernvassdalan" />
		<tag k="natural" v="valley" />
		<tag k="place" v="locality" />
		<tag k="ssr:stedsnr" v="620375" />
	</node>
	<node id="-852194" lat="64.2133694485" lon="10.4620861063">
		<tag k="name" v="Haltliheia" />
		<tag k="natural" v="hill" />
		<tag k="place" v="locality" />
		<tag k="ssr:stedsnr" v="395367" />
	</node>
	<node id="-852192" lat="64.1221361104" lon="10.1681333255">
		<tag k="fixme" v="consider natural=peak for the most distinct mountains in the district" />
		<tag k="name" v="Kiransfjellet" />
		<tag k="natural" v="hill" />
		<tag k="place" v="locality" />
		<tag k="ssr:stedsnr" v="803214" />
	</node>
	<node id="-852184" lat="64.1781222181" lon="10.5606138979">
		<tag k="fixme" v="consider natural=peak for the most distinct mountains in the district" />
		<tag k="name" v="Seterrabban" />
		<tag k="natural" v="hill" />
		<tag k="place" v="locality" />
		<tag k="ssr:stedsnr" v="456338" />
	</node>
	<node id="-852181" lat="64.1774972243" lon="10.4059055566">
		<tag k="name" v="Skardlia" />
		<tag k="natural" v="slope" />
		<tag k="place" v="locality" />
		<tag k="ssr:stedsnr" v="456337" />
	</node>
	<node id="-852174" lat="64.2472972251" lon="10.3968388898">
		<tag k="name" v="Litlvasshaugan" />
		<tag k="natural" v="hill" />
		<tag k="place" v="locality" />
		<tag k="ssr:stedsnr" v="699206" />
	</node>
	<node id="-852173" lat="64.2599166644" lon="10.3569555505">
		<tag k="name" v="Smiberget" />
		<tag k="natural" v="hill" />
		<tag k="place" v="locality" />
		<tag k="ssr:stedsnr" v="152210" />
	</node>
	<node id="-852172" lat="64.2013027783" lon="10.4025250084">
		<tag k="name" v="Ormhaugen" />
		<tag k="natural" v="hill" />
		<tag k="place" v="locality" />
		<tag k="ssr:stedsnr" v="759185" />
	</node>
	<node id="-852171" lat="64.1796166629" lon="10.2597000018">
		<tag k="fixme" v="consider natural=peak for the most distinct mountains in the district" />
		<tag k="name" v="Hestmarkheia" />
		<tag k="natural" v="hill" />
		<tag k="place" v="locality" />
		<tag k="ssr:stedsnr" v="559459" />
	</node>
	<node id="-852169" lat="64.1913472259" lon="10.2232972304">
		<tag k="name" v="Steinskardet" />
		<tag k="natural" v="valley" />
		<tag k="place" v="locality" />
		<tag k="ssr:stedsnr" v="517018" />
	</node>
	<node id="-852163" lat="64.0986888878" lon="10.2708111045">
		<tag k="fixme" v="consider natural=peak for the most distinct mountains in the district" />
		<tag k="name" v="Ranten" />
		<tag k="natural" v="hill" />
		<tag k="place" v="locality" />
		<tag k="ssr:stedsnr" v="638082" />
	</node>
	<node id="-852162" lat="64.1610666708" lon="10.3441277834">
		<tag k="fixme" v="consider natural=peak for the most distinct mountains in the district" />
		<tag k="name" v="Bonfjellet" />
		<tag k="natural" v="hill" />
		<tag k="place" v="locality" />
		<tag k="ssr:stedsnr" v="317375" />
	</node>
	<node id="-852161" lat="64.1244166646" lon="10.340363881">
		<tag k="name" v="Vardheikrummen" />
		<tag k="natural" v="valley" />
		<tag k="place" v="locality" />
		<tag k="ssr:stedsnr" v="820321" />
	</node>
	<node id="-852159" lat="64.1602138863" lon="10.3909777755">
		<tag k="name" v="Sørkolva" />
		<tag k="natural" v="valley" />
		<tag k="place" v="locality" />
		<tag k="ssr:stedsnr" v="317376" />
	</node>
	<node id="-852158" lat="64.1923666684" lon="10.2284250071">
		<tag k="name" v="Tussekallhaugen" />
		<tag k="natural" v="hill" />
		<tag k="place" v="locality" />
		<tag k="ssr:stedsnr" v="517016" />
	</node>
	<node id="-852157" lat="64.1894055512" lon="10.5283222291">
		<tag k="name" v="Kvitsteinheia" />
		<tag k="natural" v="hill" />
		<tag k="place" v="locality" />
		<tag k="ssr:stedsnr" v="395359" />
	</node>
	<node id="-852156" lat="64.1367888878" lon="10.5471111205">
		<tag k="fixme" v="consider natural=peak for the most distinct mountains in the district" />
		<tag k="name" v="Trappan" />
		<tag k="natural" v="hill" />
		<tag k="place" v="locality" />
		<tag k="ssr:stedsnr" v="395353" />
	</node>
	<node id="-852153" lat="64.1815194433" lon="10.3108916568">
		<tag k="fixme" v="consider natural=peak for the most distinct mountains in the district" />
		<tag k="name" v="Mefjellet" />
		<tag k="natural" v="hill" />
		<tag k="place" v="locality" />
		<tag k="ssr:stedsnr" v="14386" />
	</node>
	<node id="-852152" lat="64.1751305563" lon="10.342569445">
		<tag k="name" v="Myrahaugen" />
		<tag k="natural" v="hill" />
		<tag k="place" v="locality" />
		<tag k="ssr:stedsnr" v="31166" />
	</node>
	<node id="-852149" lat="64.1697805579" lon="10.3522305655">
		<tag k="name" v="Revdalshaugan" />
		<tag k="natural" v="hill" />
		<tag k="place" v="locality" />
		<tag k="ssr:stedsnr" v="31169" />
	</node>
	<node id="-852148" lat="64.1839361087" lon="10.4313027747">
		<tag k="name" v="Reppkleiva" />
		<tag k="natural" v="hill" />
		<tag k="place" v="locality" />
		<tag k="ssr:stedsnr" v="334126" />
	</node>
	<node id="-852144" lat="64.1886305542" lon="10.3147472224">
		<tag k="name" v="Ruvllirova" />
		<tag k="natural" v="valley" />
		<tag k="place" v="locality" />
		<tag k="ssr:stedsnr" v="517023" />
	</node>
	<node id="-852143" lat="64.1515194402" lon="10.3633999897">
		<tag k="fixme" v="consider natural=peak for the most distinct mountains in the district" />
		<tag k="name" v="Kjerringa" />
		<tag k="natural" v="hill" />
		<tag k="place" v="locality" />
		<tag k="ssr:stedsnr" v="820324" />
	</node>
	<node id="-852142" lat="64.1547527797" lon="10.5034500098">
		<tag k="fixme" v="consider natural=peak for the most distinct mountains in the district" />
		<tag k="name" v="Rundfjellet" />
		<tag k="natural" v="hill" />
		<tag k="place" v="locality" />
		<tag k="ssr:stedsnr" v="74417" />
	</node>
	<node id="-852139" lat="64.142227776" lon="10.422147231">
		<tag k="name" v="Larsholet" />
		<tag k="natural" v="valley" />
		<tag k="place" v="locality" />
		<tag k="ssr:stedsnr" v="274293" />
	</node>
	<node id="-852138" lat="64.2448361126" lon="10.3043166667">
		<tag k="fixme" v="multiple name tags, choose one and add the other to alt_name; consider natural=peak for the most distinct mountains in the district" />
		<tag k="name" v="Høttvettan;Vettan" />
		<tag k="natural" v="hill" />
		<tag k="place" v="locality" />
		<tag k="ssr:stedsnr" v="377090" />
	</node>
	<node id="-852133" lat="64.2281083372" lon="10.3437916573">
		<tag k="name" v="Portdalen" />
		<tag k="natural" v="valley" />
		<tag k="place" v="locality" />
		<tag k="ssr:stedsnr" v="699168" />
	</node>
	<node id="-852118" lat="64.148316665" lon="10.2115777735">
		<tag k="fixme" v="consider natural=peak for the most distinct mountains in the district" />
		<tag k="name" v="Hundstien" />
		<tag k="natural" v="hill" />
		<tag k="place" v="locality" />
		<tag k="ssr:stedsnr" v="638094" />
	</node>
	<node id="-852111" lat="64.1908805581" lon="10.3866194382">
		<tag k="name" v="Merrarova" />
		<tag k="natural" v="hill" />
		<tag k="place" v="locality" />
		<tag k="ssr:stedsnr" v="31151" />
	</node>
	<node id="-852110" lat="64.1565388867" lon="10.4586305599">
		<tag k="name" v="Lian" />
		<tag k="natural" v="slope" />
		<tag k="place" v="locality" />
		<tag k="ssr:stedsnr" v="274271" />
	</node>
	<node id="-852108" lat="64.1455166677" lon="10.3852749904">
		<tag k="name" v="Straumsrova" />
		<tag k="natural" v="valley" />
		<tag k="place" v="locality" />
		<tag k="ssr:stedsnr" v="395342" />
	</node>
	<node id="-852104" lat="64.1662694414" lon="10.5601055456">
		<tag k="name" v="Dyrskardet" />
		<tag k="natural" v="valley" />
		<tag k="place" v="locality" />
		<tag k="ssr:stedsnr" v="820338" />
	</node>
	<node id="-852103" lat="64.14400556" lon="10.3632000031">
		<tag k="name" v="Kjerringholet" />
		<tag k="natural" v="valley" />
		<tag k="place" v="locality" />
		<tag k="ssr:stedsnr" v="74410" />
	</node>
	<node id="-852102" lat="64.1806249993" lon="10.416361117">
		<tag k="name" v="Nilsenglia" />
		<tag k="natural" v="slope" />
		<tag k="place" v="locality" />
		<tag k="ssr:stedsnr" v="820337" />
	</node>
	<node id="-852101" lat="64.1361805534" lon="10.5735138916">
		<tag k="name" v="Tverskardheia" />
		<tag k="natural" v="hill" />
		<tag k="place" v="locality" />
		<tag k="ssr:stedsnr" v="395350" />
	</node>
	<node id="-852100" lat="64.1961777788" lon="10.2285888905">
		<tag k="name" v="Eianssaubakkan" />
		<tag k="natural" v="slope" />
		<tag k="place" v="locality" />
		<tag k="ssr:stedsnr" v="517011" />
	</node>
	<node id="-852099" lat="64.1389249994" lon="10.5537361144">
		<tag k="name" v="Øverhaugberga" />
		<tag k="natural" v="hill" />
		<tag k="place" v="locality" />
		<tag k="ssr:stedsnr" v="820330" />
	</node>
	<node id="-852097" lat="64.1338916712" lon="10.5667388817">
		<tag k="name" v="Seterskardet" />
		<tag k="natural" v="valley" />
		<tag k="place" v="locality" />
		<tag k="ssr:stedsnr" v="820328" />
	</node>
	<node id="-852096" lat="64.2472777809" lon="10.3757305476">
		<tag k="fixme" v="consider natural=peak for the most distinct mountains in the district" />
		<tag k="name" v="Kallarhylla" />
		<tag k="natural" v="hill" />
		<tag k="place" v="locality" />
		<tag k="ssr:stedsnr" v="759194" />
	</node>
	<node id="-852095" lat="64.1746888905" lon="10.2595444509">
		<tag k="name" v="Benkstirova" />
		<tag k="natural" v="ridge" />
		<tag k="place" v="locality" />
		<tag k="ssr:stedsnr" v="638087" />
	</node>
	<node id="-852093" lat="64.1808277748" lon="10.3945749918">
		<tag k="name" v="Olvatnet" />
		<tag k="natural" v="valley" />
		<tag k="place" v="locality" />
		<tag k="ssr:stedsnr" v="214353" />
	</node>
	<node id="-852092" lat="64.1259444419" lon="10.5579527692">
		<tag k="name" v="Halvvegslia" />
		<tag k="natural" v="slope" />
		<tag k="place" v="locality" />
		<tag k="ssr:stedsnr" v="395352" />
	</node>
	<node id="-852090" lat="64.1863833364" lon="10.5488361156">
		<tag k="name" v="Tverlia" />
		<tag k="natural" v="slope" />
		<tag k="place" v="locality" />
		<tag k="ssr:stedsnr" v="881260" />
	</node>
	<node id="-852089" lat="64.1900277798" lon="10.5561777695">
		<tag k="name" v="Grønnlia" />
		<tag k="natural" v="slope" />
		<tag k="place" v="locality" />
		<tag k="ssr:stedsnr" v="820333" />
	</node>
	<node id="-852086" lat="64.2487527751" lon="10.3585111172">
		<tag k="fixme" v="consider natural=peak for the most distinct mountains in the district" />
		<tag k="name" v="Fremmerplottan" />
		<tag k="natural" v="hill" />
		<tag k="place" v="locality" />
		<tag k="ssr:stedsnr" v="637260" />
	</node>
	<node id="-852084" lat="64.126280559" lon="10.5997499993">
		<tag k="name" v="Nyvassaksla" />
		<tag k="natural" v="ridge" />
		<tag k="place" v="locality" />
		<tag k="ssr:stedsnr" v="881262" />
	</node>
	<node id="-852083" lat="64.2345694448" lon="10.4252388969">
		<tag k="name" v="Skjærlivasshøgda" />
		<tag k="natural" v="hill" />
		<tag k="place" v="locality" />
		<tag k="ssr:stedsnr" v="699179" />
	</node>
	<node id="-852073" lat="64.1795305589" lon="10.353377775">
		<tag k="name" v="Nausthaugen" />
		<tag k="natural" v="hill" />
		<tag k="place" v="locality" />
		<tag k="ssr:stedsnr" v="516163" />
	</node>
	<node id="-852072" lat="64.2484999999" lon="10.3400999994">
		<tag k="name" v="Hundskardet" />
		<tag k="natural" v="valley" />
		<tag k="place" v="locality" />
		<tag k="ssr:stedsnr" v="924028" />
	</node>
	<node id="-852071" lat="64.1987694476" lon="10.4062249983">
		<tag k="fixme" v="consider natural=peak for the most distinct mountains in the district" />
		<tag k="name" v="Smifjellet" />
		<tag k="natural" v="hill" />
		<tag k="place" v="locality" />
		<tag k="ssr:stedsnr" v="699146" />
	</node>
	<node id="-852067" lat="64.1033805531" lon="10.2830555573">
		<tag k="fixme" v="consider natural=peak for the most distinct mountains in the district" />
		<tag k="name" v="Mariafjellet" />
		<tag k="natural" v="hill" />
		<tag k="place" v="locality" />
		<tag k="ssr:stedsnr" v="213096" />
	</node>
	<node id="-852066" lat="64.1335444434" lon="10.499055552">
		<tag k="fixme" v="consider natural=peak for the most distinct mountains in the district" />
		<tag k="name" v="Grovalikollen" />
		<tag k="natural" v="hill" />
		<tag k="place" v="locality" />
		<tag k="ssr:stedsnr" v="256350" />
	</node>
	<node id="-852065" lat="64.1822416654" lon="10.398880555">
		<tag k="name" v="Branthaugen" />
		<tag k="natural" v="hill" />
		<tag k="place" v="locality" />
		<tag k="ssr:stedsnr" v="31142" />
	</node>
	<node id="-852063" lat="64.2544749963" lon="10.3682888902">
		<tag k="name" v="Kjerkhaugen" />
		<tag k="natural" v="hill" />
		<tag k="place" v="locality" />
		<tag k="ssr:stedsnr" v="699148" />
	</node>
	<node id="-852057" lat="64.1799777785" lon="10.3426166638">
		<tag k="name" v="Trolldalen" />
		<tag k="natural" v="valley" />
		<tag k="place" v="locality" />
		<tag k="ssr:stedsnr" v="699143" />
	</node>
	<node id="-852056" lat="64.1365444467" lon="10.2909583413">
		<tag k="fixme" v="consider natural=peak for the most distinct mountains in the district" />
		<tag k="name" v="Hanafjellet" />
		<tag k="natural" v="hill" />
		<tag k="place" v="locality" />
		<tag k="ssr:stedsnr" v="317360" />
	</node>
	<node id="-852052" lat="64.1676527774" lon="10.3384138844">
		<tag k="name" v="Fossbakkan" />
		<tag k="natural" v="slope" />
		<tag k="place" v="locality" />
		<tag k="ssr:stedsnr" v="152179" />
	</node>
	<node id="-852050" lat="64.186241671" lon="10.4991444374">
		<tag k="fixme" v="consider natural=peak for the most distinct mountains in the district" />
		<tag k="name" v="Snauskolten" />
		<tag k="natural" v="hill" />
		<tag k="place" v="locality" />
		<tag k="ssr:stedsnr" v="439465" />
	</node>
	<node id="-852048" lat="64.1668916659" lon="10.3300999936">
		<tag k="name" v="Brekkdalen" />
		<tag k="natural" v="valley" />
		<tag k="place" v="locality" />
		<tag k="ssr:stedsnr" v="152180" />
	</node>
	<node id="-852043" lat="64.1901833348" lon="10.426327773">
		<tag k="name" v="Tverrdalen" />
		<tag k="natural" v="valley" />
		<tag k="place" v="locality" />
		<tag k="ssr:stedsnr" v="31133" />
	</node>
	<node id="-852042" lat="64.1619749969" lon="10.5652722269">
		<tag k="name" v="Vakkerkrommen" />
		<tag k="natural" v="slope" />
		<tag k="place" v="locality" />
		<tag k="ssr:stedsnr" v="456296" />
	</node>
	<node id="-852038" lat="64.147616667" lon="10.6973388895">
		<tag k="alt_name" v="Halvveis" />
		<tag k="fixme" v="consider natural=peak for the most distinct mountains in the district" />
		<tag k="name" v="Halvvegsheia" />
		<tag k="natural" v="hill" />
		<tag k="place" v="locality" />
		<tag k="ssr:stedsnr" v="317364" />
	</node>
	<node id="-852036" lat="64.2363694474" lon="10.3389749905">
		<tag k="fixme" v="consider natural=peak for the most distinct mountains in the district" />
		<tag k="name" v="Andersholan" />
		<tag k="natural" v="hill" />
		<tag k="place" v="locality" />
		<tag k="ssr:stedsnr" v="637224" />
	</node>
	<node id="-852029" lat="64.1606249971" lon="10.6589722161">
		<tag k="alt_name" v="Inner Elgsjøhøgda" />
		<tag k="fixme" v="consider natural=peak for the most distinct mountains in the district" />
		<tag k="name" v="Elgsjøheia" />
		<tag k="natural" v="hill" />
		<tag k="place" v="locality" />
		<tag k="ssr:stedsnr" v="742395" />
	</node>
	<node id="-852024" lat="64.1357944443" lon="10.5387138889">
		<tag k="name" v="Lonhaugen" />
		<tag k="natural" v="hill" />
		<tag k="place" v="locality" />
		<tag k="ssr:stedsnr" v="456299" />
	</node>
	<node id="-852022" lat="64.270855558" lon="10.3645833327">
		<tag k="name" v="Heia" />
		<tag k="natural" v="hill" />
		<tag k="place" v="locality" />
		<tag k="ssr:stedsnr" v="881220" />
	</node>
	<node id="-852021" lat="64.1467444487" lon="10.4430944418">
		<tag k="name" v="Dolpa" />
		<tag k="natural" v="valley" />
		<tag k="place" v="locality" />
		<tag k="ssr:stedsnr" v="941314" />
	</node>
	<node id="-852015" lat="64.169016666" lon="10.2987805585">
		<tag k="fixme" v="consider natural=peak for the most distinct mountains in the district" />
		<tag k="name" v="Voliheia" />
		<tag k="natural" v="hill" />
		<tag k="place" v="locality" />
		<tag k="ssr:stedsnr" v="14364" />
	</node>
	<node id="-852013" lat="64.1596277737" lon="10.4422972262">
		<tag k="name" v="Lavaholet" />
		<tag k="natural" v="valley" />
		<tag k="place" v="locality" />
		<tag k="ssr:stedsnr" v="941317" />
	</node>
	<node id="-852009" lat="64.1150166635" lon="10.3342027721">
		<tag k="fixme" v="consider natural=peak for the most distinct mountains in the district" />
		<tag k="name" v="Svartholheia" />
		<tag k="natural" v="hill" />
		<tag k="place" v="locality" />
		<tag k="ssr:stedsnr" v="256343" />
	</node>
	<node id="-852007" lat="64.1635111095" lon="10.1769583295">
		<tag k="fixme" v="consider natural=peak for the most distinct mountains in the district" />
		<tag k="name" v="Brandsøyfjellet" />
		<tag k="natural" v="hill" />
		<tag k="place" v="locality" />
		<tag k="ssr:stedsnr" v="456281" />
	</node>
	<node id="-852005" lat="64.1474277783" lon="10.348555554">
		<tag k="name" v="Sagmoen" />
		<tag k="place" v="locality" />
		<tag k="ssr:stedsnr" v="214334" />
	</node>
	<node id="-852001" lat="64.1578472195" lon="10.3134861081">
		<tag k="fixme" v="consider natural=peak for the most distinct mountains in the district" />
		<tag k="name" v="Rotjønnfjellet" />
		<tag k="natural" v="hill" />
		<tag k="place" v="locality" />
		<tag k="ssr:stedsnr" v="31126" />
	</node>
	<node id="-851997" lat="64.120074997" lon="10.2814666617">
		<tag k="name" v="Oladalen" />
		<tag k="natural" v="valley" />
		<tag k="place" v="locality" />
		<tag k="ssr:stedsnr" v="213087" />
	</node>
	<node id="-851994" lat="64.1888750032" lon="10.3609500051">
		<tag k="name" v="Bjørnahaugen" />
		<tag k="natural" v="hill" />
		<tag k="place" v="locality" />
		<tag k="ssr:stedsnr" v="152158" />
	</node>
	<node id="-851992" lat="64.2614305511" lon="10.3531666704">
		<tag k="name" v="Nausthaugen" />
		<tag k="natural" v="hill" />
		<tag k="place" v="locality" />
		<tag k="ssr:stedsnr" v="699152" />
	</node>
	<node id="-851984" lat="64.1116833348" lon="10.5920388924">
		<tag k="fixme" v="consider natural=peak for the most distinct mountains in the district" />
		<tag k="name" v="Seterfjellet" />
		<tag k="natural" v="hill" />
		<tag k="place" v="locality" />
		<tag k="ssr:stedsnr" v="256340" />
	</node>
	<node id="-851979" lat="64.1257527736" lon="10.3554666582">
		<tag k="fixme" v="consider natural=peak for the most distinct mountains in the district" />
		<tag k="name" v="Vardheia" />
		<tag k="natural" v="hill" />
		<tag k="place" v="locality" />
		<tag k="ssr:stedsnr" v="681383" />
	</node>
	<node id="-851977" lat="64.1871555535" lon="10.5268194536">
		<tag k="name" v="Påsådalan" />
		<tag k="natural" v="valley" />
		<tag k="place" v="locality" />
		<tag k="ssr:stedsnr" v="274251" />
	</node>
	<node id="-851974" lat="64.1439999996" lon="10.3755750055">
		<tag k="fixme" v="consider natural=peak for the most distinct mountains in the district" />
		<tag k="name" v="Heilhornet" />
		<tag k="natural" v="hill" />
		<tag k="place" v="locality" />
		<tag k="ssr:stedsnr" v="438398" />
	</node>
	<node id="-851972" lat="64.1397694463" lon="10.4890333363">
		<tag k="name" v="Tunekollen" />
		<tag k="natural" v="hill" />
		<tag k="place" v="locality" />
		<tag k="ssr:stedsnr" v="74392" />
	</node>
	<node id="-851969" lat="64.1713888905" lon="10.3842944524">
		<tag k="name" v="Sollausholet" />
		<tag k="natural" v="valley" />
		<tag k="place" v="locality" />
		<tag k="ssr:stedsnr" v="637207" />
	</node>
</osm>
