<?xml version="1.0" encoding="UTF-8"?>
<osm generator="osmapis" version="0.6">
	<node id="-844285" lat="64.1820638893" lon="10.2153277806">
		<tag k="name" v="Vika" />
		<tag k="place" v="farm" />
		<tag k="ssr:stedsnr" v="820014" />
	</node>
	<node id="-845308" lat="64.1599684459" lon="10.5069046033">
		<tag k="fixme" v="consider place=hamlet" />
		<tag k="name" v="Grova" />
		<tag k="place" v="farm" />
		<tag k="ssr:stedsnr" v="803453" />
	</node>
	<node id="-845307" lat="64.2285861109" lon="10.291533329">
		<tag k="name" v="Ramsvika" />
		<tag k="place" v="farm" />
		<tag k="ssr:stedsnr" v="924039" />
	</node>
	<node id="-844281" lat="64.1710088646" lon="10.4485531684">
		<tag k="fixme" v="consider place=hamlet" />
		<tag k="name" v="Nerdal" />
		<tag k="place" v="farm" />
		<tag k="ssr:stedsnr" v="620435" />
	</node>
	<node id="-844789" lat="64.1064965224" lon="10.2124653197">
		<tag k="fixme" v="consider place=hamlet" />
		<tag k="name" v="Joskjør" />
		<tag k="place" v="farm" />
		<tag k="ssr:stedsnr" v="560158" />
	</node>
	<node id="-845300" lat="64.1149777886" lon="10.2590897739">
		<tag k="fixme" v="consider place=hamlet" />
		<tag k="name" v="Nordskjørin" />
		<tag k="place" v="farm" />
		<tag k="ssr:stedsnr" v="620346" />
	</node>
	<node id="-844783" lat="64.1668138877" lon="10.1692833408">
		<tag k="name" v="Vollan" />
		<tag k="place" v="farm" />
		<tag k="ssr:stedsnr" v="881087" />
	</node>
	<node id="-844782" lat="64.1252472184" lon="10.2905361021">
		<tag k="name" v="Sømarka" />
		<tag k="place" v="farm" />
		<tag k="ssr:stedsnr" v="135338" />
	</node>
	<node id="-844269" lat="64.2028641448" lon="10.3981958021">
		<tag k="fixme" v="consider place=hamlet" />
		<tag k="name" v="Moen" />
		<tag k="place" v="farm" />
		<tag k="ssr:stedsnr" v="196029" />
	</node>
	<node id="-844780" lat="64.2626861097" lon="10.3493583328">
		<tag k="name" v="Småvikan" />
		<tag k="place" v="farm" />
		<tag k="ssr:stedsnr" v="941184" />
	</node>
	<node id="-845649" lat="64.1925740787" lon="10.2606812936">
		<tag k="fixme" v="consider place=hamlet" />
		<tag k="name" v="Beskeland" />
		<tag k="place" v="farm" />
		<tag k="ssr:stedsnr" v="14420" />
	</node>
	<node id="-845277" lat="64.1375638897" lon="10.4846222276">
		<tag k="historic" v="shieling" />
		<tag k="name" v="Øverdalsseteren" />
		<tag k="place" v="locality" />
		<tag k="ssr:stedsnr" v="317356" />
	</node>
	<node id="-845276" lat="64.1728583309" lon="10.2254277707">
		<tag k="amenity" v="nursing_home" />
		<tag k="name" v="Roan sykehjem" />
		<tag k="ssr:stedsnr" v="664283" />
	</node>
	<node id="-845275" lat="64.1488166635" lon="10.1794694381">
		<tag k="fixme" v="multiple name tags, choose one and add the other to alt_name" />
		<tag k="name" v="Sandmoen;Slettvollen" />
		<tag k="place" v="farm" />
		<tag k="ssr:stedsnr" v="863205" />
	</node>
	<node id="-844246" lat="64.2693055576" lon="10.3584972159">
		<tag k="name" v="Stormyra" />
		<tag k="place" v="farm" />
		<tag k="ssr:stedsnr" v="741688" />
	</node>
	<node id="-844397" lat="64.1997055565" lon="10.3071416592">
		<tag k="fixme" v="consider place=hamlet" />
		<tag k="name" v="Sumstad" />
		<tag k="place" v="village" />
		<tag k="ssr:stedsnr" v="559024" />
	</node>
	<node id="-844707" lat="64.1504017556" lon="10.1583922116">
		<tag k="fixme" v="consider place=hamlet" />
		<tag k="name" v="Kråkøya" />
		<tag k="place" v="farm" />
		<tag k="ssr:stedsnr" v="971220" />
	</node>
	<node id="-844240" lat="64.1179777784" lon="10.1523388823">
		<tag k="name" v="Dalen" />
		<tag k="place" v="farm" />
		<tag k="ssr:stedsnr" v="820880" />
	</node>
	<node id="-844749" lat="64.2567527754" lon="10.290891665">
		<tag k="name" v="Børøyaunet" />
		<tag k="place" v="locality" />
		<tag k="ssr:stedsnr" v="269167" />
	</node>
	<node id="-844192" lat="64.2432027819" lon="10.3242972142">
		<tag k="name" v="Heggegården" />
		<tag k="place" v="farm" />
		<tag k="ssr:stedsnr" v="213225" />
	</node>
	<node id="-845765" lat="64.198761937" lon="10.4026699126">
		<tag k="fixme" v="consider place=hamlet" />
		<tag k="name" v="Hofstad" />
		<tag k="place" v="farm" />
		<tag k="ssr:stedsnr" v="971138" />
	</node>
	<node id="-845764" lat="64.1451750033" lon="10.179255555">
		<tag k="name" v="Stranda" />
		<tag k="place" v="isolated_dwelling" />
		<tag k="ssr:stedsnr" v="14162" />
	</node>
	<node id="-844107" lat="64.1743888916" lon="10.4586277719">
		<tag k="name" v="Dalan" />
		<tag k="place" v="isolated_dwelling" />
		<tag k="ssr:stedsnr" v="152285" />
	</node>
	<node id="-845759" lat="64.1780138878" lon="10.2275416702">
		<tag k="name" v="Klokkargården" />
		<tag k="place" v="farm" />
		<tag k="ssr:stedsnr" v="517096" />
	</node>
	<node id="-844222" lat="64.1272222235" lon="10.1292666606">
		<tag k="name" v="Sjåbakkan" />
		<tag k="place" v="farm" />
		<tag k="ssr:stedsnr" v="456874" />
	</node>
	<node id="-844221" lat="64.1588666688" lon="10.1774305542">
		<tag k="name" v="Bakkan" />
		<tag k="place" v="hamlet" />
		<tag k="ssr:stedsnr" v="742234" />
	</node>
	<node id="-844703" lat="64.1934472208" lon="10.314511113">
		<tag k="name" v="Sørmyran" />
		<tag k="place" v="farm" />
		<tag k="ssr:stedsnr" v="699017" />
	</node>
	<node id="-844215" lat="64.1027390592" lon="10.2759087093">
		<tag k="fixme" v="consider place=hamlet" />
		<tag k="name" v="Tøssdalen" />
		<tag k="place" v="farm" />
		<tag k="ssr:stedsnr" v="499288" />
	</node>
	<node id="-844726" lat="64.1265819414" lon="10.126321308">
		<tag k="fixme" v="consider place=hamlet" />
		<tag k="name" v="Kiran" />
		<tag k="place" v="farm" />
		<tag k="ssr:stedsnr" v="942876" />
	</node>
	<node id="-844212" lat="64.2349083298" lon="10.292761103">
		<tag k="name" v="Storvika" />
		<tag k="place" v="hamlet" />
		<tag k="ssr:stedsnr" v="809187" />
	</node>
	<node id="-845745" lat="64.2460188788" lon="10.2251222752">
		<tag k="fixme" v="consider place=hamlet" />
		<tag k="name" v="Kvernholmen" />
		<tag k="place" v="farm" />
		<tag k="ssr:stedsnr" v="971137" />
	</node>
	<node id="-844208" lat="64.1231222253" lon="10.1426583346">
		<tag k="name" v="Stinesgården" />
		<tag k="place" v="farm" />
		<tag k="ssr:stedsnr" v="456878" />
	</node>
	<node id="-845743" lat="64.2441450234" lon="10.3255750155">
		<tag k="fixme" v="consider place=hamlet" />
		<tag k="name" v="Bessaker" />
		<tag k="place" v="farm" />
		<tag k="ssr:stedsnr" v="971136" />
	</node>
	<node id="-844204" lat="64.1222611093" lon="10.1436333372">
		<tag k="name" v="Bakkan" />
		<tag k="place" v="farm" />
		<tag k="ssr:stedsnr" v="456882" />
	</node>
	<node id="-844715" lat="64.1843472258" lon="10.2675999963">
		<tag k="name" v="Indiannaplassen" />
		<tag k="place" v="farm" />
		<tag k="ssr:stedsnr" v="759038" />
	</node>
	<node id="-844711" lat="64.136050484" lon="10.2084804187">
		<tag k="fixme" v="consider place=hamlet" />
		<tag k="name" v="Kråkfjorden" />
		<tag k="place" v="farm" />
		<tag k="ssr:stedsnr" v="971221" />
	</node>
	<node id="-845731" lat="64.2165944461" lon="10.2733333404">
		<tag k="name" v="Storvika" />
		<tag k="place" v="farm" />
		<tag k="ssr:stedsnr" v="75006" />
	</node>
	<node id="-844706" lat="64.1443416626" lon="10.1630750005">
		<tag k="name" v="Myra" />
		<tag k="place" v="farm" />
		<tag k="ssr:stedsnr" v="942868" />
	</node>
	<node id="-844705" lat="64.1105499975" lon="10.5579527871">
		<tag k="name" v="Dalamarka" />
		<tag k="place" v="farm" />
		<tag k="ssr:stedsnr" v="742317" />
	</node>
	<node id="-844704" lat="64.1842277734" lon="10.2648888952">
		<tag k="name" v="Naustbakkan" />
		<tag k="place" v="farm" />
		<tag k="ssr:stedsnr" v="759035" />
	</node>
	<node id="-845727" lat="64.1364888895" lon="10.2088333336">
		<tag k="name" v="Klokkargården" />
		<tag k="place" v="farm" />
		<tag k="ssr:stedsnr" v="517102" />
	</node>
	<node id="-845213" lat="64.1738388888" lon="10.3691027795">
		<tag k="name" v="Stranda" />
		<tag k="place" v="farm" />
		<tag k="ssr:stedsnr" v="637196" />
	</node>
	<node id="-844700" lat="64.1686111074" lon="10.3677333312">
		<tag k="name" v="Vassbakkan" />
		<tag k="place" v="farm" />
		<tag k="ssr:stedsnr" v="395187" />
	</node>
	<node id="-844699" lat="64.1377916707" lon="10.2014972288">
		<tag k="name" v="Langøra" />
		<tag k="place" v="farm" />
		<tag k="ssr:stedsnr" v="456143" />
	</node>
	<node id="-844694" lat="64.1615392794" lon="10.1876161993">
		<tag k="fixme" v="consider place=hamlet" />
		<tag k="name" v="Brandsøya" />
		<tag k="place" v="farm" />
		<tag k="ssr:stedsnr" v="971219" />
	</node>
	<node id="-844526" lat="64.222344444" lon="10.2508027869">
		<tag k="name" v="Keila" />
		<tag k="place" v="farm" />
		<tag k="ssr:stedsnr" v="438007" />
	</node>
	<node id="-844690" lat="64.2444166711" lon="10.3257388845">
		<tag k="name" v="Thunegården" />
		<tag k="place" v="farm" />
		<tag k="ssr:stedsnr" v="941190" />
	</node>
	<node id="-844355" lat="64.2379749961" lon="10.3036027776">
		<tag k="name" v="Nyheim" />
		<tag k="place" v="farm" />
		<tag k="ssr:stedsnr" v="196039" />
	</node>
	<node id="-844686" lat="64.175577781" lon="10.2384527814">
		<tag k="name" v="Inner Skardet" />
		<tag k="place" v="farm" />
		<tag k="ssr:stedsnr" v="456147" />
	</node>
	<node id="-844685" lat="64.1274916624" lon="10.5820777835">
		<tag k="name" v="Lonseteren" />
		<tag k="place" v="locality" />
		<tag k="ssr:stedsnr" v="75394" />
	</node>
	<node id="-844679" lat="64.1709027808" lon="10.17164444">
		<tag k="name" v="Hamnavågen" />
		<tag k="place" v="farm" />
		<tag k="ssr:stedsnr" v="620238" />
	</node>
	<node id="-845702" lat="64.2059747437" lon="10.3101218027">
		<tag k="fixme" v="consider place=hamlet" />
		<tag k="name" v="Sumstad" />
		<tag k="place" v="farm" />
		<tag k="ssr:stedsnr" v="971140" />
	</node>
	<node id="-844182" lat="64.1785638927" lon="10.2246722178">
		<tag k="name" v="Øygårdslia" />
		<tag k="place" v="farm" />
		<tag k="ssr:stedsnr" v="577109" />
	</node>
	<node id="-845696" lat="64.2013527751" lon="10.2105083427">
		<tag k="fixme" v="consider place=hamlet" />
		<tag k="name" v="Nordstigan" />
		<tag k="place" v="farm" />
		<tag k="ssr:stedsnr" v="92046" />
	</node>
	<node id="-845694" lat="64.1742944429" lon="10.365102772">
		<tag k="name" v="Kikvika" />
		<tag k="place" v="farm" />
		<tag k="ssr:stedsnr" v="378476" />
	</node>
	<node id="-845178" lat="64.1024638884" lon="10.2571972321">
		<tag k="name" v="Tøssvika" />
		<tag k="place" v="farm" />
		<tag k="ssr:stedsnr" v="620332" />
	</node>
	<node id="-844153" lat="64.2552305601" lon="10.3424305485">
		<tag k="name" v="Teistvika" />
		<tag k="place" v="isolated_dwelling" />
		<tag k="ssr:stedsnr" v="334231" />
	</node>
	<node id="-844151" lat="64.2044333299" lon="10.391177777">
		<tag k="name" v="Vika" />
		<tag k="place" v="farm" />
		<tag k="ssr:stedsnr" v="439011" />
	</node>
	<node id="-845174" lat="64.277411107" lon="10.3625333424">
		<tag k="name" v="Kynnavika" />
		<tag k="place" v="farm" />
		<tag k="ssr:stedsnr" v="881212" />
	</node>
	<node id="-845684" lat="64.1742944429" lon="10.365102772">
		<tag k="name" v="Haugen" />
		<tag k="place" v="isolated_dwelling" />
		<tag k="ssr:stedsnr" v="421251" />
	</node>
	<node id="-844147" lat="64.1879333353" lon="10.420988895">
		<tag k="amenity" v="school" />
		<tag k="name" v="Brandsfjord" />
		<tag k="ssr:stedsnr" v="378497" />
	</node>
	<node id="-845170" lat="64.1447805547" lon="10.158952775">
		<tag k="name" v="Hongsand" />
		<tag k="place" v="hamlet" />
		<tag k="ssr:stedsnr" v="863194" />
	</node>
	<node id="-844657" lat="64.1128111136" lon="10.5486750075">
		<tag k="name" v="Stein" />
		<tag k="place" v="farm" />
		<tag k="ssr:stedsnr" v="135321" />
	</node>
	<node id="-845168" lat="64.2780888881" lon="10.3749055637">
		<tag k="name" v="Gangsmostermyra" />
		<tag k="place" v="farm" />
		<tag k="ssr:stedsnr" v="274216" />
	</node>
	<node id="-845162" lat="64.2761666695" lon="10.3619944353">
		<tag k="name" v="Lekkersvika" />
		<tag k="place" v="farm" />
		<tag k="ssr:stedsnr" v="87011" />
	</node>
	<node id="-845159" lat="64.1741055554" lon="10.3745583322">
		<tag k="fixme" v="consider place=hamlet" />
		<tag k="name" v="Straum" />
		<tag k="place" v="village" />
		<tag k="ssr:stedsnr" v="864507" />
	</node>
	<node id="-845669" lat="64.2363861113" lon="10.2858083406">
		<tag k="name" v="Norvika" />
		<tag k="place" v="farm" />
		<tag k="ssr:stedsnr" v="92038" />
	</node>
	<node id="-844644" lat="64.2397055524" lon="10.2908583315">
		<tag k="name" v="Vettavik" />
		<tag k="place" v="farm" />
		<tag k="ssr:stedsnr" v="74041" />
	</node>
	<node id="-845666" lat="64.1360055592" lon="10.2084333234">
		<tag k="name" v="Stallvikgården" />
		<tag k="place" v="farm" />
		<tag k="ssr:stedsnr" v="395830" />
	</node>
	<node id="-845148" lat="64.1202444465" lon="10.2562138801">
		<tag k="name" v="Øvergård" />
		<tag k="place" v="farm" />
		<tag k="ssr:stedsnr" v="317341" />
	</node>
	<node id="-844090" lat="64.1680499975" lon="10.1692861019">
		<tag k="name" v="Øset" />
		<tag k="place" v="farm" />
		<tag k="ssr:stedsnr" v="335077" />
	</node>
	<node id="-844431" lat="64.169263885" lon="10.4892083394">
		<tag k="name" v="Sagmoen" />
		<tag k="place" v="farm" />
		<tag k="ssr:stedsnr" v="213279" />
	</node>
	<node id="-845654" lat="64.1898666674" lon="10.2670416759">
		<tag k="name" v="Buavika" />
		<tag k="place" v="farm" />
		<tag k="ssr:stedsnr" v="863512" />
	</node>
	<node id="-844836" lat="64.189127777" lon="10.4182333341">
		<tag k="name" v="Strandamyra" />
		<tag k="place" v="farm" />
		<tag k="ssr:stedsnr" v="881130" />
	</node>
	<node id="-845137" lat="64.1271333372" lon="10.2775416641">
		<tag k="name" v="Plassan" />
		<tag k="place" v="farm" />
		<tag k="ssr:stedsnr" v="31086" />
	</node>
	<node id="-844623" lat="64.1195861126" lon="10.1299277694">
		<tag k="name" v="Grønnvollen" />
		<tag k="place" v="farm" />
		<tag k="ssr:stedsnr" v="637879" />
	</node>
	<node id="-844619" lat="64.2331888855" lon="10.2846555611">
		<tag k="name" v="Kåpvika" />
		<tag k="place" v="isolated_dwelling" />
		<tag k="ssr:stedsnr" v="135034" />
	</node>
	<node id="-844617" lat="64.2347027774" lon="10.4347499917">
		<tag k="name" v="Vikseteren" />
		<tag k="place" v="isolated_dwelling" />
		<tag k="ssr:stedsnr" v="74038" />
	</node>
	<node id="-845127" lat="64.1800500022" lon="10.2177472279">
		<tag k="name" v="Stagan" />
		<tag k="place" v="farm" />
		<tag k="ssr:stedsnr" v="699088" />
	</node>
	<node id="-845635" lat="64.1716388914" lon="10.4681499909">
		<tag k="name" v="Nystrand" />
		<tag k="place" v="farm" />
		<tag k="ssr:stedsnr" v="378462" />
	</node>
	<node id="-845119" lat="64.1717055534" lon="10.2449833309">
		<tag k="name" v="Mølnhusmoen" />
		<tag k="place" v="farm" />
		<tag k="ssr:stedsnr" v="75459" />
	</node>
	<node id="-845630" lat="64.1965166669" lon="10.3699444391">
		<tag k="alt_name" v="Stranda" />
		<tag k="name" v="Hauknesstranda" />
		<tag k="place" v="farm" />
		<tag k="ssr:stedsnr" v="632067" />
	</node>
	<node id="-845115" lat="64.2453638864" lon="10.3247499936">
		<tag k="fixme" v="consider place=hamlet" />
		<tag k="name" v="Bessaker" />
		<tag k="place" v="village" />
		<tag k="ssr:stedsnr" v="134057" />
	</node>
	<node id="-845114" lat="64.177411112" lon="10.2275833325">
		<tag k="leisure" v="pitch" />
		<tag k="name" v="Roan idrettsplass" />
		<tag k="ssr:stedsnr" v="725296" />
	</node>
	<node id="-845624" lat="64.1439083377" lon="10.1701055517">
		<tag k="name" v="Kleiva" />
		<tag k="place" v="isolated_dwelling" />
		<tag k="ssr:stedsnr" v="335888" />
	</node>
	<node id="-844340" lat="64.1823638898" lon="10.2119972243">
		<tag k="name" v="Sandskogan" />
		<tag k="place" v="farm" />
		<tag k="ssr:stedsnr" v="637014" />
	</node>
	<node id="-845622" lat="64.1256578131" lon="10.1317684092">
		<tag k="fixme" v="consider place=hamlet" />
		<tag k="name" v="Kiran" />
		<tag k="place" v="village" />
		<tag k="ssr:stedsnr" v="803218" />
	</node>
	<node id="-844083" lat="64.2748944483" lon="10.383636105">
		<tag k="name" v="Nordstrand" />
		<tag k="place" v="farm" />
		<tag k="ssr:stedsnr" v="499547" />
	</node>
	<node id="-845106" lat="64.1255305579" lon="10.5453361168">
		<tag k="name" v="Lund" />
		<tag k="place" v="farm" />
		<tag k="ssr:stedsnr" v="74377" />
	</node>
	<node id="-844592" lat="64.1817611135" lon="10.2360666743">
		<tag k="name" v="Øygårdan" />
		<tag k="place" v="farm" />
		<tag k="ssr:stedsnr" v="152003" />
	</node>
	<node id="-845615" lat="64.2484250033" lon="10.3307749937">
		<tag k="leisure" v="pitch" />
		<tag k="name" v="Bessaker idrettsplass" />
		<tag k="ssr:stedsnr" v="847331" />
	</node>
	<node id="-844765" lat="64.2312138895" lon="10.3399277778">
		<tag k="name" v="Hermannsmoen" />
		<tag k="place" v="farm" />
		<tag k="ssr:stedsnr" v="438054" />
	</node>
	<node id="-844076" lat="64.1727111143" lon="10.2290638988">
		<tag k="fixme" v="consider place=hamlet" />
		<tag k="name" v="Roan" />
		<tag k="place" v="village" />
		<tag k="ssr:stedsnr" v="74215" />
	</node>
	<node id="-845609" lat="64.1353138915" lon="10.1518916643">
		<tag k="name" v="Sandseter" />
		<tag k="place" v="farm" />
		<tag k="ssr:stedsnr" v="517903" />
	</node>
	<node id="-844764" lat="64.1467888928" lon="10.2185527729">
		<tag k="name" v="Jektvika" />
		<tag k="place" v="farm" />
		<tag k="ssr:stedsnr" v="820146" />
	</node>
	<node id="-844071" lat="64.276005558" lon="10.3628972228">
		<tag k="name" v="Mostervika" />
		<tag k="place" v="farm" />
		<tag k="ssr:stedsnr" v="499546" />
	</node>
	<node id="-845605" lat="64.1811999983" lon="10.3521416706">
		<tag k="name" v="Dalen" />
		<tag k="place" v="farm" />
		<tag k="ssr:stedsnr" v="135463" />
	</node>
	<node id="-844068" lat="64.1685388912" lon="10.2326805519">
		<tag k="name" v="Lauvåsen" />
		<tag k="place" v="farm" />
		<tag k="ssr:stedsnr" v="620420" />
	</node>
	<node id="-845603" lat="64.1962000016" lon="10.3052388861">
		<tag k="name" v="Blikkstranda" />
		<tag k="place" v="farm" />
		<tag k="ssr:stedsnr" v="577021" />
	</node>
	<node id="-844577" lat="64.1216333309" lon="10.54647499">
		<tag k="name" v="Moen" />
		<tag k="place" v="farm" />
		<tag k="ssr:stedsnr" v="75377" />
	</node>
	<node id="-844575" lat="64.16378611" lon="10.3580027796">
		<tag k="name" v="Engan" />
		<tag k="place" v="farm" />
		<tag k="ssr:stedsnr" v="627855" />
	</node>
	<node id="-844573" lat="64.1558111133" lon="10.1890000077">
		<tag k="name" v="Nesvalen" />
		<tag k="place" v="farm" />
		<tag k="ssr:stedsnr" v="377220" />
	</node>
	<node id="-845083" lat="64.2676868129" lon="10.356261241">
		<tag k="fixme" v="consider place=hamlet" />
		<tag k="name" v="Vikaunet" />
		<tag k="place" v="farm" />
		<tag k="ssr:stedsnr" v="681618" />
	</node>
	<node id="-844847" lat="64.2483444489" lon="10.3335972303">
		<tag k="amenity" v="school" />
		<tag k="name" v="Vik-Bessaker skole" />
		<tag k="ssr:stedsnr" v="909881" />
	</node>
	<node id="-845078" lat="64.1698305528" lon="10.2194722258">
		<tag k="name" v="Sørvika" />
		<tag k="place" v="farm" />
		<tag k="ssr:stedsnr" v="864495" />
	</node>
	<node id="-845588" lat="64.1416722262" lon="10.1877222191">
		<tag k="name" v="Troningsøra" />
		<tag k="place" v="farm" />
		<tag k="ssr:stedsnr" v="517911" />
	</node>
	<node id="-844561" lat="64.1432638891" lon="10.4371388851">
		<tag k="historic" v="shieling" />
		<tag k="name" v="Nerdalsseteren" />
		<tag k="place" v="locality" />
		<tag k="ssr:stedsnr" v="196356" />
	</node>
	<node id="-845584" lat="64.1223999961" lon="10.2657666585">
		<tag k="name" v="Bonkrokan" />
		<tag k="place" v="farm" />
		<tag k="ssr:stedsnr" v="517063" />
	</node>
	<node id="-845015" lat="64.1047388919" lon="10.1864000044">
		<tag k="name" v="Østvika" />
		<tag k="place" v="farm" />
		<tag k="ssr:stedsnr" v="152926" />
	</node>
	<node id="-845576" lat="64.1832972192" lon="10.5509027715">
		<tag k="historic" v="shieling" />
		<tag k="name" v="Fagerdalsseteren" />
		<tag k="place" v="locality" />
		<tag k="ssr:stedsnr" v="135459" />
	</node>
	<node id="-845575" lat="64.1828583333" lon="10.2730611136">
		<tag k="fixme" v="consider place=hamlet" />
		<tag k="name" v="Fjorden" />
		<tag k="place" v="farm" />
		<tag k="ssr:stedsnr" v="135462" />
	</node>
	<node id="-845574" lat="64.174036107" lon="10.3410749956">
		<tag k="name" v="Myra" />
		<tag k="place" v="farm" />
		<tag k="ssr:stedsnr" v="317403" />
	</node>
	<node id="-845570" lat="64.1339564946" lon="10.5457654003">
		<tag k="fixme" v="consider place=hamlet" />
		<tag k="name" v="Lonin" />
		<tag k="place" v="farm" />
		<tag k="ssr:stedsnr" v="924365" />
	</node>
	<node id="-845057" lat="64.195413888" lon="10.3120944406">
		<tag k="name" v="Hagan" />
		<tag k="place" v="farm" />
		<tag k="ssr:stedsnr" v="213027" />
	</node>
	<node id="-845568" lat="64.1872194473" lon="10.2705138828">
		<tag k="name" v="Einin" />
		<tag k="place" v="farm" />
		<tag k="ssr:stedsnr" v="577031" />
	</node>
	<node id="-845560" lat="64.1821694471" lon="10.2409861065">
		<tag k="alt_name" v="Øygården, øvre" />
		<tag k="name" v="Øvre Øygården" />
		<tag k="place" v="farm" />
		<tag k="ssr:stedsnr" v="559480" />
	</node>
	<node id="-845557" lat="64.1818750027" lon="10.379424994">
		<tag k="name" v="Olvika" />
		<tag k="place" v="isolated_dwelling" />
		<tag k="ssr:stedsnr" v="135454" />
	</node>
	<node id="-845022" lat="64.2625388919" lon="10.3041027714">
		<tag k="fixme" v="consider place=hamlet" />
		<tag k="name" v="Børøya" />
		<tag k="place" v="farm" />
		<tag k="ssr:stedsnr" v="256577" />
	</node>
	<node id="-844527" lat="64.1692055542" lon="10.1795972311">
		<tag k="alt_name" v="Nordvollan" />
		<tag k="name" v="Vollan" />
		<tag k="place" v="farm" />
		<tag k="ssr:stedsnr" v="317231" />
	</node>
	<node id="-845550" lat="64.2786916632" lon="10.3781833259">
		<tag k="name" v="Engensvika" />
		<tag k="place" v="isolated_dwelling" />
		<tag k="ssr:stedsnr" v="699198" />
	</node>
	<node id="-845545" lat="64.2739444409" lon="10.3587055591">
		<tag k="name" v="Kleivvika" />
		<tag k="place" v="farm" />
		<tag k="ssr:stedsnr" v="699200" />
	</node>
	<node id="-845539" lat="64.1283250016" lon="10.1363083279">
		<tag k="name" v="Moen" />
		<tag k="place" v="farm" />
		<tag k="ssr:stedsnr" v="517894" />
	</node>
	<node id="-845538" lat="64.1799944469" lon="10.2373111168">
		<tag k="name" v="Øygårdan" />
		<tag k="place" v="hamlet" />
		<tag k="ssr:stedsnr" v="324189" />
	</node>
	<node id="-845534" lat="64.1649055555" lon="10.552549994">
		<tag k="name" v="Gammelseteren" />
		<tag k="place" v="locality" />
		<tag k="ssr:stedsnr" v="378444" />
	</node>
	<node id="-845021" lat="64.1325000033" lon="10.3449444382">
		<tag k="name" v="Finnkrulia" />
		<tag k="place" v="isolated_dwelling" />
		<tag k="ssr:stedsnr" v="135373" />
	</node>
	<node id="-845019" lat="64.1221388845" lon="10.2691944384">
		<tag k="alt_name" v="Nygården" />
		<tag k="name" v="Nygård" />
		<tag k="place" v="farm" />
		<tag k="ssr:stedsnr" v="742347" />
	</node>
	<node id="-844495" lat="64.1219499999" lon="10.2644638915">
		<tag k="name" v="Munkhaugen" />
		<tag k="place" v="farm" />
		<tag k="ssr:stedsnr" v="274059" />
	</node>
	<node id="-844503" lat="64.1028027784" lon="10.1931249941">
		<tag k="name" v="Nesset" />
		<tag k="place" v="farm" />
		<tag k="ssr:stedsnr" v="274912" />
	</node>
	<node id="-845014" lat="64.2005022175" lon="10.2282127812">
		<tag k="fixme" v="consider place=hamlet" />
		<tag k="name" v="Grønningen" />
		<tag k="place" v="farm" />
		<tag k="ssr:stedsnr" v="317028" />
	</node>
	<node id="-844501" lat="64.1763142091" lon="10.359142864">
		<tag k="fixme" v="consider place=hamlet" />
		<tag k="name" v="Halsvika" />
		<tag k="place" v="farm" />
		<tag k="ssr:stedsnr" v="92172" />
	</node>
	<node id="-845007" lat="64.1765994293" lon="10.3498085677">
		<tag k="fixme" v="consider place=hamlet" />
		<tag k="name" v="Einarsdalen" />
		<tag k="place" v="farm" />
		<tag k="ssr:stedsnr" v="196418" />
	</node>
	<node id="-844489" lat="64.1931523327" lon="10.2008347089">
		<tag k="fixme" v="consider place=hamlet" />
		<tag k="name" v="Eian" />
		<tag k="place" v="farm" />
		<tag k="ssr:stedsnr" v="620222" />
	</node>
	<node id="-844150" lat="64.2189638921" lon="10.2672194485">
		<tag k="name" v="Stokkvika" />
		<tag k="place" v="farm" />
		<tag k="ssr:stedsnr" v="499007" />
	</node>
	<node id="-844442" lat="64.1092388907" lon="10.2266055568">
		<tag k="fixme" v="consider place=hamlet" />
		<tag k="name" v="Skjøra" />
		<tag k="place" v="village" />
		<tag k="ssr:stedsnr" v="864394" />
	</node>
	<node id="-844986" lat="64.1831249959" lon="10.2116388847">
		<tag k="name" v="Vika" />
		<tag k="place" v="isolated_dwelling" />
		<tag k="ssr:stedsnr" v="13239" />
	</node>
	<node id="-845172" lat="64.2789444404" lon="10.3631250094">
		<tag k="name" v="Litl Mostervika" />
		<tag k="place" v="farm" />
		<tag k="ssr:stedsnr" v="274218" />
	</node>
	<node id="-845494" lat="64.1628514835" lon="10.4807862356">
		<tag k="fixme" v="consider place=hamlet" />
		<tag k="name" v="Grovadalen" />
		<tag k="place" v="farm" />
		<tag k="ssr:stedsnr" v="317385" />
	</node>
	<node id="-844978" lat="64.1615305528" lon="10.3552583385">
		<tag k="name" v="Engan" />
		<tag k="place" v="farm" />
		<tag k="ssr:stedsnr" v="506442" />
	</node>
	<node id="-844977" lat="64.1152027804" lon="10.5552138875">
		<tag k="name" v="Gråsteinmyra" />
		<tag k="place" v="farm" />
		<tag k="ssr:stedsnr" v="378349" />
	</node>
	<node id="-845597" lat="64.0874378145" lon="10.1912778729">
		<tag k="fixme" v="consider place=hamlet" />
		<tag k="name" v="Håvika" />
		<tag k="place" v="farm" />
		<tag k="ssr:stedsnr" v="257201" />
	</node>
	<node id="-845483" lat="64.1806083337" lon="10.5279861164">
		<tag k="historic" v="shieling" />
		<tag k="name" v="Fjell" />
		<tag k="place" v="locality" />
		<tag k="ssr:stedsnr" v="803489" />
	</node>
	<node id="-845481" lat="64.260944851" lon="10.3639482085">
		<tag k="fixme" v="consider place=hamlet" />
		<tag k="name" v="Vik" />
		<tag k="place" v="farm" />
		<tag k="ssr:stedsnr" v="317382" />
	</node>
	<node id="-844456" lat="64.1257305597" lon="10.2720666683">
		<tag k="name" v="Øykvikbakkan" />
		<tag k="place" v="farm" />
		<tag k="ssr:stedsnr" v="456076" />
	</node>
	<node id="-845475" lat="64.179224999" lon="10.278658342">
		<tag k="name" v="Moan" />
		<tag k="place" v="farm" />
		<tag k="ssr:stedsnr" v="742434" />
	</node>
	<node id="-844961" lat="64.1710611133" lon="10.3655583253">
		<tag k="name" v="Kikbakkan" />
		<tag k="place" v="farm" />
		<tag k="ssr:stedsnr" v="456194" />
	</node>
	<node id="-844448" lat="64.131444448" lon="10.2140805537">
		<tag k="name" v="Dalan" />
		<tag k="place" v="farm" />
		<tag k="ssr:stedsnr" v="456082" />
	</node>
	<node id="-844912" lat="64.1456597332" lon="10.1779568457">
		<tag k="fixme" v="consider place=hamlet" />
		<tag k="name" v="Stranda" />
		<tag k="place" v="farm" />
		<tag k="ssr:stedsnr" v="153763" />
	</node>
	<node id="-845468" lat="64.1976302319" lon="10.4033283785">
		<tag k="fixme" v="consider place=hamlet" />
		<tag k="name" v="Hofstad" />
		<tag k="place" v="village" />
		<tag k="ssr:stedsnr" v="863499" />
	</node>
	<node id="-845466" lat="64.1722444482" lon="10.3428999928">
		<tag k="name" v="Munkan" />
		<tag k="place" v="farm" />
		<tag k="ssr:stedsnr" v="14390" />
	</node>
	<node id="-844950" lat="64.1283472265" lon="10.2806555571">
		<tag k="name" v="Brattbakkmoen" />
		<tag k="place" v="farm" />
		<tag k="ssr:stedsnr" v="759088" />
	</node>
	<node id="-844436" lat="64.2351611087" lon="10.2972166635">
		<tag k="name" v="Voll" />
		<tag k="place" v="farm" />
		<tag k="ssr:stedsnr" v="456054" />
	</node>
	<node id="-845455" lat="64.1416972213" lon="10.427111107">
		<tag k="name" v="Larsholhytta" />
		<tag k="place" v="isolated_dwelling" />
		<tag k="ssr:stedsnr" v="941326" />
	</node>
	<node id="-844430" lat="64.1357333373" lon="10.155491673">
		<tag k="name" v="Hagadalen" />
		<tag k="place" v="farm" />
		<tag k="ssr:stedsnr" v="924170" />
	</node>
	<node id="-844429" lat="64.1782777808" lon="10.2443500059">
		<tag k="name" v="Moen" />
		<tag k="place" v="farm" />
		<tag k="ssr:stedsnr" v="924442" />
	</node>
	<node id="-845445" lat="64.1696314819" lon="10.4783687098">
		<tag k="fixme" v="consider place=hamlet" />
		<tag k="name" v="Øverdal" />
		<tag k="place" v="farm" />
		<tag k="ssr:stedsnr" v="881254" />
	</node>
	<node id="-845441" lat="64.1705223077" lon="10.4818966333">
		<tag k="fixme" v="consider place=hamlet" />
		<tag k="name" v="Fagerdal" />
		<tag k="place" v="farm" />
		<tag k="ssr:stedsnr" v="742413" />
	</node>
	<node id="-844414" lat="64.254872223" lon="10.3601916712">
		<tag k="name" v="Moan" />
		<tag k="place" v="farm" />
		<tag k="ssr:stedsnr" v="335163" />
	</node>
	<node id="-844735" lat="64.1040611074" lon="10.1970694411">
		<tag k="name" v="Bergheim" />
		<tag k="place" v="farm" />
		<tag k="ssr:stedsnr" v="637931" />
	</node>
	<node id="-845431" lat="64.1798237543" lon="10.3793517688">
		<tag k="fixme" v="consider place=hamlet" />
		<tag k="name" v="Olvika" />
		<tag k="place" v="farm" />
		<tag k="ssr:stedsnr" v="759179" />
	</node>
	<node id="-844406" lat="64.1177777781" lon="10.5485805644">
		<tag k="alt_name" v="Hestnes" />
		<tag k="name" v="Hestneset" />
		<tag k="place" v="farm" />
		<tag k="ssr:stedsnr" v="864391" />
	</node>
	<node id="-845427" lat="64.1674944409" lon="10.2877055642">
		<tag k="name" v="Fjordaseteren" />
		<tag k="place" v="locality" />
		<tag k="ssr:stedsnr" v="803457" />
	</node>
	<node id="-844914" lat="64.141148354" lon="10.0553630433">
		<tag k="fixme" v="consider place=hamlet" />
		<tag k="name" v="Måøya" />
		<tag k="place" v="farm" />
		<tag k="ssr:stedsnr" v="971225" />
	</node>
	<node id="-845424" lat="64.1732694439" lon="10.245566673">
		<tag k="name" v="Bjørkmoen" />
		<tag k="place" v="farm" />
		<tag k="ssr:stedsnr" v="559465" />
	</node>
	<node id="-844911" lat="64.1451972196" lon="10.2238888898">
		<tag k="name" v="Aunet" />
		<tag k="place" v="farm" />
		<tag k="ssr:stedsnr" v="881111" />
	</node>
	<node id="-844398" lat="64.1586361124" lon="10.1836472213">
		<tag k="name" v="Reina" />
		<tag k="place" v="farm" />
		<tag k="ssr:stedsnr" v="274867" />
	</node>
	<node id="-844909" lat="64.248646014" lon="10.2625162512">
		<tag k="fixme" v="consider place=hamlet" />
		<tag k="name" v="Sandøya" />
		<tag k="place" v="farm" />
		<tag k="ssr:stedsnr" v="195100" />
	</node>
	<node id="-844908" lat="64.1812321349" lon="10.0361727445">
		<tag k="fixme" v="consider place=hamlet" />
		<tag k="name" v="Allmenningen" />
		<tag k="place" v="farm" />
		<tag k="ssr:stedsnr" v="971224" />
	</node>
	<node id="-844135" lat="64.1614765612" lon="10.1879954134">
		<tag k="fixme" v="multiple name tags, choose one and add the other to alt_name" />
		<tag k="name" v="Brandsøya;Reina" />
		<tag k="place" v="farm" />
		<tag k="ssr:stedsnr" v="135223" />
	</node>
	<node id="-845415" lat="64.1404041965" lon="10.1802302392">
		<tag k="fixme" v="consider place=hamlet" />
		<tag k="name" v="Troningen" />
		<tag k="place" v="farm" />
		<tag k="ssr:stedsnr" v="803191" />
	</node>
	<node id="-844902" lat="64.1767277755" lon="10.2462138937">
		<tag k="alt_name" v="Østmoen" />
		<tag k="name" v="Austmoen" />
		<tag k="place" v="farm" />
		<tag k="ssr:stedsnr" v="499395" />
	</node>
	<node id="-845072" lat="64.1548224855" lon="10.1864425518">
		<tag k="fixme" v="consider place=hamlet" />
		<tag k="name" v="Nes" />
		<tag k="place" v="farm" />
		<tag k="ssr:stedsnr" v="86988" />
	</node>
	<node id="-845406" lat="64.1874333355" lon="10.209336106">
		<tag k="fixme" v="consider place=hamlet" />
		<tag k="name" v="Utro" />
		<tag k="place" v="farm" />
		<tag k="ssr:stedsnr" v="196214" />
	</node>
	<node id="-844893" lat="64.1788972211" lon="10.2411055594">
		<tag k="alt_name" v="Ytter Skardet" />
		<tag k="name" v="Skardet" />
		<tag k="place" v="farm" />
		<tag k="ssr:stedsnr" v="499394" />
	</node>
	<node id="-845403" lat="64.1726630868" lon="10.2329626914">
		<tag k="fixme" v="multiple name tags, choose one and add the other to alt_name; consider place=hamlet" />
		<tag k="name" v="Prestgården;Bjørnør prestegård" />
		<tag k="place" v="farm" />
		<tag k="ssr:stedsnr" v="559455" />
	</node>
	<node id="-844378" lat="64.1074250023" lon="10.2045444381">
		<tag k="fixme" v="multiple name tags, choose one and add the other to alt_name" />
		<tag k="name" v="Moen;Myran" />
		<tag k="place" v="farm" />
		<tag k="ssr:stedsnr" v="924147" />
	</node>
	<node id="-844888" lat="64.1449590682" lon="10.1616579654">
		<tag k="fixme" v="consider place=hamlet" />
		<tag k="name" v="Hongsand" />
		<tag k="place" v="farm" />
		<tag k="ssr:stedsnr" v="971222" />
	</node>
	<node id="-845395" lat="64.1542694453" lon="10.56235556">
		<tag k="name" v="Storskardet" />
		<tag k="place" v="farm" />
		<tag k="ssr:stedsnr" v="438411" />
	</node>
	<node id="-844881" lat="64.2380638922" lon="10.2901222307">
		<tag k="name" v="Vettavika" />
		<tag k="place" v="hamlet" />
		<tag k="ssr:stedsnr" v="931193" />
	</node>
	<node id="-845407" lat="64.1731027792" lon="10.3401833233">
		<tag k="alt_name" v="Bakkan" />
		<tag k="name" v="Bakken" />
		<tag k="place" v="farm" />
		<tag k="ssr:stedsnr" v="14380" />
	</node>
	<node id="-844875" lat="64.173002777" lon="10.3459249946">
		<tag k="name" v="Pettersplassen" />
		<tag k="place" v="farm" />
		<tag k="ssr:stedsnr" v="274156" />
	</node>
	<node id="-844874" lat="64.119955556" lon="10.5470583307">
		<tag k="name" v="Aunet" />
		<tag k="place" v="farm" />
		<tag k="ssr:stedsnr" v="135347" />
	</node>
	<node id="-844873" lat="64.2472083326" lon="10.3317861182">
		<tag k="name" v="Aurvollan" />
		<tag k="place" v="farm" />
		<tag k="ssr:stedsnr" v="681034" />
	</node>
	<node id="-844094" lat="64.1725361117" lon="10.49611112">
		<tag k="building" v="industrial" />
		<tag k="name" v="Fagerdalssaga" />
		<tag k="ssr:stedsnr" v="31260" />
	</node>
	<node id="-844869" lat="64.2359305559" lon="10.2811944435">
		<tag k="name" v="Jektvika" />
		<tag k="place" v="isolated_dwelling" />
		<tag k="ssr:stedsnr" v="941202" />
	</node>
	<node id="-844470" lat="64.1967752695" lon="10.3656598715">
		<tag k="fixme" v="consider place=hamlet" />
		<tag k="name" v="Hauknes" />
		<tag k="place" v="farm" />
		<tag k="ssr:stedsnr" v="620466" />
	</node>
	<node id="-844179" lat="64.167483336" lon="10.1742750072">
		<tag k="name" v="Mefjellsmyra" />
		<tag k="place" v="farm" />
		<tag k="ssr:stedsnr" v="820893" />
	</node>
	<node id="-845372" lat="64.1688499973" lon="10.225908332">
		<tag k="name" v="Skipparvika" />
		<tag k="place" v="farm" />
		<tag k="ssr:stedsnr" v="14373" />
	</node>
	<node id="-844857" lat="64.1984722229" lon="10.3642611049">
		<tag k="name" v="Hauknes" />
		<tag k="place" v="farm" />
		<tag k="ssr:stedsnr" v="274139" />
	</node>
	<node id="-845366" lat="64.1498510882" lon="10.2345078695">
		<tag k="fixme" v="consider place=hamlet" />
		<tag k="name" v="Berfjorden" />
		<tag k="place" v="farm" />
		<tag k="ssr:stedsnr" v="438403" />
	</node>
	<node id="-844341" lat="64.2137583304" lon="10.2712499905">
		<tag k="name" v="Kilsvika" />
		<tag k="place" v="farm" />
		<tag k="ssr:stedsnr" v="559015" />
	</node>
	<node id="-845364" lat="64.1591194424" lon="10.1818666703">
		<tag k="name" v="Munkhaugen" />
		<tag k="place" v="farm" />
		<tag k="ssr:stedsnr" v="213903" />
	</node>
	<node id="-844339" lat="64.124138886" lon="10.1284249922">
		<tag k="name" v="Dahlstranda" />
		<tag k="place" v="farm" />
		<tag k="ssr:stedsnr" v="274853" />
	</node>
	<node id="-844849" lat="64.1750666655" lon="10.4647666751">
		<tag k="name" v="Kløverenget" />
		<tag k="place" v="isolated_dwelling" />
		<tag k="ssr:stedsnr" v="335266" />
	</node>
	<node id="-845359" lat="64.1907083307" lon="10.4161722147">
		<tag k="name" v="Strand" />
		<tag k="place" v="farm" />
		<tag k="ssr:stedsnr" v="31140" />
	</node>
	<node id="-845348" lat="64.1516861144" lon="10.1779944488">
		<tag k="name" v="Halsan" />
		<tag k="place" v="farm" />
		<tag k="ssr:stedsnr" v="213904" />
	</node>
	<node id="-844332" lat="64.12269722" lon="10.1273111115">
		<tag k="name" v="Leirvågen" />
		<tag k="place" v="farm" />
		<tag k="ssr:stedsnr" v="274850" />
	</node>
	<node id="-844842" lat="64.1511583299" lon="10.1775166617">
		<tag k="amenity" v="school" />
		<tag k="name" v="Sør-Roan skole" />
		<tag k="ssr:stedsnr" v="59867" />
	</node>
	<node id="-844636" lat="64.1229750041" lon="10.145194438">
		<tag k="name" v="Dahlgården" />
		<tag k="place" v="farm" />
		<tag k="ssr:stedsnr" v="637882" />
	</node>
	<node id="-844838" lat="64.172594441" lon="10.3707277714">
		<tag k="name" v="Kikan" />
		<tag k="place" v="farm" />
		<tag k="ssr:stedsnr" v="820198" />
	</node>
	<node id="-844324" lat="64.1269277798" lon="10.1326055628">
		<tag k="name" v="Nordsjøen" />
		<tag k="place" v="farm" />
		<tag k="ssr:stedsnr" v="274849" />
	</node>
	<node id="-844894" lat="64.1756055561" lon="10.3571249982">
		<tag k="name" v="Halsan" />
		<tag k="place" v="farm" />
		<tag k="ssr:stedsnr" v="456183" />
	</node>
	<node id="-844832" lat="64.1353262805" lon="10.2087849741">
		<tag k="name" v="Kråkfjorden" />
		<tag k="place" v="hamlet" />
		<tag k="ssr:stedsnr" v="864187" />
	</node>
	<node id="-845341" lat="64.1698611099" lon="10.3718972256">
		<tag k="name" v="Myra" />
		<tag k="place" v="farm" />
		<tag k="ssr:stedsnr" v="456293" />
	</node>
	<node id="-845339" lat="64.1765333323" lon="10.3542722165">
		<tag k="name" v="Øra" />
		<tag k="place" v="farm" />
		<tag k="ssr:stedsnr" v="516165" />
	</node>
	<node id="-844823" lat="64.1780861137" lon="10.4333638973">
		<tag k="name" v="Fagerheim" />
		<tag k="place" v="farm" />
		<tag k="ssr:stedsnr" v="499387" />
	</node>
	<node id="-844821" lat="64.2746694446" lon="10.3597305481">
		<tag k="name" v="Jørnrommet" />
		<tag k="place" v="farm" />
		<tag k="ssr:stedsnr" v="941213" />
	</node>
	<node id="-845330" lat="64.1597194407" lon="10.2200555453">
		<tag k="name" v="Måvika" />
		<tag k="place" v="farm" />
		<tag k="ssr:stedsnr" v="135418" />
	</node>
	<node id="-845329" lat="64.1696027805" lon="10.3620888974">
		<tag k="name" v="Rumpa" />
		<tag k="place" v="farm" />
		<tag k="ssr:stedsnr" v="699141" />
	</node>
	<node id="-844304" lat="64.2796166659" lon="10.3750416748">
		<tag k="name" v="Mostervik Ø." />
		<tag k="place" v="farm" />
		<tag k="ssr:stedsnr" v="213251" />
	</node>
	<node id="-844973" lat="64.1284555523" lon="10.2807388927">
		<tag k="alt_name" v="Brattbakkan" />
		<tag k="name" v="Brattbakken" />
		<tag k="place" v="farm" />
		<tag k="ssr:stedsnr" v="803402" />
	</node>
</osm>
