<?xml version="1.0" encoding="UTF-8"?>
<osm generator="osmapis" version="0.6">
	<node id="-749568" lat="69.0168250032" lon="17.5316111059">
		<tag k="name" v="Sortevika" />
		<tag k="natural" v="bay" />
		<tag k="ssr:stedsnr" v="940996" />
	</node>
	<node id="-749567" lat="68.9904333297" lon="17.3548305582">
		<tag k="name" v="Hesteneset" />
		<tag k="natural" v="cape" />
		<tag k="ssr:stedsnr" v="940675" />
	</node>
	<node id="-749566" lat="69.0278333382" lon="17.3514527654">
		<tag k="name" v="Bergsvika" />
		<tag k="natural" v="bay" />
		<tag k="ssr:stedsnr" v="940315" />
	</node>
	<node id="-749053" lat="69.0970111127" lon="17.6460694353">
		<tag k="fixme" v="consider seamark:type=rock or natural=shoal" />
		<tag k="name" v="Skjæret" />
		<tag k="place" v="islet" />
		<tag k="ssr:stedsnr" v="584724" />
	</node>
	<node id="-749052" lat="69.0915999987" lon="17.5859861138">
		<tag k="name" v="Oldervika" />
		<tag k="natural" v="bay" />
		<tag k="ssr:stedsnr" v="584701" />
	</node>
	<node id="-748539" lat="69.0654055552" lon="17.5540111183">
		<tag k="name" v="Svinvika" />
		<tag k="natural" v="bay" />
		<tag k="ssr:stedsnr" v="90921" />
	</node>
	<node id="-748538" lat="68.9807305545" lon="17.4719888887">
		<tag k="name" v="Lauknesgrunnen" />
		<tag k="natural" v="shoal" />
		<tag k="place" v="locality" />
		<tag k="ssr:stedsnr" v="90507" />
	</node>
	<node id="-748537" lat="69.0153138932" lon="17.357466669">
		<tag k="fixme" v="consider seamark:type=rock or natural=shoal" />
		<tag k="name" v="Flua" />
		<tag k="place" v="islet" />
		<tag k="ssr:stedsnr" v="90290" />
	</node>
	<node id="-749558" lat="68.9291499988" lon="17.4788222284">
		<tag k="name" v="Molla" />
		<tag k="natural" v="cape" />
		<tag k="ssr:stedsnr" v="928919" />
	</node>
	<node id="-749557" lat="68.9661277762" lon="17.4970416588">
		<tag k="bay" v="fjord" />
		<tag k="loc_name:se" v="Fáksfierda" />
		<tag k="name" v="Faksfjorden" />
		<tag k="name:no" v="Faksfjorden" />
		<tag k="natural" v="bay" />
		<tag k="ssr:stedsnr" v="928906" />
	</node>
	<node id="-749556" lat="68.9801888864" lon="17.5075555507">
		<tag k="name" v="Labukta" />
		<tag k="natural" v="bay" />
		<tag k="ssr:stedsnr" v="928892" />
	</node>
	<node id="-749555" lat="68.9581083313" lon="17.5125305432">
		<tag k="alt_name" v="Skjelvika" />
		<tag k="name" v="Skjellvika" />
		<tag k="natural" v="bay" />
		<tag k="ssr:stedsnr" v="928869" />
	</node>
	<node id="-749551" lat="69.0947583361" lon="17.6253166662">
		<tag k="name" v="Finnlandsneset" />
		<tag k="natural" v="cape" />
		<tag k="ssr:stedsnr" v="928237" />
	</node>
	<node id="-749549" lat="69.0845750025" lon="17.5574305552">
		<tag k="name" v="Dyrøyklauva" />
		<tag k="natural" v="cape" />
		<tag k="ssr:stedsnr" v="928222" />
	</node>
	<node id="-749548" lat="68.9829777803" lon="17.3905222102">
		<tag k="name" v="Hagenesgrunnen" />
		<tag k="natural" v="shoal" />
		<tag k="place" v="locality" />
		<tag k="ssr:stedsnr" v="928112" />
	</node>
	<node id="-748540" lat="69.0631694408" lon="17.5737749883">
		<tag k="name" v="Forrholtsgrunnen" />
		<tag k="natural" v="shoal" />
		<tag k="place" v="locality" />
		<tag k="ssr:stedsnr" v="90940" />
	</node>
	<node id="-749541" lat="68.9499277742" lon="17.4685083235">
		<tag k="fixme" v="consider seamark:type=rock or natural=shoal" />
		<tag k="name" v="Per-Jensasteinen" />
		<tag k="place" v="islet" />
		<tag k="ssr:stedsnr" v="901884" />
	</node>
	<node id="-748515" lat="69.0246888875" lon="17.3552861123">
		<tag k="name" v="Mulen" />
		<tag k="natural" v="cape" />
		<tag k="ssr:stedsnr" v="79082" />
	</node>
	<node id="-748512" lat="68.9570888876" lon="17.4979222116">
		<tag k="name" v="Kvalnesodden" />
		<tag k="natural" v="cape" />
		<tag k="ssr:stedsnr" v="78943" />
	</node>
	<node id="-749533" lat="68.9868527813" lon="17.3681611187">
		<tag k="name" v="Gommestranda" />
		<tag k="natural" v="beach" />
		<tag k="place" v="locality" />
		<tag k="ssr:stedsnr" v="901847" />
	</node>
	<node id="-748506" lat="68.9798166646" lon="17.490377777">
		<tag k="name" v="Laukeneset" />
		<tag k="natural" v="cape" />
		<tag k="ssr:stedsnr" v="52892" />
	</node>
	<node id="-749013" lat="69.1154333337" lon="17.6855749872">
		<tag k="name" v="Bettholmen" />
		<tag k="old_name" v="Bøttholmen;Betholmen" />
		<tag k="place" v="islet" />
		<tag k="ssr:stedsnr" v="564259" />
	</node>
	<node id="-749011" lat="69.0907472254" lon="17.5357416548">
		<tag k="name" v="Rekvikodden" />
		<tag k="natural" v="cape" />
		<tag k="ssr:stedsnr" v="564237" />
	</node>
	<node id="-749010" lat="69.089272221" lon="17.618650001">
		<tag k="alt_name" v="Finnlandsholman" />
		<tag k="name" v="Finnlandsholmen" />
		<tag k="place" v="islet" />
		<tag k="ssr:stedsnr" v="564235" />
	</node>
	<node id="-749520" lat="69.0769222189" lon="17.6751555418">
		<tag k="name" v="Orneset" />
		<tag k="natural" v="cape" />
		<tag k="ssr:stedsnr" v="901541" />
	</node>
	<node id="-749005" lat="68.9569916671" lon="17.4949138853">
		<tag k="name" v="Kvalnesvika" />
		<tag k="natural" v="bay" />
		<tag k="ssr:stedsnr" v="537873" />
	</node>
	<node id="-749508" lat="69.0381361141" lon="17.485944442">
		<tag k="name" v="Finnevika" />
		<tag k="natural" v="bay" />
		<tag k="ssr:stedsnr" v="901155" />
	</node>
	<node id="-748991" lat="68.9656194471" lon="17.5570138958">
		<tag k="name" v="Rødsteinvika" />
		<tag k="natural" v="bay" />
		<tag k="ssr:stedsnr" v="537205" />
	</node>
	<node id="-749500" lat="69.1089444442" lon="17.6508305632">
		<tag k="name" v="Krokvika" />
		<tag k="natural" v="bay" />
		<tag k="ssr:stedsnr" v="879428" />
	</node>
	<node id="-749499" lat="69.0937000032" lon="17.5806055624">
		<tag k="name" v="Klauvhamna" />
		<tag k="natural" v="bay" />
		<tag k="ssr:stedsnr" v="879397" />
	</node>
	<node id="-749498" lat="69.0692666703" lon="17.5537583302">
		<tag k="name" v="Forrholtet" />
		<tag k="natural" v="cape" />
		<tag k="ssr:stedsnr" v="879169" />
	</node>
	<node id="-749493" lat="69.0227638888" lon="17.8930972303">
		<tag k="name" v="Storholmen" />
		<tag k="place" v="islet" />
		<tag k="ssr:stedsnr" v="868599" />
	</node>
	<node id="-748467" lat="69.1310305545" lon="17.8703083187">
		<tag k="name" v="Ytre Lavik" />
		<tag k="natural" v="bay" />
		<tag k="ssr:stedsnr" v="51064" />
	</node>
	<node id="-749485" lat="68.9859944475" lon="17.4819361085">
		<tag k="name" v="Kastnesvika" />
		<tag k="natural" v="bay" />
		<tag k="ssr:stedsnr" v="867973" />
	</node>
	<node id="-749481" lat="69.0793305529" lon="17.4138944316">
		<tag k="name" v="Leverneset" />
		<tag k="natural" v="cape" />
		<tag k="ssr:stedsnr" v="867070" />
	</node>
	<node id="-749479" lat="68.9206611152" lon="17.454402768">
		<tag k="fixme" v="consider seamark:type=rock or natural=shoal" />
		<tag k="name" v="Taterhella" />
		<tag k="place" v="islet" />
		<tag k="ssr:stedsnr" v="841897" />
	</node>
	<node id="-748451" lat="69.0146805576" lon="17.3551416708">
		<tag k="name" v="Flugrunnen" />
		<tag k="natural" v="shoal" />
		<tag k="place" v="locality" />
		<tag k="ssr:stedsnr" v="37930" />
	</node>
	<node id="-749463" lat="68.9660500033" lon="17.5538472167">
		<tag k="name" v="Koppmålvika" />
		<tag k="natural" v="bay" />
		<tag k="ssr:stedsnr" v="841229" />
	</node>
	<node id="-748947" lat="68.9931638911" lon="17.4126277745">
		<tag k="name" v="Hindgrunnen" />
		<tag k="natural" v="shoal" />
		<tag k="place" v="locality" />
		<tag k="ssr:stedsnr" v="516636" />
	</node>
	<node id="-748946" lat="69.0646333366" lon="17.5534444449">
		<tag k="name" v="Svinvikodden" />
		<tag k="natural" v="cape" />
		<tag k="ssr:stedsnr" v="515960" />
	</node>
	<node id="-748944" lat="69.0697583309" lon="17.6034416523">
		<tag k="name" v="Heibakken" />
		<tag k="natural" v="shoal" />
		<tag k="place" v="locality" />
		<tag k="ssr:stedsnr" v="515406" />
	</node>
	<node id="-748429" lat="68.9828222181" lon="17.4831694498">
		<tag k="fixme" v="multiple name tags, choose one and add the other to alt_name" />
		<tag k="name" v="Laukenesklubben;Laukneset" />
		<tag k="natural" v="cape" />
		<tag k="ssr:stedsnr" v="18985" />
	</node>
	<node id="-748428" lat="68.9749944487" lon="17.5448944379">
		<tag k="name" v="Langeneset" />
		<tag k="natural" v="cape" />
		<tag k="ssr:stedsnr" v="18879" />
	</node>
	<node id="-748439" lat="69.0253416658" lon="17.5400333258">
		<tag k="name" v="Laneset" />
		<tag k="natural" v="cape" />
		<tag k="ssr:stedsnr" v="19608" />
	</node>
	<node id="-748423" lat="69.0123805602" lon="17.8904055432">
		<tag k="name" v="Sørbukta" />
		<tag k="natural" v="bay" />
		<tag k="ssr:stedsnr" v="18605" />
	</node>
	<node id="-749443" lat="69.0801055552" lon="17.5467833366">
		<tag k="name" v="Bukkeneset" />
		<tag k="natural" v="cape" />
		<tag k="ssr:stedsnr" v="828683" />
	</node>
	<node id="-748930" lat="68.9642138922" lon="17.5593583206">
		<tag k="name" v="Pålsfjorden" />
		<tag k="natural" v="bay" />
		<tag k="ssr:stedsnr" v="503832" />
	</node>
	<node id="-748415" lat="68.9338388855" lon="17.481394443">
		<tag k="name" v="Gjeskevika" />
		<tag k="natural" v="bay" />
		<tag k="ssr:stedsnr" v="17947" />
	</node>
	<node id="-748414" lat="68.955963893" lon="17.5486694414">
		<tag k="alt_name" v="Kuurdneset" />
		<tag k="name" v="Ku-urneset" />
		<tag k="natural" v="cape" />
		<tag k="ssr:stedsnr" v="17944" />
	</node>
	<node id="-748411" lat="68.9937416693" lon="17.3702611047">
		<tag k="loc_name:se" v="Divrrát" />
		<tag k="name" v="Dyrøya" />
		<tag k="name:no" v="Dyrøya" />
		<tag k="place" v="island" />
		<tag k="ssr:stedsnr" v="17145" />
	</node>
	<node id="-748408" lat="69.117744444" lon="17.7823249876">
		<tag k="name" v="Mobogen" />
		<tag k="natural" v="bay" />
		<tag k="ssr:stedsnr" v="888827" />
	</node>
	<node id="-748405" lat="69.0432527751" lon="17.5934777831">
		<tag k="name" v="Bogen" />
		<tag k="natural" v="bay" />
		<tag k="ssr:stedsnr" v="888702" />
	</node>
	<node id="-748404" lat="69.0702527791" lon="17.5538472086">
		<tag k="name" v="Dalvika" />
		<tag k="natural" v="bay" />
		<tag k="ssr:stedsnr" v="888503" />
	</node>
	<node id="-748396" lat="69.1189166642" lon="17.7181111116">
		<tag k="name" v="Geitnesvika" />
		<tag k="natural" v="bay" />
		<tag k="ssr:stedsnr" v="888111" />
	</node>
	<node id="-748907" lat="68.9901361083" lon="17.3544527635">
		<tag k="name" v="Kråa" />
		<tag k="natural" v="bay" />
		<tag k="ssr:stedsnr" v="462917" />
	</node>
	<node id="-748394" lat="68.9988555524" lon="17.3438944489">
		<tag k="name" v="Vinjeneset" />
		<tag k="natural" v="cape" />
		<tag k="ssr:stedsnr" v="887923" />
	</node>
	<node id="-748177" lat="68.9767611068" lon="17.5447666716">
		<tag k="name" v="Heimstadvika" />
		<tag k="natural" v="bay" />
		<tag k="ssr:stedsnr" v="294197" />
	</node>
	<node id="-749409" lat="69.0920527768" lon="17.6116472141">
		<tag k="name" v="Klauvgrunnen" />
		<tag k="natural" v="shoal" />
		<tag k="place" v="locality" />
		<tag k="ssr:stedsnr" v="818464" />
	</node>
	<node id="-749029" lat="69.1048749998" lon="17.637188892">
		<tag k="name" v="Slåttevikneset" />
		<tag k="natural" v="cape" />
		<tag k="ssr:stedsnr" v="575421" />
	</node>
	<node id="-749404" lat="69.1016805603" lon="17.5917610991">
		<tag k="name" v="Klauvholmgrunnen" />
		<tag k="natural" v="shoal" />
		<tag k="place" v="locality" />
		<tag k="ssr:stedsnr" v="808253" />
	</node>
	<node id="-749403" lat="69.1027416662" lon="17.6353805417">
		<tag k="name" v="Slåttevika" />
		<tag k="natural" v="bay" />
		<tag k="ssr:stedsnr" v="808252" />
	</node>
	<node id="-748890" lat="68.996863892" lon="17.4745777733">
		<tag k="fixme" v="consider seamark:type=rock or natural=shoal" />
		<tag k="name" v="Kastnesskjæret" />
		<tag k="place" v="islet" />
		<tag k="ssr:stedsnr" v="454532" />
	</node>
	<node id="-748889" lat="68.9796916683" lon="17.512494437">
		<tag k="name" v="Skjellgrunnen" />
		<tag k="natural" v="shoal" />
		<tag k="place" v="locality" />
		<tag k="ssr:stedsnr" v="454530" />
	</node>
	<node id="-748373" lat="68.9137388915" lon="17.4489305613">
		<tag k="name" v="Oterholla" />
		<tag k="natural" v="bay" />
		<tag k="ssr:stedsnr" v="476904" />
	</node>
	<node id="-748686" lat="68.9118666632" lon="17.4491055584">
		<tag k="name" v="Russebordan" />
		<tag k="natural" v="cape" />
		<tag k="ssr:stedsnr" v="173894" />
	</node>
	<node id="-748368" lat="69.0053277775" lon="17.4341361144">
		<tag k="name" v="Litjevika" />
		<tag k="natural" v="bay" />
		<tag k="ssr:stedsnr" v="476828" />
	</node>
	<node id="-749390" lat="69.0552499983" lon="17.5391749981">
		<tag k="name" v="Klubbneset" />
		<tag k="natural" v="cape" />
		<tag k="ssr:stedsnr" v="807330" />
	</node>
	<node id="-748874" lat="69.1173833316" lon="17.7692777811">
		<tag k="name" v="Skjerneset" />
		<tag k="natural" v="cape" />
		<tag k="ssr:stedsnr" v="443279" />
	</node>
	<node id="-749385" lat="69.1172694466" lon="17.7528277816">
		<tag k="name" v="Espenesbogen" />
		<tag k="natural" v="bay" />
		<tag k="ssr:stedsnr" v="807263" />
	</node>
	<node id="-748872" lat="69.0865500006" lon="17.682897231">
		<tag k="name" v="Brøstadbotn" />
		<tag k="natural" v="bay" />
		<tag k="ssr:stedsnr" v="443243" />
	</node>
	<node id="-748869" lat="68.9962444443" lon="17.4793111147">
		<tag k="name" v="Løkteskjeret" />
		<tag k="natural" v="cape" />
		<tag k="ssr:stedsnr" v="443000" />
	</node>
	<node id="-748868" lat="68.9911361123" lon="17.475683332">
		<tag k="name" v="Kjerkeneset" />
		<tag k="natural" v="cape" />
		<tag k="ssr:stedsnr" v="442975" />
	</node>
	<node id="-749379" lat="68.9097361104" lon="17.4481777795">
		<tag k="name" v="Larsevika" />
		<tag k="natural" v="bay" />
		<tag k="ssr:stedsnr" v="780883" />
	</node>
	<node id="-748864" lat="68.9307305551" lon="17.4540527692">
		<tag k="name" v="Lysgrunnen" />
		<tag k="natural" v="shoal" />
		<tag k="place" v="locality" />
		<tag k="ssr:stedsnr" v="442937" />
	</node>
	<node id="-749375" lat="68.9239305538" lon="17.4651833307">
		<tag k="name" v="Laneset" />
		<tag k="natural" v="cape" />
		<tag k="ssr:stedsnr" v="780872" />
	</node>
	<node id="-749374" lat="68.9801666648" lon="17.5021305579">
		<tag k="name" v="Herborgneset" />
		<tag k="natural" v="cape" />
		<tag k="ssr:stedsnr" v="780868" />
	</node>
	<node id="-749373" lat="68.9800166636" lon="17.5150638772">
		<tag k="name" v="Rødbergvika" />
		<tag k="natural" v="bay" />
		<tag k="ssr:stedsnr" v="780867" />
	</node>
	<node id="-748859" lat="68.9575499965" lon="17.4988999917">
		<tag k="name" v="Merra" />
		<tag k="natural" v="beach" />
		<tag k="place" v="locality" />
		<tag k="ssr:stedsnr" v="416871" />
	</node>
	<node id="-748343" lat="69.0856999955" lon="17.5634111176">
		<tag k="name" v="Sandvika" />
		<tag k="natural" v="bay" />
		<tag k="ssr:stedsnr" v="403695" />
	</node>
	<node id="-748342" lat="69.0828888873" lon="17.5503222133">
		<tag k="name" v="Skjellvika" />
		<tag k="natural" v="bay" />
		<tag k="ssr:stedsnr" v="403691" />
	</node>
	<node id="-749054" lat="69.08158889" lon="17.550222213">
		<tag k="name" v="Forneset" />
		<tag k="natural" v="cape" />
		<tag k="ssr:stedsnr" v="584732" />
	</node>
	<node id="-749355" lat="69.0491166684" lon="17.60573334">
		<tag k="name" v="Hundstrandvika" />
		<tag k="natural" v="bay" />
		<tag k="ssr:stedsnr" v="780302" />
	</node>
	<node id="-749353" lat="68.9721861117" lon="17.5463833219">
		<tag k="name" v="Mellavika" />
		<tag k="natural" v="bay" />
		<tag k="ssr:stedsnr" v="780214" />
	</node>
	<node id="-748328" lat="69.1188888874" lon="17.7118416649">
		<tag k="name" v="Geitneset" />
		<tag k="natural" v="cape" />
		<tag k="ssr:stedsnr" v="402137" />
	</node>
	<node id="-748829" lat="68.9738138846" lon="17.54525278">
		<tag k="name" v="Båtvika" />
		<tag k="natural" v="bay" />
		<tag k="ssr:stedsnr" v="416195" />
	</node>
	<node id="-748316" lat="69.0549694472" lon="17.5617250012">
		<tag k="name" v="Snaget" />
		<tag k="natural" v="shoal" />
		<tag k="place" v="locality" />
		<tag k="ssr:stedsnr" v="393953" />
	</node>
	<node id="-748827" lat="69.0789305514" lon="17.4106416621">
		<tag k="fixme" v="consider seamark:type=rock or natural=shoal" />
		<tag k="name" v="Kavringen" />
		<tag k="place" v="islet" />
		<tag k="ssr:stedsnr" v="416160" />
	</node>
	<node id="-748931" lat="68.9442194444" lon="17.4765305435">
		<tag k="name" v="Rabben" />
		<tag k="natural" v="cape" />
		<tag k="ssr:stedsnr" v="503892" />
	</node>
	<node id="-748304" lat="69.0497027808" lon="17.3161916599">
		<tag k="bay" v="fjord" />
		<tag k="name" v="Tranøyfjorden" />
		<tag k="natural" v="bay" />
		<tag k="ssr:stedsnr" v="382027" />
	</node>
	<node id="-749327" lat="69.1262805522" lon="17.8219472092">
		<tag k="name" v="Grindbergneset" />
		<tag k="natural" v="cape" />
		<tag k="ssr:stedsnr" v="766844" />
	</node>
	<node id="-748813" lat="69.0357805547" lon="17.4865000067">
		<tag k="fixme" v="multiple name tags, choose one and add the other to alt_name" />
		<tag k="name" v="Holmen;Holmsholmen;Kjerkeholmen" />
		<tag k="place" v="islet" />
		<tag k="ssr:stedsnr" v="261328" />
	</node>
	<node id="-748812" lat="69.0404500029" lon="17.9261472118">
		<tag k="name" v="Gammallappvika" />
		<tag k="natural" v="bay" />
		<tag k="ssr:stedsnr" v="261326" />
	</node>
	<node id="-748418" lat="69.1190277807" lon="17.7393611207">
		<tag k="name" v="Tenneset" />
		<tag k="natural" v="cape" />
		<tag k="ssr:stedsnr" v="18106" />
	</node>
	<node id="-748298" lat="68.9526638912" lon="17.4692944469">
		<tag k="fixme" v="consider seamark:type=rock or natural=shoal" />
		<tag k="name" v="Rissteinen" />
		<tag k="place" v="islet" />
		<tag k="ssr:stedsnr" v="355863" />
	</node>
	<node id="-748759" lat="69.0579083314" lon="17.5444583262">
		<tag k="name" v="Djupvikholmen" />
		<tag k="place" v="islet" />
		<tag k="ssr:stedsnr" v="233319" />
	</node>
	<node id="-748808" lat="69.0956361069" lon="17.5854749956">
		<tag k="fixme" v="multiple name tags, choose one and add the other to alt_name" />
		<tag k="name" v="Holmen;Klauvholmen" />
		<tag k="place" v="islet" />
		<tag k="ssr:stedsnr" v="261265" />
	</node>
	<node id="-748806" lat="69.0896027736" lon="17.6733527734">
		<tag k="name" v="Lindberget" />
		<tag k="natural" v="cape" />
		<tag k="ssr:stedsnr" v="261241" />
	</node>
	<node id="-748805" lat="69.0294750032" lon="17.912375001">
		<tag k="name" v="Nordneset" />
		<tag k="natural" v="cape" />
		<tag k="ssr:stedsnr" v="261074" />
	</node>
	<node id="-748800" lat="69.0426750037" lon="17.3703361095">
		<tag k="name" v="Storvika" />
		<tag k="natural" v="bay" />
		<tag k="ssr:stedsnr" v="260157" />
	</node>
	<node id="-749310" lat="69.0217083321" lon="17.9129249962">
		<tag k="name" v="Sandvika" />
		<tag k="natural" v="bay" />
		<tag k="ssr:stedsnr" v="747624" />
	</node>
	<node id="-748797" lat="68.9484805524" lon="17.4740611179">
		<tag k="name" v="Gjeskeneset" />
		<tag k="natural" v="cape" />
		<tag k="ssr:stedsnr" v="234897" />
	</node>
	<node id="-749303" lat="68.9812194486" lon="17.5414944475">
		<tag k="name" v="Faksfjordvika" />
		<tag k="natural" v="bay" />
		<tag k="ssr:stedsnr" v="746869" />
	</node>
	<node id="-748271" lat="69.0812861132" lon="17.4248833395">
		<tag k="name" v="Mellaneset" />
		<tag k="natural" v="cape" />
		<tag k="ssr:stedsnr" v="355183" />
	</node>
	<node id="-749291" lat="69.1173027805" lon="17.6866638749">
		<tag k="name" v="Bettholmgrunnen" />
		<tag k="natural" v="shoal" />
		<tag k="old_name" v="Bøttholmgrunnen" />
		<tag k="place" v="locality" />
		<tag k="ssr:stedsnr" v="746282" />
	</node>
	<node id="-748969" lat="69.0609333374" lon="17.6323805549">
		<tag k="name" v="Sæterneset" />
		<tag k="natural" v="cape" />
		<tag k="ssr:stedsnr" v="524289" />
	</node>
	<node id="-749284" lat="68.9861361149" lon="17.3762388828">
		<tag k="fixme" v="multiple name tags, choose one and add the other to alt_name" />
		<tag k="name" v="Hagenes;Hagenesodden" />
		<tag k="natural" v="cape" />
		<tag k="ssr:stedsnr" v="745155" />
	</node>
	<node id="-748258" lat="69.0846861153" lon="17.5579166556">
		<tag k="name" v="Naustneset" />
		<tag k="natural" v="cape" />
		<tag k="ssr:stedsnr" v="342649" />
	</node>
	<node id="-749279" lat="68.9236250023" lon="17.4626361161">
		<tag k="name" v="Lanesvika" />
		<tag k="natural" v="bay" />
		<tag k="ssr:stedsnr" v="719868" />
	</node>
	<node id="-748253" lat="69.0303444471" lon="17.8488861113">
		<tag k="name" v="Bukta" />
		<tag k="natural" v="bay" />
		<tag k="ssr:stedsnr" v="341879" />
	</node>
	<node id="-749271" lat="68.9984750015" lon="17.4200749874">
		<tag k="name" v="Jektevika" />
		<tag k="natural" v="bay" />
		<tag k="ssr:stedsnr" v="719813" />
	</node>
	<node id="-749267" lat="69.1291500025" lon="17.8537083408">
		<tag k="name" v="Furstrandvika" />
		<tag k="natural" v="bay" />
		<tag k="ssr:stedsnr" v="719752" />
	</node>
	<node id="-748239" lat="68.9953722268" lon="17.3426694391">
		<tag k="name" v="Mollgrunnen" />
		<tag k="natural" v="shoal" />
		<tag k="place" v="locality" />
		<tag k="ssr:stedsnr" v="340911" />
	</node>
	<node id="-748749" lat="69.0806499962" lon="17.5487055613">
		<tag k="name" v="Vika" />
		<tag k="natural" v="bay" />
		<tag k="ssr:stedsnr" v="221661" />
	</node>
	<node id="-748234" lat="68.9992499972" lon="17.3480472218">
		<tag k="name" v="Gommeneset" />
		<tag k="natural" v="cape" />
		<tag k="ssr:stedsnr" v="333670" />
	</node>
	<node id="-748233" lat="69.0617055571" lon="17.5468555534">
		<tag k="name" v="Ringneset" />
		<tag k="natural" v="cape" />
		<tag k="ssr:stedsnr" v="332941" />
	</node>
	<node id="-748232" lat="69.0573416635" lon="17.5402777739">
		<tag k="alt_name" v="Sjebbeneset" />
		<tag k="name" v="Sjøbuneset" />
		<tag k="natural" v="cape" />
		<tag k="ssr:stedsnr" v="332931" />
	</node>
	<node id="-749251" lat="69.0393388882" lon="17.5143722269">
		<tag k="name" v="Myrneset" />
		<tag k="natural" v="cape" />
		<tag k="ssr:stedsnr" v="719170" />
	</node>
	<node id="-749289" lat="69.0905027813" lon="17.5858944504">
		<tag k="alt_name" v="Urdneset" />
		<tag k="name" v="Ørnneset" />
		<tag k="natural" v="cape" />
		<tag k="ssr:stedsnr" v="746239" />
	</node>
	<node id="-748300" lat="68.9149777774" lon="17.448455543">
		<tag k="fixme" v="consider seamark:type=rock or natural=shoal" />
		<tag k="name" v="Gunhildsteinen" />
		<tag k="place" v="islet" />
		<tag k="ssr:stedsnr" v="355887" />
	</node>
	<node id="-749242" lat="69.0849277782" lon="17.5652555648">
		<tag k="name" v="Nils-holmen" />
		<tag k="place" v="islet" />
		<tag k="ssr:stedsnr" v="706692" />
	</node>
	<node id="-748727" lat="69.1218999992" lon="17.8028333362">
		<tag k="name" v="Myrneset" />
		<tag k="natural" v="cape" />
		<tag k="ssr:stedsnr" v="220179" />
	</node>
	<node id="-749234" lat="69.0366277786" lon="17.8800583281">
		<tag k="name" v="Garnsettodden" />
		<tag k="natural" v="cape" />
		<tag k="ssr:stedsnr" v="705878" />
	</node>
	<node id="-748419" lat="69.087069449" lon="17.4953333235">
		<tag k="name" v="Sørneset" />
		<tag k="natural" v="cape" />
		<tag k="ssr:stedsnr" v="18232" />
	</node>
	<node id="-749229" lat="69.0301916696" lon="17.8531749981">
		<tag k="name" v="Oksebåsen" />
		<tag k="natural" v="bay" />
		<tag k="ssr:stedsnr" v="705822" />
	</node>
	<node id="-749215" lat="69.0300111143" lon="17.4641777776">
		<tag k="name" v="Forsåbukta" />
		<tag k="natural" v="bay" />
		<tag k="ssr:stedsnr" v="697970" />
	</node>
	<node id="-749214" lat="69.0875194407" lon="17.6850944294">
		<tag k="name" v="Finnlandsleira" />
		<tag k="natural" v="bay" />
		<tag k="ssr:stedsnr" v="697397" />
	</node>
	<node id="-748691" lat="68.9518500008" lon="17.4711222255">
		<tag k="name" v="Gjeskenesodden" />
		<tag k="natural" v="cape" />
		<tag k="ssr:stedsnr" v="199888" />
	</node>
	<node id="-748689" lat="69.0089472261" lon="17.5183388927">
		<tag k="name" v="Karenvika" />
		<tag k="natural" v="bay" />
		<tag k="ssr:stedsnr" v="173817" />
	</node>
	<node id="-749198" lat="68.956577775" lon="17.5381777739">
		<tag k="name" v="Kvanntovika" />
		<tag k="natural" v="bay" />
		<tag k="ssr:stedsnr" v="685925" />
	</node>
	<node id="-749185" lat="69.0008694416" lon="17.490850009">
		<tag k="name" v="Hamnegrunnen" />
		<tag k="natural" v="shoal" />
		<tag k="place" v="locality" />
		<tag k="ssr:stedsnr" v="658805" />
	</node>
	<node id="-748672" lat="69.0373166644" lon="17.4853722307">
		<tag k="name" v="Holmebukta" />
		<tag k="natural" v="bay" />
		<tag k="ssr:stedsnr" v="173157" />
	</node>
	<node id="-749182" lat="69.0574027777" lon="17.3837888789">
		<tag k="name" v="Rørneset" />
		<tag k="natural" v="cape" />
		<tag k="ssr:stedsnr" v="658762" />
	</node>
	<node id="-749503" lat="69.1343722247" lon="17.892572226">
		<tag k="name" v="Indre Lavik" />
		<tag k="natural" v="bay" />
		<tag k="ssr:stedsnr" v="900113" />
	</node>
	<node id="-749176" lat="69.0375999987" lon="17.5708027843">
		<tag k="name" v="Stefaneset" />
		<tag k="natural" v="cape" />
		<tag k="ssr:stedsnr" v="658368" />
	</node>
	<node id="-748434" lat="69.0374444421" lon="17.5365666723">
		<tag k="name" v="Dyrøysundet" />
		<tag k="natural" v="strait" />
		<tag k="ssr:stedsnr" v="19302" />
	</node>
	<node id="-748656" lat="69.0602277797" lon="17.5443000107">
		<tag k="fixme" v="consider seamark:type=rock or natural=shoal" />
		<tag k="name" v="Kattnesskjæran" />
		<tag k="place" v="islet" />
		<tag k="ssr:stedsnr" v="172299" />
	</node>
	<node id="-749162" lat="69.1106500021" lon="17.6602694391">
		<tag k="name" v="Krokvika" />
		<tag k="natural" v="bay" />
		<tag k="ssr:stedsnr" v="645527" />
	</node>
	<node id="-748135" lat="69.0917888871" lon="17.5438972268">
		<tag k="name" v="Hesteskjæret" />
		<tag k="natural" v="cape" />
		<tag k="ssr:stedsnr" v="272402" />
	</node>
	<node id="-748648" lat="69.0339805583" lon="17.9202444306">
		<tag k="name" v="Storbukta" />
		<tag k="natural" v="bay" />
		<tag k="ssr:stedsnr" v="159865" />
	</node>
	<node id="-748988" lat="69.0854944433" lon="17.462002783">
		<tag k="name" v="Litjevika" />
		<tag k="natural" v="bay" />
		<tag k="ssr:stedsnr" v="537175" />
	</node>
	<node id="-748561" lat="69.1168166633" lon="17.7445944525">
		<tag k="name" v="Vargeneset" />
		<tag k="natural" v="cape" />
		<tag k="ssr:stedsnr" v="99148" />
	</node>
	<node id="-749152" lat="69.0411999976" lon="17.9211027667">
		<tag k="name" v="Marbakkodden" />
		<tag k="natural" v="cape" />
		<tag k="ssr:stedsnr" v="644863" />
	</node>
	<node id="-749150" lat="69.1247111064" lon="17.813638893">
		<tag k="name" v="Hesjebogen" />
		<tag k="natural" v="bay" />
		<tag k="ssr:stedsnr" v="644857" />
	</node>
	<node id="-749145" lat="69.0902194427" lon="17.5334388794">
		<tag k="name" v="Rekvika" />
		<tag k="natural" v="bay" />
		<tag k="ssr:stedsnr" v="644728" />
	</node>
	<node id="-748630" lat="69.0869916677" lon="17.5980805635">
		<tag k="name" v="Lindberggrunnen" />
		<tag k="natural" v="shoal" />
		<tag k="place" v="locality" />
		<tag k="ssr:stedsnr" v="150398" />
	</node>
	<node id="-748625" lat="68.9625055512" lon="17.5624250063">
		<tag k="name" v="Hesteberget" />
		<tag k="natural" v="cape" />
		<tag k="ssr:stedsnr" v="139860" />
	</node>
	<node id="-749131" lat="69.0405166634" lon="17.5232138885">
		<tag k="name" v="Bakaromnen" />
		<tag k="natural" v="shoal" />
		<tag k="place" v="locality" />
		<tag k="ssr:stedsnr" v="636968" />
	</node>
	<node id="-749130" lat="68.9856749981" lon="17.373952766">
		<tag k="name" v="Gångstøneset" />
		<tag k="natural" v="cape" />
		<tag k="ssr:stedsnr" v="636711" />
	</node>
	<node id="-749129" lat="69.0042833371" lon="17.3278138813">
		<tag k="name" v="Latræva" />
		<tag k="natural" v="shoal" />
		<tag k="place" v="locality" />
		<tag k="ssr:stedsnr" v="636704" />
	</node>
	<node id="-749128" lat="69.0864111069" lon="17.5101694423">
		<tag k="name" v="Nordvika" />
		<tag k="natural" v="bay" />
		<tag k="ssr:stedsnr" v="636481" />
	</node>
	<node id="-749127" lat="69.0966555583" lon="17.6487388949">
		<tag k="name" v="Finnlandsvika" />
		<tag k="natural" v="bay" />
		<tag k="ssr:stedsnr" v="636386" />
	</node>
	<node id="-749126" lat="69.0040388928" lon="17.5096277756">
		<tag k="name" v="Storvika" />
		<tag k="natural" v="bay" />
		<tag k="ssr:stedsnr" v="635999" />
	</node>
	<node id="-748613" lat="69.0444833351" lon="17.5971583312">
		<tag k="name" v="Kattebakken" />
		<tag k="natural" v="cape" />
		<tag k="ssr:stedsnr" v="139343" />
	</node>
	<node id="-748612" lat="69.0448166652" lon="17.5278111028">
		<tag k="name" v="Merkesneset" />
		<tag k="natural" v="cape" />
		<tag k="ssr:stedsnr" v="139341" />
	</node>
	<node id="-748611" lat="69.033466665" lon="17.5494305452">
		<tag k="alt_name" v="Skjeret" />
		<tag k="name" v="Storskjæret" />
		<tag k="natural" v="shoal" />
		<tag k="place" v="locality" />
		<tag k="ssr:stedsnr" v="139327" />
	</node>
	<node id="-748610" lat="69.1080166651" lon="17.4078249883">
		<tag k="name" v="Mefjerdingen" />
		<tag k="natural" v="shoal" />
		<tag k="place" v="locality" />
		<tag k="ssr:stedsnr" v="139218" />
	</node>
	<node id="-748603" lat="69.1167388863" lon="17.6882305467">
		<tag k="fixme" v="consider seamark:type=rock or natural=shoal" />
		<tag k="name" v="Bettholmflua" />
		<tag k="place" v="islet" />
		<tag k="ssr:stedsnr" v="119205" />
	</node>
	<node id="-748602" lat="68.9800749967" lon="17.4968166586">
		<tag k="name" v="Guraneset" />
		<tag k="natural" v="cape" />
		<tag k="ssr:stedsnr" v="112888" />
	</node>
	<node id="-749111" lat="69.1207500048" lon="17.7122027689">
		<tag k="name" v="Brursteinen" />
		<tag k="natural" v="shoal" />
		<tag k="place" v="locality" />
		<tag k="ssr:stedsnr" v="625288" />
	</node>
	<node id="-748517" lat="69.0176250001" lon="17.8927722175">
		<tag k="name" v="Sørneset" />
		<tag k="natural" v="cape" />
		<tag k="ssr:stedsnr" v="79089" />
	</node>
	<node id="-748210" lat="68.9553861147" lon="17.4832000008">
		<tag k="fixme" v="consider seamark:type=rock or natural=shoal" />
		<tag k="name" v="Skipssteinen" />
		<tag k="place" v="islet" />
		<tag k="ssr:stedsnr" v="294884" />
	</node>
	<node id="-749098" lat="69.0301305559" lon="17.8514638883">
		<tag k="alt_name" v="Klubbneset" />
		<tag k="name" v="Klubbeneset" />
		<tag k="natural" v="cape" />
		<tag k="ssr:stedsnr" v="624121" />
	</node>
	<node id="-749097" lat="69.0567666669" lon="17.5331360977">
		<tag k="name" v="Lunde" />
		<tag k="natural" v="cape" />
		<tag k="ssr:stedsnr" v="605505" />
	</node>
	<node id="-749096" lat="69.0247388909" lon="17.3509138781">
		<tag k="name" v="Mulgrunnen" />
		<tag k="natural" v="shoal" />
		<tag k="place" v="locality" />
		<tag k="ssr:stedsnr" v="597920" />
	</node>
	<node id="-749095" lat="69.0298277817" lon="17.3503194329">
		<tag k="name" v="Håmannsgrunnen" />
		<tag k="natural" v="shoal" />
		<tag k="place" v="locality" />
		<tag k="ssr:stedsnr" v="597919" />
	</node>
	<node id="-748580" lat="69.0775861146" lon="17.6763166587">
		<tag k="name" v="Litjehavet" />
		<tag k="natural" v="bay" />
		<tag k="ssr:stedsnr" v="112536" />
	</node>
	<node id="-748891" lat="69.0044722216" lon="17.4834666546">
		<tag k="name" v="Nordgrunnen" />
		<tag k="natural" v="shoal" />
		<tag k="place" v="locality" />
		<tag k="ssr:stedsnr" v="454978" />
	</node>
	<node id="-749079" lat="68.9897361107" lon="17.4783861032">
		<tag k="name" v="Keisaren" />
		<tag k="natural" v="cape" />
		<tag k="ssr:stedsnr" v="597809" />
	</node>
	<node id="-748564" lat="69.088536115" lon="17.6877055558">
		<tag k="name" v="Bogen" />
		<tag k="natural" v="bay" />
		<tag k="ssr:stedsnr" v="99741" />
	</node>
	<node id="-749587" lat="69.0833027784" lon="17.5538361152">
		<tag k="name" v="Krøkebærholmen" />
		<tag k="place" v="islet" />
		<tag k="ssr:stedsnr" v="949676" />
	</node>
	<node id="-749585" lat="69.0963138847" lon="17.642413885">
		<tag k="name" v="Langevika" />
		<tag k="natural" v="bay" />
		<tag k="ssr:stedsnr" v="949668" />
	</node>
	<node id="-749607" lat="69.0844749967" lon="17.4404999944">
		<tag k="name" v="Sandneset" />
		<tag k="natural" v="cape" />
		<tag k="ssr:stedsnr" v="962167" />
	</node>
	<node id="-748717" lat="69.0509527815" lon="17.6088861204">
		<tag k="name" v="Hundstrandneset" />
		<tag k="natural" v="cape" />
		<tag k="ssr:stedsnr" v="212952" />
	</node>
</osm>
