<?xml version="1.0" encoding="UTF-8"?>
<osm version="0.6" generator="osmapis">
	<node lat="60.056283337097284" lon="6.025041660852041" id="-29244">
		<tag k="bridge" v="yes" />
		<tag k="layer" v="1" />
		<tag k="name" v="Årsneselv" />
		<tag k="ssr:stedsnr" v="229861" />
	</node>
	<node lat="60.01000277492778" lon="5.866041667514459" id="-29335">
		<tag k="highway" v="path" />
		<tag k="name" v="Grindastigen" />
		<tag k="ssr:stedsnr" v="38868" />
	</node>
	<node lat="60.11751944418357" lon="6.268099997810122" id="-29343">
		<tag k="bridge" v="yes" />
		<tag k="layer" v="1" />
		<tag k="name" v="Sundal" />
		<tag k="ssr:stedsnr" v="46901" />
	</node>
	<node lat="59.812319446431665" lon="5.657877782599044" id="-29442">
		<tag k="alt_name" v="Ranavika ferjekai;Ranavik" />
		<tag k="amenity" v="ferry_terminal" />
		<tag k="name" v="Ranavik ferjekai" />
		<tag k="ssr:stedsnr" v="247348" />
	</node>
	<node lat="60.129947220730145" lon="6.230269443113874" id="-29478">
		<tag k="highway" v="path" />
		<tag k="name" v="Sjoarsvegen" />
		<tag k="ssr:stedsnr" v="99359" />
	</node>
	<node lat="59.80536388892462" lon="5.982233328723382" id="-29513">
		<tag k="bridge" v="yes" />
		<tag k="layer" v="1" />
		<tag k="name" v="Sunde" />
		<tag k="ssr:stedsnr" v="107903" />
	</node>
	<node lat="60.164491665947615" lon="6.287500000545652" id="-29586">
		<tag k="bridge" v="yes" />
		<tag k="layer" v="1" />
		<tag k="name" v="Tveitelvo" />
		<tag k="ssr:stedsnr" v="167863" />
	</node>
	<node lat="59.7660277792116" lon="5.983988888055449" id="-29587">
		<tag k="bridge" v="yes" />
		<tag k="layer" v="1" />
		<tag k="name" v="Baugstø" />
		<tag k="ssr:stedsnr" v="168824" />
	</node>
</osm>
