<?xml version="1.0" encoding="UTF-8"?>
<osm version="0.6" generator="osmapis">
	<node lat="59.95470000295188" lon="6.055294442386721" id="-32270">
		<tag k="historic" v="shieling" />
		<tag k="name" v="Guddalsfita" />
		<tag k="place" v="locality" />
		<tag k="ssr:stedsnr" v="3010" />
	</node>
	<node lat="60.135411114682825" lon="5.958169451273579" id="-32352">
		<tag k="name" v="Stongaskogen" />
		<tag k="place" v="locality" />
		<tag k="ssr:stedsnr" v="38906" />
	</node>
	<node lat="59.90681944793117" lon="5.7712333318123035" id="-32361">
		<tag k="name" v="Ilagemyr" />
		<tag k="natural" v="wetland" />
		<tag k="ssr:stedsnr" v="38962" />
	</node>
	<node lat="60.06116666294391" lon="6.310666668618979" id="-32388">
		<tag k="name" v="Bondhusbrea" />
		<tag k="natural" v="glacier" />
		<tag k="ssr:stedsnr" v="65069" />
	</node>
	<node lat="60.00630555933991" lon="5.82768889380858" id="-32479">
		<tag k="name" v="Tuftemarka" />
		<tag k="place" v="locality" />
		<tag k="ssr:stedsnr" v="247684" />
	</node>
	<node lat="59.75358333234701" lon="5.7675916736223485" id="-32526">
		<tag k="name" v="Øykjamarka" />
		<tag k="place" v="locality" />
		<tag k="ssr:stedsnr" v="99968" />
	</node>
	<node lat="60.077294447089955" lon="6.285988880481919" id="-32593">
		<tag k="name" v="Hyttemyra" />
		<tag k="natural" v="wetland" />
		<tag k="ssr:stedsnr" v="159320" />
	</node>
	<node lat="59.86056389000756" lon="5.9863027750289834" id="-32660">
		<tag k="name" v="Træa" />
		<tag k="place" v="locality" />
		<tag k="ssr:stedsnr" v="219570" />
	</node>
	<node lat="60.07741944494011" lon="6.103202775171229" id="-32683">
		<tag k="name" v="Taklimyr" />
		<tag k="natural" v="wetland" />
		<tag k="ssr:stedsnr" v="220528" />
	</node>
	<node lat="59.86247500297978" lon="6.001569442549339" id="-32687">
		<tag k="name" v="Øykjahagen" />
		<tag k="place" v="locality" />
		<tag k="ssr:stedsnr" v="220675" />
	</node>
	<node lat="60.08027222657065" lon="5.92139444441674" id="-32692">
		<tag k="name" v="Femsteinane" />
		<tag k="natural" v="stone" />
		<tag k="ssr:stedsnr" v="220816" />
	</node>
	<node lat="59.82181666871938" lon="5.875830555033876" id="-32709">
		<tag k="name" v="Øyrane" />
		<tag k="place" v="locality" />
		<tag k="ssr:stedsnr" v="220975" />
	</node>
	<node lat="59.82218055662357" lon="5.910124998375838" id="-32710">
		<tag k="name" v="Storemyr" />
		<tag k="natural" v="wetland" />
		<tag k="ssr:stedsnr" v="220976" />
	</node>
	<node lat="59.86517707280712" lon="5.776256071540611" id="-32722">
		<tag k="name" v="Ondarheimsøyri" />
		<tag k="place" v="locality" />
		<tag k="ssr:stedsnr" v="226599" />
	</node>
	<node lat="60.10663888533797" lon="5.9889416745725566" id="-32768">
		<tag k="name" v="Bordmyr" />
		<tag k="natural" v="wetland" />
		<tag k="ssr:stedsnr" v="247923" />
	</node>
</osm>
