<?xml version="1.0" encoding="UTF-8"?>
<<<<<<< HEAD
<osm version="0.6" generator="osmapis">
	<node lat="59.99258788200436" lon="5.784528763125478" id="-30491">
=======
<osm generator="osmapis" version="0.6">
	<node id="-609695" lat="60.0970833345" lon="5.9757999993">
		<tag k="alt_name" v="Varaldsøy" />
		<tag k="amenity" v="place_of_worship" />
		<tag k="denomination" v="lutheran" />
		<tag k="name" v="Varaldsøy kyrkje" />
		<tag k="religion" v="christian" />
		<tag k="ssr:stedsnr" v="429905" />
	</node>
	<node id="-610856" lat="59.9897277758" lon="6.00668055813">
		<tag k="alt_name" v="Kvinnherad;Rosendal kyrkje" />
		<tag k="amenity" v="place_of_worship" />
		<tag k="denomination" v="lutheran" />
		<tag k="name" v="Kvinnherad kyrkje" />
		<tag k="religion" v="christian" />
		<tag k="ssr:stedsnr" v="4456" />
	</node>
	<node id="-612154" lat="59.7902361129" lon="6.1002555608">
		<tag k="alt_name" v="Åkra" />
		<tag k="amenity" v="place_of_worship" />
		<tag k="denomination" v="lutheran" />
		<tag k="name" v="Åkra kyrkje" />
		<tag k="religion" v="christian" />
		<tag k="ssr:stedsnr" v="549314" />
	</node>
	<node id="-610872" lat="60.0905083328" lon="6.11312500649">
		<tag k="alt_name" v="Ænes" />
		<tag k="amenity" v="place_of_worship" />
		<tag k="denomination" v="lutheran" />
		<tag k="name" v="Ænes kyrkje" />
		<tag k="religion" v="christian" />
		<tag k="ssr:stedsnr" v="4936" />
	</node>
	<node id="-610836" lat="59.783580145" lon="5.9029416782">
		<tag k="alt_name" v="Holmedal" />
		<tag k="amenity" v="place_of_worship" />
		<tag k="denomination" v="lutheran" />
		<tag k="name" v="Holmedal kyrkje" />
		<tag k="religion" v="christian" />
		<tag k="ssr:stedsnr" v="4296" />
	</node>
	<node id="-611540" lat="59.9904361092" lon="6.04078333177">
		<tag k="name" v="Grønestøl" />
		<tag k="place" v="locality" />
		<tag k="ssr:stedsnr" v="307452" />
	</node>
	<node id="-609906" lat="59.8670100202" lon="5.75775740552">
		<tag k="amenity" v="place_of_worship" />
		<tag k="denomination" v="lutheran" />
		<tag k="fixme" v="multiple name tags, choose one and add the other to alt_name" />
		<tag k="name" v="Husnes kyrkje;Husnes" />
		<tag k="religion" v="christian" />
		<tag k="ssr:stedsnr" v="698250" />
	</node>
	<node id="-611608" lat="59.9311972185" lon="5.85807500644">
		<tag k="alt_name" v="Uskedalen;Uskedal" />
		<tag k="amenity" v="place_of_worship" />
		<tag k="denomination" v="lutheran" />
		<tag k="name" v="Uskedal kyrkje" />
		<tag k="religion" v="christian" />
		<tag k="ssr:stedsnr" v="324031" />
	</node>
	<node id="-612718" lat="59.7967241374" lon="5.65532095956">
		<tag k="name" v="Halsnøy kloster" />
		<tag k="old_name" v="Kloster" />
		<tag k="place" v="locality" />
		<tag k="ssr:stedsnr" v="793423" />
	</node>
	<node id="-610797" lat="59.992587882" lon="5.78452876313">
>>>>>>> e1d4bc35ff8a6074a6f2e91616a996b547c36f15
		<tag k="alt_name" v="Ølve" />
		<tag k="amenity" v="place_of_worship" />
		<tag k="denomination" v="lutheran" />
		<tag k="name" v="Ølve kyrkje" />
		<tag k="religion" v="christian" />
		<tag k="ssr:stedsnr" v="3626" />
	</node>
<<<<<<< HEAD
	<node lat="60.09050833277222" lon="6.113125006494708" id="-30524">
		<tag k="alt_name" v="Ænes" />
=======
	<node id="-613000" lat="59.8327367038" lon="5.77398639905">
		<tag k="amenity" v="place_of_worship" />
		<tag k="denomination" v="lutheran" />
		<tag k="name" v="Valen kyrkje" />
		<tag k="religion" v="christian" />
		<tag k="ssr:stedsnr" v="986810" />
	</node>
	<node id="-610460" lat="59.9895111124" lon="6.02899166375">
		<tag k="alt_name" v="Rosendal;Rosendal baroni" />
		<tag k="name" v="Baroniet" />
		<tag k="ssr:stedsnr" v="914482" />
		<tag k="tourism" v="museum" />
	</node>
	<node id="-612358" lat="59.787136112" lon="5.69441666229">
		<tag k="alt_name" v="Eid" />
>>>>>>> e1d4bc35ff8a6074a6f2e91616a996b547c36f15
		<tag k="amenity" v="place_of_worship" />
		<tag k="denomination" v="lutheran" />
		<tag k="name" v="Ænes kyrkje" />
		<tag k="religion" v="christian" />
		<tag k="ssr:stedsnr" v="4936" />
	</node>
<<<<<<< HEAD
	<node lat="59.73854178488244" lon="5.707019172286083" id="-30834">
=======
	<node id="-611364" lat="59.7385111086" lon="5.70690832677">
>>>>>>> e1d4bc35ff8a6074a6f2e91616a996b547c36f15
		<tag k="alt_name" v="Fjelberg" />
		<tag k="amenity" v="place_of_worship" />
		<tag k="denomination" v="lutheran" />
		<tag k="name" v="Fjelberg kyrkje" />
		<tag k="religion" v="christian" />
		<tag k="ssr:stedsnr" v="185095" />
	</node>
<<<<<<< HEAD
=======
	<node id="-609832" lat="60.0454555524" lon="5.9017611183">
		<tag k="alt_name" v="Hatlestrand" />
		<tag k="amenity" v="place_of_worship" />
		<tag k="denomination" v="lutheran" />
		<tag k="name" v="Hatlestrand kyrkje" />
		<tag k="religion" v="christian" />
		<tag k="ssr:stedsnr" v="672979" />
	</node>
>>>>>>> e1d4bc35ff8a6074a6f2e91616a996b547c36f15
</osm>
