<?xml version="1.0" encoding="UTF-8"?>
<osm version="0.6" generator="osmapis">
	<node lat="59.95604444784003" lon="6.0344138898164985" id="-30485">
		<tag k="alt_name" v="Nottabekken" />
		<tag k="name" v="Natadalsbekken" />
		<tag k="ssr:stedsnr" v="3007" />
		<tag k="waterway" v="stream" />
	</node>
	<node lat="59.85830827408747" lon="6.109811451451093" id="-30497">
		<tag k="name" v="Nesjastølsvatnet" />
		<tag k="natural" v="water" />
		<tag k="ssr:stedsnr" v="4170" />
		<tag k="water" v="lake" />
	</node>
	<node lat="59.918300471940306" lon="6.163729051326178" id="-30503">
		<tag k="name" v="Blådalsvatnet" />
		<tag k="natural" v="water" />
		<tag k="ssr:stedsnr" v="4070" />
		<tag k="water" v="lake" />
	</node>
	<node lat="59.91550555594531" lon="5.920833327542482" id="-30505">
		<tag k="name" v="Kleppabekken" />
		<tag k="ssr:stedsnr" v="4085" />
		<tag k="waterway" v="stream" />
	</node>
	<node lat="59.91298611178183" lon="6.0178194415418265" id="-30507">
		<tag k="name" v="Landaelva" />
		<tag k="ssr:stedsnr" v="4094" />
		<tag k="waterway" v="stream" />
	</node>
	<node lat="59.843318438418834" lon="5.689993257354956" id="-30512">
		<tag k="name" v="Bjellandstjørna" />
		<tag k="natural" v="water" />
		<tag k="ssr:stedsnr" v="4323" />
	</node>
	<node lat="60.07679444452432" lon="6.111983330673307" id="-30527">
		<tag k="name" v="Taklibekken" />
		<tag k="ssr:stedsnr" v="5955" />
		<tag k="waterway" v="stream" />
	</node>
	<node lat="60.10295000424443" lon="6.277788890715434" id="-30538">
		<tag k="name" v="Storeholmen" />
		<tag k="place" v="island" />
		<tag k="ssr:stedsnr" v="38124" />
	</node>
	<node lat="59.801858335976455" lon="5.995094447768261" id="-30555">
		<tag k="name" v="Liarstemma" />
		<tag k="ssr:stedsnr" v="38520" />
		<tag k="waterway" v="dam" />
	</node>
	<node lat="59.87793610043639" lon="5.90134640203292" id="-30588">
		<tag k="name" v="Vestredalsvatnet" />
		<tag k="natural" v="water" />
		<tag k="ssr:stedsnr" v="64112" />
	</node>
	<node lat="59.857763535346464" lon="6.088717440625285" id="-30591">
		<tag k="name" v="Grønlitjørn" />
		<tag k="natural" v="water" />
		<tag k="ssr:stedsnr" v="64150" />
	</node>
	<node lat="59.85088611137441" lon="6.017361104312167" id="-30592">
		<tag k="name" v="Fossabekken" />
		<tag k="ssr:stedsnr" v="64155" />
		<tag k="waterway" v="stream" />
	</node>
	<node lat="59.79692733033127" lon="5.888843427060629" id="-30599">
		<tag k="name" v="Krokavatnet" />
		<tag k="natural" v="water" />
		<tag k="ssr:stedsnr" v="64260" />
	</node>
	<node lat="60.16395555237841" lon="6.323683333905441" id="-30608">
		<tag k="name" v="Goddalselva" />
		<tag k="ssr:stedsnr" v="65219" />
		<tag k="waterway" v="stream" />
	</node>
	<node lat="60.16304859032334" lon="6.237994772613205" id="-30611">
		<tag k="name" v="Norddalsvatnet" />
		<tag k="natural" v="water" />
		<tag k="ssr:stedsnr" v="65223" />
	</node>
	<node lat="60.15803888872086" lon="6.306252770158936" id="-30612">
		<tag k="name" v="Øyreselva" />
		<tag k="old_name" v="Øyrelvi" />
		<tag k="ssr:stedsnr" v="65226" />
		<tag k="waterway" v="stream" />
	</node>
	<node lat="60.09442044448533" lon="6.260769685153709" id="-30614">
		<tag k="name" v="Langagilsvatnet" />
		<tag k="natural" v="water" />
		<tag k="ssr:stedsnr" v="65123" />
	</node>
	<node lat="59.84291347783658" lon="5.88016183283753" id="-30617">
		<tag k="name" v="Krokavatnet" />
		<tag k="natural" v="water" />
		<tag k="ssr:stedsnr" v="65182" />
	</node>
	<node lat="60.035328985509274" lon="5.786830085020839" id="-30621">
		<tag k="name" v="Brothølen" />
		<tag k="natural" v="water" />
		<tag k="ssr:stedsnr" v="65619" />
		<tag k="water" v="lake" />
	</node>
	<node lat="60.15182499699164" lon="6.042555560128296" id="-30622">
		<tag k="name" v="Volelva" />
		<tag k="ssr:stedsnr" v="65598" />
		<tag k="waterway" v="stream" />
	</node>
	<node lat="60.072077777544784" lon="6.121455562769488" id="-30627">
		<tag k="name" v="Æneselva" />
		<tag k="ssr:stedsnr" v="65966" />
		<tag k="waterway" v="river" />
	</node>
	<node lat="60.13405068872891" lon="6.207046221480076" id="-30632">
		<tag k="name" v="Kilsdalsvatnet" />
		<tag k="natural" v="water" />
		<tag k="ssr:stedsnr" v="66895" />
	</node>
	<node lat="59.9047888886813" lon="5.911736109464314" id="-30638">
		<tag k="name" v="Nosabekken" />
		<tag k="ssr:stedsnr" v="246079" />
		<tag k="waterway" v="stream" />
	</node>
	<node lat="59.891850001410575" lon="6.086344445833336" id="-30642">
		<tag k="name" v="Urdabotnvatnet" />
		<tag k="natural" v="water" />
		<tag k="ssr:stedsnr" v="246099" />
		<tag k="water" v="lake" />
	</node>
	<node lat="59.83094999581036" lon="5.875866669723488" id="-30643">
		<tag k="name" v="Ljosfoss" />
		<tag k="natural" v="waterfall" />
		<tag k="ssr:stedsnr" v="246232" />
	</node>
	<node lat="59.84591388848241" lon="5.7522388880625375" id="-30650">
		<tag k="name" v="Torboneset" />
		<tag k="natural" v="cape" />
		<tag k="ssr:stedsnr" v="246331" />
	</node>
	<node lat="59.96680833507497" lon="6.02871111805428" id="-30658">
		<tag k="name" v="Storegjuvbekken" />
		<tag k="ssr:stedsnr" v="246446" />
		<tag k="waterway" v="stream" />
	</node>
	<node lat="59.944668832144025" lon="6.115684916391038" id="-30659">
		<tag k="name" v="Hildalsvatnet" />
		<tag k="natural" v="water" />
		<tag k="ssr:stedsnr" v="247032" />
		<tag k="water" v="lake" />
	</node>
	<node lat="60.12317777918887" lon="6.322763884632297" id="-30663">
		<tag k="name" v="Fossabekken" />
		<tag k="ssr:stedsnr" v="247147" />
		<tag k="waterway" v="stream" />
	</node>
	<node lat="60.13284166702899" lon="6.231386104558837" id="-30665">
		<tag k="name" v="Dalelva" />
		<tag k="ssr:stedsnr" v="247182" />
		<tag k="waterway" v="stream" />
	</node>
	<node lat="60.15038048073018" lon="6.392573235219891" id="-30666">
		<tag k="alt_name" v="Bukkaspelvatnet, insta" />
		<tag k="name" v="Insta Bukkaspelvatnet" />
		<tag k="natural" v="water" />
		<tag k="ssr:stedsnr" v="247186" />
	</node>
	<node lat="59.830362844091596" lon="6.076358183138569" id="-30669">
		<tag k="name" v="Tjørnane" />
		<tag k="natural" v="water" />
		<tag k="ssr:stedsnr" v="247207" />
		<tag k="water" v="lake" />
	</node>
	<node lat="59.80891558507465" lon="6.123409415913026" id="-30675">
		<tag k="name" v="Hagabekktjørna" />
		<tag k="natural" v="water" />
		<tag k="ssr:stedsnr" v="247250" />
	</node>
	<node lat="59.768639595428496" lon="6.045858606204475" id="-30683">
		<tag k="name" v="Skrumstjørna" />
		<tag k="natural" v="water" />
		<tag k="ssr:stedsnr" v="247350" />
	</node>
	<node lat="60.13422671673333" lon="5.9986561540929655" id="-30690">
		<tag k="alt_name" v="Svartavatnet, stora" />
		<tag k="name" v="Stora Svartavatnet" />
		<tag k="natural" v="water" />
		<tag k="ssr:stedsnr" v="247588" />
	</node>
	<node lat="60.143524998046026" lon="6.024163886127847" id="-30691">
		<tag k="name" v="Volavatna" />
		<tag k="natural" v="water" />
		<tag k="ssr:stedsnr" v="247601" />
		<tag k="water" v="lake" />
	</node>
	<node lat="60.08696389136385" lon="5.89658611454262" id="-30699">
		<tag k="name" v="Svartavatnet" />
		<tag k="natural" v="water" />
		<tag k="ssr:stedsnr" v="247929" />
	</node>
	<node lat="60.07631639205044" lon="5.861985770356109" id="-30714">
		<tag k="name" v="Skuraneset" />
		<tag k="natural" v="cape" />
		<tag k="ssr:stedsnr" v="98775" />
	</node>
	<node lat="60.075333335498456" lon="6.299561108027101" id="-30716">
		<tag k="name" v="Brufossøyrane" />
		<tag k="place" v="island" />
		<tag k="ssr:stedsnr" v="99304" />
	</node>
	<node lat="60.08787070280287" lon="6.292348830662969" id="-30717">
		<tag k="name" v="Naustvika" />
		<tag k="natural" v="bay" />
		<tag k="ssr:stedsnr" v="99323" />
	</node>
	<node lat="60.15849722280156" lon="6.323774991561207" id="-30735">
		<tag k="alt_name" v="Bjørkholm" />
		<tag k="name" v="Bjørkholmen" />
		<tag k="natural" v="cape" />
		<tag k="ssr:stedsnr" v="99911" />
	</node>
	<node lat="59.76398561913552" lon="5.812723127755008" id="-30740">
		<tag k="name" v="Svartatjørn" />
		<tag k="natural" v="water" />
		<tag k="ssr:stedsnr" v="99963" />
	</node>
	<node lat="59.794305552972354" lon="6.143913882293799" id="-30777">
		<tag k="name" v="Sollambarsfossen" />
		<tag k="ssr:stedsnr" v="125327" />
		<tag k="waterway" v="stream" />
	</node>
	<node lat="60.02730555829239" lon="6.08583610597027" id="-30785">
		<tag k="name" v="Nipeelva" />
		<tag k="ssr:stedsnr" v="125764" />
		<tag k="waterway" v="stream" />
	</node>
	<node lat="60.11729999898721" lon="5.9992583271670386" id="-30795">
		<tag k="name" v="Gjuvslandselva" />
		<tag k="ssr:stedsnr" v="126891" />
		<tag k="waterway" v="stream" />
	</node>
	<node lat="60.15495543896549" lon="6.25195369204982" id="-30807">
		<tag k="name" v="Kattatjørna" />
		<tag k="natural" v="water" />
		<tag k="ssr:stedsnr" v="159425" />
	</node>
	<node lat="59.90354999740588" lon="5.9995444487871294" id="-30829">
		<tag k="name" v="Dalsbekken" />
		<tag k="ssr:stedsnr" v="185108" />
		<tag k="waterway" v="stream" />
	</node>
	<node lat="59.96701285667799" lon="6.0931819536203164" id="-30837">
		<tag k="name" v="Prestavatnet" />
		<tag k="natural" v="water" />
		<tag k="ssr:stedsnr" v="185433" />
	</node>
	<node lat="60.0883293070405" lon="6.317784127956688" id="-30844">
		<tag k="name" v="Botnavatnet" />
		<tag k="natural" v="water" />
		<tag k="ssr:stedsnr" v="186113" />
	</node>
	<node lat="59.91217778007266" lon="6.03036111602846" id="-30846">
		<tag k="name" v="Grutlebekken" />
		<tag k="ssr:stedsnr" v="186080" />
		<tag k="waterway" v="stream" />
	</node>
	<node lat="59.80275663742332" lon="6.013141351098829" id="-30849">
		<tag k="name" v="Steinsvatnet" />
		<tag k="natural" v="water" />
		<tag k="ssr:stedsnr" v="186275" />
	</node>
	<node lat="60.15280837500842" lon="6.3916951387109275" id="-30852">
		<tag k="name" v="Bukkaspelvatna" />
		<tag k="natural" v="water" />
		<tag k="ssr:stedsnr" v="186183" />
		<tag k="water" v="lake" />
	</node>
	<node lat="60.067523459676984" lon="6.319574383206341" id="-30866">
		<tag k="name" v="Holmavatnet" />
		<tag k="natural" v="water" />
		<tag k="ssr:stedsnr" v="187089" />
	</node>
	<node lat="59.88116388592497" lon="5.963758326484704" id="-30879">
		<tag k="name" v="Teinevadholmen" />
		<tag k="place" v="islet" />
		<tag k="ssr:stedsnr" v="219581" />
	</node>
	<node lat="59.87608888800195" lon="5.963747229436533" id="-30880">
		<tag k="name" v="Heielva" />
		<tag k="ssr:stedsnr" v="219585" />
		<tag k="waterway" v="river" />
	</node>
	<node lat="59.82514721926052" lon="5.825138889783487" id="-30893">
		<tag k="name" v="Tverrelva" />
		<tag k="ssr:stedsnr" v="220174" />
		<tag k="waterway" v="river" />
	</node>
	<node lat="60.14866563837946" lon="6.200102069854053" id="-30902">
		<tag k="name" v="Vikadalstangane" />
		<tag k="natural" v="cape" />
		<tag k="ssr:stedsnr" v="220427" />
	</node>
	<node lat="59.9537750027451" lon="6.02429444470248" id="-30940">
		<tag k="name" v="Stigabekken" />
		<tag k="ssr:stedsnr" v="246007" />
		<tag k="waterway" v="stream" />
	</node>
	<node lat="59.891991667901614" lon="5.855911114615526" id="-30945">
		<tag k="name" v="Lomatjørna" />
		<tag k="natural" v="water" />
		<tag k="ssr:stedsnr" v="246103" />
	</node>
	<node lat="59.829530555858234" lon="5.8956694460140815" id="-30949">
		<tag k="name" v="Tveitebotnvatnet" />
		<tag k="natural" v="water" />
		<tag k="ssr:stedsnr" v="246222" />
	</node>
	<node lat="59.80224722188608" lon="5.996355564110436" id="-30952">
		<tag k="name" v="Liarestemmen" />
		<tag k="natural" v="bay" />
		<tag k="ssr:stedsnr" v="246270" />
	</node>
	<node lat="59.80526771176158" lon="6.016651531808683" id="-30953">
		<tag k="alt_name" v="Tviløpetjørn" />
		<tag k="name" v="Tviløypene" />
		<tag k="natural" v="water" />
		<tag k="ssr:stedsnr" v="246275" />
	</node>
	<node lat="59.8341115307421" lon="5.8164903648268895" id="-30958">
		<tag k="name" v="Svartatjørna" />
		<tag k="natural" v="water" />
		<tag k="ssr:stedsnr" v="246307" />
	</node>
	<node lat="60.07470838992443" lon="6.3297154619212925" id="-30963">
		<tag k="name" v="Brufossvatna" />
		<tag k="natural" v="water" />
		<tag k="ssr:stedsnr" v="247080" />
		<tag k="water" v="lake" />
	</node>
	<node lat="60.07661784143154" lon="6.318505832788651" id="-30965">
		<tag k="alt_name" v="Brufossvatnet, heimsta" />
		<tag k="name" v="Heimsta Brufossvatnet" />
		<tag k="natural" v="water" />
		<tag k="ssr:stedsnr" v="247084" />
	</node>
	<node lat="60.10535109717909" lon="6.320563778478829" id="-30966">
		<tag k="name" v="Middagsvatnet" />
		<tag k="natural" v="water" />
		<tag k="ssr:stedsnr" v="247117" />
	</node>
	<node lat="59.798327120665306" lon="6.019648905688252" id="-30967">
		<tag k="name" v="Furdalstjørna" />
		<tag k="natural" v="water" />
		<tag k="ssr:stedsnr" v="247260" />
	</node>
	<node lat="60.13820277792011" lon="5.972094436277862" id="-30978">
		<tag k="name" v="Mosavatnet" />
		<tag k="natural" v="water" />
		<tag k="ssr:stedsnr" v="247583" />
	</node>
	<node lat="60.02301348830919" lon="6.167844917829637" id="-30983">
		<tag k="name" v="Vatnastølsvatnet" />
		<tag k="natural" v="water" />
		<tag k="ssr:stedsnr" v="247767" />
	</node>
	<node lat="60.06958055398774" lon="6.122644440673049" id="-31006">
		<tag k="name" v="Vaskeelva" />
		<tag k="ssr:stedsnr" v="281121" />
		<tag k="waterway" v="river" />
	</node>
	<node lat="60.073813890204754" lon="6.118588897124973" id="-31012">
		<tag k="name" v="Løkjene" />
		<tag k="ssr:stedsnr" v="281467" />
		<tag k="waterway" v="stream" />
	</node>
	<node lat="60.083824995409415" lon="6.132086102789657" id="-31014">
		<tag k="name" v="Fossen" />
		<tag k="natural" v="waterfall" />
		<tag k="ssr:stedsnr" v="281492" />
	</node>
	<node lat="60.01818888601229" lon="5.8486194367836735" id="-31019">
		<tag k="name" v="Ambarevikholmen" />
		<tag k="place" v="islet" />
		<tag k="ssr:stedsnr" v="281876" />
	</node>
</osm>
