<?xml version="1.0" encoding="UTF-8"?>
<<<<<<< HEAD
<osm version="0.6" generator="osmapis">
	<node lat="59.70348656438646" lon="5.729790802652938" id="-30487">
		<tag k="alt_name" v="Kumla" />
		<tag k="fixme" v="consider seamark:type=rock or natural=shoal" />
		<tag k="name" v="Melskomla" />
		<tag k="place" v="islet" />
		<tag k="ssr:stedsnr" v="3070" />
	</node>
	<node lat="59.71025277636564" lon="5.7207861156589646" id="-30488">
		<tag k="name" v="Labergsvika" />
		<tag k="natural" v="bay" />
		<tag k="ssr:stedsnr" v="3072" />
	</node>
	<node lat="59.776130553294976" lon="5.731830558237623" id="-30490">
		<tag k="alt_name" v="Siranes" />
		<tag k="name" v="Siraneset" />
		<tag k="natural" v="cape" />
		<tag k="ssr:stedsnr" v="3375" />
	</node>
	<node lat="59.99201666655329" lon="5.8019388822968505" id="-30492">
		<tag k="name" v="Husavågen" />
		<tag k="natural" v="bay" />
		<tag k="ssr:stedsnr" v="3639" />
	</node>
	<node lat="59.945705558416435" lon="5.890930561541794" id="-30501">
		<tag k="name" v="Rødsvågen" />
		<tag k="natural" v="bay" />
		<tag k="ssr:stedsnr" v="4026" />
	</node>
	<node lat="59.94713888939257" lon="5.959600005931269" id="-30502">
		<tag k="name" v="Grytevika" />
		<tag k="natural" v="bay" />
		<tag k="ssr:stedsnr" v="4030" />
	</node>
	<node lat="59.75453611388612" lon="5.722861112234983" id="-30514">
		<tag k="name" v="Brenneholmen" />
		<tag k="place" v="islet" />
		<tag k="ssr:stedsnr" v="4405" />
	</node>
	<node lat="59.75097499759195" lon="5.7063277739229505" id="-30515">
		<tag k="name" v="Breidvika" />
		<tag k="natural" v="bay" />
		<tag k="ssr:stedsnr" v="4406" />
	</node>
	<node lat="59.756496816058934" lon="5.8364448301382525" id="-30516">
		<tag k="name" v="Børsdalsvika" />
		<tag k="natural" v="bay" />
		<tag k="ssr:stedsnr" v="4409" />
	</node>
	<node lat="59.9645638879019" lon="5.91676388626375" id="-30518">
		<tag k="alt_name" v="Eikeneset" />
		<tag k="name" v="Eiketeigneset" />
		<tag k="natural" v="cape" />
		<tag k="ssr:stedsnr" v="4471" />
	</node>
	<node lat="60.09561666977662" lon="6.116452770065296" id="-30523">
		<tag k="name" v="Ænestangen" />
		<tag k="natural" v="cape" />
		<tag k="ssr:stedsnr" v="4935" />
	</node>
	<node lat="59.97827500054028" lon="6.005369445562604" id="-30531">
		<tag k="name" v="Kråkeneset" />
		<tag k="natural" v="cape" />
		<tag k="ssr:stedsnr" v="24003" />
	</node>
	<node lat="60.03091388843474" lon="5.71461666708055" id="-30533">
		<tag k="name" v="Akslaneset" />
		<tag k="natural" v="cape" />
		<tag k="ssr:stedsnr" v="37858" />
	</node>
	<node lat="59.74251944516712" lon="5.652463894437812" id="-30540">
		<tag k="name" v="Fløneset" />
		<tag k="natural" v="cape" />
		<tag k="ssr:stedsnr" v="38010" />
	</node>
	<node lat="59.754861108093806" lon="5.838705550150538" id="-30541">
		<tag k="name" v="Klubben" />
		<tag k="natural" v="cape" />
		<tag k="ssr:stedsnr" v="38016" />
	</node>
	<node lat="59.76328333532876" lon="5.840111113812866" id="-30542">
		<tag k="name" v="Notavågen" />
		<tag k="natural" v="bay" />
		<tag k="ssr:stedsnr" v="38018" />
	</node>
	<node lat="59.76556388688334" lon="5.84098611554701" id="-30543">
		<tag k="name" v="Arnfinnsneset" />
		<tag k="natural" v="cape" />
		<tag k="ssr:stedsnr" v="38019" />
	</node>
	<node lat="59.82416666963206" lon="5.662363889589821" id="-30544">
		<tag k="name" v="Svinøyklubben" />
		<tag k="natural" v="cape" />
		<tag k="ssr:stedsnr" v="38020" />
	</node>
	<node lat="59.79107500305661" lon="5.9554361170422085" id="-30554">
		<tag k="name" v="Kalvavika" />
		<tag k="natural" v="bay" />
		<tag k="ssr:stedsnr" v="38517" />
	</node>
	<node lat="60.103202777523755" lon="6.2008749967555135" id="-30562">
		<tag k="name" v="Tveitnesvika" />
		<tag k="natural" v="bay" />
		<tag k="ssr:stedsnr" v="38423" />
	</node>
	<node lat="60.08955833767875" lon="5.967536112635755" id="-30569">
		<tag k="name" v="Langskipsnes" />
		<tag k="natural" v="cape" />
		<tag k="ssr:stedsnr" v="38916" />
	</node>
	<node lat="60.0781138859022" lon="5.967613891969513" id="-30570">
		<tag k="name" v="Pumpevik" />
		<tag k="natural" v="bay" />
		<tag k="ssr:stedsnr" v="38922" />
	</node>
	<node lat="60.08543889016275" lon="5.919780562508843" id="-30571">
		<tag k="name" v="Torevika" />
		<tag k="natural" v="bay" />
		<tag k="ssr:stedsnr" v="38802" />
	</node>
	<node lat="59.988161109188965" lon="5.784080553383153" id="-30574">
		<tag k="name" v="Mjånes" />
		<tag k="natural" v="cape" />
		<tag k="ssr:stedsnr" v="38829" />
	</node>
	<node lat="59.78528611421562" lon="6.1131194496194095" id="-30581">
		<tag k="name" v="Nesjavik" />
		<tag k="natural" v="bay" />
		<tag k="ssr:stedsnr" v="44891" />
	</node>
	<node lat="59.79556666623846" lon="5.599619442409992" id="-30582">
		<tag k="name" v="Nordre Hillegrunnen" />
		<tag k="natural" v="shoal" />
		<tag k="place" v="locality" />
		<tag k="ssr:stedsnr" v="44725" />
	</node>
	<node lat="59.72763333103089" lon="5.6796277803145925" id="-30586">
		<tag k="name" v="Borgundøya" />
		<tag k="place" v="island" />
		<tag k="ssr:stedsnr" v="64105" />
	</node>
	<node lat="59.71775555397242" lon="5.809422220041793" id="-30595">
		<tag k="alt_name" v="Skåneviksfjorden" />
		<tag k="bay" v="fjord" />
		<tag k="name" v="Skånevikfjorden" />
		<tag k="natural" v="bay" />
		<tag k="ssr:stedsnr" v="64058" />
	</node>
	<node lat="59.913824998519615" lon="5.776041672383465" id="-30603">
		<tag k="name" v="Torbergsvika" />
		<tag k="natural" v="bay" />
		<tag k="ssr:stedsnr" v="64714" />
	</node>
	<node lat="60.13844722017715" lon="6.258802786872337" id="-30605">
		<tag k="alt_name" v="Blikneset" />
		<tag k="name" v="Blik" />
		<tag k="natural" v="cape" />
		<tag k="ssr:stedsnr" v="65203" />
	</node>
	<node lat="59.923363892898784" lon="5.787574998746194" id="-30623">
		<tag k="name" v="Herøysundet" />
		<tag k="natural" v="strait" />
		<tag k="ssr:stedsnr" v="65752" />
	</node>
	<node lat="60.07718333760133" lon="5.97898889182658" id="-30625">
		<tag k="name" v="Skjelnesodden" />
		<tag k="natural" v="cape" />
		<tag k="ssr:stedsnr" v="65957" />
	</node>
	<node lat="59.95043888784866" lon="5.963008336491951" id="-30633">
		<tag k="name" v="Sandvikevika" />
		<tag k="natural" v="bay" />
		<tag k="ssr:stedsnr" v="85032" />
	</node>
	<node lat="59.71611388840398" lon="5.690733332166135" id="-30634">
		<tag k="name" v="Bøvika" />
		<tag k="natural" v="bay" />
		<tag k="ssr:stedsnr" v="246069" />
	</node>
	<node lat="59.70408222275016" lon="5.707215280944661" id="-30635">
		<tag k="alt_name" v="Bjellebøholmen" />
		<tag k="name" v="Bjøllebøholmen" />
		<tag k="place" v="islet" />
		<tag k="ssr:stedsnr" v="246076" />
	</node>
	<node lat="59.9334527755198" lon="5.859225004364669" id="-30636">
		<tag k="name" v="Stølavika" />
		<tag k="natural" v="bay" />
		<tag k="ssr:stedsnr" v="246048" />
	</node>
	<node lat="59.770905555782974" lon="5.886225003327526" id="-30649">
		<tag k="name" v="Straumsneset" />
		<tag k="natural" v="cape" />
		<tag k="ssr:stedsnr" v="246327" />
	</node>
	<node lat="59.78142222291843" lon="6.120580547887885" id="-30653">
		<tag k="alt_name" v="Bryllaskjær" />
		<tag k="fixme" v="consider seamark:type=rock or natural=shoal" />
		<tag k="name" v="Brøllaskjer" />
		<tag k="place" v="islet" />
		<tag k="ssr:stedsnr" v="246343" />
	</node>
	<node lat="59.76011944171613" lon="6.064155552135372" id="-30677">
		<tag k="fixme" v="consider seamark:type=rock or natural=shoal" />
		<tag k="name" v="Alsåkerskjeret" />
		<tag k="place" v="islet" />
		<tag k="ssr:stedsnr" v="247382" />
	</node>
	<node lat="59.80511666892937" lon="5.681824998505573" id="-30680">
		<tag k="alt_name" v="Eidsnes" />
		<tag k="name" v="Eidsneset" />
		<tag k="natural" v="cape" />
		<tag k="ssr:stedsnr" v="247319" />
	</node>
	<node lat="59.812200001344806" lon="5.675500005630889" id="-30681">
		<tag k="name" v="Mørkavågen" />
		<tag k="natural" v="bay" />
		<tag k="ssr:stedsnr" v="247339" />
	</node>
	<node lat="59.9946250039622" lon="5.982574996528655" id="-30685">
		<tag k="alt_name" v="Tånes" />
		<tag k="name" v="Tåneset" />
		<tag k="natural" v="cape" />
		<tag k="ssr:stedsnr" v="247442" />
	</node>
	<node lat="59.96553610995074" lon="5.903480559079728" id="-30686">
		<tag k="name" v="Eidsvika" />
		<tag k="natural" v="bay" />
		<tag k="ssr:stedsnr" v="247448" />
	</node>
	<node lat="59.75544444702561" lon="5.6995999980856515" id="-30689">
		<tag k="name" v="Kvernavika" />
		<tag k="natural" v="bay" />
		<tag k="ssr:stedsnr" v="247552" />
	</node>
	<node lat="59.94308332886583" lon="5.822580554139865" id="-30694">
		<tag k="name" v="Skorpo" />
		<tag k="place" v="island" />
		<tag k="ssr:stedsnr" v="247726" />
	</node>
	<node lat="59.85443888935971" lon="5.986980561407618" id="-30698">
		<tag k="name" v="Grohellernes" />
		<tag k="natural" v="cape" />
		<tag k="ssr:stedsnr" v="97559" />
	</node>
	<node lat="60.08865000287431" lon="5.965994445818351" id="-30700">
		<tag k="alt_name" v="Bygdavika" />
		<tag k="name" v="Bygdavågen" />
		<tag k="natural" v="bay" />
		<tag k="ssr:stedsnr" v="247931" />
	</node>
	<node lat="60.12881389080141" lon="5.989291671670215" id="-30703">
		<tag k="name" v="Varaldsøy" />
		<tag k="place" v="island" />
		<tag k="ssr:stedsnr" v="247868" />
	</node>
	<node lat="59.816052775581774" lon="5.748999999171883" id="-30711">
		<tag k="name" v="Larsastøa" />
		<tag k="natural" v="bay" />
		<tag k="ssr:stedsnr" v="98872" />
	</node>
	<node lat="59.81516389210674" lon="5.730002782659852" id="-30712">
		<tag k="name" v="Blokkebærholmen" />
		<tag k="place" v="islet" />
		<tag k="ssr:stedsnr" v="98883" />
	</node>
	<node lat="59.7766916623678" lon="5.9665944372803015" id="-30724">
		<tag k="alt_name" v="Seglberget" />
		<tag k="name" v="Seilberg" />
		<tag k="natural" v="cape" />
		<tag k="ssr:stedsnr" v="99203" />
	</node>
	<node lat="60.010155686098706" lon="5.807230883867708" id="-30732">
		<tag k="loc_name" v="Dalssjøen" />
		<tag k="name" v="Dalsjøen" />
		<tag k="natural" v="bay" />
		<tag k="ssr:stedsnr" v="99825" />
	</node>
	<node lat="60.15720833523347" lon="6.290405555331928" id="-30737">
		<tag k="name" v="Køylebukta" />
		<tag k="natural" v="bay" />
		<tag k="ssr:stedsnr" v="99921" />
	</node>
	<node lat="59.73148888508897" lon="5.703247218263094" id="-30739">
		<tag k="name" v="Karteidklubben" />
		<tag k="natural" v="cape" />
		<tag k="ssr:stedsnr" v="99960" />
	</node>
	<node lat="60.09055555754478" lon="5.965277785759936" id="-30747">
		<tag k="name" v="Vågsvikane" />
		<tag k="natural" v="bay" />
		<tag k="ssr:stedsnr" v="99976" />
	</node>
	<node lat="59.831827778869474" lon="5.757449992727316" id="-30750">
		<tag k="alt_name" v="Porsvikneset" />
		<tag k="name" v="Porsneset" />
		<tag k="natural" v="cape" />
		<tag k="ssr:stedsnr" v="104574" />
	</node>
	<node lat="59.87340555614006" lon="5.7431222180257" id="-30751">
		<tag k="name" v="Bogsneset" />
		<tag k="natural" v="cape" />
		<tag k="ssr:stedsnr" v="105593" />
	</node>
	<node lat="59.98706111314481" lon="5.758691675089642" id="-30755">
		<tag k="name" v="Terøysundet" />
		<tag k="natural" v="strait" />
		<tag k="ssr:stedsnr" v="124623" />
	</node>
	<node lat="59.983733334515904" lon="5.953805557627965" id="-30772">
		<tag k="name" v="Blåneset" />
		<tag k="natural" v="cape" />
		<tag k="ssr:stedsnr" v="125462" />
	</node>
	<node lat="59.864627774309696" lon="5.7392805553235045" id="-30776">
		<tag k="alt_name" v="Rysslandsvik" />
		<tag k="name" v="Røsslandsvika" />
		<tag k="natural" v="bay" />
		<tag k="ssr:stedsnr" v="125324" />
	</node>
	<node lat="59.81344444193619" lon="5.72576388985113" id="-30780">
		<tag k="name" v="Øysteinsvik" />
		<tag k="natural" v="bay" />
		<tag k="ssr:stedsnr" v="125372" />
	</node>
	<node lat="59.95043611502874" lon="5.874530562319305" id="-30784">
		<tag k="name" v="Storsundet" />
		<tag k="natural" v="strait" />
		<tag k="ssr:stedsnr" v="125761" />
	</node>
	<node lat="59.982630559650694" lon="5.818144435343651" id="-30788">
		<tag k="alt_name" v="Grytneset" />
		<tag k="name" v="Grytnes" />
		<tag k="natural" v="cape" />
		<tag k="ssr:stedsnr" v="125653" />
	</node>
	<node lat="59.983788886235075" lon="5.831858331861268" id="-30789">
		<tag k="fixme" v="multiple name tags, choose one and add the other to alt_name" />
		<tag k="name" v="Fingergullvika;Gullvika" />
		<tag k="natural" v="bay" />
		<tag k="ssr:stedsnr" v="125654" />
	</node>
	<node lat="59.79305555554674" lon="5.681958341599654" id="-30803">
		<tag k="name" v="Kobbebukta" />
		<tag k="natural" v="bay" />
		<tag k="ssr:stedsnr" v="159004" />
	</node>
	<node lat="59.71517778027458" lon="5.699369452887698" id="-30804">
		<tag k="name" v="Træsklubben" />
		<tag k="natural" v="cape" />
		<tag k="ssr:stedsnr" v="159048" />
	</node>
	<node lat="60.15361944211493" lon="6.285286119530634" id="-30808">
		<tag k="alt_name" v="Aursteinen" />
		<tag k="name" v="Aurstein" />
		<tag k="natural" v="cape" />
		<tag k="ssr:stedsnr" v="159311" />
	</node>
	<node lat="60.11894999716351" lon="6.266974995534052" id="-30811">
		<tag k="name" v="Osaholmen" />
		<tag k="place" v="islet" />
		<tag k="ssr:stedsnr" v="159348" />
	</node>
	<node lat="60.11909999606546" lon="6.268519447214065" id="-30812">
		<tag k="name" v="Sunndalsvika" />
		<tag k="natural" v="bay" />
		<tag k="ssr:stedsnr" v="159353" />
	</node>
	<node lat="60.13003889085336" lon="6.245797219829428" id="-30815">
		<tag k="alt_name" v="Snilsodden" />
		<tag k="name" v="Snilsodd" />
		<tag k="natural" v="cape" />
		<tag k="ssr:stedsnr" v="159360" />
	</node>
	<node lat="60.11946111094984" lon="6.25674721984314" id="-30816">
		<tag k="name" v="Musskjerneset" />
		<tag k="natural" v="cape" />
		<tag k="ssr:stedsnr" v="159366" />
	</node>
	<node lat="60.10751066154179" lon="6.136823279350208" id="-30819">
		<tag k="name" v="Gapandehamn" />
		<tag k="natural" v="bay" />
		<tag k="ssr:stedsnr" v="159549" />
	</node>
	<node lat="59.7234027771856" lon="5.7658416607256795" id="-30823">
		<tag k="name" v="Virdalsflua" />
		<tag k="place" v="locality" />
		<tag k="seamark:type" v="rock" />
		<tag k="ssr:stedsnr" v="164721" />
	</node>
	<node lat="59.93486389199772" lon="5.861672214566361" id="-30824">
		<tag k="name" v="Neset" />
		<tag k="natural" v="cape" />
		<tag k="ssr:stedsnr" v="165406" />
	</node>
	<node lat="59.78121850632514" lon="5.851499653276683" id="-30825">
		<tag k="name" v="Leirvik" />
		<tag k="natural" v="bay" />
		<tag k="ssr:stedsnr" v="165926" />
	</node>
	<node lat="59.846330559349035" lon="5.693991658221076" id="-30851">
		<tag k="name" v="Åsgardsvika" />
		<tag k="natural" v="bay" />
		<tag k="ssr:stedsnr" v="186282" />
	</node>
	<node lat="59.991150000589826" lon="5.852675006308979" id="-30857">
		<tag k="name" v="Limbuneset" />
		<tag k="natural" v="cape" />
		<tag k="ssr:stedsnr" v="186506" />
	</node>
	<node lat="60.16232777866976" lon="6.026250006577836" id="-30860">
		<tag k="name" v="Ospevikane" />
		<tag k="natural" v="bay" />
		<tag k="ssr:stedsnr" v="186615" />
	</node>
	<node lat="59.964413891983945" lon="5.942369441157911" id="-30861">
		<tag k="name" v="Kvalen" />
		<tag k="natural" v="cape" />
		<tag k="ssr:stedsnr" v="186525" />
	</node>
	<node lat="60.00827499721529" lon="5.7243416688941995" id="-30867">
		<tag k="alt_name" v="Gjerdsheimholmane" />
		<tag k="name" v="Gjersheimsholmane" />
		<tag k="place" v="islet" />
		<tag k="ssr:stedsnr" v="187677" />
	</node>
	<node lat="60.01615555722634" lon="5.825672228234441" id="-30871">
		<tag k="name" v="Hauganeset" />
		<tag k="natural" v="cape" />
		<tag k="ssr:stedsnr" v="267196" />
	</node>
	<node lat="60.000624996172746" lon="5.866563893336618" id="-30872">
		<tag k="name" v="Støaneset" />
		<tag k="natural" v="cape" />
		<tag k="ssr:stedsnr" v="268149" />
	</node>
	<node lat="60.00152777453691" lon="5.981666672814754" id="-30874">
		<tag k="name" v="Kassatå" />
		<tag k="natural" v="cape" />
		<tag k="ssr:stedsnr" v="206110" />
	</node>
	<node lat="60.08293611558649" lon="5.922061112208677" id="-30875">
		<tag k="name" v="Grønevikneset" />
		<tag k="natural" v="cape" />
		<tag k="ssr:stedsnr" v="206081" />
	</node>
	<node lat="59.754209501768976" lon="5.8368909356449805" id="-30886">
		<tag k="name" v="Holmasund" />
		<tag k="natural" v="strait" />
		<tag k="ssr:stedsnr" v="220023" />
	</node>
	<node lat="59.752069447389495" lon="5.831497222264096" id="-30887">
		<tag k="fixme" v="consider seamark:type=rock or natural=shoal" />
		<tag k="name" v="Bukkaskjeret" />
		<tag k="place" v="islet" />
		<tag k="ssr:stedsnr" v="220025" />
	</node>
	<node lat="59.81587500432271" lon="5.647144447056277" id="-30888">
		<tag k="name" v="Vetla Kongsvika" />
		<tag k="natural" v="bay" />
		<tag k="ssr:stedsnr" v="220031" />
	</node>
	<node lat="60.12108611379314" lon="6.275397215699505" id="-30894">
		<tag k="name" v="Sandvika" />
		<tag k="natural" v="bay" />
		<tag k="ssr:stedsnr" v="220386" />
	</node>
	<node lat="60.12774166885233" lon="6.2331361105109755" id="-30896">
		<tag k="name" v="Sagholmen" />
		<tag k="place" v="islet" />
		<tag k="ssr:stedsnr" v="220390" />
	</node>
	<node lat="60.16086666835395" lon="5.9880416692480924" id="-30904">
		<tag k="name" v="Monsvik" />
		<tag k="natural" v="bay" />
		<tag k="ssr:stedsnr" v="220803" />
	</node>
	<node lat="60.13640833672409" lon="6.059686115283883" id="-30905">
		<tag k="name" v="Kvitsandneset" />
		<tag k="natural" v="cape" />
		<tag k="ssr:stedsnr" v="220806" />
	</node>
	<node lat="60.03690555136332" lon="5.909522217469185" id="-30909">
		<tag k="name" v="Hellebergsvika" />
		<tag k="natural" v="bay" />
		<tag k="ssr:stedsnr" v="220870" />
	</node>
	<node lat="60.03991388602393" lon="5.915583333775028" id="-30910">
		<tag k="name" v="Hjortåsklubben" />
		<tag k="natural" v="cape" />
		<tag k="ssr:stedsnr" v="220872" />
	</node>
	<node lat="59.800127774292804" lon="5.9702333372381196" id="-30911">
		<tag k="name" v="Mjelkevika" />
		<tag k="natural" v="bay" />
		<tag k="ssr:stedsnr" v="220573" />
	</node>
	<node lat="59.787333330766934" lon="6.105372214738321" id="-30920">
		<tag k="name" v="Klubben" />
		<tag k="natural" v="cape" />
		<tag k="ssr:stedsnr" v="220775" />
	</node>
	<node lat="60.12961389350783" lon="6.05860556157175" id="-30922">
		<tag k="name" v="Vikane" />
		<tag k="natural" v="bay" />
		<tag k="ssr:stedsnr" v="220788" />
	</node>
	<node lat="60.118455551068045" lon="6.069099991999077" id="-30923">
		<tag k="name" v="Terneholmen" />
		<tag k="place" v="islet" />
		<tag k="ssr:stedsnr" v="220791" />
	</node>
	<node lat="59.86188333250173" lon="5.730152776917854" id="-30924">
		<tag k="name" v="Naustvik" />
		<tag k="natural" v="bay" />
		<tag k="ssr:stedsnr" v="220917" />
	</node>
	<node lat="60.106002774164715" lon="6.035302774105886" id="-30927">
		<tag k="name" v="Oldervika" />
=======
<osm generator="osmapis" version="0.6">
	<node id="-610304" lat="59.7322777743" lon="5.72103056399">
		<tag k="name" v="Hagavika" />
		<tag k="natural" v="bay" />
		<tag k="ssr:stedsnr" v="731103" />
	</node>
	<node id="-610300" lat="59.7566416623" lon="5.70315277958">
		<tag k="name" v="Kvernaflua" />
		<tag k="place" v="locality" />
		<tag k="seamark:type" v="rock" />
		<tag k="ssr:stedsnr" v="894684" />
	</node>
	<node id="-610299" lat="59.8154138893" lon="5.73949166866">
		<tag k="name" v="Midtflua" />
		<tag k="place" v="locality" />
		<tag k="seamark:type" v="rock" />
		<tag k="ssr:stedsnr" v="894589" />
	</node>
	<node id="-610298" lat="59.8061305559" lon="5.73952500557">
		<tag k="name" v="Monsvika" />
		<tag k="natural" v="bay" />
		<tag k="ssr:stedsnr" v="894588" />
	</node>
	<node id="-610297" lat="59.78066944" lon="5.72532499657">
		<tag k="alt_name" v="Landaskjæret" />
		<tag k="fixme" v="consider seamark:type=rock or natural=shoal" />
		<tag k="name" v="Landaskjeret" />
		<tag k="place" v="islet" />
		<tag k="ssr:stedsnr" v="893727" />
	</node>
	<node id="-610296" lat="59.7954750033" lon="5.75015832597">
		<tag k="alt_name" v="Tofteskjæret" />
		<tag k="fixme" v="consider seamark:type=rock or natural=shoal" />
		<tag k="name" v="Tofteskjeret" />
		<tag k="place" v="islet" />
		<tag k="ssr:stedsnr" v="893716" />
	</node>
	<node id="-610295" lat="59.7462361094" lon="5.7888138942">
		<tag k="name" v="Bandaviknakken" />
		<tag k="natural" v="cape" />
		<tag k="ssr:stedsnr" v="893681" />
	</node>
	<node id="-612334" lat="59.7387027744" lon="5.65234167574">
		<tag k="alt_name" v="Askjevika" />
		<tag k="name" v="Askevika" />
		<tag k="natural" v="bay" />
		<tag k="ssr:stedsnr" v="609151" />
	</node>
	<node id="-612333" lat="59.7729083321" lon="5.79350277806">
		<tag k="alt_name" v="Halsnøy" />
		<tag k="name" v="Halsnøya" />
		<tag k="place" v="island" />
		<tag k="ssr:stedsnr" v="609123" />
	</node>
	<node id="-612332" lat="59.737738893" lon="5.72200833179">
		<tag k="name" v="Stegavika" />
		<tag k="natural" v="bay" />
		<tag k="ssr:stedsnr" v="609119" />
	</node>
	<node id="-612329" lat="59.7253750003" lon="5.74596389053">
		<tag k="name" v="Narravika" />
		<tag k="natural" v="bay" />
		<tag k="ssr:stedsnr" v="609074" />
	</node>
	<node id="-612328" lat="59.722438893" lon="5.73984166542">
		<tag k="name" v="Lauvøya" />
		<tag k="place" v="islet" />
		<tag k="ssr:stedsnr" v="609072" />
	</node>
	<node id="-612325" lat="59.8401055572" lon="5.71009167499">
		<tag k="name" v="Sundevåg" />
		<tag k="natural" v="bay" />
		<tag k="ssr:stedsnr" v="590584" />
	</node>
	<node id="-612324" lat="59.7250250028" lon="5.7132249952">
		<tag k="name" v="Råmseid" />
		<tag k="place" v="locality" />
		<tag k="ssr:stedsnr" v="590649" />
	</node>
	<node id="-612323" lat="59.8232777733" lon="5.79440555424">
		<tag k="alt_name" v="Nordre Valevåg;Valevågen" />
		<tag k="name" v="Nordre Valevågen" />
		<tag k="natural" v="bay" />
		<tag k="ssr:stedsnr" v="589570" />
	</node>
	<node id="-612322" lat="59.8225444479" lon="5.76702778334">
		<tag k="name" v="Trollskjergrunnen" />
		<tag k="natural" v="shoal" />
		<tag k="place" v="locality" />
		<tag k="ssr:stedsnr" v="589569" />
	</node>
	<node id="-612321" lat="59.7979666704" lon="5.70839722754">
		<tag k="name" v="Larsstø" />
		<tag k="natural" v="beach" />
		<tag k="place" v="locality" />
		<tag k="ssr:stedsnr" v="589764" />
	</node>
	<node id="-610272" lat="59.9864194421" lon="5.7602555541">
		<tag k="name" v="Kalvavika" />
		<tag k="natural" v="bay" />
		<tag k="ssr:stedsnr" v="888780" />
	</node>
	<node id="-609957" lat="60.165052781" lon="5.99800555225">
		<tag k="fixme" v="multiple name tags, choose one and add the other to alt_name" />
		<tag k="name" v="Håholmen;Myraholmen" />
		<tag k="place" v="islet" />
		<tag k="ssr:stedsnr" v="705920" />
	</node>
	<node id="-612316" lat="59.9683222242" lon="5.89762499607">
		<tag k="name" v="Kattaneset" />
		<tag k="natural" v="cape" />
		<tag k="ssr:stedsnr" v="584952" />
	</node>
	<node id="-612310" lat="60.0695888893" lon="5.96830277544">
		<tag k="name" v="Hestevika" />
		<tag k="natural" v="bay" />
		<tag k="ssr:stedsnr" v="584926" />
	</node>
	<node id="-612309" lat="60.0736500037" lon="5.98177777336">
		<tag k="name" v="Hillarsvika" />
		<tag k="natural" v="bay" />
		<tag k="ssr:stedsnr" v="584925" />
	</node>
	<node id="-610258" lat="59.7413083376" lon="5.73585277484">
		<tag k="name" v="Skoraneset" />
		<tag k="natural" v="cape" />
		<tag k="ssr:stedsnr" v="888946" />
	</node>
	<node id="-610253" lat="60.1311222182" lon="6.2884194363">
		<tag k="name" v="Mjølstøneset" />
		<tag k="natural" v="cape" />
		<tag k="ssr:stedsnr" v="888252" />
	</node>
	<node id="-610250" lat="60.1199222184" lon="6.27136388368">
		<tag k="alt_name" v="Kalvhaganeset" />
		<tag k="name" v="Kalhageneset" />
		<tag k="natural" v="cape" />
		<tag k="ssr:stedsnr" v="888296" />
	</node>
	<node id="-610244" lat="60.0725876412" lon="6.05381625671">
		<tag k="name" v="Bytesneset" />
		<tag k="natural" v="cape" />
		<tag k="ssr:stedsnr" v="888228" />
	</node>
	<node id="-610240" lat="59.7151972235" lon="5.65965556294">
		<tag k="name" v="Kvitanes" />
		<tag k="natural" v="cape" />
		<tag k="ssr:stedsnr" v="888039" />
	</node>
	<node id="-612287" lat="60.1149083309" lon="6.2030111179">
		<tag k="name" v="Friarstegen" />
		<tag k="natural" v="cape" />
		<tag k="ssr:stedsnr" v="584382" />
	</node>
	<node id="-610238" lat="59.7053318381" lon="5.72897122819">
		<tag k="fixme" v="consider seamark:type=rock or natural=shoal" />
		<tag k="name" v="Mælesskjera" />
		<tag k="place" v="islet" />
		<tag k="ssr:stedsnr" v="888032" />
	</node>
	<node id="-610237" lat="59.7589166673" lon="5.79781110464">
		<tag k="name" v="Tømbervika" />
		<tag k="natural" v="bay" />
		<tag k="ssr:stedsnr" v="888029" />
	</node>
	<node id="-612281" lat="59.7187555543" lon="5.64352222746">
		<tag k="name" v="Søre Flatholmen" />
		<tag k="place" v="islet" />
		<tag k="ssr:stedsnr" v="584042" />
	</node>
	<node id="-612280" lat="59.7364027814" lon="5.64843333548">
		<tag k="name" v="Bøneset" />
		<tag k="natural" v="cape" />
		<tag k="ssr:stedsnr" v="584039" />
	</node>
	<node id="-612279" lat="59.7265638895" lon="5.71172777103">
		<tag k="name" v="Furevik" />
		<tag k="natural" v="bay" />
		<tag k="ssr:stedsnr" v="584028" />
	</node>
	<node id="-612278" lat="59.813330308" lon="5.66875841548">
		<tag k="name" v="Ikornholmen" />
		<tag k="place" v="islet" />
		<tag k="ssr:stedsnr" v="584026" />
	</node>
	<node id="-612277" lat="59.7286750014" lon="5.643752781">
		<tag k="name" v="Lyngholmen" />
		<tag k="place" v="islet" />
		<tag k="ssr:stedsnr" v="584016" />
	</node>
	<node id="-612276" lat="59.7965166651" lon="5.70646388849">
		<tag k="name" v="Larsstøvik" />
		<tag k="natural" v="bay" />
		<tag k="ssr:stedsnr" v="584005" />
	</node>
	<node id="-612275" lat="59.809486113" lon="5.70451110257">
		<tag k="name" v="Indersvika" />
		<tag k="natural" v="bay" />
		<tag k="ssr:stedsnr" v="584003" />
	</node>
	<node id="-612274" lat="59.7878333303" lon="5.66939443911">
		<tag k="name" v="Kuneset" />
		<tag k="natural" v="cape" />
		<tag k="ssr:stedsnr" v="584001" />
	</node>
	<node id="-610224" lat="59.7805499997" lon="6.09187221389">
		<tag k="name" v="Tolleivsvika" />
		<tag k="natural" v="bay" />
		<tag k="ssr:stedsnr" v="887730" />
	</node>
	<node id="-612263" lat="59.8545111115" lon="5.69416111205">
		<tag k="name" v="Vetlehavn" />
		<tag k="natural" v="bay" />
		<tag k="ssr:stedsnr" v="583896" />
	</node>
	<node id="-608922" lat="59.8688361069" lon="5.74881389514">
		<tag k="name" v="Nordrevågen" />
		<tag k="natural" v="bay" />
		<tag k="ssr:stedsnr" v="37921" />
	</node>
	<node id="-612250" lat="59.7735888929" lon="6.08904721342">
		<tag k="name" v="Klakken" />
		<tag k="natural" v="cape" />
		<tag k="ssr:stedsnr" v="583685" />
	</node>
	<node id="-610201" lat="60.0472861112" lon="5.91817499385">
		<tag k="name" v="Eikelandsvågen" />
		<tag k="natural" v="bay" />
		<tag k="ssr:stedsnr" v="733968" />
	</node>
	<node id="-610200" lat="60.0586499973" lon="5.92269167164">
		<tag k="name" v="Heiasund" />
		<tag k="natural" v="strait" />
		<tag k="ssr:stedsnr" v="645860" />
	</node>
	<node id="-612244" lat="59.8486777802" lon="5.69448333875">
		<tag k="name" v="Bortnavika" />
		<tag k="natural" v="bay" />
		<tag k="ssr:stedsnr" v="583191" />
	</node>
	<node id="-612239" lat="59.802966671" lon="5.94366945184">
		<tag k="name" v="Kjerringekjeften" />
		<tag k="natural" v="cape" />
		<tag k="ssr:stedsnr" v="583150" />
	</node>
	<node id="-612235" lat="60.0128972265" lon="5.72693889284">
		<tag k="name" v="Sponavika" />
		<tag k="natural" v="bay" />
		<tag k="ssr:stedsnr" v="571158" />
	</node>
	<node id="-612229" lat="60.1160499972" lon="6.03764999822">
		<tag k="name" v="Djupevika" />
		<tag k="natural" v="bay" />
		<tag k="ssr:stedsnr" v="551898" />
	</node>
	<node id="-610179" lat="59.8171138898" lon="5.6565583288">
		<tag k="name" v="Vetlesvinøysund" />
		<tag k="natural" v="strait" />
		<tag k="ssr:stedsnr" v="644025" />
	</node>
	<node id="-610178" lat="59.8129944423" lon="5.69978889443">
		<tag k="name" v="Salsund" />
		<tag k="natural" v="strait" />
		<tag k="ssr:stedsnr" v="644023" />
	</node>
	<node id="-610177" lat="59.7555750017" lon="5.84142499958">
		<tag k="name" v="Stølsneset" />
		<tag k="natural" v="cape" />
		<tag k="ssr:stedsnr" v="644020" />
	</node>
	<node id="-610176" lat="59.737936108" lon="5.68999166801">
		<tag k="alt_name" v="Bleikjo" />
		<tag k="name" v="Bleikja" />
		<tag k="place" v="islet" />
		<tag k="ssr:stedsnr" v="644015" />
	</node>
	<node id="-610175" lat="59.7390055568" lon="5.6904166705">
		<tag k="name" v="Rongedalsneset" />
		<tag k="natural" v="cape" />
		<tag k="ssr:stedsnr" v="644014" />
	</node>
	<node id="-610174" lat="59.7437916669" lon="5.65474723007">
		<tag k="name" v="Tjuvavika" />
		<tag k="natural" v="bay" />
		<tag k="ssr:stedsnr" v="644012" />
	</node>
	<node id="-612221" lat="60.0651611083" lon="5.96766666992">
		<tag k="name" v="Oddaflua" />
		<tag k="natural" v="shoal" />
		<tag k="place" v="locality" />
		<tag k="ssr:stedsnr" v="550965" />
	</node>
	<node id="-610172" lat="59.7963305526" lon="5.68302499634">
		<tag k="alt_name" v="Jehansvik" />
		<tag k="name" v="Johansvika" />
		<tag k="natural" v="bay" />
		<tag k="ssr:stedsnr" v="644004" />
	</node>
	<node id="-612214" lat="60.10065278" lon="6.02898888851">
		<tag k="name" v="Bøneset" />
		<tag k="natural" v="cape" />
		<tag k="ssr:stedsnr" v="550942" />
	</node>
	<node id="-610281" lat="60.0614861132" lon="5.92217777736">
		<tag k="name" v="Hamnavågen" />
		<tag k="natural" v="bay" />
		<tag k="ssr:stedsnr" v="888862" />
	</node>
	<node id="-610164" lat="59.9127435315" lon="5.77288774803">
		<tag k="alt_name" v="Trondnes" />
		<tag k="name" v="Trones" />
		<tag k="natural" v="cape" />
		<tag k="ssr:stedsnr" v="732725" />
	</node>
	<node id="-610161" lat="59.9586638908" lon="5.94845833009">
		<tag k="fixme" v="consider seamark:type=rock or natural=shoal" />
		<tag k="name" v="Skjeret" />
		<tag k="place" v="islet" />
		<tag k="ssr:stedsnr" v="732494" />
	</node>
	<node id="-610160" lat="59.9907749992" lon="5.98608332579">
		<tag k="name" v="Naustvika" />
		<tag k="natural" v="bay" />
		<tag k="ssr:stedsnr" v="732489" />
	</node>
	<node id="-610155" lat="59.753163891" lon="5.72014721418">
		<tag k="name" v="Skipavågen" />
		<tag k="natural" v="bay" />
		<tag k="ssr:stedsnr" v="732428" />
	</node>
	<node id="-612202" lat="59.7927138852" lon="5.77936666108">
		<tag k="name" v="Langaneset" />
		<tag k="natural" v="cape" />
		<tag k="ssr:stedsnr" v="550573" />
	</node>
	<node id="-612201" lat="60.1605194442" lon="6.0377166749">
		<tag k="name" v="Høysteinen" />
		<tag k="natural" v="cape" />
		<tag k="ssr:stedsnr" v="550554" />
	</node>
	<node id="-610152" lat="59.7906194419" lon="5.77127778658">
		<tag k="name" v="Gravdalsvika" />
		<tag k="natural" v="bay" />
		<tag k="ssr:stedsnr" v="732404" />
	</node>
	<node id="-610151" lat="59.7839944475" lon="5.67777500085">
		<tag k="name" v="Leirdalsvika" />
		<tag k="natural" v="bay" />
		<tag k="ssr:stedsnr" v="732388" />
	</node>
	<node id="-612198" lat="59.984486114" lon="5.9504333248">
		<tag k="name" v="Kalvasundet" />
		<tag k="natural" v="strait" />
		<tag k="ssr:stedsnr" v="550425" />
	</node>
	<node id="-610149" lat="59.8118722205" lon="5.67035833481">
		<tag k="alt_name" v="Lykelsøya, store;Lykelsøya" />
		<tag k="name" v="Store Lykelsøya" />
		<tag k="place" v="island" />
		<tag k="ssr:stedsnr" v="732357" />
	</node>
	<node id="-610148" lat="59.7728027753" lon="5.88586666466">
		<tag k="alt_name" v="Salbuvikane" />
		<tag k="name" v="Saltbuvikane" />
		<tag k="natural" v="bay" />
		<tag k="ssr:stedsnr" v="732333" />
	</node>
	<node id="-612195" lat="59.7542638853" lon="5.66958056082">
		<tag k="alt_name" v="Ølvertangen, s;Ølvertangen" />
		<tag k="name" v="Søre Ølvertangen" />
		<tag k="natural" v="cape" />
		<tag k="ssr:stedsnr" v="550392" />
	</node>
	<node id="-612194" lat="59.7921972197" lon="5.7586972142">
		<tag k="name" v="Fjellandsvika" />
		<tag k="natural" v="bay" />
		<tag k="ssr:stedsnr" v="550391" />
	</node>
	<node id="-612185" lat="59.7929666627" lon="5.93285833235">
		<tag k="name" v="Skallen" />
		<tag k="natural" v="cape" />
		<tag k="ssr:stedsnr" v="550275" />
	</node>
	<node id="-610134" lat="59.8190499994" lon="5.98521944407">
		<tag k="name" v="Øreviksneset" />
		<tag k="natural" v="cape" />
		<tag k="ssr:stedsnr" v="732246" />
	</node>
	<node id="-612175" lat="59.83429167" lon="5.98407500466">
		<tag k="alt_name" v="Slåttenes" />
		<tag k="name" v="Slåtteneset" />
		<tag k="natural" v="cape" />
		<tag k="ssr:stedsnr" v="550194" />
	</node>
	<node id="-610122" lat="60.1275000041" lon="6.31463611935">
		<tag k="name" v="Gjerdsvika" />
		<tag k="natural" v="bay" />
		<tag k="ssr:stedsnr" v="732164" />
	</node>
	<node id="-611436" lat="59.9911500006" lon="5.85267500631">
		<tag k="name" v="Limbuneset" />
		<tag k="natural" v="cape" />
		<tag k="ssr:stedsnr" v="186506" />
	</node>
	<node id="-610273" lat="59.9856527784" lon="5.747969446">
		<tag k="name" v="Nordøysundet" />
		<tag k="natural" v="strait" />
		<tag k="ssr:stedsnr" v="888781" />
	</node>
	<node id="-610614" lat="60.0804972217" lon="6.08031943584">
		<tag k="name" v="Kroa" />
		<tag k="natural" v="bay" />
		<tag k="ssr:stedsnr" v="948542" />
	</node>
	<node id="-610112" lat="59.747597222" lon="5.99829165797">
		<tag k="bay" v="fjord" />
		<tag k="name" v="Åkrafjorden" />
		<tag k="natural" v="bay" />
		<tag k="ssr:stedsnr" v="731596" />
	</node>
	<node id="-609248" lat="59.7139805532" lon="5.69048055077">
		<tag k="name" v="Øvrabøholmen" />
		<tag k="place" v="island" />
		<tag k="ssr:stedsnr" v="281041" />
	</node>
	<node id="-612157" lat="59.7892972213" lon="5.72511944389">
		<tag k="name" v="Naustvika" />
		<tag k="natural" v="bay" />
		<tag k="ssr:stedsnr" v="549381" />
	</node>
	<node id="-612156" lat="59.7843388932" lon="5.71154166505">
		<tag k="alt_name" v="Sjoholmen, store;Sjoøya" />
		<tag k="name" v="Store Sjoholmen" />
		<tag k="place" v="islet" />
		<tag k="ssr:stedsnr" v="549380" />
	</node>
	<node id="-610107" lat="59.9549249964" lon="5.92167777621">
		<tag k="name" v="Knutavågen" />
		<tag k="natural" v="bay" />
		<tag k="ssr:stedsnr" v="630205" />
	</node>
	<node id="-610106" lat="60.013527775" lon="5.89393333465">
		<tag k="name" v="Fuglebergneset" />
		<tag k="natural" v="cape" />
		<tag k="ssr:stedsnr" v="630118" />
	</node>
	<node id="-609247" lat="59.7474638914" lon="5.78929165938">
		<tag k="name" v="Bandavika" />
		<tag k="natural" v="bay" />
		<tag k="ssr:stedsnr" v="281030" />
	</node>
	<node id="-612152" lat="59.8783944415" lon="5.7479777749">
		<tag k="alt_name" v="Bleiknes" />
		<tag k="name" v="Bleikneset" />
		<tag k="natural" v="cape" />
		<tag k="ssr:stedsnr" v="549253" />
	</node>
	<node id="-612149" lat="59.7496527734" lon="5.7225638898">
		<tag k="alt_name" v="Gangsholmen;Gongstøholmen" />
		<tag k="name" v="Gongsholmen" />
		<tag k="place" v="islet" />
		<tag k="ssr:stedsnr" v="549154" />
	</node>
	<node id="-609246" lat="59.7253170615" lon="5.71431890782">
		<tag k="name" v="Ramseidklubben" />
		<tag k="natural" v="cape" />
		<tag k="ssr:stedsnr" v="281023" />
	</node>
	<node id="-610098" lat="60.1511472238" lon="6.05323610352">
		<tag k="alt_name" v="Seltevika" />
		<tag k="name" v="Seltåvika" />
		<tag k="natural" v="bay" />
		<tag k="ssr:stedsnr" v="611622" />
	</node>
	<node id="-610097" lat="60.1468638897" lon="6.06080555138">
		<tag k="name" v="Hissteinen" />
		<tag k="natural" v="cape" />
		<tag k="ssr:stedsnr" v="611604" />
	</node>
	<node id="-612143" lat="59.7257833305" lon="5.72976389664">
		<tag k="name" v="Fureholmen" />
		<tag k="place" v="islet" />
		<tag k="ssr:stedsnr" v="549083" />
	</node>
	<node id="-612141" lat="59.820016664" lon="5.74760555108">
		<tag k="name" v="Gulesteinsflua" />
		<tag k="place" v="locality" />
		<tag k="seamark:type" v="rock" />
		<tag k="ssr:stedsnr" v="529547" />
	</node>
	<node id="-612140" lat="59.8145277762" lon="5.73243888163">
		<tag k="alt_name" v="Terneskjæret" />
		<tag k="fixme" v="consider seamark:type=rock or natural=shoal" />
		<tag k="name" v="Terneskjeret" />
		<tag k="place" v="islet" />
		<tag k="ssr:stedsnr" v="529545" />
	</node>
	<node id="-612139" lat="59.7349861136" lon="5.62776389659">
		<tag k="name" v="Nyflua" />
		<tag k="place" v="locality" />
		<tag k="seamark:type" v="rock" />
		<tag k="ssr:stedsnr" v="528060" />
	</node>
	<node id="-610090" lat="59.8388499995" lon="5.68348332594">
		<tag k="alt_name" v="Metlesvik" />
		<tag k="name" v="Mekjesvika" />
		<tag k="natural" v="bay" />
		<tag k="ssr:stedsnr" v="610368" />
	</node>
	<node id="-610081" lat="59.9867388895" lon="5.95389999709">
		<tag k="name" v="Pettersvika" />
		<tag k="natural" v="bay" />
		<tag k="ssr:stedsnr" v="610513" />
	</node>
	<node id="-612126" lat="60.0514749985" lon="5.9213944379">
		<tag k="name" v="Stakkaliskora" />
		<tag k="natural" v="bay" />
		<tag k="ssr:stedsnr" v="524854" />
	</node>
	<node id="-612122" lat="59.8336722241" lon="5.70694167092">
		<tag k="name" v="Skreddarvika" />
		<tag k="natural" v="bay" />
		<tag k="ssr:stedsnr" v="524234" />
	</node>
	<node id="-610072" lat="59.9608027818" lon="5.99411945125">
		<tag k="name" v="Buavika" />
		<tag k="natural" v="bay" />
		<tag k="ssr:stedsnr" v="610019" />
	</node>
	<node id="-609241" lat="59.7976916652" lon="5.64806110922">
		<tag k="name" v="Sandsletta" />
		<tag k="natural" v="beach" />
		<tag k="place" v="locality" />
		<tag k="ssr:stedsnr" v="281003" />
	</node>
	<node id="-609581" lat="59.8167472185" lon="5.65033333352">
		<tag k="name" v="Kuneset" />
		<tag k="natural" v="cape" />
		<tag k="ssr:stedsnr" v="489611" />
	</node>
	<node id="-610057" lat="59.8236194455" lon="5.74530833479">
		<tag k="name" v="Skottaflua" />
		<tag k="natural" v="shoal" />
		<tag k="place" v="locality" />
		<tag k="ssr:stedsnr" v="712536" />
	</node>
	<node id="-610056" lat="59.8536361133" lon="5.96768054958">
		<tag k="name" v="Vårstølsvik" />
		<tag k="natural" v="bay" />
		<tag k="ssr:stedsnr" v="590926" />
	</node>
	<node id="-611628" lat="59.739300002" lon="5.68245832509">
		<tag k="alt_name" v="Kobbeholmane" />
		<tag k="name" v="Kobbaholmane" />
		<tag k="place" v="island" />
		<tag k="ssr:stedsnr" v="341012" />
	</node>
	<node id="-609921" lat="59.9439305528" lon="5.87548333706">
		<tag k="name" v="Gulholmsvika" />
		<tag k="natural" v="bay" />
		<tag k="ssr:stedsnr" v="705602" />
	</node>
	<node id="-610261" lat="59.7021055571" lon="5.71187777622">
		<tag k="name" v="Hestaklubben" />
		<tag k="natural" v="cape" />
		<tag k="ssr:stedsnr" v="888961" />
	</node>
	<node id="-612091" lat="59.9535666675" lon="5.98754166836">
		<tag k="name" v="Osaholmen" />
		<tag k="place" v="islet" />
		<tag k="ssr:stedsnr" v="523737" />
	</node>
	<node id="-610039" lat="60.1314111148" lon="6.29707778381">
		<tag k="name" v="Hovda" />
		<tag k="natural" v="beach" />
		<tag k="place" v="locality" />
		<tag k="ssr:stedsnr" v="584267" />
	</node>
	<node id="-612729" lat="59.9832750044" lon="6.00711944387">
		<tag k="name" v="Rørevågen" />
		<tag k="natural" v="bay" />
		<tag k="ssr:stedsnr" v="793486" />
	</node>
	<node id="-610033" lat="60.0377277737" lon="5.90824444482">
		<tag k="name" v="Sagvågen" />
		<tag k="natural" v="bay" />
		<tag k="ssr:stedsnr" v="583857" />
	</node>
	<node id="-609576" lat="59.7688444443" lon="5.69931111372">
		<tag k="bay" v="fjord" />
		<tag k="name" v="Klosterfjorden" />
		<tag k="natural" v="bay" />
		<tag k="ssr:stedsnr" v="489454" />
	</node>
	<node id="-610027" lat="60.0635888892" lon="5.91665832991">
		<tag k="name" v="Kyrkjhusneset" />
		<tag k="natural" v="cape" />
		<tag k="ssr:stedsnr" v="706876" />
	</node>
	<node id="-610026" lat="60.0616083315" lon="5.92403056363">
		<tag k="name" v="Skotaneset" />
		<tag k="natural" v="cape" />
		<tag k="ssr:stedsnr" v="706871" />
	</node>
	<node id="-609575" lat="59.7786388924" lon="5.73807223032">
		<tag k="alt_name" v="Hallarvik" />
		<tag k="name" v="Hallarevika" />
		<tag k="natural" v="bay" />
		<tag k="ssr:stedsnr" v="489446" />
	</node>
	<node id="-610019" lat="60.005416671" lon="5.72392778547">
		<tag k="alt_name" v="Salmonsneset" />
		<tag k="name" v="Salamonsneset" />
		<tag k="natural" v="cape" />
		<tag k="ssr:stedsnr" v="706801" />
	</node>
	<node id="-612066" lat="59.8265000025" lon="5.98679999615">
		<tag k="name" v="Sagneset" />
		<tag k="natural" v="cape" />
		<tag k="ssr:stedsnr" v="523665" />
	</node>
	<node id="-610011" lat="60.1041555541" lon="5.94445556416">
		<tag k="name" v="Kjærevik" />
		<tag k="natural" v="bay" />
		<tag k="ssr:stedsnr" v="706720" />
	</node>
	<node id="-610010" lat="60.1260555572" lon="6.0587861041">
		<tag k="name" v="Gloppe" />
		<tag k="natural" v="cape" />
		<tag k="ssr:stedsnr" v="706718" />
	</node>
	<node id="-612052" lat="59.7295222205" lon="5.64755832796">
		<tag k="name" v="Aksdalsvika" />
		<tag k="natural" v="bay" />
		<tag k="ssr:stedsnr" v="523062" />
	</node>
	<node id="-612050" lat="59.753494446" lon="5.79363611472">
		<tag k="name" v="Svorteviksneset" />
		<tag k="natural" v="cape" />
		<tag k="ssr:stedsnr" v="523045" />
	</node>
	<node id="-612049" lat="59.8129333301" lon="5.62959721706">
		<tag k="name" v="Hardingekroken" />
		<tag k="natural" v="bay" />
		<tag k="ssr:stedsnr" v="523034" />
	</node>
	<node id="-610000" lat="60.1080638923" lon="6.14490833004">
		<tag k="name" v="Storevika" />
		<tag k="natural" v="bay" />
		<tag k="ssr:stedsnr" v="706442" />
	</node>
	<node id="-609998" lat="60.0390805602" lon="5.91416667211">
		<tag k="alt_name" v="Hjortlandsskjeret" />
		<tag k="fixme" v="consider seamark:type=rock or natural=shoal" />
		<tag k="name" v="Hjortlandskjeret" />
		<tag k="place" v="islet" />
		<tag k="ssr:stedsnr" v="570092" />
	</node>
	<node id="-609997" lat="60.0510472189" lon="6.01846944067">
		<tag k="name" v="Teiganeset" />
		<tag k="natural" v="cape" />
		<tag k="ssr:stedsnr" v="570080" />
	</node>
	<node id="-609996" lat="60.0394222255" lon="6.02054167432">
		<tag k="alt_name" v="Lyngneset" />
		<tag k="name" v="Lyngsneset" />
		<tag k="natural" v="cape" />
		<tag k="ssr:stedsnr" v="570066" />
	</node>
	<node id="-609995" lat="60.0740299418" lon="6.05970751818">
		<tag k="name" v="Leirvikneset" />
		<tag k="natural" v="cape" />
		<tag k="ssr:stedsnr" v="706426" />
	</node>
	<node id="-608886" lat="60.1054416665" lon="6.03562500274">
		<tag k="name" v="Olderviksnes" />
		<tag k="natural" v="cape" />
		<tag k="ssr:stedsnr" v="220978" />
	</node>
	<node id="-609975" lat="59.7898666627" lon="5.71875832903">
		<tag k="name" v="Bjørkeneset" />
		<tag k="natural" v="cape" />
		<tag k="ssr:stedsnr" v="706053" />
	</node>
	<node id="-612022" lat="59.7773749979" lon="5.89160832465">
		<tag k="name" v="Skiftesvika" />
		<tag k="natural" v="bay" />
		<tag k="ssr:stedsnr" v="429589" />
	</node>
	<node id="-609973" lat="59.732269442" lon="5.72084165931">
		<tag k="name" v="Stordalsvika" />
		<tag k="natural" v="bay" />
		<tag k="ssr:stedsnr" v="706032" />
	</node>
	<node id="-612020" lat="59.7544888912" lon="6.05194999884">
		<tag k="name" v="Krossnes" />
		<tag k="natural" v="cape" />
		<tag k="ssr:stedsnr" v="429584" />
	</node>
	<node id="-612017" lat="59.829675001" lon="5.7387722303">
		<tag k="name" v="Klubben" />
		<tag k="natural" v="cape" />
		<tag k="ssr:stedsnr" v="429562" />
	</node>
	<node id="-609966" lat="59.9324000041" lon="5.8289972207">
		<tag k="name" v="Klubben" />
		<tag k="natural" v="cape" />
		<tag k="ssr:stedsnr" v="705981" />
	</node>
	<node id="-612013" lat="59.8037916701" lon="5.79716944177">
		<tag k="fixme" v="consider seamark:type=rock or natural=shoal" />
		<tag k="name" v="Bleikjo" />
		<tag k="place" v="islet" />
		<tag k="ssr:stedsnr" v="429375" />
	</node>
	<node id="-612011" lat="59.7562499982" lon="6.00741111328">
		<tag k="alt_name" v="Klubbehola" />
		<tag k="name" v="Klubbahola" />
		<tag k="natural" v="bay" />
		<tag k="ssr:stedsnr" v="429372" />
	</node>
	<node id="-612005" lat="59.9859166693" lon="5.94624999286">
		<tag k="name" v="Gjertaneset" />
		<tag k="natural" v="cape" />
		<tag k="ssr:stedsnr" v="429454" />
	</node>
	<node id="-609956" lat="59.8701277783" lon="5.75718611475">
		<tag k="name" v="Synnøveholmen" />
		<tag k="place" v="islet" />
		<tag k="ssr:stedsnr" v="705916" />
	</node>
	<node id="-609562" lat="59.8137055568" lon="5.70784166347">
		<tag k="alt_name" v="Bekkjarvik" />
		<tag k="name" v="Breidvik" />
		<tag k="natural" v="bay" />
		<tag k="ssr:stedsnr" v="489366" />
	</node>
	<node id="-611983" lat="59.987101266" lon="5.81924916953">
		<tag k="alt_name" v="Selvåg, l;Litla Selvåg" />
		<tag k="name" v="Vetle Selvågen" />
		<tag k="natural" v="bay" />
		<tag k="ssr:stedsnr" v="428659" />
	</node>
	<node id="-609934" lat="60.0130777754" lon="5.99488055659">
		<tag k="name" v="Myrevågen" />
		<tag k="natural" v="bay" />
		<tag k="ssr:stedsnr" v="705709" />
	</node>
	<node id="-611981" lat="59.752381747" lon="5.83514430968">
		<tag k="name" v="Toftekalven" />
		<tag k="place" v="island" />
		<tag k="ssr:stedsnr" v="428380" />
	</node>
	<node id="-611977" lat="59.7871666711" lon="5.71169166835">
		<tag k="alt_name" v="Sjoholmen, l" />
		<tag k="name" v="Litle Sjoholmen" />
		<tag k="place" v="islet" />
		<tag k="ssr:stedsnr" v="428344" />
	</node>
	<node id="-611976" lat="59.7847000004" lon="5.68684999721">
		<tag k="name" v="Danielsvika" />
		<tag k="natural" v="bay" />
		<tag k="ssr:stedsnr" v="428338" />
	</node>
	<node id="-609900" lat="59.9576361117" lon="5.97151944771">
		<tag k="name" v="Ytreholmen" />
		<tag k="place" v="islet" />
		<tag k="ssr:stedsnr" v="549021" />
	</node>
	<node id="-609922" lat="59.8458888918" lon="5.98041388126">
		<tag k="alt_name" v="Ormneset" />
		<tag k="name" v="Ormen" />
		<tag k="natural" v="cape" />
		<tag k="ssr:stedsnr" v="705620" />
	</node>
	<node id="-611969" lat="59.7428574771" lon="5.7850801554">
		<tag k="name" v="Svanavika" />
		<tag k="natural" v="bay" />
		<tag k="ssr:stedsnr" v="428095" />
	</node>
	<node id="-611966" lat="59.8088027754" lon="5.95188054728">
		<tag k="name" v="Esjevik" />
		<tag k="natural" v="bay" />
		<tag k="ssr:stedsnr" v="428225" />
	</node>
	<node id="-609916" lat="60.1128916688" lon="6.16740278021">
		<tag k="name" v="Hella" />
		<tag k="natural" v="cape" />
		<tag k="ssr:stedsnr" v="705395" />
	</node>
	<node id="-611962" lat="59.7230833332" lon="5.75575833448">
		<tag k="alt_name" v="Skiftesnes" />
		<tag k="name" v="Skifteneset" />
		<tag k="natural" v="cape" />
		<tag k="ssr:stedsnr" v="428075" />
	</node>
	<node id="-611961" lat="59.7262166631" lon="5.77271667244">
		<tag k="name" v="Sandvika" />
		<tag k="natural" v="bay" />
		<tag k="ssr:stedsnr" v="428074" />
	</node>
	<node id="-609911" lat="59.7592944479" lon="5.67784166704">
		<tag k="name" v="Grunnavågneset" />
		<tag k="natural" v="cape" />
		<tag k="ssr:stedsnr" v="705070" />
	</node>
	<node id="-609910" lat="59.8020138911" lon="5.65604166682">
		<tag k="name" v="Holmahola" />
		<tag k="natural" v="bay" />
		<tag k="ssr:stedsnr" v="705009" />
	</node>
	<node id="-609909" lat="59.7830944463" lon="5.68061944403">
		<tag k="name" v="Bestevika" />
		<tag k="natural" v="bay" />
		<tag k="ssr:stedsnr" v="705001" />
	</node>
	<node id="-609908" lat="59.7775308573" lon="5.8565036872">
		<tag k="name" v="Apalvika" />
		<tag k="natural" v="bay" />
		<tag k="ssr:stedsnr" v="704810" />
	</node>
	<node id="-611954" lat="59.7787055513" lon="5.58538333535">
		<tag k="name" v="Søre Hillegrunnen" />
		<tag k="natural" v="shoal" />
		<tag k="place" v="locality" />
		<tag k="ssr:stedsnr" v="408713" />
	</node>
	<node id="-611953" lat="59.8761972263" lon="5.73793332721">
		<tag k="name" v="Hågarnsnes" />
		<tag k="natural" v="cape" />
		<tag k="ssr:stedsnr" v="408590" />
	</node>
	<node id="-611948" lat="60.0672611107" lon="5.91746666701">
		<tag k="name" v="Busevik" />
		<tag k="natural" v="bay" />
		<tag k="ssr:stedsnr" v="403880" />
	</node>
	<node id="-609899" lat="59.9484499985" lon="5.85081665869">
		<tag k="name" v="Steinaneset" />
		<tag k="natural" v="cape" />
		<tag k="ssr:stedsnr" v="549017" />
	</node>
	<node id="-609898" lat="59.9536555551" lon="5.84433610614">
		<tag k="name" v="Persneset" />
		<tag k="natural" v="cape" />
		<tag k="ssr:stedsnr" v="549010" />
	</node>
	<node id="-609895" lat="60.0709090519" lon="5.91909972783">
		<tag k="alt_name" v="Holmsund" />
		<tag k="name" v="Holmsundet" />
		<tag k="natural" v="strait" />
		<tag k="ssr:stedsnr" v="692066" />
	</node>
	<node id="-609891" lat="60.0139307049" lon="5.72470127974">
		<tag k="name" v="Likvika" />
		<tag k="natural" v="bay" />
		<tag k="ssr:stedsnr" v="524789" />
	</node>
	<node id="-610576" lat="60.0001861104" lon="5.98133611963">
		<tag k="name" v="Kolavika" />
		<tag k="natural" v="bay" />
		<tag k="ssr:stedsnr" v="854765" />
	</node>
	<node id="-609883" lat="60.1000555567" lon="6.02420833549">
		<tag k="name" v="Hannaholmen" />
		<tag k="place" v="islet" />
		<tag k="ssr:stedsnr" v="523980" />
	</node>
	<node id="-611930" lat="60.1235750039" lon="6.05356388202">
		<tag k="name" v="Høyskarvet" />
		<tag k="natural" v="cape" />
		<tag k="ssr:stedsnr" v="402778" />
	</node>
	<node id="-611926" lat="59.8519527798" lon="5.98146110316">
		<tag k="alt_name" v="Straumsnes" />
		<tag k="name" v="Straumneset" />
		<tag k="natural" v="cape" />
		<tag k="ssr:stedsnr" v="402576" />
	</node>
	<node id="-610233" lat="59.7688361139" lon="5.87788611437">
		<tag k="name" v="Bruravika" />
		<tag k="natural" v="bay" />
		<tag k="ssr:stedsnr" v="887880" />
	</node>
	<node id="-609876" lat="59.7924944439" lon="5.9233777803">
		<tag k="name" v="Skorhamaren" />
		<tag k="natural" v="cape" />
		<tag k="ssr:stedsnr" v="524148" />
	</node>
	<node id="-611921" lat="60.1074756724" lon="6.14082613673">
		<tag k="name" v="Kråkeræva" />
		<tag k="natural" v="cape" />
		<tag k="ssr:stedsnr" v="402517" />
	</node>
	<node id="-611917" lat="60.1167388885" lon="6.15159723096">
		<tag k="fixme" v="consider seamark:type=rock or natural=shoal" />
		<tag k="name" v="Kobbavikskjeret" />
		<tag k="place" v="islet" />
		<tag k="ssr:stedsnr" v="402479" />
	</node>
	<node id="-609865" lat="60.1179277791" lon="6.24596110719">
		<tag k="name" v="Silkebergneset" />
		<tag k="natural" v="cape" />
		<tag k="ssr:stedsnr" v="523393" />
	</node>
	<node id="-608865" lat="59.8618833325" lon="5.73015277692">
		<tag k="name" v="Naustvik" />
		<tag k="natural" v="bay" />
		<tag k="ssr:stedsnr" v="220917" />
	</node>
	<node id="-609860" lat="60.0967527783" lon="5.91810832997">
		<tag k="name" v="Haltanes" />
		<tag k="natural" v="cape" />
		<tag k="ssr:stedsnr" v="509056" />
	</node>
	<node id="-609859" lat="59.9341194448" lon="5.81155000743">
		<tag k="alt_name" v="Vågsnes" />
		<tag k="name" v="Vågsneset" />
		<tag k="natural" v="cape" />
		<tag k="ssr:stedsnr" v="509127" />
	</node>
	<node id="-609857" lat="60.0589250006" lon="5.92359443794">
		<tag k="fixme" v="consider seamark:type=rock or natural=shoal" />
		<tag k="name" v="Heiaskjeret" />
		<tag k="place" v="islet" />
		<tag k="ssr:stedsnr" v="490959" />
	</node>
	<node id="-610726" lat="59.8058305529" lon="5.65672500804">
		<tag k="alt_name" v="Øspholm" />
		<tag k="name" v="Ospholmen" />
		<tag k="place" v="islet" />
		<tag k="ssr:stedsnr" v="948011" />
	</node>
	<node id="-609245" lat="59.7249111079" lon="5.72695277934">
		<tag k="alt_name" v="Bleikjo" />
		<tag k="name" v="Bleikja" />
		<tag k="place" v="island" />
		<tag k="ssr:stedsnr" v="281022" />
	</node>
	<node id="-609853" lat="60.0841138914" lon="5.99011667527">
		<tag k="name" v="Ferjevågen" />
		<tag k="natural" v="bay" />
		<tag k="ssr:stedsnr" v="490936" />
	</node>
	<node id="-609847" lat="59.8363694448" lon="5.69340833644">
		<tag k="name" v="Bjellandshamn" />
		<tag k="natural" v="bay" />
		<tag k="ssr:stedsnr" v="489331" />
	</node>
	<node id="-609846" lat="59.8542861126" lon="5.6914861069">
		<tag k="alt_name" v="Øykjaneset" />
		<tag k="name" v="Øykjanes" />
		<tag k="natural" v="cape" />
		<tag k="ssr:stedsnr" v="489323" />
	</node>
	<node id="-609845" lat="59.855499999" lon="5.69731389613">
		<tag k="alt_name" v="Timbervik" />
		<tag k="name" v="Tømmervika" />
		<tag k="natural" v="bay" />
		<tag k="ssr:stedsnr" v="489322" />
	</node>
	<node id="-611886" lat="59.712447225" lon="5.67365277261">
		<tag k="name" v="Storstø" />
		<tag k="natural" v="cape" />
		<tag k="ssr:stedsnr" v="402043" />
	</node>
	<node id="-611885" lat="59.7165138871" lon="5.64963610537">
		<tag k="name" v="Mjelkevik" />
		<tag k="natural" v="bay" />
		<tag k="ssr:stedsnr" v="402042" />
	</node>
	<node id="-611884" lat="59.7237115271" lon="5.71593495506">
		<tag k="name" v="Ramseidklubben" />
		<tag k="natural" v="cape" />
		<tag k="ssr:stedsnr" v="402037" />
	</node>
	<node id="-611883" lat="59.7587833302" lon="5.79396388061">
		<tag k="name" v="Hestaneset" />
		<tag k="natural" v="cape" />
		<tag k="ssr:stedsnr" v="402031" />
	</node>
	<node id="-611882" lat="59.749936107" lon="5.83603611811">
		<tag k="name" v="Øreflota" />
		<tag k="natural" v="cape" />
		<tag k="ssr:stedsnr" v="402020" />
	</node>
	<node id="-611881" lat="59.8094444474" lon="5.65533055785">
		<tag k="name" v="Brakavika" />
		<tag k="natural" v="bay" />
		<tag k="ssr:stedsnr" v="402007" />
	</node>
	<node id="-611880" lat="59.9212527762" lon="5.78406666244">
		<tag k="name" v="Ørevika" />
		<tag k="natural" v="bay" />
		<tag k="ssr:stedsnr" v="401930" />
	</node>
	<node id="-608860" lat="60.0450138861" lon="5.92161667168">
		<tag k="name" v="Kunesvika" />
		<tag k="natural" v="bay" />
		<tag k="ssr:stedsnr" v="220868" />
	</node>
	<node id="-609830" lat="60.0943583339" lon="6.14338611252">
		<tag k="name" v="Skotbergsvika" />
		<tag k="natural" v="bay" />
		<tag k="old_name" v="Skottbergsvika" />
		<tag k="ssr:stedsnr" v="672955" />
	</node>
	<node id="-610907" lat="59.7632833353" lon="5.84011111381">
		<tag k="name" v="Notavågen" />
		<tag k="natural" v="bay" />
		<tag k="ssr:stedsnr" v="38018" />
	</node>
	<node id="-611872" lat="60.0707318658" lon="5.91990708634">
		<tag k="name" v="Storeholmen" />
		<tag k="place" v="islet" />
		<tag k="ssr:stedsnr" v="401737" />
	</node>
	<node id="-611871" lat="59.785561107" lon="6.11154722358">
		<tag k="name" v="Ospenes" />
		<tag k="natural" v="cape" />
		<tag k="ssr:stedsnr" v="401691" />
	</node>
	<node id="-609882" lat="60.1015805542" lon="6.0298916622">
		<tag k="name" v="Ostavika" />
		<tag k="natural" v="bay" />
		<tag k="ssr:stedsnr" v="523974" />
	</node>
	<node id="-609813" lat="60.0151094745" lon="5.82759068229">
		<tag k="name" v="Hyttevågen" />
		<tag k="natural" v="bay" />
		<tag k="ssr:stedsnr" v="672699" />
	</node>
	<node id="-609811" lat="60.0149500006" lon="5.72174165981">
		<tag k="alt_name" v="Mekjersholmen" />
		<tag k="name" v="Mekjesholmen" />
		<tag k="place" v="islet" />
		<tag k="ssr:stedsnr" v="672694" />
	</node>
	<node id="-609810" lat="60.0061269812" lon="5.75900264606">
		<tag k="name" v="Håvika" />
		<tag k="natural" v="bay" />
		<tag k="ssr:stedsnr" v="672678" />
	</node>
	<node id="-610563" lat="59.7929749987" lon="5.91761110995">
		<tag k="name" v="Holmedalsvika" />
		<tag k="natural" v="bay" />
		<tag k="ssr:stedsnr" v="854255" />
	</node>
	<node id="-611846" lat="60.0305021844" lon="6.00755307492">
		<tag k="name" v="Stykkeholmen" />
		<tag k="place" v="islet" />
		<tag k="ssr:stedsnr" v="402726" />
	</node>
	<node id="-611845" lat="60.0361361087" lon="6.01670833247">
		<tag k="name" v="Lindi" />
		<tag k="natural" v="cape" />
		<tag k="ssr:stedsnr" v="388247" />
	</node>
	<node id="-611844" lat="59.995177779" lon="5.98215556284">
		<tag k="name" v="Tånesvika" />
		<tag k="natural" v="bay" />
		<tag k="ssr:stedsnr" v="388084" />
	</node>
	<node id="-611843" lat="59.9970722241" lon="5.95085833055">
		<tag k="name" v="Kalvtanggrunna" />
		<tag k="natural" v="shoal" />
		<tag k="place" v="locality" />
		<tag k="ssr:stedsnr" v="388082" />
	</node>
	<node id="-609794" lat="59.7569888858" lon="6.05621666847">
		<tag k="name" v="Røssevika" />
		<tag k="natural" v="bay" />
		<tag k="ssr:stedsnr" v="671592" />
	</node>
	<node id="-611841" lat="60.0640861134" lon="5.91369722556">
		<tag k="name" v="Haugevågen" />
		<tag k="natural" v="bay" />
		<tag k="ssr:stedsnr" v="388059" />
	</node>
	<node id="-611840" lat="60.0336055514" lon="5.91415000764">
		<tag k="alt_name" v="Nettlandsklubben" />
		<tag k="name" v="Klubben" />
		<tag k="natural" v="cape" />
		<tag k="ssr:stedsnr" v="369983" />
	</node>
	<node id="-609790" lat="59.9876861093" lon="5.99278611744">
		<tag k="name" v="Vågsnes" />
		<tag k="natural" v="cape" />
		<tag k="ssr:stedsnr" v="671572" />
	</node>
	<node id="-609788" lat="59.7795194406" lon="5.7286805579">
		<tag k="alt_name" v="Bjodaneset" />
		<tag k="name" v="Bjoaneset" />
		<tag k="natural" v="cape" />
		<tag k="ssr:stedsnr" v="671568" />
	</node>
	<node id="-609787" lat="59.7673749976" lon="5.74731388688">
		<tag k="name" v="Grunnavågen" />
		<tag k="natural" v="bay" />
		<tag k="ssr:stedsnr" v="671566" />
	</node>
	<node id="-609778" lat="59.7588583336" lon="5.79646945012">
		<tag k="alt_name" v="Hansevika" />
		<tag k="name" v="Hansavika" />
		<tag k="natural" v="bay" />
		<tag k="ssr:stedsnr" v="671402" />
	</node>
	<node id="-611818" lat="60.0149111149" lon="5.89406945292">
		<tag k="name" v="Låte" />
		<tag k="natural" v="cape" />
		<tag k="ssr:stedsnr" v="368800" />
	</node>
	<node id="-611814" lat="59.9318250021" lon="5.83311110933">
		<tag k="alt_name" v="Børnes" />
		<tag k="name" v="Børneset" />
		<tag k="natural" v="cape" />
		<tag k="ssr:stedsnr" v="368780" />
	</node>
	<node id="-611813" lat="59.9312499958" lon="5.80335554905">
		<tag k="name" v="Vågen" />
		<tag k="natural" v="strait" />
		<tag k="ssr:stedsnr" v="368778" />
	</node>
	<node id="-611811" lat="59.9385500046" lon="5.82240556046">
		<tag k="name" v="Bogen" />
		<tag k="natural" v="cape" />
		<tag k="ssr:stedsnr" v="368764" />
	</node>
	<node id="-611810" lat="59.9483805579" lon="5.83536110569">
		<tag k="alt_name" v="Nordre Skorpevågen" />
		<tag k="name" v="Skorpevågen" />
		<tag k="natural" v="bay" />
		<tag k="ssr:stedsnr" v="368761" />
	</node>
	<node id="-610739" lat="59.9488138879" lon="5.83109999215">
		<tag k="name" v="Vedaneset" />
		<tag k="natural" v="cape" />
		<tag k="ssr:stedsnr" v="948606" />
	</node>
	<node id="-611804" lat="59.9843888908" lon="5.95634166988">
		<tag k="name" v="Marineset" />
		<tag k="natural" v="cape" />
		<tag k="ssr:stedsnr" v="368465" />
	</node>
	<node id="-611803" lat="59.7533055534" lon="5.79021666438">
		<tag k="name" v="Svortevika" />
		<tag k="natural" v="bay" />
		<tag k="ssr:stedsnr" v="368449" />
	</node>
	<node id="-611802" lat="59.7548083314" lon="5.7946833289">
		<tag k="name" v="Joavika" />
		<tag k="natural" v="bay" />
		<tag k="ssr:stedsnr" v="368447" />
	</node>
	<node id="-611801" lat="59.7578972198" lon="5.67789444035">
		<tag k="alt_name" v="Ølvertangen, nordre" />
		<tag k="fixme" v="multiple name tags, choose one and add the other to alt_name" />
		<tag k="name" v="Gryteneset;Nordre Ølvertangen" />
		<tag k="natural" v="cape" />
		<tag k="ssr:stedsnr" v="368436" />
	</node>
	<node id="-611800" lat="59.7968749982" lon="5.73925000089">
		<tag k="name" v="Toftevågen" />
		<tag k="natural" v="bay" />
		<tag k="ssr:stedsnr" v="368433" />
	</node>
	<node id="-611799" lat="59.8091222182" lon="5.74315555738">
		<tag k="alt_name" v="Tvilaupo" />
		<tag k="name" v="Tviløypo" />
		<tag k="place" v="islet" />
		<tag k="ssr:stedsnr" v="368423" />
	</node>
	<node id="-611795" lat="59.7846583341" lon="5.60433055702">
		<tag k="alt_name" v="Hilleøyane" />
		<tag k="name" v="Hille" />
		<tag k="place" v="island" />
		<tag k="ssr:stedsnr" v="368407" />
	</node>
	<node id="-611794" lat="59.8264694428" lon="5.70501110842">
		<tag k="name" v="Torsøya" />
		<tag k="place" v="islet" />
		<tag k="ssr:stedsnr" v="368391" />
	</node>
	<node id="-611793" lat="59.8119277787" lon="5.68287778199">
		<tag k="alt_name" v="Lykelsøya, l;Vetle Lykelsøya" />
		<tag k="name" v="Litle Lykelsøya" />
		<tag k="place" v="island" />
		<tag k="ssr:stedsnr" v="368378" />
	</node>
	<node id="-611792" lat="59.7812027769" lon="6.11166666028">
		<tag k="name" v="Kalvanes" />
		<tag k="natural" v="cape" />
		<tag k="ssr:stedsnr" v="368372" />
	</node>
	<node id="-611790" lat="59.8042222217" lon="5.68018332954">
		<tag k="name" v="Grunnavågen" />
		<tag k="natural" v="bay" />
		<tag k="ssr:stedsnr" v="368364" />
	</node>
	<node id="-609173" lat="59.7776555597" lon="5.96437221565">
		<tag k="name" v="Skiftesvik" />
		<tag k="natural" v="bay" />
		<tag k="ssr:stedsnr" v="159620" />
	</node>
	<node id="-609740" lat="59.7406833361" lon="5.67573332536">
		<tag k="name" v="Møllesvika" />
		<tag k="natural" v="bay" />
		<tag k="ssr:stedsnr" v="670105" />
	</node>
	<node id="-609737" lat="59.8132499982" lon="5.65698333935">
		<tag k="name" v="Ytre Ranavik" />
		<tag k="natural" v="bay" />
		<tag k="ssr:stedsnr" v="468706" />
	</node>
	<node id="-609733" lat="60.0076305551" lon="5.81402778105">
		<tag k="name" v="Storeholsund" />
		<tag k="natural" v="strait" />
		<tag k="ssr:stedsnr" v="463802" />
	</node>
	<node id="-609732" lat="59.8617777771" lon="5.72814166579">
		<tag k="name" v="Kuneset" />
		<tag k="natural" v="cape" />
		<tag k="ssr:stedsnr" v="463924" />
	</node>
	<node id="-609526" lat="59.9442416679" lon="5.87582500208">
		<tag k="name" v="Gulholmen" />
		<tag k="place" v="islet" />
		<tag k="ssr:stedsnr" v="489027" />
	</node>
	<node id="-609730" lat="60.1590944426" lon="6.29216111944">
		<tag k="name" v="Terneholmen" />
		<tag k="place" v="islet" />
		<tag k="ssr:stedsnr" v="463915" />
	</node>
	<node id="-609719" lat="60.1086250003" lon="6.15418888906">
		<tag k="name" v="Eskedalsneset" />
		<tag k="natural" v="cape" />
		<tag k="ssr:stedsnr" v="463458" />
	</node>
	<node id="-609717" lat="59.8331972186" lon="5.70196666285">
		<tag k="name" v="Naustvika" />
		<tag k="natural" v="bay" />
		<tag k="ssr:stedsnr" v="463256" />
	</node>
	<node id="-609716" lat="59.8329500005" lon="5.69785832792">
		<tag k="name" v="Hellevika" />
		<tag k="natural" v="bay" />
		<tag k="ssr:stedsnr" v="463255" />
	</node>
	<node id="-611757" lat="59.996630552" lon="5.81313610499">
		<tag k="alt_name" v="Grønnevika" />
		<tag k="name" v="Grønevika" />
		<tag k="natural" v="bay" />
		<tag k="ssr:stedsnr" v="367647" />
	</node>
	<node id="-611754" lat="59.7867833319" lon="5.79441388497">
		<tag k="name" v="Hillestadvågen" />
		<tag k="natural" v="bay" />
		<tag k="ssr:stedsnr" v="367318" />
	</node>
	<node id="-609705" lat="59.7483722213" lon="5.74158055454">
		<tag k="name" v="Lambaskora" />
		<tag k="natural" v="cape" />
		<tag k="ssr:stedsnr" v="463026" />
	</node>
	<node id="-609704" lat="59.7871388878" lon="5.72600832643">
		<tag k="name" v="Skjesshaugtåna" />
		<tag k="natural" v="cape" />
		<tag k="ssr:stedsnr" v="463022" />
	</node>
	<node id="-609703" lat="59.7953444486" lon="5.66056388007">
		<tag k="name" v="Geitaberget" />
		<tag k="natural" v="cape" />
		<tag k="ssr:stedsnr" v="463008" />
	</node>
	<node id="-611750" lat="59.7220750007" lon="5.72845556034">
		<tag k="name" v="Ternholmen" />
		<tag k="place" v="islet" />
		<tag k="ssr:stedsnr" v="367096" />
	</node>
	<node id="-611749" lat="59.7195777799" lon="5.64318610516">
		<tag k="alt_name" v="Nordre Flatholmen" />
		<tag k="name" v="Flatholmen" />
		<tag k="place" v="islet" />
		<tag k="ssr:stedsnr" v="367092" />
	</node>
	<node id="-609700" lat="60.117425004" lon="5.92506389359">
		<tag k="bay" v="fjord" />
		<tag k="name" v="Øynefjorden" />
		<tag k="natural" v="bay" />
		<tag k="ssr:stedsnr" v="430905" />
	</node>
	<node id="-611746" lat="59.7042638891" lon="5.70693334187">
		<tag k="name" v="Gjerdsholmen" />
		<tag k="place" v="islet" />
		<tag k="ssr:stedsnr" v="367061" />
	</node>
	<node id="-611744" lat="59.7292916664" lon="5.77822499895">
		<tag k="name" v="Seglberget" />
		<tag k="natural" v="cape" />
		<tag k="ssr:stedsnr" v="367058" />
	</node>
	<node id="-611743" lat="59.7269111153" lon="5.73542500161">
		<tag k="alt_name" v="Sydnesøya" />
		<tag k="name" v="Sundnesøya" />
		<tag k="place" v="islet" />
		<tag k="ssr:stedsnr" v="367053" />
	</node>
	<node id="-611742" lat="59.7174750001" lon="5.65100556157">
		<tag k="alt_name" v="Sæbøskora" />
		<tag k="name" v="Sæbøskårane" />
		<tag k="natural" v="beach" />
		<tag k="place" v="locality" />
		<tag k="ssr:stedsnr" v="367048" />
	</node>
	<node id="-611739" lat="59.7955249999" lon="5.80054722867">
		<tag k="name" v="Hillestadholmen" />
		<tag k="place" v="islet" />
		<tag k="ssr:stedsnr" v="357325" />
	</node>
	<node id="-609690" lat="59.8073583313" lon="5.70700555982">
		<tag k="alt_name" v="Kobbeskjær" />
		<tag k="fixme" v="consider seamark:type=rock or natural=shoal" />
		<tag k="name" v="Kobbaskjeret" />
		<tag k="place" v="islet" />
		<tag k="ssr:stedsnr" v="429313" />
	</node>
	<node id="-611737" lat="59.7575388872" lon="5.72648889604">
		<tag k="alt_name" v="Fjæreskjærflua" />
		<tag k="name" v="Fjæraskjerflua" />
		<tag k="natural" v="shoal" />
		<tag k="place" v="locality" />
		<tag k="ssr:stedsnr" v="347656" />
	</node>
	<node id="-611736" lat="59.8028472235" lon="5.74187777098">
		<tag k="name" v="Nordre Toftebåen" />
		<tag k="place" v="locality" />
		<tag k="seamark:type" v="rock" />
		<tag k="ssr:stedsnr" v="347538" />
	</node>
	<node id="-611735" lat="59.8102250016" lon="5.65639444888">
		<tag k="name" v="Indre Ranavik" />
		<tag k="natural" v="bay" />
		<tag k="ssr:stedsnr" v="346728" />
	</node>
	<node id="-611726" lat="59.9933111137" lon="5.98188333658">
		<tag k="name" v="Bergspytt" />
		<tag k="natural" v="cape" />
		<tag k="ssr:stedsnr" v="342194" />
	</node>
	<node id="-611719" lat="60.1064388904" lon="6.03610833442">
		<tag k="name" v="Jektevika" />
		<tag k="natural" v="bay" />
		<tag k="ssr:stedsnr" v="341987" />
	</node>
	<node id="-611718" lat="60.1067805544" lon="6.03722778525">
		<tag k="name" v="Jekteviksnes" />
		<tag k="natural" v="cape" />
		<tag k="ssr:stedsnr" v="341985" />
	</node>
	<node id="-610881" lat="60.1207861112" lon="6.05973056039">
		<tag k="name" v="Sildasundet" />
		<tag k="natural" v="strait" />
		<tag k="ssr:stedsnr" v="5881" />
	</node>
	<node id="-610602" lat="60.1149972202" lon="6.19390834113">
		<tag k="name" v="Lauvholeneset" />
		<tag k="natural" v="cape" />
		<tag k="ssr:stedsnr" v="948384" />
	</node>
	<node id="-609666" lat="59.7304527753" lon="5.71810000559">
		<tag k="name" v="Langaneset" />
		<tag k="natural" v="cape" />
		<tag k="ssr:stedsnr" v="428104" />
	</node>
	<node id="-609665" lat="59.9488499985" lon="5.90054723103">
		<tag k="name" v="Kvitebergflua" />
		<tag k="natural" v="shoal" />
		<tag k="place" v="locality" />
		<tag k="ssr:stedsnr" v="510191" />
	</node>
	<node id="-609662" lat="59.9609833362" lon="5.89987776988">
		<tag k="name" v="Kvitaneset" />
		<tag k="natural" v="cape" />
		<tag k="ssr:stedsnr" v="509177" />
	</node>
	<node id="-609661" lat="60.0749867286" lon="6.06706330557">
		<tag k="fixme" v="multiple name tags, choose one and add the other to alt_name" />
		<tag k="name" v="Elvakroa;Svoldalsvika" />
		<tag k="natural" v="bay" />
		<tag k="ssr:stedsnr" v="509042" />
	</node>
	<node id="-609660" lat="60.0780333321" lon="6.06886388586">
		<tag k="name" v="Svoldalsneset" />
		<tag k="natural" v="cape" />
		<tag k="ssr:stedsnr" v="509041" />
	</node>
	<node id="-609659" lat="60.0848277757" lon="5.96931666102">
		<tag k="name" v="Tuneholmen" />
		<tag k="place" v="islet" />
		<tag k="ssr:stedsnr" v="509033" />
	</node>
	<node id="-611704" lat="60.0839694461" lon="5.99190555562">
		<tag k="name" v="Kuneset" />
		<tag k="natural" v="cape" />
		<tag k="ssr:stedsnr" v="341916" />
	</node>
	<node id="-611703" lat="60.0695500026" lon="5.9656694477">
		<tag k="name" v="Hesteviksneset" />
		<tag k="natural" v="cape" />
		<tag k="ssr:stedsnr" v="341913" />
	</node>
	<node id="-611701" lat="60.0420777769" lon="5.91783055185">
		<tag k="name" v="Gjerdsklubben" />
		<tag k="natural" v="cape" />
		<tag k="ssr:stedsnr" v="341881" />
	</node>
	<node id="-609648" lat="60.1310694449" lon="6.30681110382">
		<tag k="name" v="Salbuneset" />
		<tag k="natural" v="cape" />
		<tag k="ssr:stedsnr" v="403260" />
	</node>
	<node id="-609642" lat="59.9195055593" lon="5.78780555267">
		<tag k="name" v="Krofjæra" />
		<tag k="natural" v="beach" />
		<tag k="place" v="locality" />
		<tag k="ssr:stedsnr" v="402956" />
	</node>
	<node id="-611687" lat="59.7881055592" lon="6.10007221334">
		<tag k="name" v="Øyra" />
		<tag k="natural" v="cape" />
		<tag k="ssr:stedsnr" v="341774" />
	</node>
	<node id="-609638" lat="60.1235361111" lon="5.93179166507">
		<tag k="name" v="Hisdalsneset" />
		<tag k="natural" v="cape" />
		<tag k="ssr:stedsnr" v="402805" />
	</node>
	<node id="-608827" lat="60.1076388868" lon="6.13797222664">
		<tag k="name" v="Mortnahola" />
		<tag k="place" v="locality" />
		<tag k="ssr:stedsnr" v="220549" />
	</node>
	<node id="-609628" lat="59.9344166645" lon="5.7937750019">
		<tag k="name" v="Skorpegavlen" />
		<tag k="natural" v="cape" />
		<tag k="ssr:stedsnr" v="388108" />
	</node>
	<node id="-609627" lat="60.1331249997" lon="6.05731667184">
		<tag k="alt_name" v="Grottevikfjæra" />
		<tag k="name" v="Grotvika" />
		<tag k="natural" v="bay" />
		<tag k="ssr:stedsnr" v="388023" />
	</node>
	<node id="-609621" lat="60.1486750025" lon="6.27323333051">
		<tag k="bay" v="fjord" />
		<tag k="name" v="Nordrepollen" />
		<tag k="natural" v="bay" />
		<tag k="ssr:stedsnr" v="368245" />
	</node>
	<node id="-611668" lat="59.9539500028" lon="5.92500833358">
		<tag k="name" v="Gilja" />
		<tag k="natural" v="cape" />
		<tag k="ssr:stedsnr" v="341602" />
	</node>
	<node id="-611667" lat="59.7527277748" lon="6.01991667476">
		<tag k="name" v="Hauganeset" />
		<tag k="natural" v="cape" />
		<tag k="ssr:stedsnr" v="341591" />
	</node>
	<node id="-610929" lat="60.1032027775" lon="6.20087499676">
		<tag k="name" v="Tveitnesvika" />
		<tag k="natural" v="bay" />
		<tag k="ssr:stedsnr" v="38423" />
	</node>
	<node id="-611657" lat="60.1136250045" lon="6.17452222266">
		<tag k="fixme" v="consider seamark:type=rock or natural=shoal" />
		<tag k="name" v="Hundasvoskjeret" />
		<tag k="place" v="islet" />
		<tag k="ssr:stedsnr" v="341379" />
	</node>
	<node id="-611653" lat="60.1183527795" lon="6.26398332636">
		<tag k="name" v="Flåtavika" />
		<tag k="natural" v="bay" />
		<tag k="ssr:stedsnr" v="341356" />
	</node>
	<node id="-611647" lat="59.8490388879" lon="5.68409444283">
		<tag k="name" v="Kretevika" />
		<tag k="natural" v="bay" />
		<tag k="ssr:stedsnr" v="341296" />
	</node>
	<node id="-611633" lat="59.7907916666" lon="5.71832500371">
		<tag k="name" v="Klubben" />
		<tag k="natural" v="cape" />
		<tag k="ssr:stedsnr" v="341052" />
	</node>
	<node id="-611632" lat="59.7049333322" lon="5.72721724768">
		<tag k="name" v="Mælen" />
		<tag k="natural" v="cape" />
		<tag k="ssr:stedsnr" v="341041" />
	</node>
	<node id="-611631" lat="59.7545333336" lon="5.84168055477">
		<tag k="name" v="Skotaholmen" />
		<tag k="place" v="island" />
		<tag k="ssr:stedsnr" v="341024" />
	</node>
	<node id="-611630" lat="59.801644445" lon="5.68586944134">
		<tag k="name" v="Aslakberget" />
		<tag k="natural" v="cape" />
		<tag k="ssr:stedsnr" v="341017" />
	</node>
	<node id="-611629" lat="59.7350305568" lon="5.69492778331">
		<tag k="alt_name" v="Vikaneset" />
		<tag k="name" v="Vikeneset" />
		<tag k="natural" v="cape" />
		<tag k="ssr:stedsnr" v="341013" />
	</node>
	<node id="-609580" lat="60.1627638846" lon="5.99877222436">
		<tag k="name" v="Båtvika" />
		<tag k="natural" v="bay" />
		<tag k="ssr:stedsnr" v="489597" />
	</node>
	<node id="-611627" lat="59.8039472234" lon="5.66891944253">
		<tag k="name" v="Jektahavn" />
		<tag k="natural" v="bay" />
		<tag k="ssr:stedsnr" v="341008" />
	</node>
	<node id="-611626" lat="59.8049209868" lon="5.6607214203">
		<tag k="name" v="Klostervågen" />
		<tag k="natural" v="bay" />
		<tag k="ssr:stedsnr" v="341007" />
	</node>
	<node id="-611625" lat="59.8032277765" lon="5.70657222742">
		<tag k="name" v="Skjeljavika" />
		<tag k="natural" v="bay" />
		<tag k="ssr:stedsnr" v="341003" />
	</node>
	<node id="-611624" lat="59.7824583288" lon="5.68156110773">
		<tag k="fixme" v="consider seamark:type=rock or natural=shoal" />
		<tag k="name" v="Sætersskjera" />
		<tag k="place" v="islet" />
		<tag k="ssr:stedsnr" v="341001" />
	</node>
	<node id="-611623" lat="59.8869666695" lon="5.77018889399">
		<tag k="name" v="Grønevika" />
		<tag k="natural" v="bay" />
		<tag k="ssr:stedsnr" v="340914" />
	</node>
	<node id="-611622" lat="59.8891472233" lon="5.76875556208">
		<tag k="name" v="Løvika" />
		<tag k="natural" v="bay" />
		<tag k="ssr:stedsnr" v="340912" />
	</node>
	<node id="-609571" lat="59.7624777808" lon="5.73394722225">
		<tag k="alt_name" v="Arnavikneset" />
		<tag k="name" v="Ådnavikneset" />
		<tag k="natural" v="cape" />
		<tag k="ssr:stedsnr" v="489422" />
	</node>
	<node id="-609570" lat="59.7948166624" lon="5.69424445038">
		<tag k="name" v="Eidsvika" />
		<tag k="natural" v="bay" />
		<tag k="ssr:stedsnr" v="489413" />
	</node>
	<node id="-611615" lat="59.85425278" lon="5.96942776881">
		<tag k="name" v="Vårstølsneset" />
		<tag k="natural" v="cape" />
		<tag k="ssr:stedsnr" v="340569" />
	</node>
	<node id="-609566" lat="59.823888888" lon="5.7814944494">
		<tag k="alt_name" v="Valøya, yt;Ytre Valeøya" />
		<tag k="name" v="Ytre Valøya" />
		<tag k="place" v="islet" />
		<tag k="ssr:stedsnr" v="489379" />
	</node>
	<node id="-610181" lat="60.1306888909" lon="6.31329722603">
		<tag k="name" v="Bussevika" />
		<tag k="natural" v="bay" />
		<tag k="ssr:stedsnr" v="733181" />
	</node>
	<node id="-611611" lat="59.9820527821" lon="5.82119445029">
		<tag k="name" v="Steinaneset" />
		<tag k="natural" v="cape" />
		<tag k="ssr:stedsnr" v="328133" />
	</node>
	<node id="-611610" lat="59.9463472221" lon="5.89080277077">
		<tag k="alt_name" v="Holgerneset" />
		<tag k="name" v="Rødsneset" />
		<tag k="natural" v="cape" />
		<tag k="ssr:stedsnr" v="327189" />
	</node>
	<node id="-611609" lat="59.9589055576" lon="5.88344443748">
		<tag k="name" v="Fiskeneset" />
		<tag k="natural" v="cape" />
		<tag k="ssr:stedsnr" v="327187" />
	</node>
	<node id="-609560" lat="59.821022223" lon="5.7981194477">
		<tag k="alt_name" v="Valevågen, s" />
		<tag k="name" v="Søre Valevågen" />
		<tag k="natural" v="bay" />
		<tag k="ssr:stedsnr" v="489361" />
	</node>
	<node id="-608812" lat="60.1210861138" lon="6.2753972157">
		<tag k="name" v="Sandvika" />
		<tag k="natural" v="bay" />
		<tag k="ssr:stedsnr" v="220386" />
	</node>
	<node id="-609531" lat="59.6972499998" lon="5.63490000739">
		<tag k="bay" v="fjord" />
		<tag k="name" v="Bjoafjorden" />
		<tag k="natural" v="bay" />
		<tag k="ssr:stedsnr" v="489049" />
	</node>
	<node id="-609151" lat="60.0006249962" lon="5.86656389334">
		<tag k="name" v="Støaneset" />
		<tag k="natural" v="cape" />
		<tag k="ssr:stedsnr" v="268149" />
	</node>
	<node id="-611574" lat="60.1598805532" lon="5.98616388328">
		<tag k="alt_name" v="Vågen" />
		<tag k="name" v="Øyarhamnsvågen" />
		<tag k="natural" v="bay" />
		<tag k="ssr:stedsnr" v="308540" />
	</node>
	<node id="-612222" lat="60.071375004" lon="5.91466666276">
		<tag k="name" v="Veravågen" />
		<tag k="natural" v="bay" />
		<tag k="ssr:stedsnr" v="550967" />
	</node>
	<node id="-611539" lat="59.7781944444" lon="5.73134166707">
		<tag k="name" v="Skjeljavika" />
		<tag k="natural" v="bay" />
		<tag k="ssr:stedsnr" v="307431" />
	</node>
	<node id="-609520" lat="59.7317305574" lon="5.69462499626">
		<tag k="alt_name" v="Dalevik" />
		<tag k="name" v="Dalavika" />
		<tag k="natural" v="bay" />
		<tag k="ssr:stedsnr" v="488091" />
	</node>
	<node id="-610173" lat="59.7368555594" lon="5.70008610977">
		<tag k="name" v="Parisneset" />
		<tag k="natural" v="cape" />
		<tag k="ssr:stedsnr" v="644011" />
	</node>
	<node id="-609516" lat="59.7989694489" lon="5.77815833864">
		<tag k="name" v="Langanesgrunnen" />
		<tag k="natural" v="shoal" />
		<tag k="place" v="locality" />
		<tag k="ssr:stedsnr" v="347723" />
	</node>
	<node id="-609510" lat="60.0945972252" lon="6.12344722852">
		<tag k="name" v="Apalevika" />
		<tag k="natural" v="bay" />
		<tag k="ssr:stedsnr" v="341550" />
	</node>
	<node id="-611551" lat="59.994119442" lon="5.81748610927">
		<tag k="alt_name" v="Skiftesneset" />
		<tag k="name" v="Skifteneset" />
		<tag k="natural" v="cape" />
		<tag k="ssr:stedsnr" v="307690" />
	</node>
	<node id="-611546" lat="59.9921999995" lon="5.98505833257">
		<tag k="name" v="Arnavika" />
		<tag k="natural" v="bay" />
		<tag k="ssr:stedsnr" v="307484" />
	</node>
	<node id="-611545" lat="59.9915416661" lon="5.94355832561">
		<tag k="name" v="Lyraneset" />
		<tag k="natural" v="cape" />
		<tag k="ssr:stedsnr" v="307464" />
	</node>
	<node id="-611544" lat="59.980402777" lon="6.00965555851">
		<tag k="name" v="Malmangersvika" />
		<tag k="natural" v="bay" />
		<tag k="ssr:stedsnr" v="307461" />
	</node>
	<node id="-609491" lat="59.9554250005" lon="5.91822499107">
		<tag k="alt_name" v="Josnes" />
		<tag k="name" v="Ljosneset" />
		<tag k="natural" v="cape" />
		<tag k="ssr:stedsnr" v="307013" />
	</node>
	<node id="-609488" lat="59.8048277784" lon="5.78956111704">
		<tag k="name" v="Fossaflua" />
		<tag k="natural" v="shoal" />
		<tag k="place" v="locality" />
		<tag k="ssr:stedsnr" v="469592" />
	</node>
	<node id="-609486" lat="59.7837888908" lon="5.7117388942">
		<tag k="name" v="Sjoholmane" />
		<tag k="place" v="islet" />
		<tag k="ssr:stedsnr" v="468757" />
	</node>
	<node id="-611530" lat="59.8222416711" lon="5.6731250008">
		<tag k="alt_name" v="Klubbholmen, l" />
		<tag k="fixme" v="multiple name tags, choose one and add the other to alt_name" />
		<tag k="name" v="Vetleklubbholmen;Litle Klubbholmen" />
		<tag k="place" v="islet" />
		<tag k="ssr:stedsnr" v="307373" />
	</node>
	<node id="-611529" lat="59.824211111" lon="5.78851389431">
		<tag k="alt_name" v="Valøya, in;Indre Valeøya" />
		<tag k="name" v="Indre Valøya" />
		<tag k="natural" v="cape" />
		<tag k="ssr:stedsnr" v="307370" />
	</node>
	<node id="-609477" lat="60.1159222239" lon="5.9363166702">
		<tag k="name" v="Stemmevågen" />
		<tag k="natural" v="bay" />
		<tag k="ssr:stedsnr" v="463938" />
	</node>
	<node id="-609472" lat="59.8673166674" lon="5.75183055262">
		<tag k="name" v="Bogsnesvågen" />
		<tag k="natural" v="bay" />
		<tag k="ssr:stedsnr" v="463931" />
	</node>
	<node id="-611519" lat="59.7815111117" lon="5.90182499994">
		<tag k="name" v="Eikenes" />
		<tag k="natural" v="cape" />
		<tag k="ssr:stedsnr" v="307324" />
	</node>
	<node id="-608823" lat="60.1033249966" lon="6.17613889397">
		<tag k="name" v="Knappahola" />
		<tag k="natural" v="bay" />
		<tag k="ssr:stedsnr" v="220459" />
	</node>
	<node id="-609914" lat="60.1162916676" lon="6.26870276888">
		<tag k="name" v="Kvernaholmen" />
		<tag k="place" v="islet" />
		<tag k="ssr:stedsnr" v="705374" />
	</node>
	<node id="-610847" lat="59.7700972193" lon="6.08721944597">
		<tag k="alt_name" v="Hillernes" />
		<tag k="name" v="Hilleneset" />
		<tag k="natural" v="cape" />
		<tag k="ssr:stedsnr" v="4344" />
	</node>
	<node id="-609461" lat="60.0096694451" lon="5.80946666045">
		<tag k="name" v="Åsavik" />
		<tag k="natural" v="bay" />
		<tag k="ssr:stedsnr" v="463798" />
	</node>
	<node id="-608798" lat="59.7520694474" lon="5.83149722226">
		<tag k="fixme" v="consider seamark:type=rock or natural=shoal" />
		<tag k="name" v="Bukkaskjeret" />
		<tag k="place" v="islet" />
		<tag k="ssr:stedsnr" v="220025" />
	</node>
	<node id="-611496" lat="60.122988889" lon="6.28181944166">
		<tag k="name" v="Helleneset" />
		<tag k="natural" v="cape" />
		<tag k="ssr:stedsnr" v="307182" />
	</node>
	<node id="-611490" lat="59.7116305537" lon="5.72335554794">
		<tag k="alt_name" v="Træsneset" />
		<tag k="name" v="Træneset" />
		<tag k="natural" v="cape" />
		<tag k="ssr:stedsnr" v="307074" />
	</node>
	<node id="-611481" lat="59.786555554" lon="5.60256944596">
		<tag k="name" v="Hilleøyane" />
		<tag k="place" v="island" />
		<tag k="ssr:stedsnr" v="207839" />
	</node>
	<node id="-609432" lat="59.7903111129" lon="5.7708027793">
		<tag k="name" v="Gravdalsvågen" />
		<tag k="natural" v="bay" />
		<tag k="ssr:stedsnr" v="462898" />
	</node>
	<node id="-611477" lat="60.0015277745" lon="5.98166667281">
		<tag k="name" v="Kassatå" />
		<tag k="natural" v="cape" />
		<tag k="ssr:stedsnr" v="206110" />
	</node>
	<node id="-611476" lat="60.0829361156" lon="5.92206111221">
		<tag k="name" v="Grønevikneset" />
		<tag k="natural" v="cape" />
		<tag k="ssr:stedsnr" v="206081" />
	</node>
	<node id="-610499" lat="60.081158336" lon="5.99454167025">
		<tag k="alt_name" v="Kolbrandsklubben" />
		<tag k="name" v="Kolbrandsneset" />
		<tag k="natural" v="cape" />
		<tag k="ssr:stedsnr" v="915948" />
	</node>
	<node id="-611471" lat="60.0661944475" lon="6.03776944082">
		<tag k="name" v="Vardaneset" />
		<tag k="natural" v="cape" />
		<tag k="ssr:stedsnr" v="188659" />
	</node>
	<node id="-609422" lat="59.8151805546" lon="5.67208334231">
		<tag k="name" v="Ikorntåa" />
		<tag k="natural" v="cape" />
		<tag k="ssr:stedsnr" v="286555" />
	</node>
	<node id="-609421" lat="60.0413472179" lon="5.91649999186">
		<tag k="name" v="Leirhola" />
		<tag k="natural" v="bay" />
		<tag k="ssr:stedsnr" v="462854" />
	</node>
	<node id="-611467" lat="60.0689499977" lon="5.97530277225">
		<tag k="alt_name" v="Låtreviksklubben" />
		<tag k="name" v="Låtrevikklubben" />
		<tag k="natural" v="cape" />
		<tag k="ssr:stedsnr" v="187949" />
	</node>
	<node id="-609418" lat="60.120416667" lon="6.2136555525">
		<tag k="name" v="Eikeneslandet" />
		<tag k="natural" v="beach" />
		<tag k="place" v="locality" />
		<tag k="ssr:stedsnr" v="286412" />
	</node>
	<node id="-611465" lat="60.0638277754" lon="5.91860832981">
		<tag k="alt_name" v="Boglandsvågen;Vågen" />
		<tag k="name" v="Bolandsvågen" />
		<tag k="natural" v="bay" />
		<tag k="ssr:stedsnr" v="187940" />
	</node>
	<node id="-609416" lat="59.7743083358" lon="5.83069166098">
		<tag k="name" v="Hammaren" />
		<tag k="natural" v="cape" />
		<tag k="ssr:stedsnr" v="462823" />
	</node>
	<node id="-611461" lat="60.0082749972" lon="5.72434166889">
		<tag k="alt_name" v="Gjerdsheimholmane" />
		<tag k="name" v="Gjersheimsholmane" />
		<tag k="place" v="islet" />
		<tag k="ssr:stedsnr" v="187677" />
	</node>
	<node id="-611459" lat="60.006102146" lon="5.80857868604">
		<tag k="name" v="Ølvesvika" />
		<tag k="natural" v="bay" />
		<tag k="ssr:stedsnr" v="187665" />
	</node>
	<node id="-611456" lat="60.1339777742" lon="6.28188333339">
		<tag k="alt_name" v="Stonganeset" />
		<tag k="name" v="Stanganeset" />
		<tag k="natural" v="cape" />
		<tag k="ssr:stedsnr" v="187190" />
	</node>
	<node id="-609407" lat="59.7611611099" lon="6.07437222194">
		<tag k="name" v="Instavika" />
		<tag k="natural" v="bay" />
		<tag k="ssr:stedsnr" v="462656" />
	</node>
	<node id="-610154" lat="59.7585388869" lon="5.71481111836">
		<tag k="alt_name" v="Rosnesholmen" />
		<tag k="name" v="Rossnesholmen" />
		<tag k="place" v="islet" />
		<tag k="ssr:stedsnr" v="732426" />
	</node>
	<node id="-611450" lat="60.1121250021" lon="6.07191665941">
		<tag k="alt_name" v="Kobbaskjeret" />
		<tag k="fixme" v="consider seamark:type=rock or natural=shoal" />
		<tag k="name" v="Kobbeskjeret" />
		<tag k="place" v="islet" />
		<tag k="ssr:stedsnr" v="186918" />
	</node>
	<node id="-611447" lat="59.923116668" lon="5.78376666621">
		<tag k="alt_name" v="Herøyna" />
		<tag k="name" v="Herøy" />
		<tag k="place" v="island" />
		<tag k="ssr:stedsnr" v="186718" />
	</node>
	<node id="-609398" lat="59.8314111123" lon="5.98601111575">
		<tag k="name" v="Skredvika" />
		<tag k="natural" v="bay" />
		<tag k="ssr:stedsnr" v="462583" />
	</node>
	<node id="-610153" lat="59.7995888885" lon="5.74754444082">
		<tag k="name" v="Toftøya" />
		<tag k="place" v="island" />
		<tag k="ssr:stedsnr" v="732424" />
	</node>
	<node id="-611444" lat="60.1623277787" lon="6.02625000658">
		<tag k="name" v="Ospevikane" />
		<tag k="natural" v="bay" />
		<tag k="ssr:stedsnr" v="186615" />
	</node>
	<node id="-611442" lat="59.9705750023" lon="5.96019166741">
		<tag k="name" v="Brakaneset" />
		<tag k="natural" v="cape" />
		<tag k="ssr:stedsnr" v="186543" />
	</node>
	<node id="-608787" lat="59.7860444452" lon="5.80331666921">
		<tag k="name" v="Sirihola" />
		<tag k="natural" v="cape" />
		<tag k="ssr:stedsnr" v="220062" />
	</node>
	<node id="-611439" lat="59.964413892" lon="5.94236944116">
		<tag k="name" v="Kvalen" />
		<tag k="natural" v="cape" />
		<tag k="ssr:stedsnr" v="186525" />
	</node>
	<node id="-609390" lat="59.8532416653" lon="6.00949443968">
		<tag k="name" v="Dranes" />
		<tag k="natural" v="cape" />
		<tag k="ssr:stedsnr" v="462538" />
	</node>
	<node id="-610493" lat="60.116263893" lon="6.15252499329">
		<tag k="alt_name" v="Kobbevika" />
		<tag k="name" v="Kobbavika" />
		<tag k="natural" v="bay" />
		<tag k="ssr:stedsnr" v="915896" />
	</node>
	<node id="-609388" lat="59.7949305566" lon="5.95954999655">
		<tag k="name" v="Havnaneset" />
		<tag k="natural" v="cape" />
		<tag k="ssr:stedsnr" v="462530" />
	</node>
	<node id="-611432" lat="59.7995805545" lon="5.73959166542">
		<tag k="alt_name" v="Buneset" />
		<tag k="name" v="Bunes" />
		<tag k="natural" v="cape" />
		<tag k="ssr:stedsnr" v="186444" />
	</node>
	<node id="-611430" lat="59.8220944487" lon="5.66057499565">
		<tag k="alt_name" v="Svinøya, store" />
		<tag k="name" v="Store Svinøya" />
		<tag k="place" v="islet" />
		<tag k="ssr:stedsnr" v="186392" />
	</node>
	<node id="-611427" lat="59.8083833372" lon="5.62899721716">
		<tag k="name" v="Ungholm" />
		<tag k="place" v="islet" />
		<tag k="ssr:stedsnr" v="186369" />
	</node>
	<node id="-609377" lat="59.7897361123" lon="5.60632777106">
		<tag k="fixme" v="consider seamark:type=rock or natural=shoal" />
		<tag k="name" v="Skarvaskjeret" />
		<tag k="place" v="islet" />
		<tag k="ssr:stedsnr" v="450840" />
	</node>
	<node id="-611424" lat="59.780500001" lon="6.11395556333">
		<tag k="name" v="Vågsneset" />
		<tag k="natural" v="cape" />
		<tag k="ssr:stedsnr" v="186357" />
	</node>
	<node id="-609375" lat="60.1288138908" lon="5.98929167167">
		<tag k="name" v="Varaldsøy" />
		<tag k="place" v="island" />
		<tag k="ssr:stedsnr" v="247868" />
	</node>
	<node id="-609371" lat="60.0886500029" lon="5.96599444582">
		<tag k="alt_name" v="Bygdavika" />
		<tag k="name" v="Bygdavågen" />
		<tag k="natural" v="bay" />
		<tag k="ssr:stedsnr" v="247931" />
	</node>
	<node id="-611414" lat="59.7934111155" lon="5.9582305602">
		<tag k="name" v="Storaskjer" />
		<tag k="place" v="islet" />
		<tag k="ssr:stedsnr" v="186296" />
	</node>
	<node id="-609365" lat="59.8520222235" lon="5.6765277804">
		<tag k="alt_name" v="Åskesholmen" />
		<tag k="name" v="Åsgardsholmen" />
		<tag k="place" v="islet" />
		<tag k="ssr:stedsnr" v="247261" />
	</node>
	<node id="-611409" lat="59.8463305593" lon="5.69399165822">
		<tag k="name" v="Åsgardsvika" />
		<tag k="natural" v="bay" />
		<tag k="ssr:stedsnr" v="186282" />
	</node>
	<node id="-609360" lat="59.9952416706" lon="5.9504305618">
		<tag k="name" v="Kalvtangen" />
		<tag k="natural" v="cape" />
		<tag k="ssr:stedsnr" v="246418" />
	</node>
	<node id="-609357" lat="59.804472222" lon="5.95728889067">
		<tag k="alt_name" v="Matrefjorden" />
		<tag k="bay" v="fjord" />
		<tag k="name" v="Matersfjorden" />
		<tag k="natural" v="bay" />
		<tag k="ssr:stedsnr" v="246228" />
	</node>
	<node id="-609355" lat="59.7161138884" lon="5.69073333217">
		<tag k="name" v="Bøvika" />
		<tag k="natural" v="bay" />
		<tag k="ssr:stedsnr" v="246069" />
	</node>
	<node id="-609347" lat="59.8001277743" lon="5.97023333724">
		<tag k="name" v="Mjelkevika" />
		<tag k="natural" v="bay" />
		<tag k="ssr:stedsnr" v="220573" />
	</node>
	<node id="-609344" lat="59.7531416639" lon="5.70589721504">
		<tag k="alt_name" v="Slåttholmen" />
		<tag k="name" v="Slåtteholmen" />
		<tag k="place" v="islet" />
		<tag k="ssr:stedsnr" v="220056" />
	</node>
	<node id="-609343" lat="59.7549305515" lon="5.74647777427">
		<tag k="name" v="Kvernaneset" />
		<tag k="natural" v="cape" />
		<tag k="ssr:stedsnr" v="220053" />
	</node>
	<node id="-609339" lat="60.0743815179" lon="5.96757447816">
		<tag k="name" v="Kyrholen" />
		<tag k="place" v="islet" />
		<tag k="ssr:stedsnr" v="210848" />
	</node>
	<node id="-609334" lat="59.7316250019" lon="5.71228611301">
		<tag k="name" v="Kyrkjeholmen" />
		<tag k="place" v="islet" />
		<tag k="ssr:stedsnr" v="185116" />
	</node>
	<node id="-609333" lat="59.7208500034" lon="5.70827500449">
		<tag k="alt_name" v="Hamarslandsvågen" />
		<tag k="name" v="Hammarslandvågen" />
		<tag k="natural" v="bay" />
		<tag k="ssr:stedsnr" v="185113" />
	</node>
	<node id="-609329" lat="59.7110805555" lon="5.68908611661">
		<tag k="name" v="Kapholmen" />
		<tag k="place" v="islet" />
		<tag k="ssr:stedsnr" v="287687" />
	</node>
	<node id="-609328" lat="59.8266333372" lon="5.7698805511">
		<tag k="name" v="Galtagrunnen" />
		<tag k="natural" v="shoal" />
		<tag k="place" v="locality" />
		<tag k="ssr:stedsnr" v="287599" />
	</node>
	<node id="-611375" lat="59.7793999987" lon="5.71238333274">
		<tag k="name" v="Jetmundsholmen" />
		<tag k="place" v="islet" />
		<tag k="ssr:stedsnr" v="185393" />
	</node>
	<node id="-611371" lat="59.9022722215" lon="5.7665888964">
		<tag k="name" v="Slottet" />
		<tag k="natural" v="cape" />
		<tag k="ssr:stedsnr" v="185262" />
	</node>
	<node id="-609319" lat="60.104430559" lon="5.94391666492">
		<tag k="name" v="Sagvika" />
		<tag k="natural" v="bay" />
		<tag k="ssr:stedsnr" v="281981" />
	</node>
	<node id="-609311" lat="60.08841667" lon="5.97226388759">
		<tag k="name" v="Apalneset" />
		<tag k="natural" v="cape" />
		<tag k="ssr:stedsnr" v="281933" />
	</node>
	<node id="-611358" lat="59.7687777761" lon="6.0849361037">
		<tag k="name" v="Djupvik" />
		<tag k="natural" v="bay" />
		<tag k="ssr:stedsnr" v="165898" />
	</node>
	<node id="-611357" lat="59.8325916674" lon="5.7655000032">
		<tag k="name" v="Sandervik" />
		<tag k="natural" v="bay" />
		<tag k="ssr:stedsnr" v="165569" />
	</node>
	<node id="-611353" lat="60.1282166641" lon="6.30482778056">
		<tag k="fixme" v="consider seamark:type=rock or natural=shoal" />
		<tag k="name" v="Flateskjeret" />
		<tag k="place" v="islet" />
		<tag k="ssr:stedsnr" v="160238" />
	</node>
	<node id="-610137" lat="59.8006777803" lon="5.97209999142">
		<tag k="alt_name" v="Øyjordsneset" />
		<tag k="name" v="Øyersneset" />
		<tag k="natural" v="cape" />
		<tag k="ssr:stedsnr" v="732269" />
	</node>
	<node id="-610478" lat="60.1413499985" lon="6.05948056334">
		<tag k="name" v="Kvernasletta" />
		<tag k="natural" v="beach" />
		<tag k="place" v="locality" />
		<tag k="ssr:stedsnr" v="915568" />
	</node>
	<node id="-609298" lat="60.0001777422" lon="5.80035331579">
		<tag k="fixme" v="consider seamark:type=rock or natural=shoal" />
		<tag k="name" v="Tråvikskjer" />
		<tag k="place" v="islet" />
		<tag k="ssr:stedsnr" v="281827" />
	</node>
	<node id="-609795" lat="59.9924099269" lon="5.81946467411">
		<tag k="alt_name" v="Selvåg, store;Stora Selvåg;Selvåg, s" />
		<tag k="name" v="Store Selvågen" />
		<tag k="natural" v="bay" />
		<tag k="ssr:stedsnr" v="671684" />
	</node>
	<node id="-609296" lat="60.1175054488" lon="6.06864015343">
		<tag k="name" v="Hamnaneset" />
		<tag k="natural" v="cape" />
		<tag k="ssr:stedsnr" v="281769" />
	</node>
	<node id="-609285" lat="59.7797361138" lon="5.96354167434">
		<tag k="alt_name" v="Auensneset" />
		<tag k="name" v="Øyvindsnes" />
		<tag k="natural" v="cape" />
		<tag k="ssr:stedsnr" v="281580" />
	</node>
	<node id="-609283" lat="60.0937611083" lon="6.14307500646">
		<tag k="name" v="Hegjeholmen" />
		<tag k="place" v="islet" />
		<tag k="ssr:stedsnr" v="281507" />
	</node>
	<node id="-611327" lat="60.115522226" lon="6.07443332792">
		<tag k="name" v="Austrevåg" />
		<tag k="natural" v="bay" />
		<tag k="ssr:stedsnr" v="159784" />
	</node>
	<node id="-611324" lat="59.9478027734" lon="5.84400277321">
		<tag k="name" v="Eidet" />
		<tag k="place" v="locality" />
		<tag k="ssr:stedsnr" v="159595" />
	</node>
	<node id="-611323" lat="59.9646111077" lon="5.88187500519">
		<tag k="name" v="Salthella" />
		<tag k="natural" v="cape" />
		<tag k="ssr:stedsnr" v="159937" />
	</node>
	<node id="-609269" lat="60.1616944469" lon="6.2754750056">
		<tag k="name" v="Grønevika" />
		<tag k="natural" v="bay" />
		<tag k="ssr:stedsnr" v="281362" />
	</node>
	<node id="-609268" lat="60.1639305559" lon="6.27900832487">
		<tag k="name" v="Syngjelsanden" />
		<tag k="natural" v="beach" />
		<tag k="place" v="locality" />
		<tag k="ssr:stedsnr" v="281361" />
	</node>
	<node id="-611313" lat="60.1075106615" lon="6.13682327935">
		<tag k="name" v="Gapandehamn" />
		<tag k="natural" v="bay" />
		<tag k="ssr:stedsnr" v="159549" />
	</node>
	<node id="-611312" lat="59.9407638863" lon="5.83106665823">
		<tag k="name" v="Troppa" />
		<tag k="natural" v="cape" />
		<tag k="ssr:stedsnr" v="159587" />
	</node>
	<node id="-609263" lat="59.8332222189" lon="5.69174444086">
		<tag k="name" v="Bjellandsneset" />
		<tag k="natural" v="cape" />
		<tag k="ssr:stedsnr" v="281296" />
	</node>
	<node id="-610092" lat="59.8173499993" lon="5.75387778457">
		<tag k="alt_name" v="Lauvøya, store;Store Lauvøy" />
		<tag k="name" v="Store Lauvøya" />
		<tag k="place" v="island" />
		<tag k="ssr:stedsnr" v="610390" />
	</node>
	<node id="-611302" lat="60.1189499972" lon="6.26697499553">
		<tag k="name" v="Osaholmen" />
		<tag k="place" v="islet" />
		<tag k="ssr:stedsnr" v="159348" />
	</node>
	<node id="-611301" lat="59.8500166648" lon="5.67901943854">
		<tag k="name" v="Storavika" />
		<tag k="natural" v="bay" />
		<tag k="ssr:stedsnr" v="159289" />
	</node>
	<node id="-609250" lat="59.7156500045" lon="5.69138610976">
		<tag k="name" v="Øvrabøvika" />
		<tag k="natural" v="bay" />
		<tag k="ssr:stedsnr" v="281043" />
	</node>
	<node id="-609249" lat="59.711797221" lon="5.68695000296">
		<tag k="name" v="Nautanes" />
		<tag k="natural" v="cape" />
		<tag k="ssr:stedsnr" v="281042" />
	</node>
	<node id="-611296" lat="59.7151777803" lon="5.69936945289">
		<tag k="name" v="Træsklubben" />
		<tag k="natural" v="cape" />
		<tag k="ssr:stedsnr" v="159048" />
	</node>
	<node id="-611295" lat="59.7552416665" lon="5.70100832545">
		<tag k="name" v="Kvernaneset" />
		<tag k="natural" v="cape" />
		<tag k="ssr:stedsnr" v="159046" />
	</node>
	<node id="-611294" lat="59.7607777787" lon="5.79048332651">
		<tag k="name" v="Sjoangevågen" />
		<tag k="natural" v="bay" />
		<tag k="ssr:stedsnr" v="159034" />
	</node>
	<node id="-611293" lat="59.7780999993" lon="5.74171111686">
		<tag k="name" v="Sauaneset" />
		<tag k="natural" v="cape" />
		<tag k="ssr:stedsnr" v="159029" />
	</node>
	<node id="-609244" lat="59.8122694466" lon="5.6812083279">
		<tag k="name" v="Sandsund" />
		<tag k="natural" v="strait" />
		<tag k="ssr:stedsnr" v="281020" />
	</node>
	<node id="-609243" lat="59.7593083363" lon="5.84188056197">
		<tag k="name" v="Kringlevika" />
		<tag k="natural" v="bay" />
		<tag k="ssr:stedsnr" v="281012" />
	</node>
	<node id="-609242" lat="59.8016083323" lon="5.63745000707">
		<tag k="name" v="Indersvika" />
		<tag k="natural" v="bay" />
		<tag k="ssr:stedsnr" v="281005" />
	</node>
	<node id="-611289" lat="59.7692277742" lon="5.83890832703">
		<tag k="alt_name" v="Halvfjeringsneset" />
		<tag k="name" v="Halvfjoringsneset" />
		<tag k="natural" v="cape" />
		<tag k="ssr:stedsnr" v="158896" />
	</node>
	<node id="-609240" lat="59.8084333365" lon="5.66476944706">
		<tag k="name" v="Klubbholmsund" />
		<tag k="natural" v="strait" />
		<tag k="ssr:stedsnr" v="281002" />
	</node>
	<node id="-609239" lat="59.8706638929" lon="5.73488333018">
		<tag k="name" v="Eidet" />
		<tag k="place" v="locality" />
		<tag k="ssr:stedsnr" v="280923" />
	</node>
	<node id="-609237" lat="59.8649361097" lon="5.74004166243">
		<tag k="name" v="Korggardsvika" />
		<tag k="natural" v="bay" />
		<tag k="ssr:stedsnr" v="280921" />
	</node>
	<node id="-611283" lat="60.0708750011" lon="5.97699443931">
		<tag k="name" v="Låtrevika" />
		<tag k="natural" v="bay" />
		<tag k="ssr:stedsnr" v="126956" />
	</node>
	<node id="-609233" lat="59.7899944467" lon="5.82657499341">
		<tag k="name" v="Storvika" />
		<tag k="natural" v="bay" />
		<tag k="ssr:stedsnr" v="280883" />
	</node>
	<node id="-611280" lat="60.0848972211" lon="6.09404721941">
		<tag k="name" v="Sandvika" />
		<tag k="natural" v="bay" />
		<tag k="ssr:stedsnr" v="126937" />
	</node>
	<node id="-609230" lat="60.0398222247" lon="5.91265555535">
		<tag k="name" v="Hjortåsvågen" />
		<tag k="natural" v="bay" />
		<tag k="ssr:stedsnr" v="280855" />
	</node>
	<node id="-611277" lat="60.1166805587" lon="6.07282499285">
		<tag k="name" v="Sild" />
		<tag k="place" v="island" />
		<tag k="ssr:stedsnr" v="126888" />
	</node>
	<node id="-611276" lat="60.0098055518" lon="5.81818333312">
		<tag k="name" v="Korshamn" />
		<tag k="natural" v="bay" />
		<tag k="ssr:stedsnr" v="126679" />
	</node>
	<node id="-609442" lat="60.1036111121" lon="6.18250277532">
		<tag k="name" v="Naustvika" />
		<tag k="natural" v="bay" />
		<tag k="ssr:stedsnr" v="463379" />
	</node>
	<node id="-610449" lat="59.7974250005" lon="5.64610278214">
		<tag k="alt_name" v="Skarvastein" />
		<tag k="name" v="Skarvsteinen" />
		<tag k="natural" v="cape" />
		<tag k="ssr:stedsnr" v="914402" />
	</node>
	<node id="-611264" lat="60.0983416696" lon="6.0228111041">
		<tag k="alt_name" v="Knarreviksneset" />
		<tag k="name" v="Knarrevikneset" />
		<tag k="natural" v="cape" />
		<tag k="ssr:stedsnr" v="125943" />
	</node>
	<node id="-611263" lat="60.1085555551" lon="6.03803055545">
		<tag k="alt_name" v="Nautaneset" />
		<tag k="name" v="Nautanes" />
		<tag k="natural" v="cape" />
		<tag k="ssr:stedsnr" v="125922" />
	</node>
	<node id="-609211" lat="59.7400694431" lon="5.69107777279">
		<tag k="name" v="Rongedalsvik" />
		<tag k="natural" v="bay" />
		<tag k="ssr:stedsnr" v="165664" />
	</node>
	<node id="-611258" lat="59.950436115" lon="5.87453056232">
		<tag k="name" v="Storsundet" />
		<tag k="natural" v="strait" />
		<tag k="ssr:stedsnr" v="125761" />
	</node>
	<node id="-609209" lat="59.934863892" lon="5.86167221457">
		<tag k="name" v="Neset" />
		<tag k="natural" v="cape" />
		<tag k="ssr:stedsnr" v="165406" />
	</node>
	<node id="-609208" lat="59.7234027772" lon="5.76584166073">
		<tag k="name" v="Virdalsflua" />
		<tag k="place" v="locality" />
		<tag k="seamark:type" v="rock" />
		<tag k="ssr:stedsnr" v="164721" />
	</node>
	<node id="-611255" lat="59.9837888862" lon="5.83185833186">
		<tag k="fixme" v="multiple name tags, choose one and add the other to alt_name" />
		<tag k="name" v="Fingergullvika;Gullvika" />
		<tag k="natural" v="bay" />
		<tag k="ssr:stedsnr" v="125654" />
	</node>
	<node id="-611254" lat="59.9826305597" lon="5.81814443534">
		<tag k="alt_name" v="Grytneset" />
		<tag k="name" v="Grytnes" />
		<tag k="natural" v="cape" />
		<tag k="ssr:stedsnr" v="125653" />
	</node>
	<node id="-611253" lat="59.7914861081" lon="5.7126722307">
		<tag k="name" v="Sæbøvika" />
		<tag k="natural" v="bay" />
		<tag k="ssr:stedsnr" v="125589" />
	</node>
	<node id="-611252" lat="59.9960083331" lon="5.98307500544">
		<tag k="name" v="Beinavika" />
		<tag k="natural" v="bay" />
		<tag k="ssr:stedsnr" v="125483" />
	</node>
	<node id="-611249" lat="59.9837333345" lon="5.95380555763">
		<tag k="name" v="Blåneset" />
		<tag k="natural" v="cape" />
		<tag k="ssr:stedsnr" v="125462" />
	</node>
	<node id="-611243" lat="59.7844611134" lon="5.66257500557">
		<tag k="alt_name" v="Sætraneset;Nordra Setersnes" />
		<tag k="name" v="Sætersneset" />
		<tag k="natural" v="cape" />
		<tag k="ssr:stedsnr" v="125398" />
	</node>
	<node id="-611242" lat="59.7663666668" lon="5.88046110418">
		<tag k="name" v="Ølfernesholmen" />
		<tag k="place" v="islet" />
		<tag k="ssr:stedsnr" v="125391" />
	</node>
	<node id="-611239" lat="59.8134444419" lon="5.72576388985">
		<tag k="name" v="Øysteinsvik" />
		<tag k="natural" v="bay" />
		<tag k="ssr:stedsnr" v="125372" />
	</node>
	<node id="-610801" lat="59.9457055584" lon="5.89093056154">
		<tag k="name" v="Rødsvågen" />
		<tag k="natural" v="bay" />
		<tag k="ssr:stedsnr" v="4026" />
	</node>
	<node id="-611235" lat="59.7875750015" lon="6.09625000835">
		<tag k="name" v="Vikavika" />
		<tag k="natural" v="bay" />
		<tag k="ssr:stedsnr" v="125341" />
	</node>
	<node id="-611231" lat="59.8646277743" lon="5.73928055532">
		<tag k="alt_name" v="Rysslandsvik" />
		<tag k="name" v="Røsslandsvika" />
		<tag k="natural" v="bay" />
		<tag k="ssr:stedsnr" v="125324" />
	</node>
	<node id="-610458" lat="59.9990666698" lon="5.86035556407">
		<tag k="name" v="Korsvika" />
		<tag k="natural" v="bay" />
		<tag k="ssr:stedsnr" v="914476" />
	</node>
	<node id="-609178" lat="59.8583916645" lon="5.9850444377">
		<tag k="name" v="Klokkaretåa" />
		<tag k="natural" v="cape" />
		<tag k="ssr:stedsnr" v="279562" />
	</node>
	<node id="-611224" lat="59.876620957" lon="5.76396939091">
		<tag k="fixme" v="multiple name tags, choose one and add the other to alt_name" />
		<tag k="name" v="Husnesvågen;Ondarheimsvågen" />
		<tag k="natural" v="bay" />
		<tag k="ssr:stedsnr" v="125281" />
	</node>
	<node id="-611223" lat="59.7980194412" lon="5.96643889129">
		<tag k="alt_name" v="Mjelkeviksnes" />
		<tag k="name" v="Mjelkeviknes" />
		<tag k="natural" v="cape" />
		<tag k="ssr:stedsnr" v="125280" />
	</node>
	<node id="-611221" lat="59.8769111069" lon="5.74504722314">
		<tag k="name" v="Breidvika" />
		<tag k="natural" v="bay" />
		<tag k="ssr:stedsnr" v="125275" />
	</node>
	<node id="-611220" lat="59.8095305563" lon="5.95457500803">
		<tag k="alt_name" v="Esjenes" />
		<tag k="name" v="Esjeneset" />
		<tag k="natural" v="cape" />
		<tag k="ssr:stedsnr" v="125273" />
	</node>
	<node id="-609170" lat="60.1194611109" lon="6.25674721984">
		<tag k="name" v="Musskjerneset" />
		<tag k="natural" v="cape" />
		<tag k="ssr:stedsnr" v="159366" />
	</node>
	<node id="-609169" lat="60.1300388909" lon="6.24579721983">
		<tag k="alt_name" v="Snilsodden" />
		<tag k="name" v="Snilsodd" />
		<tag k="natural" v="cape" />
		<tag k="ssr:stedsnr" v="159360" />
	</node>
	<node id="-611216" lat="60.1607333366" lon="6.27350834176">
		<tag k="alt_name" v="Flekkeneset" />
		<tag k="name" v="Flekkjeneset" />
		<tag k="natural" v="cape" />
		<tag k="ssr:stedsnr" v="125258" />
	</node>
	<node id="-609166" lat="60.1190999961" lon="6.26851944721">
		<tag k="name" v="Sunndalsvika" />
		<tag k="natural" v="bay" />
		<tag k="ssr:stedsnr" v="159353" />
	</node>
	<node id="-609163" lat="60.1536194421" lon="6.28528611953">
		<tag k="alt_name" v="Aursteinen" />
		<tag k="name" v="Aurstein" />
		<tag k="natural" v="cape" />
		<tag k="ssr:stedsnr" v="159311" />
	</node>
	<node id="-611207" lat="60.1269694481" lon="6.29456388227">
		<tag k="bay" v="fjord" />
		<tag k="name" v="Austrepollen" />
		<tag k="natural" v="bay" />
		<tag k="ssr:stedsnr" v="125179" />
	</node>
	<node id="-611137" lat="60.1178000032" lon="6.15525556364">
		<tag k="name" v="Midtvikneset" />
		<tag k="natural" v="cape" />
		<tag k="ssr:stedsnr" v="99440" />
	</node>
	<node id="-609155" lat="59.7930555555" lon="5.6819583416">
		<tag k="name" v="Kobbebukta" />
		<tag k="natural" v="bay" />
		<tag k="ssr:stedsnr" v="159004" />
	</node>
	<node id="-609153" lat="60.128275001" lon="6.06025832848">
		<tag k="name" v="Naustneset" />
		<tag k="natural" v="cape" />
		<tag k="ssr:stedsnr" v="158835" />
	</node>
	<node id="-612160" lat="59.946502781" lon="5.84829443711">
		<tag k="alt_name" v="Skorpevågen, s;Skorpavågen;Søre Skorpavågen" />
		<tag k="name" v="Søre Skorpevågen" />
		<tag k="natural" v="bay" />
		<tag k="ssr:stedsnr" v="550030" />
	</node>
	<node id="-609150" lat="60.0161555572" lon="5.82567222823">
		<tag k="name" v="Hauganeset" />
		<tag k="natural" v="cape" />
		<tag k="ssr:stedsnr" v="267196" />
	</node>
	<node id="-609149" lat="59.9636527807" lon="5.87403611153">
		<tag k="name" v="Straumsneset" />
		<tag k="natural" v="cape" />
		<tag k="ssr:stedsnr" v="267139" />
	</node>
	<node id="-610108" lat="59.7222416682" lon="5.74562777434">
		<tag k="name" v="Narravikneset" />
		<tag k="natural" v="cape" />
		<tag k="ssr:stedsnr" v="731067" />
	</node>
	<node id="-609145" lat="60.0905555575" lon="5.96527778576">
		<tag k="name" v="Vågsvikane" />
		<tag k="natural" v="bay" />
		<tag k="ssr:stedsnr" v="99976" />
	</node>
	<node id="-609086" lat="59.9430833289" lon="5.82258055414">
		<tag k="name" v="Skorpo" />
		<tag k="place" v="island" />
		<tag k="ssr:stedsnr" v="247726" />
	</node>
	<node id="-609137" lat="59.7314888851" lon="5.70324721826">
		<tag k="name" v="Karteidklubben" />
		<tag k="natural" v="cape" />
		<tag k="ssr:stedsnr" v="99960" />
	</node>
	<node id="-610450" lat="59.7560944431" lon="5.74727222428">
		<tag k="name" v="Ådnavika" />
		<tag k="natural" v="bay" />
		<tag k="ssr:stedsnr" v="914409" />
	</node>
	<node id="-609130" lat="60.0101556861" lon="5.80723088387">
		<tag k="name" v="Dalsjøen" />
		<tag k="natural" v="bay" />
		<tag k="ssr:stedsnr" v="99825" />
	</node>
	<node id="-611175" lat="59.9870611131" lon="5.75869167509">
		<tag k="name" v="Terøysundet" />
		<tag k="natural" v="strait" />
		<tag k="ssr:stedsnr" v="124623" />
	</node>
	<node id="-611173" lat="59.7469500013" lon="5.66779999449">
		<tag k="name" v="Fjelbergsundet" />
		<tag k="natural" v="strait" />
		<tag k="ssr:stedsnr" v="124099" />
	</node>
	<node id="-611172" lat="59.7054333302" lon="5.70096666067">
		<tag k="name" v="Mjåneset" />
		<tag k="natural" v="cape" />
		<tag k="ssr:stedsnr" v="124083" />
	</node>
	<node id="-611171" lat="59.7149944472" lon="5.70170554734">
		<tag k="alt_name" v="Gjerdsvik" />
		<tag k="name" v="Gjerdsvågen" />
		<tag k="natural" v="bay" />
		<tag k="ssr:stedsnr" v="124073" />
	</node>
	<node id="-611170" lat="59.7119250033" lon="5.67741666202">
		<tag k="name" v="Storstøvika" />
		<tag k="natural" v="bay" />
		<tag k="ssr:stedsnr" v="124069" />
	</node>
	<node id="-609121" lat="59.7766916624" lon="5.96659443728">
		<tag k="alt_name" v="Seglberget" />
		<tag k="name" v="Seilberg" />
		<tag k="natural" v="cape" />
		<tag k="ssr:stedsnr" v="99203" />
	</node>
	<node id="-611166" lat="59.8734055561" lon="5.74312221803">
		<tag k="name" v="Bogsneset" />
		<tag k="natural" v="cape" />
		<tag k="ssr:stedsnr" v="105593" />
	</node>
	<node id="-611165" lat="59.8204833359" lon="5.72580554921">
		<tag k="name" v="Nordre Kolsøya" />
		<tag k="place" v="islet" />
		<tag k="ssr:stedsnr" v="105567" />
	</node>
	<node id="-611164" lat="59.7841361147" lon="5.72017222634">
		<tag k="name" v="Landasjøen" />
		<tag k="natural" v="bay" />
		<tag k="ssr:stedsnr" v="104735" />
	</node>
	<node id="-611163" lat="59.7738861087" lon="5.74641389385">
		<tag k="name" v="Landavågsfleet" />
		<tag k="natural" v="bay" />
		<tag k="ssr:stedsnr" v="104660" />
	</node>
	<node id="-611162" lat="59.8318277789" lon="5.75744999273">
		<tag k="alt_name" v="Porsvikneset" />
		<tag k="name" v="Porsneset" />
		<tag k="natural" v="cape" />
		<tag k="ssr:stedsnr" v="104574" />
	</node>
	<node id="-609423" lat="59.7486277817" lon="5.78929443942">
		<tag k="name" v="Giljeviknakken" />
		<tag k="natural" v="cape" />
		<tag k="ssr:stedsnr" v="286721" />
	</node>
	<node id="-609108" lat="60.127783329" lon="5.9323249956">
		<tag k="name" v="Hestenasen" />
		<tag k="natural" v="cape" />
		<tag k="ssr:stedsnr" v="98753" />
	</node>
	<node id="-609105" lat="59.8160527756" lon="5.74899999917">
		<tag k="name" v="Larsastøa" />
		<tag k="natural" v="bay" />
		<tag k="ssr:stedsnr" v="98872" />
	</node>
	<node id="-611147" lat="60.1572083352" lon="6.29040555533">
		<tag k="name" v="Køylebukta" />
		<tag k="natural" v="bay" />
		<tag k="ssr:stedsnr" v="99921" />
	</node>
	<node id="-609096" lat="59.8544388894" lon="5.98698056141">
		<tag k="name" v="Grohellernes" />
		<tag k="natural" v="cape" />
		<tag k="ssr:stedsnr" v="97559" />
	</node>
	<node id="-609095" lat="60.0431583358" lon="5.91718055081">
		<tag k="alt_name" v="Gjerdsvika" />
		<tag k="name" v="Gjerdsvågen" />
		<tag k="natural" v="bay" />
		<tag k="ssr:stedsnr" v="85058" />
	</node>
	<node id="-609094" lat="60.1150833291" lon="6.06578612039">
		<tag k="alt_name" v="Vesla-Sild" />
		<tag k="name" v="Vetlesild" />
		<tag k="place" v="islet" />
		<tag k="ssr:stedsnr" v="85016" />
	</node>
	<node id="-609093" lat="60.1223222196" lon="6.04953055147">
		<tag k="name" v="Ytterstøgrunna" />
		<tag k="natural" v="shoal" />
		<tag k="place" v="locality" />
		<tag k="ssr:stedsnr" v="85012" />
	</node>
	<node id="-611138" lat="60.1131861078" lon="6.13891666284">
		<tag k="name" v="Løypeneset" />
		<tag k="natural" v="cape" />
		<tag k="ssr:stedsnr" v="99441" />
	</node>
	<node id="-609419" lat="60.1472222263" lon="6.2821472217">
		<tag k="name" v="Sletteskreneset" />
		<tag k="natural" v="cape" />
		<tag k="ssr:stedsnr" v="286418" />
	</node>
	<node id="-611134" lat="60.0947722177" lon="6.11830832624">
		<tag k="name" v="Ænesvika" />
		<tag k="natural" v="bay" />
		<tag k="ssr:stedsnr" v="99496" />
	</node>
	<node id="-611129" lat="60.1155472255" lon="6.2690888875">
		<tag k="name" v="Vetleholmen" />
		<tag k="place" v="islet" />
		<tag k="ssr:stedsnr" v="99351" />
	</node>
	<node id="-609417" lat="60.1156861119" lon="6.23650278548">
		<tag k="name" v="Krokalandet" />
		<tag k="natural" v="beach" />
		<tag k="place" v="locality" />
		<tag k="ssr:stedsnr" v="286402" />
	</node>
	<node id="-609076" lat="59.7863194462" lon="5.66850555747">
		<tag k="name" v="Breidvika" />
		<tag k="natural" v="bay" />
		<tag k="ssr:stedsnr" v="247559" />
	</node>
	<node id="-609075" lat="59.755444447" lon="5.69959999809">
		<tag k="name" v="Kvernavika" />
		<tag k="natural" v="bay" />
		<tag k="ssr:stedsnr" v="247552" />
	</node>
	<node id="-611333" lat="60.1107027766" lon="5.91414722726">
		<tag k="fixme" v="consider seamark:type=rock or natural=shoal" />
		<tag k="name" v="Klokkarskjeret" />
		<tag k="place" v="islet" />
		<tag k="ssr:stedsnr" v="159828" />
	</node>
	<node id="-611120" lat="59.7939861125" lon="5.7640027694">
		<tag k="name" v="Fjellandsneset" />
		<tag k="natural" v="cape" />
		<tag k="ssr:stedsnr" v="99049" />
	</node>
	<node id="-611119" lat="59.7235083363" lon="5.64722222482">
		<tag k="name" v="Kvitanes" />
		<tag k="natural" v="cape" />
		<tag k="ssr:stedsnr" v="99045" />
	</node>
	<node id="-611118" lat="59.7032111137" lon="5.72895556073">
		<tag k="name" v="Kumla" />
		<tag k="place" v="island" />
		<tag k="ssr:stedsnr" v="99040" />
	</node>
	<node id="-611117" lat="59.7665472222" lon="5.74484445322">
		<tag k="name" v="Gardvika" />
		<tag k="natural" v="bay" />
		<tag k="ssr:stedsnr" v="99033" />
	</node>
	<node id="-611116" lat="59.7351972258" lon="5.71096388236">
		<tag k="name" v="Sengjaneset" />
		<tag k="natural" v="cape" />
		<tag k="ssr:stedsnr" v="99030" />
	</node>
	<node id="-611115" lat="59.7298722186" lon="5.73312778152">
		<tag k="fixme" v="consider seamark:type=rock or natural=shoal" />
		<tag k="name" v="Øyaskjeret" />
		<tag k="place" v="islet" />
		<tag k="ssr:stedsnr" v="99023" />
	</node>
	<node id="-611114" lat="59.7849111073" lon="5.70367221906">
		<tag k="name" v="Kovaneset" />
		<tag k="natural" v="cape" />
		<tag k="ssr:stedsnr" v="99019" />
	</node>
	<node id="-609065" lat="59.7601194417" lon="6.06415555214">
		<tag k="fixme" v="consider seamark:type=rock or natural=shoal" />
		<tag k="name" v="Alsåkerskjeret" />
		<tag k="place" v="islet" />
		<tag k="ssr:stedsnr" v="247382" />
	</node>
	<node id="-609060" lat="59.8122000013" lon="5.67550000563">
		<tag k="name" v="Mørkavågen" />
		<tag k="natural" v="bay" />
		<tag k="ssr:stedsnr" v="247339" />
	</node>
	<node id="-609059" lat="59.8051166689" lon="5.68182499851">
		<tag k="alt_name" v="Eidsnes" />
		<tag k="name" v="Eidsneset" />
		<tag k="natural" v="cape" />
		<tag k="ssr:stedsnr" v="247319" />
	</node>
	<node id="-611103" lat="59.8151638921" lon="5.73000278266">
		<tag k="name" v="Blokkebærholmen" />
		<tag k="place" v="islet" />
		<tag k="ssr:stedsnr" v="98883" />
	</node>
	<node id="-609754" lat="59.7138805537" lon="5.67071111394">
		<tag k="name" v="Kvernavika" />
		<tag k="natural" v="bay" />
		<tag k="ssr:stedsnr" v="671089" />
	</node>
	<node id="-611096" lat="60.1327777779" lon="5.9308805611">
		<tag k="name" v="Lyrehola" />
		<tag k="natural" v="bay" />
		<tag k="ssr:stedsnr" v="98750" />
	</node>
	<node id="-611094" lat="59.7854611136" lon="6.10548056137">
		<tag k="alt_name" v="Lambanes" />
		<tag k="name" v="Lambaneset" />
		<tag k="natural" v="cape" />
		<tag k="ssr:stedsnr" v="98726" />
	</node>
	<node id="-609069" lat="59.9729916688" lon="5.9117833367">
		<tag k="name" v="Sætravika" />
		<tag k="natural" v="bay" />
		<tag k="ssr:stedsnr" v="247458" />
	</node>
	<node id="-611081" lat="59.7953305594" lon="5.60056943644">
		<tag k="name" v="Nordre Hillegrunnen" />
		<tag k="natural" v="shoal" />
		<tag k="place" v="locality" />
		<tag k="ssr:stedsnr" v="86144" />
	</node>
	<node id="-611080" lat="59.9504388878" lon="5.96300833649">
		<tag k="name" v="Sandvikevika" />
		<tag k="natural" v="bay" />
		<tag k="ssr:stedsnr" v="85032" />
	</node>
	<node id="-609031" lat="59.7914166688" lon="5.74309999306">
		<tag k="name" v="Landasanden" />
		<tag k="natural" v="beach" />
		<tag k="place" v="locality" />
		<tag k="ssr:stedsnr" v="246375" />
	</node>
	<node id="-609030" lat="59.7869861085" lon="5.60847778621">
		<tag k="alt_name" v="Passholmen" />
		<tag k="name" v="Pasholmen" />
		<tag k="place" v="islet" />
		<tag k="ssr:stedsnr" v="246374" />
	</node>
	<node id="-611075" lat="60.0375333316" lon="5.90967500162">
		<tag k="alt_name" v="Nettlandsvika" />
		<tag k="name" v="Nettlandsvågen" />
		<tag k="natural" v="bay" />
		<tag k="ssr:stedsnr" v="66983" />
	</node>
	<node id="-611073" lat="60.0431999993" lon="5.92439444651">
		<tag k="name" v="Eikholmen" />
		<tag k="place" v="islet" />
		<tag k="ssr:stedsnr" v="66969" />
	</node>
	<node id="-609023" lat="59.7709055558" lon="5.88622500333">
		<tag k="name" v="Straumsneset" />
		<tag k="natural" v="cape" />
		<tag k="ssr:stedsnr" v="246327" />
	</node>
	<node id="-611062" lat="60.0771833376" lon="5.97898889183">
		<tag k="name" v="Skjelnesodden" />
		<tag k="natural" v="cape" />
		<tag k="ssr:stedsnr" v="65957" />
	</node>
	<node id="-611060" lat="60.0920944429" lon="5.95625277128">
		<tag k="alt_name" v="Varaneset" />
		<tag k="name" v="Vardaneset" />
		<tag k="natural" v="cape" />
		<tag k="ssr:stedsnr" v="65941" />
	</node>
	<node id="-609011" lat="59.7253750022" lon="5.64890555357">
		<tag k="name" v="Svinhagevika" />
		<tag k="natural" v="bay" />
		<tag k="ssr:stedsnr" v="246108" />
	</node>
	<node id="-609010" lat="59.7452416687" lon="5.74178610935">
		<tag k="name" v="Kikavika" />
		<tag k="natural" v="bay" />
		<tag k="ssr:stedsnr" v="246107" />
	</node>
	<node id="-611057" lat="60.1114111119" lon="6.03533055961">
		<tag k="name" v="Raudurda" />
		<tag k="natural" v="bay" />
		<tag k="ssr:stedsnr" v="65930" />
	</node>
	<node id="-611053" lat="60.0065944424" lon="5.98814444754">
		<tag k="name" v="Vedavika" />
		<tag k="natural" v="bay" />
		<tag k="ssr:stedsnr" v="65779" />
	</node>
	<node id="-609004" lat="59.9334527755" lon="5.85922500436">
		<tag k="name" v="Stølavika" />
		<tag k="natural" v="bay" />
		<tag k="ssr:stedsnr" v="246048" />
	</node>
	<node id="-609001" lat="59.9468333377" lon="5.96373333265">
		<tag k="alt_name" v="Leiteneset" />
		<tag k="name" v="Leitenes" />
		<tag k="natural" v="cape" />
		<tag k="ssr:stedsnr" v="246021" />
	</node>
	<node id="-609745" lat="59.943355552" lon="5.84877499507">
		<tag k="name" v="Nautaneset" />
		<tag k="natural" v="cape" />
		<tag k="ssr:stedsnr" v="671026" />
	</node>
	<node id="-611044" lat="59.7565222225" lon="5.67571389655">
		<tag k="name" v="Grunnavågen" />
		<tag k="natural" v="bay" />
		<tag k="ssr:stedsnr" v="65562" />
	</node>
	<node id="-611043" lat="60.021227777" lon="5.72088610907">
		<tag k="alt_name" v="Grunnasundholmen" />
		<tag k="name" v="Grunnasundsholmen" />
		<tag k="place" v="islet" />
		<tag k="ssr:stedsnr" v="65675" />
	</node>
	<node id="-611040" lat="59.9620277799" lon="5.88144444656">
		<tag k="alt_name" v="Eidsvikøya" />
		<tag k="name" v="Eidsvikøy" />
		<tag k="place" v="island" />
		<tag k="ssr:stedsnr" v="65484" />
	</node>
	<node id="-611038" lat="59.7603861076" lon="6.08038889574">
		<tag k="alt_name" v="Alsåkernes" />
		<tag k="name" v="Alsåkerneset" />
		<tag k="natural" v="cape" />
		<tag k="ssr:stedsnr" v="65377" />
	</node>
	<node id="-611036" lat="59.8197638908" lon="5.70140832766">
		<tag k="name" v="Kvimsen" />
		<tag k="place" v="islet" />
		<tag k="ssr:stedsnr" v="65350" />
	</node>
	<node id="-610426" lat="59.8587944441" lon="5.70215278237">
		<tag k="name" v="Kongsteinvika" />
		<tag k="natural" v="bay" />
		<tag k="ssr:stedsnr" v="914296" />
	</node>
	<node id="-610239" lat="59.7564888902" lon="5.71623889413">
		<tag k="name" v="Rossnespøyla" />
		<tag k="natural" v="bay" />
		<tag k="ssr:stedsnr" v="888033" />
	</node>
	<node id="-611028" lat="59.8708500022" lon="5.73252221564">
		<tag k="name" v="Nebbo" />
		<tag k="natural" v="cape" />
		<tag k="ssr:stedsnr" v="65297" />
	</node>
	<node id="-608977" lat="60.1384472202" lon="6.25880278687">
		<tag k="alt_name" v="Blikneset" />
		<tag k="name" v="Blik" />
		<tag k="natural" v="cape" />
		<tag k="ssr:stedsnr" v="65203" />
	</node>
	<node id="-611024" lat="59.7902499984" lon="5.95630277775">
		<tag k="alt_name" v="Krabbanes" />
		<tag k="name" v="Krabbaneset" />
		<tag k="natural" v="cape" />
		<tag k="ssr:stedsnr" v="65279" />
	</node>
	<node id="-610765" lat="60.1272805552" lon="6.30491944412">
		<tag k="fixme" v="consider seamark:type=rock or natural=shoal" />
		<tag k="name" v="Klovsteinane" />
		<tag k="place" v="islet" />
		<tag k="ssr:stedsnr" v="949257" />
	</node>
	<node id="-608972" lat="59.9138249985" lon="5.77604167238">
		<tag k="name" v="Torbergsvika" />
		<tag k="natural" v="bay" />
		<tag k="ssr:stedsnr" v="64714" />
	</node>
	<node id="-608970" lat="59.7894833364" lon="6.13320000221">
		<tag k="alt_name" v="Tersthamar" />
		<tag k="name" v="Teisthammar" />
		<tag k="natural" v="cape" />
		<tag k="ssr:stedsnr" v="64349" />
	</node>
	<node id="-611014" lat="59.987035189" lon="5.78104655701">
		<tag k="name" v="Kuvika" />
		<tag k="natural" v="bay" />
		<tag k="ssr:stedsnr" v="64681" />
	</node>
	<node id="-608965" lat="59.727633331" lon="5.67962778031">
		<tag k="name" v="Borgundøya" />
		<tag k="place" v="island" />
		<tag k="ssr:stedsnr" v="64105" />
	</node>
	<node id="-611010" lat="59.7896361073" lon="5.80123610716">
		<tag k="name" v="Slettaneset" />
		<tag k="natural" v="cape" />
		<tag k="ssr:stedsnr" v="64381" />
	</node>
	<node id="-608959" lat="59.7955666662" lon="5.59961944241">
		<tag k="name" v="Nordre Hillegrunnen" />
		<tag k="natural" v="shoal" />
		<tag k="place" v="locality" />
		<tag k="ssr:stedsnr" v="44725" />
	</node>
	<node id="-611001" lat="59.7209333319" lon="5.71881666208">
		<tag k="name" v="Vågsholmen" />
		<tag k="place" v="islet" />
		<tag k="ssr:stedsnr" v="64100" />
	</node>
	<node id="-609396" lat="59.7835833322" lon="5.95798333596">
		<tag k="name" v="Krabbavik" />
		<tag k="natural" v="bay" />
		<tag k="ssr:stedsnr" v="462565" />
	</node>
	<node id="-608949" lat="60.0781138859" lon="5.96761389197">
		<tag k="name" v="Pumpevik" />
		<tag k="natural" v="bay" />
		<tag k="ssr:stedsnr" v="38922" />
	</node>
	<node id="-608948" lat="60.0895583377" lon="5.96753611264">
		<tag k="name" v="Langskipsnes" />
		<tag k="natural" v="cape" />
		<tag k="ssr:stedsnr" v="38916" />
	</node>
	<node id="-610994" lat="59.717755554" lon="5.80942222004">
		<tag k="alt_name" v="Skåneviksfjorden" />
		<tag k="bay" v="fjord" />
		<tag k="name" v="Skånevikfjorden" />
		<tag k="natural" v="bay" />
		<tag k="ssr:stedsnr" v="64058" />
	</node>
	<node id="-608945" lat="60.0854388902" lon="5.91978056251">
		<tag k="name" v="Torevika" />
		<tag k="natural" v="bay" />
		<tag k="ssr:stedsnr" v="38802" />
	</node>
	<node id="-609206" lat="59.8575861079" lon="5.71103611544">
		<tag k="name" v="Rørvikvågen" />
		<tag k="natural" v="bay" />
		<tag k="ssr:stedsnr" v="280153" />
	</node>
	<node id="-610988" lat="59.7128666637" lon="5.68207500184">
		<tag k="name" v="Sæbøvika" />
		<tag k="natural" v="bay" />
		<tag k="ssr:stedsnr" v="64050" />
	</node>
	<node id="-608938" lat="59.8523194423" lon="5.96592777781">
		<tag k="name" v="Sandnesvik" />
		<tag k="natural" v="bay" />
		<tag k="ssr:stedsnr" v="38553" />
	</node>
	<node id="-608937" lat="59.7910750031" lon="5.95543611704">
		<tag k="name" v="Kalvavika" />
		<tag k="natural" v="bay" />
		<tag k="ssr:stedsnr" v="38517" />
	</node>
	<node id="-610982" lat="59.7852861142" lon="6.11311944962">
		<tag k="name" v="Nesjavik" />
		<tag k="natural" v="bay" />
		<tag k="ssr:stedsnr" v="44891" />
	</node>
	<node id="-610981" lat="59.7634500024" lon="5.84682222851">
		<tag k="name" v="Notavågflua" />
		<tag k="place" v="locality" />
		<tag k="seamark:type" v="rock" />
		<tag k="ssr:stedsnr" v="44700" />
	</node>
	<node id="-610980" lat="59.8092472213" lon="5.68657222316">
		<tag k="name" v="Austflua" />
		<tag k="place" v="locality" />
		<tag k="seamark:type" v="rock" />
		<tag k="ssr:stedsnr" v="43544" />
	</node>
	<node id="-610979" lat="60.126038889" lon="6.22886389727">
		<tag k="name" v="Kattaklubben" />
		<tag k="natural" v="cape" />
		<tag k="ssr:stedsnr" v="43387" />
	</node>
	<node id="-608923" lat="59.8898833314" lon="5.76700554954">
		<tag k="name" v="Løvikneset" />
		<tag k="natural" v="cape" />
		<tag k="ssr:stedsnr" v="37925" />
	</node>
	<node id="-610970" lat="59.9277805567" lon="5.79623333965">
		<tag k="name" v="Nyhavn" />
		<tag k="natural" v="bay" />
		<tag k="ssr:stedsnr" v="38950" />
	</node>
	<node id="-608921" lat="59.7548611081" lon="5.83870555015">
		<tag k="name" v="Klubben" />
		<tag k="natural" v="cape" />
		<tag k="ssr:stedsnr" v="38016" />
	</node>
	<node id="-608920" lat="59.7425194452" lon="5.65246389444">
		<tag k="name" v="Fløneset" />
		<tag k="natural" v="cape" />
		<tag k="ssr:stedsnr" v="38010" />
	</node>
	<node id="-608919" lat="59.8326388849" lon="5.71078055684">
		<tag k="name" v="Nesjaneset" />
		<tag k="natural" v="cape" />
		<tag k="ssr:stedsnr" v="37872" />
	</node>
	<node id="-613013" lat="60.1173171065" lon="6.0695207194">
		<tag k="name" v="Hamnavika" />
		<tag k="natural" v="bay" />
		<tag k="ssr:stedsnr" v="990468" />
	</node>
	<node id="-608916" lat="60.0309138884" lon="5.71461666708">
		<tag k="name" v="Akslaneset" />
		<tag k="natural" v="cape" />
		<tag k="ssr:stedsnr" v="37858" />
	</node>
	<node id="-608915" lat="59.8589777745" lon="5.98112778655">
		<tag k="name" v="Øyravik" />
		<tag k="natural" v="bay" />
		<tag k="ssr:stedsnr" v="226949" />
	</node>
	<node id="-610962" lat="60.0965170859" lon="5.95567670973">
		<tag k="name" v="Røssaholmen" />
		<tag k="place" v="islet" />
		<tag k="ssr:stedsnr" v="38979" />
	</node>
	<node id="-609691" lat="59.7766611099" lon="6.0902111163">
		<tag k="name" v="Bondevika" />
		<tag k="natural" v="bay" />
		<tag k="ssr:stedsnr" v="429323" />
	</node>
	<node id="-608912" lat="59.7982944485" lon="5.81544167252">
		<tag k="name" v="Kringleneset" />
		<tag k="natural" v="cape" />
		<tag k="ssr:stedsnr" v="226763" />
	</node>
	<node id="-608910" lat="59.860347221" lon="5.72576388105">
		<tag k="name" v="Kaldestadvika" />
		<tag k="natural" v="bay" />
		<tag k="ssr:stedsnr" v="226608" />
	</node>
	<node id="-613005" lat="59.824184693" lon="5.78420051532">
		<tag k="name" v="Valøyane" />
		<tag k="place" v="island" />
		<tag k="ssr:stedsnr" v="990396" />
	</node>
	<node id="-608908" lat="59.9782750005" lon="6.00536944556">
		<tag k="name" v="Kråkeneset" />
		<tag k="natural" v="cape" />
		<tag k="ssr:stedsnr" v="24003" />
	</node>
	<node id="-608906" lat="59.8222472179" lon="5.76036388483">
		<tag k="alt_name" v="Trollskjæret" />
		<tag k="fixme" v="consider seamark:type=rock or natural=shoal" />
		<tag k="name" v="Trollskjeret" />
		<tag k="place" v="islet" />
		<tag k="ssr:stedsnr" v="225616" />
	</node>
	<node id="-610951" lat="60.1603083344" lon="5.98125832478">
		<tag k="name" v="Sagneset" />
		<tag k="natural" v="cape" />
		<tag k="ssr:stedsnr" v="38934" />
	</node>
	<node id="-610950" lat="59.8604666663" lon="5.72030000325">
		<tag k="name" v="Prestneståa" />
		<tag k="natural" v="cape" />
		<tag k="ssr:stedsnr" v="38933" />
	</node>
	<node id="-608900" lat="59.9880194478" lon="5.84210834165">
		<tag k="name" v="Kuglavika" />
		<tag k="natural" v="bay" />
		<tag k="ssr:stedsnr" v="221798" />
	</node>
	<node id="-610947" lat="59.9881611092" lon="5.78408055338">
		<tag k="name" v="Mjånes" />
		<tag k="natural" v="cape" />
		<tag k="ssr:stedsnr" v="38829" />
	</node>
	<node id="-608895" lat="59.8482611092" lon="5.69714444326">
		<tag k="name" v="Notavika" />
		<tag k="natural" v="bay" />
		<tag k="ssr:stedsnr" v="221235" />
	</node>
	<node id="-610939" lat="60.0745648803" lon="6.06571400007">
		<tag k="name" v="Elvaneset" />
		<tag k="natural" v="cape" />
		<tag k="ssr:stedsnr" v="38484" />
	</node>
	<node id="-612984" lat="60.0700584214" lon="6.04599423207">
		<tag k="name" v="Klubbaneset" />
		<tag k="natural" v="cape" />
		<tag k="ssr:stedsnr" v="954495" />
	</node>
	<node id="-608887" lat="60.0945361145" lon="6.00919167322">
		<tag k="fixme" v="consider seamark:type=rock or natural=shoal" />
		<tag k="name" v="Liaskjeret" />
		<tag k="place" v="islet" />
		<tag k="ssr:stedsnr" v="220980" />
	</node>
	<node id="-612982" lat="59.9106111109" lon="5.77170278361">
		<tag k="name" v="Trondnesvik" />
		<tag k="natural" v="bay" />
		<tag k="ssr:stedsnr" v="954404" />
	</node>
	<node id="-608885" lat="60.1060027742" lon="6.03530277411">
		<tag k="name" v="Oldervika" />
		<tag k="natural" v="bay" />
		<tag k="ssr:stedsnr" v="220977" />
	</node>
	<node id="-612980" lat="59.8270222202" lon="5.69723056164">
		<tag k="name" v="Bjellandsøyane" />
		<tag k="place" v="island" />
		<tag k="ssr:stedsnr" v="953595" />
	</node>
	<node id="-612979" lat="59.7790583363" lon="5.58515000542">
		<tag k="name" v="Søre Hillegrunnen" />
		<tag k="natural" v="shoal" />
		<tag k="place" v="locality" />
		<tag k="ssr:stedsnr" v="874145" />
	</node>
	<node id="-612977" lat="60.1110611136" lon="6.03613611288">
		<tag k="alt_name" v="Raudurevika" />
		<tag k="name" v="Raudurdvika" />
		<tag k="natural" v="bay" />
		<tag k="ssr:stedsnr" v="874028" />
	</node>
	<node id="-610440" lat="59.7801805584" lon="6.09047499552">
		<tag k="name" v="Brekkevika" />
		<tag k="natural" v="bay" />
		<tag k="ssr:stedsnr" v="914353" />
	</node>
	<node id="-610965" lat="60.0959138868" lon="6.01327499691">
		<tag k="name" v="Skiftegardsneset" />
		<tag k="natural" v="cape" />
		<tag k="ssr:stedsnr" v="38986" />
	</node>
	<node id="-612971" lat="60.0976361077" lon="6.03007500297">
		<tag k="alt_name" v="Åkersholmen" />
		<tag k="name" v="Åkresholmen" />
		<tag k="place" v="islet" />
		<tag k="ssr:stedsnr" v="854936" />
	</node>
	<node id="-610918" lat="59.7787519602" lon="5.74831839737">
		<tag k="name" v="Landavågen" />
		<tag k="natural" v="bay" />
		<tag k="ssr:stedsnr" v="38029" />
	</node>
	<node id="-612965" lat="59.9978944412" lon="5.7602861072">
		<tag k="name" v="Hillerneset" />
		<tag k="natural" v="cape" />
		<tag k="ssr:stedsnr" v="854640" />
	</node>
	<node id="-608868" lat="59.9642972245" lon="5.90141111048">
		<tag k="name" v="Brotavika" />
		<tag k="natural" v="bay" />
		<tag k="ssr:stedsnr" v="220924" />
	</node>
	<node id="-612963" lat="60.1390444453" lon="6.05948333629">
		<tag k="alt_name" v="Øykhaganeset" />
		<tag k="name" v="Øykhageneset" />
		<tag k="natural" v="cape" />
		<tag k="ssr:stedsnr" v="854590" />
	</node>
	<node id="-608866" lat="59.8627000001" lon="5.72765834076">
		<tag k="name" v="Kuholmen" />
		<tag k="place" v="islet" />
		<tag k="ssr:stedsnr" v="220919" />
	</node>
	<node id="-612961" lat="59.9932805599" lon="5.95003611838">
		<tag k="alt_name" v="Fiskevika" />
		<tag k="name" v="Fiskavika" />
		<tag k="natural" v="bay" />
		<tag k="ssr:stedsnr" v="854442" />
	</node>
	<node id="-612959" lat="59.761938892" lon="6.06900000183">
		<tag k="name" v="Alsåkervika" />
		<tag k="natural" v="bay" />
		<tag k="ssr:stedsnr" v="854384" />
	</node>
	<node id="-608862" lat="60.039913886" lon="5.91558333378">
		<tag k="name" v="Hjortåsklubben" />
		<tag k="natural" v="cape" />
		<tag k="ssr:stedsnr" v="220872" />
	</node>
	<node id="-610909" lat="59.8241666696" lon="5.66236388959">
		<tag k="name" v="Svinøyklubben" />
		<tag k="natural" v="cape" />
		<tag k="ssr:stedsnr" v="38020" />
	</node>
	<node id="-610908" lat="59.7655638869" lon="5.84098611555">
		<tag k="name" v="Arnfinnsneset" />
		<tag k="natural" v="cape" />
		<tag k="ssr:stedsnr" v="38019" />
	</node>
	<node id="-612955" lat="59.8122111082" lon="5.6290027865">
		<tag k="name" v="Klosterneset" />
		<tag k="natural" v="cape" />
		<tag k="ssr:stedsnr" v="854337" />
	</node>
	<node id="-608857" lat="60.0087547185" lon="5.81239834205">
		<tag k="name" v="Vesleholsund" />
		<tag k="natural" v="strait" />
		<tag k="ssr:stedsnr" v="220843" />
	</node>
	<node id="-608856" lat="59.9968499968" lon="5.79592777236">
		<tag k="name" v="Bergerøya" />
		<tag k="natural" v="cape" />
		<tag k="ssr:stedsnr" v="220838" />
	</node>
	<node id="-608852" lat="60.1364083367" lon="6.05968611528">
		<tag k="name" v="Kvitsandneset" />
		<tag k="natural" v="cape" />
		<tag k="ssr:stedsnr" v="220806" />
	</node>
	<node id="-608851" lat="60.1608666684" lon="5.98804166925">
		<tag k="name" v="Monsvik" />
		<tag k="natural" v="bay" />
		<tag k="ssr:stedsnr" v="220803" />
	</node>
	<node id="-610898" lat="59.9855527757" lon="5.94754722431">
		<tag k="name" v="Nesjabukta" />
		<tag k="natural" v="bay" />
		<tag k="ssr:stedsnr" v="37684" />
	</node>
	<node id="-610439" lat="59.8137555581" lon="5.74557500444">
		<tag k="alt_name" v="Lauvøya, l;Litle Lauvøy;Vetle Lauvøya" />
		<tag k="name" v="Litle Lauvøya" />
		<tag k="place" v="island" />
		<tag k="ssr:stedsnr" v="914352" />
	</node>
	<node id="-608848" lat="60.1184555511" lon="6.069099992">
		<tag k="name" v="Terneholmen" />
		<tag k="place" v="islet" />
		<tag k="ssr:stedsnr" v="220791" />
	</node>
	<node id="-608847" lat="60.1296138935" lon="6.05860556157">
		<tag k="name" v="Vikane" />
		<tag k="natural" v="bay" />
		<tag k="ssr:stedsnr" v="220788" />
	</node>
	<node id="-608845" lat="59.7873333308" lon="6.10537221474">
		<tag k="name" v="Klubben" />
		<tag k="natural" v="cape" />
		<tag k="ssr:stedsnr" v="220775" />
	</node>
	<node id="-610891" lat="59.9674888889" lon="5.71280000732">
		<tag k="name" v="Fjæreflua" />
		<tag k="natural" v="shoal" />
		<tag k="place" v="locality" />
		<tag k="ssr:stedsnr" v="25345" />
	</node>
	<node id="-612931" lat="59.7884361156" lon="5.64709445174">
		<tag k="name" v="Fluholmane" />
		<tag k="place" v="islet" />
		<tag k="ssr:stedsnr" v="853384" />
	</node>
	<node id="-612929" lat="59.9362249982" lon="5.85450000663">
		<tag k="name" v="Flatholmen" />
		<tag k="place" v="islet" />
		<tag k="ssr:stedsnr" v="853042" />
	</node>
	<node id="-612925" lat="59.9563055587" lon="5.97416667007">
		<tag k="name" v="Holmen" />
		<tag k="place" v="islet" />
		<tag k="ssr:stedsnr" v="853013" />
	</node>
	<node id="-612923" lat="59.7812444441" lon="6.10295278594">
		<tag k="fixme" v="multiple name tags, choose one and add the other to alt_name" />
		<tag k="name" v="Vågsvika;Åkravika" />
		<tag k="natural" v="bay" />
		<tag k="ssr:stedsnr" v="853296" />
	</node>
	<node id="-608824" lat="60.1163138866" lon="6.14901111498">
		<tag k="name" v="Leirhola" />
		<tag k="place" v="locality" />
		<tag k="ssr:stedsnr" v="220504" />
	</node>
	<node id="-610871" lat="60.0956166698" lon="6.11645277007">
		<tag k="name" v="Ænestangen" />
		<tag k="natural" v="cape" />
		<tag k="ssr:stedsnr" v="4935" />
	</node>
	<node id="-612918" lat="59.7238555562" lon="5.715575">
		<tag k="name" v="Bleikja" />
		<tag k="natural" v="cape" />
		<tag k="ssr:stedsnr" v="853090" />
	</node>
	<node id="-612913" lat="60.0425250026" lon="5.70858610787">
		<tag k="alt_name" v="Lokksundet;Lokksund" />
		<tag k="name" v="Lukksundet" />
		<tag k="natural" v="strait" />
		<tag k="ssr:stedsnr" v="843295" />
	</node>
	<node id="-608814" lat="60.1277416689" lon="6.23313611051">
		<tag k="name" v="Sagholmen" />
		<tag k="place" v="islet" />
		<tag k="ssr:stedsnr" v="220390" />
	</node>
	<node id="-612908" lat="59.771288889" lon="5.74675555757">
		<tag k="name" v="Hillesnakken" />
		<tag k="natural" v="cape" />
		<tag k="ssr:stedsnr" v="832687" />
	</node>
	<node id="-610857" lat="59.9645638879" lon="5.91676388626">
		<tag k="alt_name" v="Eikeneset" />
		<tag k="name" v="Eiketeigneset" />
		<tag k="natural" v="cape" />
		<tag k="ssr:stedsnr" v="4471" />
	</node>
	<node id="-610853" lat="59.9829611086" lon="5.94201944153">
		<tag k="name" v="Øyevika" />
		<tag k="natural" v="bay" />
		<tag k="ssr:stedsnr" v="4435" />
	</node>
	<node id="-609210" lat="59.7812185063" lon="5.85149965328">
		<tag k="name" v="Leirvik" />
		<tag k="natural" v="bay" />
		<tag k="ssr:stedsnr" v="165926" />
	</node>
	<node id="-610851" lat="59.7564968161" lon="5.83644483014">
		<tag k="name" v="Børsdalsvika" />
		<tag k="natural" v="bay" />
		<tag k="ssr:stedsnr" v="4409" />
	</node>
	<node id="-610850" lat="59.7509749976" lon="5.70632777392">
		<tag k="name" v="Breidvika" />
		<tag k="natural" v="bay" />
		<tag k="ssr:stedsnr" v="4406" />
	</node>
	<node id="-610849" lat="59.7545361139" lon="5.72286111223">
		<tag k="name" v="Brenneholmen" />
		<tag k="place" v="islet" />
		<tag k="ssr:stedsnr" v="4405" />
	</node>
	<node id="-608800" lat="59.7843388882" lon="5.69803610865">
		<tag k="name" v="Bastavika" />
		<tag k="natural" v="bay" />
		<tag k="ssr:stedsnr" v="220039" />
	</node>
	<node id="-612895" lat="60.1285972186" lon="6.30647499331">
		<tag k="fixme" v="consider seamark:type=rock or natural=shoal" />
		<tag k="name" v="Rundesteinen" />
		<tag k="place" v="islet" />
		<tag k="ssr:stedsnr" v="828251" />
	</node>
	<node id="-610846" lat="59.8135333333" lon="5.69947500805">
		<tag k="alt_name" v="Salsholmen" />
		<tag k="name" v="Salsundholmen" />
		<tag k="place" v="islet" />
		<tag k="ssr:stedsnr" v="4339" />
	</node>
	<node id="-608797" lat="59.7542095018" lon="5.83689093564">
		<tag k="name" v="Holmasund" />
		<tag k="natural" v="strait" />
		<tag k="ssr:stedsnr" v="220023" />
	</node>
	<node id="-608796" lat="59.8035888904" lon="5.65673055729">
		<tag k="name" v="Fureholmen" />
		<tag k="place" v="islet" />
		<tag k="ssr:stedsnr" v="220008" />
	</node>
	<node id="-608795" lat="59.8578194466" lon="5.6976111112">
		<tag k="name" v="Kuastøa" />
		<tag k="natural" v="bay" />
		<tag k="ssr:stedsnr" v="219909" />
	</node>
	<node id="-612884" lat="59.9313916665" lon="5.82727222113">
		<tag k="name" v="Mørkevågen" />
		<tag k="natural" v="bay" />
		<tag k="ssr:stedsnr" v="827983" />
	</node>
	<node id="-612883" lat="60.1043999993" lon="6.03550000603">
		<tag k="name" v="Brakanes" />
		<tag k="natural" v="cape" />
		<tag k="ssr:stedsnr" v="827981" />
	</node>
	<node id="-609027" lat="59.7814222229" lon="6.12058054789">
		<tag k="alt_name" v="Bryllaskjær" />
		<tag k="fixme" v="consider seamark:type=rock or natural=shoal" />
		<tag k="name" v="Brøllaskjer" />
		<tag k="place" v="islet" />
		<tag k="ssr:stedsnr" v="246343" />
	</node>
	<node id="-610832" lat="59.8618916671" lon="5.70554444353">
		<tag k="alt_name" v="Beltesneset" />
		<tag k="name" v="Beltenes" />
		<tag k="natural" v="cape" />
		<tag k="ssr:stedsnr" v="4281" />
	</node>
	<node id="-610733" lat="59.7076472177" lon="5.69969999557">
		<tag k="name" v="Djupevik" />
		<tag k="natural" v="bay" />
		<tag k="ssr:stedsnr" v="948068" />
	</node>
	<node id="-609366" lat="59.7952999971" lon="5.93697499251">
		<tag k="alt_name" v="Lyngnes" />
		<tag k="name" v="Lyngneset" />
		<tag k="natural" v="cape" />
		<tag k="ssr:stedsnr" v="247264" />
	</node>
	<node id="-612861" lat="60.0344833322" lon="5.91227777344">
		<tag k="name" v="Klubbavika" />
		<tag k="natural" v="bay" />
		<tag k="ssr:stedsnr" v="827888" />
	</node>
	<node id="-612860" lat="60.0462777734" lon="5.92093055288">
		<tag k="name" v="Olaneset" />
		<tag k="natural" v="cape" />
		<tag k="ssr:stedsnr" v="827876" />
	</node>
	<node id="-609706" lat="59.7987638899" lon="5.73777499406">
		<tag k="name" v="Nordrevågen" />
		<tag k="natural" v="bay" />
		<tag k="ssr:stedsnr" v="463039" />
	</node>
	<node id="-612858" lat="59.8286250011" lon="5.71661110657">
		<tag k="alt_name" v="Upsangerneset" />
		<tag k="name" v="Opsangerneset" />
		<tag k="natural" v="cape" />
		<tag k="ssr:stedsnr" v="827860" />
	</node>
	<node id="-612855" lat="59.9953361143" lon="5.75933610584">
		<tag k="name" v="Svultnato" />
		<tag k="natural" v="cape" />
		<tag k="ssr:stedsnr" v="827838" />
	</node>
	<node id="-612854" lat="60.095247219" lon="5.91783611363">
		<tag k="name" v="Klumpeneset" />
		<tag k="natural" v="cape" />
		<tag k="ssr:stedsnr" v="827825" />
	</node>
	<node id="-610802" lat="59.9471388894" lon="5.95960000593">
		<tag k="name" v="Grytevika" />
		<tag k="natural" v="bay" />
		<tag k="ssr:stedsnr" v="4030" />
	</node>
	<node id="-612849" lat="60.1450027766" lon="6.06155833249">
		<tag k="name" v="Botnaneset" />
		<tag k="natural" v="cape" />
		<tag k="ssr:stedsnr" v="827798" />
	</node>
	<node id="-610798" lat="59.9920166666" lon="5.8019388823">
		<tag k="name" v="Husavågen" />
		<tag k="natural" v="bay" />
		<tag k="ssr:stedsnr" v="3639" />
	</node>
	<node id="-608799" lat="59.8158750043" lon="5.64714444706">
		<tag k="name" v="Vetla Kongsvika" />
		<tag k="natural" v="bay" />
		<tag k="ssr:stedsnr" v="220031" />
	</node>
	<node id="-610796" lat="59.978486108" lon="5.74832222864">
		<tag k="alt_name" v="Arholmen" />
		<tag k="name" v="Store Arholmen" />
		<tag k="place" v="islet" />
		<tag k="ssr:stedsnr" v="3596" />
	</node>
	<node id="-612843" lat="60.0667888891" lon="5.91998332502">
		<tag k="name" v="Vetlaneset" />
		<tag k="natural" v="cape" />
		<tag k="ssr:stedsnr" v="827776" />
	</node>
	<node id="-610794" lat="59.7761305533" lon="5.73183055824">
		<tag k="alt_name" v="Siranes" />
		<tag k="name" v="Siraneset" />
		<tag k="natural" v="cape" />
		<tag k="ssr:stedsnr" v="3375" />
	</node>
	<node id="-610788" lat="59.7464249971" lon="5.69610277892">
		<tag k="name" v="Fjelbergøya" />
		<tag k="place" v="island" />
		<tag k="ssr:stedsnr" v="3139" />
	</node>
	<node id="-609702" lat="59.7386944407" lon="5.70051389036">
		<tag k="name" v="Havnavika" />
		<tag k="natural" v="bay" />
		<tag k="ssr:stedsnr" v="463005" />
	</node>
	<node id="-610783" lat="59.728850003" lon="5.64362778118">
		<tag k="name" v="Aksdalsholmane" />
		<tag k="place" v="islet" />
		<tag k="ssr:stedsnr" v="3084" />
	</node>
	<node id="-610782" lat="59.7102527764" lon="5.72078611566">
		<tag k="name" v="Labergsvika" />
		<tag k="natural" v="bay" />
		<tag k="ssr:stedsnr" v="3072" />
	</node>
	<node id="-610781" lat="59.7034865644" lon="5.72979080265">
		<tag k="fixme" v="consider seamark:type=rock or natural=shoal" />
		<tag k="name" v="Melskomla" />
		<tag k="place" v="islet" />
		<tag k="ssr:stedsnr" v="3070" />
	</node>
	<node id="-610780" lat="59.7160055529" lon="5.72075833148">
		<tag k="name" v="Dyrnesklubben" />
		<tag k="natural" v="cape" />
		<tag k="ssr:stedsnr" v="3061" />
	</node>
	<node id="-612827" lat="59.9541027735" lon="5.84529722987">
		<tag k="name" v="Dyrsvik" />
		<tag k="natural" v="bay" />
		<tag k="ssr:stedsnr" v="827578" />
	</node>
	<node id="-610774" lat="59.711004207" lon="5.70268672219">
		<tag k="name" v="Svartesjøen" />
		<tag k="natural" v="bay" />
		<tag k="ssr:stedsnr" v="990319" />
	</node>
	<node id="-612821" lat="60.091894447" lon="6.10935277238">
		<tag k="name" v="Osatåa" />
		<tag k="natural" v="cape" />
		<tag k="ssr:stedsnr" v="827542" />
	</node>
	<node id="-610723" lat="59.8171083332" lon="5.71851945029">
		<tag k="name" v="Skothelleneset" />
		<tag k="natural" v="cape" />
		<tag k="ssr:stedsnr" v="947853" />
	</node>
	<node id="-612816" lat="60.1131361081" lon="6.18193332696">
		<tag k="name" v="Ramshola" />
		<tag k="place" v="locality" />
		<tag k="ssr:stedsnr" v="827375" />
	</node>
	<node id="-610766" lat="60.1237277762" lon="6.29610555521">
		<tag k="name" v="Saltkjelen" />
		<tag k="place" v="locality" />
		<tag k="ssr:stedsnr" v="949260" />
	</node>
	<node id="-612813" lat="60.1187555545" lon="6.25437777113">
		<tag k="name" v="Nesvika" />
		<tag k="natural" v="bay" />
		<tag k="ssr:stedsnr" v="827371" />
	</node>
	<node id="-612812" lat="60.127938889" lon="6.23574722546">
		<tag k="name" v="Sjoneset" />
		<tag k="natural" v="cape" />
		<tag k="ssr:stedsnr" v="827366" />
	</node>
	<node id="-610721" lat="59.8685527773" lon="5.75624444065">
		<tag k="alt_name" v="Kattholmen" />
		<tag k="name" v="Kattaholmen" />
		<tag k="place" v="islet" />
		<tag k="ssr:stedsnr" v="947906" />
	</node>
	<node id="-612791" lat="59.781102777" lon="5.81605000391">
		<tag k="name" v="Hamraneset" />
		<tag k="natural" v="cape" />
		<tag k="ssr:stedsnr" v="827051" />
	</node>
	<node id="-612790" lat="59.722044442" lon="5.74503889212">
		<tag k="name" v="Sydnestangen" />
		<tag k="natural" v="cape" />
		<tag k="ssr:stedsnr" v="827041" />
	</node>
	<node id="-612789" lat="59.7540507954" lon="5.83541701921">
		<tag k="name" v="Holmatåa" />
		<tag k="natural" v="cape" />
		<tag k="ssr:stedsnr" v="827019" />
	</node>
	<node id="-612788" lat="59.75888056" lon="5.72625000422">
		<tag k="name" v="Sydnessundet" />
		<tag k="natural" v="strait" />
		<tag k="ssr:stedsnr" v="827018" />
	</node>
	<node id="-612787" lat="59.7929333357" lon="5.66865555346">
		<tag k="name" v="Kroberget" />
		<tag k="natural" v="cape" />
		<tag k="ssr:stedsnr" v="827014" />
	</node>
	<node id="-612784" lat="59.7818607011" lon="5.85033666184">
		<tag k="name" v="Sagneset" />
		<tag k="natural" v="cape" />
		<tag k="ssr:stedsnr" v="826866" />
	</node>
	<node id="-610376" lat="60.0836194447" lon="5.96846110752">
		<tag k="name" v="Nesjaholmen" />
		<tag k="place" v="islet" />
		<tag k="ssr:stedsnr" v="766903" />
	</node>
	<node id="-612782" lat="59.8333361105" lon="5.72438889405">
		<tag k="name" v="Grønaneset" />
		<tag k="natural" v="cape" />
		<tag k="ssr:stedsnr" v="826855" />
	</node>
	<node id="-612781" lat="59.8326722214" lon="5.71681110322">
		<tag k="alt_name" v="Upsangervågen" />
		<tag k="name" v="Opsangervågen" />
		<tag k="natural" v="bay" />
		<tag k="ssr:stedsnr" v="826848" />
	</node>
	<node id="-610732" lat="59.7519055573" lon="5.70173611902">
		<tag k="name" v="Skiftesvik" />
		<tag k="natural" v="bay" />
		<tag k="ssr:stedsnr" v="948065" />
	</node>
	<node id="-610731" lat="59.7570499975" lon="5.74473054839">
		<tag k="name" v="Sjøbuneset" />
		<tag k="natural" v="cape" />
		<tag k="ssr:stedsnr" v="948059" />
	</node>
	<node id="-610730" lat="60.1290861106" lon="6.24152222891">
		<tag k="name" v="Vikane" />
		<tag k="natural" v="bay" />
		<tag k="ssr:stedsnr" v="948361" />
	</node>
	<node id="-612775" lat="60.1391250029" lon="6.28216110951">
		<tag k="alt_name" v="Tellvika" />
		<tag k="name" v="Telvika" />
		<tag k="natural" v="bay" />
		<tag k="ssr:stedsnr" v="821205" />
	</node>
	<node id="-612774" lat="59.9803472204" lon="5.75126111035">
		<tag k="name" v="Litle Arholmen" />
		<tag k="place" v="islet" />
		<tag k="ssr:stedsnr" v="814176" />
	</node>
	<node id="-612771" lat="60.0756722239" lon="5.9203305544">
		<tag k="name" v="Gulaflua" />
		<tag k="natural" v="shoal" />
		<tag k="place" v="locality" />
		<tag k="ssr:stedsnr" v="813059" />
	</node>
	<node id="-612770" lat="60.0748138904" lon="5.96915832441">
		<tag k="alt_name" v="Glevik" />
		<tag k="name" v="Glevika" />
		<tag k="natural" v="bay" />
		<tag k="ssr:stedsnr" v="813051" />
	</node>
	<node id="-612769" lat="60.1646500034" lon="6.02146389638">
		<tag k="alt_name" v="Sjursvik" />
		<tag k="name" v="Sjursvika" />
		<tag k="natural" v="bay" />
		<tag k="ssr:stedsnr" v="813045" />
	</node>
	<node id="-612767" lat="60.1487083374" lon="6.06024721337">
		<tag k="name" v="Seltevikneset" />
		<tag k="natural" v="cape" />
		<tag k="ssr:stedsnr" v="813021" />
	</node>
	<node id="-610717" lat="60.0733444425" lon="5.92365277629">
		<tag k="alt_name" v="Vongsskjeret;Vangskjer" />
		<tag k="fixme" v="consider seamark:type=rock or natural=shoal" />
		<tag k="name" v="Vongskjeret" />
		<tag k="place" v="islet" />
		<tag k="ssr:stedsnr" v="915964" />
	</node>
	<node id="-610716" lat="60.0953111085" lon="5.95513054819">
		<tag k="alt_name" v="Raudholmvika" />
		<tag k="name" v="Raudholmsvika" />
		<tag k="natural" v="bay" />
		<tag k="ssr:stedsnr" v="915908" />
	</node>
	<node id="-610715" lat="60.1146750022" lon="6.19835000764">
		<tag k="name" v="Digraneset" />
		<tag k="natural" v="cape" />
		<tag k="ssr:stedsnr" v="915906" />
	</node>
	<node id="-610709" lat="60.0252750011" lon="5.72104166272">
		<tag k="alt_name" v="Skotholmen" />
		<tag k="name" v="Skottholmen" />
		<tag k="place" v="islet" />
		<tag k="ssr:stedsnr" v="915662" />
	</node>
	<node id="-612756" lat="60.1093277792" lon="6.18546944414">
		<tag k="alt_name" v="Maurangerfjorden" />
		<tag k="bay" v="fjord" />
		<tag k="name" v="Maurangsfjorden" />
		<tag k="natural" v="bay" />
		<tag k="ssr:stedsnr" v="793952" />
	</node>
	<node id="-612754" lat="60.1010472209" lon="6.02561111841">
		<tag k="alt_name" v="Åkersvågen;Åkershamn" />
		<tag k="name" v="Åkresvågen" />
		<tag k="natural" v="bay" />
		<tag k="ssr:stedsnr" v="793948" />
	</node>
	<node id="-612753" lat="60.1070611135" lon="6.09556666633">
		<tag k="alt_name" v="Sildefjorden" />
		<tag k="bay" v="fjord" />
		<tag k="name" v="Sildafjorden" />
		<tag k="natural" v="bay" />
		<tag k="ssr:stedsnr" v="793930" />
	</node>
	<node id="-610228" lat="59.7616722256" lon="6.07373333543">
		<tag k="name" v="Midtvika" />
		<tag k="natural" v="bay" />
		<tag k="ssr:stedsnr" v="887676" />
	</node>
	<node id="-610703" lat="60.1249694484" lon="5.91753333617">
		<tag k="bay" v="fjord" />
		<tag k="name" v="Øynefjorden" />
		<tag k="natural" v="bay" />
		<tag k="ssr:stedsnr" v="893904" />
	</node>
	<node id="-610695" lat="60.0719944424" lon="5.97851388834">
		<tag k="name" v="Grones" />
		<tag k="natural" v="cape" />
		<tag k="ssr:stedsnr" v="888908" />
	</node>
	<node id="-612742" lat="60.0642888885" lon="6.036038897">
		<tag k="alt_name" v="Vardavika" />
		<tag k="name" v="Vardavik" />
		<tag k="natural" v="bay" />
		<tag k="ssr:stedsnr" v="793973" />
	</node>
	<node id="-610693" lat="60.1180333339" lon="6.07189444031">
		<tag k="name" v="Kråkeneset" />
		<tag k="natural" v="cape" />
		<tag k="ssr:stedsnr" v="888708" />
	</node>
	<node id="-612738" lat="60.0842749983" lon="5.97171945178">
		<tag k="name" v="Evjepollen" />
		<tag k="natural" v="bay" />
		<tag k="ssr:stedsnr" v="793963" />
	</node>
	<node id="-610091" lat="59.7923666672" lon="6.14680277247">
		<tag k="alt_name" v="Kjørvanes" />
		<tag k="name" v="Kjørvaneset" />
		<tag k="natural" v="cape" />
		<tag k="ssr:stedsnr" v="610382" />
	</node>
	<node id="-612733" lat="59.9775249992" lon="6.00496666107">
		<tag k="name" v="Klokkarevika" />
		<tag k="natural" v="bay" />
		<tag k="ssr:stedsnr" v="793521" />
	</node>
	<node id="-609068" lat="59.96553611" lon="5.90348055908">
		<tag k="name" v="Eidsvika" />
		<tag k="natural" v="bay" />
		<tag k="ssr:stedsnr" v="247448" />
	</node>
	<node id="-612731" lat="59.9661059839" lon="5.93525868711">
		<tag k="name" v="Barmaskifteneset" />
		<tag k="natural" v="cape" />
		<tag k="ssr:stedsnr" v="793512" />
	</node>
	<node id="-612730" lat="59.9622583312" lon="5.94907500299">
		<tag k="name" v="Øyeneset" />
		<tag k="natural" v="cape" />
		<tag k="ssr:stedsnr" v="793509" />
	</node>
	<node id="-610681" lat="59.8108916633" lon="5.66086389674">
		<tag k="fixme" v="consider seamark:type=rock or natural=shoal" />
		<tag k="name" v="Terneskjeret" />
		<tag k="place" v="islet" />
		<tag k="ssr:stedsnr" v="888018" />
	</node>
	<node id="-610680" lat="59.8052833293" lon="5.65621666637">
		<tag k="name" v="Holmasundet" />
		<tag k="natural" v="strait" />
		<tag k="ssr:stedsnr" v="888012" />
	</node>
	<node id="-610679" lat="59.8079494034" lon="5.67233330042">
		<tag k="name" v="Lykelsøyvågen" />
		<tag k="natural" v="bay" />
		<tag k="ssr:stedsnr" v="888008" />
	</node>
	<node id="-610678" lat="59.8154833343" lon="5.75593610725">
		<tag k="name" v="Jensaneset" />
		<tag k="natural" v="cape" />
		<tag k="ssr:stedsnr" v="887867" />
	</node>
	<node id="-612725" lat="59.8574138896" lon="5.6983749986">
		<tag k="name" v="Kongsteinneset" />
		<tag k="natural" v="cape" />
		<tag k="ssr:stedsnr" v="793317" />
	</node>
	<node id="-612720" lat="59.9499999976" lon="5.70833333021">
		<tag k="bay" v="fjord" />
		<tag k="name" v="Hardangerfjorden" />
		<tag k="natural" v="bay" />
		<tag k="ssr:stedsnr" v="793474" />
	</node>
	<node id="-610670" lat="60.0901277781" lon="5.92057221706">
		<tag k="name" v="Grønviksholmen" />
		<tag k="place" v="island" />
		<tag k="ssr:stedsnr" v="887754" />
	</node>
	<node id="-612716" lat="59.8063666638" lon="5.79886389773">
		<tag k="name" v="Sandvollholmen" />
		<tag k="place" v="islet" />
		<tag k="ssr:stedsnr" v="793413" />
	</node>
	<node id="-610662" lat="59.9579555583" lon="5.99140277146">
		<tag k="name" v="Lundsneset" />
		<tag k="natural" v="cape" />
		<tag k="ssr:stedsnr" v="874021" />
	</node>
	<node id="-610659" lat="60.064633335" lon="5.92260000569">
		<tag k="name" v="Hamnatangen" />
		<tag k="natural" v="cape" />
		<tag k="ssr:stedsnr" v="949849" />
	</node>
	<node id="-610657" lat="60.0169777753" lon="5.82653611079">
		<tag k="name" v="Vika" />
		<tag k="natural" v="bay" />
		<tag k="ssr:stedsnr" v="949825" />
	</node>
	<node id="-612752" lat="60.1159999995" lon="6.1482083352">
		<tag k="name" v="Rundaneset" />
		<tag k="natural" v="cape" />
		<tag k="ssr:stedsnr" v="793929" />
	</node>
	<node id="-609067" lat="59.994625004" lon="5.98257499653">
		<tag k="alt_name" v="Tånes" />
		<tag k="name" v="Tåneset" />
		<tag k="natural" v="cape" />
		<tag k="ssr:stedsnr" v="247442" />
	</node>
	<node id="-610652" lat="59.8326722207" lon="5.70648333995">
		<tag k="name" v="Fureneset" />
		<tag k="natural" v="cape" />
		<tag k="ssr:stedsnr" v="949248" />
	</node>
	<node id="-612697" lat="59.9892388915" lon="5.74603055228">
		<tag k="name" v="Nordøya" />
		<tag k="place" v="islet" />
		<tag k="ssr:stedsnr" v="792666" />
	</node>
	<node id="-612696" lat="59.9838805586" lon="5.75136388362">
		<tag k="name" v="Terøya" />
		<tag k="place" v="islet" />
		<tag k="ssr:stedsnr" v="792662" />
	</node>
	<node id="-608995" lat="59.7022861118" lon="5.70485000751">
		<tag k="alt_name" v="Bjellebøholmen" />
		<tag k="name" v="Bjøllebøholmen" />
		<tag k="place" v="islet" />
		<tag k="ssr:stedsnr" v="246076" />
	</node>
	<node id="-610640" lat="60.0297527768" lon="5.91096943837">
		<tag k="name" v="Gardvika" />
		<tag k="natural" v="bay" />
		<tag k="ssr:stedsnr" v="948901" />
	</node>
	<node id="-612687" lat="59.7606277738" lon="5.61933055468">
		<tag k="bay" v="fjord" />
		<tag k="name" v="Halsnøyfjorden" />
		<tag k="natural" v="bay" />
		<tag k="ssr:stedsnr" v="792413" />
	</node>
	<node id="-612685" lat="59.7809111143" lon="6.09283889428">
		<tag k="alt_name" v="Larsnes" />
		<tag k="name" v="Larsneset" />
		<tag k="natural" v="cape" />
		<tag k="ssr:stedsnr" v="792342" />
	</node>
	<node id="-612682" lat="59.7549527767" lon="5.71582222051">
		<tag k="name" v="Rossnes" />
		<tag k="natural" v="cape" />
		<tag k="ssr:stedsnr" v="792395" />
	</node>
	<node id="-612680" lat="59.7911888858" lon="5.79482778023">
		<tag k="name" v="Hillestadneset" />
		<tag k="natural" v="cape" />
		<tag k="ssr:stedsnr" v="792375" />
	</node>
	<node id="-612679" lat="59.7823972229" lon="5.66335278073">
		<tag k="alt_name" v="Sætranesholmen" />
		<tag k="name" v="Sætersnesholmane" />
		<tag k="place" v="islet" />
		<tag k="ssr:stedsnr" v="792367" />
	</node>
	<node id="-612678" lat="59.7375157259" lon="5.64906716315">
		<tag k="name" v="Askeneset" />
		<tag k="natural" v="cape" />
		<tag k="ssr:stedsnr" v="792151" />
	</node>
	<node id="-610629" lat="60.1642666711" lon="6.00351110801">
		<tag k="name" v="Sandvikane" />
		<tag k="natural" v="bay" />
		<tag k="ssr:stedsnr" v="948941" />
	</node>
	<node id="-610626" lat="60.0757944445" lon="5.98670554849">
		<tag k="name" v="Gardsenden" />
		<tag k="natural" v="cape" />
		<tag k="ssr:stedsnr" v="948928" />
	</node>
	<node id="-608992" lat="59.9233638929" lon="5.78757499875">
		<tag k="name" v="Herøysundet" />
		<tag k="natural" v="strait" />
		<tag k="ssr:stedsnr" v="65752" />
	</node>
	<node id="-610622" lat="60.089652774" lon="5.9156472223">
		<tag k="name" v="Grøneviksvågen" />
		<tag k="natural" v="bay" />
		<tag k="ssr:stedsnr" v="948830" />
	</node>
	<node id="-612666" lat="59.7245916632" lon="5.75822778293">
		<tag k="alt_name" v="Bekkarvik" />
		<tag k="name" v="Bekkjarvika" />
		<tag k="natural" v="bay" />
		<tag k="ssr:stedsnr" v="792077" />
	</node>
	<node id="-610615" lat="59.9567111077" lon="5.99355832639">
		<tag k="name" v="Skitnavika" />
		<tag k="natural" v="bay" />
		<tag k="ssr:stedsnr" v="948730" />
	</node>
	<node id="-612662" lat="59.954900001" lon="5.85586667195">
		<tag k="name" v="Mjødnasundet" />
		<tag k="natural" v="strait" />
		<tag k="ssr:stedsnr" v="792016" />
	</node>
	<node id="-608861" lat="60.0369055514" lon="5.90952221747">
		<tag k="name" v="Hellebergsvika" />
		<tag k="natural" v="bay" />
		<tag k="ssr:stedsnr" v="220870" />
	</node>
	<node id="-612655" lat="59.8025055539" lon="5.97417499391">
		<tag k="alt_name" v="Skjelhamar" />
		<tag k="name" v="Skjelhammaren" />
		<tag k="natural" v="cape" />
		<tag k="ssr:stedsnr" v="792243" />
	</node>
	<node id="-612650" lat="59.8731638878" lon="5.75883888926">
		<tag k="name" v="Forholmen" />
		<tag k="natural" v="cape" />
		<tag k="ssr:stedsnr" v="772568" />
	</node>
	<node id="-612649" lat="59.8779861124" lon="5.75071667417">
		<tag k="fixme" v="consider seamark:type=rock or natural=shoal" />
		<tag k="name" v="Store Bleikje" />
		<tag k="place" v="islet" />
		<tag k="ssr:stedsnr" v="772566" />
	</node>
	<node id="-612648" lat="59.8084611143" lon="5.79553054734">
		<tag k="fixme" v="consider seamark:type=rock or natural=shoal" />
		<tag k="name" v="Kyllingane" />
		<tag k="place" v="islet" />
		<tag k="ssr:stedsnr" v="772554" />
	</node>
	<node id="-612647" lat="59.8135777801" lon="5.80379443996">
		<tag k="name" v="Gongstøklubben" />
		<tag k="natural" v="cape" />
		<tag k="ssr:stedsnr" v="772552" />
	</node>
	<node id="-610593" lat="59.8190972237" lon="5.65870833867">
		<tag k="alt_name" v="Svinøysund" />
		<tag k="name" v="Storesvinøysund" />
		<tag k="natural" v="strait" />
		<tag k="ssr:stedsnr" v="948042" />
	</node>
	<node id="-610592" lat="59.8160850104" lon="5.64566392971">
		<tag k="alt_name" v="Larsaskjæret" />
		<tag k="fixme" v="consider seamark:type=rock or natural=shoal" />
		<tag k="name" v="Larsaskjeret" />
		<tag k="place" v="islet" />
		<tag k="ssr:stedsnr" v="948030" />
	</node>
	<node id="-610591" lat="59.8401222249" lon="5.72944167294">
		<tag k="name" v="Pollen" />
		<tag k="natural" v="bay" />
		<tag k="ssr:stedsnr" v="947849" />
	</node>
	<node id="-612638" lat="60.0890694432" lon="6.10236944282">
		<tag k="name" v="Geitaskarvet" />
		<tag k="natural" v="cape" />
		<tag k="old_name" v="Geitaskaret" />
		<tag k="ssr:stedsnr" v="767232" />
	</node>
	<node id="-609669" lat="59.7476499996" lon="5.71233055481">
		<tag k="name" v="Nordhusvågen" />
		<tag k="natural" v="bay" />
		<tag k="ssr:stedsnr" v="428124" />
	</node>
	<node id="-610588" lat="59.7900944426" lon="5.75640834091">
		<tag k="name" v="Fjellandssanden" />
		<tag k="natural" v="beach" />
		<tag k="place" v="locality" />
		<tag k="ssr:stedsnr" v="948073" />
	</node>
	<node id="-611034" lat="59.8139777757" lon="5.64249167028">
		<tag k="alt_name" v="Kongsvik" />
		<tag k="name" v="Kongsvikane" />
		<tag k="natural" v="bay" />
		<tag k="ssr:stedsnr" v="65341" />
	</node>
	<node id="-610582" lat="60.1832638916" lon="6.01802778115">
		<tag k="bay" v="fjord" />
		<tag k="name" v="Hissfjorden" />
		<tag k="natural" v="bay" />
		<tag k="ssr:stedsnr" v="855527" />
	</node>
	<node id="-610579" lat="60.0746876129" lon="5.96779126244">
		<tag k="alt_name" v="Kyraholm" />
		<tag k="name" v="Kyrholmen" />
		<tag k="place" v="islet" />
		<tag k="ssr:stedsnr" v="854960" />
	</node>
	<node id="-612624" lat="60.0010083346" lon="5.74155554805">
		<tag k="fixme" v="consider seamark:type=rock or natural=shoal" />
		<tag k="name" v="Skarvaskjeret" />
		<tag k="place" v="islet" />
		<tag k="ssr:stedsnr" v="766816" />
	</node>
	<node id="-612621" lat="59.9943694463" lon="5.81398888411">
		<tag k="name" v="Ramsvika" />
		<tag k="natural" v="bay" />
		<tag k="ssr:stedsnr" v="766805" />
	</node>
	<node id="-610571" lat="59.8080108865" lon="5.73935557508">
		<tag k="alt_name" v="Trondnes" />
		<tag k="name" v="Trones" />
		<tag k="natural" v="cape" />
		<tag k="ssr:stedsnr" v="854570" />
	</node>
	<node id="-610570" lat="60.0282250016" lon="5.71974166586">
		<tag k="name" v="Løneset" />
		<tag k="natural" v="cape" />
		<tag k="ssr:stedsnr" v="854615" />
	</node>
	<node id="-610568" lat="60.1517916673" lon="5.94487499634">
		<tag k="alt_name" v="Bondesundet" />
		<tag k="name" v="Bondesund" />
		<tag k="natural" v="strait" />
		<tag k="ssr:stedsnr" v="854603" />
	</node>
	<node id="-610567" lat="59.9721749987" lon="5.93177499402">
		<tag k="name" v="Snilstveitøy" />
		<tag k="place" v="island" />
		<tag k="ssr:stedsnr" v="854473" />
	</node>
	<node id="-610566" lat="59.9756749977" lon="5.91718055412">
		<tag k="name" v="Brandaskuta" />
		<tag k="natural" v="bay" />
		<tag k="ssr:stedsnr" v="854470" />
	</node>
	<node id="-610565" lat="59.9896638881" lon="5.94943610738">
		<tag k="name" v="Kalven" />
		<tag k="place" v="island" />
		<tag k="ssr:stedsnr" v="854456" />
	</node>
	<node id="-610564" lat="59.8629888902" lon="5.72469722107">
		<tag k="name" v="Storholmen" />
		<tag k="place" v="islet" />
		<tag k="ssr:stedsnr" v="854256" />
	</node>
	<node id="-612611" lat="59.9177638915" lon="5.78290555538">
		<tag k="name" v="Haugaklubben" />
		<tag k="natural" v="cape" />
		<tag k="ssr:stedsnr" v="766946" />
	</node>
	<node id="-612605" lat="59.8488583325" lon="6.00004167237">
		<tag k="name" v="Grønavika" />
		<tag k="natural" v="bay" />
		<tag k="ssr:stedsnr" v="766602" />
	</node>
	<node id="-610556" lat="59.8097305523" lon="5.66445555614">
		<tag k="name" v="Klubbholmen" />
		<tag k="place" v="islet" />
		<tag k="ssr:stedsnr" v="854328" />
	</node>
	<node id="-610554" lat="59.8051585404" lon="5.66852263232">
		<tag k="name" v="Kyrkjesundet" />
		<tag k="natural" v="strait" />
		<tag k="ssr:stedsnr" v="854311" />
	</node>
	<node id="-612600" lat="60.098683332" lon="6.01994722339">
		<tag k="name" v="Knarrevik" />
		<tag k="natural" v="bay" />
		<tag k="ssr:stedsnr" v="766766" />
	</node>
	<node id="-610548" lat="59.7621527805" lon="5.85499444653">
		<tag k="alt_name" v="Høylandsundet" />
		<tag k="name" v="Høylandssundet" />
		<tag k="natural" v="strait" />
		<tag k="ssr:stedsnr" v="853375" />
	</node>
	<node id="-612734" lat="59.9694249995" lon="5.90121944674">
		<tag k="name" v="Hovdagardsneset" />
		<tag k="natural" v="cape" />
		<tag k="ssr:stedsnr" v="793524" />
	</node>
	<node id="-610543" lat="59.7093277745" lon="5.68146111483">
		<tag k="name" v="Sæbøholmane" />
		<tag k="place" v="islet" />
		<tag k="ssr:stedsnr" v="853075" />
	</node>
	<node id="-610541" lat="59.7071724434" lon="5.7055623674">
		<tag k="alt_name" v="Bjellebøvågen" />
		<tag k="name" v="Bjøllebøvågen" />
		<tag k="natural" v="bay" />
		<tag k="ssr:stedsnr" v="853058" />
	</node>
	<node id="-612588" lat="60.1136888888" lon="6.18075278608">
		<tag k="name" v="Ramsholneset" />
		<tag k="natural" v="cape" />
		<tag k="ssr:stedsnr" v="766351" />
	</node>
	<node id="-610002" lat="60.1073927687" lon="6.1360702437">
		<tag k="name" v="Steinsviketangen" />
		<tag k="natural" v="cape" />
		<tag k="ssr:stedsnr" v="706452" />
	</node>
	<node id="-610538" lat="59.9545944483" lon="5.99185833299">
		<tag k="fixme" v="multiple name tags, choose one and add the other to alt_name" />
		<tag k="name" v="Fetjavika;Lundsvika" />
		<tag k="natural" v="bay" />
		<tag k="ssr:stedsnr" v="935034" />
	</node>
	<node id="-610537" lat="59.9571194477" lon="5.96628611813">
		<tag k="name" v="Holmeflua" />
		<tag k="natural" v="shoal" />
		<tag k="place" v="locality" />
		<tag k="ssr:stedsnr" v="935028" />
	</node>
	<node id="-612580" lat="59.7101722197" lon="5.67718334097">
		<tag k="name" v="Store Galten" />
		<tag k="place" v="island" />
		<tag k="ssr:stedsnr" v="766041" />
	</node>
	<node id="-612579" lat="59.7887416665" lon="5.72077500233">
		<tag k="name" v="Asalneset" />
		<tag k="natural" v="cape" />
		<tag k="ssr:stedsnr" v="766038" />
	</node>
	<node id="-612578" lat="59.7302277821" lon="5.64207222275">
		<tag k="alt_name" v="Bleikjo" />
		<tag k="name" v="Bleikja" />
		<tag k="place" v="islet" />
		<tag k="ssr:stedsnr" v="766036" />
	</node>
	<node id="-612577" lat="59.7234083294" lon="5.75308333404">
		<tag k="name" v="Skiftesvika" />
		<tag k="natural" v="bay" />
		<tag k="ssr:stedsnr" v="766034" />
	</node>
	<node id="-610526" lat="59.9905388909" lon="5.95276944271">
		<tag k="name" v="Lindevika" />
		<tag k="natural" v="bay" />
		<tag k="ssr:stedsnr" v="813155" />
	</node>
	<node id="-610682" lat="59.825161113" lon="5.6947194511">
		<tag k="name" v="Vestvika" />
		<tag k="natural" v="bay" />
		<tag k="ssr:stedsnr" v="888020" />
	</node>
	<node id="-610521" lat="59.943524998" lon="5.87105833022">
		<tag k="alt_name" v="Krossnes" />
		<tag k="name" v="Korsnes" />
		<tag k="natural" v="cape" />
		<tag k="ssr:stedsnr" v="793607" />
	</node>
	<node id="-610520" lat="59.9359527804" lon="5.86575277829">
		<tag k="name" v="Beinavika" />
		<tag k="natural" v="bay" />
		<tag k="ssr:stedsnr" v="793606" />
	</node>
	<node id="-612565" lat="59.7912001306" lon="6.13607189304">
		<tag k="name" v="Storskredvika" />
		<tag k="natural" v="bay" />
		<tag k="ssr:stedsnr" v="765698" />
	</node>
	<node id="-612561" lat="59.8327361085" lon="5.76206388304">
		<tag k="name" v="Kvitesanden" />
		<tag k="natural" v="bay" />
		<tag k="ssr:stedsnr" v="765865" />
	</node>
	<node id="-610511" lat="59.9728555531" lon="5.84990000758">
		<tag k="bay" v="fjord" />
		<tag k="name" v="Kvinnheradsfjorden" />
		<tag k="natural" v="bay" />
		<tag k="ssr:stedsnr" v="792631" />
	</node>
	<node id="-610510" lat="59.9798194446" lon="5.76673334097">
		<tag k="alt_name" v="Ystaneset" />
		<tag k="name" v="Ystanes" />
		<tag k="natural" v="cape" />
		<tag k="ssr:stedsnr" v="792619" />
	</node>
	<node id="-612557" lat="59.9562916689" lon="5.97246666569">
		<tag k="name" v="Holmsund" />
		<tag k="natural" v="strait" />
		<tag k="ssr:stedsnr" v="765633" />
	</node>
	<node id="-612556" lat="59.9532055567" lon="5.98070555158">
		<tag k="name" v="Fitjarvika" />
		<tag k="natural" v="bay" />
		<tag k="ssr:stedsnr" v="765629" />
	</node>
	<node id="-610504" lat="59.7442027813" lon="5.7383611185">
		<tag k="name" v="Kuneset" />
		<tag k="natural" v="cape" />
		<tag k="ssr:stedsnr" v="792112" />
	</node>
	<node id="-610502" lat="59.7356638917" lon="5.72887500471">
		<tag k="name" v="Sundnessundet" />
		<tag k="natural" v="strait" />
		<tag k="ssr:stedsnr" v="792110" />
	</node>
	<node id="-612548" lat="60.0239111094" lon="5.72164722883">
		<tag k="name" v="Åmeholmen" />
		<tag k="place" v="islet" />
		<tag k="ssr:stedsnr" v="753131" />
	</node>
	<node id="-612547" lat="59.981302779" lon="5.76741666147">
		<tag k="alt_name" v="Stonganes" />
		<tag k="name" v="Stonganeset" />
		<tag k="natural" v="cape" />
		<tag k="ssr:stedsnr" v="753128" />
	</node>
	<node id="-612546" lat="59.9324305564" lon="5.78528332789">
		<tag k="name" v="Gavleflua" />
		<tag k="natural" v="shoal" />
		<tag k="place" v="locality" />
		<tag k="ssr:stedsnr" v="752285" />
	</node>
	<node id="-612542" lat="59.7562805567" lon="5.85141666763">
		<tag k="name" v="Raudholmane" />
		<tag k="place" v="islet" />
		<tag k="ssr:stedsnr" v="651692" />
	</node>
	<node id="-612541" lat="59.8487166687" lon="5.6762166605">
		<tag k="name" v="Rugsekken" />
		<tag k="natural" v="cape" />
		<tag k="ssr:stedsnr" v="651601" />
	</node>
	<node id="-612540" lat="59.8769194409" lon="5.75448610944">
		<tag k="fixme" v="consider seamark:type=rock or natural=shoal" />
		<tag k="name" v="Litle Bleikje" />
		<tag k="place" v="islet" />
		<tag k="ssr:stedsnr" v="651597" />
	</node>
	<node id="-612539" lat="59.8198944462" lon="5.79456944778">
		<tag k="name" v="Klausneset" />
		<tag k="natural" v="cape" />
		<tag k="ssr:stedsnr" v="651582" />
	</node>
	<node id="-612538" lat="59.8575194458" lon="5.99169166959">
		<tag k="name" v="Hola" />
		<tag k="natural" v="bay" />
		<tag k="ssr:stedsnr" v="650929" />
	</node>
	<node id="-610489" lat="60.0134555513" lon="5.72388055278">
		<tag k="name" v="Mekjesneset" />
		<tag k="natural" v="cape" />
		<tag k="ssr:stedsnr" v="915697" />
	</node>
	<node id="-610488" lat="60.0090206616" lon="5.81374278612">
		<tag k="fixme" v="multiple name tags, choose one and add the other to alt_name" />
		<tag k="name" v="Langholmen;Storholmen" />
		<tag k="place" v="islet" />
		<tag k="ssr:stedsnr" v="915678" />
	</node>
	<node id="-610487" lat="59.8088638918" lon="5.98156111611">
		<tag k="name" v="Sjurshola" />
		<tag k="natural" v="bay" />
		<tag k="ssr:stedsnr" v="772936" />
	</node>
	<node id="-610486" lat="59.8132583343" lon="5.98228888349">
		<tag k="fixme" v="consider seamark:type=rock or natural=shoal" />
		<tag k="loc_name" v="Øynerskjeret" />
		<tag k="name" v="Øynørskjæret" />
		<tag k="place" v="islet" />
		<tag k="ssr:stedsnr" v="772927" />
	</node>
	<node id="-610484" lat="59.7745388916" lon="5.82973610376">
		<tag k="name" v="Naustvika" />
		<tag k="natural" v="bay" />
		<tag k="ssr:stedsnr" v="772708" />
	</node>
	<node id="-609310" lat="60.0817833332" lon="5.97065833819">
		<tag k="name" v="Sandvik" />
		<tag k="natural" v="bay" />
		<tag k="ssr:stedsnr" v="281929" />
	</node>
	<node id="-612530" lat="60.0050138926" lon="5.75207778494">
		<tag k="name" v="Notaneset" />
		<tag k="natural" v="cape" />
		<tag k="ssr:stedsnr" v="645785" />
	</node>
	<node id="-610481" lat="60.1647250008" lon="5.99103610832">
		<tag k="name" v="Steinbiteneset" />
		<tag k="natural" v="cape" />
		<tag k="ssr:stedsnr" v="915544" />
	</node>
	<node id="-612528" lat="60.131547226" lon="6.29177500331">
		<tag k="name" v="Skotafjøra" />
		<tag k="natural" v="beach" />
		<tag k="place" v="locality" />
		<tag k="ssr:stedsnr" v="645265" />
	</node>
	<node id="-612527" lat="60.1272055516" lon="6.30929999263">
		<tag k="name" v="Dysnes" />
		<tag k="natural" v="cape" />
		<tag k="ssr:stedsnr" v="645261" />
	</node>
	<node id="-612526" lat="59.8510888855" lon="5.69049443719">
		<tag k="name" v="Kolavika" />
		<tag k="natural" v="bay" />
		<tag k="ssr:stedsnr" v="645252" />
	</node>
	<node id="-609309" lat="60.0912972258" lon="6.00249443841">
		<tag k="name" v="Sagvika" />
		<tag k="natural" v="bay" />
		<tag k="ssr:stedsnr" v="281927" />
	</node>
	<node id="-610472" lat="60.0253249988" lon="5.90776110611">
		<tag k="name" v="Seltangen" />
		<tag k="natural" v="cape" />
		<tag k="ssr:stedsnr" v="914761" />
	</node>
	<node id="-610469" lat="59.996797219" lon="5.79444443679">
		<tag k="name" v="Øyro" />
		<tag k="natural" v="cape" />
		<tag k="ssr:stedsnr" v="914689" />
	</node>
	<node id="-608788" lat="59.7910916658" lon="5.75378888899">
		<tag k="name" v="Skutenes" />
		<tag k="natural" v="cape" />
		<tag k="ssr:stedsnr" v="220064" />
	</node>
	<node id="-612506" lat="59.9354583327" lon="5.79331944097">
		<tag k="name" v="Gravlavika" />
		<tag k="natural" v="bay" />
		<tag k="ssr:stedsnr" v="644944" />
	</node>
	<node id="-612502" lat="60.1656111093" lon="6.00852500421">
		<tag k="name" v="Tømmervik" />
		<tag k="natural" v="bay" />
		<tag k="ssr:stedsnr" v="644933" />
	</node>
	<node id="-612501" lat="60.1628361118" lon="5.98646666426">
		<tag k="name" v="Øydjordsneset" />
		<tag k="natural" v="cape" />
		<tag k="ssr:stedsnr" v="644930" />
	</node>
	<node id="-612499" lat="60.0852305566" lon="5.99202778249">
		<tag k="name" v="Vedaneset" />
		<tag k="natural" v="cape" />
		<tag k="ssr:stedsnr" v="644922" />
	</node>
	<node id="-612498" lat="60.0784833327" lon="5.99059443968">
		<tag k="name" v="Dronningvik" />
		<tag k="natural" v="bay" />
		<tag k="ssr:stedsnr" v="644916" />
	</node>
	<node id="-612497" lat="60.163016668" lon="6.29414166224">
		<tag k="name" v="Vågen" />
		<tag k="natural" v="bay" />
		<tag k="ssr:stedsnr" v="644912" />
	</node>
	<node id="-610448" lat="59.7890833296" lon="5.60027777254">
		<tag k="name" v="Hillekalven" />
		<tag k="place" v="islet" />
		<tag k="ssr:stedsnr" v="914401" />
	</node>
	<node id="-610446" lat="59.7609777805" lon="5.98914166679">
		<tag k="name" v="Søllesvika" />
		<tag k="natural" v="bay" />
		<tag k="ssr:stedsnr" v="914386" />
	</node>
	<node id="-610445" lat="59.8172222183" lon="5.6587972311">
		<tag k="alt_name" v="Litle Svinøy;Svinøya, l;Vetle Svinøya" />
		<tag k="name" v="Litle Svinøya" />
		<tag k="place" v="islet" />
		<tag k="ssr:stedsnr" v="914370" />
	</node>
	<node id="-612491" lat="60.0363916646" lon="5.91075277061">
		<tag k="name" v="Vedaneset" />
		<tag k="natural" v="cape" />
		<tag k="ssr:stedsnr" v="644875" />
	</node>
	<node id="-610327" lat="59.7424333296" lon="5.67741111339">
		<tag k="name" v="Ljosneset" />
		<tag k="natural" v="cape" />
		<tag k="ssr:stedsnr" v="913106" />
	</node>
	<node id="-612488" lat="60.1175555525" lon="5.93499443671">
		<tag k="name" v="Siriapalen" />
		<tag k="natural" v="cape" />
		<tag k="ssr:stedsnr" v="644796" />
	</node>
	<node id="-612487" lat="60.0878333376" lon="5.91829721704">
		<tag k="name" v="Austevågen" />
		<tag k="natural" v="bay" />
		<tag k="ssr:stedsnr" v="644784" />
	</node>
	<node id="-610437" lat="59.7813361093" lon="6.11716111546">
		<tag k="name" v="Apalevika" />
>>>>>>> e1d4bc35ff8a6074a6f2e91616a996b547c36f15
		<tag k="natural" v="bay" />
		<tag k="ssr:stedsnr" v="914348" />
	</node>
<<<<<<< HEAD
	<node lat="60.105441666548074" lon="6.035625002738127" id="-30928">
		<tag k="name" v="Olderviksnes" />
		<tag k="natural" v="cape" />
		<tag k="ssr:stedsnr" v="220978" />
	</node>
	<node lat="60.09453611453244" lon="6.009191673224547" id="-30929">
		<tag k="fixme" v="consider seamark:type=rock or natural=shoal" />
		<tag k="name" v="Liaskjeret" />
		<tag k="place" v="islet" />
		<tag k="ssr:stedsnr" v="220980" />
	</node>
	<node lat="59.8222472179462" lon="5.760363884829996" id="-30937">
		<tag k="alt_name" v="Trollskjæret" />
		<tag k="fixme" v="consider seamark:type=rock or natural=shoal" />
		<tag k="name" v="Trollskjeret" />
		<tag k="place" v="islet" />
		<tag k="ssr:stedsnr" v="225616" />
	</node>
	<node lat="59.78973611228033" lon="5.606327771064712" id="-30939">
		<tag k="fixme" v="consider seamark:type=rock or natural=shoal" />
		<tag k="name" v="Skarvaskjeret" />
		<tag k="place" v="islet" />
		<tag k="ssr:stedsnr" v="450840" />
	</node>
	<node lat="59.946833337724435" lon="5.963733332654394" id="-30942">
		<tag k="alt_name" v="Leiteneset" />
		<tag k="name" v="Leitenes" />
		<tag k="natural" v="cape" />
		<tag k="ssr:stedsnr" v="246021" />
	</node>
	<node lat="59.745241668711834" lon="5.741786109352103" id="-30947">
		<tag k="name" v="Kikavika" />
		<tag k="natural" v="bay" />
		<tag k="ssr:stedsnr" v="246107" />
	</node>
	<node lat="59.7253750022352" lon="5.648905553572214" id="-30948">
		<tag k="name" v="Svinhagevika" />
		<tag k="natural" v="bay" />
		<tag k="ssr:stedsnr" v="246108" />
	</node>
	<node lat="59.8044722220418" lon="5.957288890667481" id="-30950">
		<tag k="alt_name" v="Matrefjorden" />
		<tag k="bay" v="fjord" />
		<tag k="name" v="Matersfjorden" />
		<tag k="natural" v="bay" />
		<tag k="ssr:stedsnr" v="246228" />
	</node>
	<node lat="59.9952416706413" lon="5.950430561798342" id="-30955">
		<tag k="name" v="Kalvtangen" />
		<tag k="natural" v="cape" />
		<tag k="ssr:stedsnr" v="246418" />
	</node>
	<node lat="59.78698610853588" lon="5.60847778620876" id="-30959">
		<tag k="alt_name" v="Passholmen" />
		<tag k="name" v="Pasholmen" />
		<tag k="place" v="islet" />
		<tag k="ssr:stedsnr" v="246374" />
	</node>
	<node lat="59.791416668803095" lon="5.743099993055381" id="-30960">
		<tag k="name" v="Landasanden" />
		<tag k="natural" v="beach" />
		<tag k="ssr:stedsnr" v="246375" />
	</node>
	<node lat="59.852022223520194" lon="5.676527780396855" id="-30968">
		<tag k="alt_name" v="Åskesholmen" />
		<tag k="name" v="Åsgardsholmen" />
		<tag k="place" v="islet" />
		<tag k="ssr:stedsnr" v="247261" />
	</node>
	<node lat="59.795299997083035" lon="5.936974992507632" id="-30969">
		<tag k="alt_name" v="Lyngnes" />
		<tag k="name" v="Lyngneset" />
		<tag k="natural" v="cape" />
		<tag k="ssr:stedsnr" v="247264" />
	</node>
	<node lat="59.972991668825436" lon="5.911783336699761" id="-30972">
		<tag k="name" v="Sætravika" />
		<tag k="natural" v="bay" />
		<tag k="ssr:stedsnr" v="247458" />
	</node>
	<node lat="59.78631944617818" lon="5.668505557474911" id="-30977">
		<tag k="name" v="Breidvika" />
		<tag k="natural" v="bay" />
		<tag k="ssr:stedsnr" v="247559" />
	</node>
	<node lat="59.963652780663075" lon="5.874036111528281" id="-30988">
		<tag k="name" v="Straumsneset" />
		<tag k="natural" v="cape" />
		<tag k="ssr:stedsnr" v="267139" />
	</node>
	<node lat="59.86493610972305" lon="5.740041662429297" id="-30995">
		<tag k="name" v="Korggardsvika" />
		<tag k="natural" v="bay" />
		<tag k="ssr:stedsnr" v="280921" />
	</node>
	<node lat="59.87066389285487" lon="5.734883330179054" id="-30996">
		<tag k="name" v="Eidet" />
		<tag k="place" v="locality" />
		<tag k="ssr:stedsnr" v="280923" />
	</node>
	<node lat="59.8084333365011" lon="5.6647694470580054" id="-30997">
		<tag k="name" v="Klubbholmsund" />
		<tag k="natural" v="strait" />
		<tag k="ssr:stedsnr" v="281002" />
	</node>
	<node lat="59.79769166517163" lon="5.648061109224346" id="-30998">
		<tag k="name" v="Sandsletta" />
		<tag k="natural" v="beach" />
		<tag k="ssr:stedsnr" v="281003" />
	</node>
	<node lat="59.801608332293824" lon="5.637450007072457" id="-30999">
		<tag k="name" v="Indersvika" />
		<tag k="natural" v="bay" />
		<tag k="ssr:stedsnr" v="281005" />
	</node>
	<node lat="59.81226944664443" lon="5.681208327899753" id="-31000">
		<tag k="name" v="Sandsund" />
		<tag k="natural" v="strait" />
		<tag k="ssr:stedsnr" v="281020" />
	</node>
	<node lat="59.72491110787451" lon="5.726952779339155" id="-31001">
		<tag k="alt_name" v="Bleikjo" />
		<tag k="name" v="Bleikja" />
		<tag k="place" v="island" />
		<tag k="ssr:stedsnr" v="281022" />
	</node>
	<node lat="59.725317061471785" lon="5.714318907820782" id="-31002">
		<tag k="name" v="Ramseidklubben" />
		<tag k="natural" v="cape" />
		<tag k="ssr:stedsnr" v="281023" />
	</node>
	<node lat="60.09376110831094" lon="6.143075006464038" id="-31015">
		<tag k="name" v="Hegjeholmen" />
		<tag k="place" v="islet" />
		<tag k="ssr:stedsnr" v="281507" />
	</node>
	<node lat="59.77973611375318" lon="5.963541674342506" id="-31016">
		<tag k="alt_name" v="Auensneset" />
		<tag k="name" v="Øyvindsnes" />
		<tag k="natural" v="cape" />
		<tag k="ssr:stedsnr" v="281580" />
	</node>
	<node lat="60.00017774222329" lon="5.800353315789725" id="-31018">
		<tag k="fixme" v="consider seamark:type=rock or natural=shoal" />
		<tag k="name" v="Tråvikskjer" />
		<tag k="place" v="islet" />
		<tag k="ssr:stedsnr" v="281827" />
=======
	<node id="-610436" lat="59.8032333335" lon="5.63738332906">
		<tag k="name" v="Indersnes" />
		<tag k="natural" v="cape" />
		<tag k="ssr:stedsnr" v="914347" />
	</node>
	<node id="-610433" lat="59.7834055546" lon="6.09497499457">
		<tag k="name" v="Kvassteinen" />
		<tag k="natural" v="cape" />
		<tag k="ssr:stedsnr" v="914320" />
	</node>
	<node id="-610431" lat="59.7858388865" lon="6.11000000448">
		<tag k="name" v="Kvernavika" />
		<tag k="natural" v="bay" />
		<tag k="ssr:stedsnr" v="914317" />
	</node>
	<node id="-612478" lat="60.0493749998" lon="6.01567221793">
		<tag k="name" v="Naustneset" />
		<tag k="natural" v="cape" />
		<tag k="ssr:stedsnr" v="644720" />
	</node>
	<node id="-610427" lat="59.7963527801" lon="5.96457500798">
		<tag k="name" v="Geitavika" />
		<tag k="natural" v="bay" />
		<tag k="ssr:stedsnr" v="914297" />
	</node>
	<node id="-612474" lat="59.7623805593" lon="6.07133889426">
		<tag k="name" v="Svovika" />
		<tag k="natural" v="bay" />
		<tag k="ssr:stedsnr" v="644693" />
	</node>
	<node id="-610422" lat="59.8790166704" lon="5.66787777457">
		<tag k="bay" v="fjord" />
		<tag k="name" v="Husnesfjorden" />
		<tag k="natural" v="bay" />
		<tag k="ssr:stedsnr" v="914275" />
	</node>
	<node id="-612468" lat="59.9826250032" lon="5.95212222212">
		<tag k="name" v="Øyratåa" />
		<tag k="natural" v="cape" />
		<tag k="ssr:stedsnr" v="644649" />
	</node>
	<node id="-612464" lat="59.793747226" lon="5.95775833856">
		<tag k="fixme" v="consider seamark:type=rock or natural=shoal" />
		<tag k="name" v="Vetlaskjer" />
		<tag k="place" v="islet" />
		<tag k="ssr:stedsnr" v="644562" />
	</node>
	<node id="-612460" lat="60.1082704594" lon="6.13496849036">
		<tag k="name" v="Munkuretangen" />
		<tag k="natural" v="cape" />
		<tag k="ssr:stedsnr" v="644530" />
	</node>
	<node id="-610150" lat="59.8258527748" lon="5.69800277733">
		<tag k="name" v="Bjellandsøya" />
		<tag k="place" v="islet" />
		<tag k="ssr:stedsnr" v="732377" />
	</node>
	<node id="-610403" lat="60.0582361073" lon="5.92287222358">
		<tag k="fixme" v="consider seamark:type=rock or natural=shoal" />
		<tag k="name" v="Solbustadskjer" />
		<tag k="place" v="islet" />
		<tag k="ssr:stedsnr" v="767878" />
	</node>
	<node id="-609195" lat="59.8381055552" lon="5.70423888871">
		<tag k="name" v="Persevja" />
		<tag k="natural" v="bay" />
		<tag k="ssr:stedsnr" v="160212" />
	</node>
	<node id="-610398" lat="59.7057194408" lon="5.72305555775">
		<tag k="name" v="Melsneset" />
		<tag k="natural" v="cape" />
		<tag k="ssr:stedsnr" v="914092" />
	</node>
	<node id="-612444" lat="59.8453250009" lon="5.68691943935">
		<tag k="name" v="Grunnevika" />
		<tag k="natural" v="bay" />
		<tag k="ssr:stedsnr" v="644278" />
	</node>
	<node id="-612435" lat="59.7029388847" lon="5.7111527781">
		<tag k="name" v="Hestaklubben" />
		<tag k="natural" v="cape" />
		<tag k="ssr:stedsnr" v="644070" />
	</node>
	<node id="-612434" lat="59.7294333377" lon="5.63585555964">
		<tag k="name" v="Bongsen" />
		<tag k="place" v="islet" />
		<tag k="ssr:stedsnr" v="644039" />
	</node>
	<node id="-612433" lat="59.7829222246" lon="5.6651750048">
		<tag k="name" v="Søra Sæternes" />
		<tag k="natural" v="cape" />
		<tag k="ssr:stedsnr" v="644001" />
	</node>
	<node id="-612430" lat="59.812352778" lon="5.7696888928">
		<tag k="name" v="Kanelen" />
		<tag k="place" v="islet" />
		<tag k="ssr:stedsnr" v="643880" />
	</node>
	<node id="-612429" lat="59.8321565414" lon="5.77086078773">
		<tag k="name" v="Klubbavika" />
		<tag k="natural" v="bay" />
		<tag k="ssr:stedsnr" v="643857" />
	</node>
	<node id="-612428" lat="59.8319749963" lon="5.75161666168">
		<tag k="name" v="Porsvika" />
		<tag k="natural" v="bay" />
		<tag k="ssr:stedsnr" v="643845" />
	</node>
	<node id="-610378" lat="59.9786583363" lon="5.92050833301">
		<tag k="name" v="Jektamevika" />
		<tag k="natural" v="bay" />
		<tag k="ssr:stedsnr" v="766925" />
	</node>
	<node id="-610377" lat="59.859455552" lon="5.70719722769">
		<tag k="name" v="Torkelsvika" />
		<tag k="natural" v="bay" />
		<tag k="ssr:stedsnr" v="766910" />
	</node>
	<node id="-612424" lat="60.0427555537" lon="6.02135555891">
		<tag k="name" v="Djupevika" />
		<tag k="natural" v="bay" />
		<tag k="ssr:stedsnr" v="630088" />
	</node>
	<node id="-612422" lat="59.9815666631" lon="5.92926110324">
		<tag k="name" v="Hågardsneset" />
		<tag k="natural" v="cape" />
		<tag k="ssr:stedsnr" v="630190" />
	</node>
	<node id="-610367" lat="60.0339027825" lon="5.75516111814">
		<tag k="name" v="Futeneset" />
		<tag k="natural" v="cape" />
		<tag k="ssr:stedsnr" v="766714" />
	</node>
	<node id="-612411" lat="60.0424111129" lon="5.92108889134">
		<tag k="name" v="Kuneset" />
		<tag k="natural" v="cape" />
		<tag k="ssr:stedsnr" v="611981" />
	</node>
	<node id="-609972" lat="59.7310555535" lon="5.7781833301">
		<tag k="name" v="Segelbergsvika" />
		<tag k="natural" v="bay" />
		<tag k="ssr:stedsnr" v="706022" />
	</node>
	<node id="-612406" lat="60.00293056" lon="5.73902777842">
		<tag k="alt_name" v="Hammarhaugsvika" />
		<tag k="name" v="Hamarhaugvika" />
		<tag k="natural" v="bay" />
		<tag k="ssr:stedsnr" v="611715" />
	</node>
	<node id="-612405" lat="60.0018999979" lon="5.72895555734">
		<tag k="alt_name" v="Hammarhaugneset" />
		<tag k="name" v="Hamarhaugneset" />
		<tag k="natural" v="cape" />
		<tag k="ssr:stedsnr" v="611714" />
	</node>
	<node id="-612400" lat="59.7949388856" lon="5.66673332554">
		<tag k="name" v="Sandvika" />
		<tag k="natural" v="bay" />
		<tag k="ssr:stedsnr" v="611587" />
	</node>
	<node id="-609229" lat="60.0387638864" lon="5.90988889073">
		<tag k="name" v="Tømmervika" />
		<tag k="natural" v="bay" />
		<tag k="ssr:stedsnr" v="280854" />
	</node>
	<node id="-610340" lat="59.867822223" lon="5.73590277455">
		<tag k="name" v="Havnaneset" />
		<tag k="natural" v="cape" />
		<tag k="ssr:stedsnr" v="765917" />
	</node>
	<node id="-612381" lat="59.9501805596" lon="5.83858055559">
		<tag k="name" v="Jektholmen" />
		<tag k="place" v="islet" />
		<tag k="ssr:stedsnr" v="610742" />
	</node>
	<node id="-610329" lat="59.7387500042" lon="5.78117499629">
		<tag k="fixme" v="multiple name tags, choose one and add the other to alt_name" />
		<tag k="name" v="Langavik;Skotvika" />
		<tag k="natural" v="bay" />
		<tag k="ssr:stedsnr" v="913123" />
	</node>
	<node id="-610328" lat="59.733691669" lon="5.72116111001">
		<tag k="name" v="Haganeset" />
		<tag k="natural" v="cape" />
		<tag k="ssr:stedsnr" v="913120" />
	</node>
	<node id="-612375" lat="59.9811249961" lon="5.92953055405">
		<tag k="name" v="Hågardsvika" />
		<tag k="natural" v="bay" />
		<tag k="ssr:stedsnr" v="610482" />
	</node>
	<node id="-610325" lat="59.983099997" lon="6.00147222361">
		<tag k="alt_name" v="Skålevika" />
		<tag k="name" v="Skålavika" />
		<tag k="natural" v="bay" />
		<tag k="ssr:stedsnr" v="752247" />
	</node>
	<node id="-612372" lat="59.7823805564" lon="5.69536944731">
		<tag k="alt_name" v="Torvaneset" />
		<tag k="name" v="Torveneset" />
		<tag k="natural" v="cape" />
		<tag k="ssr:stedsnr" v="610460" />
	</node>
	<node id="-612364" lat="59.8468027784" lon="5.67740555516">
		<tag k="alt_name" v="Stovik" />
		<tag k="fixme" v="multiple name tags, choose one and add the other to alt_name" />
		<tag k="name" v="Storvika;Støvika" />
		<tag k="natural" v="bay" />
		<tag k="ssr:stedsnr" v="610323" />
	</node>
	<node id="-612357" lat="59.8183000023" lon="5.72912500411">
		<tag k="alt_name" v="Søre Kolsøya" />
		<tag k="name" v="Kolsøya" />
		<tag k="place" v="islet" />
		<tag k="ssr:stedsnr" v="610398" />
	</node>
	<node id="-612355" lat="59.8134138922" lon="5.63168332824">
		<tag k="name" v="Hardinganeset" />
		<tag k="natural" v="cape" />
		<tag k="ssr:stedsnr" v="610394" />
	</node>
	<node id="-610305" lat="59.7338305534" lon="5.77937499471">
		<tag k="name" v="Skiftesvika" />
		<tag k="natural" v="bay" />
		<tag k="ssr:stedsnr" v="731106" />
>>>>>>> e1d4bc35ff8a6074a6f2e91616a996b547c36f15
	</node>
</osm>
