<?xml version="1.0" encoding="UTF-8"?>
<osm version="0.6" generator="osmapis">
	<node lat="59.967066664180756" lon="6.0800361184877" id="-29249">
		<tag k="fixme" v="consider natural=peak for the most distinct mountains in the district" />
		<tag k="name" v="Botnafjell" />
		<tag k="natural" v="hill" />
		<tag k="place" v="locality" />
		<tag k="ssr:stedsnr" v="3428" />
	</node>
	<node lat="59.910616662528454" lon="5.825613893221317" id="-29253">
		<tag k="fixme" v="consider natural=peak for the most distinct mountains in the district" />
		<tag k="name" v="Nipen" />
		<tag k="natural" v="hill" />
		<tag k="place" v="locality" />
		<tag k="ssr:stedsnr" v="3679" />
	</node>
	<node lat="59.87930555598624" lon="5.9818000088190715" id="-29254">
		<tag k="alt_name" v="Såta, nordre;Nordre Såta" />
		<tag k="name" v="Nordra Såta" />
		<tag k="natural" v="hill" />
		<tag k="place" v="locality" />
		<tag k="ssr:stedsnr" v="4114" />
	</node>
	<node lat="60.103324996570414" lon="6.234511110649442" id="-29255">
		<tag k="alt_name" v="Krokagjelet" />
		<tag k="name" v="Krokagilet" />
		<tag k="natural" v="valley" />
		<tag k="place" v="locality" />
		<tag k="ssr:stedsnr" v="4123" />
	</node>
	<node lat="59.96206666393559" lon="6.178099991814709" id="-29260">
		<tag k="fixme" v="consider natural=peak for the most distinct mountains in the district" />
		<tag k="name" v="Fossarusta" />
		<tag k="natural" v="hill" />
		<tag k="place" v="locality" />
		<tag k="ssr:stedsnr" v="4023" />
	</node>
	<node lat="59.91736666694634" lon="5.937108332358855" id="-29264">
		<tag k="fixme" v="consider natural=peak for the most distinct mountains in the district" />
		<tag k="name" v="Hauglandsfjellet" />
		<tag k="natural" v="hill" />
		<tag k="place" v="locality" />
		<tag k="ssr:stedsnr" v="4077" />
	</node>
	<node lat="59.91322500376908" lon="6.004936115649876" id="-29266">
		<tag k="name" v="Kyllarshaug" />
		<tag k="natural" v="hill" />
		<tag k="place" v="locality" />
		<tag k="ssr:stedsnr" v="4093" />
	</node>
	<node lat="59.79088889233795" lon="6.052175003479747" id="-29268">
		<tag k="name" v="Krakaheia" />
		<tag k="natural" v="hill" />
		<tag k="place" v="locality" />
		<tag k="ssr:stedsnr" v="4315" />
	</node>
	<node lat="59.78125833104845" lon="6.025958330691742" id="-29269">
		<tag k="fixme" v="multiple name tags, choose one and add the other to alt_name; consider natural=peak for the most distinct mountains in the district" />
		<tag k="name" v="Galtaåsen;Foserhei" />
		<tag k="natural" v="hill" />
		<tag k="place" v="locality" />
		<tag k="ssr:stedsnr" v="4319" />
	</node>
	<node lat="59.84199999931351" lon="5.772833325207641" id="-29270">
		<tag k="name" v="Teigalia" />
		<tag k="natural" v="slope" />
		<tag k="place" v="locality" />
		<tag k="ssr:stedsnr" v="4321" />
	</node>
	<node lat="60.173141662864666" lon="6.3371805622834145" id="-29273">
		<tag k="fixme" v="consider natural=peak for the most distinct mountains in the district" />
		<tag k="name" v="Skramben" />
		<tag k="natural" v="hill" />
		<tag k="place" v="locality" />
		<tag k="ssr:stedsnr" v="4214" />
	</node>
	<node lat="59.9477027738783" lon="6.245508326599091" id="-29277">
		<tag k="name" v="Grøndalen" />
		<tag k="natural" v="valley" />
		<tag k="place" v="locality" />
		<tag k="ssr:stedsnr" v="4425" />
	</node>
	<node lat="60.194349995838266" lon="6.341505560990457" id="-29279">
		<tag k="name" v="Skyrdalen" />
		<tag k="natural" v="valley" />
		<tag k="place" v="locality" />
		<tag k="ssr:stedsnr" v="4862" />
	</node>
	<node lat="60.02885000442563" lon="6.156588885332979" id="-29280">
		<tag k="name" v="Vatnastølsheia" />
		<tag k="natural" v="hill" />
		<tag k="place" v="locality" />
		<tag k="ssr:stedsnr" v="4772" />
	</node>
	<node lat="60.02386388771433" lon="6.026141672580112" id="-29281">
		<tag k="fixme" v="consider natural=peak for the most distinct mountains in the district" />
		<tag k="loc_name" v="Øykjafjell" />
		<tag k="name" v="Øykjafjellet" />
		<tag k="natural" v="hill" />
		<tag k="place" v="locality" />
		<tag k="ssr:stedsnr" v="4775" />
	</node>
	<node lat="60.05995000265222" lon="6.279763888639604" id="-29285">
		<tag k="name" v="Fossane" />
		<tag k="natural" v="slope" />
		<tag k="place" v="locality" />
		<tag k="ssr:stedsnr" v="5079" />
	</node>
	<node lat="59.79365278156952" lon="5.8591138900489135" id="-29294">
		<tag k="fixme" v="consider natural=peak for the most distinct mountains in the district" />
		<tag k="name" v="Lindalsfjellet" />
		<tag k="natural" v="hill" />
		<tag k="place" v="locality" />
		<tag k="ssr:stedsnr" v="37862" />
	</node>
	<node lat="59.81361666406832" lon="6.064249997262856" id="-29295">
		<tag k="name" v="Abrahamhaugen" />
		<tag k="natural" v="hill" />
		<tag k="place" v="locality" />
		<tag k="ssr:stedsnr" v="37704" />
	</node>
	<node lat="59.78795555354137" lon="6.065583329719068" id="-29296">
		<tag k="name" v="Storhaug" />
		<tag k="natural" v="hill" />
		<tag k="place" v="locality" />
		<tag k="ssr:stedsnr" v="37715" />
	</node>
	<node lat="59.777380553795744" lon="6.064144450299414" id="-29297">
		<tag k="name" v="Årahaugen" />
		<tag k="natural" v="hill" />
		<tag k="place" v="locality" />
		<tag k="ssr:stedsnr" v="37725" />
	</node>
	<node lat="59.778083330297626" lon="5.786199993698765" id="-29305">
		<tag k="name" v="Kålhaug" />
		<tag k="natural" v="hill" />
		<tag k="place" v="locality" />
		<tag k="ssr:stedsnr" v="38058" />
	</node>
	<node lat="59.77302499568629" lon="5.805961104999089" id="-29306">
		<tag k="name" v="Kolheller" />
		<tag k="natural" v="hill" />
		<tag k="place" v="locality" />
		<tag k="ssr:stedsnr" v="38063" />
	</node>
	<node lat="59.74013888590645" lon="5.768011110007927" id="-29307">
		<tag k="name" v="Buhildrane" />
		<tag k="place" v="locality" />
		<tag k="ssr:stedsnr" v="38066" />
	</node>
	<node lat="59.77272221922339" lon="5.772394440368926" id="-29308">
		<tag k="name" v="Ørnahelleren" />
		<tag k="place" v="locality" />
		<tag k="ssr:stedsnr" v="38070" />
	</node>
	<node lat="59.73675555590178" lon="5.66194445107204" id="-29309">
		<tag k="fixme" v="consider natural=peak for the most distinct mountains in the district" />
		<tag k="name" v="Nakkaheia" />
		<tag k="natural" v="hill" />
		<tag k="place" v="locality" />
		<tag k="ssr:stedsnr" v="38076" />
	</node>
	<node lat="59.87305000244326" lon="5.985497222618285" id="-29310">
		<tag k="name" v="Åstigebakkane" />
		<tag k="natural" v="slope" />
		<tag k="place" v="locality" />
		<tag k="ssr:stedsnr" v="38218" />
	</node>
	<node lat="59.84365000398621" lon="5.70615277862421" id="-29311">
		<tag k="name" v="Stølshaugen" />
		<tag k="natural" v="hill" />
		<tag k="place" v="locality" />
		<tag k="ssr:stedsnr" v="38301" />
	</node>
	<node lat="60.13732222439978" lon="6.205322226721087" id="-29312">
		<tag k="name" v="Kilsdalen" />
		<tag k="natural" v="valley" />
		<tag k="place" v="locality" />
		<tag k="ssr:stedsnr" v="38395" />
	</node>
	<node lat="60.087841666657965" lon="6.099833327609485" id="-29313">
		<tag k="name" v="Staurahola" />
		<tag k="natural" v="valley" />
		<tag k="place" v="locality" />
		<tag k="ssr:stedsnr" v="38505" />
	</node>
	<node lat="59.76157222637381" lon="6.0017027818586" id="-29316">
		<tag k="name" v="Tjørnahaugen" />
		<tag k="natural" v="hill" />
		<tag k="place" v="locality" />
		<tag k="ssr:stedsnr" v="38531" />
	</node>
	<node lat="59.94927777511729" lon="5.842119442894472" id="-29317">
		<tag k="name" v="Vågareset" />
		<tag k="natural" v="ridge" />
		<tag k="place" v="locality" />
		<tag k="ssr:stedsnr" v="38541" />
	</node>
	<node lat="60.14298055230401" lon="6.237961111313518" id="-29318">
		<tag k="name" v="Elvahaugen" />
		<tag k="natural" v="hill" />
		<tag k="place" v="locality" />
		<tag k="ssr:stedsnr" v="38403" />
	</node>
	<node lat="60.087369440647755" lon="6.167647228010545" id="-29319">
		<tag k="name" v="Dyrlia" />
		<tag k="natural" v="slope" />
		<tag k="place" v="locality" />
		<tag k="ssr:stedsnr" v="38408" />
	</node>
	<node lat="60.07966944021745" lon="6.279436112935014" id="-29320">
		<tag k="name" v="Furehaugen" />
		<tag k="natural" v="hill" />
		<tag k="place" v="locality" />
		<tag k="ssr:stedsnr" v="38410" />
	</node>
	<node lat="60.09860277341115" lon="6.207499991798657" id="-29321">
		<tag k="name" v="Geitatunga" />
		<tag k="natural" v="ridge" />
		<tag k="place" v="locality" />
		<tag k="ssr:stedsnr" v="38418" />
	</node>
	<node lat="59.83442222624977" lon="6.023022218521012" id="-29323">
		<tag k="name" v="Dyrshaug" />
		<tag k="natural" v="hill" />
		<tag k="place" v="locality" />
		<tag k="ssr:stedsnr" v="38606" />
	</node>
	<node lat="59.91079999873254" lon="5.938341675055492" id="-29324">
		<tag k="name" v="Midtselet" />
		<tag k="place" v="locality" />
		<tag k="ssr:stedsnr" v="38621" />
	</node>
	<node lat="60.03664444821462" lon="5.728733330695387" id="-29325">
		<tag k="name" v="Trolladalshaugen" />
		<tag k="natural" v="hill" />
		<tag k="place" v="locality" />
		<tag k="ssr:stedsnr" v="38717" />
	</node>
	<node lat="60.03736110867809" lon="6.106608328480664" id="-29326">
		<tag k="name" v="Storabrotet" />
		<tag k="natural" v="hill" />
		<tag k="place" v="locality" />
		<tag k="ssr:stedsnr" v="38771" />
	</node>
	<node lat="60.04553055118452" lon="6.143647213858349" id="-29327">
		<tag k="name" v="Bytten" />
		<tag k="place" v="locality" />
		<tag k="ssr:stedsnr" v="38781" />
	</node>
	<node lat="60.0734277757312" lon="5.886908328710836" id="-29332">
		<tag k="name" v="Klypet" />
		<tag k="natural" v="valley" />
		<tag k="place" v="locality" />
		<tag k="ssr:stedsnr" v="38812" />
	</node>
	<node lat="60.069944448140284" lon="5.86598334092892" id="-29333">
		<tag k="fixme" v="consider natural=peak for the most distinct mountains in the district" />
		<tag k="name" v="Nordåsen" />
		<tag k="natural" v="hill" />
		<tag k="place" v="locality" />
		<tag k="ssr:stedsnr" v="38825" />
	</node>
	<node lat="59.97818611510173" lon="5.928799992074962" id="-29336">
		<tag k="name" v="Midgardsdalen" />
		<tag k="natural" v="valley" />
		<tag k="place" v="locality" />
		<tag k="ssr:stedsnr" v="38878" />
	</node>
	<node lat="60.0895027773541" lon="6.294450001073385" id="-29338">
		<tag k="name" v="Sauabakkreset" />
		<tag k="natural" v="ridge" />
		<tag k="place" v="locality" />
		<tag k="ssr:stedsnr" v="39265" />
	</node>
	<node lat="59.989388888663065" lon="5.842830549303884" id="-29339">
		<tag k="name" v="Nausthaugen" />
		<tag k="natural" v="hill" />
		<tag k="place" v="locality" />
		<tag k="ssr:stedsnr" v="39807" />
	</node>
	<node lat="59.84284721939738" lon="6.038800003153048" id="-29344">
		<tag k="fixme" v="consider natural=peak for the most distinct mountains in the district" />
		<tag k="name" v="Bergfjellet" />
		<tag k="natural" v="hill" />
		<tag k="place" v="locality" />
		<tag k="ssr:stedsnr" v="239642" />
	</node>
	<node lat="59.88865555642284" lon="6.086319438935439" id="-29345">
		<tag k="fixme" v="consider natural=peak for the most distinct mountains in the district" />
		<tag k="name" v="Jamtelandsegga" />
		<tag k="natural" v="hill" />
		<tag k="place" v="locality" />
		<tag k="ssr:stedsnr" v="64101" />
	</node>
	<node lat="59.87563611485208" lon="5.9935861190376745" id="-29349">
		<tag k="alt_name" v="Søre Gråfjellsenden" />
		<tag k="fixme" v="consider natural=peak for the most distinct mountains in the district" />
		<tag k="name" v="Gråfjellsenden" />
		<tag k="natural" v="hill" />
		<tag k="place" v="locality" />
		<tag k="ssr:stedsnr" v="64120" />
	</node>
	<node lat="59.85524999716162" lon="6.058749998444644" id="-29350">
		<tag k="fixme" v="consider natural=peak for the most distinct mountains in the district" />
		<tag k="name" v="Lauvåsen" />
		<tag k="natural" v="hill" />
		<tag k="place" v="locality" />
		<tag k="ssr:stedsnr" v="64146" />
	</node>
	<node lat="59.8963499985391" lon="5.875605563366552" id="-29357">
		<tag k="fixme" v="consider natural=peak for the most distinct mountains in the district" />
		<tag k="name" v="Englafjell" />
		<tag k="natural" v="hill" />
		<tag k="place" v="locality" />
		<tag k="ssr:stedsnr" v="64075" />
	</node>
	<node lat="59.9130666677069" lon="6.087380559566502" id="-29358">
		<tag k="fixme" v="consider natural=peak for the most distinct mountains in the district" />
		<tag k="name" v="Brattagrød" />
		<tag k="natural" v="hill" />
		<tag k="place" v="locality" />
		<tag k="ssr:stedsnr" v="64079" />
	</node>
	<node lat="59.89409722139637" lon="5.785466659356283" id="-29361">
		<tag k="fixme" v="multiple name tags, choose one and add the other to alt_name" />
		<tag k="name" v="Gråskallen;Slottet" />
		<tag k="natural" v="hill" />
		<tag k="place" v="locality" />
		<tag k="ssr:stedsnr" v="64264" />
	</node>
	<node lat="59.9699111070055" lon="6.142286108894225" id="-29362">
		<tag k="fixme" v="consider natural=peak for the most distinct mountains in the district" />
		<tag k="name" v="Rusta" />
		<tag k="natural" v="hill" />
		<tag k="place" v="locality" />
		<tag k="ssr:stedsnr" v="64468" />
	</node>
	<node lat="59.82933888965731" lon="6.037375004168345" id="-29366">
		<tag k="name" v="Fagerdalen" />
		<tag k="natural" v="valley" />
		<tag k="place" v="locality" />
		<tag k="ssr:stedsnr" v="65210" />
	</node>
	<node lat="60.15175000215051" lon="6.3205305527930715" id="-29367">
		<tag k="fixme" v="consider natural=peak for the most distinct mountains in the district" />
		<tag k="name" v="Bjørnhammar" />
		<tag k="natural" v="hill" />
		<tag k="place" v="locality" />
		<tag k="ssr:stedsnr" v="65216" />
	</node>
	<node lat="60.16705000278349" lon="6.34382499378436" id="-29369">
		<tag k="name" v="Botnagilet" />
		<tag k="natural" v="valley" />
		<tag k="place" v="locality" />
		<tag k="ssr:stedsnr" v="65220" />
	</node>
	<node lat="59.83347500290007" lon="5.9220083396969825" id="-29370">
		<tag k="name" v="Guriflota" />
		<tag k="place" v="locality" />
		<tag k="ssr:stedsnr" v="65221" />
	</node>
	<node lat="60.098466669976645" lon="6.261944443235167" id="-29373">
		<tag k="alt_name" v="Langagjelskroa;Langagjelet" />
		<tag k="name" v="Langagilet" />
		<tag k="natural" v="valley" />
		<tag k="place" v="locality" />
		<tag k="ssr:stedsnr" v="65116" />
	</node>
	<node lat="59.880774999310574" lon="6.174238894639898" id="-29375">
		<tag k="name" v="Stutabotn" />
		<tag k="natural" v="valley" />
		<tag k="place" v="locality" />
		<tag k="ssr:stedsnr" v="65125" />
	</node>
	<node lat="59.849438892780654" lon="6.072355549057899" id="-29376">
		<tag k="fixme" v="consider natural=peak for the most distinct mountains in the district" />
		<tag k="name" v="Skorafjellsenden" />
		<tag k="natural" v="hill" />
		<tag k="place" v="locality" />
		<tag k="ssr:stedsnr" v="65179" />
	</node>
	<node lat="60.07425555546282" lon="6.177436114792797" id="-29386">
		<tag k="fixme" v="consider natural=peak for the most distinct mountains in the district" />
		<tag k="name" v="Dyrskardheia" />
		<tag k="natural" v="hill" />
		<tag k="place" v="locality" />
		<tag k="ssr:stedsnr" v="65964" />
	</node>
	<node lat="60.059180554874104" lon="6.161599992558372" id="-29388">
		<tag k="fixme" v="consider natural=peak for the most distinct mountains in the district" />
		<tag k="name" v="Gygrastolen" />
		<tag k="natural" v="hill" />
		<tag k="place" v="locality" />
		<tag k="ssr:stedsnr" v="65968" />
	</node>
	<node lat="60.02083888469731" lon="5.74072778288558" id="-29389">
		<tag k="fixme" v="consider natural=peak for the most distinct mountains in the district" />
		<tag k="name" v="Lauvåsen" />
		<tag k="natural" v="hill" />
		<tag k="place" v="locality" />
		<tag k="ssr:stedsnr" v="66597" />
	</node>
	<node lat="60.049350002223555" lon="6.094924999938928" id="-29390">
		<tag k="name" v="Rundehaugen" />
		<tag k="natural" v="hill" />
		<tag k="place" v="locality" />
		<tag k="ssr:stedsnr" v="66993" />
	</node>
	<node lat="60.0492444428152" lon="6.132105561684648" id="-29391">
		<tag k="name" v="Hestabotnen" />
		<tag k="natural" v="valley" />
		<tag k="place" v="locality" />
		<tag k="ssr:stedsnr" v="66994" />
	</node>
	<node lat="59.901849997972526" lon="5.975711102688003" id="-29400">
		<tag k="name" v="Vardahaugen" />
		<tag k="natural" v="hill" />
		<tag k="place" v="locality" />
		<tag k="ssr:stedsnr" v="246081" />
	</node>
	<node lat="59.89628333174633" lon="6.110511113956109" id="-29401">
		<tag k="name" v="Grøningsdalsøyra" />
		<tag k="place" v="locality" />
		<tag k="ssr:stedsnr" v="246098" />
	</node>
	<node lat="59.808786112205645" lon="6.049883337991851" id="-29405">
		<tag k="fixme" v="consider natural=peak for the most distinct mountains in the district" />
		<tag k="name" v="Veslafjellet" />
		<tag k="natural" v="hill" />
		<tag k="place" v="locality" />
		<tag k="ssr:stedsnr" v="246237" />
	</node>
	<node lat="59.81333889346538" lon="6.008983336914119" id="-29406">
		<tag k="name" v="Øykjamyrhaugane" />
		<tag k="natural" v="hill" />
		<tag k="place" v="locality" />
		<tag k="ssr:stedsnr" v="246242" />
	</node>
	<node lat="59.801238886430305" lon="5.939569436580193" id="-29407">
		<tag k="name" v="Svinalia" />
		<tag k="natural" v="slope" />
		<tag k="place" v="locality" />
		<tag k="ssr:stedsnr" v="246249" />
	</node>
	<node lat="59.84221388969718" lon="5.773544438051424" id="-29408">
		<tag k="name" v="Kokkelberg" />
		<tag k="natural" v="hill" />
		<tag k="place" v="locality" />
		<tag k="ssr:stedsnr" v="246326" />
	</node>
	<node lat="59.77515277678986" lon="5.993194453141507" id="-29411">
		<tag k="name" v="Apalehaugen" />
		<tag k="natural" v="hill" />
		<tag k="place" v="locality" />
		<tag k="ssr:stedsnr" v="246332" />
	</node>
	<node lat="59.768005553399846" lon="5.977124994015997" id="-29416">
		<tag k="alt_name" v="Bodlarlaupen" />
		<tag k="name" v="Bollarelaupen" />
		<tag k="natural" v="slope" />
		<tag k="place" v="locality" />
		<tag k="ssr:stedsnr" v="246358" />
	</node>
	<node lat="59.92785277979849" lon="5.971641674828656" id="-29420">
		<tag k="name" v="Nonshaugen" />
		<tag k="natural" v="hill" />
		<tag k="place" v="locality" />
		<tag k="ssr:stedsnr" v="247052" />
	</node>
	<node lat="60.10795277458231" lon="6.388950001980686" id="-29421">
		<tag k="fixme" v="consider natural=peak for the most distinct mountains in the district" />
		<tag k="name" v="Urdabotnshorga" />
		<tag k="natural" v="hill" />
		<tag k="place" v="locality" />
		<tag k="ssr:stedsnr" v="247134" />
	</node>
	<node lat="60.14303889106051" lon="6.235502778135373" id="-29427">
		<tag k="name" v="Øvrabøskotet" />
		<tag k="natural" v="slope" />
		<tag k="place" v="locality" />
		<tag k="ssr:stedsnr" v="247197" />
	</node>
	<node lat="60.13645277834288" lon="6.236669436165754" id="-29428">
		<tag k="name" v="Gjetingsdalen" />
		<tag k="natural" v="valley" />
		<tag k="place" v="locality" />
		<tag k="ssr:stedsnr" v="247200" />
	</node>
	<node lat="60.15311666754477" lon="6.355613896787953" id="-29430">
		<tag k="name" v="Juldalsgilet" />
		<tag k="natural" v="valley" />
		<tag k="place" v="locality" />
		<tag k="ssr:stedsnr" v="247209" />
	</node>
	<node lat="60.16866389293914" lon="6.2900694417624115" id="-29434">
		<tag k="name" v="Higraberget" />
		<tag k="natural" v="hill" />
		<tag k="place" v="locality" />
		<tag k="ssr:stedsnr" v="247241" />
	</node>
	<node lat="59.804780557577814" lon="6.0425833257037445" id="-29436">
		<tag k="name" v="Snelldalen" />
		<tag k="natural" v="valley" />
		<tag k="place" v="locality" />
		<tag k="ssr:stedsnr" v="247254" />
	</node>
	<node lat="59.76451111535771" lon="6.020724996591948" id="-29444">
		<tag k="name" v="Amlandsheia" />
		<tag k="natural" v="hill" />
		<tag k="place" v="locality" />
		<tag k="ssr:stedsnr" v="247352" />
	</node>
	<node lat="60.165441663573674" lon="6.017805546963722" id="-29448">
		<tag k="name" v="Varakjelen" />
		<tag k="natural" v="hill" />
		<tag k="place" v="locality" />
		<tag k="ssr:stedsnr" v="247539" />
	</node>
	<node lat="60.04221110984097" lon="5.815980547844764" id="-29453">
		<tag k="alt_name" v="Setradalen" />
		<tag k="name" v="Sætradalen" />
		<tag k="natural" v="valley" />
		<tag k="place" v="locality" />
		<tag k="ssr:stedsnr" v="247634" />
	</node>
	<node lat="60.013277774012955" lon="5.750861110493586" id="-29456">
		<tag k="fixme" v="consider natural=peak for the most distinct mountains in the district" />
		<tag k="name" v="Sjuråsen" />
		<tag k="natural" v="hill" />
		<tag k="place" v="locality" />
		<tag k="ssr:stedsnr" v="247701" />
	</node>
	<node lat="60.07841111500119" lon="5.888822224348701" id="-29457">
		<tag k="name" v="Haukadalen" />
		<tag k="natural" v="valley" />
		<tag k="place" v="locality" />
		<tag k="ssr:stedsnr" v="97829" />
	</node>
	<node lat="60.106594448347394" lon="6.2253250024051905" id="-29461">
		<tag k="name" v="Høgaberget" />
		<tag k="natural" v="hill" />
		<tag k="place" v="locality" />
		<tag k="ssr:stedsnr" v="98172" />
	</node>
	<node lat="60.13176666377456" lon="6.037350008407864" id="-29462">
		<tag k="fixme" v="consider natural=peak for the most distinct mountains in the district" />
		<tag k="name" v="Øyefjellet" />
		<tag k="natural" v="hill" />
		<tag k="place" v="locality" />
		<tag k="ssr:stedsnr" v="247867" />
	</node>
	<node lat="59.911172226346594" lon="6.000550007756579" id="-29464">
		<tag k="name" v="Svartaberget" />
		<tag k="natural" v="hill" />
		<tag k="place" v="locality" />
		<tag k="ssr:stedsnr" v="98608" />
	</node>
	<node lat="59.99673888981514" lon="6.002608327640556" id="-29467">
		<tag k="fixme" v="consider natural=peak for the most distinct mountains in the district" />
		<tag k="name" v="Røssås" />
		<tag k="natural" v="hill" />
		<tag k="place" v="locality" />
		<tag k="ssr:stedsnr" v="98683" />
	</node>
	<node lat="60.03696666961138" lon="5.8928888825283465" id="-29468">
		<tag k="fixme" v="consider natural=peak for the most distinct mountains in the district" />
		<tag k="name" v="Eikåsen" />
		<tag k="natural" v="hill" />
		<tag k="place" v="locality" />
		<tag k="ssr:stedsnr" v="98859" />
	</node>
	<node lat="60.02999721827144" lon="5.897927771940326" id="-29469">
		<tag k="name" v="Skiparhaugen" />
		<tag k="natural" v="hill" />
		<tag k="place" v="locality" />
		<tag k="ssr:stedsnr" v="98865" />
	</node>
	<node lat="59.828197224400945" lon="5.809258327083172" id="-29470">
		<tag k="name" v="Bjorkedalen" />
		<tag k="natural" v="valley" />
		<tag k="place" v="locality" />
		<tag k="ssr:stedsnr" v="98866" />
	</node>
	<node lat="60.07059722073525" lon="5.891333324545155" id="-29473">
		<tag k="name" v="Årehaugen" />
		<tag k="natural" v="hill" />
		<tag k="place" v="locality" />
		<tag k="ssr:stedsnr" v="98760" />
	</node>
	<node lat="59.76032222625295" lon="5.7548833352223845" id="-29475">
		<tag k="name" v="Kastet" />
		<tag k="natural" v="hill" />
		<tag k="place" v="locality" />
		<tag k="ssr:stedsnr" v="99113" />
	</node>
	<node lat="60.132305558312105" lon="6.225888890969121" id="-29479">
		<tag k="name" v="Kolhaug" />
		<tag k="natural" v="hill" />
		<tag k="place" v="locality" />
		<tag k="ssr:stedsnr" v="99369" />
	</node>
	<node lat="60.12628611195137" lon="6.220594449988042" id="-29480">
		<tag k="name" v="Skompegjelet" />
		<tag k="natural" v="gorge" />
		<tag k="ssr:stedsnr" v="99378" />
	</node>
	<node lat="59.77593055457164" lon="5.787461117791831" id="-29481">
		<tag k="fixme" v="consider natural=peak for the most distinct mountains in the district" />
		<tag k="name" v="Storarusta" />
		<tag k="natural" v="hill" />
		<tag k="place" v="locality" />
		<tag k="ssr:stedsnr" v="99063" />
	</node>
	<node lat="59.78170555418269" lon="5.775966666392956" id="-29482">
		<tag k="name" v="Mjølkhaug" />
		<tag k="natural" v="hill" />
		<tag k="place" v="locality" />
		<tag k="ssr:stedsnr" v="99065" />
	</node>
	<node lat="59.79120277378108" lon="5.672486119080458" id="-29483">
		<tag k="name" v="Småvikhaugane" />
		<tag k="natural" v="hill" />
		<tag k="place" v="locality" />
		<tag k="ssr:stedsnr" v="99082" />
	</node>
	<node lat="60.09319722156628" lon="6.277661111111811" id="-29485">
		<tag k="name" v="Vasskredskorane" />
		<tag k="place" v="locality" />
		<tag k="ssr:stedsnr" v="99259" />
	</node>
	<node lat="59.921713889601556" lon="5.890255548843838" id="-29486">
		<tag k="name" v="Langhaug" />
		<tag k="natural" v="hill" />
		<tag k="place" v="locality" />
		<tag k="ssr:stedsnr" v="99271" />
	</node>
	<node lat="60.152588892451114" lon="6.243588892801649" id="-29487">
		<tag k="name" v="Raunelihaugen" />
		<tag k="natural" v="hill" />
		<tag k="place" v="locality" />
		<tag k="ssr:stedsnr" v="99402" />
	</node>
	<node lat="60.11106110705455" lon="6.260283330658732" id="-29488">
		<tag k="name" v="Bråkali" />
		<tag k="natural" v="slope" />
		<tag k="place" v="locality" />
		<tag k="ssr:stedsnr" v="99419" />
	</node>
	<node lat="60.07223611097845" lon="6.105611118481964" id="-29489">
		<tag k="name" v="Lunnamyrhaug" />
		<tag k="natural" v="hill" />
		<tag k="place" v="locality" />
		<tag k="ssr:stedsnr" v="99478" />
	</node>
	<node lat="60.089488893052135" lon="6.1069916579812" id="-29490">
		<tag k="name" v="Ormabrotet" />
		<tag k="natural" v="slope" />
		<tag k="place" v="locality" />
		<tag k="ssr:stedsnr" v="99507" />
	</node>
	<node lat="60.01070277691579" lon="5.884155563240531" id="-29491">
		<tag k="name" v="Bjørgane" />
		<tag k="natural" v="slope" />
		<tag k="place" v="locality" />
		<tag k="ssr:stedsnr" v="99764" />
	</node>
	<node lat="59.99953333603185" lon="5.834194447882874" id="-29493">
		<tag k="name" v="Midtskaret" />
		<tag k="natural" v="valley" />
		<tag k="place" v="locality" />
		<tag k="ssr:stedsnr" v="99862" />
	</node>
	<node lat="60.02072499962889" lon="5.897541662084387" id="-29494">
		<tag k="name" v="Djupedalen" />
		<tag k="natural" v="valley" />
		<tag k="place" v="locality" />
		<tag k="ssr:stedsnr" v="99864" />
	</node>
	<node lat="60.12449721943911" lon="6.043852776269585" id="-29498">
		<tag k="name" v="Gjelpallen" />
		<tag k="natural" v="hill" />
		<tag k="place" v="locality" />
		<tag k="ssr:stedsnr" v="99922" />
	</node>
	<node lat="59.91285555390327" lon="5.801999995506022" id="-29501">
		<tag k="name" v="Morhaug" />
		<tag k="natural" v="hill" />
		<tag k="place" v="locality" />
		<tag k="ssr:stedsnr" v="99966" />
	</node>
	<node lat="59.784633330138504" lon="5.893863887535515" id="-29503">
		<tag k="name" v="Stavarehaugen" />
		<tag k="natural" v="hill" />
		<tag k="place" v="locality" />
		<tag k="ssr:stedsnr" v="99969" />
	</node>
	<node lat="59.8445361077095" lon="5.914663887851742" id="-29504">
		<tag k="name" v="Knutahusdal" />
		<tag k="natural" v="valley" />
		<tag k="place" v="locality" />
		<tag k="ssr:stedsnr" v="99972" />
	</node>
	<node lat="60.09496388716952" lon="5.996466665715893" id="-29505">
		<tag k="name" v="Høgestølen" />
		<tag k="natural" v="hill" />
		<tag k="place" v="locality" />
		<tag k="ssr:stedsnr" v="99973" />
	</node>
	<node lat="59.81996111566269" lon="5.890444446902249" id="-29506">
		<tag k="name" v="Storhaugen" />
		<tag k="natural" v="hill" />
		<tag k="place" v="locality" />
		<tag k="ssr:stedsnr" v="99975" />
	</node>
	<node lat="60.12888611246094" lon="6.039499990908613" id="-29508">
		<tag k="fixme" v="consider natural=peak for the most distinct mountains in the district" />
		<tag k="name" v="Varden" />
		<tag k="natural" v="hill" />
		<tag k="place" v="locality" />
		<tag k="ssr:stedsnr" v="248886" />
	</node>
	<node lat="59.786844441192144" lon="5.962661110513694" id="-29512">
		<tag k="name" v="Noddal" />
		<tag k="natural" v="valley" />
		<tag k="place" v="locality" />
		<tag k="ssr:stedsnr" v="105914" />
	</node>
	<node lat="59.735808331528986" lon="5.717605560030625" id="-29514">
		<tag k="fixme" v="consider natural=peak for the most distinct mountains in the district" />
		<tag k="name" v="Aråsen" />
		<tag k="natural" v="hill" />
		<tag k="place" v="locality" />
		<tag k="ssr:stedsnr" v="124106" />
	</node>
	<node lat="59.956505559724405" lon="6.048433334570531" id="-29517">
		<tag k="name" v="Trolldalshaugen" />
		<tag k="natural" v="hill" />
		<tag k="place" v="locality" />
		<tag k="ssr:stedsnr" v="125002" />
	</node>
	<node lat="59.9538361135771" lon="6.01169444920714" id="-29521">
		<tag k="fixme" v="consider natural=peak for the most distinct mountains in the district" />
		<tag k="name" v="Seimsaksla" />
		<tag k="natural" v="hill" />
		<tag k="place" v="locality" />
		<tag k="ssr:stedsnr" v="125001" />
	</node>
	<node lat="59.89610277881752" lon="6.160258333758454" id="-29522">
		<tag k="name" v="Slettavika" />
		<tag k="place" v="locality" />
		<tag k="ssr:stedsnr" v="125106" />
	</node>
	<node lat="59.893830556509" lon="5.9269194403710985" id="-29524">
		<tag k="fixme" v="consider natural=peak for the most distinct mountains in the district" />
		<tag k="name" v="Vesletind" />
		<tag k="natural" v="hill" />
		<tag k="place" v="locality" />
		<tag k="ssr:stedsnr" v="125111" />
	</node>
	<node lat="59.82979999832542" lon="5.943124996841064" id="-29525">
		<tag k="fixme" v="consider natural=peak for the most distinct mountains in the district" />
		<tag k="name" v="Skuleåsen" />
		<tag k="natural" v="hill" />
		<tag k="place" v="locality" />
		<tag k="ssr:stedsnr" v="125250" />
	</node>
	<node lat="60.16767778149063" lon="6.392216669780296" id="-29526">
		<tag k="name" v="Svartedalen" />
		<tag k="natural" v="valley" />
		<tag k="place" v="locality" />
		<tag k="ssr:stedsnr" v="125253" />
	</node>
	<node lat="59.759175002626954" lon="5.766816667416509" id="-29530">
		<tag k="name" v="Kjøberghaugen" />
		<tag k="natural" v="hill" />
		<tag k="place" v="locality" />
		<tag k="ssr:stedsnr" v="125429" />
	</node>
	<node lat="59.84598888711749" lon="6.0856749929682215" id="-29533">
		<tag k="name" v="Fagnabotn" />
		<tag k="natural" v="valley" />
		<tag k="place" v="locality" />
		<tag k="ssr:stedsnr" v="125190" />
	</node>
	<node lat="59.791427777226275" lon="6.068974998794713" id="-29534">
		<tag k="name" v="Fureheia" />
		<tag k="natural" v="slope" />
		<tag k="place" v="locality" />
		<tag k="ssr:stedsnr" v="125304" />
	</node>
	<node lat="59.785449997529376" lon="5.990555559833238" id="-29535">
		<tag k="fixme" v="consider natural=peak for the most distinct mountains in the district" />
		<tag k="name" v="Baugstrandsfjell" />
		<tag k="natural" v="hill" />
		<tag k="place" v="locality" />
		<tag k="ssr:stedsnr" v="125319" />
	</node>
	<node lat="59.83706111153292" lon="5.686252784442918" id="-29539">
		<tag k="name" v="Tjuvaholet" />
		<tag k="natural" v="valley" />
		<tag k="place" v="locality" />
		<tag k="ssr:stedsnr" v="125354" />
	</node>
	<node lat="59.77348610904856" lon="6.065061117335893" id="-29542">
		<tag k="name" v="Høghaug" />
		<tag k="natural" v="hill" />
		<tag k="place" v="locality" />
		<tag k="ssr:stedsnr" v="125375" />
	</node>
	<node lat="59.931013886661546" lon="5.8217833265469165" id="-29543">
		<tag k="alt_name" v="Lii" />
		<tag k="name" v="Lia" />
		<tag k="natural" v="slope" />
		<tag k="place" v="locality" />
		<tag k="ssr:stedsnr" v="125760" />
	</node>
	<node lat="60.03120277708736" lon="6.09898054854664" id="-29546">
		<tag k="fixme" v="consider natural=peak for the most distinct mountains in the district" />
		<tag k="name" v="Njotekruna" />
		<tag k="natural" v="hill" />
		<tag k="place" v="locality" />
		<tag k="ssr:stedsnr" v="125765" />
	</node>
	<node lat="60.027894445792" lon="6.035424996899511" id="-29547">
		<tag k="alt_name" v="Skålafjellet" />
		<tag k="fixme" v="consider natural=peak for the most distinct mountains in the district" />
		<tag k="name" v="Skålefjell" />
		<tag k="natural" v="hill" />
		<tag k="place" v="locality" />
		<tag k="ssr:stedsnr" v="125769" />
	</node>
	<node lat="60.074049996696495" lon="6.259816661972244" id="-29550">
		<tag k="fixme" v="consider natural=peak for the most distinct mountains in the district" />
		<tag k="name" v="Knottaberget" />
		<tag k="natural" v="hill" />
		<tag k="place" v="locality" />
		<tag k="ssr:stedsnr" v="126107" />
	</node>
	<node lat="60.0854749975442" lon="6.256691668454668" id="-29551">
		<tag k="name" v="Krokadalen" />
		<tag k="natural" v="valley" />
		<tag k="place" v="locality" />
		<tag k="ssr:stedsnr" v="126112" />
	</node>
	<node lat="60.076088890836004" lon="6.288180554487747" id="-29552">
		<tag k="alt_name" v="Hovden, nedste" />
		<tag k="name" v="Nedste Hovden" />
		<tag k="natural" v="hill" />
		<tag k="place" v="locality" />
		<tag k="ssr:stedsnr" v="126091" />
	</node>
	<node lat="60.08292778052617" lon="6.311680557979285" id="-29553">
		<tag k="fixme" v="consider natural=peak for the most distinct mountains in the district" />
		<tag k="name" v="Det nauda" />
		<tag k="natural" v="hill" />
		<tag k="place" v="locality" />
		<tag k="ssr:stedsnr" v="126096" />
	</node>
	<node lat="59.92502777451366" lon="5.7913000001486665" id="-29557">
		<tag k="name" v="Berget" />
		<tag k="natural" v="hill" />
		<tag k="place" v="locality" />
		<tag k="ssr:stedsnr" v="145143" />
	</node>
	<node lat="59.73422499831193" lon="5.753552777395003" id="-29558">
		<tag k="name" v="Kallshammar" />
		<tag k="natural" v="hill" />
		<tag k="place" v="locality" />
		<tag k="ssr:stedsnr" v="159113" />
	</node>
	<node lat="59.74840000177252" lon="5.7697722211437386" id="-29559">
		<tag k="fixme" v="consider natural=peak for the most distinct mountains in the district" />
		<tag k="name" v="Nordåsen" />
		<tag k="natural" v="hill" />
		<tag k="place" v="locality" />
		<tag k="ssr:stedsnr" v="159119" />
	</node>
	<node lat="59.75573610914924" lon="5.815911114432895" id="-29560">
		<tag k="name" v="Bruraberget" />
		<tag k="natural" v="hill" />
		<tag k="place" v="locality" />
		<tag k="ssr:stedsnr" v="159121" />
	</node>
	<node lat="59.7381055573064" lon="5.713563895198772" id="-29561">
		<tag k="name" v="Sovarehaugen" />
		<tag k="natural" v="hill" />
		<tag k="place" v="locality" />
		<tag k="ssr:stedsnr" v="159124" />
	</node>
	<node lat="59.93479166806098" lon="5.883763892154412" id="-29562">
		<tag k="name" v="Andersdalen" />
		<tag k="natural" v="valley" />
		<tag k="place" v="locality" />
		<tag k="ssr:stedsnr" v="159149" />
	</node>
	<node lat="60.148869447587636" lon="6.209752771612251" id="-29565">
		<tag k="name" v="Rennedalen" />
		<tag k="natural" v="valley" />
		<tag k="place" v="locality" />
		<tag k="ssr:stedsnr" v="159417" />
	</node>
	<node lat="60.14569722638487" lon="6.212166665928666" id="-29566">
		<tag k="name" v="Sjåhaug" />
		<tag k="natural" v="hill" />
		<tag k="place" v="locality" />
		<tag k="ssr:stedsnr" v="159418" />
	</node>
	<node lat="60.07855833506154" lon="6.2887166654913225" id="-29570">
		<tag k="name" v="Kleivane" />
		<tag k="natural" v="slope" />
		<tag k="place" v="locality" />
		<tag k="ssr:stedsnr" v="159321" />
	</node>
	<node lat="60.11308889169527" lon="6.244730548632037" id="-29573">
		<tag k="fixme" v="consider natural=peak for the most distinct mountains in the district" />
		<tag k="name" v="Blåhatten" />
		<tag k="natural" v="hill" />
		<tag k="place" v="locality" />
		<tag k="ssr:stedsnr" v="159357" />
	</node>
	<node lat="60.11438333035458" lon="6.255786109166339" id="-29574">
		<tag k="name" v="Kjelde" />
		<tag k="natural" v="ridge" />
		<tag k="place" v="locality" />
		<tag k="ssr:stedsnr" v="159358" />
	</node>
	<node lat="60.082369441971984" lon="6.100083328247961" id="-29577">
		<tag k="name" v="Kolabotnen" />
		<tag k="natural" v="valley" />
		<tag k="place" v="locality" />
		<tag k="ssr:stedsnr" v="159517" />
	</node>
	<node lat="59.83778610858152" lon="5.961624992906906" id="-29578">
		<tag k="name" v="Skjenstø" />
		<tag k="natural" v="hill" />
		<tag k="place" v="locality" />
		<tag k="ssr:stedsnr" v="159605" />
	</node>
	<node lat="59.80680555911821" lon="6.112891669412055" id="-29580">
		<tag k="name" v="Bjørnshaugen" />
		<tag k="natural" v="hill" />
		<tag k="place" v="locality" />
		<tag k="ssr:stedsnr" v="159716" />
	</node>
	<node lat="59.799952777732614" lon="6.0909222294174805" id="-29581">
		<tag k="name" v="Kolhaug" />
		<tag k="natural" v="hill" />
		<tag k="place" v="locality" />
		<tag k="ssr:stedsnr" v="159723" />
	</node>
	<node lat="60.114225001279884" lon="6.17463056242603" id="-29582">
		<tag k="name" v="Hundasvoda" />
		<tag k="natural" v="slope" />
		<tag k="place" v="locality" />
		<tag k="ssr:stedsnr" v="164518" />
	</node>
	<node lat="59.89936666395929" lon="6.014069443056871" id="-29588">
		<tag k="name" v="Myklebustdalen" />
		<tag k="natural" v="valley" />
		<tag k="place" v="locality" />
		<tag k="ssr:stedsnr" v="185103" />
	</node>
	<node lat="59.781691668975625" lon="6.077686109957508" id="-29590">
		<tag k="name" v="Ørnaberget" />
		<tag k="natural" v="hill" />
		<tag k="place" v="locality" />
		<tag k="ssr:stedsnr" v="185303" />
	</node>
	<node lat="59.80979999631934" lon="5.937799997909515" id="-29596">
		<tag k="fixme" v="consider natural=peak for the most distinct mountains in the district" />
		<tag k="name" v="Holmedalsfjellet" />
		<tag k="natural" v="hill" />
		<tag k="place" v="locality" />
		<tag k="ssr:stedsnr" v="185234" />
	</node>
	<node lat="59.96523888676405" lon="6.101936117284872" id="-29598">
		<tag k="name" v="Geitabudalen" />
		<tag k="natural" v="valley" />
		<tag k="place" v="locality" />
		<tag k="ssr:stedsnr" v="185436" />
	</node>
	<node lat="59.99788055593744" lon="5.8289472201465475" id="-29599">
		<tag k="fixme" v="consider natural=peak for the most distinct mountains in the district" />
		<tag k="name" v="Egga" />
		<tag k="natural" v="hill" />
		<tag k="place" v="locality" />
		<tag k="ssr:stedsnr" v="185637" />
	</node>
	<node lat="59.99230596750399" lon="5.835639796873397" id="-29600">
		<tag k="name" v="Lønarhaugen" />
		<tag k="natural" v="hill" />
		<tag k="place" v="locality" />
		<tag k="ssr:stedsnr" v="185644" />
	</node>
	<node lat="59.947125004095234" lon="6.034669440221279" id="-29601">
		<tag k="fixme" v="consider natural=peak for the most distinct mountains in the district" />
		<tag k="name" v="Botnarusta" />
		<tag k="natural" v="hill" />
		<tag k="place" v="locality" />
		<tag k="ssr:stedsnr" v="186021" />
	</node>
	<node lat="59.93332777743927" lon="5.962044442506622" id="-29602">
		<tag k="alt_name" v="Kåredalen" />
		<tag k="name" v="Kåradalen" />
		<tag k="natural" v="valley" />
		<tag k="place" v="locality" />
		<tag k="ssr:stedsnr" v="186041" />
	</node>
	<node lat="59.925925002588635" lon="6.0419000017187425" id="-29603">
		<tag k="fixme" v="consider natural=peak for the most distinct mountains in the district" />
		<tag k="name" v="Kvannto" />
		<tag k="natural" v="hill" />
		<tag k="place" v="locality" />
		<tag k="ssr:stedsnr" v="186048" />
	</node>
	<node lat="59.89287500121053" lon="6.159549993976414" id="-29605">
		<tag k="name" v="Underlihaugen" />
		<tag k="natural" v="hill" />
		<tag k="place" v="locality" />
		<tag k="ssr:stedsnr" v="186119" />
	</node>
	<node lat="60.15220833491006" lon="6.293700002384186" id="-29607">
		<tag k="fixme" v="consider natural=peak for the most distinct mountains in the district" />
		<tag k="name" v="Jeskos" />
		<tag k="natural" v="hill" />
		<tag k="place" v="locality" />
		<tag k="ssr:stedsnr" v="186211" />
	</node>
	<node lat="59.8013000018144" lon="6.036905557021257" id="-29610">
		<tag k="name" v="Fatlandsnuten" />
		<tag k="natural" v="hill" />
		<tag k="place" v="locality" />
		<tag k="ssr:stedsnr" v="186277" />
	</node>
	<node lat="60.16290833545541" lon="6.31718889115398" id="-29615">
		<tag k="fixme" v="consider natural=peak for the most distinct mountains in the district" />
		<tag k="name" v="Steinlaupefjellet" />
		<tag k="natural" v="hill" />
		<tag k="place" v="locality" />
		<tag k="ssr:stedsnr" v="186199" />
	</node>
	<node lat="59.78544166817931" lon="5.879661103742655" id="-29616">
		<tag k="fixme" v="consider natural=peak for the most distinct mountains in the district" />
		<tag k="name" v="Jonåsen" />
		<tag k="natural" v="hill" />
		<tag k="place" v="locality" />
		<tag k="ssr:stedsnr" v="186316" />
	</node>
	<node lat="59.99738611362593" lon="6.174805559001937" id="-29619">
		<tag k="fixme" v="consider natural=peak for the most distinct mountains in the district" />
		<tag k="name" v="Blåhatten" />
		<tag k="natural" v="hill" />
		<tag k="place" v="locality" />
		<tag k="ssr:stedsnr" v="186489" />
	</node>
	<node lat="59.962244447450566" lon="5.891266669189377" id="-29622">
		<tag k="fixme" v="consider natural=peak for the most distinct mountains in the district" />
		<tag k="name" v="Eidsvikåsen" />
		<tag k="natural" v="hill" />
		<tag k="place" v="locality" />
		<tag k="ssr:stedsnr" v="186533" />
	</node>
	<node lat="60.05933333485437" lon="6.252141668449867" id="-29625">
		<tag k="name" v="Bakdalen" />
		<tag k="natural" v="valley" />
		<tag k="place" v="locality" />
		<tag k="ssr:stedsnr" v="187079" />
	</node>
	<node lat="59.94142222296755" lon="5.825947220573475" id="-29629">
		<tag k="name" v="Urdadalen" />
		<tag k="natural" v="valley" />
		<tag k="place" v="locality" />
		<tag k="ssr:stedsnr" v="267097" />
	</node>
	<node lat="59.86342222170014" lon="5.967594438578769" id="-29637">
		<tag k="name" v="Skarhaugen" />
		<tag k="natural" v="hill" />
		<tag k="place" v="locality" />
		<tag k="ssr:stedsnr" v="219571" />
	</node>
	<node lat="59.85563055863367" lon="5.959772214036106" id="-29638">
		<tag k="name" v="Stølslia" />
		<tag k="natural" v="slope" />
		<tag k="place" v="locality" />
		<tag k="ssr:stedsnr" v="219576" />
	</node>
	<node lat="59.77510555843653" lon="5.974838882628391" id="-29641">
		<tag k="name" v="Kleivane" />
		<tag k="natural" v="slope" />
		<tag k="place" v="locality" />
		<tag k="ssr:stedsnr" v="220119" />
	</node>
	<node lat="59.74075277863048" lon="5.742308336933526" id="-29642">
		<tag k="name" v="Stølshaugen" />
		<tag k="natural" v="hill" />
		<tag k="place" v="locality" />
		<tag k="ssr:stedsnr" v="220125" />
	</node>
	<node lat="59.84990555243616" lon="5.787466663222528" id="-29643">
		<tag k="name" v="Storehammaren" />
		<tag k="natural" v="hill" />
		<tag k="place" v="locality" />
		<tag k="ssr:stedsnr" v="219874" />
	</node>
	<node lat="59.78363611403091" lon="5.8731694493302395" id="-29644">
		<tag k="name" v="Høgestølen" />
		<tag k="natural" v="hill" />
		<tag k="place" v="locality" />
		<tag k="ssr:stedsnr" v="219881" />
	</node>
	<node lat="60.17169444701152" lon="6.331716660422629" id="-29645">
		<tag k="name" v="Heia" />
		<tag k="natural" v="hill" />
		<tag k="place" v="locality" />
		<tag k="ssr:stedsnr" v="219892" />
	</node>
	<node lat="59.7816111131759" lon="5.785833336869365" id="-29649">
		<tag k="name" v="Skatehatt" />
		<tag k="place" v="locality" />
		<tag k="ssr:stedsnr" v="220083" />
	</node>
	<node lat="60.178030927222814" lon="6.229590767460879" id="-29650">
		<tag k="name" v="Grønehaug" />
		<tag k="natural" v="hill" />
		<tag k="place" v="locality" />
		<tag k="ssr:stedsnr" v="220086" />
	</node>
	<node lat="59.77211388866839" lon="5.790875006023324" id="-29651">
		<tag k="name" v="Røsskleiv" />
		<tag k="natural" v="slope" />
		<tag k="place" v="locality" />
		<tag k="ssr:stedsnr" v="220093" />
	</node>
	<node lat="59.76584166974542" lon="5.824255562917728" id="-29652">
		<tag k="fixme" v="consider natural=peak for the most distinct mountains in the district" />
		<tag k="name" v="Troåsen" />
		<tag k="natural" v="hill" />
		<tag k="place" v="locality" />
		<tag k="ssr:stedsnr" v="220098" />
	</node>
	<node lat="60.11384444673371" lon="6.24628054752361" id="-29655">
		<tag k="name" v="Kovagjelet" />
		<tag k="natural" v="gorge" />
		<tag k="ssr:stedsnr" v="220387" />
	</node>
	<node lat="60.11754722128737" lon="6.249827781183657" id="-29657">
		<tag k="name" v="Koven" />
		<tag k="natural" v="valley" />
		<tag k="place" v="locality" />
		<tag k="ssr:stedsnr" v="220396" />
	</node>
	<node lat="60.123680558056726" lon="6.203486105358701" id="-29660">
		<tag k="name" v="Gjordo" />
		<tag k="natural" v="valley" />
		<tag k="place" v="locality" />
		<tag k="ssr:stedsnr" v="220404" />
	</node>
	<node lat="60.13459999925053" lon="6.233250005895025" id="-29661">
		<tag k="name" v="Skulehushaugen" />
		<tag k="natural" v="hill" />
		<tag k="place" v="locality" />
		<tag k="ssr:stedsnr" v="220423" />
	</node>
	<node lat="60.06359722473928" lon="6.133155559753487" id="-29666">
		<tag k="name" v="Helleflotegjelet" />
		<tag k="natural" v="gorge" />
		<tag k="ssr:stedsnr" v="220808" />
	</node>
	<node lat="60.10335277628691" lon="5.982380562572752" id="-29667">
		<tag k="fixme" v="consider natural=peak for the most distinct mountains in the district" />
		<tag k="name" v="Hamrane" />
		<tag k="natural" v="hill" />
		<tag k="place" v="locality" />
		<tag k="ssr:stedsnr" v="220813" />
	</node>
	<node lat="60.01401389189006" lon="6.036433328556713" id="-29672">
		<tag k="name" v="Myrhovda" />
		<tag k="natural" v="hill" />
		<tag k="place" v="locality" />
		<tag k="ssr:stedsnr" v="220702" />
	</node>
	<node lat="60.02338333694023" lon="6.047722220172822" id="-29673">
		<tag k="name" v="Heggdal" />
		<tag k="natural" v="valley" />
		<tag k="place" v="locality" />
		<tag k="ssr:stedsnr" v="220704" />
	</node>
	<node lat="59.965736113439135" lon="6.002049999664987" id="-29674">
		<tag k="name" v="Hundebærghaugen" />
		<tag k="natural" v="hill" />
		<tag k="place" v="locality" />
		<tag k="ssr:stedsnr" v="220706" />
	</node>
	<node lat="59.9769000020746" lon="6.043238887962492" id="-29675">
		<tag k="name" v="Njoteslettene" />
		<tag k="natural" v="hill" />
		<tag k="place" v="locality" />
		<tag k="ssr:stedsnr" v="220710" />
	</node>
	<node lat="60.028780553265925" lon="6.015574997755746" id="-29676">
		<tag k="name" v="Rugledalen" />
		<tag k="natural" v="valley" />
		<tag k="place" v="locality" />
		<tag k="ssr:stedsnr" v="220724" />
	</node>
	<node lat="60.02787221980426" lon="6.039544440622621" id="-29677">
		<tag k="name" v="Strandalegene" />
		<tag k="place" v="locality" />
		<tag k="ssr:stedsnr" v="220726" />
	</node>
	<node lat="60.138913886769956" lon="5.965702781898436" id="-29678">
		<tag k="name" v="Sveistongskaret" />
		<tag k="natural" v="valley" />
		<tag k="place" v="locality" />
		<tag k="ssr:stedsnr" v="220772" />
	</node>
	<node lat="60.12709444812141" lon="6.046727777670132" id="-29679">
		<tag k="name" v="Storskor" />
		<tag k="place" v="locality" />
		<tag k="ssr:stedsnr" v="220774" />
	</node>
	<node lat="59.937174999490516" lon="5.875761114008251" id="-29690">
		<tag k="name" v="Kleivadalen" />
		<tag k="natural" v="valley" />
		<tag k="place" v="locality" />
		<tag k="ssr:stedsnr" v="220981" />
	</node>
	<node lat="59.92693056008068" lon="5.823494446808939" id="-29692">
		<tag k="name" v="Tereberg" />
		<tag k="natural" v="hill" />
		<tag k="place" v="locality" />
		<tag k="ssr:stedsnr" v="220983" />
	</node>
	<node lat="59.92067221820211" lon="5.8586555643544145" id="-29693">
		<tag k="name" v="Øykjastøl" />
		<tag k="natural" v="ridge" />
		<tag k="place" v="locality" />
		<tag k="ssr:stedsnr" v="220991" />
	</node>
	<node lat="59.99117777549487" lon="5.830316659181196" id="-29694">
		<tag k="name" v="Purkhaug" />
		<tag k="natural" v="hill" />
		<tag k="place" v="locality" />
		<tag k="ssr:stedsnr" v="221802" />
	</node>
	<node lat="60.02430277999733" lon="5.876786119120991" id="-29695">
		<tag k="name" v="Korskleiv" />
		<tag k="natural" v="valley" />
		<tag k="place" v="locality" />
		<tag k="ssr:stedsnr" v="221812" />
	</node>
	<node lat="59.94785833140419" lon="5.979325005263462" id="-29703">
		<tag k="fixme" v="consider natural=peak for the most distinct mountains in the district" />
		<tag k="name" v="Fitjaheia" />
		<tag k="natural" v="hill" />
		<tag k="place" v="locality" />
		<tag k="ssr:stedsnr" v="246024" />
	</node>
	<node lat="59.86483610754479" lon="6.0848888943275945" id="-29716">
		<tag k="name" v="Småøyrane" />
		<tag k="place" v="locality" />
		<tag k="ssr:stedsnr" v="246161" />
	</node>
	<node lat="59.91907499789714" lon="5.886766660560092" id="-29722">
		<tag k="name" v="Skjørhaugen" />
		<tag k="natural" v="hill" />
		<tag k="place" v="locality" />
		<tag k="ssr:stedsnr" v="247065" />
	</node>
	<node lat="59.96943611414482" lon="5.907705557784628" id="-29733">
		<tag k="name" v="Sætrahaugen" />
		<tag k="natural" v="hill" />
		<tag k="place" v="locality" />
		<tag k="ssr:stedsnr" v="247459" />
	</node>
	<node lat="59.970366667559404" lon="6.014097220268641" id="-29734">
		<tag k="name" v="Håsæter" />
		<tag k="natural" v="slope" />
		<tag k="place" v="locality" />
		<tag k="ssr:stedsnr" v="247469" />
	</node>
	<node lat="59.97386389121248" lon="6.067375005115518" id="-29735">
		<tag k="name" v="Markaskorane" />
		<tag k="natural" v="slope" />
		<tag k="place" v="locality" />
		<tag k="ssr:stedsnr" v="247473" />
	</node>
	<node lat="59.81488889151558" lon="5.838763897391792" id="-29736">
		<tag k="fixme" v="consider natural=peak for the most distinct mountains in the district" />
		<tag k="name" v="Skarvalandsfjellet" />
		<tag k="natural" v="hill" />
		<tag k="place" v="locality" />
		<tag k="ssr:stedsnr" v="247376" />
	</node>
	<node lat="60.00699286118712" lon="5.78742171588316" id="-29739">
		<tag k="fixme" v="consider natural=peak for the most distinct mountains in the district" />
		<tag k="name" v="Tråvikåsen" />
		<tag k="natural" v="hill" />
		<tag k="place" v="locality" />
		<tag k="ssr:stedsnr" v="247702" />
	</node>
	<node lat="60.01623055984434" lon="6.0203500043585185" id="-29742">
		<tag k="fixme" v="consider natural=peak for the most distinct mountains in the district" />
		<tag k="name" v="Storhaug" />
		<tag k="natural" v="hill" />
		<tag k="place" v="locality" />
		<tag k="ssr:stedsnr" v="247757" />
	</node>
	<node lat="60.08111388479924" lon="5.893558334056792" id="-29745">
		<tag k="fixme" v="consider natural=peak for the most distinct mountains in the district" />
		<tag k="name" v="Dåsa" />
		<tag k="natural" v="hill" />
		<tag k="place" v="locality" />
		<tag k="ssr:stedsnr" v="247953" />
	</node>
	<node lat="59.775769440641" lon="5.9895250023414555" id="-29751">
		<tag k="name" v="Høgehaugen" />
		<tag k="natural" v="hill" />
		<tag k="place" v="locality" />
		<tag k="ssr:stedsnr" v="280575" />
	</node>
	<node lat="59.804538891978034" lon="6.111225007032622" id="-29752">
		<tag k="name" v="Rindabergsnova" />
		<tag k="natural" v="ridge" />
		<tag k="place" v="locality" />
		<tag k="ssr:stedsnr" v="280671" />
	</node>
	<node lat="59.8206277789548" lon="6.103408328187826" id="-29753">
		<tag k="name" v="Etarehaugen" />
		<tag k="natural" v="hill" />
		<tag k="place" v="locality" />
		<tag k="ssr:stedsnr" v="280718" />
	</node>
	<node lat="59.73814444728666" lon="5.7799777772734355" id="-29763">
		<tag k="name" v="Skotet" />
		<tag k="natural" v="hill" />
		<tag k="place" v="locality" />
		<tag k="ssr:stedsnr" v="281090" />
	</node>
	<node lat="59.74611944831866" lon="5.769880550131344" id="-29764">
		<tag k="fixme" v="consider natural=peak for the most distinct mountains in the district" />
		<tag k="name" v="Midtåsen" />
		<tag k="natural" v="hill" />
		<tag k="place" v="locality" />
		<tag k="ssr:stedsnr" v="281091" />
	</node>
	<node lat="59.7552444434556" lon="5.789033342027179" id="-29765">
		<tag k="fixme" v="consider natural=peak for the most distinct mountains in the district" />
		<tag k="name" v="Sneåsen" />
		<tag k="natural" v="hill" />
		<tag k="place" v="locality" />
		<tag k="ssr:stedsnr" v="281096" />
	</node>
	<node lat="60.11834722071634" lon="6.283108342444169" id="-29767">
		<tag k="name" v="Stegane" />
		<tag k="natural" v="slope" />
		<tag k="place" v="locality" />
		<tag k="ssr:stedsnr" v="281309" />
	</node>
	<node lat="60.13442499691276" lon="6.304313894096685" id="-29768">
		<tag k="name" v="Furekamben" />
		<tag k="natural" v="ridge" />
		<tag k="place" v="locality" />
		<tag k="ssr:stedsnr" v="281321" />
	</node>
	<node lat="60.13343333387655" lon="6.234669451463787" id="-29769">
		<tag k="name" v="Leitehaugen" />
		<tag k="natural" v="hill" />
		<tag k="place" v="locality" />
		<tag k="ssr:stedsnr" v="281379" />
	</node>
	<node lat="60.134822223654986" lon="6.209449993181183" id="-29770">
		<tag k="name" v="Storheller" />
		<tag k="place" v="locality" />
		<tag k="ssr:stedsnr" v="281404" />
	</node>
	<node lat="60.15223888695634" lon="6.231661117193843" id="-29771">
		<tag k="name" v="Ilagshaugen" />
		<tag k="natural" v="hill" />
		<tag k="place" v="locality" />
		<tag k="ssr:stedsnr" v="281417" />
	</node>
	<node lat="60.08695555945309" lon="6.120897227295581" id="-29773">
		<tag k="name" v="Hatledalen" />
		<tag k="natural" v="valley" />
		<tag k="place" v="locality" />
		<tag k="ssr:stedsnr" v="281489" />
	</node>
	<node lat="60.03942221980692" lon="5.809641669808525" id="-29777">
		<tag k="name" v="Svekanken" />
		<tag k="natural" v="hill" />
		<tag k="place" v="locality" />
		<tag k="ssr:stedsnr" v="281726" />
	</node>
	<node lat="59.96984444322308" lon="5.935080552971549" id="-29780">
		<tag k="name" v="Lydaren" />
		<tag k="place" v="locality" />
		<tag k="ssr:stedsnr" v="281879" />
	</node>
</osm>
