<?xml version="1.0" encoding="UTF-8"?>
<osm generator="osmapis" version="0.6">
	<node id="-752636" lat="69.3602111087" lon="16.9878527859">
		<tag k="name" v="Hovdaneset" />
		<tag k="ssr:date" v="2016-05-11" />
		<tag k="ssr:gruppe" v="navigasjon" />
		<tag k="ssr:hovedgruppe" v="infrastruktur" />
		<tag k="ssr:stedsnr" v="770181" />
		<tag k="ssr:type" v="fyrlykt" />
	</node>
	<node id="-752502" lat="69.3765749997" lon="16.8685638852">
		<tag k="name" v="Månes" />
		<tag k="old_name" v="Måneset" />
		<tag k="ssr:date" v="2016-05-10" />
		<tag k="ssr:gruppe" v="navigasjon" />
		<tag k="ssr:hovedgruppe" v="infrastruktur" />
		<tag k="ssr:stedsnr" v="625370" />
		<tag k="ssr:type" v="fyrlykt" />
	</node>
	<node id="-752112" lat="69.2607527815" lon="17.0519777808">
		<tag k="name" v="Bloskeneset" />
		<tag k="old_name" v="Blåskjelneset" />
		<tag k="ssr:date" v="2016-05-10" />
		<tag k="ssr:gruppe" v="navigasjon" />
		<tag k="ssr:hovedgruppe" v="infrastruktur" />
		<tag k="ssr:stedsnr" v="139414" />
		<tag k="ssr:type" v="fyrlykt" />
	</node>
	<node id="-751977" lat="69.2842285741" lon="17.1671046109">
		<tag k="name" v="Finnesveien" />
		<tag k="ssr:date" v="2019-05-30" />
		<tag k="ssr:gruppe" v="veg" />
		<tag k="ssr:hovedgruppe" v="infrastruktur" />
		<tag k="ssr:stedsnr" v="1012139" />
		<tag k="ssr:type" v="adressenavn" />
	</node>
	<node id="-751976" lat="69.2864458626" lon="17.1499838207">
		<tag k="name" v="Øvre Sifjord" />
		<tag k="ssr:date" v="2019-05-30" />
		<tag k="ssr:gruppe" v="veg" />
		<tag k="ssr:hovedgruppe" v="infrastruktur" />
		<tag k="ssr:stedsnr" v="1012138" />
		<tag k="ssr:type" v="adressenavn" />
	</node>
	<node id="-751975" lat="69.2875351684" lon="17.1576203416">
		<tag k="name" v="Gårdsveien" />
		<tag k="ssr:date" v="2019-05-30" />
		<tag k="ssr:gruppe" v="veg" />
		<tag k="ssr:hovedgruppe" v="infrastruktur" />
		<tag k="ssr:stedsnr" v="1012137" />
		<tag k="ssr:type" v="adressenavn" />
	</node>
	<node id="-751974" lat="69.1907959745" lon="17.0295170584">
		<tag k="name" v="Bruddveien" />
		<tag k="ssr:date" v="2019-05-30" />
		<tag k="ssr:gruppe" v="veg" />
		<tag k="ssr:hovedgruppe" v="infrastruktur" />
		<tag k="ssr:stedsnr" v="1012135" />
		<tag k="ssr:type" v="adressenavn" />
	</node>
	<node id="-751973" lat="69.1912763147" lon="17.0457272652">
		<tag k="name" v="Innergården" />
		<tag k="ssr:date" v="2019-05-30" />
		<tag k="ssr:gruppe" v="veg" />
		<tag k="ssr:hovedgruppe" v="infrastruktur" />
		<tag k="ssr:stedsnr" v="1012133" />
		<tag k="ssr:type" v="adressenavn" />
	</node>
	<node id="-751972" lat="69.2265965705" lon="17.1183148652">
		<tag k="name" v="Flakstadveien" />
		<tag k="ssr:date" v="2019-05-30" />
		<tag k="ssr:gruppe" v="veg" />
		<tag k="ssr:hovedgruppe" v="infrastruktur" />
		<tag k="ssr:stedsnr" v="1012132" />
		<tag k="ssr:type" v="adressenavn" />
	</node>
	<node id="-751971" lat="69.1917614169" lon="17.0365871174">
		<tag k="name" v="Landsletta" />
		<tag k="ssr:date" v="2019-05-30" />
		<tag k="ssr:gruppe" v="veg" />
		<tag k="ssr:hovedgruppe" v="infrastruktur" />
		<tag k="ssr:stedsnr" v="1012131" />
		<tag k="ssr:type" v="adressenavn" />
	</node>
	<node id="-751970" lat="69.3516226804" lon="17.1880463626">
		<tag k="name" v="Gryllefjordbotn" />
		<tag k="ssr:date" v="2019-05-30" />
		<tag k="ssr:gruppe" v="veg" />
		<tag k="ssr:hovedgruppe" v="infrastruktur" />
		<tag k="ssr:stedsnr" v="1012130" />
		<tag k="ssr:type" v="adressenavn" />
	</node>
	<node id="-751969" lat="69.312267689" lon="17.1218144226">
		<tag k="name" v="Ostern" />
		<tag k="ssr:date" v="2019-05-30" />
		<tag k="ssr:gruppe" v="veg" />
		<tag k="ssr:hovedgruppe" v="infrastruktur" />
		<tag k="ssr:stedsnr" v="1012129" />
		<tag k="ssr:type" v="adressenavn" />
	</node>
	<node id="-751968" lat="69.1921812466" lon="17.0420521007">
		<tag k="name" v="Kirkeveien" />
		<tag k="ssr:date" v="2019-05-30" />
		<tag k="ssr:gruppe" v="veg" />
		<tag k="ssr:hovedgruppe" v="infrastruktur" />
		<tag k="ssr:stedsnr" v="1012128" />
		<tag k="ssr:type" v="adressenavn" />
	</node>
	<node id="-751967" lat="69.1904338787" lon="17.0319966182">
		<tag k="name" v="Finnelvstranda" />
		<tag k="ssr:date" v="2019-05-30" />
		<tag k="ssr:gruppe" v="veg" />
		<tag k="ssr:hovedgruppe" v="infrastruktur" />
		<tag k="ssr:stedsnr" v="1012127" />
		<tag k="ssr:type" v="adressenavn" />
	</node>
	<node id="-751966" lat="69.391897244" lon="17.0024866929">
		<tag k="name" v="Teistevika" />
		<tag k="ssr:date" v="2019-05-30" />
		<tag k="ssr:gruppe" v="veg" />
		<tag k="ssr:hovedgruppe" v="infrastruktur" />
		<tag k="ssr:stedsnr" v="1012126" />
		<tag k="ssr:type" v="adressenavn" />
	</node>
	<node id="-751965" lat="69.3366546035" lon="17.165738623">
		<tag k="name" v="Skipsfjorden" />
		<tag k="ssr:date" v="2019-05-30" />
		<tag k="ssr:gruppe" v="veg" />
		<tag k="ssr:hovedgruppe" v="infrastruktur" />
		<tag k="ssr:stedsnr" v="1012125" />
		<tag k="ssr:type" v="adressenavn" />
	</node>
	<node id="-751964" lat="69.3684863669" lon="17.005042514">
		<tag k="name" v="Barbogen" />
		<tag k="ssr:date" v="2019-05-30" />
		<tag k="ssr:gruppe" v="veg" />
		<tag k="ssr:hovedgruppe" v="infrastruktur" />
		<tag k="ssr:stedsnr" v="1012123" />
		<tag k="ssr:type" v="adressenavn" />
	</node>
	<node id="-751963" lat="69.2107752606" lon="16.9432994047">
		<tag k="name" v="Leikvika" />
		<tag k="ssr:date" v="2019-05-30" />
		<tag k="ssr:gruppe" v="veg" />
		<tag k="ssr:hovedgruppe" v="infrastruktur" />
		<tag k="ssr:stedsnr" v="1012122" />
		<tag k="ssr:type" v="adressenavn" />
	</node>
	<node id="-751962" lat="69.3622963652" lon="17.0548279751">
		<tag k="name" v="Herredshusveien" />
		<tag k="ssr:date" v="2019-05-30" />
		<tag k="ssr:gruppe" v="veg" />
		<tag k="ssr:hovedgruppe" v="infrastruktur" />
		<tag k="ssr:stedsnr" v="1012121" />
		<tag k="ssr:type" v="adressenavn" />
	</node>
	<node id="-751961" lat="69.3390236063" lon="17.1048282171">
		<tag k="name" v="Torskenveien" />
		<tag k="ssr:date" v="2019-05-30" />
		<tag k="ssr:gruppe" v="veg" />
		<tag k="ssr:hovedgruppe" v="infrastruktur" />
		<tag k="ssr:stedsnr" v="1012120" />
		<tag k="ssr:type" v="adressenavn" />
	</node>
	<node id="-752856" lat="68.4849327361" lon="16.2297866207">
		<tag k="fixme" v="multiple name tags, choose one and add the other to alt_name" />
		<tag k="name" v="Nord-Noreg;Nord-Norge" />
		<tag k="ssr:date" v="2017-05-18" />
		<tag k="ssr:gruppe" v="administrativeIndelinger" />
		<tag k="ssr:hovedgruppe" v="offentligAdministrasjon" />
		<tag k="ssr:stedsnr" v="976106" />
		<tag k="ssr:type" v="annenAdministrativInndeling" />
	</node>
	<node id="-751959" lat="69.3609371956" lon="17.0638876488">
		<tag k="name" v="Høyryggen" />
		<tag k="ssr:date" v="2019-05-30" />
		<tag k="ssr:gruppe" v="veg" />
		<tag k="ssr:hovedgruppe" v="infrastruktur" />
		<tag k="ssr:stedsnr" v="1012118" />
		<tag k="ssr:type" v="adressenavn" />
	</node>
	<node id="-751958" lat="69.3397671896" lon="17.1071366174">
		<tag k="name" v="Ferånna" />
		<tag k="ssr:date" v="2019-05-30" />
		<tag k="ssr:gruppe" v="veg" />
		<tag k="ssr:hovedgruppe" v="infrastruktur" />
		<tag k="ssr:stedsnr" v="1012116" />
		<tag k="ssr:type" v="adressenavn" />
	</node>
	<node id="-751957" lat="69.3384352483" lon="17.1059904858">
		<tag k="name" v="Nedre Ferånna" />
		<tag k="ssr:date" v="2019-05-30" />
		<tag k="ssr:gruppe" v="veg" />
		<tag k="ssr:hovedgruppe" v="infrastruktur" />
		<tag k="ssr:stedsnr" v="1012115" />
		<tag k="ssr:type" v="adressenavn" />
	</node>
	<node id="-751956" lat="69.3393409651" lon="17.1045542163">
		<tag k="name" v="Værnesveien" />
		<tag k="ssr:date" v="2019-05-30" />
		<tag k="ssr:gruppe" v="veg" />
		<tag k="ssr:hovedgruppe" v="infrastruktur" />
		<tag k="ssr:stedsnr" v="1012114" />
		<tag k="ssr:type" v="adressenavn" />
	</node>
	<node id="-751955" lat="69.3405478268" lon="17.11008406">
		<tag k="name" v="Øvre Ferånna" />
		<tag k="ssr:date" v="2019-05-30" />
		<tag k="ssr:gruppe" v="veg" />
		<tag k="ssr:hovedgruppe" v="infrastruktur" />
		<tag k="ssr:stedsnr" v="1012113" />
		<tag k="ssr:type" v="adressenavn" />
	</node>
	<node id="-751954" lat="69.3073027067" lon="17.0253793492">
		<tag k="name" v="Eilif Larsens vei" />
		<tag k="ssr:date" v="2019-05-30" />
		<tag k="ssr:gruppe" v="veg" />
		<tag k="ssr:hovedgruppe" v="infrastruktur" />
		<tag k="ssr:stedsnr" v="1012111" />
		<tag k="ssr:type" v="adressenavn" />
	</node>
	<node id="-751953" lat="69.2853354687" lon="17.0257495323">
		<tag k="name" v="Kaldfarnesveien" />
		<tag k="ssr:date" v="2019-05-30" />
		<tag k="ssr:gruppe" v="veg" />
		<tag k="ssr:hovedgruppe" v="infrastruktur" />
		<tag k="ssr:stedsnr" v="1012109" />
		<tag k="ssr:type" v="adressenavn" />
	</node>
	<node id="-751952" lat="69.3078070924" lon="17.0206061532">
		<tag k="name" v="Grunnfarnesveien" />
		<tag k="ssr:date" v="2019-05-30" />
		<tag k="ssr:gruppe" v="veg" />
		<tag k="ssr:hovedgruppe" v="infrastruktur" />
		<tag k="ssr:stedsnr" v="1012108" />
		<tag k="ssr:type" v="adressenavn" />
	</node>
	<node id="-751951" lat="69.3002281479" lon="17.0111493678">
		<tag k="name" v="Gravlundveien" />
		<tag k="ssr:date" v="2019-05-30" />
		<tag k="ssr:gruppe" v="veg" />
		<tag k="ssr:hovedgruppe" v="infrastruktur" />
		<tag k="ssr:stedsnr" v="1012107" />
		<tag k="ssr:type" v="adressenavn" />
	</node>
	<node id="-751950" lat="69.2808254905" lon="17.0738628117">
		<tag k="name" v="Medbyveien" />
		<tag k="ssr:date" v="2019-05-30" />
		<tag k="ssr:gruppe" v="veg" />
		<tag k="ssr:hovedgruppe" v="infrastruktur" />
		<tag k="ssr:stedsnr" v="1012105" />
		<tag k="ssr:type" v="adressenavn" />
	</node>
	<node id="-752333" lat="69.2911722262" lon="16.788194438">
		<tag k="name" v="Holmenvær" />
		<tag k="ssr:date" v="2016-05-10" />
		<tag k="ssr:gruppe" v="navigasjon" />
		<tag k="ssr:hovedgruppe" v="infrastruktur" />
		<tag k="ssr:stedsnr" v="481351" />
		<tag k="ssr:type" v="fyrlykt" />
	</node>
	<node id="-751948" lat="69.2787484635" lon="17.0974010087">
		<tag k="name" v="Eidebakken" />
		<tag k="ssr:date" v="2019-05-30" />
		<tag k="ssr:gruppe" v="veg" />
		<tag k="ssr:hovedgruppe" v="infrastruktur" />
		<tag k="ssr:stedsnr" v="1012102" />
		<tag k="ssr:type" v="adressenavn" />
	</node>
	<node id="-751949" lat="69.2805394742" lon="17.0745195942">
		<tag k="name" v="Øvre Botn" />
		<tag k="ssr:date" v="2019-05-30" />
		<tag k="ssr:gruppe" v="veg" />
		<tag k="ssr:hovedgruppe" v="infrastruktur" />
		<tag k="ssr:stedsnr" v="1012104" />
		<tag k="ssr:type" v="adressenavn" />
	</node>
	<node id="-751946" lat="69.3606666905" lon="17.0726540006">
		<tag k="name" v="Senjaveien" />
		<tag k="ssr:date" v="2019-05-30" />
		<tag k="ssr:gruppe" v="veg" />
		<tag k="ssr:hovedgruppe" v="infrastruktur" />
		<tag k="ssr:stedsnr" v="1012098" />
		<tag k="ssr:type" v="adressenavn" />
	</node>
	<node id="-751945" lat="69.3614019441" lon="17.0689349309">
		<tag k="name" v="Nerveien" />
		<tag k="ssr:date" v="2019-05-30" />
		<tag k="ssr:gruppe" v="veg" />
		<tag k="ssr:hovedgruppe" v="infrastruktur" />
		<tag k="ssr:stedsnr" v="1012097" />
		<tag k="ssr:type" v="adressenavn" />
	</node>
	<node id="-751944" lat="69.361870395" lon="17.0627483782">
		<tag k="name" v="Spiraveien" />
		<tag k="ssr:date" v="2019-05-30" />
		<tag k="ssr:gruppe" v="veg" />
		<tag k="ssr:hovedgruppe" v="infrastruktur" />
		<tag k="ssr:stedsnr" v="1012095" />
		<tag k="ssr:type" v="adressenavn" />
	</node>
	<node id="-751943" lat="69.3802577825" lon="17.113205024">
		<tag k="name" v="Kirkegårdsveien" />
		<tag k="ssr:date" v="2019-05-30" />
		<tag k="ssr:gruppe" v="veg" />
		<tag k="ssr:hovedgruppe" v="infrastruktur" />
		<tag k="ssr:stedsnr" v="1012094" />
		<tag k="ssr:type" v="adressenavn" />
	</node>
	<node id="-751942" lat="69.3824753524" lon="17.1130913627">
		<tag k="name" v="Ballesvika" />
		<tag k="ssr:date" v="2019-05-30" />
		<tag k="ssr:gruppe" v="veg" />
		<tag k="ssr:hovedgruppe" v="infrastruktur" />
		<tag k="ssr:stedsnr" v="1012093" />
		<tag k="ssr:type" v="adressenavn" />
	</node>
	<node id="-751941" lat="69.1995583805" lon="16.9039771951">
		<tag k="name" v="Årberg" />
		<tag k="ssr:date" v="2019-05-30" />
		<tag k="ssr:gruppe" v="veg" />
		<tag k="ssr:hovedgruppe" v="infrastruktur" />
		<tag k="ssr:stedsnr" v="1012034" />
		<tag k="ssr:type" v="adressenavn" />
	</node>
	<node id="-751940" lat="69.1999765338" lon="17.2021535252">
		<tag k="name" v="Indre Selfjord" />
		<tag k="ssr:date" v="2019-05-30" />
		<tag k="ssr:gruppe" v="veg" />
		<tag k="ssr:hovedgruppe" v="infrastruktur" />
		<tag k="ssr:stedsnr" v="1012032" />
		<tag k="ssr:type" v="adressenavn" />
	</node>
	<node id="-751939" lat="69.29111001" lon="16.7917902836">
		<tag k="name" v="Holmenvær" />
		<tag k="ssr:date" v="2019-05-30" />
		<tag k="ssr:gruppe" v="veg" />
		<tag k="ssr:hovedgruppe" v="infrastruktur" />
		<tag k="ssr:stedsnr" v="1012031" />
		<tag k="ssr:type" v="adressenavn" />
	</node>
	<node id="-751938" lat="69.2681585606" lon="16.7964024622">
		<tag k="name" v="Ørja" />
		<tag k="ssr:date" v="2019-05-30" />
		<tag k="ssr:gruppe" v="veg" />
		<tag k="ssr:hovedgruppe" v="infrastruktur" />
		<tag k="ssr:stedsnr" v="1012030" />
		<tag k="ssr:type" v="adressenavn" />
	</node>
	<node id="-751947" lat="69.2794040246" lon="17.0741829141">
		<tag k="name" v="Veidmannsveien" />
		<tag k="ssr:date" v="2019-05-30" />
		<tag k="ssr:gruppe" v="veg" />
		<tag k="ssr:hovedgruppe" v="infrastruktur" />
		<tag k="ssr:stedsnr" v="1012101" />
		<tag k="ssr:type" v="adressenavn" />
	</node>
	<node id="-752102" lat="69.28195556" lon="16.7867472183">
		<tag k="name" v="Mefjordingen" />
		<tag k="ssr:date" v="2016-05-10" />
		<tag k="ssr:gruppe" v="navigasjon" />
		<tag k="ssr:hovedgruppe" v="infrastruktur" />
		<tag k="ssr:stedsnr" v="139203" />
		<tag k="ssr:type" v="fyrlykt" />
	</node>
	<node id="-752186" lat="69.297105557" lon="16.9894583278">
		<tag k="name" v="Hamnneset" />
		<tag k="old_name" v="Hamneset" />
		<tag k="ssr:date" v="2016-05-10" />
		<tag k="ssr:gruppe" v="navigasjon" />
		<tag k="ssr:hovedgruppe" v="infrastruktur" />
		<tag k="ssr:stedsnr" v="201400" />
		<tag k="ssr:type" v="fyrlykt" />
	</node>
	<node id="-751868" lat="69.2241750034" lon="16.8796638851">
		<tag k="name" v="Leikneset" />
		<tag k="ssr:date" v="2016-05-10" />
		<tag k="ssr:gruppe" v="navigasjon" />
		<tag k="ssr:hovedgruppe" v="infrastruktur" />
		<tag k="ssr:stedsnr" v="381193" />
		<tag k="ssr:type" v="fyrlykt" />
	</node>
	<node id="-752816" lat="69.3367722218" lon="17.0742000004">
		<tag k="name" v="Torsken" />
		<tag k="ssr:date" v="2016-05-11" />
		<tag k="ssr:gruppe" v="navigasjon" />
		<tag k="ssr:hovedgruppe" v="infrastruktur" />
		<tag k="ssr:stedsnr" v="952121" />
		<tag k="ssr:type" v="fyrlykt" />
	</node>
	<node id="-752687" lat="69.3618361114" lon="17.0538194441">
		<tag k="name" v="Torsken kommune" />
		<tag k="ssr:date" v="2016-05-11" />
		<tag k="ssr:gruppe" v="administrativeIndelinger" />
		<tag k="ssr:hovedgruppe" v="offentligAdministrasjon" />
		<tag k="ssr:stedsnr" v="814458" />
		<tag k="ssr:type" v="kommune" />
	</node>
	<node id="-752042" lat="69.3322583301" lon="16.9855805455">
		<tag k="name" v="Senholmen" />
		<tag k="old_name" v="Sennholmen" />
		<tag k="ssr:date" v="2016-05-10" />
		<tag k="ssr:gruppe" v="navigasjon" />
		<tag k="ssr:hovedgruppe" v="infrastruktur" />
		<tag k="ssr:stedsnr" v="79328" />
		<tag k="ssr:type" v="fyrlykt" />
	</node>
	<node id="-752678" lat="69.4045611127" lon="16.9410194514">
		<tag k="name" v="Teistneset" />
		<tag k="old_name" v="Teisteneset" />
		<tag k="ssr:date" v="2016-05-11" />
		<tag k="ssr:gruppe" v="navigasjon" />
		<tag k="ssr:hovedgruppe" v="infrastruktur" />
		<tag k="ssr:stedsnr" v="807256" />
		<tag k="ssr:type" v="fyrlykt" />
	</node>
	<node id="-751937" lat="69.2967854964" lon="17.2916564228">
		<tag k="name" v="Kaperdalsveien" />
		<tag k="ssr:date" v="2019-05-30" />
		<tag k="ssr:gruppe" v="veg" />
		<tag k="ssr:hovedgruppe" v="infrastruktur" />
		<tag k="ssr:stedsnr" v="1011392" />
		<tag k="ssr:type" v="adressenavn" />
	</node>
	<node id="-751960" lat="69.3609980537" lon="17.0689471101">
		<tag k="name" v="Øverveien" />
		<tag k="ssr:date" v="2019-05-30" />
		<tag k="ssr:gruppe" v="veg" />
		<tag k="ssr:hovedgruppe" v="infrastruktur" />
		<tag k="ssr:stedsnr" v="1012119" />
		<tag k="ssr:type" v="adressenavn" />
	</node>
	<node id="-751757" lat="69.3642611137" lon="17.0335972189">
		<tag k="name" v="Gryllefjord molo" />
		<tag k="ssr:date" v="2016-05-10" />
		<tag k="ssr:gruppe" v="navigasjon" />
		<tag k="ssr:hovedgruppe" v="infrastruktur" />
		<tag k="ssr:stedsnr" v="285075" />
		<tag k="ssr:type" v="fyrlykt" />
	</node>
	<node id="-752517" lat="69.2767388932" lon="16.9549083337">
		<tag k="name" v="Ytre Strya" />
		<tag k="ssr:date" v="2016-05-10" />
		<tag k="ssr:gruppe" v="navigasjon" />
		<tag k="ssr:hovedgruppe" v="infrastruktur" />
		<tag k="ssr:stedsnr" v="649964" />
		<tag k="ssr:type" v="fyrlykt" />
	</node>
</osm>
