<?xml version="1.0" encoding="UTF-8"?>
<<<<<<< HEAD
<osm version="0.6" generator="osmapis">
	<node lat="65.8456323841357" lon="12.379059976447984" id="-3735">
		<tag k="name" v="Juldagan" />
		<tag k="ssr:date" v="2021-06-08" />
		<tag k="ssr:gruppe" v="navigasjon" />
		<tag k="ssr:hovedgruppe" v="infrastruktur" />
		<tag k="ssr:stedsnr" v="76463" />
		<tag k="ssr:type" v="fyrlykt" />
	</node>
	<node lat="65.91699494666258" lon="12.369915637364214" id="-3935">
		<tag k="name" v="Søre Sørøyholmen" />
		<tag k="old_name" v="Sørøyholmen, s" />
		<tag k="ssr:date" v="2020-09-15" />
		<tag k="ssr:gruppe" v="navigasjon" />
		<tag k="ssr:hovedgruppe" v="infrastruktur" />
		<tag k="ssr:stedsnr" v="319321" />
		<tag k="ssr:type" v="fyrlykt" />
	</node>
	<node lat="66.01936666688661" lon="12.602122231096793" id="-3938">
		<tag k="name" v="Alstahaug kommune" />
		<tag k="ssr:date" v="2016-05-10" />
		<tag k="ssr:gruppe" v="administrativeIndelinger" />
		<tag k="ssr:hovedgruppe" v="offentligAdministrasjon" />
		<tag k="ssr:stedsnr" v="328366" />
		<tag k="ssr:type" v="kommune" />
	</node>
	<node lat="65.81291774799233" lon="12.44259100961439" id="-4019">
		<tag k="name" v="Tjøtta" />
		<tag k="ssr:date" v="2020-09-15" />
		<tag k="ssr:gruppe" v="navigasjon" />
		<tag k="ssr:hovedgruppe" v="infrastruktur" />
		<tag k="ssr:stedsnr" v="440490" />
		<tag k="ssr:type" v="fyrlykt" />
	</node>
	<node lat="65.80162182006126" lon="12.516688406776403" id="-4288">
		<tag k="name" v="Nordre Troholmen" />
		<tag k="old_name" v="Troholmen, nordre" />
		<tag k="ssr:date" v="2020-09-17" />
		<tag k="ssr:gruppe" v="navigasjon" />
		<tag k="ssr:hovedgruppe" v="infrastruktur" />
		<tag k="ssr:stedsnr" v="926025" />
		<tag k="ssr:type" v="fyrlykt" />
	</node>
	<node lat="65.86848001633479" lon="12.600748521597087" id="-4357">
		<tag k="name" v="Haltøya" />
		<tag k="ssr:date" v="2019-05-30" />
		<tag k="ssr:gruppe" v="veg" />
		<tag k="ssr:hovedgruppe" v="infrastruktur" />
		<tag k="ssr:stedsnr" v="999414" />
		<tag k="ssr:type" v="adressenavn" />
	</node>
	<node lat="65.91973558797199" lon="12.292337818543837" id="-4358">
		<tag k="name" v="Nordåkerøya" />
		<tag k="ssr:date" v="2019-05-30" />
		<tag k="ssr:gruppe" v="veg" />
		<tag k="ssr:hovedgruppe" v="infrastruktur" />
		<tag k="ssr:stedsnr" v="999416" />
		<tag k="ssr:type" v="adressenavn" />
	</node>
	<node lat="65.9230639161432" lon="12.283038777016765" id="-4359">
		<tag k="name" v="Nordbuøya" />
		<tag k="ssr:date" v="2019-05-30" />
		<tag k="ssr:gruppe" v="veg" />
		<tag k="ssr:hovedgruppe" v="infrastruktur" />
		<tag k="ssr:stedsnr" v="999418" />
		<tag k="ssr:type" v="adressenavn" />
	</node>
	<node lat="65.83654085728205" lon="12.575732699448691" id="-4360">
		<tag k="name" v="Tangen" />
		<tag k="ssr:date" v="2019-05-30" />
		<tag k="ssr:gruppe" v="veg" />
		<tag k="ssr:hovedgruppe" v="infrastruktur" />
		<tag k="ssr:stedsnr" v="999423" />
		<tag k="ssr:type" v="adressenavn" />
	</node>
	<node lat="65.80837941069446" lon="12.56160040281529" id="-4361">
		<tag k="name" v="Flatøya" />
		<tag k="ssr:date" v="2019-05-30" />
		<tag k="ssr:gruppe" v="veg" />
		<tag k="ssr:hovedgruppe" v="infrastruktur" />
		<tag k="ssr:stedsnr" v="999425" />
		<tag k="ssr:type" v="adressenavn" />
	</node>
	<node lat="65.86082785958055" lon="12.525421061156083" id="-4362">
		<tag k="name" v="Bonholmen" />
		<tag k="ssr:date" v="2019-05-30" />
		<tag k="ssr:gruppe" v="veg" />
		<tag k="ssr:hovedgruppe" v="infrastruktur" />
		<tag k="ssr:stedsnr" v="999434" />
		<tag k="ssr:type" v="adressenavn" />
	</node>
	<node lat="65.8645455127207" lon="12.176908069363764" id="-4363">
		<tag k="name" v="Skålværet" />
		<tag k="ssr:date" v="2019-05-30" />
		<tag k="ssr:gruppe" v="veg" />
		<tag k="ssr:hovedgruppe" v="infrastruktur" />
		<tag k="ssr:stedsnr" v="999437" />
		<tag k="ssr:type" v="adressenavn" />
	</node>
	<node lat="65.88732006012593" lon="12.314658292754402" id="-4364">
		<tag k="name" v="Eipholmen" />
		<tag k="ssr:date" v="2019-05-30" />
		<tag k="ssr:gruppe" v="veg" />
		<tag k="ssr:hovedgruppe" v="infrastruktur" />
		<tag k="ssr:stedsnr" v="999391" />
		<tag k="ssr:type" v="adressenavn" />
	</node>
	<node lat="65.88074863660546" lon="12.485141615052415" id="-4365">
		<tag k="name" v="Tranholmen" />
		<tag k="ssr:date" v="2019-05-30" />
		<tag k="ssr:gruppe" v="veg" />
		<tag k="ssr:hovedgruppe" v="infrastruktur" />
		<tag k="ssr:stedsnr" v="999535" />
		<tag k="ssr:type" v="adressenavn" />
	</node>
	<node lat="65.98166779841041" lon="12.585672373598854" id="-4366">
		<tag k="name" v="Olderdalen" />
		<tag k="ssr:date" v="2019-05-30" />
		<tag k="ssr:gruppe" v="veg" />
		<tag k="ssr:hovedgruppe" v="infrastruktur" />
		<tag k="ssr:stedsnr" v="999539" />
		<tag k="ssr:type" v="adressenavn" />
	</node>
	<node lat="65.72152880479793" lon="12.306618546879994" id="-4380">
		<tag k="name" v="Skjelva" />
		<tag k="ssr:date" v="2020-09-15" />
		<tag k="ssr:gruppe" v="navigasjon" />
		<tag k="ssr:hovedgruppe" v="infrastruktur" />
		<tag k="ssr:stedsnr" v="15239" />
		<tag k="ssr:type" v="fyrlykt" />
	</node>
	<node lat="65.7760027766457" lon="12.177905556689694" id="-4449">
		<tag k="name" v="Lisoråsa" />
		<tag k="ssr:date" v="2019-12-27" />
		<tag k="ssr:gruppe" v="sjøbunn" />
		<tag k="ssr:hovedgruppe" v="sjø" />
		<tag k="ssr:stedsnr" v="86206" />
		<tag k="ssr:type" v="renneKløftISjø" />
	</node>
	<node lat="65.81290105496244" lon="12.495693076529848" id="-4492">
		<tag k="name" v="Pålholmen" />
		<tag k="ssr:date" v="2020-09-15" />
		<tag k="ssr:gruppe" v="navigasjon" />
		<tag k="ssr:hovedgruppe" v="infrastruktur" />
		<tag k="ssr:stedsnr" v="136503" />
		<tag k="ssr:type" v="fyrlykt" />
	</node>
	<node lat="66.02564785019473" lon="12.637592068644942" id="-4512">
		<tag k="name" v="Sandnessjøen" />
		<tag k="ssr:date" v="2020-09-15" />
		<tag k="ssr:gruppe" v="navigasjon" />
		<tag k="ssr:hovedgruppe" v="infrastruktur" />
		<tag k="ssr:stedsnr" v="137871" />
		<tag k="ssr:type" v="fyrlykt" />
	</node>
	<node lat="65.84632861927751" lon="12.591865712075274" id="-4615">
		<tag k="name" v="Storskjær" />
		<tag k="ssr:date" v="2020-09-15" />
		<tag k="ssr:gruppe" v="navigasjon" />
		<tag k="ssr:hovedgruppe" v="infrastruktur" />
		<tag k="ssr:stedsnr" v="319452" />
		<tag k="ssr:type" v="fyrlykt" />
	</node>
	<node lat="65.94232864370794" lon="12.433241943717139" id="-4699">
		<tag k="name" v="Søvik" />
		<tag k="ssr:date" v="2020-09-15" />
=======
<osm generator="osmapis" version="0.6">
	<node id="-132209" lat="65.9301335186" lon="12.3046701426">
		<tag k="name" v="Buøya" />
		<tag k="ssr:date" v="2017-06-26" />
		<tag k="ssr:gruppe" v="navigasjon" />
		<tag k="ssr:hovedgruppe" v="infrastruktur" />
		<tag k="ssr:stedsnr" v="743358" />
		<tag k="ssr:type" v="fyrlykt" />
	</node>
	<node id="-133160" lat="65.8757638929" lon="12.2501138928">
		<tag k="name" v="Langneset" />
		<tag k="ssr:date" v="2016-05-11" />
		<tag k="ssr:gruppe" v="navigasjon" />
		<tag k="ssr:hovedgruppe" v="infrastruktur" />
		<tag k="ssr:stedsnr" v="865421" />
		<tag k="ssr:type" v="fyrlykt" />
	</node>
	<node id="-132718" lat="66.0193666669" lon="12.6021222311">
		<tag k="name" v="Alstahaug kommune" />
		<tag k="ssr:date" v="2016-05-10" />
		<tag k="ssr:gruppe" v="administrativeIndelinger" />
		<tag k="ssr:hovedgruppe" v="offentligAdministrasjon" />
		<tag k="ssr:stedsnr" v="328366" />
		<tag k="ssr:type" v="kommune" />
	</node>
	<node id="-132712" lat="65.846319449" lon="12.5914555467">
		<tag k="name" v="Storskjær" />
		<tag k="ssr:date" v="2016-05-10" />
>>>>>>> e1d4bc35ff8a6074a6f2e91616a996b547c36f15
		<tag k="ssr:gruppe" v="navigasjon" />
		<tag k="ssr:hovedgruppe" v="infrastruktur" />
		<tag k="ssr:stedsnr" v="440330" />
		<tag k="ssr:type" v="fyrlykt" />
	</node>
<<<<<<< HEAD
	<node lat="65.86073151716144" lon="12.359750946487512" id="-4728">
		<tag k="name" v="Rosøygalten" />
		<tag k="ssr:date" v="2020-09-15" />
=======
	<node id="-132582" lat="66.025655558" lon="12.6376194504">
		<tag k="name" v="Sandnessjøen" />
		<tag k="ssr:date" v="2016-05-10" />
>>>>>>> e1d4bc35ff8a6074a6f2e91616a996b547c36f15
		<tag k="ssr:gruppe" v="navigasjon" />
		<tag k="ssr:hovedgruppe" v="infrastruktur" />
		<tag k="ssr:stedsnr" v="500445" />
		<tag k="ssr:type" v="fyrlykt" />
	</node>
<<<<<<< HEAD
	<node lat="67.2804027758844" lon="14.376388898255625" id="-4752">
		<tag k="alt_name:no" v="Nordland" />
		<tag k="loc_name:se" v="Nordlándda fylka" />
		<tag k="loc_name:sma" v="Nordlaanten fylhke" />
		<tag k="name" v="Nordland fylke - Nordlánda fylkka" />
		<tag k="name:no" v="Nordland fylke" />
		<tag k="name:smj" v="Nordlánda fylkka" />
		<tag k="ssr:date" v="2021-02-03" />
		<tag k="ssr:gruppe" v="administrativeIndelinger" />
		<tag k="ssr:hovedgruppe" v="offentligAdministrasjon" />
		<tag k="ssr:stedsnr" v="511766" />
		<tag k="ssr:type" v="fylke" />
	</node>
	<node lat="65.85809742331071" lon="12.180700037896836" id="-4803">
		<tag k="name" v="Skålværet" />
		<tag k="ssr:date" v="2020-09-15" />
=======
	<node id="-132705" lat="65.9169972251" lon="12.3699194551">
		<tag k="name" v="Søre Sørøyholmen" />
		<tag k="old_name" v="Sørøyholmen, s" />
		<tag k="ssr:date" v="2016-05-10" />
>>>>>>> e1d4bc35ff8a6074a6f2e91616a996b547c36f15
		<tag k="ssr:gruppe" v="navigasjon" />
		<tag k="ssr:hovedgruppe" v="infrastruktur" />
		<tag k="ssr:stedsnr" v="561529" />
		<tag k="ssr:type" v="fyrlykt" />
	</node>
<<<<<<< HEAD
	<node lat="65.9301335186096" lon="12.304670142605929" id="-4906">
		<tag k="name" v="Buøya" />
		<tag k="ssr:date" v="2017-06-26" />
		<tag k="ssr:gruppe" v="navigasjon" />
		<tag k="ssr:hovedgruppe" v="infrastruktur" />
		<tag k="ssr:stedsnr" v="743358" />
		<tag k="ssr:type" v="fyrlykt" />
	</node>
	<node lat="65.87591022713546" lon="12.250106658439393" id="-5052">
		<tag k="name" v="Langneset" />
		<tag k="ssr:date" v="2020-09-17" />
=======
	<node id="-133199" lat="69.6388889725" lon="30.5666644427">
		<tag k="fixme" v="multiple name tags, choose one and add the other to alt_name" />
		<tag k="loc_name:se" v="Norgga gonagasriika" />
		<tag k="loc_name:sma" v="Nöörjen gånkarïjhke" />
		<tag k="loc_name:smj" v="Vuona gånågisrijkka" />
		<tag k="name" v="Noreg;Norge" />
		<tag k="name:en" v="Norway" />
		<tag k="name:no" v="Noreg;Norge" />
		<tag k="ssr:date" v="2020-06-04" />
		<tag k="ssr:gruppe" v="administrativeIndelinger" />
		<tag k="ssr:hovedgruppe" v="offentligAdministrasjon" />
		<tag k="ssr:stedsnr" v="26330" />
		<tag k="ssr:type" v="nasjon" />
	</node>
	<node id="-132136" lat="65.8578583371" lon="12.1803805541">
		<tag k="name" v="Skålværet" />
		<tag k="ssr:date" v="2016-05-10" />
		<tag k="ssr:gruppe" v="navigasjon" />
		<tag k="ssr:hovedgruppe" v="infrastruktur" />
		<tag k="ssr:stedsnr" v="561529" />
		<tag k="ssr:type" v="fyrlykt" />
	</node>
	<node id="-131785" lat="65.8129666638" lon="12.4956861123">
		<tag k="name" v="Pålholmen" />
		<tag k="ssr:date" v="2016-05-10" />
>>>>>>> e1d4bc35ff8a6074a6f2e91616a996b547c36f15
		<tag k="ssr:gruppe" v="navigasjon" />
		<tag k="ssr:hovedgruppe" v="infrastruktur" />
		<tag k="ssr:stedsnr" v="865421" />
		<tag k="ssr:type" v="fyrlykt" />
	</node>
<<<<<<< HEAD
	<node lat="65.85144440237133" lon="12.148750798397614" id="-5130">
		<tag k="name" v="Måsøya" />
=======
	<node id="-133192" lat="65.7696211826" lon="12.4012351265">
		<tag k="name" v="Brastadvika" />
>>>>>>> e1d4bc35ff8a6074a6f2e91616a996b547c36f15
		<tag k="ssr:date" v="2019-05-30" />
		<tag k="ssr:gruppe" v="veg" />
		<tag k="ssr:hovedgruppe" v="infrastruktur" />
		<tag k="ssr:stedsnr" v="999442" />
		<tag k="ssr:type" v="adressenavn" />
	</node>
<<<<<<< HEAD
	<node lat="65.8107484282921" lon="12.495396435511882" id="-5131">
		<tag k="name" v="Pålholmen" />
=======
	<node id="-133191" lat="65.8535129206" lon="12.4716292122">
		<tag k="name" v="Yttervågen" />
>>>>>>> e1d4bc35ff8a6074a6f2e91616a996b547c36f15
		<tag k="ssr:date" v="2019-05-30" />
		<tag k="ssr:gruppe" v="veg" />
		<tag k="ssr:hovedgruppe" v="infrastruktur" />
		<tag k="ssr:stedsnr" v="999444" />
		<tag k="ssr:type" v="adressenavn" />
	</node>
<<<<<<< HEAD
	<node lat="65.87966591421853" lon="12.144891202550065" id="-5132">
		<tag k="name" v="Sevøya" />
=======
	<node id="-133190" lat="65.8340444134" lon="12.4675192294">
		<tag k="name" v="Kjerringstrand" />
>>>>>>> e1d4bc35ff8a6074a6f2e91616a996b547c36f15
		<tag k="ssr:date" v="2019-05-30" />
		<tag k="ssr:gruppe" v="veg" />
		<tag k="ssr:hovedgruppe" v="infrastruktur" />
		<tag k="ssr:stedsnr" v="999446" />
		<tag k="ssr:type" v="adressenavn" />
	</node>
<<<<<<< HEAD
	<node lat="65.8419385330887" lon="12.160659895104587" id="-5133">
		<tag k="name" v="Laukholmen" />
=======
	<node id="-133189" lat="65.8912420553" lon="12.3162127464">
		<tag k="name" v="Slåtterøya" />
>>>>>>> e1d4bc35ff8a6074a6f2e91616a996b547c36f15
		<tag k="ssr:date" v="2019-05-30" />
		<tag k="ssr:gruppe" v="veg" />
		<tag k="ssr:hovedgruppe" v="infrastruktur" />
		<tag k="ssr:stedsnr" v="999448" />
		<tag k="ssr:type" v="adressenavn" />
	</node>
<<<<<<< HEAD
	<node lat="65.79655882886414" lon="12.223645611624011" id="-5134">
		<tag k="name" v="Skotsvær" />
=======
	<node id="-133188" lat="65.8425945601" lon="12.2053546077">
		<tag k="name" v="Kalvøya" />
>>>>>>> e1d4bc35ff8a6074a6f2e91616a996b547c36f15
		<tag k="ssr:date" v="2019-05-30" />
		<tag k="ssr:gruppe" v="veg" />
		<tag k="ssr:hovedgruppe" v="infrastruktur" />
		<tag k="ssr:stedsnr" v="999451" />
		<tag k="ssr:type" v="adressenavn" />
	</node>
<<<<<<< HEAD
	<node lat="65.77620135841151" lon="12.268306346926856" id="-5135">
		<tag k="name" v="Sandvær" />
=======
	<node id="-133187" lat="65.8446117503" lon="12.2594451235">
		<tag k="name" v="Åkerøya" />
>>>>>>> e1d4bc35ff8a6074a6f2e91616a996b547c36f15
		<tag k="ssr:date" v="2019-05-30" />
		<tag k="ssr:gruppe" v="veg" />
		<tag k="ssr:hovedgruppe" v="infrastruktur" />
		<tag k="ssr:stedsnr" v="999453" />
		<tag k="ssr:type" v="adressenavn" />
	</node>
<<<<<<< HEAD
	<node lat="65.832617414299" lon="12.297897706953819" id="-5136">
		<tag k="name" v="Tranøya" />
=======
	<node id="-133186" lat="65.8374548922" lon="12.3367391444">
		<tag k="name" v="Nord-Rosøya" />
>>>>>>> e1d4bc35ff8a6074a6f2e91616a996b547c36f15
		<tag k="ssr:date" v="2019-05-30" />
		<tag k="ssr:gruppe" v="veg" />
		<tag k="ssr:hovedgruppe" v="infrastruktur" />
		<tag k="ssr:stedsnr" v="999394" />
		<tag k="ssr:type" v="adressenavn" />
	</node>
<<<<<<< HEAD
	<node lat="65.82019978705782" lon="12.299398612945211" id="-5137">
=======
	<node id="-133185" lat="65.8201997871" lon="12.2993986129">
>>>>>>> e1d4bc35ff8a6074a6f2e91616a996b547c36f15
		<tag k="name" v="Geiterøya" />
		<tag k="ssr:date" v="2019-05-30" />
		<tag k="ssr:gruppe" v="veg" />
		<tag k="ssr:hovedgruppe" v="infrastruktur" />
		<tag k="ssr:stedsnr" v="999397" />
		<tag k="ssr:type" v="adressenavn" />
	</node>
<<<<<<< HEAD
	<node lat="65.83745489216275" lon="12.336739144411945" id="-5138">
		<tag k="name" v="Nord-Rosøya" />
=======
	<node id="-133184" lat="65.8326174143" lon="12.297897707">
		<tag k="name" v="Tranøya" />
>>>>>>> e1d4bc35ff8a6074a6f2e91616a996b547c36f15
		<tag k="ssr:date" v="2019-05-30" />
		<tag k="ssr:gruppe" v="veg" />
		<tag k="ssr:hovedgruppe" v="infrastruktur" />
		<tag k="ssr:stedsnr" v="999400" />
		<tag k="ssr:type" v="adressenavn" />
	</node>
<<<<<<< HEAD
	<node lat="65.84461175026472" lon="12.259445123475391" id="-5139">
		<tag k="name" v="Åkerøya" />
=======
	<node id="-133183" lat="65.8873200601" lon="12.3146582928">
		<tag k="name" v="Eipholmen" />
>>>>>>> e1d4bc35ff8a6074a6f2e91616a996b547c36f15
		<tag k="ssr:date" v="2019-05-30" />
		<tag k="ssr:gruppe" v="veg" />
		<tag k="ssr:hovedgruppe" v="infrastruktur" />
		<tag k="ssr:stedsnr" v="999402" />
		<tag k="ssr:type" v="adressenavn" />
	</node>
<<<<<<< HEAD
	<node lat="65.84259456006069" lon="12.205354607733861" id="-5140">
		<tag k="name" v="Kalvøya" />
		<tag k="ssr:date" v="2019-05-30" />
		<tag k="ssr:gruppe" v="veg" />
=======
	<node id="-132409" lat="65.721444442" lon="12.3062583354">
		<tag k="name" v="Skjelva" />
		<tag k="ssr:date" v="2016-05-10" />
		<tag k="ssr:gruppe" v="navigasjon" />
		<tag k="ssr:hovedgruppe" v="infrastruktur" />
		<tag k="ssr:stedsnr" v="15239" />
		<tag k="ssr:type" v="fyrlykt" />
	</node>
	<node id="-131890" lat="65.8129250033" lon="12.4424749952">
		<tag k="name" v="Tjøtta" />
		<tag k="ssr:date" v="2016-05-10" />
		<tag k="ssr:gruppe" v="navigasjon" />
>>>>>>> e1d4bc35ff8a6074a6f2e91616a996b547c36f15
		<tag k="ssr:hovedgruppe" v="infrastruktur" />
		<tag k="ssr:stedsnr" v="999405" />
		<tag k="ssr:type" v="adressenavn" />
	</node>
<<<<<<< HEAD
	<node lat="65.89124205530221" lon="12.316212746435278" id="-5141">
		<tag k="name" v="Slåtterøya" />
		<tag k="ssr:date" v="2019-05-30" />
		<tag k="ssr:gruppe" v="veg" />
=======
	<node id="-132269" lat="65.802499999" lon="12.5174833255">
		<tag k="name" v="Nordre Troholmen" />
		<tag k="old_name" v="Troholmen, nordre" />
		<tag k="ssr:date" v="2016-05-11" />
		<tag k="ssr:gruppe" v="navigasjon" />
>>>>>>> e1d4bc35ff8a6074a6f2e91616a996b547c36f15
		<tag k="ssr:hovedgruppe" v="infrastruktur" />
		<tag k="ssr:stedsnr" v="999407" />
		<tag k="ssr:type" v="adressenavn" />
	</node>
<<<<<<< HEAD
	<node lat="65.83404441342383" lon="12.467519229436338" id="-5142">
		<tag k="name" v="Kjerringstrand" />
		<tag k="ssr:date" v="2019-05-30" />
		<tag k="ssr:gruppe" v="veg" />
		<tag k="ssr:hovedgruppe" v="infrastruktur" />
		<tag k="ssr:stedsnr" v="999558" />
		<tag k="ssr:type" v="adressenavn" />
	</node>
	<node lat="65.85351292062913" lon="12.471629212228121" id="-5143">
		<tag k="name" v="Yttervågen" />
=======
	<node id="-132395" lat="65.8382326645" lon="12.1552799198">
		<tag k="name" v="Langøya" />
>>>>>>> e1d4bc35ff8a6074a6f2e91616a996b547c36f15
		<tag k="ssr:date" v="2019-05-30" />
		<tag k="ssr:gruppe" v="veg" />
		<tag k="ssr:hovedgruppe" v="infrastruktur" />
		<tag k="ssr:stedsnr" v="999559" />
		<tag k="ssr:type" v="adressenavn" />
	</node>
<<<<<<< HEAD
	<node lat="65.79809548318039" lon="12.271309760546755" id="-5144">
=======
	<node id="-132394" lat="65.7980954832" lon="12.2713097605">
>>>>>>> e1d4bc35ff8a6074a6f2e91616a996b547c36f15
		<tag k="name" v="Sledeholmen" />
		<tag k="ssr:date" v="2019-05-30" />
		<tag k="ssr:gruppe" v="veg" />
		<tag k="ssr:hovedgruppe" v="infrastruktur" />
		<tag k="ssr:stedsnr" v="999455" />
		<tag k="ssr:type" v="adressenavn" />
	</node>
<<<<<<< HEAD
	<node lat="65.83823266446804" lon="12.155279919782311" id="-5145">
		<tag k="name" v="Langøya" />
=======
	<node id="-132393" lat="65.7762013584" lon="12.2683063469">
		<tag k="name" v="Sandvær" />
>>>>>>> e1d4bc35ff8a6074a6f2e91616a996b547c36f15
		<tag k="ssr:date" v="2019-05-30" />
		<tag k="ssr:gruppe" v="veg" />
		<tag k="ssr:hovedgruppe" v="infrastruktur" />
		<tag k="ssr:stedsnr" v="999457" />
		<tag k="ssr:type" v="adressenavn" />
	</node>
<<<<<<< HEAD
	<node lat="65.76962118256816" lon="12.401235126478882" id="-5146">
		<tag k="name" v="Brastadvika" />
=======
	<node id="-132392" lat="65.7965588289" lon="12.2236456116">
		<tag k="name" v="Skotsvær" />
>>>>>>> e1d4bc35ff8a6074a6f2e91616a996b547c36f15
		<tag k="ssr:date" v="2019-05-30" />
		<tag k="ssr:gruppe" v="veg" />
		<tag k="ssr:hovedgruppe" v="infrastruktur" />
		<tag k="ssr:stedsnr" v="999567" />
		<tag k="ssr:type" v="adressenavn" />
	</node>
	<node id="-132391" lat="65.8419385331" lon="12.1606598951">
		<tag k="name" v="Laukholmen" />
		<tag k="ssr:date" v="2019-05-30" />
		<tag k="ssr:gruppe" v="veg" />
		<tag k="ssr:hovedgruppe" v="infrastruktur" />
		<tag k="ssr:stedsnr" v="999448" />
		<tag k="ssr:type" v="adressenavn" />
	</node>
	<node id="-132390" lat="65.8796659142" lon="12.1448912026">
		<tag k="name" v="Sevøya" />
		<tag k="ssr:date" v="2019-05-30" />
		<tag k="ssr:gruppe" v="veg" />
		<tag k="ssr:hovedgruppe" v="infrastruktur" />
		<tag k="ssr:stedsnr" v="999446" />
		<tag k="ssr:type" v="adressenavn" />
	</node>
	<node id="-132389" lat="65.8107484283" lon="12.4953964355">
		<tag k="name" v="Pålholmen" />
		<tag k="ssr:date" v="2019-05-30" />
		<tag k="ssr:gruppe" v="veg" />
		<tag k="ssr:hovedgruppe" v="infrastruktur" />
		<tag k="ssr:stedsnr" v="999444" />
		<tag k="ssr:type" v="adressenavn" />
	</node>
	<node id="-132388" lat="65.8514444024" lon="12.1487507984">
		<tag k="name" v="Måsøya" />
		<tag k="ssr:date" v="2019-05-30" />
		<tag k="ssr:gruppe" v="veg" />
		<tag k="ssr:hovedgruppe" v="infrastruktur" />
		<tag k="ssr:stedsnr" v="999442" />
		<tag k="ssr:type" v="adressenavn" />
	</node>
	<node id="-132387" lat="65.8645455127" lon="12.1769080694">
		<tag k="name" v="Skålværet" />
		<tag k="ssr:date" v="2019-05-30" />
		<tag k="ssr:gruppe" v="veg" />
		<tag k="ssr:hovedgruppe" v="infrastruktur" />
		<tag k="ssr:stedsnr" v="999437" />
		<tag k="ssr:type" v="adressenavn" />
	</node>
	<node id="-132386" lat="65.8608278596" lon="12.5254210612">
		<tag k="name" v="Bonholmen" />
		<tag k="ssr:date" v="2019-05-30" />
		<tag k="ssr:gruppe" v="veg" />
		<tag k="ssr:hovedgruppe" v="infrastruktur" />
		<tag k="ssr:stedsnr" v="999434" />
		<tag k="ssr:type" v="adressenavn" />
	</node>
	<node id="-132385" lat="65.8083794107" lon="12.5616004028">
		<tag k="name" v="Flatøya" />
		<tag k="ssr:date" v="2019-05-30" />
		<tag k="ssr:gruppe" v="veg" />
		<tag k="ssr:hovedgruppe" v="infrastruktur" />
		<tag k="ssr:stedsnr" v="999425" />
		<tag k="ssr:type" v="adressenavn" />
	</node>
	<node id="-132384" lat="65.8365408573" lon="12.5757326994">
		<tag k="name" v="Tangen" />
		<tag k="ssr:date" v="2019-05-30" />
		<tag k="ssr:gruppe" v="veg" />
		<tag k="ssr:hovedgruppe" v="infrastruktur" />
		<tag k="ssr:stedsnr" v="999423" />
		<tag k="ssr:type" v="adressenavn" />
	</node>
	<node id="-132383" lat="65.9230639161" lon="12.283038777">
		<tag k="name" v="Nordbuøya" />
		<tag k="ssr:date" v="2019-05-30" />
		<tag k="ssr:gruppe" v="veg" />
		<tag k="ssr:hovedgruppe" v="infrastruktur" />
		<tag k="ssr:stedsnr" v="999418" />
		<tag k="ssr:type" v="adressenavn" />
	</node>
	<node id="-132382" lat="65.919735588" lon="12.2923378185">
		<tag k="name" v="Nordåkerøya" />
		<tag k="ssr:date" v="2019-05-30" />
		<tag k="ssr:gruppe" v="veg" />
		<tag k="ssr:hovedgruppe" v="infrastruktur" />
		<tag k="ssr:stedsnr" v="999416" />
		<tag k="ssr:type" v="adressenavn" />
	</node>
	<node id="-132381" lat="65.8684800163" lon="12.6007485216">
		<tag k="name" v="Haltøya" />
		<tag k="ssr:date" v="2019-05-30" />
		<tag k="ssr:gruppe" v="veg" />
		<tag k="ssr:hovedgruppe" v="infrastruktur" />
		<tag k="ssr:stedsnr" v="999414" />
		<tag k="ssr:type" v="adressenavn" />
	</node>
	<node id="-132380" lat="65.9816677984" lon="12.5856723736">
		<tag k="name" v="Olderdalen" />
		<tag k="ssr:date" v="2019-05-30" />
		<tag k="ssr:gruppe" v="veg" />
		<tag k="ssr:hovedgruppe" v="infrastruktur" />
		<tag k="ssr:stedsnr" v="999539" />
		<tag k="ssr:type" v="adressenavn" />
	</node>
	<node id="-132379" lat="65.8807486366" lon="12.4851416151">
		<tag k="name" v="Tranholmen" />
		<tag k="ssr:date" v="2019-05-30" />
		<tag k="ssr:gruppe" v="veg" />
		<tag k="ssr:hovedgruppe" v="infrastruktur" />
		<tag k="ssr:stedsnr" v="999535" />
		<tag k="ssr:type" v="adressenavn" />
	</node>
	<node id="-132505" lat="65.8456527754" lon="12.3791083301">
		<tag k="name" v="Juldagan" />
		<tag k="ssr:date" v="2016-05-10" />
		<tag k="ssr:gruppe" v="navigasjon" />
		<tag k="ssr:hovedgruppe" v="infrastruktur" />
		<tag k="ssr:stedsnr" v="76463" />
		<tag k="ssr:type" v="fyrlykt" />
	</node>
	<node id="-131862" lat="65.942374997" lon="12.4332333313">
		<tag k="name" v="Søvik" />
		<tag k="ssr:date" v="2016-05-10" />
		<tag k="ssr:gruppe" v="navigasjon" />
		<tag k="ssr:hovedgruppe" v="infrastruktur" />
		<tag k="ssr:stedsnr" v="440330" />
		<tag k="ssr:type" v="fyrlykt" />
	</node>
	<node id="-131986" lat="65.8606111139" lon="12.36005556">
		<tag k="name" v="Rosøygalten" />
		<tag k="ssr:date" v="2016-05-10" />
		<tag k="ssr:gruppe" v="navigasjon" />
		<tag k="ssr:hovedgruppe" v="infrastruktur" />
		<tag k="ssr:stedsnr" v="500445" />
		<tag k="ssr:type" v="fyrlykt" />
	</node>
</osm>
