<?xml version="1.0" encoding="UTF-8"?>
<osm generator="osmapis" version="0.6">
	<node id="-27520" lat="59.8864722208" lon="10.4159083334">
		<tag k="name" v="Mårledningen" />
		<tag k="ssr:date" v="2019-12-27" />
		<tag k="ssr:gruppe" v="energi" />
		<tag k="ssr:hovedgruppe" v="infrastruktur" />
		<tag k="ssr:stedsnr" v="326619" />
		<tag k="ssr:type" v="kraftledning" />
	</node>
	<node id="-28016" lat="59.8382085482" lon="9.74485510162">
		<tag k="name" v="Sandtjern" />
		<tag k="ssr:date" v="2019-12-27" />
		<tag k="ssr:gruppe" v="veg" />
		<tag k="ssr:hovedgruppe" v="infrastruktur" />
		<tag k="ssr:stedsnr" v="1034151" />
		<tag k="ssr:type" v="adressenavn" />
	</node>
	<node id="-28262" lat="59.6689444433" lon="9.70970555427">
		<tag k="name" v="Østre Minde" />
		<tag k="ssr:date" v="2019-12-27" />
		<tag k="ssr:gruppe" v="veg" />
		<tag k="ssr:hovedgruppe" v="infrastruktur" />
		<tag k="ssr:stedsnr" v="181766" />
		<tag k="ssr:type" v="vegstrekning" />
	</node>
	<node id="-28769" lat="59.6696694469" lon="9.70561111119">
		<tag k="name" v="Vestre Minde" />
		<tag k="ssr:date" v="2019-12-27" />
		<tag k="ssr:gruppe" v="veg" />
		<tag k="ssr:hovedgruppe" v="infrastruktur" />
		<tag k="ssr:stedsnr" v="813992" />
		<tag k="ssr:type" v="adressenavn" />
	</node>
	<node id="-28886" lat="59.880349025" lon="9.72799739467">
		<tag k="name" v="Kastbråtveien" />
		<tag k="ssr:date" v="2020-08-24" />
		<tag k="ssr:gruppe" v="veg" />
		<tag k="ssr:hovedgruppe" v="infrastruktur" />
		<tag k="ssr:stedsnr" v="1077990" />
		<tag k="ssr:type" v="adressenavn" />
	</node>
	<node id="-28885" lat="59.8193982481" lon="9.78203582795">
		<tag k="name" v="Midtstua" />
		<tag k="ssr:date" v="2020-08-24" />
		<tag k="ssr:gruppe" v="veg" />
		<tag k="ssr:hovedgruppe" v="infrastruktur" />
		<tag k="ssr:stedsnr" v="1077989" />
		<tag k="ssr:type" v="adressenavn" />
	</node>
	<node id="-28884" lat="59.8814207196" lon="9.80319766769">
		<tag k="name" v="Stuvsrudveien" />
		<tag k="ssr:date" v="2020-08-24" />
		<tag k="ssr:gruppe" v="veg" />
		<tag k="ssr:hovedgruppe" v="infrastruktur" />
		<tag k="ssr:stedsnr" v="1077988" />
		<tag k="ssr:type" v="adressenavn" />
	</node>
	<node id="-28883" lat="59.816767196" lon="9.78051207264">
		<tag k="name" v="Spitkroken" />
		<tag k="ssr:date" v="2020-08-24" />
		<tag k="ssr:gruppe" v="veg" />
		<tag k="ssr:hovedgruppe" v="infrastruktur" />
		<tag k="ssr:stedsnr" v="1077987" />
		<tag k="ssr:type" v="adressenavn" />
	</node>
	<node id="-28882" lat="59.7357138208" lon="9.7385827024">
		<tag k="name" v="Steinbekkstien" />
		<tag k="ssr:date" v="2020-08-24" />
		<tag k="ssr:gruppe" v="veg" />
		<tag k="ssr:hovedgruppe" v="infrastruktur" />
		<tag k="ssr:stedsnr" v="1077986" />
		<tag k="ssr:type" v="adressenavn" />
	</node>
	<node id="-28881" lat="59.8879575139" lon="9.76247167931">
		<tag k="name" v="Myrbråtveien" />
		<tag k="ssr:date" v="2020-08-24" />
		<tag k="ssr:gruppe" v="veg" />
		<tag k="ssr:hovedgruppe" v="infrastruktur" />
		<tag k="ssr:stedsnr" v="1077985" />
		<tag k="ssr:type" v="adressenavn" />
	</node>
	<node id="-28880" lat="59.8848644051" lon="9.75537907778">
		<tag k="name" v="Skurvåsstien" />
		<tag k="ssr:date" v="2020-08-24" />
		<tag k="ssr:gruppe" v="veg" />
		<tag k="ssr:hovedgruppe" v="infrastruktur" />
		<tag k="ssr:stedsnr" v="1077984" />
		<tag k="ssr:type" v="adressenavn" />
	</node>
	<node id="-28879" lat="59.8760416709" lon="9.74514031897">
		<tag k="name" v="Skurvåsveien" />
		<tag k="ssr:date" v="2020-08-24" />
		<tag k="ssr:gruppe" v="veg" />
		<tag k="ssr:hovedgruppe" v="infrastruktur" />
		<tag k="ssr:stedsnr" v="1077983" />
		<tag k="ssr:type" v="adressenavn" />
	</node>
	<node id="-28878" lat="59.7063091981" lon="9.78012690846">
		<tag k="name" v="Kølatoppen" />
		<tag k="ssr:date" v="2020-08-24" />
		<tag k="ssr:gruppe" v="veg" />
		<tag k="ssr:hovedgruppe" v="infrastruktur" />
		<tag k="ssr:stedsnr" v="1077982" />
		<tag k="ssr:type" v="adressenavn" />
	</node>
	<node id="-28877" lat="59.703217698" lon="9.77749571723">
		<tag k="name" v="Rudsåsveien" />
		<tag k="ssr:date" v="2020-08-24" />
		<tag k="ssr:gruppe" v="veg" />
		<tag k="ssr:hovedgruppe" v="infrastruktur" />
		<tag k="ssr:stedsnr" v="1077981" />
		<tag k="ssr:type" v="adressenavn" />
	</node>
	<node id="-28876" lat="59.7962038456" lon="9.74950656914">
		<tag k="name" v="Skomakerplassen" />
		<tag k="ssr:date" v="2020-08-24" />
		<tag k="ssr:gruppe" v="veg" />
		<tag k="ssr:hovedgruppe" v="infrastruktur" />
		<tag k="ssr:stedsnr" v="1077980" />
		<tag k="ssr:type" v="adressenavn" />
	</node>
	<node id="-28875" lat="59.7160739711" lon="9.66826893314">
		<tag k="name" v="Skarsbekkstien" />
		<tag k="ssr:date" v="2020-08-24" />
		<tag k="ssr:gruppe" v="veg" />
		<tag k="ssr:hovedgruppe" v="infrastruktur" />
		<tag k="ssr:stedsnr" v="1077979" />
		<tag k="ssr:type" v="adressenavn" />
	</node>
	<node id="-28874" lat="59.7273557825" lon="9.79658436961">
		<tag k="name" v="Rogndalsbråtan" />
		<tag k="ssr:date" v="2020-07-02" />
		<tag k="ssr:gruppe" v="veg" />
		<tag k="ssr:hovedgruppe" v="infrastruktur" />
		<tag k="ssr:stedsnr" v="1077556" />
		<tag k="ssr:type" v="adressenavn" />
	</node>
	<node id="-28873" lat="59.7585589166" lon="9.81074329359">
		<tag k="name" v="Kopperverkstien" />
		<tag k="ssr:date" v="2020-06-23" />
		<tag k="ssr:gruppe" v="veg" />
		<tag k="ssr:hovedgruppe" v="infrastruktur" />
		<tag k="ssr:stedsnr" v="1077431" />
		<tag k="ssr:type" v="adressenavn" />
	</node>
	<node id="-28866" lat="59.9116896876" lon="10.7581882267">
		<tag k="name" v="Viken fylke" />
		<tag k="ssr:date" v="2020-01-13" />
		<tag k="ssr:gruppe" v="administrativeIndelinger" />
		<tag k="ssr:hovedgruppe" v="offentligAdministrasjon" />
		<tag k="ssr:stedsnr" v="1074403" />
		<tag k="ssr:type" v="fylke" />
	</node>
	<node id="-27575" lat="59.7711111135" lon="9.90840555262">
		<tag k="name" v="Øvre Eiker kommune" />
		<tag k="ssr:date" v="2019-12-27" />
		<tag k="ssr:gruppe" v="administrativeIndelinger" />
		<tag k="ssr:hovedgruppe" v="offentligAdministrasjon" />
		<tag k="ssr:stedsnr" v="510327" />
		<tag k="ssr:type" v="kommune" />
	</node>
	<node id="-27593" lat="60.2320222229" lon="10.2469666645">
		<tag k="name" v="Randsfjordbanen" />
		<tag k="ssr:date" v="2019-12-27" />
		<tag k="ssr:gruppe" v="bane" />
		<tag k="ssr:hovedgruppe" v="infrastruktur" />
		<tag k="ssr:stedsnr" v="511795" />
		<tag k="ssr:type" v="banestrekning" />
	</node>
	<node id="-28843" lat="59.8182897631" lon="10.0001271982">
		<tag k="name" v="Øyvann" />
		<tag k="ssr:date" v="2019-12-27" />
		<tag k="ssr:gruppe" v="veg" />
		<tag k="ssr:hovedgruppe" v="infrastruktur" />
		<tag k="ssr:stedsnr" v="1034181" />
		<tag k="ssr:type" v="adressenavn" />
	</node>
	<node id="-27816" lat="59.7410583314" lon="9.87576666676">
		<tag k="name" v="Sørlandsbanen" />
		<tag k="ssr:date" v="2019-12-27" />
		<tag k="ssr:gruppe" v="bane" />
		<tag k="ssr:hovedgruppe" v="infrastruktur" />
		<tag k="ssr:stedsnr" v="876848" />
		<tag k="ssr:type" v="banestrekning" />
	</node>
</osm>
