<?xml version="1.0" encoding="UTF-8"?>
<osm generator="osmapis" version="0.6">
	<node id="-530429" lat="61.3672166702" lon="6.0319944434">
		<tag k="historic" v="shieling" />
		<tag k="name" v="Gøyvinga" />
		<tag k="place" v="locality" />
		<tag k="ssr:stedsnr" v="189432" />
	</node>
	<node id="-530386" lat="61.3313749971" lon="6.27732777422">
		<tag k="name" v="Hoff pensjonat" />
		<tag k="ssr:stedsnr" v="155173" />
		<tag k="tourism" v="guest_house" />
	</node>
	<node id="-530385" lat="61.3435027804" lon="6.31119443856">
		<tag k="name" v="Mjellshaugen" />
		<tag k="place" v="farm" />
		<tag k="ssr:stedsnr" v="155168" />
	</node>
	<node id="-530377" lat="61.3855628942" lon="5.73259839046">
		<tag k="alt_name" v="Hjelmeland, in;Hjelmeland" />
		<tag k="fixme" v="consider place=hamlet" />
		<tag k="name" v="Indre Hjelmeland" />
		<tag k="place" v="farm" />
		<tag k="ssr:stedsnr" v="129944" />
	</node>
	<node id="-530376" lat="61.3620261507" lon="5.57882377354">
		<tag k="alt_name" v="Bjørvik" />
		<tag k="fixme" v="consider place=hamlet" />
		<tag k="name" v="Bjørvika" />
		<tag k="place" v="farm" />
		<tag k="ssr:stedsnr" v="129927" />
	</node>
	<node id="-530371" lat="61.4153861068" lon="5.70534166395">
		<tag k="historic" v="shieling" />
		<tag k="name" v="Åsstølen" />
		<tag k="place" v="locality" />
		<tag k="ssr:stedsnr" v="129804" />
	</node>
	<node id="-530364" lat="61.3203777766" lon="6.31803055033">
		<tag k="name" v="Skålebotnen" />
		<tag k="place" v="isolated_dwelling" />
		<tag k="ssr:stedsnr" v="129787" />
	</node>
	<node id="-530360" lat="61.3951361136" lon="5.53625277911">
		<tag k="name" v="Indrestølen" />
		<tag k="place" v="locality" />
		<tag k="ssr:stedsnr" v="129778" />
	</node>
	<node id="-530359" lat="61.4105861122" lon="5.80768611925">
		<tag k="historic" v="shieling" />
		<tag k="name" v="Furenesstølen" />
		<tag k="place" v="locality" />
		<tag k="ssr:stedsnr" v="129771" />
	</node>
	<node id="-530355" lat="61.3377426505" lon="6.31393369267">
		<tag k="fixme" v="consider place=hamlet" />
		<tag k="name" v="Mjellsmyra" />
		<tag k="place" v="farm" />
		<tag k="ssr:stedsnr" v="129713" />
	</node>
	<node id="-530352" lat="61.3809805514" lon="5.47013889603">
		<tag k="name" v="Laukeland" />
		<tag k="place" v="farm" />
		<tag k="ssr:stedsnr" v="129532" />
	</node>
	<node id="-530351" lat="61.3168107716" lon="6.02542591935">
		<tag k="alt_name" v="Årli" />
		<tag k="fixme" v="consider place=hamlet" />
		<tag k="name" v="Årlia" />
		<tag k="place" v="farm" />
		<tag k="ssr:stedsnr" v="129516" />
	</node>
	<node id="-530338" lat="61.3240805514" lon="5.67530555495">
		<tag k="alt_name" v="Sygnestølen, øvre" />
		<tag k="historic" v="shieling" />
		<tag k="name" v="Øvre Sygnestølen" />
		<tag k="place" v="locality" />
		<tag k="ssr:stedsnr" v="129148" />
	</node>
	<node id="-530337" lat="61.3281655145" lon="5.81887025809">
		<tag k="fixme" v="consider place=hamlet" />
		<tag k="name" v="Selstad" />
		<tag k="place" v="farm" />
		<tag k="ssr:stedsnr" v="129128" />
	</node>
	<node id="-530323" lat="61.3431944464" lon="5.56596389589">
		<tag k="alt_name" v="Bjørvikstølen" />
		<tag k="historic" v="shieling" />
		<tag k="name" v="Bjørvikestølen" />
		<tag k="place" v="locality" />
		<tag k="ssr:stedsnr" v="129002" />
	</node>
	<node id="-530320" lat="61.3684712163" lon="5.69941984812">
		<tag k="alt_name" v="Hagenes" />
		<tag k="fixme" v="consider place=hamlet" />
		<tag k="name" v="Hageneset" />
		<tag k="place" v="farm" />
		<tag k="ssr:stedsnr" v="128874" />
	</node>
	<node id="-530318" lat="61.364254288" lon="6.22615724066">
		<tag k="fixme" v="consider place=hamlet" />
		<tag k="name" v="Vallestad" />
		<tag k="place" v="farm" />
		<tag k="ssr:stedsnr" v="128711" />
	</node>
	<node id="-530316" lat="61.3383685567" lon="5.84717324828">
		<tag k="name" v="Fosshaugen" />
		<tag k="place" v="farm" />
		<tag k="ssr:stedsnr" v="128459" />
	</node>
	<node id="-530313" lat="61.3305926924" lon="6.05630713127">
		<tag k="fixme" v="consider place=hamlet" />
		<tag k="name" v="Roska" />
		<tag k="place" v="farm" />
		<tag k="ssr:stedsnr" v="128545" />
	</node>
	<node id="-530310" lat="61.3207003051" lon="5.91964525365">
		<tag k="alt_name" v="Nedre Strand" />
		<tag k="fixme" v="consider place=hamlet" />
		<tag k="name" v="Nedrestrond" />
		<tag k="place" v="farm" />
		<tag k="ssr:stedsnr" v="128531" />
	</node>
	<node id="-530256" lat="61.3757583307" lon="5.7927777709">
		<tag k="name" v="Smylmehaugen" />
		<tag k="place" v="farm" />
		<tag k="ssr:stedsnr" v="69945" />
	</node>
	<node id="-530254" lat="61.3758944424" lon="5.75383055323">
		<tag k="name" v="Bjørkehagen" />
		<tag k="place" v="locality" />
		<tag k="ssr:stedsnr" v="69917" />
	</node>
	<node id="-530247" lat="61.3003722182" lon="5.69130555356">
		<tag k="alt_name" v="Solåsstøl" />
		<tag k="historic" v="shieling" />
		<tag k="name" v="Solåsstølen" />
		<tag k="place" v="locality" />
		<tag k="ssr:stedsnr" v="69147" />
	</node>
	<node id="-530237" lat="61.3863888877" lon="5.81109443659">
		<tag k="name" v="Solvang" />
		<tag k="place" v="farm" />
		<tag k="ssr:stedsnr" v="68925" />
	</node>
	<node id="-530231" lat="61.3646566562" lon="5.59761022275">
		<tag k="alt_name" v="Birkeland" />
		<tag k="fixme" v="consider place=hamlet" />
		<tag k="name" v="Byrkjeland" />
		<tag k="place" v="farm" />
		<tag k="ssr:stedsnr" v="68880" />
	</node>
	<node id="-530230" lat="61.3654222265" lon="5.63816944986">
		<tag k="name" v="Hjellen" />
		<tag k="place" v="isolated_dwelling" />
		<tag k="ssr:stedsnr" v="68879" />
	</node>
	<node id="-530229" lat="61.3653055556" lon="5.69738055297">
		<tag k="name" v="Futegota" />
		<tag k="place" v="farm" />
		<tag k="ssr:stedsnr" v="68871" />
	</node>
	<node id="-530228" lat="61.2648277792" lon="5.86134999252">
		<tag k="historic" v="shieling" />
		<tag k="name" v="Økslandsstølen" />
		<tag k="place" v="locality" />
		<tag k="ssr:stedsnr" v="68588" />
	</node>
	<node id="-530223" lat="61.3148277771" lon="6.06188056044">
		<tag k="historic" v="shieling" />
		<tag k="name" v="Tormodsetstølen" />
		<tag k="place" v="locality" />
		<tag k="ssr:stedsnr" v="68533" />
	</node>
	<node id="-530216" lat="61.3553737147" lon="6.12112755188">
		<tag k="alt_name" v="Ørnehaug" />
		<tag k="fixme" v="consider place=hamlet" />
		<tag k="name" v="Ørnehaugen" />
		<tag k="place" v="farm" />
		<tag k="ssr:stedsnr" v="68478" />
	</node>
	<node id="-530207" lat="61.2994136372" lon="5.823457884">
		<tag k="fixme" v="consider place=hamlet" />
		<tag k="name" v="Årberg" />
		<tag k="place" v="farm" />
		<tag k="ssr:stedsnr" v="68175" />
	</node>
	<node id="-530201" lat="61.3497912671" lon="5.7148361949">
		<tag k="fixme" v="consider place=hamlet" />
		<tag k="name" v="Leirsand" />
		<tag k="place" v="farm" />
		<tag k="ssr:stedsnr" v="68055" />
	</node>
	<node id="-530193" lat="61.3840527787" lon="5.67812499531">
		<tag k="historic" v="shieling" />
		<tag k="name" v="Vårstølen" />
		<tag k="place" v="locality" />
		<tag k="ssr:stedsnr" v="38931" />
	</node>
	<node id="-530149" lat="61.3712999959" lon="6.26048054964">
		<tag k="name" v="Vonheim" />
		<tag k="place" v="farm" />
		<tag k="ssr:stedsnr" v="33562" />
	</node>
	<node id="-530138" lat="61.3740653023" lon="5.70002015821">
		<tag k="alt_name" v="Fauske, s;Fauske" />
		<tag k="fixme" v="consider place=hamlet" />
		<tag k="name" v="Søre Fauske" />
		<tag k="place" v="farm" />
		<tag k="ssr:stedsnr" v="8912" />
	</node>
	<node id="-530129" lat="61.2512388917" lon="5.80660277641">
		<tag k="historic" v="shieling" />
		<tag k="name" v="Dregebøstølen" />
		<tag k="place" v="locality" />
		<tag k="ssr:stedsnr" v="8263" />
	</node>
	<node id="-530124" lat="61.2945055577" lon="5.81596666375">
		<tag k="building" v="industrial" />
		<tag k="industrial" v="factory" />
		<tag k="name" v="Årbergsdalen" />
		<tag k="ssr:stedsnr" v="8169" />
	</node>
	<node id="-530122" lat="61.32108289" lon="5.75567722641">
		<tag k="alt_name" v="Døskeland" />
		<tag k="fixme" v="consider place=hamlet" />
		<tag k="name" v="Dysjeland" />
		<tag k="place" v="farm" />
		<tag k="ssr:stedsnr" v="8137" />
	</node>
	<node id="-530115" lat="61.3813452004" lon="5.48354504805">
		<tag k="fixme" v="consider place=hamlet" />
		<tag k="name" v="Standnes" />
		<tag k="place" v="farm" />
		<tag k="ssr:stedsnr" v="7996" />
	</node>
	<node id="-530113" lat="61.3791123043" lon="5.5373456153">
		<tag k="fixme" v="consider place=hamlet" />
		<tag k="name" v="Sunde" />
		<tag k="place" v="farm" />
		<tag k="ssr:stedsnr" v="7989" />
	</node>
	<node id="-530111" lat="61.3955166689" lon="5.68236389278">
		<tag k="alt_name" v="Haugsbø  Stølen" />
		<tag k="historic" v="shieling" />
		<tag k="name" v="Haugsstølen" />
		<tag k="place" v="locality" />
		<tag k="ssr:stedsnr" v="7976" />
	</node>
	<node id="-530110" lat="61.3710899362" lon="5.64722299908">
		<tag k="alt_name" v="Lending" />
		<tag k="fixme" v="consider place=hamlet" />
		<tag k="name" v="Lendinga" />
		<tag k="place" v="farm" />
		<tag k="ssr:stedsnr" v="7890" />
	</node>
	<node id="-530108" lat="61.3645419775" lon="5.67816153713">
		<tag k="fixme" v="consider place=hamlet" />
		<tag k="name" v="Osen" />
		<tag k="place" v="farm" />
		<tag k="ssr:stedsnr" v="7886" />
	</node>
	<node id="-530106" lat="61.3342333309" lon="6.03180834289">
		<tag k="historic" v="shieling" />
		<tag k="name" v="Roskestølen" />
		<tag k="place" v="locality" />
		<tag k="ssr:stedsnr" v="7547" />
	</node>
	<node id="-530105" lat="61.3297732532" lon="6.10001215272">
		<tag k="alt_name" v="Hestebeit" />
		<tag k="fixme" v="consider place=hamlet" />
		<tag k="name" v="Hestebeita" />
		<tag k="place" v="farm" />
		<tag k="ssr:stedsnr" v="7544" />
	</node>
	<node id="-530099" lat="61.3512395883" lon="6.11036513399">
		<tag k="alt_name" v="Viken" />
		<tag k="fixme" v="consider place=hamlet" />
		<tag k="name" v="Vika" />
		<tag k="place" v="farm" />
		<tag k="ssr:stedsnr" v="7459" />
	</node>
	<node id="-530085" lat="61.33288333" lon="5.82644999871">
		<tag k="name" v="Nybø" />
		<tag k="place" v="farm" />
		<tag k="ssr:stedsnr" v="7083" />
	</node>
	<node id="-530082" lat="61.3608555516" lon="5.72514166804">
		<tag k="name" v="Løyken" />
		<tag k="place" v="farm" />
		<tag k="ssr:stedsnr" v="7025" />
	</node>
	<node id="-530080" lat="61.3411236935" lon="6.08746834264">
		<tag k="loc_name" v="Myregjerdet;Myregjerde;Myregjeret" />
		<tag k="name" v="Ytrebø" />
		<tag k="place" v="farm" />
		<tag k="ssr:stedsnr" v="990485" />
	</node>
	<node id="-530072" lat="61.3860305534" lon="5.7515249928">
		<tag k="name" v="Perhaugen" />
		<tag k="place" v="quarter" />
		<tag k="ssr:stedsnr" v="889334" />
	</node>
	<node id="-530033" lat="61.3784833365" lon="6.27575555038">
		<tag k="historic" v="shieling" />
		<tag k="name" v="Vikumstølen" />
		<tag k="place" v="locality" />
		<tag k="ssr:stedsnr" v="883550" />
	</node>
	<node id="-530005" lat="61.3119916705" lon="6.22800833108">
		<tag k="name" v="Hopeteigen" />
		<tag k="place" v="locality" />
		<tag k="ssr:stedsnr" v="401881" />
	</node>
	<node id="-529975" lat="61.3816499968" lon="5.80061943685">
		<tag k="alt_name" v="Storehaug" />
		<tag k="name" v="Storehaugen" />
		<tag k="place" v="farm" />
		<tag k="ssr:stedsnr" v="372944" />
	</node>
	<node id="-529972" lat="61.3788583364" lon="5.68458054677">
		<tag k="name" v="Haugen" />
		<tag k="place" v="farm" />
		<tag k="ssr:stedsnr" v="372925" />
	</node>
	<node id="-529970" lat="61.4113055573" lon="5.76402499049">
		<tag k="historic" v="shieling" />
		<tag k="name" v="Gjøsetstølen" />
		<tag k="place" v="locality" />
		<tag k="ssr:stedsnr" v="372832" />
	</node>
	<node id="-529969" lat="61.4128027738" lon="5.71553333604">
		<tag k="alt_name" v="Åmotstølen" />
		<tag k="historic" v="shieling" />
		<tag k="name" v="Åmotsstølen" />
		<tag k="place" v="locality" />
		<tag k="ssr:stedsnr" v="372828" />
	</node>
	<node id="-529963" lat="61.4013694463" lon="5.66371111286">
		<tag k="historic" v="shieling" />
		<tag k="name" v="Kvamsstølen" />
		<tag k="place" v="locality" />
		<tag k="ssr:stedsnr" v="372776" />
	</node>
	<node id="-529962" lat="61.3987944464" lon="5.70553611796">
		<tag k="historic" v="shieling" />
		<tag k="name" v="Fauskestølen" />
		<tag k="place" v="locality" />
		<tag k="ssr:stedsnr" v="372775" />
	</node>
	<node id="-529961" lat="61.3998694426" lon="5.68428333157">
		<tag k="historic" v="shieling" />
		<tag k="name" v="Yndestadstølen" />
		<tag k="place" v="locality" />
		<tag k="ssr:stedsnr" v="372773" />
	</node>
	<node id="-529956" lat="61.3024944487" lon="5.81605277471">
		<tag k="alt_name" v="Birkehaug" />
		<tag k="name" v="Byrkjehaugen" />
		<tag k="place" v="farm" />
		<tag k="ssr:stedsnr" v="372181" />
	</node>
	<node id="-529954" lat="61.3127861074" lon="5.66575556245">
		<tag k="alt_name" v="Årøstøl" />
		<tag k="historic" v="shieling" />
		<tag k="name" v="Årøystølen" />
		<tag k="place" v="locality" />
		<tag k="ssr:stedsnr" v="372159" />
	</node>
	<node id="-529949" lat="61.3802834791" lon="5.49589828886">
		<tag k="fixme" v="consider place=hamlet" />
		<tag k="name" v="Hestad" />
		<tag k="place" v="farm" />
		<tag k="ssr:stedsnr" v="371991" />
	</node>
	<node id="-529948" lat="61.381158513" lon="5.64798035578">
		<tag k="fixme" v="consider place=hamlet" />
		<tag k="name" v="Bygstad" />
		<tag k="place" v="farm" />
		<tag k="ssr:stedsnr" v="371986" />
	</node>
	<node id="-529947" lat="61.3870222219" lon="5.611530552">
		<tag k="name" v="Teigen" />
		<tag k="place" v="farm" />
		<tag k="ssr:stedsnr" v="371984" />
	</node>
	<node id="-529946" lat="61.3884412367" lon="5.61706393961">
		<tag k="fixme" v="consider place=hamlet" />
		<tag k="name" v="Berge" />
		<tag k="place" v="farm" />
		<tag k="ssr:stedsnr" v="371979" />
	</node>
	<node id="-529945" lat="61.3937098723" lon="5.62404928919">
		<tag k="name" v="Meltavollen" />
		<tag k="place" v="locality" />
		<tag k="ssr:stedsnr" v="371974" />
	</node>
	<node id="-529941" lat="61.3970611112" lon="5.77488610535">
		<tag k="historic" v="shieling" />
		<tag k="name" v="Gamlestølen" />
		<tag k="place" v="locality" />
		<tag k="ssr:stedsnr" v="371967" />
	</node>
	<node id="-529939" lat="61.372144447" lon="5.8360055581">
		<tag k="alt_name" v="Fagerdalsstølen" />
		<tag k="historic" v="shieling" />
		<tag k="name" v="Fagredalen" />
		<tag k="place" v="locality" />
		<tag k="ssr:stedsnr" v="371917" />
	</node>
	<node id="-529937" lat="61.3664102409" lon="5.60959352616">
		<tag k="alt_name" v="Ekehaug" />
		<tag k="fixme" v="consider place=hamlet" />
		<tag k="name" v="Eikehaugen" />
		<tag k="place" v="farm" />
		<tag k="ssr:stedsnr" v="371892" />
	</node>
	<node id="-529934" lat="61.3790060564" lon="6.25928791414">
		<tag k="fixme" v="consider place=hamlet" />
		<tag k="name" v="Årnes" />
		<tag k="place" v="farm" />
		<tag k="ssr:stedsnr" v="371757" />
	</node>
	<node id="-529929" lat="61.3335522672" lon="6.27740010304">
		<tag k="alt_name" v="Hoffslåttene;Hov" />
		<tag k="name" v="Hovslåttene" />
		<tag k="old_name" v="Hev" />
		<tag k="place" v="locality" />
		<tag k="ssr:stedsnr" v="371699" />
	</node>
	<node id="-529925" lat="61.3157333353" lon="5.88260832567">
		<tag k="alt_name" v="Årnesstøl" />
		<tag k="historic" v="shieling" />
		<tag k="name" v="Årsnesstølen" />
		<tag k="place" v="locality" />
		<tag k="ssr:stedsnr" v="371527" />
	</node>
	<node id="-529915" lat="61.330987374" lon="5.89147050239">
		<tag k="alt_name" v="Horsevik" />
		<tag k="fixme" v="consider place=hamlet" />
		<tag k="name" v="Horsevika" />
		<tag k="place" v="farm" />
		<tag k="ssr:stedsnr" v="371476" />
	</node>
	<node id="-529914" lat="61.3264999967" lon="5.96993055015">
		<tag k="name" v="Nybø" />
		<tag k="place" v="farm" />
		<tag k="ssr:stedsnr" v="371473" />
	</node>
	<node id="-529913" lat="61.3406055528" lon="6.13021389529">
		<tag k="name" v="Osvollen" />
		<tag k="place" v="farm" />
		<tag k="ssr:stedsnr" v="371463" />
	</node>
	<node id="-529911" lat="61.3465750033" lon="5.91809999034">
		<tag k="historic" v="shieling" />
		<tag k="name" v="Kjelstadstølen" />
		<tag k="place" v="locality" />
		<tag k="ssr:stedsnr" v="371439" />
	</node>
	<node id="-529910" lat="61.3466416672" lon="5.94629999646">
		<tag k="alt_name" v="Indre Hestadstølane" />
		<tag k="historic" v="shieling" />
		<tag k="name" v="Hestadstølen" />
		<tag k="place" v="locality" />
		<tag k="ssr:stedsnr" v="371437" />
	</node>
	<node id="-529909" lat="61.2711361068" lon="5.77305556086">
		<tag k="historic" v="shieling" />
		<tag k="name" v="Årbergsstølen" />
		<tag k="place" v="locality" />
		<tag k="ssr:stedsnr" v="371180" />
	</node>
	<node id="-529905" lat="61.3451444442" lon="5.82474167024">
		<tag k="alt_name" v="Foss - støl" />
		<tag k="historic" v="shieling" />
		<tag k="name" v="Fosstølen" />
		<tag k="place" v="locality" />
		<tag k="ssr:stedsnr" v="371076" />
	</node>
	<node id="-529904" lat="61.3310839788" lon="5.70088779001">
		<tag k="fixme" v="multiple name tags, choose one and add the other to alt_name; consider place=hamlet" />
		<tag k="name" v="Torsstølen;Øvrebø" />
		<tag k="place" v="farm" />
		<tag k="ssr:stedsnr" v="371065" />
	</node>
	<node id="-529900" lat="61.3199833328" lon="5.79863332606">
		<tag k="name" v="Steia" />
		<tag k="place" v="quarter" />
		<tag k="ssr:stedsnr" v="343300" />
	</node>
	<node id="-529868" lat="61.404597223" lon="5.44489999509">
		<tag k="fixme" v="consider tourism=alpine_hut or tourism=chalet" />
		<tag k="name" v="Massbu" />
		<tag k="ssr:stedsnr" v="339279" />
		<tag k="tourism" v="wilderness_hut" />
	</node>
	<node id="-529866" lat="61.3175361141" lon="6.24291666109">
		<tag k="name" v="Gjermundstadmyra" />
		<tag k="place" v="farm" />
		<tag k="ssr:stedsnr" v="338919" />
	</node>
	<node id="-529856" lat="61.336575004" lon="5.92799722789">
		<tag k="barrier" v="fence" />
		<tag k="name" v="Hansgjerdet" />
		<tag k="ssr:stedsnr" v="331798" />
	</node>
	<node id="-529854" lat="61.3897183205" lon="5.62243499613">
		<tag k="alt_name" v="Rytne" />
		<tag k="fixme" v="consider place=hamlet" />
		<tag k="name" v="Rytnane" />
		<tag k="place" v="farm" />
		<tag k="ssr:stedsnr" v="311990" />
	</node>
	<node id="-529849" lat="61.3623777748" lon="5.58692221848">
		<tag k="name" v="Hingarden" />
		<tag k="place" v="farm" />
		<tag k="ssr:stedsnr" v="311951" />
	</node>
	<node id="-529847" lat="61.3708444475" lon="5.74650278471">
		<tag k="name" v="Øyra" />
		<tag k="place" v="farm" />
		<tag k="ssr:stedsnr" v="311902" />
	</node>
	<node id="-529839" lat="61.3310162826" lon="6.29692098312">
		<tag k="alt_name" v="Hoffstølen" />
		<tag k="historic" v="shieling" />
		<tag k="name" v="Hovstølen" />
		<tag k="place" v="locality" />
		<tag k="ssr:stedsnr" v="311816" />
	</node>
	<node id="-529838" lat="61.3853916707" lon="6.28983333706">
		<tag k="historic" v="shieling" />
		<tag k="name" v="Vikumstølen" />
		<tag k="place" v="locality" />
		<tag k="ssr:stedsnr" v="311795" />
	</node>
	<node id="-529837" lat="61.3864781015" lon="6.27039181119">
		<tag k="fixme" v="multiple name tags, choose one and add the other to alt_name; consider place=hamlet" />
		<tag k="name" v="Skipnaset;Vikum" />
		<tag k="place" v="farm" />
		<tag k="ssr:stedsnr" v="311781" />
	</node>
	<node id="-529834" lat="61.277041667" lon="5.88908055086">
		<tag k="historic" v="shieling" />
		<tag k="name" v="Grytåsstølen" />
		<tag k="place" v="locality" />
		<tag k="ssr:stedsnr" v="311630" />
	</node>
	<node id="-529831" lat="61.3319611077" lon="6.173711109">
		<tag k="name" v="Toa" />
		<tag k="place" v="farm" />
		<tag k="ssr:stedsnr" v="311591" />
	</node>
	<node id="-529829" lat="61.3236027799" lon="6.1154361023">
		<tag k="name" v="Espesetstølen" />
		<tag k="place" v="farm" />
		<tag k="ssr:stedsnr" v="311574" />
	</node>
	<node id="-529826" lat="61.3094861141" lon="5.93371667145">
		<tag k="historic" v="shieling" />
		<tag k="name" v="Kyrkjelistølen" />
		<tag k="place" v="locality" />
		<tag k="ssr:stedsnr" v="311563" />
	</node>
	<node id="-529822" lat="61.3274201363" lon="5.97945946971">
		<tag k="fixme" v="consider place=hamlet" />
		<tag k="name" v="Vågen" />
		<tag k="place" v="farm" />
		<tag k="ssr:stedsnr" v="311533" />
	</node>
	<node id="-529821" lat="61.3375531862" lon="5.85498370863">
		<tag k="alt_name" v="Fossevik" />
		<tag k="fixme" v="consider place=hamlet" />
		<tag k="name" v="Fossevika" />
		<tag k="place" v="farm" />
		<tag k="ssr:stedsnr" v="311525" />
	</node>
	<node id="-529820" lat="61.3435381596" lon="5.86544842992">
		<tag k="alt_name" v="Skudal" />
		<tag k="fixme" v="consider place=hamlet" />
		<tag k="name" v="Skudalen" />
		<tag k="place" v="farm" />
		<tag k="ssr:stedsnr" v="311512" />
	</node>
	<node id="-529819" lat="61.3617951823" lon="6.14999916871">
		<tag k="alt_name" v="Hetle" />
		<tag k="fixme" v="consider place=hamlet" />
		<tag k="name" v="Hetla" />
		<tag k="place" v="farm" />
		<tag k="ssr:stedsnr" v="311509" />
	</node>
	<node id="-529816" lat="61.3821000013" lon="6.16717777395">
		<tag k="alt_name" v="Hetlestølen" />
		<tag k="historic" v="shieling" />
		<tag k="name" v="Hetlastølen" />
		<tag k="place" v="locality" />
		<tag k="ssr:stedsnr" v="311488" />
	</node>
	<node id="-529810" lat="61.2922712217" lon="5.83547118007">
		<tag k="fixme" v="consider place=hamlet" />
		<tag k="name" v="Senneset" />
		<tag k="place" v="farm" />
		<tag k="ssr:stedsnr" v="311210" />
	</node>
	<node id="-529806" lat="61.3105782665" lon="5.79440057895">
		<tag k="fixme" v="consider place=hamlet" />
		<tag k="name" v="Løfall" />
		<tag k="place" v="farm" />
		<tag k="ssr:stedsnr" v="311155" />
	</node>
	<node id="-529805" lat="61.3216138866" lon="5.73247499365">
		<tag k="name" v="Ytrebø" />
		<tag k="place" v="farm" />
		<tag k="ssr:stedsnr" v="311148" />
	</node>
	<node id="-529804" lat="61.3071277791" lon="5.69752778044">
		<tag k="alt_name" v="Høgelidstøl" />
		<tag k="historic" v="shieling" />
		<tag k="name" v="Høgelistølen" />
		<tag k="place" v="locality" />
		<tag k="ssr:stedsnr" v="311130" />
	</node>
	<node id="-529803" lat="61.3038761078" lon="5.8028876428">
		<tag k="fixme" v="consider place=hamlet" />
		<tag k="name" v="Årbergsbotnen" />
		<tag k="place" v="farm" />
		<tag k="ssr:stedsnr" v="311119" />
	</node>
	<node id="-529801" lat="61.3340531524" lon="5.81539521692">
		<tag k="alt_name" v="Lien" />
		<tag k="fixme" v="consider place=hamlet" />
		<tag k="name" v="Lia" />
		<tag k="place" v="farm" />
		<tag k="ssr:stedsnr" v="311090" />
	</node>
	<node id="-529800" lat="61.3381390205" lon="5.84241514755">
		<tag k="fixme" v="consider place=hamlet" />
		<tag k="name" v="Foss" />
		<tag k="place" v="farm" />
		<tag k="ssr:stedsnr" v="311088" />
	</node>
	<node id="-529796" lat="61.3400491516" lon="5.74587654451">
		<tag k="alt_name" v="Alværen" />
		<tag k="fixme" v="consider place=hamlet" />
		<tag k="name" v="Alvera" />
		<tag k="place" v="farm" />
		<tag k="ssr:stedsnr" v="311046" />
	</node>
	<node id="-529781" lat="61.377075002" lon="5.64326944112">
		<tag k="name" v="Gjerde" />
		<tag k="place" v="farm" />
		<tag k="ssr:stedsnr" v="280809" />
	</node>
	<node id="-531649" lat="61.3417722115" lon="5.7277401985">
		<tag k="fixme" v="consider place=hamlet" />
		<tag k="name" v="Sygna" />
		<tag k="place" v="farm" />
		<tag k="ssr:stedsnr" v="974437" />
	</node>
	<node id="-531648" lat="61.3802085621" lon="5.68019017928">
		<tag k="name" v="Haugsbø" />
		<tag k="place" v="farm" />
		<tag k="ssr:stedsnr" v="974438" />
	</node>
	<node id="-531647" lat="61.3376876417" lon="5.86759709668">
		<tag k="fixme" v="consider place=hamlet" />
		<tag k="name" v="Skudalsnes" />
		<tag k="place" v="farm" />
		<tag k="ssr:stedsnr" v="974436" />
	</node>
	<node id="-531646" lat="61.3398378395" lon="6.14658568356">
		<tag k="name" v="Nedre Bell" />
		<tag k="place" v="farm" />
		<tag k="ssr:stedsnr" v="974340" />
	</node>
	<node id="-531645" lat="61.3419578813" lon="6.14626613444">
		<tag k="name" v="Øvre Bell" />
		<tag k="place" v="farm" />
		<tag k="ssr:stedsnr" v="974339" />
	</node>
	<node id="-531612" lat="61.3166222208" lon="5.69172221331">
		<tag k="name" v="Høystølen" />
		<tag k="place" v="locality" />
		<tag k="ssr:stedsnr" v="947842" />
	</node>
	<node id="-531600" lat="61.3249222222" lon="5.79862222722">
		<tag k="fixme" v="consider place=hamlet" />
		<tag k="name" v="Steia" />
		<tag k="place" v="farm" />
		<tag k="ssr:stedsnr" v="931499" />
	</node>
	<node id="-531594" lat="61.3968638916" lon="5.6910861124">
		<tag k="historic" v="shieling" />
		<tag k="name" v="Liastølen" />
		<tag k="place" v="locality" />
		<tag k="ssr:stedsnr" v="918978" />
	</node>
	<node id="-531591" lat="61.382552273" lon="5.66472844534">
		<tag k="fixme" v="consider place=hamlet" />
		<tag k="name" v="Selberg" />
		<tag k="place" v="farm" />
		<tag k="ssr:stedsnr" v="918960" />
	</node>
	<node id="-531590" lat="61.3831131097" lon="5.68307734323">
		<tag k="fixme" v="consider place=hamlet" />
		<tag k="name" v="Haugsbø" />
		<tag k="place" v="farm" />
		<tag k="ssr:stedsnr" v="918959" />
	</node>
	<node id="-531589" lat="61.388216156" lon="5.7667950823">
		<tag k="name" v="Bringeland" />
		<tag k="place" v="farm" />
		<tag k="ssr:stedsnr" v="918953" />
	</node>
	<node id="-531588" lat="61.3787694469" lon="5.79095000716">
		<tag k="name" v="Espelandsdalen" />
		<tag k="place" v="farm" />
		<tag k="ssr:stedsnr" v="918944" />
	</node>
	<node id="-531585" lat="61.4003611153" lon="5.47970278538">
		<tag k="historic" v="shieling" />
		<tag k="name" v="Standnesstølen" />
		<tag k="place" v="locality" />
		<tag k="ssr:stedsnr" v="918859" />
	</node>
	<node id="-531580" lat="61.391872219" lon="5.55673889266">
		<tag k="alt_name" v="Bergestølen" />
		<tag k="historic" v="shieling" />
		<tag k="name" v="Bergsstølen" />
		<tag k="place" v="locality" />
		<tag k="ssr:stedsnr" v="918835" />
	</node>
	<node id="-531569" lat="61.3377115646" lon="6.07794537347">
		<tag k="alt_name" v="Kvamen" />
		<tag k="fixme" v="consider place=hamlet" />
		<tag k="name" v="Kvammen" />
		<tag k="place" v="farm" />
		<tag k="ssr:stedsnr" v="918615" />
	</node>
	<node id="-531566" lat="61.3865440855" lon="5.7603427279">
		<tag k="fixme" v="consider place=hamlet" />
		<tag k="name" v="Bringeland" />
		<tag k="place" v="farm" />
		<tag k="ssr:stedsnr" v="918600" />
	</node>
	<node id="-531563" lat="61.3250880656" lon="6.08046942306">
		<tag k="fixme" v="consider place=hamlet" />
		<tag k="name" v="Tormodset" />
		<tag k="place" v="farm" />
		<tag k="ssr:stedsnr" v="918592" />
	</node>
	<node id="-531549" lat="61.2897388849" lon="5.72516665875">
		<tag k="alt_name" v="Lærsstølen" />
		<tag k="historic" v="shieling" />
		<tag k="name" v="Larsstølen" />
		<tag k="place" v="locality" />
		<tag k="ssr:stedsnr" v="918207" />
	</node>
	<node id="-531541" lat="61.3343340236" lon="5.74265478375">
		<tag k="fixme" v="consider place=hamlet" />
		<tag k="name" v="Sygnebotnen" />
		<tag k="place" v="farm" />
		<tag k="ssr:stedsnr" v="918084" />
	</node>
	<node id="-531539" lat="61.3521194424" lon="5.69500833481">
		<tag k="alt_name" v="Korsvollstøl" />
		<tag k="historic" v="shieling" />
		<tag k="name" v="Korsvollstølen" />
		<tag k="place" v="locality" />
		<tag k="ssr:stedsnr" v="918067" />
	</node>
	<node id="-531536" lat="61.3466694451" lon="5.72258332623">
		<tag k="name" v="Bjørkelund" />
		<tag k="place" v="farm" />
		<tag k="ssr:stedsnr" v="918052" />
	</node>
	<node id="-531534" lat="61.3415111141" lon="5.60663333421">
		<tag k="historic" v="shieling" />
		<tag k="name" v="Hellestølen" />
		<tag k="place" v="locality" />
		<tag k="ssr:stedsnr" v="918043" />
	</node>
	<node id="-531533" lat="61.3466222845" lon="5.74970619768">
		<tag k="alt_name" v="Hatlebrekke" />
		<tag k="fixme" v="consider place=hamlet" />
		<tag k="name" v="Hatlebrekka" />
		<tag k="place" v="farm" />
		<tag k="ssr:stedsnr" v="918038" />
	</node>
	<node id="-531530" lat="61.3634008567" lon="5.70676858919">
		<tag k="alt_name" v="Korsvoll" />
		<tag k="fixme" v="consider place=hamlet" />
		<tag k="name" v="Korsvellene" />
		<tag k="place" v="farm" />
		<tag k="ssr:stedsnr" v="918027" />
	</node>
	<node id="-531528" lat="61.3607364605" lon="5.7386194277">
		<tag k="alt_name" v="Undeland" />
		<tag k="fixme" v="consider place=hamlet" />
		<tag k="name" v="Undelendene" />
		<tag k="place" v="farm" />
		<tag k="ssr:stedsnr" v="918017" />
	</node>
	<node id="-531526" lat="61.3915444405" lon="5.59835556416">
		<tag k="alt_name" v="Nymarka" />
		<tag k="name" v="Nyemarka" />
		<tag k="place" v="locality" />
		<tag k="ssr:stedsnr" v="917985" />
	</node>
	<node id="-531524" lat="61.3688962067" lon="5.68040207529">
		<tag k="alt_name" v="Lervik" />
		<tag k="fixme" v="consider place=hamlet" />
		<tag k="name" v="Leirvika" />
		<tag k="place" v="farm" />
		<tag k="ssr:stedsnr" v="917884" />
	</node>
	<node id="-531519" lat="61.3344737134" lon="5.9292117397">
		<tag k="name" v="Hestad" />
		<tag k="place" v="farm" />
		<tag k="ssr:stedsnr" v="917456" />
	</node>
	<node id="-531517" lat="61.347644403" lon="6.10364012717">
		<tag k="fixme" v="consider place=hamlet" />
		<tag k="name" v="Hage" />
		<tag k="place" v="farm" />
		<tag k="ssr:stedsnr" v="917450" />
	</node>
	<node id="-531516" lat="61.3489249981" lon="6.18433610379">
		<tag k="historic" v="shieling" />
		<tag k="name" v="Tuftestølen" />
		<tag k="place" v="locality" />
		<tag k="ssr:stedsnr" v="917446" />
	</node>
	<node id="-531502" lat="61.3861987322" lon="5.63744018613">
		<tag k="fixme" v="consider place=hamlet" />
		<tag k="name" v="Kårstad" />
		<tag k="place" v="farm" />
		<tag k="ssr:stedsnr" v="857987" />
	</node>
	<node id="-531496" lat="61.3738472264" lon="5.64067500375">
		<tag k="name" v="Bygstad" />
		<tag k="place" v="village" />
		<tag k="ssr:stedsnr" v="857913" />
	</node>
	<node id="-531495" lat="61.3785444485" lon="5.67865833437">
		<tag k="name" v="Hauge" />
		<tag k="place" v="farm" />
		<tag k="ssr:stedsnr" v="857914" />
	</node>
	<node id="-531493" lat="61.3697166693" lon="5.66354722639">
		<tag k="name" v="Kviteneset" />
		<tag k="place" v="isolated_dwelling" />
		<tag k="ssr:stedsnr" v="857892" />
	</node>
	<node id="-531492" lat="61.3714747348" lon="5.73973392534">
		<tag k="fixme" v="consider place=hamlet" />
		<tag k="name" v="Åse" />
		<tag k="place" v="farm" />
		<tag k="ssr:stedsnr" v="857876" />
	</node>
	<node id="-531486" lat="61.3662269636" lon="6.24141208044">
		<tag k="alt_name" v="Øvrebotten" />
		<tag k="fixme" v="consider place=hamlet" />
		<tag k="name" v="Øvrebotnen" />
		<tag k="old_name" v="Øverbotnen" />
		<tag k="place" v="farm" />
		<tag k="ssr:stedsnr" v="857741" />
	</node>
	<node id="-531479" lat="61.2685527748" lon="6.17273333824">
		<tag k="historic" v="shieling" />
		<tag k="name" v="Oppdalen" />
		<tag k="place" v="locality" />
		<tag k="ssr:stedsnr" v="857591" />
	</node>
	<node id="-531478" lat="61.3337733551" lon="6.18173728207">
		<tag k="alt_name" v="Eldalen, in;Eldal Indre" />
		<tag k="fixme" v="consider place=hamlet" />
		<tag k="name" v="Indre Eldalen" />
		<tag k="place" v="farm" />
		<tag k="ssr:stedsnr" v="857576" />
	</node>
	<node id="-531476" lat="61.3168249986" lon="5.99939999416">
		<tag k="name" v="Vikane" />
		<tag k="place" v="farm" />
		<tag k="ssr:stedsnr" v="857565" />
	</node>
	<node id="-531472" lat="61.3223749988" lon="6.15192500732">
		<tag k="alt_name" v="Føllingstølane" />
		<tag k="historic" v="shieling" />
		<tag k="name" v="Fylingsstølen" />
		<tag k="place" v="locality" />
		<tag k="ssr:stedsnr" v="857546" />
	</node>
	<node id="-531468" lat="61.3144304925" lon="6.00487126385">
		<tag k="alt_name" v="Rørstadbotten" />
		<tag k="fixme" v="consider place=hamlet" />
		<tag k="name" v="Rørstadbotnen" />
		<tag k="place" v="farm" />
		<tag k="ssr:stedsnr" v="857528" />
	</node>
	<node id="-531462" lat="61.3303245545" lon="5.86862106865">
		<tag k="name" v="Eikeland" />
		<tag k="place" v="hamlet" />
		<tag k="ssr:stedsnr" v="857504" />
	</node>
	<node id="-531461" lat="61.3407123902" lon="6.14569643688">
		<tag k="fixme" v="consider place=hamlet" />
		<tag k="name" v="Bell" />
		<tag k="place" v="farm" />
		<tag k="ssr:stedsnr" v="857492" />
	</node>
	<node id="-531459" lat="61.351843879" lon="6.11669722047">
		<tag k="fixme" v="consider place=hamlet" />
		<tag k="name" v="Vik" />
		<tag k="place" v="village" />
		<tag k="ssr:stedsnr" v="857481" />
	</node>
	<node id="-531452" lat="61.3033300498" lon="5.79361581907">
		<tag k="alt_name" v="Birkeland" />
		<tag k="fixme" v="consider place=hamlet" />
		<tag k="name" v="Byrkjeland" />
		<tag k="place" v="farm" />
		<tag k="ssr:stedsnr" v="857189" />
	</node>
	<node id="-531440" lat="61.3804638891" lon="5.64050832684">
		<tag k="name" v="Bygstadhaugane" />
		<tag k="place" v="quarter" />
		<tag k="ssr:stedsnr" v="829343" />
	</node>
	<node id="-531406" lat="61.3420027765" lon="5.93569165837">
		<tag k="name" v="Heimestølen" />
		<tag k="place" v="locality" />
		<tag k="ssr:stedsnr" v="826699" />
	</node>
	<node id="-531386" lat="61.379099996" lon="6.22628333599">
		<tag k="historic" v="shieling" />
		<tag k="name" v="Kjønnastølen" />
		<tag k="place" v="locality" />
		<tag k="ssr:stedsnr" v="823209" />
	</node>
	<node id="-531377" lat="61.3805861143" lon="5.66662222001">
		<tag k="name" v="Reita" />
		<tag k="place" v="farm" />
		<tag k="ssr:stedsnr" v="797908" />
	</node>
	<node id="-531376" lat="61.3697571764" lon="5.63218996208">
		<tag k="alt_name" v="Båtevik;Båtvik" />
		<tag k="fixme" v="consider place=hamlet" />
		<tag k="name" v="Båtevika" />
		<tag k="place" v="farm" />
		<tag k="ssr:stedsnr" v="797905" />
	</node>
	<node id="-531369" lat="61.319367869" lon="6.23664047614">
		<tag k="fixme" v="consider place=hamlet" />
		<tag k="name" v="Gjermundstad" />
		<tag k="place" v="farm" />
		<tag k="ssr:stedsnr" v="797796" />
	</node>
	<node id="-531365" lat="61.3278549566" lon="5.84038653306">
		<tag k="alt_name" v="Hauken" />
		<tag k="fixme" v="consider place=hamlet" />
		<tag k="name" v="Hauka" />
		<tag k="place" v="farm" />
		<tag k="ssr:stedsnr" v="797509" />
	</node>
	<node id="-531363" lat="61.2880500042" lon="5.74648055157">
		<tag k="historic" v="shieling" />
		<tag k="name" v="Sessane" />
		<tag k="place" v="locality" />
		<tag k="ssr:stedsnr" v="797157" />
	</node>
	<node id="-531359" lat="61.3055444467" lon="5.78872778628">
		<tag k="name" v="Nybø" />
		<tag k="place" v="farm" />
		<tag k="ssr:stedsnr" v="797101" />
	</node>
	<node id="-531357" lat="61.3501694487" lon="5.67027223102">
		<tag k="historic" v="shieling" />
		<tag k="name" v="Osstølen" />
		<tag k="place" v="locality" />
		<tag k="ssr:stedsnr" v="797064" />
	</node>
	<node id="-531353" lat="61.342999999" lon="5.72695277357">
		<tag k="alt_name" v="Sygna, nedre" />
		<tag k="name" v="Nedre Sygna" />
		<tag k="place" v="farm" />
		<tag k="ssr:stedsnr" v="797037" />
	</node>
	<node id="-531347" lat="61.3856246097" lon="5.71886337425">
		<tag k="alt_name" v="Hjelmeland, yt" />
		<tag k="fixme" v="consider place=hamlet" />
		<tag k="name" v="Ytre Hjelmeland" />
		<tag k="place" v="farm" />
		<tag k="ssr:stedsnr" v="796951" />
	</node>
	<node id="-531345" lat="61.3870527797" lon="5.73693610428">
		<tag k="alt_name" v="Reset" />
		<tag k="name" v="Riset" />
		<tag k="place" v="farm" />
		<tag k="ssr:stedsnr" v="796948" />
	</node>
	<node id="-531343" lat="61.3932047008" lon="5.81629038942">
		<tag k="fixme" v="consider place=hamlet" />
		<tag k="name" v="Kleiva" />
		<tag k="place" v="farm" />
		<tag k="ssr:stedsnr" v="796942" />
	</node>
	<node id="-531340" lat="61.3711791971" lon="6.26436599652">
		<tag k="fixme" v="consider place=hamlet" />
		<tag k="name" v="Vindheim" />
		<tag k="place" v="farm" />
		<tag k="ssr:stedsnr" v="796734" />
	</node>
	<node id="-531338" lat="61.3701525058" lon="6.24932908956">
		<tag k="fixme" v="consider place=hamlet" />
		<tag k="name" v="Øvre Kjellstad" />
		<tag k="place" v="farm" />
		<tag k="ssr:stedsnr" v="796729" />
	</node>
	<node id="-531337" lat="61.3527916694" lon="6.31647221984">
		<tag k="historic" v="shieling" />
		<tag k="name" v="Mjellsstølen" />
		<tag k="place" v="locality" />
		<tag k="ssr:stedsnr" v="796712" />
	</node>
	<node id="-531333" lat="61.3204421031" lon="5.93580920401">
		<tag k="alt_name" v="Kirkelid" />
		<tag k="fixme" v="consider place=hamlet" />
		<tag k="name" v="Kyrkjelia" />
		<tag k="place" v="farm" />
		<tag k="ssr:stedsnr" v="796538" />
	</node>
	<node id="-531331" lat="61.3136388917" lon="5.88496110222">
		<tag k="alt_name" v="Horsevikstøl" />
		<tag k="historic" v="shieling" />
		<tag k="name" v="Horsevikstølen" />
		<tag k="place" v="locality" />
		<tag k="ssr:stedsnr" v="796527" />
	</node>
	<node id="-531330" lat="61.3181725047" lon="6.21358199927">
		<tag k="alt_name" v="Oppedal Ytre;Oppedal Indre" />
		<tag k="fixme" v="consider place=hamlet" />
		<tag k="name" v="Oppedal" />
		<tag k="place" v="farm" />
		<tag k="ssr:stedsnr" v="796516" />
	</node>
	<node id="-531327" lat="61.3269805093" lon="5.90066906863">
		<tag k="alt_name" v="Årnes" />
		<tag k="fixme" v="consider place=hamlet" />
		<tag k="name" v="Årneset" />
		<tag k="place" v="farm" />
		<tag k="ssr:stedsnr" v="796491" />
	</node>
	<node id="-531321" lat="61.3585467305" lon="6.18315422881">
		<tag k="alt_name" v="Råeim" />
		<tag k="fixme" v="consider place=hamlet" />
		<tag k="name" v="Råheim" />
		<tag k="place" v="farm" />
		<tag k="ssr:stedsnr" v="796464" />
	</node>
	<node id="-531319" lat="61.3725805539" lon="6.13108610536">
		<tag k="alt_name" v="Ørnehaugstølane" />
		<tag k="historic" v="shieling" />
		<tag k="name" v="Ørnehaugsstølen" />
		<tag k="place" v="locality" />
		<tag k="ssr:stedsnr" v="796449" />
	</node>
	<node id="-531317" lat="61.3612277748" lon="5.87386666332">
		<tag k="historic" v="shieling" />
		<tag k="name" v="Skudalsstølen" />
		<tag k="place" v="locality" />
		<tag k="ssr:stedsnr" v="796432" />
	</node>
	<node id="-531314" lat="61.3208433398" lon="5.71747751856">
		<tag k="alt_name" v="Årøy" />
		<tag k="fixme" v="consider place=hamlet" />
		<tag k="name" v="Årøyane" />
		<tag k="place" v="farm" />
		<tag k="ssr:stedsnr" v="796114" />
	</node>
	<node id="-531313" lat="61.3195444462" lon="5.65894167454">
		<tag k="alt_name" v="Sygnestølen, nedre;Sygnestølen" />
		<tag k="historic" v="shieling" />
		<tag k="name" v="Nedre Sygnestølen" />
		<tag k="place" v="locality" />
		<tag k="ssr:stedsnr" v="796111" />
	</node>
	<node id="-531311" lat="61.3339700875" lon="5.82353706627">
		<tag k="alt_name" v="Grøvlebakke" />
		<tag k="fixme" v="consider place=hamlet" />
		<tag k="name" v="Gryvlebakken" />
		<tag k="place" v="farm" />
		<tag k="ssr:stedsnr" v="796068" />
	</node>
	<node id="-531310" lat="61.3594250023" lon="5.66595555883">
		<tag k="alt_name" v="Setter" />
		<tag k="name" v="Sæter" />
		<tag k="place" v="farm" />
		<tag k="ssr:stedsnr" v="796021" />
	</node>
	<node id="-531280" lat="61.3657499988" lon="6.13556667227">
		<tag k="historic" v="shieling" />
		<tag k="name" v="Gamlestølen" />
		<tag k="place" v="locality" />
		<tag k="ssr:stedsnr" v="765639" />
	</node>
	<node id="-531274" lat="61.3112305598" lon="6.19480000445">
		<tag k="alt_name" v="Oppedalsstøl Ytre;Ytre Oppedalsstøl" />
		<tag k="historic" v="shieling" />
		<tag k="name" v="Ytre Oppedalsstølen" />
		<tag k="place" v="locality" />
		<tag k="ssr:stedsnr" v="764922" />
	</node>
	<node id="-531266" lat="61.3786361143" lon="6.21741389664">
		<tag k="historic" v="shieling" />
		<tag k="name" v="Vallestadstølen" />
		<tag k="place" v="locality" />
		<tag k="ssr:stedsnr" v="762232" />
	</node>
	<node id="-531261" lat="61.3575555523" lon="6.19390278392">
		<tag k="name" v="Nytuft" />
		<tag k="place" v="farm" />
		<tag k="ssr:stedsnr" v="761070" />
	</node>
	<node id="-531259" lat="61.3349578695" lon="5.93916959415">
		<tag k="fixme" v="consider place=hamlet" />
		<tag k="name" v="Hestad" />
		<tag k="place" v="farm" />
		<tag k="ssr:stedsnr" v="756808" />
	</node>
	<node id="-531258" lat="61.3247111085" lon="5.79666110481">
		<tag k="alt_name" v="Steia" />
		<tag k="name" v="Sande prestegard" />
		<tag k="place" v="farm" />
		<tag k="ssr:stedsnr" v="748482" />
	</node>
	<node id="-531255" lat="61.3822070726" lon="5.63445657278">
		<tag k="alt_name" v="Njøsen" />
		<tag k="fixme" v="consider place=hamlet" />
		<tag k="name" v="Nysna" />
		<tag k="place" v="farm" />
		<tag k="ssr:stedsnr" v="736986" />
	</node>
	<node id="-531251" lat="61.3800361145" lon="5.63526944355">
		<tag k="name" v="Øyra" />
		<tag k="place" v="farm" />
		<tag k="ssr:stedsnr" v="736912" />
	</node>
	<node id="-531250" lat="61.3778977526" lon="5.65948489537">
		<tag k="alt_name" v="Eide;Eidet" />
		<tag k="fixme" v="consider place=hamlet" />
		<tag k="name" v="Eida" />
		<tag k="place" v="farm" />
		<tag k="ssr:stedsnr" v="736913" />
	</node>
	<node id="-531245" lat="61.4024555563" lon="5.72496111566">
		<tag k="alt_name" v="Hjelmelandsstølen, yt" />
		<tag k="historic" v="shieling" />
		<tag k="name" v="Ytre Hjelmelandsstølen" />
		<tag k="place" v="locality" />
		<tag k="ssr:stedsnr" v="736791" />
	</node>
	<node id="-531242" lat="61.3238527811" lon="6.23119443594">
		<tag k="name" v="Lyngstadbotnen" />
		<tag k="place" v="farm" />
		<tag k="ssr:stedsnr" v="736727" />
	</node>
	<node id="-531228" lat="61.3837861155" lon="6.13756666179">
		<tag k="historic" v="shieling" />
		<tag k="name" v="Haugastølen" />
		<tag k="place" v="locality" />
		<tag k="ssr:stedsnr" v="736423" />
	</node>
	<node id="-531219" lat="61.3249277772" lon="5.76580277544">
		<tag k="name" v="Myrane" />
		<tag k="place" v="farm" />
		<tag k="ssr:stedsnr" v="736124" />
	</node>
	<node id="-531214" lat="61.301875" lon="5.68218055571">
		<tag k="alt_name" v="Alværstøl" />
		<tag k="historic" v="shieling" />
		<tag k="name" v="Alverstølen" />
		<tag k="place" v="locality" />
		<tag k="ssr:stedsnr" v="736095" />
	</node>
	<node id="-531212" lat="61.3501666667" lon="5.69746110619">
		<tag k="alt_name" v="Leirsandstøl" />
		<tag k="historic" v="shieling" />
		<tag k="name" v="Leirsandstølen" />
		<tag k="place" v="locality" />
		<tag k="ssr:stedsnr" v="736066" />
	</node>
	<node id="-531210" lat="61.3407805514" lon="5.60614999285">
		<tag k="alt_name" v="Birkelandsstølen" />
		<tag k="historic" v="shieling" />
		<tag k="name" v="Byrkjelandsstølen" />
		<tag k="place" v="locality" />
		<tag k="ssr:stedsnr" v="736048" />
	</node>
	<node id="-531209" lat="61.3398222268" lon="5.58693056254">
		<tag k="alt_name" v="Ormehaugsstølen" />
		<tag k="historic" v="shieling" />
		<tag k="name" v="Ormehaugstølen" />
		<tag k="place" v="locality" />
		<tag k="ssr:stedsnr" v="736047" />
	</node>
	<node id="-531200" lat="61.3720091759" lon="6.23694766908">
		<tag k="fixme" v="consider place=hamlet" />
		<tag k="name" v="Mosstad" />
		<tag k="place" v="farm" />
		<tag k="ssr:stedsnr" v="735704" />
	</node>
	<node id="-531199" lat="61.3237861102" lon="6.00550556414">
		<tag k="name" v="Vågsneset" />
		<tag k="place" v="farm" />
		<tag k="ssr:stedsnr" v="735521" />
	</node>
	<node id="-531197" lat="61.3283750027" lon="6.19493611826">
		<tag k="name" v="Nybø" />
		<tag k="place" v="farm" />
		<tag k="ssr:stedsnr" v="735514" />
	</node>
	<node id="-531192" lat="61.3250361121" lon="5.95776110582">
		<tag k="name" v="Fredheim" />
		<tag k="place" v="farm" />
		<tag k="ssr:stedsnr" v="735476" />
	</node>
	<node id="-531191" lat="61.3401094916" lon="6.1364753749">
		<tag k="fixme" v="consider place=hamlet" />
		<tag k="name" v="Espeset" />
		<tag k="place" v="farm" />
		<tag k="ssr:stedsnr" v="735471" />
	</node>
	<node id="-531151" lat="61.3747611113" lon="6.21543056352">
		<tag k="historic" v="shieling" />
		<tag k="name" v="Vallestadstølane" />
		<tag k="place" v="locality" />
		<tag k="ssr:stedsnr" v="701365" />
	</node>
	<node id="-531147" lat="61.360908333" lon="6.14372500339">
		<tag k="alt_name" v="Hetleøen" />
		<tag k="name" v="Hetløyane" />
		<tag k="place" v="farm" />
		<tag k="ssr:stedsnr" v="701007" />
	</node>
	<node id="-531143" lat="61.3853694452" lon="5.7413472222">
		<tag k="name" v="Hjelmås" />
		<tag k="place" v="farm" />
		<tag k="ssr:stedsnr" v="675958" />
	</node>
	<node id="-531141" lat="61.3889481533" lon="5.81461020309">
		<tag k="alt_name" v="Myren" />
		<tag k="fixme" v="consider place=hamlet" />
		<tag k="name" v="Myra" />
		<tag k="place" v="farm" />
		<tag k="ssr:stedsnr" v="675949" />
	</node>
	<node id="-531133" lat="61.4109749982" lon="5.73670556024">
		<tag k="historic" v="shieling" />
		<tag k="name" v="Nasastølen" />
		<tag k="place" v="locality" />
		<tag k="ssr:stedsnr" v="675826" />
	</node>
	<node id="-531124" lat="61.3850109008" lon="6.2355985954">
		<tag k="fixme" v="consider place=hamlet" />
		<tag k="name" v="Solheim" />
		<tag k="place" v="farm" />
		<tag k="ssr:stedsnr" v="675756" />
	</node>
	<node id="-531114" lat="61.3315064837" lon="6.14527554241">
		<tag k="alt_name" v="Følling" />
		<tag k="fixme" v="consider place=hamlet" />
		<tag k="name" v="Fyling" />
		<tag k="place" v="farm" />
		<tag k="ssr:stedsnr" v="675564" />
	</node>
	<node id="-531113" lat="61.319377781" lon="5.86028055484">
		<tag k="alt_name" v="Eikelandstøl" />
		<tag k="historic" v="shieling" />
		<tag k="name" v="Eikelandsstølen" />
		<tag k="place" v="locality" />
		<tag k="ssr:stedsnr" v="675561" />
	</node>
	<node id="-531108" lat="61.3390583357" lon="6.05411111752">
		<tag k="historic" v="shieling" />
		<tag k="name" v="Nesstølen" />
		<tag k="place" v="locality" />
		<tag k="ssr:stedsnr" v="675512" />
	</node>
	<node id="-531105" lat="61.3573305516" lon="6.12830833014">
		<tag k="name" v="Nyheim" />
		<tag k="place" v="farm" />
		<tag k="ssr:stedsnr" v="675479" />
	</node>
	<node id="-531095" lat="61.4045499969" lon="5.4448638814">
		<tag k="alt_name" v="Laukelandsstølen, øvre" />
		<tag k="name" v="Øvre Laukelandsstølen" />
		<tag k="place" v="isolated_dwelling" />
		<tag k="ssr:stedsnr" v="675218" />
	</node>
	<node id="-531092" lat="61.289924999" lon="5.7422527737">
		<tag k="alt_name" v="Storedalen" />
		<tag k="historic" v="shieling" />
		<tag k="name" v="Stordalen" />
		<tag k="place" v="locality" />
		<tag k="ssr:stedsnr" v="675184" />
	</node>
	<node id="-531090" lat="61.3807750036" lon="5.45060278226">
		<tag k="name" v="Husvika" />
		<tag k="place" v="isolated_dwelling" />
		<tag k="ssr:stedsnr" v="675147" />
	</node>
	<node id="-531089" lat="61.3267633106" lon="5.78949960503">
		<tag k="alt_name" v="Sande" />
		<tag k="fixme" v="consider place=hamlet" />
		<tag k="name" v="Sanda" />
		<tag k="place" v="farm" />
		<tag k="ssr:stedsnr" v="675137" />
	</node>
	<node id="-531086" lat="61.3101444485" lon="5.75510276943">
		<tag k="alt_name" v="Døskelandstøl" />
		<tag k="historic" v="shieling" />
		<tag k="name" v="Dysjelandsstølen" />
		<tag k="place" v="locality" />
		<tag k="ssr:stedsnr" v="675102" />
	</node>
	<node id="-531083" lat="61.3487527753" lon="5.76109721708">
		<tag k="alt_name" v="Sagehaug" />
		<tag k="name" v="Saghaugen" />
		<tag k="place" v="farm" />
		<tag k="ssr:stedsnr" v="675060" />
	</node>
	<node id="-531082" lat="61.347763885" lon="5.72083055874">
		<tag k="fixme" v="consider place=hamlet" />
		<tag k="name" v="Sygna" />
		<tag k="place" v="village" />
		<tag k="ssr:stedsnr" v="675044" />
	</node>
	<node id="-531080" lat="61.3603836955" lon="5.7164430067">
		<tag k="alt_name" v="Furnes" />
		<tag k="fixme" v="consider place=hamlet" />
		<tag k="name" v="Fureneset" />
		<tag k="place" v="farm" />
		<tag k="ssr:stedsnr" v="675035" />
	</node>
	<node id="-531047" lat="61.3124388923" lon="5.89752222049">
		<tag k="name" v="Husastølen" />
		<tag k="place" v="locality" />
		<tag k="ssr:stedsnr" v="643719" />
	</node>
	<node id="-531029" lat="61.3382823926" lon="5.84460212444">
		<tag k="name" v="Foss" />
		<tag k="place" v="farm" />
		<tag k="ssr:stedsnr" v="615489" />
	</node>
	<node id="-531028" lat="61.3987946422" lon="5.81514855232">
		<tag k="fixme" v="consider place=hamlet" />
		<tag k="name" v="Langeland" />
		<tag k="place" v="farm" />
		<tag k="ssr:stedsnr" v="615000" />
	</node>
	<node id="-531025" lat="61.3901728135" lon="5.60841144003">
		<tag k="alt_name" v="Sæle" />
		<tag k="fixme" v="consider place=hamlet" />
		<tag k="name" v="Sele" />
		<tag k="place" v="farm" />
		<tag k="ssr:stedsnr" v="614982" />
	</node>
	<node id="-531007" lat="61.3349250006" lon="6.33976388106">
		<tag k="alt_name" v="Eldals og Bratteteigs  stølane" />
		<tag k="historic" v="shieling" />
		<tag k="name" v="Bratteteigstølen" />
		<tag k="place" v="locality" />
		<tag k="ssr:stedsnr" v="614719" />
	</node>
	<node id="-531006" lat="61.2908000007" lon="5.87778055449">
		<tag k="alt_name" v="Sennesetstøl" />
		<tag k="historic" v="shieling" />
		<tag k="name" v="Sinsetstølen" />
		<tag k="place" v="locality" />
		<tag k="ssr:stedsnr" v="614631" />
	</node>
	<node id="-530998" lat="61.3366416698" lon="6.08738332645">
		<tag k="name" v="Kvamsneset" />
		<tag k="place" v="farm" />
		<tag k="ssr:stedsnr" v="614567" />
	</node>
	<node id="-530994" lat="61.3283749976" lon="6.18349444917">
		<tag k="name" v="Øykjebotnen" />
		<tag k="place" v="farm" />
		<tag k="ssr:stedsnr" v="614539" />
	</node>
	<node id="-530992" lat="61.3167241728" lon="6.03765821973">
		<tag k="fixme" v="consider place=hamlet" />
		<tag k="name" v="Årteig" />
		<tag k="place" v="farm" />
		<tag k="ssr:stedsnr" v="614520" />
	</node>
	<node id="-530985" lat="61.2954583321" lon="5.73174166596">
		<tag k="alt_name" v="Døskelandstøl" />
		<tag k="historic" v="shieling" />
		<tag k="name" v="Dysjelandsstølen" />
		<tag k="place" v="locality" />
		<tag k="ssr:stedsnr" v="614170" />
	</node>
	<node id="-530983" lat="61.3191666633" lon="5.8278000056">
		<tag k="alt_name" v="Selstadstøl" />
		<tag k="historic" v="shieling" />
		<tag k="name" v="Selstadstølen" />
		<tag k="place" v="locality" />
		<tag k="ssr:stedsnr" v="614131" />
	</node>
	<node id="-530978" lat="61.3314499985" lon="5.82360277045">
		<tag k="name" v="Hola" />
		<tag k="place" v="farm" />
		<tag k="ssr:stedsnr" v="614079" />
	</node>
	<node id="-530977" lat="61.3427722222" lon="5.80795832892">
		<tag k="alt_name" v="Skagestøl" />
		<tag k="historic" v="shieling" />
		<tag k="name" v="Skagestølen" />
		<tag k="place" v="locality" />
		<tag k="ssr:stedsnr" v="614051" />
	</node>
	<node id="-530976" lat="61.3441583347" lon="5.72351943789">
		<tag k="name" v="Tufta" />
		<tag k="place" v="farm" />
		<tag k="ssr:stedsnr" v="614045" />
	</node>
	<node id="-530975" lat="61.3583694455" lon="5.77857499713">
		<tag k="name" v="Nordli" />
		<tag k="place" v="farm" />
		<tag k="ssr:stedsnr" v="614028" />
	</node>
	<node id="-530974" lat="61.3616694407" lon="5.83829999812">
		<tag k="alt_name" v="Kvamtølen" />
		<tag k="historic" v="shieling" />
		<tag k="name" v="Kvamsstølen" />
		<tag k="place" v="locality" />
		<tag k="ssr:stedsnr" v="614025" />
	</node>
	<node id="-530973" lat="61.3635108698" lon="5.72926020855">
		<tag k="fixme" v="consider place=hamlet" />
		<tag k="name" v="Åmot" />
		<tag k="place" v="farm" />
		<tag k="ssr:stedsnr" v="614022" />
	</node>
	<node id="-530958" lat="61.3985249964" lon="5.69438333015">
		<tag k="name" v="Gamlestølen" />
		<tag k="place" v="locality" />
		<tag k="ssr:stedsnr" v="583950" />
	</node>
	<node id="-530956" lat="61.3951333347" lon="5.81633333051">
		<tag k="landuse" v="winter_sports" />
		<tag k="name" v="Merkebakken" />
		<tag k="piste:type" v="downhill" />
		<tag k="ssr:stedsnr" v="583834" />
	</node>
	<node id="-530947" lat="61.3592916705" lon="5.78318055818">
		<tag k="name" v="Lindeslåttene" />
		<tag k="place" v="locality" />
		<tag k="ssr:stedsnr" v="583020" />
	</node>
	<node id="-530943" lat="61.36664167" lon="6.1594638809">
		<tag k="historic" v="shieling" />
		<tag k="name" v="Litlestølen" />
		<tag k="place" v="locality" />
		<tag k="ssr:stedsnr" v="582683" />
	</node>
	<node id="-530938" lat="61.3114527783" lon="6.23580833525">
		<tag k="name" v="Litlestølen" />
		<tag k="place" v="locality" />
		<tag k="ssr:stedsnr" v="581934" />
	</node>
	<node id="-530935" lat="61.3344472255" lon="6.39666943537">
		<tag k="name" v="Holmevasshytta" />
		<tag k="place" v="isolated_dwelling" />
		<tag k="ssr:stedsnr" v="580145" />
	</node>
	<node id="-530931" lat="61.3561055515" lon="6.20623333012">
		<tag k="name" v="Toa" />
		<tag k="place" v="farm" />
		<tag k="ssr:stedsnr" v="579473" />
	</node>
	<node id="-530926" lat="61.3908000002" lon="5.50238610421">
		<tag k="historic" v="shieling" />
		<tag k="name" v="Hestadstølen" />
		<tag k="place" v="locality" />
		<tag k="ssr:stedsnr" v="554808" />
	</node>
	<node id="-530886" lat="61.3208332289" lon="6.05855075616">
		<tag k="fixme" v="consider place=hamlet" />
		<tag k="name" v="Sandane" />
		<tag k="place" v="farm" />
		<tag k="ssr:stedsnr" v="553536" />
	</node>
	<node id="-530882" lat="61.3165787607" lon="6.00939601161">
		<tag k="fixme" v="consider place=hamlet" />
		<tag k="name" v="Rørstad" />
		<tag k="place" v="farm" />
		<tag k="ssr:stedsnr" v="553514" />
	</node>
	<node id="-530878" lat="61.3420283299" lon="6.09760901788">
		<tag k="fixme" v="consider place=hamlet" />
		<tag k="name" v="Nes" />
		<tag k="place" v="farm" />
		<tag k="ssr:stedsnr" v="553475" />
	</node>
	<node id="-530876" lat="61.3505304653" lon="6.12057889086">
		<tag k="alt_name" v="Hellebust" />
		<tag k="fixme" v="consider place=hamlet" />
		<tag k="name" v="Helebost" />
		<tag k="place" v="farm" />
		<tag k="ssr:stedsnr" v="553460" />
	</node>
	<node id="-530875" lat="61.3565275133" lon="6.18832733889">
		<tag k="alt_name" v="Tuften" />
		<tag k="fixme" v="consider place=hamlet" />
		<tag k="name" v="Tuftene" />
		<tag k="place" v="farm" />
		<tag k="ssr:stedsnr" v="553459" />
	</node>
	<node id="-530869" lat="61.3980805515" lon="5.45335833751">
		<tag k="alt_name" v="Nedre Laukelandstølen;Laukelandsstølen, nedre" />
		<tag k="name" v="Nedre Laukelandsstølen" />
		<tag k="place" v="isolated_dwelling" />
		<tag k="ssr:stedsnr" v="553207" />
	</node>
	<node id="-530867" lat="61.2722361069" lon="5.73570832662">
		<tag k="name" v="Løfallsstølen" />
		<tag k="place" v="locality" />
		<tag k="ssr:stedsnr" v="553183" />
	</node>
	<node id="-530864" lat="61.3248222534" lon="5.80646096772">
		<tag k="alt_name" v="Legene" />
		<tag k="fixme" v="consider place=hamlet" />
		<tag k="name" v="Johannesbakke" />
		<tag k="place" v="farm" />
		<tag k="ssr:stedsnr" v="553106" />
	</node>
	<node id="-530862" lat="61.3037456496" lon="5.78905367848">
		<tag k="fixme" v="consider place=hamlet" />
		<tag k="name" v="Hauge" />
		<tag k="place" v="farm" />
		<tag k="ssr:stedsnr" v="553087" />
	</node>
	<node id="-530860" lat="61.3299727195" lon="5.79905954803">
		<tag k="fixme" v="consider place=hamlet" />
		<tag k="name" v="Skagen" />
		<tag k="place" v="farm" />
		<tag k="ssr:stedsnr" v="553069" />
	</node>
	<node id="-530858" lat="61.3474583361" lon="5.65401943649">
		<tag k="alt_name" v="Grønhaugsstølen" />
		<tag k="historic" v="shieling" />
		<tag k="name" v="Grønhaugstølen" />
		<tag k="place" v="locality" />
		<tag k="ssr:stedsnr" v="553053" />
	</node>
	<node id="-530857" lat="61.354147225" lon="5.62648610233">
		<tag k="historic" v="shieling" />
		<tag k="name" v="Båtevikstølen" />
		<tag k="place" v="locality" />
		<tag k="ssr:stedsnr" v="553021" />
	</node>
	<node id="-530856" lat="61.3615932308" lon="5.65858238627">
		<tag k="alt_name" v="Grønehaug" />
		<tag k="fixme" v="consider place=hamlet" />
		<tag k="name" v="Grønhaugen" />
		<tag k="place" v="farm" />
		<tag k="ssr:stedsnr" v="553020" />
	</node>
	<node id="-530853" lat="61.2633611146" lon="5.83390278191">
		<tag k="name" v="Øksland" />
		<tag k="place" v="farm" />
		<tag k="ssr:stedsnr" v="544897" />
	</node>
	<node id="-530799" lat="61.381072219" lon="6.21400555448">
		<tag k="alt_name" v="Mossestadhaugstølen" />
		<tag k="historic" v="shieling" />
		<tag k="name" v="Mosstadhaugstølen" />
		<tag k="place" v="locality" />
		<tag k="ssr:stedsnr" v="519268" />
	</node>
	<node id="-530788" lat="61.3825350611" lon="5.65111530786">
		<tag k="fixme" v="consider place=hamlet" />
		<tag k="name" v="Kvamme" />
		<tag k="place" v="farm" />
		<tag k="ssr:stedsnr" v="493956" />
	</node>
	<node id="-530785" lat="61.411883337" lon="5.80862222716">
		<tag k="historic" v="shieling" />
		<tag k="name" v="Espelandsstølen" />
		<tag k="place" v="locality" />
		<tag k="ssr:stedsnr" v="493828" />
	</node>
	<node id="-530783" lat="61.3171611106" lon="6.25288054794">
		<tag k="name" v="Langøyra" />
		<tag k="place" v="farm" />
		<tag k="ssr:stedsnr" v="493806" />
	</node>
	<node id="-530778" lat="61.4044388916" lon="5.73569999999">
		<tag k="alt_name" v="Hjelmelandstølen;Hjelmelandsstølen, in" />
		<tag k="historic" v="shieling" />
		<tag k="name" v="Indre Hjelmelandsstølen" />
		<tag k="place" v="locality" />
		<tag k="ssr:stedsnr" v="493783" />
	</node>
	<node id="-530774" lat="61.3568527811" lon="6.25714722566">
		<tag k="historic" v="shieling" />
		<tag k="name" v="Botnastølane" />
		<tag k="place" v="locality" />
		<tag k="ssr:stedsnr" v="493746" />
	</node>
	<node id="-530771" lat="61.336130555" lon="6.28494999872">
		<tag k="alt_name" v="Mjellsholten" />
		<tag k="name" v="Holtane" />
		<tag k="place" v="farm" />
		<tag k="ssr:stedsnr" v="493710" />
	</node>
	<node id="-530770" lat="61.3109176234" lon="6.20390234416">
		<tag k="alt_name" v="Oppedalsstølen;Oppedalsstøl Indre" />
		<tag k="historic" v="shieling" />
		<tag k="name" v="Indre Oppedalsstølen" />
		<tag k="place" v="locality" />
		<tag k="ssr:stedsnr" v="493626" />
	</node>
	<node id="-530768" lat="61.3781083648" lon="5.69844474277">
		<tag k="alt_name" v="Fauske;Fauske, nordre" />
		<tag k="fixme" v="consider place=hamlet" />
		<tag k="name" v="Nordre Fauske" />
		<tag k="place" v="farm" />
		<tag k="ssr:stedsnr" v="493919" />
	</node>
	<node id="-530766" lat="61.358941077" lon="5.54775355003">
		<tag k="fixme" v="multiple name tags, choose one and add the other to alt_name; consider place=hamlet" />
		<tag k="name" v="Fleten;Setane" />
		<tag k="place" v="farm" />
		<tag k="ssr:stedsnr" v="493904" />
	</node>
	<node id="-530765" lat="61.3355194455" lon="6.18861666554">
		<tag k="alt_name" v="Almyra" />
		<tag k="name" v="Almmyra" />
		<tag k="place" v="isolated_dwelling" />
		<tag k="ssr:stedsnr" v="493551" />
	</node>
	<node id="-530764" lat="61.3202305548" lon="5.92655556155">
		<tag k="name" v="Indrebø" />
		<tag k="place" v="farm" />
		<tag k="ssr:stedsnr" v="493546" />
	</node>
	<node id="-530761" lat="61.3246544845" lon="6.21628645406">
		<tag k="fixme" v="consider place=hamlet" />
		<tag k="name" v="Lyngstad" />
		<tag k="place" v="farm" />
		<tag k="ssr:stedsnr" v="493524" />
	</node>
	<node id="-530759" lat="61.3117888855" lon="5.98486110792">
		<tag k="alt_name" v="Rørstadstølane" />
		<tag k="historic" v="shieling" />
		<tag k="name" v="Rørstadstølen" />
		<tag k="place" v="locality" />
		<tag k="ssr:stedsnr" v="493515" />
	</node>
	<node id="-530758" lat="61.3088250027" lon="6.02941110615">
		<tag k="alt_name" v="Sandane Stølen;Årli Stølen" />
		<tag k="historic" v="shieling" />
		<tag k="name" v="Årteigstølen" />
		<tag k="place" v="locality" />
		<tag k="ssr:stedsnr" v="493499" />
	</node>
	<node id="-530754" lat="61.3500500004" lon="6.07250000794">
		<tag k="historic" v="shieling" />
		<tag k="name" v="Hagestølen" />
		<tag k="place" v="locality" />
		<tag k="ssr:stedsnr" v="493474" />
	</node>
	<node id="-530753" lat="61.3462437041" lon="6.0941340599">
		<tag k="alt_name" v="Hatlestad" />
		<tag k="fixme" v="consider place=hamlet" />
		<tag k="name" v="Halstad" />
		<tag k="place" v="farm" />
		<tag k="ssr:stedsnr" v="493472" />
	</node>
	<node id="-530752" lat="61.3496027794" lon="6.07650554927">
		<tag k="alt_name" v="Hatlestadstølen" />
		<tag k="historic" v="shieling" />
		<tag k="name" v="Halstadstølen" />
		<tag k="place" v="locality" />
		<tag k="ssr:stedsnr" v="493470" />
	</node>
	<node id="-530747" lat="61.2715250009" lon="5.82068611082">
		<tag k="alt_name" v="Utigardstøl" />
		<tag k="historic" v="shieling" />
		<tag k="name" v="Utigardsstølen" />
		<tag k="place" v="locality" />
		<tag k="ssr:stedsnr" v="493204" />
	</node>
	<node id="-530744" lat="61.300358333" lon="5.68301388782">
		<tag k="alt_name" v="Hatlebrekkestøl" />
		<tag k="historic" v="shieling" />
		<tag k="name" v="Hatlebrekkestølen" />
		<tag k="place" v="locality" />
		<tag k="ssr:stedsnr" v="493156" />
	</node>
	<node id="-530742" lat="61.3228163036" lon="5.73764245544">
		<tag k="alt_name" v="Solås" />
		<tag k="fixme" v="consider place=hamlet" />
		<tag k="name" v="Solåsen" />
		<tag k="place" v="farm" />
		<tag k="ssr:stedsnr" v="493130" />
	</node>
	<node id="-530741" lat="61.3344444465" lon="5.76773611274">
		<tag k="name" v="Tunvald" />
		<tag k="place" v="locality" />
		<tag k="ssr:stedsnr" v="493095" />
	</node>
	<node id="-530735" lat="61.3610083317" lon="5.75994166993">
		<tag k="name" v="Myrmelshaugen" />
		<tag k="place" v="farm" />
		<tag k="ssr:stedsnr" v="493032" />
	</node>
	<node id="-530730" lat="61.3679295599" lon="5.62022918915">
		<tag k="fixme" v="consider place=hamlet" />
		<tag k="name" v="Helle" />
		<tag k="place" v="farm" />
		<tag k="ssr:stedsnr" v="492880" />
	</node>
	<node id="-530728" lat="61.3585193507" lon="6.20100500185">
		<tag k="alt_name" v="Øen" />
		<tag k="fixme" v="consider place=hamlet" />
		<tag k="name" v="Øyna" />
		<tag k="place" v="farm" />
		<tag k="ssr:stedsnr" v="492437" />
	</node>
	<node id="-530723" lat="61.3199916626" lon="5.78678055656">
		<tag k="name" v="Løvfallsfeltet" />
		<tag k="place" v="quarter" />
		<tag k="ssr:stedsnr" v="464343" />
	</node>
	<node id="-530682" lat="61.3680420857" lon="6.23395963392">
		<tag k="alt_name" v="Mossestadhaug" />
		<tag k="fixme" v="consider place=hamlet" />
		<tag k="name" v="Mosstadhaugen" />
		<tag k="place" v="farm" />
		<tag k="ssr:stedsnr" v="458515" />
	</node>
	<node id="-530678" lat="61.3864861116" lon="6.28686944944">
		<tag k="historic" v="shieling" />
		<tag k="name" v="Skjepnastølane" />
		<tag k="place" v="locality" />
		<tag k="ssr:stedsnr" v="458377" />
	</node>
	<node id="-530674" lat="61.3741719228" lon="5.55779061605">
		<tag k="fixme" v="consider place=hamlet" />
		<tag k="name" v="Kleppe" />
		<tag k="place" v="farm" />
		<tag k="ssr:stedsnr" v="433954" />
	</node>
	<node id="-530673" lat="61.3771333316" lon="5.65747500953">
		<tag k="alt_name" v="Eidevik" />
		<tag k="name" v="Eidavika" />
		<tag k="place" v="farm" />
		<tag k="ssr:stedsnr" v="433919" />
	</node>
	<node id="-530672" lat="61.3743993739" lon="5.64562466274">
		<tag k="alt_name" v="Sveen" />
		<tag k="fixme" v="consider place=hamlet" />
		<tag k="name" v="Svædene" />
		<tag k="place" v="farm" />
		<tag k="ssr:stedsnr" v="433916" />
	</node>
	<node id="-530671" lat="61.3815807155" lon="5.68727650521">
		<tag k="fixme" v="consider place=hamlet" />
		<tag k="name" v="Lia" />
		<tag k="place" v="farm" />
		<tag k="ssr:stedsnr" v="433910" />
	</node>
	<node id="-530670" lat="61.3323222256" lon="6.3662138916">
		<tag k="historic" v="shieling" />
		<tag k="name" v="Langestølen" />
		<tag k="place" v="locality" />
		<tag k="ssr:stedsnr" v="433815" />
	</node>
	<node id="-530657" lat="61.2860430768" lon="5.83908462757">
		<tag k="alt_name" v="Grytås" />
		<tag k="fixme" v="consider place=hamlet" />
		<tag k="name" v="Grytåsen" />
		<tag k="place" v="farm" />
		<tag k="ssr:stedsnr" v="433161" />
	</node>
	<node id="-530653" lat="61.3969111132" lon="5.64679721297">
		<tag k="historic" v="shieling" />
		<tag k="name" v="Kårstadstølen" />
		<tag k="place" v="locality" />
		<tag k="ssr:stedsnr" v="432977" />
	</node>
	<node id="-530650" lat="61.3653638865" lon="5.81808333119">
		<tag k="historic" v="shieling" />
		<tag k="name" v="Krististølen" />
		<tag k="place" v="locality" />
		<tag k="ssr:stedsnr" v="432906" />
	</node>
	<node id="-530648" lat="61.3813777737" lon="6.21874443685">
		<tag k="historic" v="shieling" />
		<tag k="name" v="Mosstadstølen" />
		<tag k="place" v="locality" />
		<tag k="ssr:stedsnr" v="432728" />
	</node>
	<node id="-530647" lat="61.3514555561" lon="6.22401945027">
		<tag k="historic" v="shieling" />
		<tag k="name" v="Øyastølen" />
		<tag k="place" v="locality" />
		<tag k="ssr:stedsnr" v="432712" />
	</node>
	<node id="-530640" lat="61.3364154603" lon="6.18049387195">
		<tag k="alt_name" v="Bratteteig;Bratteigen" />
		<tag k="fixme" v="consider place=hamlet" />
		<tag k="name" v="Bratteina" />
		<tag k="place" v="farm" />
		<tag k="ssr:stedsnr" v="432524" />
	</node>
	<node id="-530639" lat="61.3178777803" lon="5.84362500732">
		<tag k="historic" v="shieling" />
		<tag k="name" v="Haukestølen" />
		<tag k="place" v="locality" />
		<tag k="ssr:stedsnr" v="432522" />
	</node>
	<node id="-530638" lat="61.3231138867" lon="6.11185000758">
		<tag k="historic" v="shieling" />
		<tag k="name" v="Hestebeitstølen" />
		<tag k="place" v="locality" />
		<tag k="ssr:stedsnr" v="432510" />
	</node>
	<node id="-530629" lat="61.3476250037" lon="5.98332499745">
		<tag k="alt_name" v="Vågsstølane" />
		<tag k="historic" v="shieling" />
		<tag k="name" v="Vågsdalen" />
		<tag k="place" v="locality" />
		<tag k="ssr:stedsnr" v="432445" />
	</node>
	<node id="-530628" lat="61.3544771126" lon="6.10917393427">
		<tag k="alt_name" v="Haugene" />
		<tag k="fixme" v="consider place=hamlet" />
		<tag k="name" v="Haugane" />
		<tag k="place" v="farm" />
		<tag k="ssr:stedsnr" v="432434" />
	</node>
	<node id="-530625" lat="61.2505678121" lon="5.82792966823">
		<tag k="alt_name" v="Dregebø" />
		<tag k="fixme" v="consider place=hamlet" />
		<tag k="name" v="Dregebøen" />
		<tag k="place" v="farm" />
		<tag k="ssr:stedsnr" v="432217" />
	</node>
	<node id="-530622" lat="61.2690666684" lon="5.72233611526">
		<tag k="name" v="Haugestølen" />
		<tag k="place" v="locality" />
		<tag k="ssr:stedsnr" v="432180" />
	</node>
	<node id="-530619" lat="61.3251111109" lon="5.79775277127">
		<tag k="name" v="Sande" />
		<tag k="place" v="village" />
		<tag k="ssr:stedsnr" v="432108" />
	</node>
	<node id="-530618" lat="61.3366777822" lon="5.73419444969">
		<tag k="name" v="Bruabakken" />
		<tag k="place" v="farm" />
		<tag k="ssr:stedsnr" v="432069" />
	</node>
	<node id="-530616" lat="61.3330723098" lon="5.80607597236">
		<tag k="alt_name" v="Birkeflet" />
		<tag k="fixme" v="consider place=hamlet" />
		<tag k="name" v="Byrkjefletene" />
		<tag k="place" v="farm" />
		<tag k="ssr:stedsnr" v="432065" />
	</node>
	<node id="-530615" lat="61.3332027774" lon="5.82781943527">
		<tag k="name" v="Einerbakken" />
		<tag k="place" v="farm" />
		<tag k="ssr:stedsnr" v="432062" />
	</node>
	<node id="-530613" lat="61.3641601164" lon="5.76743453897">
		<tag k="alt_name" v="Lundekvam" />
		<tag k="fixme" v="consider place=hamlet" />
		<tag k="name" v="Lundakvammen" />
		<tag k="place" v="farm" />
		<tag k="ssr:stedsnr" v="432012" />
	</node>
	<node id="-530605" lat="61.3818698313" lon="5.78112731361">
		<tag k="fixme" v="consider place=hamlet" />
		<tag k="name" v="Espeland" />
		<tag k="place" v="farm" />
		<tag k="ssr:stedsnr" v="251939" />
	</node>
	<node id="-530601" lat="61.3819249981" lon="6.14011389704">
		<tag k="alt_name" v="Vikastølane" />
		<tag k="historic" v="shieling" />
		<tag k="name" v="Vikastølen" />
		<tag k="place" v="locality" />
		<tag k="ssr:stedsnr" v="251458" />
	</node>
	<node id="-530600" lat="61.3180574663" lon="5.72232917538">
		<tag k="alt_name" v="Høgelid" />
		<tag k="fixme" v="consider place=hamlet" />
		<tag k="name" v="Høgelia" />
		<tag k="place" v="farm" />
		<tag k="ssr:stedsnr" v="251163" />
	</node>
	<node id="-530599" lat="61.3190583345" lon="5.68193332469">
		<tag k="historic" v="shieling" />
		<tag k="name" v="Gamlestølen" />
		<tag k="place" v="locality" />
		<tag k="ssr:stedsnr" v="251162" />
	</node>
	<node id="-530589" lat="61.384880554" lon="5.77723055075">
		<tag k="name" v="Rindane" />
		<tag k="place" v="locality" />
		<tag k="ssr:stedsnr" v="250930" />
	</node>
	<node id="-530583" lat="61.3679944451" lon="5.67685556054">
		<tag k="name" v="Vollen" />
		<tag k="place" v="farm" />
		<tag k="ssr:stedsnr" v="250877" />
	</node>
	<node id="-530577" lat="61.322199183" lon="6.2538863939">
		<tag k="alt_name" v="Hoff" />
		<tag k="fixme" v="consider place=hamlet" />
		<tag k="name" v="Hov" />
		<tag k="place" v="farm" />
		<tag k="ssr:stedsnr" v="250776" />
	</node>
	<node id="-530574" lat="61.3779955893" lon="6.27414794289">
		<tag k="historic" v="shieling" />
		<tag k="name" v="Årnesstølen" />
		<tag k="place" v="locality" />
		<tag k="ssr:stedsnr" v="250738" />
	</node>
	<node id="-530573" lat="61.3908772256" lon="6.26969943006">
		<tag k="alt_name" v="Skjepnaneset" />
		<tag k="name" v="Nesheim" />
		<tag k="place" v="farm" />
		<tag k="ssr:stedsnr" v="250734" />
	</node>
	<node id="-530572" lat="61.345684359" lon="6.31728792789">
		<tag k="fixme" v="consider place=hamlet" />
		<tag k="name" v="Mjell" />
		<tag k="place" v="farm" />
		<tag k="ssr:stedsnr" v="250714" />
	</node>
	<node id="-530565" lat="61.3136333376" lon="5.95001666191">
		<tag k="alt_name" v="Strandsstølen;Strondstølen, øvre" />
		<tag k="historic" v="shieling" />
		<tag k="name" v="Øvre Strondstølen" />
		<tag k="place" v="locality" />
		<tag k="ssr:stedsnr" v="250515" />
	</node>
	<node id="-530562" lat="61.3402340031" lon="6.19497715187">
		<tag k="alt_name" v="Tjønneland" />
		<tag k="fixme" v="consider place=hamlet" />
		<tag k="name" v="Tjørnaland" />
		<tag k="place" v="farm" />
		<tag k="ssr:stedsnr" v="250489" />
	</node>
	<node id="-530561" lat="61.3395138896" lon="6.05446111665">
		<tag k="alt_name" v="Kvamstølen" />
		<tag k="historic" v="shieling" />
		<tag k="name" v="Kvamsstølen" />
		<tag k="place" v="locality" />
		<tag k="ssr:stedsnr" v="250486" />
	</node>
	<node id="-530558" lat="61.3402352309" lon="5.91397681947">
		<tag k="fixme" v="consider place=hamlet" />
		<tag k="name" v="Kjelstad" />
		<tag k="place" v="farm" />
		<tag k="ssr:stedsnr" v="250475" />
	</node>
	<node id="-530552" lat="61.2637913495" lon="5.83654490383">
		<tag k="fixme" v="consider place=hamlet" />
		<tag k="name" v="Øksland" />
		<tag k="place" v="farm" />
		<tag k="ssr:stedsnr" v="250233" />
	</node>
	<node id="-530546" lat="61.380777794" lon="5.46285379893">
		<tag k="fixme" v="consider place=hamlet" />
		<tag k="name" v="Laukeland" />
		<tag k="place" v="farm" />
		<tag k="ssr:stedsnr" v="250130" />
	</node>
	<node id="-530545" lat="61.3297027798" lon="5.81418889301">
		<tag k="name" v="Lidal" />
		<tag k="place" v="farm" />
		<tag k="ssr:stedsnr" v="250116" />
	</node>
	<node id="-530544" lat="61.3295888866" lon="5.74763056253">
		<tag k="alt_name" v="Døskelandlia" />
		<tag k="name" v="Dysjelandslia" />
		<tag k="place" v="farm" />
		<tag k="ssr:stedsnr" v="250081" />
	</node>
	<node id="-530541" lat="61.3380805549" lon="5.72295833611">
		<tag k="alt_name" v="Sygna;Sygna, øvre" />
		<tag k="name" v="Øvre Sygna" />
		<tag k="place" v="farm" />
		<tag k="ssr:stedsnr" v="250038" />
	</node>
	<node id="-530539" lat="61.3635149744" lon="5.78073954296">
		<tag k="fixme" v="consider place=hamlet" />
		<tag k="name" v="Lunde" />
		<tag k="place" v="farm" />
		<tag k="ssr:stedsnr" v="250018" />
	</node>
	<node id="-530538" lat="61.3627682701" lon="5.75979321367">
		<tag k="alt_name" v="Noss" />
		<tag k="fixme" v="consider place=hamlet" />
		<tag k="name" v="Nos" />
		<tag k="place" v="farm" />
		<tag k="ssr:stedsnr" v="250019" />
	</node>
	<node id="-530536" lat="61.2638249968" lon="5.8355916677">
		<tag k="name" v="Øksland" />
		<tag k="place" v="farm" />
		<tag k="ssr:stedsnr" v="241898" />
	</node>
	<node id="-530522" lat="61.3252500011" lon="5.68006389096">
		<tag k="historic" v="shieling" />
		<tag k="name" v="Øvrebøstøl" />
		<tag k="place" v="locality" />
		<tag k="ssr:stedsnr" v="220356" />
	</node>
	<node id="-530487" lat="61.3829777782" lon="5.6364388928">
		<tag k="name" v="Bruahaugen" />
		<tag k="place" v="farm" />
		<tag k="ssr:stedsnr" v="190977" />
	</node>
	<node id="-530485" lat="61.3780322145" lon="5.63292887112">
		<tag k="alt_name" v="Kapstad" />
		<tag k="fixme" v="consider place=hamlet" />
		<tag k="name" v="Kappstad" />
		<tag k="place" v="farm" />
		<tag k="ssr:stedsnr" v="190951" />
	</node>
	<node id="-530484" lat="61.3825533247" lon="5.67059724101">
		<tag k="fixme" v="consider place=hamlet" />
		<tag k="name" v="Yndestad" />
		<tag k="place" v="farm" />
		<tag k="ssr:stedsnr" v="190949" />
	</node>
	<node id="-530483" lat="61.3810121449" lon="5.81741643997">
		<tag k="fixme" v="consider place=hamlet" />
		<tag k="name" v="Skilbrei" />
		<tag k="place" v="farm" />
		<tag k="ssr:stedsnr" v="190933" />
	</node>
	<node id="-530482" lat="61.3823250028" lon="5.80380833449">
		<tag k="name" v="Nyheim" />
		<tag k="place" v="farm" />
		<tag k="ssr:stedsnr" v="190931" />
	</node>
	<node id="-530481" lat="61.3775688537" lon="5.68909047357">
		<tag k="alt_name" v="Lien" />
		<tag k="name" v="Lia" />
		<tag k="place" v="farm" />
		<tag k="ssr:stedsnr" v="190928" />
	</node>
	<node id="-530473" lat="61.4055301046" lon="5.78330831256">
		<tag k="historic" v="shieling" />
		<tag k="name" v="Bringelandsstølane" />
		<tag k="place" v="locality" />
		<tag k="ssr:stedsnr" v="190790" />
	</node>
	<node id="-530471" lat="61.4020083362" lon="5.52952778363">
		<tag k="alt_name" v="Kvandalsstølen" />
		<tag k="historic" v="shieling" />
		<tag k="name" v="Kvanndalen" />
		<tag k="place" v="locality" />
		<tag k="ssr:stedsnr" v="190776" />
	</node>
	<node id="-530470" lat="61.3893240485" lon="6.23307309754">
		<tag k="alt_name" v="Solheimsbakke" />
		<tag k="fixme" v="consider place=hamlet" />
		<tag k="name" v="Solheimsbakken" />
		<tag k="place" v="farm" />
		<tag k="ssr:stedsnr" v="190758" />
	</node>
	<node id="-530455" lat="61.3198083291" lon="5.78591944099">
		<tag k="name" v="Løfallsfeltet" />
		<tag k="place" v="isolated_dwelling" />
		<tag k="ssr:stedsnr" v="190139" />
	</node>
	<node id="-530454" lat="61.3177666704" lon="5.7930083386">
		<tag k="name" v="Løvstad" />
		<tag k="place" v="farm" />
		<tag k="ssr:stedsnr" v="190137" />
	</node>
	<node id="-530451" lat="61.3498888888" lon="5.6647638977">
		<tag k="historic" v="shieling" />
		<tag k="name" v="Vollastølen" />
		<tag k="place" v="locality" />
		<tag k="ssr:stedsnr" v="190062" />
	</node>
	<node id="-530449" lat="61.3555272347" lon="5.77330179754">
		<tag k="fixme" v="consider place=hamlet" />
		<tag k="name" v="Myrmel" />
		<tag k="place" v="farm" />
		<tag k="ssr:stedsnr" v="190058" />
	</node>
	<node id="-530438" lat="61.3337622939" lon="6.16971576034">
		<tag k="alt_name" v="Eldal Ytre" />
		<tag k="fixme" v="consider place=hamlet" />
		<tag k="name" v="Eldalen" />
		<tag k="place" v="farm" />
		<tag k="ssr:stedsnr" v="189515" />
	</node>
	<node id="-530437" lat="61.3170166701" lon="5.89591944898">
		<tag k="alt_name" v="Nedre Strand - støl" />
		<tag k="historic" v="shieling" />
		<tag k="name" v="Nedrestrondstølen" />
		<tag k="place" v="locality" />
		<tag k="ssr:stedsnr" v="189508" />
	</node>
	<node id="-530436" lat="61.3220709555" lon="5.96477955471">
		<tag k="alt_name" v="Øvre Strand" />
		<tag k="fixme" v="consider place=hamlet" />
		<tag k="name" v="Øvrestrond" />
		<tag k="place" v="farm" />
		<tag k="ssr:stedsnr" v="189502" />
	</node>
</osm>
