<?xml version="1.0" encoding="UTF-8"?>
<osm generator="osmapis" version="0.6">
	<node id="-532095" lat="61.3808472238" lon="5.47205555334">
		<tag k="name" v="Standnesvika" />
		<tag k="natural" v="bay" />
		<tag k="ssr:stedsnr" v="796990" />
	</node>
	<node id="-531189" lat="61.3694853812" lon="5.6678588146">
		<tag k="alt_name" v="Lervika" />
		<tag k="name" v="Leirvika" />
		<tag k="natural" v="bay" />
		<tag k="ssr:stedsnr" v="189884" />
	</node>
	<node id="-531823" lat="61.3778083301" lon="5.50943889811">
		<tag k="name" v="Grimnesflua" />
		<tag k="natural" v="shoal" />
		<tag k="place" v="locality" />
		<tag k="ssr:stedsnr" v="659254" />
	</node>
	<node id="-531565" lat="61.3652194444" lon="5.58681111872">
		<tag k="name" v="Skjeret" />
		<tag k="natural" v="cape" />
		<tag k="ssr:stedsnr" v="522619" />
	</node>
	<node id="-531815" lat="61.3756277748" lon="5.54225278304">
		<tag k="name" v="Lyngneset" />
		<tag k="natural" v="cape" />
		<tag k="ssr:stedsnr" v="645933" />
	</node>
	<node id="-530528" lat="61.3709042773" lon="5.63660724563">
		<tag k="name" v="Båtevik" />
		<tag k="natural" v="bay" />
		<tag k="ssr:stedsnr" v="280820" />
	</node>
	<node id="-531226" lat="61.3731972251" lon="5.62248611994">
		<tag k="name" v="Storevika" />
		<tag k="natural" v="bay" />
		<tag k="ssr:stedsnr" v="190923" />
	</node>
	<node id="-531166" lat="61.3733305543" lon="5.54928611641">
		<tag k="name" v="Hundeneset" />
		<tag k="natural" v="cape" />
		<tag k="ssr:stedsnr" v="159942" />
	</node>
	<node id="-531293" lat="61.3824611099" lon="5.44538888717">
		<tag k="name" v="Røneset" />
		<tag k="natural" v="cape" />
		<tag k="ssr:stedsnr" v="250131" />
	</node>
	<node id="-532188" lat="61.3714495421" lon="5.59625838198">
		<tag k="name" v="Hårkallevika" />
		<tag k="natural" v="bay" />
		<tag k="ssr:stedsnr" v="841226" />
	</node>
	<node id="-531162" lat="61.368786108" lon="5.67112776933">
		<tag k="name" v="Sandbakkeneset" />
		<tag k="natural" v="cape" />
		<tag k="ssr:stedsnr" v="159160" />
	</node>
	<node id="-530902" lat="61.3690000028" lon="5.62067499466">
		<tag k="name" v="Joansneset" />
		<tag k="natural" v="cape" />
		<tag k="ssr:stedsnr" v="36216" />
	</node>
	<node id="-530644" lat="61.37819444" lon="5.52778888148">
		<tag k="name" v="Verpingståa" />
		<tag k="natural" v="cape" />
		<tag k="ssr:stedsnr" v="341939" />
	</node>
	<node id="-532179" lat="61.3787777796" lon="5.52770555819">
		<tag k="name" v="Sundsleira" />
		<tag k="natural" v="bay" />
		<tag k="ssr:stedsnr" v="827941" />
	</node>
	<node id="-532178" lat="61.3784416683" lon="5.46373888577">
		<tag k="name" v="Laukelandneset" />
		<tag k="natural" v="cape" />
		<tag k="ssr:stedsnr" v="827935" />
	</node>
	<node id="-532387" lat="61.3750111115" lon="5.65652500768">
		<tag k="name" v="Eidavika" />
		<tag k="natural" v="bay" />
		<tag k="ssr:stedsnr" v="963319" />
	</node>
	<node id="-530594" lat="61.3652833368" lon="5.5902388792">
		<tag k="name" v="Bjørvikestranda" />
		<tag k="natural" v="beach" />
		<tag k="place" v="locality" />
		<tag k="ssr:stedsnr" v="311910" />
	</node>
	<node id="-531273" lat="61.3603388888" lon="5.67358888699">
		<tag k="name" v="Myrneset" />
		<tag k="natural" v="cape" />
		<tag k="ssr:stedsnr" v="220634" />
	</node>
	<node id="-530889" lat="61.3697027756" lon="5.56739999714">
		<tag k="name" v="Geiteneset" />
		<tag k="natural" v="cape" />
		<tag k="ssr:stedsnr" v="8957" />
	</node>
	<node id="-531763" lat="61.3640194401" lon="5.56529518039">
		<tag k="alt_name" v="Ytre Bjørvika" />
		<tag k="name" v="Sagevika" />
		<tag k="natural" v="bay" />
		<tag k="ssr:stedsnr" v="614929" />
	</node>
	<node id="-531762" lat="61.3765499759" lon="5.63345714517">
		<tag k="alt_name" v="Kapstadvika" />
		<tag k="name" v="Kappstadvika" />
		<tag k="natural" v="bay" />
		<tag k="ssr:stedsnr" v="614912" />
	</node>
	<node id="-531883" lat="61.3728833296" lon="5.64429721808">
		<tag k="alt_name" v="Svesundet" />
		<tag k="name" v="Svædsundet" />
		<tag k="natural" v="strait" />
		<tag k="ssr:stedsnr" v="675924" />
	</node>
	<node id="-532389" lat="61.3825305526" lon="5.44062778187">
		<tag k="name" v="Røvikflua" />
		<tag k="natural" v="shoal" />
		<tag k="place" v="locality" />
		<tag k="ssr:stedsnr" v="963301" />
	</node>
	<node id="-532388" lat="61.3620527761" lon="5.67189167422">
		<tag k="name" v="Osbogen" />
		<tag k="natural" v="bay" />
		<tag k="ssr:stedsnr" v="963323" />
	</node>
	<node id="-532259" lat="61.3701361133" lon="5.66298055958">
		<tag k="name" v="Kviteneset" />
		<tag k="natural" v="cape" />
		<tag k="ssr:stedsnr" v="902329" />
	</node>
	<node id="-530722" lat="61.3723674475" lon="5.61161167857">
		<tag k="name" v="Korsvika" />
		<tag k="natural" v="bay" />
		<tag k="ssr:stedsnr" v="372961" />
	</node>
	<node id="-531999" lat="61.3753277782" lon="5.54822222109">
		<tag k="name" v="Dunkersvika" />
		<tag k="natural" v="bay" />
		<tag k="ssr:stedsnr" v="736960" />
	</node>
	<node id="-531355" lat="61.3764611077" lon="5.45735278474">
		<tag k="bay" v="fjord" />
		<tag k="name" v="Laukelandsfjorden" />
		<tag k="natural" v="bay" />
		<tag k="ssr:stedsnr" v="417295" />
	</node>
	<node id="-531354" lat="61.3766638874" lon="5.54019166377">
		<tag k="name" v="Sundshamna" />
		<tag k="natural" v="bay" />
		<tag k="ssr:stedsnr" v="417244" />
	</node>
	<node id="-531353" lat="61.3703777823" lon="5.55706389146">
		<tag k="name" v="Sundet" />
		<tag k="natural" v="bay" />
		<tag k="ssr:stedsnr" v="417197" />
	</node>
	<node id="-531352" lat="61.3652517296" lon="5.58301023336">
		<tag k="alt_name" v="Indre Bjørvika" />
		<tag k="name" v="Bjørvika" />
		<tag k="natural" v="bay" />
		<tag k="ssr:stedsnr" v="251952" />
	</node>
	<node id="-531053" lat="61.3776972269" lon="5.53314722799">
		<tag k="name" v="Sundsneset" />
		<tag k="natural" v="cape" />
		<tag k="ssr:stedsnr" v="114230" />
	</node>
	<node id="-531343" lat="61.3784944488" lon="5.50716944584">
		<tag k="alt_name" v="Grimmeneset" />
		<tag k="name" v="Grimeneset" />
		<tag k="natural" v="cape" />
		<tag k="ssr:stedsnr" v="250997" />
	</node>
	<node id="-531597" lat="61.3767777735" lon="5.53250833939">
		<tag k="name" v="Klubben" />
		<tag k="natural" v="cape" />
		<tag k="ssr:stedsnr" v="524913" />
	</node>
	<node id="-530698" lat="61.3793083304" lon="5.45228611441">
		<tag k="alt_name" v="Utlødneset" />
		<tag k="name" v="Utløneset" />
		<tag k="natural" v="cape" />
		<tag k="ssr:stedsnr" v="372131" />
	</node>
	<node id="-531209" lat="61.366019442" lon="5.57883055627">
		<tag k="name" v="Neset" />
		<tag k="natural" v="cape" />
		<tag k="ssr:stedsnr" v="190542" />
	</node>
	<node id="-531976" lat="61.3720472196" lon="5.62176666262">
		<tag k="name" v="Storevikneset" />
		<tag k="natural" v="cape" />
		<tag k="ssr:stedsnr" v="736528" />
	</node>
	<node id="-531202" lat="61.3837250004" lon="5.44305555046">
		<tag k="name" v="Røvika" />
		<tag k="natural" v="bay" />
		<tag k="ssr:stedsnr" v="190140" />
	</node>
</osm>
