<?xml version="1.0" encoding="UTF-8"?>
<osm generator="osmapis" version="0.6">
	<node id="-531584" lat="61.37115833" lon="5.7060500088">
		<tag k="name" v="Myrane" />
		<tag k="natural" v="wetland" />
		<tag k="ssr:stedsnr" v="523253" />
	</node>
	<node id="-532351" lat="61.3191527737" lon="6.15684166409">
		<tag k="name" v="Storura" />
		<tag k="natural" v="scree" />
		<tag k="ssr:stedsnr" v="946729" />
	</node>
	<node id="-531710" lat="61.3794555596" lon="5.49753889179">
		<tag k="name" v="Grønene" />
		<tag k="place" v="locality" />
		<tag k="ssr:stedsnr" v="584936" />
	</node>
	<node id="-531452" lat="61.3120027802" lon="5.95700833301">
		<tag k="name" v="Myrane" />
		<tag k="natural" v="wetland" />
		<tag k="ssr:stedsnr" v="462677" />
	</node>
	<node id="-530810" lat="61.3931111155" lon="5.72433333954">
		<tag k="name" v="Kjerringeløykane" />
		<tag k="natural" v="wetland" />
		<tag k="ssr:stedsnr" v="887971" />
	</node>
	<node id="-530933" lat="61.3856361116" lon="5.60570277698">
		<tag k="name" v="Kalveskinnsmyra" />
		<tag k="natural" v="wetland" />
		<tag k="ssr:stedsnr" v="38022" />
	</node>
	<node id="-531700" lat="61.3831277823" lon="5.81696667508">
		<tag k="name" v="Tuftene" />
		<tag k="place" v="locality" />
		<tag k="ssr:stedsnr" v="583833" />
	</node>
	<node id="-531442" lat="61.336419449" lon="5.73494445027">
		<tag k="name" v="Storemyra" />
		<tag k="natural" v="wetland" />
		<tag k="ssr:stedsnr" v="462171" />
	</node>
	<node id="-531824" lat="61.3575777815" lon="5.65106667401">
		<tag k="alt_name" v="Grønhaugura" />
		<tag k="name" v="Grønhaugurda" />
		<tag k="natural" v="scree" />
		<tag k="ssr:stedsnr" v="675031" />
	</node>
	<node id="-531694" lat="61.365719448" lon="5.80285000879">
		<tag k="name" v="Svartefjellsmyra" />
		<tag k="natural" v="wetland" />
		<tag k="ssr:stedsnr" v="583099" />
	</node>
	<node id="-532332" lat="61.3822805548" lon="5.81338611803">
		<tag k="name" v="Skilbreimyrane" />
		<tag k="natural" v="wetland" />
		<tag k="ssr:stedsnr" v="918943" />
	</node>
	<node id="-530537" lat="61.3877611126" lon="5.67256111996">
		<tag k="name" v="Myrane" />
		<tag k="natural" v="wetland" />
		<tag k="ssr:stedsnr" v="281939" />
	</node>
	<node id="-531046" lat="61.39015278" lon="5.58778610389">
		<tag k="name" v="Raudhillerurene" />
		<tag k="natural" v="scree" />
		<tag k="ssr:stedsnr" v="99025" />
	</node>
	<node id="-530917" lat="61.3295555577" lon="6.05673889662">
		<tag k="name" v="Fura" />
		<tag k="place" v="locality" />
		<tag k="ssr:stedsnr" v="37666" />
	</node>
	<node id="-531682" lat="61.3365027772" lon="6.14064721466">
		<tag k="name" v="Rennemyra" />
		<tag k="natural" v="wetland" />
		<tag k="ssr:stedsnr" v="580738" />
	</node>
	<node id="-531679" lat="61.3503277779" lon="6.34006665987">
		<tag k="name" v="Blauura" />
		<tag k="natural" v="scree" />
		<tag k="ssr:stedsnr" v="580134" />
	</node>
	<node id="-531422" lat="61.3568111082" lon="6.1023861048">
		<tag k="name" v="Haugemarka" />
		<tag k="place" v="locality" />
		<tag k="ssr:stedsnr" v="458030" />
	</node>
	<node id="-530909" lat="61.3687694457" lon="5.80744444307">
		<tag k="name" v="Høgåsmyrane" />
		<tag k="natural" v="wetland" />
		<tag k="ssr:stedsnr" v="37147" />
	</node>
	<node id="-530524" lat="61.3616861111" lon="5.78643332929">
		<tag k="name" v="Slåttene" />
		<tag k="place" v="locality" />
		<tag k="ssr:stedsnr" v="280416" />
	</node>
	<node id="-531578" lat="61.3586166635" lon="6.26213611456">
		<tag k="name" v="Skarmyra" />
		<tag k="natural" v="wetland" />
		<tag k="ssr:stedsnr" v="522932" />
	</node>
	<node id="-531802" lat="61.3917000036" lon="5.79369722111">
		<tag k="name" v="Svarteliåsmyra" />
		<tag k="natural" v="wetland" />
		<tag k="ssr:stedsnr" v="644032" />
	</node>
	<node id="-532367" lat="61.307994441" lon="5.78245000895">
		<tag k="name" v="Klappene" />
		<tag k="natural" v="wetland" />
		<tag k="ssr:stedsnr" v="948286" />
	</node>
	<node id="-531544" lat="61.3359000018" lon="6.27029999692">
		<tag k="name" v="Blaurura" />
		<tag k="natural" v="scree" />
		<tag k="ssr:stedsnr" v="519178" />
	</node>
	<node id="-532183" lat="61.3847722264" lon="5.52322776903">
		<tag k="name" v="Kolura" />
		<tag k="natural" v="scree" />
		<tag k="ssr:stedsnr" v="828047" />
	</node>
	<node id="-530774" lat="61.3419555515" lon="6.1796722259">
		<tag k="name" v="Myrane" />
		<tag k="natural" v="wetland" />
		<tag k="ssr:stedsnr" v="883104" />
	</node>
	<node id="-532181" lat="61.3873583372" lon="5.53792500042">
		<tag k="name" v="Øykjesteinane" />
		<tag k="natural" v="stone" />
		<tag k="ssr:stedsnr" v="828039" />
	</node>
	<node id="-530772" lat="61.3468722211" lon="6.08131111392">
		<tag k="name" v="Hatlestadmarka" />
		<tag k="place" v="locality" />
		<tag k="ssr:stedsnr" v="883021" />
	</node>
	<node id="-530643" lat="61.341702781" lon="5.5835388796">
		<tag k="name" v="Skinøyrane" />
		<tag k="natural" v="wetland" />
		<tag k="ssr:stedsnr" v="341929" />
	</node>
	<node id="-531026" lat="61.3634500011" lon="5.62146389736">
		<tag k="name" v="Storemyra" />
		<tag k="natural" v="wetland" />
		<tag k="ssr:stedsnr" v="98211" />
	</node>
	<node id="-532177" lat="61.391138892" lon="5.64665834191">
		<tag k="name" v="Kjennemyra" />
		<tag k="natural" v="wetland" />
		<tag k="ssr:stedsnr" v="827924" />
	</node>
	<node id="-530511" lat="61.3332750031" lon="5.76936110915">
		<tag k="name" v="Smørsteinen" />
		<tag k="natural" v="stone" />
		<tag k="ssr:stedsnr" v="280037" />
	</node>
	<node id="-531789" lat="61.3123805575" lon="6.01263056369">
		<tag k="name" v="Rørstadurene" />
		<tag k="natural" v="scree" />
		<tag k="ssr:stedsnr" v="643672" />
	</node>
	<node id="-531020" lat="61.3255666657" lon="5.75680832712">
		<tag k="name" v="Tjørnene" />
		<tag k="natural" v="wetland" />
		<tag k="ssr:stedsnr" v="98038" />
	</node>
	<node id="-531025" lat="61.3646305548" lon="5.62090277079">
		<tag k="name" v="Teigen" />
		<tag k="place" v="locality" />
		<tag k="ssr:stedsnr" v="98212" />
	</node>
	<node id="-532167" lat="61.3804555578" lon="5.7798750056">
		<tag k="name" v="Storemyra" />
		<tag k="natural" v="wetland" />
		<tag k="ssr:stedsnr" v="827059" />
	</node>
	<node id="-531910" lat="61.2956972178" lon="5.75468610636">
		<tag k="name" v="Ulltøykene" />
		<tag k="natural" v="wetland" />
		<tag k="ssr:stedsnr" v="704848" />
	</node>
	<node id="-531269" lat="61.3583000035" lon="5.63903054964">
		<tag k="name" v="Høymyra" />
		<tag k="natural" v="wetland" />
		<tag k="ssr:stedsnr" v="220361" />
	</node>
	<node id="-531908" lat="61.3414999979" lon="5.82329721427">
		<tag k="name" v="Moseva" />
		<tag k="natural" v="wetland" />
		<tag k="ssr:stedsnr" v="704769" />
	</node>
	<node id="-531267" lat="61.3788083301" lon="5.72162222836">
		<tag k="name" v="Paddemyra" />
		<tag k="natural" v="wetland" />
		<tag k="ssr:stedsnr" v="220298" />
	</node>
	<node id="-531265" lat="61.339016664" lon="5.7642638853">
		<tag k="name" v="Setemyra" />
		<tag k="natural" v="wetland" />
		<tag k="ssr:stedsnr" v="220055" />
	</node>
	<node id="-531008" lat="61.320661113" lon="6.19674721481">
		<tag k="name" v="Bjørnemyra" />
		<tag k="natural" v="wetland" />
		<tag k="ssr:stedsnr" v="96869" />
	</node>
	<node id="-532159" lat="61.3601444443" lon="5.68800277548">
		<tag k="name" v="Storesteinen" />
		<tag k="natural" v="stone" />
		<tag k="ssr:stedsnr" v="826939" />
	</node>
	<node id="-531134" lat="61.3285138886" lon="6.25879999396">
		<tag k="name" v="Storesteinane" />
		<tag k="natural" v="stone" />
		<tag k="ssr:stedsnr" v="155177" />
	</node>
	<node id="-531260" lat="61.4067638865" lon="5.66510278464">
		<tag k="name" v="Lystimyrane" />
		<tag k="natural" v="wetland" />
		<tag k="ssr:stedsnr" v="219959" />
	</node>
	<node id="-532155" lat="61.3043833365" lon="5.85098611572">
		<tag k="name" v="Mjølkemyra" />
		<tag k="natural" v="wetland" />
		<tag k="ssr:stedsnr" v="826748" />
	</node>
	<node id="-531489" lat="61.3204388876" lon="5.70765834224">
		<tag k="name" v="Langemyra" />
		<tag k="natural" v="wetland" />
		<tag k="ssr:stedsnr" v="493138" />
	</node>
	<node id="-531423" lat="61.3603888864" lon="6.16740833198">
		<tag k="name" v="Urene" />
		<tag k="natural" v="scree" />
		<tag k="ssr:stedsnr" v="458128" />
	</node>
	<node id="-531256" lat="61.3652777793" lon="5.64125555254">
		<tag k="name" v="Sponmyra" />
		<tag k="natural" v="wetland" />
		<tag k="ssr:stedsnr" v="219804" />
	</node>
	<node id="-530932" lat="61.3986833342" lon="5.48778332477">
		<tag k="name" v="Geitesteinen" />
		<tag k="natural" v="stone" />
		<tag k="ssr:stedsnr" v="38013" />
	</node>
	<node id="-530624" lat="61.3705333339" lon="5.64301945213">
		<tag k="name" v="Furemyrane" />
		<tag k="natural" v="wetland" />
		<tag k="ssr:stedsnr" v="340782" />
	</node>
	<node id="-532021" lat="61.3289111073" lon="5.72835277452">
		<tag k="name" v="Klovsteinen" />
		<tag k="natural" v="stone" />
		<tag k="ssr:stedsnr" v="765190" />
	</node>
	<node id="-530910" lat="61.3830499989" lon="5.6135222165">
		<tag k="name" v="Vedalsmyrane" />
		<tag k="natural" v="wetland" />
		<tag k="ssr:stedsnr" v="37162" />
	</node>
	<node id="-531890" lat="61.3976098026" lon="5.80788361321">
		<tag k="alt_name" v="Breidmyrane" />
		<tag k="name" v="Breimyrane" />
		<tag k="natural" v="wetland" />
		<tag k="ssr:stedsnr" v="675999" />
	</node>
	<node id="-531586" lat="61.3434888905" lon="5.65038056202">
		<tag k="name" v="Årlogsøyrane" />
		<tag k="natural" v="wetland" />
		<tag k="ssr:stedsnr" v="523344" />
	</node>
	<node id="-532010" lat="61.3379527818" lon="6.34890277333">
		<tag k="name" v="Eldalsøyrane" />
		<tag k="place" v="locality" />
		<tag k="ssr:stedsnr" v="762171" />
	</node>
	<node id="-531497" lat="61.3486500009" lon="5.99321111818">
		<tag k="name" v="Seltuftene" />
		<tag k="natural" v="wetland" />
		<tag k="ssr:stedsnr" v="493455" />
	</node>
	<node id="-532007" lat="61.3431777771" lon="6.05584167452">
		<tag k="name" v="Høgemyra" />
		<tag k="natural" v="wetland" />
		<tag k="ssr:stedsnr" v="762052" />
	</node>
	<node id="-530854" lat="61.3775083341" lon="6.22283333261">
		<tag k="name" v="Mosstadmyrane" />
		<tag k="natural" v="wetland" />
		<tag k="ssr:stedsnr" v="7736" />
	</node>
	<node id="-531288" lat="61.3462249959" lon="5.6081999944">
		<tag k="name" v="Storediket" />
		<tag k="natural" v="wetland" />
		<tag k="ssr:stedsnr" v="250055" />
	</node>
	<node id="-531163" lat="61.4093138876" lon="5.80813611571">
		<tag k="name" v="Steinen" />
		<tag k="natural" v="stone" />
		<tag k="ssr:stedsnr" v="159411" />
	</node>
	<node id="-532128" lat="61.3204166651" lon="6.28856388547">
		<tag k="name" v="Murura" />
		<tag k="natural" v="scree" />
		<tag k="ssr:stedsnr" v="823154" />
	</node>
	<node id="-530755" lat="61.3178138931" lon="5.69792499864">
		<tag k="name" v="Gamlegarden" />
		<tag k="place" v="locality" />
		<tag k="ssr:stedsnr" v="402016" />
	</node>
	<node id="-532126" lat="61.3553361102" lon="6.19578056477">
		<tag k="name" v="Instemarka" />
		<tag k="place" v="locality" />
		<tag k="ssr:stedsnr" v="822102" />
	</node>
	<node id="-531485" lat="61.3448083319" lon="5.73416666754">
		<tag k="name" v="Myrane" />
		<tag k="natural" v="wetland" />
		<tag k="ssr:stedsnr" v="493049" />
	</node>
	<node id="-531129" lat="61.3538916624" lon="6.12460277193">
		<tag k="name" v="Bøen" />
		<tag k="place" v="locality" />
		<tag k="ssr:stedsnr" v="155019" />
	</node>
	<node id="-530522" lat="61.3280500021" lon="5.71034166172">
		<tag k="name" v="Skarsvad" />
		<tag k="natural" v="wetland" />
		<tag k="ssr:stedsnr" v="280147" />
	</node>
	<node id="-530985" lat="61.3848250041" lon="5.69488056229">
		<tag k="name" v="Liagjerdet" />
		<tag k="place" v="locality" />
		<tag k="ssr:stedsnr" v="68938" />
	</node>
	<node id="-532377" lat="61.3770916702" lon="5.56665833293">
		<tag k="name" v="Røvemyra" />
		<tag k="natural" v="wetland" />
		<tag k="ssr:stedsnr" v="948948" />
	</node>
	<node id="-532120" lat="61.3769416638" lon="5.77025833948">
		<tag k="alt_name" v="Torsteinmyra" />
		<tag k="name" v="Torsteinsmyra" />
		<tag k="natural" v="wetland" />
		<tag k="ssr:stedsnr" v="797901" />
	</node>
	<node id="-530628" lat="61.3612083351" lon="6.23228056412">
		<tag k="name" v="Loftsteinen" />
		<tag k="natural" v="stone" />
		<tag k="ssr:stedsnr" v="340947" />
	</node>
	<node id="-531225" lat="61.3802805528" lon="5.73588054895">
		<tag k="name" v="Styggemyra" />
		<tag k="natural" v="wetland" />
		<tag k="ssr:stedsnr" v="190919" />
	</node>
	<node id="-530533" lat="61.3895694483" lon="5.72639166523">
		<tag k="name" v="Tyssesteinen" />
		<tag k="natural" v="stone" />
		<tag k="ssr:stedsnr" v="281044" />
	</node>
	<node id="-530578" lat="61.3247525655" lon="6.01269106131">
		<tag k="alt_name" v="Riura" />
		<tag k="name" v="Riurda" />
		<tag k="natural" v="scree" />
		<tag k="ssr:stedsnr" v="311596" />
	</node>
	<node id="-532369" lat="61.3515472247" lon="5.6649305498">
		<tag k="name" v="Storemyra" />
		<tag k="natural" v="wetland" />
		<tag k="ssr:stedsnr" v="948354" />
	</node>
	<node id="-532368" lat="61.3590805517" lon="5.66943332797">
		<tag k="name" v="Huset" />
		<tag k="place" v="locality" />
		<tag k="ssr:stedsnr" v="948324" />
	</node>
	<node id="-530503" lat="61.3489555573" lon="6.10570000657">
		<tag k="name" v="Kongsteigen" />
		<tag k="place" v="locality" />
		<tag k="ssr:stedsnr" v="276043" />
	</node>
	<node id="-530601" lat="61.379866666" lon="5.567725">
		<tag k="name" v="Langemyra" />
		<tag k="natural" v="wetland" />
		<tag k="ssr:stedsnr" v="311996" />
	</node>
	<node id="-532364" lat="61.3850666642" lon="5.61571945079">
		<tag k="name" v="Skitnemyra" />
		<tag k="natural" v="wetland" />
		<tag k="ssr:stedsnr" v="948138" />
	</node>
	<node id="-531595" lat="61.3941972267" lon="5.64601945283">
		<tag k="name" v="Olmanmyra" />
		<tag k="natural" v="wetland" />
		<tag k="ssr:stedsnr" v="524893" />
	</node>
	<node id="-531210" lat="61.3751916657" lon="5.61668889298">
		<tag k="name" v="Langemyra" />
		<tag k="natural" v="wetland" />
		<tag k="ssr:stedsnr" v="190544" />
	</node>
	<node id="-531436" lat="61.3579138898" lon="5.75889444249">
		<tag k="name" v="Tjørnamyra" />
		<tag k="natural" v="wetland" />
		<tag k="ssr:stedsnr" v="462024" />
	</node>
	<node id="-531461" lat="61.3872138854" lon="5.50338889832">
		<tag k="name" v="Sandgotmyra" />
		<tag k="natural" v="wetland" />
		<tag k="ssr:stedsnr" v="463015" />
	</node>
	<node id="-531332" lat="61.379980552" lon="5.72976943838">
		<tag k="alt_name" v="Tjørnarmyra" />
		<tag k="name" v="Tjørnamyra" />
		<tag k="natural" v="wetland" />
		<tag k="ssr:stedsnr" v="250900" />
	</node>
	<node id="-531970" lat="61.4014138878" lon="5.44638333438">
		<tag k="alt_name" v="Svæmyrane" />
		<tag k="name" v="Svædmyrane" />
		<tag k="natural" v="wetland" />
		<tag k="ssr:stedsnr" v="736234" />
	</node>
	<node id="-530820" lat="61.4032341749" lon="5.83230399888">
		<tag k="alt_name" v="Skjærmyra" />
		<tag k="name" v="Skjermyra" />
		<tag k="natural" v="wetland" />
		<tag k="ssr:stedsnr" v="918828" />
	</node>
</osm>
