<?xml version="1.0" encoding="UTF-8"?>
<osm generator="osmapis" version="0.6">
	<node id="-532373" lat="61.3315361121" lon="5.95487499811">
		<tag k="name" v="Instestraumen" />
		<tag k="natural" v="strait" />
		<tag k="ssr:stedsnr" v="948753" />
	</node>
	<node id="-532371" lat="61.373641664" lon="5.77031943959">
		<tag k="name" v="Lessingane" />
		<tag k="natural" v="cape" />
		<tag k="ssr:stedsnr" v="948475" />
	</node>
	<node id="-532360" lat="61.3163555528" lon="5.69660000327">
		<tag k="name" v="Krokane" />
		<tag k="natural" v="cape" />
		<tag k="ssr:stedsnr" v="948028" />
	</node>
	<node id="-532356" lat="61.336757849" lon="5.91259676485">
		<tag k="name" v="Sandvika" />
		<tag k="natural" v="bay" />
		<tag k="ssr:stedsnr" v="947770" />
	</node>
	<node id="-532354" lat="61.3217916632" lon="6.06454166532">
		<tag k="name" v="Sandaneelva" />
		<tag k="ssr:stedsnr" v="947631" />
		<tag k="waterway" v="river" />
	</node>
	<node id="-532347" lat="61.3290527751" lon="6.27596666725">
		<tag k="name" v="Lona" />
		<tag k="natural" v="water" />
		<tag k="ssr:stedsnr" v="944173" />
		<tag k="water" v="lake" />
	</node>
	<node id="-532344" lat="61.2423277787" lon="5.81141944539">
		<tag k="alt_name" v="Fureåselva" />
		<tag k="name" v="Furåselva" />
		<tag k="ssr:stedsnr" v="919942" />
		<tag k="waterway" v="stream" />
	</node>
	<node id="-532341" lat="61.3074055579" lon="6.22778611053">
		<tag k="name" v="Skarelva" />
		<tag k="ssr:stedsnr" v="919509" />
		<tag k="waterway" v="stream" />
	</node>
	<node id="-532329" lat="61.3077000038" lon="6.28399167529">
		<tag k="name" v="Geitebotsvatnet" />
		<tag k="natural" v="water" />
		<tag k="ssr:stedsnr" v="918857" />
	</node>
	<node id="-532324" lat="61.3908583311" lon="5.53410278047">
		<tag k="name" v="Jonstjørna" />
		<tag k="natural" v="water" />
		<tag k="ssr:stedsnr" v="918829" />
	</node>
	<node id="-532323" lat="61.4042583302" lon="5.754519448">
		<tag k="alt_name" v="Storegjøset;Gjøsetvatnet, l" />
		<tag k="name" v="Litle Gjøsetvatnet" />
		<tag k="natural" v="water" />
		<tag k="ssr:stedsnr" v="918820" />
	</node>
	<node id="-532321" lat="61.396166306" lon="5.50452036452">
		<tag k="name" v="Fyrsteneset" />
		<tag k="natural" v="cape" />
		<tag k="ssr:stedsnr" v="918809" />
	</node>
	<node id="-532319" lat="61.2933361109" lon="5.92593611195">
		<tag k="name" v="Storevatnet" />
		<tag k="natural" v="water" />
		<tag k="ssr:stedsnr" v="918684" />
	</node>
	<node id="-532318" lat="61.2914138933" lon="6.07725555233">
		<tag k="alt_name" v="Blankedalsvatnet, øvre" />
		<tag k="name" v="Øvre Blankedalsvatnet" />
		<tag k="natural" v="water" />
		<tag k="ssr:stedsnr" v="918668" />
		<tag k="water" v="lake" />
	</node>
	<node id="-532316" lat="61.282658337" lon="6.19791667221">
		<tag k="name" v="Skardvatnet" />
		<tag k="natural" v="water" />
		<tag k="ssr:stedsnr" v="918653" />
	</node>
	<node id="-532315" lat="61.3293749978" lon="6.0574111122">
		<tag k="name" v="Vaulodden" />
		<tag k="natural" v="cape" />
		<tag k="ssr:stedsnr" v="918620" />
	</node>
	<node id="-532310" lat="61.3968194471" lon="5.7738055556">
		<tag k="name" v="Gjøsetelva" />
		<tag k="ssr:stedsnr" v="918598" />
		<tag k="waterway" v="stream" />
	</node>
	<node id="-532309" lat="61.3241397881" lon="6.02775767444">
		<tag k="alt_name" v="Øvste Kråka;Kråka, øvre" />
		<tag k="name" v="Øvre Kråka" />
		<tag k="natural" v="cape" />
		<tag k="ssr:stedsnr" v="918594" />
	</node>
	<node id="-532307" lat="61.3129083349" lon="6.09973056376">
		<tag k="name" v="Mjelkegeitgrova" />
		<tag k="ssr:stedsnr" v="918579" />
		<tag k="waterway" v="stream" />
	</node>
	<node id="-532306" lat="61.303866668" lon="5.85861944456">
		<tag k="alt_name" v="Svegardelva" />
		<tag k="name" v="Svidgardselva" />
		<tag k="ssr:stedsnr" v="918567" />
		<tag k="waterway" v="stream" />
	</node>
	<node id="-532304" lat="61.3048555515" lon="6.01373611472">
		<tag k="name" v="Rørstaddyttingen" />
		<tag k="natural" v="water" />
		<tag k="ssr:stedsnr" v="918562" />
	</node>
	<node id="-532303" lat="61.3012111125" lon="6.18485000018">
		<tag k="name" v="Oppedalselva" />
		<tag k="ssr:stedsnr" v="918561" />
		<tag k="waterway" v="stream" />
	</node>
	<node id="-532302" lat="61.3003750022" lon="6.11588611204">
		<tag k="name" v="Kyravatnet" />
		<tag k="natural" v="water" />
		<tag k="ssr:stedsnr" v="918559" />
	</node>
	<node id="-532301" lat="61.307755553" lon="6.09233889205">
		<tag k="name" v="Styggevatnet" />
		<tag k="natural" v="water" />
		<tag k="ssr:stedsnr" v="918556" />
	</node>
	<node id="-532300" lat="61.3307055588" lon="5.93562499889">
		<tag k="name" v="Øyratangen" />
		<tag k="natural" v="cape" />
		<tag k="ssr:stedsnr" v="918552" />
	</node>
	<node id="-532299" lat="61.3855055979" lon="6.10801648551">
		<tag k="name" v="Kvanngrødvatnet" />
		<tag k="natural" v="water" />
		<tag k="ssr:stedsnr" v="918484" />
		<tag k="water" v="lake" />
	</node>
	<node id="-532298" lat="61.3859027789" lon="5.84448332874">
		<tag k="alt_name" v="Skintjørn" />
		<tag k="name" v="Skjentjørna" />
		<tag k="natural" v="water" />
		<tag k="ssr:stedsnr" v="918476" />
	</node>
	<node id="-532291" lat="61.2954138878" lon="5.66569723069">
		<tag k="alt_name" v="Skarsvatnet" />
		<tag k="name" v="Skardsvatnet" />
		<tag k="natural" v="water" />
		<tag k="ssr:stedsnr" v="918145" />
	</node>
	<node id="-532289" lat="61.3220898896" lon="5.65319687449">
		<tag k="name" v="Litlevatnet" />
		<tag k="natural" v="water" />
		<tag k="ssr:stedsnr" v="918131" />
	</node>
	<node id="-532280" lat="61.3367583316" lon="5.66019444876">
		<tag k="name" v="Sundsdalsvatnet" />
		<tag k="natural" v="water" />
		<tag k="ssr:stedsnr" v="918047" />
	</node>
	<node id="-532266" lat="61.3375277781" lon="6.05017499974">
		<tag k="alt_name" v="Roskeelva" />
		<tag k="name" v="Roskelva" />
		<tag k="ssr:stedsnr" v="917465" />
		<tag k="waterway" v="stream" />
	</node>
	<node id="-532265" lat="61.3346566984" lon="5.84745678766">
		<tag k="alt_name" v="Haukevatn" />
		<tag k="name" v="Haukevatnet" />
		<tag k="natural" v="water" />
		<tag k="ssr:stedsnr" v="917458" />
		<tag k="water" v="lake" />
	</node>
	<node id="-532263" lat="61.3368888847" lon="5.99289999359">
		<tag k="name" v="Svartetjørna" />
		<tag k="natural" v="water" />
		<tag k="ssr:stedsnr" v="917454" />
	</node>
	<node id="-532257" lat="61.3755638917" lon="5.6895166673">
		<tag k="alt_name" v="Fauskeelv;Fauskeelva" />
		<tag k="name" v="Fauskelva" />
		<tag k="ssr:stedsnr" v="858912" />
		<tag k="waterway" v="river" />
	</node>
	<node id="-532256" lat="61.4036027765" lon="5.47378889276">
		<tag k="alt_name" v="Grøvla" />
		<tag k="name" v="Grytelva" />
		<tag k="ssr:stedsnr" v="858816" />
		<tag k="waterway" v="river" />
	</node>
	<node id="-532255" lat="61.4065694479" lon="5.62898333051">
		<tag k="name" v="Grunnevatnet" />
		<tag k="natural" v="water" />
		<tag k="ssr:stedsnr" v="858792" />
	</node>
	<node id="-532253" lat="61.2926915545" lon="6.0599928811">
		<tag k="name" v="Storevatnet" />
		<tag k="natural" v="water" />
		<tag k="ssr:stedsnr" v="858535" />
		<tag k="water" v="lake" />
	</node>
	<node id="-532252" lat="61.3739361075" lon="6.12299999511">
		<tag k="name" v="Skredfjellselva" />
		<tag k="ssr:stedsnr" v="858463" />
		<tag k="waterway" v="stream" />
	</node>
	<node id="-532251" lat="61.2902916649" lon="5.7098694505">
		<tag k="alt_name" v="Vænevatn" />
		<tag k="name" v="Venevatnet" />
		<tag k="natural" v="water" />
		<tag k="ssr:stedsnr" v="858164" />
	</node>
	<node id="-532246" lat="61.3910611068" lon="5.73689166605">
		<tag k="alt_name" v="Stongavatnet" />
		<tag k="name" v="Stangavatnet" />
		<tag k="natural" v="water" />
		<tag k="ssr:stedsnr" v="857966" />
	</node>
	<node id="-532244" lat="61.3838722226" lon="5.75345000103">
		<tag k="alt_name" v="Bringelandsvatn" />
		<tag k="name" v="Bringelandsvatnet" />
		<tag k="place" v="locality" />
		<tag k="ssr:stedsnr" v="857937" />
	</node>
	<node id="-532235" lat="61.3129916654" lon="6.29934166686">
		<tag k="name" v="Rindebotsvatnet" />
		<tag k="natural" v="water" />
		<tag k="ssr:stedsnr" v="857787" />
	</node>
	<node id="-532234" lat="61.322350001" lon="6.32516944579">
		<tag k="name" v="Skålebotsvatnet" />
		<tag k="natural" v="water" />
		<tag k="ssr:stedsnr" v="857785" />
	</node>
	<node id="-532233" lat="61.31398056" lon="6.27606944419">
		<tag k="name" v="Storegrova" />
		<tag k="ssr:stedsnr" v="857782" />
		<tag k="waterway" v="stream" />
	</node>
	<node id="-532230" lat="61.3493277797" lon="6.35230832457">
		<tag k="alt_name" v="Øyaelvane" />
		<tag k="name" v="Øyvelva" />
		<tag k="ssr:stedsnr" v="857729" />
		<tag k="waterway" v="stream" />
	</node>
	<node id="-532226" lat="61.2887861114" lon="5.85098055907">
		<tag k="name" v="Grova" />
		<tag k="ssr:stedsnr" v="857626" />
		<tag k="waterway" v="stream" />
	</node>
	<node id="-532225" lat="61.2803416633" lon="5.85501666949">
		<tag k="name" v="Daurmålsvatnet" />
		<tag k="natural" v="water" />
		<tag k="ssr:stedsnr" v="857619" />
	</node>
	<node id="-532222" lat="61.3219777791" lon="5.99012500102">
		<tag k="alt_name" v="Holmane" />
		<tag k="name" v="Storeholmen" />
		<tag k="place" v="islet" />
		<tag k="ssr:stedsnr" v="857568" />
	</node>
	<node id="-532220" lat="61.3240333328" lon="6.02137222068">
		<tag k="alt_name" v="Nedste Kråka;Kråka, nedre" />
		<tag k="name" v="Nedre Kråka" />
		<tag k="natural" v="cape" />
		<tag k="ssr:stedsnr" v="857558" />
	</node>
	<node id="-532219" lat="61.3218861086" lon="6.08763055628">
		<tag k="name" v="Botnaelva" />
		<tag k="ssr:stedsnr" v="857556" />
		<tag k="waterway" v="stream" />
	</node>
	<node id="-532218" lat="61.3237500002" lon="6.20514443917">
		<tag k="alt_name" v="Seta" />
		<tag k="name" v="Sæta" />
		<tag k="ssr:stedsnr" v="857545" />
		<tag k="waterway" v="river" />
	</node>
	<node id="-532214" lat="61.3093611095" lon="6.0337249955">
		<tag k="name" v="Årteigselva" />
		<tag k="ssr:stedsnr" v="857531" />
		<tag k="waterway" v="stream" />
	</node>
	<node id="-532212" lat="61.3105361079" lon="6.00824444287">
		<tag k="name" v="Rørstadelva" />
		<tag k="ssr:stedsnr" v="857527" />
		<tag k="waterway" v="stream" />
	</node>
	<node id="-532205" lat="61.3461055593" lon="6.07299999872">
		<tag k="name" v="Neselva" />
		<tag k="ssr:stedsnr" v="857482" />
		<tag k="waterway" v="stream" />
	</node>
	<node id="-532202" lat="61.3600888872" lon="6.11016389215">
		<tag k="name" v="Botnelva" />
		<tag k="ssr:stedsnr" v="857461" />
		<tag k="waterway" v="stream" />
	</node>
	<node id="-532198" lat="61.2717944467" lon="5.83989999349">
		<tag k="name" v="Indrestranda" />
		<tag k="natural" v="beach" />
		<tag k="ssr:stedsnr" v="857261" />
	</node>
	<node id="-532192" lat="61.3467222232" lon="5.62131665983">
		<tag k="name" v="Oladyttingane" />
		<tag k="natural" v="water" />
		<tag k="ssr:stedsnr" v="857052" />
	</node>
	<node id="-532184" lat="61.3114361149" lon="6.02980278598">
		<tag k="name" v="Årteigelvane" />
		<tag k="ssr:stedsnr" v="828664" />
		<tag k="waterway" v="river" />
	</node>
	<node id="-532142" lat="61.4018111072" lon="5.76560834295">
		<tag k="name" v="Litlegjøset" />
		<tag k="ssr:stedsnr" v="826031" />
		<tag k="waterway" v="river" />
	</node>
	<node id="-532123" lat="61.373325001" lon="5.56666389693">
		<tag k="alt_name" v="Kleppevatnet" />
		<tag k="name" v="Kleppsvatnet" />
		<tag k="natural" v="water" />
		<tag k="ssr:stedsnr" v="797948" />
	</node>
	<node id="-532118" lat="61.4104055534" lon="5.59403333366">
		<tag k="name" v="Selsvatnet" />
		<tag k="natural" v="water" />
		<tag k="ssr:stedsnr" v="797809" />
		<tag k="water" v="lake" />
	</node>
	<node id="-532117" lat="61.4110831573" lon="5.53462281677">
		<tag k="name" v="Litlevatnet" />
		<tag k="natural" v="water" />
		<tag k="ssr:stedsnr" v="797808" />
	</node>
	<node id="-532109" lat="61.3759250004" lon="6.11364999393">
		<tag k="name" v="Skredfjellsvatnet" />
		<tag k="natural" v="water" />
		<tag k="ssr:stedsnr" v="797437" />
	</node>
	<node id="-532105" lat="61.2972777812" lon="5.72787222898">
		<tag k="alt_name" v="Kråkevatn" />
		<tag k="name" v="Kråkevatnet" />
		<tag k="natural" v="water" />
		<tag k="ssr:stedsnr" v="797138" />
	</node>
	<node id="-532099" lat="61.3365222238" lon="5.62563332522">
		<tag k="name" v="Venevatn" />
		<tag k="natural" v="water" />
		<tag k="ssr:stedsnr" v="797046" />
	</node>
	<node id="-532097" lat="61.3478918683" lon="5.58436571328">
		<tag k="name" v="Brokatjørna" />
		<tag k="natural" v="water" />
		<tag k="ssr:stedsnr" v="797006" />
	</node>
	<node id="-532093" lat="61.4000638883" lon="5.74820834103">
		<tag k="name" v="Koletjørna" />
		<tag k="natural" v="water" />
		<tag k="ssr:stedsnr" v="796975" />
	</node>
	<node id="-532084" lat="61.3861166629" lon="6.31644165858">
		<tag k="name" v="Langevatnet" />
		<tag k="natural" v="water" />
		<tag k="ssr:stedsnr" v="796732" />
	</node>
	<node id="-532081" lat="61.3425166664" lon="6.31557500448">
		<tag k="name" v="Mjellsvatnet" />
		<tag k="natural" v="water" />
		<tag k="ssr:stedsnr" v="796703" />
	</node>
	<node id="-532077" lat="61.3207249991" lon="5.98628332949">
		<tag k="alt_name" v="Holmane" />
		<tag k="name" v="Litleholmen" />
		<tag k="place" v="islet" />
		<tag k="ssr:stedsnr" v="796535" />
	</node>
	<node id="-532073" lat="61.3023416633" lon="6.07825555713">
		<tag k="name" v="Holtsnipvatnet" />
		<tag k="natural" v="water" />
		<tag k="ssr:stedsnr" v="796507" />
	</node>
	<node id="-532069" lat="61.3380448031" lon="5.89712733943">
		<tag k="name" v="Bjørvika" />
		<tag k="natural" v="bay" />
		<tag k="ssr:stedsnr" v="796479" />
	</node>
	<node id="-532051" lat="61.3515472212" lon="5.66795833161">
		<tag k="name" v="Samfengjehølen" />
		<tag k="place" v="locality" />
		<tag k="ssr:stedsnr" v="766336" />
	</node>
	<node id="-532049" lat="61.3515388868" lon="5.64370000381">
		<tag k="name" v="Fløydaltjørna" />
		<tag k="natural" v="water" />
		<tag k="ssr:stedsnr" v="766318" />
	</node>
	<node id="-532047" lat="61.3833833299" lon="5.74746389379">
		<tag k="name" v="Storelva" />
		<tag k="ssr:stedsnr" v="766037" />
		<tag k="waterway" v="river" />
	</node>
	<node id="-532041" lat="61.3419444421" lon="6.28403610614">
		<tag k="name" v="Ogroelva" />
		<tag k="ssr:stedsnr" v="765939" />
		<tag k="waterway" v="stream" />
	</node>
	<node id="-532040" lat="61.3136499999" lon="6.22911945245">
		<tag k="name" v="Austangrova" />
		<tag k="ssr:stedsnr" v="765903" />
		<tag k="waterway" v="stream" />
	</node>
	<node id="-532037" lat="61.2848833354" lon="5.72051111511">
		<tag k="name" v="Prinsehølen" />
		<tag k="place" v="locality" />
		<tag k="ssr:stedsnr" v="765858" />
	</node>
	<node id="-532032" lat="61.3919527805" lon="5.81442778102">
		<tag k="name" v="Kolvøyra" />
		<tag k="natural" v="cape" />
		<tag k="ssr:stedsnr" v="765818" />
	</node>
	<node id="-532018" lat="61.3402749977" lon="5.92037777322">
		<tag k="name" v="Sagelva" />
		<tag k="ssr:stedsnr" v="764779" />
		<tag k="waterway" v="stream" />
	</node>
	<node id="-532015" lat="61.3631277743" lon="6.24603333167">
		<tag k="name" v="Indre Botnaelva" />
		<tag k="ssr:stedsnr" v="762430" />
		<tag k="waterway" v="river" />
	</node>
	<node id="-532008" lat="61.3447000039" lon="6.33594166109">
		<tag k="name" v="Lona" />
		<tag k="natural" v="water" />
		<tag k="ssr:stedsnr" v="762151" />
		<tag k="water" v="lake" />
	</node>
	<node id="-531993" lat="61.3576472252" lon="5.59853889437">
		<tag k="name" v="Storelva" />
		<tag k="ssr:stedsnr" v="736892" />
		<tag k="waterway" v="stream" />
	</node>
	<node id="-531985" lat="61.4130777737" lon="5.74488610869">
		<tag k="alt_name" v="Gjøsetvatn" />
		<tag k="name" v="Gjøsetvatnet" />
		<tag k="natural" v="water" />
		<tag k="ssr:stedsnr" v="736821" />
		<tag k="water" v="lake" />
	</node>
	<node id="-531980" lat="61.2926000001" lon="5.91112500052">
		<tag k="name" v="Dalavatnet" />
		<tag k="natural" v="water" />
		<tag k="ssr:stedsnr" v="736600" />
	</node>
	<node id="-531979" lat="61.2985027747" lon="6.19166388931">
		<tag k="name" v="Riselva" />
		<tag k="ssr:stedsnr" v="736595" />
		<tag k="waterway" v="stream" />
	</node>
	<node id="-531972" lat="61.3770499974" lon="5.8479055494">
		<tag k="alt_name" v="Mosatjørn" />
		<tag k="name" v="Mosetjørna" />
		<tag k="natural" v="water" />
		<tag k="ssr:stedsnr" v="736415" />
	</node>
	<node id="-531971" lat="61.2540666711" lon="5.74983056204">
		<tag k="name" v="Nykksvatnet" />
		<tag k="natural" v="water" />
		<tag k="old_name" v="Nykkesvatnet" />
		<tag k="ssr:stedsnr" v="736241" />
		<tag k="water" v="lake" />
	</node>
	<node id="-531969" lat="61.2830194416" lon="5.79368056133">
		<tag k="name" v="Årbergselva" />
		<tag k="ssr:stedsnr" v="736167" />
		<tag k="waterway" v="stream" />
	</node>
	<node id="-531963" lat="61.3269527806" lon="5.71911110232">
		<tag k="name" v="Årøyfossen" />
		<tag k="natural" v="waterfall" />
		<tag k="ssr:stedsnr" v="736120" />
	</node>
	<node id="-531950" lat="61.3571527741" lon="5.84042221668">
		<tag k="alt_name" v="Kvamstølvatnet" />
		<tag k="name" v="Kvamsstølsvatnet" />
		<tag k="natural" v="water" />
		<tag k="ssr:stedsnr" v="736013" />
	</node>
	<node id="-531946" lat="61.3662055599" lon="6.32022499239">
		<tag k="name" v="Kjellstadstølsvatnet" />
		<tag k="natural" v="water" />
		<tag k="ssr:stedsnr" v="735707" />
	</node>
	<node id="-531943" lat="61.319358335" lon="6.16868054655">
		<tag k="fixme" v="multiple name tags, choose one and add the other to alt_name" />
		<tag k="name" v="Stokkelva;Øyeelva" />
		<tag k="ssr:stedsnr" v="735518" />
		<tag k="waterway" v="stream" />
	</node>
	<node id="-531941" lat="61.312377779" lon="6.2010555478">
		<tag k="name" v="Kvernhuselva" />
		<tag k="ssr:stedsnr" v="735501" />
		<tag k="waterway" v="stream" />
	</node>
	<node id="-531939" lat="61.302336108" lon="6.0663750069">
		<tag k="name" v="Litlevatnet" />
		<tag k="natural" v="water" />
		<tag k="ssr:stedsnr" v="735494" />
	</node>
	<node id="-531938" lat="61.3293363055" lon="5.91725362404">
		<tag k="name" v="Hestadfjorden" />
		<tag k="natural" v="water" />
		<tag k="ssr:stedsnr" v="735477" />
		<tag k="water" v="lake" />
	</node>
	<node id="-531935" lat="61.3333783015" lon="5.88685523971">
		<tag k="alt_name" v="Djupevik" />
		<tag k="name" v="Djupvik" />
		<tag k="natural" v="bay" />
		<tag k="ssr:stedsnr" v="735464" />
	</node>
	<node id="-531934" lat="61.3420388908" lon="5.94742499728">
		<tag k="alt_name" v="Kolbeinelva" />
		<tag k="name" v="Kolbeinselva" />
		<tag k="ssr:stedsnr" v="735451" />
		<tag k="waterway" v="stream" />
	</node>
	<node id="-531933" lat="61.340277776" lon="5.92155833825">
		<tag k="name" v="Runnaelva" />
		<tag k="ssr:stedsnr" v="735449" />
		<tag k="waterway" v="river" />
	</node>
	<node id="-531931" lat="61.3558976368" lon="6.1529595814">
		<tag k="alt_name" v="Lauavatnet" />
		<tag k="name" v="Lauvavatnet" />
		<tag k="natural" v="water" />
		<tag k="ssr:stedsnr" v="735443" />
		<tag k="water" v="lake" />
	</node>
	<node id="-531929" lat="61.3692166658" lon="6.1449611179">
		<tag k="name" v="Myklevasselva" />
		<tag k="ssr:stedsnr" v="735431" />
		<tag k="waterway" v="stream" />
	</node>
	<node id="-531928" lat="61.3940583347" lon="5.84352776918">
		<tag k="name" v="Dyrlitjørna" />
		<tag k="natural" v="water" />
		<tag k="ssr:stedsnr" v="735405" />
	</node>
	<node id="-531927" lat="61.2890416696" lon="5.93393611663">
		<tag k="name" v="Jakobsvatnet" />
		<tag k="natural" v="water" />
		<tag k="ssr:stedsnr" v="736606" />
	</node>
	<node id="-531926" lat="61.291486718" lon="5.96308249507">
		<tag k="name" v="Seltuftevatnet" />
		<tag k="natural" v="water" />
		<tag k="ssr:stedsnr" v="736605" />
	</node>
	<node id="-531911" lat="61.2895611147" lon="5.74855278366">
		<tag k="name" v="Tverrelvane" />
		<tag k="ssr:stedsnr" v="704860" />
		<tag k="waterway" v="stream" />
	</node>
	<node id="-531899" lat="61.3219444471" lon="6.22838055572">
		<tag k="name" v="Langeneset" />
		<tag k="natural" v="cape" />
		<tag k="ssr:stedsnr" v="702902" />
	</node>
	<node id="-531895" lat="61.3480361111" lon="6.17184722998">
		<tag k="name" v="Grøfta" />
		<tag k="ssr:stedsnr" v="701104" />
		<tag k="waterway" v="stream" />
	</node>
	<node id="-531889" lat="61.3950583355" lon="5.7444000026">
		<tag k="name" v="Djupedalsvatnet" />
		<tag k="natural" v="water" />
		<tag k="ssr:stedsnr" v="675985" />
	</node>
	<node id="-531887" lat="61.3916888882" lon="5.81572500923">
		<tag k="name" v="Storelva" />
		<tag k="ssr:stedsnr" v="675950" />
		<tag k="waterway" v="stream" />
	</node>
	<node id="-531884" lat="61.3784981808" lon="5.80481910087">
		<tag k="name" v="Skilbreivatnet" />
		<tag k="natural" v="water" />
		<tag k="ssr:stedsnr" v="675945" />
		<tag k="water" v="lake" />
	</node>
	<node id="-531881" lat="61.3744999965" lon="5.80268054954">
		<tag k="alt_name" v="Skreneset" />
		<tag k="name" v="Skredneset" />
		<tag k="natural" v="cape" />
		<tag k="ssr:stedsnr" v="675909" />
	</node>
	<node id="-531879" lat="61.3742472261" lon="5.7899916749">
		<tag k="name" v="Pytten" />
		<tag k="place" v="locality" />
		<tag k="ssr:stedsnr" v="675884" />
	</node>
	<node id="-531877" lat="61.3038888898" lon="6.25890000896">
		<tag k="name" v="Litlegrovatnet" />
		<tag k="natural" v="water" />
		<tag k="ssr:stedsnr" v="675823" />
	</node>
	<node id="-531875" lat="61.4160944463" lon="5.5657888889">
		<tag k="name" v="Svartetjørna" />
		<tag k="natural" v="water" />
		<tag k="ssr:stedsnr" v="675808" />
	</node>
	<node id="-531874" lat="61.3921472248" lon="5.56399722303">
		<tag k="name" v="Bergsvatnet" />
		<tag k="natural" v="water" />
		<tag k="ssr:stedsnr" v="675803" />
	</node>
	<node id="-531872" lat="61.3035666702" lon="6.33885554992">
		<tag k="name" v="Kyravatnet" />
		<tag k="natural" v="water" />
		<tag k="ssr:stedsnr" v="675792" />
	</node>
	<node id="-531871" lat="61.3952965556" lon="5.51273313147">
		<tag k="name" v="Hestadvatnet" />
		<tag k="natural" v="water" />
		<tag k="ssr:stedsnr" v="675779" />
	</node>
	<node id="-531870" lat="61.3984167831" lon="5.5215556476">
		<tag k="alt_name" v="Kvandalsvatnet" />
		<tag k="name" v="Kvanndalsvatnet" />
		<tag k="natural" v="water" />
		<tag k="ssr:stedsnr" v="675778" />
	</node>
	<node id="-531867" lat="61.3412111116" lon="6.28019166442">
		<tag k="name" v="Skarelva" />
		<tag k="ssr:stedsnr" v="675728" />
		<tag k="waterway" v="stream" />
	</node>
	<node id="-531864" lat="61.2950999982" lon="5.86566110871">
		<tag k="name" v="Sinsetelva" />
		<tag k="ssr:stedsnr" v="675635" />
		<tag k="waterway" v="stream" />
	</node>
	<node id="-531863" lat="61.3008527744" lon="6.14295000142">
		<tag k="name" v="Kjetjørna" />
		<tag k="natural" v="water" />
		<tag k="ssr:stedsnr" v="675633" />
	</node>
	<node id="-531861" lat="61.2930638867" lon="6.109408341">
		<tag k="name" v="Larsselvatnet" />
		<tag k="natural" v="water" />
		<tag k="ssr:stedsnr" v="675625" />
	</node>
	<node id="-531860" lat="61.3262749994" lon="6.02263332611">
		<tag k="name" v="Hamrelva" />
		<tag k="ssr:stedsnr" v="675569" />
		<tag k="waterway" v="stream" />
	</node>
	<node id="-531857" lat="61.3265499985" lon="6.19913611351">
		<tag k="alt_name" v="Seteneset" />
		<tag k="name" v="Sætenes" />
		<tag k="natural" v="cape" />
		<tag k="ssr:stedsnr" v="675548" />
	</node>
	<node id="-531854" lat="61.3226555543" lon="5.86483332608">
		<tag k="name" v="Stølselva" />
		<tag k="ssr:stedsnr" v="675516" />
		<tag k="waterway" v="stream" />
	</node>
	<node id="-531849" lat="61.3640111125" lon="6.1791999995">
		<tag k="name" v="Ormeresgrova" />
		<tag k="ssr:stedsnr" v="675468" />
		<tag k="waterway" v="stream" />
	</node>
	<node id="-531846" lat="61.3887277796" lon="6.14492500897">
		<tag k="name" v="Myklevatnet" />
		<tag k="natural" v="water" />
		<tag k="ssr:stedsnr" v="675443" />
		<tag k="water" v="lake" />
	</node>
	<node id="-531845" lat="61.2647472223" lon="5.83594443613">
		<tag k="name" v="Vikabneselva" />
		<tag k="ssr:stedsnr" v="675268" />
		<tag k="waterway" v="stream" />
	</node>
	<node id="-531832" lat="61.2992054318" lon="5.65285673773">
		<tag k="name" v="Smørtjørna" />
		<tag k="natural" v="water" />
		<tag k="ssr:stedsnr" v="675116" />
	</node>
	<node id="-531801" lat="61.3454972263" lon="5.7569916731">
		<tag k="name" v="Rødalsgrova" />
		<tag k="ssr:stedsnr" v="644018" />
		<tag k="waterway" v="stream" />
	</node>
	<node id="-531799" lat="61.3773249974" lon="5.7992611122">
		<tag k="name" v="Holmane" />
		<tag k="place" v="islet" />
		<tag k="ssr:stedsnr" v="644002" />
	</node>
	<node id="-531790" lat="61.3856305558" lon="5.62650555866">
		<tag k="name" v="Taraldefossen" />
		<tag k="natural" v="waterfall" />
		<tag k="ssr:stedsnr" v="643680" />
	</node>
	<node id="-531783" lat="61.31974167" lon="6.24315556033">
		<tag k="name" v="Gjermundstadholmen" />
		<tag k="natural" v="cape" />
		<tag k="ssr:stedsnr" v="640909" />
	</node>
	<node id="-531776" lat="61.3436611147" lon="6.06041944837">
		<tag k="name" v="Blomlielva" />
		<tag k="ssr:stedsnr" v="640046" />
		<tag k="waterway" v="stream" />
	</node>
	<node id="-531775" lat="61.3133305565" lon="5.92936110727">
		<tag k="name" v="Sagelva" />
		<tag k="ssr:stedsnr" v="615494" />
		<tag k="waterway" v="stream" />
	</node>
	<node id="-531768" lat="61.3936194413" lon="5.75406943791">
		<tag k="alt_name" v="Tortjørna" />
		<tag k="name" v="Torstjørna" />
		<tag k="natural" v="water" />
		<tag k="ssr:stedsnr" v="614973" />
	</node>
	<node id="-531764" lat="61.3780827312" lon="5.8353128998">
		<tag k="alt_name" v="Skarpevatn" />
		<tag k="name" v="Skarpevatnet" />
		<tag k="natural" v="water" />
		<tag k="ssr:stedsnr" v="614936" />
	</node>
	<node id="-531754" lat="61.4000475794" lon="5.51586948146">
		<tag k="name" v="Skarpeneset" />
		<tag k="natural" v="cape" />
		<tag k="ssr:stedsnr" v="614788" />
	</node>
	<node id="-531749" lat="61.2794500003" lon="5.8778444351">
		<tag k="name" v="Tjørnene" />
		<tag k="natural" v="water" />
		<tag k="ssr:stedsnr" v="614628" />
	</node>
	<node id="-531747" lat="61.2938333321" lon="6.05075555115">
		<tag k="name" v="Tredjevatnet" />
		<tag k="natural" v="water" />
		<tag k="ssr:stedsnr" v="614624" />
	</node>
	<node id="-531746" lat="61.2973777816" lon="6.13745555206">
		<tag k="name" v="Holmevatnet" />
		<tag k="natural" v="water" />
		<tag k="ssr:stedsnr" v="614621" />
	</node>
	<node id="-531745" lat="61.3001527767" lon="6.12960000747">
		<tag k="name" v="Blåvatnet" />
		<tag k="natural" v="water" />
		<tag k="ssr:stedsnr" v="614618" />
	</node>
	<node id="-531742" lat="61.3341749982" lon="6.20911111058">
		<tag k="alt_name" v="Halfargrova" />
		<tag k="name" v="Halvfargrova" />
		<tag k="ssr:stedsnr" v="614559" />
		<tag k="waterway" v="stream" />
	</node>
	<node id="-531738" lat="61.3105750009" lon="5.95177499969">
		<tag k="alt_name" v="Strandselva" />
		<tag k="name" v="Strandelva" />
		<tag k="ssr:stedsnr" v="614529" />
		<tag k="waterway" v="stream" />
	</node>
	<node id="-531732" lat="61.4003305552" lon="5.46478332952">
		<tag k="name" v="Gryvla" />
		<tag k="ssr:stedsnr" v="614228" />
		<tag k="waterway" v="river" />
	</node>
	<node id="-531731" lat="61.2573750026" lon="5.80896388414">
		<tag k="alt_name" v="Storebotnvatn" />
		<tag k="name" v="Storebotnvatnet" />
		<tag k="natural" v="water" />
		<tag k="ssr:stedsnr" v="614223" />
	</node>
	<node id="-531727" lat="61.3039472185" lon="5.68864999474">
		<tag k="name" v="Alverelva" />
		<tag k="ssr:stedsnr" v="614105" />
		<tag k="waterway" v="stream" />
	</node>
	<node id="-531672" lat="61.3817027804" lon="5.72031667056">
		<tag k="alt_name" v="Hjelmelandsvatn" />
		<tag k="name" v="Hjelmelandsvatnet" />
		<tag k="natural" v="water" />
		<tag k="ssr:stedsnr" v="554925" />
	</node>
	<node id="-531669" lat="61.3431250015" lon="5.55895554796">
		<tag k="name" v="Storelva" />
		<tag k="ssr:stedsnr" v="554593" />
		<tag k="waterway" v="stream" />
	</node>
	<node id="-531664" lat="61.3765611083" lon="6.18928611747">
		<tag k="name" v="Venevatnet" />
		<tag k="natural" v="water" />
		<tag k="ssr:stedsnr" v="554459" />
	</node>
	<node id="-531661" lat="61.2905888869" lon="5.81371388664">
		<tag k="name" v="Liagrova" />
		<tag k="ssr:stedsnr" v="554173" />
		<tag k="waterway" v="stream" />
	</node>
	<node id="-531660" lat="61.3132077676" lon="5.62594870286">
		<tag k="name" v="Kvanngrødvatnet" />
		<tag k="natural" v="water" />
		<tag k="ssr:stedsnr" v="554153" />
	</node>
	<node id="-531653" lat="61.3735194444" lon="5.57759999198">
		<tag k="name" v="Vassdalsvatnet" />
		<tag k="natural" v="water" />
		<tag k="ssr:stedsnr" v="553948" />
	</node>
	<node id="-531648" lat="61.4140249988" lon="5.79505277743">
		<tag k="name" v="Tjørnane" />
		<tag k="natural" v="water" />
		<tag k="ssr:stedsnr" v="553809" />
	</node>
	<node id="-531647" lat="61.4100555598" lon="5.70969166331">
		<tag k="name" v="Botnavatnet" />
		<tag k="natural" v="water" />
		<tag k="ssr:stedsnr" v="553805" />
	</node>
	<node id="-531646" lat="61.4155666644" lon="5.71284166041">
		<tag k="name" v="Heielva" />
		<tag k="ssr:stedsnr" v="553804" />
		<tag k="waterway" v="stream" />
	</node>
	<node id="-531645" lat="61.4079089775" lon="5.64267070533">
		<tag k="name" v="Seltuftevatnet" />
		<tag k="natural" v="water" />
		<tag k="ssr:stedsnr" v="553801" />
	</node>
	<node id="-531644" lat="61.3230194482" lon="6.26950832614">
		<tag k="alt_name" v="Litlevatnet" />
		<tag k="name" v="Litlevatn" />
		<tag k="natural" v="water" />
		<tag k="ssr:stedsnr" v="553796" />
	</node>
	<node id="-531640" lat="61.3986427729" lon="5.51173091342">
		<tag k="alt_name" v="Meneset" />
		<tag k="name" v="Medneset" />
		<tag k="natural" v="cape" />
		<tag k="ssr:stedsnr" v="553764" />
	</node>
	<node id="-531638" lat="61.3461194449" lon="6.29489722102">
		<tag k="name" v="Storeskredelva" />
		<tag k="ssr:stedsnr" v="553729" />
		<tag k="waterway" v="stream" />
	</node>
	<node id="-531637" lat="61.347394448" lon="6.27142500291">
		<tag k="name" v="Langevatnet" />
		<tag k="natural" v="water" />
		<tag k="ssr:stedsnr" v="553726" />
	</node>
	<node id="-531635" lat="61.275205559" lon="5.87296665969">
		<tag k="name" v="Geitevatnet" />
		<tag k="natural" v="water" />
		<tag k="ssr:stedsnr" v="553601" />
	</node>
	<node id="-531634" lat="61.3292388885" lon="6.1079638981">
		<tag k="alt_name" v="Skarelva" />
		<tag k="name" v="Skardelva" />
		<tag k="ssr:stedsnr" v="553555" />
		<tag k="waterway" v="stream" />
	</node>
	<node id="-531633" lat="61.3305305555" lon="6.20270555217">
		<tag k="alt_name" v="Groaelva" />
		<tag k="name" v="Grovaelva" />
		<tag k="ssr:stedsnr" v="553551" />
		<tag k="waterway" v="stream" />
	</node>
	<node id="-531631" lat="61.3252305519" lon="6.03503333302">
		<tag k="name" v="Selsneset" />
		<tag k="natural" v="cape" />
		<tag k="ssr:stedsnr" v="553534" />
	</node>
	<node id="-531630" lat="61.3117416706" lon="5.88294999615">
		<tag k="alt_name" v="Skarsvatnet" />
		<tag k="name" v="Skardvatnet" />
		<tag k="natural" v="water" />
		<tag k="ssr:stedsnr" v="553523" />
	</node>
	<node id="-531629" lat="61.3115555567" lon="6.03010000008">
		<tag k="name" v="Årlielva" />
		<tag k="ssr:stedsnr" v="553516" />
		<tag k="waterway" v="stream" />
	</node>
	<node id="-531623" lat="61.3352611135" lon="5.88786111529">
		<tag k="alt_name" v="Storekjøneset" />
		<tag k="name" v="Storkjøeneset" />
		<tag k="natural" v="cape" />
		<tag k="ssr:stedsnr" v="553468" />
	</node>
	<node id="-531619" lat="61.3660388865" lon="6.02611667028">
		<tag k="name" v="Svartetjørna" />
		<tag k="natural" v="water" />
		<tag k="ssr:stedsnr" v="553441" />
	</node>
	<node id="-531617" lat="61.3863388923" lon="6.12453888271">
		<tag k="alt_name" v="Kvangreelva" />
		<tag k="name" v="Kvanngrødelva" />
		<tag k="ssr:stedsnr" v="553418" />
		<tag k="waterway" v="stream" />
	</node>
	<node id="-531605" lat="61.3210446691" lon="5.60307876484">
		<tag k="alt_name" v="Avkroken, inste" />
		<tag k="name" v="Inste Avkroken" />
		<tag k="natural" v="bay" />
		<tag k="ssr:stedsnr" v="553059" />
	</node>
	<node id="-531570" lat="61.2638222188" lon="5.8295749965">
		<tag k="name" v="Skipet" />
		<tag k="natural" v="cape" />
		<tag k="ssr:stedsnr" v="522699" />
	</node>
	<node id="-531567" lat="61.3315722264" lon="5.95196110994">
		<tag k="name" v="Eldalsneset" />
		<tag k="natural" v="cape" />
		<tag k="ssr:stedsnr" v="522657" />
	</node>
	<node id="-531557" lat="61.3258305522" lon="6.2038833342">
		<tag k="name" v="Storøyna" />
		<tag k="natural" v="cape" />
		<tag k="ssr:stedsnr" v="521871" />
	</node>
	<node id="-531555" lat="61.3743996107" lon="5.75804012773">
		<tag k="name" v="Skitnevika" />
		<tag k="natural" v="bay" />
		<tag k="ssr:stedsnr" v="523489" />
	</node>
	<node id="-531550" lat="61.3745916627" lon="6.25564166041">
		<tag k="name" v="Kjelstadstrand" />
		<tag k="natural" v="beach" />
		<tag k="ssr:stedsnr" v="519498" />
	</node>
	<node id="-531549" lat="61.3701333307" lon="6.2537805626">
		<tag k="name" v="Kjelstadelv" />
		<tag k="ssr:stedsnr" v="519493" />
		<tag k="waterway" v="river" />
	</node>
	<node id="-531547" lat="61.3752499978" lon="6.27732222061">
		<tag k="name" v="Skjepnaheielva" />
		<tag k="ssr:stedsnr" v="519441" />
		<tag k="waterway" v="river" />
	</node>
	<node id="-531546" lat="61.3579472225" lon="6.22147499747">
		<tag k="name" v="Vallestadsvingen" />
		<tag k="natural" v="cape" />
		<tag k="ssr:stedsnr" v="519435" />
	</node>
	<node id="-531543" lat="61.3424638934" lon="6.29539722619">
		<tag k="name" v="Mjellsstranda" />
		<tag k="natural" v="beach" />
		<tag k="ssr:stedsnr" v="519171" />
	</node>
	<node id="-531542" lat="61.3512416666" lon="6.31906943607">
		<tag k="name" v="Stølselva" />
		<tag k="ssr:stedsnr" v="519169" />
		<tag k="waterway" v="river" />
	</node>
	<node id="-531540" lat="61.3466027765" lon="6.11206666852">
		<tag k="name" v="Grandane" />
		<tag k="natural" v="bay" />
		<tag k="ssr:stedsnr" v="519012" />
	</node>
	<node id="-531539" lat="61.3933500026" lon="5.43795000552">
		<tag k="name" v="Storelva" />
		<tag k="ssr:stedsnr" v="494657" />
		<tag k="waterway" v="river" />
	</node>
	<node id="-531530" lat="61.3336500001" lon="6.39818611429">
		<tag k="name" v="Holmevatnet" />
		<tag k="natural" v="water" />
		<tag k="ssr:stedsnr" v="493815" />
		<tag k="water" v="lake" />
	</node>
	<node id="-531523" lat="61.4048774157" lon="5.64633415279">
		<tag k="alt_name" v="Skardavatnet" />
		<tag k="name" v="Skaravatnet" />
		<tag k="natural" v="water" />
		<tag k="ssr:stedsnr" v="493779" />
	</node>
	<node id="-531521" lat="61.4046583289" lon="5.51329999484">
		<tag k="name" v="Gøylefossen" />
		<tag k="natural" v="waterfall" />
		<tag k="ssr:stedsnr" v="493769" />
	</node>
	<node id="-531518" lat="61.3345833374" lon="6.26958610756">
		<tag k="name" v="Flatelva" />
		<tag k="ssr:stedsnr" v="493712" />
		<tag k="waterway" v="stream" />
	</node>
	<node id="-531515" lat="61.2989861115" lon="6.04929999557">
		<tag k="name" v="Strupevatnet" />
		<tag k="natural" v="water" />
		<tag k="ssr:stedsnr" v="493612" />
	</node>
	<node id="-531509" lat="61.3237611066" lon="5.99064443918">
		<tag k="alt_name" v="Kleggen" />
		<tag k="name" v="Pleggen" />
		<tag k="natural" v="cape" />
		<tag k="ssr:stedsnr" v="493541" />
	</node>
	<node id="-531506" lat="61.3071250031" lon="5.87494167089">
		<tag k="name" v="Trolltjørna" />
		<tag k="natural" v="water" />
		<tag k="ssr:stedsnr" v="493522" />
	</node>
	<node id="-531503" lat="61.3385000006" lon="6.01446110783">
		<tag k="name" v="Roskevatnet" />
		<tag k="natural" v="water" />
		<tag k="ssr:stedsnr" v="493489" />
	</node>
	<node id="-531486" lat="61.3512333357" lon="5.75810833278">
		<tag k="name" v="Løyken" />
		<tag k="ssr:stedsnr" v="493062" />
		<tag k="waterway" v="stream" />
	</node>
	<node id="-531479" lat="61.3477060261" lon="5.57778845586">
		<tag k="name" v="Svartetjørna" />
		<tag k="natural" v="water" />
		<tag k="ssr:stedsnr" v="493009" />
	</node>
	<node id="-531473" lat="61.3595416634" lon="5.98406111153">
		<tag k="name" v="Langevatnet" />
		<tag k="natural" v="water" />
		<tag k="ssr:stedsnr" v="492429" />
	</node>
	<node id="-531472" lat="61.3345888873" lon="6.13028054856">
		<tag k="name" v="Hønsetelva" />
		<tag k="ssr:stedsnr" v="493555" />
		<tag k="waterway" v="stream" />
	</node>
	<node id="-531464" lat="61.3933194471" lon="5.47380832471">
		<tag k="name" v="Kusmarvika" />
		<tag k="natural" v="bay" />
		<tag k="ssr:stedsnr" v="463027" />
	</node>
	<node id="-531459" lat="61.3791857259" lon="5.63426500791">
		<tag k="alt_name" v="Njøsenelva;Møsenelva" />
		<tag k="name" v="Kappstadelva" />
		<tag k="ssr:stedsnr" v="462797" />
		<tag k="waterway" v="river" />
	</node>
	<node id="-531450" lat="61.3586888915" lon="6.23705000462">
		<tag k="name" v="Ytre Botnaelva" />
		<tag k="ssr:stedsnr" v="462932" />
		<tag k="waterway" v="stream" />
	</node>
	<node id="-531429" lat="61.3783083329" lon="6.28764999381">
		<tag k="name" v="Lonene" />
		<tag k="natural" v="water" />
		<tag k="ssr:stedsnr" v="458531" />
		<tag k="water" v="lake" />
	</node>
	<node id="-531425" lat="61.3833916666" lon="6.23242500821">
		<tag k="name" v="Solheimselva" />
		<tag k="ssr:stedsnr" v="458401" />
		<tag k="waterway" v="river" />
	</node>
	<node id="-531421" lat="61.3562222217" lon="6.12948611941">
		<tag k="name" v="Soget" />
		<tag k="ssr:stedsnr" v="458006" />
		<tag k="waterway" v="rapids" />
	</node>
	<node id="-531415" lat="61.3169027738" lon="6.26505278746">
		<tag k="name" v="Litlegrova" />
		<tag k="ssr:stedsnr" v="433797" />
		<tag k="waterway" v="stream" />
	</node>
	<node id="-531414" lat="61.3163361094" lon="6.27618055757">
		<tag k="name" v="Rindebotselva" />
		<tag k="ssr:stedsnr" v="433796" />
		<tag k="waterway" v="stream" />
	</node>
	<node id="-531412" lat="61.4034805553" lon="5.73285833403">
		<tag k="name" v="Trollingsvatnet" />
		<tag k="natural" v="water" />
		<tag k="ssr:stedsnr" v="433779" />
	</node>
	<node id="-531407" lat="61.3291000035" lon="6.23171944926">
		<tag k="alt_name" v="Fossgrova" />
		<tag k="name" v="Fossegrova" />
		<tag k="ssr:stedsnr" v="433717" />
		<tag k="waterway" v="stream" />
	</node>
	<node id="-531406" lat="61.3113722253" lon="5.63473334074">
		<tag k="name" v="Litlevatnet" />
		<tag k="natural" v="water" />
		<tag k="ssr:stedsnr" v="433532" />
	</node>
	<node id="-531391" lat="61.3681000033" lon="6.266099991">
		<tag k="name" v="Vindheimsvatnet" />
		<tag k="natural" v="water" />
		<tag k="ssr:stedsnr" v="432699" />
	</node>
	<node id="-531389" lat="61.3352862495" lon="6.29959750345">
		<tag k="name" v="Myravatnet" />
		<tag k="natural" v="water" />
		<tag k="ssr:stedsnr" v="432676" />
		<tag k="water" v="lake" />
	</node>
	<node id="-531388" lat="61.2802965893" lon="6.15145583619">
		<tag k="name" v="Sauebetnene" />
		<tag k="natural" v="water" />
		<tag k="ssr:stedsnr" v="432564" />
		<tag k="water" v="lake" />
	</node>
	<node id="-531383" lat="61.3156388882" lon="5.90874444231">
		<tag k="name" v="Nesåkerelva" />
		<tag k="ssr:stedsnr" v="432501" />
		<tag k="waterway" v="stream" />
	</node>
	<node id="-531380" lat="61.3438749995" lon="6.11308333627">
		<tag k="alt_name" v="Hellebustneset" />
		<tag k="name" v="Helebostneset" />
		<tag k="natural" v="cape" />
		<tag k="ssr:stedsnr" v="432468" />
	</node>
	<node id="-531377" lat="61.333411114" lon="5.97788333707">
		<tag k="name" v="Vågselva" />
		<tag k="ssr:stedsnr" v="432454" />
		<tag k="waterway" v="river" />
	</node>
	<node id="-531370" lat="61.255711109" lon="5.83026944373">
		<tag k="alt_name" v="Drægebøvatn" />
		<tag k="name" v="Dregebøvatnet" />
		<tag k="natural" v="water" />
		<tag k="ssr:stedsnr" v="432197" />
	</node>
	<node id="-531367" lat="61.2750638889" lon="5.8065138809">
		<tag k="name" v="Dyredalsvatnet" />
		<tag k="natural" v="water" />
		<tag k="ssr:stedsnr" v="432176" />
	</node>
	<node id="-531366" lat="61.2706944424" lon="5.79198888215">
		<tag k="name" v="Kringlebotntjørna" />
		<tag k="natural" v="water" />
		<tag k="ssr:stedsnr" v="432177" />
	</node>
	<node id="-531348" lat="61.335803993" lon="5.90097327071">
		<tag k="name" v="Langeneset" />
		<tag k="natural" v="cape" />
		<tag k="ssr:stedsnr" v="251526" />
	</node>
	<node id="-531344" lat="61.3119305534" lon="5.72101667279">
		<tag k="alt_name" v="Tvefosselva" />
		<tag k="name" v="Tvifosselva" />
		<tag k="ssr:stedsnr" v="251141" />
		<tag k="waterway" v="stream" />
	</node>
	<node id="-531342" lat="61.3930999967" lon="5.59479721959">
		<tag k="name" v="Skormafossen" />
		<tag k="natural" v="waterfall" />
		<tag k="ssr:stedsnr" v="250976" />
	</node>
	<node id="-531341" lat="61.3953333327" lon="5.60538333204">
		<tag k="name" v="Selselva" />
		<tag k="ssr:stedsnr" v="250975" />
		<tag k="waterway" v="stream" />
	</node>
	<node id="-531331" lat="61.3708620546" lon="5.83146090429">
		<tag k="alt_name" v="Fagerdalsvatnet" />
		<tag k="name" v="Fagredalsvatnet" />
		<tag k="natural" v="water" />
		<tag k="ssr:stedsnr" v="250888" />
	</node>
	<node id="-531330" lat="61.3645416681" lon="5.59904445032">
		<tag k="alt_name" v="Birkelandselva" />
		<tag k="name" v="Byrkjelandselva" />
		<tag k="ssr:stedsnr" v="250876" />
		<tag k="waterway" v="stream" />
	</node>
	<node id="-531328" lat="61.3686555537" lon="5.69212222609">
		<tag k="name" v="Gaula" />
		<tag k="ssr:stedsnr" v="250866" />
		<tag k="waterway" v="river" />
	</node>
	<node id="-531326" lat="61.3673305584" lon="5.74106944103">
		<tag k="name" v="Åselva" />
		<tag k="ssr:stedsnr" v="250864" />
		<tag k="waterway" v="stream" />
	</node>
	<node id="-531325" lat="61.4010444403" lon="5.48286944464">
		<tag k="name" v="Stølstjørna" />
		<tag k="natural" v="water" />
		<tag k="ssr:stedsnr" v="250791" />
	</node>
	<node id="-531321" lat="61.3951064073" lon="5.49632028693">
		<tag k="alt_name" v="Veslevatnet" />
		<tag k="name" v="Litlevatnet" />
		<tag k="natural" v="water" />
		<tag k="ssr:stedsnr" v="250744" />
	</node>
	<node id="-531317" lat="61.2963250039" lon="5.94467500715">
		<tag k="name" v="Dyttingane" />
		<tag k="natural" v="water" />
		<tag k="ssr:stedsnr" v="250624" />
	</node>
	<node id="-531316" lat="61.2948499982" lon="5.97922500148">
		<tag k="name" v="Rypevatnet" />
		<tag k="natural" v="water" />
		<tag k="ssr:stedsnr" v="250622" />
	</node>
	<node id="-531314" lat="61.2868722209" lon="6.02524721878">
		<tag k="alt_name" v="Jemdalsvatnet, øvre" />
		<tag k="name" v="Øvre Jemdalsvatnet" />
		<tag k="natural" v="water" />
		<tag k="ssr:stedsnr" v="250603" />
		<tag k="water" v="lake" />
	</node>
	<node id="-531310" lat="61.3088166643" lon="6.06147500696">
		<tag k="name" v="Sandaelva" />
		<tag k="ssr:stedsnr" v="250510" />
		<tag k="waterway" v="stream" />
	</node>
	<node id="-531305" lat="61.3373333354" lon="6.10175555142">
		<tag k="alt_name" v="Vareneset" />
		<tag k="name" v="Vardneset" />
		<tag k="natural" v="cape" />
		<tag k="ssr:stedsnr" v="250484" />
	</node>
	<node id="-531303" lat="61.3514777738" lon="6.03690833478">
		<tag k="name" v="Trollebotnsvatnet" />
		<tag k="natural" v="water" />
		<tag k="ssr:stedsnr" v="250466" />
	</node>
	<node id="-531301" lat="61.3675166697" lon="6.20243332448">
		<tag k="name" v="Klimpegrova" />
		<tag k="ssr:stedsnr" v="250441" />
		<tag k="waterway" v="stream" />
	</node>
	<node id="-531299" lat="61.3852638875" lon="6.20487499935">
		<tag k="name" v="Medvatnet" />
		<tag k="natural" v="water" />
		<tag k="ssr:stedsnr" v="250425" />
	</node>
	<node id="-531296" lat="61.267936112" lon="5.83356944016">
		<tag k="alt_name" v="Måseholmen" />
		<tag k="name" v="Holmen" />
		<tag k="place" v="islet" />
		<tag k="ssr:stedsnr" v="250199" />
	</node>
	<node id="-531254" lat="61.2923083351" lon="5.81608889593">
		<tag k="name" v="Åbergselva" />
		<tag k="ssr:stedsnr" v="219750" />
		<tag k="waterway" v="stream" />
	</node>
	<node id="-531253" lat="61.274319441" lon="5.82834167331">
		<tag k="name" v="Grova" />
		<tag k="ssr:stedsnr" v="219727" />
		<tag k="waterway" v="stream" />
	</node>
	<node id="-531252" lat="61.2612138924" lon="5.82062777797">
		<tag k="name" v="Skjefossen" />
		<tag k="natural" v="waterfall" />
		<tag k="ssr:stedsnr" v="219724" />
	</node>
	<node id="-531251" lat="61.3644166633" lon="6.14511667308">
		<tag k="name" v="Hetleelva" />
		<tag k="ssr:stedsnr" v="219693" />
		<tag k="waterway" v="stream" />
	</node>
	<node id="-531237" lat="61.342525003" lon="6.33409166462">
		<tag k="name" v="Langeneset" />
		<tag k="natural" v="cape" />
		<tag k="ssr:stedsnr" v="216132" />
	</node>
	<node id="-531224" lat="61.3268694451" lon="6.35046666716">
		<tag k="alt_name" v="Resbotnelva" />
		<tag k="name" v="Risbotnelva" />
		<tag k="ssr:stedsnr" v="190822" />
		<tag k="waterway" v="stream" />
	</node>
	<node id="-531222" lat="61.3275333315" lon="6.30876388775">
		<tag k="alt_name" v="Skålebotnselva" />
		<tag k="name" v="Skålebotselva" />
		<tag k="ssr:stedsnr" v="190817" />
		<tag k="waterway" v="stream" />
	</node>
	<node id="-531211" lat="61.4048083343" lon="5.48251944733">
		<tag k="name" v="Storelva" />
		<tag k="ssr:stedsnr" v="190547" />
		<tag k="waterway" v="stream" />
	</node>
	<node id="-531207" lat="61.2622722202" lon="5.74838610435">
		<tag k="name" v="Grødtjørna" />
		<tag k="natural" v="water" />
		<tag k="ssr:stedsnr" v="190232" />
	</node>
	<node id="-531206" lat="61.2631972234" lon="5.71410556317">
		<tag k="name" v="Hamrevatnet" />
		<tag k="natural" v="water" />
		<tag k="ssr:stedsnr" v="190230" />
	</node>
	<node id="-531194" lat="61.3618972211" lon="5.7295611027">
		<tag k="name" v="Åmotselva" />
		<tag k="ssr:stedsnr" v="190017" />
		<tag k="waterway" v="stream" />
	</node>
	<node id="-531190" lat="61.3749249988" lon="5.81920832671">
		<tag k="name" v="Saupdøla" />
		<tag k="ssr:stedsnr" v="189893" />
		<tag k="waterway" v="stream" />
	</node>
	<node id="-531187" lat="61.2921749986" lon="6.21876944233">
		<tag k="name" v="Blåvatnet" />
		<tag k="natural" v="water" />
		<tag k="ssr:stedsnr" v="189727" />
	</node>
	<node id="-531182" lat="61.3187416642" lon="6.02669444296">
		<tag k="alt_name" v="Viksvatnet" />
		<tag k="name" v="Viksdalsvatnet" />
		<tag k="natural" v="water" />
		<tag k="ssr:stedsnr" v="189501" />
		<tag k="water" v="lake" />
	</node>
	<node id="-531181" lat="61.3202000035" lon="6.06801110657">
		<tag k="name" v="Storeneselva" />
		<tag k="ssr:stedsnr" v="189498" />
		<tag k="waterway" v="stream" />
	</node>
	<node id="-531180" lat="61.3128305522" lon="5.99610556136">
		<tag k="name" v="Vikaelva" />
		<tag k="ssr:stedsnr" v="189491" />
		<tag k="waterway" v="stream" />
	</node>
	<node id="-531179" lat="61.3262249967" lon="5.97995834065">
		<tag k="name" v="Vågsvatnet" />
		<tag k="natural" v="water" />
		<tag k="ssr:stedsnr" v="189461" />
	</node>
	<node id="-531148" lat="61.246269448" lon="5.82448334203">
		<tag k="name" v="Storefjellselva" />
		<tag k="ssr:stedsnr" v="158687" />
		<tag k="waterway" v="stream" />
	</node>
	<node id="-531136" lat="61.3900194476" lon="5.56067499967">
		<tag k="name" v="Symje" />
		<tag k="natural" v="bay" />
		<tag k="ssr:stedsnr" v="158051" />
	</node>
	<node id="-531127" lat="61.2445750017" lon="5.77503332544">
		<tag k="name" v="Karidalsvatnet" />
		<tag k="natural" v="water" />
		<tag k="ssr:stedsnr" v="130949" />
	</node>
	<node id="-531125" lat="61.3858388893" lon="5.65588889307">
		<tag k="name" v="Kvamselva" />
		<tag k="ssr:stedsnr" v="129946" />
		<tag k="waterway" v="river" />
	</node>
	<node id="-531122" lat="61.3771916711" lon="5.67853888916">
		<tag k="alt_name" v="Loneelv" />
		<tag k="name" v="Lona" />
		<tag k="ssr:stedsnr" v="129917" />
		<tag k="waterway" v="stream" />
	</node>
	<node id="-531115" lat="61.3938361103" lon="5.8427111171">
		<tag k="name" v="Kattatjørna" />
		<tag k="natural" v="water" />
		<tag k="ssr:stedsnr" v="129963" />
	</node>
	<node id="-531113" lat="61.4163722201" lon="5.67315556318">
		<tag k="name" v="Venevatnet" />
		<tag k="natural" v="water" />
		<tag k="ssr:stedsnr" v="129792" />
	</node>
	<node id="-531105" lat="61.389558329" lon="6.31279167325">
		<tag k="name" v="Trolletjønna" />
		<tag k="natural" v="water" />
		<tag k="ssr:stedsnr" v="129756" />
	</node>
	<node id="-531100" lat="61.2942416686" lon="6.0959249917">
		<tag k="name" v="Steinbruvatnet" />
		<tag k="natural" v="water" />
		<tag k="ssr:stedsnr" v="129602" />
		<tag k="water" v="lake" />
	</node>
	<node id="-531096" lat="61.3031055599" lon="6.04756666186">
		<tag k="name" v="Storefjellsvatnet" />
		<tag k="natural" v="water" />
		<tag k="ssr:stedsnr" v="129503" />
	</node>
	<node id="-531095" lat="61.3785000023" lon="6.15348054667">
		<tag k="alt_name" v="Stølselva" />
		<tag k="name" v="Hetlaelva" />
		<tag k="ssr:stedsnr" v="129451" />
		<tag k="waterway" v="river" />
	</node>
	<node id="-531092" lat="61.2785083343" lon="5.83425833674">
		<tag k="name" v="Økslandsvatnet" />
		<tag k="natural" v="water" />
		<tag k="ssr:stedsnr" v="129236" />
		<tag k="water" v="lake" />
	</node>
	<node id="-531091" lat="61.2543055575" lon="5.79910834207">
		<tag k="name" v="Litlebotnvatnet" />
		<tag k="natural" v="water" />
		<tag k="ssr:stedsnr" v="129254" />
	</node>
	<node id="-531089" lat="61.3167777806" lon="5.68970554866">
		<tag k="name" v="Årøyelva" />
		<tag k="ssr:stedsnr" v="129171" />
		<tag k="waterway" v="stream" />
	</node>
	<node id="-531076" lat="61.3399388896" lon="5.63691944488">
		<tag k="name" v="Rånevatnet" />
		<tag k="natural" v="water" />
		<tag k="ssr:stedsnr" v="129062" />
	</node>
	<node id="-531075" lat="61.3413854664" lon="5.57702486379">
		<tag k="alt_name" v="Bjørvikvatnet" />
		<tag k="name" v="Bjørvikevatnet" />
		<tag k="natural" v="water" />
		<tag k="ssr:stedsnr" v="129056" />
	</node>
	<node id="-531072" lat="61.3971861101" lon="5.75255556395">
		<tag k="alt_name" v="Svartetjørne" />
		<tag k="name" v="Svartetjørna" />
		<tag k="natural" v="water" />
		<tag k="ssr:stedsnr" v="128966" />
	</node>
	<node id="-531066" lat="61.3574055583" lon="6.2216222251">
		<tag k="name" v="Vallestadfossen" />
		<tag k="natural" v="waterfall" />
		<tag k="ssr:stedsnr" v="128720" />
	</node>
	<node id="-531062" lat="61.3343636649" lon="5.86956396758">
		<tag k="name" v="Nesavatnet" />
		<tag k="natural" v="water" />
		<tag k="ssr:stedsnr" v="128456" />
		<tag k="water" v="lake" />
	</node>
	<node id="-531061" lat="61.3557999986" lon="6.01133334178">
		<tag k="name" v="Vågsdalsvatnet" />
		<tag k="natural" v="water" />
		<tag k="ssr:stedsnr" v="128440" />
	</node>
	<node id="-531059" lat="61.3365138902" lon="6.15128889456">
		<tag k="alt_name" v="Føllingsvatnet" />
		<tag k="name" v="Fylingsvatnet" />
		<tag k="natural" v="water" />
		<tag k="ssr:stedsnr" v="128540" />
	</node>
	<node id="-531058" lat="61.3173861103" lon="5.89343333707">
		<tag k="name" v="Sagelva" />
		<tag k="ssr:stedsnr" v="128532" />
		<tag k="waterway" v="stream" />
	</node>
	<node id="-531055" lat="61.3376666688" lon="5.81898888575">
		<tag k="name" v="Gryvla" />
		<tag k="ssr:stedsnr" v="128068" />
		<tag k="waterway" v="river" />
	</node>
	<node id="-531030" lat="61.3237224981" lon="6.00277847002">
		<tag k="name" v="Vågsneset" />
		<tag k="natural" v="cape" />
		<tag k="ssr:stedsnr" v="98710" />
	</node>
	<node id="-531012" lat="61.3705527815" lon="6.14576943948">
		<tag k="name" v="Lonene" />
		<tag k="natural" v="water" />
		<tag k="ssr:stedsnr" v="97670" />
		<tag k="water" v="lake" />
	</node>
	<node id="-531011" lat="61.3370111101" lon="6.07160834039">
		<tag k="name" v="Stampeelva" />
		<tag k="ssr:stedsnr" v="97655" />
		<tag k="waterway" v="stream" />
	</node>
	<node id="-531009" lat="61.3232944471" lon="6.20839167117">
		<tag k="name" v="Gjerdeholmen" />
		<tag k="place" v="islet" />
		<tag k="ssr:stedsnr" v="96896" />
	</node>
	<node id="-531007" lat="61.3319980236" lon="6.1601005723">
		<tag k="name" v="Kleivafossen" />
		<tag k="natural" v="waterfall" />
		<tag k="ssr:stedsnr" v="95688" />
	</node>
	<node id="-531002" lat="61.3773719368" lon="5.77699074035">
		<tag k="name" v="Espelandsvatnet" />
		<tag k="natural" v="water" />
		<tag k="ssr:stedsnr" v="69919" />
	</node>
	<node id="-530998" lat="61.4065416708" lon="5.75566944329">
		<tag k="name" v="Gjøsetelva" />
		<tag k="ssr:stedsnr" v="69785" />
		<tag k="waterway" v="stream" />
	</node>
	<node id="-530996" lat="61.3926583291" lon="6.28935555668">
		<tag k="name" v="Svinebotstjønna" />
		<tag k="natural" v="water" />
		<tag k="ssr:stedsnr" v="69764" />
	</node>
	<node id="-530990" lat="61.3420166692" lon="5.67203611971">
		<tag k="name" v="Svartevatnet" />
		<tag k="natural" v="water" />
		<tag k="ssr:stedsnr" v="69039" />
	</node>
	<node id="-530989" lat="61.3384222238" lon="5.77899722015">
		<tag k="alt_name" v="Sandevatn" />
		<tag k="name" v="Sandevatna" />
		<tag k="natural" v="water" />
		<tag k="ssr:stedsnr" v="69033" />
	</node>
	<node id="-530987" lat="61.2669277762" lon="5.86519165968">
		<tag k="name" v="Stølselva" />
		<tag k="ssr:stedsnr" v="69541" />
		<tag k="waterway" v="stream" />
	</node>
	<node id="-530968" lat="61.3009499974" lon="5.87481110298">
		<tag k="name" v="Langetjørna" />
		<tag k="natural" v="water" />
		<tag k="ssr:stedsnr" v="68521" />
	</node>
	<node id="-530965" lat="61.345824996" lon="6.05579444976">
		<tag k="name" v="Kvamselva" />
		<tag k="ssr:stedsnr" v="68506" />
		<tag k="waterway" v="stream" />
	</node>
	<node id="-530962" lat="61.3762749984" lon="5.85412499176">
		<tag k="alt_name" v="Rundetjørn" />
		<tag k="name" v="Rundetjørna" />
		<tag k="natural" v="water" />
		<tag k="ssr:stedsnr" v="68451" />
	</node>
	<node id="-530958" lat="61.2728777803" lon="5.88361665833">
		<tag k="name" v="Åsvatnet" />
		<tag k="natural" v="water" />
		<tag k="old_name" v="Økslandsvatnet" />
		<tag k="ssr:stedsnr" v="68606" />
	</node>
	<node id="-530956" lat="61.2582888856" lon="5.83985833137">
		<tag k="name" v="Økslandselva" />
		<tag k="ssr:stedsnr" v="68225" />
		<tag k="waterway" v="stream" />
	</node>
	<node id="-530952" lat="61.3857583355" lon="5.42444165916">
		<tag k="name" v="Laukelandsfossen" />
		<tag k="natural" v="waterfall" />
		<tag k="ssr:stedsnr" v="68155" />
	</node>
	<node id="-530950" lat="61.3314527746" lon="5.67433610428">
		<tag k="name" v="Knoltravatnet" />
		<tag k="natural" v="water" />
		<tag k="ssr:stedsnr" v="68080" />
	</node>
	<node id="-530949" lat="61.3250484439" lon="5.65153719371">
		<tag k="name" v="Storevatnet" />
		<tag k="natural" v="water" />
		<tag k="ssr:stedsnr" v="68060" />
	</node>
	<node id="-530935" lat="61.3997391068" lon="5.52302404154">
		<tag k="alt_name" v="Kvandalsneset" />
		<tag k="name" v="Kvanndalsneset" />
		<tag k="natural" v="cape" />
		<tag k="ssr:stedsnr" v="38034" />
	</node>
	<node id="-530922" lat="61.3365211387" lon="5.8939815831">
		<tag k="name" v="Geiteneset" />
		<tag k="natural" v="cape" />
		<tag k="ssr:stedsnr" v="37765" />
	</node>
	<node id="-530906" lat="61.3980166682" lon="5.73130000074">
		<tag k="name" v="Nykstangen" />
		<tag k="natural" v="cape" />
		<tag k="ssr:stedsnr" v="37057" />
	</node>
	<node id="-530903" lat="61.3338196354" lon="5.87799997625">
		<tag k="name" v="Eikelandsfossen" />
		<tag k="natural" v="waterfall" />
		<tag k="ssr:stedsnr" v="36765" />
	</node>
	<node id="-530899" lat="61.3230527746" lon="6.22323334282">
		<tag k="name" v="Heggøyra" />
		<tag k="place" v="islet" />
		<tag k="ssr:stedsnr" v="34878" />
	</node>
	<node id="-530898" lat="61.3287555588" lon="6.40456110517">
		<tag k="name" v="Storebotnelva" />
		<tag k="ssr:stedsnr" v="34176" />
		<tag k="waterway" v="river" />
	</node>
	<node id="-530881" lat="61.3963901694" lon="5.53500428267">
		<tag k="name" v="Skitnevika" />
		<tag k="natural" v="bay" />
		<tag k="ssr:stedsnr" v="8794" />
	</node>
	<node id="-530875" lat="61.3978472243" lon="5.46671667438">
		<tag k="alt_name" v="Stadnesvatnet" />
		<tag k="name" v="Standnesvatnet" />
		<tag k="natural" v="water" />
		<tag k="ssr:stedsnr" v="8261" />
	</node>
	<node id="-530868" lat="61.3045694459" lon="5.66416388804">
		<tag k="name" v="Oksevatnet" />
		<tag k="natural" v="water" />
		<tag k="ssr:stedsnr" v="8110" />
	</node>
	<node id="-530864" lat="61.3458472186" lon="5.5767305503">
		<tag k="alt_name" v="Uraelva" />
		<tag k="name" v="Urdaelva" />
		<tag k="ssr:stedsnr" v="8013" />
		<tag k="waterway" v="stream" />
	</node>
	<node id="-530863" lat="61.3486499965" lon="5.59525000211">
		<tag k="name" v="Tverrelva" />
		<tag k="ssr:stedsnr" v="8009" />
		<tag k="waterway" v="stream" />
	</node>
	<node id="-530856" lat="61.367056235" lon="5.68168524594">
		<tag k="name" v="Osfossen" />
		<tag k="natural" v="waterfall" />
		<tag k="ssr:stedsnr" v="7887" />
	</node>
	<node id="-530851" lat="61.320961112" lon="6.14386110742">
		<tag k="name" v="Sagelva" />
		<tag k="ssr:stedsnr" v="7515" />
		<tag k="waterway" v="stream" />
	</node>
	<node id="-530849" lat="61.3424500034" lon="6.1871305566">
		<tag k="name" v="Stølstjørna" />
		<tag k="natural" v="water" />
		<tag k="ssr:stedsnr" v="7481" />
	</node>
	<node id="-530848" lat="61.3399250039" lon="6.12782500011">
		<tag k="alt_name" v="Osen" />
		<tag k="name" v="Eldalsosen" />
		<tag k="natural" v="bay" />
		<tag k="ssr:stedsnr" v="7474" />
	</node>
	<node id="-530847" lat="61.3371805516" lon="5.9070694383">
		<tag k="name" v="Holmevika" />
		<tag k="natural" v="bay" />
		<tag k="ssr:stedsnr" v="7467" />
	</node>
	<node id="-530845" lat="61.3508999979" lon="5.87641111635">
		<tag k="name" v="Fesselva" />
		<tag k="ssr:stedsnr" v="7454" />
		<tag k="waterway" v="stream" />
	</node>
	<node id="-530844" lat="61.3412249968" lon="5.9687305519">
		<tag k="name" v="Livrelva" />
		<tag k="ssr:stedsnr" v="7452" />
		<tag k="waterway" v="stream" />
	</node>
	<node id="-530843" lat="61.3598499968" lon="6.10500556222">
		<tag k="alt_name" v="Haugefossen" />
		<tag k="name" v="Haugafossen" />
		<tag k="natural" v="waterfall" />
		<tag k="ssr:stedsnr" v="7446" />
	</node>
	<node id="-530838" lat="61.3257666679" lon="5.68731666528">
		<tag k="name" v="Stølsvatnet" />
		<tag k="natural" v="water" />
		<tag k="ssr:stedsnr" v="7135" />
	</node>
	<node id="-530837" lat="61.3221555524" lon="5.77004999285">
		<tag k="name" v="Lona" />
		<tag k="place" v="locality" />
		<tag k="ssr:stedsnr" v="7133" />
	</node>
	<node id="-530831" lat="61.3359083305" lon="5.8425638833">
		<tag k="name" v="Fossfossen" />
		<tag k="natural" v="waterfall" />
		<tag k="ssr:stedsnr" v="7079" />
	</node>
	<node id="-530830" lat="61.3566027811" lon="5.66739721671">
		<tag k="alt_name" v="Skykkjeelva" />
		<tag k="name" v="Skytjelva" />
		<tag k="ssr:stedsnr" v="7037" />
		<tag k="waterway" v="stream" />
	</node>
	<node id="-530828" lat="61.3272362674" lon="6.13720580745">
		<tag k="name" v="Snøgjelelva" />
		<tag k="ssr:stedsnr" v="990941" />
		<tag k="waterway" v="stream" />
	</node>
	<node id="-530826" lat="61.3207982934" lon="5.61729094642">
		<tag k="name" v="Trollevatnet" />
		<tag k="natural" v="water" />
		<tag k="ssr:stedsnr" v="371054" />
	</node>
	<node id="-530813" lat="61.3338638853" lon="5.94685555016">
		<tag k="name" v="Øyna" />
		<tag k="natural" v="cape" />
		<tag k="ssr:stedsnr" v="888647" />
	</node>
	<node id="-530812" lat="61.3325416633" lon="5.94069722222">
		<tag k="name" v="Fløne" />
		<tag k="natural" v="shoal" />
		<tag k="place" v="locality" />
		<tag k="ssr:stedsnr" v="888645" />
	</node>
	<node id="-530811" lat="61.4025888859" lon="5.45690000277">
		<tag k="name" v="Løykja" />
		<tag k="ssr:stedsnr" v="888030" />
		<tag k="waterway" v="river" />
	</node>
	<node id="-530799" lat="61.2439412747" lon="5.82713872017">
		<tag k="name" v="Lona" />
		<tag k="natural" v="water" />
		<tag k="ssr:stedsnr" v="887708" />
		<tag k="water" v="lake" />
	</node>
	<node id="-530783" lat="61.3350028737" lon="6.09698093478">
		<tag k="name" v="Storeneset" />
		<tag k="natural" v="cape" />
		<tag k="ssr:stedsnr" v="886649" />
	</node>
	<node id="-530780" lat="61.3351249964" lon="6.40954722003">
		<tag k="name" v="Tverlielva" />
		<tag k="ssr:stedsnr" v="885178" />
		<tag k="waterway" v="river" />
	</node>
	<node id="-530779" lat="61.3384694436" lon="6.13839167301">
		<tag k="name" v="Øyrane" />
		<tag k="natural" v="cape" />
		<tag k="ssr:stedsnr" v="884700" />
	</node>
	<node id="-530775" lat="61.3824944407" lon="6.22435554957">
		<tag k="name" v="Solheimselva" />
		<tag k="ssr:stedsnr" v="883319" />
		<tag k="waterway" v="river" />
	</node>
	<node id="-530749" lat="61.3871972254" lon="5.84234444486">
		<tag k="name" v="Kattatjørn" />
		<tag k="natural" v="water" />
		<tag k="ssr:stedsnr" v="401809" />
	</node>
	<node id="-530748" lat="61.3847722264" lon="5.82928333511">
		<tag k="name" v="Husgrova" />
		<tag k="ssr:stedsnr" v="401806" />
		<tag k="waterway" v="stream" />
	</node>
	<node id="-530744" lat="61.3674583352" lon="6.14460277084">
		<tag k="name" v="Fossbrotet" />
		<tag k="natural" v="waterfall" />
		<tag k="ssr:stedsnr" v="401669" />
	</node>
	<node id="-530735" lat="61.3277250038" lon="6.19412499519">
		<tag k="name" v="Eldalselva" />
		<tag k="ssr:stedsnr" v="399859" />
		<tag k="waterway" v="river" />
	</node>
	<node id="-530731" lat="61.339477451" lon="6.33457092082">
		<tag k="name" v="Sandvika" />
		<tag k="natural" v="bay" />
		<tag k="ssr:stedsnr" v="398177" />
	</node>
	<node id="-530727" lat="61.3636166698" lon="6.1901722152">
		<tag k="name" v="Resgrova" />
		<tag k="ssr:stedsnr" v="397327" />
		<tag k="waterway" v="stream" />
	</node>
	<node id="-530725" lat="61.3771388866" lon="6.22245832787">
		<tag k="alt_name" v="Mossestadelva" />
		<tag k="name" v="Mosstadelva" />
		<tag k="ssr:stedsnr" v="397298" />
		<tag k="waterway" v="river" />
	</node>
	<node id="-530717" lat="61.3090250029" lon="6.31500277591">
		<tag k="name" v="Blådalsvatnet" />
		<tag k="natural" v="water" />
		<tag k="ssr:stedsnr" v="372834" />
	</node>
	<node id="-530713" lat="61.4192722209" lon="5.63679999921">
		<tag k="name" v="Lysaelva" />
		<tag k="ssr:stedsnr" v="372804" />
		<tag k="waterway" v="stream" />
	</node>
	<node id="-530710" lat="61.4160694417" lon="5.81243332663">
		<tag k="name" v="Langelandsvatnet" />
		<tag k="natural" v="water" />
		<tag k="ssr:stedsnr" v="372784" />
		<tag k="water" v="lake" />
	</node>
	<node id="-530705" lat="61.3889194406" lon="6.28430278706">
		<tag k="name" v="Valdresvatnet" />
		<tag k="natural" v="water" />
		<tag k="ssr:stedsnr" v="372754" />
	</node>
	<node id="-530697" lat="61.3038527739" lon="5.71735832604">
		<tag k="name" v="Dyttingane" />
		<tag k="natural" v="water" />
		<tag k="ssr:stedsnr" v="372111" />
	</node>
	<node id="-530696" lat="61.3505416684" lon="5.6825638892">
		<tag k="alt_name" v="Simonløype" />
		<tag k="name" v="Simonløypet" />
		<tag k="ssr:stedsnr" v="372060" />
		<tag k="waterway" v="river" />
	</node>
	<node id="-530690" lat="61.393852774" lon="5.72192778722">
		<tag k="alt_name" v="Mevatnet" />
		<tag k="name" v="Medvatnet" />
		<tag k="natural" v="water" />
		<tag k="ssr:stedsnr" v="371972" />
	</node>
	<node id="-530689" lat="61.3985916668" lon="5.7264527821">
		<tag k="alt_name" v="Nyksvatnet" />
		<tag k="name" v="Nykksvatnet" />
		<tag k="natural" v="water" />
		<tag k="ssr:stedsnr" v="371970" />
	</node>
	<node id="-530681" lat="61.3810694413" lon="6.30011388928">
		<tag k="name" v="Storevatnet" />
		<tag k="natural" v="water" />
		<tag k="ssr:stedsnr" v="371756" />
	</node>
	<node id="-530678" lat="61.3670777746" lon="6.35924722656">
		<tag k="name" v="Storebotnvatna" />
		<tag k="natural" v="water" />
		<tag k="ssr:stedsnr" v="371729" />
	</node>
	<node id="-530677" lat="61.3438138927" lon="6.27658055795">
		<tag k="name" v="Skarvatnet" />
		<tag k="natural" v="water" />
		<tag k="ssr:stedsnr" v="371720" />
	</node>
	<node id="-530676" lat="61.3402053711" lon="6.3421435394">
		<tag k="name" v="Byttevatnet" />
		<tag k="natural" v="water" />
		<tag k="ssr:stedsnr" v="371702" />
		<tag k="water" v="lake" />
	</node>
	<node id="-530673" lat="61.2997833359" lon="6.10643610934">
		<tag k="name" v="Djupegilstjørna" />
		<tag k="natural" v="water" />
		<tag k="ssr:stedsnr" v="371601" />
	</node>
	<node id="-530670" lat="61.3245416635" lon="5.97163332623">
		<tag k="name" v="Livra" />
		<tag k="natural" v="cape" />
		<tag k="ssr:stedsnr" v="371524" />
	</node>
	<node id="-530669" lat="61.323861115" lon="5.97586389229">
		<tag k="name" v="Holtane" />
		<tag k="natural" v="cape" />
		<tag k="ssr:stedsnr" v="371522" />
	</node>
	<node id="-530667" lat="61.3096750038" lon="5.98330833365">
		<tag k="name" v="Synningeelva" />
		<tag k="ssr:stedsnr" v="371509" />
		<tag k="waterway" v="stream" />
	</node>
	<node id="-530666" lat="61.3088666703" lon="5.93224444899">
		<tag k="name" v="Stølsvatnet" />
		<tag k="natural" v="water" />
		<tag k="ssr:stedsnr" v="371507" />
	</node>
	<node id="-530663" lat="61.3075361099" lon="6.17890000396">
		<tag k="name" v="Tverrelva" />
		<tag k="ssr:stedsnr" v="371485" />
		<tag k="waterway" v="stream" />
	</node>
	<node id="-530658" lat="61.3568305555" lon="6.20381945335">
		<tag k="alt_name" v="Råeimsdalselva" />
		<tag k="name" v="Råheimsdalselva" />
		<tag k="ssr:stedsnr" v="371444" />
		<tag k="waterway" v="river" />
	</node>
	<node id="-530653" lat="61.3242249999" lon="5.78438055405">
		<tag k="name" v="Neset" />
		<tag k="natural" v="cape" />
		<tag k="ssr:stedsnr" v="371110" />
	</node>
	<node id="-530652" lat="61.3242194471" lon="5.77823889777">
		<tag k="alt_name" v="Sande - Foss" />
		<tag k="name" v="Sandafossen" />
		<tag k="natural" v="waterfall" />
		<tag k="ssr:stedsnr" v="371108" />
	</node>
	<node id="-530641" lat="61.3935694447" lon="5.68716111149">
		<tag k="name" v="Vassenden" />
		<tag k="natural" v="cape" />
		<tag k="ssr:stedsnr" v="341920" />
	</node>
	<node id="-530638" lat="61.3759590337" lon="5.76244487401">
		<tag k="name" v="Klovika" />
		<tag k="natural" v="bay" />
		<tag k="ssr:stedsnr" v="341458" />
	</node>
	<node id="-530637" lat="61.3758138848" lon="5.77441667561">
		<tag k="name" v="Øyra" />
		<tag k="place" v="islet" />
		<tag k="ssr:stedsnr" v="341454" />
	</node>
	<node id="-530627" lat="61.282969441" lon="5.72319999726">
		<tag k="name" v="Fesselvane" />
		<tag k="ssr:stedsnr" v="340876" />
		<tag k="waterway" v="stream" />
	</node>
	<node id="-530620" lat="61.3274666676" lon="6.09839999232">
		<tag k="name" v="Geitemjølkgrova" />
		<tag k="ssr:stedsnr" v="340647" />
		<tag k="waterway" v="stream" />
	</node>
	<node id="-530609" lat="61.3698555517" lon="6.27774999549">
		<tag k="name" v="Øygroelva" />
		<tag k="ssr:stedsnr" v="337444" />
		<tag k="waterway" v="stream" />
	</node>
	<node id="-530607" lat="61.3907750006" lon="6.23269166893">
		<tag k="name" v="Nesaelva" />
		<tag k="ssr:stedsnr" v="337350" />
		<tag k="waterway" v="stream" />
	</node>
	<node id="-530596" lat="61.3916555565" lon="5.74670278677">
		<tag k="alt_name" v="Stongtjørna" />
		<tag k="name" v="Stangatjørna" />
		<tag k="natural" v="water" />
		<tag k="ssr:stedsnr" v="311964" />
	</node>
	<node id="-530591" lat="61.3743814557" lon="5.76412368466">
		<tag k="loc_name" v="Andetjønna" />
		<tag k="name" v="Andetjørna" />
		<tag k="natural" v="water" />
		<tag k="ssr:stedsnr" v="311900" />
	</node>
	<node id="-530587" lat="61.4073267364" lon="5.52228598212">
		<tag k="name" v="Blåvatnet" />
		<tag k="natural" v="water" />
		<tag k="ssr:stedsnr" v="311821" />
	</node>
	<node id="-530564" lat="61.3612416697" lon="5.99271110381">
		<tag k="name" v="Grisetonnvatnet" />
		<tag k="natural" v="water" />
		<tag k="ssr:stedsnr" v="311502" />
	</node>
	<node id="-530563" lat="61.3575583312" lon="6.13483611637">
		<tag k="name" v="Storeholmen" />
		<tag k="place" v="islet" />
		<tag k="ssr:stedsnr" v="311496" />
	</node>
	<node id="-530560" lat="61.3840833309" lon="6.20941667108">
		<tag k="name" v="Osevatnet" />
		<tag k="natural" v="water" />
		<tag k="ssr:stedsnr" v="311478" />
	</node>
	<node id="-530548" lat="61.334788892" lon="5.74568889668">
		<tag k="alt_name" v="Alværfoss" />
		<tag k="name" v="Alverfossen" />
		<tag k="natural" v="waterfall" />
		<tag k="ssr:stedsnr" v="311098" />
	</node>
	<node id="-530543" lat="61.3400861146" lon="5.60749722369">
		<tag k="name" v="Hellevatnet" />
		<tag k="natural" v="water" />
		<tag k="ssr:stedsnr" v="311054" />
	</node>
	<node id="-530541" lat="61.3537888857" lon="5.71115277558">
		<tag k="alt_name" v="Rekevikfoss" />
		<tag k="name" v="Rekevikfossen" />
		<tag k="natural" v="waterfall" />
		<tag k="ssr:stedsnr" v="311037" />
	</node>
	<node id="-530525" lat="61.3367916654" lon="5.86545555017">
		<tag k="name" v="Skudalsnes" />
		<tag k="natural" v="cape" />
		<tag k="ssr:stedsnr" v="280756" />
	</node>
	<node id="-530510" lat="61.3192388857" lon="5.78216667111">
		<tag k="name" v="Kvernafossen" />
		<tag k="natural" v="waterfall" />
		<tag k="ssr:stedsnr" v="280034" />
	</node>
</osm>
