<?xml version="1.0" encoding="UTF-8"?>
<osm generator="osmapis" version="0.6">
	<node id="-531072" lat="61.3964194432" lon="5.8132444384">
		<tag k="bridge" v="yes" />
		<tag k="layer" v="1" />
		<tag k="name" v="Kleivabakken Undergang" />
		<tag k="ssr:stedsnr" v="653328" />
	</node>
	<node id="-531071" lat="61.3715055592" lon="5.63985832659">
		<tag k="layer" v="-1" />
		<tag k="name" v="Båtevik" />
		<tag k="ssr:stedsnr" v="650362" />
		<tag k="tunnel" v="yes" />
	</node>
	<node id="-530302" lat="61.3437444463" lon="6.34935833905">
		<tag k="bridge" v="yes" />
		<tag k="layer" v="1" />
		<tag k="name" v="Byttevatn Østre" />
		<tag k="ssr:stedsnr" v="107345" />
	</node>
	<node id="-530303" lat="61.3808444434" lon="5.49415277952">
		<tag k="bridge" v="yes" />
		<tag k="layer" v="1" />
		<tag k="name" v="Hestad" />
		<tag k="ssr:stedsnr" v="107354" />
	</node>
	<node id="-530424" lat="61.3177777762" lon="6.03211943585">
		<tag k="bridge" v="yes" />
		<tag k="layer" v="1" />
		<tag k="name" v="Årteig Nedre" />
		<tag k="ssr:stedsnr" v="169336" />
	</node>
	<node id="-530423" lat="61.3183055538" lon="5.99598054963">
		<tag k="bridge" v="yes" />
		<tag k="layer" v="1" />
		<tag k="name" v="Bjørna" />
		<tag k="ssr:stedsnr" v="168351" />
	</node>
	<node id="-530422" lat="61.3394916705" lon="6.13042500008">
		<tag k="bridge" v="yes" />
		<tag k="layer" v="1" />
		<tag k="name" v="Eldalsosen" />
		<tag k="ssr:stedsnr" v="168343" />
	</node>
	<node id="-531442" lat="61.3455833338" lon="6.31875278466">
		<tag k="bridge" v="yes" />
		<tag k="layer" v="1" />
		<tag k="name" v="Mjell Vestre" />
		<tag k="ssr:stedsnr" v="836291" />
	</node>
	<node id="-531441" lat="61.3242916667" lon="6.22874166064">
		<tag k="bridge" v="yes" />
		<tag k="layer" v="1" />
		<tag k="name" v="Lyngstadbotn" />
		<tag k="ssr:stedsnr" v="836289" />
	</node>
	<node id="-530024" lat="61.3215555557" lon="5.78458333135">
		<tag k="bridge" v="yes" />
		<tag k="layer" v="1" />
		<tag k="name" v="Løvfallselva" />
		<tag k="ssr:stedsnr" v="411324" />
	</node>
	<node id="-529902" lat="61.384419442" lon="6.23570833628">
		<tag k="bridge" v="yes" />
		<tag k="layer" v="1" />
		<tag k="name" v="Solheim" />
		<tag k="ssr:stedsnr" v="350301" />
	</node>
	<node id="-529901" lat="61.3669416675" lon="5.68379722738">
		<tag k="bridge" v="yes" />
		<tag k="layer" v="1" />
		<tag k="name" v="Osen" />
		<tag k="ssr:stedsnr" v="350300" />
	</node>
	<node id="-531180" lat="61.3233861101" lon="5.77719722116">
		<tag k="bridge" v="yes" />
		<tag k="layer" v="1" />
		<tag k="name" v="Sandafossbrua" />
		<tag k="ssr:stedsnr" v="724493" />
	</node>
	<node id="-531179" lat="61.3609666661" lon="6.14839166407">
		<tag k="bridge" v="yes" />
		<tag k="layer" v="1" />
		<tag k="name" v="Hetløyane" />
		<tag k="ssr:stedsnr" v="714308" />
	</node>
	<node id="-531178" lat="61.3511861149" lon="6.11728333078">
		<tag k="bridge" v="yes" />
		<tag k="layer" v="1" />
		<tag k="name" v="Hellebust" />
		<tag k="ssr:stedsnr" v="714307" />
	</node>
	<node id="-530025" lat="61.3676722236" lon="5.61661111177">
		<tag k="bridge" v="yes" />
		<tag k="layer" v="1" />
		<tag k="name" v="Helle" />
		<tag k="ssr:stedsnr" v="411328" />
	</node>
	<node id="-531560" lat="61.3007555517" lon="5.84966389089">
		<tag k="alt_name" v="Dalemannveien" />
		<tag k="highway" v="path" />
		<tag k="name" v="Dalemannsvegen" />
		<tag k="ssr:stedsnr" v="918565" />
	</node>
	<node id="-530535" lat="61.3262777809" lon="5.79744721488">
		<tag k="bridge" v="yes" />
		<tag k="layer" v="1" />
		<tag k="name" v="Steien" />
		<tag k="ssr:stedsnr" v="229343" />
	</node>
	<node id="-530534" lat="61.382116663" lon="5.80238054808">
		<tag k="bridge" v="yes" />
		<tag k="layer" v="1" />
		<tag k="name" v="Storehaug Undergang" />
		<tag k="ssr:stedsnr" v="229329" />
	</node>
	<node id="-529756" lat="61.3367305546" lon="5.82062500538">
		<tag k="junction" v="yes" />
		<tag k="name" v="Vegskifte" />
		<tag k="place" v="locality" />
		<tag k="ssr:stedsnr" v="271828" />
	</node>
	<node id="-530724" lat="61.3179666683" lon="6.03375834152">
		<tag k="bridge" v="yes" />
		<tag k="layer" v="1" />
		<tag k="name" v="Årteig Øvre" />
		<tag k="ssr:stedsnr" v="472313" />
	</node>
	<node id="-530305" lat="61.3173500038" lon="6.00074999157">
		<tag k="bridge" v="yes" />
		<tag k="layer" v="1" />
		<tag k="name" v="Rørstadvik" />
		<tag k="ssr:stedsnr" v="108342" />
	</node>
	<node id="-531398" lat="61.3225138924" lon="5.74819166025">
		<tag k="highway" v="path" />
		<tag k="name" v="Kyrkjevad" />
		<tag k="ssr:stedsnr" v="826235" />
	</node>
	<node id="-529793" lat="61.3307888926" lon="5.82181388239">
		<tag k="bridge" v="yes" />
		<tag k="layer" v="1" />
		<tag k="name" v="Grøvlen Øvre" />
		<tag k="ssr:stedsnr" v="289350" />
	</node>
	<node id="-531396" lat="61.343163888" lon="5.78625555229">
		<tag k="highway" v="path" />
		<tag k="name" v="Kviteblekveien" />
		<tag k="ssr:stedsnr" v="826024" />
	</node>
	<node id="-529859" lat="61.3371500018" lon="6.28048888985">
		<tag k="highway" v="path" />
		<tag k="name" v="Jotestien" />
		<tag k="ssr:stedsnr" v="337170" />
	</node>
	<node id="-530023" lat="61.3366555597" lon="6.41031388686">
		<tag k="bridge" v="yes" />
		<tag k="layer" v="1" />
		<tag k="name" v="Tverrlielv" />
		<tag k="ssr:stedsnr" v="411317" />
	</node>
	<node id="-531641" lat="61.3384305542" lon="5.72784166972">
		<tag k="bridge" v="yes" />
		<tag k="layer" v="1" />
		<tag k="name" v="Søgnen" />
		<tag k="ssr:stedsnr" v="958343" />
	</node>
	<node id="-531640" lat="61.3809555524" lon="5.67355834217">
		<tag k="bridge" v="yes" />
		<tag k="layer" v="1" />
		<tag k="name" v="Yndestad" />
		<tag k="ssr:stedsnr" v="958338" />
	</node>
	<node id="-531639" lat="61.385036112" lon="5.74985000448">
		<tag k="bridge" v="yes" />
		<tag k="layer" v="1" />
		<tag k="name" v="Bringeland Lille" />
		<tag k="ssr:stedsnr" v="957348" />
	</node>
	<node id="-530304" lat="61.3215472218" lon="5.9651611194">
		<tag k="bridge" v="yes" />
		<tag k="layer" v="1" />
		<tag k="name" v="Strand Øvre" />
		<tag k="ssr:stedsnr" v="108332" />
	</node>
	<node id="-531638" lat="61.3981500001" lon="5.69098333042">
		<tag k="highway" v="path" />
		<tag k="name" v="Heistien" />
		<tag k="ssr:stedsnr" v="949901" />
	</node>
	<node id="-530611" lat="61.2727444434" lon="5.8267027857">
		<tag k="layer" v="-1" />
		<tag k="name" v="Økslandstunnelen" />
		<tag k="ssr:stedsnr" v="423907" />
		<tag k="tunnel" v="yes" />
	</node>
	<node id="-531634" lat="61.4004138901" lon="5.69936111968">
		<tag k="highway" v="path" />
		<tag k="name" v="Moldstien" />
		<tag k="ssr:stedsnr" v="948968" />
	</node>
	<node id="-530610" lat="61.380333333" lon="5.52311389122">
		<tag k="layer" v="-1" />
		<tag k="name" v="Skoratunnelen" />
		<tag k="ssr:stedsnr" v="421015" />
		<tag k="tunnel" v="yes" />
	</node>
	<node id="-529792" lat="61.3382527823" lon="6.14539444441">
		<tag k="bridge" v="yes" />
		<tag k="layer" v="1" />
		<tag k="name" v="Følling" />
		<tag k="ssr:stedsnr" v="289349" />
	</node>
	<node id="-530725" lat="61.3857111136" lon="5.80987499692">
		<tag k="bridge" v="yes" />
		<tag k="layer" v="1" />
		<tag k="name" v="Skilbrei Undergang" />
		<tag k="ssr:stedsnr" v="472319" />
	</node>
	<node id="-530852" lat="61.3849277807" lon="5.73932499402">
		<tag k="bridge" v="yes" />
		<tag k="layer" v="1" />
		<tag k="name" v="Hjelmeland" />
		<tag k="ssr:stedsnr" v="532330" />
	</node>
	<node id="-530969" lat="61.3733055557" lon="5.79155832632">
		<tag k="bridge" v="yes" />
		<tag k="layer" v="1" />
		<tag k="name" v="Espeland" />
		<tag k="ssr:stedsnr" v="592368" />
	</node>
	<node id="-530588" lat="61.3920416695" lon="5.76361944595">
		<tag k="aeroway" v="aerodrome" />
		<tag k="alt_name" v="Bringeland" />
		<tag k="name" v="Førde lufthamn, Bringeland" />
		<tag k="old_name" v="Førde lufthamn" />
		<tag k="ssr:stedsnr" v="250927" />
	</node>
	<node id="-530074" lat="61.3226750015" lon="5.91620000661">
		<tag k="bridge" v="yes" />
		<tag k="layer" v="1" />
		<tag k="name" v="Nedrestrand" />
		<tag k="ssr:stedsnr" v="897326" />
	</node>
	<node id="-530970" lat="61.3662666669" lon="5.60019167047">
		<tag k="bridge" v="yes" />
		<tag k="layer" v="1" />
		<tag k="name" v="Byrkjeland" />
		<tag k="ssr:stedsnr" v="592394" />
	</node>
	<node id="-530073" lat="61.3993166655" lon="5.81332777064">
		<tag k="bridge" v="yes" />
		<tag k="layer" v="1" />
		<tag k="name" v="Langeland" />
		<tag k="ssr:stedsnr" v="896352" />
	</node>
	<node id="-530968" lat="61.3337194452" lon="5.86016111626">
		<tag k="bridge" v="yes" />
		<tag k="layer" v="1" />
		<tag k="name" v="Eikeland" />
		<tag k="ssr:stedsnr" v="592364" />
	</node>
	<node id="-530967" lat="61.3352249988" lon="6.36751944357">
		<tag k="bridge" v="yes" />
		<tag k="layer" v="1" />
		<tag k="name" v="Langestølen" />
		<tag k="ssr:stedsnr" v="592352" />
	</node>
	<node id="-530197" lat="61.3859222238" lon="5.76438332464">
		<tag k="bridge" v="yes" />
		<tag k="layer" v="1" />
		<tag k="name" v="Bringeland" />
		<tag k="ssr:stedsnr" v="47357" />
	</node>
	<node id="-530196" lat="61.3443333334" lon="6.34782223097">
		<tag k="bridge" v="yes" />
		<tag k="layer" v="1" />
		<tag k="name" v="Byttevatn Vestre" />
		<tag k="ssr:stedsnr" v="47356" />
	</node>
	<node id="-530195" lat="61.379849997" lon="5.53569167223">
		<tag k="bridge" v="yes" />
		<tag k="layer" v="1" />
		<tag k="name" v="Sunde" />
		<tag k="ssr:stedsnr" v="47336" />
	</node>
	<node id="-530307" lat="61.3561389037" lon="5.7772633211">
		<tag k="layer" v="-1" />
		<tag k="name" v="Myrmelstunnelen" />
		<tag k="old_name" v="Myrmeltunnelen" />
		<tag k="ssr:stedsnr" v="121029" />
		<tag k="tunnel" v="yes" />
	</node>
	<node id="-529794" lat="61.3541722256" lon="6.12064722688">
		<tag k="bridge" v="yes" />
		<tag k="layer" v="1" />
		<tag k="name" v="Ørnehaug" />
		<tag k="ssr:stedsnr" v="290312" />
	</node>
	<node id="-531077" lat="61.381825002" lon="5.4749777862">
		<tag k="bridge" v="yes" />
		<tag k="layer" v="1" />
		<tag k="name" v="Standnes" />
		<tag k="ssr:stedsnr" v="654350" />
	</node>
	<node id="-531076" lat="61.3456722262" lon="6.32126667414">
		<tag k="bridge" v="yes" />
		<tag k="layer" v="1" />
		<tag k="name" v="Mjell Østre" />
		<tag k="ssr:stedsnr" v="654344" />
	</node>
	<node id="-531075" lat="61.3381249957" lon="6.14027499601">
		<tag k="bridge" v="yes" />
		<tag k="layer" v="1" />
		<tag k="name" v="Hønsi" />
		<tag k="ssr:stedsnr" v="653344" />
	</node>
	<node id="-531074" lat="61.3837222232" lon="5.7398166676">
		<tag k="bridge" v="yes" />
		<tag k="layer" v="1" />
		<tag k="name" v="Hjelmeland" />
		<tag k="ssr:stedsnr" v="653343" />
	</node>
	<node id="-531073" lat="61.3342722192" lon="5.86043334163">
		<tag k="bridge" v="yes" />
		<tag k="layer" v="1" />
		<tag k="name" v="Fossevik" />
		<tag k="ssr:stedsnr" v="653339" />
	</node>
</osm>
