<?xml version="1.0" encoding="UTF-8"?>
<osm version="0.6" generator="osmapis">
	<node id="5823036818" lat="62.6938407" lon="7.9729976" version="2" timestamp="2022-01-26T07:34:57Z" changeset="116611763" uid="3497659" user="NKA">
		<tag k="junction" v="yes" />
		<tag k="name" v="Dilen" />
		<tag k="ssr:stedsnr" v="643044" />
	</node>
	<node id="5823042202" lat="62.7204306" lon="7.932311" version="2" timestamp="2022-01-26T07:34:57Z" changeset="116611763" uid="3497659" user="NKA">
		<tag k="junction" v="yes" />
		<tag k="name" v="Korsvegen" />
		<tag k="ssr:stedsnr" v="341968" />
	</node>
	<node id="1932923100" lat="62.7513184" lon="7.287338" version="2" timestamp="2013-10-05T11:40:37Z" changeset="18193935" uid="1756270" user="Hvaldemar" />
	<node id="1932923103" lat="62.7514098" lon="7.2872875" version="2" timestamp="2013-10-05T11:40:37Z" changeset="18193935" uid="1756270" user="Hvaldemar" />
	<way id="182936916" version="5" timestamp="2019-12-25T09:35:15Z" changeset="78841934" uid="1756270" user="Hvaldemar">
		<tag k="bicycle" v="designated" />
		<tag k="foot" v="designated" />
		<tag k="highway" v="cycleway" />
		<tag k="layer" v="-1" />
		<tag k="name" v="RÃ¸bekkundergangen" />
		<tag k="ssr:stedsnr" v="817323" />
		<tag k="surface" v="paved" />
		<tag k="tunnel" v="yes" />
		<nd ref="1932923103" />
		<nd ref="1932923100" />
	</way>
</osm>
