<?xml version="1.0" encoding="UTF-8"?>
<osm generator="osmapis" version="0.6">
	<node id="-474727" lat="60.3613147497" lon="5.10483939581">
		<tag k="name" v="Nordre Bildøyna" />
		<tag k="ssr:date" v="2019-05-31" />
		<tag k="ssr:gruppe" v="veg" />
		<tag k="ssr:hovedgruppe" v="infrastruktur" />
		<tag k="ssr:stedsnr" v="987400" />
		<tag k="ssr:type" v="adressenavn" />
	</node>
	<node id="-474751" lat="60.3594755222" lon="4.92379174789">
		<tag k="name" v="Tjørnøyhaugen varde" />
		<tag k="ssr:date" v="2019-05-15" />
		<tag k="ssr:gruppe" v="navigasjon" />
		<tag k="ssr:hovedgruppe" v="infrastruktur" />
		<tag k="ssr:stedsnr" v="991236" />
		<tag k="ssr:type" v="sjøvarde" />
	</node>
	<node id="-475639" lat="60.4345388928" lon="5.01754444674">
		<tag k="alt_name" v="Kalvanes" />
		<tag k="name" v="Kalvanes lykt" />
		<tag k="ssr:date" v="2016-05-10" />
		<tag k="ssr:gruppe" v="navigasjon" />
		<tag k="ssr:hovedgruppe" v="infrastruktur" />
		<tag k="ssr:stedsnr" v="571878" />
		<tag k="ssr:type" v="fyrlykt" />
	</node>
	<node id="-474737" lat="60.3544314123" lon="5.12121084411">
		<tag k="name" v="Utfallvegen" />
		<tag k="ssr:date" v="2019-05-31" />
		<tag k="ssr:gruppe" v="veg" />
		<tag k="ssr:hovedgruppe" v="infrastruktur" />
		<tag k="ssr:stedsnr" v="989304" />
		<tag k="ssr:type" v="adressenavn" />
	</node>
	<node id="-474735" lat="60.3120201878" lon="4.95556490471">
		<tag k="name" v="Narøyna" />
		<tag k="ssr:date" v="2019-05-31" />
		<tag k="ssr:gruppe" v="veg" />
		<tag k="ssr:hovedgruppe" v="infrastruktur" />
		<tag k="ssr:stedsnr" v="987409" />
		<tag k="ssr:type" v="adressenavn" />
	</node>
	<node id="-474734" lat="60.3075155809" lon="4.93553863323">
		<tag k="name" v="Hissøyna" />
		<tag k="ssr:date" v="2019-05-31" />
		<tag k="ssr:gruppe" v="veg" />
		<tag k="ssr:hovedgruppe" v="infrastruktur" />
		<tag k="ssr:stedsnr" v="987408" />
		<tag k="ssr:type" v="adressenavn" />
	</node>
	<node id="-474733" lat="60.3706889568" lon="4.94460004152">
		<tag k="name" v="Dyrøyna" />
		<tag k="ssr:date" v="2019-05-31" />
		<tag k="ssr:gruppe" v="veg" />
		<tag k="ssr:hovedgruppe" v="infrastruktur" />
		<tag k="ssr:stedsnr" v="987407" />
		<tag k="ssr:type" v="adressenavn" />
	</node>
	<node id="-474732" lat="60.389817654" lon="5.07480239889">
		<tag k="name" v="Søre Geitanger" />
		<tag k="ssr:date" v="2019-05-31" />
		<tag k="ssr:gruppe" v="veg" />
		<tag k="ssr:hovedgruppe" v="infrastruktur" />
		<tag k="ssr:stedsnr" v="987405" />
		<tag k="ssr:type" v="adressenavn" />
	</node>
	<node id="-476011" lat="60.3626694471" lon="5.12197222543">
		<tag k="alt_name" v="Fjell" />
		<tag k="name" v="Fjell kommune" />
		<tag k="ssr:date" v="2019-03-20" />
		<tag k="ssr:gruppe" v="administrativeIndelinger" />
		<tag k="ssr:hovedgruppe" v="offentligAdministrasjon" />
		<tag k="ssr:stedsnr" v="755932" />
		<tag k="ssr:type" v="kommune" />
	</node>
	<node id="-474730" lat="60.3997794965" lon="5.07089393795">
		<tag k="name" v="Nordre Geitanger" />
		<tag k="ssr:date" v="2019-05-31" />
		<tag k="ssr:gruppe" v="veg" />
		<tag k="ssr:hovedgruppe" v="infrastruktur" />
		<tag k="ssr:stedsnr" v="987403" />
		<tag k="ssr:type" v="adressenavn" />
	</node>
	<node id="-474729" lat="60.3948489523" lon="5.07744769467">
		<tag k="name" v="Austre Geitanger" />
		<tag k="ssr:date" v="2019-05-31" />
		<tag k="ssr:gruppe" v="veg" />
		<tag k="ssr:hovedgruppe" v="infrastruktur" />
		<tag k="ssr:stedsnr" v="987402" />
		<tag k="ssr:type" v="adressenavn" />
	</node>
	<node id="-474728" lat="60.3836431795" lon="5.10142506822">
		<tag k="name" v="Nordre Foldnesvågen" />
		<tag k="ssr:date" v="2019-05-31" />
		<tag k="ssr:gruppe" v="veg" />
		<tag k="ssr:hovedgruppe" v="infrastruktur" />
		<tag k="ssr:stedsnr" v="987401" />
		<tag k="ssr:type" v="adressenavn" />
	</node>
	<node id="-476391" lat="60.8816104596" lon="6.30047518531">
		<tag k="name" v="Vestlandet" />
		<tag k="ssr:date" v="2019-01-06" />
		<tag k="ssr:gruppe" v="administrativeIndelinger" />
		<tag k="ssr:hovedgruppe" v="offentligAdministrasjon" />
		<tag k="ssr:stedsnr" v="974777" />
		<tag k="ssr:type" v="annenAdministrativInndeling" />
	</node>
	<node id="-474726" lat="60.3332181913" lon="5.18550630253">
		<tag k="name" v="Fløsteinen" />
		<tag k="ssr:date" v="2019-05-31" />
		<tag k="ssr:gruppe" v="veg" />
		<tag k="ssr:hovedgruppe" v="infrastruktur" />
		<tag k="ssr:stedsnr" v="987399" />
		<tag k="ssr:type" v="adressenavn" />
	</node>
	<node id="-474725" lat="60.3030671762" lon="5.17793976343">
		<tag k="name" v="Glåmsneset" />
		<tag k="ssr:date" v="2019-05-31" />
		<tag k="ssr:gruppe" v="veg" />
		<tag k="ssr:hovedgruppe" v="infrastruktur" />
		<tag k="ssr:stedsnr" v="987398" />
		<tag k="ssr:type" v="adressenavn" />
	</node>
	<node id="-474724" lat="60.3941800287" lon="5.13967440798">
		<tag k="name" v="Saltskohavnen" />
		<tag k="ssr:date" v="2019-05-31" />
		<tag k="ssr:gruppe" v="veg" />
		<tag k="ssr:hovedgruppe" v="infrastruktur" />
		<tag k="ssr:stedsnr" v="987397" />
		<tag k="ssr:type" v="adressenavn" />
	</node>
	<node id="-475490" lat="60.3544999993" lon="4.96657500324">
		<tag k="name" v="Storhaugbakken" />
		<tag k="ssr:date" v="2019-05-31" />
		<tag k="ssr:gruppe" v="veg" />
		<tag k="ssr:hovedgruppe" v="infrastruktur" />
		<tag k="ssr:stedsnr" v="525577" />
		<tag k="ssr:type" v="adressenavn" />
	</node>
	<node id="-475359" lat="60.4023027812" lon="4.95125556341">
		<tag k="name" v="Vestra Buarøyna" />
		<tag k="ssr:date" v="2016-05-10" />
		<tag k="ssr:gruppe" v="navigasjon" />
		<tag k="ssr:hovedgruppe" v="infrastruktur" />
		<tag k="ssr:stedsnr" v="449833" />
		<tag k="ssr:type" v="fyrlykt" />
	</node>
	<node id="-475856" lat="60.3341194427" lon="4.98728054774">
		<tag k="alt_name" v="Bleikskjeri" />
		<tag k="name" v="Bleikskjeri lykt" />
		<tag k="old_name" v="Bleikskjera" />
		<tag k="ssr:date" v="2016-05-10" />
		<tag k="ssr:gruppe" v="navigasjon" />
		<tag k="ssr:hovedgruppe" v="infrastruktur" />
		<tag k="ssr:stedsnr" v="673291" />
		<tag k="ssr:type" v="fyrlykt" />
	</node>
	<node id="-475598" lat="60.4035250017" lon="4.93209167104">
		<tag k="name" v="Havrøyna" />
		<tag k="ssr:date" v="2016-05-10" />
		<tag k="ssr:gruppe" v="navigasjon" />
		<tag k="ssr:hovedgruppe" v="infrastruktur" />
		<tag k="ssr:stedsnr" v="551333" />
		<tag k="ssr:type" v="fyrlykt" />
	</node>
	<node id="-476101" lat="60.3084963553" lon="4.92729721936">
		<tag k="name" v="Hissøyna lykt" />
		<tag k="ssr:date" v="2017-10-27" />
		<tag k="ssr:gruppe" v="navigasjon" />
		<tag k="ssr:hovedgruppe" v="infrastruktur" />
		<tag k="ssr:stedsnr" v="794265" />
		<tag k="ssr:type" v="fyrlykt" />
	</node>
	<node id="-476211" lat="60.4341916628" lon="4.9066999951">
		<tag k="name" v="Litla-Turøyna" />
		<tag k="ssr:date" v="2016-05-11" />
		<tag k="ssr:gruppe" v="navigasjon" />
		<tag k="ssr:hovedgruppe" v="infrastruktur" />
		<tag k="ssr:stedsnr" v="855155" />
		<tag k="ssr:type" v="fyrlykt" />
	</node>
	<node id="-475313" lat="60.3366527752" lon="5.18274722063">
		<tag k="alt_name" v="Revskolten" />
		<tag k="name" v="Revskolten lykt" />
		<tag k="old_name" v="Revaskolten" />
		<tag k="ssr:date" v="2016-05-10" />
		<tag k="ssr:gruppe" v="navigasjon" />
		<tag k="ssr:hovedgruppe" v="infrastruktur" />
		<tag k="ssr:stedsnr" v="267137" />
		<tag k="ssr:type" v="fyrlykt" />
	</node>
	<node id="-474797" lat="60.4059472202" lon="5.09808055516">
		<tag k="name" v="Midtholmen" />
		<tag k="ssr:date" v="2016-05-10" />
		<tag k="ssr:gruppe" v="navigasjon" />
		<tag k="ssr:hovedgruppe" v="infrastruktur" />
		<tag k="ssr:stedsnr" v="25876" />
		<tag k="ssr:type" v="fyrlykt" />
	</node>
	<node id="-474409" lat="60.3547888858" lon="4.96749999368">
		<tag k="name" v="Storhaugmarka" />
		<tag k="ssr:date" v="2019-05-31" />
		<tag k="ssr:gruppe" v="veg" />
		<tag k="ssr:hovedgruppe" v="infrastruktur" />
		<tag k="ssr:stedsnr" v="343594" />
		<tag k="ssr:type" v="adressenavn" />
	</node>
	<node id="-475973" lat="60.360573464" lon="4.91515408665">
		<tag k="name" v="Tjørnøyna" />
		<tag k="ssr:date" v="2019-05-15" />
		<tag k="ssr:gruppe" v="navigasjon" />
		<tag k="ssr:hovedgruppe" v="infrastruktur" />
		<tag k="ssr:stedsnr" v="733337" />
		<tag k="ssr:type" v="fyrlykt" />
	</node>
	<node id="-475629" lat="60.3362419245" lon="5.16957700447">
		<tag k="alt_name" v="Vonflua" />
		<tag k="name" v="Vonflua lykt" />
		<tag k="ssr:date" v="2019-04-29" />
		<tag k="ssr:gruppe" v="navigasjon" />
		<tag k="ssr:hovedgruppe" v="infrastruktur" />
		<tag k="ssr:stedsnr" v="570146" />
		<tag k="ssr:type" v="fyrlykt" />
	</node>
	<node id="-474763" lat="60.4517693011" lon="4.97303181847">
		<tag k="alt_name" v="Misjeholmane" />
		<tag k="name" v="Misjeholmane lykt" />
		<tag k="ssr:date" v="2019-06-26" />
		<tag k="ssr:gruppe" v="navigasjon" />
		<tag k="ssr:hovedgruppe" v="infrastruktur" />
		<tag k="ssr:stedsnr" v="5142" />
		<tag k="ssr:type" v="fyrlykt" />
	</node>
	<node id="-474761" lat="60.335236108" lon="5.12022777767">
		<tag k="name" v="Varen" />
		<tag k="ssr:date" v="2019-05-30" />
		<tag k="ssr:gruppe" v="veg" />
		<tag k="ssr:hovedgruppe" v="infrastruktur" />
		<tag k="ssr:stedsnr" v="413985" />
		<tag k="ssr:type" v="adressenavn" />
	</node>
	<node id="-474731" lat="60.3935563612" lon="5.0723352506">
		<tag k="name" v="Vestre Geitanger" />
		<tag k="ssr:date" v="2019-05-31" />
		<tag k="ssr:gruppe" v="veg" />
		<tag k="ssr:hovedgruppe" v="infrastruktur" />
		<tag k="ssr:stedsnr" v="987404" />
		<tag k="ssr:type" v="adressenavn" />
	</node>
</osm>
