<?xml version="1.0" encoding="UTF-8"?>
<osm generator="osmapis" version="0.6">
	<node id="-513083" lat="61.1823561216" lon="6.85635878392">
		<tag k="fixme" v="consider place=hamlet" />
		<tag k="name" v="Bakken" />
		<tag k="place" v="farm" />
		<tag k="ssr:date" v="2017-10-27" />
		<tag k="ssr:gruppe" v="gardsbebyggelse" />
		<tag k="ssr:hovedgruppe" v="bebyggelse" />
		<tag k="ssr:stedsnr" v="979578" />
		<tag k="ssr:type" v="gard" />
	</node>
	<node id="-513081" lat="61.1849748937" lon="6.81925023003">
		<tag k="fixme" v="consider place=hamlet" />
		<tag k="name" v="Leikanger prestegard" />
		<tag k="place" v="farm" />
		<tag k="ssr:date" v="2017-10-27" />
		<tag k="ssr:gruppe" v="gardsbebyggelse" />
		<tag k="ssr:hovedgruppe" v="bebyggelse" />
		<tag k="ssr:stedsnr" v="979574" />
		<tag k="ssr:type" v="gard" />
	</node>
	<node id="-513079" lat="61.2098138889" lon="6.75648055224">
		<tag k="name" v="Lægdene" />
		<tag k="natural" v="valley" />
		<tag k="place" v="locality" />
		<tag k="ssr:date" v="2016-05-11" />
		<tag k="ssr:gruppe" v="senkninger" />
		<tag k="ssr:hovedgruppe" v="terreng" />
		<tag k="ssr:stedsnr" v="969987" />
		<tag k="ssr:type" v="dal" />
	</node>
	<node id="-513078" lat="61.2267361113" lon="6.58516111579">
		<tag k="name" v="Tenninganeset" />
		<tag k="natural" v="cape" />
		<tag k="ssr:date" v="2016-05-11" />
		<tag k="ssr:gruppe" v="kystkontur" />
		<tag k="ssr:hovedgruppe" v="sjø" />
		<tag k="ssr:stedsnr" v="965146" />
		<tag k="ssr:type" v="nesISjø" />
	</node>
	<node id="-513077" lat="61.1869555523" lon="6.7647999954">
		<tag k="bridge" v="yes" />
		<tag k="layer" v="1" />
		<tag k="name" v="Fosse" />
		<tag k="ssr:date" v="2016-05-11" />
		<tag k="ssr:gruppe" v="samferdselsanlegg" />
		<tag k="ssr:hovedgruppe" v="infrastruktur" />
		<tag k="ssr:stedsnr" v="956501" />
		<tag k="ssr:type" v="bru" />
	</node>
	<node id="-513076" lat="61.2150916707" lon="6.61348056354">
		<tag k="name" v="Flatane" />
		<tag k="place" v="locality" />
		<tag k="ssr:date" v="2016-05-11" />
		<tag k="ssr:gruppe" v="flater" />
		<tag k="ssr:hovedgruppe" v="terreng" />
		<tag k="ssr:stedsnr" v="944611" />
		<tag k="ssr:type" v="slette" />
	</node>
	<node id="-513075" lat="61.2165416658" lon="6.74658055642">
		<tag k="name" v="Lægdene" />
		<tag k="natural" v="valley" />
		<tag k="place" v="locality" />
		<tag k="ssr:date" v="2016-05-11" />
		<tag k="ssr:gruppe" v="senkninger" />
		<tag k="ssr:hovedgruppe" v="terreng" />
		<tag k="ssr:stedsnr" v="944512" />
		<tag k="ssr:type" v="dal" />
	</node>
	<node id="-513074" lat="61.2164361081" lon="6.73219166791">
		<tag k="name" v="Kleivholi" />
		<tag k="natural" v="gorge" />
		<tag k="ssr:date" v="2016-05-11" />
		<tag k="ssr:gruppe" v="senkninger" />
		<tag k="ssr:hovedgruppe" v="terreng" />
		<tag k="ssr:stedsnr" v="944497" />
		<tag k="ssr:type" v="juv" />
	</node>
	<node id="-513073" lat="61.2020722189" lon="6.76644445226">
		<tag k="name" v="Langemyr" />
		<tag k="natural" v="wetland" />
		<tag k="ssr:date" v="2016-05-11" />
		<tag k="ssr:gruppe" v="våtmark" />
		<tag k="ssr:hovedgruppe" v="markslag" />
		<tag k="ssr:stedsnr" v="944823" />
		<tag k="ssr:type" v="myr" />
	</node>
	<node id="-513072" lat="61.1911027817" lon="6.7732555615">
		<tag k="name" v="Koldammen" />
		<tag k="place" v="locality" />
		<tag k="ssr:date" v="2016-05-11" />
		<tag k="ssr:gruppe" v="flater" />
		<tag k="ssr:hovedgruppe" v="terreng" />
		<tag k="ssr:stedsnr" v="944821" />
		<tag k="ssr:type" v="slette" />
	</node>
	<node id="-513071" lat="61.1943666701" lon="6.73930554672">
		<tag k="fixme" v="consider highway=path" />
		<tag k="highway" v="track" />
		<tag k="name" v="Dalavegen" />
		<tag k="ssr:date" v="2016-05-11" />
		<tag k="ssr:gruppe" v="veg" />
		<tag k="ssr:hovedgruppe" v="infrastruktur" />
		<tag k="ssr:stedsnr" v="944115" />
		<tag k="ssr:type" v="traktorveg" />
	</node>
	<node id="-513070" lat="61.2924166623" lon="6.71963332541">
		<tag k="fixme" v="multiple name tags, choose one and add the other to alt_name" />
		<tag k="historic" v="shieling" />
		<tag k="name" v="Nedre Rommedal;Nedstedalen" />
		<tag k="place" v="locality" />
		<tag k="ssr:date" v="2016-05-11" />
		<tag k="ssr:gruppe" v="gardsbebyggelse" />
		<tag k="ssr:hovedgruppe" v="bebyggelse" />
		<tag k="ssr:stedsnr" v="931757" />
		<tag k="ssr:type" v="seterStøl" />
	</node>
	<node id="-513069" lat="61.2325916649" lon="6.84867222021">
		<tag k="name" v="Fivelhola" />
		<tag k="place" v="locality" />
		<tag k="ssr:date" v="2016-05-11" />
		<tag k="ssr:gruppe" v="gardsbebyggelse" />
		<tag k="ssr:hovedgruppe" v="bebyggelse" />
		<tag k="ssr:stedsnr" v="920965" />
		<tag k="ssr:type" v="eiendom" />
	</node>
	<node id="-513068" lat="61.2111694474" lon="6.64240276908">
		<tag k="fixme" v="consider natural=peak for the most distinct mountains in the district" />
		<tag k="name" v="Nesafjellet" />
		<tag k="natural" v="hill" />
		<tag k="place" v="locality" />
		<tag k="ssr:date" v="2016-05-11" />
		<tag k="ssr:gruppe" v="høyder" />
		<tag k="ssr:hovedgruppe" v="terreng" />
		<tag k="ssr:stedsnr" v="920000" />
		<tag k="ssr:type" v="ås" />
	</node>
	<node id="-513067" lat="61.2092645042" lon="6.61605547916">
		<tag k="alt_name" v="Vestreim" />
		<tag k="fixme" v="consider place=hamlet" />
		<tag k="name" v="Vestrheim" />
		<tag k="place" v="farm" />
		<tag k="ssr:date" v="2017-10-27" />
		<tag k="ssr:gruppe" v="gardsbebyggelse" />
		<tag k="ssr:hovedgruppe" v="bebyggelse" />
		<tag k="ssr:stedsnr" v="919992" />
		<tag k="ssr:type" v="gard" />
	</node>
	<node id="-513066" lat="61.2043527814" lon="6.67984999997">
		<tag k="name" v="Viki" />
		<tag k="place" v="locality" />
		<tag k="ssr:date" v="2016-05-11" />
		<tag k="ssr:gruppe" v="gardsbebyggelse" />
		<tag k="ssr:hovedgruppe" v="bebyggelse" />
		<tag k="ssr:stedsnr" v="919977" />
		<tag k="ssr:type" v="eiendom" />
	</node>
	<node id="-513065" lat="61.2209888915" lon="6.87187221942">
		<tag k="alt_name" v="Storli-Rupeskar" />
		<tag k="name" v="Rjupeskar" />
		<tag k="natural" v="valley" />
		<tag k="place" v="locality" />
		<tag k="ssr:date" v="2016-05-11" />
		<tag k="ssr:gruppe" v="senkninger" />
		<tag k="ssr:hovedgruppe" v="terreng" />
		<tag k="ssr:stedsnr" v="919940" />
		<tag k="ssr:type" v="skar" />
	</node>
	<node id="-513064" lat="61.1855580883" lon="6.8045443243">
		<tag k="name" v="Leikanger" />
		<tag k="place" v="village" />
		<tag k="ssr:date" v="2018-07-26" />
		<tag k="ssr:gruppe" v="bebyggelsesområder" />
		<tag k="ssr:hovedgruppe" v="bebyggelse" />
		<tag k="ssr:stedsnr" v="919935" />
		<tag k="ssr:type" v="tettsted" />
	</node>
	<node id="-513063" lat="61.1858224263" lon="6.79968844856">
		<tag k="fixme" v="consider place=hamlet" />
		<tag k="name" v="Husabø" />
		<tag k="place" v="farm" />
		<tag k="ssr:date" v="2017-10-27" />
		<tag k="ssr:gruppe" v="gardsbebyggelse" />
		<tag k="ssr:hovedgruppe" v="bebyggelse" />
		<tag k="ssr:stedsnr" v="919931" />
		<tag k="ssr:type" v="gard" />
	</node>
	<node id="-513062" lat="61.1822388914" lon="6.78267777678">
		<tag k="name" v="Torsbukti" />
		<tag k="natural" v="bay" />
		<tag k="ssr:date" v="2016-05-11" />
		<tag k="ssr:gruppe" v="kystkontur" />
		<tag k="ssr:hovedgruppe" v="sjø" />
		<tag k="ssr:stedsnr" v="919930" />
		<tag k="ssr:type" v="vikISjø" />
	</node>
	<node id="-513061" lat="61.2016388876" lon="6.90854167031">
		<tag k="name" v="Bergsete" />
		<tag k="place" v="isolated_dwelling" />
		<tag k="ssr:date" v="2016-05-11" />
		<tag k="ssr:gruppe" v="bolighus" />
		<tag k="ssr:hovedgruppe" v="bebyggelse" />
		<tag k="ssr:stedsnr" v="919893" />
		<tag k="ssr:type" v="fritidsbolig" />
	</node>
	<node id="-513060" lat="61.1973055523" lon="6.72286111784">
		<tag k="name" v="Vandadalen" />
		<tag k="natural" v="valley" />
		<tag k="place" v="locality" />
		<tag k="ssr:date" v="2016-05-11" />
		<tag k="ssr:gruppe" v="senkninger" />
		<tag k="ssr:hovedgruppe" v="terreng" />
		<tag k="ssr:stedsnr" v="919891" />
		<tag k="ssr:type" v="dal" />
	</node>
	<node id="-513059" lat="61.1888699842" lon="6.77338358209">
		<tag k="alt_name" v="Eggum" />
		<tag k="fixme" v="consider place=hamlet" />
		<tag k="name" v="Eggjane" />
		<tag k="place" v="farm" />
		<tag k="ssr:date" v="2017-10-27" />
		<tag k="ssr:gruppe" v="gardsbebyggelse" />
		<tag k="ssr:hovedgruppe" v="bebyggelse" />
		<tag k="ssr:stedsnr" v="919887" />
		<tag k="ssr:type" v="gard" />
	</node>
	<node id="-513058" lat="61.181750001" lon="6.71812222695">
		<tag k="alt_name" v="Kalsviki" />
		<tag k="name" v="Kallsviki" />
		<tag k="natural" v="bay" />
		<tag k="ssr:date" v="2016-05-11" />
		<tag k="ssr:gruppe" v="kystkontur" />
		<tag k="ssr:hovedgruppe" v="sjø" />
		<tag k="ssr:stedsnr" v="919873" />
		<tag k="ssr:type" v="vikISjø" />
	</node>
	<node id="-513057" lat="61.2420499972" lon="6.76603333908">
		<tag k="alt_name" v="Nyanstøl" />
		<tag k="historic" v="shieling" />
		<tag k="name" v="Nyastølen" />
		<tag k="place" v="locality" />
		<tag k="ssr:date" v="2016-05-11" />
		<tag k="ssr:gruppe" v="gardsbebyggelse" />
		<tag k="ssr:hovedgruppe" v="bebyggelse" />
		<tag k="ssr:stedsnr" v="919542" />
		<tag k="ssr:type" v="seterStøl" />
	</node>
	<node id="-513056" lat="61.2446666636" lon="6.8941305496">
		<tag k="name" v="Ljotehaug" />
		<tag k="natural" v="hill" />
		<tag k="place" v="locality" />
		<tag k="ssr:date" v="2016-05-11" />
		<tag k="ssr:gruppe" v="høyder" />
		<tag k="ssr:hovedgruppe" v="terreng" />
		<tag k="ssr:stedsnr" v="919539" />
		<tag k="ssr:type" v="haug" />
	</node>
	<node id="-513055" lat="61.295272224" lon="6.90619444089">
		<tag k="fixme" v="consider natural=peak for the most distinct mountains in the district" />
		<tag k="name" v="Blåfjellet" />
		<tag k="natural" v="hill" />
		<tag k="place" v="locality" />
		<tag k="ssr:date" v="2016-05-11" />
		<tag k="ssr:gruppe" v="høyder" />
		<tag k="ssr:hovedgruppe" v="terreng" />
		<tag k="ssr:stedsnr" v="918295" />
		<tag k="ssr:type" v="fjell" />
	</node>
	<node id="-513054" lat="61.2896722248" lon="6.79807777807">
		<tag k="name" v="Voggebreen" />
		<tag k="natural" v="glacier" />
		<tag k="ssr:date" v="2016-05-11" />
		<tag k="ssr:gruppe" v="isOgPermafrost" />
		<tag k="ssr:hovedgruppe" v="markslag" />
		<tag k="ssr:stedsnr" v="918293" />
		<tag k="ssr:type" v="isbre" />
	</node>
	<node id="-513053" lat="61.2503416622" lon="6.73039721554">
		<tag k="name" v="Sauaholten" />
		<tag k="natural" v="hill" />
		<tag k="place" v="locality" />
		<tag k="ssr:date" v="2016-05-11" />
		<tag k="ssr:gruppe" v="høyder" />
		<tag k="ssr:hovedgruppe" v="terreng" />
		<tag k="ssr:stedsnr" v="918163" />
		<tag k="ssr:type" v="haug" />
	</node>
	<node id="-513052" lat="61.2639611111" lon="6.79046110619">
		<tag k="fixme" v="consider natural=peak for the most distinct mountains in the district" />
		<tag k="name" v="Kaldekletten" />
		<tag k="natural" v="hill" />
		<tag k="place" v="locality" />
		<tag k="ssr:date" v="2016-05-11" />
		<tag k="ssr:gruppe" v="høyder" />
		<tag k="ssr:hovedgruppe" v="terreng" />
		<tag k="ssr:stedsnr" v="918149" />
		<tag k="ssr:type" v="fjell" />
	</node>
	<node id="-513051" lat="61.2708499981" lon="6.76751388422">
		<tag k="name" v="Svinadalseggi" />
		<tag k="natural" v="hill" />
		<tag k="place" v="locality" />
		<tag k="ssr:date" v="2016-05-11" />
		<tag k="ssr:gruppe" v="høyder" />
		<tag k="ssr:hovedgruppe" v="terreng" />
		<tag k="ssr:stedsnr" v="918142" />
		<tag k="ssr:type" v="haug" />
	</node>
	<node id="-513050" lat="61.2872972243" lon="6.85498612028">
		<tag k="name" v="Myrdalen" />
		<tag k="natural" v="valley" />
		<tag k="place" v="locality" />
		<tag k="ssr:date" v="2016-05-11" />
		<tag k="ssr:gruppe" v="senkninger" />
		<tag k="ssr:hovedgruppe" v="terreng" />
		<tag k="ssr:stedsnr" v="918134" />
		<tag k="ssr:type" v="dal" />
	</node>
	<node id="-513047" lat="61.2928250023" lon="6.74301389284">
		<tag k="name" v="Skarselvi" />
		<tag k="ssr:date" v="2016-05-11" />
		<tag k="ssr:gruppe" v="rennendeVann" />
		<tag k="ssr:hovedgruppe" v="ferskvann" />
		<tag k="ssr:stedsnr" v="870730" />
		<tag k="ssr:type" v="elv" />
		<tag k="waterway" v="river" />
	</node>
	<node id="-513046" lat="61.2255638897" lon="6.90857500562">
		<tag k="historic" v="shieling" />
		<tag k="name" v="Hottadalen" />
		<tag k="place" v="locality" />
		<tag k="ssr:date" v="2016-05-11" />
		<tag k="ssr:gruppe" v="gardsbebyggelse" />
		<tag k="ssr:hovedgruppe" v="bebyggelse" />
		<tag k="ssr:stedsnr" v="859996" />
		<tag k="ssr:type" v="seterStøl" />
	</node>
	<node id="-513045" lat="61.210355559" lon="6.73945833274">
		<tag k="historic" v="shieling" />
		<tag k="name" v="Skitstølen" />
		<tag k="place" v="locality" />
		<tag k="ssr:date" v="2016-05-11" />
		<tag k="ssr:gruppe" v="gardsbebyggelse" />
		<tag k="ssr:hovedgruppe" v="bebyggelse" />
		<tag k="ssr:stedsnr" v="859993" />
		<tag k="ssr:type" v="seterStøl" />
	</node>
	<node id="-513044" lat="61.2152583357" lon="6.75234722128">
		<tag k="alt_name" v="Seljevoll" />
		<tag k="name" v="Seljevollen" />
		<tag k="place" v="locality" />
		<tag k="ssr:date" v="2016-05-11" />
		<tag k="ssr:gruppe" v="gardsbebyggelse" />
		<tag k="ssr:hovedgruppe" v="bebyggelse" />
		<tag k="ssr:stedsnr" v="859989" />
		<tag k="ssr:type" v="byggForJordbrukFiskeOgFangst" />
	</node>
	<node id="-513043" lat="61.2051972231" lon="6.6661972252">
		<tag k="alt_name" v="Brandhammar" />
		<tag k="fixme" v="consider natural=peak for the most distinct mountains in the district" />
		<tag k="name" v="Bandhammar" />
		<tag k="natural" v="hill" />
		<tag k="place" v="locality" />
		<tag k="ssr:date" v="2016-05-11" />
		<tag k="ssr:gruppe" v="høyder" />
		<tag k="ssr:hovedgruppe" v="terreng" />
		<tag k="ssr:stedsnr" v="859985" />
		<tag k="ssr:type" v="ås" />
	</node>
	<node id="-513042" lat="61.2160083343" lon="6.91848333584">
		<tag k="name" v="Sæterhaug" />
		<tag k="natural" v="hill" />
		<tag k="place" v="locality" />
		<tag k="ssr:date" v="2016-05-11" />
		<tag k="ssr:gruppe" v="høyder" />
		<tag k="ssr:hovedgruppe" v="terreng" />
		<tag k="ssr:stedsnr" v="859979" />
		<tag k="ssr:type" v="haug" />
	</node>
	<node id="-513041" lat="61.202869447" lon="6.74403610274">
		<tag k="historic" v="shieling" />
		<tag k="name" v="Holestølen" />
		<tag k="old_name" v="Marsete" />
		<tag k="place" v="locality" />
		<tag k="ssr:date" v="2016-05-11" />
		<tag k="ssr:gruppe" v="gardsbebyggelse" />
		<tag k="ssr:hovedgruppe" v="bebyggelse" />
		<tag k="ssr:stedsnr" v="859967" />
		<tag k="ssr:type" v="seterStøl" />
	</node>
	<node id="-513040" lat="61.2284666674" lon="6.91508888631">
		<tag k="name" v="Seltuftebotn" />
		<tag k="natural" v="valley" />
		<tag k="place" v="locality" />
		<tag k="ssr:date" v="2016-05-11" />
		<tag k="ssr:gruppe" v="senkninger" />
		<tag k="ssr:hovedgruppe" v="terreng" />
		<tag k="ssr:stedsnr" v="859947" />
		<tag k="ssr:type" v="botn" />
	</node>
	<node id="-513039" lat="61.2007888904" lon="6.82150833879">
		<tag k="name" v="Eggjahaugane" />
		<tag k="natural" v="hill" />
		<tag k="old_name" v="Kleppahaugen" />
		<tag k="place" v="locality" />
		<tag k="ssr:date" v="2016-05-11" />
		<tag k="ssr:gruppe" v="høyder" />
		<tag k="ssr:hovedgruppe" v="terreng" />
		<tag k="ssr:stedsnr" v="859881" />
		<tag k="ssr:type" v="haug" />
	</node>
	<node id="-513038" lat="61.19658611" lon="6.87020556069">
		<tag k="name" v="Njøsaelvi" />
		<tag k="old_name" v="Njøselvi" />
		<tag k="ssr:date" v="2016-05-11" />
		<tag k="ssr:gruppe" v="rennendeVann" />
		<tag k="ssr:hovedgruppe" v="ferskvann" />
		<tag k="ssr:stedsnr" v="859875" />
		<tag k="ssr:type" v="elv" />
		<tag k="waterway" v="river" />
	</node>
	<node id="-513037" lat="61.1935277785" lon="6.72194166253">
		<tag k="fixme" v="consider natural=peak for the most distinct mountains in the district" />
		<tag k="name" v="Branden" />
		<tag k="natural" v="hill" />
		<tag k="place" v="locality" />
		<tag k="ssr:date" v="2016-05-11" />
		<tag k="ssr:gruppe" v="høyder" />
		<tag k="ssr:hovedgruppe" v="terreng" />
		<tag k="ssr:stedsnr" v="859869" />
		<tag k="ssr:type" v="ås" />
	</node>
	<node id="-513036" lat="61.2474583344" lon="6.92728887975">
		<tag k="alt_name" v="Kalvavatn" />
		<tag k="name" v="Kalvavatnet" />
		<tag k="natural" v="water" />
		<tag k="ssr:date" v="2016-05-11" />
		<tag k="ssr:gruppe" v="stilleståendeVann" />
		<tag k="ssr:hovedgruppe" v="ferskvann" />
		<tag k="ssr:stedsnr" v="859492" />
		<tag k="ssr:type" v="tjern" />
	</node>
	<node id="-513035" lat="61.2216222216" lon="6.61751944486">
		<tag k="historic" v="shieling" />
		<tag k="name" v="Daurmålhaug" />
		<tag k="place" v="locality" />
		<tag k="ssr:date" v="2016-05-11" />
		<tag k="ssr:gruppe" v="gardsbebyggelse" />
		<tag k="ssr:hovedgruppe" v="bebyggelse" />
		<tag k="ssr:stedsnr" v="859528" />
		<tag k="ssr:type" v="seterStøl" />
	</node>
	<node id="-513034" lat="61.237241669" lon="6.84747777741">
		<tag k="fixme" v="consider natural=peak for the most distinct mountains in the district" />
		<tag k="name" v="Hotten" />
		<tag k="natural" v="hill" />
		<tag k="place" v="locality" />
		<tag k="ssr:date" v="2016-05-11" />
		<tag k="ssr:gruppe" v="høyder" />
		<tag k="ssr:hovedgruppe" v="terreng" />
		<tag k="ssr:stedsnr" v="859518" />
		<tag k="ssr:type" v="ås" />
	</node>
	<node id="-513033" lat="61.2401055598" lon="6.74030277307">
		<tag k="alt_name" v="Kjerringi" />
		<tag k="name" v="Kjeringi" />
		<tag k="natural" v="hill" />
		<tag k="place" v="locality" />
		<tag k="ssr:date" v="2016-05-11" />
		<tag k="ssr:gruppe" v="høyder" />
		<tag k="ssr:hovedgruppe" v="terreng" />
		<tag k="ssr:stedsnr" v="859507" />
		<tag k="ssr:type" v="haug" />
	</node>
	<node id="-513032" lat="61.2468694464" lon="6.77229167153">
		<tag k="name" v="Rust" />
		<tag k="natural" v="slope" />
		<tag k="place" v="locality" />
		<tag k="ssr:date" v="2016-05-11" />
		<tag k="ssr:gruppe" v="skråninger" />
		<tag k="ssr:hovedgruppe" v="terreng" />
		<tag k="ssr:stedsnr" v="859504" />
		<tag k="ssr:type" v="li" />
	</node>
	<node id="-513031" lat="61.2214749971" lon="6.65861944377">
		<tag k="alt_name" v="Storehaug" />
		<tag k="name" v="Storehaugen" />
		<tag k="natural" v="hill" />
		<tag k="place" v="locality" />
		<tag k="ssr:date" v="2016-05-11" />
		<tag k="ssr:gruppe" v="høyder" />
		<tag k="ssr:hovedgruppe" v="terreng" />
		<tag k="ssr:stedsnr" v="858944" />
		<tag k="ssr:type" v="haug" />
	</node>
	<node id="-513030" lat="61.2191999979" lon="6.67363333596">
		<tag k="name" v="Frisete" />
		<tag k="place" v="locality" />
		<tag k="ssr:date" v="2016-05-11" />
		<tag k="ssr:gruppe" v="gardsbebyggelse" />
		<tag k="ssr:hovedgruppe" v="bebyggelse" />
		<tag k="ssr:stedsnr" v="858942" />
		<tag k="ssr:type" v="eiendom" />
	</node>
	<node id="-513029" lat="61.2143333362" lon="6.67781110376">
		<tag k="name" v="Kleivafjellstølen" />
		<tag k="place" v="locality" />
		<tag k="ssr:date" v="2016-05-11" />
		<tag k="ssr:gruppe" v="gardsbebyggelse" />
		<tag k="ssr:hovedgruppe" v="bebyggelse" />
		<tag k="ssr:stedsnr" v="858941" />
		<tag k="ssr:type" v="eiendom" />
	</node>
	<node id="-513028" lat="61.2902111115" lon="6.78601943904">
		<tag k="fixme" v="consider natural=peak for the most distinct mountains in the district" />
		<tag k="name" v="Skarholten" />
		<tag k="natural" v="hill" />
		<tag k="place" v="locality" />
		<tag k="ssr:date" v="2016-05-11" />
		<tag k="ssr:gruppe" v="høyder" />
		<tag k="ssr:hovedgruppe" v="terreng" />
		<tag k="ssr:stedsnr" v="857273" />
		<tag k="ssr:type" v="ås" />
	</node>
	<node id="-513027" lat="61.298013891" lon="6.7754055538">
		<tag k="name" v="Ryssebotn" />
		<tag k="natural" v="valley" />
		<tag k="place" v="locality" />
		<tag k="ssr:date" v="2016-05-11" />
		<tag k="ssr:gruppe" v="senkninger" />
		<tag k="ssr:hovedgruppe" v="terreng" />
		<tag k="ssr:stedsnr" v="857257" />
		<tag k="ssr:type" v="botn" />
	</node>
	<node id="-513026" lat="61.29709722" lon="6.75147777074">
		<tag k="name" v="Ryssebotna" />
		<tag k="ssr:date" v="2016-05-11" />
		<tag k="ssr:gruppe" v="rennendeVann" />
		<tag k="ssr:hovedgruppe" v="ferskvann" />
		<tag k="ssr:stedsnr" v="857258" />
		<tag k="ssr:type" v="bekk" />
		<tag k="waterway" v="stream" />
	</node>
	<node id="-513025" lat="61.2539611069" lon="6.84985833432">
		<tag k="fixme" v="multiple name tags, choose one and add the other to alt_name" />
		<tag k="name" v="Sevihovden;Sevihovdryggen" />
		<tag k="natural" v="hill" />
		<tag k="place" v="locality" />
		<tag k="ssr:date" v="2016-05-11" />
		<tag k="ssr:gruppe" v="høyder" />
		<tag k="ssr:hovedgruppe" v="terreng" />
		<tag k="ssr:stedsnr" v="857172" />
		<tag k="ssr:type" v="haug" />
	</node>
	<node id="-513024" lat="61.2545277735" lon="6.75209722911">
		<tag k="historic" v="shieling" />
		<tag k="name" v="Stavsete" />
		<tag k="place" v="locality" />
		<tag k="ssr:date" v="2016-05-11" />
		<tag k="ssr:gruppe" v="gardsbebyggelse" />
		<tag k="ssr:hovedgruppe" v="bebyggelse" />
		<tag k="ssr:stedsnr" v="857164" />
		<tag k="ssr:type" v="seterStøl" />
	</node>
	<node id="-513023" lat="61.2644333327" lon="6.75415000264">
		<tag k="name" v="Stavseta" />
		<tag k="ssr:date" v="2016-05-11" />
		<tag k="ssr:gruppe" v="rennendeVann" />
		<tag k="ssr:hovedgruppe" v="ferskvann" />
		<tag k="ssr:stedsnr" v="857157" />
		<tag k="ssr:type" v="elv" />
		<tag k="waterway" v="river" />
	</node>
	<node id="-513022" lat="61.2742111069" lon="6.78231389452">
		<tag k="fixme" v="consider natural=peak for the most distinct mountains in the district" />
		<tag k="name" v="Friksdalseggi" />
		<tag k="natural" v="hill" />
		<tag k="place" v="locality" />
		<tag k="ssr:date" v="2016-05-11" />
		<tag k="ssr:gruppe" v="høyder" />
		<tag k="ssr:hovedgruppe" v="terreng" />
		<tag k="ssr:stedsnr" v="857142" />
		<tag k="ssr:type" v="ås" />
	</node>
	<node id="-513021" lat="61.1889333364" lon="6.87922500565">
		<tag k="name" v="Melatoppen" />
		<tag k="natural" v="hill" />
		<tag k="place" v="locality" />
		<tag k="ssr:date" v="2016-05-11" />
		<tag k="ssr:gruppe" v="høyder" />
		<tag k="ssr:hovedgruppe" v="terreng" />
		<tag k="ssr:stedsnr" v="848997" />
		<tag k="ssr:type" v="haug" />
	</node>
	<node id="-513020" lat="61.2111694426" lon="6.77768333763">
		<tag k="name" v="Vassbotnen" />
		<tag k="natural" v="valley" />
		<tag k="place" v="locality" />
		<tag k="ssr:date" v="2016-05-11" />
		<tag k="ssr:gruppe" v="senkninger" />
		<tag k="ssr:hovedgruppe" v="terreng" />
		<tag k="ssr:stedsnr" v="848994" />
		<tag k="ssr:type" v="botn" />
	</node>
	<node id="-513019" lat="61.1840194479" lon="6.86316389024">
		<tag k="bridge" v="yes" />
		<tag k="layer" v="1" />
		<tag k="name" v="Njøs" />
		<tag k="ssr:date" v="2016-05-11" />
		<tag k="ssr:gruppe" v="samferdselsanlegg" />
		<tag k="ssr:hovedgruppe" v="infrastruktur" />
		<tag k="ssr:stedsnr" v="835509" />
		<tag k="ssr:type" v="bru" />
	</node>
	<node id="-513018" lat="61.1820888844" lon="6.76186944177">
		<tag k="bridge" v="yes" />
		<tag k="layer" v="1" />
		<tag k="name" v="Fosshagen" />
		<tag k="ssr:date" v="2016-05-11" />
		<tag k="ssr:gruppe" v="samferdselsanlegg" />
		<tag k="ssr:hovedgruppe" v="infrastruktur" />
		<tag k="ssr:stedsnr" v="835506" />
		<tag k="ssr:type" v="bru" />
	</node>
	<node id="-513017" lat="61.2081305564" lon="6.64827778406">
		<tag k="bridge" v="yes" />
		<tag k="layer" v="1" />
		<tag k="name" v="Kvinna" />
		<tag k="ssr:date" v="2016-05-11" />
		<tag k="ssr:gruppe" v="samferdselsanlegg" />
		<tag k="ssr:hovedgruppe" v="infrastruktur" />
		<tag k="ssr:stedsnr" v="835503" />
		<tag k="ssr:type" v="bru" />
	</node>
	<node id="-513016" lat="61.1830722245" lon="6.85166944859">
		<tag k="bridge" v="yes" />
		<tag k="layer" v="1" />
		<tag k="name" v="Henjelven" />
		<tag k="ssr:date" v="2016-05-11" />
		<tag k="ssr:gruppe" v="samferdselsanlegg" />
		<tag k="ssr:hovedgruppe" v="infrastruktur" />
		<tag k="ssr:stedsnr" v="835502" />
		<tag k="ssr:type" v="bru" />
	</node>
	<node id="-513015" lat="61.206654459" lon="6.90791856656">
		<tag k="name" v="Havravatni" />
		<tag k="natural" v="water" />
		<tag k="ssr:date" v="2019-03-05" />
		<tag k="ssr:gruppe" v="stilleståendeVann" />
		<tag k="ssr:hovedgruppe" v="ferskvann" />
		<tag k="ssr:stedsnr" v="823850" />
		<tag k="ssr:type" v="vann" />
		<tag k="water" v="lake" />
	</node>
	<node id="-513014" lat="61.204630553" lon="6.77121944065">
		<tag k="name" v="Hammarskar" />
		<tag k="natural" v="valley" />
		<tag k="place" v="locality" />
		<tag k="ssr:date" v="2016-05-11" />
		<tag k="ssr:gruppe" v="senkninger" />
		<tag k="ssr:hovedgruppe" v="terreng" />
		<tag k="ssr:stedsnr" v="823766" />
		<tag k="ssr:type" v="skar" />
	</node>
	<node id="-513013" lat="61.2513194424" lon="6.93273056082">
		<tag k="name" v="Fjærlandsetelvi" />
		<tag k="ssr:date" v="2016-05-11" />
		<tag k="ssr:gruppe" v="rennendeVann" />
		<tag k="ssr:hovedgruppe" v="ferskvann" />
		<tag k="ssr:stedsnr" v="823693" />
		<tag k="ssr:type" v="bekk" />
		<tag k="waterway" v="stream" />
	</node>
	<node id="-513012" lat="61.2127555526" lon="6.60532500025">
		<tag k="name" v="Harekvina" />
		<tag k="natural" v="slope" />
		<tag k="place" v="locality" />
		<tag k="ssr:date" v="2016-05-11" />
		<tag k="ssr:gruppe" v="skråninger" />
		<tag k="ssr:hovedgruppe" v="terreng" />
		<tag k="ssr:stedsnr" v="823544" />
		<tag k="ssr:type" v="li" />
	</node>
	<node id="-513011" lat="61.2104444407" lon="6.74855833628">
		<tag k="name" v="Brandarhaug" />
		<tag k="natural" v="hill" />
		<tag k="place" v="locality" />
		<tag k="ssr:date" v="2016-05-11" />
		<tag k="ssr:gruppe" v="høyder" />
		<tag k="ssr:hovedgruppe" v="terreng" />
		<tag k="ssr:stedsnr" v="823435" />
		<tag k="ssr:type" v="haug" />
	</node>
	<node id="-513010" lat="61.2524333309" lon="6.85833610525">
		<tag k="name" v="Fessene" />
		<tag k="natural" v="slope" />
		<tag k="place" v="locality" />
		<tag k="ssr:date" v="2016-05-11" />
		<tag k="ssr:gruppe" v="skråninger" />
		<tag k="ssr:hovedgruppe" v="terreng" />
		<tag k="ssr:stedsnr" v="823136" />
		<tag k="ssr:type" v="li" />
	</node>
	<node id="-513008" lat="61.2099250009" lon="6.64774721651">
		<tag k="name" v="Kvinnefossen" />
		<tag k="natural" v="waterfall" />
		<tag k="ssr:date" v="2016-05-11" />
		<tag k="ssr:gruppe" v="rennendeVann" />
		<tag k="ssr:hovedgruppe" v="ferskvann" />
		<tag k="ssr:stedsnr" v="799000" />
		<tag k="ssr:type" v="foss" />
	</node>
	<node id="-513007" lat="61.208283332" lon="6.781369447">
		<tag k="fixme" v="consider natural=peak for the most distinct mountains in the district" />
		<tag k="name" v="Smørkletten" />
		<tag k="natural" v="hill" />
		<tag k="place" v="locality" />
		<tag k="ssr:date" v="2016-05-11" />
		<tag k="ssr:gruppe" v="høyder" />
		<tag k="ssr:hovedgruppe" v="terreng" />
		<tag k="ssr:stedsnr" v="798992" />
		<tag k="ssr:type" v="ås" />
	</node>
	<node id="-513006" lat="61.2070833355" lon="6.71684722974">
		<tag k="name" v="Klovsteinane" />
		<tag k="natural" v="stone" />
		<tag k="ssr:date" v="2016-05-11" />
		<tag k="ssr:gruppe" v="løsmasseavsetninger" />
		<tag k="ssr:hovedgruppe" v="markslag" />
		<tag k="ssr:stedsnr" v="798984" />
		<tag k="ssr:type" v="stein" />
	</node>
	<node id="-513005" lat="61.2089111092" lon="6.68161666067">
		<tag k="alt_name" v="Ytståni" />
		<tag k="name" v="Ytståna" />
		<tag k="ssr:date" v="2016-05-11" />
		<tag k="ssr:gruppe" v="rennendeVann" />
		<tag k="ssr:hovedgruppe" v="ferskvann" />
		<tag k="ssr:stedsnr" v="798983" />
		<tag k="ssr:type" v="bekk" />
		<tag k="waterway" v="stream" />
	</node>
	<node id="-513004" lat="61.2086416649" lon="6.89690832486">
		<tag k="name" v="Gamlestølen" />
		<tag k="place" v="isolated_dwelling" />
		<tag k="ssr:date" v="2016-05-11" />
		<tag k="ssr:gruppe" v="bolighus" />
		<tag k="ssr:hovedgruppe" v="bebyggelse" />
		<tag k="ssr:stedsnr" v="798978" />
		<tag k="ssr:type" v="fritidsbolig" />
	</node>
	<node id="-513003" lat="61.2078444416" lon="6.86151389292">
		<tag k="name" v="Ørnagardhaug" />
		<tag k="natural" v="hill" />
		<tag k="place" v="locality" />
		<tag k="ssr:date" v="2016-05-11" />
		<tag k="ssr:gruppe" v="høyder" />
		<tag k="ssr:hovedgruppe" v="terreng" />
		<tag k="ssr:stedsnr" v="798977" />
		<tag k="ssr:type" v="haug" />
	</node>
	<node id="-513002" lat="61.2107638904" lon="6.83256666977">
		<tag k="alt_name" v="Høgaloftåi" />
		<tag k="name" v="Høgalofta" />
		<tag k="ssr:date" v="2016-05-11" />
		<tag k="ssr:gruppe" v="rennendeVann" />
		<tag k="ssr:hovedgruppe" v="ferskvann" />
		<tag k="ssr:stedsnr" v="798971" />
		<tag k="ssr:type" v="bekk" />
		<tag k="waterway" v="stream" />
	</node>
	<node id="-513001" lat="61.1992222199" lon="6.70135277649">
		<tag k="name" v="Fjellheim" />
		<tag k="place" v="farm" />
		<tag k="ssr:date" v="2016-05-11" />
		<tag k="ssr:gruppe" v="gardsbebyggelse" />
		<tag k="ssr:hovedgruppe" v="bebyggelse" />
		<tag k="ssr:stedsnr" v="798963" />
		<tag k="ssr:type" v="bruk" />
	</node>
	<node id="-513000" lat="61.2167694435" lon="6.61190555457">
		<tag k="historic" v="shieling" />
		<tag k="name" v="Skare" />
		<tag k="place" v="locality" />
		<tag k="ssr:date" v="2016-05-11" />
		<tag k="ssr:gruppe" v="gardsbebyggelse" />
		<tag k="ssr:hovedgruppe" v="bebyggelse" />
		<tag k="ssr:stedsnr" v="798950" />
		<tag k="ssr:type" v="seterStøl" />
	</node>
	<node id="-512999" lat="61.1730138846" lon="6.87329999189">
		<tag k="name" v="Grauthaug" />
		<tag k="natural" v="hill" />
		<tag k="place" v="locality" />
		<tag k="ssr:date" v="2016-05-11" />
		<tag k="ssr:gruppe" v="høyder" />
		<tag k="ssr:hovedgruppe" v="terreng" />
		<tag k="ssr:stedsnr" v="798912" />
		<tag k="ssr:type" v="haug" />
	</node>
	<node id="-512998" lat="61.2009472242" lon="6.87512223077">
		<tag k="name" v="Pyttane" />
		<tag k="place" v="farm" />
		<tag k="ssr:date" v="2016-05-11" />
		<tag k="ssr:gruppe" v="gardsbebyggelse" />
		<tag k="ssr:hovedgruppe" v="bebyggelse" />
		<tag k="ssr:stedsnr" v="798889" />
		<tag k="ssr:type" v="bruk" />
	</node>
	<node id="-512997" lat="61.2002527741" lon="6.89785834021">
		<tag k="name" v="Kvannskar" />
		<tag k="natural" v="valley" />
		<tag k="place" v="locality" />
		<tag k="ssr:date" v="2016-05-11" />
		<tag k="ssr:gruppe" v="senkninger" />
		<tag k="ssr:hovedgruppe" v="terreng" />
		<tag k="ssr:stedsnr" v="798887" />
		<tag k="ssr:type" v="skar" />
	</node>
	<node id="-512996" lat="61.1937406327" lon="6.86655550321">
		<tag k="fixme" v="consider place=hamlet" />
		<tag k="name" v="Kvålen" />
		<tag k="place" v="farm" />
		<tag k="ssr:date" v="2017-10-27" />
		<tag k="ssr:gruppe" v="gardsbebyggelse" />
		<tag k="ssr:hovedgruppe" v="bebyggelse" />
		<tag k="ssr:stedsnr" v="798873" />
		<tag k="ssr:type" v="gard" />
	</node>
	<node id="-512995" lat="61.2482305562" lon="6.89107500894">
		<tag k="name" v="Osane" />
		<tag k="natural" v="water" />
		<tag k="ssr:date" v="2016-05-11" />
		<tag k="ssr:gruppe" v="stilleståendeVann" />
		<tag k="ssr:hovedgruppe" v="ferskvann" />
		<tag k="ssr:stedsnr" v="798497" />
		<tag k="ssr:type" v="tjern" />
	</node>
	<node id="-512994" lat="61.2438138898" lon="6.91218889367">
		<tag k="name" v="Skitbrekkene" />
		<tag k="natural" v="hill" />
		<tag k="place" v="locality" />
		<tag k="ssr:date" v="2016-05-11" />
		<tag k="ssr:gruppe" v="høyder" />
		<tag k="ssr:hovedgruppe" v="terreng" />
		<tag k="ssr:stedsnr" v="798494" />
		<tag k="ssr:type" v="haug" />
	</node>
	<node id="-512993" lat="61.2431527769" lon="6.68403610607">
		<tag k="name" v="Søkjerbotnen" />
		<tag k="natural" v="valley" />
		<tag k="place" v="locality" />
		<tag k="ssr:date" v="2016-05-11" />
		<tag k="ssr:gruppe" v="senkninger" />
		<tag k="ssr:hovedgruppe" v="terreng" />
		<tag k="ssr:stedsnr" v="798488" />
		<tag k="ssr:type" v="botn" />
	</node>
	<node id="-512992" lat="61.1986166663" lon="6.69408333667">
		<tag k="name" v="Supeimsviki" />
		<tag k="natural" v="bay" />
		<tag k="ssr:date" v="2016-05-11" />
		<tag k="ssr:gruppe" v="kystkontur" />
		<tag k="ssr:hovedgruppe" v="sjø" />
		<tag k="ssr:stedsnr" v="797292" />
		<tag k="ssr:type" v="vikISjø" />
	</node>
	<node id="-512991" lat="61.2892583302" lon="6.87865278455">
		<tag k="alt_name" v="Trastadalsvatnet, store;Trastadalsvatnet" />
		<tag k="name" v="Stora Trastadalsvatnet" />
		<tag k="natural" v="water" />
		<tag k="ssr:date" v="2016-05-11" />
		<tag k="ssr:gruppe" v="stilleståendeVann" />
		<tag k="ssr:hovedgruppe" v="ferskvann" />
		<tag k="ssr:stedsnr" v="796247" />
		<tag k="ssr:type" v="vann" />
		<tag k="water" v="lake" />
	</node>
	<node id="-512990" lat="61.2543194477" lon="6.74931388299">
		<tag k="name" v="Reppa" />
		<tag k="ssr:date" v="2016-05-11" />
		<tag k="ssr:gruppe" v="rennendeVann" />
		<tag k="ssr:hovedgruppe" v="ferskvann" />
		<tag k="ssr:stedsnr" v="796153" />
		<tag k="ssr:type" v="bekk" />
		<tag k="waterway" v="stream" />
	</node>
	<node id="-512989" lat="61.2567333346" lon="6.73081111828">
		<tag k="name" v="Reppebotn" />
		<tag k="natural" v="valley" />
		<tag k="place" v="locality" />
		<tag k="ssr:date" v="2016-05-11" />
		<tag k="ssr:gruppe" v="senkninger" />
		<tag k="ssr:hovedgruppe" v="terreng" />
		<tag k="ssr:stedsnr" v="796152" />
		<tag k="ssr:type" v="botn" />
	</node>
	<node id="-512988" lat="61.2765333356" lon="6.82200554788">
		<tag k="name" v="Røsebotn" />
		<tag k="natural" v="valley" />
		<tag k="place" v="locality" />
		<tag k="ssr:date" v="2016-05-11" />
		<tag k="ssr:gruppe" v="senkninger" />
		<tag k="ssr:hovedgruppe" v="terreng" />
		<tag k="ssr:stedsnr" v="796130" />
		<tag k="ssr:type" v="botn" />
	</node>
	<node id="-512987" lat="61.2235749958" lon="6.60961943804">
		<tag k="fixme" v="consider natural=peak for the most distinct mountains in the district" />
		<tag k="name" v="Nipa" />
		<tag k="natural" v="hill" />
		<tag k="place" v="locality" />
		<tag k="ssr:date" v="2016-05-11" />
		<tag k="ssr:gruppe" v="høyder" />
		<tag k="ssr:hovedgruppe" v="terreng" />
		<tag k="ssr:stedsnr" v="798525" />
		<tag k="ssr:type" v="fjell" />
	</node>
	<node id="-512986" lat="61.1889000001" lon="6.8435027702">
		<tag k="name" v="Henja" />
		<tag k="place" v="hamlet" />
		<tag k="ssr:date" v="2016-05-11" />
		<tag k="ssr:gruppe" v="bebyggelsesområder" />
		<tag k="ssr:hovedgruppe" v="bebyggelse" />
		<tag k="ssr:stedsnr" v="787228" />
		<tag k="ssr:type" v="grend" />
	</node>
	<node id="-512985" lat="61.2090611083" lon="6.62952776869">
		<tag k="name" v="Eitornbukti" />
		<tag k="natural" v="bay" />
		<tag k="ssr:date" v="2016-05-11" />
		<tag k="ssr:gruppe" v="kystkontur" />
		<tag k="ssr:hovedgruppe" v="sjø" />
		<tag k="ssr:stedsnr" v="783125" />
		<tag k="ssr:type" v="vikISjø" />
	</node>
	<node id="-512984" lat="61.1920416637" lon="6.78950833831">
		<tag k="name" v="Bustoene" />
		<tag k="place" v="locality" />
		<tag k="ssr:date" v="2016-05-11" />
		<tag k="ssr:gruppe" v="dyrkamark" />
		<tag k="ssr:hovedgruppe" v="markslag" />
		<tag k="ssr:stedsnr" v="768966" />
		<tag k="ssr:type" v="utmark" />
	</node>
	<node id="-512983" lat="61.1997305586" lon="6.74271389077">
		<tag k="name" v="Øygardane" />
		<tag k="place" v="locality" />
		<tag k="ssr:date" v="2016-05-11" />
		<tag k="ssr:gruppe" v="dyrkamark" />
		<tag k="ssr:hovedgruppe" v="markslag" />
		<tag k="ssr:stedsnr" v="768943" />
		<tag k="ssr:type" v="utmark" />
	</node>
	<node id="-512982" lat="61.2489777799" lon="6.86303055546">
		<tag k="name" v="Fessefossen" />
		<tag k="natural" v="waterfall" />
		<tag k="ssr:date" v="2016-05-11" />
		<tag k="ssr:gruppe" v="rennendeVann" />
		<tag k="ssr:hovedgruppe" v="ferskvann" />
		<tag k="ssr:stedsnr" v="762898" />
		<tag k="ssr:type" v="foss" />
	</node>
	<node id="-512981" lat="61.1828694414" lon="6.75809721723">
		<tag k="name" v="Valbrekka" />
		<tag k="natural" v="hill" />
		<tag k="place" v="locality" />
		<tag k="ssr:date" v="2016-05-11" />
		<tag k="ssr:gruppe" v="høyder" />
		<tag k="ssr:hovedgruppe" v="terreng" />
		<tag k="ssr:stedsnr" v="762842" />
		<tag k="ssr:type" v="haug" />
	</node>
	<node id="-512980" lat="61.2071250045" lon="6.61953333068">
		<tag k="name" v="Kålhamrane" />
		<tag k="natural" v="cape" />
		<tag k="ssr:date" v="2016-05-11" />
		<tag k="ssr:gruppe" v="kystkontur" />
		<tag k="ssr:hovedgruppe" v="sjø" />
		<tag k="ssr:stedsnr" v="762729" />
		<tag k="ssr:type" v="nesISjø" />
	</node>
	<node id="-512979" lat="61.2502916658" lon="6.90388332971">
		<tag k="name" v="Steintjern" />
		<tag k="natural" v="water" />
		<tag k="ssr:date" v="2016-05-11" />
		<tag k="ssr:gruppe" v="stilleståendeVann" />
		<tag k="ssr:hovedgruppe" v="ferskvann" />
		<tag k="ssr:stedsnr" v="762720" />
		<tag k="ssr:type" v="tjern" />
	</node>
	<node id="-512978" lat="61.2633277772" lon="6.93517221468">
		<tag k="name" v="Langadraget" />
		<tag k="natural" v="ridge" />
		<tag k="place" v="locality" />
		<tag k="ssr:date" v="2016-05-11" />
		<tag k="ssr:gruppe" v="høyder" />
		<tag k="ssr:hovedgruppe" v="terreng" />
		<tag k="ssr:stedsnr" v="762719" />
		<tag k="ssr:type" v="rygg" />
	</node>
	<node id="-512977" lat="61.2158555542" lon="6.89815555927">
		<tag k="name" v="Idlebakkane" />
		<tag k="natural" v="slope" />
		<tag k="place" v="locality" />
		<tag k="ssr:date" v="2016-05-11" />
		<tag k="ssr:gruppe" v="skråninger" />
		<tag k="ssr:hovedgruppe" v="terreng" />
		<tag k="ssr:stedsnr" v="762666" />
		<tag k="ssr:type" v="bakke" />
	</node>
	<node id="-512976" lat="61.1888999974" lon="6.7924555529">
		<tag k="name" v="Skaftestad" />
		<tag k="place" v="isolated_dwelling" />
		<tag k="ssr:date" v="2016-05-11" />
		<tag k="ssr:gruppe" v="bolighus" />
		<tag k="ssr:hovedgruppe" v="bebyggelse" />
		<tag k="ssr:stedsnr" v="762646" />
		<tag k="ssr:type" v="fritidsbolig" />
	</node>
	<node id="-512975" lat="61.206744444" lon="6.82293611162">
		<tag k="name" v="Simohaug" />
		<tag k="natural" v="hill" />
		<tag k="place" v="locality" />
		<tag k="ssr:date" v="2016-05-11" />
		<tag k="ssr:gruppe" v="høyder" />
		<tag k="ssr:hovedgruppe" v="terreng" />
		<tag k="ssr:stedsnr" v="762573" />
		<tag k="ssr:type" v="haug" />
	</node>
	<node id="-512974" lat="61.222458336" lon="6.73003332971">
		<tag k="name" v="Gryta" />
		<tag k="ssr:date" v="2016-05-11" />
		<tag k="ssr:gruppe" v="rennendeVann" />
		<tag k="ssr:hovedgruppe" v="ferskvann" />
		<tag k="ssr:stedsnr" v="762432" />
		<tag k="ssr:type" v="elv" />
		<tag k="waterway" v="river" />
	</node>
	<node id="-512973" lat="61.1889777771" lon="6.7401194375">
		<tag k="name" v="Eineberg" />
		<tag k="natural" v="hill" />
		<tag k="place" v="locality" />
		<tag k="ssr:date" v="2016-05-11" />
		<tag k="ssr:gruppe" v="høyder" />
		<tag k="ssr:hovedgruppe" v="terreng" />
		<tag k="ssr:stedsnr" v="762377" />
		<tag k="ssr:type" v="haug" />
	</node>
	<node id="-512972" lat="61.2723833373" lon="6.66388055621">
		<tag k="name" v="Vetlabukti" />
		<tag k="natural" v="bay" />
		<tag k="ssr:date" v="2016-05-11" />
		<tag k="ssr:gruppe" v="kystkontur" />
		<tag k="ssr:hovedgruppe" v="sjø" />
		<tag k="ssr:stedsnr" v="762246" />
		<tag k="ssr:type" v="vikISjø" />
	</node>
	<node id="-512971" lat="61.1972111136" lon="6.74122778005">
		<tag k="name" v="Kleivane" />
		<tag k="natural" v="slope" />
		<tag k="place" v="locality" />
		<tag k="ssr:date" v="2016-05-11" />
		<tag k="ssr:gruppe" v="skråninger" />
		<tag k="ssr:hovedgruppe" v="terreng" />
		<tag k="ssr:stedsnr" v="762120" />
		<tag k="ssr:type" v="bakke" />
	</node>
	<node id="-512970" lat="61.2212972265" lon="6.66238889118">
		<tag k="name" v="Koven" />
		<tag k="natural" v="hill" />
		<tag k="place" v="locality" />
		<tag k="ssr:date" v="2016-05-11" />
		<tag k="ssr:gruppe" v="høyder" />
		<tag k="ssr:hovedgruppe" v="terreng" />
		<tag k="ssr:stedsnr" v="761307" />
		<tag k="ssr:type" v="haug" />
	</node>
	<node id="-512969" lat="61.2505944424" lon="6.91096388778">
		<tag k="name" v="Kringlevatnet" />
		<tag k="natural" v="water" />
		<tag k="ssr:date" v="2016-05-11" />
		<tag k="ssr:gruppe" v="stilleståendeVann" />
		<tag k="ssr:hovedgruppe" v="ferskvann" />
		<tag k="ssr:stedsnr" v="748744" />
		<tag k="ssr:type" v="vann" />
		<tag k="water" v="lake" />
	</node>
	<node id="-512968" lat="61.210638886" lon="6.65944445278">
		<tag k="historic" v="shieling" />
		<tag k="name" v="Skoparsete" />
		<tag k="place" v="locality" />
		<tag k="ssr:date" v="2016-05-11" />
		<tag k="ssr:gruppe" v="gardsbebyggelse" />
		<tag k="ssr:hovedgruppe" v="bebyggelse" />
		<tag k="ssr:stedsnr" v="737999" />
		<tag k="ssr:type" v="seterStøl" />
	</node>
	<node id="-512967" lat="61.2072055589" lon="6.7422722225">
		<tag k="name" v="Grindselvi" />
		<tag k="ssr:date" v="2016-05-11" />
		<tag k="ssr:gruppe" v="rennendeVann" />
		<tag k="ssr:hovedgruppe" v="ferskvann" />
		<tag k="ssr:stedsnr" v="737994" />
		<tag k="ssr:type" v="elv" />
		<tag k="waterway" v="river" />
	</node>
	<node id="-512966" lat="61.2139555582" lon="6.91234443532">
		<tag k="fixme" v="consider natural=peak for the most distinct mountains in the district" />
		<tag k="name" v="Skoreggi" />
		<tag k="natural" v="hill" />
		<tag k="place" v="locality" />
		<tag k="ssr:date" v="2016-05-11" />
		<tag k="ssr:gruppe" v="høyder" />
		<tag k="ssr:hovedgruppe" v="terreng" />
		<tag k="ssr:stedsnr" v="737986" />
		<tag k="ssr:type" v="ås" />
	</node>
	<node id="-512965" lat="61.1994833364" lon="6.7418027853">
		<tag k="name" v="Småøyane" />
		<tag k="place" v="island" />
		<tag k="ssr:date" v="2016-05-11" />
		<tag k="ssr:gruppe" v="ferskvannskontur" />
		<tag k="ssr:hovedgruppe" v="ferskvann" />
		<tag k="ssr:stedsnr" v="737978" />
		<tag k="ssr:type" v="øygruppe" />
	</node>
	<node id="-512964" lat="61.2296333357" lon="6.84719721535">
		<tag k="name" v="Rjukandefossen" />
		<tag k="natural" v="waterfall" />
		<tag k="ssr:date" v="2016-05-11" />
		<tag k="ssr:gruppe" v="rennendeVann" />
		<tag k="ssr:hovedgruppe" v="ferskvann" />
		<tag k="ssr:stedsnr" v="737964" />
		<tag k="ssr:type" v="foss" />
	</node>
	<node id="-512963" lat="61.2177500008" lon="6.75961945021">
		<tag k="alt_name" v="Hukestølen" />
		<tag k="historic" v="shieling" />
		<tag k="name" v="Huksstølane" />
		<tag k="place" v="locality" />
		<tag k="ssr:date" v="2016-05-11" />
		<tag k="ssr:gruppe" v="gardsbebyggelse" />
		<tag k="ssr:hovedgruppe" v="bebyggelse" />
		<tag k="ssr:stedsnr" v="737959" />
		<tag k="ssr:type" v="seterStøl" />
	</node>
	<node id="-512962" lat="61.2216416703" lon="6.76742499127">
		<tag k="name" v="Dalseta" />
		<tag k="ssr:date" v="2016-05-11" />
		<tag k="ssr:gruppe" v="rennendeVann" />
		<tag k="ssr:hovedgruppe" v="ferskvann" />
		<tag k="ssr:stedsnr" v="737958" />
		<tag k="ssr:type" v="bekk" />
		<tag k="waterway" v="stream" />
	</node>
	<node id="-512961" lat="61.2212444479" lon="6.90856388525">
		<tag k="name" v="Geitadalen" />
		<tag k="natural" v="valley" />
		<tag k="place" v="locality" />
		<tag k="ssr:date" v="2016-05-11" />
		<tag k="ssr:gruppe" v="senkninger" />
		<tag k="ssr:hovedgruppe" v="terreng" />
		<tag k="ssr:stedsnr" v="737948" />
		<tag k="ssr:type" v="dal" />
	</node>
	<node id="-512960" lat="61.2205277785" lon="6.87575833956">
		<tag k="fixme" v="consider natural=peak for the most distinct mountains in the district" />
		<tag k="name" v="Skagasetfjellet" />
		<tag k="natural" v="hill" />
		<tag k="place" v="locality" />
		<tag k="ssr:date" v="2016-05-11" />
		<tag k="ssr:gruppe" v="høyder" />
		<tag k="ssr:hovedgruppe" v="terreng" />
		<tag k="ssr:stedsnr" v="737944" />
		<tag k="ssr:type" v="fjell" />
	</node>
	<node id="-512959" lat="61.1905916701" lon="6.81904999565">
		<tag k="name" v="Hallandsberget" />
		<tag k="natural" v="hill" />
		<tag k="old_name" v="Berghamaren" />
		<tag k="place" v="locality" />
		<tag k="ssr:date" v="2016-05-11" />
		<tag k="ssr:gruppe" v="høyder" />
		<tag k="ssr:hovedgruppe" v="terreng" />
		<tag k="ssr:stedsnr" v="737891" />
		<tag k="ssr:type" v="berg" />
	</node>
	<node id="-512958" lat="61.1928638928" lon="6.88880554888">
		<tag k="alt_name" v="Bjønshovden" />
		<tag k="fixme" v="consider natural=peak for the most distinct mountains in the district" />
		<tag k="name" v="Bjørnshovden" />
		<tag k="natural" v="hill" />
		<tag k="place" v="locality" />
		<tag k="ssr:date" v="2016-05-11" />
		<tag k="ssr:gruppe" v="høyder" />
		<tag k="ssr:hovedgruppe" v="terreng" />
		<tag k="ssr:stedsnr" v="737889" />
		<tag k="ssr:type" v="ås" />
	</node>
	<node id="-512957" lat="61.2253000013" lon="6.62746666871">
		<tag k="fixme" v="consider natural=peak for the most distinct mountains in the district" />
		<tag k="name" v="Storeholten" />
		<tag k="natural" v="hill" />
		<tag k="place" v="locality" />
		<tag k="ssr:date" v="2016-05-11" />
		<tag k="ssr:gruppe" v="høyder" />
		<tag k="ssr:hovedgruppe" v="terreng" />
		<tag k="ssr:stedsnr" v="737550" />
		<tag k="ssr:type" v="ås" />
	</node>
	<node id="-512956" lat="61.2308250037" lon="6.64726667263">
		<tag k="historic" v="shieling" />
		<tag k="name" v="Nyanstøl" />
		<tag k="place" v="locality" />
		<tag k="ssr:date" v="2016-05-11" />
		<tag k="ssr:gruppe" v="gardsbebyggelse" />
		<tag k="ssr:hovedgruppe" v="bebyggelse" />
		<tag k="ssr:stedsnr" v="737548" />
		<tag k="ssr:type" v="seterStøl" />
	</node>
	<node id="-512955" lat="61.2596916681" lon="6.86371389448">
		<tag k="historic" v="shieling" />
		<tag k="name" v="Nyastølen" />
		<tag k="place" v="locality" />
		<tag k="ssr:date" v="2016-05-11" />
		<tag k="ssr:gruppe" v="gardsbebyggelse" />
		<tag k="ssr:hovedgruppe" v="bebyggelse" />
		<tag k="ssr:stedsnr" v="736162" />
		<tag k="ssr:type" v="seterStøl" />
	</node>
	<node id="-512954" lat="61.2672305552" lon="6.9054888927">
		<tag k="name" v="Høgehaug" />
		<tag k="natural" v="hill" />
		<tag k="place" v="locality" />
		<tag k="ssr:date" v="2016-05-11" />
		<tag k="ssr:gruppe" v="høyder" />
		<tag k="ssr:hovedgruppe" v="terreng" />
		<tag k="ssr:stedsnr" v="736159" />
		<tag k="ssr:type" v="haug" />
	</node>
	<node id="-512953" lat="61.2769166654" lon="6.88784444919">
		<tag k="alt_name" v="Trastadalsvatnet, vetla" />
		<tag k="name" v="Vetla Trastadalsvatnet" />
		<tag k="natural" v="water" />
		<tag k="ssr:date" v="2016-05-11" />
		<tag k="ssr:gruppe" v="stilleståendeVann" />
		<tag k="ssr:hovedgruppe" v="ferskvann" />
		<tag k="ssr:stedsnr" v="736143" />
		<tag k="ssr:type" v="tjern" />
	</node>
	<node id="-512952" lat="61.2053305524" lon="6.87168056286">
		<tag k="landuse" v="meadow" />
		<tag k="name" v="Bustagjerde" />
		<tag k="ssr:date" v="2016-05-11" />
		<tag k="ssr:gruppe" v="dyrkamark" />
		<tag k="ssr:hovedgruppe" v="markslag" />
		<tag k="ssr:stedsnr" v="727999" />
		<tag k="ssr:type" v="eng" />
	</node>
	<node id="-512951" lat="61.1946972249" lon="6.8376527835">
		<tag k="name" v="Klinggjerde" />
		<tag k="place" v="locality" />
		<tag k="ssr:date" v="2016-05-11" />
		<tag k="ssr:gruppe" v="dyrkamark" />
		<tag k="ssr:hovedgruppe" v="markslag" />
		<tag k="ssr:stedsnr" v="727994" />
		<tag k="ssr:type" v="utmark" />
	</node>
	<node id="-512950" lat="61.1895638884" lon="6.76928888069">
		<tag k="name" v="Djupapollen" />
		<tag k="place" v="farm" />
		<tag k="ssr:date" v="2016-05-11" />
		<tag k="ssr:gruppe" v="gardsbebyggelse" />
		<tag k="ssr:hovedgruppe" v="bebyggelse" />
		<tag k="ssr:stedsnr" v="727971" />
		<tag k="ssr:type" v="bruk" />
	</node>
	<node id="-512949" lat="61.1905805532" lon="6.84761111173">
		<tag k="name" v="Røysa" />
		<tag k="place" v="hamlet" />
		<tag k="ssr:date" v="2016-05-11" />
		<tag k="ssr:gruppe" v="bebyggelsesområder" />
		<tag k="ssr:hovedgruppe" v="bebyggelse" />
		<tag k="ssr:stedsnr" v="726226" />
		<tag k="ssr:type" v="grend" />
	</node>
	<node id="-512948" lat="61.1734500016" lon="6.87186111115">
		<tag k="name" v="Klovstein" />
		<tag k="natural" v="cape" />
		<tag k="ssr:date" v="2016-05-11" />
		<tag k="ssr:gruppe" v="kystkontur" />
		<tag k="ssr:hovedgruppe" v="sjø" />
		<tag k="ssr:stedsnr" v="722588" />
		<tag k="ssr:type" v="nesISjø" />
	</node>
	<node id="-512947" lat="61.188880555" lon="6.78291666282">
		<tag k="name" v="Kalvehagen" />
		<tag k="natural" v="slope" />
		<tag k="place" v="locality" />
		<tag k="ssr:date" v="2016-05-11" />
		<tag k="ssr:gruppe" v="skråninger" />
		<tag k="ssr:hovedgruppe" v="terreng" />
		<tag k="ssr:stedsnr" v="701827" />
		<tag k="ssr:type" v="li" />
	</node>
	<node id="-512946" lat="61.2670833365" lon="6.93743888505">
		<tag k="fixme" v="consider natural=peak for the most distinct mountains in the district" />
		<tag k="name" v="Hellerbergeggi" />
		<tag k="natural" v="hill" />
		<tag k="place" v="locality" />
		<tag k="ssr:date" v="2016-05-11" />
		<tag k="ssr:gruppe" v="høyder" />
		<tag k="ssr:hovedgruppe" v="terreng" />
		<tag k="ssr:stedsnr" v="701757" />
		<tag k="ssr:type" v="ås" />
	</node>
	<node id="-512945" lat="61.2609972234" lon="6.92219167125">
		<tag k="name" v="Botna" />
		<tag k="ssr:date" v="2016-05-11" />
		<tag k="ssr:gruppe" v="rennendeVann" />
		<tag k="ssr:hovedgruppe" v="ferskvann" />
		<tag k="ssr:stedsnr" v="701746" />
		<tag k="ssr:type" v="bekk" />
		<tag k="waterway" v="stream" />
	</node>
	<node id="-512944" lat="61.2153166682" lon="6.66112222225">
		<tag k="name" v="Langamyri" />
		<tag k="natural" v="wetland" />
		<tag k="ssr:date" v="2016-05-11" />
		<tag k="ssr:gruppe" v="våtmark" />
		<tag k="ssr:hovedgruppe" v="markslag" />
		<tag k="ssr:stedsnr" v="701319" />
		<tag k="ssr:type" v="myr" />
	</node>
	<node id="-512943" lat="61.2177777797" lon="6.59979722139">
		<tag k="alt_name" v="Alskori" />
		<tag k="name" v="Almskori" />
		<tag k="natural" v="valley" />
		<tag k="place" v="locality" />
		<tag k="ssr:date" v="2016-05-11" />
		<tag k="ssr:gruppe" v="senkninger" />
		<tag k="ssr:hovedgruppe" v="terreng" />
		<tag k="ssr:stedsnr" v="677966" />
		<tag k="ssr:type" v="skar" />
	</node>
	<node id="-512942" lat="61.2231861146" lon="6.61400833852">
		<tag k="alt_name" v="Ruudstølen" />
		<tag k="historic" v="shieling" />
		<tag k="name" v="Rudsstølen" />
		<tag k="place" v="locality" />
		<tag k="ssr:date" v="2016-05-11" />
		<tag k="ssr:gruppe" v="gardsbebyggelse" />
		<tag k="ssr:hovedgruppe" v="bebyggelse" />
		<tag k="ssr:stedsnr" v="677549" />
		<tag k="ssr:type" v="seterStøl" />
	</node>
	<node id="-512941" lat="61.2243083294" lon="6.64892777769">
		<tag k="name" v="Kvinna" />
		<tag k="ssr:date" v="2016-05-11" />
		<tag k="ssr:gruppe" v="rennendeVann" />
		<tag k="ssr:hovedgruppe" v="ferskvann" />
		<tag k="ssr:stedsnr" v="677547" />
		<tag k="ssr:type" v="bekk" />
		<tag k="waterway" v="stream" />
	</node>
	<node id="-512940" lat="61.2285583332" lon="6.73353056108">
		<tag k="name" v="Fagradalen" />
		<tag k="natural" v="valley" />
		<tag k="place" v="locality" />
		<tag k="ssr:date" v="2016-05-11" />
		<tag k="ssr:gruppe" v="senkninger" />
		<tag k="ssr:hovedgruppe" v="terreng" />
		<tag k="ssr:stedsnr" v="677545" />
		<tag k="ssr:type" v="dal" />
	</node>
	<node id="-512939" lat="61.2354027808" lon="6.85720000847">
		<tag k="historic" v="shieling" />
		<tag k="name" v="Flya" />
		<tag k="place" v="locality" />
		<tag k="ssr:date" v="2016-05-11" />
		<tag k="ssr:gruppe" v="gardsbebyggelse" />
		<tag k="ssr:hovedgruppe" v="bebyggelse" />
		<tag k="ssr:stedsnr" v="677534" />
		<tag k="ssr:type" v="seterStøl" />
	</node>
	<node id="-512938" lat="61.2188083346" lon="6.75045555147">
		<tag k="alt_name" v="Parisgjelet" />
		<tag k="name" v="Parisgilet" />
		<tag k="natural" v="gorge" />
		<tag k="ssr:date" v="2016-05-10" />
		<tag k="ssr:gruppe" v="senkninger" />
		<tag k="ssr:hovedgruppe" v="terreng" />
		<tag k="ssr:stedsnr" v="676951" />
		<tag k="ssr:type" v="juv" />
	</node>
	<node id="-512937" lat="61.1876972265" lon="6.91019166135">
		<tag k="name" v="Dalsete" />
		<tag k="place" v="locality" />
		<tag k="ssr:date" v="2016-05-10" />
		<tag k="ssr:gruppe" v="gardsbebyggelse" />
		<tag k="ssr:hovedgruppe" v="bebyggelse" />
		<tag k="ssr:stedsnr" v="676924" />
		<tag k="ssr:type" v="eiendom" />
	</node>
	<node id="-512936" lat="61.1808305561" lon="6.89182222356">
		<tag k="alt_name" v="Fatlaelvi" />
		<tag k="name" v="Fatla" />
		<tag k="ssr:date" v="2016-05-10" />
		<tag k="ssr:gruppe" v="rennendeVann" />
		<tag k="ssr:hovedgruppe" v="ferskvann" />
		<tag k="ssr:stedsnr" v="676916" />
		<tag k="ssr:type" v="bekk" />
		<tag k="waterway" v="stream" />
	</node>
	<node id="-512935" lat="61.1743083371" lon="6.88771944147">
		<tag k="name" v="Fatlaviki" />
		<tag k="natural" v="bay" />
		<tag k="ssr:date" v="2016-05-10" />
		<tag k="ssr:gruppe" v="kystkontur" />
		<tag k="ssr:hovedgruppe" v="sjø" />
		<tag k="ssr:stedsnr" v="676915" />
		<tag k="ssr:type" v="vikISjø" />
	</node>
	<node id="-512934" lat="61.1972444474" lon="6.79186110773">
		<tag k="name" v="Volamyri" />
		<tag k="natural" v="wetland" />
		<tag k="ssr:date" v="2016-05-10" />
		<tag k="ssr:gruppe" v="våtmark" />
		<tag k="ssr:hovedgruppe" v="markslag" />
		<tag k="ssr:stedsnr" v="676891" />
		<tag k="ssr:type" v="myr" />
	</node>
	<node id="-512933" lat="61.1995972214" lon="6.81114722853">
		<tag k="historic" v="shieling" />
		<tag k="name" v="Orrasete" />
		<tag k="place" v="locality" />
		<tag k="ssr:date" v="2016-05-10" />
		<tag k="ssr:gruppe" v="gardsbebyggelse" />
		<tag k="ssr:hovedgruppe" v="bebyggelse" />
		<tag k="ssr:stedsnr" v="676892" />
		<tag k="ssr:type" v="seterStøl" />
	</node>
	<node id="-512932" lat="61.1891055551" lon="6.75143889329">
		<tag k="fixme" v="consider natural=peak for the most distinct mountains in the district" />
		<tag k="name" v="Ulvafjellet" />
		<tag k="natural" v="hill" />
		<tag k="place" v="locality" />
		<tag k="ssr:date" v="2016-05-10" />
		<tag k="ssr:gruppe" v="høyder" />
		<tag k="ssr:hovedgruppe" v="terreng" />
		<tag k="ssr:stedsnr" v="676878" />
		<tag k="ssr:type" v="ås" />
	</node>
	<node id="-512931" lat="61.2457750007" lon="6.76090556065">
		<tag k="name" v="Pyttane" />
		<tag k="natural" v="water" />
		<tag k="ssr:date" v="2016-05-10" />
		<tag k="ssr:gruppe" v="stilleståendeVann" />
		<tag k="ssr:hovedgruppe" v="ferskvann" />
		<tag k="ssr:stedsnr" v="676548" />
		<tag k="ssr:type" v="tjern" />
	</node>
	<node id="-512930" lat="61.2733055568" lon="6.79635278288">
		<tag k="name" v="Vogga" />
		<tag k="natural" v="valley" />
		<tag k="place" v="locality" />
		<tag k="ssr:date" v="2016-05-10" />
		<tag k="ssr:gruppe" v="senkninger" />
		<tag k="ssr:hovedgruppe" v="terreng" />
		<tag k="ssr:stedsnr" v="675154" />
		<tag k="ssr:type" v="botn" />
	</node>
	<node id="-512929" lat="61.1753750019" lon="6.87312499533">
		<tag k="landuse" v="meadow" />
		<tag k="name" v="Staurhoggene" />
		<tag k="ssr:date" v="2016-05-10" />
		<tag k="ssr:gruppe" v="dyrkamark" />
		<tag k="ssr:hovedgruppe" v="markslag" />
		<tag k="ssr:stedsnr" v="666982" />
		<tag k="ssr:type" v="eng" />
	</node>
	<node id="-512928" lat="61.2108194436" lon="6.82040555812">
		<tag k="name" v="Ljomhammar" />
		<tag k="natural" v="hill" />
		<tag k="place" v="locality" />
		<tag k="ssr:date" v="2016-05-10" />
		<tag k="ssr:gruppe" v="høyder" />
		<tag k="ssr:hovedgruppe" v="terreng" />
		<tag k="ssr:stedsnr" v="666959" />
		<tag k="ssr:type" v="haug" />
	</node>
	<node id="-512927" lat="61.2099111129" lon="6.63648333622">
		<tag k="name" v="Pergjerdet" />
		<tag k="place" v="farm" />
		<tag k="ssr:date" v="2016-05-10" />
		<tag k="ssr:gruppe" v="gardsbebyggelse" />
		<tag k="ssr:hovedgruppe" v="bebyggelse" />
		<tag k="ssr:stedsnr" v="665058" />
		<tag k="ssr:type" v="bruk" />
	</node>
	<node id="-512926" lat="61.196338889" lon="6.70108055793">
		<tag k="bridge" v="yes" />
		<tag k="layer" v="1" />
		<tag k="name" v="Suphammer" />
		<tag k="ssr:date" v="2016-05-10" />
		<tag k="ssr:gruppe" v="samferdselsanlegg" />
		<tag k="ssr:hovedgruppe" v="infrastruktur" />
		<tag k="ssr:stedsnr" v="652454" />
		<tag k="ssr:type" v="bru" />
	</node>
	<node id="-512925" lat="61.1863511866" lon="6.83460598643">
		<tag k="fixme" v="consider place=hamlet" />
		<tag k="name" v="Nybø" />
		<tag k="place" v="farm" />
		<tag k="ssr:date" v="2017-10-27" />
		<tag k="ssr:gruppe" v="gardsbebyggelse" />
		<tag k="ssr:hovedgruppe" v="bebyggelse" />
		<tag k="ssr:stedsnr" v="640999" />
		<tag k="ssr:type" v="gard" />
	</node>
	<node id="-512924" lat="61.1852722184" lon="6.84269721804">
		<tag k="name" v="Palne" />
		<tag k="place" v="farm" />
		<tag k="ssr:date" v="2016-05-10" />
		<tag k="ssr:gruppe" v="gardsbebyggelse" />
		<tag k="ssr:hovedgruppe" v="bebyggelse" />
		<tag k="ssr:stedsnr" v="640997" />
		<tag k="ssr:type" v="bruk" />
	</node>
	<node id="-512923" lat="61.2605611082" lon="6.93146111533">
		<tag k="name" v="Steina" />
		<tag k="ssr:date" v="2016-05-10" />
		<tag k="ssr:gruppe" v="rennendeVann" />
		<tag k="ssr:hovedgruppe" v="ferskvann" />
		<tag k="ssr:stedsnr" v="640726" />
		<tag k="ssr:type" v="bekk" />
		<tag k="waterway" v="stream" />
	</node>
	<node id="-512922" lat="61.2233750011" lon="6.64940000039">
		<tag k="name" v="Kolmileflatane" />
		<tag k="place" v="locality" />
		<tag k="ssr:date" v="2016-05-10" />
		<tag k="ssr:gruppe" v="flater" />
		<tag k="ssr:hovedgruppe" v="terreng" />
		<tag k="ssr:stedsnr" v="640705" />
		<tag k="ssr:type" v="slette" />
	</node>
	<node id="-512921" lat="61.2120805521" lon="6.89174444358">
		<tag k="name" v="Garlebakkane" />
		<tag k="natural" v="slope" />
		<tag k="place" v="locality" />
		<tag k="ssr:date" v="2016-05-10" />
		<tag k="ssr:gruppe" v="skråninger" />
		<tag k="ssr:hovedgruppe" v="terreng" />
		<tag k="ssr:stedsnr" v="640696" />
		<tag k="ssr:type" v="bakke" />
	</node>
	<node id="-512920" lat="61.1796472182" lon="6.88581111902">
		<tag k="name" v="Fossane" />
		<tag k="natural" v="valley" />
		<tag k="place" v="locality" />
		<tag k="ssr:date" v="2016-05-10" />
		<tag k="ssr:gruppe" v="senkninger" />
		<tag k="ssr:hovedgruppe" v="terreng" />
		<tag k="ssr:stedsnr" v="640541" />
		<tag k="ssr:type" v="dal" />
	</node>
	<node id="-512919" lat="61.2201808671" lon="6.73285158879">
		<tag k="name" v="Gåsedalen" />
		<tag k="natural" v="valley" />
		<tag k="place" v="locality" />
		<tag k="ssr:date" v="2018-07-30" />
		<tag k="ssr:gruppe" v="senkninger" />
		<tag k="ssr:hovedgruppe" v="terreng" />
		<tag k="ssr:stedsnr" v="640492" />
		<tag k="ssr:type" v="dal" />
	</node>
	<node id="-512918" lat="61.2281027808" lon="6.75321943739">
		<tag k="name" v="Myklebruskredene" />
		<tag k="natural" v="valley" />
		<tag k="place" v="locality" />
		<tag k="ssr:date" v="2016-05-10" />
		<tag k="ssr:gruppe" v="senkninger" />
		<tag k="ssr:hovedgruppe" v="terreng" />
		<tag k="ssr:stedsnr" v="640381" />
		<tag k="ssr:type" v="dal" />
	</node>
	<node id="-512917" lat="61.231044446" lon="6.6484472228">
		<tag k="name" v="Seltuftebotn" />
		<tag k="natural" v="valley" />
		<tag k="place" v="locality" />
		<tag k="ssr:date" v="2016-05-10" />
		<tag k="ssr:gruppe" v="senkninger" />
		<tag k="ssr:hovedgruppe" v="terreng" />
		<tag k="ssr:stedsnr" v="640281" />
		<tag k="ssr:type" v="botn" />
	</node>
	<node id="-512916" lat="61.2283833324" lon="6.8051416727">
		<tag k="fixme" v="consider natural=peak for the most distinct mountains in the district" />
		<tag k="name" v="Fagreggi" />
		<tag k="natural" v="hill" />
		<tag k="place" v="locality" />
		<tag k="ssr:date" v="2016-05-10" />
		<tag k="ssr:gruppe" v="høyder" />
		<tag k="ssr:hovedgruppe" v="terreng" />
		<tag k="ssr:stedsnr" v="616973" />
		<tag k="ssr:type" v="ås" />
	</node>
	<node id="-512915" lat="61.2094722192" lon="6.60543889621">
		<tag k="alt_name" v="Flætene" />
		<tag k="name" v="Flete" />
		<tag k="place" v="farm" />
		<tag k="ssr:date" v="2016-05-10" />
		<tag k="ssr:gruppe" v="gardsbebyggelse" />
		<tag k="ssr:hovedgruppe" v="bebyggelse" />
		<tag k="ssr:stedsnr" v="615991" />
		<tag k="ssr:type" v="bruk" />
	</node>
	<node id="-512914" lat="61.2128583369" lon="6.76579444356">
		<tag k="alt_name" v="Knotla" />
		<tag k="name" v="Kotla" />
		<tag k="ssr:date" v="2016-05-10" />
		<tag k="ssr:gruppe" v="rennendeVann" />
		<tag k="ssr:hovedgruppe" v="ferskvann" />
		<tag k="ssr:stedsnr" v="615983" />
		<tag k="ssr:type" v="bekk" />
		<tag k="waterway" v="stream" />
	</node>
	<node id="-512913" lat="61.1999527778" lon="6.72488334121">
		<tag k="name" v="Lauvhaugane" />
		<tag k="natural" v="hill" />
		<tag k="place" v="locality" />
		<tag k="ssr:date" v="2016-05-10" />
		<tag k="ssr:gruppe" v="høyder" />
		<tag k="ssr:hovedgruppe" v="terreng" />
		<tag k="ssr:stedsnr" v="615965" />
		<tag k="ssr:type" v="haug" />
	</node>
	<node id="-512912" lat="61.2040055597" lon="6.69998054732">
		<tag k="alt_name" v="Kvernhusgjelet" />
		<tag k="name" v="Kvernhusgilet" />
		<tag k="natural" v="gorge" />
		<tag k="ssr:date" v="2016-05-10" />
		<tag k="ssr:gruppe" v="senkninger" />
		<tag k="ssr:hovedgruppe" v="terreng" />
		<tag k="ssr:stedsnr" v="615963" />
		<tag k="ssr:type" v="juv" />
	</node>
	<node id="-512911" lat="61.217397222" lon="6.73742499898">
		<tag k="alt_name" v="Gåsedøla" />
		<tag k="name" v="Gåsadøla" />
		<tag k="ssr:date" v="2016-05-10" />
		<tag k="ssr:gruppe" v="rennendeVann" />
		<tag k="ssr:hovedgruppe" v="ferskvann" />
		<tag k="ssr:stedsnr" v="615952" />
		<tag k="ssr:type" v="bekk" />
		<tag k="waterway" v="stream" />
	</node>
	<node id="-512910" lat="61.2169972252" lon="6.74196110931">
		<tag k="fixme" v="consider natural=peak for the most distinct mountains in the district" />
		<tag k="name" v="Hovden" />
		<tag k="natural" v="hill" />
		<tag k="place" v="locality" />
		<tag k="ssr:date" v="2016-05-10" />
		<tag k="ssr:gruppe" v="høyder" />
		<tag k="ssr:hovedgruppe" v="terreng" />
		<tag k="ssr:stedsnr" v="615949" />
		<tag k="ssr:type" v="ås" />
	</node>
	<node id="-512909" lat="61.1853101042" lon="6.81954401258">
		<tag k="alt_name" v="Leikanger" />
		<tag k="amenity" v="place_of_worship" />
		<tag k="denomination" v="lutheran" />
		<tag k="name" v="Leikanger kyrkje" />
		<tag k="religion" v="christian" />
		<tag k="ssr:date" v="2017-10-27" />
		<tag k="ssr:gruppe" v="kulturinstitusjoner" />
		<tag k="ssr:hovedgruppe" v="kultur" />
		<tag k="ssr:stedsnr" v="615932" />
		<tag k="ssr:type" v="kirke" />
	</node>
	<node id="-512908" lat="61.1830138848" lon="6.85175555364">
		<tag k="name" v="Hermansverk" />
		<tag k="place" v="village" />
		<tag k="ssr:date" v="2016-05-10" />
		<tag k="ssr:gruppe" v="bebyggelsesområder" />
		<tag k="ssr:hovedgruppe" v="bebyggelse" />
		<tag k="ssr:stedsnr" v="615923" />
		<tag k="ssr:type" v="tettsted" />
	</node>
	<node id="-512907" lat="61.206027779" lon="6.81068054963">
		<tag k="fixme" v="consider natural=peak for the most distinct mountains in the district" />
		<tag k="name" v="Svolsetfjellet" />
		<tag k="natural" v="hill" />
		<tag k="place" v="locality" />
		<tag k="ssr:date" v="2016-05-10" />
		<tag k="ssr:gruppe" v="høyder" />
		<tag k="ssr:hovedgruppe" v="terreng" />
		<tag k="ssr:stedsnr" v="615896" />
		<tag k="ssr:type" v="ås" />
	</node>
	<node id="-512906" lat="61.1910749999" lon="6.78533332783">
		<tag k="historic" v="shieling" />
		<tag k="name" v="Hamrestølen" />
		<tag k="place" v="locality" />
		<tag k="ssr:date" v="2016-05-10" />
		<tag k="ssr:gruppe" v="gardsbebyggelse" />
		<tag k="ssr:hovedgruppe" v="bebyggelse" />
		<tag k="ssr:stedsnr" v="615875" />
		<tag k="ssr:type" v="seterStøl" />
	</node>
	<node id="-512905" lat="61.1973666701" lon="6.8914805583">
		<tag k="alt_name" v="Bjønstigen" />
		<tag k="highway" v="path" />
		<tag k="name" v="Bjørnstigen" />
		<tag k="ssr:date" v="2016-05-10" />
		<tag k="ssr:gruppe" v="veg" />
		<tag k="ssr:hovedgruppe" v="infrastruktur" />
		<tag k="ssr:stedsnr" v="615869" />
		<tag k="ssr:type" v="sti" />
	</node>
	<node id="-512904" lat="61.1850651384" lon="6.74100900953">
		<tag k="fixme" v="consider place=hamlet" />
		<tag k="name" v="Grinde" />
		<tag k="place" v="farm" />
		<tag k="ssr:date" v="2017-10-27" />
		<tag k="ssr:gruppe" v="gardsbebyggelse" />
		<tag k="ssr:hovedgruppe" v="bebyggelse" />
		<tag k="ssr:stedsnr" v="615864" />
		<tag k="ssr:type" v="gard" />
	</node>
	<node id="-512903" lat="61.2350416676" lon="6.83434444603">
		<tag k="name" v="Nuvedalen" />
		<tag k="natural" v="valley" />
		<tag k="place" v="locality" />
		<tag k="ssr:date" v="2016-05-10" />
		<tag k="ssr:gruppe" v="senkninger" />
		<tag k="ssr:hovedgruppe" v="terreng" />
		<tag k="ssr:stedsnr" v="615532" />
		<tag k="ssr:type" v="dal" />
	</node>
	<node id="-512902" lat="61.3018249985" lon="6.7450944434">
		<tag k="fixme" v="multiple name tags, choose one and add the other to alt_name" />
		<tag k="historic" v="shieling" />
		<tag k="name" v="Øvre Rommedal;Øvstedalen" />
		<tag k="place" v="locality" />
		<tag k="ssr:date" v="2016-05-10" />
		<tag k="ssr:gruppe" v="gardsbebyggelse" />
		<tag k="ssr:hovedgruppe" v="bebyggelse" />
		<tag k="ssr:stedsnr" v="614761" />
		<tag k="ssr:type" v="seterStøl" />
	</node>
	<node id="-512901" lat="61.2950083328" lon="6.80750833309">
		<tag k="name" v="Myrdalsbreen" />
		<tag k="natural" v="glacier" />
		<tag k="ssr:date" v="2016-05-10" />
		<tag k="ssr:gruppe" v="isOgPermafrost" />
		<tag k="ssr:hovedgruppe" v="markslag" />
		<tag k="ssr:stedsnr" v="614255" />
		<tag k="ssr:type" v="isbre" />
	</node>
	<node id="-512900" lat="61.3050750046" lon="6.88576389717">
		<tag k="fixme" v="consider natural=peak for the most distinct mountains in the district" />
		<tag k="name" v="Nonsholten" />
		<tag k="natural" v="hill" />
		<tag k="place" v="locality" />
		<tag k="ssr:date" v="2016-05-10" />
		<tag k="ssr:gruppe" v="høyder" />
		<tag k="ssr:hovedgruppe" v="terreng" />
		<tag k="ssr:stedsnr" v="614244" />
		<tag k="ssr:type" v="ås" />
	</node>
	<node id="-512899" lat="61.2966138902" lon="6.73693055661">
		<tag k="name" v="Strupen" />
		<tag k="natural" v="valley" />
		<tag k="place" v="locality" />
		<tag k="ssr:date" v="2016-05-10" />
		<tag k="ssr:gruppe" v="senkninger" />
		<tag k="ssr:hovedgruppe" v="terreng" />
		<tag k="ssr:stedsnr" v="614239" />
		<tag k="ssr:type" v="botn" />
	</node>
	<node id="-512898" lat="61.3012249971" lon="6.74143332896">
		<tag k="alt_name" v="Vetleeggi" />
		<tag k="name" v="Vetleggi" />
		<tag k="natural" v="hill" />
		<tag k="place" v="locality" />
		<tag k="ssr:date" v="2016-05-10" />
		<tag k="ssr:gruppe" v="høyder" />
		<tag k="ssr:hovedgruppe" v="terreng" />
		<tag k="ssr:stedsnr" v="614236" />
		<tag k="ssr:type" v="haug" />
	</node>
	<node id="-512897" lat="61.2515249984" lon="6.90082777629">
		<tag k="alt_name" v="Vetlevatni" />
		<tag k="name" v="Vetlavatnet" />
		<tag k="natural" v="water" />
		<tag k="ssr:date" v="2016-05-10" />
		<tag k="ssr:gruppe" v="stilleståendeVann" />
		<tag k="ssr:hovedgruppe" v="ferskvann" />
		<tag k="ssr:stedsnr" v="614157" />
		<tag k="ssr:type" v="tjern" />
	</node>
	<node id="-512896" lat="61.2737944486" lon="6.90014443902">
		<tag k="name" v="Britastein" />
		<tag k="natural" v="stone" />
		<tag k="ssr:date" v="2016-05-10" />
		<tag k="ssr:gruppe" v="løsmasseavsetninger" />
		<tag k="ssr:hovedgruppe" v="markslag" />
		<tag k="ssr:stedsnr" v="614132" />
		<tag k="ssr:type" v="stein" />
	</node>
	<node id="-512895" lat="61.1921638924" lon="6.70279999566">
		<tag k="name" v="Verpeneset" />
		<tag k="natural" v="cape" />
		<tag k="ssr:date" v="2016-05-10" />
		<tag k="ssr:gruppe" v="kystkontur" />
		<tag k="ssr:hovedgruppe" v="sjø" />
		<tag k="ssr:stedsnr" v="600293" />
		<tag k="ssr:type" v="nesISjø" />
	</node>
	<node id="-512894" lat="61.1812777796" lon="6.85363054694">
		<tag k="bridge" v="yes" />
		<tag k="layer" v="1" />
		<tag k="name" v="Njøs" />
		<tag k="ssr:date" v="2016-05-10" />
		<tag k="ssr:gruppe" v="samferdselsanlegg" />
		<tag k="ssr:hovedgruppe" v="infrastruktur" />
		<tag k="ssr:stedsnr" v="592499" />
		<tag k="ssr:type" v="bru" />
	</node>
	<node id="-512893" lat="61.2090694422" lon="6.77677221456">
		<tag k="name" v="Trollakyrkja" />
		<tag k="natural" v="hill" />
		<tag k="place" v="locality" />
		<tag k="ssr:date" v="2016-05-10" />
		<tag k="ssr:gruppe" v="høyder" />
		<tag k="ssr:hovedgruppe" v="terreng" />
		<tag k="ssr:stedsnr" v="586966" />
		<tag k="ssr:type" v="haug" />
	</node>
	<node id="-512892" lat="61.1941944476" lon="6.74467499278">
		<tag k="name" v="Kalvahagen" />
		<tag k="place" v="locality" />
		<tag k="ssr:date" v="2016-05-10" />
		<tag k="ssr:gruppe" v="dyrkamark" />
		<tag k="ssr:hovedgruppe" v="markslag" />
		<tag k="ssr:stedsnr" v="586941" />
		<tag k="ssr:type" v="utmark" />
	</node>
	<node id="-512891" lat="61.1822027812" lon="6.77868334052">
		<tag k="name" v="Veten" />
		<tag k="natural" v="slope" />
		<tag k="place" v="locality" />
		<tag k="ssr:date" v="2016-05-10" />
		<tag k="ssr:gruppe" v="skråninger" />
		<tag k="ssr:hovedgruppe" v="terreng" />
		<tag k="ssr:stedsnr" v="586938" />
		<tag k="ssr:type" v="li" />
	</node>
	<node id="-512890" lat="61.1865527785" lon="6.77542777835">
		<tag k="name" v="Haugane" />
		<tag k="place" v="farm" />
		<tag k="ssr:date" v="2016-05-10" />
		<tag k="ssr:gruppe" v="gardsbebyggelse" />
		<tag k="ssr:hovedgruppe" v="bebyggelse" />
		<tag k="ssr:stedsnr" v="580836" />
		<tag k="ssr:type" v="bruk" />
	</node>
	<node id="-512889" lat="61.1830932752" lon="6.79751678604">
		<tag k="loc_name" v="Hanahaug" />
		<tag k="name" v="Hanehaug" />
		<tag k="place" v="locality" />
		<tag k="ssr:date" v="2017-10-27" />
		<tag k="ssr:gruppe" v="gardsbebyggelse" />
		<tag k="ssr:hovedgruppe" v="bebyggelse" />
		<tag k="ssr:stedsnr" v="580821" />
		<tag k="ssr:type" v="eiendom" />
	</node>
	<node id="-512888" lat="61.256691666" lon="6.93031110358">
		<tag k="name" v="Kjøhalvardneset" />
		<tag k="natural" v="cape" />
		<tag k="ssr:date" v="2016-05-10" />
		<tag k="ssr:gruppe" v="ferskvannskontur" />
		<tag k="ssr:hovedgruppe" v="ferskvann" />
		<tag k="ssr:stedsnr" v="580714" />
		<tag k="ssr:type" v="nes" />
	</node>
	<node id="-512887" lat="61.2079888859" lon="6.63802222125">
		<tag k="name" v="Kobbaneset" />
		<tag k="natural" v="cape" />
		<tag k="ssr:date" v="2016-05-10" />
		<tag k="ssr:gruppe" v="kystkontur" />
		<tag k="ssr:hovedgruppe" v="sjø" />
		<tag k="ssr:stedsnr" v="580704" />
		<tag k="ssr:type" v="nesISjø" />
	</node>
	<node id="-512886" lat="61.2163638908" lon="6.65613611131">
		<tag k="name" v="Tjørni" />
		<tag k="natural" v="water" />
		<tag k="ssr:date" v="2016-05-10" />
		<tag k="ssr:gruppe" v="stilleståendeVann" />
		<tag k="ssr:hovedgruppe" v="ferskvann" />
		<tag k="ssr:stedsnr" v="580684" />
		<tag k="ssr:type" v="tjern" />
	</node>
	<node id="-512885" lat="61.2042361105" lon="6.83640000256">
		<tag k="name" v="Raumålsbakkane" />
		<tag k="natural" v="slope" />
		<tag k="place" v="locality" />
		<tag k="ssr:date" v="2016-05-10" />
		<tag k="ssr:gruppe" v="skråninger" />
		<tag k="ssr:hovedgruppe" v="terreng" />
		<tag k="ssr:stedsnr" v="580582" />
		<tag k="ssr:type" v="bakke" />
	</node>
	<node id="-512884" lat="61.2260055535" lon="6.75803055951">
		<tag k="name" v="Myklebruteigane" />
		<tag k="place" v="locality" />
		<tag k="ssr:date" v="2016-05-10" />
		<tag k="ssr:gruppe" v="gardsbebyggelse" />
		<tag k="ssr:hovedgruppe" v="bebyggelse" />
		<tag k="ssr:stedsnr" v="580295" />
		<tag k="ssr:type" v="eiendom" />
	</node>
	<node id="-512883" lat="61.2565444478" lon="6.85989166364">
		<tag k="name" v="Åsebakken" />
		<tag k="natural" v="slope" />
		<tag k="place" v="locality" />
		<tag k="ssr:date" v="2016-05-10" />
		<tag k="ssr:gruppe" v="skråninger" />
		<tag k="ssr:hovedgruppe" v="terreng" />
		<tag k="ssr:stedsnr" v="580132" />
		<tag k="ssr:type" v="bakke" />
	</node>
	<node id="-512882" lat="61.2642666626" lon="6.85930555501">
		<tag k="fixme" v="consider natural=peak for the most distinct mountains in the district" />
		<tag k="name" v="Oksli" />
		<tag k="natural" v="hill" />
		<tag k="place" v="locality" />
		<tag k="ssr:date" v="2016-05-10" />
		<tag k="ssr:gruppe" v="høyder" />
		<tag k="ssr:hovedgruppe" v="terreng" />
		<tag k="ssr:stedsnr" v="580131" />
		<tag k="ssr:type" v="ås" />
	</node>
	<node id="-512881" lat="61.2649027758" lon="6.81431110219">
		<tag k="name" v="Friksdalbotn" />
		<tag k="natural" v="valley" />
		<tag k="place" v="locality" />
		<tag k="ssr:date" v="2016-05-10" />
		<tag k="ssr:gruppe" v="senkninger" />
		<tag k="ssr:hovedgruppe" v="terreng" />
		<tag k="ssr:stedsnr" v="580124" />
		<tag k="ssr:type" v="botn" />
	</node>
	<node id="-512880" lat="61.2689722188" lon="6.87989722429">
		<tag k="name" v="Åsenosi" />
		<tag k="natural" v="ridge" />
		<tag k="place" v="locality" />
		<tag k="ssr:date" v="2016-05-10" />
		<tag k="ssr:gruppe" v="høyder" />
		<tag k="ssr:hovedgruppe" v="terreng" />
		<tag k="ssr:stedsnr" v="566744" />
		<tag k="ssr:type" v="rygg" />
	</node>
	<node id="-512879" lat="61.2148749957" lon="6.83358611199">
		<tag k="name" v="Kinnagrovi" />
		<tag k="ssr:date" v="2016-05-10" />
		<tag k="ssr:gruppe" v="rennendeVann" />
		<tag k="ssr:hovedgruppe" v="ferskvann" />
		<tag k="ssr:stedsnr" v="555971" />
		<tag k="ssr:type" v="bekk" />
		<tag k="waterway" v="stream" />
	</node>
	<node id="-512878" lat="61.201186112" lon="6.69005277803">
		<tag k="name" v="Nygard" />
		<tag k="place" v="farm" />
		<tag k="ssr:date" v="2016-05-10" />
		<tag k="ssr:gruppe" v="gardsbebyggelse" />
		<tag k="ssr:hovedgruppe" v="bebyggelse" />
		<tag k="ssr:stedsnr" v="555962" />
		<tag k="ssr:type" v="bruk" />
	</node>
	<node id="-512877" lat="61.1774055539" lon="6.86580833066">
		<tag k="landuse" v="meadow" />
		<tag k="name" v="Hjellene" />
		<tag k="ssr:date" v="2016-05-10" />
		<tag k="ssr:gruppe" v="dyrkamark" />
		<tag k="ssr:hovedgruppe" v="markslag" />
		<tag k="ssr:stedsnr" v="555907" />
		<tag k="ssr:type" v="eng" />
	</node>
	<node id="-512876" lat="61.1741138863" lon="6.86887499347">
		<tag k="alt_name" v="Klyvi" />
		<tag k="name" v="Kløvi" />
		<tag k="place" v="hamlet" />
		<tag k="ssr:date" v="2016-05-10" />
		<tag k="ssr:gruppe" v="bebyggelsesområder" />
		<tag k="ssr:hovedgruppe" v="bebyggelse" />
		<tag k="ssr:stedsnr" v="555905" />
		<tag k="ssr:type" v="grend" />
	</node>
	<node id="-512875" lat="61.1782055548" lon="6.88368333306">
		<tag k="name" v="Horpa" />
		<tag k="natural" v="cliff" />
		<tag k="ssr:date" v="2016-05-10" />
		<tag k="ssr:gruppe" v="terrengdetaljer" />
		<tag k="ssr:hovedgruppe" v="terreng" />
		<tag k="ssr:stedsnr" v="555898" />
		<tag k="ssr:type" v="stup" />
	</node>
	<node id="-512874" lat="61.2034583366" lon="6.82396388141">
		<tag k="alt_name" v="Vidmyrane" />
		<tag k="name" v="Viddmyrane" />
		<tag k="natural" v="wetland" />
		<tag k="ssr:date" v="2016-05-10" />
		<tag k="ssr:gruppe" v="våtmark" />
		<tag k="ssr:hovedgruppe" v="markslag" />
		<tag k="ssr:stedsnr" v="555876" />
		<tag k="ssr:type" v="myr" />
	</node>
	<node id="-512873" lat="61.191195328" lon="6.81034811224">
		<tag k="alt_name" v="Frekeland" />
		<tag k="fixme" v="consider place=hamlet" />
		<tag k="name" v="Frekaland" />
		<tag k="place" v="farm" />
		<tag k="ssr:date" v="2017-10-27" />
		<tag k="ssr:gruppe" v="gardsbebyggelse" />
		<tag k="ssr:hovedgruppe" v="bebyggelse" />
		<tag k="ssr:stedsnr" v="555867" />
		<tag k="ssr:type" v="gard" />
	</node>
	<node id="-512872" lat="61.1900881932" lon="6.84938142812">
		<tag k="alt_name" v="Røysum" />
		<tag k="fixme" v="consider place=hamlet" />
		<tag k="name" v="Røysane" />
		<tag k="place" v="farm" />
		<tag k="ssr:date" v="2017-10-27" />
		<tag k="ssr:gruppe" v="gardsbebyggelse" />
		<tag k="ssr:hovedgruppe" v="bebyggelse" />
		<tag k="ssr:stedsnr" v="555864" />
		<tag k="ssr:type" v="gard" />
	</node>
	<node id="-512871" lat="61.2299111094" lon="6.74021666626">
		<tag k="fixme" v="consider natural=peak for the most distinct mountains in the district" />
		<tag k="name" v="Fagraeggi" />
		<tag k="natural" v="hill" />
		<tag k="place" v="locality" />
		<tag k="ssr:date" v="2016-05-10" />
		<tag k="ssr:gruppe" v="høyder" />
		<tag k="ssr:hovedgruppe" v="terreng" />
		<tag k="ssr:stedsnr" v="555500" />
		<tag k="ssr:type" v="ås" />
	</node>
	<node id="-512870" lat="61.220458334" lon="6.68835000029">
		<tag k="name" v="Tvangen" />
		<tag k="natural" v="valley" />
		<tag k="place" v="locality" />
		<tag k="ssr:date" v="2016-05-10" />
		<tag k="ssr:gruppe" v="senkninger" />
		<tag k="ssr:hovedgruppe" v="terreng" />
		<tag k="ssr:stedsnr" v="554962" />
		<tag k="ssr:type" v="botn" />
	</node>
	<node id="-512869" lat="61.2149861135" lon="6.70411388626">
		<tag k="fixme" v="consider natural=peak for the most distinct mountains in the district" />
		<tag k="name" v="Mælen" />
		<tag k="natural" v="hill" />
		<tag k="place" v="locality" />
		<tag k="ssr:date" v="2016-05-10" />
		<tag k="ssr:gruppe" v="høyder" />
		<tag k="ssr:hovedgruppe" v="terreng" />
		<tag k="ssr:stedsnr" v="554960" />
		<tag k="ssr:type" v="ås" />
	</node>
	<node id="-512868" lat="61.2545305534" lon="6.89035278694">
		<tag k="alt_name" v="Hovdavatni" />
		<tag k="name" v="Hovdavatnet" />
		<tag k="natural" v="water" />
		<tag k="ssr:date" v="2016-05-10" />
		<tag k="ssr:gruppe" v="stilleståendeVann" />
		<tag k="ssr:hovedgruppe" v="ferskvann" />
		<tag k="ssr:stedsnr" v="553144" />
		<tag k="ssr:type" v="tjern" />
	</node>
	<node id="-512867" lat="61.1811166704" lon="6.88311667167">
		<tag k="name" v="Kyrkja" />
		<tag k="place" v="locality" />
		<tag k="ssr:date" v="2016-05-10" />
		<tag k="ssr:gruppe" v="terrengdetaljer" />
		<tag k="ssr:hovedgruppe" v="terreng" />
		<tag k="ssr:stedsnr" v="544987" />
		<tag k="ssr:type" v="annenTerrengdetalj" />
	</node>
	<node id="-512866" lat="61.2017722192" lon="6.72077222596">
		<tag k="name" v="Hellesetnipa" />
		<tag k="ssr:date" v="2016-05-10" />
		<tag k="ssr:gruppe" v="kulturminner" />
		<tag k="ssr:hovedgruppe" v="kultur" />
		<tag k="ssr:stedsnr" v="525929" />
		<tag k="ssr:type" v="utsiktspunkt" />
		<tag k="tourism" v="viewpoint" />
	</node>
	<node id="-512865" lat="61.2552249962" lon="6.63671666173">
		<tag k="name" v="Syrinja" />
		<tag k="ssr:date" v="2016-05-10" />
		<tag k="ssr:gruppe" v="rennendeVann" />
		<tag k="ssr:hovedgruppe" v="ferskvann" />
		<tag k="ssr:stedsnr" v="519737" />
		<tag k="ssr:type" v="bekk" />
		<tag k="waterway" v="stream" />
	</node>
	<node id="-512864" lat="61.2551499971" lon="6.93293055634">
		<tag k="name" v="Sanden" />
		<tag k="natural" v="beach" />
		<tag k="ssr:date" v="2016-05-10" />
		<tag k="ssr:gruppe" v="ferskvannskontur" />
		<tag k="ssr:hovedgruppe" v="ferskvann" />
		<tag k="ssr:stedsnr" v="519723" />
		<tag k="ssr:type" v="strand" />
	</node>
	<node id="-512863" lat="61.1977555594" lon="6.82995278283">
		<tag k="name" v="Furuteigen" />
		<tag k="natural" v="slope" />
		<tag k="place" v="locality" />
		<tag k="ssr:date" v="2016-05-10" />
		<tag k="ssr:gruppe" v="skråninger" />
		<tag k="ssr:hovedgruppe" v="terreng" />
		<tag k="ssr:stedsnr" v="519644" />
		<tag k="ssr:type" v="li" />
	</node>
	<node id="-512862" lat="61.2203277752" lon="6.64454165955">
		<tag k="name" v="Sjonarhaug" />
		<tag k="natural" v="hill" />
		<tag k="place" v="locality" />
		<tag k="ssr:date" v="2016-05-10" />
		<tag k="ssr:gruppe" v="høyder" />
		<tag k="ssr:hovedgruppe" v="terreng" />
		<tag k="ssr:stedsnr" v="519530" />
		<tag k="ssr:type" v="haug" />
	</node>
	<node id="-512861" lat="61.1765638903" lon="6.88530278532">
		<tag k="name" v="Fatlauri" />
		<tag k="natural" v="scree" />
		<tag k="ssr:date" v="2016-05-10" />
		<tag k="ssr:gruppe" v="løsmasseavsetninger" />
		<tag k="ssr:hovedgruppe" v="markslag" />
		<tag k="ssr:stedsnr" v="519531" />
		<tag k="ssr:type" v="ur" />
	</node>
	<node id="-512860" lat="61.2491250016" lon="6.63222776913">
		<tag k="name" v="Munkatungene" />
		<tag k="natural" v="valley" />
		<tag k="place" v="locality" />
		<tag k="ssr:date" v="2016-05-10" />
		<tag k="ssr:gruppe" v="senkninger" />
		<tag k="ssr:hovedgruppe" v="terreng" />
		<tag k="ssr:stedsnr" v="519522" />
		<tag k="ssr:type" v="dal" />
	</node>
	<node id="-512859" lat="61.2808500015" lon="6.7260722216">
		<tag k="fixme" v="consider natural=peak for the most distinct mountains in the district" />
		<tag k="name" v="Husbyggjefjellet" />
		<tag k="natural" v="hill" />
		<tag k="ssr:date" v="2016-05-10" />
		<tag k="ssr:gruppe" v="høyder" />
		<tag k="ssr:hovedgruppe" v="terreng" />
		<tag k="ssr:stedsnr" v="506717" />
		<tag k="ssr:type" v="topp" />
	</node>
	<node id="-512858" lat="61.1894888922" lon="6.85626388308">
		<tag k="fixme" v="consider place=hamlet" />
		<tag k="name" v="Brundene" />
		<tag k="place" v="village" />
		<tag k="ssr:date" v="2016-05-10" />
		<tag k="ssr:gruppe" v="bebyggelsesområder" />
		<tag k="ssr:hovedgruppe" v="bebyggelse" />
		<tag k="ssr:stedsnr" v="506487" />
		<tag k="ssr:type" v="bygdelagBygd" />
	</node>
	<node id="-512857" lat="61.2264972213" lon="6.76780832961">
		<tag k="fixme" v="consider natural=peak for the most distinct mountains in the district" />
		<tag k="name" v="Myklebruholten" />
		<tag k="natural" v="hill" />
		<tag k="place" v="locality" />
		<tag k="ssr:date" v="2016-05-10" />
		<tag k="ssr:gruppe" v="høyder" />
		<tag k="ssr:hovedgruppe" v="terreng" />
		<tag k="ssr:stedsnr" v="495961" />
		<tag k="ssr:type" v="ås" />
	</node>
	<node id="-512856" lat="61.2215555524" lon="6.79619167502">
		<tag k="name" v="Rjupeskar" />
		<tag k="natural" v="valley" />
		<tag k="place" v="locality" />
		<tag k="ssr:date" v="2016-05-10" />
		<tag k="ssr:gruppe" v="senkninger" />
		<tag k="ssr:hovedgruppe" v="terreng" />
		<tag k="ssr:stedsnr" v="494941" />
		<tag k="ssr:type" v="skar" />
	</node>
	<node id="-512855" lat="61.1835166636" lon="6.88851665803">
		<tag k="name" v="Oreholene" />
		<tag k="natural" v="valley" />
		<tag k="place" v="locality" />
		<tag k="ssr:date" v="2016-05-10" />
		<tag k="ssr:gruppe" v="senkninger" />
		<tag k="ssr:hovedgruppe" v="terreng" />
		<tag k="ssr:stedsnr" v="494934" />
		<tag k="ssr:type" v="søkk" />
	</node>
	<node id="-512854" lat="61.2051861112" lon="6.88716111006">
		<tag k="name" v="Lysedalen" />
		<tag k="natural" v="valley" />
		<tag k="place" v="locality" />
		<tag k="ssr:date" v="2016-05-10" />
		<tag k="ssr:gruppe" v="senkninger" />
		<tag k="ssr:hovedgruppe" v="terreng" />
		<tag k="ssr:stedsnr" v="494896" />
		<tag k="ssr:type" v="dal" />
	</node>
	<node id="-512853" lat="61.194127782" lon="6.74376667344">
		<tag k="name" v="Øyane" />
		<tag k="place" v="island" />
		<tag k="ssr:date" v="2016-05-10" />
		<tag k="ssr:gruppe" v="ferskvannskontur" />
		<tag k="ssr:hovedgruppe" v="ferskvann" />
		<tag k="ssr:stedsnr" v="494891" />
		<tag k="ssr:type" v="øygruppe" />
	</node>
	<node id="-512852" lat="61.1985444429" lon="6.89959167246">
		<tag k="name" v="Bergsetmyrane" />
		<tag k="natural" v="wetland" />
		<tag k="ssr:date" v="2016-05-10" />
		<tag k="ssr:gruppe" v="våtmark" />
		<tag k="ssr:hovedgruppe" v="markslag" />
		<tag k="ssr:stedsnr" v="494880" />
		<tag k="ssr:type" v="myr" />
	</node>
	<node id="-512851" lat="61.2330166658" lon="6.76619167013">
		<tag k="alt_name" v="Gråurane" />
		<tag k="name" v="Gråurdane" />
		<tag k="natural" v="scree" />
		<tag k="ssr:date" v="2016-05-10" />
		<tag k="ssr:gruppe" v="løsmasseavsetninger" />
		<tag k="ssr:hovedgruppe" v="markslag" />
		<tag k="ssr:stedsnr" v="494520" />
		<tag k="ssr:type" v="ur" />
	</node>
	<node id="-512850" lat="61.2471666705" lon="6.86782777476">
		<tag k="name" v="Reiseta" />
		<tag k="ssr:date" v="2016-05-10" />
		<tag k="ssr:gruppe" v="rennendeVann" />
		<tag k="ssr:hovedgruppe" v="ferskvann" />
		<tag k="ssr:stedsnr" v="494511" />
		<tag k="ssr:type" v="bekk" />
		<tag k="waterway" v="stream" />
	</node>
	<node id="-512849" lat="61.2533861087" lon="6.87333333699">
		<tag k="historic" v="shieling" />
		<tag k="name" v="Hovden" />
		<tag k="place" v="locality" />
		<tag k="ssr:date" v="2016-05-10" />
		<tag k="ssr:gruppe" v="gardsbebyggelse" />
		<tag k="ssr:hovedgruppe" v="bebyggelse" />
		<tag k="ssr:stedsnr" v="493177" />
		<tag k="ssr:type" v="seterStøl" />
	</node>
	<node id="-512848" lat="61.2530083317" lon="6.90908056285">
		<tag k="name" v="Sumhaug" />
		<tag k="place" v="isolated_dwelling" />
		<tag k="ssr:date" v="2016-05-10" />
		<tag k="ssr:gruppe" v="bolighus" />
		<tag k="ssr:hovedgruppe" v="bebyggelse" />
		<tag k="ssr:stedsnr" v="493176" />
		<tag k="ssr:type" v="fritidsbolig" />
	</node>
	<node id="-512847" lat="61.257022226" lon="6.70046943615">
		<tag k="alt_name" v="Stavafjellet" />
		<tag k="fixme" v="consider natural=peak for the most distinct mountains in the district" />
		<tag k="name" v="Stav" />
		<tag k="natural" v="hill" />
		<tag k="place" v="locality" />
		<tag k="ssr:date" v="2016-05-10" />
		<tag k="ssr:gruppe" v="høyder" />
		<tag k="ssr:hovedgruppe" v="terreng" />
		<tag k="ssr:stedsnr" v="493162" />
		<tag k="ssr:type" v="fjell" />
	</node>
	<node id="-512846" lat="61.285679897" lon="6.84868638642">
		<tag k="name" v="Myrdalsvotni" />
		<tag k="natural" v="water" />
		<tag k="ssr:date" v="2019-03-05" />
		<tag k="ssr:gruppe" v="stilleståendeVann" />
		<tag k="ssr:hovedgruppe" v="ferskvann" />
		<tag k="ssr:stedsnr" v="493145" />
		<tag k="ssr:type" v="vann" />
		<tag k="water" v="lake" />
	</node>
	<node id="-512845" lat="61.1804583334" lon="6.87363889093">
		<tag k="name" v="Bjørgahaug" />
		<tag k="ssr:date" v="2016-05-10" />
		<tag k="ssr:gruppe" v="kulturminner" />
		<tag k="ssr:hovedgruppe" v="kultur" />
		<tag k="ssr:stedsnr" v="484995" />
		<tag k="ssr:type" v="utsiktspunkt" />
		<tag k="tourism" v="viewpoint" />
	</node>
	<node id="-512844" lat="61.1853555525" lon="6.87213611883">
		<tag k="name" v="Bogagrovi" />
		<tag k="ssr:date" v="2016-05-10" />
		<tag k="ssr:gruppe" v="rennendeVann" />
		<tag k="ssr:hovedgruppe" v="ferskvann" />
		<tag k="ssr:stedsnr" v="484989" />
		<tag k="ssr:type" v="bekk" />
		<tag k="waterway" v="stream" />
	</node>
	<node id="-512843" lat="61.1896000023" lon="6.85943611173">
		<tag k="bridge" v="yes" />
		<tag k="layer" v="1" />
		<tag k="name" v="Sygna" />
		<tag k="ssr:date" v="2016-05-10" />
		<tag k="ssr:gruppe" v="samferdselsanlegg" />
		<tag k="ssr:hovedgruppe" v="infrastruktur" />
		<tag k="ssr:stedsnr" v="470449" />
		<tag k="ssr:type" v="bru" />
	</node>
	<node id="-512842" lat="61.1828361078" lon="6.76704722299">
		<tag k="name" v="Korrane" />
		<tag k="natural" v="slope" />
		<tag k="place" v="locality" />
		<tag k="ssr:date" v="2016-05-10" />
		<tag k="ssr:gruppe" v="skråninger" />
		<tag k="ssr:hovedgruppe" v="terreng" />
		<tag k="ssr:stedsnr" v="465944" />
		<tag k="ssr:type" v="bakke" />
	</node>
	<node id="-512841" lat="61.2488472243" lon="6.91496667294">
		<tag k="name" v="Leite" />
		<tag k="place" v="locality" />
		<tag k="ssr:date" v="2016-05-10" />
		<tag k="ssr:gruppe" v="flater" />
		<tag k="ssr:hovedgruppe" v="terreng" />
		<tag k="ssr:stedsnr" v="459719" />
		<tag k="ssr:type" v="slette" />
	</node>
	<node id="-512840" lat="61.2123388919" lon="6.59741110322">
		<tag k="name" v="Basdalen" />
		<tag k="natural" v="valley" />
		<tag k="place" v="locality" />
		<tag k="ssr:date" v="2016-05-10" />
		<tag k="ssr:gruppe" v="senkninger" />
		<tag k="ssr:hovedgruppe" v="terreng" />
		<tag k="ssr:stedsnr" v="459558" />
		<tag k="ssr:type" v="dal" />
	</node>
	<node id="-512839" lat="61.2196027744" lon="6.62695833928">
		<tag k="name" v="Raunesteinholten" />
		<tag k="natural" v="hill" />
		<tag k="place" v="locality" />
		<tag k="ssr:date" v="2016-05-10" />
		<tag k="ssr:gruppe" v="høyder" />
		<tag k="ssr:hovedgruppe" v="terreng" />
		<tag k="ssr:stedsnr" v="459509" />
		<tag k="ssr:type" v="haug" />
	</node>
	<node id="-512838" lat="61.2354805581" lon="6.74943610627">
		<tag k="name" v="Budeiehaug" />
		<tag k="natural" v="hill" />
		<tag k="place" v="locality" />
		<tag k="ssr:date" v="2016-05-10" />
		<tag k="ssr:gruppe" v="høyder" />
		<tag k="ssr:hovedgruppe" v="terreng" />
		<tag k="ssr:stedsnr" v="459278" />
		<tag k="ssr:type" v="haug" />
	</node>
	<node id="-512837" lat="61.2584222245" lon="6.84879444704">
		<tag k="name" v="Haugali" />
		<tag k="natural" v="slope" />
		<tag k="place" v="locality" />
		<tag k="ssr:date" v="2016-05-10" />
		<tag k="ssr:gruppe" v="skråninger" />
		<tag k="ssr:hovedgruppe" v="terreng" />
		<tag k="ssr:stedsnr" v="459143" />
		<tag k="ssr:type" v="li" />
	</node>
	<node id="-512835" lat="61.2074249965" lon="6.61263056488">
		<tag k="name" v="Sanden" />
		<tag k="place" v="farm" />
		<tag k="ssr:date" v="2016-05-10" />
		<tag k="ssr:gruppe" v="gardsbebyggelse" />
		<tag k="ssr:hovedgruppe" v="bebyggelse" />
		<tag k="ssr:stedsnr" v="435000" />
		<tag k="ssr:type" v="bruk" />
	</node>
	<node id="-512834" lat="61.21755833" lon="6.91184444729">
		<tag k="alt_name" v="Lomtjernene" />
		<tag k="name" v="Lomtjørni" />
		<tag k="natural" v="water" />
		<tag k="ssr:date" v="2016-05-10" />
		<tag k="ssr:gruppe" v="stilleståendeVann" />
		<tag k="ssr:hovedgruppe" v="ferskvann" />
		<tag k="ssr:stedsnr" v="434992" />
		<tag k="ssr:type" v="tjern" />
	</node>
	<node id="-512833" lat="61.211541669" lon="6.91522221384">
		<tag k="name" v="Slettadalen" />
		<tag k="natural" v="valley" />
		<tag k="place" v="locality" />
		<tag k="ssr:date" v="2016-05-10" />
		<tag k="ssr:gruppe" v="senkninger" />
		<tag k="ssr:hovedgruppe" v="terreng" />
		<tag k="ssr:stedsnr" v="434980" />
		<tag k="ssr:type" v="dal" />
	</node>
	<node id="-512832" lat="61.2148888848" lon="6.6455138838">
		<tag k="alt_name" v="Myrset" />
		<tag k="historic" v="shieling" />
		<tag k="name" v="Myrsete" />
		<tag k="place" v="locality" />
		<tag k="ssr:date" v="2016-05-10" />
		<tag k="ssr:gruppe" v="gardsbebyggelse" />
		<tag k="ssr:hovedgruppe" v="bebyggelse" />
		<tag k="ssr:stedsnr" v="434943" />
		<tag k="ssr:type" v="seterStøl" />
	</node>
	<node id="-512831" lat="61.21767222" lon="6.88732778415">
		<tag k="name" v="Renndalane" />
		<tag k="natural" v="valley" />
		<tag k="place" v="locality" />
		<tag k="ssr:date" v="2016-05-10" />
		<tag k="ssr:gruppe" v="senkninger" />
		<tag k="ssr:hovedgruppe" v="terreng" />
		<tag k="ssr:stedsnr" v="434940" />
		<tag k="ssr:type" v="dal" />
	</node>
	<node id="-512830" lat="61.1834976335" lon="6.76304276339">
		<tag k="fixme" v="consider place=hamlet" />
		<tag k="name" v="Fosshagen" />
		<tag k="place" v="farm" />
		<tag k="ssr:date" v="2017-10-27" />
		<tag k="ssr:gruppe" v="gardsbebyggelse" />
		<tag k="ssr:hovedgruppe" v="bebyggelse" />
		<tag k="ssr:stedsnr" v="434929" />
		<tag k="ssr:type" v="gard" />
	</node>
	<node id="-512829" lat="61.1824665805" lon="6.78950776463">
		<tag k="fixme" v="consider place=hamlet" />
		<tag k="name" v="Indre Hamre" />
		<tag k="place" v="farm" />
		<tag k="ssr:date" v="2017-10-27" />
		<tag k="ssr:gruppe" v="gardsbebyggelse" />
		<tag k="ssr:hovedgruppe" v="bebyggelse" />
		<tag k="ssr:stedsnr" v="434928" />
		<tag k="ssr:type" v="gard" />
	</node>
	<node id="-512828" lat="61.1883138854" lon="6.88855000901">
		<tag k="alt_name" v="Skarsmyri" />
		<tag k="name" v="Skardsmyri" />
		<tag k="natural" v="wetland" />
		<tag k="ssr:date" v="2016-05-10" />
		<tag k="ssr:gruppe" v="våtmark" />
		<tag k="ssr:hovedgruppe" v="markslag" />
		<tag k="ssr:stedsnr" v="434926" />
		<tag k="ssr:type" v="myr" />
	</node>
	<node id="-512827" lat="61.1877666637" lon="6.901258331">
		<tag k="fixme" v="consider natural=peak for the most distinct mountains in the district" />
		<tag k="name" v="Svarthamrane" />
		<tag k="natural" v="hill" />
		<tag k="place" v="locality" />
		<tag k="ssr:date" v="2016-05-10" />
		<tag k="ssr:gruppe" v="høyder" />
		<tag k="ssr:hovedgruppe" v="terreng" />
		<tag k="ssr:stedsnr" v="434923" />
		<tag k="ssr:type" v="ås" />
	</node>
	<node id="-512826" lat="61.1851111087" lon="6.90141665928">
		<tag k="name" v="Stemmedalen" />
		<tag k="natural" v="valley" />
		<tag k="place" v="locality" />
		<tag k="ssr:date" v="2016-05-10" />
		<tag k="ssr:gruppe" v="senkninger" />
		<tag k="ssr:hovedgruppe" v="terreng" />
		<tag k="ssr:stedsnr" v="434921" />
		<tag k="ssr:type" v="dal" />
	</node>
	<node id="-512825" lat="61.1867916654" lon="6.70875277835">
		<tag k="name" v="Verken" />
		<tag k="place" v="farm" />
		<tag k="ssr:date" v="2016-05-10" />
		<tag k="ssr:gruppe" v="gardsbebyggelse" />
		<tag k="ssr:hovedgruppe" v="bebyggelse" />
		<tag k="ssr:stedsnr" v="434850" />
		<tag k="ssr:type" v="bruk" />
	</node>
	<node id="-512824" lat="61.1847965779" lon="6.74918280014">
		<tag k="fixme" v="consider place=hamlet" />
		<tag k="name" v="Huke" />
		<tag k="place" v="farm" />
		<tag k="ssr:date" v="2017-10-27" />
		<tag k="ssr:gruppe" v="gardsbebyggelse" />
		<tag k="ssr:hovedgruppe" v="bebyggelse" />
		<tag k="ssr:stedsnr" v="434843" />
		<tag k="ssr:type" v="gard" />
	</node>
	<node id="-512823" lat="61.2167333348" lon="6.6609611159">
		<tag k="alt_name" v="Koveelvi" />
		<tag k="name" v="Kovelvi" />
		<tag k="ssr:date" v="2016-05-10" />
		<tag k="ssr:gruppe" v="rennendeVann" />
		<tag k="ssr:hovedgruppe" v="ferskvann" />
		<tag k="ssr:stedsnr" v="434525" />
		<tag k="ssr:type" v="bekk" />
		<tag k="waterway" v="stream" />
	</node>
	<node id="-512822" lat="61.2462611087" lon="6.82162223099">
		<tag k="name" v="Blankavatni" />
		<tag k="natural" v="water" />
		<tag k="ssr:date" v="2016-05-10" />
		<tag k="ssr:gruppe" v="stilleståendeVann" />
		<tag k="ssr:hovedgruppe" v="ferskvann" />
		<tag k="ssr:stedsnr" v="434498" />
		<tag k="ssr:type" v="tjern" />
	</node>
	<node id="-512821" lat="61.2690805548" lon="6.8222222263">
		<tag k="name" v="Røsebotna" />
		<tag k="ssr:date" v="2016-05-10" />
		<tag k="ssr:gruppe" v="rennendeVann" />
		<tag k="ssr:hovedgruppe" v="ferskvann" />
		<tag k="ssr:stedsnr" v="433513" />
		<tag k="ssr:type" v="bekk" />
		<tag k="waterway" v="stream" />
	</node>
	<node id="-512820" lat="61.2518388892" lon="6.93190556364">
		<tag k="alt_name" v="Fjærlandsete" />
		<tag k="name" v="Fjærlandssete" />
		<tag k="place" v="isolated_dwelling" />
		<tag k="ssr:date" v="2016-05-10" />
		<tag k="ssr:gruppe" v="bolighus" />
		<tag k="ssr:hovedgruppe" v="bebyggelse" />
		<tag k="ssr:stedsnr" v="433157" />
		<tag k="ssr:type" v="fritidsbolig" />
	</node>
	<node id="-512819" lat="61.2651777793" lon="6.66376110758">
		<tag k="fixme" v="consider natural=peak for the most distinct mountains in the district" />
		<tag k="name" v="Børtnesholten" />
		<tag k="natural" v="hill" />
		<tag k="place" v="locality" />
		<tag k="ssr:date" v="2016-05-10" />
		<tag k="ssr:gruppe" v="høyder" />
		<tag k="ssr:hovedgruppe" v="terreng" />
		<tag k="ssr:stedsnr" v="432142" />
		<tag k="ssr:type" v="ås" />
	</node>
	<node id="-512818" lat="61.2591972222" lon="6.64773611314">
		<tag k="name" v="Trodalen" />
		<tag k="natural" v="valley" />
		<tag k="place" v="locality" />
		<tag k="ssr:date" v="2016-05-10" />
		<tag k="ssr:gruppe" v="senkninger" />
		<tag k="ssr:hovedgruppe" v="terreng" />
		<tag k="ssr:stedsnr" v="432140" />
		<tag k="ssr:type" v="dal" />
	</node>
	<node id="-512817" lat="61.210361113" lon="6.77504166269">
		<tag k="name" v="Vasslihaugane" />
		<tag k="natural" v="valley" />
		<tag k="place" v="locality" />
		<tag k="ssr:date" v="2016-05-10" />
		<tag k="ssr:gruppe" v="senkninger" />
		<tag k="ssr:hovedgruppe" v="terreng" />
		<tag k="ssr:stedsnr" v="423996" />
		<tag k="ssr:type" v="botn" />
	</node>
	<node id="-512816" lat="61.178394446" lon="6.85785555091">
		<tag k="name" v="Skjeljaviki" />
		<tag k="natural" v="bay" />
		<tag k="ssr:date" v="2016-05-10" />
		<tag k="ssr:gruppe" v="kystkontur" />
		<tag k="ssr:hovedgruppe" v="sjø" />
		<tag k="ssr:stedsnr" v="423988" />
		<tag k="ssr:type" v="vikISjø" />
	</node>
	<node id="-512815" lat="61.2208750017" lon="6.8122583239">
		<tag k="name" v="Oreveitane" />
		<tag k="natural" v="slope" />
		<tag k="place" v="locality" />
		<tag k="ssr:date" v="2016-05-10" />
		<tag k="ssr:gruppe" v="skråninger" />
		<tag k="ssr:hovedgruppe" v="terreng" />
		<tag k="ssr:stedsnr" v="423976" />
		<tag k="ssr:type" v="li" />
	</node>
	<node id="-512814" lat="61.1958250022" lon="6.81671388751">
		<tag k="historic" v="shieling" />
		<tag k="name" v="Kleppa" />
		<tag k="place" v="locality" />
		<tag k="ssr:date" v="2016-05-10" />
		<tag k="ssr:gruppe" v="gardsbebyggelse" />
		<tag k="ssr:hovedgruppe" v="bebyggelse" />
		<tag k="ssr:stedsnr" v="421891" />
		<tag k="ssr:type" v="seterStøl" />
	</node>
	<node id="-512813" lat="61.2608972193" lon="6.88044165857">
		<tag k="name" v="Pipehaug" />
		<tag k="natural" v="hill" />
		<tag k="place" v="locality" />
		<tag k="ssr:date" v="2016-05-10" />
		<tag k="ssr:gruppe" v="høyder" />
		<tag k="ssr:hovedgruppe" v="terreng" />
		<tag k="ssr:stedsnr" v="263737" />
		<tag k="ssr:type" v="haug" />
	</node>
	<node id="-512812" lat="61.210102142" lon="6.6251810914">
		<tag k="alt_name" v="Eithungjerde" />
		<tag k="fixme" v="consider place=hamlet" />
		<tag k="name" v="Eitorngjerdet" />
		<tag k="place" v="farm" />
		<tag k="ssr:date" v="2017-10-27" />
		<tag k="ssr:gruppe" v="gardsbebyggelse" />
		<tag k="ssr:hovedgruppe" v="bebyggelse" />
		<tag k="ssr:stedsnr" v="252998" />
		<tag k="ssr:type" v="gard" />
	</node>
	<node id="-512811" lat="61.2084431257" lon="6.5986646219">
		<tag k="fixme" v="consider place=hamlet" />
		<tag k="name" v="Hella" />
		<tag k="place" v="farm" />
		<tag k="ssr:date" v="2017-10-27" />
		<tag k="ssr:gruppe" v="gardsbebyggelse" />
		<tag k="ssr:hovedgruppe" v="bebyggelse" />
		<tag k="ssr:stedsnr" v="252994" />
		<tag k="ssr:type" v="gard" />
	</node>
	<node id="-512810" lat="61.2117361074" lon="6.71630556062">
		<tag k="name" v="Yksnavatnet" />
		<tag k="natural" v="water" />
		<tag k="ssr:date" v="2016-05-10" />
		<tag k="ssr:gruppe" v="stilleståendeVann" />
		<tag k="ssr:hovedgruppe" v="ferskvann" />
		<tag k="ssr:stedsnr" v="252981" />
		<tag k="ssr:type" v="tjern" />
	</node>
	<node id="-512809" lat="61.2127888873" lon="6.90136112004">
		<tag k="name" v="Nummeskar" />
		<tag k="natural" v="valley" />
		<tag k="place" v="locality" />
		<tag k="ssr:date" v="2016-05-10" />
		<tag k="ssr:gruppe" v="senkninger" />
		<tag k="ssr:hovedgruppe" v="terreng" />
		<tag k="ssr:stedsnr" v="252978" />
		<tag k="ssr:type" v="skar" />
	</node>
	<node id="-512808" lat="61.2117500025" lon="6.8442861166">
		<tag k="alt_name" v="Migandegrovi" />
		<tag k="name" v="Migande" />
		<tag k="ssr:date" v="2016-05-10" />
		<tag k="ssr:gruppe" v="rennendeVann" />
		<tag k="ssr:hovedgruppe" v="ferskvann" />
		<tag k="ssr:stedsnr" v="252972" />
		<tag k="ssr:type" v="bekk" />
		<tag k="waterway" v="stream" />
	</node>
	<node id="-512807" lat="61.223288892" lon="6.85603333643">
		<tag k="fixme" v="consider natural=peak for the most distinct mountains in the district" />
		<tag k="name" v="Brennandeholten" />
		<tag k="natural" v="hill" />
		<tag k="place" v="locality" />
		<tag k="ssr:date" v="2016-05-10" />
		<tag k="ssr:gruppe" v="høyder" />
		<tag k="ssr:hovedgruppe" v="terreng" />
		<tag k="ssr:stedsnr" v="252950" />
		<tag k="ssr:type" v="ås" />
	</node>
	<node id="-512806" lat="61.2201916664" lon="6.89688056476">
		<tag k="name" v="Snauskoltane" />
		<tag k="natural" v="hill" />
		<tag k="place" v="locality" />
		<tag k="ssr:date" v="2016-05-10" />
		<tag k="ssr:gruppe" v="høyder" />
		<tag k="ssr:hovedgruppe" v="terreng" />
		<tag k="ssr:stedsnr" v="252924" />
		<tag k="ssr:type" v="haug" />
	</node>
	<node id="-512805" lat="61.186637715" lon="6.86358390604">
		<tag k="fixme" v="consider place=hamlet" />
		<tag k="name" v="Gjerde" />
		<tag k="place" v="farm" />
		<tag k="ssr:date" v="2017-10-27" />
		<tag k="ssr:gruppe" v="gardsbebyggelse" />
		<tag k="ssr:hovedgruppe" v="bebyggelse" />
		<tag k="ssr:stedsnr" v="252911" />
		<tag k="ssr:type" v="gard" />
	</node>
	<node id="-512804" lat="61.2033361068" lon="6.77871944654">
		<tag k="fixme" v="consider natural=peak for the most distinct mountains in the district" />
		<tag k="name" v="Svartasva" />
		<tag k="natural" v="hill" />
		<tag k="place" v="locality" />
		<tag k="ssr:date" v="2016-05-10" />
		<tag k="ssr:gruppe" v="høyder" />
		<tag k="ssr:hovedgruppe" v="terreng" />
		<tag k="ssr:stedsnr" v="252891" />
		<tag k="ssr:type" v="ås" />
	</node>
	<node id="-512803" lat="61.1918305557" lon="6.70343611333">
		<tag k="name" v="Neset" />
		<tag k="place" v="locality" />
		<tag k="ssr:date" v="2016-05-10" />
		<tag k="ssr:gruppe" v="gardsbebyggelse" />
		<tag k="ssr:hovedgruppe" v="bebyggelse" />
		<tag k="ssr:stedsnr" v="252879" />
		<tag k="ssr:type" v="byggForJordbrukFiskeOgFangst" />
	</node>
	<node id="-512802" lat="61.1933583315" lon="6.75539722917">
		<tag k="fixme" v="consider natural=peak for the most distinct mountains in the district" />
		<tag k="name" v="Hovdanosi" />
		<tag k="natural" v="hill" />
		<tag k="place" v="locality" />
		<tag k="ssr:date" v="2016-05-10" />
		<tag k="ssr:gruppe" v="høyder" />
		<tag k="ssr:hovedgruppe" v="terreng" />
		<tag k="ssr:stedsnr" v="252873" />
		<tag k="ssr:type" v="ås" />
	</node>
	<node id="-512801" lat="61.1932999973" lon="6.7605555621">
		<tag k="historic" v="shieling" />
		<tag k="name" v="Fosstølen" />
		<tag k="place" v="locality" />
		<tag k="ssr:date" v="2016-05-10" />
		<tag k="ssr:gruppe" v="gardsbebyggelse" />
		<tag k="ssr:hovedgruppe" v="bebyggelse" />
		<tag k="ssr:stedsnr" v="252871" />
		<tag k="ssr:type" v="seterStøl" />
	</node>
	<node id="-512800" lat="61.1895250042" lon="6.87814166366">
		<tag k="fixme" v="consider natural=peak for the most distinct mountains in the district" />
		<tag k="name" v="Seljeskredfjellet" />
		<tag k="natural" v="hill" />
		<tag k="place" v="locality" />
		<tag k="ssr:date" v="2016-05-10" />
		<tag k="ssr:gruppe" v="høyder" />
		<tag k="ssr:hovedgruppe" v="terreng" />
		<tag k="ssr:stedsnr" v="252861" />
		<tag k="ssr:type" v="ås" />
	</node>
	<node id="-512799" lat="61.186196241" lon="6.76099307366">
		<tag k="fixme" v="consider place=hamlet" />
		<tag k="name" v="Fosse" />
		<tag k="place" v="farm" />
		<tag k="ssr:date" v="2017-10-27" />
		<tag k="ssr:gruppe" v="gardsbebyggelse" />
		<tag k="ssr:hovedgruppe" v="bebyggelse" />
		<tag k="ssr:stedsnr" v="252855" />
		<tag k="ssr:type" v="gard" />
	</node>
	<node id="-512798" lat="61.2360666707" lon="6.72225554772">
		<tag k="name" v="Vetlebotnen" />
		<tag k="natural" v="valley" />
		<tag k="place" v="locality" />
		<tag k="ssr:date" v="2016-05-10" />
		<tag k="ssr:gruppe" v="senkninger" />
		<tag k="ssr:hovedgruppe" v="terreng" />
		<tag k="ssr:stedsnr" v="252492" />
		<tag k="ssr:type" v="botn" />
	</node>
	<node id="-512797" lat="61.237288891" lon="6.74102777769">
		<tag k="historic" v="shieling" />
		<tag k="name" v="Gildal" />
		<tag k="place" v="locality" />
		<tag k="ssr:date" v="2016-05-10" />
		<tag k="ssr:gruppe" v="gardsbebyggelse" />
		<tag k="ssr:hovedgruppe" v="bebyggelse" />
		<tag k="ssr:stedsnr" v="252486" />
		<tag k="ssr:type" v="seterStøl" />
	</node>
	<node id="-512796" lat="61.2167055563" lon="6.82461389736">
		<tag k="historic" v="shieling" />
		<tag k="name" v="Stokksete" />
		<tag k="place" v="locality" />
		<tag k="ssr:date" v="2016-05-10" />
		<tag k="ssr:gruppe" v="gardsbebyggelse" />
		<tag k="ssr:hovedgruppe" v="bebyggelse" />
		<tag k="ssr:stedsnr" v="251964" />
		<tag k="ssr:type" v="seterStøl" />
	</node>
	<node id="-512795" lat="61.2213444427" lon="6.83435278537">
		<tag k="name" v="Hjellande" />
		<tag k="ssr:date" v="2016-05-10" />
		<tag k="ssr:gruppe" v="rennendeVann" />
		<tag k="ssr:hovedgruppe" v="ferskvann" />
		<tag k="ssr:stedsnr" v="251961" />
		<tag k="ssr:type" v="bekk" />
		<tag k="waterway" v="stream" />
	</node>
	<node id="-512794" lat="61.2073222204" lon="6.66344999328">
		<tag k="alt_name" v="Skopargjelet" />
		<tag k="name" v="Skopargilet" />
		<tag k="natural" v="valley" />
		<tag k="place" v="locality" />
		<tag k="ssr:date" v="2016-05-10" />
		<tag k="ssr:gruppe" v="senkninger" />
		<tag k="ssr:hovedgruppe" v="terreng" />
		<tag k="ssr:stedsnr" v="250431" />
		<tag k="ssr:type" v="dal" />
	</node>
	<node id="-512793" lat="61.258075002" lon="6.83937778331">
		<tag k="historic" v="shieling" />
		<tag k="name" v="Friksdal" />
		<tag k="place" v="locality" />
		<tag k="ssr:date" v="2016-05-10" />
		<tag k="ssr:gruppe" v="gardsbebyggelse" />
		<tag k="ssr:hovedgruppe" v="bebyggelse" />
		<tag k="ssr:stedsnr" v="250164" />
		<tag k="ssr:type" v="seterStøl" />
	</node>
	<node id="-512792" lat="61.2624888883" lon="6.82275554695">
		<tag k="name" v="Friksdøla" />
		<tag k="ssr:date" v="2016-05-10" />
		<tag k="ssr:gruppe" v="rennendeVann" />
		<tag k="ssr:hovedgruppe" v="ferskvann" />
		<tag k="ssr:stedsnr" v="250146" />
		<tag k="ssr:type" v="elv" />
		<tag k="waterway" v="river" />
	</node>
	<node id="-512791" lat="61.2670777796" lon="6.65048611538">
		<tag k="name" v="Børtnes" />
		<tag k="natural" v="cape" />
		<tag k="ssr:date" v="2016-05-10" />
		<tag k="ssr:gruppe" v="kystkontur" />
		<tag k="ssr:hovedgruppe" v="sjø" />
		<tag k="ssr:stedsnr" v="250143" />
		<tag k="ssr:type" v="nesISjø" />
	</node>
	<node id="-512790" lat="61.1934888871" lon="6.89903611914">
		<tag k="name" v="Lushovden" />
		<tag k="natural" v="hill" />
		<tag k="place" v="locality" />
		<tag k="ssr:date" v="2016-05-10" />
		<tag k="ssr:gruppe" v="høyder" />
		<tag k="ssr:hovedgruppe" v="terreng" />
		<tag k="ssr:stedsnr" v="241988" />
		<tag k="ssr:type" v="haug" />
	</node>
	<node id="-512789" lat="61.187358337" lon="6.88814999178">
		<tag k="name" v="Svahaug" />
		<tag k="natural" v="hill" />
		<tag k="place" v="locality" />
		<tag k="ssr:date" v="2016-05-10" />
		<tag k="ssr:gruppe" v="høyder" />
		<tag k="ssr:hovedgruppe" v="terreng" />
		<tag k="ssr:stedsnr" v="241987" />
		<tag k="ssr:type" v="haug" />
	</node>
	<node id="-512788" lat="61.1866055553" lon="6.76523611278">
		<tag k="name" v="Haugatjørni" />
		<tag k="place" v="locality" />
		<tag k="ssr:date" v="2016-05-10" />
		<tag k="ssr:gruppe" v="dyrkamark" />
		<tag k="ssr:hovedgruppe" v="markslag" />
		<tag k="ssr:stedsnr" v="222929" />
		<tag k="ssr:type" v="jorde" />
	</node>
	<node id="-512787" lat="61.2140027818" lon="6.77809999899">
		<tag k="name" v="Tomasbritakjelda" />
		<tag k="place" v="locality" />
		<tag k="ssr:date" v="2016-05-10" />
		<tag k="ssr:gruppe" v="rennendeVann" />
		<tag k="ssr:hovedgruppe" v="ferskvann" />
		<tag k="ssr:stedsnr" v="216926" />
		<tag k="ssr:type" v="høl" />
	</node>
	<node id="-512786" lat="61.1847388884" lon="6.77352776926">
		<tag k="name" v="Hemseberg" />
		<tag k="natural" v="hill" />
		<tag k="place" v="locality" />
		<tag k="ssr:date" v="2016-05-10" />
		<tag k="ssr:gruppe" v="høyder" />
		<tag k="ssr:hovedgruppe" v="terreng" />
		<tag k="ssr:stedsnr" v="216820" />
		<tag k="ssr:type" v="berg" />
	</node>
	<node id="-512785" lat="61.186394448" lon="6.80783055885">
		<tag k="name" v="Sanden" />
		<tag k="natural" v="slope" />
		<tag k="place" v="locality" />
		<tag k="ssr:date" v="2016-05-10" />
		<tag k="ssr:gruppe" v="skråninger" />
		<tag k="ssr:hovedgruppe" v="terreng" />
		<tag k="ssr:stedsnr" v="216795" />
		<tag k="ssr:type" v="li" />
	</node>
	<node id="-512784" lat="61.1854416696" lon="6.80630000686">
		<tag k="name" v="Baldershagen" />
		<tag k="ssr:date" v="2016-05-10" />
		<tag k="ssr:gruppe" v="kulturminner" />
		<tag k="ssr:hovedgruppe" v="kultur" />
		<tag k="ssr:stedsnr" v="216792" />
		<tag k="ssr:type" v="severdighet" />
		<tag k="tourism" v="attraction" />
	</node>
	<node id="-512783" lat="61.2013694413" lon="6.91251665884">
		<tag k="name" v="Mjellhaugane" />
		<tag k="natural" v="hill" />
		<tag k="place" v="locality" />
		<tag k="ssr:date" v="2016-05-10" />
		<tag k="ssr:gruppe" v="høyder" />
		<tag k="ssr:hovedgruppe" v="terreng" />
		<tag k="ssr:stedsnr" v="216667" />
		<tag k="ssr:type" v="haug" />
	</node>
	<node id="-512782" lat="61.2027749986" lon="6.85761389021">
		<tag k="name" v="Kappeldalen" />
		<tag k="natural" v="valley" />
		<tag k="place" v="locality" />
		<tag k="ssr:date" v="2016-05-10" />
		<tag k="ssr:gruppe" v="senkninger" />
		<tag k="ssr:hovedgruppe" v="terreng" />
		<tag k="ssr:stedsnr" v="216580" />
		<tag k="ssr:type" v="dal" />
	</node>
	<node id="-512781" lat="61.2369166665" lon="6.75162776869">
		<tag k="name" v="Hotten" />
		<tag k="natural" v="hill" />
		<tag k="place" v="locality" />
		<tag k="ssr:date" v="2016-05-10" />
		<tag k="ssr:gruppe" v="høyder" />
		<tag k="ssr:hovedgruppe" v="terreng" />
		<tag k="ssr:stedsnr" v="216263" />
		<tag k="ssr:type" v="haug" />
	</node>
	<node id="-512780" lat="61.2574916695" lon="6.65209443752">
		<tag k="name" v="Bjørnafura" />
		<tag k="natural" v="hill" />
		<tag k="place" v="locality" />
		<tag k="ssr:date" v="2016-05-10" />
		<tag k="ssr:gruppe" v="høyder" />
		<tag k="ssr:hovedgruppe" v="terreng" />
		<tag k="ssr:stedsnr" v="216236" />
		<tag k="ssr:type" v="haug" />
	</node>
	<node id="-512779" lat="61.2186222248" lon="6.89329721685">
		<tag k="fixme" v="consider natural=peak for the most distinct mountains in the district" />
		<tag k="name" v="Snauskoltanosi" />
		<tag k="natural" v="hill" />
		<tag k="place" v="locality" />
		<tag k="ssr:date" v="2016-05-10" />
		<tag k="ssr:gruppe" v="høyder" />
		<tag k="ssr:hovedgruppe" v="terreng" />
		<tag k="ssr:stedsnr" v="216657" />
		<tag k="ssr:type" v="ås" />
	</node>
	<node id="-512778" lat="61.1904305569" lon="6.80138332966">
		<tag k="name" v="Skutlane" />
		<tag k="natural" v="hill" />
		<tag k="place" v="locality" />
		<tag k="ssr:date" v="2016-05-10" />
		<tag k="ssr:gruppe" v="høyder" />
		<tag k="ssr:hovedgruppe" v="terreng" />
		<tag k="ssr:stedsnr" v="216630" />
		<tag k="ssr:type" v="haug" />
	</node>
	<node id="-512776" lat="61.2530805585" lon="6.92664444372">
		<tag k="name" v="Olavsøyna" />
		<tag k="place" v="island" />
		<tag k="ssr:date" v="2016-05-10" />
		<tag k="ssr:gruppe" v="ferskvannskontur" />
		<tag k="ssr:hovedgruppe" v="ferskvann" />
		<tag k="ssr:stedsnr" v="202737" />
		<tag k="ssr:type" v="øy" />
	</node>
	<node id="-512775" lat="61.2127138905" lon="6.63087223117">
		<tag k="name" v="Eitun" />
		<tag k="place" v="farm" />
		<tag k="ssr:date" v="2016-05-10" />
		<tag k="ssr:gruppe" v="gardsbebyggelse" />
		<tag k="ssr:hovedgruppe" v="bebyggelse" />
		<tag k="ssr:stedsnr" v="202489" />
		<tag k="ssr:type" v="bruk" />
	</node>
	<node id="-512774" lat="61.2095694406" lon="6.63768055169">
		<tag k="name" v="Eikenes" />
		<tag k="place" v="farm" />
		<tag k="ssr:date" v="2016-05-10" />
		<tag k="ssr:gruppe" v="gardsbebyggelse" />
		<tag k="ssr:hovedgruppe" v="bebyggelse" />
		<tag k="ssr:stedsnr" v="191997" />
		<tag k="ssr:type" v="bruk" />
	</node>
	<node id="-512773" lat="61.2055277746" lon="6.74302499759">
		<tag k="name" v="Grindsdalen" />
		<tag k="natural" v="valley" />
		<tag k="place" v="locality" />
		<tag k="ssr:date" v="2016-05-10" />
		<tag k="ssr:gruppe" v="senkninger" />
		<tag k="ssr:hovedgruppe" v="terreng" />
		<tag k="ssr:stedsnr" v="191994" />
		<tag k="ssr:type" v="dal" />
	</node>
	<node id="-512772" lat="61.2061111142" lon="6.6902944403">
		<tag k="fixme" v="consider natural=peak for the most distinct mountains in the district" />
		<tag k="name" v="Blåfjell" />
		<tag k="natural" v="hill" />
		<tag k="place" v="locality" />
		<tag k="ssr:date" v="2016-05-10" />
		<tag k="ssr:gruppe" v="høyder" />
		<tag k="ssr:hovedgruppe" v="terreng" />
		<tag k="ssr:stedsnr" v="191985" />
		<tag k="ssr:type" v="ås" />
	</node>
	<node id="-512771" lat="61.2032583318" lon="6.72712222132">
		<tag k="name" v="Hellesetberget" />
		<tag k="natural" v="hill" />
		<tag k="place" v="locality" />
		<tag k="ssr:date" v="2016-05-10" />
		<tag k="ssr:gruppe" v="høyder" />
		<tag k="ssr:hovedgruppe" v="terreng" />
		<tag k="ssr:stedsnr" v="191964" />
		<tag k="ssr:type" v="haug" />
	</node>
	<node id="-512770" lat="61.2293083353" lon="6.88081111577">
		<tag k="alt_name" v="Storetistelen" />
		<tag k="fixme" v="consider natural=peak for the most distinct mountains in the district" />
		<tag k="name" v="Stortistelen" />
		<tag k="natural" v="hill" />
		<tag k="place" v="locality" />
		<tag k="ssr:date" v="2016-05-10" />
		<tag k="ssr:gruppe" v="høyder" />
		<tag k="ssr:hovedgruppe" v="terreng" />
		<tag k="ssr:stedsnr" v="191954" />
		<tag k="ssr:type" v="ås" />
	</node>
	<node id="-512769" lat="61.2330000017" lon="6.84273611021">
		<tag k="alt_name" v="Skuleåi" />
		<tag k="name" v="Skulåna" />
		<tag k="ssr:date" v="2016-05-10" />
		<tag k="ssr:gruppe" v="rennendeVann" />
		<tag k="ssr:hovedgruppe" v="ferskvann" />
		<tag k="ssr:stedsnr" v="191949" />
		<tag k="ssr:type" v="bekk" />
		<tag k="waterway" v="stream" />
	</node>
	<node id="-512768" lat="61.2147333334" lon="6.59881666944">
		<tag k="name" v="Orrahaug" />
		<tag k="natural" v="hill" />
		<tag k="place" v="locality" />
		<tag k="ssr:date" v="2016-05-10" />
		<tag k="ssr:gruppe" v="høyder" />
		<tag k="ssr:hovedgruppe" v="terreng" />
		<tag k="ssr:stedsnr" v="191943" />
		<tag k="ssr:type" v="haug" />
	</node>
	<node id="-512767" lat="61.2122022995" lon="6.63183640743">
		<tag k="fixme" v="consider place=hamlet" />
		<tag k="name" v="Eitorn" />
		<tag k="place" v="farm" />
		<tag k="ssr:date" v="2017-10-27" />
		<tag k="ssr:gruppe" v="gardsbebyggelse" />
		<tag k="ssr:hovedgruppe" v="bebyggelse" />
		<tag k="ssr:stedsnr" v="191939" />
		<tag k="ssr:type" v="gard" />
	</node>
	<node id="-512766" lat="61.2177833299" lon="6.64101389015">
		<tag k="historic" v="shieling" />
		<tag k="name" v="Kluke" />
		<tag k="place" v="locality" />
		<tag k="ssr:date" v="2016-05-10" />
		<tag k="ssr:gruppe" v="gardsbebyggelse" />
		<tag k="ssr:hovedgruppe" v="bebyggelse" />
		<tag k="ssr:stedsnr" v="191937" />
		<tag k="ssr:type" v="seterStøl" />
	</node>
	<node id="-512765" lat="61.2170861155" lon="6.63505000156">
		<tag k="alt_name" v="Kluksgjelet" />
		<tag k="name" v="Kluksgilet" />
		<tag k="natural" v="gorge" />
		<tag k="ssr:date" v="2016-05-10" />
		<tag k="ssr:gruppe" v="senkninger" />
		<tag k="ssr:hovedgruppe" v="terreng" />
		<tag k="ssr:stedsnr" v="191935" />
		<tag k="ssr:type" v="juv" />
	</node>
	<node id="-512764" lat="61.220808335" lon="6.85772777238">
		<tag k="name" v="Ulvadalen" />
		<tag k="natural" v="valley" />
		<tag k="place" v="locality" />
		<tag k="ssr:date" v="2016-05-10" />
		<tag k="ssr:gruppe" v="senkninger" />
		<tag k="ssr:hovedgruppe" v="terreng" />
		<tag k="ssr:stedsnr" v="191914" />
		<tag k="ssr:type" v="dal" />
	</node>
	<node id="-512763" lat="61.1842833317" lon="6.90485556438">
		<tag k="alt_name" v="Hangsetdalen" />
		<tag k="name" v="Hangsetedalen" />
		<tag k="natural" v="valley" />
		<tag k="place" v="locality" />
		<tag k="ssr:date" v="2016-05-10" />
		<tag k="ssr:gruppe" v="senkninger" />
		<tag k="ssr:hovedgruppe" v="terreng" />
		<tag k="ssr:stedsnr" v="191903" />
		<tag k="ssr:type" v="dal" />
	</node>
	<node id="-512761" lat="61.1990583358" lon="6.78910832405">
		<tag k="alt_name" v="Storuri" />
		<tag k="name" v="Storurdi" />
		<tag k="natural" v="scree" />
		<tag k="ssr:date" v="2016-05-10" />
		<tag k="ssr:gruppe" v="løsmasseavsetninger" />
		<tag k="ssr:hovedgruppe" v="markslag" />
		<tag k="ssr:stedsnr" v="191873" />
		<tag k="ssr:type" v="ur" />
	</node>
	<node id="-512760" lat="61.1937720093" lon="6.83880424523">
		<tag k="name" v="Skahaug" />
		<tag k="place" v="farm" />
		<tag k="ssr:date" v="2017-10-31" />
		<tag k="ssr:gruppe" v="gardsbebyggelse" />
		<tag k="ssr:hovedgruppe" v="bebyggelse" />
		<tag k="ssr:stedsnr" v="191854" />
		<tag k="ssr:type" v="bruk" />
	</node>
	<node id="-512759" lat="61.2339972197" lon="6.77603610982">
		<tag k="name" v="Kleiv" />
		<tag k="place" v="locality" />
		<tag k="ssr:date" v="2016-05-10" />
		<tag k="ssr:gruppe" v="terrengdetaljer" />
		<tag k="ssr:hovedgruppe" v="terreng" />
		<tag k="ssr:stedsnr" v="191519" />
		<tag k="ssr:type" v="hylle" />
	</node>
	<node id="-512758" lat="61.2394277757" lon="6.86807221317">
		<tag k="name" v="Holesvoi" />
		<tag k="natural" v="cliff" />
		<tag k="ssr:date" v="2016-05-10" />
		<tag k="ssr:gruppe" v="terrengdetaljer" />
		<tag k="ssr:hovedgruppe" v="terreng" />
		<tag k="ssr:stedsnr" v="191516" />
		<tag k="ssr:type" v="stup" />
	</node>
	<node id="-512757" lat="61.2365444457" lon="6.66323888399">
		<tag k="name" v="Soleihaugen" />
		<tag k="natural" v="hill" />
		<tag k="place" v="locality" />
		<tag k="ssr:date" v="2016-05-10" />
		<tag k="ssr:gruppe" v="høyder" />
		<tag k="ssr:hovedgruppe" v="terreng" />
		<tag k="ssr:stedsnr" v="191510" />
		<tag k="ssr:type" v="haug" />
	</node>
	<node id="-512756" lat="61.2368055577" lon="6.74050277024">
		<tag k="name" v="Gildøla" />
		<tag k="ssr:date" v="2016-05-10" />
		<tag k="ssr:gruppe" v="rennendeVann" />
		<tag k="ssr:hovedgruppe" v="ferskvann" />
		<tag k="ssr:stedsnr" v="191507" />
		<tag k="ssr:type" v="bekk" />
		<tag k="waterway" v="stream" />
	</node>
	<node id="-512755" lat="61.2741749971" lon="6.87554723126">
		<tag k="name" v="Trastadalen" />
		<tag k="natural" v="valley" />
		<tag k="place" v="locality" />
		<tag k="ssr:date" v="2016-05-10" />
		<tag k="ssr:gruppe" v="senkninger" />
		<tag k="ssr:hovedgruppe" v="terreng" />
		<tag k="ssr:stedsnr" v="190145" />
		<tag k="ssr:type" v="dal" />
	</node>
	<node id="-512754" lat="61.1811249956" lon="6.88825278106">
		<tag k="name" v="Ste" />
		<tag k="place" v="locality" />
		<tag k="ssr:date" v="2016-05-10" />
		<tag k="ssr:gruppe" v="terrengdetaljer" />
		<tag k="ssr:hovedgruppe" v="terreng" />
		<tag k="ssr:stedsnr" v="180984" />
		<tag k="ssr:type" v="annenTerrengdetalj" />
	</node>
	<node id="-512753" lat="61.2327361073" lon="6.84972500699">
		<tag k="name" v="Fljotande" />
		<tag k="natural" v="water" />
		<tag k="ssr:date" v="2016-05-10" />
		<tag k="ssr:gruppe" v="rennendeVann" />
		<tag k="ssr:hovedgruppe" v="ferskvann" />
		<tag k="ssr:stedsnr" v="180965" />
		<tag k="ssr:type" v="lon" />
		<tag k="water" v="lake" />
	</node>
	<node id="-512752" lat="61.2073472206" lon="6.59766666586">
		<tag k="alt_name" v="Hella" />
		<tag k="amenity" v="ferry_terminal" />
		<tag k="name" v="Hella ferjekai" />
		<tag k="ssr:date" v="2016-05-10" />
		<tag k="ssr:gruppe" v="sjøfart" />
		<tag k="ssr:hovedgruppe" v="infrastruktur" />
		<tag k="ssr:stedsnr" v="167492" />
		<tag k="ssr:type" v="ferjekai" />
	</node>
	<node id="-512751" lat="61.2053888901" lon="6.89861944541">
		<tag k="name" v="Turli" />
		<tag k="natural" v="slope" />
		<tag k="place" v="locality" />
		<tag k="ssr:date" v="2016-05-10" />
		<tag k="ssr:gruppe" v="skråninger" />
		<tag k="ssr:hovedgruppe" v="terreng" />
		<tag k="ssr:stedsnr" v="155673" />
		<tag k="ssr:type" v="li" />
	</node>
	<node id="-512750" lat="61.2080888886" lon="6.8168861158">
		<tag k="name" v="Damefall" />
		<tag k="natural" v="slope" />
		<tag k="place" v="locality" />
		<tag k="ssr:date" v="2016-05-10" />
		<tag k="ssr:gruppe" v="skråninger" />
		<tag k="ssr:hovedgruppe" v="terreng" />
		<tag k="ssr:stedsnr" v="155588" />
		<tag k="ssr:type" v="bakke" />
	</node>
	<node id="-512749" lat="61.2238888856" lon="6.60391943937">
		<tag k="name" v="Tenningali" />
		<tag k="natural" v="slope" />
		<tag k="place" v="locality" />
		<tag k="ssr:date" v="2016-05-10" />
		<tag k="ssr:gruppe" v="skråninger" />
		<tag k="ssr:hovedgruppe" v="terreng" />
		<tag k="ssr:stedsnr" v="155562" />
		<tag k="ssr:type" v="li" />
	</node>
	<node id="-512748" lat="61.2044305531" lon="6.65968334208">
		<tag k="name" v="Stegane" />
		<tag k="natural" v="hill" />
		<tag k="place" v="locality" />
		<tag k="ssr:date" v="2016-05-10" />
		<tag k="ssr:gruppe" v="høyder" />
		<tag k="ssr:hovedgruppe" v="terreng" />
		<tag k="ssr:stedsnr" v="155109" />
		<tag k="ssr:type" v="haug" />
	</node>
	<node id="-512747" lat="61.2046277812" lon="6.73878332875">
		<tag k="name" v="Storøyane" />
		<tag k="place" v="island" />
		<tag k="ssr:date" v="2016-05-10" />
		<tag k="ssr:gruppe" v="ferskvannskontur" />
		<tag k="ssr:hovedgruppe" v="ferskvann" />
		<tag k="ssr:stedsnr" v="155062" />
		<tag k="ssr:type" v="øygruppe" />
	</node>
	<node id="-512746" lat="61.2315999993" lon="6.90465277501">
		<tag k="fixme" v="consider natural=peak for the most distinct mountains in the district" />
		<tag k="name" v="Hottadalsnosi" />
		<tag k="natural" v="hill" />
		<tag k="place" v="locality" />
		<tag k="ssr:date" v="2016-05-10" />
		<tag k="ssr:gruppe" v="høyder" />
		<tag k="ssr:hovedgruppe" v="terreng" />
		<tag k="ssr:stedsnr" v="131979" />
		<tag k="ssr:type" v="ås" />
	</node>
	<node id="-512745" lat="61.2153611119" lon="6.6515500001">
		<tag k="name" v="Kvinnedalen" />
		<tag k="natural" v="valley" />
		<tag k="place" v="locality" />
		<tag k="ssr:date" v="2016-05-10" />
		<tag k="ssr:gruppe" v="senkninger" />
		<tag k="ssr:hovedgruppe" v="terreng" />
		<tag k="ssr:stedsnr" v="131958" />
		<tag k="ssr:type" v="dal" />
	</node>
	<node id="-512744" lat="61.231005555" lon="6.82468888275">
		<tag k="fixme" v="consider natural=peak for the most distinct mountains in the district" />
		<tag k="name" v="Okslahaugane" />
		<tag k="natural" v="hill" />
		<tag k="place" v="locality" />
		<tag k="ssr:date" v="2016-05-10" />
		<tag k="ssr:gruppe" v="høyder" />
		<tag k="ssr:hovedgruppe" v="terreng" />
		<tag k="ssr:stedsnr" v="130964" />
		<tag k="ssr:type" v="ås" />
	</node>
	<node id="-512743" lat="61.2170444467" lon="6.80220556032">
		<tag k="alt_name" v="Kalbakk" />
		<tag k="name" v="Kallbakk" />
		<tag k="natural" v="hill" />
		<tag k="place" v="locality" />
		<tag k="ssr:date" v="2016-05-10" />
		<tag k="ssr:gruppe" v="høyder" />
		<tag k="ssr:hovedgruppe" v="terreng" />
		<tag k="ssr:stedsnr" v="130935" />
		<tag k="ssr:type" v="høyde" />
	</node>
	<node id="-512742" lat="61.1825862173" lon="6.78719794078">
		<tag k="name" v="Hamre" />
		<tag k="place" v="hamlet" />
		<tag k="ssr:date" v="2018-08-24" />
		<tag k="ssr:gruppe" v="gardsbebyggelse" />
		<tag k="ssr:hovedgruppe" v="bebyggelse" />
		<tag k="ssr:stedsnr" v="130929" />
		<tag k="ssr:type" v="navnegard" />
	</node>
	<node id="-512741" lat="61.1813756718" lon="6.86359913496">
		<tag k="fixme" v="consider place=hamlet" />
		<tag k="name" v="Njøs" />
		<tag k="place" v="farm" />
		<tag k="ssr:date" v="2017-10-27" />
		<tag k="ssr:gruppe" v="gardsbebyggelse" />
		<tag k="ssr:hovedgruppe" v="bebyggelse" />
		<tag k="ssr:stedsnr" v="130923" />
		<tag k="ssr:type" v="gard" />
	</node>
	<node id="-512740" lat="61.2029888897" lon="6.79061944764">
		<tag k="alt_name" v="Styggeli" />
		<tag k="name" v="Styggali" />
		<tag k="natural" v="slope" />
		<tag k="place" v="locality" />
		<tag k="ssr:date" v="2016-05-10" />
		<tag k="ssr:gruppe" v="skråninger" />
		<tag k="ssr:hovedgruppe" v="terreng" />
		<tag k="ssr:stedsnr" v="130897" />
		<tag k="ssr:type" v="li" />
	</node>
	<node id="-512739" lat="61.1961472249" lon="6.80954444518">
		<tag k="historic" v="shieling" />
		<tag k="name" v="Husabøstølen" />
		<tag k="place" v="locality" />
		<tag k="ssr:date" v="2016-05-10" />
		<tag k="ssr:gruppe" v="gardsbebyggelse" />
		<tag k="ssr:hovedgruppe" v="bebyggelse" />
		<tag k="ssr:stedsnr" v="130887" />
		<tag k="ssr:type" v="seterStøl" />
	</node>
	<node id="-512738" lat="61.1904277774" lon="6.72782223136">
		<tag k="historic" v="shieling" />
		<tag k="name" v="Orrasete" />
		<tag k="place" v="locality" />
		<tag k="ssr:date" v="2016-05-10" />
		<tag k="ssr:gruppe" v="gardsbebyggelse" />
		<tag k="ssr:hovedgruppe" v="bebyggelse" />
		<tag k="ssr:stedsnr" v="130877" />
		<tag k="ssr:type" v="seterStøl" />
	</node>
	<node id="-512737" lat="61.1948416658" lon="6.77892778585">
		<tag k="fixme" v="consider natural=peak for the most distinct mountains in the district" />
		<tag k="name" v="Kavlshammar" />
		<tag k="natural" v="hill" />
		<tag k="place" v="locality" />
		<tag k="ssr:date" v="2016-05-10" />
		<tag k="ssr:gruppe" v="høyder" />
		<tag k="ssr:hovedgruppe" v="terreng" />
		<tag k="ssr:stedsnr" v="130873" />
		<tag k="ssr:type" v="ås" />
	</node>
	<node id="-512736" lat="61.1894472209" lon="6.81121943563">
		<tag k="name" v="Haug" />
		<tag k="place" v="farm" />
		<tag k="ssr:date" v="2016-05-10" />
		<tag k="ssr:gruppe" v="gardsbebyggelse" />
		<tag k="ssr:hovedgruppe" v="bebyggelse" />
		<tag k="ssr:stedsnr" v="130869" />
		<tag k="ssr:type" v="bruk" />
	</node>
	<node id="-512735" lat="61.192213892" lon="6.79567500725">
		<tag k="name" v="Skuten" />
		<tag k="place" v="locality" />
		<tag k="ssr:date" v="2016-05-10" />
		<tag k="ssr:gruppe" v="flater" />
		<tag k="ssr:hovedgruppe" v="terreng" />
		<tag k="ssr:stedsnr" v="130867" />
		<tag k="ssr:type" v="slette" />
	</node>
	<node id="-512734" lat="61.1907500036" lon="6.91985276855">
		<tag k="name" v="Fossane" />
		<tag k="natural" v="waterfall" />
		<tag k="ssr:date" v="2016-05-10" />
		<tag k="ssr:gruppe" v="rennendeVann" />
		<tag k="ssr:hovedgruppe" v="ferskvann" />
		<tag k="ssr:stedsnr" v="130863" />
		<tag k="ssr:type" v="foss" />
	</node>
	<node id="-512733" lat="61.23426944" lon="6.75436388461">
		<tag k="name" v="Gildalsbrekka" />
		<tag k="natural" v="slope" />
		<tag k="place" v="locality" />
		<tag k="ssr:date" v="2016-05-10" />
		<tag k="ssr:gruppe" v="skråninger" />
		<tag k="ssr:hovedgruppe" v="terreng" />
		<tag k="ssr:stedsnr" v="130538" />
		<tag k="ssr:type" v="bakke" />
	</node>
	<node id="-512732" lat="61.2397083324" lon="6.75149722964">
		<tag k="alt_name" v="Tjohellerskar" />
		<tag k="name" v="Tjohillerskardet" />
		<tag k="natural" v="hill" />
		<tag k="place" v="locality" />
		<tag k="ssr:date" v="2016-05-10" />
		<tag k="ssr:gruppe" v="høyder" />
		<tag k="ssr:hovedgruppe" v="terreng" />
		<tag k="ssr:stedsnr" v="130537" />
		<tag k="ssr:type" v="haug" />
	</node>
	<node id="-512731" lat="61.235494442" lon="6.80285555738">
		<tag k="name" v="Kjeringi" />
		<tag k="natural" v="stone" />
		<tag k="ssr:date" v="2016-05-10" />
		<tag k="ssr:gruppe" v="løsmasseavsetninger" />
		<tag k="ssr:hovedgruppe" v="markslag" />
		<tag k="ssr:stedsnr" v="130533" />
		<tag k="ssr:type" v="stein" />
	</node>
	<node id="-512730" lat="61.2310222191" lon="6.66217778474">
		<tag k="name" v="Kupehaugen" />
		<tag k="natural" v="hill" />
		<tag k="place" v="locality" />
		<tag k="ssr:date" v="2016-05-10" />
		<tag k="ssr:gruppe" v="høyder" />
		<tag k="ssr:hovedgruppe" v="terreng" />
		<tag k="ssr:stedsnr" v="130516" />
		<tag k="ssr:type" v="haug" />
	</node>
	<node id="-512729" lat="61.243391663" lon="6.80525000308">
		<tag k="name" v="Svartavatnet" />
		<tag k="natural" v="water" />
		<tag k="ssr:date" v="2016-05-10" />
		<tag k="ssr:gruppe" v="stilleståendeVann" />
		<tag k="ssr:hovedgruppe" v="ferskvann" />
		<tag k="ssr:stedsnr" v="130508" />
		<tag k="ssr:type" v="tjern" />
	</node>
	<node id="-512728" lat="61.2457805536" lon="6.92447500326">
		<tag k="name" v="Kalvahaug" />
		<tag k="natural" v="hill" />
		<tag k="place" v="locality" />
		<tag k="ssr:date" v="2016-05-10" />
		<tag k="ssr:gruppe" v="høyder" />
		<tag k="ssr:hovedgruppe" v="terreng" />
		<tag k="ssr:stedsnr" v="130504" />
		<tag k="ssr:type" v="haug" />
	</node>
	<node id="-512727" lat="61.2480444464" lon="6.69853334201">
		<tag k="fixme" v="consider natural=peak for the most distinct mountains in the district" />
		<tag k="name" v="Midteggi" />
		<tag k="natural" v="hill" />
		<tag k="place" v="locality" />
		<tag k="ssr:date" v="2016-05-10" />
		<tag k="ssr:gruppe" v="høyder" />
		<tag k="ssr:hovedgruppe" v="terreng" />
		<tag k="ssr:stedsnr" v="130495" />
		<tag k="ssr:type" v="ås" />
	</node>
	<node id="-512726" lat="61.2613277763" lon="6.87703054771">
		<tag k="name" v="Trastå" />
		<tag k="place" v="isolated_dwelling" />
		<tag k="ssr:date" v="2016-05-10" />
		<tag k="ssr:gruppe" v="bolighus" />
		<tag k="ssr:hovedgruppe" v="bebyggelse" />
		<tag k="ssr:stedsnr" v="129174" />
		<tag k="ssr:type" v="fritidsbolig" />
	</node>
	<node id="-512725" lat="61.2627777791" lon="6.64540000087">
		<tag k="name" v="Troøyri" />
		<tag k="place" v="locality" />
		<tag k="ssr:date" v="2016-05-10" />
		<tag k="ssr:gruppe" v="gardsbebyggelse" />
		<tag k="ssr:hovedgruppe" v="bebyggelse" />
		<tag k="ssr:stedsnr" v="129167" />
		<tag k="ssr:type" v="byggForJordbrukFiskeOgFangst" />
	</node>
	<node id="-512724" lat="61.2437361156" lon="6.85523611429">
		<tag k="name" v="Skredene" />
		<tag k="natural" v="valley" />
		<tag k="place" v="locality" />
		<tag k="ssr:date" v="2016-05-10" />
		<tag k="ssr:gruppe" v="senkninger" />
		<tag k="ssr:hovedgruppe" v="terreng" />
		<tag k="ssr:stedsnr" v="95926" />
		<tag k="ssr:type" v="dal" />
	</node>
	<node id="-512723" lat="61.2430638904" lon="6.86454445047">
		<tag k="name" v="Kvistali" />
		<tag k="natural" v="slope" />
		<tag k="place" v="locality" />
		<tag k="ssr:date" v="2016-05-10" />
		<tag k="ssr:gruppe" v="skråninger" />
		<tag k="ssr:hovedgruppe" v="terreng" />
		<tag k="ssr:stedsnr" v="95904" />
		<tag k="ssr:type" v="li" />
	</node>
	<node id="-512722" lat="61.183101491" lon="6.78267468465">
		<tag k="fixme" v="consider place=hamlet" />
		<tag k="name" v="Ytre Hamre" />
		<tag k="place" v="farm" />
		<tag k="ssr:date" v="2017-10-27" />
		<tag k="ssr:gruppe" v="gardsbebyggelse" />
		<tag k="ssr:hovedgruppe" v="bebyggelse" />
		<tag k="ssr:stedsnr" v="95805" />
		<tag k="ssr:type" v="gard" />
	</node>
	<node id="-512721" lat="61.220219445" lon="6.65449722242">
		<tag k="name" v="Tjørnali" />
		<tag k="natural" v="slope" />
		<tag k="place" v="locality" />
		<tag k="ssr:date" v="2016-05-10" />
		<tag k="ssr:gruppe" v="skråninger" />
		<tag k="ssr:hovedgruppe" v="terreng" />
		<tag k="ssr:stedsnr" v="95672" />
		<tag k="ssr:type" v="li" />
	</node>
	<node id="-512720" lat="61.1887222188" lon="6.80405555507">
		<tag k="name" v="Ramnaberg" />
		<tag k="natural" v="hill" />
		<tag k="place" v="locality" />
		<tag k="ssr:date" v="2016-05-10" />
		<tag k="ssr:gruppe" v="høyder" />
		<tag k="ssr:hovedgruppe" v="terreng" />
		<tag k="ssr:stedsnr" v="95617" />
		<tag k="ssr:type" v="berg" />
	</node>
	<node id="-512719" lat="61.230091665" lon="6.75045278629">
		<tag k="name" v="Halsen" />
		<tag k="natural" v="valley" />
		<tag k="place" v="locality" />
		<tag k="ssr:date" v="2016-05-10" />
		<tag k="ssr:gruppe" v="senkninger" />
		<tag k="ssr:hovedgruppe" v="terreng" />
		<tag k="ssr:stedsnr" v="95301" />
		<tag k="ssr:type" v="dal" />
	</node>
	<node id="-512718" lat="61.2075555589" lon="6.72755555051">
		<tag k="name" v="Myrane" />
		<tag k="natural" v="wetland" />
		<tag k="ssr:date" v="2016-05-10" />
		<tag k="ssr:gruppe" v="våtmark" />
		<tag k="ssr:hovedgruppe" v="markslag" />
		<tag k="ssr:stedsnr" v="95054" />
		<tag k="ssr:type" v="myr" />
	</node>
	<node id="-512717" lat="61.1980583376" lon="6.88512500634">
		<tag k="name" v="Fleken" />
		<tag k="place" v="isolated_dwelling" />
		<tag k="ssr:date" v="2016-05-10" />
		<tag k="ssr:gruppe" v="bolighus" />
		<tag k="ssr:hovedgruppe" v="bebyggelse" />
		<tag k="ssr:stedsnr" v="94734" />
		<tag k="ssr:type" v="fritidsbolig" />
	</node>
	<node id="-512716" lat="61.2627305556" lon="6.66396667091">
		<tag k="historic" v="shieling" />
		<tag k="name" v="Trodalsstølen" />
		<tag k="place" v="locality" />
		<tag k="ssr:date" v="2016-05-10" />
		<tag k="ssr:gruppe" v="gardsbebyggelse" />
		<tag k="ssr:hovedgruppe" v="bebyggelse" />
		<tag k="ssr:stedsnr" v="81740" />
		<tag k="ssr:type" v="seterStøl" />
	</node>
	<node id="-512715" lat="61.212805558" lon="6.73880000111">
		<tag k="name" v="Skitstøla" />
		<tag k="ssr:date" v="2016-05-10" />
		<tag k="ssr:gruppe" v="rennendeVann" />
		<tag k="ssr:hovedgruppe" v="ferskvann" />
		<tag k="ssr:stedsnr" v="70993" />
		<tag k="ssr:type" v="bekk" />
		<tag k="waterway" v="stream" />
	</node>
	<node id="-512714" lat="61.2085277749" lon="6.83886389591">
		<tag k="historic" v="shieling" />
		<tag k="name" v="Dalhjella" />
		<tag k="place" v="locality" />
		<tag k="ssr:date" v="2016-05-10" />
		<tag k="ssr:gruppe" v="gardsbebyggelse" />
		<tag k="ssr:hovedgruppe" v="bebyggelse" />
		<tag k="ssr:stedsnr" v="70979" />
		<tag k="ssr:type" v="seterStøl" />
	</node>
	<node id="-512713" lat="61.217633337" lon="6.90748054891">
		<tag k="historic" v="shieling" />
		<tag k="name" v="Tuftahaug" />
		<tag k="place" v="locality" />
		<tag k="ssr:date" v="2016-05-10" />
		<tag k="ssr:gruppe" v="gardsbebyggelse" />
		<tag k="ssr:hovedgruppe" v="bebyggelse" />
		<tag k="ssr:stedsnr" v="70945" />
		<tag k="ssr:type" v="seterStøl" />
	</node>
	<node id="-512712" lat="61.1834333316" lon="6.89561388629">
		<tag k="historic" v="shieling" />
		<tag k="name" v="Hangsete" />
		<tag k="place" v="locality" />
		<tag k="ssr:date" v="2016-05-10" />
		<tag k="ssr:gruppe" v="gardsbebyggelse" />
		<tag k="ssr:hovedgruppe" v="bebyggelse" />
		<tag k="ssr:stedsnr" v="70931" />
		<tag k="ssr:type" v="seterStøl" />
	</node>
	<node id="-512711" lat="61.2041666706" lon="6.76257778268">
		<tag k="name" v="Dalene" />
		<tag k="natural" v="valley" />
		<tag k="place" v="locality" />
		<tag k="ssr:date" v="2016-05-10" />
		<tag k="ssr:gruppe" v="senkninger" />
		<tag k="ssr:hovedgruppe" v="terreng" />
		<tag k="ssr:stedsnr" v="70902" />
		<tag k="ssr:type" v="dal" />
	</node>
	<node id="-512710" lat="61.2018999975" lon="6.88896110909">
		<tag k="historic" v="shieling" />
		<tag k="name" v="Fadnastølen" />
		<tag k="place" v="locality" />
		<tag k="ssr:date" v="2016-05-10" />
		<tag k="ssr:gruppe" v="gardsbebyggelse" />
		<tag k="ssr:hovedgruppe" v="bebyggelse" />
		<tag k="ssr:stedsnr" v="70895" />
		<tag k="ssr:type" v="seterStøl" />
	</node>
	<node id="-512709" lat="61.1953416641" lon="6.79964166282">
		<tag k="fixme" v="consider natural=peak for the most distinct mountains in the district" />
		<tag k="name" v="Høgehaug" />
		<tag k="natural" v="hill" />
		<tag k="place" v="locality" />
		<tag k="ssr:date" v="2016-05-10" />
		<tag k="ssr:gruppe" v="høyder" />
		<tag k="ssr:hovedgruppe" v="terreng" />
		<tag k="ssr:stedsnr" v="70877" />
		<tag k="ssr:type" v="ås" />
	</node>
	<node id="-512708" lat="61.1900277774" lon="6.90812222774">
		<tag k="name" v="Liaflatene" />
		<tag k="place" v="locality" />
		<tag k="ssr:date" v="2016-05-10" />
		<tag k="ssr:gruppe" v="flater" />
		<tag k="ssr:hovedgruppe" v="terreng" />
		<tag k="ssr:stedsnr" v="70870" />
		<tag k="ssr:type" v="slette" />
	</node>
	<node id="-512707" lat="61.1873554406" lon="6.73249754123">
		<tag k="alt_name" v="Engesæter;Engasete" />
		<tag k="fixme" v="consider place=hamlet" />
		<tag k="name" v="Engjasete" />
		<tag k="place" v="farm" />
		<tag k="ssr:date" v="2017-10-27" />
		<tag k="ssr:gruppe" v="gardsbebyggelse" />
		<tag k="ssr:hovedgruppe" v="bebyggelse" />
		<tag k="ssr:stedsnr" v="70863" />
		<tag k="ssr:type" v="gard" />
	</node>
	<node id="-512706" lat="61.2325472252" lon="6.88983334159">
		<tag k="fixme" v="consider natural=peak for the most distinct mountains in the district" />
		<tag k="name" v="Lusaskard" />
		<tag k="natural" v="hill" />
		<tag k="place" v="locality" />
		<tag k="ssr:date" v="2016-05-10" />
		<tag k="ssr:gruppe" v="høyder" />
		<tag k="ssr:hovedgruppe" v="terreng" />
		<tag k="ssr:stedsnr" v="70967" />
		<tag k="ssr:type" v="ås" />
	</node>
	<node id="-512705" lat="61.2317805539" lon="6.91283889427">
		<tag k="fixme" v="consider natural=peak for the most distinct mountains in the district" />
		<tag k="name" v="Geitanipene" />
		<tag k="natural" v="hill" />
		<tag k="place" v="locality" />
		<tag k="ssr:date" v="2016-05-10" />
		<tag k="ssr:gruppe" v="høyder" />
		<tag k="ssr:hovedgruppe" v="terreng" />
		<tag k="ssr:stedsnr" v="70965" />
		<tag k="ssr:type" v="ås" />
	</node>
	<node id="-512704" lat="61.2238222227" lon="6.75808888335">
		<tag k="name" v="Storehølen" />
		<tag k="place" v="locality" />
		<tag k="ssr:date" v="2016-05-10" />
		<tag k="ssr:gruppe" v="rennendeVann" />
		<tag k="ssr:hovedgruppe" v="ferskvann" />
		<tag k="ssr:stedsnr" v="70963" />
		<tag k="ssr:type" v="høl" />
	</node>
	<node id="-512703" lat="61.2113247169" lon="6.61278802827">
		<tag k="fixme" v="consider place=hamlet" />
		<tag k="name" v="Rud" />
		<tag k="place" v="farm" />
		<tag k="ssr:date" v="2017-10-27" />
		<tag k="ssr:gruppe" v="gardsbebyggelse" />
		<tag k="ssr:hovedgruppe" v="bebyggelse" />
		<tag k="ssr:stedsnr" v="70958" />
		<tag k="ssr:type" v="gard" />
	</node>
	<node id="-512702" lat="61.2354972183" lon="6.8253111118">
		<tag k="name" v="Skuledalen" />
		<tag k="natural" v="valley" />
		<tag k="place" v="locality" />
		<tag k="ssr:date" v="2016-05-10" />
		<tag k="ssr:gruppe" v="senkninger" />
		<tag k="ssr:hovedgruppe" v="terreng" />
		<tag k="ssr:stedsnr" v="70529" />
		<tag k="ssr:type" v="dal" />
	</node>
	<node id="-512701" lat="61.2362750002" lon="6.65172222229">
		<tag k="name" v="Gamlestølen" />
		<tag k="place" v="locality" />
		<tag k="ssr:date" v="2016-05-10" />
		<tag k="ssr:gruppe" v="gardsbebyggelse" />
		<tag k="ssr:hovedgruppe" v="bebyggelse" />
		<tag k="ssr:stedsnr" v="70524" />
		<tag k="ssr:type" v="eiendom" />
	</node>
	<node id="-512700" lat="61.2466194431" lon="6.79658056319">
		<tag k="alt_name" v="Kjerringafjell;Kjerringafjellet" />
		<tag k="fixme" v="consider natural=peak for the most distinct mountains in the district" />
		<tag k="name" v="Kjeringafjell" />
		<tag k="natural" v="hill" />
		<tag k="place" v="locality" />
		<tag k="ssr:date" v="2016-05-10" />
		<tag k="ssr:gruppe" v="høyder" />
		<tag k="ssr:hovedgruppe" v="terreng" />
		<tag k="ssr:stedsnr" v="70507" />
		<tag k="ssr:type" v="fjell" />
	</node>
	<node id="-512699" lat="61.30397778" lon="6.75203056327">
		<tag k="name" v="Krossuradalen" />
		<tag k="natural" v="valley" />
		<tag k="place" v="locality" />
		<tag k="ssr:date" v="2016-05-10" />
		<tag k="ssr:gruppe" v="senkninger" />
		<tag k="ssr:hovedgruppe" v="terreng" />
		<tag k="ssr:stedsnr" v="69227" />
		<tag k="ssr:type" v="dal" />
	</node>
	<node id="-512698" lat="61.2884000027" lon="6.73933888155">
		<tag k="name" v="Skarseggi" />
		<tag k="natural" v="hill" />
		<tag k="place" v="locality" />
		<tag k="ssr:date" v="2016-05-10" />
		<tag k="ssr:gruppe" v="høyder" />
		<tag k="ssr:hovedgruppe" v="terreng" />
		<tag k="ssr:stedsnr" v="68526" />
		<tag k="ssr:type" v="haug" />
	</node>
	<node id="-512697" lat="61.2617111127" lon="6.81849999804">
		<tag k="name" v="Friksdalen" />
		<tag k="natural" v="valley" />
		<tag k="place" v="locality" />
		<tag k="ssr:date" v="2016-05-10" />
		<tag k="ssr:gruppe" v="senkninger" />
		<tag k="ssr:hovedgruppe" v="terreng" />
		<tag k="ssr:stedsnr" v="68145" />
		<tag k="ssr:type" v="dal" />
	</node>
	<node id="-512696" lat="61.2514666665" lon="6.64531389468">
		<tag k="fixme" v="consider natural=peak for the most distinct mountains in the district" />
		<tag k="name" v="Rasmusholten" />
		<tag k="natural" v="hill" />
		<tag k="place" v="locality" />
		<tag k="ssr:date" v="2016-05-10" />
		<tag k="ssr:gruppe" v="høyder" />
		<tag k="ssr:hovedgruppe" v="terreng" />
		<tag k="ssr:stedsnr" v="68157" />
		<tag k="ssr:type" v="ås" />
	</node>
	<node id="-512695" lat="61.2191666627" lon="6.9100638822">
		<tag k="name" v="Kvitastein" />
		<tag k="natural" v="stone" />
		<tag k="ssr:date" v="2016-05-10" />
		<tag k="ssr:gruppe" v="løsmasseavsetninger" />
		<tag k="ssr:hovedgruppe" v="markslag" />
		<tag k="ssr:stedsnr" v="60000" />
		<tag k="ssr:type" v="stein" />
	</node>
	<node id="-512694" lat="61.1936027745" lon="6.83374722902">
		<tag k="name" v="Dalene" />
		<tag k="place" v="locality" />
		<tag k="ssr:date" v="2016-05-10" />
		<tag k="ssr:gruppe" v="dyrkamark" />
		<tag k="ssr:hovedgruppe" v="markslag" />
		<tag k="ssr:stedsnr" v="59994" />
		<tag k="ssr:type" v="utmark" />
	</node>
	<node id="-512693" lat="61.1820222239" lon="6.87156110992">
		<tag k="name" v="Ringdøla" />
		<tag k="ssr:date" v="2016-05-10" />
		<tag k="ssr:gruppe" v="rennendeVann" />
		<tag k="ssr:hovedgruppe" v="ferskvann" />
		<tag k="ssr:stedsnr" v="59988" />
		<tag k="ssr:type" v="bekk" />
		<tag k="waterway" v="stream" />
	</node>
	<node id="-512692" lat="61.21286111" lon="6.82277777172">
		<tag k="name" v="Nondalen" />
		<tag k="natural" v="valley" />
		<tag k="place" v="locality" />
		<tag k="ssr:date" v="2016-05-10" />
		<tag k="ssr:gruppe" v="senkninger" />
		<tag k="ssr:hovedgruppe" v="terreng" />
		<tag k="ssr:stedsnr" v="40967" />
		<tag k="ssr:type" v="dal" />
	</node>
	<node id="-512691" lat="61.1986972262" lon="6.84073055224">
		<tag k="name" v="Heggdalene" />
		<tag k="place" v="locality" />
		<tag k="ssr:date" v="2016-05-10" />
		<tag k="ssr:gruppe" v="dyrkamark" />
		<tag k="ssr:hovedgruppe" v="markslag" />
		<tag k="ssr:stedsnr" v="40966" />
		<tag k="ssr:type" v="utmark" />
	</node>
	<node id="-512690" lat="61.1996666712" lon="6.76256111813">
		<tag k="name" v="Kjeringamyri" />
		<tag k="natural" v="wetland" />
		<tag k="ssr:date" v="2016-05-10" />
		<tag k="ssr:gruppe" v="våtmark" />
		<tag k="ssr:hovedgruppe" v="markslag" />
		<tag k="ssr:stedsnr" v="40951" />
		<tag k="ssr:type" v="myr" />
	</node>
	<node id="-512689" lat="61.2172111126" lon="6.75805833513">
		<tag k="historic" v="shieling" />
		<tag k="name" v="Blomsete" />
		<tag k="place" v="locality" />
		<tag k="ssr:date" v="2016-05-10" />
		<tag k="ssr:gruppe" v="gardsbebyggelse" />
		<tag k="ssr:hovedgruppe" v="bebyggelse" />
		<tag k="ssr:stedsnr" v="40944" />
		<tag k="ssr:type" v="seterStøl" />
	</node>
	<node id="-512688" lat="61.2422916941" lon="6.88393505509">
		<tag k="name" v="Kvistalivatnet" />
		<tag k="natural" v="water" />
		<tag k="ssr:date" v="2019-03-05" />
		<tag k="ssr:gruppe" v="stilleståendeVann" />
		<tag k="ssr:hovedgruppe" v="ferskvann" />
		<tag k="ssr:stedsnr" v="34880" />
		<tag k="ssr:type" v="vann" />
		<tag k="water" v="lake" />
	</node>
	<node id="-512687" lat="61.2295722189" lon="6.85415277624">
		<tag k="name" v="Trollhovden" />
		<tag k="natural" v="hill" />
		<tag k="place" v="locality" />
		<tag k="ssr:date" v="2016-05-10" />
		<tag k="ssr:gruppe" v="høyder" />
		<tag k="ssr:hovedgruppe" v="terreng" />
		<tag k="ssr:stedsnr" v="34745" />
		<tag k="ssr:type" v="haug" />
	</node>
	<node id="-512686" lat="61.2165388862" lon="6.89199444551">
		<tag k="name" v="Dansarbakken" />
		<tag k="natural" v="slope" />
		<tag k="place" v="locality" />
		<tag k="ssr:date" v="2016-05-10" />
		<tag k="ssr:gruppe" v="skråninger" />
		<tag k="ssr:hovedgruppe" v="terreng" />
		<tag k="ssr:stedsnr" v="34654" />
		<tag k="ssr:type" v="bakke" />
	</node>
	<node id="-512685" lat="61.2131472225" lon="6.63610833184">
		<tag k="name" v="Trollahaugen" />
		<tag k="natural" v="hill" />
		<tag k="place" v="locality" />
		<tag k="ssr:date" v="2016-05-10" />
		<tag k="ssr:gruppe" v="høyder" />
		<tag k="ssr:hovedgruppe" v="terreng" />
		<tag k="ssr:stedsnr" v="34448" />
		<tag k="ssr:type" v="haug" />
	</node>
	<node id="-512684" lat="61.2153000001" lon="6.73683889403">
		<tag k="fixme" v="consider natural=peak for the most distinct mountains in the district" />
		<tag k="name" v="Veslehovden" />
		<tag k="natural" v="hill" />
		<tag k="place" v="locality" />
		<tag k="ssr:date" v="2016-05-10" />
		<tag k="ssr:gruppe" v="høyder" />
		<tag k="ssr:hovedgruppe" v="terreng" />
		<tag k="ssr:stedsnr" v="34416" />
		<tag k="ssr:type" v="ås" />
	</node>
	<node id="-512683" lat="61.1958388865" lon="6.72126111378">
		<tag k="name" v="Storamyri" />
		<tag k="natural" v="wetland" />
		<tag k="ssr:date" v="2016-05-10" />
		<tag k="ssr:gruppe" v="våtmark" />
		<tag k="ssr:hovedgruppe" v="markslag" />
		<tag k="ssr:stedsnr" v="34092" />
		<tag k="ssr:type" v="myr" />
	</node>
	<node id="-512682" lat="61.2118250012" lon="6.65617222692">
		<tag k="name" v="Vetlehaugen" />
		<tag k="natural" v="hill" />
		<tag k="place" v="locality" />
		<tag k="ssr:date" v="2016-05-10" />
		<tag k="ssr:gruppe" v="høyder" />
		<tag k="ssr:hovedgruppe" v="terreng" />
		<tag k="ssr:stedsnr" v="9999" />
		<tag k="ssr:type" v="haug" />
	</node>
	<node id="-512681" lat="61.213077776" lon="6.72451388484">
		<tag k="name" v="Fjellgrindahaug" />
		<tag k="natural" v="hill" />
		<tag k="place" v="locality" />
		<tag k="ssr:date" v="2016-05-10" />
		<tag k="ssr:gruppe" v="høyder" />
		<tag k="ssr:hovedgruppe" v="terreng" />
		<tag k="ssr:stedsnr" v="9983" />
		<tag k="ssr:type" v="haug" />
	</node>
	<node id="-512680" lat="61.2109527798" lon="6.6781166718">
		<tag k="highway" v="path" />
		<tag k="name" v="Bjørnstigen" />
		<tag k="ssr:date" v="2016-05-10" />
		<tag k="ssr:gruppe" v="veg" />
		<tag k="ssr:hovedgruppe" v="infrastruktur" />
		<tag k="ssr:stedsnr" v="9982" />
		<tag k="ssr:type" v="sti" />
	</node>
	<node id="-512679" lat="61.2172638864" lon="6.71929444492">
		<tag k="alt_name" v="Dalsbotn" />
		<tag k="historic" v="shieling" />
		<tag k="name" v="Dalsbotnen" />
		<tag k="place" v="locality" />
		<tag k="ssr:date" v="2016-05-10" />
		<tag k="ssr:gruppe" v="gardsbebyggelse" />
		<tag k="ssr:hovedgruppe" v="bebyggelse" />
		<tag k="ssr:stedsnr" v="9945" />
		<tag k="ssr:type" v="seterStøl" />
	</node>
	<node id="-512678" lat="61.2168277811" lon="6.86835278334">
		<tag k="name" v="Sjonarhaug" />
		<tag k="natural" v="hill" />
		<tag k="place" v="locality" />
		<tag k="ssr:date" v="2016-05-10" />
		<tag k="ssr:gruppe" v="høyder" />
		<tag k="ssr:hovedgruppe" v="terreng" />
		<tag k="ssr:stedsnr" v="9934" />
		<tag k="ssr:type" v="haug" />
	</node>
	<node id="-512677" lat="61.2174027791" lon="6.7750638907">
		<tag k="alt_name" v="Dalseteskar" />
		<tag k="name" v="Dalseteskard" />
		<tag k="natural" v="valley" />
		<tag k="place" v="locality" />
		<tag k="ssr:date" v="2016-05-10" />
		<tag k="ssr:gruppe" v="senkninger" />
		<tag k="ssr:hovedgruppe" v="terreng" />
		<tag k="ssr:stedsnr" v="9932" />
		<tag k="ssr:type" v="skar" />
	</node>
	<node id="-512676" lat="61.2191861134" lon="6.90154999977">
		<tag k="alt_name" v="Eivalgjerdmyri" />
		<tag k="name" v="Elvagjerdmyri" />
		<tag k="natural" v="wetland" />
		<tag k="ssr:date" v="2016-05-10" />
		<tag k="ssr:gruppe" v="våtmark" />
		<tag k="ssr:hovedgruppe" v="markslag" />
		<tag k="ssr:stedsnr" v="9933" />
		<tag k="ssr:type" v="myr" />
	</node>
	<node id="-512675" lat="61.2209388917" lon="6.84439999841">
		<tag k="name" v="Henjadalen" />
		<tag k="natural" v="valley" />
		<tag k="place" v="locality" />
		<tag k="ssr:date" v="2016-05-10" />
		<tag k="ssr:gruppe" v="senkninger" />
		<tag k="ssr:hovedgruppe" v="terreng" />
		<tag k="ssr:stedsnr" v="9931" />
		<tag k="ssr:type" v="dal" />
	</node>
	<node id="-512674" lat="61.1859583328" lon="6.80638055268">
		<tag k="name" v="Solbakken" />
		<tag k="place" v="farm" />
		<tag k="ssr:date" v="2016-05-10" />
		<tag k="ssr:gruppe" v="gardsbebyggelse" />
		<tag k="ssr:hovedgruppe" v="bebyggelse" />
		<tag k="ssr:stedsnr" v="9930" />
		<tag k="ssr:type" v="bruk" />
	</node>
	<node id="-512673" lat="61.1886068806" lon="6.84230783492">
		<tag k="alt_name" v="Henjum" />
		<tag k="fixme" v="consider place=hamlet" />
		<tag k="name" v="Henjane" />
		<tag k="place" v="farm" />
		<tag k="ssr:date" v="2017-10-27" />
		<tag k="ssr:gruppe" v="gardsbebyggelse" />
		<tag k="ssr:hovedgruppe" v="bebyggelse" />
		<tag k="ssr:stedsnr" v="9923" />
		<tag k="ssr:type" v="gard" />
	</node>
	<node id="-512672" lat="61.1854055593" lon="6.82232778663">
		<tag k="fixme" v="consider place=suburb, village or hamlet" />
		<tag k="name" v="Systrond" />
		<tag k="place" v="quarter" />
		<tag k="ssr:date" v="2016-05-10" />
		<tag k="ssr:gruppe" v="bebyggelsesområder" />
		<tag k="ssr:hovedgruppe" v="bebyggelse" />
		<tag k="ssr:stedsnr" v="9914" />
		<tag k="ssr:type" v="tettbebyggelse" />
	</node>
	<node id="-512671" lat="61.2013027768" lon="6.80950277625">
		<tag k="name" v="Orradalen" />
		<tag k="natural" v="valley" />
		<tag k="place" v="locality" />
		<tag k="ssr:date" v="2016-05-10" />
		<tag k="ssr:gruppe" v="senkninger" />
		<tag k="ssr:hovedgruppe" v="terreng" />
		<tag k="ssr:stedsnr" v="9882" />
		<tag k="ssr:type" v="dal" />
	</node>
	<node id="-512670" lat="61.1829666688" lon="6.73710278509">
		<tag k="name" v="Skiphaug" />
		<tag k="natural" v="hill" />
		<tag k="place" v="locality" />
		<tag k="ssr:date" v="2016-05-10" />
		<tag k="ssr:gruppe" v="høyder" />
		<tag k="ssr:hovedgruppe" v="terreng" />
		<tag k="ssr:stedsnr" v="9863" />
		<tag k="ssr:type" v="haug" />
	</node>
	<node id="-512669" lat="61.1823277808" lon="6.74070554825">
		<tag k="name" v="Nòtedalen" />
		<tag k="natural" v="valley" />
		<tag k="place" v="locality" />
		<tag k="ssr:date" v="2016-05-10" />
		<tag k="ssr:gruppe" v="senkninger" />
		<tag k="ssr:hovedgruppe" v="terreng" />
		<tag k="ssr:stedsnr" v="9861" />
		<tag k="ssr:type" v="dal" />
	</node>
	<node id="-512668" lat="61.2226722256" lon="6.70854721436">
		<tag k="name" v="Fagravatnet" />
		<tag k="natural" v="water" />
		<tag k="ssr:date" v="2016-05-10" />
		<tag k="ssr:gruppe" v="stilleståendeVann" />
		<tag k="ssr:hovedgruppe" v="ferskvann" />
		<tag k="ssr:stedsnr" v="9554" />
		<tag k="ssr:type" v="tjern" />
	</node>
	<node id="-512667" lat="61.2256750017" lon="6.75223610279">
		<tag k="name" v="Skorane" />
		<tag k="natural" v="slope" />
		<tag k="place" v="locality" />
		<tag k="ssr:date" v="2016-05-10" />
		<tag k="ssr:gruppe" v="skråninger" />
		<tag k="ssr:hovedgruppe" v="terreng" />
		<tag k="ssr:stedsnr" v="9551" />
		<tag k="ssr:type" v="li" />
	</node>
	<node id="-512666" lat="61.2409833377" lon="6.72242221635">
		<tag k="alt_name" v="Storebotn" />
		<tag k="name" v="Storebotnen" />
		<tag k="natural" v="valley" />
		<tag k="place" v="locality" />
		<tag k="ssr:date" v="2016-05-10" />
		<tag k="ssr:gruppe" v="senkninger" />
		<tag k="ssr:hovedgruppe" v="terreng" />
		<tag k="ssr:stedsnr" v="9540" />
		<tag k="ssr:type" v="botn" />
	</node>
	<node id="-512665" lat="61.2556666676" lon="6.79079999215">
		<tag k="name" v="Eitrebotn" />
		<tag k="natural" v="valley" />
		<tag k="place" v="locality" />
		<tag k="ssr:date" v="2016-05-10" />
		<tag k="ssr:gruppe" v="senkninger" />
		<tag k="ssr:hovedgruppe" v="terreng" />
		<tag k="ssr:stedsnr" v="8170" />
		<tag k="ssr:type" v="botn" />
	</node>
	<node id="-512664" lat="61.2600305518" lon="6.66634445313">
		<tag k="name" v="Trodalen" />
		<tag k="natural" v="valley" />
		<tag k="place" v="locality" />
		<tag k="ssr:date" v="2016-05-10" />
		<tag k="ssr:gruppe" v="senkninger" />
		<tag k="ssr:hovedgruppe" v="terreng" />
		<tag k="ssr:stedsnr" v="8159" />
		<tag k="ssr:type" v="dal" />
	</node>
	<node id="-512663" lat="61.2737305525" lon="6.74189722834">
		<tag k="name" v="Stavatjørni" />
		<tag k="natural" v="water" />
		<tag k="ssr:date" v="2016-05-10" />
		<tag k="ssr:gruppe" v="stilleståendeVann" />
		<tag k="ssr:hovedgruppe" v="ferskvann" />
		<tag k="ssr:stedsnr" v="7150" />
		<tag k="ssr:type" v="tjern" />
	</node>
	<node id="-512662" lat="61.1821666687" lon="6.74470277873">
		<tag k="bridge" v="yes" />
		<tag k="layer" v="1" />
		<tag k="name" v="Grinde" />
		<tag k="ssr:date" v="2016-05-11" />
		<tag k="ssr:gruppe" v="samferdselsanlegg" />
		<tag k="ssr:hovedgruppe" v="infrastruktur" />
		<tag k="ssr:stedsnr" v="896487" />
		<tag k="ssr:type" v="bru" />
	</node>
	<node id="-512661" lat="61.2300972197" lon="6.71968888511">
		<tag k="fixme" v="consider natural=peak for the most distinct mountains in the district" />
		<tag k="name" v="Gryteggi" />
		<tag k="natural" v="hill" />
		<tag k="place" v="locality" />
		<tag k="ssr:date" v="2016-05-11" />
		<tag k="ssr:gruppe" v="høyder" />
		<tag k="ssr:hovedgruppe" v="terreng" />
		<tag k="ssr:stedsnr" v="892327" />
		<tag k="ssr:type" v="ås" />
	</node>
	<node id="-512660" lat="61.1871655393" lon="6.82059689952">
		<tag k="fixme" v="consider place=hamlet" />
		<tag k="name" v="Halland" />
		<tag k="place" v="farm" />
		<tag k="ssr:date" v="2017-10-27" />
		<tag k="ssr:gruppe" v="gardsbebyggelse" />
		<tag k="ssr:hovedgruppe" v="bebyggelse" />
		<tag k="ssr:stedsnr" v="884636" />
		<tag k="ssr:type" v="gard" />
	</node>
	<node id="-512659" lat="61.219244449" lon="6.60966389749">
		<tag k="name" v="Vasstaket" />
		<tag k="natural" v="wetland" />
		<tag k="ssr:date" v="2016-05-11" />
		<tag k="ssr:gruppe" v="våtmark" />
		<tag k="ssr:hovedgruppe" v="markslag" />
		<tag k="ssr:stedsnr" v="884523" />
		<tag k="ssr:type" v="myr" />
	</node>
	<node id="-512658" lat="61.2221250021" lon="6.7427388919">
		<tag k="name" v="Soleiehaug" />
		<tag k="natural" v="hill" />
		<tag k="place" v="locality" />
		<tag k="ssr:date" v="2016-05-11" />
		<tag k="ssr:gruppe" v="høyder" />
		<tag k="ssr:hovedgruppe" v="terreng" />
		<tag k="ssr:stedsnr" v="884424" />
		<tag k="ssr:type" v="haug" />
	</node>
	<node id="-512657" lat="61.2566222217" lon="6.66830833874">
		<tag k="name" v="Sandskreda" />
		<tag k="natural" v="valley" />
		<tag k="place" v="locality" />
		<tag k="ssr:date" v="2016-05-11" />
		<tag k="ssr:gruppe" v="senkninger" />
		<tag k="ssr:hovedgruppe" v="terreng" />
		<tag k="ssr:stedsnr" v="884228" />
		<tag k="ssr:type" v="dal" />
	</node>
	<node id="-512656" lat="61.2700361113" lon="6.86085000285">
		<tag k="name" v="Myrdalselvi" />
		<tag k="ssr:date" v="2016-05-11" />
		<tag k="ssr:gruppe" v="rennendeVann" />
		<tag k="ssr:hovedgruppe" v="ferskvann" />
		<tag k="ssr:stedsnr" v="884143" />
		<tag k="ssr:type" v="elv" />
		<tag k="waterway" v="river" />
	</node>
	<node id="-512655" lat="61.1857111117" lon="6.85540555981">
		<tag k="name" v="Lundene" />
		<tag k="place" v="quarter" />
		<tag k="ssr:date" v="2016-05-11" />
		<tag k="ssr:gruppe" v="bebyggelsesområder" />
		<tag k="ssr:hovedgruppe" v="bebyggelse" />
		<tag k="ssr:stedsnr" v="883994" />
		<tag k="ssr:type" v="boligfelt" />
	</node>
	<node id="-512654" lat="61.2613361146" lon="6.65861944632">
		<tag k="name" v="Trodøla" />
		<tag k="ssr:date" v="2016-05-10" />
		<tag k="ssr:gruppe" v="rennendeVann" />
		<tag k="ssr:hovedgruppe" v="ferskvann" />
		<tag k="ssr:stedsnr" v="479351" />
		<tag k="ssr:type" v="bekk" />
		<tag k="waterway" v="stream" />
	</node>
	<node id="-512653" lat="61.2289500012" lon="6.78140556318">
		<tag k="name" v="Fitjegås" />
		<tag k="ssr:date" v="2016-05-10" />
		<tag k="ssr:gruppe" v="kulturminner" />
		<tag k="ssr:hovedgruppe" v="kultur" />
		<tag k="ssr:stedsnr" v="404940" />
		<tag k="ssr:type" v="utsiktspunkt" />
		<tag k="tourism" v="viewpoint" />
	</node>
	<node id="-512652" lat="61.2207805534" lon="6.90130000023">
		<tag k="name" v="Trettetungene" />
		<tag k="natural" v="valley" />
		<tag k="place" v="locality" />
		<tag k="ssr:date" v="2016-05-10" />
		<tag k="ssr:gruppe" v="senkninger" />
		<tag k="ssr:hovedgruppe" v="terreng" />
		<tag k="ssr:stedsnr" v="398662" />
		<tag k="ssr:type" v="dal" />
	</node>
	<node id="-512651" lat="61.1817638851" lon="6.88904722203">
		<tag k="name" v="Soleiholene" />
		<tag k="natural" v="slope" />
		<tag k="place" v="locality" />
		<tag k="ssr:date" v="2016-05-10" />
		<tag k="ssr:gruppe" v="skråninger" />
		<tag k="ssr:hovedgruppe" v="terreng" />
		<tag k="ssr:stedsnr" v="398502" />
		<tag k="ssr:type" v="li" />
	</node>
	<node id="-512650" lat="61.2425249974" lon="6.75228333407">
		<tag k="name" v="Stavseteuri" />
		<tag k="natural" v="scree" />
		<tag k="ssr:date" v="2016-05-10" />
		<tag k="ssr:gruppe" v="løsmasseavsetninger" />
		<tag k="ssr:hovedgruppe" v="markslag" />
		<tag k="ssr:stedsnr" v="398386" />
		<tag k="ssr:type" v="ur" />
	</node>
	<node id="-512649" lat="61.1950611103" lon="6.73510000492">
		<tag k="highway" v="path" />
		<tag k="name" v="Liavegen" />
		<tag k="ssr:date" v="2016-05-10" />
		<tag k="ssr:gruppe" v="veg" />
		<tag k="ssr:hovedgruppe" v="infrastruktur" />
		<tag k="ssr:stedsnr" v="398364" />
		<tag k="ssr:type" v="sti" />
	</node>
	<node id="-512648" lat="61.2127388875" lon="6.66762222336">
		<tag k="name" v="Skar" />
		<tag k="natural" v="valley" />
		<tag k="place" v="locality" />
		<tag k="ssr:date" v="2016-05-10" />
		<tag k="ssr:gruppe" v="senkninger" />
		<tag k="ssr:hovedgruppe" v="terreng" />
		<tag k="ssr:stedsnr" v="397297" />
		<tag k="ssr:type" v="skar" />
	</node>
	<node id="-512647" lat="61.2074499997" lon="6.59803332423">
		<tag k="name" v="Hella" />
		<tag k="place" v="hamlet" />
		<tag k="ssr:date" v="2016-05-10" />
		<tag k="ssr:gruppe" v="bebyggelsesområder" />
		<tag k="ssr:hovedgruppe" v="bebyggelse" />
		<tag k="ssr:stedsnr" v="394633" />
		<tag k="ssr:type" v="grend" />
	</node>
	<node id="-512645" lat="61.2563361072" lon="6.7642055502">
		<tag k="name" v="Bleiehaug" />
		<tag k="natural" v="hill" />
		<tag k="place" v="locality" />
		<tag k="ssr:date" v="2016-05-10" />
		<tag k="ssr:gruppe" v="høyder" />
		<tag k="ssr:hovedgruppe" v="terreng" />
		<tag k="ssr:stedsnr" v="384722" />
		<tag k="ssr:type" v="haug" />
	</node>
	<node id="-512644" lat="61.2059527746" lon="6.73889723103">
		<tag k="historic" v="shieling" />
		<tag k="name" v="Vegaskilvollen" />
		<tag k="place" v="locality" />
		<tag k="ssr:date" v="2016-05-10" />
		<tag k="ssr:gruppe" v="gardsbebyggelse" />
		<tag k="ssr:hovedgruppe" v="bebyggelse" />
		<tag k="ssr:stedsnr" v="373994" />
		<tag k="ssr:type" v="seterStøl" />
	</node>
	<node id="-512643" lat="61.208463887" lon="6.87455832945">
		<tag k="historic" v="shieling" />
		<tag k="name" v="Skagasete" />
		<tag k="place" v="locality" />
		<tag k="ssr:date" v="2016-05-10" />
		<tag k="ssr:gruppe" v="gardsbebyggelse" />
		<tag k="ssr:hovedgruppe" v="bebyggelse" />
		<tag k="ssr:stedsnr" v="373981" />
		<tag k="ssr:type" v="seterStøl" />
	</node>
	<node id="-512642" lat="61.2114888923" lon="6.85737499382">
		<tag k="name" v="Maustelmyrane" />
		<tag k="natural" v="wetland" />
		<tag k="ssr:date" v="2016-05-10" />
		<tag k="ssr:gruppe" v="våtmark" />
		<tag k="ssr:hovedgruppe" v="markslag" />
		<tag k="ssr:stedsnr" v="373980" />
		<tag k="ssr:type" v="myr" />
	</node>
	<node id="-512641" lat="61.2089944409" lon="6.81025278595">
		<tag k="alt_name" v="Kagastein" />
		<tag k="name" v="Kagasteinen" />
		<tag k="natural" v="stone" />
		<tag k="ssr:date" v="2016-05-10" />
		<tag k="ssr:gruppe" v="løsmasseavsetninger" />
		<tag k="ssr:hovedgruppe" v="markslag" />
		<tag k="ssr:stedsnr" v="373978" />
		<tag k="ssr:type" v="stein" />
	</node>
	<node id="-512640" lat="61.2024333355" lon="6.71751944629">
		<tag k="name" v="Sjonarhaug" />
		<tag k="natural" v="hill" />
		<tag k="place" v="locality" />
		<tag k="ssr:date" v="2016-05-10" />
		<tag k="ssr:gruppe" v="høyder" />
		<tag k="ssr:hovedgruppe" v="terreng" />
		<tag k="ssr:stedsnr" v="373974" />
		<tag k="ssr:type" v="haug" />
	</node>
	<node id="-512639" lat="61.2243388928" lon="6.776922217">
		<tag k="historic" v="shieling" />
		<tag k="name" v="Dalsete" />
		<tag k="place" v="locality" />
		<tag k="ssr:date" v="2016-05-10" />
		<tag k="ssr:gruppe" v="gardsbebyggelse" />
		<tag k="ssr:hovedgruppe" v="bebyggelse" />
		<tag k="ssr:stedsnr" v="373968" />
		<tag k="ssr:type" v="seterStøl" />
	</node>
	<node id="-512638" lat="61.2179583336" lon="6.62528056369">
		<tag k="alt_name" v="Kyrali" />
		<tag k="name" v="Kyralii" />
		<tag k="natural" v="slope" />
		<tag k="place" v="locality" />
		<tag k="ssr:date" v="2016-05-10" />
		<tag k="ssr:gruppe" v="skråninger" />
		<tag k="ssr:hovedgruppe" v="terreng" />
		<tag k="ssr:stedsnr" v="373966" />
		<tag k="ssr:type" v="li" />
	</node>
	<node id="-512637" lat="61.222363886" lon="6.73788889217">
		<tag k="historic" v="shieling" />
		<tag k="name" v="Steinsete" />
		<tag k="place" v="locality" />
		<tag k="ssr:date" v="2016-05-10" />
		<tag k="ssr:gruppe" v="gardsbebyggelse" />
		<tag k="ssr:hovedgruppe" v="bebyggelse" />
		<tag k="ssr:stedsnr" v="373962" />
		<tag k="ssr:type" v="seterStøl" />
	</node>
	<node id="-512636" lat="61.2230833351" lon="6.89637221406">
		<tag k="name" v="Storli" />
		<tag k="natural" v="slope" />
		<tag k="place" v="locality" />
		<tag k="ssr:date" v="2016-05-10" />
		<tag k="ssr:gruppe" v="skråninger" />
		<tag k="ssr:hovedgruppe" v="terreng" />
		<tag k="ssr:stedsnr" v="373950" />
		<tag k="ssr:type" v="li" />
	</node>
	<node id="-512635" lat="61.1800777749" lon="6.8786861083">
		<tag k="alt_name" v="Anhovden" />
		<tag k="name" v="Andhovden" />
		<tag k="natural" v="hill" />
		<tag k="place" v="locality" />
		<tag k="ssr:date" v="2016-05-10" />
		<tag k="ssr:gruppe" v="høyder" />
		<tag k="ssr:hovedgruppe" v="terreng" />
		<tag k="ssr:stedsnr" v="373933" />
		<tag k="ssr:type" v="haug" />
	</node>
	<node id="-512634" lat="61.1766666692" lon="6.88741388899">
		<tag k="name" v="Korahola" />
		<tag k="place" v="locality" />
		<tag k="ssr:date" v="2016-05-10" />
		<tag k="ssr:gruppe" v="terrengdetaljer" />
		<tag k="ssr:hovedgruppe" v="terreng" />
		<tag k="ssr:stedsnr" v="373928" />
		<tag k="ssr:type" v="annenTerrengdetalj" />
	</node>
	<node id="-512633" lat="61.1930076939" lon="6.8635116808">
		<tag k="fixme" v="consider place=hamlet" />
		<tag k="name" v="Dalen" />
		<tag k="place" v="farm" />
		<tag k="ssr:date" v="2017-10-27" />
		<tag k="ssr:gruppe" v="gardsbebyggelse" />
		<tag k="ssr:hovedgruppe" v="bebyggelse" />
		<tag k="ssr:stedsnr" v="373894" />
		<tag k="ssr:type" v="gard" />
	</node>
	<node id="-512632" lat="61.1814666675" lon="6.73551944486">
		<tag k="name" v="Rysseviki" />
		<tag k="natural" v="bay" />
		<tag k="ssr:date" v="2016-05-10" />
		<tag k="ssr:gruppe" v="kystkontur" />
		<tag k="ssr:hovedgruppe" v="sjø" />
		<tag k="ssr:stedsnr" v="373882" />
		<tag k="ssr:type" v="vikISjø" />
	</node>
	<node id="-512631" lat="61.1839402264" lon="6.74717317568">
		<tag k="fixme" v="consider place=hamlet" />
		<tag k="name" v="Holene" />
		<tag k="place" v="farm" />
		<tag k="ssr:date" v="2017-10-27" />
		<tag k="ssr:gruppe" v="gardsbebyggelse" />
		<tag k="ssr:hovedgruppe" v="bebyggelse" />
		<tag k="ssr:stedsnr" v="373879" />
		<tag k="ssr:type" v="gard" />
	</node>
	<node id="-512630" lat="61.2413944461" lon="6.74485278626">
		<tag k="name" v="Henjane" />
		<tag k="natural" v="hill" />
		<tag k="place" v="locality" />
		<tag k="ssr:date" v="2016-05-10" />
		<tag k="ssr:gruppe" v="høyder" />
		<tag k="ssr:hovedgruppe" v="terreng" />
		<tag k="ssr:stedsnr" v="373565" />
		<tag k="ssr:type" v="haug" />
	</node>
	<node id="-512629" lat="61.2397972243" lon="6.836511106">
		<tag k="historic" v="shieling" />
		<tag k="name" v="Sevi" />
		<tag k="place" v="locality" />
		<tag k="ssr:date" v="2016-05-10" />
		<tag k="ssr:gruppe" v="gardsbebyggelse" />
		<tag k="ssr:hovedgruppe" v="bebyggelse" />
		<tag k="ssr:stedsnr" v="373560" />
		<tag k="ssr:type" v="seterStøl" />
	</node>
	<node id="-512628" lat="61.2397583297" lon="6.69455556277">
		<tag k="fixme" v="consider natural=peak for the most distinct mountains in the district" />
		<tag k="name" v="Hest" />
		<tag k="natural" v="hill" />
		<tag k="place" v="locality" />
		<tag k="ssr:date" v="2016-05-10" />
		<tag k="ssr:gruppe" v="høyder" />
		<tag k="ssr:hovedgruppe" v="terreng" />
		<tag k="ssr:stedsnr" v="373550" />
		<tag k="ssr:type" v="fjell" />
	</node>
	<node id="-512627" lat="61.2468305563" lon="6.66430278687">
		<tag k="fixme" v="consider natural=peak for the most distinct mountains in the district" />
		<tag k="name" v="Trodalseggi" />
		<tag k="natural" v="hill" />
		<tag k="place" v="locality" />
		<tag k="ssr:date" v="2016-05-10" />
		<tag k="ssr:gruppe" v="høyder" />
		<tag k="ssr:hovedgruppe" v="terreng" />
		<tag k="ssr:stedsnr" v="373537" />
		<tag k="ssr:type" v="fjell" />
	</node>
	<node id="-512626" lat="61.2573972248" lon="6.88749444374">
		<tag k="alt_name" v="Lomavatn" />
		<tag k="name" v="Lomavatnet" />
		<tag k="natural" v="water" />
		<tag k="ssr:date" v="2016-05-10" />
		<tag k="ssr:gruppe" v="stilleståendeVann" />
		<tag k="ssr:hovedgruppe" v="ferskvann" />
		<tag k="ssr:stedsnr" v="372166" />
		<tag k="ssr:type" v="tjern" />
	</node>
	<node id="-512625" lat="61.2697611089" lon="6.86220832693">
		<tag k="name" v="Slettabotn" />
		<tag k="natural" v="valley" />
		<tag k="place" v="locality" />
		<tag k="ssr:date" v="2016-05-10" />
		<tag k="ssr:gruppe" v="senkninger" />
		<tag k="ssr:hovedgruppe" v="terreng" />
		<tag k="ssr:stedsnr" v="371161" />
		<tag k="ssr:type" v="botn" />
	</node>
	<node id="-512624" lat="61.2835499978" lon="6.80772777185">
		<tag k="name" v="Voggevatnet" />
		<tag k="natural" v="water" />
		<tag k="ssr:date" v="2016-05-10" />
		<tag k="ssr:gruppe" v="stilleståendeVann" />
		<tag k="ssr:hovedgruppe" v="ferskvann" />
		<tag k="ssr:stedsnr" v="371126" />
		<tag k="ssr:type" v="tjern" />
	</node>
	<node id="-512623" lat="61.1854777798" lon="6.88159721559">
		<tag k="name" v="Kyrafossen" />
		<tag k="natural" v="waterfall" />
		<tag k="ssr:date" v="2016-05-10" />
		<tag k="ssr:gruppe" v="rennendeVann" />
		<tag k="ssr:hovedgruppe" v="ferskvann" />
		<tag k="ssr:stedsnr" v="362998" />
		<tag k="ssr:type" v="foss" />
	</node>
	<node id="-512622" lat="61.2171499993" lon="6.78761666215">
		<tag k="name" v="Skarseggene" />
		<tag k="natural" v="ridge" />
		<tag k="place" v="locality" />
		<tag k="ssr:date" v="2016-05-10" />
		<tag k="ssr:gruppe" v="høyder" />
		<tag k="ssr:hovedgruppe" v="terreng" />
		<tag k="ssr:stedsnr" v="362993" />
		<tag k="ssr:type" v="rygg" />
	</node>
	<node id="-512621" lat="61.2147611109" lon="6.89119443759">
		<tag k="name" v="Botnabakken" />
		<tag k="natural" v="slope" />
		<tag k="place" v="locality" />
		<tag k="ssr:date" v="2016-05-10" />
		<tag k="ssr:gruppe" v="skråninger" />
		<tag k="ssr:hovedgruppe" v="terreng" />
		<tag k="ssr:stedsnr" v="362983" />
		<tag k="ssr:type" v="bakke" />
	</node>
	<node id="-512620" lat="61.190852775" lon="6.74515555433">
		<tag k="name" v="Huksgjerde" />
		<tag k="place" v="isolated_dwelling" />
		<tag k="ssr:date" v="2016-05-10" />
		<tag k="ssr:gruppe" v="bolighus" />
		<tag k="ssr:hovedgruppe" v="bebyggelse" />
		<tag k="ssr:stedsnr" v="343958" />
		<tag k="ssr:type" v="eneboligMindreBoligbygg" />
	</node>
	<node id="-512619" lat="61.2169805577" lon="6.83587777471">
		<tag k="name" v="Kinnaberget" />
		<tag k="natural" v="hill" />
		<tag k="place" v="locality" />
		<tag k="ssr:date" v="2016-05-10" />
		<tag k="ssr:gruppe" v="høyder" />
		<tag k="ssr:hovedgruppe" v="terreng" />
		<tag k="ssr:stedsnr" v="337941" />
		<tag k="ssr:type" v="berg" />
	</node>
	<node id="-512618" lat="61.1920444477" lon="6.76694445256">
		<tag k="name" v="Hagane" />
		<tag k="natural" v="slope" />
		<tag k="place" v="locality" />
		<tag k="ssr:date" v="2016-05-10" />
		<tag k="ssr:gruppe" v="skråninger" />
		<tag k="ssr:hovedgruppe" v="terreng" />
		<tag k="ssr:stedsnr" v="337825" />
		<tag k="ssr:type" v="li" />
	</node>
	<node id="-512617" lat="61.2606138889" lon="6.9189944492">
		<tag k="name" v="Botn" />
		<tag k="natural" v="valley" />
		<tag k="place" v="locality" />
		<tag k="ssr:date" v="2016-05-10" />
		<tag k="ssr:gruppe" v="senkninger" />
		<tag k="ssr:hovedgruppe" v="terreng" />
		<tag k="ssr:stedsnr" v="337708" />
		<tag k="ssr:type" v="botn" />
	</node>
	<node id="-512616" lat="61.2521194449" lon="6.90406387975">
		<tag k="name" v="Sumi" />
		<tag k="ssr:date" v="2016-05-10" />
		<tag k="ssr:gruppe" v="rennendeVann" />
		<tag k="ssr:hovedgruppe" v="ferskvann" />
		<tag k="ssr:stedsnr" v="337705" />
		<tag k="ssr:type" v="bekk" />
		<tag k="waterway" v="stream" />
	</node>
	<node id="-512615" lat="61.2095000019" lon="6.91117500324">
		<tag k="name" v="Havrane" />
		<tag k="place" v="locality" />
		<tag k="ssr:date" v="2016-05-10" />
		<tag k="ssr:gruppe" v="flater" />
		<tag k="ssr:hovedgruppe" v="terreng" />
		<tag k="ssr:stedsnr" v="337678" />
		<tag k="ssr:type" v="slette" />
	</node>
	<node id="-512614" lat="61.2064194474" lon="6.80741388092">
		<tag k="name" v="Svoldsæt" />
		<tag k="natural" v="hill" />
		<tag k="place" v="locality" />
		<tag k="ssr:date" v="2016-05-10" />
		<tag k="ssr:gruppe" v="høyder" />
		<tag k="ssr:hovedgruppe" v="terreng" />
		<tag k="ssr:stedsnr" v="337658" />
		<tag k="ssr:type" v="haug" />
	</node>
	<node id="-512613" lat="61.190808331" lon="6.79151665969">
		<tag k="name" v="Styggeteigen" />
		<tag k="natural" v="slope" />
		<tag k="place" v="locality" />
		<tag k="ssr:date" v="2016-05-10" />
		<tag k="ssr:gruppe" v="skråninger" />
		<tag k="ssr:hovedgruppe" v="terreng" />
		<tag k="ssr:stedsnr" v="337656" />
		<tag k="ssr:type" v="li" />
	</node>
	<node id="-512612" lat="61.2078083348" lon="6.84701943715">
		<tag k="name" v="Kammane" />
		<tag k="natural" v="hill" />
		<tag k="place" v="locality" />
		<tag k="ssr:date" v="2016-05-10" />
		<tag k="ssr:gruppe" v="høyder" />
		<tag k="ssr:hovedgruppe" v="terreng" />
		<tag k="ssr:stedsnr" v="337618" />
		<tag k="ssr:type" v="haug" />
	</node>
	<node id="-512611" lat="61.2378749966" lon="6.76371389604">
		<tag k="name" v="Veahaug" />
		<tag k="natural" v="hill" />
		<tag k="place" v="locality" />
		<tag k="ssr:date" v="2016-05-10" />
		<tag k="ssr:gruppe" v="høyder" />
		<tag k="ssr:hovedgruppe" v="terreng" />
		<tag k="ssr:stedsnr" v="337297" />
		<tag k="ssr:type" v="haug" />
	</node>
	<node id="-512610" lat="61.2345805594" lon="6.84223610678">
		<tag k="name" v="Stigaflaten" />
		<tag k="place" v="locality" />
		<tag k="ssr:date" v="2016-05-10" />
		<tag k="ssr:gruppe" v="flater" />
		<tag k="ssr:hovedgruppe" v="terreng" />
		<tag k="ssr:stedsnr" v="337165" />
		<tag k="ssr:type" v="slette" />
	</node>
	<node id="-512609" lat="61.1892583325" lon="6.74877221837">
		<tag k="name" v="Huksdalen" />
		<tag k="natural" v="valley" />
		<tag k="place" v="locality" />
		<tag k="ssr:date" v="2016-05-10" />
		<tag k="ssr:gruppe" v="senkninger" />
		<tag k="ssr:hovedgruppe" v="terreng" />
		<tag k="ssr:stedsnr" v="337125" />
		<tag k="ssr:type" v="dal" />
	</node>
	<node id="-512608" lat="61.2588111072" lon="6.91974166849">
		<tag k="name" v="Krekane" />
		<tag k="natural" v="wetland" />
		<tag k="ssr:date" v="2016-05-10" />
		<tag k="ssr:gruppe" v="våtmark" />
		<tag k="ssr:hovedgruppe" v="markslag" />
		<tag k="ssr:stedsnr" v="324722" />
		<tag k="ssr:type" v="myr" />
	</node>
	<node id="-512607" lat="61.2148861081" lon="6.62117222264">
		<tag k="name" v="Øygarden" />
		<tag k="place" v="locality" />
		<tag k="ssr:date" v="2016-05-10" />
		<tag k="ssr:gruppe" v="gardsbebyggelse" />
		<tag k="ssr:hovedgruppe" v="bebyggelse" />
		<tag k="ssr:stedsnr" v="313970" />
		<tag k="ssr:type" v="byggForJordbrukFiskeOgFangst" />
	</node>
	<node id="-512606" lat="61.2404055532" lon="6.76218056192">
		<tag k="alt_name" v="Nyanstøla" />
		<tag k="name" v="Nyastøla" />
		<tag k="ssr:date" v="2016-05-10" />
		<tag k="ssr:gruppe" v="rennendeVann" />
		<tag k="ssr:hovedgruppe" v="ferskvann" />
		<tag k="ssr:stedsnr" v="313547" />
		<tag k="ssr:type" v="bekk" />
		<tag k="waterway" v="stream" />
	</node>
	<node id="-512605" lat="61.2373805551" lon="6.73146111651">
		<tag k="name" v="Nonhaug" />
		<tag k="natural" v="hill" />
		<tag k="place" v="locality" />
		<tag k="ssr:date" v="2016-05-10" />
		<tag k="ssr:gruppe" v="høyder" />
		<tag k="ssr:hovedgruppe" v="terreng" />
		<tag k="ssr:stedsnr" v="313530" />
		<tag k="ssr:type" v="haug" />
	</node>
	<node id="-512604" lat="61.2039694433" lon="6.88108054686">
		<tag k="alt_name" v="Njøsdalen" />
		<tag k="name" v="Njøsadalen" />
		<tag k="natural" v="valley" />
		<tag k="place" v="locality" />
		<tag k="ssr:date" v="2016-05-10" />
		<tag k="ssr:gruppe" v="senkninger" />
		<tag k="ssr:hovedgruppe" v="terreng" />
		<tag k="ssr:stedsnr" v="312982" />
		<tag k="ssr:type" v="dal" />
	</node>
	<node id="-512603" lat="61.1984829784" lon="6.6988326783">
		<tag k="alt_name" v="Supeim;Suphamar" />
		<tag k="fixme" v="consider place=hamlet" />
		<tag k="name" v="Suppam" />
		<tag k="place" v="farm" />
		<tag k="ssr:date" v="2017-10-27" />
		<tag k="ssr:gruppe" v="gardsbebyggelse" />
		<tag k="ssr:hovedgruppe" v="bebyggelse" />
		<tag k="ssr:stedsnr" v="312979" />
		<tag k="ssr:type" v="gard" />
	</node>
	<node id="-512602" lat="61.2033055577" lon="6.67316943543">
		<tag k="alt_name" v="Skjær" />
		<tag k="fixme" v="consider seamark:type=rock or natural=shoal" />
		<tag k="name" v="Skjer" />
		<tag k="place" v="islet" />
		<tag k="ssr:date" v="2016-05-10" />
		<tag k="ssr:gruppe" v="grunnerISjø" />
		<tag k="ssr:hovedgruppe" v="sjø" />
		<tag k="ssr:stedsnr" v="312977" />
		<tag k="ssr:type" v="skjærISjø" />
	</node>
	<node id="-512601" lat="61.2205388847" lon="6.72706666236">
		<tag k="name" v="Langhaug" />
		<tag k="natural" v="hill" />
		<tag k="place" v="locality" />
		<tag k="ssr:date" v="2016-05-10" />
		<tag k="ssr:gruppe" v="høyder" />
		<tag k="ssr:hovedgruppe" v="terreng" />
		<tag k="ssr:stedsnr" v="312956" />
		<tag k="ssr:type" v="haug" />
	</node>
	<node id="-512600" lat="61.2167055542" lon="6.6627555535">
		<tag k="name" v="Friseta" />
		<tag k="ssr:date" v="2016-05-10" />
		<tag k="ssr:gruppe" v="rennendeVann" />
		<tag k="ssr:hovedgruppe" v="ferskvann" />
		<tag k="ssr:stedsnr" v="312949" />
		<tag k="ssr:type" v="elv" />
		<tag k="waterway" v="river" />
	</node>
	<node id="-512599" lat="61.1950000028" lon="6.77223333225">
		<tag k="name" v="Holene" />
		<tag k="natural" v="valley" />
		<tag k="place" v="locality" />
		<tag k="ssr:date" v="2016-05-10" />
		<tag k="ssr:gruppe" v="senkninger" />
		<tag k="ssr:hovedgruppe" v="terreng" />
		<tag k="ssr:stedsnr" v="312884" />
		<tag k="ssr:type" v="senkning" />
	</node>
	<node id="-512598" lat="61.1827694465" lon="6.71311945182">
		<tag k="name" v="Verkaneset" />
		<tag k="natural" v="cape" />
		<tag k="ssr:date" v="2016-05-10" />
		<tag k="ssr:gruppe" v="kystkontur" />
		<tag k="ssr:hovedgruppe" v="sjø" />
		<tag k="ssr:stedsnr" v="312867" />
		<tag k="ssr:type" v="nesISjø" />
	</node>
	<node id="-512597" lat="61.1809500005" lon="6.73086666393">
		<tag k="name" v="Galtane" />
		<tag k="natural" v="cape" />
		<tag k="ssr:date" v="2016-05-10" />
		<tag k="ssr:gruppe" v="kystkontur" />
		<tag k="ssr:hovedgruppe" v="sjø" />
		<tag k="ssr:stedsnr" v="312862" />
		<tag k="ssr:type" v="nesISjø" />
	</node>
	<node id="-512596" lat="61.2554416695" lon="6.91850277672">
		<tag k="alt_name" v="Fjærlandsetvatn" />
		<tag k="name" v="Fjærlandssetvatnet" />
		<tag k="natural" v="water" />
		<tag k="ssr:date" v="2016-05-10" />
		<tag k="ssr:gruppe" v="stilleståendeVann" />
		<tag k="ssr:hovedgruppe" v="ferskvann" />
		<tag k="ssr:stedsnr" v="311203" />
		<tag k="ssr:type" v="vann" />
		<tag k="water" v="lake" />
	</node>
	<node id="-512595" lat="61.2630194462" lon="6.76428333107">
		<tag k="name" v="Svinadalen" />
		<tag k="natural" v="valley" />
		<tag k="place" v="locality" />
		<tag k="ssr:date" v="2016-05-10" />
		<tag k="ssr:gruppe" v="senkninger" />
		<tag k="ssr:hovedgruppe" v="terreng" />
		<tag k="ssr:stedsnr" v="311180" />
		<tag k="ssr:type" v="dal" />
	</node>
	<node id="-512594" lat="61.2678499985" lon="6.84747222667">
		<tag k="fixme" v="consider natural=peak for the most distinct mountains in the district" />
		<tag k="name" v="Svolsetfjellet" />
		<tag k="natural" v="hill" />
		<tag k="place" v="locality" />
		<tag k="ssr:date" v="2016-05-10" />
		<tag k="ssr:gruppe" v="høyder" />
		<tag k="ssr:hovedgruppe" v="terreng" />
		<tag k="ssr:stedsnr" v="311176" />
		<tag k="ssr:type" v="ås" />
	</node>
	<node id="-512593" lat="61.2639666671" lon="6.73741388421">
		<tag k="fixme" v="consider natural=peak for the most distinct mountains in the district" />
		<tag k="name" v="Stavafjellet" />
		<tag k="natural" v="hill" />
		<tag k="place" v="locality" />
		<tag k="ssr:date" v="2016-05-10" />
		<tag k="ssr:gruppe" v="høyder" />
		<tag k="ssr:hovedgruppe" v="terreng" />
		<tag k="ssr:stedsnr" v="311177" />
		<tag k="ssr:type" v="fjell" />
	</node>
	<node id="-512592" lat="61.2759055513" lon="6.757602784">
		<tag k="name" v="Fossadalen" />
		<tag k="natural" v="valley" />
		<tag k="place" v="locality" />
		<tag k="ssr:date" v="2016-05-10" />
		<tag k="ssr:gruppe" v="senkninger" />
		<tag k="ssr:hovedgruppe" v="terreng" />
		<tag k="ssr:stedsnr" v="311170" />
		<tag k="ssr:type" v="dal" />
	</node>
	<node id="-512591" lat="61.2717888917" lon="6.88600556214">
		<tag k="name" v="Traståna" />
		<tag k="ssr:date" v="2016-05-10" />
		<tag k="ssr:gruppe" v="rennendeVann" />
		<tag k="ssr:hovedgruppe" v="ferskvann" />
		<tag k="ssr:stedsnr" v="311165" />
		<tag k="ssr:type" v="bekk" />
		<tag k="waterway" v="stream" />
	</node>
	<node id="-512590" lat="61.2864750019" lon="6.74236389101">
		<tag k="name" v="Skar" />
		<tag k="natural" v="valley" />
		<tag k="place" v="locality" />
		<tag k="ssr:date" v="2016-05-10" />
		<tag k="ssr:gruppe" v="senkninger" />
		<tag k="ssr:hovedgruppe" v="terreng" />
		<tag k="ssr:stedsnr" v="311160" />
		<tag k="ssr:type" v="skar" />
	</node>
	<node id="-512589" lat="61.2086305554" lon="6.89022499508">
		<tag k="name" v="Stølengjehola" />
		<tag k="place" v="locality" />
		<tag k="ssr:date" v="2016-05-10" />
		<tag k="ssr:gruppe" v="terrengdetaljer" />
		<tag k="ssr:hovedgruppe" v="terreng" />
		<tag k="ssr:stedsnr" v="302987" />
		<tag k="ssr:type" v="heller" />
	</node>
	<node id="-512588" lat="61.1749000038" lon="6.88700832464">
		<tag k="bridge" v="yes" />
		<tag k="layer" v="1" />
		<tag k="name" v="Fatla" />
		<tag k="ssr:date" v="2016-05-10" />
		<tag k="ssr:gruppe" v="samferdselsanlegg" />
		<tag k="ssr:hovedgruppe" v="infrastruktur" />
		<tag k="ssr:stedsnr" v="289479" />
		<tag k="ssr:type" v="bru" />
	</node>
	<node id="-512587" lat="61.2144861123" lon="6.65237777431">
		<tag k="name" v="Tunga" />
		<tag k="natural" v="slope" />
		<tag k="place" v="locality" />
		<tag k="ssr:date" v="2016-05-10" />
		<tag k="ssr:gruppe" v="skråninger" />
		<tag k="ssr:hovedgruppe" v="terreng" />
		<tag k="ssr:stedsnr" v="277701" />
		<tag k="ssr:type" v="li" />
	</node>
	<node id="-512586" lat="61.2136138871" lon="6.64838055643">
		<tag k="name" v="Blomslåtta" />
		<tag k="natural" v="slope" />
		<tag k="place" v="locality" />
		<tag k="ssr:date" v="2016-05-10" />
		<tag k="ssr:gruppe" v="skråninger" />
		<tag k="ssr:hovedgruppe" v="terreng" />
		<tag k="ssr:stedsnr" v="277678" />
		<tag k="ssr:type" v="li" />
	</node>
	<node id="-512585" lat="61.2223833304" lon="6.74841944037">
		<tag k="name" v="Vollabakkane" />
		<tag k="natural" v="slope" />
		<tag k="place" v="locality" />
		<tag k="ssr:date" v="2016-05-10" />
		<tag k="ssr:gruppe" v="skråninger" />
		<tag k="ssr:hovedgruppe" v="terreng" />
		<tag k="ssr:stedsnr" v="277441" />
		<tag k="ssr:type" v="bakke" />
	</node>
	<node id="-512584" lat="61.1904083348" lon="6.71603333698">
		<tag k="fixme" v="consider natural=peak for the most distinct mountains in the district" />
		<tag k="name" v="Åsen" />
		<tag k="natural" v="hill" />
		<tag k="place" v="locality" />
		<tag k="ssr:date" v="2016-05-10" />
		<tag k="ssr:gruppe" v="høyder" />
		<tag k="ssr:hovedgruppe" v="terreng" />
		<tag k="ssr:stedsnr" v="277377" />
		<tag k="ssr:type" v="ås" />
	</node>
	<node id="-512583" lat="61.2043194439" lon="6.71390832538">
		<tag k="name" v="Skrymtahola" />
		<tag k="natural" v="gorge" />
		<tag k="ssr:date" v="2016-05-10" />
		<tag k="ssr:gruppe" v="senkninger" />
		<tag k="ssr:hovedgruppe" v="terreng" />
		<tag k="ssr:stedsnr" v="277376" />
		<tag k="ssr:type" v="juv" />
	</node>
	<node id="-512582" lat="61.2393000034" lon="6.75709999506">
		<tag k="name" v="Navarsetmyrane" />
		<tag k="natural" v="wetland" />
		<tag k="ssr:date" v="2016-05-10" />
		<tag k="ssr:gruppe" v="våtmark" />
		<tag k="ssr:hovedgruppe" v="markslag" />
		<tag k="ssr:stedsnr" v="277255" />
		<tag k="ssr:type" v="myr" />
	</node>
	<node id="-512581" lat="61.2550388897" lon="6.65113611059">
		<tag k="name" v="Perelvi" />
		<tag k="ssr:date" v="2016-05-10" />
		<tag k="ssr:gruppe" v="rennendeVann" />
		<tag k="ssr:hovedgruppe" v="ferskvann" />
		<tag k="ssr:stedsnr" v="277234" />
		<tag k="ssr:type" v="bekk" />
		<tag k="waterway" v="stream" />
	</node>
	<node id="-512580" lat="61.2625277767" lon="6.65187500087">
		<tag k="name" v="Fureranden" />
		<tag k="natural" v="ridge" />
		<tag k="place" v="locality" />
		<tag k="ssr:date" v="2016-05-10" />
		<tag k="ssr:gruppe" v="høyder" />
		<tag k="ssr:hovedgruppe" v="terreng" />
		<tag k="ssr:stedsnr" v="277230" />
		<tag k="ssr:type" v="rygg" />
	</node>
	<node id="-512579" lat="61.2134333372" lon="6.89215278577">
		<tag k="name" v="Garlebakkhaug" />
		<tag k="natural" v="hill" />
		<tag k="place" v="locality" />
		<tag k="ssr:date" v="2016-05-10" />
		<tag k="ssr:gruppe" v="høyder" />
		<tag k="ssr:hovedgruppe" v="terreng" />
		<tag k="ssr:stedsnr" v="276738" />
		<tag k="ssr:type" v="haug" />
	</node>
</osm>
