<?xml version="1.0" encoding="UTF-8"?>
<osm generator="osmapis" version="0.6">
	<node id="-513488" lat="61.1780777821" lon="6.85296111927">
		<tag k="alt_name" v="Nokkaneset" />
		<tag k="name" v="Nokkanes" />
		<tag k="ssr:date" v="2016-05-10" />
		<tag k="ssr:gruppe" v="navigasjon" />
		<tag k="ssr:hovedgruppe" v="infrastruktur" />
		<tag k="ssr:stedsnr" v="191895" />
		<tag k="ssr:type" v="fyrlykt" />
	</node>
	<node id="-513735" lat="61.1849833339" lon="6.86255278219">
		<tag k="name" v="Turken" />
		<tag k="ssr:date" v="2019-05-31" />
		<tag k="ssr:gruppe" v="veg" />
		<tag k="ssr:hovedgruppe" v="infrastruktur" />
		<tag k="ssr:stedsnr" v="809488" />
		<tag k="ssr:type" v="adressenavn" />
	</node>
	<node id="-513806" lat="60.8816104596" lon="6.30047518531">
		<tag k="name" v="Vestlandet" />
		<tag k="ssr:date" v="2019-01-06" />
		<tag k="ssr:gruppe" v="administrativeIndelinger" />
		<tag k="ssr:hovedgruppe" v="offentligAdministrasjon" />
		<tag k="ssr:stedsnr" v="974777" />
		<tag k="ssr:type" v="annenAdministrativInndeling" />
	</node>
	<node id="-513562" lat="61.1855888879" lon="6.82203332454">
		<tag k="alt_name" v="Leikanger" />
		<tag k="name" v="Leikanger kommune" />
		<tag k="ssr:date" v="2019-08-14" />
		<tag k="ssr:gruppe" v="administrativeIndelinger" />
		<tag k="ssr:hovedgruppe" v="offentligAdministrasjon" />
		<tag k="ssr:stedsnr" v="451893" />
		<tag k="ssr:type" v="kommune" />
	</node>
	<node id="-513503" lat="61.1826277752" lon="6.85257778642">
		<tag k="alt_name" v="Sogn og Fjordane" />
		<tag k="name" v="Sogn og Fjordane fylke" />
		<tag k="ssr:date" v="2019-05-09" />
		<tag k="ssr:gruppe" v="administrativeIndelinger" />
		<tag k="ssr:hovedgruppe" v="offentligAdministrasjon" />
		<tag k="ssr:stedsnr" v="208322" />
		<tag k="ssr:type" v="fylke" />
	</node>
</osm>
