<?xml version="1.0" encoding="UTF-8"?>
<osm version="0.6" generator="osmapis">
	<node lat="61.17639444829117" lon="9.051138880613346" id="-56544">
		<tag k="name" v="Gørrtjernmyre" />
		<tag k="natural" v="wetland" />
		<tag k="old_name" v="Gørrtjednmyre" />
		<tag k="ssr:stedsnr" v="235151" />
	</node>
	<node lat="61.17980000147739" lon="9.05005833882166" id="-56545">
		<tag k="historic" v="shieling" />
		<tag k="name" v="Vindebuvøllen" />
		<tag k="place" v="locality" />
		<tag k="ssr:stedsnr" v="235157" />
	</node>
	<node lat="61.23009166344891" lon="8.935538882394416" id="-56576">
		<tag k="name" v="Tørumyre" />
		<tag k="natural" v="wetland" />
		<tag k="ssr:stedsnr" v="236951" />
	</node>
	<node lat="61.11957777688615" lon="9.14031943767609" id="-56586">
		<tag k="name" v="Storemyre" />
		<tag k="natural" v="wetland" />
		<tag k="ssr:stedsnr" v="54066" />
	</node>
	<node lat="61.202980556656186" lon="8.997186118964734" id="-56609">
		<tag k="name" v="Stormyr" />
		<tag k="natural" v="wetland" />
		<tag k="ssr:stedsnr" v="67497" />
	</node>
	<node lat="61.20759166223343" lon="9.028580555775891" id="-56612">
		<tag k="alt_name" v="Vamyre" />
		<tag k="name" v="Vadmyre" />
		<tag k="natural" v="wetland" />
		<tag k="ssr:stedsnr" v="68511" />
	</node>
	<node lat="61.09841666622249" lon="9.173261102853814" id="-56634">
		<tag k="name" v="Gråemyre" />
		<tag k="natural" v="wetland" />
		<tag k="old_name" v="Gråe myre" />
		<tag k="ssr:stedsnr" v="249163" />
	</node>
	<node lat="61.19838333612508" lon="8.924872224829192" id="-56667">
		<tag k="name" v="Sagejorde" />
		<tag k="place" v="locality" />
		<tag k="ssr:stedsnr" v="114622" />
	</node>
	<node lat="61.16272221927273" lon="9.119944445486047" id="-56669">
		<tag k="name" v="Storehøymyr" />
		<tag k="natural" v="wetland" />
		<tag k="ssr:stedsnr" v="115111" />
	</node>
	<node lat="61.06077777952002" lon="9.139888888081465" id="-56674">
		<tag k="name" v="Kvednamyre" />
		<tag k="natural" v="wetland" />
		<tag k="ssr:stedsnr" v="115527" />
	</node>
	<node lat="61.23781944819094" lon="8.953083325679321" id="-56685">
		<tag k="name" v="Nøbbamyre" />
		<tag k="natural" v="wetland" />
		<tag k="ssr:stedsnr" v="115893" />
	</node>
	<node lat="61.122680554956474" lon="9.129055551088184" id="-56725">
		<tag k="name" v="Tåbakkmyre" />
		<tag k="natural" v="wetland" />
		<tag k="ssr:stedsnr" v="175061" />
	</node>
	<node lat="61.16191944320983" lon="9.287716675129303" id="-56755">
		<tag k="name" v="Søkkja" />
		<tag k="natural" v="wetland" />
		<tag k="ssr:stedsnr" v="203505" />
	</node>
	<node lat="61.0848138864396" lon="9.18041388143701" id="-56764">
		<tag k="alt_name" v="Bjødneslettmyre" />
		<tag k="name" v="Bjørneslettmyre" />
		<tag k="natural" v="wetland" />
		<tag k="ssr:stedsnr" v="236233" />
	</node>
	<node lat="61.09710277984937" lon="9.044383328850717" id="-56770">
		<tag k="name" v="Strandemyre" />
		<tag k="natural" v="wetland" />
		<tag k="ssr:stedsnr" v="236306" />
	</node>
	<node lat="61.19434999971197" lon="9.080433338654906" id="-56772">
		<tag k="name" v="Vindåsmyre" />
		<tag k="natural" v="wetland" />
		<tag k="ssr:stedsnr" v="236637" />
	</node>
	<node lat="61.16364166487849" lon="8.960452779815741" id="-56778">
		<tag k="name" v="Kløppemyradn" />
		<tag k="natural" v="wetland" />
		<tag k="ssr:stedsnr" v="236802" />
	</node>
	<node lat="61.15863055644994" lon="8.935249993855436" id="-56782">
		<tag k="name" v="Måfåmyradn" />
		<tag k="natural" v="wetland" />
		<tag k="ssr:stedsnr" v="236810" />
	</node>
	<node lat="61.157708331402524" lon="9.055205563517742" id="-56806">
		<tag k="name" v="Breimyr" />
		<tag k="natural" v="wetland" />
		<tag k="ssr:stedsnr" v="296187" />
	</node>
	<node lat="61.12868055595778" lon="9.094680553366333" id="-56808">
		<tag k="name" v="Tøsteinsonbrennudn" />
		<tag k="place" v="locality" />
		<tag k="ssr:stedsnr" v="296425" />
	</node>
	<node lat="61.074852781997336" lon="9.16497500234798" id="-56819">
		<tag k="name" v="Køjamyra" />
		<tag k="natural" v="wetland" />
		<tag k="ssr:stedsnr" v="297230" />
	</node>
	<node lat="61.14108610943871" lon="9.123663886458443" id="-56835">
		<tag k="alt_name" v="Letmyre" />
		<tag k="name" v="Letmyrane" />
		<tag k="natural" v="wetland" />
		<tag k="ssr:stedsnr" v="310096" />
	</node>
	<node lat="61.25712500008402" lon="8.973527784661458" id="-56849">
		<tag k="name" v="Blautmyre" />
		<tag k="natural" v="wetland" />
		<tag k="ssr:stedsnr" v="311128" />
	</node>
	<node lat="61.1060888915777" lon="9.143300003651666" id="-56867">
		<tag k="name" v="Møsamyre" />
		<tag k="natural" v="wetland" />
		<tag k="ssr:stedsnr" v="357407" />
	</node>
	<node lat="61.07415833291005" lon="9.101616662507357" id="-56882">
		<tag k="name" v="Kviteberghagin" />
		<tag k="place" v="locality" />
		<tag k="ssr:stedsnr" v="358664" />
	</node>
	<node lat="61.0774805547874" lon="9.101783330988697" id="-56883">
		<tag k="name" v="Vindforodokke" />
		<tag k="place" v="locality" />
		<tag k="ssr:stedsnr" v="358665" />
	</node>
	<node lat="61.20443611195202" lon="8.98658333926718" id="-56904">
		<tag k="historic" v="shieling" />
		<tag k="name" v="Dalheimstøladn" />
		<tag k="place" v="locality" />
		<tag k="ssr:stedsnr" v="478757" />
	</node>
	<node lat="61.16168888502493" lon="9.292613895140574" id="-56912">
		<tag k="name" v="Øddadn" />
		<tag k="natural" v="wetland" />
		<tag k="ssr:stedsnr" v="368508" />
	</node>
	<node lat="61.16876389035213" lon="8.923922225662182" id="-56916">
		<tag k="name" v="Gunnarslettmyre" />
		<tag k="natural" v="wetland" />
		<tag k="ssr:stedsnr" v="478948" />
	</node>
	<node lat="61.17963889205118" lon="8.921933327940659" id="-56917">
		<tag k="historic" v="shieling" />
		<tag k="name" v="Heimstølen" />
		<tag k="place" v="locality" />
		<tag k="ssr:stedsnr" v="478953" />
	</node>
	<node lat="61.08463345389498" lon="9.061103073683812" id="-56936">
		<tag k="historic" v="shieling" />
		<tag k="name" v="Dalastølen" />
		<tag k="place" v="locality" />
		<tag k="ssr:stedsnr" v="371211" />
	</node>
	<node lat="61.10725555273252" lon="9.043611112500066" id="-56940">
		<tag k="historic" v="shieling" />
		<tag k="name" v="Eikrestølen" />
		<tag k="place" v="locality" />
		<tag k="ssr:stedsnr" v="479352" />
	</node>
	<node lat="61.19757777609062" lon="8.910908330929628" id="-56953">
		<tag k="name" v="Skjelsanden" />
		<tag k="natural" v="beach" />
		<tag k="ssr:stedsnr" v="479975" />
		<tag k="surface" v="sand" />
	</node>
	<node lat="61.16067499957423" lon="9.380883336567186" id="-56972">
		<tag k="historic" v="shieling" />
		<tag k="name" v="Gamlestølen" />
		<tag k="place" v="locality" />
		<tag k="ssr:stedsnr" v="418393" />
	</node>
	<node lat="61.23728055635231" lon="8.963930556027291" id="-56976">
		<tag k="name" v="Dykjynmyre" />
		<tag k="natural" v="wetland" />
		<tag k="ssr:stedsnr" v="418891" />
	</node>
	<node lat="61.22426388734925" lon="9.250849993377244" id="-56983">
		<tag k="name" v="Bersetmyradn" />
		<tag k="natural" v="wetland" />
		<tag k="ssr:stedsnr" v="419485" />
	</node>
	<node lat="61.195688890767116" lon="9.00628333905729" id="-56992">
		<tag k="loc_name" v="Åsmyre" />
		<tag k="name" v="Åsmyr" />
		<tag k="natural" v="wetland" />
		<tag k="ssr:stedsnr" v="431002" />
	</node>
	<node lat="61.19239722166351" lon="9.09400833217168" id="-57000">
		<tag k="name" v="Blestremyre" />
		<tag k="natural" v="wetland" />
		<tag k="ssr:stedsnr" v="432010" />
	</node>
	<node lat="61.200294444965415" lon="9.011308338314652" id="-57032">
		<tag k="alt_name" v="Størrmyr" />
		<tag k="name" v="Storrmyr" />
		<tag k="natural" v="wetland" />
		<tag k="ssr:stedsnr" v="492443" />
	</node>
	<node lat="61.13098888946585" lon="9.097680558522441" id="-57097">
		<tag k="name" v="Øvre Moajordet" />
		<tag k="place" v="locality" />
		<tag k="ssr:stedsnr" v="478075" />
	</node>
	<node lat="61.13566110951192" lon="9.034083342330012" id="-57100">
		<tag k="name" v="Stølsmyre" />
		<tag k="natural" v="wetland" />
		<tag k="ssr:stedsnr" v="478470" />
	</node>
	<node lat="61.169722223278356" lon="9.134916668570956" id="-57146">
		<tag k="name" v="Rolistølsmyre" />
		<tag k="natural" v="wetland" />
		<tag k="ssr:stedsnr" v="540018" />
	</node>
	<node lat="61.0763388918818" lon="9.171811111288536" id="-57153">
		<tag k="name" v="Nylomyre" />
		<tag k="natural" v="wetland" />
		<tag k="ssr:stedsnr" v="540216" />
	</node>
	<node lat="61.127172224292046" lon="9.139666675416661" id="-57162">
		<tag k="loc_name" v="Storrmyre" />
		<tag k="name" v="Størrmyre" />
		<tag k="natural" v="wetland" />
		<tag k="ssr:stedsnr" v="552123" />
	</node>
	<node lat="61.178191668622" lon="9.30215833921798" id="-57189">
		<tag k="name" v="Lomtjernmyran" />
		<tag k="natural" v="wetland" />
		<tag k="old_name" v="Lomtjednmyradn" />
		<tag k="ssr:stedsnr" v="599463" />
	</node>
	<node lat="61.15874167110786" lon="9.153230550202444" id="-57193">
		<tag k="name" v="Ørnshøvdmyre" />
		<tag k="natural" v="wetland" />
		<tag k="ssr:stedsnr" v="600114" />
	</node>
	<node lat="61.12518610797004" lon="9.137019452412616" id="-57235">
		<tag k="alt_name" v="Kløppemyre" />
		<tag k="name" v="Kloppmyre" />
		<tag k="natural" v="wetland" />
		<tag k="ssr:stedsnr" v="660089" />
	</node>
	<node lat="61.16305277347138" lon="9.174624997352634" id="-57243">
		<tag k="name" v="Rennsennmyradn" />
		<tag k="natural" v="wetland" />
		<tag k="ssr:stedsnr" v="661189" />
	</node>
	<node lat="61.2201638855004" lon="8.972719450923433" id="-57287">
		<tag k="name" v="Kleivmyradn" />
		<tag k="natural" v="wetland" />
		<tag k="ssr:stedsnr" v="903940" />
	</node>
	<node lat="61.17575555110262" lon="8.950061111388928" id="-57288">
		<tag k="name" v="Øvrejordet" />
		<tag k="place" v="locality" />
		<tag k="ssr:stedsnr" v="903950" />
	</node>
	<node lat="61.171713890272656" lon="8.906299993397647" id="-57289">
		<tag k="name" v="Hølomyr" />
		<tag k="natural" v="wetland" />
		<tag k="ssr:stedsnr" v="903958" />
	</node>
	<node lat="61.204466662829006" lon="8.981544436931502" id="-57297">
		<tag k="name" v="Sveinsjordet" />
		<tag k="place" v="locality" />
		<tag k="ssr:stedsnr" v="721719" />
	</node>
	<node lat="61.070994440694115" lon="9.22906666599888" id="-57300">
		<tag k="name" v="Åsmyradn" />
		<tag k="natural" v="wetland" />
		<tag k="ssr:stedsnr" v="722104" />
	</node>
	<node lat="61.12234166708881" lon="9.195027772963293" id="-57302">
		<tag k="name" v="Åborhella" />
		<tag k="natural" v="stone" />
		<tag k="old_name" v="Øbbørhella" />
		<tag k="ssr:stedsnr" v="722222" />
	</node>
	<node lat="61.097605552987076" lon="9.038591670229568" id="-57303">
		<tag k="name" v="Eikremyre" />
		<tag k="natural" v="wetland" />
		<tag k="ssr:stedsnr" v="722319" />
	</node>
	<node lat="61.195819446511955" lon="9.136591667140806" id="-57309">
		<tag k="alt_name" v="Murkhøvdmyre" />
		<tag k="name" v="Murkhovdmyre" />
		<tag k="natural" v="wetland" />
		<tag k="ssr:stedsnr" v="722768" />
	</node>
	<node lat="61.12383055368705" lon="9.134111109768611" id="-57336">
		<tag k="historic" v="shieling" />
		<tag k="name" v="Andrissonstølen" />
		<tag k="place" v="locality" />
		<tag k="ssr:stedsnr" v="903084" />
	</node>
	<node lat="61.14121111292285" lon="9.150600002982051" id="-57351">
		<tag k="name" v="Maradalsmyre" />
		<tag k="natural" v="wetland" />
		<tag k="ssr:stedsnr" v="904113" />
	</node>
	<node lat="61.26614166588214" lon="8.829422230218055" id="-57367">
		<tag k="name" v="Flåmyradn" />
		<tag k="natural" v="wetland" />
		<tag k="ssr:stedsnr" v="904783" />
	</node>
	<node lat="61.16065833618543" lon="9.062755552616585" id="-57380">
		<tag k="name" v="Fiskebekkbrøtin" />
		<tag k="place" v="locality" />
		<tag k="ssr:stedsnr" v="782020" />
	</node>
	<node lat="61.33280000415328" lon="9.17735555132546" id="-57418">
		<tag k="historic" v="shieling" />
		<tag k="name" v="Fuksin" />
		<tag k="place" v="locality" />
		<tag k="ssr:stedsnr" v="797060" />
	</node>
	<node lat="61.447761111591944" lon="8.795002776497528" id="-57420">
		<tag k="name" v="Leirungsmyrin" />
		<tag k="natural" v="wetland" />
		<tag k="ssr:stedsnr" v="797764" />
	</node>
	<node lat="61.24019444258818" lon="9.28723332847496" id="-57446">
		<tag k="alt_name" v="Bjødnhaugmyradn" />
		<tag k="name" v="Bjørnhaugmyrane" />
		<tag k="natural" v="wetland" />
		<tag k="ssr:stedsnr" v="917990" />
	</node>
	<node lat="61.137761115391974" lon="9.145058328830464" id="-57470">
		<tag k="name" v="Storemyre" />
		<tag k="natural" v="wetland" />
		<tag k="ssr:stedsnr" v="843081" />
	</node>
	<node lat="61.19836110806239" lon="8.92176389524333" id="-57478">
		<tag k="name" v="Brumyre" />
		<tag k="natural" v="wetland" />
		<tag k="ssr:stedsnr" v="843604" />
	</node>
	<node lat="61.1483972213043" lon="9.02440833440952" id="-57523">
		<tag k="name" v="Bakkenge" />
		<tag k="place" v="locality" />
		<tag k="ssr:stedsnr" v="903157" />
	</node>
	<node lat="61.20148332905247" lon="9.18666389710657" id="-57548">
		<tag k="name" v="Stormyre" />
		<tag k="natural" v="wetland" />
		<tag k="ssr:stedsnr" v="917003" />
	</node>
	<node lat="61.073508329026836" lon="9.239211107519967" id="-57578">
		<tag k="name" v="Storevassmyr" />
		<tag k="natural" v="wetland" />
		<tag k="ssr:stedsnr" v="964103" />
	</node>
	<node lat="61.12144166736453" lon="9.121086102623103" id="-57579">
		<tag k="name" v="Brattebakkmyre" />
		<tag k="natural" v="wetland" />
		<tag k="ssr:stedsnr" v="964089" />
	</node>
	<node lat="61.157741669778545" lon="9.161863888271961" id="-57580">
		<tag k="name" v="Spissebergmyre" />
		<tag k="natural" v="wetland" />
		<tag k="ssr:stedsnr" v="964233" />
	</node>
	<node lat="61.063325004170814" lon="9.144783326923653" id="-57585">
		<tag k="name" v="Kælkemyre" />
		<tag k="natural" v="wetland" />
		<tag k="ssr:stedsnr" v="964534" />
	</node>
	<node lat="61.08240278137892" lon="9.170791672296046" id="-57629">
		<tag k="alt_name" v="Valdres skiferbrudd" />
		<tag k="landuse" v="quarry" />
		<tag k="name" v="Valdres skiferbrot" />
		<tag k="ssr:stedsnr" v="7233" />
	</node>
	<node lat="61.155158333554084" lon="9.124819444781787" id="-57653">
		<tag k="name" v="Karusmyre" />
		<tag k="natural" v="wetland" />
		<tag k="ssr:stedsnr" v="54097" />
	</node>
	<node lat="61.16234722073484" lon="9.08021666089501" id="-57656">
		<tag k="name" v="Saksbakke" />
		<tag k="place" v="locality" />
		<tag k="ssr:stedsnr" v="54029" />
	</node>
	<node lat="61.183213887199805" lon="9.032750004670259" id="-57663">
		<tag k="historic" v="shieling" />
		<tag k="name" v="Vangstjernstølen" />
		<tag k="old_name" v="Vangstjednstølen" />
		<tag k="place" v="locality" />
		<tag k="ssr:stedsnr" v="54144" />
	</node>
	<node lat="61.19819999805834" lon="9.025558326867237" id="-57684">
		<tag k="name" v="Vindemyre" />
		<tag k="natural" v="wetland" />
		<tag k="ssr:stedsnr" v="54739" />
	</node>
	<node lat="61.199250000216985" lon="8.946350008299369" id="-57687">
		<tag k="name" v="Møsmyrene" />
		<tag k="natural" v="wetland" />
		<tag k="ssr:stedsnr" v="54941" />
	</node>
	<node lat="61.21125277421334" lon="8.953836103255192" id="-57747">
		<tag k="name" v="Kjeldemyre" />
		<tag k="place" v="locality" />
		<tag k="ssr:stedsnr" v="114938" />
	</node>
	<node lat="61.1418749956831" lon="9.163350003051546" id="-57755">
		<tag k="name" v="Jødnmannmyradn" />
		<tag k="natural" v="wetland" />
		<tag k="ssr:stedsnr" v="115230" />
	</node>
	<node lat="61.088294447567264" lon="9.175886114242136" id="-57756">
		<tag k="name" v="Ørnehjellmyradn" />
		<tag k="natural" v="wetland" />
		<tag k="ssr:stedsnr" v="115245" />
	</node>
	<node lat="61.168436114661134" lon="9.022677768516106" id="-57769">
		<tag k="loc_name" v="Storemyr" />
		<tag k="name" v="Storemyre" />
		<tag k="natural" v="wetland" />
		<tag k="ssr:stedsnr" v="128022" />
	</node>
	<node lat="61.210063886536595" lon="9.008036118909509" id="-57780">
		<tag k="loc_name" v="Skammesteinmyre" />
		<tag k="name" v="Varpamyre" />
		<tag k="natural" v="wetland" />
		<tag k="ssr:stedsnr" v="128472" />
	</node>
	<node lat="61.08670555287675" lon="9.18702221766468" id="-57811">
		<tag k="name" v="Bolstadmyradn" />
		<tag k="natural" v="wetland" />
		<tag k="ssr:stedsnr" v="175221" />
	</node>
	<node lat="61.1737916673549" lon="9.114011119388529" id="-57917">
		<tag k="name" v="Høvdemyradn" />
		<tag k="natural" v="wetland" />
		<tag k="ssr:stedsnr" v="297038" />
	</node>
	<node lat="61.24138333504749" lon="9.00808889745596" id="-57929">
		<tag k="name" v="Blauthøl" />
		<tag k="natural" v="wetland" />
		<tag k="ssr:stedsnr" v="297584" />
	</node>
	<node lat="61.24154444259451" lon="8.970172215531965" id="-57931">
		<tag k="name" v="Sløamyradn" />
		<tag k="natural" v="wetland" />
		<tag k="ssr:stedsnr" v="297928" />
	</node>
	<node lat="61.24128333136303" lon="8.961675002294756" id="-57933">
		<tag k="name" v="Finntøppjordet" />
		<tag k="place" v="locality" />
		<tag k="ssr:stedsnr" v="297935" />
	</node>
	<node lat="61.11638888876507" lon="9.132975009267957" id="-57952">
		<tag k="historic" v="shieling" />
		<tag k="name" v="Rolandstølen" />
		<tag k="place" v="locality" />
		<tag k="ssr:stedsnr" v="310148" />
	</node>
	<node lat="61.265233330154615" lon="8.88350277776045" id="-57976">
		<tag k="alt_name" v="Gardlimyradn" />
		<tag k="name" v="Gardlimyrane" />
		<tag k="natural" v="wetland" />
		<tag k="ssr:stedsnr" v="311121" />
	</node>
	<node lat="61.15142222573333" lon="9.07015277649587" id="-58001">
		<tag k="name" v="Dalabrøtin" />
		<tag k="place" v="locality" />
		<tag k="ssr:stedsnr" v="357041" />
	</node>
	<node lat="61.12068055120914" lon="9.056355564521091" id="-58007">
		<tag k="name" v="Klukkarkjeldjordet" />
		<tag k="place" v="locality" />
		<tag k="ssr:stedsnr" v="357288" />
	</node>
	<node lat="61.14221388501303" lon="9.080761103791598" id="-58012">
		<tag k="alt_name" v="Raubrøtmyre" />
		<tag k="name" v="Raudbrotmyre" />
		<tag k="natural" v="wetland" />
		<tag k="ssr:stedsnr" v="357428" />
	</node>
	<node lat="61.13490278123053" lon="9.055172220782051" id="-58015">
		<tag k="name" v="Bokolmyre" />
		<tag k="natural" v="wetland" />
		<tag k="ssr:stedsnr" v="357438" />
	</node>
	<node lat="61.16779722658124" lon="8.951850002983544" id="-58020">
		<tag k="name" v="Smiomyre" />
		<tag k="place" v="locality" />
		<tag k="ssr:stedsnr" v="357940" />
	</node>
	<node lat="61.16703611010874" lon="8.949347221864233" id="-58021">
		<tag k="name" v="Gamlemannsmyre" />
		<tag k="place" v="locality" />
		<tag k="ssr:stedsnr" v="357943" />
	</node>
	<node lat="61.069458336430145" lon="9.226469440407225" id="-58027">
		<tag k="name" v="Jyristakken" />
		<tag k="place" v="locality" />
		<tag k="ssr:stedsnr" v="358094" />
	</node>
	<node lat="61.19159999830998" lon="9.312847218270237" id="-58032">
		<tag k="name" v="Kalvemyre" />
		<tag k="natural" v="wetland" />
		<tag k="ssr:stedsnr" v="358489" />
	</node>
	<node lat="61.11791110735916" lon="9.15124166700086" id="-58051">
		<tag k="historic" v="shieling" />
		<tag k="name" v="Tjernstølen" />
		<tag k="old_name" v="Tjednstølen" />
		<tag k="place" v="locality" />
		<tag k="ssr:stedsnr" v="371162" />
	</node>
	<node lat="61.086458330231785" lon="9.102747220116807" id="-58084">
		<tag k="name" v="Åborsteinane" />
		<tag k="natural" v="stone" />
		<tag k="old_name" v="Øbbersteinadn" />
		<tag k="ssr:stedsnr" v="418512" />
	</node>
	<node lat="61.204224996753084" lon="8.993444445628622" id="-58087">
		<tag k="name" v="Nilsedokke" />
		<tag k="place" v="locality" />
		<tag k="ssr:stedsnr" v="418657" />
	</node>
	<node lat="61.19587500195525" lon="8.95906666226506" id="-58089">
		<tag k="name" v="Hestehagen" />
		<tag k="place" v="locality" />
		<tag k="ssr:stedsnr" v="418598" />
	</node>
	<node lat="61.20487222663079" lon="9.008969438302408" id="-58092">
		<tag k="alt_name" v="Varpemyrene" />
		<tag k="name" v="Varpemyre" />
		<tag k="natural" v="wetland" />
		<tag k="ssr:stedsnr" v="418724" />
	</node>
	<node lat="61.165625002080134" lon="9.115886116836439" id="-58096">
		<tag k="name" v="Veslehøymyr" />
		<tag k="natural" v="wetland" />
		<tag k="ssr:stedsnr" v="419118" />
	</node>
	<node lat="61.296333330303014" lon="8.933130559169541" id="-58108">
		<tag k="name" v="Oleskardmyradn" />
		<tag k="natural" v="wetland" />
		<tag k="ssr:stedsnr" v="420854" />
	</node>
	<node lat="61.294533331954305" lon="8.96941388889351" id="-58109">
		<tag k="name" v="Klyvstein" />
		<tag k="natural" v="stone" />
		<tag k="ssr:stedsnr" v="420859" />
	</node>
	<node lat="61.16657222426999" lon="9.11678055670175" id="-58162">
		<tag k="name" v="Vesle Høymyr" />
		<tag k="natural" v="wetland" />
		<tag k="ssr:stedsnr" v="540021" />
	</node>
	<node lat="61.10462777867532" lon="9.026458337862923" id="-58167">
		<tag k="name" v="Sjåheimmyre" />
		<tag k="natural" v="wetland" />
		<tag k="ssr:stedsnr" v="539301" />
	</node>
	<node lat="61.141150001891816" lon="9.046130560956872" id="-58170">
		<tag k="name" v="Brustein" />
		<tag k="natural" v="stone" />
		<tag k="ssr:stedsnr" v="539421" />
	</node>
	<node lat="61.1307556648591" lon="9.023723933358484" id="-58172">
		<tag k="alt_name" v="Brøthøvdmyre" />
		<tag k="name" v="Brothovdmyre" />
		<tag k="natural" v="wetland" />
		<tag k="ssr:stedsnr" v="539424" />
	</node>
	<node lat="61.175350004254064" lon="8.963750007690713" id="-58177">
		<tag k="name" v="Rundemyre" />
		<tag k="natural" v="wetland" />
		<tag k="ssr:stedsnr" v="539971" />
	</node>
	<node lat="61.23422500158381" lon="8.95609167102354" id="-58185">
		<tag k="name" v="Kaldemyre" />
		<tag k="natural" v="wetland" />
		<tag k="ssr:stedsnr" v="540898" />
	</node>
	<node lat="61.159219447138014" lon="9.36991388721288" id="-58229">
		<tag k="historic" v="shieling" />
		<tag k="name" v="Suggesetlie" />
		<tag k="place" v="locality" />
		<tag k="ssr:stedsnr" v="599395" />
	</node>
	<node lat="61.123600003974296" lon="9.146241665767342" id="-58232">
		<tag k="name" v="Raubekkmyre" />
		<tag k="natural" v="wetland" />
		<tag k="ssr:stedsnr" v="599072" />
	</node>
	<node lat="61.168491664719554" lon="9.118536103366875" id="-58253">
		<tag k="name" v="Blautsæte" />
		<tag k="place" v="locality" />
		<tag k="ssr:stedsnr" v="600018" />
	</node>
	<node lat="61.15615277570203" lon="9.08076667500477" id="-58255">
		<tag k="name" v="Sygnemyradn" />
		<tag k="natural" v="wetland" />
		<tag k="ssr:stedsnr" v="600036" />
	</node>
	<node lat="61.273458329971085" lon="8.978069444025602" id="-58269">
		<tag k="historic" v="shieling" />
		<tag k="name" v="Fjøshaug" />
		<tag k="place" v="locality" />
		<tag k="ssr:stedsnr" v="600929" />
	</node>
	<node lat="61.16686388519499" lon="8.991466674752482" id="-58315">
		<tag k="name" v="Mittskogmyre" />
		<tag k="natural" v="wetland" />
		<tag k="ssr:stedsnr" v="660148" />
	</node>
	<node lat="61.16819166228797" lon="9.023097224216055" id="-58316">
		<tag k="name" v="Maramyre" />
		<tag k="natural" v="wetland" />
		<tag k="ssr:stedsnr" v="660155" />
	</node>
	<node lat="61.173816666268024" lon="9.023544449631421" id="-58317">
		<tag k="name" v="Brekken" />
		<tag k="place" v="locality" />
		<tag k="ssr:stedsnr" v="660158" />
	</node>
	<node lat="61.20392777614459" lon="8.945594453744539" id="-58326">
		<tag k="name" v="Sverigjordet" />
		<tag k="place" v="locality" />
		<tag k="ssr:stedsnr" v="660915" />
	</node>
	<node lat="61.16769999659485" lon="9.120263881957182" id="-58329">
		<tag k="name" v="Langedrag" />
		<tag k="natural" v="wetland" />
		<tag k="ssr:stedsnr" v="661021" />
	</node>
	<node lat="61.15373889325328" lon="9.066694440024643" id="-58330">
		<tag k="name" v="Timanbrøtin" />
		<tag k="place" v="locality" />
		<tag k="ssr:stedsnr" v="661027" />
	</node>
	<node lat="61.17503889287214" lon="8.937094451661686" id="-58337">
		<tag k="name" v="Øspedøtten" />
		<tag k="place" v="locality" />
		<tag k="ssr:stedsnr" v="660938" />
	</node>
	<node lat="61.18099444264152" lon="8.944522216727899" id="-58340">
		<tag k="name" v="Storemyre" />
		<tag k="natural" v="wetland" />
		<tag k="ssr:stedsnr" v="660977" />
	</node>
	<node lat="61.18504444429943" lon="9.213174998758769" id="-58343">
		<tag k="name" v="Fathaugsanden" />
		<tag k="natural" v="beach" />
		<tag k="ssr:stedsnr" v="661158" />
		<tag k="surface" v="sand" />
	</node>
	<node lat="61.059913889441425" lon="9.205163881776102" id="-58348">
		<tag k="historic" v="shieling" />
		<tag k="loc_name" v="Tvengestølen" />
		<tag k="name" v="Tvengeseteren" />
		<tag k="place" v="locality" />
		<tag k="ssr:stedsnr" v="661225" />
	</node>
	<node lat="61.124488891237284" lon="9.109969439857737" id="-58368">
		<tag k="name" v="Ålenhøvdamyre" />
		<tag k="natural" v="wetland" />
		<tag k="ssr:stedsnr" v="721052" />
	</node>
	<node lat="61.150616670100234" lon="9.236530551669045" id="-58371">
		<tag k="historic" v="shieling" />
		<tag k="name" v="Jomfrusletta" />
		<tag k="place" v="locality" />
		<tag k="ssr:stedsnr" v="721160" />
	</node>
	<node lat="61.11854721888264" lon="9.0147916585021" id="-58372">
		<tag k="landuse" v="meadow" />
		<tag k="name" v="Grasdokk" />
		<tag k="ssr:stedsnr" v="721352" />
	</node>
	<node lat="61.1306972193844" lon="9.09543056246389" id="-58375">
		<tag k="name" v="Moajordet" />
		<tag k="place" v="locality" />
		<tag k="ssr:stedsnr" v="721443" />
	</node>
	<node lat="61.20715278151588" lon="8.98473889317357" id="-58380">
		<tag k="name" v="Vikajordet" />
		<tag k="place" v="locality" />
		<tag k="ssr:stedsnr" v="721664" />
	</node>
	<node lat="61.14603888989693" lon="9.203205549680202" id="-58388">
		<tag k="name" v="Grisemyre" />
		<tag k="natural" v="wetland" />
		<tag k="ssr:stedsnr" v="722204" />
	</node>
	<node lat="61.10901944202436" lon="9.172786108396993" id="-58392">
		<tag k="name" v="Rognslimyre" />
		<tag k="natural" v="wetland" />
		<tag k="ssr:stedsnr" v="722240" />
	</node>
	<node lat="61.17533055533453" lon="9.248233334726747" id="-58395">
		<tag k="name" v="Storemyre" />
		<tag k="natural" v="wetland" />
		<tag k="ssr:stedsnr" v="722482" />
	</node>
	<node lat="61.239283333751224" lon="8.971827774752066" id="-58421">
		<tag k="alt_name" v="Åkrokadn" />
		<tag k="name" v="Åkrokane" />
		<tag k="natural" v="wetland" />
		<tag k="ssr:stedsnr" v="735442" />
	</node>
	<node lat="61.076452777599066" lon="9.202641664872958" id="-58441">
		<tag k="name" v="Bumyr" />
		<tag k="natural" v="wetland" />
		<tag k="ssr:stedsnr" v="782206" />
	</node>
	<node lat="61.12558611514744" lon="9.131072223011625" id="-58447">
		<tag k="name" v="Vermemyre" />
		<tag k="natural" v="wetland" />
		<tag k="ssr:stedsnr" v="782075" />
	</node>
	<node lat="61.17755833558787" lon="9.097872218483836" id="-58449">
		<tag k="name" v="Nonsbekkmyre" />
		<tag k="natural" v="wetland" />
		<tag k="ssr:stedsnr" v="782123" />
	</node>
	<node lat="61.16774167000589" lon="9.330116674470542" id="-58467">
		<tag k="name" v="Strypadn" />
		<tag k="natural" v="wetland" />
		<tag k="ssr:stedsnr" v="782434" />
	</node>
	<node lat="61.23046666570649" lon="8.953455547253636" id="-58480">
		<tag k="name" v="Kalde myre" />
		<tag k="natural" v="wetland" />
		<tag k="ssr:stedsnr" v="782935" />
	</node>
	<node lat="61.167341669469785" lon="8.944874998559044" id="-58482">
		<tag k="name" v="Øyadn" />
		<tag k="place" v="locality" />
		<tag k="ssr:stedsnr" v="782945" />
	</node>
	<node lat="61.20720833407147" lon="9.300597217701121" id="-58555">
		<tag k="name" v="Grønebakkin" />
		<tag k="place" v="locality" />
		<tag k="ssr:stedsnr" v="843489" />
	</node>
	<node lat="61.198044440306994" lon="9.318074998947885" id="-58556">
		<tag k="name" v="Lokkarstein" />
		<tag k="natural" v="stone" />
		<tag k="ssr:stedsnr" v="843491" />
	</node>
	<node lat="61.20305278196077" lon="8.982613886059013" id="-58564">
		<tag k="name" v="Rustejordet" />
		<tag k="place" v="locality" />
		<tag k="ssr:stedsnr" v="843763" />
	</node>
	<node lat="61.222247221108866" lon="8.958288890185983" id="-58592">
		<tag k="name" v="Skutemyre" />
		<tag k="natural" v="wetland" />
		<tag k="ssr:stedsnr" v="857455" />
	</node>
	<node lat="61.16253333558654" lon="9.278872225375244" id="-58602">
		<tag k="name" v="Finnkjellmyre" />
		<tag k="natural" v="wetland" />
		<tag k="ssr:stedsnr" v="870488" />
	</node>
	<node lat="61.241102780149085" lon="9.424872230367003" id="-58613">
		<tag k="historic" v="shieling" />
		<tag k="name" v="Fiskevølladn" />
		<tag k="place" v="locality" />
		<tag k="ssr:stedsnr" v="964383" />
	</node>
	<node lat="61.10478333203768" lon="9.153652769378022" id="-58616">
		<tag k="name" v="Myreløomyre" />
		<tag k="natural" v="wetland" />
		<tag k="ssr:stedsnr" v="964428" />
	</node>
	<node lat="61.068688892371746" lon="9.234711104829588" id="-58627">
		<tag k="name" v="Veitemyre" />
		<tag k="natural" v="wetland" />
		<tag k="ssr:stedsnr" v="964102" />
	</node>
	<node lat="61.09862777429416" lon="9.102836112971708" id="-58632">
		<tag k="name" v="Flyvolladn" />
		<tag k="place" v="locality" />
		<tag k="ssr:stedsnr" v="964516" />
	</node>
	<node lat="61.13378611514589" lon="9.224347228332642" id="-58642">
		<tag k="name" v="Svartedyssmyre" />
		<tag k="natural" v="wetland" />
		<tag k="ssr:stedsnr" v="964225" />
	</node>
	<node lat="61.0808555541276" lon="9.1894888866266" id="-58644">
		<tag k="name" v="Klypemyrene" />
		<tag k="natural" v="wetland" />
		<tag k="ssr:stedsnr" v="964253" />
	</node>
	<node lat="61.1776500026215" lon="8.925874992074002" id="-58659">
		<tag k="name" v="Trømyre" />
		<tag k="natural" v="wetland" />
		<tag k="ssr:stedsnr" v="964944" />
	</node>
	<node lat="61.22627777876387" lon="8.946677776774422" id="-58666">
		<tag k="name" v="Høvdamyradn" />
		<tag k="natural" v="wetland" />
		<tag k="ssr:stedsnr" v="964921" />
	</node>
	<node lat="61.21887777877719" lon="8.952094452504747" id="-58668">
		<tag k="alt_name" v="Bjødnamyre" />
		<tag k="name" v="Bjørnamyre" />
		<tag k="natural" v="wetland" />
		<tag k="ssr:stedsnr" v="964925" />
	</node>
	<node lat="61.17081388584995" lon="8.953930555231079" id="-58669">
		<tag k="name" v="Riddaråkeren" />
		<tag k="place" v="locality" />
		<tag k="ssr:stedsnr" v="964929" />
	</node>
</osm>
