<?xml version="1.0" encoding="UTF-8"?>
<<<<<<< HEAD
<osm version="0.6" generator="osmapis">
	<node lat="61.087858336763475" lon="9.124424998119432" id="-18364">
		<tag k="amenity" v="place_of_worship" />
		<tag k="denomination" v="lutheran" />
		<tag k="name" v="Rogne kyrkje" />
		<tag k="religion" v="christian" />
		<tag k="ssr:stedsnr" v="250231" />
	</node>
	<node lat="61.12062778097054" lon="9.059150001552863" id="-18409">
		<tag k="amenity" v="place_of_worship" />
		<tag k="denomination" v="lutheran" />
		<tag k="name" v="Volbu kyrkje" />
		<tag k="religion" v="christian" />
		<tag k="ssr:stedsnr" v="128097" />
	</node>
	<node lat="61.20102500132964" lon="8.979755561353238" id="-18739">
		<tag k="amenity" v="place_of_worship" />
		<tag k="denomination" v="lutheran" />
		<tag k="name" v="Lidar kyrkje" />
		<tag k="religion" v="christian" />
		<tag k="ssr:stedsnr" v="674471" />
	</node>
	<node lat="61.16799722490859" lon="8.979238886456608" id="-19158">
		<tag k="name" v="Dale mølle" />
		<tag k="ssr:stedsnr" v="891052" />
		<tag k="tourism" v="museum" />
	</node>
	<node lat="61.15771666698132" lon="9.023711113636638" id="-19243">
=======
<osm generator="osmapis" version="0.6">
	<node id="-402396" lat="61.0878583368" lon="9.12442499812">
>>>>>>> e1d4bc35ff8a6074a6f2e91616a996b547c36f15
		<tag k="amenity" v="place_of_worship" />
		<tag k="denomination" v="lutheran" />
		<tag k="name" v="Hegge stavkyrkje" />
		<tag k="religion" v="christian" />
<<<<<<< HEAD
		<tag k="ssr:stedsnr" v="7071" />
	</node>
	<node lat="61.15910278178408" lon="8.939416667975054" id="-19244">
=======
		<tag k="ssr:stedsnr" v="250231" />
	</node>
	<node id="-403515" lat="61.0789416688" lon="9.12873889316">
		<tag k="amenity" v="community_centre" />
		<tag k="name" v="Solhaug" />
		<tag k="ssr:stedsnr" v="176630" />
	</node>
	<node id="-403255" lat="61.1591027818" lon="8.93941666798">
>>>>>>> e1d4bc35ff8a6074a6f2e91616a996b547c36f15
		<tag k="name" v="Måfå" />
		<tag k="place" v="locality" />
		<tag k="ssr:stedsnr" v="7072" />
	</node>
<<<<<<< HEAD
	<node lat="61.078941668806294" lon="9.12873889315928" id="-19458">
		<tag k="amenity" v="community_centre" />
		<tag k="name" v="Solhaug" />
		<tag k="ssr:stedsnr" v="176630" />
	</node>
	<node lat="61.19594166347933" lon="8.983169445411608" id="-19521">
		<tag k="amenity" v="community_centre" />
		<tag k="name" v="Midtre Hegge samfunnshus" />
		<tag k="ssr:stedsnr" v="296726" />
	</node>
	<node lat="61.235286111891675" lon="8.929255549418327" id="-19734">
=======
	<node id="-403254" lat="61.157716667" lon="9.02371111364">
		<tag k="amenity" v="place_of_worship" />
		<tag k="denomination" v="lutheran" />
		<tag k="name" v="Hegge stavkyrkje" />
		<tag k="religion" v="christian" />
		<tag k="ssr:stedsnr" v="7071" />
	</node>
	<node id="-402965" lat="61.2010250013" lon="8.97975556135">
>>>>>>> e1d4bc35ff8a6074a6f2e91616a996b547c36f15
		<tag k="amenity" v="place_of_worship" />
		<tag k="denomination" v="lutheran" />
		<tag k="name" v="Lyskapellet" />
		<tag k="religion" v="christian" />
		<tag k="ssr:stedsnr" v="525549" />
	</node>
	<node id="-402988" lat="61.1679972249" lon="8.97923888646">
		<tag k="name" v="Dale mølle" />
		<tag k="ssr:stedsnr" v="891052" />
		<tag k="tourism" v="museum" />
	</node>
	<node id="-403432" lat="61.120627781" lon="9.05915000155">
		<tag k="amenity" v="place_of_worship" />
		<tag k="denomination" v="lutheran" />
		<tag k="name" v="Volbu kyrkje" />
		<tag k="religion" v="christian" />
		<tag k="ssr:stedsnr" v="128097" />
	</node>
	<node id="-402468" lat="61.1959416635" lon="8.98316944541">
		<tag k="amenity" v="community_centre" />
		<tag k="name" v="Midtre Hegge samfunnshus" />
		<tag k="ssr:stedsnr" v="296726" />
	</node>
	<node id="-403809" lat="61.2352861119" lon="8.92925554942">
		<tag k="amenity" v="place_of_worship" />
		<tag k="denomination" v="lutheran" />
		<tag k="name" v="Lyskapellet" />
		<tag k="religion" v="christian" />
		<tag k="ssr:stedsnr" v="525549" />
	</node>
</osm>
