<?xml version="1.0" encoding="UTF-8"?>
<osm version="0.6" generator="osmapis">
	<node lat="61.16925555168523" lon="9.295266674571645" id="-44830">
		<tag k="name" v="Klukkarberget" />
		<tag k="natural" v="hill" />
		<tag k="place" v="locality" />
		<tag k="ssr:stedsnr" v="4463" />
	</node>
	<node lat="61.16779722527367" lon="9.029777772867925" id="-44837">
		<tag k="name" v="Heggeberget" />
		<tag k="natural" v="hill" />
		<tag k="place" v="locality" />
		<tag k="ssr:stedsnr" v="7054" />
	</node>
	<node lat="61.087469448155495" lon="9.24811944010199" id="-44844">
		<tag k="alt_name" v="Skarvemellin" />
		<tag k="fixme" v="consider natural=peak for the most distinct mountains in the district" />
		<tag k="name" v="Skarvemellen" />
		<tag k="natural" v="hill" />
		<tag k="place" v="locality" />
		<tag k="ssr:stedsnr" v="7899" />
	</node>
	<node lat="61.28158333685982" lon="8.907955564156424" id="-44848">
		<tag k="alt_name" v="Breiskar" />
		<tag k="name" v="Breidskard" />
		<tag k="natural" v="valley" />
		<tag k="place" v="locality" />
		<tag k="ssr:stedsnr" v="8093" />
	</node>
	<node lat="61.14471111477841" lon="9.296172218745903" id="-44852">
		<tag k="name" v="Djupedalshøgde" />
		<tag k="natural" v="hill" />
		<tag k="place" v="locality" />
		<tag k="ssr:stedsnr" v="7957" />
	</node>
	<node lat="61.21351110699297" lon="9.279283327810312" id="-44853">
		<tag k="alt_name" v="Etnhøvda" />
		<tag k="name" v="Etnhovda" />
		<tag k="natural" v="hill" />
		<tag k="place" v="locality" />
		<tag k="ssr:stedsnr" v="8000" />
	</node>
	<node lat="61.26505277854609" lon="8.933638893133374" id="-44856">
		<tag k="alt_name" v="Melbyfjellet" />
		<tag k="fixme" v="consider natural=peak for the most distinct mountains in the district" />
		<tag k="name" v="Melbysfjellet" />
		<tag k="natural" v="hill" />
		<tag k="place" v="locality" />
		<tag k="ssr:stedsnr" v="8106" />
	</node>
	<node lat="61.17783610940316" lon="9.062600001151806" id="-44861">
		<tag k="name" v="Rangin" />
		<tag k="place" v="locality" />
		<tag k="ssr:stedsnr" v="235150" />
	</node>
	<node lat="61.12346944643519" lon="9.109686105430889" id="-44865">
		<tag k="name" v="Ålenhøvda" />
		<tag k="natural" v="hill" />
		<tag k="place" v="locality" />
		<tag k="ssr:stedsnr" v="236064" />
	</node>
	<node lat="61.12118611183202" lon="9.133511110165466" id="-44866">
		<tag k="name" v="Ragneberg" />
		<tag k="natural" v="hill" />
		<tag k="place" v="locality" />
		<tag k="ssr:stedsnr" v="236073" />
	</node>
	<node lat="61.17596666767489" lon="9.011005554958146" id="-44867">
		<tag k="name" v="Storhøvd" />
		<tag k="natural" v="hill" />
		<tag k="place" v="locality" />
		<tag k="ssr:stedsnr" v="236145" />
	</node>
	<node lat="61.17145555400773" lon="9.01985555419302" id="-44870">
		<tag k="name" v="Storemyrberget" />
		<tag k="natural" v="hill" />
		<tag k="place" v="locality" />
		<tag k="ssr:stedsnr" v="236159" />
	</node>
	<node lat="61.15557777355929" lon="9.037238886179864" id="-44873">
		<tag k="name" v="Kampen" />
		<tag k="natural" v="slope" />
		<tag k="place" v="locality" />
		<tag k="ssr:stedsnr" v="236171" />
	</node>
	<node lat="61.1552777779858" lon="9.05810832922871" id="-44875">
		<tag k="name" v="Pålsrudhøvda" />
		<tag k="natural" v="hill" />
		<tag k="place" v="locality" />
		<tag k="ssr:stedsnr" v="236243" />
	</node>
	<node lat="61.16350833000562" lon="9.382494444257095" id="-44880">
		<tag k="name" v="Synhaugen" />
		<tag k="natural" v="hill" />
		<tag k="place" v="locality" />
		<tag k="ssr:stedsnr" v="236434" />
	</node>
	<node lat="61.170308333970695" lon="9.314491669852336" id="-44881">
		<tag k="name" v="Dugurdshaugen" />
		<tag k="natural" v="hill" />
		<tag k="place" v="locality" />
		<tag k="ssr:stedsnr" v="236445" />
	</node>
	<node lat="61.259411113461816" lon="8.91059166019993" id="-44882">
		<tag k="fixme" v="consider natural=peak for the most distinct mountains in the district" />
		<tag k="name" v="Søre Knausen" />
		<tag k="natural" v="hill" />
		<tag k="place" v="locality" />
		<tag k="ssr:stedsnr" v="236553" />
	</node>
	<node lat="61.202647223338126" lon="9.224180551525635" id="-44883">
		<tag k="name" v="Øydestølshaugadn" />
		<tag k="natural" v="hill" />
		<tag k="place" v="locality" />
		<tag k="ssr:stedsnr" v="236462" />
	</node>
	<node lat="61.255624996939936" lon="8.837863897209282" id="-44884">
		<tag k="name" v="Søre Synberg" />
		<tag k="natural" v="hill" />
		<tag k="place" v="locality" />
		<tag k="ssr:stedsnr" v="236748" />
	</node>
	<node lat="61.25761944695599" lon="8.833980554801299" id="-44885">
		<tag k="name" v="Nørdre Synberg" />
		<tag k="natural" v="hill" />
		<tag k="place" v="locality" />
		<tag k="ssr:stedsnr" v="236762" />
	</node>
	<node lat="61.16193889063879" lon="8.962074992142242" id="-44886">
		<tag k="name" v="Rynjusbrøtin" />
		<tag k="place" v="locality" />
		<tag k="ssr:stedsnr" v="236801" />
	</node>
	<node lat="61.25133611072503" lon="8.97815834070829" id="-44892">
		<tag k="name" v="Grønebakkin" />
		<tag k="natural" v="slope" />
		<tag k="place" v="locality" />
		<tag k="ssr:stedsnr" v="236943" />
	</node>
	<node lat="61.171447225803256" lon="8.923930559700096" id="-44895">
		<tag k="name" v="Køllunberget" />
		<tag k="natural" v="hill" />
		<tag k="place" v="locality" />
		<tag k="ssr:stedsnr" v="236962" />
	</node>
	<node lat="61.148877777493986" lon="9.138916671392044" id="-44902">
		<tag k="name" v="Høvdaslette" />
		<tag k="place" v="locality" />
		<tag k="ssr:stedsnr" v="54103" />
	</node>
	<node lat="61.136025002015934" lon="9.153574997165304" id="-44905">
		<tag k="name" v="Øydestlsberget" />
		<tag k="natural" v="hill" />
		<tag k="place" v="locality" />
		<tag k="ssr:stedsnr" v="54082" />
	</node>
	<node lat="61.19580277618785" lon="8.95292777698813" id="-44908">
		<tag k="name" v="Nøbbaberget" />
		<tag k="natural" v="hill" />
		<tag k="place" v="locality" />
		<tag k="ssr:stedsnr" v="54614" />
	</node>
	<node lat="61.20103333032443" lon="9.08089722185205" id="-44909">
		<tag k="name" v="Skørvidn" />
		<tag k="natural" v="slope" />
		<tag k="place" v="locality" />
		<tag k="ssr:stedsnr" v="54669" />
	</node>
	<node lat="61.248563889124455" lon="8.856130559708102" id="-44913">
		<tag k="name" v="Løenghøvda" />
		<tag k="natural" v="hill" />
		<tag k="place" v="locality" />
		<tag k="ssr:stedsnr" v="54824" />
	</node>
	<node lat="61.164933335837304" lon="9.213133330906421" id="-44914">
		<tag k="name" v="Gautehaugen" />
		<tag k="natural" v="hill" />
		<tag k="place" v="locality" />
		<tag k="ssr:stedsnr" v="55191" />
	</node>
	<node lat="61.29716944153076" lon="8.892347230181128" id="-44915">
		<tag k="name" v="Dyregravene" />
		<tag k="place" v="locality" />
		<tag k="ssr:stedsnr" v="239867" />
	</node>
	<node lat="61.125533328962646" lon="9.422499991679835" id="-44932">
		<tag k="name" v="Synhaug" />
		<tag k="natural" v="hill" />
		<tag k="place" v="locality" />
		<tag k="ssr:stedsnr" v="68924" />
	</node>
	<node lat="61.27928611124675" lon="8.886902780420908" id="-44937">
		<tag k="name" v="Oledalen" />
		<tag k="natural" v="valley" />
		<tag k="place" v="locality" />
		<tag k="ssr:stedsnr" v="69091" />
	</node>
	<node lat="61.148952780083356" lon="9.206877779524866" id="-44951">
		<tag k="name" v="Midthøgde" />
		<tag k="natural" v="hill" />
		<tag k="place" v="locality" />
		<tag k="ssr:stedsnr" v="249083" />
	</node>
	<node lat="61.2436416697931" lon="8.831599999742528" id="-44959">
		<tag k="alt_name" v="Blåhøvd" />
		<tag k="fixme" v="consider natural=peak for the most distinct mountains in the district" />
		<tag k="name" v="Blåhovda" />
		<tag k="natural" v="hill" />
		<tag k="place" v="locality" />
		<tag k="ssr:stedsnr" v="249700" />
	</node>
	<node lat="61.39288055286026" lon="9.016358340737415" id="-44964">
		<tag k="name" v="Gråbeinholet" />
		<tag k="natural" v="valley" />
		<tag k="place" v="locality" />
		<tag k="ssr:stedsnr" v="250020" />
	</node>
	<node lat="61.272236107819715" lon="8.87169166446489" id="-44966">
		<tag k="fixme" v="consider natural=peak for the most distinct mountains in the district" />
		<tag k="name" v="Grønekinnkampen" />
		<tag k="natural" v="hill" />
		<tag k="place" v="locality" />
		<tag k="ssr:stedsnr" v="250093" />
	</node>
	<node lat="61.27948055309623" lon="9.204608336524723" id="-44967">
		<tag k="loc_name" v="Reinskredkampen" />
		<tag k="name" v="Kringlehøgde" />
		<tag k="natural" v="hill" />
		<tag k="old_name" v="Kringlehd" />
		<tag k="place" v="locality" />
		<tag k="ssr:stedsnr" v="250097" />
	</node>
	<node lat="61.280988890865636" lon="8.765863894288966" id="-44974">
		<tag k="name" v="Skorberget" />
		<tag k="natural" v="hill" />
		<tag k="place" v="locality" />
		<tag k="ssr:stedsnr" v="250194" />
	</node>
	<node lat="61.29434444102122" lon="8.799419443836163" id="-44976">
		<tag k="alt_name" v="Bitihodn;Bitihødn" />
		<tag k="fixme" v="consider natural=peak for the most distinct mountains in the district" />
		<tag k="name" v="Bitihorn" />
		<tag k="natural" v="hill" />
		<tag k="place" v="locality" />
		<tag k="ssr:stedsnr" v="250205" />
	</node>
	<node lat="61.26463055169912" lon="8.799883327380599" id="-44977">
		<tag k="alt_name" v="Trøllhøvd" />
		<tag k="name" v="Trollhovd" />
		<tag k="natural" v="hill" />
		<tag k="place" v="locality" />
		<tag k="ssr:stedsnr" v="250216" />
	</node>
	<node lat="61.08204999676714" lon="9.166613884912747" id="-44980">
		<tag k="name" v="Haugarødningen" />
		<tag k="place" v="locality" />
		<tag k="ssr:stedsnr" v="250235" />
	</node>
	<node lat="61.186094441018916" lon="9.03490833782526" id="-44982">
		<tag k="name" v="Vangstjernmoen" />
		<tag k="old_name" v="Vangstjednmoen" />
		<tag k="place" v="locality" />
		<tag k="ssr:stedsnr" v="114123" />
	</node>
	<node lat="61.2001944465577" lon="8.932472215623271" id="-44984">
		<tag k="name" v="Kvednehaugadn" />
		<tag k="natural" v="hill" />
		<tag k="place" v="locality" />
		<tag k="ssr:stedsnr" v="114617" />
	</node>
	<node lat="61.2175583334224" lon="8.975311105979975" id="-44988">
		<tag k="name" v="Bleikfeten" />
		<tag k="place" v="locality" />
		<tag k="ssr:stedsnr" v="250436" />
	</node>
	<node lat="61.2562527780131" lon="9.361794448944561" id="-44991">
		<tag k="name" v="Halldishaugen" />
		<tag k="natural" v="hill" />
		<tag k="place" v="locality" />
		<tag k="ssr:stedsnr" v="115375" />
	</node>
	<node lat="61.06229999606779" lon="9.13742500821252" id="-44993">
		<tag k="name" v="Kælkehøvda" />
		<tag k="natural" v="hill" />
		<tag k="place" v="locality" />
		<tag k="ssr:stedsnr" v="115529" />
	</node>
	<node lat="61.07177499850439" lon="9.087633339097058" id="-44999">
		<tag k="name" v="Veslerøsbugen" />
		<tag k="natural" v="slope" />
		<tag k="place" v="locality" />
		<tag k="ssr:stedsnr" v="115604" />
	</node>
	<node lat="61.07993055404321" lon="9.106786114638693" id="-45000">
		<tag k="name" v="Haugahøvda" />
		<tag k="natural" v="hill" />
		<tag k="place" v="locality" />
		<tag k="ssr:stedsnr" v="115606" />
	</node>
	<node lat="61.29786110865675" lon="9.090088892773645" id="-45009">
		<tag k="fixme" v="consider natural=peak for the most distinct mountains in the district" />
		<tag k="name" v="Skreddalsfjellet" />
		<tag k="natural" v="hill" />
		<tag k="place" v="locality" />
		<tag k="ssr:stedsnr" v="251085" />
	</node>
	<node lat="61.256594443413746" lon="8.929163893319862" id="-45013">
		<tag k="name" v="Synberget" />
		<tag k="natural" v="hill" />
		<tag k="place" v="locality" />
		<tag k="ssr:stedsnr" v="251114" />
	</node>
	<node lat="61.27824444412863" lon="9.307094437150731" id="-45014">
		<tag k="name" v="Bøllhaugen" />
		<tag k="natural" v="hill" />
		<tag k="place" v="locality" />
		<tag k="ssr:stedsnr" v="251296" />
	</node>
	<node lat="61.200788891367885" lon="8.957647219534099" id="-45018">
		<tag k="name" v="Nausteberget" />
		<tag k="natural" v="hill" />
		<tag k="place" v="locality" />
		<tag k="ssr:stedsnr" v="251957" />
	</node>
	<node lat="61.166308331585086" lon="9.019069442067787" id="-45019">
		<tag k="name" v="Hestekampen" />
		<tag k="natural" v="hill" />
		<tag k="place" v="locality" />
		<tag k="ssr:stedsnr" v="128039" />
	</node>
	<node lat="61.236900001144924" lon="9.062530563254597" id="-45027">
		<tag k="name" v="Sverskuggberget" />
		<tag k="natural" v="hill" />
		<tag k="place" v="locality" />
		<tag k="ssr:stedsnr" v="128435" />
	</node>
	<node lat="61.22659166958812" lon="9.45666388457424" id="-45030">
		<tag k="name" v="Lauvlie" />
		<tag k="natural" v="slope" />
		<tag k="place" v="locality" />
		<tag k="ssr:stedsnr" v="128998" />
	</node>
	<node lat="61.176238885950184" lon="9.253683339871225" id="-45034">
		<tag k="name" v="Langehøgde" />
		<tag k="natural" v="hill" />
		<tag k="place" v="locality" />
		<tag k="ssr:stedsnr" v="142459" />
	</node>
	<node lat="61.08253888994871" lon="9.190419436614466" id="-45046">
		<tag k="name" v="Grohøld-dalen" />
		<tag k="natural" v="valley" />
		<tag k="place" v="locality" />
		<tag k="ssr:stedsnr" v="175207" />
	</node>
	<node lat="61.18159722364779" lon="9.353263892934224" id="-45050">
		<tag k="name" v="Svaberghaugen" />
		<tag k="natural" v="hill" />
		<tag k="place" v="locality" />
		<tag k="ssr:stedsnr" v="175402" />
	</node>
	<node lat="61.19255555532635" lon="8.926091666261247" id="-45058">
		<tag k="name" v="Røyneslie" />
		<tag k="natural" v="slope" />
		<tag k="place" v="locality" />
		<tag k="ssr:stedsnr" v="188004" />
	</node>
	<node lat="61.383972224887195" lon="8.989888895019742" id="-45069">
		<tag k="fixme" v="consider natural=peak for the most distinct mountains in the district" />
		<tag k="name" v="Gråhøe" />
		<tag k="natural" v="hill" />
		<tag k="place" v="locality" />
		<tag k="ssr:stedsnr" v="190025" />
	</node>
	<node lat="61.13076944674099" lon="9.026613886774602" id="-45078">
		<tag k="alt_name" v="Brøthøvdreset" />
		<tag k="name" v="Brothovdreset" />
		<tag k="natural" v="valley" />
		<tag k="place" v="locality" />
		<tag k="ssr:stedsnr" v="235499" />
	</node>
	<node lat="61.134672223318105" lon="9.398108330096584" id="-45079">
		<tag k="name" v="Ørnsberg" />
		<tag k="natural" v="hill" />
		<tag k="place" v="locality" />
		<tag k="ssr:stedsnr" v="236007" />
	</node>
	<node lat="61.14003611089171" lon="9.129686114376028" id="-45080">
		<tag k="name" v="Letmyrbakkadn" />
		<tag k="natural" v="slope" />
		<tag k="place" v="locality" />
		<tag k="ssr:stedsnr" v="236080" />
	</node>
	<node lat="61.199030559177764" lon="9.059927782580239" id="-45089">
		<tag k="name" v="Storemyrmoen" />
		<tag k="place" v="locality" />
		<tag k="ssr:stedsnr" v="236633" />
	</node>
	<node lat="61.20338888828834" lon="9.011361104095032" id="-45095">
		<tag k="name" v="Bekkjihaugen" />
		<tag k="natural" v="hill" />
		<tag k="place" v="locality" />
		<tag k="ssr:stedsnr" v="236717" />
	</node>
	<node lat="61.16419722575313" lon="8.943352786037838" id="-45098">
		<tag k="alt_name" v="Bjelbølsberget" />
		<tag k="name" v="Bjellbølsberget" />
		<tag k="place" v="locality" />
		<tag k="ssr:stedsnr" v="236805" />
	</node>
	<node lat="61.24271666533238" lon="8.841741675260014" id="-45099">
		<tag k="name" v="Grønolsgile" />
		<tag k="natural" v="valley" />
		<tag k="place" v="locality" />
		<tag k="ssr:stedsnr" v="236807" />
	</node>
	<node lat="61.244544445301344" lon="8.81746110473592" id="-45101">
		<tag k="name" v="Eivindstølberget" />
		<tag k="natural" v="slope" />
		<tag k="place" v="locality" />
		<tag k="ssr:stedsnr" v="236814" />
	</node>
	<node lat="61.172402778672044" lon="9.133752785045463" id="-45102">
		<tag k="alt_name" v="Bjødnabakkin" />
		<tag k="name" v="Bjørnabakken" />
		<tag k="natural" v="slope" />
		<tag k="place" v="locality" />
		<tag k="ssr:stedsnr" v="236831" />
	</node>
	<node lat="61.17991944705341" lon="8.95022776974285" id="-45105">
		<tag k="name" v="Røsshaug" />
		<tag k="natural" v="hill" />
		<tag k="place" v="locality" />
		<tag k="ssr:stedsnr" v="236985" />
	</node>
	<node lat="61.17440832979251" lon="9.075127772844485" id="-45122">
		<tag k="name" v="Bustebakkmoen" />
		<tag k="place" v="locality" />
		<tag k="ssr:stedsnr" v="296107" />
	</node>
	<node lat="61.16778055901513" lon="9.033808327872555" id="-45123">
		<tag k="name" v="Hagaberg" />
		<tag k="place" v="locality" />
		<tag k="ssr:stedsnr" v="296124" />
	</node>
	<node lat="61.12723610967708" lon="9.129683327247106" id="-45125">
		<tag k="name" v="Søre Skrikketjernknatten" />
		<tag k="natural" v="hill" />
		<tag k="old_name" v="Søre Skrikketjednknatten" />
		<tag k="place" v="locality" />
		<tag k="ssr:stedsnr" v="296077" />
	</node>
	<node lat="61.16902777533022" lon="9.314324992182696" id="-45128">
		<tag k="name" v="Blåe berget" />
		<tag k="natural" v="hill" />
		<tag k="place" v="locality" />
		<tag k="ssr:stedsnr" v="296437" />
	</node>
	<node lat="61.17160555298691" lon="9.305794445526155" id="-45129">
		<tag k="name" v="Langeberg" />
		<tag k="natural" v="hill" />
		<tag k="place" v="locality" />
		<tag k="ssr:stedsnr" v="296438" />
	</node>
	<node lat="61.205972224465086" lon="8.954505558014246" id="-45133">
		<tag k="name" v="Skateberget" />
		<tag k="natural" v="hill" />
		<tag k="place" v="locality" />
		<tag k="ssr:stedsnr" v="296921" />
	</node>
	<node lat="61.11808055626384" lon="9.212283342438628" id="-45135">
		<tag k="name" v="Djupedalen" />
		<tag k="natural" v="valley" />
		<tag k="place" v="locality" />
		<tag k="ssr:stedsnr" v="297223" />
	</node>
	<node lat="61.20000277495508" lon="9.14939443858142" id="-45140">
		<tag k="name" v="Flænadn" />
		<tag k="place" v="locality" />
		<tag k="ssr:stedsnr" v="297738" />
	</node>
	<node lat="61.325899997882985" lon="9.033308340326931" id="-45142">
		<tag k="name" v="Skindrosynet" />
		<tag k="natural" v="hill" />
		<tag k="place" v="locality" />
		<tag k="ssr:stedsnr" v="301652" />
	</node>
	<node lat="61.190072224969875" lon="9.233516669308727" id="-45146">
		<tag k="name" v="Stordokke" />
		<tag k="place" v="locality" />
		<tag k="ssr:stedsnr" v="309511" />
	</node>
	<node lat="61.18964166879409" lon="9.079475001879006" id="-45147">
		<tag k="fixme" v="consider natural=peak for the most distinct mountains in the district" />
		<tag k="name" v="Vindåsen" />
		<tag k="natural" v="hill" />
		<tag k="place" v="locality" />
		<tag k="ssr:stedsnr" v="310009" />
	</node>
	<node lat="61.433749999949875" lon="8.872850002370265" id="-45165">
		<tag k="name" v="Storkvolven" />
		<tag k="natural" v="slope" />
		<tag k="place" v="locality" />
		<tag k="ssr:stedsnr" v="311008" />
	</node>
	<node lat="61.2891388882956" lon="9.158041674755555" id="-45169">
		<tag k="name" v="Skagstrøne" />
		<tag k="place" v="locality" />
		<tag k="ssr:stedsnr" v="311085" />
	</node>
	<node lat="61.11986111375105" lon="9.287055551125173" id="-45173">
		<tag k="fixme" v="consider natural=peak for the most distinct mountains in the district" />
		<tag k="name" v="Kjølafjellet" />
		<tag k="natural" v="hill" />
		<tag k="place" v="locality" />
		<tag k="ssr:stedsnr" v="311523" />
	</node>
	<node lat="61.10812500242429" lon="9.134150007081326" id="-45186">
		<tag k="name" v="Aurbakkin" />
		<tag k="natural" v="slope" />
		<tag k="place" v="locality" />
		<tag k="ssr:stedsnr" v="357411" />
	</node>
	<node lat="61.107477774851425" lon="9.127402770087789" id="-45187">
		<tag k="name" v="Synberg" />
		<tag k="natural" v="hill" />
		<tag k="place" v="locality" />
		<tag k="ssr:stedsnr" v="357398" />
	</node>
	<node lat="61.26107499694908" lon="8.895711106931175" id="-45189">
		<tag k="fixme" v="consider natural=peak for the most distinct mountains in the district" />
		<tag k="name" v="Nørdre Knausen" />
		<tag k="natural" v="hill" />
		<tag k="place" v="locality" />
		<tag k="ssr:stedsnr" v="357566" />
	</node>
	<node lat="61.24619166974002" lon="8.859411101887632" id="-45191">
		<tag k="name" v="Beitokøllen" />
		<tag k="natural" v="hill" />
		<tag k="place" v="locality" />
		<tag k="ssr:stedsnr" v="357805" />
	</node>
	<node lat="61.158647218313966" lon="8.968016670013318" id="-45192">
		<tag k="name" v="Kristaførslette" />
		<tag k="place" v="locality" />
		<tag k="ssr:stedsnr" v="357809" />
	</node>
	<node lat="61.278313892371266" lon="8.766236104303282" id="-45194">
		<tag k="name" v="Skorberget" />
		<tag k="natural" v="hill" />
		<tag k="place" v="locality" />
		<tag k="ssr:stedsnr" v="357916" />
	</node>
	<node lat="61.17269166483114" lon="8.913024998226408" id="-45196">
		<tag k="alt_name" v="Røyneshøvda" />
		<tag k="fixme" v="consider natural=peak for the most distinct mountains in the district" />
		<tag k="name" v="Røyneshovda" />
		<tag k="natural" v="hill" />
		<tag k="place" v="locality" />
		<tag k="ssr:stedsnr" v="357950" />
	</node>
	<node lat="61.21902499629166" lon="9.318266664514066" id="-45198">
		<tag k="name" v="Venelie" />
		<tag k="natural" v="slope" />
		<tag k="place" v="locality" />
		<tag k="ssr:stedsnr" v="358409" />
	</node>
	<node lat="61.07494722479877" lon="9.083163889877978" id="-45199">
		<tag k="name" v="Storerøsbugen" />
		<tag k="natural" v="slope" />
		<tag k="place" v="locality" />
		<tag k="ssr:stedsnr" v="358657" />
	</node>
	<node lat="61.17427500347428" lon="9.028794445064294" id="-45208">
		<tag k="name" v="Svartetjernberget" />
		<tag k="natural" v="hill" />
		<tag k="old_name" v="Svartetjednberget" />
		<tag k="place" v="locality" />
		<tag k="ssr:stedsnr" v="478143" />
	</node>
	<node lat="61.13086110930602" lon="9.11338054763764" id="-45210">
		<tag k="name" v="Købbesetkampen" />
		<tag k="natural" v="hill" />
		<tag k="place" v="locality" />
		<tag k="ssr:stedsnr" v="478077" />
	</node>
	<node lat="61.13335555847833" lon="9.050627768764096" id="-45221">
		<tag k="name" v="Bokhol" />
		<tag k="place" v="locality" />
		<tag k="ssr:stedsnr" v="478452" />
	</node>
	<node lat="61.263025001864484" lon="8.768513880191463" id="-45223">
		<tag k="name" v="Vektaholet" />
		<tag k="natural" v="valley" />
		<tag k="place" v="locality" />
		<tag k="ssr:stedsnr" v="478773" />
	</node>
	<node lat="61.20517222427426" lon="9.034983324187646" id="-45226">
		<tag k="name" v="Nordtorphøvda" />
		<tag k="natural" v="hill" />
		<tag k="place" v="locality" />
		<tag k="ssr:stedsnr" v="478753" />
	</node>
	<node lat="61.20259167116592" lon="9.032511119710813" id="-45227">
		<tag k="name" v="Fivildmyrdalen" />
		<tag k="natural" v="valley" />
		<tag k="place" v="locality" />
		<tag k="ssr:stedsnr" v="478754" />
	</node>
	<node lat="61.16459166339849" lon="9.296077777948494" id="-45231">
		<tag k="name" v="Flænadn" />
		<tag k="place" v="locality" />
		<tag k="ssr:stedsnr" v="368509" />
	</node>
	<node lat="61.181616663822005" lon="9.120827780283841" id="-45238">
		<tag k="name" v="Svinetjernhøgde" />
		<tag k="natural" v="hill" />
		<tag k="old_name" v="Svinetjednhøgde" />
		<tag k="place" v="locality" />
		<tag k="ssr:stedsnr" v="479022" />
	</node>
	<node lat="61.17475000048163" lon="9.203016670142942" id="-45240">
		<tag k="name" v="Heimre Kalvehaugen" />
		<tag k="natural" v="hill" />
		<tag k="place" v="locality" />
		<tag k="ssr:stedsnr" v="479178" />
	</node>
	<node lat="61.136033331033396" lon="9.16014445073525" id="-45241">
		<tag k="name" v="Jødnmannbakken" />
		<tag k="natural" v="slope" />
		<tag k="place" v="locality" />
		<tag k="ssr:stedsnr" v="479223" />
	</node>
	<node lat="61.3864027802117" lon="9.03954445163069" id="-45250">
		<tag k="name" v="Døradalen" />
		<tag k="natural" v="valley" />
		<tag k="place" v="locality" />
		<tag k="ssr:stedsnr" v="371017" />
	</node>
	<node lat="61.279775001347325" lon="9.118855558832852" id="-45253">
		<tag k="name" v="Storhamaren" />
		<tag k="natural" v="hill" />
		<tag k="place" v="locality" />
		<tag k="ssr:stedsnr" v="371077" />
	</node>
	<node lat="61.21073611350806" lon="8.9988999975654" id="-45259">
		<tag k="name" v="Lihalle" />
		<tag k="natural" v="slope" />
		<tag k="place" v="locality" />
		<tag k="ssr:stedsnr" v="371461" />
	</node>
	<node lat="61.12292499824851" lon="9.118747217950782" id="-45286">
		<tag k="name" v="Brattebakkslette" />
		<tag k="place" v="locality" />
		<tag k="ssr:stedsnr" v="418059" />
	</node>
	<node lat="61.10294166662157" lon="9.149511105872804" id="-45287">
		<tag k="name" v="Reistebakkin" />
		<tag k="natural" v="slope" />
		<tag k="place" v="locality" />
		<tag k="ssr:stedsnr" v="418403" />
	</node>
	<node lat="61.16257777811685" lon="9.373511112476704" id="-45288">
		<tag k="name" v="Nonshøvda" />
		<tag k="natural" v="hill" />
		<tag k="place" v="locality" />
		<tag k="ssr:stedsnr" v="418387" />
	</node>
	<node lat="61.209811112190074" lon="8.966666659343382" id="-45291">
		<tag k="name" v="Grøndalsberget" />
		<tag k="natural" v="slope" />
		<tag k="place" v="locality" />
		<tag k="ssr:stedsnr" v="418936" />
	</node>
	<node lat="61.160444443894804" lon="9.164716672011316" id="-45295">
		<tag k="name" v="Vassbøtthøvda" />
		<tag k="natural" v="hill" />
		<tag k="place" v="locality" />
		<tag k="ssr:stedsnr" v="419203" />
	</node>
	<node lat="61.08582222626323" lon="9.275438882735319" id="-45296">
		<tag k="name" v="Storåksle" />
		<tag k="natural" v="hill" />
		<tag k="place" v="locality" />
		<tag k="ssr:stedsnr" v="419105" />
	</node>
	<node lat="61.14254444234253" lon="9.14582777376532" id="-45307">
		<tag k="alt_name" v="Rundehøvda" />
		<tag k="name" v="Rundehovda" />
		<tag k="natural" v="hill" />
		<tag k="place" v="locality" />
		<tag k="ssr:stedsnr" v="431102" />
	</node>
	<node lat="61.110088890076184" lon="9.146902771478773" id="-45312">
		<tag k="name" v="Hanakneberget" />
		<tag k="natural" v="hill" />
		<tag k="place" v="locality" />
		<tag k="ssr:stedsnr" v="431196" />
	</node>
	<node lat="61.12053055117259" lon="9.127333332738305" id="-45320">
		<tag k="alt_name" v="Ragnadalen" />
		<tag k="name" v="Raunedalen" />
		<tag k="natural" v="valley" />
		<tag k="place" v="locality" />
		<tag k="ssr:stedsnr" v="432116" />
	</node>
	<node lat="61.215247225335816" lon="8.98881111395241" id="-45325">
		<tag k="alt_name" v="Javneberge;Javneberget" />
		<tag k="name" v="Javnberget" />
		<tag k="natural" v="hill" />
		<tag k="old_name" v="Javnebg" />
		<tag k="place" v="locality" />
		<tag k="ssr:stedsnr" v="432419" />
	</node>
	<node lat="61.26866944616403" lon="8.995725009204936" id="-45332">
		<tag k="alt_name" v="Rundehaug" />
		<tag k="name" v="Rundhaug" />
		<tag k="natural" v="hill" />
		<tag k="place" v="locality" />
		<tag k="ssr:stedsnr" v="433112" />
	</node>
	<node lat="61.28155832961029" lon="8.947463888576838" id="-45354">
		<tag k="name" v="Svoloberget" />
		<tag k="natural" v="hill" />
		<tag k="place" v="locality" />
		<tag k="ssr:stedsnr" v="493096" />
	</node>
	<node lat="61.181858330206936" lon="9.277813884528962" id="-45356">
		<tag k="loc_name" v="Snaue høgde" />
		<tag k="name" v="Snauehøgde" />
		<tag k="natural" v="hill" />
		<tag k="place" v="locality" />
		<tag k="ssr:stedsnr" v="492951" />
	</node>
	<node lat="61.17188055837518" lon="9.311763896413396" id="-45357">
		<tag k="name" v="Synberget" />
		<tag k="natural" v="hill" />
		<tag k="place" v="locality" />
		<tag k="ssr:stedsnr" v="492955" />
	</node>
	<node lat="61.349483333143056" lon="8.907833332412046" id="-45358">
		<tag k="alt_name" v="Nuten, store" />
		<tag k="fixme" v="consider natural=peak for the most distinct mountains in the district" />
		<tag k="name" v="Store Nuten" />
		<tag k="natural" v="hill" />
		<tag k="place" v="locality" />
		<tag k="ssr:stedsnr" v="493052" />
	</node>
	<node lat="61.29242499690821" lon="9.300727786294967" id="-45360">
		<tag k="name" v="Marsteinhøgda" />
		<tag k="natural" v="hill" />
		<tag k="place" v="locality" />
		<tag k="ssr:stedsnr" v="494436" />
	</node>
	<node lat="61.321283336148966" lon="9.234155556877225" id="-45361">
		<tag k="fixme" v="consider natural=peak for the most distinct mountains in the district" />
		<tag k="name" v="Klanten" />
		<tag k="natural" v="hill" />
		<tag k="place" v="locality" />
		<tag k="ssr:stedsnr" v="494448" />
	</node>
	<node lat="61.18725555669101" lon="8.964638894210124" id="-45363">
		<tag k="alt_name" v="Skoltehøvda" />
		<tag k="name" v="Skoltehovda" />
		<tag k="natural" v="hill" />
		<tag k="place" v="locality" />
		<tag k="ssr:stedsnr" v="674002" />
	</node>
	<node lat="61.37754444619701" lon="8.96726943978099" id="-45374">
		<tag k="fixme" v="consider natural=peak for the most distinct mountains in the district" />
		<tag k="name" v="Kvernhøe" />
		<tag k="natural" v="hill" />
		<tag k="place" v="locality" />
		<tag k="ssr:stedsnr" v="675028" />
	</node>
	<node lat="61.37393611096186" lon="8.931719451170343" id="-45375">
		<tag k="fixme" v="consider natural=peak for the most distinct mountains in the district" />
		<tag k="name" v="Søre Gluptinden" />
		<tag k="natural" v="hill" />
		<tag k="place" v="locality" />
		<tag k="ssr:stedsnr" v="675038" />
	</node>
	<node lat="61.373361109186746" lon="8.909144448424218" id="-45376">
		<tag k="name" v="Glupen" />
		<tag k="natural" v="valley" />
		<tag k="place" v="locality" />
		<tag k="ssr:stedsnr" v="675039" />
	</node>
	<node lat="61.2479388884858" lon="9.018983333931464" id="-45383">
		<tag k="name" v="Skjenhaugen" />
		<tag k="natural" v="hill" />
		<tag k="place" v="locality" />
		<tag k="ssr:stedsnr" v="674444" />
	</node>
	<node lat="61.20923611492096" lon="8.984138886772122" id="-45386">
		<tag k="name" v="Stuvedalen" />
		<tag k="natural" v="valley" />
		<tag k="place" v="locality" />
		<tag k="ssr:stedsnr" v="674478" />
	</node>
	<node lat="61.2076777808939" lon="9.018983326332657" id="-45388">
		<tag k="alt_name" v="Heimstølberget" />
		<tag k="name" v="Stølsberget" />
		<tag k="natural" v="hill" />
		<tag k="place" v="locality" />
		<tag k="ssr:stedsnr" v="674484" />
	</node>
	<node lat="61.13559892370112" lon="9.237217004717676" id="-45392">
		<tag k="alt_name" v="Rabbalsmellen;Rabalsmellin" />
		<tag k="fixme" v="consider natural=peak for the most distinct mountains in the district" />
		<tag k="name" v="Rabalsmellen" />
		<tag k="natural" v="hill" />
		<tag k="place" v="locality" />
		<tag k="ssr:stedsnr" v="674921" />
	</node>
	<node lat="61.1807027770921" lon="9.38052500794096" id="-45395">
		<tag k="alt_name" v="Skåltjednknatten" />
		<tag k="name" v="Skåltjernknatten" />
		<tag k="natural" v="hill" />
		<tag k="place" v="locality" />
		<tag k="ssr:stedsnr" v="674945" />
	</node>
	<node lat="61.288213890451786" lon="9.00324165840931" id="-45398">
		<tag k="name" v="Stryteberg" />
		<tag k="natural" v="hill" />
		<tag k="place" v="locality" />
		<tag k="ssr:stedsnr" v="675088" />
	</node>
	<node lat="61.27587777349613" lon="9.008930558665897" id="-45399">
		<tag k="name" v="Ljøtebekkdalen" />
		<tag k="natural" v="valley" />
		<tag k="place" v="locality" />
		<tag k="ssr:stedsnr" v="675091" />
	</node>
	<node lat="61.19683333198395" lon="9.401833328136009" id="-45401">
		<tag k="name" v="Kristensonhøgde" />
		<tag k="natural" v="hill" />
		<tag k="place" v="locality" />
		<tag k="ssr:stedsnr" v="674980" />
	</node>
	<node lat="61.28780277803555" lon="8.77762499425861" id="-45404">
		<tag k="alt_name" v="Velumskaret" />
		<tag k="name" v="Velumskardet" />
		<tag k="natural" v="valley" />
		<tag k="place" v="locality" />
		<tag k="ssr:stedsnr" v="675225" />
	</node>
	<node lat="61.266652774607806" lon="8.807236109916253" id="-45405">
		<tag k="name" v="Tjernhaugen" />
		<tag k="natural" v="hill" />
		<tag k="old_name" v="Tjednhaugen" />
		<tag k="place" v="locality" />
		<tag k="ssr:stedsnr" v="675237" />
	</node>
	<node lat="61.133605559863554" lon="9.405055549173053" id="-45412">
		<tag k="name" v="Blåberget" />
		<tag k="natural" v="hill" />
		<tag k="place" v="locality" />
		<tag k="ssr:stedsnr" v="478003" />
	</node>
	<node lat="61.256508337147004" lon="8.82300834027557" id="-45428">
		<tag k="name" v="Tåbakkhøgde" />
		<tag k="natural" v="hill" />
		<tag k="place" v="locality" />
		<tag k="ssr:stedsnr" v="479772" />
	</node>
	<node lat="61.34452777437816" lon="9.03291665886579" id="-45430">
		<tag k="name" v="Straumhaugadn" />
		<tag k="natural" v="hill" />
		<tag k="place" v="locality" />
		<tag k="ssr:stedsnr" v="483708" />
	</node>
	<node lat="61.32535555996196" lon="8.954658332448744" id="-45440">
		<tag k="fixme" v="consider natural=peak for the most distinct mountains in the district" />
		<tag k="name" v="Melbyssynet" />
		<tag k="natural" v="hill" />
		<tag k="place" v="locality" />
		<tag k="ssr:stedsnr" v="493070" />
	</node>
	<node lat="61.18244444446663" lon="9.014905546875179" id="-45452">
		<tag k="name" v="Ulvedalen" />
		<tag k="natural" v="valley" />
		<tag k="place" v="locality" />
		<tag k="ssr:stedsnr" v="539123" />
	</node>
	<node lat="61.1602583368858" lon="8.94545556277155" id="-45461">
		<tag k="name" v="Skalet" />
		<tag k="natural" v="valley" />
		<tag k="place" v="locality" />
		<tag k="ssr:stedsnr" v="539804" />
	</node>
	<node lat="61.17778611469198" lon="9.205327783299714" id="-45464">
		<tag k="name" v="Øystre Kalvehaugen" />
		<tag k="natural" v="hill" />
		<tag k="place" v="locality" />
		<tag k="ssr:stedsnr" v="540175" />
	</node>
	<node lat="61.14521667000929" lon="9.1674055562457" id="-45467">
		<tag k="name" v="Jødnmannberget" />
		<tag k="place" v="locality" />
		<tag k="ssr:stedsnr" v="540208" />
	</node>
	<node lat="61.136227774841906" lon="9.17479444919707" id="-45469">
		<tag k="name" v="Rekeberget" />
		<tag k="natural" v="hill" />
		<tag k="place" v="locality" />
		<tag k="ssr:stedsnr" v="540215" />
	</node>
	<node lat="61.233388892739306" lon="9.124897214759615" id="-45471">
		<tag k="fixme" v="consider natural=peak for the most distinct mountains in the district" />
		<tag k="name" v="Øystre Kjølafjellet" />
		<tag k="natural" v="hill" />
		<tag k="place" v="locality" />
		<tag k="ssr:stedsnr" v="540722" />
	</node>
	<node lat="61.332674997006556" lon="9.047422228678613" id="-45474">
		<tag k="name" v="Titresynet" />
		<tag k="natural" v="hill" />
		<tag k="place" v="locality" />
		<tag k="ssr:stedsnr" v="543623" />
	</node>
	<node lat="61.07570000338995" lon="9.227677779016688" id="-45493">
		<tag k="fixme" v="consider natural=peak for the most distinct mountains in the district" />
		<tag k="name" v="Lagaråsen" />
		<tag k="natural" v="hill" />
		<tag k="place" v="locality" />
		<tag k="ssr:stedsnr" v="553912" />
	</node>
	<node lat="61.252308333977375" lon="8.892183324990242" id="-45496">
		<tag k="alt_name" v="Bjørnebakkane;Bjødnabakkadn" />
		<tag k="name" v="Bjørnabakkane" />
		<tag k="natural" v="slope" />
		<tag k="place" v="locality" />
		<tag k="ssr:stedsnr" v="554109" />
	</node>
	<node lat="61.255575003535746" lon="9.367233333593218" id="-45505">
		<tag k="name" v="Mogophaugen" />
		<tag k="natural" v="hill" />
		<tag k="place" v="locality" />
		<tag k="ssr:stedsnr" v="599352" />
	</node>
	<node lat="61.07938055667057" lon="9.118708339470128" id="-45514">
		<tag k="name" v="Sagahøvda" />
		<tag k="natural" v="hill" />
		<tag k="place" v="locality" />
		<tag k="ssr:stedsnr" v="600625" />
	</node>
	<node lat="61.26048611396656" lon="8.807783334929704" id="-45517">
		<tag k="name" v="Hundeknappen" />
		<tag k="natural" v="hill" />
		<tag k="place" v="locality" />
		<tag k="ssr:stedsnr" v="600765" />
	</node>
	<node lat="61.17509166548968" lon="8.884877784438277" id="-45523">
		<tag k="alt_name" v="Raniset-høvda" />
		<tag k="name" v="Ranisethovda" />
		<tag k="natural" v="hill" />
		<tag k="place" v="locality" />
		<tag k="ssr:stedsnr" v="613031" />
	</node>
	<node lat="61.158263888922136" lon="9.032955561449738" id="-45525">
		<tag k="alt_name" v="Erstadkampen" />
		<tag k="name" v="Kampen" />
		<tag k="natural" v="hill" />
		<tag k="place" v="locality" />
		<tag k="ssr:stedsnr" v="613073" />
	</node>
	<node lat="61.13215000192349" lon="9.121055549529062" id="-45550">
		<tag k="name" v="Riskleive" />
		<tag k="natural" v="slope" />
		<tag k="place" v="locality" />
		<tag k="ssr:stedsnr" v="660081" />
	</node>
	<node lat="61.12965000108129" lon="9.126622220496007" id="-45551">
		<tag k="name" v="Nørdre Skrikketjernknatten" />
		<tag k="natural" v="hill" />
		<tag k="old_name" v="Nørdre Skrikketjednknatten" />
		<tag k="place" v="locality" />
		<tag k="ssr:stedsnr" v="660085" />
	</node>
	<node lat="61.16671666575791" lon="9.346994446282105" id="-45555">
		<tag k="name" v="Etnberget" />
		<tag k="natural" v="ridge" />
		<tag k="place" v="locality" />
		<tag k="ssr:stedsnr" v="660410" />
	</node>
	<node lat="61.24522778224831" lon="8.828216672846125" id="-45557">
		<tag k="name" v="Lykkjedokka" />
		<tag k="natural" v="valley" />
		<tag k="place" v="locality" />
		<tag k="ssr:stedsnr" v="660810" />
	</node>
	<node lat="61.193085757422594" lon="8.89862552158144" id="-45573">
		<tag k="alt_name" v="Øyangslii" />
		<tag k="name" v="Øyangslie" />
		<tag k="natural" v="slope" />
		<tag k="place" v="locality" />
		<tag k="ssr:stedsnr" v="674006" />
	</node>
	<node lat="61.13833333243665" lon="9.169316667905617" id="-45576">
		<tag k="name" v="Jødnmannskampen" />
		<tag k="natural" v="hill" />
		<tag k="place" v="locality" />
		<tag k="ssr:stedsnr" v="674107" />
	</node>
	<node lat="61.159899998688" lon="9.14689166116069" id="-45579">
		<tag k="name" v="Ørnhovd" />
		<tag k="natural" v="hill" />
		<tag k="place" v="locality" />
		<tag k="ssr:stedsnr" v="674071" />
	</node>
	<node lat="61.17633888636283" lon="9.263636108554168" id="-45585">
		<tag k="alt_name" v="Møsaberget" />
		<tag k="name" v="Mosaberget" />
		<tag k="natural" v="hill" />
		<tag k="place" v="locality" />
		<tag k="ssr:stedsnr" v="674956" />
	</node>
	<node lat="61.2623111128849" lon="8.924211114406152" id="-45587">
		<tag k="alt_name" v="Tutjednkampen" />
		<tag k="name" v="Tutjernkampen" />
		<tag k="natural" v="hill" />
		<tag k="place" v="locality" />
		<tag k="ssr:stedsnr" v="675113" />
	</node>
	<node lat="61.33760277386675" lon="8.882916670457377" id="-45592">
		<tag k="fixme" v="consider natural=peak for the most distinct mountains in the district" />
		<tag k="name" v="Skredofjellet" />
		<tag k="natural" v="hill" />
		<tag k="place" v="locality" />
		<tag k="ssr:stedsnr" v="675063" />
	</node>
	<node lat="61.215047225322266" lon="8.962686109000455" id="-45609">
		<tag k="name" v="Snoroberget" />
		<tag k="natural" v="hill" />
		<tag k="place" v="locality" />
		<tag k="ssr:stedsnr" v="903945" />
	</node>
	<node lat="61.17979444717235" lon="9.073013880515793" id="-45611">
		<tag k="name" v="Anfinnslette" />
		<tag k="place" v="locality" />
		<tag k="ssr:stedsnr" v="721121" />
	</node>
	<node lat="61.093311111616714" lon="9.057744452572548" id="-45621">
		<tag k="fixme" v="consider natural=peak for the most distinct mountains in the district" />
		<tag k="name" v="Svarthamar" />
		<tag k="natural" v="hill" />
		<tag k="place" v="locality" />
		<tag k="ssr:stedsnr" v="722323" />
	</node>
	<node lat="61.25496944055326" lon="8.82939722726992" id="-45625">
		<tag k="name" v="Knutshammardalen" />
		<tag k="natural" v="valley" />
		<tag k="place" v="locality" />
		<tag k="ssr:stedsnr" v="722807" />
	</node>
	<node lat="61.181788889749974" lon="9.205661106709982" id="-45636">
		<tag k="name" v="Fathaugen" />
		<tag k="natural" v="hill" />
		<tag k="place" v="locality" />
		<tag k="ssr:stedsnr" v="735029" />
	</node>
	<node lat="61.2706166672881" lon="9.019463889301917" id="-45637">
		<tag k="name" v="Øysterliknappen" />
		<tag k="natural" v="hill" />
		<tag k="place" v="locality" />
		<tag k="ssr:stedsnr" v="735080" />
	</node>
	<node lat="61.26476805769454" lon="8.754965092103278" id="-45640">
		<tag k="name" v="Kalvedalen" />
		<tag k="natural" v="valley" />
		<tag k="place" v="locality" />
		<tag k="ssr:stedsnr" v="735217" />
	</node>
	<node lat="61.11765833026632" lon="9.125452782542004" id="-45652">
		<tag k="name" v="Skratarhølet" />
		<tag k="natural" v="valley" />
		<tag k="place" v="locality" />
		<tag k="ssr:stedsnr" v="903065" />
	</node>
	<node lat="61.169649995771096" lon="8.969944443542957" id="-45659">
		<tag k="name" v="Finshaug" />
		<tag k="natural" v="hill" />
		<tag k="place" v="locality" />
		<tag k="ssr:stedsnr" v="903980" />
	</node>
	<node lat="61.19874444038379" lon="9.00076111328166" id="-45664">
		<tag k="name" v="Snoroberg" />
		<tag k="natural" v="hill" />
		<tag k="place" v="locality" />
		<tag k="ssr:stedsnr" v="903731" />
	</node>
	<node lat="61.12461666974076" lon="9.19239445094422" id="-45671">
		<tag k="name" v="Milehøvda" />
		<tag k="natural" v="hill" />
		<tag k="place" v="locality" />
		<tag k="ssr:stedsnr" v="904219" />
	</node>
	<node lat="61.22952499877523" lon="9.045425008748028" id="-45681">
		<tag k="name" v="Synberg" />
		<tag k="natural" v="hill" />
		<tag k="place" v="locality" />
		<tag k="ssr:stedsnr" v="904638" />
	</node>
	<node lat="61.198358334025194" lon="9.204891661856054" id="-45683">
		<tag k="name" v="Nørdre Synhaugen" />
		<tag k="natural" v="hill" />
		<tag k="place" v="locality" />
		<tag k="ssr:stedsnr" v="904726" />
	</node>
	<node lat="61.26487222476721" lon="8.836561109177492" id="-45685">
		<tag k="name" v="Brimbakke" />
		<tag k="natural" v="slope" />
		<tag k="place" v="locality" />
		<tag k="ssr:stedsnr" v="904784" />
	</node>
	<node lat="61.340316666048494" lon="8.864297226495719" id="-45688">
		<tag k="name" v="Kvannegrøberget" />
		<tag k="natural" v="slope" />
		<tag k="place" v="locality" />
		<tag k="ssr:stedsnr" v="906139" />
	</node>
	<node lat="61.12227221988114" lon="9.006813880895432" id="-45702">
		<tag k="name" v="Kyrskardet" />
		<tag k="natural" v="valley" />
		<tag k="place" v="locality" />
		<tag k="ssr:stedsnr" v="782322" />
	</node>
	<node lat="61.217111107996125" lon="9.427508330008779" id="-45703">
		<tag k="name" v="Flagstadhøgde" />
		<tag k="natural" v="hill" />
		<tag k="place" v="locality" />
		<tag k="ssr:stedsnr" v="782399" />
	</node>
	<node lat="61.204191665173994" lon="9.002875007005834" id="-45707">
		<tag k="name" v="Varpet" />
		<tag k="place" v="locality" />
		<tag k="ssr:stedsnr" v="782705" />
	</node>
	<node lat="61.19632499584534" lon="9.209136105125834" id="-45708">
		<tag k="name" v="Søre Synhaugen" />
		<tag k="natural" v="hill" />
		<tag k="place" v="locality" />
		<tag k="ssr:stedsnr" v="782708" />
	</node>
	<node lat="61.181724997837414" lon="9.067758339069512" id="-45717">
		<tag k="name" v="Raudsand" />
		<tag k="place" v="locality" />
		<tag k="ssr:stedsnr" v="796015" />
	</node>
	<node lat="61.39339166635082" lon="8.944094453210663" id="-45718">
		<tag k="fixme" v="consider natural=peak for the most distinct mountains in the district" />
		<tag k="name" v="Reinsryggen" />
		<tag k="natural" v="hill" />
		<tag k="place" v="locality" />
		<tag k="ssr:stedsnr" v="796019" />
	</node>
	<node lat="61.36460555875771" lon="8.87361388314195" id="-45719">
		<tag k="fixme" v="consider natural=peak for the most distinct mountains in the district" />
		<tag k="name" v="Steinstogonuten" />
		<tag k="natural" v="hill" />
		<tag k="place" v="locality" />
		<tag k="ssr:stedsnr" v="796030" />
	</node>
	<node lat="61.153724999766546" lon="9.115427783286473" id="-45720">
		<tag k="alt_name" v="Mehøvd" />
		<tag k="name" v="Mehovd" />
		<tag k="natural" v="hill" />
		<tag k="place" v="locality" />
		<tag k="ssr:stedsnr" v="796064" />
	</node>
	<node lat="61.12828611091811" lon="9.067383327367683" id="-45721">
		<tag k="alt_name" v="Løkjeshøvda" />
		<tag k="name" v="Løkjeshovda" />
		<tag k="natural" v="hill" />
		<tag k="place" v="locality" />
		<tag k="ssr:stedsnr" v="796103" />
	</node>
	<node lat="61.208105559689606" lon="9.440800002976033" id="-45731">
		<tag k="name" v="Flylægerlie" />
		<tag k="natural" v="slope" />
		<tag k="place" v="locality" />
		<tag k="ssr:stedsnr" v="796972" />
	</node>
	<node lat="61.10047500132204" lon="9.191652778784109" id="-45750">
		<tag k="alt_name" v="Rognlifjellet;Røgnslifjellet" />
		<tag k="fixme" v="consider natural=peak for the most distinct mountains in the district" />
		<tag k="name" v="Rognslifjellet" />
		<tag k="natural" v="hill" />
		<tag k="place" v="locality" />
		<tag k="ssr:stedsnr" v="917160" />
	</node>
	<node lat="61.35960000251027" lon="8.974430564824909" id="-45754">
		<tag k="fixme" v="consider natural=peak for the most distinct mountains in the district" />
		<tag k="name" v="Malmkollen" />
		<tag k="natural" v="hill" />
		<tag k="place" v="locality" />
		<tag k="ssr:stedsnr" v="918030" />
	</node>
	<node lat="61.15331110789209" lon="9.397477786689526" id="-45760">
		<tag k="name" v="Etnlikampen" />
		<tag k="natural" v="hill" />
		<tag k="place" v="locality" />
		<tag k="ssr:stedsnr" v="917943" />
	</node>
	<node lat="61.23499722280402" lon="9.257349998875009" id="-45762">
		<tag k="name" v="Gamlestølberget" />
		<tag k="natural" v="hill" />
		<tag k="place" v="locality" />
		<tag k="ssr:stedsnr" v="917986" />
	</node>
	<node lat="61.2906638911571" lon="9.139833332499862" id="-45770">
		<tag k="alt_name" v="Svarthamartinden" />
		<tag k="fixme" v="consider natural=peak for the most distinct mountains in the district" />
		<tag k="name" v="Svarthamaren" />
		<tag k="natural" v="hill" />
		<tag k="place" v="locality" />
		<tag k="ssr:stedsnr" v="918075" />
	</node>
	<node lat="61.286474999709895" lon="8.847619452284999" id="-45771">
		<tag k="alt_name" v="Oledalsbrynadn" />
		<tag k="name" v="Oledalsbrynane" />
		<tag k="natural" v="hill" />
		<tag k="place" v="locality" />
		<tag k="ssr:stedsnr" v="918078" />
	</node>
	<node lat="61.28530277839093" lon="8.96358332409812" id="-45772">
		<tag k="fixme" v="consider natural=peak for the most distinct mountains in the district" />
		<tag k="name" v="Olefjellet" />
		<tag k="natural" v="hill" />
		<tag k="place" v="locality" />
		<tag k="ssr:stedsnr" v="918083" />
	</node>
	<node lat="61.11818611070931" lon="9.128988883069216" id="-45786">
		<tag k="name" v="Gaukeberg" />
		<tag k="natural" v="hill" />
		<tag k="place" v="locality" />
		<tag k="ssr:stedsnr" v="843074" />
	</node>
	<node lat="61.16751111293795" lon="9.237577772091552" id="-45789">
		<tag k="name" v="Sinderhaugen" />
		<tag k="natural" v="hill" />
		<tag k="place" v="locality" />
		<tag k="ssr:stedsnr" v="843179" />
	</node>
	<node lat="61.15743611090885" lon="9.200455559571875" id="-45791">
		<tag k="name" v="Rennsennskaret" />
		<tag k="natural" v="valley" />
		<tag k="place" v="locality" />
		<tag k="ssr:stedsnr" v="843192" />
	</node>
	<node lat="61.194091662526375" lon="8.952283325958875" id="-45797">
		<tag k="name" v="Nøbbagilet" />
		<tag k="natural" v="gorge" />
		<tag k="ssr:stedsnr" v="843626" />
	</node>
	<node lat="61.14625277448377" lon="9.16774443808719" id="-45814">
		<tag k="fixme" v="consider natural=peak for the most distinct mountains in the district" />
		<tag k="name" v="Luskaråsen" />
		<tag k="natural" v="hill" />
		<tag k="place" v="locality" />
		<tag k="ssr:stedsnr" v="856085" />
	</node>
	<node lat="61.37708888511423" lon="9.005608334673562" id="-45821">
		<tag k="name" v="Steinflye" />
		<tag k="place" v="locality" />
		<tag k="ssr:stedsnr" v="857028" />
	</node>
	<node lat="61.19258055496938" lon="9.257633324141331" id="-45828">
		<tag k="name" v="Synhaugen" />
		<tag k="natural" v="hill" />
		<tag k="place" v="locality" />
		<tag k="ssr:stedsnr" v="857978" />
	</node>
	<node lat="61.310308334652504" lon="9.1479305493608" id="-45830">
		<tag k="name" v="Sandbrotet" />
		<tag k="natural" v="slope" />
		<tag k="place" v="locality" />
		<tag k="ssr:stedsnr" v="858077" />
	</node>
	<node lat="61.26014166466115" lon="9.089255558047254" id="-45832">
		<tag k="alt_name" v="Skredalshøgde" />
		<tag k="loc_name" v="Skreddalshøgde" />
		<tag k="name" v="Skreddølshøgde" />
		<tag k="natural" v="hill" />
		<tag k="place" v="locality" />
		<tag k="ssr:stedsnr" v="858097" />
	</node>
	<node lat="61.12077500309207" lon="9.018436105065058" id="-45841">
		<tag k="fixme" v="consider natural=peak for the most distinct mountains in the district" />
		<tag k="name" v="Jørstadhøvda" />
		<tag k="natural" v="hill" />
		<tag k="place" v="locality" />
		<tag k="ssr:stedsnr" v="903365" />
	</node>
	<node lat="61.11532499686105" lon="9.07420000711268" id="-45852">
		<tag k="name" v="Onstadsletta" />
		<tag k="place" v="locality" />
		<tag k="ssr:stedsnr" v="904304" />
	</node>
	<node lat="61.32347222007594" lon="8.928905562847522" id="-45859">
		<tag k="name" v="Grautebukkhaugen" />
		<tag k="natural" v="hill" />
		<tag k="place" v="locality" />
		<tag k="ssr:stedsnr" v="906111" />
	</node>
	<node lat="61.38702499685959" lon="8.740233326460256" id="-45872">
		<tag k="fixme" v="consider natural=peak for the most distinct mountains in the district" />
		<tag k="name" v="Raslet" />
		<tag k="natural" v="hill" />
		<tag k="place" v="locality" />
		<tag k="ssr:stedsnr" v="917117" />
	</node>
	<node lat="61.17635277340042" lon="9.421169439236671" id="-45879">
		<tag k="alt_name" v="Fullsennkampen" />
		<tag k="fixme" v="consider natural=peak for the most distinct mountains in the district" />
		<tag k="name" v="Fullsennknatten" />
		<tag k="natural" v="hill" />
		<tag k="place" v="locality" />
		<tag k="ssr:stedsnr" v="917961" />
	</node>
	<node lat="61.21288333348361" lon="9.382269442920174" id="-45881">
		<tag k="name" v="Finnetjernhøgde" />
		<tag k="natural" v="hill" />
		<tag k="place" v="locality" />
		<tag k="ssr:stedsnr" v="917969" />
	</node>
	<node lat="61.21339999599398" lon="9.400202776066836" id="-45882">
		<tag k="fixme" v="consider natural=peak for the most distinct mountains in the district" />
		<tag k="name" v="Sælifjellet" />
		<tag k="natural" v="hill" />
		<tag k="place" v="locality" />
		<tag k="ssr:stedsnr" v="917970" />
	</node>
	<node lat="61.26252222648113" lon="8.893002784850792" id="-45886">
		<tag k="name" v="Knausehøgde" />
		<tag k="natural" v="hill" />
		<tag k="place" v="locality" />
		<tag k="ssr:stedsnr" v="918101" />
	</node>
	<node lat="61.28909444891832" lon="8.812905547784558" id="-45887">
		<tag k="alt_name" v="Båtskardet, nordre;Båtskaret" />
		<tag k="name" v="Nørdre Båtskardet" />
		<tag k="natural" v="valley" />
		<tag k="place" v="locality" />
		<tag k="ssr:stedsnr" v="918223" />
	</node>
	<node lat="61.11438333549395" lon="9.126691661342283" id="-45900">
		<tag k="name" v="Bleikeberg" />
		<tag k="natural" v="hill" />
		<tag k="place" v="locality" />
		<tag k="ssr:stedsnr" v="964437" />
	</node>
	<node lat="61.12162500419747" lon="9.086636116771528" id="-45901">
		<tag k="name" v="Svinelibrøtin" />
		<tag k="natural" v="slope" />
		<tag k="place" v="locality" />
		<tag k="ssr:stedsnr" v="964325" />
	</node>
	<node lat="61.19515277781795" lon="8.997455561320049" id="-45903">
		<tag k="name" v="Perslettgile" />
		<tag k="natural" v="slope" />
		<tag k="place" v="locality" />
		<tag k="ssr:stedsnr" v="964711" />
	</node>
	<node lat="61.16051944811529" lon="9.187833341156052" id="-45929">
		<tag k="name" v="Rennsennberget" />
		<tag k="natural" v="hill" />
		<tag k="place" v="locality" />
		<tag k="ssr:stedsnr" v="7082" />
	</node>
	<node lat="61.27435277988669" lon="9.184577778788661" id="-45930">
		<tag k="alt_name" v="Vesle-Skaghøgde" />
		<tag k="loc_name" v="Vesleskagshøgde" />
		<tag k="name" v="Vesleskaghøgde" />
		<tag k="natural" v="hill" />
		<tag k="place" v="locality" />
		<tag k="ssr:stedsnr" v="7098" />
	</node>
	<node lat="61.131613889228035" lon="9.146188885626568" id="-45937">
		<tag k="alt_name" v="Brendehøvda" />
		<tag k="name" v="Brendehovda" />
		<tag k="natural" v="hill" />
		<tag k="place" v="locality" />
		<tag k="ssr:stedsnr" v="7129" />
	</node>
	<node lat="61.17255000163491" lon="9.043869445655085" id="-45941">
		<tag k="alt_name" v="Engerhøvda" />
		<tag k="name" v="Engehovda" />
		<tag k="natural" v="hill" />
		<tag k="place" v="locality" />
		<tag k="ssr:stedsnr" v="7041" />
	</node>
	<node lat="61.209388884497606" lon="8.981236118652584" id="-45951">
		<tag k="alt_name" v="Storberg" />
		<tag k="name" v="Storbergtinden" />
		<tag k="natural" v="hill" />
		<tag k="place" v="locality" />
		<tag k="ssr:stedsnr" v="7473" />
	</node>
	<node lat="61.10688611469039" lon="9.250180562660045" id="-45952">
		<tag k="alt_name" v="Rundemellin" />
		<tag k="fixme" v="consider natural=peak for the most distinct mountains in the district" />
		<tag k="name" v="Rundemellen" />
		<tag k="natural" v="hill" />
		<tag k="place" v="locality" />
		<tag k="ssr:stedsnr" v="7912" />
	</node>
	<node lat="61.3145166674469" lon="8.921083333990609" id="-45955">
		<tag k="name" v="Vassklepphøgde" />
		<tag k="natural" v="hill" />
		<tag k="place" v="locality" />
		<tag k="ssr:stedsnr" v="8073" />
	</node>
	<node lat="61.28041389173429" lon="8.936441666565054" id="-45956">
		<tag k="alt_name" v="Dragarskar" />
		<tag k="name" v="Dragarskardet" />
		<tag k="natural" v="valley" />
		<tag k="place" v="locality" />
		<tag k="ssr:stedsnr" v="8089" />
	</node>
	<node lat="61.281549999782264" lon="8.91976389129523" id="-45957">
		<tag k="alt_name" v="Liamarksfjell" />
		<tag k="fixme" v="consider natural=peak for the most distinct mountains in the district" />
		<tag k="name" v="Liamarkfjellet" />
		<tag k="natural" v="hill" />
		<tag k="place" v="locality" />
		<tag k="ssr:stedsnr" v="8091" />
	</node>
	<node lat="61.28622500395263" lon="8.736441660439755" id="-45958">
		<tag k="fixme" v="consider natural=peak for the most distinct mountains in the district" />
		<tag k="name" v="Skyrifjellet" />
		<tag k="natural" v="hill" />
		<tag k="place" v="locality" />
		<tag k="ssr:stedsnr" v="10791" />
	</node>
	<node lat="60.915038885589475" lon="9.218094435851846" id="-45959">
		<tag k="name" v="Valdres" />
		<tag k="natural" v="valley" />
		<tag k="place" v="locality" />
		<tag k="ssr:stedsnr" v="25867" />
	</node>
	<node lat="61.340841664258775" lon="9.225111111753286" id="-45967">
		<tag k="name" v="Styggranden" />
		<tag k="natural" v="hill" />
		<tag k="place" v="locality" />
		<tag k="ssr:stedsnr" v="51628" />
	</node>
	<node lat="61.191349998219785" lon="9.077541660630043" id="-45968">
		<tag k="name" v="Vindåskampen" />
		<tag k="natural" v="hill" />
		<tag k="place" v="locality" />
		<tag k="ssr:stedsnr" v="54675" />
	</node>
	<node lat="61.12498333040386" lon="9.11994443972531" id="-45969">
		<tag k="fixme" v="consider natural=peak for the most distinct mountains in the district" />
		<tag k="name" v="Øverliberge" />
		<tag k="natural" v="hill" />
		<tag k="place" v="locality" />
		<tag k="ssr:stedsnr" v="54089" />
	</node>
	<node lat="61.12755833200127" lon="9.246936101965527" id="-45971">
		<tag k="alt_name" v="Løyntjedntinden" />
		<tag k="fixme" v="consider natural=peak for the most distinct mountains in the district" />
		<tag k="name" v="Løyntjerntinden" />
		<tag k="natural" v="hill" />
		<tag k="place" v="locality" />
		<tag k="ssr:stedsnr" v="54191" />
	</node>
	<node lat="61.101800000099665" lon="9.2585111035761" id="-45972">
		<tag k="alt_name" v="Store Kalvemellin" />
		<tag k="fixme" v="consider natural=peak for the most distinct mountains in the district" />
		<tag k="name" v="Store Kalvemellen" />
		<tag k="natural" v="hill" />
		<tag k="place" v="locality" />
		<tag k="ssr:stedsnr" v="54200" />
	</node>
	<node lat="61.171080553032134" lon="9.08012776910777" id="-45978">
		<tag k="name" v="Ørnshaugen" />
		<tag k="natural" v="hill" />
		<tag k="place" v="locality" />
		<tag k="ssr:stedsnr" v="54139" />
	</node>
	<node lat="61.152233332024046" lon="9.049891672560788" id="-45982">
		<tag k="name" v="Veslehøvda" />
		<tag k="natural" v="hill" />
		<tag k="place" v="locality" />
		<tag k="ssr:stedsnr" v="54230" />
	</node>
	<node lat="61.150666663521825" lon="9.38613889603041" id="-45988">
		<tag k="alt_name" v="Saurshovd østre" />
		<tag k="name" v="Øystre Saurshovd" />
		<tag k="natural" v="hill" />
		<tag k="place" v="locality" />
		<tag k="ssr:stedsnr" v="54459" />
	</node>
	<node lat="61.07362499798044" lon="9.140713893811364" id="-45991">
		<tag k="name" v="Høvshaugen" />
		<tag k="natural" v="hill" />
		<tag k="place" v="locality" />
		<tag k="ssr:stedsnr" v="54565" />
	</node>
	<node lat="61.07461944200143" lon="9.09447777588405" id="-45993">
		<tag k="name" v="Hagaberg" />
		<tag k="natural" v="hill" />
		<tag k="place" v="locality" />
		<tag k="ssr:stedsnr" v="54637" />
	</node>
	<node lat="61.196769441205944" lon="9.096480554401005" id="-45995">
		<tag k="name" v="Erstadslette" />
		<tag k="place" v="locality" />
		<tag k="ssr:stedsnr" v="54655" />
	</node>
	<node lat="61.23131944150887" lon="9.112319452088663" id="-45996">
		<tag k="fixme" v="consider natural=peak for the most distinct mountains in the district" />
		<tag k="name" v="Heimre Kjølafjellet" />
		<tag k="natural" v="hill" />
		<tag k="place" v="locality" />
		<tag k="ssr:stedsnr" v="54660" />
	</node>
	<node lat="61.25629166777623" lon="8.842308340609652" id="-45997">
		<tag k="name" v="Heimstølshøgde" />
		<tag k="natural" v="hill" />
		<tag k="place" v="locality" />
		<tag k="ssr:stedsnr" v="54787" />
	</node>
	<node lat="61.195802774218" lon="8.999925008272086" id="-46000">
		<tag k="name" v="Kjøkberget" />
		<tag k="natural" v="slope" />
		<tag k="place" v="locality" />
		<tag k="ssr:stedsnr" v="54736" />
	</node>
	<node lat="61.295752773818215" lon="8.96220833692709" id="-46011">
		<tag k="name" v="Grålandet" />
		<tag k="natural" v="slope" />
		<tag k="place" v="locality" />
		<tag k="ssr:stedsnr" v="56850" />
	</node>
	<node lat="61.19358055740944" lon="9.13855000583312" id="-46017">
		<tag k="alt_name" v="Murkhøvd" />
		<tag k="name" v="Murkhovd" />
		<tag k="natural" v="hill" />
		<tag k="place" v="locality" />
		<tag k="ssr:stedsnr" v="67016" />
	</node>
	<node lat="61.11971389034342" lon="9.007411116057613" id="-46030">
		<tag k="name" v="Kvithovd" />
		<tag k="natural" v="hill" />
		<tag k="place" v="locality" />
		<tag k="ssr:stedsnr" v="68139" />
	</node>
	<node lat="61.39739999874453" lon="8.836330553457396" id="-46031">
		<tag k="fixme" v="consider natural=peak for the most distinct mountains in the district" />
		<tag k="name" v="Fisketjernnuten" />
		<tag k="natural" v="hill" />
		<tag k="place" v="locality" />
		<tag k="ssr:stedsnr" v="68159" />
	</node>
	<node lat="61.14540000096548" lon="9.191194445146891" id="-46037">
		<tag k="name" v="Røyrsberget" />
		<tag k="natural" v="hill" />
		<tag k="place" v="locality" />
		<tag k="ssr:stedsnr" v="79189" />
	</node>
	<node lat="61.18050277991012" lon="9.033177772263706" id="-46049">
		<tag k="name" v="Vangstjernberget" />
		<tag k="natural" v="hill" />
		<tag k="old_name" v="Vangstjednberget" />
		<tag k="place" v="locality" />
		<tag k="ssr:stedsnr" v="114126" />
	</node>
	<node lat="61.274302775494185" lon="8.772749995062437" id="-46053">
		<tag k="name" v="Kleivaknuppen" />
		<tag k="natural" v="hill" />
		<tag k="place" v="locality" />
		<tag k="ssr:stedsnr" v="114782" />
	</node>
	<node lat="61.22166388545622" lon="9.269763882455111" id="-46062">
		<tag k="name" v="Gaukhøvd" />
		<tag k="natural" v="hill" />
		<tag k="place" v="locality" />
		<tag k="ssr:stedsnr" v="115476" />
	</node>
	<node lat="61.07841111421864" lon="9.078124991572933" id="-46074">
		<tag k="name" v="Langedalen" />
		<tag k="natural" v="valley" />
		<tag k="place" v="locality" />
		<tag k="ssr:stedsnr" v="115855" />
	</node>
	<node lat="61.24356666826123" lon="8.970991671667438" id="-46076">
		<tag k="name" v="Sløahaugen" />
		<tag k="natural" v="hill" />
		<tag k="place" v="locality" />
		<tag k="ssr:stedsnr" v="115921" />
	</node>
	<node lat="61.2273111119205" lon="8.96378611731803" id="-46077">
		<tag k="name" v="Glenna" />
		<tag k="natural" v="slope" />
		<tag k="place" v="locality" />
		<tag k="ssr:stedsnr" v="115939" />
	</node>
	<node lat="61.30231111027042" lon="9.019058331492955" id="-46080">
		<tag k="name" v="Skindrofjellet" />
		<tag k="natural" v="hill" />
		<tag k="place" v="locality" />
		<tag k="ssr:stedsnr" v="119678" />
	</node>
	<node lat="61.139847219334236" lon="9.182736102075895" id="-46089">
		<tag k="name" v="Hestekampen" />
		<tag k="natural" v="hill" />
		<tag k="place" v="locality" />
		<tag k="ssr:stedsnr" v="128075" />
	</node>
	<node lat="61.120439347361234" lon="9.203093999884748" id="-46090">
		<tag k="alt_name" v="Brendehøvda" />
		<tag k="fixme" v="multiple name tags, choose one and add the other to alt_name" />
		<tag k="name" v="Djupedalshøgde;Brendehovda" />
		<tag k="natural" v="hill" />
		<tag k="place" v="locality" />
		<tag k="ssr:stedsnr" v="128123" />
	</node>
	<node lat="61.27319999914513" lon="8.75076389026548" id="-46092">
		<tag k="name" v="Skorlie" />
		<tag k="natural" v="slope" />
		<tag k="place" v="locality" />
		<tag k="ssr:stedsnr" v="128184" />
	</node>
	<node lat="61.264388889206884" lon="9.11898333523508" id="-46104">
		<tag k="name" v="Piggsteinhøgde" />
		<tag k="natural" v="hill" />
		<tag k="place" v="locality" />
		<tag k="ssr:stedsnr" v="129120" />
	</node>
	<node lat="61.33536110931801" lon="9.099800007465245" id="-46108">
		<tag k="fixme" v="consider natural=peak for the most distinct mountains in the district" />
		<tag k="name" v="Keisaren" />
		<tag k="natural" v="hill" />
		<tag k="place" v="locality" />
		<tag k="ssr:stedsnr" v="129075" />
	</node>
	<node lat="61.197733329370145" lon="8.954747227537235" id="-46112">
		<tag k="name" v="Kleivaberget" />
		<tag k="natural" v="hill" />
		<tag k="place" v="locality" />
		<tag k="ssr:stedsnr" v="155918" />
	</node>
	<node lat="61.128661107238315" lon="9.117263886559286" id="-46123">
		<tag k="name" v="Klavabakkadn" />
		<tag k="natural" v="slope" />
		<tag k="place" v="locality" />
		<tag k="ssr:stedsnr" v="175080" />
	</node>
	<node lat="61.101086153898805" lon="9.263022804218725" id="-46124">
		<tag k="alt_name" v="Vesle Kalvemellin" />
		<tag k="fixme" v="consider natural=peak for the most distinct mountains in the district" />
		<tag k="name" v="Vesle Kalvemellen" />
		<tag k="natural" v="hill" />
		<tag k="place" v="locality" />
		<tag k="ssr:stedsnr" v="175174" />
	</node>
	<node lat="61.09731944881878" lon="9.159369443749043" id="-46126">
		<tag k="alt_name" v="Rognåsen" />
		<tag k="fixme" v="consider natural=peak for the most distinct mountains in the district" />
		<tag k="name" v="Rognsåsen" />
		<tag k="natural" v="hill" />
		<tag k="place" v="locality" />
		<tag k="ssr:stedsnr" v="175216" />
	</node>
	<node lat="61.162680557852624" lon="9.04921666663995" id="-46127">
		<tag k="name" v="Kløpphøvd" />
		<tag k="natural" v="hill" />
		<tag k="place" v="locality" />
		<tag k="ssr:stedsnr" v="175218" />
	</node>
	<node lat="61.09374444418335" lon="9.17859723100998" id="-46130">
		<tag k="name" v="Snorobergtinden" />
		<tag k="natural" v="hill" />
		<tag k="place" v="locality" />
		<tag k="ssr:stedsnr" v="175224" />
	</node>
	<node lat="61.255180555884934" lon="9.023041667339315" id="-46134">
		<tag k="name" v="Dalsstølshøgde" />
		<tag k="natural" v="hill" />
		<tag k="place" v="locality" />
		<tag k="ssr:stedsnr" v="175592" />
	</node>
	<node lat="61.20008333477442" lon="8.93778888265509" id="-46135">
		<tag k="name" v="Sletten" />
		<tag k="place" v="locality" />
		<tag k="ssr:stedsnr" v="175593" />
	</node>
	<node lat="61.24976944278752" lon="9.018983338195419" id="-46136">
		<tag k="name" v="Jørenkampen" />
		<tag k="natural" v="hill" />
		<tag k="place" v="locality" />
		<tag k="ssr:stedsnr" v="175602" />
	</node>
	<node lat="61.2811611106165" lon="8.962327784785876" id="-46138">
		<tag k="name" v="Oleskaret" />
		<tag k="natural" v="valley" />
		<tag k="place" v="locality" />
		<tag k="ssr:stedsnr" v="175614" />
	</node>
	<node lat="61.206188891759886" lon="9.00550000081545" id="-46141">
		<tag k="name" v="Varpeholet" />
		<tag k="natural" v="valley" />
		<tag k="place" v="locality" />
		<tag k="ssr:stedsnr" v="175750" />
	</node>
	<node lat="61.224172220578026" lon="8.945897229888626" id="-46143">
		<tag k="name" v="Høvda" />
		<tag k="natural" v="hill" />
		<tag k="place" v="locality" />
		<tag k="ssr:stedsnr" v="175935" />
	</node>
	<node lat="61.16763333492456" lon="9.1567361198503" id="-46147">
		<tag k="alt_name" v="Bjødnaskallin" />
		<tag k="name" v="Bjørnaskallen" />
		<tag k="natural" v="hill" />
		<tag k="place" v="locality" />
		<tag k="ssr:stedsnr" v="176040" />
	</node>
	<node lat="61.21910832945058" lon="9.271069448383983" id="-46153">
		<tag k="name" v="Geiteskallin" />
		<tag k="natural" v="hill" />
		<tag k="place" v="locality" />
		<tag k="ssr:stedsnr" v="176393" />
	</node>
	<node lat="61.218958331436724" lon="9.330511106852441" id="-46155">
		<tag k="name" v="Veneliknuka" />
		<tag k="natural" v="hill" />
		<tag k="place" v="locality" />
		<tag k="ssr:stedsnr" v="176397" />
	</node>
	<node lat="61.295391666932034" lon="8.901797225905032" id="-46160">
		<tag k="name" v="Sandhaugadn" />
		<tag k="natural" v="hill" />
		<tag k="place" v="locality" />
		<tag k="ssr:stedsnr" v="177845" />
	</node>
	<node lat="61.311713890341395" lon="9.038055553423952" id="-46166">
		<tag k="name" v="Brune Høgde" />
		<tag k="natural" v="hill" />
		<tag k="place" v="locality" />
		<tag k="ssr:stedsnr" v="179643" />
	</node>
	<node lat="61.23696110790971" lon="9.23968889766846" id="-46187">
		<tag k="name" v="Synhaugen" />
		<tag k="natural" v="hill" />
		<tag k="place" v="locality" />
		<tag k="ssr:stedsnr" v="189728" />
	</node>
	<node lat="61.20312777735173" lon="9.24963333983199" id="-46192">
		<tag k="alt_name" v="Trøllåshøgde" />
		<tag k="name" v="Trollåshøgde" />
		<tag k="natural" v="hill" />
		<tag k="place" v="locality" />
		<tag k="ssr:stedsnr" v="189970" />
	</node>
	<node lat="61.22581389020208" lon="9.3904138921813" id="-46194">
		<tag k="name" v="Fetalie" />
		<tag k="natural" v="slope" />
		<tag k="place" v="locality" />
		<tag k="ssr:stedsnr" v="189991" />
	</node>
	<node lat="61.37473610710495" lon="9.111508340445598" id="-46196">
		<tag k="name" v="Berget" />
		<tag k="natural" v="hill" />
		<tag k="place" v="locality" />
		<tag k="ssr:stedsnr" v="190030" />
	</node>
	<node lat="61.2845416645815" lon="8.91277777218255" id="-46200">
		<tag k="alt_name" v="Kampin" />
		<tag k="fixme" v="consider natural=peak for the most distinct mountains in the district" />
		<tag k="name" v="Kampen" />
		<tag k="natural" v="hill" />
		<tag k="place" v="locality" />
		<tag k="ssr:stedsnr" v="190092" />
	</node>
	<node lat="61.287327775325906" lon="9.219983331701592" id="-46202">
		<tag k="fixme" v="consider natural=peak for the most distinct mountains in the district" />
		<tag k="name" v="Nasen" />
		<tag k="natural" v="hill" />
		<tag k="place" v="locality" />
		<tag k="ssr:stedsnr" v="191233" />
	</node>
	<node lat="61.08661111246289" lon="9.164502776130133" id="-46212">
		<tag k="name" v="Skreo" />
		<tag k="natural" v="slope" />
		<tag k="place" v="locality" />
		<tag k="ssr:stedsnr" v="297237" />
	</node>
	<node lat="61.15010000044431" lon="9.222811114532528" id="-46219">
		<tag k="name" v="Flinteberg" />
		<tag k="natural" v="hill" />
		<tag k="place" v="locality" />
		<tag k="ssr:stedsnr" v="296147" />
	</node>
	<node lat="61.13626388782242" lon="9.03723334080682" id="-46222">
		<tag k="fixme" v="consider natural=peak for the most distinct mountains in the district" />
		<tag k="name" v="Sanneshøvda" />
		<tag k="natural" v="hill" />
		<tag k="place" v="locality" />
		<tag k="ssr:stedsnr" v="296418" />
	</node>
	<node lat="61.17840000237939" lon="9.110047220747543" id="-46233">
		<tag k="name" v="Sandbakkadn" />
		<tag k="natural" v="slope" />
		<tag k="place" v="locality" />
		<tag k="ssr:stedsnr" v="297035" />
	</node>
	<node lat="61.153522224085926" lon="9.130169444365293" id="-46237">
		<tag k="name" v="Karusmoen" />
		<tag k="place" v="locality" />
		<tag k="ssr:stedsnr" v="297132" />
	</node>
	<node lat="61.155638885787496" lon="9.206388886100527" id="-46240">
		<tag k="fixme" v="consider natural=peak for the most distinct mountains in the district" />
		<tag k="name" v="Vangsjøberget" />
		<tag k="natural" v="hill" />
		<tag k="place" v="locality" />
		<tag k="ssr:stedsnr" v="297212" />
	</node>
	<node lat="61.26196388802224" lon="8.973625000581952" id="-46249">
		<tag k="name" v="Myrebærreina" />
		<tag k="natural" v="slope" />
		<tag k="place" v="locality" />
		<tag k="ssr:stedsnr" v="297933" />
	</node>
	<node lat="61.18783055980357" lon="8.941150002731577" id="-46256">
		<tag k="alt_name" v="Melbyhøvda;Melbyshøvda" />
		<tag k="fixme" v="multiple name tags, choose one and add the other to alt_name" />
		<tag k="loc_name" v="Melbyhovda" />
		<tag k="name" v="Melbyhøgde;Melbyshovda" />
		<tag k="natural" v="hill" />
		<tag k="place" v="locality" />
		<tag k="ssr:stedsnr" v="301018" />
	</node>
	<node lat="61.17732500093968" lon="9.151044445086056" id="-46265">
		<tag k="alt_name" v="Lomtjednhaugen" />
		<tag k="name" v="Lomtjernhaugen" />
		<tag k="natural" v="hill" />
		<tag k="place" v="locality" />
		<tag k="ssr:stedsnr" v="310046" />
	</node>
	<node lat="61.24058611562432" lon="9.02325000591587" id="-46276">
		<tag k="name" v="Javnlie" />
		<tag k="natural" v="slope" />
		<tag k="place" v="locality" />
		<tag k="ssr:stedsnr" v="310473" />
	</node>
	<node lat="61.18488888615672" lon="9.252827777600645" id="-46282">
		<tag k="name" v="Synhaughøgde" />
		<tag k="natural" v="hill" />
		<tag k="place" v="locality" />
		<tag k="ssr:stedsnr" v="310942" />
	</node>
	<node lat="61.21155000200715" lon="9.357294436038229" id="-46283">
		<tag k="name" v="Myrebærhammaren" />
		<tag k="natural" v="hill" />
		<tag k="place" v="locality" />
		<tag k="ssr:stedsnr" v="310969" />
	</node>
	<node lat="61.20509166536656" lon="9.409344439880178" id="-46284">
		<tag k="name" v="Olægerhøgde" />
		<tag k="natural" v="hill" />
		<tag k="place" v="locality" />
		<tag k="ssr:stedsnr" v="310971" />
	</node>
	<node lat="61.36898889162426" lon="8.909144445993817" id="-46285">
		<tag k="fixme" v="consider natural=peak for the most distinct mountains in the district" />
		<tag k="name" v="Nørdre Gluptinden" />
		<tag k="natural" v="hill" />
		<tag k="place" v="locality" />
		<tag k="ssr:stedsnr" v="311038" />
	</node>
	<node lat="61.34083333448578" lon="8.960036110430464" id="-46287">
		<tag k="fixme" v="consider natural=peak for the most distinct mountains in the district" />
		<tag k="name" v="Urekkollen" />
		<tag k="natural" v="hill" />
		<tag k="place" v="locality" />
		<tag k="ssr:stedsnr" v="311062" />
	</node>
	<node lat="61.33500277806452" lon="9.123736102130746" id="-46290">
		<tag k="name" v="Perstjernhøgde" />
		<tag k="natural" v="hill" />
		<tag k="place" v="locality" />
		<tag k="ssr:stedsnr" v="311070" />
	</node>
	<node lat="61.27870000117785" lon="8.83057499303064" id="-46294">
		<tag k="alt_name" v="Smørkøllen" />
		<tag k="name" v="Smørkollen" />
		<tag k="natural" v="hill" />
		<tag k="place" v="locality" />
		<tag k="ssr:stedsnr" v="311241" />
	</node>
	<node lat="61.15799722103568" lon="9.381169441641097" id="-46314">
		<tag k="name" v="Lokkarkampen" />
		<tag k="natural" v="hill" />
		<tag k="place" v="locality" />
		<tag k="ssr:stedsnr" v="358436" />
	</node>
	<node lat="61.15562221862936" lon="9.391719449427908" id="-46315">
		<tag k="name" v="Kampadn" />
		<tag k="natural" v="hill" />
		<tag k="place" v="locality" />
		<tag k="ssr:stedsnr" v="358439" />
	</node>
	<node lat="61.11580555766869" lon="9.119286103498247" id="-46317">
		<tag k="name" v="Mandirsenbakkin" />
		<tag k="natural" v="slope" />
		<tag k="place" v="locality" />
		<tag k="ssr:stedsnr" v="357081" />
	</node>
	<node lat="61.08381389278298" lon="9.188877778082189" id="-46320">
		<tag k="name" v="Torkjilsbakke" />
		<tag k="natural" v="slope" />
		<tag k="place" v="locality" />
		<tag k="ssr:stedsnr" v="357226" />
	</node>
	<node lat="61.20416111418586" lon="8.929936105413852" id="-46328">
		<tag k="fixme" v="consider natural=peak for the most distinct mountains in the district" />
		<tag k="name" v="Høgehaugen" />
		<tag k="natural" v="hill" />
		<tag k="place" v="locality" />
		<tag k="ssr:stedsnr" v="357578" />
	</node>
	<node lat="61.07224444767668" lon="9.146627784036458" id="-46333">
		<tag k="name" v="Høvshaugen" />
		<tag k="natural" v="hill" />
		<tag k="place" v="locality" />
		<tag k="ssr:stedsnr" v="357525" />
	</node>
	<node lat="61.17021110728088" lon="9.155125000659092" id="-46345">
		<tag k="name" v="Rolistølshøgde" />
		<tag k="natural" v="hill" />
		<tag k="place" v="locality" />
		<tag k="ssr:stedsnr" v="358022" />
	</node>
	<node lat="61.18666944191055" lon="9.10919444885671" id="-46347">
		<tag k="name" v="Grøne Bakka" />
		<tag k="natural" v="slope" />
		<tag k="place" v="locality" />
		<tag k="ssr:stedsnr" v="358036" />
	</node>
	<node lat="61.199838889204266" lon="9.27942221317957" id="-46350">
		<tag k="name" v="Høge berget" />
		<tag k="natural" v="hill" />
		<tag k="place" v="locality" />
		<tag k="ssr:stedsnr" v="358494" />
	</node>
	<node lat="61.24746389205564" lon="9.072316666934075" id="-46354">
		<tag k="fixme" v="multiple name tags, choose one and add the other to alt_name" />
		<tag k="name" v="Brummaknappen;Brummaknatten" />
		<tag k="natural" v="hill" />
		<tag k="old_name" v="Brummeknatten" />
		<tag k="place" v="locality" />
		<tag k="ssr:stedsnr" v="361519" />
	</node>
	<node lat="61.35011388835283" lon="9.138977778335867" id="-46359">
		<tag k="name" v="Domshaugen" />
		<tag k="natural" v="hill" />
		<tag k="place" v="locality" />
		<tag k="ssr:stedsnr" v="371033" />
	</node>
	<node lat="61.34058888768786" lon="8.915127775265837" id="-46360">
		<tag k="fixme" v="consider natural=peak for the most distinct mountains in the district" />
		<tag k="name" v="Vesle Nuten" />
		<tag k="natural" v="hill" />
		<tag k="place" v="locality" />
		<tag k="ssr:stedsnr" v="371040" />
	</node>
	<node lat="61.39692777527707" lon="8.747549993916987" id="-46364">
		<tag k="name" v="Steindalen" />
		<tag k="natural" v="valley" />
		<tag k="place" v="locality" />
		<tag k="ssr:stedsnr" v="371125" />
	</node>
	<node lat="61.386027780372665" lon="8.816463890319092" id="-46365">
		<tag k="name" v="Valdresflye" />
		<tag k="natural" v="plateau" />
		<tag k="old_name" v="Valdresflya" />
		<tag k="ssr:stedsnr" v="371156" />
	</node>
	<node lat="61.20209166735702" lon="9.00302776894621" id="-46366">
		<tag k="alt_name" v="Møsaberg" />
		<tag k="name" v="Mosaberg" />
		<tag k="natural" v="hill" />
		<tag k="place" v="locality" />
		<tag k="ssr:stedsnr" v="370519" />
	</node>
	<node lat="61.29039444730134" lon="8.831069435566858" id="-46369">
		<tag k="alt_name" v="Båtskardet, s;Søre Båtskaret" />
		<tag k="name" v="Søre Båtskardet" />
		<tag k="natural" v="valley" />
		<tag k="place" v="locality" />
		<tag k="ssr:stedsnr" v="371181" />
	</node>
	<node lat="61.291122222885114" lon="9.199866671273059" id="-46376">
		<tag k="fixme" v="consider natural=peak for the most distinct mountains in the district" />
		<tag k="loc_name" v="Skagstinden" />
		<tag k="name" v="Skaget" />
		<tag k="natural" v="hill" />
		<tag k="place" v="locality" />
		<tag k="ssr:stedsnr" v="372096" />
	</node>
	<node lat="61.20678888708023" lon="9.328649991798224" id="-46378">
		<tag k="name" v="Gråeberget" />
		<tag k="natural" v="hill" />
		<tag k="place" v="locality" />
		<tag k="ssr:stedsnr" v="371998" />
	</node>
	<node lat="61.16861944891063" lon="8.981855557265327" id="-46394">
		<tag k="name" v="Bruberget" />
		<tag k="natural" v="hill" />
		<tag k="place" v="locality" />
		<tag k="ssr:stedsnr" v="418147" />
	</node>
	<node lat="61.185008335975695" lon="9.174244437844976" id="-46400">
		<tag k="name" v="Gamasamaflåe" />
		<tag k="place" v="locality" />
		<tag k="ssr:stedsnr" v="419171" />
	</node>
	<node lat="61.19649722248252" lon="9.179847228071624" id="-46407">
		<tag k="name" v="Rauånhaugen" />
		<tag k="natural" v="hill" />
		<tag k="place" v="locality" />
		<tag k="ssr:stedsnr" v="418717" />
	</node>
	<node lat="61.23568611310177" lon="8.896152777796079" id="-46411">
		<tag k="name" v="Jonstølsberget" />
		<tag k="natural" v="hill" />
		<tag k="place" v="locality" />
		<tag k="ssr:stedsnr" v="418878" />
	</node>
	<node lat="61.164227774969206" lon="9.174952774037552" id="-46415">
		<tag k="name" v="Skiftishaugen" />
		<tag k="natural" v="hill" />
		<tag k="place" v="locality" />
		<tag k="ssr:stedsnr" v="419200" />
	</node>
	<node lat="61.21504166449738" lon="9.303911120077407" id="-46416">
		<tag k="name" v="Venelifløtadn" />
		<tag k="place" v="locality" />
		<tag k="ssr:stedsnr" v="419419" />
	</node>
	<node lat="61.2245305597235" lon="9.269452779708436" id="-46417">
		<tag k="name" v="Skåkluthøgde" />
		<tag k="natural" v="hill" />
		<tag k="place" v="locality" />
		<tag k="ssr:stedsnr" v="419420" />
	</node>
	<node lat="61.072497218424736" lon="9.116919441304033" id="-46419">
		<tag k="name" v="Bruhøvda" />
		<tag k="natural" v="hill" />
		<tag k="place" v="locality" />
		<tag k="ssr:stedsnr" v="419649" />
	</node>
	<node lat="61.147491667466525" lon="9.197227782009167" id="-46430">
		<tag k="name" v="Brimberget" />
		<tag k="natural" v="hill" />
		<tag k="place" v="locality" />
		<tag k="ssr:stedsnr" v="430187" />
	</node>
	<node lat="61.271027780904745" lon="8.77856665857104" id="-46434">
		<tag k="fixme" v="consider natural=peak for the most distinct mountains in the district" />
		<tag k="name" v="Skorliegge" />
		<tag k="natural" v="hill" />
		<tag k="place" v="locality" />
		<tag k="ssr:stedsnr" v="432188" />
	</node>
	<node lat="61.22299999909992" lon="8.915313892572325" id="-46438">
		<tag k="alt_name" v="Liahøvda" />
		<tag k="name" v="Liahovda" />
		<tag k="natural" v="hill" />
		<tag k="place" v="locality" />
		<tag k="ssr:stedsnr" v="431481" />
	</node>
	<node lat="61.218299996635814" lon="9.13575000074542" id="-46454">
		<tag k="name" v="Rauddalen" />
		<tag k="natural" v="valley" />
		<tag k="place" v="locality" />
		<tag k="ssr:stedsnr" v="432475" />
	</node>
	<node lat="61.31192778196109" lon="9.27222500784432" id="-46455">
		<tag k="fixme" v="consider natural=peak for the most distinct mountains in the district" />
		<tag k="name" v="Buatinden" />
		<tag k="natural" v="hill" />
		<tag k="place" v="locality" />
		<tag k="ssr:stedsnr" v="433478" />
	</node>
	<node lat="61.438163891057506" lon="8.817763889385093" id="-46463">
		<tag k="name" v="Langberget" />
		<tag k="natural" v="ridge" />
		<tag k="place" v="locality" />
		<tag k="ssr:stedsnr" v="433142" />
	</node>
	<node lat="61.28546667104703" lon="9.27643610358498" id="-46465">
		<tag k="name" v="Skagsflye" />
		<tag k="natural" v="hill" />
		<tag k="place" v="locality" />
		<tag k="ssr:stedsnr" v="433256" />
	</node>
	<node lat="61.25211388968744" lon="9.414205562745806" id="-46478">
		<tag k="name" v="Maradalen" />
		<tag k="natural" v="valley" />
		<tag k="place" v="locality" />
		<tag k="ssr:stedsnr" v="539320" />
	</node>
	<node lat="61.17201944824424" lon="9.105049997207868" id="-46480">
		<tag k="name" v="Hagaberget" />
		<tag k="natural" v="hill" />
		<tag k="place" v="locality" />
		<tag k="ssr:stedsnr" v="540025" />
	</node>
	<node lat="61.119050000274505" lon="9.01671388051454" id="-46483">
		<tag k="name" v="Jelle" />
		<tag k="natural" v="slope" />
		<tag k="place" v="locality" />
		<tag k="ssr:stedsnr" v="539299" />
	</node>
	<node lat="61.17761388520483" lon="9.283777779476353" id="-46490">
		<tag k="name" v="Lurvehøgde" />
		<tag k="natural" v="hill" />
		<tag k="place" v="locality" />
		<tag k="ssr:stedsnr" v="539427" />
	</node>
	<node lat="61.17212221934009" lon="8.900250008723674" id="-46495">
		<tag k="name" v="Klantadn" />
		<tag k="natural" v="hill" />
		<tag k="place" v="locality" />
		<tag k="ssr:stedsnr" v="539950" />
	</node>
	<node lat="61.07533333574534" lon="9.096641671871241" id="-46501">
		<tag k="name" v="Røslend" />
		<tag k="natural" v="slope" />
		<tag k="place" v="locality" />
		<tag k="ssr:stedsnr" v="540645" />
	</node>
	<node lat="61.34321111342198" lon="9.02906389341368" id="-46505">
		<tag k="name" v="Roparhaugen" />
		<tag k="natural" v="hill" />
		<tag k="place" v="locality" />
		<tag k="ssr:stedsnr" v="543662" />
	</node>
	<node lat="61.21569166258027" lon="9.120999993166402" id="-46525">
		<tag k="fixme" v="consider natural=peak for the most distinct mountains in the district" />
		<tag k="name" v="Gravfjellet" />
		<tag k="natural" v="hill" />
		<tag k="place" v="locality" />
		<tag k="ssr:stedsnr" v="553480" />
	</node>
	<node lat="61.20678333556919" lon="9.104044445921478" id="-46528">
		<tag k="name" v="Veslestølberget" />
		<tag k="natural" v="hill" />
		<tag k="place" v="locality" />
		<tag k="ssr:stedsnr" v="553477" />
	</node>
	<node lat="61.29607778191239" lon="8.870083337223173" id="-46534">
		<tag k="name" v="Gravolskampen" />
		<tag k="natural" v="hill" />
		<tag k="place" v="locality" />
		<tag k="ssr:stedsnr" v="554072" />
	</node>
	<node lat="61.167616664414375" lon="9.361794447201069" id="-46545">
		<tag k="name" v="Kvitehaugen" />
		<tag k="natural" v="hill" />
		<tag k="place" v="locality" />
		<tag k="ssr:stedsnr" v="599390" />
	</node>
	<node lat="61.0828388844938" lon="9.228119448609794" id="-46547">
		<tag k="name" v="Kava-Skøre" />
		<tag k="natural" v="valley" />
		<tag k="place" v="locality" />
		<tag k="ssr:stedsnr" v="600089" />
	</node>
	<node lat="61.18087222274068" lon="9.07796389761772" id="-46550">
		<tag k="name" v="Raudsandhaugen" />
		<tag k="natural" v="hill" />
		<tag k="place" v="locality" />
		<tag k="ssr:stedsnr" v="599125" />
	</node>
	<node lat="61.179605553775986" lon="8.981652777980798" id="-46553">
		<tag k="name" v="Sagahaughøvda" />
		<tag k="natural" v="hill" />
		<tag k="place" v="locality" />
		<tag k="ssr:stedsnr" v="599137" />
	</node>
	<node lat="61.24471111401682" lon="8.824299993978162" id="-46564">
		<tag k="name" v="Nørdre Høvda" />
		<tag k="natural" v="hill" />
		<tag k="place" v="locality" />
		<tag k="ssr:stedsnr" v="599834" />
	</node>
	<node lat="61.20815833237245" lon="8.96196666127378" id="-46565">
		<tag k="name" v="Øvre Flaten" />
		<tag k="place" v="locality" />
		<tag k="ssr:stedsnr" v="599927" />
	</node>
	<node lat="61.093211113564294" lon="9.146386114113488" id="-46567">
		<tag k="name" v="Kvitehaugen" />
		<tag k="natural" v="hill" />
		<tag k="place" v="locality" />
		<tag k="ssr:stedsnr" v="599943" />
	</node>
	<node lat="61.22736944838238" lon="8.971158336950934" id="-46569">
		<tag k="fixme" v="consider natural=peak for the most distinct mountains in the district" />
		<tag k="name" v="Skuteåsen" />
		<tag k="natural" v="hill" />
		<tag k="place" v="locality" />
		<tag k="ssr:stedsnr" v="599946" />
	</node>
	<node lat="61.17256666572932" lon="9.185047218020431" id="-46573">
		<tag k="name" v="Åbortjernhaugen" />
		<tag k="natural" v="hill" />
		<tag k="old_name" v="Øbbørtjednhaugen" />
		<tag k="place" v="locality" />
		<tag k="ssr:stedsnr" v="600202" />
	</node>
	<node lat="61.11331944435575" lon="9.158533324122654" id="-46574">
		<tag k="name" v="Langehaugen" />
		<tag k="natural" v="hill" />
		<tag k="place" v="locality" />
		<tag k="ssr:stedsnr" v="600233" />
	</node>
	<node lat="61.134255555533166" lon="9.390466659319207" id="-46577">
		<tag k="name" v="Kinnberg" />
		<tag k="natural" v="hill" />
		<tag k="place" v="locality" />
		<tag k="ssr:stedsnr" v="600192" />
	</node>
	<node lat="61.116269440563116" lon="9.044538890536334" id="-46578">
		<tag k="name" v="Kviteberg" />
		<tag k="natural" v="slope" />
		<tag k="place" v="locality" />
		<tag k="ssr:stedsnr" v="600346" />
	</node>
	<node lat="61.27470000377315" lon="8.975147215936794" id="-46583">
		<tag k="name" v="Jørenhaug" />
		<tag k="natural" v="hill" />
		<tag k="place" v="locality" />
		<tag k="ssr:stedsnr" v="600581" />
	</node>
	<node lat="61.26784444427753" lon="8.974702770369142" id="-46584">
		<tag k="name" v="Fløthaugadn" />
		<tag k="natural" v="hill" />
		<tag k="place" v="locality" />
		<tag k="ssr:stedsnr" v="600926" />
	</node>
	<node lat="61.297766668182845" lon="8.89607778247603" id="-46592">
		<tag k="name" v="Sagabue" />
		<tag k="place" v="locality" />
		<tag k="ssr:stedsnr" v="602843" />
	</node>
	<node lat="61.233788888796134" lon="9.123338893222916" id="-46605">
		<tag k="fixme" v="consider natural=peak for the most distinct mountains in the district" />
		<tag k="name" v="Kjølafjellet" />
		<tag k="natural" v="hill" />
		<tag k="place" v="locality" />
		<tag k="ssr:stedsnr" v="613460" />
	</node>
	<node lat="61.38137778080017" lon="9.02748611855445" id="-46615">
		<tag k="fixme" v="consider natural=peak for the most distinct mountains in the district" />
		<tag k="name" v="Døraknappen" />
		<tag k="natural" v="hill" />
		<tag k="place" v="locality" />
		<tag k="ssr:stedsnr" v="614029" />
	</node>
	<node lat="61.29573611497817" lon="9.226449992812542" id="-46621">
		<tag k="fixme" v="consider natural=peak for the most distinct mountains in the district" />
		<tag k="name" v="Toreknatten" />
		<tag k="natural" v="hill" />
		<tag k="place" v="locality" />
		<tag k="ssr:stedsnr" v="615460" />
	</node>
	<node lat="61.13365555291941" lon="9.0441583417603" id="-46636">
		<tag k="name" v="Brøtin" />
		<tag k="natural" v="slope" />
		<tag k="place" v="locality" />
		<tag k="ssr:stedsnr" v="660453" />
	</node>
	<node lat="61.205802780304055" lon="9.078286106631253" id="-46640">
		<tag k="name" v="Tjernstølsåsen" />
		<tag k="natural" v="hill" />
		<tag k="old_name" v="Tjednstølsåsen" />
		<tag k="place" v="locality" />
		<tag k="ssr:stedsnr" v="660668" />
	</node>
	<node lat="61.13351666683087" lon="9.168602770024652" id="-46648">
		<tag k="name" v="Rolighøl" />
		<tag k="natural" v="valley" />
		<tag k="place" v="locality" />
		<tag k="ssr:stedsnr" v="661193" />
	</node>
	<node lat="61.12972222314856" lon="9.200447222697042" id="-46649">
		<tag k="alt_name" v="Køltjednhaugadn" />
		<tag k="name" v="Koltjernhaugane" />
		<tag k="natural" v="hill" />
		<tag k="place" v="locality" />
		<tag k="ssr:stedsnr" v="661198" />
	</node>
	<node lat="61.11037221996127" lon="9.200397228471935" id="-46652">
		<tag k="name" v="Marsteinhøgda" />
		<tag k="natural" v="hill" />
		<tag k="place" v="locality" />
		<tag k="ssr:stedsnr" v="661215" />
	</node>
	<node lat="61.18293055468807" lon="9.16707221980263" id="-46661">
		<tag k="name" v="Gamasamahaugen" />
		<tag k="natural" v="hill" />
		<tag k="place" v="locality" />
		<tag k="ssr:stedsnr" v="661161" />
	</node>
	<node lat="61.29232777499432" lon="8.926308325669089" id="-46676">
		<tag k="name" v="Urde" />
		<tag k="natural" v="hill" />
		<tag k="place" v="locality" />
		<tag k="ssr:stedsnr" v="663860" />
	</node>
	<node lat="61.24458611470586" lon="8.886861114643802" id="-46686">
		<tag k="alt_name" v="Bjødnestølhøvda" />
		<tag k="name" v="Bjørnestølhovda" />
		<tag k="natural" v="hill" />
		<tag k="place" v="locality" />
		<tag k="ssr:stedsnr" v="721893" />
	</node>
	<node lat="61.17503888624208" lon="9.065625005217631" id="-46687">
		<tag k="name" v="Djupedalen" />
		<tag k="natural" v="valley" />
		<tag k="place" v="locality" />
		<tag k="ssr:stedsnr" v="721117" />
	</node>
	<node lat="61.083658335845435" lon="9.099236109351311" id="-46693">
		<tag k="name" v="Brennudn" />
		<tag k="natural" v="slope" />
		<tag k="place" v="locality" />
		<tag k="ssr:stedsnr" v="721528" />
	</node>
	<node lat="61.22926666711714" lon="8.933458330940566" id="-46699">
		<tag k="name" v="Bamselie" />
		<tag k="natural" v="slope" />
		<tag k="place" v="locality" />
		<tag k="ssr:stedsnr" v="721936" />
	</node>
	<node lat="61.14185555691507" lon="9.14157223146111" id="-46704">
		<tag k="name" v="Maradalen" />
		<tag k="natural" v="valley" />
		<tag k="place" v="locality" />
		<tag k="ssr:stedsnr" v="722099" />
	</node>
	<node lat="61.132897226219335" lon="9.214136116710595" id="-46706">
		<tag k="name" v="Naustehøvda" />
		<tag k="natural" v="hill" />
		<tag k="place" v="locality" />
		<tag k="ssr:stedsnr" v="722229" />
	</node>
	<node lat="61.096705555989736" lon="9.171199992141899" id="-46708">
		<tag k="name" v="Grøndalsskåladn" />
		<tag k="natural" v="valley" />
		<tag k="place" v="locality" />
		<tag k="ssr:stedsnr" v="722238" />
	</node>
	<node lat="61.16152499727587" lon="9.38743056120374" id="-46710">
		<tag k="name" v="Gråeberget" />
		<tag k="natural" v="hill" />
		<tag k="place" v="locality" />
		<tag k="ssr:stedsnr" v="722451" />
	</node>
	<node lat="61.212477781862" lon="9.291166663283963" id="-46714">
		<tag k="name" v="Gaukeberget" />
		<tag k="natural" v="hill" />
		<tag k="place" v="locality" />
		<tag k="ssr:stedsnr" v="722495" />
	</node>
	<node lat="61.23601388713037" lon="8.959680559328248" id="-46716">
		<tag k="name" v="Helleforofeten" />
		<tag k="place" v="locality" />
		<tag k="ssr:stedsnr" v="722935" />
	</node>
	<node lat="61.26355555727974" lon="8.846494449404496" id="-46719">
		<tag k="name" v="Svøe" />
		<tag k="natural" v="hill" />
		<tag k="place" v="locality" />
		<tag k="ssr:stedsnr" v="722799" />
	</node>
	<node lat="61.31807221981142" lon="9.079055552546954" id="-46723">
		<tag k="name" v="Rjupehaugadn" />
		<tag k="natural" v="hill" />
		<tag k="place" v="locality" />
		<tag k="ssr:stedsnr" v="725601" />
	</node>
	<node lat="61.1214500009498" lon="9.139274992558692" id="-46735">
		<tag k="fixme" v="consider natural=peak for the most distinct mountains in the district" />
		<tag k="name" v="Skattebuåsen" />
		<tag k="natural" v="hill" />
		<tag k="place" v="locality" />
		<tag k="ssr:stedsnr" v="735144" />
	</node>
	<node lat="61.12578055632019" lon="9.332511112305836" id="-46741">
		<tag k="fixme" v="consider natural=peak for the most distinct mountains in the district" />
		<tag k="name" v="Skogapruåsen" />
		<tag k="natural" v="hill" />
		<tag k="place" v="locality" />
		<tag k="ssr:stedsnr" v="735933" />
	</node>
	<node lat="61.082983329576955" lon="9.2463777739943" id="-46763">
		<tag k="name" v="Klavadn" />
		<tag k="natural" v="hill" />
		<tag k="place" v="locality" />
		<tag k="ssr:stedsnr" v="782069" />
	</node>
	<node lat="61.11730277639563" lon="9.22059166709325" id="-46771">
		<tag k="name" v="Djupedalen" />
		<tag k="natural" v="valley" />
		<tag k="place" v="locality" />
		<tag k="ssr:stedsnr" v="782166" />
	</node>
	<node lat="61.16608055504134" lon="9.15994999558371" id="-46773">
		<tag k="alt_name" v="Bjødnahølhøgde" />
		<tag k="name" v="Bjørnaholhøgde" />
		<tag k="natural" v="hill" />
		<tag k="place" v="locality" />
		<tag k="ssr:stedsnr" v="782179" />
	</node>
	<node lat="61.12536944600221" lon="9.03709999675768" id="-46776">
		<tag k="fixme" v="consider natural=peak for the most distinct mountains in the district" />
		<tag k="name" v="Vingshøvda" />
		<tag k="natural" v="hill" />
		<tag k="place" v="locality" />
		<tag k="ssr:stedsnr" v="782267" />
	</node>
	<node lat="61.24165555668104" lon="9.297572213701562" id="-46780">
		<tag k="alt_name" v="Bjødnhaug" />
		<tag k="name" v="Bjørnhaug" />
		<tag k="natural" v="hill" />
		<tag k="place" v="locality" />
		<tag k="ssr:stedsnr" v="782338" />
	</node>
	<node lat="61.13196111396713" lon="9.026936103074977" id="-46782">
		<tag k="alt_name" v="Brøthøvdhøvda" />
		<tag k="fixme" v="consider natural=peak for the most distinct mountains in the district" />
		<tag k="name" v="Brothovdhovda" />
		<tag k="natural" v="hill" />
		<tag k="place" v="locality" />
		<tag k="ssr:stedsnr" v="782424" />
	</node>
	<node lat="61.163147222702364" lon="9.308002786456285" id="-46783">
		<tag k="name" v="Bufarhaugen" />
		<tag k="natural" v="hill" />
		<tag k="place" v="locality" />
		<tag k="ssr:stedsnr" v="782432" />
	</node>
	<node lat="61.25415833527271" lon="8.833130564666034" id="-46791">
		<tag k="name" v="Stølshaugen" />
		<tag k="natural" v="hill" />
		<tag k="place" v="locality" />
		<tag k="ssr:stedsnr" v="782738" />
	</node>
	<node lat="61.26324166550238" lon="8.813058339123764" id="-46792">
		<tag k="name" v="Gamle Tjernhaugen" />
		<tag k="natural" v="hill" />
		<tag k="old_name" v="Gamle Tjednhaugen" />
		<tag k="place" v="locality" />
		<tag k="ssr:stedsnr" v="782739" />
	</node>
	<node lat="61.19953610846667" lon="8.969472223802407" id="-46795">
		<tag k="name" v="Brattehaugen" />
		<tag k="natural" v="hill" />
		<tag k="place" v="locality" />
		<tag k="ssr:stedsnr" v="782919" />
	</node>
	<node lat="61.2684527733962" lon="8.775455556609046" id="-46796">
		<tag k="name" v="Synberg" />
		<tag k="natural" v="hill" />
		<tag k="place" v="locality" />
		<tag k="ssr:stedsnr" v="782924" />
	</node>
	<node lat="61.223691668243966" lon="8.93600556116584" id="-46798">
		<tag k="name" v="Høvdaslette" />
		<tag k="place" v="locality" />
		<tag k="ssr:stedsnr" v="782937" />
	</node>
	<node lat="61.18016944358628" lon="8.96991667266026" id="-46800">
		<tag k="name" v="Brendeberget" />
		<tag k="natural" v="hill" />
		<tag k="place" v="locality" />
		<tag k="ssr:stedsnr" v="782972" />
	</node>
	<node lat="61.42860832985797" lon="8.807902775383518" id="-46810">
		<tag k="name" v="Heimdalsmunnen" />
		<tag k="natural" v="valley" />
		<tag k="place" v="locality" />
		<tag k="ssr:stedsnr" v="796132" />
	</node>
	<node lat="61.1703583370935" lon="9.09961666023518" id="-46822">
		<tag k="alt_name" v="Robølshøvda" />
		<tag k="name" v="Robølshovda" />
		<tag k="natural" v="hill" />
		<tag k="place" v="locality" />
		<tag k="ssr:stedsnr" v="796044" />
	</node>
	<node lat="61.135438890876564" lon="9.394369449052244" id="-46831">
		<tag k="name" v="Tansberghøgde" />
		<tag k="natural" v="hill" />
		<tag k="place" v="locality" />
		<tag k="ssr:stedsnr" v="796929" />
	</node>
	<node lat="61.16579999786517" lon="9.259455553956002" id="-46838">
		<tag k="name" v="Langeletthaugen" />
		<tag k="natural" v="hill" />
		<tag k="place" v="locality" />
		<tag k="ssr:stedsnr" v="810474" />
	</node>
	<node lat="61.176258333756444" lon="9.134308327865492" id="-46849">
		<tag k="name" v="Veslestølshøvda" />
		<tag k="natural" v="hill" />
		<tag k="place" v="locality" />
		<tag k="ssr:stedsnr" v="843021" />
	</node>
	<node lat="61.28296388823871" lon="8.844763883162615" id="-46857">
		<tag k="fixme" v="consider natural=peak for the most distinct mountains in the district" />
		<tag k="name" v="Heklefjellet" />
		<tag k="natural" v="hill" />
		<tag k="place" v="locality" />
		<tag k="ssr:stedsnr" v="843222" />
	</node>
	<node lat="61.17375833698829" lon="8.974705552006265" id="-46860">
		<tag k="name" v="Køllberget" />
		<tag k="natural" v="hill" />
		<tag k="place" v="locality" />
		<tag k="ssr:stedsnr" v="843962" />
	</node>
	<node lat="61.17477777870739" lon="8.965022221139433" id="-46861">
		<tag k="name" v="Dalaberget" />
		<tag k="natural" v="hill" />
		<tag k="place" v="locality" />
		<tag k="ssr:stedsnr" v="843964" />
	</node>
	<node lat="61.15065277848332" lon="9.05873332807337" id="-46862">
		<tag k="name" v="Haugehøvda" />
		<tag k="natural" v="hill" />
		<tag k="place" v="locality" />
		<tag k="ssr:stedsnr" v="843236" />
	</node>
	<node lat="61.25253611233986" lon="9.41900832723745" id="-46864">
		<tag k="fixme" v="consider natural=peak for the most distinct mountains in the district" />
		<tag k="name" v="Fjelldokkfjellet" />
		<tag k="natural" v="hill" />
		<tag k="place" v="locality" />
		<tag k="ssr:stedsnr" v="843354" />
	</node>
	<node lat="61.14497221904805" lon="9.186394444852366" id="-46865">
		<tag k="name" v="Grønegile" />
		<tag k="natural" v="valley" />
		<tag k="place" v="locality" />
		<tag k="ssr:stedsnr" v="843356" />
	</node>
	<node lat="61.13159721800885" lon="9.079044439759382" id="-46869">
		<tag k="name" v="Herangsbakkadn" />
		<tag k="natural" v="slope" />
		<tag k="place" v="locality" />
		<tag k="ssr:stedsnr" v="843458" />
	</node>
	<node lat="61.127555554268184" lon="9.08474444010268" id="-46871">
		<tag k="name" v="Geitryggen" />
		<tag k="place" v="locality" />
		<tag k="ssr:stedsnr" v="843462" />
	</node>
	<node lat="61.10442500358587" lon="9.132672217966874" id="-46874">
		<tag k="name" v="Hanakneet" />
		<tag k="place" v="locality" />
		<tag k="ssr:stedsnr" v="843415" />
	</node>
	<node lat="61.19817778147562" lon="9.103877773634698" id="-46879">
		<tag k="name" v="Embertslette" />
		<tag k="place" v="locality" />
		<tag k="ssr:stedsnr" v="843756" />
	</node>
	<node lat="61.2508944415372" lon="8.851602778953716" id="-46882">
		<tag k="name" v="Stakkestøhøgda" />
		<tag k="natural" v="hill" />
		<tag k="place" v="locality" />
		<tag k="ssr:stedsnr" v="843835" />
	</node>
	<node lat="61.16181944125225" lon="8.969336119863856" id="-46883">
		<tag k="name" v="Brennudn" />
		<tag k="natural" v="hill" />
		<tag k="place" v="locality" />
		<tag k="ssr:stedsnr" v="843839" />
	</node>
	<node lat="61.3098527747868" lon="8.930897218130564" id="-46891">
		<tag k="name" v="Dyrberg" />
		<tag k="natural" v="hill" />
		<tag k="place" v="locality" />
		<tag k="ssr:stedsnr" v="846117" />
	</node>
	<node lat="61.3763749991912" lon="8.8050249980302" id="-46900">
		<tag k="fixme" v="consider natural=peak for the most distinct mountains in the district" />
		<tag k="name" v="Raudesteinen" />
		<tag k="natural" v="hill" />
		<tag k="place" v="locality" />
		<tag k="ssr:stedsnr" v="857158" />
	</node>
	<node lat="61.15196389119876" lon="9.35713889553527" id="-46911">
		<tag k="name" v="Saurshøgde" />
		<tag k="natural" v="hill" />
		<tag k="place" v="locality" />
		<tag k="ssr:stedsnr" v="857934" />
	</node>
	<node lat="61.2380944451742" lon="8.830491663752479" id="-46913">
		<tag k="alt_name" v="Grønolhøvda" />
		<tag k="fixme" v="consider natural=peak for the most distinct mountains in the district" />
		<tag k="name" v="Grønolhovda" />
		<tag k="natural" v="hill" />
		<tag k="place" v="locality" />
		<tag k="ssr:stedsnr" v="857767" />
	</node>
	<node lat="61.24753611556861" lon="9.252475005443602" id="-46920">
		<tag k="name" v="Synhaugen" />
		<tag k="natural" v="hill" />
		<tag k="place" v="locality" />
		<tag k="ssr:stedsnr" v="874463" />
	</node>
	<node lat="61.08931944214198" lon="9.063072230146496" id="-46929">
		<tag k="name" v="Røssletta" />
		<tag k="place" v="locality" />
		<tag k="ssr:stedsnr" v="964332" />
	</node>
	<node lat="61.12527222085392" lon="9.407216662204306" id="-46936">
		<tag k="name" v="Bleikefethaugen" />
		<tag k="natural" v="hill" />
		<tag k="place" v="locality" />
		<tag k="ssr:stedsnr" v="964007" />
	</node>
	<node lat="61.17148610749193" lon="9.11050277583218" id="-46937">
		<tag k="name" v="Grytebekkdalen" />
		<tag k="natural" v="valley" />
		<tag k="place" v="locality" />
		<tag k="ssr:stedsnr" v="964021" />
	</node>
	<node lat="61.17906944750865" lon="9.134077783150849" id="-46938">
		<tag k="name" v="Fleinskallen" />
		<tag k="natural" v="hill" />
		<tag k="place" v="locality" />
		<tag k="ssr:stedsnr" v="964031" />
	</node>
	<node lat="61.12450833366506" lon="9.11314167121995" id="-46942">
		<tag k="name" v="Bekkjedalen" />
		<tag k="natural" v="valley" />
		<tag k="place" v="locality" />
		<tag k="ssr:stedsnr" v="964082" />
	</node>
	<node lat="61.06426389011104" lon="9.21907222394633" id="-46943">
		<tag k="name" v="Rosåsen" />
		<tag k="natural" v="hill" />
		<tag k="place" v="locality" />
		<tag k="ssr:stedsnr" v="964098" />
	</node>
	<node lat="61.177399999779446" lon="8.987763894332753" id="-46946">
		<tag k="name" v="Langebakken" />
		<tag k="natural" v="slope" />
		<tag k="place" v="locality" />
		<tag k="ssr:stedsnr" v="964175" />
	</node>
	<node lat="61.198625001086484" lon="9.095369437755986" id="-46952">
		<tag k="name" v="Lange Haugen" />
		<tag k="natural" v="hill" />
		<tag k="place" v="locality" />
		<tag k="ssr:stedsnr" v="964630" />
	</node>
	<node lat="61.19644167020522" lon="8.984033340540421" id="-46953">
		<tag k="name" v="Skulehusberget" />
		<tag k="natural" v="hill" />
		<tag k="place" v="locality" />
		<tag k="ssr:stedsnr" v="964714" />
	</node>
	<node lat="61.20445277748017" lon="9.149447224510586" id="-46954">
		<tag k="name" v="Gravfjellstølhøgde" />
		<tag k="natural" v="hill" />
		<tag k="place" v="locality" />
		<tag k="ssr:stedsnr" v="964718" />
	</node>
	<node lat="61.145388891342414" lon="9.258672223633003" id="-46957">
		<tag k="name" v="Dugardshaugen" />
		<tag k="natural" v="hill" />
		<tag k="place" v="locality" />
		<tag k="ssr:stedsnr" v="964221" />
	</node>
	<node lat="61.15094444013975" lon="9.25865555915433" id="-46958">
		<tag k="name" v="Lauvhøvd" />
		<tag k="natural" v="hill" />
		<tag k="place" v="locality" />
		<tag k="ssr:stedsnr" v="964223" />
	</node>
	<node lat="61.09028611190665" lon="9.177677776516123" id="-46965">
		<tag k="name" v="Ørnehjellidn" />
		<tag k="natural" v="slope" />
		<tag k="place" v="locality" />
		<tag k="ssr:stedsnr" v="964265" />
	</node>
	<node lat="61.13781666845104" lon="9.077583342600294" id="-46971">
		<tag k="fixme" v="consider natural=peak for the most distinct mountains in the district" />
		<tag k="name" v="Haughøvdhovda" />
		<tag k="natural" v="hill" />
		<tag k="place" v="locality" />
		<tag k="ssr:stedsnr" v="964470" />
	</node>
	<node lat="61.23330277870015" lon="8.925186108769868" id="-46973">
		<tag k="name" v="Bamselie" />
		<tag k="natural" v="slope" />
		<tag k="place" v="locality" />
		<tag k="ssr:stedsnr" v="964871" />
	</node>
	<node lat="61.21768333560285" lon="9.011847216780446" id="-46977">
		<tag k="alt_name" v="Svartetjednhøgde" />
		<tag k="name" v="Svartetjernhøgde" />
		<tag k="natural" v="hill" />
		<tag k="place" v="locality" />
		<tag k="ssr:stedsnr" v="964669" />
	</node>
	<node lat="61.111808335858534" lon="9.01269444418626" id="-46978">
		<tag k="name" v="Lurvehøvd" />
		<tag k="natural" v="hill" />
		<tag k="place" v="locality" />
		<tag k="ssr:stedsnr" v="964802" />
	</node>
	<node lat="61.20996110723743" lon="8.920044449315467" id="-46981">
		<tag k="name" v="Okshovdkampen" />
		<tag k="natural" v="hill" />
		<tag k="place" v="locality" />
		<tag k="ssr:stedsnr" v="964915" />
	</node>
	<node lat="61.23046666246254" lon="8.960213885358542" id="-46982">
		<tag k="name" v="Åsendin" />
		<tag k="natural" v="slope" />
		<tag k="place" v="locality" />
		<tag k="ssr:stedsnr" v="964916" />
	</node>
	<node lat="61.17462499883845" lon="8.9585694505637" id="-46988">
		<tag k="name" v="Hagahaugen" />
		<tag k="natural" v="hill" />
		<tag k="place" v="locality" />
		<tag k="ssr:stedsnr" v="964968" />
	</node>
	<node lat="61.315555554054285" lon="8.931016659626266" id="-46989">
		<tag k="name" v="Synet" />
		<tag k="natural" v="hill" />
		<tag k="place" v="locality" />
		<tag k="ssr:stedsnr" v="966125" />
	</node>
	<node lat="61.34152777404215" lon="8.86135555640084" id="-46991">
		<tag k="name" v="Svartehamarn" />
		<tag k="place" v="locality" />
		<tag k="ssr:stedsnr" v="966149" />
	</node>
</osm>
