<?xml version="1.0" encoding="UTF-8"?>
<osm version="0.6" generator="osmapis">
	<node lat="61.23774444380715" lon="9.132038897321435" id="-56516">
		<tag k="alt_name" v="Huldretjednet" />
		<tag k="name" v="Huldretjernet" />
		<tag k="natural" v="water" />
		<tag k="ssr:stedsnr" v="6486" />
	</node>
	<node lat="61.23918055385436" lon="8.995472225034176" id="-56517">
		<tag k="name" v="Drøsabekken" />
		<tag k="ssr:stedsnr" v="6489" />
		<tag k="waterway" v="stream" />
	</node>
	<node lat="61.2433055551721" lon="9.029508333283966" id="-56524">
		<tag k="name" v="Hansebekken" />
		<tag k="ssr:stedsnr" v="7450" />
		<tag k="waterway" v="stream" />
	</node>
	<node lat="61.06661226868463" lon="9.127922426040847" id="-56525">
		<tag k="alt_name" v="Høvsfjorden" />
		<tag k="name" v="Hovsfjorden" />
		<tag k="natural" v="water" />
		<tag k="ssr:stedsnr" v="7846" />
		<tag k="water" v="lake" />
	</node>
	<node lat="61.35649167051102" lon="9.079541658013362" id="-56527">
		<tag k="name" v="Nedre Bjørnhølen" />
		<tag k="natural" v="water" />
		<tag k="ssr:stedsnr" v="8048" />
	</node>
	<node lat="61.34109444676534" lon="8.896005549622828" id="-56528">
		<tag k="name" v="Midtbekken" />
		<tag k="ssr:stedsnr" v="8054" />
		<tag k="waterway" v="stream" />
	</node>
	<node lat="61.16935000277871" lon="9.390980555993385" id="-56531">
		<tag k="alt_name" v="Skåltjednbekken" />
		<tag k="name" v="Skåltjernbekken" />
		<tag k="ssr:stedsnr" v="7948" />
		<tag k="waterway" v="stream" />
	</node>
	<node lat="61.15443888482392" lon="9.311294439366943" id="-56532">
		<tag k="name" v="Saursbekken" />
		<tag k="ssr:stedsnr" v="7949" />
		<tag k="waterway" v="stream" />
	</node>
	<node lat="61.259497222584734" lon="8.854499991343074" id="-56537">
		<tag k="alt_name" v="Beitotjednet" />
		<tag k="name" v="Beitetjernet" />
		<tag k="natural" v="water" />
		<tag k="ssr:stedsnr" v="8104" />
	</node>
	<node lat="61.34191111471522" lon="8.991849993579223" id="-56540">
		<tag k="name" v="Nibbesteinadn" />
		<tag k="place" v="islet" />
		<tag k="ssr:stedsnr" v="21690" />
	</node>
	<node lat="61.11657777839335" lon="9.07509721422185" id="-56541">
		<tag k="alt_name" v="Volbuelvi" />
		<tag k="name" v="Volbuelve" />
		<tag k="ssr:stedsnr" v="28820" />
		<tag k="waterway" v="river" />
	</node>
	<node lat="61.1687499969141" lon="9.007147220666361" id="-56551">
		<tag k="name" v="Fåkjelda" />
		<tag k="ssr:stedsnr" v="236156" />
		<tag k="waterway" v="stream" />
	</node>
	<node lat="61.150013888507544" lon="9.016380558880401" id="-56556">
		<tag k="name" v="Prestheggeøddin" />
		<tag k="natural" v="cape" />
		<tag k="ssr:stedsnr" v="236176" />
	</node>
	<node lat="61.11986110933411" lon="9.196911109421844" id="-56558">
		<tag k="alt_name" v="Brendehøvdbekken" />
		<tag k="name" v="Brendehovdbekken" />
		<tag k="ssr:stedsnr" v="236222" />
		<tag k="waterway" v="stream" />
	</node>
	<node lat="61.24549999911045" lon="8.972499992291874" id="-56575">
		<tag k="name" v="Veslefoss" />
		<tag k="natural" v="waterfall" />
		<tag k="ssr:stedsnr" v="236944" />
	</node>
	<node lat="61.14247222132511" lon="9.332186116795214" id="-56579">
		<tag k="loc_name" v="Saur" />
		<tag k="name" v="Saursvatne" />
		<tag k="natural" v="water" />
		<tag k="ssr:stedsnr" v="40671" />
		<tag k="water" v="lake" />
	</node>
	<node lat="61.34054721882346" lon="8.986394439125455" id="-56582">
		<tag k="name" v="Vembadn" />
		<tag k="place" v="locality" />
		<tag k="ssr:stedsnr" v="238243" />
	</node>
	<node lat="61.297305556862746" lon="8.92161111554204" id="-56583">
		<tag k="name" v="Kløvstein" />
		<tag k="place" v="islet" />
		<tag k="ssr:stedsnr" v="238852" />
	</node>
	<node lat="61.15617777548676" lon="9.008683338184275" id="-56585">
		<tag k="name" v="Nordtorpbekken" />
		<tag k="ssr:stedsnr" v="54168" />
		<tag k="waterway" v="stream" />
	</node>
	<node lat="61.14963332957972" lon="9.193177782777603" id="-56588">
		<tag k="name" v="Vesleøyne" />
		<tag k="place" v="islet" />
		<tag k="ssr:stedsnr" v="54210" />
	</node>
	<node lat="61.237616667948565" lon="9.442544444572553" id="-56592">
		<tag k="name" v="Draget" />
		<tag k="natural" v="strait" />
		<tag k="ssr:stedsnr" v="54375" />
	</node>
	<node lat="61.19524166545706" lon="9.307933342133735" id="-56594">
		<tag k="name" v="Jønsrudfløten" />
		<tag k="natural" v="water" />
		<tag k="ssr:stedsnr" v="54505" />
		<tag k="water" v="lake" />
	</node>
	<node lat="61.32689999646531" lon="9.005827780914816" id="-56598">
		<tag k="name" v="Hunden" />
		<tag k="place" v="islet" />
		<tag k="ssr:stedsnr" v="56205" />
	</node>
	<node lat="61.329738889405434" lon="8.991069436197499" id="-56599">
		<tag k="name" v="Leverberg" />
		<tag k="place" v="islet" />
		<tag k="ssr:stedsnr" v="56214" />
	</node>
	<node lat="61.33010555405603" lon="8.852047216251371" id="-56600">
		<tag k="name" v="Grytevike" />
		<tag k="natural" v="bay" />
		<tag k="ssr:stedsnr" v="57310" />
	</node>
	<node lat="61.33651944331369" lon="8.846075002910402" id="-56601">
		<tag k="name" v="Raudbekken" />
		<tag k="ssr:stedsnr" v="57312" />
		<tag k="waterway" v="stream" />
	</node>
	<node lat="61.33727778044916" lon="8.842277784919284" id="-56602">
		<tag k="name" v="Grønolsbekken" />
		<tag k="ssr:stedsnr" v="57313" />
		<tag k="waterway" v="stream" />
	</node>
	<node lat="61.30549722394552" lon="8.985177770471363" id="-56604">
		<tag k="name" v="Blekjevike" />
		<tag k="natural" v="bay" />
		<tag k="ssr:stedsnr" v="58673" />
	</node>
	<node lat="61.176900001204466" lon="8.912405558749386" id="-56605">
		<tag k="name" v="Verpande" />
		<tag k="ssr:stedsnr" v="67042" />
		<tag k="waterway" v="river" />
	</node>
	<node lat="61.2319916641879" lon="8.904005559002263" id="-56608">
		<tag k="name" v="Åbortjernet" />
		<tag k="natural" v="water" />
		<tag k="old_name" v="Øbbørtjednet" />
		<tag k="ssr:stedsnr" v="67494" />
	</node>
	<node lat="61.166213892645025" lon="9.416219444396585" id="-56615">
		<tag k="alt_name" v="Gudleikstjednet" />
		<tag k="name" v="Gudleikstjernet" />
		<tag k="natural" v="water" />
		<tag k="ssr:stedsnr" v="68930" />
	</node>
	<node lat="61.3267416665559" lon="9.066972223066296" id="-56616">
		<tag k="name" v="Skindrotjerne" />
		<tag k="natural" v="water" />
		<tag k="ssr:stedsnr" v="69063" />
		<tag k="water" v="lake" />
	</node>
	<node lat="61.33106110741623" lon="8.986580552516452" id="-56617">
		<tag k="name" v="Melbysholmen" />
		<tag k="place" v="islet" />
		<tag k="ssr:stedsnr" v="69065" />
	</node>
	<node lat="61.32958055589646" lon="9.086627779432964" id="-56618">
		<tag k="name" v="Titra" />
		<tag k="ssr:stedsnr" v="69075" />
		<tag k="waterway" v="river" />
	</node>
	<node lat="61.22963333095537" lon="9.251919452205348" id="-56620">
		<tag k="name" v="Bergabekken" />
		<tag k="ssr:stedsnr" v="68988" />
		<tag k="waterway" v="stream" />
	</node>
	<node lat="61.19400343022068" lon="9.02103761729863" id="-56626">
		<tag k="alt_name" v="Vindin, nordre" />
		<tag k="name" v="Nørdre Vindin" />
		<tag k="natural" v="water" />
		<tag k="ssr:stedsnr" v="249012" />
		<tag k="water" v="lake" />
	</node>
	<node lat="61.244936109406055" lon="9.096422225509684" id="-56637">
		<tag k="alt_name" v="Kjølen, nordre;Kjølavatnet" />
		<tag k="name" v="Nørdre Kjølen" />
		<tag k="natural" v="water" />
		<tag k="ssr:stedsnr" v="249478" />
		<tag k="water" v="lake" />
	</node>
	<node lat="61.19906388443738" lon="8.927825000823907" id="-56639">
		<tag k="alt_name" v="Hølen, øvre" />
		<tag k="name" v="Øvre Hølen" />
		<tag k="natural" v="water" />
		<tag k="ssr:stedsnr" v="249495" />
	</node>
	<node lat="61.18654301223443" lon="9.302548798791952" id="-56642">
		<tag k="name" v="Etne" />
		<tag k="ssr:stedsnr" v="249739" />
		<tag k="waterway" v="river" />
	</node>
	<node lat="61.173930557997295" lon="9.18030833454857" id="-56643">
		<tag k="name" v="Åbortjernet" />
		<tag k="natural" v="water" />
		<tag k="old_name" v="Øbbørtjednet" />
		<tag k="ssr:stedsnr" v="250043" />
	</node>
	<node lat="61.15732500137126" lon="9.299174991902378" id="-56645">
		<tag k="name" v="Møaåne" />
		<tag k="ssr:stedsnr" v="249945" />
		<tag k="waterway" v="stream" />
	</node>
	<node lat="61.34437500374289" lon="8.962275009332753" id="-56650">
		<tag k="name" v="Urekåne" />
		<tag k="ssr:stedsnr" v="250046" />
		<tag k="waterway" v="river" />
	</node>
	<node lat="61.32756944457784" lon="9.024505557637742" id="-56652">
		<tag k="name" v="Nauarvike" />
		<tag k="natural" v="bay" />
		<tag k="ssr:stedsnr" v="250060" />
	</node>
	<node lat="61.38931111141481" lon="8.760805563082728" id="-56654">
		<tag k="name" v="Rasletjernet" />
		<tag k="natural" v="water" />
		<tag k="ssr:stedsnr" v="250155" />
	</node>
	<node lat="61.34112777519447" lon="8.81821389391589" id="-56657">
		<tag k="alt_name" v="Rjupa, nordre" />
		<tag k="name" v="Nørdre Rjupa" />
		<tag k="ssr:stedsnr" v="250169" />
		<tag k="waterway" v="stream" />
	</node>
	<node lat="61.128313892976" lon="9.158805558624355" id="-56671">
		<tag k="name" v="Øyangsvike" />
		<tag k="natural" v="bay" />
		<tag k="ssr:stedsnr" v="115222" />
	</node>
	<node lat="61.178069445203214" lon="9.339569442927267" id="-56679">
		<tag k="name" v="Huldratjernet" />
		<tag k="natural" v="water" />
		<tag k="old_name" v="Huldratjednet" />
		<tag k="ssr:stedsnr" v="115408" />
	</node>
	<node lat="61.17488611157238" lon="9.354213886162123" id="-56680">
		<tag k="name" v="Ambørtjernet" />
		<tag k="natural" v="water" />
		<tag k="old_name" v="Ambørtjednet" />
		<tag k="ssr:stedsnr" v="115410" />
	</node>
	<node lat="61.22066389215304" lon="9.137702774659902" id="-56683">
		<tag k="alt_name" v="Rauåne" />
		<tag k="name" v="Raudåne" />
		<tag k="ssr:stedsnr" v="250485" />
		<tag k="waterway" v="stream" />
	</node>
	<node lat="61.27290833602505" lon="8.978786111489741" id="-56684">
		<tag k="name" v="Gottebekken" />
		<tag k="ssr:stedsnr" v="115914" />
		<tag k="waterway" v="stream" />
	</node>
	<node lat="61.336752779866686" lon="8.8636583263939" id="-56686">
		<tag k="name" v="Sendeføssen" />
		<tag k="natural" v="waterfall" />
		<tag k="ssr:stedsnr" v="117172" />
	</node>
	<node lat="61.32935277409478" lon="8.870563884696756" id="-56687">
		<tag k="name" v="Vesle Hatten" />
		<tag k="place" v="islet" />
		<tag k="ssr:stedsnr" v="117214" />
	</node>
	<node lat="61.16211667042018" lon="9.302469447521531" id="-56689">
		<tag k="alt_name" v="Langetjednet" />
		<tag k="name" v="Langetjernet" />
		<tag k="natural" v="water" />
		<tag k="ssr:stedsnr" v="250926" />
	</node>
	<node lat="61.26131388620652" lon="8.95160000425779" id="-56692">
		<tag k="alt_name" v="Melbytjednet" />
		<tag k="name" v="Melbystjernet" />
		<tag k="natural" v="water" />
		<tag k="ssr:stedsnr" v="251101" />
	</node>
	<node lat="61.26240833042871" lon="9.049027771145925" id="-56693">
		<tag k="alt_name" v="Kringletjednet" />
		<tag k="name" v="Kringletjernet" />
		<tag k="natural" v="water" />
		<tag k="ssr:stedsnr" v="251105" />
	</node>
	<node lat="61.31323055797475" lon="9.22843610942435" id="-56698">
		<tag k="name" v="Rynjustjernet" />
		<tag k="natural" v="water" />
		<tag k="ssr:stedsnr" v="251499" />
	</node>
	<node lat="61.310855552848835" lon="9.245933336769166" id="-56699">
		<tag k="name" v="Stortjernet" />
		<tag k="natural" v="water" />
		<tag k="ssr:stedsnr" v="251501" />
	</node>
	<node lat="61.1933116393613" lon="9.034909643078379" id="-56703">
		<tag k="alt_name" v="Vindin, midtre;Midtvindin" />
		<tag k="name" v="Midtre Vindin" />
		<tag k="natural" v="water" />
		<tag k="ssr:stedsnr" v="128010" />
		<tag k="water" v="lake" />
	</node>
	<node lat="61.10090555952035" lon="9.083869451082528" id="-56705">
		<tag k="name" v="Volbufjorden" />
		<tag k="natural" v="water" />
		<tag k="ssr:stedsnr" v="128146" />
		<tag k="water" v="lake" />
	</node>
	<node lat="61.09293055781634" lon="9.237127773707245" id="-56710">
		<tag k="alt_name" v="Svartetjednet" />
		<tag k="name" v="Svartetjern" />
		<tag k="natural" v="water" />
		<tag k="ssr:stedsnr" v="128908" />
	</node>
	<node lat="61.23640777793969" lon="9.417447191447339" id="-56711">
		<tag k="name" v="Fjelldokkvatnet" />
		<tag k="natural" v="water" />
		<tag k="ssr:stedsnr" v="128991" />
		<tag k="water" v="lake" />
	</node>
	<node lat="61.09947500332412" lon="9.26685277259424" id="-56713">
		<tag k="name" v="Svartebekken" />
		<tag k="ssr:stedsnr" v="128898" />
		<tag k="waterway" v="stream" />
	</node>
	<node lat="61.100133336850874" lon="9.245319442465801" id="-56714">
		<tag k="name" v="Melletjerne" />
		<tag k="natural" v="water" />
		<tag k="ssr:stedsnr" v="128900" />
		<tag k="water" v="lake" />
	</node>
	<node lat="61.32238055275262" lon="9.210750008782062" id="-56715">
		<tag k="name" v="Skagsbekken" />
		<tag k="ssr:stedsnr" v="129089" />
		<tag k="waterway" v="stream" />
	</node>
	<node lat="61.398347220189585" lon="8.85515000343944" id="-56717">
		<tag k="name" v="Jervetjerne" />
		<tag k="natural" v="water" />
		<tag k="ssr:stedsnr" v="147302" />
		<tag k="water" v="lake" />
	</node>
	<node lat="61.13473333758631" lon="9.125866672908122" id="-56726">
		<tag k="name" v="Raubekken" />
		<tag k="ssr:stedsnr" v="175074" />
		<tag k="waterway" v="stream" />
	</node>
	<node lat="61.12456388895536" lon="9.127874992260958" id="-56727">
		<tag k="name" v="Svartetjernet" />
		<tag k="natural" v="water" />
		<tag k="old_name" v="Svartetjednet" />
		<tag k="ssr:stedsnr" v="175078" />
	</node>
	<node lat="61.110038893101525" lon="9.120525006553857" id="-56733">
		<tag k="name" v="Brøtabekken" />
		<tag k="ssr:stedsnr" v="175436" />
		<tag k="waterway" v="stream" />
	</node>
	<node lat="61.13969444293837" lon="9.051744453403897" id="-56734">
		<tag k="name" v="Skjeret" />
		<tag k="place" v="islet" />
		<tag k="ssr:stedsnr" v="175461" />
	</node>
	<node lat="61.089297221405154" lon="9.103811103679362" id="-56736">
		<tag k="loc_name" v="Røsøyne" />
		<tag k="name" v="Røssøyne" />
		<tag k="place" v="islet" />
		<tag k="ssr:stedsnr" v="175528" />
	</node>
	<node lat="61.288986109098495" lon="8.925980561566385" id="-56738">
		<tag k="name" v="Skirvebekken" />
		<tag k="ssr:stedsnr" v="177858" />
		<tag k="waterway" v="stream" />
	</node>
	<node lat="61.248024997394054" lon="9.20831388857275" id="-56743">
		<tag k="alt_name" v="Raubekken" />
		<tag k="name" v="Raudbekken" />
		<tag k="ssr:stedsnr" v="188516" />
		<tag k="waterway" v="stream" />
	</node>
	<node lat="61.15876944102057" lon="9.126036109756129" id="-56744">
		<tag k="name" v="Kvannebekken" />
		<tag k="ssr:stedsnr" v="189068" />
		<tag k="waterway" v="stream" />
	</node>
	<node lat="61.121355551870145" lon="9.370533339986745" id="-56749">
		<tag k="name" v="Buatjerne" />
		<tag k="natural" v="water" />
		<tag k="ssr:stedsnr" v="189923" />
		<tag k="water" v="lake" />
	</node>
	<node lat="61.20914999869322" lon="9.430558339056967" id="-56752">
		<tag k="name" v="Tyribekken" />
		<tag k="ssr:stedsnr" v="189966" />
		<tag k="waterway" v="stream" />
	</node>
	<node lat="61.257558335350794" lon="8.936580563220753" id="-56753">
		<tag k="alt_name" v="Tutjednbekken" />
		<tag k="name" v="Tutjernbekken" />
		<tag k="ssr:stedsnr" v="190105" />
		<tag k="waterway" v="stream" />
	</node>
	<node lat="61.475044444251026" lon="8.835536103310417" id="-56754">
		<tag k="name" v="Brurskardbekken" />
		<tag k="ssr:stedsnr" v="190777" />
		<tag k="waterway" v="stream" />
	</node>
	<node lat="61.14904444375078" lon="9.038941671314277" id="-56765">
		<tag k="name" v="Sælsbekken" />
		<tag k="ssr:stedsnr" v="236234" />
		<tag k="waterway" v="stream" />
	</node>
	<node lat="61.06900000086014" lon="9.205933325795199" id="-56768">
		<tag k="name" v="Store Øygardsbekken" />
		<tag k="ssr:stedsnr" v="236237" />
		<tag k="waterway" v="stream" />
	</node>
	<node lat="61.15344722232266" lon="9.224497222710855" id="-56769">
		<tag k="name" v="Bamsesvam" />
		<tag k="place" v="islet" />
		<tag k="ssr:stedsnr" v="236193" />
	</node>
	<node lat="61.08967500169954" lon="9.137033324867227" id="-56774">
		<tag k="name" v="Åkroken" />
		<tag k="place" v="locality" />
		<tag k="ssr:stedsnr" v="236509" />
	</node>
	<node lat="61.24779999887268" lon="8.831661111449721" id="-56779">
		<tag k="name" v="Lykkjetjernet" />
		<tag k="natural" v="water" />
		<tag k="old_name" v="Lykkjetjednet" />
		<tag k="ssr:stedsnr" v="236804" />
	</node>
	<node lat="61.29767499704535" lon="8.9075749946541" id="-56788">
		<tag k="name" v="Hella" />
		<tag k="place" v="islet" />
		<tag k="ssr:stedsnr" v="238837" />
	</node>
	<node lat="61.12530555604881" lon="9.21217499244612" id="-56816">
		<tag k="alt_name" v="Løyntjednbekken" />
		<tag k="name" v="Løyntjernbekken" />
		<tag k="ssr:stedsnr" v="297222" />
		<tag k="waterway" v="stream" />
	</node>
	<node lat="61.131580559392766" lon="9.207455552797441" id="-56818">
		<tag k="name" v="Nedre Køltjernet" />
		<tag k="natural" v="water" />
		<tag k="old_name" v="Nedre Køltjednet" />
		<tag k="ssr:stedsnr" v="297227" />
	</node>
	<node lat="61.191638888287216" lon="9.195533330146379" id="-56821">
		<tag k="name" v="Sanden" />
		<tag k="natural" v="beach" />
		<tag k="ssr:stedsnr" v="297733" />
	</node>
	<node lat="61.14128551901673" lon="9.174315841279077" id="-56836">
		<tag k="fixme" v="multiple name tags, choose one and add the other to alt_name" />
		<tag k="name" v="Bleikelitjernet;Hestekamptjernet" />
		<tag k="natural" v="water" />
		<tag k="old_name" v="Hestekamptjednet" />
		<tag k="ssr:stedsnr" v="310098" />
	</node>
	<node lat="61.12838218046157" lon="9.21038351872262" id="-56840">
		<tag k="name" v="Koltjerne" />
		<tag k="natural" v="water" />
		<tag k="ssr:stedsnr" v="310111" />
		<tag k="water" v="lake" />
	</node>
	<node lat="61.08391835019233" lon="9.29160281185565" id="-56844">
		<tag k="name" v="Mellsenn" />
		<tag k="natural" v="water" />
		<tag k="ssr:stedsnr" v="310886" />
		<tag k="water" v="lake" />
	</node>
	<node lat="61.10133889335044" lon="9.2812249993263" id="-56845">
		<tag k="name" v="Turrsjøen" />
		<tag k="natural" v="water" />
		<tag k="ssr:stedsnr" v="310897" />
	</node>
	<node lat="61.313408335588306" lon="8.948013888812714" id="-56850">
		<tag k="name" v="Store Barnesvike" />
		<tag k="natural" v="bay" />
		<tag k="ssr:stedsnr" v="311077" />
	</node>
	<node lat="61.29422499576718" lon="8.918652773532683" id="-56852">
		<tag k="name" v="Karifjorden" />
		<tag k="place" v="locality" />
		<tag k="ssr:stedsnr" v="311089" />
	</node>
	<node lat="61.27963333050699" lon="9.066830546965667" id="-56853">
		<tag k="name" v="Storetjernet" />
		<tag k="natural" v="water" />
		<tag k="ssr:stedsnr" v="311094" />
	</node>
	<node lat="61.282580557108126" lon="9.031505557384321" id="-56854">
		<tag k="name" v="Stryta" />
		<tag k="natural" v="water" />
		<tag k="ssr:stedsnr" v="311097" />
		<tag k="water" v="lake" />
	</node>
	<node lat="61.13019444330603" lon="9.187394446367826" id="-56863">
		<tag k="name" v="Grytebekkosen" />
		<tag k="natural" v="bay" />
		<tag k="ssr:stedsnr" v="357203" />
	</node>
	<node lat="61.128149999740266" lon="9.178008328105816" id="-56865">
		<tag k="name" v="Ellingvike" />
		<tag k="natural" v="bay" />
		<tag k="ssr:stedsnr" v="357200" />
	</node>
	<node lat="61.06766944739808" lon="9.151147215626883" id="-56870">
		<tag k="name" v="Melbybekken" />
		<tag k="ssr:stedsnr" v="357522" />
		<tag k="waterway" v="stream" />
	</node>
	<node lat="61.191461108390925" lon="9.051549993418163" id="-56872">
		<tag k="name" v="Vettravike" />
		<tag k="natural" v="bay" />
		<tag k="ssr:stedsnr" v="357657" />
	</node>
	<node lat="61.32880833230917" lon="8.854388880376433" id="-56884">
		<tag k="name" v="Sendevømbe" />
		<tag k="place" v="locality" />
		<tag k="ssr:stedsnr" v="360303" />
	</node>
	<node lat="61.33340000057036" lon="8.842127785137368" id="-56885">
		<tag k="name" v="Øyråkervike" />
		<tag k="natural" v="bay" />
		<tag k="ssr:stedsnr" v="360314" />
	</node>
	<node lat="61.152286111142864" lon="9.013788897264257" id="-56891">
		<tag k="name" v="Heggeøyne" />
		<tag k="place" v="island" />
		<tag k="ssr:stedsnr" v="478153" />
	</node>
	<node lat="61.14778508874172" lon="9.031440617650983" id="-56893">
		<tag k="name" v="Lortevike" />
		<tag k="natural" v="bay" />
		<tag k="ssr:stedsnr" v="478156" />
	</node>
	<node lat="61.18081666873725" lon="9.23228332684846" id="-56894">
		<tag k="name" v="Pipetjernbekken" />
		<tag k="old_name" v="Pipetjednbekken" />
		<tag k="ssr:stedsnr" v="478162" />
		<tag k="waterway" v="stream" />
	</node>
	<node lat="61.14292222191936" lon="9.225627774714978" id="-56895">
		<tag k="name" v="Osvike" />
		<tag k="natural" v="bay" />
		<tag k="ssr:stedsnr" v="478169" />
	</node>
	<node lat="61.19147222355916" lon="9.047161113360637" id="-56907">
		<tag k="name" v="Nørdreåne" />
		<tag k="ssr:stedsnr" v="478682" />
		<tag k="waterway" v="river" />
	</node>
	<node lat="61.10975555226896" lon="9.059019448824985" id="-56929">
		<tag k="name" v="Strandebekken" />
		<tag k="ssr:stedsnr" v="479295" />
		<tag k="waterway" v="stream" />
	</node>
	<node lat="61.412136112581685" lon="8.973033328025297" id="-56930">
		<tag k="name" v="Grådøla" />
		<tag k="ssr:stedsnr" v="371013" />
		<tag k="waterway" v="stream" />
	</node>
	<node lat="61.18160555143607" lon="9.039286103024871" id="-56931">
		<tag k="alt_name" v="Vangstjednet" />
		<tag k="name" v="Vangstjernet" />
		<tag k="natural" v="water" />
		<tag k="ssr:stedsnr" v="371015" />
	</node>
	<node lat="61.36831944607482" lon="9.086474994868244" id="-56933">
		<tag k="name" v="Urdatjernet" />
		<tag k="natural" v="water" />
		<tag k="ssr:stedsnr" v="371020" />
	</node>
	<node lat="61.27254444615704" lon="9.023050004020702" id="-56934">
		<tag k="name" v="Ljøtebekken" />
		<tag k="ssr:stedsnr" v="371070" />
		<tag k="waterway" v="stream" />
	</node>
	<node lat="61.20858333185371" lon="9.388044435990206" id="-56941">
		<tag k="name" v="Finnetjernet" />
		<tag k="old_name" v="Finnetjednet" />
		<tag k="ssr:stedsnr" v="479425" />
		<tag k="waterway" v="stream" />
	</node>
	<node lat="61.245658330667936" lon="9.383433333744996" id="-56944">
		<tag k="name" v="Haldorbubekken" />
		<tag k="ssr:stedsnr" v="371762" />
		<tag k="waterway" v="stream" />
	</node>
	<node lat="61.30095833146273" lon="9.244691669422801" id="-56947">
		<tag k="name" v="Skagstjernet" />
		<tag k="natural" v="water" />
		<tag k="ssr:stedsnr" v="372500" />
	</node>
	<node lat="61.26725000350658" lon="8.847574990855188" id="-56949">
		<tag k="name" v="Strypebekken" />
		<tag k="ssr:stedsnr" v="479781" />
		<tag k="waterway" v="stream" />
	</node>
	<node lat="61.198100001795666" lon="9.19104721906768" id="-56950">
		<tag k="name" v="Øvre Fløten" />
		<tag k="natural" v="water" />
		<tag k="ssr:stedsnr" v="479744" />
		<tag k="water" v="lake" />
	</node>
	<node lat="61.197861113935915" lon="8.929808326216017" id="-56952">
		<tag k="name" v="Kvednafossen" />
		<tag k="natural" v="waterfall" />
		<tag k="ssr:stedsnr" v="479834" />
	</node>
	<node lat="61.30714166628513" lon="8.950880553148911" id="-56954">
		<tag k="name" v="Kultadn" />
		<tag k="place" v="island" />
		<tag k="ssr:stedsnr" v="481139" />
	</node>
	<node lat="61.30813055465684" lon="8.869213894661486" id="-56955">
		<tag k="name" v="Kulpen" />
		<tag k="natural" v="bay" />
		<tag k="ssr:stedsnr" v="481834" />
	</node>
	<node lat="61.298922224713024" lon="8.907944453590382" id="-56956">
		<tag k="name" v="Sprekken" />
		<tag k="natural" v="beach" />
		<tag k="ssr:stedsnr" v="481849" />
	</node>
	<node lat="61.34542777613962" lon="9.030394439549312" id="-56957">
		<tag k="name" v="Store Straumen" />
		<tag k="natural" v="strait" />
		<tag k="ssr:stedsnr" v="483720" />
	</node>
	<node lat="61.143498147490824" lon="9.357978065076903" id="-56968">
		<tag k="alt_name" v="Saurstjernet, øvre;Vesle Saur" />
		<tag k="loc_name" v="Søre Saur" />
		<tag k="name" v="Øvre Saurstjernet" />
		<tag k="natural" v="water" />
		<tag k="ssr:stedsnr" v="417247" />
		<tag k="water" v="lake" />
	</node>
	<node lat="61.099594446322556" lon="9.108030550463594" id="-56973">
		<tag k="name" v="Rognsbekken" />
		<tag k="ssr:stedsnr" v="418508" />
		<tag k="waterway" v="stream" />
	</node>
	<node lat="61.09239721935513" lon="9.246558328060534" id="-56977">
		<tag k="name" v="Svartetjernet" />
		<tag k="natural" v="water" />
		<tag k="old_name" v="Svartetjednet" />
		<tag k="ssr:stedsnr" v="419100" />
	</node>
	<node lat="61.11858055794603" lon="9.078349994090635" id="-56980">
		<tag k="name" v="Sørgeføss" />
		<tag k="natural" v="waterfall" />
		<tag k="ssr:stedsnr" v="419308" />
	</node>
	<node lat="61.185627778490854" lon="9.124780562097103" id="-56984">
		<tag k="alt_name" v="Viflå" />
		<tag k="name" v="Vidflå" />
		<tag k="natural" v="water" />
		<tag k="ssr:stedsnr" v="422009" />
		<tag k="water" v="lake" />
	</node>
	<node lat="61.34401111415375" lon="9.00463611790052" id="-56985">
		<tag k="name" v="Liøyne" />
		<tag k="place" v="island" />
		<tag k="ssr:stedsnr" v="422693" />
	</node>
	<node lat="61.14910277491069" lon="9.124586106547216" id="-56991">
		<tag k="name" v="Leirbekken" />
		<tag k="ssr:stedsnr" v="431103" />
		<tag k="waterway" v="stream" />
	</node>
	<node lat="61.43131110793143" lon="8.858649996163203" id="-56999">
		<tag k="name" v="Sandbakkbekken" />
		<tag k="ssr:stedsnr" v="432007" />
		<tag k="waterway" v="stream" />
	</node>
	<node lat="61.36412222124191" lon="9.084952775872418" id="-57001">
		<tag k="name" v="Døraåne" />
		<tag k="ssr:stedsnr" v="432019" />
		<tag k="waterway" v="river" />
	</node>
	<node lat="61.41896111517955" lon="8.774761116556105" id="-57004">
		<tag k="name" v="Raslebekken" />
		<tag k="ssr:stedsnr" v="432118" />
		<tag k="waterway" v="stream" />
	</node>
	<node lat="61.09789999662016" lon="9.379616662670955" id="-57011">
		<tag k="name" v="Stakketjernet" />
		<tag k="natural" v="water" />
		<tag k="old_name" v="Stekketjednet;Stakktjednet" />
		<tag k="ssr:stedsnr" v="432916" />
	</node>
	<node lat="61.12320919336343" lon="9.260592342021573" id="-57012">
		<tag k="alt_name" v="Rabbalsvatnet" />
		<tag k="name" v="Rabalsvatnet" />
		<tag k="natural" v="water" />
		<tag k="ssr:stedsnr" v="432928" />
		<tag k="water" v="lake" />
	</node>
	<node lat="61.19293610773824" lon="9.374419451281373" id="-57013">
		<tag k="alt_name" v="Størrtjernet" />
		<tag k="name" v="Storrtjernet" />
		<tag k="natural" v="water" />
		<tag k="ssr:stedsnr" v="432981" />
	</node>
	<node lat="61.17099721872953" lon="9.185513887975947" id="-57016">
		<tag k="alt_name" v="Størrtjednet" />
		<tag k="name" v="Stortjernet" />
		<tag k="natural" v="water" />
		<tag k="ssr:stedsnr" v="492033" />
	</node>
	<node lat="61.227944448750854" lon="8.887275000172675" id="-57031">
		<tag k="name" v="Grøvabekken" />
		<tag k="ssr:stedsnr" v="492433" />
		<tag k="waterway" v="stream" />
	</node>
	<node lat="61.09776111327401" lon="9.334236113696322" id="-57035">
		<tag k="name" v="Midtvatnet" />
		<tag k="natural" v="water" />
		<tag k="ssr:stedsnr" v="492915" />
	</node>
	<node lat="61.3081611130794" lon="8.953450005081658" id="-57036">
		<tag k="name" v="Barnesodden" />
		<tag k="natural" v="cape" />
		<tag k="ssr:stedsnr" v="493092" />
	</node>
	<node lat="61.28463889164511" lon="8.88908332804729" id="-57038">
		<tag k="name" v="Olekinn" />
		<tag k="ssr:stedsnr" v="493099" />
		<tag k="waterway" v="stream" />
	</node>
	<node lat="61.257547222435605" lon="8.8385333396406" id="-57042">
		<tag k="alt_name" v="Synbergtjednet" />
		<tag k="name" v="Synbergtjernet" />
		<tag k="natural" v="water" />
		<tag k="ssr:stedsnr" v="493237" />
	</node>
	<node lat="61.10817777908006" lon="9.159763889334766" id="-57049">
		<tag k="name" v="Fiskeløyset" />
		<tag k="natural" v="water" />
		<tag k="old_name" v="Fiskeløyse" />
		<tag k="ssr:stedsnr" v="674156" />
	</node>
	<node lat="61.104005557069875" lon="9.150477770320181" id="-57056">
		<tag k="name" v="Nørdre Ringåne" />
		<tag k="ssr:stedsnr" v="674173" />
		<tag k="waterway" v="stream" />
	</node>
	<node lat="61.36237447843682" lon="9.118446772186854" id="-57060">
		<tag k="name" v="Sandvatnet" />
		<tag k="natural" v="water" />
		<tag k="ssr:stedsnr" v="675046" />
	</node>
	<node lat="61.157666665314274" lon="9.275594441115148" id="-57076">
		<tag k="alt_name" v="Hølmetjednet" />
		<tag k="name" v="Holmetjernet" />
		<tag k="natural" v="water" />
		<tag k="ssr:stedsnr" v="674932" />
	</node>
	<node lat="61.14488611511613" lon="9.341827772414467" id="-57077">
		<tag k="alt_name" v="Saursvatnet, store" />
		<tag k="loc_name" v="Midtre Saur" />
		<tag k="name" v="Store Saursvatnet" />
		<tag k="natural" v="water" />
		<tag k="old_name" v="Store Saur" />
		<tag k="ssr:stedsnr" v="674943" />
		<tag k="water" v="lake" />
	</node>
	<node lat="61.313633332860725" lon="8.873855553287772" id="-57080">
		<tag k="name" v="Tobakksøyne" />
		<tag k="place" v="islet" />
		<tag k="ssr:stedsnr" v="675077" />
	</node>
	<node lat="61.28093889240962" lon="8.877605550658775" id="-57083">
		<tag k="name" v="Olebekken" />
		<tag k="ssr:stedsnr" v="675095" />
		<tag k="waterway" v="stream" />
	</node>
	<node lat="61.214615879225846" lon="8.88303661981072" id="-57090">
		<tag k="name" v="Øyangen" />
		<tag k="natural" v="water" />
		<tag k="ssr:stedsnr" v="675476" />
		<tag k="water" v="lake" />
	</node>
	<node lat="61.1173055514215" lon="9.029200000396903" id="-57098">
		<tag k="name" v="Skatrudbekken" />
		<tag k="ssr:stedsnr" v="478361" />
		<tag k="waterway" v="stream" />
	</node>
	<node lat="61.20219444186601" lon="9.045822217106391" id="-57101">
		<tag k="name" v="Sagamyrfløten" />
		<tag k="natural" v="water" />
		<tag k="ssr:stedsnr" v="478678" />
		<tag k="water" v="lake" />
	</node>
	<node lat="61.245999997790534" lon="8.808225006264076" id="-57102">
		<tag k="name" v="Beitohølen" />
		<tag k="place" v="locality" />
		<tag k="ssr:stedsnr" v="478814" />
	</node>
	<node lat="61.17192222229185" lon="9.20469166653643" id="-57105">
		<tag k="name" v="Åtjernet" />
		<tag k="natural" v="water" />
		<tag k="old_name" v="Åtjednet" />
		<tag k="ssr:stedsnr" v="479207" />
	</node>
	<node lat="61.12067778129422" lon="9.211608338153258" id="-57106">
		<tag k="name" v="Djupedalsbekken" />
		<tag k="ssr:stedsnr" v="479215" />
		<tag k="waterway" v="stream" />
	</node>
	<node lat="61.1885388845754" lon="9.381163891536236" id="-57109">
		<tag k="name" v="Størrtjernbekken" />
		<tag k="old_name" v="Størrtjednbekken" />
		<tag k="ssr:stedsnr" v="479419" />
		<tag k="waterway" v="stream" />
	</node>
	<node lat="61.33433332953003" lon="8.858361118326988" id="-57112">
		<tag k="name" v="Nørdre Senda" />
		<tag k="ssr:stedsnr" v="481357" />
		<tag k="waterway" v="stream" />
	</node>
	<node lat="61.32264166737967" lon="8.995905551050164" id="-57124">
		<tag k="name" v="Grasøyne" />
		<tag k="place" v="islet" />
		<tag k="ssr:stedsnr" v="493079" />
	</node>
	<node lat="61.23954166525745" lon="9.250158329715099" id="-57127">
		<tag k="name" v="Vesleåne" />
		<tag k="ssr:stedsnr" v="492983" />
		<tag k="waterway" v="stream" />
	</node>
	<node lat="61.227416665082515" lon="9.2755527780588" id="-57128">
		<tag k="alt_name" v="Bersettjednet" />
		<tag k="name" v="Bergsetvatnet" />
		<tag k="natural" v="water" />
		<tag k="ssr:stedsnr" v="492989" />
	</node>
	<node lat="61.22991944244062" lon="9.428291673867951" id="-57129">
		<tag k="name" v="Myrbekken" />
		<tag k="ssr:stedsnr" v="492990" />
		<tag k="waterway" v="stream" />
	</node>
	<node lat="61.181952777221724" lon="9.050605561710508" id="-57134">
		<tag k="name" v="Nesbrønnøddin" />
		<tag k="natural" v="cape" />
		<tag k="ssr:stedsnr" v="539118" />
	</node>
	<node lat="61.151766670787744" lon="9.221888895021868" id="-57137">
		<tag k="name" v="Stintevik" />
		<tag k="natural" v="bay" />
		<tag k="ssr:stedsnr" v="539144" />
	</node>
	<node lat="61.08007777798602" lon="9.109216657422543" id="-57140">
		<tag k="name" v="Syndet" />
		<tag k="natural" v="strait" />
		<tag k="ssr:stedsnr" v="539514" />
	</node>
	<node lat="61.05978611077549" lon="9.140644444194038" id="-57141">
		<tag k="alt_name" v="Høvsføssen" />
		<tag k="name" v="Høvsfossen" />
		<tag k="natural" v="waterfall" />
		<tag k="ssr:stedsnr" v="539519" />
	</node>
	<node lat="61.19119166325641" lon="8.967124995405491" id="-57142">
		<tag k="name" v="Såkroken" />
		<tag k="natural" v="bay" />
		<tag k="ssr:stedsnr" v="539627" />
	</node>
	<node lat="61.21576944388328" lon="8.928908327850236" id="-57143">
		<tag k="name" v="Lortetjernet" />
		<tag k="natural" v="water" />
		<tag k="old_name" v="Lortetjednet" />
		<tag k="ssr:stedsnr" v="539911" />
	</node>
	<node lat="61.176436113136354" lon="9.192097222999063" id="-57149">
		<tag k="name" v="Gørrtjerne" />
		<tag k="natural" v="water" />
		<tag k="old_name" v="Gørrtjednet" />
		<tag k="ssr:stedsnr" v="540202" />
		<tag k="water" v="lake" />
	</node>
	<node lat="61.13322777671191" lon="9.178155561267435" id="-57151">
		<tag k="name" v="Syngalitjernet" />
		<tag k="natural" v="water" />
		<tag k="old_name" v="Syngalitjednet" />
		<tag k="ssr:stedsnr" v="540214" />
	</node>
	<node lat="61.29638055708089" lon="8.918797227261223" id="-57155">
		<tag k="name" v="Blåmann" />
		<tag k="place" v="islet" />
		<tag k="ssr:stedsnr" v="541865" />
	</node>
	<node lat="61.29731389030364" lon="8.920380550719777" id="-57156">
		<tag k="name" v="Skjærstein" />
		<tag k="place" v="islet" />
		<tag k="ssr:stedsnr" v="541870" />
	</node>
	<node lat="61.12861666407033" lon="9.128108331369113" id="-57163">
		<tag k="alt_name" v="Skrikketjednet" />
		<tag k="name" v="Skrikketjernet" />
		<tag k="natural" v="water" />
		<tag k="ssr:stedsnr" v="552124" />
	</node>
	<node lat="61.23148982607628" lon="8.985310659200756" id="-57165">
		<tag k="name" v="Javnin" />
		<tag k="natural" v="water" />
		<tag k="ssr:stedsnr" v="552510" />
		<tag k="water" v="lake" />
	</node>
	<node lat="61.231219441640484" lon="9.079169445258882" id="-57166">
		<tag k="name" v="Stilla" />
		<tag k="place" v="locality" />
		<tag k="ssr:stedsnr" v="552515" />
	</node>
	<node lat="61.36626944815868" lon="9.124552770321113" id="-57170">
		<tag k="name" v="Langenes" />
		<tag k="natural" v="cape" />
		<tag k="ssr:stedsnr" v="553032" />
	</node>
	<node lat="61.35291111130655" lon="9.07355832478596" id="-57171">
		<tag k="name" v="Marsteinøyne" />
		<tag k="place" v="islet" />
		<tag k="ssr:stedsnr" v="553036" />
	</node>
	<node lat="61.34875277706549" lon="9.117041662027209" id="-57172">
		<tag k="name" v="Svinetjernbekken" />
		<tag k="ssr:stedsnr" v="553039" />
		<tag k="waterway" v="stream" />
	</node>
	<node lat="61.336536107730645" lon="8.940963880464567" id="-57173">
		<tag k="name" v="Langeråk" />
		<tag k="ssr:stedsnr" v="553047" />
		<tag k="waterway" v="river" />
	</node>
	<node lat="61.13827794217285" lon="9.37476459520924" id="-57177">
		<tag k="alt_name" v="Saurstjernet, nedre;Skreppetjernet" />
		<tag k="fixme" v="multiple name tags, choose one and add the other to alt_name" />
		<tag k="loc_name" v="Øvre Skreppetjernet" />
		<tag k="name" v="Nedre Saurstjernet;Nedre Skreppetjernet" />
		<tag k="natural" v="water" />
		<tag k="old_name" v="Nedre Skreppetjednet;Skræppekjærnene" />
		<tag k="ssr:stedsnr" v="553928" />
	</node>
	<node lat="61.13740000188986" lon="9.311888879820097" id="-57178">
		<tag k="name" v="Kjølen" />
		<tag k="natural" v="water" />
		<tag k="ssr:stedsnr" v="553929" />
	</node>
	<node lat="61.20650833436201" lon="9.303180546959615" id="-57196">
		<tag k="name" v="Grønebakkfløten" />
		<tag k="natural" v="water" />
		<tag k="ssr:stedsnr" v="600457" />
		<tag k="water" v="lake" />
	</node>
	<node lat="61.20151388606966" lon="9.102650007412109" id="-57198">
		<tag k="name" v="Veslestølsbekken" />
		<tag k="ssr:stedsnr" v="600715" />
		<tag k="waterway" v="stream" />
	</node>
	<node lat="61.298380558946775" lon="8.914013897846376" id="-57202">
		<tag k="name" v="Piggstein" />
		<tag k="place" v="islet" />
		<tag k="ssr:stedsnr" v="602855" />
	</node>
	<node lat="61.34585833414569" lon="9.032113894991364" id="-57203">
		<tag k="name" v="Kanalen" />
		<tag k="natural" v="strait" />
		<tag k="ssr:stedsnr" v="604711" />
	</node>
	<node lat="61.08993611276781" lon="9.167444437204589" id="-57210">
		<tag k="name" v="Ørnehjellbekken" />
		<tag k="ssr:stedsnr" v="613212" />
		<tag k="waterway" v="stream" />
	</node>
	<node lat="61.13953610806833" lon="9.159052774209885" id="-57211">
		<tag k="alt_name" v="Jødnmanntjednet" />
		<tag k="name" v="Jødnmannstjernet" />
		<tag k="natural" v="water" />
		<tag k="ssr:stedsnr" v="613105" />
	</node>
	<node lat="61.16139166630443" lon="9.363527775500666" id="-57220">
		<tag k="name" v="Svabekken" />
		<tag k="ssr:stedsnr" v="613933" />
		<tag k="waterway" v="stream" />
	</node>
	<node lat="61.20502777771043" lon="9.429944451718189" id="-57222">
		<tag k="name" v="Nedfallsbekken" />
		<tag k="ssr:stedsnr" v="613974" />
		<tag k="waterway" v="stream" />
	</node>
	<node lat="61.26358888857128" lon="8.926711119600396" id="-57224">
		<tag k="name" v="Tutjerne" />
		<tag k="natural" v="water" />
		<tag k="ssr:stedsnr" v="614103" />
		<tag k="water" v="lake" />
	</node>
	<node lat="61.32708888502276" lon="8.835899994504771" id="-57225">
		<tag k="name" v="Vinstre" />
		<tag k="natural" v="water" />
		<tag k="ssr:stedsnr" v="614163" />
		<tag k="water" v="lake" />
	</node>
	<node lat="61.15834444879347" lon="9.050000007507528" id="-57236">
		<tag k="name" v="Fåkjelda" />
		<tag k="ssr:stedsnr" v="660234" />
		<tag k="waterway" v="stream" />
	</node>
	<node lat="61.09728888658348" lon="9.286772229178776" id="-57242">
		<tag k="name" v="Flasåne" />
		<tag k="ssr:stedsnr" v="661082" />
		<tag k="waterway" v="river" />
	</node>
	<node lat="61.114344448090186" lon="9.051399999317287" id="-57244">
		<tag k="name" v="Jonsrudbekken" />
		<tag k="ssr:stedsnr" v="661337" />
		<tag k="waterway" v="stream" />
	</node>
	<node lat="61.11453824384581" lon="9.076688005975186" id="-57246">
		<tag k="name" v="Moavike" />
		<tag k="natural" v="bay" />
		<tag k="ssr:stedsnr" v="661283" />
	</node>
	<node lat="61.247833337738776" lon="8.968202778982375" id="-57249">
		<tag k="name" v="Øvrefoss" />
		<tag k="natural" v="waterfall" />
		<tag k="ssr:stedsnr" v="661937" />
	</node>
	<node lat="61.323480556216786" lon="9.012011105619312" id="-57254">
		<tag k="name" v="Skindroodden" />
		<tag k="natural" v="cape" />
		<tag k="ssr:stedsnr" v="665707" />
	</node>
	<node lat="61.153972220176044" lon="9.126036117061552" id="-57261">
		<tag k="alt_name" v="Karustjednet" />
		<tag k="name" v="Kardustjernet" />
		<tag k="natural" v="water" />
		<tag k="ssr:stedsnr" v="674068" />
	</node>
	<node lat="61.250146201537554" lon="9.022306860661834" id="-57264">
		<tag k="alt_name" v="Hansetjednet" />
		<tag k="loc_name" v="Dalstølstjernet" />
		<tag k="name" v="Hansetjernet" />
		<tag k="natural" v="water" />
		<tag k="ssr:stedsnr" v="674451" />
	</node>
	<node lat="61.21628611525926" lon="9.325238889546863" id="-57269">
		<tag k="alt_name" v="Venelibekken, nordre;Venelibekken" />
		<tag k="name" v="Nørdre Venelibekken" />
		<tag k="ssr:stedsnr" v="675000" />
		<tag k="waterway" v="stream" />
	</node>
	<node lat="61.422327776307775" lon="8.86678889440207" id="-57273">
		<tag k="alt_name" v="Heimdalsvatnet, øvre" />
		<tag k="name" v="Øvre Heimdalsvatnet" />
		<tag k="natural" v="water" />
		<tag k="ssr:stedsnr" v="675010" />
		<tag k="water" v="lake" />
	</node>
	<node lat="61.385219444099626" lon="8.9414333398273" id="-57274">
		<tag k="name" v="Blåtjernet" />
		<tag k="natural" v="water" />
		<tag k="ssr:stedsnr" v="675027" />
	</node>
	<node lat="61.15663333332247" lon="9.067108338598198" id="-57298">
		<tag k="name" v="Brunøyne" />
		<tag k="place" v="island" />
		<tag k="ssr:stedsnr" v="722026" />
	</node>
	<node lat="61.128927774627144" lon="9.170383339611833" id="-57301">
		<tag k="name" v="Røvsvike" />
		<tag k="natural" v="bay" />
		<tag k="ssr:stedsnr" v="722219" />
	</node>
	<node lat="61.08915833191819" lon="9.078508325286618" id="-57305">
		<tag k="name" v="Juvbekken" />
		<tag k="ssr:stedsnr" v="722325" />
		<tag k="waterway" v="stream" />
	</node>
	<node lat="61.25513611055661" lon="8.844080552285886" id="-57307">
		<tag k="name" v="Heimstølsbekken" />
		<tag k="ssr:stedsnr" v="722803" />
		<tag k="waterway" v="stream" />
	</node>
	<node lat="61.322097218771056" lon="8.98821388400233" id="-57310">
		<tag k="name" v="Skjærgardadn" />
		<tag k="place" v="islet" />
		<tag k="ssr:stedsnr" v="724104" />
	</node>
	<node lat="61.32973332975276" lon="8.85628888552936" id="-57311">
		<tag k="name" v="Måseøddadn" />
		<tag k="natural" v="cape" />
		<tag k="ssr:stedsnr" v="724308" />
	</node>
	<node lat="61.33440833008385" lon="8.862286112314054" id="-57312">
		<tag k="name" v="Søre Senda" />
		<tag k="ssr:stedsnr" v="724320" />
		<tag k="waterway" v="stream" />
	</node>
	<node lat="61.31692777551639" lon="9.011411113780902" id="-57315">
		<tag k="name" v="Lijordøyne" />
		<tag k="place" v="island" />
		<tag k="ssr:stedsnr" v="725604" />
	</node>
	<node lat="61.1920333339704" lon="9.085861111657877" id="-57317">
		<tag k="alt_name" v="Vindåstjednet" />
		<tag k="name" v="Vindåstjernet" />
		<tag k="natural" v="water" />
		<tag k="ssr:stedsnr" v="735014" />
	</node>
	<node lat="61.26782794756044" lon="8.75743010871997" id="-57322">
		<tag k="name" v="Skorlitjerne" />
		<tag k="natural" v="water" />
		<tag k="ssr:stedsnr" v="735211" />
		<tag k="water" v="lake" />
	</node>
	<node lat="61.21663055754482" lon="9.010308335560905" id="-57325">
		<tag k="alt_name" v="Svartetjednet" />
		<tag k="name" v="Svartetjernet" />
		<tag k="natural" v="water" />
		<tag k="ssr:stedsnr" v="735430" />
	</node>
	<node lat="61.203538890993556" lon="9.399741659869136" id="-57328">
		<tag k="name" v="Finnebekken" />
		<tag k="ssr:stedsnr" v="735976" />
		<tag k="waterway" v="stream" />
	</node>
	<node lat="61.26662499601797" lon="9.13556944635166" id="-57331">
		<tag k="name" v="Svarthamarbekken" />
		<tag k="ssr:stedsnr" v="736103" />
		<tag k="waterway" v="stream" />
	</node>
	<node lat="61.25278888863009" lon="9.126244452365663" id="-57332">
		<tag k="name" v="Tjernet" />
		<tag k="natural" v="water" />
		<tag k="old_name" v="Tjednet" />
		<tag k="ssr:stedsnr" v="736113" />
	</node>
	<node lat="61.25060833595594" lon="9.160044445985644" id="-57333">
		<tag k="alt_name" v="Rundtjednet" />
		<tag k="name" v="Rundtjernet" />
		<tag k="natural" v="water" />
		<tag k="ssr:stedsnr" v="736115" />
	</node>
	<node lat="61.18179999666682" lon="9.077519450137105" id="-57337">
		<tag k="name" v="Løkenbekken" />
		<tag k="ssr:stedsnr" v="903130" />
		<tag k="waterway" v="stream" />
	</node>
	<node lat="61.17958889033012" lon="9.045852776499542" id="-57338">
		<tag k="name" v="Vangstjernbekken" />
		<tag k="old_name" v="Vangstjednbekken" />
		<tag k="ssr:stedsnr" v="903132" />
		<tag k="waterway" v="stream" />
	</node>
	<node lat="61.08810278078555" lon="9.287513888101227" id="-57352">
		<tag k="loc_name" v="Skjervike" />
		<tag k="name" v="Skjærvike" />
		<tag k="natural" v="bay" />
		<tag k="ssr:stedsnr" v="904090" />
	</node>
	<node lat="61.138116665194964" lon="9.18137778304329" id="-57355">
		<tag k="name" v="Tjuvekjeldaradn" />
		<tag k="ssr:stedsnr" v="904225" />
		<tag k="waterway" v="stream" />
	</node>
	<node lat="61.13436111486865" lon="9.183486108438016" id="-57356">
		<tag k="name" v="Nedre Åtjernet" />
		<tag k="natural" v="water" />
		<tag k="old_name" v="Nedre Åtjednet" />
		<tag k="ssr:stedsnr" v="904229" />
	</node>
	<node lat="61.184755557564614" lon="9.191211119511465" id="-57357">
		<tag k="name" v="Yddebekken" />
		<tag k="ssr:stedsnr" v="904180" />
		<tag k="waterway" v="stream" />
	</node>
	<node lat="61.15619721999708" lon="9.198769437153171" id="-57358">
		<tag k="name" v="Rennsennbekken" />
		<tag k="ssr:stedsnr" v="904195" />
		<tag k="waterway" v="stream" />
	</node>
	<node lat="61.15438055982807" lon="9.199299993108111" id="-57359">
		<tag k="name" v="Huldrabekken" />
		<tag k="ssr:stedsnr" v="904196" />
		<tag k="waterway" v="stream" />
	</node>
	<node lat="61.20333055260295" lon="9.299258331226595" id="-57363">
		<tag k="name" v="Store hølen" />
		<tag k="natural" v="water" />
		<tag k="ssr:stedsnr" v="904484" />
		<tag k="water" v="lake" />
	</node>
	<node lat="61.18834721780132" lon="9.095958335650772" id="-57365">
		<tag k="alt_name" v="Velge" />
		<tag k="name" v="Uelge" />
		<tag k="ssr:stedsnr" v="904642" />
		<tag k="waterway" v="stream" />
	</node>
	<node lat="61.33008611371692" lon="8.867947228150797" id="-57370">
		<tag k="name" v="Øyre" />
		<tag k="place" v="islet" />
		<tag k="ssr:stedsnr" v="906177" />
	</node>
	<node lat="61.30253055921815" lon="8.884002785182165" id="-57372">
		<tag k="name" v="Holstein" />
		<tag k="place" v="islet" />
		<tag k="ssr:stedsnr" v="906844" />
	</node>
	<node lat="61.31399166719701" lon="8.991763891377937" id="-57377">
		<tag k="name" v="Kvite Berget" />
		<tag k="place" v="islet" />
		<tag k="ssr:stedsnr" v="908683" />
	</node>
	<node lat="61.34235555369345" lon="9.033363888520823" id="-57378">
		<tag k="name" v="Vesle Straumen" />
		<tag k="natural" v="strait" />
		<tag k="ssr:stedsnr" v="908711" />
	</node>
	<node lat="61.191088886230936" lon="9.316719444353609" id="-57382">
		<tag k="name" v="Steintjernet" />
		<tag k="natural" v="water" />
		<tag k="old_name" v="Steintjednet" />
		<tag k="ssr:stedsnr" v="782449" />
	</node>
	<node lat="61.19217777471709" lon="9.30170556286003" id="-57383">
		<tag k="name" v="Tuprantjernet" />
		<tag k="natural" v="water" />
		<tag k="old_name" v="Tuprantjednet" />
		<tag k="ssr:stedsnr" v="782453" />
	</node>
	<node lat="61.14207777688595" lon="9.19001666111061" id="-57384">
		<tag k="name" v="Hestekampvike" />
		<tag k="natural" v="bay" />
		<tag k="ssr:stedsnr" v="782199" />
	</node>
	<node lat="61.32619167106138" lon="8.879955561378825" id="-57394">
		<tag k="name" v="Smørbukkøyne" />
		<tag k="place" v="island" />
		<tag k="ssr:stedsnr" v="785157" />
	</node>
	<node lat="61.142836110245625" lon="9.055099996190698" id="-57396">
		<tag k="name" v="Heggefjorden" />
		<tag k="natural" v="water" />
		<tag k="ssr:stedsnr" v="795115" />
		<tag k="water" v="lake" />
	</node>
	<node lat="61.20314444186982" lon="9.054783334960531" id="-57397">
		<tag k="name" v="Ringåne" />
		<tag k="ssr:stedsnr" v="795509" />
		<tag k="waterway" v="stream" />
	</node>
	<node lat="61.231504655043736" lon="8.869553752751177" id="-57398">
		<tag k="alt_name" v="Beitoøddin" />
		<tag k="name" v="Beitoodden" />
		<tag k="natural" v="cape" />
		<tag k="ssr:stedsnr" v="795517" />
	</node>
	<node lat="61.13387830626816" lon="9.185431100072863" id="-57406">
		<tag k="loc_name" v="Åtjerne" />
		<tag k="name" v="Åtjernet" />
		<tag k="natural" v="water" />
		<tag k="ssr:stedsnr" v="796108" />
		<tag k="water" v="lake" />
	</node>
	<node lat="61.26771110963876" lon="8.825561113782847" id="-57409">
		<tag k="alt_name" v="Kroktjednet" />
		<tag k="name" v="Kroktjernet" />
		<tag k="natural" v="water" />
		<tag k="ssr:stedsnr" v="796204" />
	</node>
	<node lat="61.096691666435056" lon="9.175458333151049" id="-57410">
		<tag k="name" v="Søre Ringåne" />
		<tag k="ssr:stedsnr" v="796211" />
		<tag k="waterway" v="stream" />
	</node>
	<node lat="61.24589722218691" lon="9.318666667123116" id="-57412">
		<tag k="name" v="Kvitfetbekken" />
		<tag k="ssr:stedsnr" v="796772" />
		<tag k="waterway" v="stream" />
	</node>
	<node lat="61.266622219018714" lon="9.078516665575743" id="-57415">
		<tag k="name" v="Grunntjerne" />
		<tag k="natural" v="water" />
		<tag k="ssr:stedsnr" v="797103" />
		<tag k="water" v="lake" />
	</node>
	<node lat="61.25552222121426" lon="9.03237500742023" id="-57416">
		<tag k="alt_name" v="Steinringtjednet" />
		<tag k="name" v="Steinringtjernet" />
		<tag k="natural" v="water" />
		<tag k="ssr:stedsnr" v="797110" />
	</node>
	<node lat="61.253552781425284" lon="9.152624995813602" id="-57417">
		<tag k="alt_name" v="Lassetjednet" />
		<tag k="name" v="Lassetjernet" />
		<tag k="natural" v="water" />
		<tag k="ssr:stedsnr" v="797116" />
	</node>
	<node lat="61.175554819371726" lon="8.976580623125377" id="-57422">
		<tag k="name" v="Sagahaugfjorden" />
		<tag k="natural" v="water" />
		<tag k="ssr:stedsnr" v="917024" />
		<tag k="water" v="lake" />
	</node>
	<node lat="61.17279166971023" lon="9.211330548754162" id="-57423">
		<tag k="name" v="Vangsjøåne" />
		<tag k="ssr:stedsnr" v="917032" />
		<tag k="waterway" v="stream" />
	</node>
	<node lat="61.367044441480125" lon="8.939002775268131" id="-57436">
		<tag k="alt_name" v="Urektjednet" />
		<tag k="name" v="Urektjernet" />
		<tag k="natural" v="water" />
		<tag k="ssr:stedsnr" v="918029" />
	</node>
	<node lat="61.36308332995403" lon="9.022213894096394" id="-57438">
		<tag k="name" v="Straumbekken" />
		<tag k="ssr:stedsnr" v="918034" />
		<tag k="waterway" v="stream" />
	</node>
	<node lat="61.23254722356633" lon="9.16486944474947" id="-57439">
		<tag k="name" v="Kjølaåne" />
		<tag k="ssr:stedsnr" v="917428" />
		<tag k="waterway" v="river" />
	</node>
	<node lat="61.23113611463174" lon="9.330005547556103" id="-57447">
		<tag k="name" v="Fetabekken" />
		<tag k="ssr:stedsnr" v="917993" />
		<tag k="waterway" v="stream" />
	</node>
	<node lat="61.229677773873966" lon="9.54176667286303" id="-57448">
		<tag k="alt_name" v="Skytterbuelva" />
		<tag k="name" v="Fjelldokka" />
		<tag k="ssr:stedsnr" v="917994" />
		<tag k="waterway" v="river" />
	</node>
	<node lat="61.344944441822335" lon="9.168133323985474" id="-57449">
		<tag k="name" v="Buvatnet" />
		<tag k="natural" v="water" />
		<tag k="ssr:stedsnr" v="918053" />
		<tag k="water" v="lake" />
	</node>
	<node lat="61.33072499799508" lon="8.860675000881734" id="-57451">
		<tag k="name" v="Røynisodden" />
		<tag k="natural" v="cape" />
		<tag k="ssr:stedsnr" v="918064" />
	</node>
	<node lat="61.299255554501045" lon="9.251524999465813" id="-57457">
		<tag k="name" v="Hølen" />
		<tag k="natural" v="water" />
		<tag k="ssr:stedsnr" v="919468" />
	</node>
	<node lat="61.30330277832766" lon="9.243675006560498" id="-57458">
		<tag k="name" v="Fløten" />
		<tag k="natural" v="water" />
		<tag k="ssr:stedsnr" v="919471" />
	</node>
	<node lat="61.14740000334105" lon="9.035863897380287" id="-57471">
		<tag k="name" v="Sælsvike" />
		<tag k="natural" v="bay" />
		<tag k="ssr:stedsnr" v="843176" />
	</node>
	<node lat="61.12695832914691" lon="9.174583339110832" id="-57475">
		<tag k="name" v="Røvsøddin" />
		<tag k="natural" v="cape" />
		<tag k="ssr:stedsnr" v="843201" />
	</node>
	<node lat="61.12802777348782" lon="9.189197224007028" id="-57476">
		<tag k="name" v="Grytebekkvike" />
		<tag k="natural" v="bay" />
		<tag k="ssr:stedsnr" v="843203" />
	</node>
	<node lat="61.13107777431426" lon="9.18836388982397" id="-57477">
		<tag k="name" v="Grytebekken" />
		<tag k="ssr:stedsnr" v="843206" />
		<tag k="waterway" v="stream" />
	</node>
	<node lat="61.238344443671934" lon="9.00942499958036" id="-57479">
		<tag k="name" v="Huldrebekken" />
		<tag k="ssr:stedsnr" v="843605" />
		<tag k="waterway" v="stream" />
	</node>
	<node lat="61.20627221912087" lon="9.06162776927304" id="-57481">
		<tag k="name" v="Øyndin" />
		<tag k="place" v="island" />
		<tag k="ssr:stedsnr" v="843673" />
	</node>
	<node lat="61.24309999997291" lon="8.952152780226694" id="-57482">
		<tag k="name" v="Slettisbekken" />
		<tag k="ssr:stedsnr" v="843924" />
		<tag k="waterway" v="stream" />
	</node>
	<node lat="61.298041665788126" lon="8.938894442600665" id="-57484">
		<tag k="name" v="Kista" />
		<tag k="place" v="locality" />
		<tag k="ssr:stedsnr" v="845878" />
	</node>
	<node lat="61.32442222494901" lon="8.993238887416815" id="-57485">
		<tag k="name" v="Tubba" />
		<tag k="place" v="islet" />
		<tag k="ssr:stedsnr" v="846110" />
	</node>
	<node lat="61.331524998364664" lon="8.836008330552326" id="-57486">
		<tag k="name" v="Kultadn" />
		<tag k="place" v="island" />
		<tag k="ssr:stedsnr" v="846331" />
	</node>
	<node lat="61.307947224222936" lon="8.877205546719464" id="-57487">
		<tag k="alt_name" v="Djupevikøddin" />
		<tag k="name" v="Djupevikodden" />
		<tag k="natural" v="cape" />
		<tag k="old_name" v="Djuprvikodden" />
		<tag k="ssr:stedsnr" v="846823" />
	</node>
	<node lat="61.189286106653995" lon="9.19431111369059" id="-57490">
		<tag k="name" v="Yddin" />
		<tag k="natural" v="water" />
		<tag k="ssr:stedsnr" v="856009" />
		<tag k="water" v="lake" />
	</node>
	<node lat="61.17468610959462" lon="9.033405558640224" id="-57505">
		<tag k="alt_name" v="Svartetjednet" />
		<tag k="name" v="Svartetjernet" />
		<tag k="natural" v="water" />
		<tag k="ssr:stedsnr" v="857033" />
	</node>
	<node lat="61.34169570573494" lon="9.194017480345908" id="-57506">
		<tag k="name" v="Innbuvatnet" />
		<tag k="natural" v="water" />
		<tag k="ssr:stedsnr" v="857047" />
	</node>
	<node lat="61.299080551857095" lon="8.896686111683712" id="-57512">
		<tag k="name" v="Gravolsodden" />
		<tag k="natural" v="cape" />
		<tag k="ssr:stedsnr" v="858072" />
	</node>
	<node lat="61.26385277633925" lon="8.951880550054922" id="-57514">
		<tag k="loc_name" v="Fløtane" />
		<tag k="name" v="Fløtadn" />
		<tag k="natural" v="water" />
		<tag k="old_name" v="Fløtåni" />
		<tag k="ssr:stedsnr" v="858093" />
		<tag k="water" v="lake" />
	</node>
	<node lat="61.24054444598764" lon="9.429566670679577" id="-57525">
		<tag k="name" v="Andrissonvike" />
		<tag k="natural" v="bay" />
		<tag k="ssr:stedsnr" v="903373" />
	</node>
	<node lat="61.19111389299058" lon="8.97692221786084" id="-57531">
		<tag k="name" v="Svartsynd" />
		<tag k="natural" v="strait" />
		<tag k="ssr:stedsnr" v="903618" />
	</node>
	<node lat="61.167711112584556" lon="8.978474991551296" id="-57534">
		<tag k="name" v="Dalsfossen" />
		<tag k="natural" v="waterfall" />
		<tag k="ssr:stedsnr" v="903971" />
	</node>
	<node lat="61.16002499557499" lon="9.386138887613921" id="-57540">
		<tag k="name" v="Fetabekken" />
		<tag k="ssr:stedsnr" v="904450" />
		<tag k="waterway" v="stream" />
	</node>
	<node lat="61.31960555789193" lon="8.96328056367699" id="-57541">
		<tag k="name" v="Lortevike" />
		<tag k="natural" v="bay" />
		<tag k="ssr:stedsnr" v="906105" />
	</node>
	<node lat="61.32729722230215" lon="8.878924998282834" id="-57543">
		<tag k="name" v="Store Hatten" />
		<tag k="place" v="islet" />
		<tag k="ssr:stedsnr" v="906160" />
	</node>
	<node lat="61.18312934608916" lon="8.982094474669687" id="-57551">
		<tag k="name" v="Mørstadfjorden" />
		<tag k="natural" v="water" />
		<tag k="ssr:stedsnr" v="917008" />
		<tag k="water" v="lake" />
	</node>
	<node lat="61.12356817066722" lon="9.180529763912924" id="-57556">
		<tag k="name" v="Øyangen" />
		<tag k="natural" v="water" />
		<tag k="ssr:stedsnr" v="917118" />
		<tag k="water" v="lake" />
	</node>
	<node lat="61.2207749989705" lon="8.888788892505103" id="-57558">
		<tag k="alt_name" v="Hauganes" />
		<tag k="name" v="Hauganeset" />
		<tag k="natural" v="cape" />
		<tag k="ssr:stedsnr" v="917407" />
	</node>
	<node lat="61.10208333585452" lon="9.321780557740095" id="-57560">
		<tag k="name" v="Veslevatnet" />
		<tag k="natural" v="water" />
		<tag k="ssr:stedsnr" v="917906" />
	</node>
	<node lat="61.10171388613613" lon="9.333627784256631" id="-57561">
		<tag k="name" v="Reina" />
		<tag k="ssr:stedsnr" v="917908" />
		<tag k="waterway" v="stream" />
	</node>
	<node lat="61.13655555297828" lon="9.214619443289418" id="-57581">
		<tag k="name" v="Svartedyssbekken" />
		<tag k="ssr:stedsnr" v="964243" />
		<tag k="waterway" v="stream" />
	</node>
	<node lat="61.31322777661813" lon="8.988066669301235" id="-57588">
		<tag k="name" v="Skrinet" />
		<tag k="place" v="islet" />
		<tag k="ssr:stedsnr" v="968688" />
	</node>
	<node lat="61.18800833243853" lon="9.09191388258596" id="-57621">
		<tag k="alt_name" v="Heimvegtjednet" />
		<tag k="name" v="Heimvegtjernet" />
		<tag k="natural" v="water" />
		<tag k="ssr:stedsnr" v="7026" />
	</node>
	<node lat="61.388999998726085" lon="9.04419444422121" id="-57622">
		<tag k="name" v="Døradalsvatne" />
		<tag k="natural" v="water" />
		<tag k="ssr:stedsnr" v="7030" />
		<tag k="water" v="lake" />
	</node>
	<node lat="61.370458332514275" lon="9.042855547719872" id="-57623">
		<tag k="name" v="Skredobekken" />
		<tag k="ssr:stedsnr" v="7035" />
		<tag k="waterway" v="stream" />
	</node>
	<node lat="61.35906944855459" lon="9.046888895369587" id="-57625">
		<tag k="loc_name" v="Gjøtebekken" />
		<tag k="name" v="Ljøtebekken" />
		<tag k="ssr:stedsnr" v="7044" />
		<tag k="waterway" v="stream" />
	</node>
	<node lat="61.19095555847528" lon="9.321419447270182" id="-57636">
		<tag k="alt_name" v="Kroktjednet" />
		<tag k="name" v="Kroktjernet" />
		<tag k="natural" v="water" />
		<tag k="ssr:stedsnr" v="7977" />
	</node>
	<node lat="61.144107505334816" lon="9.084245284154854" id="-57658">
		<tag k="alt_name" v="Raubrøtøyne" />
		<tag k="name" v="Raudbrotøyne" />
		<tag k="place" v="island" />
		<tag k="ssr:stedsnr" v="54049" />
	</node>
	<node lat="61.139808333363774" lon="9.197555554350297" id="-57664">
		<tag k="loc_name" v="Røyrsøynin" />
		<tag k="name" v="Røyrsøynidn" />
		<tag k="place" v="island" />
		<tag k="ssr:stedsnr" v="54223" />
	</node>
	<node lat="61.065561112736084" lon="9.14142777821223" id="-57673">
		<tag k="name" v="Kælken" />
		<tag k="natural" v="bay" />
		<tag k="ssr:stedsnr" v="54558" />
	</node>
	<node lat="61.19300000250157" lon="8.95979444120057" id="-57675">
		<tag k="name" v="Kjøavike" />
		<tag k="natural" v="bay" />
		<tag k="ssr:stedsnr" v="54618" />
	</node>
	<node lat="61.261730551267775" lon="8.839480551917639" id="-57681">
		<tag k="name" v="Nørdre Pyttingsbekken" />
		<tag k="ssr:stedsnr" v="54788" />
		<tag k="waterway" v="stream" />
	</node>
	<node lat="61.23888888540032" lon="8.845652778952932" id="-57685">
		<tag k="name" v="Tangebekken" />
		<tag k="ssr:stedsnr" v="54839" />
		<tag k="waterway" v="stream" />
	</node>
	<node lat="61.24960277581834" lon="8.978219437848974" id="-57686">
		<tag k="name" v="Ersgardsbekken" />
		<tag k="ssr:stedsnr" v="54935" />
		<tag k="waterway" v="stream" />
	</node>
	<node lat="61.22711389245626" lon="8.883680561258307" id="-57688">
		<tag k="name" v="Langøddin" />
		<tag k="natural" v="cape" />
		<tag k="ssr:stedsnr" v="54946" />
	</node>
	<node lat="61.32426388862048" lon="8.88226111955072" id="-57690">
		<tag k="name" v="Netøyne" />
		<tag k="place" v="island" />
		<tag k="ssr:stedsnr" v="56158" />
	</node>
	<node lat="61.29845833610033" lon="8.909813888450707" id="-57691">
		<tag k="name" v="Hølmestein" />
		<tag k="place" v="islet" />
		<tag k="ssr:stedsnr" v="56833" />
	</node>
	<node lat="61.297936113635366" lon="8.907425006201908" id="-57692">
		<tag k="name" v="Fiskesva" />
		<tag k="place" v="islet" />
		<tag k="ssr:stedsnr" v="56842" />
	</node>
	<node lat="61.29887222223445" lon="8.925322222160746" id="-57693">
		<tag k="name" v="Fiskesva" />
		<tag k="place" v="islet" />
		<tag k="ssr:stedsnr" v="56845" />
	</node>
	<node lat="61.29794999594656" lon="8.953694442492733" id="-57695">
		<tag k="name" v="Nautestein" />
		<tag k="place" v="islet" />
		<tag k="ssr:stedsnr" v="56851" />
	</node>
	<node lat="61.32029444422541" lon="9.014961116460803" id="-57697">
		<tag k="name" v="Leiteodden" />
		<tag k="natural" v="cape" />
		<tag k="ssr:stedsnr" v="58683" />
	</node>
	<node lat="61.316747218814136" lon="9.013930562103733" id="-57698">
		<tag k="name" v="Mørstadvike" />
		<tag k="natural" v="bay" />
		<tag k="ssr:stedsnr" v="58685" />
	</node>
	<node lat="61.23092221940038" lon="9.010280548575675" id="-57703">
		<tag k="alt_name" v="Huldretjednet" />
		<tag k="name" v="Huldretjernet" />
		<tag k="natural" v="water" />
		<tag k="ssr:stedsnr" v="67476" />
	</node>
	<node lat="61.36225833431614" lon="9.015294451857098" id="-57705">
		<tag k="name" v="Mytingen" />
		<tag k="ssr:stedsnr" v="68028" />
		<tag k="waterway" v="stream" />
	</node>
	<node lat="61.35800000097346" lon="9.107519440824735" id="-57707">
		<tag k="name" v="Straumodden" />
		<tag k="natural" v="cape" />
		<tag k="ssr:stedsnr" v="68036" />
	</node>
	<node lat="61.27399444088493" lon="8.957491661660399" id="-57709">
		<tag k="alt_name" v="Øddin" />
		<tag k="name" v="Odden" />
		<tag k="natural" v="cape" />
		<tag k="ssr:stedsnr" v="68088" />
	</node>
	<node lat="61.281663887691074" lon="8.783041669495953" id="-57716">
		<tag k="alt_name" v="Svartebotnbekken" />
		<tag k="name" v="Svartebottbekken" />
		<tag k="ssr:stedsnr" v="68191" />
		<tag k="waterway" v="stream" />
	</node>
	<node lat="61.25750555437399" lon="9.021580559923978" id="-57719">
		<tag k="alt_name" v="Dalstølstjednet" />
		<tag k="loc_name" v="Høgdatjernet" />
		<tag k="name" v="Dalstølstjernet" />
		<tag k="natural" v="water" />
		<tag k="ssr:stedsnr" v="69105" />
	</node>
	<node lat="61.179288887642045" lon="9.035047222905822" id="-57731">
		<tag k="name" v="Svartetjernbekken" />
		<tag k="old_name" v="Svartetjednbekken" />
		<tag k="ssr:stedsnr" v="114124" />
		<tag k="waterway" v="stream" />
	</node>
	<node lat="61.1764166699678" lon="9.055991664868046" id="-57735">
		<tag k="name" v="Klavavike" />
		<tag k="natural" v="bay" />
		<tag k="ssr:stedsnr" v="114113" />
	</node>
	<node lat="61.13559166722803" lon="9.087872229283736" id="-57737">
		<tag k="name" v="Stampefossen" />
		<tag k="natural" v="waterfall" />
		<tag k="ssr:stedsnr" v="114477" />
	</node>
	<node lat="61.183563889333385" lon="9.119588891394853" id="-57741">
		<tag k="name" v="Svinetjernet" />
		<tag k="natural" v="water" />
		<tag k="old_name" v="Svinetjednet" />
		<tag k="ssr:stedsnr" v="115028" />
	</node>
	<node lat="61.184755552548346" lon="9.136108336722915" id="-57742">
		<tag k="name" v="Storøyne" />
		<tag k="place" v="island" />
		<tag k="ssr:stedsnr" v="115029" />
	</node>
	<node lat="61.17699444403062" lon="9.145774992971845" id="-57743">
		<tag k="name" v="Lomtjernet" />
		<tag k="natural" v="water" />
		<tag k="old_name" v="Lomtjednet" />
		<tag k="ssr:stedsnr" v="115032" />
	</node>
	<node lat="61.17981944721246" lon="9.142608324555662" id="-57744">
		<tag k="name" v="Lomtjernbekken" />
		<tag k="old_name" v="Lomtjednbekken" />
		<tag k="ssr:stedsnr" v="115035" />
		<tag k="waterway" v="stream" />
	</node>
	<node lat="61.222497224210656" lon="8.966416664102505" id="-57748">
		<tag k="name" v="Skutebekken" />
		<tag k="ssr:stedsnr" v="114950" />
		<tag k="waterway" v="stream" />
	</node>
	<node lat="61.14104722181501" lon="9.289705553710174" id="-57752">
		<tag k="name" v="Kjølatjernet" />
		<tag k="natural" v="water" />
		<tag k="old_name" v="Kjølatjednet" />
		<tag k="ssr:stedsnr" v="115459" />
	</node>
	<node lat="61.12434166547971" lon="9.202666673236173" id="-57754">
		<tag k="name" v="Slettatjernet" />
		<tag k="natural" v="water" />
		<tag k="old_name" v="Slettatjednet" />
		<tag k="ssr:stedsnr" v="115227" />
	</node>
	<node lat="61.27374999628719" lon="8.936091666747746" id="-57758">
		<tag k="name" v="Sundøddin" />
		<tag k="natural" v="cape" />
		<tag k="ssr:stedsnr" v="115917" />
	</node>
	<node lat="61.31278889010829" lon="8.994191662604281" id="-57765">
		<tag k="name" v="Piggen" />
		<tag k="place" v="islet" />
		<tag k="ssr:stedsnr" v="119667" />
	</node>
	<node lat="61.28012499648357" lon="9.245955547173665" id="-57767">
		<tag k="name" v="Skriubekken" />
		<tag k="ssr:stedsnr" v="130251" />
		<tag k="waterway" v="stream" />
	</node>
	<node lat="61.223002781375946" lon="9.01037221875561" id="-57776">
		<tag k="alt_name" v="Åtjednet" />
		<tag k="name" v="Åtjernet" />
		<tag k="natural" v="water" />
		<tag k="ssr:stedsnr" v="128426" />
	</node>
	<node lat="61.20762222298218" lon="9.042480562916989" id="-57779">
		<tag k="alt_name" v="Javneåne" />
		<tag k="name" v="Javnåne" />
		<tag k="ssr:stedsnr" v="128471" />
		<tag k="waterway" v="river" />
	</node>
	<node lat="61.22222222647561" lon="9.116513888542727" id="-57781">
		<tag k="alt_name" v="Rautjednet" />
		<tag k="name" v="Raudtjernet" />
		<tag k="natural" v="water" />
		<tag k="ssr:stedsnr" v="128475" />
	</node>
	<node lat="61.401533337486434" lon="8.909136105639872" id="-57785">
		<tag k="name" v="Søre Flybekken" />
		<tag k="ssr:stedsnr" v="129024" />
		<tag k="waterway" v="stream" />
	</node>
	<node lat="61.262483329329605" lon="9.132250004713335" id="-57786">
		<tag k="name" v="Høgdabekken" />
		<tag k="ssr:stedsnr" v="129119" />
		<tag k="waterway" v="stream" />
	</node>
	<node lat="61.2566111142994" lon="8.843499999239844" id="-57788">
		<tag k="alt_name" v="Pyttingtjednet" />
		<tag k="name" v="Pyttingtjernet" />
		<tag k="natural" v="water" />
		<tag k="ssr:stedsnr" v="129123" />
	</node>
	<node lat="61.34612778145531" lon="9.046391658827588" id="-57789">
		<tag k="name" v="Øvre Bjørnhølen" />
		<tag k="natural" v="water" />
		<tag k="ssr:stedsnr" v="129069" />
	</node>
	<node lat="61.34086388958677" lon="9.122713887623343" id="-57790">
		<tag k="name" v="Svinetjernet" />
		<tag k="natural" v="water" />
		<tag k="ssr:stedsnr" v="129074" />
	</node>
	<node lat="61.30475000135868" lon="9.2617555462417" id="-57794">
		<tag k="name" v="Torishølen" />
		<tag k="natural" v="water" />
		<tag k="ssr:stedsnr" v="130439" />
	</node>
	<node lat="61.142786106990435" lon="9.309897220978039" id="-57808">
		<tag k="name" v="Kjølaåne" />
		<tag k="ssr:stedsnr" v="175477" />
		<tag k="waterway" v="stream" />
	</node>
	<node lat="61.197805555182605" lon="8.92618333274743" id="-57820">
		<tag k="name" v="Hølavike" />
		<tag k="natural" v="bay" />
		<tag k="ssr:stedsnr" v="175603" />
	</node>
	<node lat="61.26490833723593" lon="8.811347223602878" id="-57822">
		<tag k="name" v="Tjernhaugtjernet" />
		<tag k="natural" v="water" />
		<tag k="old_name" v="Tjednhaugtjednet" />
		<tag k="ssr:stedsnr" v="175779" />
	</node>
	<node lat="61.23736666275471" lon="8.885350005579998" id="-57825">
		<tag k="name" v="Hansaneåne" />
		<tag k="ssr:stedsnr" v="175891" />
		<tag k="waterway" v="stream" />
	</node>
	<node lat="61.18641110732671" lon="9.120677780902572" id="-57829">
		<tag k="name" v="Busetjernet" />
		<tag k="old_name" v="Busetjednet" />
		<tag k="place" v="locality" />
		<tag k="ssr:stedsnr" v="176023" />
	</node>
	<node lat="61.18359444279757" lon="8.972861112366047" id="-57831">
		<tag k="alt_name" v="Skøltevillen" />
		<tag k="name" v="Skoltevillen" />
		<tag k="natural" v="bay" />
		<tag k="ssr:stedsnr" v="175983" />
	</node>
	<node lat="61.0916638886731" lon="9.092241672650253" id="-57834">
		<tag k="name" v="Storvikøddin" />
		<tag k="natural" v="cape" />
		<tag k="ssr:stedsnr" v="176286" />
	</node>
	<node lat="61.22446944123223" lon="9.348266657956318" id="-57837">
		<tag k="name" v="Fiskebekken" />
		<tag k="ssr:stedsnr" v="176394" />
		<tag k="waterway" v="stream" />
	</node>
	<node lat="61.32924166408613" lon="8.857375003858582" id="-57839">
		<tag k="name" v="Måseberget" />
		<tag k="place" v="islet" />
		<tag k="ssr:stedsnr" v="178300" />
	</node>
	<node lat="61.20049722527008" lon="9.16945833567583" id="-57842">
		<tag k="name" v="Rjupebekken" />
		<tag k="ssr:stedsnr" v="176743" />
		<tag k="waterway" v="stream" />
	</node>
	<node lat="61.33599166479491" lon="8.833594443806517" id="-57844">
		<tag k="name" v="Lykkjebekken" />
		<tag k="ssr:stedsnr" v="178323" />
		<tag k="waterway" v="stream" />
	</node>
	<node lat="61.31853055939628" lon="8.963786103652705" id="-57845">
		<tag k="name" v="Lortodden" />
		<tag k="natural" v="cape" />
		<tag k="ssr:stedsnr" v="178127" />
	</node>
	<node lat="61.2698111075594" lon="8.954569450760456" id="-57856">
		<tag k="name" v="Olevatnet" />
		<tag k="natural" v="water" />
		<tag k="ssr:stedsnr" v="189081" />
		<tag k="water" v="lake" />
	</node>
	<node lat="61.12331722592957" lon="9.391054419665178" id="-57869">
		<tag k="name" v="Tansbergfjorden" />
		<tag k="natural" v="water" />
		<tag k="ssr:stedsnr" v="189927" />
		<tag k="water" v="lake" />
	</node>
	<node lat="61.09225711741941" lon="9.356086319112624" id="-57873">
		<tag k="alt_name" v="Høvssjøen" />
		<tag k="name" v="Hovsjøen" />
		<tag k="natural" v="water" />
		<tag k="ssr:stedsnr" v="189892" />
		<tag k="water" v="lake" />
	</node>
	<node lat="61.26722500446905" lon="9.146852771050554" id="-57878">
		<tag k="name" v="Skagdøla" />
		<tag k="ssr:stedsnr" v="190108" />
		<tag k="waterway" v="stream" />
	</node>
	<node lat="61.36132500177719" lon="8.912058324769875" id="-57880">
		<tag k="name" v="Langeråkvatnet" />
		<tag k="natural" v="water" />
		<tag k="ssr:stedsnr" v="190042" />
		<tag k="water" v="lake" />
	</node>
	<node lat="61.30954444260508" lon="8.942791667787969" id="-57882">
		<tag k="name" v="Vesle Barnesvike" />
		<tag k="natural" v="bay" />
		<tag k="ssr:stedsnr" v="190090" />
	</node>
	<node lat="61.32502777589673" lon="9.256783337079163" id="-57884">
		<tag k="name" v="Toretjerni" />
		<tag k="natural" v="water" />
		<tag k="ssr:stedsnr" v="190498" />
		<tag k="water" v="lake" />
	</node>
	<node lat="61.238143438450116" lon="9.427443058010835" id="-57898">
		<tag k="name" v="Andrissonøddin" />
		<tag k="natural" v="cape" />
		<tag k="ssr:stedsnr" v="296335" />
	</node>
	<node lat="61.233436110214384" lon="9.42486388000261" id="-57899">
		<tag k="name" v="Merre" />
		<tag k="natural" v="bay" />
		<tag k="ssr:stedsnr" v="296338" />
	</node>
	<node lat="61.12347499741641" lon="9.112005555747281" id="-57900">
		<tag k="name" v="Haugabekken" />
		<tag k="ssr:stedsnr" v="296048" />
		<tag k="waterway" v="stream" />
	</node>
	<node lat="61.14718611413491" lon="9.033388888674876" id="-57901">
		<tag k="name" v="Sælsøddin" />
		<tag k="natural" v="cape" />
		<tag k="ssr:stedsnr" v="296136" />
	</node>
	<node lat="61.13846389206674" lon="9.252391662617635" id="-57903">
		<tag k="name" v="Rabalsbekken" />
		<tag k="ssr:stedsnr" v="296154" />
		<tag k="waterway" v="stream" />
	</node>
	<node lat="61.1460472180049" lon="9.238394445795702" id="-57904">
		<tag k="name" v="Killingøyne" />
		<tag k="place" v="islet" />
		<tag k="ssr:stedsnr" v="296155" />
	</node>
	<node lat="61.17239721838349" lon="9.39541110455907" id="-57907">
		<tag k="name" v="Fløtatjernet" />
		<tag k="natural" v="water" />
		<tag k="old_name" v="Fløtatjednet" />
		<tag k="ssr:stedsnr" v="296358" />
	</node>
	<node lat="61.26405555110689" lon="8.774805549681803" id="-57913">
		<tag k="name" v="Pyttingtjernet" />
		<tag k="natural" v="water" />
		<tag k="old_name" v="Pyttingtjednet" />
		<tag k="ssr:stedsnr" v="296758" />
	</node>
	<node lat="61.23921111374708" lon="8.893869448990964" id="-57914">
		<tag k="name" v="Hansanetjernet" />
		<tag k="natural" v="water" />
		<tag k="old_name" v="Hansanetjednet" />
		<tag k="ssr:stedsnr" v="296898" />
	</node>
	<node lat="61.18848889246616" lon="8.97363888042985" id="-57915">
		<tag k="name" v="Sildevike" />
		<tag k="natural" v="bay" />
		<tag k="ssr:stedsnr" v="296613" />
	</node>
	<node lat="61.085727779558574" lon="9.288205549540319" id="-57921">
		<tag k="name" v="Skjærvikøddin" />
		<tag k="natural" v="cape" />
		<tag k="ssr:stedsnr" v="297117" />
	</node>
	<node lat="61.15272499688771" lon="9.19435277664904" id="-57922">
		<tag k="name" v="Rennsennøyne" />
		<tag k="natural" v="cape" />
		<tag k="ssr:stedsnr" v="297209" />
	</node>
	<node lat="61.14423055915893" lon="9.214394436339658" id="-57924">
		<tag k="name" v="Kinsarvik" />
		<tag k="natural" v="bay" />
		<tag k="ssr:stedsnr" v="297214" />
	</node>
	<node lat="61.17461388833967" lon="9.17101111188693" id="-57925">
		<tag k="name" v="Åbortjernbekken" />
		<tag k="old_name" v="Øbbørtjednbekken" />
		<tag k="ssr:stedsnr" v="297215" />
		<tag k="waterway" v="stream" />
	</node>
	<node lat="61.33158055406666" lon="8.845780554342282" id="-57935">
		<tag k="name" v="Storvike" />
		<tag k="natural" v="bay" />
		<tag k="ssr:stedsnr" v="299360" />
	</node>
	<node lat="61.29779999666948" lon="8.906586118726628" id="-57936">
		<tag k="name" v="Svae" />
		<tag k="place" v="islet" />
		<tag k="ssr:stedsnr" v="299848" />
	</node>
	<node lat="61.29573889006027" lon="8.924638880219423" id="-57937">
		<tag k="name" v="Geite" />
		<tag k="place" v="islet" />
		<tag k="ssr:stedsnr" v="299851" />
	</node>
	<node lat="61.350894444572866" lon="9.057377773652242" id="-57940">
		<tag k="loc_name" v="Haldorøyne" />
		<tag k="name" v="Haldorsynøyne" />
		<tag k="old_name" v="Haldorsynsøy" />
		<tag k="place" v="island" />
		<tag k="ssr:stedsnr" v="301680" />
	</node>
	<node lat="61.14727777595636" lon="9.194233324618963" id="-57942">
		<tag k="name" v="Brimvike" />
		<tag k="natural" v="bay" />
		<tag k="ssr:stedsnr" v="308173" />
	</node>
	<node lat="61.30945486914246" lon="8.846144825354319" id="-57945">
		<tag k="name" v="Veslefjorden" />
		<tag k="natural" v="water" />
		<tag k="ssr:stedsnr" v="311221" />
	</node>
	<node lat="61.224247221531165" lon="8.931808329911707" id="-57957">
		<tag k="name" v="Vesleåne" />
		<tag k="ssr:stedsnr" v="310466" />
		<tag k="waterway" v="stream" />
	</node>
	<node lat="61.240119444580394" lon="9.377516667186734" id="-57961">
		<tag k="name" v="Fjelldokka" />
		<tag k="ssr:stedsnr" v="310985" />
		<tag k="waterway" v="stream" />
	</node>
	<node lat="61.20944444698277" lon="9.264880553338509" id="-57962">
		<tag k="alt_name" v="Vøllelitjednet" />
		<tag k="name" v="Vollalitjernet" />
		<tag k="natural" v="water" />
		<tag k="ssr:stedsnr" v="310996" />
	</node>
	<node lat="61.40753888776602" lon="8.898986106535574" id="-57963">
		<tag k="name" v="Nørdre Flybekken" />
		<tag k="ssr:stedsnr" v="311021" />
		<tag k="waterway" v="stream" />
	</node>
	<node lat="61.07703888554741" lon="9.211730547074621" id="-57964">
		<tag k="name" v="Ygna" />
		<tag k="ssr:stedsnr" v="310863" />
		<tag k="waterway" v="river" />
	</node>
	<node lat="61.33700833308107" lon="9.06295277544827" id="-57972">
		<tag k="name" v="Titretjernet" />
		<tag k="natural" v="water" />
		<tag k="ssr:stedsnr" v="311064" />
	</node>
	<node lat="61.28285555699956" lon="8.872375006248602" id="-57974">
		<tag k="alt_name" v="Oletjednet" />
		<tag k="name" v="Oletjernet" />
		<tag k="natural" v="water" />
		<tag k="ssr:stedsnr" v="311106" />
	</node>
	<node lat="61.05203888580668" lon="9.169247215942598" id="-57979">
		<tag k="name" v="Øystre Slidreåne" />
		<tag k="ssr:stedsnr" v="331794" />
		<tag k="waterway" v="river" />
	</node>
	<node lat="61.07760135319552" lon="9.112180393286929" id="-57980">
		<tag k="name" v="Røssåne" />
		<tag k="ssr:stedsnr" v="331795" />
		<tag k="waterway" v="river" />
	</node>
	<node lat="61.117111107683144" lon="9.152783334091323" id="-57999">
		<tag k="name" v="Tjernstølstjernet" />
		<tag k="natural" v="water" />
		<tag k="old_name" v="Tjednstølstjednet" />
		<tag k="ssr:stedsnr" v="357073" />
	</node>
	<node lat="61.13630277739083" lon="9.158238893394293" id="-58002">
		<tag k="name" v="Jødnmannbekken" />
		<tag k="ssr:stedsnr" v="357219" />
		<tag k="waterway" v="stream" />
	</node>
	<node lat="61.07953333465238" lon="9.110280555208497" id="-58017">
		<tag k="name" v="Reguleringen" />
		<tag k="ssr:stedsnr" v="357635" />
		<tag k="waterway" v="dam" />
	</node>
	<node lat="61.06991388683493" lon="9.123527776477342" id="-58018">
		<tag k="name" v="Svartebekkvike" />
		<tag k="natural" v="bay" />
		<tag k="ssr:stedsnr" v="357646" />
	</node>
	<node lat="61.19150555667457" lon="9.216427772859904" id="-58019">
		<tag k="name" v="Trøllåsbekken" />
		<tag k="ssr:stedsnr" v="357727" />
		<tag k="waterway" v="stream" />
	</node>
	<node lat="61.23680555736811" lon="8.86446666420631" id="-58024">
		<tag k="name" v="Purkehølbekken" />
		<tag k="ssr:stedsnr" v="357871" />
		<tag k="waterway" v="stream" />
	</node>
	<node lat="61.23890277556049" lon="8.909172230695445" id="-58025">
		<tag k="name" v="Lomtjernet" />
		<tag k="natural" v="water" />
		<tag k="old_name" v="Lomtjednet" />
		<tag k="ssr:stedsnr" v="357881" />
	</node>
	<node lat="61.10981666661747" lon="9.0840777862555" id="-58031">
		<tag k="name" v="Grautøddin" />
		<tag k="natural" v="cape" />
		<tag k="ssr:stedsnr" v="358294" />
	</node>
	<node lat="61.139481467712244" lon="9.20475735615079" id="-58040">
		<tag k="name" v="Røyre" />
		<tag k="natural" v="water" />
		<tag k="ssr:stedsnr" v="370130" />
		<tag k="water" v="lake" />
	</node>
	<node lat="61.15163814176439" lon="9.188075135722869" id="-58041">
		<tag k="name" v="Rennsennvatnet" />
		<tag k="natural" v="water" />
		<tag k="ssr:stedsnr" v="370108" />
		<tag k="water" v="lake" />
	</node>
	<node lat="61.1623416658331" lon="9.106374995951146" id="-58045">
		<tag k="name" v="Grytebekken" />
		<tag k="ssr:stedsnr" v="371053" />
		<tag k="waterway" v="stream" />
	</node>
	<node lat="61.09581111209181" lon="9.209052781823061" id="-58053">
		<tag k="alt_name" v="Langetjednet" />
		<tag k="name" v="Langetjernet" />
		<tag k="natural" v="water" />
		<tag k="ssr:stedsnr" v="371196" />
	</node>
	<node lat="61.21176110891629" lon="8.890661119354446" id="-58057">
		<tag k="alt_name" v="Furuhølmin" />
		<tag k="name" v="Holmen" />
		<tag k="place" v="islet" />
		<tag k="ssr:stedsnr" v="371481" />
	</node>
	<node lat="61.2989388918146" lon="8.909824995789263" id="-58058">
		<tag k="alt_name" v="Hølmen" />
		<tag k="name" v="Holmen" />
		<tag k="place" v="islet" />
		<tag k="ssr:stedsnr" v="372086" />
	</node>
	<node lat="61.436124996638576" lon="8.788866664828655" id="-58062">
		<tag k="name" v="Flybekken" />
		<tag k="ssr:stedsnr" v="372139" />
		<tag k="waterway" v="stream" />
	</node>
	<node lat="61.17915555893731" lon="9.062461117082798" id="-58075">
		<tag k="name" v="Åborvike" />
		<tag k="natural" v="bay" />
		<tag k="old_name" v="Øbbørvike" />
		<tag k="ssr:stedsnr" v="418132" />
	</node>
	<node lat="61.15933610904844" lon="9.266744437484277" id="-58080">
		<tag k="name" v="Nørdre Hølmetjernet" />
		<tag k="natural" v="water" />
		<tag k="old_name" v="Nørdre Hølmetjednet" />
		<tag k="ssr:stedsnr" v="418170" />
	</node>
	<node lat="61.082752777605414" lon="9.110816659417244" id="-58085">
		<tag k="name" v="Kvitøyne" />
		<tag k="place" v="islet" />
		<tag k="ssr:stedsnr" v="418520" />
	</node>
	<node lat="61.224155553858736" lon="9.00581389326111" id="-58088">
		<tag k="name" v="Javnkjæften" />
		<tag k="natural" v="bay" />
		<tag k="ssr:stedsnr" v="418662" />
	</node>
	<node lat="61.20185555513347" lon="9.021205556100375" id="-58091">
		<tag k="name" v="Varpebekken" />
		<tag k="ssr:stedsnr" v="418720" />
		<tag k="waterway" v="stream" />
	</node>
	<node lat="61.18658888750329" lon="9.309055557760528" id="-58095">
		<tag k="name" v="Ein-krokadn" />
		<tag k="natural" v="water" />
		<tag k="ssr:stedsnr" v="419481" />
		<tag k="water" v="lake" />
	</node>
	<node lat="61.1519444408109" lon="9.12491389314902" id="-58097">
		<tag k="name" v="Karusbekken" />
		<tag k="ssr:stedsnr" v="419125" />
		<tag k="waterway" v="stream" />
	</node>
	<node lat="61.077438892751154" lon="9.11282499700809" id="-58101">
		<tag k="name" v="Haugahølen" />
		<tag k="place" v="locality" />
		<tag k="ssr:stedsnr" v="419640" />
	</node>
	<node lat="61.154239073281055" lon="9.18630706981156" id="-58103">
		<tag k="name" v="Stølsøddin" />
		<tag k="natural" v="cape" />
		<tag k="ssr:stedsnr" v="419181" />
	</node>
	<node lat="61.29985555446479" lon="8.905888885065792" id="-58106">
		<tag k="name" v="Smørstein" />
		<tag k="place" v="islet" />
		<tag k="ssr:stedsnr" v="420849" />
	</node>
	<node lat="61.297680559636284" lon="8.914333326413123" id="-58107">
		<tag k="name" v="Purka" />
		<tag k="place" v="islet" />
		<tag k="ssr:stedsnr" v="420852" />
	</node>
	<node lat="61.31191666988719" lon="8.999308333068178" id="-58110">
		<tag k="name" v="Linodden" />
		<tag k="natural" v="cape" />
		<tag k="ssr:stedsnr" v="422646" />
	</node>
	<node lat="61.19764166290679" lon="8.936963883905634" id="-58115">
		<tag k="alt_name" v="Hølen, nedre" />
		<tag k="name" v="Nedre Hølen" />
		<tag k="natural" v="water" />
		<tag k="ssr:stedsnr" v="431513" />
	</node>
	<node lat="61.19510368914646" lon="8.966709767247908" id="-58116">
		<tag k="name" v="Hedalsfjorden" />
		<tag k="natural" v="water" />
		<tag k="ssr:stedsnr" v="431514" />
		<tag k="water" v="lake" />
	</node>
	<node lat="61.08738055559133" lon="9.19353610531918" id="-58118">
		<tag k="alt_name" v="Bolstadtjednet" />
		<tag k="name" v="Bollstadtjernet" />
		<tag k="natural" v="water" />
		<tag k="ssr:stedsnr" v="432196" />
	</node>
	<node lat="61.162516665077746" lon="8.912408341746632" id="-58127">
		<tag k="name" v="Hyggjande" />
		<tag k="ssr:stedsnr" v="432033" />
		<tag k="waterway" v="river" />
	</node>
	<node lat="61.15779167050663" lon="8.980411107802706" id="-58130">
		<tag k="name" v="Dalsåne" />
		<tag k="ssr:stedsnr" v="432057" />
		<tag k="waterway" v="river" />
	</node>
	<node lat="61.281411113969085" lon="9.07989167395438" id="-58132">
		<tag k="name" v="Skreddalstjernet" />
		<tag k="natural" v="water" />
		<tag k="ssr:stedsnr" v="432067" />
	</node>
	<node lat="61.34603611386631" lon="8.823027771070985" id="-58133">
		<tag k="alt_name" v="Rjupa, s" />
		<tag k="name" v="Søre Rjupa" />
		<tag k="ssr:stedsnr" v="432160" />
		<tag k="waterway" v="stream" />
	</node>
	<node lat="61.22249999960542" lon="9.184588880261046" id="-58136">
		<tag k="name" v="Krokbekken" />
		<tag k="ssr:stedsnr" v="432474" />
		<tag k="waterway" v="stream" />
	</node>
	<node lat="61.14526666703904" lon="9.386708335753639" id="-58139">
		<tag k="alt_name" v="Svultatjednet" />
		<tag k="name" v="Svultatjernet" />
		<tag k="natural" v="water" />
		<tag k="ssr:stedsnr" v="432945" />
	</node>
	<node lat="61.18512499621837" lon="9.236238886902155" id="-58140">
		<tag k="alt_name" v="Pipetjednet" />
		<tag k="name" v="Pipetjernet" />
		<tag k="natural" v="water" />
		<tag k="ssr:stedsnr" v="432950" />
	</node>
	<node lat="61.1700888918399" lon="9.249641668913181" id="-58142">
		<tag k="alt_name" v="Trøllåsåne" />
		<tag k="name" v="Trollåsåne" />
		<tag k="ssr:stedsnr" v="432966" />
		<tag k="waterway" v="stream" />
	</node>
	<node lat="61.203461106674816" lon="9.346333328567031" id="-58143">
		<tag k="alt_name" v="Kutjednet" />
		<tag k="name" v="Kutjernet" />
		<tag k="natural" v="water" />
		<tag k="ssr:stedsnr" v="432971" />
	</node>
	<node lat="61.3378305594046" lon="8.888075002337793" id="-58144">
		<tag k="name" v="Øvre Sanddalsbekken" />
		<tag k="ssr:stedsnr" v="433060" />
		<tag k="waterway" v="stream" />
	</node>
	<node lat="61.32665833601431" lon="8.977994447077785" id="-58145">
		<tag k="name" v="Trolløyne" />
		<tag k="place" v="islet" />
		<tag k="ssr:stedsnr" v="433070" />
	</node>
	<node lat="61.25830833662607" lon="9.109938894732469" id="-58147">
		<tag k="alt_name" v="Skredøla" />
		<tag k="name" v="Skreddøla" />
		<tag k="ssr:stedsnr" v="433116" />
		<tag k="waterway" v="river" />
	</node>
	<node lat="61.14509166829335" lon="9.178263896780571" id="-58159">
		<tag k="name" v="Bleikfettjernet" />
		<tag k="natural" v="water" />
		<tag k="old_name" v="Bleikfettjednet" />
		<tag k="ssr:stedsnr" v="540198" />
	</node>
	<node lat="61.197613891752034" lon="9.303444437759449" id="-58160">
		<tag k="name" v="Sløakrokadn" />
		<tag k="natural" v="water" />
		<tag k="ssr:stedsnr" v="540488" />
		<tag k="water" v="lake" />
	</node>
	<node lat="61.11429444079774" lon="9.172711113235613" id="-58165">
		<tag k="name" v="Rognslitjernet" />
		<tag k="natural" v="water" />
		<tag k="old_name" v="Rognslitjednet" />
		<tag k="ssr:stedsnr" v="539192" />
	</node>
	<node lat="61.17114167106478" lon="9.34201943864313" id="-58168">
		<tag k="name" v="Strypebekken" />
		<tag k="ssr:stedsnr" v="539361" />
		<tag k="waterway" v="stream" />
	</node>
	<node lat="61.12137500158919" lon="9.113738885999515" id="-58169">
		<tag k="name" v="Skattebubekken" />
		<tag k="ssr:stedsnr" v="539367" />
		<tag k="waterway" v="stream" />
	</node>
	<node lat="61.143791663786075" lon="9.03968888213405" id="-58171">
		<tag k="name" v="Sannesøddin" />
		<tag k="natural" v="cape" />
		<tag k="ssr:stedsnr" v="539422" />
	</node>
	<node lat="61.20837222518585" lon="8.997152770584933" id="-58174">
		<tag k="name" v="Lihallbekken" />
		<tag k="ssr:stedsnr" v="539676" />
		<tag k="waterway" v="stream" />
	</node>
	<node lat="61.1892870554328" lon="9.057815656026907" id="-58175">
		<tag k="name" v="Skiftisøddin" />
		<tag k="natural" v="cape" />
		<tag k="ssr:stedsnr" v="539662" />
	</node>
	<node lat="61.21282778152486" lon="8.905097216173047" id="-58176">
		<tag k="name" v="Gardneset" />
		<tag k="natural" v="cape" />
		<tag k="ssr:stedsnr" v="539928" />
	</node>
	<node lat="61.14028610898939" lon="9.155311103214723" id="-58179">
		<tag k="name" v="Maradalstjerne" />
		<tag k="natural" v="water" />
		<tag k="old_name" v="Maradalstjedne" />
		<tag k="ssr:stedsnr" v="540129" />
		<tag k="water" v="lake" />
	</node>
	<node lat="61.19576389290456" lon="9.432533340029355" id="-58183">
		<tag k="name" v="Osvike" />
		<tag k="natural" v="bay" />
		<tag k="ssr:stedsnr" v="540435" />
	</node>
	<node lat="61.299416662433686" lon="8.906058334870556" id="-58186">
		<tag k="name" v="Hølmendin" />
		<tag k="place" v="islet" />
		<tag k="ssr:stedsnr" v="541846" />
	</node>
	<node lat="61.30819166275059" lon="8.991802771673342" id="-58187">
		<tag k="name" v="Store Vike" />
		<tag k="natural" v="bay" />
		<tag k="ssr:stedsnr" v="543632" />
	</node>
	<node lat="61.18342061206874" lon="9.05705476803763" id="-58192">
		<tag k="alt_name" v="Vindin, søre;Vindin" />
		<tag k="name" v="Søre Vindin" />
		<tag k="natural" v="water" />
		<tag k="ssr:stedsnr" v="552028" />
		<tag k="water" v="lake" />
	</node>
	<node lat="61.246297218340494" lon="8.741941675855076" id="-58197">
		<tag k="alt_name" v="Raudøla" />
		<tag k="name" v="Rauddøla" />
		<tag k="ssr:stedsnr" v="552750" />
		<tag k="waterway" v="river" />
	</node>
	<node lat="61.275819448804775" lon="8.744580561824819" id="-58200">
		<tag k="name" v="Kalvedalsbekken" />
		<tag k="ssr:stedsnr" v="553198" />
		<tag k="waterway" v="stream" />
	</node>
	<node lat="61.336088887511856" lon="9.011899999359958" id="-58203">
		<tag k="name" v="Brende odden" />
		<tag k="natural" v="cape" />
		<tag k="ssr:stedsnr" v="553048" />
	</node>
	<node lat="61.32524166617643" lon="8.90980554703536" id="-58204">
		<tag k="alt_name" v="Sanddalstjednet" />
		<tag k="name" v="Sanddalstjernet" />
		<tag k="natural" v="water" />
		<tag k="ssr:stedsnr" v="553057" />
	</node>
	<node lat="61.11441388830246" lon="9.07303055615357" id="-58206">
		<tag k="name" v="Sandtangen" />
		<tag k="natural" v="cape" />
		<tag k="ssr:stedsnr" v="553156" />
	</node>
	<node lat="61.09490555228276" lon="9.260866667662086" id="-58209">
		<tag k="alt_name" v="Skarvetjednet" />
		<tag k="name" v="Skarvetjernet" />
		<tag k="natural" v="water" />
		<tag k="ssr:stedsnr" v="553921" />
	</node>
	<node lat="61.14084444247385" lon="9.382363895507535" id="-58210">
		<tag k="alt_name" v="Steintjednet" />
		<tag k="loc_name" v="Vestre Nevertjernet" />
		<tag k="name" v="Steintjernet" />
		<tag k="natural" v="water" />
		<tag k="ssr:stedsnr" v="553926" />
	</node>
	<node lat="61.19108420525011" lon="9.430930133034195" id="-58213">
		<tag k="name" v="Finnefjorden" />
		<tag k="natural" v="water" />
		<tag k="ssr:stedsnr" v="553973" />
	</node>
	<node lat="61.31281111441628" lon="8.859125005728181" id="-58214">
		<tag k="name" v="Kolbjørnsøynane" />
		<tag k="place" v="island" />
		<tag k="ssr:stedsnr" v="554057" />
	</node>
	<node lat="61.32085833368251" lon="9.022805548469368" id="-58215">
		<tag k="name" v="Skindroåne" />
		<tag k="ssr:stedsnr" v="554060" />
		<tag k="waterway" v="stream" />
	</node>
	<node lat="61.33126666272273" lon="9.150627780347136" id="-58216">
		<tag k="name" v="Perstjernet" />
		<tag k="natural" v="water" />
		<tag k="ssr:stedsnr" v="554063" />
	</node>
	<node lat="61.127697224505525" lon="9.140586115105181" id="-58231">
		<tag k="name" v="Størrtjernet" />
		<tag k="natural" v="water" />
		<tag k="old_name" v="Størrtjednet" />
		<tag k="ssr:stedsnr" v="599071" />
	</node>
	<node lat="61.11212499672065" lon="9.0311916757222" id="-58239">
		<tag k="name" v="Sjåheimbekken" />
		<tag k="ssr:stedsnr" v="599340" />
		<tag k="waterway" v="stream" />
	</node>
	<node lat="61.082766667795966" lon="9.108222213519722" id="-58241">
		<tag k="name" v="Takløysa" />
		<tag k="place" v="islet" />
		<tag k="ssr:stedsnr" v="599540" />
	</node>
	<node lat="61.26121110866876" lon="8.775461111268546" id="-58246">
		<tag k="name" v="Heimstølbekken" />
		<tag k="ssr:stedsnr" v="599772" />
		<tag k="waterway" v="stream" />
	</node>
	<node lat="61.21546666305134" lon="8.898011113597539" id="-58251">
		<tag k="name" v="Kjøovikøddin" />
		<tag k="natural" v="cape" />
		<tag k="ssr:stedsnr" v="599945" />
	</node>
	<node lat="61.21788333188239" lon="8.936349997139258" id="-58258">
		<tag k="name" v="Kjeltjernbekken" />
		<tag k="old_name" v="Kjeltjednbekken" />
		<tag k="ssr:stedsnr" v="600828" />
		<tag k="waterway" v="stream" />
	</node>
	<node lat="61.206472221007296" lon="9.185436106030902" id="-58262">
		<tag k="name" v="Signestølsbekken" />
		<tag k="ssr:stedsnr" v="600724" />
		<tag k="waterway" v="stream" />
	</node>
	<node lat="61.20360277606481" lon="9.206180548289495" id="-58263">
		<tag k="name" v="Øyndin" />
		<tag k="place" v="island" />
		<tag k="ssr:stedsnr" v="600726" />
	</node>
	<node lat="61.19195278092296" lon="9.198572218580795" id="-58264">
		<tag k="name" v="Steinøddin" />
		<tag k="natural" v="cape" />
		<tag k="ssr:stedsnr" v="600729" />
	</node>
	<node lat="61.27095833197582" lon="8.979422229553279" id="-58268">
		<tag k="name" v="Søre Bekken" />
		<tag k="ssr:stedsnr" v="600928" />
		<tag k="waterway" v="stream" />
	</node>
	<node lat="61.26609167110899" lon="8.952416664968318" id="-58270">
		<tag k="name" v="Osen" />
		<tag k="natural" v="bay" />
		<tag k="ssr:stedsnr" v="600935" />
	</node>
	<node lat="61.314727773393365" lon="8.900727769304135" id="-58271">
		<tag k="name" v="Vasskleppøyne" />
		<tag k="place" v="island" />
		<tag k="ssr:stedsnr" v="602165" />
	</node>
	<node lat="61.33230832960795" lon="8.83193056450023" id="-58272">
		<tag k="name" v="Møsahella" />
		<tag k="place" v="islet" />
		<tag k="ssr:stedsnr" v="602357" />
	</node>
	<node lat="61.30166111511938" lon="8.884752783382734" id="-58274">
		<tag k="name" v="Slesvik" />
		<tag k="natural" v="bay" />
		<tag k="ssr:stedsnr" v="602832" />
	</node>
	<node lat="61.31263611487818" lon="9.019719438919255" id="-58277">
		<tag k="name" v="Skindrobekken" />
		<tag k="ssr:stedsnr" v="604687" />
		<tag k="waterway" v="stream" />
	</node>
	<node lat="61.252111112303055" lon="8.86923889398689" id="-58284">
		<tag k="alt_name" v="Beitoåne" />
		<tag k="name" v="Bergaåne" />
		<tag k="ssr:stedsnr" v="614110" />
		<tag k="waterway" v="stream" />
	</node>
	<node lat="61.398611109818304" lon="8.800569453222185" id="-58285">
		<tag k="name" v="Fisketjerne" />
		<tag k="natural" v="water" />
		<tag k="ssr:stedsnr" v="614129" />
		<tag k="water" v="lake" />
	</node>
	<node lat="61.240418991763825" lon="9.096723244980053" id="-58286">
		<tag k="alt_name" v="Massingtjednet" />
		<tag k="name" v="Massingtjernet" />
		<tag k="natural" v="water" />
		<tag k="ssr:stedsnr" v="613458" />
	</node>
	<node lat="61.24878594739891" lon="9.126647429446809" id="-58290">
		<tag k="alt_name" v="Kjølen, søre" />
		<tag k="name" v="Søre Kjølen" />
		<tag k="natural" v="water" />
		<tag k="ssr:stedsnr" v="613477" />
		<tag k="water" v="lake" />
	</node>
	<node lat="61.23060000269724" lon="8.921475003579815" id="-58293">
		<tag k="name" v="Bamselitjernet" />
		<tag k="natural" v="water" />
		<tag k="ssr:stedsnr" v="613451" />
	</node>
	<node lat="61.073491664190534" lon="9.266975004076711" id="-58294">
		<tag k="alt_name" v="Heimre Skalbekken" />
		<tag k="name" v="Skardbekken" />
		<tag k="ssr:stedsnr" v="613894" />
		<tag k="waterway" v="stream" />
	</node>
	<node lat="61.076783335976856" lon="9.239324999080587" id="-58295">
		<tag k="alt_name" v="Nedravatnet" />
		<tag k="name" v="Nedrevatnet" />
		<tag k="natural" v="water" />
		<tag k="ssr:stedsnr" v="613901" />
	</node>
	<node lat="61.373291670119244" lon="8.976949997790719" id="-58299">
		<tag k="name" v="Liatjernet" />
		<tag k="natural" v="water" />
		<tag k="ssr:stedsnr" v="614039" />
	</node>
	<node lat="61.36237499902127" lon="9.005513890183735" id="-58300">
		<tag k="name" v="Buabekken" />
		<tag k="ssr:stedsnr" v="614044" />
		<tag k="waterway" v="stream" />
	</node>
	<node lat="61.35662499616233" lon="8.990738879994568" id="-58301">
		<tag k="name" v="Fossåne" />
		<tag k="ssr:stedsnr" v="614050" />
		<tag k="waterway" v="river" />
	</node>
	<node lat="61.27312777747833" lon="8.941938889777443" id="-58302">
		<tag k="alt_name" v="Sandøddin" />
		<tag k="name" v="Sandodden" />
		<tag k="natural" v="cape" />
		<tag k="ssr:stedsnr" v="614095" />
	</node>
	<node lat="61.30269999838675" lon="9.264525000458141" id="-58303">
		<tag k="name" v="Flåtjernet" />
		<tag k="natural" v="water" />
		<tag k="ssr:stedsnr" v="615457" />
	</node>
	<node lat="61.25595555495688" lon="8.95729166501533" id="-58305">
		<tag k="alt_name" v="Olaåne" />
		<tag k="name" v="Oleåne" />
		<tag k="ssr:stedsnr" v="616782" />
		<tag k="waterway" v="river" />
	</node>
	<node lat="61.196705553779886" lon="8.960344443509715" id="-58306">
		<tag k="name" v="Vettravike" />
		<tag k="natural" v="bay" />
		<tag k="ssr:stedsnr" v="640919" />
	</node>
	<node lat="61.15982499995206" lon="9.260441660681701" id="-58318">
		<tag k="name" v="Kyrtjernet" />
		<tag k="natural" v="water" />
		<tag k="old_name" v="Kyrtjednet" />
		<tag k="ssr:stedsnr" v="660174" />
	</node>
	<node lat="61.24863333280882" lon="8.848327769908305" id="-58324">
		<tag k="name" v="Pyttingsbekken" />
		<tag k="ssr:stedsnr" v="660801" />
		<tag k="waterway" v="stream" />
	</node>
	<node lat="61.24799166537106" lon="8.839227774941035" id="-58325">
		<tag k="name" v="Øygardsbekken" />
		<tag k="ssr:stedsnr" v="660802" />
		<tag k="waterway" v="stream" />
	</node>
	<node lat="61.13151388616912" lon="9.19761665843574" id="-58333">
		<tag k="alt_name" v="Køltjednbekken" />
		<tag k="name" v="Koltjernbekken" />
		<tag k="ssr:stedsnr" v="661206" />
		<tag k="waterway" v="stream" />
	</node>
	<node lat="61.17435277892598" lon="8.924297224273307" id="-58338">
		<tag k="name" v="Verpandsfossen" />
		<tag k="natural" v="waterfall" />
		<tag k="ssr:stedsnr" v="660940" />
	</node>
	<node lat="61.06786111142388" lon="9.229408332482866" id="-58342">
		<tag k="name" v="Veitemyrbekken" />
		<tag k="ssr:stedsnr" v="661078" />
		<tag k="waterway" v="stream" />
	</node>
	<node lat="61.15865833411896" lon="9.172511101996937" id="-58345">
		<tag k="name" v="Vassbøtten" />
		<tag k="natural" v="bay" />
		<tag k="ssr:stedsnr" v="661178" />
	</node>
	<node lat="61.19216666729337" lon="9.318944447483725" id="-58350">
		<tag k="name" v="Runde tjernet" />
		<tag k="natural" v="water" />
		<tag k="old_name" v="Runde tjednet" />
		<tag k="ssr:stedsnr" v="661448" />
	</node>
	<node lat="61.213163887044345" lon="9.28795000094285" id="-58351">
		<tag k="name" v="Gauketjernet" />
		<tag k="natural" v="water" />
		<tag k="old_name" v="Gauketjednet" />
		<tag k="ssr:stedsnr" v="661457" />
	</node>
	<node lat="61.19375277843161" lon="9.19043610806192" id="-58353">
		<tag k="name" v="Nedre Fløten" />
		<tag k="natural" v="water" />
		<tag k="ssr:stedsnr" v="661713" />
		<tag k="water" v="lake" />
	</node>
	<node lat="61.29790277332615" lon="8.911027778144614" id="-58356">
		<tag k="name" v="Haugen" />
		<tag k="place" v="islet" />
		<tag k="ssr:stedsnr" v="663839" />
	</node>
	<node lat="61.29702499804716" lon="8.913474998689615" id="-58357">
		<tag k="name" v="Raudesteinadn" />
		<tag k="place" v="islet" />
		<tag k="ssr:stedsnr" v="663845" />
	</node>
	<node lat="61.299974997462265" lon="8.926383324290368" id="-58358">
		<tag k="name" v="Skjære" />
		<tag k="place" v="islet" />
		<tag k="ssr:stedsnr" v="663857" />
	</node>
	<node lat="61.16248610985242" lon="9.396824997846675" id="-58373">
		<tag k="name" v="Vesle-Jahastjernet" />
		<tag k="natural" v="water" />
		<tag k="old_name" v="Vesle-Jahastjednet" />
		<tag k="ssr:stedsnr" v="721388" />
	</node>
	<node lat="61.220750003143834" lon="8.950955563392352" id="-58383">
		<tag k="name" v="Høvdabekken" />
		<tag k="ssr:stedsnr" v="721938" />
		<tag k="waterway" v="stream" />
	</node>
	<node lat="61.13645555596876" lon="9.186438882881344" id="-58390">
		<tag k="name" v="Heimre Røyrsåne" />
		<tag k="ssr:stedsnr" v="722231" />
		<tag k="waterway" v="stream" />
	</node>
	<node lat="61.15399444124502" lon="9.161308336086272" id="-58394">
		<tag k="name" v="Flytupptjernet" />
		<tag k="natural" v="water" />
		<tag k="old_name" v="Flytupptjednet" />
		<tag k="ssr:stedsnr" v="722210" />
	</node>
	<node lat="61.22375833168962" lon="9.282927770992675" id="-58396">
		<tag k="name" v="Ville kroken" />
		<tag k="natural" v="water" />
		<tag k="ssr:stedsnr" v="722493" />
		<tag k="water" v="lake" />
	</node>
	<node lat="61.074464661606335" lon="9.113498025275169" id="-58398">
		<tag k="alt_name" v="Brubrøthølen" />
		<tag k="name" v="Brubråthølen" />
		<tag k="place" v="locality" />
		<tag k="ssr:stedsnr" v="722659" />
	</node>
	<node lat="61.20707777424349" lon="9.116188884954498" id="-58401">
		<tag k="name" v="Skreostølsbekken" />
		<tag k="ssr:stedsnr" v="722754" />
		<tag k="waterway" v="stream" />
	</node>
	<node lat="61.29864444443379" lon="8.90906667574368" id="-58405">
		<tag k="name" v="Gauken" />
		<tag k="natural" v="beach" />
		<tag k="ssr:stedsnr" v="723796" />
	</node>
	<node lat="61.151026829081495" lon="9.227344847217465" id="-58417">
		<tag k="name" v="Vangsjøen" />
		<tag k="natural" v="water" />
		<tag k="ssr:stedsnr" v="735068" />
		<tag k="water" v="lake" />
	</node>
	<node lat="61.17983888532706" lon="9.393305561322885" id="-58425">
		<tag k="alt_name" v="Skåltjednet" />
		<tag k="name" v="Skåltjernet" />
		<tag k="natural" v="water" />
		<tag k="ssr:stedsnr" v="735950" />
	</node>
	<node lat="61.350786113609786" lon="9.156608339843146" id="-58426">
		<tag k="name" v="Røya" />
		<tag k="natural" v="water" />
		<tag k="ssr:stedsnr" v="736050" />
	</node>
	<node lat="61.29099166744905" lon="9.034050004585188" id="-58428">
		<tag k="name" v="Fjelltjernet" />
		<tag k="natural" v="water" />
		<tag k="ssr:stedsnr" v="736078" />
	</node>
	<node lat="61.16341944291274" lon="9.284655552563203" id="-58430">
		<tag k="name" v="Ville kroken" />
		<tag k="natural" v="water" />
		<tag k="ssr:stedsnr" v="749487" />
		<tag k="water" v="lake" />
	</node>
	<node lat="61.170974996443555" lon="9.024416671056311" id="-58450">
		<tag k="alt_name" v="Storemyrtjednet" />
		<tag k="name" v="Storemyrtjernet" />
		<tag k="natural" v="water" />
		<tag k="ssr:stedsnr" v="782138" />
	</node>
	<node lat="61.15476666583551" lon="9.2217444477949" id="-58452">
		<tag k="name" v="Buaøyne" />
		<tag k="place" v="islet" />
		<tag k="ssr:stedsnr" v="782162" />
	</node>
	<node lat="61.14744722636136" lon="9.259322224785194" id="-58453">
		<tag k="name" v="Lauvhøvdtjernet" />
		<tag k="natural" v="water" />
		<tag k="old_name" v="Lauvhøvdtjednet" />
		<tag k="ssr:stedsnr" v="782163" />
	</node>
	<node lat="61.126888890325624" lon="9.226336112588731" id="-58455">
		<tag k="alt_name" v="Løyntjednet" />
		<tag k="name" v="Løyntjernet" />
		<tag k="natural" v="water" />
		<tag k="ssr:stedsnr" v="782168" />
	</node>
	<node lat="61.14365832903856" lon="9.188422221126268" id="-58458">
		<tag k="name" v="Bleikfetbekken" />
		<tag k="ssr:stedsnr" v="782196" />
		<tag k="waterway" v="stream" />
	</node>
	<node lat="61.11538019738118" lon="9.061776850085817" id="-58460">
		<tag k="name" v="Eikrevike" />
		<tag k="natural" v="bay" />
		<tag k="ssr:stedsnr" v="782287" />
	</node>
	<node lat="61.17935000357049" lon="9.228602779265534" id="-58468">
		<tag k="name" v="Storeøyne" />
		<tag k="place" v="islet" />
		<tag k="ssr:stedsnr" v="782444" />
	</node>
	<node lat="61.250324998362075" lon="8.802916672009877" id="-58470">
		<tag k="name" v="Vølveshølen" />
		<tag k="place" v="locality" />
		<tag k="ssr:stedsnr" v="782788" />
	</node>
	<node lat="61.16022777500953" lon="8.978225003008705" id="-58471">
		<tag k="name" v="Åkrokadn" />
		<tag k="natural" v="water" />
		<tag k="ssr:stedsnr" v="782790" />
		<tag k="water" v="lake" />
	</node>
	<node lat="61.2547277761448" lon="8.78920555269613" id="-58473">
		<tag k="name" v="Myrebekken" />
		<tag k="ssr:stedsnr" v="782729" />
		<tag k="waterway" v="stream" />
	</node>
	<node lat="61.18072777378409" lon="8.977341667577313" id="-58484">
		<tag k="name" v="Sagahaugfossen" />
		<tag k="natural" v="waterfall" />
		<tag k="ssr:stedsnr" v="782974" />
	</node>
	<node lat="61.291347218698505" lon="8.922055555810429" id="-58485">
		<tag k="name" v="Skirvevike" />
		<tag k="natural" v="bay" />
		<tag k="ssr:stedsnr" v="784863" />
	</node>
	<node lat="61.32094444038107" lon="8.94011943652881" id="-58486">
		<tag k="name" v="Melbystjernet" />
		<tag k="natural" v="water" />
		<tag k="old_name" v="Melbystjednet" />
		<tag k="ssr:stedsnr" v="785127" />
	</node>
	<node lat="61.33431111486951" lon="8.839825006256893" id="-58487">
		<tag k="name" v="Grønolsvike" />
		<tag k="natural" v="bay" />
		<tag k="ssr:stedsnr" v="785328" />
	</node>
	<node lat="61.33173889265203" lon="8.843069444725879" id="-58488">
		<tag k="alt_name" v="Bjelbølsøyne" />
		<tag k="name" v="Bjellbølsøyne" />
		<tag k="place" v="island" />
		<tag k="ssr:stedsnr" v="785331" />
	</node>
	<node lat="61.33156388692396" lon="8.863736105380388" id="-58489">
		<tag k="name" v="Raude Berget" />
		<tag k="natural" v="beach" />
		<tag k="ssr:stedsnr" v="785167" />
	</node>
	<node lat="61.29610277962985" lon="8.89360276964912" id="-58490">
		<tag k="name" v="Gravolsbekken" />
		<tag k="ssr:stedsnr" v="785845" />
		<tag k="waterway" v="stream" />
	</node>
	<node lat="61.15257499649156" lon="9.203480557440518" id="-58492">
		<tag k="name" v="Huldretjernet" />
		<tag k="natural" v="water" />
		<tag k="old_name" v="Huldratjednet" />
		<tag k="ssr:stedsnr" v="795118" />
	</node>
	<node lat="61.3752611066948" lon="8.842983340034282" id="-58494">
		<tag k="name" v="Fisketjerne" />
		<tag k="natural" v="water" />
		<tag k="ssr:stedsnr" v="796138" />
		<tag k="water" v="lake" />
	</node>
	<node lat="61.08666944308601" lon="9.105244439280671" id="-58497">
		<tag k="alt_name" v="Sinderøddin" />
		<tag k="name" v="Sindernesodden" />
		<tag k="natural" v="cape" />
		<tag k="ssr:stedsnr" v="796235" />
	</node>
	<node lat="61.25705278153535" lon="8.818555557433832" id="-58498">
		<tag k="name" v="Tverråne" />
		<tag k="ssr:stedsnr" v="796236" />
		<tag k="waterway" v="stream" />
	</node>
	<node lat="61.352563887141415" lon="9.067508336187474" id="-58501">
		<tag k="name" v="Straumen" />
		<tag k="place" v="locality" />
		<tag k="ssr:stedsnr" v="796035" />
	</node>
	<node lat="61.35494167021223" lon="9.111230554778244" id="-58502">
		<tag k="name" v="Svinetjernvike" />
		<tag k="natural" v="bay" />
		<tag k="ssr:stedsnr" v="796037" />
	</node>
	<node lat="61.17899167099496" lon="9.075361116122385" id="-58503">
		<tag k="name" v="Yddeåne" />
		<tag k="ssr:stedsnr" v="796040" />
		<tag k="waterway" v="river" />
	</node>
	<node lat="61.26182777858744" lon="8.845411117774447" id="-58506">
		<tag k="alt_name" v="Lortetjednet" />
		<tag k="name" v="Lortetjernet" />
		<tag k="natural" v="water" />
		<tag k="ssr:stedsnr" v="796074" />
	</node>
	<node lat="61.218491669737155" lon="8.932338895833418" id="-58510">
		<tag k="alt_name" v="Kjeltjednet" />
		<tag k="name" v="Kjeltjernet" />
		<tag k="natural" v="water" />
		<tag k="ssr:stedsnr" v="796433" />
	</node>
	<node lat="61.194663889112626" lon="8.946994440641832" id="-58511">
		<tag k="name" v="Storåne" />
		<tag k="ssr:stedsnr" v="796452" />
		<tag k="waterway" v="river" />
	</node>
	<node lat="61.09186388501731" lon="9.337938893638" id="-58513">
		<tag k="alt_name" v="Lauvtjednet" />
		<tag k="name" v="Lauvtjernet" />
		<tag k="natural" v="water" />
		<tag k="ssr:stedsnr" v="796915" />
	</node>
	<node lat="61.1198777781273" lon="9.321013879672707" id="-58515">
		<tag k="alt_name" v="Reinetjednet" />
		<tag k="name" v="Reinetjernet" />
		<tag k="natural" v="water" />
		<tag k="ssr:stedsnr" v="796936" />
	</node>
	<node lat="61.24075278216921" lon="9.465722218397758" id="-58516">
		<tag k="name" v="Sandbekkosen" />
		<tag k="natural" v="bay" />
		<tag k="ssr:stedsnr" v="796986" />
	</node>
	<node lat="61.212899998473446" lon="9.313063895431146" id="-58517">
		<tag k="alt_name" v="Venelibekken, s;Venelibekken" />
		<tag k="name" v="Søre Venelibekken" />
		<tag k="ssr:stedsnr" v="796998" />
		<tag k="waterway" v="stream" />
	</node>
	<node lat="61.292424999432285" lon="8.887191658553451" id="-58518">
		<tag k="alt_name" v="Gravolstjednet" />
		<tag k="name" v="Gravolstjernet" />
		<tag k="natural" v="water" />
		<tag k="ssr:stedsnr" v="797080" />
	</node>
	<node lat="61.3084777814677" lon="9.161905550560254" id="-58519">
		<tag k="name" v="Senda" />
		<tag k="ssr:stedsnr" v="797083" />
		<tag k="waterway" v="river" />
	</node>
	<node lat="61.309800000698424" lon="9.281524992801154" id="-58520">
		<tag k="name" v="Buatindbekken" />
		<tag k="ssr:stedsnr" v="797477" />
		<tag k="waterway" v="stream" />
	</node>
	<node lat="61.170677780809115" lon="9.062300008490416" id="-58535">
		<tag k="name" v="Helvetisfossen" />
		<tag k="natural" v="waterfall" />
		<tag k="ssr:stedsnr" v="843132" />
	</node>
	<node lat="61.152736112315644" lon="9.006219435533133" id="-58538">
		<tag k="name" v="Nordtorpøyne" />
		<tag k="place" v="island" />
		<tag k="ssr:stedsnr" v="843171" />
	</node>
	<node lat="61.120861110843016" lon="9.083355547768289" id="-58541">
		<tag k="alt_name" v="Nedreføss" />
		<tag k="name" v="Nedrefoss" />
		<tag k="natural" v="waterfall" />
		<tag k="ssr:stedsnr" v="843301" />
	</node>
	<node lat="61.087116666353204" lon="9.105355550950117" id="-58558">
		<tag k="name" v="Beritøddin" />
		<tag k="natural" v="cape" />
		<tag k="ssr:stedsnr" v="843541" />
	</node>
	<node lat="61.07270832928719" lon="9.121091665509065" id="-58561">
		<tag k="name" v="Svartebekken" />
		<tag k="ssr:stedsnr" v="843671" />
		<tag k="waterway" v="stream" />
	</node>
	<node lat="61.215233330587914" lon="8.941644453190499" id="-58570">
		<tag k="name" v="Haugabekken" />
		<tag k="ssr:stedsnr" v="843918" />
		<tag k="waterway" v="stream" />
	</node>
	<node lat="61.2576416694709" lon="8.955674996651473" id="-58571">
		<tag k="name" v="Gråsteinhølen" />
		<tag k="place" v="locality" />
		<tag k="ssr:stedsnr" v="843922" />
	</node>
	<node lat="61.30959444516665" lon="8.829813892942857" id="-58573">
		<tag k="name" v="Stavtjernbekken" />
		<tag k="old_name" v="Stavtjednbekken" />
		<tag k="ssr:stedsnr" v="846831" />
		<tag k="waterway" v="stream" />
	</node>
	<node lat="61.12682205246541" lon="9.209526309100529" id="-58575">
		<tag k="name" v="Øvre Køltjernet" />
		<tag k="natural" v="water" />
		<tag k="old_name" v="Øvre Køltjednet" />
		<tag k="ssr:stedsnr" v="847633" />
	</node>
	<node lat="61.33930555958108" lon="9.055244438082966" id="-58576">
		<tag k="name" v="Titrebekken" />
		<tag k="ssr:stedsnr" v="847653" />
		<tag k="waterway" v="stream" />
	</node>
	<node lat="61.32265000096816" lon="8.896161106211864" id="-58579">
		<tag k="name" v="Nedre Sanddalsbekken" />
		<tag k="ssr:stedsnr" v="857056" />
		<tag k="waterway" v="stream" />
	</node>
	<node lat="61.15768055503707" lon="9.065141667704285" id="-58580">
		<tag k="alt_name" v="Vindeåne" />
		<tag k="name" v="Vinda" />
		<tag k="ssr:stedsnr" v="857066" />
		<tag k="waterway" v="river" />
	</node>
	<node lat="61.10974166655396" lon="9.182300002182764" id="-58584">
		<tag k="name" v="Rognslibekken" />
		<tag k="ssr:stedsnr" v="857173" />
		<tag k="waterway" v="stream" />
	</node>
	<node lat="61.28267222290345" lon="9.212816669747578" id="-58586">
		<tag k="name" v="Storebekken" />
		<tag k="ssr:stedsnr" v="857092" />
		<tag k="waterway" v="stream" />
	</node>
	<node lat="61.25801388743087" lon="8.825594453415706" id="-58588">
		<tag k="alt_name" v="Tåbakktjednet" />
		<tag k="name" v="Tåbakktjernet" />
		<tag k="natural" v="water" />
		<tag k="ssr:stedsnr" v="857254" />
	</node>
	<node lat="61.218100002258424" lon="8.922322214912398" id="-58591">
		<tag k="alt_name" v="Svartetjednet" />
		<tag k="name" v="Svartetjernet" />
		<tag k="natural" v="water" />
		<tag k="ssr:stedsnr" v="857453" />
	</node>
	<node lat="61.24374722287585" lon="9.050152785773484" id="-58593">
		<tag k="name" v="Brummatjernet" />
		<tag k="natural" v="water" />
		<tag k="old_name" v="Brummetj;Brummatjednet" />
		<tag k="ssr:stedsnr" v="857472" />
	</node>
	<node lat="61.16622777817427" lon="9.273216658467096" id="-58595">
		<tag k="alt_name" v="Trøllåstjednet;Nedre Trøllåstjednet" />
		<tag k="name" v="Trollåstjernet" />
		<tag k="natural" v="water" />
		<tag k="ssr:stedsnr" v="857961" />
	</node>
	<node lat="61.32104166479051" lon="8.926274994014028" id="-58599">
		<tag k="alt_name" v="Lokkartjednet" />
		<tag k="name" v="Lokkartjernet" />
		<tag k="natural" v="water" />
		<tag k="ssr:stedsnr" v="858064" />
	</node>
	<node lat="61.31363888797985" lon="8.844150005552931" id="-58600">
		<tag k="name" v="Veslefjordodden" />
		<tag k="natural" v="cape" />
		<tag k="ssr:stedsnr" v="858067" />
	</node>
	<node lat="61.17735555644356" lon="9.054691660120287" id="-58622">
		<tag k="name" v="Jenteberg" />
		<tag k="natural" v="cape" />
		<tag k="ssr:stedsnr" v="964160" />
	</node>
	<node lat="61.18596944244168" lon="9.062272216453481" id="-58624">
		<tag k="name" v="Prestheggøddin" />
		<tag k="natural" v="cape" />
		<tag k="ssr:stedsnr" v="964169" />
	</node>
	<node lat="61.09373888556409" lon="9.103763885467052" id="-58631">
		<tag k="name" v="Sauvikøddin" />
		<tag k="natural" v="cape" />
		<tag k="ssr:stedsnr" v="964515" />
	</node>
	<node lat="61.19016666453584" lon="9.167955562240607" id="-58638">
		<tag k="name" v="Yddeosen" />
		<tag k="natural" v="bay" />
		<tag k="ssr:stedsnr" v="964720" />
	</node>
	<node lat="61.27290555743819" lon="8.813430548129451" id="-58643">
		<tag k="name" v="Båtskarbekken" />
		<tag k="ssr:stedsnr" v="964245" />
		<tag k="waterway" v="stream" />
	</node>
	<node lat="61.071538890396056" lon="9.207499993237299" id="-58646">
		<tag k="name" v="Vesle Øygardsbekken" />
		<tag k="ssr:stedsnr" v="964260" />
		<tag k="waterway" v="stream" />
	</node>
	<node lat="61.11823333699922" lon="9.174608336014446" id="-58647">
		<tag k="name" v="Øyangsbekken" />
		<tag k="ssr:stedsnr" v="964261" />
		<tag k="waterway" v="stream" />
	</node>
	<node lat="61.09502777585463" lon="9.18331944866696" id="-58649">
		<tag k="name" v="Lorteputten" />
		<tag k="natural" v="water" />
		<tag k="ssr:stedsnr" v="964266" />
		<tag k="water" v="pond" />
	</node>
	<node lat="61.134519444034446" lon="9.058375001404094" id="-58653">
		<tag k="name" v="Bokolvika" />
		<tag k="natural" v="bay" />
		<tag k="ssr:stedsnr" v="964463" />
	</node>
	<node lat="61.17187777848503" lon="9.327880549894518" id="-58655">
		<tag k="name" v="Svartetjern" />
		<tag k="natural" v="water" />
		<tag k="old_name" v="Svartetjedn" />
		<tag k="ssr:stedsnr" v="964480" />
	</node>
	<node lat="61.23347777588235" lon="8.963636111686114" id="-58657">
		<tag k="name" v="Lortetjerne" />
		<tag k="natural" v="water" />
		<tag k="old_name" v="Lortetjedne" />
		<tag k="ssr:stedsnr" v="964873" />
		<tag k="water" v="lake" />
	</node>
	<node lat="61.26970278007526" lon="8.968605557237428" id="-58663">
		<tag k="name" v="Kilin" />
		<tag k="natural" v="bay" />
		<tag k="ssr:stedsnr" v="964902" />
	</node>
	<node lat="61.224130554472346" lon="8.925197213355752" id="-58667">
		<tag k="name" v="Saltetjernet" />
		<tag k="natural" v="water" />
		<tag k="old_name" v="Saltetjednet" />
		<tag k="ssr:stedsnr" v="964923" />
	</node>
	<node lat="61.17382777896328" lon="8.972938886272306" id="-58670">
		<tag k="name" v="Harpvike" />
		<tag k="natural" v="bay" />
		<tag k="ssr:stedsnr" v="964961" />
	</node>
	<node lat="61.3123999962248" lon="8.908577781862345" id="-58675">
		<tag k="name" v="Svarte Hølet" />
		<tag k="place" v="locality" />
		<tag k="ssr:stedsnr" v="966168" />
	</node>
	<node lat="61.3449333318803" lon="9.033608339464765" id="-58677">
		<tag k="name" v="Grihamarhølen" />
		<tag k="natural" v="bay" />
		<tag k="ssr:stedsnr" v="968718" />
	</node>
	<node lat="61.1324694452389" lon="9.187522217727155" id="-58678">
		<tag k="name" v="Øvre Åtjernet" />
		<tag k="natural" v="water" />
		<tag k="old_name" v="Øvre Åtjednet" />
		<tag k="ssr:stedsnr" v="968652" />
	</node>
</osm>
