<?xml version="1.0" encoding="UTF-8"?>
<<<<<<< HEAD
<osm version="0.6" generator="osmapis">
	<node lat="61.25394722092076" lon="8.959372222390328" id="-18281">
		<tag k="ford" v="yes" />
		<tag k="name" v="Skulemeistarvaet" />
		<tag k="place" v="locality" />
		<tag k="ssr:stedsnr" v="236936" />
	</node>
	<node lat="61.18202499935864" lon="8.896302776094233" id="-18286">
		<tag k="ford" v="yes" />
		<tag k="name" v="Vade" />
		<tag k="place" v="locality" />
		<tag k="ssr:stedsnr" v="236966" />
	</node>
	<node lat="61.06133333392511" lon="9.164816673723998" id="-18343">
		<tag k="bridge" v="yes" />
		<tag k="layer" v="1" />
		<tag k="name" v="Melbybråten" />
		<tag k="ssr:stedsnr" v="107212" />
	</node>
	<node lat="61.20177221876528" lon="8.99311666722916" id="-18476">
		<tag k="name" v="Store Svingen" />
		<tag k="place" v="locality" />
		<tag k="ssr:stedsnr" v="236714" />
	</node>
	<node lat="61.16056666784435" lon="9.075513890394733" id="-18550">
		<tag k="highway" v="path" />
		<tag k="name" v="Dalengvegen" />
		<tag k="ssr:stedsnr" v="357021" />
	</node>
	<node lat="61.139888892178746" lon="9.095097223025544" id="-18590">
		<tag k="alt_name" v="Mehøvdvegen" />
		<tag k="highway" v="path" />
		<tag k="name" v="Mehovdvegen" />
		<tag k="ssr:stedsnr" v="478432" />
	</node>
	<node lat="61.2184944408717" lon="8.966788896357144" id="-18603">
		<tag k="highway" v="path" />
		<tag k="name" v="Bleikfetvegen" />
		<tag k="ssr:stedsnr" v="478944" />
	</node>
	<node lat="61.14736111443182" lon="9.133922212980927" id="-18612">
		<tag k="highway" v="path" />
		<tag k="name" v="Luskørvegen" />
		<tag k="ssr:stedsnr" v="479113" />
	</node>
	<node lat="61.20147500336345" lon="9.262244443998242" id="-18632">
=======
<osm generator="osmapis" version="0.6">
	<node id="-402559" lat="61.2014750034" lon="9.262244444">
>>>>>>> e1d4bc35ff8a6074a6f2e91616a996b547c36f15
		<tag k="highway" v="path" />
		<tag k="name" v="Fiskevegen" />
		<tag k="ssr:stedsnr" v="479481" />
	</node>
<<<<<<< HEAD
	<node lat="61.21481666631387" lon="8.947636119303604" id="-18738">
		<tag k="junction" v="yes" />
		<tag k="name" v="Morke" />
		<tag k="place" v="locality" />
		<tag k="ssr:stedsnr" v="674421" />
	</node>
	<node lat="61.20436110705171" lon="9.318169437617977" id="-18782">
=======
	<node id="-402558" lat="61.2043611071" lon="9.31816943762">
>>>>>>> e1d4bc35ff8a6074a6f2e91616a996b547c36f15
		<tag k="highway" v="path" />
		<tag k="name" v="Fetavegen" />
		<tag k="ssr:stedsnr" v="479477" />
	</node>
<<<<<<< HEAD
	<node lat="61.15773888538033" lon="9.14182222410974" id="-18858">
=======
	<node id="-403061" lat="61.2520916682" lon="8.82001944906">
		<tag k="bridge" v="yes" />
		<tag k="layer" v="1" />
		<tag k="name" v="Tverråa" />
		<tag k="ssr:stedsnr" v="774254" />
	</node>
	<node id="-402554" lat="61.1473611144" lon="9.13392221298">
>>>>>>> e1d4bc35ff8a6074a6f2e91616a996b547c36f15
		<tag k="highway" v="path" />
		<tag k="name" v="Spissebergvegen" />
		<tag k="ssr:stedsnr" v="600116" />
	</node>
<<<<<<< HEAD
	<node lat="61.130099999860185" lon="9.086022223219324" id="-18875">
=======
	<node id="-403961" lat="61.1300999999" lon="9.08602222322">
>>>>>>> e1d4bc35ff8a6074a6f2e91616a996b547c36f15
		<tag k="landuse" v="industrial" />
		<tag k="name" v="Storefoss" />
		<tag k="power" v="plant" />
		<tag k="ssr:stedsnr" v="613117" />
	</node>
<<<<<<< HEAD
	<node lat="61.16789444518288" lon="9.06356111507154" id="-18891">
		<tag k="bridge" v="yes" />
		<tag k="layer" v="1" />
		<tag k="name" v="Langedal" />
		<tag k="ssr:stedsnr" v="653212" />
	</node>
	<node lat="61.21824166534867" lon="9.295911116944684" id="-18904">
		<tag k="ford" v="yes" />
		<tag k="name" v="Fetavaet" />
		<tag k="place" v="locality" />
		<tag k="ssr:stedsnr" v="661401" />
	</node>
	<node lat="61.059377779147134" lon="9.164566670794065" id="-18938">
=======
	<node id="-402549" lat="61.2184944409" lon="8.96678889636">
		<tag k="highway" v="path" />
		<tag k="name" v="Bleikfetvegen" />
		<tag k="ssr:stedsnr" v="478944" />
	</node>
	<node id="-403060" lat="61.2176388923" lon="8.9387138922">
>>>>>>> e1d4bc35ff8a6074a6f2e91616a996b547c36f15
		<tag k="bridge" v="yes" />
		<tag k="layer" v="1" />
		<tag k="name" v="Ygna" />
		<tag k="ssr:stedsnr" v="896244" />
	</node>
<<<<<<< HEAD
	<node lat="61.21763889231223" lon="8.938713892196468" id="-19022">
		<tag k="bridge" v="yes" />
		<tag k="layer" v="1" />
		<tag k="name" v="Vesleåa" />
		<tag k="ssr:stedsnr" v="774253" />
	</node>
	<node lat="61.25209166815386" lon="8.820019449062501" id="-19023">
		<tag k="bridge" v="yes" />
		<tag k="layer" v="1" />
		<tag k="name" v="Tverråa" />
		<tag k="ssr:stedsnr" v="774254" />
	</node>
	<node lat="61.13049444688621" lon="9.085297223393516" id="-19112">
=======
	<node id="-402415" lat="61.0613333339" lon="9.16481667372">
		<tag k="bridge" v="yes" />
		<tag k="layer" v="1" />
		<tag k="name" v="Melbybråten" />
		<tag k="ssr:stedsnr" v="107212" />
	</node>
	<node id="-402542" lat="61.1398888922" lon="9.09509722303">
		<tag k="alt_name" v="Mehøvdvegen" />
		<tag k="highway" v="path" />
		<tag k="name" v="Mehovdvegen" />
		<tag k="ssr:stedsnr" v="478432" />
	</node>
	<node id="-404196" lat="61.3782194465" lon="8.81254166602">
>>>>>>> e1d4bc35ff8a6074a6f2e91616a996b547c36f15
		<tag k="bridge" v="yes" />
		<tag k="layer" v="1" />
		<tag k="name" v="Løken" />
		<tag k="ssr:stedsnr" v="835235" />
	</node>
<<<<<<< HEAD
	<node lat="61.342555557103225" lon="8.812519447635266" id="-19354">
		<tag k="bridge" v="yes" />
		<tag k="layer" v="1" />
		<tag k="name" v="Rjupåa" />
		<tag k="ssr:stedsnr" v="107170" />
	</node>
	<node lat="61.17871944485772" lon="9.190630550078875" id="-19377">
		<tag k="highway" v="path" />
		<tag k="name" v="Øysteinvegen" />
		<tag k="ssr:stedsnr" v="115200" />
	</node>
	<node lat="61.31251111106129" lon="9.006161109676821" id="-19386">
		<tag k="fixme" v="verify maritime location" />
		<tag k="mooring" v="yes" />
		<tag k="name" v="Vøllen" />
		<tag k="place" v="locality" />
		<tag k="ssr:stedsnr" v="119660" />
	</node>
	<node lat="61.218830557055874" lon="8.944405560572658" id="-19419">
=======
	<node id="-403678" lat="61.1840472208" lon="9.14077500854">
		<tag k="ford" v="yes" />
		<tag k="name" v="Beritvadet" />
		<tag k="place" v="locality" />
		<tag k="ssr:stedsnr" v="358035" />
	</node>
	<node id="-403927" lat="61.1577388854" lon="9.14182222411">
		<tag k="highway" v="path" />
		<tag k="name" v="Spissebergvegen" />
		<tag k="ssr:stedsnr" v="600116" />
	</node>
	<node id="-402515" lat="61.1736166634" lon="9.34356111768">
		<tag k="ford" v="yes" />
		<tag k="name" v="Skåltjernvaet" />
		<tag k="old_name" v="Skåltjednvaet" />
		<tag k="place" v="locality" />
		<tag k="ssr:stedsnr" v="296357" />
	</node>
	<node id="-403405" lat="61.1787194449" lon="9.19063055008">
		<tag k="highway" v="path" />
		<tag k="name" v="Øysteinvegen" />
		<tag k="ssr:stedsnr" v="115200" />
	</node>
	<node id="-404041" lat="61.1601083299" lon="8.96204165893">
		<tag k="fixme" v="consider highway=path" />
		<tag k="highway" v="track" />
		<tag k="name" v="Movegen" />
		<tag k="ssr:stedsnr" v="782792" />
	</node>
	<node id="-403661" lat="61.106716663" lon="9.01136944731">
		<tag k="alt_name" v="Slidreåsvegen" />
		<tag k="fixme" v="consider highway=path" />
		<tag k="highway" v="track" />
		<tag k="name" v="Slidrevegen" />
		<tag k="ssr:stedsnr" v="357337" />
	</node>
	<node id="-402886" lat="61.2536888847" lon="8.96721110266">
		<tag k="highway" v="path" />
		<tag k="name" v="Lokkarvegen" />
		<tag k="ssr:stedsnr" v="722939" />
	</node>
	<node id="-403907" lat="61.169138889" lon="8.98422499334">
		<tag k="highway" v="path" />
		<tag k="name" v="Lattrangvegen" />
		<tag k="ssr:stedsnr" v="599138" />
	</node>
	<node id="-403645" lat="61.1605666678" lon="9.07551389039">
		<tag k="highway" v="path" />
		<tag k="name" v="Dalengvegen" />
		<tag k="ssr:stedsnr" v="357021" />
	</node>
	<node id="-403387" lat="61.3425555571" lon="8.81251944764">
>>>>>>> e1d4bc35ff8a6074a6f2e91616a996b547c36f15
		<tag k="bridge" v="yes" />
		<tag k="layer" v="1" />
		<tag k="name" v="Okshovd" />
		<tag k="ssr:stedsnr" v="167236" />
	</node>
<<<<<<< HEAD
	<node lat="61.19507778051151" lon="9.334169442517565" id="-19422">
=======
	<node id="-403514" lat="61.1950777805" lon="9.33416944252">
>>>>>>> e1d4bc35ff8a6074a6f2e91616a996b547c36f15
		<tag k="highway" v="path" />
		<tag k="name" v="Fullsennvegen" />
		<tag k="ssr:stedsnr" v="176440" />
	</node>
<<<<<<< HEAD
	<node lat="61.17361666339072" lon="9.343561117678325" id="-19515">
		<tag k="ford" v="yes" />
		<tag k="name" v="Skåltjernvaet" />
		<tag k="old_name" v="Skåltjednvaet" />
		<tag k="place" v="locality" />
		<tag k="ssr:stedsnr" v="296357" />
	</node>
	<node lat="61.17411944694446" lon="8.922280549888807" id="-19590">
=======
	<node id="-403641" lat="61.1741194469" lon="8.92228054989">
>>>>>>> e1d4bc35ff8a6074a6f2e91616a996b547c36f15
		<tag k="bridge" v="yes" />
		<tag k="layer" v="1" />
		<tag k="name" v="Verpande" />
		<tag k="ssr:stedsnr" v="349279" />
	</node>
<<<<<<< HEAD
	<node lat="61.106716663020826" lon="9.011369447306135" id="-19600">
		<tag k="alt_name" v="Slidreåsvegen" />
=======
	<node id="-402313" lat="61.2017722188" lon="8.99311666723">
		<tag k="name" v="Store Svingen" />
		<tag k="place" v="locality" />
		<tag k="ssr:stedsnr" v="236714" />
	</node>
	<node id="-402868" lat="61.1552055599" lon="9.07660556119">
>>>>>>> e1d4bc35ff8a6074a6f2e91616a996b547c36f15
		<tag k="fixme" v="consider highway=path" />
		<tag k="highway" v="track" />
		<tag k="name" v="Slidrevegen" />
		<tag k="ssr:stedsnr" v="357337" />
	</node>
<<<<<<< HEAD
	<node lat="61.18404722080591" lon="9.140775008543235" id="-19624">
		<tag k="ford" v="yes" />
		<tag k="name" v="Beritvadet" />
		<tag k="place" v="locality" />
		<tag k="ssr:stedsnr" v="358035" />
	</node>
	<node lat="61.312358334443275" lon="9.002372225751436" id="-19631">
=======
	<node id="-403422" lat="61.3125111111" lon="9.00616110968">
		<tag k="fixme" v="verify maritime location" />
		<tag k="mooring" v="yes" />
		<tag k="name" v="Vøllen" />
		<tag k="place" v="locality" />
		<tag k="ssr:stedsnr" v="119660" />
	</node>
	<node id="-402994" lat="61.0593777791" lon="9.16456667079">
		<tag k="bridge" v="yes" />
		<tag k="layer" v="1" />
		<tag k="name" v="Ygna" />
		<tag k="ssr:stedsnr" v="896244" />
	</node>
	<node id="-402608" lat="61.3123583344" lon="9.00237222575">
>>>>>>> e1d4bc35ff8a6074a6f2e91616a996b547c36f15
		<tag k="fixme" v="verify maritime location" />
		<tag k="mooring" v="yes" />
		<tag k="name" v="Nørdre Vøllen" />
		<tag k="place" v="locality" />
		<tag k="ssr:stedsnr" v="361672" />
	</node>
<<<<<<< HEAD
	<node lat="61.16913888904203" lon="8.98422499333637" id="-19816">
		<tag k="highway" v="path" />
		<tag k="name" v="Lattrangvegen" />
		<tag k="ssr:stedsnr" v="599138" />
	</node>
	<node lat="61.155205559879235" lon="9.076605561191858" id="-19953">
=======
	<node id="-404142" lat="61.1241333329" lon="9.04831666506">
		<tag k="fixme" v="consider highway=path" />
		<tag k="highway" v="track" />
		<tag k="name" v="Kvamsvegen" />
		<tag k="ssr:stedsnr" v="843449" />
	</node>
	<node id="-404012" lat="61.1621833295" lon="9.20469999186">
		<tag k="ford" v="yes" />
		<tag k="name" v="Bukonovadet" />
		<tag k="place" v="locality" />
		<tag k="ssr:stedsnr" v="782182" />
	</node>
	<node id="-402759" lat="61.2148166663" lon="8.9476361193">
		<tag k="junction" v="yes" />
		<tag k="name" v="Morke" />
		<tag k="place" v="locality" />
		<tag k="ssr:stedsnr" v="674421" />
	</node>
	<node id="-404136" lat="61.0746472228" lon="9.21321111275">
>>>>>>> e1d4bc35ff8a6074a6f2e91616a996b547c36f15
		<tag k="fixme" v="consider highway=path" />
		<tag k="highway" v="track" />
		<tag k="name" v="Kjerrevegen" />
		<tag k="ssr:stedsnr" v="722051" />
	</node>
<<<<<<< HEAD
	<node lat="61.253688884682234" lon="8.967211102662839" id="-19968">
=======
	<node id="-404135" lat="61.1869166659" lon="9.02985000416">
>>>>>>> e1d4bc35ff8a6074a6f2e91616a996b547c36f15
		<tag k="highway" v="path" />
		<tag k="name" v="Lokkarvegen" />
		<tag k="ssr:stedsnr" v="722939" />
	</node>
<<<<<<< HEAD
	<node lat="61.232655557875155" lon="8.92821110751649" id="-20000">
=======
	<node id="-403998" lat="61.2326555579" lon="8.92821110752">
>>>>>>> e1d4bc35ff8a6074a6f2e91616a996b547c36f15
		<tag k="bridge" v="yes" />
		<tag k="layer" v="1" />
		<tag k="name" v="Beitostølen" />
		<tag k="ssr:stedsnr" v="774243" />
	</node>
<<<<<<< HEAD
	<node lat="61.16218332950237" lon="9.204699991861888" id="-20017">
=======
	<node id="-402714" lat="61.2182416653" lon="9.29591111694">
>>>>>>> e1d4bc35ff8a6074a6f2e91616a996b547c36f15
		<tag k="ford" v="yes" />
		<tag k="name" v="Bukonovadet" />
		<tag k="place" v="locality" />
		<tag k="ssr:stedsnr" v="782182" />
	</node>
	<node lat="61.160108329855966" lon="8.962041658927252" id="-20032">
		<tag k="fixme" v="consider highway=path" />
		<tag k="highway" v="track" />
		<tag k="name" v="Movegen" />
		<tag k="ssr:stedsnr" v="782792" />
	</node>
<<<<<<< HEAD
	<node lat="61.246758336695315" lon="8.83832499935451" id="-20086">
=======
	<node id="-403993" lat="61.1678944452" lon="9.06356111507">
>>>>>>> e1d4bc35ff8a6074a6f2e91616a996b547c36f15
		<tag k="bridge" v="yes" />
		<tag k="layer" v="1" />
		<tag k="name" v="Ødegård" />
		<tag k="ssr:stedsnr" v="835243" />
	</node>
<<<<<<< HEAD
	<node lat="61.13176388809187" lon="9.085299996112964" id="-20087">
		<tag k="bridge" v="yes" />
		<tag k="layer" v="1" />
		<tag k="name" v="Tingvang" />
		<tag k="ssr:stedsnr" v="835247" />
	</node>
	<node lat="61.18691666585054" lon="9.029850004155294" id="-20092">
		<tag k="highway" v="path" />
		<tag k="name" v="Movegen" />
		<tag k="ssr:stedsnr" v="843149" />
	</node>
	<node lat="61.07464722281365" lon="9.213211112754317" id="-20095">
		<tag k="fixme" v="consider highway=path" />
		<tag k="highway" v="track" />
		<tag k="name" v="Gamlestølsvegen" />
		<tag k="ssr:stedsnr" v="843227" />
	</node>
	<node lat="61.12413333287771" lon="9.048316665063846" id="-20107">
		<tag k="fixme" v="consider highway=path" />
		<tag k="highway" v="track" />
		<tag k="name" v="Kvamsvegen" />
		<tag k="ssr:stedsnr" v="843449" />
	</node>
	<node lat="61.378219446518315" lon="8.812541666023257" id="-20164">
		<tag k="bridge" v="yes" />
		<tag k="layer" v="1" />
		<tag k="name" v="Flybekken" />
		<tag k="ssr:stedsnr" v="957230" />
=======
	<node id="-402327" lat="61.2539472209" lon="8.95937222239">
		<tag k="ford" v="yes" />
		<tag k="name" v="Skulemeistarvaet" />
		<tag k="place" v="locality" />
		<tag k="ssr:stedsnr" v="236936" />
	</node>
	<node id="-404118" lat="61.2467583367" lon="8.83832499935">
		<tag k="bridge" v="yes" />
		<tag k="layer" v="1" />
		<tag k="name" v="Ødegård" />
		<tag k="ssr:stedsnr" v="835243" />
	</node>
	<node id="-404117" lat="61.1304944469" lon="9.08529722339">
		<tag k="bridge" v="yes" />
		<tag k="layer" v="1" />
		<tag k="name" v="Løken" />
		<tag k="ssr:stedsnr" v="835235" />
	</node>
	<node id="-404119" lat="61.1317638881" lon="9.08529999611">
		<tag k="bridge" v="yes" />
		<tag k="layer" v="1" />
		<tag k="name" v="Tingvang" />
		<tag k="ssr:stedsnr" v="835247" />
	</node>
	<node id="-403464" lat="61.2188305571" lon="8.94440556057">
		<tag k="bridge" v="yes" />
		<tag k="layer" v="1" />
		<tag k="name" v="Okshovd" />
		<tag k="ssr:stedsnr" v="167236" />
>>>>>>> e1d4bc35ff8a6074a6f2e91616a996b547c36f15
	</node>
</osm>
