<?xml version="1.0" encoding="UTF-8"?>
<<<<<<< HEAD
<osm version="0.6" generator="osmapis">
	<node lat="64.9465944417968" lon="12.00847500644805" id="-36974">
		<tag k="name" v="Skaftnes" />
		<tag k="ssr:date" v="2019-12-27" />
		<tag k="ssr:gruppe" v="navigasjon" />
		<tag k="ssr:hovedgruppe" v="infrastruktur" />
		<tag k="ssr:stedsnr" v="75613" />
		<tag k="ssr:type" v="fyrlykt" />
	</node>
	<node lat="64.94004493205821" lon="10.82066926318668" id="-36979">
		<tag k="name" v="Masterskjæret" />
		<tag k="ssr:date" v="2021-06-08" />
		<tag k="ssr:gruppe" v="navigasjon" />
		<tag k="ssr:hovedgruppe" v="infrastruktur" />
		<tag k="ssr:stedsnr" v="75550" />
		<tag k="ssr:type" v="fyrlykt" />
	</node>
	<node lat="64.73556388836857" lon="11.178008329633498" id="-37065">
		<tag k="name" v="Litlkalvøya nordre" />
		<tag k="ssr:date" v="2021-06-08" />
		<tag k="ssr:gruppe" v="navigasjon" />
		<tag k="ssr:hovedgruppe" v="infrastruktur" />
		<tag k="ssr:stedsnr" v="105108" />
		<tag k="ssr:type" v="lanterne" />
	</node>
	<node lat="64.72698247275075" lon="10.854252802574534" id="-37154">
		<tag k="name" v="Gjæslingan fyr" />
		<tag k="ssr:date" v="2021-06-08" />
		<tag k="ssr:gruppe" v="navigasjon" />
		<tag k="ssr:hovedgruppe" v="infrastruktur" />
		<tag k="ssr:stedsnr" v="135954" />
		<tag k="ssr:type" v="fyrstasjon" />
	</node>
	<node lat="65.02182499862106" lon="11.130002769992203" id="-37184">
		<tag k="name" v="Fruflesa" />
=======
<osm generator="osmapis" version="0.6">
	<node id="-830846" lat="64.7532138933" lon="11.1740250017">
		<tag k="name" v="Ormtunga" />
		<tag k="ssr:date" v="2019-12-27" />
		<tag k="ssr:gruppe" v="navigasjon" />
		<tag k="ssr:hovedgruppe" v="infrastruktur" />
		<tag k="ssr:stedsnr" v="924121" />
		<tag k="ssr:type" v="fyrlykt" />
	</node>
	<node id="-828413" lat="64.8292111126" lon="10.5953138952">
		<tag k="name" v="Råholmen" />
		<tag k="ssr:date" v="2019-12-27" />
		<tag k="ssr:gruppe" v="navigasjon" />
		<tag k="ssr:hovedgruppe" v="infrastruktur" />
		<tag k="ssr:stedsnr" v="196633" />
		<tag k="ssr:type" v="fyrlykt" />
	</node>
	<node id="-831866" lat="64.8017361094" lon="10.5265027764">
		<tag k="name" v="Gullfrøholmnakken" />
		<tag k="ssr:date" v="2019-12-27" />
		<tag k="ssr:gruppe" v="navigasjon" />
		<tag k="ssr:hovedgruppe" v="infrastruktur" />
		<tag k="ssr:stedsnr" v="75681" />
		<tag k="ssr:type" v="fyrlykt" />
	</node>
	<node id="-828479" lat="65.002744443" lon="11.5836444474">
		<tag k="name" v="Langøyskjæret" />
		<tag k="ssr:date" v="2019-12-27" />
		<tag k="ssr:gruppe" v="navigasjon" />
		<tag k="ssr:hovedgruppe" v="infrastruktur" />
		<tag k="ssr:stedsnr" v="296558" />
		<tag k="ssr:type" v="lanterne" />
	</node>
	<node id="-828922" lat="64.8360833353" lon="11.0941555568">
		<tag k="name" v="Breivika" />
		<tag k="ssr:date" v="2019-12-27" />
		<tag k="ssr:gruppe" v="veg" />
		<tag k="ssr:hovedgruppe" v="infrastruktur" />
		<tag k="ssr:stedsnr" v="464183" />
		<tag k="ssr:type" v="adressetilleggsnavn" />
	</node>
	<node id="-829558" lat="64.9048527785" lon="10.9431916755">
		<tag k="name" v="Skipeskjærgrunnen" />
		<tag k="ssr:date" v="2019-12-27" />
		<tag k="ssr:gruppe" v="navigasjon" />
		<tag k="ssr:hovedgruppe" v="infrastruktur" />
		<tag k="ssr:stedsnr" v="661544" />
		<tag k="ssr:type" v="lanterne" />
	</node>
	<node id="-829813" lat="64.9751083371" lon="11.1624861014">
		<tag k="name" v="Mantalbyen" />
		<tag k="old_name" v="Manntalbyen" />
		<tag k="ssr:date" v="2019-12-27" />
		<tag k="ssr:gruppe" v="navigasjon" />
		<tag k="ssr:hovedgruppe" v="infrastruktur" />
		<tag k="ssr:stedsnr" v="682745" />
		<tag k="ssr:type" v="fyrlykt" />
	</node>
	<node id="-828788" lat="64.9443861136" lon="12.1947749985">
		<tag k="name" v="Bergsodden" />
		<tag k="ssr:date" v="2019-12-27" />
		<tag k="ssr:gruppe" v="navigasjon" />
		<tag k="ssr:hovedgruppe" v="infrastruktur" />
		<tag k="ssr:stedsnr" v="257616" />
		<tag k="ssr:type" v="fyrlykt" />
	</node>
	<node id="-828414" lat="64.9960833375" lon="11.1199305521">
		<tag k="name" v="Ternholmen" />
		<tag k="ssr:date" v="2019-12-27" />
		<tag k="ssr:gruppe" v="navigasjon" />
		<tag k="ssr:hovedgruppe" v="infrastruktur" />
		<tag k="ssr:stedsnr" v="196708" />
		<tag k="ssr:type" v="fyrlykt" />
	</node>
	<node id="-828179" lat="64.8465361156" lon="10.8267527773">
		<tag k="name" v="Svinøya" />
		<tag k="ssr:date" v="2019-12-27" />
		<tag k="ssr:gruppe" v="navigasjon" />
		<tag k="ssr:hovedgruppe" v="infrastruktur" />
		<tag k="ssr:stedsnr" v="136805" />
		<tag k="ssr:type" v="fyrlykt" />
	</node>
	<node id="-830317" lat="64.8548583292" lon="11.6629555517">
		<tag k="name" v="Bjørnhammaren" />
		<tag k="ssr:date" v="2019-12-27" />
		<tag k="ssr:gruppe" v="navigasjon" />
		<tag k="ssr:hovedgruppe" v="infrastruktur" />
		<tag k="ssr:stedsnr" v="650090" />
		<tag k="ssr:type" v="lanterne" />
	</node>
	<node id="-831596" lat="64.8006472206" lon="11.0540472223">
		<tag k="name" v="Vardeholman" />
		<tag k="ssr:date" v="2019-12-27" />
		<tag k="ssr:gruppe" v="navigasjon" />
		<tag k="ssr:hovedgruppe" v="infrastruktur" />
		<tag k="ssr:stedsnr" v="28757" />
		<tag k="ssr:type" v="fyrlykt" />
	</node>
	<node id="-829607" lat="64.9535944486" lon="11.0320499902">
		<tag k="name" v="Hasfjord" />
		<tag k="ssr:date" v="2019-12-27" />
		<tag k="ssr:gruppe" v="veg" />
		<tag k="ssr:hovedgruppe" v="infrastruktur" />
		<tag k="ssr:stedsnr" v="483218" />
		<tag k="ssr:type" v="adressetilleggsnavn" />
	</node>
	<node id="-831846" lat="65.0038499969" lon="10.8756361164">
		<tag k="name" v="Litlbremøy" />
		<tag k="old_name" v="Bremøy, l;Litle Bremøy" />
		<tag k="ssr:date" v="2019-12-27" />
		<tag k="ssr:gruppe" v="navigasjon" />
		<tag k="ssr:hovedgruppe" v="infrastruktur" />
		<tag k="ssr:stedsnr" v="75626" />
		<tag k="ssr:type" v="fyrlykt" />
	</node>
	<node id="-830085" lat="64.842511113" lon="10.8712916709">
		<tag k="name" v="Bergsnova" />
		<tag k="ssr:date" v="2019-12-27" />
		<tag k="ssr:gruppe" v="veg" />
		<tag k="ssr:hovedgruppe" v="infrastruktur" />
		<tag k="ssr:stedsnr" v="707190" />
		<tag k="ssr:type" v="adressetilleggsnavn" />
	</node>
	<node id="-830436" lat="64.827752782" lon="10.8140916596">
		<tag k="name" v="Sør-Hysskjæret" />
		<tag k="ssr:date" v="2019-12-27" />
		<tag k="ssr:gruppe" v="navigasjon" />
		<tag k="ssr:hovedgruppe" v="infrastruktur" />
		<tag k="ssr:stedsnr" v="682814" />
		<tag k="ssr:type" v="fyrlykt" />
	</node>
	<node id="-830306" lat="64.7881916641" lon="11.0973027687">
		<tag k="name" v="Prestøygalten" />
		<tag k="ssr:date" v="2019-12-27" />
		<tag k="ssr:gruppe" v="navigasjon" />
		<tag k="ssr:hovedgruppe" v="infrastruktur" />
		<tag k="ssr:stedsnr" v="634773" />
		<tag k="ssr:type" v="fyrlykt" />
	</node>
	<node id="-831841" lat="64.9465944418" lon="12.0084750064">
		<tag k="name" v="Skaftnes" />
		<tag k="ssr:date" v="2019-12-27" />
		<tag k="ssr:gruppe" v="navigasjon" />
		<tag k="ssr:hovedgruppe" v="infrastruktur" />
		<tag k="ssr:stedsnr" v="75613" />
		<tag k="ssr:type" v="fyrlykt" />
	</node>
	<node id="-828222" lat="64.8297166625" lon="11.2383861081">
		<tag k="name" v="Nærøyskjæra" />
		<tag k="ssr:date" v="2019-12-27" />
		<tag k="ssr:gruppe" v="navigasjon" />
		<tag k="ssr:hovedgruppe" v="infrastruktur" />
		<tag k="ssr:stedsnr" v="271101" />
		<tag k="ssr:type" v="fyrlykt" />
	</node>
	<node id="-831583" lat="64.8747916635" lon="11.2914472262">
		<tag k="name" v="Haganes" />
		<tag k="ssr:date" v="2019-12-27" />
		<tag k="ssr:gruppe" v="navigasjon" />
		<tag k="ssr:hovedgruppe" v="infrastruktur" />
		<tag k="ssr:stedsnr" v="28090" />
		<tag k="ssr:type" v="fyrlykt" />
	</node>
	<node id="-829531" lat="64.7330305561" lon="10.7764499935">
		<tag k="name" v="Sør-Gjæslingan" />
		<tag k="ssr:date" v="2019-12-27" />
		<tag k="ssr:gruppe" v="navigasjon" />
		<tag k="ssr:hovedgruppe" v="infrastruktur" />
		<tag k="ssr:stedsnr" v="450208" />
		<tag k="ssr:type" v="fyrlykt" />
	</node>
	<node id="-830553" lat="64.7356083297" lon="11.1773611134">
		<tag k="name" v="Krokøya, nordre" />
		<tag k="ssr:date" v="2019-12-27" />
		<tag k="ssr:gruppe" v="navigasjon" />
		<tag k="ssr:hovedgruppe" v="infrastruktur" />
		<tag k="ssr:stedsnr" v="894118" />
		<tag k="ssr:type" v="lanterne" />
	</node>
	<node id="-831192" lat="64.8722083306" lon="11.6878222229">
		<tag k="name" v="Kvalbakkskjæret" />
		<tag k="ssr:date" v="2019-12-27" />
		<tag k="ssr:gruppe" v="navigasjon" />
		<tag k="ssr:hovedgruppe" v="infrastruktur" />
		<tag k="ssr:stedsnr" v="938050" />
		<tag k="ssr:type" v="lanterne" />
	</node>
	<node id="-829910" lat="64.863689751" lon="11.6583910656">
		<tag k="name" v="Korsneset" />
		<tag k="ssr:date" v="2019-12-27" />
		<tag k="ssr:gruppe" v="navigasjon" />
		<tag k="ssr:hovedgruppe" v="infrastruktur" />
		<tag k="ssr:stedsnr" v="539561" />
		<tag k="ssr:type" v="lanterne" />
	</node>
	<node id="-827662" lat="64.9070111088" lon="10.8361055487">
		<tag k="name" v="Vonheim" />
		<tag k="ssr:date" v="2019-12-27" />
		<tag k="ssr:gruppe" v="veg" />
		<tag k="ssr:hovedgruppe" v="infrastruktur" />
		<tag k="ssr:stedsnr" v="222217" />
		<tag k="ssr:type" v="adressetilleggsnavn" />
	</node>
	<node id="-830290" lat="65.0088472258" lon="10.9483944396">
		<tag k="name" v="Måholmen, Nedre" />
>>>>>>> e1d4bc35ff8a6074a6f2e91616a996b547c36f15
		<tag k="ssr:date" v="2019-12-27" />
		<tag k="ssr:gruppe" v="navigasjon" />
		<tag k="ssr:hovedgruppe" v="infrastruktur" />
		<tag k="ssr:stedsnr" v="631999" />
		<tag k="ssr:type" v="fyrlykt" />
	</node>
<<<<<<< HEAD
	<node lat="64.79732141404953" lon="10.544386093981112" id="-37189">
		<tag k="name" v="Surnøya" />
		<tag k="ssr:date" v="2021-06-08" />
		<tag k="ssr:gruppe" v="navigasjon" />
		<tag k="ssr:hovedgruppe" v="infrastruktur" />
		<tag k="ssr:stedsnr" v="136655" />
		<tag k="ssr:type" v="fyrlykt" />
	</node>
	<node lat="64.84653076225418" lon="10.827035066193462" id="-37194">
		<tag k="name" v="Svinøya" />
		<tag k="ssr:date" v="2021-06-08" />
		<tag k="ssr:gruppe" v="navigasjon" />
		<tag k="ssr:hovedgruppe" v="infrastruktur" />
		<tag k="ssr:stedsnr" v="136805" />
		<tag k="ssr:type" v="fyrlykt" />
	</node>
	<node lat="64.75434722122138" lon="10.77047222291461" id="-37357">
		<tag k="name" v="Kvitingen" />
		<tag k="ssr:date" v="2019-12-27" />
		<tag k="ssr:gruppe" v="navigasjon" />
		<tag k="ssr:hovedgruppe" v="infrastruktur" />
		<tag k="ssr:stedsnr" v="257867" />
		<tag k="ssr:type" v="fyrlykt" />
	</node>
	<node lat="64.75430365452684" lon="10.976106274945298" id="-37478">
		<tag k="name" v="Grinna" />
		<tag k="ssr:date" v="2021-06-08" />
		<tag k="ssr:gruppe" v="navigasjon" />
		<tag k="ssr:hovedgruppe" v="infrastruktur" />
		<tag k="ssr:stedsnr" v="196836" />
		<tag k="ssr:type" v="fyrstasjon" />
	</node>
	<node lat="64.99557372272344" lon="11.119264980957716" id="-37485">
		<tag k="name" v="Ternholmen" />
		<tag k="ssr:date" v="2021-06-08" />
		<tag k="ssr:gruppe" v="navigasjon" />
		<tag k="ssr:hovedgruppe" v="infrastruktur" />
		<tag k="ssr:stedsnr" v="196708" />
		<tag k="ssr:type" v="fyrlykt" />
	</node>
	<node lat="64.79845055444315" lon="10.547581103905346" id="-37527">
		<tag k="name" v="Nordøyan fyr" />
		<tag k="old_name" v="Nordøyan" />
		<tag k="ssr:date" v="2020-09-01" />
		<tag k="ssr:gruppe" v="navigasjon" />
		<tag k="ssr:hovedgruppe" v="infrastruktur" />
		<tag k="ssr:stedsnr" v="197669" />
		<tag k="ssr:type" v="fyrstasjon" />
	</node>
	<node lat="64.79794966556125" lon="10.76690323207742" id="-37538">
		<tag k="name" v="Skarvskjæret" />
		<tag k="ssr:date" v="2021-06-08" />
		<tag k="ssr:gruppe" v="navigasjon" />
		<tag k="ssr:hovedgruppe" v="infrastruktur" />
		<tag k="ssr:stedsnr" v="197869" />
		<tag k="ssr:type" v="fyrlykt" />
	</node>
	<node lat="65.02014166788055" lon="10.684558335795098" id="-37578">
		<tag k="name" v="Langfallråsa" />
=======
	<node id="-829700" lat="64.7426555566" lon="11.1114416728">
		<tag k="name" v="Oterholmsund" />
		<tag k="old_name" v="Oterholmssundet" />
		<tag k="ssr:date" v="2019-12-27" />
		<tag k="ssr:gruppe" v="navigasjon" />
		<tag k="ssr:hovedgruppe" v="infrastruktur" />
		<tag k="ssr:stedsnr" v="681937" />
		<tag k="ssr:type" v="fyrlykt" />
	</node>
	<node id="-829104" lat="64.9342611112" lon="11.0541611142">
		<tag k="name" v="Vesthunnesøya" />
		<tag k="ssr:date" v="2019-12-27" />
		<tag k="ssr:gruppe" v="navigasjon" />
		<tag k="ssr:hovedgruppe" v="infrastruktur" />
		<tag k="ssr:stedsnr" v="331645" />
		<tag k="ssr:type" v="lanterne" />
	</node>
	<node id="-830543" lat="64.9188249956" lon="11.3926361135">
		<tag k="name" v="Svinøya" />
		<tag k="ssr:date" v="2019-12-27" />
		<tag k="ssr:gruppe" v="navigasjon" />
		<tag k="ssr:hovedgruppe" v="infrastruktur" />
		<tag k="ssr:stedsnr" v="893213" />
		<tag k="ssr:type" v="lanterne" />
	</node>
	<node id="-831822" lat="64.9400722203" lon="10.820649993">
		<tag k="name" v="Masterskjæret" />
		<tag k="ssr:date" v="2019-12-27" />
		<tag k="ssr:gruppe" v="navigasjon" />
		<tag k="ssr:hovedgruppe" v="infrastruktur" />
		<tag k="ssr:stedsnr" v="75550" />
		<tag k="ssr:type" v="fyrlykt" />
	</node>
	<node id="-829581" lat="64.7330249965" lon="11.1760000086">
		<tag k="name" v="Krokøya, søre" />
		<tag k="ssr:date" v="2019-12-27" />
		<tag k="ssr:gruppe" v="navigasjon" />
		<tag k="ssr:hovedgruppe" v="infrastruktur" />
		<tag k="ssr:stedsnr" v="469102" />
		<tag k="ssr:type" v="lanterne" />
	</node>
	<node id="-831179" lat="64.993088889" lon="10.9827694407">
		<tag k="name" v="Barlaupskjærflu" />
		<tag k="ssr:date" v="2019-12-27" />
		<tag k="ssr:gruppe" v="navigasjon" />
		<tag k="ssr:hovedgruppe" v="infrastruktur" />
		<tag k="ssr:stedsnr" v="833206" />
		<tag k="ssr:type" v="lanterne" />
	</node>
	<node id="-831178" lat="64.9647638913" lon="10.9003777674">
		<tag k="name" v="Hamnholmen nord" />
		<tag k="ssr:date" v="2019-12-27" />
		<tag k="ssr:gruppe" v="navigasjon" />
		<tag k="ssr:hovedgruppe" v="infrastruktur" />
		<tag k="ssr:stedsnr" v="833205" />
		<tag k="ssr:type" v="lanterne" />
	</node>
	<node id="-827889" lat="64.9180750035" lon="11.0201555475">
		<tag k="name" v="Lauvlia" />
		<tag k="ssr:date" v="2019-12-27" />
		<tag k="ssr:gruppe" v="veg" />
		<tag k="ssr:hovedgruppe" v="infrastruktur" />
		<tag k="ssr:stedsnr" v="55158" />
		<tag k="ssr:type" v="adressetilleggsnavn" />
	</node>
	<node id="-830279" lat="64.8449305534" lon="11.1367555557">
		<tag k="name" v="Åkvika" />
		<tag k="ssr:date" v="2019-12-27" />
		<tag k="ssr:gruppe" v="veg" />
		<tag k="ssr:hovedgruppe" v="infrastruktur" />
		<tag k="ssr:stedsnr" v="726131" />
		<tag k="ssr:type" v="adressetilleggsnavn" />
	</node>
	<node id="-830917" lat="64.9479972225" lon="11.4038138846">
		<tag k="name" v="Øvre Gjerdinga" />
		<tag k="ssr:date" v="2019-12-27" />
		<tag k="ssr:gruppe" v="navigasjon" />
		<tag k="ssr:hovedgruppe" v="infrastruktur" />
		<tag k="ssr:stedsnr" v="925232" />
		<tag k="ssr:type" v="fyrlykt" />
	</node>
	<node id="-828740" lat="64.8672277785" lon="11.2595777746">
		<tag k="name" v="Strømøyhauet" />
		<tag k="ssr:date" v="2019-12-27" />
		<tag k="ssr:gruppe" v="navigasjon" />
		<tag k="ssr:hovedgruppe" v="infrastruktur" />
		<tag k="ssr:stedsnr" v="453082" />
		<tag k="ssr:type" v="fyrlykt" />
	</node>
	<node id="-829131" lat="64.9592111089" lon="10.9836083238">
		<tag k="name" v="Tverrøya" />
>>>>>>> e1d4bc35ff8a6074a6f2e91616a996b547c36f15
		<tag k="ssr:date" v="2019-12-27" />
		<tag k="ssr:gruppe" v="sjøbunn" />
		<tag k="ssr:hovedgruppe" v="sjø" />
		<tag k="ssr:stedsnr" v="268920" />
		<tag k="ssr:type" v="renneKløftISjø" />
	</node>
	<node lat="64.95824297369543" lon="11.086001890809897" id="-37631">
		<tag k="name" v="Østhatlandskjæret" />
		<tag k="ssr:date" v="2021-06-08" />
		<tag k="ssr:gruppe" v="navigasjon" />
		<tag k="ssr:hovedgruppe" v="infrastruktur" />
<<<<<<< HEAD
		<tag k="ssr:stedsnr" v="270650" />
		<tag k="ssr:type" v="lanterne" />
	</node>
	<node lat="64.96591111495152" lon="11.13549166612755" id="-37632">
		<tag k="name" v="Hannaholmflaket" />
=======
		<tag k="ssr:stedsnr" v="347202" />
		<tag k="ssr:type" v="lanterne" />
	</node>
	<node id="-830400" lat="64.8491215493" lon="11.1471132904">
		<tag k="name" v="Åkvika" />
>>>>>>> e1d4bc35ff8a6074a6f2e91616a996b547c36f15
		<tag k="ssr:date" v="2019-12-27" />
		<tag k="ssr:gruppe" v="veg" />
		<tag k="ssr:hovedgruppe" v="infrastruktur" />
<<<<<<< HEAD
		<tag k="ssr:stedsnr" v="270651" />
		<tag k="ssr:type" v="fyrlykt" />
	</node>
	<node lat="64.84934444279412" lon="11.203877774853115" id="-37633">
		<tag k="name" v="Indianna Haraldsøs vei" />
=======
		<tag k="ssr:stedsnr" v="665138" />
		<tag k="ssr:type" v="adressetilleggsnavn" />
	</node>
	<node id="-829828" lat="64.811216663" lon="10.9752361119">
		<tag k="name" v="Husvedøya" />
>>>>>>> e1d4bc35ff8a6074a6f2e91616a996b547c36f15
		<tag k="ssr:date" v="2019-12-27" />
		<tag k="ssr:gruppe" v="veg" />
		<tag k="ssr:hovedgruppe" v="infrastruktur" />
<<<<<<< HEAD
		<tag k="ssr:stedsnr" v="220096" />
		<tag k="ssr:type" v="adressenavn" />
	</node>
	<node lat="64.90701110884562" lon="10.836105548720768" id="-37638">
		<tag k="name" v="Vonheim" />
=======
		<tag k="ssr:stedsnr" v="682885" />
		<tag k="ssr:type" v="fyrlykt" />
	</node>
	<node id="-829666" lat="64.803288889" lon="10.5520999908">
		<tag k="name" v="Purkholmen" />
>>>>>>> e1d4bc35ff8a6074a6f2e91616a996b547c36f15
		<tag k="ssr:date" v="2019-12-27" />
		<tag k="ssr:gruppe" v="veg" />
		<tag k="ssr:hovedgruppe" v="infrastruktur" />
<<<<<<< HEAD
		<tag k="ssr:stedsnr" v="222217" />
		<tag k="ssr:type" v="adressetilleggsnavn" />
	</node>
	<node lat="64.82971666252304" lon="11.238386108090394" id="-37642">
		<tag k="name" v="Nærøyskjæra" />
		<tag k="ssr:date" v="2019-12-27" />
		<tag k="ssr:gruppe" v="navigasjon" />
		<tag k="ssr:hovedgruppe" v="infrastruktur" />
		<tag k="ssr:stedsnr" v="271101" />
		<tag k="ssr:type" v="fyrlykt" />
	</node>
	<node lat="64.77278055140351" lon="10.859477772771926" id="-37742">
		<tag k="name" v="Blikkøyråsa" />
		<tag k="ssr:date" v="2019-12-27" />
		<tag k="ssr:gruppe" v="sjøbunn" />
		<tag k="ssr:hovedgruppe" v="sjø" />
		<tag k="ssr:stedsnr" v="453463" />
		<tag k="ssr:type" v="renneKløftISjø" />
	</node>
	<node lat="64.86722777848902" lon="11.259577774575869" id="-37770">
		<tag k="name" v="Strømøyhauet" />
		<tag k="ssr:date" v="2019-12-27" />
		<tag k="ssr:gruppe" v="navigasjon" />
		<tag k="ssr:hovedgruppe" v="infrastruktur" />
		<tag k="ssr:stedsnr" v="453082" />
		<tag k="ssr:type" v="fyrlykt" />
	</node>
	<node lat="64.91763055571754" lon="11.390416676992098" id="-37771">
		<tag k="name" v="Svinøy Østpynt" />
		<tag k="ssr:date" v="2019-12-27" />
		<tag k="ssr:gruppe" v="navigasjon" />
		<tag k="ssr:hovedgruppe" v="infrastruktur" />
		<tag k="ssr:stedsnr" v="453088" />
		<tag k="ssr:type" v="fyrlykt" />
	</node>
	<node lat="64.94438611362773" lon="12.194774998522947" id="-37807">
		<tag k="name" v="Bergsodden" />
		<tag k="ssr:date" v="2019-12-27" />
		<tag k="ssr:gruppe" v="navigasjon" />
		<tag k="ssr:hovedgruppe" v="infrastruktur" />
		<tag k="ssr:stedsnr" v="257616" />
		<tag k="ssr:type" v="fyrlykt" />
	</node>
	<node lat="64.85828611299446" lon="11.229175006538243" id="-37845">
		<tag k="name" v="Vestrørvik Molo" />
=======
		<tag k="ssr:stedsnr" v="500706" />
		<tag k="ssr:type" v="fyrlykt" />
	</node>
	<node id="-829602" lat="64.7209499969" lon="11.1625555503">
		<tag k="name" v="Abelværholmen" />
		<tag k="ssr:date" v="2019-12-27" />
		<tag k="ssr:gruppe" v="navigasjon" />
		<tag k="ssr:hovedgruppe" v="infrastruktur" />
		<tag k="ssr:stedsnr" v="478802" />
		<tag k="ssr:type" v="lanterne" />
	</node>
	<node id="-829959" lat="64.7972027784" lon="11.8228722145">
		<tag k="name" v="Bursvikodden" />
		<tag k="ssr:date" v="2019-12-27" />
		<tag k="ssr:gruppe" v="navigasjon" />
		<tag k="ssr:hovedgruppe" v="infrastruktur" />
		<tag k="ssr:stedsnr" v="695089" />
		<tag k="ssr:type" v="fyrlykt" />
	</node>
	<node id="-830136" lat="64.829033329" lon="11.2366222177">
		<tag k="name" v="Kjerringholmen" />
		<tag k="ssr:date" v="2019-12-27" />
		<tag k="ssr:gruppe" v="navigasjon" />
		<tag k="ssr:hovedgruppe" v="infrastruktur" />
		<tag k="ssr:stedsnr" v="590109" />
		<tag k="ssr:type" v="lanterne" />
	</node>
	<node id="-828215" lat="64.9582361142" lon="11.0859499906">
		<tag k="name" v="Østhatlandskjæret" />
		<tag k="ssr:date" v="2019-12-27" />
		<tag k="ssr:gruppe" v="navigasjon" />
		<tag k="ssr:hovedgruppe" v="infrastruktur" />
		<tag k="ssr:stedsnr" v="270650" />
		<tag k="ssr:type" v="lanterne" />
	</node>
	<node id="-830134" lat="64.8779472219" lon="11.7026111156">
		<tag k="name" v="Ørnholmen" />
>>>>>>> e1d4bc35ff8a6074a6f2e91616a996b547c36f15
		<tag k="ssr:date" v="2019-12-27" />
		<tag k="ssr:gruppe" v="navigasjon" />
		<tag k="ssr:hovedgruppe" v="infrastruktur" />
		<tag k="ssr:stedsnr" v="267995" />
		<tag k="ssr:type" v="fyrlykt" />
	</node>
<<<<<<< HEAD
	<node lat="64.8360833352887" lon="11.094155556757839" id="-37947">
		<tag k="name" v="Breivika" />
		<tag k="ssr:date" v="2021-06-08" />
		<tag k="ssr:gruppe" v="veg" />
		<tag k="ssr:hovedgruppe" v="infrastruktur" />
		<tag k="ssr:stedsnr" v="464183" />
		<tag k="ssr:type" v="adressetilleggsnavn" />
	</node>
	<node lat="64.72746944037583" lon="10.731463895429062" id="-37964">
		<tag k="name" v="Tronflesa" />
		<tag k="ssr:date" v="2019-12-27" />
		<tag k="ssr:gruppe" v="navigasjon" />
		<tag k="ssr:hovedgruppe" v="infrastruktur" />
		<tag k="ssr:stedsnr" v="317948" />
		<tag k="ssr:type" v="fyrlykt" />
	</node>
	<node lat="64.88949721950794" lon="11.31298611900211" id="-38044">
		<tag k="name" v="Kråkøya" />
		<tag k="ssr:date" v="2021-06-08" />
		<tag k="ssr:gruppe" v="navigasjon" />
		<tag k="ssr:hovedgruppe" v="infrastruktur" />
		<tag k="ssr:stedsnr" v="468193" />
		<tag k="ssr:type" v="lanterne" />
	</node>
	<node lat="64.86244031620966" lon="11.276800205977008" id="-38331">
		<tag k="name" v="Haverskjæret" />
		<tag k="ssr:date" v="2021-01-11" />
		<tag k="ssr:gruppe" v="navigasjon" />
		<tag k="ssr:hovedgruppe" v="infrastruktur" />
		<tag k="ssr:stedsnr" v="392089" />
		<tag k="ssr:type" v="fyrlykt" />
	</node>
	<node lat="64.97294749239198" lon="11.528069044054535" id="-38413">
		<tag k="name" v="Risværet" />
		<tag k="ssr:date" v="2021-06-08" />
		<tag k="ssr:gruppe" v="navigasjon" />
		<tag k="ssr:hovedgruppe" v="infrastruktur" />
		<tag k="ssr:stedsnr" v="439098" />
		<tag k="ssr:type" v="fyrlykt" />
	</node>
	<node lat="64.73303055606009" lon="10.77644999354938" id="-38479">
		<tag k="name" v="Sør-Gjæslingan" />
		<tag k="ssr:date" v="2021-06-08" />
=======
	<node id="-827657" lat="64.8493444428" lon="11.2038777749">
		<tag k="name" v="Indianna Haraldsøs vei" />
		<tag k="ssr:date" v="2019-12-27" />
		<tag k="ssr:gruppe" v="veg" />
		<tag k="ssr:hovedgruppe" v="infrastruktur" />
		<tag k="ssr:stedsnr" v="220096" />
		<tag k="ssr:type" v="adressenavn" />
	</node>
	<node id="-829883" lat="64.9045444418" lon="10.9434444384">
		<tag k="name" v="Skipskjærgrunnen" />
		<tag k="ssr:date" v="2019-12-27" />
		<tag k="ssr:gruppe" v="navigasjon" />
		<tag k="ssr:hovedgruppe" v="infrastruktur" />
		<tag k="ssr:stedsnr" v="529206" />
		<tag k="ssr:type" v="lanterne" />
	</node>
	<node id="-830415" lat="65.0031833358" lon="11.7421361114">
		<tag k="name" v="Sjøliodden" />
		<tag k="ssr:date" v="2019-12-27" />
		<tag k="ssr:gruppe" v="navigasjon" />
		<tag k="ssr:hovedgruppe" v="infrastruktur" />
		<tag k="ssr:stedsnr" v="682213" />
		<tag k="ssr:type" v="fyrlykt" />
	</node>
	<node id="-829232" lat="64.941200001" lon="11.4686499958">
		<tag k="name" v="Stongholmgalten" />
		<tag k="ssr:date" v="2019-12-27" />
>>>>>>> e1d4bc35ff8a6074a6f2e91616a996b547c36f15
		<tag k="ssr:gruppe" v="navigasjon" />
		<tag k="ssr:hovedgruppe" v="infrastruktur" />
		<tag k="ssr:stedsnr" v="500233" />
		<tag k="ssr:type" v="fyrlykt" />
	</node>
<<<<<<< HEAD
	<node lat="64.80556110867676" lon="11.202133324924834" id="-38506">
		<tag k="name" v="Oterholmråsa" />
=======
	<node id="-830639" lat="64.9809166704" lon="11.1297527867">
		<tag k="name" v="Auren" />
>>>>>>> e1d4bc35ff8a6074a6f2e91616a996b547c36f15
		<tag k="ssr:date" v="2019-12-27" />
		<tag k="ssr:gruppe" v="sjøbunn" />
		<tag k="ssr:hovedgruppe" v="sjø" />
		<tag k="ssr:stedsnr" v="453112" />
		<tag k="ssr:type" v="renneKløftISjø" />
	</node>
	<node lat="64.73302499649452" lon="11.176000008603085" id="-38529">
		<tag k="name" v="Krokøya, søre" />
		<tag k="ssr:date" v="2021-06-08" />
		<tag k="ssr:gruppe" v="navigasjon" />
		<tag k="ssr:hovedgruppe" v="infrastruktur" />
<<<<<<< HEAD
		<tag k="ssr:stedsnr" v="469102" />
		<tag k="ssr:type" v="lanterne" />
	</node>
	<node lat="64.72094999694407" lon="11.16255555026731" id="-38564">
		<tag k="name" v="Abelværholmen" />
		<tag k="ssr:date" v="2019-12-27" />
		<tag k="ssr:gruppe" v="navigasjon" />
		<tag k="ssr:hovedgruppe" v="infrastruktur" />
		<tag k="ssr:stedsnr" v="478802" />
		<tag k="ssr:type" v="lanterne" />
	</node>
	<node lat="64.85018611038761" lon="11.196711121106745" id="-38574">
		<tag k="name" v="Nordtun" />
		<tag k="ssr:date" v="2019-12-27" />
		<tag k="ssr:gruppe" v="veg" />
		<tag k="ssr:hovedgruppe" v="infrastruktur" />
		<tag k="ssr:stedsnr" v="483214" />
		<tag k="ssr:type" v="adressetilleggsnavn" />
	</node>
	<node lat="64.95359444864523" lon="11.032049990170435" id="-38575">
		<tag k="name" v="Hasfjord" />
=======
		<tag k="ssr:stedsnr" v="722759" />
		<tag k="ssr:type" v="lanterne" />
	</node>
	<node id="-829981" lat="64.9288250018" lon="11.0394611114">
		<tag k="name" v="Kråkhammerflaket" />
		<tag k="ssr:date" v="2019-12-27" />
		<tag k="ssr:gruppe" v="navigasjon" />
		<tag k="ssr:hovedgruppe" v="infrastruktur" />
		<tag k="ssr:stedsnr" v="695646" />
		<tag k="ssr:type" v="fyrlykt" />
	</node>
	<node id="-831623" lat="64.7905249963" lon="11.7740361122">
		<tag k="name" v="Storbrandsøya" />
		<tag k="ssr:date" v="2019-12-27" />
		<tag k="ssr:gruppe" v="navigasjon" />
		<tag k="ssr:hovedgruppe" v="infrastruktur" />
		<tag k="ssr:stedsnr" v="44050" />
		<tag k="ssr:type" v="lanterne" />
	</node>
	<node id="-831527" lat="64.7958372461" lon="11.1368305957">
		<tag k="name" v="Tennholmen" />
>>>>>>> e1d4bc35ff8a6074a6f2e91616a996b547c36f15
		<tag k="ssr:date" v="2019-12-27" />
		<tag k="ssr:gruppe" v="veg" />
		<tag k="ssr:hovedgruppe" v="infrastruktur" />
		<tag k="ssr:stedsnr" v="483218" />
		<tag k="ssr:type" v="adressetilleggsnavn" />
	</node>
	<node lat="64.98231514137098" lon="11.594650209425264" id="-38585">
		<tag k="name" v="Rypån" />
		<tag k="ssr:date" v="2021-06-08" />
		<tag k="ssr:gruppe" v="navigasjon" />
		<tag k="ssr:hovedgruppe" v="infrastruktur" />
		<tag k="ssr:stedsnr" v="15875" />
		<tag k="ssr:type" v="fyrlykt" />
	</node>
<<<<<<< HEAD
	<node lat="64.9411794240083" lon="11.46876865402454" id="-38615">
		<tag k="name" v="Stongholmgalten" />
		<tag k="ssr:date" v="2021-06-08" />
		<tag k="ssr:gruppe" v="navigasjon" />
		<tag k="ssr:hovedgruppe" v="infrastruktur" />
		<tag k="ssr:stedsnr" v="500233" />
		<tag k="ssr:type" v="fyrlykt" />
	</node>
	<node lat="64.80328888896322" lon="10.552099990762873" id="-38651">
		<tag k="name" v="Purkholmen" />
		<tag k="ssr:date" v="2019-12-27" />
		<tag k="ssr:gruppe" v="navigasjon" />
		<tag k="ssr:hovedgruppe" v="infrastruktur" />
		<tag k="ssr:stedsnr" v="500706" />
		<tag k="ssr:type" v="fyrlykt" />
	</node>
	<node lat="64.81036944148525" lon="10.543200005562632" id="-38787">
		<tag k="name" v="Veirskaftet" />
		<tag k="old_name" v="Værskaftet" />
		<tag k="ssr:date" v="2019-12-27" />
		<tag k="ssr:gruppe" v="navigasjon" />
		<tag k="ssr:hovedgruppe" v="infrastruktur" />
		<tag k="ssr:stedsnr" v="682701" />
		<tag k="ssr:type" v="fyrlykt" />
	</node>
	<node lat="64.97510833711864" lon="11.162486101407678" id="-38792">
		<tag k="name" v="Mantalbyen" />
		<tag k="old_name" v="Manntalbyen" />
		<tag k="ssr:date" v="2019-12-27" />
		<tag k="ssr:gruppe" v="navigasjon" />
		<tag k="ssr:hovedgruppe" v="infrastruktur" />
		<tag k="ssr:stedsnr" v="682745" />
		<tag k="ssr:type" v="fyrlykt" />
	</node>
	<node lat="64.81121811186458" lon="10.975332360487027" id="-38832">
		<tag k="name" v="Husvedøya" />
		<tag k="ssr:date" v="2021-06-08" />
		<tag k="ssr:gruppe" v="navigasjon" />
		<tag k="ssr:hovedgruppe" v="infrastruktur" />
		<tag k="ssr:stedsnr" v="682885" />
		<tag k="ssr:type" v="fyrlykt" />
	</node>
	<node lat="64.7625194413708" lon="10.902844454484713" id="-38853">
		<tag k="name" v="Gruva" />
=======
	<node id="-829606" lat="64.8501861104" lon="11.1967111211">
		<tag k="name" v="Nordtun" />
		<tag k="ssr:date" v="2019-12-27" />
		<tag k="ssr:gruppe" v="veg" />
		<tag k="ssr:hovedgruppe" v="infrastruktur" />
		<tag k="ssr:stedsnr" v="483214" />
		<tag k="ssr:type" v="adressetilleggsnavn" />
	</node>
	<node id="-829617" lat="64.9823416646" lon="11.5948361067">
		<tag k="name" v="Rypån" />
		<tag k="ssr:date" v="2019-12-27" />
		<tag k="ssr:gruppe" v="navigasjon" />
		<tag k="ssr:hovedgruppe" v="infrastruktur" />
		<tag k="ssr:stedsnr" v="499104" />
		<tag k="ssr:type" v="fyrlykt" />
	</node>
	<node id="-828216" lat="64.965911115" lon="11.1354916661">
		<tag k="name" v="Hannaholmflaket" />
		<tag k="ssr:date" v="2019-12-27" />
		<tag k="ssr:gruppe" v="navigasjon" />
		<tag k="ssr:hovedgruppe" v="infrastruktur" />
		<tag k="ssr:stedsnr" v="270651" />
		<tag k="ssr:type" v="fyrlykt" />
	</node>
	<node id="-827939" lat="64.8935833311" lon="10.9166194535">
		<tag k="name" v="Dalaneset" />
		<tag k="old_name" v="Daleneset" />
		<tag k="ssr:date" v="2019-12-27" />
		<tag k="ssr:gruppe" v="navigasjon" />
		<tag k="ssr:hovedgruppe" v="infrastruktur" />
		<tag k="ssr:stedsnr" v="88551" />
		<tag k="ssr:type" v="fyrlykt" />
	</node>
	<node id="-829858" lat="64.8556222208" lon="11.2396944356">
		<tag k="name" v="Marøyskjæret" />
		<tag k="ssr:date" v="2019-12-27" />
		<tag k="ssr:gruppe" v="navigasjon" />
		<tag k="ssr:hovedgruppe" v="infrastruktur" />
		<tag k="ssr:stedsnr" v="513078" />
		<tag k="ssr:type" v="lanterne" />
	</node>
	<node id="-827937" lat="64.8849499992" lon="10.9107888792">
		<tag k="name" v="Purkholmgrunnen" />
>>>>>>> e1d4bc35ff8a6074a6f2e91616a996b547c36f15
		<tag k="ssr:date" v="2019-12-27" />
		<tag k="ssr:gruppe" v="sjøbunn" />
		<tag k="ssr:hovedgruppe" v="sjø" />
		<tag k="ssr:stedsnr" v="513772" />
		<tag k="ssr:type" v="søkkISjø" />
	</node>
	<node lat="64.90454444176402" lon="10.943444438399133" id="-38868">
		<tag k="name" v="Skipskjærgrunnen" />
		<tag k="ssr:date" v="2021-06-08" />
		<tag k="ssr:gruppe" v="navigasjon" />
		<tag k="ssr:hovedgruppe" v="infrastruktur" />
<<<<<<< HEAD
		<tag k="ssr:stedsnr" v="529206" />
		<tag k="ssr:type" v="lanterne" />
	</node>
	<node lat="64.86709722558766" lon="11.093222219774649" id="-38927">
		<tag k="name" v="Kleivan" />
=======
		<tag k="ssr:stedsnr" v="88547" />
		<tag k="ssr:type" v="fyrlykt" />
	</node>
	<node id="-830239" lat="64.7911583366" lon="11.1138638963">
		<tag k="name" v="Nordøya" />
>>>>>>> e1d4bc35ff8a6074a6f2e91616a996b547c36f15
		<tag k="ssr:date" v="2019-12-27" />
		<tag k="ssr:gruppe" v="veg" />
		<tag k="ssr:hovedgruppe" v="infrastruktur" />
<<<<<<< HEAD
		<tag k="ssr:stedsnr" v="544185" />
		<tag k="ssr:type" v="adressetilleggsnavn" />
	</node>
	<node lat="64.92882500182579" lon="11.03946111139446" id="-38996">
		<tag k="name" v="Kråkhammerflaket" />
		<tag k="ssr:date" v="2019-12-27" />
		<tag k="ssr:gruppe" v="navigasjon" />
		<tag k="ssr:hovedgruppe" v="infrastruktur" />
		<tag k="ssr:stedsnr" v="695646" />
		<tag k="ssr:type" v="fyrlykt" />
	</node>
	<node lat="64.79720277843411" lon="11.822872214528761" id="-39061">
		<tag k="name" v="Bursvikodden" />
		<tag k="ssr:date" v="2019-12-27" />
		<tag k="ssr:gruppe" v="navigasjon" />
		<tag k="ssr:hovedgruppe" v="infrastruktur" />
		<tag k="ssr:stedsnr" v="695089" />
		<tag k="ssr:type" v="fyrlykt" />
	</node>
	<node lat="64.95884444307738" lon="10.71094722266001" id="-39144">
		<tag k="name" v="Nordre Granskjær" />
		<tag k="ssr:date" v="2021-06-08" />
		<tag k="ssr:gruppe" v="navigasjon" />
		<tag k="ssr:hovedgruppe" v="infrastruktur" />
		<tag k="ssr:stedsnr" v="599552" />
		<tag k="ssr:type" v="lanterne" />
	</node>
	<node lat="64.77889004879758" lon="11.173990251014247" id="-39145">
		<tag k="name" v="Bertillen" />
		<tag k="ssr:date" v="2020-09-10" />
		<tag k="ssr:gruppe" v="navigasjon" />
		<tag k="ssr:hovedgruppe" v="infrastruktur" />
		<tag k="ssr:stedsnr" v="600756" />
		<tag k="ssr:type" v="fyrlykt" />
	</node>
	<node lat="64.9544143224957" lon="11.393935289108736" id="-39170">
		<tag k="name" v="Gjerdinga nedre" />
		<tag k="ssr:date" v="2021-06-08" />
		<tag k="ssr:gruppe" v="navigasjon" />
		<tag k="ssr:hovedgruppe" v="infrastruktur" />
		<tag k="ssr:stedsnr" v="621166" />
		<tag k="ssr:type" v="fyrlykt" />
	</node>
	<node lat="64.78109970382413" lon="11.446590689462562" id="-39235">
		<tag k="name" v="Torlandssundet" />
		<tag k="ssr:date" v="2021-06-08" />
		<tag k="ssr:gruppe" v="navigasjon" />
		<tag k="ssr:hovedgruppe" v="infrastruktur" />
		<tag k="ssr:stedsnr" v="621777" />
		<tag k="ssr:type" v="fyrlykt" />
	</node>
	<node lat="64.84251111302464" lon="10.871291670940183" id="-39287">
		<tag k="name" v="Bergsnova" />
		<tag k="ssr:date" v="2021-06-08" />
		<tag k="ssr:gruppe" v="veg" />
		<tag k="ssr:hovedgruppe" v="infrastruktur" />
		<tag k="ssr:stedsnr" v="707190" />
		<tag k="ssr:type" v="adressetilleggsnavn" />
	</node>
	<node lat="64.96150000336559" lon="10.900783327976676" id="-39299">
		<tag k="name" v="Hamnholmen sør" />
		<tag k="ssr:date" v="2021-06-08" />
		<tag k="ssr:gruppe" v="navigasjon" />
		<tag k="ssr:hovedgruppe" v="infrastruktur" />
		<tag k="ssr:stedsnr" v="651215" />
		<tag k="ssr:type" v="lanterne" />
	</node>
	<node lat="64.84912154930163" lon="11.147113290447122" id="-39367">
		<tag k="name" v="Åkvika" />
		<tag k="ssr:date" v="2021-06-08" />
		<tag k="ssr:gruppe" v="veg" />
		<tag k="ssr:hovedgruppe" v="infrastruktur" />
		<tag k="ssr:stedsnr" v="665138" />
		<tag k="ssr:type" v="adressetilleggsnavn" />
	</node>
	<node lat="64.7426364845111" lon="11.110624497229107" id="-39384">
		<tag k="name" v="Oterholmsund" />
		<tag k="old_name" v="Oterholmssundet" />
		<tag k="ssr:date" v="2020-09-10" />
		<tag k="ssr:gruppe" v="navigasjon" />
		<tag k="ssr:hovedgruppe" v="infrastruktur" />
		<tag k="ssr:stedsnr" v="681937" />
		<tag k="ssr:type" v="fyrlykt" />
	</node>
	<node lat="65.00327980955598" lon="11.742457368307665" id="-39390">
		<tag k="name" v="Sjøliodden" />
		<tag k="ssr:date" v="2020-09-10" />
		<tag k="ssr:gruppe" v="navigasjon" />
		<tag k="ssr:hovedgruppe" v="infrastruktur" />
		<tag k="ssr:stedsnr" v="682213" />
		<tag k="ssr:type" v="fyrlykt" />
	</node>
	<node lat="64.82774068133348" lon="10.814322629548307" id="-39432">
		<tag k="name" v="Sør-Hysskjæret" />
		<tag k="ssr:date" v="2021-06-08" />
		<tag k="ssr:gruppe" v="navigasjon" />
		<tag k="ssr:hovedgruppe" v="infrastruktur" />
		<tag k="ssr:stedsnr" v="682814" />
		<tag k="ssr:type" v="fyrlykt" />
	</node>
	<node lat="64.7356083296619" lon="11.177361113438982" id="-39457">
		<tag k="name" v="Krokøya, nordre" />
		<tag k="ssr:date" v="2021-06-08" />
		<tag k="ssr:gruppe" v="navigasjon" />
		<tag k="ssr:hovedgruppe" v="infrastruktur" />
		<tag k="ssr:stedsnr" v="894118" />
		<tag k="ssr:type" v="lanterne" />
	</node>
	<node lat="64.85842499925216" lon="11.230622212124056" id="-39720">
		<tag k="name" v="Østrørvik Molo" />
=======
		<tag k="ssr:stedsnr" v="722793" />
		<tag k="ssr:type" v="lanterne" />
	</node>
	<node id="-828062" lat="64.7543472212" lon="10.7704722229">
		<tag k="name" v="Kvitingen" />
		<tag k="ssr:date" v="2019-12-27" />
		<tag k="ssr:gruppe" v="navigasjon" />
		<tag k="ssr:hovedgruppe" v="infrastruktur" />
		<tag k="ssr:stedsnr" v="257867" />
		<tag k="ssr:type" v="fyrlykt" />
	</node>
	<node id="-830621" lat="64.8779083331" lon="11.7027138849">
		<tag k="name" v="Ørholman" />
		<tag k="ssr:date" v="2019-12-27" />
		<tag k="ssr:gruppe" v="navigasjon" />
		<tag k="ssr:hovedgruppe" v="infrastruktur" />
		<tag k="ssr:stedsnr" v="721568" />
		<tag k="ssr:type" v="lanterne" />
	</node>
	<node id="-831259" lat="64.7394138923" lon="10.7769027798">
		<tag k="name" v="Heimværet" />
		<tag k="ssr:date" v="2019-12-27" />
		<tag k="ssr:gruppe" v="navigasjon" />
		<tag k="ssr:hovedgruppe" v="infrastruktur" />
		<tag k="ssr:stedsnr" v="870408" />
		<tag k="ssr:type" v="fyrlykt" />
	</node>
	<node id="-831258" lat="64.9673416652" lon="12.0976416707">
		<tag k="name" v="Østre Skjølstad" />
		<tag k="ssr:date" v="2019-12-27" />
		<tag k="ssr:gruppe" v="navigasjon" />
		<tag k="ssr:hovedgruppe" v="infrastruktur" />
		<tag k="ssr:stedsnr" v="946305" />
		<tag k="ssr:type" v="fyrlykt" />
	</node>
	<node id="-830359" lat="64.8010249968" lon="11.2761861134">
		<tag k="name" v="Litlarnøya" />
		<tag k="ssr:date" v="2019-12-27" />
		<tag k="ssr:gruppe" v="navigasjon" />
		<tag k="ssr:hovedgruppe" v="infrastruktur" />
		<tag k="ssr:stedsnr" v="877227" />
		<tag k="ssr:type" v="fyrlykt" />
	</node>
	<node id="-828950" lat="64.8894972195" lon="11.312986119">
		<tag k="name" v="Kråkøya" />
		<tag k="ssr:date" v="2019-12-27" />
		<tag k="ssr:gruppe" v="navigasjon" />
		<tag k="ssr:hovedgruppe" v="infrastruktur" />
		<tag k="ssr:stedsnr" v="468193" />
		<tag k="ssr:type" v="lanterne" />
	</node>
	<node id="-829331" lat="64.8199611079" lon="10.7394194502">
		<tag k="name" v="Purkholmen" />
		<tag k="ssr:date" v="2019-12-27" />
		<tag k="ssr:gruppe" v="navigasjon" />
		<tag k="ssr:hovedgruppe" v="infrastruktur" />
		<tag k="ssr:stedsnr" v="500817" />
		<tag k="ssr:type" v="fyrlykt" />
	</node>
	<node id="-830737" lat="64.9125444447" lon="11.3674138786">
		<tag k="name" v="Hummulråsa" />
		<tag k="ssr:date" v="2019-12-27" />
		<tag k="ssr:gruppe" v="navigasjon" />
		<tag k="ssr:hovedgruppe" v="infrastruktur" />
		<tag k="ssr:stedsnr" v="743053" />
		<tag k="ssr:type" v="fyrlykt" />
	</node>
	<node id="-828130" lat="64.858286113" lon="11.2291750065">
		<tag k="name" v="Vestrørvik Molo" />
		<tag k="ssr:date" v="2019-12-27" />
		<tag k="ssr:gruppe" v="navigasjon" />
		<tag k="ssr:hovedgruppe" v="infrastruktur" />
		<tag k="ssr:stedsnr" v="267995" />
		<tag k="ssr:type" v="fyrlykt" />
	</node>
	<node id="-829805" lat="64.8103694415" lon="10.5432000056">
		<tag k="name" v="Veirskaftet" />
		<tag k="old_name" v="Værskaftet" />
		<tag k="ssr:date" v="2019-12-27" />
		<tag k="ssr:gruppe" v="navigasjon" />
		<tag k="ssr:hovedgruppe" v="infrastruktur" />
		<tag k="ssr:stedsnr" v="682701" />
		<tag k="ssr:type" v="fyrlykt" />
	</node>
	<node id="-828172" lat="65.0218249986" lon="11.13000277">
		<tag k="name" v="Fruflesa" />
		<tag k="ssr:date" v="2019-12-27" />
		<tag k="ssr:gruppe" v="navigasjon" />
		<tag k="ssr:hovedgruppe" v="infrastruktur" />
		<tag k="ssr:stedsnr" v="136605" />
		<tag k="ssr:type" v="fyrlykt" />
	</node>
	<node id="-828554" lat="65.1266638858" lon="10.9786583396">
		<tag k="name" v="Jakobsflesa" />
>>>>>>> e1d4bc35ff8a6074a6f2e91616a996b547c36f15
		<tag k="ssr:date" v="2019-12-27" />
		<tag k="ssr:gruppe" v="navigasjon" />
		<tag k="ssr:hovedgruppe" v="infrastruktur" />
		<tag k="ssr:stedsnr" v="439589" />
		<tag k="ssr:type" v="fyrlykt" />
	</node>
<<<<<<< HEAD
	<node lat="65.03798889023724" lon="10.674447232155316" id="-39896">
		<tag k="name" v="Baugrunnråsa" />
		<tag k="ssr:date" v="2019-12-27" />
		<tag k="ssr:gruppe" v="sjøbunn" />
		<tag k="ssr:hovedgruppe" v="sjø" />
		<tag k="ssr:stedsnr" v="814921" />
		<tag k="ssr:type" v="renneKløftISjø" />
	</node>
	<node lat="64.96476389132732" lon="10.900377767387758" id="-39925">
		<tag k="name" v="Hamnholmen nord" />
		<tag k="ssr:date" v="2021-06-08" />
		<tag k="ssr:gruppe" v="navigasjon" />
		<tag k="ssr:hovedgruppe" v="infrastruktur" />
		<tag k="ssr:stedsnr" v="833205" />
		<tag k="ssr:type" v="lanterne" />
	</node>
	<node lat="64.99308888901443" lon="10.982769440708518" id="-39926">
		<tag k="name" v="Barlaupskjærflu" />
		<tag k="ssr:date" v="2021-06-08" />
		<tag k="ssr:gruppe" v="navigasjon" />
		<tag k="ssr:hovedgruppe" v="infrastruktur" />
		<tag k="ssr:stedsnr" v="833206" />
		<tag k="ssr:type" v="lanterne" />
	</node>
	<node lat="64.95904176919753" lon="10.957794152516652" id="-40032">
		<tag k="name" v="Råbandsholmen" />
		<tag k="ssr:date" v="2020-09-01" />
		<tag k="ssr:gruppe" v="navigasjon" />
		<tag k="ssr:hovedgruppe" v="infrastruktur" />
		<tag k="ssr:stedsnr" v="844779" />
		<tag k="ssr:type" v="lanterne" />
	</node>
	<node lat="64.94788726669678" lon="11.403938810573921" id="-40038">
		<tag k="name" v="Øvre Gjerdinga" />
		<tag k="ssr:date" v="2021-06-08" />
		<tag k="ssr:gruppe" v="navigasjon" />
		<tag k="ssr:hovedgruppe" v="infrastruktur" />
		<tag k="ssr:stedsnr" v="925232" />
		<tag k="ssr:type" v="fyrlykt" />
	</node>
	<node lat="64.9166821821031" lon="11.394472219176109" id="-40130">
		<tag k="name" v="Svinstien" />
		<tag k="ssr:date" v="2021-06-08" />
		<tag k="ssr:gruppe" v="navigasjon" />
		<tag k="ssr:hovedgruppe" v="infrastruktur" />
		<tag k="ssr:stedsnr" v="864005" />
		<tag k="ssr:type" v="fyrlykt" />
	</node>
	<node lat="64.73973361714333" lon="10.776103236271384" id="-40157">
		<tag k="name" v="Heimværet" />
		<tag k="ssr:date" v="2021-06-08" />
		<tag k="ssr:gruppe" v="navigasjon" />
		<tag k="ssr:hovedgruppe" v="infrastruktur" />
		<tag k="ssr:stedsnr" v="870408" />
		<tag k="ssr:type" v="fyrlykt" />
	</node>
	<node lat="65.00816944883186" lon="10.802905560893496" id="-40159">
		<tag k="name" v="Lønnafallræset" />
=======
	<node id="-827661" lat="64.9043805553" lon="11.2962555647">
		<tag k="name" v="Storvika" />
		<tag k="ssr:date" v="2019-12-27" />
		<tag k="ssr:gruppe" v="veg" />
		<tag k="ssr:hovedgruppe" v="infrastruktur" />
		<tag k="ssr:stedsnr" v="222148" />
		<tag k="ssr:type" v="adressetilleggsnavn" />
	</node>
	<node id="-830727" lat="65.0165416693" lon="11.5997555566">
		<tag k="name" v="Storkvitholmen" />
		<tag k="ssr:date" v="2019-12-27" />
		<tag k="ssr:gruppe" v="navigasjon" />
		<tag k="ssr:hovedgruppe" v="infrastruktur" />
		<tag k="ssr:stedsnr" v="742863" />
		<tag k="ssr:type" v="fyrlykt" />
	</node>
	<node id="-830213" lat="64.7800305538" lon="11.178644452">
		<tag k="name" v="Bertillen" />
		<tag k="ssr:date" v="2019-12-27" />
		<tag k="ssr:gruppe" v="navigasjon" />
		<tag k="ssr:hovedgruppe" v="infrastruktur" />
		<tag k="ssr:stedsnr" v="600756" />
		<tag k="ssr:type" v="fyrlykt" />
	</node>
	<node id="-831748" lat="64.9058583364" lon="10.9698805643">
		<tag k="name" v="Kvernvika" />
		<tag k="ssr:date" v="2019-12-27" />
		<tag k="ssr:gruppe" v="veg" />
		<tag k="ssr:hovedgruppe" v="infrastruktur" />
		<tag k="ssr:stedsnr" v="59115" />
		<tag k="ssr:type" v="adressetilleggsnavn" />
	</node>
	<node id="-829526" lat="64.7905888898" lon="11.2170361177">
		<tag k="name" v="Tranøyholmen" />
>>>>>>> e1d4bc35ff8a6074a6f2e91616a996b547c36f15
		<tag k="ssr:date" v="2019-12-27" />
		<tag k="ssr:gruppe" v="sjøbunn" />
		<tag k="ssr:hovedgruppe" v="sjø" />
		<tag k="ssr:stedsnr" v="875904" />
		<tag k="ssr:type" v="renneKløftISjø" />
	</node>
	<node lat="64.91882499563499" lon="11.392636113498547" id="-40205">
		<tag k="name" v="Svinøya" />
		<tag k="ssr:date" v="2021-06-08" />
		<tag k="ssr:gruppe" v="navigasjon" />
		<tag k="ssr:hovedgruppe" v="infrastruktur" />
<<<<<<< HEAD
		<tag k="ssr:stedsnr" v="893213" />
		<tag k="ssr:type" v="lanterne" />
	</node>
	<node lat="64.75324292117084" lon="11.174168560792081" id="-40281">
		<tag k="name" v="Ormtunga" />
		<tag k="ssr:date" v="2021-06-08" />
		<tag k="ssr:gruppe" v="navigasjon" />
		<tag k="ssr:hovedgruppe" v="infrastruktur" />
		<tag k="ssr:stedsnr" v="924121" />
=======
		<tag k="ssr:stedsnr" v="660761" />
		<tag k="ssr:type" v="lanterne" />
	</node>
	<node id="-830210" lat="64.9588444431" lon="10.7109472227">
		<tag k="name" v="Nordre Granskjær" />
		<tag k="ssr:date" v="2019-12-27" />
		<tag k="ssr:gruppe" v="navigasjon" />
		<tag k="ssr:hovedgruppe" v="infrastruktur" />
		<tag k="ssr:stedsnr" v="599552" />
		<tag k="ssr:type" v="lanterne" />
	</node>
	<node id="-828741" lat="64.9176305557" lon="11.390416677">
		<tag k="name" v="Svinøy Østpynt" />
		<tag k="ssr:date" v="2019-12-27" />
		<tag k="ssr:gruppe" v="navigasjon" />
		<tag k="ssr:hovedgruppe" v="infrastruktur" />
		<tag k="ssr:stedsnr" v="453088" />
>>>>>>> e1d4bc35ff8a6074a6f2e91616a996b547c36f15
		<tag k="ssr:type" v="fyrlykt" />
	</node>
</osm>
