<?xml version="1.0" encoding="UTF-8"?>
<osm generator="osmapis" version="0.6">
	<node id="-233854" lat="59.6261083306" lon="10.7796694448">
		<tag k="old_name" v="Tveter holdeplass" />
		<tag k="railway" v="halt" />
		<tag k="ssr:date" v="2019-12-27" />
		<tag k="ssr:gruppe" v="bane" />
		<tag k="ssr:hovedgruppe" v="infrastruktur" />
		<tag k="ssr:stedsnr" v="447763" />
		<tag k="ssr:type" v="holdeplass" />
		<tag k="train" v="yes" />
	</node>
	<node id="-234011" lat="59.5228805567" lon="10.6872861062">
		<tag k="highway" v="path" />
		<tag k="loc_name" v="Olla" />
		<tag k="ssr:date" v="2019-12-27" />
		<tag k="ssr:gruppe" v="veg" />
		<tag k="ssr:hovedgruppe" v="infrastruktur" />
		<tag k="ssr:stedsnr" v="603023" />
		<tag k="ssr:type" v="sti" />
	</node>
	<node id="-234231" lat="59.5854333313" lon="10.6589999932">
		<tag k="old_name" v="Holen" />
		<tag k="place" v="hamlet" />
		<tag k="ssr:date" v="2019-12-27" />
		<tag k="ssr:gruppe" v="bebyggelsesområder" />
		<tag k="ssr:hovedgruppe" v="bebyggelse" />
		<tag k="ssr:stedsnr" v="178951" />
		<tag k="ssr:type" v="grend" />
	</node>
	<node id="-234481" lat="59.5978878971" lon="10.8110901649">
		<tag k="loc_name" v="Skaugrom;Skaurom" />
		<tag k="place" v="locality" />
		<tag k="ssr:date" v="2019-12-27" />
		<tag k="ssr:gruppe" v="bolighus" />
		<tag k="ssr:hovedgruppe" v="bebyggelse" />
		<tag k="ssr:stedsnr" v="974761" />
		<tag k="ssr:type" v="gammelBosettingsplass" />
	</node>
	<node id="-233870" lat="59.6162166685" lon="10.7439333368">
		<tag k="old_name" v="Igla" />
		<tag k="place" v="quarter" />
		<tag k="ssr:date" v="2019-12-27" />
		<tag k="ssr:gruppe" v="bebyggelsesområder" />
		<tag k="ssr:hovedgruppe" v="bebyggelse" />
		<tag k="ssr:stedsnr" v="306327" />
		<tag k="ssr:type" v="boligfelt" />
	</node>
	<node id="-234061" lat="59.5181694435" lon="10.7256527818">
		<tag k="old_name" v="Ulfski vestre;Vestre Ulfski" />
		<tag k="place" v="farm" />
		<tag k="ssr:date" v="2019-12-27" />
		<tag k="ssr:gruppe" v="gardsbebyggelse" />
		<tag k="ssr:hovedgruppe" v="bebyggelse" />
		<tag k="ssr:stedsnr" v="750113" />
		<tag k="ssr:type" v="bruk" />
	</node>
	<node id="-234151" lat="59.5586555565" lon="10.720522218">
		<tag k="old_name" v="Kjennsmyr" />
		<tag k="place" v="farm" />
		<tag k="ssr:date" v="2019-12-27" />
		<tag k="ssr:gruppe" v="gardsbebyggelse" />
		<tag k="ssr:hovedgruppe" v="bebyggelse" />
		<tag k="ssr:stedsnr" v="22199" />
		<tag k="ssr:type" v="bruk" />
	</node>
</osm>
