<?xml version="1.0" encoding="UTF-8"?>
<osm version="0.6" generator="osmapis">
	<node lat="59.59464956042359" lon="10.694987269400848" id="-27454">
		<tag k="name" v="Filtvetlia" />
		<tag k="ssr:date" v="2019-12-27" />
		<tag k="ssr:gruppe" v="veg" />
		<tag k="ssr:hovedgruppe" v="infrastruktur" />
		<tag k="ssr:stedsnr" v="59216" />
		<tag k="ssr:type" v="adressenavn" />
	</node>
	<node lat="59.585546733014034" lon="10.70022345301422" id="-27455">
		<tag k="name" v="Bergsvingen" />
		<tag k="ssr:date" v="2019-12-27" />
		<tag k="ssr:gruppe" v="veg" />
		<tag k="ssr:hovedgruppe" v="infrastruktur" />
		<tag k="ssr:stedsnr" v="59676" />
		<tag k="ssr:type" v="adressenavn" />
	</node>
	<node lat="59.50965913680791" lon="10.692624612723716" id="-27458">
		<tag k="name" v="Sonsledet" />
		<tag k="ssr:date" v="2019-12-27" />
		<tag k="ssr:gruppe" v="veg" />
		<tag k="ssr:hovedgruppe" v="infrastruktur" />
		<tag k="ssr:stedsnr" v="60806" />
		<tag k="ssr:type" v="adressenavn" />
	</node>
	<node lat="59.54076908548742" lon="10.744594213217765" id="-27459">
		<tag k="name" v="Riulfsbakken" />
		<tag k="ssr:date" v="2019-12-27" />
		<tag k="ssr:gruppe" v="veg" />
		<tag k="ssr:hovedgruppe" v="infrastruktur" />
		<tag k="ssr:stedsnr" v="60813" />
		<tag k="ssr:type" v="adressenavn" />
	</node>
	<node lat="59.542612717935405" lon="10.666550294559975" id="-27460">
		<tag k="name" v="Krokstrandveien" />
		<tag k="ssr:date" v="2019-12-27" />
		<tag k="ssr:gruppe" v="veg" />
		<tag k="ssr:hovedgruppe" v="infrastruktur" />
		<tag k="ssr:stedsnr" v="60702" />
		<tag k="ssr:type" v="adressenavn" />
	</node>
	<node lat="59.58259221486139" lon="10.827781449121805" id="-27461">
		<tag k="name" v="Hovumveien" />
		<tag k="ssr:date" v="2019-12-27" />
		<tag k="ssr:gruppe" v="veg" />
		<tag k="ssr:hovedgruppe" v="infrastruktur" />
		<tag k="ssr:stedsnr" v="60724" />
		<tag k="ssr:type" v="adressenavn" />
	</node>
	<node lat="59.538070237118696" lon="10.672606370567154" id="-27472">
		<tag k="name" v="Brattbakkveien" />
		<tag k="ssr:date" v="2019-12-27" />
		<tag k="ssr:gruppe" v="veg" />
		<tag k="ssr:hovedgruppe" v="infrastruktur" />
		<tag k="ssr:stedsnr" v="241661" />
		<tag k="ssr:type" v="adressenavn" />
	</node>
	<node lat="59.53181016913914" lon="10.691135748124003" id="-27475">
		<tag k="name" v="Kolåstjernveien" />
		<tag k="ssr:date" v="2019-12-27" />
		<tag k="ssr:gruppe" v="veg" />
		<tag k="ssr:hovedgruppe" v="infrastruktur" />
		<tag k="ssr:stedsnr" v="242693" />
		<tag k="ssr:type" v="adressenavn" />
	</node>
	<node lat="59.59179543851933" lon="10.706295024930435" id="-27477">
		<tag k="name" v="Bjørnestadveien" />
		<tag k="ssr:date" v="2019-12-27" />
		<tag k="ssr:gruppe" v="veg" />
		<tag k="ssr:hovedgruppe" v="infrastruktur" />
		<tag k="ssr:stedsnr" v="242729" />
		<tag k="ssr:type" v="adressenavn" />
	</node>
	<node lat="59.52032298972437" lon="10.68619505916121" id="-27481">
		<tag k="name" v="Stenløkka" />
		<tag k="ssr:date" v="2019-12-27" />
		<tag k="ssr:gruppe" v="veg" />
		<tag k="ssr:hovedgruppe" v="infrastruktur" />
		<tag k="ssr:stedsnr" v="242769" />
		<tag k="ssr:type" v="adressenavn" />
	</node>
	<node lat="59.61134445706594" lon="10.653257215908395" id="-27484">
		<tag k="name" v="Søndre Pyttskogvei" />
		<tag k="ssr:date" v="2019-12-27" />
		<tag k="ssr:gruppe" v="veg" />
		<tag k="ssr:hovedgruppe" v="infrastruktur" />
		<tag k="ssr:stedsnr" v="242777" />
		<tag k="ssr:type" v="adressenavn" />
	</node>
	<node lat="59.583584448517136" lon="10.70263036752148" id="-27505">
		<tag k="name" v="Bentsebingen" />
		<tag k="ssr:date" v="2019-12-27" />
		<tag k="ssr:gruppe" v="veg" />
		<tag k="ssr:hovedgruppe" v="infrastruktur" />
		<tag k="ssr:stedsnr" v="120671" />
		<tag k="ssr:type" v="adressenavn" />
	</node>
	<node lat="59.508733512153654" lon="10.685569130207835" id="-27506">
		<tag k="name" v="Furustubben" />
		<tag k="ssr:date" v="2019-12-27" />
		<tag k="ssr:gruppe" v="veg" />
		<tag k="ssr:hovedgruppe" v="infrastruktur" />
		<tag k="ssr:stedsnr" v="120717" />
		<tag k="ssr:type" v="adressenavn" />
	</node>
	<node lat="59.51614216211461" lon="10.728749089801774" id="-27521">
		<tag k="name" v="Sonsveien" />
		<tag k="ssr:date" v="2019-12-27" />
		<tag k="ssr:gruppe" v="veg" />
		<tag k="ssr:hovedgruppe" v="infrastruktur" />
		<tag k="ssr:stedsnr" v="181803" />
		<tag k="ssr:type" v="adressenavn" />
	</node>
	<node lat="59.70190555714932" lon="10.923388886075552" id="-27526">
		<tag k="name" v="Follo" />
		<tag k="ssr:date" v="2019-12-27" />
		<tag k="ssr:gruppe" v="terrengområder" />
		<tag k="ssr:hovedgruppe" v="terreng" />
		<tag k="ssr:stedsnr" v="267868" />
		<tag k="ssr:type" v="landskapsområde" />
	</node>
	<node lat="59.57795282482" lon="10.735697107177275" id="-27558">
		<tag k="name" v="Vestliveien" />
		<tag k="ssr:date" v="2019-12-27" />
		<tag k="ssr:gruppe" v="veg" />
		<tag k="ssr:hovedgruppe" v="infrastruktur" />
		<tag k="ssr:stedsnr" v="303802" />
		<tag k="ssr:type" v="adressenavn" />
	</node>
	<node lat="59.58831923478229" lon="10.66456252880379" id="-27580">
		<tag k="name" v="Furukollen" />
		<tag k="ssr:date" v="2019-12-27" />
		<tag k="ssr:gruppe" v="veg" />
		<tag k="ssr:hovedgruppe" v="infrastruktur" />
		<tag k="ssr:stedsnr" v="363702" />
		<tag k="ssr:type" v="adressenavn" />
	</node>
	<node lat="59.62495834828932" lon="10.775706877373622" id="-27581">
		<tag k="name" v="Tveterveien" />
		<tag k="ssr:date" v="2019-12-27" />
		<tag k="ssr:gruppe" v="veg" />
		<tag k="ssr:hovedgruppe" v="infrastruktur" />
		<tag k="ssr:stedsnr" v="363758" />
		<tag k="ssr:type" v="adressenavn" />
	</node>
	<node lat="59.59022856004467" lon="10.65989615812247" id="-27582">
		<tag k="name" v="Ødegårdsveien" />
		<tag k="ssr:date" v="2019-12-27" />
		<tag k="ssr:gruppe" v="veg" />
		<tag k="ssr:hovedgruppe" v="infrastruktur" />
		<tag k="ssr:stedsnr" v="363763" />
		<tag k="ssr:type" v="adressenavn" />
	</node>
	<node lat="59.5229308852605" lon="10.694644064031175" id="-27608">
		<tag k="name" v="Bernhoffløkka" />
		<tag k="ssr:date" v="2019-12-27" />
		<tag k="ssr:gruppe" v="veg" />
		<tag k="ssr:hovedgruppe" v="infrastruktur" />
		<tag k="ssr:stedsnr" v="484684" />
		<tag k="ssr:type" v="adressenavn" />
	</node>
	<node lat="59.56497805089348" lon="10.829755638804123" id="-27609">
		<tag k="name" v="Nummestadveien" />
		<tag k="ssr:date" v="2019-12-27" />
		<tag k="ssr:gruppe" v="veg" />
		<tag k="ssr:hovedgruppe" v="infrastruktur" />
		<tag k="ssr:stedsnr" v="484701" />
		<tag k="ssr:type" v="adressenavn" />
	</node>
	<node lat="59.530507221636746" lon="10.687583497203597" id="-27613">
		<tag k="name" v="Saltbuveien" />
		<tag k="ssr:date" v="2019-12-27" />
		<tag k="ssr:gruppe" v="veg" />
		<tag k="ssr:hovedgruppe" v="infrastruktur" />
		<tag k="ssr:stedsnr" v="485647" />
		<tag k="ssr:type" v="adressenavn" />
	</node>
	<node lat="59.515178274373" lon="10.685151465430451" id="-27614">
		<tag k="name" v="Sagbruksveien" />
		<tag k="ssr:date" v="2019-12-27" />
		<tag k="ssr:gruppe" v="veg" />
		<tag k="ssr:hovedgruppe" v="infrastruktur" />
		<tag k="ssr:stedsnr" v="485652" />
		<tag k="ssr:type" v="adressenavn" />
	</node>
	<node lat="59.498543012928245" lon="10.694795908255829" id="-27615">
		<tag k="name" v="Sørveien" />
		<tag k="ssr:date" v="2019-12-27" />
		<tag k="ssr:gruppe" v="veg" />
		<tag k="ssr:hovedgruppe" v="infrastruktur" />
		<tag k="ssr:stedsnr" v="485741" />
		<tag k="ssr:type" v="adressenavn" />
	</node>
	<node lat="59.589053232907276" lon="10.66643032761937" id="-27616">
		<tag k="name" v="Strandveien" />
		<tag k="ssr:date" v="2019-12-27" />
		<tag k="ssr:gruppe" v="veg" />
		<tag k="ssr:hovedgruppe" v="infrastruktur" />
		<tag k="ssr:stedsnr" v="485743" />
		<tag k="ssr:type" v="adressenavn" />
	</node>
	<node lat="59.52340133425608" lon="10.670091704291092" id="-27617">
		<tag k="name" v="Øvre Laksavei" />
		<tag k="ssr:date" v="2019-12-27" />
		<tag k="ssr:gruppe" v="veg" />
		<tag k="ssr:hovedgruppe" v="infrastruktur" />
		<tag k="ssr:stedsnr" v="485774" />
		<tag k="ssr:type" v="adressenavn" />
	</node>
	<node lat="59.51136666432638" lon="10.670505557722986" id="-27621">
		<tag k="alt_name" v="Saueholmane;Sauholmene;Saueholmene" />
		<tag k="name" v="Sauholmane lykt" />
		<tag k="ssr:date" v="2019-12-27" />
		<tag k="ssr:gruppe" v="navigasjon" />
		<tag k="ssr:hovedgruppe" v="infrastruktur" />
		<tag k="ssr:stedsnr" v="488508" />
		<tag k="ssr:type" v="fyrlykt" />
	</node>
	<node lat="59.52186229706807" lon="10.6914443984361" id="-27633">
		<tag k="name" v="Alicenborgveien" />
		<tag k="ssr:date" v="2019-12-27" />
		<tag k="ssr:gruppe" v="veg" />
		<tag k="ssr:hovedgruppe" v="infrastruktur" />
		<tag k="ssr:stedsnr" v="424665" />
		<tag k="ssr:type" v="adressenavn" />
	</node>
	<node lat="59.58192831943291" lon="10.776324732401418" id="-27636">
		<tag k="name" v="Engene" />
		<tag k="ssr:date" v="2019-12-27" />
		<tag k="ssr:gruppe" v="veg" />
		<tag k="ssr:hovedgruppe" v="infrastruktur" />
		<tag k="ssr:stedsnr" v="424795" />
		<tag k="ssr:type" v="adressenavn" />
	</node>
	<node lat="59.51464328269409" lon="10.685343772408972" id="-27638">
		<tag k="name" v="Tønnesveien" />
		<tag k="ssr:date" v="2019-12-27" />
		<tag k="ssr:gruppe" v="veg" />
		<tag k="ssr:hovedgruppe" v="infrastruktur" />
		<tag k="ssr:stedsnr" v="424800" />
		<tag k="ssr:type" v="adressenavn" />
	</node>
	<node lat="59.600842385004725" lon="10.74725083124862" id="-27677">
		<tag k="name" v="Nordbyveien" />
		<tag k="ssr:date" v="2019-12-27" />
		<tag k="ssr:gruppe" v="veg" />
		<tag k="ssr:hovedgruppe" v="infrastruktur" />
		<tag k="ssr:stedsnr" v="484702" />
		<tag k="ssr:type" v="adressenavn" />
	</node>
	<node lat="59.60184220637733" lon="10.73231688334521" id="-27678">
		<tag k="name" v="Hvitstenveien" />
		<tag k="ssr:date" v="2019-12-27" />
		<tag k="ssr:gruppe" v="veg" />
		<tag k="ssr:hovedgruppe" v="infrastruktur" />
		<tag k="ssr:stedsnr" v="484712" />
		<tag k="ssr:type" v="adressenavn" />
	</node>
	<node lat="59.51865376848128" lon="10.689597011594827" id="-27679">
		<tag k="name" v="Klepperveien" />
		<tag k="ssr:date" v="2019-12-27" />
		<tag k="ssr:gruppe" v="veg" />
		<tag k="ssr:hovedgruppe" v="infrastruktur" />
		<tag k="ssr:stedsnr" v="484719" />
		<tag k="ssr:type" v="adressenavn" />
	</node>
	<node lat="59.61161628555451" lon="10.696896085258546" id="-27680">
		<tag k="name" v="Galbyveien" />
		<tag k="ssr:date" v="2019-12-27" />
		<tag k="ssr:gruppe" v="veg" />
		<tag k="ssr:hovedgruppe" v="infrastruktur" />
		<tag k="ssr:stedsnr" v="484722" />
		<tag k="ssr:type" v="adressenavn" />
	</node>
	<node lat="59.49718779577973" lon="10.694946154375897" id="-27681">
		<tag k="name" v="Damåsveien" />
		<tag k="ssr:date" v="2019-12-27" />
		<tag k="ssr:gruppe" v="veg" />
		<tag k="ssr:hovedgruppe" v="infrastruktur" />
		<tag k="ssr:stedsnr" v="484623" />
		<tag k="ssr:type" v="adressenavn" />
	</node>
	<node lat="59.511045168784925" lon="10.729590030765328" id="-27700">
		<tag k="name" v="Gateveien" />
		<tag k="ssr:date" v="2019-12-27" />
		<tag k="ssr:gruppe" v="veg" />
		<tag k="ssr:hovedgruppe" v="infrastruktur" />
		<tag k="ssr:stedsnr" v="544267" />
		<tag k="ssr:type" v="adressenavn" />
	</node>
	<node lat="59.58323388372613" lon="10.789388790462748" id="-27704">
		<tag k="name" v="Furuåsen" />
		<tag k="ssr:date" v="2019-12-27" />
		<tag k="ssr:gruppe" v="veg" />
		<tag k="ssr:hovedgruppe" v="infrastruktur" />
		<tag k="ssr:stedsnr" v="545706" />
		<tag k="ssr:type" v="adressenavn" />
	</node>
	<node lat="59.53381379866611" lon="10.664275973197404" id="-27709">
		<tag k="name" v="Vardåsbakken" />
		<tag k="ssr:date" v="2019-12-27" />
		<tag k="ssr:gruppe" v="veg" />
		<tag k="ssr:hovedgruppe" v="infrastruktur" />
		<tag k="ssr:stedsnr" v="545788" />
		<tag k="ssr:type" v="adressenavn" />
	</node>
	<node lat="59.60291366629546" lon="10.74616381542164" id="-27710">
		<tag k="name" v="Vestbyveien" />
		<tag k="ssr:date" v="2019-12-27" />
		<tag k="ssr:gruppe" v="veg" />
		<tag k="ssr:hovedgruppe" v="infrastruktur" />
		<tag k="ssr:stedsnr" v="546928" />
		<tag k="ssr:type" v="adressenavn" />
	</node>
	<node lat="59.51799804472223" lon="10.777949646752406" id="-27721">
		<tag k="name" v="Vålerveien" />
		<tag k="ssr:date" v="2019-12-27" />
		<tag k="ssr:gruppe" v="veg" />
		<tag k="ssr:hovedgruppe" v="infrastruktur" />
		<tag k="ssr:stedsnr" v="690119" />
		<tag k="ssr:type" v="adressenavn" />
	</node>
	<node lat="59.60227499933896" lon="10.748072223976237" id="-27726">
		<tag k="alt_name" v="Vestby" />
		<tag k="name" v="Vestby kommune" />
		<tag k="ssr:date" v="2019-12-27" />
		<tag k="ssr:gruppe" v="administrativeIndelinger" />
		<tag k="ssr:hovedgruppe" v="offentligAdministrasjon" />
		<tag k="ssr:stedsnr" v="691844" />
		<tag k="ssr:type" v="kommune" />
	</node>
	<node lat="59.55134259181269" lon="10.65683842612431" id="-27747">
		<tag k="name" v="Midtveien" />
		<tag k="ssr:date" v="2019-12-27" />
		<tag k="ssr:gruppe" v="veg" />
		<tag k="ssr:hovedgruppe" v="infrastruktur" />
		<tag k="ssr:stedsnr" v="606709" />
		<tag k="ssr:type" v="adressenavn" />
	</node>
	<node lat="59.53156596350291" lon="10.689293970186554" id="-27748">
		<tag k="name" v="Kolåstoppen" />
		<tag k="ssr:date" v="2019-12-27" />
		<tag k="ssr:gruppe" v="veg" />
		<tag k="ssr:hovedgruppe" v="infrastruktur" />
		<tag k="ssr:stedsnr" v="606717" />
		<tag k="ssr:type" v="adressenavn" />
	</node>
	<node lat="59.596724984802584" lon="10.758898508731589" id="-27750">
		<tag k="name" v="Sørhellinga" />
		<tag k="ssr:date" v="2019-12-27" />
		<tag k="ssr:gruppe" v="veg" />
		<tag k="ssr:hovedgruppe" v="infrastruktur" />
		<tag k="ssr:stedsnr" v="606769" />
		<tag k="ssr:type" v="adressenavn" />
	</node>
	<node lat="59.52220597317919" lon="10.684205170271591" id="-27751">
		<tag k="name" v="Strandgata" />
		<tag k="ssr:date" v="2019-12-27" />
		<tag k="ssr:gruppe" v="veg" />
		<tag k="ssr:hovedgruppe" v="infrastruktur" />
		<tag k="ssr:stedsnr" v="606771" />
		<tag k="ssr:type" v="adressenavn" />
	</node>
	<node lat="59.59888618805323" lon="10.754804869814969" id="-27752">
		<tag k="name" v="Østbyveien" />
		<tag k="ssr:date" v="2019-12-27" />
		<tag k="ssr:gruppe" v="veg" />
		<tag k="ssr:hovedgruppe" v="infrastruktur" />
		<tag k="ssr:stedsnr" v="606796" />
		<tag k="ssr:type" v="adressenavn" />
	</node>
	<node lat="59.60894907761779" lon="10.744063632259278" id="-27763">
		<tag k="name" v="Speiderveien" />
		<tag k="ssr:date" v="2019-12-27" />
		<tag k="ssr:gruppe" v="veg" />
		<tag k="ssr:hovedgruppe" v="infrastruktur" />
		<tag k="ssr:stedsnr" v="629749" />
		<tag k="ssr:type" v="adressenavn" />
	</node>
	<node lat="59.591953510898776" lon="10.67282467404891" id="-27768">
		<tag k="name" v="Gruveåsen" />
		<tag k="ssr:date" v="2019-12-27" />
		<tag k="ssr:gruppe" v="veg" />
		<tag k="ssr:hovedgruppe" v="infrastruktur" />
		<tag k="ssr:stedsnr" v="665306" />
		<tag k="ssr:type" v="adressenavn" />
	</node>
	<node lat="59.52054538276106" lon="10.708719045651229" id="-27773">
		<tag k="name" v="Skoglundkollen" />
		<tag k="ssr:date" v="2019-12-27" />
		<tag k="ssr:gruppe" v="veg" />
		<tag k="ssr:hovedgruppe" v="infrastruktur" />
		<tag k="ssr:stedsnr" v="666735" />
		<tag k="ssr:type" v="adressenavn" />
	</node>
	<node lat="59.538272808041185" lon="10.690538071776995" id="-27774">
		<tag k="name" v="Revlingåsveien" />
		<tag k="ssr:date" v="2019-12-27" />
		<tag k="ssr:gruppe" v="veg" />
		<tag k="ssr:hovedgruppe" v="infrastruktur" />
		<tag k="ssr:stedsnr" v="667645" />
		<tag k="ssr:type" v="adressenavn" />
	</node>
	<node lat="59.5158350921557" lon="10.68316589863874" id="-27793">
		<tag k="name" v="Hollandveien" />
		<tag k="ssr:date" v="2019-12-27" />
		<tag k="ssr:gruppe" v="veg" />
		<tag k="ssr:hovedgruppe" v="infrastruktur" />
		<tag k="ssr:stedsnr" v="727726" />
		<tag k="ssr:type" v="adressenavn" />
	</node>
	<node lat="59.54732346624655" lon="10.70788972260835" id="-27795">
		<tag k="name" v="Klokkerudstubben" />
		<tag k="ssr:date" v="2019-12-27" />
		<tag k="ssr:gruppe" v="veg" />
		<tag k="ssr:hovedgruppe" v="infrastruktur" />
		<tag k="ssr:stedsnr" v="727737" />
		<tag k="ssr:type" v="adressenavn" />
	</node>
	<node lat="59.51714282768009" lon="10.68821980979909" id="-27816">
		<tag k="name" v="Gamle Brevikvei" />
		<tag k="ssr:date" v="2019-12-27" />
		<tag k="ssr:gruppe" v="veg" />
		<tag k="ssr:hovedgruppe" v="infrastruktur" />
		<tag k="ssr:stedsnr" v="770223" />
		<tag k="ssr:type" v="adressenavn" />
	</node>
	<node lat="59.50272809616884" lon="10.713054942703163" id="-27818">
		<tag k="name" v="Smørbekksvingen" />
		<tag k="ssr:date" v="2019-12-27" />
		<tag k="ssr:gruppe" v="veg" />
		<tag k="ssr:hovedgruppe" v="infrastruktur" />
		<tag k="ssr:stedsnr" v="908267" />
		<tag k="ssr:type" v="adressenavn" />
	</node>
	<node lat="59.52221418173262" lon="10.694114195295324" id="-27821">
		<tag k="name" v="Bergstien" />
		<tag k="ssr:date" v="2019-12-27" />
		<tag k="ssr:gruppe" v="veg" />
		<tag k="ssr:hovedgruppe" v="infrastruktur" />
		<tag k="ssr:stedsnr" v="909688" />
		<tag k="ssr:type" v="adressenavn" />
	</node>
	<node lat="59.58606963988653" lon="10.700469912420148" id="-27826">
		<tag k="name" v="Sandåsstubben" />
		<tag k="ssr:date" v="2019-12-27" />
		<tag k="ssr:gruppe" v="veg" />
		<tag k="ssr:hovedgruppe" v="infrastruktur" />
		<tag k="ssr:stedsnr" v="910690" />
		<tag k="ssr:type" v="adressenavn" />
	</node>
	<node lat="59.54786080018585" lon="10.745696807933003" id="-27832">
		<tag k="name" v="Brandstadkollen" />
		<tag k="ssr:date" v="2019-12-27" />
		<tag k="ssr:gruppe" v="veg" />
		<tag k="ssr:hovedgruppe" v="infrastruktur" />
		<tag k="ssr:stedsnr" v="910751" />
		<tag k="ssr:type" v="adressenavn" />
	</node>
	<node lat="59.54605462894581" lon="10.705600583858056" id="-27835">
		<tag k="name" v="Klokkerudveien" />
		<tag k="ssr:date" v="2019-12-27" />
		<tag k="ssr:gruppe" v="veg" />
		<tag k="ssr:hovedgruppe" v="infrastruktur" />
		<tag k="ssr:stedsnr" v="910718" />
		<tag k="ssr:type" v="adressenavn" />
	</node>
	<node lat="59.531661138747985" lon="10.687892068770738" id="-27836">
		<tag k="name" v="Kjøvangveien" />
		<tag k="ssr:date" v="2019-12-27" />
		<tag k="ssr:gruppe" v="veg" />
		<tag k="ssr:hovedgruppe" v="infrastruktur" />
		<tag k="ssr:stedsnr" v="910723" />
		<tag k="ssr:type" v="adressenavn" />
	</node>
	<node lat="59.521575420617445" lon="10.714291258033034" id="-27841">
		<tag k="name" v="Stensliveien" />
		<tag k="ssr:date" v="2019-12-27" />
		<tag k="ssr:gruppe" v="veg" />
		<tag k="ssr:hovedgruppe" v="infrastruktur" />
		<tag k="ssr:stedsnr" v="910791" />
		<tag k="ssr:type" v="adressenavn" />
	</node>
	<node lat="59.585877347432344" lon="10.73966598928421" id="-27845">
		<tag k="name" v="Delitoppen" />
		<tag k="ssr:date" v="2019-12-27" />
		<tag k="ssr:gruppe" v="veg" />
		<tag k="ssr:hovedgruppe" v="infrastruktur" />
		<tag k="ssr:stedsnr" v="787656" />
		<tag k="ssr:type" v="adressenavn" />
	</node>
	<node lat="59.52097438125484" lon="10.702707418631219" id="-27848">
		<tag k="name" v="Husjordveien" />
		<tag k="ssr:date" v="2019-12-27" />
		<tag k="ssr:gruppe" v="veg" />
		<tag k="ssr:hovedgruppe" v="infrastruktur" />
		<tag k="ssr:stedsnr" v="788717" />
		<tag k="ssr:type" v="adressenavn" />
	</node>
	<node lat="59.5770039140621" lon="10.743987452953244" id="-27873">
		<tag k="name" v="Stormåsan" />
		<tag k="ssr:date" v="2019-12-27" />
		<tag k="ssr:gruppe" v="veg" />
		<tag k="ssr:hovedgruppe" v="infrastruktur" />
		<tag k="ssr:stedsnr" v="848223" />
		<tag k="ssr:type" v="adressenavn" />
	</node>
	<node lat="59.523366097472746" lon="10.704737403862964" id="-27915">
		<tag k="name" v="Furulia" />
		<tag k="ssr:date" v="2019-12-27" />
		<tag k="ssr:gruppe" v="veg" />
		<tag k="ssr:hovedgruppe" v="infrastruktur" />
		<tag k="ssr:stedsnr" v="969735" />
		<tag k="ssr:type" v="adressenavn" />
	</node>
	<node lat="59.52399805627734" lon="10.689250704651311" id="-27918">
		<tag k="name" v="Kolåsveien" />
		<tag k="ssr:date" v="2019-12-27" />
		<tag k="ssr:gruppe" v="veg" />
		<tag k="ssr:hovedgruppe" v="infrastruktur" />
		<tag k="ssr:stedsnr" v="970310" />
		<tag k="ssr:type" v="adressenavn" />
	</node>
	<node lat="59.58767590588719" lon="10.725642287383808" id="-27920">
		<tag k="name" v="Rødsveien" />
		<tag k="ssr:date" v="2019-12-27" />
		<tag k="ssr:gruppe" v="veg" />
		<tag k="ssr:hovedgruppe" v="infrastruktur" />
		<tag k="ssr:stedsnr" v="970289" />
		<tag k="ssr:type" v="adressenavn" />
	</node>
	<node lat="59.59485043051818" lon="10.71984746821334" id="-27921">
		<tag k="name" v="Risilveien" />
		<tag k="ssr:date" v="2019-12-27" />
		<tag k="ssr:gruppe" v="veg" />
		<tag k="ssr:hovedgruppe" v="infrastruktur" />
		<tag k="ssr:stedsnr" v="970290" />
		<tag k="ssr:type" v="adressenavn" />
	</node>
	<node lat="59.50079994626333" lon="10.695934772765932" id="-27922">
		<tag k="name" v="Sandtakveien" />
		<tag k="ssr:date" v="2019-12-27" />
		<tag k="ssr:gruppe" v="veg" />
		<tag k="ssr:hovedgruppe" v="infrastruktur" />
		<tag k="ssr:stedsnr" v="970302" />
		<tag k="ssr:type" v="adressenavn" />
	</node>
	<node lat="59.594072533735996" lon="10.708059811061002" id="-27926">
		<tag k="name" v="Sadelmagerens vei" />
		<tag k="ssr:date" v="2019-12-27" />
		<tag k="ssr:gruppe" v="veg" />
		<tag k="ssr:hovedgruppe" v="infrastruktur" />
		<tag k="ssr:stedsnr" v="991381" />
		<tag k="ssr:type" v="adressenavn" />
	</node>
	<node lat="59.524685542384496" lon="10.689717335835672" id="-27927">
		<tag k="name" v="Sagaveien" />
		<tag k="ssr:date" v="2019-12-27" />
		<tag k="ssr:gruppe" v="veg" />
		<tag k="ssr:hovedgruppe" v="infrastruktur" />
		<tag k="ssr:stedsnr" v="991388" />
		<tag k="ssr:type" v="adressenavn" />
	</node>
	<node lat="59.62095141334869" lon="10.738231211156913" id="-27929">
		<tag k="name" v="Skogveien" />
		<tag k="ssr:date" v="2019-12-27" />
		<tag k="ssr:gruppe" v="veg" />
		<tag k="ssr:hovedgruppe" v="infrastruktur" />
		<tag k="ssr:stedsnr" v="991473" />
		<tag k="ssr:type" v="adressenavn" />
	</node>
	<node lat="59.600879295625916" lon="10.74858547578679" id="-27931">
		<tag k="name" v="Sentrumsveien" />
		<tag k="ssr:date" v="2019-12-27" />
		<tag k="ssr:gruppe" v="veg" />
		<tag k="ssr:hovedgruppe" v="infrastruktur" />
		<tag k="ssr:stedsnr" v="991477" />
		<tag k="ssr:type" v="adressenavn" />
	</node>
	<node lat="59.594821769546144" lon="10.696285341988585" id="-27933">
		<tag k="name" v="Stellas vei" />
		<tag k="ssr:date" v="2019-12-27" />
		<tag k="ssr:gruppe" v="veg" />
		<tag k="ssr:hovedgruppe" v="infrastruktur" />
		<tag k="ssr:stedsnr" v="991730" />
		<tag k="ssr:type" v="adressenavn" />
	</node>
	<node lat="59.59125495500867" lon="10.709751178717703" id="-27934">
		<tag k="name" v="Stabels vei" />
		<tag k="ssr:date" v="2019-12-27" />
		<tag k="ssr:gruppe" v="veg" />
		<tag k="ssr:hovedgruppe" v="infrastruktur" />
		<tag k="ssr:stedsnr" v="991735" />
		<tag k="ssr:type" v="adressenavn" />
	</node>
	<node lat="59.49806019350482" lon="10.687075061418316" id="-27935">
		<tag k="name" v="Store Brevik vei" />
		<tag k="ssr:date" v="2019-12-27" />
		<tag k="ssr:gruppe" v="veg" />
		<tag k="ssr:hovedgruppe" v="infrastruktur" />
		<tag k="ssr:stedsnr" v="991827" />
		<tag k="ssr:type" v="adressenavn" />
	</node>
	<node lat="59.59725682974011" lon="10.700306233462083" id="-27938">
		<tag k="name" v="Sophies vei" />
		<tag k="ssr:date" v="2019-12-27" />
		<tag k="ssr:gruppe" v="veg" />
		<tag k="ssr:hovedgruppe" v="infrastruktur" />
		<tag k="ssr:stedsnr" v="991922" />
		<tag k="ssr:type" v="adressenavn" />
	</node>
	<node lat="59.6018358202257" lon="10.753090995771139" id="-27939">
		<tag k="name" v="Soleveien" />
		<tag k="ssr:date" v="2019-12-27" />
		<tag k="ssr:gruppe" v="veg" />
		<tag k="ssr:hovedgruppe" v="infrastruktur" />
		<tag k="ssr:stedsnr" v="991928" />
		<tag k="ssr:type" v="adressenavn" />
	</node>
	<node lat="59.495774686345634" lon="10.686603513328764" id="-27940">
		<tag k="name" v="Støaveien" />
		<tag k="ssr:date" v="2019-12-27" />
		<tag k="ssr:gruppe" v="veg" />
		<tag k="ssr:hovedgruppe" v="infrastruktur" />
		<tag k="ssr:stedsnr" v="992115" />
		<tag k="ssr:type" v="adressenavn" />
	</node>
	<node lat="59.623289316399145" lon="10.739062424492394" id="-27942">
		<tag k="name" v="Svarthagsveien" />
		<tag k="ssr:date" v="2019-12-27" />
		<tag k="ssr:gruppe" v="veg" />
		<tag k="ssr:hovedgruppe" v="infrastruktur" />
		<tag k="ssr:stedsnr" v="992154" />
		<tag k="ssr:type" v="adressenavn" />
	</node>
	<node lat="59.620961462657355" lon="10.737159619635502" id="-27943">
		<tag k="name" v="Svartdalsveien" />
		<tag k="ssr:date" v="2019-12-27" />
		<tag k="ssr:gruppe" v="veg" />
		<tag k="ssr:hovedgruppe" v="infrastruktur" />
		<tag k="ssr:stedsnr" v="992156" />
		<tag k="ssr:type" v="adressenavn" />
	</node>
	<node lat="59.624114567444316" lon="10.739238174562557" id="-27945">
		<tag k="name" v="Åsveien" />
		<tag k="ssr:date" v="2019-12-27" />
		<tag k="ssr:gruppe" v="veg" />
		<tag k="ssr:hovedgruppe" v="infrastruktur" />
		<tag k="ssr:stedsnr" v="992336" />
		<tag k="ssr:type" v="adressenavn" />
	</node>
	<node lat="59.51854672107869" lon="10.70623311590197" id="-27980">
		<tag k="name" v="Husjordløkka" />
		<tag k="ssr:date" v="2019-12-27" />
		<tag k="ssr:gruppe" v="veg" />
		<tag k="ssr:hovedgruppe" v="infrastruktur" />
		<tag k="ssr:stedsnr" v="60727" />
		<tag k="ssr:type" v="adressenavn" />
	</node>
	<node lat="59.59446948903908" lon="10.755370570826909" id="-28003">
		<tag k="name" v="Solerunden" />
		<tag k="ssr:date" v="2019-12-27" />
		<tag k="ssr:gruppe" v="veg" />
		<tag k="ssr:hovedgruppe" v="infrastruktur" />
		<tag k="ssr:stedsnr" v="121788" />
		<tag k="ssr:type" v="adressenavn" />
	</node>
	<node lat="59.60600310133275" lon="10.760173815935765" id="-28004">
		<tag k="name" v="Gamle Solevei" />
		<tag k="ssr:date" v="2019-12-27" />
		<tag k="ssr:gruppe" v="veg" />
		<tag k="ssr:hovedgruppe" v="infrastruktur" />
		<tag k="ssr:stedsnr" v="121801" />
		<tag k="ssr:type" v="adressenavn" />
	</node>
	<node lat="59.521099007417746" lon="10.703130798342093" id="-28031">
		<tag k="name" v="Skoglundveien" />
		<tag k="ssr:date" v="2019-12-27" />
		<tag k="ssr:gruppe" v="veg" />
		<tag k="ssr:hovedgruppe" v="infrastruktur" />
		<tag k="ssr:stedsnr" v="181711" />
		<tag k="ssr:type" v="adressenavn" />
	</node>
	<node lat="59.59407976181879" lon="10.66249046584348" id="-28032">
		<tag k="name" v="Skogholtveien" />
		<tag k="ssr:date" v="2019-12-27" />
		<tag k="ssr:gruppe" v="veg" />
		<tag k="ssr:hovedgruppe" v="infrastruktur" />
		<tag k="ssr:stedsnr" v="181713" />
		<tag k="ssr:type" v="adressenavn" />
	</node>
	<node lat="59.604934405318616" lon="10.75134574996979" id="-28033">
		<tag k="name" v="Saglia" />
		<tag k="ssr:date" v="2019-12-27" />
		<tag k="ssr:gruppe" v="veg" />
		<tag k="ssr:hovedgruppe" v="infrastruktur" />
		<tag k="ssr:stedsnr" v="181715" />
		<tag k="ssr:type" v="adressenavn" />
	</node>
	<node lat="59.556540328300805" lon="10.65819970112276" id="-28034">
		<tag k="name" v="Lundeveien" />
		<tag k="ssr:date" v="2019-12-27" />
		<tag k="ssr:gruppe" v="veg" />
		<tag k="ssr:hovedgruppe" v="infrastruktur" />
		<tag k="ssr:stedsnr" v="181720" />
		<tag k="ssr:type" v="adressenavn" />
	</node>
	<node lat="59.53214586963489" lon="10.680281174679351" id="-28035">
		<tag k="name" v="Laksaveien" />
		<tag k="ssr:date" v="2019-12-27" />
		<tag k="ssr:gruppe" v="veg" />
		<tag k="ssr:hovedgruppe" v="infrastruktur" />
		<tag k="ssr:stedsnr" v="181722" />
		<tag k="ssr:type" v="adressenavn" />
	</node>
	<node lat="59.577389663776614" lon="10.653068541131107" id="-28037">
		<tag k="name" v="Emmerstadveien" />
		<tag k="ssr:date" v="2019-12-27" />
		<tag k="ssr:gruppe" v="veg" />
		<tag k="ssr:hovedgruppe" v="infrastruktur" />
		<tag k="ssr:stedsnr" v="181647" />
		<tag k="ssr:type" v="adressenavn" />
	</node>
	<node lat="59.51650810709563" lon="10.68667724027978" id="-28038">
		<tag k="name" v="Tømmeråsen" />
		<tag k="ssr:date" v="2019-12-27" />
		<tag k="ssr:gruppe" v="veg" />
		<tag k="ssr:hovedgruppe" v="infrastruktur" />
		<tag k="ssr:stedsnr" v="181797" />
		<tag k="ssr:type" v="adressenavn" />
	</node>
	<node lat="59.5218690542429" lon="10.697650305671655" id="-28056">
		<tag k="name" v="Gamle Sonsvei" />
		<tag k="ssr:date" v="2019-12-27" />
		<tag k="ssr:gruppe" v="veg" />
		<tag k="ssr:hovedgruppe" v="infrastruktur" />
		<tag k="ssr:stedsnr" v="285241" />
		<tag k="ssr:type" v="adressenavn" />
	</node>
	<node lat="59.56098756134941" lon="10.727899615145416" id="-28065">
		<tag k="name" v="Kjennsmyrveien" />
		<tag k="ssr:date" v="2019-12-27" />
		<tag k="ssr:gruppe" v="veg" />
		<tag k="ssr:hovedgruppe" v="infrastruktur" />
		<tag k="ssr:stedsnr" v="302298" />
		<tag k="ssr:type" v="adressenavn" />
	</node>
	<node lat="59.51945699286229" lon="10.689567939973191" id="-28069">
		<tag k="name" v="Fjellveien" />
		<tag k="ssr:date" v="2019-12-27" />
		<tag k="ssr:gruppe" v="veg" />
		<tag k="ssr:hovedgruppe" v="infrastruktur" />
		<tag k="ssr:stedsnr" v="302730" />
		<tag k="ssr:type" v="adressenavn" />
	</node>
	<node lat="59.49944910149139" lon="10.68354753982999" id="-28074">
		<tag k="name" v="Skurvåsveien" />
		<tag k="ssr:date" v="2019-12-27" />
		<tag k="ssr:gruppe" v="veg" />
		<tag k="ssr:hovedgruppe" v="infrastruktur" />
		<tag k="ssr:stedsnr" v="303782" />
		<tag k="ssr:type" v="adressenavn" />
	</node>
	<node lat="59.59336281326272" lon="10.688033559516752" id="-28075">
		<tag k="name" v="Brattåsen" />
		<tag k="ssr:date" v="2019-12-27" />
		<tag k="ssr:gruppe" v="veg" />
		<tag k="ssr:hovedgruppe" v="infrastruktur" />
		<tag k="ssr:stedsnr" v="303788" />
		<tag k="ssr:type" v="adressenavn" />
	</node>
	<node lat="59.49307119227548" lon="10.685576592213012" id="-28077">
		<tag k="name" v="Vardeveien" />
		<tag k="ssr:date" v="2019-12-27" />
		<tag k="ssr:gruppe" v="veg" />
		<tag k="ssr:hovedgruppe" v="infrastruktur" />
		<tag k="ssr:stedsnr" v="303793" />
		<tag k="ssr:type" v="adressenavn" />
	</node>
	<node lat="59.558318643629626" lon="10.739690523739478" id="-28110">
		<tag k="name" v="Rokkerveien" />
		<tag k="ssr:date" v="2019-12-27" />
		<tag k="ssr:gruppe" v="veg" />
		<tag k="ssr:hovedgruppe" v="infrastruktur" />
		<tag k="ssr:stedsnr" v="362225" />
		<tag k="ssr:type" v="adressenavn" />
	</node>
	<node lat="59.59019596022315" lon="10.662789342954202" id="-28111">
		<tag k="name" v="Damveien" />
		<tag k="ssr:date" v="2019-12-27" />
		<tag k="ssr:gruppe" v="veg" />
		<tag k="ssr:hovedgruppe" v="infrastruktur" />
		<tag k="ssr:stedsnr" v="363576" />
		<tag k="ssr:type" v="adressenavn" />
	</node>
	<node lat="59.592318877500226" lon="10.662962582348518" id="-28114">
		<tag k="name" v="Gamlebakken" />
		<tag k="ssr:date" v="2019-12-27" />
		<tag k="ssr:gruppe" v="veg" />
		<tag k="ssr:hovedgruppe" v="infrastruktur" />
		<tag k="ssr:stedsnr" v="363698" />
		<tag k="ssr:type" v="adressenavn" />
	</node>
	<node lat="59.57456993176022" lon="10.73676363989168" id="-28131">
		<tag k="name" v="Toveien" />
		<tag k="ssr:date" v="2019-12-27" />
		<tag k="ssr:gruppe" v="veg" />
		<tag k="ssr:hovedgruppe" v="infrastruktur" />
		<tag k="ssr:stedsnr" v="406027" />
		<tag k="ssr:type" v="adressenavn" />
	</node>
	<node lat="59.57126723273928" lon="10.738502842413526" id="-28148">
		<tag k="name" v="Skaubrynet" />
		<tag k="ssr:date" v="2019-12-27" />
		<tag k="ssr:gruppe" v="veg" />
		<tag k="ssr:hovedgruppe" v="infrastruktur" />
		<tag k="ssr:stedsnr" v="424741" />
		<tag k="ssr:type" v="adressenavn" />
	</node>
	<node lat="59.52801525356349" lon="10.689587865322535" id="-28149">
		<tag k="name" v="Elveveien" />
		<tag k="ssr:date" v="2019-12-27" />
		<tag k="ssr:gruppe" v="veg" />
		<tag k="ssr:hovedgruppe" v="infrastruktur" />
		<tag k="ssr:stedsnr" v="424617" />
		<tag k="ssr:type" v="adressenavn" />
	</node>
	<node lat="59.54492958754487" lon="10.696970885122386" id="-28150">
		<tag k="name" v="Erikstadveien" />
		<tag k="ssr:date" v="2019-12-27" />
		<tag k="ssr:gruppe" v="veg" />
		<tag k="ssr:hovedgruppe" v="infrastruktur" />
		<tag k="ssr:stedsnr" v="424620" />
		<tag k="ssr:type" v="adressenavn" />
	</node>
	<node lat="59.59643003634219" lon="10.682520684064567" id="-28151">
		<tag k="name" v="Brattåslia" />
		<tag k="ssr:date" v="2019-12-27" />
		<tag k="ssr:gruppe" v="veg" />
		<tag k="ssr:hovedgruppe" v="infrastruktur" />
		<tag k="ssr:stedsnr" v="424788" />
		<tag k="ssr:type" v="adressenavn" />
	</node>
	<node lat="59.54189382821709" lon="10.748727243353775" id="-28152">
		<tag k="name" v="Steinbruddveien" />
		<tag k="ssr:date" v="2019-12-27" />
		<tag k="ssr:gruppe" v="veg" />
		<tag k="ssr:hovedgruppe" v="infrastruktur" />
		<tag k="ssr:stedsnr" v="424789" />
		<tag k="ssr:type" v="adressenavn" />
	</node>
	<node lat="59.536069575503724" lon="10.671679490220807" id="-28198">
		<tag k="name" v="Kullebunnveien" />
		<tag k="ssr:date" v="2019-12-27" />
		<tag k="ssr:gruppe" v="veg" />
		<tag k="ssr:hovedgruppe" v="infrastruktur" />
		<tag k="ssr:stedsnr" v="546766" />
		<tag k="ssr:type" v="adressenavn" />
	</node>
	<node lat="59.540155878865974" lon="10.727826480382241" id="-28223">
		<tag k="name" v="Gjølstadveien" />
		<tag k="ssr:date" v="2019-12-27" />
		<tag k="ssr:gruppe" v="veg" />
		<tag k="ssr:hovedgruppe" v="infrastruktur" />
		<tag k="ssr:stedsnr" v="605720" />
		<tag k="ssr:type" v="adressenavn" />
	</node>
	<node lat="59.525903147645174" lon="10.707412208852686" id="-28225">
		<tag k="name" v="Granlia" />
		<tag k="ssr:date" v="2019-12-27" />
		<tag k="ssr:gruppe" v="veg" />
		<tag k="ssr:hovedgruppe" v="infrastruktur" />
		<tag k="ssr:stedsnr" v="605727" />
		<tag k="ssr:type" v="adressenavn" />
	</node>
	<node lat="59.518254878182844" lon="10.691632994621001" id="-28226">
		<tag k="name" v="Grevlingstien" />
		<tag k="ssr:date" v="2019-12-27" />
		<tag k="ssr:gruppe" v="veg" />
		<tag k="ssr:hovedgruppe" v="infrastruktur" />
		<tag k="ssr:stedsnr" v="605731" />
		<tag k="ssr:type" v="adressenavn" />
	</node>
	<node lat="59.56222192011546" lon="10.650931559125976" id="-28228">
		<tag k="name" v="Bølnesveien" />
		<tag k="ssr:date" v="2019-12-27" />
		<tag k="ssr:gruppe" v="veg" />
		<tag k="ssr:hovedgruppe" v="infrastruktur" />
		<tag k="ssr:stedsnr" v="605637" />
		<tag k="ssr:type" v="adressenavn" />
	</node>
	<node lat="59.57887876719522" lon="10.73816106947565" id="-28229">
		<tag k="name" v="Deliveien" />
		<tag k="ssr:date" v="2019-12-27" />
		<tag k="ssr:gruppe" v="veg" />
		<tag k="ssr:hovedgruppe" v="infrastruktur" />
		<tag k="ssr:stedsnr" v="605641" />
		<tag k="ssr:type" v="adressenavn" />
	</node>
	<node lat="59.63509721810057" lon="10.698624999065485" id="-28252">
		<tag k="name" v="Vestbyvegen" />
		<tag k="ssr:date" v="2019-12-27" />
		<tag k="ssr:gruppe" v="veg" />
		<tag k="ssr:hovedgruppe" v="infrastruktur" />
		<tag k="ssr:stedsnr" v="645651" />
		<tag k="ssr:type" v="vegstrekning" />
	</node>
	<node lat="59.605917826778125" lon="10.748845764784061" id="-28267">
		<tag k="name" v="Støttumkroken" />
		<tag k="ssr:date" v="2019-12-27" />
		<tag k="ssr:gruppe" v="veg" />
		<tag k="ssr:hovedgruppe" v="infrastruktur" />
		<tag k="ssr:stedsnr" v="666778" />
		<tag k="ssr:type" v="adressenavn" />
	</node>
	<node lat="59.51297281519377" lon="10.683660533359426" id="-28269">
		<tag k="name" v="Skutebaugveien" />
		<tag k="ssr:date" v="2019-12-27" />
		<tag k="ssr:gruppe" v="veg" />
		<tag k="ssr:hovedgruppe" v="infrastruktur" />
		<tag k="ssr:stedsnr" v="667746" />
		<tag k="ssr:type" v="adressenavn" />
	</node>
	<node lat="59.549994707029974" lon="10.654298561534384" id="-28270">
		<tag k="name" v="Stjernåsveien" />
		<tag k="ssr:date" v="2019-12-27" />
		<tag k="ssr:gruppe" v="veg" />
		<tag k="ssr:hovedgruppe" v="infrastruktur" />
		<tag k="ssr:stedsnr" v="667748" />
		<tag k="ssr:type" v="adressenavn" />
	</node>
	<node lat="59.61139703764546" lon="10.653546050159875" id="-28273">
		<tag k="name" v="Vestre Pyttskogvei" />
		<tag k="ssr:date" v="2019-12-27" />
		<tag k="ssr:gruppe" v="veg" />
		<tag k="ssr:hovedgruppe" v="infrastruktur" />
		<tag k="ssr:stedsnr" v="667764" />
		<tag k="ssr:type" v="adressenavn" />
	</node>
	<node lat="59.59659356479979" lon="10.659733140058991" id="-28285">
		<tag k="name" v="Skogstien" />
		<tag k="ssr:date" v="2019-12-27" />
		<tag k="ssr:gruppe" v="veg" />
		<tag k="ssr:hovedgruppe" v="infrastruktur" />
		<tag k="ssr:stedsnr" v="727799" />
		<tag k="ssr:type" v="adressenavn" />
	</node>
	<node lat="59.6122969079274" lon="10.740818187278801" id="-28299">
		<tag k="name" v="Høgdaveien" />
		<tag k="ssr:date" v="2019-12-27" />
		<tag k="ssr:gruppe" v="veg" />
		<tag k="ssr:hovedgruppe" v="infrastruktur" />
		<tag k="ssr:stedsnr" v="750731" />
		<tag k="ssr:type" v="adressenavn" />
	</node>
	<node lat="59.609054030074425" lon="10.656699500744114" id="-28315">
		<tag k="name" v="Pyttskogveien" />
		<tag k="ssr:date" v="2019-12-27" />
		<tag k="ssr:gruppe" v="veg" />
		<tag k="ssr:hovedgruppe" v="infrastruktur" />
		<tag k="ssr:stedsnr" v="788781" />
		<tag k="ssr:type" v="adressenavn" />
	</node>
	<node lat="59.53443821147975" lon="10.663408461851112" id="-28316">
		<tag k="name" v="Utsikten" />
		<tag k="ssr:date" v="2019-12-27" />
		<tag k="ssr:gruppe" v="veg" />
		<tag k="ssr:hovedgruppe" v="infrastruktur" />
		<tag k="ssr:stedsnr" v="788791" />
		<tag k="ssr:type" v="adressenavn" />
	</node>
	<node lat="59.54461173126883" lon="10.75022551306487" id="-28335">
		<tag k="name" v="Brandstadveien" />
		<tag k="ssr:date" v="2019-12-27" />
		<tag k="ssr:gruppe" v="veg" />
		<tag k="ssr:hovedgruppe" v="infrastruktur" />
		<tag k="ssr:stedsnr" v="811225" />
		<tag k="ssr:type" v="adressenavn" />
	</node>
	<node lat="59.504817015989836" lon="10.756745858081592" id="-28348">
		<tag k="name" v="Vandråsveien" />
		<tag k="ssr:date" v="2019-12-27" />
		<tag k="ssr:gruppe" v="veg" />
		<tag k="ssr:hovedgruppe" v="infrastruktur" />
		<tag k="ssr:stedsnr" v="848220" />
		<tag k="ssr:type" v="adressenavn" />
	</node>
	<node lat="59.598527220319895" lon="10.655305198430097" id="-28352">
		<tag k="name" v="Rammeveien" />
		<tag k="ssr:date" v="2019-12-27" />
		<tag k="ssr:gruppe" v="veg" />
		<tag k="ssr:hovedgruppe" v="infrastruktur" />
		<tag k="ssr:stedsnr" v="849720" />
		<tag k="ssr:type" v="adressenavn" />
	</node>
	<node lat="59.60010953010431" lon="10.763291404004761" id="-28353">
		<tag k="name" v="Sole allé" />
		<tag k="ssr:date" v="2019-12-27" />
		<tag k="ssr:gruppe" v="veg" />
		<tag k="ssr:hovedgruppe" v="infrastruktur" />
		<tag k="ssr:stedsnr" v="849824" />
		<tag k="ssr:type" v="adressenavn" />
	</node>
	<node lat="59.59121652137943" lon="10.713081841747007" id="-28358">
		<tag k="name" v="Moraveien" />
		<tag k="ssr:date" v="2019-12-27" />
		<tag k="ssr:gruppe" v="veg" />
		<tag k="ssr:hovedgruppe" v="infrastruktur" />
		<tag k="ssr:stedsnr" v="849746" />
		<tag k="ssr:type" v="adressenavn" />
	</node>
	<node lat="59.54696743691214" lon="10.706232868199521" id="-28389">
		<tag k="name" v="Dyrendalsveien" />
		<tag k="ssr:date" v="2019-12-27" />
		<tag k="ssr:gruppe" v="veg" />
		<tag k="ssr:hovedgruppe" v="infrastruktur" />
		<tag k="ssr:stedsnr" v="969655" />
		<tag k="ssr:type" v="adressenavn" />
	</node>
	<node lat="59.52813591125954" lon="10.752221981628956" id="-28391">
		<tag k="name" v="Sånergrenda" />
		<tag k="ssr:date" v="2019-12-27" />
		<tag k="ssr:gruppe" v="veg" />
		<tag k="ssr:hovedgruppe" v="infrastruktur" />
		<tag k="ssr:stedsnr" v="970429" />
		<tag k="ssr:type" v="adressenavn" />
	</node>
	<node lat="59.60312133086339" lon="10.837437340796633" id="-28394">
		<tag k="name" v="Toppergrenda" />
		<tag k="ssr:date" v="2019-12-27" />
		<tag k="ssr:gruppe" v="veg" />
		<tag k="ssr:hovedgruppe" v="infrastruktur" />
		<tag k="ssr:stedsnr" v="970463" />
		<tag k="ssr:type" v="adressenavn" />
	</node>
	<node lat="59.61154646082218" lon="10.654598044972426" id="-28395">
		<tag k="name" v="Østre Pyttskogvei" />
		<tag k="ssr:date" v="2019-12-27" />
		<tag k="ssr:gruppe" v="veg" />
		<tag k="ssr:hovedgruppe" v="infrastruktur" />
		<tag k="ssr:stedsnr" v="970465" />
		<tag k="ssr:type" v="adressenavn" />
	</node>
	<node lat="59.60688964899027" lon="10.743087825348947" id="-28403">
		<tag k="name" v="Randemveien" />
		<tag k="ssr:date" v="2019-12-27" />
		<tag k="ssr:gruppe" v="veg" />
		<tag k="ssr:hovedgruppe" v="infrastruktur" />
		<tag k="ssr:stedsnr" v="991569" />
		<tag k="ssr:type" v="adressenavn" />
	</node>
	<node lat="59.585894794465645" lon="10.655986950361783" id="-28404">
		<tag k="name" v="Sagastubben" />
		<tag k="ssr:date" v="2019-12-27" />
		<tag k="ssr:gruppe" v="veg" />
		<tag k="ssr:hovedgruppe" v="infrastruktur" />
		<tag k="ssr:stedsnr" v="991398" />
		<tag k="ssr:type" v="adressenavn" />
	</node>
	<node lat="59.61470931199001" lon="10.74063458681499" id="-28405">
		<tag k="name" v="Regnbueveien" />
		<tag k="ssr:date" v="2019-12-27" />
		<tag k="ssr:gruppe" v="veg" />
		<tag k="ssr:hovedgruppe" v="infrastruktur" />
		<tag k="ssr:stedsnr" v="991537" />
		<tag k="ssr:type" v="adressenavn" />
	</node>
	<node lat="59.616859530754226" lon="10.745213441393643" id="-28406">
		<tag k="name" v="Randemsletta" />
		<tag k="ssr:date" v="2019-12-27" />
		<tag k="ssr:gruppe" v="veg" />
		<tag k="ssr:hovedgruppe" v="infrastruktur" />
		<tag k="ssr:stedsnr" v="991563" />
		<tag k="ssr:type" v="adressenavn" />
	</node>
	<node lat="59.54061489626031" lon="10.737803362193432" id="-28409">
		<tag k="name" v="Stenersbakken" />
		<tag k="ssr:date" v="2019-12-27" />
		<tag k="ssr:gruppe" v="veg" />
		<tag k="ssr:hovedgruppe" v="infrastruktur" />
		<tag k="ssr:stedsnr" v="991677" />
		<tag k="ssr:type" v="adressenavn" />
	</node>
	<node lat="59.53981054484012" lon="10.742397242059877" id="-28410">
		<tag k="name" v="Store Strandgate" />
		<tag k="ssr:date" v="2019-12-27" />
		<tag k="ssr:gruppe" v="veg" />
		<tag k="ssr:hovedgruppe" v="infrastruktur" />
		<tag k="ssr:stedsnr" v="991758" />
		<tag k="ssr:type" v="adressenavn" />
	</node>
	<node lat="59.59482005138448" lon="10.709435451078548" id="-28413">
		<tag k="name" v="Tømmersvendens vei" />
		<tag k="ssr:date" v="2019-12-27" />
		<tag k="ssr:gruppe" v="veg" />
		<tag k="ssr:hovedgruppe" v="infrastruktur" />
		<tag k="ssr:stedsnr" v="991947" />
		<tag k="ssr:type" v="adressenavn" />
	</node>
	<node lat="59.61467631174535" lon="10.743386658603864" id="-28414">
		<tag k="name" v="Stjerneveien" />
		<tag k="ssr:date" v="2019-12-27" />
		<tag k="ssr:gruppe" v="veg" />
		<tag k="ssr:hovedgruppe" v="infrastruktur" />
		<tag k="ssr:stedsnr" v="991796" />
		<tag k="ssr:type" v="adressenavn" />
	</node>
	<node lat="59.5935308832073" lon="10.711890543695997" id="-28415">
		<tag k="name" v="Slagterens vei" />
		<tag k="ssr:date" v="2019-12-27" />
		<tag k="ssr:gruppe" v="veg" />
		<tag k="ssr:hovedgruppe" v="infrastruktur" />
		<tag k="ssr:stedsnr" v="991886" />
		<tag k="ssr:type" v="adressenavn" />
	</node>
	<node lat="59.564900547879" lon="10.73648434684288" id="-28416">
		<tag k="name" v="Tømtveien" />
		<tag k="ssr:date" v="2019-12-27" />
		<tag k="ssr:gruppe" v="veg" />
		<tag k="ssr:hovedgruppe" v="infrastruktur" />
		<tag k="ssr:stedsnr" v="992072" />
		<tag k="ssr:type" v="adressenavn" />
	</node>
	<node lat="59.49841169721829" lon="10.695288583472276" id="-28417">
		<tag k="name" v="Veståsveien" />
		<tag k="ssr:date" v="2019-12-27" />
		<tag k="ssr:gruppe" v="veg" />
		<tag k="ssr:hovedgruppe" v="infrastruktur" />
		<tag k="ssr:stedsnr" v="992079" />
		<tag k="ssr:type" v="adressenavn" />
	</node>
	<node lat="59.50058443948086" lon="10.687976373895197" id="-28418">
		<tag k="name" v="Vibeveien" />
		<tag k="ssr:date" v="2019-12-27" />
		<tag k="ssr:gruppe" v="veg" />
		<tag k="ssr:hovedgruppe" v="infrastruktur" />
		<tag k="ssr:stedsnr" v="992080" />
		<tag k="ssr:type" v="adressenavn" />
	</node>
	<node lat="59.4987718257332" lon="10.684783233512734" id="-28419">
		<tag k="name" v="Vestmarkveien" />
		<tag k="ssr:date" v="2019-12-27" />
		<tag k="ssr:gruppe" v="veg" />
		<tag k="ssr:hovedgruppe" v="infrastruktur" />
		<tag k="ssr:stedsnr" v="992081" />
		<tag k="ssr:type" v="adressenavn" />
	</node>
	<node lat="59.61846967087942" lon="10.737467732400264" id="-28420">
		<tag k="name" v="Verpetveien" />
		<tag k="ssr:date" v="2019-12-27" />
		<tag k="ssr:gruppe" v="veg" />
		<tag k="ssr:hovedgruppe" v="infrastruktur" />
		<tag k="ssr:stedsnr" v="992084" />
		<tag k="ssr:type" v="adressenavn" />
	</node>
	<node lat="59.501326262418395" lon="10.696095628805729" id="-28422">
		<tag k="name" v="Veslemyrveien" />
		<tag k="ssr:date" v="2019-12-27" />
		<tag k="ssr:gruppe" v="veg" />
		<tag k="ssr:hovedgruppe" v="infrastruktur" />
		<tag k="ssr:stedsnr" v="992086" />
		<tag k="ssr:type" v="adressenavn" />
	</node>
	<node lat="59.598015968515256" lon="10.694749107495728" id="-28424">
		<tag k="name" v="Urbergs vei" />
		<tag k="ssr:date" v="2019-12-27" />
		<tag k="ssr:gruppe" v="veg" />
		<tag k="ssr:hovedgruppe" v="infrastruktur" />
		<tag k="ssr:stedsnr" v="992090" />
		<tag k="ssr:type" v="adressenavn" />
	</node>
	<node lat="59.521212521264395" lon="10.697783626898142" id="-28425">
		<tag k="name" v="Strømbråtenveien" />
		<tag k="ssr:date" v="2019-12-27" />
		<tag k="ssr:gruppe" v="veg" />
		<tag k="ssr:hovedgruppe" v="infrastruktur" />
		<tag k="ssr:stedsnr" v="992096" />
		<tag k="ssr:type" v="adressenavn" />
	</node>
	<node lat="59.602480739183136" lon="10.75002385998795" id="-28426">
		<tag k="name" v="Østbykroken" />
		<tag k="ssr:date" v="2019-12-27" />
		<tag k="ssr:gruppe" v="veg" />
		<tag k="ssr:hovedgruppe" v="infrastruktur" />
		<tag k="ssr:stedsnr" v="992057" />
		<tag k="ssr:type" v="adressenavn" />
	</node>
	<node lat="59.6033871882325" lon="10.745892941743904" id="-28428">
		<tag k="name" v="Støttumveien" />
		<tag k="ssr:date" v="2019-12-27" />
		<tag k="ssr:gruppe" v="veg" />
		<tag k="ssr:hovedgruppe" v="infrastruktur" />
		<tag k="ssr:stedsnr" v="992186" />
		<tag k="ssr:type" v="adressenavn" />
	</node>
	<node lat="59.59877594267773" lon="10.724593569096447" id="-28429">
		<tag k="name" v="Bjørlistubben" />
		<tag k="ssr:date" v="2019-12-27" />
		<tag k="ssr:gruppe" v="veg" />
		<tag k="ssr:hovedgruppe" v="infrastruktur" />
		<tag k="ssr:stedsnr" v="1066393" />
		<tag k="ssr:type" v="adressenavn" />
	</node>
	<node lat="59.523296020017916" lon="10.704463155704934" id="-28431">
		<tag k="name" v="Bjerkelia" />
		<tag k="ssr:date" v="2019-12-27" />
		<tag k="ssr:gruppe" v="veg" />
		<tag k="ssr:hovedgruppe" v="infrastruktur" />
		<tag k="ssr:stedsnr" v="1066412" />
		<tag k="ssr:type" v="adressenavn" />
	</node>
	<node lat="59.49018811727189" lon="10.690984180510835" id="-28432">
		<tag k="name" v="Brevikveien" />
		<tag k="ssr:date" v="2019-12-27" />
		<tag k="ssr:gruppe" v="veg" />
		<tag k="ssr:hovedgruppe" v="infrastruktur" />
		<tag k="ssr:stedsnr" v="1066455" />
		<tag k="ssr:type" v="adressenavn" />
	</node>
	<node lat="59.50860272019275" lon="10.690831159143375" id="-28433">
		<tag k="name" v="Brevikmyra" />
		<tag k="ssr:date" v="2019-12-27" />
		<tag k="ssr:gruppe" v="veg" />
		<tag k="ssr:hovedgruppe" v="infrastruktur" />
		<tag k="ssr:stedsnr" v="1066458" />
		<tag k="ssr:type" v="adressenavn" />
	</node>
	<node lat="59.59848091418359" lon="10.725760123655805" id="-28434">
		<tag k="name" v="Bjørliveien" />
		<tag k="ssr:date" v="2019-12-27" />
		<tag k="ssr:gruppe" v="veg" />
		<tag k="ssr:hovedgruppe" v="infrastruktur" />
		<tag k="ssr:stedsnr" v="1066470" />
		<tag k="ssr:type" v="adressenavn" />
	</node>
	<node lat="59.519446539405536" lon="10.702754547282712" id="-28439">
		<tag k="name" v="Deør vei" />
		<tag k="ssr:date" v="2019-12-27" />
		<tag k="ssr:gruppe" v="veg" />
		<tag k="ssr:hovedgruppe" v="infrastruktur" />
		<tag k="ssr:stedsnr" v="1066802" />
		<tag k="ssr:type" v="adressenavn" />
	</node>
	<node lat="59.59100469635378" lon="10.653400719233499" id="-28440">
		<tag k="name" v="Bråtebuktveien" />
		<tag k="ssr:date" v="2019-12-27" />
		<tag k="ssr:gruppe" v="veg" />
		<tag k="ssr:hovedgruppe" v="infrastruktur" />
		<tag k="ssr:stedsnr" v="1066834" />
		<tag k="ssr:type" v="adressenavn" />
	</node>
	<node lat="59.541041872084726" lon="10.745195291457383" id="-28441">
		<tag k="name" v="Bruerveien" />
		<tag k="ssr:date" v="2019-12-27" />
		<tag k="ssr:gruppe" v="veg" />
		<tag k="ssr:hovedgruppe" v="infrastruktur" />
		<tag k="ssr:stedsnr" v="1066862" />
		<tag k="ssr:type" v="adressenavn" />
	</node>
	<node lat="59.52267193721377" lon="10.689247174844011" id="-28444">
		<tag k="name" v="Bråtenveien" />
		<tag k="ssr:date" v="2019-12-27" />
		<tag k="ssr:gruppe" v="veg" />
		<tag k="ssr:hovedgruppe" v="infrastruktur" />
		<tag k="ssr:stedsnr" v="1066910" />
		<tag k="ssr:type" v="adressenavn" />
	</node>
	<node lat="59.5937959424481" lon="10.706057448299592" id="-28445">
		<tag k="name" v="Bagerens vei" />
		<tag k="ssr:date" v="2019-12-27" />
		<tag k="ssr:gruppe" v="veg" />
		<tag k="ssr:hovedgruppe" v="infrastruktur" />
		<tag k="ssr:stedsnr" v="1067171" />
		<tag k="ssr:type" v="adressenavn" />
	</node>
	<node lat="59.525454968208706" lon="10.705513421060656" id="-28446">
		<tag k="name" v="Askveien" />
		<tag k="ssr:date" v="2019-12-27" />
		<tag k="ssr:gruppe" v="veg" />
		<tag k="ssr:hovedgruppe" v="infrastruktur" />
		<tag k="ssr:stedsnr" v="1067281" />
		<tag k="ssr:type" v="adressenavn" />
	</node>
	<node lat="59.59783664294267" lon="10.698782677903592" id="-28447">
		<tag k="name" v="Anna Cathrines vei" />
		<tag k="ssr:date" v="2019-12-27" />
		<tag k="ssr:gruppe" v="veg" />
		<tag k="ssr:hovedgruppe" v="infrastruktur" />
		<tag k="ssr:stedsnr" v="1067356" />
		<tag k="ssr:type" v="adressenavn" />
	</node>
	<node lat="59.595293991544025" lon="10.701727925024393" id="-28448">
		<tag k="name" v="Fru Walters vei" />
		<tag k="ssr:date" v="2019-12-27" />
		<tag k="ssr:gruppe" v="veg" />
		<tag k="ssr:hovedgruppe" v="infrastruktur" />
		<tag k="ssr:stedsnr" v="1067801" />
		<tag k="ssr:type" v="adressenavn" />
	</node>
	<node lat="59.56617748095749" lon="10.736017784496257" id="-28449">
		<tag k="name" v="Fjelltorpveien" />
		<tag k="ssr:date" v="2019-12-27" />
		<tag k="ssr:gruppe" v="veg" />
		<tag k="ssr:hovedgruppe" v="infrastruktur" />
		<tag k="ssr:stedsnr" v="1067804" />
		<tag k="ssr:type" v="adressenavn" />
	</node>
	<node lat="59.6018358202257" lon="10.753090995771139" id="-28450">
		<tag k="name" v="Fjellbakkveien" />
		<tag k="ssr:date" v="2019-12-27" />
		<tag k="ssr:gruppe" v="veg" />
		<tag k="ssr:hovedgruppe" v="infrastruktur" />
		<tag k="ssr:stedsnr" v="1067513" />
		<tag k="ssr:type" v="adressenavn" />
	</node>
	<node lat="59.54036821360783" lon="10.739119948622474" id="-28451">
		<tag k="name" v="Elverhøyveien" />
		<tag k="ssr:date" v="2019-12-27" />
		<tag k="ssr:gruppe" v="veg" />
		<tag k="ssr:hovedgruppe" v="infrastruktur" />
		<tag k="ssr:stedsnr" v="1067598" />
		<tag k="ssr:type" v="adressenavn" />
	</node>
	<node lat="59.520941761936484" lon="10.686758850456332" id="-28452">
		<tag k="name" v="Fjellstadbakken" />
		<tag k="ssr:date" v="2019-12-27" />
		<tag k="ssr:gruppe" v="veg" />
		<tag k="ssr:hovedgruppe" v="infrastruktur" />
		<tag k="ssr:stedsnr" v="1067966" />
		<tag k="ssr:type" v="adressenavn" />
	</node>
	<node lat="59.539622219772006" lon="10.742440508658605" id="-28453">
		<tag k="name" v="Dronningveien" />
		<tag k="ssr:date" v="2019-12-27" />
		<tag k="ssr:gruppe" v="veg" />
		<tag k="ssr:hovedgruppe" v="infrastruktur" />
		<tag k="ssr:stedsnr" v="1068077" />
		<tag k="ssr:type" v="adressenavn" />
	</node>
	<node lat="59.61733794388726" lon="10.72723367799854" id="-28454">
		<tag k="name" v="Drøbakveien" />
		<tag k="ssr:date" v="2019-12-27" />
		<tag k="ssr:gruppe" v="veg" />
		<tag k="ssr:hovedgruppe" v="infrastruktur" />
		<tag k="ssr:stedsnr" v="1068380" />
		<tag k="ssr:type" v="adressenavn" />
	</node>
	<node lat="59.60894907761779" lon="10.744063632259278" id="-28455">
		<tag k="name" v="Ekhaugveien" />
		<tag k="ssr:date" v="2019-12-27" />
		<tag k="ssr:gruppe" v="veg" />
		<tag k="ssr:hovedgruppe" v="infrastruktur" />
		<tag k="ssr:stedsnr" v="1068685" />
		<tag k="ssr:type" v="adressenavn" />
	</node>
	<node lat="59.59661720489192" lon="10.692790341134351" id="-28456">
		<tag k="name" v="Elsbergs vei" />
		<tag k="ssr:date" v="2019-12-27" />
		<tag k="ssr:gruppe" v="veg" />
		<tag k="ssr:hovedgruppe" v="infrastruktur" />
		<tag k="ssr:stedsnr" v="1068959" />
		<tag k="ssr:type" v="adressenavn" />
	</node>
	<node lat="59.530593939626975" lon="10.75071500085488" id="-28458">
		<tag k="name" v="Hobølveien" />
		<tag k="ssr:date" v="2019-12-27" />
		<tag k="ssr:gruppe" v="veg" />
		<tag k="ssr:hovedgruppe" v="infrastruktur" />
		<tag k="ssr:stedsnr" v="1069749" />
		<tag k="ssr:type" v="adressenavn" />
	</node>
	<node lat="59.592177337683665" lon="10.715752065486734" id="-28459">
		<tag k="name" v="Herremandens vei" />
		<tag k="ssr:date" v="2019-12-27" />
		<tag k="ssr:gruppe" v="veg" />
		<tag k="ssr:hovedgruppe" v="infrastruktur" />
		<tag k="ssr:stedsnr" v="1069766" />
		<tag k="ssr:type" v="adressenavn" />
	</node>
	<node lat="59.496111816053734" lon="10.692357657229953" id="-28460">
		<tag k="name" v="Eikeliveien" />
		<tag k="ssr:date" v="2019-12-27" />
		<tag k="ssr:gruppe" v="veg" />
		<tag k="ssr:hovedgruppe" v="infrastruktur" />
		<tag k="ssr:stedsnr" v="1069700" />
		<tag k="ssr:type" v="adressenavn" />
	</node>
	<node lat="59.60218927162836" lon="10.749189683586902" id="-28461">
		<tag k="name" v="Grøstadveien" />
		<tag k="ssr:date" v="2019-12-27" />
		<tag k="ssr:gruppe" v="veg" />
		<tag k="ssr:hovedgruppe" v="infrastruktur" />
		<tag k="ssr:stedsnr" v="1070273" />
		<tag k="ssr:type" v="adressenavn" />
	</node>
	<node lat="59.602923010427894" lon="10.751016377874274" id="-28463">
		<tag k="name" v="Høybakkveien" />
		<tag k="ssr:date" v="2019-12-27" />
		<tag k="ssr:gruppe" v="veg" />
		<tag k="ssr:hovedgruppe" v="infrastruktur" />
		<tag k="ssr:stedsnr" v="1069860" />
		<tag k="ssr:type" v="adressenavn" />
	</node>
	<node lat="59.60159785784319" lon="10.75379340117928" id="-28464">
		<tag k="name" v="Idrettsveien" />
		<tag k="ssr:date" v="2019-12-27" />
		<tag k="ssr:gruppe" v="veg" />
		<tag k="ssr:hovedgruppe" v="infrastruktur" />
		<tag k="ssr:stedsnr" v="1069876" />
		<tag k="ssr:type" v="adressenavn" />
	</node>
	<node lat="59.545706564940765" lon="10.656527313099783" id="-28466">
		<tag k="name" v="Hulvikveien" />
		<tag k="ssr:date" v="2019-12-27" />
		<tag k="ssr:gruppe" v="veg" />
		<tag k="ssr:hovedgruppe" v="infrastruktur" />
		<tag k="ssr:stedsnr" v="1069946" />
		<tag k="ssr:type" v="adressenavn" />
	</node>
	<node lat="59.49070503136661" lon="10.689765154680504" id="-28467">
		<tag k="name" v="Holmenveien" />
		<tag k="ssr:date" v="2019-12-27" />
		<tag k="ssr:gruppe" v="veg" />
		<tag k="ssr:hovedgruppe" v="infrastruktur" />
		<tag k="ssr:stedsnr" v="1069952" />
		<tag k="ssr:type" v="adressenavn" />
	</node>
	<node lat="59.60702515083679" lon="10.761634577836277" id="-28468">
		<tag k="name" v="Haugveien" />
		<tag k="ssr:date" v="2019-12-27" />
		<tag k="ssr:gruppe" v="veg" />
		<tag k="ssr:hovedgruppe" v="infrastruktur" />
		<tag k="ssr:stedsnr" v="1069824" />
		<tag k="ssr:type" v="adressenavn" />
	</node>
	<node lat="59.58177468948973" lon="10.70262243313325" id="-28469">
		<tag k="name" v="Hauerveien" />
		<tag k="ssr:date" v="2019-12-27" />
		<tag k="ssr:gruppe" v="veg" />
		<tag k="ssr:hovedgruppe" v="infrastruktur" />
		<tag k="ssr:stedsnr" v="1069827" />
		<tag k="ssr:type" v="adressenavn" />
	</node>
	<node lat="59.576917547514746" lon="10.776159663547666" id="-28470">
		<tag k="name" v="Garderveien" />
		<tag k="ssr:date" v="2019-12-27" />
		<tag k="ssr:gruppe" v="veg" />
		<tag k="ssr:hovedgruppe" v="infrastruktur" />
		<tag k="ssr:stedsnr" v="1070095" />
		<tag k="ssr:type" v="adressenavn" />
	</node>
	<node lat="59.564900547879" lon="10.73648434684288" id="-28471">
		<tag k="name" v="Gamleveien" />
		<tag k="ssr:date" v="2019-12-27" />
		<tag k="ssr:gruppe" v="veg" />
		<tag k="ssr:hovedgruppe" v="infrastruktur" />
		<tag k="ssr:stedsnr" v="1070109" />
		<tag k="ssr:type" v="adressenavn" />
	</node>
	<node lat="59.60460629778984" lon="10.747446918701726" id="-28476">
		<tag k="name" v="Gamle Støttumvei" />
		<tag k="ssr:date" v="2019-12-27" />
		<tag k="ssr:gruppe" v="veg" />
		<tag k="ssr:hovedgruppe" v="infrastruktur" />
		<tag k="ssr:stedsnr" v="1070167" />
		<tag k="ssr:type" v="adressenavn" />
	</node>
	<node lat="59.49457528430898" lon="10.692842361151133" id="-28477">
		<tag k="name" v="Grøntveien" />
		<tag k="ssr:date" v="2019-12-27" />
		<tag k="ssr:gruppe" v="veg" />
		<tag k="ssr:hovedgruppe" v="infrastruktur" />
		<tag k="ssr:stedsnr" v="1070395" />
		<tag k="ssr:type" v="adressenavn" />
	</node>
	<node lat="59.617140823892775" lon="10.739977144783795" id="-28478">
		<tag k="name" v="Kleverveien" />
		<tag k="ssr:date" v="2019-12-27" />
		<tag k="ssr:gruppe" v="veg" />
		<tag k="ssr:hovedgruppe" v="infrastruktur" />
		<tag k="ssr:stedsnr" v="1070516" />
		<tag k="ssr:type" v="adressenavn" />
	</node>
	<node lat="59.53823534338119" lon="10.73236042827248" id="-28479">
		<tag k="name" v="Knapstadveien" />
		<tag k="ssr:date" v="2019-12-27" />
		<tag k="ssr:gruppe" v="veg" />
		<tag k="ssr:hovedgruppe" v="infrastruktur" />
		<tag k="ssr:stedsnr" v="1070461" />
		<tag k="ssr:type" v="adressenavn" />
	</node>
	<node lat="59.52551794163303" lon="10.690438913442778" id="-28480">
		<tag k="name" v="Labobakken" />
		<tag k="ssr:date" v="2019-12-27" />
		<tag k="ssr:gruppe" v="veg" />
		<tag k="ssr:hovedgruppe" v="infrastruktur" />
		<tag k="ssr:stedsnr" v="1070600" />
		<tag k="ssr:type" v="adressenavn" />
	</node>
	<node lat="59.59630885678889" lon="10.720671727372874" id="-28481">
		<tag k="name" v="Krusebyveien" />
		<tag k="ssr:date" v="2019-12-27" />
		<tag k="ssr:gruppe" v="veg" />
		<tag k="ssr:hovedgruppe" v="infrastruktur" />
		<tag k="ssr:stedsnr" v="1070645" />
		<tag k="ssr:type" v="adressenavn" />
	</node>
	<node lat="59.602325403394055" lon="10.746857573562332" id="-28482">
		<tag k="name" v="Kroerveien" />
		<tag k="ssr:date" v="2019-12-27" />
		<tag k="ssr:gruppe" v="veg" />
		<tag k="ssr:hovedgruppe" v="infrastruktur" />
		<tag k="ssr:stedsnr" v="1070652" />
		<tag k="ssr:type" v="adressenavn" />
	</node>
	<node lat="59.53212172725692" lon="10.748920254402254" id="-28483">
		<tag k="name" v="Kongeveien" />
		<tag k="ssr:date" v="2019-12-27" />
		<tag k="ssr:gruppe" v="veg" />
		<tag k="ssr:hovedgruppe" v="infrastruktur" />
		<tag k="ssr:stedsnr" v="1070659" />
		<tag k="ssr:type" v="adressenavn" />
	</node>
	<node lat="59.61182462540926" lon="10.740596453996668" id="-28484">
		<tag k="name" v="Kvelletoppen" />
		<tag k="ssr:date" v="2019-12-27" />
		<tag k="ssr:gruppe" v="veg" />
		<tag k="ssr:hovedgruppe" v="infrastruktur" />
		<tag k="ssr:stedsnr" v="1070682" />
		<tag k="ssr:type" v="adressenavn" />
	</node>
	<node lat="59.595914529003835" lon="10.704237483281355" id="-28485">
		<tag k="name" v="Jomfru Møllers vei" />
		<tag k="ssr:date" v="2019-12-27" />
		<tag k="ssr:gruppe" v="veg" />
		<tag k="ssr:hovedgruppe" v="infrastruktur" />
		<tag k="ssr:stedsnr" v="1070736" />
		<tag k="ssr:type" v="adressenavn" />
	</node>
	<node lat="59.591751520422555" lon="10.706381690438052" id="-28486">
		<tag k="name" v="Johnsrudveien" />
		<tag k="ssr:date" v="2019-12-27" />
		<tag k="ssr:gruppe" v="veg" />
		<tag k="ssr:hovedgruppe" v="infrastruktur" />
		<tag k="ssr:stedsnr" v="1070741" />
		<tag k="ssr:type" v="adressenavn" />
	</node>
	<node lat="59.59596550930763" lon="10.705313477727671" id="-28487">
		<tag k="name" v="Jomfru Aaslevs vei" />
		<tag k="ssr:date" v="2019-12-27" />
		<tag k="ssr:gruppe" v="veg" />
		<tag k="ssr:hovedgruppe" v="infrastruktur" />
		<tag k="ssr:stedsnr" v="1070730" />
		<tag k="ssr:type" v="adressenavn" />
	</node>
	<node lat="59.59596550930763" lon="10.705313477727671" id="-28488">
		<tag k="name" v="Jomfru Winthers vei" />
		<tag k="ssr:date" v="2019-12-27" />
		<tag k="ssr:gruppe" v="veg" />
		<tag k="ssr:hovedgruppe" v="infrastruktur" />
		<tag k="ssr:stedsnr" v="1070732" />
		<tag k="ssr:type" v="adressenavn" />
	</node>
	<node lat="59.59270567067642" lon="10.706762284647498" id="-28489">
		<tag k="name" v="Karen Bachs vei" />
		<tag k="ssr:date" v="2019-12-27" />
		<tag k="ssr:gruppe" v="veg" />
		<tag k="ssr:hovedgruppe" v="infrastruktur" />
		<tag k="ssr:stedsnr" v="1070922" />
		<tag k="ssr:type" v="adressenavn" />
	</node>
	<node lat="59.59278142154218" lon="10.715493843337045" id="-28490">
		<tag k="name" v="Johans vei" />
		<tag k="ssr:date" v="2019-12-27" />
		<tag k="ssr:gruppe" v="veg" />
		<tag k="ssr:hovedgruppe" v="infrastruktur" />
		<tag k="ssr:stedsnr" v="1070853" />
		<tag k="ssr:type" v="adressenavn" />
	</node>
	<node lat="59.60148239579417" lon="10.746641217090394" id="-28493">
		<tag k="name" v="Mølleveien" />
		<tag k="ssr:date" v="2019-12-27" />
		<tag k="ssr:gruppe" v="veg" />
		<tag k="ssr:hovedgruppe" v="infrastruktur" />
		<tag k="ssr:stedsnr" v="1071088" />
		<tag k="ssr:type" v="adressenavn" />
	</node>
	<node lat="59.59148531191701" lon="10.714838247683083" id="-28496">
		<tag k="name" v="Mettes vei" />
		<tag k="ssr:date" v="2019-12-27" />
		<tag k="ssr:gruppe" v="veg" />
		<tag k="ssr:hovedgruppe" v="infrastruktur" />
		<tag k="ssr:stedsnr" v="1071105" />
		<tag k="ssr:type" v="adressenavn" />
	</node>
	<node lat="59.54177752124115" lon="10.737402337116508" id="-28497">
		<tag k="name" v="Molvikveien" />
		<tag k="ssr:date" v="2019-12-27" />
		<tag k="ssr:gruppe" v="veg" />
		<tag k="ssr:hovedgruppe" v="infrastruktur" />
		<tag k="ssr:stedsnr" v="1071073" />
		<tag k="ssr:type" v="adressenavn" />
	</node>
	<node lat="59.60100679188871" lon="10.750012969532259" id="-28498">
		<tag k="name" v="Nordbybakken" />
		<tag k="ssr:date" v="2019-12-27" />
		<tag k="ssr:gruppe" v="veg" />
		<tag k="ssr:hovedgruppe" v="infrastruktur" />
		<tag k="ssr:stedsnr" v="1071238" />
		<tag k="ssr:type" v="adressenavn" />
	</node>
	<node lat="59.618656128508945" lon="10.744182544298607" id="-28499">
		<tag k="name" v="Måneveien" />
		<tag k="ssr:date" v="2019-12-27" />
		<tag k="ssr:gruppe" v="veg" />
		<tag k="ssr:hovedgruppe" v="infrastruktur" />
		<tag k="ssr:stedsnr" v="1071257" />
		<tag k="ssr:type" v="adressenavn" />
	</node>
	<node lat="59.53903862470451" lon="10.74158466263926" id="-28500">
		<tag k="name" v="Lille Strandgate" />
		<tag k="ssr:date" v="2019-12-27" />
		<tag k="ssr:gruppe" v="veg" />
		<tag k="ssr:hovedgruppe" v="infrastruktur" />
		<tag k="ssr:stedsnr" v="1071278" />
		<tag k="ssr:type" v="adressenavn" />
	</node>
	<node lat="59.49425384492054" lon="10.690590332189618" id="-28501">
		<tag k="name" v="Liaveien" />
		<tag k="ssr:date" v="2019-12-27" />
		<tag k="ssr:gruppe" v="veg" />
		<tag k="ssr:hovedgruppe" v="infrastruktur" />
		<tag k="ssr:stedsnr" v="1071284" />
		<tag k="ssr:type" v="adressenavn" />
	</node>
	<node lat="59.60973684520259" lon="10.741161705495433" id="-28503">
		<tag k="name" v="Landåsveien" />
		<tag k="ssr:date" v="2019-12-27" />
		<tag k="ssr:gruppe" v="veg" />
		<tag k="ssr:hovedgruppe" v="infrastruktur" />
		<tag k="ssr:stedsnr" v="1071406" />
		<tag k="ssr:type" v="adressenavn" />
	</node>
	<node lat="59.56797180910917" lon="10.752686506949413" id="-28504">
		<tag k="name" v="Langliveien" />
		<tag k="ssr:date" v="2019-12-27" />
		<tag k="ssr:gruppe" v="veg" />
		<tag k="ssr:hovedgruppe" v="infrastruktur" />
		<tag k="ssr:stedsnr" v="1071411" />
		<tag k="ssr:type" v="adressenavn" />
	</node>
	<node lat="59.59770938070059" lon="10.657729341808887" id="-28506">
		<tag k="name" v="Leif Aasens vei" />
		<tag k="ssr:date" v="2019-12-27" />
		<tag k="ssr:gruppe" v="veg" />
		<tag k="ssr:hovedgruppe" v="infrastruktur" />
		<tag k="ssr:stedsnr" v="1071369" />
		<tag k="ssr:type" v="adressenavn" />
	</node>
	<node lat="59.5090120614502" lon="10.694789523415793" id="-28507">
		<tag k="name" v="Marenstien" />
		<tag k="ssr:date" v="2019-12-27" />
		<tag k="ssr:gruppe" v="veg" />
		<tag k="ssr:hovedgruppe" v="infrastruktur" />
		<tag k="ssr:stedsnr" v="1071477" />
		<tag k="ssr:type" v="adressenavn" />
	</node>
	<node lat="59.49907252821746" lon="10.695650859066394" id="-28508">
		<tag k="name" v="Lysøveien" />
		<tag k="ssr:date" v="2019-12-27" />
		<tag k="ssr:gruppe" v="veg" />
		<tag k="ssr:hovedgruppe" v="infrastruktur" />
		<tag k="ssr:stedsnr" v="1071560" />
		<tag k="ssr:type" v="adressenavn" />
	</node>
	<node lat="59.608373729478494" lon="10.745024192812163" id="-28509">
		<tag k="name" v="Randembrekka" />
		<tag k="ssr:date" v="2019-12-27" />
		<tag k="ssr:gruppe" v="veg" />
		<tag k="ssr:hovedgruppe" v="infrastruktur" />
		<tag k="ssr:stedsnr" v="1071572" />
		<tag k="ssr:type" v="adressenavn" />
	</node>
	<node lat="59.61008650324798" lon="10.740911914616728" id="-28510">
		<tag k="name" v="Randemfaret" />
		<tag k="ssr:date" v="2019-12-27" />
		<tag k="ssr:gruppe" v="veg" />
		<tag k="ssr:hovedgruppe" v="infrastruktur" />
		<tag k="ssr:stedsnr" v="1071581" />
		<tag k="ssr:type" v="adressenavn" />
	</node>
	<node lat="59.60626060409218" lon="10.757992769589949" id="-28511">
		<tag k="name" v="Noreveien" />
		<tag k="ssr:date" v="2019-12-27" />
		<tag k="ssr:gruppe" v="veg" />
		<tag k="ssr:hovedgruppe" v="infrastruktur" />
		<tag k="ssr:stedsnr" v="1071738" />
		<tag k="ssr:type" v="adressenavn" />
	</node>
	<node lat="59.61802884485648" lon="10.747293799137482" id="-28512">
		<tag k="name" v="Nordlysveien" />
		<tag k="ssr:date" v="2019-12-27" />
		<tag k="ssr:gruppe" v="veg" />
		<tag k="ssr:hovedgruppe" v="infrastruktur" />
		<tag k="ssr:stedsnr" v="1071762" />
		<tag k="ssr:type" v="adressenavn" />
	</node>
	<node lat="59.61863432463273" lon="10.74271039048365" id="-28513">
		<tag k="name" v="Planetveien" />
		<tag k="ssr:date" v="2019-12-27" />
		<tag k="ssr:gruppe" v="veg" />
		<tag k="ssr:hovedgruppe" v="infrastruktur" />
		<tag k="ssr:stedsnr" v="1071597" />
		<tag k="ssr:type" v="adressenavn" />
	</node>
	<node lat="59.612801163776446" lon="10.744742040950298" id="-28514">
		<tag k="name" v="Randembakken" />
		<tag k="ssr:date" v="2019-12-27" />
		<tag k="ssr:gruppe" v="veg" />
		<tag k="ssr:hovedgruppe" v="infrastruktur" />
		<tag k="ssr:stedsnr" v="1071606" />
		<tag k="ssr:type" v="adressenavn" />
	</node>
	<node lat="59.59843725671229" lon="10.69697631434771" id="-28515">
		<tag k="name" v="Preislers vei" />
		<tag k="ssr:date" v="2019-12-27" />
		<tag k="ssr:gruppe" v="veg" />
		<tag k="ssr:hovedgruppe" v="infrastruktur" />
		<tag k="ssr:stedsnr" v="1071616" />
		<tag k="ssr:type" v="adressenavn" />
	</node>
	<node lat="59.61624141164275" lon="10.745174248235612" id="-28516">
		<tag k="name" v="Randemlia" />
		<tag k="ssr:date" v="2019-12-27" />
		<tag k="ssr:gruppe" v="veg" />
		<tag k="ssr:hovedgruppe" v="infrastruktur" />
		<tag k="ssr:stedsnr" v="1071630" />
		<tag k="ssr:type" v="adressenavn" />
	</node>
	<node lat="59.615399771880654" lon="10.745276605678736" id="-28517">
		<tag k="name" v="Randemkroken" />
		<tag k="ssr:date" v="2019-12-27" />
		<tag k="ssr:gruppe" v="veg" />
		<tag k="ssr:hovedgruppe" v="infrastruktur" />
		<tag k="ssr:stedsnr" v="1071712" />
		<tag k="ssr:type" v="adressenavn" />
	</node>
	<node lat="59.56580463363258" lon="10.73503542420668" id="-28518">
		<tag k="name" v="Nordvangveien" />
		<tag k="ssr:date" v="2019-12-27" />
		<tag k="ssr:gruppe" v="veg" />
		<tag k="ssr:hovedgruppe" v="infrastruktur" />
		<tag k="ssr:stedsnr" v="1071734" />
		<tag k="ssr:type" v="adressenavn" />
	</node>
	<node lat="59.53946660982978" lon="10.738409543993532" id="-28519">
		<tag k="name" v="Parkveien" />
		<tag k="ssr:date" v="2019-12-27" />
		<tag k="ssr:gruppe" v="veg" />
		<tag k="ssr:hovedgruppe" v="infrastruktur" />
		<tag k="ssr:stedsnr" v="1071850" />
		<tag k="ssr:type" v="adressenavn" />
	</node>
	<node lat="59.600135927507615" lon="10.756419299153912" id="-28520">
		<tag k="name" v="Odins vei" />
		<tag k="ssr:date" v="2019-12-27" />
		<tag k="ssr:gruppe" v="veg" />
		<tag k="ssr:hovedgruppe" v="infrastruktur" />
		<tag k="ssr:stedsnr" v="1071860" />
		<tag k="ssr:type" v="adressenavn" />
	</node>
	<node lat="59.52887307451902" lon="10.702472809776491" id="-28522">
		<tag k="name" v="Labuåsen" />
		<tag k="ssr:date" v="2019-12-27" />
		<tag k="ssr:gruppe" v="veg" />
		<tag k="ssr:hovedgruppe" v="infrastruktur" />
		<tag k="ssr:stedsnr" v="1072919" />
		<tag k="ssr:type" v="adressenavn" />
	</node>
	<node lat="59.55616070604153" lon="10.655205079944542" id="-28556">
		<tag k="name" v="Lundebakken" />
		<tag k="ssr:date" v="2021-11-22" />
		<tag k="ssr:gruppe" v="veg" />
		<tag k="ssr:hovedgruppe" v="infrastruktur" />
		<tag k="ssr:stedsnr" v="1082940" />
		<tag k="ssr:type" v="adressenavn" />
	</node>
</osm>
