<?xml version="1.0" encoding="UTF-8"?>
<osm version="0.6" generator="osmapis">
	<node lat="58.75106389074803" lon="5.704722222418761" id="-870">
		<tag k="landuse" v="meadow" />
		<tag k="name" v="Stemmen" />
		<tag k="ssr:stedsnr" v="24429" />
	</node>
	<node lat="58.71903611182535" lon="5.642688888363359" id="-874">
		<tag k="name" v="Breimyra" />
		<tag k="natural" v="wetland" />
		<tag k="ssr:stedsnr" v="59301" />
	</node>
	<node lat="58.700136113099724" lon="5.738902785955578" id="-895">
		<tag k="name" v="Mossigemarkene" />
		<tag k="place" v="locality" />
		<tag k="ssr:stedsnr" v="101470" />
	</node>
	<node lat="58.75829721821936" lon="5.749088897374895" id="-914">
		<tag k="name" v="Prosteinen" />
		<tag k="natural" v="stone" />
		<tag k="ssr:stedsnr" v="266162" />
	</node>
	<node lat="58.74467777377862" lon="5.752197221566953" id="-917">
		<tag k="name" v="Tronsmyr" />
		<tag k="natural" v="wetland" />
		<tag k="ssr:stedsnr" v="206223" />
	</node>
	<node lat="58.7073194485526" lon="5.772188893549852" id="-928">
		<tag k="name" v="Nesjane" />
		<tag k="place" v="locality" />
		<tag k="ssr:stedsnr" v="283416" />
	</node>
	<node lat="58.65897500038629" lon="5.846600001645886" id="-938">
		<tag k="name" v="Moltemyr" />
		<tag k="natural" v="wetland" />
		<tag k="ssr:stedsnr" v="326205" />
	</node>
	<node lat="58.65369721870856" lon="5.759933340675759" id="-948">
		<tag k="name" v="Hellandsmarkene" />
		<tag k="place" v="locality" />
		<tag k="ssr:stedsnr" v="358258" />
	</node>
	<node lat="58.766752774681535" lon="5.715980548478174" id="-962">
		<tag k="name" v="Kringlemyr" />
		<tag k="natural" v="wetland" />
		<tag k="ssr:stedsnr" v="387509" />
	</node>
	<node lat="58.77673888660141" lon="5.754805549852581" id="-963">
		<tag k="landuse" v="meadow" />
		<tag k="name" v="Høgaleite" />
		<tag k="ssr:stedsnr" v="388595" />
	</node>
	<node lat="58.77182777368519" lon="5.760141663646218" id="-1002">
		<tag k="name" v="Froylandsmyrane" />
		<tag k="natural" v="wetland" />
		<tag k="ssr:stedsnr" v="449121" />
	</node>
	<node lat="58.74486944888644" lon="5.791836114375167" id="-1017">
		<tag k="landuse" v="meadow" />
		<tag k="name" v="Langemyr" />
		<tag k="ssr:stedsnr" v="509216" />
	</node>
	<node lat="58.67076111011885" lon="5.793152770453717" id="-1026">
		<tag k="name" v="Freistadbakken" />
		<tag k="place" v="locality" />
		<tag k="ssr:stedsnr" v="540264" />
	</node>
	<node lat="58.73816388511814" lon="5.816816671461147" id="-1038">
		<tag k="name" v="Lunnarsmyr" />
		<tag k="place" v="locality" />
		<tag k="ssr:stedsnr" v="691269" />
	</node>
	<node lat="58.77816666994169" lon="5.762311102386337" id="-1041">
		<tag k="landuse" v="meadow" />
		<tag k="name" v="Odernes" />
		<tag k="ssr:stedsnr" v="691621" />
	</node>
	<node lat="58.70523333084718" lon="5.6328277715453625" id="-1049">
		<tag k="name" v="Steinslandsmyrane" />
		<tag k="natural" v="wetland" />
		<tag k="ssr:stedsnr" v="586451" />
	</node>
	<node lat="58.72439999904997" lon="5.8400250080346305" id="-1104">
		<tag k="name" v="Engjamyrane" />
		<tag k="natural" v="wetland" />
		<tag k="ssr:stedsnr" v="751707" />
	</node>
	<node lat="58.74537500131169" lon="5.754958340667902" id="-1106">
		<tag k="name" v="Joglamyr" />
		<tag k="natural" v="wetland" />
		<tag k="ssr:stedsnr" v="752203" />
	</node>
	<node lat="58.76094166926621" lon="5.787511112149286" id="-1145">
		<tag k="name" v="Kvitemyr" />
		<tag k="natural" v="wetland" />
		<tag k="ssr:stedsnr" v="813103" />
	</node>
	<node lat="58.64786944327257" lon="5.783044452511602" id="-1171">
		<tag k="name" v="Tomasmyrane" />
		<tag k="place" v="locality" />
		<tag k="ssr:stedsnr" v="905252" />
	</node>
	<node lat="58.751008333474445" lon="5.801824994481954" id="-1185">
		<tag k="landuse" v="meadow" />
		<tag k="name" v="Ørnabråtet" />
		<tag k="ssr:stedsnr" v="934207" />
	</node>
	<node lat="58.64338333121501" lon="5.782975002407632" id="-1187">
		<tag k="name" v="Reimestølen" />
		<tag k="place" v="locality" />
		<tag k="ssr:stedsnr" v="950485" />
	</node>
	<node lat="58.751733333224784" lon="5.773574998128179" id="-1206">
		<tag k="name" v="Langamyr" />
		<tag k="natural" v="wetland" />
		<tag k="ssr:stedsnr" v="24201" />
	</node>
	<node lat="58.745802778268626" lon="5.803650004534474" id="-1207">
		<tag k="landuse" v="meadow" />
		<tag k="name" v="Kvithei" />
		<tag k="ssr:stedsnr" v="24204" />
	</node>
	<node lat="58.69963888539909" lon="5.825050006681164" id="-1211">
		<tag k="name" v="Longemyr" />
		<tag k="natural" v="wetland" />
		<tag k="ssr:stedsnr" v="40493" />
	</node>
	<node lat="58.694649998446266" lon="5.697580557706247" id="-1213">
		<tag k="name" v="Grødeimsmarkene" />
		<tag k="place" v="locality" />
		<tag k="ssr:stedsnr" v="41458" />
	</node>
	<node lat="58.737952781805" lon="5.743711105467191" id="-1229">
		<tag k="landuse" v="meadow" />
		<tag k="name" v="Ragnestøl" />
		<tag k="ssr:stedsnr" v="84161" />
	</node>
	<node lat="58.74925000083079" lon="5.813138894551537" id="-1230">
		<tag k="name" v="Villarås" />
		<tag k="place" v="locality" />
		<tag k="ssr:stedsnr" v="84245" />
	</node>
	<node lat="58.74947777637565" lon="5.74115555820646" id="-1232">
		<tag k="name" v="Langemyr" />
		<tag k="natural" v="wetland" />
		<tag k="ssr:stedsnr" v="84257" />
	</node>
	<node lat="58.746325001698104" lon="5.718572226126808" id="-1233">
		<tag k="name" v="Barklandshagane" />
		<tag k="place" v="locality" />
		<tag k="ssr:stedsnr" v="85362" />
	</node>
	<node lat="58.64304722487206" lon="5.769902776754819" id="-1254">
		<tag k="historic" v="shieling" />
		<tag k="name" v="Skrettingstølen" />
		<tag k="place" v="locality" />
		<tag k="ssr:stedsnr" v="161488" />
	</node>
	<node lat="58.67754073384397" lon="5.834127683776437" id="-1259">
		<tag k="name" v="Steinvorstøl" />
		<tag k="place" v="locality" />
		<tag k="ssr:stedsnr" v="176253" />
	</node>
	<node lat="58.70661666946178" lon="5.735494444271844" id="-1270">
		<tag k="name" v="Lendemyrane" />
		<tag k="natural" v="wetland" />
		<tag k="ssr:stedsnr" v="182773" />
	</node>
	<node lat="58.766008337843" lon="5.8070083394544945" id="-1276">
		<tag k="name" v="Foren" />
		<tag k="natural" v="wetland" />
		<tag k="ssr:stedsnr" v="206143" />
	</node>
	<node lat="58.75208611404315" lon="5.69126944224383" id="-1281">
		<tag k="alt_name" v="Nåskogen" />
		<tag k="name" v="Njåskogen" />
		<tag k="place" v="locality" />
		<tag k="ssr:stedsnr" v="206410" />
	</node>
	<node lat="58.69645833640769" lon="5.739575003471336" id="-1311">
		<tag k="name" v="Forna-Mossige" />
		<tag k="place" v="locality" />
		<tag k="ssr:stedsnr" v="343456" />
	</node>
	<node lat="58.69201110722506" lon="5.717305562436481" id="-1313">
		<tag k="name" v="Mossigelunden" />
		<tag k="place" v="locality" />
		<tag k="ssr:stedsnr" v="345437" />
	</node>
	<node lat="58.65254444734302" lon="5.782852781089512" id="-1320">
		<tag k="name" v="Hellandsmyra" />
		<tag k="natural" v="wetland" />
		<tag k="ssr:stedsnr" v="364308" />
	</node>
	<node lat="58.76250000212767" lon="5.747636108405963" id="-1331">
		<tag k="name" v="Kvitemyr" />
		<tag k="natural" v="wetland" />
		<tag k="ssr:stedsnr" v="387175" />
	</node>
	<node lat="58.68360833560323" lon="5.707911115451083" id="-1335">
		<tag k="name" v="Garborgforane" />
		<tag k="natural" v="wetland" />
		<tag k="ssr:stedsnr" v="404337" />
	</node>
	<node lat="58.66208055178525" lon="5.807316673239904" id="-1345">
		<tag k="name" v="Jurå" />
		<tag k="place" v="locality" />
		<tag k="ssr:stedsnr" v="419261" />
	</node>
	<node lat="58.75504722014197" lon="5.748522219735745" id="-1352">
		<tag k="name" v="Stakkamyr" />
		<tag k="natural" v="wetland" />
		<tag k="ssr:stedsnr" v="449124" />
	</node>
	<node lat="58.78007500238268" lon="5.779875001907315" id="-1355">
		<tag k="name" v="Lambakk" />
		<tag k="place" v="locality" />
		<tag k="ssr:stedsnr" v="509583" />
	</node>
	<node lat="58.77711944097374" lon="5.746475001665993" id="-1356">
		<tag k="landuse" v="meadow" />
		<tag k="name" v="Smørdalen" />
		<tag k="ssr:stedsnr" v="509585" />
	</node>
	<node lat="58.67748055201086" lon="5.791963894219887" id="-1378">
		<tag k="name" v="Knudaheia" />
		<tag k="place" v="locality" />
		<tag k="ssr:stedsnr" v="585298" />
	</node>
	<node lat="58.707241669168994" lon="5.817758337068278" id="-1379">
		<tag k="name" v="Alisforen" />
		<tag k="natural" v="wetland" />
		<tag k="ssr:stedsnr" v="586481" />
	</node>
	<node lat="58.655369440371864" lon="5.795858336977448" id="-1402">
		<tag k="name" v="Graslia" />
		<tag k="place" v="locality" />
		<tag k="ssr:stedsnr" v="662249" />
	</node>
	<node lat="58.749391664019875" lon="5.827636106384672" id="-1443">
		<tag k="name" v="Stålhammrane" />
		<tag k="place" v="locality" />
		<tag k="ssr:stedsnr" v="813177" />
	</node>
	<node lat="58.67420555640089" lon="5.743811102950737" id="-1451">
		<tag k="name" v="Tunheimsmarkene" />
		<tag k="place" v="locality" />
		<tag k="ssr:stedsnr" v="829342" />
	</node>
	<node lat="58.75585833328495" lon="5.792394442489298" id="-1469">
		<tag k="name" v="Piggbergmyra" />
		<tag k="natural" v="wetland" />
		<tag k="ssr:stedsnr" v="873146" />
	</node>
	<node lat="58.750061111758264" lon="5.768344444121539" id="-1471">
		<tag k="name" v="Kumyr" />
		<tag k="natural" v="wetland" />
		<tag k="ssr:stedsnr" v="873241" />
	</node>
	<node lat="58.779430554124296" lon="5.742658330235891" id="-1474">
		<tag k="name" v="Kalberglunden" />
		<tag k="place" v="locality" />
		<tag k="ssr:stedsnr" v="873594" />
	</node>
</osm>
