<?xml version="1.0" encoding="UTF-8"?>
<osm version="0.6" generator="osmapis">
	<node lat="58.77017778183703" lon="5.795349996052918" id="-866">
		<tag k="name" v="Storehol" />
		<tag k="natural" v="hill" />
		<tag k="place" v="locality" />
		<tag k="ssr:stedsnr" v="24109" />
	</node>
	<node lat="58.73619166673963" lon="5.768236109490883" id="-868">
		<tag k="name" v="Hådal" />
		<tag k="natural" v="valley" />
		<tag k="place" v="locality" />
		<tag k="ssr:stedsnr" v="24199" />
	</node>
	<node lat="58.662513889565574" lon="5.829511103064936" id="-871">
		<tag k="fixme" v="consider natural=peak for the most distinct mountains in the district" />
		<tag k="name" v="Barnatørne" />
		<tag k="natural" v="hill" />
		<tag k="place" v="locality" />
		<tag k="ssr:stedsnr" v="237260" />
	</node>
	<node lat="58.67506110844675" lon="5.7893222282919" id="-873">
		<tag k="name" v="Kvernaberget" />
		<tag k="natural" v="hill" />
		<tag k="place" v="locality" />
		<tag k="ssr:stedsnr" v="55267" />
	</node>
	<node lat="58.62643055964535" lon="5.887750006634714" id="-875">
		<tag k="fixme" v="consider natural=peak for the most distinct mountains in the district" />
		<tag k="name" v="Brusaknuden" />
		<tag k="natural" v="hill" />
		<tag k="place" v="locality" />
		<tag k="ssr:stedsnr" v="61015" />
	</node>
	<node lat="58.74431666860478" lon="5.734163895918169" id="-887">
		<tag k="alt_name" v="Håfjell" />
		<tag k="fixme" v="consider natural=peak for the most distinct mountains in the district" />
		<tag k="name" v="Njåfjellet" />
		<tag k="natural" v="hill" />
		<tag k="place" v="locality" />
		<tag k="ssr:stedsnr" v="243842" />
	</node>
	<node lat="58.713444443254836" lon="5.663441668598582" id="-896">
		<tag k="name" v="Smukkeholen" />
		<tag k="natural" v="hill" />
		<tag k="place" v="locality" />
		<tag k="ssr:stedsnr" v="120288" />
	</node>
	<node lat="58.699577781892394" lon="5.7202166582480105" id="-898">
		<tag k="alt_name" v="Mossigerudla" />
		<tag k="fixme" v="consider natural=peak for the most distinct mountains in the district" />
		<tag k="name" v="Rulla" />
		<tag k="natural" v="hill" />
		<tag k="old_name" v="Odlo" />
		<tag k="place" v="locality" />
		<tag k="ssr:stedsnr" v="121803" />
	</node>
	<node lat="58.66070555150783" lon="5.851944442284516" id="-900">
		<tag k="fixme" v="consider natural=peak for the most distinct mountains in the district" />
		<tag k="name" v="Skarkjen" />
		<tag k="natural" v="hill" />
		<tag k="place" v="locality" />
		<tag k="ssr:stedsnr" v="144227" />
	</node>
	<node lat="58.73913055140987" lon="5.731566669416007" id="-901">
		<tag k="fixme" v="consider natural=peak for the most distinct mountains in the district" />
		<tag k="name" v="Langeto" />
		<tag k="natural" v="hill" />
		<tag k="place" v="locality" />
		<tag k="ssr:stedsnr" v="145124" />
	</node>
	<node lat="58.77497499853888" lon="5.77676666391173" id="-902">
		<tag k="name" v="Nunberg" />
		<tag k="natural" v="hill" />
		<tag k="place" v="locality" />
		<tag k="ssr:stedsnr" v="145125" />
	</node>
	<node lat="58.74123055345275" lon="5.767450002149505" id="-903">
		<tag k="fixme" v="consider natural=peak for the most distinct mountains in the district" />
		<tag k="name" v="Rimnut" />
		<tag k="natural" v="hill" />
		<tag k="place" v="locality" />
		<tag k="ssr:stedsnr" v="145225" />
	</node>
	<node lat="58.676244443784334" lon="5.791319450971004" id="-906">
		<tag k="name" v="Mærliskaret" />
		<tag k="natural" v="valley" />
		<tag k="place" v="locality" />
		<tag k="ssr:stedsnr" v="176313" />
	</node>
	<node lat="58.718956959653404" lon="5.829134400741038" id="-908">
		<tag k="alt_name" v="Sælandsfjell" />
		<tag k="fixme" v="consider natural=peak for the most distinct mountains in the district" />
		<tag k="name" v="Sælandsfjellet" />
		<tag k="natural" v="hill" />
		<tag k="place" v="locality" />
		<tag k="ssr:stedsnr" v="182827" />
	</node>
	<node lat="58.68291389165377" lon="5.930297230269595" id="-912">
		<tag k="name" v="Stavsto" />
		<tag k="place" v="locality" />
		<tag k="ssr:stedsnr" v="265217" />
	</node>
	<node lat="58.73836667090852" lon="5.735749996917514" id="-915">
		<tag k="name" v="Helleberg" />
		<tag k="natural" v="hill" />
		<tag k="place" v="locality" />
		<tag k="ssr:stedsnr" v="206134" />
	</node>
	<node lat="58.71458611000963" lon="5.67905277122516" id="-919">
		<tag k="name" v="Halsen" />
		<tag k="place" v="locality" />
		<tag k="ssr:stedsnr" v="222405" />
	</node>
	<node lat="58.70877293615337" lon="5.810738117327276" id="-922">
		<tag k="loc_name" v="Blåfjell" />
		<tag k="name" v="Blåfjellet" />
		<tag k="place" v="locality" />
		<tag k="ssr:stedsnr" v="243788" />
	</node>
	<node lat="58.66853333025086" lon="5.858627784537822" id="-924">
		<tag k="name" v="Auranesdalen" />
		<tag k="natural" v="valley" />
		<tag k="place" v="locality" />
		<tag k="ssr:stedsnr" v="265211" />
	</node>
	<node lat="58.70226111485369" lon="5.8634472224445515" id="-925">
		<tag k="fixme" v="consider natural=peak for the most distinct mountains in the district" />
		<tag k="name" v="Skårlandskula" />
		<tag k="natural" v="hill" />
		<tag k="place" v="locality" />
		<tag k="ssr:stedsnr" v="265237" />
	</node>
	<node lat="58.747900000924616" lon="5.765583325108973" id="-926">
		<tag k="name" v="Buberg" />
		<tag k="natural" v="hill" />
		<tag k="place" v="locality" />
		<tag k="ssr:stedsnr" v="266241" />
	</node>
	<node lat="58.72885000071418" lon="5.639219440598822" id="-932">
		<tag k="name" v="Kolheia" />
		<tag k="natural" v="hill" />
		<tag k="place" v="locality" />
		<tag k="ssr:stedsnr" v="302326" />
	</node>
	<node lat="58.61548378689123" lon="5.814452733285194" id="-933">
		<tag k="fixme" v="consider natural=peak for the most distinct mountains in the district" />
		<tag k="name" v="Synesvarden" />
		<tag k="natural" v="hill" />
		<tag k="place" v="locality" />
		<tag k="ssr:stedsnr" v="303271" />
	</node>
	<node lat="58.741455554152175" lon="5.79434167060684" id="-935">
		<tag k="fixme" v="consider natural=peak for the most distinct mountains in the district" />
		<tag k="name" v="Røynåsen" />
		<tag k="natural" v="hill" />
		<tag k="place" v="locality" />
		<tag k="ssr:stedsnr" v="303836" />
	</node>
	<node lat="58.705136114140494" lon="5.75784723051528" id="-936">
		<tag k="name" v="Landaberget" />
		<tag k="natural" v="hill" />
		<tag k="place" v="locality" />
		<tag k="ssr:stedsnr" v="465451" />
	</node>
	<node lat="58.741438892748896" lon="5.750844446116038" id="-939">
		<tag k="fixme" v="consider natural=peak for the most distinct mountains in the district" />
		<tag k="name" v="Varden" />
		<tag k="natural" v="hill" />
		<tag k="place" v="locality" />
		<tag k="ssr:stedsnr" v="327125" />
	</node>
	<node lat="58.73696944163865" lon="5.754538884063126" id="-940">
		<tag k="name" v="Kyrkjeberg" />
		<tag k="natural" v="hill" />
		<tag k="place" v="locality" />
		<tag k="ssr:stedsnr" v="327127" />
	</node>
	<node lat="58.74884721892418" lon="5.71339722365541" id="-941">
		<tag k="name" v="Figlingsvarden" />
		<tag k="natural" v="hill" />
		<tag k="place" v="locality" />
		<tag k="ssr:stedsnr" v="328412" />
	</node>
	<node lat="58.686194442378635" lon="5.898530552048235" id="-953">
		<tag k="name" v="Bjønndalen" />
		<tag k="natural" v="valley" />
		<tag k="place" v="locality" />
		<tag k="ssr:stedsnr" v="386216" />
	</node>
	<node lat="58.68624444601717" lon="5.917663892911094" id="-954">
		<tag k="fixme" v="consider natural=peak for the most distinct mountains in the district" />
		<tag k="name" v="Heddane" />
		<tag k="natural" v="hill" />
		<tag k="place" v="locality" />
		<tag k="ssr:stedsnr" v="386217" />
	</node>
	<node lat="58.733533333504425" lon="5.754966672562322" id="-955">
		<tag k="fixme" v="consider natural=peak for the most distinct mountains in the district" />
		<tag k="name" v="Koltanåsa" />
		<tag k="natural" v="hill" />
		<tag k="place" v="locality" />
		<tag k="ssr:stedsnr" v="387143" />
	</node>
	<node lat="58.73473333597251" lon="5.762905562574379" id="-956">
		<tag k="fixme" v="consider natural=peak for the most distinct mountains in the district" />
		<tag k="name" v="Vanglafjell" />
		<tag k="natural" v="hill" />
		<tag k="place" v="locality" />
		<tag k="ssr:stedsnr" v="387144" />
	</node>
	<node lat="58.772880554544564" lon="5.808716663230793" id="-957">
		<tag k="name" v="Fuglaberg" />
		<tag k="natural" v="hill" />
		<tag k="place" v="locality" />
		<tag k="ssr:stedsnr" v="387153" />
	</node>
	<node lat="58.751350845334656" lon="5.747290997371638" id="-960">
		<tag k="name" v="Prekestolen" />
		<tag k="natural" v="hill" />
		<tag k="place" v="locality" />
		<tag k="ssr:stedsnr" v="387259" />
	</node>
	<node lat="58.74439444496967" lon="5.770694452035214" id="-961">
		<tag k="name" v="Hagaberg" />
		<tag k="natural" v="hill" />
		<tag k="place" v="locality" />
		<tag k="ssr:stedsnr" v="387260" />
	</node>
	<node lat="58.685683329750056" lon="5.907844447038422" id="-965">
		<tag k="name" v="Trollhaugknuten" />
		<tag k="natural" v="hill" />
		<tag k="place" v="locality" />
		<tag k="ssr:stedsnr" v="485383" />
	</node>
	<node lat="58.669466662742806" lon="5.8380999943509515" id="-968">
		<tag k="alt_name" v="Kvernhusfjellet" />
		<tag k="name" v="Kvernafjellet" />
		<tag k="natural" v="hill" />
		<tag k="place" v="locality" />
		<tag k="ssr:stedsnr" v="485238" />
	</node>
	<node lat="58.71880555700551" lon="5.864194450552861" id="-970">
		<tag k="alt_name" v="Skogfjellet" />
		<tag k="fixme" v="consider natural=peak for the most distinct mountains in the district" />
		<tag k="name" v="Skogafjellet" />
		<tag k="natural" v="hill" />
		<tag k="place" v="locality" />
		<tag k="ssr:stedsnr" v="485334" />
	</node>
	<node lat="58.676711108772004" lon="5.792530558083071" id="-972">
		<tag k="name" v="Kvernaberget" />
		<tag k="natural" v="hill" />
		<tag k="place" v="locality" />
		<tag k="ssr:stedsnr" v="485737" />
	</node>
	<node lat="58.70676667048324" lon="5.807747219401964" id="-975">
		<tag k="name" v="Urdådalen" />
		<tag k="natural" v="valley" />
		<tag k="old_name" v="Urdåndalen" />
		<tag k="place" v="locality" />
		<tag k="ssr:stedsnr" v="485761" />
	</node>
	<node lat="58.72915278210533" lon="5.803261107254595" id="-985">
		<tag k="name" v="Brunshammaren" />
		<tag k="natural" v="hill" />
		<tag k="place" v="locality" />
		<tag k="ssr:stedsnr" v="419489" />
	</node>
	<node lat="58.72680930949698" lon="5.651621564418868" id="-986">
		<tag k="name" v="Elisberget" />
		<tag k="natural" v="hill" />
		<tag k="place" v="locality" />
		<tag k="ssr:stedsnr" v="423319" />
	</node>
	<node lat="58.71046388655773" lon="5.71228055837422" id="-991">
		<tag k="name" v="Fosseberget" />
		<tag k="natural" v="hill" />
		<tag k="place" v="locality" />
		<tag k="ssr:stedsnr" v="425802" />
	</node>
	<node lat="58.72293055839213" lon="5.860324996210451" id="-998">
		<tag k="fixme" v="consider natural=peak for the most distinct mountains in the district" />
		<tag k="name" v="Husafjell" />
		<tag k="natural" v="hill" />
		<tag k="place" v="locality" />
		<tag k="ssr:stedsnr" v="447670" />
	</node>
	<node lat="58.74551388754095" lon="5.7497611109185325" id="-1003">
		<tag k="name" v="Piggberg" />
		<tag k="natural" v="hill" />
		<tag k="place" v="locality" />
		<tag k="ssr:stedsnr" v="449234" />
	</node>
	<node lat="58.693886114976564" lon="5.802541671359451" id="-1005">
		<tag k="fixme" v="consider natural=peak for the most distinct mountains in the district" />
		<tag k="name" v="Gronuten" />
		<tag k="natural" v="hill" />
		<tag k="place" v="locality" />
		<tag k="ssr:stedsnr" v="465462" />
	</node>
	<node lat="58.71810000084327" lon="5.738483334450741" id="-1007">
		<tag k="name" v="Rudlå" />
		<tag k="natural" v="hill" />
		<tag k="place" v="locality" />
		<tag k="ssr:stedsnr" v="479474" />
	</node>
	<node lat="58.66172222380653" lon="5.820769437415322" id="-1008">
		<tag k="name" v="Kleivane" />
		<tag k="natural" v="hill" />
		<tag k="place" v="locality" />
		<tag k="ssr:stedsnr" v="480218" />
	</node>
	<node lat="58.697905557472595" lon="5.844011111720474" id="-1015">
		<tag k="fixme" v="consider natural=peak for the most distinct mountains in the district" />
		<tag k="name" v="Kalvafjellet" />
		<tag k="natural" v="hill" />
		<tag k="place" v="locality" />
		<tag k="ssr:stedsnr" v="508224" />
	</node>
	<node lat="58.724600003050746" lon="5.870127781424137" id="-1016">
		<tag k="fixme" v="consider natural=peak for the most distinct mountains in the district" />
		<tag k="name" v="Kjøllenuten" />
		<tag k="natural" v="hill" />
		<tag k="place" v="locality" />
		<tag k="ssr:stedsnr" v="508706" />
	</node>
	<node lat="58.77847221787739" lon="5.798861110313785" id="-1019">
		<tag k="fixme" v="consider natural=peak for the most distinct mountains in the district" />
		<tag k="name" v="Dueberget" />
		<tag k="natural" v="hill" />
		<tag k="place" v="locality" />
		<tag k="ssr:stedsnr" v="509574" />
	</node>
	<node lat="58.778144442641484" lon="5.803952778691404" id="-1020">
		<tag k="fixme" v="consider natural=peak for the most distinct mountains in the district" />
		<tag k="name" v="Araberget" />
		<tag k="natural" v="hill" />
		<tag k="place" v="locality" />
		<tag k="ssr:stedsnr" v="509575" />
	</node>
	<node lat="58.70483333738576" lon="5.8104999994227695" id="-1023">
		<tag k="fixme" v="consider natural=peak for the most distinct mountains in the district" />
		<tag k="name" v="Skurvehamaren" />
		<tag k="natural" v="hill" />
		<tag k="place" v="locality" />
		<tag k="ssr:stedsnr" v="525460" />
	</node>
	<node lat="58.71693610916279" lon="5.648300003384499" id="-1027">
		<tag k="name" v="Rudlebakken" />
		<tag k="natural" v="hill" />
		<tag k="place" v="locality" />
		<tag k="ssr:stedsnr" v="544302" />
	</node>
	<node lat="58.725105558038436" lon="5.620813887531406" id="-1028">
		<tag k="name" v="Ramshaug" />
		<tag k="natural" v="hill" />
		<tag k="place" v="locality" />
		<tag k="ssr:stedsnr" v="544306" />
	</node>
	<node lat="58.7251555566462" lon="5.645366662890024" id="-1030">
		<tag k="name" v="Nubben" />
		<tag k="natural" v="slope" />
		<tag k="place" v="locality" />
		<tag k="ssr:stedsnr" v="544475" />
	</node>
	<node lat="58.72505555832608" lon="5.767083327311319" id="-1032">
		<tag k="alt_name" v="Brekkenuten" />
		<tag k="name" v="Brekkeknuten" />
		<tag k="natural" v="hill" />
		<tag k="place" v="locality" />
		<tag k="ssr:stedsnr" v="546790" />
	</node>
	<node lat="58.67318888483287" lon="5.866041663431884" id="-1033">
		<tag k="fixme" v="consider natural=peak for the most distinct mountains in the district" />
		<tag k="name" v="Nibå" />
		<tag k="natural" v="hill" />
		<tag k="place" v="locality" />
		<tag k="ssr:stedsnr" v="690216" />
	</node>
	<node lat="58.63968889282973" lon="5.869919442732159" id="-1034">
		<tag k="fixme" v="consider natural=peak for the most distinct mountains in the district" />
		<tag k="name" v="Nonskarfjellet" />
		<tag k="natural" v="hill" />
		<tag k="place" v="locality" />
		<tag k="ssr:stedsnr" v="690164" />
	</node>
	<node lat="58.67138611425453" lon="5.881116668614538" id="-1036">
		<tag k="fixme" v="consider natural=peak for the most distinct mountains in the district" />
		<tag k="name" v="Tjursfjellet" />
		<tag k="natural" v="hill" />
		<tag k="place" v="locality" />
		<tag k="ssr:stedsnr" v="690247" />
	</node>
	<node lat="58.77841111127144" lon="5.793341667430635" id="-1039">
		<tag k="fixme" v="consider natural=peak for the most distinct mountains in the district" />
		<tag k="name" v="Husaberget" />
		<tag k="natural" v="hill" />
		<tag k="place" v="locality" />
		<tag k="ssr:stedsnr" v="691606" />
	</node>
	<node lat="58.79271944131953" lon="5.75324444062726" id="-1040">
		<tag k="name" v="Varden" />
		<tag k="natural" v="hill" />
		<tag k="place" v="locality" />
		<tag k="ssr:stedsnr" v="691618" />
	</node>
	<node lat="58.777580559656286" lon="5.770805558257967" id="-1042">
		<tag k="fixme" v="consider natural=peak for the most distinct mountains in the district" />
		<tag k="name" v="Steinberget" />
		<tag k="natural" v="hill" />
		<tag k="place" v="locality" />
		<tag k="ssr:stedsnr" v="691622" />
	</node>
	<node lat="58.79019722253909" lon="5.7611055609258335" id="-1046">
		<tag k="name" v="Knibbane" />
		<tag k="natural" v="hill" />
		<tag k="place" v="locality" />
		<tag k="ssr:stedsnr" v="569624" />
	</node>
	<node lat="58.75816666360824" lon="5.7527472158801904" id="-1061">
		<tag k="name" v="Klokkeberg" />
		<tag k="natural" v="hill" />
		<tag k="place" v="locality" />
		<tag k="ssr:stedsnr" v="630156" />
	</node>
	<node lat="58.756277775335995" lon="5.722363882234289" id="-1063">
		<tag k="fixme" v="consider natural=peak for the most distinct mountains in the district" />
		<tag k="name" v="Dugurdmålsnuten" />
		<tag k="natural" v="hill" />
		<tag k="place" v="locality" />
		<tag k="ssr:stedsnr" v="630158" />
	</node>
	<node lat="58.78216111114091" lon="5.800008331375804" id="-1064">
		<tag k="fixme" v="consider natural=peak for the most distinct mountains in the district" />
		<tag k="name" v="Blåberget" />
		<tag k="natural" v="hill" />
		<tag k="place" v="locality" />
		<tag k="ssr:stedsnr" v="630614" />
	</node>
	<node lat="58.70459166855557" lon="5.74017776985109" id="-1068">
		<tag k="name" v="Åreholen" />
		<tag k="natural" v="hill" />
		<tag k="place" v="locality" />
		<tag k="ssr:stedsnr" v="647477" />
	</node>
	<node lat="58.69905555842674" lon="5.814188895750555" id="-1069">
		<tag k="fixme" v="consider natural=peak for the most distinct mountains in the district" />
		<tag k="name" v="Stakkstongfjellet" />
		<tag k="natural" v="hill" />
		<tag k="place" v="locality" />
		<tag k="ssr:stedsnr" v="647487" />
	</node>
	<node lat="58.66876111084766" lon="5.792019446473168" id="-1072">
		<tag k="name" v="Feitabakken" />
		<tag k="natural" v="hill" />
		<tag k="place" v="locality" />
		<tag k="ssr:stedsnr" v="667300" />
	</node>
	<node lat="58.742224996076104" lon="5.752058340954824" id="-1073">
		<tag k="name" v="Lyefjellet" />
		<tag k="natural" v="hill" />
		<tag k="old_name" v="Lyefjell" />
		<tag k="place" v="locality" />
		<tag k="ssr:stedsnr" v="667816" />
	</node>
	<node lat="58.67002500012084" lon="5.805188890309739" id="-1077">
		<tag k="name" v="Bakkaberget" />
		<tag k="natural" v="hill" />
		<tag k="place" v="locality" />
		<tag k="ssr:stedsnr" v="667732" />
	</node>
	<node lat="58.75779999700013" lon="5.778875007782599" id="-1086">
		<tag k="name" v="Storeklubb" />
		<tag k="natural" v="hill" />
		<tag k="place" v="locality" />
		<tag k="ssr:stedsnr" v="691178" />
	</node>
	<node lat="58.63824722307112" lon="5.8298166604554345" id="-1089">
		<tag k="fixme" v="consider natural=peak for the most distinct mountains in the district" />
		<tag k="name" v="Raunefjellet" />
		<tag k="natural" v="hill" />
		<tag k="place" v="locality" />
		<tag k="ssr:stedsnr" v="707511" />
	</node>
	<node lat="58.67078055365163" lon="5.802897221948513" id="-1092">
		<tag k="name" v="Fossberget" />
		<tag k="natural" v="hill" />
		<tag k="place" v="locality" />
		<tag k="ssr:stedsnr" v="723339" />
	</node>
	<node lat="58.7011000036404" lon="5.808024997298774" id="-1096">
		<tag k="name" v="Sveivane" />
		<tag k="natural" v="hill" />
		<tag k="place" v="locality" />
		<tag k="ssr:stedsnr" v="728779" />
	</node>
	<node lat="58.71458888792017" lon="5.846861115041659" id="-1103">
		<tag k="fixme" v="consider natural=peak for the most distinct mountains in the district" />
		<tag k="name" v="Synesnutane" />
		<tag k="natural" v="hill" />
		<tag k="place" v="locality" />
		<tag k="ssr:stedsnr" v="751706" />
	</node>
	<node lat="58.735458336332805" lon="5.735311106367474" id="-1105">
		<tag k="name" v="Kliberg" />
		<tag k="natural" v="hill" />
		<tag k="place" v="locality" />
		<tag k="ssr:stedsnr" v="752106" />
	</node>
	<node lat="58.659297223139745" lon="5.828441660194604" id="-1108">
		<tag k="fixme" v="consider natural=peak for the most distinct mountains in the district" />
		<tag k="name" v="Roligheta" />
		<tag k="natural" v="hill" />
		<tag k="place" v="locality" />
		<tag k="ssr:stedsnr" v="905257" />
	</node>
	<node lat="58.68237778162061" lon="5.843861111317149" id="-1113">
		<tag k="name" v="Varden" />
		<tag k="natural" v="hill" />
		<tag k="place" v="locality" />
		<tag k="ssr:stedsnr" v="910455" />
	</node>
	<node lat="58.72932500387878" lon="5.785219451306388" id="-1121">
		<tag k="alt_name" v="Melsnuten" />
		<tag k="name" v="Melsknuten" />
		<tag k="natural" v="hill" />
		<tag k="place" v="locality" />
		<tag k="ssr:stedsnr" v="910806" />
	</node>
	<node lat="58.737749997055346" lon="5.772647215362658" id="-1125">
		<tag k="fixme" v="consider natural=peak for the most distinct mountains in the district" />
		<tag k="name" v="Høylandsfjellet" />
		<tag k="natural" v="hill" />
		<tag k="place" v="locality" />
		<tag k="ssr:stedsnr" v="910870" />
	</node>
	<node lat="58.713355555121886" lon="5.785705551280749" id="-1130">
		<tag k="alt_name" v="Valbrekk, stora" />
		<tag k="name" v="Stora Valbrekk" />
		<tag k="natural" v="hill" />
		<tag k="place" v="locality" />
		<tag k="ssr:stedsnr" v="788769" />
	</node>
	<node lat="58.65393611437263" lon="5.807316672720037" id="-1131">
		<tag k="loc_name" v="Jursholen" />
		<tag k="name" v="Ljosholen" />
		<tag k="natural" v="hill" />
		<tag k="place" v="locality" />
		<tag k="ssr:stedsnr" v="789321" />
	</node>
	<node lat="58.69517500168715" lon="5.705191672836135" id="-1132">
		<tag k="name" v="Bergene" />
		<tag k="natural" v="hill" />
		<tag k="place" v="locality" />
		<tag k="ssr:stedsnr" v="789806" />
	</node>
	<node lat="58.73439999869118" lon="5.752680547518657" id="-1139">
		<tag k="alt_name" v="Geitafjell" />
		<tag k="name" v="Geitahornet" />
		<tag k="natural" v="hill" />
		<tag k="place" v="locality" />
		<tag k="ssr:stedsnr" v="789861" />
	</node>
	<node lat="58.698302778585465" lon="5.836699998655506" id="-1141">
		<tag k="name" v="Stølsfjellet" />
		<tag k="natural" v="hill" />
		<tag k="place" v="locality" />
		<tag k="ssr:stedsnr" v="789762" />
	</node>
	<node lat="58.67715833051954" lon="5.852158337381422" id="-1143">
		<tag k="name" v="Hågane" />
		<tag k="natural" v="hill" />
		<tag k="place" v="locality" />
		<tag k="ssr:stedsnr" v="812216" />
	</node>
	<node lat="58.76730555575452" lon="5.816597227876125" id="-1146">
		<tag k="fixme" v="consider natural=peak for the most distinct mountains in the district" />
		<tag k="name" v="Askoberg" />
		<tag k="natural" v="hill" />
		<tag k="place" v="locality" />
		<tag k="ssr:stedsnr" v="813106" />
	</node>
	<node lat="58.734183335973924" lon="5.81811666479285" id="-1147">
		<tag k="name" v="Lunnarsberg" />
		<tag k="natural" v="hill" />
		<tag k="place" v="locality" />
		<tag k="ssr:stedsnr" v="813179" />
	</node>
	<node lat="58.749388888044905" lon="5.771274997831074" id="-1148">
		<tag k="name" v="Kuberg" />
		<tag k="natural" v="hill" />
		<tag k="place" v="locality" />
		<tag k="ssr:stedsnr" v="813187" />
	</node>
	<node lat="58.73585555916399" lon="5.773230553406957" id="-1149">
		<tag k="fixme" v="consider natural=peak for the most distinct mountains in the district" />
		<tag k="name" v="Søre Håfjell" />
		<tag k="natural" v="hill" />
		<tag k="place" v="locality" />
		<tag k="ssr:stedsnr" v="813097" />
	</node>
	<node lat="58.7249027790581" lon="5.784883325863635" id="-1152">
		<tag k="name" v="Klubben" />
		<tag k="natural" v="hill" />
		<tag k="place" v="locality" />
		<tag k="ssr:stedsnr" v="844493" />
	</node>
	<node lat="58.723652899920786" lon="5.675890747230298" id="-1156">
		<tag k="name" v="Kålholen" />
		<tag k="natural" v="hill" />
		<tag k="place" v="locality" />
		<tag k="ssr:stedsnr" v="850815" />
	</node>
	<node lat="58.776091667507245" lon="5.809036111306514" id="-1158">
		<tag k="alt_name" v="Rossås" />
		<tag k="fixme" v="consider natural=peak for the most distinct mountains in the district" />
		<tag k="name" v="Rossåsen" />
		<tag k="natural" v="hill" />
		<tag k="place" v="locality" />
		<tag k="ssr:stedsnr" v="850825" />
	</node>
	<node lat="58.689208332381064" lon="5.849738890919239" id="-1162">
		<tag k="fixme" v="consider natural=peak for the most distinct mountains in the district" />
		<tag k="name" v="Trongafjellet" />
		<tag k="natural" v="hill" />
		<tag k="place" v="locality" />
		<tag k="ssr:stedsnr" v="872204" />
	</node>
	<node lat="58.72955833389224" lon="5.861855547898209" id="-1164">
		<tag k="name" v="Ulvskred" />
		<tag k="natural" v="slope" />
		<tag k="place" v="locality" />
		<tag k="ssr:stedsnr" v="933730" />
	</node>
	<node lat="58.768944442240624" lon="5.762494444388243" id="-1165">
		<tag k="name" v="Knappholen" />
		<tag k="natural" v="hill" />
		<tag k="place" v="locality" />
		<tag k="ssr:stedsnr" v="934126" />
	</node>
	<node lat="58.732936108614076" lon="5.754655548249832" id="-1168">
		<tag k="fixme" v="consider natural=peak for the most distinct mountains in the district" />
		<tag k="name" v="Geitefjell" />
		<tag k="natural" v="hill" />
		<tag k="place" v="locality" />
		<tag k="ssr:stedsnr" v="892488" />
	</node>
	<node lat="58.68655833162583" lon="5.828172214893953" id="-1170">
		<tag k="fixme" v="consider natural=peak for the most distinct mountains in the district" />
		<tag k="name" v="Hagafjell" />
		<tag k="natural" v="hill" />
		<tag k="place" v="locality" />
		<tag k="ssr:stedsnr" v="905326" />
	</node>
	<node lat="58.73683888605343" lon="5.832375001994915" id="-1177">
		<tag k="fixme" v="consider natural=peak for the most distinct mountains in the district" />
		<tag k="name" v="Fløyene" />
		<tag k="natural" v="hill" />
		<tag k="place" v="locality" />
		<tag k="ssr:stedsnr" v="933107" />
	</node>
	<node lat="58.664566666376146" lon="5.848155562553939" id="-1178">
		<tag k="fixme" v="consider natural=peak for the most distinct mountains in the district" />
		<tag k="name" v="Sjursfjellet" />
		<tag k="natural" v="hill" />
		<tag k="place" v="locality" />
		<tag k="ssr:stedsnr" v="933208" />
	</node>
	<node lat="58.74417222161655" lon="5.727755563191139" id="-1181">
		<tag k="fixme" v="consider natural=peak for the most distinct mountains in the district" />
		<tag k="name" v="Kjørkleiv" />
		<tag k="natural" v="hill" />
		<tag k="place" v="locality" />
		<tag k="ssr:stedsnr" v="934115" />
	</node>
	<node lat="58.76390277930698" lon="5.794194443040303" id="-1182">
		<tag k="name" v="Nåva" />
		<tag k="natural" v="hill" />
		<tag k="place" v="locality" />
		<tag k="ssr:stedsnr" v="934118" />
	</node>
	<node lat="58.68522499697552" lon="5.882572216554143" id="-1200">
		<tag k="fixme" v="consider natural=peak for the most distinct mountains in the district" />
		<tag k="name" v="Tufjellet" />
		<tag k="natural" v="hill" />
		<tag k="place" v="locality" />
		<tag k="ssr:stedsnr" v="23227" />
	</node>
	<node lat="58.65601944302011" lon="5.846175001509633" id="-1201">
		<tag k="alt_name" v="Ulverudla" />
		<tag k="fixme" v="consider natural=peak for the most distinct mountains in the district" />
		<tag k="name" v="Ulvarulla" />
		<tag k="natural" v="hill" />
		<tag k="place" v="locality" />
		<tag k="ssr:stedsnr" v="23251" />
	</node>
	<node lat="58.71578055809682" lon="5.865391668440127" id="-1203">
		<tag k="name" v="Røyrlia" />
		<tag k="natural" v="slope" />
		<tag k="place" v="locality" />
		<tag k="ssr:stedsnr" v="23750" />
	</node>
	<node lat="58.62479166589486" lon="5.872080555962083" id="-1204">
		<tag k="name" v="Toraknuten" />
		<tag k="natural" v="hill" />
		<tag k="place" v="locality" />
		<tag k="ssr:stedsnr" v="23753" />
	</node>
	<node lat="58.77064444026632" lon="5.741883339992117" id="-1205">
		<tag k="name" v="Hådalen" />
		<tag k="natural" v="valley" />
		<tag k="place" v="locality" />
		<tag k="ssr:stedsnr" v="24115" />
	</node>
	<node lat="58.74641110768513" lon="5.752091663622486" id="-1208">
		<tag k="name" v="Tronsberg" />
		<tag k="natural" v="hill" />
		<tag k="place" v="locality" />
		<tag k="ssr:stedsnr" v="24211" />
	</node>
	<node lat="58.687377777592886" lon="5.700288896133" id="-1209">
		<tag k="fixme" v="consider natural=peak for the most distinct mountains in the district" />
		<tag k="name" v="Garborgåsen" />
		<tag k="natural" v="hill" />
		<tag k="place" v="locality" />
		<tag k="ssr:stedsnr" v="39297" />
	</node>
	<node lat="58.73007222364025" lon="5.825836106102163" id="-1212">
		<tag k="fixme" v="consider natural=peak for the most distinct mountains in the district" />
		<tag k="name" v="Husafjell" />
		<tag k="natural" v="hill" />
		<tag k="place" v="locality" />
		<tag k="ssr:stedsnr" v="40499" />
	</node>
	<node lat="58.66334166244983" lon="5.83626388634379" id="-1215">
		<tag k="fixme" v="consider natural=peak for the most distinct mountains in the district" />
		<tag k="name" v="Stertebrekka" />
		<tag k="natural" v="hill" />
		<tag k="place" v="locality" />
		<tag k="ssr:stedsnr" v="61296" />
	</node>
	<node lat="58.63101666741464" lon="5.844361107814324" id="-1223">
		<tag k="fixme" v="consider natural=peak for the most distinct mountains in the district" />
		<tag k="name" v="Middagsfjellet" />
		<tag k="natural" v="hill" />
		<tag k="place" v="locality" />
		<tag k="ssr:stedsnr" v="83140" />
	</node>
	<node lat="58.68493333032861" lon="5.858855549485365" id="-1224">
		<tag k="fixme" v="consider natural=peak for the most distinct mountains in the district" />
		<tag k="name" v="Husafjell" />
		<tag k="natural" v="hill" />
		<tag k="place" v="locality" />
		<tag k="ssr:stedsnr" v="83169" />
	</node>
	<node lat="58.736677781558214" lon="5.752277780712564" id="-1226">
		<tag k="name" v="Løberg" />
		<tag k="natural" v="hill" />
		<tag k="place" v="locality" />
		<tag k="ssr:stedsnr" v="84155" />
	</node>
	<node lat="58.73983333343454" lon="5.7736611025172815" id="-1227">
		<tag k="fixme" v="consider natural=peak for the most distinct mountains in the district" />
		<tag k="name" v="Nordre Håfjell" />
		<tag k="natural" v="hill" />
		<tag k="place" v="locality" />
		<tag k="ssr:stedsnr" v="84157" />
	</node>
	<node lat="58.740999996296544" lon="5.741355553773463" id="-1228">
		<tag k="name" v="Monsanut" />
		<tag k="natural" v="hill" />
		<tag k="place" v="locality" />
		<tag k="ssr:stedsnr" v="84158" />
	</node>
	<node lat="58.7509499960089" lon="5.7247611172236015" id="-1231">
		<tag k="name" v="Skogaskaret" />
		<tag k="natural" v="slope" />
		<tag k="place" v="locality" />
		<tag k="ssr:stedsnr" v="84254" />
	</node>
	<node lat="58.784805554783425" lon="5.740666663001931" id="-1234">
		<tag k="name" v="Revholen" />
		<tag k="natural" v="hill" />
		<tag k="place" v="locality" />
		<tag k="ssr:stedsnr" v="85536" />
	</node>
	<node lat="58.71509722438095" lon="5.772591664386729" id="-1237">
		<tag k="name" v="Haugabakken" />
		<tag k="natural" v="hill" />
		<tag k="place" v="locality" />
		<tag k="ssr:stedsnr" v="116498" />
	</node>
	<node lat="58.74722777691394" lon="5.773727776864495" id="-1249">
		<tag k="name" v="Langaberg" />
		<tag k="natural" v="hill" />
		<tag k="place" v="locality" />
		<tag k="ssr:stedsnr" v="145221" />
	</node>
	<node lat="58.7514638862793" lon="5.727727778325416" id="-1250">
		<tag k="name" v="Småvardene" />
		<tag k="natural" v="hill" />
		<tag k="place" v="locality" />
		<tag k="ssr:stedsnr" v="145224" />
	</node>
	<node lat="58.72901383655916" lon="5.656539503775469" id="-1255">
		<tag k="name" v="Heiakrå" />
		<tag k="natural" v="slope" />
		<tag k="place" v="locality" />
		<tag k="ssr:stedsnr" v="180290" />
	</node>
	<node lat="58.65012222173858" lon="5.813255554116354" id="-1258">
		<tag k="fixme" v="consider natural=peak for the most distinct mountains in the district" />
		<tag k="name" v="Steinsfjellet" />
		<tag k="natural" v="hill" />
		<tag k="place" v="locality" />
		<tag k="ssr:stedsnr" v="176252" />
	</node>
	<node lat="58.680200002679975" lon="5.782527773209035" id="-1266">
		<tag k="alt_name" v="Knudaheio (Knudaheibakken)" />
		<tag k="name" v="Knudaheio" />
		<tag k="natural" v="hill" />
		<tag k="place" v="locality" />
		<tag k="ssr:stedsnr" v="182748" />
	</node>
	<node lat="58.68942499961578" lon="5.817066666427432" id="-1268">
		<tag k="name" v="Jembaknuten" />
		<tag k="natural" v="hill" />
		<tag k="place" v="locality" />
		<tag k="ssr:stedsnr" v="182754" />
	</node>
	<node lat="58.7591222208467" lon="5.797277774260237" id="-1275">
		<tag k="name" v="Revheia" />
		<tag k="natural" v="hill" />
		<tag k="place" v="locality" />
		<tag k="ssr:stedsnr" v="183871" />
	</node>
	<node lat="58.70798888696777" lon="5.7673083390536934" id="-1285">
		<tag k="name" v="Kjeberget" />
		<tag k="natural" v="hill" />
		<tag k="place" v="locality" />
		<tag k="ssr:stedsnr" v="222429" />
	</node>
	<node lat="58.70401388547463" lon="5.8151861141934855" id="-1286">
		<tag k="name" v="Eriksnuten" />
		<tag k="natural" v="hill" />
		<tag k="place" v="locality" />
		<tag k="ssr:stedsnr" v="283434" />
	</node>
	<node lat="58.682577782095635" lon="5.876594447732033" id="-1292">
		<tag k="alt_name" v="Hedlefjellet" />
		<tag k="name" v="Hellefjellet" />
		<tag k="natural" v="hill" />
		<tag k="place" v="locality" />
		<tag k="ssr:stedsnr" v="303435" />
	</node>
	<node lat="58.78567352075377" lon="5.768888396862512" id="-1301">
		<tag k="fixme" v="consider natural=peak for the most distinct mountains in the district" />
		<tag k="name" v="Stutafjell" />
		<tag k="natural" v="hill" />
		<tag k="place" v="locality" />
		<tag k="ssr:stedsnr" v="304856" />
	</node>
	<node lat="58.7364000008733" lon="5.845049994492619" id="-1302">
		<tag k="alt_name" v="Bursfjell" />
		<tag k="fixme" v="consider natural=peak for the most distinct mountains in the district" />
		<tag k="name" v="Bursfjellet" />
		<tag k="natural" v="hill" />
		<tag k="place" v="locality" />
		<tag k="ssr:stedsnr" v="325801" />
	</node>
	<node lat="58.76328610764614" lon="5.780633328399876" id="-1303">
		<tag k="name" v="Småberg" />
		<tag k="natural" v="hill" />
		<tag k="place" v="locality" />
		<tag k="ssr:stedsnr" v="327129" />
	</node>
	<node lat="58.774952775864925" lon="5.804338893938701" id="-1304">
		<tag k="fixme" v="consider natural=peak for the most distinct mountains in the district" />
		<tag k="name" v="Kalafjell" />
		<tag k="natural" v="hill" />
		<tag k="place" v="locality" />
		<tag k="ssr:stedsnr" v="327135" />
	</node>
	<node lat="58.76094999557875" lon="5.755374997714643" id="-1305">
		<tag k="fixme" v="consider natural=peak for the most distinct mountains in the district" />
		<tag k="name" v="Håfjell" />
		<tag k="natural" v="hill" />
		<tag k="place" v="locality" />
		<tag k="ssr:stedsnr" v="327150" />
	</node>
	<node lat="58.733163887424475" lon="5.851266662008009" id="-1306">
		<tag k="fixme" v="consider natural=peak for the most distinct mountains in the district" />
		<tag k="name" v="Bursfjell" />
		<tag k="natural" v="hill" />
		<tag k="place" v="locality" />
		<tag k="ssr:stedsnr" v="326709" />
	</node>
	<node lat="58.62475833036666" lon="5.835558341743578" id="-1307">
		<tag k="name" v="Veisedalen" />
		<tag k="natural" v="valley" />
		<tag k="place" v="locality" />
		<tag k="ssr:stedsnr" v="326736" />
	</node>
	<node lat="58.64484166296522" lon="5.856394447745321" id="-1317">
		<tag k="fixme" v="consider natural=peak for the most distinct mountains in the district" />
		<tag k="name" v="Storafjellet" />
		<tag k="natural" v="hill" />
		<tag k="place" v="locality" />
		<tag k="ssr:stedsnr" v="364052" />
	</node>
	<node lat="58.696908330864304" lon="5.761255549017539" id="-1323">
		<tag k="name" v="Araberget" />
		<tag k="natural" v="hill" />
		<tag k="place" v="locality" />
		<tag k="ssr:stedsnr" v="364770" />
	</node>
	<node lat="58.707238888870016" lon="5.83715555767533" id="-1325">
		<tag k="alt_name" v="Risstølnuten" />
		<tag k="fixme" v="consider natural=peak for the most distinct mountains in the district" />
		<tag k="name" v="Ristølnuten" />
		<tag k="natural" v="hill" />
		<tag k="place" v="locality" />
		<tag k="ssr:stedsnr" v="364809" />
	</node>
	<node lat="58.76958889277784" lon="5.786488893483338" id="-1326">
		<tag k="fixme" v="consider natural=peak for the most distinct mountains in the district" />
		<tag k="name" v="Lauvåsen" />
		<tag k="natural" v="hill" />
		<tag k="place" v="locality" />
		<tag k="ssr:stedsnr" v="364839" />
	</node>
	<node lat="58.78777827066032" lon="5.786954482221646" id="-1327">
		<tag k="fixme" v="consider natural=peak for the most distinct mountains in the district" />
		<tag k="name" v="Åslandsnuten" />
		<tag k="natural" v="hill" />
		<tag k="place" v="locality" />
		<tag k="ssr:stedsnr" v="365852" />
	</node>
	<node lat="58.62294444582822" lon="5.869658333945491" id="-1330">
		<tag k="fixme" v="consider natural=peak for the most distinct mountains in the district" />
		<tag k="name" v="Bruaberget" />
		<tag k="natural" v="hill" />
		<tag k="place" v="locality" />
		<tag k="ssr:stedsnr" v="386725" />
	</node>
	<node lat="58.62165833679249" lon="5.8455972163109795" id="-1334">
		<tag k="fixme" v="consider natural=peak for the most distinct mountains in the district" />
		<tag k="name" v="Tindafjellet" />
		<tag k="natural" v="hill" />
		<tag k="place" v="locality" />
		<tag k="ssr:stedsnr" v="448754" />
	</node>
	<node lat="58.7075092274325" lon="5.656672466801253" id="-1336">
		<tag k="name" v="Hågenholen" />
		<tag k="natural" v="hill" />
		<tag k="place" v="locality" />
		<tag k="ssr:stedsnr" v="404419" />
	</node>
	<node lat="58.721208335241755" lon="5.826849993293649" id="-1338">
		<tag k="fixme" v="consider natural=peak for the most distinct mountains in the district" />
		<tag k="name" v="Bukkenuten" />
		<tag k="natural" v="hill" />
		<tag k="place" v="locality" />
		<tag k="ssr:stedsnr" v="404467" />
	</node>
	<node lat="58.71036944489158" lon="5.678349994602167" id="-1339">
		<tag k="name" v="Rindå" />
		<tag k="place" v="locality" />
		<tag k="ssr:stedsnr" v="406472" />
	</node>
	<node lat="58.737044444421464" lon="5.764108326162675" id="-1353">
		<tag k="name" v="Vanglaskar" />
		<tag k="natural" v="valley" />
		<tag k="place" v="locality" />
		<tag k="ssr:stedsnr" v="509124" />
	</node>
	<node lat="58.720175002883735" lon="5.771894449220413" id="-1357">
		<tag k="name" v="Haraberget" />
		<tag k="natural" v="hill" />
		<tag k="place" v="locality" />
		<tag k="ssr:stedsnr" v="527504" />
	</node>
	<node lat="58.70915555196056" lon="5.703080559865062" id="-1358">
		<tag k="name" v="Flæet" />
		<tag k="place" v="locality" />
		<tag k="ssr:stedsnr" v="527469" />
	</node>
	<node lat="58.65249515631412" lon="5.849099829563456" id="-1361">
		<tag k="alt_name" v="Sulkjen;Solkjen" />
		<tag k="name" v="Sulken" />
		<tag k="natural" v="slope" />
		<tag k="place" v="locality" />
		<tag k="ssr:stedsnr" v="546051" />
	</node>
	<node lat="58.69663055706894" lon="5.823850002972722" id="-1368">
		<tag k="name" v="Fåredalen" />
		<tag k="natural" v="valley" />
		<tag k="place" v="locality" />
		<tag k="ssr:stedsnr" v="546718" />
	</node>
	<node lat="58.726419441023424" lon="5.836444443011932" id="-1369">
		<tag k="name" v="Bukkaknuten" />
		<tag k="natural" v="hill" />
		<tag k="place" v="locality" />
		<tag k="ssr:stedsnr" v="546800" />
	</node>
	<node lat="58.77204444067934" lon="5.817877775428675" id="-1373">
		<tag k="fixme" v="consider natural=peak for the most distinct mountains in the district" />
		<tag k="name" v="Midtfjell" />
		<tag k="natural" v="hill" />
		<tag k="place" v="locality" />
		<tag k="ssr:stedsnr" v="569150" />
	</node>
	<node lat="58.728269440652134" lon="5.846483336513593" id="-1375">
		<tag k="name" v="Solkjen" />
		<tag k="natural" v="hill" />
		<tag k="place" v="locality" />
		<tag k="ssr:stedsnr" v="568720" />
	</node>
	<node lat="58.70925555520429" lon="5.713297220582927" id="-1380">
		<tag k="name" v="Olaberget" />
		<tag k="natural" v="hill" />
		<tag k="place" v="locality" />
		<tag k="ssr:stedsnr" v="587484" />
	</node>
	<node lat="58.72581666282772" lon="5.758930557045672" id="-1382">
		<tag k="fixme" v="consider natural=peak for the most distinct mountains in the district" />
		<tag k="name" v="Hammaren" />
		<tag k="natural" v="hill" />
		<tag k="place" v="locality" />
		<tag k="ssr:stedsnr" v="601479" />
	</node>
	<node lat="58.7208472228641" lon="5.607591663041502" id="-1383">
		<tag k="name" v="Reeheiane" />
		<tag k="natural" v="hill" />
		<tag k="place" v="locality" />
		<tag k="ssr:stedsnr" v="603238" />
	</node>
	<node lat="58.62212500424221" lon="5.830277783799386" id="-1385">
		<tag k="fixme" v="consider natural=peak for the most distinct mountains in the district" />
		<tag k="name" v="Kartakalven" />
		<tag k="natural" v="hill" />
		<tag k="old_name" v="Kartekalven" />
		<tag k="place" v="locality" />
		<tag k="ssr:stedsnr" v="606270" />
	</node>
	<node lat="58.75258333615127" lon="5.723933328197099" id="-1392">
		<tag k="name" v="Nystøl" />
		<tag k="natural" v="hill" />
		<tag k="place" v="locality" />
		<tag k="ssr:stedsnr" v="630230" />
	</node>
	<node lat="58.783786111245206" lon="5.735530562939482" id="-1393">
		<tag k="name" v="Smørpigen" />
		<tag k="natural" v="hill" />
		<tag k="place" v="locality" />
		<tag k="ssr:stedsnr" v="630564" />
	</node>
	<node lat="58.68849444519688" lon="5.682177777014645" id="-1396">
		<tag k="name" v="Kålhaug" />
		<tag k="natural" v="hill" />
		<tag k="place" v="locality" />
		<tag k="ssr:stedsnr" v="646340" />
	</node>
	<node lat="58.73149722477924" lon="5.7951833349665165" id="-1401">
		<tag k="name" v="Saurdalen" />
		<tag k="natural" v="valley" />
		<tag k="place" v="locality" />
		<tag k="ssr:stedsnr" v="661458" />
	</node>
	<node lat="58.71287500355261" lon="5.6515222238565865" id="-1416">
		<tag k="name" v="Heiane" />
		<tag k="natural" v="hill" />
		<tag k="place" v="locality" />
		<tag k="ssr:stedsnr" v="727297" />
	</node>
	<node lat="58.72725555671103" lon="5.875738887534182" id="-1418">
		<tag k="name" v="Nonsfjellet" />
		<tag k="natural" v="hill" />
		<tag k="place" v="locality" />
		<tag k="ssr:stedsnr" v="728361" />
	</node>
	<node lat="58.735324995788716" lon="5.82781666564009" id="-1425">
		<tag k="fixme" v="consider natural=peak for the most distinct mountains in the district" />
		<tag k="name" v="Folefjell" />
		<tag k="natural" v="hill" />
		<tag k="place" v="locality" />
		<tag k="ssr:stedsnr" v="752197" />
	</node>
	<node lat="58.793172225599456" lon="5.7641722166871885" id="-1427">
		<tag k="name" v="Sandskallen" />
		<tag k="natural" v="hill" />
		<tag k="place" v="locality" />
		<tag k="ssr:stedsnr" v="752585" />
	</node>
	<node lat="58.67816944421005" lon="5.702194452727622" id="-1428">
		<tag k="name" v="Skareberget" />
		<tag k="natural" v="hill" />
		<tag k="place" v="locality" />
		<tag k="ssr:stedsnr" v="768324" />
	</node>
	<node lat="58.7174500013704" lon="5.825672224978796" id="-1429">
		<tag k="fixme" v="consider natural=peak for the most distinct mountains in the district" />
		<tag k="name" v="Skogafjell" />
		<tag k="natural" v="hill" />
		<tag k="place" v="locality" />
		<tag k="ssr:stedsnr" v="768451" />
	</node>
	<node lat="58.70850833219203" lon="5.667177781389847" id="-1430">
		<tag k="name" v="Skjevarhaug" />
		<tag k="natural" v="hill" />
		<tag k="place" v="locality" />
		<tag k="ssr:stedsnr" v="770452" />
	</node>
	<node lat="58.669833335344435" lon="5.821619439341565" id="-1433">
		<tag k="fixme" v="consider natural=peak for the most distinct mountains in the district" />
		<tag k="name" v="Husfjell" />
		<tag k="natural" v="hill" />
		<tag k="place" v="locality" />
		<tag k="ssr:stedsnr" v="783240" />
	</node>
	<node lat="58.75191389223722" lon="5.845761103584393" id="-1436">
		<tag k="name" v="Trodalen" />
		<tag k="natural" v="valley" />
		<tag k="place" v="locality" />
		<tag k="ssr:stedsnr" v="790648" />
	</node>
	<node lat="58.72062777645529" lon="5.862047219001045" id="-1438">
		<tag k="name" v="Svartedalen" />
		<tag k="natural" v="valley" />
		<tag k="place" v="locality" />
		<tag k="ssr:stedsnr" v="811672" />
	</node>
	<node lat="58.648372220723246" lon="5.873013887421499" id="-1441">
		<tag k="fixme" v="consider natural=peak for the most distinct mountains in the district" />
		<tag k="name" v="Rabnefjellet" />
		<tag k="natural" v="hill" />
		<tag k="place" v="locality" />
		<tag k="ssr:stedsnr" v="812246" />
	</node>
	<node lat="58.74776111006668" lon="5.702172216089581" id="-1444">
		<tag k="name" v="Eriksvarden" />
		<tag k="natural" v="hill" />
		<tag k="place" v="locality" />
		<tag k="ssr:stedsnr" v="813375" />
	</node>
	<node lat="58.78754722450807" lon="5.782580561020982" id="-1447">
		<tag k="name" v="Kongehola" />
		<tag k="place" v="locality" />
		<tag k="ssr:stedsnr" v="813667" />
	</node>
	<node lat="58.68572222210867" lon="5.718552781162998" id="-1452">
		<tag k="name" v="Tjensvollbakkane" />
		<tag k="natural" v="slope" />
		<tag k="place" v="locality" />
		<tag k="ssr:stedsnr" v="829354" />
	</node>
	<node lat="58.62980833393637" lon="5.855011115093246" id="-1454">
		<tag k="fixme" v="consider natural=peak for the most distinct mountains in the district" />
		<tag k="name" v="Karten" />
		<tag k="natural" v="hill" />
		<tag k="place" v="locality" />
		<tag k="ssr:stedsnr" v="849053" />
	</node>
	<node lat="58.66199999916851" lon="5.854738895736798" id="-1456">
		<tag k="name" v="Tjålandsfjellet" />
		<tag k="natural" v="hill" />
		<tag k="place" v="locality" />
		<tag k="ssr:stedsnr" v="850043" />
	</node>
	<node lat="58.6948694472829" lon="5.7974222202839965" id="-1457">
		<tag k="name" v="Skota" />
		<tag k="natural" v="hill" />
		<tag k="place" v="locality" />
		<tag k="ssr:stedsnr" v="850748" />
	</node>
	<node lat="58.75533333457414" lon="5.764927770814434" id="-1466">
		<tag k="name" v="Filhammaren" />
		<tag k="natural" v="hill" />
		<tag k="place" v="locality" />
		<tag k="ssr:stedsnr" v="873161" />
	</node>
	<node lat="58.734580553167724" lon="5.745216673034724" id="-1468">
		<tag k="fixme" v="consider natural=peak for the most distinct mountains in the district" />
		<tag k="name" v="Skarsfjell" />
		<tag k="natural" v="hill" />
		<tag k="place" v="locality" />
		<tag k="ssr:stedsnr" v="873137" />
	</node>
	<node lat="58.775186106945355" lon="5.750936116391018" id="-1470">
		<tag k="fixme" v="consider natural=peak for the most distinct mountains in the district" />
		<tag k="name" v="Brekkenuten" />
		<tag k="natural" v="hill" />
		<tag k="place" v="locality" />
		<tag k="ssr:stedsnr" v="873154" />
	</node>
	<node lat="58.743405558614484" lon="5.71880277061934" id="-1472">
		<tag k="name" v="Hermannsholen" />
		<tag k="natural" v="hill" />
		<tag k="place" v="locality" />
		<tag k="ssr:stedsnr" v="873422" />
	</node>
	<node lat="58.738275002492166" lon="5.6406833342150735" id="-1473">
		<tag k="name" v="Skaret" />
		<tag k="natural" v="valley" />
		<tag k="place" v="locality" />
		<tag k="ssr:stedsnr" v="873425" />
	</node>
	<node lat="58.68766944472731" lon="5.769897224121975" id="-1475">
		<tag k="name" v="Bjønnholen" />
		<tag k="natural" v="hill" />
		<tag k="place" v="locality" />
		<tag k="ssr:stedsnr" v="889338" />
	</node>
	<node lat="58.707138885919605" lon="5.796247224902512" id="-1476">
		<tag k="name" v="Skjæraberget" />
		<tag k="natural" v="hill" />
		<tag k="place" v="locality" />
		<tag k="ssr:stedsnr" v="950452" />
	</node>
	<node lat="58.696658331174525" lon="5.810661107083365" id="-1477">
		<tag k="fixme" v="consider natural=peak for the most distinct mountains in the district" />
		<tag k="name" v="Tomastørne" />
		<tag k="natural" v="hill" />
		<tag k="place" v="locality" />
		<tag k="ssr:stedsnr" v="950461" />
	</node>
	<node lat="58.682280557454135" lon="5.823780547046369" id="-1482">
		<tag k="fixme" v="consider natural=peak for the most distinct mountains in the district" />
		<tag k="name" v="Knuden" />
		<tag k="natural" v="hill" />
		<tag k="place" v="locality" />
		<tag k="ssr:stedsnr" v="965361" />
	</node>
	<node lat="58.78201502076557" lon="5.773429656410329" id="-1484">
		<tag k="fixme" v="consider natural=peak for the most distinct mountains in the district" />
		<tag k="name" v="Hesthei" />
		<tag k="natural" v="hill" />
		<tag k="place" v="locality" />
		<tag k="ssr:stedsnr" v="971006" />
	</node>
	<node lat="58.7802996443322" lon="5.77450889619156" id="-1485">
		<tag k="fixme" v="consider natural=peak for the most distinct mountains in the district" />
		<tag k="name" v="Kråkefjell" />
		<tag k="natural" v="hill" />
		<tag k="place" v="locality" />
		<tag k="ssr:stedsnr" v="971007" />
	</node>
</osm>
