<?xml version="1.0" encoding="UTF-8"?>
<<<<<<< HEAD
<osm version="0.6" generator="osmapis">
	<node lat="58.782827775746284" lon="5.715533336949066" id="-14">
		<tag k="bridge" v="yes" />
		<tag k="layer" v="1" />
		<tag k="name" v="Frøyland" />
		<tag k="ssr:stedsnr" v="46776" />
	</node>
	<node lat="58.734883336024716" lon="5.6492944459904955" id="-36">
		<tag k="name" v="Bryne stasjon" />
		<tag k="railway" v="station" />
		<tag k="ssr:stedsnr" v="84431" />
		<tag k="train" v="yes" />
	</node>
	<node lat="58.61737499821602" lon="5.814413885165037" id="-47">
		<tag k="man_made" v="cairn" />
		<tag k="name" v="Synesvarden" />
		<tag k="place" v="locality" />
		<tag k="ssr:stedsnr" v="171821" />
	</node>
	<node lat="58.78196388639346" lon="5.7392944430854325" id="-72">
		<tag k="bridge" v="yes" />
		<tag k="layer" v="1" />
		<tag k="name" v="Kalberg" />
		<tag k="ssr:stedsnr" v="289802" />
	</node>
	<node lat="58.732397222862645" lon="5.741499995175817" id="-73">
		<tag k="highway" v="path" />
		<tag k="name" v="Kleivane" />
		<tag k="ssr:stedsnr" v="298477" />
	</node>
	<node lat="58.68025555671545" lon="5.707602776196955" id="-84">
		<tag k="bridge" v="yes" />
		<tag k="layer" v="1" />
		<tag k="name" v="Risa" />
		<tag k="ssr:stedsnr" v="471745" />
	</node>
	<node lat="58.75201110793923" lon="5.696625002880946" id="-85">
		<tag k="bridge" v="yes" />
		<tag k="layer" v="1" />
		<tag k="name" v="Njåskogen" />
		<tag k="ssr:stedsnr" v="471749" />
	</node>
	<node lat="58.767444441005004" lon="5.7962055620172865" id="-142">
=======
<osm generator="osmapis" version="0.6">
	<node id="-21627" lat="58.767444441" lon="5.79620556202">
>>>>>>> e1d4bc35ff8a6074a6f2e91616a996b547c36f15
		<tag k="junction" v="yes" />
		<tag k="name" v="Øykjavad" />
		<tag k="place" v="locality" />
		<tag k="ssr:stedsnr" v="449114" />
	</node>
<<<<<<< HEAD
	<node lat="58.76674166690051" lon="5.71902500004994" id="-229">
=======
	<node id="-21870" lat="58.6822000044" lon="5.77741111432">
>>>>>>> e1d4bc35ff8a6074a6f2e91616a996b547c36f15
		<tag k="bridge" v="yes" />
		<tag k="layer" v="1" />
		<tag k="name" v="Kverneland" />
		<tag k="ssr:stedsnr" v="896778" />
	</node>
<<<<<<< HEAD
	<node lat="58.755063886694515" lon="5.702688889577406" id="-230">
=======
	<node id="-21735" lat="58.7550638867" lon="5.70268888958">
>>>>>>> e1d4bc35ff8a6074a6f2e91616a996b547c36f15
		<tag k="bridge" v="yes" />
		<tag k="layer" v="1" />
		<tag k="name" v="Njå" />
		<tag k="ssr:stedsnr" v="896782" />
	</node>
<<<<<<< HEAD
	<node lat="58.70381110688014" lon="5.784516672907869" id="-233">
=======
	<node id="-21734" lat="58.7667416669" lon="5.71902500005">
>>>>>>> e1d4bc35ff8a6074a6f2e91616a996b547c36f15
		<tag k="bridge" v="yes" />
		<tag k="layer" v="1" />
		<tag k="name" v="Taksdal" />
		<tag k="ssr:stedsnr" v="714731" />
	</node>
<<<<<<< HEAD
	<node lat="58.70428611519697" lon="5.657094444070271" id="-253">
		<tag k="bridge" v="yes" />
		<tag k="layer" v="1" />
		<tag k="name" v="Hognestad" />
		<tag k="ssr:stedsnr" v="775725" />
	</node>
	<node lat="58.721577779588344" lon="5.750663885585552" id="-293">
=======
	<node id="-21980" lat="58.7050611125" lon="5.65638054906">
		<tag k="name" v="Hognestad" />
		<tag k="railway" v="station" />
		<tag k="ssr:stedsnr" v="546748" />
		<tag k="train" v="yes" />
	</node>
	<node id="-21840" lat="58.734883336" lon="5.64929444599">
		<tag k="name" v="Bryne stasjon" />
		<tag k="railway" v="station" />
		<tag k="ssr:stedsnr" v="84431" />
		<tag k="train" v="yes" />
	</node>
	<node id="-21828" lat="58.7828277757" lon="5.71553333695">
>>>>>>> e1d4bc35ff8a6074a6f2e91616a996b547c36f15
		<tag k="bridge" v="yes" />
		<tag k="layer" v="1" />
		<tag k="name" v="Garpestad" />
		<tag k="ssr:stedsnr" v="836731" />
	</node>
<<<<<<< HEAD
	<node lat="58.68220000439311" lon="5.777411114319022" id="-399">
=======
	<node id="-21694" lat="58.7038111069" lon="5.78451667291">
>>>>>>> e1d4bc35ff8a6074a6f2e91616a996b547c36f15
		<tag k="bridge" v="yes" />
		<tag k="layer" v="1" />
		<tag k="name" v="Undheim" />
		<tag k="ssr:stedsnr" v="168746" />
	</node>
<<<<<<< HEAD
	<node lat="58.7172944412605" lon="5.62249722784275" id="-457">
=======
	<node id="-21565" lat="58.7520111079" lon="5.69662500288">
>>>>>>> e1d4bc35ff8a6074a6f2e91616a996b547c36f15
		<tag k="bridge" v="yes" />
		<tag k="layer" v="1" />
		<tag k="name" v="Linebakken" />
		<tag k="ssr:stedsnr" v="350722" />
	</node>
<<<<<<< HEAD
	<node lat="58.683580555280635" lon="5.703847227757669" id="-458">
=======
	<node id="-21564" lat="58.6802555567" lon="5.7076027762">
>>>>>>> e1d4bc35ff8a6074a6f2e91616a996b547c36f15
		<tag k="bridge" v="yes" />
		<tag k="layer" v="1" />
		<tag k="name" v="Garborg" />
		<tag k="ssr:stedsnr" v="350738" />
	</node>
<<<<<<< HEAD
	<node lat="58.70230833436204" lon="5.677127778860476" id="-482">
=======
	<node id="-21945" lat="58.715627782" lon="5.70799999221">
>>>>>>> e1d4bc35ff8a6074a6f2e91616a996b547c36f15
		<tag k="bridge" v="yes" />
		<tag k="layer" v="1" />
		<tag k="name" v="Grødem" />
		<tag k="ssr:stedsnr" v="411724" />
	</node>
<<<<<<< HEAD
	<node lat="58.68232222243573" lon="5.704933336069073" id="-483">
=======
	<node id="-21944" lat="58.6823222224" lon="5.70493333607">
>>>>>>> e1d4bc35ff8a6074a6f2e91616a996b547c36f15
		<tag k="bridge" v="yes" />
		<tag k="layer" v="1" />
		<tag k="name" v="Risebekken" />
		<tag k="ssr:stedsnr" v="411727" />
	</node>
<<<<<<< HEAD
	<node lat="58.67701944284197" lon="5.82426110534669" id="-484">
=======
	<node id="-21943" lat="58.7023083344" lon="5.67712777886">
		<tag k="bridge" v="yes" />
		<tag k="layer" v="1" />
		<tag k="name" v="Grødem" />
		<tag k="ssr:stedsnr" v="411724" />
	</node>
	<node id="-21942" lat="58.6770194428" lon="5.82426110535">
>>>>>>> e1d4bc35ff8a6074a6f2e91616a996b547c36f15
		<tag k="bridge" v="yes" />
		<tag k="layer" v="1" />
		<tag k="name" v="Tjåland" />
		<tag k="ssr:stedsnr" v="411733" />
	</node>
<<<<<<< HEAD
	<node lat="58.71562778201884" lon="5.7079999922141615" id="-485">
=======
	<node id="-22067" lat="58.736077776" lon="5.64633889597">
>>>>>>> e1d4bc35ff8a6074a6f2e91616a996b547c36f15
		<tag k="bridge" v="yes" />
		<tag k="layer" v="1" />
		<tag k="name" v="Fotland" />
		<tag k="ssr:stedsnr" v="411747" />
	</node>
<<<<<<< HEAD
	<node lat="58.70506111245234" lon="5.656380549061184" id="-513">
		<tag k="name" v="Hognestad" />
		<tag k="railway" v="station" />
		<tag k="ssr:stedsnr" v="546748" />
		<tag k="train" v="yes" />
	</node>
	<node lat="58.675774998213534" lon="5.804936107975762" id="-541">
=======
	<node id="-22066" lat="58.7215777796" lon="5.75066388559">
		<tag k="bridge" v="yes" />
		<tag k="layer" v="1" />
		<tag k="name" v="Garpestad" />
		<tag k="ssr:stedsnr" v="836731" />
	</node>
	<node id="-21551" lat="58.7819638864" lon="5.73929444309">
>>>>>>> e1d4bc35ff8a6074a6f2e91616a996b547c36f15
		<tag k="bridge" v="yes" />
		<tag k="layer" v="1" />
		<tag k="name" v="Mærli" />
		<tag k="ssr:stedsnr" v="653757" />
	</node>
<<<<<<< HEAD
	<node lat="58.705555553576936" lon="5.695388891756012" id="-542">
=======
	<node id="-21922" lat="58.6835805553" lon="5.70384722776">
>>>>>>> e1d4bc35ff8a6074a6f2e91616a996b547c36f15
		<tag k="bridge" v="yes" />
		<tag k="layer" v="1" />
		<tag k="name" v="Fosse" />
		<tag k="ssr:stedsnr" v="653773" />
	</node>
<<<<<<< HEAD
	<node lat="58.73607777603091" lon="5.646338895972866" id="-595">
		<tag k="bridge" v="yes" />
		<tag k="layer" v="1" />
		<tag k="name" v="Bryne Kanal" />
		<tag k="ssr:stedsnr" v="836750" />
=======
	<node id="-21921" lat="58.7172944413" lon="5.62249722784">
		<tag k="bridge" v="yes" />
		<tag k="layer" v="1" />
		<tag k="name" v="Linebakken" />
		<tag k="ssr:stedsnr" v="350722" />
	</node>
	<node id="-21533" lat="58.7323972229" lon="5.74149999518">
		<tag k="highway" v="path" />
		<tag k="name" v="Kleivane" />
		<tag k="ssr:stedsnr" v="298477" />
	</node>
	<node id="-21525" lat="58.6173749982" lon="5.81441388517">
		<tag k="man_made" v="cairn" />
		<tag k="name" v="Synesvarden" />
		<tag k="place" v="locality" />
		<tag k="ssr:stedsnr" v="171821" />
>>>>>>> e1d4bc35ff8a6074a6f2e91616a996b547c36f15
	</node>
	<node id="-21766" lat="58.7042861152" lon="5.65709444407">
		<tag k="bridge" v="yes" />
		<tag k="layer" v="1" />
		<tag k="name" v="Hognestad" />
		<tag k="ssr:stedsnr" v="775725" />
	</node>
	<node id="-22019" lat="58.7055555536" lon="5.69538889176">
		<tag k="bridge" v="yes" />
		<tag k="layer" v="1" />
		<tag k="name" v="Fosse" />
		<tag k="ssr:stedsnr" v="653773" />
	</node>
	<node id="-22018" lat="58.6757749982" lon="5.80493610798">
		<tag k="bridge" v="yes" />
		<tag k="layer" v="1" />
		<tag k="name" v="Mærli" />
		<tag k="ssr:stedsnr" v="653757" />
	</node>
</osm>
