<?xml version="1.0" encoding="UTF-8"?>
<osm generator="osmapis" version="0.6">
	<node id="-22013" lat="58.6818416665" lon="5.70628332478">
		<tag k="name" v="Risabekken" />
		<tag k="ssr:stedsnr" v="646338" />
		<tag k="waterway" v="stream" />
	</node>
	<node id="-21500" lat="58.6544388893" lon="5.819308335">
		<tag k="name" v="Solbergvatnet" />
		<tag k="natural" v="water" />
		<tag k="ssr:stedsnr" v="61297" />
		<tag k="water" v="lake" />
	</node>
	<node id="-22011" lat="58.762561111" lon="5.70080833366">
		<tag k="name" v="Tegletjørn" />
		<tag k="natural" v="water" />
		<tag k="ssr:stedsnr" v="630430" />
	</node>
	<node id="-21492" lat="58.7339777789" lon="5.63199444793">
		<tag k="name" v="Roslandsåna" />
		<tag k="ssr:stedsnr" v="24404" />
		<tag k="waterway" v="river" />
	</node>
	<node id="-21490" lat="58.7727361142" lon="5.72167222714">
		<tag k="name" v="Gåsevik" />
		<tag k="natural" v="bay" />
		<tag k="ssr:stedsnr" v="24110" />
	</node>
	<node id="-21485" lat="58.7282805572" lon="5.85550556341">
		<tag k="name" v="Skogåna" />
		<tag k="ssr:stedsnr" v="23713" />
		<tag k="waterway" v="stream" />
	</node>
	<node id="-21995" lat="58.7308999993" lon="5.81754999577">
		<tag k="name" v="Kvernhusbekken" />
		<tag k="ssr:stedsnr" v="586493" />
		<tag k="waterway" v="stream" />
	</node>
	<node id="-21481" lat="58.6835583344" lon="5.83239445266">
		<tag k="name" v="Skårlandsvatnet" />
		<tag k="natural" v="water" />
		<tag k="ssr:stedsnr" v="23224" />
		<tag k="water" v="lake" />
	</node>
	<node id="-21478" lat="58.7156472245" lon="5.7077361184">
		<tag k="name" v="Fotlandsfossen" />
		<tag k="natural" v="waterfall" />
		<tag k="ssr:stedsnr" v="222402" />
	</node>
	<node id="-21983" lat="58.7179222228" lon="5.87449999486">
		<tag k="name" v="Fossåna" />
		<tag k="ssr:stedsnr" v="568685" />
		<tag k="waterway" v="river" />
	</node>
	<node id="-21979" lat="58.6778699245" lon="5.8106071486">
		<tag k="alt_name" v="Longvatnet" />
		<tag k="name" v="Langavatnet" />
		<tag k="natural" v="water" />
		<tag k="ssr:stedsnr" v="546736" />
		<tag k="water" v="lake" />
	</node>
	<node id="-21976" lat="58.7063916679" lon="5.87474722521">
		<tag k="alt_name" v="Hedlevatn" />
		<tag k="name" v="Hellevatnet" />
		<tag k="natural" v="water" />
		<tag k="ssr:stedsnr" v="546436" />
	</node>
	<node id="-21975" lat="58.6591305561" lon="5.83844721943">
		<tag k="name" v="Butjørnane" />
		<tag k="natural" v="water" />
		<tag k="ssr:stedsnr" v="546283" />
		<tag k="water" v="lake" />
	</node>
	<node id="-21973" lat="58.6527766881" lon="5.86214204517">
		<tag k="name" v="Hellevatna" />
		<tag k="natural" v="water" />
		<tag k="ssr:stedsnr" v="546057" />
	</node>
	<node id="-21956" lat="58.7424672159" lon="5.76452820841">
		<tag k="name" v="Åsvatnet" />
		<tag k="natural" v="water" />
		<tag k="ssr:stedsnr" v="425855" />
		<tag k="water" v="lake" />
	</node>
	<node id="-21955" lat="58.6647305527" lon="5.81390278181">
		<tag k="name" v="Ormatjørna" />
		<tag k="natural" v="water" />
		<tag k="ssr:stedsnr" v="425299" />
	</node>
	<node id="-21952" lat="58.6185246512" lon="5.82557159333">
		<tag k="name" v="Ras" />
		<tag k="natural" v="water" />
		<tag k="ssr:stedsnr" v="425279" />
	</node>
	<node id="-21951" lat="58.6176902249" lon="5.82656978195">
		<tag k="alt_name" v="Konta" />
		<tag k="name" v="Kunta" />
		<tag k="natural" v="water" />
		<tag k="old_name" v="Kota" />
		<tag k="ssr:stedsnr" v="425278" />
	</node>
	<node id="-21926" lat="58.680113886" lon="5.86850832686">
		<tag k="alt_name" v="Hedlevatnet" />
		<tag k="name" v="Hellevatnet" />
		<tag k="natural" v="water" />
		<tag k="ssr:stedsnr" v="364446" />
	</node>
	<node id="-21918" lat="58.6287888845" lon="5.81228888104">
		<tag k="name" v="Lonå" />
		<tag k="natural" v="bay" />
		<tag k="ssr:stedsnr" v="343487" />
	</node>
	<node id="-21914" lat="58.7839527814" lon="5.75221111127">
		<tag k="name" v="Floen" />
		<tag k="natural" v="water" />
		<tag k="ssr:stedsnr" v="327588" />
	</node>
	<node id="-21906" lat="58.6873614562" lon="5.87990065014">
		<tag k="name" v="Tuvatnet" />
		<tag k="natural" v="water" />
		<tag k="ssr:stedsnr" v="303447" />
	</node>
	<node id="-21901" lat="58.7500944399" lon="5.68357221563">
		<tag k="name" v="Serikstadholmen" />
		<tag k="place" v="islet" />
		<tag k="ssr:stedsnr" v="206409" />
	</node>
	<node id="-21900" lat="58.7421222183" lon="5.71842221802">
		<tag k="name" v="Risbekken" />
		<tag k="ssr:stedsnr" v="206390" />
		<tag k="waterway" v="stream" />
	</node>
	<node id="-21894" lat="58.7352805516" lon="5.83305000884">
		<tag k="alt_name" v="Gunnhildstjørn" />
		<tag k="name" v="Gunnhildtjørna" />
		<tag k="natural" v="water" />
		<tag k="old_name" v="Goneltjørna" />
		<tag k="ssr:stedsnr" v="182866" />
	</node>
	<node id="-21891" lat="58.7486728064" lon="5.74984558436">
		<tag k="alt_name" v="Ulvetjørn" />
		<tag k="name" v="Ulvatjørna" />
		<tag k="natural" v="water" />
		<tag k="ssr:stedsnr" v="182835" />
	</node>
	<node id="-22098" lat="58.678825001" lon="5.82511388804">
		<tag k="name" v="Ormatjørna" />
		<tag k="natural" v="water" />
		<tag k="ssr:stedsnr" v="965285" />
	</node>
	<node id="-21483" lat="58.6718345069" lon="5.85996189416">
		<tag k="name" v="Dusjatjørna" />
		<tag k="natural" v="water" />
		<tag k="ssr:stedsnr" v="23232" />
		<tag k="water" v="lake" />
	</node>
	<node id="-21878" lat="58.7116343884" lon="5.86332046329">
		<tag k="name" v="Røyrvatnet" />
		<tag k="natural" v="water" />
		<tag k="old_name" v="Røyravatnet" />
		<tag k="ssr:stedsnr" v="182478" />
	</node>
	<node id="-21877" lat="58.6469291086" lon="5.84325517113">
		<tag k="alt_name" v="Hellevatnet;Hedlevatnet ytre" />
		<tag k="name" v="Ytra Hedlevatnet" />
		<tag k="natural" v="water" />
		<tag k="ssr:stedsnr" v="182239" />
		<tag k="water" v="lake" />
	</node>
	<node id="-21851" lat="58.6592194482" lon="5.79641389519">
		<tag k="alt_name" v="Storemyråa" />
		<tag k="name" v="Stormyråna" />
		<tag k="ssr:stedsnr" v="121307" />
		<tag k="waterway" v="stream" />
	</node>
	<node id="-21847" lat="58.7286027816" lon="5.75143056062">
		<tag k="name" v="Lyngholmen" />
		<tag k="place" v="islet" />
		<tag k="ssr:stedsnr" v="116500" />
	</node>
	<node id="-21833" lat="58.6928166679" lon="5.86072500026">
		<tag k="name" v="Grunnavatnet" />
		<tag k="natural" v="water" />
		<tag k="ssr:stedsnr" v="61445" />
		<tag k="water" v="lake" />
	</node>
	<node id="-21832" lat="58.67577742" lon="5.86722435462">
		<tag k="alt_name" v="Nipetjørna" />
		<tag k="name" v="Nipevatnet" />
		<tag k="natural" v="water" />
		<tag k="old_name" v="Nipatjørna" />
		<tag k="ssr:stedsnr" v="61433" />
	</node>
	<node id="-21824" lat="58.7164611096" lon="5.80936667534">
		<tag k="name" v="Åna" />
		<tag k="ssr:stedsnr" v="40483" />
		<tag k="waterway" v="stream" />
	</node>
	<node id="-21818" lat="58.7179722904" lon="5.85441035998">
		<tag k="name" v="Moldtjørn" />
		<tag k="natural" v="water" />
		<tag k="ssr:stedsnr" v="23749" />
	</node>
	<node id="-21817" lat="58.7347138921" lon="5.83685556007">
		<tag k="name" v="Migaren" />
		<tag k="natural" v="waterfall" />
		<tag k="ssr:stedsnr" v="23120" />
	</node>
	<node id="-21814" lat="58.7432750022" lon="5.67347500565">
		<tag k="name" v="Frøylandsvatnet" />
		<tag k="natural" v="water" />
		<tag k="ssr:stedsnr" v="902" />
		<tag k="water" v="lake" />
	</node>
	<node id="-21809" lat="58.7276901476" lon="5.74983010851">
		<tag k="name" v="Salvatnet" />
		<tag k="natural" v="water" />
		<tag k="ssr:stedsnr" v="814" />
		<tag k="water" v="lake" />
	</node>
	<node id="-21806" lat="58.6416888865" lon="5.81891944962">
		<tag k="alt_name" v="Litlamos" />
		<tag k="name" v="Litlamoset" />
		<tag k="natural" v="water" />
		<tag k="ssr:stedsnr" v="277" />
		<tag k="water" v="lake" />
	</node>
	<node id="-21801" lat="58.7229722186" lon="5.73878610879">
		<tag k="name" v="Fosseåna" />
		<tag k="ssr:stedsnr" v="952504" />
		<tag k="waterway" v="river" />
	</node>
	<node id="-21793" lat="58.6845111128" lon="5.70946667302">
		<tag k="name" v="Tjensvollbekken" />
		<tag k="ssr:stedsnr" v="950350" />
		<tag k="waterway" v="stream" />
	</node>
	<node id="-21786" lat="58.7968666629" lon="5.58357777596">
		<tag k="name" v="Figgjo" />
		<tag k="ssr:stedsnr" v="851922" />
		<tag k="waterway" v="river" />
	</node>
	<node id="-21776" lat="58.7183833339" lon="5.85944999505">
		<tag k="name" v="Dabelen" />
		<tag k="natural" v="water" />
		<tag k="ssr:stedsnr" v="933725" />
	</node>
	<node id="-21775" lat="58.6917128022" lon="5.83761818088">
		<tag k="name" v="Snorestadtjørna" />
		<tag k="natural" v="water" />
		<tag k="ssr:stedsnr" v="933221" />
		<tag k="water" v="lake" />
	</node>
	<node id="-21772" lat="58.6902968561" lon="5.83578564147">
		<tag k="name" v="Snorestadtjørnane" />
		<tag k="natural" v="water" />
		<tag k="ssr:stedsnr" v="789758" />
		<tag k="water" v="lake" />
	</node>
	<node id="-21769" lat="58.6993244569" lon="5.84318931119">
		<tag k="name" v="Kalvatjørna" />
		<tag k="natural" v="water" />
		<tag k="ssr:stedsnr" v="789813" />
	</node>
	<node id="-21760" lat="58.7371111092" lon="5.70834999982">
		<tag k="alt_name" v="Hinnalandstjørn" />
		<tag k="name" v="Hinnalandstjørna" />
		<tag k="natural" v="water" />
		<tag k="ssr:stedsnr" v="910871" />
	</node>
	<node id="-21758" lat="58.7425833376" lon="5.73857777469">
		<tag k="alt_name" v="Tjoratjørn" />
		<tag k="name" v="Tjoratjørna" />
		<tag k="natural" v="water" />
		<tag k="ssr:stedsnr" v="910849" />
	</node>
	<node id="-21757" lat="58.7465971983" lon="5.82253047296">
		<tag k="name" v="Hålandsvatnet" />
		<tag k="natural" v="water" />
		<tag k="ssr:stedsnr" v="910841" />
		<tag k="water" v="lake" />
	</node>
	<node id="-21752" lat="58.6782444402" lon="5.79427499932">
		<tag k="name" v="Bakkatjørna" />
		<tag k="natural" v="water" />
		<tag k="ssr:stedsnr" v="910777" />
	</node>
	<node id="-21748" lat="58.6991361144" lon="5.84904445245">
		<tag k="name" v="Fiskelausvatnet" />
		<tag k="natural" v="water" />
		<tag k="old_name" v="Fiskelivatnet" />
		<tag k="ssr:stedsnr" v="910515" />
	</node>
	<node id="-21744" lat="58.7489944463" lon="5.74592777719">
		<tag k="name" v="Blivtjørn" />
		<tag k="natural" v="water" />
		<tag k="ssr:stedsnr" v="752207" />
	</node>
	<node id="-21740" lat="58.7245419056" lon="5.81197547899">
		<tag k="name" v="Sjelsetvatnet" />
		<tag k="natural" v="water" />
		<tag k="ssr:stedsnr" v="728810" />
		<tag k="water" v="lake" />
	</node>
	<node id="-21737" lat="58.6833055599" lon="5.88952499699">
		<tag k="alt_name" v="Ljosvatnet" />
		<tag k="name" v="Ljosavatnet" />
		<tag k="natural" v="water" />
		<tag k="ssr:stedsnr" v="728427" />
	</node>
	<node id="-21719" lat="58.7400694416" lon="5.78889167542">
		<tag k="alt_name" v="Sorpetjørn" />
		<tag k="name" v="Sorpetjørna" />
		<tag k="natural" v="water" />
		<tag k="old_name" v="Soppatjørna" />
		<tag k="ssr:stedsnr" v="728852" />
	</node>
	<node id="-21714" lat="58.6846694405" lon="5.83080833748">
		<tag k="name" v="Husavatnet" />
		<tag k="natural" v="water" />
		<tag k="ssr:stedsnr" v="728741" />
		<tag k="water" v="lake" />
	</node>
	<node id="-21704" lat="58.7114638931" lon="5.64011943729">
		<tag k="name" v="Steinslandstemmen" />
		<tag k="ssr:stedsnr" v="725291" />
		<tag k="waterway" v="dam" />
	</node>
	<node id="-21689" lat="58.7173694445" lon="5.71781943595">
		<tag k="name" v="Fotlandsåna" />
		<tag k="ssr:stedsnr" v="707443" />
		<tag k="waterway" v="river" />
	</node>
	<node id="-21679" lat="58.7145666628" lon="5.85998333258">
		<tag k="name" v="Morstjørn" />
		<tag k="natural" v="water" />
		<tag k="ssr:stedsnr" v="690734" />
	</node>
	<node id="-21677" lat="58.675005558" lon="5.85664443876">
		<tag k="name" v="Auranesåa" />
		<tag k="ssr:stedsnr" v="690246" />
		<tag k="waterway" v="river" />
	</node>
	<node id="-21676" lat="58.6645416636" lon="5.85508332669">
		<tag k="name" v="Sjurstjørna" />
		<tag k="natural" v="water" />
		<tag k="ssr:stedsnr" v="690229" />
	</node>
	<node id="-21662" lat="58.7259277342" lon="5.78521830177">
		<tag k="name" v="Melsvatnet" />
		<tag k="natural" v="water" />
		<tag k="ssr:stedsnr" v="485788" />
		<tag k="water" v="lake" />
	</node>
	<node id="-21661" lat="58.689530559" lon="5.65920000681">
		<tag k="alt_name" v="Tverråa" />
		<tag k="name" v="Tverråna" />
		<tag k="ssr:stedsnr" v="485782" />
		<tag k="waterway" v="stream" />
	</node>
	<node id="-21658" lat="58.7186166704" lon="5.71605833965">
		<tag k="name" v="Stemmen" />
		<tag k="natural" v="water" />
		<tag k="ssr:stedsnr" v="485805" />
	</node>
	<node id="-21651" lat="58.7585611075" lon="5.70339999421">
		<tag k="name" v="Njåtjørna" />
		<tag k="natural" v="water" />
		<tag k="ssr:stedsnr" v="668824" />
	</node>
	<node id="-21646" lat="58.7034361683" lon="5.80109906386">
		<tag k="name" v="Taksdalsvatnet" />
		<tag k="natural" v="water" />
		<tag k="ssr:stedsnr" v="667763" />
		<tag k="water" v="lake" />
	</node>
	<node id="-21645" lat="58.7091583366" lon="5.81731943714">
		<tag k="alt_name" v="Uråa" />
		<tag k="name" v="Urdåna" />
		<tag k="ssr:stedsnr" v="667743" />
		<tag k="waterway" v="stream" />
	</node>
	<node id="-21642" lat="58.6906178587" lon="5.81202145621">
		<tag k="name" v="Fårevatnet" />
		<tag k="natural" v="water" />
		<tag k="ssr:stedsnr" v="667705" />
		<tag k="water" v="lake" />
	</node>
	<node id="-21637" lat="58.6340249987" lon="5.79405833687">
		<tag k="name" v="Storamoset" />
		<tag k="natural" v="water" />
		<tag k="ssr:stedsnr" v="667265" />
		<tag k="water" v="lake" />
	</node>
	<node id="-21635" lat="58.6293777794" lon="5.86953611839">
		<tag k="name" v="Kartavatnet" />
		<tag k="natural" v="water" />
		<tag k="ssr:stedsnr" v="667057" />
	</node>
	<node id="-21523" lat="58.7817638888" lon="5.73318055115">
		<tag k="name" v="Frøylandsbekken" />
		<tag k="ssr:stedsnr" v="145602" />
		<tag k="waterway" v="stream" />
	</node>
	<node id="-21616" lat="58.7363638898" lon="5.64503333128">
		<tag k="name" v="Bryneåna" />
		<tag k="ssr:stedsnr" v="509387" />
		<tag k="waterway" v="river" />
	</node>
	<node id="-21611" lat="58.7874545467" lon="5.77682580005">
		<tag k="name" v="Møgedalstjørn" />
		<tag k="natural" v="water" />
		<tag k="ssr:stedsnr" v="387669" />
	</node>
	<node id="-21610" lat="58.7841222267" lon="5.800869452">
		<tag k="name" v="Figvedtjørn" />
		<tag k="natural" v="water" />
		<tag k="ssr:stedsnr" v="387665" />
	</node>
	<node id="-21607" lat="58.6568819471" lon="5.85238512258">
		<tag k="alt_name" v="Solkatjørna" />
		<tag k="name" v="Sulkatjørna" />
		<tag k="natural" v="water" />
		<tag k="ssr:stedsnr" v="387211" />
		<tag k="water" v="lake" />
	</node>
	<node id="-21602" lat="58.6370713228" lon="5.84838619932">
		<tag k="name" v="Husavatnet" />
		<tag k="natural" v="water" />
		<tag k="ssr:stedsnr" v="386165" />
		<tag k="water" v="lake" />
	</node>
	<node id="-21600" lat="58.7124388885" lon="5.82818055121">
		<tag k="alt_name" v="Moldtjørn" />
		<tag k="name" v="Moldtjørna" />
		<tag k="natural" v="water" />
		<tag k="ssr:stedsnr" v="364807" />
	</node>
	<node id="-21599" lat="58.6831305572" lon="5.80852777719">
		<tag k="name" v="Alatjørna" />
		<tag k="natural" v="water" />
		<tag k="ssr:stedsnr" v="364785" />
	</node>
	<node id="-22109" lat="59.8279125227" lon="9.70560369472">
		<tag k="name" v="Grølla" />
		<tag k="natural" v="water" />
		<tag k="ssr:stedsnr" v="489738" />
		<tag k="water" v="lake" />
	</node>
	<node id="-22108" lat="58.7622903974" lon="5.82684235289">
		<tag k="alt_name" v="Øygardsvatnet" />
		<tag k="name" v="Fjermestadvatnet" />
		<tag k="natural" v="water" />
		<tag k="ssr:stedsnr" v="911850" />
		<tag k="water" v="lake" />
	</node>
	<node id="-22107" lat="58.7308305574" lon="5.86246666689">
		<tag k="name" v="Røssetjørna" />
		<tag k="natural" v="water" />
		<tag k="ssr:stedsnr" v="382" />
	</node>
	<node id="-21590" lat="58.7570253831" lon="5.77040061691">
		<tag k="name" v="Mosvatnet" />
		<tag k="natural" v="water" />
		<tag k="ssr:stedsnr" v="486864" />
		<tag k="water" v="lake" />
	</node>
	<node id="-22100" lat="58.7243611149" lon="5.66216944216">
		<tag k="name" v="Eivindsholtjørn" />
		<tag k="natural" v="water" />
		<tag k="ssr:stedsnr" v="967258" />
	</node>
	<node id="-21586" lat="58.7113010199" lon="5.65838092874">
		<tag k="name" v="Smukkevatnet" />
		<tag k="natural" v="water" />
		<tag k="old_name" v="Smokkevatnet" />
		<tag k="ssr:stedsnr" v="485740" />
		<tag k="water" v="lake" />
	</node>
	<node id="-21583" lat="58.6698671912" lon="5.87293791246">
		<tag k="name" v="Sevlivatnet" />
		<tag k="natural" v="water" />
		<tag k="ssr:stedsnr" v="485398" />
	</node>
	<node id="-21581" lat="58.6801274802" lon="5.86017190038">
		<tag k="alt_name" v="Husatjernet" />
		<tag k="name" v="Husavatnet" />
		<tag k="natural" v="water" />
		<tag k="ssr:stedsnr" v="485378" />
	</node>
	<node id="-21579" lat="58.6431111093" lon="5.76375554926">
		<tag k="name" v="Kvigeforen" />
		<tag k="ssr:stedsnr" v="485248" />
		<tag k="waterway" v="stream" />
	</node>
	<node id="-21577" lat="58.6644499985" lon="5.83842221885">
		<tag k="name" v="Fiskelaustjørna" />
		<tag k="natural" v="water" />
		<tag k="ssr:stedsnr" v="485237" />
	</node>
	<node id="-22088" lat="58.6521408263" lon="5.85746161442">
		<tag k="alt_name" v="Hedlevatnet store" />
		<tag k="name" v="Stora Hedlevatnet" />
		<tag k="natural" v="water" />
		<tag k="ssr:stedsnr" v="872241" />
		<tag k="water" v="lake" />
	</node>
	<node id="-22087" lat="58.6691972238" lon="5.88338611782">
		<tag k="name" v="Godtjørna" />
		<tag k="natural" v="water" />
		<tag k="ssr:stedsnr" v="872202" />
		<tag k="water" v="lake" />
	</node>
	<node id="-21574" lat="58.7739638869" lon="5.70174445131">
		<tag k="name" v="Moldvik" />
		<tag k="natural" v="bay" />
		<tag k="ssr:stedsnr" v="327416" />
	</node>
	<node id="-22081" lat="58.7589513899" lon="5.70320409946">
		<tag k="alt_name" v="Heiatjørn" />
		<tag k="name" v="Heiatjørna" />
		<tag k="natural" v="water" />
		<tag k="ssr:stedsnr" v="850822" />
	</node>
	<node id="-22073" lat="58.6570318519" lon="5.81263449968">
		<tag k="alt_name" v="Storejurstjørna" />
		<tag k="name" v="Ljostjørna" />
		<tag k="natural" v="water" />
		<tag k="ssr:stedsnr" v="850291" />
	</node>
	<node id="-22071" lat="58.7222027805" lon="5.74115556389">
		<tag k="name" v="Hååna" />
		<tag k="old_name" v="Håelva" />
		<tag k="ssr:stedsnr" v="849844" />
		<tag k="waterway" v="river" />
	</node>
	<node id="-21513" lat="58.7580977018" lon="5.69506877729">
		<tag k="name" v="Siritjørn" />
		<tag k="natural" v="water" />
		<tag k="ssr:stedsnr" v="84506" />
	</node>
	<node id="-21555" lat="58.6430519085" lon="5.86479230572">
		<tag k="fixme" v="multiple name tags, choose one and add the other to alt_name" />
		<tag k="name" v="Mellomstrandsvatnet;Mælandsvatnet" />
		<tag k="natural" v="water" />
		<tag k="ssr:stedsnr" v="303026" />
		<tag k="water" v="lake" />
	</node>
	<node id="-21553" lat="58.6790416694" lon="5.8921638847">
		<tag k="name" v="Lågvatnet" />
		<tag k="natural" v="water" />
		<tag k="ssr:stedsnr" v="546409" />
	</node>
	<node id="-22061" lat="58.7785555544" lon="5.72627499792">
		<tag k="name" v="Stemmen" />
		<tag k="ssr:stedsnr" v="813599" />
		<tag k="waterway" v="dam" />
	</node>
	<node id="-21547" lat="58.6524247995" lon="5.86438669733">
		<tag k="alt_name" v="Hedlevatnet indre" />
		<tag k="name" v="Indra Hedlevatnet" />
		<tag k="natural" v="water" />
		<tag k="ssr:stedsnr" v="448220" />
		<tag k="water" v="lake" />
	</node>
	<node id="-21545" lat="58.7358571354" lon="5.83703816767">
		<tag k="alt_name" v="Bjønndalstjørn" />
		<tag k="name" v="Bjørndalstjørna" />
		<tag k="natural" v="water" />
		<tag k="ssr:stedsnr" v="243859" />
	</node>
	<node id="-22051" lat="58.7551722231" lon="5.68295277946">
		<tag k="name" v="Langanes" />
		<tag k="natural" v="cape" />
		<tag k="ssr:stedsnr" v="812513" />
	</node>
	<node id="-22050" lat="58.7728805568" lon="5.69368888207">
		<tag k="name" v="Tegletangen" />
		<tag k="natural" v="cape" />
		<tag k="ssr:stedsnr" v="812465" />
	</node>
	<node id="-21536" lat="58.7230972262" lon="5.84692221434">
		<tag k="name" v="Engjavatnet" />
		<tag k="natural" v="water" />
		<tag k="ssr:stedsnr" v="242816" />
		<tag k="water" v="lake" />
	</node>
	<node id="-22045" lat="58.7177944793" lon="5.83917571522">
		<tag k="alt_name" v="Bjødnelivatnet" />
		<tag k="name" v="Bjørnelivatnet" />
		<tag k="natural" v="water" />
		<tag k="ssr:stedsnr" v="811709" />
		<tag k="water" v="lake" />
	</node>
	<node id="-21531" lat="58.7627749966" lon="5.82025278382">
		<tag k="name" v="Refnes" />
		<tag k="natural" v="cape" />
		<tag k="ssr:stedsnr" v="206152" />
	</node>
	<node id="-21529" lat="58.7273361084" lon="5.75393333776">
		<tag k="name" v="Høylandsvatnet" />
		<tag k="natural" v="water" />
		<tag k="ssr:stedsnr" v="284463" />
		<tag k="water" v="lake" />
	</node>
	<node id="-21526" lat="58.6881916656" lon="5.77452778108">
		<tag k="name" v="Undheimsåa" />
		<tag k="ssr:stedsnr" v="282310" />
		<tag k="waterway" v="river" />
	</node>
	<node id="-21524" lat="58.779111109" lon="5.77024721558">
		<tag k="name" v="Trolltjørn" />
		<tag k="natural" v="water" />
		<tag k="ssr:stedsnr" v="145616" />
	</node>
	<node id="-22035" lat="58.6749166666" lon="5.83303056334">
		<tag k="name" v="Tjålandsvatnet" />
		<tag k="natural" v="water" />
		<tag k="ssr:stedsnr" v="789295" />
		<tag k="water" v="lake" />
	</node>
	<node id="-21522" lat="58.7739000001" lon="5.71276111383">
		<tag k="name" v="Netlandstangen" />
		<tag k="natural" v="cape" />
		<tag k="ssr:stedsnr" v="145421" />
	</node>
	<node id="-21521" lat="58.7429194473" lon="5.68049721356">
		<tag k="name" v="Nebbo" />
		<tag k="natural" v="cape" />
		<tag k="ssr:stedsnr" v="145408" />
	</node>
	<node id="-22025" lat="58.7389361111" lon="5.66807778475">
		<tag k="name" v="Tangen" />
		<tag k="natural" v="cape" />
		<tag k="ssr:stedsnr" v="752387" />
	</node>
	<node id="-22022" lat="58.7211305526" lon="5.84735278512">
		<tag k="name" v="Sandvik" />
		<tag k="natural" v="bay" />
		<tag k="ssr:stedsnr" v="751747" />
	</node>
	<node id="-21506" lat="58.6759632824" lon="5.87874508109">
		<tag k="alt_name" v="Tjorsvatnet" />
		<tag k="name" v="Stokketjørsvatnet" />
		<tag k="natural" v="water" />
		<tag k="ssr:stedsnr" v="83172" />
		<tag k="water" v="lake" />
	</node>
</osm>
