<?xml version="1.0" encoding="UTF-8"?>
<osm generator="osmapis" version="0.6">
	<node id="-404480" lat="58.7271611111" lon="5.63233055269">
		<tag k="name" v="Re" />
		<tag k="place" v="farm" />
		<tag k="ssr:stedsnr" v="529171" />
	</node>
	<node id="-404479" lat="58.6355117346" lon="5.83611329109">
		<tag k="fixme" v="consider place=hamlet" />
		<tag k="name" v="Kartavoll" />
		<tag k="place" v="farm" />
		<tag k="ssr:stedsnr" v="528025" />
	</node>
	<node id="-404476" lat="58.7194249971" lon="5.80379166308">
		<tag k="name" v="Nygård" />
		<tag k="place" v="farm" />
		<tag k="ssr:stedsnr" v="525478" />
	</node>
	<node id="-404467" lat="58.7684111126" lon="5.72441388032">
		<tag k="name" v="Lunden" />
		<tag k="place" v="quarter" />
		<tag k="ssr:stedsnr" v="509142" />
	</node>
	<node id="-404463" lat="58.7488666681" lon="5.81686944482">
		<tag k="name" v="Håland" />
		<tag k="place" v="farm" />
		<tag k="ssr:stedsnr" v="486879" />
	</node>
	<node id="-404462" lat="58.7488333328" lon="5.78526943889">
		<tag k="name" v="Eikelandsmyrane" />
		<tag k="place" v="farm" />
		<tag k="ssr:stedsnr" v="486878" />
	</node>
	<node id="-404460" lat="58.7810554408" lon="5.74636700455">
		<tag k="alt_name" v="Kalberg, s;Søre Kalberg" />
		<tag k="fixme" v="consider place=hamlet" />
		<tag k="name" v="Søra Kalberg" />
		<tag k="place" v="farm" />
		<tag k="ssr:stedsnr" v="486839" />
	</node>
	<node id="-404459" lat="58.7751888878" lon="5.79558889688">
		<tag k="alt_name" v="Skreberget" />
		<tag k="name" v="Skreberg" />
		<tag k="place" v="farm" />
		<tag k="ssr:stedsnr" v="486815" />
	</node>
	<node id="-404458" lat="58.7229583331" lon="5.63200832808">
		<tag k="name" v="Svertingstad" />
		<tag k="place" v="farm" />
		<tag k="ssr:stedsnr" v="485857" />
	</node>
	<node id="-404457" lat="58.7340136066" lon="5.69807105751">
		<tag k="fixme" v="consider place=hamlet" />
		<tag k="name" v="Holen" />
		<tag k="place" v="farm" />
		<tag k="ssr:stedsnr" v="485856" />
	</node>
	<node id="-404456" lat="58.7427138912" lon="5.80384721712">
		<tag k="alt_name" v="Røynåsen" />
		<tag k="name" v="Røynås" />
		<tag k="place" v="farm" />
		<tag k="ssr:stedsnr" v="485842" />
	</node>
	<node id="-404454" lat="58.7186511761" lon="5.69320329746">
		<tag k="name" v="Løge" />
		<tag k="place" v="hamlet" />
		<tag k="ssr:stedsnr" v="485801" />
	</node>
	<node id="-404453" lat="58.7296126496" lon="5.82199923853">
		<tag k="alt_name" v="Ødegård" />
		<tag k="fixme" v="consider place=hamlet" />
		<tag k="name" v="Øydgard" />
		<tag k="place" v="farm" />
		<tag k="ssr:stedsnr" v="485797" />
	</node>
	<node id="-404450" lat="58.7158277787" lon="5.83841111277">
		<tag k="alt_name" v="Bjødnalia" />
		<tag k="name" v="Bjørnalia" />
		<tag k="place" v="farm" />
		<tag k="ssr:stedsnr" v="485754" />
	</node>
	<node id="-404447" lat="58.6893833365" lon="5.75666666934">
		<tag k="name" v="Heia" />
		<tag k="old_name" v="Heiå" />
		<tag k="place" v="farm" />
		<tag k="ssr:stedsnr" v="485697" />
	</node>
	<node id="-404439" lat="58.6621916628" lon="5.78920832569">
		<tag k="name" v="Nyland" />
		<tag k="place" v="farm" />
		<tag k="ssr:stedsnr" v="485235" />
	</node>
	<node id="-404438" lat="58.7377972241" lon="5.64900554985">
		<tag k="name" v="Loen" />
		<tag k="place" v="quarter" />
		<tag k="ssr:stedsnr" v="480526" />
	</node>
	<node id="-404434" lat="58.717855552" lon="5.79199722478">
		<tag k="name" v="Heiane" />
		<tag k="place" v="farm" />
		<tag k="ssr:stedsnr" v="465473" />
	</node>
	<node id="-404431" lat="58.7559027753" lon="5.70039722708">
		<tag k="name" v="Heiane" />
		<tag k="place" v="farm" />
		<tag k="ssr:stedsnr" v="449424" />
	</node>
	<node id="-404427" lat="58.7760972188" lon="5.73268332555">
		<tag k="name" v="Vollen" />
		<tag k="place" v="farm" />
		<tag k="ssr:stedsnr" v="449117" />
	</node>
	<node id="-404422" lat="58.7650972215" lon="5.78863054741">
		<tag k="name" v="Småberg" />
		<tag k="place" v="farm" />
		<tag k="ssr:stedsnr" v="426881" />
	</node>
	<node id="-404421" lat="58.7224416648" lon="5.60712500764">
		<tag k="name" v="Eliasheia" />
		<tag k="place" v="farm" />
		<tag k="ssr:stedsnr" v="425872" />
	</node>
	<node id="-404419" lat="58.7278000001" lon="5.6945027705">
		<tag k="name" v="Krossen" />
		<tag k="place" v="farm" />
		<tag k="ssr:stedsnr" v="425834" />
	</node>
	<node id="-404418" lat="58.6970400956" lon="5.65386360105">
		<tag k="alt_name" v="Haugland, øvra;Haugland;Haugland øvre" />
		<tag k="fixme" v="consider place=hamlet" />
		<tag k="name" v="Øvrahaugland" />
		<tag k="place" v="farm" />
		<tag k="ssr:stedsnr" v="425814" />
	</node>
	<node id="-404417" lat="58.6948843708" lon="5.66196797185">
		<tag k="alt_name" v="Gjerdå" />
		<tag k="name" v="Gjerda" />
		<tag k="old_name" v="Gjerdo" />
		<tag k="place" v="farm" />
		<tag k="ssr:stedsnr" v="425809" />
	</node>
	<node id="-404415" lat="58.6749361151" lon="5.76650000275">
		<tag k="alt_name" v="Torkelholen" />
		<tag k="name" v="Torkelsholen" />
		<tag k="place" v="farm" />
		<tag k="ssr:stedsnr" v="425792" />
	</node>
	<node id="-404414" lat="58.6929785118" lon="5.72228849271">
		<tag k="fixme" v="consider place=hamlet" />
		<tag k="name" v="Mossige" />
		<tag k="place" v="farm" />
		<tag k="ssr:stedsnr" v="425762" />
	</node>
	<node id="-404413" lat="58.687952777" lon="5.74173056072">
		<tag k="name" v="Bakken" />
		<tag k="place" v="farm" />
		<tag k="ssr:stedsnr" v="425759" />
	</node>
	<node id="-404412" lat="58.6610250021" lon="5.79702499684">
		<tag k="name" v="Storemyr" />
		<tag k="place" v="farm" />
		<tag k="ssr:stedsnr" v="425298" />
	</node>
	<node id="-404411" lat="58.677349996" lon="5.8259499962">
		<tag k="name" v="Langholen" />
		<tag k="place" v="farm" />
		<tag k="ssr:stedsnr" v="425282" />
	</node>
	<node id="-404408" lat="58.6493444483" lon="5.81863332594">
		<tag k="name" v="Fløymeland" />
		<tag k="place" v="farm" />
		<tag k="ssr:stedsnr" v="425257" />
	</node>
	<node id="-404407" lat="58.6458333349" lon="5.80822778534">
		<tag k="alt_name" v="Myrabø" />
		<tag k="name" v="Myrane" />
		<tag k="place" v="farm" />
		<tag k="ssr:stedsnr" v="425254" />
	</node>
	<node id="-404404" lat="58.713761113" lon="5.77278333168">
		<tag k="name" v="Rinnå" />
		<tag k="place" v="farm" />
		<tag k="ssr:stedsnr" v="419478" />
	</node>
	<node id="-404400" lat="58.7705277806" lon="5.79950277191">
		<tag k="name" v="Senemyr" />
		<tag k="place" v="farm" />
		<tag k="ssr:stedsnr" v="266153" />
	</node>
	<node id="-404396" lat="58.7469055596" lon="5.83309722749">
		<tag k="name" v="Tverrbotten" />
		<tag k="place" v="locality" />
		<tag k="ssr:stedsnr" v="265106" />
	</node>
	<node id="-404393" lat="58.7497583326" lon="5.80440833717">
		<tag k="alt_name" v="Vorefjell" />
		<tag k="name" v="Vordefjell" />
		<tag k="place" v="farm" />
		<tag k="ssr:stedsnr" v="243860" />
	</node>
	<node id="-404392" lat="58.7373944435" lon="5.7314694512">
		<tag k="alt_name" v="Fjellet" />
		<tag k="name" v="Undafjellet" />
		<tag k="place" v="farm" />
		<tag k="ssr:stedsnr" v="243854" />
	</node>
	<node id="-404180" lat="58.7173166632" lon="5.66785554754">
		<tag k="name" v="Herigstad" />
		<tag k="place" v="farm" />
		<tag k="ssr:stedsnr" v="346068" />
	</node>
	<node id="-404390" lat="58.7710135513" lon="5.80220570131">
		<tag k="fixme" v="consider place=hamlet" />
		<tag k="name" v="Fjermestad" />
		<tag k="place" v="farm" />
		<tag k="ssr:stedsnr" v="243823" />
	</node>
	<node id="-404389" lat="58.7271499978" lon="5.68438332801">
		<tag k="name" v="Moldhaug" />
		<tag k="place" v="farm" />
		<tag k="ssr:stedsnr" v="243814" />
	</node>
	<node id="-404388" lat="58.7294916653" lon="5.7408694419">
		<tag k="name" v="Larheia" />
		<tag k="place" v="farm" />
		<tag k="ssr:stedsnr" v="243811" />
	</node>
	<node id="-404387" lat="58.6984111108" lon="5.64605278081">
		<tag k="alt_name" v="Brumheia" />
		<tag k="name" v="Brunnheia" />
		<tag k="place" v="farm" />
		<tag k="ssr:stedsnr" v="243797" />
	</node>
	<node id="-404385" lat="58.6718249994" lon="5.77677777986">
		<tag k="name" v="Slettabrotet" />
		<tag k="place" v="farm" />
		<tag k="ssr:stedsnr" v="243780" />
	</node>
	<node id="-404384" lat="58.6836431788" lon="5.82840802178">
		<tag k="fixme" v="consider place=hamlet" />
		<tag k="name" v="Skårland" />
		<tag k="place" v="farm" />
		<tag k="ssr:stedsnr" v="243774" />
	</node>
	<node id="-404383" lat="58.6860111133" lon="5.79468054704">
		<tag k="name" v="Krusaholen" />
		<tag k="place" v="farm" />
		<tag k="ssr:stedsnr" v="243772" />
	</node>
	<node id="-404382" lat="58.7173445497" lon="5.80575849959">
		<tag k="fixme" v="consider place=hamlet" />
		<tag k="name" v="Sæland" />
		<tag k="place" v="farm" />
		<tag k="ssr:stedsnr" v="242815" />
	</node>
	<node id="-404380" lat="58.7145397102" lon="5.71126073399">
		<tag k="fixme" v="consider place=hamlet" />
		<tag k="name" v="Fotland" />
		<tag k="old_name" v="Fottland" />
		<tag k="place" v="farm" />
		<tag k="ssr:stedsnr" v="242803" />
	</node>
	<node id="-404379" lat="58.7110111148" lon="5.69167778591">
		<tag k="alt_name" v="Oma øvre" />
		<tag k="name" v="Øvre Oma" />
		<tag k="place" v="farm" />
		<tag k="ssr:stedsnr" v="241446" />
	</node>
	<node id="-404377" lat="58.7350944475" lon="5.71685555286">
		<tag k="name" v="Lyevollen" />
		<tag k="old_name" v="Lyenvollen" />
		<tag k="place" v="farm" />
		<tag k="ssr:stedsnr" v="234886" />
	</node>
	<node id="-404373" lat="58.7060055188" lon="5.6636039811">
		<tag k="fixme" v="consider place=hamlet" />
		<tag k="name" v="Hognestad" />
		<tag k="place" v="farm" />
		<tag k="ssr:stedsnr" v="222401" />
	</node>
	<node id="-404372" lat="58.7920861144" lon="5.74614722508">
		<tag k="name" v="Legdå" />
		<tag k="place" v="farm" />
		<tag k="ssr:stedsnr" v="206587" />
	</node>
	<node id="-404371" lat="58.7820666624" lon="5.72784722583">
		<tag k="name" v="Hagebyen" />
		<tag k="place" v="quarter" />
		<tag k="ssr:stedsnr" v="206584" />
	</node>
	<node id="-404366" lat="58.7707833342" lon="5.7305472239">
		<tag k="fixme" v="consider place=suburb, village or hamlet" />
		<tag k="name" v="Veidene" />
		<tag k="place" v="quarter" />
		<tag k="ssr:stedsnr" v="206166" />
	</node>
	<node id="-404363" lat="58.7548027773" lon="5.78739443689">
		<tag k="name" v="Måkeskjær" />
		<tag k="place" v="farm" />
		<tag k="ssr:stedsnr" v="206137" />
	</node>
	<node id="-404359" lat="58.7429026309" lon="5.8277873756">
		<tag k="alt_name" v="Øvre Håland" />
		<tag k="fixme" v="consider place=hamlet" />
		<tag k="name" v="Høga Håland" />
		<tag k="old_name" v="Høg Håland" />
		<tag k="place" v="farm" />
		<tag k="ssr:stedsnr" v="182865" />
	</node>
	<node id="-404358" lat="58.7360361154" lon="5.66991943931">
		<tag k="name" v="Vassbø" />
		<tag k="place" v="farm" />
		<tag k="ssr:stedsnr" v="182840" />
	</node>
	<node id="-404355" lat="58.7777447538" lon="5.73206777023">
		<tag k="fixme" v="consider place=hamlet" />
		<tag k="name" v="Frøyland" />
		<tag k="place" v="farm" />
		<tag k="ssr:stedsnr" v="182823" />
	</node>
	<node id="-404354" lat="58.7305579949" lon="5.76281194788">
		<tag k="fixme" v="consider place=hamlet" />
		<tag k="name" v="Salen" />
		<tag k="place" v="farm" />
		<tag k="ssr:stedsnr" v="182799" />
	</node>
	<node id="-404353" lat="58.7006166674" lon="5.75472778556">
		<tag k="name" v="Botn" />
		<tag k="place" v="farm" />
		<tag k="ssr:stedsnr" v="182788" />
	</node>
	<node id="-404352" lat="58.7013611144" lon="5.71546944274">
		<tag k="name" v="Fossebakken" />
		<tag k="place" v="farm" />
		<tag k="ssr:stedsnr" v="182783" />
	</node>
	<node id="-404351" lat="58.7073305538" lon="5.68850555509">
		<tag k="alt_name" v="Ner Oma;Oma nedre" />
		<tag k="name" v="Nedre Oma" />
		<tag k="place" v="farm" />
		<tag k="ssr:stedsnr" v="182775" />
	</node>
	<node id="-404349" lat="58.7036694468" lon="5.62780833472">
		<tag k="name" v="Hestholen" />
		<tag k="place" v="farm" />
		<tag k="ssr:stedsnr" v="182768" />
	</node>
	<node id="-404347" lat="58.6885666633" lon="5.79734444313">
		<tag k="alt_name" v="Hålå" />
		<tag k="name" v="Hola" />
		<tag k="place" v="farm" />
		<tag k="ssr:stedsnr" v="182751" />
	</node>
	<node id="-404345" lat="58.6902583374" lon="5.82859167487">
		<tag k="name" v="Snorestad" />
		<tag k="place" v="farm" />
		<tag k="ssr:stedsnr" v="182734" />
	</node>
	<node id="-404343" lat="58.6604690367" lon="5.76253113308">
		<tag k="alt_name" v="Helland, øvra;Helland øvre" />
		<tag k="fixme" v="consider place=hamlet" />
		<tag k="name" v="Øvrahelland" />
		<tag k="place" v="farm" />
		<tag k="ssr:stedsnr" v="182293" />
	</node>
	<node id="-404342" lat="58.6631045453" lon="5.7535771886">
		<tag k="alt_name" v="Helland, nedra;Helland nedre" />
		<tag k="fixme" v="consider place=hamlet" />
		<tag k="name" v="Nedrahelland" />
		<tag k="place" v="farm" />
		<tag k="ssr:stedsnr" v="182277" />
	</node>
	<node id="-404174" lat="58.7270694463" lon="5.66397500493">
		<tag k="alt_name" v="Eivindsholen" />
		<tag k="name" v="Eivindholen" />
		<tag k="place" v="farm" />
		<tag k="ssr:stedsnr" v="121866" />
	</node>
	<node id="-404334" lat="58.7001916661" lon="5.68372222884">
		<tag k="name" v="Grødem" />
		<tag k="place" v="farm" />
		<tag k="ssr:stedsnr" v="164048" />
	</node>
	<node id="-404322" lat="58.7392673946" lon="5.75725223436">
		<tag k="fixme" v="consider place=hamlet" />
		<tag k="name" v="Åsen" />
		<tag k="place" v="farm" />
		<tag k="ssr:stedsnr" v="121859" />
	</node>
	<node id="-404321" lat="58.729508331" lon="5.60722777418">
		<tag k="alt_name" v="Trollaskeidane" />
		<tag k="name" v="Trollaskeio" />
		<tag k="place" v="farm" />
		<tag k="ssr:stedsnr" v="121852" />
	</node>
	<node id="-404320" lat="58.7316096399" lon="5.65478426534">
		<tag k="fixme" v="consider place=hamlet" />
		<tag k="name" v="Rossaland" />
		<tag k="place" v="farm" />
		<tag k="ssr:stedsnr" v="121850" />
	</node>
	<node id="-404318" lat="58.7038083375" lon="5.66833055623">
		<tag k="name" v="Hognestad" />
		<tag k="place" v="farm" />
		<tag k="ssr:stedsnr" v="121799" />
	</node>
	<node id="-404317" lat="58.7081333328" lon="5.73041388351">
		<tag k="name" v="Trarheia" />
		<tag k="old_name" v="Tranheia" />
		<tag k="place" v="farm" />
		<tag k="ssr:stedsnr" v="121779" />
	</node>
	<node id="-404316" lat="58.6800500025" lon="5.70561944164">
		<tag k="name" v="Garborg" />
		<tag k="place" v="farm" />
		<tag k="ssr:stedsnr" v="121756" />
	</node>
	<node id="-404314" lat="58.650580559" lon="5.79736666797">
		<tag k="name" v="Grasliholen" />
		<tag k="place" v="locality" />
		<tag k="ssr:stedsnr" v="121259" />
	</node>
	<node id="-404312" lat="58.6949000044" lon="5.6799611124">
		<tag k="name" v="Øgard" />
		<tag k="place" v="farm" />
		<tag k="ssr:stedsnr" v="118417" />
	</node>
	<node id="-404308" lat="58.7004722214" lon="5.67856666708">
		<tag k="name" v="Grødem" />
		<tag k="place" v="farm" />
		<tag k="ssr:stedsnr" v="104068" />
	</node>
	<node id="-404307" lat="58.7218972219" lon="5.79991944483">
		<tag k="name" v="Floen" />
		<tag k="place" v="farm" />
		<tag k="ssr:stedsnr" v="101488" />
	</node>
	<node id="-404290" lat="58.7404944409" lon="5.6542277774">
		<tag k="fixme" v="consider place=suburb, village or hamlet" />
		<tag k="name" v="Vardheia" />
		<tag k="place" v="quarter" />
		<tag k="ssr:stedsnr" v="61888" />
	</node>
	<node id="-404289" lat="58.7274194452" lon="5.72125556068">
		<tag k="name" v="Ekra" />
		<tag k="place" v="farm" />
		<tag k="ssr:stedsnr" v="61803" />
	</node>
	<node id="-404288" lat="58.6857804098" lon="5.7272811766">
		<tag k="fixme" v="consider place=hamlet" />
		<tag k="name" v="Tjensvoll" />
		<tag k="place" v="farm" />
		<tag k="ssr:stedsnr" v="61754" />
	</node>
	<node id="-404283" lat="58.6760805537" lon="5.82218333868">
		<tag k="name" v="Holen" />
		<tag k="place" v="farm" />
		<tag k="ssr:stedsnr" v="61268" />
	</node>
	<node id="-404282" lat="58.7200916654" lon="5.8138861065">
		<tag k="name" v="Kleiva" />
		<tag k="place" v="farm" />
		<tag k="ssr:stedsnr" v="60855" />
	</node>
	<node id="-404281" lat="58.7177958128" lon="5.74964114231">
		<tag k="fixme" v="consider place=hamlet" />
		<tag k="name" v="Garpestad" />
		<tag k="place" v="farm" />
		<tag k="ssr:stedsnr" v="60843" />
	</node>
	<node id="-404277" lat="58.6329666705" lon="5.83440000267">
		<tag k="name" v="Kartavoll" />
		<tag k="place" v="farm" />
		<tag k="ssr:stedsnr" v="43046" />
	</node>
	<node id="-404253" lat="58.7292221385" lon="5.63539143009">
		<tag k="alt_name" v="Re" />
		<tag k="name" v="Reehaugen" />
		<tag k="place" v="farm" />
		<tag k="ssr:stedsnr" v="1179" />
	</node>
	<node id="-404252" lat="58.7033623144" lon="5.78093524045">
		<tag k="fixme" v="consider place=hamlet" />
		<tag k="name" v="Taksdal" />
		<tag k="place" v="farm" />
		<tag k="ssr:stedsnr" v="1177" />
	</node>
	<node id="-404250" lat="58.7667130336" lon="5.78203682531">
		<tag k="alt_name" v="Frøylandsmyrane" />
		<tag k="name" v="Myrvang" />
		<tag k="place" v="farm" />
		<tag k="ssr:stedsnr" v="864" />
	</node>
	<node id="-404249" lat="58.7558944464" lon="5.71361389216">
		<tag k="name" v="Njå" />
		<tag k="place" v="farm" />
		<tag k="ssr:stedsnr" v="863" />
	</node>
	<node id="-404248" lat="58.7489166621" lon="5.77858888299">
		<tag k="alt_name" v="Eikelandsmyrane" />
		<tag k="name" v="Åsen" />
		<tag k="place" v="farm" />
		<tag k="ssr:stedsnr" v="846" />
	</node>
	<node id="-404247" lat="58.7205897492" lon="5.70842574179">
		<tag k="fixme" v="consider place=hamlet" />
		<tag k="name" v="Skrudland" />
		<tag k="place" v="farm" />
		<tag k="ssr:stedsnr" v="825" />
	</node>
	<node id="-404246" lat="58.7121223604" lon="5.74946509839">
		<tag k="fixme" v="consider place=hamlet" />
		<tag k="name" v="Lende" />
		<tag k="place" v="farm" />
		<tag k="ssr:stedsnr" v="790" />
	</node>
	<node id="-404245" lat="58.6776416631" lon="5.758294444">
		<tag k="name" v="Tunheim" />
		<tag k="place" v="farm" />
		<tag k="ssr:stedsnr" v="780" />
	</node>
	<node id="-404244" lat="58.6865444465" lon="5.70894167182">
		<tag k="fixme" v="consider place=hamlet" />
		<tag k="name" v="Garborg" />
		<tag k="place" v="farm" />
		<tag k="ssr:stedsnr" v="753" />
	</node>
	<node id="-404754" lat="58.7143611142" lon="5.74059445127">
		<tag k="name" v="Garpestadheia" />
		<tag k="place" v="farm" />
		<tag k="ssr:stedsnr" v="965497" />
	</node>
	<node id="-404662" lat="58.7811027756" lon="5.71851666165">
		<tag k="fixme" v="consider place=suburb, village or hamlet" />
		<tag k="name" v="Oshei" />
		<tag k="place" v="quarter" />
		<tag k="ssr:stedsnr" v="813237" />
	</node>
	<node id="-404750" lat="58.7331416668" lon="5.66184723003">
		<tag k="name" v="Rossaland" />
		<tag k="place" v="farm" />
		<tag k="ssr:stedsnr" v="953173" />
	</node>
	<node id="-404749" lat="58.715030555" lon="5.67258332975">
		<tag k="name" v="Herigstad" />
		<tag k="place" v="farm" />
		<tag k="ssr:stedsnr" v="953082" />
	</node>
	<node id="-404748" lat="58.7199805565" lon="5.67287223033">
		<tag k="name" v="Herigstad" />
		<tag k="place" v="farm" />
		<tag k="ssr:stedsnr" v="953076" />
	</node>
	<node id="-404231" lat="58.7359611091" lon="5.65756667507">
		<tag k="name" v="Rossaland" />
		<tag k="place" v="farm" />
		<tag k="ssr:stedsnr" v="893176" />
	</node>
	<node id="-404742" lat="58.796694443" lon="5.74646388844">
		<tag k="name" v="Heia" />
		<tag k="place" v="farm" />
		<tag k="ssr:stedsnr" v="934566" />
	</node>
	<node id="-404229" lat="58.7183944446" lon="5.78914721678">
		<tag k="name" v="Lyngaland" />
		<tag k="place" v="locality" />
		<tag k="ssr:stedsnr" v="890517" />
	</node>
	<node id="-404740" lat="58.7694749999" lon="5.72275555958">
		<tag k="name" v="Jørenshei" />
		<tag k="place" v="farm" />
		<tag k="ssr:stedsnr" v="934138" />
	</node>
	<node id="-404739" lat="58.7701611089" lon="5.73450278596">
		<tag k="name" v="Håholen" />
		<tag k="place" v="quarter" />
		<tag k="ssr:stedsnr" v="934136" />
	</node>
	<node id="-404221" lat="58.7012472184" lon="5.65160555664">
		<tag k="name" v="Heia" />
		<tag k="place" v="farm" />
		<tag k="ssr:stedsnr" v="404420" />
	</node>
	<node id="-404731" lat="58.6722833305" lon="5.89647778354">
		<tag k="name" v="Låglia" />
		<tag k="place" v="farm" />
		<tag k="ssr:stedsnr" v="933212" />
	</node>
	<node id="-404218" lat="58.6648166702" lon="5.75893611821">
		<tag k="fixme" v="consider place=hamlet" />
		<tag k="name" v="Helland" />
		<tag k="place" v="village" />
		<tag k="ssr:stedsnr" v="390489" />
	</node>
	<node id="-404729" lat="58.7615944468" lon="5.76726945111">
		<tag k="name" v="Doblene" />
		<tag k="place" v="farm" />
		<tag k="ssr:stedsnr" v="911851" />
	</node>
	<node id="-404728" lat="58.7189309655" lon="5.65503840039">
		<tag k="fixme" v="consider place=hamlet" />
		<tag k="name" v="Håland" />
		<tag k="place" v="farm" />
		<tag k="ssr:stedsnr" v="911832" />
	</node>
	<node id="-404727" lat="58.72586389" lon="5.62693888432">
		<tag k="name" v="Hagane" />
		<tag k="place" v="farm" />
		<tag k="ssr:stedsnr" v="910876" />
	</node>
	<node id="-404726" lat="58.7355944425" lon="5.70306111826">
		<tag k="name" v="Hinnaland" />
		<tag k="place" v="farm" />
		<tag k="ssr:stedsnr" v="910874" />
	</node>
	<node id="-404725" lat="58.7387666675" lon="5.71426388922">
		<tag k="alt_name" v="Heien" />
		<tag k="name" v="Heia" />
		<tag k="place" v="farm" />
		<tag k="ssr:stedsnr" v="910872" />
	</node>
	<node id="-404212" lat="58.7435361144" lon="5.70441667482">
		<tag k="name" v="Kvitholen" />
		<tag k="place" v="farm" />
		<tag k="ssr:stedsnr" v="387442" />
	</node>
	<node id="-404720" lat="58.7170138411" lon="5.7721761273">
		<tag k="fixme" v="consider place=hamlet" />
		<tag k="name" v="Halland" />
		<tag k="old_name" v="Hadland" />
		<tag k="place" v="farm" />
		<tag k="ssr:stedsnr" v="910830" />
	</node>
	<node id="-404718" lat="58.7246116244" lon="5.7431328371">
		<tag k="fixme" v="consider place=hamlet" />
		<tag k="name" v="Høyland" />
		<tag k="place" v="farm" />
		<tag k="ssr:stedsnr" v="910803" />
	</node>
	<node id="-404717" lat="58.7098134639" lon="5.69538813955">
		<tag k="name" v="Oma" />
		<tag k="place" v="hamlet" />
		<tag k="ssr:stedsnr" v="910787" />
	</node>
	<node id="-404715" lat="58.6829061344" lon="5.75078234653">
		<tag k="fixme" v="consider place=hamlet" />
		<tag k="name" v="Tunheim" />
		<tag k="place" v="farm" />
		<tag k="ssr:stedsnr" v="910756" />
	</node>
	<node id="-404714" lat="58.6916012914" lon="5.78759438305">
		<tag k="alt_name" v="Undheim, litla;Litlaundeim;Undeim, litla;Undheim litle;Litle Undheim" />
		<tag k="fixme" v="consider place=hamlet" />
		<tag k="name" v="Litlaundheim" />
		<tag k="place" v="farm" />
		<tag k="ssr:stedsnr" v="910742" />
	</node>
	<node id="-404713" lat="58.6927853425" lon="5.76833257395">
		<tag k="fixme" v="consider place=hamlet" />
		<tag k="name" v="Årrestad" />
		<tag k="place" v="farm" />
		<tag k="ssr:stedsnr" v="910739" />
	</node>
	<node id="-404711" lat="58.6715805552" lon="5.84669167312">
		<tag k="alt_name" v="Auranes" />
		<tag k="name" v="Aurenes" />
		<tag k="place" v="farm" />
		<tag k="ssr:stedsnr" v="910468" />
	</node>
	<node id="-404198" lat="58.7639250018" lon="5.77780277732">
		<tag k="name" v="Litleklubb" />
		<tag k="place" v="farm" />
		<tag k="ssr:stedsnr" v="364885" />
	</node>
	<node id="-404709" lat="58.6827088627" lon="5.85802317291">
		<tag k="fixme" v="consider place=hamlet" />
		<tag k="name" v="Sikvaland" />
		<tag k="place" v="farm" />
		<tag k="ssr:stedsnr" v="910453" />
	</node>
	<node id="-404708" lat="58.6377694465" lon="5.81572222003">
		<tag k="name" v="Bergene" />
		<tag k="place" v="farm" />
		<tag k="ssr:stedsnr" v="910267" />
	</node>
	<node id="-404195" lat="58.6884666622" lon="5.75276388382">
		<tag k="name" v="Voll" />
		<tag k="place" v="farm" />
		<tag k="ssr:stedsnr" v="364765" />
	</node>
	<node id="-404193" lat="58.7227777822" lon="5.85695278382">
		<tag k="name" v="Skogen" />
		<tag k="place" v="isolated_dwelling" />
		<tag k="ssr:stedsnr" v="364414" />
	</node>
	<node id="-404190" lat="58.7165500028" lon="5.66908610904">
		<tag k="name" v="Herigstad" />
		<tag k="place" v="farm" />
		<tag k="ssr:stedsnr" v="364856" />
	</node>
	<node id="-404700" lat="58.762072219" lon="5.72107222963">
		<tag k="name" v="Sletteig" />
		<tag k="place" v="farm" />
		<tag k="ssr:stedsnr" v="873167" />
	</node>
	<node id="-404183" lat="58.7272333291" lon="5.6213499971">
		<tag k="name" v="Re" />
		<tag k="place" v="farm" />
		<tag k="ssr:stedsnr" v="346185" />
	</node>
	<node id="-404182" lat="58.717030553" lon="5.67209999972">
		<tag k="name" v="Herigstad" />
		<tag k="place" v="farm" />
		<tag k="ssr:stedsnr" v="346075" />
	</node>
	<node id="-404181" lat="58.7176666705" lon="5.67095000539">
		<tag k="name" v="Herigstad" />
		<tag k="place" v="farm" />
		<tag k="ssr:stedsnr" v="346072" />
	</node>
	<node id="-404692" lat="58.7445888898" lon="5.71613611581">
		<tag k="name" v="Steinteig" />
		<tag k="place" v="farm" />
		<tag k="ssr:stedsnr" v="850895" />
	</node>
	<node id="-404691" lat="58.7416888876" lon="5.71066943912">
		<tag k="alt_name" v="Rudlå" />
		<tag k="name" v="Vargarulla" />
		<tag k="old_name" v="Vargarudlo" />
		<tag k="place" v="farm" />
		<tag k="ssr:stedsnr" v="850855" />
	</node>
	<node id="-404690" lat="58.7199027811" lon="5.62573889486">
		<tag k="alt_name" v="Børaholen" />
		<tag k="name" v="Børarholen" />
		<tag k="old_name" v="Bøaholen" />
		<tag k="place" v="farm" />
		<tag k="ssr:stedsnr" v="850834" />
	</node>
	<node id="-404689" lat="58.7125583305" lon="5.63230277234">
		<tag k="name" v="Kvernhusholen" />
		<tag k="place" v="farm" />
		<tag k="ssr:stedsnr" v="850832" />
	</node>
	<node id="-404176" lat="58.7208249969" lon="5.69616945154">
		<tag k="name" v="Nippen" />
		<tag k="place" v="farm" />
		<tag k="ssr:stedsnr" v="343442" />
	</node>
	<node id="-404175" lat="58.686097222" lon="5.76985556113">
		<tag k="amenity" v="school" />
		<tag k="name" v="Undheim" />
		<tag k="ssr:stedsnr" v="343303" />
	</node>
	<node id="-404686" lat="58.7281206148" lon="5.70751242129">
		<tag k="fixme" v="consider place=hamlet" />
		<tag k="name" v="Vestly" />
		<tag k="place" v="farm" />
		<tag k="ssr:stedsnr" v="850819" />
	</node>
	<node id="-404684" lat="58.7310755407" lon="5.7211756524">
		<tag k="fixme" v="consider place=hamlet" />
		<tag k="name" v="Lye" />
		<tag k="place" v="farm" />
		<tag k="ssr:stedsnr" v="850816" />
	</node>
	<node id="-404683" lat="58.7068749968" lon="5.67612499206">
		<tag k="name" v="Sveholen" />
		<tag k="place" v="farm" />
		<tag k="ssr:stedsnr" v="850777" />
	</node>
	<node id="-404682" lat="58.6773000021" lon="5.77825833053">
		<tag k="name" v="Slettene" />
		<tag k="place" v="farm" />
		<tag k="ssr:stedsnr" v="850774" />
	</node>
	<node id="-404681" lat="58.6850083291" lon="5.785416661">
		<tag k="name" v="Øvrabø" />
		<tag k="place" v="farm" />
		<tag k="ssr:stedsnr" v="850763" />
	</node>
	<node id="-404675" lat="58.6920333343" lon="5.71155277337">
		<tag k="name" v="Dammane" />
		<tag k="place" v="farm" />
		<tag k="ssr:stedsnr" v="846427" />
	</node>
	<node id="-404671" lat="58.6999611096" lon="5.68213888712">
		<tag k="name" v="Grødem" />
		<tag k="place" v="farm" />
		<tag k="ssr:stedsnr" v="832065" />
	</node>
	<node id="-404670" lat="58.7011091001" lon="5.68546188195">
		<tag k="name" v="Grødem" />
		<tag k="place" v="farm" />
		<tag k="ssr:stedsnr" v="832049" />
	</node>
	<node id="-404669" lat="58.637397226" lon="5.82605000744">
		<tag k="name" v="Kartavoll" />
		<tag k="place" v="farm" />
		<tag k="ssr:stedsnr" v="832016" />
	</node>
	<node id="-404156" lat="58.7666146298" lon="5.72705815039">
		<tag k="alt_name" v="Kverneland" />
		<tag k="fixme" v="consider place=hamlet" />
		<tag k="name" v="Kvernaland" />
		<tag k="place" v="farm" />
		<tag k="ssr:stedsnr" v="304826" />
	</node>
	<node id="-404155" lat="58.7371361091" lon="5.69597778529">
		<tag k="name" v="Holen" />
		<tag k="place" v="farm" />
		<tag k="ssr:stedsnr" v="304144" />
	</node>
	<node id="-404154" lat="58.7379277789" lon="5.71981943783">
		<tag k="name" v="Grindarholen" />
		<tag k="old_name" v="Grindaholen" />
		<tag k="place" v="farm" />
		<tag k="ssr:stedsnr" v="303857" />
	</node>
	<node id="-404153" lat="58.7418333331" lon="5.81570277912">
		<tag k="name" v="Godholen" />
		<tag k="place" v="farm" />
		<tag k="ssr:stedsnr" v="303853" />
	</node>
	<node id="-404664" lat="58.7855111084" lon="5.78418055153">
		<tag k="name" v="Slagsletta" />
		<tag k="place" v="locality" />
		<tag k="ssr:stedsnr" v="813585" />
	</node>
	<node id="-404151" lat="58.7231574544" lon="5.76548991081">
		<tag k="alt_name" v="Brekkå" />
		<tag k="fixme" v="consider place=hamlet" />
		<tag k="name" v="Brekka" />
		<tag k="place" v="farm" />
		<tag k="ssr:stedsnr" v="303821" />
	</node>
	<node id="-404150" lat="58.7008700804" lon="5.68195535251">
		<tag k="fixme" v="consider place=hamlet" />
		<tag k="name" v="Grødem" />
		<tag k="place" v="farm" />
		<tag k="ssr:stedsnr" v="303787" />
	</node>
	<node id="-404149" lat="58.7149999961" lon="5.78760834182">
		<tag k="name" v="Valbrekk" />
		<tag k="place" v="farm" />
		<tag k="ssr:stedsnr" v="303780" />
	</node>
	<node id="-404148" lat="58.6763333294" lon="5.80341944263">
		<tag k="name" v="Mærlia" />
		<tag k="place" v="farm" />
		<tag k="ssr:stedsnr" v="303766" />
	</node>
	<node id="-404147" lat="58.6891500015" lon="5.79002500583">
		<tag k="name" v="Voll" />
		<tag k="place" v="farm" />
		<tag k="ssr:stedsnr" v="303740" />
	</node>
	<node id="-404652" lat="58.7092972196" lon="5.84324444229">
		<tag k="historic" v="shieling" />
		<tag k="name" v="Risstølen" />
		<tag k="place" v="locality" />
		<tag k="ssr:stedsnr" v="812245" />
	</node>
	<node id="-404139" lat="58.7289361077" lon="5.63044721406">
		<tag k="name" v="Re" />
		<tag k="place" v="farm" />
		<tag k="ssr:stedsnr" v="286187" />
	</node>
	<node id="-404138" lat="58.7025000014" lon="5.69208611436">
		<tag k="name" v="Grødem" />
		<tag k="place" v="farm" />
		<tag k="ssr:stedsnr" v="286062" />
	</node>
	<node id="-404646" lat="58.7923111713" lon="5.74663178105">
		<tag k="alt_name" v="Kalberg, nordre;n Kalberg" />
		<tag k="fixme" v="consider place=hamlet" />
		<tag k="name" v="Nordre Kalberg" />
		<tag k="place" v="farm" />
		<tag k="ssr:stedsnr" v="790925" />
	</node>
	<node id="-404644" lat="58.7196190643" lon="5.66332403542">
		<tag k="fixme" v="consider place=hamlet" />
		<tag k="name" v="Auglend" />
		<tag k="place" v="farm" />
		<tag k="ssr:stedsnr" v="789839" />
	</node>
	<node id="-404643" lat="58.71675833" lon="5.62685277342">
		<tag k="name" v="Trædet" />
		<tag k="place" v="farm" />
		<tag k="ssr:stedsnr" v="789836" />
	</node>
	<node id="-404642" lat="58.7178555559" lon="5.61941943719">
		<tag k="name" v="Slettheia" />
		<tag k="place" v="farm" />
		<tag k="ssr:stedsnr" v="789835" />
	</node>
	<node id="-404641" lat="58.7699861089" lon="5.74783332517">
		<tag k="name" v="Brekka" />
		<tag k="place" v="farm" />
		<tag k="ssr:stedsnr" v="789821" />
	</node>
	<node id="-404640" lat="58.6925333332" lon="5.68108055718">
		<tag k="name" v="Auglend" />
		<tag k="place" v="farm" />
		<tag k="ssr:stedsnr" v="789816" />
	</node>
	<node id="-404634" lat="58.6720925512" lon="5.8228794405">
		<tag k="fixme" v="consider place=hamlet" />
		<tag k="name" v="Tjåland" />
		<tag k="place" v="farm" />
		<tag k="ssr:stedsnr" v="789296" />
	</node>
	<node id="-404630" lat="58.6471722264" lon="5.79648889389">
		<tag k="name" v="Sævreid" />
		<tag k="place" v="farm" />
		<tag k="ssr:stedsnr" v="783233" />
	</node>
	<node id="-404628" lat="58.685486112" lon="5.82512777765">
		<tag k="name" v="Skårland" />
		<tag k="place" v="farm" />
		<tag k="ssr:stedsnr" v="771096" />
	</node>
	<node id="-404625" lat="58.7309916686" lon="5.66831110999">
		<tag k="name" v="Nyland" />
		<tag k="place" v="farm" />
		<tag k="ssr:stedsnr" v="768439" />
	</node>
	<node id="-404624" lat="58.7247555595" lon="5.67089443859">
		<tag k="alt_name" v="Grønnebakken" />
		<tag k="name" v="Grønebakken" />
		<tag k="place" v="farm" />
		<tag k="ssr:stedsnr" v="768421" />
	</node>
	<node id="-404612" lat="58.7713944425" lon="5.7986416708">
		<tag k="name" v="Holen" />
		<tag k="place" v="farm" />
		<tag k="ssr:stedsnr" v="729833" />
	</node>
	<node id="-404611" lat="58.7713750032" lon="5.77505278457">
		<tag k="alt_name" v="Lindland" />
		<tag k="name" v="Linland" />
		<tag k="place" v="farm" />
		<tag k="ssr:stedsnr" v="729827" />
	</node>
	<node id="-404610" lat="58.7766083373" lon="5.7270416695">
		<tag k="name" v="Frøyland" />
		<tag k="place" v="farm" />
		<tag k="ssr:stedsnr" v="729824" />
	</node>
	<node id="-404609" lat="58.7424056216" lon="5.69289784189">
		<tag k="fixme" v="consider place=hamlet" />
		<tag k="name" v="Serigstad" />
		<tag k="place" v="farm" />
		<tag k="ssr:stedsnr" v="728889" />
	</node>
	<node id="-404607" lat="58.7372055526" lon="5.82571388477">
		<tag k="name" v="Riset" />
		<tag k="place" v="farm" />
		<tag k="ssr:stedsnr" v="728849" />
	</node>
	<node id="-404606" lat="58.7307396357" lon="5.63243824389">
		<tag k="fixme" v="consider place=hamlet" />
		<tag k="name" v="Re" />
		<tag k="place" v="farm" />
		<tag k="ssr:stedsnr" v="728845" />
	</node>
	<node id="-404605" lat="58.7126872509" lon="5.64001012335">
		<tag k="fixme" v="consider place=hamlet" />
		<tag k="name" v="Steinsland" />
		<tag k="place" v="farm" />
		<tag k="ssr:stedsnr" v="728823" />
	</node>
	<node id="-404603" lat="58.6865613472" lon="5.68576623107">
		<tag k="fixme" v="consider place=hamlet" />
		<tag k="name" v="Mauland" />
		<tag k="place" v="farm" />
		<tag k="ssr:stedsnr" v="728788" />
	</node>
	<node id="-404602" lat="58.7034611102" lon="5.779777773">
		<tag k="name" v="Taksdal" />
		<tag k="place" v="farm" />
		<tag k="ssr:stedsnr" v="728782" />
	</node>
	<node id="-404159" lat="58.755925002" lon="5.70000000693">
		<tag k="name" v="Njå" />
		<tag k="place" v="farm" />
		<tag k="ssr:stedsnr" v="304876" />
	</node>
	<node id="-404600" lat="58.696275002" lon="5.77923332464">
		<tag k="name" v="Månheim" />
		<tag k="place" v="farm" />
		<tag k="ssr:stedsnr" v="728777" />
	</node>
	<node id="-404599" lat="58.7065131394" lon="5.70884733597">
		<tag k="fixme" v="consider place=hamlet" />
		<tag k="name" v="Fosse" />
		<tag k="place" v="farm" />
		<tag k="ssr:stedsnr" v="728761" />
	</node>
	<node id="-404596" lat="58.7192916674" lon="5.61399722132">
		<tag k="name" v="Hanaland" />
		<tag k="place" v="farm" />
		<tag k="ssr:stedsnr" v="727301" />
	</node>
	<node id="-404591" lat="58.730316664" lon="5.63235555096">
		<tag k="name" v="Re" />
		<tag k="place" v="farm" />
		<tag k="ssr:stedsnr" v="711188" />
	</node>
	<node id="-404590" lat="58.6834222222" lon="5.86154443876">
		<tag k="name" v="Sikvaland" />
		<tag k="place" v="farm" />
		<tag k="ssr:stedsnr" v="711135" />
	</node>
	<node id="-404157" lat="58.7156691159" lon="5.63235894733">
		<tag k="fixme" v="consider place=hamlet" />
		<tag k="name" v="Line" />
		<tag k="place" v="farm" />
		<tag k="ssr:stedsnr" v="304846" />
	</node>
	<node id="-404587" lat="58.7706722194" lon="5.72618055123">
		<tag k="name" v="Kvernaland" />
		<tag k="place" v="village" />
		<tag k="ssr:stedsnr" v="706383" />
	</node>
	<node id="-404580" lat="58.7739944463" lon="5.73373333089">
		<tag k="name" v="Holen" />
		<tag k="place" v="farm" />
		<tag k="ssr:stedsnr" v="691175" />
	</node>
	<node id="-404579" lat="58.7653722256" lon="5.80202222314">
		<tag k="name" v="Langholen" />
		<tag k="place" v="farm" />
		<tag k="ssr:stedsnr" v="691172" />
	</node>
	<node id="-404572" lat="58.7513971544" lon="5.71702265768">
		<tag k="fixme" v="consider place=hamlet" />
		<tag k="name" v="Njå" />
		<tag k="place" v="farm" />
		<tag k="ssr:stedsnr" v="668853" />
	</node>
	<node id="-404571" lat="58.7795781939" lon="5.78407274853">
		<tag k="alt_name" v="Aasland" />
		<tag k="fixme" v="consider place=hamlet" />
		<tag k="name" v="Åsland" />
		<tag k="place" v="farm" />
		<tag k="ssr:stedsnr" v="668842" />
	</node>
	<node id="-404570" lat="58.7687945738" lon="5.700797143">
		<tag k="fixme" v="consider place=hamlet" />
		<tag k="name" v="Tegle" />
		<tag k="place" v="farm" />
		<tag k="ssr:stedsnr" v="668825" />
	</node>
	<node id="-404568" lat="58.7102333334" lon="5.63484444492">
		<tag k="name" v="Steinsland" />
		<tag k="place" v="farm" />
		<tag k="ssr:stedsnr" v="668159" />
	</node>
	<node id="-404567" lat="58.7406778194" lon="5.6457506269">
		<tag k="fixme" v="consider place=hamlet" />
		<tag k="name" v="Bryne" />
		<tag k="place" v="farm" />
		<tag k="ssr:stedsnr" v="667881" />
	</node>
	<node id="-404566" lat="58.7353638917" lon="5.64768055068">
		<tag k="name" v="Bryne" />
		<tag k="place" v="town" />
		<tag k="ssr:stedsnr" v="667821" />
	</node>
	<node id="-404565" lat="58.7379472253" lon="5.67319722417">
		<tag k="name" v="Tangen" />
		<tag k="place" v="farm" />
		<tag k="ssr:stedsnr" v="667819" />
	</node>
	<node id="-404563" lat="58.6929318639" lon="5.64238129633">
		<tag k="alt_name" v="Haugland, nedra;Haugland nedre" />
		<tag k="fixme" v="consider place=hamlet" />
		<tag k="name" v="Nedrahaugland" />
		<tag k="place" v="farm" />
		<tag k="ssr:stedsnr" v="667781" />
	</node>
	<node id="-404562" lat="58.7025916708" lon="5.76438333006">
		<tag k="alt_name" v="Hykkjen" />
		<tag k="name" v="Hykken" />
		<tag k="place" v="farm" />
		<tag k="ssr:stedsnr" v="667767" />
	</node>
	<node id="-404558" lat="58.6771055582" lon="5.74494999911">
		<tag k="name" v="Håklepp" />
		<tag k="place" v="farm" />
		<tag k="ssr:stedsnr" v="667727" />
	</node>
	<node id="-404556" lat="58.6948249991" lon="5.79153888648">
		<tag k="name" v="Hagen" />
		<tag k="place" v="farm" />
		<tag k="ssr:stedsnr" v="667703" />
	</node>
	<node id="-404554" lat="58.6396833327" lon="5.77778054865">
		<tag k="alt_name" v="Skjæret" />
		<tag k="name" v="Skjeret" />
		<tag k="old_name" v="Skjerset" />
		<tag k="place" v="farm" />
		<tag k="ssr:stedsnr" v="667256" />
	</node>
	<node id="-404553" lat="58.6458053908" lon="5.87576166461">
		<tag k="alt_name" v="Mellemstrand;Mæland" />
		<tag k="fixme" v="consider place=hamlet" />
		<tag k="name" v="Mellomstrand" />
		<tag k="place" v="farm" />
		<tag k="ssr:stedsnr" v="667076" />
	</node>
	<node id="-404547" lat="58.7276749998" lon="5.63172778615">
		<tag k="name" v="Re" />
		<tag k="place" v="farm" />
		<tag k="ssr:stedsnr" v="650163" />
	</node>
	<node id="-404546" lat="58.7259777759" lon="5.63044166922">
		<tag k="name" v="Re" />
		<tag k="place" v="farm" />
		<tag k="ssr:stedsnr" v="650161" />
	</node>
	<node id="-404545" lat="58.6362027784" lon="5.83918888952">
		<tag k="name" v="Kartavoll" />
		<tag k="place" v="farm" />
		<tag k="ssr:stedsnr" v="650041" />
	</node>
	<node id="-404539" lat="58.7820444418" lon="5.78436110843">
		<tag k="name" v="Skyttarhaug" />
		<tag k="place" v="locality" />
		<tag k="ssr:stedsnr" v="630552" />
	</node>
	<node id="-404535" lat="58.7549361138" lon="5.7264083265">
		<tag k="historic" v="shieling" />
		<tag k="name" v="Gamlestøl" />
		<tag k="place" v="locality" />
		<tag k="ssr:stedsnr" v="630157" />
	</node>
	<node id="-404533" lat="58.7230225287" lon="5.85610739493">
		<tag k="fixme" v="consider place=hamlet" />
		<tag k="name" v="Breilia" />
		<tag k="place" v="farm" />
		<tag k="ssr:stedsnr" v="629726" />
	</node>
	<node id="-404532" lat="58.777958337" lon="5.718541658">
		<tag k="building" v="industrial" />
		<tag k="industrial" v="factory" />
		<tag k="name" v="Kverneland fabrikk" />
		<tag k="ssr:stedsnr" v="607830" />
	</node>
	<node id="-404531" lat="58.7656008663" lon="5.71347686166">
		<tag k="fixme" v="consider place=hamlet" />
		<tag k="name" v="Netland" />
		<tag k="place" v="farm" />
		<tag k="ssr:stedsnr" v="607814" />
	</node>
	<node id="-404530" lat="58.6956722194" lon="5.63020834057">
		<tag k="alt_name" v="Skardabakken" />
		<tag k="name" v="Skarabakken" />
		<tag k="place" v="farm" />
		<tag k="ssr:stedsnr" v="606786" />
	</node>
	<node id="-404529" lat="58.68228889" lon="5.77785277737">
		<tag k="alt_name" v="Undeim" />
		<tag k="fixme" v="consider place=hamlet" />
		<tag k="name" v="Undheim" />
		<tag k="place" v="village" />
		<tag k="ssr:stedsnr" v="606754" />
	</node>
	<node id="-404528" lat="58.6816944482" lon="5.74371110288">
		<tag k="name" v="Myra" />
		<tag k="place" v="farm" />
		<tag k="ssr:stedsnr" v="606753" />
	</node>
	<node id="-404527" lat="58.6874888878" lon="5.78311943825">
		<tag k="name" v="Fastabygda" />
		<tag k="place" v="hamlet" />
		<tag k="ssr:stedsnr" v="606741" />
	</node>
	<node id="-404525" lat="58.7184361099" lon="5.75170277082">
		<tag k="name" v="Kartavoll" />
		<tag k="place" v="farm" />
		<tag k="ssr:stedsnr" v="606252" />
	</node>
	<node id="-404524" lat="58.6915055536" lon="5.67035833186">
		<tag k="name" v="Sletteforen" />
		<tag k="place" v="farm" />
		<tag k="ssr:stedsnr" v="605456" />
	</node>
	<node id="-404523" lat="58.73088407" lon="5.68722353803">
		<tag k="fixme" v="consider place=hamlet" />
		<tag k="name" v="Norheim" />
		<tag k="old_name" v="Nordheim" />
		<tag k="place" v="farm" />
		<tag k="ssr:stedsnr" v="606854" />
	</node>
	<node id="-404522" lat="58.7352138887" lon="5.81057499595">
		<tag k="name" v="Helleholen" />
		<tag k="old_name" v="Hedleholen" />
		<tag k="place" v="farm" />
		<tag k="ssr:stedsnr" v="606850" />
	</node>
	<node id="-404521" lat="58.723812691" lon="5.81787226193">
		<tag k="fixme" v="consider place=hamlet" />
		<tag k="name" v="Sjelset" />
		<tag k="place" v="farm" />
		<tag k="ssr:stedsnr" v="606840" />
	</node>
	<node id="-404520" lat="58.729840635" lon="5.81021461348">
		<tag k="alt_name" v="Eigeland" />
		<tag k="fixme" v="consider place=hamlet" />
		<tag k="name" v="Eikeland" />
		<tag k="place" v="farm" />
		<tag k="ssr:stedsnr" v="606819" />
	</node>
	<node id="-404519" lat="58.723681448" lon="5.70203195832">
		<tag k="alt_name" v="Øvre Time;Time, øvra" />
		<tag k="fixme" v="consider place=hamlet" />
		<tag k="name" v="Øvra Time" />
		<tag k="place" v="farm" />
		<tag k="ssr:stedsnr" v="606806" />
	</node>
	<node id="-404518" lat="58.7230347682" lon="5.68457401602">
		<tag k="alt_name" v="Time, nedra;Nedre Time" />
		<tag k="fixme" v="consider place=hamlet" />
		<tag k="name" v="Nedra Time" />
		<tag k="place" v="farm" />
		<tag k="ssr:stedsnr" v="606804" />
	</node>
	<node id="-404516" lat="58.72986667" lon="5.62965000035">
		<tag k="name" v="Re" />
		<tag k="place" v="farm" />
		<tag k="ssr:stedsnr" v="589201" />
	</node>
	<node id="-404515" lat="58.63716667" lon="5.8406722246">
		<tag k="name" v="Kartavoll" />
		<tag k="place" v="farm" />
		<tag k="ssr:stedsnr" v="589063" />
	</node>
	<node id="-404510" lat="58.6841820493" lon="5.77206006135">
		<tag k="alt_name" v="Undheim store" />
		<tag k="fixme" v="consider place=hamlet" />
		<tag k="name" v="Storaundheim" />
		<tag k="place" v="farm" />
		<tag k="ssr:stedsnr" v="585304" />
	</node>
	<node id="-404508" lat="58.7348666645" lon="5.73151666403">
		<tag k="name" v="Lyefjell" />
		<tag k="place" v="quarter" />
		<tag k="ssr:stedsnr" v="569965" />
	</node>
	<node id="-404506" lat="58.7832861082" lon="5.78572778533">
		<tag k="name" v="Skansen" />
		<tag k="place" v="locality" />
		<tag k="ssr:stedsnr" v="569614" />
	</node>
	<node id="-404505" lat="58.7851166651" lon="5.78700833928">
		<tag k="name" v="Festningen" />
		<tag k="place" v="locality" />
		<tag k="ssr:stedsnr" v="569615" />
	</node>
	<node id="-404504" lat="58.7339611121" lon="5.64208611673">
		<tag k="leisure" v="park" />
		<tag k="name" v="Geitahodne" />
		<tag k="ssr:stedsnr" v="569411" />
	</node>
	<node id="-404503" lat="58.7518666639" lon="5.77829445315">
		<tag k="name" v="Moseberg" />
		<tag k="place" v="locality" />
		<tag k="ssr:stedsnr" v="569235" />
	</node>
	<node id="-404502" lat="58.7757111121" lon="5.72606944051">
		<tag k="fixme" v="consider place=suburb, village or hamlet" />
		<tag k="name" v="Riset" />
		<tag k="place" v="quarter" />
		<tag k="ssr:stedsnr" v="569157" />
	</node>
	<node id="-404500" lat="58.7577277757" lon="5.803605548">
		<tag k="name" v="Piggberget" />
		<tag k="place" v="farm" />
		<tag k="ssr:stedsnr" v="569149" />
	</node>
	<node id="-404493" lat="58.7109694429" lon="5.85695556007">
		<tag k="name" v="Lauvlia" />
		<tag k="place" v="isolated_dwelling" />
		<tag k="ssr:stedsnr" v="546447" />
	</node>
	<node id="-404489" lat="58.6654555549" lon="5.78511665928">
		<tag k="alt_name" v="Engene" />
		<tag k="name" v="Enga" />
		<tag k="old_name" v="Engja" />
		<tag k="place" v="farm" />
		<tag k="ssr:stedsnr" v="546274" />
	</node>
	<node id="-404488" lat="58.6434333336" lon="5.79451666276">
		<tag k="name" v="Skjeret" />
		<tag k="place" v="farm" />
		<tag k="ssr:stedsnr" v="546242" />
	</node>
	<node id="-404485" lat="58.71624091" lon="5.62213886617">
		<tag k="name" v="Jonshagen" />
		<tag k="place" v="farm" />
		<tag k="ssr:stedsnr" v="544307" />
	</node>
</osm>
