<?xml version="1.0" encoding="UTF-8"?>
<<<<<<< HEAD
<osm version="0.6" generator="osmapis">
	<node lat="58.74109722509602" lon="5.659005550708908" id="-35">
=======
<osm generator="osmapis" version="0.6">
	<node id="-21936" lat="58.741383336" lon="5.66449166779">
		<tag k="fixme" v="consider boundary=protected_area and relevant protect_class if not nature reserve" />
		<tag k="leisure" v="nature_reserve" />
		<tag k="name" v="Bryneholmen" />
		<tag k="ssr:stedsnr" v="387443" />
	</node>
	<node id="-21839" lat="58.7410972251" lon="5.65900555071">
>>>>>>> e1d4bc35ff8a6074a6f2e91616a996b547c36f15
		<tag k="fixme" v="consider boundary=protected_area and relevant protect_class if not nature reserve" />
		<tag k="leisure" v="nature_reserve" />
		<tag k="name" v="Sandtangen" />
		<tag k="ssr:stedsnr" v="84429" />
	</node>
<<<<<<< HEAD
	<node lat="58.68286944208057" lon="5.779533334308085" id="-163">
=======
	<node id="-21671" lat="58.6828694421" lon="5.77953333431">
>>>>>>> e1d4bc35ff8a6074a6f2e91616a996b547c36f15
		<tag k="name" v="Undheim sokn" />
		<tag k="place" v="hamlet" />
		<tag k="ssr:stedsnr" v="509659" />
	</node>
	<node lat="58.74138333601953" lon="5.664491667785921" id="-471">
		<tag k="fixme" v="consider boundary=protected_area and relevant protect_class if not nature reserve" />
		<tag k="leisure" v="nature_reserve" />
		<tag k="name" v="Bryneholmen" />
		<tag k="ssr:stedsnr" v="387443" />
	</node>
</osm>
