<?xml version="1.0" encoding="UTF-8"?>
<osm generator="osmapis" version="0.6">
	<node id="-404756" lat="58.7820150208" lon="5.77342965641">
		<tag k="fixme" v="consider natural=peak for the most distinct mountains in the district" />
		<tag k="name" v="Hesthei" />
		<tag k="natural" v="hill" />
		<tag k="place" v="locality" />
		<tag k="ssr:stedsnr" v="971006" />
	</node>
	<node id="-404755" lat="58.7802996443" lon="5.77450889619">
		<tag k="fixme" v="consider natural=peak for the most distinct mountains in the district" />
		<tag k="name" v="Kråkefjell" />
		<tag k="natural" v="hill" />
		<tag k="place" v="locality" />
		<tag k="ssr:stedsnr" v="971007" />
	</node>
	<node id="-404754" lat="58.7143611142" lon="5.74059445127">
		<tag k="name" v="Garpestadheia" />
		<tag k="place" v="farm" />
		<tag k="ssr:stedsnr" v="965497" />
	</node>
	<node id="-404753" lat="58.6822805575" lon="5.82378054705">
		<tag k="fixme" v="consider natural=peak for the most distinct mountains in the district" />
		<tag k="name" v="Knuden" />
		<tag k="natural" v="hill" />
		<tag k="place" v="locality" />
		<tag k="ssr:stedsnr" v="965361" />
	</node>
	<node id="-404752" lat="58.678825001" lon="5.82511388804">
		<tag k="name" v="Ormatjørna" />
		<tag k="natural" v="water" />
		<tag k="ssr:stedsnr" v="965285" />
	</node>
	<node id="-404751" lat="58.7243611149" lon="5.66216944216">
		<tag k="name" v="Eivindsholtjørn" />
		<tag k="natural" v="water" />
		<tag k="ssr:stedsnr" v="967258" />
	</node>
	<node id="-404750" lat="58.7331416668" lon="5.66184723003">
		<tag k="name" v="Rossaland" />
		<tag k="place" v="farm" />
		<tag k="ssr:stedsnr" v="953173" />
	</node>
	<node id="-404749" lat="58.715030555" lon="5.67258332975">
		<tag k="name" v="Herigstad" />
		<tag k="place" v="farm" />
		<tag k="ssr:stedsnr" v="953082" />
	</node>
	<node id="-404748" lat="58.7199805565" lon="5.67287223033">
		<tag k="name" v="Herigstad" />
		<tag k="place" v="farm" />
		<tag k="ssr:stedsnr" v="953076" />
	</node>
	<node id="-404747" lat="58.7229722186" lon="5.73878610879">
		<tag k="name" v="Fosseåna" />
		<tag k="ssr:stedsnr" v="952504" />
		<tag k="waterway" v="river" />
	</node>
	<node id="-404746" lat="58.6433833312" lon="5.78297500241">
		<tag k="name" v="Reimestølen" />
		<tag k="place" v="locality" />
		<tag k="ssr:stedsnr" v="950485" />
	</node>
	<node id="-404745" lat="58.6966583312" lon="5.81066110708">
		<tag k="fixme" v="consider natural=peak for the most distinct mountains in the district" />
		<tag k="name" v="Tomastørne" />
		<tag k="natural" v="hill" />
		<tag k="place" v="locality" />
		<tag k="ssr:stedsnr" v="950461" />
	</node>
	<node id="-404744" lat="58.7071388859" lon="5.7962472249">
		<tag k="name" v="Skjæraberget" />
		<tag k="natural" v="hill" />
		<tag k="place" v="locality" />
		<tag k="ssr:stedsnr" v="950452" />
	</node>
	<node id="-404743" lat="58.6845111128" lon="5.70946667302">
		<tag k="name" v="Tjensvollbekken" />
		<tag k="ssr:stedsnr" v="950350" />
		<tag k="waterway" v="stream" />
	</node>
	<node id="-404742" lat="58.796694443" lon="5.74646388844">
		<tag k="name" v="Heia" />
		<tag k="place" v="farm" />
		<tag k="ssr:stedsnr" v="934566" />
	</node>
	<node id="-404741" lat="58.7510083335" lon="5.80182499448">
		<tag k="landuse" v="meadow" />
		<tag k="name" v="Ørnabråtet" />
		<tag k="ssr:stedsnr" v="934207" />
	</node>
	<node id="-404740" lat="58.7694749999" lon="5.72275555958">
		<tag k="name" v="Jørenshei" />
		<tag k="place" v="farm" />
		<tag k="ssr:stedsnr" v="934138" />
	</node>
	<node id="-404739" lat="58.7701611089" lon="5.73450278596">
		<tag k="name" v="Håholen" />
		<tag k="place" v="quarter" />
		<tag k="ssr:stedsnr" v="934136" />
	</node>
	<node id="-404738" lat="58.7689444422" lon="5.76249444439">
		<tag k="name" v="Knappholen" />
		<tag k="natural" v="hill" />
		<tag k="place" v="locality" />
		<tag k="ssr:stedsnr" v="934126" />
	</node>
	<node id="-404737" lat="58.7639027793" lon="5.79419444304">
		<tag k="name" v="Nåva" />
		<tag k="natural" v="hill" />
		<tag k="place" v="locality" />
		<tag k="ssr:stedsnr" v="934118" />
	</node>
	<node id="-404736" lat="58.7441722216" lon="5.72775556319">
		<tag k="fixme" v="consider natural=peak for the most distinct mountains in the district" />
		<tag k="name" v="Kjørkleiv" />
		<tag k="natural" v="hill" />
		<tag k="place" v="locality" />
		<tag k="ssr:stedsnr" v="934115" />
	</node>
	<node id="-404735" lat="58.7295583339" lon="5.8618555479">
		<tag k="name" v="Ulvskred" />
		<tag k="natural" v="slope" />
		<tag k="place" v="locality" />
		<tag k="ssr:stedsnr" v="933730" />
	</node>
	<node id="-404734" lat="58.7183833339" lon="5.85944999505">
		<tag k="name" v="Dabelen" />
		<tag k="natural" v="water" />
		<tag k="ssr:stedsnr" v="933725" />
	</node>
	<node id="-404733" lat="58.7368388861" lon="5.83237500199">
		<tag k="fixme" v="consider natural=peak for the most distinct mountains in the district" />
		<tag k="name" v="Fløyene" />
		<tag k="natural" v="hill" />
		<tag k="place" v="locality" />
		<tag k="ssr:stedsnr" v="933107" />
	</node>
	<node id="-404732" lat="58.6917128022" lon="5.83761818088">
		<tag k="name" v="Snorestadtjørna" />
		<tag k="natural" v="water" />
		<tag k="ssr:stedsnr" v="933221" />
		<tag k="water" v="lake" />
	</node>
	<node id="-404731" lat="58.6722833305" lon="5.89647778354">
		<tag k="name" v="Låglia" />
		<tag k="place" v="farm" />
		<tag k="ssr:stedsnr" v="933212" />
	</node>
	<node id="-404730" lat="58.6645666664" lon="5.84815556255">
		<tag k="fixme" v="consider natural=peak for the most distinct mountains in the district" />
		<tag k="name" v="Sjursfjellet" />
		<tag k="natural" v="hill" />
		<tag k="place" v="locality" />
		<tag k="ssr:stedsnr" v="933208" />
	</node>
	<node id="-404729" lat="58.7615944468" lon="5.76726945111">
		<tag k="name" v="Doblene" />
		<tag k="place" v="farm" />
		<tag k="ssr:stedsnr" v="911851" />
	</node>
	<node id="-404728" lat="58.7189309655" lon="5.65503840039">
		<tag k="fixme" v="consider place=hamlet" />
		<tag k="name" v="Håland" />
		<tag k="place" v="farm" />
		<tag k="ssr:stedsnr" v="911832" />
	</node>
	<node id="-404727" lat="58.72586389" lon="5.62693888432">
		<tag k="name" v="Hagane" />
		<tag k="place" v="farm" />
		<tag k="ssr:stedsnr" v="910876" />
	</node>
	<node id="-404726" lat="58.7355944425" lon="5.70306111826">
		<tag k="name" v="Hinnaland" />
		<tag k="place" v="farm" />
		<tag k="ssr:stedsnr" v="910874" />
	</node>
	<node id="-404725" lat="58.7387666675" lon="5.71426388922">
		<tag k="alt_name" v="Heien" />
		<tag k="name" v="Heia" />
		<tag k="place" v="farm" />
		<tag k="ssr:stedsnr" v="910872" />
	</node>
	<node id="-404724" lat="58.7377499971" lon="5.77264721536">
		<tag k="fixme" v="consider natural=peak for the most distinct mountains in the district" />
		<tag k="name" v="Høylandsfjellet" />
		<tag k="natural" v="hill" />
		<tag k="place" v="locality" />
		<tag k="ssr:stedsnr" v="910870" />
	</node>
	<node id="-404723" lat="58.7371111092" lon="5.70834999982">
		<tag k="alt_name" v="Hinnalandstjørn" />
		<tag k="name" v="Hinnalandstjørna" />
		<tag k="natural" v="water" />
		<tag k="ssr:stedsnr" v="910871" />
	</node>
	<node id="-404722" lat="58.7425833376" lon="5.73857777469">
		<tag k="alt_name" v="Tjoratjørn" />
		<tag k="name" v="Tjoratjørna" />
		<tag k="natural" v="water" />
		<tag k="ssr:stedsnr" v="910849" />
	</node>
	<node id="-404721" lat="58.7465971983" lon="5.82253047296">
		<tag k="name" v="Hålandsvatnet" />
		<tag k="natural" v="water" />
		<tag k="ssr:stedsnr" v="910841" />
		<tag k="water" v="lake" />
	</node>
	<node id="-404720" lat="58.7170138411" lon="5.7721761273">
		<tag k="fixme" v="consider place=hamlet" />
		<tag k="name" v="Halland" />
		<tag k="old_name" v="Hadland" />
		<tag k="place" v="farm" />
		<tag k="ssr:stedsnr" v="910830" />
	</node>
	<node id="-404719" lat="58.7293250039" lon="5.78521945131">
		<tag k="alt_name" v="Melsnuten" />
		<tag k="name" v="Melsknuten" />
		<tag k="natural" v="hill" />
		<tag k="place" v="locality" />
		<tag k="ssr:stedsnr" v="910806" />
	</node>
	<node id="-404718" lat="58.7246116244" lon="5.7431328371">
		<tag k="fixme" v="consider place=hamlet" />
		<tag k="name" v="Høyland" />
		<tag k="place" v="farm" />
		<tag k="ssr:stedsnr" v="910803" />
	</node>
	<node id="-404717" lat="58.7098134639" lon="5.69538813955">
		<tag k="name" v="Oma" />
		<tag k="place" v="hamlet" />
		<tag k="ssr:stedsnr" v="910787" />
	</node>
	<node id="-404716" lat="58.6782444402" lon="5.79427499932">
		<tag k="name" v="Bakkatjørna" />
		<tag k="natural" v="water" />
		<tag k="ssr:stedsnr" v="910777" />
	</node>
	<node id="-404715" lat="58.6829061344" lon="5.75078234653">
		<tag k="fixme" v="consider place=hamlet" />
		<tag k="name" v="Tunheim" />
		<tag k="place" v="farm" />
		<tag k="ssr:stedsnr" v="910756" />
	</node>
	<node id="-404714" lat="58.6916012914" lon="5.78759438305">
		<tag k="alt_name" v="Undheim, litla;Litlaundeim;Undeim, litla;Undheim litle;Litle Undheim" />
		<tag k="fixme" v="consider place=hamlet" />
		<tag k="name" v="Litlaundheim" />
		<tag k="place" v="farm" />
		<tag k="ssr:stedsnr" v="910742" />
	</node>
	<node id="-404713" lat="58.6927853425" lon="5.76833257395">
		<tag k="fixme" v="consider place=hamlet" />
		<tag k="name" v="Årrestad" />
		<tag k="place" v="farm" />
		<tag k="ssr:stedsnr" v="910739" />
	</node>
	<node id="-404712" lat="58.6991361144" lon="5.84904445245">
		<tag k="name" v="Fiskelausvatnet" />
		<tag k="natural" v="water" />
		<tag k="old_name" v="Fiskelivatnet" />
		<tag k="ssr:stedsnr" v="910515" />
	</node>
	<node id="-404711" lat="58.6715805552" lon="5.84669167312">
		<tag k="alt_name" v="Auranes" />
		<tag k="name" v="Aurenes" />
		<tag k="place" v="farm" />
		<tag k="ssr:stedsnr" v="910468" />
	</node>
	<node id="-404710" lat="58.6823777816" lon="5.84386111132">
		<tag k="name" v="Varden" />
		<tag k="natural" v="hill" />
		<tag k="place" v="locality" />
		<tag k="ssr:stedsnr" v="910455" />
	</node>
	<node id="-404709" lat="58.6827088627" lon="5.85802317291">
		<tag k="fixme" v="consider place=hamlet" />
		<tag k="name" v="Sikvaland" />
		<tag k="place" v="farm" />
		<tag k="ssr:stedsnr" v="910453" />
	</node>
	<node id="-404708" lat="58.6377694465" lon="5.81572222003">
		<tag k="name" v="Bergene" />
		<tag k="place" v="farm" />
		<tag k="ssr:stedsnr" v="910267" />
	</node>
	<node id="-404707" lat="58.6865583316" lon="5.82817221489">
		<tag k="fixme" v="consider natural=peak for the most distinct mountains in the district" />
		<tag k="name" v="Hagafjell" />
		<tag k="natural" v="hill" />
		<tag k="place" v="locality" />
		<tag k="ssr:stedsnr" v="905326" />
	</node>
	<node id="-404706" lat="58.6592972231" lon="5.82844166019">
		<tag k="fixme" v="consider natural=peak for the most distinct mountains in the district" />
		<tag k="name" v="Roligheta" />
		<tag k="natural" v="hill" />
		<tag k="place" v="locality" />
		<tag k="ssr:stedsnr" v="905257" />
	</node>
	<node id="-404705" lat="58.6478694433" lon="5.78304445251">
		<tag k="name" v="Tomasmyrane" />
		<tag k="place" v="locality" />
		<tag k="ssr:stedsnr" v="905252" />
	</node>
	<node id="-404704" lat="58.7794305541" lon="5.74265833024">
		<tag k="name" v="Kalberglunden" />
		<tag k="place" v="locality" />
		<tag k="ssr:stedsnr" v="873594" />
	</node>
	<node id="-404703" lat="58.7382750025" lon="5.64068333422">
		<tag k="name" v="Skaret" />
		<tag k="natural" v="valley" />
		<tag k="place" v="locality" />
		<tag k="ssr:stedsnr" v="873425" />
	</node>
	<node id="-404702" lat="58.7434055586" lon="5.71880277062">
		<tag k="name" v="Hermannsholen" />
		<tag k="natural" v="hill" />
		<tag k="place" v="locality" />
		<tag k="ssr:stedsnr" v="873422" />
	</node>
	<node id="-404701" lat="58.7500611118" lon="5.76834444412">
		<tag k="name" v="Kumyr" />
		<tag k="natural" v="wetland" />
		<tag k="ssr:stedsnr" v="873241" />
	</node>
	<node id="-404700" lat="58.762072219" lon="5.72107222963">
		<tag k="name" v="Sletteig" />
		<tag k="place" v="farm" />
		<tag k="ssr:stedsnr" v="873167" />
	</node>
	<node id="-404699" lat="58.7553333346" lon="5.76492777081">
		<tag k="name" v="Filhammaren" />
		<tag k="natural" v="hill" />
		<tag k="place" v="locality" />
		<tag k="ssr:stedsnr" v="873161" />
	</node>
	<node id="-404698" lat="58.7751861069" lon="5.75093611639">
		<tag k="fixme" v="consider natural=peak for the most distinct mountains in the district" />
		<tag k="name" v="Brekkenuten" />
		<tag k="natural" v="hill" />
		<tag k="place" v="locality" />
		<tag k="ssr:stedsnr" v="873154" />
	</node>
	<node id="-404697" lat="58.7558583333" lon="5.79239444249">
		<tag k="name" v="Piggbergmyra" />
		<tag k="natural" v="wetland" />
		<tag k="ssr:stedsnr" v="873146" />
	</node>
	<node id="-404696" lat="58.7345805532" lon="5.74521667303">
		<tag k="fixme" v="consider natural=peak for the most distinct mountains in the district" />
		<tag k="name" v="Skarsfjell" />
		<tag k="natural" v="hill" />
		<tag k="place" v="locality" />
		<tag k="ssr:stedsnr" v="873137" />
	</node>
	<node id="-404695" lat="58.6521408263" lon="5.85746161442">
		<tag k="alt_name" v="Hedlevatnet store" />
		<tag k="name" v="Stora Hedlevatnet" />
		<tag k="natural" v="water" />
		<tag k="ssr:stedsnr" v="872241" />
		<tag k="water" v="lake" />
	</node>
	<node id="-404694" lat="58.6892083324" lon="5.84973889092">
		<tag k="fixme" v="consider natural=peak for the most distinct mountains in the district" />
		<tag k="name" v="Trongafjellet" />
		<tag k="natural" v="hill" />
		<tag k="place" v="locality" />
		<tag k="ssr:stedsnr" v="872204" />
	</node>
	<node id="-404693" lat="58.6691972238" lon="5.88338611782">
		<tag k="name" v="Godtjørna" />
		<tag k="natural" v="water" />
		<tag k="ssr:stedsnr" v="872202" />
		<tag k="water" v="lake" />
	</node>
	<node id="-404692" lat="58.7445888898" lon="5.71613611581">
		<tag k="name" v="Steinteig" />
		<tag k="place" v="farm" />
		<tag k="ssr:stedsnr" v="850895" />
	</node>
	<node id="-404691" lat="58.7416888876" lon="5.71066943912">
		<tag k="alt_name" v="Rudlå" />
		<tag k="name" v="Vargarulla" />
		<tag k="old_name" v="Vargarudlo" />
		<tag k="place" v="farm" />
		<tag k="ssr:stedsnr" v="850855" />
	</node>
	<node id="-404690" lat="58.7199027811" lon="5.62573889486">
		<tag k="alt_name" v="Børaholen" />
		<tag k="name" v="Børarholen" />
		<tag k="old_name" v="Bøaholen" />
		<tag k="place" v="farm" />
		<tag k="ssr:stedsnr" v="850834" />
	</node>
	<node id="-404689" lat="58.7125583305" lon="5.63230277234">
		<tag k="name" v="Kvernhusholen" />
		<tag k="place" v="farm" />
		<tag k="ssr:stedsnr" v="850832" />
	</node>
	<node id="-404688" lat="58.7760916675" lon="5.80903611131">
		<tag k="alt_name" v="Rossås" />
		<tag k="fixme" v="consider natural=peak for the most distinct mountains in the district" />
		<tag k="name" v="Rossåsen" />
		<tag k="natural" v="hill" />
		<tag k="place" v="locality" />
		<tag k="ssr:stedsnr" v="850825" />
	</node>
	<node id="-404687" lat="58.7589513899" lon="5.70320409946">
		<tag k="alt_name" v="Heiatjørn" />
		<tag k="name" v="Heiatjørna" />
		<tag k="natural" v="water" />
		<tag k="ssr:stedsnr" v="850822" />
	</node>
	<node id="-404686" lat="58.7281206148" lon="5.70751242129">
		<tag k="fixme" v="consider place=hamlet" />
		<tag k="name" v="Vestly" />
		<tag k="place" v="farm" />
		<tag k="ssr:stedsnr" v="850819" />
	</node>
	<node id="-404685" lat="58.7236528999" lon="5.67589074723">
		<tag k="name" v="Kålholen" />
		<tag k="natural" v="hill" />
		<tag k="place" v="locality" />
		<tag k="ssr:stedsnr" v="850815" />
	</node>
	<node id="-404684" lat="58.7310755407" lon="5.7211756524">
		<tag k="fixme" v="consider place=hamlet" />
		<tag k="name" v="Lye" />
		<tag k="place" v="farm" />
		<tag k="ssr:stedsnr" v="850816" />
	</node>
	<node id="-404683" lat="58.7068749968" lon="5.67612499206">
		<tag k="name" v="Sveholen" />
		<tag k="place" v="farm" />
		<tag k="ssr:stedsnr" v="850777" />
	</node>
	<node id="-404682" lat="58.6773000021" lon="5.77825833053">
		<tag k="name" v="Slettene" />
		<tag k="place" v="farm" />
		<tag k="ssr:stedsnr" v="850774" />
	</node>
	<node id="-404681" lat="58.6850083291" lon="5.785416661">
		<tag k="name" v="Øvrabø" />
		<tag k="place" v="farm" />
		<tag k="ssr:stedsnr" v="850763" />
	</node>
	<node id="-404680" lat="58.6948694473" lon="5.79742222028">
		<tag k="name" v="Skota" />
		<tag k="natural" v="hill" />
		<tag k="place" v="locality" />
		<tag k="ssr:stedsnr" v="850748" />
	</node>
	<node id="-404679" lat="58.6570318519" lon="5.81263449968">
		<tag k="alt_name" v="Storejurstjørna" />
		<tag k="name" v="Ljostjørna" />
		<tag k="natural" v="water" />
		<tag k="ssr:stedsnr" v="850291" />
	</node>
	<node id="-404678" lat="58.6619999992" lon="5.85473889574">
		<tag k="name" v="Tjålandsfjellet" />
		<tag k="natural" v="hill" />
		<tag k="place" v="locality" />
		<tag k="ssr:stedsnr" v="850043" />
	</node>
	<node id="-404677" lat="58.7222027805" lon="5.74115556389">
		<tag k="name" v="Hååna" />
		<tag k="old_name" v="Håelva" />
		<tag k="ssr:stedsnr" v="849844" />
		<tag k="waterway" v="river" />
	</node>
	<node id="-404676" lat="58.6298083339" lon="5.85501111509">
		<tag k="fixme" v="consider natural=peak for the most distinct mountains in the district" />
		<tag k="name" v="Karten" />
		<tag k="natural" v="hill" />
		<tag k="place" v="locality" />
		<tag k="ssr:stedsnr" v="849053" />
	</node>
	<node id="-404675" lat="58.6920333343" lon="5.71155277337">
		<tag k="name" v="Dammane" />
		<tag k="place" v="farm" />
		<tag k="ssr:stedsnr" v="846427" />
	</node>
	<node id="-404674" lat="58.7249027791" lon="5.78488332586">
		<tag k="name" v="Klubben" />
		<tag k="natural" v="hill" />
		<tag k="place" v="locality" />
		<tag k="ssr:stedsnr" v="844493" />
	</node>
	<node id="-404673" lat="58.736077776" lon="5.64633889597">
		<tag k="bridge" v="yes" />
		<tag k="layer" v="1" />
		<tag k="name" v="Bryne Kanal" />
		<tag k="ssr:stedsnr" v="836750" />
	</node>
	<node id="-404672" lat="58.7215777796" lon="5.75066388559">
		<tag k="bridge" v="yes" />
		<tag k="layer" v="1" />
		<tag k="name" v="Garpestad" />
		<tag k="ssr:stedsnr" v="836731" />
	</node>
	<node id="-404671" lat="58.6999611096" lon="5.68213888712">
		<tag k="name" v="Grødem" />
		<tag k="place" v="farm" />
		<tag k="ssr:stedsnr" v="832065" />
	</node>
	<node id="-404670" lat="58.7011091001" lon="5.68546188195">
		<tag k="name" v="Grødem" />
		<tag k="place" v="farm" />
		<tag k="ssr:stedsnr" v="832049" />
	</node>
	<node id="-404669" lat="58.637397226" lon="5.82605000744">
		<tag k="name" v="Kartavoll" />
		<tag k="place" v="farm" />
		<tag k="ssr:stedsnr" v="832016" />
	</node>
	<node id="-404668" lat="58.6857222221" lon="5.71855278116">
		<tag k="name" v="Tjensvollbakkane" />
		<tag k="natural" v="slope" />
		<tag k="place" v="locality" />
		<tag k="ssr:stedsnr" v="829354" />
	</node>
	<node id="-404667" lat="58.6742055564" lon="5.74381110295">
		<tag k="name" v="Tunheimsmarkene" />
		<tag k="place" v="locality" />
		<tag k="ssr:stedsnr" v="829342" />
	</node>
	<node id="-404666" lat="58.7875472245" lon="5.78258056102">
		<tag k="name" v="Kongehola" />
		<tag k="place" v="locality" />
		<tag k="ssr:stedsnr" v="813667" />
	</node>
	<node id="-404665" lat="58.7785555544" lon="5.72627499792">
		<tag k="name" v="Stemmen" />
		<tag k="ssr:stedsnr" v="813599" />
		<tag k="waterway" v="dam" />
	</node>
	<node id="-404664" lat="58.7855111084" lon="5.78418055153">
		<tag k="name" v="Slagsletta" />
		<tag k="place" v="locality" />
		<tag k="ssr:stedsnr" v="813585" />
	</node>
	<node id="-404663" lat="58.7477611101" lon="5.70217221609">
		<tag k="name" v="Eriksvarden" />
		<tag k="natural" v="hill" />
		<tag k="place" v="locality" />
		<tag k="ssr:stedsnr" v="813375" />
	</node>
	<node id="-404662" lat="58.7811027756" lon="5.71851666165">
		<tag k="fixme" v="consider place=suburb, village or hamlet" />
		<tag k="name" v="Oshei" />
		<tag k="place" v="quarter" />
		<tag k="ssr:stedsnr" v="813237" />
	</node>
	<node id="-404661" lat="58.749388888" lon="5.77127499783">
		<tag k="name" v="Kuberg" />
		<tag k="natural" v="hill" />
		<tag k="place" v="locality" />
		<tag k="ssr:stedsnr" v="813187" />
	</node>
	<node id="-404660" lat="58.734183336" lon="5.81811666479">
		<tag k="name" v="Lunnarsberg" />
		<tag k="natural" v="hill" />
		<tag k="place" v="locality" />
		<tag k="ssr:stedsnr" v="813179" />
	</node>
	<node id="-404659" lat="58.749391664" lon="5.82763610638">
		<tag k="name" v="Stålhammrane" />
		<tag k="place" v="locality" />
		<tag k="ssr:stedsnr" v="813177" />
	</node>
	<node id="-404658" lat="58.7673055558" lon="5.81659722788">
		<tag k="fixme" v="consider natural=peak for the most distinct mountains in the district" />
		<tag k="name" v="Askoberg" />
		<tag k="natural" v="hill" />
		<tag k="place" v="locality" />
		<tag k="ssr:stedsnr" v="813106" />
	</node>
	<node id="-404657" lat="58.7609416693" lon="5.78751111215">
		<tag k="name" v="Kvitemyr" />
		<tag k="natural" v="wetland" />
		<tag k="ssr:stedsnr" v="813103" />
	</node>
	<node id="-404656" lat="58.7358555592" lon="5.77323055341">
		<tag k="fixme" v="consider natural=peak for the most distinct mountains in the district" />
		<tag k="name" v="Søre Håfjell" />
		<tag k="natural" v="hill" />
		<tag k="place" v="locality" />
		<tag k="ssr:stedsnr" v="813097" />
	</node>
	<node id="-404655" lat="58.7551722231" lon="5.68295277946">
		<tag k="name" v="Langanes" />
		<tag k="natural" v="cape" />
		<tag k="ssr:stedsnr" v="812513" />
	</node>
	<node id="-404654" lat="58.7728805568" lon="5.69368888207">
		<tag k="name" v="Tegletangen" />
		<tag k="natural" v="cape" />
		<tag k="ssr:stedsnr" v="812465" />
	</node>
	<node id="-404653" lat="58.6483722207" lon="5.87301388742">
		<tag k="fixme" v="consider natural=peak for the most distinct mountains in the district" />
		<tag k="name" v="Rabnefjellet" />
		<tag k="natural" v="hill" />
		<tag k="place" v="locality" />
		<tag k="ssr:stedsnr" v="812246" />
	</node>
	<node id="-404652" lat="58.7092972196" lon="5.84324444229">
		<tag k="historic" v="shieling" />
		<tag k="name" v="Risstølen" />
		<tag k="place" v="locality" />
		<tag k="ssr:stedsnr" v="812245" />
	</node>
	<node id="-404651" lat="58.6627527769" lon="5.86460833427">
		<tag k="name" v="Kvitebakken" />
		<tag k="natural" v="slope" />
		<tag k="place" v="locality" />
		<tag k="ssr:stedsnr" v="812231" />
	</node>
	<node id="-404650" lat="58.6771583305" lon="5.85215833738">
		<tag k="name" v="Hågane" />
		<tag k="natural" v="hill" />
		<tag k="place" v="locality" />
		<tag k="ssr:stedsnr" v="812216" />
	</node>
	<node id="-404649" lat="58.6829249973" lon="5.77492777776">
		<tag k="alt_name" v="Undheim kirke;Undheim" />
		<tag k="amenity" v="place_of_worship" />
		<tag k="denomination" v="lutheran" />
		<tag k="name" v="Undheim kyrkje" />
		<tag k="religion" v="christian" />
		<tag k="ssr:stedsnr" v="811833" />
	</node>
	<node id="-404648" lat="58.7177944793" lon="5.83917571522">
		<tag k="alt_name" v="Bjødnelivatnet" />
		<tag k="name" v="Bjørnelivatnet" />
		<tag k="natural" v="water" />
		<tag k="ssr:stedsnr" v="811709" />
		<tag k="water" v="lake" />
	</node>
	<node id="-404647" lat="58.7206277765" lon="5.862047219">
		<tag k="name" v="Svartedalen" />
		<tag k="natural" v="valley" />
		<tag k="place" v="locality" />
		<tag k="ssr:stedsnr" v="811672" />
	</node>
	<node id="-404646" lat="58.7923111713" lon="5.74663178105">
		<tag k="alt_name" v="Kalberg, nordre;n Kalberg" />
		<tag k="fixme" v="consider place=hamlet" />
		<tag k="name" v="Nordre Kalberg" />
		<tag k="place" v="farm" />
		<tag k="ssr:stedsnr" v="790925" />
	</node>
	<node id="-404645" lat="58.7343999987" lon="5.75268054752">
		<tag k="alt_name" v="Geitafjell" />
		<tag k="name" v="Geitahornet" />
		<tag k="natural" v="hill" />
		<tag k="place" v="locality" />
		<tag k="ssr:stedsnr" v="789861" />
	</node>
	<node id="-404644" lat="58.7196190643" lon="5.66332403542">
		<tag k="fixme" v="consider place=hamlet" />
		<tag k="name" v="Auglend" />
		<tag k="place" v="farm" />
		<tag k="ssr:stedsnr" v="789839" />
	</node>
	<node id="-404643" lat="58.71675833" lon="5.62685277342">
		<tag k="name" v="Trædet" />
		<tag k="place" v="farm" />
		<tag k="ssr:stedsnr" v="789836" />
	</node>
	<node id="-404642" lat="58.7178555559" lon="5.61941943719">
		<tag k="name" v="Slettheia" />
		<tag k="place" v="farm" />
		<tag k="ssr:stedsnr" v="789835" />
	</node>
	<node id="-404641" lat="58.7699861089" lon="5.74783332517">
		<tag k="name" v="Brekka" />
		<tag k="place" v="farm" />
		<tag k="ssr:stedsnr" v="789821" />
	</node>
	<node id="-404640" lat="58.6925333332" lon="5.68108055718">
		<tag k="name" v="Auglend" />
		<tag k="place" v="farm" />
		<tag k="ssr:stedsnr" v="789816" />
	</node>
	<node id="-404639" lat="58.6993244569" lon="5.84318931119">
		<tag k="name" v="Kalvatjørna" />
		<tag k="natural" v="water" />
		<tag k="ssr:stedsnr" v="789813" />
	</node>
	<node id="-404638" lat="58.6951750017" lon="5.70519167284">
		<tag k="name" v="Bergene" />
		<tag k="natural" v="hill" />
		<tag k="place" v="locality" />
		<tag k="ssr:stedsnr" v="789806" />
	</node>
	<node id="-404637" lat="58.6983027786" lon="5.83669999866">
		<tag k="name" v="Stølsfjellet" />
		<tag k="natural" v="hill" />
		<tag k="place" v="locality" />
		<tag k="ssr:stedsnr" v="789762" />
	</node>
	<node id="-404636" lat="58.6902968561" lon="5.83578564147">
		<tag k="name" v="Snorestadtjørnane" />
		<tag k="natural" v="water" />
		<tag k="ssr:stedsnr" v="789758" />
		<tag k="water" v="lake" />
	</node>
	<node id="-404635" lat="58.6539361144" lon="5.80731667272">
		<tag k="loc_name" v="Jursholen" />
		<tag k="name" v="Ljosholen" />
		<tag k="natural" v="hill" />
		<tag k="place" v="locality" />
		<tag k="ssr:stedsnr" v="789321" />
	</node>
	<node id="-404634" lat="58.6720925512" lon="5.8228794405">
		<tag k="fixme" v="consider place=hamlet" />
		<tag k="name" v="Tjåland" />
		<tag k="place" v="farm" />
		<tag k="ssr:stedsnr" v="789296" />
	</node>
	<node id="-404633" lat="58.6749166666" lon="5.83303056334">
		<tag k="name" v="Tjålandsvatnet" />
		<tag k="natural" v="water" />
		<tag k="ssr:stedsnr" v="789295" />
		<tag k="water" v="lake" />
	</node>
	<node id="-404632" lat="58.7133555551" lon="5.78570555128">
		<tag k="alt_name" v="Valbrekk, stora" />
		<tag k="name" v="Stora Valbrekk" />
		<tag k="natural" v="hill" />
		<tag k="place" v="locality" />
		<tag k="ssr:stedsnr" v="788769" />
	</node>
	<node id="-404631" lat="58.6698333353" lon="5.82161943934">
		<tag k="fixme" v="consider natural=peak for the most distinct mountains in the district" />
		<tag k="name" v="Husfjell" />
		<tag k="natural" v="hill" />
		<tag k="place" v="locality" />
		<tag k="ssr:stedsnr" v="783240" />
	</node>
	<node id="-404630" lat="58.6471722264" lon="5.79648889389">
		<tag k="name" v="Sævreid" />
		<tag k="place" v="farm" />
		<tag k="ssr:stedsnr" v="783233" />
	</node>
	<node id="-404629" lat="58.7042861152" lon="5.65709444407">
		<tag k="bridge" v="yes" />
		<tag k="layer" v="1" />
		<tag k="name" v="Hognestad" />
		<tag k="ssr:stedsnr" v="775725" />
	</node>
	<node id="-404628" lat="58.685486112" lon="5.82512777765">
		<tag k="name" v="Skårland" />
		<tag k="place" v="farm" />
		<tag k="ssr:stedsnr" v="771096" />
	</node>
	<node id="-404627" lat="58.7085083322" lon="5.66717778139">
		<tag k="name" v="Skjevarhaug" />
		<tag k="natural" v="hill" />
		<tag k="place" v="locality" />
		<tag k="ssr:stedsnr" v="770452" />
	</node>
	<node id="-404626" lat="58.7174500014" lon="5.82567222498">
		<tag k="fixme" v="consider natural=peak for the most distinct mountains in the district" />
		<tag k="name" v="Skogafjell" />
		<tag k="natural" v="hill" />
		<tag k="place" v="locality" />
		<tag k="ssr:stedsnr" v="768451" />
	</node>
	<node id="-404625" lat="58.7309916686" lon="5.66831110999">
		<tag k="name" v="Nyland" />
		<tag k="place" v="farm" />
		<tag k="ssr:stedsnr" v="768439" />
	</node>
	<node id="-404624" lat="58.7247555595" lon="5.67089443859">
		<tag k="alt_name" v="Grønnebakken" />
		<tag k="name" v="Grønebakken" />
		<tag k="place" v="farm" />
		<tag k="ssr:stedsnr" v="768421" />
	</node>
	<node id="-404623" lat="58.6781694442" lon="5.70219445273">
		<tag k="name" v="Skareberget" />
		<tag k="natural" v="hill" />
		<tag k="place" v="locality" />
		<tag k="ssr:stedsnr" v="768324" />
	</node>
	<node id="-404622" lat="58.7931722256" lon="5.76417221669">
		<tag k="name" v="Sandskallen" />
		<tag k="natural" v="hill" />
		<tag k="place" v="locality" />
		<tag k="ssr:stedsnr" v="752585" />
	</node>
	<node id="-404621" lat="58.7389361111" lon="5.66807778475">
		<tag k="name" v="Tangen" />
		<tag k="natural" v="cape" />
		<tag k="ssr:stedsnr" v="752387" />
	</node>
	<node id="-404620" lat="58.7489944463" lon="5.74592777719">
		<tag k="name" v="Blivtjørn" />
		<tag k="natural" v="water" />
		<tag k="ssr:stedsnr" v="752207" />
	</node>
	<node id="-404619" lat="58.7453750013" lon="5.75495834067">
		<tag k="name" v="Joglamyr" />
		<tag k="natural" v="wetland" />
		<tag k="ssr:stedsnr" v="752203" />
	</node>
	<node id="-404618" lat="58.7353249958" lon="5.82781666564">
		<tag k="fixme" v="consider natural=peak for the most distinct mountains in the district" />
		<tag k="name" v="Folefjell" />
		<tag k="natural" v="hill" />
		<tag k="place" v="locality" />
		<tag k="ssr:stedsnr" v="752197" />
	</node>
	<node id="-404617" lat="58.7354583363" lon="5.73531110637">
		<tag k="name" v="Kliberg" />
		<tag k="natural" v="hill" />
		<tag k="place" v="locality" />
		<tag k="ssr:stedsnr" v="752106" />
	</node>
	<node id="-404616" lat="58.7211305526" lon="5.84735278512">
		<tag k="name" v="Sandvik" />
		<tag k="natural" v="bay" />
		<tag k="ssr:stedsnr" v="751747" />
	</node>
	<node id="-404615" lat="58.7145888879" lon="5.84686111504">
		<tag k="fixme" v="consider natural=peak for the most distinct mountains in the district" />
		<tag k="name" v="Synesnutane" />
		<tag k="natural" v="hill" />
		<tag k="place" v="locality" />
		<tag k="ssr:stedsnr" v="751706" />
	</node>
	<node id="-404614" lat="58.724399999" lon="5.84002500803">
		<tag k="name" v="Engjamyrane" />
		<tag k="natural" v="wetland" />
		<tag k="ssr:stedsnr" v="751707" />
	</node>
	<node id="-404613" lat="58.6382722221" lon="5.89137777197">
		<tag k="name" v="Svartaholet" />
		<tag k="natural" v="wetland" />
		<tag k="ssr:stedsnr" v="751193" />
	</node>
	<node id="-404612" lat="58.7713944425" lon="5.7986416708">
		<tag k="name" v="Holen" />
		<tag k="place" v="farm" />
		<tag k="ssr:stedsnr" v="729833" />
	</node>
	<node id="-404611" lat="58.7713750032" lon="5.77505278457">
		<tag k="alt_name" v="Lindland" />
		<tag k="name" v="Linland" />
		<tag k="place" v="farm" />
		<tag k="ssr:stedsnr" v="729827" />
	</node>
	<node id="-404610" lat="58.7766083373" lon="5.7270416695">
		<tag k="name" v="Frøyland" />
		<tag k="place" v="farm" />
		<tag k="ssr:stedsnr" v="729824" />
	</node>
	<node id="-404609" lat="58.7424056216" lon="5.69289784189">
		<tag k="fixme" v="consider place=hamlet" />
		<tag k="name" v="Serigstad" />
		<tag k="place" v="farm" />
		<tag k="ssr:stedsnr" v="728889" />
	</node>
	<node id="-404608" lat="58.7400694416" lon="5.78889167542">
		<tag k="alt_name" v="Sorpetjørn" />
		<tag k="name" v="Sorpetjørna" />
		<tag k="natural" v="water" />
		<tag k="old_name" v="Soppatjørna" />
		<tag k="ssr:stedsnr" v="728852" />
	</node>
	<node id="-404607" lat="58.7372055526" lon="5.82571388477">
		<tag k="name" v="Riset" />
		<tag k="place" v="farm" />
		<tag k="ssr:stedsnr" v="728849" />
	</node>
	<node id="-404606" lat="58.7307396357" lon="5.63243824389">
		<tag k="fixme" v="consider place=hamlet" />
		<tag k="name" v="Re" />
		<tag k="place" v="farm" />
		<tag k="ssr:stedsnr" v="728845" />
	</node>
	<node id="-404605" lat="58.7126872509" lon="5.64001012335">
		<tag k="fixme" v="consider place=hamlet" />
		<tag k="name" v="Steinsland" />
		<tag k="place" v="farm" />
		<tag k="ssr:stedsnr" v="728823" />
	</node>
	<node id="-404604" lat="58.7245419056" lon="5.81197547899">
		<tag k="name" v="Sjelsetvatnet" />
		<tag k="natural" v="water" />
		<tag k="ssr:stedsnr" v="728810" />
		<tag k="water" v="lake" />
	</node>
	<node id="-404603" lat="58.6865613472" lon="5.68576623107">
		<tag k="fixme" v="consider place=hamlet" />
		<tag k="name" v="Mauland" />
		<tag k="place" v="farm" />
		<tag k="ssr:stedsnr" v="728788" />
	</node>
	<node id="-404602" lat="58.7034611102" lon="5.779777773">
		<tag k="name" v="Taksdal" />
		<tag k="place" v="farm" />
		<tag k="ssr:stedsnr" v="728782" />
	</node>
	<node id="-404601" lat="58.7011000036" lon="5.8080249973">
		<tag k="name" v="Sveivane" />
		<tag k="natural" v="hill" />
		<tag k="place" v="locality" />
		<tag k="ssr:stedsnr" v="728779" />
	</node>
	<node id="-404600" lat="58.696275002" lon="5.77923332464">
		<tag k="name" v="Månheim" />
		<tag k="place" v="farm" />
		<tag k="ssr:stedsnr" v="728777" />
	</node>
	<node id="-404599" lat="58.7065131394" lon="5.70884733597">
		<tag k="fixme" v="consider place=hamlet" />
		<tag k="name" v="Fosse" />
		<tag k="place" v="farm" />
		<tag k="ssr:stedsnr" v="728761" />
	</node>
	<node id="-404598" lat="58.6846694405" lon="5.83080833748">
		<tag k="name" v="Husavatnet" />
		<tag k="natural" v="water" />
		<tag k="ssr:stedsnr" v="728741" />
		<tag k="water" v="lake" />
	</node>
	<node id="-404597" lat="58.6833055599" lon="5.88952499699">
		<tag k="alt_name" v="Ljosvatnet" />
		<tag k="name" v="Ljosavatnet" />
		<tag k="natural" v="water" />
		<tag k="ssr:stedsnr" v="728427" />
	</node>
	<node id="-404596" lat="58.7192916674" lon="5.61399722132">
		<tag k="name" v="Hanaland" />
		<tag k="place" v="farm" />
		<tag k="ssr:stedsnr" v="727301" />
	</node>
	<node id="-404595" lat="58.7128750036" lon="5.65152222386">
		<tag k="name" v="Heiane" />
		<tag k="natural" v="hill" />
		<tag k="place" v="locality" />
		<tag k="ssr:stedsnr" v="727297" />
	</node>
	<node id="-404594" lat="58.7114638931" lon="5.64011943729">
		<tag k="name" v="Steinslandstemmen" />
		<tag k="ssr:stedsnr" v="725291" />
		<tag k="waterway" v="dam" />
	</node>
	<node id="-404593" lat="58.6707805537" lon="5.80289722195">
		<tag k="name" v="Fossberget" />
		<tag k="natural" v="hill" />
		<tag k="place" v="locality" />
		<tag k="ssr:stedsnr" v="723339" />
	</node>
	<node id="-404592" lat="58.7038111069" lon="5.78451667291">
		<tag k="bridge" v="yes" />
		<tag k="layer" v="1" />
		<tag k="name" v="Taksdal" />
		<tag k="ssr:stedsnr" v="714731" />
	</node>
	<node id="-404591" lat="58.730316664" lon="5.63235555096">
		<tag k="name" v="Re" />
		<tag k="place" v="farm" />
		<tag k="ssr:stedsnr" v="711188" />
	</node>
	<node id="-404590" lat="58.6834222222" lon="5.86154443876">
		<tag k="name" v="Sikvaland" />
		<tag k="place" v="farm" />
		<tag k="ssr:stedsnr" v="711135" />
	</node>
	<node id="-404589" lat="58.6382472231" lon="5.82981666046">
		<tag k="fixme" v="consider natural=peak for the most distinct mountains in the district" />
		<tag k="name" v="Raunefjellet" />
		<tag k="natural" v="hill" />
		<tag k="place" v="locality" />
		<tag k="ssr:stedsnr" v="707511" />
	</node>
	<node id="-404588" lat="58.7173694445" lon="5.71781943595">
		<tag k="name" v="Fotlandsåna" />
		<tag k="ssr:stedsnr" v="707443" />
		<tag k="waterway" v="river" />
	</node>
	<node id="-404587" lat="58.7706722194" lon="5.72618055123">
		<tag k="name" v="Kvernaland" />
		<tag k="place" v="village" />
		<tag k="ssr:stedsnr" v="706383" />
	</node>
	<node id="-404586" lat="58.7781666699" lon="5.76231110239">
		<tag k="landuse" v="meadow" />
		<tag k="name" v="Odernes" />
		<tag k="ssr:stedsnr" v="691621" />
	</node>
	<node id="-404585" lat="58.7775805597" lon="5.77080555826">
		<tag k="fixme" v="consider natural=peak for the most distinct mountains in the district" />
		<tag k="name" v="Steinberget" />
		<tag k="natural" v="hill" />
		<tag k="place" v="locality" />
		<tag k="ssr:stedsnr" v="691622" />
	</node>
	<node id="-404584" lat="58.7927194413" lon="5.75324444063">
		<tag k="name" v="Varden" />
		<tag k="natural" v="hill" />
		<tag k="place" v="locality" />
		<tag k="ssr:stedsnr" v="691618" />
	</node>
	<node id="-404583" lat="58.7784111113" lon="5.79334166743">
		<tag k="fixme" v="consider natural=peak for the most distinct mountains in the district" />
		<tag k="name" v="Husaberget" />
		<tag k="natural" v="hill" />
		<tag k="place" v="locality" />
		<tag k="ssr:stedsnr" v="691606" />
	</node>
	<node id="-404582" lat="58.7381638851" lon="5.81681667146">
		<tag k="name" v="Lunnarsmyr" />
		<tag k="place" v="locality" />
		<tag k="ssr:stedsnr" v="691269" />
	</node>
	<node id="-404581" lat="58.757799997" lon="5.77887500778">
		<tag k="name" v="Storeklubb" />
		<tag k="natural" v="hill" />
		<tag k="place" v="locality" />
		<tag k="ssr:stedsnr" v="691178" />
	</node>
	<node id="-404580" lat="58.7739944463" lon="5.73373333089">
		<tag k="name" v="Holen" />
		<tag k="place" v="farm" />
		<tag k="ssr:stedsnr" v="691175" />
	</node>
	<node id="-404579" lat="58.7653722256" lon="5.80202222314">
		<tag k="name" v="Langholen" />
		<tag k="place" v="farm" />
		<tag k="ssr:stedsnr" v="691172" />
	</node>
	<node id="-404578" lat="58.7145666628" lon="5.85998333258">
		<tag k="name" v="Morstjørn" />
		<tag k="natural" v="water" />
		<tag k="ssr:stedsnr" v="690734" />
	</node>
	<node id="-404577" lat="58.675005558" lon="5.85664443876">
		<tag k="name" v="Auranesåa" />
		<tag k="ssr:stedsnr" v="690246" />
		<tag k="waterway" v="river" />
	</node>
	<node id="-404576" lat="58.6713861143" lon="5.88111666861">
		<tag k="fixme" v="consider natural=peak for the most distinct mountains in the district" />
		<tag k="name" v="Tjursfjellet" />
		<tag k="natural" v="hill" />
		<tag k="place" v="locality" />
		<tag k="ssr:stedsnr" v="690247" />
	</node>
	<node id="-404575" lat="58.6645416636" lon="5.85508332669">
		<tag k="name" v="Sjurstjørna" />
		<tag k="natural" v="water" />
		<tag k="ssr:stedsnr" v="690229" />
	</node>
	<node id="-404574" lat="58.6731888848" lon="5.86604166343">
		<tag k="fixme" v="consider natural=peak for the most distinct mountains in the district" />
		<tag k="name" v="Nibå" />
		<tag k="natural" v="hill" />
		<tag k="place" v="locality" />
		<tag k="ssr:stedsnr" v="690216" />
	</node>
	<node id="-404573" lat="58.6396888928" lon="5.86991944273">
		<tag k="fixme" v="consider natural=peak for the most distinct mountains in the district" />
		<tag k="name" v="Nonskarfjellet" />
		<tag k="natural" v="hill" />
		<tag k="place" v="locality" />
		<tag k="ssr:stedsnr" v="690164" />
	</node>
	<node id="-404572" lat="58.7513971544" lon="5.71702265768">
		<tag k="fixme" v="consider place=hamlet" />
		<tag k="name" v="Njå" />
		<tag k="place" v="farm" />
		<tag k="ssr:stedsnr" v="668853" />
	</node>
	<node id="-404571" lat="58.7795781939" lon="5.78407274853">
		<tag k="alt_name" v="Aasland" />
		<tag k="fixme" v="consider place=hamlet" />
		<tag k="name" v="Åsland" />
		<tag k="place" v="farm" />
		<tag k="ssr:stedsnr" v="668842" />
	</node>
	<node id="-404570" lat="58.7687945738" lon="5.700797143">
		<tag k="fixme" v="consider place=hamlet" />
		<tag k="name" v="Tegle" />
		<tag k="place" v="farm" />
		<tag k="ssr:stedsnr" v="668825" />
	</node>
	<node id="-404569" lat="58.7585611075" lon="5.70339999421">
		<tag k="name" v="Njåtjørna" />
		<tag k="natural" v="water" />
		<tag k="ssr:stedsnr" v="668824" />
	</node>
	<node id="-404568" lat="58.7102333334" lon="5.63484444492">
		<tag k="name" v="Steinsland" />
		<tag k="place" v="farm" />
		<tag k="ssr:stedsnr" v="668159" />
	</node>
	<node id="-404567" lat="58.7406778194" lon="5.6457506269">
		<tag k="fixme" v="consider place=hamlet" />
		<tag k="name" v="Bryne" />
		<tag k="place" v="farm" />
		<tag k="ssr:stedsnr" v="667881" />
	</node>
	<node id="-404566" lat="58.7353638917" lon="5.64768055068">
		<tag k="name" v="Bryne" />
		<tag k="place" v="town" />
		<tag k="ssr:stedsnr" v="667821" />
	</node>
	<node id="-404565" lat="58.7379472253" lon="5.67319722417">
		<tag k="name" v="Tangen" />
		<tag k="place" v="farm" />
		<tag k="ssr:stedsnr" v="667819" />
	</node>
	<node id="-404564" lat="58.7422249961" lon="5.75205834095">
		<tag k="name" v="Lyefjellet" />
		<tag k="natural" v="hill" />
		<tag k="old_name" v="Lyefjell" />
		<tag k="place" v="locality" />
		<tag k="ssr:stedsnr" v="667816" />
	</node>
	<node id="-404563" lat="58.6929318639" lon="5.64238129633">
		<tag k="alt_name" v="Haugland, nedra;Haugland nedre" />
		<tag k="fixme" v="consider place=hamlet" />
		<tag k="name" v="Nedrahaugland" />
		<tag k="place" v="farm" />
		<tag k="ssr:stedsnr" v="667781" />
	</node>
	<node id="-404562" lat="58.7025916708" lon="5.76438333006">
		<tag k="alt_name" v="Hykkjen" />
		<tag k="name" v="Hykken" />
		<tag k="place" v="farm" />
		<tag k="ssr:stedsnr" v="667767" />
	</node>
	<node id="-404561" lat="58.7034361683" lon="5.80109906386">
		<tag k="name" v="Taksdalsvatnet" />
		<tag k="natural" v="water" />
		<tag k="ssr:stedsnr" v="667763" />
		<tag k="water" v="lake" />
	</node>
	<node id="-404560" lat="58.7091583366" lon="5.81731943714">
		<tag k="alt_name" v="Uråa" />
		<tag k="name" v="Urdåna" />
		<tag k="ssr:stedsnr" v="667743" />
		<tag k="waterway" v="stream" />
	</node>
	<node id="-404559" lat="58.6700250001" lon="5.80518889031">
		<tag k="name" v="Bakkaberget" />
		<tag k="natural" v="hill" />
		<tag k="place" v="locality" />
		<tag k="ssr:stedsnr" v="667732" />
	</node>
	<node id="-404558" lat="58.6771055582" lon="5.74494999911">
		<tag k="name" v="Håklepp" />
		<tag k="place" v="farm" />
		<tag k="ssr:stedsnr" v="667727" />
	</node>
	<node id="-404557" lat="58.6906178587" lon="5.81202145621">
		<tag k="name" v="Fårevatnet" />
		<tag k="natural" v="water" />
		<tag k="ssr:stedsnr" v="667705" />
		<tag k="water" v="lake" />
	</node>
	<node id="-404556" lat="58.6948249991" lon="5.79153888648">
		<tag k="name" v="Hagen" />
		<tag k="place" v="farm" />
		<tag k="ssr:stedsnr" v="667703" />
	</node>
	<node id="-404555" lat="58.6687611108" lon="5.79201944647">
		<tag k="name" v="Feitabakken" />
		<tag k="natural" v="hill" />
		<tag k="place" v="locality" />
		<tag k="ssr:stedsnr" v="667300" />
	</node>
	<node id="-404554" lat="58.6396833327" lon="5.77778054865">
		<tag k="alt_name" v="Skjæret" />
		<tag k="name" v="Skjeret" />
		<tag k="old_name" v="Skjerset" />
		<tag k="place" v="farm" />
		<tag k="ssr:stedsnr" v="667256" />
	</node>
	<node id="-404553" lat="58.6458053908" lon="5.87576166461">
		<tag k="alt_name" v="Mellemstrand;Mæland" />
		<tag k="fixme" v="consider place=hamlet" />
		<tag k="name" v="Mellomstrand" />
		<tag k="place" v="farm" />
		<tag k="ssr:stedsnr" v="667076" />
	</node>
	<node id="-404552" lat="58.6293777794" lon="5.86953611839">
		<tag k="name" v="Kartavatnet" />
		<tag k="natural" v="water" />
		<tag k="ssr:stedsnr" v="667057" />
	</node>
	<node id="-404551" lat="58.6553694404" lon="5.79585833698">
		<tag k="name" v="Graslia" />
		<tag k="place" v="locality" />
		<tag k="ssr:stedsnr" v="662249" />
	</node>
	<node id="-404550" lat="58.7314972248" lon="5.79518333497">
		<tag k="name" v="Saurdalen" />
		<tag k="natural" v="valley" />
		<tag k="place" v="locality" />
		<tag k="ssr:stedsnr" v="661458" />
	</node>
	<node id="-404549" lat="58.7055555536" lon="5.69538889176">
		<tag k="bridge" v="yes" />
		<tag k="layer" v="1" />
		<tag k="name" v="Fosse" />
		<tag k="ssr:stedsnr" v="653773" />
	</node>
	<node id="-404548" lat="58.6757749982" lon="5.80493610798">
		<tag k="bridge" v="yes" />
		<tag k="layer" v="1" />
		<tag k="name" v="Mærli" />
		<tag k="ssr:stedsnr" v="653757" />
	</node>
	<node id="-404547" lat="58.7276749998" lon="5.63172778615">
		<tag k="name" v="Re" />
		<tag k="place" v="farm" />
		<tag k="ssr:stedsnr" v="650163" />
	</node>
	<node id="-404546" lat="58.7259777759" lon="5.63044166922">
		<tag k="name" v="Re" />
		<tag k="place" v="farm" />
		<tag k="ssr:stedsnr" v="650161" />
	</node>
	<node id="-404545" lat="58.6362027784" lon="5.83918888952">
		<tag k="name" v="Kartavoll" />
		<tag k="place" v="farm" />
		<tag k="ssr:stedsnr" v="650041" />
	</node>
	<node id="-404544" lat="58.6990555584" lon="5.81418889575">
		<tag k="fixme" v="consider natural=peak for the most distinct mountains in the district" />
		<tag k="name" v="Stakkstongfjellet" />
		<tag k="natural" v="hill" />
		<tag k="place" v="locality" />
		<tag k="ssr:stedsnr" v="647487" />
	</node>
	<node id="-404543" lat="58.7045916686" lon="5.74017776985">
		<tag k="name" v="Åreholen" />
		<tag k="natural" v="hill" />
		<tag k="place" v="locality" />
		<tag k="ssr:stedsnr" v="647477" />
	</node>
	<node id="-404542" lat="58.6884944452" lon="5.68217777701">
		<tag k="name" v="Kålhaug" />
		<tag k="natural" v="hill" />
		<tag k="place" v="locality" />
		<tag k="ssr:stedsnr" v="646340" />
	</node>
	<node id="-404541" lat="58.7821611111" lon="5.80000833138">
		<tag k="fixme" v="consider natural=peak for the most distinct mountains in the district" />
		<tag k="name" v="Blåberget" />
		<tag k="natural" v="hill" />
		<tag k="place" v="locality" />
		<tag k="ssr:stedsnr" v="630614" />
	</node>
	<node id="-404540" lat="58.7837861112" lon="5.73553056294">
		<tag k="name" v="Smørpigen" />
		<tag k="natural" v="hill" />
		<tag k="place" v="locality" />
		<tag k="ssr:stedsnr" v="630564" />
	</node>
	<node id="-404539" lat="58.7820444418" lon="5.78436110843">
		<tag k="name" v="Skyttarhaug" />
		<tag k="place" v="locality" />
		<tag k="ssr:stedsnr" v="630552" />
	</node>
	<node id="-404538" lat="58.762561111" lon="5.70080833366">
		<tag k="name" v="Tegletjørn" />
		<tag k="natural" v="water" />
		<tag k="ssr:stedsnr" v="630430" />
	</node>
	<node id="-404537" lat="58.7525833362" lon="5.7239333282">
		<tag k="name" v="Nystøl" />
		<tag k="natural" v="hill" />
		<tag k="place" v="locality" />
		<tag k="ssr:stedsnr" v="630230" />
	</node>
	<node id="-404536" lat="58.7562777753" lon="5.72236388223">
		<tag k="fixme" v="consider natural=peak for the most distinct mountains in the district" />
		<tag k="name" v="Dugurdmålsnuten" />
		<tag k="natural" v="hill" />
		<tag k="place" v="locality" />
		<tag k="ssr:stedsnr" v="630158" />
	</node>
	<node id="-404535" lat="58.7549361138" lon="5.7264083265">
		<tag k="historic" v="shieling" />
		<tag k="name" v="Gamlestøl" />
		<tag k="place" v="locality" />
		<tag k="ssr:stedsnr" v="630157" />
	</node>
	<node id="-404534" lat="58.7581666636" lon="5.75274721588">
		<tag k="name" v="Klokkeberg" />
		<tag k="natural" v="hill" />
		<tag k="place" v="locality" />
		<tag k="ssr:stedsnr" v="630156" />
	</node>
	<node id="-404533" lat="58.7230225287" lon="5.85610739493">
		<tag k="fixme" v="consider place=hamlet" />
		<tag k="name" v="Breilia" />
		<tag k="place" v="farm" />
		<tag k="ssr:stedsnr" v="629726" />
	</node>
	<node id="-404532" lat="58.777958337" lon="5.718541658">
		<tag k="building" v="industrial" />
		<tag k="industrial" v="factory" />
		<tag k="name" v="Kverneland fabrikk" />
		<tag k="ssr:stedsnr" v="607830" />
	</node>
	<node id="-404531" lat="58.7656008663" lon="5.71347686166">
		<tag k="fixme" v="consider place=hamlet" />
		<tag k="name" v="Netland" />
		<tag k="place" v="farm" />
		<tag k="ssr:stedsnr" v="607814" />
	</node>
	<node id="-404530" lat="58.6956722194" lon="5.63020834057">
		<tag k="alt_name" v="Skardabakken" />
		<tag k="name" v="Skarabakken" />
		<tag k="place" v="farm" />
		<tag k="ssr:stedsnr" v="606786" />
	</node>
	<node id="-404529" lat="58.68228889" lon="5.77785277737">
		<tag k="alt_name" v="Undeim" />
		<tag k="fixme" v="consider place=hamlet" />
		<tag k="name" v="Undheim" />
		<tag k="place" v="village" />
		<tag k="ssr:stedsnr" v="606754" />
	</node>
	<node id="-404528" lat="58.6816944482" lon="5.74371110288">
		<tag k="name" v="Myra" />
		<tag k="place" v="farm" />
		<tag k="ssr:stedsnr" v="606753" />
	</node>
	<node id="-404527" lat="58.6874888878" lon="5.78311943825">
		<tag k="name" v="Fastabygda" />
		<tag k="place" v="hamlet" />
		<tag k="ssr:stedsnr" v="606741" />
	</node>
	<node id="-404526" lat="58.6221250042" lon="5.8302777838">
		<tag k="fixme" v="consider natural=peak for the most distinct mountains in the district" />
		<tag k="name" v="Kartakalven" />
		<tag k="natural" v="hill" />
		<tag k="old_name" v="Kartekalven" />
		<tag k="place" v="locality" />
		<tag k="ssr:stedsnr" v="606270" />
	</node>
	<node id="-404525" lat="58.7184361099" lon="5.75170277082">
		<tag k="name" v="Kartavoll" />
		<tag k="place" v="farm" />
		<tag k="ssr:stedsnr" v="606252" />
	</node>
	<node id="-404524" lat="58.6915055536" lon="5.67035833186">
		<tag k="name" v="Sletteforen" />
		<tag k="place" v="farm" />
		<tag k="ssr:stedsnr" v="605456" />
	</node>
	<node id="-404523" lat="58.73088407" lon="5.68722353803">
		<tag k="fixme" v="consider place=hamlet" />
		<tag k="name" v="Norheim" />
		<tag k="old_name" v="Nordheim" />
		<tag k="place" v="farm" />
		<tag k="ssr:stedsnr" v="606854" />
	</node>
	<node id="-404522" lat="58.7352138887" lon="5.81057499595">
		<tag k="name" v="Helleholen" />
		<tag k="old_name" v="Hedleholen" />
		<tag k="place" v="farm" />
		<tag k="ssr:stedsnr" v="606850" />
	</node>
	<node id="-404521" lat="58.723812691" lon="5.81787226193">
		<tag k="fixme" v="consider place=hamlet" />
		<tag k="name" v="Sjelset" />
		<tag k="place" v="farm" />
		<tag k="ssr:stedsnr" v="606840" />
	</node>
	<node id="-404520" lat="58.729840635" lon="5.81021461348">
		<tag k="alt_name" v="Eigeland" />
		<tag k="fixme" v="consider place=hamlet" />
		<tag k="name" v="Eikeland" />
		<tag k="place" v="farm" />
		<tag k="ssr:stedsnr" v="606819" />
	</node>
	<node id="-404519" lat="58.723681448" lon="5.70203195832">
		<tag k="alt_name" v="Øvre Time;Time, øvra" />
		<tag k="fixme" v="consider place=hamlet" />
		<tag k="name" v="Øvra Time" />
		<tag k="place" v="farm" />
		<tag k="ssr:stedsnr" v="606806" />
	</node>
	<node id="-404518" lat="58.7230347682" lon="5.68457401602">
		<tag k="alt_name" v="Time, nedra;Nedre Time" />
		<tag k="fixme" v="consider place=hamlet" />
		<tag k="name" v="Nedra Time" />
		<tag k="place" v="farm" />
		<tag k="ssr:stedsnr" v="606804" />
	</node>
	<node id="-404517" lat="58.7258166628" lon="5.75893055705">
		<tag k="fixme" v="consider natural=peak for the most distinct mountains in the district" />
		<tag k="name" v="Hammaren" />
		<tag k="natural" v="hill" />
		<tag k="place" v="locality" />
		<tag k="ssr:stedsnr" v="601479" />
	</node>
	<node id="-404516" lat="58.72986667" lon="5.62965000035">
		<tag k="name" v="Re" />
		<tag k="place" v="farm" />
		<tag k="ssr:stedsnr" v="589201" />
	</node>
	<node id="-404515" lat="58.63716667" lon="5.8406722246">
		<tag k="name" v="Kartavoll" />
		<tag k="place" v="farm" />
		<tag k="ssr:stedsnr" v="589063" />
	</node>
	<node id="-404514" lat="58.7092555552" lon="5.71329722058">
		<tag k="name" v="Olaberget" />
		<tag k="natural" v="hill" />
		<tag k="place" v="locality" />
		<tag k="ssr:stedsnr" v="587484" />
	</node>
	<node id="-404513" lat="58.7308999993" lon="5.81754999577">
		<tag k="name" v="Kvernhusbekken" />
		<tag k="ssr:stedsnr" v="586493" />
		<tag k="waterway" v="stream" />
	</node>
	<node id="-404512" lat="58.7072416692" lon="5.81775833707">
		<tag k="name" v="Alisforen" />
		<tag k="natural" v="wetland" />
		<tag k="ssr:stedsnr" v="586481" />
	</node>
	<node id="-404511" lat="58.7052333308" lon="5.63282777155">
		<tag k="name" v="Steinslandsmyrane" />
		<tag k="natural" v="wetland" />
		<tag k="ssr:stedsnr" v="586451" />
	</node>
	<node id="-404510" lat="58.6841820493" lon="5.77206006135">
		<tag k="alt_name" v="Undheim store" />
		<tag k="fixme" v="consider place=hamlet" />
		<tag k="name" v="Storaundheim" />
		<tag k="place" v="farm" />
		<tag k="ssr:stedsnr" v="585304" />
	</node>
	<node id="-404509" lat="58.677480552" lon="5.79196389422">
		<tag k="name" v="Knudaheia" />
		<tag k="place" v="locality" />
		<tag k="ssr:stedsnr" v="585298" />
	</node>
	<node id="-404508" lat="58.7348666645" lon="5.73151666403">
		<tag k="name" v="Lyefjell" />
		<tag k="place" v="quarter" />
		<tag k="ssr:stedsnr" v="569965" />
	</node>
	<node id="-404507" lat="58.7901972225" lon="5.76110556093">
		<tag k="name" v="Knibbane" />
		<tag k="natural" v="hill" />
		<tag k="place" v="locality" />
		<tag k="ssr:stedsnr" v="569624" />
	</node>
	<node id="-404506" lat="58.7832861082" lon="5.78572778533">
		<tag k="name" v="Skansen" />
		<tag k="place" v="locality" />
		<tag k="ssr:stedsnr" v="569614" />
	</node>
	<node id="-404505" lat="58.7851166651" lon="5.78700833928">
		<tag k="name" v="Festningen" />
		<tag k="place" v="locality" />
		<tag k="ssr:stedsnr" v="569615" />
	</node>
	<node id="-404504" lat="58.7339611121" lon="5.64208611673">
		<tag k="leisure" v="park" />
		<tag k="name" v="Geitahodne" />
		<tag k="ssr:stedsnr" v="569411" />
	</node>
	<node id="-404503" lat="58.7518666639" lon="5.77829445315">
		<tag k="name" v="Moseberg" />
		<tag k="place" v="locality" />
		<tag k="ssr:stedsnr" v="569235" />
	</node>
	<node id="-404502" lat="58.7757111121" lon="5.72606944051">
		<tag k="fixme" v="consider place=suburb, village or hamlet" />
		<tag k="name" v="Riset" />
		<tag k="place" v="quarter" />
		<tag k="ssr:stedsnr" v="569157" />
	</node>
	<node id="-404501" lat="58.7720444407" lon="5.81787777543">
		<tag k="fixme" v="consider natural=peak for the most distinct mountains in the district" />
		<tag k="name" v="Midtfjell" />
		<tag k="natural" v="hill" />
		<tag k="place" v="locality" />
		<tag k="ssr:stedsnr" v="569150" />
	</node>
	<node id="-404500" lat="58.7577277757" lon="5.803605548">
		<tag k="name" v="Piggberget" />
		<tag k="place" v="farm" />
		<tag k="ssr:stedsnr" v="569149" />
	</node>
	<node id="-404499" lat="58.7282694407" lon="5.84648333651">
		<tag k="name" v="Solkjen" />
		<tag k="natural" v="hill" />
		<tag k="place" v="locality" />
		<tag k="ssr:stedsnr" v="568720" />
	</node>
	<node id="-404498" lat="58.726419441" lon="5.83644444301">
		<tag k="name" v="Bukkaknuten" />
		<tag k="natural" v="hill" />
		<tag k="place" v="locality" />
		<tag k="ssr:stedsnr" v="546800" />
	</node>
	<node id="-404497" lat="58.7250555583" lon="5.76708332731">
		<tag k="alt_name" v="Brekkenuten" />
		<tag k="name" v="Brekkeknuten" />
		<tag k="natural" v="hill" />
		<tag k="place" v="locality" />
		<tag k="ssr:stedsnr" v="546790" />
	</node>
	<node id="-404496" lat="58.7050611125" lon="5.65638054906">
		<tag k="name" v="Hognestad" />
		<tag k="railway" v="station" />
		<tag k="ssr:stedsnr" v="546748" />
		<tag k="train" v="yes" />
	</node>
	<node id="-404495" lat="58.6778699245" lon="5.8106071486">
		<tag k="alt_name" v="Longvatnet" />
		<tag k="name" v="Langavatnet" />
		<tag k="natural" v="water" />
		<tag k="ssr:stedsnr" v="546736" />
		<tag k="water" v="lake" />
	</node>
	<node id="-404494" lat="58.6966305571" lon="5.82385000297">
		<tag k="name" v="Fåredalen" />
		<tag k="natural" v="valley" />
		<tag k="place" v="locality" />
		<tag k="ssr:stedsnr" v="546718" />
	</node>
	<node id="-404493" lat="58.7109694429" lon="5.85695556007">
		<tag k="name" v="Lauvlia" />
		<tag k="place" v="isolated_dwelling" />
		<tag k="ssr:stedsnr" v="546447" />
	</node>
	<node id="-404492" lat="58.7063916679" lon="5.87474722521">
		<tag k="alt_name" v="Hedlevatn" />
		<tag k="name" v="Hellevatnet" />
		<tag k="natural" v="water" />
		<tag k="ssr:stedsnr" v="546436" />
	</node>
	<node id="-404491" lat="58.6790416694" lon="5.8921638847">
		<tag k="name" v="Lågvatnet" />
		<tag k="natural" v="water" />
		<tag k="ssr:stedsnr" v="546409" />
	</node>
	<node id="-404490" lat="58.6591305561" lon="5.83844721943">
		<tag k="name" v="Butjørnane" />
		<tag k="natural" v="water" />
		<tag k="ssr:stedsnr" v="546283" />
	</node>
	<node id="-404489" lat="58.6654555549" lon="5.78511665928">
		<tag k="alt_name" v="Engene" />
		<tag k="name" v="Enga" />
		<tag k="old_name" v="Engja" />
		<tag k="place" v="farm" />
		<tag k="ssr:stedsnr" v="546274" />
	</node>
	<node id="-404488" lat="58.6434333336" lon="5.79451666276">
		<tag k="name" v="Skjeret" />
		<tag k="place" v="farm" />
		<tag k="ssr:stedsnr" v="546242" />
	</node>
	<node id="-404487" lat="58.6527766881" lon="5.86214204517">
		<tag k="name" v="Hellevatna" />
		<tag k="natural" v="water" />
		<tag k="ssr:stedsnr" v="546057" />
	</node>
	<node id="-404486" lat="58.6548833326" lon="5.85586667494">
		<tag k="alt_name" v="Solkjen" />
		<tag k="name" v="Sulkjen" />
		<tag k="natural" v="slope" />
		<tag k="old_name" v="Sulken" />
		<tag k="place" v="locality" />
		<tag k="ssr:stedsnr" v="546051" />
	</node>
	<node id="-404485" lat="58.71624091" lon="5.62213886617">
		<tag k="name" v="Jonshagen" />
		<tag k="place" v="farm" />
		<tag k="ssr:stedsnr" v="544307" />
	</node>
	<node id="-404484" lat="58.725105558" lon="5.62081388753">
		<tag k="name" v="Ramshaug" />
		<tag k="natural" v="hill" />
		<tag k="place" v="locality" />
		<tag k="ssr:stedsnr" v="544306" />
	</node>
	<node id="-404483" lat="58.7169361092" lon="5.64830000338">
		<tag k="name" v="Rudlebakken" />
		<tag k="natural" v="hill" />
		<tag k="place" v="locality" />
		<tag k="ssr:stedsnr" v="544302" />
	</node>
	<node id="-404481" lat="58.6707611101" lon="5.79315277045">
		<tag k="name" v="Freistadbakken" />
		<tag k="place" v="locality" />
		<tag k="ssr:stedsnr" v="540264" />
	</node>
	<node id="-404480" lat="58.7271611111" lon="5.63233055269">
		<tag k="name" v="Re" />
		<tag k="place" v="farm" />
		<tag k="ssr:stedsnr" v="529171" />
	</node>
	<node id="-404479" lat="58.6355117346" lon="5.83611329109">
		<tag k="fixme" v="consider place=hamlet" />
		<tag k="name" v="Kartavoll" />
		<tag k="place" v="farm" />
		<tag k="ssr:stedsnr" v="528025" />
	</node>
	<node id="-404478" lat="58.7201750029" lon="5.77189444922">
		<tag k="name" v="Haraberget" />
		<tag k="natural" v="hill" />
		<tag k="place" v="locality" />
		<tag k="ssr:stedsnr" v="527504" />
	</node>
	<node id="-404477" lat="58.709155552" lon="5.70308055987">
		<tag k="name" v="Flæet" />
		<tag k="place" v="locality" />
		<tag k="ssr:stedsnr" v="527469" />
	</node>
	<node id="-404476" lat="58.7194249971" lon="5.80379166308">
		<tag k="name" v="Nygård" />
		<tag k="place" v="farm" />
		<tag k="ssr:stedsnr" v="525478" />
	</node>
	<node id="-404475" lat="58.7048333374" lon="5.81049999942">
		<tag k="fixme" v="consider natural=peak for the most distinct mountains in the district" />
		<tag k="name" v="Skurvehamaren" />
		<tag k="natural" v="hill" />
		<tag k="place" v="locality" />
		<tag k="ssr:stedsnr" v="525460" />
	</node>
	<node id="-404474" lat="58.6828694421" lon="5.77953333431">
		<tag k="name" v="Undheim sokn" />
		<tag k="place" v="hamlet" />
		<tag k="ssr:stedsnr" v="509659" />
	</node>
	<node id="-404473" lat="58.777119441" lon="5.74647500167">
		<tag k="landuse" v="meadow" />
		<tag k="name" v="Smørdalen" />
		<tag k="ssr:stedsnr" v="509585" />
	</node>
	<node id="-404472" lat="58.7800750024" lon="5.77987500191">
		<tag k="name" v="Lambakk" />
		<tag k="place" v="locality" />
		<tag k="ssr:stedsnr" v="509583" />
	</node>
	<node id="-404471" lat="58.7781444426" lon="5.80395277869">
		<tag k="fixme" v="consider natural=peak for the most distinct mountains in the district" />
		<tag k="name" v="Araberget" />
		<tag k="natural" v="hill" />
		<tag k="place" v="locality" />
		<tag k="ssr:stedsnr" v="509575" />
	</node>
	<node id="-404470" lat="58.7784722179" lon="5.79886111031">
		<tag k="fixme" v="consider natural=peak for the most distinct mountains in the district" />
		<tag k="name" v="Dueberget" />
		<tag k="natural" v="hill" />
		<tag k="place" v="locality" />
		<tag k="ssr:stedsnr" v="509574" />
	</node>
	<node id="-404469" lat="58.7363638898" lon="5.64503333128">
		<tag k="name" v="Bryneåna" />
		<tag k="ssr:stedsnr" v="509387" />
		<tag k="waterway" v="river" />
	</node>
	<node id="-404468" lat="58.7448694489" lon="5.79183611438">
		<tag k="landuse" v="meadow" />
		<tag k="name" v="Langemyr" />
		<tag k="ssr:stedsnr" v="509216" />
	</node>
	<node id="-404467" lat="58.7684111126" lon="5.72441388032">
		<tag k="name" v="Lunden" />
		<tag k="place" v="quarter" />
		<tag k="ssr:stedsnr" v="509142" />
	</node>
	<node id="-404466" lat="58.7370444444" lon="5.76410832616">
		<tag k="name" v="Vanglaskar" />
		<tag k="natural" v="valley" />
		<tag k="place" v="locality" />
		<tag k="ssr:stedsnr" v="509124" />
	</node>
	<node id="-404465" lat="58.7246000031" lon="5.87012778142">
		<tag k="fixme" v="consider natural=peak for the most distinct mountains in the district" />
		<tag k="name" v="Kjøllenuten" />
		<tag k="natural" v="hill" />
		<tag k="place" v="locality" />
		<tag k="ssr:stedsnr" v="508706" />
	</node>
	<node id="-404464" lat="58.6979055575" lon="5.84401111172">
		<tag k="fixme" v="consider natural=peak for the most distinct mountains in the district" />
		<tag k="name" v="Kalvafjellet" />
		<tag k="natural" v="hill" />
		<tag k="place" v="locality" />
		<tag k="ssr:stedsnr" v="508224" />
	</node>
	<node id="-404463" lat="58.7488666681" lon="5.81686944482">
		<tag k="name" v="Håland" />
		<tag k="place" v="farm" />
		<tag k="ssr:stedsnr" v="486879" />
	</node>
	<node id="-404462" lat="58.7488333328" lon="5.78526943889">
		<tag k="name" v="Eikelandsmyrane" />
		<tag k="place" v="farm" />
		<tag k="ssr:stedsnr" v="486878" />
	</node>
	<node id="-404461" lat="58.7570253831" lon="5.77040061691">
		<tag k="name" v="Mosvatnet" />
		<tag k="natural" v="water" />
		<tag k="ssr:stedsnr" v="486864" />
		<tag k="water" v="lake" />
	</node>
	<node id="-404460" lat="58.7810554408" lon="5.74636700455">
		<tag k="alt_name" v="Kalberg, s;Søre Kalberg" />
		<tag k="fixme" v="consider place=hamlet" />
		<tag k="name" v="Søra Kalberg" />
		<tag k="place" v="farm" />
		<tag k="ssr:stedsnr" v="486839" />
	</node>
	<node id="-404459" lat="58.7751888878" lon="5.79558889688">
		<tag k="alt_name" v="Skreberget" />
		<tag k="name" v="Skreberg" />
		<tag k="place" v="farm" />
		<tag k="ssr:stedsnr" v="486815" />
	</node>
	<node id="-404458" lat="58.7229583331" lon="5.63200832808">
		<tag k="name" v="Svertingstad" />
		<tag k="place" v="farm" />
		<tag k="ssr:stedsnr" v="485857" />
	</node>
	<node id="-404457" lat="58.7340136066" lon="5.69807105751">
		<tag k="fixme" v="consider place=hamlet" />
		<tag k="name" v="Holen" />
		<tag k="place" v="farm" />
		<tag k="ssr:stedsnr" v="485856" />
	</node>
	<node id="-404456" lat="58.7427138912" lon="5.80384721712">
		<tag k="alt_name" v="Røynåsen" />
		<tag k="name" v="Røynås" />
		<tag k="place" v="farm" />
		<tag k="ssr:stedsnr" v="485842" />
	</node>
	<node id="-404455" lat="58.7186166704" lon="5.71605833965">
		<tag k="name" v="Stemmen" />
		<tag k="natural" v="water" />
		<tag k="ssr:stedsnr" v="485805" />
	</node>
	<node id="-404454" lat="58.7186511761" lon="5.69320329746">
		<tag k="name" v="Løge" />
		<tag k="place" v="hamlet" />
		<tag k="ssr:stedsnr" v="485801" />
	</node>
	<node id="-404453" lat="58.7296126496" lon="5.82199923853">
		<tag k="alt_name" v="Ødegård" />
		<tag k="fixme" v="consider place=hamlet" />
		<tag k="name" v="Øydgard" />
		<tag k="place" v="farm" />
		<tag k="ssr:stedsnr" v="485797" />
	</node>
	<node id="-404452" lat="58.7259277342" lon="5.78521830177">
		<tag k="name" v="Melsvatnet" />
		<tag k="natural" v="water" />
		<tag k="ssr:stedsnr" v="485788" />
		<tag k="water" v="lake" />
	</node>
	<node id="-404451" lat="58.7067666705" lon="5.8077472194">
		<tag k="name" v="Urdådalen" />
		<tag k="natural" v="valley" />
		<tag k="old_name" v="Urdåndalen" />
		<tag k="place" v="locality" />
		<tag k="ssr:stedsnr" v="485761" />
	</node>
	<node id="-404450" lat="58.7158277787" lon="5.83841111277">
		<tag k="alt_name" v="Bjødnalia" />
		<tag k="name" v="Bjørnalia" />
		<tag k="place" v="farm" />
		<tag k="ssr:stedsnr" v="485754" />
	</node>
	<node id="-404449" lat="58.7113010199" lon="5.65838092874">
		<tag k="name" v="Smukkevatnet" />
		<tag k="natural" v="water" />
		<tag k="old_name" v="Smokkevatnet" />
		<tag k="ssr:stedsnr" v="485740" />
		<tag k="water" v="lake" />
	</node>
	<node id="-404448" lat="58.6767111088" lon="5.79253055808">
		<tag k="name" v="Kvernaberget" />
		<tag k="natural" v="hill" />
		<tag k="place" v="locality" />
		<tag k="ssr:stedsnr" v="485737" />
	</node>
	<node id="-404447" lat="58.6893833365" lon="5.75666666934">
		<tag k="name" v="Heia" />
		<tag k="old_name" v="Heiå" />
		<tag k="place" v="farm" />
		<tag k="ssr:stedsnr" v="485697" />
	</node>
	<node id="-404446" lat="58.6698671912" lon="5.87293791246">
		<tag k="name" v="Sevlivatnet" />
		<tag k="natural" v="water" />
		<tag k="ssr:stedsnr" v="485398" />
	</node>
	<node id="-404445" lat="58.6856833298" lon="5.90784444704">
		<tag k="name" v="Trollhaugknuten" />
		<tag k="natural" v="hill" />
		<tag k="place" v="locality" />
		<tag k="ssr:stedsnr" v="485383" />
	</node>
	<node id="-404444" lat="58.6802416701" lon="5.85924166798">
		<tag k="alt_name" v="Husavatnet" />
		<tag k="name" v="Husatjernet" />
		<tag k="natural" v="water" />
		<tag k="ssr:stedsnr" v="485378" />
	</node>
	<node id="-404443" lat="58.718805557" lon="5.86419445055">
		<tag k="alt_name" v="Skogfjellet" />
		<tag k="fixme" v="consider natural=peak for the most distinct mountains in the district" />
		<tag k="name" v="Skogafjellet" />
		<tag k="natural" v="hill" />
		<tag k="place" v="locality" />
		<tag k="ssr:stedsnr" v="485334" />
	</node>
	<node id="-404442" lat="58.6431111093" lon="5.76375554926">
		<tag k="name" v="Kvigeforen" />
		<tag k="ssr:stedsnr" v="485248" />
		<tag k="waterway" v="stream" />
	</node>
	<node id="-404441" lat="58.6694666627" lon="5.83809999435">
		<tag k="alt_name" v="Kvernhusfjellet" />
		<tag k="name" v="Kvernafjellet" />
		<tag k="natural" v="hill" />
		<tag k="place" v="locality" />
		<tag k="ssr:stedsnr" v="485238" />
	</node>
	<node id="-404440" lat="58.6644499985" lon="5.83842221885">
		<tag k="name" v="Fiskelaustjørna" />
		<tag k="natural" v="water" />
		<tag k="ssr:stedsnr" v="485237" />
	</node>
	<node id="-404439" lat="58.6621916628" lon="5.78920832569">
		<tag k="name" v="Nyland" />
		<tag k="place" v="farm" />
		<tag k="ssr:stedsnr" v="485235" />
	</node>
	<node id="-404438" lat="58.7377972241" lon="5.64900554985">
		<tag k="name" v="Loen" />
		<tag k="place" v="quarter" />
		<tag k="ssr:stedsnr" v="480526" />
	</node>
	<node id="-404437" lat="58.6617222238" lon="5.82076943742">
		<tag k="name" v="Kleivane" />
		<tag k="natural" v="hill" />
		<tag k="place" v="locality" />
		<tag k="ssr:stedsnr" v="480218" />
	</node>
	<node id="-404436" lat="58.7520111079" lon="5.69662500288">
		<tag k="bridge" v="yes" />
		<tag k="layer" v="1" />
		<tag k="name" v="Njåskogen" />
		<tag k="ssr:stedsnr" v="471749" />
	</node>
	<node id="-404435" lat="58.6802555567" lon="5.7076027762">
		<tag k="bridge" v="yes" />
		<tag k="layer" v="1" />
		<tag k="name" v="Risa" />
		<tag k="ssr:stedsnr" v="471745" />
	</node>
	<node id="-404434" lat="58.717855552" lon="5.79199722478">
		<tag k="name" v="Heiane" />
		<tag k="place" v="farm" />
		<tag k="ssr:stedsnr" v="465473" />
	</node>
	<node id="-404433" lat="58.693886115" lon="5.80254167136">
		<tag k="fixme" v="consider natural=peak for the most distinct mountains in the district" />
		<tag k="name" v="Gronuten" />
		<tag k="natural" v="hill" />
		<tag k="place" v="locality" />
		<tag k="ssr:stedsnr" v="465462" />
	</node>
	<node id="-404432" lat="58.7051361141" lon="5.75784723052">
		<tag k="name" v="Landaberget" />
		<tag k="natural" v="hill" />
		<tag k="place" v="locality" />
		<tag k="ssr:stedsnr" v="465451" />
	</node>
	<node id="-404431" lat="58.7559027753" lon="5.70039722708">
		<tag k="name" v="Heiane" />
		<tag k="place" v="farm" />
		<tag k="ssr:stedsnr" v="449424" />
	</node>
	<node id="-404430" lat="58.7455138875" lon="5.74976111092">
		<tag k="name" v="Piggberg" />
		<tag k="natural" v="hill" />
		<tag k="place" v="locality" />
		<tag k="ssr:stedsnr" v="449234" />
	</node>
	<node id="-404429" lat="58.7550472201" lon="5.74852221974">
		<tag k="name" v="Stakkamyr" />
		<tag k="natural" v="wetland" />
		<tag k="ssr:stedsnr" v="449124" />
	</node>
	<node id="-404428" lat="58.7718277737" lon="5.76014166365">
		<tag k="name" v="Froylandsmyrane" />
		<tag k="natural" v="wetland" />
		<tag k="ssr:stedsnr" v="449121" />
	</node>
	<node id="-404427" lat="58.7760972188" lon="5.73268332555">
		<tag k="name" v="Vollen" />
		<tag k="place" v="farm" />
		<tag k="ssr:stedsnr" v="449117" />
	</node>
	<node id="-404426" lat="58.767444441" lon="5.79620556202">
		<tag k="junction" v="yes" />
		<tag k="name" v="Øykjavad" />
		<tag k="place" v="locality" />
		<tag k="ssr:stedsnr" v="449114" />
	</node>
	<node id="-404425" lat="58.6524247995" lon="5.86438669733">
		<tag k="alt_name" v="Hedlevatnet indre" />
		<tag k="name" v="Indra Hedlevatnet" />
		<tag k="natural" v="water" />
		<tag k="ssr:stedsnr" v="448220" />
		<tag k="water" v="lake" />
	</node>
	<node id="-404424" lat="58.7229305584" lon="5.86032499621">
		<tag k="fixme" v="consider natural=peak for the most distinct mountains in the district" />
		<tag k="name" v="Husafjell" />
		<tag k="natural" v="hill" />
		<tag k="place" v="locality" />
		<tag k="ssr:stedsnr" v="447670" />
	</node>
	<node id="-404423" lat="58.6216583368" lon="5.84559721631">
		<tag k="fixme" v="consider natural=peak for the most distinct mountains in the district" />
		<tag k="name" v="Tindafjellet" />
		<tag k="natural" v="hill" />
		<tag k="place" v="locality" />
		<tag k="ssr:stedsnr" v="448754" />
	</node>
	<node id="-404422" lat="58.7650972215" lon="5.78863054741">
		<tag k="name" v="Småberg" />
		<tag k="place" v="farm" />
		<tag k="ssr:stedsnr" v="426881" />
	</node>
	<node id="-404421" lat="58.7224416648" lon="5.60712500764">
		<tag k="name" v="Eliasheia" />
		<tag k="place" v="farm" />
		<tag k="ssr:stedsnr" v="425872" />
	</node>
	<node id="-404420" lat="58.7424672159" lon="5.76452820841">
		<tag k="name" v="Åsvatnet" />
		<tag k="natural" v="water" />
		<tag k="ssr:stedsnr" v="425855" />
		<tag k="water" v="lake" />
	</node>
	<node id="-404419" lat="58.7278000001" lon="5.6945027705">
		<tag k="name" v="Krossen" />
		<tag k="place" v="farm" />
		<tag k="ssr:stedsnr" v="425834" />
	</node>
	<node id="-404418" lat="58.6970400956" lon="5.65386360105">
		<tag k="alt_name" v="Haugland, øvra;Haugland;Haugland øvre" />
		<tag k="fixme" v="consider place=hamlet" />
		<tag k="name" v="Øvrahaugland" />
		<tag k="place" v="farm" />
		<tag k="ssr:stedsnr" v="425814" />
	</node>
	<node id="-404417" lat="58.6948843708" lon="5.66196797185">
		<tag k="alt_name" v="Gjerdå" />
		<tag k="name" v="Gjerda" />
		<tag k="old_name" v="Gjerdo" />
		<tag k="place" v="farm" />
		<tag k="ssr:stedsnr" v="425809" />
	</node>
	<node id="-404416" lat="58.7104638866" lon="5.71228055837">
		<tag k="name" v="Fosseberget" />
		<tag k="natural" v="hill" />
		<tag k="place" v="locality" />
		<tag k="ssr:stedsnr" v="425802" />
	</node>
	<node id="-404415" lat="58.6749361151" lon="5.76650000275">
		<tag k="alt_name" v="Torkelholen" />
		<tag k="name" v="Torkelsholen" />
		<tag k="place" v="farm" />
		<tag k="ssr:stedsnr" v="425792" />
	</node>
	<node id="-404414" lat="58.6929785118" lon="5.72228849271">
		<tag k="fixme" v="consider place=hamlet" />
		<tag k="name" v="Mossige" />
		<tag k="place" v="farm" />
		<tag k="ssr:stedsnr" v="425762" />
	</node>
	<node id="-404413" lat="58.687952777" lon="5.74173056072">
		<tag k="name" v="Bakken" />
		<tag k="place" v="farm" />
		<tag k="ssr:stedsnr" v="425759" />
	</node>
	<node id="-404412" lat="58.6610250021" lon="5.79702499684">
		<tag k="name" v="Storemyr" />
		<tag k="place" v="farm" />
		<tag k="ssr:stedsnr" v="425298" />
	</node>
	<node id="-404411" lat="58.677349996" lon="5.8259499962">
		<tag k="name" v="Langholen" />
		<tag k="place" v="farm" />
		<tag k="ssr:stedsnr" v="425282" />
	</node>
	<node id="-404410" lat="58.6185246512" lon="5.82557159333">
		<tag k="name" v="Ras" />
		<tag k="natural" v="water" />
		<tag k="ssr:stedsnr" v="425279" />
	</node>
	<node id="-404409" lat="58.6176902249" lon="5.82656978195">
		<tag k="alt_name" v="Konta" />
		<tag k="name" v="Kunta" />
		<tag k="natural" v="water" />
		<tag k="old_name" v="Kota" />
		<tag k="ssr:stedsnr" v="425278" />
	</node>
	<node id="-404408" lat="58.6493444483" lon="5.81863332594">
		<tag k="name" v="Fløymeland" />
		<tag k="place" v="farm" />
		<tag k="ssr:stedsnr" v="425257" />
	</node>
	<node id="-404407" lat="58.6458333349" lon="5.80822778534">
		<tag k="alt_name" v="Myrabø" />
		<tag k="name" v="Myrane" />
		<tag k="place" v="farm" />
		<tag k="ssr:stedsnr" v="425254" />
	</node>
	<node id="-404406" lat="58.7268093095" lon="5.65162156442">
		<tag k="name" v="Elisberget" />
		<tag k="natural" v="hill" />
		<tag k="place" v="locality" />
		<tag k="ssr:stedsnr" v="423319" />
	</node>
	<node id="-404405" lat="58.7291527821" lon="5.80326110725">
		<tag k="name" v="Brunshammaren" />
		<tag k="natural" v="hill" />
		<tag k="place" v="locality" />
		<tag k="ssr:stedsnr" v="419489" />
	</node>
	<node id="-404404" lat="58.713761113" lon="5.77278333168">
		<tag k="name" v="Rinnå" />
		<tag k="place" v="farm" />
		<tag k="ssr:stedsnr" v="419478" />
	</node>
	<node id="-404403" lat="58.6620805518" lon="5.80731667324">
		<tag k="name" v="Jurå" />
		<tag k="place" v="locality" />
		<tag k="ssr:stedsnr" v="419261" />
	</node>
	<node id="-404402" lat="58.7479000009" lon="5.76558332511">
		<tag k="name" v="Buberg" />
		<tag k="natural" v="hill" />
		<tag k="place" v="locality" />
		<tag k="ssr:stedsnr" v="266241" />
	</node>
	<node id="-404401" lat="58.7582972182" lon="5.74908889737">
		<tag k="name" v="Prosteinen" />
		<tag k="natural" v="stone" />
		<tag k="ssr:stedsnr" v="266162" />
	</node>
	<node id="-404400" lat="58.7705277806" lon="5.79950277191">
		<tag k="name" v="Senemyr" />
		<tag k="place" v="farm" />
		<tag k="ssr:stedsnr" v="266153" />
	</node>
	<node id="-404399" lat="58.7022611149" lon="5.86344722244">
		<tag k="fixme" v="consider natural=peak for the most distinct mountains in the district" />
		<tag k="name" v="Skårlandskula" />
		<tag k="natural" v="hill" />
		<tag k="place" v="locality" />
		<tag k="ssr:stedsnr" v="265237" />
	</node>
	<node id="-404398" lat="58.6829138917" lon="5.93029723027">
		<tag k="name" v="Stavsto" />
		<tag k="place" v="locality" />
		<tag k="ssr:stedsnr" v="265217" />
	</node>
	<node id="-404397" lat="58.6685333303" lon="5.85862778454">
		<tag k="name" v="Auranesdalen" />
		<tag k="natural" v="valley" />
		<tag k="place" v="locality" />
		<tag k="ssr:stedsnr" v="265211" />
	</node>
	<node id="-404396" lat="58.7469055596" lon="5.83309722749">
		<tag k="name" v="Tverrbotten" />
		<tag k="place" v="locality" />
		<tag k="ssr:stedsnr" v="265106" />
	</node>
	<node id="-404395" lat="58.7181000008" lon="5.73848333445">
		<tag k="name" v="Rudlå" />
		<tag k="natural" v="hill" />
		<tag k="place" v="locality" />
		<tag k="ssr:stedsnr" v="479474" />
	</node>
	<node id="-404394" lat="58.7358571354" lon="5.83703816767">
		<tag k="alt_name" v="Bjønndalstjørn" />
		<tag k="name" v="Bjørndalstjørna" />
		<tag k="natural" v="water" />
		<tag k="ssr:stedsnr" v="243859" />
	</node>
	<node id="-404393" lat="58.7497583326" lon="5.80440833717">
		<tag k="alt_name" v="Vorefjell" />
		<tag k="name" v="Vordefjell" />
		<tag k="place" v="farm" />
		<tag k="ssr:stedsnr" v="243860" />
	</node>
	<node id="-404392" lat="58.7373944435" lon="5.7314694512">
		<tag k="alt_name" v="Fjellet" />
		<tag k="name" v="Undafjellet" />
		<tag k="place" v="farm" />
		<tag k="ssr:stedsnr" v="243854" />
	</node>
	<node id="-404391" lat="58.7443166686" lon="5.73416389592">
		<tag k="alt_name" v="Håfjell" />
		<tag k="fixme" v="consider natural=peak for the most distinct mountains in the district" />
		<tag k="name" v="Njåfjellet" />
		<tag k="natural" v="hill" />
		<tag k="place" v="locality" />
		<tag k="ssr:stedsnr" v="243842" />
	</node>
	<node id="-404390" lat="58.7710135513" lon="5.80220570131">
		<tag k="fixme" v="consider place=hamlet" />
		<tag k="name" v="Fjermestad" />
		<tag k="place" v="farm" />
		<tag k="ssr:stedsnr" v="243823" />
	</node>
	<node id="-404389" lat="58.7271499978" lon="5.68438332801">
		<tag k="name" v="Moldhaug" />
		<tag k="place" v="farm" />
		<tag k="ssr:stedsnr" v="243814" />
	</node>
	<node id="-404388" lat="58.7294916653" lon="5.7408694419">
		<tag k="name" v="Larheia" />
		<tag k="place" v="farm" />
		<tag k="ssr:stedsnr" v="243811" />
	</node>
	<node id="-404387" lat="58.6984111108" lon="5.64605278081">
		<tag k="alt_name" v="Brumheia" />
		<tag k="name" v="Brunnheia" />
		<tag k="place" v="farm" />
		<tag k="ssr:stedsnr" v="243797" />
	</node>
	<node id="-404386" lat="58.7087729362" lon="5.81073811733">
		<tag k="loc_name" v="Blåfjell" />
		<tag k="name" v="Blåfjellet" />
		<tag k="place" v="locality" />
		<tag k="ssr:stedsnr" v="243788" />
	</node>
	<node id="-404385" lat="58.6718249994" lon="5.77677777986">
		<tag k="name" v="Slettabrotet" />
		<tag k="place" v="farm" />
		<tag k="ssr:stedsnr" v="243780" />
	</node>
	<node id="-404384" lat="58.6836431788" lon="5.82840802178">
		<tag k="fixme" v="consider place=hamlet" />
		<tag k="name" v="Skårland" />
		<tag k="place" v="farm" />
		<tag k="ssr:stedsnr" v="243774" />
	</node>
	<node id="-404383" lat="58.6860111133" lon="5.79468054704">
		<tag k="name" v="Krusaholen" />
		<tag k="place" v="farm" />
		<tag k="ssr:stedsnr" v="243772" />
	</node>
	<node id="-404382" lat="58.7173445497" lon="5.80575849959">
		<tag k="fixme" v="consider place=hamlet" />
		<tag k="name" v="Sæland" />
		<tag k="place" v="farm" />
		<tag k="ssr:stedsnr" v="242815" />
	</node>
	<node id="-404381" lat="58.7230972262" lon="5.84692221434">
		<tag k="name" v="Engjavatnet" />
		<tag k="natural" v="water" />
		<tag k="ssr:stedsnr" v="242816" />
		<tag k="water" v="lake" />
	</node>
	<node id="-404380" lat="58.7145397102" lon="5.71126073399">
		<tag k="fixme" v="consider place=hamlet" />
		<tag k="name" v="Fotland" />
		<tag k="old_name" v="Fottland" />
		<tag k="place" v="farm" />
		<tag k="ssr:stedsnr" v="242803" />
	</node>
	<node id="-404379" lat="58.7110111148" lon="5.69167778591">
		<tag k="alt_name" v="Oma øvre" />
		<tag k="name" v="Øvre Oma" />
		<tag k="place" v="farm" />
		<tag k="ssr:stedsnr" v="241446" />
	</node>
	<node id="-404378" lat="58.6625138896" lon="5.82951110306">
		<tag k="fixme" v="consider natural=peak for the most distinct mountains in the district" />
		<tag k="name" v="Barnatørne" />
		<tag k="natural" v="hill" />
		<tag k="place" v="locality" />
		<tag k="ssr:stedsnr" v="237260" />
	</node>
	<node id="-404377" lat="58.7350944475" lon="5.71685555286">
		<tag k="name" v="Lyevollen" />
		<tag k="old_name" v="Lyenvollen" />
		<tag k="place" v="farm" />
		<tag k="ssr:stedsnr" v="234886" />
	</node>
	<node id="-404376" lat="58.707988887" lon="5.76730833905">
		<tag k="name" v="Kjeberget" />
		<tag k="natural" v="hill" />
		<tag k="place" v="locality" />
		<tag k="ssr:stedsnr" v="222429" />
	</node>
	<node id="-404375" lat="58.71458611" lon="5.67905277123">
		<tag k="name" v="Halsen" />
		<tag k="place" v="locality" />
		<tag k="ssr:stedsnr" v="222405" />
	</node>
	<node id="-404374" lat="58.7156472245" lon="5.7077361184">
		<tag k="name" v="Fotlandsfossen" />
		<tag k="natural" v="waterfall" />
		<tag k="ssr:stedsnr" v="222402" />
	</node>
	<node id="-404373" lat="58.7060055188" lon="5.6636039811">
		<tag k="fixme" v="consider place=hamlet" />
		<tag k="name" v="Hognestad" />
		<tag k="place" v="farm" />
		<tag k="ssr:stedsnr" v="222401" />
	</node>
	<node id="-404372" lat="58.7920861144" lon="5.74614722508">
		<tag k="name" v="Legdå" />
		<tag k="place" v="farm" />
		<tag k="ssr:stedsnr" v="206587" />
	</node>
	<node id="-404371" lat="58.7820666624" lon="5.72784722583">
		<tag k="name" v="Hagebyen" />
		<tag k="place" v="quarter" />
		<tag k="ssr:stedsnr" v="206584" />
	</node>
	<node id="-404370" lat="58.752086114" lon="5.69126944224">
		<tag k="alt_name" v="Nåskogen" />
		<tag k="name" v="Njåskogen" />
		<tag k="place" v="locality" />
		<tag k="ssr:stedsnr" v="206410" />
	</node>
	<node id="-404369" lat="58.7500944399" lon="5.68357221563">
		<tag k="name" v="Serikstadholmen" />
		<tag k="place" v="islet" />
		<tag k="ssr:stedsnr" v="206409" />
	</node>
	<node id="-404368" lat="58.7421222183" lon="5.71842221802">
		<tag k="name" v="Risbekken" />
		<tag k="ssr:stedsnr" v="206390" />
		<tag k="waterway" v="stream" />
	</node>
	<node id="-404367" lat="58.7446777738" lon="5.75219722157">
		<tag k="name" v="Tronsmyr" />
		<tag k="natural" v="wetland" />
		<tag k="ssr:stedsnr" v="206223" />
	</node>
	<node id="-404366" lat="58.7707833342" lon="5.7305472239">
		<tag k="fixme" v="consider place=suburb, village or hamlet" />
		<tag k="name" v="Veidene" />
		<tag k="place" v="quarter" />
		<tag k="ssr:stedsnr" v="206166" />
	</node>
	<node id="-404365" lat="58.7627749966" lon="5.82025278382">
		<tag k="name" v="Refnes" />
		<tag k="natural" v="cape" />
		<tag k="ssr:stedsnr" v="206152" />
	</node>
	<node id="-404364" lat="58.7660083378" lon="5.80700833945">
		<tag k="name" v="Foren" />
		<tag k="natural" v="wetland" />
		<tag k="ssr:stedsnr" v="206143" />
	</node>
	<node id="-404363" lat="58.7548027773" lon="5.78739443689">
		<tag k="name" v="Måkeskjær" />
		<tag k="place" v="farm" />
		<tag k="ssr:stedsnr" v="206137" />
	</node>
	<node id="-404362" lat="58.7383666709" lon="5.73574999692">
		<tag k="name" v="Helleberg" />
		<tag k="natural" v="hill" />
		<tag k="place" v="locality" />
		<tag k="ssr:stedsnr" v="206134" />
	</node>
	<node id="-404361" lat="58.7591222208" lon="5.79727777426">
		<tag k="name" v="Revheia" />
		<tag k="natural" v="hill" />
		<tag k="place" v="locality" />
		<tag k="ssr:stedsnr" v="183871" />
	</node>
	<node id="-404360" lat="58.7352805516" lon="5.83305000884">
		<tag k="alt_name" v="Gunnhildstjørn" />
		<tag k="name" v="Gunnhildtjørna" />
		<tag k="natural" v="water" />
		<tag k="old_name" v="Goneltjørna" />
		<tag k="ssr:stedsnr" v="182866" />
	</node>
	<node id="-404359" lat="58.7429026309" lon="5.8277873756">
		<tag k="alt_name" v="Øvre Håland" />
		<tag k="fixme" v="consider place=hamlet" />
		<tag k="name" v="Høga Håland" />
		<tag k="old_name" v="Høg Håland" />
		<tag k="place" v="farm" />
		<tag k="ssr:stedsnr" v="182865" />
	</node>
	<node id="-404358" lat="58.7360361154" lon="5.66991943931">
		<tag k="name" v="Vassbø" />
		<tag k="place" v="farm" />
		<tag k="ssr:stedsnr" v="182840" />
	</node>
	<node id="-404357" lat="58.7486728064" lon="5.74984558436">
		<tag k="alt_name" v="Ulvetjørn" />
		<tag k="name" v="Ulvatjørna" />
		<tag k="natural" v="water" />
		<tag k="ssr:stedsnr" v="182835" />
	</node>
	<node id="-404356" lat="58.7189569597" lon="5.82913440074">
		<tag k="alt_name" v="Sælandsfjell" />
		<tag k="fixme" v="consider natural=peak for the most distinct mountains in the district" />
		<tag k="name" v="Sælandsfjellet" />
		<tag k="natural" v="hill" />
		<tag k="place" v="locality" />
		<tag k="ssr:stedsnr" v="182827" />
	</node>
	<node id="-404355" lat="58.7777447538" lon="5.73206777023">
		<tag k="fixme" v="consider place=hamlet" />
		<tag k="name" v="Frøyland" />
		<tag k="place" v="farm" />
		<tag k="ssr:stedsnr" v="182823" />
	</node>
	<node id="-404354" lat="58.7305579949" lon="5.76281194788">
		<tag k="fixme" v="consider place=hamlet" />
		<tag k="name" v="Salen" />
		<tag k="place" v="farm" />
		<tag k="ssr:stedsnr" v="182799" />
	</node>
	<node id="-404353" lat="58.7006166674" lon="5.75472778556">
		<tag k="name" v="Botn" />
		<tag k="place" v="farm" />
		<tag k="ssr:stedsnr" v="182788" />
	</node>
	<node id="-404352" lat="58.7013611144" lon="5.71546944274">
		<tag k="name" v="Fossebakken" />
		<tag k="place" v="farm" />
		<tag k="ssr:stedsnr" v="182783" />
	</node>
	<node id="-404351" lat="58.7073305538" lon="5.68850555509">
		<tag k="alt_name" v="Ner Oma;Oma nedre" />
		<tag k="name" v="Nedre Oma" />
		<tag k="place" v="farm" />
		<tag k="ssr:stedsnr" v="182775" />
	</node>
	<node id="-404350" lat="58.7066166695" lon="5.73549444427">
		<tag k="name" v="Lendemyrane" />
		<tag k="natural" v="wetland" />
		<tag k="ssr:stedsnr" v="182773" />
	</node>
	<node id="-404349" lat="58.7036694468" lon="5.62780833472">
		<tag k="name" v="Hestholen" />
		<tag k="place" v="farm" />
		<tag k="ssr:stedsnr" v="182768" />
	</node>
	<node id="-404348" lat="58.6894249996" lon="5.81706666643">
		<tag k="name" v="Jembaknuten" />
		<tag k="natural" v="hill" />
		<tag k="place" v="locality" />
		<tag k="ssr:stedsnr" v="182754" />
	</node>
	<node id="-404347" lat="58.6885666633" lon="5.79734444313">
		<tag k="alt_name" v="Hålå" />
		<tag k="name" v="Hola" />
		<tag k="place" v="farm" />
		<tag k="ssr:stedsnr" v="182751" />
	</node>
	<node id="-404346" lat="58.6802000027" lon="5.78252777321">
		<tag k="alt_name" v="Knudaheio (Knudaheibakken)" />
		<tag k="name" v="Knudaheio" />
		<tag k="natural" v="hill" />
		<tag k="place" v="locality" />
		<tag k="ssr:stedsnr" v="182748" />
	</node>
	<node id="-404345" lat="58.6902583374" lon="5.82859167487">
		<tag k="name" v="Snorestad" />
		<tag k="place" v="farm" />
		<tag k="ssr:stedsnr" v="182734" />
	</node>
	<node id="-404344" lat="58.7116343884" lon="5.86332046329">
		<tag k="name" v="Røyrvatnet" />
		<tag k="natural" v="water" />
		<tag k="old_name" v="Røyravatnet" />
		<tag k="ssr:stedsnr" v="182478" />
	</node>
	<node id="-404343" lat="58.6604690367" lon="5.76253113308">
		<tag k="alt_name" v="Helland, øvra;Helland øvre" />
		<tag k="fixme" v="consider place=hamlet" />
		<tag k="name" v="Øvrahelland" />
		<tag k="place" v="farm" />
		<tag k="ssr:stedsnr" v="182293" />
	</node>
	<node id="-404342" lat="58.6631045453" lon="5.7535771886">
		<tag k="alt_name" v="Helland, nedra;Helland nedre" />
		<tag k="fixme" v="consider place=hamlet" />
		<tag k="name" v="Nedrahelland" />
		<tag k="place" v="farm" />
		<tag k="ssr:stedsnr" v="182277" />
	</node>
	<node id="-404341" lat="58.6469291086" lon="5.84325517113">
		<tag k="alt_name" v="Hellevatnet;Hedlevatnet ytre" />
		<tag k="name" v="Ytra Hedlevatnet" />
		<tag k="natural" v="water" />
		<tag k="ssr:stedsnr" v="182239" />
		<tag k="water" v="lake" />
	</node>
	<node id="-404340" lat="58.7290138366" lon="5.65653950378">
		<tag k="name" v="Heiakrå" />
		<tag k="natural" v="slope" />
		<tag k="place" v="locality" />
		<tag k="ssr:stedsnr" v="180290" />
	</node>
	<node id="-404339" lat="58.6762444438" lon="5.79131945097">
		<tag k="name" v="Mærliskaret" />
		<tag k="natural" v="valley" />
		<tag k="place" v="locality" />
		<tag k="ssr:stedsnr" v="176313" />
	</node>
	<node id="-404338" lat="58.677516669" lon="5.82927222247">
		<tag k="fixme" v="consider natural=peak for the most distinct mountains in the district" />
		<tag k="name" v="Steinvorstøl" />
		<tag k="natural" v="hill" />
		<tag k="place" v="locality" />
		<tag k="ssr:stedsnr" v="176253" />
	</node>
	<node id="-404337" lat="58.6501222217" lon="5.81325555412">
		<tag k="fixme" v="consider natural=peak for the most distinct mountains in the district" />
		<tag k="name" v="Steinsfjellet" />
		<tag k="natural" v="hill" />
		<tag k="place" v="locality" />
		<tag k="ssr:stedsnr" v="176252" />
	</node>
	<node id="-404336" lat="58.6173749982" lon="5.81441388517">
		<tag k="man_made" v="cairn" />
		<tag k="name" v="Synesvarden" />
		<tag k="place" v="locality" />
		<tag k="ssr:stedsnr" v="171821" />
	</node>
	<node id="-404335" lat="58.6822000044" lon="5.77741111432">
		<tag k="bridge" v="yes" />
		<tag k="layer" v="1" />
		<tag k="name" v="Undheim" />
		<tag k="ssr:stedsnr" v="168746" />
	</node>
	<node id="-404334" lat="58.7001916661" lon="5.68372222884">
		<tag k="name" v="Grødem" />
		<tag k="place" v="farm" />
		<tag k="ssr:stedsnr" v="164048" />
	</node>
	<node id="-404333" lat="58.779111109" lon="5.77024721558">
		<tag k="name" v="Trolltjørn" />
		<tag k="natural" v="water" />
		<tag k="ssr:stedsnr" v="145616" />
	</node>
	<node id="-404332" lat="58.7817638888" lon="5.73318055115">
		<tag k="name" v="Frøylandsbekken" />
		<tag k="ssr:stedsnr" v="145602" />
		<tag k="waterway" v="stream" />
	</node>
	<node id="-404331" lat="58.7739000001" lon="5.71276111383">
		<tag k="name" v="Netlandstangen" />
		<tag k="natural" v="cape" />
		<tag k="ssr:stedsnr" v="145421" />
	</node>
	<node id="-404330" lat="58.7429194473" lon="5.68049721356">
		<tag k="name" v="Nebbo" />
		<tag k="natural" v="cape" />
		<tag k="ssr:stedsnr" v="145408" />
	</node>
	<node id="-404329" lat="58.7412305535" lon="5.76745000215">
		<tag k="fixme" v="consider natural=peak for the most distinct mountains in the district" />
		<tag k="name" v="Rimnut" />
		<tag k="natural" v="hill" />
		<tag k="place" v="locality" />
		<tag k="ssr:stedsnr" v="145225" />
	</node>
	<node id="-404328" lat="58.7514638863" lon="5.72772777833">
		<tag k="name" v="Småvardene" />
		<tag k="natural" v="hill" />
		<tag k="place" v="locality" />
		<tag k="ssr:stedsnr" v="145224" />
	</node>
	<node id="-404327" lat="58.7472277769" lon="5.77372777686">
		<tag k="name" v="Langaberg" />
		<tag k="natural" v="hill" />
		<tag k="place" v="locality" />
		<tag k="ssr:stedsnr" v="145221" />
	</node>
	<node id="-404326" lat="58.7749749985" lon="5.77676666391">
		<tag k="name" v="Nunberg" />
		<tag k="natural" v="hill" />
		<tag k="place" v="locality" />
		<tag k="ssr:stedsnr" v="145125" />
	</node>
	<node id="-404325" lat="58.7391305514" lon="5.73156666942">
		<tag k="fixme" v="consider natural=peak for the most distinct mountains in the district" />
		<tag k="name" v="Langeto" />
		<tag k="natural" v="hill" />
		<tag k="place" v="locality" />
		<tag k="ssr:stedsnr" v="145124" />
	</node>
	<node id="-404323" lat="58.6607055515" lon="5.85194444228">
		<tag k="fixme" v="consider natural=peak for the most distinct mountains in the district" />
		<tag k="name" v="Skarkjen" />
		<tag k="natural" v="hill" />
		<tag k="place" v="locality" />
		<tag k="ssr:stedsnr" v="144227" />
	</node>
	<node id="-404322" lat="58.7392673946" lon="5.75725223436">
		<tag k="fixme" v="consider place=hamlet" />
		<tag k="name" v="Åsen" />
		<tag k="place" v="farm" />
		<tag k="ssr:stedsnr" v="121859" />
	</node>
	<node id="-404321" lat="58.729508331" lon="5.60722777418">
		<tag k="alt_name" v="Trollaskeidane" />
		<tag k="name" v="Trollaskeio" />
		<tag k="place" v="farm" />
		<tag k="ssr:stedsnr" v="121852" />
	</node>
	<node id="-404320" lat="58.7316096399" lon="5.65478426534">
		<tag k="fixme" v="consider place=hamlet" />
		<tag k="name" v="Rossaland" />
		<tag k="place" v="farm" />
		<tag k="ssr:stedsnr" v="121850" />
	</node>
	<node id="-404319" lat="58.726373259" lon="5.69555543017">
		<tag k="alt_name" v="Time" />
		<tag k="amenity" v="place_of_worship" />
		<tag k="denomination" v="lutheran" />
		<tag k="name" v="Time kyrkje" />
		<tag k="religion" v="christian" />
		<tag k="ssr:stedsnr" v="121813" />
	</node>
	<node id="-404318" lat="58.7038083375" lon="5.66833055623">
		<tag k="name" v="Hognestad" />
		<tag k="place" v="farm" />
		<tag k="ssr:stedsnr" v="121799" />
	</node>
	<node id="-404317" lat="58.7081333328" lon="5.73041388351">
		<tag k="name" v="Trarheia" />
		<tag k="old_name" v="Tranheia" />
		<tag k="place" v="farm" />
		<tag k="ssr:stedsnr" v="121779" />
	</node>
	<node id="-404316" lat="58.6800500025" lon="5.70561944164">
		<tag k="name" v="Garborg" />
		<tag k="place" v="farm" />
		<tag k="ssr:stedsnr" v="121756" />
	</node>
	<node id="-404315" lat="58.6592194482" lon="5.79641389519">
		<tag k="alt_name" v="Storemyråa" />
		<tag k="name" v="Stormyråna" />
		<tag k="ssr:stedsnr" v="121307" />
		<tag k="waterway" v="stream" />
	</node>
	<node id="-404314" lat="58.650580559" lon="5.79736666797">
		<tag k="name" v="Grasliholen" />
		<tag k="place" v="locality" />
		<tag k="ssr:stedsnr" v="121259" />
	</node>
	<node id="-404313" lat="58.7134444433" lon="5.6634416686">
		<tag k="name" v="Smukkeholen" />
		<tag k="natural" v="hill" />
		<tag k="place" v="locality" />
		<tag k="ssr:stedsnr" v="120288" />
	</node>
	<node id="-404312" lat="58.6949000044" lon="5.6799611124">
		<tag k="name" v="Øgard" />
		<tag k="place" v="farm" />
		<tag k="ssr:stedsnr" v="118417" />
	</node>
	<node id="-404311" lat="58.7286027816" lon="5.75143056062">
		<tag k="name" v="Lyngholmen" />
		<tag k="place" v="islet" />
		<tag k="ssr:stedsnr" v="116500" />
	</node>
	<node id="-404310" lat="58.7150972244" lon="5.77259166439">
		<tag k="name" v="Haugabakken" />
		<tag k="natural" v="hill" />
		<tag k="place" v="locality" />
		<tag k="ssr:stedsnr" v="116498" />
	</node>
	<node id="-404309" lat="58.6842361076" lon="5.68064166802">
		<tag k="bridge" v="yes" />
		<tag k="layer" v="1" />
		<tag k="name" v="Njølstad" />
		<tag k="ssr:stedsnr" v="107761" />
	</node>
	<node id="-404308" lat="58.7004722214" lon="5.67856666708">
		<tag k="name" v="Grødem" />
		<tag k="place" v="farm" />
		<tag k="ssr:stedsnr" v="104068" />
	</node>
	<node id="-404307" lat="58.7218972219" lon="5.79991944483">
		<tag k="name" v="Floen" />
		<tag k="place" v="farm" />
		<tag k="ssr:stedsnr" v="101488" />
	</node>
	<node id="-404306" lat="58.7001361131" lon="5.73890278596">
		<tag k="name" v="Mossigemarkene" />
		<tag k="place" v="locality" />
		<tag k="ssr:stedsnr" v="101470" />
	</node>
	<node id="-404305" lat="58.7848055548" lon="5.740666663">
		<tag k="name" v="Revholen" />
		<tag k="natural" v="hill" />
		<tag k="place" v="locality" />
		<tag k="ssr:stedsnr" v="85536" />
	</node>
	<node id="-404304" lat="58.7463250017" lon="5.71857222613">
		<tag k="name" v="Barklandshagane" />
		<tag k="place" v="locality" />
		<tag k="ssr:stedsnr" v="85362" />
	</node>
	<node id="-404303" lat="58.734883336" lon="5.64929444599">
		<tag k="name" v="Bryne stasjon" />
		<tag k="railway" v="station" />
		<tag k="ssr:stedsnr" v="84431" />
		<tag k="train" v="yes" />
	</node>
	<node id="-404302" lat="58.7410972251" lon="5.65900555071">
		<tag k="fixme" v="consider boundary=protected_area and relevant protect_class if not nature reserve" />
		<tag k="leisure" v="nature_reserve" />
		<tag k="name" v="Sandtangen" />
		<tag k="ssr:stedsnr" v="84429" />
	</node>
	<node id="-404301" lat="58.7580977018" lon="5.69506877729">
		<tag k="name" v="Siritjørn" />
		<tag k="natural" v="water" />
		<tag k="ssr:stedsnr" v="84506" />
	</node>
	<node id="-404300" lat="58.7492500008" lon="5.81313889455">
		<tag k="name" v="Villarås" />
		<tag k="place" v="locality" />
		<tag k="ssr:stedsnr" v="84245" />
	</node>
	<node id="-404299" lat="58.7494777764" lon="5.74115555821">
		<tag k="name" v="Langemyr" />
		<tag k="natural" v="wetland" />
		<tag k="ssr:stedsnr" v="84257" />
	</node>
	<node id="-404298" lat="58.750949996" lon="5.72476111722">
		<tag k="name" v="Skogaskaret" />
		<tag k="natural" v="slope" />
		<tag k="place" v="locality" />
		<tag k="ssr:stedsnr" v="84254" />
	</node>
	<node id="-404297" lat="58.7379527818" lon="5.74371110547">
		<tag k="landuse" v="meadow" />
		<tag k="name" v="Ragnestøl" />
		<tag k="ssr:stedsnr" v="84161" />
	</node>
	<node id="-404296" lat="58.7409999963" lon="5.74135555377">
		<tag k="name" v="Monsanut" />
		<tag k="natural" v="hill" />
		<tag k="place" v="locality" />
		<tag k="ssr:stedsnr" v="84158" />
	</node>
	<node id="-404295" lat="58.7398333334" lon="5.77366110252">
		<tag k="fixme" v="consider natural=peak for the most distinct mountains in the district" />
		<tag k="name" v="Nordre Håfjell" />
		<tag k="natural" v="hill" />
		<tag k="place" v="locality" />
		<tag k="ssr:stedsnr" v="84157" />
	</node>
	<node id="-404294" lat="58.7366777816" lon="5.75227778071">
		<tag k="name" v="Løberg" />
		<tag k="natural" v="hill" />
		<tag k="place" v="locality" />
		<tag k="ssr:stedsnr" v="84155" />
	</node>
	<node id="-404293" lat="58.6310166674" lon="5.84436110781">
		<tag k="fixme" v="consider natural=peak for the most distinct mountains in the district" />
		<tag k="name" v="Middagsfjellet" />
		<tag k="natural" v="hill" />
		<tag k="place" v="locality" />
		<tag k="ssr:stedsnr" v="83140" />
	</node>
	<node id="-404292" lat="58.6759632824" lon="5.87874508109">
		<tag k="alt_name" v="Tjorsvatnet" />
		<tag k="name" v="Stokketjørsvatnet" />
		<tag k="natural" v="water" />
		<tag k="ssr:stedsnr" v="83172" />
		<tag k="water" v="lake" />
	</node>
	<node id="-404291" lat="58.6849333303" lon="5.85885554949">
		<tag k="fixme" v="consider natural=peak for the most distinct mountains in the district" />
		<tag k="name" v="Husafjell" />
		<tag k="natural" v="hill" />
		<tag k="place" v="locality" />
		<tag k="ssr:stedsnr" v="83169" />
	</node>
	<node id="-404290" lat="58.7404944409" lon="5.6542277774">
		<tag k="fixme" v="consider place=suburb, village or hamlet" />
		<tag k="name" v="Vardheia" />
		<tag k="place" v="quarter" />
		<tag k="ssr:stedsnr" v="61888" />
	</node>
	<node id="-404289" lat="58.7274194452" lon="5.72125556068">
		<tag k="name" v="Ekra" />
		<tag k="place" v="farm" />
		<tag k="ssr:stedsnr" v="61803" />
	</node>
	<node id="-404288" lat="58.6857804098" lon="5.7272811766">
		<tag k="fixme" v="consider place=hamlet" />
		<tag k="name" v="Tjensvoll" />
		<tag k="place" v="farm" />
		<tag k="ssr:stedsnr" v="61754" />
	</node>
	<node id="-404287" lat="58.6928166679" lon="5.86072500026">
		<tag k="name" v="Grunnavatnet" />
		<tag k="natural" v="water" />
		<tag k="ssr:stedsnr" v="61445" />
		<tag k="water" v="lake" />
	</node>
	<node id="-404286" lat="58.67577742" lon="5.86722435462">
		<tag k="alt_name" v="Nipevatnet" />
		<tag k="name" v="Nipetjørna" />
		<tag k="natural" v="water" />
		<tag k="old_name" v="Nipatjørna" />
		<tag k="ssr:stedsnr" v="61433" />
	</node>
	<node id="-404285" lat="58.6544388893" lon="5.819308335">
		<tag k="name" v="Solbergvatnet" />
		<tag k="natural" v="water" />
		<tag k="ssr:stedsnr" v="61297" />
		<tag k="water" v="lake" />
	</node>
	<node id="-404284" lat="58.6633416624" lon="5.83626388634">
		<tag k="fixme" v="consider natural=peak for the most distinct mountains in the district" />
		<tag k="name" v="Stertebrekka" />
		<tag k="natural" v="hill" />
		<tag k="place" v="locality" />
		<tag k="ssr:stedsnr" v="61296" />
	</node>
	<node id="-404283" lat="58.6760805537" lon="5.82218333868">
		<tag k="name" v="Holen" />
		<tag k="place" v="farm" />
		<tag k="ssr:stedsnr" v="61268" />
	</node>
	<node id="-404282" lat="58.7200916654" lon="5.8138861065">
		<tag k="name" v="Kleiva" />
		<tag k="place" v="farm" />
		<tag k="ssr:stedsnr" v="60855" />
	</node>
	<node id="-404281" lat="58.7177958128" lon="5.74964114231">
		<tag k="fixme" v="consider place=hamlet" />
		<tag k="name" v="Garpestad" />
		<tag k="place" v="farm" />
		<tag k="ssr:stedsnr" v="60843" />
	</node>
	<node id="-404280" lat="58.7190361118" lon="5.64268888836">
		<tag k="name" v="Breimyra" />
		<tag k="natural" v="wetland" />
		<tag k="ssr:stedsnr" v="59301" />
	</node>
	<node id="-404279" lat="58.6750611084" lon="5.78932222829">
		<tag k="name" v="Kvernaberget" />
		<tag k="natural" v="hill" />
		<tag k="place" v="locality" />
		<tag k="ssr:stedsnr" v="55267" />
	</node>
	<node id="-404278" lat="58.7828277757" lon="5.71553333695">
		<tag k="bridge" v="yes" />
		<tag k="layer" v="1" />
		<tag k="name" v="Frøyland" />
		<tag k="ssr:stedsnr" v="46776" />
	</node>
	<node id="-404277" lat="58.6329666705" lon="5.83440000267">
		<tag k="name" v="Kartavoll" />
		<tag k="place" v="farm" />
		<tag k="ssr:stedsnr" v="43046" />
	</node>
	<node id="-404276" lat="58.6946499984" lon="5.69758055771">
		<tag k="name" v="Grødeimsmarkene" />
		<tag k="place" v="locality" />
		<tag k="ssr:stedsnr" v="41458" />
	</node>
	<node id="-404275" lat="58.7300722236" lon="5.8258361061">
		<tag k="fixme" v="consider natural=peak for the most distinct mountains in the district" />
		<tag k="name" v="Husafjell" />
		<tag k="natural" v="hill" />
		<tag k="place" v="locality" />
		<tag k="ssr:stedsnr" v="40499" />
	</node>
	<node id="-404274" lat="58.6996388854" lon="5.82505000668">
		<tag k="name" v="Longemyr" />
		<tag k="natural" v="wetland" />
		<tag k="ssr:stedsnr" v="40493" />
	</node>
	<node id="-404273" lat="58.7164611096" lon="5.80936667534">
		<tag k="name" v="Åna" />
		<tag k="ssr:stedsnr" v="40483" />
		<tag k="waterway" v="stream" />
	</node>
	<node id="-404272" lat="58.6873777776" lon="5.70028889613">
		<tag k="fixme" v="consider natural=peak for the most distinct mountains in the district" />
		<tag k="name" v="Garborgåsen" />
		<tag k="natural" v="hill" />
		<tag k="place" v="locality" />
		<tag k="ssr:stedsnr" v="39297" />
	</node>
	<node id="-404271" lat="58.7510638907" lon="5.70472222242">
		<tag k="landuse" v="meadow" />
		<tag k="name" v="Stemmen" />
		<tag k="ssr:stedsnr" v="24429" />
	</node>
	<node id="-404270" lat="58.7339777789" lon="5.63199444793">
		<tag k="name" v="Roslandsåna" />
		<tag k="ssr:stedsnr" v="24404" />
		<tag k="waterway" v="river" />
	</node>
	<node id="-404269" lat="58.7464111077" lon="5.75209166362">
		<tag k="name" v="Tronsberg" />
		<tag k="natural" v="hill" />
		<tag k="place" v="locality" />
		<tag k="ssr:stedsnr" v="24211" />
	</node>
	<node id="-404268" lat="58.7458027783" lon="5.80365000453">
		<tag k="landuse" v="meadow" />
		<tag k="name" v="Kvithei" />
		<tag k="ssr:stedsnr" v="24204" />
	</node>
	<node id="-404267" lat="58.7517333332" lon="5.77357499813">
		<tag k="name" v="Langamyr" />
		<tag k="natural" v="wetland" />
		<tag k="ssr:stedsnr" v="24201" />
	</node>
	<node id="-404266" lat="58.7361916667" lon="5.76823610949">
		<tag k="name" v="Hådal" />
		<tag k="natural" v="valley" />
		<tag k="place" v="locality" />
		<tag k="ssr:stedsnr" v="24199" />
	</node>
	<node id="-404265" lat="58.7706444403" lon="5.74188333999">
		<tag k="name" v="Hådalen" />
		<tag k="natural" v="valley" />
		<tag k="place" v="locality" />
		<tag k="ssr:stedsnr" v="24115" />
	</node>
	<node id="-404264" lat="58.7727361142" lon="5.72167222714">
		<tag k="name" v="Gåsevik" />
		<tag k="natural" v="bay" />
		<tag k="ssr:stedsnr" v="24110" />
	</node>
	<node id="-404263" lat="58.7701777818" lon="5.79534999605">
		<tag k="name" v="Storehol" />
		<tag k="natural" v="hill" />
		<tag k="place" v="locality" />
		<tag k="ssr:stedsnr" v="24109" />
	</node>
	<node id="-404262" lat="58.6247916659" lon="5.87208055596">
		<tag k="name" v="Toraknuten" />
		<tag k="natural" v="hill" />
		<tag k="place" v="locality" />
		<tag k="ssr:stedsnr" v="23753" />
	</node>
	<node id="-404261" lat="58.7157805581" lon="5.86539166844">
		<tag k="name" v="Røyrlia" />
		<tag k="natural" v="slope" />
		<tag k="place" v="locality" />
		<tag k="ssr:stedsnr" v="23750" />
	</node>
	<node id="-404260" lat="58.7179722904" lon="5.85441035998">
		<tag k="name" v="Moldtjørn" />
		<tag k="natural" v="water" />
		<tag k="ssr:stedsnr" v="23749" />
	</node>
	<node id="-404259" lat="58.7282805572" lon="5.85550556341">
		<tag k="name" v="Skogåna" />
		<tag k="ssr:stedsnr" v="23713" />
		<tag k="waterway" v="stream" />
	</node>
	<node id="-404258" lat="58.656019443" lon="5.84617500151">
		<tag k="alt_name" v="Ulvarulla" />
		<tag k="fixme" v="consider natural=peak for the most distinct mountains in the district" />
		<tag k="name" v="Ulverudla" />
		<tag k="natural" v="hill" />
		<tag k="place" v="locality" />
		<tag k="ssr:stedsnr" v="23251" />
	</node>
	<node id="-404257" lat="58.6718345069" lon="5.85996189416">
		<tag k="name" v="Dusjatjørna" />
		<tag k="natural" v="water" />
		<tag k="ssr:stedsnr" v="23232" />
		<tag k="water" v="lake" />
	</node>
	<node id="-404256" lat="58.685224997" lon="5.88257221655">
		<tag k="fixme" v="consider natural=peak for the most distinct mountains in the district" />
		<tag k="name" v="Tufjellet" />
		<tag k="natural" v="hill" />
		<tag k="place" v="locality" />
		<tag k="ssr:stedsnr" v="23227" />
	</node>
	<node id="-404255" lat="58.6835583344" lon="5.83239445266">
		<tag k="name" v="Skårlandsvatnet" />
		<tag k="natural" v="water" />
		<tag k="ssr:stedsnr" v="23224" />
		<tag k="water" v="lake" />
	</node>
	<node id="-404254" lat="58.7347138921" lon="5.83685556007">
		<tag k="name" v="Migaren" />
		<tag k="natural" v="waterfall" />
		<tag k="ssr:stedsnr" v="23120" />
	</node>
	<node id="-404253" lat="58.7292221385" lon="5.63539143009">
		<tag k="alt_name" v="Re" />
		<tag k="name" v="Reehaugen" />
		<tag k="place" v="farm" />
		<tag k="ssr:stedsnr" v="1179" />
	</node>
	<node id="-404252" lat="58.7033623144" lon="5.78093524045">
		<tag k="fixme" v="consider place=hamlet" />
		<tag k="name" v="Taksdal" />
		<tag k="place" v="farm" />
		<tag k="ssr:stedsnr" v="1177" />
	</node>
	<node id="-404251" lat="58.7432750022" lon="5.67347500565">
		<tag k="name" v="Frøylandsvatnet" />
		<tag k="natural" v="water" />
		<tag k="ssr:stedsnr" v="902" />
		<tag k="water" v="lake" />
	</node>
	<node id="-404250" lat="58.7667130336" lon="5.78203682531">
		<tag k="alt_name" v="Frøylandsmyrane" />
		<tag k="name" v="Myrvang" />
		<tag k="place" v="farm" />
		<tag k="ssr:stedsnr" v="864" />
	</node>
	<node id="-404249" lat="58.7558944464" lon="5.71361389216">
		<tag k="name" v="Njå" />
		<tag k="place" v="farm" />
		<tag k="ssr:stedsnr" v="863" />
	</node>
	<node id="-404248" lat="58.7489166621" lon="5.77858888299">
		<tag k="alt_name" v="Eikelandsmyrane" />
		<tag k="name" v="Åsen" />
		<tag k="place" v="farm" />
		<tag k="ssr:stedsnr" v="846" />
	</node>
	<node id="-404247" lat="58.7205897492" lon="5.70842574179">
		<tag k="fixme" v="consider place=hamlet" />
		<tag k="name" v="Skrudland" />
		<tag k="place" v="farm" />
		<tag k="ssr:stedsnr" v="825" />
	</node>
	<node id="-404246" lat="58.7121223604" lon="5.74946509839">
		<tag k="fixme" v="consider place=hamlet" />
		<tag k="name" v="Lende" />
		<tag k="place" v="farm" />
		<tag k="ssr:stedsnr" v="790" />
	</node>
	<node id="-404245" lat="58.6776416631" lon="5.758294444">
		<tag k="name" v="Tunheim" />
		<tag k="place" v="farm" />
		<tag k="ssr:stedsnr" v="780" />
	</node>
	<node id="-404244" lat="58.6865444465" lon="5.70894167182">
		<tag k="fixme" v="consider place=hamlet" />
		<tag k="name" v="Garborg" />
		<tag k="place" v="farm" />
		<tag k="ssr:stedsnr" v="753" />
	</node>
	<node id="-404243" lat="58.6416888865" lon="5.81891944962">
		<tag k="alt_name" v="Litlamos" />
		<tag k="name" v="Litlamoset" />
		<tag k="natural" v="water" />
		<tag k="ssr:stedsnr" v="277" />
		<tag k="water" v="lake" />
	</node>
	<node id="-404242" lat="58.7276901476" lon="5.74983010851">
		<tag k="name" v="Salvatnet" />
		<tag k="natural" v="water" />
		<tag k="ssr:stedsnr" v="814" />
		<tag k="water" v="lake" />
	</node>
	<node id="-404237" lat="58.7372303003" lon="5.64469869891">
		<tag k="amenity" v="place_of_worship" />
		<tag k="denomination" v="lutheran" />
		<tag k="name" v="Bryne kyrkje" />
		<tag k="religion" v="christian" />
		<tag k="ssr:stedsnr" v="991182" />
	</node>
	<node id="-404236" lat="58.7308305574" lon="5.86246666689">
		<tag k="name" v="Røssetjørna" />
		<tag k="natural" v="water" />
		<tag k="ssr:stedsnr" v="382" />
	</node>
	<node id="-404235" lat="58.6340249987" lon="5.79405833687">
		<tag k="name" v="Storamoset" />
		<tag k="natural" v="water" />
		<tag k="ssr:stedsnr" v="667265" />
		<tag k="water" v="lake" />
	</node>
	<node id="-404234" lat="58.7622903974" lon="5.82684235289">
		<tag k="alt_name" v="Øygardsvatnet" />
		<tag k="name" v="Fjermestadvatnet" />
		<tag k="natural" v="water" />
		<tag k="ssr:stedsnr" v="911850" />
		<tag k="water" v="lake" />
	</node>
	<node id="-404233" lat="58.7550638867" lon="5.70268888958">
		<tag k="bridge" v="yes" />
		<tag k="layer" v="1" />
		<tag k="name" v="Njå" />
		<tag k="ssr:stedsnr" v="896782" />
	</node>
	<node id="-404232" lat="58.7667416669" lon="5.71902500005">
		<tag k="bridge" v="yes" />
		<tag k="layer" v="1" />
		<tag k="name" v="Kverneland" />
		<tag k="ssr:stedsnr" v="896778" />
	</node>
	<node id="-404231" lat="58.7359611091" lon="5.65756667507">
		<tag k="name" v="Rossaland" />
		<tag k="place" v="farm" />
		<tag k="ssr:stedsnr" v="893176" />
	</node>
	<node id="-404230" lat="58.7329361086" lon="5.75465554825">
		<tag k="fixme" v="consider natural=peak for the most distinct mountains in the district" />
		<tag k="name" v="Geitefjell" />
		<tag k="natural" v="hill" />
		<tag k="place" v="locality" />
		<tag k="ssr:stedsnr" v="892488" />
	</node>
	<node id="-404229" lat="58.7183944446" lon="5.78914721678">
		<tag k="name" v="Lyngaland" />
		<tag k="place" v="locality" />
		<tag k="ssr:stedsnr" v="890517" />
	</node>
	<node id="-404228" lat="58.6876694447" lon="5.76989722412">
		<tag k="name" v="Bjønnholen" />
		<tag k="natural" v="hill" />
		<tag k="place" v="locality" />
		<tag k="ssr:stedsnr" v="889338" />
	</node>
	<node id="-404227" lat="58.715627782" lon="5.70799999221">
		<tag k="bridge" v="yes" />
		<tag k="layer" v="1" />
		<tag k="name" v="Fotland" />
		<tag k="ssr:stedsnr" v="411747" />
	</node>
	<node id="-404226" lat="58.6770194428" lon="5.82426110535">
		<tag k="bridge" v="yes" />
		<tag k="layer" v="1" />
		<tag k="name" v="Tjåland" />
		<tag k="ssr:stedsnr" v="411733" />
	</node>
	<node id="-404225" lat="58.6823222224" lon="5.70493333607">
		<tag k="bridge" v="yes" />
		<tag k="layer" v="1" />
		<tag k="name" v="Risebekken" />
		<tag k="ssr:stedsnr" v="411727" />
	</node>
	<node id="-404224" lat="58.7023083344" lon="5.67712777886">
		<tag k="bridge" v="yes" />
		<tag k="layer" v="1" />
		<tag k="name" v="Grødem" />
		<tag k="ssr:stedsnr" v="411724" />
	</node>
	<node id="-404223" lat="58.7103694449" lon="5.6783499946">
		<tag k="name" v="Rindå" />
		<tag k="place" v="locality" />
		<tag k="ssr:stedsnr" v="406472" />
	</node>
	<node id="-404222" lat="58.7212083352" lon="5.82684999329">
		<tag k="fixme" v="consider natural=peak for the most distinct mountains in the district" />
		<tag k="name" v="Bukkenuten" />
		<tag k="natural" v="hill" />
		<tag k="place" v="locality" />
		<tag k="ssr:stedsnr" v="404467" />
	</node>
	<node id="-404221" lat="58.7012472184" lon="5.65160555664">
		<tag k="name" v="Heia" />
		<tag k="place" v="farm" />
		<tag k="ssr:stedsnr" v="404420" />
	</node>
	<node id="-404220" lat="58.7075092274" lon="5.6566724668">
		<tag k="name" v="Hågenholen" />
		<tag k="natural" v="hill" />
		<tag k="place" v="locality" />
		<tag k="ssr:stedsnr" v="404419" />
	</node>
	<node id="-404219" lat="58.6836083356" lon="5.70791111545">
		<tag k="name" v="Garborgforane" />
		<tag k="natural" v="wetland" />
		<tag k="ssr:stedsnr" v="404337" />
	</node>
	<node id="-404218" lat="58.6648166702" lon="5.75893611821">
		<tag k="fixme" v="consider place=hamlet" />
		<tag k="name" v="Helland" />
		<tag k="place" v="village" />
		<tag k="ssr:stedsnr" v="390489" />
	</node>
	<node id="-404217" lat="58.7767388866" lon="5.75480554985">
		<tag k="landuse" v="meadow" />
		<tag k="name" v="Høgaleite" />
		<tag k="ssr:stedsnr" v="388595" />
	</node>
	<node id="-404216" lat="58.7874545467" lon="5.77682580005">
		<tag k="name" v="Møgedalstjørn" />
		<tag k="natural" v="water" />
		<tag k="ssr:stedsnr" v="387669" />
	</node>
	<node id="-404215" lat="58.7841222267" lon="5.800869452">
		<tag k="name" v="Figvedtjørn" />
		<tag k="natural" v="water" />
		<tag k="ssr:stedsnr" v="387665" />
	</node>
	<node id="-404214" lat="58.7667527747" lon="5.71598054848">
		<tag k="name" v="Kringlemyr" />
		<tag k="natural" v="wetland" />
		<tag k="ssr:stedsnr" v="387509" />
	</node>
	<node id="-404213" lat="58.741383336" lon="5.66449166779">
		<tag k="fixme" v="consider boundary=protected_area and relevant protect_class if not nature reserve" />
		<tag k="leisure" v="nature_reserve" />
		<tag k="name" v="Bryneholmen" />
		<tag k="ssr:stedsnr" v="387443" />
	</node>
	<node id="-404212" lat="58.7435361144" lon="5.70441667482">
		<tag k="name" v="Kvitholen" />
		<tag k="place" v="farm" />
		<tag k="ssr:stedsnr" v="387442" />
	</node>
	<node id="-404211" lat="58.744394445" lon="5.77069445204">
		<tag k="name" v="Hagaberg" />
		<tag k="natural" v="hill" />
		<tag k="place" v="locality" />
		<tag k="ssr:stedsnr" v="387260" />
	</node>
	<node id="-404210" lat="58.7503083375" lon="5.74381110485">
		<tag k="fixme" v="consider natural=peak for the most distinct mountains in the district" />
		<tag k="name" v="Prekestolen" />
		<tag k="natural" v="hill" />
		<tag k="place" v="locality" />
		<tag k="ssr:stedsnr" v="387259" />
	</node>
	<node id="-404209" lat="58.6568819471" lon="5.85238512258">
		<tag k="name" v="Solkatjørna" />
		<tag k="natural" v="water" />
		<tag k="ssr:stedsnr" v="387211" />
		<tag k="water" v="lake" />
	</node>
	<node id="-404208" lat="58.7625000021" lon="5.74763610841">
		<tag k="name" v="Kvitemyr" />
		<tag k="natural" v="wetland" />
		<tag k="ssr:stedsnr" v="387175" />
	</node>
	<node id="-404207" lat="58.7555249976" lon="5.7278222221">
		<tag k="name" v="Rudlå" />
		<tag k="ssr:stedsnr" v="387158" />
		<tag k="tourism" v="viewpoint" />
	</node>
	<node id="-404206" lat="58.7728805545" lon="5.80871666323">
		<tag k="name" v="Fuglaberg" />
		<tag k="natural" v="hill" />
		<tag k="place" v="locality" />
		<tag k="ssr:stedsnr" v="387153" />
	</node>
	<node id="-404205" lat="58.7335333335" lon="5.75496667256">
		<tag k="fixme" v="consider natural=peak for the most distinct mountains in the district" />
		<tag k="name" v="Koltanåsa" />
		<tag k="natural" v="hill" />
		<tag k="place" v="locality" />
		<tag k="ssr:stedsnr" v="387143" />
	</node>
	<node id="-404204" lat="58.734733336" lon="5.76290556257">
		<tag k="fixme" v="consider natural=peak for the most distinct mountains in the district" />
		<tag k="name" v="Vanglafjell" />
		<tag k="natural" v="hill" />
		<tag k="place" v="locality" />
		<tag k="ssr:stedsnr" v="387144" />
	</node>
	<node id="-404203" lat="58.6229444458" lon="5.86965833395">
		<tag k="fixme" v="consider natural=peak for the most distinct mountains in the district" />
		<tag k="name" v="Bruaberget" />
		<tag k="natural" v="hill" />
		<tag k="place" v="locality" />
		<tag k="ssr:stedsnr" v="386725" />
	</node>
	<node id="-404202" lat="58.686244446" lon="5.91766389291">
		<tag k="fixme" v="consider natural=peak for the most distinct mountains in the district" />
		<tag k="name" v="Heddane" />
		<tag k="natural" v="hill" />
		<tag k="place" v="locality" />
		<tag k="ssr:stedsnr" v="386217" />
	</node>
	<node id="-404201" lat="58.6861944424" lon="5.89853055205">
		<tag k="name" v="Bjønndalen" />
		<tag k="natural" v="valley" />
		<tag k="place" v="locality" />
		<tag k="ssr:stedsnr" v="386216" />
	</node>
	<node id="-404200" lat="58.6370713228" lon="5.84838619932">
		<tag k="name" v="Husavatnet" />
		<tag k="natural" v="water" />
		<tag k="ssr:stedsnr" v="386165" />
		<tag k="water" v="lake" />
	</node>
	<node id="-404199" lat="58.7877782707" lon="5.78695448222">
		<tag k="fixme" v="consider natural=peak for the most distinct mountains in the district" />
		<tag k="name" v="Åslandsnuten" />
		<tag k="natural" v="hill" />
		<tag k="place" v="locality" />
		<tag k="ssr:stedsnr" v="365852" />
	</node>
	<node id="-404198" lat="58.7639250018" lon="5.77780277732">
		<tag k="name" v="Litleklubb" />
		<tag k="place" v="farm" />
		<tag k="ssr:stedsnr" v="364885" />
	</node>
	<node id="-404197" lat="58.6831305572" lon="5.80852777719">
		<tag k="name" v="Alatjørna" />
		<tag k="natural" v="water" />
		<tag k="ssr:stedsnr" v="364785" />
	</node>
	<node id="-404196" lat="58.6969083309" lon="5.76125554902">
		<tag k="name" v="Araberget" />
		<tag k="natural" v="hill" />
		<tag k="place" v="locality" />
		<tag k="ssr:stedsnr" v="364770" />
	</node>
	<node id="-404195" lat="58.6884666622" lon="5.75276388382">
		<tag k="name" v="Voll" />
		<tag k="place" v="farm" />
		<tag k="ssr:stedsnr" v="364765" />
	</node>
	<node id="-404194" lat="58.680113886" lon="5.86850832686">
		<tag k="alt_name" v="Hedlevatnet" />
		<tag k="name" v="Hellevatnet" />
		<tag k="natural" v="water" />
		<tag k="ssr:stedsnr" v="364446" />
	</node>
	<node id="-404193" lat="58.7227777822" lon="5.85695278382">
		<tag k="name" v="Skogen" />
		<tag k="place" v="isolated_dwelling" />
		<tag k="ssr:stedsnr" v="364414" />
	</node>
	<node id="-404192" lat="58.6525444473" lon="5.78285278109">
		<tag k="name" v="Hellandsmyra" />
		<tag k="natural" v="wetland" />
		<tag k="ssr:stedsnr" v="364308" />
	</node>
	<node id="-404191" lat="58.644841663" lon="5.85639444775">
		<tag k="fixme" v="consider natural=peak for the most distinct mountains in the district" />
		<tag k="name" v="Storafjellet" />
		<tag k="natural" v="hill" />
		<tag k="place" v="locality" />
		<tag k="ssr:stedsnr" v="364052" />
	</node>
	<node id="-404190" lat="58.7165500028" lon="5.66908610904">
		<tag k="name" v="Herigstad" />
		<tag k="place" v="farm" />
		<tag k="ssr:stedsnr" v="364856" />
	</node>
	<node id="-404189" lat="58.7695888928" lon="5.78648889348">
		<tag k="fixme" v="consider natural=peak for the most distinct mountains in the district" />
		<tag k="name" v="Lauvåsen" />
		<tag k="natural" v="hill" />
		<tag k="place" v="locality" />
		<tag k="ssr:stedsnr" v="364839" />
	</node>
	<node id="-404188" lat="58.7072388889" lon="5.83715555768">
		<tag k="alt_name" v="Risstølnuten" />
		<tag k="fixme" v="consider natural=peak for the most distinct mountains in the district" />
		<tag k="name" v="Ristølnuten" />
		<tag k="natural" v="hill" />
		<tag k="place" v="locality" />
		<tag k="ssr:stedsnr" v="364809" />
	</node>
	<node id="-404187" lat="58.7124388885" lon="5.82818055121">
		<tag k="alt_name" v="Moldtjørn" />
		<tag k="name" v="Moldtjørna" />
		<tag k="natural" v="water" />
		<tag k="ssr:stedsnr" v="364807" />
	</node>
	<node id="-404186" lat="58.6536972187" lon="5.75993334068">
		<tag k="name" v="Hellandsmarkene" />
		<tag k="place" v="locality" />
		<tag k="ssr:stedsnr" v="358258" />
	</node>
	<node id="-404185" lat="58.6835805553" lon="5.70384722776">
		<tag k="bridge" v="yes" />
		<tag k="layer" v="1" />
		<tag k="name" v="Garborg" />
		<tag k="ssr:stedsnr" v="350738" />
	</node>
	<node id="-404184" lat="58.7172944413" lon="5.62249722784">
		<tag k="bridge" v="yes" />
		<tag k="layer" v="1" />
		<tag k="name" v="Linebakken" />
		<tag k="ssr:stedsnr" v="350722" />
	</node>
	<node id="-404183" lat="58.7272333291" lon="5.6213499971">
		<tag k="name" v="Re" />
		<tag k="place" v="farm" />
		<tag k="ssr:stedsnr" v="346185" />
	</node>
	<node id="-404182" lat="58.717030553" lon="5.67209999972">
		<tag k="name" v="Herigstad" />
		<tag k="place" v="farm" />
		<tag k="ssr:stedsnr" v="346075" />
	</node>
	<node id="-404181" lat="58.7176666705" lon="5.67095000539">
		<tag k="name" v="Herigstad" />
		<tag k="place" v="farm" />
		<tag k="ssr:stedsnr" v="346072" />
	</node>
	<node id="-404180" lat="58.7173166632" lon="5.66785554754">
		<tag k="name" v="Herigstad" />
		<tag k="place" v="farm" />
		<tag k="ssr:stedsnr" v="346068" />
	</node>
	<node id="-404179" lat="58.6920111072" lon="5.71730556244">
		<tag k="name" v="Mossigelunden" />
		<tag k="place" v="locality" />
		<tag k="ssr:stedsnr" v="345437" />
	</node>
	<node id="-404178" lat="58.6287888845" lon="5.81228888104">
		<tag k="name" v="Lonå" />
		<tag k="natural" v="bay" />
		<tag k="ssr:stedsnr" v="343487" />
	</node>
	<node id="-404177" lat="58.6964583364" lon="5.73957500347">
		<tag k="name" v="Forna-Mossige" />
		<tag k="place" v="locality" />
		<tag k="ssr:stedsnr" v="343456" />
	</node>
	<node id="-404176" lat="58.7208249969" lon="5.69616945154">
		<tag k="name" v="Nippen" />
		<tag k="place" v="farm" />
		<tag k="ssr:stedsnr" v="343442" />
	</node>
	<node id="-404175" lat="58.686097222" lon="5.76985556113">
		<tag k="amenity" v="school" />
		<tag k="name" v="Undheim" />
		<tag k="ssr:stedsnr" v="343303" />
	</node>
	<node id="-404174" lat="58.7270694463" lon="5.66397500493">
		<tag k="alt_name" v="Eivindsholen" />
		<tag k="name" v="Eivindholen" />
		<tag k="place" v="farm" />
		<tag k="ssr:stedsnr" v="121866" />
	</node>
	<node id="-404173" lat="58.6995777819" lon="5.72021665825">
		<tag k="alt_name" v="Mossigerudla" />
		<tag k="fixme" v="consider natural=peak for the most distinct mountains in the district" />
		<tag k="name" v="Rulla" />
		<tag k="natural" v="hill" />
		<tag k="old_name" v="Odlo" />
		<tag k="place" v="locality" />
		<tag k="ssr:stedsnr" v="121803" />
	</node>
	<node id="-404172" lat="58.6647305527" lon="5.81390278181">
		<tag k="name" v="Ormatjørna" />
		<tag k="natural" v="water" />
		<tag k="ssr:stedsnr" v="425299" />
	</node>
	<node id="-404171" lat="58.7488472189" lon="5.71339722366">
		<tag k="name" v="Figlingsvarden" />
		<tag k="natural" v="hill" />
		<tag k="place" v="locality" />
		<tag k="ssr:stedsnr" v="328412" />
	</node>
	<node id="-404170" lat="58.7839527814" lon="5.75221111127">
		<tag k="name" v="Floen" />
		<tag k="natural" v="water" />
		<tag k="ssr:stedsnr" v="327588" />
	</node>
	<node id="-404169" lat="58.7739638869" lon="5.70174445131">
		<tag k="name" v="Moldvik" />
		<tag k="natural" v="bay" />
		<tag k="ssr:stedsnr" v="327416" />
	</node>
	<node id="-404168" lat="58.7609499956" lon="5.75537499771">
		<tag k="fixme" v="consider natural=peak for the most distinct mountains in the district" />
		<tag k="name" v="Håfjell" />
		<tag k="natural" v="hill" />
		<tag k="place" v="locality" />
		<tag k="ssr:stedsnr" v="327150" />
	</node>
	<node id="-404167" lat="58.7749527759" lon="5.80433889394">
		<tag k="fixme" v="consider natural=peak for the most distinct mountains in the district" />
		<tag k="name" v="Kalafjell" />
		<tag k="natural" v="hill" />
		<tag k="place" v="locality" />
		<tag k="ssr:stedsnr" v="327135" />
	</node>
	<node id="-404166" lat="58.7632861076" lon="5.7806333284">
		<tag k="name" v="Småberg" />
		<tag k="natural" v="hill" />
		<tag k="place" v="locality" />
		<tag k="ssr:stedsnr" v="327129" />
	</node>
	<node id="-404165" lat="58.7369694416" lon="5.75453888406">
		<tag k="name" v="Kyrkjeberg" />
		<tag k="natural" v="hill" />
		<tag k="place" v="locality" />
		<tag k="ssr:stedsnr" v="327127" />
	</node>
	<node id="-404164" lat="58.7414388927" lon="5.75084444612">
		<tag k="fixme" v="consider natural=peak for the most distinct mountains in the district" />
		<tag k="name" v="Varden" />
		<tag k="natural" v="hill" />
		<tag k="place" v="locality" />
		<tag k="ssr:stedsnr" v="327125" />
	</node>
	<node id="-404163" lat="58.6247583304" lon="5.83555834174">
		<tag k="name" v="Veisedalen" />
		<tag k="natural" v="valley" />
		<tag k="place" v="locality" />
		<tag k="ssr:stedsnr" v="326736" />
	</node>
	<node id="-404162" lat="58.7331638874" lon="5.85126666201">
		<tag k="fixme" v="consider natural=peak for the most distinct mountains in the district" />
		<tag k="name" v="Bursfjell" />
		<tag k="natural" v="hill" />
		<tag k="place" v="locality" />
		<tag k="ssr:stedsnr" v="326709" />
	</node>
	<node id="-404161" lat="58.6589750004" lon="5.84660000165">
		<tag k="name" v="Moltemyr" />
		<tag k="natural" v="wetland" />
		<tag k="ssr:stedsnr" v="326205" />
	</node>
	<node id="-404160" lat="58.7364000009" lon="5.84504999449">
		<tag k="alt_name" v="Bursfjell" />
		<tag k="fixme" v="consider natural=peak for the most distinct mountains in the district" />
		<tag k="name" v="Bursfjellet" />
		<tag k="natural" v="hill" />
		<tag k="place" v="locality" />
		<tag k="ssr:stedsnr" v="325801" />
	</node>
	<node id="-404159" lat="58.755925002" lon="5.70000000693">
		<tag k="name" v="Njå" />
		<tag k="place" v="farm" />
		<tag k="ssr:stedsnr" v="304876" />
	</node>
	<node id="-404158" lat="58.7856735208" lon="5.76888839686">
		<tag k="fixme" v="consider natural=peak for the most distinct mountains in the district" />
		<tag k="name" v="Stutafjell" />
		<tag k="natural" v="hill" />
		<tag k="place" v="locality" />
		<tag k="ssr:stedsnr" v="304856" />
	</node>
	<node id="-404157" lat="58.7156691159" lon="5.63235894733">
		<tag k="fixme" v="consider place=hamlet" />
		<tag k="name" v="Line" />
		<tag k="place" v="farm" />
		<tag k="ssr:stedsnr" v="304846" />
	</node>
	<node id="-404156" lat="58.7666146298" lon="5.72705815039">
		<tag k="alt_name" v="Kverneland" />
		<tag k="fixme" v="consider place=hamlet" />
		<tag k="name" v="Kvernaland" />
		<tag k="place" v="farm" />
		<tag k="ssr:stedsnr" v="304826" />
	</node>
	<node id="-404155" lat="58.7371361091" lon="5.69597778529">
		<tag k="name" v="Holen" />
		<tag k="place" v="farm" />
		<tag k="ssr:stedsnr" v="304144" />
	</node>
	<node id="-404154" lat="58.7379277789" lon="5.71981943783">
		<tag k="name" v="Grindarholen" />
		<tag k="old_name" v="Grindaholen" />
		<tag k="place" v="farm" />
		<tag k="ssr:stedsnr" v="303857" />
	</node>
	<node id="-404153" lat="58.7418333331" lon="5.81570277912">
		<tag k="name" v="Godholen" />
		<tag k="place" v="farm" />
		<tag k="ssr:stedsnr" v="303853" />
	</node>
	<node id="-404152" lat="58.7414555542" lon="5.79434167061">
		<tag k="fixme" v="consider natural=peak for the most distinct mountains in the district" />
		<tag k="name" v="Røynåsen" />
		<tag k="natural" v="hill" />
		<tag k="place" v="locality" />
		<tag k="ssr:stedsnr" v="303836" />
	</node>
	<node id="-404151" lat="58.7231574544" lon="5.76548991081">
		<tag k="alt_name" v="Brekkå" />
		<tag k="fixme" v="consider place=hamlet" />
		<tag k="name" v="Brekka" />
		<tag k="place" v="farm" />
		<tag k="ssr:stedsnr" v="303821" />
	</node>
	<node id="-404150" lat="58.7008700804" lon="5.68195535251">
		<tag k="fixme" v="consider place=hamlet" />
		<tag k="name" v="Grødem" />
		<tag k="place" v="farm" />
		<tag k="ssr:stedsnr" v="303787" />
	</node>
	<node id="-404149" lat="58.7149999961" lon="5.78760834182">
		<tag k="name" v="Valbrekk" />
		<tag k="place" v="farm" />
		<tag k="ssr:stedsnr" v="303780" />
	</node>
	<node id="-404148" lat="58.6763333294" lon="5.80341944263">
		<tag k="name" v="Mærlia" />
		<tag k="place" v="farm" />
		<tag k="ssr:stedsnr" v="303766" />
	</node>
	<node id="-404147" lat="58.6891500015" lon="5.79002500583">
		<tag k="name" v="Voll" />
		<tag k="place" v="farm" />
		<tag k="ssr:stedsnr" v="303740" />
	</node>
	<node id="-404146" lat="58.6873614562" lon="5.87990065014">
		<tag k="name" v="Tuvatnet" />
		<tag k="natural" v="water" />
		<tag k="ssr:stedsnr" v="303447" />
	</node>
	<node id="-404145" lat="58.6825777821" lon="5.87659444773">
		<tag k="alt_name" v="Hedlefjellet" />
		<tag k="name" v="Hellefjellet" />
		<tag k="natural" v="hill" />
		<tag k="place" v="locality" />
		<tag k="ssr:stedsnr" v="303435" />
	</node>
	<node id="-404144" lat="58.6154837869" lon="5.81445273329">
		<tag k="fixme" v="consider natural=peak for the most distinct mountains in the district" />
		<tag k="name" v="Synesvarden" />
		<tag k="natural" v="hill" />
		<tag k="place" v="locality" />
		<tag k="ssr:stedsnr" v="303271" />
	</node>
	<node id="-404143" lat="58.6430519085" lon="5.86479230572">
		<tag k="fixme" v="multiple name tags, choose one and add the other to alt_name" />
		<tag k="name" v="Mellomstrandsvatnet;Mælandsvatnet" />
		<tag k="natural" v="water" />
		<tag k="ssr:stedsnr" v="303026" />
		<tag k="water" v="lake" />
	</node>
	<node id="-404142" lat="58.7288500007" lon="5.6392194406">
		<tag k="name" v="Kolheia" />
		<tag k="natural" v="hill" />
		<tag k="place" v="locality" />
		<tag k="ssr:stedsnr" v="302326" />
	</node>
	<node id="-404141" lat="58.7323972229" lon="5.74149999518">
		<tag k="highway" v="path" />
		<tag k="name" v="Kleivane" />
		<tag k="ssr:stedsnr" v="298477" />
	</node>
	<node id="-404140" lat="58.7819638864" lon="5.73929444309">
		<tag k="bridge" v="yes" />
		<tag k="layer" v="1" />
		<tag k="name" v="Kalberg" />
		<tag k="ssr:stedsnr" v="289802" />
	</node>
	<node id="-404139" lat="58.7289361077" lon="5.63044721406">
		<tag k="name" v="Re" />
		<tag k="place" v="farm" />
		<tag k="ssr:stedsnr" v="286187" />
	</node>
	<node id="-404138" lat="58.7025000014" lon="5.69208611436">
		<tag k="name" v="Grødem" />
		<tag k="place" v="farm" />
		<tag k="ssr:stedsnr" v="286062" />
	</node>
	<node id="-404137" lat="58.7273361084" lon="5.75393333776">
		<tag k="name" v="Høylandsvatnet" />
		<tag k="natural" v="water" />
		<tag k="ssr:stedsnr" v="284463" />
		<tag k="water" v="lake" />
	</node>
	<node id="-404136" lat="58.7040138855" lon="5.81518611419">
		<tag k="name" v="Eriksnuten" />
		<tag k="natural" v="hill" />
		<tag k="place" v="locality" />
		<tag k="ssr:stedsnr" v="283434" />
	</node>
	<node id="-404135" lat="58.7073194486" lon="5.77218889355">
		<tag k="name" v="Nesjane" />
		<tag k="place" v="locality" />
		<tag k="ssr:stedsnr" v="283416" />
	</node>
	<node id="-404134" lat="58.6881916656" lon="5.77452778108">
		<tag k="name" v="Undheimsåa" />
		<tag k="ssr:stedsnr" v="282310" />
		<tag k="waterway" v="river" />
	</node>
</osm>
