<?xml version="1.0" encoding="UTF-8"?>
<osm generator="osmapis" version="0.6">
	<node id="-790144" lat="70.3120750032" lon="21.9069693976">
		<tag k="name" v="Øra - Eavru" />
		<tag k="name:no" v="Øra" />
		<tag k="name:se" v="Eavru" />
		<tag k="old_name:se" v="Ævro" />
		<tag k="place" v="locality" />
		<tag k="ssr:stedsnr" v="687264" />
	</node>
	<node id="-789568" lat="70.2142638911" lon="21.8728888654">
		<tag k="name" v="Nordre Tverfjord" />
		<tag k="place" v="locality" />
		<tag k="ssr:stedsnr" v="397944" />
	</node>
	<node id="-790174" lat="70.267283337" lon="21.7317610783">
		<tag k="name" v="Kvitsteinan" />
		<tag k="natural" v="stone" />
		<tag k="ssr:stedsnr" v="696887" />
	</node>
	<node id="-789821" lat="70.381438887" lon="21.4368805396">
		<tag k="name" v="Stien" />
		<tag k="natural" v="scree" />
		<tag k="ssr:stedsnr" v="228121" />
	</node>
	<node id="-789536" lat="70.140455556" lon="21.7206833102">
		<tag k="name" v="Langfjordjøkelen - Bártnatvuonjiehkki" />
		<tag k="name:no" v="Langfjordjøkelen" />
		<tag k="name:se" v="Bártnatvuonjiehkki" />
		<tag k="natural" v="glacier" />
		<tag k="old_name:se" v="Bardnatvuonjiekki;Bartnatvuonjiehkki" />
		<tag k="ssr:stedsnr" v="383302" />
	</node>
	<node id="-790038" lat="70.1992611143" lon="21.7771055099">
		<tag k="name" v="Øyra" />
		<tag k="place" v="locality" />
		<tag k="ssr:stedsnr" v="579223" />
	</node>
	<node id="-789605" lat="70.3539944451" lon="21.4125527523">
		<tag k="name" v="Stormyra" />
		<tag k="natural" v="wetland" />
		<tag k="ssr:stedsnr" v="19315" />
	</node>
	<node id="-790418" lat="70.2002583376" lon="22.336486074">
		<tag k="name" v="Myra" />
		<tag k="natural" v="wetland" />
		<tag k="ssr:stedsnr" v="956411" />
	</node>
	<node id="-789469" lat="70.171363894" lon="21.9731944052">
		<tag k="name" v="Isdaljøkelen" />
		<tag k="natural" v="glacier" />
		<tag k="ssr:stedsnr" v="322245" />
	</node>
	<node id="-790311" lat="70.234644444" lon="22.3568166123">
		<tag k="name" v="Vassdalsura" />
		<tag k="natural" v="scree" />
		<tag k="ssr:stedsnr" v="835626" />
	</node>
	<node id="-789638" lat="70.234727775" lon="21.255713866">
		<tag k="name" v="Dalskarmyra" />
		<tag k="natural" v="wetland" />
		<tag k="ssr:stedsnr" v="45193" />
	</node>
	<node id="-789669" lat="70.2331500056" lon="21.9511888527">
		<tag k="name" v="Svartfjelljøkelen" />
		<tag k="natural" v="glacier" />
		<tag k="ssr:stedsnr" v="80379" />
	</node>
	<node id="-789988" lat="70.1679666692" lon="22.0631110688">
		<tag k="name" v="Øksfjordjøkelen - Ákšovuonjiehkki" />
		<tag k="name:no" v="Øksfjordjøkelen" />
		<tag k="name:se" v="Ákšovuonjiehkki" />
		<tag k="natural" v="glacier" />
		<tag k="old_name:se" v="Akšuvonjiekki" />
		<tag k="ssr:stedsnr" v="564260" />
	</node>
	<node id="-789827" lat="70.2223083325" lon="21.214047184">
		<tag k="name" v="Stormyra" />
		<tag k="natural" v="wetland" />
		<tag k="ssr:stedsnr" v="228204" />
	</node>
	<node id="-789729" lat="70.1071277764" lon="22.5306360619">
		<tag k="name" v="Stormyra" />
		<tag k="natural" v="wetland" />
		<tag k="ssr:stedsnr" v="140526" />
	</node>
</osm>
