<?xml version="1.0" encoding="UTF-8"?>
<osm generator="osmapis" version="0.6">
	<node id="-332030" lat="58.1406073357" lon="8.04331326193">
		<tag k="name" v="Hestholmen" />
		<tag k="ssr:date" v="2019-05-30" />
		<tag k="ssr:gruppe" v="veg" />
		<tag k="ssr:hovedgruppe" v="infrastruktur" />
		<tag k="ssr:stedsnr" v="986002" />
		<tag k="ssr:type" v="adressenavn" />
	</node>
	<node id="-334315" lat="58.1312619472" lon="8.00215774856">
		<tag k="name" v="Odderøya" />
		<tag k="old_name" v="Odderøya Fyr" />
		<tag k="ssr:date" v="2018-03-14" />
		<tag k="ssr:gruppe" v="navigasjon" />
		<tag k="ssr:hovedgruppe" v="infrastruktur" />
		<tag k="ssr:stedsnr" v="850237" />
		<tag k="ssr:type" v="fyrlykt" />
	</node>
	<node id="-331745" lat="58.1269111071" lon="8.00140278329">
		<tag k="name" v="Dybingen" />
		<tag k="ssr:date" v="2016-05-10" />
		<tag k="ssr:gruppe" v="navigasjon" />
		<tag k="ssr:hovedgruppe" v="infrastruktur" />
		<tag k="ssr:stedsnr" v="389395" />
		<tag k="ssr:type" v="lanterne" />
	</node>
	<node id="-332025" lat="58.0843588554" lon="7.96178838352">
		<tag k="name" v="Fosseholmane" />
		<tag k="ssr:date" v="2019-05-30" />
		<tag k="ssr:gruppe" v="veg" />
		<tag k="ssr:hovedgruppe" v="infrastruktur" />
		<tag k="ssr:stedsnr" v="985990" />
		<tag k="ssr:type" v="adressenavn" />
	</node>
	<node id="-331721" lat="58.1006138915" lon="8.14511388292">
		<tag k="loc_name" v="Torsøya lykt" />
		<tag k="name" v="Torsøya" />
		<tag k="old_name" v="Torsøy" />
		<tag k="ssr:date" v="2016-05-10" />
		<tag k="ssr:gruppe" v="navigasjon" />
		<tag k="ssr:hovedgruppe" v="infrastruktur" />
		<tag k="ssr:stedsnr" v="364738" />
		<tag k="ssr:type" v="fyrlykt" />
	</node>
	<node id="-331703" lat="58.0722777811" lon="8.05282222345">
		<tag k="alt_name" v="Oksøy fyr" />
		<tag k="name" v="Oksøy" />
		<tag k="old_name" v="Oksøy Fyr" />
		<tag k="ssr:date" v="2016-05-10" />
		<tag k="ssr:gruppe" v="navigasjon" />
		<tag k="ssr:hovedgruppe" v="infrastruktur" />
		<tag k="ssr:stedsnr" v="364204" />
		<tag k="ssr:type" v="fyrstasjon" />
	</node>
	<node id="-331699" lat="58.0970166668" lon="8.03386111713">
		<tag k="name" v="Kinn" />
		<tag k="ssr:date" v="2016-05-10" />
		<tag k="ssr:gruppe" v="navigasjon" />
		<tag k="ssr:hovedgruppe" v="infrastruktur" />
		<tag k="ssr:stedsnr" v="364160" />
		<tag k="ssr:type" v="fyrlykt" />
	</node>
	<node id="-333746" lat="58.109241667" lon="8.08763332734">
		<tag k="name" v="Ledholmen" />
		<tag k="ssr:date" v="2016-05-10" />
		<tag k="ssr:gruppe" v="navigasjon" />
		<tag k="ssr:hovedgruppe" v="infrastruktur" />
		<tag k="ssr:stedsnr" v="667164" />
		<tag k="ssr:type" v="fyrlykt" />
	</node>
	<node id="-334238" lat="58.2056083289" lon="8.01434999861">
		<tag k="name" v="Skredderveien" />
		<tag k="ssr:date" v="2016-05-11" />
		<tag k="ssr:gruppe" v="veg" />
		<tag k="ssr:hovedgruppe" v="infrastruktur" />
		<tag k="ssr:stedsnr" v="834961" />
		<tag k="ssr:type" v="vegstrekning" />
	</node>
	<node id="-332696" lat="58.0813805527" lon="8.08788611551">
		<tag k="alt_name" v="Grønningen fyr" />
		<tag k="name" v="Grønningen" />
		<tag k="old_name" v="Grønningen Fyr" />
		<tag k="ssr:date" v="2016-05-10" />
		<tag k="ssr:gruppe" v="navigasjon" />
		<tag k="ssr:hovedgruppe" v="infrastruktur" />
		<tag k="ssr:stedsnr" v="182166" />
		<tag k="ssr:type" v="fyrstasjon" />
	</node>
	<node id="-332091" lat="58.14493248" lon="8.0097826134">
		<tag k="name" v="Julius Hougens plass" />
		<tag k="ssr:date" v="2019-05-30" />
		<tag k="ssr:gruppe" v="veg" />
		<tag k="ssr:hovedgruppe" v="infrastruktur" />
		<tag k="ssr:stedsnr" v="1019291" />
		<tag k="ssr:type" v="adressenavn" />
	</node>
	<node id="-332090" lat="58.0682215884" lon="8.01088993947">
		<tag k="name" v="Ormsøya" />
		<tag k="ssr:date" v="2019-05-30" />
		<tag k="ssr:gruppe" v="veg" />
		<tag k="ssr:hovedgruppe" v="infrastruktur" />
		<tag k="ssr:stedsnr" v="1019221" />
		<tag k="ssr:type" v="adressenavn" />
	</node>
	<node id="-332089" lat="58.0876778385" lon="7.93758423176">
		<tag k="name" v="Breiviga" />
		<tag k="ssr:date" v="2019-05-30" />
		<tag k="ssr:gruppe" v="veg" />
		<tag k="ssr:hovedgruppe" v="infrastruktur" />
		<tag k="ssr:stedsnr" v="1019220" />
		<tag k="ssr:type" v="adressenavn" />
	</node>
	<node id="-332088" lat="58.0818883214" lon="7.94425791768">
		<tag k="name" v="Torsteinsneset" />
		<tag k="ssr:date" v="2019-05-30" />
		<tag k="ssr:gruppe" v="veg" />
		<tag k="ssr:hovedgruppe" v="infrastruktur" />
		<tag k="ssr:stedsnr" v="1019219" />
		<tag k="ssr:type" v="adressenavn" />
	</node>
	<node id="-332087" lat="58.0905895431" lon="7.93430204069">
		<tag k="name" v="Bukkeneset" />
		<tag k="ssr:date" v="2019-05-30" />
		<tag k="ssr:gruppe" v="veg" />
		<tag k="ssr:hovedgruppe" v="infrastruktur" />
		<tag k="ssr:stedsnr" v="1019217" />
		<tag k="ssr:type" v="adressenavn" />
	</node>
	<node id="-332086" lat="58.0861011739" lon="7.98403987017">
		<tag k="name" v="Gammeløya" />
		<tag k="ssr:date" v="2019-05-30" />
		<tag k="ssr:gruppe" v="veg" />
		<tag k="ssr:hovedgruppe" v="infrastruktur" />
		<tag k="ssr:stedsnr" v="1019216" />
		<tag k="ssr:type" v="adressenavn" />
	</node>
	<node id="-332085" lat="58.1029770244" lon="8.13465630626">
		<tag k="name" v="Torsøya" />
		<tag k="ssr:date" v="2019-05-30" />
		<tag k="ssr:gruppe" v="veg" />
		<tag k="ssr:hovedgruppe" v="infrastruktur" />
		<tag k="ssr:stedsnr" v="1019191" />
		<tag k="ssr:type" v="adressenavn" />
	</node>
	<node id="-332084" lat="58.1219986787" lon="7.98897723471">
		<tag k="name" v="Blomsterøya" />
		<tag k="ssr:date" v="2019-05-30" />
		<tag k="ssr:gruppe" v="veg" />
		<tag k="ssr:hovedgruppe" v="infrastruktur" />
		<tag k="ssr:stedsnr" v="1019188" />
		<tag k="ssr:type" v="adressenavn" />
	</node>
	<node id="-332083" lat="58.1345697072" lon="8.04671884148">
		<tag k="name" v="Prestøya" />
		<tag k="ssr:date" v="2019-05-30" />
		<tag k="ssr:gruppe" v="veg" />
		<tag k="ssr:hovedgruppe" v="infrastruktur" />
		<tag k="ssr:stedsnr" v="1019187" />
		<tag k="ssr:type" v="adressenavn" />
	</node>
	<node id="-332082" lat="58.1393877427" lon="8.04178675299">
		<tag k="name" v="Kjeltringholmen" />
		<tag k="ssr:date" v="2019-05-30" />
		<tag k="ssr:gruppe" v="veg" />
		<tag k="ssr:hovedgruppe" v="infrastruktur" />
		<tag k="ssr:stedsnr" v="1019186" />
		<tag k="ssr:type" v="adressenavn" />
	</node>
	<node id="-332081" lat="58.1417631967" lon="8.04893522083">
		<tag k="name" v="Lyngøya" />
		<tag k="ssr:date" v="2019-05-30" />
		<tag k="ssr:gruppe" v="veg" />
		<tag k="ssr:hovedgruppe" v="infrastruktur" />
		<tag k="ssr:stedsnr" v="1019185" />
		<tag k="ssr:type" v="adressenavn" />
	</node>
	<node id="-334128" lat="58.0594750026" lon="7.97164443598">
		<tag k="name" v="Bergenesodden" />
		<tag k="old_name" v="Nesodden" />
		<tag k="ssr:date" v="2016-05-11" />
		<tag k="ssr:gruppe" v="navigasjon" />
		<tag k="ssr:hovedgruppe" v="infrastruktur" />
		<tag k="ssr:stedsnr" v="789341" />
		<tag k="ssr:type" v="fyrlykt" />
	</node>
	<node id="-332078" lat="58.084277749" lon="8.0091399047">
		<tag k="name" v="Storemyr" />
		<tag k="ssr:date" v="2019-05-30" />
		<tag k="ssr:gruppe" v="veg" />
		<tag k="ssr:hovedgruppe" v="infrastruktur" />
		<tag k="ssr:stedsnr" v="987385" />
		<tag k="ssr:type" v="adressenavn" />
	</node>
	<node id="-332077" lat="58.0830740097" lon="8.01492211042">
		<tag k="name" v="Storeheia" />
		<tag k="ssr:date" v="2019-05-30" />
		<tag k="ssr:gruppe" v="veg" />
		<tag k="ssr:hovedgruppe" v="infrastruktur" />
		<tag k="ssr:stedsnr" v="987384" />
		<tag k="ssr:type" v="adressenavn" />
	</node>
	<node id="-332076" lat="58.0706480469" lon="8.00297389859">
		<tag k="name" v="Stangefjellveien" />
		<tag k="ssr:date" v="2019-05-30" />
		<tag k="ssr:gruppe" v="veg" />
		<tag k="ssr:hovedgruppe" v="infrastruktur" />
		<tag k="ssr:stedsnr" v="987383" />
		<tag k="ssr:type" v="adressenavn" />
	</node>
	<node id="-332075" lat="58.1135019811" lon="7.94581839272">
		<tag k="name" v="Rådyrbakken" />
		<tag k="ssr:date" v="2019-05-30" />
		<tag k="ssr:gruppe" v="veg" />
		<tag k="ssr:hovedgruppe" v="infrastruktur" />
		<tag k="ssr:stedsnr" v="987381" />
		<tag k="ssr:type" v="adressenavn" />
	</node>
	<node id="-332074" lat="58.2051203398" lon="8.03043358642">
		<tag k="name" v="Kvernhuslia" />
		<tag k="ssr:date" v="2019-05-30" />
		<tag k="ssr:gruppe" v="veg" />
		<tag k="ssr:hovedgruppe" v="infrastruktur" />
		<tag k="ssr:stedsnr" v="987379" />
		<tag k="ssr:type" v="adressenavn" />
	</node>
	<node id="-332073" lat="58.113938471" lon="7.93672491896">
		<tag k="name" v="Bråvannstunet" />
		<tag k="ssr:date" v="2019-05-30" />
		<tag k="ssr:gruppe" v="veg" />
		<tag k="ssr:hovedgruppe" v="infrastruktur" />
		<tag k="ssr:stedsnr" v="987376" />
		<tag k="ssr:type" v="adressenavn" />
	</node>
	<node id="-332072" lat="58.2244577232" lon="8.09637391231">
		<tag k="name" v="Brattvolltun" />
		<tag k="ssr:date" v="2019-05-30" />
		<tag k="ssr:gruppe" v="veg" />
		<tag k="ssr:hovedgruppe" v="infrastruktur" />
		<tag k="ssr:stedsnr" v="987375" />
		<tag k="ssr:type" v="adressenavn" />
	</node>
	<node id="-332071" lat="58.1773913192" lon="8.11960400601">
		<tag k="name" v="Barselheia" />
		<tag k="ssr:date" v="2019-05-30" />
		<tag k="ssr:gruppe" v="veg" />
		<tag k="ssr:hovedgruppe" v="infrastruktur" />
		<tag k="ssr:stedsnr" v="987374" />
		<tag k="ssr:type" v="adressenavn" />
	</node>
	<node id="-332070" lat="58.1628325498" lon="8.01883717047">
		<tag k="name" v="Bjørndalsjordet" />
		<tag k="ssr:date" v="2019-05-30" />
		<tag k="ssr:gruppe" v="veg" />
		<tag k="ssr:hovedgruppe" v="infrastruktur" />
		<tag k="ssr:stedsnr" v="987359" />
		<tag k="ssr:type" v="adressenavn" />
	</node>
	<node id="-332069" lat="58.2341057238" lon="8.12099248332">
		<tag k="name" v="Solkroken" />
		<tag k="ssr:date" v="2019-05-30" />
		<tag k="ssr:gruppe" v="veg" />
		<tag k="ssr:hovedgruppe" v="infrastruktur" />
		<tag k="ssr:stedsnr" v="986545" />
		<tag k="ssr:type" v="adressenavn" />
	</node>
	<node id="-332068" lat="58.2347478011" lon="8.12162375526">
		<tag k="name" v="Solstien" />
		<tag k="ssr:date" v="2019-05-30" />
		<tag k="ssr:gruppe" v="veg" />
		<tag k="ssr:hovedgruppe" v="infrastruktur" />
		<tag k="ssr:stedsnr" v="986544" />
		<tag k="ssr:type" v="adressenavn" />
	</node>
	<node id="-332067" lat="58.233963454" lon="8.11859477926">
		<tag k="name" v="Solveien" />
		<tag k="ssr:date" v="2019-05-30" />
		<tag k="ssr:gruppe" v="veg" />
		<tag k="ssr:hovedgruppe" v="infrastruktur" />
		<tag k="ssr:stedsnr" v="986543" />
		<tag k="ssr:type" v="adressenavn" />
	</node>
	<node id="-332066" lat="58.1510055384" lon="8.10856625006">
		<tag k="name" v="Poddestølveien" />
		<tag k="ssr:date" v="2019-05-30" />
		<tag k="ssr:gruppe" v="veg" />
		<tag k="ssr:hovedgruppe" v="infrastruktur" />
		<tag k="ssr:stedsnr" v="986542" />
		<tag k="ssr:type" v="adressenavn" />
	</node>
	<node id="-332065" lat="58.1833683854" lon="8.04037914493">
		<tag k="name" v="Manneviga" />
		<tag k="ssr:date" v="2019-05-30" />
		<tag k="ssr:gruppe" v="veg" />
		<tag k="ssr:hovedgruppe" v="infrastruktur" />
		<tag k="ssr:stedsnr" v="986288" />
		<tag k="ssr:type" v="adressenavn" />
	</node>
	<node id="-332064" lat="58.1530359724" lon="8.09713130792">
		<tag k="name" v="Benestadveien" />
		<tag k="ssr:date" v="2019-05-30" />
		<tag k="ssr:gruppe" v="veg" />
		<tag k="ssr:hovedgruppe" v="infrastruktur" />
		<tag k="ssr:stedsnr" v="986285" />
		<tag k="ssr:type" v="adressenavn" />
	</node>
	<node id="-332063" lat="58.15742951" lon="8.0871978332">
		<tag k="name" v="Torpheia" />
		<tag k="ssr:date" v="2019-05-30" />
		<tag k="ssr:gruppe" v="veg" />
		<tag k="ssr:hovedgruppe" v="infrastruktur" />
		<tag k="ssr:stedsnr" v="986284" />
		<tag k="ssr:type" v="adressenavn" />
	</node>
	<node id="-332062" lat="58.1282164647" lon="8.09949120408">
		<tag k="name" v="Holteheia" />
		<tag k="ssr:date" v="2019-05-30" />
		<tag k="ssr:gruppe" v="veg" />
		<tag k="ssr:hovedgruppe" v="infrastruktur" />
		<tag k="ssr:stedsnr" v="986283" />
		<tag k="ssr:type" v="adressenavn" />
	</node>
	<node id="-332061" lat="58.187966718" lon="8.03671752608">
		<tag k="name" v="Spireaveien" />
		<tag k="ssr:date" v="2019-05-30" />
		<tag k="ssr:gruppe" v="veg" />
		<tag k="ssr:hovedgruppe" v="infrastruktur" />
		<tag k="ssr:stedsnr" v="986282" />
		<tag k="ssr:type" v="adressenavn" />
	</node>
	<node id="-332060" lat="58.1618670961" lon="8.01944160245">
		<tag k="name" v="Bjørndalssletta" />
		<tag k="ssr:date" v="2019-05-30" />
		<tag k="ssr:gruppe" v="veg" />
		<tag k="ssr:hovedgruppe" v="infrastruktur" />
		<tag k="ssr:stedsnr" v="986281" />
		<tag k="ssr:type" v="adressenavn" />
	</node>
	<node id="-332059" lat="58.1880150143" lon="8.09867663024">
		<tag k="name" v="Glimmerveien" />
		<tag k="ssr:date" v="2019-05-30" />
		<tag k="ssr:gruppe" v="veg" />
		<tag k="ssr:hovedgruppe" v="infrastruktur" />
		<tag k="ssr:stedsnr" v="986280" />
		<tag k="ssr:type" v="adressenavn" />
	</node>
	<node id="-332058" lat="58.187905825" lon="8.09975089541">
		<tag k="name" v="Baryttveien" />
		<tag k="ssr:date" v="2019-05-30" />
		<tag k="ssr:gruppe" v="veg" />
		<tag k="ssr:hovedgruppe" v="infrastruktur" />
		<tag k="ssr:stedsnr" v="986279" />
		<tag k="ssr:type" v="adressenavn" />
	</node>
	<node id="-332057" lat="58.1876268039" lon="8.09839732446">
		<tag k="name" v="Thulittveien" />
		<tag k="ssr:date" v="2019-05-30" />
		<tag k="ssr:gruppe" v="veg" />
		<tag k="ssr:hovedgruppe" v="infrastruktur" />
		<tag k="ssr:stedsnr" v="986278" />
		<tag k="ssr:type" v="adressenavn" />
	</node>
	<node id="-332056" lat="58.1558433295" lon="8.09655043008">
		<tag k="name" v="Sukkevannslia" />
		<tag k="ssr:date" v="2019-05-30" />
		<tag k="ssr:gruppe" v="veg" />
		<tag k="ssr:hovedgruppe" v="infrastruktur" />
		<tag k="ssr:stedsnr" v="986150" />
		<tag k="ssr:type" v="adressenavn" />
	</node>
	<node id="-332055" lat="58.1626326934" lon="8.02222861079">
		<tag k="name" v="Bjørndalen allé" />
		<tag k="ssr:date" v="2019-05-30" />
		<tag k="ssr:gruppe" v="veg" />
		<tag k="ssr:hovedgruppe" v="infrastruktur" />
		<tag k="ssr:stedsnr" v="986149" />
		<tag k="ssr:type" v="adressenavn" />
	</node>
	<node id="-332054" lat="58.1241370959" lon="8.08166580448">
		<tag k="name" v="Østre Furuholmen" />
		<tag k="ssr:date" v="2019-05-30" />
		<tag k="ssr:gruppe" v="veg" />
		<tag k="ssr:hovedgruppe" v="infrastruktur" />
		<tag k="ssr:stedsnr" v="986138" />
		<tag k="ssr:type" v="adressenavn" />
	</node>
	<node id="-332053" lat="58.0945491682" lon="8.10568325781">
		<tag k="name" v="Ytre Kalvøy" />
		<tag k="ssr:date" v="2019-05-30" />
		<tag k="ssr:gruppe" v="veg" />
		<tag k="ssr:hovedgruppe" v="infrastruktur" />
		<tag k="ssr:stedsnr" v="986136" />
		<tag k="ssr:type" v="adressenavn" />
	</node>
	<node id="-332052" lat="58.111387598" lon="8.10517676152">
		<tag k="name" v="Vestre Randøy" />
		<tag k="ssr:date" v="2019-05-30" />
		<tag k="ssr:gruppe" v="veg" />
		<tag k="ssr:hovedgruppe" v="infrastruktur" />
		<tag k="ssr:stedsnr" v="986133" />
		<tag k="ssr:type" v="adressenavn" />
	</node>
	<node id="-332051" lat="58.1226338672" lon="8.07377627175">
		<tag k="name" v="Vestre Furuholmen" />
		<tag k="ssr:date" v="2019-05-30" />
		<tag k="ssr:gruppe" v="veg" />
		<tag k="ssr:hovedgruppe" v="infrastruktur" />
		<tag k="ssr:stedsnr" v="986132" />
		<tag k="ssr:type" v="adressenavn" />
	</node>
	<node id="-332050" lat="58.0862824652" lon="8.02448378885">
		<tag k="name" v="Vasskjær" />
		<tag k="ssr:date" v="2019-05-30" />
		<tag k="ssr:gruppe" v="veg" />
		<tag k="ssr:hovedgruppe" v="infrastruktur" />
		<tag k="ssr:stedsnr" v="986130" />
		<tag k="ssr:type" v="adressenavn" />
	</node>
	<node id="-332049" lat="58.1213455763" lon="8.07696728616">
		<tag k="name" v="Teistholmen" />
		<tag k="ssr:date" v="2019-05-30" />
		<tag k="ssr:gruppe" v="veg" />
		<tag k="ssr:hovedgruppe" v="infrastruktur" />
		<tag k="ssr:stedsnr" v="986127" />
		<tag k="ssr:type" v="adressenavn" />
	</node>
	<node id="-332048" lat="58.1876271627" lon="8.04172704978">
		<tag k="name" v="Trollbærveien" />
		<tag k="ssr:date" v="2019-05-30" />
		<tag k="ssr:gruppe" v="veg" />
		<tag k="ssr:hovedgruppe" v="infrastruktur" />
		<tag k="ssr:stedsnr" v="986128" />
		<tag k="ssr:type" v="adressenavn" />
	</node>
	<node id="-332047" lat="58.1236993537" lon="7.98935350355">
		<tag k="name" v="Svensholmen" />
		<tag k="ssr:date" v="2019-05-30" />
		<tag k="ssr:gruppe" v="veg" />
		<tag k="ssr:hovedgruppe" v="infrastruktur" />
		<tag k="ssr:stedsnr" v="986124" />
		<tag k="ssr:type" v="adressenavn" />
	</node>
	<node id="-332046" lat="58.0999094284" lon="8.13133741098">
		<tag k="name" v="Strandholmen " />
		<tag k="ssr:date" v="2019-05-30" />
		<tag k="ssr:gruppe" v="veg" />
		<tag k="ssr:hovedgruppe" v="infrastruktur" />
		<tag k="ssr:stedsnr" v="986122" />
		<tag k="ssr:type" v="adressenavn" />
	</node>
	<node id="-332045" lat="58.0693651934" lon="7.99177063204">
		<tag k="name" v="Skyllevigholmen" />
		<tag k="ssr:date" v="2019-05-30" />
		<tag k="ssr:gruppe" v="veg" />
		<tag k="ssr:hovedgruppe" v="infrastruktur" />
		<tag k="ssr:stedsnr" v="986117" />
		<tag k="ssr:type" v="adressenavn" />
	</node>
	<node id="-332044" lat="58.0721645681" lon="8.01200151892">
		<tag k="name" v="Skudeholmen" />
		<tag k="ssr:date" v="2019-05-30" />
		<tag k="ssr:gruppe" v="veg" />
		<tag k="ssr:hovedgruppe" v="infrastruktur" />
		<tag k="ssr:stedsnr" v="986115" />
		<tag k="ssr:type" v="adressenavn" />
	</node>
	<node id="-332043" lat="58.1307128677" lon="8.04386721674">
		<tag k="name" v="Sjursøya" />
		<tag k="ssr:date" v="2019-05-30" />
		<tag k="ssr:gruppe" v="veg" />
		<tag k="ssr:hovedgruppe" v="infrastruktur" />
		<tag k="ssr:stedsnr" v="986064" />
		<tag k="ssr:type" v="adressenavn" />
	</node>
	<node id="-332042" lat="58.0722768496" lon="8.05280446439">
		<tag k="name" v="Oksøy " />
		<tag k="ssr:date" v="2019-05-30" />
		<tag k="ssr:gruppe" v="veg" />
		<tag k="ssr:hovedgruppe" v="infrastruktur" />
		<tag k="ssr:stedsnr" v="986054" />
		<tag k="ssr:type" v="adressenavn" />
	</node>
	<node id="-332041" lat="58.1213701083" lon="7.99354473287">
		<tag k="name" v="Langøya" />
		<tag k="ssr:date" v="2019-05-30" />
		<tag k="ssr:gruppe" v="veg" />
		<tag k="ssr:hovedgruppe" v="infrastruktur" />
		<tag k="ssr:stedsnr" v="986037" />
		<tag k="ssr:type" v="adressenavn" />
	</node>
	<node id="-332040" lat="58.0840025548" lon="8.02822602927">
		<tag k="name" v="Langeskjær" />
		<tag k="ssr:date" v="2019-05-30" />
		<tag k="ssr:gruppe" v="veg" />
		<tag k="ssr:hovedgruppe" v="infrastruktur" />
		<tag k="ssr:stedsnr" v="986036" />
		<tag k="ssr:type" v="adressenavn" />
	</node>
	<node id="-332039" lat="58.1225671586" lon="8.08443946554">
		<tag k="name" v="Rabbersviga-Lamholmen" />
		<tag k="ssr:date" v="2019-12-12" />
		<tag k="ssr:gruppe" v="veg" />
		<tag k="ssr:hovedgruppe" v="infrastruktur" />
		<tag k="ssr:stedsnr" v="986033" />
		<tag k="ssr:type" v="adressenavn" />
	</node>
	<node id="-332038" lat="58.0758714103" lon="8.02561554736">
		<tag k="name" v="Krossholmen" />
		<tag k="ssr:date" v="2019-05-30" />
		<tag k="ssr:gruppe" v="veg" />
		<tag k="ssr:hovedgruppe" v="infrastruktur" />
		<tag k="ssr:stedsnr" v="986028" />
		<tag k="ssr:type" v="adressenavn" />
	</node>
	<node id="-332037" lat="58.1883428683" lon="8.05096028901">
		<tag k="name" v="Kristofferholmen " />
		<tag k="ssr:date" v="2019-05-30" />
		<tag k="ssr:gruppe" v="veg" />
		<tag k="ssr:hovedgruppe" v="infrastruktur" />
		<tag k="ssr:stedsnr" v="986025" />
		<tag k="ssr:type" v="adressenavn" />
	</node>
	<node id="-332036" lat="58.1950842215" lon="8.0515800962">
		<tag k="name" v="Justnesøya" />
		<tag k="ssr:date" v="2019-05-30" />
		<tag k="ssr:gruppe" v="veg" />
		<tag k="ssr:hovedgruppe" v="infrastruktur" />
		<tag k="ssr:stedsnr" v="986020" />
		<tag k="ssr:type" v="adressenavn" />
	</node>
	<node id="-332035" lat="58.1741710128" lon="8.1085816999">
		<tag k="name" v="Juraveien" />
		<tag k="ssr:date" v="2019-05-30" />
		<tag k="ssr:gruppe" v="veg" />
		<tag k="ssr:hovedgruppe" v="infrastruktur" />
		<tag k="ssr:stedsnr" v="986017" />
		<tag k="ssr:type" v="adressenavn" />
	</node>
	<node id="-332034" lat="58.1009518402" lon="8.10671064578">
		<tag k="name" v="Indre Kalvøy" />
		<tag k="ssr:date" v="2019-05-30" />
		<tag k="ssr:gruppe" v="veg" />
		<tag k="ssr:hovedgruppe" v="infrastruktur" />
		<tag k="ssr:stedsnr" v="986008" />
		<tag k="ssr:type" v="adressenavn" />
	</node>
	<node id="-332033" lat="58.1342677648" lon="8.0864658315">
		<tag k="name" v="Indre Fidjekilen" />
		<tag k="ssr:date" v="2019-05-30" />
		<tag k="ssr:gruppe" v="veg" />
		<tag k="ssr:hovedgruppe" v="infrastruktur" />
		<tag k="ssr:stedsnr" v="986007" />
		<tag k="ssr:type" v="adressenavn" />
	</node>
	<node id="-332032" lat="58.2151790076" lon="8.06026974274">
		<tag k="name" v="Hvalviga " />
		<tag k="ssr:date" v="2019-05-30" />
		<tag k="ssr:gruppe" v="veg" />
		<tag k="ssr:hovedgruppe" v="infrastruktur" />
		<tag k="ssr:stedsnr" v="986005" />
		<tag k="ssr:type" v="adressenavn" />
	</node>
	<node id="-332031" lat="58.123420386" lon="7.95914146858">
		<tag k="name" v="Hovedgårdsstien" />
		<tag k="ssr:date" v="2019-05-30" />
		<tag k="ssr:gruppe" v="veg" />
		<tag k="ssr:hovedgruppe" v="infrastruktur" />
		<tag k="ssr:stedsnr" v="986004" />
		<tag k="ssr:type" v="adressenavn" />
	</node>
	<node id="-332542" lat="58.0919444464" lon="7.99259167502">
		<tag k="name" v="Jøngeholmskjæret" />
		<tag k="ssr:date" v="2016-05-10" />
		<tag k="ssr:gruppe" v="navigasjon" />
		<tag k="ssr:hovedgruppe" v="infrastruktur" />
		<tag k="ssr:stedsnr" v="146188" />
		<tag k="ssr:type" v="fyrlykt" />
	</node>
	<node id="-332029" lat="58.0916988719" lon="7.93365491804">
		<tag k="name" v="Holskogkilen" />
		<tag k="ssr:date" v="2019-05-30" />
		<tag k="ssr:gruppe" v="veg" />
		<tag k="ssr:hovedgruppe" v="infrastruktur" />
		<tag k="ssr:stedsnr" v="986003" />
		<tag k="ssr:type" v="adressenavn" />
	</node>
	<node id="-332028" lat="58.1142073563" lon="8.00221618737">
		<tag k="name" v="Hestehaue" />
		<tag k="ssr:date" v="2019-05-30" />
		<tag k="ssr:gruppe" v="veg" />
		<tag k="ssr:hovedgruppe" v="infrastruktur" />
		<tag k="ssr:stedsnr" v="986000" />
		<tag k="ssr:type" v="adressenavn" />
	</node>
	<node id="-332027" lat="58.1131808664" lon="7.93635710575">
		<tag k="name" v="Bråvannsåsen" />
		<tag k="ssr:date" v="2019-05-30" />
		<tag k="ssr:gruppe" v="veg" />
		<tag k="ssr:hovedgruppe" v="infrastruktur" />
		<tag k="ssr:stedsnr" v="985995" />
		<tag k="ssr:type" v="adressenavn" />
	</node>
	<node id="-332026" lat="58.1933751403" lon="8.05853196014">
		<tag k="name" v="Børresholmen " />
		<tag k="ssr:date" v="2019-05-30" />
		<tag k="ssr:gruppe" v="veg" />
		<tag k="ssr:hovedgruppe" v="infrastruktur" />
		<tag k="ssr:stedsnr" v="985994" />
		<tag k="ssr:type" v="adressenavn" />
	</node>
	<node id="-332537" lat="58.1464194412" lon="7.99686388537">
		<tag k="loc_name" v="Kristiansand" />
		<tag k="name" v="Kristiansand kommune" />
		<tag k="ssr:date" v="2016-05-10" />
		<tag k="ssr:gruppe" v="administrativeIndelinger" />
		<tag k="ssr:hovedgruppe" v="offentligAdministrasjon" />
		<tag k="ssr:stedsnr" v="145420" />
		<tag k="ssr:type" v="kommune" />
	</node>
	<node id="-332024" lat="58.1423130671" lon="8.05040176554">
		<tag k="name" v="Fugleviksundet" />
		<tag k="ssr:date" v="2019-05-30" />
		<tag k="ssr:gruppe" v="veg" />
		<tag k="ssr:hovedgruppe" v="infrastruktur" />
		<tag k="ssr:stedsnr" v="985988" />
		<tag k="ssr:type" v="adressenavn" />
	</node>
	<node id="-332023" lat="58.1266662031" lon="8.07367162821">
		<tag k="name" v="Gamle Dvergsnesvei" />
		<tag k="ssr:date" v="2019-05-30" />
		<tag k="ssr:gruppe" v="veg" />
		<tag k="ssr:hovedgruppe" v="infrastruktur" />
		<tag k="ssr:stedsnr" v="985987" />
		<tag k="ssr:type" v="adressenavn" />
	</node>
	<node id="-332022" lat="58.081416956" lon="8.08795226985">
		<tag k="name" v="Grønningen " />
		<tag k="ssr:date" v="2019-05-30" />
		<tag k="ssr:gruppe" v="veg" />
		<tag k="ssr:hovedgruppe" v="infrastruktur" />
		<tag k="ssr:stedsnr" v="985985" />
		<tag k="ssr:type" v="adressenavn" />
	</node>
	<node id="-332021" lat="58.1081020921" lon="8.09149645932">
		<tag k="name" v="Gåseholmen" />
		<tag k="ssr:date" v="2019-05-30" />
		<tag k="ssr:gruppe" v="veg" />
		<tag k="ssr:hovedgruppe" v="infrastruktur" />
		<tag k="ssr:stedsnr" v="985984" />
		<tag k="ssr:type" v="adressenavn" />
	</node>
	<node id="-332020" lat="58.1061423847" lon="8.06030628195">
		<tag k="name" v="Dvergsøya" />
		<tag k="ssr:date" v="2019-05-30" />
		<tag k="ssr:gruppe" v="veg" />
		<tag k="ssr:hovedgruppe" v="infrastruktur" />
		<tag k="ssr:stedsnr" v="985968" />
		<tag k="ssr:type" v="adressenavn" />
	</node>
	<node id="-332019" lat="58.102805894" lon="8.1319456758">
		<tag k="name" v="Brattholmen" />
		<tag k="ssr:date" v="2019-05-30" />
		<tag k="ssr:gruppe" v="veg" />
		<tag k="ssr:hovedgruppe" v="infrastruktur" />
		<tag k="ssr:stedsnr" v="985950" />
		<tag k="ssr:type" v="adressenavn" />
	</node>
	<node id="-332018" lat="58.1205107243" lon="7.98372283935">
		<tag k="name" v="Bragdøya" />
		<tag k="ssr:date" v="2019-05-30" />
		<tag k="ssr:gruppe" v="veg" />
		<tag k="ssr:hovedgruppe" v="infrastruktur" />
		<tag k="ssr:stedsnr" v="985949" />
		<tag k="ssr:type" v="adressenavn" />
	</node>
	<node id="-332017" lat="58.1821178896" lon="7.86700757026">
		<tag k="name" v="Bergstølvegen" />
		<tag k="ssr:date" v="2019-05-30" />
		<tag k="ssr:gruppe" v="veg" />
		<tag k="ssr:hovedgruppe" v="infrastruktur" />
		<tag k="ssr:stedsnr" v="985946" />
		<tag k="ssr:type" v="adressenavn" />
	</node>
	<node id="-332016" lat="58.1867315424" lon="8.04447235571">
		<tag k="name" v="Bekkeblomveien" />
		<tag k="ssr:date" v="2019-05-30" />
		<tag k="ssr:gruppe" v="veg" />
		<tag k="ssr:hovedgruppe" v="infrastruktur" />
		<tag k="ssr:stedsnr" v="985945" />
		<tag k="ssr:type" v="adressenavn" />
	</node>
	<node id="-332015" lat="58.1116676491" lon="7.97087221108">
		<tag k="name" v="Andøybakken" />
		<tag k="ssr:date" v="2019-05-30" />
		<tag k="ssr:gruppe" v="veg" />
		<tag k="ssr:hovedgruppe" v="infrastruktur" />
		<tag k="ssr:stedsnr" v="985934" />
		<tag k="ssr:type" v="adressenavn" />
	</node>
	<node id="-331992" lat="58.1511039845" lon="7.99409139476">
		<tag k="name" v="Agder fylke" />
		<tag k="ssr:date" v="2019-12-10" />
		<tag k="ssr:gruppe" v="administrativeIndelinger" />
		<tag k="ssr:hovedgruppe" v="offentligAdministrasjon" />
		<tag k="ssr:stedsnr" v="1073974" />
		<tag k="ssr:type" v="fylke" />
	</node>
	<node id="-331457" lat="58.1518805599" lon="7.93722777378">
		<tag k="name" v="Revetjønnveien" />
		<tag k="ssr:date" v="2016-05-10" />
		<tag k="ssr:gruppe" v="veg" />
		<tag k="ssr:hovedgruppe" v="infrastruktur" />
		<tag k="ssr:stedsnr" v="288954" />
		<tag k="ssr:type" v="vegstrekning" />
	</node>
	<node id="-332983" lat="58.0592777766" lon="8.00534166292">
		<tag k="name" v="Ytre Blåstholmen" />
		<tag k="old_name" v="Blåstholmen;Blæstholmen" />
		<tag k="ssr:date" v="2016-05-10" />
		<tag k="ssr:gruppe" v="navigasjon" />
		<tag k="ssr:hovedgruppe" v="infrastruktur" />
		<tag k="ssr:stedsnr" v="425336" />
		<tag k="ssr:type" v="fyrlykt" />
	</node>
	<node id="-331948" lat="58.26534722" lon="8.12143056186">
		<tag k="alt_name" v="Gaml.postvei" />
		<tag k="name" v="Gml.postvei" />
		<tag k="ssr:date" v="2016-05-11" />
		<tag k="ssr:gruppe" v="veg" />
		<tag k="ssr:hovedgruppe" v="infrastruktur" />
		<tag k="ssr:stedsnr" v="896193" />
		<tag k="ssr:type" v="vegstrekning" />
	</node>
	<node id="-332944" lat="58.1149249972" lon="8.10221944629">
		<tag k="name" v="Stokken" />
		<tag k="ssr:date" v="2016-05-10" />
		<tag k="ssr:gruppe" v="navigasjon" />
		<tag k="ssr:hovedgruppe" v="infrastruktur" />
		<tag k="ssr:stedsnr" v="267173" />
		<tag k="ssr:type" v="fyrlykt" />
	</node>
	<node id="-332943" lat="58.1094999976" lon="8.1140833414">
		<tag k="name" v="Mannevikodden" />
		<tag k="old_name" v="Mannevigodden" />
		<tag k="ssr:date" v="2016-05-10" />
		<tag k="ssr:gruppe" v="navigasjon" />
		<tag k="ssr:hovedgruppe" v="infrastruktur" />
		<tag k="ssr:stedsnr" v="267165" />
		<tag k="ssr:type" v="fyrlykt" />
	</node>
	<node id="-334409" lat="58.0770493905" lon="8.03140026845">
		<tag k="loc_name" v="Senskjer lykt" />
		<tag k="name" v="Senskjer" />
		<tag k="ssr:date" v="2018-04-13" />
		<tag k="ssr:gruppe" v="navigasjon" />
		<tag k="ssr:hovedgruppe" v="infrastruktur" />
		<tag k="ssr:stedsnr" v="910185" />
		<tag k="ssr:type" v="fyrlykt" />
	</node>
	<node id="-332872" lat="58.0629166688" lon="7.99699444816">
		<tag k="name" v="Bestemorsmed" />
		<tag k="ssr:date" v="2016-05-10" />
		<tag k="ssr:gruppe" v="navigasjon" />
		<tag k="ssr:hovedgruppe" v="infrastruktur" />
		<tag k="ssr:stedsnr" v="228354" />
		<tag k="ssr:type" v="overett" />
	</node>
	<node id="-331829" lat="58.2212361071" lon="7.93434722346">
		<tag k="name" v="Torridalsveien Fv.Kl" />
		<tag k="ssr:date" v="2016-05-10" />
		<tag k="ssr:gruppe" v="veg" />
		<tag k="ssr:hovedgruppe" v="infrastruktur" />
		<tag k="ssr:stedsnr" v="409750" />
		<tag k="ssr:type" v="vegstrekning" />
	</node>
	<node id="-333359" lat="58.1470277816" lon="8.03836666078">
		<tag k="name" v="Gleodden" />
		<tag k="ssr:date" v="2016-05-10" />
		<tag k="ssr:gruppe" v="navigasjon" />
		<tag k="ssr:hovedgruppe" v="infrastruktur" />
		<tag k="ssr:stedsnr" v="546202" />
		<tag k="ssr:type" v="fyrlykt" />
	</node>
	<node id="-332330" lat="58.1512358727" lon="7.99466556121">
		<tag k="loc_name" v="Vest-Agder;Vest-Agder" />
		<tag k="name" v="Vest-Agder fylke" />
		<tag k="ssr:date" v="2019-12-10" />
		<tag k="ssr:gruppe" v="administrativeIndelinger" />
		<tag k="ssr:hovedgruppe" v="offentligAdministrasjon" />
		<tag k="ssr:stedsnr" v="85783" />
		<tag k="ssr:type" v="fylke" />
	</node>
	<node id="-332080" lat="58.1465548146" lon="7.9959012832">
		<tag k="name" v="Sørlandet" />
		<tag k="ssr:date" v="2019-01-22" />
		<tag k="ssr:gruppe" v="administrativeIndelinger" />
		<tag k="ssr:hovedgruppe" v="offentligAdministrasjon" />
		<tag k="ssr:stedsnr" v="989456" />
		<tag k="ssr:type" v="annenAdministrativInndeling" />
	</node>
	<node id="-332299" lat="58.0785722267" lon="7.95612222752">
		<tag k="name" v="Flekkerøygapet" />
		<tag k="ssr:date" v="2016-05-10" />
		<tag k="ssr:gruppe" v="navigasjon" />
		<tag k="ssr:hovedgruppe" v="infrastruktur" />
		<tag k="ssr:stedsnr" v="61158" />
		<tag k="ssr:type" v="fyrlykt" />
	</node>
</osm>
