<?xml version="1.0" encoding="UTF-8"?>
<osm version="0.6" generator="osmapis">
	<node id="412645764" lat="60.7849069" lon="10.5720464" version="4" timestamp="2022-02-01T16:51:09Z" changeset="116876628" uid="3497659" user="NKA">
		<tag k="junction" v="yes" />
		<tag k="name" v="Tylikrysset" />
		<tag k="ssr:stedsnr" v="405136" />
	</node>
	<node id="412648667" lat="60.7908165" lon="10.3991384" version="4" timestamp="2022-02-01T16:51:09Z" changeset="116876628" uid="3497659" user="NKA">
		<tag k="junction" v="yes" />
		<tag k="name" v="Borgen" />
		<tag k="ssr:stedsnr" v="223469" />
	</node>
	<node id="529863011" lat="60.7627443" lon="10.6950187" version="5" timestamp="2022-02-01T16:51:09Z" changeset="116876628" uid="3497659" user="NKA">
		<tag k="junction" v="yes" />
		<tag k="name" v="Ã˜stbytaje" />
		<tag k="ssr:stedsnr" v="526646" />
	</node>
	<node id="2440452167" lat="61.0040255" lon="10.3924085" version="5" timestamp="2022-02-01T16:51:09Z" changeset="116876628" uid="3497659" user="NKA">
		<tag k="highway" v="turning_circle" />
		<tag k="junction" v="yes" />
		<tag k="name" v="Kullmyrbrotten" />
		<tag k="ssr:stedsnr" v="223701" />
	</node>
</osm>
