<?xml version="1.0" encoding="UTF-8"?>
<osm version="0.6" generator="osmapis">
	<node lat="63.04193611061549" lon="7.787469438372452" id="-2856">
		<tag k="bridge" v="yes" />
		<tag k="layer" v="1" />
		<tag k="name" v="Svenskesvingbrua" />
		<tag k="ssr:stedsnr" v="86973" />
	</node>
	<node lat="63.12067499639052" lon="7.728830545985881" id="-2858">
		<tag k="man_made" v="quay" />
		<tag k="name" v="Holmfjæra" />
		<tag k="place" v="locality" />
		<tag k="ssr:stedsnr" v="101427" />
	</node>
	<node lat="63.112630554181294" lon="7.732727786454546" id="-2884">
		<tag k="man_made" v="quay" />
		<tag k="name" v="Vågakaia" />
		<tag k="place" v="locality" />
		<tag k="ssr:stedsnr" v="162516" />
	</node>
	<node lat="63.02670833232925" lon="7.765119453258396" id="-2900">
		<tag k="bridge" v="yes" />
		<tag k="layer" v="1" />
		<tag k="name" v="Purkholmbrua" />
		<tag k="ssr:stedsnr" v="268953" />
	</node>
	<node lat="63.10456110754934" lon="7.821563881234226" id="-2901">
		<tag k="bridge" v="yes" />
		<tag k="layer" v="1" />
		<tag k="name" v="Omsundbrua" />
		<tag k="ssr:stedsnr" v="209331" />
	</node>
	<node lat="63.10603352598033" lon="7.724982142877354" id="-2902">
		<tag k="bridge" v="yes" />
		<tag k="layer" v="1" />
		<tag k="name" v="Sørsundbrua" />
		<tag k="ssr:stedsnr" v="209334" />
	</node>
	<node lat="63.01805555823819" lon="7.762344442352891" id="-2906">
		<tag k="amenity" v="ferry_terminal" />
		<tag k="name" v="Kvitneset ferjekai" />
		<tag k="ssr:stedsnr" v="225100" />
	</node>
	<node lat="63.10631388789463" lon="7.82261666801445" id="-2913">
		<tag k="bridge" v="yes" />
		<tag k="layer" v="1" />
		<tag k="name" v="Gamle Omsundbrua" />
		<tag k="ssr:stedsnr" v="271837" />
	</node>
	<node lat="63.10456110754934" lon="7.821563881234226" id="-2914">
		<tag k="bridge" v="yes" />
		<tag k="layer" v="1" />
		<tag k="name" v="Omsundbrua" />
		<tag k="ssr:stedsnr" v="271857" />
	</node>
	<node lat="63.07803889211864" lon="7.881508339111806" id="-2922">
		<tag k="bridge" v="yes" />
		<tag k="layer" v="1" />
		<tag k="name" v="Saltkjelbrua" />
		<tag k="ssr:stedsnr" v="268978" />
	</node>
	<node lat="63.11485000274839" lon="7.7340805469215725" id="-2923">
		<tag k="highway" v="bus_stop" />
		<tag k="name" v="Rutebilstasjon" />
		<tag k="ssr:stedsnr" v="283385" />
	</node>
	<node lat="63.11593332976102" lon="7.7386305593900175" id="-2924">
		<tag k="man_made" v="quay" />
		<tag k="name" v="Milnbrygga" />
		<tag k="place" v="locality" />
		<tag k="ssr:stedsnr" v="284516" />
	</node>
	<node lat="63.08043610950518" lon="7.828544449149953" id="-2930">
		<tag k="highway" v="path" />
		<tag k="name" v="Skarvegen" />
		<tag k="ssr:stedsnr" v="287004" />
	</node>
	<node lat="63.11413611379338" lon="7.848386108656273" id="-2980">
		<tag k="junction" v="yes" />
		<tag k="name" v="Korsvegen" />
		<tag k="place" v="locality" />
		<tag k="ssr:stedsnr" v="347504" />
	</node>
	<node lat="63.029697220318674" lon="7.7741638879746" id="-3012">
		<tag k="bridge" v="yes" />
		<tag k="layer" v="1" />
		<tag k="name" v="Vollabakkbrua" />
		<tag k="ssr:stedsnr" v="450975" />
	</node>
	<node lat="63.1132861088268" lon="7.75600277335162" id="-3013">
		<tag k="bridge" v="yes" />
		<tag k="layer" v="1" />
		<tag k="name" v="Melkvikbrua" />
		<tag k="ssr:stedsnr" v="452316" />
	</node>
	<node lat="63.11674999874118" lon="7.750477776882609" id="-3014">
		<tag k="bridge" v="yes" />
		<tag k="layer" v="1" />
		<tag k="name" v="Nordsundbrua" />
		<tag k="ssr:stedsnr" v="452319" />
	</node>
	<node lat="63.11446388769502" lon="7.760927786131343" id="-3015">
		<tag k="bridge" v="yes" />
		<tag k="layer" v="1" />
		<tag k="name" v="Kamsvågbrua" />
		<tag k="ssr:stedsnr" v="452323" />
	</node>
	<node lat="63.11448611033106" lon="7.762188893491872" id="-3016">
		<tag k="bridge" v="yes" />
		<tag k="layer" v="1" />
		<tag k="name" v="Roklubbrua" />
		<tag k="ssr:stedsnr" v="452324" />
	</node>
	<node lat="63.02784999579741" lon="7.766025006727989" id="-3073">
		<tag k="bridge" v="yes" />
		<tag k="layer" v="1" />
		<tag k="name" v="Flatsetbrua" />
		<tag k="ssr:stedsnr" v="692954" />
	</node>
	<node lat="63.026877782063906" lon="7.7651555477794245" id="-3074">
		<tag k="bridge" v="yes" />
		<tag k="layer" v="1" />
		<tag k="name" v="Flatsetsundbrua" />
		<tag k="ssr:stedsnr" v="692956" />
	</node>
	<node lat="63.104650000882614" lon="7.8218805635122814" id="-3075">
		<tag k="bridge" v="yes" />
		<tag k="layer" v="1" />
		<tag k="name" v="Gamle Omsundbrua" />
		<tag k="ssr:stedsnr" v="571931" />
	</node>
	<node lat="63.114241665511734" lon="7.759130564084454" id="-3076">
		<tag k="bridge" v="yes" />
		<tag k="layer" v="1" />
		<tag k="name" v="Bjørnahaugbrua" />
		<tag k="ssr:stedsnr" v="573312" />
	</node>
	<node lat="63.11862499666112" lon="7.748394447901336" id="-3077">
		<tag k="bridge" v="yes" />
		<tag k="layer" v="1" />
		<tag k="name" v="Gomabrua" />
		<tag k="ssr:stedsnr" v="695327" />
	</node>
	<node lat="63.11247500261666" lon="7.825377782087273" id="-3121">
		<tag k="aeroway" v="aerodrome" />
		<tag k="alt_name" v="Kvernberget" />
		<tag k="name" v="Kristiansund lufthavn, Kvernberget" />
		<tag k="old_name" v="Kristiansund lufthavn;Kværnberget" />
		<tag k="ssr:stedsnr" v="679307" />
	</node>
	<node lat="63.0449305584485" lon="7.7654611172872166" id="-3134">
		<tag k="ford" v="yes" />
		<tag k="name" v="Øvervadet" />
		<tag k="place" v="locality" />
		<tag k="ssr:stedsnr" v="893253" />
	</node>
	<node lat="63.11403333718384" lon="7.735608332958166" id="-3142">
		<tag k="amenity" v="ferry_terminal" />
		<tag k="name" v="Kristiansund ferjekai" />
		<tag k="ssr:stedsnr" v="702305" />
	</node>
	<node lat="63.11019166458957" lon="7.767511117636241" id="-3187">
		<tag k="layer" v="-1" />
		<tag k="name" v="Fosnaporten" />
		<tag k="ssr:stedsnr" v="814831" />
		<tag k="tunnel" v="yes" />
	</node>
	<node lat="63.11763055377726" lon="7.74841666918797" id="-3188">
		<tag k="bridge" v="yes" />
		<tag k="layer" v="1" />
		<tag k="name" v="Skomakerbrua" />
		<tag k="ssr:stedsnr" v="816319" />
	</node>
	<node lat="63.0846916631145" lon="7.7814500089795215" id="-3248">
		<tag k="man_made" v="quay" />
		<tag k="name" v="Stabilkaia" />
		<tag k="place" v="locality" />
		<tag k="ssr:stedsnr" v="906352" />
	</node>
	<node lat="63.11191666604824" lon="7.870433342791823" id="-3254">
		<tag k="amenity" v="ferry_terminal" />
		<tag k="name" v="Seivika ferjekai" />
		<tag k="ssr:stedsnr" v="945306" />
	</node>
	<node lat="63.12253888461597" lon="7.72736110932324" id="-3285">
		<tag k="bridge" v="yes" />
		<tag k="layer" v="1" />
		<tag k="name" v="Viadukta" />
		<tag k="ssr:stedsnr" v="27338" />
	</node>
	<node lat="63.10501110872469" lon="7.745050008654974" id="-3286">
		<tag k="man_made" v="quay" />
		<tag k="name" v="Leslibrygga" />
		<tag k="place" v="locality" />
		<tag k="ssr:stedsnr" v="41489" />
	</node>
	<node lat="63.107618908805414" lon="7.723211784935586" id="-3325">
		<tag k="aeroway" v="airstrip" />
		<tag k="name" v="Kristiansund helikopterplass, Kristiansund sykehus" />
		<tag k="ssr:stedsnr" v="102566" />
	</node>
	<node lat="63.11378333764655" lon="7.733852769333321" id="-3331">
		<tag k="man_made" v="quay" />
		<tag k="name" v="Nordmørskaia" />
		<tag k="place" v="locality" />
		<tag k="ssr:stedsnr" v="104312" />
	</node>
	<node lat="63.07060833637962" lon="7.889475000819637" id="-3340">
		<tag k="amenity" v="ferry_terminal" />
		<tag k="name" v="Kvalvåg ferjeleie" />
		<tag k="ssr:stedsnr" v="105388" />
	</node>
	<node lat="63.11775832999019" lon="7.737997231127639" id="-3404">
		<tag k="man_made" v="quay" />
		<tag k="name" v="Ballastkaia" />
		<tag k="place" v="locality" />
		<tag k="ssr:stedsnr" v="223519" />
	</node>
	<node lat="63.11726111117811" lon="7.732586114677508" id="-3418">
		<tag k="man_made" v="quay" />
		<tag k="name" v="Vedkaia" />
		<tag k="place" v="locality" />
		<tag k="ssr:stedsnr" v="283365" />
	</node>
	<node lat="63.103488885129636" lon="7.745391665777891" id="-3419">
		<tag k="man_made" v="quay" />
		<tag k="name" v="Øverlandsbrygga" />
		<tag k="place" v="locality" />
		<tag k="ssr:stedsnr" v="284498" />
	</node>
	<node lat="63.11150833445286" lon="7.733591670189486" id="-3431">
		<tag k="man_made" v="breakwater" />
		<tag k="name" v="Piren" />
		<tag k="place" v="locality" />
		<tag k="ssr:stedsnr" v="286306" />
	</node>
	<node lat="63.03591111343419" lon="7.7862944442542545" id="-3495">
		<tag k="bridge" v="yes" />
		<tag k="layer" v="1" />
		<tag k="name" v="Torebakkbrua" />
		<tag k="ssr:stedsnr" v="389960" />
	</node>
	<node lat="63.113958331625895" lon="7.736819437257626" id="-3554">
		<tag k="man_made" v="quay" />
		<tag k="name" v="Holmakaia" />
		<tag k="place" v="locality" />
		<tag k="ssr:stedsnr" v="528347" />
	</node>
	<node lat="63.10877777982845" lon="7.732022216561962" id="-3555">
		<tag k="man_made" v="quay" />
		<tag k="name" v="Storkaia" />
		<tag k="place" v="locality" />
		<tag k="ssr:stedsnr" v="528348" />
	</node>
	<node lat="63.06908055146735" lon="7.876930552603703" id="-3582">
		<tag k="bridge" v="yes" />
		<tag k="layer" v="1" />
		<tag k="name" v="Kvalvågbrua" />
		<tag k="ssr:stedsnr" v="571966" />
	</node>
	<node lat="63.1043972182454" lon="7.782588883349281" id="-3583">
		<tag k="man_made" v="quay" />
		<tag k="name" v="Vågakaia" />
		<tag k="place" v="locality" />
		<tag k="ssr:stedsnr" v="586270" />
	</node>
	<node lat="63.03202777803768" lon="7.814130545738883" id="-3608">
		<tag k="bridge" v="yes" />
		<tag k="layer" v="1" />
		<tag k="name" v="Freibrua" />
		<tag k="ssr:stedsnr" v="631962" />
	</node>
	<node lat="63.119572226734995" lon="7.747541672808512" id="-3609">
		<tag k="bridge" v="yes" />
		<tag k="layer" v="1" />
		<tag k="name" v="Teistholmbrua" />
		<tag k="ssr:stedsnr" v="633339" />
	</node>
	<node lat="63.1020333373428" lon="7.820247223904835" id="-3670">
		<tag k="bridge" v="yes" />
		<tag k="layer" v="1" />
		<tag k="name" v="Rensviksundbrua" />
		<tag k="ssr:stedsnr" v="753945" />
	</node>
	<node lat="63.04366944255861" lon="7.706094446237133" id="-3676">
		<tag k="fixme" v="verify maritime location" />
		<tag k="mooring" v="yes" />
		<tag k="name" v="Gjengstøa" />
		<tag k="place" v="locality" />
		<tag k="ssr:stedsnr" v="771852" />
	</node>
	<node lat="63.08074444781082" lon="7.783238893718974" id="-3695">
		<tag k="bridge" v="yes" />
		<tag k="layer" v="1" />
		<tag k="name" v="Sødalselvbrua" />
		<tag k="ssr:stedsnr" v="814962" />
	</node>
	<node lat="63.11531944885173" lon="7.791672227257943" id="-3748">
		<tag k="highway" v="path" />
		<tag k="name" v="Lykkjemyrstigen" />
		<tag k="ssr:stedsnr" v="954533" />
	</node>
	<node lat="63.113982954086346" lon="7.734767987220731" id="-3768">
		<tag k="man_made" v="quay" />
		<tag k="name" v="Kristiansund hurtigbåtterminal" />
		<tag k="place" v="locality" />
		<tag k="ssr:stedsnr" v="1072432" />
	</node>
	<node lat="63.18922848374724" lon="7.621381246984733" id="-3775">
		<tag k="name" v="Vårsmolleia" />
		<tag k="place" v="locality" />
		<tag k="ssr:stedsnr" v="1077837" />
	</node>
	<node lat="63.1150527471478" lon="7.736574584545074" id="-3776">
		<tag k="man_made" v="quay" />
		<tag k="name" v="Devoldholmen" />
		<tag k="place" v="locality" />
		<tag k="ssr:stedsnr" v="1077933" />
	</node>
	<node lat="63.11641906480878" lon="7.733913563531912" id="-3777">
		<tag k="man_made" v="quay" />
		<tag k="name" v="Hollenderkaia" />
		<tag k="place" v="locality" />
		<tag k="ssr:stedsnr" v="1077952" />
	</node>
	<node lat="63.11693335401856" lon="7.733758983877725" id="-3778">
		<tag k="man_made" v="quay" />
		<tag k="name" v="Kullkrana" />
		<tag k="place" v="locality" />
		<tag k="ssr:stedsnr" v="1077953" />
	</node>
	<node lat="63.15415171471744" lon="7.703705710233569" id="-3783">
		<tag k="name" v="Kristiansundsleia" />
		<tag k="place" v="locality" />
		<tag k="ssr:stedsnr" v="1078642" />
	</node>
	<node lat="63.113859857353866" lon="7.73435213515791" id="-3786">
		<tag k="man_made" v="monitoring_station" />
		<tag k="monitoring:water_Level" v="yes" />
		<tag k="name" v="Kristiansund vannstandsmåler" />
		<tag k="ssr:stedsnr" v="1082317" />
	</node>
</osm>
