<?xml version="1.0" encoding="UTF-8"?>
<<<<<<< HEAD
<osm version="0.6" generator="osmapis">
	<node lat="63.21929444219845" lon="7.541386110042774" id="-967">
		<tag k="name" v="Søre Flesa" />
		<tag k="place" v="islet" />
		<tag k="ssr:stedsnr" v="230364" />
	</node>
	<node lat="63.18539999775638" lon="7.53985277131784" id="-968">
		<tag k="name" v="Engelsfalla" />
		<tag k="natural" v="shoal" />
		<tag k="place" v="locality" />
		<tag k="ssr:stedsnr" v="230450" />
	</node>
	<node lat="63.19998611230262" lon="7.639325007679533" id="-969">
		<tag k="name" v="Hummarskjærtaren" />
		<tag k="natural" v="shoal" />
		<tag k="place" v="locality" />
		<tag k="ssr:stedsnr" v="230452" />
	</node>
	<node lat="63.13636111097103" lon="7.778430547602715" id="-970">
		<tag k="name" v="Skorptaren" />
		<tag k="natural" v="shoal" />
		<tag k="place" v="locality" />
		<tag k="ssr:stedsnr" v="230474" />
	</node>
	<node lat="63.30919167060564" lon="7.402005559645525" id="-973">
		<tag k="name" v="Austerknollan" />
		<tag k="natural" v="shoal" />
		<tag k="place" v="locality" />
		<tag k="ssr:stedsnr" v="231739" />
	</node>
	<node lat="63.20642777983994" lon="7.471974993836945" id="-974">
		<tag k="name" v="Ufstaren" />
		<tag k="natural" v="shoal" />
		<tag k="place" v="locality" />
		<tag k="ssr:stedsnr" v="231755" />
	</node>
	<node lat="63.219495295619645" lon="7.59301136771567" id="-978">
		<tag k="name" v="Grip" />
		<tag k="place" v="island" />
		<tag k="ssr:stedsnr" v="12672" />
	</node>
	<node lat="63.022630552517285" lon="7.739236103454622" id="-979">
		<tag k="fixme" v="consider seamark:type=rock or natural=shoal" />
		<tag k="name" v="Svartskjæret" />
		<tag k="place" v="islet" />
		<tag k="ssr:stedsnr" v="232363" />
	</node>
	<node lat="63.105375000233984" lon="7.726347219424497" id="-981">
		<tag k="name" v="Leirvikbukta" />
		<tag k="natural" v="bay" />
		<tag k="ssr:stedsnr" v="41503" />
	</node>
	<node lat="63.10313611274602" lon="7.8087166640335495" id="-983">
		<tag k="name" v="Kvalen" />
		<tag k="natural" v="cape" />
		<tag k="ssr:stedsnr" v="41278" />
	</node>
	<node lat="63.12360555865005" lon="7.693813884988713" id="-987">
		<tag k="name" v="Storholmen" />
		<tag k="place" v="islet" />
		<tag k="ssr:stedsnr" v="44310" />
	</node>
	<node lat="63.10462777774509" lon="7.863405561837699" id="-991">
		<tag k="name" v="Grønholmane" />
		<tag k="place" v="islet" />
		<tag k="ssr:stedsnr" v="238197" />
	</node>
	<node lat="63.105288887811255" lon="7.849886107130632" id="-992">
		<tag k="name" v="Langholmen" />
		<tag k="place" v="islet" />
		<tag k="ssr:stedsnr" v="238209" />
	</node>
	<node lat="63.12762499638544" lon="7.7906972160466115" id="-993">
		<tag k="name" v="Ovnstaren" />
		<tag k="natural" v="shoal" />
		<tag k="place" v="locality" />
		<tag k="ssr:stedsnr" v="238876" />
	</node>
	<node lat="63.01027778198097" lon="7.772363891793844" id="-994">
		<tag k="name" v="Mefjordsgruna" />
		<tag k="natural" v="shoal" />
		<tag k="place" v="locality" />
		<tag k="ssr:stedsnr" v="50374" />
	</node>
	<node lat="63.01947499691533" lon="7.75449444894378" id="-997">
		<tag k="name" v="Djupvika" />
		<tag k="natural" v="bay" />
		<tag k="ssr:stedsnr" v="73213" />
	</node>
	<node lat="63.01875000058174" lon="7.786808340751494" id="-998">
		<tag k="name" v="Jåholmen" />
		<tag k="place" v="islet" />
		<tag k="ssr:stedsnr" v="73224" />
	</node>
	<node lat="63.1490272102389" lon="7.8396227051331415" id="-999">
		<tag k="bay" v="fjord" />
		<tag k="name" v="Talgsjøen" />
		<tag k="natural" v="bay" />
		<tag k="ssr:stedsnr" v="73301" />
	</node>
	<node lat="63.1044833326602" lon="7.8228083235322385" id="-1000">
		<tag k="name" v="Rensvikholmen" />
		<tag k="place" v="islet" />
		<tag k="ssr:stedsnr" v="73369" />
	</node>
	<node lat="63.19719444350187" lon="7.689927773592094" id="-1001">
		<tag k="fixme" v="consider seamark:type=rock or natural=shoal" />
		<tag k="name" v="Svartskjæra" />
		<tag k="place" v="islet" />
		<tag k="ssr:stedsnr" v="73661" />
	</node>
	<node lat="63.17101944273416" lon="7.540058326150984" id="-1002">
		<tag k="fixme" v="consider seamark:type=rock or natural=shoal" />
		<tag k="name" v="Treflesa" />
		<tag k="place" v="islet" />
		<tag k="ssr:stedsnr" v="73664" />
	</node>
	<node lat="63.217250002778904" lon="7.585394449139623" id="-1003">
		<tag k="fixme" v="consider seamark:type=rock or natural=shoal" />
		<tag k="name" v="Kråka" />
		<tag k="place" v="islet" />
		<tag k="ssr:stedsnr" v="73668" />
	</node>
	<node lat="63.229455552196754" lon="7.612322217217224" id="-1004">
		<tag k="fixme" v="consider seamark:type=rock or natural=shoal" />
		<tag k="name" v="Hårskollen" />
		<tag k="place" v="islet" />
		<tag k="ssr:stedsnr" v="73679" />
	</node>
	<node lat="63.100294442804504" lon="7.726530557865837" id="-1006">
		<tag k="fixme" v="consider seamark:type=rock or natural=shoal" />
		<tag k="name" v="Tante Lise" />
		<tag k="place" v="islet" />
		<tag k="ssr:stedsnr" v="101263" />
	</node>
	<node lat="63.112266669926186" lon="7.739386106738974" id="-1008">
		<tag k="name" v="Hamna" />
		<tag k="natural" v="bay" />
		<tag k="ssr:stedsnr" v="101432" />
	</node>
	<node lat="63.1301499991734" lon="7.746680547795858" id="-1019">
		<tag k="name" v="Ytre Garnneset" />
		<tag k="natural" v="cape" />
		<tag k="ssr:stedsnr" v="116903" />
	</node>
	<node lat="63.09608333280803" lon="7.732180549688155" id="-1020">
		<tag k="name" v="Bolgsvaet" />
		<tag k="natural" v="bay" />
		<tag k="ssr:stedsnr" v="133324" />
	</node>
	<node lat="63.071799999756685" lon="7.706377786847137" id="-1021">
		<tag k="name" v="Araneset" />
		<tag k="natural" v="cape" />
		<tag k="ssr:stedsnr" v="133473" />
	</node>
	<node lat="63.088913889461594" lon="7.768577783543099" id="-1023">
		<tag k="name" v="Husøya" />
		<tag k="place" v="island" />
		<tag k="ssr:stedsnr" v="134359" />
	</node>
	<node lat="63.09254722594233" lon="7.783833328640456" id="-1024">
		<tag k="name" v="Vorpholmen" />
		<tag k="place" v="islet" />
		<tag k="ssr:stedsnr" v="134360" />
	</node>
	<node lat="63.02475555120853" lon="7.739427772961508" id="-1025">
		<tag k="name" v="Folafoten" />
		<tag k="natural" v="cape" />
		<tag k="ssr:stedsnr" v="255237" />
	</node>
	<node lat="63.236805552689326" lon="7.6829194419288305" id="-1031">
		<tag k="bay" v="fjord" />
		<tag k="name" v="Griphølen" />
		<tag k="natural" v="bay" />
		<tag k="ssr:stedsnr" v="255693" />
	</node>
	<node lat="63.06250555126152" lon="7.890041667253686" id="-1040">
		<tag k="alt_name" v="Svartskjeret" />
		<tag k="fixme" v="consider seamark:type=rock or natural=shoal" />
		<tag k="name" v="Svartskjæret" />
		<tag k="place" v="islet" />
		<tag k="ssr:stedsnr" v="165360" />
	</node>
	<node lat="63.13298055755222" lon="7.818769447484731" id="-1045">
		<tag k="name" v="Steinvika" />
		<tag k="natural" v="bay" />
		<tag k="ssr:stedsnr" v="165766" />
	</node>
	<node lat="63.21693888786514" lon="7.625636103566726" id="-1046">
		<tag k="name" v="Langflua" />
		<tag k="natural" v="shoal" />
		<tag k="place" v="locality" />
		<tag k="ssr:stedsnr" v="169106" />
	</node>
	<node lat="63.15771389177193" lon="7.596716674822119" id="-1047">
		<tag k="name" v="Skjelingsleia" />
		<tag k="natural" v="bay" />
		<tag k="ssr:stedsnr" v="169818" />
	</node>
	<node lat="63.18761388539947" lon="7.5091361192870405" id="-1048">
		<tag k="name" v="Lønntaran" />
		<tag k="natural" v="shoal" />
		<tag k="place" v="locality" />
		<tag k="ssr:stedsnr" v="170676" />
	</node>
	<node lat="63.10784721889407" lon="7.7429055542054135" id="-1053">
		<tag k="name" v="Hamna" />
		<tag k="natural" v="bay" />
		<tag k="ssr:stedsnr" v="223506" />
	</node>
	<node lat="63.12844444210285" lon="7.759905554185754" id="-1061">
		<tag k="name" v="Småholman" />
		<tag k="place" v="islet" />
		<tag k="ssr:stedsnr" v="226743" />
	</node>
	<node lat="63.30868333221638" lon="7.3705416765510945" id="-1064">
		<tag k="name" v="Raudtaren" />
		<tag k="natural" v="shoal" />
		<tag k="place" v="locality" />
		<tag k="ssr:stedsnr" v="231738" />
	</node>
	<node lat="63.12795000156337" lon="7.832825004931273" id="-1066">
		<tag k="name" v="Gløsvågen" />
		<tag k="natural" v="bay" />
		<tag k="ssr:stedsnr" v="255272" />
	</node>
	<node lat="63.13021388893259" lon="7.851733329020249" id="-1067">
		<tag k="name" v="Kolvikbukta" />
		<tag k="natural" v="bay" />
		<tag k="ssr:stedsnr" v="255279" />
	</node>
	<node lat="63.18749444438359" lon="7.635080564771908" id="-1070">
		<tag k="name" v="Vårsmolen" />
		<tag k="place" v="islet" />
		<tag k="ssr:stedsnr" v="255669" />
	</node>
	<node lat="63.12950833148309" lon="7.763191668322466" id="-1076">
		<tag k="name" v="Molbogholman" />
		<tag k="place" v="islet" />
		<tag k="ssr:stedsnr" v="286777" />
	</node>
	<node lat="63.083177779181405" lon="7.895227777250532" id="-1080">
		<tag k="fixme" v="consider seamark:type=rock or natural=shoal" />
		<tag k="name" v="Ørnvikskjeret" />
		<tag k="place" v="islet" />
		<tag k="ssr:stedsnr" v="287403" />
	</node>
	<node lat="63.08236111009151" lon="7.89492499964572" id="-1081">
		<tag k="fixme" v="consider seamark:type=rock or natural=shoal" />
		<tag k="name" v="Kobbskjeret" />
		<tag k="place" v="islet" />
		<tag k="ssr:stedsnr" v="287407" />
	</node>
	<node lat="63.29102221981539" lon="7.272883328848058" id="-1082">
		<tag k="name" v="Skjåka" />
		<tag k="natural" v="shoal" />
		<tag k="place" v="locality" />
		<tag k="ssr:stedsnr" v="292675" />
	</node>
	<node lat="63.066194443638544" lon="7.8924305460764295" id="-1083">
		<tag k="name" v="Kvalvågneset" />
		<tag k="natural" v="cape" />
		<tag k="ssr:stedsnr" v="292684" />
	</node>
	<node lat="63.13236666244626" lon="7.732305558783041" id="-1084">
		<tag k="name" v="Langhaugneset" />
		<tag k="natural" v="cape" />
		<tag k="ssr:stedsnr" v="298894" />
	</node>
	<node lat="63.08869444422485" lon="7.791799999180525" id="-1085">
		<tag k="fixme" v="consider seamark:type=rock or natural=shoal" />
		<tag k="name" v="Grindskjæret" />
		<tag k="place" v="islet" />
		<tag k="ssr:stedsnr" v="299372" />
	</node>
	<node lat="63.119441666074515" lon="7.771252776896006" id="-1086">
		<tag k="name" v="Kvernabukta" />
		<tag k="natural" v="bay" />
		<tag k="ssr:stedsnr" v="299272" />
	</node>
	<node lat="63.100608333807784" lon="7.726338897863139" id="-1088">
		<tag k="fixme" v="consider seamark:type=rock or natural=shoal" />
		<tag k="name" v="Trendeskjær" />
		<tag k="place" v="islet" />
		<tag k="ssr:stedsnr" v="465271" />
	</node>
	<node lat="63.12782023392941" lon="7.773387865595121" id="-1091">
		<tag k="name" v="Skorpa" />
		<tag k="place" v="island" />
		<tag k="ssr:stedsnr" v="316304" />
	</node>
	<node lat="63.115766662585905" lon="7.7553694434748" id="-1092">
		<tag k="name" v="Nordsundet" />
		<tag k="natural" v="strait" />
		<tag k="ssr:stedsnr" v="316305" />
	</node>
	<node lat="63.1215166649636" lon="7.802016672187912" id="-1093">
		<tag k="name" v="Nordlandet" />
		<tag k="place" v="island" />
		<tag k="ssr:stedsnr" v="316318" />
	</node>
	<node lat="63.09389722502352" lon="7.899399994474996" id="-1095">
		<tag k="name" v="Gjengstøholmen" />
		<tag k="place" v="islet" />
		<tag k="ssr:stedsnr" v="316365" />
	</node>
	<node lat="63.12809444315033" lon="7.699791664471739" id="-1102">
		<tag k="fixme" v="multiple name tags, choose one and add the other to alt_name" />
		<tag k="name" v="Sandholet;Krabbholet" />
		<tag k="natural" v="bay" />
		<tag k="ssr:stedsnr" v="468725" />
	</node>
	<node lat="63.13532777371298" lon="7.842852775154247" id="-1105">
		<tag k="alt_name" v="Stavvågen" />
		<tag k="name" v="Stavbrekkbogen" />
		<tag k="natural" v="bay" />
		<tag k="ssr:stedsnr" v="468744" />
	</node>
	<node lat="63.1321277779083" lon="7.789961115606158" id="-1106">
		<tag k="name" v="Skorpenden" />
		<tag k="natural" v="cape" />
		<tag k="ssr:stedsnr" v="468749" />
	</node>
	<node lat="63.078480556525356" lon="7.708008326142432" id="-1107">
		<tag k="name" v="Valneset" />
		<tag k="natural" v="cape" />
		<tag k="ssr:stedsnr" v="468853" />
	</node>
	<node lat="63.11122499902717" lon="7.867866666501326" id="-1110">
		<tag k="name" v="Seivika" />
		<tag k="natural" v="bay" />
		<tag k="ssr:stedsnr" v="324569" />
	</node>
	<node lat="63.10648055654703" lon="7.870886114780575" id="-1111">
		<tag k="name" v="Buktaneset" />
		<tag k="natural" v="cape" />
		<tag k="ssr:stedsnr" v="469391" />
	</node>
	<node lat="63.22753611048559" lon="7.564336114985143" id="-1114">
		<tag k="name" v="Godtaren" />
		<tag k="natural" v="shoal" />
		<tag k="place" v="locality" />
		<tag k="ssr:stedsnr" v="473431" />
	</node>
	<node lat="63.05596666910093" lon="7.726252780267005" id="-1117">
		<tag k="name" v="Krypervikbukta" />
		<tag k="natural" v="bay" />
		<tag k="ssr:stedsnr" v="346858" />
	</node>
	<node lat="63.18423055250204" lon="7.681991670817319" id="-1122">
		<tag k="name" v="Disken" />
		<tag k="natural" v="shoal" />
		<tag k="place" v="locality" />
		<tag k="ssr:stedsnr" v="473482" />
	</node>
	<node lat="63.17230833780289" lon="7.654824996969891" id="-1123">
		<tag k="name" v="Litletaran" />
		<tag k="natural" v="shoal" />
		<tag k="place" v="locality" />
		<tag k="ssr:stedsnr" v="473484" />
	</node>
	<node lat="63.09967500356522" lon="7.886788887437989" id="-1125">
		<tag k="name" v="Kvalvikbukta" />
		<tag k="natural" v="bay" />
		<tag k="ssr:stedsnr" v="347355" />
	</node>
	<node lat="63.100158331800806" lon="7.899474999409035" id="-1126">
		<tag k="fixme" v="consider seamark:type=rock or natural=shoal" />
		<tag k="name" v="Daudmannskjeret" />
		<tag k="place" v="islet" />
		<tag k="ssr:stedsnr" v="347357" />
	</node>
	<node lat="63.12501666356699" lon="7.755797221188119" id="-1130">
		<tag k="name" v="Apotekarholmen" />
		<tag k="place" v="islet" />
		<tag k="ssr:stedsnr" v="347519" />
	</node>
	<node lat="63.12450000147593" lon="7.785519436910499" id="-1131">
		<tag k="name" v="Dragabukta" />
		<tag k="natural" v="bay" />
		<tag k="ssr:stedsnr" v="347526" />
	</node>
	<node lat="63.07434166232203" lon="7.707294450227579" id="-1132">
		<tag k="name" v="Valen" />
		<tag k="natural" v="shoal" />
		<tag k="place" v="locality" />
		<tag k="ssr:stedsnr" v="473730" />
	</node>
	<node lat="63.07009722216097" lon="7.706630562597908" id="-1133">
		<tag k="name" v="Aranesflua" />
		<tag k="place" v="locality" />
		<tag k="seamark:type" v="rock" />
		<tag k="ssr:stedsnr" v="474268" />
	</node>
	<node lat="63.28230555403497" lon="7.305808327210419" id="-1134">
		<tag k="name" v="Indre Steinstaren" />
		<tag k="natural" v="shoal" />
		<tag k="place" v="locality" />
		<tag k="ssr:stedsnr" v="352667" />
	</node>
	<node lat="63.27512499576703" lon="7.290002775997102" id="-1135">
		<tag k="name" v="Steinsskjåka" />
		<tag k="natural" v="shoal" />
		<tag k="place" v="locality" />
		<tag k="ssr:stedsnr" v="474689" />
	</node>
	<node lat="63.090138891256714" lon="7.772886112052423" id="-1136">
		<tag k="name" v="Rognvika" />
		<tag k="natural" v="bay" />
		<tag k="ssr:stedsnr" v="359353" />
	</node>
	<node lat="63.090188886588265" lon="7.786924992301139" id="-1137">
		<tag k="fixme" v="consider seamark:type=rock or natural=shoal" />
		<tag k="name" v="Vågaskjæret" />
		<tag k="place" v="islet" />
		<tag k="ssr:stedsnr" v="359359" />
	</node>
	<node lat="63.121505557887424" lon="7.702680563049053" id="-1138">
		<tag k="fixme" v="consider seamark:type=rock or natural=shoal" />
		<tag k="name" v="Sterkosskjæret" />
		<tag k="place" v="islet" />
		<tag k="ssr:stedsnr" v="359905" />
	</node>
	<node lat="63.124700000619484" lon="7.753697221715687" id="-1139">
		<tag k="name" v="Dunkersundleira" />
		<tag k="natural" v="shoal" />
		<tag k="place" v="locality" />
		<tag k="ssr:stedsnr" v="359911" />
	</node>
	<node lat="63.133911107588" lon="7.741402779645882" id="-1140">
		<tag k="name" v="Hinnakleppen" />
		<tag k="natural" v="cape" />
		<tag k="ssr:stedsnr" v="359914" />
	</node>
	<node lat="63.13433610967367" lon="7.746222221338988" id="-1142">
		<tag k="fixme" v="consider seamark:type=rock or natural=shoal" />
		<tag k="name" v="Hinnaskjæret" />
		<tag k="place" v="islet" />
		<tag k="ssr:stedsnr" v="376272" />
	</node>
	<node lat="63.126477773770425" lon="7.694702784891052" id="-1144">
		<tag k="name" v="Treskoholet" />
		<tag k="natural" v="bay" />
		<tag k="ssr:stedsnr" v="480840" />
	</node>
	<node lat="63.21236944827116" lon="7.60721665711061" id="-1145">
		<tag k="fixme" v="consider seamark:type=rock or natural=shoal" />
		<tag k="name" v="Omfarskjæret" />
		<tag k="place" v="islet" />
		<tag k="ssr:stedsnr" v="483992" />
	</node>
	<node lat="63.092866662584186" lon="7.726836114385142" id="-1146">
		<tag k="name" v="Vestre Bolgfallet" />
		<tag k="place" v="locality" />
		<tag k="seamark:type" v="rock" />
		<tag k="ssr:stedsnr" v="405303" />
	</node>
	<node lat="63.01928611405835" lon="7.746952781733877" id="-1147">
		<tag k="name" v="Prestneset" />
		<tag k="natural" v="cape" />
		<tag k="ssr:stedsnr" v="407798" />
	</node>
	<node lat="63.06680833549059" lon="7.71348332961851" id="-1148">
		<tag k="name" v="Bjørnvikbukta" />
		<tag k="natural" v="bay" />
		<tag k="ssr:stedsnr" v="407847" />
	</node>
	<node lat="63.2092555528443" lon="7.68651944368391" id="-1150">
		<tag k="fixme" v="consider seamark:type=rock or natural=shoal" />
		<tag k="name" v="Vestre Kobbskjæra" />
		<tag k="place" v="islet" />
		<tag k="ssr:stedsnr" v="412440" />
	</node>
	<node lat="63.08465000009115" lon="7.784997220576296" id="-1152">
		<tag k="name" v="Linvågen" />
		<tag k="natural" v="bay" />
		<tag k="ssr:stedsnr" v="420335" />
	</node>
	<node lat="63.14055278030054" lon="7.761688889143837" id="-1153">
		<tag k="name" v="Henotaren" />
		<tag k="natural" v="shoal" />
		<tag k="place" v="locality" />
		<tag k="ssr:stedsnr" v="420937" />
	</node>
	<node lat="63.12089721928369" lon="7.759291663578737" id="-1154">
		<tag k="name" v="Teistholmen" />
		<tag k="place" v="islet" />
		<tag k="ssr:stedsnr" v="437303" />
	</node>
	<node lat="63.30036666357676" lon="7.3239416573106" id="-1156">
		<tag k="alt_name" v="Griptarene" />
		<tag k="name" v="Griptaran" />
		<tag k="natural" v="shoal" />
		<tag k="place" v="locality" />
		<tag k="ssr:stedsnr" v="437606" />
	</node>
	<node lat="63.190777773507435" lon="7.646016670364492" id="-1157">
		<tag k="name" v="Nordgripen" />
		<tag k="place" v="islet" />
		<tag k="ssr:stedsnr" v="437661" />
	</node>
	<node lat="63.17369722226609" lon="7.582891674774479" id="-1158">
		<tag k="fixme" v="consider seamark:type=rock or natural=shoal" />
		<tag k="name" v="Flatskjelingen" />
		<tag k="place" v="islet" />
		<tag k="ssr:stedsnr" v="437664" />
	</node>
	<node lat="63.13692777656895" lon="7.82849722723138" id="-1166">
		<tag k="fixme" v="consider seamark:type=rock or natural=shoal" />
		<tag k="name" v="Draget" />
		<tag k="place" v="islet" />
		<tag k="ssr:stedsnr" v="465013" />
	</node>
	<node lat="63.108955557461414" lon="7.738497230985063" id="-1167">
		<tag k="name" v="Lossiusgrunnen" />
		<tag k="natural" v="shoal" />
		<tag k="place" v="locality" />
		<tag k="ssr:stedsnr" v="465425" />
	</node>
	<node lat="63.10319444164829" lon="7.745644440597126" id="-1168">
		<tag k="name" v="Sjursvika" />
		<tag k="natural" v="bay" />
		<tag k="ssr:stedsnr" v="465456" />
	</node>
	<node lat="63.09885277468707" lon="7.796783324443374" id="-1174">
		<tag k="alt_name" v="Jørilneset" />
		<tag k="name" v="Jørineset" />
		<tag k="natural" v="cape" />
		<tag k="ssr:stedsnr" v="468177" />
	</node>
	<node lat="63.026988887100664" lon="7.748105554855134" id="-1176">
		<tag k="name" v="Huken" />
		<tag k="natural" v="bay" />
		<tag k="ssr:stedsnr" v="468869" />
	</node>
	<node lat="63.127897223525146" lon="7.757736106926577" id="-1178">
		<tag k="fixme" v="consider seamark:type=rock or natural=shoal" />
		<tag k="name" v="Eaholmsflua" />
		<tag k="place" v="islet" />
		<tag k="ssr:stedsnr" v="468763" />
	</node>
	<node lat="63.04801110990663" lon="7.703280565109347" id="-1180">
		<tag k="name" v="Buvikan" />
		<tag k="natural" v="bay" />
		<tag k="ssr:stedsnr" v="473417" />
	</node>
	<node lat="63.098249997341156" lon="7.723747215112565" id="-1181">
		<tag k="fixme" v="consider seamark:type=rock or natural=shoal" />
		<tag k="name" v="Skjerveskjæret" />
		<tag k="place" v="islet" />
		<tag k="ssr:stedsnr" v="473719" />
	</node>
	<node lat="63.07766666375593" lon="7.88912499631901" id="-1187">
		<tag k="name" v="Bogaklubben" />
		<tag k="natural" v="cape" />
		<tag k="ssr:stedsnr" v="679296" />
	</node>
	<node lat="63.10711944242128" lon="7.74507500287399" id="-1189">
		<tag k="name" v="Markussundet" />
		<tag k="natural" v="strait" />
		<tag k="ssr:stedsnr" v="679301" />
	</node>
	<node lat="63.22277777576564" lon="7.552194447642644" id="-1190">
		<tag k="fixme" v="consider seamark:type=rock or natural=shoal" />
		<tag k="name" v="Gjevla" />
		<tag k="place" v="islet" />
		<tag k="ssr:stedsnr" v="679660" />
	</node>
	<node lat="63.057349998680834" lon="7.881669438072792" id="-1191">
		<tag k="name" v="Øygardskjæret" />
		<tag k="natural" v="cape" />
		<tag k="ssr:stedsnr" v="680175" />
	</node>
	<node lat="63.066194443638544" lon="7.8924305460764295" id="-1193">
		<tag k="name" v="Geilneset" />
		<tag k="natural" v="cape" />
		<tag k="ssr:stedsnr" v="680186" />
	</node>
	<node lat="63.074341667889406" lon="7.896675002405901" id="-1198">
		<tag k="name" v="Klubbneset" />
		<tag k="natural" v="cape" />
		<tag k="ssr:stedsnr" v="680500" />
	</node>
	<node lat="63.08990833036979" lon="7.761588895239992" id="-1200">
		<tag k="name" v="Kruttholmen" />
		<tag k="place" v="islet" />
		<tag k="ssr:stedsnr" v="528374" />
	</node>
	<node lat="63.060269443594876" lon="7.883888879620731" id="-1202">
		<tag k="fixme" v="consider seamark:type=rock or natural=shoal" />
		<tag k="name" v="Langskjeret" />
		<tag k="place" v="islet" />
		<tag k="ssr:stedsnr" v="529238" />
	</node>
	<node lat="63.221274996725114" lon="7.642541671646989" id="-1209">
		<tag k="name" v="Indre Langfallet" />
		<tag k="natural" v="shoal" />
		<tag k="place" v="locality" />
		<tag k="ssr:stedsnr" v="533121" />
	</node>
	<node lat="63.19681110757176" lon="7.479141661585343" id="-1210">
		<tag k="name" v="Olsjursjutaren" />
		<tag k="natural" v="shoal" />
		<tag k="place" v="locality" />
		<tag k="ssr:stedsnr" v="534713" />
	</node>
	<node lat="63.207302781793565" lon="7.4907222131182865" id="-1211">
		<tag k="name" v="Haue" />
		<tag k="natural" v="shoal" />
		<tag k="place" v="locality" />
		<tag k="ssr:stedsnr" v="534714" />
	</node>
	<node lat="63.031063891899336" lon="7.717155565252954" id="-1217">
		<tag k="name" v="Råbukta" />
		<tag k="natural" v="bay" />
		<tag k="ssr:stedsnr" v="558644" />
	</node>
	<node lat="63.22628610700955" lon="7.5977500029798435" id="-1218">
		<tag k="fixme" v="consider seamark:type=rock or natural=shoal" />
		<tag k="name" v="Beksla" />
		<tag k="place" v="islet" />
		<tag k="ssr:stedsnr" v="558699" />
	</node>
	<node lat="63.22591111284836" lon="7.563875003473913" id="-1219">
		<tag k="fixme" v="consider seamark:type=rock or natural=shoal" />
		<tag k="name" v="Tverrspennskjæra" />
		<tag k="place" v="islet" />
		<tag k="ssr:stedsnr" v="558701" />
	</node>
	<node lat="63.06162569112655" lon="7.696002619163555" id="-1220">
		<tag k="name" v="Brattøya" />
		<tag k="place" v="island" />
		<tag k="ssr:stedsnr" v="558545" />
	</node>
	<node lat="63.103791667913576" lon="7.815638888864775" id="-1228">
		<tag k="name" v="Rundholmen" />
		<tag k="place" v="islet" />
		<tag k="ssr:stedsnr" v="589167" />
	</node>
	<node lat="63.10720000238312" lon="7.849791675966685" id="-1235">
		<tag k="fixme" v="consider seamark:type=rock or natural=shoal" />
		<tag k="name" v="Omsbrørne" />
		<tag k="place" v="islet" />
		<tag k="ssr:stedsnr" v="590375" />
	</node>
	<node lat="63.13017500150917" lon="7.803522221691386" id="-1237">
		<tag k="name" v="Ovnsbukta" />
		<tag k="natural" v="bay" />
		<tag k="ssr:stedsnr" v="601853" />
	</node>
	<node lat="63.09226388924971" lon="7.786005548885512" id="-1238">
		<tag k="name" v="Vorpholmsundet" />
		<tag k="natural" v="strait" />
		<tag k="ssr:stedsnr" v="602334" />
	</node>
	<node lat="63.19062499549125" lon="7.6442138797198655" id="-1243">
		<tag k="name" v="Inngripan" />
		<tag k="place" v="island" />
		<tag k="ssr:stedsnr" v="619681" />
	</node>
	<node lat="63.21365000282645" lon="7.599752768067834" id="-1244">
		<tag k="name" v="Grøningen" />
		<tag k="place" v="islet" />
		<tag k="ssr:stedsnr" v="619686" />
	</node>
	<node lat="63.10793055999056" lon="7.7152333268963265" id="-1245">
		<tag k="name" v="Smørvikneset" />
		<tag k="natural" v="cape" />
		<tag k="ssr:stedsnr" v="619712" />
	</node>
	<node lat="63.084244446598774" lon="7.892141671442498" id="-1246">
		<tag k="name" v="Ørnvika" />
		<tag k="natural" v="bay" />
		<tag k="ssr:stedsnr" v="627603" />
	</node>
	<node lat="63.103550004168646" lon="7.826038893827177" id="-1248">
		<tag k="name" v="Klungelholmen" />
		<tag k="place" v="islet" />
		<tag k="ssr:stedsnr" v="647280" />
	</node>
	<node lat="63.10256111465017" lon="7.883452770901376" id="-1252">
		<tag k="name" v="Gravbukta" />
		<tag k="natural" v="bay" />
		<tag k="ssr:stedsnr" v="650337" />
	</node>
	<node lat="63.1069083295417" lon="7.724316673768374" id="-1253">
		<tag k="name" v="Sørholmen" />
		<tag k="place" v="islet" />
		<tag k="ssr:stedsnr" v="650296" />
	</node>
	<node lat="63.13053055279842" lon="7.711866668336437" id="-1254">
		<tag k="name" v="Laksvågen" />
		<tag k="natural" v="bay" />
		<tag k="ssr:stedsnr" v="650722" />
	</node>
	<node lat="63.23237777783192" lon="7.552472217735877" id="-1255">
		<tag k="name" v="Nordre Fausken" />
		<tag k="natural" v="shoal" />
		<tag k="place" v="locality" />
		<tag k="ssr:stedsnr" v="655396" />
	</node>
	<node lat="63.130852778479905" lon="7.705933325843124" id="-1256">
		<tag k="name" v="Fluktneset" />
		<tag k="natural" v="cape" />
		<tag k="ssr:stedsnr" v="655503" />
	</node>
	<node lat="63.20834999557717" lon="7.483705546733888" id="-1257">
		<tag k="name" v="Litletaren" />
		<tag k="natural" v="shoal" />
		<tag k="place" v="locality" />
		<tag k="ssr:stedsnr" v="655700" />
	</node>
	<node lat="63.13022500264751" lon="7.744041673970436" id="-1258">
		<tag k="name" v="Lasken" />
		<tag k="natural" v="bay" />
		<tag k="ssr:stedsnr" v="662912" />
	</node>
	<node lat="63.10390000011172" lon="7.761444437839431" id="-1262">
		<tag k="name" v="Vikaholmflua" />
		<tag k="natural" v="shoal" />
		<tag k="place" v="locality" />
		<tag k="ssr:stedsnr" v="890269" />
	</node>
	<node lat="63.11902500144395" lon="7.730011105149168" id="-1263">
		<tag k="name" v="Øvervågen" />
		<tag k="natural" v="bay" />
		<tag k="ssr:stedsnr" v="890443" />
	</node>
	<node lat="63.10664166433855" lon="7.748724999119469" id="-1264">
		<tag k="name" v="Eriksenneset" />
		<tag k="natural" v="cape" />
		<tag k="ssr:stedsnr" v="890479" />
	</node>
	<node lat="63.102122220781915" lon="7.827958337224814" id="-1265">
		<tag k="name" v="Rensvikneset" />
		<tag k="natural" v="cape" />
		<tag k="ssr:stedsnr" v="891284" />
	</node>
	<node lat="63.10128889309276" lon="7.722324990505768" id="-1266">
		<tag k="fixme" v="consider seamark:type=rock or natural=shoal" />
		<tag k="name" v="Vestre Skjerva" />
		<tag k="place" v="islet" />
		<tag k="ssr:stedsnr" v="891338" />
	</node>
	<node lat="63.088755552714545" lon="7.725924997457315" id="-1267">
		<tag k="name" v="Kopparholmflua" />
		<tag k="place" v="locality" />
		<tag k="seamark:type" v="rock" />
		<tag k="ssr:stedsnr" v="891343" />
	</node>
	<node lat="63.10546667065008" lon="7.727669442299654" id="-1268">
		<tag k="name" v="Bakarneset" />
		<tag k="natural" v="cape" />
		<tag k="ssr:stedsnr" v="891522" />
	</node>
	<node lat="63.115019446678694" lon="7.737858334937074" id="-1269">
		<tag k="name" v="Holmasundet" />
		<tag k="natural" v="strait" />
		<tag k="ssr:stedsnr" v="891524" />
	</node>
	<node lat="63.18346944814753" lon="7.658358333968934" id="-1272">
		<tag k="fixme" v="consider seamark:type=rock or natural=shoal" />
		<tag k="name" v="Klovningen" />
		<tag k="place" v="islet" />
		<tag k="ssr:stedsnr" v="679632" />
	</node>
	<node lat="63.08102499850246" lon="7.707055558038987" id="-1273">
		<tag k="name" v="Valholmen" />
		<tag k="place" v="islet" />
		<tag k="ssr:stedsnr" v="679704" />
	</node>
	<node lat="63.019844446539466" lon="7.75545278664775" id="-1277">
		<tag k="name" v="Djupvikbukta" />
		<tag k="natural" v="bay" />
		<tag k="ssr:stedsnr" v="893088" />
	</node>
	<node lat="63.10217500416742" lon="7.819688885413994" id="-1279">
		<tag k="name" v="Rensviksundet" />
		<tag k="natural" v="strait" />
		<tag k="ssr:stedsnr" v="893147" />
	</node>
	<node lat="63.12681389240957" lon="7.756274996236007" id="-1285">
		<tag k="alt_name" v="Eldholmen" />
		<tag k="name" v="Eaholmen" />
		<tag k="place" v="islet" />
		<tag k="ssr:stedsnr" v="893757" />
	</node>
	<node lat="63.022744448555265" lon="7.739747212312178" id="-1286">
		<tag k="fixme" v="consider seamark:type=rock or natural=shoal" />
		<tag k="name" v="Småskjera" />
		<tag k="place" v="islet" />
		<tag k="ssr:stedsnr" v="893786" />
	</node>
	<node lat="63.129049996341955" lon="7.80263055274488" id="-1287">
		<tag k="name" v="Fanthola" />
		<tag k="natural" v="bay" />
		<tag k="ssr:stedsnr" v="893698" />
	</node>
	<node lat="63.10119167092264" lon="7.733486109262443" id="-1288">
		<tag k="alt_name" v="Østre Skjerva" />
		<tag k="name" v="Skjerva" />
		<tag k="natural" v="cape" />
		<tag k="ssr:stedsnr" v="893842" />
	</node>
	<node lat="63.06276111449666" lon="7.703688888583673" id="-1289">
		<tag k="name" v="Ytter Amundøy" />
		<tag k="place" v="island" />
		<tag k="ssr:stedsnr" v="893853" />
	</node>
	<node lat="63.09602222529098" lon="7.8993083394827766" id="-1290">
		<tag k="name" v="Rundholmen" />
		<tag k="place" v="islet" />
		<tag k="ssr:stedsnr" v="894401" />
	</node>
	<node lat="63.1047916635025" lon="7.817547218094876" id="-1293">
		<tag k="name" v="Småholman" />
		<tag k="place" v="islet" />
		<tag k="ssr:stedsnr" v="708279" />
	</node>
	<node lat="63.12881389173288" lon="7.694680560379623" id="-1300">
		<tag k="name" v="Tjørnvikneset" />
		<tag k="natural" v="cape" />
		<tag k="ssr:stedsnr" v="711724" />
	</node>
	<node lat="63.22956389096951" lon="7.574086112259958" id="-1301">
		<tag k="name" v="Korntaren" />
		<tag k="natural" v="shoal" />
		<tag k="place" v="locality" />
		<tag k="ssr:stedsnr" v="898394" />
	</node>
	<node lat="63.12296111342688" lon="7.775524993969684" id="-1302">
		<tag k="name" v="Dalasundet" />
		<tag k="natural" v="strait" />
		<tag k="ssr:stedsnr" v="716528" />
	</node>
	<node lat="63.10543889227513" lon="7.839791663279121" id="-1307">
		<tag k="name" v="Omsundet" />
		<tag k="natural" v="strait" />
		<tag k="ssr:stedsnr" v="740340" />
	</node>
	<node lat="63.189963892202414" lon="7.6416805614312295" id="-1308">
		<tag k="name" v="Sørgripen" />
		<tag k="place" v="islet" />
		<tag k="ssr:stedsnr" v="740641" />
	</node>
	<node lat="63.19062777743016" lon="7.696188885449504" id="-1309">
		<tag k="fixme" v="consider seamark:type=rock or natural=shoal" />
		<tag k="name" v="Fonnskaftet" />
		<tag k="place" v="islet" />
		<tag k="ssr:stedsnr" v="740644" />
	</node>
	<node lat="63.2159055587665" lon="7.590949990731618" id="-1310">
		<tag k="name" v="Klakken" />
		<tag k="place" v="islet" />
		<tag k="ssr:stedsnr" v="740650" />
	</node>
	<node lat="63.029174998314716" lon="7.729611115993981" id="-1312">
		<tag k="name" v="Endresetholmen" />
		<tag k="place" v="islet" />
		<tag k="ssr:stedsnr" v="741288" />
	</node>
	<node lat="63.085163887288175" lon="7.779925007922455" id="-1315">
		<tag k="name" v="Haugabukta" />
		<tag k="natural" v="bay" />
		<tag k="ssr:stedsnr" v="906349" />
	</node>
	<node lat="63.09264166315418" lon="7.757230551512847" id="-1316">
		<tag k="name" v="Bolgtaren" />
		<tag k="natural" v="shoal" />
		<tag k="place" v="locality" />
		<tag k="ssr:stedsnr" v="769311" />
	</node>
	<node lat="63.11873900737448" lon="7.735748581699391" id="-1318">
		<tag k="name" v="Naustkroken" />
		<tag k="natural" v="cape" />
		<tag k="ssr:stedsnr" v="769508" />
	</node>
	<node lat="63.09495833407795" lon="7.775697229106788" id="-1320">
		<tag k="alt_name" v="Blindskjeret" />
		<tag k="fixme" v="consider seamark:type=rock or natural=shoal" />
		<tag k="name" v="Blindskjæret" />
		<tag k="place" v="islet" />
		<tag k="ssr:stedsnr" v="771355" />
	</node>
	<node lat="63.05934721852565" lon="7.697519453256018" id="-1325">
		<tag k="name" v="Spellsundet" />
		<tag k="natural" v="strait" />
		<tag k="ssr:stedsnr" v="771861" />
	</node>
	<node lat="63.02491666678764" lon="7.771952780122986" id="-1329">
		<tag k="name" v="Flatsetholmen" />
		<tag k="place" v="islet" />
		<tag k="ssr:stedsnr" v="772073" />
	</node>
	<node lat="63.0784694446122" lon="7.88537499065268" id="-1330">
		<tag k="name" v="Saltkjelbukta" />
		<tag k="natural" v="bay" />
		<tag k="ssr:stedsnr" v="772378" />
	</node>
	<node lat="63.12232222293258" lon="7.703891663263064" id="-1334">
		<tag k="name" v="Brunsvikbukta" />
		<tag k="natural" v="bay" />
		<tag k="ssr:stedsnr" v="801682" />
	</node>
	<node lat="63.02664722339179" lon="7.763719453689284" id="-1335">
		<tag k="name" v="Flatsetsundet" />
		<tag k="natural" v="strait" />
		<tag k="ssr:stedsnr" v="802265" />
	</node>
	<node lat="63.08313332957048" lon="7.894797230843161" id="-1341">
		<tag k="name" v="Ørnvikneset" />
		<tag k="natural" v="cape" />
		<tag k="ssr:stedsnr" v="922300" />
	</node>
	<node lat="63.10382777916606" lon="7.883983340603773" id="-1342">
		<tag k="name" v="Sagneset" />
		<tag k="natural" v="cape" />
		<tag k="ssr:stedsnr" v="922336" />
	</node>
	<node lat="63.05084166399561" lon="7.697811120474797" id="-1343">
		<tag k="name" v="Storkattholmen" />
		<tag k="place" v="islet" />
		<tag k="ssr:stedsnr" v="922496" />
	</node>
	<node lat="63.06087024528782" lon="7.706507724842782" id="-1344">
		<tag k="name" v="Amundøya" />
		<tag k="place" v="island" />
		<tag k="ssr:stedsnr" v="922462" />
	</node>
	<node lat="63.18489999969411" lon="7.592597229114851" id="-1347">
		<tag k="name" v="Skjærbåan" />
		<tag k="natural" v="shoal" />
		<tag k="place" v="locality" />
		<tag k="ssr:stedsnr" v="922638" />
	</node>
	<node lat="63.22675000398399" lon="7.612850004643478" id="-1348">
		<tag k="fixme" v="consider seamark:type=rock or natural=shoal" />
		<tag k="name" v="Einarskjæret" />
		<tag k="place" v="islet" />
		<tag k="ssr:stedsnr" v="922645" />
	</node>
	<node lat="63.20465555350432" lon="7.577199997566285" id="-1349">
		<tag k="name" v="Moholmen" />
		<tag k="place" v="islet" />
		<tag k="ssr:stedsnr" v="922648" />
	</node>
	<node lat="63.20653888796164" lon="7.568677781823559" id="-1350">
		<tag k="fixme" v="consider seamark:type=rock or natural=shoal" />
		<tag k="name" v="Vestre Moholmskjæra" />
		<tag k="place" v="islet" />
		<tag k="ssr:stedsnr" v="922651" />
	</node>
	<node lat="63.202522220971595" lon="7.6129361170695695" id="-1351">
		<tag k="alt_name" v="Landbakkskjæra" />
		<tag k="fixme" v="consider seamark:type=rock or natural=shoal" />
		<tag k="name" v="Landbakken" />
		<tag k="place" v="islet" />
		<tag k="ssr:stedsnr" v="922652" />
	</node>
	<node lat="63.09973055602848" lon="7.7317638857595" id="-1352">
		<tag k="fixme" v="consider seamark:type=rock or natural=shoal" />
		<tag k="name" v="Linskjæret" />
		<tag k="place" v="islet" />
		<tag k="ssr:stedsnr" v="830269" />
	</node>
	<node lat="63.10057777877264" lon="7.724991674186413" id="-1353">
		<tag k="fixme" v="consider seamark:type=rock or natural=shoal" />
		<tag k="name" v="Frendeskjæret" />
		<tag k="place" v="islet" />
		<tag k="ssr:stedsnr" v="830273" />
	</node>
	<node lat="63.090727775062" lon="7.793622228393629" id="-1355">
		<tag k="alt_name" v="Nøre Bolgvågen" />
		<tag k="name" v="Nør Bolgvågen" />
		<tag k="natural" v="bay" />
		<tag k="ssr:stedsnr" v="832181" />
	</node>
	<node lat="63.08395833280567" lon="7.714136119005102" id="-1356">
		<tag k="name" v="Ytre Valneset" />
		<tag k="natural" v="cape" />
		<tag k="ssr:stedsnr" v="832835" />
	</node>
	<node lat="63.199879734144226" lon="7.729773761308088" id="-1365">
		<tag k="alt_name" v="Hilbåen" />
		<tag k="name" v="Hilbåan" />
		<tag k="natural" v="shoal" />
		<tag k="old_name" v="Hilbåren" />
		<tag k="place" v="locality" />
		<tag k="ssr:stedsnr" v="923547" />
	</node>
	<node lat="63.06624722315029" lon="7.700072218206141" id="-1366">
		<tag k="name" v="Årholmen" />
		<tag k="place" v="islet" />
		<tag k="ssr:stedsnr" v="923562" />
	</node>
	<node lat="63.06478055475949" lon="7.690719444474314" id="-1367">
		<tag k="name" v="Tjuvholmen" />
		<tag k="place" v="islet" />
		<tag k="ssr:stedsnr" v="923563" />
	</node>
	<node lat="63.12172499959453" lon="7.6915638806976565" id="-1369">
		<tag k="name" v="Eaholmen" />
		<tag k="place" v="islet" />
		<tag k="ssr:stedsnr" v="923732" />
	</node>
	<node lat="63.09928889205853" lon="7.744683339401228" id="-1370">
		<tag k="fixme" v="consider seamark:type=rock or natural=shoal" />
		<tag k="name" v="Lindskjæret" />
		<tag k="place" v="islet" />
		<tag k="ssr:stedsnr" v="838377" />
	</node>
	<node lat="63.02502778202668" lon="7.795227777958455" id="-1371">
		<tag k="name" v="Freistranda" />
		<tag k="natural" v="beach" />
		<tag k="ssr:stedsnr" v="838410" />
	</node>
	<node lat="63.13485555166139" lon="7.790358342645432" id="-1373">
		<tag k="name" v="Hildafallet" />
		<tag k="natural" v="shoal" />
		<tag k="place" v="locality" />
		<tag k="ssr:stedsnr" v="845898" />
	</node>
	<node lat="63.1261472218135" lon="7.784691665420793" id="-1374">
		<tag k="name" v="Ormtunga" />
		<tag k="natural" v="cape" />
		<tag k="ssr:stedsnr" v="845901" />
	</node>
	<node lat="63.027719447062445" lon="7.822030548982129" id="-1379">
		<tag k="name" v="Oterneset" />
		<tag k="natural" v="cape" />
		<tag k="ssr:stedsnr" v="862257" />
	</node>
	<node lat="63.0169250015777" lon="7.759425001699874" id="-1380">
		<tag k="name" v="Kvitneset" />
		<tag k="natural" v="cape" />
		<tag k="ssr:stedsnr" v="862450" />
	</node>
	<node lat="63.066288893454576" lon="7.776655561020603" id="-1382">
		<tag k="name" v="Midtsanden" />
		<tag k="natural" v="beach" />
		<tag k="ssr:stedsnr" v="893023" />
	</node>
	<node lat="63.11358610886009" lon="7.870661119370085" id="-1390">
		<tag k="name" v="Åkeren" />
		<tag k="natural" v="bay" />
		<tag k="ssr:stedsnr" v="893534" />
	</node>
	<node lat="63.12047778112789" lon="7.757758329005487" id="-1392">
		<tag k="name" v="Teistholmsundet" />
		<tag k="natural" v="strait" />
		<tag k="ssr:stedsnr" v="893538" />
	</node>
	<node lat="63.05664999586245" lon="7.718486105694466" id="-1394">
		<tag k="name" v="Bukkholmen" />
		<tag k="place" v="islet" />
		<tag k="ssr:stedsnr" v="893873" />
	</node>
	<node lat="63.020208337768096" lon="7.742944442693199" id="-1399">
		<tag k="name" v="Prestholmen" />
=======
<osm generator="osmapis" version="0.6">
	<node id="-45056" lat="63.1016805597" lon="7.80429721582">
		<tag k="name" v="Hansøya" />
		<tag k="place" v="islet" />
		<tag k="ssr:stedsnr" v="497356" />
	</node>
	<node id="-45055" lat="63.1044611123" lon="7.76728611768">
		<tag k="name" v="Vikaholmen" />
		<tag k="place" v="islet" />
		<tag k="ssr:stedsnr" v="497355" />
	</node>
	<node id="-45054" lat="63.1065083355" lon="7.7259388912">
		<tag k="name" v="Sørsundet" />
		<tag k="natural" v="strait" />
		<tag k="ssr:stedsnr" v="497342" />
	</node>
	<node id="-45052" lat="63.0749999982" lon="7.86817221365">
		<tag k="bay" v="fjord" />
		<tag k="name" v="Freifjorden" />
		<tag k="natural" v="bay" />
		<tag k="ssr:stedsnr" v="497153" />
	</node>
	<node id="-45049" lat="63.1339111076" lon="7.74140277965">
		<tag k="name" v="Hinnakleppen" />
		<tag k="natural" v="cape" />
		<tag k="ssr:stedsnr" v="359914" />
	</node>
	<node id="-45048" lat="63.1247000006" lon="7.75369722172">
		<tag k="name" v="Dunkersundleira" />
		<tag k="natural" v="shoal" />
		<tag k="place" v="locality" />
		<tag k="ssr:stedsnr" v="359911" />
	</node>
	<node id="-45047" lat="63.1215055579" lon="7.70268056305">
		<tag k="fixme" v="consider seamark:type=rock or natural=shoal" />
		<tag k="name" v="Sterkosskjæret" />
		<tag k="place" v="islet" />
		<tag k="ssr:stedsnr" v="359905" />
	</node>
	<node id="-45046" lat="63.0901888866" lon="7.7869249923">
		<tag k="fixme" v="consider seamark:type=rock or natural=shoal" />
		<tag k="name" v="Vågaskjæret" />
		<tag k="place" v="islet" />
		<tag k="ssr:stedsnr" v="359359" />
	</node>
	<node id="-45045" lat="63.0901388913" lon="7.77288611205">
		<tag k="name" v="Rognvika" />
		<tag k="natural" v="bay" />
		<tag k="ssr:stedsnr" v="359353" />
	</node>
	<node id="-45044" lat="63.1245000015" lon="7.78551943691">
		<tag k="name" v="Dragabukta" />
		<tag k="natural" v="bay" />
		<tag k="ssr:stedsnr" v="347526" />
	</node>
	<node id="-45043" lat="63.1250166636" lon="7.75579722119">
		<tag k="name" v="Apotekarholmen" />
		<tag k="place" v="islet" />
		<tag k="ssr:stedsnr" v="347519" />
	</node>
	<node id="-45036" lat="63.0559666691" lon="7.72625278027">
		<tag k="name" v="Krypervikbukta" />
		<tag k="natural" v="bay" />
		<tag k="ssr:stedsnr" v="346858" />
	</node>
	<node id="-45029" lat="63.1069194447" lon="7.76805555901">
		<tag k="name" v="Byfutneset" />
		<tag k="natural" v="cape" />
		<tag k="ssr:stedsnr" v="344267" />
	</node>
	<node id="-45028" lat="63.2123694483" lon="7.60721665711">
		<tag k="fixme" v="consider seamark:type=rock or natural=shoal" />
		<tag k="name" v="Omfarskjæret" />
		<tag k="place" v="islet" />
		<tag k="ssr:stedsnr" v="483992" />
	</node>
	<node id="-45027" lat="63.1264777738" lon="7.69470278489">
		<tag k="name" v="Treskoholet" />
		<tag k="natural" v="bay" />
		<tag k="ssr:stedsnr" v="480840" />
	</node>
	<node id="-45025" lat="63.2751249958" lon="7.290002776">
		<tag k="name" v="Steinsskjåka" />
		<tag k="natural" v="shoal" />
		<tag k="place" v="locality" />
		<tag k="ssr:stedsnr" v="474689" />
	</node>
	<node id="-45024" lat="63.0700972222" lon="7.7066305626">
		<tag k="name" v="Aranesflua" />
		<tag k="place" v="locality" />
		<tag k="seamark:type" v="rock" />
		<tag k="ssr:stedsnr" v="474268" />
	</node>
	<node id="-45023" lat="63.0907861135" lon="7.75554445154">
		<tag k="name" v="Bolgneset" />
		<tag k="natural" v="cape" />
		<tag k="ssr:stedsnr" v="316429" />
	</node>
	<node id="-45022" lat="63.093897225" lon="7.89939999447">
		<tag k="name" v="Gjengstøholmen" />
		<tag k="place" v="islet" />
		<tag k="ssr:stedsnr" v="316365" />
	</node>
	<node id="-45020" lat="63.1157666626" lon="7.75536944347">
		<tag k="name" v="Nordsundet" />
		<tag k="natural" v="strait" />
		<tag k="ssr:stedsnr" v="316305" />
	</node>
	<node id="-45019" lat="63.1274888895" lon="7.77394443849">
		<tag k="name" v="Skorpa" />
		<tag k="place" v="island" />
		<tag k="ssr:stedsnr" v="316304" />
	</node>
	<node id="-45016" lat="63.2107500037" lon="7.58225278522">
		<tag k="fixme" v="consider seamark:type=rock or natural=shoal" />
		<tag k="name" v="Austre Moholmskjæra" />
		<tag k="place" v="islet" />
		<tag k="ssr:stedsnr" v="315671" />
	</node>
	<node id="-45015" lat="63.0541977426" lon="7.70206896574">
		<tag k="name" v="Blomneset" />
		<tag k="natural" v="cape" />
		<tag k="ssr:stedsnr" v="315522" />
	</node>
	<node id="-45012" lat="63.0743416623" lon="7.70729445023">
		<tag k="name" v="Valen" />
		<tag k="natural" v="shoal" />
		<tag k="place" v="locality" />
		<tag k="ssr:stedsnr" v="473730" />
	</node>
	<node id="-45011" lat="63.0982499973" lon="7.72374721511">
		<tag k="fixme" v="consider seamark:type=rock or natural=shoal" />
		<tag k="name" v="Skjerveskjæret" />
		<tag k="place" v="islet" />
		<tag k="ssr:stedsnr" v="473719" />
	</node>
	<node id="-45010" lat="63.1723083378" lon="7.65482499697">
		<tag k="name" v="Litletaran" />
		<tag k="natural" v="shoal" />
		<tag k="place" v="locality" />
		<tag k="ssr:stedsnr" v="473484" />
	</node>
	<node id="-45009" lat="63.1842305525" lon="7.68199167082">
		<tag k="name" v="Disken" />
		<tag k="natural" v="shoal" />
		<tag k="place" v="locality" />
		<tag k="ssr:stedsnr" v="473482" />
	</node>
	<node id="-45008" lat="63.2275361105" lon="7.56433611499">
		<tag k="name" v="Godtaren" />
		<tag k="natural" v="shoal" />
		<tag k="place" v="locality" />
		<tag k="ssr:stedsnr" v="473431" />
	</node>
	<node id="-45007" lat="63.0480111099" lon="7.70328056511">
		<tag k="name" v="Buvikan" />
		<tag k="natural" v="bay" />
		<tag k="ssr:stedsnr" v="473417" />
	</node>
	<node id="-45005" lat="63.1064805565" lon="7.87088611478">
		<tag k="name" v="Buktaneset" />
		<tag k="natural" v="cape" />
		<tag k="ssr:stedsnr" v="469391" />
	</node>
	<node id="-45004" lat="63.1194416661" lon="7.7712527769">
		<tag k="name" v="Kvernabukta" />
		<tag k="natural" v="bay" />
		<tag k="ssr:stedsnr" v="299272" />
	</node>
	<node id="-45002" lat="63.0886944442" lon="7.79179999918">
		<tag k="fixme" v="consider seamark:type=rock or natural=shoal" />
		<tag k="name" v="Grindskjæret" />
		<tag k="place" v="islet" />
		<tag k="ssr:stedsnr" v="299372" />
	</node>
	<node id="-45000" lat="63.0947833318" lon="7.78491110938">
		<tag k="name" v="Vorpholmbåen" />
		<tag k="natural" v="shoal" />
		<tag k="place" v="locality" />
		<tag k="ssr:stedsnr" v="299356" />
	</node>
	<node id="-44998" lat="63.0269888871" lon="7.74810555486">
		<tag k="name" v="Huken" />
		<tag k="natural" v="bay" />
		<tag k="ssr:stedsnr" v="468869" />
	</node>
	<node id="-44995" lat="63.0784805565" lon="7.70800832614">
		<tag k="name" v="Valneset" />
		<tag k="natural" v="cape" />
		<tag k="ssr:stedsnr" v="468853" />
	</node>
	<node id="-44994" lat="63.1278972235" lon="7.75773610693">
		<tag k="fixme" v="consider seamark:type=rock or natural=shoal" />
		<tag k="name" v="Eaholmsflua" />
		<tag k="place" v="islet" />
		<tag k="ssr:stedsnr" v="468763" />
	</node>
	<node id="-44993" lat="63.1321277779" lon="7.78996111561">
		<tag k="name" v="Skorpenden" />
		<tag k="natural" v="cape" />
		<tag k="ssr:stedsnr" v="468749" />
	</node>
	<node id="-44992" lat="63.1353277737" lon="7.84285277515">
		<tag k="alt_name" v="Stavvågen" />
		<tag k="name" v="Stavbrekkbogen" />
		<tag k="natural" v="bay" />
		<tag k="ssr:stedsnr" v="468744" />
	</node>
	<node id="-44986" lat="63.0988527747" lon="7.79678332444">
		<tag k="alt_name" v="Jørilneset" />
		<tag k="name" v="Jørineset" />
		<tag k="natural" v="cape" />
		<tag k="ssr:stedsnr" v="468177" />
	</node>
	<node id="-44976" lat="63.1089555575" lon="7.73849723099">
		<tag k="name" v="Lossiusgrunnen" />
		<tag k="natural" v="shoal" />
		<tag k="place" v="locality" />
		<tag k="ssr:stedsnr" v="465425" />
	</node>
	<node id="-44975" lat="63.1323666624" lon="7.73230555878">
		<tag k="name" v="Langhaugneset" />
		<tag k="natural" v="cape" />
		<tag k="ssr:stedsnr" v="298894" />
	</node>
	<node id="-44974" lat="63.1369277766" lon="7.82849722723">
		<tag k="fixme" v="consider seamark:type=rock or natural=shoal" />
		<tag k="name" v="Draget" />
		<tag k="place" v="islet" />
		<tag k="ssr:stedsnr" v="465013" />
	</node>
	<node id="-44972" lat="63.0215833333" lon="7.78931944195">
		<tag k="fixme" v="consider seamark:type=rock or natural=shoal" />
		<tag k="name" v="Blindskjeret" />
		<tag k="place" v="islet" />
		<tag k="ssr:stedsnr" v="292361" />
	</node>
	<node id="-44970" lat="63.0823611101" lon="7.89492499965">
		<tag k="fixme" v="consider seamark:type=rock or natural=shoal" />
		<tag k="name" v="Kobbskjeret" />
		<tag k="place" v="islet" />
		<tag k="ssr:stedsnr" v="287407" />
	</node>
	<node id="-44969" lat="63.0831777792" lon="7.89522777725">
		<tag k="fixme" v="consider seamark:type=rock or natural=shoal" />
		<tag k="name" v="Ørnvikskjeret" />
		<tag k="place" v="islet" />
		<tag k="ssr:stedsnr" v="287403" />
	</node>
	<node id="-44964" lat="63.1282777764" lon="7.86962500083">
		<tag k="name" v="Gildrebergtaren" />
		<tag k="natural" v="shoal" />
		<tag k="place" v="locality" />
		<tag k="ssr:stedsnr" v="286759" />
	</node>
	<node id="-44953" lat="63.1874944444" lon="7.63508056477">
		<tag k="name" v="Vårsmolen" />
		<tag k="place" v="islet" />
		<tag k="ssr:stedsnr" v="255669" />
	</node>
	<node id="-44952" lat="63.1279500016" lon="7.83282500493">
		<tag k="name" v="Gløsvågen" />
		<tag k="natural" v="bay" />
		<tag k="ssr:stedsnr" v="255272" />
	</node>
	<node id="-44947" lat="63.0226305525" lon="7.73923610345">
		<tag k="fixme" v="consider seamark:type=rock or natural=shoal" />
		<tag k="name" v="Svartskjæret" />
		<tag k="place" v="islet" />
		<tag k="ssr:stedsnr" v="232363" />
	</node>
	<node id="-44945" lat="63.1999861123" lon="7.63932500768">
		<tag k="name" v="Hummarskjærtaren" />
		<tag k="natural" v="shoal" />
		<tag k="place" v="locality" />
		<tag k="ssr:stedsnr" v="230452" />
	</node>
	<node id="-44944" lat="63.1305472219" lon="7.71280833784">
		<tag k="name" v="Nordre Mikalholet" />
		<tag k="natural" v="bay" />
		<tag k="ssr:stedsnr" v="298780" />
	</node>
	<node id="-44941" lat="63.0661944436" lon="7.89243054608">
		<tag k="name" v="Kvalvågneset" />
		<tag k="natural" v="cape" />
		<tag k="ssr:stedsnr" v="292684" />
	</node>
	<node id="-44940" lat="63.1249805535" lon="7.76011111694">
		<tag k="name" v="Meløya" />
		<tag k="place" v="islet" />
		<tag k="ssr:stedsnr" v="195309" />
	</node>
	<node id="-44939" lat="63.2910222198" lon="7.27288332885">
		<tag k="name" v="Skjåka" />
		<tag k="natural" v="shoal" />
		<tag k="place" v="locality" />
		<tag k="ssr:stedsnr" v="292675" />
	</node>
	<node id="-44938" lat="63.0369472196" lon="7.83711944444">
		<tag k="name" v="Orneset" />
		<tag k="natural" v="cape" />
		<tag k="ssr:stedsnr" v="194406" />
	</node>
	<node id="-44934" lat="63.1446722216" lon="7.63814444461">
		<tag k="name" v="Helklakken" />
		<tag k="natural" v="shoal" />
		<tag k="place" v="locality" />
		<tag k="ssr:stedsnr" v="291720" />
	</node>
	<node id="-44933" lat="63.1308333363" lon="7.72656110775">
		<tag k="name" v="Fosnavågen" />
		<tag k="natural" v="bay" />
		<tag k="ssr:stedsnr" v="291716" />
	</node>
	<node id="-44932" lat="63.2133388887" lon="7.69806945437">
		<tag k="name" v="Lønnfallet" />
		<tag k="natural" v="shoal" />
		<tag k="place" v="locality" />
		<tag k="ssr:stedsnr" v="291492" />
	</node>
	<node id="-44930" lat="63.1029666681" lon="7.71920277577">
		<tag k="name" v="Sauhola" />
		<tag k="natural" v="bay" />
		<tag k="ssr:stedsnr" v="286840" />
	</node>
	<node id="-44926" lat="63.1295083315" lon="7.76319166832">
		<tag k="name" v="Molbogholman" />
		<tag k="place" v="islet" />
		<tag k="ssr:stedsnr" v="286777" />
	</node>
	<node id="-44922" lat="63.0888444466" lon="7.79187776865">
		<tag k="name" v="Grindneset" />
		<tag k="natural" v="cape" />
		<tag k="ssr:stedsnr" v="286176" />
	</node>
	<node id="-44917" lat="63.1009722265" lon="7.80868610406">
		<tag k="name" v="Hansøyvalen" />
		<tag k="natural" v="bay" />
		<tag k="ssr:stedsnr" v="284291" />
	</node>
	<node id="-44913" lat="63.2088500044" lon="7.55050555304">
		<tag k="fixme" v="consider seamark:type=rock or natural=shoal" />
		<tag k="name" v="Anbåskjæret" />
		<tag k="place" v="islet" />
		<tag k="ssr:stedsnr" v="170433" />
	</node>
	<node id="-44912" lat="63.2207194464" lon="7.56857221399">
		<tag k="name" v="Almflua" />
		<tag k="natural" v="shoal" />
		<tag k="place" v="locality" />
		<tag k="ssr:stedsnr" v="170431" />
	</node>
	<node id="-44910" lat="63.1329805576" lon="7.81876944748">
		<tag k="name" v="Steinvika" />
		<tag k="natural" v="bay" />
		<tag k="ssr:stedsnr" v="165766" />
	</node>
	<node id="-44909" lat="63.1304305577" lon="7.72310834047">
		<tag k="name" v="Kariholnesa" />
		<tag k="natural" v="cape" />
		<tag k="ssr:stedsnr" v="165752" />
	</node>
	<node id="-44905" lat="63.0625055513" lon="7.89004166725">
		<tag k="alt_name" v="Svartskjeret" />
		<tag k="fixme" v="consider seamark:type=rock or natural=shoal" />
		<tag k="name" v="Svartskjæret" />
		<tag k="place" v="islet" />
		<tag k="ssr:stedsnr" v="165360" />
	</node>
	<node id="-44896" lat="63.0896138876" lon="7.73363055139">
		<tag k="name" v="Kopparholman" />
		<tag k="place" v="islet" />
		<tag k="ssr:stedsnr" v="134422" />
	</node>
	<node id="-44895" lat="63.2092972228" lon="7.68633888083">
		<tag k="fixme" v="consider seamark:type=rock or natural=shoal" />
		<tag k="name" v="Kobbskjæra" />
		<tag k="place" v="islet" />
		<tag k="ssr:stedsnr" v="133624" />
	</node>
	<node id="-44894" lat="63.0960833328" lon="7.73218054969">
		<tag k="name" v="Bolgsvaet" />
		<tag k="place" v="locality" />
		<tag k="ssr:stedsnr" v="133324" />
	</node>
	<node id="-44893" lat="63.1301499992" lon="7.7466805478">
		<tag k="name" v="Ytre Garnneset" />
		<tag k="natural" v="cape" />
		<tag k="ssr:stedsnr" v="116903" />
	</node>
	<node id="-44892" lat="63.0537666686" lon="7.72361388949">
		<tag k="name" v="Saltkjelvikholmen" />
		<tag k="place" v="islet" />
		<tag k="ssr:stedsnr" v="104862" />
	</node>
	<node id="-44891" lat="63.0579166676" lon="7.71347222606">
		<tag k="name" v="Straumholmen" />
		<tag k="place" v="islet" />
		<tag k="ssr:stedsnr" v="104861" />
	</node>
	<node id="-44887" lat="63.2368055527" lon="7.68291944193">
		<tag k="bay" v="fjord" />
		<tag k="name" v="Griphølen" />
		<tag k="natural" v="bay" />
		<tag k="ssr:stedsnr" v="255693" />
	</node>
	<node id="-44880" lat="63.0247555512" lon="7.73942777296">
		<tag k="name" v="Folafoten" />
		<tag k="natural" v="cape" />
		<tag k="ssr:stedsnr" v="255237" />
	</node>
	<node id="-44879" lat="63.1302138889" lon="7.85173332902">
		<tag k="name" v="Kolvikbukta" />
		<tag k="natural" v="bay" />
		<tag k="ssr:stedsnr" v="255279" />
	</node>
	<node id="-44877" lat="63.2172500028" lon="7.58539444914">
		<tag k="fixme" v="consider seamark:type=rock or natural=shoal" />
		<tag k="name" v="Kråka" />
		<tag k="place" v="islet" />
		<tag k="ssr:stedsnr" v="73668" />
	</node>
	<node id="-44876" lat="63.1710194427" lon="7.54005832615">
		<tag k="fixme" v="consider seamark:type=rock or natural=shoal" />
		<tag k="name" v="Treflesa" />
		<tag k="place" v="islet" />
		<tag k="ssr:stedsnr" v="73664" />
	</node>
	<node id="-44875" lat="63.1971944435" lon="7.68992777359">
		<tag k="fixme" v="consider seamark:type=rock or natural=shoal" />
		<tag k="name" v="Svartskjæra" />
		<tag k="place" v="islet" />
		<tag k="ssr:stedsnr" v="73661" />
	</node>
	<node id="-44874" lat="63.1524361118" lon="7.84809722675">
		<tag k="bay" v="fjord" />
		<tag k="name" v="Talgsjøen" />
		<tag k="natural" v="bay" />
		<tag k="ssr:stedsnr" v="73301" />
	</node>
	<node id="-44872" lat="63.0187500006" lon="7.78680834075">
		<tag k="name" v="Jåholmen" />
		<tag k="place" v="islet" />
		<tag k="ssr:stedsnr" v="73224" />
	</node>
	<node id="-44871" lat="63.0194749969" lon="7.75449444894">
		<tag k="name" v="Djupvika" />
		<tag k="natural" v="bay" />
		<tag k="ssr:stedsnr" v="73213" />
	</node>
	<node id="-44869" lat="63.1276249964" lon="7.79069721605">
		<tag k="name" v="Ovnstaren" />
		<tag k="natural" v="shoal" />
		<tag k="place" v="locality" />
		<tag k="ssr:stedsnr" v="238876" />
	</node>
	<node id="-44867" lat="63.1052888878" lon="7.84988610713">
		<tag k="name" v="Langholmen" />
		<tag k="place" v="islet" />
		<tag k="ssr:stedsnr" v="238209" />
	</node>
	<node id="-44866" lat="63.1046277777" lon="7.86340556184">
		<tag k="name" v="Grønholmane" />
		<tag k="place" v="islet" />
		<tag k="ssr:stedsnr" v="238197" />
	</node>
	<node id="-44861" lat="63.1053750002" lon="7.72634721942">
		<tag k="name" v="Leirvikbukta" />
		<tag k="natural" v="bay" />
		<tag k="ssr:stedsnr" v="41503" />
	</node>
	<node id="-44859" lat="63.3091916706" lon="7.40200555965">
		<tag k="name" v="Austerknollan" />
		<tag k="natural" v="shoal" />
		<tag k="place" v="locality" />
		<tag k="ssr:stedsnr" v="231739" />
	</node>
	<node id="-44858" lat="63.3086833322" lon="7.37054167655">
		<tag k="name" v="Raudtaren" />
		<tag k="natural" v="shoal" />
		<tag k="place" v="locality" />
		<tag k="ssr:stedsnr" v="231738" />
	</node>
	<node id="-44857" lat="63.2064277798" lon="7.47197499384">
		<tag k="name" v="Ufstaren" />
		<tag k="natural" v="shoal" />
		<tag k="place" v="locality" />
		<tag k="ssr:stedsnr" v="231755" />
	</node>
	<node id="-44855" lat="63.1853999978" lon="7.53985277132">
		<tag k="name" v="Engelsfalla" />
		<tag k="natural" v="shoal" />
		<tag k="place" v="locality" />
		<tag k="ssr:stedsnr" v="230450" />
	</node>
	<node id="-44854" lat="63.136361111" lon="7.7784305476">
		<tag k="name" v="Skorptaren" />
		<tag k="natural" v="shoal" />
		<tag k="place" v="locality" />
		<tag k="ssr:stedsnr" v="230474" />
	</node>
	<node id="-44853" lat="63.2192944422" lon="7.54138611004">
		<tag k="name" v="Søre Flesa" />
		<tag k="place" v="islet" />
		<tag k="ssr:stedsnr" v="230364" />
	</node>
	<node id="-44851" lat="63.1284444421" lon="7.75990555419">
		<tag k="name" v="Småholman" />
		<tag k="place" v="islet" />
		<tag k="ssr:stedsnr" v="226743" />
	</node>
	<node id="-44843" lat="63.1023888911" lon="7.81736945284">
		<tag k="name" v="Daumannsholmen" />
		<tag k="place" v="islet" />
		<tag k="ssr:stedsnr" v="226161" />
	</node>
	<node id="-44831" lat="63.1078472189" lon="7.74290555421">
		<tag k="name" v="Hamna" />
		<tag k="natural" v="bay" />
		<tag k="ssr:stedsnr" v="223506" />
	</node>
	<node id="-44830" lat="63.1182111098" lon="7.7323666587">
		<tag k="fixme" v="consider seamark:type=rock or natural=shoal" />
		<tag k="name" v="Kranskjæret" />
		<tag k="place" v="islet" />
		<tag k="ssr:stedsnr" v="223458" />
	</node>
	<node id="-44828" lat="63.294447224" lon="7.36158611273">
		<tag k="name" v="Vestkleppen" />
		<tag k="natural" v="shoal" />
		<tag k="place" v="locality" />
		<tag k="ssr:stedsnr" v="12607" />
	</node>
	<node id="-45762" lat="63.1306888932" lon="7.77545832975">
		<tag k="name" v="Valen" />
		<tag k="natural" v="bay" />
		<tag k="ssr:stedsnr" v="966880" />
	</node>
	<node id="-45761" lat="63.1305194485" lon="7.72056389777">
		<tag k="fixme" v="consider seamark:type=rock or natural=shoal" />
		<tag k="name" v="Storsteinan" />
		<tag k="place" v="islet" />
		<tag k="ssr:stedsnr" v="966850" />
	</node>
	<node id="-45760" lat="63.1909805571" lon="7.61748612032">
		<tag k="name" v="Brørne" />
		<tag k="natural" v="shoal" />
		<tag k="place" v="locality" />
		<tag k="ssr:stedsnr" v="959441" />
	</node>
	<node id="-45759" lat="63.2367916689" lon="7.59423610702">
		<tag k="name" v="Hårskollklakken" />
		<tag k="natural" v="shoal" />
		<tag k="place" v="locality" />
		<tag k="ssr:stedsnr" v="959365" />
	</node>
	<node id="-45757" lat="63.211613893" lon="7.54515554739">
		<tag k="name" v="Manndraperen" />
		<tag k="natural" v="shoal" />
		<tag k="place" v="locality" />
		<tag k="ssr:stedsnr" v="959337" />
	</node>
	<node id="-45756" lat="63.1262388895" lon="7.75816944005">
		<tag k="name" v="Krabbholmen" />
		<tag k="place" v="islet" />
		<tag k="ssr:stedsnr" v="954766" />
	</node>
	<node id="-45751" lat="63.1225194456" lon="7.76130277617">
		<tag k="name" v="Bengtneset" />
		<tag k="natural" v="cape" />
		<tag k="ssr:stedsnr" v="954513" />
	</node>
	<node id="-45750" lat="63.12374444" lon="7.75992776867">
		<tag k="name" v="Dunkersundet" />
		<tag k="natural" v="strait" />
		<tag k="ssr:stedsnr" v="954511" />
	</node>
	<node id="-45748" lat="63.0615222256" lon="7.88311666318">
		<tag k="name" v="Vikageilen" />
		<tag k="natural" v="bay" />
		<tag k="ssr:stedsnr" v="954251" />
	</node>
	<node id="-45746" lat="63.0235666659" lon="7.81373611391">
		<tag k="name" v="Freineset" />
		<tag k="natural" v="cape" />
		<tag k="ssr:stedsnr" v="954133" />
	</node>
	<node id="-45741" lat="63.0344777814" lon="7.70496667179">
		<tag k="name" v="Keipen" />
		<tag k="place" v="islet" />
		<tag k="ssr:stedsnr" v="953871" />
	</node>
	<node id="-45739" lat="63.0647416651" lon="7.6908055528">
		<tag k="fixme" v="consider seamark:type=rock or natural=shoal" />
		<tag k="name" v="Potettjuven" />
		<tag k="place" v="islet" />
		<tag k="ssr:stedsnr" v="953847" />
	</node>
	<node id="-45738" lat="63.102038886" lon="7.71482778054">
		<tag k="name" v="Skjertangen" />
		<tag k="natural" v="cape" />
		<tag k="ssr:stedsnr" v="953838" />
	</node>
	<node id="-45731" lat="63.0912333344" lon="7.77953612087">
		<tag k="name" v="Middelneset" />
		<tag k="natural" v="cape" />
		<tag k="ssr:stedsnr" v="953176" />
	</node>
	<node id="-45730" lat="63.0861416634" lon="7.77204166845">
		<tag k="alt_name" v="Søre Bolgvågen" />
		<tag k="name" v="Sør Bolgvågen" />
		<tag k="natural" v="bay" />
		<tag k="ssr:stedsnr" v="953171" />
	</node>
	<node id="-45728" lat="63.1059611069" lon="7.75213333872">
		<tag k="name" v="Smedvika" />
		<tag k="natural" v="bay" />
		<tag k="ssr:stedsnr" v="953324" />
	</node>
	<node id="-45727" lat="63.1058861124" lon="7.75454444863">
		<tag k="name" v="Remningneset" />
		<tag k="natural" v="cape" />
		<tag k="ssr:stedsnr" v="951474" />
	</node>
	<node id="-45726" lat="63.0861722261" lon="7.77093332919">
		<tag k="name" v="Husøyhammeren" />
		<tag k="natural" v="cape" />
		<tag k="ssr:stedsnr" v="951300" />
	</node>
	<node id="-45725" lat="63.2887388882" lon="7.27728610725">
		<tag k="name" v="Nordklakken" />
		<tag k="natural" v="shoal" />
		<tag k="place" v="locality" />
		<tag k="ssr:stedsnr" v="862593" />
	</node>
	<node id="-45724" lat="63.0169250016" lon="7.7594250017">
		<tag k="name" v="Kvitneset" />
		<tag k="natural" v="cape" />
		<tag k="ssr:stedsnr" v="862450" />
	</node>
	<node id="-45721" lat="63.0277194471" lon="7.82203054898">
		<tag k="name" v="Oterneset" />
		<tag k="natural" v="cape" />
		<tag k="ssr:stedsnr" v="862257" />
	</node>
	<node id="-45720" lat="63.1656611114" lon="7.57099166967">
		<tag k="fixme" v="consider seamark:type=rock or natural=shoal" />
		<tag k="name" v="Rundskjelingen" />
		<tag k="place" v="islet" />
		<tag k="ssr:stedsnr" v="862644" />
	</node>
	<node id="-45712" lat="63.1261472218" lon="7.78469166542">
		<tag k="name" v="Ormtunga" />
		<tag k="natural" v="cape" />
		<tag k="ssr:stedsnr" v="845901" />
	</node>
	<node id="-45711" lat="63.1348555517" lon="7.79035834265">
		<tag k="name" v="Hildafallet" />
		<tag k="natural" v="shoal" />
		<tag k="place" v="locality" />
		<tag k="ssr:stedsnr" v="845898" />
	</node>
	<node id="-45709" lat="63.1031749982" lon="7.83496944385">
		<tag k="name" v="Bukkeneset" />
		<tag k="natural" v="cape" />
		<tag k="ssr:stedsnr" v="845222" />
	</node>
	<node id="-45708" lat="63.0922527814" lon="7.78176944593">
		<tag k="name" v="Smalsundet" />
		<tag k="natural" v="strait" />
		<tag k="ssr:stedsnr" v="845347" />
	</node>
	<node id="-45705" lat="63.0992888921" lon="7.7446833394">
		<tag k="fixme" v="consider seamark:type=rock or natural=shoal" />
		<tag k="name" v="Lindskjæret" />
		<tag k="place" v="islet" />
		<tag k="ssr:stedsnr" v="838377" />
	</node>
	<node id="-45703" lat="63.1348444422" lon="7.8266416569">
		<tag k="name" v="Mjølkvika" />
		<tag k="natural" v="bay" />
		<tag k="ssr:stedsnr" v="833749" />
	</node>
	<node id="-45702" lat="63.1071666669" lon="7.76916110578">
		<tag k="name" v="Åsgårdsvika" />
		<tag k="natural" v="bay" />
		<tag k="ssr:stedsnr" v="833552" />
	</node>
	<node id="-45701" lat="63.1198666649" lon="7.87050832943">
		<tag k="name" v="Haltvika" />
		<tag k="natural" v="bay" />
		<tag k="ssr:stedsnr" v="833546" />
	</node>
	<node id="-45694" lat="63.0258944428" lon="7.74568055339">
		<tag k="name" v="Lunvik" />
		<tag k="natural" v="bay" />
		<tag k="ssr:stedsnr" v="832871" />
	</node>
	<node id="-45693" lat="63.0568333355" lon="7.70473888409">
		<tag k="name" v="Straumsundet" />
		<tag k="natural" v="strait" />
		<tag k="ssr:stedsnr" v="832862" />
	</node>
	<node id="-45691" lat="63.075802775" lon="7.71099167399">
		<tag k="name" v="Vikaneset" />
		<tag k="natural" v="cape" />
		<tag k="ssr:stedsnr" v="832845" />
	</node>
	<node id="-45688" lat="63.0839583328" lon="7.71413611901">
		<tag k="name" v="Ytre Valneset" />
		<tag k="natural" v="cape" />
		<tag k="ssr:stedsnr" v="832835" />
	</node>
	<node id="-45687" lat="63.1023999994" lon="7.71521389265">
		<tag k="fixme" v="consider seamark:type=rock or natural=shoal" />
		<tag k="name" v="Potettjuven" />
		<tag k="place" v="islet" />
		<tag k="ssr:stedsnr" v="832828" />
	</node>
	<node id="-45684" lat="63.0907277751" lon="7.79362222839">
		<tag k="alt_name" v="Nøre Bolgvågen" />
		<tag k="name" v="Nør Bolgvågen" />
		<tag k="natural" v="bay" />
		<tag k="ssr:stedsnr" v="832181" />
	</node>
	<node id="-45683" lat="63.1148750026" lon="7.74097778125">
		<tag k="name" v="Israelsneset" />
		<tag k="natural" v="cape" />
		<tag k="ssr:stedsnr" v="830491" />
	</node>
	<node id="-45682" lat="63.1016194401" lon="7.74628610364">
		<tag k="name" v="Sjursvikgrunnen" />
		<tag k="natural" v="shoal" />
		<tag k="place" v="locality" />
		<tag k="ssr:stedsnr" v="830458" />
	</node>
	<node id="-45679" lat="63.1005777788" lon="7.72499167419">
		<tag k="fixme" v="consider seamark:type=rock or natural=shoal" />
		<tag k="name" v="Frendeskjæret" />
		<tag k="place" v="islet" />
		<tag k="ssr:stedsnr" v="830273" />
	</node>
	<node id="-45678" lat="63.099730556" lon="7.73176388576">
		<tag k="fixme" v="consider seamark:type=rock or natural=shoal" />
		<tag k="name" v="Linskjæret" />
		<tag k="place" v="islet" />
		<tag k="ssr:stedsnr" v="830269" />
	</node>
	<node id="-45673" lat="63.1223222229" lon="7.70389166326">
		<tag k="name" v="Brunsvikbukta" />
		<tag k="natural" v="bay" />
		<tag k="ssr:stedsnr" v="801682" />
	</node>
	<node id="-45671" lat="63.0842027744" lon="7.71677776861">
		<tag k="name" v="Valneset" />
		<tag k="natural" v="cape" />
		<tag k="ssr:stedsnr" v="778974" />
	</node>
	<node id="-45669" lat="63.2539333301" lon="7.54284721447">
		<tag k="name" v="Hauskallen" />
		<tag k="natural" v="shoal" />
		<tag k="place" v="locality" />
		<tag k="ssr:stedsnr" v="777399" />
	</node>
	<node id="-45666" lat="63.0784694446" lon="7.88537499065">
		<tag k="name" v="Saltkjelbukta" />
		<tag k="natural" v="bay" />
		<tag k="ssr:stedsnr" v="772378" />
	</node>
	<node id="-45664" lat="63.1154666646" lon="7.76117222644">
		<tag k="alt_name" v="Melkvika" />
		<tag k="name" v="Mjølkvika" />
		<tag k="natural" v="bay" />
		<tag k="ssr:stedsnr" v="772542" />
	</node>
	<node id="-45663" lat="63.1218777785" lon="7.87081111001">
		<tag k="fixme" v="consider seamark:type=rock or natural=shoal" />
		<tag k="name" v="Haltvikskjæret" />
		<tag k="place" v="islet" />
		<tag k="ssr:stedsnr" v="772541" />
	</node>
	<node id="-45658" lat="63.0934749969" lon="7.73318055874">
		<tag k="fixme" v="consider seamark:type=rock or natural=shoal" />
		<tag k="name" v="Bolgfallet" />
		<tag k="place" v="islet" />
		<tag k="ssr:stedsnr" v="771843" />
	</node>
	<node id="-45656" lat="63.0949583341" lon="7.77569722911">
		<tag k="alt_name" v="Blindskjeret" />
		<tag k="fixme" v="consider seamark:type=rock or natural=shoal" />
		<tag k="name" v="Blindskjæret" />
		<tag k="place" v="islet" />
		<tag k="ssr:stedsnr" v="771355" />
	</node>
	<node id="-45655" lat="63.117947221" lon="7.6886249975">
		<tag k="name" v="Brunsvikbåen" />
		<tag k="place" v="locality" />
		<tag k="seamark:type" v="rock" />
		<tag k="ssr:stedsnr" v="769493" />
	</node>
	<node id="-45653" lat="63.1061722179" lon="7.80126110191">
		<tag k="name" v="Øygardsfjæra" />
		<tag k="natural" v="beach" />
		<tag k="place" v="locality" />
		<tag k="ssr:stedsnr" v="760021" />
	</node>
	<node id="-45648" lat="63.118197219" lon="7.87351945219">
		<tag k="name" v="Stabbursneset" />
		<tag k="natural" v="cape" />
		<tag k="ssr:stedsnr" v="741335" />
	</node>
	<node id="-45647" lat="63.1386333308" lon="7.84190000015">
		<tag k="fixme" v="consider seamark:type=rock or natural=shoal" />
		<tag k="name" v="Stavbrekkskjæret" />
		<tag k="place" v="islet" />
		<tag k="ssr:stedsnr" v="741315" />
	</node>
	<node id="-45646" lat="63.0291749983" lon="7.72961111599">
		<tag k="name" v="Endresetholmen" />
		<tag k="place" v="islet" />
		<tag k="ssr:stedsnr" v="741288" />
	</node>
	<node id="-45645" lat="63.0938916645" lon="7.70232499022">
		<tag k="bay" v="fjord" />
		<tag k="name" v="Bremsnesfjorden" />
		<tag k="natural" v="bay" />
		<tag k="ssr:stedsnr" v="740745" />
	</node>
	<node id="-45643" lat="63.2159055588" lon="7.59094999073">
		<tag k="name" v="Klakken" />
		<tag k="place" v="islet" />
		<tag k="ssr:stedsnr" v="740650" />
	</node>
	<node id="-45642" lat="63.1906277774" lon="7.69618888545">
		<tag k="fixme" v="consider seamark:type=rock or natural=shoal" />
		<tag k="name" v="Fonnskaftet" />
		<tag k="place" v="islet" />
		<tag k="ssr:stedsnr" v="740644" />
	</node>
	<node id="-45641" lat="63.1899638922" lon="7.64168056143">
		<tag k="name" v="Sørgripen" />
		<tag k="place" v="islet" />
		<tag k="ssr:stedsnr" v="740641" />
	</node>
	<node id="-45640" lat="63.233847226" lon="7.60996388375">
		<tag k="fixme" v="consider seamark:type=rock or natural=shoal" />
		<tag k="name" v="Bratthårskollen" />
		<tag k="place" v="islet" />
		<tag k="ssr:stedsnr" v="740669" />
	</node>
	<node id="-45639" lat="63.1054388923" lon="7.83979166328">
		<tag k="name" v="Omsundet" />
		<tag k="natural" v="strait" />
		<tag k="ssr:stedsnr" v="740340" />
	</node>
	<node id="-45638" lat="63.1331055592" lon="7.81062221362">
		<tag k="name" v="Kvitneset" />
		<tag k="natural" v="cape" />
		<tag k="ssr:stedsnr" v="740428" />
	</node>
	<node id="-45635" lat="63.0675416646" lon="7.89693055149">
		<tag k="fixme" v="consider seamark:type=rock or natural=shoal" />
		<tag k="name" v="Kvalvågholmen" />
		<tag k="place" v="islet" />
		<tag k="ssr:stedsnr" v="740169" />
	</node>
	<node id="-45634" lat="63.1308527785" lon="7.70593332584">
		<tag k="name" v="Fluktneset" />
		<tag k="natural" v="cape" />
		<tag k="ssr:stedsnr" v="655503" />
	</node>
	<node id="-45633" lat="63.2323777778" lon="7.55247221774">
		<tag k="name" v="Nordre Fausken" />
		<tag k="natural" v="shoal" />
		<tag k="place" v="locality" />
		<tag k="ssr:stedsnr" v="655396" />
	</node>
	<node id="-45632" lat="63.2294666682" lon="7.53968055457">
		<tag k="name" v="Gjevleklakken" />
		<tag k="natural" v="shoal" />
		<tag k="place" v="locality" />
		<tag k="ssr:stedsnr" v="655368" />
	</node>
	<node id="-45629" lat="63.1298166704" lon="7.76820278617">
		<tag k="name" v="Molbogen" />
		<tag k="natural" v="bay" />
		<tag k="ssr:stedsnr" v="650766" />
	</node>
	<node id="-45628" lat="63.1258777771" lon="7.78783611208">
		<tag k="name" v="Stongdraget" />
		<tag k="natural" v="cape" />
		<tag k="ssr:stedsnr" v="650758" />
	</node>
	<node id="-45627" lat="63.1430638871" lon="7.85053887988">
		<tag k="bay" v="fjord" />
		<tag k="name" v="Talgsjøen" />
		<tag k="natural" v="bay" />
		<tag k="ssr:stedsnr" v="650754" />
	</node>
	<node id="-45626" lat="63.1325194408" lon="7.7789694451">
		<tag k="name" v="Heimfalla" />
		<tag k="natural" v="shoal" />
		<tag k="place" v="locality" />
		<tag k="ssr:stedsnr" v="650749" />
	</node>
	<node id="-45624" lat="63.1025611147" lon="7.8834527709">
		<tag k="name" v="Gravbukta" />
		<tag k="natural" v="bay" />
		<tag k="ssr:stedsnr" v="650337" />
	</node>
	<node id="-45623" lat="63.1069083295" lon="7.72431667377">
		<tag k="name" v="Sørholmen" />
		<tag k="place" v="islet" />
		<tag k="ssr:stedsnr" v="650296" />
	</node>
	<node id="-45616" lat="63.065655555" lon="7.77156666649">
		<tag k="name" v="Rastholmen" />
		<tag k="place" v="islet" />
		<tag k="ssr:stedsnr" v="650017" />
	</node>
	<node id="-45612" lat="63.0717305578" lon="7.70506111186">
		<tag k="name" v="Åraneset" />
		<tag k="natural" v="cape" />
		<tag k="ssr:stedsnr" v="649852" />
	</node>
	<node id="-45608" lat="63.0865305522" lon="7.79153056198">
		<tag k="alt_name" v="Bytskjæret" />
		<tag k="fixme" v="consider seamark:type=rock or natural=shoal" />
		<tag k="name" v="Skjeret" />
		<tag k="place" v="islet" />
		<tag k="ssr:stedsnr" v="649157" />
	</node>
	<node id="-45607" lat="63.1035500042" lon="7.82603889383">
		<tag k="name" v="Klungelholmen" />
		<tag k="place" v="islet" />
		<tag k="ssr:stedsnr" v="647280" />
	</node>
	<node id="-45604" lat="63.0842444466" lon="7.89214167144">
		<tag k="name" v="Ørnvika" />
		<tag k="natural" v="bay" />
		<tag k="ssr:stedsnr" v="627603" />
	</node>
	<node id="-45602" lat="63.10793056" lon="7.7152333269">
		<tag k="name" v="Smørvikneset" />
		<tag k="natural" v="cape" />
		<tag k="ssr:stedsnr" v="619712" />
	</node>
	<node id="-45601" lat="63.2136500028" lon="7.59975276807">
		<tag k="name" v="Grøningen" />
		<tag k="place" v="islet" />
		<tag k="ssr:stedsnr" v="619686" />
	</node>
	<node id="-45600" lat="63.1906249955" lon="7.64421387972">
		<tag k="name" v="Inngripan" />
		<tag k="place" v="island" />
		<tag k="ssr:stedsnr" v="619681" />
	</node>
	<node id="-45599" lat="63.0917250031" lon="7.90078889379">
		<tag k="name" v="Åneset" />
		<tag k="natural" v="cape" />
		<tag k="ssr:stedsnr" v="619363" />
	</node>
	<node id="-45588" lat="63.0922638892" lon="7.78600554889">
		<tag k="name" v="Vorpholmsundet" />
		<tag k="natural" v="strait" />
		<tag k="ssr:stedsnr" v="602334" />
	</node>
	<node id="-45587" lat="63.1294333376" lon="7.72243611486">
		<tag k="name" v="Kariholstøa" />
		<tag k="natural" v="bay" />
		<tag k="ssr:stedsnr" v="601890" />
	</node>
	<node id="-45586" lat="63.1301750015" lon="7.80352222169">
		<tag k="name" v="Ovnsbukta" />
		<tag k="natural" v="bay" />
		<tag k="ssr:stedsnr" v="601853" />
	</node>
	<node id="-45585" lat="63.2063972212" lon="7.76428334">
		<tag k="name" v="Søre Godtaren" />
		<tag k="natural" v="shoal" />
		<tag k="place" v="locality" />
		<tag k="ssr:stedsnr" v="595269" />
	</node>
	<node id="-45584" lat="63.2063416667" lon="7.70361389273">
		<tag k="fixme" v="consider seamark:type=rock or natural=shoal" />
		<tag k="name" v="Austre Kobbskjæra" />
		<tag k="place" v="islet" />
		<tag k="ssr:stedsnr" v="594466" />
	</node>
	<node id="-45583" lat="63.2298277796" lon="7.55586389712">
		<tag k="name" v="Søre Fausken" />
		<tag k="natural" v="shoal" />
		<tag k="place" v="locality" />
		<tag k="ssr:stedsnr" v="594394" />
	</node>
	<node id="-45582" lat="63.2101027743" lon="7.6233749943">
		<tag k="name" v="Landbakkflua" />
		<tag k="natural" v="shoal" />
		<tag k="place" v="locality" />
		<tag k="ssr:stedsnr" v="594127" />
	</node>
	<node id="-45581" lat="63.1072000024" lon="7.84979167597">
		<tag k="fixme" v="consider seamark:type=rock or natural=shoal" />
		<tag k="name" v="Omsbrørne" />
		<tag k="place" v="islet" />
		<tag k="ssr:stedsnr" v="590375" />
	</node>
	<node id="-45580" lat="63.1076638923" lon="7.84875833288">
		<tag k="name" v="Leirvika" />
		<tag k="natural" v="bay" />
		<tag k="ssr:stedsnr" v="590567" />
	</node>
	<node id="-45576" lat="63.0262750025" lon="7.7347888902">
		<tag k="name" v="Rotholmen" />
		<tag k="place" v="islet" />
		<tag k="ssr:stedsnr" v="589892" />
	</node>
	<node id="-45570" lat="63.1037916679" lon="7.81563888886">
		<tag k="name" v="Rundholmen" />
		<tag k="place" v="islet" />
		<tag k="ssr:stedsnr" v="589167" />
	</node>
	<node id="-45567" lat="63.2280500036" lon="7.63754721821">
		<tag k="name" v="Ytre Langfallet" />
		<tag k="natural" v="shoal" />
		<tag k="place" v="locality" />
		<tag k="ssr:stedsnr" v="655148" />
	</node>
	<node id="-45562" lat="63.0310638919" lon="7.71715556525">
		<tag k="name" v="Råbukta" />
		<tag k="natural" v="bay" />
		<tag k="ssr:stedsnr" v="558644" />
	</node>
	<node id="-45561" lat="63.2259111128" lon="7.56387500347">
		<tag k="fixme" v="consider seamark:type=rock or natural=shoal" />
		<tag k="name" v="Tverrspennskjæra" />
		<tag k="place" v="islet" />
		<tag k="ssr:stedsnr" v="558701" />
	</node>
	<node id="-45560" lat="63.226286107" lon="7.59775000298">
		<tag k="fixme" v="consider seamark:type=rock or natural=shoal" />
		<tag k="name" v="Beksla" />
		<tag k="place" v="islet" />
		<tag k="ssr:stedsnr" v="558699" />
	</node>
	<node id="-45559" lat="63.0616256911" lon="7.69600261916">
		<tag k="name" v="Brattøya" />
		<tag k="place" v="island" />
		<tag k="ssr:stedsnr" v="558545" />
	</node>
	<node id="-45558" lat="63.1233750035" lon="7.8700277801">
		<tag k="name" v="Sandvikneset" />
		<tag k="natural" v="cape" />
		<tag k="ssr:stedsnr" v="558480" />
	</node>
	<node id="-45556" lat="63.0859805514" lon="7.7820888933">
		<tag k="name" v="Bolgvågen" />
		<tag k="natural" v="bay" />
		<tag k="ssr:stedsnr" v="558319" />
	</node>
	<node id="-45554" lat="63.1339000001" lon="7.7930722271">
		<tag k="fixme" v="consider seamark:type=rock or natural=shoal" />
		<tag k="name" v="Håskjæran" />
>>>>>>> e1d4bc35ff8a6074a6f2e91616a996b547c36f15
		<tag k="place" v="islet" />
		<tag k="ssr:stedsnr" v="558275" />
	</node>
<<<<<<< HEAD
	<node lat="63.07101666566406" lon="7.72691945231181" id="-1400">
		<tag k="name" v="Frei" />
		<tag k="place" v="island" />
		<tag k="ssr:stedsnr" v="922313" />
	</node>
	<node lat="63.27805277511704" lon="7.28667500857401" id="-1401">
		<tag k="alt_name" v="Bjørntaren" />
		<tag k="name" v="Bjørnstaren" />
		<tag k="natural" v="shoal" />
		<tag k="place" v="locality" />
		<tag k="ssr:stedsnr" v="923609" />
	</node>
	<node lat="63.297377774643984" lon="7.394499992609749" id="-1402">
		<tag k="name" v="Langtaren" />
		<tag k="natural" v="shoal" />
		<tag k="place" v="locality" />
		<tag k="ssr:stedsnr" v="923630" />
	</node>
	<node lat="63.08617222614825" lon="7.770933329187598" id="-1404">
		<tag k="name" v="Husøyhammeren" />
		<tag k="natural" v="cape" />
		<tag k="ssr:stedsnr" v="951300" />
	</node>
	<node lat="63.10596110690872" lon="7.752133338716074" id="-1405">
		<tag k="name" v="Smedvika" />
		<tag k="natural" v="bay" />
		<tag k="ssr:stedsnr" v="953324" />
	</node>
	<node lat="63.12374444002641" lon="7.759927768665161" id="-1414">
		<tag k="name" v="Dunkersundet" />
		<tag k="natural" v="strait" />
		<tag k="ssr:stedsnr" v="954511" />
	</node>
	<node lat="63.122519445649495" lon="7.761302776167305" id="-1415">
		<tag k="name" v="Bengtneset" />
		<tag k="natural" v="cape" />
		<tag k="ssr:stedsnr" v="954513" />
	</node>
	<node lat="63.061522225637525" lon="7.883116663179441" id="-1416">
		<tag k="name" v="Vikageilen" />
		<tag k="natural" v="bay" />
		<tag k="ssr:stedsnr" v="954251" />
	</node>
	<node lat="63.122319446779365" lon="7.6964583354090585" id="-1417">
		<tag k="fixme" v="consider seamark:type=rock or natural=shoal" />
		<tag k="name" v="Kragenskjæret" />
		<tag k="place" v="islet" />
		<tag k="ssr:stedsnr" v="966912" />
	</node>
	<node lat="63.112663889749435" lon="7.871694437564179" id="-1428">
		<tag k="name" v="Øygardsneset" />
		<tag k="natural" v="cape" />
		<tag k="ssr:stedsnr" v="12343" />
	</node>
	<node lat="63.05524722175183" lon="7.712213882252932" id="-1429">
		<tag k="name" v="Nordneset" />
		<tag k="natural" v="cape" />
		<tag k="ssr:stedsnr" v="12530" />
	</node>
	<node lat="63.20085278026502" lon="7.582816670865909" id="-1430">
		<tag k="fixme" v="consider seamark:type=rock or natural=shoal" />
		<tag k="name" v="Steet" />
		<tag k="place" v="islet" />
		<tag k="ssr:stedsnr" v="12657" />
	</node>
	<node lat="63.04355278137797" lon="7.70476110534337" id="-1431">
		<tag k="name" v="Gjengstøbukta" />
		<tag k="natural" v="bay" />
		<tag k="ssr:stedsnr" v="12586" />
	</node>
	<node lat="63.29444722395369" lon="7.36158611273392" id="-1432">
		<tag k="name" v="Vestkleppen" />
		<tag k="natural" v="shoal" />
		<tag k="place" v="locality" />
		<tag k="ssr:stedsnr" v="12607" />
	</node>
	<node lat="63.219269442929935" lon="7.548708334232072" id="-1433">
		<tag k="fixme" v="consider seamark:type=rock or natural=shoal" />
		<tag k="name" v="Humla" />
		<tag k="place" v="islet" />
		<tag k="ssr:stedsnr" v="12684" />
	</node>
	<node lat="63.107300002814796" lon="7.734883332848358" id="-1436">
		<tag k="fixme" v="consider seamark:type=rock or natural=shoal" />
		<tag k="name" v="Høneskjæret" />
		<tag k="place" v="islet" />
		<tag k="ssr:stedsnr" v="41494" />
	</node>
	<node lat="63.04436111386324" lon="7.856750000998177" id="-1440">
		<tag k="name" v="Lundaneset" />
		<tag k="natural" v="cape" />
		<tag k="ssr:stedsnr" v="43225" />
	</node>
	<node lat="63.10405000260292" lon="7.859125000723236" id="-1442">
		<tag k="name" v="Kvennaholmen" />
		<tag k="place" v="islet" />
		<tag k="ssr:stedsnr" v="43129" />
	</node>
	<node lat="63.128786110853746" lon="7.833202771290617" id="-1443">
		<tag k="name" v="Neset" />
		<tag k="natural" v="cape" />
		<tag k="ssr:stedsnr" v="43756" />
	</node>
	<node lat="63.065355559248495" lon="7.711461103429236" id="-1446">
		<tag k="name" v="Jensneset" />
		<tag k="natural" v="cape" />
		<tag k="ssr:stedsnr" v="43844" />
	</node>
	<node lat="63.060844448763326" lon="7.717836110506959" id="-1449">
		<tag k="name" v="Sandvikholmen" />
		<tag k="place" v="islet" />
		<tag k="ssr:stedsnr" v="43872" />
	</node>
	<node lat="63.053780556813074" lon="7.7208055556791475" id="-1450">
		<tag k="name" v="Geitholmen" />
		<tag k="place" v="islet" />
		<tag k="ssr:stedsnr" v="43875" />
	</node>
	<node lat="63.031766664963385" lon="7.731424999222214" id="-1451">
		<tag k="alt_name" v="Bogen" />
		<tag k="name" v="Endresetbukta" />
		<tag k="natural" v="bay" />
		<tag k="ssr:stedsnr" v="43881" />
	</node>
	<node lat="63.12374166645288" lon="7.867783328702814" id="-1453">
		<tag k="name" v="Sandvika" />
		<tag k="natural" v="bay" />
		<tag k="ssr:stedsnr" v="44535" />
	</node>
	<node lat="63.11635833642608" lon="7.763713882956836" id="-1454">
		<tag k="name" v="Gevorbnerholmen" />
		<tag k="place" v="islet" />
		<tag k="ssr:stedsnr" v="44539" />
	</node>
	<node lat="63.18571666820154" lon="7.607105556267375" id="-1457">
		<tag k="name" v="Tufteflua" />
		<tag k="natural" v="shoal" />
		<tag k="place" v="locality" />
		<tag k="ssr:stedsnr" v="48433" />
	</node>
	<node lat="63.126933328986524" lon="7.6751694497726906" id="-1458">
		<tag k="name" v="Tjørnviktaren" />
		<tag k="natural" v="shoal" />
		<tag k="place" v="locality" />
		<tag k="ssr:stedsnr" v="48693" />
	</node>
	<node lat="63.10474444822296" lon="7.848974999398942" id="-1460">
		<tag k="name" v="Jåvika" />
		<tag k="natural" v="bay" />
		<tag k="ssr:stedsnr" v="56195" />
	</node>
	<node lat="63.0968500016599" lon="7.779930561253283" id="-1461">
		<tag k="name" v="Austre Fugløygrunnen" />
		<tag k="natural" v="shoal" />
		<tag k="place" v="locality" />
		<tag k="ssr:stedsnr" v="56329" />
	</node>
	<node lat="63.10446944401197" lon="7.827447230713642" id="-1473">
		<tag k="name" v="Rensvikholmflua" />
		<tag k="natural" v="shoal" />
		<tag k="place" v="locality" />
		<tag k="ssr:stedsnr" v="101214" />
	</node>
	<node lat="63.11913055263335" lon="7.7321472315799475" id="-1481">
		<tag k="name" v="Vågen" />
		<tag k="natural" v="bay" />
		<tag k="ssr:stedsnr" v="104314" />
	</node>
	<node lat="63.0579166675612" lon="7.713472226058807" id="-1485">
		<tag k="name" v="Straumholmen" />
		<tag k="place" v="islet" />
		<tag k="ssr:stedsnr" v="104861" />
	</node>
	<node lat="63.0537666685521" lon="7.723613889492154" id="-1486">
		<tag k="name" v="Saltkjelvikholmen" />
		<tag k="place" v="islet" />
		<tag k="ssr:stedsnr" v="104862" />
	</node>
	<node lat="63.106113887205275" lon="7.847244435314656" id="-1491">
		<tag k="name" v="Vorpneset" />
		<tag k="natural" v="cape" />
		<tag k="ssr:stedsnr" v="105399" />
	</node>
	<node lat="63.061597218428666" lon="7.716005554120628" id="-1494">
		<tag k="fixme" v="consider seamark:type=rock or natural=shoal" />
		<tag k="name" v="Sandvikskjæret" />
		<tag k="place" v="islet" />
		<tag k="ssr:stedsnr" v="110396" />
	</node>
	<node lat="63.2932083347927" lon="7.37304999773619" id="-1495">
		<tag k="name" v="Bryggetaren" />
		<tag k="natural" v="shoal" />
		<tag k="place" v="locality" />
		<tag k="ssr:stedsnr" v="110698" />
	</node>
	<node lat="63.12773611192374" lon="7.833072225046773" id="-1496">
		<tag k="name" v="Gløsvågleira" />
		<tag k="natural" v="shoal" />
		<tag k="place" v="locality" />
		<tag k="ssr:stedsnr" v="116147" />
	</node>
	<node lat="63.12782499836568" lon="7.750688886628125" id="-1497">
		<tag k="name" v="Indre Garnneset" />
		<tag k="natural" v="cape" />
		<tag k="ssr:stedsnr" v="116901" />
	</node>
	<node lat="63.04572500036618" lon="7.861350003513608" id="-1498">
		<tag k="name" v="Vorpvikneset" />
		<tag k="natural" v="cape" />
		<tag k="ssr:stedsnr" v="133137" />
	</node>
	<node lat="63.20929722284309" lon="7.686338880826381" id="-1501">
		<tag k="fixme" v="consider seamark:type=rock or natural=shoal" />
		<tag k="name" v="Kobbskjæra" />
		<tag k="place" v="islet" />
		<tag k="ssr:stedsnr" v="133624" />
	</node>
	<node lat="63.129891670310265" lon="7.72683889811617" id="-1503">
		<tag k="name" v="Dalabukta" />
		<tag k="natural" v="bay" />
		<tag k="ssr:stedsnr" v="133241" />
	</node>
	<node lat="63.089613887571964" lon="7.733630551388839" id="-1510">
		<tag k="name" v="Kopparholman" />
		<tag k="place" v="islet" />
		<tag k="ssr:stedsnr" v="134422" />
	</node>
	<node lat="63.088461114443355" lon="7.77523888491598" id="-1512">
		<tag k="name" v="Grønbukta" />
		<tag k="natural" v="bay" />
		<tag k="ssr:stedsnr" v="164192" />
	</node>
	<node lat="63.087666668219605" lon="7.774324995167175" id="-1513">
		<tag k="alt_name" v="Jørilneset" />
		<tag k="name" v="Jørildneset" />
		<tag k="natural" v="cape" />
		<tag k="ssr:stedsnr" v="164194" />
	</node>
	<node lat="63.087030555574145" lon="7.76426388512999" id="-1514">
		<tag k="name" v="Leira" />
		<tag k="natural" v="shoal" />
		<tag k="place" v="locality" />
		<tag k="ssr:stedsnr" v="164200" />
	</node>
	<node lat="63.09543333481745" lon="7.773469440047081" id="-1517">
		<tag k="alt_name" v="Fugløyskjeret" />
		<tag k="fixme" v="consider seamark:type=rock or natural=shoal" />
		<tag k="name" v="Fugløyskjæret" />
		<tag k="place" v="islet" />
		<tag k="ssr:stedsnr" v="164385" />
	</node>
	<node lat="63.13043055773738" lon="7.723108340473929" id="-1526">
		<tag k="name" v="Kariholnesa" />
		<tag k="natural" v="cape" />
		<tag k="ssr:stedsnr" v="165752" />
	</node>
	<node lat="63.22071944637535" lon="7.568572213991566" id="-1527">
		<tag k="name" v="Almflua" />
		<tag k="natural" v="shoal" />
		<tag k="place" v="locality" />
		<tag k="ssr:stedsnr" v="170431" />
	</node>
	<node lat="63.208850004378675" lon="7.550505553038363" id="-1528">
		<tag k="fixme" v="consider seamark:type=rock or natural=shoal" />
		<tag k="name" v="Anbåskjæret" />
		<tag k="place" v="islet" />
		<tag k="ssr:stedsnr" v="170433" />
	</node>
	<node lat="63.312513889270946" lon="7.394797212715697" id="-1529">
		<tag k="name" v="Nørknollan" />
		<tag k="natural" v="shoal" />
		<tag k="place" v="locality" />
		<tag k="ssr:stedsnr" v="170697" />
	</node>
	<node lat="63.10120832907975" lon="7.716405564564735" id="-1530">
		<tag k="name" v="Baltserneset" />
		<tag k="natural" v="cape" />
		<tag k="ssr:stedsnr" v="171346" />
	</node>
	<node lat="63.07381388995799" lon="7.708722224162875" id="-1531">
=======
	<node id="-45547" lat="63.1251583306" lon="7.69579445398">
		<tag k="name" v="Bårdokken" />
		<tag k="natural" v="bay" />
		<tag k="ssr:stedsnr" v="541923" />
	</node>
	<node id="-45544" lat="63.2073027818" lon="7.49072221312">
		<tag k="name" v="Haue" />
		<tag k="natural" v="shoal" />
		<tag k="place" v="locality" />
		<tag k="ssr:stedsnr" v="534714" />
	</node>
	<node id="-45543" lat="63.1968111076" lon="7.47914166159">
		<tag k="name" v="Olsjursjutaren" />
		<tag k="natural" v="shoal" />
		<tag k="place" v="locality" />
		<tag k="ssr:stedsnr" v="534713" />
	</node>
	<node id="-45542" lat="63.1754222215" lon="7.55604999461">
		<tag k="name" v="Treflestaren" />
		<tag k="natural" v="shoal" />
		<tag k="place" v="locality" />
		<tag k="ssr:stedsnr" v="534481" />
	</node>
	<node id="-45541" lat="63.2212749967" lon="7.64254167165">
		<tag k="name" v="Indre Langfallet" />
		<tag k="natural" v="shoal" />
		<tag k="place" v="locality" />
		<tag k="ssr:stedsnr" v="533121" />
	</node>
	<node id="-45540" lat="63.0752055525" lon="7.88839999447">
		<tag k="name" v="Bogabukta" />
		<tag k="natural" v="bay" />
		<tag k="ssr:stedsnr" v="530390" />
	</node>
	<node id="-45532" lat="63.0602694436" lon="7.88388887962">
		<tag k="fixme" v="consider seamark:type=rock or natural=shoal" />
		<tag k="name" v="Langskjeret" />
		<tag k="place" v="islet" />
		<tag k="ssr:stedsnr" v="529238" />
	</node>
	<node id="-45526" lat="63.098572225" lon="7.73252777108">
		<tag k="name" v="Linflua" />
		<tag k="place" v="locality" />
		<tag k="seamark:type" v="rock" />
		<tag k="ssr:stedsnr" v="526297" />
	</node>
	<node id="-45524" lat="63.2300916704" lon="7.60409165892">
		<tag k="fixme" v="consider seamark:type=rock or natural=shoal" />
		<tag k="name" v="Reitskjæret" />
		<tag k="place" v="islet" />
		<tag k="ssr:stedsnr" v="437676" />
	</node>
	<node id="-45523" lat="63.1736972223" lon="7.58289167477">
		<tag k="fixme" v="consider seamark:type=rock or natural=shoal" />
		<tag k="name" v="Flatskjelingen" />
		<tag k="place" v="islet" />
		<tag k="ssr:stedsnr" v="437664" />
	</node>
	<node id="-45522" lat="63.1907777735" lon="7.64601667036">
		<tag k="name" v="Nordgripen" />
		<tag k="place" v="islet" />
		<tag k="ssr:stedsnr" v="437661" />
	</node>
	<node id="-45521" lat="63.286169446" lon="7.3026861057">
		<tag k="alt_name" v="Ytre Steintaren" />
		<tag k="name" v="Steintaren" />
		<tag k="natural" v="shoal" />
		<tag k="place" v="locality" />
		<tag k="ssr:stedsnr" v="437610" />
	</node>
	<node id="-45520" lat="63.3003666636" lon="7.32394165731">
		<tag k="alt_name" v="Griptarene" />
		<tag k="name" v="Griptaran" />
		<tag k="natural" v="shoal" />
		<tag k="place" v="locality" />
		<tag k="ssr:stedsnr" v="437606" />
	</node>
	<node id="-45519" lat="63.1065638892" lon="7.76664166685">
		<tag k="name" v="Dalvikneset" />
		<tag k="natural" v="cape" />
		<tag k="ssr:stedsnr" v="437367" />
	</node>
	<node id="-45517" lat="63.0150972245" lon="7.78475000349">
		<tag k="name" v="Revsholmen" />
		<tag k="place" v="islet" />
		<tag k="ssr:stedsnr" v="437242" />
	</node>
	<node id="-45516" lat="63.021493151" lon="7.7607588723">
		<tag k="name" v="Flatsetøya" />
		<tag k="place" v="island" />
		<tag k="ssr:stedsnr" v="437239" />
	</node>
	<node id="-45515" lat="63.0685555596" lon="7.88899721521">
		<tag k="name" v="Kvalvågen" />
		<tag k="natural" v="bay" />
		<tag k="ssr:stedsnr" v="437210" />
	</node>
	<node id="-45507" lat="63.0846500001" lon="7.78499722058">
		<tag k="name" v="Linvågen" />
		<tag k="natural" v="bay" />
		<tag k="ssr:stedsnr" v="420335" />
	</node>
	<node id="-45505" lat="63.0290083339" lon="7.72276667418">
		<tag k="name" v="Rågrunnen" />
		<tag k="natural" v="shoal" />
		<tag k="place" v="locality" />
		<tag k="ssr:stedsnr" v="414377" />
	</node>
	<node id="-45504" lat="63.2080222246" lon="7.59505555891">
		<tag k="fixme" v="consider seamark:type=rock or natural=shoal" />
		<tag k="name" v="Nordkvitna" />
		<tag k="place" v="islet" />
		<tag k="ssr:stedsnr" v="413116" />
	</node>
	<node id="-45502" lat="63.2092555528" lon="7.68651944368">
		<tag k="fixme" v="consider seamark:type=rock or natural=shoal" />
		<tag k="name" v="Vestre Kobbskjæra" />
		<tag k="place" v="islet" />
		<tag k="ssr:stedsnr" v="412440" />
	</node>
	<node id="-45501" lat="63.2058166649" lon="7.65774167381">
		<tag k="name" v="Leiskjærtaran" />
		<tag k="natural" v="shoal" />
		<tag k="place" v="locality" />
		<tag k="ssr:stedsnr" v="412429" />
	</node>
	<node id="-45500" lat="63.2118805537" lon="7.55120832608">
		<tag k="name" v="Anbåskjærflua" />
		<tag k="natural" v="shoal" />
		<tag k="place" v="locality" />
		<tag k="ssr:stedsnr" v="412382" />
	</node>
	<node id="-45496" lat="63.1313805534" lon="7.80648889882">
		<tag k="name" v="Kvitnesbukta" />
		<tag k="natural" v="bay" />
		<tag k="ssr:stedsnr" v="408764" />
	</node>
	<node id="-45495" lat="63.1339499964" lon="7.85564443493">
		<tag k="name" v="Skåla" />
		<tag k="place" v="islet" />
		<tag k="ssr:stedsnr" v="408758" />
	</node>
	<node id="-45494" lat="63.1139583302" lon="7.7064666656">
		<tag k="name" v="Storsanden" />
		<tag k="natural" v="beach" />
		<tag k="place" v="locality" />
		<tag k="ssr:stedsnr" v="408334" />
	</node>
	<node id="-45493" lat="63.1121916712" lon="7.71423333756">
		<tag k="name" v="Lillesanden" />
		<tag k="natural" v="beach" />
		<tag k="place" v="locality" />
		<tag k="ssr:stedsnr" v="408332" />
	</node>
	<node id="-45489" lat="63.0668083355" lon="7.71348332962">
		<tag k="name" v="Bjørnvikbukta" />
		<tag k="natural" v="bay" />
		<tag k="ssr:stedsnr" v="407847" />
	</node>
	<node id="-45488" lat="63.0192861141" lon="7.74695278173">
		<tag k="name" v="Prestneset" />
		<tag k="natural" v="cape" />
		<tag k="ssr:stedsnr" v="407798" />
	</node>
	<node id="-45485" lat="63.1043805516" lon="7.73481111684">
		<tag k="name" v="Innlandet" />
		<tag k="place" v="island" />
		<tag k="ssr:stedsnr" v="376762" />
	</node>
	<node id="-45484" lat="63.1636611136" lon="7.65768610642">
		<tag k="name" v="Fausken" />
		<tag k="natural" v="shoal" />
		<tag k="place" v="locality" />
		<tag k="ssr:stedsnr" v="376738" />
	</node>
	<node id="-45482" lat="63.2211472267" lon="7.63122500629">
		<tag k="fixme" v="consider seamark:type=rock or natural=shoal" />
		<tag k="name" v="Ivarflesa" />
		<tag k="place" v="islet" />
		<tag k="ssr:stedsnr" v="376679" />
	</node>
	<node id="-45481" lat="63.2225777795" lon="7.60477222446">
		<tag k="fixme" v="consider seamark:type=rock or natural=shoal" />
		<tag k="name" v="Attletet" />
		<tag k="place" v="islet" />
		<tag k="ssr:stedsnr" v="376677" />
	</node>
	<node id="-45480" lat="63.2226194488" lon="7.58982776995">
		<tag k="fixme" v="consider seamark:type=rock or natural=shoal" />
		<tag k="name" v="Tika" />
		<tag k="place" v="islet" />
		<tag k="ssr:stedsnr" v="376675" />
	</node>
	<node id="-45479" lat="63.2013694451" lon="7.66031388718">
		<tag k="fixme" v="consider seamark:type=rock or natural=shoal" />
		<tag k="name" v="Leiskjæret" />
		<tag k="place" v="islet" />
		<tag k="ssr:stedsnr" v="376670" />
	</node>
	<node id="-45478" lat="63.1343361097" lon="7.74622222134">
		<tag k="fixme" v="consider seamark:type=rock or natural=shoal" />
		<tag k="name" v="Hinnaskjæret" />
		<tag k="place" v="islet" />
		<tag k="ssr:stedsnr" v="376272" />
	</node>
	<node id="-45477" lat="63.1071722246" lon="7.87662221672">
		<tag k="fixme" v="consider seamark:type=rock or natural=shoal" />
		<tag k="name" v="Årholmen" />
		<tag k="place" v="islet" />
		<tag k="ssr:stedsnr" v="376358" />
	</node>
	<node id="-45471" lat="63.0476972209" lon="7.68218056029">
		<tag k="bay" v="fjord" />
		<tag k="name" v="Kvernesfjorden" />
		<tag k="natural" v="bay" />
		<tag k="ssr:stedsnr" v="375946" />
	</node>
	<node id="-45470" lat="63.1310777774" lon="7.71383611614">
		<tag k="name" v="Steinholmen" />
		<tag k="place" v="islet" />
		<tag k="ssr:stedsnr" v="359828" />
	</node>
	<node id="-45469" lat="63.012377778" lon="7.79726388751">
		<tag k="name" v="Grunntaren" />
		<tag k="natural" v="shoal" />
		<tag k="place" v="locality" />
		<tag k="ssr:stedsnr" v="353393" />
	</node>
	<node id="-45468" lat="63.282305554" lon="7.30580832721">
		<tag k="name" v="Indre Steinstaren" />
		<tag k="natural" v="shoal" />
		<tag k="place" v="locality" />
		<tag k="ssr:stedsnr" v="352667" />
	</node>
	<node id="-45466" lat="63.1288944478" lon="7.73037777563">
		<tag k="name" v="Eaholmen" />
		<tag k="place" v="islet" />
		<tag k="ssr:stedsnr" v="347736" />
	</node>
	<node id="-45462" lat="63.1051305517" lon="7.85048888611">
		<tag k="name" v="Sandbukta" />
		<tag k="natural" v="bay" />
		<tag k="ssr:stedsnr" v="347384" />
	</node>
	<node id="-45460" lat="63.0684888875" lon="7.88701110655">
		<tag k="name" v="Kvalvågbukta" />
		<tag k="natural" v="bay" />
		<tag k="ssr:stedsnr" v="347370" />
	</node>
	<node id="-45459" lat="63.0710166695" lon="7.88878888538">
		<tag k="name" v="Hamnabukta" />
		<tag k="natural" v="bay" />
		<tag k="ssr:stedsnr" v="347368" />
	</node>
	<node id="-45456" lat="63.1001583318" lon="7.89947499941">
		<tag k="fixme" v="consider seamark:type=rock or natural=shoal" />
		<tag k="name" v="Daudmannskjeret" />
		<tag k="place" v="islet" />
		<tag k="ssr:stedsnr" v="347357" />
	</node>
	<node id="-45455" lat="63.0996750036" lon="7.88678888744">
		<tag k="name" v="Kvalvikbukta" />
		<tag k="natural" v="bay" />
		<tag k="ssr:stedsnr" v="347355" />
	</node>
	<node id="-45454" lat="63.1014805578" lon="7.82524722832">
		<tag k="alt_name" v="Saltbunesbukta" />
		<tag k="name" v="Saltvika" />
		<tag k="natural" v="bay" />
		<tag k="ssr:stedsnr" v="347148" />
	</node>
	<node id="-45453" lat="63.1028583336" lon="7.8595638866">
		<tag k="name" v="Våttåbukta" />
		<tag k="natural" v="bay" />
		<tag k="ssr:stedsnr" v="347145" />
	</node>
	<node id="-45448" lat="63.111224999" lon="7.8678666665">
		<tag k="name" v="Seivika" />
		<tag k="natural" v="bay" />
		<tag k="ssr:stedsnr" v="324569" />
	</node>
	<node id="-45446" lat="63.121516665" lon="7.80201667219">
		<tag k="name" v="Nordlandet" />
		<tag k="place" v="island" />
		<tag k="ssr:stedsnr" v="316318" />
	</node>
	<node id="-45445" lat="63.2193694429" lon="7.54173888007">
		<tag k="name" v="Flesin" />
		<tag k="place" v="island" />
		<tag k="ssr:stedsnr" v="315680" />
	</node>
	<node id="-45438" lat="63.123576769" lon="7.69841290277">
		<tag k="name" v="Meldahlsholmen" />
		<tag k="place" v="islet" />
		<tag k="ssr:stedsnr" v="194681" />
	</node>
	<node id="-45437" lat="63.1148555549" lon="7.68931665766">
		<tag k="name" v="Klubbneset" />
		<tag k="natural" v="cape" />
		<tag k="ssr:stedsnr" v="194669" />
	</node>
	<node id="-45435" lat="63.2310055588" lon="7.61493611459">
		<tag k="fixme" v="consider seamark:type=rock or natural=shoal" />
		<tag k="name" v="Svartskjæret" />
		<tag k="place" v="islet" />
		<tag k="ssr:stedsnr" v="194643" />
	</node>
	<node id="-45434" lat="63.2064027781" lon="7.56888054858">
		<tag k="fixme" v="consider seamark:type=rock or natural=shoal" />
		<tag k="name" v="Vestre Moholmskjæret" />
		<tag k="place" v="islet" />
		<tag k="ssr:stedsnr" v="194629" />
	</node>
	<node id="-45433" lat="63.1930249971" lon="7.59271944967">
		<tag k="name" v="Einstøingen" />
		<tag k="natural" v="shoal" />
		<tag k="place" v="locality" />
		<tag k="ssr:stedsnr" v="194619" />
	</node>
	<node id="-45432" lat="63.0583387067" lon="7.69837552738">
		<tag k="name" v="Flatøya" />
		<tag k="place" v="island" />
		<tag k="ssr:stedsnr" v="194470" />
	</node>
	<node id="-45431" lat="63.3184777763" lon="7.36247499993">
		<tag k="name" v="Nordkleppen" />
		<tag k="natural" v="shoal" />
		<tag k="place" v="locality" />
		<tag k="ssr:stedsnr" v="194550" />
	</node>
	<node id="-45429" lat="63.1213388896" lon="7.76141667608">
		<tag k="name" v="Teistholmtaren" />
		<tag k="natural" v="shoal" />
		<tag k="place" v="locality" />
		<tag k="ssr:stedsnr" v="177882" />
	</node>
	<node id="-45426" lat="63.1012083291" lon="7.71640556456">
		<tag k="name" v="Baltserneset" />
		<tag k="natural" v="cape" />
		<tag k="ssr:stedsnr" v="171346" />
	</node>
	<node id="-45425" lat="63.07381389" lon="7.70872222416">
>>>>>>> e1d4bc35ff8a6074a6f2e91616a996b547c36f15
		<tag k="name" v="Storebukta" />
		<tag k="natural" v="bay" />
		<tag k="ssr:stedsnr" v="171245" />
	</node>
<<<<<<< HEAD
	<node lat="63.121338889636654" lon="7.761416676083137" id="-1534">
		<tag k="name" v="Teistholmtaren" />
		<tag k="natural" v="shoal" />
		<tag k="place" v="locality" />
		<tag k="ssr:stedsnr" v="177882" />
	</node>
	<node lat="63.23100555880526" lon="7.614936114591623" id="-1537">
		<tag k="fixme" v="consider seamark:type=rock or natural=shoal" />
		<tag k="name" v="Svartskjæret" />
		<tag k="place" v="islet" />
		<tag k="ssr:stedsnr" v="194643" />
	</node>
	<node lat="63.03694721961628" lon="7.8371194444446015" id="-1540">
		<tag k="name" v="Orneset" />
		<tag k="natural" v="cape" />
		<tag k="ssr:stedsnr" v="194406" />
	</node>
	<node lat="63.05833870669471" lon="7.698375527384346" id="-1542">
		<tag k="name" v="Flatøya" />
		<tag k="place" v="island" />
		<tag k="ssr:stedsnr" v="194470" />
	</node>
	<node lat="63.318477776318666" lon="7.362474999933149" id="-1543">
		<tag k="name" v="Nordkleppen" />
		<tag k="natural" v="shoal" />
		<tag k="place" v="locality" />
		<tag k="ssr:stedsnr" v="194550" />
	</node>
	<node lat="63.19302499714615" lon="7.5927194496659345" id="-1544">
		<tag k="name" v="Einstøingen" />
		<tag k="natural" v="shoal" />
		<tag k="place" v="locality" />
		<tag k="ssr:stedsnr" v="194619" />
	</node>
	<node lat="63.20640277807746" lon="7.568880548577494" id="-1545">
		<tag k="fixme" v="consider seamark:type=rock or natural=shoal" />
		<tag k="name" v="Vestre Moholmskjæret" />
		<tag k="place" v="islet" />
		<tag k="ssr:stedsnr" v="194629" />
	</node>
	<node lat="63.11485555485539" lon="7.6893166576626495" id="-1547">
		<tag k="name" v="Klubbneset" />
		<tag k="natural" v="cape" />
		<tag k="ssr:stedsnr" v="194669" />
	</node>
	<node lat="63.12357676901564" lon="7.698412902766097" id="-1548">
		<tag k="name" v="Meldahlsholmen" />
		<tag k="place" v="islet" />
		<tag k="ssr:stedsnr" v="194681" />
	</node>
	<node lat="63.12498055350192" lon="7.760111116937638" id="-1549">
		<tag k="name" v="Meløya" />
		<tag k="place" v="islet" />
		<tag k="ssr:stedsnr" v="195309" />
	</node>
	<node lat="63.11821110984658" lon="7.732366658704491" id="-1554">
		<tag k="fixme" v="consider seamark:type=rock or natural=shoal" />
		<tag k="name" v="Kranskjæret" />
		<tag k="place" v="islet" />
		<tag k="ssr:stedsnr" v="223458" />
	</node>
	<node lat="63.102388891052264" lon="7.817369452841987" id="-1561">
		<tag k="name" v="Daumannsholmen" />
		<tag k="place" v="islet" />
		<tag k="ssr:stedsnr" v="226161" />
	</node>
	<node lat="63.10097222651744" lon="7.808686104057644" id="-1570">
		<tag k="name" v="Hansøyvalen" />
		<tag k="natural" v="bay" />
		<tag k="ssr:stedsnr" v="284291" />
	</node>
	<node lat="63.08884444660638" lon="7.79187776864594" id="-1576">
		<tag k="name" v="Grindneset" />
		<tag k="natural" v="cape" />
		<tag k="ssr:stedsnr" v="286176" />
	</node>
	<node lat="63.128277776393546" lon="7.869625000826195" id="-1583">
		<tag k="name" v="Gildrebergtaren" />
		<tag k="natural" v="shoal" />
		<tag k="place" v="locality" />
		<tag k="ssr:stedsnr" v="286759" />
	</node>
	<node lat="63.10296666811036" lon="7.7192027757675" id="-1585">
		<tag k="name" v="Sauhola" />
		<tag k="natural" v="bay" />
		<tag k="ssr:stedsnr" v="286840" />
	</node>
	<node lat="63.2133388887329" lon="7.698069454370999" id="-1589">
		<tag k="name" v="Lønnfallet" />
		<tag k="natural" v="shoal" />
		<tag k="place" v="locality" />
		<tag k="ssr:stedsnr" v="291492" />
	</node>
	<node lat="63.13083333633063" lon="7.726561107751769" id="-1590">
		<tag k="name" v="Fosnavågen" />
		<tag k="natural" v="bay" />
		<tag k="ssr:stedsnr" v="291716" />
	</node>
	<node lat="63.14467222163701" lon="7.638144444609933" id="-1591">
		<tag k="name" v="Helklakken" />
		<tag k="natural" v="shoal" />
		<tag k="place" v="locality" />
		<tag k="ssr:stedsnr" v="291720" />
	</node>
	<node lat="63.02158333331601" lon="7.789319441951489" id="-1592">
		<tag k="fixme" v="consider seamark:type=rock or natural=shoal" />
		<tag k="name" v="Blindskjeret" />
		<tag k="place" v="islet" />
		<tag k="ssr:stedsnr" v="292361" />
	</node>
	<node lat="63.130547221876604" lon="7.712808337841215" id="-1594">
		<tag k="name" v="Nordre Mikalholet" />
		<tag k="natural" v="bay" />
		<tag k="ssr:stedsnr" v="298780" />
	</node>
	<node lat="63.09478333175216" lon="7.784911109377781" id="-1595">
		<tag k="name" v="Vorpholmbåen" />
		<tag k="natural" v="shoal" />
		<tag k="place" v="locality" />
		<tag k="ssr:stedsnr" v="299356" />
	</node>
	<node lat="63.05419774256792" lon="7.702068965741134" id="-1602">
		<tag k="name" v="Blomneset" />
		<tag k="natural" v="cape" />
		<tag k="ssr:stedsnr" v="315522" />
	</node>
	<node lat="63.21075000369096" lon="7.58225278521751" id="-1603">
		<tag k="fixme" v="consider seamark:type=rock or natural=shoal" />
		<tag k="name" v="Austre Moholmskjæra" />
		<tag k="place" v="islet" />
		<tag k="ssr:stedsnr" v="315671" />
	</node>
	<node lat="63.21936944290872" lon="7.541738880070119" id="-1604">
		<tag k="name" v="Flesin" />
		<tag k="place" v="island" />
		<tag k="ssr:stedsnr" v="315680" />
	</node>
	<node lat="63.09078611346943" lon="7.755544451544543" id="-1607">
		<tag k="name" v="Bolgneset" />
		<tag k="natural" v="cape" />
		<tag k="ssr:stedsnr" v="316429" />
	</node>
	<node lat="63.106919444657635" lon="7.768055559008319" id="-1611">
		<tag k="name" v="Byfutneset" />
		<tag k="natural" v="cape" />
		<tag k="ssr:stedsnr" v="344267" />
	</node>
	<node lat="63.10285833358292" lon="7.859563886603032" id="-1617">
		<tag k="name" v="Våttåbukta" />
		<tag k="natural" v="bay" />
		<tag k="ssr:stedsnr" v="347145" />
	</node>
	<node lat="63.10148055778615" lon="7.825247228321866" id="-1618">
		<tag k="alt_name" v="Saltbunesbukta" />
		<tag k="name" v="Saltvika" />
		<tag k="natural" v="bay" />
		<tag k="ssr:stedsnr" v="347148" />
	</node>
	<node lat="63.07101666950015" lon="7.888788885383261" id="-1619">
		<tag k="name" v="Hamnabukta" />
		<tag k="natural" v="bay" />
		<tag k="ssr:stedsnr" v="347368" />
	</node>
	<node lat="63.068488887454116" lon="7.88701110655201" id="-1620">
		<tag k="name" v="Kvalvågbukta" />
		<tag k="natural" v="bay" />
		<tag k="ssr:stedsnr" v="347370" />
	</node>
	<node lat="63.12889444776722" lon="7.730377775628726" id="-1623">
		<tag k="name" v="Eaholmen" />
		<tag k="place" v="islet" />
		<tag k="ssr:stedsnr" v="347736" />
	</node>
	<node lat="63.10513055172817" lon="7.850488886112059" id="-1624">
		<tag k="name" v="Sandbukta" />
		<tag k="natural" v="bay" />
		<tag k="ssr:stedsnr" v="347384" />
	</node>
	<node lat="63.01237777800579" lon="7.797263887511121" id="-1627">
		<tag k="name" v="Grunntaren" />
		<tag k="natural" v="shoal" />
		<tag k="place" v="locality" />
		<tag k="ssr:stedsnr" v="353393" />
	</node>
	<node lat="63.131077777361256" lon="7.713836116138412" id="-1628">
		<tag k="name" v="Steinholmen" />
		<tag k="place" v="islet" />
		<tag k="ssr:stedsnr" v="359828" />
	</node>
	<node lat="63.04769722093297" lon="7.682180560289716" id="-1631">
		<tag k="bay" v="fjord" />
		<tag k="name" v="Kvernesfjorden" />
		<tag k="natural" v="bay" />
		<tag k="ssr:stedsnr" v="375946" />
	</node>
	<node lat="63.10717222462154" lon="7.876622216716123" id="-1636">
		<tag k="fixme" v="consider seamark:type=rock or natural=shoal" />
		<tag k="name" v="Årholmen" />
		<tag k="place" v="islet" />
		<tag k="ssr:stedsnr" v="376358" />
	</node>
	<node lat="63.22261944881949" lon="7.58982776994587" id="-1637">
		<tag k="fixme" v="consider seamark:type=rock or natural=shoal" />
		<tag k="name" v="Tika" />
		<tag k="place" v="islet" />
		<tag k="ssr:stedsnr" v="376675" />
	</node>
	<node lat="63.22257777946534" lon="7.604772224463079" id="-1638">
		<tag k="fixme" v="consider seamark:type=rock or natural=shoal" />
		<tag k="name" v="Attletet" />
		<tag k="place" v="islet" />
		<tag k="ssr:stedsnr" v="376677" />
	</node>
	<node lat="63.221147226662055" lon="7.631225006293232" id="-1639">
		<tag k="fixme" v="consider seamark:type=rock or natural=shoal" />
		<tag k="name" v="Ivarflesa" />
		<tag k="place" v="islet" />
		<tag k="ssr:stedsnr" v="376679" />
	</node>
	<node lat="63.20136944513596" lon="7.6603138871782255" id="-1641">
		<tag k="fixme" v="consider seamark:type=rock or natural=shoal" />
		<tag k="name" v="Leiskjæret" />
		<tag k="place" v="islet" />
		<tag k="ssr:stedsnr" v="376670" />
	</node>
	<node lat="63.16366111362589" lon="7.657686106415277" id="-1642">
		<tag k="name" v="Fausken" />
		<tag k="natural" v="shoal" />
		<tag k="place" v="locality" />
		<tag k="ssr:stedsnr" v="376738" />
	</node>
	<node lat="63.10438055164442" lon="7.734811116837717" id="-1643">
		<tag k="name" v="Innlandet" />
		<tag k="place" v="island" />
		<tag k="ssr:stedsnr" v="376762" />
	</node>
	<node lat="63.105458333414845" lon="7.7787777856014095" id="-1645">
		<tag k="name" v="Breivika" />
		<tag k="natural" v="bay" />
		<tag k="ssr:stedsnr" v="405268" />
	</node>
	<node lat="63.10683333301471" lon="7.764391659679378" id="-1646">
		<tag k="name" v="Dalsvika" />
		<tag k="natural" v="bay" />
		<tag k="ssr:stedsnr" v="405270" />
	</node>
	<node lat="63.10310555778305" lon="7.801941672079552" id="-1647">
		<tag k="fixme" v="consider seamark:type=rock or natural=shoal" />
		<tag k="name" v="Hansøyskjæra" />
		<tag k="place" v="islet" />
		<tag k="ssr:stedsnr" v="405272" />
	</node>
	<node lat="63.11219167117214" lon="7.71423333755756" id="-1655">
		<tag k="name" v="Lillesanden" />
		<tag k="natural" v="beach" />
		<tag k="ssr:stedsnr" v="408332" />
	</node>
	<node lat="63.11395833015876" lon="7.706466665598192" id="-1656">
		<tag k="name" v="Storsanden" />
		<tag k="natural" v="beach" />
		<tag k="ssr:stedsnr" v="408334" />
	</node>
	<node lat="63.133949996445615" lon="7.855644434931569" id="-1659">
		<tag k="name" v="Skåla" />
		<tag k="place" v="islet" />
		<tag k="ssr:stedsnr" v="408758" />
	</node>
	<node lat="63.13138055338994" lon="7.806488898817057" id="-1660">
		<tag k="name" v="Kvitnesbukta" />
		<tag k="natural" v="bay" />
		<tag k="ssr:stedsnr" v="408764" />
	</node>
	<node lat="63.20581666493284" lon="7.65774167381364" id="-1662">
		<tag k="name" v="Leiskjærtaran" />
		<tag k="natural" v="shoal" />
		<tag k="place" v="locality" />
		<tag k="ssr:stedsnr" v="412429" />
	</node>
	<node lat="63.21188055369707" lon="7.551208326080115" id="-1664">
		<tag k="name" v="Anbåskjærflua" />
		<tag k="natural" v="shoal" />
		<tag k="place" v="locality" />
		<tag k="ssr:stedsnr" v="412382" />
	</node>
	<node lat="63.20802222462836" lon="7.595055558914777" id="-1665">
		<tag k="fixme" v="consider seamark:type=rock or natural=shoal" />
		<tag k="name" v="Nordkvitna" />
		<tag k="place" v="islet" />
		<tag k="ssr:stedsnr" v="413116" />
	</node>
	<node lat="63.02900833391713" lon="7.722766674180286" id="-1666">
		<tag k="name" v="Rågrunnen" />
		<tag k="natural" v="shoal" />
		<tag k="place" v="locality" />
		<tag k="ssr:stedsnr" v="414377" />
	</node>
	<node lat="63.10443889116701" lon="7.839080545708714" id="-1667">
		<tag k="name" v="Kjerringneset" />
		<tag k="natural" v="cape" />
		<tag k="ssr:stedsnr" v="420207" />
	</node>
	<node lat="63.10656388922397" lon="7.766641666854795" id="-1670">
		<tag k="name" v="Dalvikneset" />
		<tag k="natural" v="cape" />
		<tag k="ssr:stedsnr" v="437367" />
	</node>
	<node lat="63.06855555964807" lon="7.888997215211701" id="-1671">
		<tag k="name" v="Kvalvågen" />
		<tag k="natural" v="bay" />
		<tag k="ssr:stedsnr" v="437210" />
	</node>
	<node lat="63.02149315101983" lon="7.760758872298784" id="-1672">
		<tag k="name" v="Flatsetøya" />
		<tag k="place" v="island" />
		<tag k="ssr:stedsnr" v="437239" />
	</node>
	<node lat="63.015097224469336" lon="7.7847500034887425" id="-1673">
		<tag k="name" v="Revsholmen" />
		<tag k="place" v="islet" />
		<tag k="ssr:stedsnr" v="437242" />
	</node>
	<node lat="63.28616944603529" lon="7.302686105703276" id="-1681">
		<tag k="alt_name" v="Ytre Steintaren" />
		<tag k="name" v="Steintaren" />
		<tag k="natural" v="shoal" />
		<tag k="place" v="locality" />
		<tag k="ssr:stedsnr" v="437610" />
	</node>
	<node lat="63.23009167037502" lon="7.6040916589206065" id="-1682">
		<tag k="fixme" v="consider seamark:type=rock or natural=shoal" />
		<tag k="name" v="Reitskjæret" />
		<tag k="place" v="islet" />
		<tag k="ssr:stedsnr" v="437676" />
	</node>
	<node lat="63.10446111225666" lon="7.767286117684887" id="-1684">
		<tag k="name" v="Vikaholmen" />
		<tag k="place" v="islet" />
		<tag k="ssr:stedsnr" v="497355" />
	</node>
	<node lat="63.10168055972603" lon="7.804297215819536" id="-1685">
		<tag k="name" v="Hansøya" />
		<tag k="place" v="islet" />
		<tag k="ssr:stedsnr" v="497356" />
	</node>
	<node lat="63.01554658302232" lon="7.836398540814701" id="-1688">
		<tag k="bay" v="fjord" />
		<tag k="name" v="Freifjorden" />
		<tag k="natural" v="bay" />
		<tag k="ssr:stedsnr" v="497153" />
	</node>
	<node lat="63.106508335495676" lon="7.725938891195808" id="-1691">
		<tag k="name" v="Sørsundet" />
		<tag k="natural" v="strait" />
		<tag k="ssr:stedsnr" v="497342" />
	</node>
	<node lat="63.194813887620356" lon="7.64401666006373" id="-1693">
		<tag k="fixme" v="consider seamark:type=rock or natural=shoal" />
		<tag k="name" v="Godsupa" />
		<tag k="place" v="islet" />
		<tag k="ssr:stedsnr" v="497634" />
	</node>
	<node lat="63.216238885848405" lon="7.573069439694213" id="-1694">
		<tag k="name" v="Kvitingen" />
		<tag k="place" v="islet" />
		<tag k="ssr:stedsnr" v="497641" />
	</node>
	<node lat="63.03709164521953" lon="7.698113196683479" id="-1697">
		<tag k="name" v="Sildvolneset" />
		<tag k="natural" v="cape" />
		<tag k="ssr:stedsnr" v="506472" />
	</node>
	<node lat="63.09857222497563" lon="7.732527771084582" id="-1698">
		<tag k="name" v="Linflua" />
		<tag k="place" v="locality" />
		<tag k="seamark:type" v="rock" />
		<tag k="ssr:stedsnr" v="526297" />
	</node>
	<node lat="63.115338892521386" lon="7.749580556791431" id="-1699">
		<tag k="name" v="Lille Nordsundet" />
		<tag k="natural" v="strait" />
		<tag k="ssr:stedsnr" v="526430" />
	</node>
	<node lat="63.11503610912517" lon="7.750050002658292" id="-1700">
		<tag k="name" v="Nordholmen" />
		<tag k="place" v="islet" />
		<tag k="ssr:stedsnr" v="526432" />
	</node>
	<node lat="63.0752055524829" lon="7.888399994472815" id="-1710">
		<tag k="name" v="Bogabukta" />
		<tag k="natural" v="bay" />
		<tag k="ssr:stedsnr" v="530390" />
	</node>
	<node lat="63.17542222153602" lon="7.556049994614233" id="-1711">
		<tag k="name" v="Treflestaren" />
		<tag k="natural" v="shoal" />
		<tag k="place" v="locality" />
		<tag k="ssr:stedsnr" v="534481" />
	</node>
	<node lat="63.12432264019754" lon="7.695844674653432" id="-1713">
		<tag k="name" v="Bårdokken" />
		<tag k="natural" v="bay" />
		<tag k="ssr:stedsnr" v="541923" />
	</node>
	<node lat="63.133900000086214" lon="7.793072227103804" id="-1720">
		<tag k="fixme" v="consider seamark:type=rock or natural=shoal" />
		<tag k="name" v="Håskjæran" />
		<tag k="place" v="islet" />
		<tag k="ssr:stedsnr" v="558275" />
	</node>
	<node lat="63.08598055140443" lon="7.7820888933019905" id="-1723">
		<tag k="name" v="Bolgvågen" />
		<tag k="natural" v="bay" />
		<tag k="ssr:stedsnr" v="558319" />
	</node>
	<node lat="63.09465832919454" lon="7.767444443239114" id="-1724">
		<tag k="name" v="Fugløya" />
		<tag k="place" v="islet" />
		<tag k="ssr:stedsnr" v="558368" />
	</node>
	<node lat="63.12337500350543" lon="7.870027780096745" id="-1727">
		<tag k="name" v="Sandvikneset" />
		<tag k="natural" v="cape" />
		<tag k="ssr:stedsnr" v="558480" />
	</node>
	<node lat="63.11515000237461" lon="7.687063885261586" id="-1733">
		<tag k="name" v="Klubbnestaren" />
		<tag k="place" v="locality" />
		<tag k="seamark:type" v="rock" />
		<tag k="ssr:stedsnr" v="586477" />
	</node>
	<node lat="63.13610555191329" lon="7.825705558526709" id="-1736">
		<tag k="name" v="Mjølkvikneset" />
		<tag k="natural" v="cape" />
		<tag k="ssr:stedsnr" v="589741" />
	</node>
	<node lat="63.026275002515106" lon="7.734788890196899" id="-1739">
		<tag k="name" v="Rotholmen" />
		<tag k="place" v="islet" />
		<tag k="ssr:stedsnr" v="589892" />
	</node>
	<node lat="63.10766389231694" lon="7.8487583328840556" id="-1743">
		<tag k="name" v="Leirvika" />
		<tag k="natural" v="bay" />
		<tag k="ssr:stedsnr" v="590567" />
	</node>
	<node lat="63.21010277430242" lon="7.623374994297239" id="-1745">
		<tag k="name" v="Landbakkflua" />
		<tag k="natural" v="shoal" />
		<tag k="place" v="locality" />
		<tag k="ssr:stedsnr" v="594127" />
	</node>
	<node lat="63.22982777964661" lon="7.555863897119049" id="-1746">
		<tag k="name" v="Søre Fausken" />
		<tag k="natural" v="shoal" />
		<tag k="place" v="locality" />
		<tag k="ssr:stedsnr" v="594394" />
	</node>
	<node lat="63.206341666659895" lon="7.703613892734204" id="-1747">
		<tag k="fixme" v="consider seamark:type=rock or natural=shoal" />
		<tag k="name" v="Austre Kobbskjæra" />
		<tag k="place" v="islet" />
		<tag k="ssr:stedsnr" v="594466" />
	</node>
	<node lat="63.20639722123853" lon="7.764283339999409" id="-1748">
		<tag k="name" v="Søre Godtaren" />
		<tag k="natural" v="shoal" />
		<tag k="place" v="locality" />
		<tag k="ssr:stedsnr" v="595269" />
	</node>
	<node lat="63.12943333755223" lon="7.722436114864714" id="-1749">
		<tag k="name" v="Kariholstøa" />
		<tag k="natural" v="bay" />
		<tag k="ssr:stedsnr" v="601890" />
	</node>
	<node lat="63.0917250031463" lon="7.900788893791529" id="-1756">
		<tag k="name" v="Åneset" />
		<tag k="natural" v="cape" />
		<tag k="ssr:stedsnr" v="619363" />
	</node>
	<node lat="63.08653055223354" lon="7.791530561982072" id="-1762">
		<tag k="alt_name" v="Bytskjæret" />
		<tag k="fixme" v="consider seamark:type=rock or natural=shoal" />
		<tag k="name" v="Skjeret" />
		<tag k="place" v="islet" />
		<tag k="ssr:stedsnr" v="649157" />
	</node>
	<node lat="63.071730557785365" lon="7.705061111857906" id="-1763">
		<tag k="name" v="Åraneset" />
		<tag k="natural" v="cape" />
		<tag k="ssr:stedsnr" v="649852" />
	</node>
	<node lat="63.06565555502721" lon="7.7715666664862635" id="-1766">
		<tag k="name" v="Rastholmen" />
		<tag k="place" v="islet" />
		<tag k="ssr:stedsnr" v="650017" />
	</node>
	<node lat="63.026516669951505" lon="7.766663893065925" id="-1772">
		<tag k="name" v="Porkholmen" />
		<tag k="place" v="islet" />
		<tag k="ssr:stedsnr" v="650074" />
	</node>
	<node lat="63.131004144508914" lon="7.775763441803403" id="-1776">
		<tag k="name" v="Valan" />
		<tag k="natural" v="bay" />
		<tag k="old_name" v="Valen" />
		<tag k="ssr:stedsnr" v="650747" />
	</node>
	<node lat="63.13251944078828" lon="7.778969445103977" id="-1777">
		<tag k="name" v="Heimfalla" />
		<tag k="natural" v="shoal" />
		<tag k="place" v="locality" />
		<tag k="ssr:stedsnr" v="650749" />
	</node>
	<node lat="63.125877777113374" lon="7.787836112079321" id="-1778">
		<tag k="name" v="Stongdraget" />
		<tag k="natural" v="cape" />
		<tag k="ssr:stedsnr" v="650758" />
	</node>
	<node lat="63.129816670407536" lon="7.76820278617425" id="-1779">
		<tag k="name" v="Molbogen" />
		<tag k="natural" v="bay" />
		<tag k="ssr:stedsnr" v="650766" />
	</node>
	<node lat="63.228050003621476" lon="7.63754721821195" id="-1784">
		<tag k="name" v="Ytre Langfallet" />
		<tag k="natural" v="shoal" />
		<tag k="place" v="locality" />
		<tag k="ssr:stedsnr" v="655148" />
	</node>
	<node lat="63.22946666821081" lon="7.539680554573822" id="-1785">
		<tag k="name" v="Gjevleklakken" />
		<tag k="natural" v="shoal" />
		<tag k="place" v="locality" />
		<tag k="ssr:stedsnr" v="655368" />
	</node>
	<node lat="63.10104722019725" lon="7.695566657555727" id="-1786">
		<tag k="name" v="Bremsnesflua" />
		<tag k="natural" v="shoal" />
		<tag k="place" v="locality" />
		<tag k="ssr:stedsnr" v="655719" />
	</node>
	<node lat="63.195252774307534" lon="7.492938897474792" id="-1787">
		<tag k="name" v="Sigrunnen" />
		<tag k="natural" v="shoal" />
		<tag k="place" v="locality" />
		<tag k="ssr:stedsnr" v="655660" />
	</node>
	<node lat="63.165405551252036" lon="7.777088887660867" id="-1790">
		<tag k="name" v="Fausken" />
		<tag k="place" v="locality" />
		<tag k="seamark:type" v="rock" />
		<tag k="ssr:stedsnr" v="662662" />
	</node>
	<node lat="63.13192222445725" lon="7.7726666752317985" id="-1791">
		<tag k="name" v="Lurflua" />
		<tag k="natural" v="shoal" />
		<tag k="place" v="locality" />
		<tag k="ssr:stedsnr" v="662856" />
	</node>
	<node lat="63.105902777501576" lon="7.800977785700206" id="-1793">
		<tag k="name" v="Orvikan" />
		<tag k="natural" v="bay" />
		<tag k="ssr:stedsnr" v="711550" />
	</node>
	<node lat="63.13384444180512" lon="7.819088896762514" id="-1795">
		<tag k="name" v="Korten" />
		<tag k="place" v="islet" />
		<tag k="ssr:stedsnr" v="711748" />
	</node>
	<node lat="63.22173610717887" lon="7.53877778165062" id="-1797">
		<tag k="name" v="Nordre Flesa" />
		<tag k="place" v="islet" />
		<tag k="ssr:stedsnr" v="716399" />
	</node>
	<node lat="63.0559972208641" lon="7.723991658960776" id="-1798">
		<tag k="name" v="Ytterviktaren" />
		<tag k="natural" v="shoal" />
		<tag k="place" v="locality" />
		<tag k="ssr:stedsnr" v="716411" />
	</node>
	<node lat="63.106061109053094" lon="7.849797223107106" id="-1800">
		<tag k="name" v="Jåklubben" />
		<tag k="place" v="islet" />
		<tag k="ssr:stedsnr" v="723203" />
	</node>
	<node lat="63.20473888965816" lon="7.5918111102119274" id="-1802">
		<tag k="alt_name" v="Sørkvitna" />
		<tag k="fixme" v="consider seamark:type=rock or natural=shoal" />
		<tag k="name" v="Kvitna" />
		<tag k="place" v="islet" />
		<tag k="ssr:stedsnr" v="740658" />
	</node>
	<node lat="63.23384722600201" lon="7.609963883752571" id="-1803">
		<tag k="fixme" v="consider seamark:type=rock or natural=shoal" />
		<tag k="name" v="Bratthårskollen" />
		<tag k="place" v="islet" />
		<tag k="ssr:stedsnr" v="740669" />
	</node>
	<node lat="63.09389166446183" lon="7.702324990223985" id="-1804">
		<tag k="bay" v="fjord" />
		<tag k="name" v="Bremsnesfjorden" />
		<tag k="natural" v="bay" />
		<tag k="ssr:stedsnr" v="740745" />
	</node>
	<node lat="63.06754166456183" lon="7.896930551494554" id="-1806">
		<tag k="fixme" v="consider seamark:type=rock or natural=shoal" />
		<tag k="name" v="Kvalvågholmen" />
		<tag k="place" v="islet" />
		<tag k="ssr:stedsnr" v="740169" />
	</node>
	<node lat="63.018916669738026" lon="7.789372213496199" id="-1810">
		<tag k="name" v="Lågholmen" />
		<tag k="place" v="islet" />
		<tag k="ssr:stedsnr" v="740218" />
	</node>
	<node lat="63.273577773559744" lon="7.299019443056859" id="-1811">
		<tag k="name" v="Steinen" />
		<tag k="natural" v="shoal" />
		<tag k="place" v="locality" />
		<tag k="ssr:stedsnr" v="740560" />
	</node>
	<node lat="63.048544442981424" lon="7.695680563384778" id="-1812">
		<tag k="name" v="Litlkattholmen" />
		<tag k="place" v="islet" />
		<tag k="ssr:stedsnr" v="740562" />
	</node>
	<node lat="63.133105559198626" lon="7.8106222136196575" id="-1813">
		<tag k="name" v="Kvitneset" />
		<tag k="natural" v="cape" />
		<tag k="ssr:stedsnr" v="740428" />
	</node>
	<node lat="63.16193055443709" lon="7.56104444659371" id="-1814">
		<tag k="fixme" v="consider seamark:type=rock or natural=shoal" />
		<tag k="name" v="Sørskjelingen" />
		<tag k="place" v="islet" />
		<tag k="ssr:stedsnr" v="740714" />
	</node>
	<node lat="63.13863333077625" lon="7.841900000145821" id="-1815">
		<tag k="fixme" v="consider seamark:type=rock or natural=shoal" />
		<tag k="name" v="Stavbrekkskjæret" />
		<tag k="place" v="islet" />
		<tag k="ssr:stedsnr" v="741315" />
	</node>
	<node lat="63.118197219017254" lon="7.873519452193062" id="-1816">
		<tag k="name" v="Stabbursneset" />
		<tag k="natural" v="cape" />
		<tag k="ssr:stedsnr" v="741335" />
	</node>
	<node lat="63.10617221792701" lon="7.801261101908412" id="-1820">
		<tag k="name" v="Øygardsfjæra" />
		<tag k="natural" v="beach" />
		<tag k="ssr:stedsnr" v="760021" />
	</node>
	<node lat="63.117947221039024" lon="7.688624997503763" id="-1822">
		<tag k="name" v="Brunsvikbåen" />
		<tag k="place" v="locality" />
		<tag k="seamark:type" v="rock" />
		<tag k="ssr:stedsnr" v="769493" />
	</node>
	<node lat="63.09670555278229" lon="7.777580547284133" id="-1823">
		<tag k="alt_name" v="Skarvskjeret" />
		<tag k="fixme" v="consider seamark:type=rock or natural=shoal" />
		<tag k="name" v="Skarveskjæret" />
		<tag k="place" v="islet" />
		<tag k="ssr:stedsnr" v="771353" />
	</node>
	<node lat="63.093474996948785" lon="7.733180558737185" id="-1824">
		<tag k="fixme" v="consider seamark:type=rock or natural=shoal" />
		<tag k="name" v="Bolgfallet" />
		<tag k="place" v="islet" />
		<tag k="ssr:stedsnr" v="771843" />
	</node>
	<node lat="63.12187777851725" lon="7.870811110006609" id="-1829">
		<tag k="fixme" v="consider seamark:type=rock or natural=shoal" />
		<tag k="name" v="Haltvikskjæret" />
		<tag k="place" v="islet" />
		<tag k="ssr:stedsnr" v="772541" />
	</node>
	<node lat="63.11546666458407" lon="7.761172226438831" id="-1830">
		<tag k="alt_name" v="Melkvika" />
		<tag k="name" v="Mjølkvika" />
		<tag k="natural" v="bay" />
		<tag k="ssr:stedsnr" v="772542" />
	</node>
	<node lat="63.25393333014932" lon="7.542847214470442" id="-1832">
		<tag k="name" v="Hauskallen" />
		<tag k="natural" v="shoal" />
		<tag k="place" v="locality" />
		<tag k="ssr:stedsnr" v="777399" />
	</node>
	<node lat="63.29462777577204" lon="7.346000004556155" id="-1833">
		<tag k="name" v="Vestretaren" />
		<tag k="natural" v="shoal" />
		<tag k="place" v="locality" />
		<tag k="ssr:stedsnr" v="777675" />
	</node>
	<node lat="63.31068055379058" lon="7.329091662072795" id="-1834">
		<tag k="name" v="Nygrunna" />
		<tag k="natural" v="shoal" />
		<tag k="place" v="locality" />
		<tag k="ssr:stedsnr" v="777685" />
	</node>
	<node lat="63.08420277440851" lon="7.7167777686100845" id="-1836">
		<tag k="name" v="Valneset" />
		<tag k="natural" v="cape" />
		<tag k="ssr:stedsnr" v="778974" />
	</node>
	<node lat="63.05611666809686" lon="7.7209611031128285" id="-1838">
		<tag k="alt_name" v="Møstvågen" />
		<tag k="name" v="Møstavågen" />
		<tag k="natural" v="bay" />
		<tag k="ssr:stedsnr" v="801160" />
	</node>
	<node lat="63.10069444396721" lon="7.897716671443835" id="-1841">
		<tag k="name" v="Gyltneset" />
		<tag k="natural" v="cape" />
		<tag k="ssr:stedsnr" v="801357" />
	</node>
	<node lat="63.114875002561114" lon="7.7409777812510745" id="-1845">
		<tag k="name" v="Israelsneset" />
		<tag k="natural" v="cape" />
		<tag k="ssr:stedsnr" v="830491" />
	</node>
	<node lat="63.10176321226608" lon="7.745683860864574" id="-1847">
		<tag k="name" v="Sjursvikgrunnen" />
		<tag k="natural" v="shoal" />
		<tag k="place" v="locality" />
		<tag k="ssr:stedsnr" v="830458" />
	</node>
	<node lat="63.10239999938439" lon="7.715213892651375" id="-1848">
		<tag k="fixme" v="consider seamark:type=rock or natural=shoal" />
		<tag k="name" v="Potettjuven" />
		<tag k="place" v="islet" />
		<tag k="ssr:stedsnr" v="832828" />
	</node>
	<node lat="63.07580277498085" lon="7.710991673985079" id="-1853">
		<tag k="name" v="Vikaneset" />
		<tag k="natural" v="cape" />
		<tag k="ssr:stedsnr" v="832845" />
	</node>
	<node lat="63.05683333548949" lon="7.704738884085719" id="-1855">
		<tag k="name" v="Straumsundet" />
		<tag k="natural" v="strait" />
		<tag k="ssr:stedsnr" v="832862" />
	</node>
	<node lat="63.02589444276212" lon="7.745680553389145" id="-1856">
		<tag k="name" v="Lunvik" />
		<tag k="natural" v="bay" />
		<tag k="ssr:stedsnr" v="832871" />
	</node>
	<node lat="63.11986666490354" lon="7.870508329430713" id="-1859">
		<tag k="name" v="Haltvika" />
		<tag k="natural" v="bay" />
		<tag k="ssr:stedsnr" v="833546" />
	</node>
	<node lat="63.10716666694872" lon="7.769161105784637" id="-1860">
		<tag k="name" v="Åsgårdsvika" />
		<tag k="natural" v="bay" />
		<tag k="ssr:stedsnr" v="833552" />
	</node>
	<node lat="63.13484444215702" lon="7.826641656895915" id="-1863">
		<tag k="name" v="Mjølkvika" />
		<tag k="natural" v="bay" />
		<tag k="ssr:stedsnr" v="833749" />
	</node>
	<node lat="63.10317499820062" lon="7.834969443849682" id="-1868">
		<tag k="name" v="Bukkeneset" />
		<tag k="natural" v="cape" />
		<tag k="ssr:stedsnr" v="845222" />
	</node>
	<node lat="63.09225278137437" lon="7.781769445929149" id="-1871">
		<tag k="name" v="Smalsundet" />
		<tag k="natural" v="strait" />
		<tag k="ssr:stedsnr" v="845347" />
	</node>
	<node lat="63.28873888823858" lon="7.277286107254855" id="-1878">
		<tag k="name" v="Nordklakken" />
		<tag k="natural" v="shoal" />
		<tag k="place" v="locality" />
		<tag k="ssr:stedsnr" v="862593" />
	</node>
	<node lat="63.16566111135266" lon="7.570991669665993" id="-1879">
		<tag k="fixme" v="consider seamark:type=rock or natural=shoal" />
		<tag k="name" v="Rundskjelingen" />
		<tag k="place" v="islet" />
		<tag k="ssr:stedsnr" v="862644" />
	</node>
	<node lat="63.25487221852837" lon="7.640625008231498" id="-1880">
		<tag k="name" v="Jørngrunna" />
		<tag k="natural" v="shoal" />
		<tag k="place" v="locality" />
		<tag k="ssr:stedsnr" v="946254" />
	</node>
	<node lat="63.105886112361894" lon="7.754544448626091" id="-1881">
		<tag k="name" v="Remningneset" />
		<tag k="natural" v="cape" />
		<tag k="ssr:stedsnr" v="951474" />
	</node>
	<node lat="63.08614166342675" lon="7.772041668448577" id="-1882">
		<tag k="alt_name" v="Søre Bolgvågen" />
		<tag k="name" v="Sør Bolgvågen" />
		<tag k="natural" v="bay" />
		<tag k="ssr:stedsnr" v="953171" />
	</node>
	<node lat="63.09123333440018" lon="7.779536120873321" id="-1883">
		<tag k="name" v="Middelneset" />
		<tag k="natural" v="cape" />
		<tag k="ssr:stedsnr" v="953176" />
	</node>
	<node lat="63.064741665130114" lon="7.690805552804946" id="-1886">
		<tag k="fixme" v="consider seamark:type=rock or natural=shoal" />
		<tag k="name" v="Potettjuven" />
		<tag k="place" v="islet" />
		<tag k="ssr:stedsnr" v="953847" />
	</node>
	<node lat="63.03447778143566" lon="7.7049666717886005" id="-1888">
		<tag k="name" v="Keipen" />
		<tag k="place" v="islet" />
		<tag k="ssr:stedsnr" v="953871" />
	</node>
	<node lat="63.102038886004294" lon="7.714827780538211" id="-1890">
		<tag k="name" v="Skjertangen" />
		<tag k="natural" v="cape" />
		<tag k="ssr:stedsnr" v="953838" />
	</node>
	<node lat="63.02356666589522" lon="7.813736113913192" id="-1893">
		<tag k="name" v="Freineset" />
		<tag k="natural" v="cape" />
		<tag k="ssr:stedsnr" v="954133" />
	</node>
	<node lat="63.12623888945767" lon="7.758169440054004" id="-1899">
		<tag k="name" v="Krabbholmen" />
		<tag k="place" v="islet" />
		<tag k="ssr:stedsnr" v="954766" />
	</node>
	<node lat="63.21161389295788" lon="7.545155547388071" id="-1900">
		<tag k="name" v="Manndraperen" />
		<tag k="natural" v="shoal" />
		<tag k="place" v="locality" />
		<tag k="ssr:stedsnr" v="959337" />
	</node>
	<node lat="63.23679166891502" lon="7.594236107021052" id="-1902">
		<tag k="name" v="Hårskollklakken" />
		<tag k="natural" v="shoal" />
		<tag k="place" v="locality" />
		<tag k="ssr:stedsnr" v="959365" />
	</node>
	<node lat="63.19098055707151" lon="7.6174861203246" id="-1903">
		<tag k="name" v="Brørne" />
		<tag k="natural" v="shoal" />
		<tag k="place" v="locality" />
		<tag k="ssr:stedsnr" v="959441" />
	</node>
	<node lat="63.08558611289976" lon="7.777850006277801" id="-1904">
		<tag k="name" v="Lyngstadneset" />
		<tag k="natural" v="cape" />
		<tag k="ssr:stedsnr" v="966365" />
	</node>
	<node lat="63.13051944851453" lon="7.720563897770666" id="-1905">
		<tag k="fixme" v="consider seamark:type=rock or natural=shoal" />
		<tag k="name" v="Storsteinan" />
		<tag k="place" v="islet" />
		<tag k="ssr:stedsnr" v="966850" />
	</node>
	<node lat="63.21976204313982" lon="7.591098912472604" id="-1928">
		<tag k="name" v="Yttervågen" />
		<tag k="natural" v="bay" />
		<tag k="ssr:stedsnr" v="1078023" />
	</node>
	<node lat="63.21812568480718" lon="7.59397303612596" id="-1929">
		<tag k="name" v="Innervågen" />
		<tag k="natural" v="bay" />
		<tag k="ssr:stedsnr" v="1078024" />
	</node>
	<node lat="63.051022960586" lon="7.722851751065992" id="-1930">
		<tag k="name" v="Kleivmyrbukta" />
		<tag k="natural" v="bay" />
		<tag k="ssr:stedsnr" v="1078532" />
	</node>
	<node lat="63.02534464933442" lon="7.75141880151024" id="-1931">
		<tag k="name" v="Flatsetvågen" />
		<tag k="natural" v="bay" />
		<tag k="ssr:stedsnr" v="1078539" />
=======
	<node id="-45424" lat="63.3125138893" lon="7.39479721272">
		<tag k="name" v="Nørknollan" />
		<tag k="natural" v="shoal" />
		<tag k="place" v="locality" />
		<tag k="ssr:stedsnr" v="170697" />
	</node>
	<node id="-45423" lat="63.1876138854" lon="7.50913611929">
		<tag k="name" v="Lønntaran" />
		<tag k="natural" v="shoal" />
		<tag k="place" v="locality" />
		<tag k="ssr:stedsnr" v="170676" />
	</node>
	<node id="-45422" lat="63.1577138918" lon="7.59671667482">
		<tag k="name" v="Skjelingsleia" />
		<tag k="place" v="locality" />
		<tag k="ssr:stedsnr" v="169818" />
	</node>
	<node id="-45421" lat="63.2169388879" lon="7.62563610357">
		<tag k="name" v="Langflua" />
		<tag k="natural" v="shoal" />
		<tag k="place" v="locality" />
		<tag k="ssr:stedsnr" v="169106" />
	</node>
	<node id="-45413" lat="63.0954333348" lon="7.77346944005">
		<tag k="alt_name" v="Fugløyskjeret" />
		<tag k="fixme" v="consider seamark:type=rock or natural=shoal" />
		<tag k="name" v="Fugløyskjæret" />
		<tag k="place" v="islet" />
		<tag k="ssr:stedsnr" v="164385" />
	</node>
	<node id="-45411" lat="63.0870305556" lon="7.76426388513">
		<tag k="name" v="Leira" />
		<tag k="natural" v="shoal" />
		<tag k="place" v="locality" />
		<tag k="ssr:stedsnr" v="164200" />
	</node>
	<node id="-45408" lat="63.0876666682" lon="7.77432499517">
		<tag k="alt_name" v="Jørilneset" />
		<tag k="name" v="Jørildneset" />
		<tag k="natural" v="cape" />
		<tag k="ssr:stedsnr" v="164194" />
	</node>
	<node id="-45407" lat="63.0884611144" lon="7.77523888492">
		<tag k="name" v="Grønbukta" />
		<tag k="natural" v="bay" />
		<tag k="ssr:stedsnr" v="164192" />
	</node>
	<node id="-45404" lat="63.0925472259" lon="7.78383332864">
		<tag k="name" v="Vorpholmen" />
		<tag k="place" v="islet" />
		<tag k="ssr:stedsnr" v="134360" />
	</node>
	<node id="-45403" lat="63.0889138895" lon="7.76857778354">
		<tag k="name" v="Husøya" />
		<tag k="place" v="island" />
		<tag k="ssr:stedsnr" v="134359" />
	</node>
	<node id="-45396" lat="63.0717999998" lon="7.70637778685">
		<tag k="name" v="Araneset" />
		<tag k="natural" v="cape" />
		<tag k="ssr:stedsnr" v="133473" />
	</node>
	<node id="-45393" lat="63.1298916703" lon="7.72683889812">
		<tag k="name" v="Dalabukta" />
		<tag k="natural" v="bay" />
		<tag k="ssr:stedsnr" v="133241" />
	</node>
	<node id="-45390" lat="63.0457250004" lon="7.86135000351">
		<tag k="name" v="Vorpvikneset" />
		<tag k="natural" v="cape" />
		<tag k="ssr:stedsnr" v="133137" />
	</node>
	<node id="-45389" lat="63.1278249984" lon="7.75068888663">
		<tag k="name" v="Indre Garnneset" />
		<tag k="natural" v="cape" />
		<tag k="ssr:stedsnr" v="116901" />
	</node>
	<node id="-45388" lat="63.1277361119" lon="7.83307222505">
		<tag k="name" v="Gløsvågleira" />
		<tag k="natural" v="shoal" />
		<tag k="place" v="locality" />
		<tag k="ssr:stedsnr" v="116147" />
	</node>
	<node id="-45387" lat="63.2932083348" lon="7.37304999774">
		<tag k="name" v="Bryggetaren" />
		<tag k="natural" v="shoal" />
		<tag k="place" v="locality" />
		<tag k="ssr:stedsnr" v="110698" />
	</node>
	<node id="-45386" lat="63.0615972184" lon="7.71600555412">
		<tag k="fixme" v="consider seamark:type=rock or natural=shoal" />
		<tag k="name" v="Sandvikskjæret" />
		<tag k="place" v="islet" />
		<tag k="ssr:stedsnr" v="110396" />
	</node>
	<node id="-45383" lat="63.1061138872" lon="7.84724443531">
		<tag k="name" v="Vorpneset" />
		<tag k="natural" v="cape" />
		<tag k="ssr:stedsnr" v="105399" />
	</node>
	<node id="-45371" lat="63.1191305526" lon="7.73214723158">
		<tag k="name" v="Vågen" />
		<tag k="natural" v="bay" />
		<tag k="ssr:stedsnr" v="104314" />
	</node>
	<node id="-45360" lat="63.1122666699" lon="7.73938610674">
		<tag k="name" v="Hamna" />
		<tag k="natural" v="bay" />
		<tag k="ssr:stedsnr" v="101432" />
	</node>
	<node id="-45358" lat="63.1002944428" lon="7.72653055787">
		<tag k="fixme" v="consider seamark:type=rock or natural=shoal" />
		<tag k="name" v="Tante Lise" />
		<tag k="place" v="islet" />
		<tag k="ssr:stedsnr" v="101263" />
	</node>
	<node id="-45357" lat="63.104469444" lon="7.82744723071">
		<tag k="name" v="Rensvikholmflua" />
		<tag k="natural" v="shoal" />
		<tag k="place" v="locality" />
		<tag k="ssr:stedsnr" v="101214" />
	</node>
	<node id="-45356" lat="63.2294555522" lon="7.61232221722">
		<tag k="fixme" v="consider seamark:type=rock or natural=shoal" />
		<tag k="name" v="Hårskollen" />
		<tag k="place" v="islet" />
		<tag k="ssr:stedsnr" v="73679" />
	</node>
	<node id="-45355" lat="63.1044833327" lon="7.82280832353">
		<tag k="name" v="Rensvikholmen" />
		<tag k="place" v="islet" />
		<tag k="ssr:stedsnr" v="73369" />
	</node>
	<node id="-45346" lat="63.0968500017" lon="7.77993056125">
		<tag k="name" v="Austre Fugløygrunnen" />
		<tag k="natural" v="shoal" />
		<tag k="place" v="locality" />
		<tag k="ssr:stedsnr" v="56329" />
	</node>
	<node id="-45345" lat="63.1047444482" lon="7.8489749994">
		<tag k="name" v="Jåvika" />
		<tag k="natural" v="bay" />
		<tag k="ssr:stedsnr" v="56195" />
	</node>
	<node id="-45343" lat="63.010277782" lon="7.77236389179">
		<tag k="name" v="Mefjordsgruna" />
		<tag k="natural" v="shoal" />
		<tag k="place" v="locality" />
		<tag k="ssr:stedsnr" v="50374" />
	</node>
	<node id="-45342" lat="63.126933329" lon="7.67516944977">
		<tag k="name" v="Tjørnviktaren" />
		<tag k="natural" v="shoal" />
		<tag k="place" v="locality" />
		<tag k="ssr:stedsnr" v="48693" />
	</node>
	<node id="-45341" lat="63.1857166682" lon="7.60710555627">
		<tag k="name" v="Tufteflua" />
		<tag k="natural" v="shoal" />
		<tag k="place" v="locality" />
		<tag k="ssr:stedsnr" v="48433" />
	</node>
	<node id="-45339" lat="63.1163583364" lon="7.76371388296">
		<tag k="name" v="Gevorbnerholmen" />
		<tag k="place" v="islet" />
		<tag k="ssr:stedsnr" v="44539" />
	</node>
	<node id="-45338" lat="63.1237416665" lon="7.8677833287">
		<tag k="name" v="Sandvika" />
		<tag k="natural" v="bay" />
		<tag k="ssr:stedsnr" v="44535" />
	</node>
	<node id="-45333" lat="63.1236055587" lon="7.69381388499">
		<tag k="name" v="Storholmen" />
		<tag k="place" v="islet" />
		<tag k="ssr:stedsnr" v="44310" />
	</node>
	<node id="-45329" lat="63.031766665" lon="7.73142499922">
		<tag k="alt_name" v="Bogen" />
		<tag k="name" v="Endresetbukta" />
		<tag k="natural" v="bay" />
		<tag k="ssr:stedsnr" v="43881" />
	</node>
	<node id="-45328" lat="63.0537805568" lon="7.72080555568">
		<tag k="name" v="Geitholmen" />
		<tag k="place" v="islet" />
		<tag k="ssr:stedsnr" v="43875" />
	</node>
	<node id="-45327" lat="63.0608444488" lon="7.71783611051">
		<tag k="name" v="Sandvikholmen" />
		<tag k="place" v="islet" />
		<tag k="ssr:stedsnr" v="43872" />
	</node>
	<node id="-45324" lat="63.0653555592" lon="7.71146110343">
		<tag k="name" v="Jensneset" />
		<tag k="natural" v="cape" />
		<tag k="ssr:stedsnr" v="43844" />
	</node>
	<node id="-45322" lat="63.1287861109" lon="7.83320277129">
		<tag k="name" v="Neset" />
		<tag k="natural" v="cape" />
		<tag k="ssr:stedsnr" v="43756" />
	</node>
	<node id="-45321" lat="63.0443611139" lon="7.856750001">
		<tag k="name" v="Lundaneset" />
		<tag k="natural" v="cape" />
		<tag k="ssr:stedsnr" v="43225" />
	</node>
	<node id="-45319" lat="63.1040500026" lon="7.85912500072">
		<tag k="name" v="Kvennaholmen" />
		<tag k="place" v="islet" />
		<tag k="ssr:stedsnr" v="43129" />
	</node>
	<node id="-45315" lat="63.1073000028" lon="7.73488333285">
		<tag k="fixme" v="consider seamark:type=rock or natural=shoal" />
		<tag k="name" v="Høneskjæret" />
		<tag k="place" v="islet" />
		<tag k="ssr:stedsnr" v="41494" />
	</node>
	<node id="-45313" lat="63.1031361127" lon="7.80871666403">
		<tag k="name" v="Kvalen" />
		<tag k="natural" v="cape" />
		<tag k="ssr:stedsnr" v="41278" />
	</node>
	<node id="-45310" lat="63.2192694429" lon="7.54870833423">
		<tag k="fixme" v="consider seamark:type=rock or natural=shoal" />
		<tag k="name" v="Humla" />
		<tag k="place" v="islet" />
		<tag k="ssr:stedsnr" v="12684" />
	</node>
	<node id="-45309" lat="63.2194952956" lon="7.59301136772">
		<tag k="name" v="Grip" />
		<tag k="place" v="island" />
		<tag k="ssr:stedsnr" v="12672" />
	</node>
	<node id="-45308" lat="63.2008527803" lon="7.58281667087">
		<tag k="fixme" v="consider seamark:type=rock or natural=shoal" />
		<tag k="name" v="Steet" />
		<tag k="place" v="islet" />
		<tag k="ssr:stedsnr" v="12657" />
	</node>
	<node id="-45307" lat="63.0435527814" lon="7.70476110534">
		<tag k="name" v="Gjengstøbukta" />
		<tag k="natural" v="bay" />
		<tag k="ssr:stedsnr" v="12586" />
	</node>
	<node id="-45306" lat="63.0552472218" lon="7.71221388225">
		<tag k="name" v="Nordneset" />
		<tag k="natural" v="cape" />
		<tag k="ssr:stedsnr" v="12530" />
	</node>
	<node id="-45298" lat="63.1126638897" lon="7.87169443756">
		<tag k="name" v="Øygardsneset" />
		<tag k="natural" v="cape" />
		<tag k="ssr:stedsnr" v="12343" />
	</node>
	<node id="-45296" lat="63.1223194468" lon="7.69645833541">
		<tag k="fixme" v="consider seamark:type=rock or natural=shoal" />
		<tag k="name" v="Kragenskjæret" />
		<tag k="place" v="islet" />
		<tag k="ssr:stedsnr" v="966912" />
	</node>
	<node id="-45295" lat="63.0855861129" lon="7.77785000628">
		<tag k="name" v="Lyngstadneset" />
		<tag k="natural" v="cape" />
		<tag k="ssr:stedsnr" v="966365" />
	</node>
	<node id="-45291" lat="63.0202083378" lon="7.74294444269">
		<tag k="name" v="Prestholmen" />
		<tag k="place" v="islet" />
		<tag k="ssr:stedsnr" v="922203" />
	</node>
	<node id="-45284" lat="63.1190250014" lon="7.73001110515">
		<tag k="name" v="Øvervågen" />
		<tag k="natural" v="bay" />
		<tag k="ssr:stedsnr" v="890443" />
	</node>
	<node id="-45283" lat="63.2548722185" lon="7.64062500823">
		<tag k="name" v="Jørngrunna" />
		<tag k="natural" v="shoal" />
		<tag k="place" v="locality" />
		<tag k="ssr:stedsnr" v="946254" />
	</node>
	<node id="-45279" lat="63.025027782" lon="7.79522777796">
		<tag k="name" v="Freistranda" />
		<tag k="natural" v="beach" />
		<tag k="place" v="locality" />
		<tag k="ssr:stedsnr" v="838410" />
	</node>
	<node id="-45273" lat="63.0266472234" lon="7.76371945369">
		<tag k="name" v="Flatsetsundet" />
		<tag k="natural" v="strait" />
		<tag k="ssr:stedsnr" v="802265" />
	</node>
	<node id="-45272" lat="63.100694444" lon="7.89771667144">
		<tag k="name" v="Gyltneset" />
		<tag k="natural" v="cape" />
		<tag k="ssr:stedsnr" v="801357" />
	</node>
	<node id="-45270" lat="63.0561166681" lon="7.72096110311">
		<tag k="alt_name" v="Møstvågen" />
		<tag k="name" v="Møstavågen" />
		<tag k="natural" v="bay" />
		<tag k="ssr:stedsnr" v="801160" />
	</node>
	<node id="-45268" lat="63.1217249996" lon="7.6915638807">
		<tag k="name" v="Eaholmen" />
		<tag k="place" v="islet" />
		<tag k="ssr:stedsnr" v="923732" />
	</node>
	<node id="-45267" lat="63.2973777746" lon="7.39449999261">
		<tag k="name" v="Langtaren" />
		<tag k="natural" v="shoal" />
		<tag k="place" v="locality" />
		<tag k="ssr:stedsnr" v="923630" />
	</node>
	<node id="-45266" lat="63.2780527751" lon="7.28667500857">
		<tag k="alt_name" v="Bjørntaren" />
		<tag k="name" v="Bjørnstaren" />
		<tag k="natural" v="shoal" />
		<tag k="place" v="locality" />
		<tag k="ssr:stedsnr" v="923609" />
	</node>
	<node id="-45265" lat="63.0647805548" lon="7.69071944447">
		<tag k="name" v="Tjuvholmen" />
		<tag k="place" v="islet" />
		<tag k="ssr:stedsnr" v="923563" />
	</node>
	<node id="-45264" lat="63.0662472232" lon="7.70007221821">
		<tag k="name" v="Årholmen" />
		<tag k="place" v="islet" />
		<tag k="ssr:stedsnr" v="923562" />
	</node>
	<node id="-45263" lat="63.1998797341" lon="7.72977376131">
		<tag k="alt_name" v="Hilbåen" />
		<tag k="name" v="Hilbåan" />
		<tag k="natural" v="shoal" />
		<tag k="old_name" v="Hilbåren" />
		<tag k="place" v="locality" />
		<tag k="ssr:stedsnr" v="923547" />
	</node>
	<node id="-45258" lat="63.202522221" lon="7.61293611707">
		<tag k="alt_name" v="Landbakkskjæra" />
		<tag k="fixme" v="consider seamark:type=rock or natural=shoal" />
		<tag k="name" v="Landbakken" />
		<tag k="place" v="islet" />
		<tag k="ssr:stedsnr" v="922652" />
	</node>
	<node id="-45257" lat="63.206538888" lon="7.56867778182">
		<tag k="fixme" v="consider seamark:type=rock or natural=shoal" />
		<tag k="name" v="Vestre Moholmskjæra" />
		<tag k="place" v="islet" />
		<tag k="ssr:stedsnr" v="922651" />
	</node>
	<node id="-45256" lat="63.2046555535" lon="7.57719999757">
		<tag k="name" v="Moholmen" />
		<tag k="place" v="islet" />
		<tag k="ssr:stedsnr" v="922648" />
	</node>
	<node id="-45255" lat="63.226750004" lon="7.61285000464">
		<tag k="fixme" v="consider seamark:type=rock or natural=shoal" />
		<tag k="name" v="Einarskjæret" />
		<tag k="place" v="islet" />
		<tag k="ssr:stedsnr" v="922645" />
	</node>
	<node id="-45254" lat="63.1848999997" lon="7.59259722911">
		<tag k="name" v="Skjærbåan" />
		<tag k="natural" v="shoal" />
		<tag k="place" v="locality" />
		<tag k="ssr:stedsnr" v="922638" />
	</node>
	<node id="-45252" lat="63.050841664" lon="7.69781112047">
		<tag k="name" v="Storkattholmen" />
		<tag k="place" v="islet" />
		<tag k="ssr:stedsnr" v="922496" />
	</node>
	<node id="-45250" lat="63.0608702453" lon="7.70650772484">
		<tag k="name" v="Amundøya" />
		<tag k="place" v="island" />
		<tag k="ssr:stedsnr" v="922462" />
	</node>
	<node id="-45249" lat="63.1038277792" lon="7.8839833406">
		<tag k="name" v="Sagneset" />
		<tag k="natural" v="cape" />
		<tag k="ssr:stedsnr" v="922336" />
	</node>
	<node id="-45248" lat="63.0710166657" lon="7.72691945231">
		<tag k="name" v="Frei" />
		<tag k="place" v="island" />
		<tag k="ssr:stedsnr" v="922313" />
	</node>
	<node id="-45247" lat="63.0831333296" lon="7.89479723084">
		<tag k="name" v="Ørnvikneset" />
		<tag k="natural" v="cape" />
		<tag k="ssr:stedsnr" v="922300" />
	</node>
	<node id="-45246" lat="63.3106805538" lon="7.32909166207">
		<tag k="name" v="Nygrunna" />
		<tag k="natural" v="shoal" />
		<tag k="place" v="locality" />
		<tag k="ssr:stedsnr" v="777685" />
	</node>
	<node id="-45245" lat="63.2946277758" lon="7.34600000456">
		<tag k="name" v="Vestretaren" />
		<tag k="natural" v="shoal" />
		<tag k="place" v="locality" />
		<tag k="ssr:stedsnr" v="777675" />
	</node>
	<node id="-45243" lat="63.0249166668" lon="7.77195278012">
		<tag k="name" v="Flatsetholmen" />
		<tag k="place" v="islet" />
		<tag k="ssr:stedsnr" v="772073" />
	</node>
	<node id="-45240" lat="63.0593472185" lon="7.69751945326">
		<tag k="name" v="Spellsundet" />
		<tag k="natural" v="strait" />
		<tag k="ssr:stedsnr" v="771861" />
	</node>
	<node id="-45235" lat="63.0967055528" lon="7.77758054728">
		<tag k="alt_name" v="Skarvskjeret" />
		<tag k="fixme" v="consider seamark:type=rock or natural=shoal" />
		<tag k="name" v="Skarveskjæret" />
		<tag k="place" v="islet" />
		<tag k="ssr:stedsnr" v="771353" />
	</node>
	<node id="-45234" lat="63.0926416632" lon="7.75723055151">
		<tag k="name" v="Bolgtaren" />
		<tag k="natural" v="shoal" />
		<tag k="place" v="locality" />
		<tag k="ssr:stedsnr" v="769311" />
	</node>
	<node id="-45229" lat="63.0851638873" lon="7.77992500792">
		<tag k="name" v="Haugabukta" />
		<tag k="natural" v="bay" />
		<tag k="ssr:stedsnr" v="906349" />
	</node>
	<node id="-45228" lat="63.2047388897" lon="7.59181111021">
		<tag k="alt_name" v="Sørkvitna" />
		<tag k="fixme" v="consider seamark:type=rock or natural=shoal" />
		<tag k="name" v="Kvitna" />
		<tag k="place" v="islet" />
		<tag k="ssr:stedsnr" v="740658" />
	</node>
	<node id="-45227" lat="63.1619305544" lon="7.56104444659">
		<tag k="fixme" v="consider seamark:type=rock or natural=shoal" />
		<tag k="name" v="Sørskjelingen" />
		<tag k="place" v="islet" />
		<tag k="ssr:stedsnr" v="740714" />
	</node>
	<node id="-45226" lat="63.048544443" lon="7.69568056338">
		<tag k="name" v="Litlkattholmen" />
		<tag k="place" v="islet" />
		<tag k="ssr:stedsnr" v="740562" />
	</node>
	<node id="-45225" lat="63.2735777736" lon="7.29901944306">
		<tag k="name" v="Steinen" />
		<tag k="natural" v="shoal" />
		<tag k="place" v="locality" />
		<tag k="ssr:stedsnr" v="740560" />
	</node>
	<node id="-45222" lat="63.0189166697" lon="7.7893722135">
		<tag k="name" v="Lågholmen" />
		<tag k="place" v="islet" />
		<tag k="ssr:stedsnr" v="740218" />
	</node>
	<node id="-45218" lat="63.229563891" lon="7.57408611226">
		<tag k="name" v="Korntaren" />
		<tag k="natural" v="shoal" />
		<tag k="place" v="locality" />
		<tag k="ssr:stedsnr" v="898394" />
	</node>
	<node id="-45216" lat="63.1060611091" lon="7.84979722311">
		<tag k="name" v="Jåklubben" />
		<tag k="place" v="islet" />
		<tag k="ssr:stedsnr" v="723203" />
	</node>
	<node id="-45215" lat="63.0559972209" lon="7.72399165896">
		<tag k="name" v="Ytterviktaren" />
		<tag k="natural" v="shoal" />
		<tag k="place" v="locality" />
		<tag k="ssr:stedsnr" v="716411" />
	</node>
	<node id="-45212" lat="63.0960222253" lon="7.89930833948">
		<tag k="name" v="Rundholmen" />
		<tag k="place" v="islet" />
		<tag k="ssr:stedsnr" v="894401" />
	</node>
	<node id="-45209" lat="63.0566499959" lon="7.71848610569">
		<tag k="name" v="Bukkholmen" />
		<tag k="place" v="islet" />
		<tag k="ssr:stedsnr" v="893873" />
	</node>
	<node id="-45208" lat="63.0627611145" lon="7.70368888858">
		<tag k="name" v="Ytter Amundøy" />
		<tag k="place" v="island" />
		<tag k="ssr:stedsnr" v="893853" />
	</node>
	<node id="-45207" lat="63.1011916709" lon="7.73348610926">
		<tag k="alt_name" v="Østre Skjerva" />
		<tag k="name" v="Skjerva" />
		<tag k="natural" v="cape" />
		<tag k="ssr:stedsnr" v="893842" />
	</node>
	<node id="-45206" lat="63.0227444486" lon="7.73974721231">
		<tag k="fixme" v="consider seamark:type=rock or natural=shoal" />
		<tag k="name" v="Småskjera" />
		<tag k="place" v="islet" />
		<tag k="ssr:stedsnr" v="893786" />
	</node>
	<node id="-45205" lat="63.1268138924" lon="7.75627499624">
		<tag k="alt_name" v="Eldholmen" />
		<tag k="name" v="Eaholmen" />
		<tag k="place" v="islet" />
		<tag k="ssr:stedsnr" v="893757" />
	</node>
	<node id="-45203" lat="63.1290499963" lon="7.80263055274">
		<tag k="name" v="Fanthola" />
		<tag k="natural" v="bay" />
		<tag k="ssr:stedsnr" v="893698" />
	</node>
	<node id="-45201" lat="63.1204777811" lon="7.75775832901">
		<tag k="name" v="Teistholmsundet" />
		<tag k="natural" v="strait" />
		<tag k="ssr:stedsnr" v="893538" />
	</node>
	<node id="-45199" lat="63.1135861089" lon="7.87066111937">
		<tag k="name" v="Åkeren" />
		<tag k="natural" v="bay" />
		<tag k="ssr:stedsnr" v="893534" />
	</node>
	<node id="-45189" lat="63.1021750042" lon="7.81968888541">
		<tag k="name" v="Rensviksundet" />
		<tag k="natural" v="strait" />
		<tag k="ssr:stedsnr" v="893147" />
	</node>
	<node id="-45185" lat="63.0198444465" lon="7.75545278665">
		<tag k="name" v="Djupvikbukta" />
		<tag k="natural" v="bay" />
		<tag k="ssr:stedsnr" v="893088" />
	</node>
	<node id="-45183" lat="63.0662888935" lon="7.77665556102">
		<tag k="name" v="Midtsanden" />
		<tag k="natural" v="beach" />
		<tag k="place" v="locality" />
		<tag k="ssr:stedsnr" v="893023" />
	</node>
	<node id="-45182" lat="63.1150194467" lon="7.73785833494">
		<tag k="name" v="Holmasundet" />
		<tag k="natural" v="strait" />
		<tag k="ssr:stedsnr" v="891524" />
	</node>
	<node id="-45181" lat="63.1054666707" lon="7.7276694423">
		<tag k="name" v="Bakarneset" />
		<tag k="natural" v="cape" />
		<tag k="ssr:stedsnr" v="891522" />
	</node>
	<node id="-45180" lat="63.0887555527" lon="7.72592499746">
		<tag k="name" v="Kopparholmflua" />
		<tag k="place" v="locality" />
		<tag k="seamark:type" v="rock" />
		<tag k="ssr:stedsnr" v="891343" />
	</node>
	<node id="-45179" lat="63.1012888931" lon="7.72232499051">
		<tag k="fixme" v="consider seamark:type=rock or natural=shoal" />
		<tag k="name" v="Vestre Skjerva" />
		<tag k="place" v="islet" />
		<tag k="ssr:stedsnr" v="891338" />
	</node>
	<node id="-45178" lat="63.1021222208" lon="7.82795833722">
		<tag k="name" v="Rensvikneset" />
		<tag k="natural" v="cape" />
		<tag k="ssr:stedsnr" v="891284" />
	</node>
	<node id="-45177" lat="63.1066416643" lon="7.74872499912">
		<tag k="name" v="Eriksenneset" />
		<tag k="natural" v="cape" />
		<tag k="ssr:stedsnr" v="890479" />
	</node>
	<node id="-45175" lat="63.1039000001" lon="7.76144443784">
		<tag k="name" v="Vikaholmflua" />
		<tag k="natural" v="shoal" />
		<tag k="place" v="locality" />
		<tag k="ssr:stedsnr" v="890269" />
	</node>
	<node id="-45167" lat="63.0810249985" lon="7.70705555804">
		<tag k="name" v="Valholmen" />
		<tag k="place" v="islet" />
		<tag k="ssr:stedsnr" v="679704" />
	</node>
	<node id="-45166" lat="63.2227777758" lon="7.55219444764">
		<tag k="fixme" v="consider seamark:type=rock or natural=shoal" />
		<tag k="name" v="Gjevla" />
		<tag k="place" v="islet" />
		<tag k="ssr:stedsnr" v="679660" />
	</node>
	<node id="-45163" lat="63.1302250026" lon="7.74404167397">
		<tag k="name" v="Lasken" />
		<tag k="natural" v="bay" />
		<tag k="ssr:stedsnr" v="662912" />
	</node>
	<node id="-45162" lat="63.1319222245" lon="7.77266667523">
		<tag k="name" v="Lurflua" />
		<tag k="natural" v="shoal" />
		<tag k="place" v="locality" />
		<tag k="ssr:stedsnr" v="662856" />
	</node>
	<node id="-45161" lat="63.1654055513" lon="7.77708888766">
		<tag k="name" v="Fausken" />
		<tag k="place" v="locality" />
		<tag k="seamark:type" v="rock" />
		<tag k="ssr:stedsnr" v="662662" />
	</node>
	<node id="-45160" lat="63.1952527743" lon="7.49293889747">
		<tag k="name" v="Sigrunnen" />
		<tag k="natural" v="shoal" />
		<tag k="place" v="locality" />
		<tag k="ssr:stedsnr" v="655660" />
	</node>
	<node id="-45159" lat="63.1010472202" lon="7.69556665756">
		<tag k="name" v="Bremsnesflua" />
		<tag k="natural" v="shoal" />
		<tag k="place" v="locality" />
		<tag k="ssr:stedsnr" v="655719" />
	</node>
	<node id="-45158" lat="63.1305305528" lon="7.71186666834">
		<tag k="name" v="Laksvågen" />
		<tag k="natural" v="bay" />
		<tag k="ssr:stedsnr" v="650722" />
	</node>
	<node id="-45154" lat="63.02651667" lon="7.76666389307">
		<tag k="name" v="Porkholmen" />
		<tag k="place" v="islet" />
		<tag k="ssr:stedsnr" v="650074" />
	</node>
	<node id="-45148" lat="63.1229611134" lon="7.77552499397">
		<tag k="name" v="Dalasundet" />
		<tag k="natural" v="strait" />
		<tag k="ssr:stedsnr" v="716528" />
	</node>
	<node id="-45147" lat="63.2217361072" lon="7.53877778165">
		<tag k="name" v="Nordre Flesa" />
		<tag k="place" v="islet" />
		<tag k="ssr:stedsnr" v="716399" />
	</node>
	<node id="-45146" lat="63.1338444418" lon="7.81908889676">
		<tag k="name" v="Korten" />
		<tag k="place" v="islet" />
		<tag k="ssr:stedsnr" v="711748" />
	</node>
	<node id="-45144" lat="63.1288138917" lon="7.69468056038">
		<tag k="name" v="Tjørnvikneset" />
		<tag k="natural" v="cape" />
		<tag k="ssr:stedsnr" v="711724" />
	</node>
	<node id="-45141" lat="63.1361055519" lon="7.82570555853">
		<tag k="name" v="Mjølkvikneset" />
		<tag k="natural" v="cape" />
		<tag k="ssr:stedsnr" v="589741" />
	</node>
	<node id="-45140" lat="63.1059027775" lon="7.8009777857">
		<tag k="name" v="Orvikan" />
		<tag k="natural" v="bay" />
		<tag k="ssr:stedsnr" v="711550" />
	</node>
	<node id="-45132" lat="63.1151500024" lon="7.68706388526">
		<tag k="name" v="Klubbnestaren" />
		<tag k="place" v="locality" />
		<tag k="seamark:type" v="rock" />
		<tag k="ssr:stedsnr" v="586477" />
	</node>
	<node id="-45124" lat="63.1047916635" lon="7.81754721809">
		<tag k="name" v="Småholman" />
		<tag k="place" v="islet" />
		<tag k="ssr:stedsnr" v="708279" />
	</node>
	<node id="-45119" lat="63.0946583292" lon="7.76744444324">
		<tag k="name" v="Fugløya" />
		<tag k="place" v="islet" />
		<tag k="ssr:stedsnr" v="558368" />
	</node>
	<node id="-45113" lat="63.1300749967" lon="7.83246389551">
		<tag k="name" v="Sildhola" />
		<tag k="place" v="locality" />
		<tag k="ssr:stedsnr" v="529755" />
	</node>
	<node id="-45110" lat="63.0899083304" lon="7.76158889524">
		<tag k="name" v="Kruttholmen" />
		<tag k="place" v="islet" />
		<tag k="ssr:stedsnr" v="528374" />
	</node>
	<node id="-45109" lat="63.1150361091" lon="7.75005000266">
		<tag k="name" v="Nordholmen" />
		<tag k="place" v="islet" />
		<tag k="ssr:stedsnr" v="526432" />
	</node>
	<node id="-45108" lat="63.1153388925" lon="7.74958055679">
		<tag k="name" v="Lille Nordsundet" />
		<tag k="natural" v="strait" />
		<tag k="ssr:stedsnr" v="526430" />
	</node>
	<node id="-45105" lat="63.0370916452" lon="7.69811319668">
		<tag k="name" v="Sildvolneset" />
		<tag k="natural" v="cape" />
		<tag k="ssr:stedsnr" v="506472" />
	</node>
	<node id="-45102" lat="63.0743416679" lon="7.89667500241">
		<tag k="name" v="Klubbneset" />
		<tag k="natural" v="cape" />
		<tag k="ssr:stedsnr" v="680500" />
	</node>
	<node id="-45100" lat="63.0661944436" lon="7.89243054608">
		<tag k="name" v="Geilneset" />
		<tag k="natural" v="cape" />
		<tag k="ssr:stedsnr" v="680186" />
	</node>
	<node id="-45097" lat="63.0573499987" lon="7.88166943807">
		<tag k="name" v="Øygardskjæret" />
		<tag k="natural" v="cape" />
		<tag k="ssr:stedsnr" v="680175" />
	</node>
	<node id="-45096" lat="63.1834694481" lon="7.65835833397">
		<tag k="fixme" v="consider seamark:type=rock or natural=shoal" />
		<tag k="name" v="Klovningen" />
		<tag k="place" v="islet" />
		<tag k="ssr:stedsnr" v="679632" />
	</node>
	<node id="-45095" lat="63.1071194424" lon="7.74507500287">
		<tag k="name" v="Markussundet" />
		<tag k="natural" v="strait" />
		<tag k="ssr:stedsnr" v="679301" />
	</node>
	<node id="-45093" lat="63.0776666638" lon="7.88912499632">
		<tag k="name" v="Bogaklubben" />
		<tag k="natural" v="cape" />
		<tag k="ssr:stedsnr" v="679296" />
	</node>
	<node id="-45087" lat="63.1280944432" lon="7.69979166447">
		<tag k="fixme" v="multiple name tags, choose one and add the other to alt_name" />
		<tag k="name" v="Krabbholet;Sandholet" />
		<tag k="natural" v="bay" />
		<tag k="ssr:stedsnr" v="468725" />
	</node>
	<node id="-45085" lat="63.1031944416" lon="7.7456444406">
		<tag k="name" v="Sjursvika" />
		<tag k="natural" v="bay" />
		<tag k="ssr:stedsnr" v="465456" />
	</node>
	<node id="-45084" lat="63.1006083338" lon="7.72633889786">
		<tag k="fixme" v="consider seamark:type=rock or natural=shoal" />
		<tag k="name" v="Trendeskjær" />
		<tag k="place" v="islet" />
		<tag k="ssr:stedsnr" v="465271" />
	</node>
	<node id="-45076" lat="63.2083499956" lon="7.48370554673">
		<tag k="name" v="Litletaren" />
		<tag k="natural" v="shoal" />
		<tag k="place" v="locality" />
		<tag k="ssr:stedsnr" v="655700" />
	</node>
	<node id="-45074" lat="63.1208972193" lon="7.75929166358">
		<tag k="name" v="Teistholmen" />
		<tag k="place" v="islet" />
		<tag k="ssr:stedsnr" v="437303" />
	</node>
	<node id="-45073" lat="63.1405527803" lon="7.76168888914">
		<tag k="name" v="Henotaren" />
		<tag k="natural" v="shoal" />
		<tag k="place" v="locality" />
		<tag k="ssr:stedsnr" v="420937" />
	</node>
	<node id="-45071" lat="63.1044388912" lon="7.83908054571">
		<tag k="name" v="Kjerringneset" />
		<tag k="natural" v="cape" />
		<tag k="ssr:stedsnr" v="420207" />
	</node>
	<node id="-45067" lat="63.1031055578" lon="7.80194167208">
		<tag k="fixme" v="consider seamark:type=rock or natural=shoal" />
		<tag k="name" v="Hansøyskjæra" />
		<tag k="place" v="islet" />
		<tag k="ssr:stedsnr" v="405272" />
	</node>
	<node id="-45066" lat="63.106833333" lon="7.76439165968">
		<tag k="name" v="Dalsvika" />
		<tag k="natural" v="bay" />
		<tag k="ssr:stedsnr" v="405270" />
	</node>
	<node id="-45065" lat="63.1054583334" lon="7.7787777856">
		<tag k="name" v="Breivika" />
		<tag k="natural" v="bay" />
		<tag k="ssr:stedsnr" v="405268" />
	</node>
	<node id="-45064" lat="63.0928666626" lon="7.72683611439">
		<tag k="name" v="Vestre Bolgfallet" />
		<tag k="place" v="locality" />
		<tag k="seamark:type" v="rock" />
		<tag k="ssr:stedsnr" v="405303" />
	</node>
	<node id="-45061" lat="63.2162388858" lon="7.57306943969">
		<tag k="name" v="Kvitingen" />
		<tag k="place" v="islet" />
		<tag k="ssr:stedsnr" v="497641" />
	</node>
	<node id="-45060" lat="63.1948138876" lon="7.64401666006">
		<tag k="fixme" v="consider seamark:type=rock or natural=shoal" />
		<tag k="name" v="Godsupa" />
		<tag k="place" v="islet" />
		<tag k="ssr:stedsnr" v="497634" />
>>>>>>> e1d4bc35ff8a6074a6f2e91616a996b547c36f15
	</node>
</osm>
