<?xml version="1.0" encoding="UTF-8"?>
<<<<<<< HEAD
<osm version="0.6" generator="osmapis">
	<node lat="63.045838887894156" lon="7.71886667369254" id="-971">
		<tag k="name" v="Litlevik" />
		<tag k="place" v="farm" />
		<tag k="ssr:stedsnr" v="231424" />
	</node>
	<node lat="63.06040609438212" lon="7.721029818816872" id="-972">
		<tag k="fixme" v="consider place=hamlet" />
		<tag k="name" v="Oldenborg" />
		<tag k="place" v="farm" />
		<tag k="ssr:stedsnr" v="231426" />
	</node>
	<node lat="63.076095429617226" lon="7.713859658939606" id="-977">
		<tag k="name" v="Vadsteinsvika" />
		<tag k="place" v="hamlet" />
		<tag k="ssr:stedsnr" v="12515" />
	</node>
	<node lat="63.114291667090924" lon="7.765558327009067" id="-980">
		<tag k="alt_name" v="Røsseren" />
		<tag k="fixme" v="consider place=suburb, village or hamlet" />
		<tag k="name" v="Røssern" />
		<tag k="place" v="quarter" />
		<tag k="ssr:stedsnr" v="20248" />
	</node>
	<node lat="63.07771111534938" lon="7.782791657862916" id="-995">
		<tag k="name" v="Sødalen" />
		<tag k="place" v="quarter" />
		<tag k="ssr:stedsnr" v="241614" />
	</node>
	<node lat="63.08955555882042" lon="7.803488887302456" id="-996">
		<tag k="name" v="Skjærahøgda" />
		<tag k="place" v="quarter" />
		<tag k="ssr:stedsnr" v="241615" />
	</node>
	<node lat="63.03603889204753" lon="7.830050001610672" id="-1010">
		<tag k="name" v="Solhaug" />
		<tag k="place" v="farm" />
		<tag k="ssr:stedsnr" v="104103" />
	</node>
	<node lat="63.02778066487933" lon="7.818344620660098" id="-1011">
		<tag k="name" v="Solvik" />
		<tag k="place" v="farm" />
		<tag k="ssr:stedsnr" v="104111" />
	</node>
	<node lat="63.07345277810429" lon="7.794747219312874" id="-1016">
		<tag k="name" v="Sødalen beitefelt" />
		<tag k="place" v="locality" />
		<tag k="ssr:stedsnr" v="105017" />
	</node>
	<node lat="63.02842142826283" lon="7.765884896364165" id="-1027">
		<tag k="fixme" v="multiple name tags, choose one and add the other to alt_name" />
		<tag k="name" v="Flatset;Ytre Flatset" />
		<tag k="place" v="farm" />
		<tag k="ssr:stedsnr" v="255245" />
	</node>
	<node lat="63.07987777782033" lon="7.884625000932733" id="-1028">
		<tag k="name" v="Kleiva" />
		<tag k="place" v="farm" />
		<tag k="ssr:stedsnr" v="255328" />
	</node>
	<node lat="63.10706666959656" lon="7.794780562718372" id="-1029">
		<tag k="name" v="Orvikan" />
		<tag k="place" v="farm" />
		<tag k="ssr:stedsnr" v="255345" />
	</node>
	<node lat="63.03386666810904" lon="7.815983324776458" id="-1034">
		<tag k="name" v="Slettvoll" />
		<tag k="place" v="farm" />
		<tag k="ssr:stedsnr" v="164105" />
	</node>
	<node lat="63.08719999857198" lon="7.769980564309255" id="-1035">
		<tag k="name" v="Hagen" />
		<tag k="place" v="farm" />
		<tag k="ssr:stedsnr" v="164377" />
	</node>
	<node lat="63.08704444598591" lon="7.759058335489121" id="-1036">
		<tag k="name" v="Ner Bolga" />
		<tag k="place" v="farm" />
		<tag k="ssr:stedsnr" v="164381" />
	</node>
	<node lat="63.101236107579915" lon="7.8186611194954825" id="-1052">
		<tag k="name" v="Reina" />
		<tag k="place" v="isolated_dwelling" />
		<tag k="ssr:stedsnr" v="223278" />
	</node>
	<node lat="63.1249027777013" lon="7.790552785153732" id="-1068">
		<tag k="name" v="Draga" />
		<tag k="place" v="farm" />
		<tag k="ssr:stedsnr" v="255283" />
	</node>
	<node lat="63.0420361135202" lon="7.717483340625697" id="-1069">
		<tag k="name" v="Løken" />
		<tag k="place" v="farm" />
		<tag k="ssr:stedsnr" v="255583" />
	</node>
	<node lat="63.02989993338815" lon="7.815537626415985" id="-1074">
		<tag k="name" v="Veltan" />
		<tag k="place" v="farm" />
		<tag k="ssr:stedsnr" v="286112" />
	</node>
	<node lat="63.095680555562524" lon="7.802611102672666" id="-1075">
		<tag k="name" v="Nygard" />
		<tag k="place" v="farm" />
		<tag k="ssr:stedsnr" v="286189" />
	</node>
	<node lat="63.0704944477635" lon="7.87203889741118" id="-1090">
		<tag k="name" v="Sørbø" />
		<tag k="place" v="farm" />
		<tag k="ssr:stedsnr" v="315308" />
	</node>
	<node lat="63.089197218664964" lon="7.770922217368497" id="-1094">
		<tag k="name" v="Rognvika" />
		<tag k="place" v="farm" />
		<tag k="ssr:stedsnr" v="316361" />
	</node>
	<node lat="63.12693889294857" lon="7.7328222265318685" id="-1101">
		<tag k="name" v="Dalabugen" />
		<tag k="place" v="farm" />
		<tag k="ssr:stedsnr" v="468691" />
	</node>
	<node lat="63.12882777738963" lon="7.827788886213276" id="-1103">
		<tag k="name" v="Myran" />
		<tag k="place" v="farm" />
		<tag k="ssr:stedsnr" v="468726" />
	</node>
	<node lat="63.10831389162679" lon="7.7276861124587635" id="-1113">
		<tag k="building" v="civic" />
		<tag k="name" v="Kristiansund politistasjon" />
		<tag k="ssr:stedsnr" v="344503" />
	</node>
	<node lat="63.05286944026409" lon="7.727824992049166" id="-1116">
		<tag k="name" v="Saltkjelvik" />
		<tag k="place" v="farm" />
		<tag k="ssr:stedsnr" v="346857" />
	</node>
	<node lat="63.070430555010155" lon="7.8855916716435255" id="-1128">
		<tag k="name" v="Hamna" />
=======
<osm generator="osmapis" version="0.6">
	<node id="-45397" lat="63.036107162" lon="7.69981144837">
		<tag k="fixme" v="consider place=hamlet" />
		<tag k="name" v="Sildvolnes" />
		<tag k="place" v="farm" />
		<tag k="ssr:stedsnr" v="133527" />
	</node>
	<node id="-45051" lat="63.095977774" lon="7.80718610632">
		<tag k="name" v="Nygårdsmyra" />
		<tag k="place" v="quarter" />
		<tag k="ssr:stedsnr" v="362625" />
	</node>
	<node id="-45050" lat="63.1015083302" lon="7.8374527876">
		<tag k="name" v="Bytsteinsura" />
		<tag k="place" v="quarter" />
		<tag k="ssr:stedsnr" v="362609" />
	</node>
	<node id="-45557" lat="63.0869166671" lon="7.75878056412">
		<tag k="name" v="Nerbolga" />
		<tag k="place" v="farm" />
		<tag k="ssr:stedsnr" v="558389" />
	</node>
	<node id="-45555" lat="63.1267049507" lon="7.82960454377">
		<tag k="fixme" v="consider place=hamlet" />
		<tag k="name" v="Gløsvåg" />
		<tag k="place" v="farm" />
		<tag k="ssr:stedsnr" v="558278" />
	</node>
	<node id="-45553" lat="63.0332722178" lon="7.77818055597">
		<tag k="name" v="Kveldsro" />
		<tag k="place" v="farm" />
		<tag k="ssr:stedsnr" v="558151" />
	</node>
	<node id="-45551" lat="63.0293833367" lon="7.74197500254">
		<tag k="name" v="Storhaugen" />
		<tag k="place" v="farm" />
		<tag k="ssr:stedsnr" v="558242" />
	</node>
	<node id="-45548" lat="63.1247361083" lon="7.73134999751">
		<tag k="name" v="Dalen" />
		<tag k="place" v="farm" />
		<tag k="ssr:stedsnr" v="541926" />
	</node>
	<node id="-45035" lat="63.0528694403" lon="7.72782499205">
		<tag k="name" v="Saltkjelvik" />
		<tag k="place" v="farm" />
		<tag k="ssr:stedsnr" v="346857" />
	</node>
	<node id="-45033" lat="63.1083138916" lon="7.72768611246">
		<tag k="building" v="civic" />
		<tag k="name" v="Kristiansund politistasjon" />
		<tag k="ssr:stedsnr" v="344503" />
	</node>
	<node id="-45032" lat="63.1132194458" lon="7.73016667635">
		<tag k="building" v="civic" />
		<tag k="name" v="Kristiansund brannstasjon" />
		<tag k="ssr:stedsnr" v="344476" />
	</node>
	<node id="-45026" lat="63.0880638879" lon="7.75310833542">
		<tag k="name" v="Naustmyra" />
		<tag k="place" v="farm" />
		<tag k="ssr:stedsnr" v="480290" />
	</node>
	<node id="-45077" lat="63.080543851" lon="7.77203050492">
		<tag k="fixme" v="consider place=hamlet" />
		<tag k="name" v="Bolga" />
		<tag k="place" v="farm" />
		<tag k="ssr:stedsnr" v="657799" />
	</node>
	<node id="-45021" lat="63.0891972187" lon="7.77092221737">
		<tag k="name" v="Rognvika" />
		<tag k="place" v="farm" />
		<tag k="ssr:stedsnr" v="316361" />
	</node>
	<node id="-45017" lat="63.045869449" lon="7.8492611183">
		<tag k="name" v="Ora" />
		<tag k="place" v="farm" />
		<tag k="ssr:stedsnr" v="316160" />
	</node>
	<node id="-45014" lat="63.0704944478" lon="7.87203889741">
		<tag k="name" v="Sørbø" />
		<tag k="place" v="farm" />
		<tag k="ssr:stedsnr" v="315308" />
	</node>
	<node id="-45525" lat="63.1193722225" lon="7.7150666619">
		<tag k="name" v="Myra" />
		<tag k="place" v="farm" />
		<tag k="ssr:stedsnr" v="437698" />
	</node>
	<node id="-45006" lat="63.0978916711" lon="7.85190278255">
		<tag k="name" v="Omsundet" />
		<tag k="place" v="quarter" />
		<tag k="ssr:stedsnr" v="302620" />
	</node>
	<node id="-45514" lat="63.0636277795" lon="7.88431666507">
		<tag k="name" v="Vikageilen" />
		<tag k="place" v="farm" />
		<tag k="ssr:stedsnr" v="437197" />
	</node>
	<node id="-45001" lat="63.0848500015" lon="7.78950278495">
		<tag k="name" v="Nergård" />
		<tag k="place" v="farm" />
		<tag k="ssr:stedsnr" v="299371" />
	</node>
	<node id="-45511" lat="63.0932027762" lon="7.88549999288">
		<tag k="name" v="Øverenga" />
		<tag k="place" v="farm" />
		<tag k="ssr:stedsnr" v="437342" />
	</node>
	<node id="-45508" lat="63.1254111095" lon="7.80827777973">
		<tag k="name" v="Sommarro" />
		<tag k="place" v="farm" />
		<tag k="ssr:stedsnr" v="437289" />
	</node>
	<node id="-45436" lat="63.1164222261" lon="7.70657222968">
		<tag k="name" v="Kirklandet" />
		<tag k="place" v="suburb" />
		<tag k="ssr:stedsnr" v="194668" />
	</node>
	<node id="-45503" lat="63.1025888889" lon="7.843197217">
		<tag k="name" v="Omsund" />
		<tag k="place" v="farm" />
		<tag k="ssr:stedsnr" v="412501" />
	</node>
	<node id="-44990" lat="63.1288277774" lon="7.82778888621">
		<tag k="name" v="Myran" />
		<tag k="place" v="farm" />
		<tag k="ssr:stedsnr" v="468726" />
	</node>
	<node id="-44989" lat="63.1269388929" lon="7.73282222653">
		<tag k="name" v="Dalabugen" />
		<tag k="place" v="farm" />
		<tag k="ssr:stedsnr" v="468691" />
	</node>
	<node id="-44985" lat="63.0997317176" lon="7.80941149692">
		<tag k="alt_name" v="Nord-Valen" />
		<tag k="fixme" v="consider place=hamlet" />
		<tag k="name" v="Nordvalen" />
		<tag k="place" v="farm" />
		<tag k="ssr:stedsnr" v="468174" />
	</node>
	<node id="-44984" lat="63.0960472199" lon="7.8132750035">
		<tag k="amenity" v="school" />
		<tag k="name" v="Rensvik" />
		<tag k="ssr:stedsnr" v="468173" />
	</node>
	<node id="-45492" lat="63.1027482719" lon="7.84676448441">
		<tag k="fixme" v="consider place=hamlet" />
		<tag k="name" v="Sæter" />
		<tag k="place" v="farm" />
		<tag k="ssr:stedsnr" v="408155" />
	</node>
	<node id="-45490" lat="63.0230416692" lon="7.76407222239">
		<tag k="name" v="Ødegård" />
		<tag k="place" v="farm" />
		<tag k="ssr:stedsnr" v="408097" />
	</node>
	<node id="-45487" lat="63.1239305531" lon="7.73572500985">
		<tag k="leisure" v="pitch" />
		<tag k="name" v="Atlanten Stadion" />
		<tag k="ssr:stedsnr" v="407339" />
	</node>
	<node id="-44973" lat="63.0185638856" lon="7.76084167397">
		<tag k="name" v="Kvitneset" />
		<tag k="place" v="farm" />
		<tag k="ssr:stedsnr" v="292367" />
	</node>
	<node id="-44967" lat="63.0828055562" lon="7.78729166606">
		<tag k="name" v="Fjordgløtt" />
		<tag k="place" v="farm" />
		<tag k="ssr:stedsnr" v="287023" />
	</node>
	<node id="-45476" lat="63.1061999962" lon="7.78484999515">
		<tag k="name" v="Breivika" />
		<tag k="place" v="farm" />
		<tag k="ssr:stedsnr" v="376354" />
	</node>
	<node id="-45382" lat="63.0775467547" lon="7.87862462305">
		<tag k="name" v="Bjerkelund" />
		<tag k="place" v="farm" />
		<tag k="ssr:stedsnr" v="105398" />
	</node>
	<node id="-44961" lat="63.1123388871" lon="7.74647777322">
		<tag k="name" v="Nordlandet" />
		<tag k="place" v="suburb" />
		<tag k="ssr:stedsnr" v="286304" />
	</node>
	<node id="-45472" lat="63.0494602111" lon="7.86215478655">
		<tag k="fixme" v="consider place=hamlet" />
		<tag k="name" v="Bjerkestrand" />
		<tag k="place" v="farm" />
		<tag k="ssr:stedsnr" v="376136" />
	</node>
	<node id="-44959" lat="63.0914527764" lon="7.78859721854">
		<tag k="name" v="Bolgvåg" />
		<tag k="place" v="farm" />
		<tag k="ssr:stedsnr" v="286173" />
	</node>
	<node id="-45125" lat="63.0291527799" lon="7.81749721613">
		<tag k="name" v="Myra" />
>>>>>>> e1d4bc35ff8a6074a6f2e91616a996b547c36f15
		<tag k="place" v="farm" />
		<tag k="ssr:stedsnr" v="347366" />
	</node>
<<<<<<< HEAD
	<node lat="63.08806388786242" lon="7.753108335423622" id="-1143">
		<tag k="name" v="Naustmyra" />
		<tag k="place" v="farm" />
		<tag k="ssr:stedsnr" v="480290" />
	</node>
	<node lat="63.1027482718832" lon="7.846764484412546" id="-1149">
		<tag k="fixme" v="consider place=hamlet" />
		<tag k="name" v="Sæter" />
		<tag k="place" v="farm" />
		<tag k="ssr:stedsnr" v="408155" />
	</node>
	<node lat="63.03168889301392" lon="7.773463890586434" id="-1155">
		<tag k="name" v="Øyan" />
		<tag k="place" v="farm" />
		<tag k="ssr:stedsnr" v="437254" />
	</node>
	<node lat="63.11937222248396" lon="7.715066661896648" id="-1159">
		<tag k="name" v="Myra" />
		<tag k="place" v="farm" />
		<tag k="ssr:stedsnr" v="437698" />
	</node>
	<node lat="63.10839722400601" lon="7.819361107637281" id="-1160">
		<tag k="name" v="Byskogen" />
		<tag k="place" v="village" />
		<tag k="ssr:stedsnr" v="445605" />
	</node>
	<node lat="63.09604721991411" lon="7.813275003500485" id="-1172">
		<tag k="amenity" v="school" />
		<tag k="name" v="Rensvik" />
		<tag k="ssr:stedsnr" v="468173" />
	</node>
	<node lat="63.09973171756321" lon="7.809411496916871" id="-1173">
		<tag k="alt_name" v="Nord-Valen" />
		<tag k="fixme" v="consider place=hamlet" />
		<tag k="name" v="Nordvalen" />
		<tag k="place" v="farm" />
		<tag k="ssr:stedsnr" v="468174" />
	</node>
	<node lat="63.03899444143069" lon="7.7836555585826535" id="-1182">
		<tag k="name" v="Storbakken" />
		<tag k="old_name" v="Storbakken byggefelt" />
		<tag k="place" v="quarter" />
		<tag k="ssr:stedsnr" v="484602" />
	</node>
	<node lat="63.07718888863761" lon="7.723038881082059" id="-1185">
		<tag k="name" v="Øvre Vadsteinsvika" />
		<tag k="place" v="farm" />
		<tag k="ssr:stedsnr" v="679284" />
	</node>
	<node lat="63.039597223566744" lon="7.837152772870006" id="-1192">
		<tag k="alt_name" v="Or, nordre;Or" />
		<tag k="name" v="Nordre Or" />
		<tag k="place" v="farm" />
		<tag k="ssr:stedsnr" v="680148" />
	</node>
	<node lat="63.029916670445004" lon="7.757508326524707" id="-1196">
		<tag k="name" v="Vestre Flatset" />
		<tag k="place" v="farm" />
		<tag k="ssr:stedsnr" v="680257" />
	</node>
	<node lat="63.08644722351955" lon="7.795891662615246" id="-1197">
		<tag k="name" v="Skjæret" />
		<tag k="place" v="farm" />
		<tag k="ssr:stedsnr" v="680359" />
	</node>
	<node lat="63.03371944506906" lon="7.814711102395365" id="-1199">
		<tag k="name" v="Slettvoll" />
		<tag k="place" v="farm" />
		<tag k="ssr:stedsnr" v="498152" />
	</node>
	<node lat="63.03875679390908" lon="7.834190291328897" id="-1212">
		<tag k="fixme" v="consider place=hamlet" />
		<tag k="name" v="Or" />
		<tag k="place" v="farm" />
		<tag k="ssr:stedsnr" v="537204" />
	</node>
	<node lat="63.08859742403545" lon="7.894479573891399" id="-1214">
		<tag k="fixme" v="consider place=hamlet" />
		<tag k="name" v="Ånes" />
		<tag k="place" v="farm" />
		<tag k="ssr:stedsnr" v="688489" />
	</node>
	<node lat="63.08534166718818" lon="7.8841194408673685" id="-1215">
		<tag k="name" v="Solsletta" />
		<tag k="place" v="isolated_dwelling" />
		<tag k="ssr:stedsnr" v="688590" />
	</node>
	<node lat="63.06776110891695" lon="7.882597213914501" id="-1221">
=======
	<node id="-45467" lat="63.0239444434" lon="7.75523610464">
		<tag k="name" v="Eia" />
		<tag k="place" v="farm" />
		<tag k="ssr:stedsnr" v="352377" />
	</node>
	<node id="-45057" lat="63.1012027796" lon="7.85620833744">
		<tag k="name" v="Elverand" />
		<tag k="place" v="farm" />
		<tag k="ssr:stedsnr" v="497360" />
	</node>
	<node id="-45401" lat="63.1207188114" lon="7.78431052374">
		<tag k="name" v="Dale" />
		<tag k="place" v="locality" />
		<tag k="ssr:stedsnr" v="134331" />
	</node>
	<node id="-45461" lat="63.0677472192" lon="7.87990278384">
		<tag k="name" v="Gjeilen" />
		<tag k="place" v="farm" />
		<tag k="ssr:stedsnr" v="347371" />
	</node>
	<node id="-44948" lat="63.0777111153" lon="7.78279165786">
		<tag k="name" v="Sødalen" />
		<tag k="place" v="quarter" />
		<tag k="ssr:stedsnr" v="241614" />
	</node>
	<node id="-44946" lat="63.0458388879" lon="7.71886667369">
		<tag k="name" v="Litlevik" />
		<tag k="place" v="farm" />
		<tag k="ssr:stedsnr" v="231424" />
	</node>
	<node id="-44937" lat="63.0970278691" lon="7.88642398928">
		<tag k="fixme" v="consider place=hamlet" />
		<tag k="name" v="Kvalvik" />
		<tag k="place" v="farm" />
		<tag k="ssr:stedsnr" v="194329" />
	</node>
	<node id="-44935" lat="63.0808333326" lon="7.7716888919">
		<tag k="name" v="Øverbolga" />
		<tag k="place" v="farm" />
		<tag k="ssr:stedsnr" v="194302" />
	</node>
	<node id="-45444" lat="63.1008583334" lon="7.87276667463">
		<tag k="name" v="Nerdalen" />
		<tag k="place" v="farm" />
		<tag k="ssr:stedsnr" v="315332" />
	</node>
	<node id="-45443" lat="63.0606305515" lon="7.88001943499">
		<tag k="name" v="Vika" />
		<tag k="place" v="farm" />
		<tag k="ssr:stedsnr" v="315151" />
	</node>
	<node id="-45442" lat="63.0958611076" lon="7.82096111127">
		<tag k="name" v="Rensvik" />
		<tag k="place" v="quarter" />
		<tag k="ssr:stedsnr" v="302630" />
	</node>
	<node id="-44929" lat="63.0350749976" lon="7.71913887968">
		<tag k="alt_name" v="Rå" />
		<tag k="name" v="Ner Rå" />
		<tag k="place" v="farm" />
		<tag k="ssr:stedsnr" v="286895" />
	</node>
	<node id="-45440" lat="63.0831944448" lon="7.88529166935">
>>>>>>> e1d4bc35ff8a6074a6f2e91616a996b547c36f15
		<tag k="fixme" v="consider place=hamlet" />
		<tag k="name" v="Ørnvik" />
		<tag k="place" v="village" />
		<tag k="ssr:stedsnr" v="207873" />
	</node>
<<<<<<< HEAD
	<node lat="63.02077222543674" lon="7.780797226420146" id="-1239">
		<tag k="name" v="Tangen" />
		<tag k="place" v="farm" />
		<tag k="ssr:stedsnr" v="618186" />
	</node>
	<node lat="63.02704721976886" lon="7.7879083237654285" id="-1242">
		<tag k="name" v="Stranda" />
		<tag k="place" v="farm" />
		<tag k="ssr:stedsnr" v="619270" />
	</node>
	<node lat="63.12486389337304" lon="7.801838887325772" id="-1247">
		<tag k="name" v="Dale" />
		<tag k="place" v="village" />
		<tag k="ssr:stedsnr" v="627596" />
	</node>
	<node lat="63.02915277991962" lon="7.817497216127427" id="-1259">
		<tag k="name" v="Myra" />
		<tag k="place" v="farm" />
		<tag k="ssr:stedsnr" v="710097" />
	</node>
	<node lat="63.04663889290766" lon="7.860958340370759" id="-1260">
		<tag k="alt_name" v="Vorsvik" />
		<tag k="name" v="Vorpvik" />
		<tag k="place" v="farm" />
		<tag k="ssr:stedsnr" v="710259" />
	</node>
	<node lat="63.10309167050188" lon="7.847830553678835" id="-1271">
		<tag k="name" v="Jåvika" />
		<tag k="place" v="farm" />
		<tag k="ssr:stedsnr" v="679324" />
	</node>
	<node lat="63.02747778063046" lon="7.815461107391245" id="-1274">
		<tag k="name" v="Sjøvang" />
		<tag k="place" v="farm" />
		<tag k="ssr:stedsnr" v="680262" />
	</node>
	<node lat="63.087769446737454" lon="7.768922219579686" id="-1275">
		<tag k="name" v="Huse" />
		<tag k="place" v="farm" />
		<tag k="ssr:stedsnr" v="680360" />
	</node>
	<node lat="63.02726111066807" lon="7.795747215206378" id="-1276">
		<tag k="name" v="Ekservollen" />
		<tag k="place" v="farm" />
		<tag k="ssr:stedsnr" v="893078" />
	</node>
	<node lat="63.03084721968145" lon="7.764063893352546" id="-1278">
		<tag k="name" v="Myra" />
		<tag k="place" v="farm" />
		<tag k="ssr:stedsnr" v="893090" />
	</node>
	<node lat="63.10536666249898" lon="7.787897228974958" id="-1292">
		<tag k="name" v="Breivikfjøra" />
		<tag k="place" v="farm" />
		<tag k="ssr:stedsnr" v="708269" />
	</node>
	<node lat="63.02430555617163" lon="7.806500007534889" id="-1297">
		<tag k="fixme" v="consider place=hamlet" />
		<tag k="name" v="Nedre Frei" />
		<tag k="place" v="village" />
		<tag k="ssr:stedsnr" v="711083" />
	</node>
	<node lat="63.12231388532845" lon="7.758897227219723" id="-1303">
		<tag k="name" v="Bentneset" />
		<tag k="place" v="quarter" />
		<tag k="ssr:stedsnr" v="723843" />
	</node>
	<node lat="63.12473333156624" lon="7.718102782170529" id="-1304">
		<tag k="leisure" v="pitch" />
		<tag k="name" v="KFK-banen" />
		<tag k="ssr:stedsnr" v="723889" />
	</node>
	<node lat="63.05039166284443" lon="7.853297224226334" id="-1305">
		<tag k="name" v="Trøa" />
=======
	<node id="-45376" lat="63.0693833364" lon="7.77473054914">
		<tag k="historic" v="shieling" />
		<tag k="name" v="Stølen" />
		<tag k="place" v="locality" />
		<tag k="ssr:stedsnr" v="105019" />
	</node>
	<node id="-44949" lat="63.0895555588" lon="7.8034888873">
		<tag k="name" v="Skjærahøgda" />
		<tag k="place" v="quarter" />
		<tag k="ssr:stedsnr" v="241615" />
	</node>
	<node id="-44924" lat="63.0298999334" lon="7.81553762642">
		<tag k="name" v="Veltan" />
		<tag k="place" v="farm" />
		<tag k="ssr:stedsnr" v="286112" />
	</node>
	<node id="-44923" lat="63.0956805556" lon="7.80261110267">
		<tag k="name" v="Nygard" />
		<tag k="place" v="farm" />
		<tag k="ssr:stedsnr" v="286189" />
	</node>
	<node id="-44920" lat="63.1252472247" lon="7.73939723161">
		<tag k="name" v="Atlanten Motell og Camping" />
		<tag k="ssr:stedsnr" v="177919" />
		<tag k="tourism" v="camp_site" />
	</node>
	<node id="-45430" lat="63.0506333362" lon="7.72624443947">
		<tag k="name" v="Kleivmyra" />
		<tag k="place" v="farm" />
		<tag k="ssr:stedsnr" v="194165" />
	</node>
	<node id="-44916" lat="63.1023472201" lon="7.8150305508">
		<tag k="amenity" v="nursing_home" />
		<tag k="name" v="Rena Bruk" />
		<tag k="ssr:stedsnr" v="284289" />
	</node>
	<node id="-45427" lat="63.0837138913" lon="7.78778888497">
		<tag k="name" v="Tømmerberg" />
		<tag k="place" v="isolated_dwelling" />
		<tag k="ssr:stedsnr" v="177344" />
	</node>
	<node id="-45458" lat="63.070430555" lon="7.88559167164">
		<tag k="name" v="Hamna" />
		<tag k="place" v="farm" />
		<tag k="ssr:stedsnr" v="347366" />
	</node>
	<node id="-45416" lat="63.0464777772" lon="7.71739444093">
		<tag k="amenity" v="school" />
		<tag k="name" v="Møst skule" />
		<tag k="ssr:stedsnr" v="164846" />
	</node>
	<node id="-44901" lat="63.0871999986" lon="7.76998056431">
		<tag k="name" v="Hagen" />
		<tag k="place" v="farm" />
		<tag k="ssr:stedsnr" v="164377" />
	</node>
	<node id="-45412" lat="63.087044446" lon="7.75905833549">
		<tag k="name" v="Ner Bolga" />
		<tag k="place" v="farm" />
		<tag k="ssr:stedsnr" v="164381" />
	</node>
	<node id="-44899" lat="63.0338666681" lon="7.81598332478">
		<tag k="name" v="Slettvoll" />
		<tag k="place" v="farm" />
		<tag k="ssr:stedsnr" v="164105" />
	</node>
	<node id="-45406" lat="63.1186222241" lon="7.75744723038">
		<tag k="building" v="commercial" />
		<tag k="name" v="Strand" />
		<tag k="ssr:stedsnr" v="162429" />
	</node>
	<node id="-44889" lat="63.0277806649" lon="7.81834462066">
		<tag k="name" v="Solvik" />
		<tag k="place" v="farm" />
		<tag k="ssr:stedsnr" v="104111" />
	</node>
	<node id="-44888" lat="63.036038892" lon="7.83005000161">
		<tag k="name" v="Solhaug" />
>>>>>>> e1d4bc35ff8a6074a6f2e91616a996b547c36f15
		<tag k="place" v="farm" />
		<tag k="ssr:stedsnr" v="104103" />
	</node>
<<<<<<< HEAD
	<node lat="63.0570472240032" lon="7.871866668996163" id="-1306">
		<tag k="name" v="Lia" />
		<tag k="place" v="farm" />
		<tag k="ssr:stedsnr" v="740155" />
	</node>
	<node lat="63.13039444447704" lon="7.848358338973473" id="-1314">
		<tag k="name" v="Nordre Kolvika" />
		<tag k="place" v="isolated_dwelling" />
		<tag k="ssr:stedsnr" v="905162" />
	</node>
	<node lat="63.108472223064354" lon="7.724347212363857" id="-1317">
		<tag k="amenity" v="hospital" />
		<tag k="name" v="Kristiansund sykehus" />
		<tag k="ssr:stedsnr" v="769505" />
	</node>
	<node lat="63.078677775730284" lon="7.717383335084621" id="-1323">
		<tag k="name" v="Lundeval" />
		<tag k="place" v="farm" />
		<tag k="ssr:stedsnr" v="771856" />
	</node>
	<node lat="63.05331793511486" lon="7.701596477991659" id="-1326">
		<tag k="name" v="Blomneset" />
		<tag k="place" v="farm" />
		<tag k="ssr:stedsnr" v="771863" />
	</node>
	<node lat="63.096691670872794" lon="7.886080546617503" id="-1333">
		<tag k="landuse" v="military" />
		<tag k="name" v="Kvalvik fort" />
		<tag k="ssr:stedsnr" v="777212" />
	</node>
	<node lat="63.069117803832214" lon="7.88071692915841" id="-1338">
		<tag k="fixme" v="consider place=hamlet" />
		<tag k="name" v="Kvalvåg" />
		<tag k="place" v="farm" />
		<tag k="ssr:stedsnr" v="922168" />
	</node>
	<node lat="63.067702754604476" lon="7.716864087879692" id="-1345">
		<tag k="fixme" v="consider place=hamlet" />
		<tag k="name" v="Bjørnvika" />
		<tag k="place" v="farm" />
		<tag k="ssr:stedsnr" v="922464" />
	</node>
	<node lat="63.050202780291286" lon="7.711350006164297" id="-1346">
		<tag k="name" v="Kystvågen" />
		<tag k="place" v="farm" />
		<tag k="ssr:stedsnr" v="922550" />
	</node>
	<node lat="63.03857777490107" lon="7.733386116269539" id="-1359">
		<tag k="alt_name" v="Enga" />
		<tag k="name" v="Engen" />
		<tag k="place" v="farm" />
		<tag k="ssr:stedsnr" v="832882" />
	</node>
	<node lat="63.0345138850481" lon="7.824011106352515" id="-1364">
		<tag k="name" v="Orstranda" />
		<tag k="place" v="farm" />
		<tag k="ssr:stedsnr" v="923156" />
	</node>
	<node lat="63.11045278218749" lon="7.727947225698928" id="-1368">
		<tag k="name" v="Kristiansund" />
		<tag k="place" v="town" />
		<tag k="ssr:stedsnr" v="923708" />
	</node>
	<node lat="63.0503361092196" lon="7.7067055592222715" id="-1372">
		<tag k="name" v="Nyland" />
		<tag k="place" v="farm" />
		<tag k="ssr:stedsnr" v="838414" />
	</node>
	<node lat="63.085719442844365" lon="7.874183339451328" id="-1375">
		<tag k="loc_name" v="Solsletta" />
		<tag k="name" v="Ånesmyra" />
		<tag k="place" v="quarter" />
		<tag k="ssr:stedsnr" v="848616" />
	</node>
	<node lat="63.03500833280266" lon="7.781530561334282" id="-1376">
		<tag k="name" v="Halslihaugen" />
		<tag k="place" v="quarter" />
		<tag k="ssr:stedsnr" v="848626" />
	</node>
	<node lat="63.123894444018546" lon="7.708877771266587" id="-1381">
		<tag k="name" v="Brunsvika" />
		<tag k="place" v="farm" />
		<tag k="ssr:stedsnr" v="862703" />
	</node>
	<node lat="63.03339166825002" lon="7.820813897941233" id="-1383">
		<tag k="name" v="Elvakleiva" />
=======
	<node id="-45399" lat="63.0317888934" lon="7.82024723111">
		<tag k="name" v="Elva" />
		<tag k="place" v="farm" />
		<tag k="ssr:stedsnr" v="134286" />
	</node>
	<node id="-45398" lat="63.0311833327" lon="7.76917499724">
		<tag k="name" v="Vollen" />
		<tag k="place" v="farm" />
		<tag k="ssr:stedsnr" v="134282" />
	</node>
	<node id="-44885" lat="63.0420361135" lon="7.71748334063">
		<tag k="name" v="Løken" />
		<tag k="place" v="farm" />
		<tag k="ssr:stedsnr" v="255583" />
	</node>
	<node id="-44884" lat="63.1070666696" lon="7.79478056272">
		<tag k="name" v="Orvikan" />
		<tag k="place" v="farm" />
		<tag k="ssr:stedsnr" v="255345" />
	</node>
	<node id="-44883" lat="63.0798777778" lon="7.88462500093">
		<tag k="name" v="Kleiva" />
		<tag k="place" v="farm" />
		<tag k="ssr:stedsnr" v="255328" />
	</node>
	<node id="-44882" lat="63.1249027777" lon="7.79055278515">
		<tag k="name" v="Draga" />
		<tag k="place" v="farm" />
		<tag k="ssr:stedsnr" v="255283" />
	</node>
	<node id="-44881" lat="63.0284214283" lon="7.76588489636">
		<tag k="fixme" v="multiple name tags, choose one and add the other to alt_name" />
		<tag k="name" v="Flatset;Ytre Flatset" />
		<tag k="place" v="farm" />
		<tag k="ssr:stedsnr" v="255245" />
	</node>
	<node id="-45391" lat="63.0474833308" lon="7.85131388793">
		<tag k="fixme" v="multiple name tags, choose one and add the other to alt_name" />
		<tag k="name" v="Myra;Myran" />
		<tag k="place" v="farm" />
		<tag k="ssr:stedsnr" v="133142" />
	</node>
	<node id="-44873" lat="63.0281027804" lon="7.76991943711">
		<tag k="name" v="Indre Flatset" />
		<tag k="place" v="farm" />
		<tag k="ssr:stedsnr" v="73239" />
	</node>
	<node id="-44870" lat="63.0368916637" lon="7.82270832886">
		<tag k="name" v="Hjellen" />
		<tag k="place" v="farm" />
		<tag k="ssr:stedsnr" v="73133" />
	</node>
	<node id="-45379" lat="63.0923055513" lon="7.89372778186">
		<tag k="name" v="Gjengstø" />
		<tag k="place" v="farm" />
		<tag k="ssr:stedsnr" v="105382" />
	</node>
	<node id="-44864" lat="63.0823055577" lon="7.77932777892">
		<tag k="name" v="Bolghaugen" />
		<tag k="place" v="farm" />
		<tag k="ssr:stedsnr" v="44023" />
	</node>
	<node id="-45375" lat="63.0734527781" lon="7.79474721931">
		<tag k="name" v="Sødalen beitefelt" />
		<tag k="place" v="locality" />
		<tag k="ssr:stedsnr" v="105017" />
	</node>
	<node id="-44856" lat="63.0604060944" lon="7.72102981882">
		<tag k="fixme" v="consider place=hamlet" />
		<tag k="name" v="Oldenborg" />
		<tag k="place" v="farm" />
		<tag k="ssr:stedsnr" v="231426" />
	</node>
	<node id="-45366" lat="63.0865555551" lon="7.87614999444">
		<tag k="name" v="Solsletta Byggefelt" />
		<tag k="place" v="quarter" />
		<tag k="ssr:stedsnr" v="104163" />
	</node>
	<node id="-45365" lat="63.1023171828" lon="7.85741939994">
		<tag k="fixme" v="consider place=hamlet" />
		<tag k="name" v="Ulrikskvenna" />
		<tag k="place" v="farm" />
		<tag k="ssr:stedsnr" v="104143" />
	</node>
	<node id="-44845" lat="63.1036055567" lon="7.84338889388">
		<tag k="name" v="Vorpnesbukt" />
>>>>>>> e1d4bc35ff8a6074a6f2e91616a996b547c36f15
		<tag k="place" v="farm" />
		<tag k="ssr:stedsnr" v="893106" />
	</node>
<<<<<<< HEAD
	<node lat="63.06670833202731" lon="7.882658334689921" id="-1396">
		<tag k="name" v="Kvalvåg" />
		<tag k="place" v="quarter" />
		<tag k="ssr:stedsnr" v="904259" />
	</node>
	<node lat="63.09646944270726" lon="7.847897216123126" id="-1398">
		<tag k="name" v="Frei Sentrum" />
		<tag k="place" v="quarter" />
		<tag k="ssr:stedsnr" v="909604" />
	</node>
	<node lat="63.05309722521995" lon="7.788794446455619" id="-1410">
		<tag k="name" v="Myrstad" />
		<tag k="place" v="farm" />
		<tag k="ssr:stedsnr" v="953257" />
	</node>
	<node lat="63.03720277981847" lon="7.824552769694007" id="-1413">
		<tag k="name" v="Bjerkeli" />
		<tag k="place" v="farm" />
		<tag k="ssr:stedsnr" v="954096" />
	</node>
	<node lat="63.0824305568116" lon="7.886230554434344" id="-1418">
		<tag k="name" v="Ørnvika" />
		<tag k="place" v="quarter" />
		<tag k="ssr:stedsnr" v="967403" />
	</node>
	<node lat="63.12900277494019" lon="7.838613889055666" id="-1422">
		<tag k="name" v="Kolvika" />
		<tag k="place" v="farm" />
		<tag k="ssr:stedsnr" v="12265" />
	</node>
	<node lat="63.12904167070375" lon="7.827150007290104" id="-1423">
		<tag k="name" v="Gløsvågmyran" />
		<tag k="place" v="farm" />
		<tag k="ssr:stedsnr" v="12266" />
	</node>
	<node lat="63.047394447394474" lon="7.724527779300126" id="-1425">
		<tag k="name" v="Dalset" />
		<tag k="place" v="farm" />
		<tag k="ssr:stedsnr" v="12158" />
	</node>
	<node lat="63.107011113148495" lon="7.737827772949857" id="-1437">
		<tag k="name" v="Innlandet" />
		<tag k="place" v="suburb" />
		<tag k="ssr:stedsnr" v="41496" />
	</node>
	<node lat="63.082305557700366" lon="7.779327778922122" id="-1452">
		<tag k="name" v="Bolghaugen" />
		<tag k="place" v="farm" />
		<tag k="ssr:stedsnr" v="44023" />
	</node>
	<node lat="63.06314999817147" lon="7.872563886622828" id="-1463">
		<tag k="name" v="Harpskaret" />
		<tag k="place" v="quarter" />
		<tag k="ssr:stedsnr" v="58447" />
	</node>
	<node lat="63.1006305556804" lon="7.854191663188888" id="-1464">
		<tag k="name" v="Sæterenga" />
		<tag k="place" v="quarter" />
		<tag k="ssr:stedsnr" v="59600" />
	</node>
	<node lat="63.03689166373177" lon="7.822708328861249" id="-1465">
		<tag k="name" v="Hjellen" />
		<tag k="place" v="farm" />
		<tag k="ssr:stedsnr" v="73133" />
	</node>
	<node lat="63.055172223224055" lon="7.861988882403292" id="-1466">
		<tag k="name" v="Rambjøra" />
		<tag k="place" v="farm" />
		<tag k="ssr:stedsnr" v="73164" />
	</node>
	<node lat="63.028102780391215" lon="7.769919437110267" id="-1467">
		<tag k="name" v="Indre Flatset" />
		<tag k="place" v="farm" />
		<tag k="ssr:stedsnr" v="73239" />
	</node>
	<node lat="63.12394444653053" lon="7.733247229736628" id="-1468">
		<tag k="name" v="Gomalandet" />
		<tag k="place" v="suburb" />
		<tag k="ssr:stedsnr" v="73278" />
	</node>
	<node lat="63.07570833645919" lon="7.881813882032763" id="-1469">
		<tag k="name" v="Bogamyra" />
		<tag k="place" v="farm" />
		<tag k="ssr:stedsnr" v="73340" />
	</node>
	<node lat="63.06967777770818" lon="7.857386109668507" id="-1470">
		<tag k="name" v="Skogvoll" />
		<tag k="place" v="farm" />
		<tag k="ssr:stedsnr" v="73342" />
	</node>
	<node lat="63.10771194502984" lon="7.803419114544755" id="-1471">
		<tag k="fixme" v="consider place=hamlet" />
		<tag k="name" v="Øygarden" />
		<tag k="place" v="farm" />
		<tag k="ssr:stedsnr" v="73348" />
	</node>
	<node lat="63.10970599889711" lon="7.85780611432325" id="-1472">
		<tag k="fixme" v="consider place=hamlet" />
		<tag k="name" v="Omsa" />
		<tag k="place" v="farm" />
		<tag k="ssr:stedsnr" v="73354" />
	</node>
	<node lat="63.10231718278032" lon="7.85741939993573" id="-1478">
		<tag k="fixme" v="consider place=hamlet" />
		<tag k="name" v="Ulrikskvenna" />
		<tag k="place" v="farm" />
		<tag k="ssr:stedsnr" v="104143" />
	</node>
	<node lat="63.086555555096965" lon="7.8761499944403335" id="-1479">
		<tag k="name" v="Solsletta Byggefelt" />
		<tag k="place" v="quarter" />
		<tag k="ssr:stedsnr" v="104163" />
	</node>
	<node lat="63.069383336411704" lon="7.7747305491371765" id="-1483">
		<tag k="historic" v="shieling" />
		<tag k="name" v="Stølen" />
		<tag k="place" v="isolated_dwelling" />
		<tag k="ssr:stedsnr" v="105019" />
	</node>
	<node lat="63.092305551333276" lon="7.893727781856054" id="-1487">
		<tag k="name" v="Gjengstø" />
		<tag k="place" v="farm" />
		<tag k="ssr:stedsnr" v="105382" />
	</node>
	<node lat="63.077546754672255" lon="7.8786246230522075" id="-1490">
		<tag k="name" v="Bjerkelund" />
		<tag k="place" v="farm" />
		<tag k="ssr:stedsnr" v="105398" />
	</node>
	<node lat="63.04748333084809" lon="7.85131388792596" id="-1499">
		<tag k="fixme" v="multiple name tags, choose one and add the other to alt_name" />
		<tag k="name" v="Myran;Myra" />
		<tag k="place" v="farm" />
		<tag k="ssr:stedsnr" v="133142" />
	</node>
	<node lat="63.0221055585125" lon="7.775091662676353" id="-1502">
		<tag k="name" v="Osen" />
		<tag k="place" v="farm" />
		<tag k="ssr:stedsnr" v="133201" />
	</node>
	<node lat="63.09871388738297" lon="7.87381944188754" id="-1504">
		<tag k="name" v="Dalen" />
		<tag k="place" v="farm" />
		<tag k="ssr:stedsnr" v="133333" />
	</node>
	<node lat="63.03610716197341" lon="7.699811448369213" id="-1505">
		<tag k="fixme" v="consider place=hamlet" />
		<tag k="name" v="Sildvolnes" />
		<tag k="place" v="farm" />
		<tag k="ssr:stedsnr" v="133527" />
	</node>
	<node lat="63.03118333267233" lon="7.769174997239367" id="-1506">
		<tag k="name" v="Vollen" />
		<tag k="place" v="farm" />
		<tag k="ssr:stedsnr" v="134282" />
	</node>
	<node lat="63.03178889341053" lon="7.820247231111874" id="-1507">
		<tag k="name" v="Elva" />
		<tag k="place" v="farm" />
		<tag k="ssr:stedsnr" v="134286" />
	</node>
	<node lat="63.11560555528818" lon="7.848169439526558" id="-1508">
		<tag k="name" v="Skaret" />
		<tag k="place" v="farm" />
		<tag k="ssr:stedsnr" v="134327" />
	</node>
	<node lat="63.120718811390255" lon="7.784310523738902" id="-1509">
		<tag k="name" v="Dale" />
		<tag k="place" v="locality" />
		<tag k="ssr:stedsnr" v="134331" />
	</node>
	<node lat="63.11862222406368" lon="7.757447230383998" id="-1511">
		<tag k="building" v="commercial" />
		<tag k="name" v="Strand" />
		<tag k="ssr:stedsnr" v="162429" />
	</node>
	<node lat="63.03393611346381" lon="7.732838896690979" id="-1520">
		<tag k="name" v="Skoglund" />
		<tag k="place" v="farm" />
		<tag k="ssr:stedsnr" v="164885" />
	</node>
	<node lat="63.04647777724226" lon="7.717394440929528" id="-1525">
		<tag k="amenity" v="school" />
		<tag k="name" v="Møst skule" />
		<tag k="ssr:stedsnr" v="164846" />
	</node>
	<node lat="63.08371389133433" lon="7.7877888849695385" id="-1533">
		<tag k="name" v="Tømmerberg" />
		<tag k="place" v="isolated_dwelling" />
		<tag k="ssr:stedsnr" v="177344" />
	</node>
	<node lat="63.12524722468764" lon="7.73939723160767" id="-1535">
		<tag k="name" v="Atlanten Motell og Camping" />
		<tag k="ssr:stedsnr" v="177919" />
		<tag k="tourism" v="camp_site" />
	</node>
	<node lat="63.05063333617386" lon="7.7262444394669645" id="-1536">
		<tag k="name" v="Kleivmyra" />
		<tag k="place" v="farm" />
		<tag k="ssr:stedsnr" v="194165" />
	</node>
	<node lat="63.08083333263261" lon="7.771688891904883" id="-1538">
		<tag k="name" v="Øverbolga" />
		<tag k="place" v="farm" />
		<tag k="ssr:stedsnr" v="194302" />
	</node>
	<node lat="63.097027869129434" lon="7.886423989276415" id="-1541">
		<tag k="fixme" v="consider place=hamlet" />
		<tag k="name" v="Kvalvik" />
		<tag k="place" v="farm" />
		<tag k="ssr:stedsnr" v="194329" />
	</node>
	<node lat="63.11642222609707" lon="7.706572229684785" id="-1546">
		<tag k="name" v="Kirklandet" />
		<tag k="place" v="suburb" />
		<tag k="ssr:stedsnr" v="194668" />
	</node>
	<node lat="63.0831944448079" lon="7.885291669353419" id="-1551">
		<tag k="fixme" v="consider place=hamlet" />
		<tag k="name" v="Ørnvik" />
		<tag k="place" v="village" />
		<tag k="ssr:stedsnr" v="207873" />
	</node>
	<node lat="63.09843055348942" lon="7.820261115951502" id="-1552">
		<tag k="fixme" v="consider place=suburb, village or hamlet" />
		<tag k="name" v="Rensvik" />
		<tag k="place" v="quarter" />
		<tag k="ssr:stedsnr" v="219855" />
	</node>
	<node lat="63.10360555674162" lon="7.843388893878541" id="-1563">
		<tag k="name" v="Vorpnesbukt" />
		<tag k="place" v="farm" />
		<tag k="ssr:stedsnr" v="226169" />
	</node>
	<node lat="63.102347220068694" lon="7.815030550802005" id="-1569">
		<tag k="amenity" v="nursing_home" />
		<tag k="name" v="Rena Bruk" />
		<tag k="ssr:stedsnr" v="284289" />
	</node>
	<node lat="63.09145277635796" lon="7.788597218543892" id="-1575">
		<tag k="name" v="Bolgvåg" />
		<tag k="place" v="farm" />
		<tag k="ssr:stedsnr" v="286173" />
	</node>
	<node lat="63.11233888707152" lon="7.7464777732191425" id="-1578">
		<tag k="name" v="Nordlandet" />
		<tag k="place" v="suburb" />
		<tag k="ssr:stedsnr" v="286304" />
	</node>
	<node lat="63.03507499757186" lon="7.719138879676117" id="-1582">
		<tag k="alt_name" v="Rå" />
		<tag k="name" v="Ner Rå" />
		<tag k="place" v="farm" />
		<tag k="ssr:stedsnr" v="286895" />
	</node>
	<node lat="63.08280555619609" lon="7.787291666057723" id="-1586">
		<tag k="name" v="Fjordgløtt" />
		<tag k="place" v="farm" />
		<tag k="ssr:stedsnr" v="287023" />
	</node>
	<node lat="63.01856388561693" lon="7.760841673970601" id="-1593">
		<tag k="name" v="Kvitneset" />
		<tag k="place" v="farm" />
		<tag k="ssr:stedsnr" v="292367" />
	</node>
	<node lat="63.08485000153383" lon="7.789502784954316" id="-1596">
		<tag k="name" v="Nergård" />
		<tag k="place" v="farm" />
		<tag k="ssr:stedsnr" v="299371" />
	</node>
	<node lat="63.09789167112881" lon="7.851902782551756" id="-1597">
		<tag k="name" v="Omsundet" />
		<tag k="place" v="quarter" />
		<tag k="ssr:stedsnr" v="302620" />
	</node>
	<node lat="63.09761389036391" lon="7.80939722824673" id="-1598">
		<tag k="name" v="Jørihaugen" />
		<tag k="place" v="quarter" />
		<tag k="ssr:stedsnr" v="302627" />
	</node>
	<node lat="63.09586110763126" lon="7.820961111271501" id="-1599">
		<tag k="name" v="Rensvik" />
		<tag k="place" v="quarter" />
		<tag k="ssr:stedsnr" v="302630" />
	</node>
	<node lat="63.06063055151798" lon="7.8800194349859485" id="-1600">
		<tag k="name" v="Vika" />
		<tag k="place" v="farm" />
		<tag k="ssr:stedsnr" v="315151" />
	</node>
	<node lat="63.100858333364634" lon="7.872766674631624" id="-1601">
		<tag k="name" v="Nerdalen" />
		<tag k="place" v="farm" />
		<tag k="ssr:stedsnr" v="315332" />
	</node>
	<node lat="63.04586944898401" lon="7.849261118296594" id="-1605">
		<tag k="name" v="Ora" />
		<tag k="place" v="farm" />
		<tag k="ssr:stedsnr" v="316160" />
	</node>
	<node lat="63.113219445788985" lon="7.730166676345046" id="-1610">
		<tag k="building" v="civic" />
		<tag k="name" v="Kristiansund brannstasjon" />
		<tag k="ssr:stedsnr" v="344476" />
	</node>
	<node lat="63.03528055714037" lon="7.826505560003481" id="-1615">
		<tag k="name" v="Nørstranda" />
		<tag k="place" v="farm" />
		<tag k="ssr:stedsnr" v="347098" />
	</node>
	<node lat="63.06774721924886" lon="7.879902783840925" id="-1621">
		<tag k="name" v="Gjeilen" />
		<tag k="place" v="farm" />
		<tag k="ssr:stedsnr" v="347371" />
	</node>
	<node lat="63.02394444337479" lon="7.755236104638305" id="-1626">
		<tag k="name" v="Eia" />
		<tag k="place" v="farm" />
		<tag k="ssr:stedsnr" v="352377" />
	</node>
	<node lat="63.101508330180124" lon="7.837452787602723" id="-1629">
		<tag k="name" v="Bytsteinsura" />
		<tag k="place" v="quarter" />
		<tag k="ssr:stedsnr" v="362609" />
	</node>
	<node lat="63.09597777402939" lon="7.807186106321369" id="-1630">
		<tag k="name" v="Nygårdsmyra" />
		<tag k="place" v="quarter" />
		<tag k="ssr:stedsnr" v="362625" />
	</node>
	<node lat="63.04946021107469" lon="7.862154786549636" id="-1632">
		<tag k="fixme" v="consider place=hamlet" />
		<tag k="name" v="Bjerkestrand" />
		<tag k="place" v="farm" />
		<tag k="ssr:stedsnr" v="376136" />
	</node>
	<node lat="63.10619999623773" lon="7.784849995153171" id="-1635">
		<tag k="name" v="Breivika" />
		<tag k="place" v="farm" />
		<tag k="ssr:stedsnr" v="376354" />
	</node>
	<node lat="63.04091388988558" lon="7.8377027853632635" id="-1649">
		<tag k="name" v="Orhamran" />
		<tag k="place" v="farm" />
		<tag k="ssr:stedsnr" v="407266" />
	</node>
	<node lat="63.02304166915283" lon="7.764072222391684" id="-1650">
		<tag k="name" v="Ødegård" />
		<tag k="place" v="farm" />
		<tag k="ssr:stedsnr" v="408097" />
	</node>
	<node lat="63.1239305530951" lon="7.735725009848397" id="-1653">
		<tag k="leisure" v="pitch" />
		<tag k="name" v="Atlanten Stadion" />
		<tag k="ssr:stedsnr" v="407339" />
	</node>
	<node lat="63.1025888888866" lon="7.843197217004908" id="-1663">
		<tag k="name" v="Omsund" />
		<tag k="place" v="farm" />
		<tag k="ssr:stedsnr" v="412501" />
	</node>
	<node lat="63.12389722316375" lon="7.743916672686073" id="-1668">
		<tag k="leisure" v="park" />
		<tag k="name" v="Folkeparken" />
		<tag k="ssr:stedsnr" v="420927" />
	</node>
	<node lat="63.044018146545795" lon="7.720597825064182" id="-1676">
		<tag k="fixme" v="consider place=hamlet" />
		<tag k="name" v="Møst" />
		<tag k="place" v="farm" />
		<tag k="ssr:stedsnr" v="437178" />
	</node>
	<node lat="63.06362777945049" lon="7.884316665072286" id="-1677">
		<tag k="name" v="Vikageilen" />
		<tag k="place" v="farm" />
		<tag k="ssr:stedsnr" v="437197" />
	</node>
	<node lat="63.12541110952226" lon="7.808277779730332" id="-1678">
		<tag k="name" v="Sommarro" />
		<tag k="place" v="farm" />
		<tag k="ssr:stedsnr" v="437289" />
	</node>
	<node lat="63.09320277616752" lon="7.885499992880349" id="-1680">
		<tag k="name" v="Øverenga" />
		<tag k="place" v="farm" />
		<tag k="ssr:stedsnr" v="437342" />
	</node>
	<node lat="63.10120277962753" lon="7.856208337435526" id="-1686">
		<tag k="name" v="Elverand" />
		<tag k="place" v="farm" />
		<tag k="ssr:stedsnr" v="497360" />
	</node>
	<node lat="63.10168932189629" lon="7.829021897139881" id="-1687">
		<tag k="fixme" v="consider place=hamlet" />
		<tag k="name" v="Rensvik" />
		<tag k="place" v="farm" />
		<tag k="ssr:stedsnr" v="497361" />
	</node>
	<node lat="63.06727203270216" lon="7.716141667503022" id="-1689">
		<tag k="name" v="Bjørnvika" />
		<tag k="place" v="farm" />
		<tag k="ssr:stedsnr" v="497171" />
	</node>
	<node lat="63.124736108282775" lon="7.73134999751009" id="-1714">
		<tag k="name" v="Dalen" />
		<tag k="place" v="farm" />
		<tag k="ssr:stedsnr" v="541926" />
	</node>
	<node lat="63.033272217805106" lon="7.778180555971" id="-1716">
		<tag k="name" v="Kveldsro" />
		<tag k="place" v="farm" />
		<tag k="ssr:stedsnr" v="558151" />
	</node>
	<node lat="63.12670495067988" lon="7.829604543774569" id="-1721">
		<tag k="fixme" v="consider place=hamlet" />
		<tag k="name" v="Gløsvåg" />
		<tag k="place" v="farm" />
		<tag k="ssr:stedsnr" v="558278" />
	</node>
	<node lat="63.02938333668029" lon="7.741975002541737" id="-1722">
		<tag k="name" v="Storhaugen" />
=======
	<node id="-45354" lat="63.1097059989" lon="7.85780611432">
		<tag k="fixme" v="consider place=hamlet" />
		<tag k="name" v="Omsa" />
		<tag k="place" v="farm" />
		<tag k="ssr:stedsnr" v="73354" />
	</node>
	<node id="-45353" lat="63.107711945" lon="7.80341911454">
		<tag k="fixme" v="consider place=hamlet" />
		<tag k="name" v="Øygarden" />
		<tag k="place" v="farm" />
		<tag k="ssr:stedsnr" v="73348" />
	</node>
	<node id="-45352" lat="63.0696777777" lon="7.85738610967">
		<tag k="name" v="Skogvoll" />
		<tag k="place" v="farm" />
		<tag k="ssr:stedsnr" v="73342" />
	</node>
	<node id="-45351" lat="63.0757083365" lon="7.88181388203">
		<tag k="name" v="Bogamyra" />
		<tag k="place" v="farm" />
		<tag k="ssr:stedsnr" v="73340" />
	</node>
	<node id="-45350" lat="63.1239444465" lon="7.73324722974">
		<tag k="name" v="Gomalandet" />
		<tag k="place" v="suburb" />
		<tag k="ssr:stedsnr" v="73278" />
	</node>
	<node id="-45349" lat="63.0551722232" lon="7.8619888824">
		<tag k="name" v="Rambjøra" />
		<tag k="place" v="farm" />
		<tag k="ssr:stedsnr" v="73164" />
	</node>
	<node id="-45348" lat="63.1006305557" lon="7.85419166319">
		<tag k="name" v="Sæterenga" />
		<tag k="place" v="quarter" />
		<tag k="ssr:stedsnr" v="59600" />
	</node>
	<node id="-45347" lat="63.0631499982" lon="7.87256388662">
		<tag k="name" v="Harpskaret" />
		<tag k="place" v="quarter" />
		<tag k="ssr:stedsnr" v="58447" />
	</node>
	<node id="-45394" lat="63.0221055585" lon="7.77509166268">
		<tag k="name" v="Osen" />
		<tag k="place" v="farm" />
		<tag k="ssr:stedsnr" v="133201" />
	</node>
	<node id="-44829" lat="63.1012361076" lon="7.8186611195">
		<tag k="name" v="Reina" />
		<tag k="place" v="isolated_dwelling" />
		<tag k="ssr:stedsnr" v="223278" />
	</node>
	<node id="-44825" lat="63.0984305535" lon="7.82026111595">
		<tag k="fixme" v="consider place=suburb, village or hamlet" />
		<tag k="name" v="Rensvik" />
		<tag k="place" v="quarter" />
		<tag k="ssr:stedsnr" v="219855" />
	</node>
	<node id="-45441" lat="63.0976138904" lon="7.80939722825">
		<tag k="name" v="Jørihaugen" />
		<tag k="place" v="quarter" />
		<tag k="ssr:stedsnr" v="302627" />
	</node>
	<node id="-45316" lat="63.1070111131" lon="7.73782777295">
		<tag k="name" v="Innlandet" />
		<tag k="place" v="suburb" />
		<tag k="ssr:stedsnr" v="41496" />
	</node>
	<node id="-45311" lat="63.1142916671" lon="7.76555832701">
		<tag k="alt_name" v="Røsseren" />
		<tag k="fixme" v="consider place=suburb, village or hamlet" />
		<tag k="name" v="Røssern" />
		<tag k="place" v="quarter" />
		<tag k="ssr:stedsnr" v="20248" />
	</node>
	<node id="-45305" lat="63.0760954296" lon="7.71385965894">
		<tag k="name" v="Vadsteinsvika" />
		<tag k="place" v="hamlet" />
		<tag k="ssr:stedsnr" v="12515" />
	</node>
	<node id="-45304" lat="63.1290416707" lon="7.82715000729">
		<tag k="name" v="Gløsvågmyran" />
		<tag k="place" v="farm" />
		<tag k="ssr:stedsnr" v="12266" />
	</node>
	<node id="-45303" lat="63.1290027749" lon="7.83861388906">
		<tag k="name" v="Kolvika" />
		<tag k="place" v="farm" />
		<tag k="ssr:stedsnr" v="12265" />
	</node>
	<node id="-45300" lat="63.0473944474" lon="7.7245277793">
		<tag k="name" v="Dalset" />
		<tag k="place" v="farm" />
		<tag k="ssr:stedsnr" v="12158" />
	</node>
	<node id="-45297" lat="63.0824305568" lon="7.88623055443">
		<tag k="name" v="Ørnvika" />
		<tag k="place" v="quarter" />
		<tag k="ssr:stedsnr" v="967403" />
	</node>
	<node id="-45292" lat="63.1104527822" lon="7.7279472257">
		<tag k="name" v="Kristiansund" />
		<tag k="place" v="town" />
		<tag k="ssr:stedsnr" v="923708" />
	</node>
	<node id="-45288" lat="63.0691178038" lon="7.88071692916">
		<tag k="fixme" v="consider place=hamlet" />
		<tag k="name" v="Kvalvåg" />
		<tag k="place" v="farm" />
		<tag k="ssr:stedsnr" v="922168" />
	</node>
	<node id="-45287" lat="63.0964694427" lon="7.84789721612">
		<tag k="name" v="Frei Sentrum" />
		<tag k="place" v="quarter" />
		<tag k="ssr:stedsnr" v="909604" />
	</node>
	<node id="-45286" lat="63.1303944445" lon="7.84835833897">
		<tag k="name" v="Nordre Kolvika" />
		<tag k="place" v="isolated_dwelling" />
		<tag k="ssr:stedsnr" v="905162" />
	</node>
	<node id="-45285" lat="63.066708332" lon="7.88265833469">
		<tag k="name" v="Kvalvåg" />
		<tag k="place" v="quarter" />
		<tag k="ssr:stedsnr" v="904259" />
	</node>
	<node id="-45282" lat="63.123894444" lon="7.70887777127">
		<tag k="name" v="Brunsvika" />
		<tag k="place" v="farm" />
		<tag k="ssr:stedsnr" v="862703" />
	</node>
	<node id="-45280" lat="63.0503361092" lon="7.70670555922">
		<tag k="name" v="Nyland" />
		<tag k="place" v="farm" />
		<tag k="ssr:stedsnr" v="838414" />
	</node>
	<node id="-45276" lat="63.1087999957" lon="7.78998611262">
		<tag k="alt_name" v="Romerike" />
		<tag k="name" v="Romarriket" />
		<tag k="place" v="locality" />
		<tag k="ssr:stedsnr" v="833568" />
	</node>
	<node id="-45782" lat="63.0294126669" lon="7.7498488112">
		<tag k="name" v="Solhøi" />
		<tag k="place" v="farm" />
		<tag k="ssr:stedsnr" v="1076385" />
	</node>
	<node id="-45269" lat="63.0567527785" lon="7.86853611582">
		<tag k="name" v="Dragset" />
		<tag k="place" v="farm" />
		<tag k="ssr:stedsnr" v="801157" />
	</node>
	<node id="-45091" lat="63.0771888886" lon="7.72303888108">
		<tag k="name" v="Øvre Vadsteinsvika" />
		<tag k="place" v="farm" />
		<tag k="ssr:stedsnr" v="679284" />
	</node>
	<node id="-45776" lat="63.0361386493" lon="7.70130825823">
		<tag k="name" v="Sildvågnes" />
		<tag k="place" v="farm" />
		<tag k="ssr:stedsnr" v="1072061" />
	</node>
	<node id="-45774" lat="63.2194901918" lon="7.59296366784">
		<tag k="name" v="Grip" />
		<tag k="place" v="locality" />
		<tag k="ssr:stedsnr" v="980576" />
	</node>
	<node id="-45773" lat="63.0946626525" lon="7.76774454797">
		<tag k="name" v="Fugløya" />
		<tag k="place" v="locality" />
		<tag k="ssr:stedsnr" v="980574" />
	</node>
	<node id="-45771" lat="63.0809703839" lon="7.71081044903">
		<tag k="name" v="Valholmen" />
		<tag k="place" v="locality" />
		<tag k="ssr:stedsnr" v="980572" />
	</node>
	<node id="-45769" lat="63.0249709654" lon="7.80119402922">
		<tag k="name" v="Frei" />
		<tag k="place" v="hamlet" />
		<tag k="ssr:stedsnr" v="980568" />
	</node>
	<node id="-45767" lat="63.0280994258" lon="7.7642082877">
		<tag k="fixme" v="consider place=hamlet" />
		<tag k="name" v="Flatset" />
		<tag k="place" v="farm" />
		<tag k="ssr:stedsnr" v="980566" />
	</node>
	<node id="-45253" lat="63.0502027803" lon="7.71135000616">
		<tag k="name" v="Kystvågen" />
		<tag k="place" v="farm" />
		<tag k="ssr:stedsnr" v="922550" />
	</node>
	<node id="-45763" lat="63.0448166687" lon="7.71813610565">
		<tag k="name" v="Buvikhøgda" />
		<tag k="place" v="quarter" />
		<tag k="ssr:stedsnr" v="969629" />
	</node>
	<node id="-45259" lat="63.034513885" lon="7.82401110635">
		<tag k="name" v="Orstranda" />
		<tag k="place" v="farm" />
		<tag k="ssr:stedsnr" v="923156" />
	</node>
	<node id="-45758" lat="63.0421138901" lon="7.70588610524">
		<tag k="name" v="Trøa" />
		<tag k="place" v="farm" />
		<tag k="ssr:stedsnr" v="959346" />
	</node>
	<node id="-45755" lat="63.1080083326" lon="7.7565055512">
		<tag k="amenity" v="school" />
		<tag k="name" v="Norlandet barneskole" />
		<tag k="ssr:stedsnr" v="954534" />
	</node>
	<node id="-45241" lat="63.0533179351" lon="7.70159647799">
		<tag k="name" v="Blomneset" />
		<tag k="place" v="farm" />
		<tag k="ssr:stedsnr" v="771863" />
	</node>
	<node id="-45238" lat="63.0786777757" lon="7.71738333508">
		<tag k="name" v="Lundeval" />
		<tag k="place" v="farm" />
		<tag k="ssr:stedsnr" v="771856" />
	</node>
	<node id="-45513" lat="63.0440181465" lon="7.72059782506">
		<tag k="fixme" v="consider place=hamlet" />
		<tag k="name" v="Møst" />
		<tag k="place" v="farm" />
		<tag k="ssr:stedsnr" v="437178" />
	</node>
	<node id="-45745" lat="63.0372027798" lon="7.82455276969">
		<tag k="name" v="Bjerkeli" />
		<tag k="place" v="farm" />
		<tag k="ssr:stedsnr" v="954096" />
	</node>
	<node id="-45232" lat="63.1187166626" lon="7.73559723203">
		<tag k="name" v="Naustkroken" />
		<tag k="place" v="locality" />
		<tag k="ssr:stedsnr" v="769508" />
	</node>
	<node id="-45231" lat="63.1084722231" lon="7.72434721236">
		<tag k="amenity" v="hospital" />
		<tag k="name" v="Kristiansund sykehus" />
		<tag k="ssr:stedsnr" v="769505" />
	</node>
	<node id="-45224" lat="63.0538333342" lon="7.8581861151">
		<tag k="name" v="Solli" />
		<tag k="place" v="farm" />
		<tag k="ssr:stedsnr" v="740160" />
	</node>
	<node id="-45223" lat="63.057047224" lon="7.871866669">
		<tag k="name" v="Lia" />
		<tag k="place" v="farm" />
		<tag k="ssr:stedsnr" v="740155" />
	</node>
	<node id="-45732" lat="63.0885638856" lon="7.81027500391">
		<tag k="name" v="Skogvang" />
		<tag k="place" v="farm" />
		<tag k="ssr:stedsnr" v="953178" />
	</node>
	<node id="-45219" lat="63.0758583308" lon="7.71819444719">
		<tag k="name" v="Vadsteinsvika" />
		<tag k="place" v="quarter" />
		<tag k="ssr:stedsnr" v="727614" />
	</node>
	<node id="-45217" lat="63.1223138853" lon="7.75889722722">
		<tag k="name" v="Bentneset" />
		<tag k="place" v="quarter" />
		<tag k="ssr:stedsnr" v="723843" />
	</node>
	<node id="-45722" lat="63.0893416633" lon="7.88305555221">
		<tag k="name" v="Bjerkås" />
		<tag k="place" v="farm" />
		<tag k="ssr:stedsnr" v="862334" />
	</node>
	<node id="-45719" lat="63.0560500036" lon="7.72766945152">
		<tag k="name" v="Yttervika" />
		<tag k="place" v="farm" />
		<tag k="ssr:stedsnr" v="862196" />
	</node>
	<node id="-45717" lat="63.0309111099" lon="7.75224999174">
		<tag k="name" v="Dalen og Ura" />
		<tag k="place" v="farm" />
		<tag k="ssr:stedsnr" v="862158" />
	</node>
	<node id="-45715" lat="63.0388805591" lon="7.83196110357">
		<tag k="alt_name" v="Or, søre" />
		<tag k="fixme" v="multiple name tags, choose one and add the other to alt_name" />
		<tag k="name" v="Or;Søre Or" />
		<tag k="place" v="farm" />
		<tag k="ssr:stedsnr" v="862155" />
	</node>
	<node id="-45714" lat="63.0350083328" lon="7.78153056133">
		<tag k="name" v="Halslihaugen" />
		<tag k="place" v="quarter" />
		<tag k="ssr:stedsnr" v="848626" />
	</node>
	<node id="-45713" lat="63.0857194428" lon="7.87418333945">
		<tag k="loc_name" v="Solsletta" />
		<tag k="name" v="Ånesmyra" />
		<tag k="place" v="quarter" />
		<tag k="ssr:stedsnr" v="848616" />
	</node>
	<node id="-45700" lat="63.0342527789" lon="7.82279166457">
		<tag k="name" v="Sørstranda" />
		<tag k="place" v="farm" />
		<tag k="ssr:stedsnr" v="833093" />
	</node>
	<node id="-45187" lat="63.0333916683" lon="7.82081389794">
		<tag k="name" v="Elvakleiva" />
		<tag k="place" v="farm" />
		<tag k="ssr:stedsnr" v="893106" />
	</node>
	<node id="-45186" lat="63.0308472197" lon="7.76406389335">
		<tag k="name" v="Myra" />
		<tag k="place" v="farm" />
		<tag k="ssr:stedsnr" v="893090" />
	</node>
	<node id="-45697" lat="63.0385777749" lon="7.73338611627">
		<tag k="alt_name" v="Enga" />
		<tag k="name" v="Engen" />
		<tag k="place" v="farm" />
		<tag k="ssr:stedsnr" v="832882" />
	</node>
	<node id="-45184" lat="63.0272611107" lon="7.79574721521">
		<tag k="name" v="Ekservollen" />
		<tag k="place" v="farm" />
		<tag k="ssr:stedsnr" v="893078" />
	</node>
	<node id="-45695" lat="63.036905556" lon="7.71963054649">
		<tag k="name" v="Øver Rå" />
		<tag k="place" v="farm" />
		<tag k="ssr:stedsnr" v="832873" />
	</node>
	<node id="-45589" lat="63.0207722254" lon="7.78079722642">
		<tag k="name" v="Tangen" />
		<tag k="place" v="farm" />
		<tag k="ssr:stedsnr" v="618186" />
	</node>
	<node id="-45692" lat="63.0492305572" lon="7.72458611518">
		<tag k="name" v="Blomvika" />
		<tag k="place" v="farm" />
		<tag k="ssr:stedsnr" v="832851" />
	</node>
	<node id="-45690" lat="63.0783749992" lon="7.71210832445">
		<tag k="name" v="Lundenes" />
		<tag k="place" v="farm" />
		<tag k="ssr:stedsnr" v="832842" />
	</node>
	<node id="-45153" lat="63.0407393353" lon="7.72282756806">
		<tag k="name" v="Brekka" />
		<tag k="place" v="farm" />
		<tag k="ssr:stedsnr" v="649859" />
	</node>
	<node id="-45172" lat="63.0677611089" lon="7.88259721391">
		<tag k="fixme" v="consider place=hamlet" />
		<tag k="name" v="Kvalvåg" />
		<tag k="place" v="village" />
		<tag k="ssr:stedsnr" v="692864" />
	</node>
	<node id="-45171" lat="63.0274777806" lon="7.81546110739">
		<tag k="name" v="Sjøvang" />
		<tag k="place" v="farm" />
		<tag k="ssr:stedsnr" v="680262" />
	</node>
	<node id="-45170" lat="63.0299166704" lon="7.75750832652">
		<tag k="name" v="Vestre Flatset" />
		<tag k="place" v="farm" />
		<tag k="ssr:stedsnr" v="680257" />
	</node>
	<node id="-45169" lat="63.0877694467" lon="7.76892221958">
		<tag k="name" v="Huse" />
		<tag k="place" v="farm" />
		<tag k="ssr:stedsnr" v="680360" />
	</node>
	<node id="-45168" lat="63.0864472235" lon="7.79589166262">
		<tag k="name" v="Skjæret" />
		<tag k="place" v="farm" />
		<tag k="ssr:stedsnr" v="680359" />
	</node>
	<node id="-45165" lat="63.1030916705" lon="7.84783055368">
		<tag k="name" v="Jåvika" />
		<tag k="place" v="farm" />
		<tag k="ssr:stedsnr" v="679324" />
	</node>
	<node id="-45736" lat="63.0530972252" lon="7.78879444646">
		<tag k="name" v="Myrstad" />
		<tag k="place" v="farm" />
		<tag k="ssr:stedsnr" v="953257" />
	</node>
	<node id="-45674" lat="63.1282694427" lon="7.70929721713">
		<tag k="name" v="Karihola" />
		<tag k="place" v="suburb" />
		<tag k="ssr:stedsnr" v="801697" />
	</node>
	<node id="-45395" lat="63.0987138874" lon="7.87381944189">
		<tag k="name" v="Dalen" />
>>>>>>> e1d4bc35ff8a6074a6f2e91616a996b547c36f15
		<tag k="place" v="farm" />
		<tag k="ssr:stedsnr" v="558242" />
	</node>
<<<<<<< HEAD
	<node lat="63.103107241340055" lon="7.864049064496189" id="-1725">
		<tag k="fixme" v="consider place=hamlet" />
		<tag k="name" v="Storbukta" />
		<tag k="place" v="farm" />
		<tag k="ssr:stedsnr" v="558371" />
	</node>
	<node lat="63.0869166671103" lon="7.758780564115459" id="-1726">
		<tag k="name" v="Nerbolga" />
		<tag k="place" v="farm" />
		<tag k="ssr:stedsnr" v="558389" />
	</node>
	<node lat="63.03468055753354" lon="7.824502767858475" id="-1734">
		<tag k="name" v="Myllåstranda" />
		<tag k="place" v="farm" />
		<tag k="ssr:stedsnr" v="589115" />
	</node>
	<node lat="63.020958333138864" lon="7.757658324603736" id="-1737">
		<tag k="name" v="Djupvik" />
=======
	<node id="-45157" lat="63.0286361076" lon="7.75077777187">
		<tag k="name" v="Fagernes" />
		<tag k="place" v="farm" />
		<tag k="ssr:stedsnr" v="650863" />
	</node>
	<node id="-45668" lat="63.0966916709" lon="7.88608054662">
		<tag k="landuse" v="military" />
		<tag k="name" v="Kvalvik fort" />
		<tag k="ssr:stedsnr" v="777212" />
	</node>
	<node id="-45665" lat="63.1177333336" lon="7.75219166367">
		<tag k="name" v="Storenga" />
		<tag k="place" v="locality" />
		<tag k="ssr:stedsnr" v="772548" />
	</node>
	<node id="-45072" lat="63.1238972232" lon="7.74391667269">
		<tag k="leisure" v="park" />
		<tag k="name" v="Folkeparken" />
		<tag k="ssr:stedsnr" v="420927" />
	</node>
	<node id="-45150" lat="63.1247333316" lon="7.71810278217">
		<tag k="leisure" v="pitch" />
		<tag k="name" v="KFK-banen" />
		<tag k="ssr:stedsnr" v="723889" />
	</node>
	<node id="-45661" lat="63.0800166702" lon="7.77923612078">
		<tag k="name" v="Søberget" />
		<tag k="place" v="farm" />
		<tag k="ssr:stedsnr" v="772033" />
	</node>
	<node id="-45251" lat="63.0677027546" lon="7.71686408788">
		<tag k="fixme" v="consider place=hamlet" />
		<tag k="name" v="Bjørnvika" />
		<tag k="place" v="farm" />
		<tag k="ssr:stedsnr" v="922464" />
	</node>
	<node id="-45657" lat="63.0302799311" lon="7.73873658525">
		<tag k="fixme" v="consider place=hamlet" />
		<tag k="name" v="Endreset" />
		<tag k="place" v="farm" />
		<tag k="ssr:stedsnr" v="771870" />
	</node>
	<node id="-45156" lat="63.0310111138" lon="7.74823610937">
		<tag k="name" v="Skogheim" />
>>>>>>> e1d4bc35ff8a6074a6f2e91616a996b547c36f15
		<tag k="place" v="farm" />
		<tag k="ssr:stedsnr" v="589094" />
	</node>
<<<<<<< HEAD
	<node lat="63.102699999419826" lon="7.834691660569186" id="-1738">
		<tag k="name" v="Sanden" />
		<tag k="place" v="farm" />
		<tag k="ssr:stedsnr" v="589181" />
	</node>
	<node lat="63.102449997957486" lon="7.877677775421702" id="-1750">
		<tag k="name" v="Perkverna" />
		<tag k="place" v="farm" />
		<tag k="ssr:stedsnr" v="618341" />
	</node>
	<node lat="63.07925000385912" lon="7.717113879169289" id="-1751">
		<tag k="name" v="Valen" />
		<tag k="place" v="farm" />
		<tag k="ssr:stedsnr" v="618696" />
	</node>
	<node lat="63.10581944256859" lon="7.781041674305062" id="-1759">
		<tag k="building" v="commercial" />
		<tag k="name" v="Vestbase" />
		<tag k="ssr:stedsnr" v="647272" />
	</node>
	<node lat="63.04073933529161" lon="7.722827568058852" id="-1764">
		<tag k="name" v="Brekka" />
=======
	<node id="-45135" lat="63.0346805575" lon="7.82450276786">
		<tag k="name" v="Myllåstranda" />
		<tag k="place" v="farm" />
		<tag k="ssr:stedsnr" v="589115" />
	</node>
	<node id="-45133" lat="63.0243055562" lon="7.80650000753">
		<tag k="fixme" v="consider place=hamlet" />
		<tag k="name" v="Nedre Frei" />
		<tag k="place" v="village" />
		<tag k="ssr:stedsnr" v="711083" />
	</node>
	<node id="-45128" lat="63.0466388929" lon="7.86095834037">
		<tag k="alt_name" v="Vorsvik" />
		<tag k="name" v="Vorpvik" />
		<tag k="place" v="farm" />
		<tag k="ssr:stedsnr" v="710259" />
	</node>
	<node id="-45637" lat="63.0503916628" lon="7.85329722423">
		<tag k="name" v="Trøa" />
>>>>>>> e1d4bc35ff8a6074a6f2e91616a996b547c36f15
		<tag k="place" v="farm" />
		<tag k="ssr:stedsnr" v="740143" />
	</node>
<<<<<<< HEAD
	<node lat="63.08220000254039" lon="7.77968612009" id="-1767">
		<tag k="name" v="Bolgmyra" />
		<tag k="place" v="farm" />
		<tag k="ssr:stedsnr" v="650023" />
	</node>
	<node lat="63.122974996934" lon="7.84272777121809" id="-1775">
		<tag k="historic" v="shieling" />
		<tag k="name" v="Råkstølen" />
		<tag k="place" v="isolated_dwelling" />
		<tag k="ssr:stedsnr" v="650480" />
	</node>
	<node lat="63.03101111379281" lon="7.748236109373344" id="-1780">
		<tag k="name" v="Skogheim" />
		<tag k="place" v="farm" />
		<tag k="ssr:stedsnr" v="650857" />
	</node>
	<node lat="63.02863610759988" lon="7.75077777186516" id="-1781">
		<tag k="name" v="Fagernes" />
		<tag k="place" v="farm" />
		<tag k="ssr:stedsnr" v="650863" />
	</node>
	<node lat="63.079788889868546" lon="7.885291657608457" id="-1783">
=======
	<node id="-45123" lat="63.1053666625" lon="7.78789722897">
		<tag k="name" v="Breivikfjøra" />
		<tag k="place" v="farm" />
		<tag k="ssr:stedsnr" v="708269" />
	</node>
	<node id="-45120" lat="63.1031072413" lon="7.8640490645">
		<tag k="fixme" v="consider place=hamlet" />
		<tag k="name" v="Storbukta" />
		<tag k="place" v="farm" />
		<tag k="ssr:stedsnr" v="558371" />
	</node>
	<node id="-45631" lat="63.0797888899" lon="7.88529165761">
>>>>>>> e1d4bc35ff8a6074a6f2e91616a996b547c36f15
		<tag k="name" v="Kleven" />
		<tag k="place" v="farm" />
		<tag k="ssr:stedsnr" v="651378" />
	</node>
<<<<<<< HEAD
	<node lat="63.080543851031415" lon="7.772030504916167" id="-1788">
		<tag k="fixme" v="consider place=hamlet" />
		<tag k="name" v="Bolga" />
		<tag k="place" v="farm" />
		<tag k="ssr:stedsnr" v="657799" />
	</node>
	<node lat="63.10918333179623" lon="7.769366668781197" id="-1789">
		<tag k="building" v="industrial" />
		<tag k="industrial" v="factory" />
		<tag k="name" v="Vikan" />
		<tag k="ssr:stedsnr" v="662224" />
	</node>
	<node lat="63.08398611093619" lon="7.771480556946036" id="-1799">
		<tag k="name" v="Lunden" />
		<tag k="place" v="farm" />
		<tag k="ssr:stedsnr" v="716546" />
	</node>
	<node lat="63.075858330780605" lon="7.71819444718819" id="-1801">
		<tag k="name" v="Vadsteinsvika" />
		<tag k="place" v="quarter" />
		<tag k="ssr:stedsnr" v="727614" />
	</node>
	<node lat="63.05383333417919" lon="7.858186115104958" id="-1805">
		<tag k="name" v="Solli" />
		<tag k="place" v="farm" />
		<tag k="ssr:stedsnr" v="740160" />
	</node>
	<node lat="63.08001667018235" lon="7.779236120777014" id="-1826">
		<tag k="name" v="Søberget" />
=======
	<node id="-45115" lat="63.0387567939" lon="7.83419029133">
		<tag k="fixme" v="consider place=hamlet" />
		<tag k="name" v="Or" />
		<tag k="place" v="farm" />
		<tag k="ssr:stedsnr" v="537204" />
	</node>
	<node id="-45620" lat="63.1229749969" lon="7.84272777122">
		<tag k="historic" v="shieling" />
		<tag k="name" v="Råkstølen" />
		<tag k="place" v="locality" />
		<tag k="ssr:stedsnr" v="650480" />
	</node>
	<node id="-45107" lat="63.0853416672" lon="7.88411944087">
		<tag k="name" v="Solsletta" />
		<tag k="place" v="isolated_dwelling" />
		<tag k="ssr:stedsnr" v="688590" />
	</node>
	<node id="-45106" lat="63.088597424" lon="7.89447957389">
		<tag k="fixme" v="consider place=hamlet" />
		<tag k="name" v="Ånes" />
		<tag k="place" v="farm" />
		<tag k="ssr:stedsnr" v="688489" />
	</node>
	<node id="-45617" lat="63.0822000025" lon="7.77968612009">
		<tag k="name" v="Bolgmyra" />
>>>>>>> e1d4bc35ff8a6074a6f2e91616a996b547c36f15
		<tag k="place" v="farm" />
		<tag k="ssr:stedsnr" v="650023" />
	</node>
<<<<<<< HEAD
	<node lat="63.03027993112277" lon="7.738736585248645" id="-1827">
		<tag k="fixme" v="consider place=hamlet" />
		<tag k="name" v="Endreset" />
		<tag k="place" v="farm" />
		<tag k="ssr:stedsnr" v="771870" />
	</node>
	<node lat="63.117733333560075" lon="7.752191663673223" id="-1831">
		<tag k="name" v="Storenga" />
		<tag k="place" v="locality" />
		<tag k="ssr:stedsnr" v="772548" />
	</node>
	<node lat="63.05675277852398" lon="7.868536115821241" id="-1837">
		<tag k="name" v="Dragset" />
		<tag k="place" v="farm" />
		<tag k="ssr:stedsnr" v="801157" />
	</node>
	<node lat="63.12826944267614" lon="7.7092972171303575" id="-1842">
		<tag k="name" v="Karihola" />
		<tag k="place" v="suburb" />
		<tag k="ssr:stedsnr" v="801697" />
	</node>
	<node lat="63.03425277887688" lon="7.822791664570356" id="-1849">
		<tag k="name" v="Sørstranda" />
		<tag k="place" v="farm" />
		<tag k="ssr:stedsnr" v="833093" />
	</node>
	<node lat="63.07837499920342" lon="7.712108324446139" id="-1852">
		<tag k="name" v="Lundenes" />
		<tag k="place" v="farm" />
		<tag k="ssr:stedsnr" v="832842" />
	</node>
	<node lat="63.04923055719936" lon="7.724586115184665" id="-1854">
		<tag k="name" v="Blomvika" />
		<tag k="place" v="farm" />
		<tag k="ssr:stedsnr" v="832851" />
	</node>
	<node lat="63.036905555975025" lon="7.719630546489635" id="-1857">
		<tag k="name" v="Øver Rå" />
		<tag k="place" v="farm" />
		<tag k="ssr:stedsnr" v="832873" />
	</node>
	<node lat="63.108799995732745" lon="7.789986112617348" id="-1862">
		<tag k="alt_name" v="Romerike" />
		<tag k="name" v="Romarriket" />
		<tag k="place" v="locality" />
		<tag k="ssr:stedsnr" v="833568" />
	</node>
	<node lat="63.03897545400146" lon="7.832094576048101" id="-1872">
		<tag k="alt_name" v="Or, søre;Or" />
		<tag k="name" v="Søre Or" />
		<tag k="place" v="farm" />
		<tag k="ssr:stedsnr" v="862155" />
	</node>
	<node lat="63.030911109851054" lon="7.7522499917361385" id="-1874">
		<tag k="name" v="Dalen og Ura" />
		<tag k="place" v="farm" />
		<tag k="ssr:stedsnr" v="862158" />
	</node>
	<node lat="63.05605000356385" lon="7.727669451520146" id="-1876">
		<tag k="name" v="Yttervika" />
		<tag k="place" v="farm" />
		<tag k="ssr:stedsnr" v="862196" />
	</node>
	<node lat="63.08934166325054" lon="7.883055552210748" id="-1877">
		<tag k="name" v="Bjerkås" />
		<tag k="place" v="farm" />
		<tag k="ssr:stedsnr" v="862334" />
	</node>
	<node lat="63.08856388555001" lon="7.810275003908215" id="-1884">
		<tag k="name" v="Skogvang" />
		<tag k="place" v="farm" />
		<tag k="ssr:stedsnr" v="953178" />
	</node>
	<node lat="63.10800833259712" lon="7.7565055512040155" id="-1898">
		<tag k="amenity" v="school" />
		<tag k="name" v="Norlandet barneskole" />
		<tag k="ssr:stedsnr" v="954534" />
	</node>
	<node lat="63.04211389012914" lon="7.705886105243297" id="-1901">
		<tag k="name" v="Trøa" />
		<tag k="place" v="farm" />
		<tag k="ssr:stedsnr" v="959346" />
	</node>
	<node lat="63.04481666873673" lon="7.718136105652061" id="-1906">
		<tag k="name" v="Buvikhøgda" />
		<tag k="place" v="quarter" />
		<tag k="ssr:stedsnr" v="969629" />
	</node>
	<node lat="63.02809942576668" lon="7.764208287698597" id="-1907">
		<tag k="fixme" v="consider place=hamlet" />
		<tag k="name" v="Flatset" />
		<tag k="place" v="farm" />
		<tag k="ssr:stedsnr" v="980566" />
	</node>
	<node lat="63.02497096538836" lon="7.801194029222001" id="-1909">
		<tag k="name" v="Frei" />
		<tag k="place" v="hamlet" />
		<tag k="ssr:stedsnr" v="980568" />
	</node>
	<node lat="63.080970383916664" lon="7.710810449025404" id="-1911">
		<tag k="name" v="Valholmen" />
		<tag k="place" v="locality" />
		<tag k="ssr:stedsnr" v="980572" />
	</node>
	<node lat="63.094662652547704" lon="7.767744547967691" id="-1913">
		<tag k="name" v="Fugløya" />
		<tag k="place" v="locality" />
		<tag k="ssr:stedsnr" v="980574" />
	</node>
	<node lat="63.21949019177219" lon="7.592963667843372" id="-1914">
		<tag k="name" v="Grip" />
		<tag k="place" v="locality" />
		<tag k="ssr:stedsnr" v="980576" />
	</node>
	<node lat="63.036138649298564" lon="7.7013082582287335" id="-1916">
		<tag k="name" v="Sildvågnes" />
		<tag k="place" v="farm" />
		<tag k="ssr:stedsnr" v="1072061" />
	</node>
	<node lat="63.029412666864204" lon="7.749848811200898" id="-1922">
		<tag k="name" v="Solhøi" />
		<tag k="place" v="farm" />
		<tag k="ssr:stedsnr" v="1076385" />
=======
	<node id="-45149" lat="63.0839861109" lon="7.77148055695">
		<tag k="name" v="Lunden" />
		<tag k="place" v="farm" />
		<tag k="ssr:stedsnr" v="716546" />
	</node>
	<node id="-45098" lat="63.0395972236" lon="7.83715277287">
		<tag k="alt_name" v="Or, nordre;Or" />
		<tag k="name" v="Nordre Or" />
		<tag k="place" v="farm" />
		<tag k="ssr:stedsnr" v="680148" />
	</node>
	<node id="-45606" lat="63.1058194426" lon="7.78104167431">
		<tag k="building" v="commercial" />
		<tag k="name" v="Vestbase" />
		<tag k="ssr:stedsnr" v="647272" />
	</node>
	<node id="-45603" lat="63.1248638934" lon="7.80183888733">
		<tag k="name" v="Dale" />
		<tag k="place" v="village" />
		<tag k="ssr:stedsnr" v="627596" />
	</node>
	<node id="-45088" lat="63.0389944414" lon="7.78365555858">
		<tag k="name" v="Storbakken" />
		<tag k="old_name" v="Storbakken byggefelt" />
		<tag k="place" v="quarter" />
		<tag k="ssr:stedsnr" v="484602" />
	</node>
	<node id="-45598" lat="63.0270472198" lon="7.78790832377">
		<tag k="name" v="Stranda" />
		<tag k="place" v="farm" />
		<tag k="ssr:stedsnr" v="619270" />
	</node>
	<node id="-45083" lat="63.1091833318" lon="7.76936666878">
		<tag k="building" v="industrial" />
		<tag k="industrial" v="factory" />
		<tag k="name" v="Vikan" />
		<tag k="ssr:stedsnr" v="662224" />
	</node>
	<node id="-45593" lat="63.0792500039" lon="7.71711387917">
		<tag k="name" v="Valen" />
		<tag k="place" v="farm" />
		<tag k="ssr:stedsnr" v="618696" />
	</node>
	<node id="-45592" lat="63.102449998" lon="7.87767777542">
		<tag k="name" v="Perkverna" />
		<tag k="place" v="farm" />
		<tag k="ssr:stedsnr" v="618341" />
	</node>
	<node id="-45078" lat="63.108397224" lon="7.81936110764">
		<tag k="name" v="Byskogen" />
		<tag k="place" v="village" />
		<tag k="ssr:stedsnr" v="445605" />
	</node>
	<node id="-45449" lat="63.0352805571" lon="7.82650556">
		<tag k="name" v="Nørstranda" />
		<tag k="place" v="farm" />
		<tag k="ssr:stedsnr" v="347098" />
	</node>
	<node id="-45075" lat="63.031688893" lon="7.77346389059">
		<tag k="name" v="Øyan" />
		<tag k="place" v="farm" />
		<tag k="ssr:stedsnr" v="437254" />
	</node>
	<node id="-45419" lat="63.0339361135" lon="7.73283889669">
		<tag k="name" v="Skoglund" />
		<tag k="place" v="farm" />
		<tag k="ssr:stedsnr" v="164885" />
	</node>
	<node id="-45400" lat="63.1156055553" lon="7.84816943953">
		<tag k="name" v="Skaret" />
		<tag k="place" v="farm" />
		<tag k="ssr:stedsnr" v="134327" />
	</node>
	<node id="-45070" lat="63.0409138899" lon="7.83770278536">
		<tag k="name" v="Orhamran" />
		<tag k="place" v="farm" />
		<tag k="ssr:stedsnr" v="407266" />
	</node>
	<node id="-45062" lat="63.0337194451" lon="7.8147111024">
		<tag k="name" v="Slettvoll" />
		<tag k="place" v="farm" />
		<tag k="ssr:stedsnr" v="498152" />
	</node>
	<node id="-45573" lat="63.1026999994" lon="7.83469166057">
		<tag k="name" v="Sanden" />
		<tag k="place" v="farm" />
		<tag k="ssr:stedsnr" v="589181" />
	</node>
	<node id="-45058" lat="63.1016893219" lon="7.82902189714">
		<tag k="fixme" v="consider place=hamlet" />
		<tag k="name" v="Rensvik" />
		<tag k="place" v="farm" />
		<tag k="ssr:stedsnr" v="497361" />
	</node>
	<node id="-45569" lat="63.0209583331" lon="7.7576583246">
		<tag k="name" v="Djupvik" />
		<tag k="place" v="farm" />
		<tag k="ssr:stedsnr" v="589094" />
>>>>>>> e1d4bc35ff8a6074a6f2e91616a996b547c36f15
	</node>
</osm>
