<?xml version="1.0" encoding="UTF-8"?>
<osm generator="osmapis" version="0.6">
	<node id="-5110" lat="63.0690249981" lon="7.72611388144">
		<tag k="name" v="Ørnlia" />
		<tag k="natural" v="hill" />
		<tag k="place" v="locality" />
		<tag k="ssr:stedsnr" v="12184" />
	</node>
	<node id="-5109" lat="63.0627194405" lon="7.81786666367">
		<tag k="fixme" v="consider natural=peak for the most distinct mountains in the district" />
		<tag k="name" v="Brattåsen" />
		<tag k="natural" v="hill" />
		<tag k="place" v="locality" />
		<tag k="ssr:stedsnr" v="12179" />
	</node>
	<node id="-5107" lat="63.0427472259" lon="7.79010278744">
		<tag k="name" v="Indre Jonsokhaugen" />
		<tag k="natural" v="hill" />
		<tag k="place" v="locality" />
		<tag k="ssr:stedsnr" v="12156" />
	</node>
	<node id="-5097" lat="63.059419447" lon="7.83006944725">
		<tag k="fixme" v="consider natural=peak for the most distinct mountains in the district" />
		<tag k="name" v="Vassåsen" />
		<tag k="natural" v="hill" />
		<tag k="place" v="locality" />
		<tag k="ssr:stedsnr" v="922169" />
	</node>
	<node id="-5557" lat="63.1165138872" lon="7.69653889553">
		<tag k="name" v="Storhaugen" />
		<tag k="natural" v="hill" />
		<tag k="place" v="locality" />
		<tag k="ssr:stedsnr" v="954322" />
	</node>
	<node id="-5085" lat="63.129461111" lon="7.80468332491">
		<tag k="alt_name" v="Ovnan" />
		<tag k="name" v="Omnan" />
		<tag k="natural" v="valley" />
		<tag k="place" v="locality" />
		<tag k="ssr:stedsnr" v="833775" />
	</node>
	<node id="-5083" lat="63.1158861147" lon="7.80261944445">
		<tag k="name" v="Daudmannsdalen" />
		<tag k="natural" v="valley" />
		<tag k="place" v="locality" />
		<tag k="ssr:stedsnr" v="833554" />
	</node>
	<node id="-5069" lat="63.1211694467" lon="7.8591111129">
		<tag k="name" v="Sandvikhaugen" />
		<tag k="natural" v="hill" />
		<tag k="place" v="locality" />
		<tag k="ssr:stedsnr" v="923310" />
	</node>
	<node id="-5052" lat="63.1131944416" lon="7.84065276827">
		<tag k="name" v="Reset" />
		<tag k="natural" v="slope" />
		<tag k="place" v="locality" />
		<tag k="ssr:stedsnr" v="772505" />
	</node>
	<node id="-5050" lat="63.0237249983" lon="7.80421388483">
		<tag k="name" v="Kjerkehaugen" />
		<tag k="natural" v="hill" />
		<tag k="place" v="locality" />
		<tag k="ssr:stedsnr" v="772071" />
	</node>
	<node id="-5561" lat="63.1113138903" lon="7.76336666087">
		<tag k="name" v="Kråkhaugen" />
		<tag k="natural" v="hill" />
		<tag k="place" v="locality" />
		<tag k="ssr:stedsnr" v="954528" />
	</node>
	<node id="-5047" lat="63.0413333295" lon="7.74577500878">
		<tag k="name" v="Røykjarhuset" />
		<tag k="place" v="locality" />
		<tag k="ssr:stedsnr" v="771858" />
	</node>
	<node id="-5045" lat="63.0605666683" lon="7.80523333865">
		<tag k="name" v="Sødalsskaret" />
		<tag k="natural" v="valley" />
		<tag k="place" v="locality" />
		<tag k="ssr:stedsnr" v="772115" />
	</node>
	<node id="-5044" lat="63.0594972248" lon="7.80448332521">
		<tag k="name" v="Svartliteigen" />
		<tag k="natural" v="slope" />
		<tag k="place" v="locality" />
		<tag k="ssr:stedsnr" v="771266" />
	</node>
	<node id="-5552" lat="63.0391861118" lon="7.77089999688">
		<tag k="name" v="Tretthaugen" />
		<tag k="natural" v="hill" />
		<tag k="place" v="locality" />
		<tag k="ssr:stedsnr" v="954083" />
	</node>
	<node id="-5548" lat="63.0449194446" lon="7.72739166298">
		<tag k="name" v="Hjellhaugen" />
		<tag k="natural" v="hill" />
		<tag k="place" v="locality" />
		<tag k="ssr:stedsnr" v="953852" />
	</node>
	<node id="-5545" lat="63.0502000015" lon="7.77442221749">
		<tag k="name" v="Seterlia" />
		<tag k="natural" v="slope" />
		<tag k="place" v="locality" />
		<tag k="ssr:stedsnr" v="953258" />
	</node>
	<node id="-5543" lat="63.0404777736" lon="7.82727499287">
		<tag k="name" v="Pikhaugen" />
		<tag k="natural" v="hill" />
		<tag k="place" v="locality" />
		<tag k="ssr:stedsnr" v="953247" />
	</node>
	<node id="-5542" lat="63.0450361068" lon="7.84078888516">
		<tag k="name" v="Heggedalshaugen" />
		<tag k="natural" v="hill" />
		<tag k="place" v="locality" />
		<tag k="ssr:stedsnr" v="953246" />
	</node>
	<node id="-5537" lat="63.1176916659" lon="7.74515834021">
		<tag k="name" v="Steinberget" />
		<tag k="natural" v="hill" />
		<tag k="place" v="locality" />
		<tag k="ssr:stedsnr" v="953332" />
	</node>
	<node id="-4848" lat="63.0446472209" lon="7.81084999451">
		<tag k="name" v="Grønlia" />
		<tag k="natural" v="slope" />
		<tag k="place" v="locality" />
		<tag k="ssr:stedsnr" v="347005" />
	</node>
	<node id="-5022" lat="63.0554555551" lon="7.87995834094">
		<tag k="name" v="Kongshaugen" />
		<tag k="natural" v="hill" />
		<tag k="place" v="locality" />
		<tag k="ssr:stedsnr" v="712213" />
	</node>
	<node id="-5021" lat="63.0421111129" lon="7.80493055631">
		<tag k="name" v="Grønlihalsen" />
		<tag k="natural" v="ridge" />
		<tag k="place" v="locality" />
		<tag k="ssr:stedsnr" v="711009" />
	</node>
	<node id="-5531" lat="63.0754222227" lon="7.84421388098">
		<tag k="name" v="Litlskarven" />
		<tag k="natural" v="hill" />
		<tag k="place" v="locality" />
		<tag k="ssr:stedsnr" v="862351" />
	</node>
	<node id="-5524" lat="63.0377388854" lon="7.72862500489">
		<tag k="name" v="Trollhaugen" />
		<tag k="natural" v="hill" />
		<tag k="place" v="locality" />
		<tag k="ssr:stedsnr" v="862157" />
	</node>
	<node id="-5010" lat="63.1064499986" lon="7.73520556421">
		<tag k="name" v="Wesselhaugen" />
		<tag k="natural" v="hill" />
		<tag k="place" v="locality" />
		<tag k="ssr:stedsnr" v="893682" />
	</node>
	<node id="-5005" lat="63.12362778" lon="7.82630555231">
		<tag k="name" v="Nonshaugen" />
		<tag k="natural" v="hill" />
		<tag k="place" v="locality" />
		<tag k="ssr:stedsnr" v="893519" />
	</node>
	<node id="-5004" lat="63.1168361155" lon="7.71931944819">
		<tag k="alt_name" v="Storvarden" />
		<tag k="name" v="Varden" />
		<tag k="natural" v="hill" />
		<tag k="place" v="locality" />
		<tag k="ssr:stedsnr" v="893312" />
	</node>
	<node id="-5003" lat="63.1218305586" lon="7.73757499435">
		<tag k="name" v="Stortuva" />
		<tag k="natural" v="hill" />
		<tag k="place" v="locality" />
		<tag k="ssr:stedsnr" v="893310" />
	</node>
	<node id="-4759" lat="63.0418333313" lon="7.77873054614">
		<tag k="fixme" v="consider natural=peak for the most distinct mountains in the district" />
		<tag k="name" v="Freiåsen" />
		<tag k="natural" v="hill" />
		<tag k="place" v="locality" />
		<tag k="ssr:stedsnr" v="255161" />
	</node>
	<node id="-5512" lat="63.1325305586" lon="7.84184721696">
		<tag k="name" v="Stavbrekka" />
		<tag k="natural" v="hill" />
		<tag k="place" v="locality" />
		<tag k="ssr:stedsnr" v="833751" />
	</node>
	<node id="-4999" lat="63.0478055584" lon="7.81964444539">
		<tag k="name" v="Grønhaugen" />
		<tag k="natural" v="hill" />
		<tag k="place" v="locality" />
		<tag k="ssr:stedsnr" v="893241" />
	</node>
	<node id="-4998" lat="63.0424027821" lon="7.83965276868">
		<tag k="name" v="Pikhaugen" />
		<tag k="natural" v="hill" />
		<tag k="place" v="locality" />
		<tag k="ssr:stedsnr" v="893240" />
	</node>
	<node id="-4996" lat="63.0748361091" lon="7.79715278575">
		<tag k="name" v="Nordlia" />
		<tag k="natural" v="slope" />
		<tag k="place" v="locality" />
		<tag k="ssr:stedsnr" v="893121" />
	</node>
	<node id="-5507" lat="63.0373583353" lon="7.82101389054">
		<tag k="name" v="Sandbrekka" />
		<tag k="natural" v="slope" />
		<tag k="place" v="locality" />
		<tag k="ssr:stedsnr" v="833090" />
	</node>
	<node id="-5504" lat="63.0387138915" lon="7.73966666818">
		<tag k="name" v="Svartdalen" />
		<tag k="natural" v="valley" />
		<tag k="place" v="locality" />
		<tag k="ssr:stedsnr" v="832881" />
	</node>
	<node id="-5497" lat="63.0850888903" lon="7.73934722602">
		<tag k="name" v="Daudemanshaugen" />
		<tag k="natural" v="hill" />
		<tag k="place" v="locality" />
		<tag k="ssr:stedsnr" v="832838" />
	</node>
	<node id="-5012" lat="63.1278055525" lon="7.86576944468">
		<tag k="name" v="Gildreberget" />
		<tag k="natural" v="hill" />
		<tag k="place" v="locality" />
		<tag k="ssr:stedsnr" v="893738" />
	</node>
	<node id="-5494" lat="63.0601388898" lon="7.79709445362">
		<tag k="name" v="Kistå" />
		<tag k="natural" v="hill" />
		<tag k="place" v="locality" />
		<tag k="ssr:stedsnr" v="832275" />
	</node>
	<node id="-5493" lat="63.0544694484" lon="7.78241943472">
		<tag k="name" v="Skarhaugen" />
		<tag k="natural" v="hill" />
		<tag k="place" v="locality" />
		<tag k="ssr:stedsnr" v="832272" />
	</node>
	<node id="-5480" lat="63.1340861129" lon="7.7420083369">
		<tag k="name" v="Kleppen" />
		<tag k="natural" v="hill" />
		<tag k="place" v="locality" />
		<tag k="ssr:stedsnr" v="801258" />
	</node>
	<node id="-5475" lat="63.126991665" lon="7.76826111793">
		<tag k="name" v="Karibrunnen" />
		<tag k="place" v="locality" />
		<tag k="ssr:stedsnr" v="772712" />
	</node>
	<node id="-5470" lat="63.1155444409" lon="7.86369166688">
		<tag k="name" v="Lauvhaugen" />
		<tag k="natural" v="hill" />
		<tag k="place" v="locality" />
		<tag k="ssr:stedsnr" v="772539" />
	</node>
	<node id="-4953" lat="63.1146416658" lon="7.84573610514">
		<tag k="name" v="Geilhaugen" />
		<tag k="natural" v="hill" />
		<tag k="place" v="locality" />
		<tag k="ssr:stedsnr" v="590518" />
	</node>
	<node id="-4951" lat="63.0689305547" lon="7.7241166723">
		<tag k="name" v="Øverlia" />
		<tag k="natural" v="slope" />
		<tag k="place" v="locality" />
		<tag k="ssr:stedsnr" v="589856" />
	</node>
	<node id="-4947" lat="63.1221638846" lon="7.83309166031">
		<tag k="name" v="Småbøen" />
		<tag k="natural" v="hill" />
		<tag k="place" v="locality" />
		<tag k="ssr:stedsnr" v="711506" />
	</node>
	<node id="-4946" lat="63.1155472242" lon="7.84342221444">
		<tag k="name" v="Geilhaugdalen" />
		<tag k="natural" v="valley" />
		<tag k="place" v="locality" />
		<tag k="ssr:stedsnr" v="711496" />
	</node>
	<node id="-4944" lat="63.0432694453" lon="7.75701944784">
		<tag k="name" v="Langlia" />
		<tag k="natural" v="slope" />
		<tag k="place" v="locality" />
		<tag k="ssr:stedsnr" v="589256" />
	</node>
	<node id="-4942" lat="63.0641500031" lon="7.88061943573">
		<tag k="name" v="Geillia" />
		<tag k="natural" v="slope" />
		<tag k="place" v="locality" />
		<tag k="ssr:stedsnr" v="711400" />
	</node>
	<node id="-5452" lat="63.1149250004" lon="7.69771943839">
		<tag k="name" v="Klubba" />
		<tag k="natural" v="hill" />
		<tag k="place" v="locality" />
		<tag k="ssr:stedsnr" v="740692" />
	</node>
	<node id="-4937" lat="63.0554083296" lon="7.77109166686">
		<tag k="name" v="Ørnreirrabben" />
		<tag k="natural" v="cliff" />
		<tag k="ssr:stedsnr" v="710269" />
	</node>
	<node id="-4935" lat="63.0437000026" lon="7.81798333926">
		<tag k="name" v="Hekkeltindan" />
		<tag k="natural" v="hill" />
		<tag k="place" v="locality" />
		<tag k="ssr:stedsnr" v="710248" />
	</node>
	<node id="-4934" lat="63.0943000024" lon="7.79210556124">
		<tag k="name" v="Skarvhammaren" />
		<tag k="natural" v="hill" />
		<tag k="place" v="locality" />
		<tag k="ssr:stedsnr" v="710180" />
	</node>
	<node id="-5444" lat="63.0683166676" lon="7.78864444008">
		<tag k="fixme" v="consider natural=peak for the most distinct mountains in the district" />
		<tag k="name" v="Midtfjellet" />
		<tag k="natural" v="hill" />
		<tag k="place" v="locality" />
		<tag k="ssr:stedsnr" v="740174" />
	</node>
	<node id="-4929" lat="63.039074999" lon="7.7087777716">
		<tag k="fixme" v="consider natural=peak for the most distinct mountains in the district" />
		<tag k="name" v="Sildvolnesåsen" />
		<tag k="natural" v="hill" />
		<tag k="place" v="locality" />
		<tag k="ssr:stedsnr" v="558608" />
	</node>
	<node id="-5438" lat="63.0986388908" lon="7.88779721457">
		<tag k="name" v="Slåsthammaren" />
		<tag k="natural" v="hill" />
		<tag k="place" v="locality" />
		<tag k="ssr:stedsnr" v="651361" />
	</node>
	<node id="-4925" lat="63.0462861129" lon="7.74395554589">
		<tag k="fixme" v="consider natural=peak for the most distinct mountains in the district" />
		<tag k="name" v="Lågfjellet" />
		<tag k="natural" v="hill" />
		<tag k="place" v="locality" />
		<tag k="ssr:stedsnr" v="558162" />
	</node>
	<node id="-4922" lat="63.1282722263" lon="7.84185555116">
		<tag k="name" v="Storhammaren" />
		<tag k="natural" v="hill" />
		<tag k="place" v="locality" />
		<tag k="ssr:stedsnr" v="529758" />
	</node>
	<node id="-5433" lat="63.1310222267" lon="7.7750555601">
		<tag k="name" v="Valan" />
		<tag k="natural" v="hill" />
		<tag k="place" v="locality" />
		<tag k="ssr:stedsnr" v="650747" />
	</node>
	<node id="-4920" lat="63.0836333337" lon="7.83622222798">
		<tag k="name" v="Kjellhaugen" />
		<tag k="natural" v="hill" />
		<tag k="place" v="locality" />
		<tag k="ssr:stedsnr" v="529158" />
	</node>
	<node id="-4919" lat="63.0780277792" lon="7.84357223178">
		<tag k="name" v="Rødalen" />
		<tag k="natural" v="valley" />
		<tag k="place" v="locality" />
		<tag k="ssr:stedsnr" v="529007" />
	</node>
	<node id="-5430" lat="63.1165222214" lon="7.87356111668">
		<tag k="name" v="Vonahammaren" />
		<tag k="natural" v="hill" />
		<tag k="place" v="locality" />
		<tag k="ssr:stedsnr" v="650496" />
	</node>
	<node id="-5426" lat="63.0769805521" lon="7.7617472312">
		<tag k="name" v="Middagsskaret" />
		<tag k="natural" v="valley" />
		<tag k="place" v="locality" />
		<tag k="ssr:stedsnr" v="650027" />
	</node>
	<node id="-4912" lat="63.1179222232" lon="7.80916110713">
		<tag k="name" v="Kvernberget" />
		<tag k="natural" v="hill" />
		<tag k="place" v="locality" />
		<tag k="ssr:stedsnr" v="498331" />
	</node>
	<node id="-5423" lat="63.0804083363" lon="7.81949999182">
		<tag k="name" v="Guridalen" />
		<tag k="natural" v="valley" />
		<tag k="place" v="locality" />
		<tag k="ssr:stedsnr" v="650005" />
	</node>
	<node id="-5422" lat="63.0853944479" lon="7.86284999383">
		<tag k="name" v="Bjerkelia" />
		<tag k="natural" v="slope" />
		<tag k="place" v="locality" />
		<tag k="ssr:stedsnr" v="650142" />
	</node>
	<node id="-4909" lat="63.0640499979" lon="7.78832777982">
		<tag k="fixme" v="consider natural=peak for the most distinct mountains in the district" />
		<tag k="name" v="Kistfjellet" />
		<tag k="natural" v="hill" />
		<tag k="place" v="locality" />
		<tag k="ssr:stedsnr" v="680191" />
	</node>
	<node id="-5419" lat="63.0444694401" lon="7.70795277413">
		<tag k="name" v="Sommarstuhaugen" />
		<tag k="natural" v="hill" />
		<tag k="place" v="locality" />
		<tag k="ssr:stedsnr" v="649846" />
	</node>
	<node id="-5418" lat="63.0575277746" lon="7.80353611088">
		<tag k="name" v="Svartlia" />
		<tag k="natural" v="slope" />
		<tag k="place" v="locality" />
		<tag k="ssr:stedsnr" v="649245" />
	</node>
	<node id="-5417" lat="63.0423805593" lon="7.84538332656">
		<tag k="name" v="Orhamran" />
		<tag k="place" v="locality" />
		<tag k="ssr:stedsnr" v="649233" />
	</node>
	<node id="-4898" lat="63.0779333368" lon="7.7995694408">
		<tag k="name" v="Vågaksla" />
		<tag k="natural" v="hill" />
		<tag k="place" v="locality" />
		<tag k="ssr:stedsnr" v="679281" />
	</node>
	<node id="-4897" lat="63.0790722183" lon="7.72339722106">
		<tag k="name" v="Kuhaugen" />
		<tag k="natural" v="hill" />
		<tag k="place" v="locality" />
		<tag k="ssr:stedsnr" v="679275" />
	</node>
	<node id="-4894" lat="63.1276916671" lon="7.74408332838">
		<tag k="name" v="Høghaugen" />
		<tag k="natural" v="hill" />
		<tag k="place" v="locality" />
		<tag k="ssr:stedsnr" v="468717" />
	</node>
	<node id="-5405" lat="63.0581194403" lon="7.75949167169">
		<tag k="name" v="Blåhylla" />
		<tag k="natural" v="hill" />
		<tag k="place" v="locality" />
		<tag k="ssr:stedsnr" v="619194" />
	</node>
	<node id="-5404" lat="63.0584944444" lon="7.85178889085">
		<tag k="fixme" v="consider natural=peak for the most distinct mountains in the district" />
		<tag k="name" v="Litlbreilia" />
		<tag k="natural" v="hill" />
		<tag k="place" v="locality" />
		<tag k="ssr:stedsnr" v="619192" />
	</node>
	<node id="-5403" lat="63.041375002" lon="7.75727777494">
		<tag k="fixme" v="consider natural=peak for the most distinct mountains in the district" />
		<tag k="name" v="Fagerlia" />
		<tag k="natural" v="hill" />
		<tag k="place" v="locality" />
		<tag k="ssr:stedsnr" v="619179" />
	</node>
	<node id="-5402" lat="63.0470194486" lon="7.78899721268">
		<tag k="name" v="Ytre Jonsokhaugen" />
		<tag k="natural" v="hill" />
		<tag k="place" v="locality" />
		<tag k="ssr:stedsnr" v="619172" />
	</node>
	<node id="-4911" lat="63.1126916685" lon="7.85518055652">
		<tag k="name" v="Kutrøhaugen" />
		<tag k="natural" v="hill" />
		<tag k="place" v="locality" />
		<tag k="ssr:stedsnr" v="498325" />
	</node>
	<node id="-5399" lat="63.0736333294" lon="7.80061945327">
		<tag k="name" v="Sødalen" />
		<tag k="natural" v="valley" />
		<tag k="place" v="locality" />
		<tag k="ssr:stedsnr" v="618311" />
	</node>
	<node id="-5398" lat="63.0735444407" lon="7.81010278712">
		<tag k="name" v="Breilia" />
		<tag k="natural" v="hill" />
		<tag k="place" v="locality" />
		<tag k="ssr:stedsnr" v="618309" />
	</node>
	<node id="-5385" lat="63.0796055539" lon="7.83176666855">
		<tag k="name" v="Mehaugen" />
		<tag k="natural" v="hill" />
		<tag k="place" v="locality" />
		<tag k="ssr:stedsnr" v="590001" />
	</node>
	<node id="-5383" lat="63.1271722181" lon="7.76443333179">
		<tag k="name" v="Sankthanshaugen" />
		<tag k="natural" v="hill" />
		<tag k="place" v="locality" />
		<tag k="ssr:stedsnr" v="589782" />
	</node>
	<node id="-5379" lat="63.0904194487" lon="7.82805555012">
		<tag k="name" v="Stangarhaugen" />
		<tag k="natural" v="hill" />
		<tag k="place" v="locality" />
		<tag k="ssr:stedsnr" v="589171" />
	</node>
	<node id="-4907" lat="63.133886111" lon="7.83092222981">
		<tag k="name" v="Ørnberget" />
		<tag k="natural" v="hill" />
		<tag k="place" v="locality" />
		<tag k="ssr:stedsnr" v="680295" />
	</node>
	<node id="-5376" lat="63.109430552" lon="7.71841944115">
		<tag k="name" v="Fløya" />
		<tag k="natural" v="hill" />
		<tag k="place" v="locality" />
		<tag k="ssr:stedsnr" v="589327" />
	</node>
	<node id="-4861" lat="63.0834194457" lon="7.8363138805">
		<tag k="name" v="Kjelhaugen" />
		<tag k="natural" v="hill" />
		<tag k="place" v="locality" />
		<tag k="ssr:stedsnr" v="497324" />
	</node>
	<node id="-5515" lat="63.0916166689" lon="7.78809445059">
		<tag k="name" v="Våghammaren" />
		<tag k="natural" v="hill" />
		<tag k="place" v="locality" />
		<tag k="ssr:stedsnr" v="845346" />
	</node>
	<node id="-5360" lat="63.0383444459" lon="7.75543054637">
		<tag k="name" v="Seterhaugen" />
		<tag k="natural" v="hill" />
		<tag k="place" v="locality" />
		<tag k="ssr:stedsnr" v="558150" />
	</node>
	<node id="-4847" lat="63.0670944463" lon="7.83780000904">
		<tag k="name" v="Seterhaugen" />
		<tag k="natural" v="hill" />
		<tag k="place" v="locality" />
		<tag k="ssr:stedsnr" v="347002" />
	</node>
	<node id="-5358" lat="63.0538666634" lon="7.81763332913">
		<tag k="fixme" v="consider natural=peak for the most distinct mountains in the district" />
		<tag k="name" v="Hysåsen" />
		<tag k="natural" v="hill" />
		<tag k="place" v="locality" />
		<tag k="ssr:stedsnr" v="558180" />
	</node>
	<node id="-5357" lat="63.0552361146" lon="7.79571667443">
		<tag k="fixme" v="consider natural=peak for the most distinct mountains in the district" />
		<tag k="name" v="Rytteråsen" />
		<tag k="natural" v="hill" />
		<tag k="place" v="locality" />
		<tag k="ssr:stedsnr" v="558179" />
	</node>
	<node id="-5353" lat="63.1149833333" lon="7.81257223068">
		<tag k="name" v="Pikhaugen" />
		<tag k="natural" v="hill" />
		<tag k="place" v="locality" />
		<tag k="ssr:stedsnr" v="541212" />
	</node>
	<node id="-4838" lat="63.1215833376" lon="7.73305278101">
		<tag k="name" v="Hegerberget" />
		<tag k="natural" v="hill" />
		<tag k="place" v="locality" />
		<tag k="ssr:stedsnr" v="344463" />
	</node>
	<node id="-5346" lat="63.0286999965" lon="7.74550000624">
		<tag k="name" v="Storhaugen" />
		<tag k="natural" v="hill" />
		<tag k="place" v="locality" />
		<tag k="ssr:stedsnr" v="529896" />
	</node>
	<node id="-5345" lat="63.1199305594" lon="7.75602777816">
		<tag k="name" v="Bleikvollen" />
		<tag k="natural" v="hill" />
		<tag k="place" v="locality" />
		<tag k="ssr:stedsnr" v="529536" />
	</node>
	<node id="-5344" lat="63.11361944" lon="7.80741943953">
		<tag k="name" v="Daudmannsholet" />
		<tag k="natural" v="valley" />
		<tag k="place" v="locality" />
		<tag k="ssr:stedsnr" v="529534" />
	</node>
	<node id="-5336" lat="63.0450305577" lon="7.84606666513">
		<tag k="name" v="Skifteslebakken" />
		<tag k="natural" v="slope" />
		<tag k="place" v="locality" />
		<tag k="ssr:stedsnr" v="528259" />
	</node>
	<node id="-5335" lat="63.0492500006" lon="7.84964445128">
		<tag k="name" v="Skjenstølia" />
		<tag k="natural" v="slope" />
		<tag k="place" v="locality" />
		<tag k="ssr:stedsnr" v="528170" />
	</node>
	<node id="-5326" lat="63.0770999988" lon="7.75896110918">
		<tag k="name" v="Leabakken" />
		<tag k="natural" v="slope" />
		<tag k="place" v="locality" />
		<tag k="ssr:stedsnr" v="437357" />
	</node>
	<node id="-5320" lat="63.0494861128" lon="7.84043610504">
		<tag k="fixme" v="consider natural=peak for the most distinct mountains in the district" />
		<tag k="name" v="Ratlia" />
		<tag k="natural" v="hill" />
		<tag k="place" v="locality" />
		<tag k="ssr:stedsnr" v="437175" />
	</node>
	<node id="-4807" lat="63.0351888901" lon="7.74201943583">
		<tag k="name" v="Løftra" />
		<tag k="natural" v="slope" />
		<tag k="place" v="locality" />
		<tag k="ssr:stedsnr" v="468873" />
	</node>
	<node id="-4805" lat="63.0564749966" lon="7.7369972254">
		<tag k="name" v="Kryperviklia" />
		<tag k="natural" v="slope" />
		<tag k="place" v="locality" />
		<tag k="ssr:stedsnr" v="468859" />
	</node>
	<node id="-5019" lat="63.0879527743" lon="7.88030277447">
		<tag k="name" v="Ørnhaugen" />
		<tag k="natural" v="hill" />
		<tag k="place" v="locality" />
		<tag k="ssr:stedsnr" v="894380" />
	</node>
	<node id="-5307" lat="63.1278694403" lon="7.86067221776">
		<tag k="name" v="Sandvikhaugen" />
		<tag k="natural" v="hill" />
		<tag k="place" v="locality" />
		<tag k="ssr:stedsnr" v="408748" />
	</node>
	<node id="-5306" lat="63.1304555514" lon="7.78729722064">
		<tag k="name" v="Aspan" />
		<tag k="natural" v="slope" />
		<tag k="place" v="locality" />
		<tag k="ssr:stedsnr" v="408718" />
	</node>
	<node id="-5305" lat="63.1174638877" lon="7.75419722338">
		<tag k="name" v="Flaggstonghaugen" />
		<tag k="natural" v="hill" />
		<tag k="place" v="locality" />
		<tag k="ssr:stedsnr" v="408561" />
	</node>
	<node id="-4791" lat="63.0565916704" lon="7.85261389037">
		<tag k="name" v="Rambjørdalen" />
		<tag k="natural" v="valley" />
		<tag k="place" v="locality" />
		<tag k="ssr:stedsnr" v="468163" />
	</node>
	<node id="-4790" lat="63.0684194483" lon="7.8753027747">
		<tag k="name" v="Kvalvågdalen" />
		<tag k="natural" v="valley" />
		<tag k="place" v="locality" />
		<tag k="ssr:stedsnr" v="468038" />
	</node>
	<node id="-5299" lat="63.062513891" lon="7.87463332719">
		<tag k="name" v="Storkleivhaugen" />
		<tag k="natural" v="hill" />
		<tag k="place" v="locality" />
		<tag k="ssr:stedsnr" v="408029" />
	</node>
	<node id="-5294" lat="63.0600416701" lon="7.86303054622">
		<tag k="name" v="Litlkleivhaugen" />
		<tag k="natural" v="hill" />
		<tag k="place" v="locality" />
		<tag k="ssr:stedsnr" v="407178" />
	</node>
	<node id="-4776" lat="63.0400916701" lon="7.74086111503">
		<tag k="name" v="Brentberget" />
		<tag k="natural" v="hill" />
		<tag k="place" v="locality" />
		<tag k="ssr:stedsnr" v="286877" />
	</node>
	<node id="-4773" lat="63.1313749983" lon="7.78626667344">
		<tag k="name" v="Pikhaugen" />
		<tag k="natural" v="hill" />
		<tag k="place" v="locality" />
		<tag k="ssr:stedsnr" v="286767" />
	</node>
	<node id="-5283" lat="63.0740111134" lon="7.8428638884">
		<tag k="name" v="Storskarven" />
		<tag k="natural" v="hill" />
		<tag k="place" v="locality" />
		<tag k="ssr:stedsnr" v="376350" />
	</node>
	<node id="-4770" lat="63.1056972252" lon="7.74104722064">
		<tag k="name" v="Bautaen" />
		<tag k="natural" v="hill" />
		<tag k="place" v="locality" />
		<tag k="ssr:stedsnr" v="286305" />
	</node>
	<node id="-5281" lat="63.0482888912" lon="7.83209722425">
		<tag k="name" v="Dyrhaugan" />
		<tag k="natural" v="hill" />
		<tag k="place" v="locality" />
		<tag k="ssr:stedsnr" v="376142" />
	</node>
	<node id="-4768" lat="63.1125666672" lon="7.74968056418">
		<tag k="name" v="Bjørnehaugen" />
		<tag k="natural" v="hill" />
		<tag k="place" v="locality" />
		<tag k="ssr:stedsnr" v="286303" />
	</node>
	<node id="-4766" lat="63.0845749995" lon="7.84578333764">
		<tag k="name" v="Seterhaugen" />
		<tag k="natural" v="hill" />
		<tag k="place" v="locality" />
		<tag k="ssr:stedsnr" v="286158" />
	</node>
	<node id="-5273" lat="63.1308055546" lon="7.73659999471">
		<tag k="name" v="Langhaugen" />
		<tag k="natural" v="hill" />
		<tag k="place" v="locality" />
		<tag k="ssr:stedsnr" v="347731" />
	</node>
	<node id="-5272" lat="63.1284416669" lon="7.80577499705">
		<tag k="name" v="Blåbærdalen" />
		<tag k="natural" v="valley" />
		<tag k="place" v="locality" />
		<tag k="ssr:stedsnr" v="347775" />
	</node>
	<node id="-5271" lat="63.1192194405" lon="7.77201388658">
		<tag k="alt_name" v="Høttberga" />
		<tag k="name" v="Hytteberga" />
		<tag k="natural" v="hill" />
		<tag k="place" v="locality" />
		<tag k="ssr:stedsnr" v="347529" />
	</node>
	<node id="-5258" lat="63.0684472231" lon="7.79263333045">
		<tag k="name" v="Sørlia" />
		<tag k="natural" v="slope" />
		<tag k="place" v="locality" />
		<tag k="ssr:stedsnr" v="347022" />
	</node>
	<node id="-4744" lat="63.096458333" lon="7.80793889488">
		<tag k="name" v="Jørihaugen" />
		<tag k="natural" v="hill" />
		<tag k="place" v="locality" />
		<tag k="ssr:stedsnr" v="194326" />
	</node>
	<node id="-4739" lat="63.1128777771" lon="7.8468805526">
		<tag k="name" v="Møstilihaugen" />
		<tag k="natural" v="hill" />
		<tag k="place" v="locality" />
		<tag k="ssr:stedsnr" v="287548" />
	</node>
	<node id="-4736" lat="63.0357472183" lon="7.73070278344">
		<tag k="name" v="Møsthaugen" />
		<tag k="natural" v="hill" />
		<tag k="old_name" v="Masthaugen" />
		<tag k="place" v="locality" />
		<tag k="ssr:stedsnr" v="286892" />
	</node>
	<node id="-4719" lat="63.1284333368" lon="7.76543610965">
		<tag k="name" v="Torvhaugen" />
		<tag k="natural" v="hill" />
		<tag k="place" v="locality" />
		<tag k="ssr:stedsnr" v="165802" />
	</node>
	<node id="-4716" lat="63.121583332" lon="7.7523638889">
		<tag k="name" v="Pikhaugen" />
		<tag k="natural" v="hill" />
		<tag k="place" v="locality" />
		<tag k="ssr:stedsnr" v="165517" />
	</node>
	<node id="-4715" lat="63.1237972217" lon="7.83327777201">
		<tag k="name" v="Tyskeplana" />
		<tag k="natural" v="hill" />
		<tag k="place" v="locality" />
		<tag k="ssr:stedsnr" v="165513" />
	</node>
	<node id="-4714" lat="63.1231499969" lon="7.8168222258">
		<tag k="name" v="Hubroholet" />
		<tag k="place" v="locality" />
		<tag k="ssr:stedsnr" v="165507" />
	</node>
	<node id="-4712" lat="63.1179111142" lon="7.70944443623">
		<tag k="name" v="Lynghaugan" />
		<tag k="natural" v="hill" />
		<tag k="place" v="locality" />
		<tag k="ssr:stedsnr" v="165320" />
	</node>
	<node id="-5222" lat="63.0903750014" lon="7.74771943718">
		<tag k="name" v="Gryta" />
		<tag k="natural" v="valley" />
		<tag k="place" v="locality" />
		<tag k="ssr:stedsnr" v="164831" />
	</node>
	<node id="-4708" lat="63.0548166653" lon="7.85509722582">
		<tag k="name" v="Rambjørhamran" />
		<tag k="natural" v="hill" />
		<tag k="place" v="locality" />
		<tag k="ssr:stedsnr" v="164272" />
	</node>
	<node id="-5218" lat="63.057024997" lon="7.79023611183">
		<tag k="name" v="Smetlingberget" />
		<tag k="natural" v="hill" />
		<tag k="place" v="locality" />
		<tag k="ssr:stedsnr" v="164297" />
	</node>
	<node id="-4698" lat="63.0495166689" lon="7.70896944314">
		<tag k="name" v="St.Hanshaugen" />
		<tag k="natural" v="hill" />
		<tag k="place" v="locality" />
		<tag k="ssr:stedsnr" v="104856" />
	</node>
	<node id="-4845" lat="63.0351416689" lon="7.74528055267">
		<tag k="name" v="Endresetlia" />
		<tag k="natural" v="slope" />
		<tag k="place" v="locality" />
		<tag k="ssr:stedsnr" v="346871" />
	</node>
	<node id="-4963" lat="63.0266222231" lon="7.80393888142">
		<tag k="name" v="Skrubbhaugen" />
		<tag k="natural" v="hill" />
		<tag k="old_name" v="Srubbhaugen" />
		<tag k="place" v="locality" />
		<tag k="ssr:stedsnr" v="650075" />
	</node>
	<node id="-5200" lat="63.0512555596" lon="7.7599027844">
		<tag k="fixme" v="consider natural=peak for the most distinct mountains in the district" />
		<tag k="name" v="Freikollen" />
		<tag k="natural" v="hill" />
		<tag k="place" v="locality" />
		<tag k="ssr:stedsnr" v="133152" />
	</node>
	<node id="-5188" lat="63.0727499971" lon="7.89188333979">
		<tag k="name" v="Kvalvågklubben" />
		<tag k="natural" v="hill" />
		<tag k="place" v="locality" />
		<tag k="ssr:stedsnr" v="105385" />
	</node>
	<node id="-5186" lat="63.0560722211" lon="7.87937500702">
		<tag k="name" v="Kongsvoll" />
		<tag k="natural" v="slope" />
		<tag k="place" v="locality" />
		<tag k="ssr:stedsnr" v="105288" />
	</node>
	<node id="-5185" lat="63.0625194456" lon="7.86840555393">
		<tag k="name" v="Harpskaret" />
		<tag k="natural" v="valley" />
		<tag k="place" v="locality" />
		<tag k="ssr:stedsnr" v="105032" />
	</node>
	<node id="-4671" lat="63.0640888911" lon="7.84683887929">
		<tag k="name" v="Augustdalen" />
		<tag k="natural" v="valley" />
		<tag k="place" v="locality" />
		<tag k="ssr:stedsnr" v="44002" />
	</node>
	<node id="-5182" lat="63.0470555523" lon="7.81151389365">
		<tag k="name" v="Orliaksla" />
		<tag k="place" v="locality" />
		<tag k="ssr:stedsnr" v="105006" />
	</node>
	<node id="-5181" lat="63.0677194462" lon="7.73342221411">
		<tag k="name" v="Rognbotnen" />
		<tag k="natural" v="valley" />
		<tag k="place" v="locality" />
		<tag k="ssr:stedsnr" v="104829" />
	</node>
	<node id="-5180" lat="63.1226416635" lon="7.78098056079">
		<tag k="name" v="Nausthaugen" />
		<tag k="natural" v="hill" />
		<tag k="place" v="locality" />
		<tag k="ssr:stedsnr" v="104542" />
	</node>
	<node id="-5176" lat="63.0429499999" lon="7.83987778229">
		<tag k="name" v="Brattstandaren" />
		<tag k="place" v="locality" />
		<tag k="ssr:stedsnr" v="104232" />
	</node>
	<node id="-4660" lat="63.1300972192" lon="7.78098055454">
		<tag k="name" v="Langhaugen" />
		<tag k="natural" v="hill" />
		<tag k="place" v="locality" />
		<tag k="ssr:stedsnr" v="226794" />
	</node>
	<node id="-4658" lat="63.1193111087" lon="7.78511110222">
		<tag k="name" v="Torvhaugen" />
		<tag k="natural" v="hill" />
		<tag k="place" v="locality" />
		<tag k="ssr:stedsnr" v="226572" />
	</node>
	<node id="-4787" lat="63.0520750002" lon="7.8104055564">
		<tag k="name" v="Skjenstødalen" />
		<tag k="natural" v="valley" />
		<tag k="place" v="locality" />
		<tag k="ssr:stedsnr" v="468010" />
	</node>
	<node id="-4655" lat="63.0858722227" lon="7.88603888854">
		<tag k="name" v="Skjeringa" />
		<tag k="natural" v="hill" />
		<tag k="place" v="locality" />
		<tag k="ssr:stedsnr" v="226388" />
	</node>
	<node id="-4654" lat="63.1070805564" lon="7.72157499043">
		<tag k="name" v="Batterihammaren" />
		<tag k="natural" v="hill" />
		<tag k="place" v="locality" />
		<tag k="ssr:stedsnr" v="226357" />
	</node>
	<node id="-4650" lat="63.0734916642" lon="7.81081111576">
		<tag k="fixme" v="consider natural=peak for the most distinct mountains in the district" />
		<tag k="name" v="Breilivarden" />
		<tag k="natural" v="hill" />
		<tag k="place" v="locality" />
		<tag k="ssr:stedsnr" v="226129" />
	</node>
	<node id="-4649" lat="63.0678333363" lon="7.81165555473">
		<tag k="fixme" v="consider natural=peak for the most distinct mountains in the district" />
		<tag k="name" v="Matlausfjellet" />
		<tag k="natural" v="hill" />
		<tag k="place" v="locality" />
		<tag k="ssr:stedsnr" v="226127" />
	</node>
	<node id="-4648" lat="63.0769027761" lon="7.87125554847">
		<tag k="fixme" v="consider natural=peak for the most distinct mountains in the district" />
		<tag k="name" v="Kleivåsen" />
		<tag k="natural" v="hill" />
		<tag k="place" v="locality" />
		<tag k="ssr:stedsnr" v="226027" />
	</node>
	<node id="-4647" lat="63.0550222212" lon="7.81361111047">
		<tag k="name" v="Julumteigen" />
		<tag k="place" v="locality" />
		<tag k="ssr:stedsnr" v="226009" />
	</node>
	<node id="-4646" lat="63.0305111123" lon="7.74524443937">
		<tag k="name" v="Bythalsen" />
		<tag k="natural" v="ridge" />
		<tag k="place" v="locality" />
		<tag k="ssr:stedsnr" v="225849" />
	</node>
	<node id="-5144" lat="63.1157305536" lon="7.86796666997">
		<tag k="name" v="Vonabakken" />
		<tag k="natural" v="slope" />
		<tag k="place" v="locality" />
		<tag k="ssr:stedsnr" v="44524" />
	</node>
	<node id="-5142" lat="63.0898416655" lon="7.88981111684">
		<tag k="name" v="Åneslia" />
		<tag k="natural" v="slope" />
		<tag k="place" v="locality" />
		<tag k="ssr:stedsnr" v="44338" />
	</node>
	<node id="-5140" lat="63.0391611107" lon="7.8277166702">
		<tag k="name" v="Orhammaren" />
		<tag k="place" v="locality" />
		<tag k="ssr:stedsnr" v="44101" />
	</node>
	<node id="-5139" lat="63.0373666687" lon="7.78633333253">
		<tag k="name" v="Torebakken" />
		<tag k="natural" v="slope" />
		<tag k="place" v="locality" />
		<tag k="ssr:stedsnr" v="44080" />
	</node>
	<node id="-4867" lat="63.117355554" lon="7.8328138875">
		<tag k="fixme" v="consider natural=peak for the most distinct mountains in the district" />
		<tag k="name" v="Høgåsen" />
		<tag k="natural" v="hill" />
		<tag k="place" v="locality" />
		<tag k="ssr:stedsnr" v="497425" />
	</node>
	<node id="-5133" lat="63.0744027751" lon="7.7454222318">
		<tag k="name" v="Middagsskarhaugen" />
		<tag k="natural" v="hill" />
		<tag k="place" v="locality" />
		<tag k="ssr:stedsnr" v="43850" />
	</node>
	<node id="-5128" lat="63.0523166681" lon="7.83074445288">
		<tag k="name" v="Bjerklia" />
		<tag k="natural" v="slope" />
		<tag k="place" v="locality" />
		<tag k="ssr:stedsnr" v="43216" />
	</node>
	<node id="-5126" lat="63.0957472208" lon="7.84594999024">
		<tag k="name" v="Rensvikhaugen" />
		<tag k="natural" v="hill" />
		<tag k="place" v="locality" />
		<tag k="ssr:stedsnr" v="43122" />
	</node>
	<node id="-5125" lat="63.1199944481" lon="7.71896667498">
		<tag k="name" v="St. Hanshaugen" />
		<tag k="natural" v="hill" />
		<tag k="place" v="locality" />
		<tag k="ssr:stedsnr" v="41500" />
	</node>
</osm>
