<?xml version="1.0" encoding="UTF-8"?>
<<<<<<< HEAD
<osm version="0.6" generator="osmapis">
	<node lat="63.05254444569181" lon="7.852191662112139" id="-1012">
		<tag k="name" v="Bjerkestrandelva" />
		<tag k="ssr:stedsnr" v="104230" />
		<tag k="waterway" v="stream" />
	</node>
	<node lat="63.09295833189279" lon="7.8219666571808135" id="-1022">
		<tag k="name" v="Rensvikvatnet" />
		<tag k="natural" v="water" />
		<tag k="ssr:stedsnr" v="134357" />
		<tag k="water" v="lake" />
	</node>
	<node lat="63.09001666515446" lon="7.82588611385732" id="-1039">
=======
<osm generator="osmapis" version="0.6">
	<node id="-44927" lat="63.0541472265" lon="7.73222499013">
		<tag k="name" v="Krypervikelva" />
		<tag k="ssr:stedsnr" v="286888" />
		<tag k="waterway" v="stream" />
	</node>
	<node id="-45563" lat="63.1142666679" lon="7.76661388905">
		<tag k="name" v="Røssern" />
		<tag k="natural" v="water" />
		<tag k="ssr:stedsnr" v="566583" />
	</node>
	<node id="-44921" lat="63.037938885" lon="7.77691389798">
		<tag k="name" v="Flatsetdammen" />
		<tag k="ssr:stedsnr" v="286083" />
		<tag k="waterway" v="dam" />
	</node>
	<node id="-45294" lat="63.0842166686" lon="7.78348333456">
		<tag k="name" v="Sødalselva" />
		<tag k="ssr:stedsnr" v="954018" />
		<tag k="waterway" v="stream" />
	</node>
	<node id="-45420" lat="63.0900166652" lon="7.82588611386">
>>>>>>> e1d4bc35ff8a6074a6f2e91616a996b547c36f15
		<tag k="name" v="Grønvikbekken" />
		<tag k="ssr:stedsnr" v="165134" />
		<tag k="waterway" v="stream" />
	</node>
<<<<<<< HEAD
	<node lat="63.06882777606426" lon="7.881288890341021" id="-1059">
		<tag k="name" v="Kvalvågelva" />
		<tag k="ssr:stedsnr" v="226407" />
		<tag k="waterway" v="stream" />
	</node>
	<node lat="63.129483333002796" lon="7.703336109682276" id="-1065">
		<tag k="name" v="Lille Kari" />
		<tag k="natural" v="water" />
		<tag k="ssr:stedsnr" v="238835" />
	</node>
	<node lat="63.0541472264561" lon="7.732224990125898" id="-1078">
		<tag k="name" v="Krypervikelva" />
		<tag k="ssr:stedsnr" v="286888" />
		<tag k="waterway" v="stream" />
	</node>
	<node lat="63.06904166877425" lon="7.830138883800652" id="-1089">
		<tag k="name" v="Kjerringvatnet" />
=======
	<node id="-45675" lat="63.0399277762" lon="7.77323611956">
		<tag k="name" v="Flatsetelva" />
		<tag k="ssr:stedsnr" v="802160" />
		<tag k="waterway" v="stream" />
	</node>
	<node id="-45034" lat="63.0570055586" lon="7.80738055386">
		<tag k="name" v="Svartlibekken" />
		<tag k="ssr:stedsnr" v="346257" />
		<tag k="waterway" v="stream" />
	</node>
	<node id="-45417" lat="63.0316444481" lon="7.73804723049">
		<tag k="name" v="Endresetbekken" />
		<tag k="ssr:stedsnr" v="164872" />
		<tag k="waterway" v="stream" />
	</node>
	<node id="-45137" lat="63.1144722265" lon="7.71830276963">
		<tag k="name" v="Vanndammen" />
>>>>>>> e1d4bc35ff8a6074a6f2e91616a996b547c36f15
		<tag k="natural" v="water" />
		<tag k="ssr:stedsnr" v="315304" />
	</node>
<<<<<<< HEAD
	<node lat="63.06648888471715" lon="7.857930546920236" id="-1096">
		<tag k="name" v="Kvalvågbekken" />
		<tag k="ssr:stedsnr" v="468036" />
		<tag k="waterway" v="stream" />
	</node>
	<node lat="63.062105553610984" lon="7.830519438594895" id="-1098">
		<tag k="name" v="Vassåstjørna" />
=======
	<node id="-45281" lat="63.0655277761" lon="7.81765277199">
		<tag k="loc_name" v="Brattåstjønna" />
		<tag k="name" v="Brattåstjørna" />
		<tag k="natural" v="water" />
		<tag k="ssr:stedsnr" v="862209" />
	</node>
	<node id="-45200" lat="63.1213944402" lon="7.77864722181">
		<tag k="name" v="Osen" />
		<tag k="natural" v="bay" />
		<tag k="ssr:stedsnr" v="893537" />
	</node>
	<node id="-45278" lat="63.128044445" lon="7.80298888539">
		<tag k="name" v="Lomtjønna" />
>>>>>>> e1d4bc35ff8a6074a6f2e91616a996b547c36f15
		<tag k="natural" v="water" />
		<tag k="ssr:stedsnr" v="468008" />
	</node>
<<<<<<< HEAD
	<node lat="63.04455277559285" lon="7.747047228542921" id="-1108">
		<tag k="name" v="Møstvatnet" />
=======
	<node id="-45660" lat="63.0777000025" lon="7.83126666333">
		<tag k="name" v="Mehaugtjørna" />
>>>>>>> e1d4bc35ff8a6074a6f2e91616a996b547c36f15
		<tag k="natural" v="water" />
		<tag k="ssr:stedsnr" v="468857" />
	</node>
<<<<<<< HEAD
	<node lat="63.05700555855493" lon="7.807380553864403" id="-1115">
		<tag k="name" v="Svartlibekken" />
		<tag k="ssr:stedsnr" v="346257" />
		<tag k="waterway" v="stream" />
	</node>
	<node lat="63.065361114935065" lon="7.831155563895384" id="-1141">
		<tag k="name" v="Setervatnet" />
=======
	<node id="-45531" lat="63.0462083292" lon="7.74630000497">
		<tag k="name" v="Lågfjellvatnet" />
		<tag k="natural" v="water" />
		<tag k="ssr:stedsnr" v="528837" />
	</node>
	<node id="-45402" lat="63.0929583319" lon="7.82196665718">
		<tag k="name" v="Rensvikvatnet" />
>>>>>>> e1d4bc35ff8a6074a6f2e91616a996b547c36f15
		<tag k="natural" v="water" />
		<tag k="ssr:stedsnr" v="376173" />
	</node>
<<<<<<< HEAD
	<node lat="63.06189444229576" lon="7.765119451410218" id="-1169">
		<tag k="name" v="Inner Skredbekken" />
		<tag k="ssr:stedsnr" v="468022" />
		<tag k="waterway" v="stream" />
	</node>
	<node lat="63.030516664865026" lon="7.806308332876735" id="-1170">
		<tag k="name" v="Kallskrovbekken" />
		<tag k="ssr:stedsnr" v="468078" />
		<tag k="waterway" v="stream" />
	</node>
	<node lat="63.08106110872542" lon="7.8827777787166164" id="-1179">
		<tag k="name" v="Ørnvikbekken" />
		<tag k="ssr:stedsnr" v="469377" />
		<tag k="waterway" v="stream" />
	</node>
	<node lat="63.070988890516695" lon="7.730955546613471" id="-1186">
		<tag k="name" v="Valelva" />
		<tag k="ssr:stedsnr" v="679291" />
		<tag k="waterway" v="stream" />
	</node>
	<node lat="63.088719441511806" lon="7.747038891720706" id="-1227">
		<tag k="name" v="Svartholbekken" />
		<tag k="ssr:stedsnr" v="586305" />
		<tag k="waterway" v="stream" />
	</node>
	<node lat="63.04894999743167" lon="7.755036104843822" id="-1282">
		<tag k="name" v="Freikollvatnet" />
=======
	<node id="-45271" lat="63.0637944482" lon="7.83713610774">
		<tag k="name" v="Litlvatnet" />
		<tag k="natural" v="water" />
		<tag k="ssr:stedsnr" v="801167" />
	</node>
	<node id="-45451" lat="63.0840138877" lon="7.77594721721">
		<tag k="name" v="Bolgelva" />
		<tag k="ssr:stedsnr" v="347024" />
		<tag k="waterway" v="stream" />
	</node>
	<node id="-45013" lat="63.0690416688" lon="7.8301388838">
		<tag k="name" v="Kjerringvatnet" />
		<tag k="natural" v="water" />
		<tag k="ssr:stedsnr" v="315304" />
	</node>
	<node id="-45198" lat="63.1215138848" lon="7.85521945322">
		<tag k="name" v="Sandviktjønna" />
>>>>>>> e1d4bc35ff8a6074a6f2e91616a996b547c36f15
		<tag k="natural" v="water" />
		<tag k="ssr:stedsnr" v="893247" />
	</node>
<<<<<<< HEAD
	<node lat="63.07770000246363" lon="7.831266663330671" id="-1327">
		<tag k="name" v="Mehaugtjørna" />
=======
	<node id="-45650" lat="63.095394446" lon="7.83310000949">
		<tag k="name" v="Litlvatnet" />
>>>>>>> e1d4bc35ff8a6074a6f2e91616a996b547c36f15
		<tag k="natural" v="water" />
		<tag k="ssr:stedsnr" v="772005" />
	</node>
<<<<<<< HEAD
	<node lat="63.065172221935455" lon="7.7705694393533635" id="-1340">
		<tag k="name" v="Bolgvatnet" />
		<tag k="natural" v="water" />
		<tag k="ssr:stedsnr" v="922172" />
		<tag k="water" v="lake" />
	</node>
	<node lat="63.11362777526338" lon="7.782180551057937" id="-1363">
=======
	<node id="-45649" lat="63.0923777794" lon="7.85847499878">
		<tag k="name" v="Lauvhaugdammen" />
		<tag k="place" v="locality" />
		<tag k="ssr:stedsnr" v="741373" />
	</node>
	<node id="-45262" lat="63.1136277753" lon="7.78218055106">
>>>>>>> e1d4bc35ff8a6074a6f2e91616a996b547c36f15
		<tag k="name" v="Vollvatnet" />
		<tag k="natural" v="water" />
		<tag k="ssr:stedsnr" v="923315" />
		<tag k="water" v="lake" />
	</node>
<<<<<<< HEAD
	<node lat="63.06552777607204" lon="7.817652771994473" id="-1377">
		<tag k="loc_name" v="Brattåstjønna" />
		<tag k="name" v="Brattåstjørna" />
=======
	<node id="-45003" lat="63.0810611087" lon="7.88277777872">
		<tag k="name" v="Ørnvikbekken" />
		<tag k="ssr:stedsnr" v="469377" />
		<tag k="waterway" v="stream" />
	</node>
	<node id="-45384" lat="63.1089749968" lon="7.85354999731">
		<tag k="name" v="Sjøvåta" />
		<tag k="ssr:stedsnr" v="105529" />
		<tag k="waterway" v="stream" />
	</node>
	<node id="-45510" lat="63.0930722262" lon="7.80336388632">
		<tag k="loc_name" v="Vågatjønna" />
		<tag k="name" v="Vågatjørna" />
		<tag k="natural" v="water" />
		<tag k="ssr:stedsnr" v="437332" />
	</node>
	<node id="-45409" lat="63.0521111106" lon="7.79103054826">
		<tag k="name" v="Presttjørna" />
>>>>>>> e1d4bc35ff8a6074a6f2e91616a996b547c36f15
		<tag k="natural" v="water" />
		<tag k="ssr:stedsnr" v="164286" />
	</node>
<<<<<<< HEAD
	<node lat="63.05199721914015" lon="7.7981499951573054" id="-1387">
		<tag k="name" v="Seterbekken" />
		<tag k="ssr:stedsnr" v="893259" />
		<tag k="waterway" v="stream" />
	</node>
	<node lat="63.12151388478545" lon="7.855219453219473" id="-1389">
		<tag k="name" v="Sandviktjønna" />
		<tag k="natural" v="water" />
		<tag k="ssr:stedsnr" v="893530" />
	</node>
	<node lat="63.121394440245886" lon="7.778647221805469" id="-1391">
		<tag k="name" v="Osen" />
		<tag k="natural" v="bay" />
		<tag k="ssr:stedsnr" v="893537" />
	</node>
	<node lat="63.055219445094615" lon="7.843383329137691" id="-1407">
		<tag k="name" v="Øverdammen" />
		<tag k="natural" v="water" />
		<tag k="ssr:stedsnr" v="953242" />
	</node>
	<node lat="63.07398055350661" lon="7.832169451327809" id="-1411">
		<tag k="name" v="Kjerringbekken" />
		<tag k="ssr:stedsnr" v="954001" />
		<tag k="waterway" v="stream" />
	</node>
	<node lat="63.08013055732861" lon="7.8403250089717265" id="-1426">
		<tag k="name" v="Drabovatnet" />
		<tag k="natural" v="water" />
		<tag k="ssr:stedsnr" v="12327" />
	</node>
	<node lat="63.05387221933228" lon="7.750461109755868" id="-1448">
		<tag k="name" v="Krypervikvatnet" />
		<tag k="natural" v="water" />
		<tag k="ssr:stedsnr" v="43862" />
	</node>
	<node lat="63.11210832989906" lon="7.804794449223931" id="-1455">
		<tag k="name" v="Stabeldammen" />
		<tag k="natural" v="water" />
		<tag k="ssr:stedsnr" v="44556" />
	</node>
	<node lat="63.13007222258415" lon="7.70693889451048" id="-1462">
		<tag k="name" v="Store Kari" />
=======
	<node id="-44868" lat="63.129483333" lon="7.70333610968">
		<tag k="name" v="Lille Kari" />
		<tag k="natural" v="water" />
		<tag k="ssr:stedsnr" v="238835" />
	</node>
	<node id="-45131" lat="63.0887194415" lon="7.74703889172">
		<tag k="name" v="Svartholbekken" />
		<tag k="ssr:stedsnr" v="586305" />
		<tag k="waterway" v="stream" />
	</node>
	<node id="-45621" lat="63.1161083367" lon="7.85391389214">
		<tag k="name" v="Haltvikløkan" />
		<tag k="ssr:stedsnr" v="650492" />
		<tag k="waterway" v="stream" />
	</node>
	<node id="-44987" lat="63.0305166649" lon="7.80630833288">
		<tag k="name" v="Kallskrovbekken" />
		<tag k="ssr:stedsnr" v="468078" />
		<tag k="waterway" v="stream" />
	</node>
	<node id="-45367" lat="63.0525444457" lon="7.85219166211">
		<tag k="name" v="Bjerkestrandelva" />
		<tag k="ssr:stedsnr" v="104230" />
		<tag k="waterway" v="stream" />
	</node>
	<node id="-44981" lat="63.0664888847" lon="7.85793054692">
		<tag k="name" v="Kvalvågbekken" />
		<tag k="ssr:stedsnr" v="468036" />
		<tag k="waterway" v="stream" />
	</node>
	<node id="-45364" lat="63.0367138911" lon="7.82321944785">
		<tag k="name" v="Strandabekken" />
		<tag k="ssr:stedsnr" v="104099" />
		<tag k="waterway" v="stream" />
	</node>
	<node id="-45747" lat="63.0871249966" lon="7.84609166929">
		<tag k="name" v="Draboelva" />
		<tag k="ssr:stedsnr" v="954152" />
		<tag k="waterway" v="stream" />
	</node>
	<node id="-44978" lat="63.0621055536" lon="7.83051943859">
		<tag k="name" v="Vassåstjørna" />
>>>>>>> e1d4bc35ff8a6074a6f2e91616a996b547c36f15
		<tag k="natural" v="water" />
		<tag k="ssr:stedsnr" v="56837" />
	</node>
<<<<<<< HEAD
	<node lat="63.0317611087878" lon="7.776074992274841" id="-1475">
=======
	<node id="-45363" lat="63.0317611088" lon="7.77607499227">
>>>>>>> e1d4bc35ff8a6074a6f2e91616a996b547c36f15
		<tag k="name" v="Flatsetelva" />
		<tag k="ssr:stedsnr" v="104084" />
		<tag k="waterway" v="stream" />
	</node>
<<<<<<< HEAD
	<node lat="63.03671389109556" lon="7.823219447854911" id="-1476">
		<tag k="name" v="Strandabekken" />
		<tag k="ssr:stedsnr" v="104099" />
		<tag k="waterway" v="stream" />
	</node>
	<node lat="63.10897499677684" lon="7.853549997311854" id="-1492">
		<tag k="name" v="Sjøvåta" />
		<tag k="ssr:stedsnr" v="105529" />
		<tag k="waterway" v="stream" />
	</node>
	<node lat="63.05211111063796" lon="7.791030548257845" id="-1515">
		<tag k="name" v="Presttjørna" />
		<tag k="natural" v="water" />
		<tag k="ssr:stedsnr" v="164286" />
	</node>
	<node lat="63.03164444806059" lon="7.73804723048789" id="-1518">
		<tag k="name" v="Endresetbekken" />
		<tag k="ssr:stedsnr" v="164872" />
		<tag k="waterway" v="stream" />
	</node>
	<node lat="63.04739722508714" lon="7.755130560086249" id="-1556">
		<tag k="name" v="Flatsetvatnet" />
		<tag k="ssr:stedsnr" v="225260" />
		<tag k="waterway" v="stream" />
	</node>
	<node lat="63.09820000200692" lon="7.83291666770868" id="-1562">
=======
	<node id="-44848" lat="63.0688277761" lon="7.88128889034">
		<tag k="name" v="Kvalvågelva" />
		<tag k="ssr:stedsnr" v="226407" />
		<tag k="waterway" v="stream" />
	</node>
	<node id="-45743" lat="63.0730916665" lon="7.8792166641">
		<tag k="name" v="Bogabekken" />
		<tag k="ssr:stedsnr" v="954032" />
		<tag k="waterway" v="stream" />
	</node>
	<node id="-45742" lat="63.0739805535" lon="7.83216945133">
		<tag k="name" v="Kjerringbekken" />
		<tag k="ssr:stedsnr" v="954001" />
		<tag k="waterway" v="stream" />
	</node>
	<node id="-45613" lat="63.0956499961" lon="7.86533612027">
		<tag k="name" v="Dalaelva" />
		<tag k="ssr:stedsnr" v="650127" />
		<tag k="waterway" v="stream" />
	</node>
	<node id="-44844" lat="63.098200002" lon="7.83291666771">
>>>>>>> e1d4bc35ff8a6074a6f2e91616a996b547c36f15
		<tag k="name" v="Sandatjønna" />
		<tag k="natural" v="water" />
		<tag k="ssr:stedsnr" v="226164" />
	</node>
<<<<<<< HEAD
	<node lat="63.037938884988655" lon="7.776913897983183" id="-1571">
		<tag k="name" v="Flatsetdammen" />
		<tag k="ssr:stedsnr" v="286083" />
		<tag k="waterway" v="dam" />
	</node>
	<node lat="63.11727222207006" lon="7.777847218774957" id="-1608">
		<tag k="name" v="Nydammen" />
=======
	<node id="-45194" lat="63.0519972191" lon="7.79814999516">
		<tag k="name" v="Seterbekken" />
		<tag k="ssr:stedsnr" v="893259" />
		<tag k="waterway" v="stream" />
	</node>
	<node id="-45733" lat="63.0552194451" lon="7.84338332914">
		<tag k="name" v="Øverdammen" />
>>>>>>> e1d4bc35ff8a6074a6f2e91616a996b547c36f15
		<tag k="natural" v="water" />
		<tag k="ssr:stedsnr" v="324567" />
	</node>
<<<<<<< HEAD
	<node lat="63.08401388767558" lon="7.775947217208611" id="-1613">
		<tag k="name" v="Bolgelva" />
		<tag k="ssr:stedsnr" v="347024" />
		<tag k="waterway" v="stream" />
	</node>
	<node lat="63.06973888813527" lon="7.7595888860663775" id="-1614">
		<tag k="name" v="Seterbekken" />
		<tag k="ssr:stedsnr" v="347028" />
		<tag k="waterway" v="stream" />
	</node>
	<node lat="63.0930722261622" lon="7.803363886321372" id="-1674">
		<tag k="loc_name" v="Vågatjønna" />
		<tag k="name" v="Vågatjørna" />
=======
	<node id="-45092" lat="63.0709888905" lon="7.73095554661">
		<tag k="name" v="Valelva" />
		<tag k="ssr:stedsnr" v="679291" />
		<tag k="waterway" v="stream" />
	</node>
	<node id="-45474" lat="63.0653611149" lon="7.8311555639">
		<tag k="name" v="Setervatnet" />
>>>>>>> e1d4bc35ff8a6074a6f2e91616a996b547c36f15
		<tag k="natural" v="water" />
		<tag k="ssr:stedsnr" v="437332" />
	</node>
<<<<<<< HEAD
	<node lat="63.1220916632694" lon="7.84095277075544" id="-1679">
=======
	<node id="-45509" lat="63.1220916633" lon="7.84095277076">
>>>>>>> e1d4bc35ff8a6074a6f2e91616a996b547c36f15
		<tag k="name" v="Vågen" />
		<tag k="natural" v="water" />
		<tag k="ssr:stedsnr" v="437298" />
	</node>
<<<<<<< HEAD
	<node lat="63.04620832920298" lon="7.746300004968941" id="-1705">
		<tag k="name" v="Lågfjellvatnet" />
=======
	<node id="-45340" lat="63.1121083299" lon="7.80479444922">
		<tag k="name" v="Stabeldammen" />
		<tag k="natural" v="water" />
		<tag k="ssr:stedsnr" v="44556" />
	</node>
	<node id="-45290" lat="63.0651722219" lon="7.77056943935">
		<tag k="name" v="Bolgvatnet" />
		<tag k="natural" v="water" />
		<tag k="ssr:stedsnr" v="922172" />
		<tag k="water" v="lake" />
	</node>
	<node id="-44826" lat="63.0801305573" lon="7.84032500897">
		<tag k="name" v="Drabovatnet" />
>>>>>>> e1d4bc35ff8a6074a6f2e91616a996b547c36f15
		<tag k="natural" v="water" />
		<tag k="ssr:stedsnr" v="528837" />
	</node>
<<<<<<< HEAD
	<node lat="63.11426666787529" lon="7.76661388904945" id="-1729">
		<tag k="name" v="Røssern" />
		<tag k="natural" v="water" />
		<tag k="ssr:stedsnr" v="566583" />
	</node>
	<node lat="63.06501389140875" lon="7.7623222195535355" id="-1742">
		<tag k="name" v="Ytter Skredbakken" />
		<tag k="ssr:stedsnr" v="590017" />
		<tag k="waterway" v="stream" />
	</node>
	<node lat="63.094330557487275" lon="7.88230833599966" id="-1744">
		<tag k="name" v="Kvalvikelva" />
		<tag k="ssr:stedsnr" v="590356" />
		<tag k="waterway" v="stream" />
	</node>
	<node lat="63.11610833670198" lon="7.853913892136273" id="-1770">
		<tag k="name" v="Haltvikløkan" />
		<tag k="ssr:stedsnr" v="650492" />
		<tag k="waterway" v="stream" />
	</node>
	<node lat="63.095649996130064" lon="7.865336120270534" id="-1774">
		<tag k="name" v="Dalaelva" />
		<tag k="ssr:stedsnr" v="650127" />
		<tag k="waterway" v="stream" />
	</node>
	<node lat="63.11447222650566" lon="7.7183027696275035" id="-1794">
		<tag k="name" v="Vanndammen" />
=======
	<node id="-44996" lat="63.0445527756" lon="7.74704722854">
		<tag k="name" v="Møstvatnet" />
		<tag k="natural" v="water" />
		<tag k="ssr:stedsnr" v="468857" />
	</node>
	<node id="-45718" lat="63.0414333292" lon="7.799174998">
		<tag k="name" v="Freivatnet" />
		<tag k="place" v="locality" />
		<tag k="ssr:stedsnr" v="862173" />
	</node>
	<node id="-44980" lat="63.0618944423" lon="7.76511945141">
		<tag k="name" v="Inner Skredbekken" />
		<tag k="ssr:stedsnr" v="468022" />
		<tag k="waterway" v="stream" />
	</node>
	<node id="-45326" lat="63.0538722193" lon="7.75046110976">
		<tag k="name" v="Krypervikvatnet" />
		<tag k="natural" v="water" />
		<tag k="ssr:stedsnr" v="43862" />
	</node>
	<node id="-45452" lat="63.0697388881" lon="7.75958888607">
		<tag k="name" v="Seterbekken" />
		<tag k="ssr:stedsnr" v="347028" />
		<tag k="waterway" v="stream" />
	</node>
	<node id="-45579" lat="63.0943305575" lon="7.882308336">
		<tag k="name" v="Kvalvikelva" />
		<tag k="ssr:stedsnr" v="590356" />
		<tag k="waterway" v="stream" />
	</node>
	<node id="-45578" lat="63.0650138914" lon="7.76232221955">
		<tag k="name" v="Ytter Skredbakken" />
		<tag k="ssr:stedsnr" v="590017" />
		<tag k="waterway" v="stream" />
	</node>
	<node id="-45192" lat="63.0489499974" lon="7.75503610484">
		<tag k="name" v="Freikollvatnet" />
>>>>>>> e1d4bc35ff8a6074a6f2e91616a996b547c36f15
		<tag k="natural" v="water" />
		<tag k="ssr:stedsnr" v="711341" />
	</node>
<<<<<<< HEAD
	<node lat="63.092377779388336" lon="7.858474998782906" id="-1817">
		<tag k="name" v="Lauvhaugdammen" />
		<tag k="place" v="locality" />
		<tag k="ssr:stedsnr" v="741373" />
	</node>
	<node lat="63.0953944459736" lon="7.833100009494689" id="-1818">
		<tag k="name" v="Litlvatnet" />
		<tag k="natural" v="water" />
		<tag k="ssr:stedsnr" v="741374" />
	</node>
	<node lat="63.063794448229096" lon="7.837136107737167" id="-1839">
		<tag k="name" v="Litlvatnet" />
=======
	<node id="-45447" lat="63.1172722221" lon="7.77784721877">
		<tag k="name" v="Nydammen" />
		<tag k="natural" v="water" />
		<tag k="ssr:stedsnr" v="324567" />
	</node>
	<node id="-44865" lat="63.1300722226" lon="7.70693889451">
		<tag k="name" v="Store Kari" />
>>>>>>> e1d4bc35ff8a6074a6f2e91616a996b547c36f15
		<tag k="natural" v="water" />
		<tag k="ssr:stedsnr" v="801167" />
	</node>
<<<<<<< HEAD
	<node lat="63.03992777620011" lon="7.773236119555543" id="-1843">
		<tag k="name" v="Flatsetelva" />
		<tag k="ssr:stedsnr" v="802160" />
		<tag k="waterway" v="stream" />
	</node>
	<node lat="63.03398889162084" lon="7.806516673488077" id="-1858">
=======
	<node id="-44836" lat="63.0473972251" lon="7.75513056009">
		<tag k="name" v="Flatsetvatnet" />
		<tag k="ssr:stedsnr" v="225260" />
		<tag k="waterway" v="stream" />
	</node>
	<node id="-45698" lat="63.0339888916" lon="7.80651667349">
>>>>>>> e1d4bc35ff8a6074a6f2e91616a996b547c36f15
		<tag k="name" v="Freielva" />
		<tag k="ssr:stedsnr" v="833069" />
		<tag k="waterway" v="stream" />
	</node>
	<node lat="63.12804444497464" lon="7.8029888853862595" id="-1866">
		<tag k="name" v="Lomtjønna" />
		<tag k="natural" v="water" />
		<tag k="ssr:stedsnr" v="833777" />
	</node>
	<node lat="63.041433329178254" lon="7.799174997995714" id="-1875">
		<tag k="name" v="Freivatnet" />
		<tag k="place" v="locality" />
		<tag k="ssr:stedsnr" v="862173" />
	</node>
	<node lat="63.087124996558614" lon="7.846091669291694" id="-1889">
		<tag k="name" v="Draboelva" />
		<tag k="ssr:stedsnr" v="954152" />
		<tag k="waterway" v="stream" />
	</node>
	<node lat="63.08421666859817" lon="7.783483334563863" id="-1891">
		<tag k="name" v="Sødalselva" />
		<tag k="ssr:stedsnr" v="954018" />
		<tag k="waterway" v="stream" />
	</node>
	<node lat="63.0730916665351" lon="7.879216664099578" id="-1892">
		<tag k="name" v="Bogabekken" />
		<tag k="ssr:stedsnr" v="954032" />
		<tag k="waterway" v="stream" />
	</node>
</osm>
