<?xml version="1.0" encoding="UTF-8"?>
<osm version="0.6" generator="osmapis">
	<node lat="63.21929444219845" lon="7.541386110042774" id="-4839">
		<tag k="name" v="Søre Flesa" />
		<tag k="place" v="islet" />
		<tag k="ssr:stedsnr" v="230364" />
	</node>
	<node lat="63.18539999775638" lon="7.53985277131784" id="-4840">
		<tag k="name" v="Engelsfalla" />
		<tag k="natural" v="shoal" />
		<tag k="place" v="locality" />
		<tag k="ssr:stedsnr" v="230450" />
	</node>
	<node lat="63.19998611230262" lon="7.639325007679533" id="-4841">
		<tag k="name" v="Hummarskjærtaren" />
		<tag k="natural" v="shoal" />
		<tag k="place" v="locality" />
		<tag k="ssr:stedsnr" v="230452" />
	</node>
	<node lat="63.13636111097103" lon="7.778430547602715" id="-4842">
		<tag k="name" v="Skorptaren" />
		<tag k="natural" v="shoal" />
		<tag k="place" v="locality" />
		<tag k="ssr:stedsnr" v="230474" />
	</node>
	<node lat="63.045838887894156" lon="7.71886667369254" id="-4843">
		<tag k="name" v="Litlevik" />
		<tag k="place" v="farm" />
		<tag k="ssr:stedsnr" v="231424" />
	</node>
	<node lat="63.06040609438212" lon="7.721029818816872" id="-4844">
		<tag k="fixme" v="consider place=hamlet" />
		<tag k="name" v="Oldenborg" />
		<tag k="place" v="farm" />
		<tag k="ssr:stedsnr" v="231426" />
	</node>
	<node lat="63.30919167060564" lon="7.402005559645525" id="-4845">
		<tag k="name" v="Austerknollan" />
		<tag k="natural" v="shoal" />
		<tag k="place" v="locality" />
		<tag k="ssr:stedsnr" v="231739" />
	</node>
	<node lat="63.20642777983994" lon="7.471974993836945" id="-4846">
		<tag k="name" v="Ufstaren" />
		<tag k="natural" v="shoal" />
		<tag k="place" v="locality" />
		<tag k="ssr:stedsnr" v="231755" />
	</node>
	<node lat="63.06271944046565" lon="7.817866663670806" id="-4847">
		<tag k="fixme" v="consider natural=peak for the most distinct mountains in the district" />
		<tag k="name" v="Brattåsen" />
		<tag k="natural" v="hill" />
		<tag k="place" v="locality" />
		<tag k="ssr:stedsnr" v="12179" />
	</node>
	<node lat="63.06902499813802" lon="7.726113881441586" id="-4848">
		<tag k="name" v="Ørnlia" />
		<tag k="natural" v="hill" />
		<tag k="place" v="locality" />
		<tag k="ssr:stedsnr" v="12184" />
	</node>
	<node lat="63.076095429617226" lon="7.713859658939606" id="-4849">
		<tag k="name" v="Vadsteinsvika" />
		<tag k="place" v="hamlet" />
		<tag k="ssr:stedsnr" v="12515" />
	</node>
	<node lat="63.219495295619645" lon="7.59301136771567" id="-4850">
		<tag k="name" v="Grip" />
		<tag k="place" v="island" />
		<tag k="ssr:stedsnr" v="12672" />
	</node>
	<node lat="63.022630552517285" lon="7.739236103454622" id="-4851">
		<tag k="fixme" v="consider seamark:type=rock or natural=shoal" />
		<tag k="name" v="Svartskjæret" />
		<tag k="place" v="islet" />
		<tag k="ssr:stedsnr" v="232363" />
	</node>
	<node lat="63.114291667090924" lon="7.765558327009067" id="-4852">
		<tag k="alt_name" v="Røsseren" />
		<tag k="fixme" v="consider place=suburb, village or hamlet" />
		<tag k="name" v="Røssern" />
		<tag k="place" v="quarter" />
		<tag k="ssr:stedsnr" v="20248" />
	</node>
	<node lat="63.105375000233984" lon="7.726347219424497" id="-4853">
		<tag k="name" v="Leirvikbukta" />
		<tag k="natural" v="bay" />
		<tag k="ssr:stedsnr" v="41503" />
	</node>
	<node lat="63.10313611274602" lon="7.8087166640335495" id="-4855">
		<tag k="name" v="Kvalen" />
		<tag k="natural" v="cape" />
		<tag k="ssr:stedsnr" v="41278" />
	</node>
	<node lat="63.05231666808489" lon="7.830744452882709" id="-4856">
		<tag k="name" v="Bjerklia" />
		<tag k="natural" v="slope" />
		<tag k="place" v="locality" />
		<tag k="ssr:stedsnr" v="43216" />
	</node>
	<node lat="63.06408889108086" lon="7.846838879288232" id="-4857">
		<tag k="name" v="Augustdalen" />
		<tag k="natural" v="valley" />
		<tag k="place" v="locality" />
		<tag k="ssr:stedsnr" v="44002" />
	</node>
	<node lat="63.037366668749" lon="7.78633333253414" id="-4858">
		<tag k="name" v="Torebakken" />
		<tag k="natural" v="slope" />
		<tag k="place" v="locality" />
		<tag k="ssr:stedsnr" v="44080" />
	</node>
	<node lat="63.12360555865005" lon="7.693813884988713" id="-4859">
		<tag k="name" v="Storholmen" />
		<tag k="place" v="islet" />
		<tag k="ssr:stedsnr" v="44310" />
	</node>
	<node lat="63.08984166549379" lon="7.889811116835913" id="-4860">
		<tag k="name" v="Åneslia" />
		<tag k="natural" v="slope" />
		<tag k="place" v="locality" />
		<tag k="ssr:stedsnr" v="44338" />
	</node>
	<node lat="63.11573055357249" lon="7.867966669971383" id="-4861">
		<tag k="name" v="Vonabakken" />
		<tag k="natural" v="slope" />
		<tag k="place" v="locality" />
		<tag k="ssr:stedsnr" v="44524" />
	</node>
	<node lat="63.122500002469145" lon="7.85488610533012" id="-4862">
		<tag k="name" v="Sandvikmyra" />
		<tag k="natural" v="wetland" />
		<tag k="ssr:stedsnr" v="44532" />
	</node>
	<node lat="63.10462777774509" lon="7.863405561837699" id="-4863">
		<tag k="name" v="Grønholmane" />
		<tag k="place" v="islet" />
		<tag k="ssr:stedsnr" v="238197" />
	</node>
	<node lat="63.105288887811255" lon="7.849886107130632" id="-4864">
		<tag k="name" v="Langholmen" />
		<tag k="place" v="islet" />
		<tag k="ssr:stedsnr" v="238209" />
	</node>
	<node lat="63.12762499638544" lon="7.7906972160466115" id="-4865">
		<tag k="name" v="Ovnstaren" />
		<tag k="natural" v="shoal" />
		<tag k="place" v="locality" />
		<tag k="ssr:stedsnr" v="238876" />
	</node>
	<node lat="63.01027778198097" lon="7.772363891793844" id="-4866">
		<tag k="name" v="Mefjordsgruna" />
		<tag k="natural" v="shoal" />
		<tag k="place" v="locality" />
		<tag k="ssr:stedsnr" v="50374" />
	</node>
	<node lat="63.07771111534938" lon="7.782791657862916" id="-4867">
		<tag k="name" v="Sødalen" />
		<tag k="place" v="quarter" />
		<tag k="ssr:stedsnr" v="241614" />
	</node>
	<node lat="63.08955555882042" lon="7.803488887302456" id="-4868">
		<tag k="name" v="Skjærahøgda" />
		<tag k="place" v="quarter" />
		<tag k="ssr:stedsnr" v="241615" />
	</node>
	<node lat="63.01947499691533" lon="7.75449444894378" id="-4869">
		<tag k="name" v="Djupvika" />
		<tag k="natural" v="bay" />
		<tag k="ssr:stedsnr" v="73213" />
	</node>
	<node lat="63.01875000058174" lon="7.786808340751494" id="-4870">
		<tag k="name" v="Jåholmen" />
		<tag k="place" v="islet" />
		<tag k="ssr:stedsnr" v="73224" />
	</node>
	<node lat="63.1490272102389" lon="7.8396227051331415" id="-4871">
		<tag k="bay" v="fjord" />
		<tag k="name" v="Talgsjøen" />
		<tag k="natural" v="bay" />
		<tag k="ssr:stedsnr" v="73301" />
	</node>
	<node lat="63.1044833326602" lon="7.8228083235322385" id="-4872">
		<tag k="name" v="Rensvikholmen" />
		<tag k="place" v="islet" />
		<tag k="ssr:stedsnr" v="73369" />
	</node>
	<node lat="63.19719444350187" lon="7.689927773592094" id="-4873">
		<tag k="fixme" v="consider seamark:type=rock or natural=shoal" />
		<tag k="name" v="Svartskjæra" />
		<tag k="place" v="islet" />
		<tag k="ssr:stedsnr" v="73661" />
	</node>
	<node lat="63.17101944273416" lon="7.540058326150984" id="-4874">
		<tag k="fixme" v="consider seamark:type=rock or natural=shoal" />
		<tag k="name" v="Treflesa" />
		<tag k="place" v="islet" />
		<tag k="ssr:stedsnr" v="73664" />
	</node>
	<node lat="63.217250002778904" lon="7.585394449139623" id="-4875">
		<tag k="fixme" v="consider seamark:type=rock or natural=shoal" />
		<tag k="name" v="Kråka" />
		<tag k="place" v="islet" />
		<tag k="ssr:stedsnr" v="73668" />
	</node>
	<node lat="63.229455552196754" lon="7.612322217217224" id="-4876">
		<tag k="fixme" v="consider seamark:type=rock or natural=shoal" />
		<tag k="name" v="Hårskollen" />
		<tag k="place" v="islet" />
		<tag k="ssr:stedsnr" v="73679" />
	</node>
	<node lat="63.04193611061549" lon="7.787469438372452" id="-4877">
		<tag k="bridge" v="yes" />
		<tag k="layer" v="1" />
		<tag k="name" v="Svenskesvingbrua" />
		<tag k="ssr:stedsnr" v="86973" />
	</node>
	<node lat="63.100294442804504" lon="7.726530557865837" id="-4878">
		<tag k="fixme" v="consider seamark:type=rock or natural=shoal" />
		<tag k="name" v="Tante Lise" />
		<tag k="place" v="islet" />
		<tag k="ssr:stedsnr" v="101263" />
	</node>
	<node lat="63.12067499639052" lon="7.728830545985881" id="-4879">
		<tag k="man_made" v="quay" />
		<tag k="name" v="Holmfjæra" />
		<tag k="place" v="locality" />
		<tag k="ssr:stedsnr" v="101427" />
	</node>
	<node lat="63.112266669926186" lon="7.739386106738974" id="-4880">
		<tag k="name" v="Hamna" />
		<tag k="natural" v="bay" />
		<tag k="ssr:stedsnr" v="101432" />
	</node>
	<node lat="63.03603889204753" lon="7.830050001610672" id="-4882">
		<tag k="name" v="Solhaug" />
		<tag k="place" v="farm" />
		<tag k="ssr:stedsnr" v="104103" />
	</node>
	<node lat="63.02778066487933" lon="7.818344620660098" id="-4883">
		<tag k="name" v="Solvik" />
		<tag k="place" v="farm" />
		<tag k="ssr:stedsnr" v="104111" />
	</node>
	<node lat="63.05254444569181" lon="7.852191662112139" id="-4884">
		<tag k="name" v="Bjerkestrandelva" />
		<tag k="ssr:stedsnr" v="104230" />
		<tag k="waterway" v="stream" />
	</node>
	<node lat="63.042411513817875" lon="7.845567674873688" id="-4885">
		<tag k="name" v="Brattstandaren" />
		<tag k="place" v="locality" />
		<tag k="ssr:stedsnr" v="104232" />
	</node>
	<node lat="63.06771944619205" lon="7.733422214113626" id="-4886">
		<tag k="name" v="Rognbotnen" />
		<tag k="natural" v="valley" />
		<tag k="place" v="locality" />
		<tag k="ssr:stedsnr" v="104829" />
	</node>
	<node lat="63.04495572362537" lon="7.812483511872342" id="-4887">
		<tag k="name" v="Orliaksla" />
		<tag k="place" v="locality" />
		<tag k="ssr:stedsnr" v="105006" />
	</node>
	<node lat="63.07345277810429" lon="7.794747219312874" id="-4888">
		<tag k="name" v="Sødalen beitefelt" />
		<tag k="place" v="locality" />
		<tag k="ssr:stedsnr" v="105017" />
	</node>
	<node lat="63.06251944564947" lon="7.86840555392872" id="-4889">
		<tag k="name" v="Harpskaret" />
		<tag k="natural" v="valley" />
		<tag k="place" v="locality" />
		<tag k="ssr:stedsnr" v="105032" />
	</node>
	<node lat="63.05607222113979" lon="7.879375007020368" id="-4890">
		<tag k="name" v="Kongsvoll" />
		<tag k="natural" v="slope" />
		<tag k="place" v="locality" />
		<tag k="ssr:stedsnr" v="105288" />
	</node>
	<node lat="63.1301499991734" lon="7.746680547795858" id="-4891">
		<tag k="name" v="Ytre Garnneset" />
		<tag k="natural" v="cape" />
		<tag k="ssr:stedsnr" v="116903" />
	</node>
	<node lat="63.09608333280803" lon="7.732180549688155" id="-4892">
		<tag k="name" v="Bolgsvaet" />
		<tag k="natural" v="bay" />
		<tag k="ssr:stedsnr" v="133324" />
	</node>
	<node lat="63.071799999756685" lon="7.706377786847137" id="-4893">
		<tag k="name" v="Araneset" />
		<tag k="natural" v="cape" />
		<tag k="ssr:stedsnr" v="133473" />
	</node>
	<node lat="63.09295833189279" lon="7.8219666571808135" id="-4894">
		<tag k="name" v="Rensvikvatnet" />
		<tag k="natural" v="water" />
		<tag k="ssr:stedsnr" v="134357" />
		<tag k="water" v="lake" />
	</node>
	<node lat="63.088913889461594" lon="7.768577783543099" id="-4895">
		<tag k="name" v="Husøya" />
		<tag k="place" v="island" />
		<tag k="ssr:stedsnr" v="134359" />
	</node>
	<node lat="63.09254722594233" lon="7.783833328640456" id="-4896">
		<tag k="name" v="Vorpholmen" />
		<tag k="place" v="islet" />
		<tag k="ssr:stedsnr" v="134360" />
	</node>
	<node lat="63.02475555120853" lon="7.739427772961508" id="-4897">
		<tag k="name" v="Folafoten" />
		<tag k="natural" v="cape" />
		<tag k="ssr:stedsnr" v="255237" />
	</node>
	<node lat="63.04183333130433" lon="7.778730546138785" id="-4898">
		<tag k="fixme" v="consider natural=peak for the most distinct mountains in the district" />
		<tag k="name" v="Freiåsen" />
		<tag k="natural" v="hill" />
		<tag k="place" v="locality" />
		<tag k="ssr:stedsnr" v="255161" />
	</node>
	<node lat="63.02842142826283" lon="7.765884896364165" id="-4899">
		<tag k="fixme" v="multiple name tags, choose one and add the other to alt_name" />
		<tag k="name" v="Flatset;Ytre Flatset" />
		<tag k="place" v="farm" />
		<tag k="ssr:stedsnr" v="255245" />
	</node>
	<node lat="63.07987777782033" lon="7.884625000932733" id="-4900">
		<tag k="name" v="Kleiva" />
		<tag k="place" v="farm" />
		<tag k="ssr:stedsnr" v="255328" />
	</node>
	<node lat="63.10706666959656" lon="7.794780562718372" id="-4901">
		<tag k="name" v="Orvikan" />
		<tag k="place" v="farm" />
		<tag k="ssr:stedsnr" v="255345" />
	</node>
	<node lat="63.236805552689326" lon="7.6829194419288305" id="-4903">
		<tag k="bay" v="fjord" />
		<tag k="name" v="Griphølen" />
		<tag k="natural" v="bay" />
		<tag k="ssr:stedsnr" v="255693" />
	</node>
	<node lat="63.112630554181294" lon="7.732727786454546" id="-4905">
		<tag k="man_made" v="quay" />
		<tag k="name" v="Vågakaia" />
		<tag k="place" v="locality" />
		<tag k="ssr:stedsnr" v="162516" />
	</node>
	<node lat="63.03386666810904" lon="7.815983324776458" id="-4906">
		<tag k="name" v="Slettvoll" />
		<tag k="place" v="farm" />
		<tag k="ssr:stedsnr" v="164105" />
	</node>
	<node lat="63.08719999857198" lon="7.769980564309255" id="-4907">
		<tag k="name" v="Hagen" />
		<tag k="place" v="farm" />
		<tag k="ssr:stedsnr" v="164377" />
	</node>
	<node lat="63.08704444598591" lon="7.759058335489121" id="-4908">
		<tag k="name" v="Ner Bolga" />
		<tag k="place" v="farm" />
		<tag k="ssr:stedsnr" v="164381" />
	</node>
	<node lat="63.05481666526877" lon="7.85509722581963" id="-4909">
		<tag k="name" v="Rambjørhamran" />
		<tag k="natural" v="hill" />
		<tag k="place" v="locality" />
		<tag k="ssr:stedsnr" v="164272" />
	</node>
	<node lat="63.033080555886926" lon="7.793177783498577" id="-4910">
		<tag k="name" v="Grønmyra" />
		<tag k="natural" v="wetland" />
		<tag k="ssr:stedsnr" v="165067" />
	</node>
	<node lat="63.09001666515446" lon="7.82588611385732" id="-4911">
		<tag k="name" v="Grønvikbekken" />
		<tag k="ssr:stedsnr" v="165134" />
		<tag k="waterway" v="stream" />
	</node>
	<node lat="63.06250555126152" lon="7.890041667253686" id="-4912">
		<tag k="alt_name" v="Svartskjeret" />
		<tag k="fixme" v="consider seamark:type=rock or natural=shoal" />
		<tag k="name" v="Svartskjæret" />
		<tag k="place" v="islet" />
		<tag k="ssr:stedsnr" v="165360" />
	</node>
	<node lat="63.12314999691199" lon="7.816822225796857" id="-4913">
		<tag k="name" v="Hubroholet" />
		<tag k="place" v="locality" />
		<tag k="ssr:stedsnr" v="165507" />
	</node>
	<node lat="63.12379722171425" lon="7.833277772007046" id="-4914">
		<tag k="name" v="Tyskeplana" />
		<tag k="natural" v="hill" />
		<tag k="place" v="locality" />
		<tag k="ssr:stedsnr" v="165513" />
	</node>
	<node lat="63.12158333199476" lon="7.752363888903235" id="-4915">
		<tag k="name" v="Pikhaugen" />
		<tag k="natural" v="hill" />
		<tag k="place" v="locality" />
		<tag k="ssr:stedsnr" v="165517" />
	</node>
	<node lat="63.1284333367687" lon="7.765436109653634" id="-4916">
		<tag k="name" v="Torvhaugen" />
		<tag k="natural" v="hill" />
		<tag k="place" v="locality" />
		<tag k="ssr:stedsnr" v="165802" />
	</node>
	<node lat="63.13298055755222" lon="7.818769447484731" id="-4917">
		<tag k="name" v="Steinvika" />
		<tag k="natural" v="bay" />
		<tag k="ssr:stedsnr" v="165766" />
	</node>
	<node lat="63.21693888786514" lon="7.625636103566726" id="-4918">
		<tag k="name" v="Langflua" />
		<tag k="natural" v="shoal" />
		<tag k="place" v="locality" />
		<tag k="ssr:stedsnr" v="169106" />
	</node>
	<node lat="63.15771389177193" lon="7.596716674822119" id="-4919">
		<tag k="name" v="Skjelingsleia" />
		<tag k="natural" v="bay" />
		<tag k="ssr:stedsnr" v="169818" />
	</node>
	<node lat="63.18761388539947" lon="7.5091361192870405" id="-4920">
		<tag k="name" v="Lønntaran" />
		<tag k="natural" v="shoal" />
		<tag k="place" v="locality" />
		<tag k="ssr:stedsnr" v="170676" />
	</node>
	<node lat="63.02670833232925" lon="7.765119453258396" id="-4921">
		<tag k="bridge" v="yes" />
		<tag k="layer" v="1" />
		<tag k="name" v="Purkholmbrua" />
		<tag k="ssr:stedsnr" v="268953" />
	</node>
	<node lat="63.10456110754934" lon="7.821563881234226" id="-4922">
		<tag k="bridge" v="yes" />
		<tag k="layer" v="1" />
		<tag k="name" v="Omsundbrua" />
		<tag k="ssr:stedsnr" v="209331" />
	</node>
	<node lat="63.10603352598033" lon="7.724982142877354" id="-4923">
		<tag k="bridge" v="yes" />
		<tag k="layer" v="1" />
		<tag k="name" v="Sørsundbrua" />
		<tag k="ssr:stedsnr" v="209334" />
	</node>
	<node lat="63.101236107579915" lon="7.8186611194954825" id="-4924">
		<tag k="name" v="Reina" />
		<tag k="place" v="isolated_dwelling" />
		<tag k="ssr:stedsnr" v="223278" />
	</node>
	<node lat="63.10784721889407" lon="7.7429055542054135" id="-4925">
		<tag k="name" v="Hamna" />
		<tag k="natural" v="bay" />
		<tag k="ssr:stedsnr" v="223506" />
	</node>
	<node lat="63.11455833679527" lon="7.725588889146063" id="-4926">
		<tag k="amenity" v="place_of_worship" />
		<tag k="denomination" v="lutheran" />
		<tag k="name" v="Kirkelandet kirke" />
		<tag k="religion" v="christian" />
		<tag k="ssr:stedsnr" v="223513" />
	</node>
	<node lat="63.01805555823819" lon="7.762344442352891" id="-4927">
		<tag k="amenity" v="ferry_terminal" />
		<tag k="name" v="Kvitneset ferjekai" />
		<tag k="ssr:stedsnr" v="225100" />
	</node>
	<node lat="63.05312222141463" lon="7.848347224182545" id="-4928">
		<tag k="name" v="Søkkjemyra" />
		<tag k="natural" v="wetland" />
		<tag k="ssr:stedsnr" v="225245" />
	</node>
	<node lat="63.03051111234098" lon="7.745244439373189" id="-4929">
		<tag k="name" v="Bythalsen" />
		<tag k="natural" v="ridge" />
		<tag k="place" v="locality" />
		<tag k="ssr:stedsnr" v="225849" />
	</node>
	<node lat="63.05502222122832" lon="7.813611110472452" id="-4930">
		<tag k="name" v="Julumteigen" />
		<tag k="place" v="locality" />
		<tag k="ssr:stedsnr" v="226009" />
	</node>
	<node lat="63.06882777606426" lon="7.881288890341021" id="-4931">
		<tag k="name" v="Kvalvågelva" />
		<tag k="ssr:stedsnr" v="226407" />
		<tag k="waterway" v="stream" />
	</node>
	<node lat="63.08587222272207" lon="7.886038888542393" id="-4932">
		<tag k="name" v="Skjeringa" />
		<tag k="natural" v="hill" />
		<tag k="place" v="locality" />
		<tag k="ssr:stedsnr" v="226388" />
	</node>
	<node lat="63.12844444210285" lon="7.759905554185754" id="-4933">
		<tag k="name" v="Småholman" />
		<tag k="place" v="islet" />
		<tag k="ssr:stedsnr" v="226743" />
	</node>
	<node lat="63.10631388789463" lon="7.82261666801445" id="-4934">
		<tag k="bridge" v="yes" />
		<tag k="layer" v="1" />
		<tag k="name" v="Gamle Omsundbrua" />
		<tag k="ssr:stedsnr" v="271837" />
	</node>
	<node lat="63.10456110754934" lon="7.821563881234226" id="-4935">
		<tag k="bridge" v="yes" />
		<tag k="layer" v="1" />
		<tag k="name" v="Omsundbrua" />
		<tag k="ssr:stedsnr" v="271857" />
	</node>
	<node lat="63.30868333221638" lon="7.3705416765510945" id="-4936">
		<tag k="name" v="Raudtaren" />
		<tag k="natural" v="shoal" />
		<tag k="place" v="locality" />
		<tag k="ssr:stedsnr" v="231738" />
	</node>
	<node lat="63.129483333002796" lon="7.703336109682276" id="-4937">
		<tag k="name" v="Lille Kari" />
		<tag k="natural" v="water" />
		<tag k="ssr:stedsnr" v="238835" />
	</node>
	<node lat="63.12795000156337" lon="7.832825004931273" id="-4938">
		<tag k="name" v="Gløsvågen" />
		<tag k="natural" v="bay" />
		<tag k="ssr:stedsnr" v="255272" />
	</node>
	<node lat="63.13021388893259" lon="7.851733329020249" id="-4939">
		<tag k="name" v="Kolvikbukta" />
		<tag k="natural" v="bay" />
		<tag k="ssr:stedsnr" v="255279" />
	</node>
	<node lat="63.1249027777013" lon="7.790552785153732" id="-4940">
		<tag k="name" v="Draga" />
		<tag k="place" v="farm" />
		<tag k="ssr:stedsnr" v="255283" />
	</node>
	<node lat="63.0420361135202" lon="7.717483340625697" id="-4941">
		<tag k="name" v="Løken" />
		<tag k="place" v="farm" />
		<tag k="ssr:stedsnr" v="255583" />
	</node>
	<node lat="63.18749444438359" lon="7.635080564771908" id="-4942">
		<tag k="name" v="Vårsmolen" />
		<tag k="place" v="islet" />
		<tag k="ssr:stedsnr" v="255669" />
	</node>
	<node lat="63.07803889211864" lon="7.881508339111806" id="-4943">
		<tag k="bridge" v="yes" />
		<tag k="layer" v="1" />
		<tag k="name" v="Saltkjelbrua" />
		<tag k="ssr:stedsnr" v="268978" />
	</node>
	<node lat="63.11485000274839" lon="7.7340805469215725" id="-4944">
		<tag k="highway" v="bus_stop" />
		<tag k="name" v="Rutebilstasjon" />
		<tag k="ssr:stedsnr" v="283385" />
	</node>
	<node lat="63.11593332976102" lon="7.7386305593900175" id="-4945">
		<tag k="man_made" v="quay" />
		<tag k="name" v="Milnbrygga" />
		<tag k="place" v="locality" />
		<tag k="ssr:stedsnr" v="284516" />
	</node>
	<node lat="63.02989993338815" lon="7.815537626415985" id="-4946">
		<tag k="name" v="Veltan" />
		<tag k="place" v="farm" />
		<tag k="ssr:stedsnr" v="286112" />
	</node>
	<node lat="63.095680555562524" lon="7.802611102672666" id="-4947">
		<tag k="name" v="Nygard" />
		<tag k="place" v="farm" />
		<tag k="ssr:stedsnr" v="286189" />
	</node>
	<node lat="63.12950833148309" lon="7.763191668322466" id="-4948">
		<tag k="name" v="Molbogholman" />
		<tag k="place" v="islet" />
		<tag k="ssr:stedsnr" v="286777" />
	</node>
	<node lat="63.04009167009515" lon="7.740861115026072" id="-4949">
		<tag k="name" v="Brentberget" />
		<tag k="natural" v="hill" />
		<tag k="place" v="locality" />
		<tag k="ssr:stedsnr" v="286877" />
	</node>
	<node lat="63.0541472264561" lon="7.732224990125898" id="-4950">
		<tag k="name" v="Krypervikelva" />
		<tag k="ssr:stedsnr" v="286888" />
		<tag k="waterway" v="stream" />
	</node>
	<node lat="63.08043610950518" lon="7.828544449149953" id="-4951">
		<tag k="highway" v="path" />
		<tag k="name" v="Skarvegen" />
		<tag k="ssr:stedsnr" v="287004" />
	</node>
	<node lat="63.083177779181405" lon="7.895227777250532" id="-4952">
		<tag k="fixme" v="consider seamark:type=rock or natural=shoal" />
		<tag k="name" v="Ørnvikskjeret" />
		<tag k="place" v="islet" />
		<tag k="ssr:stedsnr" v="287403" />
	</node>
	<node lat="63.08236111009151" lon="7.89492499964572" id="-4953">
		<tag k="fixme" v="consider seamark:type=rock or natural=shoal" />
		<tag k="name" v="Kobbskjeret" />
		<tag k="place" v="islet" />
		<tag k="ssr:stedsnr" v="287407" />
	</node>
	<node lat="63.29102221981539" lon="7.272883328848058" id="-4954">
		<tag k="name" v="Skjåka" />
		<tag k="natural" v="shoal" />
		<tag k="place" v="locality" />
		<tag k="ssr:stedsnr" v="292675" />
	</node>
	<node lat="63.066194443638544" lon="7.8924305460764295" id="-4955">
		<tag k="name" v="Kvalvågneset" />
		<tag k="natural" v="cape" />
		<tag k="ssr:stedsnr" v="292684" />
	</node>
	<node lat="63.13236666244626" lon="7.732305558783041" id="-4956">
		<tag k="name" v="Langhaugneset" />
		<tag k="natural" v="cape" />
		<tag k="ssr:stedsnr" v="298894" />
	</node>
	<node lat="63.08869444422485" lon="7.791799999180525" id="-4957">
		<tag k="fixme" v="consider seamark:type=rock or natural=shoal" />
		<tag k="name" v="Grindskjæret" />
		<tag k="place" v="islet" />
		<tag k="ssr:stedsnr" v="299372" />
	</node>
	<node lat="63.119441666074515" lon="7.771252776896006" id="-4958">
		<tag k="name" v="Kvernabukta" />
		<tag k="natural" v="bay" />
		<tag k="ssr:stedsnr" v="299272" />
	</node>
	<node lat="63.100608333807784" lon="7.726338897863139" id="-4960">
		<tag k="fixme" v="consider seamark:type=rock or natural=shoal" />
		<tag k="name" v="Trendeskjær" />
		<tag k="place" v="islet" />
		<tag k="ssr:stedsnr" v="465271" />
	</node>
	<node lat="63.06904166877425" lon="7.830138883800652" id="-4961">
		<tag k="name" v="Kjerringvatnet" />
		<tag k="natural" v="water" />
		<tag k="ssr:stedsnr" v="315304" />
	</node>
	<node lat="63.0704944477635" lon="7.87203889741118" id="-4962">
		<tag k="name" v="Sørbø" />
		<tag k="place" v="farm" />
		<tag k="ssr:stedsnr" v="315308" />
	</node>
	<node lat="63.12782023392941" lon="7.773387865595121" id="-4963">
		<tag k="name" v="Skorpa" />
		<tag k="place" v="island" />
		<tag k="ssr:stedsnr" v="316304" />
	</node>
	<node lat="63.115766662585905" lon="7.7553694434748" id="-4964">
		<tag k="name" v="Nordsundet" />
		<tag k="natural" v="strait" />
		<tag k="ssr:stedsnr" v="316305" />
	</node>
	<node lat="63.1215166649636" lon="7.802016672187912" id="-4965">
		<tag k="name" v="Nordlandet" />
		<tag k="place" v="island" />
		<tag k="ssr:stedsnr" v="316318" />
	</node>
	<node lat="63.089197218664964" lon="7.770922217368497" id="-4966">
		<tag k="name" v="Rognvika" />
		<tag k="place" v="farm" />
		<tag k="ssr:stedsnr" v="316361" />
	</node>
	<node lat="63.09389722502352" lon="7.899399994474996" id="-4967">
		<tag k="name" v="Gjengstøholmen" />
		<tag k="place" v="islet" />
		<tag k="ssr:stedsnr" v="316365" />
	</node>
	<node lat="63.06648888471715" lon="7.857930546920236" id="-4968">
		<tag k="name" v="Kvalvågbekken" />
		<tag k="ssr:stedsnr" v="468036" />
		<tag k="waterway" v="stream" />
	</node>
	<node lat="63.068419448286804" lon="7.875302774698223" id="-4969">
		<tag k="name" v="Kvalvågdalen" />
		<tag k="natural" v="valley" />
		<tag k="place" v="locality" />
		<tag k="ssr:stedsnr" v="468038" />
	</node>
	<node lat="63.062105553610984" lon="7.830519438594895" id="-4970">
		<tag k="name" v="Vassåstjørna" />
		<tag k="natural" v="water" />
		<tag k="ssr:stedsnr" v="468008" />
	</node>
	<node lat="63.05207500019271" lon="7.810405556398673" id="-4971">
		<tag k="name" v="Skjenstødalen" />
		<tag k="natural" v="valley" />
		<tag k="place" v="locality" />
		<tag k="ssr:stedsnr" v="468010" />
	</node>
	<node lat="63.12546944887905" lon="7.760563890789208" id="-4972">
		<tag k="name" v="Steinan" />
		<tag k="natural" v="stone" />
		<tag k="ssr:stedsnr" v="468492" />
	</node>
	<node lat="63.12693889294857" lon="7.7328222265318685" id="-4973">
		<tag k="name" v="Dalabugen" />
		<tag k="place" v="farm" />
		<tag k="ssr:stedsnr" v="468691" />
	</node>
	<node lat="63.12809444315033" lon="7.699791664471739" id="-4974">
		<tag k="fixme" v="multiple name tags, choose one and add the other to alt_name" />
		<tag k="name" v="Sandholet;Krabbholet" />
		<tag k="natural" v="bay" />
		<tag k="ssr:stedsnr" v="468725" />
	</node>
	<node lat="63.12882777738963" lon="7.827788886213276" id="-4975">
		<tag k="name" v="Myran" />
		<tag k="place" v="farm" />
		<tag k="ssr:stedsnr" v="468726" />
	</node>
	<node lat="63.12909444136437" lon="7.822472225233288" id="-4976">
		<tag k="name" v="Myran" />
		<tag k="natural" v="wetland" />
		<tag k="ssr:stedsnr" v="468736" />
	</node>
	<node lat="63.13532777371298" lon="7.842852775154247" id="-4977">
		<tag k="alt_name" v="Stavvågen" />
		<tag k="name" v="Stavbrekkbogen" />
		<tag k="natural" v="bay" />
		<tag k="ssr:stedsnr" v="468744" />
	</node>
	<node lat="63.1321277779083" lon="7.789961115606158" id="-4978">
		<tag k="name" v="Skorpenden" />
		<tag k="natural" v="cape" />
		<tag k="ssr:stedsnr" v="468749" />
	</node>
	<node lat="63.078480556525356" lon="7.708008326142432" id="-4979">
		<tag k="name" v="Valneset" />
		<tag k="natural" v="cape" />
		<tag k="ssr:stedsnr" v="468853" />
	</node>
	<node lat="63.04455277559285" lon="7.747047228542921" id="-4980">
		<tag k="name" v="Møstvatnet" />
		<tag k="natural" v="water" />
		<tag k="ssr:stedsnr" v="468857" />
	</node>
	<node lat="63.05647499661215" lon="7.736997225401129" id="-4981">
		<tag k="name" v="Kryperviklia" />
		<tag k="natural" v="slope" />
		<tag k="place" v="locality" />
		<tag k="ssr:stedsnr" v="468859" />
	</node>
	<node lat="63.11122499902717" lon="7.867866666501326" id="-4982">
		<tag k="name" v="Seivika" />
		<tag k="natural" v="bay" />
		<tag k="ssr:stedsnr" v="324569" />
	</node>
	<node lat="63.10648055654703" lon="7.870886114780575" id="-4983">
		<tag k="name" v="Buktaneset" />
		<tag k="natural" v="cape" />
		<tag k="ssr:stedsnr" v="469391" />
	</node>
	<node lat="63.12158333758477" lon="7.733052781008566" id="-4984">
		<tag k="name" v="Hegerberget" />
		<tag k="natural" v="hill" />
		<tag k="place" v="locality" />
		<tag k="ssr:stedsnr" v="344463" />
	</node>
	<node lat="63.10831389162679" lon="7.7276861124587635" id="-4985">
		<tag k="building" v="civic" />
		<tag k="name" v="Kristiansund politistasjon" />
		<tag k="ssr:stedsnr" v="344503" />
	</node>
	<node lat="63.22753611048559" lon="7.564336114985143" id="-4986">
		<tag k="name" v="Godtaren" />
		<tag k="natural" v="shoal" />
		<tag k="place" v="locality" />
		<tag k="ssr:stedsnr" v="473431" />
	</node>
	<node lat="63.05700555855493" lon="7.807380553864403" id="-4987">
		<tag k="name" v="Svartlibekken" />
		<tag k="ssr:stedsnr" v="346257" />
		<tag k="waterway" v="stream" />
	</node>
	<node lat="63.05286944026409" lon="7.727824992049166" id="-4988">
		<tag k="name" v="Saltkjelvik" />
		<tag k="place" v="farm" />
		<tag k="ssr:stedsnr" v="346857" />
	</node>
	<node lat="63.05596666910093" lon="7.726252780267005" id="-4989">
		<tag k="name" v="Krypervikbukta" />
		<tag k="natural" v="bay" />
		<tag k="ssr:stedsnr" v="346858" />
	</node>
	<node lat="63.03514166885707" lon="7.745280552665206" id="-4990">
		<tag k="name" v="Endresetlia" />
		<tag k="natural" v="slope" />
		<tag k="place" v="locality" />
		<tag k="ssr:stedsnr" v="346871" />
	</node>
	<node lat="63.038241666675255" lon="7.722961104824644" id="-4991">
		<tag k="name" v="Råmyra" />
		<tag k="natural" v="wetland" />
		<tag k="ssr:stedsnr" v="346875" />
	</node>
	<node lat="63.047164194296975" lon="7.819845322745463" id="-4992">
		<tag k="name" v="Grønlia" />
		<tag k="natural" v="slope" />
		<tag k="place" v="locality" />
		<tag k="ssr:stedsnr" v="347005" />
	</node>
	<node lat="63.06709444634405" lon="7.837800009037973" id="-4993">
		<tag k="name" v="Seterhaugen" />
		<tag k="natural" v="hill" />
		<tag k="place" v="locality" />
		<tag k="ssr:stedsnr" v="347002" />
	</node>
	<node lat="63.18423055250204" lon="7.681991670817319" id="-4994">
		<tag k="name" v="Disken" />
		<tag k="natural" v="shoal" />
		<tag k="place" v="locality" />
		<tag k="ssr:stedsnr" v="473482" />
	</node>
	<node lat="63.17230833780289" lon="7.654824996969891" id="-4995">
		<tag k="name" v="Litletaran" />
		<tag k="natural" v="shoal" />
		<tag k="place" v="locality" />
		<tag k="ssr:stedsnr" v="473484" />
	</node>
	<node lat="63.116930556793655" lon="7.706772212481637" id="-4996">
		<tag k="cemetery" v="grave" />
		<tag k="name" v="Kirkelandet gravsted" />
		<tag k="place" v="locality" />
		<tag k="ssr:stedsnr" v="347470" />
	</node>
	<node lat="63.09967500356522" lon="7.886788887437989" id="-4997">
		<tag k="name" v="Kvalvikbukta" />
		<tag k="natural" v="bay" />
		<tag k="ssr:stedsnr" v="347355" />
	</node>
	<node lat="63.100158331800806" lon="7.899474999409035" id="-4998">
		<tag k="fixme" v="consider seamark:type=rock or natural=shoal" />
		<tag k="name" v="Daudmannskjeret" />
		<tag k="place" v="islet" />
		<tag k="ssr:stedsnr" v="347357" />
	</node>
	<node lat="63.09898888849642" lon="7.891119447430965" id="-4999">
		<tag k="name" v="Gyltneset friluftsområde" />
		<tag k="place" v="locality" />
		<tag k="ssr:stedsnr" v="347358" />
	</node>
	<node lat="63.070430555010155" lon="7.8855916716435255" id="-5000">
		<tag k="name" v="Hamna" />
		<tag k="place" v="farm" />
		<tag k="ssr:stedsnr" v="347366" />
	</node>
	<node lat="63.11413611379338" lon="7.848386108656273" id="-5001">
		<tag k="junction" v="yes" />
		<tag k="name" v="Korsvegen" />
		<tag k="place" v="locality" />
		<tag k="ssr:stedsnr" v="347504" />
	</node>
	<node lat="63.12501666356699" lon="7.755797221188119" id="-5002">
		<tag k="name" v="Apotekarholmen" />
		<tag k="place" v="islet" />
		<tag k="ssr:stedsnr" v="347519" />
	</node>
	<node lat="63.12450000147593" lon="7.785519436910499" id="-5003">
		<tag k="name" v="Dragabukta" />
		<tag k="natural" v="bay" />
		<tag k="ssr:stedsnr" v="347526" />
	</node>
	<node lat="63.07434166232203" lon="7.707294450227579" id="-5004">
		<tag k="name" v="Valen" />
		<tag k="natural" v="shoal" />
		<tag k="place" v="locality" />
		<tag k="ssr:stedsnr" v="473730" />
	</node>
	<node lat="63.07009722216097" lon="7.706630562597908" id="-5005">
		<tag k="name" v="Aranesflua" />
		<tag k="place" v="locality" />
		<tag k="seamark:type" v="rock" />
		<tag k="ssr:stedsnr" v="474268" />
	</node>
	<node lat="63.28230555403497" lon="7.305808327210419" id="-5006">
		<tag k="name" v="Indre Steinstaren" />
		<tag k="natural" v="shoal" />
		<tag k="place" v="locality" />
		<tag k="ssr:stedsnr" v="352667" />
	</node>
	<node lat="63.27512499576703" lon="7.290002775997102" id="-5007">
		<tag k="name" v="Steinsskjåka" />
		<tag k="natural" v="shoal" />
		<tag k="place" v="locality" />
		<tag k="ssr:stedsnr" v="474689" />
	</node>
	<node lat="63.090138891256714" lon="7.772886112052423" id="-5008">
		<tag k="name" v="Rognvika" />
		<tag k="natural" v="bay" />
		<tag k="ssr:stedsnr" v="359353" />
	</node>
	<node lat="63.090188886588265" lon="7.786924992301139" id="-5009">
		<tag k="fixme" v="consider seamark:type=rock or natural=shoal" />
		<tag k="name" v="Vågaskjæret" />
		<tag k="place" v="islet" />
		<tag k="ssr:stedsnr" v="359359" />
	</node>
	<node lat="63.121505557887424" lon="7.702680563049053" id="-5010">
		<tag k="fixme" v="consider seamark:type=rock or natural=shoal" />
		<tag k="name" v="Sterkosskjæret" />
		<tag k="place" v="islet" />
		<tag k="ssr:stedsnr" v="359905" />
	</node>
	<node lat="63.124700000619484" lon="7.753697221715687" id="-5011">
		<tag k="name" v="Dunkersundleira" />
		<tag k="natural" v="shoal" />
		<tag k="place" v="locality" />
		<tag k="ssr:stedsnr" v="359911" />
	</node>
	<node lat="63.133911107588" lon="7.741402779645882" id="-5012">
		<tag k="name" v="Hinnakleppen" />
		<tag k="natural" v="cape" />
		<tag k="ssr:stedsnr" v="359914" />
	</node>
	<node lat="63.065361114935065" lon="7.831155563895384" id="-5013">
		<tag k="name" v="Setervatnet" />
		<tag k="natural" v="water" />
		<tag k="ssr:stedsnr" v="376173" />
	</node>
	<node lat="63.13433610967367" lon="7.746222221338988" id="-5014">
		<tag k="fixme" v="consider seamark:type=rock or natural=shoal" />
		<tag k="name" v="Hinnaskjæret" />
		<tag k="place" v="islet" />
		<tag k="ssr:stedsnr" v="376272" />
	</node>
	<node lat="63.08806388786242" lon="7.753108335423622" id="-5015">
		<tag k="name" v="Naustmyra" />
		<tag k="place" v="farm" />
		<tag k="ssr:stedsnr" v="480290" />
	</node>
	<node lat="63.126477773770425" lon="7.694702784891052" id="-5016">
		<tag k="name" v="Treskoholet" />
		<tag k="natural" v="bay" />
		<tag k="ssr:stedsnr" v="480840" />
	</node>
	<node lat="63.21236944827116" lon="7.60721665711061" id="-5017">
		<tag k="fixme" v="consider seamark:type=rock or natural=shoal" />
		<tag k="name" v="Omfarskjæret" />
		<tag k="place" v="islet" />
		<tag k="ssr:stedsnr" v="483992" />
	</node>
	<node lat="63.092866662584186" lon="7.726836114385142" id="-5018">
		<tag k="name" v="Vestre Bolgfallet" />
		<tag k="place" v="locality" />
		<tag k="seamark:type" v="rock" />
		<tag k="ssr:stedsnr" v="405303" />
	</node>
	<node lat="63.01928611405835" lon="7.746952781733877" id="-5019">
		<tag k="name" v="Prestneset" />
		<tag k="natural" v="cape" />
		<tag k="ssr:stedsnr" v="407798" />
	</node>
	<node lat="63.06680833549059" lon="7.71348332961851" id="-5020">
		<tag k="name" v="Bjørnvikbukta" />
		<tag k="natural" v="bay" />
		<tag k="ssr:stedsnr" v="407847" />
	</node>
	<node lat="63.1027482718832" lon="7.846764484412546" id="-5021">
		<tag k="fixme" v="consider place=hamlet" />
		<tag k="name" v="Sæter" />
		<tag k="place" v="farm" />
		<tag k="ssr:stedsnr" v="408155" />
	</node>
	<node lat="63.2092555528443" lon="7.68651944368391" id="-5022">
		<tag k="fixme" v="consider seamark:type=rock or natural=shoal" />
		<tag k="name" v="Vestre Kobbskjæra" />
		<tag k="place" v="islet" />
		<tag k="ssr:stedsnr" v="412440" />
	</node>
	<node lat="63.03286666570313" lon="7.729597213718082" id="-5023">
		<tag k="name" v="Ura" />
		<tag k="natural" v="scree" />
		<tag k="ssr:stedsnr" v="414393" />
	</node>
	<node lat="63.08465000009115" lon="7.784997220576296" id="-5024">
		<tag k="name" v="Linvågen" />
		<tag k="natural" v="bay" />
		<tag k="ssr:stedsnr" v="420335" />
	</node>
	<node lat="63.14055278030054" lon="7.761688889143837" id="-5025">
		<tag k="name" v="Henotaren" />
		<tag k="natural" v="shoal" />
		<tag k="place" v="locality" />
		<tag k="ssr:stedsnr" v="420937" />
	</node>
	<node lat="63.12089721928369" lon="7.759291663578737" id="-5026">
		<tag k="name" v="Teistholmen" />
		<tag k="place" v="islet" />
		<tag k="ssr:stedsnr" v="437303" />
	</node>
	<node lat="63.03168889301392" lon="7.773463890586434" id="-5027">
		<tag k="name" v="Øyan" />
		<tag k="place" v="farm" />
		<tag k="ssr:stedsnr" v="437254" />
	</node>
	<node lat="63.30036666357676" lon="7.3239416573106" id="-5028">
		<tag k="alt_name" v="Griptarene" />
		<tag k="name" v="Griptaran" />
		<tag k="natural" v="shoal" />
		<tag k="place" v="locality" />
		<tag k="ssr:stedsnr" v="437606" />
	</node>
	<node lat="63.190777773507435" lon="7.646016670364492" id="-5029">
		<tag k="name" v="Nordgripen" />
		<tag k="place" v="islet" />
		<tag k="ssr:stedsnr" v="437661" />
	</node>
	<node lat="63.17369722226609" lon="7.582891674774479" id="-5030">
		<tag k="fixme" v="consider seamark:type=rock or natural=shoal" />
		<tag k="name" v="Flatskjelingen" />
		<tag k="place" v="islet" />
		<tag k="ssr:stedsnr" v="437664" />
	</node>
	<node lat="63.11937222248396" lon="7.715066661896648" id="-5031">
		<tag k="name" v="Myra" />
		<tag k="place" v="farm" />
		<tag k="ssr:stedsnr" v="437698" />
	</node>
	<node lat="63.10839722400601" lon="7.819361107637281" id="-5032">
		<tag k="name" v="Byskogen" />
		<tag k="place" v="village" />
		<tag k="ssr:stedsnr" v="445605" />
	</node>
	<node lat="63.029697220318674" lon="7.7741638879746" id="-5033">
		<tag k="bridge" v="yes" />
		<tag k="layer" v="1" />
		<tag k="name" v="Vollabakkbrua" />
		<tag k="ssr:stedsnr" v="450975" />
	</node>
	<node lat="63.1132861088268" lon="7.75600277335162" id="-5034">
		<tag k="bridge" v="yes" />
		<tag k="layer" v="1" />
		<tag k="name" v="Melkvikbrua" />
		<tag k="ssr:stedsnr" v="452316" />
	</node>
	<node lat="63.11674999874118" lon="7.750477776882609" id="-5035">
		<tag k="bridge" v="yes" />
		<tag k="layer" v="1" />
		<tag k="name" v="Nordsundbrua" />
		<tag k="ssr:stedsnr" v="452319" />
	</node>
	<node lat="63.11446388769502" lon="7.760927786131343" id="-5036">
		<tag k="bridge" v="yes" />
		<tag k="layer" v="1" />
		<tag k="name" v="Kamsvågbrua" />
		<tag k="ssr:stedsnr" v="452323" />
	</node>
	<node lat="63.11448611033106" lon="7.762188893491872" id="-5037">
		<tag k="bridge" v="yes" />
		<tag k="layer" v="1" />
		<tag k="name" v="Roklubbrua" />
		<tag k="ssr:stedsnr" v="452324" />
	</node>
	<node lat="63.13692777656895" lon="7.82849722723138" id="-5038">
		<tag k="fixme" v="consider seamark:type=rock or natural=shoal" />
		<tag k="name" v="Draget" />
		<tag k="place" v="islet" />
		<tag k="ssr:stedsnr" v="465013" />
	</node>
	<node lat="63.108955557461414" lon="7.738497230985063" id="-5039">
		<tag k="name" v="Lossiusgrunnen" />
		<tag k="natural" v="shoal" />
		<tag k="place" v="locality" />
		<tag k="ssr:stedsnr" v="465425" />
	</node>
	<node lat="63.10319444164829" lon="7.745644440597126" id="-5040">
		<tag k="name" v="Sjursvika" />
		<tag k="natural" v="bay" />
		<tag k="ssr:stedsnr" v="465456" />
	</node>
	<node lat="63.06189444229576" lon="7.765119451410218" id="-5041">
		<tag k="name" v="Inner Skredbekken" />
		<tag k="ssr:stedsnr" v="468022" />
		<tag k="waterway" v="stream" />
	</node>
	<node lat="63.030516664865026" lon="7.806308332876735" id="-5042">
		<tag k="name" v="Kallskrovbekken" />
		<tag k="ssr:stedsnr" v="468078" />
		<tag k="waterway" v="stream" />
	</node>
	<node lat="63.056591670418754" lon="7.852613890369067" id="-5043">
		<tag k="name" v="Rambjørdalen" />
		<tag k="natural" v="valley" />
		<tag k="place" v="locality" />
		<tag k="ssr:stedsnr" v="468163" />
	</node>
	<node lat="63.09604721991411" lon="7.813275003500485" id="-5044">
		<tag k="amenity" v="school" />
		<tag k="name" v="Rensvik" />
		<tag k="ssr:stedsnr" v="468173" />
	</node>
	<node lat="63.09973171756321" lon="7.809411496916871" id="-5045">
		<tag k="alt_name" v="Nord-Valen" />
		<tag k="fixme" v="consider place=hamlet" />
		<tag k="name" v="Nordvalen" />
		<tag k="place" v="farm" />
		<tag k="ssr:stedsnr" v="468174" />
	</node>
	<node lat="63.09885277468707" lon="7.796783324443374" id="-5046">
		<tag k="alt_name" v="Jørilneset" />
		<tag k="name" v="Jørineset" />
		<tag k="natural" v="cape" />
		<tag k="ssr:stedsnr" v="468177" />
	</node>
	<node lat="63.12769166706194" lon="7.744083328383259" id="-5047">
		<tag k="name" v="Høghaugen" />
		<tag k="natural" v="hill" />
		<tag k="place" v="locality" />
		<tag k="ssr:stedsnr" v="468717" />
	</node>
	<node lat="63.026988887100664" lon="7.748105554855134" id="-5048">
		<tag k="name" v="Huken" />
		<tag k="natural" v="bay" />
		<tag k="ssr:stedsnr" v="468869" />
	</node>
	<node lat="63.035188890098894" lon="7.742019435829909" id="-5049">
		<tag k="name" v="Løftra" />
		<tag k="natural" v="slope" />
		<tag k="place" v="locality" />
		<tag k="ssr:stedsnr" v="468873" />
	</node>
	<node lat="63.127897223525146" lon="7.757736106926577" id="-5050">
		<tag k="fixme" v="consider seamark:type=rock or natural=shoal" />
		<tag k="name" v="Eaholmsflua" />
		<tag k="place" v="islet" />
		<tag k="ssr:stedsnr" v="468763" />
	</node>
	<node lat="63.08106110872542" lon="7.8827777787166164" id="-5051">
		<tag k="name" v="Ørnvikbekken" />
		<tag k="ssr:stedsnr" v="469377" />
		<tag k="waterway" v="stream" />
	</node>
	<node lat="63.04801110990663" lon="7.703280565109347" id="-5052">
		<tag k="name" v="Buvikan" />
		<tag k="natural" v="bay" />
		<tag k="ssr:stedsnr" v="473417" />
	</node>
	<node lat="63.098249997341156" lon="7.723747215112565" id="-5053">
		<tag k="fixme" v="consider seamark:type=rock or natural=shoal" />
		<tag k="name" v="Skjerveskjæret" />
		<tag k="place" v="islet" />
		<tag k="ssr:stedsnr" v="473719" />
	</node>
	<node lat="63.03899444143069" lon="7.7836555585826535" id="-5054">
		<tag k="name" v="Storbakken" />
		<tag k="old_name" v="Storbakken byggefelt" />
		<tag k="place" v="quarter" />
		<tag k="ssr:stedsnr" v="484602" />
	</node>
	<node lat="63.07907221826025" lon="7.7233972210644914" id="-5055">
		<tag k="name" v="Kuhaugen" />
		<tag k="natural" v="hill" />
		<tag k="place" v="locality" />
		<tag k="ssr:stedsnr" v="679275" />
	</node>
	<node lat="63.07793333679348" lon="7.799569440801972" id="-5056">
		<tag k="name" v="Vågaksla" />
		<tag k="natural" v="hill" />
		<tag k="place" v="locality" />
		<tag k="ssr:stedsnr" v="679281" />
	</node>
	<node lat="63.07718888863761" lon="7.723038881082059" id="-5057">
		<tag k="name" v="Øvre Vadsteinsvika" />
		<tag k="place" v="farm" />
		<tag k="ssr:stedsnr" v="679284" />
	</node>
	<node lat="63.070988890516695" lon="7.730955546613471" id="-5058">
		<tag k="name" v="Valelva" />
		<tag k="ssr:stedsnr" v="679291" />
		<tag k="waterway" v="stream" />
	</node>
	<node lat="63.07766666375593" lon="7.88912499631901" id="-5059">
		<tag k="name" v="Bogaklubben" />
		<tag k="natural" v="cape" />
		<tag k="ssr:stedsnr" v="679296" />
	</node>
	<node lat="63.10913776862122" lon="7.747808403829996" id="-5060">
		<tag k="amenity" v="place_of_worship" />
		<tag k="denomination" v="lutheran" />
		<tag k="name" v="Nordlandet kirke" />
		<tag k="religion" v="christian" />
		<tag k="ssr:stedsnr" v="679300" />
	</node>
	<node lat="63.10711944242128" lon="7.74507500287399" id="-5061">
		<tag k="name" v="Markussundet" />
		<tag k="natural" v="strait" />
		<tag k="ssr:stedsnr" v="679301" />
	</node>
	<node lat="63.22277777576564" lon="7.552194447642644" id="-5062">
		<tag k="fixme" v="consider seamark:type=rock or natural=shoal" />
		<tag k="name" v="Gjevla" />
		<tag k="place" v="islet" />
		<tag k="ssr:stedsnr" v="679660" />
	</node>
	<node lat="63.057349998680834" lon="7.881669438072792" id="-5063">
		<tag k="name" v="Øygardskjæret" />
		<tag k="natural" v="cape" />
		<tag k="ssr:stedsnr" v="680175" />
	</node>
	<node lat="63.039597223566744" lon="7.837152772870006" id="-5064">
		<tag k="alt_name" v="Or, nordre;Or" />
		<tag k="name" v="Nordre Or" />
		<tag k="place" v="farm" />
		<tag k="ssr:stedsnr" v="680148" />
	</node>
	<node lat="63.066194443638544" lon="7.8924305460764295" id="-5065">
		<tag k="name" v="Geilneset" />
		<tag k="natural" v="cape" />
		<tag k="ssr:stedsnr" v="680186" />
	</node>
	<node lat="63.06404999792323" lon="7.788327779818183" id="-5066">
		<tag k="fixme" v="consider natural=peak for the most distinct mountains in the district" />
		<tag k="name" v="Kistfjellet" />
		<tag k="natural" v="hill" />
		<tag k="place" v="locality" />
		<tag k="ssr:stedsnr" v="680191" />
	</node>
	<node lat="63.133886110995036" lon="7.83092222980804" id="-5067">
		<tag k="name" v="Ørnberget" />
		<tag k="natural" v="hill" />
		<tag k="place" v="locality" />
		<tag k="ssr:stedsnr" v="680295" />
	</node>
	<node lat="63.029916670445004" lon="7.757508326524707" id="-5068">
		<tag k="name" v="Vestre Flatset" />
		<tag k="place" v="farm" />
		<tag k="ssr:stedsnr" v="680257" />
	</node>
	<node lat="63.08644722351955" lon="7.795891662615246" id="-5069">
		<tag k="name" v="Skjæret" />
		<tag k="place" v="farm" />
		<tag k="ssr:stedsnr" v="680359" />
	</node>
	<node lat="63.074341667889406" lon="7.896675002405901" id="-5070">
		<tag k="name" v="Klubbneset" />
		<tag k="natural" v="cape" />
		<tag k="ssr:stedsnr" v="680500" />
	</node>
	<node lat="63.03371944506906" lon="7.814711102395365" id="-5071">
		<tag k="name" v="Slettvoll" />
		<tag k="place" v="farm" />
		<tag k="ssr:stedsnr" v="498152" />
	</node>
	<node lat="63.08990833036979" lon="7.761588895239992" id="-5072">
		<tag k="name" v="Kruttholmen" />
		<tag k="place" v="islet" />
		<tag k="ssr:stedsnr" v="528374" />
	</node>
	<node lat="63.078027779233494" lon="7.843572231782129" id="-5073">
		<tag k="name" v="Rødalen" />
		<tag k="natural" v="valley" />
		<tag k="place" v="locality" />
		<tag k="ssr:stedsnr" v="529007" />
	</node>
	<node lat="63.060269443594876" lon="7.883888879620731" id="-5074">
		<tag k="fixme" v="consider seamark:type=rock or natural=shoal" />
		<tag k="name" v="Langskjeret" />
		<tag k="place" v="islet" />
		<tag k="ssr:stedsnr" v="529238" />
	</node>
	<node lat="63.10743055749099" lon="7.835313883690317" id="-5075">
		<tag k="name" v="Hegerura" />
		<tag k="natural" v="scree" />
		<tag k="ssr:stedsnr" v="529504" />
	</node>
	<node lat="63.11099999784855" lon="7.860424994367381" id="-5076">
		<tag k="name" v="Toppmyra" />
		<tag k="natural" v="wetland" />
		<tag k="ssr:stedsnr" v="529508" />
	</node>
	<node lat="63.12460555669471" lon="7.847472219300146" id="-5077">
		<tag k="name" v="Langmyra" />
		<tag k="natural" v="wetland" />
		<tag k="ssr:stedsnr" v="529509" />
	</node>
	<node lat="63.11361944002954" lon="7.807419439531702" id="-5078">
		<tag k="name" v="Daudmannsholet" />
		<tag k="natural" v="valley" />
		<tag k="place" v="locality" />
		<tag k="ssr:stedsnr" v="529534" />
	</node>
	<node lat="63.119930559438764" lon="7.756027778159755" id="-5079">
		<tag k="name" v="Bleikvollen" />
		<tag k="natural" v="hill" />
		<tag k="place" v="locality" />
		<tag k="ssr:stedsnr" v="529536" />
	</node>
	<node lat="63.0286999964593" lon="7.745500006237252" id="-5080">
		<tag k="name" v="Storhaugen" />
		<tag k="natural" v="hill" />
		<tag k="place" v="locality" />
		<tag k="ssr:stedsnr" v="529896" />
	</node>
	<node lat="63.221274996725114" lon="7.642541671646989" id="-5081">
		<tag k="name" v="Indre Langfallet" />
		<tag k="natural" v="shoal" />
		<tag k="place" v="locality" />
		<tag k="ssr:stedsnr" v="533121" />
	</node>
	<node lat="63.19681110757176" lon="7.479141661585343" id="-5082">
		<tag k="name" v="Olsjursjutaren" />
		<tag k="natural" v="shoal" />
		<tag k="place" v="locality" />
		<tag k="ssr:stedsnr" v="534713" />
	</node>
	<node lat="63.207302781793565" lon="7.4907222131182865" id="-5083">
		<tag k="name" v="Haue" />
		<tag k="natural" v="shoal" />
		<tag k="place" v="locality" />
		<tag k="ssr:stedsnr" v="534714" />
	</node>
	<node lat="63.03875679390908" lon="7.834190291328897" id="-5084">
		<tag k="fixme" v="consider place=hamlet" />
		<tag k="name" v="Or" />
		<tag k="place" v="farm" />
		<tag k="ssr:stedsnr" v="537204" />
	</node>
	<node lat="63.11498333329544" lon="7.812572230680061" id="-5085">
		<tag k="name" v="Pikhaugen" />
		<tag k="natural" v="hill" />
		<tag k="place" v="locality" />
		<tag k="ssr:stedsnr" v="541212" />
	</node>
	<node lat="63.08859742403545" lon="7.894479573891399" id="-5086">
		<tag k="fixme" v="consider place=hamlet" />
		<tag k="name" v="Ånes" />
		<tag k="place" v="farm" />
		<tag k="ssr:stedsnr" v="688489" />
	</node>
	<node lat="63.08534166718818" lon="7.8841194408673685" id="-5087">
		<tag k="name" v="Solsletta" />
		<tag k="place" v="isolated_dwelling" />
		<tag k="ssr:stedsnr" v="688590" />
	</node>
	<node lat="63.031063891899336" lon="7.717155565252954" id="-5089">
		<tag k="name" v="Råbukta" />
		<tag k="natural" v="bay" />
		<tag k="ssr:stedsnr" v="558644" />
	</node>
	<node lat="63.22628610700955" lon="7.5977500029798435" id="-5090">
		<tag k="fixme" v="consider seamark:type=rock or natural=shoal" />
		<tag k="name" v="Beksla" />
		<tag k="place" v="islet" />
		<tag k="ssr:stedsnr" v="558699" />
	</node>
	<node lat="63.22591111284836" lon="7.563875003473913" id="-5091">
		<tag k="fixme" v="consider seamark:type=rock or natural=shoal" />
		<tag k="name" v="Tverrspennskjæra" />
		<tag k="place" v="islet" />
		<tag k="ssr:stedsnr" v="558701" />
	</node>
	<node lat="63.06162569112655" lon="7.696002619163555" id="-5092">
		<tag k="name" v="Brattøya" />
		<tag k="place" v="island" />
		<tag k="ssr:stedsnr" v="558545" />
	</node>
	<node lat="63.06776110891695" lon="7.882597213914501" id="-5093">
		<tag k="fixme" v="consider place=hamlet" />
		<tag k="name" v="Kvalvåg" />
		<tag k="place" v="village" />
		<tag k="ssr:stedsnr" v="692864" />
	</node>
	<node lat="63.02784999579741" lon="7.766025006727989" id="-5094">
		<tag k="bridge" v="yes" />
		<tag k="layer" v="1" />
		<tag k="name" v="Flatsetbrua" />
		<tag k="ssr:stedsnr" v="692954" />
	</node>
	<node lat="63.026877782063906" lon="7.7651555477794245" id="-5095">
		<tag k="bridge" v="yes" />
		<tag k="layer" v="1" />
		<tag k="name" v="Flatsetsundbrua" />
		<tag k="ssr:stedsnr" v="692956" />
	</node>
	<node lat="63.104650000882614" lon="7.8218805635122814" id="-5096">
		<tag k="bridge" v="yes" />
		<tag k="layer" v="1" />
		<tag k="name" v="Gamle Omsundbrua" />
		<tag k="ssr:stedsnr" v="571931" />
	</node>
	<node lat="63.114241665511734" lon="7.759130564084454" id="-5097">
		<tag k="bridge" v="yes" />
		<tag k="layer" v="1" />
		<tag k="name" v="Bjørnahaugbrua" />
		<tag k="ssr:stedsnr" v="573312" />
	</node>
	<node lat="63.11862499666112" lon="7.748394447901336" id="-5098">
		<tag k="bridge" v="yes" />
		<tag k="layer" v="1" />
		<tag k="name" v="Gomabrua" />
		<tag k="ssr:stedsnr" v="695327" />
	</node>
	<node lat="63.088719441511806" lon="7.747038891720706" id="-5099">
		<tag k="name" v="Svartholbekken" />
		<tag k="ssr:stedsnr" v="586305" />
		<tag k="waterway" v="stream" />
	</node>
	<node lat="63.103791667913576" lon="7.815638888864775" id="-5100">
		<tag k="name" v="Rundholmen" />
		<tag k="place" v="islet" />
		<tag k="ssr:stedsnr" v="589167" />
	</node>
	<node lat="63.09041944867263" lon="7.828055550117002" id="-5101">
		<tag k="name" v="Stangarhaugen" />
		<tag k="natural" v="hill" />
		<tag k="place" v="locality" />
		<tag k="ssr:stedsnr" v="589171" />
	</node>
	<node lat="63.085777775215206" lon="7.825275000954601" id="-5102">
		<tag k="name" v="Veltersteinmyra" />
		<tag k="natural" v="wetland" />
		<tag k="ssr:stedsnr" v="589176" />
	</node>
	<node lat="63.10943055202866" lon="7.718419441145843" id="-5103">
		<tag k="name" v="Fløya" />
		<tag k="natural" v="hill" />
		<tag k="place" v="locality" />
		<tag k="ssr:stedsnr" v="589327" />
	</node>
	<node lat="63.043269445295095" lon="7.757019447844585" id="-5104">
		<tag k="name" v="Langlia" />
		<tag k="natural" v="slope" />
		<tag k="place" v="locality" />
		<tag k="ssr:stedsnr" v="589256" />
	</node>
	<node lat="63.06893055473122" lon="7.724116672297508" id="-5105">
		<tag k="name" v="Øverlia" />
		<tag k="natural" v="slope" />
		<tag k="place" v="locality" />
		<tag k="ssr:stedsnr" v="589856" />
	</node>
	<node lat="63.03805833327338" lon="7.745452776694504" id="-5106">
		<tag k="name" v="Vassmyra" />
		<tag k="natural" v="wetland" />
		<tag k="ssr:stedsnr" v="589905" />
	</node>
	<node lat="63.10720000238312" lon="7.849791675966685" id="-5107">
		<tag k="fixme" v="consider seamark:type=rock or natural=shoal" />
		<tag k="name" v="Omsbrørne" />
		<tag k="place" v="islet" />
		<tag k="ssr:stedsnr" v="590375" />
	</node>
	<node lat="63.11464166579262" lon="7.8457361051357815" id="-5108">
		<tag k="name" v="Geilhaugen" />
		<tag k="natural" v="hill" />
		<tag k="place" v="locality" />
		<tag k="ssr:stedsnr" v="590518" />
	</node>
	<node lat="63.13017500150917" lon="7.803522221691386" id="-5109">
		<tag k="name" v="Ovnsbukta" />
		<tag k="natural" v="bay" />
		<tag k="ssr:stedsnr" v="601853" />
	</node>
	<node lat="63.09226388924971" lon="7.786005548885512" id="-5110">
		<tag k="name" v="Vorpholmsundet" />
		<tag k="natural" v="strait" />
		<tag k="ssr:stedsnr" v="602334" />
	</node>
	<node lat="63.02077222543674" lon="7.780797226420146" id="-5111">
		<tag k="name" v="Tangen" />
		<tag k="place" v="farm" />
		<tag k="ssr:stedsnr" v="618186" />
	</node>
	<node lat="63.07354444071258" lon="7.810102787124546" id="-5112">
		<tag k="name" v="Breilia" />
		<tag k="natural" v="hill" />
		<tag k="place" v="locality" />
		<tag k="ssr:stedsnr" v="618309" />
	</node>
	<node lat="63.07363332937833" lon="7.80061945326712" id="-5113">
		<tag k="name" v="Sødalen" />
		<tag k="natural" v="valley" />
		<tag k="place" v="locality" />
		<tag k="ssr:stedsnr" v="618311" />
	</node>
	<node lat="63.02704721976886" lon="7.7879083237654285" id="-5114">
		<tag k="name" v="Stranda" />
		<tag k="place" v="farm" />
		<tag k="ssr:stedsnr" v="619270" />
	</node>
	<node lat="63.19062499549125" lon="7.6442138797198655" id="-5115">
		<tag k="name" v="Inngripan" />
		<tag k="place" v="island" />
		<tag k="ssr:stedsnr" v="619681" />
	</node>
	<node lat="63.21365000282645" lon="7.599752768067834" id="-5116">
		<tag k="name" v="Grøningen" />
		<tag k="place" v="islet" />
		<tag k="ssr:stedsnr" v="619686" />
	</node>
	<node lat="63.10793055999056" lon="7.7152333268963265" id="-5117">
		<tag k="name" v="Smørvikneset" />
		<tag k="natural" v="cape" />
		<tag k="ssr:stedsnr" v="619712" />
	</node>
	<node lat="63.084244446598774" lon="7.892141671442498" id="-5118">
		<tag k="name" v="Ørnvika" />
		<tag k="natural" v="bay" />
		<tag k="ssr:stedsnr" v="627603" />
	</node>
	<node lat="63.12486389337304" lon="7.801838887325772" id="-5119">
		<tag k="name" v="Dale" />
		<tag k="place" v="village" />
		<tag k="ssr:stedsnr" v="627596" />
	</node>
	<node lat="63.103550004168646" lon="7.826038893827177" id="-5120">
		<tag k="name" v="Klungelholmen" />
		<tag k="place" v="islet" />
		<tag k="ssr:stedsnr" v="647280" />
	</node>
	<node lat="63.05752777460397" lon="7.803536110875244" id="-5121">
		<tag k="name" v="Svartlia" />
		<tag k="natural" v="slope" />
		<tag k="place" v="locality" />
		<tag k="ssr:stedsnr" v="649245" />
	</node>
	<node lat="63.04446944012958" lon="7.707952774129264" id="-5122">
		<tag k="name" v="Sommarstuhaugen" />
		<tag k="natural" v="hill" />
		<tag k="place" v="locality" />
		<tag k="ssr:stedsnr" v="649846" />
	</node>
	<node lat="63.08539444785518" lon="7.862849993826319" id="-5123">
		<tag k="name" v="Bjerkelia" />
		<tag k="natural" v="slope" />
		<tag k="place" v="locality" />
		<tag k="ssr:stedsnr" v="650142" />
	</node>
	<node lat="63.10256111465017" lon="7.883452770901376" id="-5124">
		<tag k="name" v="Gravbukta" />
		<tag k="natural" v="bay" />
		<tag k="ssr:stedsnr" v="650337" />
	</node>
	<node lat="63.1069083295417" lon="7.724316673768374" id="-5125">
		<tag k="name" v="Sørholmen" />
		<tag k="place" v="islet" />
		<tag k="ssr:stedsnr" v="650296" />
	</node>
	<node lat="63.13053055279842" lon="7.711866668336437" id="-5126">
		<tag k="name" v="Laksvågen" />
		<tag k="natural" v="bay" />
		<tag k="ssr:stedsnr" v="650722" />
	</node>
	<node lat="63.23237777783192" lon="7.552472217735877" id="-5127">
		<tag k="name" v="Nordre Fausken" />
		<tag k="natural" v="shoal" />
		<tag k="place" v="locality" />
		<tag k="ssr:stedsnr" v="655396" />
	</node>
	<node lat="63.130852778479905" lon="7.705933325843124" id="-5128">
		<tag k="name" v="Fluktneset" />
		<tag k="natural" v="cape" />
		<tag k="ssr:stedsnr" v="655503" />
	</node>
	<node lat="63.20834999557717" lon="7.483705546733888" id="-5129">
		<tag k="name" v="Litletaren" />
		<tag k="natural" v="shoal" />
		<tag k="place" v="locality" />
		<tag k="ssr:stedsnr" v="655700" />
	</node>
	<node lat="63.13022500264751" lon="7.744041673970436" id="-5130">
		<tag k="name" v="Lasken" />
		<tag k="natural" v="bay" />
		<tag k="ssr:stedsnr" v="662912" />
	</node>
	<node lat="63.02915277991962" lon="7.817497216127427" id="-5131">
		<tag k="name" v="Myra" />
		<tag k="place" v="farm" />
		<tag k="ssr:stedsnr" v="710097" />
	</node>
	<node lat="63.04663889290766" lon="7.860958340370759" id="-5132">
		<tag k="alt_name" v="Vorsvik" />
		<tag k="name" v="Vorpvik" />
		<tag k="place" v="farm" />
		<tag k="ssr:stedsnr" v="710259" />
	</node>
	<node lat="63.05540832959941" lon="7.7710916668628585" id="-5133">
		<tag k="name" v="Ørnreirrabben" />
		<tag k="natural" v="cliff" />
		<tag k="ssr:stedsnr" v="710269" />
	</node>
	<node lat="63.10390000011172" lon="7.761444437839431" id="-5134">
		<tag k="name" v="Vikaholmflua" />
		<tag k="natural" v="shoal" />
		<tag k="place" v="locality" />
		<tag k="ssr:stedsnr" v="890269" />
	</node>
	<node lat="63.11902500144395" lon="7.730011105149168" id="-5135">
		<tag k="name" v="Øvervågen" />
		<tag k="natural" v="bay" />
		<tag k="ssr:stedsnr" v="890443" />
	</node>
	<node lat="63.10664166433855" lon="7.748724999119469" id="-5136">
		<tag k="name" v="Eriksenneset" />
		<tag k="natural" v="cape" />
		<tag k="ssr:stedsnr" v="890479" />
	</node>
	<node lat="63.102122220781915" lon="7.827958337224814" id="-5137">
		<tag k="name" v="Rensvikneset" />
		<tag k="natural" v="cape" />
		<tag k="ssr:stedsnr" v="891284" />
	</node>
	<node lat="63.10128889309276" lon="7.722324990505768" id="-5138">
		<tag k="fixme" v="consider seamark:type=rock or natural=shoal" />
		<tag k="name" v="Vestre Skjerva" />
		<tag k="place" v="islet" />
		<tag k="ssr:stedsnr" v="891338" />
	</node>
	<node lat="63.088755552714545" lon="7.725924997457315" id="-5139">
		<tag k="name" v="Kopparholmflua" />
		<tag k="place" v="locality" />
		<tag k="seamark:type" v="rock" />
		<tag k="ssr:stedsnr" v="891343" />
	</node>
	<node lat="63.10546667065008" lon="7.727669442299654" id="-5140">
		<tag k="name" v="Bakarneset" />
		<tag k="natural" v="cape" />
		<tag k="ssr:stedsnr" v="891522" />
	</node>
	<node lat="63.115019446678694" lon="7.737858334937074" id="-5141">
		<tag k="name" v="Holmasundet" />
		<tag k="natural" v="strait" />
		<tag k="ssr:stedsnr" v="891524" />
	</node>
	<node lat="63.11247500261666" lon="7.825377782087273" id="-5142">
		<tag k="aeroway" v="aerodrome" />
		<tag k="alt_name" v="Kvernberget" />
		<tag k="name" v="Kristiansund lufthavn, Kvernberget" />
		<tag k="old_name" v="Kristiansund lufthavn;Kværnberget" />
		<tag k="ssr:stedsnr" v="679307" />
	</node>
	<node lat="63.10309167050188" lon="7.847830553678835" id="-5143">
		<tag k="name" v="Jåvika" />
		<tag k="place" v="farm" />
		<tag k="ssr:stedsnr" v="679324" />
	</node>
	<node lat="63.18346944814753" lon="7.658358333968934" id="-5144">
		<tag k="fixme" v="consider seamark:type=rock or natural=shoal" />
		<tag k="name" v="Klovningen" />
		<tag k="place" v="islet" />
		<tag k="ssr:stedsnr" v="679632" />
	</node>
	<node lat="63.08102499850246" lon="7.707055558038987" id="-5145">
		<tag k="name" v="Valholmen" />
		<tag k="place" v="islet" />
		<tag k="ssr:stedsnr" v="679704" />
	</node>
	<node lat="63.02747778063046" lon="7.815461107391245" id="-5146">
		<tag k="name" v="Sjøvang" />
		<tag k="place" v="farm" />
		<tag k="ssr:stedsnr" v="680262" />
	</node>
	<node lat="63.087769446737454" lon="7.768922219579686" id="-5147">
		<tag k="name" v="Huse" />
		<tag k="place" v="farm" />
		<tag k="ssr:stedsnr" v="680360" />
	</node>
	<node lat="63.02726111066807" lon="7.795747215206378" id="-5148">
		<tag k="name" v="Ekservollen" />
		<tag k="place" v="farm" />
		<tag k="ssr:stedsnr" v="893078" />
	</node>
	<node lat="63.019844446539466" lon="7.75545278664775" id="-5149">
		<tag k="name" v="Djupvikbukta" />
		<tag k="natural" v="bay" />
		<tag k="ssr:stedsnr" v="893088" />
	</node>
	<node lat="63.03084721968145" lon="7.764063893352546" id="-5150">
		<tag k="name" v="Myra" />
		<tag k="place" v="farm" />
		<tag k="ssr:stedsnr" v="893090" />
	</node>
	<node lat="63.10217500416742" lon="7.819688885413994" id="-5151">
		<tag k="name" v="Rensviksundet" />
		<tag k="natural" v="strait" />
		<tag k="ssr:stedsnr" v="893147" />
	</node>
	<node lat="63.04240278207831" lon="7.839652768675509" id="-5152">
		<tag k="alt_name" v="Pikhaugen" />
		<tag k="name" v="Nøre Pikhaugen" />
		<tag k="natural" v="hill" />
		<tag k="place" v="locality" />
		<tag k="ssr:stedsnr" v="893240" />
	</node>
	<node lat="63.047805558424976" lon="7.819644445391049" id="-5153">
		<tag k="name" v="Grønhaugen" />
		<tag k="natural" v="hill" />
		<tag k="place" v="locality" />
		<tag k="ssr:stedsnr" v="893241" />
	</node>
	<node lat="63.04894999743167" lon="7.755036104843822" id="-5154">
		<tag k="name" v="Freikollvatnet" />
		<tag k="natural" v="water" />
		<tag k="ssr:stedsnr" v="893247" />
	</node>
	<node lat="63.0449305584485" lon="7.7654611172872166" id="-5155">
		<tag k="ford" v="yes" />
		<tag k="name" v="Øvervadet" />
		<tag k="place" v="locality" />
		<tag k="ssr:stedsnr" v="893253" />
	</node>
	<node lat="63.12780555250278" lon="7.865769444677361" id="-5156">
		<tag k="name" v="Gildreberget" />
		<tag k="natural" v="hill" />
		<tag k="place" v="locality" />
		<tag k="ssr:stedsnr" v="893738" />
	</node>
	<node lat="63.12681389240957" lon="7.756274996236007" id="-5157">
		<tag k="alt_name" v="Eldholmen" />
		<tag k="name" v="Eaholmen" />
		<tag k="place" v="islet" />
		<tag k="ssr:stedsnr" v="893757" />
	</node>
	<node lat="63.022744448555265" lon="7.739747212312178" id="-5158">
		<tag k="fixme" v="consider seamark:type=rock or natural=shoal" />
		<tag k="name" v="Småskjera" />
		<tag k="place" v="islet" />
		<tag k="ssr:stedsnr" v="893786" />
	</node>
	<node lat="63.129049996341955" lon="7.80263055274488" id="-5159">
		<tag k="name" v="Fanthola" />
		<tag k="natural" v="bay" />
		<tag k="ssr:stedsnr" v="893698" />
	</node>
	<node lat="63.10119167092264" lon="7.733486109262443" id="-5160">
		<tag k="alt_name" v="Østre Skjerva" />
		<tag k="name" v="Skjerva" />
		<tag k="natural" v="cape" />
		<tag k="ssr:stedsnr" v="893842" />
	</node>
	<node lat="63.06276111449666" lon="7.703688888583673" id="-5161">
		<tag k="name" v="Ytter Amundøy" />
		<tag k="place" v="island" />
		<tag k="ssr:stedsnr" v="893853" />
	</node>
	<node lat="63.09602222529098" lon="7.8993083394827766" id="-5162">
		<tag k="name" v="Rundholmen" />
		<tag k="place" v="islet" />
		<tag k="ssr:stedsnr" v="894401" />
	</node>
	<node lat="63.11403333718384" lon="7.735608332958166" id="-5163">
		<tag k="amenity" v="ferry_terminal" />
		<tag k="name" v="Kristiansund ferjekai" />
		<tag k="ssr:stedsnr" v="702305" />
	</node>
	<node lat="63.10536666249898" lon="7.787897228974958" id="-5164">
		<tag k="name" v="Breivikfjøra" />
		<tag k="place" v="farm" />
		<tag k="ssr:stedsnr" v="708269" />
	</node>
	<node lat="63.1047916635025" lon="7.817547218094876" id="-5165">
		<tag k="name" v="Småholman" />
		<tag k="place" v="islet" />
		<tag k="ssr:stedsnr" v="708279" />
	</node>
	<node lat="63.04370000261115" lon="7.817983339260519" id="-5166">
		<tag k="name" v="Hekkeltindan" />
		<tag k="natural" v="hill" />
		<tag k="place" v="locality" />
		<tag k="ssr:stedsnr" v="710248" />
	</node>
	<node lat="63.09430000239372" lon="7.792105561244547" id="-5167">
		<tag k="name" v="Skarvhammaren" />
		<tag k="natural" v="hill" />
		<tag k="place" v="locality" />
		<tag k="ssr:stedsnr" v="710180" />
	</node>
	<node lat="63.0474292388845" lon="7.814872513495007" id="-5168">
		<tag k="name" v="Grønlihalsen" />
		<tag k="natural" v="ridge" />
		<tag k="place" v="locality" />
		<tag k="ssr:stedsnr" v="711009" />
	</node>
	<node lat="63.02430555617163" lon="7.806500007534889" id="-5169">
		<tag k="fixme" v="consider place=hamlet" />
		<tag k="name" v="Nedre Frei" />
		<tag k="place" v="village" />
		<tag k="ssr:stedsnr" v="711083" />
	</node>
	<node lat="63.12216388459683" lon="7.833091660308" id="-5170">
		<tag k="name" v="Småbøen" />
		<tag k="natural" v="hill" />
		<tag k="place" v="locality" />
		<tag k="ssr:stedsnr" v="711506" />
	</node>
	<node lat="63.11554722416612" lon="7.843422214441041" id="-5171">
		<tag k="name" v="Geilhaugdalen" />
		<tag k="natural" v="valley" />
		<tag k="place" v="locality" />
		<tag k="ssr:stedsnr" v="711496" />
	</node>
	<node lat="63.12881389173288" lon="7.694680560379623" id="-5172">
		<tag k="name" v="Tjørnvikneset" />
		<tag k="natural" v="cape" />
		<tag k="ssr:stedsnr" v="711724" />
	</node>
	<node lat="63.22956389096951" lon="7.574086112259958" id="-5173">
		<tag k="name" v="Korntaren" />
		<tag k="natural" v="shoal" />
		<tag k="place" v="locality" />
		<tag k="ssr:stedsnr" v="898394" />
	</node>
	<node lat="63.12296111342688" lon="7.775524993969684" id="-5174">
		<tag k="name" v="Dalasundet" />
		<tag k="natural" v="strait" />
		<tag k="ssr:stedsnr" v="716528" />
	</node>
	<node lat="63.12231388532845" lon="7.758897227219723" id="-5175">
		<tag k="name" v="Bentneset" />
		<tag k="place" v="quarter" />
		<tag k="ssr:stedsnr" v="723843" />
	</node>
	<node lat="63.12473333156624" lon="7.718102782170529" id="-5176">
		<tag k="leisure" v="pitch" />
		<tag k="name" v="KFK-banen" />
		<tag k="ssr:stedsnr" v="723889" />
	</node>
	<node lat="63.05039166284443" lon="7.853297224226334" id="-5177">
		<tag k="name" v="Trøa" />
		<tag k="place" v="farm" />
		<tag k="ssr:stedsnr" v="740143" />
	</node>
	<node lat="63.0570472240032" lon="7.871866668996163" id="-5178">
		<tag k="name" v="Lia" />
		<tag k="place" v="farm" />
		<tag k="ssr:stedsnr" v="740155" />
	</node>
	<node lat="63.10543889227513" lon="7.839791663279121" id="-5179">
		<tag k="name" v="Omsundet" />
		<tag k="natural" v="strait" />
		<tag k="ssr:stedsnr" v="740340" />
	</node>
	<node lat="63.189963892202414" lon="7.6416805614312295" id="-5180">
		<tag k="name" v="Sørgripen" />
		<tag k="place" v="islet" />
		<tag k="ssr:stedsnr" v="740641" />
	</node>
	<node lat="63.19062777743016" lon="7.696188885449504" id="-5181">
		<tag k="fixme" v="consider seamark:type=rock or natural=shoal" />
		<tag k="name" v="Fonnskaftet" />
		<tag k="place" v="islet" />
		<tag k="ssr:stedsnr" v="740644" />
	</node>
	<node lat="63.2159055587665" lon="7.590949990731618" id="-5182">
		<tag k="name" v="Klakken" />
		<tag k="place" v="islet" />
		<tag k="ssr:stedsnr" v="740650" />
	</node>
	<node lat="63.114925000446256" lon="7.697719438389763" id="-5183">
		<tag k="name" v="Klubba" />
		<tag k="natural" v="hill" />
		<tag k="place" v="locality" />
		<tag k="ssr:stedsnr" v="740692" />
	</node>
	<node lat="63.029174998314716" lon="7.729611115993981" id="-5184">
		<tag k="name" v="Endresetholmen" />
		<tag k="place" v="islet" />
		<tag k="ssr:stedsnr" v="741288" />
	</node>
	<node lat="63.13039444447704" lon="7.848358338973473" id="-5186">
		<tag k="name" v="Nordre Kolvika" />
		<tag k="place" v="isolated_dwelling" />
		<tag k="ssr:stedsnr" v="905162" />
	</node>
	<node lat="63.085163887288175" lon="7.779925007922455" id="-5187">
		<tag k="name" v="Haugabukta" />
		<tag k="natural" v="bay" />
		<tag k="ssr:stedsnr" v="906349" />
	</node>
	<node lat="63.09264166315418" lon="7.757230551512847" id="-5188">
		<tag k="name" v="Bolgtaren" />
		<tag k="natural" v="shoal" />
		<tag k="place" v="locality" />
		<tag k="ssr:stedsnr" v="769311" />
	</node>
	<node lat="63.108472223064354" lon="7.724347212363857" id="-5189">
		<tag k="amenity" v="hospital" />
		<tag k="name" v="Kristiansund sykehus" />
		<tag k="ssr:stedsnr" v="769505" />
	</node>
	<node lat="63.11873900737448" lon="7.735748581699391" id="-5190">
		<tag k="name" v="Naustkroken" />
		<tag k="natural" v="cape" />
		<tag k="ssr:stedsnr" v="769508" />
	</node>
	<node lat="63.09495833407795" lon="7.775697229106788" id="-5192">
		<tag k="alt_name" v="Blindskjeret" />
		<tag k="fixme" v="consider seamark:type=rock or natural=shoal" />
		<tag k="name" v="Blindskjæret" />
		<tag k="place" v="islet" />
		<tag k="ssr:stedsnr" v="771355" />
	</node>
	<node lat="63.05949722483497" lon="7.804483325211962" id="-5193">
		<tag k="name" v="Svartliteigen" />
		<tag k="natural" v="slope" />
		<tag k="place" v="locality" />
		<tag k="ssr:stedsnr" v="771266" />
	</node>
	<node lat="63.06056666832594" lon="7.805233338651762" id="-5194">
		<tag k="name" v="Sødalsskaret" />
		<tag k="natural" v="valley" />
		<tag k="place" v="locality" />
		<tag k="ssr:stedsnr" v="772115" />
	</node>
	<node lat="63.078677775730284" lon="7.717383335084621" id="-5195">
		<tag k="name" v="Lundeval" />
		<tag k="place" v="farm" />
		<tag k="ssr:stedsnr" v="771856" />
	</node>
	<node lat="63.0413333294738" lon="7.745775008783083" id="-5196">
		<tag k="name" v="Røykjarhuset" />
		<tag k="place" v="locality" />
		<tag k="ssr:stedsnr" v="771858" />
	</node>
	<node lat="63.05934721852565" lon="7.697519453256018" id="-5197">
		<tag k="name" v="Spellsundet" />
		<tag k="natural" v="strait" />
		<tag k="ssr:stedsnr" v="771861" />
	</node>
	<node lat="63.05331793511486" lon="7.701596477991659" id="-5198">
		<tag k="name" v="Blomneset" />
		<tag k="place" v="farm" />
		<tag k="ssr:stedsnr" v="771863" />
	</node>
	<node lat="63.07770000246363" lon="7.831266663330671" id="-5199">
		<tag k="name" v="Mehaugtjørna" />
		<tag k="natural" v="water" />
		<tag k="ssr:stedsnr" v="772005" />
	</node>
	<node lat="63.02372499829369" lon="7.804213884826075" id="-5200">
		<tag k="name" v="Kjerkehaugen" />
		<tag k="natural" v="hill" />
		<tag k="place" v="locality" />
		<tag k="ssr:stedsnr" v="772071" />
	</node>
	<node lat="63.02491666678764" lon="7.771952780122986" id="-5201">
		<tag k="name" v="Flatsetholmen" />
		<tag k="place" v="islet" />
		<tag k="ssr:stedsnr" v="772073" />
	</node>
	<node lat="63.0784694446122" lon="7.88537499065268" id="-5202">
		<tag k="name" v="Saltkjelbukta" />
		<tag k="natural" v="bay" />
		<tag k="ssr:stedsnr" v="772378" />
	</node>
	<node lat="63.11319444161198" lon="7.840652768271411" id="-5203">
		<tag k="name" v="Reset" />
		<tag k="natural" v="slope" />
		<tag k="place" v="locality" />
		<tag k="ssr:stedsnr" v="772505" />
	</node>
	<node lat="63.12699166498486" lon="7.768261117930267" id="-5204">
		<tag k="name" v="Karibrunnen" />
		<tag k="place" v="locality" />
		<tag k="ssr:stedsnr" v="772712" />
	</node>
	<node lat="63.096691670872794" lon="7.886080546617503" id="-5205">
		<tag k="landuse" v="military" />
		<tag k="name" v="Kvalvik fort" />
		<tag k="ssr:stedsnr" v="777212" />
	</node>
	<node lat="63.12232222293258" lon="7.703891663263064" id="-5206">
		<tag k="name" v="Brunsvikbukta" />
		<tag k="natural" v="bay" />
		<tag k="ssr:stedsnr" v="801682" />
	</node>
	<node lat="63.02664722339179" lon="7.763719453689284" id="-5207">
		<tag k="name" v="Flatsetsundet" />
		<tag k="natural" v="strait" />
		<tag k="ssr:stedsnr" v="802265" />
	</node>
	<node lat="63.10805817271124" lon="7.631746836838737" id="-5208">
		<tag k="layer" v="-1" />
		<tag k="name" v="Atlanterhavstunnelen" />
		<tag k="ssr:stedsnr" v="814830" />
		<tag k="tunnel" v="yes" />
	</node>
	<node lat="63.11019166458957" lon="7.767511117636241" id="-5209">
		<tag k="layer" v="-1" />
		<tag k="name" v="Fosnaporten" />
		<tag k="ssr:stedsnr" v="814831" />
		<tag k="tunnel" v="yes" />
	</node>
	<node lat="63.11763055377726" lon="7.74841666918797" id="-5210">
		<tag k="bridge" v="yes" />
		<tag k="layer" v="1" />
		<tag k="name" v="Skomakerbrua" />
		<tag k="ssr:stedsnr" v="816319" />
	</node>
	<node lat="63.069117803832214" lon="7.88071692915841" id="-5211">
		<tag k="fixme" v="consider place=hamlet" />
		<tag k="name" v="Kvalvåg" />
		<tag k="place" v="farm" />
		<tag k="ssr:stedsnr" v="922168" />
	</node>
	<node lat="63.05941944698158" lon="7.830069447249805" id="-5212">
		<tag k="fixme" v="consider natural=peak for the most distinct mountains in the district" />
		<tag k="name" v="Vassåsen" />
		<tag k="natural" v="hill" />
		<tag k="place" v="locality" />
		<tag k="ssr:stedsnr" v="922169" />
	</node>
	<node lat="63.065172221935455" lon="7.7705694393533635" id="-5213">
		<tag k="name" v="Bolgvatnet" />
		<tag k="natural" v="water" />
		<tag k="ssr:stedsnr" v="922172" />
		<tag k="water" v="lake" />
	</node>
	<node lat="63.08313332957048" lon="7.894797230843161" id="-5214">
		<tag k="name" v="Ørnvikneset" />
		<tag k="natural" v="cape" />
		<tag k="ssr:stedsnr" v="922300" />
	</node>
	<node lat="63.10382777916606" lon="7.883983340603773" id="-5215">
		<tag k="name" v="Sagneset" />
		<tag k="natural" v="cape" />
		<tag k="ssr:stedsnr" v="922336" />
	</node>
	<node lat="63.05084166399561" lon="7.697811120474797" id="-5216">
		<tag k="name" v="Storkattholmen" />
		<tag k="place" v="islet" />
		<tag k="ssr:stedsnr" v="922496" />
	</node>
	<node lat="63.06087024528782" lon="7.706507724842782" id="-5217">
		<tag k="name" v="Amundøya" />
		<tag k="place" v="island" />
		<tag k="ssr:stedsnr" v="922462" />
	</node>
	<node lat="63.067702754604476" lon="7.716864087879692" id="-5218">
		<tag k="fixme" v="consider place=hamlet" />
		<tag k="name" v="Bjørnvika" />
		<tag k="place" v="farm" />
		<tag k="ssr:stedsnr" v="922464" />
	</node>
	<node lat="63.050202780291286" lon="7.711350006164297" id="-5219">
		<tag k="name" v="Kystvågen" />
		<tag k="place" v="farm" />
		<tag k="ssr:stedsnr" v="922550" />
	</node>
	<node lat="63.18489999969411" lon="7.592597229114851" id="-5220">
		<tag k="name" v="Skjærbåan" />
		<tag k="natural" v="shoal" />
		<tag k="place" v="locality" />
		<tag k="ssr:stedsnr" v="922638" />
	</node>
	<node lat="63.22675000398399" lon="7.612850004643478" id="-5221">
		<tag k="fixme" v="consider seamark:type=rock or natural=shoal" />
		<tag k="name" v="Einarskjæret" />
		<tag k="place" v="islet" />
		<tag k="ssr:stedsnr" v="922645" />
	</node>
	<node lat="63.20465555350432" lon="7.577199997566285" id="-5222">
		<tag k="name" v="Moholmen" />
		<tag k="place" v="islet" />
		<tag k="ssr:stedsnr" v="922648" />
	</node>
	<node lat="63.20653888796164" lon="7.568677781823559" id="-5223">
		<tag k="fixme" v="consider seamark:type=rock or natural=shoal" />
		<tag k="name" v="Vestre Moholmskjæra" />
		<tag k="place" v="islet" />
		<tag k="ssr:stedsnr" v="922651" />
	</node>
	<node lat="63.202522220971595" lon="7.6129361170695695" id="-5224">
		<tag k="alt_name" v="Landbakkskjæra" />
		<tag k="fixme" v="consider seamark:type=rock or natural=shoal" />
		<tag k="name" v="Landbakken" />
		<tag k="place" v="islet" />
		<tag k="ssr:stedsnr" v="922652" />
	</node>
	<node lat="63.09973055602848" lon="7.7317638857595" id="-5225">
		<tag k="fixme" v="consider seamark:type=rock or natural=shoal" />
		<tag k="name" v="Linskjæret" />
		<tag k="place" v="islet" />
		<tag k="ssr:stedsnr" v="830269" />
	</node>
	<node lat="63.10057777877264" lon="7.724991674186413" id="-5226">
		<tag k="fixme" v="consider seamark:type=rock or natural=shoal" />
		<tag k="name" v="Frendeskjæret" />
		<tag k="place" v="islet" />
		<tag k="ssr:stedsnr" v="830273" />
	</node>
	<node lat="63.090727775062" lon="7.793622228393629" id="-5228">
		<tag k="alt_name" v="Nøre Bolgvågen" />
		<tag k="name" v="Nør Bolgvågen" />
		<tag k="natural" v="bay" />
		<tag k="ssr:stedsnr" v="832181" />
	</node>
	<node lat="63.08395833280567" lon="7.714136119005102" id="-5229">
		<tag k="name" v="Ytre Valneset" />
		<tag k="natural" v="cape" />
		<tag k="ssr:stedsnr" v="832835" />
	</node>
	<node lat="63.08508889025846" lon="7.739347226021359" id="-5230">
		<tag k="name" v="Daudemanshaugen" />
		<tag k="natural" v="hill" />
		<tag k="place" v="locality" />
		<tag k="ssr:stedsnr" v="832838" />
	</node>
	<node lat="63.03871389150017" lon="7.739666668178763" id="-5231">
		<tag k="name" v="Svartdalen" />
		<tag k="natural" v="valley" />
		<tag k="place" v="locality" />
		<tag k="ssr:stedsnr" v="832881" />
	</node>
	<node lat="63.03857777490107" lon="7.733386116269539" id="-5232">
		<tag k="alt_name" v="Enga" />
		<tag k="name" v="Engen" />
		<tag k="place" v="farm" />
		<tag k="ssr:stedsnr" v="832882" />
	</node>
	<node lat="63.03804139922559" lon="7.822816194912255" id="-5233">
		<tag k="name" v="Sandbrekka" />
		<tag k="natural" v="slope" />
		<tag k="place" v="locality" />
		<tag k="ssr:stedsnr" v="833090" />
	</node>
	<node lat="63.1211694466989" lon="7.859111112904302" id="-5235">
		<tag k="name" v="Sandvikhaugen" />
		<tag k="natural" v="hill" />
		<tag k="place" v="locality" />
		<tag k="ssr:stedsnr" v="923310" />
	</node>
	<node lat="63.11362777526338" lon="7.782180551057937" id="-5236">
		<tag k="name" v="Vollvatnet" />
		<tag k="natural" v="water" />
		<tag k="ssr:stedsnr" v="923315" />
		<tag k="water" v="lake" />
	</node>
	<node lat="63.0345138850481" lon="7.824011106352515" id="-5237">
		<tag k="name" v="Orstranda" />
		<tag k="place" v="farm" />
		<tag k="ssr:stedsnr" v="923156" />
	</node>
	<node lat="63.199879734144226" lon="7.729773761308088" id="-5238">
		<tag k="alt_name" v="Hilbåen" />
		<tag k="name" v="Hilbåan" />
		<tag k="natural" v="shoal" />
		<tag k="old_name" v="Hilbåren" />
		<tag k="place" v="locality" />
		<tag k="ssr:stedsnr" v="923547" />
	</node>
	<node lat="63.06624722315029" lon="7.700072218206141" id="-5239">
		<tag k="name" v="Årholmen" />
		<tag k="place" v="islet" />
		<tag k="ssr:stedsnr" v="923562" />
	</node>
	<node lat="63.06478055475949" lon="7.690719444474314" id="-5240">
		<tag k="name" v="Tjuvholmen" />
		<tag k="place" v="islet" />
		<tag k="ssr:stedsnr" v="923563" />
	</node>
	<node lat="63.11045278218749" lon="7.727947225698928" id="-5241">
		<tag k="name" v="Kristiansund" />
		<tag k="place" v="town" />
		<tag k="ssr:stedsnr" v="923708" />
	</node>
	<node lat="63.12172499959453" lon="7.6915638806976565" id="-5242">
		<tag k="name" v="Eaholmen" />
		<tag k="place" v="islet" />
		<tag k="ssr:stedsnr" v="923732" />
	</node>
	<node lat="63.09928889205853" lon="7.744683339401228" id="-5243">
		<tag k="fixme" v="consider seamark:type=rock or natural=shoal" />
		<tag k="name" v="Lindskjæret" />
		<tag k="place" v="islet" />
		<tag k="ssr:stedsnr" v="838377" />
	</node>
	<node lat="63.02502778202668" lon="7.795227777958455" id="-5244">
		<tag k="name" v="Freistranda" />
		<tag k="natural" v="beach" />
		<tag k="ssr:stedsnr" v="838410" />
	</node>
	<node lat="63.0503361092196" lon="7.7067055592222715" id="-5245">
		<tag k="name" v="Nyland" />
		<tag k="place" v="farm" />
		<tag k="ssr:stedsnr" v="838414" />
	</node>
	<node lat="63.13485555166139" lon="7.790358342645432" id="-5246">
		<tag k="name" v="Hildafallet" />
		<tag k="natural" v="shoal" />
		<tag k="place" v="locality" />
		<tag k="ssr:stedsnr" v="845898" />
	</node>
	<node lat="63.1261472218135" lon="7.784691665420793" id="-5247">
		<tag k="name" v="Ormtunga" />
		<tag k="natural" v="cape" />
		<tag k="ssr:stedsnr" v="845901" />
	</node>
	<node lat="63.085719442844365" lon="7.874183339451328" id="-5248">
		<tag k="loc_name" v="Solsletta" />
		<tag k="name" v="Ånesmyra" />
		<tag k="place" v="quarter" />
		<tag k="ssr:stedsnr" v="848616" />
	</node>
	<node lat="63.03500833280266" lon="7.781530561334282" id="-5249">
		<tag k="name" v="Halslihaugen" />
		<tag k="place" v="quarter" />
		<tag k="ssr:stedsnr" v="848626" />
	</node>
	<node lat="63.06552777607204" lon="7.817652771994473" id="-5250">
		<tag k="loc_name" v="Brattåstjønna" />
		<tag k="name" v="Brattåstjørna" />
		<tag k="natural" v="water" />
		<tag k="ssr:stedsnr" v="862209" />
	</node>
	<node lat="63.075422222720334" lon="7.844213880979567" id="-5251">
		<tag k="name" v="Litlskarven" />
		<tag k="natural" v="hill" />
		<tag k="place" v="locality" />
		<tag k="ssr:stedsnr" v="862351" />
	</node>
	<node lat="63.027719447062445" lon="7.822030548982129" id="-5252">
		<tag k="name" v="Oterneset" />
		<tag k="natural" v="cape" />
		<tag k="ssr:stedsnr" v="862257" />
	</node>
	<node lat="63.0169250015777" lon="7.759425001699874" id="-5253">
		<tag k="name" v="Kvitneset" />
		<tag k="natural" v="cape" />
		<tag k="ssr:stedsnr" v="862450" />
	</node>
	<node lat="63.123894444018546" lon="7.708877771266587" id="-5254">
		<tag k="name" v="Brunsvika" />
		<tag k="place" v="farm" />
		<tag k="ssr:stedsnr" v="862703" />
	</node>
	<node lat="63.066288893454576" lon="7.776655561020603" id="-5255">
		<tag k="name" v="Midtsanden" />
		<tag k="natural" v="beach" />
		<tag k="ssr:stedsnr" v="893023" />
	</node>
	<node lat="63.03339166825002" lon="7.820813897941233" id="-5256">
		<tag k="name" v="Elvakleiva" />
		<tag k="place" v="farm" />
		<tag k="ssr:stedsnr" v="893106" />
	</node>
	<node lat="63.074836109131745" lon="7.7971527857485485" id="-5257">
		<tag k="name" v="Nordlia" />
		<tag k="natural" v="slope" />
		<tag k="place" v="locality" />
		<tag k="ssr:stedsnr" v="893121" />
	</node>
	<node lat="63.12183055856169" lon="7.737574994353405" id="-5258">
		<tag k="name" v="Stortuva" />
		<tag k="natural" v="hill" />
		<tag k="place" v="locality" />
		<tag k="ssr:stedsnr" v="893310" />
	</node>
	<node lat="63.116836115539016" lon="7.719319448188526" id="-5259">
		<tag k="alt_name" v="Storvarden" />
		<tag k="name" v="Varden" />
		<tag k="natural" v="hill" />
		<tag k="place" v="locality" />
		<tag k="ssr:stedsnr" v="893312" />
	</node>
	<node lat="63.05199721914015" lon="7.7981499951573054" id="-5260">
		<tag k="name" v="Seterbekken" />
		<tag k="ssr:stedsnr" v="893259" />
		<tag k="waterway" v="stream" />
	</node>
	<node lat="63.123627780027874" lon="7.826305552305982" id="-5261">
		<tag k="name" v="Nonshaugen" />
		<tag k="natural" v="hill" />
		<tag k="place" v="locality" />
		<tag k="ssr:stedsnr" v="893519" />
	</node>
	<node lat="63.12151388478545" lon="7.855219453219473" id="-5262">
		<tag k="name" v="Sandviktjønna" />
		<tag k="natural" v="water" />
		<tag k="ssr:stedsnr" v="893530" />
	</node>
	<node lat="63.11358610886009" lon="7.870661119370085" id="-5263">
		<tag k="name" v="Åkeren" />
		<tag k="natural" v="bay" />
		<tag k="ssr:stedsnr" v="893534" />
	</node>
	<node lat="63.121394440245886" lon="7.778647221805469" id="-5264">
		<tag k="name" v="Osen" />
		<tag k="natural" v="bay" />
		<tag k="ssr:stedsnr" v="893537" />
	</node>
	<node lat="63.12047778112789" lon="7.757758329005487" id="-5265">
		<tag k="name" v="Teistholmsundet" />
		<tag k="natural" v="strait" />
		<tag k="ssr:stedsnr" v="893538" />
	</node>
	<node lat="63.10644999858951" lon="7.735205564213089" id="-5266">
		<tag k="name" v="Wesselhaugen" />
		<tag k="natural" v="hill" />
		<tag k="place" v="locality" />
		<tag k="ssr:stedsnr" v="893682" />
	</node>
	<node lat="63.05664999586245" lon="7.718486105694466" id="-5267">
		<tag k="name" v="Bukkholmen" />
		<tag k="place" v="islet" />
		<tag k="ssr:stedsnr" v="893873" />
	</node>
	<node lat="63.087952774312896" lon="7.880302774468934" id="-5268">
		<tag k="name" v="Ørnhaugen" />
		<tag k="natural" v="hill" />
		<tag k="place" v="locality" />
		<tag k="ssr:stedsnr" v="894380" />
	</node>
	<node lat="63.06670833202731" lon="7.882658334689921" id="-5269">
		<tag k="name" v="Kvalvåg" />
		<tag k="place" v="quarter" />
		<tag k="ssr:stedsnr" v="904259" />
	</node>
	<node lat="63.0846916631145" lon="7.7814500089795215" id="-5270">
		<tag k="man_made" v="quay" />
		<tag k="name" v="Stabilkaia" />
		<tag k="place" v="locality" />
		<tag k="ssr:stedsnr" v="906352" />
	</node>
	<node lat="63.09646944270726" lon="7.847897216123126" id="-5271">
		<tag k="name" v="Frei Sentrum" />
		<tag k="place" v="quarter" />
		<tag k="ssr:stedsnr" v="909604" />
	</node>
	<node lat="63.020208337768096" lon="7.742944442693199" id="-5272">
		<tag k="name" v="Prestholmen" />
		<tag k="place" v="islet" />
		<tag k="ssr:stedsnr" v="922203" />
	</node>
	<node lat="63.07101666566406" lon="7.72691945231181" id="-5273">
		<tag k="name" v="Frei" />
		<tag k="place" v="island" />
		<tag k="ssr:stedsnr" v="922313" />
	</node>
	<node lat="63.27805277511704" lon="7.28667500857401" id="-5274">
		<tag k="alt_name" v="Bjørntaren" />
		<tag k="name" v="Bjørnstaren" />
		<tag k="natural" v="shoal" />
		<tag k="place" v="locality" />
		<tag k="ssr:stedsnr" v="923609" />
	</node>
	<node lat="63.297377774643984" lon="7.394499992609749" id="-5275">
		<tag k="name" v="Langtaren" />
		<tag k="natural" v="shoal" />
		<tag k="place" v="locality" />
		<tag k="ssr:stedsnr" v="923630" />
	</node>
	<node lat="63.11191666604824" lon="7.870433342791823" id="-5276">
		<tag k="amenity" v="ferry_terminal" />
		<tag k="name" v="Seivika ferjekai" />
		<tag k="ssr:stedsnr" v="945306" />
	</node>
	<node lat="63.08617222614825" lon="7.770933329187598" id="-5277">
		<tag k="name" v="Husøyhammeren" />
		<tag k="natural" v="cape" />
		<tag k="ssr:stedsnr" v="951300" />
	</node>
	<node lat="63.10596110690872" lon="7.752133338716074" id="-5278">
		<tag k="name" v="Smedvika" />
		<tag k="natural" v="bay" />
		<tag k="ssr:stedsnr" v="953324" />
	</node>
	<node lat="63.11769166585516" lon="7.74515834021117" id="-5279">
		<tag k="name" v="Steinberget" />
		<tag k="natural" v="hill" />
		<tag k="place" v="locality" />
		<tag k="ssr:stedsnr" v="953332" />
	</node>
	<node lat="63.055219445094615" lon="7.843383329137691" id="-5280">
		<tag k="name" v="Øverdammen" />
		<tag k="natural" v="water" />
		<tag k="ssr:stedsnr" v="953242" />
	</node>
	<node lat="63.04503610681688" lon="7.840788885161648" id="-5281">
		<tag k="name" v="Heggedalshaugen" />
		<tag k="natural" v="hill" />
		<tag k="place" v="locality" />
		<tag k="ssr:stedsnr" v="953246" />
	</node>
	<node lat="63.0404777735926" lon="7.827274992867724" id="-5282">
		<tag k="alt_name" v="Pikhaugen" />
		<tag k="name" v="Søre Pikhaugen" />
		<tag k="natural" v="hill" />
		<tag k="place" v="locality" />
		<tag k="ssr:stedsnr" v="953247" />
	</node>
	<node lat="63.05309722521995" lon="7.788794446455619" id="-5283">
		<tag k="name" v="Myrstad" />
		<tag k="place" v="farm" />
		<tag k="ssr:stedsnr" v="953257" />
	</node>
	<node lat="63.07398055350661" lon="7.832169451327809" id="-5284">
		<tag k="name" v="Kjerringbekken" />
		<tag k="ssr:stedsnr" v="954001" />
		<tag k="waterway" v="stream" />
	</node>
	<node lat="63.03918611184995" lon="7.7708999968808055" id="-5285">
		<tag k="name" v="Tretthaugen" />
		<tag k="natural" v="hill" />
		<tag k="place" v="locality" />
		<tag k="ssr:stedsnr" v="954083" />
	</node>
	<node lat="63.03720277981847" lon="7.824552769694007" id="-5286">
		<tag k="name" v="Bjerkeli" />
		<tag k="place" v="farm" />
		<tag k="ssr:stedsnr" v="954096" />
	</node>
	<node lat="63.12374444002641" lon="7.759927768665161" id="-5287">
		<tag k="name" v="Dunkersundet" />
		<tag k="natural" v="strait" />
		<tag k="ssr:stedsnr" v="954511" />
	</node>
	<node lat="63.122519445649495" lon="7.761302776167305" id="-5288">
		<tag k="name" v="Bengtneset" />
		<tag k="natural" v="cape" />
		<tag k="ssr:stedsnr" v="954513" />
	</node>
	<node lat="63.061522225637525" lon="7.883116663179441" id="-5289">
		<tag k="name" v="Vikageilen" />
		<tag k="natural" v="bay" />
		<tag k="ssr:stedsnr" v="954251" />
	</node>
	<node lat="63.122319446779365" lon="7.6964583354090585" id="-5290">
		<tag k="fixme" v="consider seamark:type=rock or natural=shoal" />
		<tag k="name" v="Kragenskjæret" />
		<tag k="place" v="islet" />
		<tag k="ssr:stedsnr" v="966912" />
	</node>
	<node lat="63.0824305568116" lon="7.886230554434344" id="-5291">
		<tag k="name" v="Ørnvika" />
		<tag k="place" v="quarter" />
		<tag k="ssr:stedsnr" v="967403" />
	</node>
	<node lat="63.12900277494019" lon="7.838613889055666" id="-5295">
		<tag k="name" v="Kolvika" />
		<tag k="place" v="farm" />
		<tag k="ssr:stedsnr" v="12265" />
	</node>
	<node lat="63.12904167070375" lon="7.827150007290104" id="-5296">
		<tag k="name" v="Gløsvågmyran" />
		<tag k="place" v="farm" />
		<tag k="ssr:stedsnr" v="12266" />
	</node>
	<node lat="63.042747225913025" lon="7.7901027874446855" id="-5297">
		<tag k="name" v="Indre Jonsokhaugen" />
		<tag k="natural" v="hill" />
		<tag k="place" v="locality" />
		<tag k="ssr:stedsnr" v="12156" />
	</node>
	<node lat="63.047394447394474" lon="7.724527779300126" id="-5298">
		<tag k="name" v="Dalset" />
		<tag k="place" v="farm" />
		<tag k="ssr:stedsnr" v="12158" />
	</node>
	<node lat="63.08013055732861" lon="7.8403250089717265" id="-5299">
		<tag k="name" v="Drabovatnet" />
		<tag k="natural" v="water" />
		<tag k="ssr:stedsnr" v="12327" />
	</node>
	<node lat="63.07424444349641" lon="7.868113892057371" id="-5300">
		<tag k="name" v="Bogamyra" />
		<tag k="natural" v="wetland" />
		<tag k="ssr:stedsnr" v="12338" />
	</node>
	<node lat="63.112663889749435" lon="7.871694437564179" id="-5301">
		<tag k="name" v="Øygardsneset" />
		<tag k="natural" v="cape" />
		<tag k="ssr:stedsnr" v="12343" />
	</node>
	<node lat="63.05524722175183" lon="7.712213882252932" id="-5302">
		<tag k="name" v="Nordneset" />
		<tag k="natural" v="cape" />
		<tag k="ssr:stedsnr" v="12530" />
	</node>
	<node lat="63.20085278026502" lon="7.582816670865909" id="-5303">
		<tag k="fixme" v="consider seamark:type=rock or natural=shoal" />
		<tag k="name" v="Steet" />
		<tag k="place" v="islet" />
		<tag k="ssr:stedsnr" v="12657" />
	</node>
	<node lat="63.04355278137797" lon="7.70476110534337" id="-5304">
		<tag k="name" v="Gjengstøbukta" />
		<tag k="natural" v="bay" />
		<tag k="ssr:stedsnr" v="12586" />
	</node>
	<node lat="63.29444722395369" lon="7.36158611273392" id="-5305">
		<tag k="name" v="Vestkleppen" />
		<tag k="natural" v="shoal" />
		<tag k="place" v="locality" />
		<tag k="ssr:stedsnr" v="12607" />
	</node>
	<node lat="63.219269442929935" lon="7.548708334232072" id="-5306">
		<tag k="fixme" v="consider seamark:type=rock or natural=shoal" />
		<tag k="name" v="Humla" />
		<tag k="place" v="islet" />
		<tag k="ssr:stedsnr" v="12684" />
	</node>
	<node lat="63.12253888461597" lon="7.72736110932324" id="-5307">
		<tag k="bridge" v="yes" />
		<tag k="layer" v="1" />
		<tag k="name" v="Viadukta" />
		<tag k="ssr:stedsnr" v="27338" />
	</node>
	<node lat="63.10501110872469" lon="7.745050008654974" id="-5308">
		<tag k="man_made" v="quay" />
		<tag k="name" v="Leslibrygga" />
		<tag k="place" v="locality" />
		<tag k="ssr:stedsnr" v="41489" />
	</node>
	<node lat="63.107300002814796" lon="7.734883332848358" id="-5309">
		<tag k="fixme" v="consider seamark:type=rock or natural=shoal" />
		<tag k="name" v="Høneskjæret" />
		<tag k="place" v="islet" />
		<tag k="ssr:stedsnr" v="41494" />
	</node>
	<node lat="63.107011113148495" lon="7.737827772949857" id="-5310">
		<tag k="name" v="Innlandet" />
		<tag k="place" v="suburb" />
		<tag k="ssr:stedsnr" v="41496" />
	</node>
	<node lat="63.119994448085265" lon="7.718966674980512" id="-5311">
		<tag k="name" v="St. Hanshaugen" />
		<tag k="natural" v="hill" />
		<tag k="place" v="locality" />
		<tag k="ssr:stedsnr" v="41500" />
	</node>
	<node lat="63.04436111386324" lon="7.856750000998177" id="-5313">
		<tag k="name" v="Lundaneset" />
		<tag k="natural" v="cape" />
		<tag k="ssr:stedsnr" v="43225" />
	</node>
	<node lat="63.09574722080852" lon="7.8459499902431" id="-5314">
		<tag k="name" v="Rensvikhaugen" />
		<tag k="natural" v="hill" />
		<tag k="place" v="locality" />
		<tag k="ssr:stedsnr" v="43122" />
	</node>
	<node lat="63.10405000260292" lon="7.859125000723236" id="-5315">
		<tag k="name" v="Kvennaholmen" />
		<tag k="place" v="islet" />
		<tag k="ssr:stedsnr" v="43129" />
	</node>
	<node lat="63.128786110853746" lon="7.833202771290617" id="-5316">
		<tag k="name" v="Neset" />
		<tag k="natural" v="cape" />
		<tag k="ssr:stedsnr" v="43756" />
	</node>
	<node lat="63.12754166763403" lon="7.843236120239612" id="-5317">
		<tag k="name" v="Hjellmyra" />
		<tag k="natural" v="wetland" />
		<tag k="ssr:stedsnr" v="43758" />
	</node>
	<node lat="63.116486106925784" lon="7.824344445751054" id="-5318">
		<tag k="name" v="Kvennbergmyran" />
		<tag k="natural" v="wetland" />
		<tag k="ssr:stedsnr" v="44504" />
	</node>
	<node lat="63.065355559248495" lon="7.711461103429236" id="-5319">
		<tag k="name" v="Jensneset" />
		<tag k="natural" v="cape" />
		<tag k="ssr:stedsnr" v="43844" />
	</node>
	<node lat="63.07440277506854" lon="7.745422231796097" id="-5320">
		<tag k="name" v="Middagsskarhaugen" />
		<tag k="natural" v="hill" />
		<tag k="place" v="locality" />
		<tag k="ssr:stedsnr" v="43850" />
	</node>
	<node lat="63.05387221933228" lon="7.750461109755868" id="-5321">
		<tag k="name" v="Krypervikvatnet" />
		<tag k="natural" v="water" />
		<tag k="ssr:stedsnr" v="43862" />
	</node>
	<node lat="63.060844448763326" lon="7.717836110506959" id="-5322">
		<tag k="name" v="Sandvikholmen" />
		<tag k="place" v="islet" />
		<tag k="ssr:stedsnr" v="43872" />
	</node>
	<node lat="63.053780556813074" lon="7.7208055556791475" id="-5323">
		<tag k="name" v="Geitholmen" />
		<tag k="place" v="islet" />
		<tag k="ssr:stedsnr" v="43875" />
	</node>
	<node lat="63.031766664963385" lon="7.731424999222214" id="-5324">
		<tag k="alt_name" v="Bogen" />
		<tag k="name" v="Endresetbukta" />
		<tag k="natural" v="bay" />
		<tag k="ssr:stedsnr" v="43881" />
	</node>
	<node lat="63.082305557700366" lon="7.779327778922122" id="-5325">
		<tag k="name" v="Bolghaugen" />
		<tag k="place" v="farm" />
		<tag k="ssr:stedsnr" v="44023" />
	</node>
	<node lat="63.12374166645288" lon="7.867783328702814" id="-5326">
		<tag k="name" v="Sandvika" />
		<tag k="natural" v="bay" />
		<tag k="ssr:stedsnr" v="44535" />
	</node>
	<node lat="63.11635833642608" lon="7.763713882956836" id="-5327">
		<tag k="name" v="Gevorbnerholmen" />
		<tag k="place" v="islet" />
		<tag k="ssr:stedsnr" v="44539" />
	</node>
	<node lat="63.11210832989906" lon="7.804794449223931" id="-5328">
		<tag k="name" v="Stabeldammen" />
		<tag k="natural" v="water" />
		<tag k="ssr:stedsnr" v="44556" />
	</node>
	<node lat="63.12800555790787" lon="7.77876666446409" id="-5329">
		<tag k="name" v="Stormyra" />
		<tag k="natural" v="wetland" />
		<tag k="ssr:stedsnr" v="44742" />
	</node>
	<node lat="63.18571666820154" lon="7.607105556267375" id="-5330">
		<tag k="name" v="Tufteflua" />
		<tag k="natural" v="shoal" />
		<tag k="place" v="locality" />
		<tag k="ssr:stedsnr" v="48433" />
	</node>
	<node lat="63.126933328986524" lon="7.6751694497726906" id="-5331">
		<tag k="name" v="Tjørnviktaren" />
		<tag k="natural" v="shoal" />
		<tag k="place" v="locality" />
		<tag k="ssr:stedsnr" v="48693" />
	</node>
	<node lat="63.10474444822296" lon="7.848974999398942" id="-5333">
		<tag k="name" v="Jåvika" />
		<tag k="natural" v="bay" />
		<tag k="ssr:stedsnr" v="56195" />
	</node>
	<node lat="63.0968500016599" lon="7.779930561253283" id="-5334">
		<tag k="name" v="Austre Fugløygrunnen" />
		<tag k="natural" v="shoal" />
		<tag k="place" v="locality" />
		<tag k="ssr:stedsnr" v="56329" />
	</node>
	<node lat="63.13007222258415" lon="7.70693889451048" id="-5335">
		<tag k="name" v="Store Kari" />
		<tag k="natural" v="water" />
		<tag k="ssr:stedsnr" v="56837" />
	</node>
	<node lat="63.06314999817147" lon="7.872563886622828" id="-5336">
		<tag k="name" v="Harpskaret" />
		<tag k="place" v="quarter" />
		<tag k="ssr:stedsnr" v="58447" />
	</node>
	<node lat="63.1006305556804" lon="7.854191663188888" id="-5337">
		<tag k="name" v="Sæterenga" />
		<tag k="place" v="quarter" />
		<tag k="ssr:stedsnr" v="59600" />
	</node>
	<node lat="63.03689166373177" lon="7.822708328861249" id="-5338">
		<tag k="name" v="Hjellen" />
		<tag k="place" v="farm" />
		<tag k="ssr:stedsnr" v="73133" />
	</node>
	<node lat="63.055172223224055" lon="7.861988882403292" id="-5339">
		<tag k="name" v="Rambjøra" />
		<tag k="place" v="farm" />
		<tag k="ssr:stedsnr" v="73164" />
	</node>
	<node lat="63.028102780391215" lon="7.769919437110267" id="-5340">
		<tag k="name" v="Indre Flatset" />
		<tag k="place" v="farm" />
		<tag k="ssr:stedsnr" v="73239" />
	</node>
	<node lat="63.12394444653053" lon="7.733247229736628" id="-5341">
		<tag k="name" v="Gomalandet" />
		<tag k="place" v="suburb" />
		<tag k="ssr:stedsnr" v="73278" />
	</node>
	<node lat="63.07570833645919" lon="7.881813882032763" id="-5342">
		<tag k="name" v="Bogamyra" />
		<tag k="place" v="farm" />
		<tag k="ssr:stedsnr" v="73340" />
	</node>
	<node lat="63.06967777770818" lon="7.857386109668507" id="-5343">
		<tag k="name" v="Skogvoll" />
		<tag k="place" v="farm" />
		<tag k="ssr:stedsnr" v="73342" />
	</node>
	<node lat="63.10771194502984" lon="7.803419114544755" id="-5344">
		<tag k="fixme" v="consider place=hamlet" />
		<tag k="name" v="Øygarden" />
		<tag k="place" v="farm" />
		<tag k="ssr:stedsnr" v="73348" />
	</node>
	<node lat="63.10970599889711" lon="7.85780611432325" id="-5345">
		<tag k="fixme" v="consider place=hamlet" />
		<tag k="name" v="Omsa" />
		<tag k="place" v="farm" />
		<tag k="ssr:stedsnr" v="73354" />
	</node>
	<node lat="63.02337834344918" lon="7.770158517214013" id="-5346">
		<tag k="layer" v="-1" />
		<tag k="name" v="Freifjordtunnelen" />
		<tag k="ssr:stedsnr" v="88260" />
		<tag k="tunnel" v="yes" />
	</node>
	<node lat="63.10446944401197" lon="7.827447230713642" id="-5347">
		<tag k="name" v="Rensvikholmflua" />
		<tag k="natural" v="shoal" />
		<tag k="place" v="locality" />
		<tag k="ssr:stedsnr" v="101214" />
	</node>
	<node lat="63.107618908805414" lon="7.723211784935586" id="-5348">
		<tag k="aeroway" v="airstrip" />
		<tag k="name" v="Kristiansund helikopterplass, Kristiansund sykehus" />
		<tag k="ssr:stedsnr" v="102566" />
	</node>
	<node lat="63.0317611087878" lon="7.776074992274841" id="-5349">
		<tag k="name" v="Flatsetelva" />
		<tag k="ssr:stedsnr" v="104084" />
		<tag k="waterway" v="stream" />
	</node>
	<node lat="63.03671389109556" lon="7.823219447854911" id="-5350">
		<tag k="name" v="Strandabekken" />
		<tag k="ssr:stedsnr" v="104099" />
		<tag k="waterway" v="stream" />
	</node>
	<node lat="63.12264166347852" lon="7.780980560793432" id="-5351">
		<tag k="name" v="Nausthaugen" />
		<tag k="natural" v="hill" />
		<tag k="place" v="locality" />
		<tag k="ssr:stedsnr" v="104542" />
	</node>
	<node lat="63.10231718278032" lon="7.85741939993573" id="-5352">
		<tag k="fixme" v="consider place=hamlet" />
		<tag k="name" v="Ulrikskvenna" />
		<tag k="place" v="farm" />
		<tag k="ssr:stedsnr" v="104143" />
	</node>
	<node lat="63.086555555096965" lon="7.8761499944403335" id="-5353">
		<tag k="name" v="Solsletta Byggefelt" />
		<tag k="place" v="quarter" />
		<tag k="ssr:stedsnr" v="104163" />
	</node>
	<node lat="63.11378333764655" lon="7.733852769333321" id="-5354">
		<tag k="man_made" v="quay" />
		<tag k="name" v="Nordmørskaia" />
		<tag k="place" v="locality" />
		<tag k="ssr:stedsnr" v="104312" />
	</node>
	<node lat="63.11913055263335" lon="7.7321472315799475" id="-5355">
		<tag k="name" v="Vågen" />
		<tag k="natural" v="bay" />
		<tag k="ssr:stedsnr" v="104314" />
	</node>
	<node lat="63.05174756786607" lon="7.798419716545536" id="-5356">
		<tag k="historic" v="shieling" />
		<tag k="loc_name" v="Nerfreisetra" />
		<tag k="name" v="Prestsetra" />
		<tag k="place" v="locality" />
		<tag k="ssr:stedsnr" v="104251" />
	</node>
	<node lat="63.069383336411704" lon="7.7747305491371765" id="-5357">
		<tag k="historic" v="shieling" />
		<tag k="name" v="Stølen" />
		<tag k="place" v="isolated_dwelling" />
		<tag k="ssr:stedsnr" v="105019" />
	</node>
	<node lat="63.049516668930536" lon="7.708969443137218" id="-5358">
		<tag k="name" v="St.Hanshaugen" />
		<tag k="natural" v="hill" />
		<tag k="place" v="locality" />
		<tag k="ssr:stedsnr" v="104856" />
	</node>
	<node lat="63.0579166675612" lon="7.713472226058807" id="-5359">
		<tag k="name" v="Straumholmen" />
		<tag k="place" v="islet" />
		<tag k="ssr:stedsnr" v="104861" />
	</node>
	<node lat="63.0537666685521" lon="7.723613889492154" id="-5360">
		<tag k="name" v="Saltkjelvikholmen" />
		<tag k="place" v="islet" />
		<tag k="ssr:stedsnr" v="104862" />
	</node>
	<node lat="63.092305551333276" lon="7.893727781856054" id="-5361">
		<tag k="name" v="Gjengstø" />
		<tag k="place" v="farm" />
		<tag k="ssr:stedsnr" v="105382" />
	</node>
	<node lat="63.07274999707948" lon="7.89188333979064" id="-5362">
		<tag k="name" v="Kvalvågklubben" />
		<tag k="natural" v="hill" />
		<tag k="place" v="locality" />
		<tag k="ssr:stedsnr" v="105385" />
	</node>
	<node lat="63.07060833637962" lon="7.889475000819637" id="-5363">
		<tag k="amenity" v="ferry_terminal" />
		<tag k="name" v="Kvalvåg ferjeleie" />
		<tag k="ssr:stedsnr" v="105388" />
	</node>
	<node lat="63.077546754672255" lon="7.8786246230522075" id="-5364">
		<tag k="name" v="Bjerkelund" />
		<tag k="place" v="farm" />
		<tag k="ssr:stedsnr" v="105398" />
	</node>
	<node lat="63.106113887205275" lon="7.847244435314656" id="-5365">
		<tag k="name" v="Vorpneset" />
		<tag k="natural" v="cape" />
		<tag k="ssr:stedsnr" v="105399" />
	</node>
	<node lat="63.10897499677684" lon="7.853549997311854" id="-5366">
		<tag k="name" v="Sjøvåta" />
		<tag k="ssr:stedsnr" v="105529" />
		<tag k="waterway" v="stream" />
	</node>
	<node lat="63.10794166590863" lon="7.841938895630242" id="-5367">
		<tag k="name" v="Kalvtrøa" />
		<tag k="place" v="locality" />
		<tag k="ssr:stedsnr" v="105531" />
	</node>
	<node lat="63.061597218428666" lon="7.716005554120628" id="-5368">
		<tag k="fixme" v="consider seamark:type=rock or natural=shoal" />
		<tag k="name" v="Sandvikskjæret" />
		<tag k="place" v="islet" />
		<tag k="ssr:stedsnr" v="110396" />
	</node>
	<node lat="63.2932083347927" lon="7.37304999773619" id="-5369">
		<tag k="name" v="Bryggetaren" />
		<tag k="natural" v="shoal" />
		<tag k="place" v="locality" />
		<tag k="ssr:stedsnr" v="110698" />
	</node>
	<node lat="63.12773611192374" lon="7.833072225046773" id="-5370">
		<tag k="name" v="Gløsvågleira" />
		<tag k="natural" v="shoal" />
		<tag k="place" v="locality" />
		<tag k="ssr:stedsnr" v="116147" />
	</node>
	<node lat="63.12782499836568" lon="7.750688886628125" id="-5371">
		<tag k="name" v="Indre Garnneset" />
		<tag k="natural" v="cape" />
		<tag k="ssr:stedsnr" v="116901" />
	</node>
	<node lat="63.04572500036618" lon="7.861350003513608" id="-5372">
		<tag k="name" v="Vorpvikneset" />
		<tag k="natural" v="cape" />
		<tag k="ssr:stedsnr" v="133137" />
	</node>
	<node lat="63.04748333084809" lon="7.85131388792596" id="-5373">
		<tag k="fixme" v="multiple name tags, choose one and add the other to alt_name" />
		<tag k="name" v="Myran;Myra" />
		<tag k="place" v="farm" />
		<tag k="ssr:stedsnr" v="133142" />
	</node>
	<node lat="63.051255559603796" lon="7.759902784404982" id="-5374">
		<tag k="fixme" v="consider natural=peak for the most distinct mountains in the district" />
		<tag k="name" v="Freikollen" />
		<tag k="natural" v="hill" />
		<tag k="place" v="locality" />
		<tag k="ssr:stedsnr" v="133152" />
	</node>
	<node lat="63.20929722284309" lon="7.686338880826381" id="-5375">
		<tag k="fixme" v="consider seamark:type=rock or natural=shoal" />
		<tag k="name" v="Kobbskjæra" />
		<tag k="place" v="islet" />
		<tag k="ssr:stedsnr" v="133624" />
	</node>
	<node lat="63.0221055585125" lon="7.775091662676353" id="-5376">
		<tag k="name" v="Osen" />
		<tag k="place" v="farm" />
		<tag k="ssr:stedsnr" v="133201" />
	</node>
	<node lat="63.129891670310265" lon="7.72683889811617" id="-5377">
		<tag k="name" v="Dalabukta" />
		<tag k="natural" v="bay" />
		<tag k="ssr:stedsnr" v="133241" />
	</node>
	<node lat="63.09871388738297" lon="7.87381944188754" id="-5378">
		<tag k="name" v="Dalen" />
		<tag k="place" v="farm" />
		<tag k="ssr:stedsnr" v="133333" />
	</node>
	<node lat="63.03610716197341" lon="7.699811448369213" id="-5379">
		<tag k="fixme" v="consider place=hamlet" />
		<tag k="name" v="Sildvolnes" />
		<tag k="place" v="farm" />
		<tag k="ssr:stedsnr" v="133527" />
	</node>
	<node lat="63.03118333267233" lon="7.769174997239367" id="-5380">
		<tag k="name" v="Vollen" />
		<tag k="place" v="farm" />
		<tag k="ssr:stedsnr" v="134282" />
	</node>
	<node lat="63.03178889341053" lon="7.820247231111874" id="-5381">
		<tag k="name" v="Elva" />
		<tag k="place" v="farm" />
		<tag k="ssr:stedsnr" v="134286" />
	</node>
	<node lat="63.11560555528818" lon="7.848169439526558" id="-5382">
		<tag k="name" v="Skaret" />
		<tag k="place" v="farm" />
		<tag k="ssr:stedsnr" v="134327" />
	</node>
	<node lat="63.120718811390255" lon="7.784310523738902" id="-5383">
		<tag k="name" v="Dale" />
		<tag k="place" v="locality" />
		<tag k="ssr:stedsnr" v="134331" />
	</node>
	<node lat="63.089613887571964" lon="7.733630551388839" id="-5384">
		<tag k="name" v="Kopparholman" />
		<tag k="place" v="islet" />
		<tag k="ssr:stedsnr" v="134422" />
	</node>
	<node lat="63.11862222406368" lon="7.757447230383998" id="-5385">
		<tag k="building" v="commercial" />
		<tag k="name" v="Strand" />
		<tag k="ssr:stedsnr" v="162429" />
	</node>
	<node lat="63.088461114443355" lon="7.77523888491598" id="-5386">
		<tag k="name" v="Grønbukta" />
		<tag k="natural" v="bay" />
		<tag k="ssr:stedsnr" v="164192" />
	</node>
	<node lat="63.087666668219605" lon="7.774324995167175" id="-5387">
		<tag k="alt_name" v="Jørilneset" />
		<tag k="name" v="Jørildneset" />
		<tag k="natural" v="cape" />
		<tag k="ssr:stedsnr" v="164194" />
	</node>
	<node lat="63.087030555574145" lon="7.76426388512999" id="-5388">
		<tag k="name" v="Leira" />
		<tag k="natural" v="shoal" />
		<tag k="place" v="locality" />
		<tag k="ssr:stedsnr" v="164200" />
	</node>
	<node lat="63.05211111063796" lon="7.791030548257845" id="-5389">
		<tag k="name" v="Presttjørna" />
		<tag k="natural" v="water" />
		<tag k="ssr:stedsnr" v="164286" />
	</node>
	<node lat="63.057079821083875" lon="7.7886918459927825" id="-5390">
		<tag k="name" v="Smetlingberget" />
		<tag k="natural" v="hill" />
		<tag k="place" v="locality" />
		<tag k="ssr:stedsnr" v="164297" />
	</node>
	<node lat="63.09543333481745" lon="7.773469440047081" id="-5391">
		<tag k="alt_name" v="Fugløyskjeret" />
		<tag k="fixme" v="consider seamark:type=rock or natural=shoal" />
		<tag k="name" v="Fugløyskjæret" />
		<tag k="place" v="islet" />
		<tag k="ssr:stedsnr" v="164385" />
	</node>
	<node lat="63.03164444806059" lon="7.73804723048789" id="-5392">
		<tag k="name" v="Endresetbekken" />
		<tag k="ssr:stedsnr" v="164872" />
		<tag k="waterway" v="stream" />
	</node>
	<node lat="63.02761111156829" lon="7.744694442852104" id="-5393">
		<tag k="name" v="Hagen" />
		<tag k="place" v="locality" />
		<tag k="ssr:stedsnr" v="164878" />
	</node>
	<node lat="63.03393611346381" lon="7.732838896690979" id="-5394">
		<tag k="name" v="Skoglund" />
		<tag k="place" v="farm" />
		<tag k="ssr:stedsnr" v="164885" />
	</node>
	<node lat="63.04716666260502" lon="7.808150006428338" id="-5395">
		<tag k="name" v="Orsetra" />
		<tag k="place" v="locality" />
		<tag k="ssr:stedsnr" v="165011" />
	</node>
	<node lat="63.11791111423216" lon="7.709444436230884" id="-5396">
		<tag k="name" v="Lynghaugan" />
		<tag k="natural" v="hill" />
		<tag k="place" v="locality" />
		<tag k="ssr:stedsnr" v="165320" />
	</node>
	<node lat="63.09037500135929" lon="7.747719437176307" id="-5397">
		<tag k="name" v="Gryta" />
		<tag k="natural" v="valley" />
		<tag k="place" v="locality" />
		<tag k="ssr:stedsnr" v="164831" />
	</node>
	<node lat="63.07990833392309" lon="7.736672228058863" id="-5398">
		<tag k="name" v="Valmyran" />
		<tag k="natural" v="wetland" />
		<tag k="ssr:stedsnr" v="164842" />
	</node>
	<node lat="63.04647777724226" lon="7.717394440929528" id="-5399">
		<tag k="amenity" v="school" />
		<tag k="name" v="Møst skule" />
		<tag k="ssr:stedsnr" v="164846" />
	</node>
	<node lat="63.13043055773738" lon="7.723108340473929" id="-5400">
		<tag k="name" v="Kariholnesa" />
		<tag k="natural" v="cape" />
		<tag k="ssr:stedsnr" v="165752" />
	</node>
	<node lat="63.22071944637535" lon="7.568572213991566" id="-5401">
		<tag k="name" v="Almflua" />
		<tag k="natural" v="shoal" />
		<tag k="place" v="locality" />
		<tag k="ssr:stedsnr" v="170431" />
	</node>
	<node lat="63.208850004378675" lon="7.550505553038363" id="-5402">
		<tag k="fixme" v="consider seamark:type=rock or natural=shoal" />
		<tag k="name" v="Anbåskjæret" />
		<tag k="place" v="islet" />
		<tag k="ssr:stedsnr" v="170433" />
	</node>
	<node lat="63.312513889270946" lon="7.394797212715697" id="-5403">
		<tag k="name" v="Nørknollan" />
		<tag k="natural" v="shoal" />
		<tag k="place" v="locality" />
		<tag k="ssr:stedsnr" v="170697" />
	</node>
	<node lat="63.10120832907975" lon="7.716405564564735" id="-5404">
		<tag k="name" v="Baltserneset" />
		<tag k="natural" v="cape" />
		<tag k="ssr:stedsnr" v="171346" />
	</node>
	<node lat="63.07381388995799" lon="7.708722224162875" id="-5405">
		<tag k="name" v="Storebukta" />
		<tag k="natural" v="bay" />
		<tag k="ssr:stedsnr" v="171245" />
	</node>
	<node lat="63.08371389133433" lon="7.7877888849695385" id="-5407">
		<tag k="name" v="Tømmerberg" />
		<tag k="place" v="isolated_dwelling" />
		<tag k="ssr:stedsnr" v="177344" />
	</node>
	<node lat="63.121338889636654" lon="7.761416676083137" id="-5408">
		<tag k="name" v="Teistholmtaren" />
		<tag k="natural" v="shoal" />
		<tag k="place" v="locality" />
		<tag k="ssr:stedsnr" v="177882" />
	</node>
	<node lat="63.12524722468764" lon="7.73939723160767" id="-5409">
		<tag k="name" v="Atlanten Motell og Camping" />
		<tag k="ssr:stedsnr" v="177919" />
		<tag k="tourism" v="camp_site" />
	</node>
	<node lat="63.05063333617386" lon="7.7262444394669645" id="-5410">
		<tag k="name" v="Kleivmyra" />
		<tag k="place" v="farm" />
		<tag k="ssr:stedsnr" v="194165" />
	</node>
	<node lat="63.23100555880526" lon="7.614936114591623" id="-5411">
		<tag k="fixme" v="consider seamark:type=rock or natural=shoal" />
		<tag k="name" v="Svartskjæret" />
		<tag k="place" v="islet" />
		<tag k="ssr:stedsnr" v="194643" />
	</node>
	<node lat="63.08083333263261" lon="7.771688891904883" id="-5412">
		<tag k="name" v="Øverbolga" />
		<tag k="place" v="farm" />
		<tag k="ssr:stedsnr" v="194302" />
	</node>
	<node lat="63.09645833301962" lon="7.807938894876855" id="-5413">
		<tag k="name" v="Jørihaugen" />
		<tag k="natural" v="hill" />
		<tag k="place" v="locality" />
		<tag k="ssr:stedsnr" v="194326" />
	</node>
	<node lat="63.03694721961628" lon="7.8371194444446015" id="-5414">
		<tag k="name" v="Orneset" />
		<tag k="natural" v="cape" />
		<tag k="ssr:stedsnr" v="194406" />
	</node>
	<node lat="63.097027869129434" lon="7.886423989276415" id="-5415">
		<tag k="fixme" v="consider place=hamlet" />
		<tag k="name" v="Kvalvik" />
		<tag k="place" v="farm" />
		<tag k="ssr:stedsnr" v="194329" />
	</node>
	<node lat="63.05833870669471" lon="7.698375527384346" id="-5416">
		<tag k="name" v="Flatøya" />
		<tag k="place" v="island" />
		<tag k="ssr:stedsnr" v="194470" />
	</node>
	<node lat="63.318477776318666" lon="7.362474999933149" id="-5417">
		<tag k="name" v="Nordkleppen" />
		<tag k="natural" v="shoal" />
		<tag k="place" v="locality" />
		<tag k="ssr:stedsnr" v="194550" />
	</node>
	<node lat="63.19302499714615" lon="7.5927194496659345" id="-5418">
		<tag k="name" v="Einstøingen" />
		<tag k="natural" v="shoal" />
		<tag k="place" v="locality" />
		<tag k="ssr:stedsnr" v="194619" />
	</node>
	<node lat="63.20640277807746" lon="7.568880548577494" id="-5419">
		<tag k="fixme" v="consider seamark:type=rock or natural=shoal" />
		<tag k="name" v="Vestre Moholmskjæret" />
		<tag k="place" v="islet" />
		<tag k="ssr:stedsnr" v="194629" />
	</node>
	<node lat="63.11642222609707" lon="7.706572229684785" id="-5420">
		<tag k="name" v="Kirklandet" />
		<tag k="place" v="suburb" />
		<tag k="ssr:stedsnr" v="194668" />
	</node>
	<node lat="63.11485555485539" lon="7.6893166576626495" id="-5421">
		<tag k="name" v="Klubbneset" />
		<tag k="natural" v="cape" />
		<tag k="ssr:stedsnr" v="194669" />
	</node>
	<node lat="63.12357676901564" lon="7.698412902766097" id="-5422">
		<tag k="name" v="Meldahlsholmen" />
		<tag k="place" v="islet" />
		<tag k="ssr:stedsnr" v="194681" />
	</node>
	<node lat="63.12498055350192" lon="7.760111116937638" id="-5423">
		<tag k="name" v="Meløya" />
		<tag k="place" v="islet" />
		<tag k="ssr:stedsnr" v="195309" />
	</node>
	<node lat="63.0831944448079" lon="7.885291669353419" id="-5425">
		<tag k="fixme" v="consider place=hamlet" />
		<tag k="name" v="Ørnvik" />
		<tag k="place" v="village" />
		<tag k="ssr:stedsnr" v="207873" />
	</node>
	<node lat="63.09843055348942" lon="7.820261115951502" id="-5426">
		<tag k="fixme" v="consider place=suburb, village or hamlet" />
		<tag k="name" v="Rensvik" />
		<tag k="place" v="quarter" />
		<tag k="ssr:stedsnr" v="219855" />
	</node>
	<node lat="63.11775832999019" lon="7.737997231127639" id="-5427">
		<tag k="man_made" v="quay" />
		<tag k="name" v="Ballastkaia" />
		<tag k="place" v="locality" />
		<tag k="ssr:stedsnr" v="223519" />
	</node>
	<node lat="63.11821110984658" lon="7.732366658704491" id="-5428">
		<tag k="fixme" v="consider seamark:type=rock or natural=shoal" />
		<tag k="name" v="Kranskjæret" />
		<tag k="place" v="islet" />
		<tag k="ssr:stedsnr" v="223458" />
	</node>
	<node lat="63.107080556381526" lon="7.721574990433418" id="-5429">
		<tag k="name" v="Batterihammaren" />
		<tag k="natural" v="hill" />
		<tag k="place" v="locality" />
		<tag k="ssr:stedsnr" v="226357" />
	</node>
	<node lat="63.04739722508714" lon="7.755130560086249" id="-5430">
		<tag k="name" v="Flatsetvatnet" />
		<tag k="ssr:stedsnr" v="225260" />
		<tag k="waterway" v="stream" />
	</node>
	<node lat="63.05851666602025" lon="7.807963894760915" id="-5431">
		<tag k="name" v="Ivarplassdammen" />
		<tag k="natural" v="wetland" />
		<tag k="ssr:stedsnr" v="225267" />
	</node>
	<node lat="63.07690277614626" lon="7.871255548467303" id="-5432">
		<tag k="fixme" v="consider natural=peak for the most distinct mountains in the district" />
		<tag k="name" v="Kleivåsen" />
		<tag k="natural" v="hill" />
		<tag k="place" v="locality" />
		<tag k="ssr:stedsnr" v="226027" />
	</node>
	<node lat="63.06783333627296" lon="7.811655554726136" id="-5433">
		<tag k="fixme" v="consider natural=peak for the most distinct mountains in the district" />
		<tag k="name" v="Matlausfjellet" />
		<tag k="natural" v="hill" />
		<tag k="place" v="locality" />
		<tag k="ssr:stedsnr" v="226127" />
	</node>
	<node lat="63.073491664171556" lon="7.810811115756873" id="-5434">
		<tag k="fixme" v="consider natural=peak for the most distinct mountains in the district" />
		<tag k="name" v="Breilivarden" />
		<tag k="natural" v="hill" />
		<tag k="place" v="locality" />
		<tag k="ssr:stedsnr" v="226129" />
	</node>
	<node lat="63.102388891052264" lon="7.817369452841987" id="-5435">
		<tag k="name" v="Daumannsholmen" />
		<tag k="place" v="islet" />
		<tag k="ssr:stedsnr" v="226161" />
	</node>
	<node lat="63.09820000200692" lon="7.83291666770868" id="-5436">
		<tag k="name" v="Sandatjønna" />
		<tag k="natural" v="water" />
		<tag k="ssr:stedsnr" v="226164" />
	</node>
	<node lat="63.10360555674162" lon="7.843388893878541" id="-5437">
		<tag k="name" v="Vorpnesbukt" />
		<tag k="place" v="farm" />
		<tag k="ssr:stedsnr" v="226169" />
	</node>
	<node lat="63.12592778168325" lon="7.840847224510566" id="-5438">
		<tag k="name" v="Hjellmyra" />
		<tag k="natural" v="wetland" />
		<tag k="ssr:stedsnr" v="226558" />
	</node>
	<node lat="63.11931110869603" lon="7.785111102216978" id="-5439">
		<tag k="name" v="Torvhaugen" />
		<tag k="natural" v="hill" />
		<tag k="place" v="locality" />
		<tag k="ssr:stedsnr" v="226572" />
	</node>
	<node lat="63.13009721915111" lon="7.780980554535431" id="-5440">
		<tag k="name" v="Langhaugen" />
		<tag k="natural" v="hill" />
		<tag k="place" v="locality" />
		<tag k="ssr:stedsnr" v="226794" />
	</node>
	<node lat="63.11726111117811" lon="7.732586114677508" id="-5441">
		<tag k="man_made" v="quay" />
		<tag k="name" v="Vedkaia" />
		<tag k="place" v="locality" />
		<tag k="ssr:stedsnr" v="283365" />
	</node>
	<node lat="63.103488885129636" lon="7.745391665777891" id="-5442">
		<tag k="man_made" v="quay" />
		<tag k="name" v="Øverlandsbrygga" />
		<tag k="place" v="locality" />
		<tag k="ssr:stedsnr" v="284498" />
	</node>
	<node lat="63.102347220068694" lon="7.815030550802005" id="-5443">
		<tag k="amenity" v="nursing_home" />
		<tag k="name" v="Rena Bruk" />
		<tag k="ssr:stedsnr" v="284289" />
	</node>
	<node lat="63.10097222651744" lon="7.808686104057644" id="-5444">
		<tag k="name" v="Hansøyvalen" />
		<tag k="natural" v="bay" />
		<tag k="ssr:stedsnr" v="284291" />
	</node>
	<node lat="63.037938884988655" lon="7.776913897983183" id="-5445">
		<tag k="name" v="Flatsetdammen" />
		<tag k="ssr:stedsnr" v="286083" />
		<tag k="waterway" v="dam" />
	</node>
	<node lat="63.032525000200316" lon="7.806327783767973" id="-5446">
		<tag k="name" v="Langmyra" />
		<tag k="natural" v="wetland" />
		<tag k="ssr:stedsnr" v="286072" />
	</node>
	<node lat="63.10261110910841" lon="7.86780554845358" id="-5447">
		<tag k="name" v="Havmyra" />
		<tag k="natural" v="wetland" />
		<tag k="ssr:stedsnr" v="286146" />
	</node>
	<node lat="63.0845749994658" lon="7.84578333763663" id="-5448">
		<tag k="name" v="Seterhaugen" />
		<tag k="natural" v="hill" />
		<tag k="place" v="locality" />
		<tag k="ssr:stedsnr" v="286158" />
	</node>
	<node lat="63.09145277635796" lon="7.788597218543892" id="-5449">
		<tag k="name" v="Bolgvåg" />
		<tag k="place" v="farm" />
		<tag k="ssr:stedsnr" v="286173" />
	</node>
	<node lat="63.08884444660638" lon="7.79187776864594" id="-5450">
		<tag k="name" v="Grindneset" />
		<tag k="natural" v="cape" />
		<tag k="ssr:stedsnr" v="286176" />
	</node>
	<node lat="63.11256666724395" lon="7.749680564180913" id="-5451">
		<tag k="name" v="Bjørnehaugen" />
		<tag k="natural" v="hill" />
		<tag k="place" v="locality" />
		<tag k="ssr:stedsnr" v="286303" />
	</node>
	<node lat="63.11233888707152" lon="7.7464777732191425" id="-5452">
		<tag k="name" v="Nordlandet" />
		<tag k="place" v="suburb" />
		<tag k="ssr:stedsnr" v="286304" />
	</node>
	<node lat="63.105697225190475" lon="7.741047220640066" id="-5453">
		<tag k="name" v="Bautaen" />
		<tag k="natural" v="hill" />
		<tag k="place" v="locality" />
		<tag k="ssr:stedsnr" v="286305" />
	</node>
	<node lat="63.11150833445286" lon="7.733591670189486" id="-5454">
		<tag k="man_made" v="breakwater" />
		<tag k="name" v="Piren" />
		<tag k="place" v="locality" />
		<tag k="ssr:stedsnr" v="286306" />
	</node>
	<node lat="63.03574721827496" lon="7.73070278343775" id="-5455">
		<tag k="name" v="Møsthaugen" />
		<tag k="natural" v="hill" />
		<tag k="old_name" v="Masthaugen" />
		<tag k="place" v="locality" />
		<tag k="ssr:stedsnr" v="286892" />
	</node>
	<node lat="63.03507499757186" lon="7.719138879676117" id="-5456">
		<tag k="alt_name" v="Rå" />
		<tag k="name" v="Ner Rå" />
		<tag k="place" v="farm" />
		<tag k="ssr:stedsnr" v="286895" />
	</node>
	<node lat="63.128277776393546" lon="7.869625000826195" id="-5457">
		<tag k="name" v="Gildrebergtaren" />
		<tag k="natural" v="shoal" />
		<tag k="place" v="locality" />
		<tag k="ssr:stedsnr" v="286759" />
	</node>
	<node lat="63.131374998346246" lon="7.786266673436564" id="-5458">
		<tag k="name" v="Pikhaugen" />
		<tag k="natural" v="hill" />
		<tag k="place" v="locality" />
		<tag k="ssr:stedsnr" v="286767" />
	</node>
	<node lat="63.10296666811036" lon="7.7192027757675" id="-5459">
		<tag k="name" v="Sauhola" />
		<tag k="natural" v="bay" />
		<tag k="ssr:stedsnr" v="286840" />
	</node>
	<node lat="63.08280555619609" lon="7.787291666057723" id="-5460">
		<tag k="name" v="Fjordgløtt" />
		<tag k="place" v="farm" />
		<tag k="ssr:stedsnr" v="287023" />
	</node>
	<node lat="63.112877777125775" lon="7.8468805525953504" id="-5461">
		<tag k="name" v="Møstilihaugen" />
		<tag k="natural" v="hill" />
		<tag k="place" v="locality" />
		<tag k="ssr:stedsnr" v="287548" />
	</node>
	<node lat="63.11348888783673" lon="7.866205548625659" id="-5462">
		<tag k="name" v="Myran" />
		<tag k="natural" v="wetland" />
		<tag k="ssr:stedsnr" v="287553" />
	</node>
	<node lat="63.2133388887329" lon="7.698069454370999" id="-5463">
		<tag k="name" v="Lønnfallet" />
		<tag k="natural" v="shoal" />
		<tag k="place" v="locality" />
		<tag k="ssr:stedsnr" v="291492" />
	</node>
	<node lat="63.13083333633063" lon="7.726561107751769" id="-5464">
		<tag k="name" v="Fosnavågen" />
		<tag k="natural" v="bay" />
		<tag k="ssr:stedsnr" v="291716" />
	</node>
	<node lat="63.14467222163701" lon="7.638144444609933" id="-5465">
		<tag k="name" v="Helklakken" />
		<tag k="natural" v="shoal" />
		<tag k="place" v="locality" />
		<tag k="ssr:stedsnr" v="291720" />
	</node>
	<node lat="63.02158333331601" lon="7.789319441951489" id="-5466">
		<tag k="fixme" v="consider seamark:type=rock or natural=shoal" />
		<tag k="name" v="Blindskjeret" />
		<tag k="place" v="islet" />
		<tag k="ssr:stedsnr" v="292361" />
	</node>
	<node lat="63.01856388561693" lon="7.760841673970601" id="-5467">
		<tag k="name" v="Kvitneset" />
		<tag k="place" v="farm" />
		<tag k="ssr:stedsnr" v="292367" />
	</node>
	<node lat="63.130547221876604" lon="7.712808337841215" id="-5468">
		<tag k="name" v="Nordre Mikalholet" />
		<tag k="natural" v="bay" />
		<tag k="ssr:stedsnr" v="298780" />
	</node>
	<node lat="63.09478333175216" lon="7.784911109377781" id="-5469">
		<tag k="name" v="Vorpholmbåen" />
		<tag k="natural" v="shoal" />
		<tag k="place" v="locality" />
		<tag k="ssr:stedsnr" v="299356" />
	</node>
	<node lat="63.08485000153383" lon="7.789502784954316" id="-5470">
		<tag k="name" v="Nergård" />
		<tag k="place" v="farm" />
		<tag k="ssr:stedsnr" v="299371" />
	</node>
	<node lat="63.09789167112881" lon="7.851902782551756" id="-5471">
		<tag k="name" v="Omsundet" />
		<tag k="place" v="quarter" />
		<tag k="ssr:stedsnr" v="302620" />
	</node>
	<node lat="63.09761389036391" lon="7.80939722824673" id="-5472">
		<tag k="name" v="Jørihaugen" />
		<tag k="place" v="quarter" />
		<tag k="ssr:stedsnr" v="302627" />
	</node>
	<node lat="63.09586110763126" lon="7.820961111271501" id="-5473">
		<tag k="name" v="Rensvik" />
		<tag k="place" v="quarter" />
		<tag k="ssr:stedsnr" v="302630" />
	</node>
	<node lat="63.06063055151798" lon="7.8800194349859485" id="-5474">
		<tag k="name" v="Vika" />
		<tag k="place" v="farm" />
		<tag k="ssr:stedsnr" v="315151" />
	</node>
	<node lat="63.100858333364634" lon="7.872766674631624" id="-5475">
		<tag k="name" v="Nerdalen" />
		<tag k="place" v="farm" />
		<tag k="ssr:stedsnr" v="315332" />
	</node>
	<node lat="63.05419774256792" lon="7.702068965741134" id="-5476">
		<tag k="name" v="Blomneset" />
		<tag k="natural" v="cape" />
		<tag k="ssr:stedsnr" v="315522" />
	</node>
	<node lat="63.21075000369096" lon="7.58225278521751" id="-5477">
		<tag k="fixme" v="consider seamark:type=rock or natural=shoal" />
		<tag k="name" v="Austre Moholmskjæra" />
		<tag k="place" v="islet" />
		<tag k="ssr:stedsnr" v="315671" />
	</node>
	<node lat="63.21936944290872" lon="7.541738880070119" id="-5478">
		<tag k="name" v="Flesin" />
		<tag k="place" v="island" />
		<tag k="ssr:stedsnr" v="315680" />
	</node>
	<node lat="63.04586944898401" lon="7.849261118296594" id="-5479">
		<tag k="name" v="Ora" />
		<tag k="place" v="farm" />
		<tag k="ssr:stedsnr" v="316160" />
	</node>
	<node lat="63.05135555426522" lon="7.788083323713864" id="-5480">
		<tag k="name" v="Prestmyra" />
		<tag k="natural" v="wetland" />
		<tag k="ssr:stedsnr" v="316166" />
	</node>
	<node lat="63.09078611346943" lon="7.755544451544543" id="-5481">
		<tag k="name" v="Bolgneset" />
		<tag k="natural" v="cape" />
		<tag k="ssr:stedsnr" v="316429" />
	</node>
	<node lat="63.11727222207006" lon="7.777847218774957" id="-5482">
		<tag k="name" v="Nydammen" />
		<tag k="natural" v="water" />
		<tag k="ssr:stedsnr" v="324567" />
	</node>
	<node lat="63.113219445788985" lon="7.730166676345046" id="-5484">
		<tag k="building" v="civic" />
		<tag k="name" v="Kristiansund brannstasjon" />
		<tag k="ssr:stedsnr" v="344476" />
	</node>
	<node lat="63.106919444657635" lon="7.768055559008319" id="-5485">
		<tag k="name" v="Byfutneset" />
		<tag k="natural" v="cape" />
		<tag k="ssr:stedsnr" v="344267" />
	</node>
	<node lat="63.068447223059465" lon="7.7926333304450885" id="-5486">
		<tag k="name" v="Sørlia" />
		<tag k="natural" v="slope" />
		<tag k="place" v="locality" />
		<tag k="ssr:stedsnr" v="347022" />
	</node>
	<node lat="63.08401388767558" lon="7.775947217208611" id="-5487">
		<tag k="name" v="Bolgelva" />
		<tag k="ssr:stedsnr" v="347024" />
		<tag k="waterway" v="stream" />
	</node>
	<node lat="63.06973888813527" lon="7.7595888860663775" id="-5488">
		<tag k="name" v="Seterbekken" />
		<tag k="ssr:stedsnr" v="347028" />
		<tag k="waterway" v="stream" />
	</node>
	<node lat="63.03528055714037" lon="7.826505560003481" id="-5489">
		<tag k="name" v="Nørstranda" />
		<tag k="place" v="farm" />
		<tag k="ssr:stedsnr" v="347098" />
	</node>
	<node lat="63.11921944048945" lon="7.77201388657814" id="-5490">
		<tag k="alt_name" v="Høttberga" />
		<tag k="name" v="Hytteberga" />
		<tag k="natural" v="hill" />
		<tag k="place" v="locality" />
		<tag k="ssr:stedsnr" v="347529" />
	</node>
	<node lat="63.10285833358292" lon="7.859563886603032" id="-5491">
		<tag k="name" v="Våttåbukta" />
		<tag k="natural" v="bay" />
		<tag k="ssr:stedsnr" v="347145" />
	</node>
	<node lat="63.10148055778615" lon="7.825247228321866" id="-5492">
		<tag k="alt_name" v="Saltbunesbukta" />
		<tag k="name" v="Saltvika" />
		<tag k="natural" v="bay" />
		<tag k="ssr:stedsnr" v="347148" />
	</node>
	<node lat="63.07101666950015" lon="7.888788885383261" id="-5493">
		<tag k="name" v="Hamnabukta" />
		<tag k="natural" v="bay" />
		<tag k="ssr:stedsnr" v="347368" />
	</node>
	<node lat="63.068488887454116" lon="7.88701110655201" id="-5494">
		<tag k="name" v="Kvalvågbukta" />
		<tag k="natural" v="bay" />
		<tag k="ssr:stedsnr" v="347370" />
	</node>
	<node lat="63.06774721924886" lon="7.879902783840925" id="-5495">
		<tag k="name" v="Gjeilen" />
		<tag k="place" v="farm" />
		<tag k="ssr:stedsnr" v="347371" />
	</node>
	<node lat="63.130805554593785" lon="7.7365999947075" id="-5496">
		<tag k="name" v="Langhaugen" />
		<tag k="natural" v="hill" />
		<tag k="place" v="locality" />
		<tag k="ssr:stedsnr" v="347731" />
	</node>
	<node lat="63.12889444776722" lon="7.730377775628726" id="-5497">
		<tag k="name" v="Eaholmen" />
		<tag k="place" v="islet" />
		<tag k="ssr:stedsnr" v="347736" />
	</node>
	<node lat="63.10513055172817" lon="7.850488886112059" id="-5498">
		<tag k="name" v="Sandbukta" />
		<tag k="natural" v="bay" />
		<tag k="ssr:stedsnr" v="347384" />
	</node>
	<node lat="63.128441666931224" lon="7.805774997047128" id="-5499">
		<tag k="name" v="Blåbærdalen" />
		<tag k="natural" v="valley" />
		<tag k="place" v="locality" />
		<tag k="ssr:stedsnr" v="347775" />
	</node>
	<node lat="63.02394444337479" lon="7.755236104638305" id="-5500">
		<tag k="name" v="Eia" />
		<tag k="place" v="farm" />
		<tag k="ssr:stedsnr" v="352377" />
	</node>
	<node lat="63.01237777800579" lon="7.797263887511121" id="-5501">
		<tag k="name" v="Grunntaren" />
		<tag k="natural" v="shoal" />
		<tag k="place" v="locality" />
		<tag k="ssr:stedsnr" v="353393" />
	</node>
	<node lat="63.131077777361256" lon="7.713836116138412" id="-5502">
		<tag k="name" v="Steinholmen" />
		<tag k="place" v="islet" />
		<tag k="ssr:stedsnr" v="359828" />
	</node>
	<node lat="63.101508330180124" lon="7.837452787602723" id="-5503">
		<tag k="name" v="Bytsteinsura" />
		<tag k="place" v="quarter" />
		<tag k="ssr:stedsnr" v="362609" />
	</node>
	<node lat="63.09597777402939" lon="7.807186106321369" id="-5504">
		<tag k="name" v="Nygårdsmyra" />
		<tag k="place" v="quarter" />
		<tag k="ssr:stedsnr" v="362625" />
	</node>
	<node lat="63.04769722093297" lon="7.682180560289716" id="-5505">
		<tag k="bay" v="fjord" />
		<tag k="name" v="Kvernesfjorden" />
		<tag k="natural" v="bay" />
		<tag k="ssr:stedsnr" v="375946" />
	</node>
	<node lat="63.04946021107469" lon="7.862154786549636" id="-5506">
		<tag k="fixme" v="consider place=hamlet" />
		<tag k="name" v="Bjerkestrand" />
		<tag k="place" v="farm" />
		<tag k="ssr:stedsnr" v="376136" />
	</node>
	<node lat="63.048288891164894" lon="7.832097224253938" id="-5507">
		<tag k="name" v="Dyrhaugan" />
		<tag k="natural" v="hill" />
		<tag k="place" v="locality" />
		<tag k="ssr:stedsnr" v="376142" />
	</node>
	<node lat="63.07401111344587" lon="7.8428638883981625" id="-5508">
		<tag k="name" v="Storskarven" />
		<tag k="natural" v="hill" />
		<tag k="place" v="locality" />
		<tag k="ssr:stedsnr" v="376350" />
	</node>
	<node lat="63.10619999623773" lon="7.784849995153171" id="-5509">
		<tag k="name" v="Breivika" />
		<tag k="place" v="farm" />
		<tag k="ssr:stedsnr" v="376354" />
	</node>
	<node lat="63.10717222462154" lon="7.876622216716123" id="-5510">
		<tag k="fixme" v="consider seamark:type=rock or natural=shoal" />
		<tag k="name" v="Årholmen" />
		<tag k="place" v="islet" />
		<tag k="ssr:stedsnr" v="376358" />
	</node>
	<node lat="63.22261944881949" lon="7.58982776994587" id="-5511">
		<tag k="fixme" v="consider seamark:type=rock or natural=shoal" />
		<tag k="name" v="Tika" />
		<tag k="place" v="islet" />
		<tag k="ssr:stedsnr" v="376675" />
	</node>
	<node lat="63.22257777946534" lon="7.604772224463079" id="-5512">
		<tag k="fixme" v="consider seamark:type=rock or natural=shoal" />
		<tag k="name" v="Attletet" />
		<tag k="place" v="islet" />
		<tag k="ssr:stedsnr" v="376677" />
	</node>
	<node lat="63.221147226662055" lon="7.631225006293232" id="-5513">
		<tag k="fixme" v="consider seamark:type=rock or natural=shoal" />
		<tag k="name" v="Ivarflesa" />
		<tag k="place" v="islet" />
		<tag k="ssr:stedsnr" v="376679" />
	</node>
	<node lat="63.20136944513596" lon="7.6603138871782255" id="-5515">
		<tag k="fixme" v="consider seamark:type=rock or natural=shoal" />
		<tag k="name" v="Leiskjæret" />
		<tag k="place" v="islet" />
		<tag k="ssr:stedsnr" v="376670" />
	</node>
	<node lat="63.16366111362589" lon="7.657686106415277" id="-5516">
		<tag k="name" v="Fausken" />
		<tag k="natural" v="shoal" />
		<tag k="place" v="locality" />
		<tag k="ssr:stedsnr" v="376738" />
	</node>
	<node lat="63.10438055164442" lon="7.734811116837717" id="-5517">
		<tag k="name" v="Innlandet" />
		<tag k="place" v="island" />
		<tag k="ssr:stedsnr" v="376762" />
	</node>
	<node lat="63.03591111343419" lon="7.7862944442542545" id="-5518">
		<tag k="bridge" v="yes" />
		<tag k="layer" v="1" />
		<tag k="name" v="Torebakkbrua" />
		<tag k="ssr:stedsnr" v="389960" />
	</node>
	<node lat="63.105458333414845" lon="7.7787777856014095" id="-5519">
		<tag k="name" v="Breivika" />
		<tag k="natural" v="bay" />
		<tag k="ssr:stedsnr" v="405268" />
	</node>
	<node lat="63.10683333301471" lon="7.764391659679378" id="-5520">
		<tag k="name" v="Dalsvika" />
		<tag k="natural" v="bay" />
		<tag k="ssr:stedsnr" v="405270" />
	</node>
	<node lat="63.10310555778305" lon="7.801941672079552" id="-5521">
		<tag k="fixme" v="consider seamark:type=rock or natural=shoal" />
		<tag k="name" v="Hansøyskjæra" />
		<tag k="place" v="islet" />
		<tag k="ssr:stedsnr" v="405272" />
	</node>
	<node lat="63.04091388988558" lon="7.8377027853632635" id="-5523">
		<tag k="name" v="Orhamran" />
		<tag k="place" v="farm" />
		<tag k="ssr:stedsnr" v="407266" />
	</node>
	<node lat="63.02304166915283" lon="7.764072222391684" id="-5524">
		<tag k="name" v="Ødegård" />
		<tag k="place" v="farm" />
		<tag k="ssr:stedsnr" v="408097" />
	</node>
	<node lat="63.06004167012528" lon="7.863030546222737" id="-5525">
		<tag k="name" v="Litlkleivhaugen" />
		<tag k="natural" v="hill" />
		<tag k="place" v="locality" />
		<tag k="ssr:stedsnr" v="407178" />
	</node>
	<node lat="63.09367221783046" lon="7.798177771226434" id="-5526">
		<tag k="name" v="Nygardsmyra" />
		<tag k="natural" v="wetland" />
		<tag k="ssr:stedsnr" v="407209" />
	</node>
	<node lat="63.1239305530951" lon="7.735725009848397" id="-5527">
		<tag k="leisure" v="pitch" />
		<tag k="name" v="Atlanten Stadion" />
		<tag k="ssr:stedsnr" v="407339" />
	</node>
	<node lat="63.062513891043714" lon="7.8746333271890405" id="-5528">
		<tag k="name" v="Storkleivhaugen" />
		<tag k="natural" v="hill" />
		<tag k="place" v="locality" />
		<tag k="ssr:stedsnr" v="408029" />
	</node>
	<node lat="63.11219167117214" lon="7.71423333755756" id="-5529">
		<tag k="name" v="Lillesanden" />
		<tag k="natural" v="beach" />
		<tag k="ssr:stedsnr" v="408332" />
	</node>
	<node lat="63.11395833015876" lon="7.706466665598192" id="-5530">
		<tag k="name" v="Storsanden" />
		<tag k="natural" v="beach" />
		<tag k="ssr:stedsnr" v="408334" />
	</node>
	<node lat="63.117463887692566" lon="7.754197223383709" id="-5531">
		<tag k="name" v="Flaggstonghaugen" />
		<tag k="natural" v="hill" />
		<tag k="place" v="locality" />
		<tag k="ssr:stedsnr" v="408561" />
	</node>
	<node lat="63.127869440318804" lon="7.860672217763704" id="-5532">
		<tag k="name" v="Sandvikhaugen" />
		<tag k="natural" v="hill" />
		<tag k="place" v="locality" />
		<tag k="ssr:stedsnr" v="408748" />
	</node>
	<node lat="63.133949996445615" lon="7.855644434931569" id="-5533">
		<tag k="name" v="Skåla" />
		<tag k="place" v="islet" />
		<tag k="ssr:stedsnr" v="408758" />
	</node>
	<node lat="63.13138055338994" lon="7.806488898817057" id="-5534">
		<tag k="name" v="Kvitnesbukta" />
		<tag k="natural" v="bay" />
		<tag k="ssr:stedsnr" v="408764" />
	</node>
	<node lat="63.13045555141654" lon="7.787297220637842" id="-5535">
		<tag k="name" v="Aspan" />
		<tag k="natural" v="slope" />
		<tag k="place" v="locality" />
		<tag k="ssr:stedsnr" v="408718" />
	</node>
	<node lat="63.20581666493284" lon="7.65774167381364" id="-5536">
		<tag k="name" v="Leiskjærtaran" />
		<tag k="natural" v="shoal" />
		<tag k="place" v="locality" />
		<tag k="ssr:stedsnr" v="412429" />
	</node>
	<node lat="63.1025888888866" lon="7.843197217004908" id="-5537">
		<tag k="name" v="Omsund" />
		<tag k="place" v="farm" />
		<tag k="ssr:stedsnr" v="412501" />
	</node>
	<node lat="63.21188055369707" lon="7.551208326080115" id="-5538">
		<tag k="name" v="Anbåskjærflua" />
		<tag k="natural" v="shoal" />
		<tag k="place" v="locality" />
		<tag k="ssr:stedsnr" v="412382" />
	</node>
	<node lat="63.20802222462836" lon="7.595055558914777" id="-5539">
		<tag k="fixme" v="consider seamark:type=rock or natural=shoal" />
		<tag k="name" v="Nordkvitna" />
		<tag k="place" v="islet" />
		<tag k="ssr:stedsnr" v="413116" />
	</node>
	<node lat="63.02900833391713" lon="7.722766674180286" id="-5540">
		<tag k="name" v="Rågrunnen" />
		<tag k="natural" v="shoal" />
		<tag k="place" v="locality" />
		<tag k="ssr:stedsnr" v="414377" />
	</node>
	<node lat="63.10443889116701" lon="7.839080545708714" id="-5541">
		<tag k="name" v="Kjerringneset" />
		<tag k="natural" v="cape" />
		<tag k="ssr:stedsnr" v="420207" />
	</node>
	<node lat="63.12389722316375" lon="7.743916672686073" id="-5542">
		<tag k="leisure" v="park" />
		<tag k="name" v="Folkeparken" />
		<tag k="ssr:stedsnr" v="420927" />
	</node>
	<node lat="63.077099998783595" lon="7.758961109180221" id="-5543">
		<tag k="name" v="Leabakken" />
		<tag k="natural" v="slope" />
		<tag k="place" v="locality" />
		<tag k="ssr:stedsnr" v="437357" />
	</node>
	<node lat="63.10656388922397" lon="7.766641666854795" id="-5544">
		<tag k="name" v="Dalvikneset" />
		<tag k="natural" v="cape" />
		<tag k="ssr:stedsnr" v="437367" />
	</node>
	<node lat="63.06855555964807" lon="7.888997215211701" id="-5545">
		<tag k="name" v="Kvalvågen" />
		<tag k="natural" v="bay" />
		<tag k="ssr:stedsnr" v="437210" />
	</node>
	<node lat="63.02149315101983" lon="7.760758872298784" id="-5546">
		<tag k="name" v="Flatsetøya" />
		<tag k="place" v="island" />
		<tag k="ssr:stedsnr" v="437239" />
	</node>
	<node lat="63.015097224469336" lon="7.7847500034887425" id="-5547">
		<tag k="name" v="Revsholmen" />
		<tag k="place" v="islet" />
		<tag k="ssr:stedsnr" v="437242" />
	</node>
	<node lat="63.0930722261622" lon="7.803363886321372" id="-5548">
		<tag k="loc_name" v="Vågatjønna" />
		<tag k="name" v="Vågatjørna" />
		<tag k="natural" v="water" />
		<tag k="ssr:stedsnr" v="437332" />
	</node>
	<node lat="63.04948611280121" lon="7.840436105043349" id="-5549">
		<tag k="fixme" v="consider natural=peak for the most distinct mountains in the district" />
		<tag k="name" v="Ratlia" />
		<tag k="natural" v="hill" />
		<tag k="place" v="locality" />
		<tag k="ssr:stedsnr" v="437175" />
	</node>
	<node lat="63.044018146545795" lon="7.720597825064182" id="-5550">
		<tag k="fixme" v="consider place=hamlet" />
		<tag k="name" v="Møst" />
		<tag k="place" v="farm" />
		<tag k="ssr:stedsnr" v="437178" />
	</node>
	<node lat="63.06362777945049" lon="7.884316665072286" id="-5551">
		<tag k="name" v="Vikageilen" />
		<tag k="place" v="farm" />
		<tag k="ssr:stedsnr" v="437197" />
	</node>
	<node lat="63.12541110952226" lon="7.808277779730332" id="-5552">
		<tag k="name" v="Sommarro" />
		<tag k="place" v="farm" />
		<tag k="ssr:stedsnr" v="437289" />
	</node>
	<node lat="63.1220916632694" lon="7.84095277075544" id="-5553">
		<tag k="name" v="Vågen" />
		<tag k="natural" v="water" />
		<tag k="ssr:stedsnr" v="437298" />
	</node>
	<node lat="63.09320277616752" lon="7.885499992880349" id="-5554">
		<tag k="name" v="Øverenga" />
		<tag k="place" v="farm" />
		<tag k="ssr:stedsnr" v="437342" />
	</node>
	<node lat="63.28616944603529" lon="7.302686105703276" id="-5555">
		<tag k="alt_name" v="Ytre Steintaren" />
		<tag k="name" v="Steintaren" />
		<tag k="natural" v="shoal" />
		<tag k="place" v="locality" />
		<tag k="ssr:stedsnr" v="437610" />
	</node>
	<node lat="63.23009167037502" lon="7.6040916589206065" id="-5556">
		<tag k="fixme" v="consider seamark:type=rock or natural=shoal" />
		<tag k="name" v="Reitskjæret" />
		<tag k="place" v="islet" />
		<tag k="ssr:stedsnr" v="437676" />
	</node>
	<node lat="63.04209166471086" lon="7.738583331894372" id="-5557">
		<tag k="name" v="Svindalsura" />
		<tag k="natural" v="scree" />
		<tag k="ssr:stedsnr" v="710841" />
	</node>
	<node lat="63.10446111225666" lon="7.767286117684887" id="-5558">
		<tag k="name" v="Vikaholmen" />
		<tag k="place" v="islet" />
		<tag k="ssr:stedsnr" v="497355" />
	</node>
	<node lat="63.10168055972603" lon="7.804297215819536" id="-5559">
		<tag k="name" v="Hansøya" />
		<tag k="place" v="islet" />
		<tag k="ssr:stedsnr" v="497356" />
	</node>
	<node lat="63.10120277962753" lon="7.856208337435526" id="-5560">
		<tag k="name" v="Elverand" />
		<tag k="place" v="farm" />
		<tag k="ssr:stedsnr" v="497360" />
	</node>
	<node lat="63.10168932189629" lon="7.829021897139881" id="-5561">
		<tag k="fixme" v="consider place=hamlet" />
		<tag k="name" v="Rensvik" />
		<tag k="place" v="farm" />
		<tag k="ssr:stedsnr" v="497361" />
	</node>
	<node lat="63.01554658302232" lon="7.836398540814701" id="-5562">
		<tag k="bay" v="fjord" />
		<tag k="name" v="Freifjorden" />
		<tag k="natural" v="bay" />
		<tag k="ssr:stedsnr" v="497153" />
	</node>
	<node lat="63.06727203270216" lon="7.716141667503022" id="-5563">
		<tag k="name" v="Bjørnvika" />
		<tag k="place" v="farm" />
		<tag k="ssr:stedsnr" v="497171" />
	</node>
	<node lat="63.083419445721624" lon="7.836313880500525" id="-5564">
		<tag k="name" v="Kjelhaugen" />
		<tag k="natural" v="hill" />
		<tag k="place" v="locality" />
		<tag k="ssr:stedsnr" v="497324" />
	</node>
	<node lat="63.106508335495676" lon="7.725938891195808" id="-5565">
		<tag k="name" v="Sørsundet" />
		<tag k="natural" v="strait" />
		<tag k="ssr:stedsnr" v="497342" />
	</node>
	<node lat="63.11735555401822" lon="7.832813887503926" id="-5566">
		<tag k="fixme" v="consider natural=peak for the most distinct mountains in the district" />
		<tag k="name" v="Høgåsen" />
		<tag k="natural" v="hill" />
		<tag k="place" v="locality" />
		<tag k="ssr:stedsnr" v="497425" />
	</node>
	<node lat="63.194813887620356" lon="7.64401666006373" id="-5567">
		<tag k="fixme" v="consider seamark:type=rock or natural=shoal" />
		<tag k="name" v="Godsupa" />
		<tag k="place" v="islet" />
		<tag k="ssr:stedsnr" v="497634" />
	</node>
	<node lat="63.216238885848405" lon="7.573069439694213" id="-5568">
		<tag k="name" v="Kvitingen" />
		<tag k="place" v="islet" />
		<tag k="ssr:stedsnr" v="497641" />
	</node>
	<node lat="63.1126916684996" lon="7.855180556521821" id="-5569">
		<tag k="name" v="Kutrøhaugen" />
		<tag k="natural" v="hill" />
		<tag k="place" v="locality" />
		<tag k="ssr:stedsnr" v="498325" />
	</node>
	<node lat="63.1179222231792" lon="7.80916110713078" id="-5570">
		<tag k="name" v="Kvernberget" />
		<tag k="natural" v="hill" />
		<tag k="place" v="locality" />
		<tag k="ssr:stedsnr" v="498331" />
	</node>
	<node lat="63.03709164521953" lon="7.698113196683479" id="-5571">
		<tag k="name" v="Sildvolneset" />
		<tag k="natural" v="cape" />
		<tag k="ssr:stedsnr" v="506472" />
	</node>
	<node lat="63.09857222497563" lon="7.732527771084582" id="-5572">
		<tag k="name" v="Linflua" />
		<tag k="place" v="locality" />
		<tag k="seamark:type" v="rock" />
		<tag k="ssr:stedsnr" v="526297" />
	</node>
	<node lat="63.115338892521386" lon="7.749580556791431" id="-5573">
		<tag k="name" v="Lille Nordsundet" />
		<tag k="natural" v="strait" />
		<tag k="ssr:stedsnr" v="526430" />
	</node>
	<node lat="63.11503610912517" lon="7.750050002658292" id="-5574">
		<tag k="name" v="Nordholmen" />
		<tag k="place" v="islet" />
		<tag k="ssr:stedsnr" v="526432" />
	</node>
	<node lat="63.04443562645589" lon="7.847588688387409" id="-5575">
		<tag k="name" v="Skifteslebakken" />
		<tag k="natural" v="slope" />
		<tag k="place" v="locality" />
		<tag k="ssr:stedsnr" v="528259" />
	</node>
	<node lat="63.04925000057036" lon="7.8496444512786" id="-5576">
		<tag k="name" v="Skjenstølia" />
		<tag k="natural" v="slope" />
		<tag k="place" v="locality" />
		<tag k="ssr:stedsnr" v="528170" />
	</node>
	<node lat="63.113958331625895" lon="7.736819437257626" id="-5577">
		<tag k="man_made" v="quay" />
		<tag k="name" v="Holmakaia" />
		<tag k="place" v="locality" />
		<tag k="ssr:stedsnr" v="528347" />
	</node>
	<node lat="63.10877777982845" lon="7.732022216561962" id="-5578">
		<tag k="man_made" v="quay" />
		<tag k="name" v="Storkaia" />
		<tag k="place" v="locality" />
		<tag k="ssr:stedsnr" v="528348" />
	</node>
	<node lat="63.04620832920298" lon="7.746300004968941" id="-5579">
		<tag k="name" v="Lågfjellvatnet" />
		<tag k="natural" v="water" />
		<tag k="ssr:stedsnr" v="528837" />
	</node>
	<node lat="63.08363333374804" lon="7.8362222279768305" id="-5580">
		<tag k="name" v="Kjellhaugen" />
		<tag k="natural" v="hill" />
		<tag k="place" v="locality" />
		<tag k="ssr:stedsnr" v="529158" />
	</node>
	<node lat="63.128272226290555" lon="7.841855551156052" id="-5582">
		<tag k="name" v="Storhammaren" />
		<tag k="natural" v="hill" />
		<tag k="place" v="locality" />
		<tag k="ssr:stedsnr" v="529758" />
	</node>
	<node lat="63.10893055802768" lon="7.84425834195341" id="-5583">
		<tag k="name" v="Margretsteinen" />
		<tag k="natural" v="stone" />
		<tag k="ssr:stedsnr" v="529706" />
	</node>
	<node lat="63.0752055524829" lon="7.888399994472815" id="-5584">
		<tag k="name" v="Bogabukta" />
		<tag k="natural" v="bay" />
		<tag k="ssr:stedsnr" v="530390" />
	</node>
	<node lat="63.17542222153602" lon="7.556049994614233" id="-5585">
		<tag k="name" v="Treflestaren" />
		<tag k="natural" v="shoal" />
		<tag k="place" v="locality" />
		<tag k="ssr:stedsnr" v="534481" />
	</node>
	<node lat="63.110586106889606" lon="7.782269437248185" id="-5586">
		<tag k="landuse" v="meadow" />
		<tag k="name" v="Løkkemyra" />
		<tag k="ssr:stedsnr" v="541256" />
	</node>
	<node lat="63.12432264019754" lon="7.695844674653432" id="-5587">
		<tag k="name" v="Bårdokken" />
		<tag k="natural" v="bay" />
		<tag k="ssr:stedsnr" v="541923" />
	</node>
	<node lat="63.124736108282775" lon="7.73134999751009" id="-5588">
		<tag k="name" v="Dalen" />
		<tag k="place" v="farm" />
		<tag k="ssr:stedsnr" v="541926" />
	</node>
	<node lat="63.038344445878145" lon="7.755430546370916" id="-5589">
		<tag k="name" v="Seterhaugen" />
		<tag k="natural" v="hill" />
		<tag k="place" v="locality" />
		<tag k="ssr:stedsnr" v="558150" />
	</node>
	<node lat="63.033272217805106" lon="7.778180555971" id="-5590">
		<tag k="name" v="Kveldsro" />
		<tag k="place" v="farm" />
		<tag k="ssr:stedsnr" v="558151" />
	</node>
	<node lat="63.046286112930545" lon="7.743955545890258" id="-5591">
		<tag k="fixme" v="consider natural=peak for the most distinct mountains in the district" />
		<tag k="name" v="Lågfjellet" />
		<tag k="natural" v="hill" />
		<tag k="place" v="locality" />
		<tag k="ssr:stedsnr" v="558162" />
	</node>
	<node lat="63.05523611463331" lon="7.795716674432723" id="-5592">
		<tag k="fixme" v="consider natural=peak for the most distinct mountains in the district" />
		<tag k="name" v="Rytteråsen" />
		<tag k="natural" v="hill" />
		<tag k="place" v="locality" />
		<tag k="ssr:stedsnr" v="558179" />
	</node>
	<node lat="63.0538666634439" lon="7.81763332912686" id="-5593">
		<tag k="fixme" v="consider natural=peak for the most distinct mountains in the district" />
		<tag k="name" v="Hysåsen" />
		<tag k="natural" v="hill" />
		<tag k="place" v="locality" />
		<tag k="ssr:stedsnr" v="558180" />
	</node>
	<node lat="63.133900000086214" lon="7.793072227103804" id="-5594">
		<tag k="fixme" v="consider seamark:type=rock or natural=shoal" />
		<tag k="name" v="Håskjæran" />
		<tag k="place" v="islet" />
		<tag k="ssr:stedsnr" v="558275" />
	</node>
	<node lat="63.12670495067988" lon="7.829604543774569" id="-5595">
		<tag k="fixme" v="consider place=hamlet" />
		<tag k="name" v="Gløsvåg" />
		<tag k="place" v="farm" />
		<tag k="ssr:stedsnr" v="558278" />
	</node>
	<node lat="63.02938333668029" lon="7.741975002541737" id="-5596">
		<tag k="name" v="Storhaugen" />
		<tag k="place" v="farm" />
		<tag k="ssr:stedsnr" v="558242" />
	</node>
	<node lat="63.08598055140443" lon="7.7820888933019905" id="-5597">
		<tag k="name" v="Bolgvågen" />
		<tag k="natural" v="bay" />
		<tag k="ssr:stedsnr" v="558319" />
	</node>
	<node lat="63.09465832919454" lon="7.767444443239114" id="-5598">
		<tag k="name" v="Fugløya" />
		<tag k="place" v="islet" />
		<tag k="ssr:stedsnr" v="558368" />
	</node>
	<node lat="63.103107241340055" lon="7.864049064496189" id="-5599">
		<tag k="fixme" v="consider place=hamlet" />
		<tag k="name" v="Storbukta" />
		<tag k="place" v="farm" />
		<tag k="ssr:stedsnr" v="558371" />
	</node>
	<node lat="63.0869166671103" lon="7.758780564115459" id="-5600">
		<tag k="name" v="Nerbolga" />
		<tag k="place" v="farm" />
		<tag k="ssr:stedsnr" v="558389" />
	</node>
	<node lat="63.12337500350543" lon="7.870027780096745" id="-5601">
		<tag k="name" v="Sandvikneset" />
		<tag k="natural" v="cape" />
		<tag k="ssr:stedsnr" v="558480" />
	</node>
	<node lat="63.03907499899505" lon="7.708777771602467" id="-5602">
		<tag k="fixme" v="consider natural=peak for the most distinct mountains in the district" />
		<tag k="name" v="Sildvolnesåsen" />
		<tag k="natural" v="hill" />
		<tag k="place" v="locality" />
		<tag k="ssr:stedsnr" v="558608" />
	</node>
	<node lat="63.11426666787529" lon="7.76661388904945" id="-5603">
		<tag k="name" v="Røssern" />
		<tag k="natural" v="water" />
		<tag k="ssr:stedsnr" v="566583" />
	</node>
	<node lat="63.06908055146735" lon="7.876930552603703" id="-5605">
		<tag k="bridge" v="yes" />
		<tag k="layer" v="1" />
		<tag k="name" v="Kvalvågbrua" />
		<tag k="ssr:stedsnr" v="571966" />
	</node>
	<node lat="63.1043972182454" lon="7.782588883349281" id="-5606">
		<tag k="man_made" v="quay" />
		<tag k="name" v="Vågakaia" />
		<tag k="place" v="locality" />
		<tag k="ssr:stedsnr" v="586270" />
	</node>
	<node lat="63.11515000237461" lon="7.687063885261586" id="-5607">
		<tag k="name" v="Klubbnestaren" />
		<tag k="place" v="locality" />
		<tag k="seamark:type" v="rock" />
		<tag k="ssr:stedsnr" v="586477" />
	</node>
	<node lat="63.03468055753354" lon="7.824502767858475" id="-5608">
		<tag k="name" v="Myllåstranda" />
		<tag k="place" v="farm" />
		<tag k="ssr:stedsnr" v="589115" />
	</node>
	<node lat="63.05799999632353" lon="7.835777786765875" id="-5609">
		<tag k="name" v="Halsmyra" />
		<tag k="natural" v="wetland" />
		<tag k="ssr:stedsnr" v="589245" />
	</node>
	<node lat="63.13610555191329" lon="7.825705558526709" id="-5610">
		<tag k="loc_name" v="Melkvikneset" />
		<tag k="name" v="Mjølkvikneset" />
		<tag k="natural" v="cape" />
		<tag k="ssr:stedsnr" v="589741" />
	</node>
	<node lat="63.020958333138864" lon="7.757658324603736" id="-5611">
		<tag k="name" v="Djupvik" />
		<tag k="place" v="farm" />
		<tag k="ssr:stedsnr" v="589094" />
	</node>
	<node lat="63.102699999419826" lon="7.834691660569186" id="-5612">
		<tag k="name" v="Sanden" />
		<tag k="place" v="farm" />
		<tag k="ssr:stedsnr" v="589181" />
	</node>
	<node lat="63.026275002515106" lon="7.734788890196899" id="-5613">
		<tag k="name" v="Rotholmen" />
		<tag k="place" v="islet" />
		<tag k="ssr:stedsnr" v="589892" />
	</node>
	<node lat="63.079605553875645" lon="7.831766668545537" id="-5614">
		<tag k="name" v="Mehaugen" />
		<tag k="natural" v="hill" />
		<tag k="place" v="locality" />
		<tag k="ssr:stedsnr" v="590001" />
	</node>
	<node lat="63.12717221806423" lon="7.764433331787299" id="-5615">
		<tag k="name" v="Sankthanshaugen" />
		<tag k="natural" v="hill" />
		<tag k="place" v="locality" />
		<tag k="ssr:stedsnr" v="589782" />
	</node>
	<node lat="63.06501389140875" lon="7.7623222195535355" id="-5616">
		<tag k="name" v="Ytter Skredbakken" />
		<tag k="ssr:stedsnr" v="590017" />
		<tag k="waterway" v="stream" />
	</node>
	<node lat="63.10766389231694" lon="7.8487583328840556" id="-5617">
		<tag k="name" v="Leirvika" />
		<tag k="natural" v="bay" />
		<tag k="ssr:stedsnr" v="590567" />
	</node>
	<node lat="63.094330557487275" lon="7.88230833599966" id="-5618">
		<tag k="name" v="Kvalvikelva" />
		<tag k="ssr:stedsnr" v="590356" />
		<tag k="waterway" v="stream" />
	</node>
	<node lat="63.21010277430242" lon="7.623374994297239" id="-5619">
		<tag k="name" v="Landbakkflua" />
		<tag k="natural" v="shoal" />
		<tag k="place" v="locality" />
		<tag k="ssr:stedsnr" v="594127" />
	</node>
	<node lat="63.22982777964661" lon="7.555863897119049" id="-5620">
		<tag k="name" v="Søre Fausken" />
		<tag k="natural" v="shoal" />
		<tag k="place" v="locality" />
		<tag k="ssr:stedsnr" v="594394" />
	</node>
	<node lat="63.206341666659895" lon="7.703613892734204" id="-5621">
		<tag k="fixme" v="consider seamark:type=rock or natural=shoal" />
		<tag k="name" v="Austre Kobbskjæra" />
		<tag k="place" v="islet" />
		<tag k="ssr:stedsnr" v="594466" />
	</node>
	<node lat="63.20639722123853" lon="7.764283339999409" id="-5622">
		<tag k="name" v="Søre Godtaren" />
		<tag k="natural" v="shoal" />
		<tag k="place" v="locality" />
		<tag k="ssr:stedsnr" v="595269" />
	</node>
	<node lat="63.12943333755223" lon="7.722436114864714" id="-5623">
		<tag k="name" v="Kariholstøa" />
		<tag k="natural" v="bay" />
		<tag k="ssr:stedsnr" v="601890" />
	</node>
	<node lat="63.102449997957486" lon="7.877677775421702" id="-5624">
		<tag k="name" v="Perkverna" />
		<tag k="place" v="farm" />
		<tag k="ssr:stedsnr" v="618341" />
	</node>
	<node lat="63.07925000385912" lon="7.717113879169289" id="-5625">
		<tag k="name" v="Valen" />
		<tag k="place" v="farm" />
		<tag k="ssr:stedsnr" v="618696" />
	</node>
	<node lat="63.04701944864809" lon="7.788997212682085" id="-5626">
		<tag k="name" v="Ytre Jonsokhaugen" />
		<tag k="natural" v="hill" />
		<tag k="place" v="locality" />
		<tag k="ssr:stedsnr" v="619172" />
	</node>
	<node lat="63.04137500196824" lon="7.757277774937358" id="-5627">
		<tag k="fixme" v="consider natural=peak for the most distinct mountains in the district" />
		<tag k="name" v="Fagerlia" />
		<tag k="natural" v="hill" />
		<tag k="place" v="locality" />
		<tag k="ssr:stedsnr" v="619179" />
	</node>
	<node lat="63.05849444436979" lon="7.851788890850025" id="-5628">
		<tag k="fixme" v="consider natural=peak for the most distinct mountains in the district" />
		<tag k="name" v="Litlbreilia" />
		<tag k="natural" v="hill" />
		<tag k="place" v="locality" />
		<tag k="ssr:stedsnr" v="619192" />
	</node>
	<node lat="63.05811944032183" lon="7.759491671693848" id="-5629">
		<tag k="name" v="Blåhylla" />
		<tag k="natural" v="hill" />
		<tag k="place" v="locality" />
		<tag k="ssr:stedsnr" v="619194" />
	</node>
	<node lat="63.0917250031463" lon="7.900788893791529" id="-5630">
		<tag k="name" v="Åneset" />
		<tag k="natural" v="cape" />
		<tag k="ssr:stedsnr" v="619363" />
	</node>
	<node lat="63.03202777803768" lon="7.814130545738883" id="-5631">
		<tag k="bridge" v="yes" />
		<tag k="layer" v="1" />
		<tag k="name" v="Freibrua" />
		<tag k="ssr:stedsnr" v="631962" />
	</node>
	<node lat="63.119572226734995" lon="7.747541672808512" id="-5632">
		<tag k="bridge" v="yes" />
		<tag k="layer" v="1" />
		<tag k="name" v="Teistholmbrua" />
		<tag k="ssr:stedsnr" v="633339" />
	</node>
	<node lat="63.10581944256859" lon="7.781041674305062" id="-5633">
		<tag k="building" v="commercial" />
		<tag k="name" v="Vestbase" />
		<tag k="ssr:stedsnr" v="647272" />
	</node>
	<node lat="63.04232840453209" lon="7.8439420355618115" id="-5635">
		<tag k="name" v="Orhamran" />
		<tag k="place" v="locality" />
		<tag k="ssr:stedsnr" v="649233" />
	</node>
	<node lat="63.08653055223354" lon="7.791530561982072" id="-5636">
		<tag k="alt_name" v="Bytskjæret" />
		<tag k="fixme" v="consider seamark:type=rock or natural=shoal" />
		<tag k="name" v="Skjeret" />
		<tag k="place" v="islet" />
		<tag k="ssr:stedsnr" v="649157" />
	</node>
	<node lat="63.071730557785365" lon="7.705061111857906" id="-5637">
		<tag k="name" v="Åraneset" />
		<tag k="natural" v="cape" />
		<tag k="ssr:stedsnr" v="649852" />
	</node>
	<node lat="63.04073933529161" lon="7.722827568058852" id="-5638">
		<tag k="name" v="Brekka" />
		<tag k="place" v="farm" />
		<tag k="ssr:stedsnr" v="649859" />
	</node>
	<node lat="63.08040833626177" lon="7.819499991817163" id="-5639">
		<tag k="name" v="Guridalen" />
		<tag k="natural" v="valley" />
		<tag k="place" v="locality" />
		<tag k="ssr:stedsnr" v="650005" />
	</node>
	<node lat="63.06565555502721" lon="7.7715666664862635" id="-5640">
		<tag k="name" v="Rastholmen" />
		<tag k="place" v="islet" />
		<tag k="ssr:stedsnr" v="650017" />
	</node>
	<node lat="63.08220000254039" lon="7.77968612009" id="-5641">
		<tag k="name" v="Bolgmyra" />
		<tag k="place" v="farm" />
		<tag k="ssr:stedsnr" v="650023" />
	</node>
	<node lat="63.0769805520718" lon="7.761747231201032" id="-5642">
		<tag k="name" v="Middagsskaret" />
		<tag k="natural" v="valley" />
		<tag k="place" v="locality" />
		<tag k="ssr:stedsnr" v="650027" />
	</node>
	<node lat="63.0789805534705" lon="7.8703666636641945" id="-5643">
		<tag k="name" v="Ørnvikmyra" />
		<tag k="natural" v="wetland" />
		<tag k="ssr:stedsnr" v="650028" />
	</node>
	<node lat="63.11610833670198" lon="7.853913892136273" id="-5644">
		<tag k="name" v="Haltvikløkan" />
		<tag k="ssr:stedsnr" v="650492" />
		<tag k="waterway" v="stream" />
	</node>
	<node lat="63.11652222138339" lon="7.873561116676041" id="-5645">
		<tag k="name" v="Vonahammaren" />
		<tag k="natural" v="hill" />
		<tag k="place" v="locality" />
		<tag k="ssr:stedsnr" v="650496" />
	</node>
	<node lat="63.026516669951505" lon="7.766663893065925" id="-5646">
		<tag k="name" v="Porkholmen" />
		<tag k="place" v="islet" />
		<tag k="ssr:stedsnr" v="650074" />
	</node>
	<node lat="63.0266222230936" lon="7.803938881417754" id="-5647">
		<tag k="name" v="Skrubbhaugen" />
		<tag k="natural" v="hill" />
		<tag k="old_name" v="Srubbhaugen" />
		<tag k="place" v="locality" />
		<tag k="ssr:stedsnr" v="650075" />
	</node>
	<node lat="63.095649996130064" lon="7.865336120270534" id="-5648">
		<tag k="name" v="Dalaelva" />
		<tag k="ssr:stedsnr" v="650127" />
		<tag k="waterway" v="stream" />
	</node>
	<node lat="63.122974996934" lon="7.84272777121809" id="-5649">
		<tag k="historic" v="shieling" />
		<tag k="name" v="Råkstølen" />
		<tag k="place" v="isolated_dwelling" />
		<tag k="ssr:stedsnr" v="650480" />
	</node>
	<node lat="63.131004144508914" lon="7.775763441803403" id="-5650">
		<tag k="name" v="Valan" />
		<tag k="natural" v="bay" />
		<tag k="old_name" v="Valen" />
		<tag k="ssr:stedsnr" v="650747" />
	</node>
	<node lat="63.13251944078828" lon="7.778969445103977" id="-5651">
		<tag k="name" v="Heimfalla" />
		<tag k="natural" v="shoal" />
		<tag k="place" v="locality" />
		<tag k="ssr:stedsnr" v="650749" />
	</node>
	<node lat="63.125877777113374" lon="7.787836112079321" id="-5652">
		<tag k="name" v="Stongdraget" />
		<tag k="natural" v="cape" />
		<tag k="ssr:stedsnr" v="650758" />
	</node>
	<node lat="63.129816670407536" lon="7.76820278617425" id="-5653">
		<tag k="name" v="Molbogen" />
		<tag k="natural" v="bay" />
		<tag k="ssr:stedsnr" v="650766" />
	</node>
	<node lat="63.03101111379281" lon="7.748236109373344" id="-5654">
		<tag k="name" v="Skogheim" />
		<tag k="place" v="farm" />
		<tag k="ssr:stedsnr" v="650857" />
	</node>
	<node lat="63.02863610759988" lon="7.75077777186516" id="-5655">
		<tag k="name" v="Fagernes" />
		<tag k="place" v="farm" />
		<tag k="ssr:stedsnr" v="650863" />
	</node>
	<node lat="63.098638890751296" lon="7.887797214569191" id="-5656">
		<tag k="name" v="Slåsthammaren" />
		<tag k="natural" v="hill" />
		<tag k="place" v="locality" />
		<tag k="ssr:stedsnr" v="651361" />
	</node>
	<node lat="63.079788889868546" lon="7.885291657608457" id="-5657">
		<tag k="name" v="Kleven" />
		<tag k="place" v="farm" />
		<tag k="ssr:stedsnr" v="651378" />
	</node>
	<node lat="63.228050003621476" lon="7.63754721821195" id="-5658">
		<tag k="name" v="Ytre Langfallet" />
		<tag k="natural" v="shoal" />
		<tag k="place" v="locality" />
		<tag k="ssr:stedsnr" v="655148" />
	</node>
	<node lat="63.22946666821081" lon="7.539680554573822" id="-5659">
		<tag k="name" v="Gjevleklakken" />
		<tag k="natural" v="shoal" />
		<tag k="place" v="locality" />
		<tag k="ssr:stedsnr" v="655368" />
	</node>
	<node lat="63.10104722019725" lon="7.695566657555727" id="-5660">
		<tag k="name" v="Bremsnesflua" />
		<tag k="natural" v="shoal" />
		<tag k="place" v="locality" />
		<tag k="ssr:stedsnr" v="655719" />
	</node>
	<node lat="63.195252774307534" lon="7.492938897474792" id="-5661">
		<tag k="name" v="Sigrunnen" />
		<tag k="natural" v="shoal" />
		<tag k="place" v="locality" />
		<tag k="ssr:stedsnr" v="655660" />
	</node>
	<node lat="63.080543851031415" lon="7.772030504916167" id="-5662">
		<tag k="fixme" v="consider place=hamlet" />
		<tag k="name" v="Bolga" />
		<tag k="place" v="farm" />
		<tag k="ssr:stedsnr" v="657799" />
	</node>
	<node lat="63.10918333179623" lon="7.769366668781197" id="-5663">
		<tag k="building" v="industrial" />
		<tag k="industrial" v="factory" />
		<tag k="name" v="Vikan" />
		<tag k="ssr:stedsnr" v="662224" />
	</node>
	<node lat="63.165405551252036" lon="7.777088887660867" id="-5664">
		<tag k="name" v="Fausken" />
		<tag k="place" v="locality" />
		<tag k="seamark:type" v="rock" />
		<tag k="ssr:stedsnr" v="662662" />
	</node>
	<node lat="63.13192222445725" lon="7.7726666752317985" id="-5665">
		<tag k="name" v="Lurflua" />
		<tag k="natural" v="shoal" />
		<tag k="place" v="locality" />
		<tag k="ssr:stedsnr" v="662856" />
	</node>
	<node lat="63.06415000308756" lon="7.880619435731952" id="-5666">
		<tag k="name" v="Geillia" />
		<tag k="natural" v="slope" />
		<tag k="place" v="locality" />
		<tag k="ssr:stedsnr" v="711400" />
	</node>
	<node lat="63.105902777501576" lon="7.800977785700206" id="-5667">
		<tag k="name" v="Orvikan" />
		<tag k="natural" v="bay" />
		<tag k="ssr:stedsnr" v="711550" />
	</node>
	<node lat="63.11447222650566" lon="7.7183027696275035" id="-5668">
		<tag k="name" v="Vanndammen" />
		<tag k="natural" v="water" />
		<tag k="ssr:stedsnr" v="711341" />
	</node>
	<node lat="63.13384444180512" lon="7.819088896762514" id="-5669">
		<tag k="name" v="Korten" />
		<tag k="place" v="islet" />
		<tag k="ssr:stedsnr" v="711748" />
	</node>
	<node lat="63.05545555506506" lon="7.8799583409437854" id="-5670">
		<tag k="name" v="Kongshaugen" />
		<tag k="natural" v="hill" />
		<tag k="place" v="locality" />
		<tag k="ssr:stedsnr" v="712213" />
	</node>
	<node lat="63.22173610717887" lon="7.53877778165062" id="-5671">
		<tag k="name" v="Nordre Flesa" />
		<tag k="place" v="islet" />
		<tag k="ssr:stedsnr" v="716399" />
	</node>
	<node lat="63.0559972208641" lon="7.723991658960776" id="-5672">
		<tag k="name" v="Ytterviktaren" />
		<tag k="natural" v="shoal" />
		<tag k="place" v="locality" />
		<tag k="ssr:stedsnr" v="716411" />
	</node>
	<node lat="63.08398611093619" lon="7.771480556946036" id="-5673">
		<tag k="name" v="Lunden" />
		<tag k="place" v="farm" />
		<tag k="ssr:stedsnr" v="716546" />
	</node>
	<node lat="63.106061109053094" lon="7.849797223107106" id="-5674">
		<tag k="name" v="Jåklubben" />
		<tag k="place" v="islet" />
		<tag k="ssr:stedsnr" v="723203" />
	</node>
	<node lat="63.075858330780605" lon="7.71819444718819" id="-5675">
		<tag k="name" v="Vadsteinsvika" />
		<tag k="place" v="quarter" />
		<tag k="ssr:stedsnr" v="727614" />
	</node>
	<node lat="63.20473888965816" lon="7.5918111102119274" id="-5676">
		<tag k="alt_name" v="Sørkvitna" />
		<tag k="fixme" v="consider seamark:type=rock or natural=shoal" />
		<tag k="name" v="Kvitna" />
		<tag k="place" v="islet" />
		<tag k="ssr:stedsnr" v="740658" />
	</node>
	<node lat="63.23384722600201" lon="7.609963883752571" id="-5677">
		<tag k="fixme" v="consider seamark:type=rock or natural=shoal" />
		<tag k="name" v="Bratthårskollen" />
		<tag k="place" v="islet" />
		<tag k="ssr:stedsnr" v="740669" />
	</node>
	<node lat="63.09389166446183" lon="7.702324990223985" id="-5678">
		<tag k="bay" v="fjord" />
		<tag k="name" v="Bremsnesfjorden" />
		<tag k="natural" v="bay" />
		<tag k="ssr:stedsnr" v="740745" />
	</node>
	<node lat="63.05383333417919" lon="7.858186115104958" id="-5679">
		<tag k="name" v="Solli" />
		<tag k="place" v="farm" />
		<tag k="ssr:stedsnr" v="740160" />
	</node>
	<node lat="63.06754166456183" lon="7.896930551494554" id="-5680">
		<tag k="fixme" v="consider seamark:type=rock or natural=shoal" />
		<tag k="name" v="Kvalvågholmen" />
		<tag k="place" v="islet" />
		<tag k="ssr:stedsnr" v="740169" />
	</node>
	<node lat="63.06831666760392" lon="7.78864444007681" id="-5681">
		<tag k="fixme" v="consider natural=peak for the most distinct mountains in the district" />
		<tag k="name" v="Midtfjellet" />
		<tag k="natural" v="hill" />
		<tag k="place" v="locality" />
		<tag k="ssr:stedsnr" v="740174" />
	</node>
	<node lat="63.02454792338178" lon="7.802966829469855" id="-5682">
		<tag k="amenity" v="place_of_worship" />
		<tag k="denomination" v="lutheran" />
		<tag k="name" v="Frei kirke" />
		<tag k="religion" v="christian" />
		<tag k="ssr:stedsnr" v="740214" />
	</node>
	<node lat="63.018916669738026" lon="7.789372213496199" id="-5684">
		<tag k="name" v="Lågholmen" />
		<tag k="place" v="islet" />
		<tag k="ssr:stedsnr" v="740218" />
	</node>
	<node lat="63.273577773559744" lon="7.299019443056859" id="-5685">
		<tag k="name" v="Steinen" />
		<tag k="natural" v="shoal" />
		<tag k="place" v="locality" />
		<tag k="ssr:stedsnr" v="740560" />
	</node>
	<node lat="63.048544442981424" lon="7.695680563384778" id="-5686">
		<tag k="name" v="Litlkattholmen" />
		<tag k="place" v="islet" />
		<tag k="ssr:stedsnr" v="740562" />
	</node>
	<node lat="63.133105559198626" lon="7.8106222136196575" id="-5687">
		<tag k="name" v="Kvitneset" />
		<tag k="natural" v="cape" />
		<tag k="ssr:stedsnr" v="740428" />
	</node>
	<node lat="63.16193055443709" lon="7.56104444659371" id="-5688">
		<tag k="fixme" v="consider seamark:type=rock or natural=shoal" />
		<tag k="name" v="Sørskjelingen" />
		<tag k="place" v="islet" />
		<tag k="ssr:stedsnr" v="740714" />
	</node>
	<node lat="63.13863333077625" lon="7.841900000145821" id="-5689">
		<tag k="fixme" v="consider seamark:type=rock or natural=shoal" />
		<tag k="name" v="Stavbrekkskjæret" />
		<tag k="place" v="islet" />
		<tag k="ssr:stedsnr" v="741315" />
	</node>
	<node lat="63.118197219017254" lon="7.873519452193062" id="-5690">
		<tag k="name" v="Stabbursneset" />
		<tag k="natural" v="cape" />
		<tag k="ssr:stedsnr" v="741335" />
	</node>
	<node lat="63.092377779388336" lon="7.858474998782906" id="-5691">
		<tag k="name" v="Lauvhaugdammen" />
		<tag k="place" v="locality" />
		<tag k="ssr:stedsnr" v="741373" />
	</node>
	<node lat="63.0953944459736" lon="7.833100009494689" id="-5692">
		<tag k="name" v="Litlvatnet" />
		<tag k="natural" v="water" />
		<tag k="ssr:stedsnr" v="741374" />
	</node>
	<node lat="63.1020333373428" lon="7.820247223904835" id="-5693">
		<tag k="bridge" v="yes" />
		<tag k="layer" v="1" />
		<tag k="name" v="Rensviksundbrua" />
		<tag k="ssr:stedsnr" v="753945" />
	</node>
	<node lat="63.10617221792701" lon="7.801261101908412" id="-5694">
		<tag k="name" v="Øygardsfjæra" />
		<tag k="natural" v="beach" />
		<tag k="ssr:stedsnr" v="760021" />
	</node>
	<node lat="63.0822722250409" lon="7.767394449056876" id="-5695">
		<tag k="cemetery" v="grave" />
		<tag k="name" v="Bolga" />
		<tag k="place" v="locality" />
		<tag k="ssr:stedsnr" v="762168" />
	</node>
	<node lat="63.117947221039024" lon="7.688624997503763" id="-5696">
		<tag k="name" v="Brunsvikbåen" />
		<tag k="place" v="locality" />
		<tag k="seamark:type" v="rock" />
		<tag k="ssr:stedsnr" v="769493" />
	</node>
	<node lat="63.09670555278229" lon="7.777580547284133" id="-5697">
		<tag k="alt_name" v="Skarvskjeret" />
		<tag k="fixme" v="consider seamark:type=rock or natural=shoal" />
		<tag k="name" v="Skarveskjæret" />
		<tag k="place" v="islet" />
		<tag k="ssr:stedsnr" v="771353" />
	</node>
	<node lat="63.093474996948785" lon="7.733180558737185" id="-5698">
		<tag k="fixme" v="consider seamark:type=rock or natural=shoal" />
		<tag k="name" v="Bolgfallet" />
		<tag k="place" v="islet" />
		<tag k="ssr:stedsnr" v="771843" />
	</node>
	<node lat="63.04366944255861" lon="7.706094446237133" id="-5699">
		<tag k="fixme" v="verify maritime location" />
		<tag k="mooring" v="yes" />
		<tag k="name" v="Gjengstøa" />
		<tag k="place" v="locality" />
		<tag k="ssr:stedsnr" v="771852" />
	</node>
	<node lat="63.08001667018235" lon="7.779236120777014" id="-5700">
		<tag k="name" v="Søberget" />
		<tag k="place" v="farm" />
		<tag k="ssr:stedsnr" v="772033" />
	</node>
	<node lat="63.03027993112277" lon="7.738736585248645" id="-5701">
		<tag k="fixme" v="consider place=hamlet" />
		<tag k="name" v="Endreset" />
		<tag k="place" v="farm" />
		<tag k="ssr:stedsnr" v="771870" />
	</node>
	<node lat="63.11554444094929" lon="7.863691666881153" id="-5702">
		<tag k="name" v="Lauvhaugen" />
		<tag k="natural" v="hill" />
		<tag k="place" v="locality" />
		<tag k="ssr:stedsnr" v="772539" />
	</node>
	<node lat="63.12187777851725" lon="7.870811110006609" id="-5703">
		<tag k="fixme" v="consider seamark:type=rock or natural=shoal" />
		<tag k="name" v="Haltvikskjæret" />
		<tag k="place" v="islet" />
		<tag k="ssr:stedsnr" v="772541" />
	</node>
	<node lat="63.11546666458407" lon="7.761172226438831" id="-5704">
		<tag k="alt_name" v="Melkvika" />
		<tag k="loc_name" v="Melkvikan" />
		<tag k="name" v="Mjølkvika" />
		<tag k="natural" v="bay" />
		<tag k="ssr:stedsnr" v="772542" />
	</node>
	<node lat="63.117733333560075" lon="7.752191663673223" id="-5705">
		<tag k="name" v="Storenga" />
		<tag k="place" v="locality" />
		<tag k="ssr:stedsnr" v="772548" />
	</node>
	<node lat="63.25393333014932" lon="7.542847214470442" id="-5706">
		<tag k="name" v="Hauskallen" />
		<tag k="natural" v="shoal" />
		<tag k="place" v="locality" />
		<tag k="ssr:stedsnr" v="777399" />
	</node>
	<node lat="63.29462777577204" lon="7.346000004556155" id="-5707">
		<tag k="name" v="Vestretaren" />
		<tag k="natural" v="shoal" />
		<tag k="place" v="locality" />
		<tag k="ssr:stedsnr" v="777675" />
	</node>
	<node lat="63.31068055379058" lon="7.329091662072795" id="-5708">
		<tag k="name" v="Nygrunna" />
		<tag k="natural" v="shoal" />
		<tag k="place" v="locality" />
		<tag k="ssr:stedsnr" v="777685" />
	</node>
	<node lat="63.03098610735795" lon="7.7354833259325595" id="-5709">
		<tag k="historic" v="shieling" />
		<tag k="name" v="Vollen" />
		<tag k="place" v="locality" />
		<tag k="ssr:stedsnr" v="778887" />
	</node>
	<node lat="63.08420277440851" lon="7.7167777686100845" id="-5710">
		<tag k="name" v="Valneset" />
		<tag k="natural" v="cape" />
		<tag k="ssr:stedsnr" v="778974" />
	</node>
	<node lat="63.05675277852398" lon="7.868536115821241" id="-5711">
		<tag k="name" v="Dragset" />
		<tag k="place" v="farm" />
		<tag k="ssr:stedsnr" v="801157" />
	</node>
	<node lat="63.05611666809686" lon="7.7209611031128285" id="-5712">
		<tag k="alt_name" v="Møstvågen" />
		<tag k="name" v="Møstavågen" />
		<tag k="natural" v="bay" />
		<tag k="ssr:stedsnr" v="801160" />
	</node>
	<node lat="63.063794448229096" lon="7.837136107737167" id="-5713">
		<tag k="name" v="Litlvatnet" />
		<tag k="natural" v="water" />
		<tag k="ssr:stedsnr" v="801167" />
	</node>
	<node lat="63.134086112892376" lon="7.742008336896004" id="-5714">
		<tag k="name" v="Kleppen" />
		<tag k="natural" v="hill" />
		<tag k="place" v="locality" />
		<tag k="ssr:stedsnr" v="801258" />
	</node>
	<node lat="63.10069444396721" lon="7.897716671443835" id="-5715">
		<tag k="name" v="Gyltneset" />
		<tag k="natural" v="cape" />
		<tag k="ssr:stedsnr" v="801357" />
	</node>
	<node lat="63.12826944267614" lon="7.7092972171303575" id="-5716">
		<tag k="name" v="Karihola" />
		<tag k="place" v="suburb" />
		<tag k="ssr:stedsnr" v="801697" />
	</node>
	<node lat="63.03992777620011" lon="7.773236119555543" id="-5717">
		<tag k="name" v="Flatsetelva" />
		<tag k="ssr:stedsnr" v="802160" />
		<tag k="waterway" v="stream" />
	</node>
	<node lat="63.08074444781082" lon="7.783238893718974" id="-5718">
		<tag k="bridge" v="yes" />
		<tag k="layer" v="1" />
		<tag k="name" v="Sødalselvbrua" />
		<tag k="ssr:stedsnr" v="814962" />
	</node>
	<node lat="63.114875002561114" lon="7.7409777812510745" id="-5719">
		<tag k="name" v="Israelsneset" />
		<tag k="natural" v="cape" />
		<tag k="ssr:stedsnr" v="830491" />
	</node>
	<node lat="63.10176321226608" lon="7.745683860864574" id="-5721">
		<tag k="name" v="Sjursvikgrunnen" />
		<tag k="natural" v="shoal" />
		<tag k="place" v="locality" />
		<tag k="ssr:stedsnr" v="830458" />
	</node>
	<node lat="63.10239999938439" lon="7.715213892651375" id="-5722">
		<tag k="fixme" v="consider seamark:type=rock or natural=shoal" />
		<tag k="name" v="Potettjuven" />
		<tag k="place" v="islet" />
		<tag k="ssr:stedsnr" v="832828" />
	</node>
	<node lat="63.03425277887688" lon="7.822791664570356" id="-5723">
		<tag k="name" v="Sørstranda" />
		<tag k="place" v="farm" />
		<tag k="ssr:stedsnr" v="833093" />
	</node>
	<node lat="63.05446944839476" lon="7.782419434718182" id="-5724">
		<tag k="name" v="Skarhaugen" />
		<tag k="natural" v="hill" />
		<tag k="place" v="locality" />
		<tag k="ssr:stedsnr" v="832272" />
	</node>
	<node lat="63.06013888984534" lon="7.797094453622184" id="-5725">
		<tag k="name" v="Kistå" />
		<tag k="natural" v="hill" />
		<tag k="place" v="locality" />
		<tag k="ssr:stedsnr" v="832275" />
	</node>
	<node lat="63.07837499920342" lon="7.712108324446139" id="-5726">
		<tag k="name" v="Lundenes" />
		<tag k="place" v="farm" />
		<tag k="ssr:stedsnr" v="832842" />
	</node>
	<node lat="63.07580277498085" lon="7.710991673985079" id="-5727">
		<tag k="name" v="Vikaneset" />
		<tag k="natural" v="cape" />
		<tag k="ssr:stedsnr" v="832845" />
	</node>
	<node lat="63.04923055719936" lon="7.724586115184665" id="-5728">
		<tag k="name" v="Blomvika" />
		<tag k="place" v="farm" />
		<tag k="ssr:stedsnr" v="832851" />
	</node>
	<node lat="63.05683333548949" lon="7.704738884085719" id="-5729">
		<tag k="name" v="Straumsundet" />
		<tag k="natural" v="strait" />
		<tag k="ssr:stedsnr" v="832862" />
	</node>
	<node lat="63.02589444276212" lon="7.745680553389145" id="-5730">
		<tag k="name" v="Lunvik" />
		<tag k="natural" v="bay" />
		<tag k="ssr:stedsnr" v="832871" />
	</node>
	<node lat="63.036905555975025" lon="7.719630546489635" id="-5731">
		<tag k="name" v="Øver Rå" />
		<tag k="place" v="farm" />
		<tag k="ssr:stedsnr" v="832873" />
	</node>
	<node lat="63.03398889162084" lon="7.806516673488077" id="-5732">
		<tag k="name" v="Freielva" />
		<tag k="ssr:stedsnr" v="833069" />
		<tag k="waterway" v="stream" />
	</node>
	<node lat="63.11986666490354" lon="7.870508329430713" id="-5733">
		<tag k="name" v="Haltvika" />
		<tag k="natural" v="bay" />
		<tag k="ssr:stedsnr" v="833546" />
	</node>
	<node lat="63.10716666694872" lon="7.769161105784637" id="-5734">
		<tag k="name" v="Åsgårdsvika" />
		<tag k="natural" v="bay" />
		<tag k="ssr:stedsnr" v="833552" />
	</node>
	<node lat="63.11588611468075" lon="7.802619444445625" id="-5735">
		<tag k="name" v="Daudmannsdalen" />
		<tag k="natural" v="valley" />
		<tag k="place" v="locality" />
		<tag k="ssr:stedsnr" v="833554" />
	</node>
	<node lat="63.108799995732745" lon="7.789986112617348" id="-5736">
		<tag k="alt_name" v="Romerike" />
		<tag k="name" v="Romarriket" />
		<tag k="place" v="locality" />
		<tag k="ssr:stedsnr" v="833568" />
	</node>
	<node lat="63.13484444215702" lon="7.826641656895915" id="-5737">
		<tag k="loc_name" v="Melkvika" />
		<tag k="name" v="Mjølkvika" />
		<tag k="natural" v="bay" />
		<tag k="ssr:stedsnr" v="833749" />
	</node>
	<node lat="63.13253055861075" lon="7.841847216956127" id="-5738">
		<tag k="name" v="Stavbrekka" />
		<tag k="natural" v="hill" />
		<tag k="place" v="locality" />
		<tag k="ssr:stedsnr" v="833751" />
	</node>
	<node lat="63.129461110957784" lon="7.804683324906632" id="-5739">
		<tag k="alt_name" v="Ovnan" />
		<tag k="name" v="Omnan" />
		<tag k="natural" v="valley" />
		<tag k="place" v="locality" />
		<tag k="ssr:stedsnr" v="833775" />
	</node>
	<node lat="63.12804444497464" lon="7.8029888853862595" id="-5740">
		<tag k="name" v="Lomtjønna" />
		<tag k="natural" v="water" />
		<tag k="ssr:stedsnr" v="833777" />
	</node>
	<node lat="63.10317499820062" lon="7.834969443849682" id="-5742">
		<tag k="name" v="Bukkeneset" />
		<tag k="natural" v="cape" />
		<tag k="ssr:stedsnr" v="845222" />
	</node>
	<node lat="63.09161666889931" lon="7.788094450585279" id="-5744">
		<tag k="name" v="Våghammaren" />
		<tag k="natural" v="hill" />
		<tag k="place" v="locality" />
		<tag k="ssr:stedsnr" v="845346" />
	</node>
	<node lat="63.09225278137437" lon="7.781769445929149" id="-5745">
		<tag k="name" v="Smalsundet" />
		<tag k="natural" v="strait" />
		<tag k="ssr:stedsnr" v="845347" />
	</node>
	<node lat="63.03897545400146" lon="7.832094576048101" id="-5746">
		<tag k="alt_name" v="Or, søre;Or" />
		<tag k="name" v="Søre Or" />
		<tag k="place" v="farm" />
		<tag k="ssr:stedsnr" v="862155" />
	</node>
	<node lat="63.03773888544605" lon="7.728625004891472" id="-5747">
		<tag k="name" v="Trollhaugen" />
		<tag k="natural" v="hill" />
		<tag k="place" v="locality" />
		<tag k="ssr:stedsnr" v="862157" />
	</node>
	<node lat="63.030911109851054" lon="7.7522499917361385" id="-5748">
		<tag k="name" v="Dalen og Ura" />
		<tag k="place" v="farm" />
		<tag k="ssr:stedsnr" v="862158" />
	</node>
	<node lat="63.041433329178254" lon="7.799174997995714" id="-5749">
		<tag k="name" v="Freivatnet" />
		<tag k="place" v="locality" />
		<tag k="ssr:stedsnr" v="862173" />
	</node>
	<node lat="63.05605000356385" lon="7.727669451520146" id="-5750">
		<tag k="name" v="Yttervika" />
		<tag k="place" v="farm" />
		<tag k="ssr:stedsnr" v="862196" />
	</node>
	<node lat="63.08934166325054" lon="7.883055552210748" id="-5751">
		<tag k="name" v="Bjerkås" />
		<tag k="place" v="farm" />
		<tag k="ssr:stedsnr" v="862334" />
	</node>
	<node lat="63.28873888823858" lon="7.277286107254855" id="-5752">
		<tag k="name" v="Nordklakken" />
		<tag k="natural" v="shoal" />
		<tag k="place" v="locality" />
		<tag k="ssr:stedsnr" v="862593" />
	</node>
	<node lat="63.16566111135266" lon="7.570991669665993" id="-5753">
		<tag k="fixme" v="consider seamark:type=rock or natural=shoal" />
		<tag k="name" v="Rundskjelingen" />
		<tag k="place" v="islet" />
		<tag k="ssr:stedsnr" v="862644" />
	</node>
	<node lat="63.25487221852837" lon="7.640625008231498" id="-5754">
		<tag k="name" v="Jørngrunna" />
		<tag k="natural" v="shoal" />
		<tag k="place" v="locality" />
		<tag k="ssr:stedsnr" v="946254" />
	</node>
	<node lat="63.105886112361894" lon="7.754544448626091" id="-5755">
		<tag k="name" v="Remningneset" />
		<tag k="natural" v="cape" />
		<tag k="ssr:stedsnr" v="951474" />
	</node>
	<node lat="63.08614166342675" lon="7.772041668448577" id="-5756">
		<tag k="alt_name" v="Søre Bolgvågen" />
		<tag k="name" v="Sør Bolgvågen" />
		<tag k="natural" v="bay" />
		<tag k="ssr:stedsnr" v="953171" />
	</node>
	<node lat="63.09123333440018" lon="7.779536120873321" id="-5757">
		<tag k="name" v="Middelneset" />
		<tag k="natural" v="cape" />
		<tag k="ssr:stedsnr" v="953176" />
	</node>
	<node lat="63.08856388555001" lon="7.810275003908215" id="-5758">
		<tag k="name" v="Skogvang" />
		<tag k="place" v="farm" />
		<tag k="ssr:stedsnr" v="953178" />
	</node>
	<node lat="63.05020000154949" lon="7.77442221749396" id="-5759">
		<tag k="name" v="Seterlia" />
		<tag k="natural" v="slope" />
		<tag k="place" v="locality" />
		<tag k="ssr:stedsnr" v="953258" />
	</node>
	<node lat="63.064741665130114" lon="7.690805552804946" id="-5760">
		<tag k="fixme" v="consider seamark:type=rock or natural=shoal" />
		<tag k="name" v="Potettjuven" />
		<tag k="place" v="islet" />
		<tag k="ssr:stedsnr" v="953847" />
	</node>
	<node lat="63.04491944463833" lon="7.727391662982132" id="-5761">
		<tag k="name" v="Hjellhaugen" />
		<tag k="natural" v="hill" />
		<tag k="place" v="locality" />
		<tag k="ssr:stedsnr" v="953852" />
	</node>
	<node lat="63.03447778143566" lon="7.7049666717886005" id="-5762">
		<tag k="name" v="Keipen" />
		<tag k="place" v="islet" />
		<tag k="ssr:stedsnr" v="953871" />
	</node>
	<node lat="63.087124996558614" lon="7.846091669291694" id="-5763">
		<tag k="name" v="Draboelva" />
		<tag k="ssr:stedsnr" v="954152" />
		<tag k="waterway" v="stream" />
	</node>
	<node lat="63.102038886004294" lon="7.714827780538211" id="-5764">
		<tag k="name" v="Skjertangen" />
		<tag k="natural" v="cape" />
		<tag k="ssr:stedsnr" v="953838" />
	</node>
	<node lat="63.08421666859817" lon="7.783483334563863" id="-5765">
		<tag k="name" v="Sødalselva" />
		<tag k="ssr:stedsnr" v="954018" />
		<tag k="waterway" v="stream" />
	</node>
	<node lat="63.0730916665351" lon="7.879216664099578" id="-5766">
		<tag k="name" v="Bogabekken" />
		<tag k="ssr:stedsnr" v="954032" />
		<tag k="waterway" v="stream" />
	</node>
	<node lat="63.02356666589522" lon="7.813736113913192" id="-5767">
		<tag k="name" v="Freineset" />
		<tag k="natural" v="cape" />
		<tag k="ssr:stedsnr" v="954133" />
	</node>
	<node lat="63.116513887163045" lon="7.696538895526617" id="-5768">
		<tag k="name" v="Storhaugen" />
		<tag k="natural" v="hill" />
		<tag k="place" v="locality" />
		<tag k="ssr:stedsnr" v="954322" />
	</node>
	<node lat="63.11638611475448" lon="7.858961102779741" id="-5769">
		<tag k="name" v="Haltvikmyran" />
		<tag k="natural" v="wetland" />
		<tag k="ssr:stedsnr" v="954521" />
	</node>
	<node lat="63.11131389034709" lon="7.763366660868736" id="-5770">
		<tag k="name" v="Kråkhaugen" />
		<tag k="natural" v="hill" />
		<tag k="place" v="locality" />
		<tag k="ssr:stedsnr" v="954528" />
	</node>
	<node lat="63.11531944885173" lon="7.791672227257943" id="-5771">
		<tag k="highway" v="path" />
		<tag k="name" v="Lykkjemyrstigen" />
		<tag k="ssr:stedsnr" v="954533" />
	</node>
	<node lat="63.10800833259712" lon="7.7565055512040155" id="-5772">
		<tag k="amenity" v="school" />
		<tag k="name" v="Norlandet barneskole" />
		<tag k="ssr:stedsnr" v="954534" />
	</node>
	<node lat="63.12623888945767" lon="7.758169440054004" id="-5773">
		<tag k="name" v="Krabbholmen" />
		<tag k="place" v="islet" />
		<tag k="ssr:stedsnr" v="954766" />
	</node>
	<node lat="63.21161389295788" lon="7.545155547388071" id="-5774">
		<tag k="name" v="Manndraperen" />
		<tag k="natural" v="shoal" />
		<tag k="place" v="locality" />
		<tag k="ssr:stedsnr" v="959337" />
	</node>
	<node lat="63.04211389012914" lon="7.705886105243297" id="-5775">
		<tag k="name" v="Trøa" />
		<tag k="place" v="farm" />
		<tag k="ssr:stedsnr" v="959346" />
	</node>
	<node lat="63.23679166891502" lon="7.594236107021052" id="-5776">
		<tag k="name" v="Hårskollklakken" />
		<tag k="natural" v="shoal" />
		<tag k="place" v="locality" />
		<tag k="ssr:stedsnr" v="959365" />
	</node>
	<node lat="63.19098055707151" lon="7.6174861203246" id="-5777">
		<tag k="name" v="Brørne" />
		<tag k="natural" v="shoal" />
		<tag k="place" v="locality" />
		<tag k="ssr:stedsnr" v="959441" />
	</node>
	<node lat="63.08558611289976" lon="7.777850006277801" id="-5778">
		<tag k="name" v="Lyngstadneset" />
		<tag k="natural" v="cape" />
		<tag k="ssr:stedsnr" v="966365" />
	</node>
	<node lat="63.13051944851453" lon="7.720563897770666" id="-5779">
		<tag k="fixme" v="consider seamark:type=rock or natural=shoal" />
		<tag k="name" v="Storsteinan" />
		<tag k="place" v="islet" />
		<tag k="ssr:stedsnr" v="966850" />
	</node>
	<node lat="63.04481666873673" lon="7.718136105652061" id="-5780">
		<tag k="name" v="Buvikhøgda" />
		<tag k="place" v="quarter" />
		<tag k="ssr:stedsnr" v="969629" />
	</node>
	<node lat="63.02809942576668" lon="7.764208287698597" id="-5781">
		<tag k="fixme" v="consider place=hamlet" />
		<tag k="name" v="Flatset" />
		<tag k="place" v="farm" />
		<tag k="ssr:stedsnr" v="980566" />
	</node>
	<node lat="63.02497096538836" lon="7.801194029222001" id="-5783">
		<tag k="name" v="Frei" />
		<tag k="place" v="hamlet" />
		<tag k="ssr:stedsnr" v="980568" />
	</node>
	<node lat="63.080970383916664" lon="7.710810449025404" id="-5785">
		<tag k="name" v="Valholmen" />
		<tag k="place" v="locality" />
		<tag k="ssr:stedsnr" v="980572" />
	</node>
	<node lat="63.094662652547704" lon="7.767744547967691" id="-5787">
		<tag k="name" v="Fugløya" />
		<tag k="place" v="locality" />
		<tag k="ssr:stedsnr" v="980574" />
	</node>
	<node lat="63.21949019177219" lon="7.592963667843372" id="-5788">
		<tag k="name" v="Grip" />
		<tag k="place" v="locality" />
		<tag k="ssr:stedsnr" v="980576" />
	</node>
	<node lat="63.036138649298564" lon="7.7013082582287335" id="-6295">
		<tag k="name" v="Sildvågnes" />
		<tag k="place" v="farm" />
		<tag k="ssr:stedsnr" v="1072061" />
	</node>
	<node lat="63.113982954086346" lon="7.734767987220731" id="-6297">
		<tag k="man_made" v="quay" />
		<tag k="name" v="Kristiansund hurtigbåtterminal" />
		<tag k="place" v="locality" />
		<tag k="ssr:stedsnr" v="1072432" />
	</node>
	<node lat="63.029412666864204" lon="7.749848811200898" id="-6302">
		<tag k="name" v="Solhøi" />
		<tag k="place" v="farm" />
		<tag k="ssr:stedsnr" v="1076385" />
	</node>
	<node lat="63.18922848374724" lon="7.621381246984733" id="-6304">
		<tag k="name" v="Vårsmolleia" />
		<tag k="place" v="locality" />
		<tag k="ssr:stedsnr" v="1077837" />
	</node>
	<node lat="63.1150527471478" lon="7.736574584545074" id="-6305">
		<tag k="man_made" v="quay" />
		<tag k="name" v="Devoldholmen" />
		<tag k="place" v="locality" />
		<tag k="ssr:stedsnr" v="1077933" />
	</node>
	<node lat="63.11641906480878" lon="7.733913563531912" id="-6306">
		<tag k="man_made" v="quay" />
		<tag k="name" v="Hollenderkaia" />
		<tag k="place" v="locality" />
		<tag k="ssr:stedsnr" v="1077952" />
	</node>
	<node lat="63.11693335401856" lon="7.733758983877725" id="-6307">
		<tag k="man_made" v="quay" />
		<tag k="name" v="Kullkrana" />
		<tag k="place" v="locality" />
		<tag k="ssr:stedsnr" v="1077953" />
	</node>
	<node lat="63.21976204313982" lon="7.591098912472604" id="-6308">
		<tag k="name" v="Yttervågen" />
		<tag k="natural" v="bay" />
		<tag k="ssr:stedsnr" v="1078023" />
	</node>
	<node lat="63.21812568480718" lon="7.59397303612596" id="-6309">
		<tag k="name" v="Innervågen" />
		<tag k="natural" v="bay" />
		<tag k="ssr:stedsnr" v="1078024" />
	</node>
	<node lat="63.051022960586" lon="7.722851751065992" id="-6310">
		<tag k="name" v="Kleivmyrbukta" />
		<tag k="natural" v="bay" />
		<tag k="ssr:stedsnr" v="1078532" />
	</node>
	<node lat="63.02534464933442" lon="7.75141880151024" id="-6311">
		<tag k="name" v="Flatsetvågen" />
		<tag k="natural" v="bay" />
		<tag k="ssr:stedsnr" v="1078539" />
	</node>
	<node lat="63.15415171471744" lon="7.703705710233569" id="-6312">
		<tag k="name" v="Kristiansundsleia" />
		<tag k="place" v="locality" />
		<tag k="ssr:stedsnr" v="1078642" />
	</node>
	<node lat="63.12546181565149" lon="7.762169551849216" id="-6314">
		<tag k="name" v="Valen" />
		<tag k="natural" v="strait" />
		<tag k="ssr:stedsnr" v="1081545" />
	</node>
	<node lat="63.113859857353866" lon="7.73435213515791" id="-6315">
		<tag k="man_made" v="monitoring_station" />
		<tag k="monitoring:water_Level" v="yes" />
		<tag k="name" v="Kristiansund vannstandsmåler" />
		<tag k="ssr:stedsnr" v="1082317" />
	</node>
	<node lat="63.2197285750769" lon="7.59391399287723" id="-6317">
		<tag k="amenity" v="place_of_worship" />
		<tag k="denomination" v="lutheran" />
		<tag k="name" v="Grip stavkirke" />
		<tag k="religion" v="christian" />
		<tag k="ssr:stedsnr" v="1083278" />
	</node>
</osm>
