<?xml version="1.0" encoding="UTF-8"?>
<osm version="0.6" generator="osmapis">
	<node lat="63.05312222141463" lon="7.848347224182545" id="-4602">
		<tag k="name" v="Søkkjemyra" />
		<tag k="natural" v="wetland" />
		<tag k="ssr:stedsnr" v="225245" />
	</node>
	<node lat="63.116486106925784" lon="7.824344445751054" id="-4612">
		<tag k="name" v="Kvennbergmyran" />
		<tag k="natural" v="wetland" />
		<tag k="ssr:stedsnr" v="44504" />
	</node>
	<node lat="63.07990833392309" lon="7.736672228058863" id="-4667">
		<tag k="name" v="Valmyran" />
		<tag k="natural" v="wetland" />
		<tag k="ssr:stedsnr" v="164842" />
	</node>
	<node lat="63.02761111156829" lon="7.744694442852104" id="-4670">
		<tag k="name" v="Hagen" />
		<tag k="place" v="locality" />
		<tag k="ssr:stedsnr" v="164878" />
	</node>
	<node lat="63.033080555886926" lon="7.793177783498577" id="-4671">
		<tag k="name" v="Grønmyra" />
		<tag k="natural" v="wetland" />
		<tag k="ssr:stedsnr" v="165067" />
	</node>
	<node lat="63.05851666602025" lon="7.807963894760915" id="-4696">
		<tag k="name" v="Ivarplassdammen" />
		<tag k="natural" v="wetland" />
		<tag k="ssr:stedsnr" v="225267" />
	</node>
	<node lat="63.12592778168325" lon="7.840847224510566" id="-4703">
		<tag k="name" v="Hjellmyra" />
		<tag k="natural" v="wetland" />
		<tag k="ssr:stedsnr" v="226558" />
	</node>
	<node lat="63.032525000200316" lon="7.806327783767973" id="-4724">
		<tag k="name" v="Langmyra" />
		<tag k="natural" v="wetland" />
		<tag k="ssr:stedsnr" v="286072" />
	</node>
	<node lat="63.10261110910841" lon="7.86780554845358" id="-4726">
		<tag k="name" v="Havmyra" />
		<tag k="natural" v="wetland" />
		<tag k="ssr:stedsnr" v="286146" />
	</node>
	<node lat="63.11348888783673" lon="7.866205548625659" id="-4738">
		<tag k="name" v="Myran" />
		<tag k="natural" v="wetland" />
		<tag k="ssr:stedsnr" v="287553" />
	</node>
	<node lat="63.05135555426522" lon="7.788083323713864" id="-4748">
		<tag k="name" v="Prestmyra" />
		<tag k="natural" v="wetland" />
		<tag k="ssr:stedsnr" v="316166" />
	</node>
	<node lat="63.038241666675255" lon="7.722961104824644" id="-4758">
		<tag k="name" v="Råmyra" />
		<tag k="natural" v="wetland" />
		<tag k="ssr:stedsnr" v="346875" />
	</node>
	<node lat="63.12546944887905" lon="7.760563890789208" id="-4786">
		<tag k="name" v="Steinan" />
		<tag k="natural" v="stone" />
		<tag k="ssr:stedsnr" v="468492" />
	</node>
	<node lat="63.12909444136437" lon="7.822472225233288" id="-4787">
		<tag k="name" v="Myran" />
		<tag k="natural" v="wetland" />
		<tag k="ssr:stedsnr" v="468736" />
	</node>
	<node lat="63.09367221783046" lon="7.798177771226434" id="-4803">
		<tag k="name" v="Nygardsmyra" />
		<tag k="natural" v="wetland" />
		<tag k="ssr:stedsnr" v="407209" />
	</node>
	<node lat="63.10743055749099" lon="7.835313883690317" id="-4858">
		<tag k="name" v="Hegerura" />
		<tag k="natural" v="scree" />
		<tag k="ssr:stedsnr" v="529504" />
	</node>
	<node lat="63.11099999784855" lon="7.860424994367381" id="-4859">
		<tag k="name" v="Toppmyra" />
		<tag k="natural" v="wetland" />
		<tag k="ssr:stedsnr" v="529508" />
	</node>
	<node lat="63.12460555669471" lon="7.847472219300146" id="-4860">
		<tag k="name" v="Langmyra" />
		<tag k="natural" v="wetland" />
		<tag k="ssr:stedsnr" v="529509" />
	</node>
	<node lat="63.03805833327338" lon="7.745452776694504" id="-4893">
		<tag k="name" v="Vassmyra" />
		<tag k="natural" v="wetland" />
		<tag k="ssr:stedsnr" v="589905" />
	</node>
	<node lat="63.04209166471086" lon="7.738583331894372" id="-4947">
		<tag k="name" v="Svindalsura" />
		<tag k="natural" v="scree" />
		<tag k="ssr:stedsnr" v="710841" />
	</node>
	<node lat="63.07424444349641" lon="7.868113892057371" id="-5143">
		<tag k="name" v="Bogamyra" />
		<tag k="natural" v="wetland" />
		<tag k="ssr:stedsnr" v="12338" />
	</node>
	<node lat="63.12754166763403" lon="7.843236120239612" id="-5164">
		<tag k="name" v="Hjellmyra" />
		<tag k="natural" v="wetland" />
		<tag k="ssr:stedsnr" v="43758" />
	</node>
	<node lat="63.122500002469145" lon="7.85488610533012" id="-5170">
		<tag k="name" v="Sandvikmyra" />
		<tag k="natural" v="wetland" />
		<tag k="ssr:stedsnr" v="44532" />
	</node>
	<node lat="63.12800555790787" lon="7.77876666446409" id="-5175">
		<tag k="name" v="Stormyra" />
		<tag k="natural" v="wetland" />
		<tag k="ssr:stedsnr" v="44742" />
	</node>
	<node lat="63.05174756786607" lon="7.798419716545536" id="-5198">
		<tag k="historic" v="shieling" />
		<tag k="loc_name" v="Nerfreisetra" />
		<tag k="name" v="Prestsetra" />
		<tag k="place" v="locality" />
		<tag k="ssr:stedsnr" v="104251" />
	</node>
	<node lat="63.10794166590863" lon="7.841938895630242" id="-5208">
		<tag k="name" v="Kalvtrøa" />
		<tag k="place" v="locality" />
		<tag k="ssr:stedsnr" v="105531" />
	</node>
	<node lat="63.04716666260502" lon="7.808150006428338" id="-5238">
		<tag k="name" v="Orsetra" />
		<tag k="place" v="locality" />
		<tag k="ssr:stedsnr" v="165011" />
	</node>
	<node lat="63.03286666570313" lon="7.729597213718082" id="-5352">
		<tag k="name" v="Ura" />
		<tag k="natural" v="scree" />
		<tag k="ssr:stedsnr" v="414393" />
	</node>
	<node lat="63.10893055802768" lon="7.84425834195341" id="-5385">
		<tag k="name" v="Margretsteinen" />
		<tag k="natural" v="stone" />
		<tag k="ssr:stedsnr" v="529706" />
	</node>
	<node lat="63.110586106889606" lon="7.782269437248185" id="-5392">
		<tag k="landuse" v="meadow" />
		<tag k="name" v="Løkkemyra" />
		<tag k="ssr:stedsnr" v="541256" />
	</node>
	<node lat="63.085777775215206" lon="7.825275000954601" id="-5414">
		<tag k="name" v="Veltersteinmyra" />
		<tag k="natural" v="wetland" />
		<tag k="ssr:stedsnr" v="589176" />
	</node>
	<node lat="63.05799999632353" lon="7.835777786765875" id="-5418">
		<tag k="name" v="Halsmyra" />
		<tag k="natural" v="wetland" />
		<tag k="ssr:stedsnr" v="589245" />
	</node>
	<node lat="63.0789805534705" lon="7.8703666636641945" id="-5450">
		<tag k="name" v="Ørnvikmyra" />
		<tag k="natural" v="wetland" />
		<tag k="ssr:stedsnr" v="650028" />
	</node>
	<node lat="63.03098610735795" lon="7.7354833259325595" id="-5509">
		<tag k="historic" v="shieling" />
		<tag k="name" v="Vollen" />
		<tag k="place" v="locality" />
		<tag k="ssr:stedsnr" v="778887" />
	</node>
	<node lat="63.11638611475448" lon="7.858961102779741" id="-5594">
		<tag k="name" v="Haltvikmyran" />
		<tag k="natural" v="wetland" />
		<tag k="ssr:stedsnr" v="954521" />
	</node>
</osm>
