<?xml version="1.0" encoding="UTF-8"?>
<osm generator="osmapis" version="0.6">
	<node id="-555196" lat="63.0245719193" lon="7.803189941">
		<tag k="amenity" v="place_of_worship" />
		<tag k="denomination" v="lutheran" />
		<tag k="name" v="Frei" />
		<tag k="religion" v="christian" />
		<tag k="ssr:stedsnr" v="740214" />
	</node>
	<node id="-554548" lat="63.1169305568" lon="7.70677221248">
		<tag k="cemetery" v="grave" />
		<tag k="name" v="Kirkelandet gravsted" />
		<tag k="place" v="locality" />
		<tag k="ssr:stedsnr" v="347470" />
	</node>
	<node id="-555218" lat="63.082272225" lon="7.76739444906">
		<tag k="cemetery" v="grave" />
		<tag k="name" v="Bolga" />
		<tag k="place" v="locality" />
		<tag k="ssr:stedsnr" v="762168" />
	</node>
	<node id="-554542" lat="63.0989888885" lon="7.89111944743">
		<tag k="name" v="Gyltneset friluftsomrÃ¥de" />
		<tag k="place" v="locality" />
		<tag k="ssr:stedsnr" v="347358" />
	</node>
	<node id="-555142" lat="63.1091111093" lon="7.74778610529">
		<tag k="amenity" v="place_of_worship" />
		<tag k="denomination" v="lutheran" />
		<tag k="name" v="Nordlandet" />
		<tag k="religion" v="christian" />
		<tag k="ssr:stedsnr" v="679300" />
	</node>
	<node id="-554853" lat="63.1145583368" lon="7.72558888915">
		<tag k="amenity" v="place_of_worship" />
		<tag k="denomination" v="lutheran" />
		<tag k="name" v="Kirkelandet" />
		<tag k="religion" v="christian" />
		<tag k="ssr:stedsnr" v="223513" />
	</node>
</osm>
