<?xml version="1.0" encoding="UTF-8"?>
<<<<<<< HEAD
<osm version="0.6" generator="osmapis">
	<node lat="79.9616527724207" lon="27.065669528177025" id="-15028">
=======
<osm generator="osmapis" version="0.6">
	<node id="-213565" lat="79.9616527724" lon="27.0656695282">
>>>>>>> e1d4bc35ff8a6074a6f2e91616a996b547c36f15
		<tag k="name" v="Sørmarka" />
		<tag k="natural" v="slope" />
		<tag k="place" v="locality" />
		<tag k="ssr:stedsnr" v="58371" />
	</node>
<<<<<<< HEAD
	<node lat="80.11146387765409" lon="27.986744610992854" id="-15044">
=======
	<node id="-213591" lat="79.0103222244" lon="17.4907499844">
		<tag k="fixme" v="consider natural=peak for the most distinct mountains in the district" />
		<tag k="name" v="Newtontoppen" />
		<tag k="natural" v="hill" />
		<tag k="place" v="locality" />
		<tag k="ssr:stedsnr" v="781493" />
	</node>
	<node id="-213555" lat="80.0808388439" lon="31.4881285769">
		<tag k="name" v="Bekkeflya" />
		<tag k="place" v="locality" />
		<tag k="ssr:stedsnr" v="604393" />
	</node>
	<node id="-213550" lat="80.1114638777" lon="27.986744611">
>>>>>>> e1d4bc35ff8a6074a6f2e91616a996b547c36f15
		<tag k="name" v="Jøkulrabbane" />
		<tag k="natural" v="ridge" />
		<tag k="place" v="locality" />
		<tag k="ssr:stedsnr" v="483365" />
	</node>
<<<<<<< HEAD
	<node lat="80.04873054833385" lon="27.14631400724299" id="-15053">
=======
	<node id="-213549" lat="80.0487305483" lon="27.1463140072">
>>>>>>> e1d4bc35ff8a6074a6f2e91616a996b547c36f15
		<tag k="name" v="Nordmarka" />
		<tag k="natural" v="ridge" />
		<tag k="place" v="locality" />
		<tag k="ssr:stedsnr" v="665403" />
	</node>
<<<<<<< HEAD
	<node lat="80.12660277333673" lon="27.925639060792253" id="-15077">
=======
	<node id="-213559" lat="80.0635721728" lon="31.5488758441">
		<tag k="name" v="Vindrabbane" />
		<tag k="place" v="locality" />
		<tag k="ssr:stedsnr" v="726402" />
	</node>
	<node id="-213573" lat="80.1266027733" lon="27.9256390608">
>>>>>>> e1d4bc35ff8a6074a6f2e91616a996b547c36f15
		<tag k="name" v="Krungletjørnene" />
		<tag k="natural" v="ridge" />
		<tag k="place" v="locality" />
		<tag k="ssr:stedsnr" v="362360" />
	</node>
<<<<<<< HEAD
	<node lat="80.08083884387001" lon="31.4881285769169" id="-15088">
		<tag k="name" v="Bekkeflya" />
		<tag k="place" v="locality" />
		<tag k="ssr:stedsnr" v="604393" />
	</node>
	<node lat="80.0635721727928" lon="31.5488758440804" id="-15092">
		<tag k="name" v="Vindrabbane" />
		<tag k="place" v="locality" />
		<tag k="ssr:stedsnr" v="726402" />
	</node>
	<node lat="79.01032222442545" lon="17.490749984444264" id="-15094">
		<tag k="fixme" v="consider natural=peak for the most distinct mountains in the district" />
		<tag k="name" v="Newtontoppen" />
		<tag k="natural" v="hill" />
		<tag k="place" v="locality" />
		<tag k="ssr:stedsnr" v="781493" />
	</node>
=======
>>>>>>> e1d4bc35ff8a6074a6f2e91616a996b547c36f15
</osm>
