<?xml version="1.0" encoding="UTF-8"?>
<osm version="0.6" generator="osmapis">
	<node lat="78.92698055395509" lon="11.923588903218569" id="-12461">
		<tag k="building" v="yes" />
		<tag k="name" v="Ny-Ålesund" />
		<tag k="ssr:stedsnr" v="241712" />
	</node>
	<node lat="78.65348889063578" lon="16.33693610105058" id="-12470">
		<tag k="fixme" v="consider place=suburb, village or hamlet" />
		<tag k="name" v="Pyramiden" />
		<tag k="place" v="quarter" />
		<tag k="ssr:stedsnr" v="466943" />
	</node>
	<node lat="77.90029444173989" lon="16.720063886624004" id="-12481">
		<tag k="fixme" v="consider place=suburb, village or hamlet" />
		<tag k="name" v="Sveagruva" />
		<tag k="place" v="quarter" />
		<tag k="ssr:stedsnr" v="647943" />
	</node>
	<node lat="78.06510277446543" lon="14.209727782893658" id="-12493">
		<tag k="name" v="Barentsburg" />
		<tag k="place" v="town" />
		<tag k="ssr:stedsnr" v="830997" />
	</node>
	<node lat="78.92588611366321" lon="11.931402766226636" id="-12516">
		<tag k="fixme" v="consider place=suburb, village or hamlet" />
		<tag k="name" v="Ny-Ålesund" />
		<tag k="place" v="quarter" />
		<tag k="ssr:stedsnr" v="587933" />
	</node>
	<node lat="78.22314166323808" lon="15.646855538584004" id="-12527">
		<tag k="name" v="Longyearbyen" />
		<tag k="place" v="town" />
		<tag k="ssr:stedsnr" v="966478" />
	</node>
</osm>
