<?xml version="1.0" encoding="UTF-8"?>
<osm version="0.6" generator="osmapis">
	<node lat="78.4103472227006" lon="11.72827221717604" id="-11044">
		<tag k="name" v="Prins Karls Forland" />
		<tag k="place" v="island" />
		<tag k="ssr:stedsnr" v="40978" />
	</node>
	<node lat="80.06344166062344" lon="27.219550106396884" id="-11047">
		<tag k="name" v="Kapp Laura" />
		<tag k="natural" v="cape" />
		<tag k="ssr:stedsnr" v="58376" />
	</node>
	<node lat="79.79407499849395" lon="27.150683431260525" id="-11049">
		<tag k="name" v="Einstøingen" />
		<tag k="place" v="island" />
		<tag k="ssr:stedsnr" v="176304" />
	</node>
	<node lat="79.92944721397522" lon="27.243219536044982" id="-11050">
		<tag k="name" v="Frostøyane" />
		<tag k="place" v="islet" />
		<tag k="ssr:stedsnr" v="180356" />
	</node>
	<node lat="79.7007055534711" lon="26.678466749049626" id="-11051">
		<tag k="name" v="Isispynten" />
		<tag k="natural" v="cape" />
		<tag k="ssr:stedsnr" v="237333" />
	</node>
	<node lat="79.92261666317489" lon="27.5833418170177" id="-11052">
		<tag k="name" v="Håkjerringa" />
		<tag k="place" v="island" />
		<tag k="ssr:stedsnr" v="240377" />
	</node>
	<node lat="80.1410554442608" lon="33.38103225420043" id="-11053">
		<tag k="name" v="Hornodden" />
		<tag k="natural" v="cape" />
		<tag k="ssr:stedsnr" v="285902" />
	</node>
	<node lat="76.96804444604892" lon="15.598969425968903" id="-11055">
		<tag k="name" v="Hornsund" />
		<tag k="natural" v="strait" />
		<tag k="ssr:stedsnr" v="465996" />
	</node>
	<node lat="76.54957499394409" lon="25.107355562534778" id="-11056">
		<tag k="name" v="Hopen" />
		<tag k="place" v="island" />
		<tag k="ssr:stedsnr" v="465999" />
	</node>
	<node lat="79.70219166651358" lon="26.66243896958748" id="-11058">
		<tag k="name" v="Isispollen" />
		<tag k="natural" v="bay" />
		<tag k="ssr:stedsnr" v="358317" />
	</node>
	<node lat="79.70086110764431" lon="26.653777882726686" id="-11059">
		<tag k="name" v="Isisøyane" />
		<tag k="natural" v="cape" />
		<tag k="ssr:stedsnr" v="419331" />
	</node>
	<node lat="78.4249694437716" lon="13.518691681734031" id="-11060">
		<tag k="name" v="Oscar II Land" />
		<tag k="place" v="island" />
		<tag k="ssr:stedsnr" v="465978" />
	</node>
	<node lat="77.63751666247323" lon="14.425805550786354" id="-11061">
		<tag k="name" v="Bellsund" />
		<tag k="natural" v="strait" />
		<tag k="ssr:stedsnr" v="465995" />
	</node>
	<node lat="80.15433332789796" lon="26.793675091028533" id="-11064">
		<tag k="name" v="Kapp Leigh Smith" />
		<tag k="natural" v="cape" />
		<tag k="ssr:stedsnr" v="483373" />
	</node>
	<node lat="79.6913249905361" lon="26.63936953908707" id="-11065">
		<tag k="fixme" v="consider seamark:type=rock or natural=shoal" />
		<tag k="name" v="Isflua" />
		<tag k="place" v="islet" />
		<tag k="ssr:stedsnr" v="540327" />
	</node>
	<node lat="79.70758055216452" lon="26.62460284481957" id="-11066">
		<tag k="name" v="Binnevågen" />
		<tag k="natural" v="bay" />
		<tag k="ssr:stedsnr" v="540329" />
	</node>
	<node lat="80.0239249431998" lon="31.628225866167107" id="-11067">
		<tag k="name" v="Lundquistskjera" />
		<tag k="place" v="islet" />
		<tag k="ssr:stedsnr" v="544375" />
	</node>
	<node lat="76.59433889313188" lon="16.312941670480264" id="-11069">
		<tag k="name" v="Sørkapp" />
		<tag k="natural" v="cape" />
		<tag k="ssr:stedsnr" v="647998" />
	</node>
	<node lat="78.2548666685159" lon="14.673338895770778" id="-11070">
		<tag k="bay" v="fjord" />
		<tag k="name" v="Isfjorden" />
		<tag k="natural" v="bay" />
		<tag k="ssr:stedsnr" v="708998" />
	</node>
	<node lat="80.09703054787227" lon="28.07574463928582" id="-11073">
		<tag k="name" v="Storøya" />
		<tag k="natural" v="beach" />
		<tag k="ssr:stedsnr" v="726404" />
	</node>
	<node lat="80.09156388039312" lon="27.529936266831815" id="-11075">
		<tag k="name" v="Storøysundet" />
		<tag k="natural" v="strait" />
		<tag k="ssr:stedsnr" v="726380" />
	</node>
	<node lat="80.06146939752118" lon="31.334020207385844" id="-11076">
		<tag k="name" v="Lancestabben" />
		<tag k="natural" v="shoal" />
		<tag k="place" v="locality" />
		<tag k="ssr:stedsnr" v="908417" />
	</node>
	<node lat="79.7756861081424" lon="26.981380633735174" id="-11077">
		<tag k="name" v="Hvalrosskjera" />
		<tag k="place" v="island" />
		<tag k="ssr:stedsnr" v="783308" />
	</node>
	<node lat="80.13716387946313" lon="28.03754740956979" id="-11078">
		<tag k="name" v="Polarstarodden" />
		<tag k="natural" v="cape" />
		<tag k="ssr:stedsnr" v="786348" />
	</node>
	<node lat="79.95147777419488" lon="27.314402887928125" id="-11079">
		<tag k="name" v="Rimsteinane" />
		<tag k="place" v="islet" />
		<tag k="ssr:stedsnr" v="786361" />
	</node>
	<node lat="78.06396667130201" lon="13.606813878580859" id="-11081">
		<tag k="name" v="Kapp Linne" />
		<tag k="natural" v="cape" />
		<tag k="ssr:stedsnr" v="830999" />
	</node>
	<node lat="79.9240638766353" lon="27.551411255483625" id="-11082">
		<tag k="name" v="Kaldøyane" />
		<tag k="place" v="islet" />
		<tag k="ssr:stedsnr" v="847372" />
	</node>
	<node lat="79.95789722123618" lon="27.301866771647916" id="-11083">
		<tag k="name" v="Snøholmen" />
		<tag k="place" v="islet" />
		<tag k="ssr:stedsnr" v="847373" />
	</node>
	<node lat="77.81025832936854" lon="25.07980559524668" id="-11084">
		<tag k="name" v="Ryke Yseøyane" />
		<tag k="place" v="island" />
		<tag k="ssr:stedsnr" v="891000" />
	</node>
	<node lat="77.75685000383194" lon="13.887986122499193" id="-11085">
		<tag k="name" v="Kapp Martin" />
		<tag k="natural" v="cape" />
		<tag k="ssr:stedsnr" v="951997" />
	</node>
	<node lat="77.77414444329801" lon="22.69725557119045" id="-11086">
		<tag k="name" v="Edgeøya" />
		<tag k="place" v="island" />
		<tag k="ssr:stedsnr" v="951999" />
	</node>
	<node lat="80.14292776769288" lon="27.981575166810252" id="-11088">
		<tag k="name" v="Norvargodden" />
		<tag k="natural" v="cape" />
		<tag k="ssr:stedsnr" v="119368" />
	</node>
	<node lat="77.30626944499996" lon="15.798113878366673" id="-11089">
		<tag k="name" v="Spitsbergen" />
		<tag k="place" v="island" />
		<tag k="ssr:stedsnr" v="162993" />
	</node>
	<node lat="76.99617777838988" lon="21.993583341773636" id="-11090">
		<tag k="name" v="Tusenøyane" />
		<tag k="place" v="island" />
		<tag k="ssr:stedsnr" v="162998" />
	</node>
	<node lat="77.88573055708869" lon="19.88436667864505" id="-11091">
		<tag k="name" v="Storfjorden" />
		<tag k="natural" v="bay" />
		<tag k="ssr:stedsnr" v="223984" />
	</node>
	<node lat="74.44981666621206" lon="19.062405556907287" id="-11092">
		<tag k="name" v="Bjørnøya" />
		<tag k="place" v="island" />
		<tag k="ssr:stedsnr" v="344379" />
	</node>
	<node lat="78.23018889017726" lon="21.529536095746916" id="-11093">
		<tag k="name" v="Freemansundet" />
		<tag k="natural" v="strait" />
		<tag k="ssr:stedsnr" v="344980" />
	</node>
	<node lat="77.28529166875653" lon="23.138469433879354" id="-11094">
		<tag k="name" v="Halvmåneøya" />
		<tag k="place" v="island" />
		<tag k="ssr:stedsnr" v="344999" />
	</node>
	<node lat="78.44953333376792" lon="21.378908322152025" id="-11096">
		<tag k="name" v="Barentsøya" />
		<tag k="place" v="island" />
		<tag k="ssr:stedsnr" v="406000" />
	</node>
	<node lat="80.04758332557319" lon="28.049675166735828" id="-11097">
		<tag k="name" v="Sørodden" />
		<tag k="natural" v="cape" />
		<tag k="ssr:stedsnr" v="423378" />
	</node>
	<node lat="80.12390832063107" lon="28.07177515729207" id="-11098">
		<tag k="name" v="Breivika" />
		<tag k="natural" v="bay" />
		<tag k="ssr:stedsnr" v="423382" />
	</node>
	<node lat="80.08057221761163" lon="26.975197308598695" id="-11099">
		<tag k="name" v="Van Dongenbukta" />
		<tag k="natural" v="bay" />
		<tag k="ssr:stedsnr" v="423385" />
	</node>
	<node lat="80.08267217498404" lon="31.412286885528076" id="-11100">
		<tag k="name" v="Andréeneset" />
		<tag k="natural" v="cape" />
		<tag k="ssr:stedsnr" v="423416" />
	</node>
	<node lat="80.07060550867836" lon="31.4952869169703" id="-11101">
		<tag k="name" v="Kvalrosstranda" />
		<tag k="natural" v="beach" />
		<tag k="ssr:stedsnr" v="544337" />
	</node>
	<node lat="77.60764444173455" lon="16.852669436404234" id="-11102">
		<tag k="name" v="Svalbard" />
		<tag k="place" v="island" />
		<tag k="ssr:stedsnr" v="586988" />
	</node>
	<node lat="79.86847777513296" lon="27.22158898738827" id="-11104">
		<tag k="name" v="Italiaodden" />
		<tag k="natural" v="cape" />
		<tag k="ssr:stedsnr" v="601289" />
	</node>
	<node lat="79.55790833113802" lon="25.728813938886372" id="-11105">
		<tag k="name" v="Hartogbukta" />
		<tag k="natural" v="bay" />
		<tag k="ssr:stedsnr" v="601295" />
	</node>
	<node lat="77.4682750018686" lon="20.884833335920753" id="-11107">
		<tag k="name" v="Kvalpynten" />
		<tag k="natural" v="cape" />
		<tag k="ssr:stedsnr" v="647975" />
	</node>
	<node lat="80.22924432970355" lon="33.516318458953535" id="-11108">
		<tag k="alt_name" v="Kræmerodden" />
		<tag k="name" v="Kræmerpynten" />
		<tag k="natural" v="cape" />
		<tag k="ssr:stedsnr" v="663424" />
	</node>
	<node lat="80.17310271277366" lon="32.28362053868183" id="-11109">
		<tag k="name" v="Kvitøya" />
		<tag k="place" v="island" />
		<tag k="ssr:stedsnr" v="726399" />
	</node>
	<node lat="77.79468610728763" lon="15.619777766497844" id="-11111">
		<tag k="bay" v="fjord" />
		<tag k="name" v="Van Mijenfjorden" />
		<tag k="natural" v="bay" />
		<tag k="ssr:stedsnr" v="769993" />
	</node>
	<node lat="80.08434443761512" lon="28.262583507045928" id="-11113">
		<tag k="name" v="Diorittodden" />
		<tag k="natural" v="cape" />
		<tag k="ssr:stedsnr" v="847367" />
	</node>
</osm>
