<?xml version="1.0" encoding="UTF-8"?>
<osm generator="osmapis" version="0.6">
	<node id="-44287" lat="60.4337055517" lon="10.8516166704">
		<tag k="name" v="Skjeggerudvegen" />
		<tag k="ssr:date" v="2016-05-10" />
		<tag k="ssr:gruppe" v="veg" />
		<tag k="ssr:hovedgruppe" v="infrastruktur" />
		<tag k="ssr:stedsnr" v="41174" />
		<tag k="ssr:type" v="vegstrekning" />
	</node>
	<node id="-45052" lat="60.3566638871" lon="10.9588833323">
		<tag k="name" v="Steinmyrvegen" />
		<tag k="ssr:date" v="2016-05-11" />
		<tag k="ssr:gruppe" v="veg" />
		<tag k="ssr:hovedgruppe" v="infrastruktur" />
		<tag k="ssr:stedsnr" v="709519" />
		<tag k="ssr:type" v="vegstrekning" />
	</node>
	<node id="-44778" lat="60.4010972187" lon="10.9520416679">
		<tag k="name" v="Middagskollvegen" />
		<tag k="ssr:date" v="2016-05-10" />
		<tag k="ssr:gruppe" v="veg" />
		<tag k="ssr:hovedgruppe" v="infrastruktur" />
		<tag k="ssr:stedsnr" v="527554" />
		<tag k="ssr:type" v="vegstrekning" />
	</node>
	<node id="-44024" lat="60.4267666684" lon="10.951963894">
		<tag k="name" v="Badstuengvegen" />
		<tag k="ssr:date" v="2016-05-10" />
		<tag k="ssr:gruppe" v="veg" />
		<tag k="ssr:hovedgruppe" v="infrastruktur" />
		<tag k="ssr:stedsnr" v="284198" />
		<tag k="ssr:type" v="vegstrekning" />
	</node>
	<node id="-44137" lat="60.4720027786" lon="10.831186103">
		<tag k="name" v="Fløytmyrvegen" />
		<tag k="ssr:date" v="2016-05-10" />
		<tag k="ssr:gruppe" v="veg" />
		<tag k="ssr:hovedgruppe" v="infrastruktur" />
		<tag k="ssr:stedsnr" v="358907" />
		<tag k="ssr:type" v="vegstrekning" />
	</node>
	<node id="-45044" lat="60.4373638917" lon="10.9696833247">
		<tag k="name" v="Bredelivegen" />
		<tag k="ssr:date" v="2016-05-11" />
		<tag k="ssr:gruppe" v="veg" />
		<tag k="ssr:hovedgruppe" v="infrastruktur" />
		<tag k="ssr:stedsnr" v="709160" />
		<tag k="ssr:type" v="vegstrekning" />
	</node>
	<node id="-44145" lat="60.4407972234" lon="10.7239944433">
		<tag k="alt_name" v="Tuvssetervegen" />
		<tag k="name" v="Tuvsetervegen" />
		<tag k="ssr:date" v="2016-05-10" />
		<tag k="ssr:gruppe" v="veg" />
		<tag k="ssr:hovedgruppe" v="infrastruktur" />
		<tag k="ssr:stedsnr" v="362458" />
		<tag k="ssr:type" v="vegstrekning" />
	</node>
	<node id="-45167" lat="60.4480166702" lon="10.704488897">
		<tag k="name" v="Kåvemyrvegen" />
		<tag k="ssr:date" v="2016-05-11" />
		<tag k="ssr:gruppe" v="veg" />
		<tag k="ssr:hovedgruppe" v="infrastruktur" />
		<tag k="ssr:stedsnr" v="787473" />
		<tag k="ssr:type" v="vegstrekning" />
	</node>
	<node id="-45165" lat="60.4523333321" lon="10.795622224">
		<tag k="name" v="Gamlevollvegen" />
		<tag k="ssr:date" v="2016-05-11" />
		<tag k="ssr:gruppe" v="veg" />
		<tag k="ssr:hovedgruppe" v="infrastruktur" />
		<tag k="ssr:stedsnr" v="787427" />
		<tag k="ssr:type" v="vegstrekning" />
	</node>
	<node id="-44139" lat="60.4477916633" lon="10.9426805549">
		<tag k="name" v="Fjellsjøvegen" />
		<tag k="ssr:date" v="2016-05-10" />
		<tag k="ssr:gruppe" v="veg" />
		<tag k="ssr:hovedgruppe" v="infrastruktur" />
		<tag k="ssr:stedsnr" v="360614" />
		<tag k="ssr:type" v="vegstrekning" />
	</node>
	<node id="-45290" lat="60.4754361075" lon="10.8420583374">
		<tag k="name" v="Finnvollvegen" />
		<tag k="ssr:date" v="2016-05-11" />
		<tag k="ssr:gruppe" v="veg" />
		<tag k="ssr:hovedgruppe" v="infrastruktur" />
		<tag k="ssr:stedsnr" v="907792" />
		<tag k="ssr:type" v="vegstrekning" />
	</node>
	<node id="-45033" lat="60.4903555517" lon="11.0663916683">
		<tag k="name" v="Skjellegardsvegen" />
		<tag k="ssr:date" v="2019-05-31" />
		<tag k="ssr:gruppe" v="veg" />
		<tag k="ssr:hovedgruppe" v="infrastruktur" />
		<tag k="ssr:stedsnr" v="707512" />
		<tag k="ssr:type" v="adressenavn" />
	</node>
	<node id="-44773" lat="60.4321499976" lon="10.8144972294">
		<tag k="name" v="Fuglåsvegen" />
		<tag k="ssr:date" v="2016-05-10" />
		<tag k="ssr:gruppe" v="veg" />
		<tag k="ssr:hovedgruppe" v="infrastruktur" />
		<tag k="ssr:stedsnr" v="527236" />
		<tag k="ssr:type" v="vegstrekning" />
	</node>
	<node id="-44895" lat="60.4452083345" lon="10.7007611097">
		<tag k="name" v="Bustevollvegen" />
		<tag k="ssr:date" v="2016-05-10" />
		<tag k="ssr:gruppe" v="veg" />
		<tag k="ssr:hovedgruppe" v="infrastruktur" />
		<tag k="ssr:stedsnr" v="605455" />
		<tag k="ssr:type" v="vegstrekning" />
	</node>
	<node id="-44893" lat="60.4413277751" lon="10.8407638945">
		<tag k="name" v="Kulpevegen" />
		<tag k="ssr:date" v="2016-05-10" />
		<tag k="ssr:gruppe" v="veg" />
		<tag k="ssr:hovedgruppe" v="infrastruktur" />
		<tag k="ssr:stedsnr" v="605419" />
		<tag k="ssr:type" v="vegstrekning" />
	</node>
	<node id="-45400" lat="60.5908609473" lon="9.63819281559">
		<tag k="fixme" v="multiple name tags, choose one and add the other to alt_name" />
		<tag k="name" v="Austlandet;Østlandet" />
		<tag k="ssr:date" v="2018-01-09" />
		<tag k="ssr:gruppe" v="administrativeIndelinger" />
		<tag k="ssr:hovedgruppe" v="offentligAdministrasjon" />
		<tag k="ssr:stedsnr" v="974775" />
		<tag k="ssr:type" v="annenAdministrativInndeling" />
	</node>
	<node id="-44630" lat="60.4682666628" lon="10.9631861138">
		<tag k="name" v="Rundtjernvegen" />
		<tag k="ssr:date" v="2016-05-10" />
		<tag k="ssr:gruppe" v="veg" />
		<tag k="ssr:hovedgruppe" v="infrastruktur" />
		<tag k="ssr:stedsnr" v="422867" />
		<tag k="ssr:type" v="vegstrekning" />
	</node>
	<node id="-44371" lat="60.3663249998" lon="10.9658638821">
		<tag k="name" v="Heggetjernsvegen" />
		<tag k="ssr:date" v="2016-05-10" />
		<tag k="ssr:gruppe" v="veg" />
		<tag k="ssr:hovedgruppe" v="infrastruktur" />
		<tag k="ssr:stedsnr" v="103554" />
		<tag k="ssr:type" v="vegstrekning" />
	</node>
	<node id="-44216" lat="60.4058166686" lon="11.104461114">
		<tag k="name" v="Tyrrisvegen" />
		<tag k="ssr:date" v="2016-05-10" />
		<tag k="ssr:gruppe" v="veg" />
		<tag k="ssr:hovedgruppe" v="infrastruktur" />
		<tag k="ssr:stedsnr" v="406781" />
		<tag k="ssr:type" v="vegstrekning" />
	</node>
	<node id="-45144" lat="60.4116666659" lon="10.9392916699">
		<tag k="name" v="Breimyrvegen" />
		<tag k="ssr:date" v="2016-05-11" />
		<tag k="ssr:gruppe" v="veg" />
		<tag k="ssr:hovedgruppe" v="infrastruktur" />
		<tag k="ssr:stedsnr" v="770829" />
		<tag k="ssr:type" v="vegstrekning" />
	</node>
	<node id="-44620" lat="60.4433111136" lon="11.1178472224">
		<tag k="name" v="Aklangvegen" />
		<tag k="ssr:date" v="2016-05-10" />
		<tag k="ssr:gruppe" v="veg" />
		<tag k="ssr:hovedgruppe" v="infrastruktur" />
		<tag k="ssr:stedsnr" v="419876" />
		<tag k="ssr:type" v="vegstrekning" />
	</node>
	<node id="-44098" lat="60.4126250037" lon="10.9565638949">
		<tag k="name" v="Knaisætra" />
		<tag k="ssr:date" v="2019-05-31" />
		<tag k="ssr:gruppe" v="veg" />
		<tag k="ssr:hovedgruppe" v="infrastruktur" />
		<tag k="ssr:stedsnr" v="343478" />
		<tag k="ssr:type" v="adressenavn" />
	</node>
	<node id="-44354" lat="60.507422225" lon="11.0632888914">
		<tag k="name" v="Steinsjøelvvegen" />
		<tag k="ssr:date" v="2016-05-10" />
		<tag k="ssr:gruppe" v="veg" />
		<tag k="ssr:hovedgruppe" v="infrastruktur" />
		<tag k="ssr:stedsnr" v="102006" />
		<tag k="ssr:type" v="vegstrekning" />
	</node>
	<node id="-44993" lat="60.451769449" lon="10.7543027759">
		<tag k="name" v="Skåbakkvegen" />
		<tag k="ssr:date" v="2016-05-10" />
		<tag k="ssr:gruppe" v="veg" />
		<tag k="ssr:hovedgruppe" v="infrastruktur" />
		<tag k="ssr:stedsnr" v="666463" />
		<tag k="ssr:type" v="vegstrekning" />
	</node>
	<node id="-44864" lat="60.390461109" lon="10.964361112">
		<tag k="name" v="Rundhaugvegen" />
		<tag k="ssr:date" v="2016-05-10" />
		<tag k="ssr:gruppe" v="veg" />
		<tag k="ssr:hovedgruppe" v="infrastruktur" />
		<tag k="ssr:stedsnr" v="588636" />
		<tag k="ssr:type" v="vegstrekning" />
	</node>
	<node id="-44448" lat="60.5093499969" lon="11.0722833362">
		<tag k="name" v="Steinsjødamvegen" />
		<tag k="ssr:date" v="2016-05-10" />
		<tag k="ssr:gruppe" v="veg" />
		<tag k="ssr:hovedgruppe" v="infrastruktur" />
		<tag k="ssr:stedsnr" v="163126" />
		<tag k="ssr:type" v="vegstrekning" />
	</node>
	<node id="-44222" lat="60.3645972242" lon="10.9383972313">
		<tag k="name" v="Gamle Jeppedalsvegen" />
		<tag k="ssr:date" v="2016-05-11" />
		<tag k="ssr:gruppe" v="veg" />
		<tag k="ssr:hovedgruppe" v="infrastruktur" />
		<tag k="ssr:stedsnr" v="889749" />
		<tag k="ssr:type" v="vegstrekning" />
	</node>
	<node id="-44213" lat="60.4043583315" lon="11.1113916722">
		<tag k="name" v="Kløvdalsvegen" />
		<tag k="ssr:date" v="2016-05-10" />
		<tag k="ssr:gruppe" v="veg" />
		<tag k="ssr:hovedgruppe" v="infrastruktur" />
		<tag k="ssr:stedsnr" v="406774" />
		<tag k="ssr:type" v="vegstrekning" />
	</node>
	<node id="-44476" lat="60.4216388894" lon="11.0915138849">
		<tag k="name" v="Kinnavegen" />
		<tag k="ssr:date" v="2016-05-10" />
		<tag k="ssr:gruppe" v="veg" />
		<tag k="ssr:hovedgruppe" v="infrastruktur" />
		<tag k="ssr:stedsnr" v="163827" />
		<tag k="ssr:type" v="vegstrekning" />
	</node>
	<node id="-45243" lat="60.4769527776" lon="10.7058444443">
		<tag k="name" v="Grandalsvegen" />
		<tag k="ssr:date" v="2016-05-11" />
		<tag k="ssr:gruppe" v="veg" />
		<tag k="ssr:hovedgruppe" v="infrastruktur" />
		<tag k="ssr:stedsnr" v="844902" />
		<tag k="ssr:type" v="vegstrekning" />
	</node>
	<node id="-44857" lat="60.440738885" lon="10.9868083287">
		<tag k="name" v="Jodalsvegen" />
		<tag k="ssr:date" v="2016-05-10" />
		<tag k="ssr:gruppe" v="veg" />
		<tag k="ssr:hovedgruppe" v="infrastruktur" />
		<tag k="ssr:stedsnr" v="587709" />
		<tag k="ssr:type" v="vegstrekning" />
	</node>
	<node id="-44856" lat="60.4838250032" lon="10.7209638848">
		<tag k="name" v="Damhaugvegen" />
		<tag k="ssr:date" v="2016-05-10" />
		<tag k="ssr:gruppe" v="veg" />
		<tag k="ssr:hovedgruppe" v="infrastruktur" />
		<tag k="ssr:stedsnr" v="587250" />
		<tag k="ssr:type" v="vegstrekning" />
	</node>
	<node id="-44553" lat="60.4188722243" lon="10.9531611167">
		<tag k="name" v="Sørsetervegen" />
		<tag k="ssr:date" v="2016-05-10" />
		<tag k="ssr:gruppe" v="veg" />
		<tag k="ssr:hovedgruppe" v="infrastruktur" />
		<tag k="ssr:stedsnr" v="224228" />
		<tag k="ssr:type" v="vegstrekning" />
	</node>
	<node id="-44979" lat="60.4734055562" lon="10.8782388899">
		<tag k="name" v="Lusmyrvegen" />
		<tag k="ssr:date" v="2016-05-10" />
		<tag k="ssr:gruppe" v="veg" />
		<tag k="ssr:hovedgruppe" v="infrastruktur" />
		<tag k="ssr:stedsnr" v="664831" />
		<tag k="ssr:type" v="vegstrekning" />
	</node>
	<node id="-45359" lat="60.4084000038" lon="10.9159999921">
		<tag k="name" v="Bekkemyrvegen" />
		<tag k="ssr:date" v="2016-05-11" />
		<tag k="ssr:gruppe" v="veg" />
		<tag k="ssr:hovedgruppe" v="infrastruktur" />
		<tag k="ssr:stedsnr" v="952825" />
		<tag k="ssr:type" v="vegstrekning" />
	</node>
	<node id="-44844" lat="60.4318722187" lon="10.9875027726">
		<tag k="name" v="Stormyrvegen" />
		<tag k="ssr:date" v="2016-05-10" />
		<tag k="ssr:gruppe" v="veg" />
		<tag k="ssr:hovedgruppe" v="infrastruktur" />
		<tag k="ssr:stedsnr" v="586106" />
		<tag k="ssr:type" v="vegstrekning" />
	</node>
	<node id="-44699" lat="60.4349749989" lon="10.7706416604">
		<tag k="name" v="Fuglåsvegen" />
		<tag k="ssr:date" v="2016-05-10" />
		<tag k="ssr:gruppe" v="veg" />
		<tag k="ssr:hovedgruppe" v="infrastruktur" />
		<tag k="ssr:stedsnr" v="467771" />
		<tag k="ssr:type" v="vegstrekning" />
	</node>
	<node id="-44581" lat="60.4750777792" lon="10.8511527713">
		<tag k="name" v="Veslesvartungsvegen" />
		<tag k="ssr:date" v="2016-05-10" />
		<tag k="ssr:gruppe" v="veg" />
		<tag k="ssr:hovedgruppe" v="infrastruktur" />
		<tag k="ssr:stedsnr" v="239862" />
		<tag k="ssr:type" v="vegstrekning" />
	</node>
	<node id="-45347" lat="60.4432166665" lon="10.985124994">
		<tag k="name" v="Dalavegen" />
		<tag k="ssr:date" v="2016-05-11" />
		<tag k="ssr:gruppe" v="veg" />
		<tag k="ssr:hovedgruppe" v="infrastruktur" />
		<tag k="ssr:stedsnr" v="952655" />
		<tag k="ssr:type" v="vegstrekning" />
	</node>
	<node id="-44017" lat="60.4478944446" lon="10.8249916632">
		<tag k="name" v="Lisæterkulpvegen" />
		<tag k="ssr:date" v="2019-05-31" />
		<tag k="ssr:gruppe" v="veg" />
		<tag k="ssr:hovedgruppe" v="infrastruktur" />
		<tag k="ssr:stedsnr" v="283468" />
		<tag k="ssr:type" v="adressenavn" />
	</node>
	<node id="-44705" lat="60.4406555536" lon="11.091372218">
		<tag k="name" v="Stridalsvegen" />
		<tag k="ssr:date" v="2016-05-10" />
		<tag k="ssr:gruppe" v="veg" />
		<tag k="ssr:hovedgruppe" v="infrastruktur" />
		<tag k="ssr:stedsnr" v="480892" />
		<tag k="ssr:type" v="vegstrekning" />
	</node>
	<node id="-45216" lat="60.4174138858" lon="10.9306250008">
		<tag k="name" v="Røysumholvegen" />
		<tag k="ssr:date" v="2016-05-11" />
		<tag k="ssr:gruppe" v="veg" />
		<tag k="ssr:hovedgruppe" v="infrastruktur" />
		<tag k="ssr:stedsnr" v="831168" />
		<tag k="ssr:type" v="vegstrekning" />
	</node>
	<node id="-44446" lat="60.4820138902" lon="10.9912805541">
		<tag k="name" v="Lismarkvegen" />
		<tag k="ssr:date" v="2016-05-10" />
		<tag k="ssr:gruppe" v="veg" />
		<tag k="ssr:hovedgruppe" v="infrastruktur" />
		<tag k="ssr:stedsnr" v="163050" />
		<tag k="ssr:type" v="vegstrekning" />
	</node>
	<node id="-45211" lat="60.4794833329" lon="11.0280305536">
		<tag k="alt_name" v="Kongevegen" />
		<tag k="name" v="Gamle Trondheimsvegen" />
		<tag k="ssr:date" v="2016-05-11" />
		<tag k="ssr:gruppe" v="veg" />
		<tag k="ssr:hovedgruppe" v="infrastruktur" />
		<tag k="ssr:stedsnr" v="831009" />
		<tag k="ssr:type" v="vegstrekning" />
	</node>
	<node id="-45209" lat="60.3584000033" lon="10.9315916587">
		<tag k="name" v="Kvernsjøvegen" />
		<tag k="ssr:date" v="2016-05-11" />
		<tag k="ssr:gruppe" v="veg" />
		<tag k="ssr:hovedgruppe" v="infrastruktur" />
		<tag k="ssr:stedsnr" v="829756" />
		<tag k="ssr:type" v="vegstrekning" />
	</node>
	<node id="-44456" lat="60.4863972232" lon="10.7742083275">
		<tag k="name" v="Hølbekkvegen" />
		<tag k="ssr:date" v="2016-05-10" />
		<tag k="ssr:gruppe" v="veg" />
		<tag k="ssr:hovedgruppe" v="infrastruktur" />
		<tag k="ssr:stedsnr" v="163214" />
		<tag k="ssr:type" v="vegstrekning" />
	</node>
	<node id="-44307" lat="60.4055138905" lon="10.9637083422">
		<tag k="name" v="Breimyrvegen" />
		<tag k="ssr:date" v="2016-05-10" />
		<tag k="ssr:gruppe" v="veg" />
		<tag k="ssr:hovedgruppe" v="infrastruktur" />
		<tag k="ssr:stedsnr" v="42837" />
		<tag k="ssr:type" v="vegstrekning" />
	</node>
	<node id="-45330" lat="60.4030555574" lon="11.133930562">
		<tag k="name" v="Byfellavegen" />
		<tag k="ssr:date" v="2016-05-11" />
		<tag k="ssr:gruppe" v="veg" />
		<tag k="ssr:hovedgruppe" v="infrastruktur" />
		<tag k="ssr:stedsnr" v="950742" />
		<tag k="ssr:type" v="vegstrekning" />
	</node>
	<node id="-45329" lat="60.3451638902" lon="11.090691675">
		<tag k="name" v="Svartholtvegen" />
		<tag k="ssr:date" v="2016-05-11" />
		<tag k="ssr:gruppe" v="veg" />
		<tag k="ssr:hovedgruppe" v="infrastruktur" />
		<tag k="ssr:stedsnr" v="950735" />
		<tag k="ssr:type" v="vegstrekning" />
	</node>
	<node id="-45327" lat="60.4351805575" lon="11.0670666612">
		<tag k="name" v="Hurdal kommune" />
		<tag k="ssr:date" v="2016-05-11" />
		<tag k="ssr:gruppe" v="administrativeIndelinger" />
		<tag k="ssr:hovedgruppe" v="offentligAdministrasjon" />
		<tag k="ssr:stedsnr" v="934988" />
		<tag k="ssr:type" v="kommune" />
	</node>
	<node id="-44941" lat="60.4339694425" lon="10.9353499922">
		<tag k="name" v="Tørkhusvegen" />
		<tag k="ssr:date" v="2016-05-10" />
		<tag k="ssr:gruppe" v="veg" />
		<tag k="ssr:hovedgruppe" v="infrastruktur" />
		<tag k="ssr:stedsnr" v="648215" />
		<tag k="ssr:type" v="vegstrekning" />
	</node>
	<node id="-44171" lat="60.4275555528" lon="11.0899666666">
		<tag k="name" v="Siridalsvegen" />
		<tag k="ssr:date" v="2016-05-10" />
		<tag k="ssr:gruppe" v="veg" />
		<tag k="ssr:hovedgruppe" v="infrastruktur" />
		<tag k="ssr:stedsnr" v="237450" />
		<tag k="ssr:type" v="vegstrekning" />
	</node>
	<node id="-44809" lat="60.4473444448" lon="10.8238333276">
		<tag k="name" v="Liseterkulpvegen" />
		<tag k="ssr:date" v="2016-05-10" />
		<tag k="ssr:gruppe" v="veg" />
		<tag k="ssr:hovedgruppe" v="infrastruktur" />
		<tag k="ssr:stedsnr" v="545373" />
		<tag k="ssr:type" v="vegstrekning" />
	</node>
	<node id="-44295" lat="60.4161055599" lon="10.9592250019">
		<tag k="name" v="Lundbylivegen" />
		<tag k="ssr:date" v="2016-05-10" />
		<tag k="ssr:gruppe" v="veg" />
		<tag k="ssr:hovedgruppe" v="infrastruktur" />
		<tag k="ssr:stedsnr" v="42199" />
		<tag k="ssr:type" v="vegstrekning" />
	</node>
	<node id="-44481" lat="60.429155552" lon="11.0978833246">
		<tag k="name" v="Vindfallvegen" />
		<tag k="ssr:date" v="2016-05-10" />
		<tag k="ssr:gruppe" v="veg" />
		<tag k="ssr:hovedgruppe" v="infrastruktur" />
		<tag k="ssr:stedsnr" v="176400" />
		<tag k="ssr:type" v="vegstrekning" />
	</node>
	<node id="-45295" lat="60.4839777807" lon="10.9678666665">
		<tag k="name" v="Snultravegen" />
		<tag k="ssr:date" v="2016-05-11" />
		<tag k="ssr:gruppe" v="veg" />
		<tag k="ssr:hovedgruppe" v="infrastruktur" />
		<tag k="ssr:stedsnr" v="907847" />
		<tag k="ssr:type" v="vegstrekning" />
	</node>
	<node id="-44502" lat="60.4404333346" lon="10.7843888829">
		<tag k="name" v="Tuvslivegen" />
		<tag k="ssr:date" v="2016-05-10" />
		<tag k="ssr:gruppe" v="veg" />
		<tag k="ssr:hovedgruppe" v="infrastruktur" />
		<tag k="ssr:stedsnr" v="181412" />
		<tag k="ssr:type" v="vegstrekning" />
	</node>
	<node id="-44289" lat="60.4383416647" lon="10.8461749983">
		<tag k="name" v="Lomtjernsvegen" />
		<tag k="ssr:date" v="2016-05-10" />
		<tag k="ssr:gruppe" v="veg" />
		<tag k="ssr:hovedgruppe" v="infrastruktur" />
		<tag k="ssr:stedsnr" v="41220" />
		<tag k="ssr:type" v="vegstrekning" />
	</node>
</osm>
