<?xml version="1.0" encoding="UTF-8"?>
<osm version="0.6" generator="osmapis">
	<node lat="60.50384195384939" lon="11.369155040244367" id="-35695">
		<tag k="name" v="Bråtåhøgda" />
		<tag k="ssr:date" v="2019-12-27" />
		<tag k="ssr:gruppe" v="veg" />
		<tag k="ssr:hovedgruppe" v="infrastruktur" />
		<tag k="ssr:stedsnr" v="40182" />
		<tag k="ssr:type" v="adressenavn" />
	</node>
	<node lat="60.414710590051996" lon="11.420116139269513" id="-35696">
		<tag k="name" v="Tempelsætervegen" />
		<tag k="ssr:date" v="2019-12-27" />
		<tag k="ssr:gruppe" v="veg" />
		<tag k="ssr:hovedgruppe" v="infrastruktur" />
		<tag k="ssr:stedsnr" v="40184" />
		<tag k="ssr:type" v="adressenavn" />
	</node>
	<node lat="60.351199276844646" lon="11.43763220515532" id="-35701">
		<tag k="name" v="Tennungsvegen" />
		<tag k="ssr:date" v="2019-12-27" />
		<tag k="ssr:gruppe" v="veg" />
		<tag k="ssr:hovedgruppe" v="infrastruktur" />
		<tag k="ssr:stedsnr" v="42629" />
		<tag k="ssr:type" v="adressenavn" />
	</node>
	<node lat="60.39533286880136" lon="11.532343739649823" id="-35776">
		<tag k="name" v="Syverstuvegen" />
		<tag k="ssr:date" v="2019-12-27" />
		<tag k="ssr:gruppe" v="veg" />
		<tag k="ssr:hovedgruppe" v="infrastruktur" />
		<tag k="ssr:stedsnr" v="242831" />
		<tag k="ssr:type" v="adressenavn" />
	</node>
	<node lat="60.33727320866751" lon="11.503870163502569" id="-35781">
		<tag k="name" v="Balrostjennvegen" />
		<tag k="ssr:date" v="2019-12-27" />
		<tag k="ssr:gruppe" v="veg" />
		<tag k="ssr:hovedgruppe" v="infrastruktur" />
		<tag k="ssr:stedsnr" v="100660" />
		<tag k="ssr:type" v="adressenavn" />
	</node>
	<node lat="60.481533082254664" lon="11.50255779196652" id="-35798">
		<tag k="name" v="Styggådamvegen" />
		<tag k="ssr:date" v="2019-12-27" />
		<tag k="ssr:gruppe" v="veg" />
		<tag k="ssr:hovedgruppe" v="infrastruktur" />
		<tag k="ssr:stedsnr" v="102909" />
		<tag k="ssr:type" v="adressenavn" />
	</node>
	<node lat="60.4241684862646" lon="11.513177303994324" id="-35844">
		<tag k="name" v="Nord-Breibyvegen" />
		<tag k="ssr:date" v="2019-12-27" />
		<tag k="ssr:gruppe" v="veg" />
		<tag k="ssr:hovedgruppe" v="infrastruktur" />
		<tag k="ssr:stedsnr" v="119086" />
		<tag k="ssr:type" v="adressenavn" />
	</node>
	<node lat="60.4213149125312" lon="11.513110503407658" id="-35845">
		<tag k="name" v="Breibyhaugen" />
		<tag k="ssr:date" v="2019-12-27" />
		<tag k="ssr:gruppe" v="veg" />
		<tag k="ssr:hovedgruppe" v="infrastruktur" />
		<tag k="ssr:stedsnr" v="119088" />
		<tag k="ssr:type" v="adressenavn" />
	</node>
	<node lat="60.35182881859805" lon="11.602937475391906" id="-35852">
		<tag k="name" v="Songneshuken" />
		<tag k="ssr:date" v="2019-12-27" />
		<tag k="ssr:gruppe" v="veg" />
		<tag k="ssr:hovedgruppe" v="infrastruktur" />
		<tag k="ssr:stedsnr" v="119981" />
		<tag k="ssr:type" v="adressenavn" />
	</node>
	<node lat="60.39904075686062" lon="11.499719977286864" id="-35914">
		<tag k="name" v="Delbekklia" />
		<tag k="ssr:date" v="2019-12-27" />
		<tag k="ssr:gruppe" v="veg" />
		<tag k="ssr:hovedgruppe" v="infrastruktur" />
		<tag k="ssr:stedsnr" v="222729" />
		<tag k="ssr:type" v="adressenavn" />
	</node>
	<node lat="60.31158542958038" lon="11.625310579031769" id="-35943">
		<tag k="name" v="Nord-Odalsvegen" />
		<tag k="ssr:date" v="2019-12-27" />
		<tag k="ssr:gruppe" v="veg" />
		<tag k="ssr:hovedgruppe" v="infrastruktur" />
		<tag k="ssr:stedsnr" v="239503" />
		<tag k="ssr:type" v="adressenavn" />
	</node>
	<node lat="60.39899230418605" lon="11.542298974474148" id="-35952">
		<tag k="name" v="Storbråtåvegen" />
		<tag k="ssr:date" v="2019-12-27" />
		<tag k="ssr:gruppe" v="veg" />
		<tag k="ssr:hovedgruppe" v="infrastruktur" />
		<tag k="ssr:stedsnr" v="241448" />
		<tag k="ssr:type" v="adressenavn" />
	</node>
	<node lat="60.39586331501188" lon="11.509793133759498" id="-35974">
		<tag k="name" v="Nybakken" />
		<tag k="ssr:date" v="2019-12-27" />
		<tag k="ssr:gruppe" v="veg" />
		<tag k="ssr:hovedgruppe" v="infrastruktur" />
		<tag k="ssr:stedsnr" v="282685" />
		<tag k="ssr:type" v="adressenavn" />
	</node>
	<node lat="60.45067344372754" lon="11.455104725988024" id="-35975">
		<tag k="name" v="Trautfeltet" />
		<tag k="ssr:date" v="2019-12-27" />
		<tag k="ssr:gruppe" v="veg" />
		<tag k="ssr:hovedgruppe" v="infrastruktur" />
		<tag k="ssr:stedsnr" v="283069" />
		<tag k="ssr:type" v="adressenavn" />
	</node>
	<node lat="60.50060766804371" lon="11.39612662125962" id="-35976">
		<tag k="name" v="Rundsjøstien" />
		<tag k="ssr:date" v="2019-12-27" />
		<tag k="ssr:gruppe" v="veg" />
		<tag k="ssr:hovedgruppe" v="infrastruktur" />
		<tag k="ssr:stedsnr" v="283070" />
		<tag k="ssr:type" v="adressenavn" />
	</node>
	<node lat="60.498235532903344" lon="11.418106071126427" id="-35977">
		<tag k="name" v="Sjøenden" />
		<tag k="ssr:date" v="2019-12-27" />
		<tag k="ssr:gruppe" v="veg" />
		<tag k="ssr:hovedgruppe" v="infrastruktur" />
		<tag k="ssr:stedsnr" v="283071" />
		<tag k="ssr:type" v="adressenavn" />
	</node>
	<node lat="60.38359466516553" lon="11.579201817349515" id="-36014">
		<tag k="name" v="Fallvegen" />
		<tag k="ssr:date" v="2019-12-27" />
		<tag k="ssr:gruppe" v="veg" />
		<tag k="ssr:hovedgruppe" v="infrastruktur" />
		<tag k="ssr:stedsnr" v="300380" />
		<tag k="ssr:type" v="adressenavn" />
	</node>
	<node lat="60.378233271404106" lon="11.45892086218348" id="-36020">
		<tag k="name" v="Heerlivegen" />
		<tag k="ssr:date" v="2019-12-27" />
		<tag k="ssr:gruppe" v="veg" />
		<tag k="ssr:hovedgruppe" v="infrastruktur" />
		<tag k="ssr:stedsnr" v="301589" />
		<tag k="ssr:type" v="adressenavn" />
	</node>
	<node lat="60.3772229876163" lon="11.539956327003548" id="-36031">
		<tag k="name" v="Nesetlykkja" />
		<tag k="ssr:date" v="2019-12-27" />
		<tag k="ssr:gruppe" v="veg" />
		<tag k="ssr:hovedgruppe" v="infrastruktur" />
		<tag k="ssr:stedsnr" v="465744" />
		<tag k="ssr:type" v="adressenavn" />
	</node>
	<node lat="60.38089629237238" lon="11.453054250883838" id="-36072">
		<tag k="name" v="Mørktjennsvegen" />
		<tag k="ssr:date" v="2019-12-27" />
		<tag k="ssr:gruppe" v="veg" />
		<tag k="ssr:hovedgruppe" v="infrastruktur" />
		<tag k="ssr:stedsnr" v="472850" />
		<tag k="ssr:type" v="adressenavn" />
	</node>
	<node lat="60.39195113765604" lon="11.554581269931823" id="-36073">
		<tag k="name" v="Brurvegen" />
		<tag k="ssr:date" v="2019-12-27" />
		<tag k="ssr:gruppe" v="veg" />
		<tag k="ssr:hovedgruppe" v="infrastruktur" />
		<tag k="ssr:stedsnr" v="343766" />
		<tag k="ssr:type" v="adressenavn" />
	</node>
	<node lat="60.45726853195648" lon="11.441320864767343" id="-36133">
		<tag k="name" v="Søndre Ottvegen" />
		<tag k="ssr:date" v="2019-12-27" />
		<tag k="ssr:gruppe" v="veg" />
		<tag k="ssr:hovedgruppe" v="infrastruktur" />
		<tag k="ssr:stedsnr" v="482276" />
		<tag k="ssr:type" v="adressenavn" />
	</node>
	<node lat="60.42760236332499" lon="11.420477154915543" id="-36134">
		<tag k="name" v="Føskersætervegen" />
		<tag k="ssr:date" v="2019-12-27" />
		<tag k="ssr:gruppe" v="veg" />
		<tag k="ssr:hovedgruppe" v="infrastruktur" />
		<tag k="ssr:stedsnr" v="482246" />
		<tag k="ssr:type" v="adressenavn" />
	</node>
	<node lat="60.39660056236693" lon="11.509252785775786" id="-36150">
		<tag k="name" v="Sandbekkvegen" />
		<tag k="ssr:date" v="2019-12-27" />
		<tag k="ssr:gruppe" v="veg" />
		<tag k="ssr:hovedgruppe" v="infrastruktur" />
		<tag k="ssr:stedsnr" v="483617" />
		<tag k="ssr:type" v="adressenavn" />
	</node>
	<node lat="60.37866708348191" lon="11.68756554337049" id="-36161">
		<tag k="name" v="Engergutua" />
		<tag k="ssr:date" v="2019-12-27" />
		<tag k="ssr:gruppe" v="veg" />
		<tag k="ssr:hovedgruppe" v="infrastruktur" />
		<tag k="ssr:stedsnr" v="484425" />
		<tag k="ssr:type" v="adressenavn" />
	</node>
	<node lat="60.39957713809893" lon="11.462073151267827" id="-36169">
		<tag k="name" v="Hansmyrvegen" />
		<tag k="ssr:date" v="2019-12-27" />
		<tag k="ssr:gruppe" v="veg" />
		<tag k="ssr:hovedgruppe" v="infrastruktur" />
		<tag k="ssr:stedsnr" v="405532" />
		<tag k="ssr:type" v="adressenavn" />
	</node>
	<node lat="60.38820000282074" lon="11.536127773078334" id="-36220">
		<tag k="name" v="Sagstua" />
		<tag k="ssr:date" v="2019-12-27" />
		<tag k="ssr:gruppe" v="administrativeIndelinger" />
		<tag k="ssr:hovedgruppe" v="offentligAdministrasjon" />
		<tag k="ssr:stedsnr" v="431943" />
		<tag k="ssr:type" v="poststed" />
	</node>
	<node lat="60.49970696210779" lon="11.382667416468848" id="-36282">
		<tag k="name" v="Nordhagavegen" />
		<tag k="ssr:date" v="2019-12-27" />
		<tag k="ssr:gruppe" v="veg" />
		<tag k="ssr:hovedgruppe" v="infrastruktur" />
		<tag k="ssr:stedsnr" v="465159" />
		<tag k="ssr:type" v="adressenavn" />
	</node>
	<node lat="60.50137873742194" lon="11.392947022942801" id="-36283">
		<tag k="name" v="Nylandvegen" />
		<tag k="ssr:date" v="2019-12-27" />
		<tag k="ssr:gruppe" v="veg" />
		<tag k="ssr:hovedgruppe" v="infrastruktur" />
		<tag k="ssr:stedsnr" v="465160" />
		<tag k="ssr:type" v="adressenavn" />
	</node>
	<node lat="60.4299782208561" lon="11.678657686056548" id="-36284">
		<tag k="name" v="Høymyrbakken" />
		<tag k="ssr:date" v="2019-12-27" />
		<tag k="ssr:gruppe" v="veg" />
		<tag k="ssr:hovedgruppe" v="infrastruktur" />
		<tag k="ssr:stedsnr" v="465164" />
		<tag k="ssr:type" v="adressenavn" />
	</node>
	<node lat="60.35555301005911" lon="11.722841151123323" id="-36369">
		<tag k="name" v="Storsjøvegen" />
		<tag k="ssr:date" v="2019-12-27" />
		<tag k="ssr:gruppe" v="veg" />
		<tag k="ssr:hovedgruppe" v="infrastruktur" />
		<tag k="ssr:stedsnr" v="543505" />
		<tag k="ssr:type" v="adressenavn" />
	</node>
	<node lat="60.33845069883477" lon="11.609184860644655" id="-36375">
		<tag k="name" v="Kroksrudvegen" />
		<tag k="ssr:date" v="2019-12-27" />
		<tag k="ssr:gruppe" v="veg" />
		<tag k="ssr:hovedgruppe" v="infrastruktur" />
		<tag k="ssr:stedsnr" v="544979" />
		<tag k="ssr:type" v="adressenavn" />
	</node>
	<node lat="60.39711666851862" lon="11.528044450868455" id="-36450">
		<tag k="name" v="Syverstubakken" />
		<tag k="ssr:date" v="2019-12-27" />
		<tag k="ssr:gruppe" v="veg" />
		<tag k="ssr:hovedgruppe" v="infrastruktur" />
		<tag k="ssr:stedsnr" v="606849" />
		<tag k="ssr:type" v="adressenavn" />
	</node>
	<node lat="60.50242629795078" lon="11.348529234686733" id="-36467">
		<tag k="name" v="Trautskogvegen" />
		<tag k="ssr:date" v="2019-12-27" />
		<tag k="ssr:gruppe" v="veg" />
		<tag k="ssr:hovedgruppe" v="infrastruktur" />
		<tag k="ssr:stedsnr" v="646076" />
		<tag k="ssr:type" v="adressenavn" />
	</node>
	<node lat="60.425883514833984" lon="11.513362502167405" id="-36469">
		<tag k="name" v="Breibybråtån" />
		<tag k="ssr:date" v="2019-12-27" />
		<tag k="ssr:gruppe" v="veg" />
		<tag k="ssr:hovedgruppe" v="infrastruktur" />
		<tag k="ssr:stedsnr" v="646079" />
		<tag k="ssr:type" v="adressenavn" />
	</node>
	<node lat="60.431289432194305" lon="11.51254654054382" id="-36471">
		<tag k="name" v="Skjeppestadgutua" />
		<tag k="ssr:date" v="2019-12-27" />
		<tag k="ssr:gruppe" v="veg" />
		<tag k="ssr:hovedgruppe" v="infrastruktur" />
		<tag k="ssr:stedsnr" v="646272" />
		<tag k="ssr:type" v="adressenavn" />
	</node>
	<node lat="60.4973716329964" lon="11.402314891481796" id="-36492">
		<tag k="name" v="Lognsjølia" />
		<tag k="ssr:date" v="2019-12-27" />
		<tag k="ssr:gruppe" v="veg" />
		<tag k="ssr:hovedgruppe" v="infrastruktur" />
		<tag k="ssr:stedsnr" v="707091" />
		<tag k="ssr:type" v="adressenavn" />
	</node>
	<node lat="60.44045388618692" lon="11.501349185092753" id="-36495">
		<tag k="name" v="Trudvangvegen" />
		<tag k="ssr:date" v="2019-12-27" />
		<tag k="ssr:gruppe" v="veg" />
		<tag k="ssr:hovedgruppe" v="infrastruktur" />
		<tag k="ssr:stedsnr" v="707296" />
		<tag k="ssr:type" v="adressenavn" />
	</node>
	<node lat="60.516590167786475" lon="11.512190833093012" id="-36640">
		<tag k="name" v="Eriksætervegen" />
		<tag k="ssr:date" v="2019-12-27" />
		<tag k="ssr:gruppe" v="veg" />
		<tag k="ssr:hovedgruppe" v="infrastruktur" />
		<tag k="ssr:stedsnr" v="905583" />
		<tag k="ssr:type" v="adressenavn" />
	</node>
	<node lat="60.416403668936724" lon="11.596920150361683" id="-36667">
		<tag k="name" v="Knappåsen" />
		<tag k="ssr:date" v="2019-12-27" />
		<tag k="ssr:gruppe" v="veg" />
		<tag k="ssr:hovedgruppe" v="infrastruktur" />
		<tag k="ssr:stedsnr" v="907481" />
		<tag k="ssr:type" v="adressenavn" />
	</node>
	<node lat="60.462797318690455" lon="11.355785640884383" id="-36694">
		<tag k="name" v="Nordre Ottvegen" />
		<tag k="ssr:date" v="2019-12-27" />
		<tag k="ssr:gruppe" v="veg" />
		<tag k="ssr:hovedgruppe" v="infrastruktur" />
		<tag k="ssr:stedsnr" v="908933" />
		<tag k="ssr:type" v="adressenavn" />
	</node>
	<node lat="60.33477956109318" lon="11.49846105700755" id="-36752">
		<tag k="name" v="Stormyrvegen" />
		<tag k="ssr:date" v="2019-12-27" />
		<tag k="ssr:gruppe" v="veg" />
		<tag k="ssr:hovedgruppe" v="infrastruktur" />
		<tag k="ssr:stedsnr" v="829718" />
		<tag k="ssr:type" v="adressenavn" />
	</node>
	<node lat="60.39974211942965" lon="11.539825257146308" id="-36783">
		<tag k="name" v="Storbråtåsvingen" />
		<tag k="ssr:date" v="2019-12-27" />
		<tag k="ssr:gruppe" v="veg" />
		<tag k="ssr:hovedgruppe" v="infrastruktur" />
		<tag k="ssr:stedsnr" v="848485" />
		<tag k="ssr:type" v="adressenavn" />
	</node>
	<node lat="60.402560488694164" lon="11.490627009312709" id="-36808">
		<tag k="name" v="Måsåmyrvegen" />
		<tag k="ssr:date" v="2019-12-27" />
		<tag k="ssr:gruppe" v="veg" />
		<tag k="ssr:hovedgruppe" v="infrastruktur" />
		<tag k="ssr:stedsnr" v="889696" />
		<tag k="ssr:type" v="adressenavn" />
	</node>
	<node lat="60.35401195976093" lon="11.516979844073047" id="-36809">
		<tag k="name" v="Bjørtjennsvegen" />
		<tag k="ssr:date" v="2019-12-27" />
		<tag k="ssr:gruppe" v="veg" />
		<tag k="ssr:hovedgruppe" v="infrastruktur" />
		<tag k="ssr:stedsnr" v="889702" />
		<tag k="ssr:type" v="adressenavn" />
	</node>
	<node lat="60.397944199203046" lon="11.40422879136716" id="-36810">
		<tag k="name" v="Bjerten" />
		<tag k="ssr:date" v="2019-12-27" />
		<tag k="ssr:gruppe" v="veg" />
		<tag k="ssr:hovedgruppe" v="infrastruktur" />
		<tag k="ssr:stedsnr" v="890296" />
		<tag k="ssr:type" v="adressenavn" />
	</node>
	<node lat="60.42711108022155" lon="11.513221812952533" id="-36813">
		<tag k="name" v="Steinskjærbakken" />
		<tag k="ssr:date" v="2019-12-27" />
		<tag k="ssr:gruppe" v="veg" />
		<tag k="ssr:hovedgruppe" v="infrastruktur" />
		<tag k="ssr:stedsnr" v="890500" />
		<tag k="ssr:type" v="adressenavn" />
	</node>
	<node lat="60.38701623281723" lon="11.717681858219485" id="-36927">
		<tag k="name" v="Moasvingvegen" />
		<tag k="ssr:date" v="2019-12-27" />
		<tag k="ssr:gruppe" v="veg" />
		<tag k="ssr:hovedgruppe" v="infrastruktur" />
		<tag k="ssr:stedsnr" v="985391" />
		<tag k="ssr:type" v="adressenavn" />
	</node>
	<node lat="60.38066813626163" lon="11.752819375810697" id="-36929">
		<tag k="name" v="Oksebergvegen" />
		<tag k="ssr:date" v="2019-12-27" />
		<tag k="ssr:gruppe" v="veg" />
		<tag k="ssr:hovedgruppe" v="infrastruktur" />
		<tag k="ssr:stedsnr" v="985393" />
		<tag k="ssr:type" v="adressenavn" />
	</node>
	<node lat="60.49849877186308" lon="11.405715683769142" id="-36961">
		<tag k="name" v="Gammelsagvegen" />
		<tag k="ssr:date" v="2019-12-27" />
		<tag k="ssr:gruppe" v="veg" />
		<tag k="ssr:hovedgruppe" v="infrastruktur" />
		<tag k="ssr:stedsnr" v="40122" />
		<tag k="ssr:type" v="adressenavn" />
	</node>
	<node lat="60.423196414191864" lon="11.666216068083818" id="-36962">
		<tag k="name" v="Bekkegrenda" />
		<tag k="ssr:date" v="2019-12-27" />
		<tag k="ssr:gruppe" v="veg" />
		<tag k="ssr:hovedgruppe" v="infrastruktur" />
		<tag k="ssr:stedsnr" v="40187" />
		<tag k="ssr:type" v="adressenavn" />
	</node>
	<node lat="60.441350151856525" lon="11.63645966267431" id="-36963">
		<tag k="name" v="Norbakken" />
		<tag k="ssr:date" v="2019-12-27" />
		<tag k="ssr:gruppe" v="veg" />
		<tag k="ssr:hovedgruppe" v="infrastruktur" />
		<tag k="ssr:stedsnr" v="40188" />
		<tag k="ssr:type" v="adressenavn" />
	</node>
	<node lat="60.35624049819603" lon="11.470228668544557" id="-36982">
		<tag k="name" v="Granmyrlia" />
		<tag k="ssr:date" v="2019-12-27" />
		<tag k="ssr:gruppe" v="veg" />
		<tag k="ssr:hovedgruppe" v="infrastruktur" />
		<tag k="ssr:stedsnr" v="42622" />
		<tag k="ssr:type" v="adressenavn" />
	</node>
	<node lat="60.30948061127341" lon="11.563848198983703" id="-37014">
		<tag k="name" v="Aulisætervegen" />
		<tag k="ssr:date" v="2019-12-27" />
		<tag k="ssr:gruppe" v="veg" />
		<tag k="ssr:hovedgruppe" v="infrastruktur" />
		<tag k="ssr:stedsnr" v="57844" />
		<tag k="ssr:type" v="adressenavn" />
	</node>
	<node lat="60.37438893027163" lon="11.54842524233539" id="-37022">
		<tag k="name" v="Tjennet" />
		<tag k="ssr:date" v="2019-12-27" />
		<tag k="ssr:gruppe" v="veg" />
		<tag k="ssr:hovedgruppe" v="infrastruktur" />
		<tag k="ssr:stedsnr" v="58955" />
		<tag k="ssr:type" v="adressenavn" />
	</node>
	<node lat="60.41971630887225" lon="11.51328728292772" id="-37023">
		<tag k="name" v="Sør-Breibyvegen" />
		<tag k="ssr:date" v="2019-12-27" />
		<tag k="ssr:gruppe" v="veg" />
		<tag k="ssr:hovedgruppe" v="infrastruktur" />
		<tag k="ssr:stedsnr" v="59063" />
		<tag k="ssr:type" v="adressenavn" />
	</node>
	<node lat="60.40146403829395" lon="11.662299844324417" id="-37054">
		<tag k="name" v="Trøbråtåvegen" />
		<tag k="ssr:date" v="2019-12-27" />
		<tag k="ssr:gruppe" v="veg" />
		<tag k="ssr:hovedgruppe" v="infrastruktur" />
		<tag k="ssr:stedsnr" v="101151" />
		<tag k="ssr:type" v="adressenavn" />
	</node>
	<node lat="60.40125060465437" lon="11.658143557900264" id="-37055">
		<tag k="name" v="Trøhaugen" />
		<tag k="ssr:date" v="2019-12-27" />
		<tag k="ssr:gruppe" v="veg" />
		<tag k="ssr:hovedgruppe" v="infrastruktur" />
		<tag k="ssr:stedsnr" v="101152" />
		<tag k="ssr:type" v="adressenavn" />
	</node>
	<node lat="60.49988064862968" lon="11.397542943748313" id="-37136">
		<tag k="name" v="Mortleikvegen" />
		<tag k="ssr:date" v="2019-12-27" />
		<tag k="ssr:gruppe" v="veg" />
		<tag k="ssr:hovedgruppe" v="infrastruktur" />
		<tag k="ssr:stedsnr" v="161174" />
		<tag k="ssr:type" v="adressenavn" />
	</node>
	<node lat="60.32945555867" lon="11.61435832707435" id="-37198">
		<tag k="name" v="Odalen" />
		<tag k="ssr:date" v="2019-12-27" />
		<tag k="ssr:gruppe" v="terrengområder" />
		<tag k="ssr:hovedgruppe" v="terreng" />
		<tag k="ssr:stedsnr" v="210794" />
		<tag k="ssr:type" v="landskapsområde" />
	</node>
	<node lat="60.500028082280856" lon="11.397281459029278" id="-37232">
		<tag k="name" v="Rundsjødammen" />
		<tag k="ssr:date" v="2019-12-27" />
		<tag k="ssr:gruppe" v="veg" />
		<tag k="ssr:hovedgruppe" v="infrastruktur" />
		<tag k="ssr:stedsnr" v="283130" />
		<tag k="ssr:type" v="adressenavn" />
	</node>
	<node lat="60.435835025132135" lon="11.637059248098796" id="-37233">
		<tag k="name" v="Elsmobakken" />
		<tag k="ssr:date" v="2019-12-27" />
		<tag k="ssr:gruppe" v="veg" />
		<tag k="ssr:hovedgruppe" v="infrastruktur" />
		<tag k="ssr:stedsnr" v="283135" />
		<tag k="ssr:type" v="adressenavn" />
	</node>
	<node lat="60.43545907221333" lon="11.509677106972825" id="-37234">
		<tag k="name" v="Oppivegen" />
		<tag k="ssr:date" v="2019-12-27" />
		<tag k="ssr:gruppe" v="veg" />
		<tag k="ssr:hovedgruppe" v="infrastruktur" />
		<tag k="ssr:stedsnr" v="283432" />
		<tag k="ssr:type" v="adressenavn" />
	</node>
	<node lat="60.4364481026806" lon="11.46717644047774" id="-37308">
		<tag k="name" v="Lisgrenda" />
		<tag k="ssr:date" v="2019-12-27" />
		<tag k="ssr:gruppe" v="veg" />
		<tag k="ssr:hovedgruppe" v="infrastruktur" />
		<tag k="ssr:stedsnr" v="343153" />
		<tag k="ssr:type" v="adressenavn" />
	</node>
	<node lat="60.390832383840866" lon="11.675913045231207" id="-37309">
		<tag k="name" v="Sanderudsvegen" />
		<tag k="ssr:date" v="2019-12-27" />
		<tag k="ssr:gruppe" v="veg" />
		<tag k="ssr:hovedgruppe" v="infrastruktur" />
		<tag k="ssr:stedsnr" v="343158" />
		<tag k="ssr:type" v="adressenavn" />
	</node>
	<node lat="60.40221852252526" lon="11.661166963107904" id="-37328">
		<tag k="name" v="Østmosætervegen" />
		<tag k="ssr:date" v="2019-12-27" />
		<tag k="ssr:gruppe" v="veg" />
		<tag k="ssr:hovedgruppe" v="infrastruktur" />
		<tag k="ssr:stedsnr" v="345238" />
		<tag k="ssr:type" v="adressenavn" />
	</node>
	<node lat="60.37517725085027" lon="11.43280229404725" id="-37377">
		<tag k="name" v="Bjertvegen" />
		<tag k="ssr:date" v="2019-12-27" />
		<tag k="ssr:gruppe" v="veg" />
		<tag k="ssr:hovedgruppe" v="infrastruktur" />
		<tag k="ssr:stedsnr" v="361414" />
		<tag k="ssr:type" v="adressenavn" />
	</node>
	<node lat="60.40001913046699" lon="11.540379087249125" id="-37391">
		<tag k="name" v="Storbråtåtunet" />
		<tag k="ssr:date" v="2019-12-27" />
		<tag k="ssr:gruppe" v="veg" />
		<tag k="ssr:hovedgruppe" v="infrastruktur" />
		<tag k="ssr:stedsnr" v="362472" />
		<tag k="ssr:type" v="adressenavn" />
	</node>
	<node lat="60.503408525220955" lon="11.361121371456719" id="-37423">
		<tag k="name" v="Dalsrudvegen" />
		<tag k="ssr:date" v="2019-12-27" />
		<tag k="ssr:gruppe" v="veg" />
		<tag k="ssr:hovedgruppe" v="infrastruktur" />
		<tag k="ssr:stedsnr" v="404152" />
		<tag k="ssr:type" v="adressenavn" />
	</node>
	<node lat="60.404850837498316" lon="11.659301111890414" id="-37424">
		<tag k="name" v="Fosshaugvegen" />
		<tag k="ssr:date" v="2019-12-27" />
		<tag k="ssr:gruppe" v="veg" />
		<tag k="ssr:hovedgruppe" v="infrastruktur" />
		<tag k="ssr:stedsnr" v="404162" />
		<tag k="ssr:type" v="adressenavn" />
	</node>
	<node lat="60.42448036600593" lon="11.438804518850276" id="-37481">
		<tag k="name" v="Engerfjellvegen" />
		<tag k="ssr:date" v="2019-12-27" />
		<tag k="ssr:gruppe" v="veg" />
		<tag k="ssr:hovedgruppe" v="infrastruktur" />
		<tag k="ssr:stedsnr" v="422277" />
		<tag k="ssr:type" v="adressenavn" />
	</node>
	<node lat="60.36950454193738" lon="11.558252822540084" id="-37483">
		<tag k="name" v="Illgosvegen" />
		<tag k="ssr:date" v="2019-12-27" />
		<tag k="ssr:gruppe" v="veg" />
		<tag k="ssr:hovedgruppe" v="infrastruktur" />
		<tag k="ssr:stedsnr" v="423965" />
		<tag k="ssr:type" v="adressenavn" />
	</node>
	<node lat="60.497931010865734" lon="11.501764349569825" id="-37590">
		<tag k="name" v="Vatningsætervegen" />
		<tag k="ssr:date" v="2019-12-27" />
		<tag k="ssr:gruppe" v="veg" />
		<tag k="ssr:hovedgruppe" v="infrastruktur" />
		<tag k="ssr:stedsnr" v="586069" />
		<tag k="ssr:type" v="adressenavn" />
	</node>
	<node lat="60.364534956879865" lon="11.717714885827665" id="-37650">
		<tag k="name" v="Overåsvegen" />
		<tag k="ssr:date" v="2019-12-27" />
		<tag k="ssr:gruppe" v="veg" />
		<tag k="ssr:hovedgruppe" v="infrastruktur" />
		<tag k="ssr:stedsnr" v="604583" />
		<tag k="ssr:type" v="adressenavn" />
	</node>
	<node lat="60.35806937536728" lon="11.590722757066299" id="-37654">
		<tag k="name" v="Strandhaugsvingen" />
		<tag k="ssr:date" v="2019-12-27" />
		<tag k="ssr:gruppe" v="veg" />
		<tag k="ssr:hovedgruppe" v="infrastruktur" />
		<tag k="ssr:stedsnr" v="604962" />
		<tag k="ssr:type" v="adressenavn" />
	</node>
	<node lat="60.37518316321103" lon="11.53827062696693" id="-37690">
		<tag k="name" v="Ekornholsåsen" />
		<tag k="ssr:date" v="2019-12-27" />
		<tag k="ssr:gruppe" v="veg" />
		<tag k="ssr:hovedgruppe" v="infrastruktur" />
		<tag k="ssr:stedsnr" v="646605" />
		<tag k="ssr:type" v="adressenavn" />
	</node>
	<node lat="60.37397125900773" lon="11.534121309478923" id="-37691">
		<tag k="name" v="Ekornholsbekken" />
		<tag k="ssr:date" v="2019-12-27" />
		<tag k="ssr:gruppe" v="veg" />
		<tag k="ssr:hovedgruppe" v="infrastruktur" />
		<tag k="ssr:stedsnr" v="646608" />
		<tag k="ssr:type" v="adressenavn" />
	</node>
	<node lat="60.3908996460902" lon="11.543203429831228" id="-37734">
		<tag k="name" v="Bunesvegen" />
		<tag k="ssr:date" v="2019-12-27" />
		<tag k="ssr:gruppe" v="veg" />
		<tag k="ssr:hovedgruppe" v="infrastruktur" />
		<tag k="ssr:stedsnr" v="664496" />
		<tag k="ssr:type" v="adressenavn" />
	</node>
	<node lat="60.38592744865941" lon="11.560965445862227" id="-37775">
		<tag k="name" v="Hesbakken" />
		<tag k="ssr:date" v="2019-12-27" />
		<tag k="ssr:gruppe" v="veg" />
		<tag k="ssr:hovedgruppe" v="infrastruktur" />
		<tag k="ssr:stedsnr" v="725478" />
		<tag k="ssr:type" v="adressenavn" />
	</node>
	<node lat="60.36779525584581" lon="11.561738492699568" id="-37794">
		<tag k="name" v="Illgoshaugen" />
		<tag k="ssr:date" v="2019-12-27" />
		<tag k="ssr:gruppe" v="veg" />
		<tag k="ssr:hovedgruppe" v="infrastruktur" />
		<tag k="ssr:stedsnr" v="726952" />
		<tag k="ssr:type" v="adressenavn" />
	</node>
	<node lat="60.391950003284634" lon="11.541508334470876" id="-37818">
		<tag k="name" v="Nord-Odal kommune" />
		<tag k="ssr:date" v="2019-12-27" />
		<tag k="ssr:gruppe" v="administrativeIndelinger" />
		<tag k="ssr:hovedgruppe" v="offentligAdministrasjon" />
		<tag k="ssr:stedsnr" v="753192" />
		<tag k="ssr:type" v="kommune" />
	</node>
	<node lat="60.388163745312184" lon="11.60390080483689" id="-37833">
		<tag k="name" v="Buneskroken" />
		<tag k="ssr:date" v="2019-12-27" />
		<tag k="ssr:gruppe" v="veg" />
		<tag k="ssr:hovedgruppe" v="infrastruktur" />
		<tag k="ssr:stedsnr" v="768987" />
		<tag k="ssr:type" v="adressenavn" />
	</node>
	<node lat="60.36831198602116" lon="11.545904457267076" id="-37887">
		<tag k="name" v="Grønnerudstubben" />
		<tag k="ssr:date" v="2019-12-27" />
		<tag k="ssr:gruppe" v="veg" />
		<tag k="ssr:hovedgruppe" v="infrastruktur" />
		<tag k="ssr:stedsnr" v="786973" />
		<tag k="ssr:type" v="adressenavn" />
	</node>
	<node lat="60.469086539361065" lon="11.631233544436226" id="-37889">
		<tag k="name" v="Myrvangvegen" />
		<tag k="ssr:date" v="2019-12-27" />
		<tag k="ssr:gruppe" v="veg" />
		<tag k="ssr:hovedgruppe" v="infrastruktur" />
		<tag k="ssr:stedsnr" v="787476" />
		<tag k="ssr:type" v="adressenavn" />
	</node>
	<node lat="60.40334725014635" lon="11.487368407470123" id="-37890">
		<tag k="name" v="Løkkervegen" />
		<tag k="ssr:date" v="2019-12-27" />
		<tag k="ssr:gruppe" v="veg" />
		<tag k="ssr:hovedgruppe" v="infrastruktur" />
		<tag k="ssr:stedsnr" v="787481" />
		<tag k="ssr:type" v="adressenavn" />
	</node>
	<node lat="60.44890712549939" lon="11.493449556748482" id="-37920">
		<tag k="name" v="Skyrudsvegen" />
		<tag k="ssr:date" v="2019-12-27" />
		<tag k="ssr:gruppe" v="veg" />
		<tag k="ssr:hovedgruppe" v="infrastruktur" />
		<tag k="ssr:stedsnr" v="829095" />
		<tag k="ssr:type" v="adressenavn" />
	</node>
	<node lat="60.46017455327871" lon="11.416365702843356" id="-37966">
		<tag k="name" v="Høymyrbruvegen" />
		<tag k="ssr:date" v="2019-12-27" />
		<tag k="ssr:gruppe" v="veg" />
		<tag k="ssr:hovedgruppe" v="infrastruktur" />
		<tag k="ssr:stedsnr" v="847344" />
		<tag k="ssr:type" v="adressenavn" />
	</node>
	<node lat="60.49070769670522" lon="11.616276700434518" id="-38011">
		<tag k="name" v="Solør-Odalsvegen" />
		<tag k="ssr:date" v="2019-12-27" />
		<tag k="ssr:gruppe" v="veg" />
		<tag k="ssr:hovedgruppe" v="infrastruktur" />
		<tag k="ssr:stedsnr" v="952187" />
		<tag k="ssr:type" v="adressenavn" />
	</node>
	<node lat="60.3821761043701" lon="11.568585093312409" id="-38040">
		<tag k="name" v="Svennebyvegen" />
		<tag k="ssr:date" v="2019-12-27" />
		<tag k="ssr:gruppe" v="veg" />
		<tag k="ssr:hovedgruppe" v="infrastruktur" />
		<tag k="ssr:stedsnr" v="967502" />
		<tag k="ssr:type" v="adressenavn" />
	</node>
	<node lat="60.39639167104527" lon="11.469161525469776" id="-38060">
		<tag k="name" v="Stamphusvegen" />
		<tag k="ssr:date" v="2019-12-27" />
		<tag k="ssr:gruppe" v="veg" />
		<tag k="ssr:hovedgruppe" v="infrastruktur" />
		<tag k="ssr:stedsnr" v="976597" />
		<tag k="ssr:type" v="adressenavn" />
	</node>
	<node lat="60.443854923341284" lon="11.502491032510791" id="-38061">
		<tag k="name" v="Djuptjennsvegen" />
		<tag k="ssr:date" v="2019-12-27" />
		<tag k="ssr:gruppe" v="veg" />
		<tag k="ssr:hovedgruppe" v="infrastruktur" />
		<tag k="ssr:stedsnr" v="976598" />
		<tag k="ssr:type" v="adressenavn" />
	</node>
	<node lat="60.41644935428094" lon="11.513382922543471" id="-38062">
		<tag k="name" v="Flikkerudkroken" />
		<tag k="ssr:date" v="2019-12-27" />
		<tag k="ssr:gruppe" v="veg" />
		<tag k="ssr:hovedgruppe" v="infrastruktur" />
		<tag k="ssr:stedsnr" v="976599" />
		<tag k="ssr:type" v="adressenavn" />
	</node>
	<node lat="60.47025844873851" lon="11.628649060988822" id="-38105">
		<tag k="name" v="Furuholvegen" />
		<tag k="ssr:date" v="2019-12-27" />
		<tag k="ssr:gruppe" v="veg" />
		<tag k="ssr:hovedgruppe" v="infrastruktur" />
		<tag k="ssr:stedsnr" v="1008073" />
		<tag k="ssr:type" v="adressenavn" />
	</node>
	<node lat="60.46894949924399" lon="11.629407486297376" id="-38106">
		<tag k="name" v="Bjørkevegen" />
		<tag k="ssr:date" v="2019-12-27" />
		<tag k="ssr:gruppe" v="veg" />
		<tag k="ssr:hovedgruppe" v="infrastruktur" />
		<tag k="ssr:stedsnr" v="1008074" />
		<tag k="ssr:type" v="adressenavn" />
	</node>
	<node lat="60.46784534093818" lon="11.629454736374326" id="-38109">
		<tag k="name" v="Furuholsvingen" />
		<tag k="ssr:date" v="2019-12-27" />
		<tag k="ssr:gruppe" v="veg" />
		<tag k="ssr:hovedgruppe" v="infrastruktur" />
		<tag k="ssr:stedsnr" v="1008077" />
		<tag k="ssr:type" v="adressenavn" />
	</node>
	<node lat="60.44922036880926" lon="11.49619923400987" id="-38114">
		<tag k="name" v="Johansrudvegen" />
		<tag k="ssr:date" v="2019-12-27" />
		<tag k="ssr:gruppe" v="veg" />
		<tag k="ssr:hovedgruppe" v="infrastruktur" />
		<tag k="ssr:stedsnr" v="1008772" />
		<tag k="ssr:type" v="adressenavn" />
	</node>
	<node lat="60.45209955057671" lon="11.495230137550118" id="-38115">
		<tag k="name" v="Korsholvegen" />
		<tag k="ssr:date" v="2019-12-27" />
		<tag k="ssr:gruppe" v="veg" />
		<tag k="ssr:hovedgruppe" v="infrastruktur" />
		<tag k="ssr:stedsnr" v="1008773" />
		<tag k="ssr:type" v="adressenavn" />
	</node>
	<node lat="60.448702018661386" lon="11.494841567302657" id="-38117">
		<tag k="name" v="Østbyvegen" />
		<tag k="ssr:date" v="2019-12-27" />
		<tag k="ssr:gruppe" v="veg" />
		<tag k="ssr:hovedgruppe" v="infrastruktur" />
		<tag k="ssr:stedsnr" v="1008775" />
		<tag k="ssr:type" v="adressenavn" />
	</node>
	<node lat="60.4521975726906" lon="11.496906190555354" id="-38118">
		<tag k="name" v="Mårvegen" />
		<tag k="ssr:date" v="2019-12-27" />
		<tag k="ssr:gruppe" v="veg" />
		<tag k="ssr:hovedgruppe" v="infrastruktur" />
		<tag k="ssr:stedsnr" v="1008776" />
		<tag k="ssr:type" v="adressenavn" />
	</node>
	<node lat="60.389802163664015" lon="11.536913358561629" id="-38120">
		<tag k="name" v="Skolevegen" />
		<tag k="ssr:date" v="2019-12-27" />
		<tag k="ssr:gruppe" v="veg" />
		<tag k="ssr:hovedgruppe" v="infrastruktur" />
		<tag k="ssr:stedsnr" v="1012253" />
		<tag k="ssr:type" v="adressenavn" />
	</node>
	<node lat="60.3934573836821" lon="11.542830271632543" id="-38121">
		<tag k="name" v="Tiurvegen" />
		<tag k="ssr:date" v="2019-12-27" />
		<tag k="ssr:gruppe" v="veg" />
		<tag k="ssr:hovedgruppe" v="infrastruktur" />
		<tag k="ssr:stedsnr" v="1012237" />
		<tag k="ssr:type" v="adressenavn" />
	</node>
	<node lat="60.39488848216069" lon="11.54262932660591" id="-38122">
		<tag k="name" v="Fasanvegen" />
		<tag k="ssr:date" v="2019-12-27" />
		<tag k="ssr:gruppe" v="veg" />
		<tag k="ssr:hovedgruppe" v="infrastruktur" />
		<tag k="ssr:stedsnr" v="1012239" />
		<tag k="ssr:type" v="adressenavn" />
	</node>
	<node lat="60.39492920142509" lon="11.541399073607694" id="-38123">
		<tag k="name" v="Sentrumsvegen" />
		<tag k="ssr:date" v="2019-12-27" />
		<tag k="ssr:gruppe" v="veg" />
		<tag k="ssr:hovedgruppe" v="infrastruktur" />
		<tag k="ssr:stedsnr" v="1012244" />
		<tag k="ssr:type" v="adressenavn" />
	</node>
	<node lat="60.38757006653727" lon="11.537063455891625" id="-38124">
		<tag k="name" v="Øvre Viks veg" />
		<tag k="ssr:date" v="2019-12-27" />
		<tag k="ssr:gruppe" v="veg" />
		<tag k="ssr:hovedgruppe" v="infrastruktur" />
		<tag k="ssr:stedsnr" v="1012247" />
		<tag k="ssr:type" v="adressenavn" />
	</node>
	<node lat="60.38658364453812" lon="11.537388024124658" id="-38125">
		<tag k="name" v="Sagstulia" />
		<tag k="ssr:date" v="2019-12-27" />
		<tag k="ssr:gruppe" v="veg" />
		<tag k="ssr:hovedgruppe" v="infrastruktur" />
		<tag k="ssr:stedsnr" v="1012248" />
		<tag k="ssr:type" v="adressenavn" />
	</node>
	<node lat="60.39480697065119" lon="11.54177892831684" id="-38126">
		<tag k="name" v="Prestbergvegen" />
		<tag k="ssr:date" v="2019-12-27" />
		<tag k="ssr:gruppe" v="veg" />
		<tag k="ssr:hovedgruppe" v="infrastruktur" />
		<tag k="ssr:stedsnr" v="1012249" />
		<tag k="ssr:type" v="adressenavn" />
	</node>
	<node lat="60.39490031727123" lon="11.531247768278675" id="-38127">
		<tag k="name" v="Lundvegen" />
		<tag k="ssr:date" v="2019-12-27" />
		<tag k="ssr:gruppe" v="veg" />
		<tag k="ssr:hovedgruppe" v="infrastruktur" />
		<tag k="ssr:stedsnr" v="1012250" />
		<tag k="ssr:type" v="adressenavn" />
	</node>
	<node lat="60.390015279911665" lon="11.548946593152762" id="-38130">
		<tag k="name" v="Vallsetvegen" />
		<tag k="ssr:date" v="2019-12-27" />
		<tag k="ssr:gruppe" v="veg" />
		<tag k="ssr:hovedgruppe" v="infrastruktur" />
		<tag k="ssr:stedsnr" v="1012210" />
		<tag k="ssr:type" v="adressenavn" />
	</node>
	<node lat="60.39741107513772" lon="11.535610564381074" id="-38131">
		<tag k="name" v="Sleggekastet" />
		<tag k="ssr:date" v="2019-12-27" />
		<tag k="ssr:gruppe" v="veg" />
		<tag k="ssr:hovedgruppe" v="infrastruktur" />
		<tag k="ssr:stedsnr" v="1012213" />
		<tag k="ssr:type" v="adressenavn" />
	</node>
	<node lat="60.39697818130221" lon="11.544854050757953" id="-38133">
		<tag k="name" v="Lerkevegen" />
		<tag k="ssr:date" v="2019-12-27" />
		<tag k="ssr:gruppe" v="veg" />
		<tag k="ssr:hovedgruppe" v="infrastruktur" />
		<tag k="ssr:stedsnr" v="1012220" />
		<tag k="ssr:type" v="adressenavn" />
	</node>
	<node lat="60.39654719466401" lon="11.534677710566122" id="-38134">
		<tag k="name" v="Idrettsvegen" />
		<tag k="ssr:date" v="2019-12-27" />
		<tag k="ssr:gruppe" v="veg" />
		<tag k="ssr:hovedgruppe" v="infrastruktur" />
		<tag k="ssr:stedsnr" v="1012222" />
		<tag k="ssr:type" v="adressenavn" />
	</node>
	<node lat="60.393054998894975" lon="11.546675877368406" id="-38135">
		<tag k="name" v="Uglevegen" />
		<tag k="ssr:date" v="2019-12-27" />
		<tag k="ssr:gruppe" v="veg" />
		<tag k="ssr:hovedgruppe" v="infrastruktur" />
		<tag k="ssr:stedsnr" v="1012224" />
		<tag k="ssr:type" v="adressenavn" />
	</node>
	<node lat="60.39874880987077" lon="11.542266703063964" id="-38136">
		<tag k="name" v="Magasinvegen" />
		<tag k="ssr:date" v="2019-12-27" />
		<tag k="ssr:gruppe" v="veg" />
		<tag k="ssr:hovedgruppe" v="infrastruktur" />
		<tag k="ssr:stedsnr" v="1012226" />
		<tag k="ssr:type" v="adressenavn" />
	</node>
	<node lat="60.392183424774416" lon="11.540285006479552" id="-38137">
		<tag k="name" v="Herredsvegen" />
		<tag k="ssr:date" v="2019-12-27" />
		<tag k="ssr:gruppe" v="veg" />
		<tag k="ssr:hovedgruppe" v="infrastruktur" />
		<tag k="ssr:stedsnr" v="1012229" />
		<tag k="ssr:type" v="adressenavn" />
	</node>
	<node lat="60.39769176641374" lon="11.5434051824739" id="-38138">
		<tag k="name" v="Bokfinkvegen" />
		<tag k="ssr:date" v="2019-12-27" />
		<tag k="ssr:gruppe" v="veg" />
		<tag k="ssr:hovedgruppe" v="infrastruktur" />
		<tag k="ssr:stedsnr" v="1012231" />
		<tag k="ssr:type" v="adressenavn" />
	</node>
	<node lat="60.39763192124882" lon="11.544764711038061" id="-38139">
		<tag k="name" v="Svalevegen" />
		<tag k="ssr:date" v="2019-12-27" />
		<tag k="ssr:gruppe" v="veg" />
		<tag k="ssr:hovedgruppe" v="infrastruktur" />
		<tag k="ssr:stedsnr" v="1012234" />
		<tag k="ssr:type" v="adressenavn" />
	</node>
	<node lat="60.38658364453812" lon="11.537388024124658" id="-38143">
		<tag k="name" v="Viksbakken" />
		<tag k="ssr:date" v="2019-12-27" />
		<tag k="ssr:gruppe" v="veg" />
		<tag k="ssr:hovedgruppe" v="infrastruktur" />
		<tag k="ssr:stedsnr" v="1012257" />
		<tag k="ssr:type" v="adressenavn" />
	</node>
	<node lat="60.39078216834992" lon="11.535203844913726" id="-38144">
		<tag k="name" v="Sigurd Hoels veg" />
		<tag k="ssr:date" v="2019-12-27" />
		<tag k="ssr:gruppe" v="veg" />
		<tag k="ssr:hovedgruppe" v="infrastruktur" />
		<tag k="ssr:stedsnr" v="1012259" />
		<tag k="ssr:type" v="adressenavn" />
	</node>
	<node lat="60.405137189673056" lon="11.544978310794969" id="-38155">
		<tag k="name" v="Stubben" />
		<tag k="ssr:date" v="2019-12-27" />
		<tag k="ssr:gruppe" v="veg" />
		<tag k="ssr:hovedgruppe" v="infrastruktur" />
		<tag k="ssr:stedsnr" v="1012355" />
		<tag k="ssr:type" v="adressenavn" />
	</node>
	<node lat="60.398006095862236" lon="11.54906974246496" id="-38157">
		<tag k="name" v="Nedre Halmhaugveg" />
		<tag k="ssr:date" v="2019-12-27" />
		<tag k="ssr:gruppe" v="veg" />
		<tag k="ssr:hovedgruppe" v="infrastruktur" />
		<tag k="ssr:stedsnr" v="1012359" />
		<tag k="ssr:type" v="adressenavn" />
	</node>
	<node lat="60.398727143426264" lon="11.549046011399515" id="-38158">
		<tag k="name" v="Øvre Halmhaugveg" />
		<tag k="ssr:date" v="2019-12-27" />
		<tag k="ssr:gruppe" v="veg" />
		<tag k="ssr:hovedgruppe" v="infrastruktur" />
		<tag k="ssr:stedsnr" v="1012362" />
		<tag k="ssr:type" v="adressenavn" />
	</node>
	<node lat="60.427927730144674" lon="11.640089234467624" id="-38171">
		<tag k="name" v="Åsvegen" />
		<tag k="ssr:date" v="2019-12-27" />
		<tag k="ssr:gruppe" v="veg" />
		<tag k="ssr:hovedgruppe" v="infrastruktur" />
		<tag k="ssr:stedsnr" v="1019767" />
		<tag k="ssr:type" v="adressenavn" />
	</node>
	<node lat="60.432761936762645" lon="11.638609787170694" id="-38173">
		<tag k="name" v="Bekkevegen" />
		<tag k="ssr:date" v="2019-12-27" />
		<tag k="ssr:gruppe" v="veg" />
		<tag k="ssr:hovedgruppe" v="infrastruktur" />
		<tag k="ssr:stedsnr" v="1019769" />
		<tag k="ssr:type" v="adressenavn" />
	</node>
	<node lat="60.427927730144674" lon="11.640089234467624" id="-38174">
		<tag k="name" v="Engvegen" />
		<tag k="ssr:date" v="2019-12-27" />
		<tag k="ssr:gruppe" v="veg" />
		<tag k="ssr:hovedgruppe" v="infrastruktur" />
		<tag k="ssr:stedsnr" v="1019770" />
		<tag k="ssr:type" v="adressenavn" />
	</node>
	<node lat="60.423665742969746" lon="11.641032924951551" id="-38175">
		<tag k="name" v="Østmovegen" />
		<tag k="ssr:date" v="2019-12-27" />
		<tag k="ssr:gruppe" v="veg" />
		<tag k="ssr:hovedgruppe" v="infrastruktur" />
		<tag k="ssr:stedsnr" v="1019771" />
		<tag k="ssr:type" v="adressenavn" />
	</node>
	<node lat="60.42812605304145" lon="11.637476342566929" id="-38176">
		<tag k="name" v="Åkervegen" />
		<tag k="ssr:date" v="2019-12-27" />
		<tag k="ssr:gruppe" v="veg" />
		<tag k="ssr:hovedgruppe" v="infrastruktur" />
		<tag k="ssr:stedsnr" v="1019772" />
		<tag k="ssr:type" v="adressenavn" />
	</node>
	<node lat="60.427927730144674" lon="11.640089234467624" id="-38177">
		<tag k="name" v="Åsbakken" />
		<tag k="ssr:date" v="2019-12-27" />
		<tag k="ssr:gruppe" v="veg" />
		<tag k="ssr:hovedgruppe" v="infrastruktur" />
		<tag k="ssr:stedsnr" v="1019773" />
		<tag k="ssr:type" v="adressenavn" />
	</node>
	<node lat="60.41467263616653" lon="11.570969615133526" id="-38221">
		<tag k="name" v="Kloppmyrvegen" />
		<tag k="ssr:date" v="2021-01-14" />
		<tag k="ssr:gruppe" v="veg" />
		<tag k="ssr:hovedgruppe" v="infrastruktur" />
		<tag k="ssr:stedsnr" v="1079633" />
		<tag k="ssr:type" v="adressenavn" />
	</node>
</osm>
