<?xml version="1.0" encoding="UTF-8"?>
<osm generator="osmapis" version="0.6">
	<node id="-21760" lat="59.5798444419" lon="10.7428888904">
		<tag k="name" v="Lureklomåsan" />
		<tag k="ssr:date" v="2019-05-31" />
		<tag k="ssr:gruppe" v="veg" />
		<tag k="ssr:hovedgruppe" v="infrastruktur" />
		<tag k="ssr:stedsnr" v="787207" />
		<tag k="ssr:type" v="adressenavn" />
	</node>
	<node id="-21886" lat="60.5908609473" lon="9.63819281559">
		<tag k="fixme" v="multiple name tags, choose one and add the other to alt_name" />
		<tag k="name" v="Austlandet;Østlandet" />
		<tag k="ssr:date" v="2018-01-09" />
		<tag k="ssr:gruppe" v="administrativeIndelinger" />
		<tag k="ssr:hovedgruppe" v="offentligAdministrasjon" />
		<tag k="ssr:stedsnr" v="974775" />
		<tag k="ssr:type" v="annenAdministrativInndeling" />
	</node>
	<node id="-21286" lat="59.6251698921" lon="10.7317092166">
		<tag k="name" v="Hytteveien" />
		<tag k="ssr:date" v="2019-05-31" />
		<tag k="ssr:gruppe" v="veg" />
		<tag k="ssr:hovedgruppe" v="infrastruktur" />
		<tag k="ssr:stedsnr" v="1069936" />
		<tag k="ssr:type" v="adressenavn" />
	</node>
	<node id="-21295" lat="59.6037027441" lon="10.7082924103">
		<tag k="name" v="Skolemesterens vei" />
		<tag k="ssr:date" v="2019-05-30" />
		<tag k="ssr:gruppe" v="veg" />
		<tag k="ssr:hovedgruppe" v="infrastruktur" />
		<tag k="ssr:stedsnr" v="991466" />
		<tag k="ssr:type" v="adressenavn" />
	</node>
	<node id="-21296" lat="59.5119866776" lon="10.6718789826">
		<tag k="name" v="Storholmen" />
		<tag k="ssr:date" v="2019-05-30" />
		<tag k="ssr:gruppe" v="veg" />
		<tag k="ssr:hovedgruppe" v="infrastruktur" />
		<tag k="ssr:stedsnr" v="991760" />
		<tag k="ssr:type" v="adressenavn" />
	</node>
	<node id="-21711" lat="59.6022749993" lon="10.748072224">
		<tag k="alt_name" v="Vestby" />
		<tag k="name" v="Vestby kommune" />
		<tag k="ssr:date" v="2016-05-11" />
		<tag k="ssr:gruppe" v="administrativeIndelinger" />
		<tag k="ssr:hovedgruppe" v="offentligAdministrasjon" />
		<tag k="ssr:stedsnr" v="691844" />
		<tag k="ssr:type" v="kommune" />
	</node>
	<node id="-21294" lat="59.5169552051" lon="10.6774362549">
		<tag k="name" v="Sauholmen" />
		<tag k="ssr:date" v="2019-05-30" />
		<tag k="ssr:gruppe" v="veg" />
		<tag k="ssr:hovedgruppe" v="infrastruktur" />
		<tag k="ssr:stedsnr" v="991363" />
		<tag k="ssr:type" v="adressenavn" />
	</node>
	<node id="-21289" lat="59.5288730745" lon="10.7024728098">
		<tag k="name" v="Labuåsen" />
		<tag k="ssr:date" v="2019-10-10" />
		<tag k="ssr:gruppe" v="veg" />
		<tag k="ssr:hovedgruppe" v="infrastruktur" />
		<tag k="ssr:stedsnr" v="1072919" />
		<tag k="ssr:type" v="adressenavn" />
	</node>
	<node id="-21288" lat="59.6013363914" lon="10.7092992756">
		<tag k="name" v="Jespers vei" />
		<tag k="ssr:date" v="2019-05-31" />
		<tag k="ssr:gruppe" v="veg" />
		<tag k="ssr:hovedgruppe" v="infrastruktur" />
		<tag k="ssr:stedsnr" v="1070859" />
		<tag k="ssr:type" v="adressenavn" />
	</node>
	<node id="-21287" lat="59.5030953334" lon="10.6690875155">
		<tag k="name" v="Gjøva" />
		<tag k="ssr:date" v="2019-05-31" />
		<tag k="ssr:gruppe" v="veg" />
		<tag k="ssr:hovedgruppe" v="infrastruktur" />
		<tag k="ssr:stedsnr" v="1070348" />
		<tag k="ssr:type" v="adressenavn" />
	</node>
	<node id="-21542" lat="59.5113666643" lon="10.6705055577">
		<tag k="alt_name" v="Saueholmane;Sauholmene;Saueholmene" />
		<tag k="name" v="Sauholmane lykt" />
		<tag k="ssr:date" v="2016-05-10" />
		<tag k="ssr:gruppe" v="navigasjon" />
		<tag k="ssr:hovedgruppe" v="infrastruktur" />
		<tag k="ssr:stedsnr" v="488508" />
		<tag k="ssr:type" v="fyrlykt" />
	</node>
	<node id="-21285" lat="59.5701923457" lon="10.8416190314">
		<tag k="name" v="Gamle Sånervei" />
		<tag k="ssr:date" v="2019-05-31" />
		<tag k="ssr:gruppe" v="veg" />
		<tag k="ssr:hovedgruppe" v="infrastruktur" />
		<tag k="ssr:stedsnr" v="1070187" />
		<tag k="ssr:type" v="adressenavn" />
	</node>
	<node id="-21284" lat="59.6019211386" lon="10.7068854143">
		<tag k="name" v="Caspar Wessels vei" />
		<tag k="ssr:date" v="2019-05-31" />
		<tag k="ssr:gruppe" v="veg" />
		<tag k="ssr:hovedgruppe" v="infrastruktur" />
		<tag k="ssr:stedsnr" v="1066720" />
		<tag k="ssr:type" v="adressenavn" />
	</node>
	<node id="-21667" lat="59.6350972181" lon="10.6986249991">
		<tag k="name" v="Vestbyvegen" />
		<tag k="ssr:date" v="2016-05-10" />
		<tag k="ssr:gruppe" v="veg" />
		<tag k="ssr:hovedgruppe" v="infrastruktur" />
		<tag k="ssr:stedsnr" v="645651" />
		<tag k="ssr:type" v="vegstrekning" />
	</node>
</osm>
