<?xml version="1.0" encoding="UTF-8"?>
<osm generator="osmapis" version="0.6">
	<node id="-188805" lat="59.8212472207" lon="10.3388222286">
		<tag k="name" v="Øgårdsveien" />
		<tag k="ssr:date" v="2019-05-30" />
		<tag k="ssr:gruppe" v="veg" />
		<tag k="ssr:hovedgruppe" v="infrastruktur" />
		<tag k="ssr:stedsnr" v="689077" />
		<tag k="ssr:type" v="adressenavn" />
	</node>
	<node id="-188590" lat="59.7866250029" lon="10.245905561">
		<tag k="alt_name" v="Lier" />
		<tag k="name" v="Lier kommune" />
		<tag k="ssr:date" v="2019-11-14" />
		<tag k="ssr:gruppe" v="administrativeIndelinger" />
		<tag k="ssr:hovedgruppe" v="offentligAdministrasjon" />
		<tag k="ssr:stedsnr" v="510801" />
		<tag k="ssr:type" v="kommune" />
	</node>
	<node id="-189225" lat="60.5908609473" lon="9.63819281559">
		<tag k="fixme" v="multiple name tags, choose one and add the other to alt_name" />
		<tag k="name" v="Austlandet;Østlandet" />
		<tag k="ssr:date" v="2018-01-09" />
		<tag k="ssr:gruppe" v="administrativeIndelinger" />
		<tag k="ssr:hovedgruppe" v="offentligAdministrasjon" />
		<tag k="ssr:stedsnr" v="974775" />
		<tag k="ssr:type" v="annenAdministrativInndeling" />
	</node>
	<node id="-188040" lat="59.7679378508" lon="10.1910590256">
		<tag k="name" v="Kanonveien" />
		<tag k="ssr:date" v="2019-11-18" />
		<tag k="ssr:gruppe" v="veg" />
		<tag k="ssr:hovedgruppe" v="infrastruktur" />
		<tag k="ssr:stedsnr" v="1073256" />
		<tag k="ssr:type" v="vegstrekning" />
	</node>
	<node id="-187845" lat="59.8223426055" lon="10.3387800883">
		<tag k="name" v="Solvangen" />
		<tag k="ssr:date" v="2019-05-30" />
		<tag k="ssr:gruppe" v="veg" />
		<tag k="ssr:hovedgruppe" v="infrastruktur" />
		<tag k="ssr:stedsnr" v="1036554" />
		<tag k="ssr:type" v="adressenavn" />
	</node>
	<node id="-187844" lat="59.7913788637" lon="10.2639759041">
		<tag k="name" v="Fossbakken" />
		<tag k="ssr:date" v="2019-05-30" />
		<tag k="ssr:gruppe" v="veg" />
		<tag k="ssr:hovedgruppe" v="infrastruktur" />
		<tag k="ssr:stedsnr" v="1035421" />
		<tag k="ssr:type" v="adressenavn" />
	</node>
	<node id="-188323" lat="59.7445027753" lon="10.2904916738">
		<tag k="name" v="Hyggenvegen" />
		<tag k="ssr:date" v="2019-05-30" />
		<tag k="ssr:gruppe" v="veg" />
		<tag k="ssr:hovedgruppe" v="infrastruktur" />
		<tag k="ssr:stedsnr" v="203846" />
		<tag k="ssr:type" v="adressenavn" />
	</node>
</osm>
