<?xml version="1.0" encoding="UTF-8"?>
<osm generator="osmapis" version="0.6">
	<node id="-723415" lat="69.8338999998" lon="18.8252500075">
		<tag k="man_made" v="cairn" />
		<tag k="name" v="Varden" />
		<tag k="place" v="locality" />
		<tag k="ssr:stedsnr" v="352229" />
	</node>
	<node id="-728186" lat="69.544255557" lon="18.7684444314">
		<tag k="amenity" v="ferry_terminal" />
		<tag k="name" v="Vikran" />
		<tag k="ssr:stedsnr" v="699677" />
	</node>
	<node id="-722935" lat="69.6620499979" lon="19.0187472122">
		<tag k="layer" v="-1" />
		<tag k="name" v="Tromsøysund 2" />
		<tag k="ssr:stedsnr" v="287699" />
		<tag k="tunnel" v="yes" />
	</node>
	<node id="-724853" lat="69.8323444486" lon="18.0309861131">
		<tag k="name" v="Matskjærleia" />
		<tag k="place" v="locality" />
		<tag k="ssr:stedsnr" v="108806" />
	</node>
	<node id="-728435" lat="69.670147219" lon="19.6508583226">
		<tag k="amenity" v="ferry_terminal" />
		<tag k="name" v="Breivikeidet" />
		<tag k="ssr:stedsnr" v="747228" />
	</node>
	<node id="-722929" lat="69.3722944465" lon="19.6438749965">
		<tag k="highway" v="path" />
		<tag k="name" v="Velaveien" />
		<tag k="ssr:stedsnr" v="418445" />
	</node>
	<node id="-728685" lat="69.7369472267" lon="18.9900083202">
		<tag k="highway" v="path" />
		<tag k="name" v="Jotveien" />
		<tag k="ssr:stedsnr" v="776307" />
	</node>
	<node id="-725739" lat="69.677744443" lon="18.9853694463">
		<tag k="man_made" v="quay" />
		<tag k="name" v="Breivika havneterminal" />
		<tag k="place" v="locality" />
		<tag k="ssr:stedsnr" v="224199" />
	</node>
	<node id="-728170" lat="69.68267778" lon="18.9115500003">
		<tag k="aeroway" v="aerodrome" />
		<tag k="alt_name" v="Langnes" />
		<tag k="name" v="Tromsø lufthavn, Langnes" />
		<tag k="ssr:stedsnr" v="691534" />
	</node>
	<node id="-723815" lat="69.6509111147" lon="18.9645805514">
		<tag k="landuse" v="harbour" />
		<tag k="name" v="Indrehamna" />
		<tag k="seamark:type" v="harbour" />
		<tag k="ssr:stedsnr" v="406191" />
	</node>
	<node id="-726628" lat="70.0271111152" lon="18.5352027764">
		<tag k="fixme" v="verify maritime location" />
		<tag k="mooring" v="yes" />
		<tag k="name" v="Støen" />
		<tag k="place" v="locality" />
		<tag k="ssr:stedsnr" v="473113" />
	</node>
	<node id="-729572" lat="69.6351305524" lon="17.9687111043">
		<tag k="highway" v="path" />
		<tag k="name" v="Stien" />
		<tag k="ssr:stedsnr" v="903284" />
	</node>
	<node id="-727778" lat="69.8811833299" lon="17.89091666">
		<tag k="name" v="Saltbåleia" />
		<tag k="place" v="locality" />
		<tag k="ssr:stedsnr" v="654828" />
	</node>
	<node id="-724062" lat="69.6807750033" lon="18.9832361065">
		<tag k="layer" v="-1" />
		<tag k="name" v="Tromsøysund 1" />
		<tag k="ssr:stedsnr" v="894689" />
		<tag k="tunnel" v="yes" />
	</node>
	<node id="-725851" lat="69.4195166704" lon="19.6727444431">
		<tag k="highway" v="path" />
		<tag k="name" v="Vedhøggaveien" />
		<tag k="ssr:stedsnr" v="235283" />
	</node>
	<node id="-724825" lat="69.6501972232" lon="18.9687750025">
		<tag k="alt_name" v="Nordjeteen" />
		<tag k="man_made" v="breakwater" />
		<tag k="name" v="Nordsjeteen" />
		<tag k="place" v="locality" />
		<tag k="ssr:stedsnr" v="92641" />
	</node>
	<node id="-729816" lat="70.0308166669" lon="18.3992361203">
		<tag k="name" v="Orholmsveet" />
		<tag k="place" v="locality" />
		<tag k="ssr:stedsnr" v="930304" />
	</node>
	<node id="-729303" lat="69.7484972252" lon="18.3194055546">
		<tag k="highway" v="path" />
		<tag k="name" v="Bjørnliveien" />
		<tag k="ssr:stedsnr" v="843913" />
	</node>
	<node id="-723077" lat="69.5927361082" lon="19.2250527664">
		<tag k="ford" v="yes" />
		<tag k="name" v="Berntvaet" />
		<tag k="place" v="locality" />
		<tag k="ssr:stedsnr" v="296322" />
	</node>
	<node id="-727761" lat="69.671463887" lon="19.6540472226">
		<tag k="fixme" v="verify maritime location" />
		<tag k="loc_name:se" v="Stáffu" />
		<tag k="mooring" v="yes" />
		<tag k="name" v="Støa" />
		<tag k="name:no" v="Støa" />
		<tag k="place" v="locality" />
		<tag k="ssr:stedsnr" v="648655" />
	</node>
	<node id="-723000" lat="70.0356805572" lon="18.6535944486">
		<tag k="highway" v="path" />
		<tag k="name" v="Brattvegen" />
		<tag k="ssr:stedsnr" v="292469" />
	</node>
	<node id="-728397" lat="69.5228583358" lon="19.7385305423">
		<tag k="highway" v="path" />
		<tag k="name" v="Tømmerveien" />
		<tag k="ssr:stedsnr" v="721583" />
	</node>
	<node id="-729544" lat="69.6517750001" lon="18.5121527639">
		<tag k="ford" v="yes" />
		<tag k="name" v="Vadet" />
		<tag k="place" v="locality" />
		<tag k="ssr:stedsnr" v="903005" />
	</node>
	<node id="-728775" lat="69.5482277818" lon="19.1333944435">
		<tag k="highway" v="path" />
		<tag k="name" v="Rødsandveien" />
		<tag k="ssr:stedsnr" v="781333" />
	</node>
	<node id="-723393" lat="69.9347222252" lon="18.0107388923">
		<tag k="name" v="Arholmleia" />
		<tag k="place" v="locality" />
		<tag k="ssr:stedsnr" v="349771" />
	</node>
	<node id="-723392" lat="69.9657027758" lon="18.1202194348">
		<tag k="name" v="Storleia" />
		<tag k="place" v="locality" />
		<tag k="ssr:stedsnr" v="349706" />
	</node>
	<node id="-729279" lat="69.551275001" lon="18.0730638881">
		<tag k="highway" v="path" />
		<tag k="name" v="Storstien" />
		<tag k="ssr:stedsnr" v="843377" />
	</node>
	<node id="-726590" lat="69.6270361089" lon="18.947277781">
		<tag k="man_made" v="quay" />
		<tag k="name" v="Solstrand" />
		<tag k="place" v="locality" />
		<tag k="ssr:stedsnr" v="454143" />
	</node>
	<node id="-726844" lat="69.5700833366" lon="18.7710111141">
		<tag k="amenity" v="ferry_terminal" />
		<tag k="name" v="Larseng" />
		<tag k="ssr:stedsnr" v="517716" />
	</node>
	<node id="-723387" lat="69.6288638932" lon="18.172333328">
		<tag k="layer" v="-1" />
		<tag k="name" v="Sandneshamn" />
		<tag k="ssr:stedsnr" v="347778" />
		<tag k="tunnel" v="yes" />
	</node>
	<node id="-726840" lat="69.8135361108" lon="19.0146194364">
		<tag k="alt_name" v="Kvalsund" />
		<tag k="layer" v="-1" />
		<tag k="name" v="Kvalsundtunnelen" />
		<tag k="ssr:stedsnr" v="512101" />
		<tag k="tunnel" v="yes" />
	</node>
	<node id="-729142" lat="69.8617194486" lon="17.8708110996">
		<tag k="name" v="Brygdeleia" />
		<tag k="place" v="locality" />
		<tag k="ssr:stedsnr" v="836829" />
	</node>
	<node id="-724914" lat="69.6244027737" lon="19.046749992">
		<tag k="highway" v="path" />
		<tag k="name" v="Turistveien" />
		<tag k="ssr:stedsnr" v="113634" />
	</node>
	<node id="-725041" lat="69.6134111097" lon="18.0495888935">
		<tag k="highway" v="path" />
		<tag k="name" v="Stian" />
		<tag k="ssr:stedsnr" v="114752" />
	</node>
	<node id="-723120" lat="69.7182472236" lon="19.1288944409">
		<tag k="man_made" v="tower" />
		<tag k="name" v="Linken" />
		<tag k="ssr:stedsnr" v="296701" />
		<tag k="tower:type" v="communications" />
	</node>
	<node id="-727721" lat="69.6439861143" lon="18.9560444422">
		<tag k="alt_name" v="Sørjeteen" />
		<tag k="man_made" v="breakwater" />
		<tag k="name" v="Sørsjeteen" />
		<tag k="place" v="locality" />
		<tag k="ssr:stedsnr" v="630477" />
	</node>
	<node id="-726556" lat="70.0082166656" lon="18.1117861124">
		<tag k="name" v="Simabakkleia" />
		<tag k="place" v="locality" />
		<tag k="ssr:stedsnr" v="444297" />
	</node>
	<node id="-729507" lat="69.6482500015" lon="18.9606944456">
		<tag k="landuse" v="harbour" />
		<tag k="name" v="Prostneset" />
		<tag k="seamark:type" v="harbour" />
		<tag k="ssr:stedsnr" v="881471" />
	</node>
	<node id="-725023" lat="69.5048777819" lon="18.8547166628">
		<tag k="highway" v="path" />
		<tag k="name" v="Moveien" />
		<tag k="ssr:stedsnr" v="114641" />
	</node>
	<node id="-729629" lat="69.619749997" lon="18.2954527787">
		<tag k="highway" v="path" />
		<tag k="name" v="Stien" />
		<tag k="ssr:stedsnr" v="903769" />
	</node>
	<node id="-726940" lat="69.991616665" lon="18.6851722037">
		<tag k="fixme" v="verify maritime location" />
		<tag k="mooring" v="yes" />
		<tag k="name" v="Finnstøa" />
		<tag k="place" v="locality" />
		<tag k="ssr:stedsnr" v="535471" />
	</node>
	<node id="-727318" lat="69.900508336" lon="17.9173833298">
		<tag k="name" v="Havbåleia" />
		<tag k="place" v="locality" />
		<tag k="ssr:stedsnr" v="593774" />
	</node>
	<node id="-728720" lat="69.957494443" lon="18.7688944285">
		<tag k="fixme" v="verify maritime location" />
		<tag k="mooring" v="yes" />
		<tag k="name" v="Nausttofta" />
		<tag k="place" v="locality" />
		<tag k="ssr:stedsnr" v="777491" />
	</node>
	<node id="-728201" lat="69.6554055513" lon="18.971422222">
		<tag k="landuse" v="harbour" />
		<tag k="name" v="Pølsehamna" />
		<tag k="seamark:type" v="harbour" />
		<tag k="ssr:stedsnr" v="709195" />
	</node>
	<node id="-729608" lat="69.5930250018" lon="19.2564416502">
		<tag k="highway" v="path" />
		<tag k="name" v="Moveien" />
		<tag k="ssr:stedsnr" v="903586" />
	</node>
	<node id="-727943" lat="69.5191583354" lon="18.8565138914">
		<tag k="highway" v="path" />
		<tag k="name" v="Burmaveien" />
		<tag k="ssr:stedsnr" v="660607" />
	</node>
	<node id="-724102" lat="70.0528750008" lon="18.552097222">
		<tag k="fixme" v="verify maritime location" />
		<tag k="mooring" v="yes" />
		<tag k="name" v="Naustet" />
		<tag k="place" v="locality" />
		<tag k="ssr:stedsnr" v="899090" />
	</node>
	<node id="-725893" lat="69.5329416624" lon="18.3081527825">
		<tag k="highway" v="path" />
		<tag k="name" v="Skomakervegen" />
		<tag k="ssr:stedsnr" v="235720" />
	</node>
	<node id="-723990" lat="69.5704555595" lon="19.2040749818">
		<tag k="highway" v="path" />
		<tag k="name" v="Finnveien" />
		<tag k="ssr:stedsnr" v="478321" />
	</node>
</osm>
