<?xml version="1.0" encoding="UTF-8"?>
<osm generator="osmapis" version="0.6">
	<node id="-730111" lat="69.7089432978" lon="18.9238877947">
		<tag k="cemetery" v="grave" />
		<tag k="name" v="Sandnessundet gravlund" />
		<tag k="place" v="locality" />
		<tag k="ssr:stedsnr" v="979598" />
	</node>
	<node id="-729850" lat="69.6510194458" lon="19.0116722131">
		<tag k="name" v="Krøkebærsletta" />
		<tag k="ssr:stedsnr" v="942741" />
		<tag k="tourism" v="attraction" />
	</node>
	<node id="-724137" lat="69.7103068351" lon="18.925063515">
		<tag k="amenity" v="community_centre" />
		<tag k="name" v="Tromsø krematorium" />
		<tag k="ssr:stedsnr" v="982980" />
	</node>
	<node id="-726387" lat="69.4924083329" lon="18.8361860993">
		<tag k="cemetery" v="grave" />
		<tag k="name" v="Fredlund Kobbevåg" />
		<tag k="place" v="locality" />
		<tag k="ssr:stedsnr" v="424919" />
	</node>
	<node id="-727280" lat="69.6438638902" lon="18.9486861153">
		<tag k="name" v="Polaria" />
		<tag k="ssr:stedsnr" v="570467" />
		<tag k="tourism" v="attraction" />
	</node>
	<node id="-724136" lat="69.7102093163" lon="18.9250884149">
		<tag k="amenity" v="community_centre" />
		<tag k="name" v="Sállir seremonihus" />
		<tag k="ssr:stedsnr" v="982978" />
	</node>
	<node id="-729833" lat="69.6348416643" lon="18.9118916676">
		<tag k="name" v="Tromsø museum" />
		<tag k="ssr:stedsnr" v="934495" />
		<tag k="tourism" v="museum" />
	</node>
	<node id="-728674" lat="69.6487555531" lon="18.9565916713">
		<tag k="amenity" v="place_of_worship" />
		<tag k="denomination" v="lutheran" />
		<tag k="name" v="Tromsø domkirke" />
		<tag k="religion" v="christian" />
		<tag k="ssr:stedsnr" v="770174" />
	</node>
	<node id="-726236" lat="69.6502888883" lon="18.9250694321">
		<tag k="cemetery" v="grave" />
		<tag k="name" v="Elverhøy gravlund" />
		<tag k="place" v="locality" />
		<tag k="ssr:stedsnr" v="417043" />
	</node>
	<node id="-723926" lat="69.6512611102" lon="18.9979583179">
		<tag k="cemetery" v="grave" />
		<tag k="name" v="Tromsdalen kirkegård" />
		<tag k="place" v="locality" />
		<tag k="ssr:stedsnr" v="477046" />
	</node>
	<node id="-724691" lat="69.5981194409" lon="18.0317138895">
		<tag k="amenity" v="place_of_worship" />
		<tag k="denomination" v="lutheran" />
		<tag k="name" v="Hillesøy" />
		<tag k="religion" v="christian" />
		<tag k="ssr:stedsnr" v="79490" />
	</node>
	<node id="-728786" lat="69.7588472252" lon="19.6592611101">
		<tag k="cemetery" v="grave" />
		<tag k="name" v="Oldervik kirkegård" />
		<tag k="place" v="locality" />
		<tag k="ssr:stedsnr" v="781534" />
	</node>
	<node id="-724432" lat="69.8927388916" lon="18.6730833285">
		<tag k="amenity" v="place_of_worship" />
		<tag k="denomination" v="lutheran" />
		<tag k="name" v="Gåsvær kapell" />
		<tag k="religion" v="christian" />
		<tag k="ssr:stedsnr" v="49027" />
	</node>
	<node id="-729276" lat="69.6047527782" lon="18.8098833158">
		<tag k="amenity" v="community_centre" />
		<tag k="name" v="Bakketun" />
		<tag k="ssr:stedsnr" v="843329" />
	</node>
	<node id="-726199" lat="69.6793250007" lon="18.9606083253">
		<tag k="amenity" v="place_of_worship" />
		<tag k="denomination" v="lutheran" />
		<tag k="name" v="Grønnåsen kirke" />
		<tag k="religion" v="christian" />
		<tag k="ssr:stedsnr" v="266528" />
	</node>
	<node id="-725558" lat="69.5322805541" lon="19.6414749939">
		<tag k="amenity" v="place_of_worship" />
		<tag k="denomination" v="lutheran" />
		<tag k="fixme" v="multiple name tags, choose one and add the other to alt_name" />
		<tag k="name" v="Sjursnes;Ullsfjord" />
		<tag k="religion" v="christian" />
		<tag k="ssr:stedsnr" v="200072" />
	</node>
	<node id="-726577" lat="69.6366500029" lon="18.9062527859">
		<tag k="name" v="Troms folkemuseum" />
		<tag k="ssr:stedsnr" v="449486" />
		<tag k="tourism" v="museum" />
	</node>
	<node id="-726960" lat="69.6537444414" lon="18.9404861071">
		<tag k="cemetery" v="grave" />
		<tag k="name" v="Tromsø gravlund" />
		<tag k="place" v="locality" />
		<tag k="ssr:stedsnr" v="538054" />
	</node>
	<node id="-728367" lat="69.562699999" lon="18.6758305562">
		<tag k="name" v="Bentsjordtun" />
		<tag k="ssr:stedsnr" v="721152" />
		<tag k="tourism" v="museum" />
	</node>
	<node id="-724138" lat="69.7102433322" lon="18.9249013034">
		<tag k="amenity" v="community_centre" />
		<tag k="name" v="Sállirsalen" />
		<tag k="ssr:stedsnr" v="982981" />
	</node>
	<node id="-726441" lat="69.6482055568" lon="18.9870527657">
		<tag k="amenity" v="place_of_worship" />
		<tag k="denomination" v="lutheran" />
		<tag k="fixme" v="multiple name tags, choose one and add the other to alt_name" />
		<tag k="loc_name" v="Ishavskatedralen" />
		<tag k="name" v="Tromsdalen;Tromsøysund" />
		<tag k="religion" v="christian" />
		<tag k="ssr:stedsnr" v="443345" />
	</node>
	<node id="-724008" lat="69.6471722248" lon="18.8075250071">
		<tag k="name" v="Prama" />
		<tag k="place" v="locality" />
		<tag k="ssr:stedsnr" v="478488" />
	</node>
	<node id="-728614" lat="69.6806111127" lon="18.7442249876">
		<tag k="amenity" v="place_of_worship" />
		<tag k="denomination" v="lutheran" />
		<tag k="loc_name" v="Kvaløya" />
		<tag k="name" v="Kvaløy" />
		<tag k="religion" v="christian" />
		<tag k="ssr:stedsnr" v="747396" />
	</node>
	<node id="-723232" lat="69.412041671" lon="19.649936107">
		<tag k="amenity" v="place_of_worship" />
		<tag k="denomination" v="lutheran" />
		<tag k="name" v="Lakselvbukt" />
		<tag k="religion" v="christian" />
		<tag k="ssr:stedsnr" v="322207" />
	</node>
	<node id="-725661" lat="70.0273166643" lon="18.5439805561">
		<tag k="alt_name" v="Kirkevær" />
		<tag k="cemetery" v="grave" />
		<tag k="name" v="Kjerkevær" />
		<tag k="place" v="locality" />
		<tag k="ssr:stedsnr" v="201276" />
	</node>
	<node id="-724225" lat="69.648458338" lon="18.9213305411">
		<tag k="amenity" v="place_of_worship" />
		<tag k="denomination" v="lutheran" />
		<tag k="name" v="Elverhøy" />
		<tag k="religion" v="christian" />
		<tag k="ssr:stedsnr" v="18295" />
	</node>
</osm>
