<?xml version="1.0" encoding="UTF-8"?>
<osm generator="osmapis" version="0.6">
	<node id="-729088" lat="69.5357027754" lon="19.0637083156">
		<tag k="name" v="Nyrud" />
		<tag k="place" v="farm" />
		<tag k="ssr:stedsnr" v="813310" />
	</node>
	<node id="-722944" lat="69.5883472179" lon="18.2802777789">
		<tag k="name" v="Nedre Moen" />
		<tag k="place" v="isolated_dwelling" />
		<tag k="ssr:stedsnr" v="289671" />
	</node>
	<node id="-729085" lat="69.4004138907" lon="19.645033336">
		<tag k="name" v="Vollstad" />
		<tag k="place" v="farm" />
		<tag k="ssr:stedsnr" v="809570" />
	</node>
	<node id="-729084" lat="69.3918027806" lon="19.6199611126">
		<tag k="name" v="Skogan" />
		<tag k="place" v="farm" />
		<tag k="ssr:stedsnr" v="809568" />
	</node>
	<node id="-729083" lat="69.3685416709" lon="19.6151027672">
		<tag k="name" v="Olderli" />
		<tag k="place" v="farm" />
		<tag k="ssr:stedsnr" v="809559" />
	</node>
	<node id="-722938" lat="69.8353527826" lon="18.5856944312">
		<tag k="name" v="Myrsletta" />
		<tag k="place" v="isolated_dwelling" />
		<tag k="ssr:stedsnr" v="289141" />
	</node>
	<node id="-727033" lat="69.7063944475" lon="18.646713879">
		<tag k="name" v="Beritheimen" />
		<tag k="place" v="farm" />
		<tag k="ssr:stedsnr" v="539228" />
	</node>
	<node id="-729080" lat="69.5654166678" lon="18.6715111122">
		<tag k="name" v="Straumsgården" />
		<tag k="place" v="farm" />
		<tag k="ssr:stedsnr" v="809467" />
	</node>
	<node id="-729078" lat="69.9769250002" lon="18.825305539">
		<tag k="name" v="Skoglund" />
		<tag k="place" v="isolated_dwelling" />
		<tag k="ssr:stedsnr" v="808871" />
	</node>
	<node id="-723625" lat="69.5611749996" lon="18.7416694496">
		<tag k="alt_name" v="Skavberg" />
		<tag k="name" v="Skavberget" />
		<tag k="place" v="hamlet" />
		<tag k="ssr:stedsnr" v="382243" />
	</node>
	<node id="-727027" lat="69.6001027796" lon="19.8728472044">
		<tag k="name" v="Bjørketun" />
		<tag k="place" v="farm" />
		<tag k="ssr:stedsnr" v="539155" />
	</node>
	<node id="-727026" lat="69.533175002" lon="18.6409610984">
		<tag k="name" v="Skoglund" />
		<tag k="place" v="farm" />
		<tag k="ssr:stedsnr" v="539146" />
	</node>
	<node id="-726965" lat="69.5506722223" lon="18.9610972062">
		<tag k="name" v="Holmesletta" />
		<tag k="place" v="hamlet" />
		<tag k="ssr:stedsnr" v="538236" />
	</node>
	<node id="-722941" lat="69.7728027816" lon="18.4170638777">
		<tag k="name" v="Tromvik" />
		<tag k="place" v="isolated_dwelling" />
		<tag k="ssr:stedsnr" v="289432" />
	</node>
	<node id="-729068" lat="70.0234638888" lon="18.7758722129">
		<tag k="loc_name:se" v="Girkoluokta" />
		<tag k="name" v="Finnkjerka" />
		<tag k="name:no" v="Finnkjerka" />
		<tag k="place" v="farm" />
		<tag k="ssr:stedsnr" v="808680" />
	</node>
	<node id="-729067" lat="69.7839666686" lon="19.4254361097">
		<tag k="name" v="Bjørklund" />
		<tag k="place" v="farm" />
		<tag k="ssr:stedsnr" v="808660" />
	</node>
	<node id="-729066" lat="69.7970277803" lon="19.5187722266">
		<tag k="alt_name" v="Lauvli" />
		<tag k="name" v="Løvli" />
		<tag k="place" v="farm" />
		<tag k="ssr:stedsnr" v="808656" />
	</node>
	<node id="-724966" lat="69.7578750007" lon="19.1945361046">
		<tag k="name" v="Mellomås" />
		<tag k="place" v="farm" />
		<tag k="ssr:stedsnr" v="114705" />
	</node>
	<node id="-723341" lat="69.5462888885" lon="18.4780416628">
		<tag k="name" v="Nordre Mjelde" />
		<tag k="place" v="farm" />
		<tag k="ssr:stedsnr" v="328546" />
	</node>
	<node id="-727035" lat="69.5606444441" lon="18.7247027629">
		<tag k="name" v="Straumhella" />
		<tag k="place" v="neighbourhood" />
		<tag k="ssr:stedsnr" v="539262" />
	</node>
	<node id="-729056" lat="69.5613444409" lon="19.1822472047">
		<tag k="fixme" v="consider place=hamlet" />
		<tag k="name" v="Fagernes - Vávrrosnjárga" />
		<tag k="name:no" v="Fagernes" />
		<tag k="name:se" v="Vávrrosnjárga" />
		<tag k="place" v="village" />
		<tag k="ssr:stedsnr" v="808250" />
	</node>
	<node id="-722911" lat="69.6561277822" lon="19.5675527576">
		<tag k="fixme" v="consider place=hamlet" />
		<tag k="name" v="Breivikeidet - Guohcavuopmi" />
		<tag k="name:no" v="Breivikeidet" />
		<tag k="name:se" v="Guohcavuopmi" />
		<tag k="place" v="village" />
		<tag k="ssr:stedsnr" v="274575" />
	</node>
	<node id="-723621" lat="69.4374972269" lon="19.5604055484">
		<tag k="name" v="Nyvoll" />
		<tag k="place" v="farm" />
		<tag k="ssr:stedsnr" v="382226" />
	</node>
	<node id="-723009" lat="69.5584805547" lon="18.9542416572">
		<tag k="name" v="Vollen" />
		<tag k="place" v="farm" />
		<tag k="ssr:stedsnr" v="295205" />
	</node>
	<node id="-724951" lat="69.6374638855" lon="19.439063888">
		<tag k="name" v="Vangen" />
		<tag k="place" v="farm" />
		<tag k="ssr:stedsnr" v="114140" />
	</node>
	<node id="-729484" lat="69.7741555591" lon="19.3582777833">
		<tag k="name" v="Sørmo" />
		<tag k="place" v="farm" />
		<tag k="ssr:stedsnr" v="869714" />
	</node>
	<node id="-724947" lat="69.6907000009" lon="19.0808861016">
		<tag k="amenity" v="school" />
		<tag k="name" v="Skjelnan skole" />
		<tag k="ssr:stedsnr" v="114271" />
	</node>
	<node id="-724946" lat="69.7020555517" lon="19.0848444324">
		<tag k="name" v="Seljelund" />
		<tag k="place" v="farm" />
		<tag k="ssr:stedsnr" v="114269" />
	</node>
	<node id="-726990" lat="69.6287250035" lon="18.7243833209">
		<tag k="name" v="Kråa" />
		<tag k="place" v="farm" />
		<tag k="ssr:stedsnr" v="538563" />
	</node>
	<node id="-725325" lat="69.8271444409" lon="18.4440722225">
		<tag k="name" v="Haugan" />
		<tag k="place" v="locality" />
		<tag k="ssr:stedsnr" v="168104" />
	</node>
	<node id="-724918" lat="69.6524777791" lon="18.9267388781">
		<tag k="name" v="Elverhøy" />
		<tag k="place" v="suburb" />
		<tag k="ssr:stedsnr" v="113044" />
	</node>
	<node id="-726982" lat="69.5333222239" lon="19.6410555575">
		<tag k="amenity" v="school" />
		<tag k="name" v="Sjursnes skole" />
		<tag k="ssr:stedsnr" v="538364" />
	</node>
	<node id="-729029" lat="69.7731944457" lon="18.1336388787">
		<tag k="name" v="Gammelgården" />
		<tag k="place" v="isolated_dwelling" />
		<tag k="ssr:stedsnr" v="808107" />
	</node>
	<node id="-724932" lat="69.5301777803" lon="18.5961916657">
		<tag k="name" v="Skogstad" />
		<tag k="place" v="farm" />
		<tag k="ssr:stedsnr" v="114107" />
	</node>
	<node id="-729025" lat="69.5070833309" lon="19.7128110874">
		<tag k="name" v="Vågen" />
		<tag k="place" v="farm" />
		<tag k="ssr:stedsnr" v="808085" />
	</node>
	<node id="-729022" lat="69.8442944449" lon="18.5776527855">
		<tag k="name" v="Voll" />
		<tag k="place" v="farm" />
		<tag k="ssr:stedsnr" v="808043" />
	</node>
	<node id="-726971" lat="69.4605111105" lon="19.6254583334">
		<tag k="name" v="Vidal" />
		<tag k="place" v="farm" />
		<tag k="ssr:stedsnr" v="538303" />
	</node>
	<node id="-724920" lat="69.661908329" lon="18.9411916666">
		<tag k="amenity" v="university" />
		<tag k="name" v="Nordlysobservatoriet" />
		<tag k="ssr:stedsnr" v="113125" />
	</node>
	<node id="-729014" lat="69.8478583383" lon="18.6512249883">
		<tag k="name" v="Storsteinvik" />
		<tag k="place" v="isolated_dwelling" />
		<tag k="ssr:stedsnr" v="807990" />
	</node>
	<node id="-729013" lat="69.8411972235" lon="18.8635944322">
		<tag k="alt_name" v="Trondjorda" />
		<tag k="name" v="Trondjord" />
		<tag k="place" v="farm" />
		<tag k="ssr:stedsnr" v="807979" />
	</node>
	<node id="-726959" lat="69.6591611147" lon="18.9426166537">
		<tag k="name" v="Forhåpningen" />
		<tag k="place" v="suburb" />
		<tag k="ssr:stedsnr" v="538046" />
	</node>
	<node id="-729005" lat="69.8085472198" lon="19.0075527629">
		<tag k="name" v="Solveg" />
		<tag k="place" v="isolated_dwelling" />
		<tag k="ssr:stedsnr" v="807952" />
	</node>
	<node id="-729004" lat="69.8147638868" lon="19.0303388847">
		<tag k="name" v="Nordhella" />
		<tag k="place" v="farm" />
		<tag k="ssr:stedsnr" v="807949" />
	</node>
	<node id="-726002" lat="69.5617750007" lon="19.7335833105">
		<tag k="name" v="Heggeli" />
		<tag k="place" v="farm" />
		<tag k="ssr:stedsnr" v="261080" />
	</node>
	<node id="-726952" lat="69.6346416699" lon="18.9237110942">
		<tag k="amenity" v="school" />
		<tag k="name" v="Bjerkaker skole" />
		<tag k="ssr:stedsnr" v="537663" />
	</node>
	<node id="-728999" lat="69.7963361135" lon="19.0650750069">
		<tag k="name" v="Skulgammen" />
		<tag k="place" v="farm" />
		<tag k="ssr:stedsnr" v="807909" />
	</node>
	<node id="-728996" lat="69.4664499957" lon="18.9057111104">
		<tag k="name" v="Myrvang" />
		<tag k="place" v="isolated_dwelling" />
		<tag k="ssr:stedsnr" v="807855" />
	</node>
	<node id="-726000" lat="69.5211527741" lon="19.2487861003">
		<tag k="name" v="Steinnes" />
		<tag k="place" v="farm" />
		<tag k="ssr:stedsnr" v="261073" />
	</node>
	<node id="-728984" lat="69.6427749986" lon="18.0035388835">
		<tag k="name" v="Svensgård" />
		<tag k="place" v="isolated_dwelling" />
		<tag k="ssr:stedsnr" v="807675" />
	</node>
	<node id="-724885" lat="69.8517166652" lon="18.8184861127">
		<tag k="name" v="Vaagen" />
		<tag k="place" v="farm" />
		<tag k="ssr:stedsnr" v="110236" />
	</node>
	<node id="-725598" lat="69.5618444424" lon="18.6005638908">
		<tag k="name" v="Kvitberg" />
		<tag k="place" v="farm" />
		<tag k="ssr:stedsnr" v="200584" />
	</node>
	<node id="-728971" lat="69.5976704001" lon="18.28531016">
		<tag k="name" v="Skjånes" />
		<tag k="place" v="farm" />
		<tag k="ssr:stedsnr" v="807607" />
	</node>
	<node id="-726919" lat="69.8267972201" lon="18.916994426">
		<tag k="name" v="Kårvik Søndre" />
		<tag k="place" v="isolated_dwelling" />
		<tag k="ssr:stedsnr" v="535255" />
	</node>
	<node id="-725414" lat="69.6765388892" lon="18.9648333396">
		<tag k="amenity" v="school" />
		<tag k="name" v="Grønnåsen skole" />
		<tag k="ssr:stedsnr" v="174140" />
	</node>
	<node id="-728965" lat="69.5549805589" lon="18.0414083366">
		<tag k="name" v="Torsnes" />
		<tag k="place" v="isolated_dwelling" />
		<tag k="ssr:stedsnr" v="807579" />
	</node>
	<node id="-724865" lat="69.8385722262" lon="18.4118166573">
		<tag k="name" v="Ljøsøya" />
		<tag k="place" v="farm" />
		<tag k="ssr:stedsnr" v="110045" />
	</node>
	<node id="-728957" lat="69.6096805574" lon="18.0518055512">
		<tag k="name" v="Naustvoll" />
		<tag k="place" v="farm" />
		<tag k="ssr:stedsnr" v="807522" />
	</node>
	<node id="-724858" lat="69.7121305515" lon="18.9417166686">
		<tag k="name" v="Solbakken" />
		<tag k="place" v="isolated_dwelling" />
		<tag k="ssr:stedsnr" v="109322" />
	</node>
	<node id="-724857" lat="69.8435750018" lon="18.9827666541">
		<tag k="name" v="Elvejord" />
		<tag k="place" v="farm" />
		<tag k="ssr:stedsnr" v="109133" />
	</node>
	<node id="-728952" lat="69.5302972239" lon="18.3008194514">
		<tag k="name" v="Bakkland" />
		<tag k="place" v="farm" />
		<tag k="ssr:stedsnr" v="807430" />
	</node>
	<node id="-726903" lat="69.4689138875" lon="19.061877766">
		<tag k="name" v="Lars-Andersaheimen" />
		<tag k="place" v="locality" />
		<tag k="ssr:stedsnr" v="534743" />
	</node>
	<node id="-726902" lat="69.5035861134" lon="18.994941672">
		<tag k="name" v="Kubergan" />
		<tag k="place" v="farm" />
		<tag k="ssr:stedsnr" v="534720" />
	</node>
	<node id="-729416" lat="69.8688194468" lon="18.9016555441">
		<tag k="alt_name" v="Lauvstad;Laustad" />
		<tag k="name" v="Løvstad" />
		<tag k="place" v="isolated_dwelling" />
		<tag k="ssr:stedsnr" v="868725" />
	</node>
	<node id="-728948" lat="69.6944055559" lon="18.9328972217">
		<tag k="name" v="Sandnes" />
		<tag k="place" v="farm" />
		<tag k="ssr:stedsnr" v="807408" />
	</node>
	<node id="-728947" lat="69.6863888913" lon="19.0031916565">
		<tag k="alt_name" v="Nygard" />
		<tag k="name" v="Nygård" />
		<tag k="place" v="suburb" />
		<tag k="ssr:stedsnr" v="807405" />
	</node>
	<node id="-728945" lat="69.6839416669" lon="19.0696472151">
		<tag k="name" v="Kroken - Biežavággi" />
		<tag k="name:no" v="Kroken" />
		<tag k="name:se" v="Biežavággi" />
		<tag k="place" v="suburb" />
		<tag k="ssr:stedsnr" v="807402" />
	</node>
	<node id="-724847" lat="69.5959527772" lon="18.2845888817">
		<tag k="name" v="Solli" />
		<tag k="place" v="isolated_dwelling" />
		<tag k="ssr:stedsnr" v="107630" />
	</node>
	<node id="-724846" lat="69.9550861082" lon="18.790836097">
		<tag k="name" v="Solvang" />
		<tag k="place" v="isolated_dwelling" />
		<tag k="ssr:stedsnr" v="107573" />
	</node>
	<node id="-728941" lat="69.6055472242" lon="18.8333166612">
		<tag k="fixme" v="consider place=hamlet" />
		<tag k="name" v="Tisnes" />
		<tag k="place" v="village" />
		<tag k="ssr:stedsnr" v="807341" />
	</node>
	<node id="-726892" lat="69.7129583296" lon="19.0025999976">
		<tag k="name" v="Nesland" />
		<tag k="place" v="farm" />
		<tag k="ssr:stedsnr" v="533315" />
	</node>
	<node id="-728939" lat="69.6501694422" lon="18.8148527652">
		<tag k="name" v="Håkøybøen" />
		<tag k="place" v="farm" />
		<tag k="ssr:stedsnr" v="807301" />
	</node>
	<node id="-728937" lat="69.5302111142" lon="19.0080583207">
		<tag k="name" v="Ramfjordnes" />
		<tag k="place" v="farm" />
		<tag k="ssr:stedsnr" v="807292" />
	</node>
	<node id="-728936" lat="69.5353972208" lon="18.9962944413">
		<tag k="name" v="Nyrud" />
		<tag k="place" v="farm" />
		<tag k="ssr:stedsnr" v="807290" />
	</node>
	<node id="-724625" lat="69.5626750018" lon="19.6785499918">
		<tag k="name" v="Bergenes" />
		<tag k="place" v="farm" />
		<tag k="ssr:stedsnr" v="79093" />
	</node>
	<node id="-726884" lat="69.5017749993" lon="19.7081916519">
		<tag k="name" v="Holmbukt" />
		<tag k="place" v="farm" />
		<tag k="ssr:stedsnr" v="532504" />
	</node>
	<node id="-728930" lat="69.5428888921" lon="18.7680583381">
		<tag k="fixme" v="consider place=hamlet" />
		<tag k="name" v="Vikran" />
		<tag k="place" v="village" />
		<tag k="ssr:stedsnr" v="807249" />
	</node>
	<node id="-728929" lat="69.4299750038" lon="19.6558805455">
		<tag k="name" v="Bakkeslett" />
		<tag k="place" v="isolated_dwelling" />
		<tag k="ssr:stedsnr" v="807228" />
	</node>
	<node id="-726880" lat="69.5889694463" lon="18.2881472129">
		<tag k="name" v="Bakkevoll" />
		<tag k="place" v="farm" />
		<tag k="ssr:stedsnr" v="532096" />
	</node>
	<node id="-728927" lat="69.3942611127" lon="19.5102972053">
		<tag k="loc_name:se" v="Čokča" />
		<tag k="name" v="Sandbakk" />
		<tag k="name:no" v="Sandbakk" />
		<tag k="place" v="farm" />
		<tag k="ssr:stedsnr" v="807196" />
	</node>
	<node id="-726878" lat="69.6303777762" lon="18.3580027724">
		<tag k="name" v="Heimstad" />
		<tag k="place" v="isolated_dwelling" />
		<tag k="ssr:stedsnr" v="531942" />
	</node>
	<node id="-728925" lat="69.7460166673" lon="19.688472216">
		<tag k="name" v="Kastnes" />
		<tag k="place" v="isolated_dwelling" />
		<tag k="ssr:stedsnr" v="807193" />
	</node>
	<node id="-726876" lat="69.6042333354" lon="18.0507249862">
		<tag k="name" v="Øyra" />
		<tag k="place" v="farm" />
		<tag k="ssr:stedsnr" v="531615" />
	</node>
	<node id="-728923" lat="69.3705166694" lon="19.6174305516">
		<tag k="name" v="Elvevoll" />
		<tag k="place" v="farm" />
		<tag k="ssr:stedsnr" v="807171" />
	</node>
	<node id="-728922" lat="69.5660833361" lon="19.7409777674">
		<tag k="name" v="Stakkenes" />
		<tag k="place" v="farm" />
		<tag k="ssr:stedsnr" v="807169" />
	</node>
	<node id="-728919" lat="69.6109694442" lon="19.7912972133">
		<tag k="name" v="Vik" />
		<tag k="place" v="farm" />
		<tag k="ssr:stedsnr" v="807139" />
	</node>
	<node id="-726870" lat="69.531961114" lon="18.1536527696">
		<tag k="name" v="Pervollen" />
		<tag k="place" v="farm" />
		<tag k="ssr:stedsnr" v="539450" />
	</node>
	<node id="-728917" lat="69.609105556" lon="19.713863887">
		<tag k="alt_name:no" v="Skardmunken;Skarmok" />
		<tag k="loc_name:no" v="Skarmokk" />
		<tag k="name" v="Skarmunken - Skárramohkki" />
		<tag k="name:no" v="Skarmunken" />
		<tag k="name:se" v="Skárramohkki" />
		<tag k="place" v="hamlet" />
		<tag k="ssr:stedsnr" v="807137" />
	</node>
	<node id="-725646" lat="69.5340138884" lon="19.2233888768">
		<tag k="name" v="Fagerelv" />
		<tag k="place" v="farm" />
		<tag k="ssr:stedsnr" v="201070" />
	</node>
	<node id="-726866" lat="69.4423694488" lon="19.5780222188">
		<tag k="name" v="Nordgård" />
		<tag k="place" v="farm" />
		<tag k="ssr:stedsnr" v="539433" />
	</node>
	<node id="-726865" lat="69.4465888876" lon="19.5884916501">
		<tag k="name" v="Stordalen" />
		<tag k="place" v="farm" />
		<tag k="ssr:stedsnr" v="539432" />
	</node>
	<node id="-728912" lat="69.5292527811" lon="19.6355749883">
		<tag k="name" v="Vangberg" />
		<tag k="place" v="farm" />
		<tag k="ssr:stedsnr" v="807099" />
	</node>
	<node id="-724814" lat="69.5487361114" lon="18.5255111096">
		<tag k="name" v="Bildvik" />
		<tag k="place" v="farm" />
		<tag k="ssr:stedsnr" v="86575" />
	</node>
	<node id="-728908" lat="69.9731222205" lon="18.5232055606">
		<tag k="name" v="Risøy" />
		<tag k="place" v="farm" />
		<tag k="ssr:stedsnr" v="807074" />
	</node>
	<node id="-728906" lat="69.5421728101" lon="19.7249373025">
		<tag k="name" v="Solstad" />
		<tag k="place" v="farm" />
		<tag k="ssr:stedsnr" v="807068" />
	</node>
	<node id="-724808" lat="69.6733750003" lon="18.9753305527">
		<tag k="name" v="Nordhaug" />
		<tag k="place" v="isolated_dwelling" />
		<tag k="ssr:stedsnr" v="85594" />
	</node>
	<node id="-724806" lat="69.6685444421" lon="18.9656249797">
		<tag k="name" v="Guleng" />
		<tag k="place" v="farm" />
		<tag k="ssr:stedsnr" v="85448" />
	</node>
	<node id="-724805" lat="69.633505559" lon="18.9064610962">
		<tag k="leisure" v="park" />
		<tag k="name" v="Folkeparken" />
		<tag k="ssr:stedsnr" v="85438" />
	</node>
	<node id="-724801" lat="69.6907750043" lon="18.7135944343">
		<tag k="name" v="Gammelheimen" />
		<tag k="place" v="locality" />
		<tag k="ssr:stedsnr" v="82389" />
	</node>
	<node id="-726847" lat="69.6581472237" lon="19.0205694437">
		<tag k="name" v="Slettmo" />
		<tag k="place" v="isolated_dwelling" />
		<tag k="ssr:stedsnr" v="525120" />
	</node>
	<node id="-726845" lat="69.6502083349" lon="18.8150749969">
		<tag k="name" v="Håkøybøen" />
		<tag k="place" v="farm" />
		<tag k="ssr:stedsnr" v="525062" />
	</node>
	<node id="-728892" lat="69.4897444444" lon="18.8319166693">
		<tag k="fixme" v="consider place=hamlet" />
		<tag k="name" v="Indre Kobbevågen" />
		<tag k="place" v="farm" />
		<tag k="ssr:stedsnr" v="787904" />
	</node>
	<node id="-726843" lat="69.6960249976" lon="18.9976833224">
		<tag k="name" v="Stakkevollan" />
		<tag k="place" v="suburb" />
		<tag k="ssr:stedsnr" v="517022" />
	</node>
	<node id="-728889" lat="69.6831222235" lon="18.9920861058">
		<tag k="name" v="Løvstad" />
		<tag k="place" v="isolated_dwelling" />
		<tag k="ssr:stedsnr" v="785038" />
	</node>
	<node id="-728888" lat="69.6966805541" lon="18.9486138819">
		<tag k="name" v="Bergli" />
		<tag k="place" v="isolated_dwelling" />
		<tag k="ssr:stedsnr" v="785037" />
	</node>
	<node id="-728887" lat="69.7051138857" lon="18.9219277783">
		<tag k="name" v="Vidnes" />
		<tag k="place" v="farm" />
		<tag k="ssr:stedsnr" v="785031" />
	</node>
	<node id="-728886" lat="69.7173166631" lon="18.9449083224">
		<tag k="name" v="Rydningen" />
		<tag k="place" v="farm" />
		<tag k="ssr:stedsnr" v="785029" />
	</node>
	<node id="-728885" lat="69.6851333296" lon="18.9098888846">
		<tag k="name" v="Grindnes" />
		<tag k="place" v="isolated_dwelling" />
		<tag k="ssr:stedsnr" v="785025" />
	</node>
	<node id="-726835" lat="69.645586116" lon="18.9114555464">
		<tag k="name" v="Nordre Hansmark" />
		<tag k="place" v="farm" />
		<tag k="ssr:stedsnr" v="510815" />
	</node>
	<node id="-726834" lat="69.6817472224" lon="18.7217194314">
		<tag k="name" v="Osken" />
		<tag k="place" v="farm" />
		<tag k="ssr:stedsnr" v="510684" />
	</node>
	<node id="-724784" lat="69.9511138878" lon="18.8406166664">
		<tag k="name" v="Øyhamn" />
		<tag k="place" v="farm" />
		<tag k="ssr:stedsnr" v="80855" />
	</node>
	<node id="-730077" lat="69.7413607808" lon="19.1431542691">
		<tag k="name" v="Ørretholmen" />
		<tag k="place" v="farm" />
		<tag k="ssr:stedsnr" v="973925" />
	</node>
	<node id="-723250" lat="69.6165305601" lon="18.8089027643">
		<tag k="name" v="Småsletta" />
		<tag k="place" v="farm" />
		<tag k="ssr:stedsnr" v="322341" />
	</node>
	<node id="-728487" lat="69.4330055522" lon="19.6047388845">
		<tag k="alt_name:no" v="Lakselvnes, in;Lakselv indre" />
		<tag k="loc_name:se" v="Njunnássiida" />
		<tag k="name" v="Indre Lakselvnes" />
		<tag k="name:no" v="Indre Lakselvnes" />
		<tag k="place" v="farm" />
		<tag k="ssr:stedsnr" v="746232" />
	</node>
	<node id="-726823" lat="69.6758611086" lon="18.9559444354">
		<tag k="leisure" v="pitch" />
		<tag k="name" v="Tromsøhallen" />
		<tag k="ssr:stedsnr" v="509492" />
	</node>
	<node id="-723003" lat="69.5054583315" lon="18.9971500012">
		<tag k="name" v="Indre Andersdal" />
		<tag k="place" v="farm" />
		<tag k="ssr:stedsnr" v="292704" />
	</node>
	<node id="-726821" lat="70.0300166666" lon="18.6674444511">
		<tag k="name" v="Skitnvika" />
		<tag k="place" v="farm" />
		<tag k="ssr:stedsnr" v="505721" />
	</node>
	<node id="-726662" lat="69.7119583352" lon="18.4063222139">
		<tag k="loc_name" v="Myrneset" />
		<tag k="name" v="Myrnes" />
		<tag k="place" v="farm" />
		<tag k="ssr:stedsnr" v="503585" />
	</node>
	<node id="-724768" lat="69.8382416707" lon="18.5787611001">
		<tag k="name" v="Grønvoll" />
		<tag k="place" v="farm" />
		<tag k="ssr:stedsnr" v="80212" />
	</node>
	<node id="-728860" lat="69.4333999976" lon="19.6456861097">
		<tag k="amenity" v="school" />
		<tag k="name" v="Lakselvbukt skole" />
		<tag k="ssr:stedsnr" v="782429" />
	</node>
	<node id="-724763" lat="69.758147222" lon="18.4223444525">
		<tag k="name" v="Åneskallen" />
		<tag k="place" v="locality" />
		<tag k="ssr:stedsnr" v="80168" />
	</node>
	<node id="-723247" lat="69.6265138929" lon="18.9539694307">
		<tag k="fixme" v="consider place=suburb, village or hamlet" />
		<tag k="loc_name" v="Gammelgård" />
		<tag k="name" v="Gammelgården" />
		<tag k="place" v="quarter" />
		<tag k="ssr:stedsnr" v="322328" />
	</node>
	<node id="-726806" lat="69.777263886" lon="19.0469249889">
		<tag k="name" v="Lauvli" />
		<tag k="place" v="farm" />
		<tag k="ssr:stedsnr" v="504903" />
	</node>
	<node id="-723929" lat="69.482191668" lon="18.8506666677">
		<tag k="name" v="Selstad" />
		<tag k="place" v="farm" />
		<tag k="ssr:stedsnr" v="477185" />
	</node>
	<node id="-724752" lat="69.8519694473" lon="18.9409833218">
		<tag k="alt_name" v="Hestevik" />
		<tag k="name" v="Hestvika" />
		<tag k="place" v="farm" />
		<tag k="ssr:stedsnr" v="79997" />
	</node>
	<node id="-724748" lat="69.838044442" lon="18.895633327">
		<tag k="name" v="Risvik" />
		<tag k="place" v="farm" />
		<tag k="ssr:stedsnr" v="79973" />
	</node>
	<node id="-726793" lat="69.9011666672" lon="18.7846277814">
		<tag k="alt_name" v="Store Finnvik" />
		<tag k="name" v="Finnvik" />
		<tag k="place" v="farm" />
		<tag k="ssr:stedsnr" v="504797" />
	</node>
	<node id="-726784" lat="69.6547055546" lon="18.1583666531">
		<tag k="name" v="Bø" />
		<tag k="place" v="farm" />
		<tag k="ssr:stedsnr" v="504716" />
	</node>
	<node id="-728831" lat="69.5994638859" lon="19.8750416402">
		<tag k="name" v="Bjørkely" />
		<tag k="place" v="farm" />
		<tag k="ssr:stedsnr" v="782175" />
	</node>
	<node id="-728828" lat="69.5711444434" lon="18.6537194512">
		<tag k="name" v="Breistrand" />
		<tag k="place" v="farm" />
		<tag k="ssr:stedsnr" v="782130" />
	</node>
	<node id="-726775" lat="69.776697221" lon="19.396988883">
		<tag k="alt_name:no" v="Skitnelv" />
		<tag k="fixme" v="consider place=hamlet" />
		<tag k="name" v="Skittenelv - Baikajohka" />
		<tag k="name:no" v="Skittenelv" />
		<tag k="name:se" v="Baikajohka" />
		<tag k="place" v="village" />
		<tag k="ssr:stedsnr" v="504674" />
	</node>
	<node id="-726769" lat="69.782794448" lon="19.4525638788">
		<tag k="fixme" v="consider place=hamlet" />
		<tag k="name" v="Jøvika - Čietnjalluokta" />
		<tag k="name:no" v="Jøvika" />
		<tag k="name:se" v="Čietnjalluokta" />
		<tag k="place" v="farm" />
		<tag k="ssr:stedsnr" v="504653" />
	</node>
	<node id="-728816" lat="69.6439500002" lon="18.9949360961">
		<tag k="name" v="Storsteintun" />
		<tag k="place" v="square" />
		<tag k="ssr:stedsnr" v="781817" />
	</node>
	<node id="-724719" lat="70.0232249972" lon="18.7760472263">
		<tag k="name" v="Trettevollen" />
		<tag k="old_name" v="Trettvollen" />
		<tag k="place" v="isolated_dwelling" />
		<tag k="ssr:stedsnr" v="79638" />
	</node>
	<node id="-726763" lat="69.5925527778" lon="18.2935833252">
		<tag k="name" v="Bergum" />
		<tag k="place" v="farm" />
		<tag k="ssr:stedsnr" v="504615" />
	</node>
	<node id="-726762" lat="69.5856750036" lon="18.2768305451">
		<tag k="alt_name" v="Sørfjord, in" />
		<tag k="name" v="Indre Sørfjord" />
		<tag k="place" v="farm" />
		<tag k="ssr:stedsnr" v="504612" />
	</node>
	<node id="-726758" lat="69.6126611125" lon="18.3353749887">
		<tag k="name" v="Synnøvjorda" />
		<tag k="place" v="hamlet" />
		<tag k="ssr:stedsnr" v="504523" />
	</node>
	<node id="-726755" lat="69.5891916656" lon="18.0590888789">
		<tag k="alt_name" v="Myrseth" />
		<tag k="name" v="Myrset" />
		<tag k="place" v="isolated_dwelling" />
		<tag k="ssr:stedsnr" v="504509" />
	</node>
	<node id="-724705" lat="69.568269449" lon="18.1959777741">
		<tag k="name" v="Vollan" />
		<tag k="place" v="locality" />
		<tag k="ssr:stedsnr" v="79563" />
	</node>
	<node id="-726956" lat="69.5303333334" lon="19.0571611165">
		<tag k="name" v="Ytre Kristofferjord" />
		<tag k="place" v="farm" />
		<tag k="ssr:stedsnr" v="537959" />
	</node>
	<node id="-728796" lat="69.7020333288" lon="18.9769111134">
		<tag k="amenity" v="kindergarten" />
		<tag k="name" v="Kvitungen" />
		<tag k="ssr:stedsnr" v="781626" />
	</node>
	<node id="-724695" lat="69.6081222213" lon="18.3106666607">
		<tag k="name" v="Steinsland" />
		<tag k="place" v="farm" />
		<tag k="ssr:stedsnr" v="79496" />
	</node>
	<node id="-726742" lat="69.6963250029" lon="18.8888833175">
		<tag k="name" v="Sletta" />
		<tag k="place" v="farm" />
		<tag k="ssr:stedsnr" v="504388" />
	</node>
	<node id="-726741" lat="69.6943250033" lon="18.6428083189">
		<tag k="name" v="Nybygget" />
		<tag k="place" v="isolated_dwelling" />
		<tag k="ssr:stedsnr" v="504381" />
	</node>
	<node id="-725283" lat="69.680924289" lon="19.2087633667">
		<tag k="fixme" v="consider tourism=alpine_hut or tourism=chalet" />
		<tag k="name" v="Blåkollkoia" />
		<tag k="ssr:stedsnr" v="142410" />
		<tag k="tourism" v="wilderness_hut" />
	</node>
	<node id="-724688" lat="69.7306222246" lon="18.6387916675">
		<tag k="name" v="Blåmannsvik" />
		<tag k="place" v="farm" />
		<tag k="ssr:stedsnr" v="79477" />
	</node>
	<node id="-726648" lat="69.6353555521" lon="19.4340944368">
		<tag k="alt_name" v="Krokeng" />
		<tag k="name" v="Krokenga" />
		<tag k="place" v="farm" />
		<tag k="ssr:stedsnr" v="503135" />
	</node>
	<node id="-724685" lat="69.5322916649" lon="18.601622217">
		<tag k="name" v="Gamnes" />
		<tag k="place" v="farm" />
		<tag k="ssr:stedsnr" v="79442" />
	</node>
	<node id="-728780" lat="69.631200002" lon="18.7480722175">
		<tag k="name" v="Torheim" />
		<tag k="place" v="farm" />
		<tag k="ssr:stedsnr" v="781465" />
	</node>
	<node id="-724682" lat="69.5526416631" lon="18.5753666546">
		<tag k="name" v="Skognes" />
		<tag k="place" v="farm" />
		<tag k="ssr:stedsnr" v="79426" />
	</node>
	<node id="-724680" lat="69.5410333345" lon="18.4361944307">
		<tag k="fixme" v="consider place=hamlet" />
		<tag k="name" v="Mjelde" />
		<tag k="place" v="village" />
		<tag k="ssr:stedsnr" v="79417" />
	</node>
	<node id="-726726" lat="69.5719027746" lon="18.944377766">
		<tag k="alt_name" v="Berg, yt;Ytre Berg" />
		<tag k="name" v="Berg" />
		<tag k="place" v="farm" />
		<tag k="ssr:stedsnr" v="504221" />
	</node>
	<node id="-724677" lat="69.6738722195" lon="18.9730749999">
		<tag k="alt_name" v="Breidvika" />
		<tag k="name" v="Breivika" />
		<tag k="place" v="suburb" />
		<tag k="ssr:stedsnr" v="79398" />
	</node>
	<node id="-726724" lat="69.4415333317" lon="19.5711611085">
		<tag k="loc_name:se" v="Davit Suortu" />
		<tag k="name" v="Stordalen" />
		<tag k="name:no" v="Stordalen" />
		<tag k="place" v="farm" />
		<tag k="ssr:stedsnr" v="504210" />
	</node>
	<node id="-724674" lat="69.7015888843" lon="18.6801722224">
		<tag k="alt_name" v="Fløybukt" />
		<tag k="name" v="Fløytbukta" />
		<tag k="place" v="farm" />
		<tag k="ssr:stedsnr" v="79376" />
	</node>
	<node id="-728768" lat="69.4857250037" lon="19.6717694333">
		<tag k="name" v="Sjøtun" />
		<tag k="place" v="farm" />
		<tag k="ssr:stedsnr" v="781282" />
	</node>
	<node id="-726717" lat="69.3907361089" lon="19.6194777783">
		<tag k="alt_name" v="Løvland" />
		<tag k="name" v="Løvlund" />
		<tag k="place" v="farm" />
		<tag k="ssr:stedsnr" v="504163" />
	</node>
	<node id="-726714" lat="69.3626833371" lon="19.628483335">
		<tag k="alt_name" v="Forramo" />
		<tag k="name" v="Forramoen" />
		<tag k="place" v="isolated_dwelling" />
		<tag k="ssr:stedsnr" v="504153" />
	</node>
	<node id="-724665" lat="69.6442388875" lon="18.9991611143">
		<tag k="loc_name:se" v="Sálašvággi" />
		<tag k="name" v="Tromsdalen" />
		<tag k="name:no" v="Tromsdalen" />
		<tag k="place" v="suburb" />
		<tag k="ssr:stedsnr" v="79315" />
	</node>
	<node id="-724663" lat="69.6540444492" lon="18.7755083206">
		<tag k="name" v="Einåsen" />
		<tag k="place" v="isolated_dwelling" />
		<tag k="ssr:stedsnr" v="79302" />
	</node>
	<node id="-723613" lat="69.7249111116" lon="19.6920305471">
		<tag k="name" v="Brattfjell - Árbi" />
		<tag k="name:no" v="Brattfjell" />
		<tag k="name:se" v="Árbi" />
		<tag k="place" v="hamlet" />
		<tag k="ssr:stedsnr" v="382197" />
	</node>
	<node id="-724660" lat="69.5411194437" lon="18.7264249824">
		<tag k="name" v="Bergmo" />
		<tag k="place" v="farm" />
		<tag k="ssr:stedsnr" v="79267" />
	</node>
	<node id="-724659" lat="69.534002777" lon="18.6610749859">
		<tag k="alt_name" v="Bentsjord" />
		<tag k="name" v="Bentsjorda" />
		<tag k="place" v="farm" />
		<tag k="ssr:stedsnr" v="79263" />
	</node>
	<node id="-724657" lat="69.5342638929" lon="18.6219666577">
		<tag k="name" v="Vollstad" />
		<tag k="place" v="farm" />
		<tag k="ssr:stedsnr" v="79259" />
	</node>
	<node id="-724654" lat="69.6607027747" lon="19.5997277758">
		<tag k="name" v="Brudal" />
		<tag k="place" v="farm" />
		<tag k="ssr:stedsnr" v="79216" />
	</node>
	<node id="-724653" lat="69.6555666624" lon="19.6268027784">
		<tag k="name" v="Krokstad" />
		<tag k="place" v="farm" />
		<tag k="ssr:stedsnr" v="79215" />
	</node>
	<node id="-724652" lat="69.6513305575" lon="19.5768166539">
		<tag k="name" v="Slettmo" />
		<tag k="old_name" v="Flalmo;Flatmo" />
		<tag k="place" v="farm" />
		<tag k="ssr:stedsnr" v="79211" />
	</node>
	<node id="-725276" lat="69.5965999987" lon="19.8911499947">
		<tag k="name" v="Øygard" />
		<tag k="place" v="farm" />
		<tag k="ssr:stedsnr" v="140982" />
	</node>
	<node id="-724646" lat="69.6085581927" lon="19.7655634253">
		<tag k="fixme" v="consider place=hamlet" />
		<tag k="name" v="Hjellnes - Jiellinjárga" />
		<tag k="name:no" v="Hjellnes" />
		<tag k="name:se" v="Jiellinjárga" />
		<tag k="place" v="farm" />
		<tag k="ssr:stedsnr" v="79183" />
	</node>
	<node id="-724645" lat="69.5819194457" lon="19.2600222164">
		<tag k="alt_name" v="Storslåtten" />
		<tag k="name" v="Storslått" />
		<tag k="place" v="farm" />
		<tag k="ssr:stedsnr" v="79179" />
	</node>
	<node id="-724644" lat="69.5749999986" lon="19.695036104">
		<tag k="name" v="Reierviknes" />
		<tag k="place" v="farm" />
		<tag k="ssr:stedsnr" v="79176" />
	</node>
	<node id="-726691" lat="69.4641111098" lon="19.6758638689">
		<tag k="alt_name:no" v="Hundberg" />
		<tag k="fixme" v="consider place=hamlet" />
		<tag k="name" v="Hundberget - Jovnniidnjárga" />
		<tag k="name:no" v="Hundberget" />
		<tag k="name:se" v="Jovnniidnjárga" />
		<tag k="place" v="farm" />
		<tag k="ssr:stedsnr" v="504009" />
	</node>
	<node id="-724641" lat="69.6158777772" lon="19.3958722192">
		<tag k="name" v="Solli" />
		<tag k="place" v="farm" />
		<tag k="ssr:stedsnr" v="79152" />
	</node>
	<node id="-728735" lat="69.7966694477" lon="19.0216444309">
		<tag k="name" v="Sørhelle" />
		<tag k="place" v="farm" />
		<tag k="ssr:stedsnr" v="778287" />
	</node>
	<node id="-726686" lat="69.8342361102" lon="18.6807361154">
		<tag k="name" v="Laukvika" />
		<tag k="place" v="isolated_dwelling" />
		<tag k="ssr:stedsnr" v="503996" />
	</node>
	<node id="-728005" lat="69.4875361078" lon="19.6713277717">
		<tag k="name" v="Trangen" />
		<tag k="place" v="isolated_dwelling" />
		<tag k="ssr:stedsnr" v="686016" />
	</node>
	<node id="-724632" lat="69.5162833303" lon="19.6303721998">
		<tag k="alt_name" v="Indre Sommarbukt" />
		<tag k="name" v="Sommarbukta" />
		<tag k="place" v="farm" />
		<tag k="ssr:stedsnr" v="79123" />
	</node>
	<node id="-725726" lat="69.7765944458" lon="19.2729555407">
		<tag k="fixme" v="consider place=hamlet" />
		<tag k="name" v="Vågnes - Skearronjárga" />
		<tag k="name:no" v="Vågnes" />
		<tag k="name:se" v="Skearronjárga" />
		<tag k="place" v="village" />
		<tag k="ssr:stedsnr" v="211916" />
	</node>
	<node id="-726674" lat="69.7919916636" lon="19.0265500046">
		<tag k="fixme" v="consider place=hamlet" />
		<tag k="name" v="Futrikelv" />
		<tag k="old_name" v="Futrikelva" />
		<tag k="place" v="village" />
		<tag k="ssr:stedsnr" v="503878" />
	</node>
	<node id="-728721" lat="69.9556166659" lon="18.7808138831">
		<tag k="name" v="Monsbu" />
		<tag k="place" v="isolated_dwelling" />
		<tag k="ssr:stedsnr" v="777493" />
	</node>
	<node id="-726672" lat="69.4726000034" lon="18.9013916672">
		<tag k="fixme" v="multiple name tags, choose one and add the other to alt_name" />
		<tag k="name" v="Nordvang;Sandbakken" />
		<tag k="place" v="farm" />
		<tag k="ssr:stedsnr" v="503825" />
	</node>
	<node id="-728719" lat="69.9566472254" lon="18.7719944402">
		<tag k="name" v="Lyngmo" />
		<tag k="place" v="isolated_dwelling" />
		<tag k="ssr:stedsnr" v="777489" />
	</node>
	<node id="-724621" lat="69.5156083334" lon="19.2320805465">
		<tag k="alt_name" v="Vesterlia, l" />
		<tag k="name" v="Litle Vesterlia" />
		<tag k="place" v="farm" />
		<tag k="ssr:stedsnr" v="79081" />
	</node>
	<node id="-724620" lat="69.5256638928" lon="19.6326666672">
		<tag k="alt_name:no" v="Sommarbukta, yt" />
		<tag k="fixme" v="multiple name tags, choose one and add the other to alt_name" />
		<tag k="loc_name:se" v="Goldinluokta" />
		<tag k="name" v="Sommarbukt;Ytre Sommarbukta" />
		<tag k="name:no" v="Sommarbukt;Ytre Sommarbukta" />
		<tag k="place" v="farm" />
		<tag k="ssr:stedsnr" v="79076" />
	</node>
	<node id="-724619" lat="69.5381999981" lon="19.6389999941">
		<tag k="name" v="Sjursnes - Várpenjárga" />
		<tag k="name:no" v="Sjursnes" />
		<tag k="name:se" v="Várpenjárga" />
		<tag k="place" v="hamlet" />
		<tag k="ssr:stedsnr" v="79071" />
	</node>
	<node id="-724617" lat="69.4843972236" lon="19.250977762">
		<tag k="loc_name:se" v="Skáhpevuovdi" />
		<tag k="name" v="Skavskogen" />
		<tag k="name:no" v="Skavskogen" />
		<tag k="place" v="farm" />
		<tag k="ssr:stedsnr" v="79022" />
	</node>
	<node id="-725180" lat="69.8815527768" lon="18.6994583321">
		<tag k="name" v="Valen" />
		<tag k="place" v="farm" />
		<tag k="ssr:stedsnr" v="139768" />
	</node>
	<node id="-724614" lat="69.4655999977" lon="19.6818888801">
		<tag k="name" v="Bruvoll" />
		<tag k="place" v="farm" />
		<tag k="ssr:stedsnr" v="79010" />
	</node>
	<node id="-724613" lat="69.4475166698" lon="19.5942361032">
		<tag k="name" v="Brennesodden" />
		<tag k="old_name" v="Bremnesodden" />
		<tag k="place" v="farm" />
		<tag k="ssr:stedsnr" v="79002" />
	</node>
	<node id="-724611" lat="69.7646111075" lon="18.1104638936">
		<tag k="name" v="Vassvika" />
		<tag k="place" v="isolated_dwelling" />
		<tag k="ssr:stedsnr" v="80147" />
	</node>
	<node id="-724610" lat="69.7772694448" lon="18.5397944351">
		<tag k="fixme" v="consider place=hamlet" />
		<tag k="name" v="Grøtfjord" />
		<tag k="place" v="village" />
		<tag k="ssr:stedsnr" v="80139" />
	</node>
	<node id="-726656" lat="69.6545498573" lon="18.9636585035">
		<tag k="name" v="Tromsø - Romsa - Tromssa" />
		<tag k="name:fkv" v="Tromssa" />
		<tag k="name:no" v="Tromsø" />
		<tag k="name:se" v="Romsa" />
		<tag k="place" v="town" />
		<tag k="ssr:stedsnr" v="503295" />
	</node>
	<node id="-726653" lat="69.5391277745" lon="18.9821749943">
		<tag k="alt_name" v="Sandvika" />
		<tag k="name" v="Sandvik" />
		<tag k="place" v="farm" />
		<tag k="ssr:stedsnr" v="503270" />
	</node>
	<node id="-726651" lat="69.5381305577" lon="18.694094434">
		<tag k="alt_name" v="Lillestrømmen" />
		<tag k="loc_name" v="Litjestraumen" />
		<tag k="name" v="Litlestraumen" />
		<tag k="place" v="farm" />
		<tag k="ssr:stedsnr" v="503261" />
	</node>
	<node id="-726650" lat="69.6475999991" lon="19.5480749889">
		<tag k="name" v="Skoglund" />
		<tag k="place" v="farm" />
		<tag k="ssr:stedsnr" v="503196" />
	</node>
	<node id="-726649" lat="69.6508138928" lon="19.5435777728">
		<tag k="name" v="Sætra" />
		<tag k="place" v="farm" />
		<tag k="ssr:stedsnr" v="503195" />
	</node>
	<node id="-728696" lat="69.967344446" lon="18.8470611103">
		<tag k="alt_name" v="Skarsfjord" />
		<tag k="name" v="Skardsfjord" />
		<tag k="place" v="farm" />
		<tag k="ssr:stedsnr" v="869879" />
	</node>
	<node id="-724596" lat="69.6875111152" lon="18.8597333182">
		<tag k="fixme" v="consider place=hamlet" />
		<tag k="loc_name:se" v="Sálljnjárga" />
		<tag k="name" v="Selnes" />
		<tag k="name:no" v="Selnes" />
		<tag k="place" v="farm" />
		<tag k="ssr:stedsnr" v="57024" />
	</node>
	<node id="-727315" lat="69.6273583304" lon="18.344924987">
		<tag k="name" v="Tverrelva" />
		<tag k="place" v="isolated_dwelling" />
		<tag k="ssr:stedsnr" v="592945" />
	</node>
	<node id="-724589" lat="69.5902777781" lon="19.7607833341">
		<tag k="name" v="Solheim" />
		<tag k="place" v="farm" />
		<tag k="ssr:stedsnr" v="54913" />
	</node>
	<node id="-726634" lat="69.6859361071" lon="18.9550750025">
		<tag k="amenity" v="school" />
		<tag k="name" v="Ekrehagen" />
		<tag k="ssr:stedsnr" v="481030" />
	</node>
	<node id="-724156" lat="69.7662005597" lon="18.3027132714">
		<tag k="name" v="Søndre Madseng" />
		<tag k="place" v="farm" />
		<tag k="ssr:stedsnr" v="987777" />
	</node>
	<node id="-724581" lat="69.5645527797" lon="19.7404583262">
		<tag k="name" v="Skogheim" />
		<tag k="place" v="farm" />
		<tag k="ssr:stedsnr" v="54591" />
	</node>
	<node id="-724240" lat="69.5543750003" lon="18.5813805503">
		<tag k="name" v="Steinen" />
		<tag k="place" v="farm" />
		<tag k="ssr:stedsnr" v="18532" />
	</node>
	<node id="-724574" lat="69.5293250004" lon="18.155902771">
		<tag k="name" v="Monsetoften" />
		<tag k="place" v="farm" />
		<tag k="ssr:stedsnr" v="54499" />
	</node>
	<node id="-728668" lat="69.6523805536" lon="18.8180750045">
		<tag k="name" v="Hundstad" />
		<tag k="place" v="farm" />
		<tag k="ssr:stedsnr" v="768068" />
	</node>
	<node id="-725263" lat="69.6864194491" lon="18.7445638758">
		<tag k="name" v="Kjosen" />
		<tag k="place" v="farm" />
		<tag k="ssr:stedsnr" v="140420" />
	</node>
	<node id="-728663" lat="69.4849" lon="19.6720499828">
		<tag k="name" v="Melen" />
		<tag k="place" v="isolated_dwelling" />
		<tag k="ssr:stedsnr" v="755055" />
	</node>
	<node id="-724565" lat="69.57147778" lon="18.7733833236">
		<tag k="name" v="Mellagård" />
		<tag k="place" v="farm" />
		<tag k="ssr:stedsnr" v="54333" />
	</node>
	<node id="-726612" lat="70.0169111108" lon="18.752436102">
		<tag k="name" v="Sørvassvik" />
		<tag k="place" v="isolated_dwelling" />
		<tag k="ssr:stedsnr" v="470288" />
	</node>
	<node id="-728659" lat="69.7838055598" lon="18.7663999907">
		<tag k="name" v="Bellvika" />
		<tag k="place" v="hamlet" />
		<tag k="ssr:stedsnr" v="754535" />
	</node>
	<node id="-728654" lat="69.6764194467" lon="18.7516166733">
		<tag k="alt_name" v="Undre Eidet" />
		<tag k="name" v="Under Eidet" />
		<tag k="place" v="isolated_dwelling" />
		<tag k="ssr:stedsnr" v="753322" />
	</node>
	<node id="-727309" lat="69.6878861118" lon="18.7497416524">
		<tag k="name" v="Kjoshaugen" />
		<tag k="place" v="farm" />
		<tag k="ssr:stedsnr" v="589920" />
	</node>
	<node id="-728652" lat="69.4381305571" lon="19.5634249841">
		<tag k="name" v="Stordal" />
		<tag k="place" v="farm" />
		<tag k="ssr:stedsnr" v="753288" />
	</node>
	<node id="-726593" lat="69.5360416671" lon="19.1918083159">
		<tag k="name" v="Mellemjord søndre" />
		<tag k="place" v="farm" />
		<tag k="ssr:stedsnr" v="456110" />
	</node>
	<node id="-728649" lat="69.6655916698" lon="18.9621027846">
		<tag k="name" v="Storskogen" />
		<tag k="place" v="quarter" />
		<tag k="ssr:stedsnr" v="752496" />
	</node>
	<node id="-728648" lat="69.6859944443" lon="18.9952499859">
		<tag k="amenity" v="prison" />
		<tag k="name" v="Tromsø fengsel" />
		<tag k="old_name" v="Tromsø kretsfengsel" />
		<tag k="ssr:stedsnr" v="752492" />
	</node>
	<node id="-728647" lat="69.6764833305" lon="18.7683833323">
		<tag k="name" v="Åsland" />
		<tag k="place" v="quarter" />
		<tag k="ssr:stedsnr" v="752487" />
	</node>
	<node id="-727649" lat="69.7755888925" lon="19.3032166534">
		<tag k="name" v="Elvevoll" />
		<tag k="place" v="farm" />
		<tag k="ssr:stedsnr" v="625664" />
	</node>
	<node id="-728644" lat="69.9513583295" lon="18.8419083215">
		<tag k="name" v="Reinsvoll" />
		<tag k="place" v="isolated_dwelling" />
		<tag k="ssr:stedsnr" v="749444" />
	</node>
	<node id="-728643" lat="69.5252388853" lon="18.2631027793">
		<tag k="name" v="Engenes" />
		<tag k="place" v="farm" />
		<tag k="ssr:stedsnr" v="748326" />
	</node>
	<node id="-728642" lat="69.6004833325" lon="19.8583138829">
		<tag k="name" v="Bjørklund" />
		<tag k="place" v="farm" />
		<tag k="ssr:stedsnr" v="747993" />
	</node>
	<node id="-728641" lat="69.5974138927" lon="19.8854777697">
		<tag k="name" v="Furumo" />
		<tag k="place" v="farm" />
		<tag k="ssr:stedsnr" v="747987" />
	</node>
	<node id="-724543" lat="69.6031611086" lon="18.8060083378">
		<tag k="name" v="Rydningen" />
		<tag k="place" v="farm" />
		<tag k="ssr:stedsnr" v="54357" />
	</node>
	<node id="-728638" lat="69.9713138862" lon="18.8409499841">
		<tag k="name" v="Stordal" />
		<tag k="place" v="isolated_dwelling" />
		<tag k="ssr:stedsnr" v="747876" />
	</node>
	<node id="-724541" lat="69.5743527797" lon="18.6461972098">
		<tag k="name" v="Brattlia" />
		<tag k="place" v="farm" />
		<tag k="ssr:stedsnr" v="54143" />
	</node>
	<node id="-724234" lat="69.6242361081" lon="18.3299388817">
		<tag k="name" v="Vang" />
		<tag k="place" v="farm" />
		<tag k="ssr:stedsnr" v="18493" />
	</node>
	<node id="-726586" lat="69.576097222" lon="18.7838694352">
		<tag k="name" v="Myrland" />
		<tag k="place" v="farm" />
		<tag k="ssr:stedsnr" v="450592" />
	</node>
	<node id="-728633" lat="70.0217249999" lon="18.7581777801">
		<tag k="name" v="Nystad" />
		<tag k="place" v="farm" />
		<tag k="ssr:stedsnr" v="747688" />
	</node>
	<node id="-728632" lat="69.775925001" lon="19.2835166616">
		<tag k="name" v="Heimtun" />
		<tag k="place" v="farm" />
		<tag k="ssr:stedsnr" v="747679" />
	</node>
	<node id="-724535" lat="69.6544083339" lon="18.965252782">
		<tag k="name" v="Fr. Nansens Plass" />
		<tag k="place" v="square" />
		<tag k="ssr:stedsnr" v="53958" />
	</node>
	<node id="-728630" lat="69.7812611145" lon="19.4145249992">
		<tag k="name" v="Solheim" />
		<tag k="place" v="farm" />
		<tag k="ssr:stedsnr" v="747670" />
	</node>
	<node id="-724533" lat="69.6475972226" lon="18.9587388783">
		<tag k="name" v="Roald Amundsens Plass" />
		<tag k="place" v="square" />
		<tag k="ssr:stedsnr" v="53936" />
	</node>
	<node id="-728628" lat="69.7750111158" lon="19.2615722152">
		<tag k="name" v="Nordslett" />
		<tag k="place" v="farm" />
		<tag k="ssr:stedsnr" v="747661" />
	</node>
	<node id="-728627" lat="69.7928999965" lon="19.4973416688">
		<tag k="name" v="Nordvoll" />
		<tag k="place" v="locality" />
		<tag k="ssr:stedsnr" v="747659" />
	</node>
	<node id="-726578" lat="69.6163972258" lon="18.9414472253">
		<tag k="name" v="Tresletta" />
		<tag k="place" v="farm" />
		<tag k="ssr:stedsnr" v="449763" />
	</node>
	<node id="-728624" lat="69.756852777" lon="19.6759222158">
		<tag k="fixme" v="consider place=hamlet" />
		<tag k="loc_name:no" v="Oldervika" />
		<tag k="name" v="Oldervik - Leaibbáš" />
		<tag k="name:no" v="Oldervik" />
		<tag k="name:se" v="Leaibbáš" />
		<tag k="place" v="village" />
		<tag k="ssr:stedsnr" v="747637" />
	</node>
	<node id="-728623" lat="69.7695194484" lon="19.7073444434">
		<tag k="alt_name:no" v="Skottsætet;Skotsæte" />
		<tag k="name" v="Skotsætet - Čievra" />
		<tag k="name:no" v="Skotsætet" />
		<tag k="name:se" v="Čievra" />
		<tag k="place" v="hamlet" />
		<tag k="ssr:stedsnr" v="747618" />
	</node>
	<node id="-728617" lat="69.6954805546" lon="19.0089999821">
		<tag k="name" v="Skattøra" />
		<tag k="place" v="suburb" />
		<tag k="ssr:stedsnr" v="747401" />
	</node>
	<node id="-724518" lat="69.657074996" lon="19.6421722207">
		<tag k="name" v="Jens-Hansaheimen" />
		<tag k="place" v="locality" />
		<tag k="ssr:stedsnr" v="53694" />
	</node>
	<node id="-728613" lat="69.6906805581" lon="18.7391694476">
		<tag k="name" v="Innelva" />
		<tag k="place" v="isolated_dwelling" />
		<tag k="ssr:stedsnr" v="747389" />
	</node>
	<node id="-724509" lat="69.7030833318" lon="18.9794472044">
		<tag k="amenity" v="school" />
		<tag k="name" v="Hamna skole" />
		<tag k="ssr:stedsnr" v="53643" />
	</node>
	<node id="-724506" lat="69.6222055605" lon="18.1931249895">
		<tag k="name" v="Bogen" />
		<tag k="place" v="farm" />
		<tag k="ssr:stedsnr" v="53760" />
	</node>
	<node id="-723887" lat="69.8700638932" lon="18.9181499953">
		<tag k="name" v="Skogli" />
		<tag k="place" v="isolated_dwelling" />
		<tag k="ssr:stedsnr" v="474201" />
	</node>
	<node id="-728596" lat="69.8324749971" lon="18.4177611042">
		<tag k="fixme" v="consider place=hamlet" />
		<tag k="name" v="Gjøssøya" />
		<tag k="place" v="farm" />
		<tag k="ssr:stedsnr" v="747181" />
	</node>
	<node id="-728592" lat="69.7770194454" lon="18.3989638942">
		<tag k="fixme" v="consider place=hamlet" />
		<tag k="name" v="Tromvik" />
		<tag k="place" v="village" />
		<tag k="ssr:stedsnr" v="747115" />
	</node>
	<node id="-728588" lat="69.5463111148" lon="19.6324249918">
		<tag k="name" v="Høgstad" />
		<tag k="place" v="farm" />
		<tag k="ssr:stedsnr" v="747060" />
	</node>
	<node id="-728583" lat="69.8424555526" lon="18.5729722178">
		<tag k="name" v="Puskevik" />
		<tag k="place" v="farm" />
		<tag k="ssr:stedsnr" v="747032" />
	</node>
	<node id="-726534" lat="69.839413888" lon="18.6767527847">
		<tag k="name" v="Kristiansheimen" />
		<tag k="place" v="farm" />
		<tag k="ssr:stedsnr" v="443981" />
	</node>
	<node id="-725249" lat="69.5806166678" lon="18.9423805442">
		<tag k="name" v="Nordberg" />
		<tag k="place" v="farm" />
		<tag k="ssr:stedsnr" v="140252" />
	</node>
	<node id="-728579" lat="69.8478027789" lon="18.9620972041">
		<tag k="alt_name" v="Blombakken" />
		<tag k="name" v="Blombakk" />
		<tag k="place" v="farm" />
		<tag k="ssr:stedsnr" v="746998" />
	</node>
	<node id="-726528" lat="69.8175250004" lon="18.9943305409">
		<tag k="name" v="Myrstad" />
		<tag k="place" v="farm" />
		<tag k="ssr:stedsnr" v="443970" />
	</node>
	<node id="-726525" lat="69.8344916629" lon="19.0101972204">
		<tag k="name" v="Simavik" />
		<tag k="place" v="farm" />
		<tag k="ssr:stedsnr" v="443962" />
	</node>
	<node id="-726523" lat="69.8034944464" lon="18.6393055566">
		<tag k="name" v="Røsnes" />
		<tag k="place" v="farm" />
		<tag k="ssr:stedsnr" v="443955" />
	</node>
	<node id="-728569" lat="69.8143111152" lon="18.9986499847">
		<tag k="name" v="Myra" />
		<tag k="place" v="farm" />
		<tag k="ssr:stedsnr" v="746936" />
	</node>
	<node id="-726516" lat="69.7578833333" lon="19.1949499982">
		<tag k="alt_name:no" v="Tønsås" />
		<tag k="loc_name:se" v="Oassa" />
		<tag k="name" v="Tønsåsen" />
		<tag k="name:no" v="Tønsåsen" />
		<tag k="place" v="farm" />
		<tag k="ssr:stedsnr" v="443862" />
	</node>
	<node id="-728561" lat="69.7519888865" lon="19.0261805492">
		<tag k="alt_name" v="Krabbeelv" />
		<tag k="name" v="Krabbelv" />
		<tag k="place" v="isolated_dwelling" />
		<tag k="ssr:stedsnr" v="746850" />
	</node>
	<node id="-729000" lat="69.8009888859" lon="18.7785777607">
		<tag k="name" v="Indregården" />
		<tag k="place" v="farm" />
		<tag k="ssr:stedsnr" v="807923" />
	</node>
	<node id="-726504" lat="69.8626565163" lon="18.7547324291">
		<tag k="alt_name" v="Kifjord" />
		<tag k="name" v="Kifjorden" />
		<tag k="place" v="locality" />
		<tag k="ssr:stedsnr" v="443740" />
	</node>
	<node id="-728548" lat="69.8861527792" lon="18.8536138753">
		<tag k="alt_name" v="Kårvik, yt" />
		<tag k="name" v="Ytre Kårvik" />
		<tag k="place" v="farm" />
		<tag k="ssr:stedsnr" v="746740" />
	</node>
	<node id="-728547" lat="69.8822777813" lon="18.7583750074">
		<tag k="name" v="Seihola" />
		<tag k="place" v="farm" />
		<tag k="ssr:stedsnr" v="746737" />
	</node>
	<node id="-726497" lat="69.6927888932" lon="18.5559138817">
		<tag k="name" v="Eliasgammen" />
		<tag k="place" v="isolated_dwelling" />
		<tag k="ssr:stedsnr" v="443705" />
	</node>
	<node id="-728544" lat="69.8770222205" lon="18.8092916725">
		<tag k="alt_name" v="Kibergneset, yt" />
		<tag k="name" v="Ytre Kibergneset" />
		<tag k="place" v="farm" />
		<tag k="ssr:stedsnr" v="746726" />
	</node>
	<node id="-728543" lat="69.8719504875" lon="18.8160498178">
		<tag k="alt_name" v="Kibergneset, in" />
		<tag k="name" v="Indre Kibergneset" />
		<tag k="old_name" v="Kibergneset" />
		<tag k="place" v="farm" />
		<tag k="ssr:stedsnr" v="746724" />
	</node>
	<node id="-728539" lat="69.8687833296" lon="18.9252055564">
		<tag k="alt_name" v="Kårvik, in" />
		<tag k="name" v="Indre Kårvik" />
		<tag k="old_name" v="Inner Kårvika" />
		<tag k="place" v="farm" />
		<tag k="ssr:stedsnr" v="746705" />
	</node>
	<node id="-725989" lat="69.4536277819" lon="19.6103722107">
		<tag k="name" v="Steinnes" />
		<tag k="place" v="farm" />
		<tag k="ssr:stedsnr" v="261004" />
	</node>
	<node id="-725924" lat="69.5936888919" lon="18.630099992">
		<tag k="name" v="Steinhytta" />
		<tag k="place" v="isolated_dwelling" />
		<tag k="ssr:stedsnr" v="236216" />
	</node>
	<node id="-728534" lat="69.6567694434" lon="18.2320805632">
		<tag k="fixme" v="consider place=hamlet" />
		<tag k="name" v="Vasstrand" />
		<tag k="place" v="village" />
		<tag k="ssr:stedsnr" v="746676" />
	</node>
	<node id="-723193" lat="69.4479916643" lon="19.6539777666">
		<tag k="name" v="Steinbakk" />
		<tag k="place" v="farm" />
		<tag k="ssr:stedsnr" v="322003" />
	</node>
	<node id="-727288" lat="69.5456111081" lon="18.7903666631">
		<tag k="name" v="Vikran" />
		<tag k="place" v="farm" />
		<tag k="ssr:stedsnr" v="572798" />
	</node>
	<node id="-729336" lat="69.5038083299" lon="19.633913887">
		<tag k="alt_name" v="Ritabukt" />
		<tag k="name" v="Ritabukta" />
		<tag k="place" v="isolated_dwelling" />
		<tag k="ssr:stedsnr" v="868105" />
	</node>
	<node id="-728514" lat="69.6295722216" lon="18.3545138764">
		<tag k="name" v="Nordfjord" />
		<tag k="place" v="farm" />
		<tag k="ssr:stedsnr" v="746532" />
	</node>
	<node id="-726465" lat="69.5906916659" lon="18.0240416551">
		<tag k="alt_name" v="Brennsholmen" />
		<tag k="name" v="Brensholmen" />
		<tag k="place" v="isolated_dwelling" />
		<tag k="ssr:stedsnr" v="443512" />
	</node>
	<node id="-728510" lat="69.7474861094" lon="19.1768805439">
		<tag k="name" v="Tønsvik" />
		<tag k="place" v="farm" />
		<tag k="ssr:stedsnr" v="746483" />
	</node>
	<node id="-726460" lat="69.7291750036" lon="18.9608055465">
		<tag k="name" v="Teigen" />
		<tag k="place" v="farm" />
		<tag k="ssr:stedsnr" v="443498" />
	</node>
	<node id="-726455" lat="69.6975666682" lon="18.9679055551">
		<tag k="name" v="Heimland" />
		<tag k="place" v="farm" />
		<tag k="ssr:stedsnr" v="443429" />
	</node>
	<node id="-728502" lat="69.6741694402" lon="19.0475388917">
		<tag k="name" v="Myrland" />
		<tag k="place" v="quarter" />
		<tag k="ssr:stedsnr" v="746414" />
	</node>
	<node id="-726601" lat="69.7241944413" lon="19.6894555489">
		<tag k="fixme" v="consider place=hamlet" />
		<tag k="name" v="Árbi" />
		<tag k="name:se" v="Árbi" />
		<tag k="place" v="farm" />
		<tag k="ssr:stedsnr" v="465435" />
	</node>
	<node id="-726452" lat="69.7041249983" lon="18.9240916582">
		<tag k="name" v="Sør-Finnes" />
		<tag k="place" v="farm" />
		<tag k="ssr:stedsnr" v="443421" />
	</node>
	<node id="-725918" lat="69.5337722239" lon="18.6372777683">
		<tag k="name" v="Gjerdrum" />
		<tag k="place" v="farm" />
		<tag k="ssr:stedsnr" v="236199" />
	</node>
	<node id="-728497" lat="69.6035833367" lon="18.9364388829">
		<tag k="name" v="Sandtorgholmen" />
		<tag k="place" v="farm" />
		<tag k="ssr:stedsnr" v="746344" />
	</node>
	<node id="-728496" lat="69.632469444" lon="18.9594694253">
		<tag k="name" v="Reinen" />
		<tag k="place" v="quarter" />
		<tag k="ssr:stedsnr" v="746325" />
	</node>
	<node id="-725576" lat="69.656527777" lon="18.9139916557">
		<tag k="name" v="Åsgård" />
		<tag k="place" v="farm" />
		<tag k="ssr:stedsnr" v="200322" />
	</node>
	<node id="-728494" lat="69.6408416618" lon="18.9048555599">
		<tag k="name" v="Sorgenfri" />
		<tag k="place" v="quarter" />
		<tag k="ssr:stedsnr" v="746313" />
	</node>
	<node id="-728492" lat="69.6497388898" lon="18.7396138747">
		<tag k="name" v="Fossmo" />
		<tag k="place" v="farm" />
		<tag k="ssr:stedsnr" v="746307" />
	</node>
	<node id="-726443" lat="69.6130626515" lon="18.9429006421">
		<tag k="name" v="Nordmannsgården" />
		<tag k="place" v="farm" />
		<tag k="ssr:stedsnr" v="443367" />
	</node>
	<node id="-728490" lat="69.5335055518" lon="18.6500777643">
		<tag k="name" v="Hansvoll" />
		<tag k="place" v="farm" />
		<tag k="ssr:stedsnr" v="746291" />
	</node>
	<node id="-724551" lat="69.6011777739" lon="19.8625833263">
		<tag k="name" v="Vindnes" />
		<tag k="place" v="farm" />
		<tag k="ssr:stedsnr" v="54208" />
	</node>
	<node id="-724392" lat="69.6205611139" lon="18.9436277852">
		<tag k="name" v="Hansvoll" />
		<tag k="place" v="isolated_dwelling" />
		<tag k="ssr:stedsnr" v="25372" />
	</node>
	<node id="-726439" lat="69.6426666692" lon="18.7261638725">
		<tag k="name" v="Myrvang" />
		<tag k="place" v="farm" />
		<tag k="ssr:stedsnr" v="443342" />
	</node>
	<node id="-728486" lat="69.4394444441" lon="19.5682638853">
		<tag k="name" v="Opphaug" />
		<tag k="place" v="farm" />
		<tag k="ssr:stedsnr" v="746225" />
	</node>
	<node id="-728483" lat="69.4071194436" lon="19.6526888719">
		<tag k="alt_name:no" v="Skoggard" />
		<tag k="loc_name:se" v="Ruksesbovdna" />
		<tag k="name" v="Skoggård" />
		<tag k="name:no" v="Skoggård" />
		<tag k="place" v="farm" />
		<tag k="ssr:stedsnr" v="746211" />
	</node>
	<node id="-728482" lat="69.5137777777" lon="19.0059027717">
		<tag k="fixme" v="multiple name tags, choose one and add the other to alt_name; consider place=hamlet" />
		<tag k="name" v="Andersdal;Ytre Andersdal;Andersdal, yt;Andersdalen - Nieidavuovdi" />
		<tag k="name:no" v="Andersdal;Ytre Andersdal;Andersdal, yt;Andersdalen" />
		<tag k="name:se" v="Nieidavuovdi" />
		<tag k="place" v="village" />
		<tag k="ssr:stedsnr" v="746206" />
	</node>
	<node id="-728481" lat="69.4059555553" lon="19.6367110944">
		<tag k="alt_name:no" v="Flatvoll;Flatvolden" />
		<tag k="fixme" v="consider place=hamlet" />
		<tag k="name" v="Flatvollen - Badjesiida" />
		<tag k="name:no" v="Flatvollen" />
		<tag k="name:se" v="Badjesiida" />
		<tag k="place" v="farm" />
		<tag k="ssr:stedsnr" v="746205" />
	</node>
	<node id="-728480" lat="69.3944972249" lon="19.4370111069">
		<tag k="name" v="Bakkeli" />
		<tag k="place" v="farm" />
		<tag k="ssr:stedsnr" v="746202" />
	</node>
	<node id="-728477" lat="69.3813305565" lon="19.6337166579">
		<tag k="name" v="Slettmo" />
		<tag k="place" v="isolated_dwelling" />
		<tag k="ssr:stedsnr" v="746193" />
	</node>
	<node id="-726428" lat="69.5592333369" lon="19.0931555574">
		<tag k="alt_name" v="Lauksletta, yt" />
		<tag k="fixme" v="multiple name tags, choose one and add the other to alt_name; consider place=hamlet" />
		<tag k="name" v="Lauksletta;Ytre Lauksletta" />
		<tag k="place" v="village" />
		<tag k="ssr:stedsnr" v="443269" />
	</node>
	<node id="-723058" lat="69.6387611132" lon="19.5184610927">
		<tag k="name" v="Dalheim" />
		<tag k="place" v="farm" />
		<tag k="ssr:stedsnr" v="296177" />
	</node>
	<node id="-726424" lat="69.4314999973" lon="19.6527166571">
		<tag k="name" v="Myra" />
		<tag k="place" v="isolated_dwelling" />
		<tag k="ssr:stedsnr" v="443237" />
	</node>
	<node id="-726423" lat="69.6707944435" lon="19.6500638761">
		<tag k="name" v="Nordberg" />
		<tag k="place" v="isolated_dwelling" />
		<tag k="ssr:stedsnr" v="443231" />
	</node>
	<node id="-726422" lat="69.4266138859" lon="19.6586166454">
		<tag k="alt_name" v="Lakselva" />
		<tag k="name" v="Lakselv" />
		<tag k="place" v="farm" />
		<tag k="ssr:stedsnr" v="443215" />
	</node>
	<node id="-728469" lat="69.6316277812" lon="19.4125833325">
		<tag k="name" v="Heimstad" />
		<tag k="place" v="isolated_dwelling" />
		<tag k="ssr:stedsnr" v="746141" />
	</node>
	<node id="-728468" lat="69.6312166645" lon="19.4175833108">
		<tag k="alt_name" v="Sandegga" />
		<tag k="name" v="Sandeggen" />
		<tag k="place" v="isolated_dwelling" />
		<tag k="ssr:stedsnr" v="746140" />
	</node>
	<node id="-728467" lat="69.5935388911" lon="19.3078138929">
		<tag k="name" v="Bergskog" />
		<tag k="place" v="farm" />
		<tag k="ssr:stedsnr" v="746132" />
	</node>
	<node id="-726418" lat="69.4010666699" lon="19.6277500039">
		<tag k="name" v="Dalhaug" />
		<tag k="place" v="farm" />
		<tag k="ssr:stedsnr" v="443194" />
	</node>
	<node id="-728465" lat="69.5199750003" lon="19.726194443">
		<tag k="name" v="Heggelund" />
		<tag k="place" v="farm" />
		<tag k="ssr:stedsnr" v="746123" />
	</node>
	<node id="-726416" lat="69.3627444422" lon="19.6192999936">
		<tag k="name" v="Heggås" />
		<tag k="place" v="farm" />
		<tag k="ssr:stedsnr" v="443185" />
	</node>
	<node id="-728463" lat="69.5021111159" lon="19.7099610896">
		<tag k="alt_name" v="Holm" />
		<tag k="name" v="Holmen" />
		<tag k="place" v="farm" />
		<tag k="ssr:stedsnr" v="746106" />
	</node>
	<node id="-726414" lat="69.579213887" lon="19.2469861107">
		<tag k="name" v="Granheim" />
		<tag k="place" v="locality" />
		<tag k="ssr:stedsnr" v="443180" />
	</node>
	<node id="-724205" lat="69.6092166637" lon="19.3548749945">
		<tag k="name" v="Stormo" />
		<tag k="place" v="farm" />
		<tag k="ssr:stedsnr" v="18133" />
	</node>
	<node id="-726412" lat="69.5747444412" lon="19.2278388799">
		<tag k="name" v="Slettlia" />
		<tag k="place" v="farm" />
		<tag k="ssr:stedsnr" v="443168" />
	</node>
	<node id="-726411" lat="69.5596027748" lon="19.6686499804">
		<tag k="name" v="Kampen" />
		<tag k="place" v="farm" />
		<tag k="ssr:stedsnr" v="443164" />
	</node>
	<node id="-726410" lat="69.5564555598" lon="19.5518555469">
		<tag k="name" v="Fjellvang" />
		<tag k="place" v="farm" />
		<tag k="ssr:stedsnr" v="443162" />
	</node>
	<node id="-728455" lat="69.5206388877" lon="19.2501416689">
		<tag k="name" v="Fagerelv" />
		<tag k="place" v="farm" />
		<tag k="ssr:stedsnr" v="746076" />
	</node>
	<node id="-726406" lat="69.6127472183" lon="19.3735444384">
		<tag k="name" v="Foss" />
		<tag k="place" v="farm" />
		<tag k="ssr:stedsnr" v="443139" />
	</node>
	<node id="-728453" lat="69.5235027772" lon="19.2456166617">
		<tag k="name" v="Skredlia" />
		<tag k="place" v="isolated_dwelling" />
		<tag k="ssr:stedsnr" v="746069" />
	</node>
	<node id="-728452" lat="69.5446361135" lon="19.6415888674">
		<tag k="alt_name:no" v="Lavangen, in;Lavangen Indre" />
		<tag k="loc_name:se" v="Lávággi" />
		<tag k="name" v="Indre Lavangen" />
		<tag k="name:no" v="Indre Lavangen" />
		<tag k="old_name:no" v="Lavangen" />
		<tag k="place" v="farm" />
		<tag k="ssr:stedsnr" v="746065" />
	</node>
	<node id="-728451" lat="69.5384250002" lon="19.7373499767">
		<tag k="name" v="Leirbukta" />
		<tag k="place" v="farm" />
		<tag k="ssr:stedsnr" v="746060" />
	</node>
	<node id="-723179" lat="69.7938027803" lon="19.0680083152">
		<tag k="name" v="Strandheim" />
		<tag k="place" v="farm" />
		<tag k="ssr:stedsnr" v="321894" />
	</node>
	<node id="-726400" lat="69.5107027786" lon="19.6305527624">
		<tag k="alt_name:no" v="Sommarbukta, in" />
		<tag k="loc_name:se" v="Čorru" />
		<tag k="name" v="Indre Sommarbukta" />
		<tag k="name:no" v="Indre Sommarbukta" />
		<tag k="place" v="farm" />
		<tag k="ssr:stedsnr" v="443119" />
	</node>
	<node id="-726399" lat="69.4452916683" lon="19.5879110934">
		<tag k="alt_name:no" v="Sveingard" />
		<tag k="loc_name:se" v="Speainnasiida" />
		<tag k="name" v="Sveingården" />
		<tag k="name:no" v="Sveingården" />
		<tag k="place" v="farm" />
		<tag k="ssr:stedsnr" v="443232" />
	</node>
	<node id="-726397" lat="69.5280444461" lon="19.2377277802">
		<tag k="name" v="Korsstein" />
		<tag k="place" v="farm" />
		<tag k="ssr:stedsnr" v="443083" />
	</node>
	<node id="-728444" lat="70.0330708329" lon="18.5583764183">
		<tag k="alt_name" v="Mjølvika;Melviken" />
		<tag k="fixme" v="consider place=hamlet" />
		<tag k="loc_name" v="Melvika" />
		<tag k="name" v="Mjølvik" />
		<tag k="place" v="farm" />
		<tag k="ssr:stedsnr" v="747279" />
	</node>
	<node id="-726395" lat="69.5472749996" lon="19.5839611066">
		<tag k="name" v="Rustad" />
		<tag k="place" v="farm" />
		<tag k="ssr:stedsnr" v="443075" />
	</node>
	<node id="-726591" lat="69.6845166692" lon="18.6952666657">
		<tag k="name" v="Sjurelv" />
		<tag k="place" v="hamlet" />
		<tag k="ssr:stedsnr" v="454540" />
	</node>
	<node id="-724344" lat="69.7445861158" lon="19.0196416573">
		<tag k="name" v="Krabbenes" />
		<tag k="place" v="farm" />
		<tag k="ssr:stedsnr" v="19461" />
	</node>
	<node id="-726390" lat="69.467624998" lon="19.68829443">
		<tag k="name" v="Arnesand" />
		<tag k="place" v="farm" />
		<tag k="ssr:stedsnr" v="443011" />
	</node>
	<node id="-724341" lat="69.6840249984" lon="18.6542805436">
		<tag k="name" v="Henrikvik" />
		<tag k="place" v="farm" />
		<tag k="ssr:stedsnr" v="19409" />
	</node>
	<node id="-726388" lat="69.4874499993" lon="18.8856055521">
		<tag k="fixme" v="consider place=hamlet" />
		<tag k="name" v="Kobbevågneset" />
		<tag k="place" v="farm" />
		<tag k="ssr:stedsnr" v="424920" />
	</node>
	<node id="-724339" lat="69.6909361099" lon="18.7099499979">
		<tag k="name" v="Sinkaren" />
		<tag k="place" v="farm" />
		<tag k="ssr:stedsnr" v="19391" />
	</node>
	<node id="-724338" lat="69.7243500006" lon="19.0956083248">
		<tag k="alt_name" v="Stranda" />
		<tag k="name" v="Strand" />
		<tag k="place" v="isolated_dwelling" />
		<tag k="ssr:stedsnr" v="19377" />
	</node>
	<node id="-728432" lat="69.8244500028" lon="18.549399994">
		<tag k="name" v="Vengsvik" />
		<tag k="place" v="farm" />
		<tag k="ssr:stedsnr" v="747211" />
	</node>
	<node id="-726377" lat="69.6531750027" lon="18.9052194278">
		<tag k="name" v="Strandheim" />
		<tag k="place" v="farm" />
		<tag k="ssr:stedsnr" v="421026" />
	</node>
	<node id="-724327" lat="69.664330553" lon="19.6350527681">
		<tag k="alt_name" v="Breidvik" />
		<tag k="name" v="Breivik" />
		<tag k="place" v="farm" />
		<tag k="ssr:stedsnr" v="19219" />
	</node>
	<node id="-724324" lat="69.6537527784" lon="19.5606472089">
		<tag k="name" v="Nystad" />
		<tag k="place" v="farm" />
		<tag k="ssr:stedsnr" v="19216" />
	</node>
	<node id="-726371" lat="69.6224444441" lon="18.9476860994">
		<tag k="name" v="Rydningen" />
		<tag k="place" v="quarter" />
		<tag k="ssr:stedsnr" v="420039" />
	</node>
	<node id="-726370" lat="69.5891805591" lon="18.941194427">
		<tag k="name" v="Kubergan" />
		<tag k="place" v="farm" />
		<tag k="ssr:stedsnr" v="420038" />
	</node>
	<node id="-728417" lat="69.7216638868" lon="18.9437111167">
		<tag k="name" v="Rydland" />
		<tag k="place" v="farm" />
		<tag k="ssr:stedsnr" v="724002" />
	</node>
	<node id="-728414" lat="69.6204527803" lon="18.9445305617">
		<tag k="name" v="Kaldsletta" />
		<tag k="place" v="quarter" />
		<tag k="ssr:stedsnr" v="723053" />
	</node>
	<node id="-728413" lat="69.5998333314" lon="18.9368499864">
		<tag k="name" v="Kaldsletta" />
		<tag k="place" v="farm" />
		<tag k="ssr:stedsnr" v="723051" />
	</node>
	<node id="-724316" lat="69.705075004" lon="19.3158111132">
		<tag k="fixme" v="consider tourism=alpine_hut or tourism=chalet" />
		<tag k="name" v="Nonsbu" />
		<tag k="ssr:stedsnr" v="19182" />
		<tag k="tourism" v="wilderness_hut" />
	</node>
	<node id="-727610" lat="69.6241305597" lon="18.8104916692">
		<tag k="name" v="Marisletta" />
		<tag k="place" v="farm" />
		<tag k="ssr:stedsnr" v="625351" />
	</node>
	<node id="-728408" lat="69.5819694438" lon="19.7562833222">
		<tag k="name" v="Veslelia" />
		<tag k="place" v="farm" />
		<tag k="ssr:stedsnr" v="721901" />
	</node>
	<node id="-724311" lat="69.571902777" lon="19.2198388697">
		<tag k="name" v="Fuglemo" />
		<tag k="place" v="farm" />
		<tag k="ssr:stedsnr" v="19153" />
	</node>
	<node id="-729807" lat="69.7702298995" lon="18.3029914386">
		<tag k="loc_name" v="Madsenga" />
		<tag k="name" v="Madseng" />
		<tag k="place" v="farm" />
		<tag k="ssr:stedsnr" v="930137" />
	</node>
	<node id="-728400" lat="69.60657222" lon="18.0596999962">
		<tag k="name" v="Farstad" />
		<tag k="place" v="farm" />
		<tag k="ssr:stedsnr" v="721594" />
	</node>
	<node id="-724296" lat="69.5297555538" lon="19.7419805312">
		<tag k="name" v="Steinholmen" />
		<tag k="place" v="isolated_dwelling" />
		<tag k="ssr:stedsnr" v="19063" />
	</node>
	<node id="-728388" lat="69.6291277784" lon="18.7543972129">
		<tag k="name" v="Alvheim" />
		<tag k="place" v="farm" />
		<tag k="ssr:stedsnr" v="721452" />
	</node>
	<node id="-726339" lat="69.6143027773" lon="18.8124027613">
		<tag k="name" v="Bispelund" />
		<tag k="place" v="farm" />
		<tag k="ssr:stedsnr" v="418323" />
	</node>
	<node id="-727605" lat="69.6495250031" lon="18.9007277791">
		<tag k="name" v="Norheim" />
		<tag k="place" v="farm" />
		<tag k="ssr:stedsnr" v="625319" />
	</node>
	<node id="-728377" lat="69.6432472219" lon="17.9844166666">
		<tag k="name" v="Jevika" />
		<tag k="place" v="locality" />
		<tag k="ssr:stedsnr" v="721274" />
	</node>
	<node id="-728372" lat="69.6946027741" lon="18.6186194399">
		<tag k="name" v="Barholdt" />
		<tag k="place" v="farm" />
		<tag k="ssr:stedsnr" v="721213" />
	</node>
	<node id="-724275" lat="69.8019861091" lon="18.7690222061">
		<tag k="fixme" v="consider place=hamlet" />
		<tag k="name" v="Skulsfjord" />
		<tag k="place" v="village" />
		<tag k="ssr:stedsnr" v="18912" />
	</node>
	<node id="-728370" lat="69.6006944469" lon="19.8452027694">
		<tag k="name" v="Skogen" />
		<tag k="place" v="farm" />
		<tag k="ssr:stedsnr" v="721174" />
	</node>
	<node id="-724273" lat="69.8008416706" lon="18.7498277618">
		<tag k="name" v="Myreng" />
		<tag k="place" v="farm" />
		<tag k="ssr:stedsnr" v="18909" />
	</node>
	<node id="-726319" lat="69.5341638875" lon="18.6125916736">
		<tag k="name" v="Solheim" />
		<tag k="place" v="farm" />
		<tag k="ssr:stedsnr" v="418177" />
	</node>
	<node id="-728364" lat="69.5712166689" lon="18.6167194516">
		<tag k="name" v="Buktelia" />
		<tag k="place" v="quarter" />
		<tag k="ssr:stedsnr" v="721122" />
	</node>
	<node id="-724266" lat="69.7770555542" lon="18.7580055561">
		<tag k="name" v="Elveneset" />
		<tag k="place" v="farm" />
		<tag k="ssr:stedsnr" v="18864" />
	</node>
	<node id="-724260" lat="69.6156893819" lon="17.9178798737">
		<tag k="alt_name" v="Edøy" />
		<tag k="fixme" v="consider place=hamlet" />
		<tag k="name" v="Edøya" />
		<tag k="place" v="farm" />
		<tag k="ssr:stedsnr" v="18745" />
	</node>
	<node id="-726307" lat="69.6505583352" lon="19.0136722177">
		<tag k="amenity" v="school" />
		<tag k="name" v="Tromstun skole" />
		<tag k="ssr:stedsnr" v="417838" />
	</node>
	<node id="-723463" lat="69.4821916667" lon="18.8580833357">
		<tag k="name" v="Aronheimen" />
		<tag k="place" v="locality" />
		<tag k="ssr:stedsnr" v="356190" />
	</node>
	<node id="-726300" lat="69.5953638877" lon="18.0364722195">
		<tag k="name" v="Elvegård" />
		<tag k="place" v="farm" />
		<tag k="ssr:stedsnr" v="417777" />
	</node>
	<node id="-725577" lat="69.6712999971" lon="19.0439861069">
		<tag k="name" v="Lunheim" />
		<tag k="place" v="suburb" />
		<tag k="ssr:stedsnr" v="200329" />
	</node>
	<node id="-724249" lat="69.6942777774" lon="18.6205499934">
		<tag k="fixme" v="consider place=hamlet" />
		<tag k="name" v="Ersfjordbotn" />
		<tag k="old_name" v="Ersfjord" />
		<tag k="place" v="village" />
		<tag k="ssr:stedsnr" v="18652" />
	</node>
	<node id="-726288" lat="69.6565055599" lon="19.5703333253">
		<tag k="amenity" v="school" />
		<tag k="name" v="Breivikeidet skole" />
		<tag k="ssr:stedsnr" v="417719" />
	</node>
	<node id="-728332" lat="69.4854027742" lon="19.2537861021">
		<tag k="name" v="Pelsdyrfarm" />
		<tag k="place" v="locality" />
		<tag k="ssr:stedsnr" v="720690" />
	</node>
	<node id="-726282" lat="69.6976555537" lon="18.9754666589">
		<tag k="amenity" v="kindergarten" />
		<tag k="name" v="Toftvegen" />
		<tag k="ssr:stedsnr" v="417662" />
	</node>
	<node id="-724233" lat="69.5360111084" lon="18.3749166502">
		<tag k="name" v="Skoglund" />
		<tag k="place" v="isolated_dwelling" />
		<tag k="ssr:stedsnr" v="18399" />
	</node>
	<node id="-726280" lat="69.5159805526" lon="18.8615194376">
		<tag k="name" v="Bjørkum" />
		<tag k="place" v="farm" />
		<tag k="ssr:stedsnr" v="417649" />
	</node>
	<node id="-726278" lat="69.5918527774" lon="19.2922666555">
		<tag k="name" v="Vartavarrahaugen" />
		<tag k="place" v="farm" />
		<tag k="ssr:stedsnr" v="417638" />
	</node>
	<node id="-723735" lat="69.8269583298" lon="18.5857166707">
		<tag k="name" v="Toften" />
		<tag k="place" v="locality" />
		<tag k="ssr:stedsnr" v="383233" />
	</node>
	<node id="-723499" lat="69.5917388913" lon="19.275027775">
		<tag k="name" v="Styrmannsheimen" />
		<tag k="place" v="locality" />
		<tag k="ssr:stedsnr" v="356609" />
	</node>
	<node id="-724222" lat="69.6558194446" lon="18.8202999909">
		<tag k="name" v="Håkøy" />
		<tag k="place" v="farm" />
		<tag k="ssr:stedsnr" v="18285" />
	</node>
	<node id="-724221" lat="69.5106166698" lon="18.8681750063">
		<tag k="name" v="Kuvika" />
		<tag k="place" v="farm" />
		<tag k="ssr:stedsnr" v="18282" />
	</node>
	<node id="-728316" lat="69.5916777771" lon="18.8018166628">
		<tag k="name" v="Høgstad" />
		<tag k="place" v="farm" />
		<tag k="ssr:stedsnr" v="721378" />
	</node>
	<node id="-726266" lat="69.6902083331" lon="18.8602638843">
		<tag k="name" v="Slettatorget" />
		<tag k="place" v="square" />
		<tag k="ssr:stedsnr" v="417557" />
	</node>
	<node id="-724217" lat="69.5419027813" lon="18.9638555531">
		<tag k="name" v="Erikjorda" />
		<tag k="place" v="farm" />
		<tag k="ssr:stedsnr" v="18261" />
	</node>
	<node id="-728312" lat="69.5420527804" lon="18.766005551">
		<tag k="name" v="Nordhus" />
		<tag k="place" v="farm" />
		<tag k="ssr:stedsnr" v="721350" />
	</node>
	<node id="-728311" lat="69.6018000007" lon="18.8027027728">
		<tag k="name" v="Haugrud" />
		<tag k="place" v="farm" />
		<tag k="ssr:stedsnr" v="721344" />
	</node>
	<node id="-726569" lat="69.9517916649" lon="18.806536111">
		<tag k="name" v="Lauveng" />
		<tag k="place" v="farm" />
		<tag k="ssr:stedsnr" v="444846" />
	</node>
	<node id="-724211" lat="69.4829777758" lon="18.8470972193">
		<tag k="name" v="Kobbevågen - Báluluokta" />
		<tag k="name:no" v="Kobbevågen" />
		<tag k="name:se" v="Báluluokta" />
		<tag k="place" v="hamlet" />
		<tag k="ssr:stedsnr" v="18186" />
	</node>
	<node id="-724209" lat="69.64356389" lon="19.5305472259">
		<tag k="name" v="Nygard" />
		<tag k="place" v="isolated_dwelling" />
		<tag k="ssr:stedsnr" v="18147" />
	</node>
	<node id="-726256" lat="69.4625166715" lon="19.6308722102">
		<tag k="name" v="Nygård" />
		<tag k="place" v="farm" />
		<tag k="ssr:stedsnr" v="417316" />
	</node>
	<node id="-724207" lat="69.6039861102" lon="19.3214110906">
		<tag k="name" v="Solvoll" />
		<tag k="place" v="farm" />
		<tag k="ssr:stedsnr" v="18135" />
	</node>
	<node id="-728301" lat="69.5725749982" lon="19.1834027747">
		<tag k="name" v="Latofta" />
		<tag k="place" v="farm" />
		<tag k="ssr:stedsnr" v="720334" />
	</node>
	<node id="-724202" lat="69.5402861115" lon="19.637605537">
		<tag k="name" v="Myreng" />
		<tag k="place" v="farm" />
		<tag k="ssr:stedsnr" v="18074" />
	</node>
	<node id="-723495" lat="69.6221888896" lon="19.3936194396">
		<tag k="name" v="Ingebrigtheimen" />
		<tag k="place" v="locality" />
		<tag k="ssr:stedsnr" v="356572" />
	</node>
	<node id="-724200" lat="69.4880277747" lon="19.6673527764">
		<tag k="name" v="Vang" />
		<tag k="place" v="farm" />
		<tag k="ssr:stedsnr" v="18037" />
	</node>
	<node id="-726245" lat="69.6623555582" lon="18.9486805562">
		<tag k="name" v="Skoglyst" />
		<tag k="place" v="quarter" />
		<tag k="ssr:stedsnr" v="417194" />
	</node>
	<node id="-724195" lat="69.6758638889" lon="18.9693388716">
		<tag k="name" v="Breivang" />
		<tag k="place" v="farm" />
		<tag k="ssr:stedsnr" v="267486" />
	</node>
	<node id="-724193" lat="69.6736777775" lon="18.9410305504">
		<tag k="name" v="Olsgård" />
		<tag k="place" v="quarter" />
		<tag k="ssr:stedsnr" v="267471" />
	</node>
	<node id="-727689" lat="69.8511777756" lon="18.5863888915">
		<tag k="name" v="Barbrovik" />
		<tag k="place" v="locality" />
		<tag k="ssr:stedsnr" v="626077" />
	</node>
	<node id="-728283" lat="69.7752305597" lon="19.3328277795">
		<tag k="amenity" v="school" />
		<tag k="name" v="Skittenelv skole" />
		<tag k="ssr:stedsnr" v="720523" />
	</node>
	<node id="-723188" lat="69.8521527808" lon="18.8217194296">
		<tag k="alt_name" v="Kvaløyvåg" />
		<tag k="fixme" v="consider place=hamlet" />
		<tag k="name" v="Kvaløyvågen" />
		<tag k="place" v="village" />
		<tag k="ssr:stedsnr" v="321984" />
	</node>
	<node id="-726231" lat="69.635988886" lon="18.9329694466">
		<tag k="name" v="Lille Lanes" />
		<tag k="place" v="quarter" />
		<tag k="ssr:stedsnr" v="416677" />
	</node>
	<node id="-726227" lat="69.654638889" lon="18.7440416503">
		<tag k="name" v="Nordbotn" />
		<tag k="place" v="hamlet" />
		<tag k="ssr:stedsnr" v="417529" />
	</node>
	<node id="-725539" lat="69.6031416653" lon="19.3278833184">
		<tag k="name" v="Stormo" />
		<tag k="place" v="farm" />
		<tag k="ssr:stedsnr" v="200126" />
	</node>
	<node id="-724172" lat="69.7923616188" lon="19.4915204799">
		<tag k="name" v="Svarvaren" />
		<tag k="place" v="hamlet" />
		<tag k="ssr:stedsnr" v="989719" />
	</node>
	<node id="-724170" lat="70.0329542812" lon="18.5596428366">
		<tag k="name" v="Melviken Storholmen" />
		<tag k="place" v="farm" />
		<tag k="ssr:stedsnr" v="988339" />
	</node>
	<node id="-724169" lat="70.0321848682" lon="18.559076793">
		<tag k="name" v="Melviken" />
		<tag k="place" v="farm" />
		<tag k="ssr:stedsnr" v="988338" />
	</node>
	<node id="-724168" lat="70.0324508078" lon="18.5590332927">
		<tag k="name" v="Melviken" />
		<tag k="place" v="farm" />
		<tag k="ssr:stedsnr" v="988337" />
	</node>
	<node id="-723489" lat="69.7769638874" lon="19.3084472265">
		<tag k="name" v="Nordgård" />
		<tag k="place" v="farm" />
		<tag k="ssr:stedsnr" v="356519" />
	</node>
	<node id="-724854" lat="69.553147226" lon="19.7222749792">
		<tag k="amenity" v="school" />
		<tag k="name" v="Olderbakken skole" />
		<tag k="ssr:stedsnr" v="109482" />
	</node>
	<node id="-726208" lat="69.4666722265" lon="18.8992833347">
		<tag k="name" v="Sandbakken" />
		<tag k="place" v="isolated_dwelling" />
		<tag k="ssr:stedsnr" v="268394" />
	</node>
	<node id="-726207" lat="69.6023749978" lon="18.0457666586">
		<tag k="name" v="Klubban" />
		<tag k="place" v="farm" />
		<tag k="ssr:stedsnr" v="268382" />
	</node>
	<node id="-724158" lat="69.9270540586" lon="18.4883523047">
		<tag k="fixme" v="consider place=hamlet" />
		<tag k="name" v="Lyngøen" />
		<tag k="place" v="farm" />
		<tag k="ssr:stedsnr" v="987781" />
	</node>
	<node id="-724157" lat="69.6864139657" lon="18.3406590446">
		<tag k="loc_name" v="Krokskaret" />
		<tag k="name" v="Krokskar" />
		<tag k="place" v="farm" />
		<tag k="ssr:stedsnr" v="987778" />
	</node>
	<node id="-728252" lat="69.9669083327" lon="18.8767083223">
		<tag k="name" v="Leirbukt" />
		<tag k="place" v="farm" />
		<tag k="ssr:stedsnr" v="717387" />
	</node>
	<node id="-724154" lat="69.7939145962" lon="18.130663004">
		<tag k="name" v="Røssholmen" />
		<tag k="place" v="farm" />
		<tag k="ssr:stedsnr" v="987585" />
	</node>
	<node id="-724153" lat="69.7904746684" lon="18.1435599307">
		<tag k="fixme" v="consider place=hamlet" />
		<tag k="name" v="Røssholmen" />
		<tag k="place" v="farm" />
		<tag k="ssr:stedsnr" v="987584" />
	</node>
	<node id="-724152" lat="69.3960839211" lon="19.4868465942">
		<tag k="name" v="Nordstrøm" />
		<tag k="place" v="farm" />
		<tag k="ssr:stedsnr" v="987582" />
	</node>
	<node id="-724151" lat="69.8154703225" lon="19.0317016631">
		<tag k="fixme" v="consider place=hamlet" />
		<tag k="name" v="Nordhellen" />
		<tag k="place" v="farm" />
		<tag k="ssr:stedsnr" v="987578" />
	</node>
	<node id="-724150" lat="69.797056664" lon="19.0175420539">
		<tag k="fixme" v="consider place=hamlet" />
		<tag k="name" v="Sørhellen" />
		<tag k="place" v="farm" />
		<tag k="ssr:stedsnr" v="987572" />
	</node>
	<node id="-728245" lat="69.7934916673" lon="19.068269442">
		<tag k="name" v="Torheim" />
		<tag k="place" v="isolated_dwelling" />
		<tag k="ssr:stedsnr" v="717178" />
	</node>
	<node id="-724148" lat="69.4375892545" lon="19.5520000493">
		<tag k="fixme" v="consider place=hamlet" />
		<tag k="name" v="Stordalen - Suortu" />
		<tag k="name:no" v="Stordalen" />
		<tag k="name:se" v="Suortu" />
		<tag k="place" v="farm" />
		<tag k="ssr:stedsnr" v="986922" />
	</node>
	<node id="-724147" lat="69.5114919433" lon="19.2347385685">
		<tag k="fixme" v="consider place=hamlet" />
		<tag k="name" v="Sakariasjorda - Skáidi" />
		<tag k="name:no" v="Sakariasjorda" />
		<tag k="name:se" v="Skáidi" />
		<tag k="place" v="farm" />
		<tag k="ssr:stedsnr" v="986893" />
	</node>
	<node id="-724146" lat="69.7732017122" lon="19.384576749">
		<tag k="fixme" v="consider place=hamlet" />
		<tag k="name" v="Skittenelva - Baikajohka" />
		<tag k="name:no" v="Skittenelva" />
		<tag k="name:se" v="Baikajohka" />
		<tag k="place" v="farm" />
		<tag k="ssr:stedsnr" v="986809" />
	</node>
	<node id="-724145" lat="69.7996830964" lon="19.5424103078">
		<tag k="fixme" v="consider place=hamlet" />
		<tag k="name" v="Snarby - Snárdut" />
		<tag k="name:no" v="Snarby" />
		<tag k="name:se" v="Snárdut" />
		<tag k="place" v="farm" />
		<tag k="ssr:stedsnr" v="986808" />
	</node>
	<node id="-724144" lat="69.7552948902" lon="19.6700473228">
		<tag k="name" v="Oldervika - Leaibbáš" />
		<tag k="name:no" v="Oldervika" />
		<tag k="name:se" v="Leaibbáš" />
		<tag k="place" v="hamlet" />
		<tag k="ssr:stedsnr" v="986806" />
	</node>
	<node id="-726187" lat="69.7736361156" lon="19.2550222129">
		<tag k="name" v="Risvoll" />
		<tag k="place" v="farm" />
		<tag k="ssr:stedsnr" v="262693" />
	</node>
	<node id="-726186" lat="70.0122916699" lon="18.7415277756">
		<tag k="name" v="Skogvika" />
		<tag k="place" v="farm" />
		<tag k="ssr:stedsnr" v="262692" />
	</node>
	<node id="-725223" lat="69.5696444444" lon="19.18694722">
		<tag k="fixme" v="consider place=hamlet" />
		<tag k="name" v="Nordbotn" />
		<tag k="place" v="village" />
		<tag k="ssr:stedsnr" v="140272" />
	</node>
	<node id="-726182" lat="69.7753333351" lon="19.3430083177">
		<tag k="name" v="Lier" />
		<tag k="place" v="farm" />
		<tag k="ssr:stedsnr" v="262681" />
	</node>
	<node id="-728369" lat="69.5336166634" lon="18.6670916577">
		<tag k="name" v="Elvevoll" />
		<tag k="place" v="farm" />
		<tag k="ssr:stedsnr" v="721166" />
	</node>
	<node id="-725235" lat="69.5489805596" lon="19.6487916626">
		<tag k="alt_name:no" v="Skrevollen;Skredvolden" />
		<tag k="loc_name:se" v="Riđđogieddi" />
		<tag k="name" v="Skredvoll" />
		<tag k="name:no" v="Skredvoll" />
		<tag k="place" v="farm" />
		<tag k="ssr:stedsnr" v="140082" />
	</node>
	<node id="-726166" lat="69.6317027755" lon="18.9224333344">
		<tag k="name" v="Lanes" />
		<tag k="place" v="quarter" />
		<tag k="ssr:stedsnr" v="262321" />
	</node>
	<node id="-727577" lat="69.5855805547" lon="19.7585638897">
		<tag k="alt_name" v="Solund" />
		<tag k="name" v="Sollund" />
		<tag k="place" v="farm" />
		<tag k="ssr:stedsnr" v="625175" />
	</node>
	<node id="-726893" lat="69.5523250011" lon="19.7191444418">
		<tag k="name" v="Rundhaug" />
		<tag k="place" v="farm" />
		<tag k="ssr:stedsnr" v="533536" />
	</node>
	<node id="-726155" lat="69.9834083365" lon="18.6998166585">
		<tag k="name" v="Skagøy" />
		<tag k="place" v="farm" />
		<tag k="ssr:stedsnr" v="262184" />
	</node>
	<node id="-726154" lat="69.9982388868" lon="18.7264027694">
		<tag k="name" v="Solheim" />
		<tag k="place" v="farm" />
		<tag k="ssr:stedsnr" v="262160" />
	</node>
	<node id="-725185" lat="69.8543611145" lon="18.6466861045">
		<tag k="name" v="Nautnesvik" />
		<tag k="place" v="isolated_dwelling" />
		<tag k="ssr:stedsnr" v="139730" />
	</node>
	<node id="-724843" lat="69.8232333287" lon="18.5713222252">
		<tag k="name" v="Jektvik" />
		<tag k="place" v="isolated_dwelling" />
		<tag k="ssr:stedsnr" v="107068" />
	</node>
	<node id="-728192" lat="69.6543611093" lon="19.0031583139">
		<tag k="name" v="Elveneset" />
		<tag k="place" v="isolated_dwelling" />
		<tag k="ssr:stedsnr" v="707123" />
	</node>
	<node id="-724160" lat="69.7606006325" lon="18.7158210231">
		<tag k="name" v="Molnes" />
		<tag k="place" v="farm" />
		<tag k="ssr:stedsnr" v="988275" />
	</node>
	<node id="-728190" lat="69.6284111132" lon="18.9552722157">
		<tag k="name" v="Mellomjorda" />
		<tag k="place" v="quarter" />
		<tag k="ssr:stedsnr" v="707059" />
	</node>
	<node id="-728188" lat="69.6208222211" lon="18.2856444394">
		<tag k="name" v="Lauklines Kystferie" />
		<tag k="ssr:stedsnr" v="701321" />
		<tag k="tourism" v="guest_house" />
	</node>
	<node id="-728187" lat="69.572327775" lon="18.773808328">
		<tag k="name" v="Larseng" />
		<tag k="place" v="hamlet" />
		<tag k="ssr:stedsnr" v="699679" />
	</node>
	<node id="-724159" lat="69.9270296489" lon="18.491362871">
		<tag k="name" v="Lyngøy" />
		<tag k="place" v="farm" />
		<tag k="ssr:stedsnr" v="988252" />
	</node>
	<node id="-726136" lat="69.8419055601" lon="18.8149138736">
		<tag k="name" v="Kjosvoll" />
		<tag k="place" v="farm" />
		<tag k="ssr:stedsnr" v="261971" />
	</node>
	<node id="-728183" lat="69.8352027774" lon="19.0098555619">
		<tag k="name" v="Simavika" />
		<tag k="place" v="hamlet" />
		<tag k="ssr:stedsnr" v="696544" />
	</node>
	<node id="-728182" lat="69.715980555" lon="18.9470861002">
		<tag k="name" v="Lanes" />
		<tag k="place" v="farm" />
		<tag k="ssr:stedsnr" v="693612" />
	</node>
	<node id="-724082" lat="69.5203861116" lon="19.7251277739">
		<tag k="name" v="Sandstrand" />
		<tag k="place" v="farm" />
		<tag k="ssr:stedsnr" v="897517" />
	</node>
	<node id="-724081" lat="69.551874996" lon="19.6567833311">
		<tag k="name" v="Lilletun" />
		<tag k="place" v="farm" />
		<tag k="ssr:stedsnr" v="897499" />
	</node>
	<node id="-728175" lat="69.6227694479" lon="18.3225999969">
		<tag k="name" v="Solheim" />
		<tag k="place" v="isolated_dwelling" />
		<tag k="ssr:stedsnr" v="692441" />
	</node>
	<node id="-728173" lat="69.7184805593" lon="19.0922972149">
		<tag k="name" v="Storsletta" />
		<tag k="place" v="isolated_dwelling" />
		<tag k="ssr:stedsnr" v="692346" />
	</node>
	<node id="-726123" lat="69.7881388895" lon="19.0917472114">
		<tag k="alt_name" v="Skullgammen" />
		<tag k="name" v="Skulgammen" />
		<tag k="place" v="farm" />
		<tag k="ssr:stedsnr" v="261888" />
	</node>
	<node id="-728169" lat="69.6589333315" lon="18.9484694266">
		<tag k="name" v="Myreng" />
		<tag k="place" v="suburb" />
		<tag k="ssr:stedsnr" v="691529" />
	</node>
	<node id="-728168" lat="69.4083805559" lon="19.6574472076">
		<tag k="name" v="Ringstad" />
		<tag k="place" v="farm" />
		<tag k="ssr:stedsnr" v="688544" />
	</node>
	<node id="-728167" lat="69.4437416666" lon="19.5825249783">
		<tag k="alt_name" v="Indrevold" />
		<tag k="name" v="Indrevoll" />
		<tag k="place" v="farm" />
		<tag k="ssr:stedsnr" v="688529" />
	</node>
	<node id="-726117" lat="69.4853750013" lon="18.8435055508">
		<tag k="name" v="Indre Kobbevågen" />
		<tag k="place" v="farm" />
		<tag k="ssr:stedsnr" v="261823" />
	</node>
	<node id="-728164" lat="69.6270055588" lon="19.0000083311">
		<tag k="fixme" v="consider tourism=alpine_hut or tourism=chalet" />
		<tag k="name" v="Steinbua" />
		<tag k="ssr:stedsnr" v="688435" />
		<tag k="tourism" v="wilderness_hut" />
	</node>
	<node id="-726321" lat="69.6000416657" lon="19.8576305305">
		<tag k="name" v="Sandstrand" />
		<tag k="place" v="farm" />
		<tag k="ssr:stedsnr" v="418187" />
	</node>
	<node id="-724065" lat="69.8693583311" lon="18.9223610978">
		<tag k="name" v="Berglund" />
		<tag k="place" v="isolated_dwelling" />
		<tag k="ssr:stedsnr" v="899207" />
	</node>
	<node id="-726108" lat="69.6988750534" lon="18.4175417375">
		<tag k="alt_name" v="Sandholm" />
		<tag k="name" v="Sandholmen" />
		<tag k="place" v="farm" />
		<tag k="ssr:stedsnr" v="261711" />
	</node>
	<node id="-726101" lat="69.6465277807" lon="18.1137805499">
		<tag k="name" v="Tussøy" />
		<tag k="place" v="farm" />
		<tag k="ssr:stedsnr" v="261666" />
	</node>
	<node id="-726100" lat="69.7351697182" lon="18.2429558673">
		<tag k="fixme" v="consider place=hamlet" />
		<tag k="loc_name" v="Sæsøya" />
		<tag k="name" v="Sessøya" />
		<tag k="place" v="farm" />
		<tag k="ssr:stedsnr" v="261652" />
	</node>
	<node id="-726200" lat="69.6820777763" lon="18.7400888796">
		<tag k="loc_name" v="Kaldfjorden" />
		<tag k="name" v="Kaldfjord" />
		<tag k="place" v="village" />
		<tag k="ssr:stedsnr" v="266535" />
	</node>
	<node id="-724834" lat="69.674449997" lon="18.9773722263">
		<tag k="name" v="Nordheim" />
		<tag k="place" v="quarter" />
		<tag k="ssr:stedsnr" v="102220" />
	</node>
	<node id="-728137" lat="69.8365333375" lon="18.5801583185">
		<tag k="name" v="Myreng" />
		<tag k="place" v="farm" />
		<tag k="ssr:stedsnr" v="687193" />
	</node>
	<node id="-726087" lat="69.6200944488" lon="18.2087194462">
		<tag k="fixme" v="consider place=hamlet" />
		<tag k="name" v="Bogen" />
		<tag k="place" v="village" />
		<tag k="ssr:stedsnr" v="261548" />
	</node>
	<node id="-728134" lat="69.8294888877" lon="18.4399166642">
		<tag k="alt_name" v="Sommersete" />
		<tag k="name" v="Sommarsete" />
		<tag k="place" v="isolated_dwelling" />
		<tag k="ssr:stedsnr" v="687186" />
	</node>
	<node id="-724833" lat="69.6601361114" lon="18.9683083222">
		<tag k="building" v="civic" />
		<tag k="name" v="Troms politidistrikt" />
		<tag k="ssr:stedsnr" v="102213" />
	</node>
	<node id="-726198" lat="69.6977444464" lon="19.0822860979">
		<tag k="name" v="Skjelnan" />
		<tag k="place" v="suburb" />
		<tag k="ssr:stedsnr" v="266522" />
	</node>
	<node id="-728125" lat="69.7688361141" lon="18.3861555473">
		<tag k="name" v="Langmyrrabben" />
		<tag k="place" v="isolated_dwelling" />
		<tag k="ssr:stedsnr" v="687133" />
	</node>
	<node id="-724028" lat="69.7200999974" lon="19.0959388746">
		<tag k="name" v="Skoglund" />
		<tag k="place" v="farm" />
		<tag k="ssr:stedsnr" v="478723" />
	</node>
	<node id="-726075" lat="69.5493361072" lon="18.5459583228">
		<tag k="name" v="Storelv" />
		<tag k="place" v="farm" />
		<tag k="ssr:stedsnr" v="261462" />
	</node>
	<node id="-726072" lat="69.679730552" lon="18.775891671">
		<tag k="name" v="Midtgard" />
		<tag k="place" v="farm" />
		<tag k="ssr:stedsnr" v="261441" />
	</node>
	<node id="-726066" lat="69.6809583366" lon="18.7796972156">
		<tag k="name" v="Myrland" />
		<tag k="place" v="farm" />
		<tag k="ssr:stedsnr" v="261413" />
	</node>
	<node id="-724014" lat="69.5385777817" lon="19.7339638834">
		<tag k="name" v="Leirbukt - Lánjluokta" />
		<tag k="name:no" v="Leirbukt" />
		<tag k="name:se" v="Lánjluokta" />
		<tag k="place" v="hamlet" />
		<tag k="ssr:stedsnr" v="478594" />
	</node>
	<node id="-724012" lat="69.63166389" lon="18.7801194512">
		<tag k="name" v="Nybrott" />
		<tag k="place" v="farm" />
		<tag k="ssr:stedsnr" v="478539" />
	</node>
	<node id="-724011" lat="69.6875250045" lon="18.8463027625">
		<tag k="amenity" v="school" />
		<tag k="name" v="Selnes skole" />
		<tag k="ssr:stedsnr" v="478524" />
	</node>
	<node id="-726535" lat="69.6010361145" lon="19.8686583296">
		<tag k="name" v="Tufte" />
		<tag k="place" v="farm" />
		<tag k="ssr:stedsnr" v="443982" />
	</node>
	<node id="-728104" lat="69.8049500039" lon="19.0713277611">
		<tag k="name" v="Vassås" />
		<tag k="place" v="locality" />
		<tag k="ssr:stedsnr" v="686916" />
	</node>
	<node id="-726055" lat="69.648344441" lon="18.7950555357">
		<tag k="name" v="Nyrud" />
		<tag k="place" v="farm" />
		<tag k="ssr:stedsnr" v="261334" />
	</node>
	<node id="-726051" lat="69.5353138902" lon="19.1942583145">
		<tag k="alt_name" v="Steinbakjord;Steinbakkjord" />
		<tag k="name" v="Steinbakkjorda" />
		<tag k="place" v="farm" />
		<tag k="ssr:stedsnr" v="261307" />
	</node>
	<node id="-726050" lat="69.5309388868" lon="19.012449984">
		<tag k="landuse" v="military" />
		<tag k="name" v="Olavsvern" />
		<tag k="ssr:stedsnr" v="261308" />
	</node>
	<node id="-728097" lat="69.4655861094" lon="18.9056694435">
		<tag k="name" v="Hansmoen" />
		<tag k="place" v="isolated_dwelling" />
		<tag k="ssr:stedsnr" v="686872" />
	</node>
	<node id="-728096" lat="69.7537138868" lon="19.1866527676">
		<tag k="alt_name" v="Lavoll" />
		<tag k="name" v="Lavollen" />
		<tag k="place" v="farm" />
		<tag k="ssr:stedsnr" v="686871" />
	</node>
	<node id="-726192" lat="69.7992722209" lon="19.5430055561">
		<tag k="name" v="Snarby - Snárdut" />
		<tag k="name:no" v="Snarby" />
		<tag k="name:se" v="Snárdut" />
		<tag k="place" v="hamlet" />
		<tag k="ssr:stedsnr" v="262742" />
	</node>
	<node id="-726046" lat="69.5704527808" lon="18.9439250008">
		<tag k="alt_name" v="Nordgard" />
		<tag k="name" v="Nordgård" />
		<tag k="place" v="farm" />
		<tag k="ssr:stedsnr" v="261249" />
	</node>
	<node id="-728093" lat="69.7689444484" lon="19.0489277857">
		<tag k="name" v="Skogstad" />
		<tag k="place" v="farm" />
		<tag k="ssr:stedsnr" v="686857" />
	</node>
	<node id="-726044" lat="69.4319444406" lon="19.5537611016">
		<tag k="alt_name:no" v="Stordal" />
		<tag k="loc_name:se" v="Siskkit Suortu" />
		<tag k="name" v="Stordalen" />
		<tag k="name:no" v="Stordalen" />
		<tag k="place" v="farm" />
		<tag k="ssr:stedsnr" v="261235" />
	</node>
	<node id="-728091" lat="69.4685805533" lon="18.9038360985">
		<tag k="name" v="Bergheim" />
		<tag k="place" v="farm" />
		<tag k="ssr:stedsnr" v="686852" />
	</node>
	<node id="-726038" lat="69.6556111073" lon="19.5632277672">
		<tag k="name" v="Haugli" />
		<tag k="place" v="farm" />
		<tag k="ssr:stedsnr" v="261218" />
	</node>
	<node id="-726037" lat="69.4108499976" lon="19.5515999876">
		<tag k="name" v="Mellemjord" />
		<tag k="place" v="farm" />
		<tag k="ssr:stedsnr" v="261219" />
	</node>
	<node id="-726036" lat="69.4208694487" lon="19.6643749854">
		<tag k="alt_name" v="Olderbukt" />
		<tag k="name" v="Olderbukta" />
		<tag k="place" v="isolated_dwelling" />
		<tag k="ssr:stedsnr" v="261214" />
	</node>
	<node id="-726035" lat="69.6481361134" lon="19.5723527721">
		<tag k="name" v="Nymark" />
		<tag k="place" v="farm" />
		<tag k="ssr:stedsnr" v="261211" />
	</node>
	<node id="-726032" lat="69.3968916698" lon="19.518927776">
		<tag k="alt_name" v="Grønnvold" />
		<tag k="name" v="Grønvoll" />
		<tag k="place" v="farm" />
		<tag k="ssr:stedsnr" v="261199" />
	</node>
	<node id="-723795" lat="69.7976416659" lon="19.0195694458">
		<tag k="name" v="Laurbakken" />
		<tag k="place" v="farm" />
		<tag k="ssr:stedsnr" v="390539" />
	</node>
	<node id="-726029" lat="69.3784722262" lon="19.6165111112">
		<tag k="alt_name:no" v="Lamo" />
		<tag k="loc_name:se" v="Burnjárga" />
		<tag k="name" v="Lamoen" />
		<tag k="name:no" v="Lamoen" />
		<tag k="place" v="farm" />
		<tag k="ssr:stedsnr" v="261193" />
	</node>
	<node id="-728074" lat="69.6010388897" lon="18.3025611118">
		<tag k="name" v="Åsheim" />
		<tag k="place" v="farm" />
		<tag k="ssr:stedsnr" v="686634" />
	</node>
	<node id="-726025" lat="69.6028638935" lon="19.8115583179">
		<tag k="name" v="Jøvik" />
		<tag k="place" v="farm" />
		<tag k="ssr:stedsnr" v="261169" />
	</node>
	<node id="-726024" lat="69.5807166628" lon="19.690463874">
		<tag k="name" v="Elvebakken" />
		<tag k="place" v="farm" />
		<tag k="ssr:stedsnr" v="261167" />
	</node>
	<node id="-726023" lat="69.5717083368" lon="19.7499944387">
		<tag k="name" v="Olderbakken - Leaibedievvá" />
		<tag k="name:no" v="Olderbakken" />
		<tag k="name:se" v="Leaibedievvá" />
		<tag k="place" v="hamlet" />
		<tag k="ssr:stedsnr" v="261165" />
	</node>
	<node id="-728070" lat="69.6204388915" lon="18.3051527783">
		<tag k="name" v="Skoglund" />
		<tag k="place" v="farm" />
		<tag k="ssr:stedsnr" v="686542" />
	</node>
	<node id="-724822" lat="69.4565722184" lon="19.6631499844">
		<tag k="name" v="Skippenes" />
		<tag k="place" v="locality" />
		<tag k="ssr:stedsnr" v="87051" />
	</node>
	<node id="-728066" lat="69.531747225" lon="18.5998666735">
		<tag k="alt_name" v="Mårsteinneset" />
		<tag k="fixme" v="multiple name tags, choose one and add the other to alt_name" />
		<tag k="name" v="Mortennes;Mårsteinnes" />
		<tag k="place" v="farm" />
		<tag k="ssr:stedsnr" v="686478" />
	</node>
	<node id="-724139" lat="69.6744874187" lon="18.9554875446">
		<tag k="leisure" v="pitch" />
		<tag k="name" v="Tromsøbadet" />
		<tag k="ssr:stedsnr" v="985743" />
	</node>
	<node id="-728064" lat="69.5177250048" lon="18.5099027677">
		<tag k="name" v="Sandviknes" />
		<tag k="place" v="farm" />
		<tag k="ssr:stedsnr" v="686472" />
	</node>
	<node id="-726015" lat="69.5994972211" lon="19.3200944431">
		<tag k="name" v="Berglund" />
		<tag k="place" v="farm" />
		<tag k="ssr:stedsnr" v="261133" />
	</node>
	<node id="-726014" lat="69.6148083349" lon="19.389852771">
		<tag k="alt_name" v="Aspelund" />
		<tag k="name" v="Asplund" />
		<tag k="place" v="farm" />
		<tag k="ssr:stedsnr" v="261131" />
	</node>
	<node id="-726869" lat="69.5307083357" lon="18.1560000082">
		<tag k="name" v="Mellagården" />
		<tag k="place" v="farm" />
		<tag k="ssr:stedsnr" v="539447" />
	</node>
	<node id="-723964" lat="69.7726138882" lon="18.3973694295">
		<tag k="amenity" v="school" />
		<tag k="name" v="Tromvik skole" />
		<tag k="ssr:stedsnr" v="478055" />
	</node>
	<node id="-727210" lat="69.75703056" lon="19.0360027678">
		<tag k="name" v="Oppigård" />
		<tag k="place" v="farm" />
		<tag k="ssr:stedsnr" v="564879" />
	</node>
	<node id="-723796" lat="69.5509638882" lon="18.8535888834">
		<tag k="name" v="Balsnes" />
		<tag k="old_name" v="Ytre Balsnes" />
		<tag k="place" v="farm" />
		<tag k="ssr:stedsnr" v="390767" />
	</node>
	<node id="-726005" lat="69.5526805544" lon="19.6592805405">
		<tag k="name" v="Bergmo" />
		<tag k="place" v="farm" />
		<tag k="ssr:stedsnr" v="261094" />
	</node>
	<node id="-730100" lat="69.6976873907" lon="18.4458307557">
		<tag k="loc_name" v="Spirvika" />
		<tag k="name" v="Spirvik" />
		<tag k="place" v="farm" />
		<tag k="ssr:stedsnr" v="975805" />
	</node>
	<node id="-730099" lat="69.5527219334" lon="19.1640677003">
		<tag k="name" v="Hanslarsanes" />
		<tag k="place" v="farm" />
		<tag k="ssr:stedsnr" v="975772" />
	</node>
	<node id="-728050" lat="69.62842222" lon="18.7636916491">
		<tag k="name" v="Myrset" />
		<tag k="place" v="isolated_dwelling" />
		<tag k="ssr:stedsnr" v="686319" />
	</node>
	<node id="-728049" lat="69.5384694428" lon="19.2157611071">
		<tag k="alt_name" v="Fagerelv" />
		<tag k="name" v="Fagerelva" />
		<tag k="place" v="farm" />
		<tag k="ssr:stedsnr" v="686279" />
	</node>
	<node id="-728048" lat="69.5342888864" lon="18.6289388946">
		<tag k="name" v="Skarstad" />
		<tag k="place" v="farm" />
		<tag k="ssr:stedsnr" v="686262" />
	</node>
	<node id="-728046" lat="69.4366666635" lon="19.6470638868">
		<tag k="alt_name" v="Lakselvnes;Lakselven ytre" />
		<tag k="name" v="Ytre Lakselvnes" />
		<tag k="place" v="farm" />
		<tag k="ssr:stedsnr" v="686239" />
	</node>
	<node id="-730092" lat="69.7358786707" lon="18.0905070366">
		<tag k="fixme" v="consider place=hamlet" />
		<tag k="name" v="Håja" />
		<tag k="place" v="farm" />
		<tag k="ssr:stedsnr" v="975484" />
	</node>
	<node id="-725995" lat="69.4994722226" lon="19.2470083324">
		<tag k="name" v="Langmoen" />
		<tag k="place" v="farm" />
		<tag k="ssr:stedsnr" v="261041" />
	</node>
	<node id="-725994" lat="69.4999388892" lon="19.7125499975">
		<tag k="alt_name" v="Holmbukta, yt;Ytre Holmebukt" />
		<tag k="fixme" v="multiple name tags, choose one and add the other to alt_name" />
		<tag k="name" v="Holmebukt;Ytre Holmbukta" />
		<tag k="place" v="farm" />
		<tag k="ssr:stedsnr" v="261031" />
	</node>
	<node id="-730087" lat="69.8329166779" lon="18.6272295223">
		<tag k="fixme" v="consider place=hamlet" />
		<tag k="name" v="Vågsøya" />
		<tag k="place" v="farm" />
		<tag k="ssr:stedsnr" v="975410" />
	</node>
	<node id="-725990" lat="69.4718361095" lon="19.7029222147">
		<tag k="alt_name" v="Holmbukta, in;Indre Holmebukt" />
		<tag k="name" v="Indre Holmbukta" />
		<tag k="place" v="farm" />
		<tag k="ssr:stedsnr" v="261007" />
	</node>
	<node id="-728037" lat="69.5089222191" lon="18.9993388716">
		<tag k="alt_name" v="Andersdal, in" />
		<tag k="fixme" v="consider place=hamlet" />
		<tag k="name" v="Indre Andersdal" />
		<tag k="place" v="village" />
		<tag k="ssr:stedsnr" v="686207" />
	</node>
	<node id="-728036" lat="69.4106027779" lon="19.6380472205">
		<tag k="name" v="Fossvoll" />
		<tag k="place" v="isolated_dwelling" />
		<tag k="ssr:stedsnr" v="686206" />
	</node>
	<node id="-725158" lat="69.5950611119" lon="18.2961138734">
		<tag k="name" v="Yttergård" />
		<tag k="place" v="farm" />
		<tag k="ssr:stedsnr" v="139617" />
	</node>
	<node id="-728034" lat="69.3930444468" lon="19.4342138792">
		<tag k="alt_name:no" v="Sjøvasbotn" />
		<tag k="loc_name:se" v="Vuotnasiida;Badjestohpu" />
		<tag k="name" v="Sjøvassbotn" />
		<tag k="name:no" v="Sjøvassbotn" />
		<tag k="place" v="farm" />
		<tag k="ssr:stedsnr" v="686202" />
	</node>
	<node id="-730081" lat="69.6832820882" lon="18.1667991181">
		<tag k="fixme" v="consider place=hamlet" />
		<tag k="name" v="Angstauren" />
		<tag k="place" v="farm" />
		<tag k="ssr:stedsnr" v="975385" />
	</node>
	<node id="-730079" lat="69.9704462397" lon="18.5107182967">
		<tag k="fixme" v="consider place=hamlet" />
		<tag k="name" v="Risøya" />
		<tag k="place" v="farm" />
		<tag k="ssr:stedsnr" v="975378" />
	</node>
	<node id="-725982" lat="69.4832472221" lon="18.8864305481">
		<tag k="name" v="Kobbevågneset" />
		<tag k="place" v="farm" />
		<tag k="ssr:stedsnr" v="242933" />
	</node>
	<node id="-725981" lat="69.4957861109" lon="18.8296666562">
		<tag k="fixme" v="consider place=hamlet" />
		<tag k="name" v="Midtre Kobbevågen" />
		<tag k="place" v="farm" />
		<tag k="ssr:stedsnr" v="242906" />
	</node>
	<node id="-728028" lat="69.5674611119" lon="19.6878360891">
		<tag k="name" v="Røssnes" />
		<tag k="place" v="farm" />
		<tag k="ssr:stedsnr" v="686158" />
	</node>
	<node id="-730075" lat="69.6038622385" lon="19.0550239305">
		<tag k="fixme" v="consider tourism=alpine_hut or tourism=chalet" />
		<tag k="name" v="Røde Kors-hytta" />
		<tag k="ssr:stedsnr" v="971413" />
		<tag k="tourism" v="wilderness_hut" />
	</node>
	<node id="-730074" lat="69.6908284361" lon="18.1928299964">
		<tag k="name" v="Mortensteinen" />
		<tag k="place" v="farm" />
		<tag k="ssr:stedsnr" v="971364" />
	</node>
	<node id="-730073" lat="69.7349033273" lon="18.2456291915">
		<tag k="loc_name" v="Sæsøya" />
		<tag k="name" v="Sessøya" />
		<tag k="place" v="farm" />
		<tag k="ssr:stedsnr" v="970998" />
	</node>
	<node id="-728024" lat="69.6382999994" lon="19.5907860911">
		<tag k="name" v="Lauvli" />
		<tag k="place" v="farm" />
		<tag k="ssr:stedsnr" v="686134" />
	</node>
	<node id="-730071" lat="69.7099580935" lon="18.3439705257">
		<tag k="loc_name" v="Skamtinden" />
		<tag k="name" v="Skamtind" />
		<tag k="place" v="farm" />
		<tag k="ssr:stedsnr" v="970997" />
	</node>
	<node id="-730069" lat="69.862798424" lon="18.7551249961">
		<tag k="name" v="Nymo" />
		<tag k="place" v="farm" />
		<tag k="ssr:stedsnr" v="970992" />
	</node>
	<node id="-725098" lat="69.5807972266" lon="19.7556055417">
		<tag k="fixme" v="consider place=hamlet" />
		<tag k="name" v="Olderbakken - Leaibedievvá" />
		<tag k="name:no" v="Olderbakken" />
		<tag k="name:se" v="Leaibedievvá" />
		<tag k="place" v="farm" />
		<tag k="ssr:stedsnr" v="139173" />
	</node>
	<node id="-723793" lat="69.5815944449" lon="18.7941694403">
		<tag k="name" v="Slåttnes" />
		<tag k="place" v="farm" />
		<tag k="ssr:stedsnr" v="389447" />
	</node>
	<node id="-725970" lat="69.7296750017" lon="18.9653944275">
		<tag k="name" v="Bjørklund" />
		<tag k="place" v="farm" />
		<tag k="ssr:stedsnr" v="239016" />
	</node>
	<node id="-728017" lat="69.5547388923" lon="19.7227860954">
		<tag k="name" v="Rornes" />
		<tag k="place" v="farm" />
		<tag k="ssr:stedsnr" v="686084" />
	</node>
	<node id="-730062" lat="69.4825750033" lon="18.8474333259">
		<tag k="loc_name:se" v="Báluluokta" />
		<tag k="name" v="Kobbevågen" />
		<tag k="name:no" v="Kobbevågen" />
		<tag k="place" v="hamlet" />
		<tag k="ssr:stedsnr" v="969900" />
	</node>
	<node id="-723106" lat="69.6077500014" lon="18.0551111034">
		<tag k="name" v="Grindvollen" />
		<tag k="place" v="farm" />
		<tag k="ssr:stedsnr" v="296592" />
	</node>
	<node id="-723912" lat="69.8860611129" lon="18.8535027833">
		<tag k="name" v="Nord Kårvik" />
		<tag k="place" v="farm" />
		<tag k="ssr:stedsnr" v="474474" />
	</node>
	<node id="-725959" lat="69.5863833331" lon="19.7592638694">
		<tag k="name" v="Lilledal" />
		<tag k="place" v="farm" />
		<tag k="ssr:stedsnr" v="236903" />
	</node>
	<node id="-730053" lat="69.6423611133" lon="18.9156388744">
		<tag k="name" v="Vestrelia" />
		<tag k="place" v="quarter" />
		<tag k="ssr:stedsnr" v="967029" />
	</node>
	<node id="-730052" lat="69.6654611138" lon="18.9207250081">
		<tag k="name" v="Søndre Langnes" />
		<tag k="place" v="farm" />
		<tag k="ssr:stedsnr" v="967027" />
	</node>
	<node id="-730047" lat="69.5877277785" lon="18.2862999872">
		<tag k="name" v="Sørfjord" />
		<tag k="place" v="hamlet" />
		<tag k="ssr:stedsnr" v="964984" />
	</node>
	<node id="-725991" lat="69.4616750033" lon="19.6291833309">
		<tag k="name" v="Njosken - Njoaski" />
		<tag k="name:no" v="Njosken" />
		<tag k="name:se" v="Njoaski" />
		<tag k="place" v="hamlet" />
		<tag k="ssr:stedsnr" v="261013" />
	</node>
	<node id="-729384" lat="69.6842472178" lon="18.8177944448">
		<tag k="name" v="Strand" />
		<tag k="place" v="farm" />
		<tag k="ssr:stedsnr" v="868403" />
	</node>
	<node id="-727984" lat="69.6680555544" lon="18.8238166703">
		<tag k="name" v="Sommerro" />
		<tag k="place" v="farm" />
		<tag k="ssr:stedsnr" v="685403" />
	</node>
	<node id="-725935" lat="69.5481861066" lon="18.7982333359">
		<tag k="name" v="Ingeborgheimen" />
		<tag k="place" v="locality" />
		<tag k="ssr:stedsnr" v="236335" />
	</node>
	<node id="-727982" lat="69.5502277752" lon="18.9589694463">
		<tag k="name" v="Holmesletta" />
		<tag k="place" v="farm" />
		<tag k="ssr:stedsnr" v="685271" />
	</node>
	<node id="-727981" lat="69.6495694492" lon="19.5300805426">
		<tag k="name" v="Elvevoll" />
		<tag k="place" v="farm" />
		<tag k="ssr:stedsnr" v="685209" />
	</node>
	<node id="-727980" lat="69.5429388892" lon="19.6402888782">
		<tag k="name" v="Elvevoll" />
		<tag k="place" v="farm" />
		<tag k="ssr:stedsnr" v="685074" />
	</node>
	<node id="-725930" lat="69.5730888879" lon="18.7772472162">
		<tag k="name" v="Paulseng" />
		<tag k="place" v="farm" />
		<tag k="ssr:stedsnr" v="236301" />
	</node>
	<node id="-723881" lat="69.8342499985" lon="18.6810333301">
		<tag k="name" v="Løkvik" />
		<tag k="place" v="isolated_dwelling" />
		<tag k="ssr:stedsnr" v="474024" />
	</node>
	<node id="-725928" lat="69.6860277773" lon="18.6807388814">
		<tag k="name" v="Steinheim" />
		<tag k="place" v="farm" />
		<tag k="ssr:stedsnr" v="236254" />
	</node>
	<node id="-726513" lat="69.482425004" lon="18.895680546">
		<tag k="name" v="Sandbakken" />
		<tag k="place" v="farm" />
		<tag k="ssr:stedsnr" v="443836" />
	</node>
	<node id="-727972" lat="69.6867416663" lon="18.9640861156">
		<tag k="leisure" v="pitch" />
		<tag k="name" v="Grønnåsen hoppsenter" />
		<tag k="ssr:stedsnr" v="664970" />
	</node>
	<node id="-727968" lat="69.6799805521" lon="18.9560638702">
		<tag k="name" v="Lysaker" />
		<tag k="place" v="isolated_dwelling" />
		<tag k="ssr:stedsnr" v="663034" />
	</node>
	<node id="-727967" lat="69.6790666686" lon="18.977988877">
		<tag k="name" v="Nordre Breivika" />
		<tag k="place" v="suburb" />
		<tag k="ssr:stedsnr" v="663032" />
	</node>
	<node id="-727966" lat="69.6895166638" lon="18.8654972072">
		<tag k="name" v="Lokås" />
		<tag k="place" v="farm" />
		<tag k="ssr:stedsnr" v="663027" />
	</node>
	<node id="-727965" lat="69.618986107" lon="18.8081111145">
		<tag k="name" v="Solheim" />
		<tag k="place" v="farm" />
		<tag k="ssr:stedsnr" v="662047" />
	</node>
	<node id="-727962" lat="69.5948027741" lon="19.7575388758">
		<tag k="fixme" v="consider place=hamlet" />
		<tag k="name" v="Strømsnes - Rávnjárga" />
		<tag k="name:no" v="Strømsnes" />
		<tag k="name:se" v="Rávnjárga" />
		<tag k="place" v="farm" />
		<tag k="ssr:stedsnr" v="660887" />
	</node>
	<node id="-728559" lat="69.7660833345" lon="19.0464777662">
		<tag k="name" v="Remma" />
		<tag k="place" v="farm" />
		<tag k="ssr:stedsnr" v="746843" />
	</node>
	<node id="-724473" lat="69.6739833292" lon="18.9677999976">
		<tag k="name" v="Bernts Minde" />
		<tag k="place" v="quarter" />
		<tag k="ssr:stedsnr" v="53165" />
	</node>
	<node id="-725910" lat="69.5175888923" lon="18.5338527864">
		<tag k="name" v="Elveslett" />
		<tag k="place" v="farm" />
		<tag k="ssr:stedsnr" v="236112" />
	</node>
	<node id="-730004" lat="69.5909666626" lon="18.6257750051">
		<tag k="name" v="Straumshytta" />
		<tag k="place" v="isolated_dwelling" />
		<tag k="ssr:stedsnr" v="964232" />
	</node>
	<node id="-727534" lat="69.7027277751" lon="18.2225444381">
		<tag k="alt_name" v="Bremnes" />
		<tag k="name" v="Maritheimen" />
		<tag k="place" v="farm" />
		<tag k="ssr:stedsnr" v="624622" />
	</node>
	<node id="-725903" lat="69.6519972259" lon="19.0145944274">
		<tag k="amenity" v="school" />
		<tag k="name" v="Tromsdalen videregående skole" />
		<tag k="ssr:stedsnr" v="235821" />
	</node>
	<node id="-725485" lat="69.5969888888" lon="19.8877416674">
		<tag k="name" v="Fornes" />
		<tag k="place" v="farm" />
		<tag k="ssr:stedsnr" v="175184" />
	</node>
	<node id="-725900" lat="69.5564416638" lon="19.5413888764">
		<tag k="name" v="Bukkheiman" />
		<tag k="place" v="locality" />
		<tag k="ssr:stedsnr" v="235777" />
	</node>
	<node id="-725899" lat="69.6043" lon="18.0425638787">
		<tag k="name" v="Klubban" />
		<tag k="place" v="farm" />
		<tag k="ssr:stedsnr" v="235764" />
	</node>
	<node id="-727944" lat="69.5298805582" lon="18.8624111028">
		<tag k="name" v="Elvenes" />
		<tag k="place" v="farm" />
		<tag k="ssr:stedsnr" v="660611" />
	</node>
	<node id="-725484" lat="69.533230559" lon="18.6570833202">
		<tag k="name" v="Nymoen" />
		<tag k="place" v="farm" />
		<tag k="ssr:stedsnr" v="175175" />
	</node>
	<node id="-729990" lat="69.6368000014" lon="18.4579583317">
		<tag k="name" v="Finngamman" />
		<tag k="place" v="locality" />
		<tag k="ssr:stedsnr" v="964077" />
	</node>
	<node id="-723995" lat="69.6098083313" lon="18.8146388853">
		<tag k="name" v="Torheim" />
		<tag k="place" v="farm" />
		<tag k="ssr:stedsnr" v="478336" />
	</node>
	<node id="-724118" lat="69.6735266752" lon="18.956306429">
		<tag k="name" v="Templarheimen" />
		<tag k="place" v="farm" />
		<tag k="ssr:stedsnr" v="1072245" />
	</node>
	<node id="-724404" lat="69.715177782" lon="19.0935638798">
		<tag k="name" v="Myrvoll" />
		<tag k="place" v="farm" />
		<tag k="ssr:stedsnr" v="40066" />
	</node>
	<node id="-725883" lat="69.6060805554" lon="19.3051444365">
		<tag k="name" v="Heim" />
		<tag k="place" v="farm" />
		<tag k="ssr:stedsnr" v="235676" />
	</node>
	<node id="-723108" lat="69.5006388936" lon="18.8477416526">
		<tag k="name" v="Berglund" />
		<tag k="place" v="farm" />
		<tag k="ssr:stedsnr" v="296597" />
	</node>
	<node id="-723830" lat="69.6101805549" lon="18.3224472209">
		<tag k="name" v="Sørtoft" />
		<tag k="place" v="locality" />
		<tag k="ssr:stedsnr" v="410931" />
	</node>
	<node id="-723828" lat="69.6203833303" lon="18.0630861093">
		<tag k="name" v="Utneim" />
		<tag k="place" v="isolated_dwelling" />
		<tag k="ssr:stedsnr" v="410604" />
	</node>
	<node id="-723827" lat="69.6042222239" lon="18.0426416561">
		<tag k="name" v="Lundemo" />
		<tag k="place" v="farm" />
		<tag k="ssr:stedsnr" v="410601" />
	</node>
	<node id="-726812" lat="69.7600222195" lon="18.6209138938">
		<tag k="name" v="Småbakkan" />
		<tag k="place" v="hamlet" />
		<tag k="ssr:stedsnr" v="505160" />
	</node>
	<node id="-729967" lat="69.5278861125" lon="18.8622249946">
		<tag k="name" v="Holteng" />
		<tag k="place" v="farm" />
		<tag k="ssr:stedsnr" v="963650" />
	</node>
	<node id="-727915" lat="69.5621666644" lon="18.7035388917">
		<tag k="name" v="Hamn" />
		<tag k="place" v="hamlet" />
		<tag k="ssr:stedsnr" v="660325" />
	</node>
	<node id="-725864" lat="69.6152305535" lon="19.5907555501">
		<tag k="name" v="Estengammen" />
		<tag k="place" v="locality" />
		<tag k="ssr:stedsnr" v="235370" />
	</node>
	<node id="-729949" lat="69.427733338" lon="19.6574694354">
		<tag k="name" v="Lakselven ytre" />
		<tag k="place" v="farm" />
		<tag k="ssr:stedsnr" v="963272" />
	</node>
	<node id="-723801" lat="69.6968583297" lon="19.0189694314">
		<tag k="name" v="Skattøra" />
		<tag k="place" v="quarter" />
		<tag k="ssr:stedsnr" v="396017" />
	</node>
	<node id="-725221" lat="69.5716805541" lon="18.6533694484">
		<tag k="fixme" v="consider place=hamlet" />
		<tag k="name" v="Straumsbukta" />
		<tag k="place" v="village" />
		<tag k="ssr:stedsnr" v="140256" />
	</node>
	<node id="-727895" lat="69.6057500002" lon="18.0279749857">
		<tag k="name" v="Ringmo" />
		<tag k="place" v="farm" />
		<tag k="ssr:stedsnr" v="660172" />
	</node>
	<node id="-727894" lat="69.5333166641" lon="18.6050972218">
		<tag k="name" v="Heimstad" />
		<tag k="place" v="farm" />
		<tag k="ssr:stedsnr" v="660161" />
	</node>
	<node id="-726841" lat="69.606744441" lon="18.9391277611">
		<tag k="fixme" v="consider place=suburb, village or hamlet" />
		<tag k="name" v="Solligården" />
		<tag k="place" v="quarter" />
		<tag k="ssr:stedsnr" v="514193" />
	</node>
	<node id="-727892" lat="69.5687333356" lon="18.661380553">
		<tag k="name" v="Straumsgård" />
		<tag k="place" v="farm" />
		<tag k="ssr:stedsnr" v="660153" />
	</node>
	<node id="-729939" lat="69.665077778" lon="18.9525472265">
		<tag k="name" v="Charlottenlund" />
		<tag k="place" v="quarter" />
		<tag k="ssr:stedsnr" v="963196" />
	</node>
	<node id="-729937" lat="69.6797805533" lon="18.977611111">
		<tag k="amenity" v="university" />
		<tag k="name" v="Tromsø Yrkesskole" />
		<tag k="ssr:stedsnr" v="963116" />
	</node>
	<node id="-727744" lat="69.7649138861" lon="19.0462972119">
		<tag k="name" v="Kraknes" />
		<tag k="place" v="hamlet" />
		<tag k="ssr:stedsnr" v="635605" />
	</node>
	<node id="-727887" lat="69.5215194422" lon="18.5478555535">
		<tag k="name" v="Åsheim" />
		<tag k="place" v="farm" />
		<tag k="ssr:stedsnr" v="660103" />
	</node>
	<node id="-729931" lat="69.5924638855" lon="18.9387444414">
		<tag k="name" v="Kaldsletta" />
		<tag k="place" v="farm" />
		<tag k="ssr:stedsnr" v="963029" />
	</node>
	<node id="-723975" lat="69.5342416686" lon="18.6261750061">
		<tag k="name" v="Skogheim" />
		<tag k="place" v="farm" />
		<tag k="ssr:stedsnr" v="478170" />
	</node>
	<node id="-726839" lat="69.7071694437" lon="18.9844499816">
		<tag k="name" v="Bjørnebekken" />
		<tag k="place" v="quarter" />
		<tag k="ssr:stedsnr" v="511503" />
	</node>
	<node id="-725831" lat="69.5341055566" lon="18.9979277616">
		<tag k="name" v="Ramfjordnes" />
		<tag k="place" v="farm" />
		<tag k="ssr:stedsnr" v="234221" />
	</node>
	<node id="-729925" lat="69.7379694457" lon="19.1736111069">
		<tag k="name" v="Elvevoll" />
		<tag k="place" v="farm" />
		<tag k="ssr:stedsnr" v="963324" />
	</node>
	<node id="-724790" lat="69.7745777765" lon="19.3082027639">
		<tag k="name" v="Solbakken" />
		<tag k="place" v="farm" />
		<tag k="ssr:stedsnr" v="80687" />
	</node>
	<node id="-723778" lat="69.6324055522" lon="18.9204249891">
		<tag k="name" v="Bjerkaker" />
		<tag k="place" v="suburb" />
		<tag k="ssr:stedsnr" v="388488" />
	</node>
	<node id="-725825" lat="69.6422944406" lon="18.9820277782">
		<tag k="name" v="Venset" />
		<tag k="place" v="quarter" />
		<tag k="ssr:stedsnr" v="234038" />
	</node>
	<node id="-725152" lat="69.7447166714" lon="19.1356972051">
		<tag k="landuse" v="military" />
		<tag k="name" v="Grøtsund" />
		<tag k="ssr:stedsnr" v="139497" />
	</node>
	<node id="-727869" lat="69.4388111151" lon="19.5641972203">
		<tag k="name" v="Stenvoll" />
		<tag k="place" v="farm" />
		<tag k="ssr:stedsnr" v="659858" />
	</node>
	<node id="-723772" lat="69.4333111131" lon="19.6469888821">
		<tag k="fixme" v="consider place=hamlet" />
		<tag k="name" v="Lakselvbukt - Moskaluokta" />
		<tag k="name:no" v="Lakselvbukt" />
		<tag k="name:se" v="Moskaluokta" />
		<tag k="place" v="village" />
		<tag k="ssr:stedsnr" v="385522" />
	</node>
	<node id="-727860" lat="69.7550527754" lon="19.1903222186">
		<tag k="name" v="Knausen" />
		<tag k="place" v="farm" />
		<tag k="ssr:stedsnr" v="659713" />
	</node>
	<node id="-723763" lat="69.9409444434" lon="18.9791555498">
		<tag k="name" v="Brattflåg" />
		<tag k="place" v="locality" />
		<tag k="ssr:stedsnr" v="383843" />
	</node>
	<node id="-729904" lat="69.8695805583" lon="18.912986111">
		<tag k="name" v="Solbakken" />
		<tag k="place" v="isolated_dwelling" />
		<tag k="ssr:stedsnr" v="960184" />
	</node>
	<node id="-723756" lat="70.0316666708" lon="18.6566777704">
		<tag k="name" v="Engvika" />
		<tag k="place" v="farm" />
		<tag k="ssr:stedsnr" v="383700" />
	</node>
	<node id="-723755" lat="70.0330305569" lon="18.7071222062">
		<tag k="fixme" v="multiple name tags, choose one and add the other to alt_name" />
		<tag k="name" v="Gamvollen;Ytre Løksfjord" />
		<tag k="place" v="farm" />
		<tag k="ssr:stedsnr" v="383697" />
	</node>
	<node id="-727850" lat="69.6122277809" lon="19.3697999977">
		<tag k="name" v="Bruvold" />
		<tag k="place" v="farm" />
		<tag k="ssr:stedsnr" v="659620" />
	</node>
	<node id="-727516" lat="69.636497224" lon="19.5106361079">
		<tag k="name" v="Nyskog" />
		<tag k="place" v="farm" />
		<tag k="ssr:stedsnr" v="624172" />
	</node>
	<node id="-726748" lat="69.6840666678" lon="18.6925999979">
		<tag k="name" v="Sjurelv" />
		<tag k="place" v="farm" />
		<tag k="ssr:stedsnr" v="504411" />
	</node>
	<node id="-727834" lat="69.5468305553" lon="19.037627776">
		<tag k="name" v="Åsnes" />
		<tag k="place" v="farm" />
		<tag k="ssr:stedsnr" v="659244" />
	</node>
	<node id="-727833" lat="69.6706638915" lon="18.9212472288">
		<tag k="name" v="Åsli" />
		<tag k="place" v="farm" />
		<tag k="ssr:stedsnr" v="659197" />
	</node>
	<node id="-727832" lat="69.6659361112" lon="18.9212722246">
		<tag k="name" v="Langnes Søndre" />
		<tag k="place" v="suburb" />
		<tag k="ssr:stedsnr" v="659195" />
	</node>
	<node id="-727831" lat="69.6718944437" lon="19.0423833311">
		<tag k="amenity" v="school" />
		<tag k="name" v="Lunheim skole" />
		<tag k="ssr:stedsnr" v="659102" />
	</node>
	<node id="-727830" lat="69.6601777744" lon="18.9428027575">
		<tag k="amenity" v="school" />
		<tag k="name" v="Prestvannet skole" />
		<tag k="ssr:stedsnr" v="659054" />
	</node>
	<node id="-727829" lat="69.659469444" lon="18.9552777757">
		<tag k="leisure" v="pitch" />
		<tag k="name" v="Valhalla stadion" />
		<tag k="ssr:stedsnr" v="659049" />
	</node>
	<node id="-725780" lat="69.7884111093" lon="19.1273444481">
		<tag k="name" v="Nygård" />
		<tag k="place" v="isolated_dwelling" />
		<tag k="ssr:stedsnr" v="231190" />
	</node>
	<node id="-723229" lat="69.4037861119" lon="19.6337500011">
		<tag k="name" v="Bakkehaug" />
		<tag k="place" v="farm" />
		<tag k="ssr:stedsnr" v="322198" />
	</node>
	<node id="-723726" lat="69.9912722244" lon="18.6883277788">
		<tag k="name" v="Måsvik" />
		<tag k="place" v="farm" />
		<tag k="ssr:stedsnr" v="383173" />
	</node>
	<node id="-723722" lat="69.7731861091" lon="18.4787888956">
		<tag k="name" v="Åsheim" />
		<tag k="place" v="farm" />
		<tag k="ssr:stedsnr" v="383138" />
	</node>
	<node id="-724097" lat="69.8921727198" lon="18.6723887366">
		<tag k="fixme" v="consider place=hamlet" />
		<tag k="name" v="Gåsvær" />
		<tag k="place" v="farm" />
		<tag k="ssr:stedsnr" v="899029" />
	</node>
	<node id="-723710" lat="69.8450083345" lon="18.9757333259">
		<tag k="alt_name" v="Dordejorda;Dåvdejord" />
		<tag k="name" v="Dordejord" />
		<tag k="place" v="isolated_dwelling" />
		<tag k="ssr:stedsnr" v="382991" />
	</node>
	<node id="-729853" lat="69.7054694409" lon="19.0900944466">
		<tag k="name" v="Enerlund" />
		<tag k="place" v="farm" />
		<tag k="ssr:stedsnr" v="950057" />
	</node>
	<node id="-725802" lat="69.8212138872" lon="19.0223555596">
		<tag k="name" v="Solvang" />
		<tag k="place" v="isolated_dwelling" />
		<tag k="ssr:stedsnr" v="231331" />
	</node>
	<node id="-727802" lat="69.8056361116" lon="19.0502499923">
		<tag k="name" v="Steinbakken" />
		<tag k="place" v="isolated_dwelling" />
		<tag k="ssr:stedsnr" v="656266" />
	</node>
	<node id="-725119" lat="69.4029194428" lon="19.6465083188">
		<tag k="name" v="Lavoll" />
		<tag k="place" v="isolated_dwelling" />
		<tag k="ssr:stedsnr" v="139219" />
	</node>
	<node id="-729848" lat="69.7767416683" lon="19.3912222055">
		<tag k="name" v="Skittenelv" />
		<tag k="place" v="farm" />
		<tag k="ssr:stedsnr" v="941438" />
	</node>
	<node id="-729846" lat="69.525866666" lon="19.213780556">
		<tag k="name" v="Yrke" />
		<tag k="place" v="locality" />
		<tag k="ssr:stedsnr" v="936413" />
	</node>
	<node id="-729845" lat="69.7191833285" lon="18.9432305595">
		<tag k="name" v="Solheim" />
		<tag k="place" v="isolated_dwelling" />
		<tag k="ssr:stedsnr" v="936378" />
	</node>
	<node id="-723700" lat="69.7685999997" lon="18.6347027764">
		<tag k="name" v="Skjelvika" />
		<tag k="place" v="farm" />
		<tag k="ssr:stedsnr" v="382891" />
	</node>
	<node id="-724094" lat="69.8229833364" lon="18.5658444526">
		<tag k="name" v="Vengsvik" />
		<tag k="place" v="locality" />
		<tag k="ssr:stedsnr" v="899003" />
	</node>
	<node id="-727794" lat="69.9680666647" lon="18.9130222097">
		<tag k="name" v="Sætra" />
		<tag k="place" v="locality" />
		<tag k="ssr:stedsnr" v="656152" />
	</node>
	<node id="-723696" lat="69.4783527799" lon="19.0648277786">
		<tag k="alt_name" v="Finnjorda, nedre" />
		<tag k="name" v="Nedre Finnjorda" />
		<tag k="place" v="farm" />
		<tag k="ssr:stedsnr" v="382851" />
	</node>
	<node id="-725742" lat="69.7296222216" lon="19.6957999866">
		<tag k="loc_name:se" v="Davit Skierri" />
		<tag k="name" v="Ytterskjær" />
		<tag k="name:no" v="Ytterskjær" />
		<tag k="place" v="farm" />
		<tag k="ssr:stedsnr" v="224743" />
	</node>
	<node id="-723693" lat="69.4878805566" lon="18.8932666522">
		<tag k="name" v="Kobbevågneset" />
		<tag k="place" v="farm" />
		<tag k="ssr:stedsnr" v="382837" />
	</node>
	<node id="-723690" lat="69.6357305573" lon="17.9827777816">
		<tag k="alt_name:no" v="Hillesøen" />
		<tag k="fixme" v="consider place=hamlet" />
		<tag k="loc_name:se" v="Hilssát" />
		<tag k="name" v="Hillesøy" />
		<tag k="name:no" v="Hillesøy" />
		<tag k="place" v="farm" />
		<tag k="ssr:stedsnr" v="382766" />
	</node>
	<node id="-723685" lat="69.8709999974" lon="18.6722805585">
		<tag k="name" v="Vestheim" />
		<tag k="place" v="farm" />
		<tag k="ssr:stedsnr" v="382752" />
	</node>
	<node id="-725731" lat="69.645897222" lon="18.9112722244">
		<tag k="name" v="Hansmark" />
		<tag k="place" v="quarter" />
		<tag k="ssr:stedsnr" v="221177" />
	</node>
	<node id="-725727" lat="69.7744722268" lon="19.3675249821">
		<tag k="name" v="Skittenelv" />
		<tag k="place" v="farm" />
		<tag k="ssr:stedsnr" v="213429" />
	</node>
	<node id="-729822" lat="70.0304611148" lon="18.7182694499">
		<tag k="name" v="Løksfjord" />
		<tag k="place" v="hamlet" />
		<tag k="ssr:stedsnr" v="930724" />
	</node>
	<node id="-725724" lat="69.4895222187" lon="19.6554361046">
		<tag k="name" v="Litleng" />
		<tag k="place" v="farm" />
		<tag k="ssr:stedsnr" v="209041" />
	</node>
	<node id="-725723" lat="69.635911115" lon="18.9957694498">
		<tag k="fixme" v="consider tourism=alpine_hut or tourism=chalet" />
		<tag k="name" v="Fjellstua" />
		<tag k="ssr:stedsnr" v="208524" />
		<tag k="tourism" v="wilderness_hut" />
	</node>
	<node id="-723282" lat="69.7907138865" lon="19.4808444297">
		<tag k="name" v="Heimly" />
		<tag k="place" v="farm" />
		<tag k="ssr:stedsnr" v="322651" />
	</node>
	<node id="-725719" lat="69.6846083339" lon="18.9501777716">
		<tag k="name" v="Mortensnes" />
		<tag k="place" v="quarter" />
		<tag k="ssr:stedsnr" v="207644" />
	</node>
	<node id="-729811" lat="69.9904611119" lon="18.7107472272">
		<tag k="name" v="Jonstua" />
		<tag k="place" v="farm" />
		<tag k="ssr:stedsnr" v="930160" />
	</node>
	<node id="-728184" lat="69.7778149115" lon="19.2727300904">
		<tag k="fixme" v="consider place=hamlet" />
		<tag k="name" v="Vågnes - Skearronjárga" />
		<tag k="name:no" v="Vågnes" />
		<tag k="name:se" v="Skearronjárga" />
		<tag k="place" v="farm" />
		<tag k="ssr:stedsnr" v="696932" />
	</node>
	<node id="-725709" lat="69.3545500005" lon="19.6301194362">
		<tag k="name" v="Åsmo" />
		<tag k="place" v="farm" />
		<tag k="ssr:stedsnr" v="202541" />
	</node>
	<node id="-729804" lat="69.7610536474" lon="18.7174241274">
		<tag k="alt_name" v="Moldnes" />
		<tag k="fixme" v="consider place=hamlet" />
		<tag k="name" v="Molnes" />
		<tag k="place" v="farm" />
		<tag k="ssr:stedsnr" v="929908" />
	</node>
	<node id="-725701" lat="69.8987722258" lon="18.7979750013">
		<tag k="name" v="Litjevika" />
		<tag k="place" v="farm" />
		<tag k="ssr:stedsnr" v="201786" />
	</node>
	<node id="-727747" lat="69.6558722195" lon="19.0113694395">
		<tag k="name" v="Kollbakkbukt" />
		<tag k="place" v="quarter" />
		<tag k="ssr:stedsnr" v="646093" />
	</node>
	<node id="-725696" lat="69.5851500007" lon="18.2784222261">
		<tag k="alt_name" v="Øvre Moen" />
		<tag k="name" v="Moen" />
		<tag k="place" v="farm" />
		<tag k="ssr:stedsnr" v="201571" />
	</node>
	<node id="-727743" lat="69.7114138879" lon="19.0929361074">
		<tag k="name" v="Movik" />
		<tag k="place" v="hamlet" />
		<tag k="ssr:stedsnr" v="633895" />
	</node>
	<node id="-725693" lat="69.7291916643" lon="18.9722249997">
		<tag k="name" v="Bråten" />
		<tag k="place" v="farm" />
		<tag k="ssr:stedsnr" v="201466" />
	</node>
	<node id="-723644" lat="69.5297333375" lon="18.1550527637">
		<tag k="name" v="Sandvik" />
		<tag k="place" v="hamlet" />
		<tag k="ssr:stedsnr" v="382442" />
	</node>
	<node id="-723640" lat="69.6856250037" lon="18.9896666614">
		<tag k="name" v="Gimle" />
		<tag k="place" v="suburb" />
		<tag k="ssr:stedsnr" v="382411" />
	</node>
	<node id="-725686" lat="69.6903694444" lon="18.8662388784">
		<tag k="name" v="Finnland" />
		<tag k="place" v="farm" />
		<tag k="ssr:stedsnr" v="201389" />
	</node>
	<node id="-727732" lat="69.5219500037" lon="18.5497527661">
		<tag k="name" v="Labakken" />
		<tag k="place" v="farm" />
		<tag k="ssr:stedsnr" v="631578" />
	</node>
	<node id="-729778" lat="70.0206638934" lon="18.7567499883">
		<tag k="name" v="Vassvik" />
		<tag k="place" v="farm" />
		<tag k="ssr:stedsnr" v="929668" />
	</node>
	<node id="-729776" lat="69.7743999996" lon="19.2940249923">
		<tag k="name" v="Utheim" />
		<tag k="place" v="farm" />
		<tag k="ssr:stedsnr" v="929665" />
	</node>
	<node id="-729775" lat="69.7804027812" lon="19.411905558">
		<tag k="loc_name:se" v="Leaibedievvá" />
		<tag k="name" v="Olderhaug" />
		<tag k="name:no" v="Olderhaug" />
		<tag k="place" v="farm" />
		<tag k="ssr:stedsnr" v="929655" />
	</node>
	<node id="-729771" lat="69.5921007084" lon="18.2906305662">
		<tag k="name" v="Minde" />
		<tag k="place" v="farm" />
		<tag k="ssr:stedsnr" v="929592" />
	</node>
	<node id="-725674" lat="69.7739777794" lon="19.3644638879">
		<tag k="name" v="Solvang" />
		<tag k="place" v="farm" />
		<tag k="ssr:stedsnr" v="201657" />
	</node>
	<node id="-725673" lat="69.7759361142" lon="19.376169446">
		<tag k="name" v="Øvrevoll" />
		<tag k="place" v="farm" />
		<tag k="ssr:stedsnr" v="201654" />
	</node>
	<node id="-723624" lat="69.428266664" lon="19.5509111023">
		<tag k="name" v="Storli" />
		<tag k="place" v="isolated_dwelling" />
		<tag k="ssr:stedsnr" v="382230" />
	</node>
	<node id="-723623" lat="69.4431749998" lon="19.649930546">
		<tag k="name" v="Litleskog" />
		<tag k="place" v="isolated_dwelling" />
		<tag k="ssr:stedsnr" v="382228" />
	</node>
	<node id="-726579" lat="69.4439750008" lon="19.5847055486">
		<tag k="alt_name" v="Stordal" />
		<tag k="fixme" v="consider place=hamlet" />
		<tag k="name" v="Stordalen" />
		<tag k="place" v="village" />
		<tag k="ssr:stedsnr" v="450331" />
	</node>
	<node id="-725669" lat="69.7347277744" lon="18.3253000066">
		<tag k="fixme" v="consider place=hamlet" />
		<tag k="loc_name" v="Rekvika" />
		<tag k="name" v="Rekvik" />
		<tag k="place" v="village" />
		<tag k="ssr:stedsnr" v="201642" />
	</node>
	<node id="-727713" lat="69.7713444411" lon="19.2703249877">
		<tag k="name" v="Gittaheimen" />
		<tag k="place" v="isolated_dwelling" />
		<tag k="ssr:stedsnr" v="626700" />
	</node>
	<node id="-729757" lat="69.7301000015" lon="18.7054805607">
		<tag k="name" v="Gunnarheimen" />
		<tag k="place" v="isolated_dwelling" />
		<tag k="ssr:stedsnr" v="929478" />
	</node>
	<node id="-723611" lat="69.3882805548" lon="19.4440055381">
		<tag k="name" v="Kjøleng" />
		<tag k="place" v="farm" />
		<tag k="ssr:stedsnr" v="382193" />
	</node>
	<node id="-723608" lat="69.3696111149" lon="19.6141305538">
		<tag k="name" v="Skulva" />
		<tag k="place" v="farm" />
		<tag k="ssr:stedsnr" v="382176" />
	</node>
	<node id="-723605" lat="69.3540611136" lon="19.6173555477">
		<tag k="name" v="Nakken" />
		<tag k="place" v="isolated_dwelling" />
		<tag k="ssr:stedsnr" v="382161" />
	</node>
	<node id="-729746" lat="69.6995138895" lon="18.972633328">
		<tag k="name" v="Hamna" />
		<tag k="place" v="suburb" />
		<tag k="ssr:stedsnr" v="929386" />
	</node>
	<node id="-729745" lat="69.7060277809" lon="18.68338333">
		<tag k="name" v="Vikkernes" />
		<tag k="place" v="farm" />
		<tag k="ssr:stedsnr" v="929383" />
	</node>
	<node id="-729742" lat="69.5995527774" lon="18.8024972172">
		<tag k="name" v="Elvelund" />
		<tag k="place" v="farm" />
		<tag k="ssr:stedsnr" v="929344" />
	</node>
	<node id="-725101" lat="69.5794333345" lon="19.6902388799">
		<tag k="alt_name" v="Reiervika" />
		<tag k="name" v="Reiervik" />
		<tag k="place" v="farm" />
		<tag k="ssr:stedsnr" v="139179" />
	</node>
	<node id="-726466" lat="69.6073888917" lon="18.2715444394">
		<tag k="alt_name" v="Lauvland" />
		<tag k="name" v="Løvland" />
		<tag k="place" v="farm" />
		<tag k="ssr:stedsnr" v="443517" />
	</node>
	<node id="-729737" lat="69.6369333368" lon="18.9663666559">
		<tag k="fixme" v="consider place=suburb, village or hamlet" />
		<tag k="name" v="Hjorten" />
		<tag k="place" v="quarter" />
		<tag k="ssr:stedsnr" v="929309" />
	</node>
	<node id="-729736" lat="69.6490777752" lon="18.934416671">
		<tag k="alt_name" v="Alfheim" />
		<tag k="leisure" v="pitch" />
		<tag k="name" v="Alfheim stadion" />
		<tag k="old_name" v="Alvheim" />
		<tag k="ssr:stedsnr" v="929307" />
	</node>
	<node id="-725639" lat="69.8835000019" lon="18.5757638765">
		<tag k="name" v="Musvær" />
		<tag k="place" v="farm" />
		<tag k="ssr:stedsnr" v="201001" />
	</node>
	<node id="-727686" lat="69.604319448" lon="19.8138194274">
		<tag k="fixme" v="consider place=hamlet" />
		<tag k="loc_name:se" v="Čietnjalluokta" />
		<tag k="name" v="Jøvik" />
		<tag k="name:no" v="Jøvik" />
		<tag k="place" v="village" />
		<tag k="ssr:stedsnr" v="625977" />
	</node>
	<node id="-728029" lat="69.5941499988" lon="19.7028722157">
		<tag k="name" v="Musnes" />
		<tag k="place" v="farm" />
		<tag k="ssr:stedsnr" v="686161" />
	</node>
	<node id="-723584" lat="69.6903138895" lon="18.9275861064">
		<tag k="name" v="Liljeheim" />
		<tag k="place" v="farm" />
		<tag k="ssr:stedsnr" v="360013" />
	</node>
	<node id="-723583" lat="69.6916777773" lon="18.9290027728">
		<tag k="name" v="Bjørnestad" />
		<tag k="place" v="farm" />
		<tag k="ssr:stedsnr" v="360014" />
	</node>
	<node id="-727677" lat="69.7883972256" lon="19.1126888761">
		<tag k="name" v="Olderen" />
		<tag k="place" v="isolated_dwelling" />
		<tag k="ssr:stedsnr" v="625895" />
	</node>
	<node id="-727146" lat="69.6920166632" lon="18.644458322">
		<tag k="alt_name" v="Bergly" />
		<tag k="name" v="Bergli" />
		<tag k="place" v="isolated_dwelling" />
		<tag k="ssr:stedsnr" v="564403" />
	</node>
	<node id="-729722" lat="69.4247055564" lon="19.662025002">
		<tag k="name" v="Seljevoll" />
		<tag k="place" v="farm" />
		<tag k="ssr:stedsnr" v="929201" />
	</node>
	<node id="-727671" lat="69.9473444482" lon="18.8567333311">
		<tag k="name" v="Lauvås" />
		<tag k="place" v="isolated_dwelling" />
		<tag k="ssr:stedsnr" v="625844" />
	</node>
	<node id="-727670" lat="69.9496305562" lon="18.8132999845">
		<tag k="name" v="Bjørkmo" />
		<tag k="place" v="isolated_dwelling" />
		<tag k="ssr:stedsnr" v="625839" />
	</node>
	<node id="-729713" lat="69.5917999987" lon="19.69962222">
		<tag k="name" v="Sørvoll" />
		<tag k="place" v="farm" />
		<tag k="ssr:stedsnr" v="929166" />
	</node>
	<node id="-723567" lat="69.5967999967" lon="19.7558277619">
		<tag k="name" v="Nyvoll" />
		<tag k="place" v="farm" />
		<tag k="ssr:stedsnr" v="357543" />
	</node>
	<node id="-725614" lat="69.8287324837" lon="18.9347329245">
		<tag k="alt_name" v="Rakkfjord" />
		<tag k="name" v="Rakkfjorden" />
		<tag k="place" v="farm" />
		<tag k="ssr:stedsnr" v="200957" />
	</node>
	<node id="-727654" lat="69.7827111066" lon="19.4466666625">
		<tag k="alt_name" v="Vik" />
		<tag k="name" v="Vika" />
		<tag k="place" v="farm" />
		<tag k="ssr:stedsnr" v="625680" />
	</node>
	<node id="-723556" lat="69.5903277753" lon="18.800180544">
		<tag k="name" v="Bergbakken" />
		<tag k="place" v="farm" />
		<tag k="ssr:stedsnr" v="357371" />
	</node>
	<node id="-727142" lat="69.7106444417" lon="18.9370333341">
		<tag k="name" v="Møllbakken" />
		<tag k="place" v="farm" />
		<tag k="ssr:stedsnr" v="564380" />
	</node>
	<node id="-729698" lat="69.5632750018" lon="19.7378305555">
		<tag k="name" v="Rydeng" />
		<tag k="place" v="farm" />
		<tag k="ssr:stedsnr" v="929072" />
	</node>
	<node id="-729697" lat="69.557419447" lon="19.7263499785">
		<tag k="alt_name" v="Skjelnes" />
		<tag k="name" v="Skjellnes" />
		<tag k="place" v="farm" />
		<tag k="ssr:stedsnr" v="929070" />
	</node>
	<node id="-729694" lat="69.4967250028" lon="19.2476583156">
		<tag k="name" v="Fredheim" />
		<tag k="place" v="farm" />
		<tag k="ssr:stedsnr" v="929029" />
	</node>
	<node id="-725260" lat="69.6882777761" lon="18.761749981">
		<tag k="name" v="Kjoselv" />
		<tag k="place" v="farm" />
		<tag k="ssr:stedsnr" v="140403" />
	</node>
	<node id="-725587" lat="69.5303722189" lon="18.3524472295">
		<tag k="fixme" v="consider place=hamlet" />
		<tag k="name" v="Kvalnes" />
		<tag k="place" v="village" />
		<tag k="ssr:stedsnr" v="200472" />
	</node>
	<node id="-729682" lat="69.7809083351" lon="18.7619027771">
		<tag k="name" v="Solheim" />
		<tag k="place" v="farm" />
		<tag k="ssr:stedsnr" v="928917" />
	</node>
	<node id="-723030" lat="69.6437888882" lon="18.0991583294">
		<tag k="name" v="Gjemsheimen" />
		<tag k="place" v="locality" />
		<tag k="ssr:stedsnr" v="295712" />
	</node>
	<node id="-729680" lat="69.4827444405" lon="19.0593972168">
		<tag k="alt_name" v="Finnjorda, øvre" />
		<tag k="fixme" v="multiple name tags, choose one and add the other to alt_name" />
		<tag k="name" v="Finnjorda;Øvre Finnjorda" />
		<tag k="place" v="farm" />
		<tag k="ssr:stedsnr" v="928849" />
	</node>
	<node id="-723535" lat="69.5751750014" lon="18.6240638859">
		<tag k="name" v="Bjørkli" />
		<tag k="place" v="farm" />
		<tag k="ssr:stedsnr" v="357143" />
	</node>
	<node id="-727629" lat="69.7262555551" lon="18.7075110962">
		<tag k="fixme" v="consider place=hamlet" />
		<tag k="name" v="Bjørnsletta" />
		<tag k="place" v="farm" />
		<tag k="ssr:stedsnr" v="625485" />
	</node>
	<node id="-727628" lat="69.7348083377" lon="19.1036222129">
		<tag k="name" v="Tønsnes" />
		<tag k="place" v="farm" />
		<tag k="ssr:stedsnr" v="625482" />
	</node>
	<node id="-725578" lat="69.6501861149" lon="18.8075388815">
		<tag k="name" v="Skjellstonghaugen" />
		<tag k="place" v="farm" />
		<tag k="ssr:stedsnr" v="200331" />
	</node>
	<node id="-727625" lat="69.5219833305" lon="18.2263472241">
		<tag k="name" v="Myrvoll" />
		<tag k="place" v="farm" />
		<tag k="ssr:stedsnr" v="625457" />
	</node>
	<node id="-727624" lat="69.5194916645" lon="18.5365944415">
		<tag k="alt_name" v="Brokskard" />
		<tag k="name" v="Brokskar" />
		<tag k="place" v="hamlet" />
		<tag k="ssr:stedsnr" v="625451" />
	</node>
	<node id="-725575" lat="69.6591027815" lon="18.8256110956">
		<tag k="name" v="Haugås" />
		<tag k="place" v="isolated_dwelling" />
		<tag k="ssr:stedsnr" v="200320" />
	</node>
	<node id="-723524" lat="69.3952972254" lon="19.5140222046">
		<tag k="name" v="Løveng" />
		<tag k="place" v="farm" />
		<tag k="ssr:stedsnr" v="356898" />
	</node>
	<node id="-725570" lat="69.5352694452" lon="18.6760416733">
		<tag k="alt_name" v="Jektvik" />
		<tag k="name" v="Jektvika" />
		<tag k="place" v="farm" />
		<tag k="ssr:stedsnr" v="200287" />
	</node>
	<node id="-729665" lat="69.5675861073" lon="18.607749998">
		<tag k="name" v="Straumsbukta" />
		<tag k="place" v="farm" />
		<tag k="ssr:stedsnr" v="928550" />
	</node>
	<node id="-729664" lat="69.551580557" lon="18.1198749972">
		<tag k="fixme" v="consider place=hamlet" />
		<tag k="name" v="Buvik" />
		<tag k="place" v="village" />
		<tag k="ssr:stedsnr" v="928548" />
	</node>
	<node id="-725565" lat="69.4409444405" lon="19.6491916529">
		<tag k="alt_name" v="Bjørkelund" />
		<tag k="name" v="Bjørklund" />
		<tag k="place" v="farm" />
		<tag k="ssr:stedsnr" v="200230" />
	</node>
	<node id="-723516" lat="69.5818027756" lon="18.0445777727">
		<tag k="name" v="Finnby" />
		<tag k="place" v="locality" />
		<tag k="ssr:stedsnr" v="356710" />
	</node>
	<node id="-725563" lat="69.6773250037" lon="18.7478777637">
		<tag k="fixme" v="consider place=hamlet" />
		<tag k="name" v="Eidkjosen" />
		<tag k="place" v="village" />
		<tag k="ssr:stedsnr" v="200436" />
	</node>
	<node id="-729658" lat="69.6270083335" lon="18.2252249843">
		<tag k="name" v="Oldervik" />
		<tag k="place" v="farm" />
		<tag k="ssr:stedsnr" v="928495" />
	</node>
	<node id="-725559" lat="69.5338277787" lon="19.6399388916">
		<tag k="name" v="Slettnes" />
		<tag k="place" v="farm" />
		<tag k="ssr:stedsnr" v="200073" />
	</node>
	<node id="-729653" lat="69.5425750011" lon="18.7612333205">
		<tag k="name" v="Nyvoll" />
		<tag k="place" v="farm" />
		<tag k="ssr:stedsnr" v="928252" />
	</node>
	<node id="-729652" lat="69.5467944401" lon="18.7067055534">
		<tag k="fixme" v="multiple name tags, choose one and add the other to alt_name" />
		<tag k="name" v="Ryagård;Ryøy" />
		<tag k="place" v="farm" />
		<tag k="ssr:stedsnr" v="928236" />
	</node>
	<node id="-729651" lat="69.6459472223" lon="19.7301527593">
		<tag k="loc_name:se" v="Náhkki" />
		<tag k="name" v="Nakken" />
		<tag k="name:no" v="Nakken" />
		<tag k="place" v="locality" />
		<tag k="ssr:stedsnr" v="928130" />
	</node>
	<node id="-729648" lat="69.9586638912" lon="18.7669388747">
		<tag k="name" v="Sandsletta" />
		<tag k="place" v="isolated_dwelling" />
		<tag k="ssr:stedsnr" v="929855" />
	</node>
	<node id="-727599" lat="69.5617611083" lon="19.1278499796">
		<tag k="alt_name" v="Lauksletta, in;Lauksletta" />
		<tag k="fixme" v="consider place=hamlet" />
		<tag k="name" v="Indre Laukslett" />
		<tag k="place" v="village" />
		<tag k="ssr:stedsnr" v="625274" />
	</node>
	<node id="-729646" lat="69.5045111121" lon="18.8584277754">
		<tag k="fixme" v="consider place=hamlet" />
		<tag k="name" v="Ytre Kobbevågen" />
		<tag k="place" v="farm" />
		<tag k="ssr:stedsnr" v="909935" />
	</node>
	<node id="-725547" lat="69.3916444488" lon="19.4723583193">
		<tag k="alt_name" v="Sørstraum" />
		<tag k="name" v="Sørstrømmen" />
		<tag k="place" v="isolated_dwelling" />
		<tag k="ssr:stedsnr" v="200184" />
	</node>
	<node id="-723498" lat="69.5934333338" lon="19.301472207">
		<tag k="name" v="Perpålsaheimen" />
		<tag k="place" v="farm" />
		<tag k="ssr:stedsnr" v="356582" />
	</node>
	<node id="-727593" lat="69.4196999961" lon="19.5695499954">
		<tag k="alt_name" v="Sørstraumen" />
		<tag k="name" v="Sørstraum" />
		<tag k="place" v="isolated_dwelling" />
		<tag k="ssr:stedsnr" v="625243" />
	</node>
	<node id="-729639" lat="69.6725999996" lon="18.9233805437">
		<tag k="name" v="Skotte" />
		<tag k="place" v="isolated_dwelling" />
		<tag k="ssr:stedsnr" v="906051" />
	</node>
	<node id="-724401" lat="69.7765277805" lon="19.3993861024">
		<tag k="name" v="Skittenelv" />
		<tag k="place" v="farm" />
		<tag k="ssr:stedsnr" v="30417" />
	</node>
	<node id="-727587" lat="69.4126972197" lon="19.6399027576">
		<tag k="loc_name:se" v="Gaskasiida" />
		<tag k="name" v="Helland" />
		<tag k="name:no" v="Helland" />
		<tag k="place" v="farm" />
		<tag k="ssr:stedsnr" v="625224" />
	</node>
	<node id="-729634" lat="69.3940194407" lon="19.4947027607">
		<tag k="name" v="Lillehaug" />
		<tag k="place" v="farm" />
		<tag k="ssr:stedsnr" v="903926" />
	</node>
	<node id="-729633" lat="69.5933638854" lon="19.7579833262">
		<tag k="name" v="Strømsli" />
		<tag k="place" v="farm" />
		<tag k="ssr:stedsnr" v="903908" />
	</node>
	<node id="-725688" lat="69.6988111149" lon="19.0840777761">
		<tag k="name" v="Skjelnan" />
		<tag k="place" v="farm" />
		<tag k="ssr:stedsnr" v="201391" />
	</node>
	<node id="-726448" lat="69.7133166703" lon="19.0952611154">
		<tag k="name" v="Movik" />
		<tag k="place" v="farm" />
		<tag k="ssr:stedsnr" v="443395" />
	</node>
	<node id="-729625" lat="69.5811250001" lon="18.276599995">
		<tag k="name" v="Bruvoll" />
		<tag k="place" v="farm" />
		<tag k="ssr:stedsnr" v="903749" />
	</node>
	<node id="-729621" lat="69.5245277799" lon="18.2051499993">
		<tag k="name" v="Rismoen" />
		<tag k="place" v="farm" />
		<tag k="ssr:stedsnr" v="903672" />
	</node>
	<node id="-723476" lat="69.7379916704" lon="19.167941666">
		<tag k="name" v="Elvelund" />
		<tag k="place" v="farm" />
		<tag k="ssr:stedsnr" v="356317" />
	</node>
	<node id="-723096" lat="69.628177782" lon="18.8039194389">
		<tag k="name" v="Bjørnvang" />
		<tag k="place" v="farm" />
		<tag k="ssr:stedsnr" v="296500" />
	</node>
	<node id="-725551" lat="69.6506472216" lon="19.5604694458">
		<tag k="alt_name" v="Nesset" />
		<tag k="name" v="Neset" />
		<tag k="place" v="farm" />
		<tag k="ssr:stedsnr" v="200206" />
	</node>
	<node id="-723468" lat="69.7913388856" lon="19.4856499808">
		<tag k="name" v="Skoglund" />
		<tag k="place" v="farm" />
		<tag k="ssr:stedsnr" v="356236" />
	</node>
	<node id="-726444" lat="69.5892088178" lon="18.9413853663">
		<tag k="alt_name" v="Kubergan" />
		<tag k="name" v="Kuberg" />
		<tag k="place" v="farm" />
		<tag k="ssr:stedsnr" v="443379" />
	</node>
	<node id="-727278" lat="69.5691138888" lon="19.1886638908">
		<tag k="fixme" v="consider place=hamlet" />
		<tag k="name" v="Fagernes - Vávrrosnjárga" />
		<tag k="name:no" v="Fagernes" />
		<tag k="name:se" v="Vávrrosnjárga" />
		<tag k="place" v="farm" />
		<tag k="ssr:stedsnr" v="570308" />
	</node>
	<node id="-723459" lat="69.6765583289" lon="18.9176250046">
		<tag k="name" v="Ravoll" />
		<tag k="place" v="farm" />
		<tag k="ssr:stedsnr" v="356082" />
	</node>
	<node id="-724357" lat="69.8024333295" lon="19.7303388847">
		<tag k="loc_name:se" v="Skáideváhki" />
		<tag k="name" v="Skeivåg" />
		<tag k="name:no" v="Skeivåg" />
		<tag k="place" v="farm" />
		<tag k="ssr:stedsnr" v="19642" />
	</node>
	<node id="-723029" lat="69.6365472243" lon="18.9223916568">
		<tag k="amenity" v="university" />
		<tag k="name" v="Tromsø lærerskole" />
		<tag k="ssr:stedsnr" v="295705" />
	</node>
	<node id="-729596" lat="69.7758761412" lon="19.3029249731">
		<tag k="name" v="Elvelund" />
		<tag k="place" v="farm" />
		<tag k="ssr:stedsnr" v="903504" />
	</node>
	<node id="-726442" lat="69.5982055527" lon="18.9386360921">
		<tag k="name" v="Kaldsletta" />
		<tag k="place" v="farm" />
		<tag k="ssr:stedsnr" v="443363" />
	</node>
	<node id="-729592" lat="69.4444861077" lon="19.5846222114">
		<tag k="name" v="Elvestad" />
		<tag k="place" v="farm" />
		<tag k="ssr:stedsnr" v="903453" />
	</node>
	<node id="-725488" lat="69.7053749984" lon="18.6821888875">
		<tag k="name" v="Ekernes" />
		<tag k="place" v="farm" />
		<tag k="ssr:stedsnr" v="175260" />
	</node>
	<node id="-729582" lat="69.5752194449" lon="18.7810583169">
		<tag k="name" v="Nyheim" />
		<tag k="place" v="farm" />
		<tag k="ssr:stedsnr" v="903389" />
	</node>
	<node id="-725757" lat="69.5124444479" lon="19.6254555501">
		<tag k="name" v="Sommerbukt" />
		<tag k="place" v="farm" />
		<tag k="ssr:stedsnr" v="229483" />
	</node>
	<node id="-729580" lat="69.5881583333" lon="18.7996333271">
		<tag k="name" v="Brynhildmo" />
		<tag k="place" v="farm" />
		<tag k="ssr:stedsnr" v="903386" />
	</node>
	<node id="-729577" lat="69.5400944431" lon="18.7028083255">
		<tag k="name" v="Bergstad" />
		<tag k="place" v="farm" />
		<tag k="ssr:stedsnr" v="903353" />
	</node>
	<node id="-729576" lat="69.5991277773" lon="18.8324000039">
		<tag k="name" v="Tisnes" />
		<tag k="place" v="farm" />
		<tag k="ssr:stedsnr" v="903345" />
	</node>
	<node id="-725479" lat="69.5645638861" lon="18.6717499918">
		<tag k="fixme" v="consider place=hamlet" />
		<tag k="name" v="Straumsgård" />
		<tag k="place" v="village" />
		<tag k="ssr:stedsnr" v="175147" />
	</node>
	<node id="-727526" lat="69.5450749972" lon="18.1302277666">
		<tag k="name" v="Vines" />
		<tag k="place" v="farm" />
		<tag k="ssr:stedsnr" v="624566" />
	</node>
	<node id="-729573" lat="69.5674138874" lon="19.1998638753">
		<tag k="name" v="Fagervollen" />
		<tag k="place" v="farm" />
		<tag k="ssr:stedsnr" v="903319" />
	</node>
	<node id="-726438" lat="69.6542111098" lon="18.9125777615">
		<tag k="name" v="Holt" />
		<tag k="place" v="farm" />
		<tag k="ssr:stedsnr" v="443328" />
	</node>
	<node id="-727520" lat="69.538544443" lon="18.8614694495">
		<tag k="alt_name" v="Einnes" />
		<tag k="name" v="Eines" />
		<tag k="place" v="farm" />
		<tag k="ssr:stedsnr" v="624299" />
	</node>
	<node id="-724390" lat="69.4333666651" lon="19.5544055572">
		<tag k="name" v="Hamnbukt" />
		<tag k="place" v="farm" />
		<tag k="ssr:stedsnr" v="25349" />
	</node>
	<node id="-723036" lat="69.3548027818" lon="19.6175972069">
		<tag k="name" v="Gamtofta" />
		<tag k="place" v="locality" />
		<tag k="ssr:stedsnr" v="296032" />
	</node>
	<node id="-725071" lat="69.684108334" lon="18.9498555385">
		<tag k="name" v="Sjømannsbyen" />
		<tag k="place" v="suburb" />
		<tag k="ssr:stedsnr" v="118031" />
	</node>
	<node id="-727512" lat="69.4825750033" lon="18.8474333259">
		<tag k="loc_name:se" v="Báloluokta" />
		<tag k="name" v="Kobbevågen" />
		<tag k="name:no" v="Kobbevågen" />
		<tag k="place" v="hamlet" />
		<tag k="ssr:stedsnr" v="605917" />
	</node>
	<node id="-723364" lat="69.7171555518" lon="18.9434777739">
		<tag k="name" v="Lanes" />
		<tag k="place" v="hamlet" />
		<tag k="ssr:stedsnr" v="332589" />
	</node>
	<node id="-729557" lat="69.6192472192" lon="18.0124916614">
		<tag k="name" v="Grønningen" />
		<tag k="place" v="farm" />
		<tag k="ssr:stedsnr" v="903156" />
	</node>
	<node id="-729556" lat="69.5701444451" lon="18.6562416733">
		<tag k="name" v="Løvberg" />
		<tag k="place" v="farm" />
		<tag k="ssr:stedsnr" v="903153" />
	</node>
	<node id="-727504" lat="69.6270083374" lon="19.0000027748">
		<tag k="fixme" v="consider tourism=alpine_hut or tourism=chalet" />
		<tag k="name" v="Steinbøhytta" />
		<tag k="ssr:stedsnr" v="605562" />
		<tag k="tourism" v="wilderness_hut" />
	</node>
	<node id="-725455" lat="69.5042999992" lon="18.8594666644">
		<tag k="name" v="Ytre Kobbevågen" />
		<tag k="place" v="farm" />
		<tag k="ssr:stedsnr" v="174647" />
	</node>
	<node id="-725069" lat="69.6127166681" lon="18.9421888708">
		<tag k="name" v="Nordsletta" />
		<tag k="place" v="farm" />
		<tag k="ssr:stedsnr" v="117052" />
	</node>
	<node id="-726434" lat="69.5258416645" lon="18.8638388875">
		<tag k="alt_name" v="Seljevold" />
		<tag k="name" v="Seljevoll" />
		<tag k="place" v="farm" />
		<tag k="ssr:stedsnr" v="443310" />
	</node>
	<node id="-727495" lat="69.6499361147" lon="18.9310583378">
		<tag k="amenity" v="kindergarten" />
		<tag k="name" v="Bekkevoll" />
		<tag k="ssr:stedsnr" v="602035" />
	</node>
	<node id="-727493" lat="69.6879749983" lon="18.9261888794">
		<tag k="name" v="Bjorvik" />
		<tag k="place" v="farm" />
		<tag k="ssr:stedsnr" v="602017" />
	</node>
	<node id="-723391" lat="69.6943499972" lon="18.6178833377">
		<tag k="name" v="Holten" />
		<tag k="place" v="isolated_dwelling" />
		<tag k="ssr:stedsnr" v="349506" />
	</node>
	<node id="-725438" lat="69.6048249985" lon="18.0556694418">
		<tag k="name" v="Lillestrand" />
		<tag k="place" v="farm" />
		<tag k="ssr:stedsnr" v="174782" />
	</node>
	<node id="-723389" lat="69.9984416707" lon="18.7267472083">
		<tag k="name" v="Solvang" />
		<tag k="place" v="isolated_dwelling" />
		<tag k="ssr:stedsnr" v="348396" />
	</node>
	<node id="-723366" lat="69.746973476" lon="19.175890449">
		<tag k="fixme" v="consider place=hamlet" />
		<tag k="name" v="Tønsvik" />
		<tag k="place" v="village" />
		<tag k="ssr:stedsnr" v="335008" />
	</node>
	<node id="-729526" lat="69.4772388862" lon="19.0578777823">
		<tag k="name" v="Sætran" />
		<tag k="place" v="locality" />
		<tag k="ssr:stedsnr" v="899747" />
	</node>
	<node id="-723699" lat="69.7935194409" lon="19.1798638739">
		<tag k="alt_name" v="Røysnesåsen" />
		<tag k="name" v="Røsnesåsen" />
		<tag k="place" v="farm" />
		<tag k="ssr:stedsnr" v="382888" />
	</node>
	<node id="-723375" lat="69.7070305587" lon="18.9873472173">
		<tag k="amenity" v="kindergarten" />
		<tag k="name" v="Bjørnebekken barnehage" />
		<tag k="ssr:stedsnr" v="344316" />
	</node>
	<node id="-726429" lat="69.5520999974" lon="18.809172226">
		<tag k="name" v="Storvik" />
		<tag k="place" v="farm" />
		<tag k="ssr:stedsnr" v="443271" />
	</node>
	<node id="-723369" lat="69.7112416636" lon="19.0946416613">
		<tag k="name" v="Elvehaugen" />
		<tag k="place" v="farm" />
		<tag k="ssr:stedsnr" v="343057" />
	</node>
	<node id="-725684" lat="69.6872388894" lon="18.7611888849">
		<tag k="name" v="Langeidet" />
		<tag k="place" v="farm" />
		<tag k="ssr:stedsnr" v="201384" />
	</node>
	<node id="-727462" lat="69.6960555541" lon="18.9550055453">
		<tag k="amenity" v="school" />
		<tag k="name" v="Solneset skole" />
		<tag k="ssr:stedsnr" v="599644" />
	</node>
	<node id="-729508" lat="69.9459277784" lon="18.8207194355">
		<tag k="name" v="Nyheim" />
		<tag k="place" v="farm" />
		<tag k="ssr:stedsnr" v="899405" />
	</node>
	<node id="-727459" lat="69.6128361146" lon="19.3409638737">
		<tag k="name" v="Henningheimen" />
		<tag k="place" v="locality" />
		<tag k="ssr:stedsnr" v="599631" />
	</node>
	<node id="-729505" lat="69.9672944458" lon="18.8478027722">
		<tag k="fixme" v="consider place=hamlet" />
		<tag k="name" v="Skarsfjord" />
		<tag k="place" v="village" />
		<tag k="ssr:stedsnr" v="878995" />
	</node>
	<node id="-724720" lat="69.633558332" lon="18.0072777754">
		<tag k="loc_name" v="Sommarøya" />
		<tag k="name" v="Sommarøy" />
		<tag k="place" v="village" />
		<tag k="ssr:stedsnr" v="79648" />
	</node>
	<node id="-726085" lat="69.6279944436" lon="18.34461388">
		<tag k="alt_name" v="Lauvdal" />
		<tag k="name" v="Løvdal" />
		<tag k="place" v="farm" />
		<tag k="ssr:stedsnr" v="261539" />
	</node>
	<node id="-725404" lat="69.6608555509" lon="18.9292694452">
		<tag k="name" v="Soltun" />
		<tag k="place" v="quarter" />
		<tag k="ssr:stedsnr" v="174154" />
	</node>
	<node id="-729499" lat="69.5929472215" lon="18.8044111173">
		<tag k="name" v="Korsberg" />
		<tag k="place" v="farm" />
		<tag k="ssr:stedsnr" v="875426" />
	</node>
	<node id="-729498" lat="69.6909111111" lon="18.7091360992">
		<tag k="alt_name" v="Nygard" />
		<tag k="name" v="Nygård" />
		<tag k="place" v="isolated_dwelling" />
		<tag k="ssr:stedsnr" v="875389" />
	</node>
	<node id="-729497" lat="69.6376833322" lon="18.8528527786">
		<tag k="name" v="Grindøy" />
		<tag k="place" v="isolated_dwelling" />
		<tag k="ssr:stedsnr" v="875382" />
	</node>
	<node id="-725400" lat="69.6527111065" lon="18.9343472226">
		<tag k="amenity" v="school" />
		<tag k="name" v="Sommerlyst skole" />
		<tag k="ssr:stedsnr" v="174060" />
	</node>
	<node id="-727447" lat="69.7581027783" lon="19.6337416469">
		<tag k="name" v="Sætra" />
		<tag k="place" v="locality" />
		<tag k="ssr:stedsnr" v="599558" />
	</node>
	<node id="-729494" lat="69.66496389" lon="18.9112527644">
		<tag k="building" v="industrial" />
		<tag k="name" v="Sjølund" />
		<tag k="ssr:stedsnr" v="874672" />
	</node>
	<node id="-723348" lat="69.7069555569" lon="19.0911277668">
		<tag k="name" v="Myrland" />
		<tag k="place" v="farm" />
		<tag k="ssr:stedsnr" v="329377" />
	</node>
	<node id="-729491" lat="69.8373277799" lon="18.5804194338">
		<tag k="name" v="Vengsøy" />
		<tag k="old_name" v="Vengsøya" />
		<tag k="place" v="hamlet" />
		<tag k="ssr:stedsnr" v="872015" />
	</node>
	<node id="-727442" lat="69.6481722225" lon="18.7950999831">
		<tag k="name" v="Myrvoll" />
		<tag k="place" v="farm" />
		<tag k="ssr:stedsnr" v="599473" />
	</node>
	<node id="-726083" lat="69.7357194414" lon="18.9984666481">
		<tag k="name" v="Karlsheim" />
		<tag k="place" v="farm" />
		<tag k="ssr:stedsnr" v="261509" />
	</node>
	<node id="-729488" lat="69.5001972261" lon="19.2468972125">
		<tag k="name" v="Mostad" />
		<tag k="place" v="farm" />
		<tag k="ssr:stedsnr" v="870515" />
	</node>
	<node id="-723352" lat="69.446405558" lon="19.6523972182">
		<tag k="name" v="Landbakk" />
		<tag k="place" v="farm" />
		<tag k="ssr:stedsnr" v="330063" />
	</node>
	<node id="-723342" lat="69.553430554" lon="18.1131499874">
		<tag k="name" v="Voll" />
		<tag k="place" v="farm" />
		<tag k="ssr:stedsnr" v="328549" />
	</node>
	<node id="-725389" lat="69.9677055562" lon="18.8681999858">
		<tag k="name" v="Myrvoll" />
		<tag k="place" v="farm" />
		<tag k="ssr:stedsnr" v="171367" />
	</node>
	<node id="-723340" lat="69.5589861077" lon="18.0214388865">
		<tag k="name" v="Indre Marslett" />
		<tag k="place" v="farm" />
		<tag k="ssr:stedsnr" v="328538" />
	</node>
	<node id="-724149" lat="69.5380848293" lon="19.6374563189">
		<tag k="fixme" v="consider place=hamlet" />
		<tag k="name" v="Sjursnes - Várpenjárga" />
		<tag k="name:no" v="Sjursnes" />
		<tag k="name:se" v="Várpenjárga" />
		<tag k="place" v="farm" />
		<tag k="ssr:stedsnr" v="986925" />
	</node>
	<node id="-729481" lat="69.7965333365" lon="19.510419447">
		<tag k="name" v="Lyngnes" />
		<tag k="place" v="farm" />
		<tag k="ssr:stedsnr" v="869685" />
	</node>
	<node id="-727429" lat="69.6162694457" lon="18.8117361097">
		<tag k="name" v="Annalund" />
		<tag k="place" v="farm" />
		<tag k="ssr:stedsnr" v="599324" />
	</node>
	<node id="-729220" lat="69.684444442" lon="18.7918722183">
		<tag k="amenity" v="school" />
		<tag k="name" v="Kvaløya videregående skole" />
		<tag k="ssr:stedsnr" v="842504" />
	</node>
	<node id="-723324" lat="69.8257333375" lon="18.5183555567">
		<tag k="alt_name" v="Vengsøya;Ytre Vengsøy" />
		<tag k="name" v="Vengsøy" />
		<tag k="place" v="farm" />
		<tag k="ssr:stedsnr" v="323228" />
	</node>
	<node id="-727419" lat="69.7926000041" lon="19.4916833353">
		<tag k="fixme" v="consider place=hamlet" />
		<tag k="name" v="Svarvaren" />
		<tag k="place" v="farm" />
		<tag k="ssr:stedsnr" v="599220" />
	</node>
	<node id="-723320" lat="69.7575916657" lon="18.5035083267">
		<tag k="name" v="Karigambukta" />
		<tag k="place" v="farm" />
		<tag k="ssr:stedsnr" v="323165" />
	</node>
	<node id="-724359" lat="69.7962499999" lon="19.547244441">
		<tag k="name" v="Dalheim" />
		<tag k="place" v="farm" />
		<tag k="ssr:stedsnr" v="19652" />
	</node>
	<node id="-723314" lat="69.774741666" lon="18.6344805477">
		<tag k="alt_name" v="Bårdsvik" />
		<tag k="name" v="Bårdsvika" />
		<tag k="place" v="isolated_dwelling" />
		<tag k="ssr:stedsnr" v="322889" />
	</node>
	<node id="-727409" lat="69.5366888877" lon="18.6849138712">
		<tag k="name" v="Trondli" />
		<tag k="place" v="farm" />
		<tag k="ssr:stedsnr" v="599169" />
	</node>
	<node id="-727408" lat="69.5337472257" lon="18.6076638834">
		<tag k="name" v="Myrland" />
		<tag k="place" v="farm" />
		<tag k="ssr:stedsnr" v="599159" />
	</node>
	<node id="-729453" lat="69.5983944424" lon="19.8804444407">
		<tag k="alt_name" v="Bjarke" />
		<tag k="name" v="Bjærke" />
		<tag k="place" v="farm" />
		<tag k="ssr:stedsnr" v="868998" />
	</node>
	<node id="-727404" lat="69.5753083353" lon="18.6324750076">
		<tag k="name" v="Kalstad" />
		<tag k="place" v="farm" />
		<tag k="ssr:stedsnr" v="599139" />
	</node>
	<node id="-724370" lat="69.9187416644" lon="18.7161166508">
		<tag k="name" v="Molvik" />
		<tag k="place" v="locality" />
		<tag k="ssr:stedsnr" v="19810" />
	</node>
	<node id="-729448" lat="69.8426277807" lon="18.987980561">
		<tag k="name" v="Maken" />
		<tag k="place" v="farm" />
		<tag k="ssr:stedsnr" v="868972" />
	</node>
	<node id="-727398" lat="69.5208277779" lon="18.542758325">
		<tag k="name" v="Nordgård" />
		<tag k="place" v="farm" />
		<tag k="ssr:stedsnr" v="599090" />
	</node>
	<node id="-729445" lat="69.8418333313" lon="18.8209027669">
		<tag k="name" v="Bruvoll" />
		<tag k="place" v="farm" />
		<tag k="ssr:stedsnr" v="868965" />
	</node>
	<node id="-724386" lat="69.6829888901" lon="18.9812305516">
		<tag k="amenity" v="hospital" />
		<tag k="name" v="Universitetssykehuset" />
		<tag k="ssr:stedsnr" v="24524" />
	</node>
	<node id="-724027" lat="69.709550002" lon="19.0942999899">
		<tag k="name" v="Nordheim" />
		<tag k="place" v="farm" />
		<tag k="ssr:stedsnr" v="478721" />
	</node>
	<node id="-729440" lat="69.8281115135" lon="18.7035443277">
		<tag k="alt_name" v="Hjellvika, yt" />
		<tag k="name" v="Ytre Hjellvik" />
		<tag k="place" v="farm" />
		<tag k="ssr:stedsnr" v="868946" />
	</node>
	<node id="-723344" lat="69.6646666634" lon="19.0228527628">
		<tag k="alt_name" v="Huseby" />
		<tag k="name" v="Husby" />
		<tag k="place" v="isolated_dwelling" />
		<tag k="ssr:stedsnr" v="328698" />
	</node>
	<node id="-727388" lat="69.561669447" lon="19.1059333377">
		<tag k="name" v="Laukslett" />
		<tag k="place" v="farm" />
		<tag k="ssr:stedsnr" v="598378" />
	</node>
	<node id="-725337" lat="69.8430166673" lon="18.5773166544">
		<tag k="name" v="Sandnes med Puskevik" />
		<tag k="place" v="farm" />
		<tag k="ssr:stedsnr" v="170014" />
	</node>
	<node id="-725333" lat="69.556958336" lon="19.6680361073">
		<tag k="name" v="Bergenes" />
		<tag k="place" v="farm" />
		<tag k="ssr:stedsnr" v="168576" />
	</node>
	<node id="-729427" lat="69.7904972196" lon="19.1461277579">
		<tag k="alt_name" v="Skullgambukt" />
		<tag k="name" v="Skulgambukta" />
		<tag k="place" v="farm" />
		<tag k="ssr:stedsnr" v="868871" />
	</node>
	<node id="-729426" lat="69.7629361154" lon="19.0465722236">
		<tag k="name" v="Kraknes" />
		<tag k="place" v="farm" />
		<tag k="ssr:stedsnr" v="868861" />
	</node>
	<node id="-723281" lat="69.5942861066" lon="18.2842222266">
		<tag k="name" v="Sjøtun" />
		<tag k="place" v="hamlet" />
		<tag k="ssr:stedsnr" v="322630" />
	</node>
	<node id="-729423" lat="69.470324998" lon="18.9032499837">
		<tag k="fixme" v="multiple name tags, choose one and add the other to alt_name" />
		<tag k="name" v="Hansmoen;Nyheim" />
		<tag k="place" v="farm" />
		<tag k="ssr:stedsnr" v="868832" />
	</node>
	<node id="-729421" lat="69.4984166653" lon="18.8472055618">
		<tag k="name" v="Midtre Kobbevågen" />
		<tag k="place" v="farm" />
		<tag k="ssr:stedsnr" v="868816" />
	</node>
	<node id="-723272" lat="69.5991611103" lon="18.040216661">
		<tag k="alt_name" v="Brennsholmen" />
		<tag k="fixme" v="consider place=hamlet" />
		<tag k="name" v="Brensholmen" />
		<tag k="place" v="village" />
		<tag k="ssr:stedsnr" v="322524" />
	</node>
	<node id="-728460" lat="69.5321166691" lon="19.2296583288">
		<tag k="name" v="Steinhaug" />
		<tag k="place" v="farm" />
		<tag k="ssr:stedsnr" v="746092" />
	</node>
	<node id="-723267" lat="69.7369000033" lon="19.001463879">
		<tag k="name" v="Nord-Finnes" />
		<tag k="place" v="farm" />
		<tag k="ssr:stedsnr" v="322489" />
	</node>
	<node id="-723266" lat="69.7211416652" lon="18.9475388707">
		<tag k="name" v="Finnvika" />
		<tag k="place" v="farm" />
		<tag k="ssr:stedsnr" v="322480" />
	</node>
	<node id="-725313" lat="69.6531805535" lon="18.9667860997">
		<tag k="building" v="industrial" />
		<tag k="industrial" v="factory" />
		<tag k="name" v="Tromsø Skipsverft AS" />
		<tag k="ssr:stedsnr" v="163167" />
	</node>
	<node id="-723264" lat="69.5290527793" lon="18.291847232">
		<tag k="fixme" v="consider place=hamlet" />
		<tag k="name" v="Bakkejord" />
		<tag k="place" v="village" />
		<tag k="ssr:stedsnr" v="322461" />
	</node>
	<node id="-723263" lat="69.5202111117" lon="18.206713875">
		<tag k="name" v="Greipstad" />
		<tag k="place" v="hamlet" />
		<tag k="ssr:stedsnr" v="322455" />
	</node>
	<node id="-725094" lat="69.6444833347" lon="19.5225999949">
		<tag k="alt_name" v="Nymo" />
		<tag k="name" v="Nymoen" />
		<tag k="place" v="farm" />
		<tag k="ssr:stedsnr" v="139155" />
	</node>
	<node id="-723255" lat="69.6977027806" lon="18.6382222228">
		<tag k="name" v="Kræmarvik" />
		<tag k="place" v="farm" />
		<tag k="ssr:stedsnr" v="322397" />
	</node>
	<node id="-723254" lat="69.695702774" lon="18.8837333199">
		<tag k="name" v="Kvaløysletta" />
		<tag k="place" v="village" />
		<tag k="ssr:stedsnr" v="322392" />
	</node>
	<node id="-728067" lat="69.5314583292" lon="18.3873499937">
		<tag k="name" v="Lauksletta" />
		<tag k="place" v="farm" />
		<tag k="ssr:stedsnr" v="686479" />
	</node>
	<node id="-727348" lat="69.8689249994" lon="18.9221166494">
		<tag k="name" v="Haugland" />
		<tag k="place" v="isolated_dwelling" />
		<tag k="ssr:stedsnr" v="595179" />
	</node>
	<node id="-729395" lat="69.6398722239" lon="18.4102722134">
		<tag k="name" v="Liafjell" />
		<tag k="place" v="farm" />
		<tag k="ssr:stedsnr" v="868544" />
	</node>
	<node id="-729394" lat="69.6231694424" lon="18.3248666725">
		<tag k="name" v="Løvoll" />
		<tag k="place" v="farm" />
		<tag k="ssr:stedsnr" v="868518" />
	</node>
	<node id="-725297" lat="69.5374138861" lon="18.417708334">
		<tag k="alt_name" v="Mjelde Søndre" />
		<tag k="name" v="Søndre Mjelde" />
		<tag k="place" v="farm" />
		<tag k="ssr:stedsnr" v="268568" />
	</node>
	<node id="-725295" lat="69.774305556" lon="19.3875972085">
		<tag k="name" v="Skittenelv" />
		<tag k="place" v="farm" />
		<tag k="ssr:stedsnr" v="151437" />
	</node>
	<node id="-725294" lat="69.5820611076" lon="18.7907277679">
		<tag k="name" v="Slåttnes" />
		<tag k="place" v="hamlet" />
		<tag k="ssr:stedsnr" v="150087" />
	</node>
	<node id="-725293" lat="69.6477027752" lon="18.8989833346">
		<tag k="name" v="Vangberg" />
		<tag k="place" v="quarter" />
		<tag k="ssr:stedsnr" v="147500" />
	</node>
	<node id="-729385" lat="69.6877666691" lon="18.926055557">
		<tag k="name" v="Mortensnes" />
		<tag k="place" v="farm" />
		<tag k="ssr:stedsnr" v="868405" />
	</node>
	<node id="-725665" lat="69.7873250036" lon="19.4654722235">
		<tag k="name" v="Turidheimen" />
		<tag k="place" v="farm" />
		<tag k="ssr:stedsnr" v="201626" />
	</node>
	<node id="-729383" lat="69.6866805597" lon="18.8468305593">
		<tag k="name" v="Heim" />
		<tag k="place" v="farm" />
		<tag k="ssr:stedsnr" v="868399" />
	</node>
	<node id="-729382" lat="69.702258334" lon="18.9192944455">
		<tag k="name" v="Sigerstad" />
		<tag k="place" v="farm" />
		<tag k="ssr:stedsnr" v="868394" />
	</node>
	<node id="-725475" lat="69.5340666682" lon="18.6173472185">
		<tag k="name" v="Nyborg" />
		<tag k="place" v="farm" />
		<tag k="ssr:stedsnr" v="175170" />
	</node>
	<node id="-728454" lat="69.5331055557" lon="19.7393972237">
		<tag k="name" v="Steine" />
		<tag k="place" v="farm" />
		<tag k="ssr:stedsnr" v="746071" />
	</node>
	<node id="-723234" lat="69.4178166699" lon="19.6428944363">
		<tag k="alt_name:no" v="Sommarnes" />
		<tag k="loc_name:se" v="Vuolitsiida" />
		<tag k="name" v="Sommernes" />
		<tag k="name:no" v="Sommernes" />
		<tag k="place" v="farm" />
		<tag k="ssr:stedsnr" v="322212" />
	</node>
	<node id="-725279" lat="69.638374997" lon="18.4042110978">
		<tag k="name" v="Liland" />
		<tag k="place" v="isolated_dwelling" />
		<tag k="ssr:stedsnr" v="141390" />
	</node>
	<node id="-729374" lat="69.6203472214" lon="19.0590166497">
		<tag k="name" v="Dalheim" />
		<tag k="place" v="locality" />
		<tag k="ssr:stedsnr" v="868346" />
	</node>
	<node id="-723333" lat="69.6807194418" lon="18.9733138825">
		<tag k="amenity" v="university" />
		<tag k="fixme" v="multiple name tags, choose one and add the other to alt_name" />
		<tag k="name" v="UiT Noregs arktiske universitet;UiT Norges arktiske universitet" />
		<tag k="ssr:stedsnr" v="327516" />
	</node>
	<node id="-727324" lat="69.7374444475" lon="18.9997722061">
		<tag k="name" v="Finnes Nordre" />
		<tag k="place" v="hamlet" />
		<tag k="ssr:stedsnr" v="594333" />
	</node>
	<node id="-723224" lat="69.3942138887" lon="19.6219277792">
		<tag k="name" v="Heggevoll" />
		<tag k="place" v="isolated_dwelling" />
		<tag k="ssr:stedsnr" v="322175" />
	</node>
	<node id="-723222" lat="69.5685750009" lon="19.6891527613">
		<tag k="name" v="Skogstad" />
		<tag k="place" v="farm" />
		<tag k="ssr:stedsnr" v="322157" />
	</node>
	<node id="-729363" lat="69.5619888912" lon="18.703861097">
		<tag k="alt_name" v="Hamn" />
		<tag k="name" v="Hamna" />
		<tag k="place" v="farm" />
		<tag k="ssr:stedsnr" v="868237" />
	</node>
	<node id="-725266" lat="70.0108444472" lon="18.7412944405">
		<tag k="name" v="Sletta" />
		<tag k="place" v="farm" />
		<tag k="ssr:stedsnr" v="140648" />
	</node>
	<node id="-725264" lat="69.7595527807" lon="19.6886194248">
		<tag k="alt_name" v="Nesset" />
		<tag k="name" v="Neset" />
		<tag k="place" v="farm" />
		<tag k="ssr:stedsnr" v="140628" />
	</node>
	<node id="-723215" lat="69.5125250016" lon="19.2456499895">
		<tag k="name" v="Moen" />
		<tag k="place" v="farm" />
		<tag k="ssr:stedsnr" v="322099" />
	</node>
	<node id="-725261" lat="69.6835138908" lon="18.7896166637">
		<tag k="name" v="Storvollen" />
		<tag k="place" v="farm" />
		<tag k="ssr:stedsnr" v="140412" />
	</node>
	<node id="-729356" lat="69.4185361149" lon="19.5676749818">
		<tag k="name" v="Strandli" />
		<tag k="place" v="farm" />
		<tag k="ssr:stedsnr" v="868204" />
	</node>
	<node id="-729355" lat="69.6454888886" lon="19.5839749776">
		<tag k="name" v="Fjellstad" />
		<tag k="place" v="farm" />
		<tag k="ssr:stedsnr" v="868201" />
	</node>
	<node id="-729354" lat="69.4041305551" lon="19.6466611032">
		<tag k="name" v="Fossli" />
		<tag k="place" v="isolated_dwelling" />
		<tag k="ssr:stedsnr" v="868197" />
	</node>
	<node id="-725135" lat="69.6413249965" lon="18.9787111157">
		<tag k="name" v="Hungeren" />
		<tag k="place" v="quarter" />
		<tag k="ssr:stedsnr" v="139337" />
	</node>
	<node id="-729352" lat="69.5010111132" lon="19.0199694492">
		<tag k="alt_name" v="Myrvang" />
		<tag k="name" v="Myreng" />
		<tag k="place" v="farm" />
		<tag k="ssr:stedsnr" v="868188" />
	</node>
	<node id="-729351" lat="69.3980388878" lon="19.5214249937">
		<tag k="name" v="Solli" />
		<tag k="place" v="isolated_dwelling" />
		<tag k="ssr:stedsnr" v="868183" />
	</node>
	<node id="-729350" lat="69.3761861139" lon="19.6123860963">
		<tag k="name" v="Solheim" />
		<tag k="place" v="farm" />
		<tag k="ssr:stedsnr" v="868180" />
	</node>
	<node id="-729349" lat="69.3970583361" lon="19.6222722208">
		<tag k="alt_name:no" v="Lia" />
		<tag k="loc_name:se" v="Báraroggi" />
		<tag k="name" v="Lien" />
		<tag k="name:no" v="Lien" />
		<tag k="place" v="farm" />
		<tag k="ssr:stedsnr" v="868172" />
	</node>
	<node id="-729348" lat="69.3669499976" lon="19.6176583239">
		<tag k="name" v="Nyslett" />
		<tag k="place" v="farm" />
		<tag k="ssr:stedsnr" v="868161" />
	</node>
	<node id="-729345" lat="69.5704833318" lon="19.7476916547">
		<tag k="loc_name:se" v="Stáffomohkki" />
		<tag k="name" v="Støbukta" />
		<tag k="name:no" v="Støbukta" />
		<tag k="place" v="farm" />
		<tag k="ssr:stedsnr" v="868158" />
	</node>
	<node id="-729343" lat="69.3472777805" lon="19.6118000031">
		<tag k="name" v="Lingrasmo" />
		<tag k="place" v="farm" />
		<tag k="ssr:stedsnr" v="868149" />
	</node>
	<node id="-723198" lat="69.4959833322" lon="19.6381472112">
		<tag k="alt_name" v="Skognesbukt" />
		<tag k="name" v="Skognesbukta" />
		<tag k="place" v="farm" />
		<tag k="ssr:stedsnr" v="322026" />
	</node>
	<node id="-727291" lat="69.6858027744" lon="19.0053110932">
		<tag k="name" v="Isrenna" />
		<tag k="place" v="quarter" />
		<tag k="ssr:stedsnr" v="585110" />
	</node>
	<node id="-724351" lat="69.5858527787" lon="18.2852416649">
		<tag k="name" v="Bakken" />
		<tag k="place" v="farm" />
		<tag k="ssr:stedsnr" v="19585" />
	</node>
	<node id="-723192" lat="69.4503277833" lon="19.6562638687">
		<tag k="name" v="Bratten" />
		<tag k="place" v="farm" />
		<tag k="ssr:stedsnr" v="322004" />
	</node>
	<node id="-729335" lat="69.5115999956" lon="19.2350472236">
		<tag k="alt_name:no" v="Sakariasjord" />
		<tag k="name" v="Sakariasjorda - Skáidi" />
		<tag k="name:no" v="Sakariasjorda" />
		<tag k="name:se" v="Skáidi" />
		<tag k="place" v="hamlet" />
		<tag k="ssr:stedsnr" v="868098" />
	</node>
	<node id="-729332" lat="69.5516416707" lon="19.6567833254">
		<tag k="alt_name:no" v="Lavangen, yt;Lavangen Ytre" />
		<tag k="loc_name:se" v="Gieddesiida" />
		<tag k="name" v="Ytre Lavangen" />
		<tag k="name:no" v="Ytre Lavangen" />
		<tag k="place" v="farm" />
		<tag k="ssr:stedsnr" v="868082" />
	</node>
	<node id="-727283" lat="69.6293750034" lon="18.7289222202">
		<tag k="name" v="Elvenes" />
		<tag k="place" v="farm" />
		<tag k="ssr:stedsnr" v="571450" />
	</node>
	<node id="-727282" lat="69.6286694432" lon="18.9549833289">
		<tag k="name" v="Kaldsletta" />
		<tag k="place" v="farm" />
		<tag k="ssr:stedsnr" v="571375" />
	</node>
	<node id="-725715" lat="69.7301972174" lon="18.9532388921">
		<tag k="name" v="Elvenes" />
		<tag k="place" v="isolated_dwelling" />
		<tag k="ssr:stedsnr" v="207360" />
	</node>
	<node id="-726056" lat="69.6638138881" lon="18.9179638849">
		<tag k="alt_name" v="Nordrøna;Norrønna" />
		<tag k="name" v="Norrøna" />
		<tag k="place" v="quarter" />
		<tag k="ssr:stedsnr" v="261337" />
	</node>
	<node id="-729326" lat="69.484377782" lon="19.6717999798">
		<tag k="name" v="Nyborg" />
		<tag k="place" v="farm" />
		<tag k="ssr:stedsnr" v="868020" />
	</node>
	<node id="-727277" lat="69.4524194469" lon="19.6075388704">
		<tag k="alt_name" v="Skråbak" />
		<tag k="name" v="Skråbakken" />
		<tag k="place" v="farm" />
		<tag k="ssr:stedsnr" v="570269" />
	</node>
	<node id="-723180" lat="69.7818277766" lon="18.7614805625">
		<tag k="alt_name" v="Lyfjorden" />
		<tag k="name" v="Lyfjord" />
		<tag k="place" v="farm" />
		<tag k="ssr:stedsnr" v="321902" />
	</node>
	<node id="-727275" lat="69.4369277767" lon="19.5611333148">
		<tag k="fixme" v="consider place=hamlet" />
		<tag k="name" v="Stordalstrand - Suortu" />
		<tag k="name:no" v="Stordalstrand" />
		<tag k="name:se" v="Suortu" />
		<tag k="place" v="village" />
		<tag k="ssr:stedsnr" v="566530" />
	</node>
	<node id="-726837" lat="69.7060583295" lon="18.9292694385">
		<tag k="name" v="Nettvoll" />
		<tag k="place" v="farm" />
		<tag k="ssr:stedsnr" v="511373" />
	</node>
	<node id="-727273" lat="69.9440138861" lon="18.8445472282">
		<tag k="name" v="Skogås" />
		<tag k="place" v="isolated_dwelling" />
		<tag k="ssr:stedsnr" v="566433" />
	</node>
	<node id="-723176" lat="69.6371638888" lon="17.9841194522">
		<tag k="name" v="Storbergan" />
		<tag k="place" v="isolated_dwelling" />
		<tag k="ssr:stedsnr" v="321772" />
	</node>
	<node id="-726396" lat="69.5454527825" lon="19.5938583175">
		<tag k="name" v="Engstad" />
		<tag k="place" v="farm" />
		<tag k="ssr:stedsnr" v="443076" />
	</node>
	<node id="-729317" lat="69.7299555562" lon="18.6385305456">
		<tag k="name" v="Blåmannsvika" />
		<tag k="place" v="hamlet" />
		<tag k="ssr:stedsnr" v="849392" />
	</node>
	<node id="-729311" lat="69.6553333344" lon="18.2348472167">
		<tag k="name" v="Holmen" />
		<tag k="place" v="farm" />
		<tag k="ssr:stedsnr" v="843993" />
	</node>
	<node id="-724687" lat="69.7314611106" lon="18.9853666632">
		<tag k="name" v="Toften" />
		<tag k="place" v="farm" />
		<tag k="ssr:stedsnr" v="79472" />
	</node>
	<node id="-725208" lat="69.8017888883" lon="19.0576722042">
		<tag k="name" v="Solstad" />
		<tag k="place" v="isolated_dwelling" />
		<tag k="ssr:stedsnr" v="139906" />
	</node>
	<node id="-725206" lat="69.7884777773" lon="19.1216305374">
		<tag k="alt_name" v="Gammelgard;Gammelgård" />
		<tag k="name" v="Gammelgården" />
		<tag k="place" v="isolated_dwelling" />
		<tag k="ssr:stedsnr" v="139881" />
	</node>
	<node id="-723157" lat="69.6418944474" lon="19.5164666569">
		<tag k="alt_name" v="Minde" />
		<tag k="name" v="Minne" />
		<tag k="place" v="farm" />
		<tag k="ssr:stedsnr" v="321142" />
	</node>
	<node id="-723152" lat="69.9686472256" lon="18.8621888804">
		<tag k="name" v="Skansgård" />
		<tag k="place" v="farm" />
		<tag k="ssr:stedsnr" v="309464" />
	</node>
	<node id="-723150" lat="69.9425000035" lon="18.8589666681">
		<tag k="name" v="Skjellneslia" />
		<tag k="place" v="neighbourhood" />
		<tag k="ssr:stedsnr" v="303011" />
	</node>
	<node id="-724381" lat="69.3572416633" lon="19.6299472214">
		<tag k="name" v="Skogly" />
		<tag k="place" v="farm" />
		<tag k="ssr:stedsnr" v="20535" />
	</node>
	<node id="-725193" lat="69.8139888925" lon="18.7030083368">
		<tag k="alt_name" v="Hjellvika, in;Hjellvik;Hjellvik" />
		<tag k="loc_name" v="Inner-Hjellvika" />
		<tag k="name" v="Indre Hjellvik" />
		<tag k="place" v="farm" />
		<tag k="ssr:stedsnr" v="139956" />
	</node>
	<node id="-723144" lat="69.8346749948" lon="18.6832461289">
		<tag k="name" v="Laukvika" />
		<tag k="place" v="hamlet" />
		<tag k="ssr:stedsnr" v="302414" />
	</node>
	<node id="-723660" lat="69.6009495096" lon="18.2856694687">
		<tag k="name" v="Slettnes" />
		<tag k="place" v="farm" />
		<tag k="ssr:stedsnr" v="382606" />
	</node>
	<node id="-725189" lat="69.4851444422" lon="19.054572225">
		<tag k="alt_name" v="Reinsvoll" />
		<tag k="name" v="Reinsmoen" />
		<tag k="place" v="farm" />
		<tag k="ssr:stedsnr" v="139842" />
	</node>
	<node id="-725188" lat="69.8731444464" lon="18.8884611114">
		<tag k="name" v="Sandvik" />
		<tag k="place" v="farm" />
		<tag k="ssr:stedsnr" v="139741" />
	</node>
	<node id="-723139" lat="69.6857666661" lon="18.9261194281">
		<tag k="name" v="Laurvik" />
		<tag k="place" v="locality" />
		<tag k="ssr:stedsnr" v="299021" />
	</node>
	<node id="-727774" lat="69.5049611086" lon="19.7108916626">
		<tag k="name" v="Valen" />
		<tag k="place" v="isolated_dwelling" />
		<tag k="ssr:stedsnr" v="653498" />
	</node>
	<node id="-730109" lat="69.6343517163" lon="17.9806918755">
		<tag k="name" v="Hillesøy med Kalholmen og Værholmen" />
		<tag k="place" v="farm" />
		<tag k="ssr:stedsnr" v="977624" />
	</node>
	<node id="-725181" lat="69.8822972212" lon="18.691536101">
		<tag k="name" v="Heimdal" />
		<tag k="place" v="isolated_dwelling" />
		<tag k="ssr:stedsnr" v="139770" />
	</node>
	<node id="-727722" lat="69.6848250015" lon="18.8007416726">
		<tag k="name" v="Storelva" />
		<tag k="place" v="suburb" />
		<tag k="ssr:stedsnr" v="630483" />
	</node>
	<node id="-726047" lat="69.5720956051" lon="18.7742310619">
		<tag k="alt_name" v="Larseng" />
		<tag k="name" v="Larsenga" />
		<tag k="place" v="farm" />
		<tag k="ssr:stedsnr" v="261248" />
	</node>
	<node id="-727224" lat="69.8444166651" lon="18.6558860996">
		<tag k="name" v="Fredheim" />
		<tag k="place" v="isolated_dwelling" />
		<tag k="ssr:stedsnr" v="564988" />
	</node>
	<node id="-727223" lat="69.600508338" lon="19.8458972002">
		<tag k="name" v="Jektevik" />
		<tag k="place" v="farm" />
		<tag k="ssr:stedsnr" v="564977" />
	</node>
	<node id="-725172" lat="69.5583222247" lon="18.0962638811">
		<tag k="name" v="Berg" />
		<tag k="place" v="farm" />
		<tag k="ssr:stedsnr" v="139592" />
	</node>
	<node id="-725170" lat="69.5595888927" lon="18.5904944457">
		<tag k="name" v="Myran" />
		<tag k="place" v="farm" />
		<tag k="ssr:stedsnr" v="139576" />
	</node>
	<node id="-725403" lat="69.3551000043" lon="19.6919027568">
		<tag k="name" v="Fjellfinngamplassen" />
		<tag k="place" v="locality" />
		<tag k="ssr:stedsnr" v="174111" />
	</node>
	<node id="-729631" lat="69.6483166645" lon="18.9590027596">
		<tag k="name" v="Richard Withs Plass" />
		<tag k="place" v="square" />
		<tag k="ssr:stedsnr" v="903897" />
	</node>
	<node id="-727212" lat="69.7972750036" lon="19.0623666713">
		<tag k="name" v="Langås" />
		<tag k="place" v="isolated_dwelling" />
		<tag k="ssr:stedsnr" v="564898" />
	</node>
	<node id="-729258" lat="69.535952775" lon="18.680788879">
		<tag k="name" v="Bergum" />
		<tag k="place" v="farm" />
		<tag k="ssr:stedsnr" v="843187" />
	</node>
	<node id="-725159" lat="69.7105055582" lon="18.3444805648">
		<tag k="fixme" v="consider place=hamlet" />
		<tag k="loc_name" v="Skamtinden" />
		<tag k="name" v="Skamtind" />
		<tag k="place" v="farm" />
		<tag k="ssr:stedsnr" v="139625" />
	</node>
	<node id="-729254" lat="69.5748888898" lon="18.6439277682">
		<tag k="name" v="Fredheim" />
		<tag k="place" v="farm" />
		<tag k="ssr:stedsnr" v="843147" />
	</node>
	<node id="-725156" lat="69.5988694435" lon="18.024027779">
		<tag k="name" v="Austein" />
		<tag k="place" v="hamlet" />
		<tag k="ssr:stedsnr" v="139537" />
	</node>
	<node id="-727203" lat="69.622402775" lon="17.9127777808">
		<tag k="name" v="Norum" />
		<tag k="place" v="isolated_dwelling" />
		<tag k="ssr:stedsnr" v="564803" />
	</node>
	<node id="-725154" lat="69.6053694402" lon="18.0607666651">
		<tag k="alt_name" v="Storsletta" />
		<tag k="name" v="Storslett" />
		<tag k="place" v="farm" />
		<tag k="ssr:stedsnr" v="139529" />
	</node>
	<node id="-725153" lat="69.6035222175" lon="18.0553444498">
		<tag k="alt_name" v="Lillestrand" />
		<tag k="name" v="Litlestrand" />
		<tag k="place" v="farm" />
		<tag k="ssr:stedsnr" v="139528" />
	</node>
	<node id="-724817" lat="69.8252277818" lon="18.5135611078">
		<tag k="name" v="Vengsøya" />
		<tag k="place" v="hamlet" />
		<tag k="ssr:stedsnr" v="86621" />
	</node>
	<node id="-725148" lat="69.6302083289" lon="18.1695361132">
		<tag k="name" v="Sandneshamn" />
		<tag k="place" v="hamlet" />
		<tag k="ssr:stedsnr" v="139564" />
	</node>
	<node id="-722970" lat="70.0259555546" lon="18.5379638743">
		<tag k="name" v="Kirkeværet" />
		<tag k="place" v="locality" />
		<tag k="ssr:stedsnr" v="292082" />
	</node>
	<node id="-725145" lat="69.6204305577" lon="18.2157388848">
		<tag k="name" v="Myreng" />
		<tag k="place" v="farm" />
		<tag k="ssr:stedsnr" v="139552" />
	</node>
	<node id="-725144" lat="69.5976805529" lon="18.8277638889">
		<tag k="name" v="Storvik" />
		<tag k="place" v="farm" />
		<tag k="ssr:stedsnr" v="139369" />
	</node>
	<node id="-729238" lat="69.5164944456" lon="19.2473555425">
		<tag k="name" v="Ramfjord camping" />
		<tag k="ssr:stedsnr" v="842685" />
		<tag k="tourism" v="camp_site" />
	</node>
	<node id="-725141" lat="69.5433555603" lon="19.1730360996">
		<tag k="alt_name" v="Mellomjord" />
		<tag k="loc_name" v="Mellajorda" />
		<tag k="name" v="Mellomjorda" />
		<tag k="place" v="farm" />
		<tag k="ssr:stedsnr" v="139300" />
	</node>
	<node id="-725140" lat="69.549422225" lon="19.0289527633">
		<tag k="fixme" v="consider place=hamlet" />
		<tag k="name" v="Hundbergan - Čuoikavárri" />
		<tag k="name:no" v="Hundbergan" />
		<tag k="name:se" v="Čuoikavárri" />
		<tag k="place" v="village" />
		<tag k="ssr:stedsnr" v="139296" />
	</node>
	<node id="-725137" lat="69.6408361131" lon="18.7295388963">
		<tag k="name" v="Rudvang" />
		<tag k="place" v="farm" />
		<tag k="ssr:stedsnr" v="139340" />
	</node>
	<node id="-729232" lat="69.6841666635" lon="18.9387999797">
		<tag k="amenity" v="school" />
		<tag k="name" v="Mortensnes skole" />
		<tag k="ssr:stedsnr" v="842642" />
	</node>
	<node id="-729231" lat="69.6985861086" lon="18.9579722213">
		<tag k="alt_name" v="Solneset" />
		<tag k="name" v="Solnes" />
		<tag k="old_name" v="Solnesset" />
		<tag k="place" v="isolated_dwelling" />
		<tag k="ssr:stedsnr" v="842638" />
	</node>
	<node id="-725134" lat="69.6594499983" lon="19.0182361084">
		<tag k="alt_name" v="Tomasjord" />
		<tag k="name" v="Tomasjorda" />
		<tag k="place" v="suburb" />
		<tag k="ssr:stedsnr" v="139335" />
	</node>
	<node id="-725130" lat="69.6570249973" lon="18.7720999813">
		<tag k="name" v="Guleng" />
		<tag k="place" v="isolated_dwelling" />
		<tag k="ssr:stedsnr" v="139321" />
	</node>
	<node id="-729357" lat="69.6624694406" lon="19.6128166612">
		<tag k="name" v="Brorstad" />
		<tag k="place" v="farm" />
		<tag k="ssr:stedsnr" v="868208" />
	</node>
	<node id="-725128" lat="69.5134916671" lon="19.2486277706">
		<tag k="fixme" v="consider place=hamlet" />
		<tag k="name" v="Sørbotn" />
		<tag k="place" v="village" />
		<tag k="ssr:stedsnr" v="139309" />
	</node>
	<node id="-725356" lat="69.953855556" lon="18.7232499919">
		<tag k="name" v="Brorstad" />
		<tag k="place" v="locality" />
		<tag k="ssr:stedsnr" v="170463" />
	</node>
	<node id="-729222" lat="69.6928111119" lon="18.8624805613">
		<tag k="amenity" v="nursing_home" />
		<tag k="name" v="Kvaløysletta sykehjem" />
		<tag k="ssr:stedsnr" v="842533" />
	</node>
	<node id="-725125" lat="69.4347999999" lon="19.6452499956">
		<tag k="name" v="Naustvoll" />
		<tag k="place" v="locality" />
		<tag k="ssr:stedsnr" v="139245" />
	</node>
	<node id="-725124" lat="69.4451194482" lon="19.6508972021">
		<tag k="alt_name:no" v="Stakkevold" />
		<tag k="loc_name:se" v="Stáhkkágieddi" />
		<tag k="name" v="Stakkvoll" />
		<tag k="name:no" v="Stakkvoll" />
		<tag k="place" v="farm" />
		<tag k="ssr:stedsnr" v="139240" />
	</node>
	<node id="-725123" lat="69.4281333359" lon="19.6281888925">
		<tag k="alt_name:no" v="Skjåberg" />
		<tag k="fixme" v="consider place=hamlet" />
		<tag k="name" v="Skjåberget - Skadjanjárga" />
		<tag k="name:no" v="Skjåberget" />
		<tag k="name:se" v="Skadjanjárga" />
		<tag k="place" v="farm" />
		<tag k="ssr:stedsnr" v="139229" />
	</node>
	<node id="-727168" lat="69.7333222218" lon="18.9900999998">
		<tag k="name" v="Nygård" />
		<tag k="place" v="farm" />
		<tag k="ssr:stedsnr" v="564512" />
	</node>
	<node id="-724672" lat="69.7123194458" lon="18.6505999941">
		<tag k="name" v="Reinhaug" />
		<tag k="place" v="isolated_dwelling" />
		<tag k="ssr:stedsnr" v="79369" />
	</node>
	<node id="-725116" lat="69.3951722179" lon="19.472594444">
		<tag k="loc_name:se" v="Stuorageargenjárga" />
		<tag k="name" v="Storsteinnes" />
		<tag k="name:no" v="Storsteinnes" />
		<tag k="place" v="farm" />
		<tag k="ssr:stedsnr" v="139202" />
	</node>
	<node id="-725115" lat="69.6329388928" lon="19.4226305521">
		<tag k="name" v="Bakkelund" />
		<tag k="place" v="farm" />
		<tag k="ssr:stedsnr" v="139149" />
	</node>
	<node id="-723065" lat="69.6901916684" lon="19.0737000005">
		<tag k="name" v="Myrnes" />
		<tag k="place" v="farm" />
		<tag k="ssr:stedsnr" v="296231" />
	</node>
	<node id="-725111" lat="69.5036361149" lon="19.6311638849">
		<tag k="alt_name:no" v="Kvalberg" />
		<tag k="loc_name:se" v="Siidluokta" />
		<tag k="name" v="Kvalberget" />
		<tag k="name:no" v="Kvalberget" />
		<tag k="place" v="farm" />
		<tag k="ssr:stedsnr" v="139110" />
	</node>
	<node id="-725108" lat="69.460130552" lon="19.6239249798">
		<tag k="alt_name" v="Stensland" />
		<tag k="name" v="Steinsland" />
		<tag k="place" v="farm" />
		<tag k="ssr:stedsnr" v="139013" />
	</node>
	<node id="-727155" lat="69.5243916639" lon="18.1722722087">
		<tag k="name" v="Solstrand" />
		<tag k="place" v="isolated_dwelling" />
		<tag k="ssr:stedsnr" v="564480" />
	</node>
	<node id="-725106" lat="69.3965154656" lon="19.4854151219">
		<tag k="alt_name:no" v="Nordstraum;Nordstrømmen" />
		<tag k="fixme" v="consider place=hamlet" />
		<tag k="loc_name:se" v="Nuorttašbealrávdnji" />
		<tag k="name" v="Nordstraumen" />
		<tag k="name:no" v="Nordstraumen" />
		<tag k="place" v="farm" />
		<tag k="ssr:stedsnr" v="139200" />
	</node>
	<node id="-725105" lat="69.3892250038" lon="19.4657749943">
		<tag k="name" v="Bjørkås" />
		<tag k="place" v="farm" />
		<tag k="ssr:stedsnr" v="139191" />
	</node>
	<node id="-729200" lat="69.6747249983" lon="18.9687250058">
		<tag k="amenity" v="school" />
		<tag k="name" v="Borgtun skole" />
		<tag k="ssr:stedsnr" v="842118" />
	</node>
	<node id="-727151" lat="69.6785083307" lon="18.9375666489">
		<tag k="name" v="Håpet" />
		<tag k="place" v="suburb" />
		<tag k="ssr:stedsnr" v="564434" />
	</node>
	<node id="-725102" lat="69.600477774" lon="19.7359194376">
		<tag k="alt_name:no" v="Sattern" />
		<tag k="name" v="Satteren - Sáhtár" />
		<tag k="name:no" v="Satteren" />
		<tag k="name:se" v="Sáhtár" />
		<tag k="place" v="farm" />
		<tag k="ssr:stedsnr" v="139183" />
	</node>
	<node id="-727149" lat="69.7003999989" lon="18.9738888891">
		<tag k="name" v="Fredlund" />
		<tag k="place" v="farm" />
		<tag k="ssr:stedsnr" v="564412" />
	</node>
	<node id="-727148" lat="69.6983749965" lon="18.682824995">
		<tag k="name" v="Bakkan" />
		<tag k="place" v="farm" />
		<tag k="ssr:stedsnr" v="564410" />
	</node>
	<node id="-725099" lat="69.5963111085" lon="19.757266654">
		<tag k="alt_name" v="Straumsbukt" />
		<tag k="name" v="Straumsbukta" />
		<tag k="place" v="farm" />
		<tag k="ssr:stedsnr" v="139174" />
	</node>
	<node id="-729194" lat="69.657894443" lon="18.9256166633">
		<tag k="name" v="Stalheim" />
		<tag k="place" v="suburb" />
		<tag k="ssr:stedsnr" v="842046" />
	</node>
	<node id="-727145" lat="69.7075500021" lon="18.6472055482">
		<tag k="name" v="Susannajorda" />
		<tag k="place" v="farm" />
		<tag k="ssr:stedsnr" v="564399" />
	</node>
	<node id="-725096" lat="69.3445750038" lon="19.6089833332">
		<tag k="name" v="Nyset" />
		<tag k="place" v="farm" />
		<tag k="ssr:stedsnr" v="139162" />
	</node>
	<node id="-729190" lat="69.6380944433" lon="18.9672749919">
		<tag k="building" v="industrial" />
		<tag k="industrial" v="factory" />
		<tag k="name" v="Petroleumsbukta" />
		<tag k="ssr:stedsnr" v="841727" />
	</node>
	<node id="-727057" lat="69.5906888927" lon="18.2810611085">
		<tag k="name" v="Westgård" />
		<tag k="place" v="farm" />
		<tag k="ssr:stedsnr" v="539724" />
	</node>
	<node id="-725092" lat="69.548608333" lon="19.7198333163">
		<tag k="name" v="Stakkenes" />
		<tag k="place" v="farm" />
		<tag k="ssr:stedsnr" v="139101" />
	</node>
	<node id="-723302" lat="69.6869416706" lon="18.3500749919">
		<tag k="alt_name" v="Kråkskardet" />
		<tag k="fixme" v="consider place=hamlet" />
		<tag k="loc_name" v="Skaret;Krokskaret" />
		<tag k="name" v="Kråkskard" />
		<tag k="place" v="farm" />
		<tag k="ssr:stedsnr" v="322732" />
	</node>
	<node id="-727136" lat="69.6380444452" lon="19.201049985">
		<tag k="fixme" v="consider tourism=alpine_hut or tourism=chalet" />
		<tag k="name" v="Skarvassbu" />
		<tag k="old_name" v="Skardbua" />
		<tag k="ssr:stedsnr" v="564324" />
		<tag k="tourism" v="wilderness_hut" />
	</node>
	<node id="-725085" lat="69.634919441" lon="18.720627777">
		<tag k="name" v="Holemark" />
		<tag k="place" v="farm" />
		<tag k="ssr:stedsnr" v="268470" />
	</node>
	<node id="-727132" lat="69.5398583328" lon="19.0669333319">
		<tag k="fixme" v="consider place=hamlet" />
		<tag k="name" v="Kristofferjorda" />
		<tag k="place" v="village" />
		<tag k="ssr:stedsnr" v="564278" />
	</node>
	<node id="-725083" lat="69.4870944404" lon="18.840894445">
		<tag k="name" v="Kobbevågen indre" />
		<tag k="place" v="farm" />
		<tag k="ssr:stedsnr" v="120906" />
	</node>
	<node id="-723238" lat="69.5631194415" lon="18.6743972132">
		<tag k="name" v="Nordgården" />
		<tag k="place" v="farm" />
		<tag k="ssr:stedsnr" v="322229" />
	</node>
	<node id="-727127" lat="69.4148694406" lon="19.6422027733">
		<tag k="name" v="Elveli" />
		<tag k="place" v="isolated_dwelling" />
		<tag k="ssr:stedsnr" v="564215" />
	</node>
	<node id="-727126" lat="69.6589750017" lon="19.6218138728">
		<tag k="name" v="Skogholt" />
		<tag k="place" v="farm" />
		<tag k="ssr:stedsnr" v="564211" />
	</node>
	<node id="-727125" lat="69.657674999" lon="19.5686805395">
		<tag k="name" v="Hov" />
		<tag k="place" v="isolated_dwelling" />
		<tag k="ssr:stedsnr" v="564210" />
	</node>
	<node id="-723027" lat="69.6389083299" lon="19.0187777767">
		<tag k="name" v="Heggen" />
		<tag k="place" v="farm" />
		<tag k="ssr:stedsnr" v="295701" />
	</node>
	<node id="-727122" lat="69.6541305591" lon="19.6617416462">
		<tag k="name" v="Moen" />
		<tag k="place" v="farm" />
		<tag k="ssr:stedsnr" v="564201" />
	</node>
	<node id="-727120" lat="69.7369777792" lon="19.4899249994">
		<tag k="fixme" v="consider tourism=alpine_hut or tourism=chalet" />
		<tag k="name" v="Trollvassbu" />
		<tag k="ssr:stedsnr" v="564191" />
		<tag k="tourism" v="wilderness_hut" />
	</node>
	<node id="-725843" lat="69.6636944418" lon="18.9523083381">
		<tag k="name" v="Laurdal" />
		<tag k="place" v="quarter" />
		<tag k="ssr:stedsnr" v="235206" />
	</node>
	<node id="-723022" lat="69.5664305568" lon="18.9459555505">
		<tag k="name" v="Solbakken" />
		<tag k="place" v="farm" />
		<tag k="ssr:stedsnr" v="295463" />
	</node>
	<node id="-727117" lat="69.3809638868" lon="19.6145333209">
		<tag k="name" v="Vårli" />
		<tag k="place" v="farm" />
		<tag k="ssr:stedsnr" v="564185" />
	</node>
	<node id="-725068" lat="69.6839972235" lon="18.8047527765">
		<tag k="name" v="Nymoen" />
		<tag k="place" v="isolated_dwelling" />
		<tag k="ssr:stedsnr" v="117029" />
	</node>
	<node id="-727115" lat="69.39148889" lon="19.4897805532">
		<tag k="name" v="Luneng" />
		<tag k="place" v="farm" />
		<tag k="ssr:stedsnr" v="564179" />
	</node>
	<node id="-727114" lat="69.3887083349" lon="19.4516888874">
		<tag k="alt_name" v="Straumstad" />
		<tag k="name" v="Strømstad" />
		<tag k="place" v="farm" />
		<tag k="ssr:stedsnr" v="564178" />
	</node>
	<node id="-727113" lat="69.3970249969" lon="19.6452471985">
		<tag k="name" v="Bjørkeng" />
		<tag k="old_name" v="Bjørkang" />
		<tag k="place" v="farm" />
		<tag k="ssr:stedsnr" v="564173" />
	</node>
	<node id="-723347" lat="69.6544638881" lon="18.745608334">
		<tag k="name" v="Botn" />
		<tag k="place" v="farm" />
		<tag k="ssr:stedsnr" v="329373" />
	</node>
	<node id="-727110" lat="69.6046138911" lon="19.7323055358">
		<tag k="alt_name" v="Rorhollet" />
		<tag k="name" v="Rorholet" />
		<tag k="place" v="farm" />
		<tag k="ssr:stedsnr" v="564169" />
	</node>
	<node id="-724321" lat="69.4102555538" lon="19.6557055568">
		<tag k="fixme" v="consider place=hamlet" />
		<tag k="name" v="Tomasnes - Vuovdesiida" />
		<tag k="name:no" v="Tomasnes" />
		<tag k="name:se" v="Vuovdesiida" />
		<tag k="place" v="farm" />
		<tag k="ssr:stedsnr" v="19205" />
	</node>
	<node id="-727108" lat="69.5718423111" lon="19.7520567427">
		<tag k="name" v="Stakkenes" />
		<tag k="place" v="farm" />
		<tag k="ssr:stedsnr" v="564159" />
	</node>
	<node id="-727105" lat="69.6394361113" lon="19.5400805364">
		<tag k="name" v="Skogeng" />
		<tag k="place" v="farm" />
		<tag k="ssr:stedsnr" v="564146" />
	</node>
	<node id="-723008" lat="69.6737777793" lon="18.9783638728">
		<tag k="name" v="Terjevik" />
		<tag k="place" v="quarter" />
		<tag k="ssr:stedsnr" v="295154" />
	</node>
	<node id="-723007" lat="69.6775888909" lon="18.9220138941">
		<tag k="name" v="Myrheim" />
		<tag k="place" v="farm" />
		<tag k="ssr:stedsnr" v="295084" />
	</node>
	<node id="-727102" lat="69.5107555518" lon="19.7135388866">
		<tag k="alt_name:no" v="Solbak;Solbakken" />
		<tag k="loc_name:se" v="Gaskkasnjárga" />
		<tag k="name" v="Solbakk" />
		<tag k="name:no" v="Solbakk" />
		<tag k="place" v="farm" />
		<tag k="ssr:stedsnr" v="564110" />
	</node>
	<node id="-729149" lat="69.8848674154" lon="18.5733987703">
		<tag k="fixme" v="consider place=hamlet" />
		<tag k="name" v="Musvær" />
		<tag k="place" v="farm" />
		<tag k="ssr:stedsnr" v="838004" />
	</node>
	<node id="-723626" lat="69.560638892" lon="18.9509277854">
		<tag k="alt_name" v="Berg, in" />
		<tag k="name" v="Indre Berg" />
		<tag k="place" v="farm" />
		<tag k="ssr:stedsnr" v="382248" />
	</node>
	<node id="-726026" lat="69.3588555545" lon="19.6177305323">
		<tag k="name" v="Lundberg" />
		<tag k="place" v="farm" />
		<tag k="ssr:stedsnr" v="261172" />
	</node>
	<node id="-723797" lat="69.5391500049" lon="18.9847638735">
		<tag k="fixme" v="consider place=hamlet" />
		<tag k="name" v="Sandvika" />
		<tag k="place" v="village" />
		<tag k="ssr:stedsnr" v="393569" />
	</node>
	<node id="-727513" lat="69.5440999964" lon="19.7234444422">
		<tag k="name" v="Åslund" />
		<tag k="place" v="farm" />
		<tag k="ssr:stedsnr" v="624074" />
	</node>
	<node id="-727092" lat="69.5473305561" lon="19.6359277608">
		<tag k="name" v="Skogli" />
		<tag k="place" v="farm" />
		<tag k="ssr:stedsnr" v="564066" />
	</node>
	<node id="-724318" lat="69.3790583379" lon="19.6338805356">
		<tag k="alt_name:no" v="Jupen" />
		<tag k="loc_name:se" v="Juhpa" />
		<tag k="name" v="Djupen" />
		<tag k="name:no" v="Djupen" />
		<tag k="place" v="farm" />
		<tag k="ssr:stedsnr" v="19192" />
	</node>
	<node id="-722993" lat="69.9595611098" lon="18.7561444356">
		<tag k="name" v="Bjørneng" />
		<tag k="place" v="isolated_dwelling" />
		<tag k="ssr:stedsnr" v="292416" />
	</node>
	<node id="-727086" lat="69.4906916717" lon="19.6505360958">
		<tag k="name" v="Skognes" />
		<tag k="place" v="farm" />
		<tag k="ssr:stedsnr" v="564016" />
	</node>
	<node id="-729133" lat="70.0306833318" lon="18.7145888772">
		<tag k="name" v="Indre Løksfjord" />
		<tag k="place" v="farm" />
		<tag k="ssr:stedsnr" v="839455" />
	</node>
	<node id="-722986" lat="69.8881638921" lon="18.8434305598">
		<tag k="name" v="Jonasstua" />
		<tag k="place" v="locality" />
		<tag k="ssr:stedsnr" v="292266" />
	</node>
	<node id="-728071" lat="69.6275000007" lon="18.2679861022">
		<tag k="name" v="Tulleng" />
		<tag k="old_name" v="Tullenga" />
		<tag k="place" v="farm" />
		<tag k="ssr:stedsnr" v="686544" />
	</node>
	<node id="-725030" lat="69.5562027812" lon="18.1977972077">
		<tag k="name" v="Gammen" />
		<tag k="place" v="locality" />
		<tag k="ssr:stedsnr" v="114675" />
	</node>
	<node id="-723974" lat="69.6064444431" lon="18.0223694412">
		<tag k="name" v="Salen" />
		<tag k="place" v="farm" />
		<tag k="ssr:stedsnr" v="478165" />
	</node>
	<node id="-725024" lat="69.5042583328" lon="18.8589500033">
		<tag k="name" v="Bjørnnes" />
		<tag k="place" v="farm" />
		<tag k="ssr:stedsnr" v="114642" />
	</node>
	<node id="-723632" lat="69.6455305605" lon="18.7334360986">
		<tag k="name" v="Uteng" />
		<tag k="place" v="farm" />
		<tag k="ssr:stedsnr" v="382320" />
	</node>
	<node id="-727068" lat="69.6038916648" lon="18.83379166">
		<tag k="name" v="Øyra" />
		<tag k="place" v="farm" />
		<tag k="ssr:stedsnr" v="541049" />
	</node>
	<node id="-729375" lat="69.597936114" lon="18.8044361194">
		<tag k="name" v="Teigen" />
		<tag k="place" v="farm" />
		<tag k="ssr:stedsnr" v="868348" />
	</node>
	<node id="-725018" lat="69.5246666662" lon="18.8653666658">
		<tag k="name" v="Myrvold" />
		<tag k="place" v="farm" />
		<tag k="ssr:stedsnr" v="114620" />
	</node>
	<node id="-725016" lat="69.5749888853" lon="19.7548666595">
		<tag k="name" v="Olderbakken" />
		<tag k="place" v="farm" />
		<tag k="ssr:stedsnr" v="114610" />
	</node>
	<node id="-729116" lat="69.7243305579" lon="19.6911611146">
		<tag k="loc_name:se" v="Sisskierri" />
		<tag k="name" v="Innerskjær" />
		<tag k="name:no" v="Innerskjær" />
		<tag k="place" v="farm" />
		<tag k="ssr:stedsnr" v="831708" />
	</node>
	<node id="-727062" lat="69.5814138867" lon="19.7538499895">
		<tag k="loc_name:se" v="Mavskkogieddi" />
		<tag k="name" v="Lyngmo" />
		<tag k="name:no" v="Lyngmo" />
		<tag k="place" v="farm" />
		<tag k="ssr:stedsnr" v="539891" />
	</node>
	<node id="-727058" lat="69.5974583312" lon="18.2979999836">
		<tag k="name" v="Kroken" />
		<tag k="place" v="farm" />
		<tag k="ssr:stedsnr" v="539731" />
	</node>
	<node id="-723971" lat="69.5646611129" lon="18.6011194328">
		<tag k="name" v="Norum" />
		<tag k="place" v="farm" />
		<tag k="ssr:stedsnr" v="478136" />
	</node>
	<node id="-729102" lat="69.6898777808" lon="19.0029138886">
		<tag k="name" v="Stakkevoll" />
		<tag k="place" v="farm" />
		<tag k="ssr:stedsnr" v="821017" />
	</node>
	<node id="-729101" lat="69.6587027747" lon="18.9130027798">
		<tag k="amenity" v="hospital" />
		<tag k="name" v="Åsgård" />
		<tag k="ssr:stedsnr" v="815565" />
	</node>
	<node id="-729099" lat="69.8289805598" lon="18.9344972086">
		<tag k="name" v="Lunegard" />
		<tag k="place" v="farm" />
		<tag k="ssr:stedsnr" v="815531" />
	</node>
	<node id="-727050" lat="69.5672472207" lon="19.7419944438">
		<tag k="name" v="Johan-Nilsagårdan" />
		<tag k="place" v="farm" />
		<tag k="ssr:stedsnr" v="539574" />
	</node>
	<node id="-729097" lat="69.5195833353" lon="19.0264527626">
		<tag k="name" v="Blomholmen" />
		<tag k="place" v="farm" />
		<tag k="ssr:stedsnr" v="814963" />
	</node>
	<node id="-729096" lat="69.5753444459" lon="18.6330166644">
		<tag k="name" v="Vollen" />
		<tag k="place" v="hamlet" />
		<tag k="ssr:stedsnr" v="814601" />
	</node>
	<node id="-728065" lat="69.5285805575" lon="18.5934499936">
		<tag k="name" v="Fjordtun" />
		<tag k="place" v="farm" />
		<tag k="ssr:stedsnr" v="686475" />
	</node>
	<node id="-728466" lat="69.5917611133" lon="19.2928972143">
		<tag k="name" v="Lian" />
		<tag k="place" v="farm" />
		<tag k="ssr:stedsnr" v="746130" />
	</node>
	<node id="-722946" lat="69.5013527802" lon="19.7119527613">
		<tag k="name" v="Grasmyr" />
		<tag k="place" v="isolated_dwelling" />
		<tag k="ssr:stedsnr" v="290444" />
	</node>
	<node id="-727041" lat="69.6015999959" lon="18.8312222273">
		<tag k="name" v="Bekkevoll" />
		<tag k="place" v="farm" />
		<tag k="ssr:stedsnr" v="539288" />
	</node>
</osm>
