<?xml version="1.0" encoding="UTF-8"?>
<osm version="0.6" generator="osmapis">
	<node lat="59.25418881696468" lon="8.075696697021744" id="-52682">
		<tag k="name" v="Gryte" />
		<tag k="ssr:date" v="2019-12-27" />
		<tag k="ssr:gruppe" v="veg" />
		<tag k="ssr:hovedgruppe" v="infrastruktur" />
		<tag k="ssr:stedsnr" v="41970" />
		<tag k="ssr:type" v="adressenavn" />
	</node>
	<node lat="59.091159959517796" lon="8.234167614192096" id="-52684">
		<tag k="name" v="Vikåne" />
		<tag k="ssr:date" v="2019-12-27" />
		<tag k="ssr:gruppe" v="veg" />
		<tag k="ssr:hovedgruppe" v="infrastruktur" />
		<tag k="ssr:stedsnr" v="237553" />
		<tag k="ssr:type" v="adressenavn" />
	</node>
	<node lat="59.18526204801525" lon="8.090189788324219" id="-52685">
		<tag k="name" v="Århusvegen" />
		<tag k="ssr:date" v="2019-12-27" />
		<tag k="ssr:gruppe" v="veg" />
		<tag k="ssr:hovedgruppe" v="infrastruktur" />
		<tag k="ssr:stedsnr" v="237556" />
		<tag k="ssr:type" v="adressenavn" />
	</node>
	<node lat="59.141974826462686" lon="8.035400859425247" id="-52686">
		<tag k="name" v="Borggrendsvegen" />
		<tag k="ssr:date" v="2019-12-27" />
		<tag k="ssr:gruppe" v="veg" />
		<tag k="ssr:hovedgruppe" v="infrastruktur" />
		<tag k="ssr:stedsnr" v="237562" />
		<tag k="ssr:type" v="adressenavn" />
	</node>
	<node lat="59.33714305733756" lon="8.141651664189853" id="-52717">
		<tag k="name" v="Øvre Haugane" />
		<tag k="ssr:date" v="2019-12-27" />
		<tag k="ssr:gruppe" v="veg" />
		<tag k="ssr:hovedgruppe" v="infrastruktur" />
		<tag k="ssr:stedsnr" v="58705" />
		<tag k="ssr:type" v="adressenavn" />
	</node>
	<node lat="59.24886202871152" lon="8.124404007938745" id="-52719">
		<tag k="name" v="Tjønndalsvegen" />
		<tag k="ssr:date" v="2019-12-27" />
		<tag k="ssr:gruppe" v="veg" />
		<tag k="ssr:hovedgruppe" v="infrastruktur" />
		<tag k="ssr:stedsnr" v="59983" />
		<tag k="ssr:type" v="adressenavn" />
	</node>
	<node lat="59.316846222389785" lon="7.929719401837572" id="-52720">
		<tag k="name" v="Mjåvassvegen" />
		<tag k="ssr:date" v="2019-12-27" />
		<tag k="ssr:gruppe" v="veg" />
		<tag k="ssr:hovedgruppe" v="infrastruktur" />
		<tag k="ssr:stedsnr" v="59874" />
		<tag k="ssr:type" v="adressenavn" />
	</node>
	<node lat="59.30927506922842" lon="7.932003954038994" id="-52721">
		<tag k="name" v="Skålivegen" />
		<tag k="ssr:date" v="2019-12-27" />
		<tag k="ssr:gruppe" v="veg" />
		<tag k="ssr:hovedgruppe" v="infrastruktur" />
		<tag k="ssr:stedsnr" v="59882" />
		<tag k="ssr:type" v="adressenavn" />
	</node>
	<node lat="59.19686325071243" lon="8.08894244609888" id="-52870">
		<tag k="name" v="Nylivegen" />
		<tag k="ssr:date" v="2019-12-27" />
		<tag k="ssr:gruppe" v="veg" />
		<tag k="ssr:hovedgruppe" v="infrastruktur" />
		<tag k="ssr:stedsnr" v="119847" />
		<tag k="ssr:type" v="adressenavn" />
	</node>
	<node lat="59.229206308024665" lon="8.013102235425805" id="-52871">
		<tag k="name" v="Gausvassvegen" />
		<tag k="ssr:date" v="2019-12-27" />
		<tag k="ssr:gruppe" v="veg" />
		<tag k="ssr:hovedgruppe" v="infrastruktur" />
		<tag k="ssr:stedsnr" v="119869" />
		<tag k="ssr:type" v="adressenavn" />
	</node>
	<node lat="59.29370993954633" lon="8.047248554724073" id="-52872">
		<tag k="name" v="Tortveit" />
		<tag k="ssr:date" v="2019-12-27" />
		<tag k="ssr:gruppe" v="veg" />
		<tag k="ssr:hovedgruppe" v="infrastruktur" />
		<tag k="ssr:stedsnr" v="120876" />
		<tag k="ssr:type" v="adressenavn" />
	</node>
	<node lat="59.226575002080665" lon="7.832600007489753" id="-52905">
		<tag k="name" v="Øysævegen" />
		<tag k="ssr:date" v="2019-12-27" />
		<tag k="ssr:gruppe" v="veg" />
		<tag k="ssr:hovedgruppe" v="infrastruktur" />
		<tag k="ssr:stedsnr" v="156161" />
		<tag k="ssr:type" v="vegstrekning" />
	</node>
	<node lat="59.11611680649872" lon="8.078496341463211" id="-52969">
		<tag k="name" v="Åmlivegen" />
		<tag k="ssr:date" v="2019-12-27" />
		<tag k="ssr:gruppe" v="veg" />
		<tag k="ssr:hovedgruppe" v="infrastruktur" />
		<tag k="ssr:stedsnr" v="180564" />
		<tag k="ssr:type" v="adressenavn" />
	</node>
	<node lat="59.217861108842555" lon="8.070963893858252" id="-53008">
		<tag k="name" v="Brokkelinja" />
		<tag k="ssr:date" v="2019-12-27" />
		<tag k="ssr:gruppe" v="energi" />
		<tag k="ssr:hovedgruppe" v="infrastruktur" />
		<tag k="ssr:stedsnr" v="216452" />
		<tag k="ssr:type" v="kraftledning" />
	</node>
	<node lat="59.31334045891221" lon="8.133493526724695" id="-53088">
		<tag k="name" v="Skredvegen" />
		<tag k="ssr:date" v="2019-12-27" />
		<tag k="ssr:gruppe" v="veg" />
		<tag k="ssr:hovedgruppe" v="infrastruktur" />
		<tag k="ssr:stedsnr" v="241908" />
		<tag k="ssr:type" v="adressenavn" />
	</node>
	<node lat="59.193749997448215" lon="7.945608326428057" id="-53198">
		<tag k="name" v="Brokkelinja" />
		<tag k="ssr:date" v="2019-12-27" />
		<tag k="ssr:gruppe" v="energi" />
		<tag k="ssr:hovedgruppe" v="infrastruktur" />
		<tag k="ssr:stedsnr" v="460583" />
		<tag k="ssr:type" v="kraftledning" />
	</node>
	<node lat="59.20381036129726" lon="8.085366998071045" id="-53203">
		<tag k="name" v="Molandsmoen" />
		<tag k="ssr:date" v="2019-12-27" />
		<tag k="ssr:gruppe" v="veg" />
		<tag k="ssr:hovedgruppe" v="infrastruktur" />
		<tag k="ssr:stedsnr" v="282776" />
		<tag k="ssr:type" v="adressenavn" />
	</node>
	<node lat="59.23080453749238" lon="8.089981557079296" id="-53360">
		<tag k="name" v="Geitstadvegen" />
		<tag k="ssr:date" v="2019-12-27" />
		<tag k="ssr:gruppe" v="veg" />
		<tag k="ssr:hovedgruppe" v="infrastruktur" />
		<tag k="ssr:stedsnr" v="343814" />
		<tag k="ssr:type" v="adressenavn" />
	</node>
	<node lat="59.26586960539409" lon="8.056575826446583" id="-53366">
		<tag k="name" v="Tveitane" />
		<tag k="ssr:date" v="2019-12-27" />
		<tag k="ssr:gruppe" v="veg" />
		<tag k="ssr:hovedgruppe" v="infrastruktur" />
		<tag k="ssr:stedsnr" v="344969" />
		<tag k="ssr:type" v="adressenavn" />
	</node>
	<node lat="59.31450546010781" lon="8.153234399387726" id="-53446">
		<tag k="name" v="Roanvegen" />
		<tag k="ssr:date" v="2019-12-27" />
		<tag k="ssr:gruppe" v="veg" />
		<tag k="ssr:hovedgruppe" v="infrastruktur" />
		<tag k="ssr:stedsnr" v="358748" />
		<tag k="ssr:type" v="adressenavn" />
	</node>
	<node lat="59.06638082187415" lon="7.945786794339174" id="-53470">
		<tag k="name" v="Kviptevegen" />
		<tag k="ssr:date" v="2019-12-27" />
		<tag k="ssr:gruppe" v="veg" />
		<tag k="ssr:hovedgruppe" v="infrastruktur" />
		<tag k="ssr:stedsnr" v="480529" />
		<tag k="ssr:type" v="adressenavn" />
	</node>
	<node lat="59.28735624528259" lon="7.998402040653463" id="-53506">
		<tag k="name" v="Songedalsvegen" />
		<tag k="ssr:date" v="2019-12-27" />
		<tag k="ssr:gruppe" v="veg" />
		<tag k="ssr:hovedgruppe" v="infrastruktur" />
		<tag k="ssr:stedsnr" v="484874" />
		<tag k="ssr:type" v="adressenavn" />
	</node>
	<node lat="59.302366207768124" lon="8.11491865600242" id="-53507">
		<tag k="name" v="Ligrend" />
		<tag k="ssr:date" v="2019-12-27" />
		<tag k="ssr:gruppe" v="veg" />
		<tag k="ssr:hovedgruppe" v="infrastruktur" />
		<tag k="ssr:stedsnr" v="484889" />
		<tag k="ssr:type" v="adressenavn" />
	</node>
	<node lat="59.24304935714658" lon="8.09904993927206" id="-53512">
		<tag k="name" v="Rolleivstadvegen" />
		<tag k="ssr:date" v="2019-12-27" />
		<tag k="ssr:gruppe" v="veg" />
		<tag k="ssr:hovedgruppe" v="infrastruktur" />
		<tag k="ssr:stedsnr" v="405839" />
		<tag k="ssr:type" v="adressenavn" />
	</node>
	<node lat="59.18246747690875" lon="8.08633661414987" id="-53619">
		<tag k="name" v="Klokkarhamaren" />
		<tag k="ssr:date" v="2019-12-27" />
		<tag k="ssr:gruppe" v="veg" />
		<tag k="ssr:hovedgruppe" v="infrastruktur" />
		<tag k="ssr:stedsnr" v="423841" />
		<tag k="ssr:type" v="adressenavn" />
	</node>
	<node lat="59.209333336445944" lon="8.075700001567352" id="-53663">
		<tag k="name" v="Finndølalinja" />
		<tag k="ssr:date" v="2019-12-27" />
		<tag k="ssr:gruppe" v="energi" />
		<tag k="ssr:hovedgruppe" v="infrastruktur" />
		<tag k="ssr:stedsnr" v="458571" />
		<tag k="ssr:type" v="kraftledning" />
	</node>
	<node lat="59.22673055942546" lon="7.841302781209448" id="-53667">
		<tag k="name" v="Tordalsvegen" />
		<tag k="ssr:date" v="2019-12-27" />
		<tag k="ssr:gruppe" v="veg" />
		<tag k="ssr:hovedgruppe" v="infrastruktur" />
		<tag k="ssr:stedsnr" v="459177" />
		<tag k="ssr:type" v="vegstrekning" />
	</node>
	<node lat="59.20350845732936" lon="7.937380082319252" id="-53726">
		<tag k="name" v="Votnevegen" />
		<tag k="ssr:date" v="2019-12-27" />
		<tag k="ssr:gruppe" v="veg" />
		<tag k="ssr:hovedgruppe" v="infrastruktur" />
		<tag k="ssr:stedsnr" v="480757" />
		<tag k="ssr:type" v="adressenavn" />
	</node>
	<node lat="59.18573506478616" lon="8.085173555257487" id="-53834">
		<tag k="name" v="Landstadvegen" />
		<tag k="ssr:date" v="2019-12-27" />
		<tag k="ssr:gruppe" v="veg" />
		<tag k="ssr:hovedgruppe" v="infrastruktur" />
		<tag k="ssr:stedsnr" v="544816" />
		<tag k="ssr:type" v="adressenavn" />
	</node>
	<node lat="59.192592226804734" lon="8.101127722278063" id="-53918">
		<tag k="name" v="Kåsegrend" />
		<tag k="ssr:date" v="2019-12-27" />
		<tag k="ssr:gruppe" v="veg" />
		<tag k="ssr:hovedgruppe" v="infrastruktur" />
		<tag k="ssr:stedsnr" v="587151" />
		<tag k="ssr:type" v="adressenavn" />
	</node>
	<node lat="59.18546944893981" lon="8.101161117455547" id="-53946">
		<tag k="name" v="Tøddebakkane" />
		<tag k="ssr:date" v="2019-12-27" />
		<tag k="ssr:gruppe" v="veg" />
		<tag k="ssr:hovedgruppe" v="infrastruktur" />
		<tag k="ssr:stedsnr" v="594950" />
		<tag k="ssr:type" v="vegstrekning" />
	</node>
	<node lat="59.218015135982704" lon="8.017196041903391" id="-53962">
		<tag k="name" v="Gausåvegen" />
		<tag k="ssr:date" v="2019-12-27" />
		<tag k="ssr:gruppe" v="veg" />
		<tag k="ssr:hovedgruppe" v="infrastruktur" />
		<tag k="ssr:stedsnr" v="604854" />
		<tag k="ssr:type" v="adressenavn" />
	</node>
	<node lat="59.221752778855524" lon="8.012841671590925" id="-54016">
		<tag k="name" v="Russlandsvegen" />
		<tag k="ssr:date" v="2019-12-27" />
		<tag k="ssr:gruppe" v="veg" />
		<tag k="ssr:hovedgruppe" v="infrastruktur" />
		<tag k="ssr:stedsnr" v="701923" />
		<tag k="ssr:type" v="vegstrekning" />
	</node>
	<node lat="59.25931111015538" lon="7.817236105438016" id="-54025">
		<tag k="name" v="Mørktjønnvegen" />
		<tag k="ssr:date" v="2019-12-27" />
		<tag k="ssr:gruppe" v="veg" />
		<tag k="ssr:hovedgruppe" v="infrastruktur" />
		<tag k="ssr:stedsnr" v="702859" />
		<tag k="ssr:type" v="vegstrekning" />
	</node>
	<node lat="59.13862777333008" lon="7.988997217763275" id="-54029">
		<tag k="name" v="Borggrendsvegen" />
		<tag k="ssr:date" v="2019-12-27" />
		<tag k="ssr:gruppe" v="veg" />
		<tag k="ssr:hovedgruppe" v="infrastruktur" />
		<tag k="ssr:stedsnr" v="703502" />
		<tag k="ssr:type" v="vegstrekning" />
	</node>
	<node lat="59.24558611494341" lon="8.100391658893097" id="-54053">
		<tag k="name" v="Rolevstadvegen" />
		<tag k="ssr:date" v="2019-12-27" />
		<tag k="ssr:gruppe" v="veg" />
		<tag k="ssr:hovedgruppe" v="infrastruktur" />
		<tag k="ssr:stedsnr" v="640107" />
		<tag k="ssr:type" v="vegstrekning" />
	</node>
	<node lat="59.139276716856365" lon="8.107446430927734" id="-54125">
		<tag k="name" v="Nord-Momraksvegen" />
		<tag k="ssr:date" v="2019-12-27" />
		<tag k="ssr:gruppe" v="veg" />
		<tag k="ssr:hovedgruppe" v="infrastruktur" />
		<tag k="ssr:stedsnr" v="661541" />
		<tag k="ssr:type" v="adressenavn" />
	</node>
	<node lat="59.1840795025192" lon="8.096340203978981" id="-54126">
		<tag k="name" v="Svalestogvegen" />
		<tag k="ssr:date" v="2019-12-27" />
		<tag k="ssr:gruppe" v="veg" />
		<tag k="ssr:hovedgruppe" v="infrastruktur" />
		<tag k="ssr:stedsnr" v="709149" />
		<tag k="ssr:type" v="adressenavn" />
	</node>
	<node lat="59.19644046840499" lon="8.085594832368" id="-54127">
		<tag k="name" v="Grunnvik" />
		<tag k="ssr:date" v="2019-12-27" />
		<tag k="ssr:gruppe" v="veg" />
		<tag k="ssr:hovedgruppe" v="infrastruktur" />
		<tag k="ssr:stedsnr" v="665840" />
		<tag k="ssr:type" v="adressenavn" />
	</node>
	<node lat="59.25970939675754" lon="8.056853043133895" id="-54166">
		<tag k="name" v="Håsomgrenda" />
		<tag k="ssr:date" v="2019-12-27" />
		<tag k="ssr:gruppe" v="veg" />
		<tag k="ssr:hovedgruppe" v="infrastruktur" />
		<tag k="ssr:stedsnr" v="891974" />
		<tag k="ssr:type" v="adressenavn" />
	</node>
	<node lat="59.06001944659502" lon="8.281399997090377" id="-54218">
		<tag k="name" v="Åbogstjønnsvingen" />
		<tag k="ssr:date" v="2019-12-27" />
		<tag k="ssr:gruppe" v="veg" />
		<tag k="ssr:hovedgruppe" v="infrastruktur" />
		<tag k="ssr:stedsnr" v="897912" />
		<tag k="ssr:type" v="vegstrekning" />
	</node>
	<node lat="59.03982775606067" lon="7.9741576672832934" id="-54309">
		<tag k="name" v="Bjorhustjønn" />
		<tag k="ssr:date" v="2019-12-27" />
		<tag k="ssr:gruppe" v="veg" />
		<tag k="ssr:hovedgruppe" v="infrastruktur" />
		<tag k="ssr:stedsnr" v="722513" />
		<tag k="ssr:type" v="adressenavn" />
	</node>
	<node lat="59.057486158344446" lon="8.263651095942958" id="-54336">
		<tag k="name" v="Valebjørgsbryggja" />
		<tag k="ssr:date" v="2019-12-27" />
		<tag k="ssr:gruppe" v="veg" />
		<tag k="ssr:hovedgruppe" v="infrastruktur" />
		<tag k="ssr:stedsnr" v="905565" />
		<tag k="ssr:type" v="adressenavn" />
	</node>
	<node lat="59.06638082187415" lon="7.945786794339174" id="-54337">
		<tag k="name" v="Flottavegen" />
		<tag k="ssr:date" v="2019-12-27" />
		<tag k="ssr:gruppe" v="veg" />
		<tag k="ssr:hovedgruppe" v="infrastruktur" />
		<tag k="ssr:stedsnr" v="905534" />
		<tag k="ssr:type" v="adressenavn" />
	</node>
	<node lat="59.246474996739764" lon="8.135169435764098" id="-54343">
		<tag k="name" v="Osebakkane" />
		<tag k="ssr:date" v="2019-12-27" />
		<tag k="ssr:gruppe" v="veg" />
		<tag k="ssr:hovedgruppe" v="infrastruktur" />
		<tag k="ssr:stedsnr" v="762297" />
		<tag k="ssr:type" v="vegstrekning" />
	</node>
	<node lat="59.218477824216215" lon="8.093044501124075" id="-54369">
		<tag k="name" v="Greivstadvegen" />
		<tag k="ssr:date" v="2019-12-27" />
		<tag k="ssr:gruppe" v="veg" />
		<tag k="ssr:hovedgruppe" v="infrastruktur" />
		<tag k="ssr:stedsnr" v="767794" />
		<tag k="ssr:type" v="adressenavn" />
	</node>
	<node lat="59.182982848448006" lon="8.115094600476915" id="-54370">
		<tag k="name" v="Steinkleivvegen" />
		<tag k="ssr:date" v="2019-12-27" />
		<tag k="ssr:gruppe" v="veg" />
		<tag k="ssr:hovedgruppe" v="infrastruktur" />
		<tag k="ssr:stedsnr" v="769134" />
		<tag k="ssr:type" v="adressenavn" />
	</node>
	<node lat="59.24180795621717" lon="8.08124970724968" id="-54398">
		<tag k="name" v="Kleivgrendsvegen" />
		<tag k="ssr:date" v="2019-12-27" />
		<tag k="ssr:gruppe" v="veg" />
		<tag k="ssr:hovedgruppe" v="infrastruktur" />
		<tag k="ssr:stedsnr" v="908879" />
		<tag k="ssr:type" v="adressenavn" />
	</node>
	<node lat="59.28674777753131" lon="8.0570451748873" id="-54415">
		<tag k="name" v="Hærstadvegen" />
		<tag k="ssr:date" v="2019-12-27" />
		<tag k="ssr:gruppe" v="veg" />
		<tag k="ssr:hovedgruppe" v="infrastruktur" />
		<tag k="ssr:stedsnr" v="909897" />
		<tag k="ssr:type" v="adressenavn" />
	</node>
	<node lat="59.06107171936954" lon="7.961093541664978" id="-54417">
		<tag k="name" v="Birtedalsvegen" />
		<tag k="ssr:date" v="2019-12-27" />
		<tag k="ssr:gruppe" v="veg" />
		<tag k="ssr:hovedgruppe" v="infrastruktur" />
		<tag k="ssr:stedsnr" v="787810" />
		<tag k="ssr:type" v="adressenavn" />
	</node>
	<node lat="59.32279415692511" lon="8.141147211983691" id="-54418">
		<tag k="name" v="Foldsævegen" />
		<tag k="ssr:date" v="2019-12-27" />
		<tag k="ssr:gruppe" v="veg" />
		<tag k="ssr:hovedgruppe" v="infrastruktur" />
		<tag k="ssr:stedsnr" v="787881" />
		<tag k="ssr:type" v="adressenavn" />
	</node>
	<node lat="59.33480555596465" lon="8.144738896678776" id="-54560">
		<tag k="name" v="Gamlevegen" />
		<tag k="ssr:date" v="2019-12-27" />
		<tag k="ssr:gruppe" v="veg" />
		<tag k="ssr:hovedgruppe" v="infrastruktur" />
		<tag k="ssr:stedsnr" v="838935" />
		<tag k="ssr:type" v="vegstrekning" />
	</node>
	<node lat="59.05207815542759" lon="7.977044939251874" id="-54563">
		<tag k="name" v="Birtevegen" />
		<tag k="ssr:date" v="2019-12-27" />
		<tag k="ssr:gruppe" v="veg" />
		<tag k="ssr:hovedgruppe" v="infrastruktur" />
		<tag k="ssr:stedsnr" v="844497" />
		<tag k="ssr:type" v="adressenavn" />
	</node>
	<node lat="59.20011666680919" lon="8.153363881431643" id="-54612">
		<tag k="name" v="Grimhollbakkane" />
		<tag k="ssr:date" v="2019-12-27" />
		<tag k="ssr:gruppe" v="veg" />
		<tag k="ssr:hovedgruppe" v="infrastruktur" />
		<tag k="ssr:stedsnr" v="883152" />
		<tag k="ssr:type" v="vegstrekning" />
	</node>
	<node lat="59.323897226037275" lon="8.179102782824366" id="-54659">
		<tag k="name" v="Sveinsdalsvegen" />
		<tag k="ssr:date" v="2019-12-27" />
		<tag k="ssr:gruppe" v="veg" />
		<tag k="ssr:hovedgruppe" v="infrastruktur" />
		<tag k="ssr:stedsnr" v="898671" />
		<tag k="ssr:type" v="vegstrekning" />
	</node>
	<node lat="59.133202831241746" lon="8.137463291575175" id="-54771">
		<tag k="name" v="Vestre Napevegen" />
		<tag k="ssr:date" v="2019-12-27" />
		<tag k="ssr:gruppe" v="veg" />
		<tag k="ssr:hovedgruppe" v="infrastruktur" />
		<tag k="ssr:stedsnr" v="965541" />
		<tag k="ssr:type" v="adressenavn" />
	</node>
	<node lat="59.134487191731615" lon="8.134654658902349" id="-54772">
		<tag k="name" v="Skvettedamsvegen" />
		<tag k="ssr:date" v="2019-12-27" />
		<tag k="ssr:gruppe" v="veg" />
		<tag k="ssr:hovedgruppe" v="infrastruktur" />
		<tag k="ssr:stedsnr" v="965742" />
		<tag k="ssr:type" v="adressenavn" />
	</node>
	<node lat="59.19948265899337" lon="8.006827484452753" id="-54773">
		<tag k="name" v="Vestre Gausvatn" />
		<tag k="ssr:date" v="2019-12-27" />
		<tag k="ssr:gruppe" v="veg" />
		<tag k="ssr:hovedgruppe" v="infrastruktur" />
		<tag k="ssr:stedsnr" v="969835" />
		<tag k="ssr:type" v="adressenavn" />
	</node>
	<node lat="59.19044067668066" lon="8.018629421794424" id="-54969">
		<tag k="name" v="Austre Gausvatn" />
		<tag k="ssr:date" v="2019-12-27" />
		<tag k="ssr:gruppe" v="veg" />
		<tag k="ssr:hovedgruppe" v="infrastruktur" />
		<tag k="ssr:stedsnr" v="59829" />
		<tag k="ssr:type" v="adressenavn" />
	</node>
	<node lat="59.28497325369391" lon="8.09082479697122" id="-54970">
		<tag k="name" v="Veumvegen" />
		<tag k="ssr:date" v="2019-12-27" />
		<tag k="ssr:gruppe" v="veg" />
		<tag k="ssr:hovedgruppe" v="infrastruktur" />
		<tag k="ssr:stedsnr" v="59868" />
		<tag k="ssr:type" v="adressenavn" />
	</node>
	<node lat="59.18163697075428" lon="8.11066784607217" id="-55065">
		<tag k="name" v="Austre Napevegen" />
		<tag k="ssr:date" v="2019-12-27" />
		<tag k="ssr:gruppe" v="veg" />
		<tag k="ssr:hovedgruppe" v="infrastruktur" />
		<tag k="ssr:stedsnr" v="102151" />
		<tag k="ssr:type" v="adressenavn" />
	</node>
	<node lat="59.15843055394136" lon="8.13066388549038" id="-55079">
		<tag k="name" v="Brennebakkane" />
		<tag k="ssr:date" v="2019-12-27" />
		<tag k="ssr:gruppe" v="veg" />
		<tag k="ssr:hovedgruppe" v="infrastruktur" />
		<tag k="ssr:stedsnr" v="108263" />
		<tag k="ssr:type" v="vegstrekning" />
	</node>
	<node lat="59.134352776058044" lon="8.143650002046856" id="-55106">
		<tag k="name" v="Napevegen" />
		<tag k="ssr:date" v="2019-12-27" />
		<tag k="ssr:gruppe" v="veg" />
		<tag k="ssr:hovedgruppe" v="infrastruktur" />
		<tag k="ssr:stedsnr" v="109582" />
		<tag k="ssr:type" v="vegstrekning" />
	</node>
	<node lat="59.31493762039614" lon="8.161135646201341" id="-55147">
		<tag k="name" v="Røyningdalsvegen" />
		<tag k="ssr:date" v="2019-12-27" />
		<tag k="ssr:gruppe" v="veg" />
		<tag k="ssr:hovedgruppe" v="infrastruktur" />
		<tag k="ssr:stedsnr" v="116735" />
		<tag k="ssr:type" v="adressenavn" />
	</node>
	<node lat="58.97322801208008" lon="8.08432220984498" id="-55240">
		<tag k="name" v="Nesvassvegen" />
		<tag k="ssr:date" v="2019-12-27" />
		<tag k="ssr:gruppe" v="veg" />
		<tag k="ssr:hovedgruppe" v="infrastruktur" />
		<tag k="ssr:stedsnr" v="161777" />
		<tag k="ssr:type" v="adressenavn" />
	</node>
	<node lat="59.06159166322493" lon="8.280783330567393" id="-55250">
		<tag k="name" v="Leikmyrsvingen" />
		<tag k="ssr:date" v="2019-12-27" />
		<tag k="ssr:gruppe" v="veg" />
		<tag k="ssr:hovedgruppe" v="infrastruktur" />
		<tag k="ssr:stedsnr" v="168939" />
		<tag k="ssr:type" v="vegstrekning" />
	</node>
	<node lat="59.20282894721359" lon="8.06146925420217" id="-55303">
		<tag k="name" v="Einangsvegen" />
		<tag k="ssr:date" v="2019-12-27" />
		<tag k="ssr:gruppe" v="veg" />
		<tag k="ssr:hovedgruppe" v="infrastruktur" />
		<tag k="ssr:stedsnr" v="180833" />
		<tag k="ssr:type" v="adressenavn" />
	</node>
	<node lat="59.23960277568591" lon="7.961430561053913" id="-55382">
		<tag k="name" v="Ækrevegen" />
		<tag k="ssr:date" v="2019-12-27" />
		<tag k="ssr:gruppe" v="veg" />
		<tag k="ssr:hovedgruppe" v="infrastruktur" />
		<tag k="ssr:stedsnr" v="217576" />
		<tag k="ssr:type" v="vegstrekning" />
	</node>
	<node lat="59.18601820150148" lon="8.097798281879273" id="-55400">
		<tag k="name" v="Tøddebakkane" />
		<tag k="ssr:date" v="2019-12-27" />
		<tag k="ssr:gruppe" v="veg" />
		<tag k="ssr:hovedgruppe" v="infrastruktur" />
		<tag k="ssr:stedsnr" v="223144" />
		<tag k="ssr:type" v="adressenavn" />
	</node>
	<node lat="59.24758145781789" lon="7.890415226235692" id="-55401">
		<tag k="name" v="Torsdalsvegen" />
		<tag k="ssr:date" v="2019-12-27" />
		<tag k="ssr:gruppe" v="veg" />
		<tag k="ssr:hovedgruppe" v="infrastruktur" />
		<tag k="ssr:stedsnr" v="223961" />
		<tag k="ssr:type" v="adressenavn" />
	</node>
	<node lat="59.23030007536609" lon="7.849070312180657" id="-55402">
		<tag k="name" v="Øysævegen" />
		<tag k="ssr:date" v="2019-12-27" />
		<tag k="ssr:gruppe" v="veg" />
		<tag k="ssr:hovedgruppe" v="infrastruktur" />
		<tag k="ssr:stedsnr" v="223962" />
		<tag k="ssr:type" v="adressenavn" />
	</node>
	<node lat="59.060108333305244" lon="8.277930556228705" id="-55486">
		<tag k="name" v="Uppå Kleivane" />
		<tag k="ssr:date" v="2019-12-27" />
		<tag k="ssr:gruppe" v="veg" />
		<tag k="ssr:hovedgruppe" v="infrastruktur" />
		<tag k="ssr:stedsnr" v="290921" />
		<tag k="ssr:type" v="vegstrekning" />
	</node>
	<node lat="59.3215013983211" lon="7.911233055570235" id="-55527">
		<tag k="name" v="Kjøpsvassvegen" />
		<tag k="ssr:date" v="2019-12-27" />
		<tag k="ssr:gruppe" v="veg" />
		<tag k="ssr:hovedgruppe" v="infrastruktur" />
		<tag k="ssr:stedsnr" v="302869" />
		<tag k="ssr:type" v="adressenavn" />
	</node>
	<node lat="59.157987501762804" lon="8.083698309678454" id="-55604">
		<tag k="name" v="Neslandsvegen" />
		<tag k="ssr:date" v="2019-12-27" />
		<tag k="ssr:gruppe" v="veg" />
		<tag k="ssr:hovedgruppe" v="infrastruktur" />
		<tag k="ssr:stedsnr" v="343236" />
		<tag k="ssr:type" v="adressenavn" />
	</node>
	<node lat="59.1840795025192" lon="8.096340203978981" id="-55605">
		<tag k="name" v="Libakkane" />
		<tag k="ssr:date" v="2019-12-27" />
		<tag k="ssr:gruppe" v="veg" />
		<tag k="ssr:hovedgruppe" v="infrastruktur" />
		<tag k="ssr:stedsnr" v="344136" />
		<tag k="ssr:type" v="adressenavn" />
	</node>
	<node lat="59.233082864325624" lon="7.93953218353222" id="-55606">
		<tag k="name" v="Metveitsvegen" />
		<tag k="ssr:date" v="2019-12-27" />
		<tag k="ssr:gruppe" v="veg" />
		<tag k="ssr:hovedgruppe" v="infrastruktur" />
		<tag k="ssr:stedsnr" v="344950" />
		<tag k="ssr:type" v="adressenavn" />
	</node>
	<node lat="59.11163055434082" lon="8.087724994580212" id="-55625">
		<tag k="name" v="Kåsesvingen" />
		<tag k="ssr:date" v="2019-12-27" />
		<tag k="ssr:gruppe" v="veg" />
		<tag k="ssr:hovedgruppe" v="infrastruktur" />
		<tag k="ssr:stedsnr" v="351173" />
		<tag k="ssr:type" v="vegstrekning" />
	</node>
	<node lat="59.059432075849585" lon="8.265338484921468" id="-55677">
		<tag k="name" v="Valebjørgheia" />
		<tag k="ssr:date" v="2019-12-27" />
		<tag k="ssr:gruppe" v="veg" />
		<tag k="ssr:hovedgruppe" v="infrastruktur" />
		<tag k="ssr:stedsnr" v="358566" />
		<tag k="ssr:type" v="adressenavn" />
	</node>
	<node lat="59.19564915275073" lon="8.0864804699368" id="-55678">
		<tag k="name" v="Vadlivegen" />
		<tag k="ssr:date" v="2019-12-27" />
		<tag k="ssr:gruppe" v="veg" />
		<tag k="ssr:hovedgruppe" v="infrastruktur" />
		<tag k="ssr:stedsnr" v="362832" />
		<tag k="ssr:type" v="adressenavn" />
	</node>
	<node lat="59.18466862557799" lon="8.096487740778006" id="-55765">
		<tag k="name" v="Sitjevegen" />
		<tag k="ssr:date" v="2019-12-27" />
		<tag k="ssr:gruppe" v="veg" />
		<tag k="ssr:hovedgruppe" v="infrastruktur" />
		<tag k="ssr:stedsnr" v="405125" />
		<tag k="ssr:type" v="adressenavn" />
	</node>
	<node lat="59.10606944403793" lon="8.053219436356468" id="-55845">
		<tag k="name" v="Breivikskleivane" />
		<tag k="ssr:date" v="2019-12-27" />
		<tag k="ssr:gruppe" v="veg" />
		<tag k="ssr:hovedgruppe" v="infrastruktur" />
		<tag k="ssr:stedsnr" v="413784" />
		<tag k="ssr:type" v="vegstrekning" />
	</node>
	<node lat="59.23902333460876" lon="8.072230105496116" id="-55857">
		<tag k="name" v="Møanevegen" />
		<tag k="ssr:date" v="2019-12-27" />
		<tag k="ssr:gruppe" v="veg" />
		<tag k="ssr:hovedgruppe" v="infrastruktur" />
		<tag k="ssr:stedsnr" v="419749" />
		<tag k="ssr:type" v="adressenavn" />
	</node>
	<node lat="59.145161108231434" lon="8.1749527789022" id="-55996">
		<tag k="name" v="Stavkleiv" />
		<tag k="ssr:date" v="2019-12-27" />
		<tag k="ssr:gruppe" v="veg" />
		<tag k="ssr:hovedgruppe" v="infrastruktur" />
		<tag k="ssr:stedsnr" v="533429" />
		<tag k="ssr:type" v="vegstrekning" />
	</node>
	<node lat="58.98220129429584" lon="8.326310578696456" id="-56041">
		<tag k="name" v="Fyresdalsvegen" />
		<tag k="ssr:date" v="2019-12-27" />
		<tag k="ssr:gruppe" v="veg" />
		<tag k="ssr:hovedgruppe" v="infrastruktur" />
		<tag k="ssr:stedsnr" v="540550" />
		<tag k="ssr:type" v="adressenavn" />
	</node>
	<node lat="59.22630510162102" lon="8.00952093609794" id="-56042">
		<tag k="name" v="Finndalstveitvegen" />
		<tag k="ssr:date" v="2019-12-27" />
		<tag k="ssr:gruppe" v="veg" />
		<tag k="ssr:hovedgruppe" v="infrastruktur" />
		<tag k="ssr:stedsnr" v="544846" />
		<tag k="ssr:type" v="adressenavn" />
	</node>
	<node lat="59.18288181505445" lon="8.090080723929228" id="-56043">
		<tag k="name" v="Prestegardsvegen" />
		<tag k="ssr:date" v="2019-12-27" />
		<tag k="ssr:gruppe" v="veg" />
		<tag k="ssr:hovedgruppe" v="infrastruktur" />
		<tag k="ssr:stedsnr" v="544815" />
		<tag k="ssr:type" v="adressenavn" />
	</node>
	<node lat="58.98905457959087" lon="8.30258139774093" id="-56132">
		<tag k="name" v="Ångåsnetten" />
		<tag k="ssr:date" v="2019-12-27" />
		<tag k="ssr:gruppe" v="veg" />
		<tag k="ssr:hovedgruppe" v="infrastruktur" />
		<tag k="ssr:stedsnr" v="585633" />
		<tag k="ssr:type" v="adressenavn" />
	</node>
	<node lat="59.233692663571055" lon="8.049872788814003" id="-56133">
		<tag k="name" v="Åslandsgrend" />
		<tag k="ssr:date" v="2019-12-27" />
		<tag k="ssr:gruppe" v="veg" />
		<tag k="ssr:hovedgruppe" v="infrastruktur" />
		<tag k="ssr:stedsnr" v="587949" />
		<tag k="ssr:type" v="adressenavn" />
	</node>
	<node lat="59.06699167016229" lon="7.997952775465388" id="-56201">
		<tag k="name" v="Gakkenskilbakkane" />
		<tag k="ssr:date" v="2019-12-27" />
		<tag k="ssr:gruppe" v="veg" />
		<tag k="ssr:hovedgruppe" v="infrastruktur" />
		<tag k="ssr:stedsnr" v="595881" />
		<tag k="ssr:type" v="vegstrekning" />
	</node>
	<node lat="58.989091732929246" lon="8.31064528979628" id="-56202">
		<tag k="name" v="Ångås" />
		<tag k="ssr:date" v="2019-12-27" />
		<tag k="ssr:gruppe" v="veg" />
		<tag k="ssr:hovedgruppe" v="infrastruktur" />
		<tag k="ssr:stedsnr" v="601528" />
		<tag k="ssr:type" v="adressenavn" />
	</node>
	<node lat="59.16770026375275" lon="8.085496396463778" id="-56283">
		<tag k="name" v="Berglandsvegen" />
		<tag k="ssr:date" v="2019-12-27" />
		<tag k="ssr:gruppe" v="veg" />
		<tag k="ssr:hovedgruppe" v="infrastruktur" />
		<tag k="ssr:stedsnr" v="646247" />
		<tag k="ssr:type" v="adressenavn" />
	</node>
	<node lat="59.24785906178019" lon="8.131877952399364" id="-56284">
		<tag k="name" v="Husstøylosvegen" />
		<tag k="ssr:date" v="2019-12-27" />
		<tag k="ssr:gruppe" v="veg" />
		<tag k="ssr:hovedgruppe" v="infrastruktur" />
		<tag k="ssr:stedsnr" v="648960" />
		<tag k="ssr:type" v="adressenavn" />
	</node>
	<node lat="59.08872745328592" lon="8.242119639824281" id="-56376">
		<tag k="name" v="Våmur" />
		<tag k="ssr:date" v="2019-12-27" />
		<tag k="ssr:gruppe" v="veg" />
		<tag k="ssr:hovedgruppe" v="infrastruktur" />
		<tag k="ssr:stedsnr" v="662558" />
		<tag k="ssr:type" v="adressenavn" />
	</node>
	<node lat="59.06917762074076" lon="8.26523984881967" id="-56377">
		<tag k="name" v="Skomdalsvegen" />
		<tag k="ssr:date" v="2019-12-27" />
		<tag k="ssr:gruppe" v="veg" />
		<tag k="ssr:hovedgruppe" v="infrastruktur" />
		<tag k="ssr:stedsnr" v="662561" />
		<tag k="ssr:type" v="adressenavn" />
	</node>
	<node lat="59.14121363441786" lon="8.038547326239389" id="-56378">
		<tag k="name" v="Libjåvegen" />
		<tag k="ssr:date" v="2019-12-27" />
		<tag k="ssr:gruppe" v="veg" />
		<tag k="ssr:hovedgruppe" v="infrastruktur" />
		<tag k="ssr:stedsnr" v="662567" />
		<tag k="ssr:type" v="adressenavn" />
	</node>
	<node lat="59.24786210872276" lon="8.11182514367459" id="-56379">
		<tag k="name" v="Baklivegen" />
		<tag k="ssr:date" v="2019-12-27" />
		<tag k="ssr:gruppe" v="veg" />
		<tag k="ssr:hovedgruppe" v="infrastruktur" />
		<tag k="ssr:stedsnr" v="665997" />
		<tag k="ssr:type" v="adressenavn" />
	</node>
	<node lat="58.999314727092575" lon="8.289466897695386" id="-56498">
		<tag k="name" v="Kilandsvegen" />
		<tag k="ssr:date" v="2019-12-27" />
		<tag k="ssr:gruppe" v="veg" />
		<tag k="ssr:hovedgruppe" v="infrastruktur" />
		<tag k="ssr:stedsnr" v="722562" />
		<tag k="ssr:type" v="adressenavn" />
	</node>
	<node lat="59.24072499706282" lon="8.078758330845295" id="-56567">
		<tag k="name" v="Fantevegen" />
		<tag k="ssr:date" v="2019-12-27" />
		<tag k="ssr:gruppe" v="veg" />
		<tag k="ssr:hovedgruppe" v="infrastruktur" />
		<tag k="ssr:stedsnr" v="762085" />
		<tag k="ssr:type" v="vegstrekning" />
	</node>
	<node lat="59.187891667246674" lon="8.125508341284455" id="-56568">
		<tag k="name" v="Sløyfa" />
		<tag k="ssr:date" v="2019-12-27" />
		<tag k="ssr:gruppe" v="veg" />
		<tag k="ssr:hovedgruppe" v="infrastruktur" />
		<tag k="ssr:stedsnr" v="762214" />
		<tag k="ssr:type" v="vegstrekning" />
	</node>
	<node lat="59.186016665452094" lon="7.883044437314185" id="-56590">
		<tag k="name" v="Skrimdalsvegen" />
		<tag k="ssr:date" v="2019-12-27" />
		<tag k="ssr:gruppe" v="veg" />
		<tag k="ssr:hovedgruppe" v="infrastruktur" />
		<tag k="ssr:stedsnr" v="763860" />
		<tag k="ssr:type" v="vegstrekning" />
	</node>
	<node lat="59.136633329984065" lon="8.117255564155641" id="-56648">
		<tag k="name" v="Gamleveg" />
		<tag k="ssr:date" v="2019-12-27" />
		<tag k="ssr:gruppe" v="veg" />
		<tag k="ssr:hovedgruppe" v="infrastruktur" />
		<tag k="ssr:stedsnr" v="776688" />
		<tag k="ssr:type" v="vegstrekning" />
	</node>
	<node lat="59.00699299399173" lon="8.278283072522173" id="-56680">
		<tag k="name" v="Lomkilvegen" />
		<tag k="ssr:date" v="2019-12-27" />
		<tag k="ssr:gruppe" v="veg" />
		<tag k="ssr:hovedgruppe" v="infrastruktur" />
		<tag k="ssr:stedsnr" v="783534" />
		<tag k="ssr:type" v="adressenavn" />
	</node>
	<node lat="59.136807990477784" lon="8.120354053481456" id="-56683">
		<tag k="name" v="Momraksvegen" />
		<tag k="ssr:date" v="2019-12-27" />
		<tag k="ssr:gruppe" v="veg" />
		<tag k="ssr:hovedgruppe" v="infrastruktur" />
		<tag k="ssr:stedsnr" v="783576" />
		<tag k="ssr:type" v="adressenavn" />
	</node>
	<node lat="59.18650597064839" lon="8.101046655660971" id="-56805">
		<tag k="name" v="Tøddekroken" />
		<tag k="ssr:date" v="2019-12-27" />
		<tag k="ssr:gruppe" v="veg" />
		<tag k="ssr:hovedgruppe" v="infrastruktur" />
		<tag k="ssr:stedsnr" v="830123" />
		<tag k="ssr:type" v="adressenavn" />
	</node>
	<node lat="59.05933333710531" lon="8.2751777812436" id="-56829">
		<tag k="name" v="Jons veg" />
		<tag k="ssr:date" v="2019-12-27" />
		<tag k="ssr:gruppe" v="veg" />
		<tag k="ssr:hovedgruppe" v="infrastruktur" />
		<tag k="ssr:stedsnr" v="836936" />
		<tag k="ssr:type" v="vegstrekning" />
	</node>
	<node lat="59.20150000261155" lon="8.197544436035757" id="-56839">
		<tag k="name" v="Stavskleiv" />
		<tag k="ssr:date" v="2019-12-27" />
		<tag k="ssr:gruppe" v="veg" />
		<tag k="ssr:hovedgruppe" v="infrastruktur" />
		<tag k="ssr:stedsnr" v="837371" />
		<tag k="ssr:type" v="vegstrekning" />
	</node>
	<node lat="59.074081012728165" lon="7.937408675654131" id="-56892">
		<tag k="name" v="Griddalen" />
		<tag k="ssr:date" v="2019-12-27" />
		<tag k="ssr:gruppe" v="veg" />
		<tag k="ssr:hovedgruppe" v="infrastruktur" />
		<tag k="ssr:stedsnr" v="844500" />
		<tag k="ssr:type" v="adressenavn" />
	</node>
	<node lat="59.00537203042874" lon="8.24904531407309" id="-56894">
		<tag k="name" v="Bindalsvegen" />
		<tag k="ssr:date" v="2019-12-27" />
		<tag k="ssr:gruppe" v="veg" />
		<tag k="ssr:hovedgruppe" v="infrastruktur" />
		<tag k="ssr:stedsnr" v="844542" />
		<tag k="ssr:type" v="adressenavn" />
	</node>
	<node lat="59.1677618400516" lon="8.083904244050917" id="-56895">
		<tag k="name" v="Gamleveg" />
		<tag k="ssr:date" v="2019-12-27" />
		<tag k="ssr:gruppe" v="veg" />
		<tag k="ssr:hovedgruppe" v="infrastruktur" />
		<tag k="ssr:stedsnr" v="847696" />
		<tag k="ssr:type" v="adressenavn" />
	</node>
	<node lat="59.23311200368808" lon="8.08765333146438" id="-56896">
		<tag k="name" v="Taraldlivegen" />
		<tag k="ssr:date" v="2019-12-27" />
		<tag k="ssr:gruppe" v="veg" />
		<tag k="ssr:hovedgruppe" v="infrastruktur" />
		<tag k="ssr:stedsnr" v="848820" />
		<tag k="ssr:type" v="adressenavn" />
	</node>
	<node lat="59.04990557827714" lon="7.980480062666602" id="-56897">
		<tag k="name" v="Fisketjønn" />
		<tag k="ssr:date" v="2019-12-27" />
		<tag k="ssr:gruppe" v="veg" />
		<tag k="ssr:hovedgruppe" v="infrastruktur" />
		<tag k="ssr:stedsnr" v="848590" />
		<tag k="ssr:type" v="adressenavn" />
	</node>
	<node lat="59.284365306982075" lon="8.089761330248832" id="-56898">
		<tag k="name" v="Gjerlivegen" />
		<tag k="ssr:date" v="2019-12-27" />
		<tag k="ssr:gruppe" v="veg" />
		<tag k="ssr:hovedgruppe" v="infrastruktur" />
		<tag k="ssr:stedsnr" v="848866" />
		<tag k="ssr:type" v="adressenavn" />
	</node>
	<node lat="59.18292341922787" lon="8.085088897474035" id="-57002">
		<tag k="name" v="Fyresdal kommune" />
		<tag k="ssr:date" v="2019-12-27" />
		<tag k="ssr:gruppe" v="administrativeIndelinger" />
		<tag k="ssr:hovedgruppe" v="offentligAdministrasjon" />
		<tag k="ssr:stedsnr" v="935529" />
		<tag k="ssr:type" v="kommune" />
	</node>
	<node lat="59.13401389098642" lon="8.139930549991846" id="-57072">
		<tag k="name" v="Skitmyrbakken" />
		<tag k="ssr:date" v="2019-12-27" />
		<tag k="ssr:gruppe" v="veg" />
		<tag k="ssr:hovedgruppe" v="infrastruktur" />
		<tag k="ssr:stedsnr" v="958650" />
		<tag k="ssr:type" v="vegstrekning" />
	</node>
</osm>
