<?xml version="1.0" encoding="UTF-8"?>
<osm generator="osmapis" version="0.6">
	<node id="-26623" lat="59.3642194451" lon="10.9991083397">
		<tag k="alt_name" v="Skauge vestre" />
		<tag k="name" v="Vestre Skauge" />
		<tag k="place" v="farm" />
		<tag k="ssr:stedsnr" v="962451" />
	</node>
	<node id="-26621" lat="59.3416194476" lon="10.9879499975">
		<tag k="name" v="Skjæret" />
		<tag k="place" v="isolated_dwelling" />
		<tag k="ssr:stedsnr" v="962359" />
	</node>
	<node id="-26615" lat="59.2605305568" lon="11.2519972143">
		<tag k="alt_name" v="Tranemyr nordre" />
		<tag k="name" v="Nordre Tranemyr" />
		<tag k="place" v="farm" />
		<tag k="ssr:stedsnr" v="952307" />
	</node>
	<node id="-26614" lat="59.2006645016" lon="11.2135726877">
		<tag k="alt_name" v="Voll vestre" />
		<tag k="name" v="Vestre Voll" />
		<tag k="place" v="farm" />
		<tag k="ssr:stedsnr" v="952303" />
	</node>
	<node id="-26611" lat="59.2566527769" lon="11.1747694379">
		<tag k="amenity" v="nursing_home" />
		<tag k="name" v="Haugvoll aldershjem" />
		<tag k="ssr:stedsnr" v="872934" />
	</node>
	<node id="-26609" lat="59.3831222231" lon="11.1061722185">
		<tag k="name" v="Haug" />
		<tag k="place" v="farm" />
		<tag k="ssr:stedsnr" v="872718" />
	</node>
	<node id="-26608" lat="59.3924361139" lon="11.1634111026">
		<tag k="name" v="Hovdenbråten" />
		<tag k="place" v="farm" />
		<tag k="ssr:stedsnr" v="872711" />
	</node>
	<node id="-26603" lat="59.1991749982" lon="11.1491500071">
		<tag k="name" v="Kårehornnes" />
		<tag k="place" v="farm" />
		<tag k="ssr:stedsnr" v="872494" />
	</node>
	<node id="-26599" lat="59.353022218" lon="11.1712861194">
		<tag k="name" v="Hauger" />
		<tag k="place" v="farm" />
		<tag k="ssr:stedsnr" v="872345" />
	</node>
	<node id="-26597" lat="59.3694333318" lon="11.1616694454">
		<tag k="name" v="Ødegård" />
		<tag k="place" v="farm" />
		<tag k="ssr:stedsnr" v="872314" />
	</node>
	<node id="-26595" lat="59.3417138898" lon="11.164625005">
		<tag k="name" v="Strømnes" />
		<tag k="place" v="farm" />
		<tag k="ssr:stedsnr" v="872282" />
	</node>
	<node id="-26594" lat="59.2270472186" lon="11.1969722194">
		<tag k="alt_name" v="Hesthagen søndre" />
		<tag k="name" v="Søndre Hesthagen" />
		<tag k="place" v="farm" />
		<tag k="ssr:stedsnr" v="872151" />
	</node>
	<node id="-26592" lat="59.2226750032" lon="11.2572388926">
		<tag k="name" v="Leieren" />
		<tag k="place" v="locality" />
		<tag k="ssr:stedsnr" v="872134" />
	</node>
	<node id="-26591" lat="59.2100500029" lon="11.2631777863">
		<tag k="name" v="Willskov" />
		<tag k="place" v="farm" />
		<tag k="ssr:stedsnr" v="872132" />
	</node>
	<node id="-26586" lat="59.2810638862" lon="11.0917083289">
		<tag k="name" v="Vesteng" />
		<tag k="place" v="suburb" />
		<tag k="ssr:stedsnr" v="872030" />
	</node>
	<node id="-26584" lat="59.2090527815" lon="11.095674999">
		<tag k="alt_name" v="Brandstorp vestre" />
		<tag k="name" v="Vestre Brandstorp" />
		<tag k="place" v="farm" />
		<tag k="ssr:stedsnr" v="872022" />
	</node>
	<node id="-26583" lat="59.2151055576" lon="11.1077861073">
		<tag k="alt_name" v="Storedal søndre" />
		<tag k="name" v="Søndre Storedal" />
		<tag k="place" v="farm" />
		<tag k="ssr:stedsnr" v="872021" />
	</node>
	<node id="-26582" lat="59.215697222" lon="11.1031861068">
		<tag k="name" v="Skovlund" />
		<tag k="place" v="isolated_dwelling" />
		<tag k="ssr:stedsnr" v="872019" />
	</node>
	<node id="-26580" lat="59.2909972186" lon="11.1525416629">
		<tag k="name" v="Helgeby" />
		<tag k="place" v="farm" />
		<tag k="ssr:stedsnr" v="872096" />
	</node>
	<node id="-26578" lat="59.1289027793" lon="11.1827249917">
		<tag k="name" v="Fagerli" />
		<tag k="place" v="isolated_dwelling" />
		<tag k="ssr:stedsnr" v="872086" />
	</node>
	<node id="-26576" lat="59.3550000019" lon="11.1385250024">
		<tag k="alt_name" v="Dælinholtet" />
		<tag k="name" v="Holtet" />
		<tag k="place" v="farm" />
		<tag k="ssr:stedsnr" v="853747" />
	</node>
	<node id="-26575" lat="59.3023750017" lon="11.1684250019">
		<tag k="name" v="Kingsrød" />
		<tag k="place" v="farm" />
		<tag k="ssr:stedsnr" v="852984" />
	</node>
	<node id="-26574" lat="59.1812972205" lon="11.2302249946">
		<tag k="alt_name" v="Bessberg, østre;Bisseberg østre" />
		<tag k="name" v="Østre Bessberg" />
		<tag k="place" v="farm" />
		<tag k="ssr:stedsnr" v="852949" />
	</node>
	<node id="-26573" lat="59.1669999967" lon="11.1604749919">
		<tag k="name" v="Skar" />
		<tag k="place" v="farm" />
		<tag k="ssr:stedsnr" v="852944" />
	</node>
	<node id="-26572" lat="59.1728611085" lon="11.1784583292">
		<tag k="name" v="Kringlemyr" />
		<tag k="place" v="farm" />
		<tag k="ssr:stedsnr" v="852931" />
	</node>
	<node id="-26570" lat="59.3680333358" lon="11.1776194479">
		<tag k="alt_name" v="Moene, søndre;Moene" />
		<tag k="name" v="Søndre Moene" />
		<tag k="place" v="farm" />
		<tag k="ssr:stedsnr" v="852844" />
	</node>
	<node id="-26569" lat="59.3666250009" lon="11.2271555579">
		<tag k="name" v="Bø" />
		<tag k="place" v="farm" />
		<tag k="ssr:stedsnr" v="852843" />
	</node>
	<node id="-26568" lat="59.3732249974" lon="11.1013749996">
		<tag k="name" v="Ramberg" />
		<tag k="place" v="farm" />
		<tag k="ssr:stedsnr" v="852839" />
	</node>
	<node id="-26567" lat="59.3714499975" lon="11.2334999952">
		<tag k="alt_name" v="Bø lille" />
		<tag k="name" v="Bø" />
		<tag k="place" v="farm" />
		<tag k="ssr:stedsnr" v="852830" />
	</node>
	<node id="-26564" lat="59.3626638854" lon="11.0769083311">
		<tag k="fixme" v="consider place=hamlet" />
		<tag k="name" v="Stang" />
		<tag k="place" v="farm" />
		<tag k="ssr:stedsnr" v="852276" />
	</node>
	<node id="-26563" lat="59.3258138918" lon="11.0255027698">
		<tag k="name" v="Toppen" />
		<tag k="place" v="farm" />
		<tag k="ssr:stedsnr" v="852450" />
	</node>
	<node id="-26562" lat="59.3288583348" lon="11.0837750027">
		<tag k="name" v="Tømmerholt" />
		<tag k="place" v="farm" />
		<tag k="ssr:stedsnr" v="852448" />
	</node>
	<node id="-26561" lat="59.3276333358" lon="11.0890999945">
		<tag k="name" v="Sørli" />
		<tag k="place" v="farm" />
		<tag k="ssr:stedsnr" v="852447" />
	</node>
	<node id="-26560" lat="59.3268888915" lon="11.0239499992">
		<tag k="name" v="Lia" />
		<tag k="place" v="farm" />
		<tag k="ssr:stedsnr" v="852434" />
	</node>
	<node id="-26558" lat="59.2316277784" lon="11.2085500078">
		<tag k="name" v="Høymyr" />
		<tag k="place" v="farm" />
		<tag k="ssr:stedsnr" v="851939" />
	</node>
	<node id="-26557" lat="59.236200507" lon="11.1999838338">
		<tag k="fixme" v="consider place=hamlet" />
		<tag k="name" v="Vik" />
		<tag k="place" v="farm" />
		<tag k="ssr:stedsnr" v="851938" />
	</node>
	<node id="-26555" lat="59.2034055573" lon="11.1434055633">
		<tag k="fixme" v="consider place=hamlet" />
		<tag k="name" v="Hornes" />
		<tag k="place" v="farm" />
		<tag k="ssr:stedsnr" v="851986" />
	</node>
	<node id="-26554" lat="59.1231250026" lon="11.2006749957">
		<tag k="alt_name" v="Grønnbukt" />
		<tag k="name" v="Grunnbukta" />
		<tag k="place" v="farm" />
		<tag k="ssr:stedsnr" v="851869" />
	</node>
	<node id="-26553" lat="59.2711305586" lon="11.1837749988">
		<tag k="name" v="Bjørnemyr" />
		<tag k="place" v="farm" />
		<tag k="ssr:stedsnr" v="847759" />
	</node>
	<node id="-26549" lat="59.362516667" lon="11.0371027824">
		<tag k="amenity" v="school" />
		<tag k="name" v="Agnalt skole" />
		<tag k="ssr:stedsnr" v="841438" />
	</node>
	<node id="-26546" lat="59.3349638925" lon="10.9784361097">
		<tag k="name" v="Isebro" />
		<tag k="place" v="farm" />
		<tag k="ssr:stedsnr" v="841342" />
	</node>
	<node id="-26541" lat="59.2204777795" lon="11.2303083361">
		<tag k="alt_name" v="Rønneld vestre" />
		<tag k="name" v="Vestre Rønneld" />
		<tag k="old_name" v="V Rönild" />
		<tag k="place" v="farm" />
		<tag k="ssr:stedsnr" v="831277" />
	</node>
	<node id="-26540" lat="59.3028888865" lon="11.0554222263">
		<tag k="name" v="Nordre Bjørnstad" />
		<tag k="place" v="farm" />
		<tag k="ssr:stedsnr" v="829133" />
	</node>
	<node id="-26539" lat="59.4097888888" lon="11.1220388974">
		<tag k="name" v="Børrehytta" />
		<tag k="place" v="farm" />
		<tag k="ssr:stedsnr" v="814157" />
	</node>
	<node id="-26537" lat="59.2656666647" lon="11.1704333407">
		<tag k="amenity" v="sports_centre" />
		<tag k="name" v="Skjeberghallen" />
		<tag k="ssr:stedsnr" v="811902" />
	</node>
	<node id="-26536" lat="59.2700083373" lon="11.16894166">
		<tag k="alt_name" v="Nygård søndre" />
		<tag k="name" v="Søndre Nygård" />
		<tag k="place" v="farm" />
		<tag k="ssr:stedsnr" v="811899" />
	</node>
	<node id="-26533" lat="59.3654972257" lon="11.0766583294">
		<tag k="name" v="Bergli" />
		<tag k="place" v="farm" />
		<tag k="ssr:stedsnr" v="811696" />
	</node>
	<node id="-26531" lat="59.3087583321" lon="11.130838889">
		<tag k="name" v="Maugestenbråten" />
		<tag k="place" v="farm" />
		<tag k="ssr:stedsnr" v="811446" />
	</node>
	<node id="-26530" lat="59.299627779" lon="11.2133027827">
		<tag k="name" v="Velta" />
		<tag k="place" v="locality" />
		<tag k="ssr:stedsnr" v="811440" />
	</node>
	<node id="-26529" lat="59.3042361106" lon="11.2160444371">
		<tag k="name" v="Grønli" />
		<tag k="place" v="farm" />
		<tag k="ssr:stedsnr" v="811435" />
	</node>
	<node id="-26528" lat="59.3028277798" lon="11.2159027734">
		<tag k="name" v="Sorgenfri" />
		<tag k="place" v="farm" />
		<tag k="ssr:stedsnr" v="811434" />
	</node>
	<node id="-26527" lat="59.322191668" lon="11.2017361039">
		<tag k="name" v="Vollheim" />
		<tag k="place" v="farm" />
		<tag k="ssr:stedsnr" v="811426" />
	</node>
	<node id="-26525" lat="59.1883805573" lon="11.1067249989">
		<tag k="name" v="Åserød" />
		<tag k="place" v="farm" />
		<tag k="ssr:stedsnr" v="811422" />
	</node>
	<node id="-26517" lat="59.3600666689" lon="11.1444388867">
		<tag k="name" v="Åsly" />
		<tag k="place" v="farm" />
		<tag k="ssr:stedsnr" v="811277" />
	</node>
	<node id="-26514" lat="59.3500277783" lon="11.1360666753">
		<tag k="name" v="Brekka" />
		<tag k="place" v="farm" />
		<tag k="ssr:stedsnr" v="811257" />
	</node>
	<node id="-26513" lat="59.3509388878" lon="11.1272166718">
		<tag k="name" v="Fjellheim" />
		<tag k="place" v="farm" />
		<tag k="ssr:stedsnr" v="811243" />
	</node>
	<node id="-26509" lat="59.2858833325" lon="11.1421194483">
		<tag k="leisure" v="park" />
		<tag k="name" v="Tjernparken" />
		<tag k="ssr:stedsnr" v="811104" />
	</node>
	<node id="-26508" lat="59.1725833309" lon="11.2331833379">
		<tag k="alt_name" v="Melløs nordre" />
		<tag k="name" v="Nordre Melløs" />
		<tag k="place" v="farm" />
		<tag k="ssr:stedsnr" v="811100" />
	</node>
	<node id="-26507" lat="59.2437472212" lon="11.1896583248">
		<tag k="name" v="Sandbakken" />
		<tag k="place" v="isolated_dwelling" />
		<tag k="ssr:stedsnr" v="811097" />
	</node>
	<node id="-26506" lat="59.129672226" lon="11.1801277697">
		<tag k="name" v="Mørkedal" />
		<tag k="place" v="isolated_dwelling" />
		<tag k="ssr:stedsnr" v="811093" />
	</node>
	<node id="-26504" lat="59.20420556" lon="11.2085388857">
		<tag k="alt_name" v="Løkke østre" />
		<tag k="name" v="Østre Løkke" />
		<tag k="place" v="farm" />
		<tag k="ssr:stedsnr" v="811067" />
	</node>
	<node id="-26503" lat="59.3049972228" lon="11.2239527802">
		<tag k="name" v="Gabrielhytta" />
		<tag k="place" v="farm" />
		<tag k="ssr:stedsnr" v="811063" />
	</node>
	<node id="-26502" lat="59.2995250035" lon="11.1678055517">
		<tag k="name" v="Kingsrød" />
		<tag k="place" v="farm" />
		<tag k="ssr:stedsnr" v="798777" />
	</node>
	<node id="-26501" lat="59.354375003" lon="11.0991472264">
		<tag k="alt_name" v="Høyden" />
		<tag k="name" v="Høgda" />
		<tag k="place" v="farm" />
		<tag k="ssr:stedsnr" v="792749" />
	</node>
	<node id="-26500" lat="59.277058336" lon="11.0834722285">
		<tag k="name" v="Alvum" />
		<tag k="place" v="hamlet" />
		<tag k="ssr:stedsnr" v="792370" />
	</node>
	<node id="-26499" lat="59.2892305597" lon="11.1701749943">
		<tag k="name" v="Nipa" />
		<tag k="place" v="farm" />
		<tag k="ssr:stedsnr" v="791981" />
	</node>
	<node id="-26498" lat="59.2944249967" lon="11.1955222285">
		<tag k="name" v="Holtet" />
		<tag k="place" v="farm" />
		<tag k="ssr:stedsnr" v="791976" />
	</node>
	<node id="-26496" lat="59.1594499968" lon="11.2019638811">
		<tag k="name" v="Utengen" />
		<tag k="place" v="farm" />
		<tag k="ssr:stedsnr" v="791942" />
	</node>
	<node id="-26495" lat="59.3131448256" lon="11.2227115434">
		<tag k="alt_name" v="Sikkeland" />
		<tag k="name" v="Sekkeland" />
		<tag k="place" v="hamlet" />
		<tag k="ssr:stedsnr" v="791939" />
	</node>
	<node id="-26494" lat="59.3149749985" lon="11.1822500058">
		<tag k="alt_name" v="Dypedal" />
		<tag k="name" v="Djupedal" />
		<tag k="place" v="farm" />
		<tag k="ssr:stedsnr" v="791933" />
	</node>
	<node id="-26492" lat="59.2903805573" lon="11.1819722236">
		<tag k="name" v="Strøm" />
		<tag k="place" v="farm" />
		<tag k="ssr:stedsnr" v="791893" />
	</node>
	<node id="-26491" lat="59.2722944486" lon="11.0963472247">
		<tag k="name" v="Sandesund" />
		<tag k="place" v="suburb" />
		<tag k="ssr:stedsnr" v="791888" />
	</node>
	<node id="-26490" lat="59.3585444442" lon="11.0121055502">
		<tag k="name" v="Trollerød" />
		<tag k="place" v="farm" />
		<tag k="ssr:stedsnr" v="791254" />
	</node>
	<node id="-26489" lat="59.2021576023" lon="11.2264215529">
		<tag k="fixme" v="consider place=hamlet" />
		<tag k="name" v="Voll" />
		<tag k="place" v="farm" />
		<tag k="ssr:stedsnr" v="791000" />
	</node>
	<node id="-26488" lat="59.2031851902" lon="11.1181446197">
		<tag k="fixme" v="consider place=hamlet" />
		<tag k="name" v="Vestberg" />
		<tag k="place" v="farm" />
		<tag k="ssr:stedsnr" v="790983" />
	</node>
	<node id="-26487" lat="59.2236500045" lon="11.1815999968">
		<tag k="name" v="Havn" />
		<tag k="place" v="farm" />
		<tag k="ssr:stedsnr" v="790920" />
	</node>
	<node id="-26486" lat="59.213124999" lon="11.2296000035">
		<tag k="name" v="Lilleby" />
		<tag k="place" v="farm" />
		<tag k="ssr:stedsnr" v="790910" />
	</node>
	<node id="-26485" lat="59.2147749976" lon="11.1820500027">
		<tag k="name" v="Heiberg" />
		<tag k="place" v="farm" />
		<tag k="ssr:stedsnr" v="790906" />
	</node>
	<node id="-26483" lat="59.1709861111" lon="11.145680558">
		<tag k="name" v="Bua" />
		<tag k="place" v="farm" />
		<tag k="ssr:stedsnr" v="782183" />
	</node>
	<node id="-26482" lat="59.2689388925" lon="11.0475166645">
		<tag k="amenity" v="school" />
		<tag k="name" v="Tindlund barneskole" />
		<tag k="ssr:stedsnr" v="780697" />
	</node>
	<node id="-26479" lat="59.3204694448" lon="10.9751833267">
		<tag k="name" v="Nygård" />
		<tag k="place" v="farm" />
		<tag k="ssr:stedsnr" v="780389" />
	</node>
	<node id="-26478" lat="59.3172000038" lon="11.0523861137">
		<tag k="name" v="Øvre Orebingen" />
		<tag k="place" v="locality" />
		<tag k="ssr:stedsnr" v="780376" />
	</node>
	<node id="-26477" lat="59.3350666671" lon="10.9667666597">
		<tag k="name" v="Enerhaugen" />
		<tag k="place" v="farm" />
		<tag k="ssr:stedsnr" v="780328" />
	</node>
	<node id="-26474" lat="59.2991166673" lon="11.0197527759">
		<tag k="name" v="Bentemyr" />
		<tag k="place" v="farm" />
		<tag k="ssr:stedsnr" v="780262" />
	</node>
	<node id="-26472" lat="59.2888472197" lon="11.0837222287">
		<tag k="building" v="civic" />
		<tag k="name" v="Østfold sivilforsvarsdistrikt" />
		<tag k="ssr:stedsnr" v="770245" />
	</node>
	<node id="-26469" lat="59.2526583356" lon="11.2336305577">
		<tag k="alt_name" v="Tveter mellem" />
		<tag k="name" v="Mellom-Tveter" />
		<tag k="place" v="farm" />
		<tag k="ssr:stedsnr" v="750900" />
	</node>
	<node id="-26467" lat="59.2768138893" lon="11.1766666704">
		<tag k="alt_name" v="Nygård vestre" />
		<tag k="name" v="Vestre Nygård" />
		<tag k="place" v="farm" />
		<tag k="ssr:stedsnr" v="750888" />
	</node>
	<node id="-26463" lat="59.3826166654" lon="11.2180722209">
		<tag k="name" v="Kokkumbråten" />
		<tag k="place" v="farm" />
		<tag k="ssr:stedsnr" v="750715" />
	</node>
	<node id="-26461" lat="59.3838083332" lon="11.2479861188">
		<tag k="name" v="Rognerudengen" />
		<tag k="place" v="farm" />
		<tag k="ssr:stedsnr" v="750710" />
	</node>
	<node id="-26456" lat="59.3998194434" lon="11.1397111053">
		<tag k="alt_name" v="Minge øvre" />
		<tag k="name" v="Øvre Minge" />
		<tag k="place" v="farm" />
		<tag k="ssr:stedsnr" v="750668" />
	</node>
	<node id="-26455" lat="59.3909055535" lon="11.1595083309">
		<tag k="name" v="Hovden Ødegård" />
		<tag k="place" v="farm" />
		<tag k="ssr:stedsnr" v="750667" />
	</node>
	<node id="-26451" lat="59.3738027756" lon="11.1811777842">
		<tag k="name" v="Brennås" />
		<tag k="place" v="farm" />
		<tag k="ssr:stedsnr" v="750314" />
	</node>
	<node id="-26450" lat="59.3728777817" lon="11.1592194388">
		<tag k="name" v="Jelsnes-Ødegård" />
		<tag k="place" v="farm" />
		<tag k="ssr:stedsnr" v="750283" />
	</node>
	<node id="-26447" lat="59.3583055526" lon="11.1643277799">
		<tag k="name" v="Haugneset" />
		<tag k="place" v="farm" />
		<tag k="ssr:stedsnr" v="750266" />
	</node>
	<node id="-26446" lat="59.36806944" lon="11.0925694487">
		<tag k="alt_name" v="Hassellia søndre" />
		<tag k="name" v="Søndre Hassellia" />
		<tag k="place" v="farm" />
		<tag k="ssr:stedsnr" v="750263" />
	</node>
	<node id="-26445" lat="59.1714194446" lon="11.1483444379">
		<tag k="name" v="Moen" />
		<tag k="place" v="isolated_dwelling" />
		<tag k="ssr:stedsnr" v="750257" />
	</node>
	<node id="-26443" lat="59.2143337417" lon="11.2659399542">
		<tag k="name" v="Mosen" />
		<tag k="place" v="locality" />
		<tag k="ssr:stedsnr" v="750098" />
	</node>
	<node id="-26441" lat="59.2486055544" lon="11.1526222232">
		<tag k="name" v="Klavestadåsen" />
		<tag k="place" v="farm" />
		<tag k="ssr:stedsnr" v="750470" />
	</node>
	<node id="-26439" lat="59.2345777773" lon="11.1558444465">
		<tag k="alt_name" v="Hauge mellem" />
		<tag k="name" v="Mellom-Hauge" />
		<tag k="place" v="farm" />
		<tag k="ssr:stedsnr" v="750467" />
	</node>
	<node id="-26438" lat="59.1715277799" lon="11.1555222289">
		<tag k="name" v="Lia" />
		<tag k="place" v="farm" />
		<tag k="ssr:stedsnr" v="750448" />
	</node>
	<node id="-26436" lat="59.1982444472" lon="11.120972225">
		<tag k="name" v="Onstorp" />
		<tag k="place" v="locality" />
		<tag k="ssr:stedsnr" v="750439" />
	</node>
	<node id="-26433" lat="59.1923611114" lon="11.1656305617">
		<tag k="name" v="Delebekkbukta" />
		<tag k="place" v="isolated_dwelling" />
		<tag k="ssr:stedsnr" v="750435" />
	</node>
	<node id="-26432" lat="59.3184194485" lon="11.1867055627">
		<tag k="name" v="Hesthagen" />
		<tag k="place" v="farm" />
		<tag k="ssr:stedsnr" v="750430" />
	</node>
	<node id="-26430" lat="59.3018472267" lon="11.2114583309">
		<tag k="name" v="Elvebråten" />
		<tag k="place" v="farm" />
		<tag k="ssr:stedsnr" v="750428" />
	</node>
	<node id="-26429" lat="59.1996444404" lon="11.0927305499">
		<tag k="name" v="Holt" />
		<tag k="place" v="farm" />
		<tag k="ssr:stedsnr" v="750425" />
	</node>
	<node id="-26428" lat="59.1992166669" lon="11.101883334">
		<tag k="alt_name" v="Gangestad østre" />
		<tag k="name" v="Østre Gangestad" />
		<tag k="place" v="farm" />
		<tag k="ssr:stedsnr" v="750424" />
	</node>
	<node id="-26425" lat="59.2757138907" lon="11.1657833374">
		<tag k="name" v="Dyrendal" />
		<tag k="place" v="farm" />
		<tag k="ssr:stedsnr" v="750081" />
	</node>
	<node id="-26422" lat="59.1931111122" lon="11.1731749919">
		<tag k="name" v="Solheim" />
		<tag k="place" v="farm" />
		<tag k="ssr:stedsnr" v="750058" />
	</node>
	<node id="-26421" lat="59.1898027767" lon="11.1735972224">
		<tag k="name" v="Hauglund" />
		<tag k="place" v="farm" />
		<tag k="ssr:stedsnr" v="750055" />
	</node>
	<node id="-26419" lat="59.2941250002" lon="11.2681916645">
		<tag k="name" v="Liholt" />
		<tag k="place" v="farm" />
		<tag k="ssr:stedsnr" v="750033" />
	</node>
	<node id="-26418" lat="59.208105555" lon="11.1478083371">
		<tag k="name" v="Sundli" />
		<tag k="place" v="farm" />
		<tag k="ssr:stedsnr" v="750019" />
	</node>
	<node id="-26416" lat="59.2087888903" lon="11.0867805545">
		<tag k="name" v="Solbakken" />
		<tag k="place" v="farm" />
		<tag k="ssr:stedsnr" v="750017" />
	</node>
	<node id="-26415" lat="59.277247225" lon="11.0823083294">
		<tag k="alt_name" v="Alvim nordre" />
		<tag k="name" v="Nordre Alvim" />
		<tag k="place" v="farm" />
		<tag k="ssr:stedsnr" v="750010" />
	</node>
	<node id="-26410" lat="59.2811666651" lon="11.0741083349">
		<tag k="alt_name" v="Yven nordre" />
		<tag k="name" v="Nordre Yven" />
		<tag k="place" v="farm" />
		<tag k="ssr:stedsnr" v="646192" />
	</node>
	<node id="-26409" lat="59.2679555579" lon="11.104205549">
		<tag k="name" v="Grålen" />
		<tag k="place" v="quarter" />
		<tag k="ssr:stedsnr" v="646183" />
	</node>
	<node id="-26408" lat="59.3003833297" lon="11.2205027796">
		<tag k="fixme" v="consider place=suburb, village or hamlet" />
		<tag k="name" v="Ise" />
		<tag k="place" v="quarter" />
		<tag k="ssr:stedsnr" v="631400" />
	</node>
	<node id="-26407" lat="59.3811222186" lon="11.1694888846">
		<tag k="name" v="Thorbjørnshytta" />
		<tag k="place" v="isolated_dwelling" />
		<tag k="ssr:stedsnr" v="629731" />
	</node>
	<node id="-26404" lat="59.3912499992" lon="11.1220472275">
		<tag k="name" v="Klevbråtan" />
		<tag k="place" v="farm" />
		<tag k="ssr:stedsnr" v="629695" />
	</node>
	<node id="-26402" lat="59.3246931201" lon="11.2023943604">
		<tag k="name" v="Brusevoll" />
		<tag k="place" v="farm" />
		<tag k="ssr:stedsnr" v="629499" />
	</node>
	<node id="-26401" lat="59.2934027772" lon="11.0772000004">
		<tag k="name" v="Store Tune" />
		<tag k="place" v="farm" />
		<tag k="ssr:stedsnr" v="629491" />
	</node>
	<node id="-26400" lat="59.2978750018" lon="11.1555750076">
		<tag k="name" v="Trindborg" />
		<tag k="place" v="farm" />
		<tag k="ssr:stedsnr" v="629485" />
	</node>
	<node id="-26399" lat="59.1661916645" lon="11.1449972172">
		<tag k="amenity" v="school" />
		<tag k="name" v="Berg skole" />
		<tag k="ssr:stedsnr" v="629484" />
	</node>
	<node id="-26398" lat="59.3450000003" lon="11.177969448">
		<tag k="name" v="Lunborg" />
		<tag k="place" v="farm" />
		<tag k="ssr:stedsnr" v="629317" />
	</node>
	<node id="-26395" lat="59.1975472252" lon="11.0772083341">
		<tag k="alt_name" v="Talberg nedre" />
		<tag k="name" v="Nedre Talberg" />
		<tag k="place" v="farm" />
		<tag k="ssr:stedsnr" v="629449" />
	</node>
	<node id="-26393" lat="59.3171416628" lon="11.1555750005">
		<tag k="name" v="Hasle" />
		<tag k="place" v="farm" />
		<tag k="ssr:stedsnr" v="629387" />
	</node>
	<node id="-26391" lat="59.3547916698" lon="11.0627833311">
		<tag k="name" v="Elverhøy" />
		<tag k="place" v="farm" />
		<tag k="ssr:stedsnr" v="629240" />
	</node>
	<node id="-26390" lat="59.1458527761" lon="11.2338527851">
		<tag k="alt_name" v="Slang søndre" />
		<tag k="name" v="Søndre Slang" />
		<tag k="place" v="farm" />
		<tag k="ssr:stedsnr" v="629049" />
	</node>
	<node id="-26389" lat="59.2691472187" lon="11.3301555565">
		<tag k="name" v="Børthytta" />
		<tag k="place" v="isolated_dwelling" />
		<tag k="ssr:stedsnr" v="629135" />
	</node>
	<node id="-26388" lat="59.2096805585" lon="11.1652361152">
		<tag k="alt_name" v="Solberg søndre" />
		<tag k="name" v="Søndre Solberg" />
		<tag k="place" v="farm" />
		<tag k="ssr:stedsnr" v="629035" />
	</node>
	<node id="-26386" lat="59.301150004" lon="11.2827305629">
		<tag k="alt_name" v="Røstad søndre" />
		<tag k="name" v="Søndre Røstad" />
		<tag k="place" v="farm" />
		<tag k="ssr:stedsnr" v="629027" />
	</node>
	<node id="-26379" lat="59.1974027748" lon="11.2412333253">
		<tag k="name" v="Lia" />
		<tag k="place" v="farm" />
		<tag k="ssr:stedsnr" v="628095" />
	</node>
	<node id="-26376" lat="59.3295777814" lon="11.163005563">
		<tag k="alt_name" v="Kulltorp" />
		<tag k="name" v="Kultorp" />
		<tag k="place" v="farm" />
		<tag k="ssr:stedsnr" v="610969" />
	</node>
	<node id="-26375" lat="59.338550003" lon="11.1486472223">
		<tag k="name" v="Strømnes" />
		<tag k="place" v="farm" />
		<tag k="ssr:stedsnr" v="610808" />
	</node>
	<node id="-26374" lat="59.1609250022" lon="11.2343999937">
		<tag k="alt_name" v="Dale" />
		<tag k="name" v="Døle" />
		<tag k="place" v="farm" />
		<tag k="ssr:stedsnr" v="609950" />
	</node>
	<node id="-26372" lat="59.1655388848" lon="11.1535694508">
		<tag k="name" v="Ørseng" />
		<tag k="place" v="farm" />
		<tag k="ssr:stedsnr" v="609944" />
	</node>
	<node id="-26371" lat="59.2612701537" lon="11.154629959">
		<tag k="name" v="Borgen" />
		<tag k="place" v="hamlet" />
		<tag k="ssr:stedsnr" v="609936" />
	</node>
	<node id="-26369" lat="59.2506000044" lon="11.1454999918">
		<tag k="name" v="Navestad" />
		<tag k="place" v="farm" />
		<tag k="ssr:stedsnr" v="609903" />
	</node>
	<node id="-26367" lat="59.3606749982" lon="11.2437277791">
		<tag k="name" v="Brenne" />
		<tag k="place" v="farm" />
		<tag k="ssr:stedsnr" v="609736" />
	</node>
	<node id="-26366" lat="59.1389361138" lon="11.1356861153">
		<tag k="alt_name" v="Kallsøy" />
		<tag k="name" v="Karlsøya" />
		<tag k="place" v="farm" />
		<tag k="ssr:stedsnr" v="609724" />
	</node>
	<node id="-26365" lat="59.3555500037" lon="11.1655972187">
		<tag k="name" v="Tangen" />
		<tag k="place" v="farm" />
		<tag k="ssr:stedsnr" v="609722" />
	</node>
	<node id="-26364" lat="59.3503805591" lon="11.1270972301">
		<tag k="name" v="Dælin" />
		<tag k="place" v="farm" />
		<tag k="ssr:stedsnr" v="609720" />
	</node>
	<node id="-26362" lat="59.3936277815" lon="11.184575009">
		<tag k="name" v="Furuholmen" />
		<tag k="place" v="farm" />
		<tag k="ssr:stedsnr" v="609821" />
	</node>
	<node id="-26356" lat="59.2340472223" lon="11.1451361093">
		<tag k="alt_name" v="Jarle" />
		<tag k="name" v="Jale" />
		<tag k="place" v="farm" />
		<tag k="ssr:stedsnr" v="608939" />
	</node>
	<node id="-26355" lat="59.2194043395" lon="11.1014402429">
		<tag k="alt_name" v="Sørumberget" />
		<tag k="name" v="Sørumsberget" />
		<tag k="place" v="farm" />
		<tag k="ssr:stedsnr" v="608933" />
	</node>
	<node id="-26354" lat="59.2227999995" lon="11.1434499969">
		<tag k="name" v="Ringstad" />
		<tag k="place" v="farm" />
		<tag k="ssr:stedsnr" v="608922" />
	</node>
	<node id="-26353" lat="59.2824250026" lon="11.1745749937">
		<tag k="alt_name" v="Jellestad" />
		<tag k="name" v="Gjellestad" />
		<tag k="place" v="farm" />
		<tag k="ssr:stedsnr" v="608916" />
	</node>
	<node id="-26352" lat="59.2762521799" lon="11.1717261237">
		<tag k="name" v="Åserød" />
		<tag k="place" v="locality" />
		<tag k="ssr:stedsnr" v="608915" />
	</node>
	<node id="-26351" lat="59.2849808387" lon="11.1783905015">
		<tag k="alt_name" v="Jellestadløkka;Gjellestadløkken;Jellestadløkken" />
		<tag k="fixme" v="multiple name tags, choose one and add the other to alt_name" />
		<tag k="name" v="Løkka;Gjellestadløkka" />
		<tag k="place" v="farm" />
		<tag k="ssr:stedsnr" v="608913" />
	</node>
	<node id="-26350" lat="59.2092250029" lon="11.1539750075">
		<tag k="name" v="Rønning" />
		<tag k="place" v="farm" />
		<tag k="ssr:stedsnr" v="608898" />
	</node>
	<node id="-26349" lat="59.2104750007" lon="11.1212500083">
		<tag k="alt_name" v="Nedre Skinne" />
		<tag k="name" v="Skinne" />
		<tag k="place" v="farm" />
		<tag k="ssr:stedsnr" v="608896" />
	</node>
	<node id="-26348" lat="59.337199996" lon="10.9866694494">
		<tag k="name" v="Holtet" />
		<tag k="place" v="farm" />
		<tag k="ssr:stedsnr" v="608480" />
	</node>
	<node id="-26346" lat="59.2868000014" lon="11.0393166591">
		<tag k="alt_name" v="Opstad søndre" />
		<tag k="name" v="Søndre Opstad" />
		<tag k="place" v="farm" />
		<tag k="ssr:stedsnr" v="598733" />
	</node>
	<node id="-26340" lat="59.3134194486" lon="11.0172972307">
		<tag k="name" v="Tyssill" />
		<tag k="place" v="quarter" />
		<tag k="ssr:stedsnr" v="597646" />
	</node>
	<node id="-26332" lat="59.3245527793" lon="10.9955111107">
		<tag k="name" v="Furuli" />
		<tag k="place" v="farm" />
		<tag k="ssr:stedsnr" v="597336" />
	</node>
	<node id="-26322" lat="59.2552138916" lon="11.2330555634">
		<tag k="amenity" v="school" />
		<tag k="name" v="Tveter skole" />
		<tag k="ssr:stedsnr" v="568906" />
	</node>
	<node id="-26318" lat="59.3972666656" lon="11.2060444469">
		<tag k="name" v="Bjørnlena" />
		<tag k="place" v="farm" />
		<tag k="ssr:stedsnr" v="568738" />
	</node>
	<node id="-26315" lat="59.3914111075" lon="11.1323555596">
		<tag k="alt_name" v="Minge;Minge nedre" />
		<tag k="name" v="Nedre Minge" />
		<tag k="place" v="farm" />
		<tag k="ssr:stedsnr" v="568674" />
	</node>
	<node id="-26314" lat="59.3875750008" lon="11.1642416672">
		<tag k="name" v="Hovden" />
		<tag k="place" v="farm" />
		<tag k="ssr:stedsnr" v="568671" />
	</node>
	<node id="-26313" lat="59.2335333319" lon="11.1457694449">
		<tag k="alt_name" v="Jarle nedre" />
		<tag k="name" v="Nedre Jarle" />
		<tag k="place" v="farm" />
		<tag k="ssr:stedsnr" v="568467" />
	</node>
	<node id="-26311" lat="59.3300666697" lon="11.1875500028">
		<tag k="name" v="Hyttene" />
		<tag k="place" v="farm" />
		<tag k="ssr:stedsnr" v="568460" />
	</node>
	<node id="-26310" lat="59.1766888852" lon="11.1397750049">
		<tag k="name" v="Skogen" />
		<tag k="place" v="farm" />
		<tag k="ssr:stedsnr" v="568453" />
	</node>
	<node id="-26309" lat="59.2050083375" lon="11.1466138936">
		<tag k="alt_name" v="Hornnes mellem" />
		<tag k="name" v="Mellom-Hornnes" />
		<tag k="place" v="farm" />
		<tag k="ssr:stedsnr" v="568443" />
	</node>
	<node id="-26308" lat="59.1994222263" lon="11.1354222249">
		<tag k="name" v="Kil" />
		<tag k="place" v="farm" />
		<tag k="ssr:stedsnr" v="568442" />
	</node>
	<node id="-26307" lat="59.203055555" lon="11.1645499924">
		<tag k="name" v="Moen" />
		<tag k="place" v="farm" />
		<tag k="ssr:stedsnr" v="568440" />
	</node>
	<node id="-26306" lat="59.1983472214" lon="11.0777833303">
		<tag k="alt_name" v="Talberg øvre" />
		<tag k="name" v="Øvre Talberg" />
		<tag k="place" v="farm" />
		<tag k="ssr:stedsnr" v="568430" />
	</node>
	<node id="-26305" lat="59.3084250035" lon="11.213833336">
		<tag k="name" v="Vestli" />
		<tag k="place" v="farm" />
		<tag k="ssr:stedsnr" v="568428" />
	</node>
	<node id="-26304" lat="59.2950249991" lon="11.2010194452">
		<tag k="name" v="Nordal" />
		<tag k="place" v="farm" />
		<tag k="ssr:stedsnr" v="568426" />
	</node>
	<node id="-26302" lat="59.1906250033" lon="11.1068500025">
		<tag k="name" v="Åsberg" />
		<tag k="place" v="farm" />
		<tag k="ssr:stedsnr" v="568422" />
	</node>
	<node id="-26299" lat="59.336150004" lon="11.0730749978">
		<tag k="name" v="Torskenes-Ødegården" />
		<tag k="place" v="farm" />
		<tag k="ssr:stedsnr" v="568412" />
	</node>
	<node id="-26295" lat="59.3019861126" lon="11.101066672">
		<tag k="name" v="Helgesplassen" />
		<tag k="place" v="isolated_dwelling" />
		<tag k="ssr:stedsnr" v="568400" />
	</node>
	<node id="-26294" lat="59.3007222237" lon="11.0602222156">
		<tag k="name" v="Søndre Bjørnstad" />
		<tag k="place" v="farm" />
		<tag k="ssr:stedsnr" v="568396" />
	</node>
	<node id="-26293" lat="59.3610333306" lon="11.2160527704">
		<tag k="alt_name" v="Rogndalen søndre" />
		<tag k="name" v="Søndre Rogndalen" />
		<tag k="place" v="farm" />
		<tag k="ssr:stedsnr" v="568351" />
	</node>
	<node id="-26291" lat="59.3367361079" lon="11.2032833308">
		<tag k="name" v="Belsby" />
		<tag k="place" v="farm" />
		<tag k="ssr:stedsnr" v="568319" />
	</node>
	<node id="-26290" lat="59.373338892" lon="11.1650222218">
		<tag k="name" v="Lensebråten" />
		<tag k="place" v="farm" />
		<tag k="ssr:stedsnr" v="568308" />
	</node>
	<node id="-26288" lat="59.3643527741" lon="11.0758444468">
		<tag k="name" v="Solborg" />
		<tag k="place" v="farm" />
		<tag k="ssr:stedsnr" v="568299" />
	</node>
	<node id="-26286" lat="59.3631583337" lon="11.0757305625">
		<tag k="alt_name" v="Stang nedre" />
		<tag k="name" v="Nedre Stang" />
		<tag k="place" v="farm" />
		<tag k="ssr:stedsnr" v="568284" />
	</node>
	<node id="-26283" lat="59.3577277804" lon="11.0650611143">
		<tag k="name" v="Trøskebingene" />
		<tag k="place" v="farm" />
		<tag k="ssr:stedsnr" v="568256" />
	</node>
	<node id="-26279" lat="59.2176222211" lon="11.2547861164">
		<tag k="name" v="Dalen" />
		<tag k="place" v="isolated_dwelling" />
		<tag k="ssr:stedsnr" v="568135" />
	</node>
	<node id="-26276" lat="59.1769777816" lon="11.2123611109">
		<tag k="alt_name" v="Bø vestre" />
		<tag k="name" v="Vestre Bø" />
		<tag k="place" v="farm" />
		<tag k="ssr:stedsnr" v="568109" />
	</node>
	<node id="-26275" lat="59.1942638892" lon="11.2374055476">
		<tag k="name" v="Blikket" />
		<tag k="place" v="isolated_dwelling" />
		<tag k="ssr:stedsnr" v="568102" />
	</node>
	<node id="-26274" lat="59.2442305593" lon="11.1943555583">
		<tag k="name" v="Kamperhaug" />
		<tag k="place" v="farm" />
		<tag k="ssr:stedsnr" v="568098" />
	</node>
	<node id="-26272" lat="59.2486999963" lon="11.1800333399">
		<tag k="amenity" v="school" />
		<tag k="name" v="Sandbakken barne- og ungdomsskole" />
		<tag k="ssr:stedsnr" v="568094" />
	</node>
	<node id="-26271" lat="59.2371920145" lon="11.200163251">
		<tag k="alt_name" v="Vik østre" />
		<tag k="name" v="Østre Vik" />
		<tag k="place" v="farm" />
		<tag k="ssr:stedsnr" v="568090" />
	</node>
	<node id="-26269" lat="59.1712250042" lon="11.2335611034">
		<tag k="alt_name" v="Melløs søndre" />
		<tag k="name" v="Søndre Melløs" />
		<tag k="place" v="farm" />
		<tag k="ssr:stedsnr" v="568084" />
	</node>
	<node id="-26264" lat="59.1993861101" lon="11.1809416729">
		<tag k="name" v="Guslundlund" />
		<tag k="place" v="isolated_dwelling" />
		<tag k="ssr:stedsnr" v="568065" />
	</node>
	<node id="-26263" lat="59.1358916665" lon="11.2275388907">
		<tag k="name" v="Bastholmen" />
		<tag k="place" v="locality" />
		<tag k="ssr:stedsnr" v="568059" />
	</node>
	<node id="-26262" lat="59.193197219" lon="11.1755611064">
		<tag k="name" v="Kvasten" />
		<tag k="place" v="farm" />
		<tag k="ssr:stedsnr" v="568058" />
	</node>
	<node id="-26258" lat="59.3048916707" lon="11.2824194386">
		<tag k="alt_name" v="Røstad nordre" />
		<tag k="name" v="Nordre Røstad" />
		<tag k="place" v="farm" />
		<tag k="ssr:stedsnr" v="568017" />
	</node>
	<node id="-26257" lat="59.2808416708" lon="11.0882083304">
		<tag k="amenity" v="sports_centre" />
		<tag k="name" v="Sparta amfi" />
		<tag k="ssr:stedsnr" v="568010" />
	</node>
	<node id="-26256" lat="59.3210501651" lon="11.1910267246">
		<tag k="name" v="Dalen" />
		<tag k="place" v="farm" />
		<tag k="ssr:stedsnr" v="549961" />
	</node>
	<node id="-26255" lat="59.3716499991" lon="11.1799277697">
		<tag k="alt_name" v="Moene, nordre;Moene nordre" />
		<tag k="name" v="Nordre Moene" />
		<tag k="place" v="farm" />
		<tag k="ssr:stedsnr" v="549847" />
	</node>
	<node id="-26254" lat="59.3422911195" lon="11.2745839055">
		<tag k="alt_name" v="Knatterudfjellet" />
		<tag k="fixme" v="consider place=hamlet" />
		<tag k="name" v="Fjellet" />
		<tag k="place" v="farm" />
		<tag k="ssr:stedsnr" v="549789" />
	</node>
	<node id="-26253" lat="59.3370500017" lon="11.2062277736">
		<tag k="name" v="Belsby" />
		<tag k="place" v="farm" />
		<tag k="ssr:stedsnr" v="549770" />
	</node>
	<node id="-26252" lat="59.3595749972" lon="11.1035777706">
		<tag k="name" v="Krumsdalen" />
		<tag k="place" v="farm" />
		<tag k="ssr:stedsnr" v="549756" />
	</node>
	<node id="-26251" lat="59.3531555589" lon="11.1605249952">
		<tag k="name" v="Lilleng" />
		<tag k="place" v="farm" />
		<tag k="ssr:stedsnr" v="549745" />
	</node>
	<node id="-26249" lat="59.3086249966" lon="11.1575722297">
		<tag k="name" v="Hasle" />
		<tag k="place" v="farm" />
		<tag k="ssr:stedsnr" v="548986" />
	</node>
	<node id="-26248" lat="59.2031750011" lon="11.1616249926">
		<tag k="alt_name" v="Kåreheim" />
		<tag k="name" v="Kårheim" />
		<tag k="place" v="farm" />
		<tag k="ssr:stedsnr" v="548983" />
	</node>
	<node id="-26247" lat="59.2957055552" lon="11.1557722212">
		<tag k="alt_name" v="Hytta" />
		<tag k="name" v="Helgeby" />
		<tag k="place" v="farm" />
		<tag k="ssr:stedsnr" v="548962" />
	</node>
	<node id="-26246" lat="59.2982749978" lon="11.1871527857">
		<tag k="name" v="Sandbekk" />
		<tag k="place" v="farm" />
		<tag k="ssr:stedsnr" v="548960" />
	</node>
	<node id="-26245" lat="59.3187111151" lon="11.1537333421">
		<tag k="alt_name" v="Hasleødegård" />
		<tag k="name" v="Hasleødegarden" />
		<tag k="place" v="farm" />
		<tag k="ssr:stedsnr" v="548931" />
	</node>
	<node id="-26244" lat="59.2661750011" lon="11.1576666591">
		<tag k="fixme" v="consider place=suburb, village or hamlet" />
		<tag k="name" v="Borgen" />
		<tag k="place" v="quarter" />
		<tag k="ssr:stedsnr" v="548925" />
	</node>
	<node id="-26243" lat="59.2582805289" lon="11.2256899974">
		<tag k="alt_name" v="Tveter vestre;Svenskebråten" />
		<tag k="name" v="Vestre Tveter" />
		<tag k="place" v="farm" />
		<tag k="ssr:stedsnr" v="548921" />
	</node>
	<node id="-26242" lat="59.2623999957" lon="11.2970472145">
		<tag k="alt_name" v="Mosemyr" />
		<tag k="name" v="Måsamyr" />
		<tag k="place" v="farm" />
		<tag k="ssr:stedsnr" v="548920" />
	</node>
	<node id="-26241" lat="59.2603999995" lon="11.3398222165">
		<tag k="name" v="Saghytta" />
		<tag k="place" v="farm" />
		<tag k="ssr:stedsnr" v="548900" />
	</node>
	<node id="-26240" lat="59.2521250028" lon="11.1920527696">
		<tag k="name" v="Bodal" />
		<tag k="place" v="farm" />
		<tag k="ssr:stedsnr" v="548890" />
	</node>
	<node id="-26239" lat="59.2674250013" lon="11.3106722297">
		<tag k="name" v="Bastemarka" />
		<tag k="place" v="farm" />
		<tag k="ssr:stedsnr" v="548872" />
	</node>
	<node id="-26237" lat="59.1523538976" lon="11.2080487447">
		<tag k="alt_name" v="Moa" />
		<tag k="name" v="Moen" />
		<tag k="place" v="farm" />
		<tag k="ssr:stedsnr" v="548795" />
	</node>
	<node id="-26235" lat="59.3282166692" lon="10.9741000051">
		<tag k="name" v="Berger" />
		<tag k="place" v="farm" />
		<tag k="ssr:stedsnr" v="548452" />
	</node>
	<node id="-26234" lat="59.3220750001" lon="10.9963805594">
		<tag k="name" v="Dalene" />
		<tag k="place" v="farm" />
		<tag k="ssr:stedsnr" v="548440" />
	</node>
	<node id="-26233" lat="59.3013534129" lon="11.0712155725">
		<tag k="alt_name" v="Fena;Bjørnstad-Ødegården" />
		<tag k="name" v="Fjena" />
		<tag k="place" v="farm" />
		<tag k="ssr:stedsnr" v="548412" />
	</node>
	<node id="-26230" lat="59.4048583297" lon="11.2014861099">
		<tag k="name" v="Dalen" />
		<tag k="place" v="farm" />
		<tag k="ssr:stedsnr" v="548142" />
	</node>
	<node id="-26229" lat="59.3995472218" lon="11.1396999975">
		<tag k="alt_name" v="Minge øvre" />
		<tag k="name" v="Øvre Minge" />
		<tag k="place" v="farm" />
		<tag k="ssr:stedsnr" v="548141" />
	</node>
	<node id="-26228" lat="59.4129000025" lon="11.123466674">
		<tag k="alt_name" v="Rognerød" />
		<tag k="name" v="Rånerød" />
		<tag k="place" v="farm" />
		<tag k="ssr:stedsnr" v="548127" />
	</node>
	<node id="-26227" lat="59.2366944407" lon="11.2109249936">
		<tag k="alt_name" v="Stenene" />
		<tag k="name" v="Steinane" />
		<tag k="place" v="farm" />
		<tag k="ssr:stedsnr" v="547940" />
	</node>
	<node id="-26226" lat="59.2171750032" lon="11.2611777829">
		<tag k="alt_name" v="Oremohaugen;Ormohaugen" />
		<tag k="name" v="Haugen" />
		<tag k="place" v="farm" />
		<tag k="ssr:stedsnr" v="547916" />
	</node>
	<node id="-26225" lat="59.219549997" lon="11.2156500084">
		<tag k="name" v="Storkasene" />
		<tag k="place" v="farm" />
		<tag k="ssr:stedsnr" v="547914" />
	</node>
	<node id="-26223" lat="59.2225499974" lon="11.0892222158">
		<tag k="name" v="Oredalen" />
		<tag k="place" v="farm" />
		<tag k="ssr:stedsnr" v="547343" />
	</node>
	<node id="-26221" lat="59.2759805529" lon="11.0292444432">
		<tag k="amenity" v="school" />
		<tag k="name" v="Greåker videregående skole" />
		<tag k="ssr:stedsnr" v="537733" />
	</node>
	<node id="-26219" lat="59.2683083364" lon="11.0460722189">
		<tag k="amenity" v="school" />
		<tag k="name" v="Tindlund ungdomsskole" />
		<tag k="ssr:stedsnr" v="537726" />
	</node>
	<node id="-26214" lat="59.3302777801" lon="10.9549055554">
		<tag k="name" v="Underås" />
		<tag k="place" v="farm" />
		<tag k="ssr:stedsnr" v="537309" />
	</node>
	<node id="-26213" lat="59.3241694417" lon="10.9882111075">
		<tag k="name" v="Granli" />
		<tag k="place" v="isolated_dwelling" />
		<tag k="ssr:stedsnr" v="537296" />
	</node>
	<node id="-26209" lat="59.3269870362" lon="11.1102949492">
		<tag k="alt_name" v="Skjøren vestre" />
		<tag k="name" v="Vestre Skjøren" />
		<tag k="place" v="farm" />
		<tag k="ssr:stedsnr" v="527280" />
	</node>
	<node id="-26207" lat="59.3255305512" lon="11.1327472209">
		<tag k="alt_name" v="Bråtenes" />
		<tag k="name" v="Bråteneset" />
		<tag k="place" v="farm" />
		<tag k="ssr:stedsnr" v="428949" />
	</node>
	<node id="-26206" lat="59.3297000012" lon="11.2528250079">
		<tag k="alt_name" v="Knatterud" />
		<tag k="name" v="Knatterød" />
		<tag k="place" v="farm" />
		<tag k="ssr:stedsnr" v="428776" />
	</node>
	<node id="-26205" lat="59.302174997" lon="11.3183777781">
		<tag k="name" v="Høymyr" />
		<tag k="place" v="farm" />
		<tag k="ssr:stedsnr" v="427996" />
	</node>
	<node id="-26204" lat="59.2898805538" lon="11.1556111061">
		<tag k="name" v="Skjeggeby" />
		<tag k="place" v="farm" />
		<tag k="ssr:stedsnr" v="427977" />
	</node>
	<node id="-26203" lat="59.3035555592" lon="11.1519444497">
		<tag k="alt_name" v="Nordby nordre" />
		<tag k="name" v="Nordby" />
		<tag k="place" v="farm" />
		<tag k="ssr:stedsnr" v="427964" />
	</node>
	<node id="-26201" lat="59.3891527784" lon="11.158124996">
		<tag k="alt_name" v="Bjørnedalen" />
		<tag k="name" v="Dalen" />
		<tag k="place" v="farm" />
		<tag k="ssr:stedsnr" v="427784" />
	</node>
	<node id="-26200" lat="59.2591777821" lon="11.2332722284">
		<tag k="alt_name" v="Tveter nordre" />
		<tag k="name" v="Nordre Tveter" />
		<tag k="place" v="farm" />
		<tag k="ssr:stedsnr" v="427923" />
	</node>
	<node id="-26197" lat="59.2785861093" lon="11.1445555476">
		<tag k="name" v="Lerkerød" />
		<tag k="place" v="farm" />
		<tag k="ssr:stedsnr" v="427883" />
	</node>
	<node id="-26195" lat="59.2850020734" lon="11.1599850168">
		<tag k="name" v="Tangen" />
		<tag k="place" v="locality" />
		<tag k="ssr:stedsnr" v="427877" />
	</node>
	<node id="-26194" lat="59.284550003" lon="11.2768305543">
		<tag k="name" v="Iversby" />
		<tag k="place" v="farm" />
		<tag k="ssr:stedsnr" v="427865" />
	</node>
	<node id="-26193" lat="59.2688423378" lon="11.1317971541">
		<tag k="fixme" v="consider place=hamlet" />
		<tag k="name" v="Hafslund" />
		<tag k="place" v="farm" />
		<tag k="ssr:stedsnr" v="427858" />
	</node>
	<node id="-26192" lat="59.2127999981" lon="11.1502750034">
		<tag k="name" v="Østberg" />
		<tag k="place" v="farm" />
		<tag k="ssr:stedsnr" v="427852" />
	</node>
	<node id="-26191" lat="59.2099249976" lon="11.171124999">
		<tag k="alt_name" v="Bustgård" />
		<tag k="name" v="Busgård" />
		<tag k="place" v="farm" />
		<tag k="ssr:stedsnr" v="427849" />
	</node>
	<node id="-26189" lat="59.3362861069" lon="10.9605222196">
		<tag k="name" v="Alfheim" />
		<tag k="place" v="farm" />
		<tag k="ssr:stedsnr" v="427488" />
	</node>
	<node id="-26188" lat="59.1932499993" lon="11.1112499954">
		<tag k="name" v="Suterød" />
		<tag k="place" v="farm" />
		<tag k="ssr:stedsnr" v="426979" />
	</node>
	<node id="-26187" lat="59.1934999964" lon="11.1691527801">
		<tag k="name" v="Delebekk" />
		<tag k="place" v="farm" />
		<tag k="ssr:stedsnr" v="426977" />
	</node>
	<node id="-26186" lat="59.1868975238" lon="11.0978478883">
		<tag k="fixme" v="consider place=hamlet" />
		<tag k="name" v="Lilleng" />
		<tag k="place" v="farm" />
		<tag k="ssr:stedsnr" v="426965" />
	</node>
	<node id="-26185" lat="59.1250249974" lon="11.216302775">
		<tag k="alt_name" v="Krossvik" />
		<tag k="name" v="Krossvika" />
		<tag k="place" v="farm" />
		<tag k="ssr:stedsnr" v="426886" />
	</node>
	<node id="-26184" lat="59.1374305593" lon="11.1879222268">
		<tag k="name" v="Sand" />
		<tag k="place" v="farm" />
		<tag k="ssr:stedsnr" v="426768" />
	</node>
	<node id="-26182" lat="59.3183180476" lon="10.9805168815">
		<tag k="alt_name" v="Utne" />
		<tag k="fixme" v="consider place=hamlet" />
		<tag k="name" v="Øtne" />
		<tag k="place" v="farm" />
		<tag k="ssr:stedsnr" v="421888" />
	</node>
	<node id="-26181" lat="59.3142527789" lon="10.9993527817">
		<tag k="name" v="Søberg" />
		<tag k="place" v="farm" />
		<tag k="ssr:stedsnr" v="416587" />
	</node>
	<node id="-26180" lat="59.364430553" lon="11.0330833344">
		<tag k="alt_name" v="Agnalt mellem" />
		<tag k="name" v="Mellom-Agnalt" />
		<tag k="place" v="farm" />
		<tag k="ssr:stedsnr" v="416399" />
	</node>
	<node id="-26177" lat="59.3048111075" lon="11.0520083282">
		<tag k="name" v="Bråten" />
		<tag k="place" v="farm" />
		<tag k="ssr:stedsnr" v="416289" />
	</node>
	<node id="-26176" lat="59.3029138863" lon="11.0479944474">
		<tag k="name" v="Bjørnstad" />
		<tag k="place" v="farm" />
		<tag k="ssr:stedsnr" v="416193" />
	</node>
	<node id="-26168" lat="59.2638305533" lon="11.0434722267">
		<tag k="building" v="industrial" />
		<tag k="name" v="Sarpsborg mekaniske verksted AS" />
		<tag k="ssr:stedsnr" v="406946" />
	</node>
	<node id="-26165" lat="59.2220250017" lon="11.2366999959">
		<tag k="alt_name" v="Rønneld østre" />
		<tag k="name" v="Østre Rønneld" />
		<tag k="old_name" v="Ø Rönild" />
		<tag k="place" v="farm" />
		<tag k="ssr:stedsnr" v="406296" />
	</node>
	<node id="-26164" lat="59.2823166665" lon="11.0719472274">
		<tag k="name" v="Yven" />
		<tag k="place" v="farm" />
		<tag k="ssr:stedsnr" v="404236" />
	</node>
	<node id="-26163" lat="59.1641328261" lon="11.1459226146">
		<tag k="fixme" v="consider place=hamlet" />
		<tag k="name" v="Berg" />
		<tag k="place" v="farm" />
		<tag k="ssr:stedsnr" v="403896" />
	</node>
	<node id="-26158" lat="59.3914166695" lon="11.1259250047">
		<tag k="name" v="Solbakken" />
		<tag k="place" v="farm" />
		<tag k="ssr:stedsnr" v="386683" />
	</node>
	<node id="-26157" lat="59.3904194473" lon="11.1234083404">
		<tag k="amenity" v="school" />
		<tag k="name" v="Minge skole" />
		<tag k="ssr:stedsnr" v="386682" />
	</node>
	<node id="-26156" lat="59.3595305567" lon="11.2067888961">
		<tag k="name" v="Berg" />
		<tag k="place" v="farm" />
		<tag k="ssr:stedsnr" v="386348" />
	</node>
	<node id="-26154" lat="59.2061777802" lon="11.14849166">
		<tag k="name" v="Vesttorp" />
		<tag k="place" v="farm" />
		<tag k="ssr:stedsnr" v="386432" />
	</node>
	<node id="-26153" lat="59.3348500042" lon="11.1291666723">
		<tag k="alt_name" v="Holen vestre" />
		<tag k="name" v="Vestre Holen" />
		<tag k="place" v="farm" />
		<tag k="ssr:stedsnr" v="386399" />
	</node>
	<node id="-26148" lat="59.3634972182" lon="11.1717000014">
		<tag k="name" v="Lunde" />
		<tag k="place" v="farm" />
		<tag k="ssr:stedsnr" v="386340" />
	</node>
	<node id="-26143" lat="59.2162861124" lon="11.1670944471">
		<tag k="alt_name" v="Solberg nordre" />
		<tag k="name" v="Nordre Solberg" />
		<tag k="place" v="farm" />
		<tag k="ssr:stedsnr" v="386148" />
	</node>
	<node id="-26142" lat="59.2164750011" lon="11.1797833313">
		<tag k="amenity" v="school" />
		<tag k="name" v="Skjeberg folkehøgskole" />
		<tag k="ssr:stedsnr" v="386146" />
	</node>
	<node id="-26139" lat="59.2087694404" lon="11.2771305603">
		<tag k="name" v="Fjell" />
		<tag k="place" v="farm" />
		<tag k="ssr:stedsnr" v="386134" />
	</node>
	<node id="-26137" lat="59.1801777767" lon="11.2562194384">
		<tag k="landuse" v="aquaculture" />
		<tag k="name" v="Tømmeråsmoen" />
		<tag k="ssr:stedsnr" v="386094" />
	</node>
	<node id="-26134" lat="59.2698999978" lon="11.149816675">
		<tag k="leisure" v="park" />
		<tag k="name" v="Borgen folkepark" />
		<tag k="ssr:stedsnr" v="386075" />
	</node>
	<node id="-26133" lat="59.1446000017" lon="11.1846777704">
		<tag k="name" v="Klaven" />
		<tag k="place" v="isolated_dwelling" />
		<tag k="ssr:stedsnr" v="386032" />
	</node>
	<node id="-26132" lat="59.1424305575" lon="11.1831444505">
		<tag k="name" v="Rustad" />
		<tag k="place" v="isolated_dwelling" />
		<tag k="ssr:stedsnr" v="386030" />
	</node>
	<node id="-26131" lat="59.1521722208" lon="11.1908638907">
		<tag k="name" v="Seilerhytta" />
		<tag k="place" v="isolated_dwelling" />
		<tag k="ssr:stedsnr" v="386061" />
	</node>
	<node id="-26129" lat="59.3437277738" lon="11.1053000048">
		<tag k="alt_name" v="Utne" />
		<tag k="name" v="Øtne" />
		<tag k="place" v="farm" />
		<tag k="ssr:stedsnr" v="367792" />
	</node>
	<node id="-26128" lat="59.3362000041" lon="11.1352416607">
		<tag k="alt_name" v="Holen, søndre" />
		<tag k="name" v="Søndre Holen" />
		<tag k="place" v="farm" />
		<tag k="ssr:stedsnr" v="367777" />
	</node>
	<node id="-26127" lat="59.335500004" lon="11.1524083375">
		<tag k="name" v="Finnestad" />
		<tag k="place" v="farm" />
		<tag k="ssr:stedsnr" v="367770" />
	</node>
	<node id="-26126" lat="59.3346027776" lon="11.266449996">
		<tag k="name" v="Åsen" />
		<tag k="place" v="farm" />
		<tag k="ssr:stedsnr" v="367765" />
	</node>
	<node id="-26125" lat="59.2000000038" lon="11.1287777737">
		<tag k="name" v="Østby" />
		<tag k="place" v="farm" />
		<tag k="ssr:stedsnr" v="366981" />
	</node>
	<node id="-26123" lat="59.1840000008" lon="11.1874499949">
		<tag k="name" v="Sandvika" />
		<tag k="place" v="isolated_dwelling" />
		<tag k="ssr:stedsnr" v="366948" />
	</node>
	<node id="-26122" lat="59.1716868586" lon="11.23346153">
		<tag k="alt_name" v="Mjølløs" />
		<tag k="fixme" v="consider place=hamlet" />
		<tag k="name" v="Melløs" />
		<tag k="place" v="farm" />
		<tag k="ssr:stedsnr" v="366935" />
	</node>
	<node id="-26121" lat="59.2602527746" lon="11.2634222268">
		<tag k="name" v="Messingrød" />
		<tag k="place" v="farm" />
		<tag k="ssr:stedsnr" v="366921" />
	</node>
	<node id="-26120" lat="59.2663000023" lon="11.1167722212">
		<tag k="name" v="Torp" />
		<tag k="place" v="farm" />
		<tag k="ssr:stedsnr" v="366910" />
	</node>
	<node id="-26119" lat="59.2538305519" lon="11.1553249924">
		<tag k="name" v="Klavestad" />
		<tag k="place" v="farm" />
		<tag k="ssr:stedsnr" v="366895" />
	</node>
	<node id="-26117" lat="59.2101027785" lon="11.2364249918">
		<tag k="name" v="Tegneby" />
		<tag k="place" v="farm" />
		<tag k="ssr:stedsnr" v="366862" />
	</node>
	<node id="-26116" lat="59.2723750001" lon="11.1801916748">
		<tag k="name" v="Bergheim" />
		<tag k="place" v="farm" />
		<tag k="ssr:stedsnr" v="366861" />
	</node>
	<node id="-26115" lat="59.2037032478" lon="11.2079639528">
		<tag k="fixme" v="consider place=hamlet" />
		<tag k="name" v="Løkke" />
		<tag k="place" v="farm" />
		<tag k="ssr:stedsnr" v="366856" />
	</node>
	<node id="-26113" lat="59.3808999969" lon="11.1908888973">
		<tag k="name" v="Kongsrud" />
		<tag k="place" v="farm" />
		<tag k="ssr:stedsnr" v="366847" />
	</node>
	<node id="-26111" lat="59.3865000034" lon="11.2066472206">
		<tag k="name" v="Gryte" />
		<tag k="place" v="farm" />
		<tag k="ssr:stedsnr" v="366808" />
	</node>
	<node id="-26110" lat="59.1511618356" lon="11.1218062385">
		<tag k="alt_name" v="Bredvik" />
		<tag k="name" v="Brevik" />
		<tag k="place" v="farm" />
		<tag k="ssr:stedsnr" v="366781" />
	</node>
	<node id="-26108" lat="59.3390583298" lon="11.0648111146">
		<tag k="name" v="Toskenes" />
		<tag k="place" v="farm" />
		<tag k="ssr:stedsnr" v="366471" />
	</node>
	<node id="-26107" lat="59.3152493287" lon="11.0173160067">
		<tag k="name" v="Raet" />
		<tag k="place" v="farm" />
		<tag k="ssr:stedsnr" v="366419" />
	</node>
	<node id="-26106" lat="59.3034500042" lon="11.0580499938">
		<tag k="fixme" v="consider place=hamlet" />
		<tag k="name" v="Bjørnstad" />
		<tag k="place" v="farm" />
		<tag k="ssr:stedsnr" v="366404" />
	</node>
	<node id="-26103" lat="59.1922527807" lon="11.1219305597">
		<tag k="name" v="Løkkeberg" />
		<tag k="place" v="farm" />
		<tag k="ssr:stedsnr" v="365979" />
	</node>
	<node id="-26101" lat="59.1872250024" lon="11.2116749949">
		<tag k="fixme" v="consider place=hamlet" />
		<tag k="name" v="Øyestad" />
		<tag k="place" v="farm" />
		<tag k="ssr:stedsnr" v="365975" />
	</node>
	<node id="-26100" lat="59.1828750009" lon="11.1112583325">
		<tag k="alt_name" v="Hulbekk" />
		<tag k="name" v="Holbekk" />
		<tag k="place" v="farm" />
		<tag k="ssr:stedsnr" v="365968" />
	</node>
	<node id="-26098" lat="59.2289500014" lon="11.2563749985">
		<tag k="name" v="Sandbekk" />
		<tag k="place" v="farm" />
		<tag k="ssr:stedsnr" v="365920" />
	</node>
	<node id="-26097" lat="59.2303620614" lon="11.1533425156">
		<tag k="fixme" v="consider place=hamlet" />
		<tag k="name" v="Flatberg" />
		<tag k="place" v="farm" />
		<tag k="ssr:stedsnr" v="365918" />
	</node>
	<node id="-26096" lat="59.2247499963" lon="11.1764277802">
		<tag k="name" v="Nålum" />
		<tag k="place" v="farm" />
		<tag k="ssr:stedsnr" v="365917" />
	</node>
	<node id="-26095" lat="59.2215249965" lon="11.1628249916">
		<tag k="name" v="Bø" />
		<tag k="place" v="farm" />
		<tag k="ssr:stedsnr" v="365910" />
	</node>
	<node id="-26092" lat="59.2088527737" lon="11.0902472142">
		<tag k="name" v="Brandstorp" />
		<tag k="place" v="farm" />
		<tag k="ssr:stedsnr" v="365300" />
	</node>
	<node id="-26089" lat="59.2714222224" lon="11.0330277762">
		<tag k="landuse" v="military" />
		<tag k="name" v="Greåker fort" />
		<tag k="ssr:stedsnr" v="355713" />
	</node>
	<node id="-26088" lat="59.3099444412" lon="11.0056361083">
		<tag k="alt_name" v="Ryen vestre" />
		<tag k="name" v="Vestre Ryen" />
		<tag k="place" v="farm" />
		<tag k="ssr:stedsnr" v="355599" />
	</node>
	<node id="-26086" lat="59.3181027818" lon="11.0441444432">
		<tag k="name" v="Huset" />
		<tag k="place" v="isolated_dwelling" />
		<tag k="ssr:stedsnr" v="355388" />
	</node>
	<node id="-26085" lat="59.2943805586" lon="11.0532222185">
		<tag k="name" v="Haraldstad" />
		<tag k="place" v="farm" />
		<tag k="ssr:stedsnr" v="355372" />
	</node>
	<node id="-26083" lat="59.3297361128" lon="10.9884333268">
		<tag k="name" v="Rønningen" />
		<tag k="place" v="farm" />
		<tag k="ssr:stedsnr" v="355327" />
	</node>
	<node id="-26082" lat="59.3313250033" lon="10.9760777732">
		<tag k="name" v="Bergedalen" />
		<tag k="place" v="farm" />
		<tag k="ssr:stedsnr" v="355318" />
	</node>
	<node id="-26080" lat="59.3220583342" lon="10.9835888804">
		<tag k="name" v="Utnebråten" />
		<tag k="place" v="farm" />
		<tag k="ssr:stedsnr" v="355313" />
	</node>
	<node id="-26075" lat="59.1657499999" lon="11.2309055576">
		<tag k="alt_name" v="Slang nordre" />
		<tag k="name" v="Nordre Slang" />
		<tag k="place" v="farm" />
		<tag k="ssr:stedsnr" v="345277" />
	</node>
	<node id="-26074" lat="59.2731999994" lon="11.2660861029">
		<tag k="name" v="Havnabakken" />
		<tag k="place" v="locality" />
		<tag k="ssr:stedsnr" v="326930" />
	</node>
	<node id="-26072" lat="59.2881638905" lon="11.2073249999">
		<tag k="name" v="Labråten" />
		<tag k="place" v="farm" />
		<tag k="ssr:stedsnr" v="326914" />
	</node>
	<node id="-26070" lat="59.3076833346" lon="11.1948444499">
		<tag k="name" v="Bergby" />
		<tag k="place" v="farm" />
		<tag k="ssr:stedsnr" v="326480" />
	</node>
	<node id="-26066" lat="59.3228499962" lon="11.1164333358">
		<tag k="alt_name" v="Skjøren østre" />
		<tag k="name" v="Østre Skjøren" />
		<tag k="place" v="farm" />
		<tag k="ssr:stedsnr" v="326448" />
	</node>
	<node id="-26054" lat="59.3610888855" lon="11.1699749932">
		<tag k="name" v="Lunde" />
		<tag k="place" v="farm" />
		<tag k="ssr:stedsnr" v="326378" />
	</node>
	<node id="-26048" lat="59.2588694475" lon="11.1407499965">
		<tag k="alt_name" v="Berg nordre" />
		<tag k="name" v="Nordre Berg" />
		<tag k="place" v="farm" />
		<tag k="ssr:stedsnr" v="325188" />
	</node>
	<node id="-26047" lat="59.2148750037" lon="11.1912722212">
		<tag k="name" v="Grimstad" />
		<tag k="place" v="farm" />
		<tag k="ssr:stedsnr" v="325147" />
	</node>
	<node id="-26046" lat="59.2155916652" lon="11.1820638927">
		<tag k="name" v="Alfheim" />
		<tag k="place" v="farm" />
		<tag k="ssr:stedsnr" v="325142" />
	</node>
	<node id="-26045" lat="59.2145249997" lon="11.2339055496">
		<tag k="name" v="Nordby" />
		<tag k="place" v="farm" />
		<tag k="ssr:stedsnr" v="325136" />
	</node>
	<node id="-26044" lat="59.2210444424" lon="11.2545499922">
		<tag k="name" v="Rønningen" />
		<tag k="place" v="locality" />
		<tag k="ssr:stedsnr" v="325135" />
	</node>
	<node id="-26041" lat="59.2496666645" lon="11.1779833308">
		<tag k="name" v="Bjerkholt" />
		<tag k="place" v="farm" />
		<tag k="ssr:stedsnr" v="325092" />
	</node>
	<node id="-26036" lat="59.1979663106" lon="11.186126355">
		<tag k="name" v="Skovrand" />
		<tag k="place" v="isolated_dwelling" />
		<tag k="ssr:stedsnr" v="325061" />
	</node>
	<node id="-26034" lat="59.153544448" lon="11.1958583417">
		<tag k="name" v="Myre" />
		<tag k="place" v="farm" />
		<tag k="ssr:stedsnr" v="325044" />
	</node>
	<node id="-26031" lat="59.3215209432" lon="11.1109627291">
		<tag k="fixme" v="consider place=hamlet" />
		<tag k="name" v="Sjøren" />
		<tag k="place" v="farm" />
		<tag k="ssr:stedsnr" v="312784" />
	</node>
	<node id="-26030" lat="59.3753228218" lon="11.2067793907">
		<tag k="alt_name" v="Kullerud" />
		<tag k="name" v="Kulerud" />
		<tag k="place" v="farm" />
		<tag k="ssr:stedsnr" v="306868" />
	</node>
	<node id="-26029" lat="59.3810277774" lon="11.234822226">
		<tag k="name" v="Bødalen" />
		<tag k="place" v="farm" />
		<tag k="ssr:stedsnr" v="306858" />
	</node>
	<node id="-26028" lat="59.3678499992" lon="11.1635249976">
		<tag k="alt_name" v="Halvorsrød" />
		<tag k="name" v="Halvorsrud" />
		<tag k="place" v="farm" />
		<tag k="ssr:stedsnr" v="306851" />
	</node>
	<node id="-26027" lat="59.3860499983" lon="11.2458499914">
		<tag k="name" v="Rognerud" />
		<tag k="place" v="farm" />
		<tag k="ssr:stedsnr" v="306813" />
	</node>
	<node id="-26026" lat="59.1587500004" lon="11.1389749981">
		<tag k="name" v="Olseng" />
		<tag k="place" v="farm" />
		<tag k="ssr:stedsnr" v="306792" />
	</node>
	<node id="-26024" lat="59.1489830644" lon="11.21086485">
		<tag k="name" v="Holstangen" />
		<tag k="place" v="farm" />
		<tag k="ssr:stedsnr" v="306763" />
	</node>
	<node id="-26023" lat="59.3551250005" lon="11.2013000083">
		<tag k="alt_name" v="Bergerud" />
		<tag k="name" v="Løkka" />
		<tag k="place" v="farm" />
		<tag k="ssr:stedsnr" v="306738" />
	</node>
	<node id="-26021" lat="59.3647194444" lon="11.0004027738">
		<tag k="alt_name" v="Skoge" />
		<tag k="name" v="Skauge" />
		<tag k="place" v="farm" />
		<tag k="ssr:stedsnr" v="306249" />
	</node>
	<node id="-26020" lat="59.3026500036" lon="11.2232999921">
		<tag k="name" v="Dammen" />
		<tag k="place" v="farm" />
		<tag k="ssr:stedsnr" v="305991" />
	</node>
	<node id="-26019" lat="59.3040694475" lon="11.2191472232">
		<tag k="name" v="Isetorp" />
		<tag k="place" v="farm" />
		<tag k="ssr:stedsnr" v="305988" />
	</node>
	<node id="-26018" lat="59.3069277757" lon="11.1303972288">
		<tag k="name" v="Baterød" />
		<tag k="place" v="farm" />
		<tag k="ssr:stedsnr" v="305983" />
	</node>
	<node id="-26017" lat="59.2963000026" lon="11.2732972276">
		<tag k="name" v="Holt" />
		<tag k="place" v="farm" />
		<tag k="ssr:stedsnr" v="305975" />
	</node>
	<node id="-26016" lat="59.2966277735" lon="11.1956972243">
		<tag k="alt_name" v="Ødegård" />
		<tag k="name" v="Øgård" />
		<tag k="place" v="farm" />
		<tag k="ssr:stedsnr" v="305970" />
	</node>
	<node id="-26015" lat="59.2964999968" lon="11.2656527781">
		<tag k="name" v="Øby" />
		<tag k="place" v="farm" />
		<tag k="ssr:stedsnr" v="305968" />
	</node>
	<node id="-26013" lat="59.2604055576" lon="11.1758805561">
		<tag k="alt_name" v="Kala travbane" />
		<tag k="leisure" v="pitch" />
		<tag k="name" v="Traverbane" />
		<tag k="ssr:stedsnr" v="305945" />
	</node>
	<node id="-26012" lat="59.2598499993" lon="11.1905305538">
		<tag k="name" v="Sætre" />
		<tag k="place" v="farm" />
		<tag k="ssr:stedsnr" v="305938" />
	</node>
	<node id="-26010" lat="59.2126000006" lon="11.2903611156">
		<tag k="name" v="Frydenlund" />
		<tag k="place" v="farm" />
		<tag k="ssr:stedsnr" v="305899" />
	</node>
	<node id="-26009" lat="59.2194777765" lon="11.2668000059">
		<tag k="name" v="Prangerød" />
		<tag k="place" v="farm" />
		<tag k="ssr:stedsnr" v="305896" />
	</node>
	<node id="-26008" lat="59.2723111082" lon="11.1639694435">
		<tag k="alt_name" v="Hanestad;Hannestad" />
		<tag k="name" v="Roligheten" />
		<tag k="place" v="farm" />
		<tag k="ssr:stedsnr" v="305887" />
	</node>
	<node id="-26007" lat="59.2696500033" lon="11.3004777861">
		<tag k="name" v="Tangen" />
		<tag k="place" v="farm" />
		<tag k="ssr:stedsnr" v="305884" />
	</node>
	<node id="-26006" lat="59.2742138867" lon="11.2048055598">
		<tag k="alt_name" v="Hevingen" />
		<tag k="name" v="Hævingen" />
		<tag k="place" v="farm" />
		<tag k="ssr:stedsnr" v="305882" />
	</node>
	<node id="-26005" lat="59.2766277734" lon="11.2670527838">
		<tag k="name" v="Buer" />
		<tag k="place" v="farm" />
		<tag k="ssr:stedsnr" v="305880" />
	</node>
	<node id="-26004" lat="59.3432527761" lon="10.9955888914">
		<tag k="name" v="Kollerød" />
		<tag k="place" v="farm" />
		<tag k="ssr:stedsnr" v="305539" />
	</node>
	<node id="-26003" lat="59.3443999975" lon="10.9922444398">
		<tag k="name" v="Ågård" />
		<tag k="place" v="farm" />
		<tag k="ssr:stedsnr" v="305536" />
	</node>
	<node id="-26002" lat="59.3432138886" lon="11.0554472163">
		<tag k="name" v="Kattekross" />
		<tag k="place" v="farm" />
		<tag k="ssr:stedsnr" v="305507" />
	</node>
	<node id="-26001" lat="59.299427781" lon="11.0585805534">
		<tag k="fixme" v="multiple name tags, choose one and add the other to alt_name" />
		<tag k="name" v="Bjørnland;Søndre Bjørnstad" />
		<tag k="place" v="farm" />
		<tag k="ssr:stedsnr" v="305415" />
	</node>
	<node id="-25998" lat="59.1777605599" lon="11.110289696">
		<tag k="fixme" v="consider place=hamlet" />
		<tag k="name" v="Ørbekk" />
		<tag k="place" v="farm" />
		<tag k="ssr:stedsnr" v="304951" />
	</node>
	<node id="-25997" lat="59.2156499995" lon="11.1496250065">
		<tag k="name" v="Holstad" />
		<tag k="place" v="farm" />
		<tag k="ssr:stedsnr" v="305890" />
	</node>
	<node id="-25996" lat="59.2669055586" lon="11.1773666662">
		<tag k="fixme" v="consider place=hamlet" />
		<tag k="name" v="Borgenhaugen" />
		<tag k="place" v="village" />
		<tag k="ssr:stedsnr" v="206399" />
	</node>
	<node id="-25995" lat="59.2527166702" lon="11.2492388839">
		<tag k="name" v="Mattisbråten" />
		<tag k="place" v="isolated_dwelling" />
		<tag k="ssr:stedsnr" v="204934" />
	</node>
	<node id="-25991" lat="59.3922138889" lon="11.1108472263">
		<tag k="name" v="Moholt" />
		<tag k="place" v="farm" />
		<tag k="ssr:stedsnr" v="204662" />
	</node>
	<node id="-25989" lat="59.2423750009" lon="11.1580194521">
		<tag k="alt_name" v="Bjørnstad nordre" />
		<tag k="name" v="Nordre Bjørnstad" />
		<tag k="place" v="farm" />
		<tag k="ssr:stedsnr" v="204425" />
	</node>
	<node id="-25985" lat="59.3314833302" lon="11.2564694392">
		<tag k="name" v="Knatterud" />
		<tag k="place" v="farm" />
		<tag k="ssr:stedsnr" v="204388" />
	</node>
	<node id="-25984" lat="59.1961055528" lon="11.0847361059">
		<tag k="alt_name" v="Talberg øvre" />
		<tag k="name" v="Øvre Talberg" />
		<tag k="place" v="farm" />
		<tag k="ssr:stedsnr" v="204384" />
	</node>
	<node id="-25981" lat="59.3222166649" lon="11.0880277857">
		<tag k="name" v="Stenbekk" />
		<tag k="ssr:stedsnr" v="204376" />
		<tag k="tourism" v="guest_house" />
	</node>
	<node id="-25979" lat="59.3219527782" lon="11.1390555514">
		<tag k="alt_name" v="Maugesten østre" />
		<tag k="name" v="Østre Maugesten" />
		<tag k="place" v="farm" />
		<tag k="ssr:stedsnr" v="204371" />
	</node>
	<node id="-25975" lat="59.3395027822" lon="11.0655944451">
		<tag k="alt_name" v="Torskenes nordre" />
		<tag k="name" v="Nordre Torskenes" />
		<tag k="place" v="farm" />
		<tag k="ssr:stedsnr" v="204217" />
	</node>
	<node id="-25974" lat="59.2243916693" lon="11.1774916645">
		<tag k="alt_name" v="Nålum vestre" />
		<tag k="name" v="Vestre Nålum" />
		<tag k="place" v="farm" />
		<tag k="ssr:stedsnr" v="204110" />
	</node>
	<node id="-25973" lat="59.2097527795" lon="11.2190444411">
		<tag k="name" v="Lyngberg" />
		<tag k="place" v="farm" />
		<tag k="ssr:stedsnr" v="204101" />
	</node>
	<node id="-25972" lat="59.2231555536" lon="11.2280333401">
		<tag k="alt_name" v="Rønneld vestre" />
		<tag k="loc_name" v="Nordre Rønneld" />
		<tag k="name" v="Vestre Rønneld" />
		<tag k="old_name" v="Braaterönild" />
		<tag k="place" v="farm" />
		<tag k="ssr:stedsnr" v="204100" />
	</node>
	<node id="-25971" lat="59.2077638906" lon="11.2447166681">
		<tag k="alt_name" v="Sørle øvre" />
		<tag k="name" v="Øvre Sørle" />
		<tag k="place" v="farm" />
		<tag k="ssr:stedsnr" v="204094" />
	</node>
	<node id="-25968" lat="59.2927555521" lon="11.1548638912">
		<tag k="name" v="Helgeby" />
		<tag k="place" v="farm" />
		<tag k="ssr:stedsnr" v="204081" />
	</node>
	<node id="-25967" lat="59.282333336" lon="11.1328333318">
		<tag k="name" v="Hukelund" />
		<tag k="place" v="farm" />
		<tag k="ssr:stedsnr" v="204079" />
	</node>
	<node id="-25964" lat="59.1352588034" lon="11.2026920599">
		<tag k="name" v="Brodal" />
		<tag k="place" v="isolated_dwelling" />
		<tag k="ssr:stedsnr" v="204066" />
	</node>
	<node id="-25963" lat="59.2507777771" lon="11.1429194429">
		<tag k="alt_name" v="Navestad nordre" />
		<tag k="name" v="Nordre Navestad" />
		<tag k="place" v="farm" />
		<tag k="ssr:stedsnr" v="204057" />
	</node>
	<node id="-25961" lat="59.1424749962" lon="11.222655554">
		<tag k="name" v="Enga" />
		<tag k="place" v="locality" />
		<tag k="ssr:stedsnr" v="204033" />
	</node>
	<node id="-25958" lat="59.2800583365" lon="11.1023805608">
		<tag k="amenity" v="sports_centre" />
		<tag k="name" v="Sarpsborghallen" />
		<tag k="ssr:stedsnr" v="204016" />
	</node>
	<node id="-25957" lat="59.2532861114" lon="11.1559499942">
		<tag k="alt_name" v="Klavestad søndre" />
		<tag k="name" v="Søndre Klavestad" />
		<tag k="place" v="farm" />
		<tag k="ssr:stedsnr" v="204059" />
	</node>
	<node id="-25955" lat="59.3286499959" lon="11.106399997">
		<tag k="alt_name" v="Grønnli" />
		<tag k="name" v="Grønli" />
		<tag k="place" v="farm" />
		<tag k="ssr:stedsnr" v="185949" />
	</node>
	<node id="-25954" lat="59.376577779" lon="11.2364722188">
		<tag k="alt_name" v="Dueholen (Dyrendron)" />
		<tag k="name" v="Dueholen" />
		<tag k="place" v="farm" />
		<tag k="ssr:stedsnr" v="185864" />
	</node>
	<node id="-25953" lat="59.3655277793" lon="11.200052784">
		<tag k="alt_name" v="Gressløs" />
		<tag k="name" v="Grasløs" />
		<tag k="place" v="farm" />
		<tag k="ssr:stedsnr" v="185850" />
	</node>
	<node id="-25952" lat="59.342331537" lon="11.1858427383">
		<tag k="alt_name" v="Mattishytten" />
		<tag k="fixme" v="multiple name tags, choose one and add the other to alt_name" />
		<tag k="name" v="Dalene;Mattishytta" />
		<tag k="place" v="farm" />
		<tag k="ssr:stedsnr" v="185792" />
	</node>
	<node id="-25951" lat="59.3399499974" lon="11.2238249974">
		<tag k="name" v="Toreby" />
		<tag k="place" v="farm" />
		<tag k="ssr:stedsnr" v="185788" />
	</node>
	<node id="-25950" lat="59.3314111151" lon="11.2927161844">
		<tag k="alt_name" v="Østtorp (Skrellene)" />
		<tag k="name" v="Østtorp" />
		<tag k="place" v="farm" />
		<tag k="ssr:stedsnr" v="185773" />
	</node>
	<node id="-25949" lat="59.3625250012" lon="11.1387499933">
		<tag k="name" v="Plommen" />
		<tag k="place" v="farm" />
		<tag k="ssr:stedsnr" v="185764" />
	</node>
	<node id="-25948" lat="59.362600003" lon="11.2174777793">
		<tag k="name" v="Rogndalen" />
		<tag k="place" v="farm" />
		<tag k="ssr:stedsnr" v="185760" />
	</node>
	<node id="-25947" lat="59.3517277765" lon="11.1822249959">
		<tag k="name" v="Brunsby" />
		<tag k="place" v="farm" />
		<tag k="ssr:stedsnr" v="185742" />
	</node>
	<node id="-25946" lat="59.3120000042" lon="10.9857611113">
		<tag k="name" v="Ryen" />
		<tag k="place" v="farm" />
		<tag k="ssr:stedsnr" v="185379" />
	</node>
	<node id="-25945" lat="59.3054305581" lon="11.1995472241">
		<tag k="alt_name" v="Gapestad" />
		<tag k="fixme" v="consider place=hamlet" />
		<tag k="name" v="Gapastad" />
		<tag k="place" v="farm" />
		<tag k="ssr:stedsnr" v="184976" />
	</node>
	<node id="-25943" lat="59.297847222" lon="11.1437555613">
		<tag k="name" v="Vestby" />
		<tag k="place" v="farm" />
		<tag k="ssr:stedsnr" v="184964" />
	</node>
	<node id="-25941" lat="59.3200166641" lon="11.2391194379">
		<tag k="name" v="Stubberud" />
		<tag k="place" v="farm" />
		<tag k="ssr:stedsnr" v="184957" />
	</node>
	<node id="-25940" lat="59.3273000024" lon="11.2359249966">
		<tag k="name" v="Lindemark" />
		<tag k="place" v="farm" />
		<tag k="ssr:stedsnr" v="184956" />
	</node>
	<node id="-25939" lat="59.3271825284" lon="11.2032908013">
		<tag k="name" v="Brusevoll" />
		<tag k="place" v="farm" />
		<tag k="ssr:stedsnr" v="184954" />
	</node>
	<node id="-25938" lat="59.1827222182" lon="11.2220527699">
		<tag k="alt_name" v="Bessberg nordre;Bisseberg øvre" />
		<tag k="name" v="Nordre Bessberg" />
		<tag k="place" v="farm" />
		<tag k="ssr:stedsnr" v="184947" />
	</node>
	<node id="-25935" lat="59.1668999994" lon="11.2004999924">
		<tag k="name" v="Rød" />
		<tag k="place" v="farm" />
		<tag k="ssr:stedsnr" v="184934" />
	</node>
	<node id="-25934" lat="59.3121783184" lon="11.2021817259">
		<tag k="alt_name" v="Berby" />
		<tag k="name" v="Fossenga" />
		<tag k="place" v="farm" />
		<tag k="ssr:stedsnr" v="184933" />
	</node>
	<node id="-25933" lat="59.1681500038" lon="11.236205563">
		<tag k="name" v="Fredheim" />
		<tag k="place" v="farm" />
		<tag k="ssr:stedsnr" v="184932" />
	</node>
	<node id="-25932" lat="59.3130972265" lon="11.1327361028">
		<tag k="alt_name" v="Magestein;Maugesten søndre" />
		<tag k="name" v="Søndre Maugesten" />
		<tag k="place" v="farm" />
		<tag k="ssr:stedsnr" v="184931" />
	</node>
	<node id="-25931" lat="59.2589499981" lon="11.1571972298">
		<tag k="name" v="Fredheim" />
		<tag k="place" v="farm" />
		<tag k="ssr:stedsnr" v="184920" />
	</node>
	<node id="-25930" lat="59.2639500007" lon="11.2258527711">
		<tag k="name" v="Isesjøbråten" />
		<tag k="place" v="farm" />
		<tag k="ssr:stedsnr" v="184919" />
	</node>
	<node id="-25929" lat="59.2450888846" lon="11.1931611073">
		<tag k="name" v="Sandbakken" />
		<tag k="place" v="quarter" />
		<tag k="ssr:stedsnr" v="184888" />
	</node>
	<node id="-25928" lat="59.2177973148" lon="11.1654992004">
		<tag k="fixme" v="consider place=hamlet" />
		<tag k="name" v="Solberg" />
		<tag k="place" v="farm" />
		<tag k="ssr:stedsnr" v="184877" />
	</node>
	<node id="-25927" lat="59.2873500028" lon="11.2756222217">
		<tag k="name" v="Torgrimsby" />
		<tag k="place" v="farm" />
		<tag k="ssr:stedsnr" v="184872" />
	</node>
	<node id="-25926" lat="59.2092250006" lon="11.2315527837">
		<tag k="name" v="Berger" />
		<tag k="place" v="farm" />
		<tag k="ssr:stedsnr" v="184862" />
	</node>
	<node id="-25925" lat="59.2695583308" lon="11.1787638863">
		<tag k="alt_name" v="Bjørnmyr" />
		<tag k="name" v="Bjørnemyr" />
		<tag k="place" v="hamlet" />
		<tag k="ssr:stedsnr" v="184861" />
	</node>
	<node id="-25924" lat="59.2745750005" lon="11.3296972236">
		<tag k="name" v="Lilledal" />
		<tag k="place" v="farm" />
		<tag k="ssr:stedsnr" v="184844" />
	</node>
	<node id="-25923" lat="59.3936499964" lon="11.0974805471">
		<tag k="name" v="Dalen" />
		<tag k="place" v="farm" />
		<tag k="ssr:stedsnr" v="184811" />
	</node>
	<node id="-25921" lat="59.3368027762" lon="10.9559138929">
		<tag k="name" v="Bjørndalen" />
		<tag k="place" v="farm" />
		<tag k="ssr:stedsnr" v="184475" />
	</node>
	<node id="-25920" lat="59.3395694441" lon="10.9811611073">
		<tag k="name" v="Isebakke" />
		<tag k="place" v="farm" />
		<tag k="ssr:stedsnr" v="184472" />
	</node>
	<node id="-25919" lat="59.3278333347" lon="11.0663999996">
		<tag k="name" v="Hovden" />
		<tag k="place" v="isolated_dwelling" />
		<tag k="ssr:stedsnr" v="184466" />
	</node>
	<node id="-25917" lat="59.2970527763" lon="11.0461416665">
		<tag k="name" v="Oppstad" />
		<tag k="place" v="farm" />
		<tag k="ssr:stedsnr" v="184436" />
	</node>
	<node id="-25916" lat="59.189363891" lon="11.1680861089">
		<tag k="alt_name" v="Feriehjemmet" />
		<tag k="name" v="Ferieheimen" />
		<tag k="place" v="isolated_dwelling" />
		<tag k="ssr:stedsnr" v="183966" />
	</node>
	<node id="-25914" lat="59.2279749982" lon="11.1908749938">
		<tag k="name" v="Prestegården" />
		<tag k="place" v="farm" />
		<tag k="ssr:stedsnr" v="183913" />
	</node>
	<node id="-25909" lat="59.2903194472" lon="11.0303972206">
		<tag k="alt_name" v="Vister østre" />
		<tag k="name" v="Østre Vister" />
		<tag k="place" v="farm" />
		<tag k="ssr:stedsnr" v="173718" />
	</node>
	<node id="-25906" lat="59.3095527749" lon="10.9982861038">
		<tag k="name" v="Holtet" />
		<tag k="place" v="farm" />
		<tag k="ssr:stedsnr" v="173594" />
	</node>
	<node id="-25905" lat="59.3110833348" lon="11.0091805477">
		<tag k="amenity" v="cafe" />
		<tag k="name" v="Eidet restaurant" />
		<tag k="ssr:stedsnr" v="173592" />
	</node>
	<node id="-25902" lat="59.3156166703" lon="10.9782416606">
		<tag k="name" v="Utne" />
		<tag k="place" v="farm" />
		<tag k="ssr:stedsnr" v="173392" />
	</node>
	<node id="-25901" lat="59.3163361148" lon="10.9858583405">
		<tag k="name" v="Børstad" />
		<tag k="place" v="farm" />
		<tag k="ssr:stedsnr" v="173388" />
	</node>
	<node id="-25899" lat="59.3281916704" lon="10.954486105">
		<tag k="alt_name" v="Sandengen nedre" />
		<tag k="name" v="Nedre Sandengen" />
		<tag k="place" v="farm" />
		<tag k="ssr:stedsnr" v="173306" />
	</node>
	<node id="-25891" lat="59.2499555585" lon="11.2362527776">
		<tag k="name" v="Orstad" />
		<tag k="place" v="farm" />
		<tag k="ssr:stedsnr" v="143921" />
	</node>
	<node id="-25890" lat="59.2762166691" lon="11.2770249934">
		<tag k="name" v="Bråtane" />
		<tag k="place" v="locality" />
		<tag k="ssr:stedsnr" v="143909" />
	</node>
	<node id="-25889" lat="59.2784222191" lon="11.1788111103">
		<tag k="name" v="Kroken" />
		<tag k="place" v="farm" />
		<tag k="ssr:stedsnr" v="143895" />
	</node>
	<node id="-25887" lat="59.3815555514" lon="11.2123583324">
		<tag k="name" v="Kokkum" />
		<tag k="place" v="farm" />
		<tag k="ssr:stedsnr" v="143718" />
	</node>
	<node id="-25886" lat="59.3640805591" lon="11.0803166588">
		<tag k="alt_name" v="Stang nordre" />
		<tag k="name" v="Nordre Stang" />
		<tag k="place" v="farm" />
		<tag k="ssr:stedsnr" v="143708" />
	</node>
	<node id="-25883" lat="59.3833472236" lon="11.1072916642">
		<tag k="name" v="Sætre" />
		<tag k="place" v="farm" />
		<tag k="ssr:stedsnr" v="143688" />
	</node>
	<node id="-25882" lat="59.4045777822" lon="11.2003777757">
		<tag k="historic" v="shieling" />
		<tag k="name" v="Grytedalen" />
		<tag k="place" v="locality" />
		<tag k="ssr:stedsnr" v="143654" />
	</node>
	<node id="-25880" lat="59.2491583318" lon="11.1441805581">
		<tag k="alt_name" v="Navestad søndre" />
		<tag k="name" v="Søndre Navestad" />
		<tag k="place" v="farm" />
		<tag k="ssr:stedsnr" v="143491" />
	</node>
	<node id="-25879" lat="59.2335611082" lon="11.154602785">
		<tag k="alt_name" v="Hauge søndre" />
		<tag k="name" v="Søndre Hauge" />
		<tag k="place" v="farm" />
		<tag k="ssr:stedsnr" v="143489" />
	</node>
	<node id="-25878" lat="59.2972750003" lon="11.0748861089">
		<tag k="name" v="Stinta" />
		<tag k="place" v="farm" />
		<tag k="ssr:stedsnr" v="143474" />
	</node>
	<node id="-25876" lat="59.1666472187" lon="11.1464999948">
		<tag k="name" v="Bergdal" />
		<tag k="place" v="isolated_dwelling" />
		<tag k="ssr:stedsnr" v="143470" />
	</node>
	<node id="-25875" lat="59.3011888853" lon="11.1857027722">
		<tag k="name" v="Bjørnstad" />
		<tag k="place" v="farm" />
		<tag k="ssr:stedsnr" v="143459" />
	</node>
	<node id="-25873" lat="59.1751750044" lon="11.1078500031">
		<tag k="name" v="Ørebekkenga" />
		<tag k="place" v="locality" />
		<tag k="ssr:stedsnr" v="143452" />
	</node>
	<node id="-25872" lat="59.3291611128" lon="11.2593166595">
		<tag k="name" v="Knatterud" />
		<tag k="place" v="farm" />
		<tag k="ssr:stedsnr" v="143436" />
	</node>
	<node id="-25871" lat="59.2032216826" lon="11.118534761">
		<tag k="alt_name" v="Vestberg vestre" />
		<tag k="name" v="Vestre Vestberg" />
		<tag k="place" v="farm" />
		<tag k="ssr:stedsnr" v="143425" />
	</node>
	<node id="-25868" lat="59.1451999996" lon="11.1336194393">
		<tag k="name" v="Bukkenes" />
		<tag k="place" v="farm" />
		<tag k="ssr:stedsnr" v="143415" />
	</node>
	<node id="-25866" lat="59.326283336" lon="11.1144583393">
		<tag k="name" v="Skjørenheimen" />
		<tag k="place" v="farm" />
		<tag k="ssr:stedsnr" v="143398" />
	</node>
	<node id="-25865" lat="59.1611500043" lon="11.1437916674">
		<tag k="name" v="Ullerø" />
		<tag k="place" v="farm" />
		<tag k="ssr:stedsnr" v="143397" />
	</node>
	<node id="-25861" lat="59.1557888887" lon="11.1343777793">
		<tag k="alt_name" v="Olseng vestre" />
		<tag k="name" v="Vestre Olseng" />
		<tag k="place" v="farm" />
		<tag k="ssr:stedsnr" v="143374" />
	</node>
	<node id="-25860" lat="59.3350249982" lon="11.1480333253">
		<tag k="name" v="Finnestad" />
		<tag k="place" v="farm" />
		<tag k="ssr:stedsnr" v="143346" />
	</node>
	<node id="-25857" lat="59.3427138856" lon="11.1628805633">
		<tag k="name" v="Strømneshagen" />
		<tag k="place" v="farm" />
		<tag k="ssr:stedsnr" v="143240" />
	</node>
	<node id="-25856" lat="59.3576611141" lon="11.1708583331">
		<tag k="name" v="Lunde" />
		<tag k="place" v="farm" />
		<tag k="ssr:stedsnr" v="143323" />
	</node>
	<node id="-25855" lat="59.2637666634" lon="11.1549000067">
		<tag k="alt_name" v="Borgen vestre" />
		<tag k="name" v="Vestre Borgen" />
		<tag k="place" v="farm" />
		<tag k="ssr:stedsnr" v="143149" />
	</node>
	<node id="-25854" lat="59.2539111087" lon="11.152052769">
		<tag k="alt_name" v="Klavestad nordre" />
		<tag k="name" v="Nordre Klavestad" />
		<tag k="place" v="farm" />
		<tag k="ssr:stedsnr" v="143139" />
	</node>
	<node id="-25849" lat="59.2145472263" lon="11.2376499975">
		<tag k="name" v="Tungholtet" />
		<tag k="place" v="locality" />
		<tag k="ssr:stedsnr" v="143111" />
	</node>
	<node id="-25848" lat="59.1910194485" lon="11.2384333315">
		<tag k="name" v="Moen" />
		<tag k="place" v="farm" />
		<tag k="ssr:stedsnr" v="143106" />
	</node>
	<node id="-25847" lat="59.2811946145" lon="11.137040083">
		<tag k="name" v="Rød" />
		<tag k="place" v="farm" />
		<tag k="ssr:stedsnr" v="143102" />
	</node>
	<node id="-25845" lat="59.2285750042" lon="11.1986555484">
		<tag k="name" v="Hestehagen" />
		<tag k="place" v="isolated_dwelling" />
		<tag k="ssr:stedsnr" v="143096" />
	</node>
	<node id="-25842" lat="59.1413749989" lon="11.1998583376">
		<tag k="name" v="Grimset" />
		<tag k="place" v="farm" />
		<tag k="ssr:stedsnr" v="143074" />
	</node>
	<node id="-25840" lat="59.1366944427" lon="11.2255277828">
		<tag k="name" v="Bastø" />
		<tag k="place" v="farm" />
		<tag k="ssr:stedsnr" v="143056" />
	</node>
	<node id="-25838" lat="59.1609083367" lon="11.2255166636">
		<tag k="name" v="Ellingrød" />
		<tag k="place" v="locality" />
		<tag k="ssr:stedsnr" v="143032" />
	</node>
	<node id="-25837" lat="59.1579805517" lon="11.2297694425">
		<tag k="alt_name" v="Slang lille" />
		<tag k="name" v="Lille Slang" />
		<tag k="place" v="farm" />
		<tag k="ssr:stedsnr" v="143030" />
	</node>
	<node id="-25836" lat="59.1481194423" lon="11.2172388817">
		<tag k="name" v="Åkento" />
		<tag k="place" v="isolated_dwelling" />
		<tag k="ssr:stedsnr" v="143029" />
	</node>
	<node id="-25834" lat="59.2073694439" lon="11.0847472216">
		<tag k="alt_name" v="Brandstorp vestre" />
		<tag k="name" v="Vestre Brandstorp" />
		<tag k="place" v="farm" />
		<tag k="ssr:stedsnr" v="143021" />
	</node>
	<node id="-25831" lat="59.2868777741" lon="11.0864277727">
		<tag k="name" v="Østgård" />
		<tag k="place" v="farm" />
		<tag k="ssr:stedsnr" v="143011" />
	</node>
	<node id="-25829" lat="59.3820749958" lon="11.1364750072">
		<tag k="alt_name" v="Kallesten" />
		<tag k="name" v="Kallasten" />
		<tag k="place" v="farm" />
		<tag k="ssr:stedsnr" v="124846" />
	</node>
	<node id="-25828" lat="59.3731555537" lon="11.166722225">
		<tag k="name" v="Ødegården" />
		<tag k="place" v="farm" />
		<tag k="ssr:stedsnr" v="124831" />
	</node>
	<node id="-25827" lat="59.3864500019" lon="11.1835500004">
		<tag k="name" v="Suteren" />
		<tag k="place" v="farm" />
		<tag k="ssr:stedsnr" v="124797" />
	</node>
	<node id="-25826" lat="59.3488749954" lon="11.1205555635">
		<tag k="fixme" v="consider place=hamlet" />
		<tag k="name" v="Solberg" />
		<tag k="place" v="farm" />
		<tag k="ssr:stedsnr" v="124778" />
	</node>
	<node id="-25824" lat="59.346977779" lon="11.1422750025">
		<tag k="name" v="Rød" />
		<tag k="place" v="farm" />
		<tag k="ssr:stedsnr" v="124776" />
	</node>
	<node id="-25823" lat="59.3460000026" lon="11.1575777794">
		<tag k="name" v="Basken" />
		<tag k="place" v="farm" />
		<tag k="ssr:stedsnr" v="124775" />
	</node>
	<node id="-25822" lat="59.3394805526" lon="11.1318277763">
		<tag k="alt_name" v="Holen, nordre;Hæren" />
		<tag k="name" v="Nordre Holen" />
		<tag k="place" v="farm" />
		<tag k="ssr:stedsnr" v="124758" />
	</node>
	<node id="-25821" lat="59.3350000003" lon="11.1667777748">
		<tag k="name" v="Kinndalen" />
		<tag k="place" v="farm" />
		<tag k="ssr:stedsnr" v="124756" />
	</node>
	<node id="-25820" lat="59.1474249972" lon="11.2306000043">
		<tag k="fixme" v="consider place=hamlet" />
		<tag k="name" v="Slang" />
		<tag k="place" v="farm" />
		<tag k="ssr:stedsnr" v="124752" />
	</node>
	<node id="-25819" lat="59.1494333297" lon="11.1454527798">
		<tag k="alt_name" v="Kallsøy" />
		<tag k="name" v="Karlsøen" />
		<tag k="place" v="farm" />
		<tag k="ssr:stedsnr" v="124745" />
	</node>
	<node id="-25818" lat="59.3559777756" lon="11.150066675">
		<tag k="name" v="Åserød" />
		<tag k="place" v="farm" />
		<tag k="ssr:stedsnr" v="124714" />
	</node>
	<node id="-25817" lat="59.3516000019" lon="11.193099992">
		<tag k="name" v="Bergerud" />
		<tag k="place" v="farm" />
		<tag k="ssr:stedsnr" v="124708" />
	</node>
	<node id="-25816" lat="59.3184777768" lon="10.9854166626">
		<tag k="alt_name" v="Stenløkken" />
		<tag k="name" v="Steinløkka" />
		<tag k="place" v="farm" />
		<tag k="ssr:stedsnr" v="124368" />
	</node>
	<node id="-25815" lat="59.3047888863" lon="11.2831027736">
		<tag k="name" v="Røstad" />
		<tag k="place" v="farm" />
		<tag k="ssr:stedsnr" v="124000" />
	</node>
	<node id="-25814" lat="59.1986138925" lon="11.1517722219">
		<tag k="name" v="Kappelangården" />
		<tag k="place" v="farm" />
		<tag k="ssr:stedsnr" v="123992" />
	</node>
	<node id="-25813" lat="59.3247249963" lon="11.2570527802">
		<tag k="alt_name" v="Knatterudbroen" />
		<tag k="name" v="Brua" />
		<tag k="place" v="farm" />
		<tag k="ssr:stedsnr" v="123967" />
	</node>
	<node id="-25812" lat="59.1800999983" lon="11.1949083356">
		<tag k="name" v="Jørstad" />
		<tag k="place" v="farm" />
		<tag k="ssr:stedsnr" v="123963" />
	</node>
	<node id="-25810" lat="59.1660305542" lon="11.2312944415">
		<tag k="fixme" v="consider place=hamlet" />
		<tag k="name" v="Slang" />
		<tag k="place" v="farm" />
		<tag k="ssr:stedsnr" v="123958" />
	</node>
	<node id="-25809" lat="59.2528000044" lon="11.2315444419">
		<tag k="alt_name" v="Tveter søndre" />
		<tag k="name" v="Søndre Tveter" />
		<tag k="place" v="farm" />
		<tag k="ssr:stedsnr" v="123932" />
	</node>
	<node id="-25808" lat="59.2538000034" lon="11.2421749973">
		<tag k="name" v="Haugen" />
		<tag k="place" v="farm" />
		<tag k="ssr:stedsnr" v="123930" />
	</node>
	<node id="-25807" lat="59.2182327806" lon="11.1042433544">
		<tag k="fixme" v="consider place=hamlet" />
		<tag k="name" v="Stordal" />
		<tag k="place" v="farm" />
		<tag k="ssr:stedsnr" v="123929" />
	</node>
	<node id="-25806" lat="59.2177694403" lon="11.2439138806">
		<tag k="alt_name" v="Oremo" />
		<tag k="name" v="Ormo" />
		<tag k="place" v="farm" />
		<tag k="ssr:stedsnr" v="123906" />
	</node>
	<node id="-25805" lat="59.2735055543" lon="11.1152888869">
		<tag k="alt_name" v="Borregård Fabrikker" />
		<tag k="building" v="industrial" />
		<tag k="industrial" v="factory" />
		<tag k="name" v="Borregård" />
		<tag k="ssr:stedsnr" v="123900" />
	</node>
	<node id="-25804" lat="59.2762777781" lon="11.2342916607">
		<tag k="name" v="Rånes" />
		<tag k="place" v="farm" />
		<tag k="ssr:stedsnr" v="123888" />
	</node>
	<node id="-25803" lat="59.2092750025" lon="11.1321916586">
		<tag k="name" v="Gunnarstorp" />
		<tag k="place" v="farm" />
		<tag k="ssr:stedsnr" v="123885" />
	</node>
	<node id="-25801" lat="59.4000000036" lon="11.196030554">
		<tag k="name" v="Heden" />
		<tag k="place" v="farm" />
		<tag k="ssr:stedsnr" v="123854" />
	</node>
	<node id="-25800" lat="59.3455555526" lon="11.0349083262">
		<tag k="name" v="Isnes" />
		<tag k="place" v="farm" />
		<tag k="ssr:stedsnr" v="123523" />
	</node>
	<node id="-25799" lat="59.334111114" lon="11.0464777791">
		<tag k="name" v="Sandtangneset" />
		<tag k="place" v="farm" />
		<tag k="ssr:stedsnr" v="123512" />
	</node>
	<node id="-25798" lat="59.3404416672" lon="10.9988499936">
		<tag k="name" v="Ramstadbråten" />
		<tag k="place" v="isolated_dwelling" />
		<tag k="ssr:stedsnr" v="123508" />
	</node>
	<node id="-25797" lat="59.3238500039" lon="11.0844527832">
		<tag k="name" v="Fjellhagen" />
		<tag k="place" v="isolated_dwelling" />
		<tag k="ssr:stedsnr" v="123503" />
	</node>
	<node id="-25796" lat="59.2236499991" lon="11.2095527721">
		<tag k="name" v="Trosset" />
		<tag k="place" v="locality" />
		<tag k="ssr:stedsnr" v="122891" />
	</node>
	<node id="-25795" lat="59.1282250024" lon="11.1922749939">
		<tag k="name" v="Holmen" />
		<tag k="place" v="isolated_dwelling" />
		<tag k="ssr:stedsnr" v="122858" />
	</node>
	<node id="-25789" lat="59.3674972227" lon="10.9820361085">
		<tag k="name" v="Vestby" />
		<tag k="place" v="farm" />
		<tag k="ssr:stedsnr" v="113434" />
	</node>
	<node id="-25778" lat="59.2636833334" lon="11.272611113">
		<tag k="name" v="Oppsjøødegård" />
		<tag k="place" v="locality" />
		<tag k="ssr:stedsnr" v="83935" />
	</node>
	<node id="-25777" lat="59.266466669" lon="11.1723861131">
		<tag k="name" v="Nordby" />
		<tag k="place" v="farm" />
		<tag k="ssr:stedsnr" v="83927" />
	</node>
	<node id="-25776" lat="59.2510694486" lon="11.1853083274">
		<tag k="name" v="Bjerkebekk" />
		<tag k="place" v="farm" />
		<tag k="ssr:stedsnr" v="83918" />
	</node>
	<node id="-25775" lat="59.3800083337" lon="11.2121194496">
		<tag k="name" v="Høgheim" />
		<tag k="place" v="farm" />
		<tag k="ssr:stedsnr" v="83751" />
	</node>
	<node id="-25773" lat="59.3847222242" lon="11.1826194496">
		<tag k="name" v="Suteren" />
		<tag k="place" v="farm" />
		<tag k="ssr:stedsnr" v="83743" />
	</node>
	<node id="-25771" lat="59.3007222256" lon="11.2140249943">
		<tag k="name" v="Ødegården" />
		<tag k="place" v="farm" />
		<tag k="ssr:stedsnr" v="83446" />
	</node>
	<node id="-25770" lat="59.3025777739" lon="11.0590916735">
		<tag k="name" v="Nordre Bjørnstad" />
		<tag k="place" v="farm" />
		<tag k="ssr:stedsnr" v="83398" />
	</node>
	<node id="-25769" lat="59.3298333295" lon="11.1649722182">
		<tag k="name" v="Kulltorp" />
		<tag k="place" v="farm" />
		<tag k="ssr:stedsnr" v="83389" />
	</node>
	<node id="-25764" lat="59.275183329" lon="11.146783335">
		<tag k="name" v="Holtet" />
		<tag k="place" v="locality" />
		<tag k="ssr:stedsnr" v="83089" />
	</node>
	<node id="-25757" lat="59.2833916633" lon="11.286805564">
		<tag k="name" v="Solbakken" />
		<tag k="place" v="farm" />
		<tag k="ssr:stedsnr" v="83147" />
	</node>
	<node id="-25756" lat="59.2080666626" lon="11.2615333344">
		<tag k="name" v="Bekken" />
		<tag k="place" v="farm" />
		<tag k="ssr:stedsnr" v="83122" />
	</node>
	<node id="-25755" lat="59.21213611" lon="11.2303888944">
		<tag k="name" v="Gullberg" />
		<tag k="place" v="farm" />
		<tag k="ssr:stedsnr" v="83118" />
	</node>
	<node id="-25754" lat="59.1825083336" lon="11.2042833384">
		<tag k="name" v="Solheim" />
		<tag k="place" v="farm" />
		<tag k="ssr:stedsnr" v="83115" />
	</node>
	<node id="-25753" lat="59.2879444459" lon="11.1146749991">
		<tag k="name" v="Fritznerbakken" />
		<tag k="place" v="quarter" />
		<tag k="ssr:stedsnr" v="83113" />
	</node>
	<node id="-25751" lat="59.3621499963" lon="11.1568999968">
		<tag k="name" v="Jelsnes" />
		<tag k="place" v="farm" />
		<tag k="ssr:stedsnr" v="64780" />
	</node>
	<node id="-25750" lat="59.2810499966" lon="11.0746194444">
		<tag k="fixme" v="consider place=hamlet" />
		<tag k="name" v="Yven" />
		<tag k="place" v="farm" />
		<tag k="ssr:stedsnr" v="64380" />
	</node>
	<node id="-25749" lat="59.2819794135" lon="11.0243137347">
		<tag k="fixme" v="multiple name tags, choose one and add the other to alt_name" />
		<tag k="name" v="Evjebakken;Moa" />
		<tag k="place" v="farm" />
		<tag k="ssr:stedsnr" v="64377" />
	</node>
	<node id="-25747" lat="59.1794972233" lon="11.2229249982">
		<tag k="alt_name" v="Bessberg nedre;Bisseberg nedre" />
		<tag k="name" v="Nedre Bessberg" />
		<tag k="place" v="farm" />
		<tag k="ssr:stedsnr" v="63957" />
	</node>
	<node id="-25745" lat="59.1484250029" lon="11.2367749946">
		<tag k="name" v="Lislegård" />
		<tag k="place" v="farm" />
		<tag k="ssr:stedsnr" v="63778" />
	</node>
	<node id="-25743" lat="59.2720749959" lon="11.1559472223">
		<tag k="fixme" v="consider place=suburb, village or hamlet" />
		<tag k="name" v="Hafslund" />
		<tag k="place" v="quarter" />
		<tag k="ssr:stedsnr" v="63895" />
	</node>
	<node id="-25741" lat="59.276000004" lon="11.2584250022">
		<tag k="name" v="Sætre" />
		<tag k="place" v="farm" />
		<tag k="ssr:stedsnr" v="63879" />
	</node>
	<node id="-25740" lat="59.2765305524" lon="11.1861777761">
		<tag k="alt_name" v="Kløvingsten" />
		<tag k="name" v="Kløvningstein" />
		<tag k="place" v="farm" />
		<tag k="ssr:stedsnr" v="63878" />
	</node>
	<node id="-25738" lat="59.3679777756" lon="11.095025001">
		<tag k="name" v="Hassellia" />
		<tag k="place" v="farm" />
		<tag k="ssr:stedsnr" v="63846" />
	</node>
	<node id="-25736" lat="59.3312666677" lon="10.9609027706">
		<tag k="name" v="Mikken" />
		<tag k="place" v="locality" />
		<tag k="ssr:stedsnr" v="63480" />
	</node>
	<node id="-25735" lat="59.3338277744" lon="10.9874583327">
		<tag k="name" v="Melleby" />
		<tag k="place" v="farm" />
		<tag k="ssr:stedsnr" v="63477" />
	</node>
	<node id="-25734" lat="59.3273666709" lon="10.9883249975">
		<tag k="name" v="Slettmark" />
		<tag k="place" v="farm" />
		<tag k="ssr:stedsnr" v="63463" />
	</node>
	<node id="-25730" lat="59.3737978435" lon="11.0610528725">
		<tag k="alt_name" v="Harehjellen" />
		<tag k="name" v="Harahjellen" />
		<tag k="place" v="locality" />
		<tag k="ssr:stedsnr" v="63299" />
	</node>
	<node id="-25729" lat="59.3558888869" lon="11.0309138903">
		<tag k="name" v="Grøtet" />
		<tag k="place" v="locality" />
		<tag k="ssr:stedsnr" v="63275" />
	</node>
	<node id="-25728" lat="59.2005999976" lon="11.1895499938">
		<tag k="alt_name" v="Guslund, nedre" />
		<tag k="name" v="Nedre Guslund" />
		<tag k="place" v="farm" />
		<tag k="ssr:stedsnr" v="62981" />
	</node>
	<node id="-25727" lat="59.1889250043" lon="11.2402250044">
		<tag k="name" v="Holtet" />
		<tag k="place" v="farm" />
		<tag k="ssr:stedsnr" v="62966" />
	</node>
	<node id="-25726" lat="59.1861250026" lon="11.1518749964">
		<tag k="name" v="Komperød" />
		<tag k="place" v="farm" />
		<tag k="ssr:stedsnr" v="62955" />
	</node>
	<node id="-25724" lat="59.216900003" lon="11.2942750059">
		<tag k="alt_name" v="Sølekleiv, vestre;Sørleklev vestre" />
		<tag k="name" v="Vestre Sølekleiv" />
		<tag k="place" v="farm" />
		<tag k="ssr:stedsnr" v="62900" />
	</node>
	<node id="-25723" lat="59.208416668" lon="11.2788361153">
		<tag k="name" v="Rognemyr" />
		<tag k="place" v="farm" />
		<tag k="ssr:stedsnr" v="62888" />
	</node>
	<node id="-25722" lat="59.1217500023" lon="11.2054499936">
		<tag k="alt_name" v="Tange" />
		<tag k="name" v="Tangen" />
		<tag k="place" v="farm" />
		<tag k="ssr:stedsnr" v="62865" />
	</node>
	<node id="-25719" lat="59.2415250034" lon="11.1578750033">
		<tag k="name" v="Bjørnstad" />
		<tag k="place" v="farm" />
		<tag k="ssr:stedsnr" v="62593" />
	</node>
	<node id="-25718" lat="59.2456033565" lon="11.3069986415">
		<tag k="alt_name" v="Grinerød" />
		<tag k="name" v="Grinderød" />
		<tag k="place" v="farm" />
		<tag k="ssr:stedsnr" v="62584" />
	</node>
	<node id="-25713" lat="59.3103916673" lon="11.0115666652">
		<tag k="name" v="Åsheim" />
		<tag k="place" v="isolated_dwelling" />
		<tag k="ssr:stedsnr" v="52589" />
	</node>
	<node id="-25706" lat="59.3360138903" lon="10.9731499917">
		<tag k="name" v="Linbingen" />
		<tag k="place" v="isolated_dwelling" />
		<tag k="ssr:stedsnr" v="52290" />
	</node>
	<node id="-25696" lat="59.2697166658" lon="11.0721638968">
		<tag k="name" v="Yven" />
		<tag k="place" v="farm" />
		<tag k="ssr:stedsnr" v="42923" />
	</node>
	<node id="-25695" lat="59.3495777753" lon="11.1195638886">
		<tag k="name" v="Solberg" />
		<tag k="place" v="farm" />
		<tag k="ssr:stedsnr" v="42285" />
	</node>
	<node id="-25686" lat="59.3943666692" lon="11.1344777726">
		<tag k="name" v="Minge" />
		<tag k="place" v="farm" />
		<tag k="ssr:stedsnr" v="22678" />
	</node>
	<node id="-25683" lat="59.2363305546" lon="11.1543805565">
		<tag k="alt_name" v="Hauge nordre" />
		<tag k="name" v="Nordre Hauge" />
		<tag k="place" v="farm" />
		<tag k="ssr:stedsnr" v="22466" />
	</node>
	<node id="-25682" lat="59.149330555" lon="11.1491694469">
		<tag k="alt_name" v="Karlsøen østre" />
		<tag k="name" v="Østre Karlsøen" />
		<tag k="place" v="farm" />
		<tag k="ssr:stedsnr" v="22396" />
	</node>
	<node id="-25681" lat="59.1622666704" lon="11.1460083249">
		<tag k="alt_name" v="Berg søndre" />
		<tag k="name" v="Søndre Berg" />
		<tag k="place" v="farm" />
		<tag k="ssr:stedsnr" v="22395" />
	</node>
	<node id="-25679" lat="59.1619888846" lon="11.1563666674">
		<tag k="name" v="Ilekassa" />
		<tag k="place" v="isolated_dwelling" />
		<tag k="ssr:stedsnr" v="22390" />
	</node>
	<node id="-25678" lat="59.3079527793" lon="11.1028583376">
		<tag k="name" v="Markushytta" />
		<tag k="place" v="isolated_dwelling" />
		<tag k="ssr:stedsnr" v="22380" />
	</node>
	<node id="-25677" lat="59.329119443" lon="11.1473777804">
		<tag k="name" v="Finnestad" />
		<tag k="place" v="farm" />
		<tag k="ssr:stedsnr" v="22374" />
	</node>
	<node id="-25675" lat="59.3274805572" lon="11.1455666748">
		<tag k="name" v="Finnestad" />
		<tag k="place" v="farm" />
		<tag k="ssr:stedsnr" v="22365" />
	</node>
	<node id="-25674" lat="59.3005000039" lon="11.0653416626">
		<tag k="name" v="Krakestad" />
		<tag k="place" v="locality" />
		<tag k="ssr:stedsnr" v="22361" />
	</node>
	<node id="-25667" lat="59.3679416645" lon="11.1987583248">
		<tag k="name" v="Birkelund" />
		<tag k="place" v="locality" />
		<tag k="ssr:stedsnr" v="22343" />
	</node>
	<node id="-25666" lat="59.1930083372" lon="11.1980249948">
		<tag k="name" v="Torgauten" />
		<tag k="place" v="farm" />
		<tag k="ssr:stedsnr" v="22100" />
	</node>
	<node id="-25665" lat="59.2469944441" lon="11.2125555481">
		<tag k="leisure" v="pitch" />
		<tag k="name" v="Tveter idrettsplass" />
		<tag k="ssr:stedsnr" v="22092" />
	</node>
	<node id="-25663" lat="59.2722055547" lon="11.142477785">
		<tag k="amenity" v="school" />
		<tag k="name" v="Hafslund skole" />
		<tag k="ssr:stedsnr" v="22084" />
	</node>
	<node id="-25662" lat="59.1286499967" lon="11.1957111058">
		<tag k="name" v="Holmensalta" />
		<tag k="place" v="locality" />
		<tag k="ssr:stedsnr" v="22078" />
	</node>
	<node id="-25660" lat="59.2011805557" lon="11.1762444392">
		<tag k="name" v="Strandløkka" />
		<tag k="place" v="farm" />
		<tag k="ssr:stedsnr" v="22066" />
	</node>
	<node id="-25658" lat="59.1919027801" lon="11.1804027717">
		<tag k="name" v="Valberg" />
		<tag k="place" v="farm" />
		<tag k="ssr:stedsnr" v="22060" />
	</node>
	<node id="-25657" lat="59.3074416654" lon="11.2348416608">
		<tag k="alt_name" v="Spydevoll vestre" />
		<tag k="name" v="Vestre Spydevoll" />
		<tag k="place" v="farm" />
		<tag k="ssr:stedsnr" v="22048" />
	</node>
	<node id="-25656" lat="59.1575527818" lon="11.1884111148">
		<tag k="name" v="Rødskasa" />
		<tag k="place" v="farm" />
		<tag k="ssr:stedsnr" v="22045" />
	</node>
	<node id="-25653" lat="59.2291587706" lon="11.2427946327">
		<tag k="name" v="Rønneldkasa (Hytta)" />
		<tag k="place" v="isolated_dwelling" />
		<tag k="ssr:stedsnr" v="22126" />
	</node>
	<node id="-25652" lat="59.3450999993" lon="11.2028805498">
		<tag k="fixme" v="multiple name tags, choose one and add the other to alt_name" />
		<tag k="name" v="Belsbymoen;Moen" />
		<tag k="place" v="farm" />
		<tag k="ssr:stedsnr" v="3798" />
	</node>
	<node id="-25651" lat="59.3300027788" lon="11.208947217">
		<tag k="alt_name" v="Skofteby" />
		<tag k="name" v="Haugen" />
		<tag k="place" v="farm" />
		<tag k="ssr:stedsnr" v="3778" />
	</node>
	<node id="-25650" lat="59.3518805578" lon="11.1320750068">
		<tag k="name" v="Kolstad" />
		<tag k="place" v="farm" />
		<tag k="ssr:stedsnr" v="3745" />
	</node>
	<node id="-25649" lat="59.3498750037" lon="11.2333055551">
		<tag k="name" v="Harehytta" />
		<tag k="place" v="isolated_dwelling" />
		<tag k="ssr:stedsnr" v="3743" />
	</node>
	<node id="-25648" lat="59.3087555594" lon="11.2099722311">
		<tag k="name" v="Haven" />
		<tag k="place" v="farm" />
		<tag k="ssr:stedsnr" v="2987" />
	</node>
	<node id="-25647" lat="59.2945500017" lon="11.2526722198">
		<tag k="alt_name" v="Vestgard" />
		<tag k="name" v="Vestgård" />
		<tag k="place" v="farm" />
		<tag k="ssr:stedsnr" v="2970" />
	</node>
	<node id="-25646" lat="59.170814766" lon="11.1589957501">
		<tag k="alt_name" v="Ravneng" />
		<tag k="name" v="Ramneng" />
		<tag k="place" v="farm" />
		<tag k="ssr:stedsnr" v="2956" />
	</node>
	<node id="-25645" lat="59.3146777767" lon="11.2050555519">
		<tag k="name" v="Berget" />
		<tag k="place" v="farm" />
		<tag k="ssr:stedsnr" v="2938" />
	</node>
	<node id="-25643" lat="59.2632499968" lon="11.2673499987">
		<tag k="name" v="Messingkasa" />
		<tag k="place" v="farm" />
		<tag k="ssr:stedsnr" v="2928" />
	</node>
	<node id="-25642" lat="59.29341667" lon="11.2034527844">
		<tag k="name" v="Kampenes" />
		<tag k="place" v="farm" />
		<tag k="ssr:stedsnr" v="2898" />
	</node>
	<node id="-25640" lat="59.1579916671" lon="11.1820888946">
		<tag k="alt_name" v="Bjørnhu" />
		<tag k="name" v="Bjørnehue" />
		<tag k="place" v="farm" />
		<tag k="ssr:stedsnr" v="2782" />
	</node>
	<node id="-25639" lat="59.2980833375" lon="11.0121916667">
		<tag k="alt_name" v="Bukten" />
		<tag k="name" v="Bukta" />
		<tag k="place" v="farm" />
		<tag k="ssr:stedsnr" v="2446" />
	</node>
	<node id="-25638" lat="59.2983638849" lon="11.0240416674">
		<tag k="name" v="Vistebråten" />
		<tag k="place" v="locality" />
		<tag k="ssr:stedsnr" v="2444" />
	</node>
	<node id="-25637" lat="59.3137833359" lon="11.049191668">
		<tag k="amenity" v="school" />
		<tag k="name" v="Kalnes jordbruksskole" />
		<tag k="ssr:stedsnr" v="2424" />
	</node>
	<node id="-25636" lat="59.2137250251" lon="11.1659057253">
		<tag k="fixme" v="consider place=hamlet" />
		<tag k="name" v="Solberg" />
		<tag k="place" v="farm" />
		<tag k="ssr:stedsnr" v="2333" />
	</node>
	<node id="-25633" lat="59.222781472" lon="11.1021554857">
		<tag k="fixme" v="consider place=hamlet" />
		<tag k="name" v="Stordal" />
		<tag k="place" v="farm" />
		<tag k="ssr:stedsnr" v="1916" />
	</node>
	<node id="-25631" lat="59.2163499996" lon="11.2709999922">
		<tag k="name" v="Gåserød" />
		<tag k="place" v="farm" />
		<tag k="ssr:stedsnr" v="1893" />
	</node>
	<node id="-25630" lat="59.2120249971" lon="11.2509499959">
		<tag k="name" v="Sønsterød" />
		<tag k="place" v="farm" />
		<tag k="ssr:stedsnr" v="1892" />
	</node>
	<node id="-25629" lat="59.2136249981" lon="11.2152305624">
		<tag k="alt_name" v="Bergerhaugen" />
		<tag k="name" v="Bergerhaug" />
		<tag k="place" v="farm" />
		<tag k="ssr:stedsnr" v="1891" />
	</node>
	<node id="-25626" lat="59.2401961073" lon="11.2367381762">
		<tag k="name" v="Delås" />
		<tag k="place" v="farm" />
		<tag k="ssr:stedsnr" v="1592" />
	</node>
	<node id="-25625" lat="59.3681055599" lon="10.9834805541">
		<tag k="name" v="Vestby" />
		<tag k="place" v="farm" />
		<tag k="ssr:stedsnr" v="2284" />
	</node>
	<node id="-25624" lat="59.3633500039" lon="11.0335027857">
		<tag k="fixme" v="consider place=hamlet" />
		<tag k="name" v="Agnalt" />
		<tag k="place" v="farm" />
		<tag k="ssr:stedsnr" v="2282" />
	</node>
	<node id="-25623" lat="59.3505055544" lon="10.9997055497">
		<tag k="name" v="Dalen" />
		<tag k="place" v="farm" />
		<tag k="ssr:stedsnr" v="2266" />
	</node>
	<node id="-25622" lat="59.3583555545" lon="11.0268083275">
		<tag k="name" v="Bingen" />
		<tag k="place" v="farm" />
		<tag k="ssr:stedsnr" v="2258" />
	</node>
	<node id="-25611" lat="59.3251766937" lon="10.9629736037">
		<tag k="alt_name" v="Desiderias lund" />
		<tag k="leisure" v="park" />
		<tag k="name" v="Desiderialunden" />
		<tag k="ssr:stedsnr" v="962424" />
	</node>
	<node id="-25608" lat="59.2751472208" lon="11.208444444">
		<tag k="name" v="Feriehjem" />
		<tag k="place" v="isolated_dwelling" />
		<tag k="ssr:stedsnr" v="933920" />
	</node>
	<node id="-25607" lat="59.2407972256" lon="11.1553750088">
		<tag k="alt_name" v="Bjørnstad søndre" />
		<tag k="name" v="Søndre Bjørnstad" />
		<tag k="place" v="farm" />
		<tag k="ssr:stedsnr" v="933526" />
	</node>
	<node id="-25606" lat="59.233347221" lon="11.1442750035">
		<tag k="alt_name" v="Jarle øvre" />
		<tag k="name" v="Øvre Jarle" />
		<tag k="place" v="farm" />
		<tag k="ssr:stedsnr" v="933525" />
	</node>
	<node id="-25605" lat="59.1676888929" lon="11.1315222166">
		<tag k="name" v="Lysås" />
		<tag k="place" v="isolated_dwelling" />
		<tag k="ssr:stedsnr" v="933511" />
	</node>
	<node id="-25601" lat="59.3007888909" lon="11.096847224">
		<tag k="name" v="Gjelkeren" />
		<tag k="place" v="isolated_dwelling" />
		<tag k="ssr:stedsnr" v="933428" />
	</node>
	<node id="-25594" lat="59.2862222231" lon="11.1155694376">
		<tag k="name" v="Gleng" />
		<tag k="place" v="suburb" />
		<tag k="ssr:stedsnr" v="933125" />
	</node>
	<node id="-25585" lat="59.2232495658" lon="11.1028835453">
		<tag k="alt_name" v="Storedal mellem" />
		<tag k="name" v="Mellom-Storedal" />
		<tag k="place" v="farm" />
		<tag k="ssr:stedsnr" v="933024" />
	</node>
	<node id="-25583" lat="59.2765583359" lon="11.0836861075">
		<tag k="fixme" v="consider place=hamlet" />
		<tag k="name" v="Alvim" />
		<tag k="place" v="farm" />
		<tag k="ssr:stedsnr" v="933006" />
	</node>
	<node id="-25581" lat="59.1906444489" lon="11.1867361085">
		<tag k="amenity" v="nursing_home" />
		<tag k="name" v="Høysand bad" />
		<tag k="ssr:stedsnr" v="932109" />
	</node>
	<node id="-25569" lat="59.279197222" lon="11.2721861103">
		<tag k="name" v="Nord-Buer" />
		<tag k="place" v="locality" />
		<tag k="ssr:stedsnr" v="872926" />
	</node>
	<node id="-25565" lat="59.2507194414" lon="11.1872416722">
		<tag k="name" v="Bodal" />
		<tag k="place" v="farm" />
		<tag k="ssr:stedsnr" v="872913" />
	</node>
	<node id="-25564" lat="59.3909777784" lon="11.1774583256">
		<tag k="name" v="Valbjørk" />
		<tag k="place" v="farm" />
		<tag k="ssr:stedsnr" v="872767" />
	</node>
	<node id="-25563" lat="59.3897750023" lon="11.1770500009">
		<tag k="name" v="Lillehovden" />
		<tag k="place" v="farm" />
		<tag k="ssr:stedsnr" v="872765" />
	</node>
	<node id="-25562" lat="59.38358056" lon="11.2158138837">
		<tag k="name" v="Kokkumbråten" />
		<tag k="place" v="farm" />
		<tag k="ssr:stedsnr" v="872757" />
	</node>
	<node id="-25561" lat="59.3904194466" lon="11.1359027711">
		<tag k="alt_name" v="Minge;Minge nedre" />
		<tag k="name" v="Nedre Minge" />
		<tag k="place" v="farm" />
		<tag k="ssr:stedsnr" v="872707" />
	</node>
	<node id="-25559" lat="59.2002416637" lon="11.1019111101">
		<tag k="alt_name" v="Gangestad østre" />
		<tag k="name" v="Østre Gangestad" />
		<tag k="place" v="farm" />
		<tag k="ssr:stedsnr" v="872480" />
	</node>
	<node id="-25558" lat="59.1869260489" lon="11.0989686552">
		<tag k="alt_name" v="Lilleng østre" />
		<tag k="name" v="Østre Lilleng" />
		<tag k="place" v="farm" />
		<tag k="ssr:stedsnr" v="872472" />
	</node>
	<node id="-25556" lat="59.3331333304" lon="11.1310583308">
		<tag k="alt_name" v="Holen mellem" />
		<tag k="name" v="Mellom-Holen" />
		<tag k="place" v="farm" />
		<tag k="ssr:stedsnr" v="872463" />
	</node>
	<node id="-25555" lat="59.2973694432" lon="11.0951416717">
		<tag k="name" v="Råkil" />
		<tag k="place" v="isolated_dwelling" />
		<tag k="ssr:stedsnr" v="872414" />
	</node>
	<node id="-25553" lat="59.3471944437" lon="11.1963194455">
		<tag k="name" v="Sirihytta" />
		<tag k="place" v="isolated_dwelling" />
		<tag k="ssr:stedsnr" v="872406" />
	</node>
	<node id="-25552" lat="59.2546361124" lon="11.1441499987">
		<tag k="name" v="Steinor" />
		<tag k="place" v="farm" />
		<tag k="ssr:stedsnr" v="872177" />
	</node>
	<node id="-25551" lat="59.2709444434" lon="11.152224993">
		<tag k="building" v="industrial" />
		<tag k="industrial" v="factory" />
		<tag k="name" v="Østfoldmeieriet" />
		<tag k="ssr:stedsnr" v="872176" />
	</node>
	<node id="-25549" lat="59.222516669" lon="11.1745750022">
		<tag k="alt_name" v="Nålum østre" />
		<tag k="name" v="Østre Nålum" />
		<tag k="place" v="farm" />
		<tag k="ssr:stedsnr" v="872153" />
	</node>
	<node id="-25547" lat="59.2894472192" lon="11.1505638846">
		<tag k="name" v="Helgeby" />
		<tag k="place" v="farm" />
		<tag k="ssr:stedsnr" v="872116" />
	</node>
	<node id="-25542" lat="59.3528444418" lon="11.0649555598">
		<tag k="name" v="Trøskenhøltet" />
		<tag k="place" v="farm" />
		<tag k="ssr:stedsnr" v="872258" />
	</node>
	<node id="-25541" lat="59.2514972199" lon="11.1456972195">
		<tag k="name" v="Østli" />
		<tag k="place" v="farm" />
		<tag k="ssr:stedsnr" v="872067" />
	</node>
	<node id="-25540" lat="59.2031972239" lon="11.2080194496">
		<tag k="alt_name" v="Løkke østre" />
		<tag k="name" v="Østre Løkke" />
		<tag k="place" v="farm" />
		<tag k="ssr:stedsnr" v="872066" />
	</node>
	<node id="-25539" lat="59.1954000029" lon="11.1717111144">
		<tag k="fixme" v="consider place=suburb, village or hamlet" />
		<tag k="name" v="Kvastebyen" />
		<tag k="place" v="quarter" />
		<tag k="ssr:stedsnr" v="872062" />
	</node>
	<node id="-25538" lat="59.1943277781" lon="11.1746555579">
		<tag k="name" v="Bredvik" />
		<tag k="place" v="isolated_dwelling" />
		<tag k="ssr:stedsnr" v="872059" />
	</node>
	<node id="-25537" lat="59.2920777776" lon="11.0902388885">
		<tag k="name" v="Tuneheimen" />
		<tag k="ssr:stedsnr" v="872008" />
		<tag k="tourism" v="guest_house" />
	</node>
	<node id="-25536" lat="59.3276000009" lon="11.1484999986">
		<tag k="name" v="Finnestad" />
		<tag k="place" v="farm" />
		<tag k="ssr:stedsnr" v="853957" />
	</node>
	<node id="-25533" lat="59.3231758971" lon="11.210614393">
		<tag k="alt_name" v="Skaulund (Galteryggen)" />
		<tag k="name" v="Skoglund" />
		<tag k="place" v="farm" />
		<tag k="ssr:stedsnr" v="852958" />
	</node>
	<node id="-25532" lat="59.255849999" lon="11.2450972285">
		<tag k="fixme" v="consider place=hamlet" />
		<tag k="name" v="Tranemyr" />
		<tag k="place" v="farm" />
		<tag k="ssr:stedsnr" v="852907" />
	</node>
	<node id="-25531" lat="59.3765499988" lon="11.1850250005">
		<tag k="name" v="Ørka" />
		<tag k="place" v="farm" />
		<tag k="ssr:stedsnr" v="852862" />
	</node>
	<node id="-25527" lat="59.2469749984" lon="11.1842250019">
		<tag k="alt_name" v="Sandaker" />
		<tag k="name" v="Sandåker" />
		<tag k="place" v="farm" />
		<tag k="ssr:stedsnr" v="851575" />
	</node>
	<node id="-25522" lat="59.3265555541" lon="10.9884749997">
		<tag k="name" v="Bjerkeli" />
		<tag k="place" v="farm" />
		<tag k="ssr:stedsnr" v="841322" />
	</node>
	<node id="-25518" lat="59.38972222" lon="11.2025611189">
		<tag k="name" v="Gryte" />
		<tag k="place" v="farm" />
		<tag k="ssr:stedsnr" v="933756" />
	</node>
	<node id="-25517" lat="59.2007861103" lon="11.0987222169">
		<tag k="alt_name" v="Gangestad østre" />
		<tag k="name" v="Østre Gangestad" />
		<tag k="place" v="farm" />
		<tag k="ssr:stedsnr" v="933478" />
	</node>
	<node id="-25516" lat="59.205974998" lon="11.1204250016">
		<tag k="name" v="Husemarken" />
		<tag k="place" v="locality" />
		<tag k="ssr:stedsnr" v="933474" />
	</node>
	<node id="-25515" lat="59.3351766635" lon="11.0740401878">
		<tag k="name" v="Hansehytta" />
		<tag k="place" v="isolated_dwelling" />
		<tag k="ssr:stedsnr" v="933468" />
	</node>
	<node id="-25514" lat="59.1470166661" lon="11.126475008">
		<tag k="name" v="Bergli" />
		<tag k="place" v="isolated_dwelling" />
		<tag k="ssr:stedsnr" v="933461" />
	</node>
	<node id="-25512" lat="59.3622805598" lon="11.0773055619">
		<tag k="alt_name" v="Stang øvre" />
		<tag k="name" v="Øvre Stang" />
		<tag k="place" v="farm" />
		<tag k="ssr:stedsnr" v="933281" />
	</node>
	<node id="-25509" lat="59.3649638909" lon="11.2039499939">
		<tag k="name" v="Gressum" />
		<tag k="place" v="farm" />
		<tag k="ssr:stedsnr" v="933391" />
	</node>
	<node id="-25507" lat="59.3691333326" lon="11.2209027814">
		<tag k="alt_name" v="Bø store" />
		<tag k="name" v="Store Bø" />
		<tag k="place" v="farm" />
		<tag k="ssr:stedsnr" v="933380" />
	</node>
	<node id="-25506" lat="59.2639611138" lon="11.1402972296">
		<tag k="fixme" v="consider place=suburb, village or hamlet" />
		<tag k="name" v="Nordberg" />
		<tag k="place" v="quarter" />
		<tag k="ssr:stedsnr" v="933178" />
	</node>
	<node id="-25505" lat="59.2922111145" lon="11.2822500003">
		<tag k="name" v="Løkkebråten" />
		<tag k="place" v="farm" />
		<tag k="ssr:stedsnr" v="933163" />
	</node>
	<node id="-25503" lat="59.2912833306" lon="11.0620638901">
		<tag k="alt_name" v="Grålum lille" />
		<tag k="name" v="Lille Grålum" />
		<tag k="place" v="farm" />
		<tag k="ssr:stedsnr" v="933002" />
	</node>
	<node id="-25502" lat="59.3404277737" lon="11.1035694408">
		<tag k="name" v="Bjørnlandhaugen" />
		<tag k="place" v="farm" />
		<tag k="ssr:stedsnr" v="933263" />
	</node>
	<node id="-25499" lat="59.1378166665" lon="11.2153194395">
		<tag k="amenity" v="school" />
		<tag k="name" v="Brårød skole" />
		<tag k="ssr:stedsnr" v="933081" />
	</node>
	<node id="-25498" lat="59.2520111105" lon="11.1542555638">
		<tag k="alt_name" v="Klavestad søndre" />
		<tag k="name" v="Søndre Klavestad" />
		<tag k="place" v="farm" />
		<tag k="ssr:stedsnr" v="933073" />
	</node>
	<node id="-25497" lat="59.2039999956" lon="11.1726472217">
		<tag k="name" v="Lien" />
		<tag k="place" v="farm" />
		<tag k="ssr:stedsnr" v="933066" />
	</node>
	<node id="-25496" lat="59.2024527774" lon="11.2038333323">
		<tag k="name" v="Albany" />
		<tag k="place" v="farm" />
		<tag k="ssr:stedsnr" v="932071" />
	</node>
	<node id="-25495" lat="59.1869138886" lon="11.2116583339">
		<tag k="alt_name" v="Øyestad søndre" />
		<tag k="name" v="Søndre Øyestad" />
		<tag k="place" v="farm" />
		<tag k="ssr:stedsnr" v="932067" />
	</node>
	<node id="-25494" lat="59.2697611119" lon="11.1789222188">
		<tag k="alt_name" v="Bjørnemyr søndre" />
		<tag k="name" v="Søndre Bjørnemyr" />
		<tag k="place" v="farm" />
		<tag k="ssr:stedsnr" v="811909" />
	</node>
	<node id="-25493" lat="59.2669222223" lon="11.1695611152">
		<tag k="amenity" v="townhall" />
		<tag k="name" v="Skjeberg rådhus" />
		<tag k="ssr:stedsnr" v="811906" />
	</node>
	<node id="-25492" lat="59.1440833376" lon="11.2282972158">
		<tag k="name" v="Humlekjær" />
		<tag k="place" v="isolated_dwelling" />
		<tag k="ssr:stedsnr" v="811049" />
	</node>
	<node id="-25491" lat="59.2079333351" lon="11.0972638933">
		<tag k="alt_name" v="Brandstorp østre" />
		<tag k="name" v="Østre Brandstorp" />
		<tag k="place" v="farm" />
		<tag k="ssr:stedsnr" v="811032" />
	</node>
	<node id="-25490" lat="59.2754861102" lon="11.0823777701">
		<tag k="alt_name" v="Alvim vestre" />
		<tag k="name" v="Vestre Alvim" />
		<tag k="place" v="farm" />
		<tag k="ssr:stedsnr" v="811023" />
	</node>
	<node id="-25489" lat="59.2927805532" lon="11.0789333289">
		<tag k="alt_name" v="Tune store" />
		<tag k="name" v="Store Tune" />
		<tag k="place" v="farm" />
		<tag k="ssr:stedsnr" v="811022" />
	</node>
	<node id="-25488" lat="59.2739333318" lon="11.1048777804">
		<tag k="name" v="Borregaard hovedgård" />
		<tag k="place" v="isolated_dwelling" />
		<tag k="ssr:stedsnr" v="811014" />
	</node>
	<node id="-25487" lat="59.2858861147" lon="11.1093333415">
		<tag k="amenity" v="hospital" />
		<tag k="name" v="Sarpsborg sykehus" />
		<tag k="ssr:stedsnr" v="811013" />
	</node>
	<node id="-25486" lat="59.2904750021" lon="11.0666833361">
		<tag k="fixme" v="consider place=suburb, village or hamlet" />
		<tag k="name" v="Grålum" />
		<tag k="place" v="quarter" />
		<tag k="ssr:stedsnr" v="811012" />
	</node>
	<node id="-25485" lat="59.2797972253" lon="11.0648250081">
		<tag k="fixme" v="consider place=hamlet" />
		<tag k="name" v="Yven" />
		<tag k="place" v="village" />
		<tag k="ssr:stedsnr" v="811011" />
	</node>
	<node id="-25483" lat="59.3288250034" lon="11.0942749968">
		<tag k="name" v="Pinås" />
		<tag k="place" v="farm" />
		<tag k="ssr:stedsnr" v="792961" />
	</node>
	<node id="-25482" lat="59.3383749979" lon="11.096391662">
		<tag k="name" v="Bjørnland" />
		<tag k="place" v="farm" />
		<tag k="ssr:stedsnr" v="792774" />
	</node>
	<node id="-25481" lat="59.3607666651" lon="11.1743333289">
		<tag k="name" v="Sagbråten" />
		<tag k="place" v="farm" />
		<tag k="ssr:stedsnr" v="792754" />
	</node>
	<node id="-25480" lat="59.3218499991" lon="11.2232999927">
		<tag k="name" v="Klemsdal" />
		<tag k="place" v="farm" />
		<tag k="ssr:stedsnr" v="791956" />
	</node>
	<node id="-25479" lat="59.177975002" lon="11.1515500072">
		<tag k="name" v="Delebekk" />
		<tag k="place" v="quarter" />
		<tag k="ssr:stedsnr" v="791954" />
	</node>
	<node id="-25476" lat="59.3853500018" lon="11.1952777761">
		<tag k="alt_name" v="Køya (Rud)" />
		<tag k="name" v="Rud" />
		<tag k="place" v="farm" />
		<tag k="ssr:stedsnr" v="791827" />
	</node>
	<node id="-25474" lat="59.3908805559" lon="11.1107749931">
		<tag k="name" v="Myra" />
		<tag k="place" v="farm" />
		<tag k="ssr:stedsnr" v="791823" />
	</node>
	<node id="-25473" lat="59.1536861075" lon="11.1870277714">
		<tag k="name" v="Løkkevika" />
		<tag k="place" v="isolated_dwelling" />
		<tag k="ssr:stedsnr" v="791812" />
	</node>
	<node id="-25472" lat="59.328974999" lon="10.9559999993">
		<tag k="fixme" v="consider place=hamlet" />
		<tag k="name" v="Sandenga" />
		<tag k="place" v="farm" />
		<tag k="ssr:stedsnr" v="791416" />
	</node>
	<node id="-25471" lat="59.3206611108" lon="10.9799361067">
		<tag k="name" v="Ryenbråten" />
		<tag k="place" v="farm" />
		<tag k="ssr:stedsnr" v="791405" />
	</node>
	<node id="-25469" lat="59.1326776822" lon="11.1975621536">
		<tag k="name" v="Stranda" />
		<tag k="place" v="isolated_dwelling" />
		<tag k="ssr:stedsnr" v="790775" />
	</node>
	<node id="-25463" lat="59.3359249982" lon="11.1062222276">
		<tag k="alt_name" v="Lilleaker" />
		<tag k="name" v="Lilleåker" />
		<tag k="place" v="farm" />
		<tag k="ssr:stedsnr" v="914799" />
	</node>
	<node id="-25461" lat="59.1424220797" lon="11.230033228">
		<tag k="alt_name" v="Slang østre" />
		<tag k="name" v="Østre Slang" />
		<tag k="place" v="farm" />
		<tag k="ssr:stedsnr" v="770268" />
	</node>
	<node id="-25460" lat="59.3802250042" lon="11.1573722217">
		<tag k="alt_name" v="Mingedalen" />
		<tag k="name" v="Mingedal" />
		<tag k="place" v="farm" />
		<tag k="ssr:stedsnr" v="913871" />
	</node>
	<node id="-25459" lat="59.4007750021" lon="11.096499997">
		<tag k="name" v="Rådal" />
		<tag k="place" v="farm" />
		<tag k="ssr:stedsnr" v="913829" />
	</node>
	<node id="-25458" lat="59.3405250022" lon="11.1184888914">
		<tag k="name" v="Holleby" />
		<tag k="place" v="farm" />
		<tag k="ssr:stedsnr" v="913800" />
	</node>
	<node id="-25457" lat="59.3434500028" lon="11.1436972267">
		<tag k="name" v="Blakkestad" />
		<tag k="place" v="farm" />
		<tag k="ssr:stedsnr" v="913797" />
	</node>
	<node id="-25456" lat="59.3412500023" lon="11.2207000084">
		<tag k="name" v="Askersby" />
		<tag k="place" v="farm" />
		<tag k="ssr:stedsnr" v="913793" />
	</node>
	<node id="-25455" lat="59.341525003" lon="11.2653805587">
		<tag k="name" v="Tomte" />
		<tag k="place" v="farm" />
		<tag k="ssr:stedsnr" v="913791" />
	</node>
	<node id="-25454" lat="59.1557749988" lon="11.2263750018">
		<tag k="fixme" v="consider place=hamlet" />
		<tag k="name" v="Slang" />
		<tag k="place" v="farm" />
		<tag k="ssr:stedsnr" v="913786" />
	</node>
	<node id="-25452" lat="59.3538444419" lon="11.1779805526">
		<tag k="name" v="Sæli" />
		<tag k="place" v="farm" />
		<tag k="ssr:stedsnr" v="913737" />
	</node>
	<node id="-25451" lat="59.3274055555" lon="11.0380250014">
		<tag k="name" v="Sandtangen" />
		<tag k="place" v="farm" />
		<tag k="ssr:stedsnr" v="913432" />
	</node>
	<node id="-25449" lat="59.2904250036" lon="11.0236194505">
		<tag k="fixme" v="consider place=hamlet" />
		<tag k="name" v="Vister" />
		<tag k="place" v="farm" />
		<tag k="ssr:stedsnr" v="913388" />
	</node>
	<node id="-25448" lat="59.2838388853" lon="11.0638527704">
		<tag k="name" v="Yvenbråten" />
		<tag k="place" v="isolated_dwelling" />
		<tag k="ssr:stedsnr" v="913370" />
	</node>
	<node id="-25446" lat="59.2659833363" lon="11.03496667">
		<tag k="name" v="Greåker" />
		<tag k="place" v="village" />
		<tag k="ssr:stedsnr" v="913119" />
	</node>
	<node id="-25445" lat="59.2001999985" lon="11.1023249929">
		<tag k="fixme" v="consider place=hamlet" />
		<tag k="name" v="Gangestad" />
		<tag k="place" v="farm" />
		<tag k="ssr:stedsnr" v="912989" />
	</node>
	<node id="-25444" lat="59.3025333321" lon="11.2362083294">
		<tag k="name" v="Spydevoll" />
		<tag k="place" v="farm" />
		<tag k="ssr:stedsnr" v="912987" />
	</node>
	<node id="-25443" lat="59.3069638851" lon="11.1946305635">
		<tag k="alt_name" v="Berby søndre;Bergby søndre;Berreby søndre" />
		<tag k="name" v="Søndre Berby" />
		<tag k="place" v="farm" />
		<tag k="ssr:stedsnr" v="912981" />
	</node>
	<node id="-25442" lat="59.2974249992" lon="11.2117000013">
		<tag k="alt_name" v="Isefossen" />
		<tag k="building" v="industrial" />
		<tag k="industrial" v="factory" />
		<tag k="name" v="Ise bruk" />
		<tag k="ssr:stedsnr" v="912969" />
	</node>
	<node id="-25441" lat="59.2975249958" lon="11.2331972206">
		<tag k="alt_name" v="Næss" />
		<tag k="name" v="Nes" />
		<tag k="place" v="farm" />
		<tag k="ssr:stedsnr" v="912967" />
	</node>
	<node id="-25440" lat="59.1767722228" lon="11.2258000059">
		<tag k="alt_name" v="Bessberg, s;Bisseberg nedre" />
		<tag k="name" v="Søndre Bessberg" />
		<tag k="place" v="farm" />
		<tag k="ssr:stedsnr" v="912957" />
	</node>
	<node id="-25439" lat="59.1646750017" lon="11.1190000078">
		<tag k="alt_name" v="Hammaren;Hammaren2;Hammaren22;Hammaren222" />
		<tag k="name" v="Helle" />
		<tag k="place" v="isolated_dwelling" />
		<tag k="ssr:stedsnr" v="912953" />
	</node>
	<node id="-25438" lat="59.3120027752" lon="11.2355805477">
		<tag k="name" v="Spydevoll" />
		<tag k="place" v="hamlet" />
		<tag k="ssr:stedsnr" v="912945" />
	</node>
	<node id="-25437" lat="59.171349998" lon="11.2255000057">
		<tag k="name" v="Heltorp" />
		<tag k="place" v="farm" />
		<tag k="ssr:stedsnr" v="912944" />
	</node>
	<node id="-25436" lat="59.2665916712" lon="11.1847333252">
		<tag k="name" v="Fjelldal" />
		<tag k="place" v="farm" />
		<tag k="ssr:stedsnr" v="912933" />
	</node>
	<node id="-25435" lat="59.2179527771" lon="11.1141249934">
		<tag k="name" v="Stabbetorp" />
		<tag k="place" v="farm" />
		<tag k="ssr:stedsnr" v="912915" />
	</node>
	<node id="-25434" lat="59.2137499972" lon="11.2978000007">
		<tag k="alt_name" v="Sølekleiv, østre;Sørleklev østre" />
		<tag k="name" v="Østre Sølekleiv" />
		<tag k="place" v="farm" />
		<tag k="ssr:stedsnr" v="912905" />
	</node>
	<node id="-25433" lat="59.2133500034" lon="11.2898000003">
		<tag k="name" v="Demmene" />
		<tag k="place" v="farm" />
		<tag k="ssr:stedsnr" v="912904" />
	</node>
	<node id="-25432" lat="59.2143249969" lon="11.2511250005">
		<tag k="name" v="Rød" />
		<tag k="place" v="farm" />
		<tag k="ssr:stedsnr" v="912902" />
	</node>
	<node id="-25431" lat="59.2836000008" lon="11.2117027706">
		<tag k="alt_name" v="Fløviken" />
		<tag k="name" v="Fløvika" />
		<tag k="place" v="farm" />
		<tag k="ssr:stedsnr" v="912901" />
	</node>
	<node id="-25430" lat="59.2675805554" lon="11.1787250042">
		<tag k="name" v="Surfellingen" />
		<tag k="place" v="farm" />
		<tag k="ssr:stedsnr" v="912888" />
	</node>
	<node id="-25428" lat="59.3357249962" lon="10.9914722213">
		<tag k="name" v="Ramstad" />
		<tag k="place" v="farm" />
		<tag k="ssr:stedsnr" v="912478" />
	</node>
	<node id="-25427" lat="59.3035055522" lon="11.0799416679">
		<tag k="alt_name" v="Stenrød" />
		<tag k="name" v="Stenerød" />
		<tag k="place" v="farm" />
		<tag k="ssr:stedsnr" v="912409" />
	</node>
	<node id="-25426" lat="59.1910499972" lon="11.1444250044">
		<tag k="name" v="Strandbekk" />
		<tag k="place" v="farm" />
		<tag k="ssr:stedsnr" v="911963" />
	</node>
	<node id="-25425" lat="59.1352944452" lon="11.2162527805">
		<tag k="alt_name" v="Ingerøen" />
		<tag k="name" v="Ingerøy" />
		<tag k="old_name" v="Ingerød" />
		<tag k="place" v="farm" />
		<tag k="ssr:stedsnr" v="911772" />
	</node>
	<node id="-25424" lat="59.2482972179" lon="11.1444166664">
		<tag k="alt_name" v="Navestad, s" />
		<tag k="name" v="Søndre Navestad" />
		<tag k="place" v="farm" />
		<tag k="ssr:stedsnr" v="911599" />
	</node>
	<node id="-25423" lat="59.2415750012" lon="11.3176999918">
		<tag k="name" v="Slora" />
		<tag k="place" v="isolated_dwelling" />
		<tag k="ssr:stedsnr" v="911592" />
	</node>
	<node id="-25422" lat="59.2550527796" lon="11.1822083414">
		<tag k="alt_name" v="Klavestad østre" />
		<tag k="name" v="Østre Klavestad" />
		<tag k="place" v="farm" />
		<tag k="ssr:stedsnr" v="750909" />
	</node>
	<node id="-25421" lat="59.2644111143" lon="11.1686972292">
		<tag k="amenity" v="school" />
		<tag k="name" v="Borgen barneskole" />
		<tag k="ssr:stedsnr" v="750907" />
	</node>
	<node id="-25420" lat="59.3355972192" lon="11.1146583287">
		<tag k="amenity" v="school" />
		<tag k="name" v="Holleby skole" />
		<tag k="ssr:stedsnr" v="750410" />
	</node>
	<node id="-25412" lat="59.3285694482" lon="11.0429111104">
		<tag k="name" v="Østtorp" />
		<tag k="place" v="farm" />
		<tag k="ssr:stedsnr" v="901438" />
	</node>
	<node id="-25411" lat="59.324894446" lon="10.996691662">
		<tag k="name" v="Sandholtet" />
		<tag k="place" v="farm" />
		<tag k="ssr:stedsnr" v="901322" />
	</node>
	<node id="-25404" lat="59.2043250015" lon="11.1223500073">
		<tag k="name" v="Unneberg" />
		<tag k="place" v="farm" />
		<tag k="ssr:stedsnr" v="730982" />
	</node>
	<node id="-25403" lat="59.1959500038" lon="11.1625750042">
		<tag k="name" v="Risum" />
		<tag k="place" v="farm" />
		<tag k="ssr:stedsnr" v="730981" />
	</node>
	<node id="-25402" lat="59.1801500045" lon="11.2422999987">
		<tag k="name" v="Myrvoll" />
		<tag k="place" v="farm" />
		<tag k="ssr:stedsnr" v="730966" />
	</node>
	<node id="-25401" lat="59.1774249967" lon="11.2362999955">
		<tag k="alt_name" v="Bissebergkasa" />
		<tag k="name" v="Kasa" />
		<tag k="place" v="farm" />
		<tag k="ssr:stedsnr" v="730965" />
	</node>
	<node id="-25399" lat="59.1636134892" lon="11.1460485933">
		<tag k="name" v="Berg" />
		<tag k="place" v="farm" />
		<tag k="ssr:stedsnr" v="730955" />
	</node>
	<node id="-25398" lat="59.3180091168" lon="10.9809071121">
		<tag k="alt_name" v="Øtne nordre;Øtne;Nordre Utne" />
		<tag k="fixme" v="multiple name tags, choose one and add the other to alt_name" />
		<tag k="name" v="Utne;Nordre Øtne" />
		<tag k="place" v="farm" />
		<tag k="ssr:stedsnr" v="724413" />
	</node>
	<node id="-25396" lat="59.31333333" lon="11.0025138803">
		<tag k="name" v="Ringsrød" />
		<tag k="place" v="farm" />
		<tag k="ssr:stedsnr" v="719605" />
	</node>
	<node id="-25392" lat="59.3207749959" lon="10.9769250046">
		<tag k="name" v="Haugen" />
		<tag k="place" v="farm" />
		<tag k="ssr:stedsnr" v="719411" />
	</node>
	<node id="-25383" lat="59.1977972183" lon="11.0862805547">
		<tag k="name" v="Grønnerød" />
		<tag k="place" v="farm" />
		<tag k="ssr:stedsnr" v="669310" />
	</node>
	<node id="-25381" lat="59.2468749977" lon="11.2161249944">
		<tag k="name" v="Tveterskogen" />
		<tag k="place" v="farm" />
		<tag k="ssr:stedsnr" v="668606" />
	</node>
	<node id="-25379" lat="59.2135310717" lon="11.1657009051">
		<tag k="alt_name" v="Solberg søndre" />
		<tag k="name" v="Søndre Solberg" />
		<tag k="place" v="farm" />
		<tag k="ssr:stedsnr" v="648304" />
	</node>
	<node id="-25378" lat="59.3231490002" lon="11.1577946391">
		<tag k="alt_name" v="Sulusnes" />
		<tag k="name" v="Sulesnes" />
		<tag k="place" v="farm" />
		<tag k="ssr:stedsnr" v="731964" />
	</node>
	<node id="-25377" lat="59.3780749976" lon="11.2189250046">
		<tag k="name" v="Snoppestad" />
		<tag k="place" v="farm" />
		<tag k="ssr:stedsnr" v="731866" />
	</node>
	<node id="-25376" lat="59.3658000002" lon="11.2102222161">
		<tag k="name" v="Bråten" />
		<tag k="place" v="farm" />
		<tag k="ssr:stedsnr" v="731851" />
	</node>
	<node id="-25375" lat="59.3832000028" lon="11.2276250029">
		<tag k="alt_name" v="Fosselia" />
		<tag k="name" v="Fosslia" />
		<tag k="place" v="farm" />
		<tag k="ssr:stedsnr" v="731819" />
	</node>
	<node id="-25374" lat="59.3912749955" lon="11.169700007">
		<tag k="name" v="Hovden" />
		<tag k="place" v="farm" />
		<tag k="ssr:stedsnr" v="731817" />
	</node>
	<node id="-25373" lat="59.3468500036" lon="11.1631722222">
		<tag k="alt_name" v="Vestgård" />
		<tag k="name" v="Vestgard" />
		<tag k="place" v="farm" />
		<tag k="ssr:stedsnr" v="731800" />
	</node>
	<node id="-25372" lat="59.3436250008" lon="11.1662472235">
		<tag k="name" v="Strømnes" />
		<tag k="place" v="farm" />
		<tag k="ssr:stedsnr" v="731799" />
	</node>
	<node id="-25370" lat="59.3325249959" lon="11.1310777847">
		<tag k="name" v="Holen" />
		<tag k="place" v="farm" />
		<tag k="ssr:stedsnr" v="731780" />
	</node>
	<node id="-25368" lat="59.3478749986" lon="11.2650972272">
		<tag k="name" v="Årbu" />
		<tag k="place" v="farm" />
		<tag k="ssr:stedsnr" v="731743" />
	</node>
	<node id="-25366" lat="59.3110499975" lon="11.0206611165">
		<tag k="name" v="Tyssil" />
		<tag k="place" v="isolated_dwelling" />
		<tag k="ssr:stedsnr" v="731379" />
	</node>
	<node id="-25365" lat="59.1692138852" lon="11.2341861032">
		<tag k="alt_name" v="Knatterød" />
		<tag k="name" v="Knatterrød" />
		<tag k="place" v="farm" />
		<tag k="ssr:stedsnr" v="730949" />
	</node>
	<node id="-25364" lat="59.2687" lon="11.3230694425">
		<tag k="name" v="Børt" />
		<tag k="place" v="farm" />
		<tag k="ssr:stedsnr" v="730935" />
	</node>
	<node id="-25362" lat="59.2605972193" lon="11.1306638922">
		<tag k="fixme" v="multiple name tags, choose one and add the other to alt_name; consider place=suburb, village or hamlet" />
		<tag k="name" v="Bede;Navestad" />
		<tag k="place" v="quarter" />
		<tag k="ssr:stedsnr" v="730926" />
	</node>
	<node id="-25361" lat="59.2918277782" lon="11.2248999944">
		<tag k="name" v="Verket" />
		<tag k="place" v="farm" />
		<tag k="ssr:stedsnr" v="730909" />
	</node>
	<node id="-25359" lat="59.2924249962" lon="11.1850027844">
		<tag k="name" v="Sagdalen" />
		<tag k="place" v="farm" />
		<tag k="ssr:stedsnr" v="730906" />
	</node>
	<node id="-25358" lat="59.2174999997" lon="11.2118499951">
		<tag k="name" v="Løkka" />
		<tag k="place" v="farm" />
		<tag k="ssr:stedsnr" v="730905" />
	</node>
	<node id="-25357" lat="59.2155000037" lon="11.1450000067">
		<tag k="alt_name" v="Borgeli" />
		<tag k="name" v="Borgli" />
		<tag k="place" v="farm" />
		<tag k="ssr:stedsnr" v="730901" />
	</node>
	<node id="-25356" lat="59.2143250046" lon="11.1166499919">
		<tag k="name" v="Skjeltorp" />
		<tag k="place" v="farm" />
		<tag k="ssr:stedsnr" v="730899" />
	</node>
	<node id="-25355" lat="59.2114749964" lon="11.1902500034">
		<tag k="name" v="Skjeberg" />
		<tag k="place" v="village" />
		<tag k="ssr:stedsnr" v="730888" />
	</node>
	<node id="-25351" lat="59.2204277754" lon="11.2294750058">
		<tag k="fixme" v="consider place=hamlet" />
		<tag k="name" v="Rønneld" />
		<tag k="place" v="farm" />
		<tag k="ssr:stedsnr" v="730281" />
	</node>
	<node id="-25349" lat="59.3470805529" lon="11.0179361142">
		<tag k="name" v="Valbrekka" />
		<tag k="place" v="isolated_dwelling" />
		<tag k="ssr:stedsnr" v="730501" />
	</node>
	<node id="-25348" lat="59.3978222179" lon="11.1998527792">
		<tag k="name" v="Engebråten" />
		<tag k="place" v="farm" />
		<tag k="ssr:stedsnr" v="730146" />
	</node>
	<node id="-25347" lat="59.235509541" lon="11.1818612715">
		<tag k="fixme" v="consider place=hamlet" />
		<tag k="name" v="Vik" />
		<tag k="place" v="farm" />
		<tag k="ssr:stedsnr" v="729924" />
	</node>
	<node id="-25346" lat="59.2352499957" lon="11.175774995">
		<tag k="name" v="Foss" />
		<tag k="place" v="farm" />
		<tag k="ssr:stedsnr" v="729923" />
	</node>
	<node id="-25345" lat="59.2271527745" lon="11.231274992">
		<tag k="name" v="Bråten" />
		<tag k="place" v="isolated_dwelling" />
		<tag k="ssr:stedsnr" v="729907" />
	</node>
	<node id="-25344" lat="59.2431999976" lon="11.2110083371">
		<tag k="name" v="Hellene" />
		<tag k="place" v="farm" />
		<tag k="ssr:stedsnr" v="729587" />
	</node>
	<node id="-25343" lat="59.247474997" lon="11.1823472198">
		<tag k="name" v="Ranum" />
		<tag k="place" v="farm" />
		<tag k="ssr:stedsnr" v="729586" />
	</node>
	<node id="-25341" lat="59.2480750003" lon="11.3127249963">
		<tag k="alt_name" v="Sørlesætre" />
		<tag k="name" v="Sørlisæter" />
		<tag k="place" v="farm" />
		<tag k="ssr:stedsnr" v="729580" />
	</node>
	<node id="-25340" lat="59.2904833313" lon="11.2016138813">
		<tag k="name" v="Kampenesbråten" />
		<tag k="place" v="farm" />
		<tag k="ssr:stedsnr" v="629953" />
	</node>
	<node id="-25339" lat="59.2778333359" lon="11.2734111189">
		<tag k="name" v="Simenkasa" />
		<tag k="place" v="locality" />
		<tag k="ssr:stedsnr" v="629925" />
	</node>
	<node id="-25337" lat="59.382361114" lon="11.1050222254">
		<tag k="name" v="Olahytta" />
		<tag k="place" v="isolated_dwelling" />
		<tag k="ssr:stedsnr" v="629706" />
	</node>
	<node id="-25336" lat="59.1898833301" lon="11.1312583357">
		<tag k="name" v="Sture" />
		<tag k="place" v="farm" />
		<tag k="ssr:stedsnr" v="629476" />
	</node>
	<node id="-25335" lat="59.3329833369" lon="11.0965027858">
		<tag k="name" v="Hornås" />
		<tag k="place" v="farm" />
		<tag k="ssr:stedsnr" v="629418" />
	</node>
	<node id="-25334" lat="59.2933571975" lon="11.058963646">
		<tag k="name" v="Brønjusbråten" />
		<tag k="place" v="locality" />
		<tag k="ssr:stedsnr" v="629415" />
	</node>
	<node id="-25331" lat="59.3095277816" lon="11.1316138877">
		<tag k="amenity" v="sports_centre" />
		<tag k="name" v="Sportshallen" />
		<tag k="ssr:stedsnr" v="629505" />
	</node>
	<node id="-25330" lat="59.3690944475" lon="11.2355916643">
		<tag k="alt_name" v="Bø lille" />
		<tag k="name" v="Lille Bø" />
		<tag k="place" v="farm" />
		<tag k="ssr:stedsnr" v="629369" />
	</node>
	<node id="-25329" lat="59.3680555573" lon="11.2012249942">
		<tag k="name" v="Sinkerud" />
		<tag k="place" v="locality" />
		<tag k="ssr:stedsnr" v="629361" />
	</node>
	<node id="-25325" lat="59.302977775" lon="11.2268027716">
		<tag k="name" v="Håkafoss" />
		<tag k="place" v="farm" />
		<tag k="ssr:stedsnr" v="629061" />
	</node>
	<node id="-25321" lat="59.2502083358" lon="11.1454333304">
		<tag k="alt_name" v="Navestad søndre" />
		<tag k="name" v="Søndre Navestad" />
		<tag k="place" v="farm" />
		<tag k="ssr:stedsnr" v="629177" />
	</node>
	<node id="-25320" lat="59.2722249995" lon="11.3355611189">
		<tag k="alt_name" v="Langsholt vestre" />
		<tag k="name" v="Vestre Langsholt" />
		<tag k="place" v="farm" />
		<tag k="ssr:stedsnr" v="629154" />
	</node>
	<node id="-25317" lat="59.2796888874" lon="11.1112027835">
		<tag k="alt_name" v="Kulsåsparken" />
		<tag k="leisure" v="park" />
		<tag k="name" v="Kulåsparken" />
		<tag k="ssr:stedsnr" v="629105" />
	</node>
	<node id="-25316" lat="59.2128638877" lon="11.230061117">
		<tag k="alt_name" v="Lilleby søndre" />
		<tag k="name" v="Søndre Lilleby" />
		<tag k="place" v="farm" />
		<tag k="ssr:stedsnr" v="628119" />
	</node>
	<node id="-25315" lat="59.1413666695" lon="11.1956611098">
		<tag k="alt_name" v="Grimsøy østre" />
		<tag k="name" v="Østre Grimsøy" />
		<tag k="place" v="farm" />
		<tag k="ssr:stedsnr" v="628077" />
	</node>
	<node id="-25314" lat="59.1907364387" lon="11.1779410794">
		<tag k="name" v="Bryggen" />
		<tag k="place" v="farm" />
		<tag k="ssr:stedsnr" v="628067" />
	</node>
	<node id="-25313" lat="59.3573499991" lon="11.2512250077">
		<tag k="name" v="Brenne" />
		<tag k="place" v="farm" />
		<tag k="ssr:stedsnr" v="615793" />
	</node>
	<node id="-25312" lat="59.292213891" lon="11.0258388837">
		<tag k="alt_name" v="Vister nordre" />
		<tag k="name" v="Nordre Vister" />
		<tag k="place" v="farm" />
		<tag k="ssr:stedsnr" v="719725" />
	</node>
	<node id="-25308" lat="59.3914250015" lon="11.2147722261">
		<tag k="name" v="Berger" />
		<tag k="place" v="farm" />
		<tag k="ssr:stedsnr" v="609794" />
	</node>
	<node id="-25307" lat="59.3874249964" lon="11.1526472278">
		<tag k="alt_name" v="Kallesten" />
		<tag k="name" v="Økern" />
		<tag k="place" v="farm" />
		<tag k="ssr:stedsnr" v="609793" />
	</node>
	<node id="-25305" lat="59.3387111087" lon="11.1909972196">
		<tag k="name" v="Dalane" />
		<tag k="place" v="isolated_dwelling" />
		<tag k="ssr:stedsnr" v="609774" />
	</node>
	<node id="-25304" lat="59.1481000039" lon="11.2347222262">
		<tag k="alt_name" v="Lobsgård" />
		<tag k="name" v="Losgård" />
		<tag k="place" v="farm" />
		<tag k="ssr:stedsnr" v="609752" />
	</node>
	<node id="-25303" lat="59.2865413422" lon="11.0258089074">
		<tag k="alt_name" v="Vister søndre" />
		<tag k="fixme" v="multiple name tags, choose one and add the other to alt_name" />
		<tag k="name" v="Viberg;Søndre Vister" />
		<tag k="place" v="farm" />
		<tag k="ssr:stedsnr" v="609392" />
	</node>
	<node id="-25302" lat="59.2964638897" lon="11.0138138916">
		<tag k="name" v="Lundestad" />
		<tag k="place" v="farm" />
		<tag k="ssr:stedsnr" v="609390" />
	</node>
	<node id="-25299" lat="59.2734805517" lon="11.0864638828">
		<tag k="building" v="industrial" />
		<tag k="industrial" v="factory" />
		<tag k="name" v="Yven" />
		<tag k="ssr:stedsnr" v="609103" />
	</node>
	<node id="-25298" lat="59.3004749965" lon="11.3063166618">
		<tag k="name" v="Fjellstad" />
		<tag k="place" v="farm" />
		<tag k="ssr:stedsnr" v="608992" />
	</node>
	<node id="-25297" lat="59.3133638871" lon="11.1574944381">
		<tag k="fixme" v="consider place=suburb, village or hamlet" />
		<tag k="name" v="Hasle" />
		<tag k="place" v="quarter" />
		<tag k="ssr:stedsnr" v="608985" />
	</node>
	<node id="-25295" lat="59.3258000042" lon="11.2061999933">
		<tag k="alt_name" v="Engen" />
		<tag k="name" v="Skoftebyenga" />
		<tag k="place" v="farm" />
		<tag k="ssr:stedsnr" v="608973" />
	</node>
	<node id="-25294" lat="59.3213805532" lon="11.1338166652">
		<tag k="alt_name" v="Magestein" />
		<tag k="name" v="Maugesten" />
		<tag k="place" v="farm" />
		<tag k="ssr:stedsnr" v="608955" />
	</node>
	<node id="-25293" lat="59.3120138881" lon="11.0012611078">
		<tag k="name" v="Sørli" />
		<tag k="place" v="farm" />
		<tag k="ssr:stedsnr" v="719599" />
	</node>
	<node id="-25292" lat="59.3284194462" lon="10.9875111076">
		<tag k="name" v="Bjerkeli" />
		<tag k="place" v="farm" />
		<tag k="ssr:stedsnr" v="719330" />
	</node>
	<node id="-25291" lat="59.3232666644" lon="10.9720083313">
		<tag k="name" v="Sandli" />
		<tag k="place" v="farm" />
		<tag k="ssr:stedsnr" v="719320" />
	</node>
	<node id="-25289" lat="59.2994805555" lon="11.0738111143">
		<tag k="alt_name" v="Lekevoll" />
		<tag k="name" v="Leikevoll" />
		<tag k="place" v="farm" />
		<tag k="ssr:stedsnr" v="608403" />
	</node>
	<node id="-25285" lat="59.1393499986" lon="11.2148999925">
		<tag k="name" v="Brårød" />
		<tag k="place" v="farm" />
		<tag k="ssr:stedsnr" v="607767" />
	</node>
	<node id="-25277" lat="59.2228542828" lon="11.1030698475">
		<tag k="alt_name" v="Storedal mellem" />
		<tag k="name" v="Mellom-Storedal" />
		<tag k="place" v="farm" />
		<tag k="ssr:stedsnr" v="588263" />
	</node>
	<node id="-25276" lat="59.1556000041" lon="11.2261000057">
		<tag k="alt_name" v="Slang nordre" />
		<tag k="name" v="Nordre Slang" />
		<tag k="place" v="farm" />
		<tag k="ssr:stedsnr" v="588255" />
	</node>
	<node id="-25273" lat="59.2022750018" lon="11.1990749919">
		<tag k="alt_name" v="Guslund, øvre" />
		<tag k="name" v="Øvre Guslund" />
		<tag k="place" v="farm" />
		<tag k="ssr:stedsnr" v="548999" />
	</node>
	<node id="-25272" lat="59.2452184287" lon="11.3048346342">
		<tag k="alt_name" v="Grinerød vestre" />
		<tag k="name" v="Vestre Grinerød" />
		<tag k="place" v="farm" />
		<tag k="ssr:stedsnr" v="537603" />
	</node>
	<node id="-25271" lat="59.318547222" lon="10.9728583307">
		<tag k="name" v="Utnehaugen" />
		<tag k="place" v="locality" />
		<tag k="ssr:stedsnr" v="537423" />
	</node>
	<node id="-25270" lat="59.3340405452" lon="11.0313858508">
		<tag k="name" v="Svartedal" />
		<tag k="place" v="isolated_dwelling" />
		<tag k="ssr:stedsnr" v="537417" />
	</node>
	<node id="-25267" lat="59.3817638878" lon="11.0697888912">
		<tag k="name" v="Torvet" />
		<tag k="place" v="farm" />
		<tag k="ssr:stedsnr" v="690736" />
	</node>
	<node id="-25263" lat="59.2445083318" lon="11.1270138922">
		<tag k="name" v="Skadalen" />
		<tag k="place" v="isolated_dwelling" />
		<tag k="ssr:stedsnr" v="690536" />
	</node>
	<node id="-25261" lat="59.2299155592" lon="11.1540305342">
		<tag k="alt_name" v="Flatberg øvre" />
		<tag k="name" v="Øvre Flatberg" />
		<tag k="place" v="farm" />
		<tag k="ssr:stedsnr" v="690534" />
	</node>
	<node id="-25258" lat="59.3135777785" lon="11.1969638961">
		<tag k="name" v="Nordstua" />
		<tag k="place" v="farm" />
		<tag k="ssr:stedsnr" v="690498" />
	</node>
	<node id="-25257" lat="59.1984972211" lon="11.1036249985">
		<tag k="alt_name" v="Gangestad østre" />
		<tag k="name" v="Østre Gangestad" />
		<tag k="place" v="farm" />
		<tag k="ssr:stedsnr" v="690479" />
	</node>
	<node id="-25249" lat="59.1597361124" lon="11.149333337">
		<tag k="name" v="Strand" />
		<tag k="place" v="isolated_dwelling" />
		<tag k="ssr:stedsnr" v="690447" />
	</node>
	<node id="-25246" lat="59.3167138868" lon="11.1505388946">
		<tag k="name" v="Saltskjær" />
		<tag k="place" v="locality" />
		<tag k="ssr:stedsnr" v="690427" />
	</node>
	<node id="-25243" lat="59.3404583294" lon="11.1643972285">
		<tag k="name" v="Strømnes" />
		<tag k="place" v="farm" />
		<tag k="ssr:stedsnr" v="690389" />
	</node>
	<node id="-25242" lat="59.3424828813" lon="11.273943576">
		<tag k="name" v="Knatterudfjellet" />
		<tag k="place" v="farm" />
		<tag k="ssr:stedsnr" v="690369" />
	</node>
	<node id="-25241" lat="59.3507361124" lon="11.1910861065">
		<tag k="name" v="Bergerud" />
		<tag k="place" v="farm" />
		<tag k="ssr:stedsnr" v="690355" />
	</node>
	<node id="-25237" lat="59.3735555528" lon="11.1272194463">
		<tag k="name" v="Kolstadhytta" />
		<tag k="place" v="isolated_dwelling" />
		<tag k="ssr:stedsnr" v="690328" />
	</node>
	<node id="-25235" lat="59.3511027736" lon="11.05765834">
		<tag k="name" v="Bukkesten" />
		<tag k="place" v="farm" />
		<tag k="ssr:stedsnr" v="690284" />
	</node>
	<node id="-25234" lat="59.2650611143" lon="11.1504722208">
		<tag k="fixme" v="consider place=suburb, village or hamlet" />
		<tag k="name" v="Borgenhaugen" />
		<tag k="place" v="quarter" />
		<tag k="ssr:stedsnr" v="690196" />
	</node>
	<node id="-25233" lat="59.2619694423" lon="11.1516638823">
		<tag k="alt_name" v="Borgen vestre" />
		<tag k="fixme" v="consider place=hamlet" />
		<tag k="name" v="Vestre Borgen" />
		<tag k="place" v="farm" />
		<tag k="ssr:stedsnr" v="690194" />
	</node>
	<node id="-25231" lat="59.2219305581" lon="11.1910861153">
		<tag k="name" v="Bekkevoll" />
		<tag k="place" v="isolated_dwelling" />
		<tag k="ssr:stedsnr" v="690156" />
	</node>
	<node id="-25229" lat="59.2306638872" lon="11.2485250057">
		<tag k="name" v="Vestre Sandbekk" />
		<tag k="place" v="isolated_dwelling" />
		<tag k="ssr:stedsnr" v="690150" />
	</node>
	<node id="-25228" lat="59.2316388858" lon="11.2398472151">
		<tag k="name" v="Rønneldhaugen" />
		<tag k="place" v="locality" />
		<tag k="ssr:stedsnr" v="690148" />
	</node>
	<node id="-25227" lat="59.2144166643" lon="11.1877388954">
		<tag k="name" v="Folkvang" />
		<tag k="place" v="farm" />
		<tag k="ssr:stedsnr" v="690147" />
	</node>
	<node id="-25226" lat="59.2672694472" lon="11.3381194474">
		<tag k="alt_name" v="Langsholt søndre" />
		<tag k="name" v="Søndre Langsholt" />
		<tag k="place" v="farm" />
		<tag k="ssr:stedsnr" v="690134" />
	</node>
	<node id="-25225" lat="59.2141222214" lon="11.2310055633">
		<tag k="alt_name" v="Lilleby nordre" />
		<tag k="name" v="Nordre Lilleby" />
		<tag k="place" v="farm" />
		<tag k="ssr:stedsnr" v="690131" />
	</node>
	<node id="-25222" lat="59.2790722204" lon="11.1233861123">
		<tag k="leisure" v="park" />
		<tag k="name" v="Ruinparken" />
		<tag k="ssr:stedsnr" v="690105" />
	</node>
	<node id="-25221" lat="59.1951638847" lon="11.2414638846">
		<tag k="name" v="Kleven" />
		<tag k="place" v="farm" />
		<tag k="ssr:stedsnr" v="690101" />
	</node>
	<node id="-25220" lat="59.2341861127" lon="11.2271305513">
		<tag k="name" v="Gyrifoten" />
		<tag k="place" v="farm" />
		<tag k="ssr:stedsnr" v="690094" />
	</node>
	<node id="-25219" lat="59.2422861145" lon="11.2094777863">
		<tag k="name" v="Lyngmo" />
		<tag k="place" v="farm" />
		<tag k="ssr:stedsnr" v="690093" />
	</node>
	<node id="-25217" lat="59.2775305585" lon="11.1377555545">
		<tag k="amenity" v="nursing_home" />
		<tag k="name" v="Rød" />
		<tag k="ssr:stedsnr" v="690086" />
	</node>
	<node id="-25213" lat="59.1418777794" lon="11.1872444408">
		<tag k="alt_name" v="Grimsøy vestre" />
		<tag k="name" v="Vestre Grimsøy" />
		<tag k="place" v="farm" />
		<tag k="ssr:stedsnr" v="690068" />
	</node>
	<node id="-25212" lat="59.1378777796" lon="11.2095916738">
		<tag k="name" v="Ilekasa" />
		<tag k="place" v="isolated_dwelling" />
		<tag k="ssr:stedsnr" v="690066" />
	</node>
	<node id="-25211" lat="59.2567111103" lon="11.1302666683">
		<tag k="name" v="Piplund" />
		<tag k="place" v="farm" />
		<tag k="ssr:stedsnr" v="690056" />
	</node>
	<node id="-25210" lat="59.2046583362" lon="11.2023138931">
		<tag k="alt_name" v="Løkke vestre" />
		<tag k="name" v="Vestre Løkke" />
		<tag k="place" v="farm" />
		<tag k="ssr:stedsnr" v="690048" />
	</node>
	<node id="-25208" lat="59.3068361098" lon="11.2240916722">
		<tag k="name" v="Slettevoll" />
		<tag k="place" v="farm" />
		<tag k="ssr:stedsnr" v="690045" />
	</node>
	<node id="-25206" lat="59.3113833356" lon="11.2418499929">
		<tag k="alt_name" v="Spydevoll østre" />
		<tag k="name" v="Østre Spydevoll" />
		<tag k="place" v="farm" />
		<tag k="ssr:stedsnr" v="690038" />
	</node>
	<node id="-25205" lat="59.1438138879" lon="11.1908777695">
		<tag k="name" v="Breidablikk" />
		<tag k="place" v="isolated_dwelling" />
		<tag k="ssr:stedsnr" v="690037" />
	</node>
	<node id="-25203" lat="59.2928361138" lon="11.0875666736">
		<tag k="name" v="Klokkerød" />
		<tag k="place" v="suburb" />
		<tag k="ssr:stedsnr" v="690030" />
	</node>
	<node id="-25202" lat="59.2127833366" lon="11.1043944366">
		<tag k="name" v="Bakkeli" />
		<tag k="place" v="farm" />
		<tag k="ssr:stedsnr" v="690028" />
	</node>
	<node id="-25200" lat="59.2241546363" lon="11.1053933797">
		<tag k="alt_name" v="Storedal nordre" />
		<tag k="name" v="Nordre Storedal" />
		<tag k="place" v="farm" />
		<tag k="ssr:stedsnr" v="690020" />
	</node>
	<node id="-25196" lat="59.2901194415" lon="11.1980972308">
		<tag k="name" v="Holtenga" />
		<tag k="place" v="farm" />
		<tag k="ssr:stedsnr" v="508912" />
	</node>
	<node id="-25194" lat="59.2835305565" lon="11.1747416632">
		<tag k="name" v="Elvestad" />
		<tag k="place" v="farm" />
		<tag k="ssr:stedsnr" v="508906" />
	</node>
	<node id="-25193" lat="59.3923777794" lon="11.1694333346">
		<tag k="alt_name" v="Hovden nordre" />
		<tag k="name" v="Nordre Hovden" />
		<tag k="place" v="farm" />
		<tag k="ssr:stedsnr" v="508739" />
	</node>
	<node id="-25192" lat="59.3883583359" lon="11.1700722243">
		<tag k="name" v="Hovden" />
		<tag k="place" v="farm" />
		<tag k="ssr:stedsnr" v="508737" />
	</node>
	<node id="-25190" lat="59.3690833321" lon="11.0967694471">
		<tag k="alt_name" v="Hassellia nordre" />
		<tag k="name" v="Nordre Hassellia" />
		<tag k="place" v="farm" />
		<tag k="ssr:stedsnr" v="508720" />
	</node>
	<node id="-25187" lat="59.20690278" lon="11.100647225">
		<tag k="alt_name" v="Brandstorp søndre" />
		<tag k="name" v="Søndre Brandstorp" />
		<tag k="place" v="farm" />
		<tag k="ssr:stedsnr" v="508488" />
	</node>
	<node id="-25184" lat="59.2806944485" lon="11.1181583386">
		<tag k="leisure" v="park" />
		<tag k="name" v="St. Marie plass" />
		<tag k="ssr:stedsnr" v="508089" />
	</node>
	<node id="-25181" lat="59.2803055543" lon="11.1486444526">
		<tag k="name" v="Skofterød" />
		<tag k="place" v="farm" />
		<tag k="ssr:stedsnr" v="487912" />
	</node>
	<node id="-25180" lat="59.2162249969" lon="11.1268777689">
		<tag k="alt_name" v="Øvre Skinne" />
		<tag k="name" v="Skinne" />
		<tag k="place" v="farm" />
		<tag k="ssr:stedsnr" v="487904" />
	</node>
	<node id="-25170" lat="59.3266759273" lon="11.1098504388">
		<tag k="fixme" v="consider place=hamlet" />
		<tag k="name" v="Sjøren" />
		<tag k="place" v="farm" />
		<tag k="ssr:stedsnr" v="671960" />
	</node>
	<node id="-25169" lat="59.3250333333" lon="11.1193249932">
		<tag k="fixme" v="consider place=hamlet" />
		<tag k="name" v="Sjøren" />
		<tag k="place" v="farm" />
		<tag k="ssr:stedsnr" v="671959" />
	</node>
	<node id="-25167" lat="59.2556249998" lon="11.1920138943">
		<tag k="alt_name" v="Halvorsrød" />
		<tag k="name" v="Halvardsrød" />
		<tag k="place" v="farm" />
		<tag k="ssr:stedsnr" v="670911" />
	</node>
	<node id="-25166" lat="59.3741499991" lon="11.2278499942">
		<tag k="name" v="Bøhaugen" />
		<tag k="place" v="farm" />
		<tag k="ssr:stedsnr" v="670867" />
	</node>
	<node id="-25164" lat="59.3245499959" lon="10.9693194426">
		<tag k="alt_name" v="Sanne" />
		<tag k="name" v="Sande" />
		<tag k="place" v="farm" />
		<tag k="ssr:stedsnr" v="670430" />
	</node>
	<node id="-25162" lat="59.2006365376" lon="11.2130576849">
		<tag k="fixme" v="consider place=hamlet" />
		<tag k="name" v="Voll" />
		<tag k="place" v="farm" />
		<tag k="ssr:stedsnr" v="669999" />
	</node>
	<node id="-25161" lat="59.2985500021" lon="11.2863416646">
		<tag k="name" v="Mattisbråten" />
		<tag k="place" v="farm" />
		<tag k="ssr:stedsnr" v="669994" />
	</node>
	<node id="-25160" lat="59.307016667" lon="11.2286999955">
		<tag k="name" v="Vestvoll" />
		<tag k="place" v="farm" />
		<tag k="ssr:stedsnr" v="669989" />
	</node>
	<node id="-25159" lat="59.3106499993" lon="11.1927000028">
		<tag k="alt_name" v="Berby nordre;Bergby nordre" />
		<tag k="name" v="Nordre Berby" />
		<tag k="place" v="farm" />
		<tag k="ssr:stedsnr" v="669981" />
	</node>
	<node id="-25156" lat="59.2663083351" lon="11.3393527698">
		<tag k="alt_name" v="Langsholt søndre" />
		<tag k="name" v="Søndre Langsholt" />
		<tag k="place" v="farm" />
		<tag k="ssr:stedsnr" v="669925" />
	</node>
	<node id="-25155" lat="59.2591500017" lon="11.3313972278">
		<tag k="name" v="Grøvle" />
		<tag k="place" v="farm" />
		<tag k="ssr:stedsnr" v="669907" />
	</node>
	<node id="-25153" lat="59.2208000008" lon="11.1944750059">
		<tag k="name" v="Heia" />
		<tag k="place" v="farm" />
		<tag k="ssr:stedsnr" v="669888" />
	</node>
	<node id="-25152" lat="59.2086736824" lon="11.2469229659">
		<tag k="alt_name" v="Sørle" />
		<tag k="name" v="Søle" />
		<tag k="place" v="hamlet" />
		<tag k="ssr:stedsnr" v="669874" />
	</node>
	<node id="-25151" lat="59.2075499986" lon="11.1776749924">
		<tag k="alt_name" v="Hornnes" />
		<tag k="name" v="Hornes" />
		<tag k="place" v="farm" />
		<tag k="ssr:stedsnr" v="669872" />
	</node>
	<node id="-25150" lat="59.2098777784" lon="11.1140500004">
		<tag k="name" v="Lilledal" />
		<tag k="place" v="farm" />
		<tag k="ssr:stedsnr" v="669871" />
	</node>
	<node id="-25149" lat="59.2136499954" lon="11.0975750068">
		<tag k="alt_name" v="Pirkimbakk" />
		<tag k="name" v="Perkumbakk" />
		<tag k="place" v="farm" />
		<tag k="ssr:stedsnr" v="669870" />
	</node>
	<node id="-25148" lat="59.3333111117" lon="10.9689861083">
		<tag k="name" v="Solli" />
		<tag k="place" v="farm" />
		<tag k="ssr:stedsnr" v="669477" />
	</node>
	<node id="-25144" lat="59.1918111109" lon="11.1076083419">
		<tag k="name" v="Ås" />
		<tag k="place" v="farm" />
		<tag k="ssr:stedsnr" v="668969" />
	</node>
	<node id="-25140" lat="59.293402777" lon="11.0565722218">
		<tag k="alt_name" v="Nethus" />
		<tag k="name" v="Netthus" />
		<tag k="place" v="farm" />
		<tag k="ssr:stedsnr" v="464020" />
	</node>
	<node id="-25138" lat="59.3953277742" lon="11.1846305505">
		<tag k="name" v="Furuholmen" />
		<tag k="place" v="farm" />
		<tag k="ssr:stedsnr" v="447715" />
	</node>
	<node id="-25135" lat="59.3833972256" lon="11.2074055543">
		<tag k="name" v="Utengen" />
		<tag k="place" v="farm" />
		<tag k="ssr:stedsnr" v="447708" />
	</node>
	<node id="-25134" lat="59.4007944431" lon="11.2022805488">
		<tag k="name" v="Engebråten" />
		<tag k="place" v="farm" />
		<tag k="ssr:stedsnr" v="447637" />
	</node>
	<node id="-25133" lat="59.1865361115" lon="11.0966750052">
		<tag k="alt_name" v="Lilleng vestre" />
		<tag k="name" v="Vestre Lilleng" />
		<tag k="place" v="farm" />
		<tag k="ssr:stedsnr" v="447417" />
	</node>
	<node id="-25131" lat="59.3668361087" lon="11.2096500057">
		<tag k="name" v="Bråten" />
		<tag k="place" v="farm" />
		<tag k="ssr:stedsnr" v="447330" />
	</node>
	<node id="-25126" lat="59.217361111" lon="11.1892722225">
		<tag k="name" v="Slettevoll" />
		<tag k="place" v="farm" />
		<tag k="ssr:stedsnr" v="447130" />
	</node>
	<node id="-25124" lat="59.2657361084" lon="11.3425249959">
		<tag k="name" v="Romåsen" />
		<tag k="place" v="farm" />
		<tag k="ssr:stedsnr" v="447127" />
	</node>
	<node id="-25123" lat="59.2088555513" lon="11.2526777794">
		<tag k="name" v="Snekketorp" />
		<tag k="place" v="farm" />
		<tag k="ssr:stedsnr" v="447124" />
	</node>
	<node id="-25122" lat="59.1809249973" lon="11.2089083276">
		<tag k="name" v="Høyli" />
		<tag k="place" v="farm" />
		<tag k="ssr:stedsnr" v="447119" />
	</node>
	<node id="-25121" lat="59.1731000039" lon="11.2200555618">
		<tag k="name" v="Bakkehaugen" />
		<tag k="place" v="farm" />
		<tag k="ssr:stedsnr" v="447116" />
	</node>
	<node id="-25120" lat="59.286802779" lon="11.1376583396">
		<tag k="name" v="Skarpnord" />
		<tag k="place" v="farm" />
		<tag k="ssr:stedsnr" v="447115" />
	</node>
	<node id="-25118" lat="59.2841805528" lon="11.1348472203">
		<tag k="name" v="Huken" />
		<tag k="place" v="farm" />
		<tag k="ssr:stedsnr" v="447112" />
	</node>
	<node id="-25115" lat="59.3270888859" lon="10.9526638825">
		<tag k="alt_name" v="Sandengen vestre" />
		<tag k="name" v="Vestre Sandengen" />
		<tag k="place" v="locality" />
		<tag k="ssr:stedsnr" v="659220" />
	</node>
	<node id="-25114" lat="59.2896472179" lon="11.041666669">
		<tag k="alt_name" v="Opstad nordre" />
		<tag k="name" v="Nordre Opstad" />
		<tag k="place" v="farm" />
		<tag k="ssr:stedsnr" v="658743" />
	</node>
	<node id="-25108" lat="59.3612638898" lon="10.9996027811">
		<tag k="name" v="Skauge" />
		<tag k="place" v="farm" />
		<tag k="ssr:stedsnr" v="658444" />
	</node>
	<node id="-25102" lat="59.2557499971" lon="11.3215222144">
		<tag k="alt_name" v="Brodal" />
		<tag k="name" v="Brudal" />
		<tag k="place" v="farm" />
		<tag k="ssr:stedsnr" v="427908" />
	</node>
	<node id="-25100" lat="59.3069277763" lon="11.0573638903">
		<tag k="name" v="Bjor" />
		<tag k="place" v="farm" />
		<tag k="ssr:stedsnr" v="427429" />
	</node>
	<node id="-25098" lat="59.2354027805" lon="11.1027500072">
		<tag k="name" v="Huken" />
		<tag k="place" v="farm" />
		<tag k="ssr:stedsnr" v="426926" />
	</node>
	<node id="-25097" lat="59.2115888893" lon="11.288544452">
		<tag k="name" v="Smedhytta" />
		<tag k="place" v="farm" />
		<tag k="ssr:stedsnr" v="416708" />
	</node>
	<node id="-25094" lat="59.2458249987" lon="11.1295694362">
		<tag k="name" v="Kleva" />
		<tag k="place" v="farm" />
		<tag k="ssr:stedsnr" v="508539" />
	</node>
	<node id="-25093" lat="59.2408527757" lon="11.1269083247">
		<tag k="name" v="Skadalsmyra" />
		<tag k="place" v="farm" />
		<tag k="ssr:stedsnr" v="508538" />
	</node>
	<node id="-25089" lat="59.2993083305" lon="11.0740972308">
		<tag k="name" v="Bjørnstad" />
		<tag k="place" v="farm" />
		<tag k="ssr:stedsnr" v="508423" />
	</node>
	<node id="-25088" lat="59.3746305592" lon="11.1700277738">
		<tag k="name" v="Jelsnes-Ødegård" />
		<tag k="place" v="farm" />
		<tag k="ssr:stedsnr" v="508371" />
	</node>
	<node id="-25087" lat="59.3767388918" lon="11.1633944441">
		<tag k="name" v="Jelsnes-Ødegård" />
		<tag k="place" v="farm" />
		<tag k="ssr:stedsnr" v="508299" />
	</node>
	<node id="-25086" lat="59.3612694426" lon="11.0805749932">
		<tag k="name" v="Lenane" />
		<tag k="place" v="farm" />
		<tag k="ssr:stedsnr" v="508286" />
	</node>
	<node id="-25080" lat="59.3135333369" lon="11.2269777807">
		<tag k="name" v="Sikkeland" />
		<tag k="place" v="farm" />
		<tag k="ssr:stedsnr" v="508047" />
	</node>
	<node id="-25079" lat="59.2281578221" lon="11.1572173262">
		<tag k="alt_name" v="Flateberg nedre" />
		<tag k="name" v="Nedre Flateberg" />
		<tag k="place" v="farm" />
		<tag k="ssr:stedsnr" v="508035" />
	</node>
	<node id="-25078" lat="59.2921111085" lon="11.0927916651">
		<tag k="amenity" v="school" />
		<tag k="name" v="Valaskjold ungdomsskole" />
		<tag k="ssr:stedsnr" v="508034" />
	</node>
	<node id="-25075" lat="59.2757666651" lon="11.0671361032">
		<tag k="name" v="Vesteng" />
		<tag k="place" v="farm" />
		<tag k="ssr:stedsnr" v="508002" />
	</node>
	<node id="-25074" lat="59.2864055598" lon="11.0972805548">
		<tag k="leisure" v="pitch" />
		<tag k="name" v="Sarpsborg stadion" />
		<tag k="ssr:stedsnr" v="508001" />
	</node>
	<node id="-25073" lat="59.1759972213" lon="11.111816665">
		<tag k="name" v="Ørebekk" />
		<tag k="ssr:stedsnr" v="507450" />
		<tag k="tourism" v="camp_site" />
	</node>
	<node id="-25072" lat="59.172377779" lon="11.1614833338">
		<tag k="name" v="Ravnenglunden" />
		<tag k="place" v="neighbourhood" />
		<tag k="ssr:stedsnr" v="507448" />
	</node>
	<node id="-25070" lat="59.1940944484" lon="11.1244111087">
		<tag k="alt_name" v="Vestberg østre" />
		<tag k="name" v="Østre Vestberg" />
		<tag k="place" v="farm" />
		<tag k="ssr:stedsnr" v="507438" />
	</node>
	<node id="-25069" lat="59.1988527739" lon="11.1016694377">
		<tag k="alt_name" v="Gangestad vestre" />
		<tag k="name" v="Vestre Gangestad" />
		<tag k="place" v="farm" />
		<tag k="ssr:stedsnr" v="507422" />
	</node>
	<node id="-25068" lat="59.2542388889" lon="11.1398861108">
		<tag k="alt_name" v="Navestad nordre" />
		<tag k="name" v="Nordre Navestad" />
		<tag k="place" v="farm" />
		<tag k="ssr:stedsnr" v="507165" />
	</node>
	<node id="-25067" lat="59.2619108916" lon="11.1565452376">
		<tag k="alt_name" v="Borgen østre" />
		<tag k="fixme" v="consider place=hamlet" />
		<tag k="name" v="Østre Borgen" />
		<tag k="place" v="farm" />
		<tag k="ssr:stedsnr" v="507161" />
	</node>
	<node id="-25065" lat="59.2121000002" lon="11.1804916702">
		<tag k="name" v="Ekelund" />
		<tag k="place" v="farm" />
		<tag k="ssr:stedsnr" v="507129" />
	</node>
	<node id="-25064" lat="59.2062861087" lon="11.2528166578">
		<tag k="historic" v="shieling" />
		<tag k="name" v="Sørlehaugen" />
		<tag k="place" v="locality" />
		<tag k="ssr:stedsnr" v="507108" />
	</node>
	<node id="-25063" lat="59.188838888" lon="11.2142499962">
		<tag k="alt_name" v="Øystad nordre" />
		<tag k="name" v="Nordre Øystad" />
		<tag k="place" v="farm" />
		<tag k="ssr:stedsnr" v="507104" />
	</node>
	<node id="-25061" lat="59.1722916676" lon="11.2298305512">
		<tag k="name" v="Torp" />
		<tag k="place" v="farm" />
		<tag k="ssr:stedsnr" v="507087" />
	</node>
	<node id="-25052" lat="59.2506250034" lon="11.2255638914">
		<tag k="name" v="Bergheim" />
		<tag k="place" v="farm" />
		<tag k="ssr:stedsnr" v="386902" />
	</node>
	<node id="-25051" lat="59.389388891" lon="11.1996555529">
		<tag k="name" v="Gryte" />
		<tag k="place" v="farm" />
		<tag k="ssr:stedsnr" v="386719" />
	</node>
	<node id="-25049" lat="59.2434061986" lon="11.1288802395">
		<tag k="name" v="Kollerud" />
		<tag k="place" v="farm" />
		<tag k="ssr:stedsnr" v="386473" />
	</node>
	<node id="-25048" lat="59.2398777762" lon="11.1399000083">
		<tag k="name" v="Fjelltun" />
		<tag k="place" v="isolated_dwelling" />
		<tag k="ssr:stedsnr" v="386472" />
	</node>
	<node id="-25047" lat="59.2978666696" lon="11.1486638912">
		<tag k="name" v="Myra" />
		<tag k="place" v="farm" />
		<tag k="ssr:stedsnr" v="386464" />
	</node>
	<node id="-25046" lat="59.3091222232" lon="11.1949444367">
		<tag k="name" v="Bergby" />
		<tag k="place" v="farm" />
		<tag k="ssr:stedsnr" v="386426" />
	</node>
	<node id="-25044" lat="59.3206694422" lon="11.1456499991">
		<tag k="name" v="Finnestadtangen" />
		<tag k="place" v="farm" />
		<tag k="ssr:stedsnr" v="386407" />
	</node>
	<node id="-25040" lat="59.3588388857" lon="11.172030557">
		<tag k="name" v="Lunde" />
		<tag k="place" v="farm" />
		<tag k="ssr:stedsnr" v="386352" />
	</node>
	<node id="-25039" lat="59.3437055596" lon="11.1760055512">
		<tag k="name" v="Ekeli" />
		<tag k="place" v="farm" />
		<tag k="ssr:stedsnr" v="386313" />
	</node>
	<node id="-25038" lat="59.2564777777" lon="11.1377555573">
		<tag k="amenity" v="school" />
		<tag k="name" v="Navestad skole" />
		<tag k="ssr:stedsnr" v="386178" />
	</node>
	<node id="-25034" lat="59.2124500006" lon="11.188736113">
		<tag k="name" v="Torslund" />
		<tag k="place" v="farm" />
		<tag k="ssr:stedsnr" v="386154" />
	</node>
	<node id="-25033" lat="59.1764305512" lon="11.201441672">
		<tag k="name" v="Melleby" />
		<tag k="place" v="farm" />
		<tag k="ssr:stedsnr" v="386122" />
	</node>
	<node id="-25028" lat="59.2834333343" lon="11.1548777707">
		<tag k="alt_name" v="Skofterød nordre" />
		<tag k="name" v="Nordre Skofterød" />
		<tag k="place" v="locality" />
		<tag k="ssr:stedsnr" v="386103" />
	</node>
	<node id="-25026" lat="59.2218305514" lon="11.15479166">
		<tag k="name" v="Kolstad" />
		<tag k="place" v="farm" />
		<tag k="ssr:stedsnr" v="386028" />
	</node>
	<node id="-25025" lat="59.2806166684" lon="11.0826333291">
		<tag k="name" v="Brevik" />
		<tag k="place" v="farm" />
		<tag k="ssr:stedsnr" v="386017" />
	</node>
	<node id="-25024" lat="59.2545222244" lon="11.2353583262">
		<tag k="fixme" v="consider place=hamlet" />
		<tag k="name" v="Tveter" />
		<tag k="place" v="farm" />
		<tag k="ssr:stedsnr" v="358319" />
	</node>
	<node id="-25022" lat="59.3750499957" lon="11.140902774">
		<tag k="alt_name" v="Langmark" />
		<tag k="name" v="Langemark" />
		<tag k="place" v="farm" />
		<tag k="ssr:stedsnr" v="488848" />
	</node>
	<node id="-25020" lat="59.4054027744" lon="11.1347138933">
		<tag k="alt_name" v="Minge-Ødegården" />
		<tag k="name" v="Mingeøgarden" />
		<tag k="place" v="farm" />
		<tag k="ssr:stedsnr" v="488828" />
	</node>
	<node id="-25018" lat="59.3256277754" lon="11.0014277819">
		<tag k="name" v="Stikka" />
		<tag k="place" v="farm" />
		<tag k="ssr:stedsnr" v="488415" />
	</node>
	<node id="-25017" lat="59.314888888" lon="11.0182388949">
		<tag k="name" v="Børstadbråten" />
		<tag k="place" v="farm" />
		<tag k="ssr:stedsnr" v="488407" />
	</node>
	<node id="-25016" lat="59.3711750011" lon="11.0757555493">
		<tag k="name" v="Stanghuset" />
		<tag k="place" v="farm" />
		<tag k="ssr:stedsnr" v="488238" />
	</node>
	<node id="-25014" lat="59.2007499966" lon="11.2412500037">
		<tag k="name" v="Hjortås" />
		<tag k="place" v="farm" />
		<tag k="ssr:stedsnr" v="487994" />
	</node>
	<node id="-25013" lat="59.2838833339" lon="11.1097000081">
		<tag k="name" v="Sarpsborg" />
		<tag k="place" v="town" />
		<tag k="ssr:stedsnr" v="487975" />
	</node>
	<node id="-25012" lat="59.3030250029" lon="11.1268888925">
		<tag k="landuse" v="military" />
		<tag k="name" v="Ravneberget" />
		<tag k="ssr:stedsnr" v="487968" />
	</node>
	<node id="-25010" lat="59.1762999986" lon="11.2124749931">
		<tag k="fixme" v="consider place=hamlet" />
		<tag k="name" v="Bø" />
		<tag k="place" v="farm" />
		<tag k="ssr:stedsnr" v="487957" />
	</node>
	<node id="-25009" lat="59.1620500038" lon="11.1814750006">
		<tag k="alt_name" v="Gressdal" />
		<tag k="name" v="Grasdal" />
		<tag k="place" v="isolated_dwelling" />
		<tag k="ssr:stedsnr" v="487950" />
	</node>
	<node id="-25008" lat="59.1751777789" lon="11.2162250063">
		<tag k="name" v="Bakke" />
		<tag k="place" v="farm" />
		<tag k="ssr:stedsnr" v="487945" />
	</node>
	<node id="-25007" lat="59.264274998" lon="11.1978750073">
		<tag k="name" v="Odden" />
		<tag k="place" v="farm" />
		<tag k="ssr:stedsnr" v="487936" />
	</node>
	<node id="-25005" lat="59.2113249965" lon="11.2632416689">
		<tag k="alt_name" v="Ravnemyr" />
		<tag k="name" v="Ramnemyr" />
		<tag k="place" v="farm" />
		<tag k="ssr:stedsnr" v="487893" />
	</node>
	<node id="-25004" lat="59.2779499994" lon="11.3318722294">
		<tag k="name" v="Kasene" />
		<tag k="place" v="farm" />
		<tag k="ssr:stedsnr" v="487884" />
	</node>
	<node id="-25002" lat="59.0682277788" lon="11.439899995">
		<tag k="name" v="Snekketorp" />
		<tag k="place" v="farm" />
		<tag k="ssr:stedsnr" v="487214" />
	</node>
	<node id="-25001" lat="59.3370444416" lon="10.9706749953">
		<tag k="name" v="Bakken" />
		<tag k="place" v="farm" />
		<tag k="ssr:stedsnr" v="487500" />
	</node>
	<node id="-25000" lat="59.3254749978" lon="10.9493555629">
		<tag k="name" v="Enga" />
		<tag k="place" v="farm" />
		<tag k="ssr:stedsnr" v="487472" />
	</node>
	<node id="-24999" lat="59.3032521066" lon="11.0285515317">
		<tag k="alt_name" v="Moseby" />
		<tag k="name" v="Mosaby" />
		<tag k="place" v="locality" />
		<tag k="ssr:stedsnr" v="487452" />
	</node>
	<node id="-24998" lat="59.1916555516" lon="11.1904694363">
		<tag k="fixme" v="consider place=suburb, village or hamlet" />
		<tag k="name" v="Høysand" />
		<tag k="place" v="quarter" />
		<tag k="ssr:stedsnr" v="486977" />
	</node>
	<node id="-24997" lat="59.233325187" lon="11.2347743659">
		<tag k="name" v="Sandås" />
		<tag k="place" v="isolated_dwelling" />
		<tag k="ssr:stedsnr" v="486928" />
	</node>
	<node id="-24996" lat="59.2340584657" lon="11.1549100252">
		<tag k="fixme" v="consider place=hamlet" />
		<tag k="name" v="Hauge" />
		<tag k="place" v="farm" />
		<tag k="ssr:stedsnr" v="486923" />
	</node>
	<node id="-24994" lat="59.2492749957" lon="11.2434750082">
		<tag k="name" v="Kvernstad" />
		<tag k="place" v="farm" />
		<tag k="ssr:stedsnr" v="486596" />
	</node>
	<node id="-24993" lat="59.1412249971" lon="11.1952500035">
		<tag k="name" v="Grimsøy" />
		<tag k="place" v="farm" />
		<tag k="ssr:stedsnr" v="486782" />
	</node>
	<node id="-24989" lat="59.3805666625" lon="11.20573611">
		<tag k="name" v="Kokkum" />
		<tag k="place" v="farm" />
		<tag k="ssr:stedsnr" v="326735" />
	</node>
	<node id="-24987" lat="59.4062583366" lon="11.1320833279">
		<tag k="name" v="Hyttebråten" />
		<tag k="place" v="farm" />
		<tag k="ssr:stedsnr" v="326722" />
	</node>
	<node id="-24984" lat="59.3544027786" lon="11.1778138883">
		<tag k="name" v="Sæle" />
		<tag k="place" v="farm" />
		<tag k="ssr:stedsnr" v="326326" />
	</node>
	<node id="-24983" lat="59.3476527798" lon="11.178319448">
		<tag k="name" v="Vartun" />
		<tag k="place" v="locality" />
		<tag k="ssr:stedsnr" v="326322" />
	</node>
	<node id="-24980" lat="59.2109666694" lon="11.1264083328">
		<tag k="leisure" v="park" />
		<tag k="name" v="Gunnarstorp gravfelt" />
		<tag k="ssr:stedsnr" v="326029" />
	</node>
	<node id="-24978" lat="59.2795749965" lon="11.0740166611">
		<tag k="name" v="Williamsborg" />
		<tag k="place" v="farm" />
		<tag k="ssr:stedsnr" v="326026" />
	</node>
	<node id="-24977" lat="59.2913527797" lon="11.0579222137">
		<tag k="amenity" v="school" />
		<tag k="name" v="Grålum skole" />
		<tag k="ssr:stedsnr" v="326004" />
	</node>
	<node id="-24976" lat="59.1604638874" lon="11.1195333371">
		<tag k="name" v="Båsen" />
		<tag k="place" v="farm" />
		<tag k="ssr:stedsnr" v="478198" />
	</node>
	<node id="-24975" lat="59.1568055516" lon="11.1327583398">
		<tag k="name" v="Vestereng" />
		<tag k="place" v="farm" />
		<tag k="ssr:stedsnr" v="478196" />
	</node>
	<node id="-24968" lat="59.326308333" lon="10.9525333353">
		<tag k="name" v="Gyldenpris" />
		<tag k="place" v="farm" />
		<tag k="ssr:stedsnr" v="476427" />
	</node>
	<node id="-24967" lat="59.3200385975" lon="10.9801239662">
		<tag k="name" v="Tofte" />
		<tag k="place" v="farm" />
		<tag k="ssr:stedsnr" v="476425" />
	</node>
	<node id="-24965" lat="59.3382638859" lon="10.9769749929">
		<tag k="name" v="Isebakke" />
		<tag k="place" v="farm" />
		<tag k="ssr:stedsnr" v="476379" />
	</node>
	<node id="-24961" lat="59.3251888861" lon="10.9874111084">
		<tag k="name" v="Myrvoll" />
		<tag k="place" v="farm" />
		<tag k="ssr:stedsnr" v="476311" />
	</node>
	<node id="-24951" lat="59.2178722261" lon="11.1644472189">
		<tag k="alt_name" v="Solberg nordre" />
		<tag k="name" v="Nordre Solberg" />
		<tag k="place" v="farm" />
		<tag k="ssr:stedsnr" v="467288" />
	</node>
	<node id="-24950" lat="59.2354500028" lon="11.2006055473">
		<tag k="alt_name" v="Vik østre" />
		<tag k="name" v="Østre Vik" />
		<tag k="place" v="farm" />
		<tag k="ssr:stedsnr" v="467283" />
	</node>
	<node id="-24948" lat="59.3684638895" lon="10.9916833278">
		<tag k="name" v="Vestby" />
		<tag k="place" v="farm" />
		<tag k="ssr:stedsnr" v="294477" />
	</node>
	<node id="-24947" lat="59.2690583317" lon="11.0797749914">
		<tag k="name" v="Alvim" />
		<tag k="place" v="quarter" />
		<tag k="ssr:stedsnr" v="464236" />
	</node>
	<node id="-24941" lat="59.4054000009" lon="11.1347499965">
		<tag k="alt_name" v="Minge øvre" />
		<tag k="name" v="Øvre Minge" />
		<tag k="place" v="farm" />
		<tag k="ssr:stedsnr" v="450594" />
	</node>
	<node id="-24938" lat="59.2832749957" lon="11.2046972252">
		<tag k="name" v="Fjell" />
		<tag k="place" v="farm" />
		<tag k="ssr:stedsnr" v="245874" />
	</node>
	<node id="-24937" lat="59.38134352" lon="11.1130985282">
		<tag k="name" v="Sætre" />
		<tag k="place" v="farm" />
		<tag k="ssr:stedsnr" v="245861" />
	</node>
	<node id="-24936" lat="59.3935277738" lon="11.146155554">
		<tag k="name" v="Amdal" />
		<tag k="place" v="farm" />
		<tag k="ssr:stedsnr" v="245805" />
	</node>
	<node id="-24934" lat="59.2579055512" lon="11.254230556">
		<tag k="name" v="Tømmermyr" />
		<tag k="place" v="farm" />
		<tag k="ssr:stedsnr" v="245926" />
	</node>
	<node id="-24933" lat="59.2722333318" lon="11.3399166676">
		<tag k="alt_name" v="Langsholt nordre" />
		<tag k="name" v="Nordre Langsholt" />
		<tag k="place" v="farm" />
		<tag k="ssr:stedsnr" v="245922" />
	</node>
	<node id="-24932" lat="59.1421461365" lon="11.2300599472">
		<tag k="fixme" v="consider place=hamlet" />
		<tag k="name" v="Slang" />
		<tag k="place" v="farm" />
		<tag k="ssr:stedsnr" v="245773" />
	</node>
	<node id="-24931" lat="59.3558305592" lon="11.0913916669">
		<tag k="name" v="Ødegård" />
		<tag k="place" v="farm" />
		<tag k="ssr:stedsnr" v="245467" />
	</node>
	<node id="-24930" lat="59.3482749957" lon="11.0606916664">
		<tag k="alt_name" v="Sanderød" />
		<tag k="name" v="Stangerød" />
		<tag k="place" v="farm" />
		<tag k="ssr:stedsnr" v="245461" />
	</node>
	<node id="-24926" lat="59.1904999958" lon="11.1045750012">
		<tag k="name" v="Åserød" />
		<tag k="place" v="farm" />
		<tag k="ssr:stedsnr" v="244978" />
	</node>
	<node id="-24925" lat="59.1837750025" lon="11.1227249943">
		<tag k="name" v="Bjerkemyr" />
		<tag k="place" v="farm" />
		<tag k="ssr:stedsnr" v="244962" />
	</node>
	<node id="-24923" lat="59.2620027759" lon="11.2190027855">
		<tag k="name" v="Mauritshytta" />
		<tag k="place" v="isolated_dwelling" />
		<tag k="ssr:stedsnr" v="447891" />
	</node>
	<node id="-24921" lat="59.2470750023" lon="11.1431999923">
		<tag k="alt_name" v="Løkka" />
		<tag k="name" v="Navestadløkka" />
		<tag k="place" v="farm" />
		<tag k="ssr:stedsnr" v="244628" />
	</node>
	<node id="-24920" lat="59.2089027748" lon="11.247174994">
		<tag k="alt_name" v="Sørle nedre" />
		<tag k="name" v="Nedre Sørle" />
		<tag k="place" v="farm" />
		<tag k="ssr:stedsnr" v="447865" />
	</node>
	<node id="-24919" lat="59.1958222196" lon="11.0845083411">
		<tag k="fixme" v="consider place=hamlet" />
		<tag k="name" v="Talberg" />
		<tag k="place" v="farm" />
		<tag k="ssr:stedsnr" v="244309" />
	</node>
	<node id="-24918" lat="59.3664722196" lon="11.0599861136">
		<tag k="fixme" v="consider tourism=alpine_hut or tourism=chalet" />
		<tag k="name" v="Harehjellhytta" />
		<tag k="ssr:stedsnr" v="447700" />
		<tag k="tourism" v="wilderness_hut" />
	</node>
	<node id="-24915" lat="59.3907555548" lon="11.1092027833">
		<tag k="name" v="Høylia" />
		<tag k="place" v="farm" />
		<tag k="ssr:stedsnr" v="447680" />
	</node>
	<node id="-24913" lat="59.4005138926" lon="11.1346555511">
		<tag k="name" v="Haugen" />
		<tag k="place" v="farm" />
		<tag k="ssr:stedsnr" v="447672" />
	</node>
	<node id="-24912" lat="59.3906638919" lon="11.1265194373">
		<tag k="name" v="Bjerbås" />
		<tag k="place" v="farm" />
		<tag k="ssr:stedsnr" v="447671" />
	</node>
	<node id="-24910" lat="59.3863416676" lon="11.1235194476">
		<tag k="name" v="Elvestad" />
		<tag k="place" v="farm" />
		<tag k="ssr:stedsnr" v="447662" />
	</node>
	<node id="-24909" lat="59.3853194457" lon="11.1977388816">
		<tag k="name" v="Hesthagen" />
		<tag k="place" v="farm" />
		<tag k="ssr:stedsnr" v="447720" />
	</node>
	<node id="-24908" lat="59.3287944409" lon="11.2093138876">
		<tag k="name" v="Løkken" />
		<tag k="place" v="locality" />
		<tag k="ssr:stedsnr" v="447450" />
	</node>
	<node id="-24903" lat="59.3069000008" lon="11.0615055565">
		<tag k="name" v="Bjor" />
		<tag k="place" v="farm" />
		<tag k="ssr:stedsnr" v="447369" />
	</node>
	<node id="-24897" lat="59.376575" lon="11.2041583401">
		<tag k="name" v="Kullerud" />
		<tag k="place" v="farm" />
		<tag k="ssr:stedsnr" v="447335" />
	</node>
	<node id="-24896" lat="59.37184722" lon="11.2205777804">
		<tag k="alt_name" v="Bø store" />
		<tag k="name" v="Store Bø" />
		<tag k="place" v="farm" />
		<tag k="ssr:stedsnr" v="447332" />
	</node>
	<node id="-24894" lat="59.243019446" lon="11.1816388853">
		<tag k="name" v="Finsrud" />
		<tag k="place" v="farm" />
		<tag k="ssr:stedsnr" v="447100" />
	</node>
	<node id="-24893" lat="59.2886333342" lon="11.14912222">
		<tag k="name" v="Skjeggeby" />
		<tag k="place" v="farm" />
		<tag k="ssr:stedsnr" v="447098" />
	</node>
	<node id="-24891" lat="59.1261999995" lon="11.183177783">
		<tag k="name" v="Hykkelen" />
		<tag k="place" v="isolated_dwelling" />
		<tag k="ssr:stedsnr" v="447086" />
	</node>
	<node id="-24890" lat="59.158063889" lon="11.2387472218">
		<tag k="name" v="Slanghaugen" />
		<tag k="place" v="farm" />
		<tag k="ssr:stedsnr" v="447032" />
	</node>
	<node id="-24889" lat="59.2903555539" lon="11.0969777825">
		<tag k="name" v="Valaskjold" />
		<tag k="place" v="suburb" />
		<tag k="ssr:stedsnr" v="447023" />
	</node>
	<node id="-24887" lat="59.3186583364" lon="11.0402250083">
		<tag k="alt_name" v="Øsåker" />
		<tag k="name" v="Øsaker" />
		<tag k="place" v="farm" />
		<tag k="ssr:stedsnr" v="446664" />
	</node>
	<node id="-24879" lat="59.3693583338" lon="11.2252444472">
		<tag k="name" v="Bø" />
		<tag k="place" v="farm" />
		<tag k="ssr:stedsnr" v="204319" />
	</node>
	<node id="-24873" lat="59.3145166662" lon="10.9849944358">
		<tag k="name" v="Børstad" />
		<tag k="place" v="farm" />
		<tag k="ssr:stedsnr" v="294754" />
	</node>
	<node id="-24870" lat="59.3156333362" lon="10.9947777812">
		<tag k="name" v="Børstad" />
		<tag k="place" v="farm" />
		<tag k="ssr:stedsnr" v="294444" />
	</node>
	<node id="-24869" lat="59.3174666689" lon="11.0543166609">
		<tag k="name" v="Nedre Orebingen" />
		<tag k="place" v="farm" />
		<tag k="ssr:stedsnr" v="294437" />
	</node>
	<node id="-24867" lat="59.333924996" lon="10.9663138885">
		<tag k="name" v="Solgård" />
		<tag k="place" v="locality" />
		<tag k="ssr:stedsnr" v="294376" />
	</node>
	<node id="-24866" lat="59.3351583366" lon="10.9631138871">
		<tag k="name" v="Sollihøyda" />
		<tag k="place" v="farm" />
		<tag k="ssr:stedsnr" v="294369" />
	</node>
	<node id="-24864" lat="59.321633335" lon="10.9784500072">
		<tag k="name" v="Lillesanne" />
		<tag k="place" v="farm" />
		<tag k="ssr:stedsnr" v="294337" />
	</node>
	<node id="-24863" lat="59.3236861109" lon="10.9739833345">
		<tag k="name" v="Mellomsanne" />
		<tag k="place" v="farm" />
		<tag k="ssr:stedsnr" v="294336" />
	</node>
	<node id="-24859" lat="59.2173805518" lon="11.1042111027">
		<tag k="alt_name" v="Storedal søndre" />
		<tag k="name" v="Søndre Storedal" />
		<tag k="place" v="farm" />
		<tag k="ssr:stedsnr" v="285275" />
	</node>
	<node id="-24858" lat="59.2553055544" lon="11.2446361149">
		<tag k="alt_name" v="Tranemyr søndre" />
		<tag k="name" v="Søndre Tranemyr" />
		<tag k="place" v="farm" />
		<tag k="ssr:stedsnr" v="285273" />
	</node>
	<node id="-24852" lat="59.3640444471" lon="11.0462583393">
		<tag k="alt_name" v="Agnalt østre" />
		<tag k="name" v="Østre Agnalt" />
		<tag k="place" v="farm" />
		<tag k="ssr:stedsnr" v="173406" />
	</node>
	<node id="-24847" lat="59.2362944436" lon="11.1818305621">
		<tag k="alt_name" v="Vik vestre" />
		<tag k="name" v="Vestre Vik" />
		<tag k="place" v="farm" />
		<tag k="ssr:stedsnr" v="163264" />
	</node>
	<node id="-24846" lat="59.2939222234" lon="11.0726527694">
		<tag k="amenity" v="nursing_home" />
		<tag k="name" v="Tingvollheimen" />
		<tag k="ssr:stedsnr" v="326394" />
	</node>
	<node id="-24841" lat="59.2854777737" lon="11.2051361028">
		<tag k="name" v="Svenhytta" />
		<tag k="place" v="isolated_dwelling" />
		<tag k="ssr:stedsnr" v="265901" />
	</node>
	<node id="-24839" lat="59.3849638906" lon="11.2039194523">
		<tag k="name" v="Nordengen" />
		<tag k="place" v="farm" />
		<tag k="ssr:stedsnr" v="265778" />
	</node>
	<node id="-24837" lat="59.3872305517" lon="11.2022055522">
		<tag k="name" v="Gryte" />
		<tag k="place" v="farm" />
		<tag k="ssr:stedsnr" v="265765" />
	</node>
	<node id="-24832" lat="59.3922861122" lon="11.1369722284">
		<tag k="alt_name" v="Minge;Minge søndre" />
		<tag k="name" v="Søndre Minge" />
		<tag k="place" v="farm" />
		<tag k="ssr:stedsnr" v="265736" />
	</node>
	<node id="-24829" lat="59.1781722185" lon="11.1506333412">
		<tag k="name" v="Birkeli" />
		<tag k="place" v="locality" />
		<tag k="ssr:stedsnr" v="265486" />
	</node>
	<node id="-24827" lat="59.1663583334" lon="11.1149055471">
		<tag k="name" v="Grotten" />
		<tag k="place" v="isolated_dwelling" />
		<tag k="ssr:stedsnr" v="265481" />
	</node>
	<node id="-24826" lat="59.165477776" lon="11.1588472174">
		<tag k="name" v="Sandløkka" />
		<tag k="place" v="farm" />
		<tag k="ssr:stedsnr" v="265480" />
	</node>
	<node id="-24824" lat="59.1967611114" lon="11.1132333307">
		<tag k="name" v="Nyset" />
		<tag k="place" v="farm" />
		<tag k="ssr:stedsnr" v="265469" />
	</node>
	<node id="-24823" lat="59.3061500013" lon="11.1978444383">
		<tag k="name" v="Gapestad" />
		<tag k="place" v="farm" />
		<tag k="ssr:stedsnr" v="265464" />
	</node>
	<node id="-24822" lat="59.3215527779" lon="11.2286277801">
		<tag k="name" v="Nordberg" />
		<tag k="place" v="farm" />
		<tag k="ssr:stedsnr" v="265461" />
	</node>
	<node id="-24820" lat="59.1945999978" lon="11.084141671">
		<tag k="alt_name" v="Talberg øvre" />
		<tag k="name" v="Øvre Talberg" />
		<tag k="place" v="farm" />
		<tag k="ssr:stedsnr" v="265453" />
	</node>
	<node id="-24819" lat="59.2002833344" lon="11.1298527736">
		<tag k="alt_name" v="Østby østre" />
		<tag k="name" v="Østre Østby" />
		<tag k="place" v="farm" />
		<tag k="ssr:stedsnr" v="265451" />
	</node>
	<node id="-24818" lat="59.3337666703" lon="11.1343500044">
		<tag k="alt_name" v="Holen østre" />
		<tag k="name" v="Østre Holen" />
		<tag k="place" v="farm" />
		<tag k="ssr:stedsnr" v="265444" />
	</node>
	<node id="-24812" lat="59.377822221" lon="11.2255416683">
		<tag k="name" v="Høkelia" />
		<tag k="place" v="farm" />
		<tag k="ssr:stedsnr" v="265388" />
	</node>
	<node id="-24811" lat="59.3740361127" lon="11.2229555523">
		<tag k="name" v="Tomta" />
		<tag k="place" v="farm" />
		<tag k="ssr:stedsnr" v="265387" />
	</node>
	<node id="-24805" lat="59.2609361089" lon="11.1517666654">
		<tag k="alt_name" v="Borgen mellem" />
		<tag k="name" v="Mellom-Borgen" />
		<tag k="place" v="farm" />
		<tag k="ssr:stedsnr" v="265189" />
	</node>
	<node id="-24804" lat="59.2697833364" lon="11.1659388856">
		<tag k="name" v="Nybøle" />
		<tag k="place" v="farm" />
		<tag k="ssr:stedsnr" v="265183" />
	</node>
	<node id="-24803" lat="59.2697250025" lon="11.1593722179">
		<tag k="name" v="Solheim" />
		<tag k="place" v="farm" />
		<tag k="ssr:stedsnr" v="265180" />
	</node>
	<node id="-24802" lat="59.2745722197" lon="11.3085833411">
		<tag k="alt_name" v="Lunheim" />
		<tag k="name" v="Lundheim" />
		<tag k="place" v="farm" />
		<tag k="ssr:stedsnr" v="265172" />
	</node>
	<node id="-24801" lat="59.2165611141" lon="11.1897972201">
		<tag k="leisure" v="pitch" />
		<tag k="name" v="Skjeberg idrettsplass" />
		<tag k="ssr:stedsnr" v="265149" />
	</node>
	<node id="-24800" lat="59.2086472188" lon="11.1928666702">
		<tag k="amenity" v="school" />
		<tag k="name" v="Hornnes barneskole" />
		<tag k="ssr:stedsnr" v="265146" />
	</node>
	<node id="-24799" lat="59.2167111092" lon="11.2364861092">
		<tag k="name" v="Vestby" />
		<tag k="place" v="farm" />
		<tag k="ssr:stedsnr" v="265137" />
	</node>
	<node id="-24798" lat="59.212166667" lon="11.2269583349">
		<tag k="name" v="Sørby" />
		<tag k="place" v="farm" />
		<tag k="ssr:stedsnr" v="265135" />
	</node>
	<node id="-24797" lat="59.2120916694" lon="11.2380500062">
		<tag k="name" v="Rognlien" />
		<tag k="place" v="farm" />
		<tag k="ssr:stedsnr" v="265125" />
	</node>
	<node id="-24796" lat="59.1766250011" lon="11.2120833289">
		<tag k="alt_name" v="Bø østre" />
		<tag k="name" v="Østre Bø" />
		<tag k="place" v="farm" />
		<tag k="ssr:stedsnr" v="265123" />
	</node>
	<node id="-24795" lat="59.2896138911" lon="11.1262444366">
		<tag k="fixme" v="consider place=suburb, village or hamlet" />
		<tag k="name" v="Opsund" />
		<tag k="place" v="quarter" />
		<tag k="ssr:stedsnr" v="265121" />
	</node>
	<node id="-24794" lat="59.292297225" lon="11.1445611097">
		<tag k="name" v="Dalen" />
		<tag k="place" v="farm" />
		<tag k="ssr:stedsnr" v="265107" />
	</node>
	<node id="-24791" lat="59.2537694433" lon="11.1337305468">
		<tag k="name" v="Delås" />
		<tag k="place" v="farm" />
		<tag k="ssr:stedsnr" v="265070" />
	</node>
	<node id="-24790" lat="59.1637797136" lon="11.179244536">
		<tag k="name" v="Fjellberg" />
		<tag k="place" v="farm" />
		<tag k="ssr:stedsnr" v="265048" />
	</node>
	<node id="-24786" lat="59.2814527752" lon="11.1116222174">
		<tag k="amenity" v="townhall" />
		<tag k="name" v="Sarpsborg rådhus" />
		<tag k="ssr:stedsnr" v="265002" />
	</node>
	<node id="-24785" lat="59.3067972206" lon="11.0105111163">
		<tag k="alt_name" v="Eid" />
		<tag k="name" v="Eidet" />
		<tag k="place" v="farm" />
		<tag k="ssr:stedsnr" v="124352" />
	</node>
	<node id="-24784" lat="59.2935250043" lon="11.0756083385">
		<tag k="name" v="Grålum" />
		<tag k="place" v="farm" />
		<tag k="ssr:stedsnr" v="124348" />
	</node>
	<node id="-24782" lat="59.213838889" lon="11.2432111143">
		<tag k="name" v="Modal" />
		<tag k="place" v="farm" />
		<tag k="ssr:stedsnr" v="325129" />
	</node>
	<node id="-24781" lat="59.320225004" lon="11.1554472244">
		<tag k="alt_name" v="Sulusnes" />
		<tag k="name" v="Sulesnes" />
		<tag k="place" v="farm" />
		<tag k="ssr:stedsnr" v="251847" />
	</node>
	<node id="-24780" lat="59.2704805525" lon="11.336627773">
		<tag k="name" v="Solstad" />
		<tag k="place" v="farm" />
		<tag k="ssr:stedsnr" v="84165" />
	</node>
	<node id="-24775" lat="59.2055277741" lon="11.1321916608">
		<tag k="amenity" v="school" />
		<tag k="name" v="Gunnarstorp skole" />
		<tag k="ssr:stedsnr" v="83453" />
	</node>
	<node id="-24761" lat="59.375686111" lon="11.2162277706">
		<tag k="name" v="Lia" />
		<tag k="place" v="farm" />
		<tag k="ssr:stedsnr" v="83367" />
	</node>
	<node id="-24758" lat="59.133830556" lon="11.1775638883">
		<tag k="name" v="Salmakeren" />
		<tag k="place" v="locality" />
		<tag k="ssr:stedsnr" v="83073" />
	</node>
	<node id="-24756" lat="59.2577583336" lon="11.1373027829">
		<tag k="alt_name" v="Berg søndre" />
		<tag k="name" v="Søndre Berg" />
		<tag k="place" v="farm" />
		<tag k="ssr:stedsnr" v="83063" />
	</node>
	<node id="-24755" lat="59.1356527792" lon="11.2309583276">
		<tag k="name" v="Gaulin" />
		<tag k="place" v="isolated_dwelling" />
		<tag k="ssr:stedsnr" v="83055" />
	</node>
	<node id="-24754" lat="59.2875361074" lon="11.1026916725">
		<tag k="name" v="Enenda" />
		<tag k="place" v="suburb" />
		<tag k="ssr:stedsnr" v="83024" />
	</node>
	<node id="-24752" lat="59.2802138911" lon="11.1024972168">
		<tag k="amenity" v="school" />
		<tag k="name" v="St. Olavs videregående skole" />
		<tag k="ssr:stedsnr" v="83015" />
	</node>
	<node id="-24750" lat="59.2784111128" lon="11.0885027821">
		<tag k="alt_name" v="Alvim mellem" />
		<tag k="name" v="Mellom-Alvim" />
		<tag k="place" v="farm" />
		<tag k="ssr:stedsnr" v="83007" />
	</node>
	<node id="-24749" lat="59.2052138906" lon="11.2503583384">
		<tag k="name" v="Sørlemoen" />
		<tag k="place" v="isolated_dwelling" />
		<tag k="ssr:stedsnr" v="83109" />
	</node>
	<node id="-24747" lat="59.2766027766" lon="11.0876638948">
		<tag k="alt_name" v="Alvim østre" />
		<tag k="name" v="Østre Alvim" />
		<tag k="place" v="farm" />
		<tag k="ssr:stedsnr" v="83103" />
	</node>
	<node id="-24745" lat="59.3334555564" lon="11.2086305583">
		<tag k="name" v="Skofteby" />
		<tag k="place" v="farm" />
		<tag k="ssr:stedsnr" v="246757" />
	</node>
	<node id="-24744" lat="59.3599250021" lon="11.1661972136">
		<tag k="name" v="Lunde" />
		<tag k="place" v="farm" />
		<tag k="ssr:stedsnr" v="246740" />
	</node>
	<node id="-24743" lat="59.3510250018" lon="11.166427774">
		<tag k="name" v="Småberg" />
		<tag k="place" v="farm" />
		<tag k="ssr:stedsnr" v="246729" />
	</node>
	<node id="-24742" lat="59.3547249954" lon="11.1705750074">
		<tag k="name" v="Hauger" />
		<tag k="place" v="farm" />
		<tag k="ssr:stedsnr" v="246722" />
	</node>
	<node id="-24741" lat="59.303075003" lon="11.2049749955">
		<tag k="name" v="Bergsland" />
		<tag k="place" v="farm" />
		<tag k="ssr:stedsnr" v="245983" />
	</node>
	<node id="-24740" lat="59.3012499976" lon="11.1895500058">
		<tag k="name" v="Hurka" />
		<tag k="place" v="farm" />
		<tag k="ssr:stedsnr" v="245964" />
	</node>
	<node id="-24739" lat="59.312177776" lon="11.2859527828">
		<tag k="alt_name" v="Valdres" />
		<tag k="name" v="Valders" />
		<tag k="place" v="farm" />
		<tag k="ssr:stedsnr" v="245935" />
	</node>
	<node id="-24738" lat="59.3969749962" lon="11.1015000084">
		<tag k="name" v="Tangen" />
		<tag k="place" v="farm" />
		<tag k="ssr:stedsnr" v="245823" />
	</node>
	<node id="-24736" lat="59.331555554" lon="10.9825749936">
		<tag k="name" v="Ødegård" />
		<tag k="place" v="farm" />
		<tag k="ssr:stedsnr" v="245425" />
	</node>
	<node id="-24735" lat="59.2886333369" lon="11.0390555503">
		<tag k="alt_name" v="Opstad" />
		<tag k="fixme" v="consider place=hamlet" />
		<tag k="name" v="Oppstad" />
		<tag k="place" v="farm" />
		<tag k="ssr:stedsnr" v="245386" />
	</node>
	<node id="-24733" lat="59.1956277818" lon="11.2333500083">
		<tag k="name" v="Syverstad" />
		<tag k="place" v="farm" />
		<tag k="ssr:stedsnr" v="244999" />
	</node>
	<node id="-24729" lat="59.2604727997" lon="11.2522983488">
		<tag k="fixme" v="consider place=hamlet" />
		<tag k="name" v="Tranemyr" />
		<tag k="place" v="farm" />
		<tag k="ssr:stedsnr" v="63929" />
	</node>
	<node id="-24728" lat="59.2547277735" lon="11.2350055535">
		<tag k="alt_name" v="Tveter mellem;Mellem Tveter" />
		<tag k="name" v="Mellom-Tveter" />
		<tag k="place" v="farm" />
		<tag k="ssr:stedsnr" v="63915" />
	</node>
	<node id="-24726" lat="59.255747223" lon="11.119555554">
		<tag k="name" v="Grasto" />
		<tag k="place" v="farm" />
		<tag k="ssr:stedsnr" v="63903" />
	</node>
	<node id="-24723" lat="59.1935888887" lon="11.1559749979">
		<tag k="name" v="Stranda" />
		<tag k="place" v="farm" />
		<tag k="ssr:stedsnr" v="54762" />
	</node>
	<node id="-24722" lat="59.1947861073" lon="11.1394527789">
		<tag k="name" v="Granlia" />
		<tag k="place" v="farm" />
		<tag k="ssr:stedsnr" v="54758" />
	</node>
	<node id="-24718" lat="59.2997777773" lon="11.0481749917">
		<tag k="name" v="Bjørnstad" />
		<tag k="place" v="quarter" />
		<tag k="ssr:stedsnr" v="52274" />
	</node>
	<node id="-24711" lat="59.2158277759" lon="11.2789444475">
		<tag k="alt_name" v="Gåserød østre" />
		<tag k="name" v="Østre Gåserød" />
		<tag k="place" v="farm" />
		<tag k="ssr:stedsnr" v="234751" />
	</node>
	<node id="-24710" lat="59.3378722263" lon="10.9719055503">
		<tag k="name" v="Møllerød" />
		<tag k="place" v="farm" />
		<tag k="ssr:stedsnr" v="234484" />
	</node>
	<node id="-24709" lat="59.3640972231" lon="11.0238416733">
		<tag k="alt_name" v="Agnalt vestre" />
		<tag k="name" v="Vestre Agnalt" />
		<tag k="place" v="farm" />
		<tag k="ssr:stedsnr" v="234428" />
	</node>
	<node id="-24698" lat="59.2725083317" lon="11.05422222">
		<tag k="name" v="Hannestad" />
		<tag k="old_name" v="Hanestad" />
		<tag k="place" v="suburb" />
		<tag k="ssr:stedsnr" v="24403" />
	</node>
	<node id="-24692" lat="59.2428416625" lon="11.1417750078">
		<tag k="name" v="Sletta" />
		<tag k="place" v="locality" />
		<tag k="ssr:stedsnr" v="22445" />
	</node>
	<node id="-24691" lat="59.2037138869" lon="11.143844447">
		<tag k="alt_name" v="Hornnes vestre" />
		<tag k="name" v="Vestre Hornnes" />
		<tag k="place" v="farm" />
		<tag k="ssr:stedsnr" v="22441" />
	</node>
	<node id="-24690" lat="59.1791638909" lon="11.1031555553">
		<tag k="alt_name" v="Haugane" />
		<tag k="name" v="Haugene" />
		<tag k="place" v="locality" />
		<tag k="ssr:stedsnr" v="22439" />
	</node>
	<node id="-24689" lat="59.3194555594" lon="11.2391861124">
		<tag k="name" v="Stubberud" />
		<tag k="place" v="farm" />
		<tag k="ssr:stedsnr" v="22427" />
	</node>
	<node id="-24686" lat="59.3642750016" lon="11.1883222221">
		<tag k="alt_name" v="Lunde nedre" />
		<tag k="name" v="Nedre Lunde" />
		<tag k="place" v="farm" />
		<tag k="ssr:stedsnr" v="22339" />
	</node>
	<node id="-24682" lat="59.3486111139" lon="11.1652416731">
		<tag k="name" v="Småberg" />
		<tag k="place" v="farm" />
		<tag k="ssr:stedsnr" v="22323" />
	</node>
	<node id="-24681" lat="59.3450555581" lon="11.2643555488">
		<tag k="name" v="Styggedal" />
		<tag k="place" v="farm" />
		<tag k="ssr:stedsnr" v="22303" />
	</node>
	<node id="-24680" lat="59.2253916678" lon="11.1961555643">
		<tag k="name" v="Nylende" />
		<tag k="place" v="farm" />
		<tag k="ssr:stedsnr" v="22123" />
	</node>
	<node id="-24679" lat="59.216933331" lon="11.2214277809">
		<tag k="alt_name" v="Lilleby vestre" />
		<tag k="name" v="Vestre Lilleby" />
		<tag k="place" v="farm" />
		<tag k="ssr:stedsnr" v="22120" />
	</node>
	<node id="-24678" lat="59.1764444432" lon="11.1920694423">
		<tag k="name" v="Myrdal" />
		<tag k="place" v="farm" />
		<tag k="ssr:stedsnr" v="22109" />
	</node>
	<node id="-24677" lat="59.2823722246" lon="11.1527777731">
		<tag k="alt_name" v="Skofterød mellem" />
		<tag k="name" v="Mellom-Skofterød" />
		<tag k="place" v="locality" />
		<tag k="ssr:stedsnr" v="22108" />
	</node>
	<node id="-24676" lat="59.1782583293" lon="11.2191666671">
		<tag k="name" v="Steinslund" />
		<tag k="place" v="farm" />
		<tag k="ssr:stedsnr" v="22106" />
	</node>
	<node id="-24673" lat="59.1533416682" lon="11.2362833405">
		<tag k="name" v="Slanglia" />
		<tag k="place" v="locality" />
		<tag k="ssr:stedsnr" v="22033" />
	</node>
	<node id="-24670" lat="59.2772805597" lon="11.0873833406">
		<tag k="name" v="Klokkergården" />
		<tag k="place" v="isolated_dwelling" />
		<tag k="ssr:stedsnr" v="22016" />
	</node>
	<node id="-24669" lat="59.2917305551" lon="11.0841000075">
		<tag k="alt_name" v="Tune lille;Tune Lille" />
		<tag k="name" v="Lille Tune" />
		<tag k="place" v="farm" />
		<tag k="ssr:stedsnr" v="22010" />
	</node>
	<node id="-24667" lat="59.2016176545" lon="11.2264938145">
		<tag k="name" v="Voll" />
		<tag k="place" v="farm" />
		<tag k="ssr:stedsnr" v="224286" />
	</node>
	<node id="-24666" lat="59.3245111097" lon="11.1197583347">
		<tag k="alt_name" v="Skjøren østre" />
		<tag k="name" v="Østre Skjøren" />
		<tag k="place" v="farm" />
		<tag k="ssr:stedsnr" v="224278" />
	</node>
	<node id="-24665" lat="59.3212504193" lon="11.1112181229">
		<tag k="alt_name" v="Skjøren østre" />
		<tag k="name" v="Østre Skjøren" />
		<tag k="place" v="farm" />
		<tag k="ssr:stedsnr" v="224277" />
	</node>
	<node id="-24664" lat="59.2581250021" lon="11.1395222231">
		<tag k="name" v="Berg" />
		<tag k="place" v="farm" />
		<tag k="ssr:stedsnr" v="2922" />
	</node>
	<node id="-24662" lat="59.2841749974" lon="11.2651222283">
		<tag k="name" v="Skaen" />
		<tag k="place" v="farm" />
		<tag k="ssr:stedsnr" v="2886" />
	</node>
	<node id="-24660" lat="59.2099749985" lon="11.1763472273">
		<tag k="alt_name" v="Berghornnes" />
		<tag k="name" v="Berg-Hornes" />
		<tag k="place" v="farm" />
		<tag k="ssr:stedsnr" v="2871" />
	</node>
	<node id="-24659" lat="59.2786500024" lon="11.18504723">
		<tag k="name" v="Svingen" />
		<tag k="place" v="farm" />
		<tag k="ssr:stedsnr" v="2870" />
	</node>
	<node id="-24658" lat="59.3822499991" lon="11.2078249956">
		<tag k="name" v="Kokkum" />
		<tag k="place" v="farm" />
		<tag k="ssr:stedsnr" v="2860" />
	</node>
	<node id="-26665" lat="59.2741811539" lon="11.1361178589">
		<tag k="name" v="Hafslund hovedgård" />
		<tag k="place" v="farm" />
		<tag k="ssr:stedsnr" v="1073342" />
	</node>
	<node id="-26655" lat="59.3913588596" lon="11.0967460426">
		<tag k="landuse" v="winter_sports" />
		<tag k="name" v="Kjerringåsen alpinsenter" />
		<tag k="piste:type" v="downhill" />
		<tag k="ssr:stedsnr" v="989272" />
	</node>
	<node id="-26652" lat="59.3316076752" lon="11.2928883359">
		<tag k="fixme" v="consider tourism=alpine_hut or tourism=chalet" />
		<tag k="name" v="Østtorphytta" />
		<tag k="ssr:stedsnr" v="978157" />
		<tag k="tourism" v="wilderness_hut" />
	</node>
	<node id="-26650" lat="59.3180207129" lon="11.0267297996">
		<tag k="amenity" v="hospital" />
		<tag k="name" v="Sykehuset Østfold Kalnes" />
		<tag k="ssr:stedsnr" v="976194" />
	</node>
	<node id="-26648" lat="59.3106817878" lon="11.2005656867">
		<tag k="fixme" v="consider place=hamlet" />
		<tag k="name" v="Nordre Berreby" />
		<tag k="place" v="farm" />
		<tag k="ssr:stedsnr" v="975983" />
	</node>
	<node id="-26647" lat="59.3075887346" lon="11.1959431493">
		<tag k="fixme" v="consider place=hamlet" />
		<tag k="name" v="Søndre Berby" />
		<tag k="place" v="farm" />
		<tag k="ssr:stedsnr" v="975982" />
	</node>
	<node id="-26645" lat="59.3140901511" lon="11.2196914679">
		<tag k="fixme" v="consider place=hamlet" />
		<tag k="name" v="Vestre Sekkeland" />
		<tag k="place" v="farm" />
		<tag k="ssr:stedsnr" v="975979" />
	</node>
	<node id="-26644" lat="59.3307940728" lon="11.1964797938">
		<tag k="name" v="Brusevold" />
		<tag k="place" v="farm" />
		<tag k="ssr:stedsnr" v="975964" />
	</node>
	<node id="-26643" lat="59.3083243459" lon="11.2459633867">
		<tag k="name" v="Østre Sekkeland" />
		<tag k="place" v="farm" />
		<tag k="ssr:stedsnr" v="975962" />
	</node>
	<node id="-26642" lat="59.31309605" lon="11.2273544351">
		<tag k="name" v="Østre Sekkeland" />
		<tag k="place" v="farm" />
		<tag k="ssr:stedsnr" v="975958" />
	</node>
	<node id="-26641" lat="59.3131425666" lon="11.227790941">
		<tag k="fixme" v="consider place=hamlet" />
		<tag k="name" v="Østre Sekkeland" />
		<tag k="place" v="farm" />
		<tag k="ssr:stedsnr" v="975957" />
	</node>
	<node id="-26640" lat="59.3208909934" lon="11.1567342885">
		<tag k="fixme" v="consider place=hamlet" />
		<tag k="name" v="Sulesnes" />
		<tag k="place" v="farm" />
		<tag k="ssr:stedsnr" v="975955" />
	</node>
	<node id="-26639" lat="59.3686112618" lon="11.2058208477">
		<tag k="name" v="Kullerød" />
		<tag k="place" v="farm" />
		<tag k="ssr:stedsnr" v="975952" />
	</node>
	<node id="-26638" lat="59.3762816022" lon="11.2043269772">
		<tag k="fixme" v="consider place=hamlet" />
		<tag k="name" v="Kullerud" />
		<tag k="place" v="farm" />
		<tag k="ssr:stedsnr" v="975950" />
	</node>
	<node id="-26637" lat="59.3113906724" lon="11.2350065312">
		<tag k="fixme" v="consider place=hamlet" />
		<tag k="name" v="Vestre Spydevoll" />
		<tag k="place" v="farm" />
		<tag k="ssr:stedsnr" v="974772" />
	</node>
	<node id="-26636" lat="59.3110325" lon="11.2405381583">
		<tag k="fixme" v="consider place=hamlet" />
		<tag k="name" v="Østre Spydevoll" />
		<tag k="place" v="farm" />
		<tag k="ssr:stedsnr" v="974769" />
	</node>
	<node id="-26635" lat="59.325426586" lon="11.20233269">
		<tag k="fixme" v="consider place=hamlet" />
		<tag k="name" v="Brusevoll" />
		<tag k="place" v="farm" />
		<tag k="ssr:stedsnr" v="974768" />
	</node>
	<node id="-26634" lat="59.3177694473" lon="10.9808250002">
		<tag k="alt_name" v="Utne" />
		<tag k="name" v="Utne camping" />
		<tag k="ssr:stedsnr" v="966885" />
		<tag k="tourism" v="camp_site" />
	</node>
	<node id="-26630" lat="59.2896555518" lon="11.0210527813">
		<tag k="alt_name" v="Vister vestre" />
		<tag k="name" v="Vestre Vister" />
		<tag k="place" v="farm" />
		<tag k="ssr:stedsnr" v="962738" />
	</node>
</osm>
