<?xml version="1.0" encoding="UTF-8"?>
<osm version="0.6" generator="osmapis">
	<node lat="59.11952777611973" lon="11.191566671834003" id="-23638">
		<tag k="name" v="Kålvika" />
		<tag k="natural" v="bay" />
		<tag k="ssr:stedsnr" v="22006" />
	</node>
	<node lat="59.140394448192495" lon="11.15840000019854" id="-23658">
		<tag k="fixme" v="consider seamark:type=rock or natural=shoal" />
		<tag k="name" v="Lilleknubben" />
		<tag k="place" v="islet" />
		<tag k="ssr:stedsnr" v="22401" />
	</node>
	<node lat="59.14358333342898" lon="11.126363885308018" id="-23659">
		<tag k="name" v="Hansesundet" />
		<tag k="natural" v="strait" />
		<tag k="ssr:stedsnr" v="22412" />
	</node>
	<node lat="59.176155554287966" lon="11.183177778791489" id="-23698">
		<tag k="name" v="Lille Sildevika" />
		<tag k="natural" v="bay" />
		<tag k="ssr:stedsnr" v="54772" />
	</node>
	<node lat="59.14075278215723" lon="11.133569441519075" id="-23702">
		<tag k="alt_name" v="Søndre Kallsøya" />
		<tag k="loc_name" v="Karlsøya" />
		<tag k="name" v="Søndre Karlsøy" />
		<tag k="place" v="island" />
		<tag k="ssr:stedsnr" v="62771" />
	</node>
	<node lat="59.14799444820059" lon="11.1463555550886" id="-23703">
		<tag k="alt_name" v="Nordre Kallsøya" />
		<tag k="name" v="Nordre Karlsøy" />
		<tag k="place" v="island" />
		<tag k="ssr:stedsnr" v="62773" />
	</node>
	<node lat="59.145675002942085" lon="11.155025002431827" id="-23709">
		<tag k="name" v="Ørnekuppa" />
		<tag k="place" v="islet" />
		<tag k="ssr:stedsnr" v="63774" />
	</node>
	<node lat="59.14482778176789" lon="11.125749997864126" id="-23711">
		<tag k="alt_name" v="Bukkeholmen" />
		<tag k="name" v="Bukkholmen" />
		<tag k="place" v="islet" />
		<tag k="ssr:stedsnr" v="63786" />
	</node>
	<node lat="59.15308156815263" lon="11.141444227464332" id="-23762">
		<tag k="alt_name" v="Kallsøysundet" />
		<tag k="name" v="Karlsøysundet" />
		<tag k="natural" v="strait" />
		<tag k="ssr:stedsnr" v="245792" />
	</node>
	<node lat="59.11857500229719" lon="11.183950004762563" id="-23780">
		<tag k="name" v="Øketangen" />
		<tag k="natural" v="cape" />
		<tag k="ssr:stedsnr" v="123873" />
	</node>
	<node lat="59.13830278109341" lon="11.154944439346556" id="-23819">
		<tag k="name" v="Knubbholmene" />
		<tag k="place" v="islet" />
		<tag k="ssr:stedsnr" v="183791" />
	</node>
	<node lat="59.1500250011525" lon="11.204650000312727" id="-23822">
		<tag k="alt_name" v="Moalera" />
		<tag k="name" v="Moaleira" />
		<tag k="natural" v="bay" />
		<tag k="ssr:stedsnr" v="184784" />
	</node>
	<node lat="59.14326666721796" lon="11.128141660025145" id="-23877">
		<tag k="name" v="Bukkenesholmene" />
		<tag k="place" v="islet" />
		<tag k="ssr:stedsnr" v="204377" />
	</node>
	<node lat="59.20858333752665" lon="11.079213893394542" id="-23893">
		<tag k="name" v="Langvika" />
		<tag k="natural" v="bay" />
		<tag k="ssr:stedsnr" v="236228" />
	</node>
	<node lat="59.12700000320258" lon="11.18045000325445" id="-23897">
		<tag k="alt_name" v="Grønnsund" />
		<tag k="name" v="Grønsund" />
		<tag k="natural" v="strait" />
		<tag k="ssr:stedsnr" v="244775" />
	</node>
	<node lat="59.133297220659884" lon="11.17333332941223" id="-23898">
		<tag k="fixme" v="consider seamark:type=rock or natural=shoal" />
		<tag k="name" v="Svartskjæra" />
		<tag k="place" v="islet" />
		<tag k="ssr:stedsnr" v="244793" />
	</node>
	<node lat="59.11999444146823" lon="11.19124722247778" id="-23905">
		<tag k="name" v="Hvitsand" />
		<tag k="natural" v="beach" />
		<tag k="ssr:stedsnr" v="265003" />
	</node>
	<node lat="59.15176666852864" lon="11.136822225116958" id="-23917">
		<tag k="name" v="Skorpen" />
		<tag k="place" v="islet" />
		<tag k="ssr:stedsnr" v="265426" />
	</node>
	<node lat="59.153663887793755" lon="11.117633330165054" id="-23918">
		<tag k="name" v="Sauvika" />
		<tag k="natural" v="bay" />
		<tag k="ssr:stedsnr" v="265430" />
	</node>
	<node lat="59.26943333256765" lon="11.088274993020253" id="-23932">
		<tag k="fixme" v="multiple name tags, choose one and add the other to alt_name" />
		<tag k="name" v="Berggrenodden;Buvikodden" />
		<tag k="natural" v="cape" />
		<tag k="ssr:stedsnr" v="282171" />
	</node>
	<node lat="59.14700278183135" lon="11.189949996186328" id="-23947">
		<tag k="name" v="Saltholmen" />
		<tag k="place" v="islet" />
		<tag k="ssr:stedsnr" v="306765" />
	</node>
	<node lat="59.15032221847852" lon="11.118344451112273" id="-23960">
		<tag k="name" v="Trollkoven" />
		<tag k="natural" v="bay" />
		<tag k="ssr:stedsnr" v="325412" />
	</node>
	<node lat="59.13660000219268" lon="11.156308341457617" id="-23961">
		<tag k="fixme" v="consider seamark:type=rock or natural=shoal" />
		<tag k="name" v="Storknubben" />
		<tag k="place" v="islet" />
		<tag k="ssr:stedsnr" v="325422" />
	</node>
	<node lat="59.132974996211686" lon="11.137900002640428" id="-24019">
		<tag k="alt_name" v="Lillefårnøt" />
		<tag k="name" v="Veslefårnøtt" />
		<tag k="place" v="islet" />
		<tag k="ssr:stedsnr" v="365788" />
	</node>
	<node lat="59.15791389193991" lon="11.162494451954574" id="-24027">
		<tag k="name" v="Brudeskjæret" />
		<tag k="natural" v="cape" />
		<tag k="ssr:stedsnr" v="478771" />
	</node>
	<node lat="59.12275000249948" lon="11.172155555788738" id="-24102">
		<tag k="name" v="Krakken" />
		<tag k="natural" v="shoal" />
		<tag k="place" v="locality" />
		<tag k="ssr:stedsnr" v="427821" />
	</node>
	<node lat="59.11708889326205" lon="11.192947215681373" id="-24116">
		<tag k="name" v="Kålvikholmen" />
		<tag k="place" v="islet" />
		<tag k="ssr:stedsnr" v="447004" />
	</node>
	<node lat="59.18981389000071" lon="11.164747220197272" id="-24123">
		<tag k="name" v="Feriehjembukta" />
		<tag k="natural" v="bay" />
		<tag k="ssr:stedsnr" v="447432" />
	</node>
	<node lat="59.154602781372134" lon="11.140294441285343" id="-24126">
		<tag k="name" v="Kallerholmen" />
		<tag k="natural" v="cape" />
		<tag k="ssr:stedsnr" v="447374" />
	</node>
	<node lat="59.156675002866756" lon="11.153794437015394" id="-24127">
		<tag k="name" v="Smørklunken" />
		<tag k="place" v="islet" />
		<tag k="ssr:stedsnr" v="447377" />
	</node>
	<node lat="59.17802499775034" lon="11.167350002265941" id="-24158">
		<tag k="name" v="Kjerringholmen" />
		<tag k="place" v="islet" />
		<tag k="ssr:stedsnr" v="487961" />
	</node>
	<node lat="59.17171944462069" lon="11.109091670997772" id="-24177">
		<tag k="name" v="Revebukta" />
		<tag k="natural" v="bay" />
		<tag k="ssr:stedsnr" v="508504" />
	</node>
	<node lat="59.191038885518815" lon="11.160519443349052" id="-24179">
		<tag k="name" v="Flyndrevik" />
		<tag k="natural" v="beach" />
		<tag k="ssr:stedsnr" v="508513" />
	</node>
	<node lat="59.14567500166583" lon="11.13861944053172" id="-24200">
		<tag k="alt_name" v="Nøtsund" />
		<tag k="name" v="Nøtsundet" />
		<tag k="natural" v="strait" />
		<tag k="ssr:stedsnr" v="548774" />
	</node>
	<node lat="59.14748611254579" lon="11.17635555767036" id="-24207">
		<tag k="name" v="Blykista" />
		<tag k="natural" v="bay" />
		<tag k="ssr:stedsnr" v="690046" />
	</node>
	<node lat="59.133352779442525" lon="11.127288897523234" id="-24229">
		<tag k="name" v="Håhjellingen" />
		<tag k="place" v="islet" />
		<tag k="ssr:stedsnr" v="690454" />
	</node>
	<node lat="59.14483333019814" lon="11.12040278136109" id="-24231">
		<tag k="name" v="Vassnestangen" />
		<tag k="natural" v="cape" />
		<tag k="ssr:stedsnr" v="690472" />
	</node>
	<node lat="59.13571110754785" lon="11.176691669571438" id="-24248">
		<tag k="fixme" v="consider seamark:type=rock or natural=shoal" />
		<tag k="name" v="Danmark" />
		<tag k="place" v="islet" />
		<tag k="ssr:stedsnr" v="568076" />
	</node>
	<node lat="59.14003611016968" lon="11.17852223077695" id="-24249">
		<tag k="name" v="Søndre Struten" />
		<tag k="natural" v="bay" />
		<tag k="ssr:stedsnr" v="568079" />
	</node>
	<node lat="59.173119443881454" lon="11.179772225801548" id="-24252">
		<tag k="name" v="Svullen" />
		<tag k="natural" v="cape" />
		<tag k="ssr:stedsnr" v="568112" />
	</node>
	<node lat="59.15650000192593" lon="11.157819452901332" id="-24257">
		<tag k="name" v="Stortangen" />
		<tag k="natural" v="cape" />
		<tag k="ssr:stedsnr" v="568411" />
	</node>
	<node lat="59.10110000073246" lon="11.162144452023464" id="-24280">
		<tag k="name" v="Jonsgrunnen" />
		<tag k="natural" v="shoal" />
		<tag k="place" v="locality" />
		<tag k="ssr:stedsnr" v="600851" />
	</node>
	<node lat="59.182516671152555" lon="11.090091666527462" id="-24347">
		<tag k="name" v="Tosekilen" />
		<tag k="natural" v="bay" />
		<tag k="ssr:stedsnr" v="668387" />
	</node>
	<node lat="59.13774167077426" lon="11.126938897048092" id="-24362">
		<tag k="name" v="Hummerkloa" />
		<tag k="natural" v="cape" />
		<tag k="ssr:stedsnr" v="676802" />
	</node>
	<node lat="59.14781666454653" lon="11.200719440876755" id="-24369">
		<tag k="fixme" v="consider seamark:type=rock or natural=shoal" />
		<tag k="name" v="Vassøsskjær" />
		<tag k="place" v="islet" />
		<tag k="ssr:stedsnr" v="690034" />
	</node>
	<node lat="59.12446111480872" lon="11.185844436223011" id="-24372">
		<tag k="name" v="Bauen" />
		<tag k="natural" v="bay" />
		<tag k="ssr:stedsnr" v="690077" />
	</node>
	<node lat="59.164566669306865" lon="11.17671944920795" id="-24375">
		<tag k="name" v="Galten" />
		<tag k="place" v="islet" />
		<tag k="ssr:stedsnr" v="690092" />
	</node>
	<node lat="59.152744445611674" lon="11.149972224055311" id="-24391">
		<tag k="name" v="Bjerkenes" />
		<tag k="natural" v="cape" />
		<tag k="ssr:stedsnr" v="690467" />
	</node>
	<node lat="59.1484694438224" lon="11.119111114632496" id="-24392">
		<tag k="name" v="Sildodden" />
		<tag k="natural" v="cape" />
		<tag k="ssr:stedsnr" v="690468" />
	</node>
	<node lat="59.146952774761616" lon="11.193999995564218" id="-24438">
		<tag k="name" v="Grimsøykilen" />
		<tag k="natural" v="bay" />
		<tag k="ssr:stedsnr" v="731766" />
	</node>
	<node lat="59.189750001980734" lon="11.15478889279603" id="-24530">
		<tag k="name" v="Salbu" />
		<tag k="natural" v="cape" />
		<tag k="ssr:stedsnr" v="811420" />
	</node>
	<node lat="59.114522218889725" lon="11.197283327849371" id="-24621">
		<tag k="name" v="Tangehalsen" />
		<tag k="natural" v="cape" />
		<tag k="ssr:stedsnr" v="905662" />
	</node>
	<node lat="59.125380551930306" lon="11.204374991283965" id="-24647">
		<tag k="name" v="Grønnbukta" />
		<tag k="natural" v="bay" />
		<tag k="ssr:stedsnr" v="933090" />
	</node>
	<node lat="59.157194442840634" lon="11.159702781395891" id="-24654">
		<tag k="name" v="Sandbukta" />
		<tag k="natural" v="bay" />
		<tag k="ssr:stedsnr" v="933447" />
	</node>
	<node lat="59.13839444283716" lon="11.187152771821173" id="-24669">
		<tag k="name" v="Grimsøy" />
		<tag k="natural" v="cape" />
		<tag k="ssr:stedsnr" v="964741" />
	</node>
	<node lat="59.13632222035054" lon="11.143861102999155" id="-24709">
		<tag k="alt_name" v="Store Fårnøt;Fårnøt" />
		<tag k="name" v="Fårnøtt" />
		<tag k="place" v="islet" />
		<tag k="ssr:stedsnr" v="1769" />
	</node>
	<node lat="59.14588888615927" lon="11.199466660468824" id="-24734">
		<tag k="fixme" v="consider seamark:type=rock or natural=shoal" />
		<tag k="name" v="Flua" />
		<tag k="place" v="islet" />
		<tag k="ssr:stedsnr" v="22026" />
	</node>
	<node lat="59.13390278168801" lon="11.173144441834904" id="-24744">
		<tag k="fixme" v="consider seamark:type=rock or natural=shoal" />
		<tag k="name" v="Bjørnskjær" />
		<tag k="place" v="islet" />
		<tag k="ssr:stedsnr" v="22068" />
	</node>
	<node lat="59.1362999960104" lon="11.174180562466322" id="-24808">
		<tag k="name" v="Dusa" />
		<tag k="place" v="sea" />
		<tag k="ssr:stedsnr" v="83077" />
	</node>
	<node lat="59.147711107980854" lon="11.133313886620464" id="-24818">
		<tag k="name" v="Bjørn" />
		<tag k="place" v="islet" />
		<tag k="ssr:stedsnr" v="83426" />
	</node>
	<node lat="59.14469999967105" lon="11.154416663135654" id="-24819">
		<tag k="name" v="Sandbukta" />
		<tag k="natural" v="bay" />
		<tag k="ssr:stedsnr" v="83428" />
	</node>
	<node lat="59.1820416644287" lon="11.187227779073565" id="-24844">
		<tag k="name" v="Skjønvikodden" />
		<tag k="natural" v="cape" />
		<tag k="ssr:stedsnr" v="114784" />
	</node>
	<node lat="59.110800000442325" lon="11.169725006184635" id="-24846">
		<tag k="name" v="Haslau" />
		<tag k="place" v="islet" />
		<tag k="ssr:stedsnr" v="122830" />
	</node>
	<node lat="59.152327773592766" lon="11.189555562622644" id="-24870">
		<tag k="name" v="Knarrvika" />
		<tag k="natural" v="bay" />
		<tag k="ssr:stedsnr" v="143049" />
	</node>
	<node lat="59.14332500129601" lon="11.181641667967911" id="-24878">
		<tag k="name" v="Nordre Struten" />
		<tag k="natural" v="bay" />
		<tag k="ssr:stedsnr" v="143027" />
	</node>
	<node lat="59.1629083290941" lon="11.11710555692411" id="-24894">
		<tag k="name" v="Skottodden" />
		<tag k="natural" v="cape" />
		<tag k="ssr:stedsnr" v="143393" />
	</node>
	<node lat="59.14110277419781" lon="11.150838885241718" id="-24897">
		<tag k="name" v="Brenteholmene" />
		<tag k="place" v="islet" />
		<tag k="ssr:stedsnr" v="143400" />
	</node>
	<node lat="59.14670833420426" lon="11.157516671181092" id="-24899">
		<tag k="fixme" v="consider seamark:type=rock or natural=shoal" />
		<tag k="name" v="Ørnungene" />
		<tag k="place" v="islet" />
		<tag k="ssr:stedsnr" v="143416" />
	</node>
	<node lat="59.16404721918181" lon="11.100197217194417" id="-24900">
		<tag k="name" v="Orebukta" />
		<tag k="natural" v="bay" />
		<tag k="ssr:stedsnr" v="143422" />
	</node>
	<node lat="59.17202777717213" lon="11.108386113281554" id="-24932">
		<tag k="name" v="Ørebekktangen" />
		<tag k="natural" v="cape" />
		<tag k="ssr:stedsnr" v="175201" />
	</node>
	<node lat="59.14157222171641" lon="11.145169447722914" id="-24962">
		<tag k="name" v="Liktangen" />
		<tag k="natural" v="cape" />
		<tag k="ssr:stedsnr" v="190843" />
	</node>
	<node lat="59.147408337040545" lon="11.213730557789479" id="-24965">
		<tag k="name" v="Åkentokilen" />
		<tag k="natural" v="bay" />
		<tag k="ssr:stedsnr" v="204020" />
	</node>
	<node lat="59.13098055278406" lon="11.198061114277472" id="-24977">
		<tag k="name" v="Strandeleira" />
		<tag k="natural" v="shoal" />
		<tag k="place" v="locality" />
		<tag k="ssr:stedsnr" v="204074" />
	</node>
	<node lat="59.148097224512526" lon="11.208327777261058" id="-25039">
		<tag k="name" v="Moatangen" />
		<tag k="natural" v="cape" />
		<tag k="ssr:stedsnr" v="325039" />
	</node>
	<node lat="59.130783105364934" lon="11.197313835332334" id="-25046">
		<tag k="name" v="Hansemarkerkilen" />
		<tag k="natural" v="bay" />
		<tag k="old_name" v="Hansemakerkilen" />
		<tag k="ssr:stedsnr" v="325082" />
	</node>
	<node lat="59.108775004079405" lon="11.17000000683491" id="-25082">
		<tag k="name" v="Haslauflua" />
		<tag k="natural" v="shoal" />
		<tag k="place" v="locality" />
		<tag k="ssr:stedsnr" v="361344" />
	</node>
	<node lat="59.13307499781242" lon="11.150300004497245" id="-25083">
		<tag k="fixme" v="consider seamark:type=rock or natural=shoal" />
		<tag k="name" v="Slengeskjær" />
		<tag k="place" v="islet" />
		<tag k="ssr:stedsnr" v="365777" />
	</node>
	<node lat="59.19407777719053" lon="11.147350004374687" id="-25087">
		<tag k="alt_name" v="Hornneskilen" />
		<tag k="name" v="Horneskilen" />
		<tag k="natural" v="bay" />
		<tag k="ssr:stedsnr" v="365978" />
	</node>
	<node lat="59.11767499593071" lon="11.190325002200773" id="-25092">
		<tag k="name" v="Økebukta" />
		<tag k="natural" v="bay" />
		<tag k="ssr:stedsnr" v="366827" />
	</node>
	<node lat="59.12726944301234" lon="11.174783339302653" id="-25121">
		<tag k="name" v="Grimsøtangen" />
		<tag k="natural" v="cape" />
		<tag k="ssr:stedsnr" v="386092" />
	</node>
	<node lat="59.142602779765596" lon="11.178100007712915" id="-25148">
		<tag k="alt_name" v="Bjørkholmen" />
		<tag k="name" v="Bjerkholmen" />
		<tag k="place" v="islet" />
		<tag k="ssr:stedsnr" v="427747" />
	</node>
	<node lat="59.14849722240749" lon="11.193449997216389" id="-25198">
		<tag k="name" v="Kollholmen" />
		<tag k="place" v="islet" />
		<tag k="ssr:stedsnr" v="507053" />
	</node>
	<node lat="59.146536110227466" lon="11.178597215854936" id="-25263">
		<tag k="name" v="Treskoen" />
		<tag k="natural" v="bay" />
		<tag k="ssr:stedsnr" v="568053" />
	</node>
	<node lat="59.18399999573686" lon="11.186683334673818" id="-25268">
		<tag k="name" v="Sandvika" />
		<tag k="natural" v="bay" />
		<tag k="ssr:stedsnr" v="568086" />
	</node>
	<node lat="59.08871944341305" lon="11.148622214158319" id="-25320">
		<tag k="name" v="Singlefjorden" />
		<tag k="natural" v="bay" />
		<tag k="ssr:stedsnr" v="607817" />
	</node>
	<node lat="59.113374997881444" lon="11.179388886794692" id="-25321">
		<tag k="name" v="Ribbergrunnen" />
		<tag k="natural" v="shoal" />
		<tag k="place" v="locality" />
		<tag k="ssr:stedsnr" v="607832" />
	</node>
	<node lat="59.15607777660644" lon="11.172850002913778" id="-25341">
		<tag k="name" v="Askholmen" />
		<tag k="place" v="islet" />
		<tag k="ssr:stedsnr" v="609776" />
	</node>
	<node lat="59.15314444196278" lon="11.183338894113062" id="-25356">
		<tag k="name" v="Løkkevika" />
		<tag k="natural" v="bay" />
		<tag k="ssr:stedsnr" v="629064" />
	</node>
	<node lat="59.14929999728647" lon="11.135283337095895" id="-25382">
		<tag k="name" v="Olsengsundet" />
		<tag k="natural" v="strait" />
		<tag k="ssr:stedsnr" v="660140" />
	</node>
	<node lat="59.198933336540264" lon="11.073649995520055" id="-25388">
		<tag k="name" v="Talbergsundet" />
		<tag k="natural" v="strait" />
		<tag k="ssr:stedsnr" v="669300" />
	</node>
	<node lat="59.20832499907162" lon="11.071450000334584" id="-25389">
		<tag k="alt_name" v="Hunnebotn" />
		<tag k="name" v="Hunnebonn" />
		<tag k="natural" v="bay" />
		<tag k="ssr:stedsnr" v="669264" />
	</node>
	<node lat="59.12157500310241" lon="11.20250278074012" id="-25419">
		<tag k="name" v="Tangekilen" />
		<tag k="natural" v="bay" />
		<tag k="ssr:stedsnr" v="730873" />
	</node>
	<node lat="59.179725001532205" lon="11.187574998506655" id="-25420">
		<tag k="name" v="Sildevika" />
		<tag k="natural" v="bay" />
		<tag k="ssr:stedsnr" v="730957" />
	</node>
	<node lat="59.132105559767496" lon="11.174836110265463" id="-25436">
		<tag k="name" v="Stokksund" />
		<tag k="natural" v="strait" />
		<tag k="ssr:stedsnr" v="750063" />
	</node>
	<node lat="59.13841835392826" lon="11.204735922275724" id="-25480">
		<tag k="name" v="Ilekaskilen" />
		<tag k="natural" v="bay" />
		<tag k="ssr:stedsnr" v="782726" />
	</node>
	<node lat="59.13550000072661" lon="11.178599995264493" id="-25483">
		<tag k="alt_name" v="Dusebukta" />
		<tag k="name" v="Duseleira" />
		<tag k="natural" v="bay" />
		<tag k="ssr:stedsnr" v="790790" />
	</node>
	<node lat="59.17198609638938" lon="11.171186890020042" id="-25492">
		<tag k="name" v="Skjebergkilen" />
		<tag k="natural" v="bay" />
		<tag k="ssr:stedsnr" v="791958" />
	</node>
	<node lat="59.148200003027725" lon="11.178874993968975" id="-25493">
		<tag k="name" v="Granholmen" />
		<tag k="place" v="islet" />
		<tag k="ssr:stedsnr" v="791781" />
	</node>
	<node lat="59.14515833744629" lon="11.20280278105388" id="-25569">
		<tag k="name" v="Jonetangen" />
		<tag k="natural" v="cape" />
		<tag k="ssr:stedsnr" v="872031" />
	</node>
	<node lat="59.149258329083025" lon="11.19527223057582" id="-25571">
		<tag k="name" v="Bussevika" />
		<tag k="natural" v="bay" />
		<tag k="ssr:stedsnr" v="872048" />
	</node>
	<node lat="59.14546388667582" lon="11.191033339656686" id="-25572">
		<tag k="name" v="Vadholmen" />
		<tag k="place" v="islet" />
		<tag k="ssr:stedsnr" v="872050" />
	</node>
	<node lat="59.11202222100104" lon="11.196625004503078" id="-25574">
		<tag k="name" v="Tangetangen" />
		<tag k="natural" v="cape" />
		<tag k="ssr:stedsnr" v="872002" />
	</node>
</osm>
