<?xml version="1.0" encoding="UTF-8"?>
<<<<<<< HEAD
<osm version="0.6" generator="osmapis">
	<node lat="59.31939166741215" lon="11.094294440269922" id="-11943">
=======
<osm generator="osmapis" version="0.6">
	<node id="-218709" lat="59.3193916674" lon="11.0942944403">
>>>>>>> e1d4bc35ff8a6074a6f2e91616a996b547c36f15
		<tag k="fixme" v="specify shooting=range, clay_pigeon etc" />
		<tag k="leisure" v="pitch" />
		<tag k="name" v="Bekkhus skeetbane" />
		<tag k="sport" v="shooting" />
		<tag k="ssr:stedsnr" v="326446" />
<<<<<<< HEAD
	</node>
	<node lat="59.32556282888925" lon="10.962731239343995" id="-12528">
		<tag k="fixme" v="consider boundary=protected_area and relevant protect_class if not nature reserve" />
		<tag k="leisure" v="nature_reserve" />
		<tag k="name" v="Desiderialunden naturreservat" />
		<tag k="ssr:stedsnr" v="983527" />
	</node>
	<node lat="59.3352970594022" lon="10.970831782891901" id="-12529">
=======
	</node>
	<node id="-219320" lat="59.3869929318" lon="10.9919641388">
>>>>>>> e1d4bc35ff8a6074a6f2e91616a996b547c36f15
		<tag k="fixme" v="consider boundary=protected_area and relevant protect_class if not nature reserve" />
		<tag k="leisure" v="nature_reserve" />
		<tag k="name" v="Solgårdhavna naturreservat" />
		<tag k="ssr:stedsnr" v="983530" />
	</node>
<<<<<<< HEAD
	<node lat="59.34658887119982" lon="11.00802696110595" id="-12530">
		<tag k="fixme" v="consider boundary=protected_area and relevant protect_class if not nature reserve" />
		<tag k="leisure" v="nature_reserve" />
		<tag k="name" v="Ågårdselva naturreservat" />
		<tag k="ssr:stedsnr" v="983531" />
	</node>
	<node lat="59.37964982129533" lon="11.178877012870181" id="-12531">
=======
	<node id="-219319" lat="59.3898081331" lon="11.0796939694">
		<tag k="fixme" v="consider boundary=protected_area and relevant protect_class if not nature reserve" />
		<tag k="leisure" v="nature_reserve" />
		<tag k="name" v="Asbjørnåsen naturreservat" />
		<tag k="ssr:stedsnr" v="1074753" />
	</node>
	<node id="-218261" lat="59.3465888712" lon="11.0080269611">
		<tag k="fixme" v="consider boundary=protected_area and relevant protect_class if not nature reserve" />
		<tag k="leisure" v="nature_reserve" />
		<tag k="name" v="Ågårdselva naturreservat" />
		<tag k="ssr:stedsnr" v="983531" />
	</node>
	<node id="-218260" lat="59.3352970594" lon="10.9708317829">
>>>>>>> e1d4bc35ff8a6074a6f2e91616a996b547c36f15
		<tag k="fixme" v="consider boundary=protected_area and relevant protect_class if not nature reserve" />
		<tag k="leisure" v="nature_reserve" />
		<tag k="name" v="Brentåsen naturreservat" />
		<tag k="ssr:stedsnr" v="989191" />
	</node>
<<<<<<< HEAD
	<node lat="59.37664135795177" lon="11.106036476689907" id="-12542">
=======
	<node id="-219307" lat="59.376641358" lon="11.1060364767">
>>>>>>> e1d4bc35ff8a6074a6f2e91616a996b547c36f15
		<tag k="fixme" v="consider boundary=protected_area and relevant protect_class if not nature reserve" />
		<tag k="leisure" v="nature_reserve" />
		<tag k="name" v="Sagåsen og Stueåsen  naturreservat" />
		<tag k="ssr:stedsnr" v="1072099" />
	</node>
<<<<<<< HEAD
	<node lat="59.386992931837725" lon="10.991964138775893" id="-12554">
		<tag k="fixme" v="consider boundary=protected_area and relevant protect_class if not nature reserve" />
		<tag k="leisure" v="nature_reserve" />
		<tag k="name" v="Bråneåsen naturreservat" />
		<tag k="ssr:stedsnr" v="1074768" />
	</node>
	<node lat="59.3898081331099" lon="11.079693969382284" id="-12555">
		<tag k="fixme" v="consider boundary=protected_area and relevant protect_class if not nature reserve" />
		<tag k="leisure" v="nature_reserve" />
		<tag k="name" v="Asbjørnåsen naturreservat" />
		<tag k="ssr:stedsnr" v="1074753" />
=======
	<node id="-219298" lat="59.3796498213" lon="11.1788770129">
		<tag k="fixme" v="consider boundary=protected_area and relevant protect_class if not nature reserve" />
		<tag k="leisure" v="nature_reserve" />
		<tag k="name" v="Brentåsen naturreservat" />
		<tag k="ssr:stedsnr" v="989191" />
	</node>
	<node id="-219297" lat="59.3255628289" lon="10.9627312393">
		<tag k="fixme" v="consider boundary=protected_area and relevant protect_class if not nature reserve" />
		<tag k="leisure" v="nature_reserve" />
		<tag k="name" v="Desiderialunden naturreservat" />
		<tag k="ssr:stedsnr" v="983527" />
>>>>>>> e1d4bc35ff8a6074a6f2e91616a996b547c36f15
	</node>
</osm>
