<?xml version="1.0" encoding="UTF-8"?>
<osm generator="osmapis" version="0.6">
	<node id="-218624" lat="59.3354305521" lon="11.1550555579">
		<tag k="name" v="Tippetangen" />
		<tag k="natural" v="cape" />
		<tag k="ssr:stedsnr" v="204373" />
	</node>
	<node id="-218621" lat="59.3594305581" lon="11.0917361117">
		<tag k="name" v="Ødegårdstangen" />
		<tag k="natural" v="cape" />
		<tag k="ssr:stedsnr" v="204243" />
	</node>
	<node id="-218620" lat="59.3402138877" lon="11.1487111061">
		<tag k="name" v="Strømnesbukta" />
		<tag k="natural" v="bay" />
		<tag k="ssr:stedsnr" v="204240" />
	</node>
	<node id="-218094" lat="59.3158722263" lon="11.0683611077">
		<tag k="alt_name" v="Bjørsøya" />
		<tag k="name" v="Bjorsøya" />
		<tag k="place" v="island" />
		<tag k="ssr:stedsnr" v="913412" />
	</node>
	<node id="-219115" lat="59.2592500037" lon="11.3278194386">
		<tag k="name" v="Grøvletjern" />
		<tag k="natural" v="water" />
		<tag k="ssr:stedsnr" v="751155" />
	</node>
	<node id="-219110" lat="59.2853972263" lon="11.2694138835">
		<tag k="name" v="Nordtjern" />
		<tag k="natural" v="bay" />
		<tag k="ssr:stedsnr" v="750878" />
	</node>
	<node id="-219109" lat="59.2913166653" lon="11.1801999919">
		<tag k="name" v="Holmen" />
		<tag k="place" v="islet" />
		<tag k="ssr:stedsnr" v="750872" />
	</node>
	<node id="-219108" lat="59.2919250009" lon="11.2650611173">
		<tag k="name" v="Rørsjøen" />
		<tag k="natural" v="bay" />
		<tag k="ssr:stedsnr" v="750869" />
	</node>
	<node id="-217571" lat="59.3618666641" lon="10.9828638873">
		<tag k="alt_name" v="Svarttjernet;Svarttjern søndre" />
		<tag k="name" v="Søndre Svarttjern" />
		<tag k="natural" v="water" />
		<tag k="ssr:stedsnr" v="245258" />
	</node>
	<node id="-217851" lat="59.1862249985" lon="11.2161777788">
		<tag k="name" v="Ingedalsbekken" />
		<tag k="ssr:stedsnr" v="690043" />
		<tag k="waterway" v="stream" />
	</node>
	<node id="-219104" lat="59.3647527771" lon="11.072261111">
		<tag k="name" v="Kvennhusbekken" />
		<tag k="ssr:stedsnr" v="750702" />
		<tag k="waterway" v="stream" />
	</node>
	<node id="-219103" lat="59.3739361094" lon="11.0674500026">
		<tag k="name" v="Huseva" />
		<tag k="ssr:stedsnr" v="750700" />
		<tag k="waterway" v="stream" />
	</node>
	<node id="-217566" lat="59.2841055544" lon="11.1735027772">
		<tag k="name" v="Kalveneset" />
		<tag k="natural" v="cape" />
		<tag k="ssr:stedsnr" v="447880" />
	</node>
	<node id="-219101" lat="59.3894527767" lon="11.1294611169">
		<tag k="name" v="Mingeevja" />
		<tag k="natural" v="bay" />
		<tag k="ssr:stedsnr" v="750677" />
	</node>
	<node id="-218588" lat="59.291400003" lon="11.122475006">
		<tag k="name" v="Glengshølen" />
		<tag k="natural" v="bay" />
		<tag k="ssr:stedsnr" v="184973" />
	</node>
	<node id="-219098" lat="59.3259079752" lon="11.0763145414">
		<tag k="name" v="Tømmerholtholmen" />
		<tag k="place" v="islet" />
		<tag k="ssr:stedsnr" v="750396" />
	</node>
	<node id="-217679" lat="59.2360361128" lon="11.271322225">
		<tag k="name" v="Svarttjern" />
		<tag k="natural" v="water" />
		<tag k="ssr:stedsnr" v="386157" />
	</node>
	<node id="-219096" lat="59.310949997" lon="11.0624638939">
		<tag k="name" v="Bjorshella" />
		<tag k="natural" v="cape" />
		<tag k="ssr:stedsnr" v="750381" />
	</node>
	<node id="-219092" lat="59.3602194488" lon="11.146925005">
		<tag k="name" v="Ospetangen" />
		<tag k="natural" v="cape" />
		<tag k="ssr:stedsnr" v="750271" />
	</node>
	<node id="-217763" lat="59.2845888932" lon="11.1487305571">
		<tag k="name" v="Eilertstangen" />
		<tag k="natural" v="cape" />
		<tag k="ssr:stedsnr" v="447114" />
	</node>
	<node id="-218063" lat="59.322727778" lon="11.0889583334">
		<tag k="name" v="Pinåsevja" />
		<tag k="natural" v="bay" />
		<tag k="ssr:stedsnr" v="750406" />
	</node>
	<node id="-217548" lat="59.310749996" lon="11.0768638939">
		<tag k="name" v="Tjørholmen" />
		<tag k="place" v="islet" />
		<tag k="ssr:stedsnr" v="447372" />
	</node>
	<node id="-217546" lat="59.3033611103" lon="11.0658555618">
		<tag k="name" v="Krakestadbukta" />
		<tag k="natural" v="bay" />
		<tag k="ssr:stedsnr" v="447364" />
	</node>
	<node id="-219081" lat="59.3032392038" lon="11.1148740937">
		<tag k="loc_name" v="Ørretdammen" />
		<tag k="name" v="Fiskedammene" />
		<tag k="natural" v="water" />
		<tag k="ssr:stedsnr" v="750447" />
	</node>
	<node id="-219078" lat="59.2974638852" lon="11.1983333314">
		<tag k="name" v="Vierskjær" />
		<tag k="place" v="islet" />
		<tag k="ssr:stedsnr" v="750436" />
	</node>
	<node id="-217539" lat="59.3592388928" lon="11.1541527722">
		<tag k="name" v="Båthustangen" />
		<tag k="natural" v="cape" />
		<tag k="ssr:stedsnr" v="447259" />
	</node>
	<node id="-217675" lat="59.2904722237" lon="11.1584750063">
		<tag k="name" v="Mørtangen" />
		<tag k="natural" v="cape" />
		<tag k="ssr:stedsnr" v="386112" />
	</node>
	<node id="-217536" lat="59.2763444429" lon="11.1312333263">
		<tag k="name" v="Sarpefossen" />
		<tag k="natural" v="waterfall" />
		<tag k="ssr:stedsnr" v="447090" />
	</node>
	<node id="-218559" lat="59.2361000018" lon="11.2842000082">
		<tag k="alt_name" v="Krysstjern" />
		<tag k="name" v="Krysstjernet" />
		<tag k="natural" v="water" />
		<tag k="ssr:stedsnr" v="183926" />
	</node>
	<node id="-219070" lat="59.3268818208" lon="11.0706325333">
		<tag k="name" v="Furutangen" />
		<tag k="natural" v="cape" />
		<tag k="ssr:stedsnr" v="750420" />
	</node>
	<node id="-219064" lat="59.303008335" lon="11.2336611171">
		<tag k="fixme" v="multiple name tags, choose one and add the other to alt_name" />
		<tag k="name" v="Knatterudbekken;Spydevollbekken;Tverråa" />
		<tag k="ssr:stedsnr" v="750045" />
		<tag k="waterway" v="stream" />
	</node>
	<node id="-218551" lat="59.3049138893" lon="10.9961694424">
		<tag k="name" v="Ryenneset" />
		<tag k="natural" v="cape" />
		<tag k="ssr:stedsnr" v="173595" />
	</node>
	<node id="-218548" lat="59.2425888926" lon="11.3215555599">
		<tag k="name" v="Svartebekk" />
		<tag k="ssr:stedsnr" v="173575" />
		<tag k="waterway" v="stream" />
	</node>
	<node id="-218547" lat="59.322338885" lon="10.9513194408">
		<tag k="name" v="Skinnerflo" />
		<tag k="ssr:stedsnr" v="173394" />
		<tag k="waterway" v="river" />
	</node>
	<node id="-217521" lat="59.352608332" lon="11.0677416748">
		<tag k="name" v="Trøskebukta" />
		<tag k="natural" v="bay" />
		<tag k="ssr:stedsnr" v="204270" />
	</node>
	<node id="-217520" lat="59.3590055579" lon="11.1498166666">
		<tag k="name" v="Kalvehustangen" />
		<tag k="natural" v="cape" />
		<tag k="ssr:stedsnr" v="204262" />
	</node>
	<node id="-218031" lat="59.2634611138" lon="11.2058111161">
		<tag k="name" v="Tøffeltangen" />
		<tag k="natural" v="cape" />
		<tag k="ssr:stedsnr" v="690917" />
	</node>
	<node id="-218030" lat="59.2777194482" lon="11.1707916673">
		<tag k="name" v="Kalabekken" />
		<tag k="ssr:stedsnr" v="690916" />
		<tag k="waterway" v="stream" />
	</node>
	<node id="-217501" lat="59.3667111142" lon="10.995383338">
		<tag k="name" v="Stokkelibekken" />
		<tag k="ssr:stedsnr" v="173426" />
		<tag k="waterway" v="stream" />
	</node>
	<node id="-217516" lat="59.2368388916" lon="11.3044722182">
		<tag k="name" v="Gørtjern" />
		<tag k="natural" v="water" />
		<tag k="ssr:stedsnr" v="294645" />
	</node>
	<node id="-219049" lat="59.3946583292" lon="11.1537249954">
		<tag k="name" v="Åleskjærbukta" />
		<tag k="natural" v="bay" />
		<tag k="ssr:stedsnr" v="629696" />
	</node>
	<node id="-219041" lat="59.3568833365" lon="11.0947833342">
		<tag k="name" v="Høydebukta" />
		<tag k="natural" v="bay" />
		<tag k="ssr:stedsnr" v="629301" />
	</node>
	<node id="-219040" lat="59.36005556" lon="11.1517055481">
		<tag k="name" v="Jelsnesevja" />
		<tag k="natural" v="bay" />
		<tag k="ssr:stedsnr" v="629293" />
	</node>
	<node id="-217328" lat="59.3713527753" lon="11.1755111065">
		<tag k="name" v="Bjørneholmen" />
		<tag k="place" v="islet" />
		<tag k="ssr:stedsnr" v="22333" />
	</node>
	<node id="-219038" lat="59.3351138894" lon="11.1353027863">
		<tag k="name" v="Holenevja" />
		<tag k="ssr:stedsnr" v="629433" />
		<tag k="waterway" v="stream" />
	</node>
	<node id="-218525" lat="59.2943388856" lon="11.1396277806">
		<tag k="name" v="Sandbukta" />
		<tag k="natural" v="bay" />
		<tag k="ssr:stedsnr" v="143492" />
	</node>
	<node id="-217327" lat="59.3696000017" lon="11.1692138943">
		<tag k="name" v="Lensebråteøya" />
		<tag k="natural" v="cape" />
		<tag k="ssr:stedsnr" v="22325" />
	</node>
	<node id="-218007" lat="59.2717388892" lon="11.3050916721">
		<tag k="alt_name" v="Børtevann" />
		<tag k="name" v="Børtevannet" />
		<tag k="natural" v="water" />
		<tag k="ssr:stedsnr" v="730934" />
		<tag k="water" v="lake" />
	</node>
	<node id="-219027" lat="59.2045500016" lon="11.1885944459">
		<tag k="name" v="Skjebergbekken" />
		<tag k="ssr:stedsnr" v="628140" />
		<tag k="waterway" v="stream" />
	</node>
	<node id="-219025" lat="59.2174138904" lon="11.2675944421">
		<tag k="name" v="Ingridtjernbekken" />
		<tag k="ssr:stedsnr" v="628125" />
		<tag k="waterway" v="stream" />
	</node>
	<node id="-217486" lat="59.2500555541" lon="11.2500111128">
		<tag k="name" v="Langemuren" />
		<tag k="ssr:stedsnr" v="265931" />
		<tag k="waterway" v="dam" />
	</node>
	<node id="-217996" lat="59.2412222202" lon="11.2938611152">
		<tag k="alt_name" v="Mortetjernet" />
		<tag k="name" v="Søndre Morttjern" />
		<tag k="natural" v="water" />
		<tag k="ssr:stedsnr" v="730310" />
	</node>
	<node id="-218507" lat="59.3355277736" lon="11.0682499979">
		<tag k="name" v="Torskenesevja" />
		<tag k="natural" v="strait" />
		<tag k="ssr:stedsnr" v="143388" />
	</node>
	<node id="-217994" lat="59.3515250023" lon="11.0271388943">
		<tag k="name" v="Sølvstufossen" />
		<tag k="natural" v="waterfall" />
		<tag k="ssr:stedsnr" v="730248" />
	</node>
	<node id="-217409" lat="59.3444138881" lon="11.1268083394">
		<tag k="name" v="Hærenbekken" />
		<tag k="ssr:stedsnr" v="83267" />
		<tag k="waterway" v="stream" />
	</node>
	<node id="-217986" lat="59.2473250035" lon="11.2877972265">
		<tag k="alt_name" v="Mortetjernet" />
		<tag k="name" v="Nordre Morttjern" />
		<tag k="natural" v="water" />
		<tag k="ssr:stedsnr" v="729584" />
	</node>
	<node id="-218494" lat="59.2223083368" lon="11.1922583271">
		<tag k="name" v="Heiabekken" />
		<tag k="ssr:stedsnr" v="143120" />
		<tag k="waterway" v="stream" />
	</node>
	<node id="-219004" lat="59.387256166" lon="11.0751785958">
		<tag k="name" v="Setertjernet" />
		<tag k="natural" v="water" />
		<tag k="ssr:stedsnr" v="609275" />
	</node>
	<node id="-217976" lat="59.3026388926" lon="11.1541916689">
		<tag k="name" v="Stentangen" />
		<tag k="natural" v="cape" />
		<tag k="ssr:stedsnr" v="629511" />
	</node>
	<node id="-217406" lat="59.3397166676" lon="11.0741194401">
		<tag k="name" v="Migebekken" />
		<tag k="ssr:stedsnr" v="83253" />
		<tag k="waterway" v="stream" />
	</node>
	<node id="-218991" lat="59.3379111101" lon="11.0494638955">
		<tag k="name" v="Bukkeholmen" />
		<tag k="place" v="islet" />
		<tag k="ssr:stedsnr" v="608476" />
	</node>
	<node id="-218477" lat="59.2264861072" lon="11.0965861068">
		<tag k="name" v="Oredalsbekken" />
		<tag k="ssr:stedsnr" v="143019" />
		<tag k="waterway" v="stream" />
	</node>
	<node id="-217962" lat="59.285097225" lon="11.1638972207">
		<tag k="name" v="Nord-Tangen" />
		<tag k="natural" v="cape" />
		<tag k="ssr:stedsnr" v="629106" />
	</node>
	<node id="-218170" lat="59.2434805595" lon="11.2462972248">
		<tag k="name" v="Tvetervann" />
		<tag k="natural" v="water" />
		<tag k="ssr:stedsnr" v="851573" />
		<tag k="water" v="lake" />
	</node>
	<node id="-218979" lat="59.3275305591" lon="11.0495805563">
		<tag k="name" v="Lunneholmene" />
		<tag k="place" v="islet" />
		<tag k="ssr:stedsnr" v="597430" />
	</node>
	<node id="-217573" lat="59.3524749985" lon="11.0587194398">
		<tag k="name" v="Vestvannet" />
		<tag k="natural" v="water" />
		<tag k="ssr:stedsnr" v="245455" />
		<tag k="water" v="lake" />
	</node>
	<node id="-219194" lat="59.2476305541" lon="11.3084277778">
		<tag k="name" v="Store Grinerødtjern" />
		<tag k="natural" v="water" />
		<tag k="ssr:stedsnr" v="841599" />
	</node>
	<node id="-217982" lat="59.3719222188" lon="11.0982444399">
		<tag k="name" v="Hassellibekken" />
		<tag k="ssr:stedsnr" v="629717" />
		<tag k="waterway" v="stream" />
	</node>
	<node id="-218968" lat="59.2601555593" lon="11.2924388874">
		<tag k="name" v="Fjellbråtbekken" />
		<tag k="ssr:stedsnr" v="569156" />
		<tag k="waterway" v="stream" />
	</node>
	<node id="-218964" lat="59.2820166645" lon="11.2213638892">
		<tag k="name" v="Nestangen" />
		<tag k="natural" v="cape" />
		<tag k="ssr:stedsnr" v="568897" />
	</node>
	<node id="-217423" lat="59.2774972263" lon="11.2196361053">
		<tag k="name" v="Fløvikholmen" />
		<tag k="place" v="islet" />
		<tag k="ssr:stedsnr" v="83909" />
	</node>
	<node id="-217932" lat="59.3537666659" lon="10.996836115">
		<tag k="alt_name" v="Skaugetjern" />
		<tag k="name" v="Skogtjernet" />
		<tag k="natural" v="water" />
		<tag k="ssr:stedsnr" v="608244" />
	</node>
	<node id="-217416" lat="59.3342350473" lon="11.0733825323">
		<tag k="name" v="Vierholmen" />
		<tag k="place" v="islet" />
		<tag k="ssr:stedsnr" v="83418" />
	</node>
	<node id="-217484" lat="59.2728277781" lon="11.2319277712">
		<tag k="name" v="Rånesbukta" />
		<tag k="natural" v="bay" />
		<tag k="ssr:stedsnr" v="265893" />
	</node>
	<node id="-217414" lat="59.3334416642" lon="11.0584361134">
		<tag k="name" v="Kattekrossodden" />
		<tag k="place" v="island" />
		<tag k="ssr:stedsnr" v="83414" />
	</node>
	<node id="-217413" lat="59.3226361153" lon="11.0554944493">
		<tag k="name" v="Kalnesøya" />
		<tag k="place" v="island" />
		<tag k="ssr:stedsnr" v="83412" />
	</node>
	<node id="-217411" lat="59.3140388909" lon="11.0770166744">
		<tag k="name" v="Kalleløkka" />
		<tag k="natural" v="cape" />
		<tag k="ssr:stedsnr" v="83403" />
	</node>
	<node id="-218945" lat="59.1341472184" lon="11.1349805621">
		<tag k="name" v="Prestenga" />
		<tag k="natural" v="bay" />
		<tag k="ssr:stedsnr" v="568417" />
	</node>
	<node id="-218944" lat="59.3264361155" lon="11.0786277794">
		<tag k="name" v="Tranga" />
		<tag k="natural" v="shoal" />
		<tag k="place" v="locality" />
		<tag k="ssr:stedsnr" v="568414" />
	</node>
	<node id="-217918" lat="59.2816555533" lon="11.2486472187">
		<tag k="name" v="Djupvik" />
		<tag k="natural" v="bay" />
		<tag k="ssr:stedsnr" v="750880" />
	</node>
	<node id="-218940" lat="59.3098527786" lon="11.0990250062">
		<tag k="name" v="Lilleholmen" />
		<tag k="place" v="islet" />
		<tag k="ssr:stedsnr" v="568408" />
	</node>
	<node id="-218506" lat="59.1607333356" lon="11.147194452">
		<tag k="name" v="Ørsengbekken" />
		<tag k="ssr:stedsnr" v="143378" />
		<tag k="waterway" v="stream" />
	</node>
	<node id="-217912" lat="59.2813249995" lon="11.2762388825">
		<tag k="name" v="Buerelva" />
		<tag k="ssr:stedsnr" v="690901" />
		<tag k="waterway" v="river" />
	</node>
	<node id="-217909" lat="59.2955249994" lon="11.1411583406">
		<tag k="name" v="Nordneset" />
		<tag k="natural" v="cape" />
		<tag k="ssr:stedsnr" v="690545" />
	</node>
	<node id="-217908" lat="59.2935277787" lon="11.1572305623">
		<tag k="name" v="Kulpa" />
		<tag k="natural" v="bay" />
		<tag k="ssr:stedsnr" v="690542" />
	</node>
	<node id="-217822" lat="59.3511111142" lon="11.0254249926">
		<tag k="name" v="Langskjermen" />
		<tag k="ssr:stedsnr" v="476467" />
		<tag k="waterway" v="rapids" />
	</node>
	<node id="-217906" lat="59.2994500005" lon="11.1246027758">
		<tag k="name" v="Tjueklo" />
		<tag k="natural" v="bay" />
		<tag k="ssr:stedsnr" v="690535" />
	</node>
	<node id="-217801" lat="59.2326499982" lon="11.3103250009">
		<tag k="alt_name" v="Svarttjern" />
		<tag k="name" v="Svarttjernet" />
		<tag k="natural" v="water" />
		<tag k="ssr:stedsnr" v="669934" />
	</node>
	<node id="-217904" lat="59.307383329" lon="11.147083333">
		<tag k="name" v="Nordbytangen" />
		<tag k="natural" v="cape" />
		<tag k="ssr:stedsnr" v="690528" />
	</node>
	<node id="-217903" lat="59.2948000041" lon="11.2087611073">
		<tag k="name" v="Fjøsbråten" />
		<tag k="natural" v="cape" />
		<tag k="ssr:stedsnr" v="690502" />
	</node>
	<node id="-218410" lat="59.2864166677" lon="11.1510777691">
		<tag k="name" v="Gjerløvevja" />
		<tag k="natural" v="bay" />
		<tag k="ssr:stedsnr" v="83099" />
	</node>
	<node id="-217896" lat="59.2024638879" lon="11.1007777756">
		<tag k="name" v="Stordiket" />
		<tag k="ssr:stedsnr" v="690463" />
		<tag k="waterway" v="stream" />
	</node>
	<node id="-218405" lat="59.2969083294" lon="11.2414333298">
		<tag k="name" v="Lommeskjær" />
		<tag k="natural" v="cape" />
		<tag k="ssr:stedsnr" v="83047" />
	</node>
	<node id="-217892" lat="59.3125777772" lon="11.0932722273">
		<tag k="name" v="Katteskjær" />
		<tag k="place" v="islet" />
		<tag k="ssr:stedsnr" v="690441" />
	</node>
	<node id="-217734" lat="59.3035055564" lon="11.0854027695">
		<tag k="name" v="Stenrødodden" />
		<tag k="natural" v="cape" />
		<tag k="ssr:stedsnr" v="508429" />
	</node>
	<node id="-217889" lat="59.3661444444" lon="11.1724166697">
		<tag k="name" v="Lundeevja" />
		<tag k="natural" v="strait" />
		<tag k="ssr:stedsnr" v="690405" />
	</node>
	<node id="-218586" lat="59.2912774919" lon="11.1467661377">
		<tag k="alt_name" v="Hafslundsøy" />
		<tag k="fixme" v="multiple name tags, choose one and add the other to alt_name" />
		<tag k="name" v="Hafslundøya;Rødsøya" />
		<tag k="place" v="island" />
		<tag k="ssr:stedsnr" v="184960" />
	</node>
	<node id="-217369" lat="59.3542333351" lon="11.065291661">
		<tag k="name" v="Trøsken" />
		<tag k="place" v="islet" />
		<tag k="ssr:stedsnr" v="63515" />
	</node>
	<node id="-217368" lat="59.3924075363" lon="11.1757646517">
		<tag k="name" v="Storbogen" />
		<tag k="natural" v="bay" />
		<tag k="ssr:stedsnr" v="63830" />
	</node>
	<node id="-218903" lat="59.2930638912" lon="11.0837472305">
		<tag k="name" v="Kirkeverpen" />
		<tag k="natural" v="bay" />
		<tag k="ssr:stedsnr" v="568024" />
	</node>
	<node id="-217305" lat="59.2894749963" lon="11.2657750078">
		<tag k="alt_name" v="Skaengtangen" />
		<tag k="name" v="Skaentangen" />
		<tag k="natural" v="cape" />
		<tag k="ssr:stedsnr" v="2885" />
	</node>
	<node id="-217876" lat="59.2869777737" lon="11.3264638847">
		<tag k="name" v="Høgnipetjern" />
		<tag k="natural" v="water" />
		<tag k="ssr:stedsnr" v="690175" />
	</node>
	<node id="-218328" lat="59.3868305561" lon="11.1934583353">
		<tag k="name" v="Gryteevja" />
		<tag k="natural" v="bay" />
		<tag k="ssr:stedsnr" v="22725" />
	</node>
	<node id="-218381" lat="59.3483749959" lon="11.0187722195">
		<tag k="name" v="Ågårdselva" />
		<tag k="ssr:stedsnr" v="63498" />
		<tag k="waterway" v="river" />
	</node>
	<node id="-217868" lat="59.2914527771" lon="11.1412388876">
		<tag k="name" v="Neset" />
		<tag k="natural" v="cape" />
		<tag k="ssr:stedsnr" v="690111" />
	</node>
	<node id="-217474" lat="59.2388416702" lon="11.1579777718">
		<tag k="name" v="Haugebekken" />
		<tag k="ssr:stedsnr" v="265508" />
		<tag k="waterway" v="stream" />
	</node>
	<node id="-218369" lat="59.2283187505" lon="11.3076982643">
		<tag k="alt_name" v="Kutjerne" />
		<tag k="name" v="Kutjernet" />
		<tag k="natural" v="water" />
		<tag k="ssr:stedsnr" v="62915" />
	</node>
	<node id="-217432" lat="59.3132638909" lon="11.2850305612">
		<tag k="name" v="Kedronsbekk" />
		<tag k="ssr:stedsnr" v="265013" />
		<tag k="waterway" v="stream" />
	</node>
	<node id="-218922" lat="59.2174833329" lon="11.2749694363">
		<tag k="name" v="Vesttorpbekken" />
		<tag k="ssr:stedsnr" v="568128" />
		<tag k="waterway" v="stream" />
	</node>
	<node id="-218361" lat="59.2467911089" lon="11.3107078946">
		<tag k="name" v="Grinderødtjerna" />
		<tag k="natural" v="water" />
		<tag k="ssr:stedsnr" v="62583" />
		<tag k="water" v="lake" />
	</node>
	<node id="-218359" lat="59.280686112" lon="11.0454833283">
		<tag k="name" v="Vetabekken" />
		<tag k="ssr:stedsnr" v="52734" />
		<tag k="waterway" v="stream" />
	</node>
	<node id="-217524" lat="59.3001861153" lon="11.081922214">
		<tag k="name" v="Abborberget" />
		<tag k="natural" v="cape" />
		<tag k="ssr:stedsnr" v="204343" />
	</node>
	<node id="-218355" lat="59.342358332" lon="11.0000388912">
		<tag k="name" v="Kollerødevja" />
		<tag k="natural" v="water" />
		<tag k="ssr:stedsnr" v="52430" />
		<tag k="water" v="lake" />
	</node>
	<node id="-218352" lat="59.3392972215" lon="10.9734638838">
		<tag k="name" v="Møllerødbekken" />
		<tag k="ssr:stedsnr" v="52349" />
		<tag k="waterway" v="stream" />
	</node>
	<node id="-217839" lat="59.2812611084" lon="11.258052783">
		<tag k="name" v="Sætrevika" />
		<tag k="natural" v="bay" />
		<tag k="ssr:stedsnr" v="508908" />
	</node>
	<node id="-218237" lat="59.2854444469" lon="11.1549555494">
		<tag k="name" v="Tinnlaget" />
		<tag k="natural" v="strait" />
		<tag k="ssr:stedsnr" v="933116" />
	</node>
	<node id="-217319" lat="59.2052972196" lon="11.2683444357">
		<tag k="name" v="Thuletjernbekken" />
		<tag k="ssr:stedsnr" v="22105" />
		<tag k="waterway" v="stream" />
	</node>
	<node id="-217830" lat="59.3336500003" lon="11.0824527838">
		<tag k="name" v="Bjørnlandbukta" />
		<tag k="natural" v="bay" />
		<tag k="ssr:stedsnr" v="508459" />
	</node>
	<node id="-217829" lat="59.2781555557" lon="11.1404000073">
		<tag k="name" v="Østhølen" />
		<tag k="place" v="locality" />
		<tag k="ssr:stedsnr" v="508093" />
	</node>
	<node id="-218846" lat="59.3135500036" lon="11.1017222145">
		<tag k="alt_name" v="Storholmen" />
		<tag k="name" v="Storeholmen" />
		<tag k="place" v="island" />
		<tag k="ssr:stedsnr" v="427945" />
	</node>
	<node id="-217820" lat="59.3753888888" lon="10.9788361076">
		<tag k="name" v="Laengbekken" />
		<tag k="ssr:stedsnr" v="476454" />
		<tag k="waterway" v="stream" />
	</node>
	<node id="-218843" lat="59.269702775" lon="11.3466222262">
		<tag k="name" v="Langen" />
		<tag k="natural" v="water" />
		<tag k="ssr:stedsnr" v="427917" />
		<tag k="water" v="lake" />
	</node>
	<node id="-218842" lat="59.2854500038" lon="11.1741444469">
		<tag k="name" v="Nipa" />
		<tag k="natural" v="strait" />
		<tag k="ssr:stedsnr" v="427885" />
	</node>
	<node id="-218329" lat="59.3916250027" lon="11.1693999922">
		<tag k="name" v="Mierbekken" />
		<tag k="ssr:stedsnr" v="22732" />
		<tag k="waterway" v="stream" />
	</node>
	<node id="-218840" lat="59.2773999999" lon="11.1397749948">
		<tag k="name" v="Hølen" />
		<tag k="natural" v="strait" />
		<tag k="ssr:stedsnr" v="427880" />
	</node>
	<node id="-217415" lat="59.3266944463" lon="11.0618833359">
		<tag k="name" v="Vestvika" />
		<tag k="natural" v="bay" />
		<tag k="ssr:stedsnr" v="83415" />
	</node>
	<node id="-217721" lat="59.2275583336" lon="11.1627277755">
		<tag k="name" v="Bøbekken" />
		<tag k="ssr:stedsnr" v="508031" />
		<tag k="waterway" v="stream" />
	</node>
	<node id="-217809" lat="59.3439861113" lon="11.044997217">
		<tag k="name" v="Isnesfjorden" />
		<tag k="natural" v="bay" />
		<tag k="ssr:stedsnr" v="670437" />
	</node>
	<node id="-218320" lat="59.3190250009" lon="11.1444666694">
		<tag k="name" v="Ulvetangen" />
		<tag k="natural" v="cape" />
		<tag k="ssr:stedsnr" v="22371" />
	</node>
	<node id="-217807" lat="59.3302790482" lon="11.0727383439">
		<tag k="name" v="Eidsholmen" />
		<tag k="place" v="islet" />
		<tag k="ssr:stedsnr" v="670420" />
	</node>
	<node id="-218317" lat="59.3574027791" lon="11.0802027725">
		<tag k="name" v="Bussvika" />
		<tag k="natural" v="bay" />
		<tag k="ssr:stedsnr" v="22289" />
	</node>
	<node id="-217551" lat="59.3254436071" lon="11.0685297799">
		<tag k="name" v="Østvika" />
		<tag k="natural" v="bay" />
		<tag k="ssr:stedsnr" v="447400" />
	</node>
	<node id="-218313" lat="59.3371000042" lon="11.1659138962">
		<tag k="name" v="Bukkhornet" />
		<tag k="place" v="islet" />
		<tag k="ssr:stedsnr" v="22263" />
	</node>
	<node id="-217798" lat="59.2858249982" lon="11.2453111099">
		<tag k="name" v="Vestgårdtangen" />
		<tag k="natural" v="cape" />
		<tag k="ssr:stedsnr" v="669891" />
	</node>
	<node id="-218308" lat="59.236108337" lon="11.253122222">
		<tag k="name" v="Skinnarbekk" />
		<tag k="ssr:stedsnr" v="22091" />
		<tag k="waterway" v="stream" />
	</node>
	<node id="-218230" lat="59.3045444438" lon="11.2814361081">
		<tag k="name" v="Røstadbekken" />
		<tag k="ssr:stedsnr" v="933025" />
		<tag k="waterway" v="stream" />
	</node>
	<node id="-218827" lat="60.9394388853" lon="11.516244439">
		<tag k="fixme" v="multiple name tags, choose one and add the other to alt_name" />
		<tag k="name" v="Glomma;Glåma" />
		<tag k="ssr:stedsnr" v="426301" />
		<tag k="waterway" v="river" />
	</node>
	<node id="-217789" lat="59.1913777756" lon="11.2576166677">
		<tag k="name" v="Syverstadvannet" />
		<tag k="natural" v="water" />
		<tag k="ssr:stedsnr" v="668979" />
	</node>
	<node id="-218299" lat="59.2817749981" lon="11.2868888845">
		<tag k="name" v="Buerfossen" />
		<tag k="natural" v="waterfall" />
		<tag k="ssr:stedsnr" v="22137" />
	</node>
	<node id="-219322" lat="59.3588396759" lon="11.2665327376">
		<tag k="name" v="Fjelletjernet" />
		<tag k="natural" v="water" />
		<tag k="ssr:stedsnr" v="568327" />
	</node>
	<node id="-217783" lat="59.3782611098" lon="11.0398916654">
		<tag k="alt_name" v="Tjernetjern" />
		<tag k="name" v="Tjernetjernet" />
		<tag k="natural" v="water" />
		<tag k="ssr:stedsnr" v="670293" />
	</node>
	<node id="-217545" lat="59.3267416701" lon="11.1528055565">
		<tag k="name" v="Høna" />
		<tag k="place" v="islet" />
		<tag k="ssr:stedsnr" v="447353" />
	</node>
	<node id="-217482" lat="59.3873694408" lon="11.1893861194">
		<tag k="name" v="Tangen" />
		<tag k="natural" v="cape" />
		<tag k="ssr:stedsnr" v="265776" />
	</node>
	<node id="-218799" lat="59.2934972204" lon="11.0838750045">
		<tag k="name" v="Klokkerødbukta" />
		<tag k="natural" v="bay" />
		<tag k="ssr:stedsnr" v="386450" />
	</node>
	<node id="-217774" lat="59.3712249975" lon="11.1697861192">
		<tag k="name" v="Bisholmen" />
		<tag k="natural" v="cape" />
		<tag k="ssr:stedsnr" v="447322" />
	</node>
	<node id="-218796" lat="59.3286900998" lon="11.066049683">
		<tag k="name" v="Torskenesodden" />
		<tag k="natural" v="cape" />
		<tag k="ssr:stedsnr" v="386393" />
	</node>
	<node id="-218794" lat="59.3088083357" lon="11.0622583351">
		<tag k="name" v="Grønntangen" />
		<tag k="natural" v="cape" />
		<tag k="ssr:stedsnr" v="386385" />
	</node>
	<node id="-218791" lat="59.3470083337" lon="11.0556888895">
		<tag k="name" v="Haugeskjærbukta" />
		<tag k="natural" v="bay" />
		<tag k="ssr:stedsnr" v="386298" />
	</node>
	<node id="-218822" lat="59.3212416684" lon="11.0342277835">
		<tag k="name" v="Øsakerevja" />
		<tag k="natural" v="bay" />
		<tag k="ssr:stedsnr" v="416385" />
	</node>
	<node id="-217371" lat="59.2513500033" lon="11.2992000072">
		<tag k="name" v="Galtetjern" />
		<tag k="natural" v="water" />
		<tag k="ssr:stedsnr" v="63913" />
	</node>
	<node id="-218782" lat="59.1870722243" lon="11.2581222156">
		<tag k="name" v="Syverstadvannbekken" />
		<tag k="ssr:stedsnr" v="386098" />
		<tag k="waterway" v="stream" />
	</node>
	<node id="-218779" lat="59.2672499991" lon="11.0702166683">
		<tag k="name" v="Helleskjær" />
		<tag k="place" v="islet" />
		<tag k="ssr:stedsnr" v="386085" />
	</node>
	<node id="-217743" lat="59.2299999975" lon="11.2979249951">
		<tag k="alt_name" v="Ingridtjern" />
		<tag k="name" v="Ingridtjernet" />
		<tag k="natural" v="water" />
		<tag k="ssr:stedsnr" v="426937" />
	</node>
	<node id="-219271" lat="59.2344333301" lon="11.3028888852">
		<tag k="name" v="Rørtjern" />
		<tag k="natural" v="water" />
		<tag k="ssr:stedsnr" v="962591" />
	</node>
	<node id="-218758" lat="59.2807499988" lon="11.2201972135">
		<tag k="name" v="Fløviktangen" />
		<tag k="natural" v="cape" />
		<tag k="ssr:stedsnr" v="366851" />
	</node>
	<node id="-219268" lat="59.2393388886" lon="11.2864750038">
		<tag k="name" v="Lille Krysstjern" />
		<tag k="natural" v="water" />
		<tag k="ssr:stedsnr" v="962579" />
	</node>
	<node id="-218243" lat="59.3247972233" lon="11.1409666663">
		<tag k="name" v="Nordre Maugestenevja" />
		<tag k="natural" v="bay" />
		<tag k="ssr:stedsnr" v="933413" />
	</node>
	<node id="-218731" lat="59.3243611123" lon="11.0391611024">
		<tag k="name" v="Øsakerhalsen" />
		<tag k="natural" v="strait" />
		<tag k="ssr:stedsnr" v="355390" />
	</node>
	<node id="-217728" lat="59.3544111093" lon="11.0659888965">
		<tag k="name" v="Trøskenholmen" />
		<tag k="place" v="islet" />
		<tag k="ssr:stedsnr" v="508250" />
	</node>
	<node id="-217727" lat="59.3419361153" lon="11.0680694467">
		<tag k="name" v="Torskenesbukta" />
		<tag k="natural" v="bay" />
		<tag k="ssr:stedsnr" v="508246" />
	</node>
	<node id="-218749" lat="59.3071249975" lon="11.0900749913">
		<tag k="name" v="Tunevannet" />
		<tag k="natural" v="water" />
		<tag k="ssr:stedsnr" v="366402" />
		<tag k="water" v="lake" />
	</node>
	<node id="-218236" lat="59.2771972191" lon="11.139241669">
		<tag k="name" v="Jomfrudammen" />
		<tag k="natural" v="bay" />
		<tag k="ssr:stedsnr" v="933115" />
	</node>
	<node id="-218233" lat="59.1467694463" lon="11.2167111099">
		<tag k="name" v="Bjønnengbekken" />
		<tag k="ssr:stedsnr" v="933038" />
		<tag k="waterway" v="stream" />
	</node>
	<node id="-219256" lat="59.2905916674" lon="11.1758805518">
		<tag k="name" v="Nipeholmen" />
		<tag k="place" v="islet" />
		<tag k="ssr:stedsnr" v="872899" />
	</node>
	<node id="-218179" lat="59.3459666643" lon="11.07769722">
		<tag k="name" v="Tunøya" />
		<tag k="place" v="island" />
		<tag k="ssr:stedsnr" v="853779" />
	</node>
	<node id="-219254" lat="59.3742055564" lon="11.1045944467">
		<tag k="name" v="Rambergbukta" />
		<tag k="natural" v="bay" />
		<tag k="ssr:stedsnr" v="872736" />
	</node>
	<node id="-219251" lat="59.3846666687" lon="11.1217444413">
		<tag k="name" v="Drammane" />
		<tag k="natural" v="bay" />
		<tag k="ssr:stedsnr" v="872710" />
	</node>
	<node id="-219250" lat="59.3866916684" lon="11.1270777749">
		<tag k="name" v="Mingetangen" />
		<tag k="natural" v="cape" />
		<tag k="ssr:stedsnr" v="872702" />
	</node>
	<node id="-219249" lat="59.3062527809" lon="11.1326777773">
		<tag k="name" v="Baterødbukta" />
		<tag k="natural" v="bay" />
		<tag k="ssr:stedsnr" v="872502" />
	</node>
	<node id="-219248" lat="59.2343611102" lon="11.1056388873">
		<tag k="name" v="Moltebergbekken" />
		<tag k="ssr:stedsnr" v="872501" />
		<tag k="waterway" v="stream" />
	</node>
	<node id="-219245" lat="59.3203249981" lon="11.0724138848">
		<tag k="name" v="Stenbekkøya" />
		<tag k="place" v="island" />
		<tag k="ssr:stedsnr" v="872451" />
	</node>
	<node id="-218220" lat="59.386741668" lon="10.9877027863">
		<tag k="name" v="Svarttjernbekken" />
		<tag k="ssr:stedsnr" v="901027" />
		<tag k="waterway" v="stream" />
	</node>
	<node id="-218315" lat="59.3784083289" lon="11.1035277847">
		<tag k="name" v="Sagabekken" />
		<tag k="ssr:stedsnr" v="22279" />
		<tag k="waterway" v="stream" />
	</node>
	<node id="-219242" lat="59.356475003" lon="11.0675388856">
		<tag k="name" v="Tjæreommen" />
		<tag k="natural" v="cape" />
		<tag k="ssr:stedsnr" v="872337" />
	</node>
	<node id="-217702" lat="59.3004138904" lon="11.2335361042">
		<tag k="name" v="Kanalen" />
		<tag k="ssr:stedsnr" v="507050" />
		<tag k="waterway" v="stream" />
	</node>
	<node id="-218210" lat="59.2624000038" lon="11.2222416738">
		<tag k="name" v="Tveterbekken" />
		<tag k="ssr:stedsnr" v="872918" />
		<tag k="waterway" v="stream" />
	</node>
	<node id="-217694" lat="59.2983305534" lon="11.1558305471">
		<tag k="name" v="Trinborgevja" />
		<tag k="natural" v="bay" />
		<tag k="ssr:stedsnr" v="386475" />
	</node>
	<node id="-217618" lat="59.3958944422" lon="10.9895055475">
		<tag k="name" v="Nordre Svarttjern" />
		<tag k="natural" v="water" />
		<tag k="ssr:stedsnr" v="477042" />
	</node>
	<node id="-217786" lat="59.2479749991" lon="11.2758972195">
		<tag k="alt_name" v="Rovetjern" />
		<tag k="name" v="Rovetjernet" />
		<tag k="natural" v="water" />
		<tag k="ssr:stedsnr" v="668598" />
	</node>
	<node id="-218713" lat="59.3018694482" lon="11.1979666624">
		<tag k="name" v="Gapestadevja" />
		<tag k="natural" v="strait" />
		<tag k="ssr:stedsnr" v="326466" />
	</node>
	<node id="-218712" lat="59.3321560171" lon="11.0669580991">
		<tag k="name" v="Halsen" />
		<tag k="natural" v="strait" />
		<tag k="ssr:stedsnr" v="326462" />
	</node>
	<node id="-219223" lat="59.2841305514" lon="11.1478833395">
		<tag k="name" v="Eilertsevja" />
		<tag k="natural" v="bay" />
		<tag k="ssr:stedsnr" v="872094" />
	</node>
	<node id="-217685" lat="59.357347219" lon="11.0868888942">
		<tag k="name" v="Ødegårdsbukta" />
		<tag k="natural" v="bay" />
		<tag k="ssr:stedsnr" v="386253" />
	</node>
	<node id="-218707" lat="59.3276472229" lon="11.0649722255">
		<tag k="name" v="Eidsberget" />
		<tag k="place" v="island" />
		<tag k="ssr:stedsnr" v="326437" />
	</node>
	<node id="-218706" lat="59.3202666627" lon="11.0790555538">
		<tag k="name" v="Stenbekktangen" />
		<tag k="natural" v="cape" />
		<tag k="ssr:stedsnr" v="326436" />
	</node>
	<node id="-218705" lat="59.3109333327" lon="11.0683083291">
		<tag k="name" v="Gunnhildholmen" />
		<tag k="place" v="islet" />
		<tag k="ssr:stedsnr" v="326421" />
	</node>
	<node id="-217680" lat="59.2775083312" lon="11.2958305522">
		<tag k="name" v="Høyfoss" />
		<tag k="natural" v="waterfall" />
		<tag k="ssr:stedsnr" v="386170" />
	</node>
	<node id="-218703" lat="59.3371138908" lon="11.1622944523">
		<tag k="name" v="Strømnesevja" />
		<tag k="natural" v="bay" />
		<tag k="ssr:stedsnr" v="326280" />
	</node>
	<node id="-218701" lat="59.3396454194" lon="11.0906651197">
		<tag k="name" v="Bjørnlandevja" />
		<tag k="natural" v="water" />
		<tag k="ssr:stedsnr" v="326263" />
		<tag k="water" v="lake" />
	</node>
	<node id="-218187" lat="59.3367749963" lon="11.1505444451">
		<tag k="name" v="Strømnesevja" />
		<tag k="natural" v="bay" />
		<tag k="ssr:stedsnr" v="872276" />
	</node>
	<node id="-217674" lat="59.2849472201" lon="11.1520583348">
		<tag k="name" v="Kaninholmen" />
		<tag k="place" v="island" />
		<tag k="ssr:stedsnr" v="386108" />
	</node>
	<node id="-218039" lat="59.307941928" lon="10.9912138884">
		<tag k="name" v="Kilen" />
		<tag k="natural" v="bay" />
		<tag k="ssr:stedsnr" v="719603" />
	</node>
	<node id="-217671" lat="59.2962055598" lon="11.2684055523">
		<tag k="name" v="Øbybekken" />
		<tag k="ssr:stedsnr" v="386053" />
		<tag k="waterway" v="stream" />
	</node>
	<node id="-219203" lat="59.3186166636" lon="10.9676083265">
		<tag k="name" v="Visterflo" />
		<tag k="natural" v="water" />
		<tag k="ssr:stedsnr" v="852394" />
		<tag k="water" v="lake" />
	</node>
	<node id="-217665" lat="59.3665999995" lon="11.1052472306">
		<tag k="name" v="Mingevannet" />
		<tag k="natural" v="water" />
		<tag k="ssr:stedsnr" v="488843" />
		<tag k="water" v="lake" />
	</node>
	<node id="-219200" lat="59.1989749994" lon="11.2771000028">
		<tag k="alt_name" v="Thuletjern" />
		<tag k="name" v="Tulletjernet" />
		<tag k="natural" v="water" />
		<tag k="ssr:stedsnr" v="851997" />
	</node>
	<node id="-219196" lat="59.2843611108" lon="11.0482833286">
		<tag k="name" v="Svartebekk" />
		<tag k="ssr:stedsnr" v="841735" />
		<tag k="waterway" v="stream" />
	</node>
	<node id="-218682" lat="59.199441666" lon="11.1959527707">
		<tag k="name" v="Guslundbekken" />
		<tag k="ssr:stedsnr" v="325070" />
		<tag k="waterway" v="stream" />
	</node>
	<node id="-218167" lat="59.3214083374" lon="10.9641833381">
		<tag k="name" v="Larsenholmen" />
		<tag k="natural" v="cape" />
		<tag k="ssr:stedsnr" v="841218" />
	</node>
	<node id="-218163" lat="59.3993805569" lon="11.1910749959">
		<tag k="name" v="Gråtern" />
		<tag k="natural" v="cape" />
		<tag k="ssr:stedsnr" v="933772" />
	</node>
	<node id="-217650" lat="59.2694000013" lon="11.2164500004">
		<tag k="alt_name" v="Isesjø" />
		<tag k="name" v="Isesjøen" />
		<tag k="natural" v="water" />
		<tag k="ssr:stedsnr" v="487900" />
		<tag k="water" v="lake" />
	</node>
	<node id="-218035" lat="59.3319333341" lon="11.0540999944">
		<tag k="name" v="Nesholmene" />
		<tag k="place" v="islet" />
		<tag k="ssr:stedsnr" v="719403" />
	</node>
	<node id="-217647" lat="59.3520027823" lon="11.0468138858">
		<tag k="alt_name" v="Bådstangen" />
		<tag k="name" v="Båtstangen" />
		<tag k="natural" v="cape" />
		<tag k="ssr:stedsnr" v="487256" />
	</node>
	<node id="-218973" lat="59.3179249977" lon="10.9682888908">
		<tag k="name" v="Nesholmen" />
		<tag k="place" v="islet" />
		<tag k="ssr:stedsnr" v="597435" />
	</node>
	<node id="-218155" lat="59.3447277756" lon="11.151991658">
		<tag k="name" v="Munkholmen" />
		<tag k="place" v="islet" />
		<tag k="ssr:stedsnr" v="933279" />
	</node>
	<node id="-218154" lat="59.3519388901" lon="11.1492777828">
		<tag k="name" v="Sagevja" />
		<tag k="natural" v="bay" />
		<tag k="ssr:stedsnr" v="933268" />
	</node>
	<node id="-218119" lat="59.3874249985" lon="11.1435250055">
		<tag k="alt_name" v="Mingenora" />
		<tag k="name" v="Mingenoret" />
		<tag k="natural" v="strait" />
		<tag k="ssr:stedsnr" v="791824" />
	</node>
	<node id="-218152" lat="59.3661305562" lon="11.1731083356">
		<tag k="name" v="Fellestangen" />
		<tag k="natural" v="cape" />
		<tag k="ssr:stedsnr" v="933388" />
	</node>
	<node id="-217635" lat="59.2835944475" lon="11.259297219">
		<tag k="name" v="Revebåsen" />
		<tag k="natural" v="bay" />
		<tag k="ssr:stedsnr" v="326906" />
	</node>
	<node id="-217634" lat="59.3980194464" lon="11.1840222175">
		<tag k="name" v="Rakkern" />
		<tag k="place" v="island" />
		<tag k="ssr:stedsnr" v="326742" />
	</node>
	<node id="-218715" lat="59.296744444" lon="11.0859250022">
		<tag k="name" v="Prestegårdstangen" />
		<tag k="natural" v="cape" />
		<tag k="ssr:stedsnr" v="326496" />
	</node>
	<node id="-218655" lat="59.264817582" lon="11.2831813885">
		<tag k="name" v="Oppsjø" />
		<tag k="natural" v="water" />
		<tag k="ssr:stedsnr" v="305932" />
		<tag k="water" v="lake" />
	</node>
	<node id="-219166" lat="59.319872223" lon="11.0905416599">
		<tag k="name" v="Stenbekken" />
		<tag k="ssr:stedsnr" v="811406" />
		<tag k="waterway" v="stream" />
	</node>
	<node id="-217818" lat="59.3229194457" lon="11.0452083395">
		<tag k="name" v="Husevja" />
		<tag k="natural" v="bay" />
		<tag k="ssr:stedsnr" v="476419" />
	</node>
	<node id="-219162" lat="59.3028777742" lon="11.0830777793">
		<tag k="name" v="Stenrødbukta" />
		<tag k="natural" v="bay" />
		<tag k="ssr:stedsnr" v="811363" />
	</node>
	<node id="-217528" lat="59.3464916671" lon="10.9692388802">
		<tag k="name" v="Skjærbukta" />
		<tag k="natural" v="bay" />
		<tag k="ssr:stedsnr" v="295386" />
	</node>
	<node id="-218244" lat="59.319433331" lon="11.1347861138">
		<tag k="name" v="Søndre Maugestenevja" />
		<tag k="natural" v="bay" />
		<tag k="ssr:stedsnr" v="933415" />
	</node>
	<node id="-217689" lat="59.3357999998" lon="11.0620861196">
		<tag k="name" v="Kattekrossevja" />
		<tag k="natural" v="strait" />
		<tag k="ssr:stedsnr" v="386411" />
	</node>
	<node id="-218392" lat="59.3014527806" lon="11.2320222144">
		<tag k="alt_name" v="Iseelva" />
		<tag k="name" v="Isoa" />
		<tag k="ssr:stedsnr" v="63975" />
		<tag k="waterway" v="river" />
	</node>
	<node id="-219154" lat="59.2862999964" lon="11.1594972302">
		<tag k="name" v="Bakkelva" />
		<tag k="ssr:stedsnr" v="811115" />
		<tag k="waterway" v="river" />
	</node>
	<node id="-217615" lat="59.244955556" lon="11.3118249962">
		<tag k="name" v="Lille Grinerødtjern" />
		<tag k="natural" v="water" />
		<tag k="ssr:stedsnr" v="476598" />
	</node>
	<node id="-218638" lat="59.2801055524" lon="11.2676611149">
		<tag k="name" v="Buertjernet" />
		<tag k="natural" v="water" />
		<tag k="ssr:stedsnr" v="204891" />
	</node>
	<node id="-218704" lat="59.3591388911" lon="11.070413885">
		<tag k="name" v="Evjebekken" />
		<tag k="ssr:stedsnr" v="326288" />
		<tag k="waterway" v="stream" />
	</node>
	<node id="-218636" lat="59.3602777763" lon="11.0810972147">
		<tag k="name" v="Torbjørnskjær" />
		<tag k="place" v="islet" />
		<tag k="ssr:stedsnr" v="204688" />
	</node>
	<node id="-218711" lat="59.3339499973" lon="11.1540249998">
		<tag k="name" v="Finnestadevja" />
		<tag k="natural" v="bay" />
		<tag k="ssr:stedsnr" v="326455" />
	</node>
	<node id="-218631" lat="59.2933472211" lon="11.2075888949">
		<tag k="name" v="Kampenesevja" />
		<tag k="natural" v="bay" />
		<tag k="ssr:stedsnr" v="204401" />
	</node>
	<node id="-217606" lat="59.3492805559" lon="11.0003055504">
		<tag k="name" v="Dalebekken" />
		<tag k="ssr:stedsnr" v="476480" />
		<tag k="waterway" v="stream" />
	</node>
	<node id="-219141" lat="59.2919500038" lon="11.1313250047">
		<tag k="name" v="Bytangen" />
		<tag k="natural" v="cape" />
		<tag k="ssr:stedsnr" v="791969" />
	</node>
	<node id="-218627" lat="59.296319444" lon="11.1897249957">
		<tag k="name" v="Danserholmen" />
		<tag k="place" v="islet" />
		<tag k="ssr:stedsnr" v="204378" />
	</node>
	<node id="-217602" lat="59.3817333333" lon="11.0265999954">
		<tag k="name" v="Vesletjern" />
		<tag k="natural" v="water" />
		<tag k="ssr:stedsnr" v="476056" />
	</node>
</osm>
