<?xml version="1.0" encoding="UTF-8"?>
<osm generator="osmapis" version="0.6">
	<node id="-205824" lat="59.2542194469" lon="11.2854944474">
		<tag k="name" v="Fjellbråten" />
		<tag k="natural" v="hill" />
		<tag k="place" v="locality" />
		<tag k="ssr:stedsnr" v="873155" />
	</node>
	<node id="-206847" lat="59.2208972228" lon="11.176363895">
		<tag k="fixme" v="consider natural=peak for the most distinct mountains in the district" />
		<tag k="name" v="Nålumåsen" />
		<tag k="natural" v="hill" />
		<tag k="place" v="locality" />
		<tag k="ssr:stedsnr" v="872143" />
	</node>
	<node id="-205822" lat="59.2499249981" lon="11.2333083248">
		<tag k="fixme" v="consider natural=peak for the most distinct mountains in the district" />
		<tag k="name" v="Gateåsen" />
		<tag k="natural" v="hill" />
		<tag k="place" v="locality" />
		<tag k="ssr:stedsnr" v="872925" />
	</node>
	<node id="-205309" lat="59.2618416686" lon="11.2432000075">
		<tag k="name" v="Ulvedalen" />
		<tag k="natural" v="valley" />
		<tag k="place" v="locality" />
		<tag k="ssr:stedsnr" v="386925" />
	</node>
	<node id="-205308" lat="59.2572694459" lon="11.1711472179">
		<tag k="name" v="Klavestadhaugen" />
		<tag k="natural" v="hill" />
		<tag k="place" v="locality" />
		<tag k="ssr:stedsnr" v="386914" />
	</node>
	<node id="-206842" lat="59.1441861112" lon="11.2331861185">
		<tag k="fixme" v="consider natural=peak for the most distinct mountains in the district" />
		<tag k="name" v="Østerås" />
		<tag k="natural" v="hill" />
		<tag k="place" v="locality" />
		<tag k="ssr:stedsnr" v="872039" />
	</node>
	<node id="-205311" lat="59.3023583296" lon="11.2664055585">
		<tag k="name" v="Kirsebærdalen" />
		<tag k="natural" v="valley" />
		<tag k="place" v="locality" />
		<tag k="ssr:stedsnr" v="507046" />
	</node>
	<node id="-205814" lat="59.3929249993" lon="11.1508333272">
		<tag k="name" v="Amdalslandet" />
		<tag k="natural" v="ridge" />
		<tag k="place" v="locality" />
		<tag k="ssr:stedsnr" v="872705" />
	</node>
	<node id="-205811" lat="59.320650002" lon="11.09921944">
		<tag k="name" v="Stenmuren" />
		<tag k="place" v="locality" />
		<tag k="ssr:stedsnr" v="872471" />
	</node>
	<node id="-205297" lat="59.3354277751" lon="11.1429083395">
		<tag k="fixme" v="consider natural=peak for the most distinct mountains in the district" />
		<tag k="name" v="Strømnesåsen" />
		<tag k="natural" v="hill" />
		<tag k="place" v="locality" />
		<tag k="ssr:stedsnr" v="386404" />
	</node>
	<node id="-205808" lat="59.2973194409" lon="11.0798555577">
		<tag k="name" v="Murteberget" />
		<tag k="place" v="locality" />
		<tag k="ssr:stedsnr" v="872411" />
	</node>
	<node id="-206312" lat="59.3528638873" lon="11.1496777821">
		<tag k="name" v="Åserødlandet" />
		<tag k="natural" v="slope" />
		<tag k="place" v="locality" />
		<tag k="ssr:stedsnr" v="326269" />
	</node>
	<node id="-205799" lat="59.1909055591" lon="11.2370499994">
		<tag k="fixme" v="consider natural=peak for the most distinct mountains in the district" />
		<tag k="name" v="Blikkskollen" />
		<tag k="natural" v="hill" />
		<tag k="place" v="locality" />
		<tag k="ssr:stedsnr" v="872105" />
	</node>
	<node id="-206310" lat="59.3483555558" lon="11.1284333298">
		<tag k="fixme" v="consider natural=peak for the most distinct mountains in the district" />
		<tag k="name" v="Galtås" />
		<tag k="natural" v="hill" />
		<tag k="place" v="locality" />
		<tag k="ssr:stedsnr" v="326259" />
	</node>
	<node id="-206309" lat="59.3422083334" lon="11.0689944408">
		<tag k="fixme" v="consider natural=peak for the most distinct mountains in the district" />
		<tag k="name" v="Hvam" />
		<tag k="natural" v="hill" />
		<tag k="place" v="locality" />
		<tag k="ssr:stedsnr" v="326249" />
	</node>
	<node id="-206820" lat="59.358499996" lon="11.0581277778">
		<tag k="alt_name" v="Trøskeåsen" />
		<tag k="fixme" v="consider natural=peak for the most distinct mountains in the district" />
		<tag k="name" v="Trøskåsen" />
		<tag k="natural" v="hill" />
		<tag k="place" v="locality" />
		<tag k="ssr:stedsnr" v="852480" />
	</node>
	<node id="-206819" lat="59.3687921318" lon="11.0540796194">
		<tag k="alt_name" v="Harehjellåsen" />
		<tag k="fixme" v="consider natural=peak for the most distinct mountains in the district" />
		<tag k="loc_name" v="Harahjellåsen" />
		<tag k="name" v="Harahjellsåsen" />
		<tag k="natural" v="hill" />
		<tag k="place" v="locality" />
		<tag k="ssr:stedsnr" v="852279" />
	</node>
	<node id="-206305" lat="59.1830722212" lon="11.1059361191">
		<tag k="fixme" v="consider natural=peak for the most distinct mountains in the district" />
		<tag k="name" v="Lillengåsen" />
		<tag k="natural" v="hill" />
		<tag k="place" v="locality" />
		<tag k="ssr:stedsnr" v="325451" />
	</node>
	<node id="-205136" lat="59.3265916663" lon="11.0986361069">
		<tag k="name" v="Grønnliberga" />
		<tag k="natural" v="hill" />
		<tag k="place" v="locality" />
		<tag k="ssr:stedsnr" v="204365" />
	</node>
	<node id="-206021" lat="59.3763527808" lon="11.1045888818">
		<tag k="name" v="Rambergdalen" />
		<tag k="natural" v="valley" />
		<tag k="place" v="locality" />
		<tag k="ssr:stedsnr" v="83296" />
	</node>
	<node id="-206297" lat="59.1919749982" lon="11.2509999925">
		<tag k="fixme" v="consider natural=peak for the most distinct mountains in the district" />
		<tag k="name" v="Båsen" />
		<tag k="natural" v="hill" />
		<tag k="place" v="locality" />
		<tag k="ssr:stedsnr" v="325121" />
	</node>
	<node id="-206296" lat="59.1684166658" lon="11.183386109">
		<tag k="fixme" v="consider natural=peak for the most distinct mountains in the district" />
		<tag k="name" v="Bjørnehikollen" />
		<tag k="natural" v="hill" />
		<tag k="place" v="locality" />
		<tag k="ssr:stedsnr" v="325097" />
	</node>
	<node id="-205782" lat="59.2303499987" lon="11.1228499946">
		<tag k="fixme" v="consider natural=peak for the most distinct mountains in the district" />
		<tag k="name" v="Blåkollen" />
		<tag k="natural" v="hill" />
		<tag k="place" v="locality" />
		<tag k="ssr:stedsnr" v="851904" />
	</node>
	<node id="-206291" lat="59.2570361155" lon="11.1378916694">
		<tag k="name" v="Skolerabben" />
		<tag k="natural" v="hill" />
		<tag k="place" v="locality" />
		<tag k="ssr:stedsnr" v="325066" />
	</node>
	<node id="-205778" lat="59.3511972204" lon="11.0093527794">
		<tag k="fixme" v="consider natural=peak for the most distinct mountains in the district" />
		<tag k="name" v="Trollerødslottet" />
		<tag k="natural" v="hill" />
		<tag k="place" v="locality" />
		<tag k="ssr:stedsnr" v="841464" />
	</node>
	<node id="-206289" lat="59.2944416676" lon="11.2243861153">
		<tag k="name" v="Næsberga" />
		<tag k="natural" v="hill" />
		<tag k="place" v="locality" />
		<tag k="ssr:stedsnr" v="325046" />
	</node>
	<node id="-206286" lat="59.2928083338" lon="11.2996055555">
		<tag k="name" v="Lureren" />
		<tag k="natural" v="valley" />
		<tag k="place" v="locality" />
		<tag k="ssr:stedsnr" v="325019" />
	</node>
	<node id="-205767" lat="59.3712694483" lon="11.1008055583">
		<tag k="fixme" v="consider natural=peak for the most distinct mountains in the district" />
		<tag k="name" v="Rambergtangen" />
		<tag k="natural" v="hill" />
		<tag k="place" v="locality" />
		<tag k="ssr:stedsnr" v="933286" />
	</node>
	<node id="-206789" lat="59.2724250024" lon="11.2430250054">
		<tag k="fixme" v="consider natural=peak for the most distinct mountains in the district" />
		<tag k="name" v="Ørnekula (ravnekollen)" />
		<tag k="natural" v="hill" />
		<tag k="place" v="locality" />
		<tag k="ssr:stedsnr" v="811872" />
	</node>
	<node id="-205249" lat="59.2448886366" lon="11.2341972106">
		<tag k="name" v="Myggedalen" />
		<tag k="natural" v="valley" />
		<tag k="place" v="locality" />
		<tag k="ssr:stedsnr" v="486598" />
	</node>
	<node id="-205758" lat="59.2585277803" lon="11.3192805593">
		<tag k="fixme" v="consider natural=peak for the most distinct mountains in the district" />
		<tag k="name" v="Brodalsåsen" />
		<tag k="natural" v="hill" />
		<tag k="place" v="locality" />
		<tag k="ssr:stedsnr" v="933141" />
	</node>
	<node id="-206780" lat="59.3272666685" lon="11.2627361071">
		<tag k="fixme" v="consider natural=peak for the most distinct mountains in the district" />
		<tag k="name" v="Havåsen" />
		<tag k="natural" v="hill" />
		<tag k="place" v="locality" />
		<tag k="ssr:stedsnr" v="811423" />
	</node>
	<node id="-205755" lat="59.3452749977" lon="11.0618611069">
		<tag k="fixme" v="consider natural=peak for the most distinct mountains in the district" />
		<tag k="name" v="Sanderødåsen" />
		<tag k="natural" v="hill" />
		<tag k="place" v="locality" />
		<tag k="ssr:stedsnr" v="933248" />
	</node>
	<node id="-205242" lat="59.3614027788" lon="11.0689916735">
		<tag k="name" v="Bjønnebråtan" />
		<tag k="natural" v="ridge" />
		<tag k="place" v="locality" />
		<tag k="ssr:stedsnr" v="326727" />
	</node>
	<node id="-206777" lat="59.3157861077" lon="11.1424249986">
		<tag k="name" v="Gåsemoa" />
		<tag k="place" v="locality" />
		<tag k="ssr:stedsnr" v="811416" />
	</node>
	<node id="-206775" lat="59.1565527821" lon="11.1174583371">
		<tag k="name" v="Langfasten" />
		<tag k="natural" v="slope" />
		<tag k="place" v="locality" />
		<tag k="ssr:stedsnr" v="811394" />
	</node>
	<node id="-205236" lat="59.3529277753" lon="11.1073444392">
		<tag k="name" v="Utnedalen" />
		<tag k="natural" v="valley" />
		<tag k="place" v="locality" />
		<tag k="ssr:stedsnr" v="326311" />
	</node>
	<node id="-205235" lat="59.2520833326" lon="11.3152000004">
		<tag k="fixme" v="consider natural=peak for the most distinct mountains in the district" />
		<tag k="name" v="Bettliåsen" />
		<tag k="natural" v="hill" />
		<tag k="place" v="locality" />
		<tag k="ssr:stedsnr" v="326133" />
	</node>
	<node id="-206770" lat="59.3754194426" lon="11.1055111122">
		<tag k="fixme" v="consider natural=peak for the most distinct mountains in the district" />
		<tag k="name" v="Folungåsen" />
		<tag k="natural" v="hill" />
		<tag k="place" v="locality" />
		<tag k="ssr:stedsnr" v="811269" />
	</node>
	<node id="-205233" lat="59.2109694427" lon="11.1534222202">
		<tag k="name" v="Stenkloppløkka" />
		<tag k="place" v="locality" />
		<tag k="ssr:stedsnr" v="326027" />
	</node>
	<node id="-206766" lat="59.2556499987" lon="11.1428916703">
		<tag k="fixme" v="consider natural=peak for the most distinct mountains in the district" />
		<tag k="name" v="Sandfjella" />
		<tag k="natural" v="hill" />
		<tag k="place" v="locality" />
		<tag k="ssr:stedsnr" v="811164" />
	</node>
	<node id="-206253" lat="59.1985249971" lon="11.2556000059">
		<tag k="alt_name" v="Hjerterås" />
		<tag k="fixme" v="consider natural=peak for the most distinct mountains in the district" />
		<tag k="name" v="Hjerteråsen" />
		<tag k="natural" v="hill" />
		<tag k="place" v="locality" />
		<tag k="ssr:stedsnr" v="304996" />
	</node>
	<node id="-205227" lat="59.271961113" lon="11.0336388968">
		<tag k="alt_name" v="Veten" />
		<tag k="fixme" v="consider natural=peak for the most distinct mountains in the district" />
		<tag k="name" v="Vetatoppen" />
		<tag k="natural" v="hill" />
		<tag k="place" v="locality" />
		<tag k="ssr:stedsnr" v="477039" />
	</node>
	<node id="-205226" lat="59.2722166633" lon="11.0430972211">
		<tag k="fixme" v="consider natural=peak for the most distinct mountains in the district" />
		<tag k="name" v="Greåkerfjellet" />
		<tag k="natural" v="hill" />
		<tag k="place" v="locality" />
		<tag k="ssr:stedsnr" v="477037" />
	</node>
	<node id="-205639" lat="59.2802527789" lon="11.1720361183">
		<tag k="name" v="Bakken" />
		<tag k="place" v="locality" />
		<tag k="ssr:stedsnr" v="690914" />
	</node>
	<node id="-205224" lat="59.3688444417" lon="11.051227776">
		<tag k="fixme" v="consider natural=peak for the most distinct mountains in the district" />
		<tag k="name" v="Hyttåsen" />
		<tag k="natural" v="hill" />
		<tag k="place" v="locality" />
		<tag k="ssr:stedsnr" v="476442" />
	</node>
	<node id="-206247" lat="59.2785111154" lon="11.2389361127">
		<tag k="fixme" v="consider natural=peak for the most distinct mountains in the district" />
		<tag k="name" v="Rånesåsen" />
		<tag k="natural" v="hill" />
		<tag k="place" v="locality" />
		<tag k="ssr:stedsnr" v="204889" />
	</node>
	<node id="-206244" lat="59.3978027769" lon="11.0952499955">
		<tag k="name" v="Kudalen" />
		<tag k="natural" v="valley" />
		<tag k="place" v="locality" />
		<tag k="ssr:stedsnr" v="204660" />
	</node>
	<node id="-205731" lat="59.384025001" lon="11.1748027771">
		<tag k="alt_name" v="Bergmannsåsen" />
		<tag k="fixme" v="consider natural=peak for the most distinct mountains in the district" />
		<tag k="name" v="Suteråsen" />
		<tag k="natural" v="hill" />
		<tag k="place" v="locality" />
		<tag k="ssr:stedsnr" v="791829" />
	</node>
	<node id="-206242" lat="59.3092416628" lon="11.1234388924">
		<tag k="name" v="Herresal" />
		<tag k="natural" v="hill" />
		<tag k="place" v="locality" />
		<tag k="ssr:stedsnr" v="204405" />
	</node>
	<node id="-205217" lat="59.3504000026" lon="11.0168166727">
		<tag k="fixme" v="consider natural=peak for the most distinct mountains in the district" />
		<tag k="name" v="Valbrekkåsen" />
		<tag k="natural" v="hill" />
		<tag k="place" v="locality" />
		<tag k="ssr:stedsnr" v="476481" />
	</node>
	<node id="-205296" lat="59.3408277768" lon="11.081988884">
		<tag k="name" v="Røsedalen" />
		<tag k="natural" v="valley" />
		<tag k="place" v="locality" />
		<tag k="ssr:stedsnr" v="386257" />
	</node>
	<node id="-205325" lat="59.3092277795" lon="11.113397214">
		<tag k="name" v="Appelsintoppen" />
		<tag k="natural" v="hill" />
		<tag k="place" v="locality" />
		<tag k="ssr:stedsnr" v="507445" />
	</node>
	<node id="-205210" lat="59.3583611102" lon="11.0218805621">
		<tag k="fixme" v="consider natural=peak for the most distinct mountains in the district" />
		<tag k="name" v="Bjørnekloåsen" />
		<tag k="natural" v="hill" />
		<tag k="place" v="locality" />
		<tag k="ssr:stedsnr" v="476047" />
	</node>
	<node id="-205716" lat="59.3288555557" lon="11.2423472301">
		<tag k="fixme" v="consider natural=peak for the most distinct mountains in the district" />
		<tag k="name" v="Lindemarkåsen" />
		<tag k="natural" v="hill" />
		<tag k="place" v="locality" />
		<tag k="ssr:stedsnr" v="914797" />
	</node>
	<node id="-205203" lat="59.3622555553" lon="10.9860055471">
		<tag k="fixme" v="consider natural=peak for the most distinct mountains in the district" />
		<tag k="name" v="Svarttjernåsen" />
		<tag k="natural" v="hill" />
		<tag k="place" v="locality" />
		<tag k="ssr:stedsnr" v="294481" />
	</node>
	<node id="-206223" lat="59.2345529832" lon="11.2322920713">
		<tag k="fixme" v="consider natural=peak for the most distinct mountains in the district" />
		<tag k="name" v="Sandås" />
		<tag k="natural" v="hill" />
		<tag k="place" v="locality" />
		<tag k="ssr:stedsnr" v="204085" />
	</node>
	<node id="-206734" lat="59.3143555531" lon="11.0258388898">
		<tag k="name" v="Galteryggen" />
		<tag k="natural" v="ridge" />
		<tag k="place" v="locality" />
		<tag k="ssr:stedsnr" v="780563" />
	</node>
	<node id="-206220" lat="59.1838527804" lon="11.2641250023">
		<tag k="fixme" v="consider natural=peak for the most distinct mountains in the district" />
		<tag k="name" v="Tømmeråsen" />
		<tag k="natural" v="hill" />
		<tag k="place" v="locality" />
		<tag k="ssr:stedsnr" v="204076" />
	</node>
	<node id="-205707" lat="59.3542250016" lon="11.242472225">
		<tag k="fixme" v="consider natural=peak for the most distinct mountains in the district" />
		<tag k="name" v="Brenneåsen" />
		<tag k="natural" v="hill" />
		<tag k="place" v="locality" />
		<tag k="ssr:stedsnr" v="913758" />
	</node>
	<node id="-205194" lat="59.2884722223" lon="11.3012249947">
		<tag k="name" v="Ørneklo" />
		<tag k="natural" v="hill" />
		<tag k="place" v="locality" />
		<tag k="ssr:stedsnr" v="448180" />
	</node>
	<node id="-205193" lat="59.2775666658" lon="11.2857750039">
		<tag k="fixme" v="consider natural=peak for the most distinct mountains in the district" />
		<tag k="name" v="Bueråsen" />
		<tag k="natural" v="hill" />
		<tag k="place" v="locality" />
		<tag k="ssr:stedsnr" v="448178" />
	</node>
	<node id="-206216" lat="59.1397472179" lon="11.2279444408">
		<tag k="fixme" v="consider natural=peak for the most distinct mountains in the district" />
		<tag k="name" v="Bastøåsen" />
		<tag k="natural" v="hill" />
		<tag k="place" v="locality" />
		<tag k="ssr:stedsnr" v="204053" />
	</node>
	<node id="-205964" lat="59.3450611134" lon="11.0077777729">
		<tag k="name" v="Hommellia" />
		<tag k="natural" v="slope" />
		<tag k="place" v="locality" />
		<tag k="ssr:stedsnr" v="52428" />
	</node>
	<node id="-206213" lat="59.2780972205" lon="11.0786083298">
		<tag k="name" v="Alvimdalen" />
		<tag k="natural" v="valley" />
		<tag k="place" v="locality" />
		<tag k="ssr:stedsnr" v="204017" />
	</node>
	<node id="-204950" lat="59.2741027759" lon="11.276177776">
		<tag k="name" v="Revalemdalen" />
		<tag k="natural" v="valley" />
		<tag k="place" v="locality" />
		<tag k="ssr:stedsnr" v="22910" />
	</node>
	<node id="-205888" lat="59.3871767411" lon="11.0889942757">
		<tag k="fixme" v="consider natural=peak for the most distinct mountains in the district" />
		<tag k="name" v="Kjerringa" />
		<tag k="natural" v="hill" />
		<tag k="place" v="locality" />
		<tag k="ssr:stedsnr" v="2311" />
	</node>
	<node id="-205182" lat="59.3867397491" lon="11.0425683228">
		<tag k="alt_name" v="Tjuutåsen" />
		<tag k="fixme" v="consider natural=peak for the most distinct mountains in the district" />
		<tag k="name" v="Tjuetåsen" />
		<tag k="natural" v="hill" />
		<tag k="place" v="locality" />
		<tag k="ssr:stedsnr" v="245276" />
	</node>
	<node id="-204949" lat="59.3830527791" lon="11.2030416645">
		<tag k="fixme" v="consider natural=peak for the most distinct mountains in the district" />
		<tag k="name" v="Hornås" />
		<tag k="natural" v="hill" />
		<tag k="place" v="locality" />
		<tag k="ssr:stedsnr" v="22724" />
	</node>
	<node id="-206716" lat="59.3925027739" lon="11.2081472141">
		<tag k="fixme" v="consider natural=peak for the most distinct mountains in the district" />
		<tag k="name" v="Myrås" />
		<tag k="natural" v="hill" />
		<tag k="place" v="locality" />
		<tag k="ssr:stedsnr" v="750713" />
	</node>
	<node id="-206712" lat="59.4013222181" lon="11.1240222135">
		<tag k="name" v="Askelien" />
		<tag k="natural" v="slope" />
		<tag k="place" v="locality" />
		<tag k="ssr:stedsnr" v="750686" />
	</node>
	<node id="-205683" lat="59.2751277747" lon="11.2469777744">
		<tag k="fixme" v="consider natural=peak for the most distinct mountains in the district" />
		<tag k="name" v="Sætreåsen" />
		<tag k="natural" v="hill" />
		<tag k="place" v="locality" />
		<tag k="ssr:stedsnr" v="912887" />
	</node>
	<node id="-205170" lat="59.3761166676" lon="11.1073083247">
		<tag k="name" v="Hagan" />
		<tag k="natural" v="ridge" />
		<tag k="place" v="locality" />
		<tag k="ssr:stedsnr" v="447696" />
	</node>
	<node id="-205168" lat="59.3911777812" lon="11.1174305564">
		<tag k="fixme" v="consider natural=peak for the most distinct mountains in the district" />
		<tag k="name" v="Køyeåsen" />
		<tag k="natural" v="hill" />
		<tag k="place" v="locality" />
		<tag k="ssr:stedsnr" v="447675" />
	</node>
	<node id="-206703" lat="59.3775472224" lon="11.1297722231">
		<tag k="name" v="Kallesten" />
		<tag k="natural" v="ridge" />
		<tag k="place" v="locality" />
		<tag k="ssr:stedsnr" v="750274" />
	</node>
	<node id="-206190" lat="59.3104750033" lon="11.3058527718">
		<tag k="name" v="Ulvedalen" />
		<tag k="natural" v="valley" />
		<tag k="place" v="locality" />
		<tag k="ssr:stedsnr" v="184935" />
	</node>
	<node id="-206698" lat="59.3676499974" lon="11.0646527689">
		<tag k="fixme" v="consider natural=peak for the most distinct mountains in the district" />
		<tag k="name" v="Skøttåsen" />
		<tag k="natural" v="hill" />
		<tag k="place" v="locality" />
		<tag k="ssr:stedsnr" v="750256" />
	</node>
	<node id="-206694" lat="59.2354611154" lon="11.1653166656">
		<tag k="fixme" v="consider natural=peak for the most distinct mountains in the district" />
		<tag k="name" v="Galgeberget" />
		<tag k="natural" v="hill" />
		<tag k="place" v="locality" />
		<tag k="ssr:stedsnr" v="750468" />
	</node>
	<node id="-205669" lat="59.2478583339" lon="11.3294722213">
		<tag k="name" v="Revedalen" />
		<tag k="natural" v="valley" />
		<tag k="place" v="locality" />
		<tag k="ssr:stedsnr" v="901628" />
	</node>
	<node id="-205154" lat="59.3420416675" lon="11.2047666755">
		<tag k="alt_name" v="Belsbyåsen østre" />
		<tag k="fixme" v="consider natural=peak for the most distinct mountains in the district" />
		<tag k="name" v="Østre Belsbyåsen" />
		<tag k="natural" v="hill" />
		<tag k="place" v="locality" />
		<tag k="ssr:stedsnr" v="447341" />
	</node>
	<node id="-206689" lat="59.1982083292" lon="11.1125722136">
		<tag k="name" v="Grindkleiv" />
		<tag k="natural" v="slope" />
		<tag k="place" v="locality" />
		<tag k="ssr:stedsnr" v="750438" />
	</node>
	<node id="-205383" lat="59.3670472246" lon="11.0801499974">
		<tag k="fixme" v="consider natural=peak for the most distinct mountains in the district" />
		<tag k="name" v="Stangåsen" />
		<tag k="natural" v="hill" />
		<tag k="place" v="locality" />
		<tag k="ssr:stedsnr" v="447253" />
	</node>
	<node id="-205659" lat="59.3052055601" lon="11.2498972142">
		<tag k="alt_name" v="Bjørnås" />
		<tag k="fixme" v="consider natural=peak for the most distinct mountains in the district" />
		<tag k="name" v="Bjørnåsen" />
		<tag k="natural" v="hill" />
		<tag k="place" v="locality" />
		<tag k="ssr:stedsnr" v="730984" />
	</node>
	<node id="-206681" lat="59.202411107" lon="11.1205888884">
		<tag k="fixme" v="consider natural=peak for the most distinct mountains in the district" />
		<tag k="name" v="Brattås" />
		<tag k="natural" v="hill" />
		<tag k="place" v="locality" />
		<tag k="ssr:stedsnr" v="750422" />
	</node>
	<node id="-205142" lat="59.2176666681" lon="11.0887083415">
		<tag k="fixme" v="consider natural=peak for the most distinct mountains in the district" />
		<tag k="name" v="Langås" />
		<tag k="natural" v="hill" />
		<tag k="place" v="locality" />
		<tag k="ssr:stedsnr" v="447021" />
	</node>
	<node id="-206165" lat="59.3674305599" lon="11.0359555591">
		<tag k="name" v="Tassedalen" />
		<tag k="natural" v="valley" />
		<tag k="place" v="locality" />
		<tag k="ssr:stedsnr" v="174203" />
	</node>
	<node id="-205137" lat="59.3598500039" lon="11.0404972217">
		<tag k="fixme" v="consider natural=peak for the most distinct mountains in the district" />
		<tag k="name" v="Tjørneåsen" />
		<tag k="natural" v="hill" />
		<tag k="place" v="locality" />
		<tag k="ssr:stedsnr" v="295047" />
	</node>
	<node id="-205648" lat="59.2351833294" lon="11.2929638963">
		<tag k="fixme" v="consider natural=peak for the most distinct mountains in the district" />
		<tag k="name" v="Krysstjernshøgda" />
		<tag k="natural" v="hill" />
		<tag k="place" v="locality" />
		<tag k="ssr:stedsnr" v="719585" />
	</node>
	<node id="-206671" lat="59.2107583316" lon="11.0827222141">
		<tag k="fixme" v="consider natural=peak for the most distinct mountains in the district" />
		<tag k="name" v="Brandstorpåsen" />
		<tag k="natural" v="hill" />
		<tag k="place" v="locality" />
		<tag k="ssr:stedsnr" v="750018" />
	</node>
	<node id="-206617" lat="59.3663500021" lon="11.2481500048">
		<tag k="alt_name" v="Bøåsen" />
		<tag k="fixme" v="consider natural=peak for the most distinct mountains in the district" />
		<tag k="name" v="Bøkollen" />
		<tag k="natural" v="hill" />
		<tag k="place" v="locality" />
		<tag k="ssr:stedsnr" v="609824" />
	</node>
	<node id="-205129" lat="59.3628861131" lon="11.0795083378">
		<tag k="name" v="Stallberget" />
		<tag k="natural" v="hill" />
		<tag k="place" v="locality" />
		<tag k="ssr:stedsnr" v="204254" />
	</node>
	<node id="-206151" lat="59.3436888901" lon="11.0174750074">
		<tag k="fixme" v="consider natural=peak for the most distinct mountains in the district" />
		<tag k="name" v="Falkåsen" />
		<tag k="natural" v="hill" />
		<tag k="place" v="locality" />
		<tag k="ssr:stedsnr" v="173195" />
	</node>
	<node id="-205125" lat="59.3180333359" lon="10.9935472215">
		<tag k="fixme" v="consider natural=peak for the most distinct mountains in the district" />
		<tag k="name" v="Børstadfjellet" />
		<tag k="natural" v="hill" />
		<tag k="place" v="locality" />
		<tag k="ssr:stedsnr" v="294447" />
	</node>
	<node id="-205636" lat="59.200781208" lon="11.0757859551">
		<tag k="fixme" v="consider natural=peak for the most distinct mountains in the district" />
		<tag k="name" v="Talbergåsen" />
		<tag k="natural" v="hill" />
		<tag k="place" v="locality" />
		<tag k="ssr:stedsnr" v="669307" />
	</node>
	<node id="-205110" lat="59.3675972264" lon="10.9742972254">
		<tag k="name" v="Olaåsen" />
		<tag k="natural" v="hill" />
		<tag k="place" v="locality" />
		<tag k="ssr:stedsnr" v="173424" />
	</node>
	<node id="-206146" lat="59.2655472193" lon="11.2472000085">
		<tag k="fixme" v="consider natural=peak for the most distinct mountains in the district" />
		<tag k="name" v="Tranemyråsen" />
		<tag k="natural" v="hill" />
		<tag k="place" v="locality" />
		<tag k="ssr:stedsnr" v="143924" />
	</node>
	<node id="-206657" lat="59.3167166677" lon="11.1839444472">
		<tag k="name" v="Dypedal" />
		<tag k="natural" v="valley" />
		<tag k="place" v="locality" />
		<tag k="ssr:stedsnr" v="629501" />
	</node>
	<node id="-206142" lat="59.3899361134" lon="11.1891333416">
		<tag k="name" v="Stenløkka" />
		<tag k="place" v="locality" />
		<tag k="ssr:stedsnr" v="143723" />
	</node>
	<node id="-205075" lat="59.3338861099" lon="11.2704722253">
		<tag k="fixme" v="consider natural=peak for the most distinct mountains in the district" />
		<tag k="name" v="Ryggåsen" />
		<tag k="natural" v="hill" />
		<tag k="place" v="locality" />
		<tag k="ssr:stedsnr" v="265458" />
	</node>
	<node id="-206139" lat="59.3699999959" lon="11.0616111124">
		<tag k="name" v="Harehjellen" />
		<tag k="natural" v="valley" />
		<tag k="place" v="locality" />
		<tag k="ssr:stedsnr" v="143702" />
	</node>
	<node id="-206646" lat="59.3491249968" lon="11.0880055478">
		<tag k="name" v="Kuberget" />
		<tag k="natural" v="hill" />
		<tag k="place" v="locality" />
		<tag k="ssr:stedsnr" v="629248" />
	</node>
	<node id="-205109" lat="59.3445250012" lon="11.0231333349">
		<tag k="name" v="Helleren" />
		<tag k="place" v="locality" />
		<tag k="ssr:stedsnr" v="173420" />
	</node>
	<node id="-205108" lat="59.3697222237" lon="11.0388388855">
		<tag k="fixme" v="consider natural=peak for the most distinct mountains in the district" />
		<tag k="name" v="Kvernhusåsen" />
		<tag k="natural" v="hill" />
		<tag k="place" v="locality" />
		<tag k="ssr:stedsnr" v="173411" />
	</node>
	<node id="-206131" lat="59.173286108" lon="11.1536972171">
		<tag k="fixme" v="consider natural=peak for the most distinct mountains in the district" />
		<tag k="name" v="Liatoppen" />
		<tag k="natural" v="hill" />
		<tag k="place" v="locality" />
		<tag k="ssr:stedsnr" v="143473" />
	</node>
	<node id="-205105" lat="59.3788722241" lon="11.0469583278">
		<tag k="alt_name" v="Tjennåsen" />
		<tag k="fixme" v="consider natural=peak for the most distinct mountains in the district" />
		<tag k="name" v="Tjernåsen" />
		<tag k="natural" v="hill" />
		<tag k="place" v="locality" />
		<tag k="ssr:stedsnr" v="173403" />
	</node>
	<node id="-206128" lat="59.3025805557" lon="11.1710472308">
		<tag k="name" v="Moen" />
		<tag k="place" v="locality" />
		<tag k="ssr:stedsnr" v="143456" />
	</node>
	<node id="-206639" lat="59.3093527806" lon="11.2970777721">
		<tag k="fixme" v="consider natural=peak for the most distinct mountains in the district" />
		<tag k="name" v="Romstigen" />
		<tag k="natural" v="hill" />
		<tag k="place" v="locality" />
		<tag k="ssr:stedsnr" v="629026" />
	</node>
	<node id="-206638" lat="59.3068805515" lon="11.280516665">
		<tag k="fixme" v="consider natural=peak for the most distinct mountains in the district" />
		<tag k="name" v="Ravnekollen" />
		<tag k="natural" v="hill" />
		<tag k="place" v="locality" />
		<tag k="ssr:stedsnr" v="629025" />
	</node>
	<node id="-206636" lat="59.2122305532" lon="11.1970694476">
		<tag k="fixme" v="consider natural=peak for the most distinct mountains in the district" />
		<tag k="name" v="Lilletoppen" />
		<tag k="natural" v="hill" />
		<tag k="place" v="locality" />
		<tag k="ssr:stedsnr" v="628131" />
	</node>
	<node id="-206634" lat="59.1868416655" lon="11.2187805513">
		<tag k="name" v="Bissebergdalen" />
		<tag k="natural" v="valley" />
		<tag k="place" v="locality" />
		<tag k="ssr:stedsnr" v="628097" />
	</node>
	<node id="-205097" lat="59.253522223" lon="11.3040027721">
		<tag k="fixme" v="consider natural=peak for the most distinct mountains in the district" />
		<tag k="name" v="Grasskottåsen" />
		<tag k="natural" v="hill" />
		<tag k="place" v="locality" />
		<tag k="ssr:stedsnr" v="266157" />
	</node>
	<node id="-206632" lat="59.1966972193" lon="11.2431750078">
		<tag k="fixme" v="consider natural=peak for the most distinct mountains in the district" />
		<tag k="name" v="Suteråsen" />
		<tag k="natural" v="hill" />
		<tag k="place" v="locality" />
		<tag k="ssr:stedsnr" v="628093" />
	</node>
	<node id="-205607" lat="59.3470749988" lon="10.9757027721">
		<tag k="fixme" v="multiple name tags, choose one and add the other to alt_name; consider natural=peak for the most distinct mountains in the district" />
		<tag k="name" v="Tinteberget;Trestikkberget" />
		<tag k="natural" v="hill" />
		<tag k="place" v="locality" />
		<tag k="ssr:stedsnr" v="730523" />
	</node>
	<node id="-205958" lat="59.3887722226" lon="11.01344444">
		<tag k="name" v="Lønjedalen" />
		<tag k="natural" v="valley" />
		<tag k="place" v="locality" />
		<tag k="ssr:stedsnr" v="52043" />
	</node>
	<node id="-205090" lat="59.3936388875" lon="11.2045611079">
		<tag k="name" v="Dørneshølet" />
		<tag k="natural" v="valley" />
		<tag k="place" v="locality" />
		<tag k="ssr:stedsnr" v="265762" />
	</node>
	<node id="-206113" lat="59.3625666676" lon="11.1284222222">
		<tag k="name" v="Skrikerdalen" />
		<tag k="natural" v="valley" />
		<tag k="place" v="locality" />
		<tag k="ssr:stedsnr" v="143274" />
	</node>
	<node id="-205088" lat="59.4117222193" lon="11.136916671">
		<tag k="fixme" v="consider natural=peak for the most distinct mountains in the district" />
		<tag k="name" v="Maleneåsen" />
		<tag k="natural" v="hill" />
		<tag k="place" v="locality" />
		<tag k="ssr:stedsnr" v="265749" />
	</node>
	<node id="-205087" lat="59.3914833342" lon="11.086736118">
		<tag k="fixme" v="consider natural=peak for the most distinct mountains in the district" />
		<tag k="name" v="Asbjørnåsen" />
		<tag k="natural" v="hill" />
		<tag k="place" v="locality" />
		<tag k="ssr:stedsnr" v="265741" />
	</node>
	<node id="-206622" lat="59.3706499985" lon="11.1937749955">
		<tag k="fixme" v="consider natural=peak for the most distinct mountains in the district" />
		<tag k="name" v="Olaåsen" />
		<tag k="natural" v="hill" />
		<tag k="place" v="locality" />
		<tag k="ssr:stedsnr" v="609833" />
	</node>
	<node id="-205189" lat="59.2651499963" lon="11.3032722213">
		<tag k="name" v="Rognedalen" />
		<tag k="natural" v="valley" />
		<tag k="place" v="locality" />
		<tag k="ssr:stedsnr" v="448154" />
	</node>
	<node id="-206042" lat="59.3750805546" lon="11.0247083388">
		<tag k="fixme" v="consider natural=peak for the most distinct mountains in the district" />
		<tag k="name" v="Høyås" />
		<tag k="natural" v="hill" />
		<tag k="place" v="locality" />
		<tag k="ssr:stedsnr" v="113414" />
	</node>
	<node id="-206106" lat="59.2634749956" lon="11.1356361066">
		<tag k="fixme" v="consider natural=peak for the most distinct mountains in the district" />
		<tag k="name" v="Nordbergfjellet" />
		<tag k="natural" v="hill" />
		<tag k="place" v="locality" />
		<tag k="ssr:stedsnr" v="143135" />
	</node>
	<node id="-206105" lat="59.2653888872" lon="11.1455166661">
		<tag k="name" v="Riseberget" />
		<tag k="natural" v="hill" />
		<tag k="place" v="locality" />
		<tag k="ssr:stedsnr" v="143133" />
	</node>
	<node id="-206615" lat="59.3937000015" lon="11.1952250068">
		<tag k="fixme" v="consider natural=peak for the most distinct mountains in the district" />
		<tag k="name" v="Vedmotsletta" />
		<tag k="natural" v="hill" />
		<tag k="place" v="locality" />
		<tag k="ssr:stedsnr" v="609818" />
	</node>
	<node id="-205273" lat="59.3624000018" lon="11.1998750012">
		<tag k="fixme" v="consider natural=peak for the most distinct mountains in the district" />
		<tag k="name" v="Breidåsen" />
		<tag k="natural" v="hill" />
		<tag k="place" v="locality" />
		<tag k="ssr:stedsnr" v="488780" />
	</node>
	<node id="-206612" lat="59.3634916693" lon="10.9914805474">
		<tag k="fixme" v="consider natural=peak for the most distinct mountains in the district" />
		<tag k="name" v="Skartås" />
		<tag k="natural" v="hill" />
		<tag k="place" v="locality" />
		<tag k="ssr:stedsnr" v="609258" />
	</node>
	<node id="-205587" lat="59.3019694469" lon="11.0798833312">
		<tag k="fixme" v="consider natural=peak for the most distinct mountains in the district" />
		<tag k="name" v="Parkåsen" />
		<tag k="natural" v="hill" />
		<tag k="place" v="locality" />
		<tag k="ssr:stedsnr" v="629408" />
	</node>
	<node id="-206098" lat="59.1296749957" lon="11.1881611064">
		<tag k="fixme" v="consider natural=peak for the most distinct mountains in the district" />
		<tag k="name" v="Grønnsundfjellet" />
		<tag k="natural" v="hill" />
		<tag k="place" v="locality" />
		<tag k="ssr:stedsnr" v="143080" />
	</node>
	<node id="-206097" lat="59.1339166662" lon="11.1937250022">
		<tag k="fixme" v="consider natural=peak for the most distinct mountains in the district" />
		<tag k="name" v="Strandåsen" />
		<tag k="natural" v="hill" />
		<tag k="place" v="locality" />
		<tag k="ssr:stedsnr" v="143075" />
	</node>
	<node id="-206095" lat="59.1877611136" lon="11.1797333364">
		<tag k="name" v="Bryggeberget" />
		<tag k="natural" v="slope" />
		<tag k="place" v="locality" />
		<tag k="ssr:stedsnr" v="143061" />
	</node>
	<node id="-205582" lat="59.3547027817" lon="11.1463166716">
		<tag k="name" v="Triangelen" />
		<tag k="natural" v="hill" />
		<tag k="place" v="locality" />
		<tag k="ssr:stedsnr" v="629255" />
	</node>
	<node id="-205357" lat="59.3477499974" lon="11.0999249998">
		<tag k="alt_name" v="Ilefjellet" />
		<tag k="fixme" v="consider natural=peak for the most distinct mountains in the district" />
		<tag k="name" v="Ilefjell" />
		<tag k="natural" v="hill" />
		<tag k="place" v="locality" />
		<tag k="ssr:stedsnr" v="428757" />
	</node>
	<node id="-205578" lat="59.309933336" lon="11.2788611048">
		<tag k="name" v="Kudalen" />
		<tag k="natural" v="valley" />
		<tag k="place" v="locality" />
		<tag k="ssr:stedsnr" v="629057" />
	</node>
	<node id="-205577" lat="59.3133722199" lon="11.2690861038">
		<tag k="fixme" v="consider natural=peak for the most distinct mountains in the district" />
		<tag k="name" v="Henkle" />
		<tag k="natural" v="hill" />
		<tag k="place" v="locality" />
		<tag k="ssr:stedsnr" v="629056" />
	</node>
	<node id="-205064" lat="59.3470555542" lon="11.1758055534">
		<tag k="name" v="Snøfonna" />
		<tag k="natural" v="hill" />
		<tag k="place" v="locality" />
		<tag k="ssr:stedsnr" v="265337" />
	</node>
	<node id="-205063" lat="59.3479916685" lon="11.0963666733">
		<tag k="name" v="Stokkedalen" />
		<tag k="natural" v="valley" />
		<tag k="place" v="locality" />
		<tag k="ssr:stedsnr" v="265335" />
	</node>
	<node id="-206598" lat="59.3690861152" lon="11.0288722257">
		<tag k="fixme" v="consider natural=peak for the most distinct mountains in the district" />
		<tag k="name" v="Helleåsen" />
		<tag k="natural" v="hill" />
		<tag k="place" v="locality" />
		<tag k="ssr:stedsnr" v="598434" />
	</node>
	<node id="-205060" lat="59.3585805596" lon="11.0699055587">
		<tag k="fixme" v="consider natural=peak for the most distinct mountains in the district" />
		<tag k="name" v="Løkkeåsen" />
		<tag k="natural" v="hill" />
		<tag k="place" v="locality" />
		<tag k="ssr:stedsnr" v="265312" />
	</node>
	<node id="-206592" lat="59.2390500029" lon="11.2993444494">
		<tag k="fixme" v="consider natural=peak for the most distinct mountains in the district" />
		<tag k="name" v="Kransås" />
		<tag k="natural" v="hill" />
		<tag k="place" v="locality" />
		<tag k="ssr:stedsnr" v="597623" />
	</node>
	<node id="-206591" lat="59.3702750009" lon="11.0200027742">
		<tag k="fixme" v="consider natural=peak for the most distinct mountains in the district" />
		<tag k="name" v="Brennrudåsen" />
		<tag k="natural" v="hill" />
		<tag k="place" v="locality" />
		<tag k="ssr:stedsnr" v="597454" />
	</node>
	<node id="-206590" lat="59.3285555523" lon="11.0213055561">
		<tag k="fixme" v="consider natural=peak for the most distinct mountains in the district" />
		<tag k="name" v="Svartedalåsene" />
		<tag k="natural" v="hill" />
		<tag k="place" v="locality" />
		<tag k="ssr:stedsnr" v="597432" />
	</node>
	<node id="-206588" lat="59.3175916624" lon="11.0468916623">
		<tag k="name" v="Husefjellet" />
		<tag k="natural" v="hill" />
		<tag k="place" v="locality" />
		<tag k="ssr:stedsnr" v="597427" />
	</node>
	<node id="-205098" lat="59.2777249985" lon="11.3060277721">
		<tag k="name" v="Klavedalen" />
		<tag k="natural" v="valley" />
		<tag k="place" v="locality" />
		<tag k="ssr:stedsnr" v="266172" />
	</node>
	<node id="-205046" lat="59.169700001" lon="11.2197666704">
		<tag k="name" v="Revekjerr" />
		<tag k="place" v="locality" />
		<tag k="ssr:stedsnr" v="265097" />
	</node>
	<node id="-206579" lat="59.2757833325" lon="11.2809250033">
		<tag k="fixme" v="consider natural=peak for the most distinct mountains in the district" />
		<tag k="name" v="Øvre Bråtane" />
		<tag k="natural" v="hill" />
		<tag k="place" v="locality" />
		<tag k="ssr:stedsnr" v="569175" />
	</node>
	<node id="-205554" lat="59.317252782" lon="11.0899194414">
		<tag k="alt_name" v="Høyknollen" />
		<tag k="fixme" v="consider natural=peak for the most distinct mountains in the district" />
		<tag k="name" v="Høyåsen" />
		<tag k="natural" v="hill" />
		<tag k="place" v="locality" />
		<tag k="ssr:stedsnr" v="609418" />
	</node>
	<node id="-206065" lat="59.3120027802" lon="11.1173499948">
		<tag k="alt_name" v="Landeberga" />
		<tag k="name" v="Landeberget" />
		<tag k="natural" v="hill" />
		<tag k="place" v="locality" />
		<tag k="ssr:stedsnr" v="123962" />
	</node>
	<node id="-206575" lat="59.2700305541" lon="11.2283694464">
		<tag k="name" v="Fiskerlia" />
		<tag k="natural" v="slope" />
		<tag k="place" v="locality" />
		<tag k="ssr:stedsnr" v="568905" />
	</node>
	<node id="-205550" lat="59.2927500037" lon="11.3165500043">
		<tag k="alt_name" v="Brattekleiv" />
		<tag k="fixme" v="consider natural=peak for the most distinct mountains in the district" />
		<tag k="name" v="Brattkleivåsen" />
		<tag k="natural" v="hill" />
		<tag k="place" v="locality" />
		<tag k="ssr:stedsnr" v="608979" />
	</node>
	<node id="-206573" lat="59.2772611095" lon="11.2404972159">
		<tag k="name" v="Rånesdalen" />
		<tag k="natural" v="valley" />
		<tag k="place" v="locality" />
		<tag k="ssr:stedsnr" v="568888" />
	</node>
	<node id="-206571" lat="59.3801666645" lon="11.1090416587">
		<tag k="fixme" v="consider natural=peak for the most distinct mountains in the district" />
		<tag k="name" v="Stueåsen" />
		<tag k="natural" v="hill" />
		<tag k="place" v="locality" />
		<tag k="ssr:stedsnr" v="568690" />
	</node>
	<node id="-206570" lat="59.3855555586" lon="11.0670388945">
		<tag k="fixme" v="consider natural=peak for the most distinct mountains in the district" />
		<tag k="name" v="Merraåsen" />
		<tag k="natural" v="hill" />
		<tag k="place" v="locality" />
		<tag k="ssr:stedsnr" v="568686" />
	</node>
	<node id="-205032" lat="59.4060388917" lon="11.1430833374">
		<tag k="fixme" v="consider natural=peak for the most distinct mountains in the district" />
		<tag k="name" v="Sotåsen" />
		<tag k="natural" v="hill" />
		<tag k="place" v="locality" />
		<tag k="ssr:stedsnr" v="83718" />
	</node>
	<node id="-205031" lat="59.4129444408" lon="11.1297916697">
		<tag k="fixme" v="consider natural=peak for the most distinct mountains in the district" />
		<tag k="name" v="Rognerødåsen" />
		<tag k="natural" v="hill" />
		<tag k="place" v="locality" />
		<tag k="ssr:stedsnr" v="83717" />
	</node>
	<node id="-206566" lat="59.3079833363" lon="11.1261277827">
		<tag k="name" v="Jomfrusal" />
		<tag k="natural" v="hill" />
		<tag k="place" v="locality" />
		<tag k="ssr:stedsnr" v="568465" />
	</node>
	<node id="-205022" lat="59.3069666649" lon="11.10794722">
		<tag k="name" v="Fugleleken" />
		<tag k="natural" v="hill" />
		<tag k="place" v="locality" />
		<tag k="ssr:stedsnr" v="83408" />
	</node>
	<node id="-206045" lat="59.358875001" lon="11.0355833312">
		<tag k="fixme" v="consider natural=peak for the most distinct mountains in the district" />
		<tag k="name" v="Ragnflauråsen" />
		<tag k="natural" v="hill" />
		<tag k="place" v="locality" />
		<tag k="ssr:stedsnr" v="113452" />
	</node>
	<node id="-205020" lat="59.354444441" lon="11.1266305614">
		<tag k="name" v="Kolstadhavna" />
		<tag k="natural" v="valley" />
		<tag k="place" v="locality" />
		<tag k="ssr:stedsnr" v="83271" />
	</node>
	<node id="-205445" lat="59.3877527793" lon="11.2085666731">
		<tag k="fixme" v="consider natural=peak for the most distinct mountains in the district" />
		<tag k="name" v="Gryteåsen" />
		<tag k="natural" v="hill" />
		<tag k="place" v="locality" />
		<tag k="ssr:stedsnr" v="508734" />
	</node>
	<node id="-205018" lat="59.3468416663" lon="11.0916305505">
		<tag k="name" v="Støredalsberget" />
		<tag k="natural" v="hill" />
		<tag k="place" v="locality" />
		<tag k="ssr:stedsnr" v="83263" />
	</node>
	<node id="-206041" lat="59.3231777757" lon="10.9983833279">
		<tag k="name" v="Stikkadalen" />
		<tag k="natural" v="valley" />
		<tag k="place" v="locality" />
		<tag k="ssr:stedsnr" v="113370" />
	</node>
	<node id="-206551" lat="59.3250694415" lon="11.0636055498">
		<tag k="fixme" v="consider natural=peak for the most distinct mountains in the district" />
		<tag k="name" v="Hovdenåsen" />
		<tag k="natural" v="hill" />
		<tag k="place" v="locality" />
		<tag k="ssr:stedsnr" v="568409" />
	</node>
	<node id="-205085" lat="59.3998666644" lon="11.13035556">
		<tag k="name" v="Buskebråten" />
		<tag k="natural" v="hill" />
		<tag k="place" v="locality" />
		<tag k="ssr:stedsnr" v="265733" />
	</node>
	<node id="-205011" lat="59.2612638891" lon="11.1368166613">
		<tag k="name" v="Hanserabben" />
		<tag k="natural" v="hill" />
		<tag k="place" v="locality" />
		<tag k="ssr:stedsnr" v="83066" />
	</node>
	<node id="-206546" lat="59.3508083313" lon="11.1792666665">
		<tag k="fixme" v="consider natural=peak for the most distinct mountains in the district" />
		<tag k="name" v="Solheimåsen" />
		<tag k="natural" v="hill" />
		<tag k="place" v="locality" />
		<tag k="ssr:stedsnr" v="568324" />
	</node>
	<node id="-205520" lat="59.3897916665" lon="11.1137055488">
		<tag k="name" v="Stordalen" />
		<tag k="natural" v="valley" />
		<tag k="place" v="locality" />
		<tag k="ssr:stedsnr" v="690726" />
	</node>
	<node id="-206543" lat="59.3780111103" lon="11.1464472245">
		<tag k="fixme" v="consider natural=peak for the most distinct mountains in the district" />
		<tag k="name" v="Nordre Burås" />
		<tag k="natural" v="hill" />
		<tag k="place" v="locality" />
		<tag k="ssr:stedsnr" v="568303" />
	</node>
	<node id="-206541" lat="59.3633305569" lon="11.061938894">
		<tag k="name" v="Lønjedalen" />
		<tag k="natural" v="valley" />
		<tag k="place" v="locality" />
		<tag k="ssr:stedsnr" v="568289" />
	</node>
	<node id="-206028" lat="59.3820472232" lon="11.1748638867">
		<tag k="fixme" v="consider natural=peak for the most distinct mountains in the district" />
		<tag k="name" v="Brentåsen" />
		<tag k="natural" v="hill" />
		<tag k="place" v="locality" />
		<tag k="ssr:stedsnr" v="83748" />
	</node>
	<node id="-206539" lat="59.3478777734" lon="11.0901944376">
		<tag k="name" v="Støredalen" />
		<tag k="natural" v="valley" />
		<tag k="place" v="locality" />
		<tag k="ssr:stedsnr" v="568262" />
	</node>
	<node id="-206538" lat="59.3548138888" lon="11.0742222281">
		<tag k="name" v="Tømmerkastet" />
		<tag k="natural" v="cliff" />
		<tag k="ssr:stedsnr" v="568257" />
	</node>
	<node id="-206536" lat="59.1814666692" lon="11.3662083324">
		<tag k="name" v="Kamperhaug" />
		<tag k="natural" v="hill" />
		<tag k="place" v="locality" />
		<tag k="ssr:stedsnr" v="568193" />
	</node>
	<node id="-206535" lat="59.2602138873" lon="11.1226555478">
		<tag k="name" v="Stordiket" />
		<tag k="natural" v="valley" />
		<tag k="place" v="locality" />
		<tag k="ssr:stedsnr" v="568184" />
	</node>
	<node id="-206022" lat="59.2957944451" lon="11.0897277855">
		<tag k="name" v="Lekkert" />
		<tag k="natural" v="hill" />
		<tag k="place" v="locality" />
		<tag k="ssr:stedsnr" v="83386" />
	</node>
	<node id="-205089" lat="59.3665166705" lon="11.0851888828">
		<tag k="fixme" v="consider natural=peak for the most distinct mountains in the district" />
		<tag k="name" v="Bjønnehi" />
		<tag k="natural" v="hill" />
		<tag k="place" v="locality" />
		<tag k="ssr:stedsnr" v="265754" />
	</node>
	<node id="-205429" lat="59.340094447" lon="11.034369447">
		<tag k="fixme" v="consider natural=peak for the most distinct mountains in the district" />
		<tag k="name" v="Svartedalåsen" />
		<tag k="natural" v="hill" />
		<tag k="place" v="locality" />
		<tag k="ssr:stedsnr" v="476452" />
	</node>
	<node id="-205505" lat="59.3158277782" lon="11.112152773">
		<tag k="name" v="Knøsebråten" />
		<tag k="natural" v="hill" />
		<tag k="place" v="locality" />
		<tag k="ssr:stedsnr" v="690458" />
	</node>
	<node id="-206016" lat="59.3117638919" lon="11.2758805534">
		<tag k="name" v="Kudalsberget" />
		<tag k="natural" v="hill" />
		<tag k="place" v="locality" />
		<tag k="ssr:stedsnr" v="83051" />
	</node>
	<node id="-206527" lat="59.2413888914" lon="11.1709499965">
		<tag k="name" v="Lia" />
		<tag k="natural" v="slope" />
		<tag k="place" v="locality" />
		<tag k="ssr:stedsnr" v="568096" />
	</node>
	<node id="-206014" lat="59.1446055596" lon="11.2384166643">
		<tag k="fixme" v="consider natural=peak for the most distinct mountains in the district" />
		<tag k="name" v="Blomsterberget" />
		<tag k="natural" v="hill" />
		<tag k="place" v="locality" />
		<tag k="ssr:stedsnr" v="83032" />
	</node>
	<node id="-206013" lat="59.3405499977" lon="11.1970194472">
		<tag k="alt_name" v="Belsbyåsen vestre" />
		<tag k="fixme" v="consider natural=peak for the most distinct mountains in the district" />
		<tag k="name" v="Vestre Belsbyåsen" />
		<tag k="natural" v="hill" />
		<tag k="place" v="locality" />
		<tag k="ssr:stedsnr" v="83330" />
	</node>
	<node id="-204988" lat="59.3952777821" lon="11.0133527861">
		<tag k="fixme" v="consider natural=peak for the most distinct mountains in the district" />
		<tag k="name" v="Armrosåsen" />
		<tag k="natural" v="hill" />
		<tag k="place" v="locality" />
		<tag k="ssr:stedsnr" v="245288" />
	</node>
	<node id="-206026" lat="59.3840027756" lon="11.156552783">
		<tag k="fixme" v="consider natural=peak for the most distinct mountains in the district" />
		<tag k="name" v="Mingedalåsen" />
		<tag k="natural" v="hill" />
		<tag k="place" v="locality" />
		<tag k="ssr:stedsnr" v="83694" />
	</node>
	<node id="-205498" lat="59.3590972179" lon="11.1828722285">
		<tag k="name" v="Lundeberget" />
		<tag k="natural" v="hill" />
		<tag k="place" v="locality" />
		<tag k="ssr:stedsnr" v="690395" />
	</node>
	<node id="-206519" lat="59.1885333308" lon="11.1781277736">
		<tag k="fixme" v="consider natural=peak for the most distinct mountains in the district" />
		<tag k="name" v="Bryggetoppen" />
		<tag k="natural" v="hill" />
		<tag k="place" v="locality" />
		<tag k="ssr:stedsnr" v="568067" />
	</node>
	<node id="-205494" lat="59.3430111128" lon="11.0720583346">
		<tag k="name" v="Fugleleken" />
		<tag k="natural" v="hill" />
		<tag k="place" v="locality" />
		<tag k="ssr:stedsnr" v="690352" />
	</node>
	<node id="-205493" lat="59.3677972255" lon="11.1254777754">
		<tag k="fixme" v="consider natural=peak for the most distinct mountains in the district" />
		<tag k="name" v="Kolstadhyttåsen" />
		<tag k="natural" v="hill" />
		<tag k="place" v="locality" />
		<tag k="ssr:stedsnr" v="690345" />
	</node>
	<node id="-205492" lat="59.3579194407" lon="11.1275222252">
		<tag k="loc_name" v="Kolstaddalen" />
		<tag k="name" v="Kolstadalen" />
		<tag k="natural" v="valley" />
		<tag k="place" v="locality" />
		<tag k="ssr:stedsnr" v="690341" />
	</node>
	<node id="-205490" lat="59.3533888902" lon="11.1418972142">
		<tag k="name" v="Holtehølet" />
		<tag k="natural" v="valley" />
		<tag k="place" v="locality" />
		<tag k="ssr:stedsnr" v="690314" />
	</node>
	<node id="-205171" lat="59.3766250003" lon="11.0559722226">
		<tag k="name" v="Gjelkesten" />
		<tag k="natural" v="hill" />
		<tag k="place" v="locality" />
		<tag k="ssr:stedsnr" v="447699" />
	</node>
	<node id="-205701" lat="59.3796833352" lon="11.0799750043">
		<tag k="alt_name" v="Storleken" />
		<tag k="fixme" v="consider natural=peak for the most distinct mountains in the district" />
		<tag k="name" v="Storleiken" />
		<tag k="natural" v="hill" />
		<tag k="place" v="locality" />
		<tag k="ssr:stedsnr" v="913268" />
	</node>
	<node id="-205484" lat="59.2357777744" lon="11.2570833365">
		<tag k="fixme" v="consider natural=peak for the most distinct mountains in the district" />
		<tag k="name" v="Slottsfjellet" />
		<tag k="natural" v="hill" />
		<tag k="place" v="locality" />
		<tag k="ssr:stedsnr" v="690152" />
	</node>
	<node id="-205313" lat="59.1448916678" lon="11.1854861181">
		<tag k="name" v="Kølagrava" />
		<tag k="natural" v="hill" />
		<tag k="place" v="locality" />
		<tag k="ssr:stedsnr" v="507051" />
	</node>
	<node id="-204970" lat="59.3711222256" lon="10.9947611132">
		<tag k="name" v="Tinta" />
		<tag k="place" v="locality" />
		<tag k="ssr:stedsnr" v="235190" />
	</node>
	<node id="-204968" lat="59.3124472237" lon="10.9904972197">
		<tag k="fixme" v="consider natural=peak for the most distinct mountains in the district" />
		<tag k="name" v="Reveberget" />
		<tag k="natural" v="hill" />
		<tag k="place" v="locality" />
		<tag k="ssr:stedsnr" v="234774" />
	</node>
	<node id="-205070" lat="59.1611277813" lon="11.1654166747">
		<tag k="fixme" v="consider natural=peak for the most distinct mountains in the district" />
		<tag k="name" v="Værbau" />
		<tag k="natural" v="hill" />
		<tag k="place" v="locality" />
		<tag k="ssr:stedsnr" v="265437" />
	</node>
	<node id="-205477" lat="59.1717333302" lon="11.1821361031">
		<tag k="name" v="Feklova" />
		<tag k="natural" v="slope" />
		<tag k="place" v="locality" />
		<tag k="ssr:stedsnr" v="690109" />
	</node>
	<node id="-205987" lat="59.3301277738" lon="11.009441663">
		<tag k="fixme" v="consider natural=peak for the most distinct mountains in the district" />
		<tag k="name" v="Stikkaåsen" />
		<tag k="natural" v="hill" />
		<tag k="place" v="locality" />
		<tag k="ssr:stedsnr" v="63460" />
	</node>
	<node id="-205985" lat="59.3906277737" lon="11.0273555534">
		<tag k="alt_name" v="Høyfjellet" />
		<tag k="fixme" v="consider natural=peak for the most distinct mountains in the district" />
		<tag k="name" v="Høgfjellet" />
		<tag k="natural" v="hill" />
		<tag k="place" v="locality" />
		<tag k="ssr:stedsnr" v="63326" />
	</node>
	<node id="-204959" lat="59.341372223" lon="10.9793888955">
		<tag k="name" v="Isebakkeåsen" />
		<tag k="natural" v="ridge" />
		<tag k="place" v="locality" />
		<tag k="ssr:stedsnr" v="234372" />
	</node>
	<node id="-204958" lat="59.3622611088" lon="11.0182611175">
		<tag k="fixme" v="consider natural=peak for the most distinct mountains in the district" />
		<tag k="name" v="Gluppen" />
		<tag k="natural" v="hill" />
		<tag k="place" v="locality" />
		<tag k="ssr:stedsnr" v="234036" />
	</node>
	<node id="-204957" lat="59.3597055552" lon="11.0255166724">
		<tag k="fixme" v="consider natural=peak for the most distinct mountains in the district" />
		<tag k="name" v="Lensmannsåsen" />
		<tag k="natural" v="hill" />
		<tag k="place" v="locality" />
		<tag k="ssr:stedsnr" v="234034" />
	</node>
	<node id="-206492" lat="59.3979500032" lon="11.1200305637">
		<tag k="alt_name" v="Nyskjelåsen" />
		<tag k="fixme" v="consider natural=peak for the most distinct mountains in the district" />
		<tag k="name" v="Nyskjellåsen" />
		<tag k="natural" v="hill" />
		<tag k="place" v="locality" />
		<tag k="ssr:stedsnr" v="548833" />
	</node>
	<node id="-205082" lat="59.2959722206" lon="11.0974083367">
		<tag k="fixme" v="consider natural=peak for the most distinct mountains in the district" />
		<tag k="name" v="Landefjellet" />
		<tag k="natural" v="hill" />
		<tag k="place" v="locality" />
		<tag k="ssr:stedsnr" v="265482" />
	</node>
	<node id="-205564" lat="59.2928999958" lon="11.0467250066">
		<tag k="fixme" v="consider natural=peak for the most distinct mountains in the district" />
		<tag k="name" v="Kalveberget" />
		<tag k="natural" v="hill" />
		<tag k="place" v="locality" />
		<tag k="ssr:stedsnr" v="719721" />
	</node>
	<node id="-206769" lat="59.3439805524" lon="11.1365000063">
		<tag k="fixme" v="consider natural=peak for the most distinct mountains in the district" />
		<tag k="name" v="Flatåsen" />
		<tag k="natural" v="hill" />
		<tag k="place" v="locality" />
		<tag k="ssr:stedsnr" v="811263" />
	</node>
	<node id="-206486" lat="59.3805499985" lon="11.0517055567">
		<tag k="fixme" v="consider natural=peak for the most distinct mountains in the district" />
		<tag k="name" v="Jerpåsen" />
		<tag k="natural" v="hill" />
		<tag k="place" v="locality" />
		<tag k="ssr:stedsnr" v="548317" />
	</node>
	<node id="-206485" lat="59.3619222196" lon="10.9776999988">
		<tag k="alt_name" v="Trestikkåsen" />
		<tag k="fixme" v="consider natural=peak for the most distinct mountains in the district" />
		<tag k="name" v="Trestikkberget" />
		<tag k="natural" v="hill" />
		<tag k="place" v="locality" />
		<tag k="ssr:stedsnr" v="548260" />
	</node>
	<node id="-204948" lat="59.3615444442" lon="11.0735027864">
		<tag k="fixme" v="consider natural=peak for the most distinct mountains in the district" />
		<tag k="name" v="Stueåsen" />
		<tag k="natural" v="hill" />
		<tag k="place" v="locality" />
		<tag k="ssr:stedsnr" v="22711" />
	</node>
	<node id="-204947" lat="59.4017194485" lon="11.1193805516">
		<tag k="fixme" v="consider natural=peak for the most distinct mountains in the district" />
		<tag k="name" v="Askeliåsen" />
		<tag k="natural" v="hill" />
		<tag k="place" v="locality" />
		<tag k="ssr:stedsnr" v="22702" />
	</node>
	<node id="-206012" lat="59.3524749958" lon="11.0751972296">
		<tag k="fixme" v="consider natural=peak for the most distinct mountains in the district" />
		<tag k="name" v="Kaståsen" />
		<tag k="natural" v="hill" />
		<tag k="place" v="locality" />
		<tag k="ssr:stedsnr" v="83246" />
	</node>
	<node id="-205455" lat="59.2845027821" lon="11.0702583379">
		<tag k="fixme" v="consider natural=peak for the most distinct mountains in the district" />
		<tag k="name" v="Knattås" />
		<tag k="natural" v="hill" />
		<tag k="place" v="locality" />
		<tag k="ssr:stedsnr" v="690026" />
	</node>
	<node id="-205966" lat="59.2391611129" lon="11.3183583324">
		<tag k="name" v="Hansedalen" />
		<tag k="natural" v="valley" />
		<tag k="place" v="locality" />
		<tag k="ssr:stedsnr" v="52577" />
	</node>
	<node id="-206476" lat="59.15426389" lon="11.1772361175">
		<tag k="name" v="Tomtebakken" />
		<tag k="natural" v="slope" />
		<tag k="place" v="locality" />
		<tag k="ssr:stedsnr" v="539748" />
	</node>
	<node id="-205963" lat="59.3475138853" lon="11.0290638903">
		<tag k="fixme" v="consider natural=peak for the most distinct mountains in the district" />
		<tag k="name" v="Kullhusåsen" />
		<tag k="natural" v="hill" />
		<tag k="place" v="locality" />
		<tag k="ssr:stedsnr" v="52424" />
	</node>
	<node id="-206474" lat="59.2857805548" lon="11.0207333292">
		<tag k="fixme" v="consider natural=peak for the most distinct mountains in the district" />
		<tag k="name" v="Skredderberget" />
		<tag k="natural" v="hill" />
		<tag k="place" v="locality" />
		<tag k="ssr:stedsnr" v="537727" />
	</node>
	<node id="-205079" lat="59.1972805541" lon="11.1162444363">
		<tag k="fixme" v="consider natural=peak for the most distinct mountains in the district" />
		<tag k="name" v="Røsseberget" />
		<tag k="natural" v="hill" />
		<tag k="place" v="locality" />
		<tag k="ssr:stedsnr" v="265471" />
	</node>
	<node id="-205959" lat="59.3207083294" lon="10.9883805629">
		<tag k="fixme" v="consider natural=peak for the most distinct mountains in the district" />
		<tag k="name" v="Stenløkkfjellet" />
		<tag k="natural" v="hill" />
		<tag k="place" v="locality" />
		<tag k="ssr:stedsnr" v="52285" />
	</node>
	<node id="-206470" lat="59.3834861074" lon="11.0155083326">
		<tag k="fixme" v="consider natural=peak for the most distinct mountains in the district" />
		<tag k="name" v="Skivdalskollen" />
		<tag k="natural" v="hill" />
		<tag k="place" v="locality" />
		<tag k="ssr:stedsnr" v="537056" />
	</node>
	<node id="-205957" lat="59.3855361088" lon="10.9925444382">
		<tag k="fixme" v="consider natural=peak for the most distinct mountains in the district" />
		<tag k="name" v="Bråneåsen" />
		<tag k="natural" v="hill" />
		<tag k="place" v="locality" />
		<tag k="ssr:stedsnr" v="52039" />
	</node>
	<node id="-205555" lat="59.345425" lon="10.9922000068">
		<tag k="name" v="Ågårdstuten" />
		<tag k="natural" v="ridge" />
		<tag k="place" v="locality" />
		<tag k="ssr:stedsnr" v="719450" />
	</node>
	<node id="-204928" lat="59.3048611092" lon="11.2643611062">
		<tag k="name" v="Gulldalen" />
		<tag k="natural" v="valley" />
		<tag k="place" v="locality" />
		<tag k="ssr:stedsnr" v="22042" />
	</node>
	<node id="-204926" lat="59.3235777806" lon="11.2935750044">
		<tag k="name" v="Teppa" />
		<tag k="natural" v="slope" />
		<tag k="place" v="locality" />
		<tag k="ssr:stedsnr" v="22030" />
	</node>
	<node id="-206613" lat="59.3833916683" lon="11.0613444395">
		<tag k="fixme" v="consider natural=peak for the most distinct mountains in the district" />
		<tag k="name" v="Gastgiveren" />
		<tag k="natural" v="hill" />
		<tag k="place" v="locality" />
		<tag k="ssr:stedsnr" v="609270" />
	</node>
	<node id="-205946" lat="59.2770444472" lon="11.3237305622">
		<tag k="name" v="Lærdal" />
		<tag k="natural" v="valley" />
		<tag k="place" v="locality" />
		<tag k="ssr:stedsnr" v="23183" />
	</node>
	<node id="-205944" lat="59.279038891" lon="11.1744916753">
		<tag k="fixme" v="consider natural=peak for the most distinct mountains in the district" />
		<tag k="name" v="Åserødfjellet" />
		<tag k="natural" v="hill" />
		<tag k="place" v="locality" />
		<tag k="ssr:stedsnr" v="22896" />
	</node>
	<node id="-206100" lat="59.1986444455" lon="11.2593833327">
		<tag k="name" v="Roligheta" />
		<tag k="natural" v="valley" />
		<tag k="place" v="locality" />
		<tag k="ssr:stedsnr" v="143098" />
	</node>
	<node id="-205942" lat="59.3797583307" lon="11.067522229">
		<tag k="name" v="Harehjelldalen" />
		<tag k="natural" v="valley" />
		<tag k="place" v="locality" />
		<tag k="ssr:stedsnr" v="22690" />
	</node>
	<node id="-205941" lat="59.3937166646" lon="11.1209111029">
		<tag k="fixme" v="consider natural=peak for the most distinct mountains in the district" />
		<tag k="name" v="Klevbråteåsen" />
		<tag k="natural" v="hill" />
		<tag k="place" v="locality" />
		<tag k="ssr:stedsnr" v="22685" />
	</node>
	<node id="-205427" lat="59.3358083361" lon="10.9540277724">
		<tag k="name" v="Bjørndalen" />
		<tag k="natural" v="valley" />
		<tag k="place" v="locality" />
		<tag k="ssr:stedsnr" v="476355" />
	</node>
	<node id="-206611" lat="59.2345999984" lon="11.2681749916">
		<tag k="fixme" v="consider natural=peak for the most distinct mountains in the district" />
		<tag k="name" v="Kramperås" />
		<tag k="natural" v="hill" />
		<tag k="place" v="locality" />
		<tag k="ssr:stedsnr" v="608945" />
	</node>
	<node id="-205017" lat="59.3474361123" lon="11.068697231">
		<tag k="name" v="Muskedalen" />
		<tag k="natural" v="valley" />
		<tag k="place" v="locality" />
		<tag k="ssr:stedsnr" v="83262" />
	</node>
	<node id="-205501" lat="59.3050083363" lon="11.0611999983">
		<tag k="name" v="Bjorsdalen" />
		<tag k="natural" v="valley" />
		<tag k="place" v="locality" />
		<tag k="ssr:stedsnr" v="690432" />
	</node>
	<node id="-205784" lat="59.3993500034" lon="11.2217999981">
		<tag k="fixme" v="consider natural=peak for the most distinct mountains in the district" />
		<tag k="name" v="Hedenåsen" />
		<tag k="natural" v="hill" />
		<tag k="place" v="locality" />
		<tag k="ssr:stedsnr" v="852823" />
	</node>
	<node id="-206268" lat="59.3135250019" lon="11.1726250086">
		<tag k="fixme" v="consider natural=peak for the most distinct mountains in the district" />
		<tag k="name" v="Skinterfjell" />
		<tag k="natural" v="hill" />
		<tag k="place" v="locality" />
		<tag k="ssr:stedsnr" v="305950" />
	</node>
	<node id="-205926" lat="59.367430555" lon="11.1414444416">
		<tag k="name" v="Apalkollen" />
		<tag k="natural" v="hill" />
		<tag k="place" v="locality" />
		<tag k="ssr:stedsnr" v="22285" />
	</node>
	<node id="-205924" lat="59.3775861146" lon="11.1051416597">
		<tag k="fixme" v="consider natural=peak for the most distinct mountains in the district" />
		<tag k="name" v="Sagåsen" />
		<tag k="natural" v="hill" />
		<tag k="place" v="locality" />
		<tag k="ssr:stedsnr" v="22273" />
	</node>
	<node id="-205922" lat="59.3454249993" lon="11.1093527749">
		<tag k="name" v="Terneberget" />
		<tag k="natural" v="hill" />
		<tag k="place" v="locality" />
		<tag k="ssr:stedsnr" v="22240" />
	</node>
	<node id="-205913" lat="59.2027611083" lon="11.2004111154">
		<tag k="fixme" v="consider natural=peak for the most distinct mountains in the district" />
		<tag k="name" v="Guslundtoppen" />
		<tag k="natural" v="hill" />
		<tag k="place" v="locality" />
		<tag k="ssr:stedsnr" v="22065" />
	</node>
	<node id="-206363" lat="59.3521999984" lon="11.0824972296">
		<tag k="fixme" v="consider natural=peak for the most distinct mountains in the district" />
		<tag k="name" v="Moåsen" />
		<tag k="natural" v="hill" />
		<tag k="place" v="locality" />
		<tag k="ssr:stedsnr" v="366500" />
	</node>
	<node id="-206039" lat="59.3345916709" lon="10.9739111168">
		<tag k="name" v="Sollituten" />
		<tag k="natural" v="hill" />
		<tag k="place" v="locality" />
		<tag k="ssr:stedsnr" v="112366" />
	</node>
	<node id="-206416" lat="59.2814777742" lon="11.2822388855">
		<tag k="name" v="Bakkehaugen" />
		<tag k="natural" v="hill" />
		<tag k="place" v="locality" />
		<tag k="ssr:stedsnr" v="387184" />
	</node>
	<node id="-206415" lat="59.2808972227" lon="11.2870805481">
		<tag k="name" v="Fabrikkhaugen" />
		<tag k="natural" v="hill" />
		<tag k="place" v="locality" />
		<tag k="ssr:stedsnr" v="387181" />
	</node>
	<node id="-206414" lat="59.2497083369" lon="11.2400805488">
		<tag k="fixme" v="consider natural=peak for the most distinct mountains in the district" />
		<tag k="name" v="Mattisåsen" />
		<tag k="natural" v="hill" />
		<tag k="place" v="locality" />
		<tag k="ssr:stedsnr" v="386926" />
	</node>
	<node id="-206413" lat="59.3909805519" lon="11.1393777769">
		<tag k="fixme" v="consider natural=peak for the most distinct mountains in the district" />
		<tag k="name" v="Frustenåsen" />
		<tag k="natural" v="hill" />
		<tag k="place" v="locality" />
		<tag k="ssr:stedsnr" v="386688" />
	</node>
	<node id="-204917" lat="59.2872361076" lon="11.3277888815">
		<tag k="fixme" v="consider natural=peak for the most distinct mountains in the district" />
		<tag k="name" v="Høgnipen" />
		<tag k="natural" v="hill" />
		<tag k="place" v="locality" />
		<tag k="ssr:stedsnr" v="2891" />
	</node>
	<node id="-205800" lat="59.2899833355" lon="11.1491333284">
		<tag k="name" v="Johanshaugen" />
		<tag k="natural" v="hill" />
		<tag k="place" v="locality" />
		<tag k="ssr:stedsnr" v="872111" />
	</node>
	<node id="-205239" lat="59.3793861142" lon="11.1145694519">
		<tag k="name" v="Kjerkeveien" />
		<tag k="natural" v="slope" />
		<tag k="place" v="locality" />
		<tag k="ssr:stedsnr" v="326712" />
	</node>
	<node id="-205895" lat="59.3911527818" lon="11.1055750057">
		<tag k="alt_name" v="Høylikollen" />
		<tag k="fixme" v="consider natural=peak for the most distinct mountains in the district" />
		<tag k="name" v="Høgås" />
		<tag k="natural" v="hill" />
		<tag k="place" v="locality" />
		<tag k="ssr:stedsnr" v="2800" />
	</node>
	<node id="-205382" lat="59.3552583301" lon="11.0572555587">
		<tag k="name" v="Ekelena" />
		<tag k="natural" v="cliff" />
		<tag k="ssr:stedsnr" v="447226" />
	</node>
	<node id="-206405" lat="59.3297361106" lon="11.0636888942">
		<tag k="fixme" v="consider natural=peak for the most distinct mountains in the district" />
		<tag k="name" v="Langelinåsen" />
		<tag k="natural" v="hill" />
		<tag k="place" v="locality" />
		<tag k="ssr:stedsnr" v="386387" />
	</node>
	<node id="-206403" lat="59.3555722193" lon="11.061213881">
		<tag k="name" v="Trøskelena" />
		<tag k="natural" v="cliff" />
		<tag k="ssr:stedsnr" v="386249" />
	</node>
	<node id="-205889" lat="59.3765333353" lon="10.9994416659">
		<tag k="alt_name" v="Høyåsbratta" />
		<tag k="fixme" v="consider natural=peak for the most distinct mountains in the district" />
		<tag k="name" v="Høgåsbratta" />
		<tag k="natural" v="hill" />
		<tag k="place" v="locality" />
		<tag k="ssr:stedsnr" v="2319" />
	</node>
	<node id="-206400" lat="59.3588250027" lon="11.056005554">
		<tag k="fixme" v="consider natural=peak for the most distinct mountains in the district" />
		<tag k="name" v="Bråneåsen" />
		<tag k="natural" v="hill" />
		<tag k="place" v="locality" />
		<tag k="ssr:stedsnr" v="386282" />
	</node>
	<node id="-206399" lat="59.3754722209" lon="11.0780166693">
		<tag k="fixme" v="consider natural=peak for the most distinct mountains in the district" />
		<tag k="name" v="Lekane" />
		<tag k="natural" v="hill" />
		<tag k="place" v="locality" />
		<tag k="ssr:stedsnr" v="386276" />
	</node>
	<node id="-205196" lat="59.270322221" lon="11.2427888916">
		<tag k="name" v="Lindedalen" />
		<tag k="natural" v="valley" />
		<tag k="place" v="locality" />
		<tag k="ssr:stedsnr" v="265912" />
	</node>
	<node id="-205371" lat="59.1870277798" lon="11.1875055507">
		<tag k="fixme" v="consider natural=peak for the most distinct mountains in the district" />
		<tag k="name" v="Utsikten" />
		<tag k="natural" v="hill" />
		<tag k="place" v="locality" />
		<tag k="ssr:stedsnr" v="447107" />
	</node>
	<node id="-206394" lat="59.2232972256" lon="11.261233329">
		<tag k="fixme" v="consider natural=peak for the most distinct mountains in the district" />
		<tag k="name" v="Gunhildås" />
		<tag k="natural" v="hill" />
		<tag k="place" v="locality" />
		<tag k="ssr:stedsnr" v="386137" />
	</node>
	<node id="-206905" lat="59.2706872075" lon="11.2927423005">
		<tag k="name" v="Trinnborg" />
		<tag k="natural" v="hill" />
		<tag k="place" v="locality" />
		<tag k="ssr:stedsnr" v="976641" />
	</node>
	<node id="-205367" lat="59.3123555577" lon="11.0198527711">
		<tag k="name" v="Tyssillbakken" />
		<tag k="place" v="locality" />
		<tag k="ssr:stedsnr" v="658639" />
	</node>
	<node id="-205366" lat="59.3113305518" lon="11.0070694441">
		<tag k="fixme" v="consider natural=peak for the most distinct mountains in the district" />
		<tag k="name" v="Eidsberget" />
		<tag k="natural" v="hill" />
		<tag k="place" v="locality" />
		<tag k="ssr:stedsnr" v="658637" />
	</node>
	<node id="-205365" lat="59.2361583367" lon="11.2961861104">
		<tag k="name" v="Tømmerdal" />
		<tag k="natural" v="valley" />
		<tag k="place" v="locality" />
		<tag k="ssr:stedsnr" v="658625" />
	</node>
	<node id="-205043" lat="59.274377779" lon="11.0696527716">
		<tag k="fixme" v="consider natural=peak for the most distinct mountains in the district" />
		<tag k="name" v="Yvenåsen" />
		<tag k="natural" v="hill" />
		<tag k="place" v="locality" />
		<tag k="ssr:stedsnr" v="265015" />
	</node>
	<node id="-205363" lat="59.3688611084" lon="11.0109444444">
		<tag k="fixme" v="consider natural=peak for the most distinct mountains in the district" />
		<tag k="name" v="Brennrudåsen" />
		<tag k="natural" v="hill" />
		<tag k="place" v="locality" />
		<tag k="ssr:stedsnr" v="658446" />
	</node>
	<node id="-205390" lat="59.3886805588" lon="11.1952416636">
		<tag k="fixme" v="consider natural=peak for the most distinct mountains in the district" />
		<tag k="name" v="Kvernås" />
		<tag k="natural" v="hill" />
		<tag k="place" v="locality" />
		<tag k="ssr:stedsnr" v="447711" />
	</node>
	<node id="-206384" lat="59.3720499972" lon="11.1380027845">
		<tag k="alt_name" v="Burås" />
		<tag k="fixme" v="consider natural=peak for the most distinct mountains in the district" />
		<tag k="name" v="Buråsen" />
		<tag k="natural" v="hill" />
		<tag k="place" v="locality" />
		<tag k="ssr:stedsnr" v="367838" />
	</node>
	<node id="-206254" lat="59.4035249986" lon="11.1085027692">
		<tag k="fixme" v="consider natural=peak for the most distinct mountains in the district" />
		<tag k="name" v="Sørensåsen" />
		<tag k="natural" v="hill" />
		<tag k="place" v="locality" />
		<tag k="ssr:stedsnr" v="305137" />
	</node>
	<node id="-205869" lat="59.35473333" lon="11.0241277692">
		<tag k="fixme" v="consider natural=peak for the most distinct mountains in the district" />
		<tag k="name" v="Grønnføttåsen" />
		<tag k="natural" v="hill" />
		<tag k="place" v="locality" />
		<tag k="ssr:stedsnr" v="962466" />
	</node>
	<node id="-205868" lat="59.3548916646" lon="11.0289944429">
		<tag k="fixme" v="consider natural=peak for the most distinct mountains in the district" />
		<tag k="name" v="Stueåsen" />
		<tag k="natural" v="hill" />
		<tag k="place" v="locality" />
		<tag k="ssr:stedsnr" v="962465" />
	</node>
	<node id="-205135" lat="59.1572527776" lon="11.1271444447">
		<tag k="fixme" v="consider natural=peak for the most distinct mountains in the district" />
		<tag k="name" v="Manetoppen" />
		<tag k="natural" v="hill" />
		<tag k="place" v="locality" />
		<tag k="ssr:stedsnr" v="204355" />
	</node>
	<node id="-206378" lat="59.3227749975" lon="11.286775">
		<tag k="name" v="Skrikardalen" />
		<tag k="natural" v="valley" />
		<tag k="place" v="locality" />
		<tag k="ssr:stedsnr" v="366952" />
	</node>
	<node id="-205002" lat="59.1941833295" lon="11.2263111109">
		<tag k="name" v="Skauringshaugen" />
		<tag k="natural" v="hill" />
		<tag k="place" v="locality" />
		<tag k="ssr:stedsnr" v="83104" />
	</node>
	<node id="-205509" lat="59.1478583372" lon="11.1200277706">
		<tag k="name" v="Mørkebakke" />
		<tag k="natural" v="slope" />
		<tag k="place" v="locality" />
		<tag k="ssr:stedsnr" v="690469" />
	</node>
	<node id="-205350" lat="59.3337361121" lon="10.9549638921">
		<tag k="name" v="Sollihølet" />
		<tag k="place" v="locality" />
		<tag k="ssr:stedsnr" v="416323" />
	</node>
	<node id="-205349" lat="59.2700972208" lon="11.2489416623">
		<tag k="name" v="Sætrekleva" />
		<tag k="natural" v="slope" />
		<tag k="place" v="locality" />
		<tag k="ssr:stedsnr" v="508937" />
	</node>
	<node id="-206372" lat="59.2688001356" lon="11.2788539847">
		<tag k="fixme" v="consider natural=peak for the most distinct mountains in the district" />
		<tag k="loc_name" v="Trinnborgåsen" />
		<tag k="name" v="Trindborgåsen" />
		<tag k="natural" v="hill" />
		<tag k="place" v="locality" />
		<tag k="ssr:stedsnr" v="366863" />
	</node>
	<node id="-206883" lat="59.312036113" lon="11.0253138856">
		<tag k="fixme" v="consider natural=peak for the most distinct mountains in the district" />
		<tag k="name" v="Brattås" />
		<tag k="natural" v="hill" />
		<tag k="place" v="locality" />
		<tag k="ssr:stedsnr" v="962612" />
	</node>
	<node id="-205346" lat="59.1522416684" lon="11.1173305509">
		<tag k="name" v="Dragonfjellet" />
		<tag k="natural" v="hill" />
		<tag k="place" v="locality" />
		<tag k="ssr:stedsnr" v="508451" />
	</node>
	<node id="-205857" lat="59.3114305564" lon="11.0831888974">
		<tag k="fixme" v="consider natural=peak for the most distinct mountains in the district" />
		<tag k="name" v="Høyåsen" />
		<tag k="natural" v="hill" />
		<tag k="place" v="locality" />
		<tag k="ssr:stedsnr" v="933437" />
	</node>
	<node id="-206879" lat="59.2459527764" lon="11.3275000019">
		<tag k="fixme" v="consider natural=peak for the most distinct mountains in the district" />
		<tag k="name" v="Guttersrødåsen" />
		<tag k="natural" v="hill" />
		<tag k="place" v="locality" />
		<tag k="ssr:stedsnr" v="962583" />
	</node>
	<node id="-205370" lat="59.2730361122" lon="11.0372833353">
		<tag k="name" v="Greåkerdalen" />
		<tag k="natural" v="valley" />
		<tag k="place" v="locality" />
		<tag k="ssr:stedsnr" v="659230" />
	</node>
	<node id="-205852" lat="59.3195638845" lon="11.117338889">
		<tag k="name" v="Skjørendalen" />
		<tag k="natural" v="valley" />
		<tag k="place" v="locality" />
		<tag k="ssr:stedsnr" v="933412" />
	</node>
	<node id="-205451" lat="59.2924000031" lon="11.159411119">
		<tag k="name" v="Hellene" />
		<tag k="place" v="locality" />
		<tag k="ssr:stedsnr" v="750094" />
	</node>
	<node id="-206873" lat="59.3582527737" lon="11.0097694461">
		<tag k="name" v="Trollerød slott" />
		<tag k="natural" v="hill" />
		<tag k="place" v="locality" />
		<tag k="ssr:stedsnr" v="962202" />
	</node>
	<node id="-206358" lat="59.195252775" lon="11.2711250042">
		<tag k="fixme" v="consider natural=peak for the most distinct mountains in the district" />
		<tag k="name" v="Leiråsen" />
		<tag k="natural" v="hill" />
		<tag k="place" v="locality" />
		<tag k="ssr:stedsnr" v="366000" />
	</node>
	<node id="-205845" lat="59.1614222179" lon="11.2169055499">
		<tag k="fixme" v="consider natural=peak for the most distinct mountains in the district" />
		<tag k="name" v="Høyås" />
		<tag k="natural" v="hill" />
		<tag k="place" v="locality" />
		<tag k="ssr:stedsnr" v="933052" />
	</node>
	<node id="-206867" lat="59.2612055533" lon="11.2403777793">
		<tag k="name" v="Tveterkleva" />
		<tag k="natural" v="slope" />
		<tag k="place" v="locality" />
		<tag k="ssr:stedsnr" v="872943" />
	</node>
	<node id="-205330" lat="59.3115138857" lon="11.2944222244">
		<tag k="fixme" v="consider natural=peak for the most distinct mountains in the district" />
		<tag k="name" v="Røstadåsen" />
		<tag k="natural" v="hill" />
		<tag k="place" v="locality" />
		<tag k="ssr:stedsnr" v="508027" />
	</node>
	<node id="-206353" lat="59.2288694415" lon="11.3136111038">
		<tag k="alt_name" v="Akselås" />
		<tag k="fixme" v="consider natural=peak for the most distinct mountains in the district" />
		<tag k="name" v="Akselåsen" />
		<tag k="natural" v="hill" />
		<tag k="place" v="locality" />
		<tag k="ssr:stedsnr" v="365944" />
	</node>
	<node id="-206765" lat="59.2436388929" lon="11.2065611138">
		<tag k="name" v="Rakleiva" />
		<tag k="natural" v="slope" />
		<tag k="place" v="locality" />
		<tag k="ssr:stedsnr" v="811118" />
	</node>
	<node id="-205314" lat="59.1695999955" lon="11.2105944501">
		<tag k="fixme" v="consider natural=peak for the most distinct mountains in the district" />
		<tag k="name" v="Revehifjellet" />
		<tag k="natural" v="hill" />
		<tag k="place" v="locality" />
		<tag k="ssr:stedsnr" v="507085" />
	</node>
	<node id="-205834" lat="59.2831444456" lon="11.0249861186">
		<tag k="fixme" v="consider natural=peak for the most distinct mountains in the district" />
		<tag k="name" v="Mørås" />
		<tag k="natural" v="hill" />
		<tag k="place" v="locality" />
		<tag k="ssr:stedsnr" v="901771" />
	</node>
	<node id="-205849" lat="59.2518972258" lon="11.2815972289">
		<tag k="name" v="Oksetranga" />
		<tag k="natural" v="valley" />
		<tag k="place" v="locality" />
		<tag k="ssr:stedsnr" v="933137" />
	</node>
	<node id="-206856" lat="59.3180777812" lon="11.2383000005">
		<tag k="name" v="Langnes" />
		<tag k="place" v="locality" />
		<tag k="ssr:stedsnr" v="872486" />
	</node>
	<node id="-205831" lat="59.3250166693" lon="11.0062416604">
		<tag k="name" v="Stikkafjellet" />
		<tag k="natural" v="hill" />
		<tag k="place" v="locality" />
		<tag k="ssr:stedsnr" v="901411" />
	</node>
	<node id="-206854" lat="59.3427055521" lon="11.1900527809">
		<tag k="name" v="Dalene" />
		<tag k="natural" v="valley" />
		<tag k="place" v="locality" />
		<tag k="ssr:stedsnr" v="872348" />
	</node>
	<node id="-205062" lat="59.3679583296" lon="11.1355249965">
		<tag k="name" v="Tremannsrøset" />
		<tag k="natural" v="hill" />
		<tag k="place" v="locality" />
		<tag k="ssr:stedsnr" v="265315" />
	</node>
	<node id="-205316" lat="59.1977333347" lon="11.2628777823">
		<tag k="fixme" v="consider natural=peak for the most distinct mountains in the district" />
		<tag k="name" v="Lauvskausfjellet" />
		<tag k="natural" v="hill" />
		<tag k="place" v="locality" />
		<tag k="ssr:stedsnr" v="507098" />
	</node>
	<node id="-206850" lat="59.3561055515" lon="11.1355749989">
		<tag k="fixme" v="consider natural=peak for the most distinct mountains in the district" />
		<tag k="name" v="Holtåsen" />
		<tag k="natural" v="hill" />
		<tag k="place" v="locality" />
		<tag k="ssr:stedsnr" v="872294" />
	</node>
	<node id="-205825" lat="59.2776250027" lon="11.338550004">
		<tag k="name" v="Hestehagen" />
		<tag k="place" v="locality" />
		<tag k="ssr:stedsnr" v="873171" />
	</node>
</osm>
