<?xml version="1.0" encoding="UTF-8"?>
<<<<<<< HEAD
<osm version="0.6" generator="osmapis">
	<node lat="59.294652774594894" lon="11.10538055312158" id="-10601">
		<tag k="amenity" v="place_of_worship" />
		<tag k="fixme" v="specify religion=*, denomination=*, building=* etc" />
		<tag k="name" v="Kurland menighetssenter" />
		<tag k="ssr:stedsnr" v="26614" />
	</node>
	<node lat="59.27031110940257" lon="11.033997215143337" id="-10604">
		<tag k="name" v="Stenløkka" />
		<tag k="place" v="locality" />
		<tag k="ssr:stedsnr" v="234757" />
	</node>
	<node lat="59.28528333259422" lon="11.037524994017026" id="-10605">
		<tag k="name" v="Klemmetsbakken" />
		<tag k="place" v="locality" />
		<tag k="ssr:stedsnr" v="234772" />
	</node>
	<node lat="59.2796694483946" lon="11.036327770906606" id="-10607">
		<tag k="name" v="Tunga" />
		<tag k="place" v="locality" />
		<tag k="ssr:stedsnr" v="234775" />
	</node>
	<node lat="59.33312778137085" lon="10.969783335153815" id="-10618">
		<tag k="name" v="Solligårdssmia" />
		<tag k="ssr:stedsnr" v="52291" />
		<tag k="tourism" v="museum" />
	</node>
	<node lat="59.37239722000634" lon="10.984802783234802" id="-10619">
		<tag k="name" v="Laenga" />
		<tag k="place" v="locality" />
		<tag k="ssr:stedsnr" v="52403" />
	</node>
	<node lat="59.28827777818585" lon="11.031594452028186" id="-10623">
=======
<osm generator="osmapis" version="0.6">
	<node id="-218240" lat="59.3644055544" lon="11.1381916615">
		<tag k="name" v="Bergmannskjerka" />
		<tag k="ssr:stedsnr" v="933316" />
		<tag k="tourism" v="viewpoint" />
	</node>
	<node id="-218112" lat="59.2863638932" lon="11.053372216">
		<tag k="name" v="Bråten" />
		<tag k="place" v="locality" />
		<tag k="ssr:stedsnr" v="780711" />
	</node>
	<node id="-218128" lat="59.2894611137" lon="11.0681638949">
		<tag k="name" v="Grålumstua" />
		<tag k="ssr:stedsnr" v="811004" />
		<tag k="tourism" v="attraction" />
	</node>
	<node id="-217343" lat="59.2946527746" lon="11.1053805531">
		<tag k="amenity" v="place_of_worship" />
		<tag k="fixme" v="specify religion=*, denomination=*, building=* etc" />
		<tag k="name" v="Kurland menighetssenter" />
		<tag k="ssr:stedsnr" v="26614" />
	</node>
	<node id="-218231" lat="59.2825166648" lon="11.1093777767">
		<tag k="amenity" v="place_of_worship" />
		<tag k="denomination" v="lutheran" />
		<tag k="name" v="Sarpsborg kirke" />
		<tag k="religion" v="christian" />
		<tag k="ssr:stedsnr" v="933027" />
	</node>
	<node id="-218358" lat="59.2882777782" lon="11.031594452">
>>>>>>> e1d4bc35ff8a6074a6f2e91616a996b547c36f15
		<tag k="name" v="Vestereng" />
		<tag k="place" v="locality" />
		<tag k="ssr:stedsnr" v="52725" />
	</node>
<<<<<<< HEAD
	<node lat="59.27198888447517" lon="11.087361114614296" id="-10640">
		<tag k="name" v="Alvimhaugen" />
		<tag k="place" v="locality" />
		<tag k="ssr:stedsnr" v="83012" />
	</node>
	<node lat="59.2244031960386" lon="11.106494296305778" id="-10649">
		<tag k="alt_name" v="Storedalanlegget" />
		<tag k="name" v="Storedalsanlegget" />
		<tag k="ssr:stedsnr" v="244917" />
		<tag k="tourism" v="museum" />
	</node>
	<node lat="59.22892778007414" lon="11.190200001106737" id="-10650">
=======
	<node id="-219125" lat="59.3076333348" lon="10.9798333352">
		<tag k="name" v="Lystberget" />
		<tag k="place" v="locality" />
		<tag k="ssr:stedsnr" v="780565" />
	</node>
	<node id="-217363" lat="59.37239722" lon="10.9848027832">
		<tag k="name" v="Laenga" />
		<tag k="place" v="locality" />
		<tag k="ssr:stedsnr" v="52403" />
	</node>
	<node id="-218728" lat="59.2954694473" lon="11.0536416725">
		<tag k="name" v="Rognerødbråten" />
		<tag k="place" v="locality" />
		<tag k="ssr:stedsnr" v="355332" />
	</node>
	<node id="-218734" lat="59.2830777789" lon="11.0442027859">
		<tag k="name" v="Opstaddalen" />
		<tag k="place" v="locality" />
		<tag k="ssr:stedsnr" v="355728" />
	</node>
	<node id="-218989" lat="59.2698000029" lon="11.029966671">
>>>>>>> e1d4bc35ff8a6074a6f2e91616a996b547c36f15
		<tag k="amenity" v="place_of_worship" />
		<tag k="denomination" v="lutheran" />
		<tag k="name" v="Skjeberg kirke" />
		<tag k="religion" v="christian" />
		<tag k="ssr:stedsnr" v="244919" />
	</node>
<<<<<<< HEAD
	<node lat="59.28634444333936" lon="11.10617221786287" id="-10713">
=======
	<node id="-218476" lat="59.2863444433" lon="11.1061722179">
>>>>>>> e1d4bc35ff8a6074a6f2e91616a996b547c36f15
		<tag k="cemetery" v="grave" />
		<tag k="name" v="St. Olavs gravlund" />
		<tag k="place" v="locality" />
		<tag k="ssr:stedsnr" v="143013" />
	</node>
<<<<<<< HEAD
	<node lat="59.36030278105539" lon="11.047088890201906" id="-10736">
		<tag k="name" v="Velta" />
=======
	<node id="-218859" lat="59.3811499972" lon="10.9791722235">
		<tag k="name" v="Sagdammen" />
		<tag k="place" v="locality" />
		<tag k="ssr:stedsnr" v="537047" />
	</node>
	<node id="-218985" lat="59.3090194431" lon="11.0212527859">
		<tag k="name" v="Steilet" />
>>>>>>> e1d4bc35ff8a6074a6f2e91616a996b547c36f15
		<tag k="place" v="locality" />
		<tag k="ssr:stedsnr" v="173407" />
	</node>
<<<<<<< HEAD
	<node lat="59.26848333301981" lon="11.026711112115168" id="-10738">
		<tag k="name" v="Opstadmo" />
=======
	<node id="-218856" lat="59.3328472268" lon="10.9638777739">
		<tag k="name" v="Lia" />
>>>>>>> e1d4bc35ff8a6074a6f2e91616a996b547c36f15
		<tag k="place" v="locality" />
		<tag k="ssr:stedsnr" v="173705" />
	</node>
<<<<<<< HEAD
	<node lat="59.3111972222384" lon="10.991830556873516" id="-10740">
		<tag k="name" v="Kilen" />
=======
	<node id="-217350" lat="59.319408334" lon="11.0173694515">
		<tag k="name" v="Ramoen" />
		<tag k="place" v="locality" />
		<tag k="ssr:stedsnr" v="234382" />
	</node>
	<node id="-218725" lat="59.3256416663" lon="10.9722694495">
		<tag k="name" v="Sandaker" />
>>>>>>> e1d4bc35ff8a6074a6f2e91616a996b547c36f15
		<tag k="place" v="locality" />
		<tag k="ssr:stedsnr" v="173726" />
	</node>
<<<<<<< HEAD
	<node lat="59.32540278190948" lon="10.963713883262038" id="-10745">
		<tag k="amenity" v="place_of_worship" />
		<tag k="denomination" v="lutheran" />
		<tag k="name" v="Solli kirke" />
		<tag k="religion" v="christian" />
		<tag k="ssr:stedsnr" v="184455" />
	</node>
	<node lat="59.31940833395207" lon="11.017369451536313" id="-10813">
		<tag k="name" v="Ramoen" />
=======
	<node id="-218723" lat="59.3011305571" lon="11.0408611026">
		<tag k="name" v="Himmanebråten" />
		<tag k="place" v="locality" />
		<tag k="ssr:stedsnr" v="355303" />
	</node>
	<node id="-218977" lat="59.3291611155" lon="10.965283336">
		<tag k="name" v="Kuhaugen" />
>>>>>>> e1d4bc35ff8a6074a6f2e91616a996b547c36f15
		<tag k="place" v="locality" />
		<tag k="ssr:stedsnr" v="234382" />
	</node>
<<<<<<< HEAD
	<node lat="59.313080556289705" lon="10.997369438224576" id="-10815">
		<tag k="name" v="Ringsrød" />
=======
	<node id="-218975" lat="59.3278805517" lon="10.9804833345">
		<tag k="name" v="Kampenhaug" />
>>>>>>> e1d4bc35ff8a6074a6f2e91616a996b547c36f15
		<tag k="place" v="locality" />
		<tag k="ssr:stedsnr" v="234636" />
	</node>
<<<<<<< HEAD
	<node lat="59.301130557101786" lon="11.040861102588941" id="-10905">
		<tag k="name" v="Himmanebråten" />
=======
	<node id="-218974" lat="59.2999944454" lon="11.0441305592">
		<tag k="name" v="Bjørnstadmyra" />
>>>>>>> e1d4bc35ff8a6074a6f2e91616a996b547c36f15
		<tag k="place" v="locality" />
		<tag k="ssr:stedsnr" v="355303" />
	</node>
<<<<<<< HEAD
	<node lat="59.325641666254114" lon="10.97226944946651" id="-10907">
		<tag k="name" v="Sandaker" />
		<tag k="place" v="locality" />
		<tag k="ssr:stedsnr" v="355315" />
	</node>
	<node lat="59.2830777789099" lon="11.044202785883158" id="-10911">
		<tag k="name" v="Opstaddalen" />
=======
	<node id="-218469" lat="59.3434916673" lon="11.113133339">
		<tag k="amenity" v="place_of_worship" />
		<tag k="denomination" v="lutheran" />
		<tag k="name" v="Holleby kirke" />
		<tag k="religion" v="christian" />
		<tag k="ssr:stedsnr" v="124777" />
	</node>
	<node id="-217530" lat="59.3130805563" lon="10.9973694382">
		<tag k="name" v="Ringsrød" />
>>>>>>> e1d4bc35ff8a6074a6f2e91616a996b547c36f15
		<tag k="place" v="locality" />
		<tag k="ssr:stedsnr" v="355728" />
	</node>
<<<<<<< HEAD
	<node lat="59.33231110792593" lon="10.957658325301088" id="-10919">
		<tag k="name" v="Klæbon" />
		<tag k="place" v="locality" />
		<tag k="ssr:stedsnr" v="476352" />
	</node>
	<node lat="59.376166666749896" lon="11.033291661372507" id="-10926">
		<tag k="name" v="Dammen" />
=======
	<node id="-219225" lat="59.2790861076" lon="11.0888944474">
		<tag k="name" v="Haugen" />
>>>>>>> e1d4bc35ff8a6074a6f2e91616a996b547c36f15
		<tag k="place" v="locality" />
		<tag k="ssr:stedsnr" v="476433" />
	</node>
<<<<<<< HEAD
	<node lat="59.39531389282872" lon="11.007561115554276" id="-11007">
		<tag k="name" v="Maurklo" />
=======
	<node id="-217816" lat="59.3323111079" lon="10.9576583253">
		<tag k="name" v="Klæbon" />
>>>>>>> e1d4bc35ff8a6074a6f2e91616a996b547c36f15
		<tag k="place" v="locality" />
		<tag k="ssr:stedsnr" v="416041" />
	</node>
<<<<<<< HEAD
	<node lat="59.35395277844066" lon="11.026861118110928" id="-11008">
		<tag k="name" v="Grønnføtt" />
		<tag k="place" v="locality" />
		<tag k="ssr:stedsnr" v="416190" />
	</node>
	<node lat="59.25592499752815" lon="11.214155554846812" id="-11062">
=======
	<node id="-217815" lat="59.3020944406" lon="11.0407611191">
		<tag k="name" v="Kalnesbrekka" />
		<tag k="place" v="locality" />
		<tag k="ssr:stedsnr" v="476305" />
	</node>
	<node id="-218581" lat="59.1786000002" lon="11.2152249931">
		<tag k="amenity" v="place_of_worship" />
		<tag k="denomination" v="lutheran" />
		<tag k="name" v="Ingedal kirke" />
		<tag k="religion" v="christian" />
		<tag k="ssr:stedsnr" v="184945" />
	</node>
	<node id="-217812" lat="59.2559249975" lon="11.2141555548">
>>>>>>> e1d4bc35ff8a6074a6f2e91616a996b547c36f15
		<tag k="alt_name" v="Isesjøbråten feriehjem" />
		<tag k="amenity" v="place_of_worship" />
		<tag k="fixme" v="specify religion=*, denomination=*, building=* etc" />
		<tag k="name" v="Isesjøbråten" />
		<tag k="ssr:stedsnr" v="670928" />
	</node>
<<<<<<< HEAD
	<node lat="59.30209444060841" lon="11.04076111913569" id="-11068">
		<tag k="name" v="Kalnesbrekka" />
		<tag k="place" v="locality" />
		<tag k="ssr:stedsnr" v="476305" />
	</node>
	<node lat="59.34195833647247" lon="10.975674997884498" id="-11070">
		<tag k="name" v="Dammyr" />
		<tag k="place" v="locality" />
		<tag k="ssr:stedsnr" v="476376" />
	</node>
	<node lat="59.33284722677502" lon="10.963877773880704" id="-11110">
		<tag k="name" v="Lia" />
		<tag k="place" v="locality" />
		<tag k="ssr:stedsnr" v="537317" />
	</node>
	<node lat="59.34074166629781" lon="10.97344166072873" id="-11111">
		<tag k="name" v="Høyås" />
=======
	<node id="-218254" lat="59.3174833319" lon="11.0054305533">
		<tag k="name" v="Apalbakken" />
		<tag k="place" v="locality" />
		<tag k="ssr:stedsnr" v="962315" />
	</node>
	<node id="-219192" lat="59.3198500044" lon="11.0260444524">
		<tag k="name" v="Bøen" />
		<tag k="place" v="locality" />
		<tag k="ssr:stedsnr" v="841419" />
	</node>
	<node id="-217955" lat="59.2677249961" lon="11.0281750024">
		<tag k="name" v="Ekerbergløkka" />
		<tag k="place" v="locality" />
		<tag k="ssr:stedsnr" v="719723" />
	</node>
	<node id="-219215" lat="59.2848749987" lon="11.2819611156">
		<tag k="amenity" v="place_of_worship" />
		<tag k="denomination" v="lutheran" />
		<tag k="name" v="Skjebergdalen kirke" />
		<tag k="religion" v="christian" />
		<tag k="ssr:stedsnr" v="852879" />
	</node>
	<node id="-219086" lat="59.2727202195" lon="11.1395574013">
		<tag k="amenity" v="place_of_worship" />
		<tag k="denomination" v="lutheran" />
		<tag k="name" v="Hafslund kirke" />
		<tag k="religion" v="christian" />
		<tag k="ssr:stedsnr" v="750096" />
	</node>
	<node id="-217613" lat="59.3761666667" lon="11.0332916614">
		<tag k="name" v="Dammen" />
		<tag k="place" v="locality" />
		<tag k="ssr:stedsnr" v="476433" />
	</node>
	<node id="-218060" lat="59.3092694437" lon="11.0201944393">
		<tag k="name" v="Vingersletta" />
		<tag k="place" v="locality" />
		<tag k="ssr:stedsnr" v="901651" />
	</node>
	<node id="-218057" lat="59.3257305564" lon="10.9599000073">
		<tag k="name" v="Frydenlund" />
		<tag k="place" v="locality" />
		<tag k="ssr:stedsnr" v="901447" />
	</node>
	<node id="-218434" lat="59.3512666685" lon="11.0274944377">
		<tag k="name" v="Sølvstu" />
		<tag k="place" v="locality" />
		<tag k="ssr:stedsnr" v="113446" />
	</node>
	<node id="-217543" lat="59.3000805563" lon="11.1116500087">
		<tag k="amenity" v="community_centre" />
		<tag k="name" v="National" />
		<tag k="ssr:stedsnr" v="447439" />
	</node>
	<node id="-218053" lat="59.3829944454" lon="11.0367472253">
		<tag k="name" v="Askedal" />
>>>>>>> e1d4bc35ff8a6074a6f2e91616a996b547c36f15
		<tag k="place" v="locality" />
		<tag k="ssr:stedsnr" v="537372" />
	</node>
<<<<<<< HEAD
	<node lat="59.29999444539187" lon="11.044130559153034" id="-11196">
		<tag k="name" v="Bjørnstadmyra" />
=======
	<node id="-218052" lat="59.3588944434" lon="11.0275444356">
		<tag k="name" v="Vesleslett" />
>>>>>>> e1d4bc35ff8a6074a6f2e91616a996b547c36f15
		<tag k="place" v="locality" />
		<tag k="ssr:stedsnr" v="597301" />
	</node>
<<<<<<< HEAD
	<node lat="59.30901944305682" lon="11.02125278593138" id="-11197">
		<tag k="name" v="Steilet" />
=======
	<node id="-218819" lat="59.3539527784" lon="11.0268611181">
		<tag k="name" v="Grønnføtt" />
>>>>>>> e1d4bc35ff8a6074a6f2e91616a996b547c36f15
		<tag k="place" v="locality" />
		<tag k="ssr:stedsnr" v="597654" />
	</node>
<<<<<<< HEAD
	<node lat="59.290446345231956" lon="11.093824571151965" id="-11230">
		<tag k="name" v="Tune prestegård" />
		<tag k="ssr:stedsnr" v="629009" />
		<tag k="tourism" v="museum" />
	</node>
	<node lat="59.32153333626815" lon="11.01190833525547" id="-11260">
		<tag k="name" v="Rabakken" />
		<tag k="place" v="locality" />
		<tag k="ssr:stedsnr" v="658403" />
	</node>
	<node lat="59.358894443443624" lon="11.027544435632377" id="-11331">
		<tag k="name" v="Vesleslett" />
		<tag k="place" v="locality" />
		<tag k="ssr:stedsnr" v="901033" />
	</node>
	<node lat="59.38299444536328" lon="11.036747225251734" id="-11332">
		<tag k="name" v="Askedal" />
=======
	<node id="-218818" lat="59.3953138928" lon="11.0075611156">
		<tag k="name" v="Maurklo" />
		<tag k="place" v="locality" />
		<tag k="ssr:stedsnr" v="416041" />
	</node>
	<node id="-218430" lat="59.3347500007" lon="10.9580277773">
		<tag k="name" v="Bjerkheia" />
>>>>>>> e1d4bc35ff8a6074a6f2e91616a996b547c36f15
		<tag k="place" v="locality" />
		<tag k="ssr:stedsnr" v="901042" />
	</node>
<<<<<<< HEAD
	<node lat="59.325730556388095" lon="10.959900007313237" id="-11364">
		<tag k="name" v="Frydenlund" />
		<tag k="place" v="locality" />
		<tag k="ssr:stedsnr" v="901447" />
	</node>
	<node lat="59.28946111372434" lon="11.06816389492079" id="-11435">
		<tag k="name" v="Grålumstua" />
		<tag k="ssr:stedsnr" v="811004" />
		<tag k="tourism" v="attraction" />
	</node>
	<node lat="59.31019444688941" lon="11.017844445438563" id="-11467">
		<tag k="name" v="Hasslien" />
=======
	<node id="-218428" lat="59.3191027783" lon="10.9905361151">
		<tag k="name" v="Dalen" />
>>>>>>> e1d4bc35ff8a6074a6f2e91616a996b547c36f15
		<tag k="place" v="locality" />
		<tag k="ssr:stedsnr" v="841622" />
	</node>
<<<<<<< HEAD
	<node lat="59.28094722235729" lon="11.035702786388589" id="-11468">
=======
	<node id="-219195" lat="59.2809472224" lon="11.0357027864">
>>>>>>> e1d4bc35ff8a6074a6f2e91616a996b547c36f15
		<tag k="name" v="Stuvehausen" />
		<tag k="place" v="locality" />
		<tag k="ssr:stedsnr" v="841731" />
	</node>
<<<<<<< HEAD
	<node lat="59.284874998734345" lon="11.281961115647064" id="-11480">
		<tag k="amenity" v="place_of_worship" />
		<tag k="denomination" v="lutheran" />
		<tag k="name" v="Skjebergdalen kirke" />
		<tag k="religion" v="christian" />
		<tag k="ssr:stedsnr" v="852879" />
	</node>
	<node lat="59.279086107584156" lon="11.08889444744244" id="-11483">
		<tag k="name" v="Haugen" />
=======
	<node id="-218554" lat="59.3111972222" lon="10.9918305569">
		<tag k="name" v="Kilen" />
		<tag k="place" v="locality" />
		<tag k="ssr:stedsnr" v="173726" />
	</node>
	<node id="-218169" lat="59.3101944469" lon="11.0178444454">
		<tag k="name" v="Hasslien" />
>>>>>>> e1d4bc35ff8a6074a6f2e91616a996b547c36f15
		<tag k="place" v="locality" />
		<tag k="ssr:stedsnr" v="872013" />
	</node>
<<<<<<< HEAD
	<node lat="59.36440555441804" lon="11.138191661514332" id="-11497">
		<tag k="name" v="Bergmannskjerka" />
		<tag k="ssr:stedsnr" v="933316" />
		<tag k="tourism" v="viewpoint" />
	</node>
	<node lat="59.282516664796184" lon="11.109377776650115" id="-11502">
		<tag k="amenity" v="place_of_worship" />
		<tag k="denomination" v="lutheran" />
		<tag k="name" v="Sarpsborg kirke" />
		<tag k="religion" v="christian" />
		<tag k="ssr:stedsnr" v="933027" />
	</node>
	<node lat="59.34664166507192" lon="11.19749721911631" id="-11516">
		<tag k="amenity" v="community_centre" />
		<tag k="name" v="Breidablikk" />
		<tag k="ssr:stedsnr" v="933403" />
	</node>
	<node lat="59.20829999801255" lon="11.119030547860092" id="-11527">
		<tag k="name" v="Oldtidsveien" />
		<tag k="place" v="locality" />
		<tag k="ssr:stedsnr" v="935411" />
	</node>
	<node lat="59.2674861074057" lon="11.03360000685333" id="-11535">
		<tag k="name" v="Linbingen" />
=======
	<node id="-218552" lat="59.268483333" lon="11.0267111121">
		<tag k="name" v="Opstadmo" />
		<tag k="place" v="locality" />
		<tag k="ssr:stedsnr" v="173705" />
	</node>
	<node id="-219191" lat="59.306877779" lon="11.0474250054">
		<tag k="name" v="Bjor-Tindlund" />
		<tag k="place" v="locality" />
		<tag k="ssr:stedsnr" v="841350" />
	</node>
	<node id="-218037" lat="59.342969441" lon="11.0069861146">
		<tag k="name" v="Ommen" />
		<tag k="place" v="locality" />
		<tag k="ssr:stedsnr" v="719434" />
	</node>
	<node id="-217395" lat="59.2719888845" lon="11.0873611146">
		<tag k="name" v="Alvimhaugen" />
		<tag k="place" v="locality" />
		<tag k="ssr:stedsnr" v="83012" />
	</node>
	<node id="-217522" lat="59.3364999996" lon="11.1703611043">
		<tag k="name" v="Utsikten" />
		<tag k="ssr:stedsnr" v="204273" />
		<tag k="tourism" v="viewpoint" />
	</node>
	<node id="-218544" lat="59.3070083342" lon="11.0269472202">
		<tag k="name" v="Sillerudplassen" />
>>>>>>> e1d4bc35ff8a6074a6f2e91616a996b547c36f15
		<tag k="place" v="locality" />
		<tag k="ssr:stedsnr" v="901756" />
	</node>
<<<<<<< HEAD
	<node lat="59.31408333747386" lon="10.975744446214366" id="-11536">
		<tag k="name" v="Utneberget" />
		<tag k="place" v="locality" />
		<tag k="ssr:stedsnr" v="901767" />
	</node>
	<node lat="59.30926944369968" lon="11.02019443926725" id="-11538">
		<tag k="name" v="Vingersletta" />
		<tag k="place" v="locality" />
		<tag k="ssr:stedsnr" v="901651" />
	</node>
	<node lat="59.36520277795293" lon="10.968122220962481" id="-11581">
		<tag k="name" v="Tassebru" />
		<tag k="place" v="locality" />
		<tag k="ssr:stedsnr" v="962459" />
	</node>
	<node lat="59.35463333275396" lon="11.037966670395194" id="-11582">
		<tag k="name" v="Apalbakken" />
=======
	<node id="-217608" lat="59.3419583365" lon="10.9756749979">
		<tag k="name" v="Dammyr" />
		<tag k="place" v="locality" />
		<tag k="ssr:stedsnr" v="476376" />
	</node>
	<node id="-217518" lat="59.27342778" lon="11.0241972161">
		<tag k="name" v="Moa" />
		<tag k="place" v="locality" />
		<tag k="ssr:stedsnr" v="294756" />
	</node>
	<node id="-218717" lat="59.2550666665" lon="11.2329861108">
		<tag k="amenity" v="community_centre" />
		<tag k="name" v="Grendehus" />
		<tag k="ssr:stedsnr" v="326924" />
	</node>
	<node id="-218538" lat="59.3573972221" lon="10.9668277744">
		<tag k="name" v="Vestby" />
>>>>>>> e1d4bc35ff8a6074a6f2e91616a996b547c36f15
		<tag k="place" v="locality" />
		<tag k="ssr:stedsnr" v="962462" />
	</node>
<<<<<<< HEAD
	<node lat="59.34077221966488" lon="10.971544438187498" id="-11658">
		<tag k="name" v="Tinta" />
		<tag k="place" v="locality" />
		<tag k="ssr:stedsnr" v="52355" />
	</node>
	<node lat="59.29215277960613" lon="11.083355551968381" id="-11672">
=======
	<node id="-218409" lat="59.2857777789" lon="11.1381388883">
		<tag k="amenity" v="community_centre" />
		<tag k="name" v="Furuheim" />
		<tag k="ssr:stedsnr" v="83092" />
	</node>
	<node id="-218024" lat="59.2724555543" lon="11.0433388918">
>>>>>>> e1d4bc35ff8a6074a6f2e91616a996b547c36f15
		<tag k="amenity" v="place_of_worship" />
		<tag k="denomination" v="lutheran" />
		<tag k="name" v="Tune kirke" />
		<tag k="religion" v="christian" />
		<tag k="ssr:stedsnr" v="63428" />
	</node>
<<<<<<< HEAD
	<node lat="59.27879444670654" lon="11.124036110533963" id="-11691">
=======
	<node id="-218407" lat="59.2787944467" lon="11.1240361105">
>>>>>>> e1d4bc35ff8a6074a6f2e91616a996b547c36f15
		<tag k="name" v="Borgarsyssel museum" />
		<tag k="ssr:stedsnr" v="83087" />
		<tag k="tourism" v="attraction" />
	</node>
<<<<<<< HEAD
	<node lat="59.285777778896374" lon="11.13813888829167" id="-11693">
		<tag k="amenity" v="community_centre" />
		<tag k="name" v="Furuheim" />
		<tag k="ssr:stedsnr" v="83092" />
	</node>
	<node lat="59.31910277826734" lon="10.990536115134613" id="-11725">
		<tag k="name" v="Dalen" />
		<tag k="place" v="locality" />
		<tag k="ssr:stedsnr" v="112358" />
	</node>
	<node lat="59.334750000664535" lon="10.958027777291328" id="-11727">
		<tag k="name" v="Bjerkheia" />
		<tag k="place" v="locality" />
		<tag k="ssr:stedsnr" v="112391" />
	</node>
	<node lat="59.351266668535196" lon="11.027494437746805" id="-11730">
		<tag k="name" v="Sølvstu" />
		<tag k="place" v="locality" />
		<tag k="ssr:stedsnr" v="113446" />
	</node>
	<node lat="59.22363922412736" lon="11.209542944374158" id="-11736">
		<tag k="name" v="Trosset" />
		<tag k="place" v="locality" />
		<tag k="ssr:stedsnr" v="122891" />
	</node>
	<node lat="59.34349166732042" lon="11.113133339031068" id="-11753">
=======
	<node id="-218253" lat="59.208299998" lon="11.1190305479">
		<tag k="name" v="Oldtidsveien" />
		<tag k="place" v="locality" />
		<tag k="ssr:stedsnr" v="935411" />
	</node>
	<node id="-219229" lat="59.2791388905" lon="11.0693222262">
		<tag k="name" v="Marikos" />
		<tag k="place" v="locality" />
		<tag k="ssr:stedsnr" v="872027" />
	</node>
	<node id="-217376" lat="59.2289277801" lon="11.1902000011">
>>>>>>> e1d4bc35ff8a6074a6f2e91616a996b547c36f15
		<tag k="amenity" v="place_of_worship" />
		<tag k="denomination" v="lutheran" />
		<tag k="name" v="Holleby kirke" />
		<tag k="religion" v="christian" />
		<tag k="ssr:stedsnr" v="124777" />
	</node>
<<<<<<< HEAD
	<node lat="59.30700833424028" lon="11.026947220200828" id="-11811">
		<tag k="name" v="Sillerudplassen" />
		<tag k="place" v="locality" />
		<tag k="ssr:stedsnr" v="173319" />
	</node>
	<node lat="59.357397222087556" lon="10.96682777440924" id="-11816">
		<tag k="name" v="Vestby" />
		<tag k="place" v="locality" />
		<tag k="ssr:stedsnr" v="173434" />
	</node>
	<node lat="59.17860000020399" lon="11.215224993122137" id="-11828">
=======
	<node id="-217375" lat="59.224403196" lon="11.1064942963">
		<tag k="alt_name" v="Storedalanlegget" />
		<tag k="name" v="Storedalsanlegget" />
		<tag k="ssr:stedsnr" v="244917" />
		<tag k="tourism" v="museum" />
	</node>
	<node id="-218223" lat="59.3140833375" lon="10.9757444462">
		<tag k="name" v="Utneberget" />
		<tag k="place" v="locality" />
		<tag k="ssr:stedsnr" v="901767" />
	</node>
	<node id="-218011" lat="59.3505249986" lon="11.1903472236">
>>>>>>> e1d4bc35ff8a6074a6f2e91616a996b547c36f15
		<tag k="amenity" v="place_of_worship" />
		<tag k="denomination" v="lutheran" />
		<tag k="name" v="Ingedal kirke" />
		<tag k="religion" v="christian" />
		<tag k="ssr:stedsnr" v="184945" />
	</node>
	<node lat="59.33649999961027" lon="11.17036110425613" id="-11861">
		<tag k="name" v="Utsikten" />
		<tag k="ssr:stedsnr" v="204273" />
		<tag k="tourism" v="viewpoint" />
	</node>
<<<<<<< HEAD
	<node lat="59.27342777996979" lon="11.024197216093699" id="-11899">
		<tag k="name" v="Moa" />
		<tag k="place" v="locality" />
		<tag k="ssr:stedsnr" v="294756" />
	</node>
	<node lat="59.255066666468984" lon="11.23298611078214" id="-11960">
		<tag k="amenity" v="community_centre" />
		<tag k="name" v="Grendehus" />
		<tag k="ssr:stedsnr" v="326924" />
	</node>
	<node lat="59.29546944734614" lon="11.053641672518383" id="-11967">
		<tag k="name" v="Rognerødbråten" />
=======
	<node id="-218351" lat="59.3331277814" lon="10.9697833352">
		<tag k="name" v="Solligårdssmia" />
		<tag k="ssr:stedsnr" v="52291" />
		<tag k="tourism" v="museum" />
	</node>
	<node id="-219031" lat="59.286147221" lon="11.0798416669">
		<tag k="name" v="Hundeskinn" />
>>>>>>> e1d4bc35ff8a6074a6f2e91616a996b547c36f15
		<tag k="place" v="locality" />
		<tag k="ssr:stedsnr" v="355332" />
	</node>
<<<<<<< HEAD
	<node lat="59.37806111464926" lon="11.035641673603411" id="-12032">
		<tag k="name" v="Damtangen" />
=======
	<node id="-217750" lat="59.3215333363" lon="11.0119083353">
		<tag k="name" v="Rabakken" />
>>>>>>> e1d4bc35ff8a6074a6f2e91616a996b547c36f15
		<tag k="place" v="locality" />
		<tag k="ssr:stedsnr" v="416398" />
	</node>
<<<<<<< HEAD
	<node lat="59.300080556337825" lon="11.111650008721325" id="-12069">
		<tag k="amenity" v="community_centre" />
		<tag k="name" v="National" />
		<tag k="ssr:stedsnr" v="447439" />
	</node>
	<node lat="59.38114999719255" lon="10.97917222350619" id="-12117">
		<tag k="name" v="Sagdammen" />
=======
	<node id="-217497" lat="59.3603027811" lon="11.0470888902">
		<tag k="name" v="Velta" />
		<tag k="place" v="locality" />
		<tag k="ssr:stedsnr" v="173407" />
	</node>
	<node id="-217364" lat="59.3407722197" lon="10.9715444382">
		<tag k="name" v="Tinta" />
>>>>>>> e1d4bc35ff8a6074a6f2e91616a996b547c36f15
		<tag k="place" v="locality" />
		<tag k="ssr:stedsnr" v="537047" />
	</node>
<<<<<<< HEAD
	<node lat="59.20474444743794" lon="11.121122228725461" id="-12144">
		<tag k="amenity" v="place_of_worship" />
		<tag k="denomination" v="lutheran" />
		<tag k="name" v="Ullerøy kirke" />
		<tag k="religion" v="christian" />
		<tag k="ssr:stedsnr" v="548988" />
	</node>
	<node lat="59.32916111553552" lon="10.965283335958663" id="-12191">
		<tag k="name" v="Kuhaugen" />
		<tag k="place" v="locality" />
		<tag k="ssr:stedsnr" v="597374" />
	</node>
	<node lat="59.327880551690605" lon="10.980483334458313" id="-12192">
		<tag k="name" v="Kampenhaug" />
		<tag k="place" v="locality" />
		<tag k="ssr:stedsnr" v="597332" />
	</node>
	<node lat="59.26980000292502" lon="11.029966670953977" id="-12203">
		<tag k="amenity" v="place_of_worship" />
		<tag k="fixme" v="specify religion=*, denomination=*, building=* etc" />
		<tag k="name" v="Greåker frikirke" />
		<tag k="ssr:stedsnr" v="598723" />
	</node>
	<node lat="59.28614722099791" lon="11.079841666914" id="-12235">
		<tag k="name" v="Hundeskinn" />
=======
	<node id="-217966" lat="59.2904463452" lon="11.0938245712">
		<tag k="name" v="Tune prestegård" />
		<tag k="ssr:stedsnr" v="629009" />
		<tag k="tourism" v="museum" />
	</node>
	<node id="-218257" lat="59.3546333328" lon="11.0379666704">
		<tag k="name" v="Apalbakken" />
		<tag k="place" v="locality" />
		<tag k="ssr:stedsnr" v="962462" />
	</node>
	<node id="-218256" lat="59.365202778" lon="10.968122221">
		<tag k="name" v="Tassebru" />
>>>>>>> e1d4bc35ff8a6074a6f2e91616a996b547c36f15
		<tag k="place" v="locality" />
		<tag k="ssr:stedsnr" v="629033" />
	</node>
<<<<<<< HEAD
	<node lat="59.267724996077014" lon="11.02817500244992" id="-12290">
		<tag k="name" v="Ekerbergløkka" />
=======
	<node id="-217359" lat="59.2796694484" lon="11.0363277709">
		<tag k="name" v="Tunga" />
>>>>>>> e1d4bc35ff8a6074a6f2e91616a996b547c36f15
		<tag k="place" v="locality" />
		<tag k="ssr:stedsnr" v="719723" />
	</node>
<<<<<<< HEAD
	<node lat="59.342969440962996" lon="11.006986114552818" id="-12293">
		<tag k="name" v="Ommen" />
		<tag k="place" v="locality" />
		<tag k="ssr:stedsnr" v="719434" />
	</node>
	<node lat="59.3503339921103" lon="11.189757672228987" id="-12310">
=======
	<node id="-218894" lat="59.2047444474" lon="11.1211222287">
>>>>>>> e1d4bc35ff8a6074a6f2e91616a996b547c36f15
		<tag k="amenity" v="place_of_worship" />
		<tag k="denomination" v="lutheran" />
		<tag k="name" v="Varteig kirke" />
		<tag k="religion" v="christian" />
		<tag k="ssr:stedsnr" v="731741" />
	</node>
<<<<<<< HEAD
	<node lat="59.27272021946314" lon="11.139557401327027" id="-12325">
		<tag k="amenity" v="place_of_worship" />
		<tag k="denomination" v="lutheran" />
		<tag k="name" v="Hafslund kirke" />
		<tag k="religion" v="christian" />
		<tag k="ssr:stedsnr" v="750096" />
	</node>
	<node lat="59.30763333476392" lon="10.979833335221395" id="-12362">
		<tag k="name" v="Lystberget" />
		<tag k="place" v="locality" />
		<tag k="ssr:stedsnr" v="780565" />
	</node>
	<node lat="59.28636389321514" lon="11.053372215991214" id="-12364">
		<tag k="name" v="Bråten" />
=======
	<node id="-218861" lat="59.3407416663" lon="10.9734416607">
		<tag k="name" v="Høyås" />
		<tag k="place" v="locality" />
		<tag k="ssr:stedsnr" v="537372" />
	</node>
	<node id="-217356" lat="59.2703111094" lon="11.0339972151">
		<tag k="name" v="Stenløkka" />
>>>>>>> e1d4bc35ff8a6074a6f2e91616a996b547c36f15
		<tag k="place" v="locality" />
		<tag k="ssr:stedsnr" v="780711" />
	</node>
<<<<<<< HEAD
	<node lat="59.319850004369705" lon="11.026044452421731" id="-12414">
		<tag k="name" v="Bøen" />
		<tag k="place" v="locality" />
		<tag k="ssr:stedsnr" v="841419" />
	</node>
	<node lat="59.306877779015224" lon="11.047425005364632" id="-12420">
		<tag k="name" v="Bjor-Tindlund" />
		<tag k="place" v="locality" />
		<tag k="ssr:stedsnr" v="841350" />
	</node>
	<node lat="59.279138890464665" lon="11.06932222622494" id="-12451">
		<tag k="name" v="Marikos" />
		<tag k="place" v="locality" />
		<tag k="ssr:stedsnr" v="872027" />
	</node>
	<node lat="59.272455554269506" lon="11.043338891806483" id="-12502">
=======
	<node id="-218562" lat="59.3254027819" lon="10.9637138833">
		<tag k="amenity" v="place_of_worship" />
		<tag k="denomination" v="lutheran" />
		<tag k="name" v="Solli kirke" />
		<tag k="religion" v="christian" />
		<tag k="ssr:stedsnr" v="184455" />
	</node>
	<node id="-217357" lat="59.2852833326" lon="11.037524994">
		<tag k="name" v="Klemmetsbakken" />
		<tag k="place" v="locality" />
		<tag k="ssr:stedsnr" v="234772" />
	</node>
	<node id="-218376" lat="59.2921527796" lon="11.083355552">
>>>>>>> e1d4bc35ff8a6074a6f2e91616a996b547c36f15
		<tag k="amenity" v="place_of_worship" />
		<tag k="denomination" v="lutheran" />
		<tag k="name" v="Greåker kirke" />
		<tag k="religion" v="christian" />
		<tag k="ssr:stedsnr" v="876279" />
	</node>
<<<<<<< HEAD
	<node lat="59.31748333189327" lon="11.005430553252133" id="-12508">
		<tag k="name" v="Apalbakken" />
=======
	<node id="-219270" lat="59.3032305566" lon="11.0098777813">
		<tag k="name" v="Hugget" />
>>>>>>> e1d4bc35ff8a6074a6f2e91616a996b547c36f15
		<tag k="place" v="locality" />
		<tag k="ssr:stedsnr" v="962315" />
	</node>
<<<<<<< HEAD
	<node lat="59.303230556570924" lon="11.009877781349008" id="-12510">
		<tag k="name" v="Hugget" />
		<tag k="place" v="locality" />
		<tag k="ssr:stedsnr" v="962350" />
=======
	<node id="-218823" lat="59.3780611146" lon="11.0356416736">
		<tag k="name" v="Damtangen" />
		<tag k="place" v="locality" />
		<tag k="ssr:stedsnr" v="416398" />
	</node>
	<node id="-218222" lat="59.2674861074" lon="11.0336000069">
		<tag k="name" v="Linbingen" />
		<tag k="place" v="locality" />
		<tag k="ssr:stedsnr" v="901756" />
	</node>
	<node id="-218241" lat="59.3466416651" lon="11.1974972191">
		<tag k="amenity" v="community_centre" />
		<tag k="name" v="Breidablikk" />
		<tag k="ssr:stedsnr" v="933403" />
>>>>>>> e1d4bc35ff8a6074a6f2e91616a996b547c36f15
	</node>
</osm>
