<?xml version="1.0" encoding="UTF-8"?>
<osm version="0.6" generator="osmapis">
	<node lat="59.37299999639466" lon="11.220280552178462" id="-12107">
		<tag k="alt_name" v="Søndre Tomta" />
		<tag k="bridge" v="yes" />
		<tag k="layer" v="1" />
		<tag k="name" v="Tomte bru" />
		<tag k="ssr:stedsnr" v="22335" />
	</node>
	<node lat="59.15248889026042" lon="11.133819445989749" id="-12111">
		<tag k="leisure" v="marina" />
		<tag k="name" v="Holmestrand" />
		<tag k="ssr:stedsnr" v="22391" />
	</node>
	<node lat="59.17676111196432" lon="11.209266671462425" id="-12142">
		<tag k="bridge" v="yes" />
		<tag k="layer" v="1" />
		<tag k="name" v="Bøbakken" />
		<tag k="ssr:stedsnr" v="46622" />
	</node>
	<node lat="59.295447218033324" lon="11.075188888800447" id="-12143">
		<tag k="bridge" v="yes" />
		<tag k="layer" v="1" />
		<tag k="name" v="Tingvoll" />
		<tag k="ssr:stedsnr" v="46675" />
	</node>
	<node lat="59.325986108541066" lon="11.255491667351503" id="-12144">
		<tag k="bridge" v="yes" />
		<tag k="layer" v="1" />
		<tag k="name" v="Knatterød" />
		<tag k="ssr:stedsnr" v="46683" />
	</node>
	<node lat="59.30061666897032" lon="11.218680550570024" id="-12145">
		<tag k="bridge" v="yes" />
		<tag k="layer" v="1" />
		<tag k="name" v="Ise" />
		<tag k="ssr:stedsnr" v="46687" />
	</node>
	<node lat="59.290000003419465" lon="11.058525006343254" id="-12146">
		<tag k="bridge" v="yes" />
		<tag k="layer" v="1" />
		<tag k="name" v="Grålum skole" />
		<tag k="ssr:stedsnr" v="46689" />
	</node>
	<node lat="59.289475003128814" lon="11.104024996697282" id="-12243">
		<tag k="alt_name" v="Valaskjold" />
		<tag k="bridge" v="yes" />
		<tag k="layer" v="1" />
		<tag k="name" v="Valaskjold bru" />
		<tag k="ssr:stedsnr" v="143009" />
	</node>
	<node lat="59.230047220681975" lon="11.14835832676977" id="-12264">
		<tag k="bridge" v="yes" />
		<tag k="layer" v="1" />
		<tag k="name" v="Flatberg" />
		<tag k="ssr:stedsnr" v="167617" />
	</node>
	<node lat="59.276258337563135" lon="11.30202777321355" id="-12321">
		<tag k="alt_name" v="Børtevann" />
		<tag k="bridge" v="yes" />
		<tag k="layer" v="1" />
		<tag k="name" v="Børtevannsbrua" />
		<tag k="ssr:stedsnr" v="266178" />
	</node>
	<node lat="59.26495277488801" lon="11.049749991276489" id="-12389">
		<tag k="man_made" v="quay" />
		<tag k="name" v="Paulsens brygger" />
		<tag k="place" v="locality" />
		<tag k="ssr:stedsnr" v="285905" />
	</node>
	<node lat="59.26668610935659" lon="11.055522219106928" id="-12390">
		<tag k="man_made" v="quay" />
		<tag k="name" v="Industriship" />
		<tag k="place" v="locality" />
		<tag k="ssr:stedsnr" v="285910" />
	</node>
	<node lat="59.32494166585792" lon="10.961677769693223" id="-12431">
		<tag k="bridge" v="yes" />
		<tag k="layer" v="1" />
		<tag k="name" v="Ågårdselva" />
		<tag k="ssr:stedsnr" v="470597" />
	</node>
	<node lat="59.21163611329451" lon="11.165949996854696" id="-12432">
		<tag k="bridge" v="yes" />
		<tag k="layer" v="1" />
		<tag k="name" v="Solberg" />
		<tag k="ssr:stedsnr" v="470601" />
	</node>
	<node lat="59.372522218580215" lon="11.226066662659003" id="-12433">
		<tag k="bridge" v="yes" />
		<tag k="layer" v="1" />
		<tag k="name" v="Nordre Tomta" />
		<tag k="ssr:stedsnr" v="470606" />
	</node>
	<node lat="59.269791667204565" lon="11.169647221207967" id="-12435">
		<tag k="bridge" v="yes" />
		<tag k="layer" v="1" />
		<tag k="name" v="Nygårdshaugen" />
		<tag k="ssr:stedsnr" v="349669" />
	</node>
	<node lat="59.299305556786784" lon="11.237336108101964" id="-12436">
		<tag k="bridge" v="yes" />
		<tag k="layer" v="1" />
		<tag k="name" v="Nes" />
		<tag k="ssr:stedsnr" v="349673" />
	</node>
	<node lat="59.267427782058355" lon="11.060286119455695" id="-12521">
		<tag k="man_made" v="quay" />
		<tag k="name" v="Neumannskaien" />
		<tag k="place" v="locality" />
		<tag k="ssr:stedsnr" v="406941" />
	</node>
	<node lat="59.26676944063671" lon="11.042897224892906" id="-12526">
		<tag k="bridge" v="yes" />
		<tag k="layer" v="1" />
		<tag k="name" v="Tindlund" />
		<tag k="ssr:stedsnr" v="410616" />
	</node>
	<node lat="59.29903889300036" lon="11.060413882743914" id="-12527">
		<tag k="bridge" v="yes" />
		<tag k="layer" v="1" />
		<tag k="name" v="Søndre Bjørnstad" />
		<tag k="ssr:stedsnr" v="410617" />
	</node>
	<node lat="59.30831666389854" lon="11.233455551541246" id="-12528">
		<tag k="bridge" v="yes" />
		<tag k="layer" v="1" />
		<tag k="loc_name" v="Spydevoll" />
		<tag k="name" v="Spydevold" />
		<tag k="ssr:stedsnr" v="410623" />
	</node>
	<node lat="59.31718055320152" lon="11.23845278525369" id="-12529">
		<tag k="bridge" v="yes" />
		<tag k="layer" v="1" />
		<tag k="name" v="Langnes" />
		<tag k="ssr:stedsnr" v="410630" />
	</node>
	<node lat="59.26825555100332" lon="11.079322227889845" id="-12598">
		<tag k="man_made" v="quay" />
		<tag k="name" v="Nedre Alvim kai" />
		<tag k="place" v="locality" />
		<tag k="ssr:stedsnr" v="464056" />
	</node>
	<node lat="59.26272778172633" lon="11.034002785402864" id="-12638">
		<tag k="man_made" v="quay" />
		<tag k="name" v="Toftehjørnet" />
		<tag k="place" v="locality" />
		<tag k="ssr:stedsnr" v="527907" />
	</node>
	<node lat="59.20441666542839" lon="11.178452772520608" id="-12639">
		<tag k="bridge" v="yes" />
		<tag k="layer" v="1" />
		<tag k="name" v="Feriehjemveien" />
		<tag k="ssr:stedsnr" v="531614" />
	</node>
	<node lat="59.303102778983124" lon="11.228827774609476" id="-12640">
		<tag k="bridge" v="yes" />
		<tag k="layer" v="1" />
		<tag k="name" v="Haganes" />
		<tag k="ssr:stedsnr" v="531674" />
	</node>
	<node lat="59.26777500025178" lon="11.069788891295193" id="-12664">
		<tag k="man_made" v="quay" />
		<tag k="name" v="Piren" />
		<tag k="place" v="locality" />
		<tag k="ssr:stedsnr" v="690076" />
	</node>
	<node lat="59.27455833599024" lon="11.09115832641554" id="-12727">
		<tag k="bridge" v="yes" />
		<tag k="layer" v="1" />
		<tag k="name" v="Tunebakken" />
		<tag k="ssr:stedsnr" v="592654" />
	</node>
	<node lat="59.158648397275954" lon="11.239281670202987" id="-12754">
		<tag k="alt_name" v="Ingedal" />
		<tag k="name" v="Ingedal stasjon" />
		<tag k="railway" v="station" />
		<tag k="ssr:stedsnr" v="609948" />
		<tag k="train" v="yes" />
	</node>
	<node lat="59.26925000432617" lon="11.022219443485378" id="-12818">
		<tag k="bridge" v="yes" />
		<tag k="layer" v="1" />
		<tag k="name" v="Rolvsøysund" />
		<tag k="ssr:stedsnr" v="896581" />
	</node>
	<node lat="59.29644166788269" lon="11.068219451274981" id="-12855">
		<tag k="bridge" v="yes" />
		<tag k="layer" v="1" />
		<tag k="name" v="Lekevoll" />
		<tag k="ssr:stedsnr" v="896680" />
	</node>
	<node lat="59.26738333103179" lon="11.058563882252324" id="-12856">
		<tag k="landuse" v="harbour" />
		<tag k="name" v="Hannestad båthavn" />
		<tag k="seamark:type" v="harbour" />
		<tag k="ssr:stedsnr" v="709933" />
	</node>
	<node lat="59.29535555772471" lon="11.064127778722245" id="-12857">
		<tag k="bridge" v="yes" />
		<tag k="layer" v="1" />
		<tag k="name" v="Bjørnstadvegen" />
		<tag k="ssr:stedsnr" v="713604" />
	</node>
	<node lat="59.32439166594222" lon="10.956341669263434" id="-12858">
		<tag k="bridge" v="yes" />
		<tag k="layer" v="1" />
		<tag k="name" v="Sollikrysset" />
		<tag k="ssr:stedsnr" v="713633" />
	</node>
	<node lat="59.29154119954203" lon="11.196551935257817" id="-12879">
		<tag k="alt_name" v="Holtenga st." />
		<tag k="name" v="Holtenga holdeplass" />
		<tag k="railway" v="halt" />
		<tag k="ssr:stedsnr" v="730907" />
		<tag k="train" v="yes" />
	</node>
	<node lat="59.157258334791756" lon="11.22889722134091" id="-12904">
		<tag k="bridge" v="yes" />
		<tag k="layer" v="1" />
		<tag k="name" v="Slang" />
		<tag k="ssr:stedsnr" v="228677" />
	</node>
	<node lat="59.29935833684698" lon="11.060852786033903" id="-12925">
		<tag k="bridge" v="yes" />
		<tag k="layer" v="1" />
		<tag k="name" v="Bjørnstad" />
		<tag k="ssr:stedsnr" v="774629" />
	</node>
	<node lat="59.27521111261275" lon="11.093102772982636" id="-12926">
		<tag k="bridge" v="yes" />
		<tag k="layer" v="1" />
		<tag k="name" v="Torsbekkdalen" />
		<tag k="ssr:stedsnr" v="774658" />
	</node>
	<node lat="59.271644445373596" lon="11.0902444366286" id="-12927">
		<tag k="bridge" v="yes" />
		<tag k="layer" v="1" />
		<tag k="name" v="Spikerbukta" />
		<tag k="ssr:stedsnr" v="774665" />
	</node>
	<node lat="59.34474999838692" lon="11.272783326457862" id="-12928">
		<tag k="bridge" v="yes" />
		<tag k="layer" v="1" />
		<tag k="name" v="Midtfjell" />
		<tag k="ssr:stedsnr" v="774676" />
	</node>
	<node lat="59.266274997420105" lon="11.055441664155206" id="-12978">
		<tag k="man_made" v="quay" />
		<tag k="name" v="Sandersberget" />
		<tag k="place" v="locality" />
		<tag k="ssr:stedsnr" v="811085" />
	</node>
	<node lat="59.27710277773797" lon="11.131111116752722" id="-12992">
		<tag k="bridge" v="yes" />
		<tag k="layer" v="1" />
		<tag k="name" v="Kanalbrua" />
		<tag k="ssr:stedsnr" v="228689" />
	</node>
	<node lat="59.267563891672914" lon="11.034463883339019" id="-12993">
		<tag k="bridge" v="yes" />
		<tag k="layer" v="1" />
		<tag k="name" v="Grålumvegen" />
		<tag k="ssr:stedsnr" v="228694" />
	</node>
	<node lat="59.27427500400696" lon="11.08662222246859" id="-12994">
		<tag k="bridge" v="yes" />
		<tag k="layer" v="1" />
		<tag k="name" v="Alvim" />
		<tag k="ssr:stedsnr" v="835603" />
	</node>
	<node lat="59.293605553558606" lon="11.26794444210012" id="-12995">
		<tag k="bridge" v="yes" />
		<tag k="layer" v="1" />
		<tag k="name" v="Øby" />
		<tag k="ssr:stedsnr" v="835648" />
	</node>
	<node lat="59.29118888520966" lon="11.095855559604734" id="-12996">
		<tag k="bridge" v="yes" />
		<tag k="layer" v="1" />
		<tag k="name" v="ØIH-undergangen" />
		<tag k="ssr:stedsnr" v="835649" />
	</node>
	<node lat="59.23927777526165" lon="11.135541671548777" id="-12997">
		<tag k="bridge" v="yes" />
		<tag k="layer" v="1" />
		<tag k="name" v="Blåfjell" />
		<tag k="ssr:stedsnr" v="835601" />
	</node>
	<node lat="59.18024722240678" lon="11.213908330008115" id="-13026">
		<tag k="alt_name" v="Ingedal" />
		<tag k="bridge" v="yes" />
		<tag k="layer" v="1" />
		<tag k="name" v="Ingedalsbrua" />
		<tag k="ssr:stedsnr" v="932115" />
	</node>
	<node lat="59.356949996538056" lon="11.067747217952938" id="-13060">
		<tag k="bridge" v="yes" />
		<tag k="layer" v="1" />
		<tag k="name" v="Vestre Trøsken" />
		<tag k="ssr:stedsnr" v="896658" />
	</node>
	<node lat="59.26824167122849" lon="11.053755550558469" id="-13061">
		<tag k="bridge" v="yes" />
		<tag k="layer" v="1" />
		<tag k="name" v="Kirkebyvegen" />
		<tag k="ssr:stedsnr" v="896675" />
	</node>
	<node lat="59.27050833635845" lon="11.095486119642628" id="-13062">
		<tag k="bridge" v="yes" />
		<tag k="layer" v="1" />
		<tag k="name" v="Sandesund" />
		<tag k="ssr:stedsnr" v="896577" />
	</node>
	<node lat="59.208380553786135" lon="11.172274996709657" id="-13109">
		<tag k="bridge" v="yes" />
		<tag k="layer" v="1" />
		<tag k="name" v="Bustgård" />
		<tag k="ssr:stedsnr" v="956628" />
	</node>
	<node lat="59.26811446439733" lon="11.08089533574907" id="-13130">
		<tag k="man_made" v="quay" />
		<tag k="name" v="Alvim kai" />
		<tag k="place" v="locality" />
		<tag k="ssr:stedsnr" v="990011" />
	</node>
	<node lat="59.27209166781474" lon="11.092808341209441" id="-13183">
		<tag k="man_made" v="quay" />
		<tag k="name" v="Byens brygge" />
		<tag k="place" v="locality" />
		<tag k="ssr:stedsnr" v="39040" />
	</node>
	<node lat="59.268497219165845" lon="11.031402769676827" id="-13252">
		<tag k="bridge" v="yes" />
		<tag k="layer" v="1" />
		<tag k="name" v="Greåker" />
		<tag k="ssr:stedsnr" v="107590" />
	</node>
	<node lat="59.279769443987256" lon="11.126802782464651" id="-13253">
		<tag k="bridge" v="yes" />
		<tag k="layer" v="1" />
		<tag k="name" v="Borregård" />
		<tag k="ssr:stedsnr" v="107595" />
	</node>
	<node lat="59.22456944403233" lon="11.156727777744875" id="-13254">
		<tag k="bridge" v="yes" />
		<tag k="layer" v="1" />
		<tag k="name" v="Ringstad" />
		<tag k="ssr:stedsnr" v="107644" />
	</node>
	<node lat="59.27252222402349" lon="11.145822226542993" id="-13255">
		<tag k="bridge" v="yes" />
		<tag k="layer" v="1" />
		<tag k="name" v="Rye" />
		<tag k="ssr:stedsnr" v="107646" />
	</node>
	<node lat="59.27610277661274" lon="11.133191669890733" id="-13256">
		<tag k="bridge" v="yes" />
		<tag k="layer" v="1" />
		<tag k="name" v="Sarpefossen" />
		<tag k="ssr:stedsnr" v="107647" />
	</node>
	<node lat="59.20188055497154" lon="11.183572230399067" id="-13334">
		<tag k="bridge" v="yes" />
		<tag k="layer" v="1" />
		<tag k="name" v="Skjebergbekken" />
		<tag k="ssr:stedsnr" v="167648" />
	</node>
	<node lat="59.20023889168435" lon="11.188944442512273" id="-13335">
		<tag k="bridge" v="yes" />
		<tag k="layer" v="1" />
		<tag k="name" v="Høysandveien" />
		<tag k="ssr:stedsnr" v="167661" />
	</node>
	<node lat="59.35857778002082" lon="11.206602784687357" id="-13403">
		<tag k="junction" v="yes" />
		<tag k="name" v="Bøkrysset" />
		<tag k="place" v="locality" />
		<tag k="ssr:stedsnr" v="204300" />
	</node>
	<node lat="59.31882499693465" lon="11.242738882498202" id="-13415">
		<tag k="bridge" v="yes" />
		<tag k="layer" v="1" />
		<tag k="name" v="Stubberud" />
		<tag k="ssr:stedsnr" v="228674" />
	</node>
	<node lat="59.27834722346075" lon="11.129458335373853" id="-13418">
		<tag k="bridge" v="yes" />
		<tag k="layer" v="1" />
		<tag k="name" v="St. Mariegate" />
		<tag k="ssr:stedsnr" v="289681" />
	</node>
	<node lat="59.250372220599125" lon="11.182044439535966" id="-13419">
		<tag k="bridge" v="yes" />
		<tag k="layer" v="1" />
		<tag k="name" v="Sandbakken" />
		<tag k="ssr:stedsnr" v="289686" />
	</node>
	<node lat="59.296925003744946" lon="11.06067777121277" id="-13420">
		<tag k="bridge" v="yes" />
		<tag k="layer" v="1" />
		<tag k="name" v="Haraldstadmyra" />
		<tag k="ssr:stedsnr" v="289698" />
	</node>
	<node lat="59.29478611124318" lon="11.063947221730082" id="-13421">
		<tag k="bridge" v="yes" />
		<tag k="layer" v="1" />
		<tag k="name" v="Vesterheimvegen" />
		<tag k="ssr:stedsnr" v="289672" />
	</node>
	<node lat="59.267408333310726" lon="11.063127776809644" id="-13466">
		<tag k="man_made" v="quay" />
		<tag k="name" v="Amerikakaia" />
		<tag k="place" v="locality" />
		<tag k="ssr:stedsnr" v="325089" />
	</node>
	<node lat="59.26982777574376" lon="11.064830555114428" id="-13494">
		<tag k="bridge" v="yes" />
		<tag k="layer" v="1" />
		<tag k="name" v="Elvebakken" />
		<tag k="ssr:stedsnr" v="349623" />
	</node>
	<node lat="59.2926805514583" lon="11.112994452225996" id="-13560">
		<tag k="bridge" v="yes" />
		<tag k="layer" v="1" />
		<tag k="name" v="Bryggerivegen" />
		<tag k="ssr:stedsnr" v="410586" />
	</node>
	<node lat="59.219586113252376" lon="11.2366249955973" id="-13582">
		<tag k="junction" v="yes" />
		<tag k="name" v="Stenbru" />
		<tag k="place" v="locality" />
		<tag k="ssr:stedsnr" v="447129" />
	</node>
	<node lat="59.268275003747014" lon="11.082572218037821" id="-13647">
		<tag k="man_made" v="quay" />
		<tag k="name" v="Øvre Alvim kai" />
		<tag k="place" v="locality" />
		<tag k="ssr:stedsnr" v="525055" />
	</node>
	<node lat="59.16592777845544" lon="11.218819448103384" id="-13648">
		<tag k="bridge" v="yes" />
		<tag k="layer" v="1" />
		<tag k="name" v="Bakke" />
		<tag k="ssr:stedsnr" v="531617" />
	</node>
	<node lat="59.2105989310779" lon="11.189853602751022" id="-13685">
		<tag k="name" v="Skjeberg stasjon" />
		<tag k="railway" v="station" />
		<tag k="ssr:stedsnr" v="568141" />
		<tag k="train" v="yes" />
	</node>
	<node lat="59.232708329905094" lon="11.143724998841932" id="-13721">
		<tag k="bridge" v="yes" />
		<tag k="layer" v="1" />
		<tag k="name" v="Jarle" />
		<tag k="ssr:stedsnr" v="592671" />
	</node>
	<node lat="59.2679055587702" lon="11.125041660117192" id="-13722">
		<tag k="bridge" v="yes" />
		<tag k="layer" v="1" />
		<tag k="name" v="Hafslund" />
		<tag k="ssr:stedsnr" v="592674" />
	</node>
	<node lat="59.29559444864272" lon="11.065786116303551" id="-13792">
		<tag k="bridge" v="yes" />
		<tag k="layer" v="1" />
		<tag k="name" v="Tunetorget" />
		<tag k="ssr:stedsnr" v="652607" />
	</node>
	<node lat="59.24376111064712" lon="11.126066659556662" id="-13793">
		<tag k="bridge" v="yes" />
		<tag k="layer" v="1" />
		<tag k="name" v="Skadalen" />
		<tag k="ssr:stedsnr" v="652609" />
	</node>
	<node lat="59.31617777861009" lon="11.01534167229884" id="-13794">
		<tag k="bridge" v="yes" />
		<tag k="layer" v="1" />
		<tag k="name" v="Kongevegen vest" />
		<tag k="ssr:stedsnr" v="652617" />
	</node>
	<node lat="59.1791638843772" lon="11.209072230115243" id="-13795">
		<tag k="bridge" v="yes" />
		<tag k="layer" v="1" />
		<tag k="name" v="Løkkevikaveien" />
		<tag k="ssr:stedsnr" v="652619" />
	</node>
	<node lat="59.30017743452662" lon="11.219615070933456" id="-13814">
		<tag k="alt_name" v="Ise" />
		<tag k="name" v="Ise stasjon" />
		<tag k="railway" v="station" />
		<tag k="ssr:stedsnr" v="669971" />
		<tag k="train" v="yes" />
	</node>
	<node lat="59.31641111463182" lon="10.991322220180598" id="-13815">
		<tag k="bridge" v="yes" />
		<tag k="layer" v="1" />
		<tag k="name" v="Børstad" />
		<tag k="ssr:stedsnr" v="713602" />
	</node>
	<node lat="59.17879166621001" lon="11.206519451470374" id="-13816">
		<tag k="bridge" v="yes" />
		<tag k="layer" v="1" />
		<tag k="name" v="Ingedalskrysset" />
		<tag k="ssr:stedsnr" v="713643" />
	</node>
	<node lat="59.306022221848686" lon="11.042902776026104" id="-13817">
		<tag k="bridge" v="yes" />
		<tag k="layer" v="1" />
		<tag k="name" v="Kalnes" />
		<tag k="ssr:stedsnr" v="713647" />
	</node>
	<node lat="59.1509194426893" lon="11.238169445641867" id="-13818">
		<tag k="bridge" v="yes" />
		<tag k="layer" v="1" />
		<tag k="name" v="Grimsøyveien" />
		<tag k="ssr:stedsnr" v="713649" />
	</node>
	<node lat="59.26496389130835" lon="11.037030550822418" id="-13820">
		<tag k="name" v="Greåker stasjon" />
		<tag k="railway" v="halt" />
		<tag k="ssr:stedsnr" v="719719" />
		<tag k="train" v="yes" />
	</node>
	<node lat="59.15864722298339" lon="11.150249994832148" id="-13861">
		<tag k="leisure" v="marina" />
		<tag k="name" v="Merrapanna" />
		<tag k="ssr:stedsnr" v="750388" />
	</node>
	<node lat="59.277438888984" lon="11.130369452025946" id="-13943">
		<tag k="bridge" v="yes" />
		<tag k="layer" v="1" />
		<tag k="name" v="Nordre Kanalbru" />
		<tag k="ssr:stedsnr" v="835664" />
	</node>
	<node lat="59.32802777724737" lon="11.260455562608335" id="-13944">
		<tag k="bridge" v="yes" />
		<tag k="layer" v="1" />
		<tag k="name" v="Haven" />
		<tag k="ssr:stedsnr" v="835674" />
	</node>
	<node lat="59.28613889019673" lon="11.11804167174141" id="-13998">
		<tag k="name" v="Sarpsborg stasjon" />
		<tag k="railway" v="station" />
		<tag k="ssr:stedsnr" v="872123" />
		<tag k="train" v="yes" />
	</node>
	<node lat="59.27280000156518" lon="11.092377777878275" id="-14035">
		<tag k="man_made" v="quay" />
		<tag k="name" v="Vestre og østre Torsbekk kai" />
		<tag k="place" v="locality" />
		<tag k="ssr:stedsnr" v="889073" />
	</node>
	<node lat="59.270213884726985" lon="11.100097227655002" id="-14037">
		<tag k="man_made" v="quay" />
		<tag k="name" v="Melløs" />
		<tag k="place" v="locality" />
		<tag k="ssr:stedsnr" v="950041" />
	</node>
	<node lat="59.2730888905053" lon="11.140663885973021" id="-14038">
		<tag k="bridge" v="yes" />
		<tag k="layer" v="1" />
		<tag k="name" v="Hafslund" />
		<tag k="ssr:stedsnr" v="956681" />
	</node>
	<node lat="59.26822238722488" lon="11.075448320503227" id="-14064">
		<tag k="man_made" v="quay" />
		<tag k="name" v="Sørlikaien" />
		<tag k="place" v="locality" />
		<tag k="ssr:stedsnr" v="990043" />
	</node>
	<node lat="59.271367526986474" lon="11.093800450973525" id="-14065">
		<tag k="man_made" v="quay" />
		<tag k="name" v="Tollbodbrygga" />
		<tag k="place" v="locality" />
		<tag k="ssr:stedsnr" v="990044" />
	</node>
</osm>
