<?xml version="1.0" encoding="UTF-8"?>
<osm version="0.6" generator="osmapis">
	<node lat="59.97005278207388" lon="10.052225006722448" id="-16273">
		<tag k="man_made" v="cairn" />
		<tag k="name" v="Hvalsvarden" />
		<tag k="place" v="locality" />
		<tag k="ssr:stedsnr" v="42981" />
	</node>
	<node lat="59.986938884599674" lon="9.912630549441" id="-16278">
		<tag k="bridge" v="yes" />
		<tag k="layer" v="1" />
		<tag k="name" v="Sysle bruk" />
		<tag k="ssr:stedsnr" v="46924" />
	</node>
	<node lat="59.893883333801426" lon="9.92759721681169" id="-16279">
		<tag k="bridge" v="yes" />
		<tag k="layer" v="1" />
		<tag k="name" v="Enger" />
		<tag k="ssr:stedsnr" v="46984" />
	</node>
	<node lat="59.98030555768622" lon="10.190958335682623" id="-16280">
		<tag k="fixme" v="consider highway=path" />
		<tag k="highway" v="track" />
		<tag k="name" v="Pålskastet" />
		<tag k="ssr:stedsnr" v="239114" />
	</node>
	<node lat="59.90307221893516" lon="9.935847223393308" id="-16368">
		<tag k="bridge" v="yes" />
		<tag k="layer" v="1" />
		<tag k="name" v="Stenbro" />
		<tag k="ssr:stedsnr" v="107930" />
	</node>
	<node lat="59.91617778133888" lon="9.874447230278635" id="-16379">
		<tag k="bridge" v="yes" />
		<tag k="layer" v="1" />
		<tag k="name" v="Haugfoss bru" />
		<tag k="ssr:stedsnr" v="119010" />
	</node>
	<node lat="59.927249996250104" lon="9.95461389591968" id="-16490">
		<tag k="bridge" v="yes" />
		<tag k="layer" v="1" />
		<tag k="name" v="Union" />
		<tag k="ssr:stedsnr" v="228936" />
	</node>
	<node lat="59.99960277833454" lon="9.89950833049162" id="-16491">
		<tag k="bridge" v="yes" />
		<tag k="layer" v="1" />
		<tag k="name" v="Roabakken" />
		<tag k="ssr:stedsnr" v="228982" />
	</node>
	<node lat="59.896713888728485" lon="9.922813887811172" id="-16492">
		<tag k="bridge" v="yes" />
		<tag k="layer" v="1" />
		<tag k="name" v="Bårud" />
		<tag k="ssr:stedsnr" v="228987" />
	</node>
	<node lat="59.88635278217685" lon="9.794763886543125" id="-16493">
		<tag k="bridge" v="yes" />
		<tag k="layer" v="1" />
		<tag k="name" v="Bergan" />
		<tag k="ssr:stedsnr" v="228988" />
	</node>
	<node lat="59.90878888916073" lon="9.891488888376935" id="-16535">
		<tag k="bridge" v="yes" />
		<tag k="fixme" v="multiple name tags, choose one and add the other to alt_name" />
		<tag k="layer" v="1" />
		<tag k="loc_name" v="Kjøreplassbrua;Kjøraplassen;Kjøraplassbrua" />
		<tag k="name" v="Kjøraplass;Kjoreplass bru" />
		<tag k="ssr:stedsnr" v="282979" />
	</node>
	<node lat="59.93831388598233" lon="9.991297228318619" id="-16550">
		<tag k="bridge" v="yes" />
		<tag k="layer" v="1" />
		<tag k="name" v="Spone" />
		<tag k="ssr:stedsnr" v="289984" />
	</node>
	<node lat="59.965144445902844" lon="10.008661116994984" id="-16551">
		<tag k="bridge" v="yes" />
		<tag k="layer" v="1" />
		<tag k="name" v="Hval" />
		<tag k="ssr:stedsnr" v="289986" />
	</node>
	<node lat="59.98280277549209" lon="10.02624722088183" id="-16589">
		<tag k="bridge" v="yes" />
		<tag k="layer" v="1" />
		<tag k="name" v="Engelstad" />
		<tag k="ssr:stedsnr" v="471983" />
	</node>
	<node lat="59.930336110837565" lon="9.945286104973727" id="-16590">
		<tag k="bridge" v="yes" />
		<tag k="layer" v="1" />
		<tag k="name" v="Dyregrav" />
		<tag k="ssr:stedsnr" v="471985" />
	</node>
	<node lat="59.89751111005552" lon="9.9104083367628" id="-16591">
		<tag k="bridge" v="yes" />
		<tag k="layer" v="1" />
		<tag k="name" v="Breivik" />
		<tag k="ssr:stedsnr" v="471986" />
	</node>
	<node lat="59.91678333071455" lon="9.854230549537691" id="-16606">
		<tag k="bridge" v="yes" />
		<tag k="layer" v="1" />
		<tag k="name" v="Linderud" />
		<tag k="ssr:stedsnr" v="350957" />
	</node>
	<node lat="59.91655833390315" lon="9.947280553743562" id="-16607">
		<tag k="bridge" v="yes" />
		<tag k="layer" v="1" />
		<tag k="name" v="Kalager" />
		<tag k="ssr:stedsnr" v="350962" />
	</node>
	<node lat="59.91578888799429" lon="9.964041665497758" id="-16608">
		<tag k="bridge" v="yes" />
		<tag k="layer" v="1" />
		<tag k="name" v="Ihlen" />
		<tag k="ssr:stedsnr" v="350965" />
	</node>
	<node lat="59.96022777945325" lon="9.978994439014755" id="-16609">
		<tag k="bridge" v="yes" />
		<tag k="layer" v="1" />
		<tag k="name" v="Bjølgerud" />
		<tag k="ssr:stedsnr" v="350975" />
	</node>
	<node lat="59.919663889609915" lon="9.975047219685962" id="-16784">
		<tag k="bridge" v="yes" />
		<tag k="layer" v="1" />
		<tag k="name" v="Sønsteby" />
		<tag k="ssr:stedsnr" v="471903" />
	</node>
	<node lat="59.94579721814489" lon="9.967658333777143" id="-16785">
		<tag k="bridge" v="yes" />
		<tag k="layer" v="1" />
		<tag k="name" v="Kjemperud" />
		<tag k="ssr:stedsnr" v="471975" />
	</node>
	<node lat="60.01500277350649" lon="10.02722776877468" id="-16820">
		<tag k="name" v="Drolsum holdeplass" />
		<tag k="railway" v="halt" />
		<tag k="ssr:stedsnr" v="490402" />
		<tag k="train" v="yes" />
	</node>
	<node lat="59.888330554182815" lon="10.021763893457695" id="-16848">
		<tag k="highway" v="path" />
		<tag k="name" v="Finneveien" />
		<tag k="ssr:stedsnr" v="542609" />
	</node>
	<node lat="60.015505559834295" lon="9.98645277979769" id="-16852">
		<tag k="highway" v="path" />
		<tag k="name" v="Korsveien" />
		<tag k="ssr:stedsnr" v="544002" />
	</node>
	<node lat="60.03893055949033" lon="10.031530561303885" id="-16916">
		<tag k="bridge" v="yes" />
		<tag k="layer" v="1" />
		<tag k="name" v="Fjellsag" />
		<tag k="ssr:stedsnr" v="653984" />
	</node>
	<node lat="60.008686115034905" lon="10.178527779944545" id="-16984">
		<tag k="landuse" v="industrial" />
		<tag k="name" v="Dyrbak kraftstasjon" />
		<tag k="power" v="plant" />
		<tag k="ssr:stedsnr" v="892276" />
	</node>
	<node lat="60.056938890128045" lon="9.816600000104994" id="-16987">
		<tag k="bridge" v="yes" />
		<tag k="layer" v="1" />
		<tag k="name" v="Nybru" />
		<tag k="ssr:stedsnr" v="892694" />
	</node>
	<node lat="59.96325277739085" lon="9.98965833774186" id="-16992">
		<tag k="bridge" v="yes" />
		<tag k="layer" v="1" />
		<tag k="name" v="Kroka" />
		<tag k="ssr:stedsnr" v="896982" />
	</node>
	<node lat="59.931258336182864" lon="9.9489277774815" id="-16993">
		<tag k="bridge" v="yes" />
		<tag k="layer" v="1" />
		<tag k="name" v="Gravfossdammen" />
		<tag k="ssr:stedsnr" v="896985" />
	</node>
	<node lat="59.99082222579636" lon="10.224280562999386" id="-16994">
		<tag k="bridge" v="yes" />
		<tag k="layer" v="1" />
		<tag k="name" v="Bjørnsrud" />
		<tag k="ssr:stedsnr" v="896989" />
	</node>
	<node lat="59.91603610869132" lon="9.913805560719263" id="-17002">
		<tag k="alt_name" v="Komperudgrina" />
		<tag k="junction" v="yes" />
		<tag k="name" v="Komperudgrinda" />
		<tag k="place" v="locality" />
		<tag k="ssr:stedsnr" v="714805" />
	</node>
	<node lat="59.97986389057123" lon="10.198091674933279" id="-17005">
		<tag k="fixme" v="consider highway=path" />
		<tag k="highway" v="track" />
		<tag k="name" v="Skåveien" />
		<tag k="ssr:stedsnr" v="725103" />
	</node>
	<node lat="59.95681388768371" lon="10.038911113101483" id="-17049">
		<tag k="highway" v="path" />
		<tag k="name" v="Maursletta" />
		<tag k="ssr:stedsnr" v="768639" />
	</node>
	<node lat="59.89367222597245" lon="9.920736108503588" id="-17069">
		<tag k="bridge" v="yes" />
		<tag k="layer" v="1" />
		<tag k="name" v="Vestheim" />
		<tag k="ssr:stedsnr" v="774926" />
	</node>
	<node lat="59.9894055520771" lon="9.903844436185718" id="-17259">
		<tag k="bridge" v="yes" />
		<tag k="layer" v="1" />
		<tag k="name" v="Bjørnetangen" />
		<tag k="ssr:stedsnr" v="957987" />
	</node>
	<node lat="59.91345833573309" lon="9.882280549830728" id="-17269">
		<tag k="bridge" v="yes" />
		<tag k="layer" v="1" />
		<tag k="name" v="Gamle Haugfoss bru" />
		<tag k="ssr:stedsnr" v="969037" />
	</node>
	<node lat="59.928438886715966" lon="9.957747226547765" id="-17396">
		<tag k="bridge" v="yes" />
		<tag k="layer" v="1" />
		<tag k="name" v="Skredsvik" />
		<tag k="ssr:stedsnr" v="107980" />
	</node>
	<node lat="59.930994443045286" lon="9.947122226283563" id="-17397">
		<tag k="bridge" v="yes" />
		<tag k="layer" v="1" />
		<tag k="name" v="Gravfoss" />
		<tag k="ssr:stedsnr" v="107987" />
	</node>
	<node lat="59.891319443623004" lon="9.913252775242963" id="-17463">
		<tag k="name" v="Åmot stasjon" />
		<tag k="railway" v="station" />
		<tag k="ssr:stedsnr" v="161094" />
		<tag k="train" v="yes" />
	</node>
	<node lat="59.92832499845402" lon="9.826838896911681" id="-17477">
		<tag k="bridge" v="yes" />
		<tag k="layer" v="1" />
		<tag k="name" v="Gunnerud" />
		<tag k="ssr:stedsnr" v="168978" />
	</node>
	<node lat="59.9064805514575" lon="9.99451665761116" id="-17492">
		<tag k="name" v="Albogasvingen" />
		<tag k="place" v="locality" />
		<tag k="ssr:stedsnr" v="178599" />
	</node>
	<node lat="59.98983610795377" lon="10.073250007029893" id="-17645">
		<tag k="ford" v="yes" />
		<tag k="name" v="Øvre Vad" />
		<tag k="place" v="locality" />
		<tag k="ssr:stedsnr" v="358844" />
	</node>
	<node lat="59.97703333567501" lon="9.996058337607108" id="-17721">
		<tag k="junction" v="yes" />
		<tag k="name" v="Hatlekrysset" />
		<tag k="place" v="locality" />
		<tag k="ssr:stedsnr" v="405957" />
	</node>
	<node lat="59.91077499803457" lon="9.9447583272177" id="-17728">
		<tag k="bridge" v="yes" />
		<tag k="layer" v="1" />
		<tag k="name" v="Skalstad" />
		<tag k="ssr:stedsnr" v="410975" />
	</node>
	<node lat="59.950583337375726" lon="9.972600002407223" id="-17729">
		<tag k="bridge" v="yes" />
		<tag k="layer" v="1" />
		<tag k="name" v="Kjølstad" />
		<tag k="ssr:stedsnr" v="410980" />
	</node>
	<node lat="59.865455558655" lon="9.84350277646412" id="-17805">
		<tag k="bridge" v="yes" />
		<tag k="layer" v="1" />
		<tag k="name" v="Borgevad" />
		<tag k="ssr:stedsnr" v="532983" />
	</node>
	<node lat="59.99590278188448" lon="10.044697220225645" id="-17806">
		<tag k="bridge" v="yes" />
		<tag k="layer" v="1" />
		<tag k="name" v="Askim" />
		<tag k="ssr:stedsnr" v="532984" />
	</node>
	<node lat="60.08306944520572" lon="9.816330554226832" id="-17867">
		<tag k="landuse" v="industrial" />
		<tag k="name" v="Ramfoss" />
		<tag k="power" v="plant" />
		<tag k="ssr:stedsnr" v="586684" />
	</node>
	<node lat="59.89514166501087" lon="9.914494435601831" id="-17880">
		<tag k="bridge" v="yes" />
		<tag k="layer" v="1" />
		<tag k="name" v="Åmot" />
		<tag k="ssr:stedsnr" v="592936" />
	</node>
	<node lat="59.92643888508585" lon="9.842513889328368" id="-17946">
		<tag k="bridge" v="yes" />
		<tag k="layer" v="1" />
		<tag k="name" v="Tingstad" />
		<tag k="ssr:stedsnr" v="653911" />
	</node>
	<node lat="60.04101666709611" lon="10.00648611457906" id="-17947">
		<tag k="bridge" v="yes" />
		<tag k="layer" v="1" />
		<tag k="name" v="Solum" />
		<tag k="ssr:stedsnr" v="653974" />
	</node>
	<node lat="59.89391944443596" lon="9.920788880961453" id="-17948">
		<tag k="bridge" v="yes" />
		<tag k="layer" v="1" />
		<tag k="name" v="Lilleås" />
		<tag k="ssr:stedsnr" v="653975" />
	</node>
	<node lat="59.929491666830955" lon="9.960274994459004" id="-17949">
		<tag k="bridge" v="yes" />
		<tag k="layer" v="1" />
		<tag k="name" v="Katfoss" />
		<tag k="ssr:stedsnr" v="653980" />
	</node>
	<node lat="59.933705557691376" lon="9.990075006779165" id="-17969">
		<tag k="bridge" v="yes" />
		<tag k="layer" v="1" />
		<tag k="name" v="Øren" />
		<tag k="ssr:stedsnr" v="714901" />
	</node>
	<node lat="59.95934167037314" lon="9.76726388735331" id="-17970">
		<tag k="bridge" v="yes" />
		<tag k="layer" v="1" />
		<tag k="name" v="Åsterud" />
		<tag k="ssr:stedsnr" v="714902" />
	</node>
	<node lat="60.01265277994765" lon="10.096827771085254" id="-17971">
		<tag k="bridge" v="yes" />
		<tag k="layer" v="1" />
		<tag k="name" v="Melåen" />
		<tag k="ssr:stedsnr" v="714976" />
	</node>
</osm>
