<?xml version="1.0" encoding="UTF-8"?>
<osm version="0.6" generator="osmapis">
	<node lat="59.974274824276506" lon="9.944392700960915" id="-18794">
		<tag k="fixme" v="consider place=hamlet" />
		<tag k="name" v="Kaggestad" />
		<tag k="place" v="farm" />
		<tag k="ssr:stedsnr" v="3804" />
	</node>
	<node lat="59.966694443134855" lon="9.944047217952845" id="-18795">
		<tag k="amenity" v="nursing_home" />
		<tag k="name" v="Modum Bad" />
		<tag k="old_name" v="Modum Bads Nervesanatorium" />
		<tag k="ssr:stedsnr" v="3768" />
	</node>
	<node lat="59.97407499785715" lon="9.930647220048245" id="-18796">
		<tag k="name" v="Fossen" />
		<tag k="place" v="farm" />
		<tag k="ssr:stedsnr" v="3790" />
	</node>
	<node lat="59.917955551911255" lon="9.993622216805006" id="-18798">
		<tag k="alt_name" v="Tørkop" />
		<tag k="name" v="Tørkopp" />
		<tag k="place" v="isolated_dwelling" />
		<tag k="ssr:stedsnr" v="4411" />
	</node>
	<node lat="59.89771111491251" lon="9.89253333650378" id="-18800">
		<tag k="alt_name" v="Nordbråten" />
		<tag k="name" v="Nordbråtan" />
		<tag k="place" v="farm" />
		<tag k="ssr:stedsnr" v="4666" />
	</node>
	<node lat="59.90108993443337" lon="9.883209924987051" id="-18801">
		<tag k="alt_name" v="Setersberg" />
		<tag k="fixme" v="consider place=hamlet" />
		<tag k="name" v="Sætersberg" />
		<tag k="place" v="farm" />
		<tag k="ssr:stedsnr" v="4669" />
	</node>
	<node lat="59.884575003514236" lon="9.927072217541955" id="-18802">
		<tag k="name" v="Bjørndalen" />
		<tag k="place" v="isolated_dwelling" />
		<tag k="ssr:stedsnr" v="4684" />
	</node>
	<node lat="59.888519439989814" lon="9.873272227332524" id="-18803">
		<tag k="name" v="Gudmundrud" />
		<tag k="place" v="farm" />
		<tag k="ssr:stedsnr" v="4687" />
	</node>
	<node lat="60.04616388782479" lon="9.846336110618063" id="-18804">
		<tag k="name" v="Åker" />
		<tag k="place" v="farm" />
		<tag k="ssr:stedsnr" v="4904" />
	</node>
	<node lat="60.060372586160504" lon="9.85175087416489" id="-18805">
		<tag k="fixme" v="consider place=hamlet" />
		<tag k="name" v="Morud" />
		<tag k="place" v="farm" />
		<tag k="ssr:stedsnr" v="4914" />
	</node>
	<node lat="60.036674999733954" lon="9.865161106013055" id="-18806">
		<tag k="name" v="Bakken" />
		<tag k="place" v="farm" />
		<tag k="ssr:stedsnr" v="4928" />
	</node>
	<node lat="60.032255555947984" lon="9.989816666246686" id="-18807">
		<tag k="name" v="Bakkestua" />
		<tag k="place" v="farm" />
		<tag k="ssr:stedsnr" v="5311" />
	</node>
	<node lat="60.0297048803895" lon="10.032849232205999" id="-18808">
		<tag k="alt_name" v="Koppås" />
		<tag k="fixme" v="consider place=hamlet" />
		<tag k="name" v="Koppåsen" />
		<tag k="place" v="farm" />
		<tag k="ssr:stedsnr" v="5314" />
	</node>
	<node lat="60.0228250014085" lon="10.003027784477382" id="-18809">
		<tag k="name" v="Hovet" />
		<tag k="place" v="farm" />
		<tag k="ssr:stedsnr" v="5319" />
	</node>
	<node lat="60.02315000351995" lon="9.98780555892383" id="-18810">
		<tag k="name" v="Hestebråtan" />
		<tag k="place" v="farm" />
		<tag k="ssr:stedsnr" v="5320" />
	</node>
	<node lat="60.00865868868582" lon="10.001199838694195" id="-18811">
		<tag k="fixme" v="consider place=hamlet" />
		<tag k="name" v="Rud" />
		<tag k="place" v="farm" />
		<tag k="ssr:stedsnr" v="5325" />
	</node>
	<node lat="60.00650685894108" lon="10.181666439397807" id="-18814">
		<tag k="alt_name" v="Tandberg" />
		<tag k="fixme" v="consider place=hamlet" />
		<tag k="name" v="Tanberg" />
		<tag k="place" v="farm" />
		<tag k="ssr:stedsnr" v="5411" />
	</node>
	<node lat="60.0052050119924" lon="10.00297565544269" id="-18815">
		<tag k="alt_name" v="Flattom" />
		<tag k="fixme" v="consider place=hamlet" />
		<tag k="name" v="Flattum" />
		<tag k="place" v="farm" />
		<tag k="ssr:stedsnr" v="5415" />
	</node>
	<node lat="60.105850003357666" lon="9.946700000991518" id="-18816">
		<tag k="name" v="Sørli" />
		<tag k="place" v="isolated_dwelling" />
		<tag k="ssr:stedsnr" v="5822" />
	</node>
	<node lat="59.93252222499483" lon="9.954680551111371" id="-18818">
		<tag k="alt_name" v="Katfoss" />
		<tag k="name" v="Kattfoss" />
		<tag k="place" v="quarter" />
		<tag k="ssr:stedsnr" v="234551" />
	</node>
	<node lat="60.07227221779893" lon="9.847094446104833" id="-18826">
		<tag k="name" v="Kvernrud" />
		<tag k="place" v="isolated_dwelling" />
		<tag k="ssr:stedsnr" v="40717" />
	</node>
	<node lat="60.068233336040834" lon="9.843775001830767" id="-18827">
		<tag k="name" v="Solbakken" />
		<tag k="place" v="farm" />
		<tag k="ssr:stedsnr" v="40719" />
	</node>
	<node lat="60.0161722179099" lon="10.12856666907506" id="-18828">
		<tag k="name" v="Taraldsrud" />
		<tag k="place" v="farm" />
		<tag k="ssr:stedsnr" v="40623" />
	</node>
	<node lat="59.93802499749949" lon="9.903744448623833" id="-18832">
		<tag k="name" v="Jar" />
		<tag k="place" v="farm" />
		<tag k="ssr:stedsnr" v="41868" />
	</node>
	<node lat="59.998930551316995" lon="9.928983339051529" id="-18833">
		<tag k="name" v="Vestengen" />
		<tag k="place" v="farm" />
		<tag k="ssr:stedsnr" v="237347" />
	</node>
	<node lat="59.99876389025179" lon="9.972419451676572" id="-18834">
		<tag k="name" v="Torsby" />
		<tag k="place" v="farm" />
		<tag k="ssr:stedsnr" v="42026" />
	</node>
	<node lat="60.045397222783734" lon="9.866066669636455" id="-18837">
		<tag k="name" v="Nordre Gubberud" />
		<tag k="place" v="isolated_dwelling" />
		<tag k="ssr:stedsnr" v="237444" />
	</node>
	<node lat="59.98257778090141" lon="10.083677780829214" id="-18843">
		<tag k="name" v="Kleivhytta" />
		<tag k="place" v="isolated_dwelling" />
		<tag k="ssr:stedsnr" v="237857" />
	</node>
	<node lat="60.004305559155526" lon="9.930763891502146" id="-18848">
		<tag k="name" v="Fjellhaug" />
		<tag k="place" v="farm" />
		<tag k="ssr:stedsnr" v="55310" />
	</node>
	<node lat="59.92485832941632" lon="9.92628332729438" id="-18849">
		<tag k="name" v="Nygård" />
		<tag k="place" v="farm" />
		<tag k="ssr:stedsnr" v="239763" />
	</node>
	<node lat="60.026443273598794" lon="9.86786801530789" id="-18850">
		<tag k="fixme" v="consider place=hamlet" />
		<tag k="name" v="Prestegården" />
		<tag k="place" v="farm" />
		<tag k="ssr:stedsnr" v="55276" />
	</node>
	<node lat="60.054319446813516" lon="9.864019445026981" id="-18855">
		<tag k="building" v="industrial" />
		<tag k="industrial" v="factory" />
		<tag k="name" v="Morud bruk" />
		<tag k="ssr:stedsnr" v="55407" />
	</node>
	<node lat="59.933919440022564" lon="9.89627778578441" id="-18856">
		<tag k="name" v="Sør-Overn" />
		<tag k="place" v="farm" />
		<tag k="ssr:stedsnr" v="55766" />
	</node>
	<node lat="59.97533889082971" lon="10.149625000298233" id="-18857">
		<tag k="historic" v="shieling" />
		<tag k="name" v="Breilihytta" />
		<tag k="place" v="isolated_dwelling" />
		<tag k="ssr:stedsnr" v="57101" />
	</node>
	<node lat="59.99088055514342" lon="9.914255547944249" id="-18860">
		<tag k="name" v="Røstvang" />
		<tag k="place" v="farm" />
		<tag k="ssr:stedsnr" v="240397" />
	</node>
	<node lat="59.99972221873342" lon="9.894955549426289" id="-18861">
		<tag k="name" v="Grinda" />
		<tag k="place" v="farm" />
		<tag k="ssr:stedsnr" v="58406" />
	</node>
	<node lat="59.98645555146136" lon="10.231202777232916" id="-18862">
		<tag k="name" v="Øvre Pilterud" />
		<tag k="place" v="farm" />
		<tag k="ssr:stedsnr" v="240271" />
	</node>
	<node lat="59.94808611388597" lon="9.858783334816524" id="-18863">
		<tag k="name" v="Sullandhytta" />
		<tag k="place" v="isolated_dwelling" />
		<tag k="ssr:stedsnr" v="58810" />
	</node>
	<node lat="60.02064166436441" lon="10.017141661195376" id="-18868">
		<tag k="name" v="Svenby" />
		<tag k="place" v="farm" />
		<tag k="ssr:stedsnr" v="59071" />
	</node>
	<node lat="60.00455278098925" lon="9.997963884354698" id="-18869">
		<tag k="name" v="Bråten" />
		<tag k="place" v="farm" />
		<tag k="ssr:stedsnr" v="59076" />
	</node>
	<node lat="60.002866670629004" lon="10.007219440976694" id="-18871">
		<tag k="name" v="Grinda" />
		<tag k="place" v="farm" />
		<tag k="ssr:stedsnr" v="241086" />
	</node>
	<node lat="60.01691388739231" lon="10.008147216213864" id="-18872">
		<tag k="name" v="Myrvang" />
		<tag k="place" v="farm" />
		<tag k="ssr:stedsnr" v="241098" />
	</node>
	<node lat="59.924869440289186" lon="9.890472219101591" id="-18873">
		<tag k="name" v="Slåtta" />
		<tag k="place" v="farm" />
		<tag k="ssr:stedsnr" v="241185" />
	</node>
	<node lat="59.923411110913015" lon="9.905619448645345" id="-18874">
		<tag k="name" v="Rustanddalen" />
		<tag k="place" v="farm" />
		<tag k="ssr:stedsnr" v="241186" />
	</node>
	<node lat="60.02057499858136" lon="10.004886116215346" id="-18878">
		<tag k="name" v="London" />
		<tag k="place" v="farm" />
		<tag k="ssr:stedsnr" v="65315" />
	</node>
	<node lat="60.022710650446015" lon="10.016069110950351" id="-18879">
		<tag k="fixme" v="consider place=hamlet" />
		<tag k="name" v="Svenby" />
		<tag k="place" v="farm" />
		<tag k="ssr:stedsnr" v="65316" />
	</node>
	<node lat="60.01579625445114" lon="10.118724795967715" id="-18880">
		<tag k="fixme" v="consider place=hamlet" />
		<tag k="name" v="Gulsrud" />
		<tag k="place" v="farm" />
		<tag k="ssr:stedsnr" v="65401" />
	</node>
	<node lat="60.01376399427833" lon="10.0973962434293" id="-18881">
		<tag k="fixme" v="multiple name tags, choose one and add the other to alt_name" />
		<tag k="name" v="Melåtangen;Gåserudsand" />
		<tag k="place" v="farm" />
		<tag k="ssr:stedsnr" v="65402" />
	</node>
	<node lat="59.97920096050282" lon="9.889536623084387" id="-18883">
		<tag k="fixme" v="consider place=hamlet" />
		<tag k="name" v="Bergan" />
		<tag k="place" v="farm" />
		<tag k="ssr:stedsnr" v="65802" />
	</node>
	<node lat="59.942906724159464" lon="9.80249657410624" id="-18885">
		<tag k="fixme" v="consider place=hamlet" />
		<tag k="name" v="Bendiksby" />
		<tag k="place" v="farm" />
		<tag k="ssr:stedsnr" v="65872" />
	</node>
	<node lat="59.941450000559165" lon="9.839191673037087" id="-18887">
		<tag k="alt_name" v="Nordengen" />
		<tag k="name" v="Nordenga" />
		<tag k="place" v="farm" />
		<tag k="ssr:stedsnr" v="65877" />
	</node>
	<node lat="60.01356388700914" lon="9.911438894648997" id="-18889">
		<tag k="name" v="Sysledalen" />
		<tag k="place" v="farm" />
		<tag k="ssr:stedsnr" v="65962" />
	</node>
	<node lat="59.99393333309358" lon="9.84513332511441" id="-18890">
		<tag k="name" v="Hovdesetra" />
		<tag k="place" v="locality" />
		<tag k="ssr:stedsnr" v="65967" />
	</node>
	<node lat="59.96437778102631" lon="10.01766389628335" id="-18894">
		<tag k="name" v="Dokka" />
		<tag k="place" v="farm" />
		<tag k="ssr:stedsnr" v="246466" />
	</node>
	<node lat="59.96714999716086" lon="9.963950001777933" id="-18898">
		<tag k="name" v="Råen" />
		<tag k="place" v="farm" />
		<tag k="ssr:stedsnr" v="246759" />
	</node>
	<node lat="59.91407421083709" lon="9.840054828608302" id="-18899">
		<tag k="fixme" v="consider place=hamlet" />
		<tag k="name" v="Linderud" />
		<tag k="place" v="farm" />
		<tag k="ssr:stedsnr" v="246820" />
	</node>
	<node lat="60.009002779586524" lon="10.154074997112376" id="-18901">
		<tag k="name" v="Snadden" />
		<tag k="place" v="isolated_dwelling" />
		<tag k="ssr:stedsnr" v="247395" />
	</node>
	<node lat="60.02655000382933" lon="10.0046500026637" id="-18902">
		<tag k="alt_name" v="Østgården" />
		<tag k="name" v="Østgarden" />
		<tag k="place" v="farm" />
		<tag k="ssr:stedsnr" v="247314" />
	</node>
	<node lat="59.86266667057658" lon="9.883736107729478" id="-18905">
		<tag k="name" v="Oksrud" />
		<tag k="place" v="farm" />
		<tag k="ssr:stedsnr" v="247621" />
	</node>
	<node lat="59.928705555155304" lon="9.918000000911848" id="-18906">
		<tag k="alt_name" v="Jelstad" />
		<tag k="name" v="Jellstad" />
		<tag k="place" v="farm" />
		<tag k="ssr:stedsnr" v="247597" />
	</node>
	<node lat="59.94232500236335" lon="9.77276389740197" id="-18912">
		<tag k="name" v="Kaståssetra" />
		<tag k="place" v="locality" />
		<tag k="ssr:stedsnr" v="247851" />
	</node>
	<node lat="59.93868492058729" lon="9.81769115961775" id="-18913">
		<tag k="fixme" v="consider place=hamlet" />
		<tag k="name" v="Lobben" />
		<tag k="place" v="farm" />
		<tag k="ssr:stedsnr" v="247860" />
	</node>
	<node lat="60.023722224231946" lon="9.850894444942753" id="-18920">
		<tag k="name" v="Stryken" />
		<tag k="place" v="farm" />
		<tag k="ssr:stedsnr" v="247943" />
	</node>
	<node lat="59.91535555710454" lon="9.863016657843186" id="-18923">
		<tag k="name" v="Varhusbakken" />
		<tag k="place" v="farm" />
		<tag k="ssr:stedsnr" v="101004" />
	</node>
	<node lat="59.94531388758007" lon="10.062161113708589" id="-18927">
		<tag k="historic" v="shieling" />
		<tag k="name" v="Fjellstua" />
		<tag k="place" v="isolated_dwelling" />
		<tag k="ssr:stedsnr" v="101664" />
	</node>
	<node lat="60.104125002246775" lon="9.916724992615823" id="-18929">
		<tag k="name" v="Finsrudhytta" />
		<tag k="place" v="isolated_dwelling" />
		<tag k="ssr:stedsnr" v="101686" />
	</node>
	<node lat="60.006786111239705" lon="10.027583337544135" id="-18930">
		<tag k="fixme" v="multiple name tags, choose one and add the other to alt_name" />
		<tag k="name" v="Jarenhaugen;Haugen" />
		<tag k="place" v="farm" />
		<tag k="ssr:stedsnr" v="102090" />
	</node>
	<node lat="60.02933611102894" lon="9.869880563839596" id="-18935">
		<tag k="name" v="Roa" />
		<tag k="place" v="farm" />
		<tag k="ssr:stedsnr" v="116204" />
	</node>
	<node lat="60.02770036484622" lon="9.86312376440698" id="-18936">
		<tag k="fixme" v="consider place=hamlet" />
		<tag k="name" v="Bråten" />
		<tag k="place" v="farm" />
		<tag k="ssr:stedsnr" v="116267" />
	</node>
	<node lat="59.96576111498213" lon="9.98563610901703" id="-18939">
		<tag k="name" v="Solberg" />
		<tag k="place" v="farm" />
		<tag k="ssr:stedsnr" v="117578" />
	</node>
	<node lat="59.89657777371445" lon="9.9305194429935" id="-18940">
		<tag k="amenity" v="nursing_home" />
		<tag k="name" v="Modumheimen" />
		<tag k="ssr:stedsnr" v="117971" />
	</node>
	<node lat="59.947924996406776" lon="9.800455553827835" id="-18942">
		<tag k="name" v="Nedre Bakke" />
		<tag k="place" v="farm" />
		<tag k="ssr:stedsnr" v="118371" />
	</node>
	<node lat="59.96881666844046" lon="9.972238881605662" id="-18944">
		<tag k="name" v="Mellom-Råen" />
		<tag k="place" v="farm" />
		<tag k="ssr:stedsnr" v="118842" />
	</node>
	<node lat="60.0054583363848" lon="9.995677785487333" id="-18947">
		<tag k="alt_name" v="Sjulsrud søndre" />
		<tag k="name" v="Søndre Sjulsrud" />
		<tag k="place" v="farm" />
		<tag k="ssr:stedsnr" v="119105" />
	</node>
	<node lat="59.95245325196002" lon="9.969321204180133" id="-18954">
		<tag k="fixme" v="consider place=hamlet" />
		<tag k="name" v="Kjølstad" />
		<tag k="place" v="farm" />
		<tag k="ssr:stedsnr" v="125409" />
	</node>
	<node lat="59.957495858826015" lon="10.011454591060472" id="-18960">
		<tag k="fixme" v="consider place=hamlet" />
		<tag k="name" v="Austad" />
		<tag k="place" v="farm" />
		<tag k="ssr:stedsnr" v="125503" />
	</node>
	<node lat="59.91574722180544" lon="9.907663894473453" id="-18962">
		<tag k="name" v="Brua" />
		<tag k="place" v="farm" />
		<tag k="ssr:stedsnr" v="125846" />
	</node>
	<node lat="59.973986115237075" lon="9.908163883103734" id="-18965">
		<tag k="name" v="Kroksrud" />
		<tag k="place" v="isolated_dwelling" />
		<tag k="ssr:stedsnr" v="125818" />
	</node>
	<node lat="60.052615374309276" lon="9.841553297211291" id="-18968">
		<tag k="fixme" v="consider place=hamlet" />
		<tag k="name" v="Korsbøen" />
		<tag k="place" v="farm" />
		<tag k="ssr:stedsnr" v="125906" />
	</node>
	<node lat="60.04021426684831" lon="9.999706609550465" id="-18970">
		<tag k="fixme" v="consider place=hamlet" />
		<tag k="name" v="Åmot" />
		<tag k="place" v="farm" />
		<tag k="ssr:stedsnr" v="126303" />
	</node>
	<node lat="60.05155000439447" lon="9.997724994944031" id="-18971">
		<tag k="alt_name" v="Evjen" />
		<tag k="name" v="Evjua" />
		<tag k="place" v="farm" />
		<tag k="ssr:stedsnr" v="126361" />
	</node>
	<node lat="60.078414091923314" lon="9.834535401617757" id="-18975">
		<tag k="fixme" v="multiple name tags, choose one and add the other to alt_name" />
		<tag k="name" v="Laslette;Holmen" />
		<tag k="place" v="farm" />
		<tag k="ssr:stedsnr" v="126862" />
	</node>
	<node lat="60.015119447378154" lon="10.119183336382102" id="-18980">
		<tag k="name" v="Mellomstua" />
		<tag k="place" v="farm" />
		<tag k="ssr:stedsnr" v="161577" />
	</node>
	<node lat="60.01548611516236" lon="10.116255553368893" id="-18981">
		<tag k="name" v="Søstua" />
		<tag k="place" v="locality" />
		<tag k="ssr:stedsnr" v="161578" />
	</node>
	<node lat="59.97239999888802" lon="10.188380561389433" id="-18998">
		<tag k="historic" v="shieling" />
		<tag k="name" v="Høgåshytta" />
		<tag k="place" v="isolated_dwelling" />
		<tag k="ssr:stedsnr" v="178119" />
	</node>
	<node lat="60.02518332963314" lon="9.994997214178994" id="-19000">
		<tag k="name" v="Løkka" />
		<tag k="place" v="farm" />
		<tag k="ssr:stedsnr" v="178203" />
	</node>
	<node lat="59.934844442761005" lon="9.99737221408159" id="-19002">
		<tag k="alt_name" v="Hovland Nordre" />
		<tag k="name" v="Nordre Hovland" />
		<tag k="place" v="farm" />
		<tag k="ssr:stedsnr" v="178524" />
	</node>
	<node lat="59.93705000232309" lon="9.978969439000377" id="-19003">
		<tag k="name" v="Skinnerud" />
		<tag k="place" v="farm" />
		<tag k="ssr:stedsnr" v="178526" />
	</node>
	<node lat="59.92393333388141" lon="9.918424992717544" id="-19004">
		<tag k="name" v="Høybakk" />
		<tag k="place" v="farm" />
		<tag k="ssr:stedsnr" v="178714" />
	</node>
	<node lat="59.88563325547205" lon="9.795534558146704" id="-19005">
		<tag k="name" v="Kleggstad" />
		<tag k="place" v="farm" />
		<tag k="ssr:stedsnr" v="178913" />
	</node>
	<node lat="60.02484722244825" lon="9.986013884054808" id="-19008">
		<tag k="name" v="Hestebråten" />
		<tag k="place" v="farm" />
		<tag k="ssr:stedsnr" v="180174" />
	</node>
	<node lat="60.025613885524784" lon="9.983275001212252" id="-19009">
		<tag k="name" v="Laupdalen" />
		<tag k="place" v="isolated_dwelling" />
		<tag k="ssr:stedsnr" v="180175" />
	</node>
	<node lat="59.92530833138995" lon="9.8906972170339" id="-19010">
		<tag k="name" v="Mollerud" />
		<tag k="place" v="isolated_dwelling" />
		<tag k="ssr:stedsnr" v="180182" />
	</node>
	<node lat="59.977013887432506" lon="9.932416673470355" id="-19011">
		<tag k="name" v="Fosshagen" />
		<tag k="place" v="farm" />
		<tag k="ssr:stedsnr" v="180867" />
	</node>
	<node lat="59.98883055767166" lon="9.995077777206642" id="-19016">
		<tag k="alt_name" v="Åsengen" />
		<tag k="name" v="Åsenga" />
		<tag k="place" v="farm" />
		<tag k="ssr:stedsnr" v="186481" />
	</node>
	<node lat="59.99013333050512" lon="9.996649992396545" id="-19017">
		<tag k="name" v="Skåka" />
		<tag k="place" v="farm" />
		<tag k="ssr:stedsnr" v="186483" />
	</node>
	<node lat="59.88720000182564" lon="9.789130562368822" id="-19018">
		<tag k="name" v="Bergan" />
		<tag k="place" v="farm" />
		<tag k="ssr:stedsnr" v="186687" />
	</node>
	<node lat="59.95794444564343" lon="9.876783333140061" id="-19022">
		<tag k="name" v="Lia" />
		<tag k="place" v="isolated_dwelling" />
		<tag k="ssr:stedsnr" v="186787" />
	</node>
	<node lat="59.93081111013237" lon="9.835499991815027" id="-19023">
		<tag k="name" v="Fagernes" />
		<tag k="place" v="farm" />
		<tag k="ssr:stedsnr" v="186873" />
	</node>
	<node lat="60.037775001020194" lon="9.988116662432" id="-19026">
		<tag k="name" v="Elverud" />
		<tag k="place" v="farm" />
		<tag k="ssr:stedsnr" v="187306" />
	</node>
	<node lat="60.00871666843497" lon="10.17710833104434" id="-19027">
		<tag k="name" v="Dyrbakk" />
		<tag k="place" v="isolated_dwelling" />
		<tag k="ssr:stedsnr" v="187379" />
	</node>
	<node lat="59.94634816132598" lon="9.970944707551878" id="-19028">
		<tag k="name" v="Kjemperud" />
		<tag k="place" v="farm" />
		<tag k="ssr:stedsnr" v="187481" />
	</node>
	<node lat="59.860127781370885" lon="9.89133055845626" id="-19029">
		<tag k="name" v="Solheim" />
		<tag k="place" v="farm" />
		<tag k="ssr:stedsnr" v="269050" />
	</node>
	<node lat="59.867291670506084" lon="9.83307222588911" id="-19031">
		<tag k="name" v="Steinsrud" />
		<tag k="place" v="farm" />
		<tag k="ssr:stedsnr" v="269968" />
	</node>
	<node lat="59.997538885824646" lon="9.967847219018198" id="-19047">
		<tag k="name" v="Flannumshaugen" />
		<tag k="place" v="farm" />
		<tag k="ssr:stedsnr" v="224015" />
	</node>
	<node lat="60.074727777414566" lon="9.857508339199637" id="-19050">
		<tag k="name" v="Latås" />
		<tag k="place" v="isolated_dwelling" />
		<tag k="ssr:stedsnr" v="224142" />
	</node>
	<node lat="60.06064444173526" lon="9.919613884715833" id="-19052">
		<tag k="name" v="Knaldrevangen" />
		<tag k="place" v="isolated_dwelling" />
		<tag k="ssr:stedsnr" v="224747" />
	</node>
	<node lat="60.02810555147744" lon="9.849086105767004" id="-19053">
		<tag k="name" v="Solli" />
		<tag k="place" v="farm" />
		<tag k="ssr:stedsnr" v="224687" />
	</node>
	<node lat="60.03970555547259" lon="9.861822217779423" id="-19061">
		<tag k="name" v="Nedre Gubberud" />
		<tag k="place" v="farm" />
		<tag k="ssr:stedsnr" v="237283" />
	</node>
	<node lat="59.97449167106453" lon="10.198416672318402" id="-19068">
		<tag k="historic" v="shieling" />
		<tag k="name" v="Kalvehytta" />
		<tag k="place" v="isolated_dwelling" />
		<tag k="ssr:stedsnr" v="239113" />
	</node>
	<node lat="60.03652499601211" lon="10.01621388182944" id="-19069">
		<tag k="name" v="Hellum" />
		<tag k="place" v="farm" />
		<tag k="ssr:stedsnr" v="239182" />
	</node>
	<node lat="60.0409805584222" lon="10.018558332990668" id="-19070">
		<tag k="name" v="Kvernbakken" />
		<tag k="place" v="farm" />
		<tag k="ssr:stedsnr" v="239184" />
	</node>
	<node lat="59.91154444348185" lon="9.975302780380376" id="-19071">
		<tag k="name" v="Bottolfs" />
		<tag k="place" v="farm" />
		<tag k="ssr:stedsnr" v="239616" />
	</node>
	<node lat="59.95931389233935" lon="10.014188889347707" id="-19074">
		<tag k="name" v="Austad" />
		<tag k="place" v="farm" />
		<tag k="ssr:stedsnr" v="239544" />
	</node>
	<node lat="59.980058332017755" lon="9.96481111503182" id="-19075">
		<tag k="name" v="Nord-Grøterud" />
		<tag k="place" v="farm" />
		<tag k="ssr:stedsnr" v="239885" />
	</node>
	<node lat="59.925446897472696" lon="9.98590581862159" id="-19087">
		<tag k="name" v="Sønsteby" />
		<tag k="place" v="hamlet" />
		<tag k="ssr:stedsnr" v="247406" />
	</node>
	<node lat="59.98292499874968" lon="10.039925002358576" id="-19088">
		<tag k="name" v="Brekkeplassen" />
		<tag k="place" v="farm" />
		<tag k="ssr:stedsnr" v="247413" />
	</node>
	<node lat="59.98337694706045" lon="10.026446047090648" id="-19089">
		<tag k="fixme" v="consider place=hamlet" />
		<tag k="name" v="Engelstad" />
		<tag k="place" v="farm" />
		<tag k="ssr:stedsnr" v="247415" />
	</node>
	<node lat="59.98124166520325" lon="10.242686106834261" id="-19090">
		<tag k="name" v="Ringen" />
		<tag k="place" v="farm" />
		<tag k="ssr:stedsnr" v="247424" />
	</node>
	<node lat="59.88192326753424" lon="9.920487377966051" id="-19091">
		<tag k="fixme" v="consider place=hamlet" />
		<tag k="name" v="Skreppen" />
		<tag k="place" v="farm" />
		<tag k="ssr:stedsnr" v="247612" />
	</node>
	<node lat="59.99271111006292" lon="9.938613890837777" id="-19093">
		<tag k="name" v="Nordli" />
		<tag k="place" v="farm" />
		<tag k="ssr:stedsnr" v="247956" />
	</node>
	<node lat="59.93137222171304" lon="9.832063891736949" id="-19095">
		<tag k="fixme" v="consider place=hamlet" />
		<tag k="name" v="Simostranda" />
		<tag k="place" v="village" />
		<tag k="ssr:stedsnr" v="268588" />
	</node>
	<node lat="60.04952499636886" lon="9.789105563996293" id="-19098">
		<tag k="name" v="Stormyrhytta" />
		<tag k="place" v="isolated_dwelling" />
		<tag k="ssr:stedsnr" v="461068" />
	</node>
	<node lat="59.92988888724884" lon="9.821419451821372" id="-19100">
		<tag k="name" v="Søndre Gunnerud" />
		<tag k="place" v="farm" />
		<tag k="ssr:stedsnr" v="282719" />
	</node>
	<node lat="60.10544999593963" lon="9.919819448581558" id="-19104">
		<tag k="name" v="Solbu" />
		<tag k="place" v="isolated_dwelling" />
		<tag k="ssr:stedsnr" v="283675" />
	</node>
	<node lat="60.01033055207062" lon="10.161277771038444" id="-19111">
		<tag k="name" v="Flabergsbråten" />
		<tag k="place" v="isolated_dwelling" />
		<tag k="ssr:stedsnr" v="285279" />
	</node>
	<node lat="60.029533330535344" lon="9.999452784926087" id="-19124">
		<tag k="name" v="Haugen" />
		<tag k="place" v="farm" />
		<tag k="ssr:stedsnr" v="300223" />
	</node>
	<node lat="60.01706666434861" lon="10.133241662106261" id="-19125">
		<tag k="name" v="Lunn" />
		<tag k="place" v="farm" />
		<tag k="ssr:stedsnr" v="300986" />
	</node>
	<node lat="59.98445000332481" lon="10.026783341393722" id="-19130">
		<tag k="name" v="Nordre Engelstad" />
		<tag k="place" v="farm" />
		<tag k="ssr:stedsnr" v="464635" />
	</node>
	<node lat="59.892699996774525" lon="9.884427769653591" id="-19131">
		<tag k="name" v="Søndre Rypås" />
		<tag k="place" v="farm" />
		<tag k="ssr:stedsnr" v="465051" />
	</node>
	<node lat="59.934105299188616" lon="9.933602515012122" id="-19134">
		<tag k="fixme" v="consider place=hamlet" />
		<tag k="name" v="Formo" />
		<tag k="place" v="farm" />
		<tag k="ssr:stedsnr" v="307850" />
	</node>
	<node lat="60.132522225324884" lon="9.884572227257873" id="-19136">
		<tag k="name" v="Gunnhusvollen" />
		<tag k="place" v="isolated_dwelling" />
		<tag k="ssr:stedsnr" v="308814" />
	</node>
	<node lat="60.02163788631833" lon="9.855449381497882" id="-19137">
		<tag k="alt_name" v="Hjermundrud" />
		<tag k="name" v="Gjermundrud" />
		<tag k="place" v="locality" />
		<tag k="ssr:stedsnr" v="308942" />
	</node>
	<node lat="60.015913768917365" lon="9.861224941531644" id="-19138">
		<tag k="fixme" v="consider place=hamlet" />
		<tag k="name" v="Nes" />
		<tag k="place" v="farm" />
		<tag k="ssr:stedsnr" v="308953" />
	</node>
	<node lat="60.05830277955391" lon="9.964416665820432" id="-19140">
		<tag k="name" v="Gravermoen" />
		<tag k="place" v="farm" />
		<tag k="ssr:stedsnr" v="308898" />
	</node>
	<node lat="59.91722778104017" lon="9.974397223548207" id="-19144">
		<tag k="name" v="Sønsteby" />
		<tag k="place" v="farm" />
		<tag k="ssr:stedsnr" v="467625" />
	</node>
	<node lat="59.92598611533464" lon="9.961791668162185" id="-19145">
		<tag k="name" v="Vestre Skredsvik" />
		<tag k="place" v="farm" />
		<tag k="ssr:stedsnr" v="467630" />
	</node>
	<node lat="60.05069999569911" lon="9.955522215022212" id="-19146">
		<tag k="name" v="Ørvannet" />
		<tag k="place" v="farm" />
		<tag k="ssr:stedsnr" v="467647" />
	</node>
	<node lat="60.05358611520319" lon="9.839791673046347" id="-19148">
		<tag k="name" v="Midtre Korsbøen" />
		<tag k="place" v="farm" />
		<tag k="ssr:stedsnr" v="467701" />
	</node>
	<node lat="60.026252776630876" lon="10.032761113358491" id="-19152">
		<tag k="name" v="Ås" />
		<tag k="place" v="isolated_dwelling" />
		<tag k="ssr:stedsnr" v="328903" />
	</node>
	<node lat="60.03423333359004" lon="9.934891663605374" id="-19153">
		<tag k="name" v="Abelone" />
		<tag k="place" v="isolated_dwelling" />
		<tag k="ssr:stedsnr" v="329709" />
	</node>
	<node lat="59.94174927741856" lon="10.001929647095098" id="-19160">
		<tag k="fixme" v="multiple name tags, choose one and add the other to alt_name; consider place=hamlet" />
		<tag k="name" v="Heggen prestegård;Modum prestegård" />
		<tag k="old_name" v="Heggen Pgd;Modum Præstegaard" />
		<tag k="place" v="farm" />
		<tag k="ssr:stedsnr" v="343790" />
	</node>
	<node lat="59.94385277992015" lon="9.818702771564432" id="-19161">
		<tag k="name" v="Solstad" />
		<tag k="place" v="farm" />
		<tag k="ssr:stedsnr" v="343887" />
	</node>
	<node lat="60.079641664544276" lon="9.899261107151288" id="-19162">
		<tag k="name" v="Grautåsen" />
		<tag k="place" v="locality" />
		<tag k="ssr:stedsnr" v="345112" />
	</node>
	<node lat="59.9537666626458" lon="9.793472221795696" id="-19166">
		<tag k="name" v="Nedre Grefstad" />
		<tag k="place" v="farm" />
		<tag k="ssr:stedsnr" v="345419" />
	</node>
	<node lat="59.944122218871705" lon="9.831294445777292" id="-19169">
		<tag k="name" v="Tandbergengen" />
		<tag k="place" v="farm" />
		<tag k="ssr:stedsnr" v="345818" />
	</node>
	<node lat="60.04792499763914" lon="9.970130558911494" id="-19170">
		<tag k="name" v="Pålerud" />
		<tag k="place" v="locality" />
		<tag k="ssr:stedsnr" v="345725" />
	</node>
	<node lat="59.9524694438444" lon="10.008411115901058" id="-19183">
		<tag k="name" v="Rød-Disen" />
		<tag k="place" v="farm" />
		<tag k="ssr:stedsnr" v="360514" />
	</node>
	<node lat="59.95158333369977" lon="9.995224997121044" id="-19184">
		<tag k="name" v="Mo" />
		<tag k="place" v="farm" />
		<tag k="ssr:stedsnr" v="360515" />
	</node>
	<node lat="59.90681111437451" lon="9.88523056299742" id="-19189">
		<tag k="alt_name" v="Skogly" />
		<tag k="name" v="Skogli" />
		<tag k="place" v="farm" />
		<tag k="ssr:stedsnr" v="367796" />
	</node>
	<node lat="59.908672220916436" lon="9.94187221791846" id="-19190">
		<tag k="alt_name" v="Sporpind" />
		<tag k="name" v="Sporpin" />
		<tag k="place" v="quarter" />
		<tag k="ssr:stedsnr" v="367798" />
	</node>
	<node lat="59.911773827546234" lon="9.872925994077034" id="-19191">
		<tag k="fixme" v="consider place=hamlet" />
		<tag k="name" v="Fossum" />
		<tag k="place" v="farm" />
		<tag k="ssr:stedsnr" v="367817" />
	</node>
	<node lat="59.98702378073223" lon="10.035740450645822" id="-19192">
		<tag k="fixme" v="consider place=hamlet" />
		<tag k="name" v="Brekke" />
		<tag k="place" v="farm" />
		<tag k="ssr:stedsnr" v="368467" />
	</node>
	<node lat="59.992388935362236" lon="9.984518560442242" id="-19193">
		<tag k="alt_name" v="Østensengen;Østengen" />
		<tag k="fixme" v="consider place=hamlet" />
		<tag k="name" v="Østensenga" />
		<tag k="place" v="farm" />
		<tag k="ssr:stedsnr" v="368631" />
	</node>
	<node lat="59.927363891788254" lon="9.887066666295905" id="-19195">
		<tag k="name" v="Brustigen" />
		<tag k="place" v="farm" />
		<tag k="ssr:stedsnr" v="368858" />
	</node>
	<node lat="59.92636944552621" lon="9.851244449710654" id="-19196">
		<tag k="alt_name" v="Moen" />
		<tag k="name" v="Tingelstadmoen" />
		<tag k="place" v="farm" />
		<tag k="ssr:stedsnr" v="368859" />
	</node>
	<node lat="59.925158330875675" lon="9.940400008098981" id="-19197">
		<tag k="name" v="Hallingstua" />
		<tag k="place" v="farm" />
		<tag k="ssr:stedsnr" v="368860" />
	</node>
	<node lat="60.017594443092065" lon="9.845802777668009" id="-19200">
		<tag k="alt_name" v="Kleven" />
		<tag k="name" v="Kleiva" />
		<tag k="place" v="farm" />
		<tag k="ssr:stedsnr" v="368967" />
	</node>
	<node lat="60.03096388610109" lon="9.995683340588432" id="-19202">
		<tag k="name" v="Tomasrud" />
		<tag k="place" v="farm" />
		<tag k="ssr:stedsnr" v="369309" />
	</node>
	<node lat="60.033898782035486" lon="10.01740801931155" id="-19203">
		<tag k="fixme" v="consider place=hamlet" />
		<tag k="name" v="Hellum" />
		<tag k="place" v="farm" />
		<tag k="ssr:stedsnr" v="369310" />
	</node>
	<node lat="60.00591656975075" lon="9.887994887785542" id="-19205">
		<tag k="fixme" v="consider place=hamlet" />
		<tag k="name" v="Gunnhus" />
		<tag k="place" v="farm" />
		<tag k="ssr:stedsnr" v="369965" />
	</node>
	<node lat="59.987699999863565" lon="10.03484167500249" id="-19207">
		<tag k="name" v="Brekke" />
		<tag k="place" v="farm" />
		<tag k="ssr:stedsnr" v="479844" />
	</node>
	<node lat="59.857100003211535" lon="9.890497216837055" id="-19211">
		<tag k="name" v="Østre Hassel" />
		<tag k="place" v="farm" />
		<tag k="ssr:stedsnr" v="480449" />
	</node>
	<node lat="60.05036944861215" lon="9.996597227904287" id="-19215">
		<tag k="name" v="Holte" />
		<tag k="place" v="farm" />
		<tag k="ssr:stedsnr" v="481201" />
	</node>
	<node lat="59.97716111249343" lon="10.018369439808286" id="-19216">
		<tag k="name" v="Campingen" />
		<tag k="ssr:stedsnr" v="481985" />
		<tag k="tourism" v="camp_site" />
	</node>
	<node lat="60.00278611283396" lon="9.979619447126984" id="-19220">
		<tag k="fixme" v="multiple name tags, choose one and add the other to alt_name" />
		<tag k="name" v="Vesle Finsrud;Løkkebakken" />
		<tag k="place" v="locality" />
		<tag k="ssr:stedsnr" v="483037" />
	</node>
	<node lat="59.85655555718215" lon="9.893894449878987" id="-19222">
		<tag k="name" v="Støa" />
		<tag k="place" v="farm" />
		<tag k="ssr:stedsnr" v="390051" />
	</node>
	<node lat="59.99447499802623" lon="9.91139721795145" id="-19223">
		<tag k="name" v="Røste" />
		<tag k="place" v="farm" />
		<tag k="ssr:stedsnr" v="483418" />
	</node>
	<node lat="60.009652775684295" lon="9.85743610554002" id="-19225">
		<tag k="name" v="Hovde" />
		<tag k="place" v="farm" />
		<tag k="ssr:stedsnr" v="483787" />
	</node>
	<node lat="60.018555559026204" lon="10.031358330465087" id="-19226">
		<tag k="name" v="Enga" />
		<tag k="place" v="farm" />
		<tag k="ssr:stedsnr" v="483819" />
	</node>
	<node lat="60.00199444304691" lon="10.063530556183329" id="-19227">
		<tag k="alt_name" v="Berg Øvre" />
		<tag k="name" v="Øvre Berg" />
		<tag k="place" v="farm" />
		<tag k="ssr:stedsnr" v="483840" />
	</node>
	<node lat="60.08746111500975" lon="9.78952221468371" id="-19229">
		<tag k="name" v="Hallerdalen" />
		<tag k="place" v="isolated_dwelling" />
		<tag k="ssr:stedsnr" v="400108" />
	</node>
	<node lat="60.01539166836512" lon="10.126547216904884" id="-19230">
		<tag k="name" v="Gulsrud" />
		<tag k="place" v="farm" />
		<tag k="ssr:stedsnr" v="404174" />
	</node>
	<node lat="60.010591663766895" lon="10.092880555947632" id="-19231">
		<tag k="name" v="Melåen" />
		<tag k="place" v="farm" />
		<tag k="ssr:stedsnr" v="404583" />
	</node>
	<node lat="59.95798888484156" lon="9.779872228803324" id="-19235">
		<tag k="name" v="Strandheim" />
		<tag k="place" v="farm" />
		<tag k="ssr:stedsnr" v="405446" />
	</node>
	<node lat="59.94809999622573" lon="9.831411113051166" id="-19236">
		<tag k="name" v="Nord-Tandberg" />
		<tag k="place" v="farm" />
		<tag k="ssr:stedsnr" v="405849" />
	</node>
	<node lat="59.95486111054125" lon="9.773855563666304" id="-19241">
		<tag k="name" v="Åsen" />
		<tag k="place" v="locality" />
		<tag k="ssr:stedsnr" v="406444" />
	</node>
	<node lat="59.92196944607514" lon="9.965680563880866" id="-19242">
		<tag k="name" v="Østre Skredsvik" />
		<tag k="place" v="locality" />
		<tag k="ssr:stedsnr" v="406611" />
	</node>
	<node lat="59.96735555745767" lon="10.072647219786639" id="-19246">
		<tag k="name" v="Englestadhytta" />
		<tag k="place" v="isolated_dwelling" />
		<tag k="ssr:stedsnr" v="406997" />
	</node>
	<node lat="60.03464722587377" lon="9.969866666878461" id="-19248">
		<tag k="name" v="Holmen" />
		<tag k="place" v="isolated_dwelling" />
		<tag k="ssr:stedsnr" v="419299" />
	</node>
	<node lat="59.991049996633905" lon="10.069955561566216" id="-19249">
		<tag k="name" v="Tobruk" />
		<tag k="place" v="isolated_dwelling" />
		<tag k="ssr:stedsnr" v="419848" />
	</node>
	<node lat="59.958480551518925" lon="10.00230832811637" id="-19255">
		<tag k="name" v="Disenmoen" />
		<tag k="place" v="farm" />
		<tag k="ssr:stedsnr" v="421545" />
	</node>
	<node lat="59.8794916680622" lon="9.919572228176204" id="-19256">
		<tag k="name" v="Skreppen" />
		<tag k="place" v="farm" />
		<tag k="ssr:stedsnr" v="421913" />
	</node>
	<node lat="60.019569447431245" lon="10.13237777210036" id="-19257">
		<tag k="name" v="Tangehagen" />
		<tag k="place" v="farm" />
		<tag k="ssr:stedsnr" v="421988" />
	</node>
	<node lat="59.982052067309425" lon="9.998805689100847" id="-19259">
		<tag k="alt_name" v="Borgen" />
		<tag k="fixme" v="consider place=hamlet" />
		<tag k="name" v="Børgen" />
		<tag k="place" v="farm" />
		<tag k="ssr:stedsnr" v="489460" />
	</node>
	<node lat="59.981391662485485" lon="9.883638883658149" id="-19260">
		<tag k="name" v="Vestre Aslaksby" />
		<tag k="place" v="farm" />
		<tag k="ssr:stedsnr" v="423392" />
	</node>
	<node lat="59.86666170428033" lon="9.855908911741023" id="-19261">
		<tag k="fixme" v="consider place=hamlet" />
		<tag k="name" v="Skibrekk" />
		<tag k="place" v="farm" />
		<tag k="ssr:stedsnr" v="489659" />
	</node>
	<node lat="59.99118333466367" lon="10.04413055380211" id="-19263">
		<tag k="name" v="Askheim" />
		<tag k="place" v="farm" />
		<tag k="ssr:stedsnr" v="423846" />
	</node>
	<node lat="59.86396601428934" lon="9.874145364531598" id="-19264">
		<tag k="fixme" v="consider place=hamlet" />
		<tag k="name" v="Kvisle" />
		<tag k="place" v="farm" />
		<tag k="ssr:stedsnr" v="489673" />
	</node>
	<node lat="59.94518333067134" lon="9.906213884588524" id="-19268">
		<tag k="alt_name" v="Wærsted" />
		<tag k="name" v="Verksted" />
		<tag k="place" v="farm" />
		<tag k="ssr:stedsnr" v="489762" />
	</node>
	<node lat="59.97120000425814" lon="9.946274995950661" id="-19269">
		<tag k="alt_name" v="Engen" />
		<tag k="name" v="Enga" />
		<tag k="place" v="farm" />
		<tag k="ssr:stedsnr" v="489786" />
	</node>
	<node lat="59.92675833063327" lon="9.724377776514734" id="-19273">
		<tag k="historic" v="shieling" />
		<tag k="name" v="Grefstadsetra" />
		<tag k="place" v="isolated_dwelling" />
		<tag k="ssr:stedsnr" v="489855" />
	</node>
	<node lat="59.93977500286686" lon="9.924222223090077" id="-19274">
		<tag k="name" v="Moen" />
		<tag k="place" v="farm" />
		<tag k="ssr:stedsnr" v="489862" />
	</node>
	<node lat="59.98210017662141" lon="9.899335927273523" id="-19276">
		<tag k="fixme" v="consider place=hamlet" />
		<tag k="name" v="Bøen" />
		<tag k="place" v="farm" />
		<tag k="ssr:stedsnr" v="489951" />
	</node>
	<node lat="59.98841111106478" lon="9.848999993935646" id="-19277">
		<tag k="name" v="Såstadsetra" />
		<tag k="place" v="locality" />
		<tag k="ssr:stedsnr" v="489954" />
	</node>
	<node lat="59.99060555926685" lon="9.91704999125187" id="-19279">
		<tag k="fixme" v="consider place=hamlet" />
		<tag k="name" v="Sysle" />
		<tag k="place" v="village" />
		<tag k="ssr:stedsnr" v="489969" />
	</node>
	<node lat="59.98703376948966" lon="10.1195925691007" id="-19283">
		<tag k="alt_name" v="Gulsrudsætra;Gulsrudvollen" />
		<tag k="historic" v="shieling" />
		<tag k="name" v="Gulsrudsetra" />
		<tag k="place" v="isolated_dwelling" />
		<tag k="ssr:stedsnr" v="429430" />
	</node>
	<node lat="59.98176111196514" lon="10.250666665590426" id="-19284">
		<tag k="name" v="Badstuvika" />
		<tag k="place" v="isolated_dwelling" />
		<tag k="ssr:stedsnr" v="429436" />
	</node>
	<node lat="59.990188678893645" lon="9.97207336442104" id="-19285">
		<tag k="fixme" v="consider place=hamlet" />
		<tag k="name" v="Åsmundrud" />
		<tag k="place" v="farm" />
		<tag k="ssr:stedsnr" v="429451" />
	</node>
	<node lat="59.88974234567768" lon="9.922507614174833" id="-19288">
		<tag k="fixme" v="consider place=hamlet" />
		<tag k="name" v="Enger" />
		<tag k="place" v="farm" />
		<tag k="ssr:stedsnr" v="429670" />
	</node>
	<node lat="59.95400353790471" lon="9.794448620749632" id="-19289">
		<tag k="fixme" v="consider place=hamlet" />
		<tag k="name" v="Grefstad" />
		<tag k="place" v="farm" />
		<tag k="ssr:stedsnr" v="429751" />
	</node>
	<node lat="60.01396089134277" lon="9.851898579371168" id="-19291">
		<tag k="fixme" v="consider place=hamlet" />
		<tag k="name" v="Glømme" />
		<tag k="place" v="farm" />
		<tag k="ssr:stedsnr" v="429965" />
	</node>
	<node lat="60.03401110985607" lon="10.011702776856302" id="-19297">
		<tag k="name" v="Vestenga" />
		<tag k="place" v="farm" />
		<tag k="ssr:stedsnr" v="430324" />
	</node>
	<node lat="60.006552779103636" lon="9.995111104739932" id="-19300">
		<tag k="alt_name" v="Sjulsrud" />
		<tag k="name" v="Sjurdsrud" />
		<tag k="place" v="farm" />
		<tag k="ssr:stedsnr" v="430418" />
	</node>
	<node lat="60.003158333778885" lon="9.903655549043526" id="-19301">
		<tag k="name" v="Bekken" />
		<tag k="place" v="farm" />
		<tag k="ssr:stedsnr" v="490971" />
	</node>
	<node lat="60.01027500150424" lon="10.10877499714169" id="-19302">
		<tag k="alt_name" v="Skårra" />
		<tag k="name" v="Skåra" />
		<tag k="place" v="farm" />
		<tag k="ssr:stedsnr" v="430399" />
	</node>
	<node lat="60.01017581261152" lon="10.089880705675148" id="-19303">
		<tag k="fixme" v="consider place=hamlet" />
		<tag k="name" v="Melåa" />
		<tag k="place" v="farm" />
		<tag k="ssr:stedsnr" v="430400" />
	</node>
	<node lat="60.09402777749763" lon="9.930219446201438" id="-19306">
		<tag k="name" v="Kaggevollen" />
		<tag k="place" v="isolated_dwelling" />
		<tag k="ssr:stedsnr" v="430850" />
	</node>
	<node lat="60.078255402018215" lon="9.857361457052185" id="-19309">
		<tag k="alt_name" v="Lien" />
		<tag k="fixme" v="consider place=hamlet" />
		<tag k="name" v="Lia" />
		<tag k="place" v="farm" />
		<tag k="ssr:stedsnr" v="430863" />
	</node>
	<node lat="60.00426389203075" lon="10.05017221929293" id="-19311">
		<tag k="alt_name" v="Fure nedre" />
		<tag k="name" v="Nedre Fure" />
		<tag k="place" v="farm" />
		<tag k="ssr:stedsnr" v="491456" />
	</node>
	<node lat="59.990966666189124" lon="10.221977779037097" id="-19315">
		<tag k="alt_name" v="Bjørnsrudtangen" />
		<tag k="name" v="Bjørnsrud" />
		<tag k="place" v="isolated_dwelling" />
		<tag k="ssr:stedsnr" v="671456" />
	</node>
	<node lat="59.871524999738575" lon="9.83760833607583" id="-19316">
		<tag k="alt_name" v="Steinsrudhaugen" />
		<tag k="name" v="Haugen" />
		<tag k="place" v="farm" />
		<tag k="ssr:stedsnr" v="671630" />
	</node>
	<node lat="59.95587778171854" lon="9.757449991362598" id="-19322">
		<tag k="name" v="Bekken" />
		<tag k="place" v="farm" />
		<tag k="ssr:stedsnr" v="671771" />
	</node>
	<node lat="59.98003055888872" lon="9.91726945134078" id="-19323">
		<tag k="name" v="Hvelven" />
		<tag k="place" v="farm" />
		<tag k="ssr:stedsnr" v="671791" />
	</node>
	<node lat="60.011374999836406" lon="10.17004165938225" id="-19329">
		<tag k="alt_name" v="Åsen" />
		<tag k="name" v="Dignesåsen" />
		<tag k="place" v="farm" />
		<tag k="ssr:stedsnr" v="672386" />
	</node>
	<node lat="60.012199998104165" lon="10.13900555477767" id="-19331">
		<tag k="name" v="Bråtan" />
		<tag k="place" v="farm" />
		<tag k="ssr:stedsnr" v="672395" />
	</node>
	<node lat="59.996544441120705" lon="10.055647226237582" id="-19332">
		<tag k="alt_name" v="Rød;Rød, øvre" />
		<tag k="name" v="Øvre Rød" />
		<tag k="place" v="farm" />
		<tag k="ssr:stedsnr" v="672471" />
	</node>
	<node lat="60.155094445685954" lon="9.920377769995781" id="-19333">
		<tag k="name" v="Granavollen" />
		<tag k="place" v="isolated_dwelling" />
		<tag k="ssr:stedsnr" v="672779" />
	</node>
	<node lat="59.895927782195" lon="9.783013885649716" id="-19336">
		<tag k="name" v="Langebru" />
		<tag k="place" v="isolated_dwelling" />
		<tag k="ssr:stedsnr" v="461007" />
	</node>
	<node lat="59.906680556190125" lon="9.869816665931442" id="-19337">
		<tag k="alt_name" v="Sør-Ødegården" />
		<tag k="name" v="Sør-Øgarden" />
		<tag k="place" v="farm" />
		<tag k="ssr:stedsnr" v="465057" />
	</node>
	<node lat="59.87881110774989" lon="9.815888886186142" id="-19340">
		<tag k="name" v="Nedre Hovenga" />
		<tag k="place" v="farm" />
		<tag k="ssr:stedsnr" v="465318" />
	</node>
	<node lat="59.93976667007999" lon="9.92456944272862" id="-19342">
		<tag k="name" v="Formo" />
		<tag k="place" v="farm" />
		<tag k="ssr:stedsnr" v="465877" />
	</node>
	<node lat="59.89098333742741" lon="9.78563055594402" id="-19345">
		<tag k="name" v="Bergan" />
		<tag k="place" v="farm" />
		<tag k="ssr:stedsnr" v="466306" />
	</node>
	<node lat="60.02989722449627" lon="9.856650004182637" id="-19349">
		<tag k="name" v="Rundtom" />
		<tag k="place" v="farm" />
		<tag k="ssr:stedsnr" v="467723" />
	</node>
	<node lat="59.997997218719" lon="9.926283329133032" id="-19353">
		<tag k="name" v="Hagen" />
		<tag k="place" v="farm" />
		<tag k="ssr:stedsnr" v="480307" />
	</node>
	<node lat="60.00811944682626" lon="10.08549999293853" id="-19356">
		<tag k="name" v="Øvre Karlsrud" />
		<tag k="place" v="farm" />
		<tag k="ssr:stedsnr" v="481758" />
	</node>
	<node lat="59.91341388763351" lon="9.944599993295377" id="-19357">
		<tag k="name" v="Torud" />
		<tag k="place" v="farm" />
		<tag k="ssr:stedsnr" v="481975" />
	</node>
	<node lat="59.9986027745893" lon="10.004649998139554" id="-19359">
		<tag k="name" v="Monsroa" />
		<tag k="place" v="farm" />
		<tag k="ssr:stedsnr" v="482477" />
	</node>
	<node lat="59.99195277457668" lon="10.02051111405693" id="-19360">
		<tag k="name" v="Bjerke" />
		<tag k="place" v="farm" />
		<tag k="ssr:stedsnr" v="482481" />
	</node>
	<node lat="59.91597777929696" lon="9.883008333762318" id="-19362">
		<tag k="name" v="Nordre Dalen" />
		<tag k="place" v="isolated_dwelling" />
		<tag k="ssr:stedsnr" v="483182" />
	</node>
	<node lat="60.01639444454573" lon="9.84510834022226" id="-19366">
		<tag k="name" v="Helgebråten" />
		<tag k="place" v="farm" />
		<tag k="ssr:stedsnr" v="483785" />
	</node>
	<node lat="59.90849999906493" lon="9.974255556489041" id="-19368">
		<tag k="name" v="Nordås" />
		<tag k="place" v="farm" />
		<tag k="ssr:stedsnr" v="489343" />
	</node>
	<node lat="59.97080278088821" lon="10.02042221515523" id="-19372">
		<tag k="name" v="Hvalshaugen" />
		<tag k="place" v="farm" />
		<tag k="ssr:stedsnr" v="489519" />
	</node>
	<node lat="59.95327373195301" lon="10.011276432335837" id="-19376">
		<tag k="fixme" v="consider place=hamlet" />
		<tag k="name" v="Disen" />
		<tag k="place" v="farm" />
		<tag k="ssr:stedsnr" v="489415" />
	</node>
	<node lat="59.92719167016139" lon="10.040858337666261" id="-19377">
		<tag k="historic" v="shieling" />
		<tag k="name" v="Hovlandsetra" />
		<tag k="place" v="isolated_dwelling" />
		<tag k="ssr:stedsnr" v="489442" />
	</node>
	<node lat="59.87825863391412" lon="9.875078384903478" id="-19378">
		<tag k="fixme" v="consider place=hamlet" />
		<tag k="name" v="Lerskallen" />
		<tag k="place" v="farm" />
		<tag k="ssr:stedsnr" v="489705" />
	</node>
	<node lat="60.045711469087436" lon="9.844210297538922" id="-19379">
		<tag k="alt_name" v="Svendsby" />
		<tag k="fixme" v="consider place=hamlet" />
		<tag k="name" v="Svendby" />
		<tag k="place" v="farm" />
		<tag k="ssr:stedsnr" v="489902" />
	</node>
	<node lat="59.98908219068994" lon="9.926048494398488" id="-19381">
		<tag k="fixme" v="consider place=hamlet" />
		<tag k="name" v="Hole" />
		<tag k="place" v="farm" />
		<tag k="ssr:stedsnr" v="489932" />
	</node>
	<node lat="59.907155555782296" lon="9.735322228311237" id="-19382">
		<tag k="name" v="Svarverud" />
		<tag k="place" v="farm" />
		<tag k="ssr:stedsnr" v="489821" />
	</node>
	<node lat="59.897391666555365" lon="9.742524993613987" id="-19385">
		<tag k="fixme" v="multiple name tags, choose one and add the other to alt_name" />
		<tag k="name" v="Klabu;Hammarplass" />
		<tag k="old_name" v="Tolerud" />
		<tag k="place" v="farm" />
		<tag k="ssr:stedsnr" v="489834" />
	</node>
	<node lat="60.00768343069628" lon="10.114482875166049" id="-19387">
		<tag k="alt_name" v="Slåttebråten" />
		<tag k="name" v="Slåttebråtan" />
		<tag k="place" v="locality" />
		<tag k="ssr:stedsnr" v="490398" />
	</node>
	<node lat="59.986830349240925" lon="9.943476565136264" id="-19388">
		<tag k="fixme" v="consider place=hamlet" />
		<tag k="name" v="Hære" />
		<tag k="place" v="farm" />
		<tag k="ssr:stedsnr" v="490596" />
	</node>
	<node lat="60.132250004461724" lon="9.90876110527481" id="-19389">
		<tag k="name" v="Steinsvollen" />
		<tag k="place" v="isolated_dwelling" />
		<tag k="ssr:stedsnr" v="490814" />
	</node>
	<node lat="60.03062499574006" lon="9.815950004197173" id="-19391">
		<tag k="historic" v="shieling" />
		<tag k="name" v="Langerudsetra" />
		<tag k="place" v="isolated_dwelling" />
		<tag k="ssr:stedsnr" v="490915" />
	</node>
	<node lat="60.0359527821662" lon="9.9645194446248" id="-19392">
		<tag k="name" v="Svarterud" />
		<tag k="place" v="farm" />
		<tag k="ssr:stedsnr" v="490924" />
	</node>
	<node lat="59.89993611105173" lon="9.771216671625359" id="-19395">
		<tag k="name" v="Elisplassen" />
		<tag k="place" v="locality" />
		<tag k="ssr:stedsnr" v="521006" />
	</node>
	<node lat="60.01327777649005" lon="10.152861109975532" id="-19403">
		<tag k="name" v="Dignes" />
		<tag k="place" v="farm" />
		<tag k="ssr:stedsnr" v="527286" />
	</node>
	<node lat="60.02886425688179" lon="9.831556465391985" id="-19404">
		<tag k="name" v="Ødegården" />
		<tag k="place" v="locality" />
		<tag k="ssr:stedsnr" v="527734" />
	</node>
	<node lat="60.049927774613444" lon="9.837633331221342" id="-19405">
		<tag k="name" v="Øvre Korsbøen" />
		<tag k="place" v="farm" />
		<tag k="ssr:stedsnr" v="527694" />
	</node>
	<node lat="60.02469444693305" lon="9.87781389472888" id="-19407">
		<tag k="name" v="Honerud" />
		<tag k="place" v="farm" />
		<tag k="ssr:stedsnr" v="540268" />
	</node>
	<node lat="59.97979999874251" lon="10.163936119868023" id="-19411">
		<tag k="historic" v="shieling" />
		<tag k="name" v="Gamlevollen" />
		<tag k="place" v="isolated_dwelling" />
		<tag k="ssr:stedsnr" v="542116" />
	</node>
	<node lat="60.00916944829556" lon="10.086538886563691" id="-19415">
		<tag k="name" v="Melåen" />
		<tag k="place" v="farm" />
		<tag k="ssr:stedsnr" v="542771" />
	</node>
	<node lat="59.88848055934654" lon="9.927291669755423" id="-19417">
		<tag k="name" v="Engerhagen" />
		<tag k="place" v="quarter" />
		<tag k="ssr:stedsnr" v="542908" />
	</node>
	<node lat="59.91864722544996" lon="9.85651945326203" id="-19419">
		<tag k="name" v="Nordre Kopland" />
		<tag k="place" v="farm" />
		<tag k="ssr:stedsnr" v="543976" />
	</node>
	<node lat="59.981075000389716" lon="9.903627775763736" id="-19420">
		<tag k="name" v="Bøen" />
		<tag k="place" v="farm" />
		<tag k="ssr:stedsnr" v="544377" />
	</node>
	<node lat="59.992561111985694" lon="10.046933330144503" id="-19422">
		<tag k="alt_name" v="Askheim nordre" />
		<tag k="name" v="Nordre Askheim" />
		<tag k="place" v="farm" />
		<tag k="ssr:stedsnr" v="544819" />
	</node>
	<node lat="59.95463611512174" lon="10.051825005900536" id="-19425">
		<tag k="historic" v="shieling" />
		<tag k="name" v="Austadsetra" />
		<tag k="place" v="isolated_dwelling" />
		<tag k="ssr:stedsnr" v="549451" />
	</node>
	<node lat="60.03550540165699" lon="9.997103810507811" id="-19427">
		<tag k="fixme" v="consider place=hamlet" />
		<tag k="name" v="Øderud" />
		<tag k="place" v="farm" />
		<tag k="ssr:stedsnr" v="550299" />
	</node>
	<node lat="59.88245940907324" lon="9.889613073234274" id="-19431">
		<tag k="alt_name" v="Buskerud;Buskerud landbruksskole" />
		<tag k="amenity" v="school" />
		<tag k="name" v="Buskerud videregående skole" />
		<tag k="ssr:stedsnr" v="550664" />
	</node>
	<node lat="59.93149722094141" lon="9.911511113908071" id="-19432">
		<tag k="alt_name" v="Jelstad" />
		<tag k="name" v="Jellstad" />
		<tag k="place" v="farm" />
		<tag k="ssr:stedsnr" v="550847" />
	</node>
	<node lat="59.95429722326157" lon="9.793375006382817" id="-19437">
		<tag k="name" v="Øvre Grefstad" />
		<tag k="place" v="farm" />
		<tag k="ssr:stedsnr" v="587459" />
	</node>
	<node lat="59.95189166645062" lon="9.999583332102777" id="-19445">
		<tag k="name" v="Holmen" />
		<tag k="place" v="farm" />
		<tag k="ssr:stedsnr" v="602562" />
	</node>
	<node lat="59.90910833409093" lon="9.893463882033041" id="-19448">
		<tag k="loc_name" v="Kjøraplassen" />
		<tag k="name" v="Kjøreplassen" />
		<tag k="place" v="isolated_dwelling" />
		<tag k="ssr:stedsnr" v="606744" />
	</node>
	<node lat="59.97895000287626" lon="9.993402776361586" id="-19450">
		<tag k="alt_name" v="Bottegård" />
		<tag k="name" v="Bottegarden" />
		<tag k="place" v="farm" />
		<tag k="ssr:stedsnr" v="610531" />
	</node>
	<node lat="59.88765540279943" lon="9.939240929581674" id="-19451">
		<tag k="alt_name" v="Jellum" />
		<tag k="fixme" v="consider place=hamlet" />
		<tag k="name" v="Gjellum" />
		<tag k="place" v="farm" />
		<tag k="ssr:stedsnr" v="610703" />
	</node>
	<node lat="59.89195555627226" lon="9.925605558399846" id="-19452">
		<tag k="name" v="Åmot" />
		<tag k="place" v="village" />
		<tag k="ssr:stedsnr" v="610706" />
	</node>
	<node lat="59.979436109874484" lon="9.966161103983824" id="-19453">
		<tag k="name" v="Grøterud" />
		<tag k="place" v="farm" />
		<tag k="ssr:stedsnr" v="610825" />
	</node>
	<node lat="60.038283336073306" lon="10.047372229341708" id="-19456">
		<tag k="alt_name" v="Henoa" />
		<tag k="name" v="Henåen" />
		<tag k="place" v="farm" />
		<tag k="ssr:stedsnr" v="611313" />
	</node>
	<node lat="60.00266173703281" lon="9.867219255700554" id="-19461">
		<tag k="fixme" v="consider place=hamlet" />
		<tag k="name" v="Såstad" />
		<tag k="place" v="farm" />
		<tag k="ssr:stedsnr" v="611977" />
	</node>
	<node lat="59.86984722101542" lon="9.837877785923803" id="-19464">
		<tag k="name" v="Haugløkbråten" />
		<tag k="place" v="farm" />
		<tag k="ssr:stedsnr" v="633978" />
	</node>
	<node lat="60.00104444178318" lon="10.161400000897242" id="-19469">
		<tag k="historic" v="shieling" />
		<tag k="name" v="Badstubråten" />
		<tag k="place" v="isolated_dwelling" />
		<tag k="ssr:stedsnr" v="648298" />
	</node>
	<node lat="59.918308329524194" lon="9.965486119599458" id="-19472">
		<tag k="name" v="Sevals" />
		<tag k="ssr:stedsnr" v="648619" />
		<tag k="tourism" v="guest_house" />
	</node>
	<node lat="60.08400555875737" lon="9.954255550688957" id="-19473">
		<tag k="name" v="Ulmyrbakken" />
		<tag k="place" v="isolated_dwelling" />
		<tag k="ssr:stedsnr" v="648650" />
	</node>
	<node lat="60.05958333292928" lon="9.821244447266633" id="-19474">
		<tag k="historic" v="shieling" />
		<tag k="name" v="Kvernelva" />
		<tag k="place" v="isolated_dwelling" />
		<tag k="ssr:stedsnr" v="648690" />
	</node>
	<node lat="59.89477222657777" lon="9.895241674839344" id="-19475">
		<tag k="name" v="Vestre Bråten" />
		<tag k="place" v="farm" />
		<tag k="ssr:stedsnr" v="707096" />
	</node>
	<node lat="60.01653889192064" lon="9.87663056125544" id="-19476">
		<tag k="name" v="Nordre Hilsen" />
		<tag k="place" v="farm" />
		<tag k="ssr:stedsnr" v="707374" />
	</node>
	<node lat="60.12850277553442" lon="9.945050005151776" id="-19479">
		<tag k="historic" v="shieling" />
		<tag k="name" v="Grønmyrhytta" />
		<tag k="place" v="isolated_dwelling" />
		<tag k="ssr:stedsnr" v="707680" />
	</node>
	<node lat="60.06779722618857" lon="9.844822228262403" id="-19481">
		<tag k="name" v="Elvely" />
		<tag k="place" v="farm" />
		<tag k="ssr:stedsnr" v="707686" />
	</node>
	<node lat="59.94986111107597" lon="10.051638897193556" id="-19483">
		<tag k="historic" v="shieling" />
		<tag k="name" v="Jonsbu" />
		<tag k="place" v="isolated_dwelling" />
		<tag k="ssr:stedsnr" v="708663" />
	</node>
	<node lat="59.98650833097481" lon="10.033569436405068" id="-19484">
		<tag k="name" v="Brekke" />
		<tag k="place" v="farm" />
		<tag k="ssr:stedsnr" v="661835" />
	</node>
	<node lat="59.99694444344255" lon="9.92288332470424" id="-19486">
		<tag k="name" v="Svendsrud" />
		<tag k="place" v="farm" />
		<tag k="ssr:stedsnr" v="662335" />
	</node>
	<node lat="59.888463887814936" lon="9.880241669357112" id="-19488">
		<tag k="name" v="Nordre Nyhus" />
		<tag k="place" v="farm" />
		<tag k="ssr:stedsnr" v="709428" />
	</node>
	<node lat="59.88648889085549" lon="9.877330564329654" id="-19489">
		<tag k="name" v="Vestre Nyhus" />
		<tag k="place" v="farm" />
		<tag k="ssr:stedsnr" v="709414" />
	</node>
	<node lat="59.9599583348036" lon="9.945422225310246" id="-19495">
		<tag k="name" v="Brunesmoen" />
		<tag k="place" v="isolated_dwelling" />
		<tag k="ssr:stedsnr" v="664888" />
	</node>
	<node lat="59.92115000033101" lon="9.91598611694749" id="-19499">
		<tag k="name" v="Øvre Høybakk" />
		<tag k="place" v="isolated_dwelling" />
		<tag k="ssr:stedsnr" v="665197" />
	</node>
	<node lat="60.0022527791761" lon="9.8670361124449" id="-19500">
		<tag k="name" v="Såstad" />
		<tag k="place" v="farm" />
		<tag k="ssr:stedsnr" v="665410" />
	</node>
	<node lat="60.01530000049708" lon="10.029822220917337" id="-19502">
		<tag k="name" v="Drolsum" />
		<tag k="place" v="farm" />
		<tag k="ssr:stedsnr" v="665803" />
	</node>
	<node lat="59.99172185780051" lon="10.046144562371232" id="-19515">
		<tag k="alt_name" v="Askim" />
		<tag k="fixme" v="consider place=hamlet" />
		<tag k="name" v="Askjum" />
		<tag k="place" v="farm" />
		<tag k="ssr:stedsnr" v="671449" />
	</node>
	<node lat="59.996869601785065" lon="10.053664280665219" id="-19516">
		<tag k="fixme" v="consider place=hamlet" />
		<tag k="name" v="Rød" />
		<tag k="old_name" v="Rud" />
		<tag k="place" v="farm" />
		<tag k="ssr:stedsnr" v="671451" />
	</node>
	<node lat="59.94347500344451" lon="10.004747224386866" id="-19517">
		<tag k="name" v="Briskerud" />
		<tag k="place" v="farm" />
		<tag k="ssr:stedsnr" v="671371" />
	</node>
	<node lat="59.98391446648861" lon="9.983002340414881" id="-19518">
		<tag k="fixme" v="consider place=hamlet" />
		<tag k="name" v="Kongsrud" />
		<tag k="place" v="farm" />
		<tag k="ssr:stedsnr" v="671465" />
	</node>
	<node lat="59.8853450481341" lon="9.796080147691784" id="-19519">
		<tag k="fixme" v="consider place=hamlet" />
		<tag k="name" v="Klegstad" />
		<tag k="place" v="farm" />
		<tag k="ssr:stedsnr" v="671667" />
	</node>
	<node lat="59.882900002570494" lon="9.8063305529396" id="-19521">
		<tag k="name" v="Hovengplassen" />
		<tag k="place" v="farm" />
		<tag k="ssr:stedsnr" v="671679" />
	</node>
	<node lat="59.9726923236475" lon="9.961036078568707" id="-19522">
		<tag k="fixme" v="consider place=hamlet" />
		<tag k="name" v="Haraldsrud" />
		<tag k="place" v="farm" />
		<tag k="ssr:stedsnr" v="671808" />
	</node>
	<node lat="59.90460833649693" lon="9.94762221833907" id="-19523">
		<tag k="name" v="Holo" />
		<tag k="place" v="farm" />
		<tag k="ssr:stedsnr" v="671821" />
	</node>
	<node lat="59.98418888466008" lon="9.918372226866826" id="-19524">
		<tag k="name" v="Gåsevja" />
		<tag k="place" v="farm" />
		<tag k="ssr:stedsnr" v="671940" />
	</node>
	<node lat="59.940588893074036" lon="9.82223888197626" id="-19525">
		<tag k="name" v="Hauge" />
		<tag k="old_name" v="Braaten" />
		<tag k="place" v="farm" />
		<tag k="ssr:stedsnr" v="671864" />
	</node>
	<node lat="59.93509841715774" lon="9.843338378587669" id="-19527">
		<tag k="fixme" v="consider place=hamlet" />
		<tag k="name" v="Tingelstad" />
		<tag k="place" v="farm" />
		<tag k="ssr:stedsnr" v="671875" />
	</node>
	<node lat="60.008641809407976" lon="10.075037699981667" id="-19529">
		<tag k="fixme" v="consider place=hamlet" />
		<tag k="name" v="Tangerud" />
		<tag k="place" v="farm" />
		<tag k="ssr:stedsnr" v="672403" />
	</node>
	<node lat="60.00030277831199" lon="9.975405549118486" id="-19530">
		<tag k="name" v="Torsby" />
		<tag k="place" v="farm" />
		<tag k="ssr:stedsnr" v="672408" />
	</node>
	<node lat="59.94235000429556" lon="9.83344999752983" id="-19544">
		<tag k="name" v="Tandberghaugen" />
		<tag k="place" v="farm" />
		<tag k="ssr:stedsnr" v="891870" />
	</node>
	<node lat="59.965577773740534" lon="10.01573888007352" id="-19546">
		<tag k="name" v="Bakke-Hval" />
		<tag k="place" v="farm" />
		<tag k="ssr:stedsnr" v="891995" />
	</node>
	<node lat="60.00538888508233" lon="10.052233335070788" id="-19557">
		<tag k="alt_name" v="Nordre Fure" />
		<tag k="name" v="Nord-Fure" />
		<tag k="place" v="farm" />
		<tag k="ssr:stedsnr" v="704208" />
	</node>
	<node lat="59.97413611339996" lon="9.882155560005213" id="-19562">
		<tag k="name" v="Pukkverket" />
		<tag k="place" v="isolated_dwelling" />
		<tag k="ssr:stedsnr" v="707912" />
	</node>
	<node lat="59.994405558646335" lon="10.025911113939742" id="-19574">
		<tag k="name" v="Tørrhaug" />
		<tag k="place" v="farm" />
		<tag k="ssr:stedsnr" v="725444" />
	</node>
	<node lat="59.96702777342519" lon="9.968641662472303" id="-19575">
		<tag k="name" v="Vestre Råen" />
		<tag k="place" v="farm" />
		<tag k="ssr:stedsnr" v="725832" />
	</node>
	<node lat="59.99493332916664" lon="9.898180550621943" id="-19581">
		<tag k="name" v="Skretteberg" />
		<tag k="place" v="farm" />
		<tag k="ssr:stedsnr" v="726405" />
	</node>
	<node lat="59.978353647557036" lon="9.945242431732776" id="-19587">
		<tag k="fixme" v="consider place=hamlet" />
		<tag k="name" v="Skinstad" />
		<tag k="place" v="farm" />
		<tag k="ssr:stedsnr" v="732810" />
	</node>
	<node lat="59.92016780634891" lon="9.833758131722236" id="-19589">
		<tag k="alt_name" v="Sterkeby" />
		<tag k="fixme" v="consider place=hamlet" />
		<tag k="name" v="Sterkaby" />
		<tag k="place" v="farm" />
		<tag k="ssr:stedsnr" v="732830" />
	</node>
	<node lat="60.03231657745656" lon="9.862681915900161" id="-19592">
		<tag k="fixme" v="consider place=hamlet" />
		<tag k="name" v="Olavsby" />
		<tag k="place" v="farm" />
		<tag k="ssr:stedsnr" v="732929" />
	</node>
	<node lat="59.98256110950872" lon="9.920136113688464" id="-19594">
		<tag k="name" v="Haugen" />
		<tag k="place" v="farm" />
		<tag k="ssr:stedsnr" v="732942" />
	</node>
	<node lat="60.01360243270574" lon="10.145976813099544" id="-19597">
		<tag k="fixme" v="consider place=hamlet" />
		<tag k="name" v="Bjertnes" />
		<tag k="place" v="farm" />
		<tag k="ssr:stedsnr" v="733390" />
	</node>
	<node lat="59.97612222001229" lon="9.992108332296077" id="-19606">
		<tag k="name" v="Vestre Viker" />
		<tag k="place" v="quarter" />
		<tag k="ssr:stedsnr" v="967533" />
	</node>
	<node lat="59.944194443776894" lon="9.809925000362586" id="-19613">
		<tag k="name" v="Granheim" />
		<tag k="place" v="farm" />
		<tag k="ssr:stedsnr" v="768294" />
	</node>
	<node lat="59.87866111266242" lon="10.053408324700554" id="-19614">
		<tag k="name" v="Svenseløkka" />
		<tag k="place" v="locality" />
		<tag k="ssr:stedsnr" v="768710" />
	</node>
	<node lat="60.09821944890199" lon="9.940513893181958" id="-19616">
		<tag k="name" v="Haukly" />
		<tag k="place" v="isolated_dwelling" />
		<tag k="ssr:stedsnr" v="768691" />
	</node>
	<node lat="59.99648055311264" lon="9.973749999641951" id="-19619">
		<tag k="name" v="Torsby" />
		<tag k="place" v="farm" />
		<tag k="ssr:stedsnr" v="907375" />
	</node>
	<node lat="59.915616669525214" lon="9.858658340089798" id="-19628">
		<tag k="name" v="Taraldshus" />
		<tag k="place" v="farm" />
		<tag k="ssr:stedsnr" v="907731" />
	</node>
	<node lat="59.96324054528064" lon="9.970827811219802" id="-19629">
		<tag k="name" v="Ødegården" />
		<tag k="place" v="farm" />
		<tag k="ssr:stedsnr" v="907849" />
	</node>
	<node lat="60.02644444242313" lon="9.98871667327735" id="-19630">
		<tag k="name" v="Svingen" />
		<tag k="place" v="farm" />
		<tag k="ssr:stedsnr" v="908155" />
	</node>
	<node lat="60.02998055888538" lon="9.98634722540678" id="-19631">
		<tag k="name" v="Nordre Laupet" />
		<tag k="place" v="farm" />
		<tag k="ssr:stedsnr" v="908158" />
	</node>
	<node lat="59.98825833601773" lon="10.232452780734343" id="-19633">
		<tag k="name" v="Nedre Pilterud" />
		<tag k="place" v="farm" />
		<tag k="ssr:stedsnr" v="908277" />
	</node>
	<node lat="59.9944999972568" lon="9.875725005877952" id="-19634">
		<tag k="name" v="Storhaug" />
		<tag k="place" v="farm" />
		<tag k="ssr:stedsnr" v="908387" />
	</node>
	<node lat="59.99855555758322" lon="9.899047229541292" id="-19636">
		<tag k="name" v="Roa" />
		<tag k="place" v="farm" />
		<tag k="ssr:stedsnr" v="908418" />
	</node>
	<node lat="60.00669722164576" lon="9.856266674721462" id="-19637">
		<tag k="name" v="Vestre Hovde" />
		<tag k="place" v="farm" />
		<tag k="ssr:stedsnr" v="908793" />
	</node>
	<node lat="60.04734999917213" lon="9.86713889423818" id="-19640">
		<tag k="name" v="Ødegård" />
		<tag k="place" v="farm" />
		<tag k="ssr:stedsnr" v="783429" />
	</node>
	<node lat="59.994463889464534" lon="10.06640834166976" id="-19642">
		<tag k="name" v="Urp" />
		<tag k="place" v="locality" />
		<tag k="ssr:stedsnr" v="783851" />
	</node>
	<node lat="60.00976423889886" lon="10.078350229073962" id="-19646">
		<tag k="name" v="Nedre Påls" />
		<tag k="place" v="farm" />
		<tag k="ssr:stedsnr" v="785763" />
	</node>
	<node lat="60.00778888789363" lon="10.074386106192401" id="-19647">
		<tag k="alt_name" v="Sør-Tangerud" />
		<tag k="name" v="Søndre Tangerud" />
		<tag k="place" v="farm" />
		<tag k="ssr:stedsnr" v="786405" />
	</node>
	<node lat="59.990433332108815" lon="10.048138894391338" id="-19650">
		<tag k="name" v="Haugløkka" />
		<tag k="place" v="isolated_dwelling" />
		<tag k="ssr:stedsnr" v="787804" />
	</node>
	<node lat="59.89221765200676" lon="9.77385163608736" id="-19652">
		<tag k="alt_name" v="Torud" />
		<tag k="name" v="Tolerud" />
		<tag k="place" v="farm" />
		<tag k="ssr:stedsnr" v="788749" />
	</node>
	<node lat="59.96906625994803" lon="9.97731787356607" id="-19653">
		<tag k="fixme" v="consider place=hamlet" />
		<tag k="name" v="Hovde" />
		<tag k="place" v="farm" />
		<tag k="ssr:stedsnr" v="792490" />
	</node>
	<node lat="59.883369448862894" lon="10.032688890807975" id="-19655">
		<tag k="fixme" v="consider tourism=alpine_hut or tourism=chalet" />
		<tag k="name" v="Svarvestolen" />
		<tag k="old_name" v="Svarvestola" />
		<tag k="ssr:stedsnr" v="793385" />
		<tag k="tourism" v="wilderness_hut" />
	</node>
	<node lat="59.9765250001258" lon="10.007449995237067" id="-19656">
		<tag k="name" v="Vestre Vikersund" />
		<tag k="place" v="farm" />
		<tag k="ssr:stedsnr" v="793522" />
	</node>
	<node lat="59.93972500142915" lon="9.916824999293684" id="-19657">
		<tag k="alt_name" v="Kleven" />
		<tag k="name" v="Kleiva" />
		<tag k="place" v="farm" />
		<tag k="ssr:stedsnr" v="793870" />
	</node>
	<node lat="59.94645000279612" lon="9.922997214700889" id="-19658">
		<tag k="name" v="Formodalen" />
		<tag k="place" v="farm" />
		<tag k="ssr:stedsnr" v="793775" />
	</node>
	<node lat="60.04236996989594" lon="9.838299668502183" id="-19660">
		<tag k="fixme" v="consider place=hamlet" />
		<tag k="name" v="Langerud" />
		<tag k="place" v="farm" />
		<tag k="ssr:stedsnr" v="793917" />
	</node>
	<node lat="60.04335545950835" lon="9.868577014979042" id="-19661">
		<tag k="name" v="Gubberud" />
		<tag k="place" v="hamlet" />
		<tag k="ssr:stedsnr" v="793918" />
	</node>
	<node lat="59.993700353274306" lon="9.968305240234836" id="-19665">
		<tag k="fixme" v="consider place=hamlet" />
		<tag k="name" v="Flannum" />
		<tag k="place" v="farm" />
		<tag k="ssr:stedsnr" v="793967" />
	</node>
	<node lat="60.02418172514946" lon="9.996711250029866" id="-19666">
		<tag k="fixme" v="consider place=hamlet" />
		<tag k="name" v="Ton" />
		<tag k="place" v="farm" />
		<tag k="ssr:stedsnr" v="794308" />
	</node>
	<node lat="60.01248610990825" lon="10.016669438450684" id="-19667">
		<tag k="alt_name" v="Drolsum" />
		<tag k="name" v="Drolsumenga" />
		<tag k="place" v="farm" />
		<tag k="ssr:stedsnr" v="794407" />
	</node>
	<node lat="60.00066666661617" lon="9.935480547304637" id="-19669">
		<tag k="alt_name" v="Mellem Tarmen" />
		<tag k="name" v="Tarmen" />
		<tag k="place" v="farm" />
		<tag k="ssr:stedsnr" v="794418" />
	</node>
	<node lat="59.93465000326797" lon="10.002830555831155" id="-19671">
		<tag k="name" v="Granli" />
		<tag k="place" v="isolated_dwelling" />
		<tag k="ssr:stedsnr" v="914421" />
	</node>
	<node lat="60.001902779752584" lon="10.053647216363467" id="-19674">
		<tag k="name" v="Øvre Fure" />
		<tag k="place" v="farm" />
		<tag k="ssr:stedsnr" v="914470" />
	</node>
	<node lat="59.86746916483929" lon="9.833291298714517" id="-19675">
		<tag k="fixme" v="consider place=hamlet" />
		<tag k="name" v="Steinsrud" />
		<tag k="place" v="farm" />
		<tag k="ssr:stedsnr" v="914643" />
	</node>
	<node lat="59.90047499876281" lon="9.926449998805834" id="-19676">
		<tag k="building" v="industrial" />
		<tag k="industrial" v="factory" />
		<tag k="name" v="Embretsfoss" />
		<tag k="ssr:stedsnr" v="914688" />
	</node>
	<node lat="59.95540001171245" lon="9.96697325654448" id="-19678">
		<tag k="fixme" v="consider place=hamlet" />
		<tag k="name" v="Brunes" />
		<tag k="place" v="farm" />
		<tag k="ssr:stedsnr" v="914785" />
	</node>
	<node lat="59.909327004352654" lon="9.955293495613564" id="-19680">
		<tag k="alt_name" v="Gusstad" />
		<tag k="fixme" v="consider place=hamlet" />
		<tag k="name" v="Gustad" />
		<tag k="place" v="farm" />
		<tag k="ssr:stedsnr" v="914823" />
	</node>
	<node lat="59.93789444793285" lon="9.733927781937041" id="-19681">
		<tag k="historic" v="shieling" />
		<tag k="name" v="Åsterudsetra" />
		<tag k="place" v="isolated_dwelling" />
		<tag k="ssr:stedsnr" v="914763" />
	</node>
	<node lat="59.96190277412156" lon="9.94050556382591" id="-19682">
		<tag k="name" v="Myra" />
		<tag k="place" v="farm" />
		<tag k="ssr:stedsnr" v="914768" />
	</node>
	<node lat="60.04860305693602" lon="9.85112331468144" id="-19685">
		<tag k="alt_name" v="Urda" />
		<tag k="fixme" v="consider place=hamlet" />
		<tag k="name" v="Ulen" />
		<tag k="place" v="farm" />
		<tag k="ssr:stedsnr" v="914897" />
	</node>
	<node lat="59.984079080132275" lon="9.889603434651598" id="-19686">
		<tag k="fixme" v="consider place=hamlet" />
		<tag k="name" v="Aslaksby" />
		<tag k="place" v="farm" />
		<tag k="ssr:stedsnr" v="914956" />
	</node>
	<node lat="59.99841389079598" lon="9.936013897090248" id="-19687">
		<tag k="alt_name" v="Åsheim" />
		<tag k="name" v="Tarmen" />
		<tag k="place" v="farm" />
		<tag k="ssr:stedsnr" v="914962" />
	</node>
	<node lat="60.03650833081532" lon="10.035975003436521" id="-19688">
		<tag k="name" v="Berger" />
		<tag k="place" v="farm" />
		<tag k="ssr:stedsnr" v="915299" />
	</node>
	<node lat="60.013945667330496" lon="10.157354597415265" id="-19689">
		<tag k="fixme" v="consider place=hamlet" />
		<tag k="name" v="Dignes" />
		<tag k="place" v="farm" />
		<tag k="ssr:stedsnr" v="915393" />
	</node>
	<node lat="59.933627780601235" lon="9.955705548410807" id="-19691">
		<tag k="alt_name" v="Katfoss" />
		<tag k="building" v="industrial" />
		<tag k="industrial" v="factory" />
		<tag k="name" v="Kattfoss" />
		<tag k="old_name" v="Katfos;Katfoss cellulosefabr" />
		<tag k="ssr:stedsnr" v="914846" />
	</node>
	<node lat="59.926811108975265" lon="9.746849995214834" id="-19692">
		<tag k="historic" v="shieling" />
		<tag k="name" v="Bakkesetra" />
		<tag k="place" v="isolated_dwelling" />
		<tag k="ssr:stedsnr" v="914854" />
	</node>
	<node lat="60.046411108313855" lon="10.000080556878375" id="-19695">
		<tag k="name" v="Moen" />
		<tag k="place" v="farm" />
		<tag k="ssr:stedsnr" v="915337" />
	</node>
	<node lat="60.14458707110705" lon="9.940889675057825" id="-19700">
		<tag k="name" v="Slottet" />
		<tag k="place" v="isolated_dwelling" />
		<tag k="ssr:stedsnr" v="915787" />
	</node>
	<node lat="60.096888893389796" lon="9.925605553872348" id="-19702">
		<tag k="alt_name" v="Kaggevollbråten" />
		<tag k="name" v="Kaggevollbråtan" />
		<tag k="old_name" v="Kongevollbråtan" />
		<tag k="place" v="isolated_dwelling" />
		<tag k="ssr:stedsnr" v="915852" />
	</node>
	<node lat="60.02738333712062" lon="10.030394436134666" id="-19703">
		<tag k="name" v="Åsløkka" />
		<tag k="place" v="isolated_dwelling" />
		<tag k="ssr:stedsnr" v="814915" />
	</node>
	<node lat="60.00626190831681" lon="9.976692600936177" id="-19706">
		<tag k="name" v="Store Finsrud" />
		<tag k="place" v="farm" />
		<tag k="ssr:stedsnr" v="829010" />
	</node>
	<node lat="59.90813056009278" lon="9.879849992891588" id="-19707">
		<tag k="name" v="Åsgård" />
		<tag k="place" v="farm" />
		<tag k="ssr:stedsnr" v="829071" />
	</node>
	<node lat="59.96250555274867" lon="9.901061117172839" id="-19713">
		<tag k="name" v="Lyngmo" />
		<tag k="place" v="isolated_dwelling" />
		<tag k="ssr:stedsnr" v="829887" />
	</node>
	<node lat="59.915522224791914" lon="10.050408333153385" id="-19715">
		<tag k="historic" v="shieling" />
		<tag k="name" v="Gulliksvollen" />
		<tag k="place" v="isolated_dwelling" />
		<tag k="ssr:stedsnr" v="830685" />
	</node>
	<node lat="59.999641670932874" lon="9.972355548705393" id="-19717">
		<tag k="name" v="Solberg" />
		<tag k="place" v="farm" />
		<tag k="ssr:stedsnr" v="831031" />
	</node>
	<node lat="59.97679722618257" lon="9.880291666903744" id="-19719">
		<tag k="name" v="Hugsted" />
		<tag k="place" v="farm" />
		<tag k="ssr:stedsnr" v="831798" />
	</node>
	<node lat="59.97714444656605" lon="10.078161116367568" id="-19720">
		<tag k="historic" v="shieling" />
		<tag k="name" v="Nysetra" />
		<tag k="place" v="isolated_dwelling" />
		<tag k="ssr:stedsnr" v="831989" />
	</node>
	<node lat="59.96818055147644" lon="9.975569448118868" id="-19728">
		<tag k="name" v="Nedre Råen" />
		<tag k="place" v="farm" />
		<tag k="ssr:stedsnr" v="847855" />
	</node>
	<node lat="60.01535278193013" lon="10.01145554792927" id="-19729">
		<tag k="name" v="Drolsummyra" />
		<tag k="place" v="farm" />
		<tag k="ssr:stedsnr" v="848108" />
	</node>
	<node lat="59.91063055741938" lon="9.880200004364847" id="-19736">
		<tag k="name" v="Nymoen" />
		<tag k="place" v="quarter" />
		<tag k="ssr:stedsnr" v="853815" />
	</node>
	<node lat="59.93595555753684" lon="9.851775005063748" id="-19737">
		<tag k="name" v="Kleven" />
		<tag k="place" v="farm" />
		<tag k="ssr:stedsnr" v="853920" />
	</node>
	<node lat="60.01289166358296" lon="10.005600008776884" id="-19738">
		<tag k="alt_name" v="Rudsmyra" />
		<tag k="name" v="Myra" />
		<tag k="place" v="farm" />
		<tag k="ssr:stedsnr" v="854309" />
	</node>
	<node lat="59.99179444524144" lon="10.009444438626423" id="-19745">
		<tag k="name" v="Nygård" />
		<tag k="place" v="farm" />
		<tag k="ssr:stedsnr" v="854443" />
	</node>
	<node lat="59.98602500124024" lon="9.978777783326201" id="-19746">
		<tag k="name" v="Jonsrud" />
		<tag k="place" v="farm" />
		<tag k="ssr:stedsnr" v="854453" />
	</node>
	<node lat="59.98476944341368" lon="9.990880547743519" id="-19747">
		<tag k="name" v="Vinåsen" />
		<tag k="place" v="farm" />
		<tag k="ssr:stedsnr" v="854457" />
	</node>
	<node lat="59.8791851064722" lon="9.816253511276466" id="-19748">
		<tag k="fixme" v="consider place=hamlet" />
		<tag k="name" v="Hovenga" />
		<tag k="place" v="farm" />
		<tag k="ssr:stedsnr" v="854649" />
	</node>
	<node lat="60.02157500352647" lon="9.874850004443731" id="-19751">
		<tag k="name" v="Gullhaugen" />
		<tag k="place" v="farm" />
		<tag k="ssr:stedsnr" v="854941" />
	</node>
	<node lat="59.98665000080805" lon="9.909680555008643" id="-19752">
		<tag k="name" v="Bøenstøa" />
		<tag k="place" v="farm" />
		<tag k="ssr:stedsnr" v="854947" />
	</node>
	<node lat="59.984649398543105" lon="9.878652917650353" id="-19753">
		<tag k="fixme" v="consider place=hamlet" />
		<tag k="name" v="Skuterud" />
		<tag k="old_name" v="Skuteryd" />
		<tag k="place" v="farm" />
		<tag k="ssr:stedsnr" v="854949" />
	</node>
	<node lat="60.01100000370624" lon="9.885936115130619" id="-19754">
		<tag k="name" v="Haugen" />
		<tag k="place" v="farm" />
		<tag k="ssr:stedsnr" v="854952" />
	</node>
	<node lat="60.00238189887085" lon="9.891024422629393" id="-19755">
		<tag k="fixme" v="consider place=hamlet" />
		<tag k="name" v="Skjelbred" />
		<tag k="place" v="farm" />
		<tag k="ssr:stedsnr" v="854966" />
	</node>
	<node lat="60.00256142538126" lon="10.063069707030065" id="-19756">
		<tag k="fixme" v="consider place=hamlet" />
		<tag k="name" v="Berg" />
		<tag k="place" v="farm" />
		<tag k="ssr:stedsnr" v="855412" />
	</node>
	<node lat="60.088430555638" lon="9.833433328244295" id="-19758">
		<tag k="name" v="Kløftefoss" />
		<tag k="place" v="hamlet" />
		<tag k="ssr:stedsnr" v="855880" />
	</node>
	<node lat="59.85997499860697" lon="9.883527777563874" id="-19761">
		<tag k="name" v="Kvislebråten" />
		<tag k="place" v="farm" />
		<tag k="ssr:stedsnr" v="876261" />
	</node>
	<node lat="59.88479999786697" lon="9.90124444896201" id="-19765">
		<tag k="name" v="Granvold" />
		<tag k="place" v="farm" />
		<tag k="ssr:stedsnr" v="889111" />
	</node>
	<node lat="60.00649999673041" lon="9.873908332805934" id="-19766">
		<tag k="name" v="Taraldhaugen" />
		<tag k="place" v="farm" />
		<tag k="ssr:stedsnr" v="889360" />
	</node>
	<node lat="60.112219441620205" lon="9.91477500866771" id="-19768">
		<tag k="historic" v="shieling" />
		<tag k="name" v="Tørrfurumyrstua" />
		<tag k="place" v="isolated_dwelling" />
		<tag k="ssr:stedsnr" v="890710" />
	</node>
	<node lat="59.96377222171864" lon="10.044861107413384" id="-19773">
		<tag k="name" v="Turisten" />
		<tag k="place" v="isolated_dwelling" />
		<tag k="ssr:stedsnr" v="892932" />
	</node>
	<node lat="59.93615555774847" lon="9.975936103118537" id="-19776">
		<tag k="name" v="Rolighetsmoen" />
		<tag k="place" v="quarter" />
		<tag k="ssr:stedsnr" v="906555" />
	</node>
	<node lat="59.99606944898683" lon="10.053033329695944" id="-19783">
		<tag k="alt_name" v="Rød;Rød, nedre" />
		<tag k="name" v="Nedre Rød" />
		<tag k="place" v="farm" />
		<tag k="ssr:stedsnr" v="907953" />
	</node>
	<node lat="59.917302775921115" lon="9.860525003483806" id="-19786">
		<tag k="name" v="Søndre Kopland" />
		<tag k="place" v="farm" />
		<tag k="ssr:stedsnr" v="908259" />
	</node>
	<node lat="59.9850388859844" lon="9.946891661015139" id="-19788">
		<tag k="name" v="Hære" />
		<tag k="place" v="farm" />
		<tag k="ssr:stedsnr" v="909218" />
	</node>
	<node lat="59.98790000310332" lon="9.959805547758076" id="-19789">
		<tag k="name" v="Haugerud" />
		<tag k="place" v="farm" />
		<tag k="ssr:stedsnr" v="909221" />
	</node>
	<node lat="59.97880435449002" lon="10.093379141584434" id="-19798">
		<tag k="historic" v="shieling" />
		<tag k="name" v="Rødsetra" />
		<tag k="place" v="isolated_dwelling" />
		<tag k="ssr:stedsnr" v="914509" />
	</node>
	<node lat="59.97408515086304" lon="9.988640522819345" id="-19799">
		<tag k="alt_name" v="Vestre Viker" />
		<tag k="fixme" v="consider place=hamlet" />
		<tag k="name" v="Vestre Vike" />
		<tag k="place" v="farm" />
		<tag k="ssr:stedsnr" v="914511" />
	</node>
	<node lat="59.99227065122389" lon="10.212305436852212" id="-19801">
		<tag k="alt_name" v="Kimerud" />
		<tag k="fixme" v="consider place=hamlet" />
		<tag k="name" v="Kimmerud" />
		<tag k="place" v="farm" />
		<tag k="ssr:stedsnr" v="914480" />
	</node>
	<node lat="59.9825805530032" lon="9.989524998696607" id="-19802">
		<tag k="name" v="Slottet" />
		<tag k="place" v="farm" />
		<tag k="ssr:stedsnr" v="914490" />
	</node>
	<node lat="59.9938389415263" lon="9.977896513054572" id="-19803">
		<tag k="fixme" v="consider place=hamlet" />
		<tag k="name" v="Helgedalen" />
		<tag k="place" v="farm" />
		<tag k="ssr:stedsnr" v="914604" />
	</node>
	<node lat="59.90459721915283" lon="9.794352778808028" id="-19804">
		<tag k="historic" v="shieling" />
		<tag k="name" v="Klegstadsetra" />
		<tag k="place" v="isolated_dwelling" />
		<tag k="ssr:stedsnr" v="914818" />
	</node>
	<node lat="60.01779167082197" lon="10.002575007494315" id="-19805">
		<tag k="name" v="Erlandstua" />
		<tag k="place" v="farm" />
		<tag k="ssr:stedsnr" v="915313" />
	</node>
	<node lat="60.042480558752175" lon="9.983013890500605" id="-19806">
		<tag k="alt_name" v="Myrbråten" />
		<tag k="name" v="Myrbråtan" />
		<tag k="place" v="farm" />
		<tag k="ssr:stedsnr" v="915296" />
	</node>
	<node lat="60.04418560638817" lon="9.952700741913304" id="-19807">
		<tag k="name" v="Presterud" />
		<tag k="place" v="locality" />
		<tag k="ssr:stedsnr" v="915909" />
	</node>
	<node lat="60.005538884472664" lon="9.859033331555914" id="-19809">
		<tag k="name" v="Løken" />
		<tag k="place" v="farm" />
		<tag k="ssr:stedsnr" v="915977" />
	</node>
	<node lat="60.01393333599681" lon="10.025438890029372" id="-19810">
		<tag k="fixme" v="consider place=hamlet" />
		<tag k="name" v="Drolsum" />
		<tag k="place" v="village" />
		<tag k="ssr:stedsnr" v="934486" />
	</node>
	<node lat="59.97271111041484" lon="9.908074996661432" id="-19815">
		<tag k="name" v="Lundgård" />
		<tag k="place" v="isolated_dwelling" />
		<tag k="ssr:stedsnr" v="950910" />
	</node>
	<node lat="59.944522218148286" lon="9.83658333961858" id="-19820">
		<tag k="name" v="Sør-Tandberg" />
		<tag k="place" v="farm" />
		<tag k="ssr:stedsnr" v="952798" />
	</node>
	<node lat="60.02506994777178" lon="9.872001315054248" id="-19826">
		<tag k="fixme" v="consider place=hamlet" />
		<tag k="name" v="Lofthus" />
		<tag k="place" v="farm" />
		<tag k="ssr:stedsnr" v="965300" />
	</node>
	<node lat="59.93633333399319" lon="9.939130559603575" id="-19831">
		<tag k="name" v="Plassen" />
		<tag k="place" v="farm" />
		<tag k="ssr:stedsnr" v="967698" />
	</node>
	<node lat="59.92765278063827" lon="9.888166672936398" id="-19832">
		<tag k="name" v="Trollhaug" />
		<tag k="place" v="farm" />
		<tag k="ssr:stedsnr" v="968140" />
	</node>
	<node lat="59.909999997727695" lon="9.96091666909346" id="-19833">
		<tag k="leisure" v="pitch" />
		<tag k="name" v="Gustadbakken" />
		<tag k="ssr:stedsnr" v="967885" />
	</node>
	<node lat="59.97816944369773" lon="9.932736116258171" id="-19834">
		<tag k="name" v="Høgda" />
		<tag k="place" v="farm" />
		<tag k="ssr:stedsnr" v="968885" />
	</node>
	<node lat="60.01978610958169" lon="9.999822226306245" id="-19838">
		<tag k="name" v="Skolt" />
		<tag k="place" v="farm" />
		<tag k="ssr:stedsnr" v="969104" />
	</node>
	<node lat="60.070664938683215" lon="9.803182274727062" id="-19842">
		<tag k="name" v="Ødegården" />
		<tag k="place" v="locality" />
		<tag k="ssr:stedsnr" v="976757" />
	</node>
	<node lat="59.89207878678375" lon="9.928418462970646" id="-19848">
		<tag k="name" v="Solhøy" />
		<tag k="place" v="farm" />
		<tag k="ssr:stedsnr" v="984198" />
	</node>
	<node lat="59.96457291941005" lon="9.979332947981346" id="-19851">
		<tag k="fixme" v="consider place=hamlet" />
		<tag k="name" v="Bjølgerud" />
		<tag k="place" v="farm" />
		<tag k="ssr:stedsnr" v="3442" />
	</node>
	<node lat="59.91628017828954" lon="9.957485754558558" id="-19852">
		<tag k="alt_name" v="Kaldaker;Kalaker" />
		<tag k="fixme" v="consider place=hamlet" />
		<tag k="name" v="Kaldåker" />
		<tag k="old_name" v="Kaldaaker" />
		<tag k="place" v="farm" />
		<tag k="ssr:stedsnr" v="3840" />
	</node>
	<node lat="59.90507500440373" lon="10.068791658088672" id="-19853">
		<tag k="name" v="Sponevollen" />
		<tag k="place" v="isolated_dwelling" />
		<tag k="ssr:stedsnr" v="4328" />
	</node>
	<node lat="59.86824166256729" lon="10.055141658700936" id="-19854">
		<tag k="name" v="Glitre" />
		<tag k="place" v="isolated_dwelling" />
		<tag k="ssr:stedsnr" v="4333" />
	</node>
	<node lat="59.878083334285414" lon="9.975538889482689" id="-19855">
		<tag k="historic" v="shieling" />
		<tag k="name" v="Engersetra" />
		<tag k="place" v="isolated_dwelling" />
		<tag k="ssr:stedsnr" v="4348" />
	</node>
	<node lat="59.89384444385838" lon="9.753472217079208" id="-19860">
		<tag k="alt_name" v="Smedløkken" />
		<tag k="name" v="Smedløkka" />
		<tag k="old_name" v="Tolerud" />
		<tag k="place" v="farm" />
		<tag k="ssr:stedsnr" v="4850" />
	</node>
	<node lat="59.93614999985094" lon="9.925561106342533" id="-19862">
		<tag k="alt_name" v="Nedre Bakken" />
		<tag k="name" v="Bakken" />
		<tag k="place" v="farm" />
		<tag k="ssr:stedsnr" v="4858" />
	</node>
	<node lat="59.862863889426976" lon="9.893183330657784" id="-19870">
		<tag k="name" v="Rypås" />
		<tag k="place" v="isolated_dwelling" />
		<tag k="ssr:stedsnr" v="26058" />
	</node>
	<node lat="59.86536111468921" lon="9.890202774683518" id="-19871">
		<tag k="name" v="Borkholm" />
		<tag k="place" v="farm" />
		<tag k="ssr:stedsnr" v="26066" />
	</node>
	<node lat="59.892699999022966" lon="9.757291661472" id="-19873">
		<tag k="name" v="Kinnesmyra" />
		<tag k="place" v="locality" />
		<tag k="ssr:stedsnr" v="36998" />
	</node>
	<node lat="59.89230277620999" lon="9.887347216686512" id="-19876">
		<tag k="name" v="Moflaten" />
		<tag k="place" v="isolated_dwelling" />
		<tag k="ssr:stedsnr" v="40100" />
	</node>
	<node lat="59.89373888664641" lon="9.890155564372872" id="-19877">
		<tag k="name" v="Moen" />
		<tag k="place" v="farm" />
		<tag k="ssr:stedsnr" v="40101" />
	</node>
	<node lat="60.01551944029095" lon="10.11769166110062" id="-19878">
		<tag k="name" v="Gulsrud" />
		<tag k="place" v="farm" />
		<tag k="ssr:stedsnr" v="40199" />
	</node>
	<node lat="59.87836666518799" lon="9.817772225368733" id="-19879">
		<tag k="name" v="Øvre Hovenga" />
		<tag k="place" v="farm" />
		<tag k="ssr:stedsnr" v="40332" />
	</node>
	<node lat="59.978722222057826" lon="9.895877772717919" id="-19881">
		<tag k="name" v="Bråten" />
		<tag k="place" v="farm" />
		<tag k="ssr:stedsnr" v="40939" />
	</node>
	<node lat="59.96058333530777" lon="9.856436112639656" id="-19882">
		<tag k="name" v="Hasselmoen" />
		<tag k="place" v="locality" />
		<tag k="ssr:stedsnr" v="41281" />
	</node>
	<node lat="60.06245000394498" lon="9.963441663603021" id="-19889">
		<tag k="name" v="Gravermoen" />
		<tag k="place" v="farm" />
		<tag k="ssr:stedsnr" v="42597" />
	</node>
	<node lat="60.03294166931525" lon="9.839841669272447" id="-19891">
		<tag k="name" v="Haugen" />
		<tag k="place" v="locality" />
		<tag k="ssr:stedsnr" v="42685" />
	</node>
	<node lat="59.93207222526353" lon="9.942105553525435" id="-19894">
		<tag k="name" v="Grava" />
		<tag k="place" v="quarter" />
		<tag k="ssr:stedsnr" v="52476" />
	</node>
	<node lat="59.89582777611627" lon="9.906566671710275" id="-19895">
		<tag k="name" v="Kongshaug" />
		<tag k="place" v="isolated_dwelling" />
		<tag k="ssr:stedsnr" v="55059" />
	</node>
	<node lat="59.9845083364171" lon="10.105086106113916" id="-19897">
		<tag k="historic" v="shieling" />
		<tag k="name" v="Bergsvollen" />
		<tag k="place" v="isolated_dwelling" />
		<tag k="ssr:stedsnr" v="55972" />
	</node>
	<node lat="59.93577777760105" lon="9.994016669843939" id="-19898">
		<tag k="name" v="Spone" />
		<tag k="place" v="farm" />
		<tag k="ssr:stedsnr" v="57495" />
	</node>
	<node lat="59.95886666951492" lon="10.019777780758924" id="-19899">
		<tag k="name" v="Austadbråten" />
		<tag k="place" v="isolated_dwelling" />
		<tag k="ssr:stedsnr" v="57510" />
	</node>
	<node lat="59.948213885305115" lon="10.002625006222404" id="-19900">
		<tag k="alt_name" v="Dalen Nordre" />
		<tag k="name" v="Nordre Dalen" />
		<tag k="place" v="farm" />
		<tag k="ssr:stedsnr" v="57512" />
	</node>
	<node lat="59.94558611120262" lon="10.016186112147787" id="-19901">
		<tag k="historic" v="shieling" />
		<tag k="name" v="Dølen" />
		<tag k="place" v="isolated_dwelling" />
		<tag k="ssr:stedsnr" v="57515" />
	</node>
	<node lat="60.02822778163445" lon="9.994891674078417" id="-19905">
		<tag k="name" v="Sandhaugen" />
		<tag k="place" v="farm" />
		<tag k="ssr:stedsnr" v="57167" />
	</node>
	<node lat="60.008227776070925" lon="10.080894445360247" id="-19906">
		<tag k="name" v="Øvre Påls" />
		<tag k="place" v="farm" />
		<tag k="ssr:stedsnr" v="57764" />
	</node>
	<node lat="60.00927500349467" lon="10.07685554727708" id="-19907">
		<tag k="name" v="Nord-Tangerud" />
		<tag k="place" v="farm" />
		<tag k="ssr:stedsnr" v="57765" />
	</node>
	<node lat="59.943586115250646" lon="9.802177784225181" id="-19909">
		<tag k="name" v="Øvre Bendiksby" />
		<tag k="place" v="farm" />
		<tag k="ssr:stedsnr" v="58445" />
	</node>
	<node lat="60.017861109863404" lon="10.008608326366943" id="-19911">
		<tag k="name" v="Drolsummyra" />
		<tag k="place" v="farm" />
		<tag k="ssr:stedsnr" v="59087" />
	</node>
	<node lat="59.98915555477202" lon="9.944858326927005" id="-19912">
		<tag k="name" v="Hære" />
		<tag k="place" v="farm" />
		<tag k="ssr:stedsnr" v="59196" />
	</node>
	<node lat="60.00503055584405" lon="9.974916660556078" id="-19913">
		<tag k="name" v="Skredderud" />
		<tag k="place" v="farm" />
		<tag k="ssr:stedsnr" v="59045" />
	</node>
	<node lat="60.004930559636406" lon="10.063572227164467" id="-19917">
		<tag k="name" v="Hofsenga" />
		<tag k="place" v="farm" />
		<tag k="ssr:stedsnr" v="59752" />
	</node>
	<node lat="60.00396944487903" lon="10.07338610396128" id="-19918">
		<tag k="alt_name" v="Sjuls øvre" />
		<tag k="name" v="Øvre Sjuls" />
		<tag k="place" v="farm" />
		<tag k="ssr:stedsnr" v="59768" />
	</node>
	<node lat="59.952075001309886" lon="9.975733332417107" id="-19920">
		<tag k="name" v="Hamremoen" />
		<tag k="place" v="isolated_dwelling" />
		<tag k="ssr:stedsnr" v="64385" />
	</node>
	<node lat="59.94830833500043" lon="9.999349992282855" id="-19921">
		<tag k="name" v="Voll" />
		<tag k="place" v="farm" />
		<tag k="ssr:stedsnr" v="64386" />
	</node>
	<node lat="59.969677779828146" lon="9.902527784895057" id="-19923">
		<tag k="name" v="Jarmoen" />
		<tag k="place" v="farm" />
		<tag k="ssr:stedsnr" v="64789" />
	</node>
	<node lat="59.97167777850618" lon="9.949899991645086" id="-19924">
		<tag k="name" v="Åsen" />
		<tag k="place" v="farm" />
		<tag k="ssr:stedsnr" v="64792" />
	</node>
	<node lat="60.00890555690554" lon="10.151805563817504" id="-19926">
		<tag k="name" v="Hanseløkka" />
		<tag k="place" v="isolated_dwelling" />
		<tag k="ssr:stedsnr" v="65397" />
	</node>
	<node lat="59.9811861079549" lon="9.972836119007763" id="-19931">
		<tag k="alt_name" v="Grøterud" />
		<tag k="name" v="Grøtterud" />
		<tag k="place" v="farm" />
		<tag k="ssr:stedsnr" v="65441" />
	</node>
	<node lat="59.99703333716277" lon="10.046997214130089" id="-19932">
		<tag k="name" v="Vassenga" />
		<tag k="place" v="farm" />
		<tag k="ssr:stedsnr" v="65444" />
	</node>
	<node lat="59.979699598020105" lon="10.021297754474235" id="-19934">
		<tag k="alt_name" v="Natveit;Natvedt" />
		<tag k="fixme" v="consider place=hamlet" />
		<tag k="name" v="Natvet" />
		<tag k="place" v="farm" />
		<tag k="ssr:stedsnr" v="65472" />
	</node>
	<node lat="59.97271389111603" lon="10.015108325366976" id="-19935">
		<tag k="name" v="Frydenberg" />
		<tag k="place" v="farm" />
		<tag k="ssr:stedsnr" v="65474" />
	</node>
	<node lat="59.93855882319392" lon="9.896014659705504" id="-19939">
		<tag k="fixme" v="consider place=hamlet" />
		<tag k="name" v="Overn" />
		<tag k="place" v="farm" />
		<tag k="ssr:stedsnr" v="65851" />
	</node>
	<node lat="59.9347185057638" lon="9.82134366124376" id="-19941">
		<tag k="fixme" v="consider place=hamlet" />
		<tag k="name" v="Gunnerud" />
		<tag k="place" v="farm" />
		<tag k="ssr:stedsnr" v="65892" />
	</node>
	<node lat="59.92577541538497" lon="9.930036098422484" id="-19943">
		<tag k="fixme" v="consider place=hamlet" />
		<tag k="name" v="Komperud" />
		<tag k="place" v="farm" />
		<tag k="ssr:stedsnr" v="65841" />
	</node>
	<node lat="60.09666944861395" lon="9.831680552697918" id="-19946">
		<tag k="alt_name" v="Tangene" />
		<tag k="name" v="Tangane" />
		<tag k="place" v="farm" />
		<tag k="ssr:stedsnr" v="66833" />
	</node>
	<node lat="60.02951388552589" lon="10.04354444607161" id="-19947">
		<tag k="name" v="Strandbråten" />
		<tag k="place" v="farm" />
		<tag k="ssr:stedsnr" v="86917" />
	</node>
	<node lat="59.86718611008052" lon="9.858999996474019" id="-19948">
		<tag k="alt_name" v="Østre Skibrek" />
		<tag k="name" v="Østre Skibrekk" />
		<tag k="place" v="farm" />
		<tag k="ssr:stedsnr" v="87965" />
	</node>
	<node lat="60.007313887256856" lon="9.895825003809321" id="-19949">
		<tag k="name" v="Nyhus" />
		<tag k="place" v="farm" />
		<tag k="ssr:stedsnr" v="100336" />
	</node>
	<node lat="60.0129611116658" lon="9.867691674662563" id="-19950">
		<tag k="name" v="Skolt" />
		<tag k="place" v="farm" />
		<tag k="ssr:stedsnr" v="100344" />
	</node>
	<node lat="59.905641666807604" lon="9.881733333990319" id="-19951">
		<tag k="name" v="Sørli" />
		<tag k="place" v="isolated_dwelling" />
		<tag k="ssr:stedsnr" v="101057" />
	</node>
	<node lat="60.0689277742211" lon="9.843324991320312" id="-19952">
		<tag k="name" v="Struterud" />
		<tag k="place" v="farm" />
		<tag k="ssr:stedsnr" v="101707" />
	</node>
	<node lat="59.978280554132255" lon="9.882855546876119" id="-19956">
		<tag k="name" v="Bråten" />
		<tag k="place" v="isolated_dwelling" />
		<tag k="ssr:stedsnr" v="102848" />
	</node>
	<node lat="59.93567870206902" lon="9.947144133949795" id="-19964">
		<tag k="fixme" v="multiple name tags, choose one and add the other to alt_name" />
		<tag k="name" v="Graven;Gravbroten og Dyregrav;Gravbråten og Dyregrav" />
		<tag k="old_name" v="Gravbraaten og Dyregrav" />
		<tag k="place" v="farm" />
		<tag k="ssr:stedsnr" v="113843" />
	</node>
	<node lat="60.0259166680259" lon="10.01798611526063" id="-19975">
		<tag k="name" v="Svendby" />
		<tag k="place" v="farm" />
		<tag k="ssr:stedsnr" v="118167" />
	</node>
	<node lat="60.02765277558884" lon="9.997600001604857" id="-19976">
		<tag k="name" v="Tufte" />
		<tag k="place" v="farm" />
		<tag k="ssr:stedsnr" v="118192" />
	</node>
	<node lat="59.92034166667556" lon="9.936263892533484" id="-19977">
		<tag k="name" v="Støa" />
		<tag k="place" v="farm" />
		<tag k="ssr:stedsnr" v="118708" />
	</node>
	<node lat="59.98839722293335" lon="9.88995556294916" id="-19978">
		<tag k="name" v="Ødeneshagen" />
		<tag k="place" v="isolated_dwelling" />
		<tag k="ssr:stedsnr" v="119398" />
	</node>
	<node lat="60.13972777738106" lon="9.933544443779287" id="-19980">
		<tag k="name" v="Gørbu" />
		<tag k="place" v="locality" />
		<tag k="ssr:stedsnr" v="120493" />
	</node>
	<node lat="59.976841670949106" lon="9.981283330366285" id="-19988">
		<tag k="name" v="Svenskerud" />
		<tag k="place" v="farm" />
		<tag k="ssr:stedsnr" v="125470" />
	</node>
	<node lat="59.97762777762039" lon="9.976483336476837" id="-19989">
		<tag k="alt_name" v="Sververud" />
		<tag k="name" v="Svarverud" />
		<tag k="place" v="farm" />
		<tag k="ssr:stedsnr" v="125474" />
	</node>
	<node lat="59.98868580986173" lon="9.980201474049315" id="-19990">
		<tag k="fixme" v="consider place=hamlet" />
		<tag k="name" v="Tveføtrud" />
		<tag k="place" v="farm" />
		<tag k="ssr:stedsnr" v="125494" />
	</node>
	<node lat="59.957808337542495" lon="9.974252774399144" id="-19991">
		<tag k="name" v="Fossen" />
		<tag k="place" v="farm" />
		<tag k="ssr:stedsnr" v="125506" />
	</node>
	<node lat="59.97649999769473" lon="10.021136114475217" id="-19993">
		<tag k="name" v="Stein" />
		<tag k="place" v="farm" />
		<tag k="ssr:stedsnr" v="125508" />
	</node>
	<node lat="59.89240796077994" lon="9.77471384029354" id="-19998">
		<tag k="alt_name" v="Tolerud" />
		<tag k="fixme" v="consider place=hamlet" />
		<tag k="name" v="Torud" />
		<tag k="place" v="farm" />
		<tag k="ssr:stedsnr" v="125679" />
	</node>
	<node lat="59.8952033870471" lon="9.896157859219732" id="-19999">
		<tag k="fixme" v="consider place=hamlet" />
		<tag k="name" v="Bråtan" />
		<tag k="place" v="farm" />
		<tag k="ssr:stedsnr" v="125687" />
	</node>
	<node lat="59.89297865183692" lon="9.884976491392163" id="-20000">
		<tag k="name" v="Rypås" />
		<tag k="place" v="locality" />
		<tag k="ssr:stedsnr" v="125689" />
	</node>
	<node lat="59.887230551264196" lon="9.900666668746464" id="-20003">
		<tag k="name" v="Grorud" />
		<tag k="place" v="farm" />
		<tag k="ssr:stedsnr" v="125706" />
	</node>
	<node lat="59.9530027799619" lon="9.835974994623742" id="-20004">
		<tag k="name" v="Solberg" />
		<tag k="place" v="farm" />
		<tag k="ssr:stedsnr" v="125770" />
	</node>
	<node lat="59.936994938235344" lon="9.96589081300071" id="-20005">
		<tag k="name" v="Kjemperud" />
		<tag k="place" v="farm" />
		<tag k="ssr:stedsnr" v="125783" />
	</node>
	<node lat="59.913200002355644" lon="9.917255552041096" id="-20007">
		<tag k="name" v="Veslehaug" />
		<tag k="place" v="farm" />
		<tag k="ssr:stedsnr" v="125852" />
	</node>
	<node lat="59.9360944460258" lon="9.838394446337318" id="-20008">
		<tag k="alt_name" v="Eikebråten" />
		<tag k="name" v="Eikebråtan" />
		<tag k="place" v="farm" />
		<tag k="ssr:stedsnr" v="125855" />
	</node>
	<node lat="59.929183331966705" lon="9.902072213277826" id="-20009">
		<tag k="alt_name" v="Rustand" />
		<tag k="name" v="Rustaden" />
		<tag k="place" v="farm" />
		<tag k="ssr:stedsnr" v="125857" />
	</node>
	<node lat="59.938991665406114" lon="9.831791673415742" id="-20010">
		<tag k="name" v="Engemoen" />
		<tag k="place" v="farm" />
		<tag k="ssr:stedsnr" v="125870" />
	</node>
	<node lat="60.065986108802804" lon="9.874186115922665" id="-20013">
		<tag k="name" v="Lieset" />
		<tag k="place" v="locality" />
		<tag k="ssr:stedsnr" v="125891" />
	</node>
	<node lat="60.0358805585982" lon="9.844941662216417" id="-20014">
		<tag k="name" v="Sydhagen" />
		<tag k="place" v="farm" />
		<tag k="ssr:stedsnr" v="125918" />
	</node>
	<node lat="60.04451389037846" lon="9.965055557614118" id="-20015">
		<tag k="name" v="Justad" />
		<tag k="place" v="farm" />
		<tag k="ssr:stedsnr" v="125919" />
	</node>
	<node lat="60.01048611012703" lon="10.113174997224256" id="-20017">
		<tag k="name" v="Kampeplassen" />
		<tag k="place" v="farm" />
		<tag k="ssr:stedsnr" v="126414" />
	</node>
	<node lat="60.00985555775593" lon="10.084175002154746" id="-20018">
		<tag k="name" v="Karlsrud" />
		<tag k="place" v="farm" />
		<tag k="ssr:stedsnr" v="126417" />
	</node>
	<node lat="60.006172224819124" lon="9.98063332600539" id="-20020">
		<tag k="name" v="Langsrud" />
		<tag k="place" v="farm" />
		<tag k="ssr:stedsnr" v="127469" />
	</node>
	<node lat="60.02449721835133" lon="10.031883324353277" id="-20022">
		<tag k="name" v="Ås" />
		<tag k="place" v="farm" />
		<tag k="ssr:stedsnr" v="146896" />
	</node>
	<node lat="60.002322220084125" lon="10.051669452803424" id="-20024">
		<tag k="name" v="Søndre Fure" />
		<tag k="place" v="farm" />
		<tag k="ssr:stedsnr" v="157185" />
	</node>
	<node lat="59.89204722356396" lon="9.778747224724802" id="-20025">
		<tag k="name" v="Bjørkeli" />
		<tag k="place" v="isolated_dwelling" />
		<tag k="ssr:stedsnr" v="157991" />
	</node>
	<node lat="59.897455555816144" lon="9.886322218162206" id="-20027">
		<tag k="name" v="Solvang" />
		<tag k="place" v="farm" />
		<tag k="ssr:stedsnr" v="161063" />
	</node>
	<node lat="59.93817777890665" lon="9.8096527849141" id="-20032">
		<tag k="name" v="Lobben" />
		<tag k="place" v="farm" />
		<tag k="ssr:stedsnr" v="161339" />
	</node>
	<node lat="59.901180558957954" lon="10.062683325722565" id="-20036">
		<tag k="historic" v="shieling" />
		<tag k="name" v="Langemyrsetra" />
		<tag k="place" v="isolated_dwelling" />
		<tag k="ssr:stedsnr" v="162689" />
	</node>
	<node lat="59.962058335710836" lon="10.00042777768876" id="-20042">
		<tag k="name" v="Tangen" />
		<tag k="place" v="isolated_dwelling" />
		<tag k="ssr:stedsnr" v="163997" />
	</node>
	<node lat="59.93371944234452" lon="9.947808337192507" id="-20044">
		<tag k="fixme" v="multiple name tags, choose one and add the other to alt_name" />
		<tag k="name" v="Dyregrav;Grava" />
		<tag k="place" v="locality" />
		<tag k="ssr:stedsnr" v="173544" />
	</node>
	<node lat="59.90695833326516" lon="9.938352780870877" id="-20045">
		<tag k="name" v="Sporpind" />
		<tag k="place" v="isolated_dwelling" />
		<tag k="ssr:stedsnr" v="173930" />
	</node>
	<node lat="59.98246111162862" lon="10.06254445052226" id="-20050">
		<tag k="name" v="Kompanihytta" />
		<tag k="place" v="isolated_dwelling" />
		<tag k="ssr:stedsnr" v="176847" />
	</node>
	<node lat="60.03083611405583" lon="10.010977777014295" id="-20053">
		<tag k="name" v="Hellumsenga" />
		<tag k="place" v="farm" />
		<tag k="ssr:stedsnr" v="178178" />
	</node>
	<node lat="59.95391388929559" lon="10.010977784614386" id="-20059">
		<tag k="alt_name" v="Hvit-Disen" />
		<tag k="name" v="Disen" />
		<tag k="place" v="farm" />
		<tag k="ssr:stedsnr" v="178535" />
	</node>
	<node lat="59.96138888917467" lon="9.977161115121053" id="-20061">
		<tag k="name" v="Bjølgerud" />
		<tag k="place" v="farm" />
		<tag k="ssr:stedsnr" v="178553" />
	</node>
	<node lat="59.980480556768754" lon="10.024672231068298" id="-20062">
		<tag k="name" v="Engelstad" />
		<tag k="place" v="farm" />
		<tag k="ssr:stedsnr" v="178976" />
	</node>
	<node lat="59.931038893181196" lon="9.992319444805403" id="-20064">
		<tag k="name" v="Nedre Øren" />
		<tag k="place" v="farm" />
		<tag k="ssr:stedsnr" v="179548" />
	</node>
	<node lat="60.00491944240165" lon="10.008661107371315" id="-20066">
		<tag k="name" v="Flattum" />
		<tag k="place" v="farm" />
		<tag k="ssr:stedsnr" v="180081" />
	</node>
	<node lat="60.02191666720377" lon="10.03341944149268" id="-20068">
		<tag k="name" v="Ås" />
		<tag k="place" v="farm" />
		<tag k="ssr:stedsnr" v="180771" />
	</node>
	<node lat="59.937396202216675" lon="9.997039072721316" id="-20075">
		<tag k="fixme" v="consider place=hamlet" />
		<tag k="name" v="Spone" />
		<tag k="place" v="farm" />
		<tag k="ssr:stedsnr" v="186407" />
	</node>
	<node lat="59.94870277343476" lon="10.175911119219162" id="-20076">
		<tag k="fixme" v="multiple name tags, choose one and add the other to alt_name" />
		<tag k="historic" v="shieling" />
		<tag k="name" v="Skjeggerudsetra;Skjeggerudvollen" />
		<tag k="place" v="isolated_dwelling" />
		<tag k="ssr:stedsnr" v="186434" />
	</node>
	<node lat="59.94907499818387" lon="10.001558333786898" id="-20077">
		<tag k="name" v="Gråten" />
		<tag k="place" v="farm" />
		<tag k="ssr:stedsnr" v="186440" />
	</node>
	<node lat="59.932883006827936" lon="9.999642714499142" id="-20079">
		<tag k="fixme" v="consider place=hamlet" />
		<tag k="name" v="Hovland" />
		<tag k="place" v="farm" />
		<tag k="ssr:stedsnr" v="186468" />
	</node>
	<node lat="59.998393937519815" lon="10.024843639348658" id="-20083">
		<tag k="fixme" v="consider place=hamlet" />
		<tag k="name" v="Tveiten" />
		<tag k="place" v="farm" />
		<tag k="ssr:stedsnr" v="186509" />
	</node>
	<node lat="59.99742473540199" lon="9.976842736847395" id="-20084">
		<tag k="fixme" v="consider place=hamlet" />
		<tag k="name" v="Torsby" />
		<tag k="place" v="farm" />
		<tag k="ssr:stedsnr" v="186645" />
	</node>
	<node lat="60.117902776063815" lon="9.898197228178415" id="-20085">
		<tag k="name" v="Bråtavollen" />
		<tag k="place" v="isolated_dwelling" />
		<tag k="ssr:stedsnr" v="186837" />
	</node>
	<node lat="59.921222218354885" lon="9.92204999671329" id="-20086">
		<tag k="name" v="Nygård" />
		<tag k="place" v="farm" />
		<tag k="ssr:stedsnr" v="186841" />
	</node>
	<node lat="59.93328055712372" lon="9.921044443729564" id="-20087">
		<tag k="alt_name" v="Bråten" />
		<tag k="name" v="Bråtan" />
		<tag k="place" v="farm" />
		<tag k="ssr:stedsnr" v="186849" />
	</node>
	<node lat="60.04743889302095" lon="9.862905556252116" id="-20089">
		<tag k="name" v="Moen" />
		<tag k="place" v="isolated_dwelling" />
		<tag k="ssr:stedsnr" v="186903" />
	</node>
	<node lat="59.98512213214119" lon="9.892645149839531" id="-20090">
		<tag k="alt_name" v="Ødegården" />
		<tag k="fixme" v="consider place=hamlet" />
		<tag k="name" v="Øgarden" />
		<tag k="place" v="farm" />
		<tag k="ssr:stedsnr" v="186948" />
	</node>
	<node lat="59.990249999658616" lon="9.881272214827403" id="-20091">
		<tag k="name" v="Skuterudflata" />
		<tag k="place" v="isolated_dwelling" />
		<tag k="ssr:stedsnr" v="186949" />
	</node>
	<node lat="59.868052778122" lon="9.838538886603965" id="-20099">
		<tag k="name" v="Steinsrud" />
		<tag k="place" v="farm" />
		<tag k="ssr:stedsnr" v="221855" />
	</node>
	<node lat="59.93063055295784" lon="9.817663890542494" id="-20100">
		<tag k="name" v="Nordre Gunnerud" />
		<tag k="place" v="farm" />
		<tag k="ssr:stedsnr" v="222739" />
	</node>
	<node lat="59.93442221945413" lon="9.932491662475703" id="-20105">
		<tag k="name" v="Formo" />
		<tag k="place" v="farm" />
		<tag k="ssr:stedsnr" v="222139" />
	</node>
	<node lat="59.977522225068284" lon="9.897833329047813" id="-20108">
		<tag k="name" v="Åsen" />
		<tag k="place" v="farm" />
		<tag k="ssr:stedsnr" v="222921" />
	</node>
	<node lat="59.93449722160049" lon="10.052458328122027" id="-20111">
		<tag k="name" v="Fjellheimen" />
		<tag k="place" v="isolated_dwelling" />
		<tag k="ssr:stedsnr" v="222662" />
	</node>
	<node lat="59.95026738706642" lon="9.814213764942803" id="-20112">
		<tag k="fixme" v="consider place=hamlet" />
		<tag k="name" v="Honerud" />
		<tag k="place" v="farm" />
		<tag k="ssr:stedsnr" v="222853" />
	</node>
	<node lat="60.041494445884716" lon="9.837922214202395" id="-20119">
		<tag k="name" v="Søndre Langerud" />
		<tag k="place" v="farm" />
		<tag k="ssr:stedsnr" v="224720" />
	</node>
	<node lat="60.05319722022925" lon="9.957947226947503" id="-20121">
		<tag k="name" v="Ørvassbråten" />
		<tag k="place" v="farm" />
		<tag k="ssr:stedsnr" v="224732" />
	</node>
	<node lat="59.93817777953346" lon="9.89589167155736" id="-20122">
		<tag k="name" v="Nord-Overn" />
		<tag k="place" v="farm" />
		<tag k="ssr:stedsnr" v="224866" />
	</node>
	<node lat="59.9655222248166" lon="10.009058334754437" id="-20123">
		<tag k="name" v="Liengjordet" />
		<tag k="place" v="quarter" />
		<tag k="ssr:stedsnr" v="224998" />
	</node>
	<node lat="59.97363333383804" lon="10.05490000552996" id="-20124">
		<tag k="historic" v="shieling" />
		<tag k="name" v="Vardebu" />
		<tag k="place" v="isolated_dwelling" />
		<tag k="ssr:stedsnr" v="225000" />
	</node>
	<node lat="59.96307499979355" lon="10.05561944022538" id="-20125">
		<tag k="name" v="Bjarnebu" />
		<tag k="place" v="isolated_dwelling" />
		<tag k="ssr:stedsnr" v="224982" />
	</node>
	<node lat="59.89150833390089" lon="9.779799991664815" id="-20126">
		<tag k="name" v="Skogly" />
		<tag k="place" v="isolated_dwelling" />
		<tag k="ssr:stedsnr" v="279987" />
	</node>
	<node lat="60.007083335457885" lon="9.911205564343124" id="-20130">
		<tag k="name" v="Kvernløkka" />
		<tag k="place" v="locality" />
		<tag k="ssr:stedsnr" v="282330" />
	</node>
	<node lat="59.90396944739659" lon="9.88064999510365" id="-20131">
		<tag k="name" v="Svarstad" />
		<tag k="place" v="farm" />
		<tag k="ssr:stedsnr" v="283048" />
	</node>
	<node lat="59.959722226477815" lon="10.056122217916299" id="-20134">
		<tag k="name" v="Fjellbu" />
		<tag k="place" v="isolated_dwelling" />
		<tag k="ssr:stedsnr" v="283644" />
	</node>
	<node lat="59.987869441971995" lon="9.927541666105439" id="-20136">
		<tag k="name" v="Hole" />
		<tag k="place" v="farm" />
		<tag k="ssr:stedsnr" v="284046" />
	</node>
	<node lat="59.993744444764346" lon="9.915822219490925" id="-20137">
		<tag k="building" v="industrial" />
		<tag k="industrial" v="factory" />
		<tag k="name" v="Elart" />
		<tag k="ssr:stedsnr" v="284057" />
	</node>
	<node lat="60.06209999941487" lon="9.933558328119409" id="-20142">
		<tag k="name" v="Langsjøhytta" />
		<tag k="place" v="isolated_dwelling" />
		<tag k="ssr:stedsnr" v="285735" />
	</node>
	<node lat="60.02940833301832" lon="9.993327782139513" id="-20155">
		<tag k="name" v="Tufte" />
		<tag k="place" v="farm" />
		<tag k="ssr:stedsnr" v="301141" />
	</node>
	<node lat="59.99606110818184" lon="9.938511109151632" id="-20157">
		<tag k="name" v="Teigen" />
		<tag k="place" v="farm" />
		<tag k="ssr:stedsnr" v="302218" />
	</node>
	<node lat="59.91572777808534" lon="9.986424994132692" id="-20166">
		<tag k="name" v="Hagan" />
		<tag k="place" v="isolated_dwelling" />
		<tag k="ssr:stedsnr" v="307412" />
	</node>
	<node lat="59.99026183758856" lon="10.152579332746905" id="-20169">
		<tag k="fixme" v="multiple name tags, choose one and add the other to alt_name" />
		<tag k="historic" v="shieling" />
		<tag k="name" v="Bjertnessetra;Bjertnesvollen" />
		<tag k="place" v="isolated_dwelling" />
		<tag k="ssr:stedsnr" v="307476" />
	</node>
	<node lat="59.99923333053434" lon="10.194524997314051" id="-20170">
		<tag k="name" v="Myra" />
		<tag k="place" v="farm" />
		<tag k="ssr:stedsnr" v="307477" />
	</node>
	<node lat="59.94487416390189" lon="10.003913126275119" id="-20171">
		<tag k="alt_name" v="Dalen Søndre" />
		<tag k="fixme" v="multiple name tags, choose one and add the other to alt_name" />
		<tag k="name" v="Dalen;Søndre Dalen" />
		<tag k="place" v="farm" />
		<tag k="ssr:stedsnr" v="307384" />
	</node>
	<node lat="59.96568891051667" lon="9.929822461593224" id="-20175">
		<tag k="fixme" v="consider place=hamlet" />
		<tag k="name" v="Fossnes" />
		<tag k="place" v="farm" />
		<tag k="ssr:stedsnr" v="307786" />
	</node>
	<node lat="59.98854722191566" lon="9.939766657879112" id="-20176">
		<tag k="name" v="Hære" />
		<tag k="place" v="farm" />
		<tag k="ssr:stedsnr" v="307937" />
	</node>
	<node lat="59.92035277882388" lon="9.90526666260148" id="-20178">
		<tag k="name" v="Stigerplassen" />
		<tag k="place" v="farm" />
		<tag k="ssr:stedsnr" v="307830" />
	</node>
	<node lat="60.007755069876744" lon="9.862000163504256" id="-20183">
		<tag k="fixme" v="consider place=hamlet" />
		<tag k="name" v="Hovde" />
		<tag k="place" v="farm" />
		<tag k="ssr:stedsnr" v="308971" />
	</node>
	<node lat="59.95949999667154" lon="9.786947229173622" id="-20184">
		<tag k="name" v="Solumshengslet" />
		<tag k="place" v="farm" />
		<tag k="ssr:stedsnr" v="335459" />
	</node>
	<node lat="59.89469444073043" lon="9.897705559235668" id="-20189">
		<tag k="name" v="Østre Bråten" />
		<tag k="place" v="farm" />
		<tag k="ssr:stedsnr" v="343085" />
	</node>
	<node lat="59.99190833446887" lon="9.982633335084545" id="-20190">
		<tag k="name" v="Østengen" />
		<tag k="place" v="farm" />
		<tag k="ssr:stedsnr" v="343155" />
	</node>
	<node lat="60.011533333255095" lon="9.907938891045402" id="-20191">
		<tag k="name" v="Seterstø" />
		<tag k="place" v="locality" />
		<tag k="ssr:stedsnr" v="343321" />
	</node>
	<node lat="59.94246944355973" lon="9.821516661182672" id="-20199">
		<tag k="name" v="Nestedokk" />
		<tag k="place" v="farm" />
		<tag k="ssr:stedsnr" v="343889" />
	</node>
	<node lat="60.093324997720075" lon="9.873938885257276" id="-20201">
		<tag k="name" v="Skjelbredhytta" />
		<tag k="place" v="isolated_dwelling" />
		<tag k="ssr:stedsnr" v="345119" />
	</node>
	<node lat="60.063447223870426" lon="9.806630564363306" id="-20203">
		<tag k="historic" v="shieling" />
		<tag k="name" v="Føykjemoen" />
		<tag k="place" v="isolated_dwelling" />
		<tag k="ssr:stedsnr" v="345690" />
	</node>
	<node lat="59.96184722284251" lon="10.06876389012847" id="-20205">
		<tag k="historic" v="shieling" />
		<tag k="name" v="Sandtjernsetra" />
		<tag k="place" v="isolated_dwelling" />
		<tag k="ssr:stedsnr" v="345986" />
	</node>
	<node lat="60.030036113784966" lon="10.019244440450016" id="-20218">
		<tag k="name" v="Fagernes" />
		<tag k="place" v="farm" />
		<tag k="ssr:stedsnr" v="360154" />
	</node>
	<node lat="59.9890000039153" lon="10.013230564086097" id="-20220">
		<tag k="name" v="Hervik" />
		<tag k="place" v="farm" />
		<tag k="ssr:stedsnr" v="360438" />
	</node>
	<node lat="60.010002777217125" lon="10.084772225832545" id="-20222">
		<tag k="name" v="Nedre Karlsrud" />
		<tag k="place" v="farm" />
		<tag k="ssr:stedsnr" v="360752" />
	</node>
	<node lat="59.91661388718599" lon="9.851583340524945" id="-20223">
		<tag k="name" v="Linderuddalen" />
		<tag k="place" v="farm" />
		<tag k="ssr:stedsnr" v="360767" />
	</node>
	<node lat="59.90309444754783" lon="9.938424997758501" id="-20225">
		<tag k="name" v="Steinbru" />
		<tag k="place" v="quarter" />
		<tag k="ssr:stedsnr" v="360969" />
	</node>
	<node lat="60.01370032645457" lon="10.136587491086143" id="-20226">
		<tag k="fixme" v="consider place=hamlet" />
		<tag k="name" v="Askerud" />
		<tag k="place" v="farm" />
		<tag k="ssr:stedsnr" v="360986" />
	</node>
	<node lat="59.981130551805485" lon="9.894419439846002" id="-20227">
		<tag k="name" v="Bøen" />
		<tag k="place" v="farm" />
		<tag k="ssr:stedsnr" v="361411" />
	</node>
	<node lat="59.945947222710544" lon="9.794536107365127" id="-20228">
		<tag k="historic" v="shieling" />
		<tag k="name" v="Bakkeløkka" />
		<tag k="place" v="isolated_dwelling" />
		<tag k="ssr:stedsnr" v="361443" />
	</node>
	<node lat="60.02154999847106" lon="9.99928332852648" id="-20230">
		<tag k="name" v="Sauemyr" />
		<tag k="place" v="isolated_dwelling" />
		<tag k="ssr:stedsnr" v="362110" />
	</node>
	<node lat="60.01712221894857" lon="10.027724994773394" id="-20231">
		<tag k="name" v="Hval" />
		<tag k="place" v="farm" />
		<tag k="ssr:stedsnr" v="362172" />
	</node>
	<node lat="59.93663240165972" lon="9.949023207292313" id="-20233">
		<tag k="alt_name" v="Gravbråtan;Gravbroten og Dyregrav;Gravbråten og Dyregrav" />
		<tag k="name" v="Gravbråten" />
		<tag k="old_name" v="Gravbraaten og Dyregrav" />
		<tag k="place" v="farm" />
		<tag k="ssr:stedsnr" v="362503" />
	</node>
	<node lat="59.960530557461716" lon="10.017124993959229" id="-20237">
		<tag k="name" v="Møller" />
		<tag k="place" v="isolated_dwelling" />
		<tag k="ssr:stedsnr" v="367407" />
	</node>
	<node lat="59.962350937078355" lon="10.008203882715364" id="-20238">
		<tag k="alt_name" v="Viker" />
		<tag k="fixme" v="consider place=hamlet" />
		<tag k="name" v="Østre Vike" />
		<tag k="place" v="farm" />
		<tag k="ssr:stedsnr" v="367408" />
	</node>
	<node lat="59.91690000238498" lon="9.969708335163372" id="-20245">
		<tag k="name" v="Stalsberg" />
		<tag k="place" v="farm" />
		<tag k="ssr:stedsnr" v="368435" />
	</node>
	<node lat="59.931102036536195" lon="9.995467381541465" id="-20246">
		<tag k="fixme" v="consider place=hamlet" />
		<tag k="name" v="Øren" />
		<tag k="place" v="farm" />
		<tag k="ssr:stedsnr" v="368454" />
	</node>
	<node lat="59.882763887936925" lon="9.987483341089552" id="-20248">
		<tag k="alt_name" v="Melumvollen" />
		<tag k="name" v="Mælumvollen" />
		<tag k="place" v="isolated_dwelling" />
		<tag k="ssr:stedsnr" v="368394" />
	</node>
	<node lat="59.98751721158321" lon="10.231031518628848" id="-20249">
		<tag k="fixme" v="consider place=hamlet" />
		<tag k="name" v="Pilterud" />
		<tag k="place" v="farm" />
		<tag k="ssr:stedsnr" v="368477" />
	</node>
	<node lat="59.993736215094245" lon="10.00358668197068" id="-20251">
		<tag k="fixme" v="consider place=hamlet" />
		<tag k="name" v="Øverby" />
		<tag k="place" v="farm" />
		<tag k="ssr:stedsnr" v="368484" />
	</node>
	<node lat="59.99850000082114" lon="10.063074993861031" id="-20252">
		<tag k="name" v="Nyhus" />
		<tag k="place" v="farm" />
		<tag k="ssr:stedsnr" v="368494" />
	</node>
	<node lat="59.948497025019726" lon="9.796722623953935" id="-20259">
		<tag k="fixme" v="consider place=hamlet" />
		<tag k="name" v="Bakke" />
		<tag k="place" v="farm" />
		<tag k="ssr:stedsnr" v="368792" />
	</node>
	<node lat="59.95581111558304" lon="9.768433333015398" id="-20262">
		<tag k="name" v="Høgåsen" />
		<tag k="place" v="farm" />
		<tag k="ssr:stedsnr" v="368807" />
	</node>
	<node lat="60.046939044310854" lon="9.79309754415288" id="-20263">
		<tag k="alt_name" v="Svendsbysetra" />
		<tag k="historic" v="shieling" />
		<tag k="name" v="Svensbysetra" />
		<tag k="place" v="isolated_dwelling" />
		<tag k="ssr:stedsnr" v="368902" />
	</node>
	<node lat="59.99186666334133" lon="9.90946110749646" id="-20264">
		<tag k="name" v="Røste" />
		<tag k="place" v="farm" />
		<tag k="ssr:stedsnr" v="368976" />
	</node>
	<node lat="59.99630302554036" lon="9.892814658209318" id="-20265">
		<tag k="fixme" v="consider place=hamlet" />
		<tag k="name" v="Skretteberg" />
		<tag k="place" v="farm" />
		<tag k="ssr:stedsnr" v="368978" />
	</node>
	<node lat="60.03808611423599" lon="10.007225000898663" id="-20266">
		<tag k="name" v="Holmen" />
		<tag k="place" v="farm" />
		<tag k="ssr:stedsnr" v="369300" />
	</node>
	<node lat="60.00370370742596" lon="9.978518144043212" id="-20267">
		<tag k="name" v="Haugen" />
		<tag k="place" v="farm" />
		<tag k="ssr:stedsnr" v="369386" />
	</node>
	<node lat="60.01009620904278" lon="9.932241670386773" id="-20268">
		<tag k="name" v="Nordenden" />
		<tag k="place" v="locality" />
		<tag k="ssr:stedsnr" v="369939" />
	</node>
	<node lat="59.88824118819723" lon="9.796134407858135" id="-20274">
		<tag k="name" v="Vestre Klegstad" />
		<tag k="place" v="farm" />
		<tag k="ssr:stedsnr" v="400990" />
	</node>
	<node lat="59.93903889242021" lon="9.817224995128228" id="-20275">
		<tag k="name" v="Lobben" />
		<tag k="place" v="farm" />
		<tag k="ssr:stedsnr" v="404321" />
	</node>
	<node lat="60.01078610812813" lon="9.888475007988916" id="-20277">
		<tag k="name" v="Gunnhusplassen" />
		<tag k="place" v="farm" />
		<tag k="ssr:stedsnr" v="404260" />
	</node>
	<node lat="59.91500000378234" lon="9.939888896563911" id="-20278">
		<tag k="alt_name" v="Holsrud" />
		<tag k="name" v="Linnerud" />
		<tag k="place" v="farm" />
		<tag k="ssr:stedsnr" v="404638" />
	</node>
	<node lat="59.939452774251215" lon="10.040427780374532" id="-20279">
		<tag k="historic" v="shieling" />
		<tag k="name" v="Hagaenhytta" />
		<tag k="place" v="isolated_dwelling" />
		<tag k="ssr:stedsnr" v="404651" />
	</node>
	<node lat="59.92634722179098" lon="9.838988884705735" id="-20281">
		<tag k="name" v="Tangen" />
		<tag k="place" v="farm" />
		<tag k="ssr:stedsnr" v="404765" />
	</node>
	<node lat="60.00382499968912" lon="10.185080551411994" id="-20286">
		<tag k="name" v="Inner-Tandberg" />
		<tag k="place" v="farm" />
		<tag k="ssr:stedsnr" v="406300" />
	</node>
	<node lat="59.98209444763078" lon="9.92370834049612" id="-20290">
		<tag k="name" v="Fossjordet" />
		<tag k="place" v="farm" />
		<tag k="ssr:stedsnr" v="406087" />
	</node>
	<node lat="59.88184444441943" lon="9.874991658645756" id="-20291">
		<tag k="name" v="Bråten-Bakke" />
		<tag k="place" v="farm" />
		<tag k="ssr:stedsnr" v="406436" />
	</node>
	<node lat="60.029574997744675" lon="9.836955560154577" id="-20293">
		<tag k="building" v="industrial" />
		<tag k="name" v="Snarum verk sag" />
		<tag k="ssr:stedsnr" v="406722" />
	</node>
	<node lat="59.93442221939224" lon="9.93995277141236" id="-20296">
		<tag k="name" v="Grava" />
		<tag k="place" v="hamlet" />
		<tag k="ssr:stedsnr" v="416462" />
	</node>
	<node lat="59.88281111301559" lon="9.86999721794723" id="-20298">
		<tag k="name" v="Øvre Lerskallen" />
		<tag k="place" v="farm" />
		<tag k="ssr:stedsnr" v="419422" />
	</node>
	<node lat="59.875391668955274" lon="9.878466672879858" id="-20299">
		<tag k="name" v="Refsal" />
		<tag k="place" v="farm" />
		<tag k="ssr:stedsnr" v="419433" />
	</node>
	<node lat="59.93890000398708" lon="9.96535000588516" id="-20300">
		<tag k="leisure" v="pitch" />
		<tag k="name" v="Furumo" />
		<tag k="ssr:stedsnr" v="419630" />
	</node>
	<node lat="59.95793055564034" lon="10.154000007863692" id="-20303">
		<tag k="name" v="Elgtjernstua" />
		<tag k="place" v="locality" />
		<tag k="ssr:stedsnr" v="421071" />
	</node>
	<node lat="60.03218889058316" lon="10.024227777650514" id="-20304">
		<tag k="name" v="Østby" />
		<tag k="place" v="farm" />
		<tag k="ssr:stedsnr" v="421165" />
	</node>
	<node lat="59.92210833757296" lon="9.982249995764176" id="-20306">
		<tag k="name" v="Sønsteby" />
		<tag k="place" v="farm" />
		<tag k="ssr:stedsnr" v="421530" />
	</node>
	<node lat="59.92715000451271" lon="9.990144437711642" id="-20307">
		<tag k="alt_name" v="Øren Søndre" />
		<tag k="fixme" v="multiple name tags, choose one and add the other to alt_name" />
		<tag k="name" v="Søndre Øren;Øren" />
		<tag k="place" v="farm" />
		<tag k="ssr:stedsnr" v="422537" />
	</node>
	<node lat="59.95938888612945" lon="9.965750005453836" id="-20308">
		<tag k="name" v="Nord-Brunes" />
		<tag k="place" v="farm" />
		<tag k="ssr:stedsnr" v="422880" />
	</node>
	<node lat="60.00311111078823" lon="10.026663896789865" id="-20309">
		<tag k="name" v="Brevik" />
		<tag k="place" v="farm" />
		<tag k="ssr:stedsnr" v="423080" />
	</node>
	<node lat="59.97840833088462" lon="9.930663883821373" id="-20313">
		<tag k="name" v="Fossheim" />
		<tag k="place" v="farm" />
		<tag k="ssr:stedsnr" v="423881" />
	</node>
	<node lat="59.96794999940472" lon="10.119075002702422" id="-20315">
		<tag k="name" v="Sandvollen" />
		<tag k="place" v="isolated_dwelling" />
		<tag k="ssr:stedsnr" v="428431" />
	</node>
	<node lat="59.95782500416556" lon="10.010388881687478" id="-20316">
		<tag k="name" v="Disenmoen" />
		<tag k="place" v="farm" />
		<tag k="ssr:stedsnr" v="428438" />
	</node>
	<node lat="59.96837777621982" lon="9.991069436266796" id="-20318">
		<tag k="name" v="Vikersund" />
		<tag k="place" v="village" />
		<tag k="ssr:stedsnr" v="428451" />
	</node>
	<node lat="60.161108332791606" lon="9.911736106528931" id="-20320">
		<tag k="name" v="Styggdalshytta" />
		<tag k="place" v="isolated_dwelling" />
		<tag k="ssr:stedsnr" v="429784" />
	</node>
	<node lat="59.93539444692166" lon="9.831558338186147" id="-20325">
		<tag k="name" v="Sulland" />
		<tag k="place" v="farm" />
		<tag k="ssr:stedsnr" v="429875" />
	</node>
	<node lat="59.87669166647956" lon="10.018486106883687" id="-20327">
		<tag k="name" v="Borkebu" />
		<tag k="place" v="isolated_dwelling" />
		<tag k="ssr:stedsnr" v="429326" />
	</node>
	<node lat="59.95097279524251" lon="9.820703140136052" id="-20330">
		<tag k="fixme" v="consider place=hamlet" />
		<tag k="name" v="Hulbak" />
		<tag k="old_name" v="Hulbakk;Hulebak;Hulebakk" />
		<tag k="place" v="farm" />
		<tag k="ssr:stedsnr" v="429748" />
	</node>
	<node lat="59.912373203651015" lon="9.979602705278262" id="-20333">
		<tag k="fixme" v="consider place=hamlet" />
		<tag k="name" v="Snoterud" />
		<tag k="place" v="farm" />
		<tag k="ssr:stedsnr" v="429392" />
	</node>
	<node lat="59.92862777483707" lon="9.850300007302165" id="-20334">
		<tag k="alt_name" v="Skogli" />
		<tag k="name" v="Skogly" />
		<tag k="place" v="farm" />
		<tag k="ssr:stedsnr" v="429844" />
	</node>
	<node lat="60.07031440500205" lon="9.803678473886356" id="-20335">
		<tag k="alt_name" v="Øydegardane;Ødegården" />
		<tag k="loc_name" v="Øgarden;Øgardane" />
		<tag k="name" v="Øgard" />
		<tag k="place" v="locality" />
		<tag k="ssr:stedsnr" v="429888" />
	</node>
	<node lat="60.03440742558805" lon="10.036456251819633" id="-20336">
		<tag k="fixme" v="consider place=hamlet" />
		<tag k="name" v="Fjell" />
		<tag k="place" v="farm" />
		<tag k="ssr:stedsnr" v="430327" />
	</node>
	<node lat="60.03116388900562" lon="10.04409166594671" id="-20337">
		<tag k="fixme" v="multiple name tags, choose one and add the other to alt_name" />
		<tag k="name" v="Snaret;Fjellsnaret" />
		<tag k="place" v="farm" />
		<tag k="ssr:stedsnr" v="430330" />
	</node>
	<node lat="60.03091111038868" lon="10.049724993981412" id="-20338">
		<tag k="name" v="Fjellstangen" />
		<tag k="place" v="farm" />
		<tag k="ssr:stedsnr" v="430331" />
	</node>
	<node lat="60.02249053822338" lon="10.031639573607237" id="-20339">
		<tag k="fixme" v="consider place=hamlet" />
		<tag k="name" v="Ås" />
		<tag k="place" v="farm" />
		<tag k="ssr:stedsnr" v="430333" />
	</node>
	<node lat="60.00258610868186" lon="9.931452776106706" id="-20341">
		<tag k="name" v="Nygård" />
		<tag k="place" v="farm" />
		<tag k="ssr:stedsnr" v="430973" />
	</node>
	<node lat="60.008297218570725" lon="9.848883336291843" id="-20342">
		<tag k="name" v="Kollen" />
		<tag k="place" v="farm" />
		<tag k="ssr:stedsnr" v="430978" />
	</node>
	<node lat="59.94903611522463" lon="10.004849994521095" id="-20344">
		<tag k="name" v="Jonsrud" />
		<tag k="place" v="farm" />
		<tag k="ssr:stedsnr" v="509688" />
	</node>
	<node lat="59.856480554343406" lon="9.888947220471968" id="-20345">
		<tag k="name" v="Vestre Hassel" />
		<tag k="place" v="farm" />
		<tag k="ssr:stedsnr" v="512050" />
	</node>
	<node lat="60.00320808001556" lon="10.053155035042629" id="-20348">
		<tag k="name" v="Fure" />
		<tag k="place" v="hamlet" />
		<tag k="ssr:stedsnr" v="521149" />
	</node>
	<node lat="59.89125555347994" lon="9.774805548127507" id="-20349">
		<tag k="name" v="Elvenes" />
		<tag k="place" v="isolated_dwelling" />
		<tag k="ssr:stedsnr" v="521988" />
	</node>
	<node lat="59.93765555302481" lon="9.821755548292112" id="-20354">
		<tag k="name" v="Lobbenstøa" />
		<tag k="place" v="farm" />
		<tag k="ssr:stedsnr" v="525851" />
	</node>
	<node lat="59.99849722018061" lon="9.853436108610357" id="-20357">
		<tag k="name" v="Hovdehagen" />
		<tag k="place" v="farm" />
		<tag k="ssr:stedsnr" v="525520" />
	</node>
	<node lat="60.068536114536485" lon="9.839883328686954" id="-20359">
		<tag k="name" v="Øyvolla" />
		<tag k="place" v="farm" />
		<tag k="ssr:stedsnr" v="525686" />
	</node>
	<node lat="59.9608777752697" lon="9.874658336617996" id="-20366">
		<tag k="historic" v="shieling" />
		<tag k="name" v="Berganstua" />
		<tag k="place" v="isolated_dwelling" />
		<tag k="ssr:stedsnr" v="527920" />
	</node>
	<node lat="59.97700214639809" lon="10.004539837674342" id="-20367">
		<tag k="name" v="Sand" />
		<tag k="place" v="farm" />
		<tag k="ssr:stedsnr" v="527998" />
	</node>
	<node lat="59.93918888645407" lon="9.971138893871315" id="-20374">
		<tag k="name" v="Bråten" />
		<tag k="place" v="farm" />
		<tag k="ssr:stedsnr" v="540631" />
	</node>
	<node lat="59.95310278174132" lon="9.980499996097013" id="-20378">
		<tag k="name" v="Haslerud" />
		<tag k="place" v="isolated_dwelling" />
		<tag k="ssr:stedsnr" v="542533" />
	</node>
	<node lat="59.968088886775405" lon="9.981766673143285" id="-20381">
		<tag k="name" v="Hovde" />
		<tag k="place" v="farm" />
		<tag k="ssr:stedsnr" v="542556" />
	</node>
	<node lat="59.90768889272142" lon="9.95126667270412" id="-20382">
		<tag k="name" v="Holo" />
		<tag k="place" v="farm" />
		<tag k="ssr:stedsnr" v="542974" />
	</node>
	<node lat="59.96581944345866" lon="10.019563883677328" id="-20383">
		<tag k="name" v="Øde-Hval" />
		<tag k="place" v="farm" />
		<tag k="ssr:stedsnr" v="542982" />
	</node>
	<node lat="59.97555555386859" lon="9.966650008132136" id="-20385">
		<tag k="name" v="Søndre Grøterud" />
		<tag k="place" v="farm" />
		<tag k="ssr:stedsnr" v="543835" />
	</node>
	<node lat="60.01707500407675" lon="10.01513055712106" id="-20386">
		<tag k="name" v="Bjørkerud" />
		<tag k="place" v="farm" />
		<tag k="ssr:stedsnr" v="544095" />
	</node>
	<node lat="59.99836111446048" lon="9.873208326484388" id="-20387">
		<tag k="name" v="Såstadbråten" />
		<tag k="place" v="farm" />
		<tag k="ssr:stedsnr" v="544346" />
	</node>
	<node lat="60.00298333115362" lon="10.063186118864007" id="-20390">
		<tag k="alt_name" v="Berg nedre" />
		<tag k="name" v="Nedre Berg" />
		<tag k="place" v="farm" />
		<tag k="ssr:stedsnr" v="544785" />
	</node>
	<node lat="59.99829573008897" lon="10.059475517823811" id="-20391">
		<tag k="alt_name" v="Gjeitebakken" />
		<tag k="name" v="Geitebakken" />
		<tag k="place" v="locality" />
		<tag k="ssr:stedsnr" v="544790" />
	</node>
	<node lat="59.91028823901788" lon="9.86249977280558" id="-20395">
		<tag k="alt_name" v="Nord-Ødegården" />
		<tag k="fixme" v="multiple name tags, choose one and add the other to alt_name" />
		<tag k="name" v="Øgarden;Nord-Øgarden" />
		<tag k="old_name" v="Ødegården" />
		<tag k="place" v="farm" />
		<tag k="ssr:stedsnr" v="549807" />
	</node>
	<node lat="59.91162499564634" lon="9.971849996001533" id="-20396">
		<tag k="alt_name" v="Bottolfs" />
		<tag k="name" v="Bottolvs" />
		<tag k="place" v="isolated_dwelling" />
		<tag k="ssr:stedsnr" v="550394" />
	</node>
	<node lat="59.911263888662994" lon="9.9310027777579" id="-20397">
		<tag k="name" v="Gausdal" />
		<tag k="place" v="isolated_dwelling" />
		<tag k="ssr:stedsnr" v="549831" />
	</node>
	<node lat="59.93818611414029" lon="10.005549999715596" id="-20402">
		<tag k="leisure" v="pitch" />
		<tag k="name" v="Vikersundbakken" />
		<tag k="ssr:stedsnr" v="550364" />
	</node>
	<node lat="59.98615086986322" lon="10.012499104703563" id="-20404">
		<tag k="fixme" v="consider place=hamlet" />
		<tag k="name" v="Hervik" />
		<tag k="place" v="farm" />
		<tag k="ssr:stedsnr" v="550424" />
	</node>
	<node lat="59.98333610962104" lon="10.104702771096143" id="-20405">
		<tag k="name" v="Bergsetra" />
		<tag k="place" v="locality" />
		<tag k="ssr:stedsnr" v="550429" />
	</node>
	<node lat="59.98318610994453" lon="10.242386119750238" id="-20407">
		<tag k="alt_name" v="Jota" />
		<tag k="name" v="Gjota" />
		<tag k="place" v="farm" />
		<tag k="ssr:stedsnr" v="550437" />
	</node>
	<node lat="59.895333301451096" lon="9.93489217444478" id="-20408">
		<tag k="fixme" v="consider place=hamlet" />
		<tag k="name" v="Melum" />
		<tag k="place" v="farm" />
		<tag k="ssr:stedsnr" v="550638" />
	</node>
	<node lat="60.12496388597686" lon="9.873161103970226" id="-20409">
		<tag k="name" v="Hesjevollen" />
		<tag k="place" v="isolated_dwelling" />
		<tag k="ssr:stedsnr" v="550828" />
	</node>
	<node lat="59.92174737781188" lon="9.844709873696399" id="-20410">
		<tag k="fixme" v="consider place=hamlet" />
		<tag k="name" v="Kollerud" />
		<tag k="place" v="farm" />
		<tag k="ssr:stedsnr" v="550837" />
	</node>
	<node lat="59.95813683338279" lon="9.911999804420404" id="-20412">
		<tag k="alt_name" v="Sandaker" />
		<tag k="fixme" v="consider place=hamlet" />
		<tag k="name" v="Sandåker" />
		<tag k="place" v="farm" />
		<tag k="ssr:stedsnr" v="550768" />
	</node>
	<node lat="59.944902084953256" lon="9.837273753459934" id="-20413">
		<tag k="fixme" v="consider place=hamlet" />
		<tag k="name" v="Tanberg" />
		<tag k="place" v="farm" />
		<tag k="ssr:stedsnr" v="550857" />
	</node>
	<node lat="60.06995278164676" lon="9.83174443576677" id="-20416">
		<tag k="name" v="Flatli" />
		<tag k="place" v="farm" />
		<tag k="ssr:stedsnr" v="550886" />
	</node>
	<node lat="59.99377778105413" lon="9.884452774175701" id="-20417">
		<tag k="name" v="Pedersbråtan" />
		<tag k="place" v="isolated_dwelling" />
		<tag k="ssr:stedsnr" v="550972" />
	</node>
	<node lat="60.01267090192299" lon="10.106796444511229" id="-20418">
		<tag k="fixme" v="consider place=hamlet" />
		<tag k="name" v="Gåserud" />
		<tag k="place" v="farm" />
		<tag k="ssr:stedsnr" v="551401" />
	</node>
	<node lat="60.16450278011833" lon="9.905724997256069" id="-20419">
		<tag k="name" v="Skinnstad" />
		<tag k="place" v="locality" />
		<tag k="ssr:stedsnr" v="551782" />
	</node>
	<node lat="59.927524999011226" lon="9.830341666081187" id="-20423">
		<tag k="name" v="Nordby" />
		<tag k="place" v="farm" />
		<tag k="ssr:stedsnr" v="585719" />
	</node>
	<node lat="59.889869446883765" lon="9.896522217333512" id="-20425">
		<tag k="name" v="Nylende" />
		<tag k="place" v="isolated_dwelling" />
		<tag k="ssr:stedsnr" v="585098" />
	</node>
	<node lat="59.92987777981534" lon="9.936497218644167" id="-20427">
		<tag k="name" v="Formo" />
		<tag k="place" v="farm" />
		<tag k="ssr:stedsnr" v="586160" />
	</node>
	<node lat="59.866269440608875" lon="9.852080552843562" id="-20428">
		<tag k="alt_name" v="Vestre Skibrek" />
		<tag k="name" v="Vestre Skibrekk" />
		<tag k="place" v="farm" />
		<tag k="ssr:stedsnr" v="586362" />
	</node>
	<node lat="59.94841388894905" lon="9.834427786670114" id="-20436">
		<tag k="name" v="Tandberghagen" />
		<tag k="place" v="farm" />
		<tag k="ssr:stedsnr" v="587828" />
	</node>
	<node lat="59.892516665072264" lon="9.944452772267635" id="-20439">
		<tag k="name" v="Laupet" />
		<tag k="place" v="isolated_dwelling" />
		<tag k="ssr:stedsnr" v="587901" />
	</node>
	<node lat="60.03206110716389" lon="9.835708336074362" id="-20443">
		<tag k="name" v="Elistua" />
		<tag k="place" v="locality" />
		<tag k="ssr:stedsnr" v="588731" />
	</node>
	<node lat="60.0289888866031" lon="9.863644452103868" id="-20448">
		<tag k="name" v="Nordheim" />
		<tag k="place" v="farm" />
		<tag k="ssr:stedsnr" v="600285" />
	</node>
	<node lat="59.9969055516983" lon="9.930913884986197" id="-20450">
		<tag k="name" v="Jemterud" />
		<tag k="place" v="farm" />
		<tag k="ssr:stedsnr" v="601319" />
	</node>
	<node lat="59.935455557466064" lon="9.903888886128046" id="-20452">
		<tag k="name" v="Jar" />
		<tag k="place" v="farm" />
		<tag k="ssr:stedsnr" v="601545" />
	</node>
	<node lat="59.9195722255541" lon="9.988972216856546" id="-20455">
		<tag k="alt_name" v="Sønsteby Øvre" />
		<tag k="name" v="Øvre Sønsteby" />
		<tag k="place" v="farm" />
		<tag k="ssr:stedsnr" v="602539" />
	</node>
	<node lat="59.90520527561952" lon="9.940144134249406" id="-20457">
		<tag k="fixme" v="consider place=hamlet" />
		<tag k="name" v="Midtskogen" />
		<tag k="place" v="farm" />
		<tag k="ssr:stedsnr" v="602970" />
	</node>
	<node lat="59.981394446692505" lon="10.024627773426072" id="-20459">
		<tag k="name" v="Framnes" />
		<tag k="place" v="farm" />
		<tag k="ssr:stedsnr" v="603480" />
	</node>
	<node lat="60.014955506082835" lon="10.025493398155362" id="-20460">
		<tag k="fixme" v="consider place=hamlet" />
		<tag k="name" v="Drolsum" />
		<tag k="place" v="farm" />
		<tag k="ssr:stedsnr" v="604094" />
	</node>
	<node lat="59.969524997373014" lon="9.972438880081638" id="-20463">
		<tag k="name" v="Nord-Råen" />
		<tag k="place" v="isolated_dwelling" />
		<tag k="ssr:stedsnr" v="603838" />
	</node>
	<node lat="60.023500003278166" lon="9.982386104253402" id="-20465">
		<tag k="name" v="Syversbråten" />
		<tag k="place" v="farm" />
		<tag k="ssr:stedsnr" v="604138" />
	</node>
	<node lat="59.991772218151844" lon="10.210730557715975" id="-20467">
		<tag k="name" v="Øvre Kimerud" />
		<tag k="place" v="farm" />
		<tag k="ssr:stedsnr" v="604269" />
	</node>
	<node lat="59.8729555542107" lon="9.88688610741588" id="-20471">
		<tag k="alt_name" v="Alvheim" />
		<tag k="name" v="Alfheim" />
		<tag k="place" v="farm" />
		<tag k="ssr:stedsnr" v="610646" />
	</node>
	<node lat="59.9152664067203" lon="9.975506428981866" id="-20472">
		<tag k="alt_name" v="Ødegården" />
		<tag k="name" v="Øgarden" />
		<tag k="place" v="locality" />
		<tag k="ssr:stedsnr" v="610437" />
	</node>
	<node lat="59.920816667650115" lon="9.91590556296599" id="-20473">
		<tag k="name" v="Høybakk" />
		<tag k="place" v="isolated_dwelling" />
		<tag k="ssr:stedsnr" v="610847" />
	</node>
	<node lat="59.89996110924255" lon="10.091261119188495" id="-20474">
		<tag k="alt_name" v="Heggenvollen" />
		<tag k="name" v="Heggevollen" />
		<tag k="place" v="isolated_dwelling" />
		<tag k="ssr:stedsnr" v="610385" />
	</node>
	<node lat="59.88068333224825" lon="10.058025002954814" id="-20475">
		<tag k="name" v="Bottolvs" />
		<tag k="place" v="locality" />
		<tag k="ssr:stedsnr" v="610391" />
	</node>
	<node lat="59.87873333292045" lon="10.06607500411179" id="-20476">
		<tag k="name" v="Støa" />
		<tag k="place" v="locality" />
		<tag k="ssr:stedsnr" v="610392" />
	</node>
	<node lat="59.94575277496184" lon="9.994616671730448" id="-20477">
		<tag k="name" v="Dæli" />
		<tag k="place" v="farm" />
		<tag k="ssr:stedsnr" v="610422" />
	</node>
	<node lat="59.899194442515125" lon="9.73686389439603" id="-20478">
		<tag k="name" v="Brutangen" />
		<tag k="place" v="farm" />
		<tag k="ssr:stedsnr" v="610842" />
	</node>
	<node lat="59.898886112308396" lon="9.912155558136439" id="-20480">
		<tag k="name" v="Breivik" />
		<tag k="place" v="farm" />
		<tag k="ssr:stedsnr" v="610686" />
	</node>
	<node lat="59.89511388665163" lon="9.746799994179675" id="-20481">
		<tag k="fixme" v="multiple name tags, choose one and add the other to alt_name" />
		<tag k="name" v="Klabu;Kristofferplassen" />
		<tag k="place" v="farm" />
		<tag k="ssr:stedsnr" v="610690" />
	</node>
	<node lat="59.878750689421814" lon="9.877318836695391" id="-20482">
		<tag k="fixme" v="consider place=hamlet" />
		<tag k="name" v="Bakke" />
		<tag k="place" v="farm" />
		<tag k="ssr:stedsnr" v="610692" />
	</node>
	<node lat="59.93269721936424" lon="9.914747227737097" id="-20483">
		<tag k="name" v="Bakken" />
		<tag k="place" v="farm" />
		<tag k="ssr:stedsnr" v="610861" />
	</node>
	<node lat="59.90062702720649" lon="9.94840342231587" id="-20485">
		<tag k="fixme" v="consider place=hamlet" />
		<tag k="name" v="Holo" />
		<tag k="place" v="farm" />
		<tag k="ssr:stedsnr" v="611495" />
	</node>
	<node lat="60.027530553450696" lon="10.033272214811669" id="-20489">
		<tag k="name" v="Lerskallen" />
		<tag k="place" v="farm" />
		<tag k="ssr:stedsnr" v="611332" />
	</node>
	<node lat="60.00681779442807" lon="10.07429786502227" id="-20490">
		<tag k="fixme" v="consider place=hamlet" />
		<tag k="name" v="Orholt" />
		<tag k="place" v="farm" />
		<tag k="ssr:stedsnr" v="612456" />
	</node>
	<node lat="60.09541944827911" lon="9.850097224643854" id="-20491">
		<tag k="name" v="Mohyttene" />
		<tag k="place" v="farm" />
		<tag k="ssr:stedsnr" v="611865" />
	</node>
	<node lat="60.01902499821363" lon="9.871349992332707" id="-20499">
		<tag k="name" v="Søndre Hilsen" />
		<tag k="place" v="farm" />
		<tag k="ssr:stedsnr" v="646350" />
	</node>
	<node lat="60.01286944824541" lon="9.870686108475761" id="-20500">
		<tag k="name" v="Tranvold" />
		<tag k="place" v="farm" />
		<tag k="ssr:stedsnr" v="646352" />
	</node>
	<node lat="60.01520555483347" lon="10.121769446727761" id="-20501">
		<tag k="name" v="Nordstua" />
		<tag k="place" v="farm" />
		<tag k="ssr:stedsnr" v="646600" />
	</node>
	<node lat="59.919736112949515" lon="10.036463881174987" id="-20503">
		<tag k="name" v="Urbo" />
		<tag k="place" v="isolated_dwelling" />
		<tag k="ssr:stedsnr" v="647698" />
	</node>
	<node lat="59.92848610830984" lon="10.054163893598377" id="-20505">
		<tag k="name" v="Fjellhvil" />
		<tag k="place" v="isolated_dwelling" />
		<tag k="ssr:stedsnr" v="647661" />
	</node>
	<node lat="59.98096388696141" lon="9.942705560449264" id="-20507">
		<tag k="name" v="Skinstad" />
		<tag k="place" v="farm" />
		<tag k="ssr:stedsnr" v="648084" />
	</node>
	<node lat="59.924411111101726" lon="9.968258339785713" id="-20509">
		<tag k="name" v="Tomta" />
		<tag k="place" v="locality" />
		<tag k="ssr:stedsnr" v="648629" />
	</node>
	<node lat="60.04876388972512" lon="9.925999998164382" id="-20510">
		<tag k="name" v="Skarpli" />
		<tag k="place" v="isolated_dwelling" />
		<tag k="ssr:stedsnr" v="648730" />
	</node>
	<node lat="59.9345749979075" lon="9.910719447401844" id="-20520">
		<tag k="name" v="Pungen" />
		<tag k="place" v="farm" />
		<tag k="ssr:stedsnr" v="662788" />
	</node>
	<node lat="59.880572222940664" lon="9.873152785310229" id="-20522">
		<tag k="name" v="Nedre Lerskallen" />
		<tag k="place" v="farm" />
		<tag k="ssr:stedsnr" v="662450" />
	</node>
	<node lat="59.92257499853424" lon="9.994480554398493" id="-20523">
		<tag k="name" v="Bjønnmyr" />
		<tag k="place" v="isolated_dwelling" />
		<tag k="ssr:stedsnr" v="663520" />
	</node>
	<node lat="59.908705551699875" lon="9.952188893695201" id="-20526">
		<tag k="name" v="Gustadhøgda" />
		<tag k="place" v="quarter" />
		<tag k="ssr:stedsnr" v="663967" />
	</node>
	<node lat="59.94890277529208" lon="9.796130562983546" id="-20529">
		<tag k="name" v="Øvre Bakke" />
		<tag k="place" v="farm" />
		<tag k="ssr:stedsnr" v="664380" />
	</node>
	<node lat="60.02708333527433" lon="10.003972229886427" id="-20530">
		<tag k="name" v="Nordgården" />
		<tag k="place" v="farm" />
		<tag k="ssr:stedsnr" v="664198" />
	</node>
	<node lat="59.985030559312" lon="9.996658326561265" id="-20531">
		<tag k="name" v="Borgenstua" />
		<tag k="place" v="isolated_dwelling" />
		<tag k="ssr:stedsnr" v="664464" />
	</node>
	<node lat="60.02208055753998" lon="9.989680551868704" id="-20532">
		<tag k="name" v="Hestebråten" />
		<tag k="place" v="farm" />
		<tag k="ssr:stedsnr" v="665124" />
	</node>
	<node lat="59.98676944818432" lon="9.951061108767522" id="-20533">
		<tag k="name" v="Fjellstad" />
		<tag k="place" v="farm" />
		<tag k="ssr:stedsnr" v="665217" />
	</node>
	<node lat="59.99513333780821" lon="10.118758332740235" id="-20541">
		<tag k="name" v="Harestua" />
		<tag k="place" v="isolated_dwelling" />
		<tag k="ssr:stedsnr" v="722963" />
	</node>
	<node lat="60.0435472255019" lon="9.954883339121112" id="-20542">
		<tag k="name" v="Østre Presterud" />
		<tag k="place" v="isolated_dwelling" />
		<tag k="ssr:stedsnr" v="723302" />
	</node>
	<node lat="59.950661109516105" lon="10.003163892062625" id="-20550">
		<tag k="name" v="Disenbråten" />
		<tag k="place" v="farm" />
		<tag k="ssr:stedsnr" v="724537" />
	</node>
	<node lat="59.950055557612465" lon="10.011847229689812" id="-20552">
		<tag k="name" v="Disenhagen" />
		<tag k="place" v="isolated_dwelling" />
		<tag k="ssr:stedsnr" v="724542" />
	</node>
	<node lat="59.885652776201546" lon="9.795491660133978" id="-20553">
		<tag k="name" v="Klegstad" />
		<tag k="place" v="farm" />
		<tag k="ssr:stedsnr" v="724939" />
	</node>
	<node lat="59.93084444033526" lon="9.99433334113941" id="-20555">
		<tag k="name" v="Øvre Øren" />
		<tag k="place" v="farm" />
		<tag k="ssr:stedsnr" v="725500" />
	</node>
	<node lat="59.98927221843212" lon="9.899925008358714" id="-20556">
		<tag k="name" v="Bjørnetangen" />
		<tag k="place" v="farm" />
		<tag k="ssr:stedsnr" v="726400" />
	</node>
	<node lat="60.01436944162408" lon="10.011855562328007" id="-20557">
		<tag k="name" v="Myra" />
		<tag k="place" v="farm" />
		<tag k="ssr:stedsnr" v="726097" />
	</node>
	<node lat="59.92255555485989" lon="9.88345000044338" id="-20559">
		<tag k="name" v="Løkka" />
		<tag k="place" v="isolated_dwelling" />
		<tag k="ssr:stedsnr" v="726150" />
	</node>
	<node lat="59.92004444585817" lon="9.877572220511531" id="-20560">
		<tag k="name" v="Skredderud" />
		<tag k="place" v="farm" />
		<tag k="ssr:stedsnr" v="726153" />
	</node>
	<node lat="59.987744444167674" lon="9.946269448400882" id="-20561">
		<tag k="name" v="Hære" />
		<tag k="place" v="farm" />
		<tag k="ssr:stedsnr" v="726162" />
	</node>
	<node lat="59.96832014532762" lon="10.021136727680583" id="-20564">
		<tag k="name" v="Hval" />
		<tag k="place" v="hamlet" />
		<tag k="ssr:stedsnr" v="731459" />
	</node>
	<node lat="59.98250277647212" lon="10.163027785149591" id="-20573">
		<tag k="alt_name" v="Natvedtvollen" />
		<tag k="name" v="Natveitvollen" />
		<tag k="place" v="isolated_dwelling" />
		<tag k="ssr:stedsnr" v="732468" />
	</node>
	<node lat="59.997150002978906" lon="10.060950007496125" id="-20574">
		<tag k="name" v="Åsen" />
		<tag k="place" v="farm" />
		<tag k="ssr:stedsnr" v="732480" />
	</node>
	<node lat="59.882486959447576" lon="9.926318163741977" id="-20575">
		<tag k="fixme" v="consider place=hamlet" />
		<tag k="name" v="Bjørndalen" />
		<tag k="place" v="farm" />
		<tag k="ssr:stedsnr" v="732662" />
	</node>
	<node lat="59.85922023392642" lon="9.891723609788707" id="-20576">
		<tag k="fixme" v="consider place=hamlet" />
		<tag k="name" v="Hassel" />
		<tag k="place" v="farm" />
		<tag k="ssr:stedsnr" v="732671" />
	</node>
	<node lat="59.946766670223745" lon="9.816341673122896" id="-20577">
		<tag k="name" v="Fagernes" />
		<tag k="place" v="farm" />
		<tag k="ssr:stedsnr" v="732851" />
	</node>
	<node lat="59.9593420562933" lon="9.77039007355866" id="-20580">
		<tag k="fixme" v="consider place=hamlet" />
		<tag k="name" v="Åsterud" />
		<tag k="place" v="farm" />
		<tag k="ssr:stedsnr" v="732792" />
	</node>
	<node lat="59.913981323543545" lon="9.96224378396533" id="-20581">
		<tag k="fixme" v="consider place=hamlet" />
		<tag k="name" v="Holsrud" />
		<tag k="place" v="farm" />
		<tag k="ssr:stedsnr" v="732835" />
	</node>
	<node lat="59.969580672349224" lon="9.973567088999562" id="-20582">
		<tag k="fixme" v="consider place=hamlet" />
		<tag k="name" v="Råen" />
		<tag k="place" v="farm" />
		<tag k="ssr:stedsnr" v="733470" />
	</node>
	<node lat="60.01702149728247" lon="9.877327803405105" id="-20586">
		<tag k="alt_name" v="Hilsen" />
		<tag k="name" v="Helsen" />
		<tag k="place" v="hamlet" />
		<tag k="ssr:stedsnr" v="733947" />
	</node>
	<node lat="60.00401389242331" lon="10.175649993492813" id="-20588">
		<tag k="name" v="Myrbråtan" />
		<tag k="place" v="isolated_dwelling" />
		<tag k="ssr:stedsnr" v="734460" />
	</node>
	<node lat="60.00562132529719" lon="10.023818042585257" id="-20589">
		<tag k="fixme" v="consider place=hamlet" />
		<tag k="name" v="Jaren" />
		<tag k="place" v="farm" />
		<tag k="ssr:stedsnr" v="734465" />
	</node>
	<node lat="59.94067777738164" lon="9.977094446614393" id="-20591">
		<tag k="name" v="Utrimark" />
		<tag k="place" v="farm" />
		<tag k="ssr:stedsnr" v="751099" />
	</node>
	<node lat="59.994008336995435" lon="9.964283337873297" id="-20593">
		<tag k="name" v="Flannum" />
		<tag k="place" v="farm" />
		<tag k="ssr:stedsnr" v="755243" />
	</node>
	<node lat="59.89302500319122" lon="9.759766673635156" id="-20596">
		<tag k="leisure" v="pitch" />
		<tag k="name" v="Moløkka" />
		<tag k="ssr:stedsnr" v="764069" />
	</node>
	<node lat="59.96693610801195" lon="9.996652785941036" id="-20597">
		<tag k="leisure" v="park" />
		<tag k="name" v="Strandparken" />
		<tag k="ssr:stedsnr" v="767885" />
	</node>
	<node lat="60.01158350600613" lon="9.88323425742801" id="-20599">
		<tag k="fixme" v="consider place=hamlet" />
		<tag k="name" v="Asbjørnhus" />
		<tag k="place" v="farm" />
		<tag k="ssr:stedsnr" v="768322" />
	</node>
	<node lat="60.008124998455244" lon="9.88872777773701" id="-20600">
		<tag k="name" v="Nordre Gunnhus" />
		<tag k="place" v="farm" />
		<tag k="ssr:stedsnr" v="768323" />
	</node>
</osm>
