<?xml version="1.0" encoding="UTF-8"?>
<osm generator="osmapis" version="0.6">
	<node id="-286718" lat="59.9817941285" lon="10.0880525507">
		<tag k="name" v="Damtjern" />
		<tag k="natural" v="water" />
		<tag k="ssr:stedsnr" v="116858" />
	</node>
	<node id="-286714" lat="60.0324611093" lon="9.89521388253">
		<tag k="name" v="Svartputt" />
		<tag k="natural" v="water" />
		<tag k="ssr:stedsnr" v="116277" />
		<tag k="water" v="pond" />
	</node>
	<node id="-286705" lat="59.9910666684" lon="10.1511194503">
		<tag k="name" v="Ringeputt" />
		<tag k="natural" v="water" />
		<tag k="ssr:stedsnr" v="103271" />
		<tag k="water" v="pond" />
	</node>
	<node id="-286695" lat="59.9154361087" lon="10.0678972187">
		<tag k="name" v="Fjelldammen" />
		<tag k="natural" v="water" />
		<tag k="ssr:stedsnr" v="101682" />
	</node>
	<node id="-286693" lat="59.9481305548" lon="10.0668166579">
		<tag k="name" v="Snelletjern" />
		<tag k="natural" v="water" />
		<tag k="ssr:stedsnr" v="101662" />
	</node>
	<node id="-286692" lat="59.9390055514" lon="10.0702638823">
		<tag k="name" v="Butjern" />
		<tag k="natural" v="water" />
		<tag k="ssr:stedsnr" v="101653" />
	</node>
	<node id="-286679" lat="60.0795055524" lon="9.92325277757">
		<tag k="alt_name" v="Nordre Stupellatjern" />
		<tag k="name" v="Nordre Stuphelltjernet" />
		<tag k="natural" v="water" />
		<tag k="ssr:stedsnr" v="65884" />
	</node>
	<node id="-286673" lat="60.1246815248" lon="9.87021960793">
		<tag k="name" v="Hundetjenna" />
		<tag k="natural" v="water" />
		<tag k="ssr:stedsnr" v="65823" />
		<tag k="water" v="lake" />
	</node>
	<node id="-286672" lat="60.1334249959" lon="9.91952500601">
		<tag k="alt_name" v="Steinstjern" />
		<tag k="name" v="Steintjern" />
		<tag k="natural" v="water" />
		<tag k="ssr:stedsnr" v="65820" />
	</node>
	<node id="-286670" lat="59.979325001" lon="10.1132749931">
		<tag k="name" v="Svarttjern" />
		<tag k="natural" v="water" />
		<tag k="ssr:stedsnr" v="65477" />
	</node>
	<node id="-286669" lat="59.9747027736" lon="10.1706166638">
		<tag k="alt_name" v="Kimerud Ventjern" />
		<tag k="name" v="Ventjern" />
		<tag k="natural" v="water" />
		<tag k="ssr:stedsnr" v="65476" />
	</node>
	<node id="-286663" lat="59.985045472" lon="10.1657076791">
		<tag k="name" v="Rokketjern" />
		<tag k="natural" v="water" />
		<tag k="ssr:stedsnr" v="65435" />
		<tag k="water" v="lake" />
	</node>
	<node id="-286661" lat="59.8813702895" lon="9.98727560261">
		<tag k="name" v="Store Vindsjø" />
		<tag k="natural" v="water" />
		<tag k="ssr:stedsnr" v="65346" />
	</node>
	<node id="-286660" lat="59.8784999956" lon="9.99438888141">
		<tag k="name" v="Vesle Vindsjø" />
		<tag k="natural" v="water" />
		<tag k="ssr:stedsnr" v="65344" />
	</node>
	<node id="-286659" lat="59.8763416658" lon="10.0057027783">
		<tag k="name" v="Svarttjern" />
		<tag k="natural" v="water" />
		<tag k="ssr:stedsnr" v="65342" />
	</node>
	<node id="-286656" lat="59.9554444485" lon="9.87324166333">
		<tag k="name" v="Igletjern" />
		<tag k="natural" v="water" />
		<tag k="ssr:stedsnr" v="64763" />
	</node>
	<node id="-286655" lat="59.9481555594" lon="10.1338972262">
		<tag k="name" v="De pene tjerna" />
		<tag k="natural" v="water" />
		<tag k="ssr:stedsnr" v="64396" />
		<tag k="water" v="lake" />
	</node>
	<node id="-286652" lat="59.9578416656" lon="10.0874000006">
		<tag k="name" v="Åsvanna" />
		<tag k="natural" v="water" />
		<tag k="ssr:stedsnr" v="64472" />
		<tag k="water" v="lake" />
	</node>
	<node id="-286643" lat="60.0466888874" lon="9.88139722619">
		<tag k="name" v="Asketjernmyra" />
		<tag k="natural" v="water" />
		<tag k="ssr:stedsnr" v="59059" />
	</node>
	<node id="-286637" lat="60.0192000025" lon="9.82620000151">
		<tag k="name" v="Verensbekken" />
		<tag k="ssr:stedsnr" v="58549" />
		<tag k="waterway" v="stream" />
	</node>
	<node id="-286630" lat="59.9077222195" lon="10.0085194469">
		<tag k="name" v="Sønstebybekken" />
		<tag k="ssr:stedsnr" v="57594" />
		<tag k="waterway" v="stream" />
	</node>
	<node id="-286629" lat="59.9012472196" lon="10.0062138878">
		<tag k="name" v="Paddeputt" />
		<tag k="natural" v="water" />
		<tag k="ssr:stedsnr" v="57592" />
		<tag k="water" v="pond" />
	</node>
	<node id="-286616" lat="60.0359944452" lon="9.89713889447">
		<tag k="name" v="Løken" />
		<tag k="ssr:stedsnr" v="55286" />
		<tag k="waterway" v="stream" />
	</node>
	<node id="-286609" lat="59.9562055546" lon="10.1664027839">
		<tag k="name" v="Seterputten" />
		<tag k="natural" v="water" />
		<tag k="ssr:stedsnr" v="300083" />
		<tag k="water" v="pond" />
	</node>
	<node id="-286606" lat="60.0576694432" lon="9.80275276969">
		<tag k="name" v="Fillebakkbekken" />
		<tag k="ssr:stedsnr" v="42668" />
		<tag k="waterway" v="stream" />
	</node>
	<node id="-286592" lat="59.8911638889" lon="10.0675277819">
		<tag k="name" v="Okseøye" />
		<tag k="natural" v="water" />
		<tag k="ssr:stedsnr" v="40711" />
		<tag k="water" v="pond" />
	</node>
	<node id="-286585" lat="59.9681194401" lon="10.0934861172">
		<tag k="name" v="Tretjerna" />
		<tag k="natural" v="water" />
		<tag k="ssr:stedsnr" v="40089" />
		<tag k="water" v="lake" />
	</node>
	<node id="-286582" lat="59.9754611072" lon="10.2651916636">
		<tag k="name" v="Kusandvika" />
		<tag k="natural" v="bay" />
		<tag k="ssr:stedsnr" v="26323" />
	</node>
	<node id="-286575" lat="60.0059277766" lon="10.1297111051">
		<tag k="fixme" v="multiple name tags, choose one and add the other to alt_name" />
		<tag k="name" v="Askerudbekken;Askerudelva" />
		<tag k="ssr:stedsnr" v="5408" />
		<tag k="waterway" v="stream" />
	</node>
	<node id="-286563" lat="59.921074997" lon="9.77891666738">
		<tag k="alt_name" v="Holmetjern" />
		<tag k="name" v="Holmentjern" />
		<tag k="natural" v="water" />
		<tag k="ssr:stedsnr" v="4873" />
	</node>
	<node id="-286561" lat="59.9270666648" lon="9.71567500587">
		<tag k="alt_name" v="Løkeelva" />
		<tag k="name" v="Løken" />
		<tag k="ssr:stedsnr" v="4868" />
		<tag k="waterway" v="river" />
	</node>
	<node id="-286559" lat="59.9301712394" lon="9.87126101597">
		<tag k="name" v="Koplandtjern" />
		<tag k="natural" v="water" />
		<tag k="ssr:stedsnr" v="4855" />
	</node>
	<node id="-286556" lat="60.1297027741" lon="9.93072499555">
		<tag k="name" v="Kroktjern" />
		<tag k="natural" v="water" />
		<tag k="ssr:stedsnr" v="4839" />
	</node>
	<node id="-286555" lat="59.9626500004" lon="9.87351111669">
		<tag k="name" v="Butjern" />
		<tag k="natural" v="water" />
		<tag k="ssr:stedsnr" v="4788" />
	</node>
	<node id="-286549" lat="59.9817845033" lon="10.1534811777">
		<tag k="alt_name" v="Dignes Kroktjern;Dignes-Kroktjern" />
		<tag k="name" v="Kroktjern" />
		<tag k="natural" v="water" />
		<tag k="ssr:stedsnr" v="4442" />
	</node>
	<node id="-286547" lat="59.9121514452" lon="10.0331625078">
		<tag k="name" v="Midttjern" />
		<tag k="natural" v="water" />
		<tag k="ssr:stedsnr" v="4410" />
	</node>
	<node id="-286523" lat="59.9499555599" lon="9.97999444415">
		<tag k="name" v="Skinnesvika" />
		<tag k="natural" v="bay" />
		<tag k="ssr:stedsnr" v="967505" />
	</node>
	<node id="-286522" lat="59.9974222184" lon="10.1115388804">
		<tag k="name" v="Kjellerbekken" />
		<tag k="ssr:stedsnr" v="965966" />
		<tag k="waterway" v="stream" />
	</node>
	<node id="-286519" lat="60.1584138912" lon="9.91310277276">
		<tag k="name" v="Styggdalsdammen" />
		<tag k="natural" v="water" />
		<tag k="ssr:stedsnr" v="965561" />
		<tag k="water" v="pond" />
	</node>
	<node id="-286515" lat="60.109988891" lon="9.87839166923">
		<tag k="alt_name" v="Asketjerna" />
		<tag k="name" v="Asketjern" />
		<tag k="natural" v="water" />
		<tag k="ssr:stedsnr" v="952047" />
	</node>
	<node id="-286512" lat="60.0172000004" lon="9.89685000586">
		<tag k="alt_name" v="Gunnhustjern" />
		<tag k="name" v="Gunnhustjernet" />
		<tag k="natural" v="water" />
		<tag k="ssr:stedsnr" v="915955" />
	</node>
	<node id="-286508" lat="60.1443972182" lon="9.94761388885">
		<tag k="name" v="Svarttjernputten" />
		<tag k="natural" v="water" />
		<tag k="ssr:stedsnr" v="909520" />
		<tag k="water" v="pond" />
	</node>
	<node id="-286502" lat="59.9038555526" lon="10.0988277713">
		<tag k="name" v="Livsfaretjernet" />
		<tag k="natural" v="water" />
		<tag k="ssr:stedsnr" v="907008" />
	</node>
	<node id="-286501" lat="59.9592916675" lon="9.98859723011">
		<tag k="name" v="Øya" />
		<tag k="place" v="island" />
		<tag k="ssr:stedsnr" v="906564" />
	</node>
	<node id="-286497" lat="59.9939333368" lon="10.1068333351">
		<tag k="name" v="Auretjernbekken" />
		<tag k="ssr:stedsnr" v="905965" />
		<tag k="waterway" v="stream" />
	</node>
	<node id="-286489" lat="60.0052055565" lon="9.87704722907">
		<tag k="name" v="Gunnhusevja" />
		<tag k="natural" v="water" />
		<tag k="ssr:stedsnr" v="950358" />
		<tag k="water" v="lake" />
	</node>
	<node id="-286486" lat="59.9756277737" lon="10.1188194441">
		<tag k="name" v="Dritarudtangen" />
		<tag k="place" v="locality" />
		<tag k="ssr:stedsnr" v="950069" />
	</node>
	<node id="-286483" lat="60.005113885" lon="10.1023444389">
		<tag k="alt_name" v="Melåelva" />
		<tag k="name" v="Melåa" />
		<tag k="ssr:stedsnr" v="855413" />
		<tag k="waterway" v="stream" />
	</node>
	<node id="-286480" lat="59.9806027761" lon="9.86250000888">
		<tag k="alt_name" v="Nordgruvetjern" />
		<tag k="name" v="Nordgruvtjern" />
		<tag k="natural" v="water" />
		<tag k="ssr:stedsnr" v="854781" />
	</node>
	<node id="-286478" lat="60.1193505667" lon="9.92310318402">
		<tag k="name" v="Totjerna" />
		<tag k="natural" v="water" />
		<tag k="ssr:stedsnr" v="854816" />
		<tag k="water" v="lake" />
	</node>
	<node id="-286471" lat="59.872450149" lon="10.0218018321">
		<tag k="name" v="Jøssjø" />
		<tag k="natural" v="water" />
		<tag k="ssr:stedsnr" v="854322" />
		<tag k="water" v="lake" />
	</node>
	<node id="-286470" lat="59.8637291419" lon="10.0621514206">
		<tag k="alt_name" v="Glitrevann;Glitrevatnet" />
		<tag k="name" v="Glitre" />
		<tag k="natural" v="water" />
		<tag k="ssr:stedsnr" v="854319" />
		<tag k="water" v="lake" />
	</node>
	<node id="-286466" lat="59.8973527819" lon="9.76647500361">
		<tag k="name" v="Branntjern" />
		<tag k="natural" v="water" />
		<tag k="ssr:stedsnr" v="853653" />
	</node>
	<node id="-286463" lat="59.9638611131" lon="10.176108327">
		<tag k="alt_name" v="Kimerud Langtjern" />
		<tag k="name" v="Langtjern" />
		<tag k="natural" v="water" />
		<tag k="ssr:stedsnr" v="853457" />
	</node>
	<node id="-286462" lat="59.892430552" lon="10.0442388894">
		<tag k="name" v="Kroktjern" />
		<tag k="natural" v="water" />
		<tag k="ssr:stedsnr" v="853308" />
	</node>
	<node id="-286461" lat="59.9928138849" lon="10.0365277774">
		<tag k="name" v="Kråkeholmen" />
		<tag k="natural" v="cape" />
		<tag k="ssr:stedsnr" v="848814" />
	</node>
	<node id="-286447" lat="60.0056972242" lon="10.1683055564">
		<tag k="fixme" v="multiple name tags, choose one and add the other to alt_name" />
		<tag k="name" v="Dyrbakkbekken;Dyrbakkelva" />
		<tag k="ssr:stedsnr" v="794412" />
		<tag k="waterway" v="stream" />
	</node>
	<node id="-286431" lat="60.0284805567" lon="9.89897500661">
		<tag k="alt_name" v="Okseaue" />
		<tag k="name" v="Oksauge" />
		<tag k="natural" v="water" />
		<tag k="ssr:stedsnr" v="915923" />
	</node>
	<node id="-286423" lat="60.0380888897" lon="9.9757250015">
		<tag k="name" v="Damtjern" />
		<tag k="natural" v="water" />
		<tag k="ssr:stedsnr" v="915348" />
	</node>
	<node id="-286420" lat="60.0535888931" lon="9.86978055044">
		<tag k="name" v="Svarttjern" />
		<tag k="natural" v="water" />
		<tag k="ssr:stedsnr" v="914894" />
	</node>
	<node id="-286412" lat="59.9707249989" lon="9.93199721834">
		<tag k="name" v="Kaggefoss" />
		<tag k="natural" v="waterfall" />
		<tag k="ssr:stedsnr" v="914787" />
	</node>
	<node id="-286404" lat="59.8931999966" lon="9.83047500685">
		<tag k="name" v="Goplerudtjern" />
		<tag k="natural" v="water" />
		<tag k="ssr:stedsnr" v="914691" />
	</node>
	<node id="-286399" lat="59.8872361108" lon="9.95318332769">
		<tag k="name" v="Vadbekk" />
		<tag k="ssr:stedsnr" v="769877" />
		<tag k="waterway" v="stream" />
	</node>
	<node id="-286387" lat="59.9097888926" lon="10.1175499953">
		<tag k="alt_name" v="Åsvatna" />
		<tag k="name" v="Åsvanna" />
		<tag k="natural" v="water" />
		<tag k="ssr:stedsnr" v="914414" />
		<tag k="water" v="lake" />
	</node>
	<node id="-286386" lat="59.9431750013" lon="10.1377999992">
		<tag k="name" v="Kroktjern" />
		<tag k="natural" v="water" />
		<tag k="ssr:stedsnr" v="914375" />
	</node>
	<node id="-286381" lat="59.9439472245" lon="10.0779583337">
		<tag k="name" v="Ingeborgputt" />
		<tag k="natural" v="water" />
		<tag k="ssr:stedsnr" v="768664" />
	</node>
	<node id="-286380" lat="59.9461277744" lon="10.0780666625">
		<tag k="name" v="Vakkertjern" />
		<tag k="natural" v="water" />
		<tag k="ssr:stedsnr" v="768661" />
	</node>
	<node id="-286379" lat="59.9033888906" lon="10.0851833292">
		<tag k="alt_name" v="Langvann" />
		<tag k="name" v="Langevann" />
		<tag k="natural" v="water" />
		<tag k="ssr:stedsnr" v="914334" />
		<tag k="water" v="lake" />
	</node>
	<node id="-286374" lat="59.9478722184" lon="9.80877778377">
		<tag k="name" v="Storelva" />
		<tag k="ssr:stedsnr" v="759866" />
		<tag k="waterway" v="river" />
	</node>
	<node id="-286365" lat="60.1433305579" lon="9.9051388905">
		<tag k="name" v="Skrettebergbekken" />
		<tag k="ssr:stedsnr" v="909159" />
		<tag k="waterway" v="stream" />
	</node>
	<node id="-286351" lat="60.0501722246" lon="9.91320000539">
		<tag k="name" v="Kroktjern" />
		<tag k="natural" v="water" />
		<tag k="ssr:stedsnr" v="907199" />
	</node>
	<node id="-286349" lat="59.9745194427" lon="10.0905638886">
		<tag k="name" v="Søkktjernputten" />
		<tag k="natural" v="water" />
		<tag k="ssr:stedsnr" v="907074" />
		<tag k="water" v="pond" />
	</node>
	<node id="-286345" lat="60.018266669" lon="9.95271944382">
		<tag k="name" v="Askeløken" />
		<tag k="ssr:stedsnr" v="905298" />
		<tag k="waterway" v="stream" />
	</node>
	<node id="-286343" lat="60.1024055539" lon="9.90023889089">
		<tag k="alt_name" v="Driterdalselva" />
		<tag k="name" v="Dritardalselva" />
		<tag k="ssr:stedsnr" v="733815" />
		<tag k="waterway" v="river" />
	</node>
	<node id="-286340" lat="59.9704999971" lon="10.1653777791">
		<tag k="name" v="Andtjern" />
		<tag k="natural" v="water" />
		<tag k="ssr:stedsnr" v="731436" />
	</node>
	<node id="-286338" lat="59.9823277815" lon="10.2501166703">
		<tag k="name" v="Badstuvika" />
		<tag k="natural" v="bay" />
		<tag k="ssr:stedsnr" v="726216" />
	</node>
	<node id="-286332" lat="60.1288138924" lon="9.89251945344">
		<tag k="name" v="Vestre Silnakken" />
		<tag k="natural" v="water" />
		<tag k="ssr:stedsnr" v="723041" />
	</node>
	<node id="-286331" lat="59.9831694441" lon="10.1359361174">
		<tag k="name" v="Sandtjernputten" />
		<tag k="natural" v="water" />
		<tag k="ssr:stedsnr" v="722984" />
		<tag k="water" v="pond" />
	</node>
	<node id="-286329" lat="59.9844027786" lon="10.1103500014">
		<tag k="name" v="Svartdalsbekken" />
		<tag k="ssr:stedsnr" v="722977" />
		<tag k="waterway" v="stream" />
	</node>
	<node id="-286317" lat="59.91855104" lon="9.9697792846">
		<tag k="alt_name" v="Vassbotn" />
		<tag k="name" v="Vassbonn" />
		<tag k="natural" v="bay" />
		<tag k="ssr:stedsnr" v="892582" />
	</node>
	<node id="-286305" lat="59.9570805529" lon="9.9359222169">
		<tag k="name" v="Kistefoss" />
		<tag k="ssr:stedsnr" v="890884" />
		<tag k="waterway" v="rapids" />
	</node>
	<node id="-286304" lat="59.8802277773" lon="10.0762888953">
		<tag k="name" v="Gørrbuvika" />
		<tag k="natural" v="bay" />
		<tag k="ssr:stedsnr" v="890725" />
	</node>
	<node id="-286303" lat="59.8763444405" lon="10.0669277821">
		<tag k="name" v="Kattøya" />
		<tag k="place" v="island" />
		<tag k="ssr:stedsnr" v="890723" />
	</node>
	<node id="-286301" lat="60.1145611082" lon="9.96192499343">
		<tag k="name" v="Haugfoss" />
		<tag k="natural" v="waterfall" />
		<tag k="ssr:stedsnr" v="890715" />
	</node>
	<node id="-286294" lat="59.9581472255" lon="10.0850638861">
		<tag k="name" v="Åsvannputten" />
		<tag k="natural" v="water" />
		<tag k="ssr:stedsnr" v="890689" />
		<tag k="water" v="pond" />
	</node>
	<node id="-286286" lat="59.9062500034" lon="10.0717972235">
		<tag k="fixme" v="multiple name tags, choose one and add the other to alt_name" />
		<tag k="name" v="Storrtjern;Svarttjern" />
		<tag k="natural" v="water" />
		<tag k="ssr:stedsnr" v="671342" />
	</node>
	<node id="-286277" lat="60.0252138917" lon="9.9203722156">
		<tag k="name" v="Kimetjern" />
		<tag k="natural" v="water" />
		<tag k="ssr:stedsnr" v="662277" />
	</node>
	<node id="-286269" lat="59.9860750017" lon="10.1468444371">
		<tag k="name" v="Oksetjern" />
		<tag k="natural" v="water" />
		<tag k="ssr:stedsnr" v="648308" />
	</node>
	<node id="-286268" lat="60.1036527787" lon="9.86842221819">
		<tag k="name" v="Lauvåstjern" />
		<tag k="natural" v="water" />
		<tag k="ssr:stedsnr" v="648117" />
	</node>
	<node id="-286267" lat="59.9530666659" lon="10.060477784">
		<tag k="name" v="Låga" />
		<tag k="natural" v="water" />
		<tag k="ssr:stedsnr" v="647667" />
		<tag k="water" v="pond" />
	</node>
	<node id="-286265" lat="59.9060805558" lon="10.0475361044">
		<tag k="name" v="Gamlevollsputten" />
		<tag k="natural" v="water" />
		<tag k="ssr:stedsnr" v="647712" />
		<tag k="water" v="pond" />
	</node>
	<node id="-286263" lat="60.0177333305" lon="9.81579999127">
		<tag k="name" v="Damtjern" />
		<tag k="natural" v="water" />
		<tag k="ssr:stedsnr" v="733952" />
	</node>
	<node id="-286261" lat="59.96560278" lon="10.1289055531">
		<tag k="name" v="Brennåsputtene" />
		<tag k="natural" v="water" />
		<tag k="ssr:stedsnr" v="646066" />
		<tag k="water" v="lake" />
	</node>
	<node id="-286260" lat="59.9761055517" lon="10.1302999946">
		<tag k="name" v="Breiliputten" />
		<tag k="natural" v="water" />
		<tag k="ssr:stedsnr" v="646065" />
		<tag k="water" v="pond" />
	</node>
	<node id="-286255" lat="59.9659638881" lon="10.1162833289">
		<tag k="name" v="Sandtjern" />
		<tag k="natural" v="water" />
		<tag k="ssr:stedsnr" v="733473" />
	</node>
	<node id="-286254" lat="59.9796111088" lon="10.1719555492">
		<tag k="alt_name" v="Kimerud Kroktjern" />
		<tag k="name" v="Kroktjern" />
		<tag k="natural" v="water" />
		<tag k="ssr:stedsnr" v="733471" />
	</node>
	<node id="-286250" lat="60.0394749976" lon="10.0468027788">
		<tag k="alt_name" v="Henoa" />
		<tag k="name" v="Henåa" />
		<tag k="ssr:stedsnr" v="733300" />
		<tag k="waterway" v="river" />
	</node>
	<node id="-286249" lat="59.9908396101" lon="9.84060820274">
		<tag k="alt_name" v="Skarstjern" />
		<tag k="name" v="Skardtjern" />
		<tag k="natural" v="water" />
		<tag k="ssr:stedsnr" v="732947" />
	</node>
	<node id="-286245" lat="60.0478333317" lon="9.91530834054">
		<tag k="name" v="Kroktjerna" />
		<tag k="natural" v="water" />
		<tag k="ssr:stedsnr" v="732910" />
		<tag k="water" v="lake" />
	</node>
	<node id="-286244" lat="59.9311703144" lon="9.77143992762">
		<tag k="name" v="Kroktjern" />
		<tag k="natural" v="water" />
		<tag k="ssr:stedsnr" v="732862" />
	</node>
	<node id="-286238" lat="59.9793861078" lon="9.92196389306">
		<tag k="name" v="Snarumselva" />
		<tag k="ssr:stedsnr" v="732800" />
		<tag k="waterway" v="river" />
	</node>
	<node id="-286232" lat="60.0186333328" lon="10.2447111158">
		<tag k="name" v="Tyrifjorden" />
		<tag k="natural" v="water" />
		<tag k="ssr:stedsnr" v="732462" />
		<tag k="water" v="lake" />
	</node>
	<node id="-286231" lat="59.9366888872" lon="10.0682916669">
		<tag k="name" v="Lang-Heggesjø" />
		<tag k="natural" v="water" />
		<tag k="ssr:stedsnr" v="732381" />
		<tag k="water" v="lake" />
	</node>
	<node id="-286229" lat="59.9095749992" lon="10.026650006">
		<tag k="name" v="Damtjern" />
		<tag k="natural" v="water" />
		<tag k="ssr:stedsnr" v="732340" />
	</node>
	<node id="-286228" lat="59.8894555531" lon="9.98857499686">
		<tag k="name" v="Maurtjern" />
		<tag k="natural" v="water" />
		<tag k="ssr:stedsnr" v="732329" />
	</node>
	<node id="-286225" lat="59.8914055576" lon="10.0973277859">
		<tag k="name" v="Trollmyrputten" />
		<tag k="natural" v="water" />
		<tag k="ssr:stedsnr" v="628020" />
		<tag k="water" v="pond" />
	</node>
	<node id="-286203" lat="59.9475722178" lon="10.0183222265">
		<tag k="name" v="Dølbekken" />
		<tag k="ssr:stedsnr" v="724540" />
		<tag k="waterway" v="stream" />
	</node>
	<node id="-286201" lat="59.9481499999" lon="9.979797221">
		<tag k="name" v="Tomasvika" />
		<tag k="natural" v="bay" />
		<tag k="ssr:stedsnr" v="724519" />
	</node>
	<node id="-286200" lat="59.9187805584" lon="10.0113055511">
		<tag k="name" v="Helletjern" />
		<tag k="natural" v="water" />
		<tag k="ssr:stedsnr" v="724513" />
	</node>
	<node id="-286196" lat="59.9820083378" lon="10.0982277804">
		<tag k="name" v="Hundtjern" />
		<tag k="natural" v="water" />
		<tag k="ssr:stedsnr" v="722949" />
	</node>
	<node id="-286195" lat="60.0249194458" lon="9.90051945263">
		<tag k="name" v="Vesle Sysletjern" />
		<tag k="natural" v="water" />
		<tag k="ssr:stedsnr" v="722297" />
	</node>
	<node id="-286192" lat="59.9796527819" lon="9.93714721427">
		<tag k="alt_name" v="Gråbekk" />
		<tag k="name" v="Gråbekken" />
		<tag k="ssr:stedsnr" v="610952" />
		<tag k="waterway" v="stream" />
	</node>
	<node id="-286177" lat="60.0495672814" lon="9.92345818531">
		<tag k="name" v="Søndre Langsjø" />
		<tag k="natural" v="water" />
		<tag k="ssr:stedsnr" v="588741" />
		<tag k="water" v="lake" />
	</node>
	<node id="-286169" lat="59.8928749973" lon="10.0878138907">
		<tag k="name" v="Vesle Elgtjern" />
		<tag k="natural" v="water" />
		<tag k="ssr:stedsnr" v="586705" />
	</node>
	<node id="-286168" lat="59.8917339883" lon="10.0839174965">
		<tag k="name" v="Store Elgtjern" />
		<tag k="natural" v="water" />
		<tag k="ssr:stedsnr" v="586703" />
		<tag k="water" v="lake" />
	</node>
	<node id="-286157" lat="59.9757249978" lon="9.87395556119">
		<tag k="name" v="5-pottingen" />
		<tag k="natural" v="water" />
		<tag k="ssr:stedsnr" v="709826" />
		<tag k="water" v="pond" />
	</node>
	<node id="-286156" lat="60.0481222197" lon="9.84600834136">
		<tag k="name" v="Nedre Uløya" />
		<tag k="place" v="island" />
		<tag k="ssr:stedsnr" v="709682" />
	</node>
	<node id="-286147" lat="60.1162555556" lon="9.92704999658">
		<tag k="name" v="Svarttjern" />
		<tag k="natural" v="water" />
		<tag k="ssr:stedsnr" v="707681" />
	</node>
	<node id="-286144" lat="60.0887750041" lon="9.9529194476">
		<tag k="name" v="Grastjern" />
		<tag k="natural" v="water" />
		<tag k="ssr:stedsnr" v="707678" />
	</node>
	<node id="-286143" lat="59.8710555598" lon="10.0510944533">
		<tag k="name" v="Karusstjern" />
		<tag k="natural" v="water" />
		<tag k="ssr:stedsnr" v="707575" />
	</node>
	<node id="-286142" lat="60.0615694412" lon="9.99207223019">
		<tag k="name" v="Skimyrdammen" />
		<tag k="ssr:stedsnr" v="574085" />
		<tag k="waterway" v="dam" />
	</node>
	<node id="-286138" lat="60.0410027742" lon="9.78733888469">
		<tag k="name" v="Seterbekken" />
		<tag k="ssr:stedsnr" v="704058" />
		<tag k="waterway" v="stream" />
	</node>
	<node id="-286137" lat="60.0065527735" lon="9.82810834">
		<tag k="name" v="Svarttjernbekken" />
		<tag k="ssr:stedsnr" v="544517" />
		<tag k="waterway" v="stream" />
	</node>
	<node id="-286130" lat="59.8873583297" lon="10.0091694374">
		<tag k="name" v="Prestfuruputt" />
		<tag k="natural" v="water" />
		<tag k="ssr:stedsnr" v="542603" />
		<tag k="water" v="pond" />
	</node>
	<node id="-286129" lat="60.0171611082" lon="9.96280556212">
		<tag k="name" v="Rudsbekken" />
		<tag k="ssr:stedsnr" v="541324" />
		<tag k="waterway" v="stream" />
	</node>
	<node id="-286123" lat="59.9765750035" lon="10.0829805635">
		<tag k="name" v="Kroktjern" />
		<tag k="natural" v="water" />
		<tag k="ssr:stedsnr" v="527995" />
	</node>
	<node id="-286115" lat="60.0335664544" lon="9.96679262205">
		<tag k="alt_name" v="Svarterudtjern" />
		<tag k="name" v="Svarterudtjernet" />
		<tag k="natural" v="water" />
		<tag k="ssr:stedsnr" v="490958" />
	</node>
	<node id="-286099" lat="60.0541717943" lon="9.88370153432">
		<tag k="name" v="Vrangen" />
		<tag k="natural" v="water" />
		<tag k="ssr:stedsnr" v="672911" />
	</node>
	<node id="-286097" lat="60.0869277763" lon="9.89237222146">
		<tag k="alt_name" v="Uletjern" />
		<tag k="name" v="Urdetjern" />
		<tag k="natural" v="water" />
		<tag k="ssr:stedsnr" v="672867" />
	</node>
	<node id="-286096" lat="60.1151250039" lon="9.86632500239">
		<tag k="alt_name" v="Lysvannet" />
		<tag k="name" v="Lysevatnet" />
		<tag k="natural" v="water" />
		<tag k="ssr:stedsnr" v="672836" />
	</node>
	<node id="-286095" lat="60.1102999962" lon="9.95945000131">
		<tag k="name" v="Løkelva" />
		<tag k="ssr:stedsnr" v="672834" />
		<tag k="waterway" v="stream" />
	</node>
	<node id="-286088" lat="60.0136388921" lon="10.1659249989">
		<tag k="name" v="Dignestangen" />
		<tag k="natural" v="cape" />
		<tag k="ssr:stedsnr" v="672387" />
	</node>
	<node id="-286085" lat="60.0201916704" lon="10.1301583329">
		<tag k="name" v="Gulsrudtangen" />
		<tag k="natural" v="cape" />
		<tag k="ssr:stedsnr" v="672300" />
	</node>
	<node id="-286082" lat="60.0475868279" lon="9.87830936658">
		<tag k="name" v="Asketjern" />
		<tag k="natural" v="water" />
		<tag k="ssr:stedsnr" v="671894" />
	</node>
	<node id="-286072" lat="59.8855916683" lon="9.91018333184">
		<tag k="name" v="Døvikfossen" />
		<tag k="natural" v="waterfall" />
		<tag k="ssr:stedsnr" v="671690" />
	</node>
	<node id="-286070" lat="59.9006333334" lon="9.84273888579">
		<tag k="name" v="Brennåstjern" />
		<tag k="natural" v="water" />
		<tag k="ssr:stedsnr" v="671673" />
	</node>
	<node id="-286068" lat="59.873952782" lon="9.96391111703">
		<tag k="fixme" v="multiple name tags, choose one and add the other to alt_name" />
		<tag k="name" v="Damtjern;Melumdamtjern" />
		<tag k="natural" v="water" />
		<tag k="ssr:stedsnr" v="671645" />
	</node>
	<node id="-286066" lat="59.9705422784" lon="10.1429176235">
		<tag k="alt_name" v="Breilitjern" />
		<tag k="name" v="Breilivatnet" />
		<tag k="natural" v="water" />
		<tag k="ssr:stedsnr" v="671490" />
		<tag k="water" v="lake" />
	</node>
	<node id="-286059" lat="59.9892138863" lon="10.1475000011">
		<tag k="name" v="Kutjern" />
		<tag k="natural" v="water" />
		<tag k="ssr:stedsnr" v="671433" />
	</node>
	<node id="-286058" lat="59.9842777802" lon="10.0690833261">
		<tag k="name" v="Brenntjern" />
		<tag k="natural" v="water" />
		<tag k="ssr:stedsnr" v="671430" />
	</node>
	<node id="-286056" lat="60.0613916683" lon="9.94203611393">
		<tag k="name" v="Småtjern" />
		<tag k="natural" v="water" />
		<tag k="ssr:stedsnr" v="467755" />
	</node>
	<node id="-286054" lat="60.0927245399" lon="9.88202274026">
		<tag k="name" v="Femtjerna" />
		<tag k="natural" v="water" />
		<tag k="ssr:stedsnr" v="467026" />
	</node>
	<node id="-286049" lat="59.9454722205" lon="9.93437778652">
		<tag k="name" v="Sjulselva" />
		<tag k="ssr:stedsnr" v="465875" />
		<tag k="waterway" v="stream" />
	</node>
	<node id="-286045" lat="59.9625111128" lon="10.1133972295">
		<tag k="name" v="Vesle Sandtjern" />
		<tag k="natural" v="water" />
		<tag k="ssr:stedsnr" v="465067" />
	</node>
	<node id="-286040" lat="60.0065416711" lon="10.0516250003">
		<tag k="name" v="Stallvika" />
		<tag k="natural" v="bay" />
		<tag k="ssr:stedsnr" v="665797" />
	</node>
	<node id="-286036" lat="59.9799555575" lon="10.2548638953">
		<tag k="name" v="Kovavika" />
		<tag k="natural" v="bay" />
		<tag k="ssr:stedsnr" v="665203" />
	</node>
	<node id="-286034" lat="59.9748555532" lon="10.2271527727">
		<tag k="name" v="Svartputt" />
		<tag k="natural" v="water" />
		<tag k="ssr:stedsnr" v="665193" />
	</node>
	<node id="-286029" lat="59.9504361069" lon="9.85515555365">
		<tag k="name" v="Langemyrsputten" />
		<tag k="natural" v="water" />
		<tag k="ssr:stedsnr" v="664800" />
		<tag k="water" v="pond" />
	</node>
	<node id="-286024" lat="59.9220611146" lon="10.092311115">
		<tag k="name" v="Rototjern" />
		<tag k="natural" v="water" />
		<tag k="ssr:stedsnr" v="664039" />
	</node>
	<node id="-286020" lat="59.9550750026" lon="9.98322500727">
		<tag k="name" v="Bjølgerudvika" />
		<tag k="natural" v="bay" />
		<tag k="ssr:stedsnr" v="663539" />
	</node>
	<node id="-286013" lat="59.9309472251" lon="9.94742499508">
		<tag k="name" v="Gravfoss" />
		<tag k="natural" v="waterfall" />
		<tag k="ssr:stedsnr" v="658746" />
	</node>
	<node id="-286008" lat="59.9002250025" lon="9.96755833676">
		<tag k="name" v="Holotjern" />
		<tag k="natural" v="water" />
		<tag k="ssr:stedsnr" v="429645" />
	</node>
	<node id="-286005" lat="59.8999361078" lon="9.99021110918">
		<tag k="fixme" v="multiple name tags, choose one and add the other to alt_name" />
		<tag k="name" v="Kollebekken;Maurtjernbekk" />
		<tag k="ssr:stedsnr" v="429306" />
		<tag k="waterway" v="stream" />
	</node>
	<node id="-285992" lat="59.9648027735" lon="10.1518222294">
		<tag k="name" v="Gampedalstjern" />
		<tag k="natural" v="water" />
		<tag k="ssr:stedsnr" v="421107" />
	</node>
	<node id="-285991" lat="59.9519000025" lon="10.1350083296">
		<tag k="name" v="Drammenstjerna" />
		<tag k="natural" v="water" />
		<tag k="ssr:stedsnr" v="421037" />
		<tag k="water" v="lake" />
	</node>
	<node id="-285990" lat="59.899597222" lon="10.0979916679">
		<tag k="name" v="Karussputten" />
		<tag k="natural" v="water" />
		<tag k="ssr:stedsnr" v="421005" />
		<tag k="water" v="pond" />
	</node>
	<node id="-285973" lat="59.8784194406" lon="9.92088334063">
		<tag k="name" v="Skillebekk" />
		<tag k="ssr:stedsnr" v="390059" />
		<tag k="waterway" v="stream" />
	</node>
	<node id="-285969" lat="60.0092833318" lon="9.97760556417">
		<tag k="name" v="Langsrudbekken" />
		<tag k="ssr:stedsnr" v="362011" />
		<tag k="waterway" v="stream" />
	</node>
	<node id="-285956" lat="59.9310694474" lon="10.0963638876">
		<tag k="name" v="Fjellrosa" />
		<tag k="natural" v="water" />
		<tag k="ssr:stedsnr" v="360025" />
	</node>
	<node id="-285952" lat="59.8961333319" lon="9.91177500711">
		<tag k="name" v="Kongsfoss" />
		<tag k="natural" v="waterfall" />
		<tag k="ssr:stedsnr" v="358061" />
	</node>
	<node id="-285951" lat="60.1125277821" lon="9.9119055512">
		<tag k="name" v="Igleputten" />
		<tag k="natural" v="water" />
		<tag k="ssr:stedsnr" v="358057" />
		<tag k="water" v="pond" />
	</node>
	<node id="-285949" lat="60.0573499981" lon="9.94472499798">
		<tag k="name" v="Langsjøbekken" />
		<tag k="ssr:stedsnr" v="490892" />
		<tag k="waterway" v="stream" />
	</node>
	<node id="-285948" lat="60.1080677108" lon="9.86271408984">
		<tag k="name" v="Damtjern" />
		<tag k="natural" v="water" />
		<tag k="ssr:stedsnr" v="490827" />
	</node>
	<node id="-285942" lat="60.0098250014" lon="9.82473055886">
		<tag k="name" v="Svarttjern" />
		<tag k="natural" v="water" />
		<tag k="ssr:stedsnr" v="490964" />
	</node>
	<node id="-285934" lat="59.9343182702" lon="9.74517761035">
		<tag k="alt_name" v="Løvtjern" />
		<tag k="name" v="Lauvtjern" />
		<tag k="natural" v="water" />
		<tag k="ssr:stedsnr" v="489867" />
	</node>
	<node id="-285924" lat="59.9730444483" lon="9.87470833103">
		<tag k="name" v="Stulldammen" />
		<tag k="natural" v="water" />
		<tag k="ssr:stedsnr" v="489781" />
	</node>
	<node id="-285918" lat="59.9639861146" lon="10.0333249966">
		<tag k="name" v="Hvalsbekken" />
		<tag k="ssr:stedsnr" v="489517" />
		<tag k="waterway" v="stream" />
	</node>
	<node id="-285917" lat="59.9751194421" lon="10.2031333342">
		<tag k="alt_name" v="Allerbekk" />
		<tag k="name" v="Alerbekken" />
		<tag k="ssr:stedsnr" v="489515" />
		<tag k="waterway" v="stream" />
	</node>
	<node id="-285913" lat="59.947875004" lon="10.1429027863">
		<tag k="name" v="Bjelketjern" />
		<tag k="natural" v="water" />
		<tag k="ssr:stedsnr" v="489411" />
	</node>
	<node id="-285912" lat="59.95833611" lon="10.1301944482">
		<tag k="alt_name" v="Ultjern" />
		<tag k="name" v="Urdtjern" />
		<tag k="natural" v="water" />
		<tag k="ssr:stedsnr" v="489407" />
	</node>
	<node id="-285911" lat="59.9591333321" lon="10.1358055586">
		<tag k="name" v="Vesle Elgstjern" />
		<tag k="natural" v="water" />
		<tag k="ssr:stedsnr" v="489406" />
	</node>
	<node id="-285910" lat="60.0456222225" lon="9.96727777033">
		<tag k="name" v="Justadtjern" />
		<tag k="natural" v="water" />
		<tag k="ssr:stedsnr" v="345727" />
	</node>
	<node id="-285907" lat="60.0605999978" lon="9.83815555667">
		<tag k="name" v="Korsbøentjern" />
		<tag k="natural" v="water" />
		<tag k="ssr:stedsnr" v="345674" />
		<tag k="water" v="lake" />
	</node>
	<node id="-285893" lat="59.9108361092" lon="9.81224166706">
		<tag k="name" v="Vesle Sterkebytjern" />
		<tag k="natural" v="water" />
		<tag k="ssr:stedsnr" v="482977" />
	</node>
	<node id="-285888" lat="59.9479777784" lon="9.98740000507">
		<tag k="name" v="Kråkeholmen" />
		<tag k="place" v="island" />
		<tag k="ssr:stedsnr" v="481549" />
	</node>
	<node id="-285887" lat="59.9546972228" lon="9.75295833834">
		<tag k="name" v="Åsterudbekken" />
		<tag k="ssr:stedsnr" v="335617" />
		<tag k="waterway" v="stream" />
	</node>
	<node id="-285883" lat="60.0385138845" lon="9.92390000866">
		<tag k="name" v="Hornetjern" />
		<tag k="natural" v="water" />
		<tag k="ssr:stedsnr" v="480257" />
	</node>
	<node id="-285882" lat="60.1202027748" lon="9.88717500184">
		<tag k="name" v="Svartdalsputten" />
		<tag k="natural" v="water" />
		<tag k="ssr:stedsnr" v="480048" />
		<tag k="water" v="pond" />
	</node>
	<node id="-285876" lat="60.0434055597" lon="9.88481111989">
		<tag k="name" v="Kattjern" />
		<tag k="natural" v="water" />
		<tag k="ssr:stedsnr" v="479280" />
	</node>
	<node id="-285868" lat="59.9106461282" lon="9.76876055723">
		<tag k="name" v="Dipletjern" />
		<tag k="natural" v="water" />
		<tag k="ssr:stedsnr" v="307815" />
	</node>
	<node id="-285862" lat="59.9533777818" lon="10.1874666607">
		<tag k="name" v="Djupombekken" />
		<tag k="ssr:stedsnr" v="300118" />
		<tag k="waterway" v="stream" />
	</node>
	<node id="-285858" lat="59.9660305596" lon="10.0720861111">
		<tag k="name" v="Luseputt" />
		<tag k="natural" v="water" />
		<tag k="ssr:stedsnr" v="467995" />
		<tag k="water" v="pond" />
	</node>
	<node id="-285856" lat="60.0583249974" lon="9.84158332813">
		<tag k="name" v="Kalvetreøya" />
		<tag k="place" v="island" />
		<tag k="ssr:stedsnr" v="467698" />
	</node>
	<node id="-285843" lat="59.9281833307" lon="9.71509166344">
		<tag k="name" v="Gamleandershølen" />
		<tag k="place" v="locality" />
		<tag k="ssr:stedsnr" v="461072" />
	</node>
	<node id="-285837" lat="60.0673333376" lon="9.83732221944">
		<tag k="name" v="Øyene" />
		<tag k="place" v="islet" />
		<tag k="ssr:stedsnr" v="247873" />
	</node>
	<node id="-285836" lat="59.9363445521" lon="9.7748379415">
		<tag k="name" v="Slåttjern" />
		<tag k="natural" v="water" />
		<tag k="ssr:stedsnr" v="247861" />
	</node>
	<node id="-285829" lat="59.9208027797" lon="10.0288722235">
		<tag k="name" v="Skittjern" />
		<tag k="natural" v="water" />
		<tag k="ssr:stedsnr" v="247404" />
	</node>
	<node id="-285826" lat="60.0032916708" lon="10.031061107">
		<tag k="name" v="Jarentangen" />
		<tag k="natural" v="cape" />
		<tag k="ssr:stedsnr" v="241760" />
	</node>
	<node id="-285824" lat="59.9203521604" lon="10.116465897">
		<tag k="alt_name" v="Nordre Sneisa" />
		<tag k="name" v="Nordsneisa" />
		<tag k="natural" v="water" />
		<tag k="ssr:stedsnr" v="446935" />
		<tag k="water" v="lake" />
	</node>
	<node id="-285821" lat="60.10778333" lon="9.91763611362">
		<tag k="alt_name" v="Bjortjernbekken" />
		<tag k="name" v="Bjoretjernsbekken" />
		<tag k="ssr:stedsnr" v="222661" />
		<tag k="waterway" v="stream" />
	</node>
	<node id="-285814" lat="60.0394999981" lon="9.89669721715">
		<tag k="name" v="Vesle Sandungen" />
		<tag k="natural" v="water" />
		<tag k="ssr:stedsnr" v="298276" />
	</node>
	<node id="-285812" lat="60.129986109" lon="9.89712222626">
		<tag k="name" v="Østre Silnakken" />
		<tag k="natural" v="water" />
		<tag k="ssr:stedsnr" v="298050" />
	</node>
	<node id="-285809" lat="60.0842818684" lon="9.93480698273">
		<tag k="alt_name" v="Elgshorntjern" />
		<tag k="name" v="Elgshorntjernet" />
		<tag k="natural" v="water" />
		<tag k="ssr:stedsnr" v="187848" />
	</node>
	<node id="-285808" lat="60.1064211791" lon="9.93140507268">
		<tag k="alt_name" v="Øyvann" />
		<tag k="name" v="Øyvatnet" />
		<tag k="natural" v="water" />
		<tag k="ssr:stedsnr" v="187839" />
		<tag k="water" v="lake" />
	</node>
	<node id="-285803" lat="60.0732027753" lon="9.95680278511">
		<tag k="name" v="Skåhølen" />
		<tag k="place" v="locality" />
		<tag k="ssr:stedsnr" v="285624" />
	</node>
	<node id="-285800" lat="59.9832222253" lon="10.1730166735">
		<tag k="name" v="Kroktjernputten" />
		<tag k="natural" v="water" />
		<tag k="ssr:stedsnr" v="285269" />
		<tag k="water" v="pond" />
	</node>
	<node id="-285778" lat="60.1035972189" lon="9.94214444926">
		<tag k="name" v="Knutsbekk" />
		<tag k="ssr:stedsnr" v="283678" />
		<tag k="waterway" v="stream" />
	</node>
	<node id="-285772" lat="59.9624166651" lon="10.1266472141">
		<tag k="name" v="Strandvollputten" />
		<tag k="natural" v="water" />
		<tag k="ssr:stedsnr" v="283060" />
		<tag k="water" v="pond" />
	</node>
	<node id="-285766" lat="60.0063555581" lon="9.89961944842">
		<tag k="name" v="Gunnhusbekken" />
		<tag k="ssr:stedsnr" v="282328" />
		<tag k="waterway" v="stream" />
	</node>
	<node id="-285765" lat="60.0519777761" lon="9.84553334151">
		<tag k="name" v="Øvre Uløya" />
		<tag k="place" v="island" />
		<tag k="ssr:stedsnr" v="163672" />
	</node>
	<node id="-285763" lat="60.0557583331" lon="9.9662833341">
		<tag k="name" v="Svartpytt" />
		<tag k="natural" v="water" />
		<tag k="ssr:stedsnr" v="163609" />
		<tag k="water" v="pond" />
	</node>
	<node id="-285759" lat="59.8758027774" lon="10.0569444451">
		<tag k="name" v="Guritjernsbekken" />
		<tag k="ssr:stedsnr" v="162714" />
		<tag k="waterway" v="stream" />
	</node>
	<node id="-285754" lat="59.9691388896" lon="10.1079777861">
		<tag k="name" v="Hesteskotjern" />
		<tag k="natural" v="water" />
		<tag k="ssr:stedsnr" v="161105" />
	</node>
	<node id="-285751" lat="60.0927055511" lon="9.95378611193">
		<tag k="name" v="Elveskilnaden" />
		<tag k="natural" v="cape" />
		<tag k="ssr:stedsnr" v="272342" />
	</node>
	<node id="-285750" lat="60.1340694464" lon="9.9480499976">
		<tag k="name" v="Grønnmyrfossen" />
		<tag k="natural" v="waterfall" />
		<tag k="ssr:stedsnr" v="272334" />
	</node>
	<node id="-285745" lat="59.9547416644" lon="10.108175008">
		<tag k="alt_name" v="Vesle Bomla" />
		<tag k="name" v="Vesle Bumla" />
		<tag k="natural" v="water" />
		<tag k="ssr:stedsnr" v="125507" />
		<tag k="water" v="lake" />
	</node>
	<node id="-285742" lat="59.8925448735" lon="10.0861111926">
		<tag k="name" v="Elgstjerna" />
		<tag k="natural" v="water" />
		<tag k="ssr:stedsnr" v="124275" />
		<tag k="water" v="lake" />
	</node>
	<node id="-285730" lat="59.9797749998" lon="10.0791944362">
		<tag k="name" v="Kroktjernbekken" />
		<tag k="ssr:stedsnr" v="103999" />
		<tag k="waterway" v="stream" />
	</node>
	<node id="-285727" lat="60.0209444447" lon="9.88951943666">
		<tag k="name" v="Vesletjern" />
		<tag k="natural" v="water" />
		<tag k="ssr:stedsnr" v="100226" />
	</node>
	<node id="-285724" lat="59.9113583352" lon="9.78297221711">
		<tag k="name" v="Jønntjern" />
		<tag k="natural" v="water" />
		<tag k="ssr:stedsnr" v="97010" />
	</node>
	<node id="-285720" lat="59.9222574627" lon="9.75560700914">
		<tag k="alt_name" v="Gulmosatjern" />
		<tag k="name" v="Gulmosetjern" />
		<tag k="natural" v="water" />
		<tag k="ssr:stedsnr" v="247846" />
	</node>
	<node id="-285718" lat="60.1478749958" lon="9.92268333581">
		<tag k="name" v="Tretjerna" />
		<tag k="natural" v="water" />
		<tag k="ssr:stedsnr" v="247789" />
		<tag k="water" v="lake" />
	</node>
	<node id="-285713" lat="59.9939111135" lon="10.0982083352">
		<tag k="alt_name" v="Åbortjern" />
		<tag k="name" v="Abbortjern" />
		<tag k="natural" v="water" />
		<tag k="ssr:stedsnr" v="247432" />
	</node>
	<node id="-285708" lat="59.9449111151" lon="9.9853944392">
		<tag k="alt_name" v="Bergsjø" />
		<tag k="name" v="Bergsjøen" />
		<tag k="natural" v="water" />
		<tag k="old_name" v="Bergsøen" />
		<tag k="ssr:stedsnr" v="247405" />
		<tag k="water" v="lake" />
	</node>
	<node id="-285705" lat="59.9121361118" lon="9.77518332521">
		<tag k="name" v="Mortenstjern" />
		<tag k="natural" v="water" />
		<tag k="ssr:stedsnr" v="246821" />
	</node>
	<node id="-285699" lat="59.9574750024" lon="10.0613444419">
		<tag k="name" v="Gamledammen" />
		<tag k="natural" v="water" />
		<tag k="ssr:stedsnr" v="246454" />
	</node>
	<node id="-285697" lat="59.964124997" lon="10.0496277743">
		<tag k="name" v="Hvalsdammen" />
		<tag k="natural" v="water" />
		<tag k="ssr:stedsnr" v="246439" />
	</node>
	<node id="-285693" lat="60.0975833351" lon="9.94097222946">
		<tag k="alt_name" v="Haukvann" />
		<tag k="name" v="Haukevatnet" />
		<tag k="natural" v="water" />
		<tag k="ssr:stedsnr" v="66846" />
	</node>
	<node id="-285691" lat="60.059899996" lon="9.87518055778">
		<tag k="name" v="Dypingen" />
		<tag k="natural" v="water" />
		<tag k="ssr:stedsnr" v="65919" />
	</node>
	<node id="-285676" lat="59.9819638919" lon="9.87153889732">
		<tag k="name" v="Postdammen" />
		<tag k="natural" v="water" />
		<tag k="ssr:stedsnr" v="240364" />
		<tag k="water" v="pond" />
	</node>
	<node id="-285670" lat="59.9150583302" lon="10.0214222144">
		<tag k="name" v="Barlindtjern" />
		<tag k="natural" v="water" />
		<tag k="ssr:stedsnr" v="239622" />
	</node>
	<node id="-285667" lat="59.9347027739" lon="9.98999444438">
		<tag k="name" v="Sponevika" />
		<tag k="natural" v="bay" />
		<tag k="ssr:stedsnr" v="239532" />
	</node>
	<node id="-285660" lat="59.9776194447" lon="10.0936027846">
		<tag k="name" v="Ventjern" />
		<tag k="natural" v="water" />
		<tag k="ssr:stedsnr" v="239077" />
	</node>
	<node id="-285641" lat="59.9296111125" lon="9.96093055878">
		<tag k="name" v="Katfoss" />
		<tag k="natural" v="waterfall" />
		<tag k="ssr:stedsnr" v="235356" />
	</node>
	<node id="-285638" lat="59.9668055518" lon="10.0607555493">
		<tag k="name" v="Hundtjern" />
		<tag k="natural" v="water" />
		<tag k="ssr:stedsnr" v="42979" />
	</node>
	<node id="-285633" lat="59.938348525" lon="10.0623387777">
		<tag k="name" v="Vesle Kroktjern" />
		<tag k="natural" v="water" />
		<tag k="ssr:stedsnr" v="40668" />
	</node>
	<node id="-285631" lat="60.0954694485" lon="9.95101111302">
		<tag k="name" v="Sørlielva" />
		<tag k="ssr:stedsnr" v="40705" />
		<tag k="waterway" v="river" />
	</node>
	<node id="-285630" lat="59.9205361122" lon="10.0678277709">
		<tag k="name" v="Fjelldammen" />
		<tag k="natural" v="water" />
		<tag k="ssr:stedsnr" v="40704" />
	</node>
	<node id="-285627" lat="59.96666944" lon="10.122672227">
		<tag k="name" v="Gunhildbakktjern" />
		<tag k="natural" v="water" />
		<tag k="ssr:stedsnr" v="40070" />
	</node>
	<node id="-285615" lat="60.0665247177" lon="9.94576711028">
		<tag k="name" v="Tretjern" />
		<tag k="natural" v="water" />
		<tag k="ssr:stedsnr" v="224740" />
	</node>
	<node id="-285613" lat="60.0586055513" lon="9.9207250001">
		<tag k="name" v="Nordre Langsjø" />
		<tag k="natural" v="water" />
		<tag k="ssr:stedsnr" v="224721" />
		<tag k="water" v="lake" />
	</node>
	<node id="-285610" lat="60.0573555562" lon="9.84428611147">
		<tag k="name" v="Gåsøya" />
		<tag k="place" v="island" />
		<tag k="ssr:stedsnr" v="224659" />
	</node>
	<node id="-285608" lat="59.9996944458" lon="10.169708329">
		<tag k="name" v="Gullgodtbekken" />
		<tag k="ssr:stedsnr" v="224267" />
		<tag k="waterway" v="stream" />
	</node>
	<node id="-285604" lat="59.9433111152" lon="9.76223889575">
		<tag k="name" v="Ildalstjern" />
		<tag k="natural" v="water" />
		<tag k="ssr:stedsnr" v="224082" />
	</node>
	<node id="-285594" lat="59.9471944466" lon="10.0571194493">
		<tag k="name" v="Trollholmen" />
		<tag k="place" v="islet" />
		<tag k="ssr:stedsnr" v="222638" />
	</node>
	<node id="-285590" lat="60.000574996" lon="9.82475000215">
		<tag k="name" v="Ilartjern" />
		<tag k="natural" v="water" />
		<tag k="ssr:stedsnr" v="222485" />
	</node>
	<node id="-285583" lat="59.979913889" lon="10.1239083381">
		<tag k="name" v="Ingeborgsputt" />
		<tag k="natural" v="water" />
		<tag k="ssr:stedsnr" v="222063" />
		<tag k="water" v="pond" />
	</node>
	<node id="-285580" lat="59.9731694475" lon="10.1241638824">
		<tag k="name" v="Uletjern" />
		<tag k="natural" v="water" />
		<tag k="ssr:stedsnr" v="222051" />
	</node>
	<node id="-287607" lat="60.1597399411" lon="9.9631814841">
		<tag k="name" v="Nordre Tjuventjern" />
		<tag k="natural" v="water" />
		<tag k="ssr:stedsnr" v="211375" />
	</node>
	<node id="-287605" lat="59.9089119743" lon="10.1232211847">
		<tag k="alt_name" v="Lillesneisa" />
		<tag k="fixme" v="multiple name tags, choose one and add the other to alt_name" />
		<tag k="loc_name" v="Midtsneisa;Veslesneisa" />
		<tag k="name" v="Lille Sneisa;Mellomsneisa" />
		<tag k="natural" v="water" />
		<tag k="old_name" v="L Snejsa" />
		<tag k="ssr:stedsnr" v="854400" />
		<tag k="water" v="lake" />
	</node>
	<node id="-287604" lat="59.9142935996" lon="10.120509741">
		<tag k="fixme" v="multiple name tags, choose one and add the other to alt_name" />
		<tag k="loc_name" v="Storsneisa;Nordsneisa" />
		<tag k="name" v="Damsneisa;Nordre Sneisa" />
		<tag k="natural" v="water" />
		<tag k="old_name" v="St Snejsa" />
		<tag k="ssr:stedsnr" v="671401" />
		<tag k="water" v="lake" />
	</node>
	<node id="-287603" lat="60.1252765203" lon="9.87185274521">
		<tag k="name" v="Øvre Hundetjenn" />
		<tag k="natural" v="water" />
		<tag k="ssr:stedsnr" v="22353" />
	</node>
	<node id="-287558" lat="60.14566111" lon="9.94430000643">
		<tag k="name" v="Tjuventjernbekken" />
		<tag k="ssr:stedsnr" v="969533" />
		<tag k="waterway" v="stream" />
	</node>
	<node id="-287554" lat="60.0144249988" lon="9.82986667541">
		<tag k="name" v="Hesteåstjern" />
		<tag k="natural" v="water" />
		<tag k="ssr:stedsnr" v="968550" />
	</node>
	<node id="-287553" lat="60.0219194405" lon="9.81313333221">
		<tag k="name" v="Vesle Damtjern" />
		<tag k="natural" v="water" />
		<tag k="ssr:stedsnr" v="968548" />
	</node>
	<node id="-287552" lat="59.9744166674" lon="10.2536527712">
		<tag k="alt_name" v="Sververudelva" />
		<tag k="name" v="Svarverudelva" />
		<tag k="ssr:stedsnr" v="968195" />
		<tag k="waterway" v="stream" />
	</node>
	<node id="-287541" lat="59.9587388881" lon="10.1865138835">
		<tag k="name" v="Hanaviktjern" />
		<tag k="natural" v="water" />
		<tag k="ssr:stedsnr" v="967089" />
	</node>
	<node id="-287540" lat="60.02717778" lon="9.81394444078">
		<tag k="name" v="Puttene" />
		<tag k="natural" v="water" />
		<tag k="ssr:stedsnr" v="965733" />
		<tag k="water" v="lake" />
	</node>
	<node id="-287538" lat="60.0416444459" lon="9.91156388641">
		<tag k="name" v="Frysihjelmyra" />
		<tag k="natural" v="water" />
		<tag k="ssr:stedsnr" v="965317" />
	</node>
	<node id="-287534" lat="59.9808249997" lon="10.08050278">
		<tag k="name" v="Damtjernbekken" />
		<tag k="ssr:stedsnr" v="953000" />
		<tag k="waterway" v="stream" />
	</node>
	<node id="-287533" lat="59.9620222201" lon="10.0602083258">
		<tag k="name" v="Puttane" />
		<tag k="natural" v="water" />
		<tag k="ssr:stedsnr" v="952994" />
		<tag k="water" v="lake" />
	</node>
	<node id="-287527" lat="60.0622944425" lon="9.83895277913">
		<tag k="name" v="Lorttjern" />
		<tag k="natural" v="water" />
		<tag k="ssr:stedsnr" v="952666" />
	</node>
	<node id="-287503" lat="60.0713777782" lon="9.76817222307">
		<tag k="alt_name" v="Håvardrudtjernet" />
		<tag k="name" v="Håvardsrudtjern" />
		<tag k="natural" v="water" />
		<tag k="ssr:stedsnr" v="854891" />
	</node>
	<node id="-287500" lat="59.9333426365" lon="9.75384676294">
		<tag k="name" v="Svarthøl" />
		<tag k="natural" v="water" />
		<tag k="ssr:stedsnr" v="854868" />
	</node>
	<node id="-287492" lat="59.912930552" lon="10.0884250078">
		<tag k="alt_name" v="Flagvannet" />
		<tag k="name" v="Flagervatnet" />
		<tag k="natural" v="water" />
		<tag k="ssr:stedsnr" v="854402" />
	</node>
	<node id="-287485" lat="59.8960027797" lon="9.87064999476">
		<tag k="name" v="Postvannet" />
		<tag k="natural" v="water" />
		<tag k="ssr:stedsnr" v="853648" />
	</node>
	<node id="-287484" lat="59.9574432792" lon="10.1455896554">
		<tag k="name" v="Store Elgstjern" />
		<tag k="natural" v="water" />
		<tag k="ssr:stedsnr" v="853394" />
	</node>
	<node id="-287479" lat="59.9711472227" lon="10.2547638891">
		<tag k="name" v="Torgerbekk" />
		<tag k="ssr:stedsnr" v="848204" />
		<tag k="waterway" v="stream" />
	</node>
	<node id="-287467" lat="59.9291305514" lon="10.0109055534">
		<tag k="name" v="Ørenbekken" />
		<tag k="ssr:stedsnr" v="846535" />
		<tag k="waterway" v="stream" />
	</node>
	<node id="-287448" lat="60.0354777739" lon="9.83805833622">
		<tag k="name" v="Langerudevja" />
		<tag k="natural" v="water" />
		<tag k="ssr:stedsnr" v="831693" />
		<tag k="water" v="lake" />
	</node>
	<node id="-287442" lat="60.0660833334" lon="9.9121305628">
		<tag k="name" v="Gubberudløken" />
		<tag k="ssr:stedsnr" v="831139" />
		<tag k="waterway" v="stream" />
	</node>
	<node id="-287440" lat="60.1040972182" lon="9.85794721601">
		<tag k="name" v="Damtjernputten" />
		<tag k="natural" v="water" />
		<tag k="ssr:stedsnr" v="831121" />
		<tag k="water" v="pond" />
	</node>
	<node id="-287438" lat="59.8920888885" lon="9.94663888017">
		<tag k="name" v="Kudalsbekken" />
		<tag k="ssr:stedsnr" v="830899" />
		<tag k="waterway" v="stream" />
	</node>
	<node id="-287430" lat="59.9523972204" lon="10.0646805568">
		<tag k="name" v="Snelletjern" />
		<tag k="natural" v="water" />
		<tag k="ssr:stedsnr" v="829668" />
	</node>
	<node id="-287425" lat="59.9697611087" lon="10.1246749954">
		<tag k="name" v="Ingeborgsputt" />
		<tag k="natural" v="water" />
		<tag k="ssr:stedsnr" v="829078" />
		<tag k="water" v="pond" />
	</node>
	<node id="-287412" lat="60.0503277792" lon="9.95750000024">
		<tag k="fixme" v="multiple name tags, choose one and add the other to alt_name" />
		<tag k="name" v="Bråtatjern;Ørvannet" />
		<tag k="natural" v="water" />
		<tag k="ssr:stedsnr" v="793931" />
	</node>
	<node id="-287411" lat="60.0488999999" lon="9.89867499685">
		<tag k="name" v="Sandungen" />
		<tag k="natural" v="water" />
		<tag k="ssr:stedsnr" v="793928" />
	</node>
	<node id="-287410" lat="60.0462768506" lon="9.93152182745">
		<tag k="name" v="Arnestjern" />
		<tag k="natural" v="water" />
		<tag k="ssr:stedsnr" v="793925" />
	</node>
	<node id="-287404" lat="60.0764684478" lon="9.9011735834">
		<tag k="name" v="Låvetjern" />
		<tag k="natural" v="water" />
		<tag k="ssr:stedsnr" v="793875" />
	</node>
	<node id="-287402" lat="59.9246777753" lon="9.78681943549">
		<tag k="name" v="Brødtjern" />
		<tag k="natural" v="water" />
		<tag k="ssr:stedsnr" v="793860" />
	</node>
	<node id="-287398" lat="60.117755554" lon="9.90294999325">
		<tag k="alt_name" v="Bråtavollstjern" />
		<tag k="name" v="Bråtavolltjern" />
		<tag k="natural" v="water" />
		<tag k="ssr:stedsnr" v="793831" />
	</node>
	<node id="-287397" lat="60.1286750016" lon="9.89305000342">
		<tag k="name" v="Silnakken" />
		<tag k="natural" v="water" />
		<tag k="ssr:stedsnr" v="793829" />
		<tag k="water" v="lake" />
	</node>
	<node id="-287388" lat="59.9348499991" lon="10.0649000009">
		<tag k="fixme" v="multiple name tags, choose one and add the other to alt_name" />
		<tag k="name" v="Kroktjern;Store Kroktjern" />
		<tag k="natural" v="water" />
		<tag k="ssr:stedsnr" v="793447" />
	</node>
	<node id="-287386" lat="59.8901694482" lon="10.0584138931">
		<tag k="name" v="Kutjern" />
		<tag k="natural" v="water" />
		<tag k="ssr:stedsnr" v="793381" />
	</node>
	<node id="-287380" lat="59.9386788554" lon="10.0860954489">
		<tag k="alt_name" v="Hvals Broktjern" />
		<tag k="name" v="Hvals-Broktjern" />
		<tag k="natural" v="water" />
		<tag k="ssr:stedsnr" v="792362" />
	</node>
	<node id="-287365" lat="59.961411108" lon="9.98848054853">
		<tag k="name" v="Kanalen" />
		<tag k="ssr:stedsnr" v="785539" />
		<tag k="waterway" v="river" />
	</node>
	<node id="-287362" lat="59.9393194438" lon="10.0066138862">
		<tag k="name" v="Sponebekken" />
		<tag k="ssr:stedsnr" v="785533" />
		<tag k="waterway" v="stream" />
	</node>
	<node id="-287357" lat="59.9238805598" lon="10.094677774">
		<tag k="name" v="Krokputten" />
		<tag k="natural" v="water" />
		<tag k="ssr:stedsnr" v="785040" />
		<tag k="water" v="pond" />
	</node>
	<node id="-287356" lat="59.9336527743" lon="10.0891500053">
		<tag k="name" v="Ormtjern" />
		<tag k="natural" v="water" />
		<tag k="ssr:stedsnr" v="785033" />
	</node>
	<node id="-287346" lat="60.0318111078" lon="9.89844444363">
		<tag k="name" v="Vesle Okseaue" />
		<tag k="natural" v="water" />
		<tag k="ssr:stedsnr" v="783262" />
	</node>
	<node id="-287338" lat="60.053700003" lon="9.84744445081">
		<tag k="name" v="Grønnvoll" />
		<tag k="natural" v="cape" />
		<tag k="ssr:stedsnr" v="770677" />
	</node>
	<node id="-287322" lat="59.9338777803" lon="10.1102638829">
		<tag k="name" v="Grukkedøla" />
		<tag k="ssr:stedsnr" v="749943" />
		<tag k="waterway" v="stream" />
	</node>
	<node id="-287306" lat="60.0928166647" lon="9.83723054734">
		<tag k="name" v="Høymyrløken" />
		<tag k="ssr:stedsnr" v="646627" />
		<tag k="waterway" v="stream" />
	</node>
	<node id="-287291" lat="59.8398444407" lon="9.87709721636">
		<tag k="name" v="Bingselva" />
		<tag k="ssr:stedsnr" v="611729" />
		<tag k="waterway" v="river" />
	</node>
	<node id="-287290" lat="59.9628361101" lon="10.0776166598">
		<tag k="name" v="Svarttjern" />
		<tag k="natural" v="water" />
		<tag k="ssr:stedsnr" v="611514" />
	</node>
	<node id="-287274" lat="59.9289000535" lon="10.084049381">
		<tag k="name" v="Disen Broktjern" />
		<tag k="natural" v="water" />
		<tag k="ssr:stedsnr" v="610458" />
	</node>
	<node id="-287273" lat="60.1431416705" lon="9.94714166716">
		<tag k="name" v="Granavollelva" />
		<tag k="ssr:stedsnr" v="611821" />
		<tag k="waterway" v="stream" />
	</node>
	<node id="-287271" lat="59.9502305513" lon="10.0785138927">
		<tag k="name" v="Sandvika" />
		<tag k="natural" v="water" />
		<tag k="ssr:stedsnr" v="610435" />
	</node>
	<node id="-287267" lat="60.0063305543" lon="10.0622888975">
		<tag k="name" v="Hofsengvika" />
		<tag k="natural" v="bay" />
		<tag k="ssr:stedsnr" v="605747" />
	</node>
	<node id="-287258" lat="59.948600004" lon="10.1581333246">
		<tag k="name" v="Kutjern" />
		<tag k="natural" v="water" />
		<tag k="ssr:stedsnr" v="603088" />
	</node>
	<node id="-287257" lat="59.9261361129" lon="9.98050833244">
		<tag k="name" v="Hervika" />
		<tag k="natural" v="bay" />
		<tag k="ssr:stedsnr" v="602542" />
	</node>
	<node id="-287244" lat="60.1052916694" lon="9.90400554689">
		<tag k="name" v="Seterputten" />
		<tag k="natural" v="water" />
		<tag k="ssr:stedsnr" v="588032" />
		<tag k="water" v="pond" />
	</node>
	<node id="-287240" lat="59.9783249985" lon="9.85144722608">
		<tag k="name" v="Ilene" />
		<tag k="natural" v="spring" />
		<tag k="ssr:stedsnr" v="587837" />
	</node>
	<node id="-287233" lat="59.9488638902" lon="10.0684888938">
		<tag k="name" v="Blitjern" />
		<tag k="natural" v="water" />
		<tag k="ssr:stedsnr" v="586662" />
	</node>
	<node id="-287226" lat="60.0691333304" lon="9.92574721732">
		<tag k="alt_name" v="Søndre Stupellatjern" />
		<tag k="name" v="Søndre Stuphelltjern" />
		<tag k="natural" v="water" />
		<tag k="ssr:stedsnr" v="550875" />
	</node>
	<node id="-287225" lat="59.9440749999" lon="9.86763333747">
		<tag k="alt_name" v="Tingelstadtjernet" />
		<tag k="name" v="Tingelstadtjern" />
		<tag k="natural" v="water" />
		<tag k="ssr:stedsnr" v="550859" />
	</node>
	<node id="-287214" lat="59.9732527748" lon="10.0937611079">
		<tag k="alt_name" v="Søkktjern" />
		<tag k="name" v="Søktjern" />
		<tag k="natural" v="water" />
		<tag k="ssr:stedsnr" v="550475" />
	</node>
	<node id="-287213" lat="59.9800666629" lon="10.1611472259">
		<tag k="alt_name" v="Plommetjern" />
		<tag k="name" v="Plometjern" />
		<tag k="natural" v="water" />
		<tag k="ssr:stedsnr" v="550474" />
	</node>
	<node id="-287211" lat="59.9893111102" lon="10.1866027787">
		<tag k="name" v="Kimmerudbekken" />
		<tag k="ssr:stedsnr" v="550433" />
		<tag k="waterway" v="stream" />
	</node>
	<node id="-287207" lat="59.9435583369" lon="10.142558337">
		<tag k="name" v="Ormtjern" />
		<tag k="natural" v="water" />
		<tag k="ssr:stedsnr" v="550378" />
	</node>
	<node id="-287205" lat="59.878305556" lon="10.0499999921">
		<tag k="name" v="Guritjern" />
		<tag k="natural" v="water" />
		<tag k="ssr:stedsnr" v="550342" />
	</node>
	<node id="-287203" lat="59.9032707965" lon="10.1243305759">
		<tag k="alt_name" v="Søndre Sneisa" />
		<tag k="name" v="Sørsneisa" />
		<tag k="natural" v="water" />
		<tag k="old_name" v="S Snejsa" />
		<tag k="ssr:stedsnr" v="550327" />
		<tag k="water" v="lake" />
	</node>
	<node id="-287201" lat="60.0408249969" lon="9.97914166535">
		<tag k="name" v="Bemle" />
		<tag k="natural" v="water" />
		<tag k="ssr:stedsnr" v="550295" />
	</node>
	<node id="-287195" lat="59.740736107" lon="10.2074750059">
		<tag k="name" v="Drammenselva" />
		<tag k="ssr:stedsnr" v="548370" />
		<tag k="waterway" v="river" />
	</node>
	<node id="-287177" lat="59.9413888903" lon="10.0071777737">
		<tag k="name" v="Heggenbekken" />
		<tag k="ssr:stedsnr" v="542550" />
		<tag k="waterway" v="stream" />
	</node>
	<node id="-287176" lat="59.9390722237" lon="9.97985277534">
		<tag k="name" v="Skinnerudtangen" />
		<tag k="natural" v="cape" />
		<tag k="ssr:stedsnr" v="542536" />
	</node>
	<node id="-287174" lat="59.9252444482" lon="10.0106444377">
		<tag k="name" v="Esebekken" />
		<tag k="ssr:stedsnr" v="542526" />
		<tag k="waterway" v="stream" />
	</node>
	<node id="-287161" lat="59.9402555569" lon="9.88617777735">
		<tag k="name" v="Hellebekken" />
		<tag k="ssr:stedsnr" v="527866" />
		<tag k="waterway" v="stream" />
	</node>
	<node id="-287149" lat="59.8672555559" lon="10.0388138947">
		<tag k="name" v="Saglandvika" />
		<tag k="natural" v="bay" />
		<tag k="ssr:stedsnr" v="525573" />
	</node>
	<node id="-287147" lat="60.0080694471" lon="9.91130555793">
		<tag k="name" v="Syslebekken" />
		<tag k="ssr:stedsnr" v="525368" />
		<tag k="waterway" v="stream" />
	</node>
	<node id="-287146" lat="59.9666888857" lon="10.088155554">
		<tag k="name" v="Gørrputt" />
		<tag k="natural" v="water" />
		<tag k="ssr:stedsnr" v="525079" />
		<tag k="water" v="pond" />
	</node>
	<node id="-287133" lat="60.0875611574" lon="9.94259246431">
		<tag k="name" v="Gørtjern" />
		<tag k="natural" v="water" />
		<tag k="ssr:stedsnr" v="430862" />
	</node>
	<node id="-287132" lat="60.0831249957" lon="9.81487778538">
		<tag k="name" v="Ramfoss" />
		<tag k="natural" v="waterfall" />
		<tag k="ssr:stedsnr" v="430860" />
	</node>
	<node id="-287129" lat="60.1066833338" lon="9.91075555111">
		<tag k="alt_name" v="Bjortjern" />
		<tag k="name" v="Bjoretjern" />
		<tag k="natural" v="water" />
		<tag k="ssr:stedsnr" v="430831" />
	</node>
	<node id="-287120" lat="60.0354386813" lon="9.97328522605">
		<tag k="name" v="Midttjern" />
		<tag k="natural" v="water" />
		<tag k="ssr:stedsnr" v="430321" />
	</node>
	<node id="-287119" lat="60.0385750005" lon="10.0506611151">
		<tag k="name" v="Henovika" />
		<tag k="natural" v="bay" />
		<tag k="ssr:stedsnr" v="430314" />
	</node>
	<node id="-287117" lat="60.0344006372" lon="9.91798268534">
		<tag k="name" v="Lorta" />
		<tag k="natural" v="water" />
		<tag k="ssr:stedsnr" v="429939" />
	</node>
	<node id="-287114" lat="60.0922694436" lon="9.85118611065">
		<tag k="name" v="Kvernelva" />
		<tag k="ssr:stedsnr" v="429881" />
		<tag k="waterway" v="stream" />
	</node>
	<node id="-287112" lat="59.9364629106" lon="9.7808829301">
		<tag k="alt_name" v="Tryttjern" />
		<tag k="name" v="Trytetjern" />
		<tag k="natural" v="water" />
		<tag k="ssr:stedsnr" v="429872" />
	</node>
	<node id="-287109" lat="60.1577457306" lon="9.95890527795">
		<tag k="name" v="Søndre Tjuventjern" />
		<tag k="natural" v="water" />
		<tag k="ssr:stedsnr" v="429789" />
	</node>
	<node id="-287107" lat="60.159874996" lon="9.90297499504">
		<tag k="alt_name" v="Mortensvatna" />
		<tag k="name" v="Hundetjern" />
		<tag k="natural" v="water" />
		<tag k="ssr:stedsnr" v="429782" />
	</node>
	<node id="-287106" lat="59.951399997" lon="9.80558610707">
		<tag k="alt_name" v="Storelva" />
		<tag k="name" v="Simoa" />
		<tag k="ssr:stedsnr" v="429753" />
		<tag k="waterway" v="river" />
	</node>
	<node id="-287102" lat="59.9278250012" lon="10.1667972285">
		<tag k="fixme" v="multiple name tags, choose one and add the other to alt_name" />
		<tag k="name" v="Elgstjernelva;Fallsbekken;Tverrelva" />
		<tag k="ssr:stedsnr" v="429488" />
		<tag k="waterway" v="stream" />
	</node>
	<node id="-287091" lat="60.0095611083" lon="9.83101665854">
		<tag k="name" v="Glømmetjern" />
		<tag k="natural" v="water" />
		<tag k="ssr:stedsnr" v="423556" />
	</node>
	<node id="-287081" lat="59.9586249971" lon="9.98764443711">
		<tag k="name" v="Møllefoss" />
		<tag k="place" v="island" />
		<tag k="ssr:stedsnr" v="421539" />
	</node>
	<node id="-287078" lat="59.9525083319" lon="10.1477250034">
		<tag k="name" v="Kutjernåsen" />
		<tag k="natural" v="water" />
		<tag k="ssr:stedsnr" v="421069" />
	</node>
	<node id="-287076" lat="60.1616277785" lon="9.93535277829">
		<tag k="name" v="Tomtelaupsbekken" />
		<tag k="ssr:stedsnr" v="419537" />
		<tag k="waterway" v="stream" />
	</node>
	<node id="-287071" lat="60.0427388874" lon="9.87999999237">
		<tag k="name" v="Gjøramyrputten" />
		<tag k="natural" v="water" />
		<tag k="ssr:stedsnr" v="419289" />
		<tag k="water" v="pond" />
	</node>
	<node id="-287064" lat="60.0798333331" lon="9.95379444388">
		<tag k="name" v="Ulmyrvika" />
		<tag k="natural" v="water" />
		<tag k="ssr:stedsnr" v="406633" />
		<tag k="water" v="lake" />
	</node>
	<node id="-287062" lat="59.9890305525" lon="10.2101638907">
		<tag k="name" v="Kimerudelva" />
		<tag k="ssr:stedsnr" v="406297" />
		<tag k="waterway" v="stream" />
	</node>
	<node id="-287061" lat="59.9831277763" lon="10.1684444467">
		<tag k="name" v="Rokketjernputten" />
		<tag k="natural" v="water" />
		<tag k="ssr:stedsnr" v="406291" />
		<tag k="water" v="pond" />
	</node>
	<node id="-287052" lat="60.1589440722" lon="9.96083994279">
		<tag k="alt_name" v="Tjuentjerna;Tjuventjern" />
		<tag k="name" v="Tjuventjerna" />
		<tag k="natural" v="water" />
		<tag k="ssr:stedsnr" v="405284" />
		<tag k="water" v="lake" />
	</node>
	<node id="-287035" lat="60.1042249975" lon="9.94820000224">
		<tag k="name" v="Sørlitjern" />
		<tag k="natural" v="water" />
		<tag k="ssr:stedsnr" v="369835" />
	</node>
	<node id="-287034" lat="60.0991888924" lon="9.88483056197">
		<tag k="alt_name" v="Kroktjerna" />
		<tag k="name" v="Kroktjern" />
		<tag k="natural" v="water" />
		<tag k="ssr:stedsnr" v="369821" />
	</node>
	<node id="-287032" lat="60.0128055547" lon="10.03450833">
		<tag k="name" v="Drolsumtangen" />
		<tag k="natural" v="cape" />
		<tag k="ssr:stedsnr" v="369375" />
	</node>
	<node id="-287026" lat="60.0096611117" lon="9.81305555459">
		<tag k="name" v="Purketjern" />
		<tag k="natural" v="water" />
		<tag k="ssr:stedsnr" v="368968" />
	</node>
	<node id="-287023" lat="60.021919439" lon="9.91618841399">
		<tag k="name" v="Grunna" />
		<tag k="natural" v="water" />
		<tag k="ssr:stedsnr" v="368948" />
	</node>
	<node id="-287020" lat="59.9261142411" lon="9.76780794466">
		<tag k="name" v="Blådalstjern" />
		<tag k="natural" v="water" />
		<tag k="ssr:stedsnr" v="368875" />
	</node>
	<node id="-287013" lat="59.9381884958" lon="9.74810671841">
		<tag k="name" v="Mjovann" />
		<tag k="natural" v="water" />
		<tag k="ssr:stedsnr" v="368795" />
	</node>
	<node id="-287011" lat="59.9491694402" lon="9.85116667227">
		<tag k="name" v="Krabbetjern" />
		<tag k="natural" v="water" />
		<tag k="ssr:stedsnr" v="368787" />
	</node>
	<node id="-287007" lat="59.8740042668" lon="9.9387444081">
		<tag k="name" v="Heståstjern" />
		<tag k="natural" v="water" />
		<tag k="ssr:stedsnr" v="368677" />
	</node>
	<node id="-286990" lat="59.9624777758" lon="10.0654999926">
		<tag k="name" v="Sandtjern" />
		<tag k="natural" v="water" />
		<tag k="ssr:stedsnr" v="367415" />
	</node>
	<node id="-286989" lat="59.9530611114" lon="10.1198666625">
		<tag k="alt_name" v="Bumla;Store Bomla" />
		<tag k="name" v="Store Bumla" />
		<tag k="natural" v="water" />
		<tag k="ssr:stedsnr" v="367410" />
		<tag k="water" v="lake" />
	</node>
	<node id="-286986" lat="59.966150002" lon="10.1598027842">
		<tag k="alt_name" v="Reva hass bjønn" />
		<tag k="name" v="Rævassbjørn" />
		<tag k="natural" v="water" />
		<tag k="ssr:stedsnr" v="367399" />
	</node>
	<node id="-286984" lat="59.9500444463" lon="10.171519453">
		<tag k="name" v="Tverrelva" />
		<tag k="ssr:stedsnr" v="367323" />
		<tag k="waterway" v="stream" />
	</node>
	<node id="-286983" lat="59.8991749964" lon="10.0693749983">
		<tag k="name" v="Butjern" />
		<tag k="natural" v="water" />
		<tag k="ssr:stedsnr" v="367269" />
	</node>
	<node id="-286972" lat="59.9900916629" lon="10.0749777823">
		<tag k="name" v="Kneet" />
		<tag k="place" v="locality" />
		<tag k="ssr:stedsnr" v="358845" />
	</node>
	<node id="-286969" lat="60.0412611151" lon="9.96794166507">
		<tag k="name" v="Vesleelva" />
		<tag k="ssr:stedsnr" v="358285" />
		<tag k="waterway" v="stream" />
	</node>
	<node id="-286968" lat="60.0346916653" lon="9.87739722993">
		<tag k="name" v="Harpentjern" />
		<tag k="natural" v="water" />
		<tag k="ssr:stedsnr" v="358276" />
	</node>
	<node id="-286956" lat="60.0536861119" lon="9.89693889559">
		<tag k="name" v="Sandungsputten" />
		<tag k="natural" v="water" />
		<tag k="ssr:stedsnr" v="345137" />
		<tag k="water" v="pond" />
	</node>
	<node id="-286955" lat="60.1051499973" lon="9.88633889638">
		<tag k="name" v="Vilsamtjern" />
		<tag k="natural" v="water" />
		<tag k="ssr:stedsnr" v="345044" />
	</node>
	<node id="-286950" lat="60.0674555538" lon="9.83355000645">
		<tag k="name" v="Vesleelva" />
		<tag k="ssr:stedsnr" v="343732" />
		<tag k="waterway" v="river" />
	</node>
	<node id="-286940" lat="59.9711388931" lon="10.1101944441">
		<tag k="name" v="Karusstjern" />
		<tag k="natural" v="water" />
		<tag k="ssr:stedsnr" v="343066" />
	</node>
	<node id="-286938" lat="59.8929305557" lon="9.76689722214">
		<tag k="name" v="Hanseløkkbekken" />
		<tag k="ssr:stedsnr" v="339988" />
		<tag k="waterway" v="stream" />
	</node>
	<node id="-286930" lat="60.0262611098" lon="9.90574999866">
		<tag k="name" v="Sysletjern" />
		<tag k="natural" v="water" />
		<tag k="ssr:stedsnr" v="308928" />
	</node>
	<node id="-286926" lat="59.887519444" lon="9.97688610835">
		<tag k="name" v="Åstjern" />
		<tag k="natural" v="water" />
		<tag k="ssr:stedsnr" v="308281" />
	</node>
	<node id="-286923" lat="59.9118318639" lon="9.80795064778">
		<tag k="alt_name" v="Sterkebytjern" />
		<tag k="name" v="Sterkabytjern" />
		<tag k="natural" v="water" />
		<tag k="ssr:stedsnr" v="307842" />
	</node>
	<node id="-286920" lat="59.9664867415" lon="9.89054425683">
		<tag k="name" v="Bergandammen" />
		<tag k="natural" v="water" />
		<tag k="ssr:stedsnr" v="307785" />
	</node>
	<node id="-286918" lat="59.9382083359" lon="9.76577222406">
		<tag k="alt_name" v="Ildalstjern" />
		<tag k="name" v="Illdalstjerna" />
		<tag k="natural" v="water" />
		<tag k="ssr:stedsnr" v="307765" />
		<tag k="water" v="lake" />
	</node>
	<node id="-286915" lat="59.9929277754" lon="10.1684999938">
		<tag k="name" v="Vesledammen" />
		<tag k="natural" v="water" />
		<tag k="ssr:stedsnr" v="307475" />
	</node>
	<node id="-286914" lat="59.9891243032" lon="10.0763866575">
		<tag k="alt_name" v="Askimelva" />
		<tag k="fixme" v="multiple name tags, choose one and add the other to alt_name" />
		<tag k="name" v="Askjumbekken;Askjumelva" />
		<tag k="ssr:stedsnr" v="307470" />
		<tag k="waterway" v="stream" />
	</node>
	<node id="-286911" lat="59.946036114" lon="10.0550000048">
		<tag k="alt_name" v="Dam-Heggesjø" />
		<tag k="name" v="Damheggesjø" />
		<tag k="natural" v="water" />
		<tag k="ssr:stedsnr" v="307409" />
		<tag k="water" v="lake" />
	</node>
	<node id="-286909" lat="59.8603388932" lon="10.0422833375">
		<tag k="alt_name" v="Hundvikene" />
		<tag k="name" v="Hundvika" />
		<tag k="natural" v="bay" />
		<tag k="ssr:stedsnr" v="307301" />
	</node>
	<node id="-286897" lat="60.01562201" lon="9.92171888868">
		<tag k="alt_name" v="Tarmstjern" />
		<tag k="name" v="Tarmtjern" />
		<tag k="natural" v="water" />
		<tag k="ssr:stedsnr" v="187941" />
	</node>
	<node id="-286888" lat="60.06857778" lon="9.78823611494">
		<tag k="alt_name" v="Kverneelva" />
		<tag k="name" v="Kvernelva" />
		<tag k="ssr:stedsnr" v="186890" />
		<tag k="waterway" v="stream" />
	</node>
	<node id="-286879" lat="59.8906111132" lon="9.78998888787">
		<tag k="name" v="Bjøra" />
		<tag k="ssr:stedsnr" v="186701" />
		<tag k="waterway" v="stream" />
	</node>
	<node id="-286874" lat="59.9848999965" lon="10.2119638923">
		<tag k="name" v="Pilterudelva" />
		<tag k="ssr:stedsnr" v="186502" />
		<tag k="waterway" v="stream" />
	</node>
	<node id="-286873" lat="59.9820190536" lon="10.1307004485">
		<tag k="fixme" v="multiple name tags, choose one and add the other to alt_name" />
		<tag k="name" v="Damtjern;Gulsrud Damtjern" />
		<tag k="natural" v="water" />
		<tag k="ssr:stedsnr" v="186495" />
	</node>
	<node id="-286872" lat="59.9832694407" lon="10.1410805514">
		<tag k="fixme" v="multiple name tags, choose one and add the other to alt_name" />
		<tag k="name" v="Askerud Sandtjern;Sandtjern" />
		<tag k="natural" v="water" />
		<tag k="ssr:stedsnr" v="186494" />
	</node>
	<node id="-286867" lat="59.947958336" lon="10.0976111035">
		<tag k="fixme" v="multiple name tags, choose one and add the other to alt_name" />
		<tag k="name" v="Store Nykjua;Åsvannet" />
		<tag k="natural" v="water" />
		<tag k="ssr:stedsnr" v="186448" />
		<tag k="water" v="lake" />
	</node>
	<node id="-286863" lat="59.9415472199" lon="10.0513750074">
		<tag k="name" v="Heggesjøbekken" />
		<tag k="ssr:stedsnr" v="186396" />
		<tag k="waterway" v="stream" />
	</node>
	<node id="-286862" lat="59.8628500018" lon="10.0222944486">
		<tag k="alt_name" v="Åsvatna" />
		<tag k="name" v="Åsvanna" />
		<tag k="natural" v="water" />
		<tag k="ssr:stedsnr" v="186267" />
		<tag k="water" v="lake" />
	</node>
	<node id="-286861" lat="59.893690863" lon="10.0585992164">
		<tag k="name" v="Gampetjern" />
		<tag k="natural" v="water" />
		<tag k="ssr:stedsnr" v="185310" />
	</node>
	<node id="-286851" lat="60.0470972195" lon="9.91498334182">
		<tag k="name" v="Kroktjern" />
		<tag k="natural" v="water" />
		<tag k="ssr:stedsnr" v="179243" />
	</node>
	<node id="-286839" lat="59.9732250029" lon="10.1612138924">
		<tag k="name" v="De utgravne tjerna" />
		<tag k="natural" v="water" />
		<tag k="ssr:stedsnr" v="178121" />
		<tag k="water" v="lake" />
	</node>
	<node id="-286837" lat="59.9183638849" lon="10.092833333">
		<tag k="name" v="Vesle Rotoa" />
		<tag k="natural" v="water" />
		<tag k="ssr:stedsnr" v="178046" />
	</node>
	<node id="-286836" lat="59.9544055538" lon="10.0913888901">
		<tag k="name" v="Vesle Åsvannet" />
		<tag k="natural" v="water" />
		<tag k="ssr:stedsnr" v="178039" />
		<tag k="water" v="lake" />
	</node>
	<node id="-286832" lat="59.985691666" lon="10.1360416665">
		<tag k="loc_name" v="Askerudputten" />
		<tag k="name" v="Storaskerudmyrputten" />
		<tag k="natural" v="water" />
		<tag k="ssr:stedsnr" v="176980" />
		<tag k="water" v="pond" />
	</node>
	<node id="-286827" lat="60.0423472235" lon="9.93926666743">
		<tag k="name" v="Rakletjern" />
		<tag k="natural" v="water" />
		<tag k="ssr:stedsnr" v="176271" />
	</node>
	<node id="-286819" lat="59.9756777814" lon="10.0707499948">
		<tag k="name" v="Svartputt" />
		<tag k="natural" v="water" />
		<tag k="ssr:stedsnr" v="163996" />
		<tag k="water" v="pond" />
	</node>
	<node id="-286818" lat="60.0554055548" lon="9.93035276958">
		<tag k="name" v="Okseaua" />
		<tag k="natural" v="water" />
		<tag k="ssr:stedsnr" v="163734" />
		<tag k="water" v="pond" />
	</node>
	<node id="-286815" lat="60.0969222227" lon="9.88115555034">
		<tag k="name" v="Grøterudputten" />
		<tag k="natural" v="water" />
		<tag k="ssr:stedsnr" v="163026" />
		<tag k="water" v="pond" />
	</node>
	<node id="-286809" lat="59.8684472208" lon="10.0332972229">
		<tag k="name" v="Jøssjøbekken" />
		<tag k="ssr:stedsnr" v="161539" />
		<tag k="waterway" v="stream" />
	</node>
	<node id="-286808" lat="59.9406305549" lon="10.0770833282">
		<tag k="name" v="Svarttjern" />
		<tag k="natural" v="water" />
		<tag k="ssr:stedsnr" v="161627" />
	</node>
	<node id="-286802" lat="60.0707083313" lon="9.7940555643">
		<tag k="name" v="Sandbekk" />
		<tag k="ssr:stedsnr" v="158149" />
		<tag k="waterway" v="stream" />
	</node>
	<node id="-286800" lat="60.0395527801" lon="9.78505277659">
		<tag k="name" v="Værtjern" />
		<tag k="natural" v="water" />
		<tag k="ssr:stedsnr" v="158094" />
	</node>
	<node id="-286794" lat="59.9138027767" lon="9.88311110407">
		<tag k="name" v="Haugfoss" />
		<tag k="natural" v="waterfall" />
		<tag k="ssr:stedsnr" v="145042" />
	</node>
	<node id="-286792" lat="60.0058861072" lon="10.0533027845">
		<tag k="name" v="Furetangen" />
		<tag k="natural" v="cape" />
		<tag k="ssr:stedsnr" v="127467" />
	</node>
	<node id="-286789" lat="60.1261527794" lon="9.94624444323">
		<tag k="name" v="Løken" />
		<tag k="natural" v="water" />
		<tag k="ssr:stedsnr" v="126800" />
	</node>
	<node id="-286780" lat="60.0559361153" lon="9.92175277142">
		<tag k="name" v="Langsjø" />
		<tag k="natural" v="water" />
		<tag k="ssr:stedsnr" v="125907" />
		<tag k="water" v="lake" />
	</node>
	<node id="-286777" lat="59.9369611141" lon="9.73399722619">
		<tag k="name" v="Igletjern" />
		<tag k="natural" v="water" />
		<tag k="ssr:stedsnr" v="125880" />
	</node>
	<node id="-286776" lat="59.9292943207" lon="9.73662562362">
		<tag k="name" v="Stortjern" />
		<tag k="natural" v="water" />
		<tag k="ssr:stedsnr" v="125877" />
	</node>
	<node id="-286771" lat="59.9169055561" lon="9.78908611538">
		<tag k="name" v="Kjerringtjern" />
		<tag k="natural" v="water" />
		<tag k="ssr:stedsnr" v="125849" />
	</node>
	<node id="-286769" lat="59.9196805553" lon="9.88837222">
		<tag k="name" v="Overnbekken" />
		<tag k="ssr:stedsnr" v="125842" />
		<tag k="waterway" v="stream" />
	</node>
	<node id="-286768" lat="59.9064500043" lon="9.781811117">
		<tag k="name" v="Tuvtjern" />
		<tag k="natural" v="water" />
		<tag k="ssr:stedsnr" v="125830" />
	</node>
	<node id="-286764" lat="60.1603361138" lon="9.89004999514">
		<tag k="name" v="Svartputten" />
		<tag k="natural" v="water" />
		<tag k="ssr:stedsnr" v="125797" />
	</node>
	<node id="-286761" lat="59.9519027782" lon="9.87119722892">
		<tag k="name" v="Overntjern" />
		<tag k="natural" v="water" />
		<tag k="ssr:stedsnr" v="125768" />
	</node>
	<node id="-286758" lat="59.8984972198" lon="9.8197694508">
		<tag k="alt_name" v="Dammene" />
		<tag k="name" v="Dammane" />
		<tag k="natural" v="water" />
		<tag k="ssr:stedsnr" v="125691" />
		<tag k="water" v="lake" />
	</node>
	<node id="-286749" lat="59.9882833294" lon="10.1070861083">
		<tag k="name" v="Auretjern" />
		<tag k="natural" v="water" />
		<tag k="ssr:stedsnr" v="125464" />
	</node>
	<node id="-286748" lat="59.9171527751" lon="10.0427472248">
		<tag k="alt_name" v="Urvannet" />
		<tag k="name" v="Urdvatnet" />
		<tag k="natural" v="water" />
		<tag k="ssr:stedsnr" v="125452" />
		<tag k="water" v="lake" />
	</node>
	<node id="-286747" lat="59.927336107" lon="10.1204361088">
		<tag k="alt_name" v="Lille Nykjua" />
		<tag k="name" v="Vesle Nykjua" />
		<tag k="natural" v="water" />
		<tag k="ssr:stedsnr" v="125446" />
		<tag k="water" v="lake" />
	</node>
	<node id="-286746" lat="59.959925003" lon="10.167441675">
		<tag k="name" v="Snøkolltjern" />
		<tag k="natural" v="water" />
		<tag k="ssr:stedsnr" v="125411" />
	</node>
	<node id="-286744" lat="59.8912194426" lon="10.1211972163">
		<tag k="name" v="Fjellbekken" />
		<tag k="ssr:stedsnr" v="125365" />
		<tag k="waterway" v="stream" />
	</node>
	<node id="-286743" lat="59.9710611128" lon="10.0795472143">
		<tag k="alt_name" v="Gulbrandstjern" />
		<tag k="name" v="Gudbrandstjern" />
		<tag k="natural" v="water" />
		<tag k="ssr:stedsnr" v="124433" />
	</node>
	<node id="-286742" lat="59.9304722235" lon="10.3282250043">
		<tag k="name" v="Holsfjorden" />
		<tag k="natural" v="water" />
		<tag k="ssr:stedsnr" v="124411" />
	</node>
	<node id="-286741" lat="59.9659750035" lon="10.0984416732">
		<tag k="name" v="Lårvika" />
		<tag k="natural" v="water" />
		<tag k="ssr:stedsnr" v="124409" />
	</node>
	<node id="-286726" lat="59.9685111087" lon="9.96718054981">
		<tag k="name" v="Råenbekken" />
		<tag k="ssr:stedsnr" v="118839" />
		<tag k="waterway" v="stream" />
	</node>
	<node id="-286725" lat="59.8858888865" lon="10.0159527742">
		<tag k="name" v="Fosstjern" />
		<tag k="natural" v="water" />
		<tag k="ssr:stedsnr" v="118580" />
	</node>
</osm>
