<?xml version="1.0" encoding="UTF-8"?>
<osm version="0.6" generator="osmapis">
	<node lat="59.94248888893757" lon="10.03346944249216" id="-18831">
		<tag k="name" v="Lindebergsmyr" />
		<tag k="natural" v="wetland" />
		<tag k="ssr:stedsnr" v="40682" />
	</node>
	<node lat="59.98834444131788" lon="10.186766662465761" id="-18835">
		<tag k="name" v="Bergemyr" />
		<tag k="natural" v="wetland" />
		<tag k="ssr:stedsnr" v="42275" />
	</node>
	<node lat="59.990086108792354" lon="10.084352784405173" id="-18840">
		<tag k="name" v="Brumyrene" />
		<tag k="natural" v="wetland" />
		<tag k="ssr:stedsnr" v="237839" />
	</node>
	<node lat="59.94301944187132" lon="9.848036113042728" id="-18864">
		<tag k="name" v="Oremyr" />
		<tag k="natural" v="wetland" />
		<tag k="ssr:stedsnr" v="58812" />
	</node>
	<node lat="60.016002778125184" lon="9.982469449803025" id="-18865">
		<tag k="name" v="Navneberget" />
		<tag k="place" v="locality" />
		<tag k="ssr:stedsnr" v="59001" />
	</node>
	<node lat="59.94463611376231" lon="9.856455556333916" id="-18886">
		<tag k="alt_name" v="Storemyr" />
		<tag k="name" v="Stormyr" />
		<tag k="natural" v="wetland" />
		<tag k="ssr:stedsnr" v="65876" />
	</node>
	<node lat="60.075438891718164" lon="9.7727166599905" id="-18909">
		<tag k="historic" v="shieling" />
		<tag k="name" v="Håvardsrudplassen" />
		<tag k="place" v="locality" />
		<tag k="ssr:stedsnr" v="97105" />
	</node>
	<node lat="60.0586333350683" lon="9.918049994230547" id="-18933">
		<tag k="name" v="Postmyr" />
		<tag k="natural" v="wetland" />
		<tag k="ssr:stedsnr" v="103731" />
	</node>
	<node lat="59.99381666516074" lon="10.091627771514212" id="-18938">
		<tag k="name" v="Mathaugmyra" />
		<tag k="natural" v="wetland" />
		<tag k="ssr:stedsnr" v="116926" />
	</node>
	<node lat="59.971716669794425" lon="10.161216658319285" id="-18941">
		<tag k="name" v="Gæljemyr" />
		<tag k="natural" v="wetland" />
		<tag k="ssr:stedsnr" v="118107" />
	</node>
	<node lat="59.96734166581063" lon="9.866588895596587" id="-18963">
		<tag k="alt_name" v="Sydgruvene" />
		<tag k="landuse" v="quarry" />
		<tag k="name" v="Sørgruvene" />
		<tag k="ssr:stedsnr" v="125803" />
	</node>
	<node lat="59.977127780209294" lon="9.864119447715387" id="-18964">
		<tag k="landuse" v="quarry" />
		<tag k="name" v="Nordgruvene" />
		<tag k="ssr:stedsnr" v="125813" />
	</node>
	<node lat="59.91188333387723" lon="9.752319446048412" id="-18976">
		<tag k="landuse" v="meadow" />
		<tag k="name" v="Torudbråtan" />
		<tag k="ssr:stedsnr" v="157001" />
	</node>
	<node lat="59.92049166846141" lon="9.722580552349855" id="-18977">
		<tag k="name" v="Storsnar" />
		<tag k="place" v="locality" />
		<tag k="ssr:stedsnr" v="158105" />
	</node>
	<node lat="59.94675833473038" lon="10.047511110728554" id="-18984">
		<tag k="name" v="Stormyr" />
		<tag k="natural" v="wetland" />
		<tag k="ssr:stedsnr" v="161640" />
	</node>
	<node lat="60.06648889275297" lon="9.824452775956544" id="-18985">
		<tag k="name" v="Vrangmyr" />
		<tag k="natural" v="wetland" />
		<tag k="ssr:stedsnr" v="161661" />
	</node>
	<node lat="60.074008331984835" lon="9.937041660609685" id="-18992">
		<tag k="name" v="Villingsmyr" />
		<tag k="natural" v="wetland" />
		<tag k="ssr:stedsnr" v="163620" />
	</node>
	<node lat="60.068124998548235" lon="9.787086118010636" id="-19032">
		<tag k="name" v="Bjørmyr" />
		<tag k="natural" v="wetland" />
		<tag k="ssr:stedsnr" v="218114" />
	</node>
	<node lat="60.05576666628465" lon="9.774838886203039" id="-19033">
		<tag k="name" v="Baldemyr" />
		<tag k="natural" v="wetland" />
		<tag k="ssr:stedsnr" v="218122" />
	</node>
	<node lat="59.884680554704545" lon="9.895255556140041" id="-19036">
		<tag k="name" v="Kalveløkka" />
		<tag k="place" v="locality" />
		<tag k="ssr:stedsnr" v="222083" />
	</node>
	<node lat="59.95584722232574" lon="10.046563883737862" id="-19037">
		<tag k="name" v="Berglaupmyra" />
		<tag k="natural" v="wetland" />
		<tag k="ssr:stedsnr" v="222595" />
	</node>
	<node lat="59.87737777603633" lon="10.05779722096688" id="-19045">
		<tag k="name" v="Nygårdsmyra" />
		<tag k="natural" v="wetland" />
		<tag k="ssr:stedsnr" v="222680" />
	</node>
	<node lat="60.04208611274912" lon="9.94685276970043" id="-19063">
		<tag k="name" v="Presterudmyrene" />
		<tag k="natural" v="wetland" />
		<tag k="ssr:stedsnr" v="237293" />
	</node>
	<node lat="59.95033889175613" lon="9.845197213668923" id="-19083">
		<tag k="historic" v="shieling" />
		<tag k="name" v="Moen" />
		<tag k="place" v="locality" />
		<tag k="ssr:stedsnr" v="246721" />
	</node>
	<node lat="60.05344444756003" lon="9.78730833308551" id="-19097">
		<tag k="name" v="Stormyr" />
		<tag k="natural" v="wetland" />
		<tag k="ssr:stedsnr" v="461063" />
	</node>
	<node lat="59.87916944559954" lon="9.831905557533554" id="-19103">
		<tag k="name" v="Snarbråtan" />
		<tag k="place" v="locality" />
		<tag k="ssr:stedsnr" v="283291" />
	</node>
	<node lat="59.90363611018331" lon="9.734777778877065" id="-19108">
		<tag k="name" v="Torvmyr" />
		<tag k="natural" v="wetland" />
		<tag k="ssr:stedsnr" v="461131" />
	</node>
	<node lat="59.957036108582315" lon="9.877027768835045" id="-19110">
		<tag k="historic" v="shieling" />
		<tag k="name" v="Søyaløkka" />
		<tag k="place" v="locality" />
		<tag k="ssr:stedsnr" v="284885" />
	</node>
	<node lat="59.98245555674386" lon="10.064283337042946" id="-19119">
		<tag k="name" v="Køllemyr" />
		<tag k="natural" v="wetland" />
		<tag k="ssr:stedsnr" v="298824" />
	</node>
	<node lat="59.90673611444367" lon="10.040600002103526" id="-19139">
		<tag k="name" v="Gamlevollsmyr" />
		<tag k="natural" v="wetland" />
		<tag k="ssr:stedsnr" v="465699" />
	</node>
	<node lat="60.07752222674243" lon="9.890019438131429" id="-19163">
		<tag k="name" v="Gamlevollmyr" />
		<tag k="natural" v="wetland" />
		<tag k="ssr:stedsnr" v="345114" />
	</node>
	<node lat="59.991558332123226" lon="10.180016665067459" id="-19164">
		<tag k="name" v="Gampemyr" />
		<tag k="natural" v="wetland" />
		<tag k="ssr:stedsnr" v="345278" />
	</node>
	<node lat="59.990050000289806" lon="10.104069452852196" id="-19180">
		<tag k="name" v="Saumyr" />
		<tag k="natural" v="wetland" />
		<tag k="ssr:stedsnr" v="358959" />
	</node>
	<node lat="59.92458055490591" lon="10.024505557287902" id="-19181">
		<tag k="name" v="Løkemyr" />
		<tag k="natural" v="wetland" />
		<tag k="ssr:stedsnr" v="360503" />
	</node>
	<node lat="60.03405833687692" lon="9.80174999912774" id="-19212">
		<tag k="name" v="Sperråsmyra" />
		<tag k="natural" v="wetland" />
		<tag k="ssr:stedsnr" v="480752" />
	</node>
	<node lat="60.08278055982915" lon="9.910344450903096" id="-19238">
		<tag k="name" v="Lyaråsmyra" />
		<tag k="natural" v="wetland" />
		<tag k="ssr:stedsnr" v="406107" />
	</node>
	<node lat="59.996050001431044" lon="10.012999994401282" id="-19258">
		<tag k="historic" v="shieling" />
		<tag k="name" v="Tveithagen" />
		<tag k="place" v="locality" />
		<tag k="ssr:stedsnr" v="422495" />
	</node>
	<node lat="59.997147220475156" lon="10.044997221143264" id="-19262">
		<tag k="name" v="Grønlund" />
		<tag k="place" v="locality" />
		<tag k="ssr:stedsnr" v="423816" />
	</node>
	<node lat="59.97373055870571" lon="9.864552771415552" id="-19271">
		<tag k="landuse" v="quarry" />
		<tag k="name" v="Mellomgruvene" />
		<tag k="ssr:stedsnr" v="489800" />
	</node>
	<node lat="59.96947222011252" lon="10.205058327204354" id="-19319">
		<tag k="alt_name" v="Espermyr" />
		<tag k="name" v="Espermyra" />
		<tag k="natural" v="wetland" />
		<tag k="ssr:stedsnr" v="671475" />
	</node>
	<node lat="59.96138888612144" lon="9.890769449586633" id="-19344">
		<tag k="name" v="Sprengmyr" />
		<tag k="natural" v="wetland" />
		<tag k="ssr:stedsnr" v="465921" />
	</node>
	<node lat="59.98598055748353" lon="10.154491674995043" id="-19347">
		<tag k="name" v="Langemyr" />
		<tag k="natural" v="wetland" />
		<tag k="ssr:stedsnr" v="467279" />
	</node>
	<node lat="59.87960555763156" lon="10.023566669138487" id="-19361">
		<tag k="name" v="Vollmyr" />
		<tag k="natural" v="wetland" />
		<tag k="ssr:stedsnr" v="482609" />
	</node>
	<node lat="60.137061112602495" lon="9.883777785134589" id="-19365">
		<tag k="name" v="Gunnhusmyra" />
		<tag k="natural" v="wetland" />
		<tag k="ssr:stedsnr" v="483274" />
	</node>
	<node lat="59.95982499825663" lon="10.120936116969634" id="-19397">
		<tag k="name" v="Strandvollmyra" />
		<tag k="natural" v="wetland" />
		<tag k="ssr:stedsnr" v="525077" />
	</node>
	<node lat="59.94943611249242" lon="9.841630553451663" id="-19401">
		<tag k="landuse" v="meadow" />
		<tag k="name" v="Torinebråtan" />
		<tag k="ssr:stedsnr" v="525783" />
	</node>
	<node lat="59.941408335841864" lon="9.772933337998095" id="-19402">
		<tag k="name" v="Bjørkemyr" />
		<tag k="natural" v="wetland" />
		<tag k="ssr:stedsnr" v="527076" />
	</node>
	<node lat="59.89666666460251" lon="9.9667527858199" id="-19416">
		<tag k="name" v="Grasmyr" />
		<tag k="natural" v="wetland" />
		<tag k="ssr:stedsnr" v="542904" />
	</node>
	<node lat="59.97448333639286" lon="9.918319445126848" id="-19423">
		<tag k="historic" v="shieling" />
		<tag k="name" v="Dagsrudjordet" />
		<tag k="place" v="locality" />
		<tag k="ssr:stedsnr" v="544866" />
	</node>
	<node lat="59.94012221817824" lon="9.876366658287818" id="-19440">
		<tag k="name" v="Nedre Skreimyr" />
		<tag k="natural" v="wetland" />
		<tag k="ssr:stedsnr" v="587875" />
	</node>
	<node lat="60.0682138879032" lon="9.874388894566911" id="-19441">
		<tag k="historic" v="shieling" />
		<tag k="name" v="Kubberud" />
		<tag k="place" v="locality" />
		<tag k="ssr:stedsnr" v="588111" />
	</node>
	<node lat="59.963336114650645" lon="10.039761118243442" id="-19443">
		<tag k="name" v="Kudalsmyra" />
		<tag k="natural" v="wetland" />
		<tag k="ssr:stedsnr" v="588955" />
	</node>
	<node lat="59.87751389046837" lon="9.980141666416964" id="-19457">
		<tag k="name" v="Pipemyr" />
		<tag k="natural" v="wetland" />
		<tag k="ssr:stedsnr" v="611375" />
	</node>
	<node lat="59.98862222423056" lon="10.174730561367758" id="-19487">
		<tag k="name" v="Storrmyr" />
		<tag k="natural" v="wetland" />
		<tag k="ssr:stedsnr" v="709300" />
	</node>
	<node lat="60.096819445525846" lon="9.84206111677194" id="-19492">
		<tag k="name" v="Tuvemyr" />
		<tag k="natural" v="wetland" />
		<tag k="ssr:stedsnr" v="664603" />
	</node>
	<node lat="59.87539999717631" lon="9.962008342175567" id="-19505">
		<tag k="name" v="Briskemyr" />
		<tag k="natural" v="wetland" />
		<tag k="ssr:stedsnr" v="709899" />
	</node>
	<node lat="59.95667222233519" lon="9.826147215332758" id="-19545">
		<tag k="landuse" v="meadow" />
		<tag k="name" v="Kvernhushagen" />
		<tag k="ssr:stedsnr" v="891886" />
	</node>
	<node lat="60.10575832911909" lon="9.903822223020098" id="-19547">
		<tag k="name" v="Setermyra" />
		<tag k="natural" v="wetland" />
		<tag k="ssr:stedsnr" v="892022" />
	</node>
	<node lat="60.109413888540374" lon="9.896005556327014" id="-19548">
		<tag k="name" v="Glarudmyra" />
		<tag k="natural" v="wetland" />
		<tag k="ssr:stedsnr" v="892025" />
	</node>
	<node lat="60.04747222062168" lon="9.960958337041738" id="-19554">
		<tag k="name" v="Sommerfjøsmyr" />
		<tag k="natural" v="wetland" />
		<tag k="ssr:stedsnr" v="892723" />
	</node>
	<node lat="59.950958332327474" lon="9.826702782071452" id="-19565">
		<tag k="landuse" v="meadow" />
		<tag k="name" v="Tangene" />
		<tag k="ssr:stedsnr" v="709881" />
	</node>
	<node lat="59.974194447569296" lon="10.096069447510606" id="-19567">
		<tag k="name" v="Furuflaket" />
		<tag k="place" v="locality" />
		<tag k="ssr:stedsnr" v="950082" />
	</node>
	<node lat="60.02956110732393" lon="9.807455562504638" id="-19569">
		<tag k="name" v="Vetomyr" />
		<tag k="natural" v="wetland" />
		<tag k="ssr:stedsnr" v="723727" />
	</node>
	<node lat="60.02345833723503" lon="9.809852775978134" id="-19570">
		<tag k="name" v="Rosenmyr" />
		<tag k="natural" v="wetland" />
		<tag k="ssr:stedsnr" v="723728" />
	</node>
	<node lat="60.015124998819736" lon="9.977133326732911" id="-19579">
		<tag k="name" v="Sauemyr" />
		<tag k="natural" v="wetland" />
		<tag k="ssr:stedsnr" v="726113" />
	</node>
	<node lat="59.96614721779159" lon="10.208200006648173" id="-19580">
		<tag k="name" v="Maidalsmyr" />
		<tag k="natural" v="wetland" />
		<tag k="ssr:stedsnr" v="726192" />
	</node>
	<node lat="60.027605555862976" lon="9.884924996611812" id="-19593">
		<tag k="name" v="Stormyr" />
		<tag k="natural" v="wetland" />
		<tag k="ssr:stedsnr" v="732931" />
	</node>
	<node lat="60.02795277703208" lon="9.92780555315945" id="-19603">
		<tag k="name" v="Gamlevollmyra" />
		<tag k="natural" v="wetland" />
		<tag k="ssr:stedsnr" v="905284" />
	</node>
	<node lat="60.00266944389208" lon="9.962600005198649" id="-19605">
		<tag k="name" v="Langbråtan" />
		<tag k="place" v="locality" />
		<tag k="ssr:stedsnr" v="905338" />
	</node>
	<node lat="59.95011944147339" lon="10.110941665711248" id="-19607">
		<tag k="name" v="Engelstadvollmyrene" />
		<tag k="natural" v="wetland" />
		<tag k="ssr:stedsnr" v="907034" />
	</node>
	<node lat="59.95262499913757" lon="10.16629444075736" id="-19609">
		<tag k="historic" v="shieling" />
		<tag k="name" v="Askimvollen" />
		<tag k="place" v="locality" />
		<tag k="ssr:stedsnr" v="907071" />
	</node>
	<node lat="59.912383330479294" lon="9.888580560491732" id="-19611">
		<tag k="name" v="Sand" />
		<tag k="natural" v="beach" />
		<tag k="ssr:stedsnr" v="907179" />
		<tag k="surface" v="sand" />
	</node>
	<node lat="59.87767222057972" lon="9.895819436247315" id="-19612">
		<tag k="name" v="Svenskemyra" />
		<tag k="natural" v="wetland" />
		<tag k="ssr:stedsnr" v="768095" />
	</node>
	<node lat="60.08315000175923" lon="9.91768889673996" id="-19617">
		<tag k="name" v="Morudremmen" />
		<tag k="place" v="locality" />
		<tag k="ssr:stedsnr" v="768694" />
	</node>
	<node lat="59.993702776582644" lon="10.172008324449186" id="-19625">
		<tag k="name" v="Furumyr" />
		<tag k="natural" v="wetland" />
		<tag k="ssr:stedsnr" v="770269" />
	</node>
	<node lat="60.073449999546355" lon="9.88376388131499" id="-19627">
		<tag k="name" v="Hestemyr" />
		<tag k="natural" v="wetland" />
		<tag k="ssr:stedsnr" v="770111" />
	</node>
	<node lat="59.96163611456704" lon="10.193852780785177" id="-19645">
		<tag k="name" v="Tørrgranmyra" />
		<tag k="natural" v="wetland" />
		<tag k="ssr:stedsnr" v="785110" />
	</node>
	<node lat="59.99208333171573" lon="10.054161105889124" id="-19651">
		<tag k="name" v="Bikkjemyra" />
		<tag k="natural" v="wetland" />
		<tag k="ssr:stedsnr" v="787806" />
	</node>
	<node lat="60.02247499913458" lon="9.893886116858503" id="-19705">
		<tag k="name" v="Droplemyr" />
		<tag k="natural" v="wetland" />
		<tag k="ssr:stedsnr" v="828224" />
	</node>
	<node lat="59.909747224773774" lon="10.064852776687573" id="-19714">
		<tag k="name" v="Sauemyr" />
		<tag k="natural" v="wetland" />
		<tag k="ssr:stedsnr" v="830684" />
	</node>
	<node lat="60.06939444351862" lon="9.894202771886318" id="-19716">
		<tag k="name" v="Teiemyr" />
		<tag k="natural" v="wetland" />
		<tag k="ssr:stedsnr" v="831129" />
	</node>
	<node lat="60.025452781008866" lon="9.968466673510655" id="-19721">
		<tag k="name" v="Skinntrytmyra" />
		<tag k="natural" v="wetland" />
		<tag k="ssr:stedsnr" v="844281" />
	</node>
	<node lat="59.99027777472384" lon="10.137577775976863" id="-19723">
		<tag k="name" v="Storaskerudmyrene" />
		<tag k="natural" v="wetland" />
		<tag k="ssr:stedsnr" v="844985" />
	</node>
	<node lat="59.90796944377274" lon="9.980366659012994" id="-19726">
		<tag k="historic" v="shieling" />
		<tag k="name" v="Laupet" />
		<tag k="place" v="locality" />
		<tag k="ssr:stedsnr" v="846606" />
	</node>
	<node lat="60.06014722315221" lon="9.981102771372266" id="-19739">
		<tag k="name" v="Sjumyra" />
		<tag k="natural" v="wetland" />
		<tag k="ssr:stedsnr" v="854312" />
	</node>
	<node lat="59.86478611214439" lon="9.880569436405905" id="-19760">
		<tag k="name" v="Hagen" />
		<tag k="place" v="locality" />
		<tag k="ssr:stedsnr" v="876068" />
	</node>
	<node lat="60.06803333172458" lon="9.773575008069129" id="-19762">
		<tag k="name" v="Rollemyr" />
		<tag k="natural" v="wetland" />
		<tag k="ssr:stedsnr" v="886099" />
	</node>
	<node lat="59.8760583293394" lon="9.888541673666253" id="-19764">
		<tag k="name" v="Øvre Torsløkka" />
		<tag k="place" v="locality" />
		<tag k="ssr:stedsnr" v="889110" />
	</node>
	<node lat="59.955058332258766" lon="9.99400277520255" id="-19777">
		<tag k="name" v="Vikermyra" />
		<tag k="natural" v="wetland" />
		<tag k="ssr:stedsnr" v="906559" />
	</node>
	<node lat="59.92743610976354" lon="10.024341661980333" id="-19778">
		<tag k="name" v="Dammyra" />
		<tag k="natural" v="wetland" />
		<tag k="ssr:stedsnr" v="906561" />
	</node>
	<node lat="59.8869111154694" lon="9.98660555572015" id="-19811">
		<tag k="landuse" v="quarry" />
		<tag k="name" v="Skjerpet" />
		<tag k="ssr:stedsnr" v="950596" />
	</node>
	<node lat="60.046769444940644" lon="9.904130562270613" id="-19818">
		<tag k="name" v="Raumyr" />
		<tag k="natural" v="wetland" />
		<tag k="ssr:stedsnr" v="952141" />
	</node>
	<node lat="60.07603610691221" lon="9.791013886049068" id="-19872">
		<tag k="name" v="Slåttemyr" />
		<tag k="natural" v="wetland" />
		<tag k="ssr:stedsnr" v="36092" />
	</node>
	<node lat="60.074572226069456" lon="9.81536389230787" id="-19880">
		<tag k="name" v="Bleikmyr" />
		<tag k="natural" v="wetland" />
		<tag k="ssr:stedsnr" v="40737" />
	</node>
	<node lat="59.94014444509721" lon="9.869027778503618" id="-19883">
		<tag k="name" v="Fugleleikmyr" />
		<tag k="natural" v="wetland" />
		<tag k="ssr:stedsnr" v="41859" />
	</node>
	<node lat="59.94138333007252" lon="9.87033055605627" id="-19884">
		<tag k="name" v="Øvre Skreimyr" />
		<tag k="natural" v="wetland" />
		<tag k="ssr:stedsnr" v="41863" />
	</node>
	<node lat="59.889211107134514" lon="9.875722219619503" id="-19885">
		<tag k="name" v="Dalby" />
		<tag k="place" v="locality" />
		<tag k="ssr:stedsnr" v="42411" />
	</node>
	<node lat="60.045752779178876" lon="9.806988896416478" id="-19890">
		<tag k="name" v="Høgtidsåsmyra" />
		<tag k="natural" v="wetland" />
		<tag k="ssr:stedsnr" v="42675" />
	</node>
	<node lat="59.89184166687353" lon="10.097611117505771" id="-19893">
		<tag k="name" v="Trollmyrene" />
		<tag k="natural" v="wetland" />
		<tag k="ssr:stedsnr" v="42959" />
	</node>
	<node lat="59.903577774460764" lon="9.811527779740045" id="-19908">
		<tag k="name" v="Postmyr" />
		<tag k="natural" v="wetland" />
		<tag k="ssr:stedsnr" v="57963" />
	</node>
	<node lat="60.1012472206307" lon="9.833091658193592" id="-19953">
		<tag k="name" v="Høymyr" />
		<tag k="natural" v="wetland" />
		<tag k="ssr:stedsnr" v="101636" />
	</node>
	<node lat="59.97318888941527" lon="9.856977768858554" id="-19955">
		<tag k="name" v="Langmyr" />
		<tag k="natural" v="wetland" />
		<tag k="ssr:stedsnr" v="102840" />
	</node>
	<node lat="59.99182222008597" lon="10.16120277288517" id="-19958">
		<tag k="name" v="Fyrstemyr" />
		<tag k="natural" v="wetland" />
		<tag k="ssr:stedsnr" v="103268" />
	</node>
	<node lat="59.87005000315259" lon="9.887455551924976" id="-19996">
		<tag k="landuse" v="quarry" />
		<tag k="name" v="Hassel gruver" />
		<tag k="ssr:stedsnr" v="125671" />
	</node>
	<node lat="59.88932500413745" lon="9.891091659434851" id="-20031">
		<tag k="name" v="Granmarka" />
		<tag k="place" v="locality" />
		<tag k="ssr:stedsnr" v="161111" />
	</node>
	<node lat="59.94130555840264" lon="9.939252777471836" id="-20034">
		<tag k="historic" v="shieling" />
		<tag k="name" v="Syversbråten" />
		<tag k="place" v="locality" />
		<tag k="ssr:stedsnr" v="161842" />
	</node>
	<node lat="59.89469166744295" lon="9.757997228458564" id="-20046">
		<tag k="name" v="Kapteinsplassen" />
		<tag k="place" v="locality" />
		<tag k="ssr:stedsnr" v="176227" />
	</node>
	<node lat="59.987666663275895" lon="10.051599998395867" id="-20049">
		<tag k="historic" v="shieling" />
		<tag k="name" v="Monsebråten" />
		<tag k="place" v="locality" />
		<tag k="ssr:stedsnr" v="176845" />
	</node>
	<node lat="60.11394722574161" lon="9.910575008083706" id="-20051">
		<tag k="name" v="Tørrfurumyra" />
		<tag k="natural" v="wetland" />
		<tag k="ssr:stedsnr" v="177041" />
	</node>
	<node lat="59.95175833131883" lon="10.013563883822972" id="-20060">
		<tag k="historic" v="shieling" />
		<tag k="name" v="Mohagen" />
		<tag k="place" v="locality" />
		<tag k="ssr:stedsnr" v="178545" />
	</node>
	<node lat="60.07726944632444" lon="9.907319449304692" id="-20088">
		<tag k="name" v="Løkflata" />
		<tag k="natural" v="wetland" />
		<tag k="ssr:stedsnr" v="186869" />
	</node>
	<node lat="59.97865278153438" lon="10.125425005352906" id="-20102">
		<tag k="historic" v="shieling" />
		<tag k="name" v="Svartdalsvollen" />
		<tag k="place" v="locality" />
		<tag k="ssr:stedsnr" v="222053" />
	</node>
	<node lat="59.877913887380224" lon="9.825674991363996" id="-20106">
		<tag k="name" v="Smalmyr" />
		<tag k="natural" v="wetland" />
		<tag k="ssr:stedsnr" v="222317" />
	</node>
	<node lat="60.0914916664653" lon="9.92820556280378" id="-20109">
		<tag k="name" v="Bikkjemyra" />
		<tag k="natural" v="wetland" />
		<tag k="ssr:stedsnr" v="222655" />
	</node>
	<node lat="60.06298333583577" lon="9.822155555368987" id="-20117">
		<tag k="name" v="Kvernhusmyrene" />
		<tag k="natural" v="wetland" />
		<tag k="ssr:stedsnr" v="224655" />
	</node>
	<node lat="59.94706389038439" lon="10.032877784856069" id="-20128">
		<tag k="name" v="Lindebergsmyr" />
		<tag k="natural" v="wetland" />
		<tag k="ssr:stedsnr" v="283613" />
	</node>
	<node lat="59.98614166297351" lon="10.037680559986189" id="-20148">
		<tag k="historic" v="shieling" />
		<tag k="name" v="Sulland" />
		<tag k="place" v="locality" />
		<tag k="ssr:stedsnr" v="298790" />
	</node>
	<node lat="60.041519446997235" lon="9.806561119554422" id="-20151">
		<tag k="name" v="Storsteinmyra" />
		<tag k="natural" v="wetland" />
		<tag k="ssr:stedsnr" v="299760" />
	</node>
	<node lat="59.97738888488735" lon="10.17865278376863" id="-20153">
		<tag k="name" v="Spannsmyrene" />
		<tag k="natural" v="wetland" />
		<tag k="ssr:stedsnr" v="300127" />
	</node>
	<node lat="59.88443889035375" lon="10.028094445330899" id="-20154">
		<tag k="name" v="Svartmyr" />
		<tag k="natural" v="wetland" />
		<tag k="ssr:stedsnr" v="300620" />
	</node>
	<node lat="59.9732416697001" lon="10.206327778222828" id="-20156">
		<tag k="name" v="Lillemyr" />
		<tag k="natural" v="wetland" />
		<tag k="ssr:stedsnr" v="301169" />
	</node>
	<node lat="60.13197499762051" lon="9.946950008660751" id="-20161">
		<tag k="name" v="Grønmyr" />
		<tag k="natural" v="wetland" />
		<tag k="ssr:stedsnr" v="302529" />
	</node>
	<node lat="59.96804166921312" lon="9.885630554545228" id="-20198">
		<tag k="name" v="Småmyrene" />
		<tag k="natural" v="wetland" />
		<tag k="ssr:stedsnr" v="343927" />
	</node>
	<node lat="59.98486388716301" lon="10.119561116619247" id="-20214">
		<tag k="name" v="Gulsrudmyrene" />
		<tag k="natural" v="wetland" />
		<tag k="ssr:stedsnr" v="358972" />
	</node>
	<node lat="59.900858332363484" lon="10.05498055761574" id="-20244">
		<tag k="name" v="Langemyr" />
		<tag k="natural" v="wetland" />
		<tag k="ssr:stedsnr" v="368354" />
	</node>
	<node lat="59.90775833430896" lon="9.80185833059916" id="-20271">
		<tag k="name" v="Bjønnemyr" />
		<tag k="natural" v="wetland" />
		<tag k="ssr:stedsnr" v="400007" />
	</node>
	<node lat="60.0930722230738" lon="9.915411112206334" id="-20280">
		<tag k="name" v="Hæremyr" />
		<tag k="natural" v="wetland" />
		<tag k="ssr:stedsnr" v="404665" />
	</node>
	<node lat="60.00254444840473" lon="9.957663890978711" id="-20301">
		<tag k="name" v="Dammyr" />
		<tag k="natural" v="wetland" />
		<tag k="ssr:stedsnr" v="419354" />
	</node>
	<node lat="60.03514166868267" lon="9.981816660057111" id="-20310">
		<tag k="name" v="Holane" />
		<tag k="place" v="locality" />
		<tag k="ssr:stedsnr" v="423183" />
	</node>
	<node lat="60.14496110901342" lon="9.917286103708044" id="-20312">
		<tag k="name" v="Rismyr" />
		<tag k="natural" v="wetland" />
		<tag k="ssr:stedsnr" v="423559" />
	</node>
	<node lat="60.147169447759225" lon="9.896277772546092" id="-20323">
		<tag k="alt_name" v="Laupamyra" />
		<tag k="name" v="Lauparmyra" />
		<tag k="natural" v="wetland" />
		<tag k="ssr:stedsnr" v="429797" />
	</node>
	<node lat="59.946908331925" lon="9.877822223143886" id="-20329">
		<tag k="name" v="Halvorsmyr" />
		<tag k="natural" v="wetland" />
		<tag k="ssr:stedsnr" v="429746" />
	</node>
	<node lat="59.9585194482814" lon="10.056066660870428" id="-20356">
		<tag k="name" v="Austadmyrene" />
		<tag k="natural" v="wetland" />
		<tag k="ssr:stedsnr" v="525646" />
	</node>
	<node lat="59.92920555307355" lon="9.830061103826722" id="-20360">
		<tag k="landuse" v="meadow" />
		<tag k="name" v="Grønlund" />
		<tag k="ssr:stedsnr" v="525731" />
	</node>
	<node lat="60.031522225084544" lon="9.947394451404852" id="-20370">
		<tag k="name" v="Stormyr" />
		<tag k="natural" v="wetland" />
		<tag k="ssr:stedsnr" v="540292" />
	</node>
	<node lat="59.99305277543174" lon="10.133461115336754" id="-20375">
		<tag k="name" v="Vintermyr" />
		<tag k="natural" v="wetland" />
		<tag k="ssr:stedsnr" v="540979" />
	</node>
	<node lat="59.930808330707244" lon="9.838047230554414" id="-20384">
		<tag k="name" v="Elsebråten" />
		<tag k="place" v="locality" />
		<tag k="ssr:stedsnr" v="543763" />
	</node>
	<node lat="59.923641665260426" lon="9.735955562841143" id="-20422">
		<tag k="name" v="Krattmyr" />
		<tag k="natural" v="wetland" />
		<tag k="ssr:stedsnr" v="582067" />
	</node>
	<node lat="59.88907499751536" lon="9.886530558137252" id="-20424">
		<tag k="name" v="Mohagen" />
		<tag k="place" v="locality" />
		<tag k="ssr:stedsnr" v="585096" />
	</node>
	<node lat="59.98639999910103" lon="9.855150004232275" id="-20426">
		<tag k="name" v="Ospesnaret" />
		<tag k="place" v="locality" />
		<tag k="ssr:stedsnr" v="585470" />
	</node>
	<node lat="59.97948055461608" lon="9.865561107046664" id="-20438">
		<tag k="landuse" v="quarry" />
		<tag k="name" v="Gruve 6" />
		<tag k="ssr:stedsnr" v="587846" />
	</node>
	<node lat="60.051677781322155" lon="9.81891111454065" id="-20442">
		<tag k="name" v="Skjærbenkmyr" />
		<tag k="natural" v="wetland" />
		<tag k="ssr:stedsnr" v="588721" />
	</node>
	<node lat="59.984250003072006" lon="10.08667221481123" id="-20447">
		<tag k="name" v="Kleivmyra" />
		<tag k="natural" v="wetland" />
		<tag k="ssr:stedsnr" v="600873" />
	</node>
	<node lat="60.0270916659248" lon="9.963022213894645" id="-20449">
		<tag k="name" v="Løkmyr" />
		<tag k="natural" v="wetland" />
		<tag k="ssr:stedsnr" v="601269" />
	</node>
	<node lat="59.99701666814452" lon="10.13798889309441" id="-20451">
		<tag k="name" v="Laupmyra" />
		<tag k="natural" v="wetland" />
		<tag k="ssr:stedsnr" v="601976" />
	</node>
	<node lat="60.12411111434685" lon="9.92744999855583" id="-20502">
		<tag k="name" v="Grautmyr" />
		<tag k="natural" v="wetland" />
		<tag k="ssr:stedsnr" v="646660" />
	</node>
	<node lat="59.88519722036894" lon="10.03667499789815" id="-20504">
		<tag k="name" v="Ura" />
		<tag k="natural" v="scree" />
		<tag k="ssr:stedsnr" v="647701" />
	</node>
	<node lat="60.05900000066324" lon="9.88256943802282" id="-20508">
		<tag k="name" v="Laupmyr" />
		<tag k="natural" v="wetland" />
		<tag k="ssr:stedsnr" v="648150" />
	</node>
	<node lat="59.985008329674116" lon="10.096930547160914" id="-20517">
		<tag k="name" v="Tippmyr" />
		<tag k="natural" v="wetland" />
		<tag k="ssr:stedsnr" v="661949" />
	</node>
	<node lat="60.02922222238806" lon="9.893672217296258" id="-20518">
		<tag k="name" v="Droplemyr" />
		<tag k="natural" v="wetland" />
		<tag k="ssr:stedsnr" v="661260" />
	</node>
	<node lat="59.97843611356809" lon="10.092394448931769" id="-20527">
		<tag k="historic" v="shieling" />
		<tag k="name" v="Rødsvollen" />
		<tag k="place" v="locality" />
		<tag k="ssr:stedsnr" v="664070" />
	</node>
	<node lat="59.997675000032636" lon="9.836274996719565" id="-20601">
		<tag k="name" v="Setermyra" />
		<tag k="natural" v="wetland" />
		<tag k="ssr:stedsnr" v="768514" />
	</node>
	<node lat="59.873213885782214" lon="10.065183326336399" id="-20602">
		<tag k="name" v="Mørkbråtan" />
		<tag k="place" v="locality" />
		<tag k="ssr:stedsnr" v="768559" />
	</node>
</osm>
