<?xml version="1.0" encoding="UTF-8"?>
<osm version="0.6" generator="osmapis">
	<node id="135656138" lat="62.8933784" lon="7.679776" version="8" timestamp="2022-08-09T05:25:40Z" changeset="124666127" uid="3497659" user="NKA">
		<tag k="name" v="Batnfjordsøra" />
		<tag k="place" v="village" />
		<tag k="population" v="397" />
		<tag k="population:date" v="2021-01-01" />
		<tag k="ref:ssb_tettsted" v="6361" />
		<tag k="source:population" v="SSB - befolkning i tettstedet" />
		<tag k="ssr:stedsnr" v="497568" />
	</node>
	<node id="463211381" lat="62.8919567" lon="8.0857142" version="2" timestamp="2022-08-09T05:25:40Z" changeset="124666127" uid="3497659" user="NKA">
		<tag k="name" v="Angvika" />
		<tag k="place" v="village" />
		<tag k="ssr:stedsnr" v="254995" />
	</node>
	<node id="463211695" lat="62.9438495" lon="7.8575288" version="6" timestamp="2022-08-09T05:25:40Z" changeset="124666127" uid="3497659" user="NKA">
		<tag k="loc_name" v="Torvika" />
		<tag k="name" v="Torvikbukt" />
		<tag k="place" v="village" />
		<tag k="population" v="250" />
		<tag k="population:date" v="2021-01-01" />
		<tag k="ref:ssb_tettsted" v="6362" />
		<tag k="source:population" v="SSB - befolkning i tettstedet" />
		<tag k="ssr:stedsnr" v="496926" />
	</node>
	<node id="2115106123" lat="62.9641506" lon="7.7677525" version="2" timestamp="2022-08-09T05:25:40Z" changeset="124666127" uid="3497659" user="NKA">
		<tag k="name" v="Hogset" />
		<tag k="place" v="hamlet" />
		<tag k="ssr:stedsnr" v="497902" />
	</node>
	<node id="2115106126" lat="62.9723286" lon="7.8215661" version="3" timestamp="2022-08-09T05:25:40Z" changeset="124666127" uid="3497659" user="NKA">
		<tag k="name" v="Hallset" />
		<tag k="place" v="hamlet" />
		<tag k="ssr:stedsnr" v="375895" />
	</node>
	<node id="2115106127" lat="62.9597559" lon="7.7864532" version="2" timestamp="2022-08-09T05:25:40Z" changeset="124666127" uid="3497659" user="NKA">
		<tag k="name" v="Gjemnes" />
		<tag k="place" v="hamlet" />
		<tag k="ssr:stedsnr" v="861926" />
	</node>
	<node id="2115106128" lat="62.9831813" lon="7.7999456" version="2" timestamp="2022-08-09T05:25:40Z" changeset="124666127" uid="3497659" user="NKA">
		<tag k="name" v="Jelkrem" />
		<tag k="place" v="hamlet" />
		<tag k="ssr:stedsnr" v="254847" />
	</node>
	<node id="2117959805" lat="62.9742932" lon="7.8525118" version="2" timestamp="2022-08-09T05:25:40Z" changeset="124666127" uid="3497659" user="NKA">
		<tag k="name" v="Hjorten" />
		<tag k="place" v="hamlet" />
		<tag k="ssr:stedsnr" v="254830" />
	</node>
	<node id="2117959829" lat="62.9929198" lon="7.8405574" version="2" timestamp="2022-08-09T05:25:40Z" changeset="124666127" uid="3497659" user="NKA">
		<tag k="name" v="Storvika" />
		<tag k="place" v="hamlet" />
		<tag k="ssr:stedsnr" v="861880" />
	</node>
	<node id="2118032391" lat="62.9750258" lon="7.7929457" version="2" timestamp="2022-08-09T05:25:40Z" changeset="124666127" uid="3497659" user="NKA">
		<tag k="name" v="Hamna" />
		<tag k="place" v="hamlet" />
		<tag k="ssr:stedsnr" v="133834" />
	</node>
	<node id="4913650574" lat="62.9356343" lon="8.0743043" version="2" timestamp="2022-08-09T05:25:40Z" changeset="124666127" uid="3497659" user="NKA">
		<tag k="name" v="Flemma" />
		<tag k="place" v="village" />
		<tag k="ssr:stedsnr" v="739892" />
	</node>
	<node id="6214191511" lat="62.8676315" lon="7.8826663" version="2" timestamp="2022-08-09T05:25:40Z" changeset="124666127" uid="3497659" user="NKA">
		<tag k="alt_name" v="Osmarka" />
		<tag k="name" v="Heggem" />
		<tag k="place" v="village" />
		<tag k="ssr:stedsnr" v="315485" />
	</node>
	<node id="7036791970" lat="62.9708711" lon="7.8158725" version="2" timestamp="2022-01-26T07:34:57Z" changeset="116611763" uid="3497659" user="NKA">
		<tag k="junction" v="yes" />
		<tag k="name" v="Sjøvegskiftet" />
		<tag k="ssr:stedsnr" v="216960" />
	</node>
	<node id="7857744639" lat="62.8466954" lon="7.5831324" version="2" timestamp="2022-08-09T05:25:40Z" changeset="124666127" uid="3497659" user="NKA">
		<tag k="name" v="Sørlia" />
		<tag k="place" v="hamlet" />
		<tag k="ssr:stedsnr" v="12709" />
	</node>
	<node id="7857744640" lat="62.8541321" lon="7.5960215" version="2" timestamp="2022-08-09T05:25:40Z" changeset="124666127" uid="3497659" user="NKA">
		<tag k="name" v="Furset" />
		<tag k="place" v="hamlet" />
		<tag k="ssr:stedsnr" v="618638" />
	</node>
	<node id="7857804355" lat="62.8892553" lon="7.6622115" version="2" timestamp="2022-08-09T05:25:40Z" changeset="124666127" uid="3497659" user="NKA">
		<tag k="name" v="Harstad" />
		<tag k="place" v="hamlet" />
		<tag k="ssr:stedsnr" v="679552" />
	</node>
	<node id="7857804356" lat="62.889681" lon="7.679663" version="2" timestamp="2022-08-09T05:25:40Z" changeset="124666127" uid="3497659" user="NKA">
		<tag k="name" v="Innergarden" />
		<tag k="place" v="hamlet" />
		<tag k="ssr:stedsnr" v="618575" />
	</node>
	<node id="7857809370" lat="62.8786636" lon="7.6560113" version="2" timestamp="2022-08-09T05:25:40Z" changeset="124666127" uid="3497659" user="NKA">
		<tag k="name" v="Silset" />
		<tag k="place" v="hamlet" />
		<tag k="ssr:stedsnr" v="922632" />
	</node>
	<node id="7857809371" lat="62.8821532" lon="7.6355409" version="2" timestamp="2022-08-09T05:25:40Z" changeset="124666127" uid="3497659" user="NKA">
		<tag k="name" v="Gaupset" />
		<tag k="place" v="hamlet" />
		<tag k="ssr:stedsnr" v="72631" />
	</node>
	<node id="7857809372" lat="62.9024529" lon="7.678805" version="2" timestamp="2022-08-09T05:25:40Z" changeset="124666127" uid="3497659" user="NKA">
		<tag k="name" v="Astad" />
		<tag k="place" v="hamlet" />
		<tag k="ssr:stedsnr" v="557577" />
	</node>
	<node id="7857809373" lat="62.9004115" lon="7.667078" version="2" timestamp="2022-08-09T05:25:40Z" changeset="124666127" uid="3497659" user="NKA">
		<tag k="name" v="Solsida" />
		<tag k="place" v="quarter" />
		<tag k="ssr:stedsnr" v="202816" />
	</node>
	<node id="7857809374" lat="62.9006011" lon="7.7003973" version="2" timestamp="2022-08-09T05:25:40Z" changeset="124666127" uid="3497659" user="NKA">
		<tag k="name" v="Løvollan" />
		<tag k="place" v="farm" />
		<tag k="ssr:stedsnr" v="739617" />
	</node>
	<node id="7857809375" lat="62.9027414" lon="7.7032564" version="2" timestamp="2022-08-09T05:25:40Z" changeset="124666127" uid="3497659" user="NKA">
		<tag k="name" v="Vika" />
		<tag k="place" v="farm" />
		<tag k="ssr:stedsnr" v="315588" />
	</node>
	<node id="7857809378" lat="62.9199421" lon="7.7607639" version="2" timestamp="2022-08-09T05:25:40Z" changeset="124666127" uid="3497659" user="NKA">
		<tag k="name" v="Myklebostad" />
		<tag k="place" v="hamlet" />
		<tag k="ssr:stedsnr" v="800951" />
	</node>
	<node id="7898686131" lat="62.8598112" lon="7.5790857" version="2" timestamp="2022-08-09T05:25:40Z" changeset="124666127" uid="3497659" user="NKA">
		<tag k="name" v="Åndal" />
		<tag k="place" v="hamlet" />
		<tag k="ssr:stedsnr" v="193640" />
	</node>
	<node id="7898686132" lat="62.8621031" lon="7.588925" version="2" timestamp="2022-08-09T05:25:40Z" changeset="124666127" uid="3497659" user="NKA">
		<tag k="name" v="Haugan" />
		<tag k="place" v="farm" />
		<tag k="ssr:stedsnr" v="194648" />
	</node>
	<node id="9941660179" lat="62.886925" lon="7.9568362" version="1" timestamp="2022-08-09T05:25:40Z" changeset="124666127" uid="3497659" user="NKA">
		<tag k="name" v="Hola" />
		<tag k="place" v="farm" />
		<tag k="ssr:stedsnr" v="640011" />
	</node>
	<node id="9941660180" lat="62.8700412" lon="7.9571841" version="1" timestamp="2022-08-09T05:25:40Z" changeset="124666127" uid="3497659" user="NKA">
		<tag k="name" v="Vollan" />
		<tag k="place" v="farm" />
		<tag k="ssr:stedsnr" v="398010" />
	</node>
	<node id="9941660181" lat="62.8503639" lon="7.9661556" version="1" timestamp="2022-08-09T05:25:40Z" changeset="124666127" uid="3497659" user="NKA">
		<tag k="alt_name" v="Blikåssetra" />
		<tag k="historic" v="shieling" />
		<tag k="name" v="Durmålshaug" />
		<tag k="place" v="isolated_dwelling" />
		<tag k="ssr:stedsnr" v="133470" />
	</node>
	<node id="9941660182" lat="62.892625" lon="8.0440056" version="1" timestamp="2022-08-09T05:25:40Z" changeset="124666127" uid="3497659" user="NKA">
		<tag k="name" v="Nerbø" />
		<tag k="place" v="farm" />
		<tag k="ssr:stedsnr" v="679998" />
	</node>
	<node id="9941660183" lat="62.8877667" lon="7.9705722" version="1" timestamp="2022-08-09T05:25:40Z" changeset="124666127" uid="3497659" user="NKA">
		<tag k="name" v="Negarden" />
		<tag k="place" v="farm" />
		<tag k="ssr:stedsnr" v="459027" />
	</node>
	<node id="9941660184" lat="62.8710792" lon="7.9621068" version="1" timestamp="2022-08-09T05:25:40Z" changeset="124666127" uid="3497659" user="NKA">
		<tag k="name" v="Garden" />
		<tag k="place" v="farm" />
		<tag k="ssr:stedsnr" v="34014" />
	</node>
	<node id="9941660185" lat="62.8600609" lon="7.9905402" version="1" timestamp="2022-08-09T05:25:40Z" changeset="124666127" uid="3497659" user="NKA">
		<tag k="name" v="Smihaugen" />
		<tag k="place" v="isolated_dwelling" />
		<tag k="ssr:stedsnr" v="338557" />
	</node>
	<node id="9941660186" lat="62.8687193" lon="7.9533685" version="1" timestamp="2022-08-09T05:25:40Z" changeset="124666127" uid="3497659" user="NKA">
		<tag k="name" v="Sygarden" />
		<tag k="place" v="farm" />
		<tag k="ssr:stedsnr" v="519019" />
	</node>
	<node id="9941660187" lat="62.9539722" lon="8.0299584" version="1" timestamp="2022-08-09T05:25:40Z" changeset="124666127" uid="3497659" user="NKA">
		<tag k="name" v="Hjellan" />
		<tag k="place" v="farm" />
		<tag k="ssr:stedsnr" v="739875" />
	</node>
	<node id="9941660188" lat="62.8595789" lon="7.9902769" version="1" timestamp="2022-08-09T05:25:40Z" changeset="124666127" uid="3497659" user="NKA">
		<tag k="name" v="Torestua" />
		<tag k="place" v="isolated_dwelling" />
		<tag k="ssr:stedsnr" v="34015" />
	</node>
	<node id="9941660189" lat="62.8865364" lon="8.1068723" version="1" timestamp="2022-08-09T05:25:40Z" changeset="124666127" uid="3497659" user="NKA">
		<tag k="name" v="Knivskjenes" />
		<tag k="place" v="farm" />
		<tag k="ssr:stedsnr" v="458999" />
	</node>
	<node id="9941660190" lat="62.8724859" lon="7.9650896" version="1" timestamp="2022-08-09T05:25:40Z" changeset="124666127" uid="3497659" user="NKA">
		<tag k="name" v="Trøa" />
		<tag k="place" v="farm" />
		<tag k="ssr:stedsnr" v="34027" />
	</node>
	<node id="9941660191" lat="62.9234028" lon="8.0138972" version="1" timestamp="2022-08-09T05:25:40Z" changeset="124666127" uid="3497659" user="NKA">
		<tag k="historic" v="shieling" />
		<tag k="name" v="Flemsetra" />
		<tag k="place" v="isolated_dwelling" />
		<tag k="ssr:stedsnr" v="679947" />
	</node>
	<node id="9941660192" lat="62.9628656" lon="8.0168809" version="1" timestamp="2022-08-09T05:25:40Z" changeset="124666127" uid="3497659" user="NKA">
		<tag k="name" v="Hoemsvika" />
		<tag k="place" v="hamlet" />
		<tag k="ssr:stedsnr" v="678869" />
	</node>
	<node id="9941660193" lat="62.927425" lon="7.9971944" version="1" timestamp="2022-08-09T05:25:40Z" changeset="124666127" uid="3497659" user="NKA">
		<tag k="historic" v="shieling" />
		<tag k="name" v="Nersetra" />
		<tag k="place" v="isolated_dwelling" />
		<tag k="ssr:stedsnr" v="702012" />
	</node>
	<node id="9941660194" lat="62.9263857" lon="7.7775769" version="1" timestamp="2022-08-09T05:25:40Z" changeset="124666127" uid="3497659" user="NKA">
		<tag k="name" v="Myrteigen" />
		<tag k="place" v="farm" />
		<tag k="ssr:stedsnr" v="823025" />
	</node>
	<node id="9941660195" lat="62.9209639" lon="7.7048472" version="1" timestamp="2022-08-09T05:25:40Z" changeset="124666127" uid="3497659" user="NKA">
		<tag k="name" v="Bø" />
		<tag k="place" v="farm" />
		<tag k="ssr:stedsnr" v="337460" />
	</node>
	<node id="9941660196" lat="62.9288361" lon="7.7218418" version="1" timestamp="2022-08-09T05:25:40Z" changeset="124666127" uid="3497659" user="NKA">
		<tag k="name" v="Nordheim" />
		<tag k="place" v="farm" />
		<tag k="ssr:stedsnr" v="702048" />
	</node>
	<node id="9941660197" lat="62.9298556" lon="7.863214" version="1" timestamp="2022-08-09T05:25:40Z" changeset="124666127" uid="3497659" user="NKA">
		<tag k="name" v="Høgmyra" />
		<tag k="place" v="isolated_dwelling" />
		<tag k="ssr:stedsnr" v="557906" />
	</node>
	<node id="9941660198" lat="62.8787053" lon="8.1057876" version="1" timestamp="2022-08-09T05:25:40Z" changeset="124666127" uid="3497659" user="NKA">
		<tag k="name" v="Kattvika" />
		<tag k="place" v="farm" />
		<tag k="ssr:stedsnr" v="922460" />
	</node>
	<node id="9941660199" lat="62.9412188" lon="7.8126889" version="1" timestamp="2022-08-09T05:25:40Z" changeset="124666127" uid="3497659" user="NKA">
		<tag k="name" v="Amundplassen" />
		<tag k="place" v="farm" />
		<tag k="ssr:stedsnr" v="337054" />
	</node>
	<node id="9941660200" lat="62.90365" lon="7.7820667" version="1" timestamp="2022-08-09T05:25:40Z" changeset="124666127" uid="3497659" user="NKA">
		<tag k="name" v="Myra" />
		<tag k="place" v="farm" />
		<tag k="ssr:stedsnr" v="398049" />
	</node>
	<node id="9941660201" lat="62.8882579" lon="8.0657652" version="1" timestamp="2022-08-09T05:25:40Z" changeset="124666127" uid="3497659" user="NKA">
		<tag k="historic" v="shieling" />
		<tag k="name" v="Heimsetra" />
		<tag k="place" v="isolated_dwelling" />
		<tag k="ssr:stedsnr" v="506650" />
	</node>
	<node id="9941660202" lat="62.9222472" lon="8.0280666" version="1" timestamp="2022-08-09T05:25:40Z" changeset="124666127" uid="3497659" user="NKA">
		<tag k="historic" v="shieling" />
		<tag k="name" v="Gammelsetra" />
		<tag k="place" v="isolated_dwelling" />
		<tag k="ssr:stedsnr" v="519462" />
	</node>
	<node id="9941660203" lat="62.8694739" lon="8.106362" version="1" timestamp="2022-08-09T05:25:40Z" changeset="124666127" uid="3497659" user="NKA">
		<tag k="name" v="Brubekken" />
		<tag k="place" v="farm" />
		<tag k="ssr:stedsnr" v="558528" />
	</node>
	<node id="9941660204" lat="62.9237647" lon="7.7703903" version="1" timestamp="2022-08-09T05:25:40Z" changeset="124666127" uid="3497659" user="NKA">
		<tag k="name" v="Fjøsteigen" />
		<tag k="place" v="farm" />
		<tag k="ssr:stedsnr" v="216035" />
	</node>
	<node id="9941660205" lat="62.9170193" lon="7.7572837" version="1" timestamp="2022-08-09T05:25:40Z" changeset="124666127" uid="3497659" user="NKA">
		<tag k="name" v="Klokkargarden" />
		<tag k="place" v="farm" />
		<tag k="ssr:stedsnr" v="95042" />
	</node>
	<node id="9941660206" lat="62.9067639" lon="7.7975889" version="1" timestamp="2022-08-09T05:25:40Z" changeset="124666127" uid="3497659" user="NKA">
		<tag k="historic" v="shieling" />
		<tag k="name" v="Frekstusetra" />
		<tag k="place" v="isolated_dwelling" />
		<tag k="ssr:stedsnr" v="95035" />
	</node>
	<node id="9941660207" lat="62.8962558" lon="8.0411202" version="1" timestamp="2022-08-09T05:25:40Z" changeset="124666127" uid="3497659" user="NKA">
		<tag k="name" v="Sollia" />
		<tag k="place" v="farm" />
		<tag k="ssr:stedsnr" v="497999" />
	</node>
	<node id="9941660208" lat="62.8931527" lon="7.7641834" version="1" timestamp="2022-08-09T05:25:40Z" changeset="124666127" uid="3497659" user="NKA">
		<tag k="historic" v="shieling" />
		<tag k="name" v="Skeissetra" />
		<tag k="place" v="isolated_dwelling" />
		<tag k="ssr:stedsnr" v="133985" />
	</node>
	<node id="9941660209" lat="62.9077722" lon="7.8213168" version="1" timestamp="2022-08-09T05:25:40Z" changeset="124666127" uid="3497659" user="NKA">
		<tag k="historic" v="shieling" />
		<tag k="name" v="Negardsetra" />
		<tag k="place" v="isolated_dwelling" />
		<tag k="ssr:stedsnr" v="12941" />
	</node>
	<node id="9941660210" lat="62.94135" lon="7.8125583" version="1" timestamp="2022-08-09T05:25:40Z" changeset="124666127" uid="3497659" user="NKA">
		<tag k="name" v="Dønnemsmyra" />
		<tag k="place" v="farm" />
		<tag k="ssr:stedsnr" v="922906" />
	</node>
	<node id="9941660211" lat="62.8890389" lon="8.0864506" version="1" timestamp="2022-08-09T05:25:40Z" changeset="124666127" uid="3497659" user="NKA">
		<tag k="name" v="Sanden" />
		<tag k="place" v="neighbourhood" />
		<tag k="ssr:stedsnr" v="155016" />
	</node>
	<node id="9941660212" lat="62.8684399" lon="8.108055" version="1" timestamp="2022-08-09T05:25:40Z" changeset="124666127" uid="3497659" user="NKA">
		<tag k="name" v="Berget" />
		<tag k="place" v="farm" />
		<tag k="ssr:stedsnr" v="155011" />
	</node>
	<node id="9941660213" lat="62.9228389" lon="7.7652361" version="1" timestamp="2022-08-09T05:25:40Z" changeset="124666127" uid="3497659" user="NKA">
		<tag k="name" v="Leitet" />
		<tag k="place" v="farm" />
		<tag k="ssr:stedsnr" v="11957" />
	</node>
	<node id="9941660214" lat="62.9414939" lon="7.8607298" version="1" timestamp="2022-08-09T05:25:40Z" changeset="124666127" uid="3497659" user="NKA">
		<tag k="name" v="Vollabakken" />
		<tag k="place" v="neighbourhood" />
		<tag k="ssr:stedsnr" v="822574" />
	</node>
	<node id="9941660215" lat="62.9440334" lon="7.7478889" version="1" timestamp="2022-08-09T05:25:40Z" changeset="124666127" uid="3497659" user="NKA">
		<tag k="name" v="Sjøvang" />
		<tag k="place" v="farm" />
		<tag k="ssr:stedsnr" v="921909" />
	</node>
	<node id="9941660216" lat="62.9161046" lon="7.7576508" version="1" timestamp="2022-08-09T05:25:40Z" changeset="124666127" uid="3497659" user="NKA">
		<tag k="name" v="Sjømælingan" />
		<tag k="place" v="farm" />
		<tag k="ssr:stedsnr" v="12967" />
	</node>
	<node id="9941665317" lat="62.9312477" lon="7.726997" version="1" timestamp="2022-08-09T05:25:40Z" changeset="124666127" uid="3497659" user="NKA">
		<tag k="name" v="Kirkevollen" />
		<tag k="place" v="farm" />
		<tag k="ssr:stedsnr" v="885855" />
	</node>
	<node id="9941665318" lat="62.9426389" lon="7.8455917" version="1" timestamp="2022-08-09T05:25:40Z" changeset="124666127" uid="3497659" user="NKA">
		<tag k="name" v="Bakkan" />
		<tag k="place" v="farm" />
		<tag k="ssr:stedsnr" v="800907" />
	</node>
	<node id="9941665319" lat="62.9091292" lon="7.6893119" version="1" timestamp="2022-08-09T05:25:40Z" changeset="124666127" uid="3497659" user="NKA">
		<tag k="name" v="Rød" />
		<tag k="place" v="hamlet" />
		<tag k="ssr:stedsnr" v="921604" />
	</node>
	<node id="9941665320" lat="62.8873688" lon="7.6495311" version="1" timestamp="2022-08-09T05:25:40Z" changeset="124666127" uid="3497659" user="NKA">
		<tag k="name" v="Brattmyra" />
		<tag k="place" v="farm" />
		<tag k="ssr:stedsnr" v="399827" />
	</node>
	<node id="9941665321" lat="62.9654722" lon="8.0106112" version="1" timestamp="2022-08-09T05:25:40Z" changeset="124666127" uid="3497659" user="NKA">
		<tag k="name" v="Bakketun" />
		<tag k="place" v="farm" />
		<tag k="ssr:stedsnr" v="702031" />
	</node>
	<node id="9941665322" lat="62.9673276" lon="8.0026024" version="1" timestamp="2022-08-09T05:25:40Z" changeset="124666127" uid="3497659" user="NKA">
		<tag k="name" v="Lamvika" />
		<tag k="place" v="farm" />
		<tag k="ssr:stedsnr" v="133875" />
	</node>
	<node id="9941665323" lat="62.9179362" lon="7.7614418" version="1" timestamp="2022-08-09T05:25:40Z" changeset="124666127" uid="3497659" user="NKA">
		<tag k="name" v="Gammelskulen" />
		<tag k="place" v="farm" />
		<tag k="ssr:stedsnr" v="640055" />
	</node>
	<node id="9941665324" lat="62.9639037" lon="8.0344257" version="1" timestamp="2022-08-09T05:25:40Z" changeset="124666127" uid="3497659" user="NKA">
		<tag k="name" v="Kroken" />
		<tag k="place" v="farm" />
		<tag k="ssr:stedsnr" v="376882" />
	</node>
	<node id="9941665325" lat="62.9649528" lon="7.9733722" version="1" timestamp="2022-08-09T05:25:40Z" changeset="124666127" uid="3497659" user="NKA">
		<tag k="name" v="Skaret" />
		<tag k="place" v="farm" />
		<tag k="ssr:stedsnr" v="12874" />
	</node>
	<node id="9941665326" lat="62.9356833" lon="7.8291084" version="1" timestamp="2022-08-09T05:25:40Z" changeset="124666127" uid="3497659" user="NKA">
		<tag k="historic" v="shieling" />
		<tag k="name" v="Holtasetra" />
		<tag k="place" v="isolated_dwelling" />
		<tag k="ssr:stedsnr" v="458596" />
	</node>
	<node id="9941665327" lat="62.9084261" lon="7.7729041" version="1" timestamp="2022-08-09T05:25:40Z" changeset="124666127" uid="3497659" user="NKA">
		<tag k="name" v="Skeisdalen" />
		<tag k="place" v="hamlet" />
		<tag k="ssr:stedsnr" v="557925" />
	</node>
	<node id="9941665328" lat="62.8984111" lon="7.7402056" version="1" timestamp="2022-08-09T05:25:40Z" changeset="124666127" uid="3497659" user="NKA">
		<tag k="name" v="Raudbergstua" />
		<tag k="place" v="isolated_dwelling" />
		<tag k="ssr:stedsnr" v="640048" />
	</node>
	<node id="9941665329" lat="62.9614053" lon="7.9294949" version="1" timestamp="2022-08-09T05:25:40Z" changeset="124666127" uid="3497659" user="NKA">
		<tag k="name" v="Nistua" />
		<tag k="place" v="farm" />
		<tag k="ssr:stedsnr" v="944029" />
	</node>
	<node id="9941665330" lat="62.9615398" lon="7.9269048" version="1" timestamp="2022-08-09T05:25:40Z" changeset="124666127" uid="3497659" user="NKA">
		<tag k="name" v="Sygarden" />
		<tag k="place" v="farm" />
		<tag k="ssr:stedsnr" v="277016" />
	</node>
	<node id="9941665331" lat="62.9379856" lon="7.7392172" version="1" timestamp="2022-08-09T05:25:40Z" changeset="124666127" uid="3497659" user="NKA">
		<tag k="name" v="Knutset" />
		<tag k="place" v="hamlet" />
		<tag k="ssr:stedsnr" v="557918" />
	</node>
	<node id="9941665332" lat="62.9277333" lon="7.9938778" version="1" timestamp="2022-08-09T05:25:40Z" changeset="124666127" uid="3497659" user="NKA">
		<tag k="historic" v="shieling" />
		<tag k="name" v="Midtsetra" />
		<tag k="place" v="isolated_dwelling" />
		<tag k="ssr:stedsnr" v="763657" />
	</node>
	<node id="9941665333" lat="62.9296052" lon="7.7893241" version="1" timestamp="2022-08-09T05:25:40Z" changeset="124666127" uid="3497659" user="NKA">
		<tag k="name" v="Øverhjellen" />
		<tag k="place" v="farm" />
		<tag k="ssr:stedsnr" v="398042" />
	</node>
	<node id="9941665334" lat="62.9332099" lon="7.7293882" version="1" timestamp="2022-08-09T05:25:40Z" changeset="124666127" uid="3497659" user="NKA">
		<tag k="name" v="Kammen" />
		<tag k="place" v="farm" />
		<tag k="ssr:stedsnr" v="278364" />
	</node>
	<node id="9941665335" lat="62.9470806" lon="7.7565889" version="1" timestamp="2022-08-09T05:25:40Z" changeset="124666127" uid="3497659" user="NKA">
		<tag k="name" v="Frekhaugen" />
		<tag k="place" v="farm" />
		<tag k="ssr:stedsnr" v="72911" />
	</node>
	<node id="9941665336" lat="62.9628611" lon="7.9573944" version="1" timestamp="2022-08-09T05:25:40Z" changeset="124666127" uid="3497659" user="NKA">
		<tag k="name" v="Øygarden" />
		<tag k="place" v="farm" />
		<tag k="ssr:stedsnr" v="618899" />
	</node>
	<node id="9941665337" lat="62.916775" lon="7.7452334" version="1" timestamp="2022-08-09T05:25:40Z" changeset="124666127" uid="3497659" user="NKA">
		<tag k="name" v="Ørlia bustadfelt" />
		<tag k="place" v="neighbourhood" />
		<tag k="ssr:stedsnr" v="222709" />
	</node>
	<node id="9941665338" lat="62.9270908" lon="7.778759" version="1" timestamp="2022-08-09T05:25:40Z" changeset="124666127" uid="3497659" user="NKA">
		<tag k="name" v="Høybuteigen" />
		<tag k="place" v="farm" />
		<tag k="ssr:stedsnr" v="762037" />
	</node>
	<node id="9941665339" lat="62.9337139" lon="7.7315446" version="1" timestamp="2022-08-09T05:25:40Z" changeset="124666127" uid="3497659" user="NKA">
		<tag k="name" v="Holten" />
		<tag k="place" v="farm" />
		<tag k="ssr:stedsnr" v="34045" />
	</node>
	<node id="9941665340" lat="62.9182061" lon="7.7502421" version="1" timestamp="2022-08-09T05:25:40Z" changeset="124666127" uid="3497659" user="NKA">
		<tag k="name" v="Prestgarden" />
		<tag k="place" v="farm" />
		<tag k="ssr:stedsnr" v="580040" />
	</node>
	<node id="9941665341" lat="62.9371367" lon="7.7355553" version="1" timestamp="2022-08-09T05:25:40Z" changeset="124666127" uid="3497659" user="NKA">
		<tag k="name" v="Haugan" />
		<tag k="place" v="farm" />
		<tag k="ssr:stedsnr" v="580051" />
	</node>
	<node id="9941665342" lat="62.9456917" lon="7.7502723" version="1" timestamp="2022-08-09T05:25:40Z" changeset="124666127" uid="3497659" user="NKA">
		<tag k="name" v="Varmbo" />
		<tag k="place" v="farm" />
		<tag k="ssr:stedsnr" v="34046" />
	</node>
	<node id="9941665343" lat="62.9370639" lon="7.802361" version="1" timestamp="2022-08-09T05:25:40Z" changeset="124666127" uid="3497659" user="NKA">
		<tag k="name" v="Skoglund" />
		<tag k="place" v="farm" />
		<tag k="ssr:stedsnr" v="34033" />
	</node>
	<node id="9941665344" lat="62.8707497" lon="7.9562967" version="1" timestamp="2022-08-09T05:25:40Z" changeset="124666127" uid="3497659" user="NKA">
		<tag k="alt_name" v="Blikås" />
		<tag k="name" v="Blikåsen" />
		<tag k="place" v="hamlet" />
		<tag k="ssr:stedsnr" v="497487" />
	</node>
	<node id="9941665345" lat="62.9139805" lon="7.6784944" version="1" timestamp="2022-08-09T05:25:40Z" changeset="124666127" uid="3497659" user="NKA">
		<tag k="historic" v="shieling" />
		<tag k="name" v="Rødsetra" />
		<tag k="place" v="isolated_dwelling" />
		<tag k="ssr:stedsnr" v="34047" />
	</node>
	<node id="9941665346" lat="62.9140217" lon="8.0230096" version="1" timestamp="2022-08-09T05:25:40Z" changeset="124666127" uid="3497659" user="NKA">
		<tag k="name" v="Flemsetra" />
		<tag k="place" v="hamlet" />
		<tag k="ssr:stedsnr" v="497936" />
	</node>
	<node id="9941665347" lat="62.9410392" lon="7.7412643" version="1" timestamp="2022-08-09T05:25:40Z" changeset="124666127" uid="3497659" user="NKA">
		<tag k="name" v="Knutsetneset" />
		<tag k="place" v="farm" />
		<tag k="ssr:stedsnr" v="398046" />
	</node>
	<node id="9941665348" lat="62.9681084" lon="7.8131806" version="1" timestamp="2022-08-09T05:25:40Z" changeset="124666127" uid="3497659" user="NKA">
		<tag k="name" v="Gammelstua" />
		<tag k="place" v="farm" />
		<tag k="ssr:stedsnr" v="398954" />
	</node>
	<node id="9941665349" lat="62.9460601" lon="7.754679" version="1" timestamp="2022-08-09T05:25:40Z" changeset="124666127" uid="3497659" user="NKA">
		<tag k="name" v="Gjemnesstranda boligfelt" />
		<tag k="place" v="neighbourhood" />
		<tag k="ssr:stedsnr" v="40822" />
	</node>
	<node id="9941665350" lat="62.8657495" lon="7.7201221" version="1" timestamp="2022-08-09T05:25:40Z" changeset="124666127" uid="3497659" user="NKA">
		<tag k="historic" v="shieling" />
		<tag k="name" v="Nåstadsetra" />
		<tag k="place" v="isolated_dwelling" />
		<tag k="ssr:stedsnr" v="399227" />
	</node>
	<node id="9941665351" lat="62.9677663" lon="7.740009" version="1" timestamp="2022-08-09T05:25:40Z" changeset="124666127" uid="3497659" user="NKA">
		<tag k="alt_name" v="Høgset industriområde" />
		<tag k="name" v="Hogset industriområde" />
		<tag k="place" v="neighbourhood" />
		<tag k="ssr:stedsnr" v="283798" />
	</node>
	<node id="9941665352" lat="62.8559389" lon="7.7862056" version="1" timestamp="2022-08-09T05:25:40Z" changeset="124666127" uid="3497659" user="NKA">
		<tag k="historic" v="shieling" />
		<tag k="name" v="Dyrlisetra" />
		<tag k="place" v="isolated_dwelling" />
		<tag k="ssr:stedsnr" v="338733" />
	</node>
	<node id="9941665353" lat="62.9678088" lon="7.8067566" version="1" timestamp="2022-08-09T05:25:40Z" changeset="124666127" uid="3497659" user="NKA">
		<tag k="name" v="Vollan" />
		<tag k="place" v="farm" />
		<tag k="ssr:stedsnr" v="216030" />
	</node>
	<node id="9941665354" lat="62.8594874" lon="7.9047464" version="1" timestamp="2022-08-09T05:25:40Z" changeset="124666127" uid="3497659" user="NKA">
		<tag k="name" v="Nystua" />
		<tag k="place" v="farm" />
		<tag k="ssr:stedsnr" v="216042" />
	</node>
	<node id="9941665355" lat="62.9040687" lon="7.9029752" version="1" timestamp="2022-08-09T05:25:40Z" changeset="124666127" uid="3497659" user="NKA">
		<tag k="name" v="Reitan" />
		<tag k="place" v="farm" />
		<tag k="ssr:stedsnr" v="254933" />
	</node>
	<node id="9941665356" lat="62.9273549" lon="7.780632" version="1" timestamp="2022-08-09T05:25:40Z" changeset="124666127" uid="3497659" user="NKA">
		<tag k="name" v="Myran" />
		<tag k="place" v="farm" />
		<tag k="ssr:stedsnr" v="155051" />
	</node>
	<node id="9941665357" lat="62.9603592" lon="7.7892031" version="1" timestamp="2022-08-09T05:25:40Z" changeset="124666127" uid="3497659" user="NKA">
		<tag k="name" v="Brusetgarden" />
		<tag k="place" v="farm" />
		<tag k="ssr:stedsnr" v="216047" />
	</node>
	<node id="9941665358" lat="62.8603083" lon="7.9114223" version="1" timestamp="2022-08-09T05:25:40Z" changeset="124666127" uid="3497659" user="NKA">
		<tag k="name" v="Hjellan" />
		<tag k="place" v="farm" />
		<tag k="ssr:stedsnr" v="155035" />
	</node>
	<node id="9941665359" lat="62.9724393" lon="7.8379578" version="1" timestamp="2022-08-09T05:25:40Z" changeset="124666127" uid="3497659" user="NKA">
		<tag k="name" v="Trøa" />
		<tag k="place" v="farm" />
		<tag k="ssr:stedsnr" v="95384" />
	</node>
	<node id="9941665360" lat="62.906964" lon="7.6817198" version="1" timestamp="2022-08-09T05:25:40Z" changeset="124666127" uid="3497659" user="NKA">
		<tag k="name" v="Soleneset" />
		<tag k="place" v="hamlet" />
		<tag k="ssr:stedsnr" v="132580" />
	</node>
	<node id="9941665361" lat="62.871519" lon="7.8344209" version="1" timestamp="2022-08-09T05:25:40Z" changeset="124666127" uid="3497659" user="NKA">
		<tag k="name" v="Heggemssetra" />
		<tag k="place" v="locality" />
		<tag k="ssr:stedsnr" v="133975" />
	</node>
	<node id="9941665362" lat="62.889037" lon="7.9495536" version="1" timestamp="2022-08-09T05:25:40Z" changeset="124666127" uid="3497659" user="NKA">
		<tag k="name" v="Rotlia" />
		<tag k="place" v="farm" />
		<tag k="ssr:stedsnr" v="133967" />
	</node>
	<node id="9941665363" lat="62.9360595" lon="7.8022248" version="1" timestamp="2022-08-09T05:25:40Z" changeset="124666127" uid="3497659" user="NKA">
		<tag k="name" v="Berget" />
		<tag k="place" v="farm" />
		<tag k="ssr:stedsnr" v="95021" />
	</node>
	<node id="9941665364" lat="62.9645139" lon="7.7657214" version="1" timestamp="2022-08-09T05:25:40Z" changeset="124666127" uid="3497659" user="NKA">
		<tag k="alt_name" v="Hogset" />
		<tag k="name" v="Iverstua" />
		<tag k="place" v="farm" />
		<tag k="ssr:stedsnr" v="59993" />
	</node>
	<node id="9941665365" lat="62.9978473" lon="7.8458979" version="1" timestamp="2022-08-09T05:25:40Z" changeset="124666127" uid="3497659" user="NKA">
		<tag k="name" v="Måløy" />
		<tag k="place" v="hamlet" />
		<tag k="ssr:stedsnr" v="11834" />
	</node>
	<node id="9941665366" lat="62.910675" lon="7.7909444" version="1" timestamp="2022-08-09T05:25:40Z" changeset="124666127" uid="3497659" user="NKA">
		<tag k="historic" v="shieling" />
		<tag k="name" v="Myklebostadsetra" />
		<tag k="place" v="isolated_dwelling" />
		<tag k="ssr:stedsnr" v="72933" />
	</node>
	<node id="9941665367" lat="62.9344893" lon="7.8535027" version="1" timestamp="2022-08-09T05:25:40Z" changeset="124666127" uid="3497659" user="NKA">
		<tag k="name" v="Åsan" />
		<tag k="place" v="hamlet" />
		<tag k="ssr:stedsnr" v="72908" />
	</node>
	<node id="9941665368" lat="62.9880222" lon="7.8065194" version="1" timestamp="2022-08-09T05:25:40Z" changeset="124666127" uid="3497659" user="NKA">
		<tag k="name" v="Brannvika" />
		<tag k="place" v="farm" />
		<tag k="ssr:stedsnr" v="193820" />
	</node>
	<node id="9941665369" lat="62.9834139" lon="7.8550333" version="1" timestamp="2022-08-09T05:25:40Z" changeset="124666127" uid="3497659" user="NKA">
		<tag k="name" v="Hamna" />
		<tag k="place" v="farm" />
		<tag k="ssr:stedsnr" v="375842" />
	</node>
	<node id="9941665370" lat="62.930014" lon="7.7872745" version="1" timestamp="2022-08-09T05:25:40Z" changeset="124666127" uid="3497659" user="NKA">
		<tag k="name" v="Bakke" />
		<tag k="place" v="hamlet" />
		<tag k="ssr:stedsnr" v="11915" />
	</node>
	<node id="9941665371" lat="62.9741318" lon="7.8322326" version="1" timestamp="2022-08-09T05:25:40Z" changeset="124666127" uid="3497659" user="NKA">
		<tag k="name" v="Solbakken" />
		<tag k="place" v="farm" />
		<tag k="ssr:stedsnr" v="34029" />
	</node>
	<node id="9941665372" lat="62.9263495" lon="7.7741932" version="1" timestamp="2022-08-09T05:25:40Z" changeset="124666127" uid="3497659" user="NKA">
		<tag k="name" v="Nerørteigen" />
		<tag k="place" v="farm" />
		<tag k="ssr:stedsnr" v="34037" />
	</node>
	<node id="9941665373" lat="62.8881866" lon="7.9257129" version="1" timestamp="2022-08-09T05:25:40Z" changeset="124666127" uid="3497659" user="NKA">
		<tag k="name" v="Øye" />
		<tag k="place" v="hamlet" />
		<tag k="ssr:stedsnr" v="254958" />
	</node>
	<node id="9941665374" lat="62.942675" lon="7.8654945" version="1" timestamp="2022-08-09T05:25:40Z" changeset="124666127" uid="3497659" user="NKA">
		<tag k="name" v="Vollan" />
		<tag k="place" v="farm" />
		<tag k="ssr:stedsnr" v="800904" />
	</node>
	<node id="9941665375" lat="62.97055" lon="7.8052938" version="1" timestamp="2022-08-09T05:25:40Z" changeset="124666127" uid="3497659" user="NKA">
		<tag k="name" v="Fredheim" />
		<tag k="place" v="farm" />
		<tag k="ssr:stedsnr" v="34028" />
	</node>
	<node id="9941665376" lat="62.9608252" lon="7.9281583" version="1" timestamp="2022-08-09T05:25:40Z" changeset="124666127" uid="3497659" user="NKA">
		<tag k="name" v="Ranem" />
		<tag k="place" v="hamlet" />
		<tag k="ssr:stedsnr" v="861888" />
	</node>
	<node id="9941665377" lat="62.8985687" lon="7.7888258" version="1" timestamp="2022-08-09T05:25:40Z" changeset="124666127" uid="3497659" user="NKA">
		<tag k="name" v="Larssetra" />
		<tag k="place" v="hamlet" />
		<tag k="ssr:stedsnr" v="194941" />
	</node>
	<node id="9941665378" lat="62.9284588" lon="7.7818086" version="1" timestamp="2022-08-09T05:25:40Z" changeset="124666127" uid="3497659" user="NKA">
		<tag k="name" v="Kårteigen" />
		<tag k="place" v="farm" />
		<tag k="ssr:stedsnr" v="885762" />
	</node>
	<node id="9941665379" lat="62.9553611" lon="7.8781722" version="1" timestamp="2022-08-09T05:25:40Z" changeset="124666127" uid="3497659" user="NKA">
		<tag k="name" v="Klokkarhaugen" />
		<tag k="place" v="farm" />
		<tag k="ssr:stedsnr" v="800880" />
	</node>
	<node id="9941665380" lat="62.932212" lon="7.9683935" version="1" timestamp="2022-08-09T05:25:40Z" changeset="124666127" uid="3497659" user="NKA">
		<tag k="historic" v="shieling" />
		<tag k="name" v="Svanavollen" />
		<tag k="place" v="isolated_dwelling" />
		<tag k="ssr:stedsnr" v="739901" />
	</node>
	<node id="9941665381" lat="62.9126639" lon="7.8883611" version="1" timestamp="2022-08-09T05:25:40Z" changeset="124666127" uid="3497659" user="NKA">
		<tag k="name" v="Røtå" />
		<tag k="place" v="farm" />
		<tag k="ssr:stedsnr" v="277020" />
	</node>
	<node id="9941665382" lat="62.8889956" lon="7.6948837" version="1" timestamp="2022-08-09T05:25:40Z" changeset="124666127" uid="3497659" user="NKA">
		<tag k="historic" v="shieling" />
		<tag k="name" v="Fjellsetra" />
		<tag k="place" v="isolated_dwelling" />
		<tag k="ssr:stedsnr" v="194546" />
	</node>
	<node id="9941665383" lat="62.9096241" lon="7.8910854" version="1" timestamp="2022-08-09T05:25:40Z" changeset="124666127" uid="3497659" user="NKA">
		<tag k="name" v="Bortate" />
		<tag k="place" v="farm" />
		<tag k="ssr:stedsnr" v="398003" />
	</node>
	<node id="9941665384" lat="62.8848101" lon="7.9023241" version="1" timestamp="2022-08-09T05:25:40Z" changeset="124666127" uid="3497659" user="NKA">
		<tag k="name" v="Sør-Brekka" />
		<tag k="place" v="farm" />
		<tag k="ssr:stedsnr" v="641674" />
	</node>
	<node id="9941665385" lat="62.9092111" lon="7.9198222" version="1" timestamp="2022-08-09T05:25:40Z" changeset="124666127" uid="3497659" user="NKA">
		<tag k="historic" v="shieling" />
		<tag k="name" v="Gammelsetra" />
		<tag k="place" v="isolated_dwelling" />
		<tag k="ssr:stedsnr" v="35212" />
	</node>
	<node id="9941665386" lat="62.8608894" lon="7.9896752" version="1" timestamp="2022-08-09T05:25:40Z" changeset="124666127" uid="3497659" user="NKA">
		<tag k="name" v="Åbakkan" />
		<tag k="place" v="farm" />
		<tag k="ssr:stedsnr" v="740498" />
	</node>
	<node id="9941665387" lat="62.9290723" lon="7.8474861" version="1" timestamp="2022-08-09T05:25:40Z" changeset="124666127" uid="3497659" user="NKA">
		<tag k="name" v="Gammelsetra" />
		<tag k="place" v="farm" />
		<tag k="ssr:stedsnr" v="618910" />
	</node>
	<node id="9941665388" lat="62.9113" lon="7.8900473" version="1" timestamp="2022-08-09T05:25:40Z" changeset="124666127" uid="3497659" user="NKA">
		<tag k="name" v="Oppistuå" />
		<tag k="place" v="farm" />
		<tag k="ssr:stedsnr" v="944028" />
	</node>
	<node id="9941665389" lat="62.9024083" lon="8.0627444" version="1" timestamp="2022-08-09T05:25:40Z" changeset="124666127" uid="3497659" user="NKA">
		<tag k="historic" v="shieling" />
		<tag k="name" v="Skjølsviksetra" />
		<tag k="place" v="isolated_dwelling" />
		<tag k="ssr:stedsnr" v="640461" />
	</node>
	<node id="9941665390" lat="62.9285741" lon="7.7857097" version="1" timestamp="2022-08-09T05:25:40Z" changeset="124666127" uid="3497659" user="NKA">
		<tag k="name" v="Breiteigen" />
		<tag k="place" v="farm" />
		<tag k="ssr:stedsnr" v="975655" />
	</node>
	<node id="9941665391" lat="62.9621444" lon="7.9181778" version="1" timestamp="2022-08-09T05:25:40Z" changeset="124666127" uid="3497659" user="NKA">
		<tag k="name" v="Vorpa" />
		<tag k="place" v="farm" />
		<tag k="ssr:stedsnr" v="922897" />
	</node>
	<node id="9941665392" lat="62.9382222" lon="7.9918694" version="1" timestamp="2022-08-09T05:25:40Z" changeset="124666127" uid="3497659" user="NKA">
		<tag k="name" v="Rabben" />
		<tag k="place" v="farm" />
		<tag k="ssr:stedsnr" v="459005" />
	</node>
	<node id="9941665393" lat="62.9305816" lon="7.6036902" version="1" timestamp="2022-08-09T05:25:40Z" changeset="124666127" uid="3497659" user="NKA">
		<tag k="name" v="Elvebakken" />
		<tag k="place" v="farm" />
		<tag k="ssr:stedsnr" v="702820" />
	</node>
	<node id="9941665394" lat="62.8598806" lon="7.8648194" version="1" timestamp="2022-08-09T05:25:40Z" changeset="124666127" uid="3497659" user="NKA">
		<tag k="name" v="Vollan" />
		<tag k="place" v="farm" />
		<tag k="ssr:stedsnr" v="497503" />
	</node>
	<node id="9941665395" lat="62.9703696" lon="7.8015123" version="1" timestamp="2022-08-09T05:25:40Z" changeset="124666127" uid="3497659" user="NKA">
		<tag k="name" v="Nerkroken" />
		<tag k="place" v="farm" />
		<tag k="ssr:stedsnr" v="459976" />
	</node>
	<node id="9941665396" lat="62.9370428" lon="7.9867591" version="1" timestamp="2022-08-09T05:25:40Z" changeset="124666127" uid="3497659" user="NKA">
		<tag k="name" v="Negarden" />
		<tag k="place" v="farm" />
		<tag k="ssr:stedsnr" v="337006" />
	</node>
	<node id="9941665397" lat="62.8681305" lon="7.9506834" version="1" timestamp="2022-08-09T05:25:40Z" changeset="124666127" uid="3497659" user="NKA">
		<tag k="name" v="Bekken" />
		<tag k="place" v="farm" />
		<tag k="ssr:stedsnr" v="398006" />
	</node>
	<node id="9941665398" lat="62.9310268" lon="7.7907551" version="1" timestamp="2022-08-09T05:25:40Z" changeset="124666127" uid="3497659" user="NKA">
		<tag k="name" v="Trøa" />
		<tag k="place" v="farm" />
		<tag k="ssr:stedsnr" v="459040" />
	</node>
	<node id="9941665399" lat="62.8871866" lon="7.964859" version="1" timestamp="2022-08-09T05:25:40Z" changeset="124666127" uid="3497659" user="NKA">
		<tag k="name" v="Nylenda" />
		<tag k="place" v="farm" />
		<tag k="ssr:stedsnr" v="459010" />
	</node>
	<node id="9941665400" lat="62.8881388" lon="7.9733514" version="1" timestamp="2022-08-09T05:25:40Z" changeset="124666127" uid="3497659" user="NKA">
		<tag k="name" v="Fagerlia" />
		<tag k="place" v="hamlet" />
		<tag k="ssr:stedsnr" v="315964" />
	</node>
	<node id="9941665401" lat="62.9375352" lon="7.803663" version="1" timestamp="2022-08-09T05:25:40Z" changeset="124666127" uid="3497659" user="NKA">
		<tag k="name" v="Bjørkelund" />
		<tag k="place" v="farm" />
		<tag k="ssr:stedsnr" v="277964" />
	</node>
	<node id="9941665402" lat="62.9351472" lon="7.5964611" version="1" timestamp="2022-08-09T05:25:40Z" changeset="124666127" uid="3497659" user="NKA">
		<tag k="name" v="Vorpbukta" />
		<tag k="place" v="farm" />
		<tag k="ssr:stedsnr" v="702406" />
	</node>
	<node id="9941665403" lat="62.9434159" lon="7.613222" version="1" timestamp="2022-08-09T05:25:40Z" changeset="124666127" uid="3497659" user="NKA">
		<tag k="name" v="Trøhaugen" />
		<tag k="place" v="farm" />
		<tag k="ssr:stedsnr" v="702404" />
	</node>
	<node id="9941665404" lat="62.9461167" lon="7.6272583" version="1" timestamp="2022-08-09T05:25:40Z" changeset="124666127" uid="3497659" user="NKA">
		<tag k="alt_name" v="Løbergsli" />
		<tag k="name" v="Løbersli" />
		<tag k="place" v="farm" />
		<tag k="ssr:stedsnr" v="884395" />
	</node>
	<node id="9941665405" lat="62.944429" lon="7.6212214" version="1" timestamp="2022-08-09T05:25:40Z" changeset="124666127" uid="3497659" user="NKA">
		<tag k="name" v="Skjerset" />
		<tag k="place" v="hamlet" />
		<tag k="ssr:stedsnr" v="800504" />
	</node>
	<node id="9941665406" lat="62.9533179" lon="7.6491268" version="1" timestamp="2022-08-09T05:25:40Z" changeset="124666127" uid="3497659" user="NKA">
		<tag k="name" v="Kolset" />
		<tag k="place" v="farm" />
		<tag k="ssr:stedsnr" v="72985" />
	</node>
	<node id="9941665407" lat="62.952089" lon="7.6431172" version="1" timestamp="2022-08-09T05:25:40Z" changeset="124666127" uid="3497659" user="NKA">
		<tag k="name" v="Teigen" />
		<tag k="place" v="farm" />
		<tag k="ssr:stedsnr" v="95047" />
	</node>
	<node id="9941665408" lat="62.8623726" lon="7.6293029" version="1" timestamp="2022-08-09T05:25:40Z" changeset="124666127" uid="3497659" user="NKA">
		<tag k="historic" v="shieling" />
		<tag k="name" v="Bjerkesetsetra" />
		<tag k="place" v="isolated_dwelling" />
		<tag k="ssr:stedsnr" v="640049" />
	</node>
	<node id="9941665409" lat="62.8741509" lon="7.6252612" version="1" timestamp="2022-08-09T05:25:40Z" changeset="124666127" uid="3497659" user="NKA">
		<tag k="name" v="Solstad" />
		<tag k="place" v="farm" />
		<tag k="ssr:stedsnr" v="459057" />
	</node>
	<node id="9941665410" lat="62.9139607" lon="8.0241941" version="1" timestamp="2022-08-09T05:25:40Z" changeset="124666127" uid="3497659" user="NKA">
		<tag k="name" v="Midtgarden" />
		<tag k="place" v="farm" />
		<tag k="ssr:stedsnr" v="277014" />
	</node>
	<node id="9941665411" lat="62.93745" lon="7.5952517" version="1" timestamp="2022-08-09T05:25:40Z" changeset="124666127" uid="3497659" user="NKA">
		<tag k="loc_name" v="Sevikneset hyttefelt" />
		<tag k="name" v="Sevika hyttefelt" />
		<tag k="place" v="neighbourhood" />
		<tag k="ssr:stedsnr" v="586800" />
	</node>
	<node id="9941665412" lat="62.8429996" lon="7.8855766" version="1" timestamp="2022-08-09T05:25:40Z" changeset="124666127" uid="3497659" user="NKA">
		<tag k="name" v="Sandnes" />
		<tag k="place" v="locality" />
		<tag k="ssr:stedsnr" v="980438" />
	</node>
	<node id="9941665413" lat="62.9416118" lon="7.6121424" version="1" timestamp="2022-08-09T05:25:40Z" changeset="124666127" uid="3497659" user="NKA">
		<tag k="name" v="Øvrebøen" />
		<tag k="place" v="farm" />
		<tag k="ssr:stedsnr" v="34396" />
	</node>
	<node id="9941665414" lat="62.9350849" lon="7.6014557" version="1" timestamp="2022-08-09T05:25:40Z" changeset="124666127" uid="3497659" user="NKA">
		<tag k="name" v="Sevikneset" />
		<tag k="place" v="farm" />
		<tag k="ssr:stedsnr" v="534228" />
	</node>
	<node id="9941665415" lat="62.8380993" lon="7.8194054" version="1" timestamp="2022-08-09T05:25:40Z" changeset="124666127" uid="3497659" user="NKA">
		<tag k="name" v="Meinset" />
		<tag k="place" v="hamlet" />
		<tag k="ssr:stedsnr" v="315529" />
	</node>
	<node id="9941665416" lat="62.8619076" lon="7.6783295" version="1" timestamp="2022-08-09T05:25:40Z" changeset="124666127" uid="3497659" user="NKA">
		<tag k="name" v="Silsethytta" />
		<tag k="place" v="isolated_dwelling" />
		<tag k="ssr:stedsnr" v="762061" />
	</node>
	<node id="9941665417" lat="62.8624154" lon="7.6875662" version="1" timestamp="2022-08-09T05:25:40Z" changeset="124666127" uid="3497659" user="NKA">
		<tag k="name" v="Silsetfjellet hytteområde" />
		<tag k="place" v="neighbourhood" />
		<tag k="ssr:stedsnr" v="586807" />
	</node>
	<node id="9941665418" lat="62.9700806" lon="7.798839" version="1" timestamp="2022-08-09T05:25:40Z" changeset="124666127" uid="3497659" user="NKA">
		<tag k="name" v="Hylla" />
		<tag k="place" v="farm" />
		<tag k="ssr:stedsnr" v="519466" />
	</node>
	<node id="9941665419" lat="62.8671086" lon="7.6660357" version="1" timestamp="2022-08-09T05:25:40Z" changeset="124666127" uid="3497659" user="NKA">
		<tag k="name" v="Kleiva" />
		<tag k="place" v="isolated_dwelling" />
		<tag k="ssr:stedsnr" v="861638" />
	</node>
	<node id="9941665420" lat="62.859375" lon="7.7042723" version="1" timestamp="2022-08-09T05:25:40Z" changeset="124666127" uid="3497659" user="NKA">
		<tag k="historic" v="shieling" />
		<tag k="name" v="Innergardssetra" />
		<tag k="place" v="hamlet" />
		<tag k="ssr:stedsnr" v="193650" />
	</node>
	<node id="9941665421" lat="62.8815368" lon="7.6573693" version="1" timestamp="2022-08-09T05:25:40Z" changeset="124666127" uid="3497659" user="NKA">
		<tag k="name" v="Myran" />
		<tag k="place" v="farm" />
		<tag k="ssr:stedsnr" v="34057" />
	</node>
	<node id="9941665422" lat="62.9418799" lon="7.6088325" version="1" timestamp="2022-08-09T05:25:40Z" changeset="124666127" uid="3497659" user="NKA">
		<tag k="name" v="Nerlia" />
		<tag k="place" v="farm" />
		<tag k="ssr:stedsnr" v="72496" />
	</node>
	<node id="9941665423" lat="62.9281758" lon="7.6072627" version="1" timestamp="2022-08-09T05:25:40Z" changeset="124666127" uid="3497659" user="NKA">
		<tag k="name" v="Øverland" />
		<tag k="place" v="hamlet" />
		<tag k="ssr:stedsnr" v="922507" />
	</node>
	<node id="9941665424" lat="62.9300101" lon="7.6062547" version="1" timestamp="2022-08-09T05:25:40Z" changeset="124666127" uid="3497659" user="NKA">
		<tag k="name" v="Kringla" />
		<tag k="place" v="farm" />
		<tag k="ssr:stedsnr" v="155428" />
	</node>
	<node id="9941665425" lat="62.8442822" lon="7.5242831" version="1" timestamp="2022-08-09T05:25:40Z" changeset="124666127" uid="3497659" user="NKA">
		<tag k="name" v="Øyan" />
		<tag k="place" v="locality" />
		<tag k="ssr:stedsnr" v="558743" />
	</node>
	<node id="9941665426" lat="62.9394722" lon="8.0403862" version="1" timestamp="2022-08-09T05:25:40Z" changeset="124666127" uid="3497659" user="NKA">
		<tag k="historic" v="shieling" />
		<tag k="name" v="Seterstølen" />
		<tag k="place" v="isolated_dwelling" />
		<tag k="ssr:stedsnr" v="338497" />
	</node>
	<node id="9941665427" lat="62.9320479" lon="7.6037125" version="1" timestamp="2022-08-09T05:25:40Z" changeset="124666127" uid="3497659" user="NKA">
		<tag k="name" v="Sevika" />
		<tag k="place" v="hamlet" />
		<tag k="ssr:stedsnr" v="72521" />
	</node>
	<node id="9941665428" lat="62.8720007" lon="7.636938" version="1" timestamp="2022-08-09T05:25:40Z" changeset="124666127" uid="3497659" user="NKA">
		<tag k="name" v="Bjerkeset" />
		<tag k="place" v="hamlet" />
		<tag k="ssr:stedsnr" v="436606" />
	</node>
	<node id="9941665429" lat="62.9639426" lon="8.018185" version="1" timestamp="2022-08-09T05:25:40Z" changeset="124666127" uid="3497659" user="NKA">
		<tag k="name" v="Røsdal" />
		<tag k="place" v="farm" />
		<tag k="ssr:stedsnr" v="884023" />
	</node>
	<node id="9941665430" lat="62.9164195" lon="8.0314653" version="1" timestamp="2022-08-09T05:25:40Z" changeset="124666127" uid="3497659" user="NKA">
		<tag k="name" v="Lund" />
		<tag k="place" v="farm" />
		<tag k="ssr:stedsnr" v="398022" />
	</node>
	<node id="9941665431" lat="62.9255065" lon="8.0991822" version="1" timestamp="2022-08-09T05:25:40Z" changeset="124666127" uid="3497659" user="NKA">
		<tag k="name" v="Gagnat" />
		<tag k="place" v="hamlet" />
		<tag k="ssr:stedsnr" v="375949" />
	</node>
	<node id="9941665432" lat="62.9451532" lon="7.6251475" version="1" timestamp="2022-08-09T05:25:40Z" changeset="124666127" uid="3497659" user="NKA">
		<tag k="name" v="Haugan" />
		<tag k="place" v="farm" />
		<tag k="ssr:stedsnr" v="375477" />
	</node>
	<node id="9941665433" lat="62.9208702" lon="7.6148879" version="1" timestamp="2022-08-09T05:25:40Z" changeset="124666127" uid="3497659" user="NKA">
		<tag k="historic" v="shieling" />
		<tag k="name" v="Øverlandsetra" />
		<tag k="place" v="isolated_dwelling" />
		<tag k="ssr:stedsnr" v="557557" />
	</node>
	<node id="9941665434" lat="62.9604927" lon="8.031382" version="1" timestamp="2022-08-09T05:25:40Z" changeset="124666127" uid="3497659" user="NKA">
		<tag k="name" v="Hoem" />
		<tag k="place" v="hamlet" />
		<tag k="ssr:stedsnr" v="11886" />
	</node>
	<node id="9941665435" lat="62.8964194" lon="7.6915612" version="1" timestamp="2022-08-09T05:25:40Z" changeset="124666127" uid="3497659" user="NKA">
		<tag k="name" v="Nåstadøra" />
		<tag k="place" v="farm" />
		<tag k="ssr:stedsnr" v="436581" />
	</node>
	<node id="9941665436" lat="62.8556639" lon="7.6456112" version="1" timestamp="2022-08-09T05:25:40Z" changeset="124666127" uid="3497659" user="NKA">
		<tag k="historic" v="shieling" />
		<tag k="name" v="Nysetra" />
		<tag k="place" v="isolated_dwelling" />
		<tag k="ssr:stedsnr" v="314674" />
	</node>
	<node id="9941665437" lat="62.9371415" lon="7.9827734" version="1" timestamp="2022-08-09T05:25:40Z" changeset="124666127" uid="3497659" user="NKA">
		<tag k="name" v="Oppistua" />
		<tag k="place" v="farm" />
		<tag k="ssr:stedsnr" v="519001" />
	</node>
	<node id="9941665438" lat="62.944062" lon="7.8304721" version="1" timestamp="2022-08-09T05:25:40Z" changeset="124666127" uid="3497659" user="NKA">
		<tag k="alt_name" v="Holtet" />
		<tag k="name" v="Holten" />
		<tag k="place" v="hamlet" />
		<tag k="ssr:stedsnr" v="496925" />
	</node>
	<node id="9941665439" lat="62.842925" lon="7.6404057" version="1" timestamp="2022-08-09T05:25:40Z" changeset="124666127" uid="3497659" user="NKA">
		<tag k="historic" v="shieling" />
		<tag k="name" v="Langlia" />
		<tag k="place" v="isolated_dwelling" />
		<tag k="ssr:stedsnr" v="73746" />
	</node>
	<node id="9941665440" lat="62.9292436" lon="7.7235792" version="1" timestamp="2022-08-09T05:25:40Z" changeset="124666127" uid="3497659" user="NKA">
		<tag k="alt_name" v="Sandvollen" />
		<tag k="name" v="Sandvollan" />
		<tag k="place" v="farm" />
		<tag k="ssr:stedsnr" v="375913" />
	</node>
	<node id="9941665441" lat="62.9493669" lon="7.8471471" version="1" timestamp="2022-08-09T05:25:40Z" changeset="124666127" uid="3497659" user="NKA">
		<tag k="name" v="Torviknes" />
		<tag k="place" v="farm" />
		<tag k="ssr:stedsnr" v="397555" />
	</node>
	<node id="9941665442" lat="62.9170528" lon="7.7618444" version="1" timestamp="2022-08-09T05:25:40Z" changeset="124666127" uid="3497659" user="NKA">
		<tag k="name" v="Ner Grinåkeren" />
		<tag k="place" v="farm" />
		<tag k="ssr:stedsnr" v="398045" />
	</node>
	<node id="9941665443" lat="62.943833" lon="7.8217589" version="1" timestamp="2022-08-09T05:25:40Z" changeset="124666127" uid="3497659" user="NKA">
		<tag k="name" v="Nautnes" />
		<tag k="place" v="farm" />
		<tag k="ssr:stedsnr" v="399362" />
	</node>
	<node id="9941665444" lat="62.9428445" lon="7.6468195" version="1" timestamp="2022-08-09T05:25:40Z" changeset="124666127" uid="3497659" user="NKA">
		<tag k="historic" v="shieling" />
		<tag k="name" v="Ekkersetra" />
		<tag k="place" v="isolated_dwelling" />
		<tag k="ssr:stedsnr" v="155037" />
	</node>
	<node id="9941665445" lat="62.9137761" lon="7.7702409" version="1" timestamp="2022-08-09T05:25:40Z" changeset="124666127" uid="3497659" user="NKA">
		<tag k="name" v="Orskogteigen" />
		<tag k="place" v="farm" />
		<tag k="ssr:stedsnr" v="34038" />
	</node>
	<node id="9941665446" lat="62.9299998" lon="7.9917911" version="1" timestamp="2022-08-09T05:25:40Z" changeset="124666127" uid="3497659" user="NKA">
		<tag k="name" v="Hoemssetra" />
		<tag k="place" v="isolated_dwelling" />
		<tag k="ssr:stedsnr" v="618945" />
	</node>
	<node id="9941665447" lat="62.9161687" lon="7.7502153" version="1" timestamp="2022-08-09T05:25:40Z" changeset="124666127" uid="3497659" user="NKA">
		<tag k="name" v="Trøa" />
		<tag k="place" v="farm" />
		<tag k="ssr:stedsnr" v="155043" />
	</node>
	<node id="9941665448" lat="62.9383028" lon="7.6406196" version="1" timestamp="2022-08-09T05:25:40Z" changeset="124666127" uid="3497659" user="NKA">
		<tag k="historic" v="shieling" />
		<tag k="name" v="Ødegårdsstølen" />
		<tag k="place" v="isolated_dwelling" />
		<tag k="ssr:stedsnr" v="885886" />
	</node>
	<node id="9941665449" lat="62.9537083" lon="8.0243277" version="1" timestamp="2022-08-09T05:25:40Z" changeset="124666127" uid="3497659" user="NKA">
		<tag k="name" v="Vollen" />
		<tag k="place" v="farm" />
		<tag k="ssr:stedsnr" v="132929" />
	</node>
	<node id="9941665450" lat="62.9493308" lon="7.6396411" version="1" timestamp="2022-08-09T05:25:40Z" changeset="124666127" uid="3497659" user="NKA">
		<tag k="name" v="Røvik" />
		<tag k="place" v="hamlet" />
		<tag k="ssr:stedsnr" v="12831" />
	</node>
	<node id="9941665451" lat="62.9680768" lon="7.7168302" version="1" timestamp="2022-08-09T05:25:40Z" changeset="124666127" uid="3497659" user="NKA">
		<tag k="name" v="Nyland" />
		<tag k="place" v="farm" />
		<tag k="ssr:stedsnr" v="580049" />
	</node>
	<node id="9941665452" lat="62.9538445" lon="8.0240861" version="1" timestamp="2022-08-09T05:25:40Z" changeset="124666127" uid="3497659" user="NKA">
		<tag k="name" v="Nybråten" />
		<tag k="place" v="farm" />
		<tag k="ssr:stedsnr" v="762005" />
	</node>
	<node id="9941665453" lat="62.9666139" lon="7.9723666" version="1" timestamp="2022-08-09T05:25:40Z" changeset="124666127" uid="3497659" user="NKA">
		<tag k="name" v="Åkerfallet" />
		<tag k="place" v="farm" />
		<tag k="ssr:stedsnr" v="12907" />
	</node>
	<node id="9941665454" lat="62.9560806" lon="8.0260056" version="1" timestamp="2022-08-09T05:25:40Z" changeset="124666127" uid="3497659" user="NKA">
		<tag k="name" v="Myra" />
		<tag k="place" v="farm" />
		<tag k="ssr:stedsnr" v="11882" />
	</node>
	<node id="9941665455" lat="62.9324389" lon="7.7290402" version="1" timestamp="2022-08-09T05:25:40Z" changeset="124666127" uid="3497659" user="NKA">
		<tag k="alt_name" v="Kjerkevollan" />
		<tag k="name" v="Kjerkvollan" />
		<tag k="place" v="hamlet" />
		<tag k="ssr:stedsnr" v="557900" />
	</node>
	<node id="9941665456" lat="62.9424973" lon="7.7460584" version="1" timestamp="2022-08-09T05:25:40Z" changeset="124666127" uid="3497659" user="NKA">
		<tag k="name" v="Kariset" />
		<tag k="place" v="farm" />
		<tag k="ssr:stedsnr" v="459051" />
	</node>
	<node id="9941665457" lat="62.9648335" lon="7.9637164" version="1" timestamp="2022-08-09T05:25:40Z" changeset="124666127" uid="3497659" user="NKA">
		<tag k="name" v="Brekka" />
		<tag k="place" v="farm" />
		<tag k="ssr:stedsnr" v="762003" />
	</node>
	<node id="9941665458" lat="62.9653806" lon="7.9608333" version="1" timestamp="2022-08-09T05:25:40Z" changeset="124666127" uid="3497659" user="NKA">
		<tag k="name" v="Myra" />
		<tag k="place" v="farm" />
		<tag k="ssr:stedsnr" v="497910" />
	</node>
	<node id="9941665459" lat="62.9154775" lon="7.7517291" version="1" timestamp="2022-08-09T05:25:40Z" changeset="124666127" uid="3497659" user="NKA">
		<tag k="name" v="Saltbuhaugen" />
		<tag k="place" v="farm" />
		<tag k="ssr:stedsnr" v="337858" />
	</node>
	<node id="9941665460" lat="62.9567694" lon="7.9380138" version="1" timestamp="2022-08-09T05:25:40Z" changeset="124666127" uid="3497659" user="NKA">
		<tag k="historic" v="shieling" />
		<tag k="name" v="Setra" />
		<tag k="place" v="isolated_dwelling" />
		<tag k="ssr:stedsnr" v="155008" />
	</node>
	<node id="9941665461" lat="62.9250845" lon="7.7736646" version="1" timestamp="2022-08-09T05:25:40Z" changeset="124666127" uid="3497659" user="NKA">
		<tag k="name" v="Ørteigen" />
		<tag k="place" v="farm" />
		<tag k="ssr:stedsnr" v="337056" />
	</node>
	<node id="9941665462" lat="62.9552889" lon="7.9742361" version="1" timestamp="2022-08-09T05:25:40Z" changeset="124666127" uid="3497659" user="NKA">
		<tag k="name" v="Kvalvågsetra" />
		<tag k="place" v="isolated_dwelling" />
		<tag k="ssr:stedsnr" v="34007" />
	</node>
	<node id="9941665463" lat="62.9339362" lon="8.0733513" version="1" timestamp="2022-08-09T05:25:40Z" changeset="124666127" uid="3497659" user="NKA">
		<tag k="name" v="Nistua" />
		<tag k="place" v="farm" />
		<tag k="ssr:stedsnr" v="884020" />
	</node>
	<node id="9941665464" lat="62.9716121" lon="7.9735502" version="1" timestamp="2022-08-09T05:25:40Z" changeset="124666127" uid="3497659" user="NKA">
		<tag k="name" v="Kvalvågneset hyttefelt" />
		<tag k="place" v="neighbourhood" />
		<tag k="ssr:stedsnr" v="343759" />
	</node>
	<node id="9941665465" lat="62.863875" lon="7.8738807" version="1" timestamp="2022-08-09T05:25:40Z" changeset="124666127" uid="3497659" user="NKA">
		<tag k="name" v="Asplia" />
		<tag k="place" v="farm" />
		<tag k="ssr:stedsnr" v="801500" />
	</node>
	<node id="9941665466" lat="62.9814863" lon="7.8658047" version="1" timestamp="2022-08-09T05:25:40Z" changeset="124666127" uid="3497659" user="NKA">
		<tag k="name" v="Berge" />
		<tag k="place" v="hamlet" />
		<tag k="ssr:stedsnr" v="557847" />
	</node>
	<node id="9941665467" lat="62.9486342" lon="8.0609207" version="1" timestamp="2022-08-09T05:25:40Z" changeset="124666127" uid="3497659" user="NKA">
		<tag k="name" v="Varvika" />
		<tag k="place" v="farm" />
		<tag k="ssr:stedsnr" v="557912" />
	</node>
	<node id="9941665468" lat="62.9701722" lon="7.7987055" version="1" timestamp="2022-08-09T05:25:40Z" changeset="124666127" uid="3497659" user="NKA">
		<tag k="name" v="Kroken" />
		<tag k="place" v="farm" />
		<tag k="ssr:stedsnr" v="740831" />
	</node>
	<node id="9941665469" lat="62.8848556" lon="7.9037584" version="1" timestamp="2022-08-09T05:25:40Z" changeset="124666127" uid="3497659" user="NKA">
		<tag k="name" v="Brekka" />
		<tag k="place" v="farm" />
		<tag k="ssr:stedsnr" v="557966" />
	</node>
	<node id="9941665470" lat="62.8399527" lon="7.8250799" version="1" timestamp="2022-08-09T05:25:40Z" changeset="124666127" uid="3497659" user="NKA">
		<tag k="name" v="Gammelhaltbakken" />
		<tag k="place" v="farm" />
		<tag k="ssr:stedsnr" v="702041" />
	</node>
	<node id="9941665471" lat="62.9691311" lon="7.991422" version="1" timestamp="2022-08-09T05:25:40Z" changeset="124666127" uid="3497659" user="NKA">
		<tag k="name" v="Plassen" />
		<tag k="place" v="farm" />
		<tag k="ssr:stedsnr" v="155007" />
	</node>
	<node id="9941665472" lat="62.9713583" lon="7.8131637" version="1" timestamp="2022-08-09T05:25:40Z" changeset="124666127" uid="3497659" user="NKA">
		<tag k="name" v="Myra" />
		<tag k="place" v="farm" />
		<tag k="ssr:stedsnr" v="640032" />
	</node>
	<node id="9941665473" lat="62.8812132" lon="7.9243861" version="1" timestamp="2022-08-09T05:25:40Z" changeset="124666127" uid="3497659" user="NKA">
		<tag k="name" v="Langhaugen" />
		<tag k="place" v="farm" />
		<tag k="ssr:stedsnr" v="519024" />
	</node>
	<node id="9941665474" lat="62.9703798" lon="7.970408" version="1" timestamp="2022-08-09T05:25:40Z" changeset="124666127" uid="3497659" user="NKA">
		<tag k="name" v="Klokkarbukta hyttefelt" />
		<tag k="place" v="neighbourhood" />
		<tag k="ssr:stedsnr" v="404711" />
	</node>
	<node id="9941665475" lat="62.8613611" lon="7.9094583" version="1" timestamp="2022-08-09T05:25:40Z" changeset="124666127" uid="3497659" user="NKA">
		<tag k="name" v="Rishaugen" />
		<tag k="place" v="isolated_dwelling" />
		<tag k="ssr:stedsnr" v="156755" />
	</node>
	<node id="9941665476" lat="62.8442909" lon="7.799387" version="1" timestamp="2022-08-09T05:25:40Z" changeset="124666127" uid="3497659" user="NKA">
		<tag k="historic" v="shieling" />
		<tag k="name" v="Dyrlisetra" />
		<tag k="place" v="isolated_dwelling" />
		<tag k="ssr:stedsnr" v="95026" />
	</node>
	<node id="9941665477" lat="62.8660121" lon="7.8711247" version="1" timestamp="2022-08-09T05:25:40Z" changeset="124666127" uid="3497659" user="NKA">
		<tag k="name" v="Arnlia" />
		<tag k="place" v="farm" />
		<tag k="ssr:stedsnr" v="216022" />
	</node>
	<node id="9941665478" lat="62.8349444" lon="7.5148694" version="1" timestamp="2022-08-09T05:25:40Z" changeset="124666127" uid="3497659" user="NKA">
		<tag k="name" v="Raudmelen" />
		<tag k="place" v="locality" />
		<tag k="ssr:stedsnr" v="376713" />
	</node>
	<node id="9941665479" lat="62.8450769" lon="7.8394675" version="1" timestamp="2022-08-09T05:25:40Z" changeset="124666127" uid="3497659" user="NKA">
		<tag k="name" v="Kroken" />
		<tag k="place" v="farm" />
		<tag k="ssr:stedsnr" v="884042" />
	</node>
	<node id="9941665480" lat="62.8649954" lon="7.898691" version="1" timestamp="2022-08-09T05:25:40Z" changeset="124666127" uid="3497659" user="NKA">
		<tag k="name" v="Steinbakkan hytteområde" />
		<tag k="place" v="neighbourhood" />
		<tag k="ssr:stedsnr" v="118769" />
	</node>
	<node id="9941665481" lat="62.854581" lon="7.5633501" version="1" timestamp="2022-08-09T05:25:40Z" changeset="124666127" uid="3497659" user="NKA">
		<tag k="name" v="Furuhaugen" />
		<tag k="place" v="farm" />
		<tag k="ssr:stedsnr" v="216048" />
	</node>
	<node id="9941665482" lat="62.8478556" lon="7.8576417" version="1" timestamp="2022-08-09T05:25:40Z" changeset="124666127" uid="3497659" user="NKA">
		<tag k="name" v="Ner-Duåsen" />
		<tag k="place" v="farm" />
		<tag k="ssr:stedsnr" v="194453" />
	</node>
	<node id="9941665483" lat="62.8592005" lon="7.9059551" version="1" timestamp="2022-08-09T05:25:40Z" changeset="124666127" uid="3497659" user="NKA">
		<tag k="name" v="Fostervollen" />
		<tag k="place" v="hamlet" />
		<tag k="ssr:stedsnr" v="740503" />
	</node>
	<node id="9941665484" lat="62.8353518" lon="7.8102292" version="1" timestamp="2022-08-09T05:25:40Z" changeset="124666127" uid="3497659" user="NKA">
		<tag k="name" v="Dyrlia" />
		<tag k="place" v="farm" />
		<tag k="ssr:stedsnr" v="923575" />
	</node>
	<node id="9941665485" lat="62.8583682" lon="8.1056511" version="1" timestamp="2022-08-09T05:25:40Z" changeset="124666127" uid="3497659" user="NKA">
		<tag k="name" v="Innate" />
		<tag k="place" v="farm" />
		<tag k="ssr:stedsnr" v="762008" />
	</node>
	<node id="9941665486" lat="62.8506222" lon="7.9182834" version="1" timestamp="2022-08-09T05:25:40Z" changeset="124666127" uid="3497659" user="NKA">
		<tag k="historic" v="shieling" />
		<tag k="name" v="Fostervollsetra" />
		<tag k="place" v="isolated_dwelling" />
		<tag k="ssr:stedsnr" v="459929" />
	</node>
	<node id="9941665487" lat="62.8752854" lon="7.8718321" version="1" timestamp="2022-08-09T05:25:40Z" changeset="124666127" uid="3497659" user="NKA">
		<tag k="name" v="Hanaset" />
		<tag k="place" v="hamlet" />
		<tag k="ssr:stedsnr" v="255977" />
	</node>
	<node id="9941665488" lat="62.8730284" lon="8.1066858" version="1" timestamp="2022-08-09T05:25:40Z" changeset="124666127" uid="3497659" user="NKA">
		<tag k="name" v="Katthammaren" />
		<tag k="place" v="farm" />
		<tag k="ssr:stedsnr" v="73520" />
	</node>
	<node id="9941665489" lat="62.9123166" lon="8.1067278" version="1" timestamp="2022-08-09T05:25:40Z" changeset="124666127" uid="3497659" user="NKA">
		<tag k="name" v="Hagen" />
		<tag k="place" v="farm" />
		<tag k="ssr:stedsnr" v="922927" />
	</node>
	<node id="9941665490" lat="62.8500932" lon="8.1166275" version="1" timestamp="2022-08-09T05:25:40Z" changeset="124666127" uid="3497659" user="NKA">
		<tag k="name" v="Kristenvika" />
		<tag k="place" v="locality" />
		<tag k="ssr:stedsnr" v="194482" />
	</node>
	<node id="9941665491" lat="62.8602874" lon="8.0790448" version="1" timestamp="2022-08-09T05:25:40Z" changeset="124666127" uid="3497659" user="NKA">
		<tag k="name" v="Slåttamyrløa" />
		<tag k="place" v="locality" />
		<tag k="ssr:stedsnr" v="641642" />
	</node>
	<node id="9941665492" lat="62.8592393" lon="8.1047526" version="1" timestamp="2022-08-09T05:25:40Z" changeset="124666127" uid="3497659" user="NKA">
		<tag k="name" v="Utate" />
		<tag k="place" v="farm" />
		<tag k="ssr:stedsnr" v="884009" />
	</node>
	<node id="9941665493" lat="62.8776611" lon="7.9338333" version="1" timestamp="2022-08-09T05:25:40Z" changeset="124666127" uid="3497659" user="NKA">
		<tag k="name" v="Storlia" />
		<tag k="place" v="farm" />
		<tag k="ssr:stedsnr" v="133458" />
	</node>
	<node id="9941665494" lat="62.9350035" lon="8.0702953" version="1" timestamp="2022-08-09T05:25:40Z" changeset="124666127" uid="3497659" user="NKA">
		<tag k="name" v="Oppistua" />
		<tag k="place" v="farm" />
		<tag k="ssr:stedsnr" v="640020" />
	</node>
	<node id="9941665495" lat="62.8994944" lon="8.0962778" version="1" timestamp="2022-08-09T05:25:40Z" changeset="124666127" uid="3497659" user="NKA">
		<tag k="name" v="Skjæret" />
		<tag k="place" v="farm" />
		<tag k="ssr:stedsnr" v="194995" />
	</node>
	<node id="9941665496" lat="62.8610613" lon="8.1107892" version="1" timestamp="2022-08-09T05:25:40Z" changeset="124666127" uid="3497659" user="NKA">
		<tag k="name" v="Bakkan" />
		<tag k="place" v="farm" />
		<tag k="ssr:stedsnr" v="337015" />
	</node>
	<node id="9941665497" lat="62.9609473" lon="7.6727093" version="1" timestamp="2022-08-09T05:25:40Z" changeset="124666127" uid="3497659" user="NKA">
		<tag k="name" v="Stokke" />
		<tag k="place" v="hamlet" />
		<tag k="ssr:stedsnr" v="436958" />
	</node>
	<node id="9941665498" lat="62.8504151" lon="7.8534609" version="1" timestamp="2022-08-09T05:25:40Z" changeset="124666127" uid="3497659" user="NKA">
		<tag k="alt_name" v="Øver-Duåsen" />
		<tag k="name" v="Duåsen" />
		<tag k="place" v="hamlet" />
		<tag k="ssr:stedsnr" v="12508" />
	</node>
	<node id="9941665499" lat="62.8655083" lon="7.8950195" version="1" timestamp="2022-08-09T05:25:40Z" changeset="124666127" uid="3497659" user="NKA">
		<tag k="name" v="Steinbakkan" />
		<tag k="place" v="farm" />
		<tag k="ssr:stedsnr" v="12502" />
	</node>
	<node id="9941665500" lat="62.9094136" lon="7.8939775" version="1" timestamp="2022-08-09T05:25:40Z" changeset="124666127" uid="3497659" user="NKA">
		<tag k="name" v="Trøen" />
		<tag k="place" v="farm" />
		<tag k="ssr:stedsnr" v="216403" />
	</node>
	<node id="9941665501" lat="62.8630944" lon="7.6314307" version="1" timestamp="2022-08-09T05:25:40Z" changeset="124666127" uid="3497659" user="NKA">
		<tag k="historic" v="shieling" />
		<tag k="name" v="Gammelsetra" />
		<tag k="place" v="isolated_dwelling" />
		<tag k="ssr:stedsnr" v="436651" />
	</node>
	<node id="9941665502" lat="62.9156154" lon="7.7641804" version="1" timestamp="2022-08-09T05:25:40Z" changeset="124666127" uid="3497659" user="NKA">
		<tag k="name" v="Øver Grinåkeren" />
		<tag k="place" v="farm" />
		<tag k="ssr:stedsnr" v="216040" />
	</node>
	<node id="9941665503" lat="62.9076864" lon="7.7124195" version="1" timestamp="2022-08-09T05:25:40Z" changeset="124666127" uid="3497659" user="NKA">
		<tag k="name" v="Tørriset" />
		<tag k="place" v="farm" />
		<tag k="ssr:stedsnr" v="800565" />
	</node>
	<node id="9941665504" lat="62.8826084" lon="7.6533139" version="1" timestamp="2022-08-09T05:25:40Z" changeset="124666127" uid="3497659" user="NKA">
		<tag k="name" v="Kragan" />
		<tag k="place" v="farm" />
		<tag k="ssr:stedsnr" v="155047" />
	</node>
	<node id="9941665505" lat="62.946711" lon="7.627609" version="1" timestamp="2022-08-09T05:25:40Z" changeset="124666127" uid="3497659" user="NKA">
		<tag k="name" v="Øygarden" />
		<tag k="place" v="farm" />
		<tag k="ssr:stedsnr" v="436501" />
	</node>
	<node id="9941665506" lat="62.8583245" lon="7.6119852" version="1" timestamp="2022-08-09T05:25:40Z" changeset="124666127" uid="3497659" user="NKA">
		<tag k="name" v="Flåbakken" />
		<tag k="place" v="isolated_dwelling" />
		<tag k="ssr:stedsnr" v="96795" />
	</node>
	<node id="9941665507" lat="62.9689438" lon="7.982359" version="1" timestamp="2022-08-09T05:25:40Z" changeset="124666127" uid="3497659" user="NKA">
		<tag k="name" v="Kvalvåg" />
		<tag k="place" v="hamlet" />
		<tag k="ssr:stedsnr" v="315897" />
	</node>
	<node id="9941665508" lat="62.9101896" lon="7.8908283" version="1" timestamp="2022-08-09T05:25:40Z" changeset="124666127" uid="3497659" user="NKA">
		<tag k="name" v="Dalen" />
		<tag k="place" v="hamlet" />
		<tag k="ssr:stedsnr" v="436934" />
	</node>
	<node id="9941665509" lat="62.893025" lon="7.8566833" version="1" timestamp="2022-08-09T05:25:40Z" changeset="124666127" uid="3497659" user="NKA">
		<tag k="historic" v="shieling" />
		<tag k="name" v="Sørdalssetra" />
		<tag k="place" v="isolated_dwelling" />
		<tag k="ssr:stedsnr" v="763537" />
	</node>
	<node id="9941665510" lat="62.9673771" lon="7.6957665" version="1" timestamp="2022-08-09T05:25:40Z" changeset="124666127" uid="3497659" user="NKA">
		<tag k="name" v="Grønset" />
		<tag k="place" v="hamlet" />
		<tag k="ssr:stedsnr" v="254959" />
	</node>
	<node id="9941665511" lat="62.9210554" lon="8.1136366" version="1" timestamp="2022-08-09T05:25:40Z" changeset="124666127" uid="3497659" user="NKA">
		<tag k="name" v="Sogna" />
		<tag k="place" v="farm" />
		<tag k="ssr:stedsnr" v="254948" />
	</node>
	<node id="9941665512" lat="62.8497787" lon="7.7015244" version="1" timestamp="2022-08-09T05:25:40Z" changeset="124666127" uid="3497659" user="NKA">
		<tag k="name" v="Stokkåsen" />
		<tag k="place" v="isolated_dwelling" />
		<tag k="ssr:stedsnr" v="194687" />
	</node>
	<node id="9941665513" lat="62.8888494" lon="7.9676344" version="1" timestamp="2022-08-09T05:25:40Z" changeset="124666127" uid="3497659" user="NKA">
		<tag k="name" v="Fagerlia hyttefelt" />
		<tag k="place" v="neighbourhood" />
		<tag k="ssr:stedsnr" v="768739" />
	</node>
	<node id="9941665514" lat="62.8766666" lon="7.6497511" version="1" timestamp="2022-08-09T05:25:40Z" changeset="124666127" uid="3497659" user="NKA">
		<tag k="name" v="Toregarden" />
		<tag k="place" v="farm" />
		<tag k="ssr:stedsnr" v="885825" />
	</node>
	<node id="9941665515" lat="62.88665" lon="7.8367056" version="1" timestamp="2022-08-09T05:25:40Z" changeset="124666127" uid="3497659" user="NKA">
		<tag k="historic" v="shieling" />
		<tag k="name" v="Slettnessetra" />
		<tag k="place" v="isolated_dwelling" />
		<tag k="ssr:stedsnr" v="399569" />
	</node>
	<node id="9941665516" lat="62.8585588" lon="7.6019624" version="1" timestamp="2022-08-09T05:25:40Z" changeset="124666127" uid="3497659" user="NKA">
		<tag k="name" v="Furulia" />
		<tag k="place" v="farm" />
		<tag k="ssr:stedsnr" v="314673" />
	</node>
	<node id="9941665517" lat="62.9201167" lon="7.7053038" version="1" timestamp="2022-08-09T05:25:40Z" changeset="124666127" uid="3497659" user="NKA">
		<tag k="name" v="Blakkstad" />
		<tag k="place" v="hamlet" />
		<tag k="ssr:stedsnr" v="254562" />
	</node>
	<node id="9941665518" lat="62.9343218" lon="7.6041995" version="1" timestamp="2022-08-09T05:25:40Z" changeset="124666127" uid="3497659" user="NKA">
		<tag k="name" v="Sevika boligfelt" />
		<tag k="place" v="neighbourhood" />
		<tag k="ssr:stedsnr" v="951829" />
	</node>
	<node id="9941665519" lat="62.9677911" lon="7.8187848" version="1" timestamp="2022-08-09T05:25:40Z" changeset="124666127" uid="3497659" user="NKA">
		<tag k="alt_name" v="Halset hyttefelt" />
		<tag k="name" v="Hallset hyttefelt" />
		<tag k="place" v="neighbourhood" />
		<tag k="ssr:stedsnr" v="586724" />
	</node>
	<node id="9941665520" lat="62.8645924" lon="7.8948871" version="1" timestamp="2022-08-09T05:25:40Z" changeset="124666127" uid="3497659" user="NKA">
		<tag k="name" v="Fosterlågen hytteområde" />
		<tag k="place" v="neighbourhood" />
		<tag k="ssr:stedsnr" v="526711" />
	</node>
	<node id="9941665521" lat="62.8505082" lon="7.8511236" version="1" timestamp="2022-08-09T05:25:40Z" changeset="124666127" uid="3497659" user="NKA">
		<tag k="name" v="Sygarden" />
		<tag k="place" v="farm" />
		<tag k="ssr:stedsnr" v="216027" />
	</node>
	<node id="9941665522" lat="62.8984361" lon="8.0889376" version="1" timestamp="2022-08-09T05:25:40Z" changeset="124666127" uid="3497659" user="NKA">
		<tag k="name" v="Myra" />
		<tag k="place" v="farm" />
		<tag k="ssr:stedsnr" v="216015" />
	</node>
	<node id="9941665523" lat="62.9083361" lon="7.779075" version="1" timestamp="2022-08-09T05:25:40Z" changeset="124666127" uid="3497659" user="NKA">
		<tag k="name" v="Steffenhaugen" />
		<tag k="place" v="farm" />
		<tag k="ssr:stedsnr" v="801942" />
	</node>
	<node id="9941665524" lat="62.9485075" lon="7.7596466" version="1" timestamp="2022-08-09T05:25:40Z" changeset="124666127" uid="3497659" user="NKA">
		<tag k="name" v="Jutulen" />
		<tag k="place" v="farm" />
		<tag k="ssr:stedsnr" v="823022" />
	</node>
	<node id="9941665525" lat="62.9702919" lon="7.8082391" version="1" timestamp="2022-08-09T05:25:40Z" changeset="124666127" uid="3497659" user="NKA">
		<tag k="name" v="Øverkroken" />
		<tag k="place" v="farm" />
		<tag k="ssr:stedsnr" v="944972" />
	</node>
	<node id="9941665526" lat="62.9398389" lon="7.8098389" version="1" timestamp="2022-08-09T05:25:40Z" changeset="124666127" uid="3497659" user="NKA">
		<tag k="name" v="Sivertplassen" />
		<tag k="place" v="farm" />
		<tag k="ssr:stedsnr" v="823020" />
	</node>
	<node id="9941665527" lat="62.9060079" lon="8.0117372" version="1" timestamp="2022-08-09T05:25:40Z" changeset="124666127" uid="3497659" user="NKA">
		<tag k="name" v="Sørhaugen" />
		<tag k="place" v="farm" />
		<tag k="ssr:stedsnr" v="763620" />
	</node>
	<node id="9941665528" lat="62.8961972" lon="8.0601389" version="1" timestamp="2022-08-09T05:25:40Z" changeset="124666127" uid="3497659" user="NKA">
		<tag k="name" v="Myrvang" />
		<tag k="place" v="farm" />
		<tag k="ssr:stedsnr" v="315996" />
	</node>
	<node id="9941665529" lat="62.945908" lon="7.7520824" version="1" timestamp="2022-08-09T05:25:40Z" changeset="124666127" uid="3497659" user="NKA">
		<tag k="name" v="Bjerkelund" />
		<tag k="place" v="farm" />
		<tag k="ssr:stedsnr" v="945049" />
	</node>
	<node id="9941665530" lat="62.9573498" lon="7.889588" version="1" timestamp="2022-08-09T05:25:40Z" changeset="124666127" uid="3497659" user="NKA">
		<tag k="name" v="Slettneset" />
		<tag k="place" v="hamlet" />
		<tag k="ssr:stedsnr" v="739868" />
	</node>
	<node id="9941665531" lat="62.9687" lon="7.712039" version="1" timestamp="2022-08-09T05:25:40Z" changeset="124666127" uid="3497659" user="NKA">
		<tag k="name" v="Asphaugtrøa" />
		<tag k="place" v="farm" />
		<tag k="ssr:stedsnr" v="740937" />
	</node>
	<node id="9941665532" lat="62.9143198" lon="7.8848898" version="1" timestamp="2022-08-09T05:25:40Z" changeset="124666127" uid="3497659" user="NKA">
		<tag k="name" v="Haugbuen" />
		<tag k="place" v="farm" />
		<tag k="ssr:stedsnr" v="944030" />
	</node>
	<node id="9941665533" lat="62.8883945" lon="7.9279973" version="1" timestamp="2022-08-09T05:25:40Z" changeset="124666127" uid="3497659" user="NKA">
		<tag k="name" v="Øygarden" />
		<tag k="place" v="farm" />
		<tag k="ssr:stedsnr" v="762018" />
	</node>
	<node id="9941665534" lat="62.88875" lon="7.9740168" version="1" timestamp="2022-08-09T05:25:40Z" changeset="124666127" uid="3497659" user="NKA">
		<tag k="name" v="Nistua" />
		<tag k="place" v="farm" />
		<tag k="ssr:stedsnr" v="702014" />
	</node>
	<node id="9941665535" lat="62.9606417" lon="7.9325834" version="1" timestamp="2022-08-09T05:25:40Z" changeset="124666127" uid="3497659" user="NKA">
		<tag k="name" v="Bakken" />
		<tag k="place" v="farm" />
		<tag k="ssr:stedsnr" v="580025" />
	</node>
	<node id="9941665536" lat="62.8780676" lon="7.8265108" version="1" timestamp="2022-08-09T05:25:40Z" changeset="124666127" uid="3497659" user="NKA">
		<tag k="name" v="Duålisetra" />
		<tag k="place" v="locality" />
		<tag k="ssr:stedsnr" v="763236" />
	</node>
	<node id="9941665537" lat="62.993025" lon="7.8273584" version="1" timestamp="2022-08-09T05:25:40Z" changeset="124666127" uid="3497659" user="NKA">
		<tag k="name" v="Setra" />
		<tag k="place" v="farm" />
		<tag k="ssr:stedsnr" v="618784" />
	</node>
	<node id="9941665538" lat="62.9211361" lon="7.8943277" version="1" timestamp="2022-08-09T05:25:40Z" changeset="124666127" uid="3497659" user="NKA">
		<tag k="historic" v="shieling" />
		<tag k="name" v="Åsasetra" />
		<tag k="place" v="isolated_dwelling" />
		<tag k="ssr:stedsnr" v="557944" />
	</node>
	<node id="9941665539" lat="62.899212" lon="7.8963982" version="1" timestamp="2022-08-09T05:25:40Z" changeset="124666127" uid="3497659" user="NKA">
		<tag k="name" v="Sørdalen" />
		<tag k="place" v="farm" />
		<tag k="ssr:stedsnr" v="740939" />
	</node>
	<node id="9941665540" lat="62.8673286" lon="7.6112971" version="1" timestamp="2022-08-09T05:25:40Z" changeset="124666127" uid="3497659" user="NKA">
		<tag k="name" v="Pesetra" />
		<tag k="place" v="farm" />
		<tag k="ssr:stedsnr" v="740672" />
	</node>
	<node id="9941665541" lat="62.8932812" lon="7.6871664" version="1" timestamp="2022-08-09T05:25:40Z" changeset="124666127" uid="3497659" user="NKA">
		<tag k="name" v="Nåstad" />
		<tag k="place" v="farm" />
		<tag k="ssr:stedsnr" v="740580" />
	</node>
	<node id="9941665542" lat="62.9321553" lon="7.7967992" version="1" timestamp="2022-08-09T05:25:40Z" changeset="124666127" uid="3497659" user="NKA">
		<tag k="name" v="Dønnem" />
		<tag k="place" v="hamlet" />
		<tag k="ssr:stedsnr" v="739895" />
	</node>
	<node id="9941665543" lat="62.9117809" lon="7.7244766" version="1" timestamp="2022-08-09T05:25:40Z" changeset="124666127" uid="3497659" user="NKA">
		<tag k="name" v="Øygarden" />
		<tag k="place" v="hamlet" />
		<tag k="ssr:stedsnr" v="497957" />
	</node>
	<node id="9941665544" lat="62.9376689" lon="7.9830377" version="1" timestamp="2022-08-09T05:25:40Z" changeset="124666127" uid="3497659" user="NKA">
		<tag k="name" v="Kinna" />
		<tag k="place" v="hamlet" />
		<tag k="ssr:stedsnr" v="497917" />
	</node>
	<node id="9941665545" lat="62.8544843" lon="7.8657392" version="1" timestamp="2022-08-09T05:25:40Z" changeset="124666127" uid="3497659" user="NKA">
		<tag k="name" v="Duelva hytteområde" />
		<tag k="place" v="neighbourhood" />
		<tag k="ssr:stedsnr" v="725746" />
	</node>
	<node id="9941665546" lat="62.9426278" lon="7.8561157" version="1" timestamp="2022-08-09T05:25:40Z" changeset="124666127" uid="3497659" user="NKA">
		<tag k="name" v="Torvika" />
		<tag k="place" v="farm" />
		<tag k="ssr:stedsnr" v="375905" />
	</node>
	<node id="9941665547" lat="62.9107104" lon="7.8914435" version="1" timestamp="2022-08-09T05:25:40Z" changeset="124666127" uid="3497659" user="NKA">
		<tag k="name" v="Bortistua" />
		<tag k="place" v="farm" />
		<tag k="ssr:stedsnr" v="702028" />
	</node>
	<node id="9941665548" lat="62.9624114" lon="7.776342" version="1" timestamp="2022-08-09T05:25:40Z" changeset="124666127" uid="3497659" user="NKA">
		<tag k="name" v="Bytenga" />
		<tag k="place" v="farm" />
		<tag k="ssr:stedsnr" v="398051" />
	</node>
	<node id="9941665549" lat="62.8667614" lon="7.9002942" version="1" timestamp="2022-08-09T05:25:40Z" changeset="124666127" uid="3497659" user="NKA">
		<tag k="name" v="Bytreitan" />
		<tag k="place" v="farm" />
		<tag k="ssr:stedsnr" v="702941" />
	</node>
	<node id="9941665550" lat="62.9460861" lon="7.8748054" version="1" timestamp="2022-08-09T05:25:40Z" changeset="124666127" uid="3497659" user="NKA">
		<tag k="name" v="Orset" />
		<tag k="place" v="hamlet" />
		<tag k="ssr:stedsnr" v="679915" />
	</node>
	<node id="9941665551" lat="62.9303354" lon="7.7895599" version="1" timestamp="2022-08-09T05:25:40Z" changeset="124666127" uid="3497659" user="NKA">
		<tag k="name" v="Nerhjellen" />
		<tag k="place" v="farm" />
		<tag k="ssr:stedsnr" v="156774" />
	</node>
	<node id="9941665552" lat="62.8961722" lon="7.9070529" version="1" timestamp="2022-08-09T05:25:40Z" changeset="124666127" uid="3497659" user="NKA">
		<tag k="name" v="Furuhaugen" />
		<tag k="place" v="farm" />
		<tag k="ssr:stedsnr" v="619000" />
	</node>
	<node id="9941665553" lat="62.9523667" lon="7.7697889" version="1" timestamp="2022-08-09T05:25:40Z" changeset="124666127" uid="3497659" user="NKA">
		<tag k="name" v="Storteigen" />
		<tag k="place" v="farm" />
		<tag k="ssr:stedsnr" v="496878" />
	</node>
	<node id="9941665554" lat="62.9433139" lon="7.885039" version="1" timestamp="2022-08-09T05:25:40Z" changeset="124666127" uid="3497659" user="NKA">
		<tag k="historic" v="shieling" />
		<tag k="name" v="Orsetsetra" />
		<tag k="place" v="isolated_dwelling" />
		<tag k="ssr:stedsnr" v="557893" />
	</node>
	<node id="9941665555" lat="62.8432973" lon="7.6508334" version="1" timestamp="2022-08-09T05:25:40Z" changeset="124666127" uid="3497659" user="NKA">
		<tag k="name" v="Langlisetra" />
		<tag k="place" v="locality" />
		<tag k="ssr:stedsnr" v="922691" />
	</node>
	<node id="9941665556" lat="62.9072506" lon="8.0123448" version="1" timestamp="2022-08-09T05:25:40Z" changeset="124666127" uid="3497659" user="NKA">
		<tag k="name" v="Flemseterhaugen" />
		<tag k="place" v="farm" />
		<tag k="ssr:stedsnr" v="679990" />
	</node>
	<node id="9941665557" lat="62.968453" lon="7.7201426" version="1" timestamp="2022-08-09T05:25:40Z" changeset="124666127" uid="3497659" user="NKA">
		<tag k="name" v="Trøa" />
		<tag k="place" v="farm" />
		<tag k="ssr:stedsnr" v="702060" />
	</node>
	<node id="9941665558" lat="62.9915166" lon="7.8154749" version="1" timestamp="2022-08-09T05:25:40Z" changeset="124666127" uid="3497659" user="NKA">
		<tag k="name" v="Saltkjelen" />
		<tag k="place" v="farm" />
		<tag k="ssr:stedsnr" v="679787" />
	</node>
	<node id="9941665559" lat="62.9796577" lon="7.8614912" version="1" timestamp="2022-08-09T05:25:40Z" changeset="124666127" uid="3497659" user="NKA">
		<tag k="name" v="Lundheim" />
		<tag k="place" v="farm" />
		<tag k="ssr:stedsnr" v="950260" />
	</node>
	<node id="9941665560" lat="62.9708934" lon="7.8308942" version="1" timestamp="2022-08-09T05:25:40Z" changeset="124666127" uid="3497659" user="NKA">
		<tag k="name" v="Hagan" />
		<tag k="place" v="farm" />
		<tag k="ssr:stedsnr" v="618823" />
	</node>
	<node id="9941665561" lat="62.8827908" lon="7.6420403" version="1" timestamp="2022-08-09T05:25:40Z" changeset="124666127" uid="3497659" user="NKA">
		<tag k="name" v="Haugen" />
		<tag k="place" v="farm" />
		<tag k="ssr:stedsnr" v="944053" />
	</node>
	<node id="9941665562" lat="62.975996" lon="7.7962047" version="1" timestamp="2022-08-09T05:25:40Z" changeset="124666127" uid="3497659" user="NKA">
		<tag k="name" v="Hamna bustadfelt" />
		<tag k="place" v="neighbourhood" />
		<tag k="ssr:stedsnr" v="526813" />
	</node>
	<node id="9941665563" lat="62.9737515" lon="7.8453934" version="1" timestamp="2022-08-09T05:25:40Z" changeset="124666127" uid="3497659" user="NKA">
		<tag k="name" v="Lyngmo" />
		<tag k="place" v="farm" />
		<tag k="ssr:stedsnr" v="519460" />
	</node>
	<node id="9941665564" lat="62.9780337" lon="7.8598268" version="1" timestamp="2022-08-09T05:25:40Z" changeset="124666127" uid="3497659" user="NKA">
		<tag k="name" v="Leitet" />
		<tag k="place" v="farm" />
		<tag k="ssr:stedsnr" v="437822" />
	</node>
	<node id="9941665565" lat="62.838654" lon="7.4740618" version="1" timestamp="2022-08-09T05:25:40Z" changeset="124666127" uid="3497659" user="NKA">
		<tag k="historic" v="shieling" />
		<tag k="name" v="Åndalssetra" />
		<tag k="place" v="hamlet" />
		<tag k="ssr:stedsnr" v="801665" />
	</node>
	<node id="9941665566" lat="62.9525751" lon="7.6385087" version="1" timestamp="2022-08-09T05:25:40Z" changeset="124666127" uid="3497659" user="NKA">
		<tag k="name" v="Hammaren" />
		<tag k="place" v="farm" />
		<tag k="ssr:stedsnr" v="398057" />
	</node>
	<node id="9941665567" lat="62.8997917" lon="7.7628029" version="1" timestamp="2022-08-09T05:25:40Z" changeset="124666127" uid="3497659" user="NKA">
		<tag k="historic" v="shieling" />
		<tag k="name" v="Sjømælingssetra" />
		<tag k="place" v="isolated_dwelling" />
		<tag k="ssr:stedsnr" v="922937" />
	</node>
	<node id="9941665568" lat="62.8574947" lon="7.6898586" version="1" timestamp="2022-08-09T05:25:40Z" changeset="124666127" uid="3497659" user="NKA">
		<tag k="name" v="Gammelsetra" />
		<tag k="place" v="isolated_dwelling" />
		<tag k="ssr:stedsnr" v="314675" />
	</node>
	<node id="9941665569" lat="62.8358732" lon="7.6044743" version="1" timestamp="2022-08-09T05:25:40Z" changeset="124666127" uid="3497659" user="NKA">
		<tag k="name" v="Fursetsetra" />
		<tag k="place" v="hamlet" />
		<tag k="ssr:stedsnr" v="679672" />
	</node>
	<node id="9941665570" lat="62.9312417" lon="7.6060223" version="1" timestamp="2022-08-09T05:25:40Z" changeset="124666127" uid="3497659" user="NKA">
		<tag k="name" v="Røysan" />
		<tag k="place" v="farm" />
		<tag k="ssr:stedsnr" v="155045" />
	</node>
	<node id="9941665571" lat="62.9178403" lon="8.1035452" version="1" timestamp="2022-08-09T05:25:40Z" changeset="124666127" uid="3497659" user="NKA">
		<tag k="name" v="Haltvikan" />
		<tag k="place" v="farm" />
		<tag k="ssr:stedsnr" v="497935" />
	</node>
	<node id="9941665572" lat="62.904249" lon="8.0941024" version="1" timestamp="2022-08-09T05:25:40Z" changeset="124666127" uid="3497659" user="NKA">
		<tag k="name" v="Sjølsvikan" />
		<tag k="place" v="farm" />
		<tag k="ssr:stedsnr" v="679987" />
	</node>
	<node id="9941665573" lat="62.9330544" lon="7.6014917" version="1" timestamp="2022-08-09T05:25:40Z" changeset="124666127" uid="3497659" user="NKA">
		<tag k="name" v="Nybrottet" />
		<tag k="place" v="farm" />
		<tag k="ssr:stedsnr" v="155046" />
	</node>
	<node id="9941665574" lat="62.8645" lon="7.8745195" version="1" timestamp="2022-08-09T05:25:40Z" changeset="124666127" uid="3497659" user="NKA">
		<tag k="name" v="Kallslættet" />
		<tag k="place" v="farm" />
		<tag k="ssr:stedsnr" v="398031" />
	</node>
	<node id="9941665575" lat="62.8609195" lon="7.9069507" version="1" timestamp="2022-08-09T05:25:40Z" changeset="124666127" uid="3497659" user="NKA">
		<tag k="name" v="Oppistua" />
		<tag k="place" v="farm" />
		<tag k="ssr:stedsnr" v="337040" />
	</node>
	<node id="9941665576" lat="62.9034083" lon="8.0100583" version="1" timestamp="2022-08-09T05:25:40Z" changeset="124666127" uid="3497659" user="NKA">
		<tag k="name" v="Skogan" />
		<tag k="place" v="farm" />
		<tag k="ssr:stedsnr" v="460264" />
	</node>
	<node id="9941665577" lat="62.9039611" lon="8.0282473" version="1" timestamp="2022-08-09T05:25:40Z" changeset="124666127" uid="3497659" user="NKA">
		<tag k="historic" v="shieling" />
		<tag k="name" v="Gagnatsetra" />
		<tag k="place" v="isolated_dwelling" />
		<tag k="ssr:stedsnr" v="338548" />
	</node>
	<node id="9941665578" lat="62.8676167" lon="8.096" version="1" timestamp="2022-08-09T05:25:40Z" changeset="124666127" uid="3497659" user="NKA">
		<tag k="historic" v="shieling" />
		<tag k="name" v="Brubekksetra" />
		<tag k="place" v="isolated_dwelling" />
		<tag k="ssr:stedsnr" v="945647" />
	</node>
	<node id="9941665579" lat="62.8907398" lon="8.0196681" version="1" timestamp="2022-08-09T05:25:40Z" changeset="124666127" uid="3497659" user="NKA">
		<tag k="name" v="Aspåsen" />
		<tag k="place" v="hamlet" />
		<tag k="ssr:stedsnr" v="254950" />
	</node>
	<node id="9941665580" lat="62.8833111" lon="8.1001778" version="1" timestamp="2022-08-09T05:25:40Z" changeset="124666127" uid="3497659" user="NKA">
		<tag k="historic" v="shieling" />
		<tag k="name" v="Nesasetra" />
		<tag k="place" v="isolated_dwelling" />
		<tag k="ssr:stedsnr" v="337016" />
	</node>
	<node id="9941665581" lat="62.8736528" lon="8.0194389" version="1" timestamp="2022-08-09T05:25:40Z" changeset="124666127" uid="3497659" user="NKA">
		<tag k="historic" v="shieling" />
		<tag k="name" v="Angviksetra" />
		<tag k="place" v="locality" />
		<tag k="ssr:stedsnr" v="324639" />
	</node>
	<node id="9941665582" lat="62.9862171" lon="7.8522044" version="1" timestamp="2022-08-09T05:25:40Z" changeset="124666127" uid="3497659" user="NKA">
		<tag k="name" v="Litlvika" />
		<tag k="place" v="hamlet" />
		<tag k="ssr:stedsnr" v="922845" />
	</node>
	<node id="9941665583" lat="62.9130765" lon="8.0217518" version="1" timestamp="2022-08-09T05:25:40Z" changeset="124666127" uid="3497659" user="NKA">
		<tag k="name" v="Nistua" />
		<tag k="place" v="farm" />
		<tag k="ssr:stedsnr" v="823014" />
	</node>
	<node id="9941665584" lat="62.8591069" lon="8.1061572" version="1" timestamp="2022-08-09T05:25:40Z" changeset="124666127" uid="3497659" user="NKA">
		<tag k="name" v="Brakstad" />
		<tag k="place" v="hamlet" />
		<tag k="ssr:stedsnr" v="133481" />
	</node>
	<node id="9941665585" lat="62.9067556" lon="8.0550166" version="1" timestamp="2022-08-09T05:25:40Z" changeset="124666127" uid="3497659" user="NKA">
		<tag k="historic" v="shieling" />
		<tag k="name" v="Gammelsetra" />
		<tag k="place" v="isolated_dwelling" />
		<tag k="ssr:stedsnr" v="95388" />
	</node>
	<node id="9941665586" lat="62.9080445" lon="8.0694223" version="1" timestamp="2022-08-09T05:25:40Z" changeset="124666127" uid="3497659" user="NKA">
		<tag k="name" v="Haltviksetra" />
		<tag k="place" v="isolated_dwelling" />
		<tag k="ssr:stedsnr" v="12989" />
	</node>
	<node id="9941665587" lat="62.9714944" lon="7.849425" version="1" timestamp="2022-08-09T05:25:40Z" changeset="124666127" uid="3497659" user="NKA">
		<tag k="name" v="Molen" />
		<tag k="place" v="farm" />
		<tag k="ssr:stedsnr" v="679832" />
	</node>
	<node id="9941665588" lat="62.8997083" lon="8.0588056" version="1" timestamp="2022-08-09T05:25:40Z" changeset="124666127" uid="3497659" user="NKA">
		<tag k="name" v="Sollilia" />
		<tag k="place" v="farm" />
		<tag k="ssr:stedsnr" v="12999" />
	</node>
	<node id="9941665589" lat="62.9391181" lon="7.8081685" version="1" timestamp="2022-08-09T05:25:40Z" changeset="124666127" uid="3497659" user="NKA">
		<tag k="name" v="Bjørnplassen" />
		<tag k="place" v="farm" />
		<tag k="ssr:stedsnr" v="580044" />
	</node>
	<node id="9941665590" lat="62.8588692" lon="8.1100322" version="1" timestamp="2022-08-09T05:25:40Z" changeset="124666127" uid="3497659" user="NKA">
		<tag k="name" v="Lia" />
		<tag k="place" v="farm" />
		<tag k="ssr:stedsnr" v="884012" />
	</node>
	<node id="9941665591" lat="62.9165399" lon="8.0329048" version="1" timestamp="2022-08-09T05:25:40Z" changeset="124666127" uid="3497659" user="NKA">
		<tag k="name" v="Nerlund" />
		<tag k="place" v="farm" />
		<tag k="ssr:stedsnr" v="884026" />
	</node>
	<node id="9941665592" lat="62.9125575" lon="8.1071381" version="1" timestamp="2022-08-09T05:25:40Z" changeset="124666127" uid="3497659" user="NKA">
		<tag k="name" v="Vikan" />
		<tag k="place" v="farm" />
		<tag k="ssr:stedsnr" v="640015" />
	</node>
	<node id="9941665593" lat="62.9144614" lon="8.0258665" version="1" timestamp="2022-08-09T05:25:40Z" changeset="124666127" uid="3497659" user="NKA">
		<tag k="name" v="Oppigarden" />
		<tag k="place" v="farm" />
		<tag k="ssr:stedsnr" v="641497" />
	</node>
	<node id="9941665594" lat="62.9037722" lon="8.0842001" version="1" timestamp="2022-08-09T05:25:40Z" changeset="124666127" uid="3497659" user="NKA">
		<tag k="name" v="Rønningen" />
		<tag k="place" v="farm" />
		<tag k="ssr:stedsnr" v="194991" />
	</node>
	<node id="9941665595" lat="62.9174332" lon="8.0333612" version="1" timestamp="2022-08-09T05:25:40Z" changeset="124666127" uid="3497659" user="NKA">
		<tag k="name" v="Vollan" />
		<tag k="place" v="farm" />
		<tag k="ssr:stedsnr" v="640021" />
	</node>
	<node id="9941665596" lat="62.8944408" lon="8.0884671" version="1" timestamp="2022-08-09T05:25:40Z" changeset="124666127" uid="3497659" user="NKA">
		<tag k="name" v="Sletta" />
		<tag k="place" v="farm" />
		<tag k="ssr:stedsnr" v="459018" />
	</node>
	<node id="9941665597" lat="62.8477889" lon="8.0192388" version="1" timestamp="2022-08-09T05:25:40Z" changeset="124666127" uid="3497659" user="NKA">
		<tag k="historic" v="shieling" />
		<tag k="name" v="Brakstadsetra" />
		<tag k="place" v="isolated_dwelling" />
		<tag k="ssr:stedsnr" v="619557" />
	</node>
	<node id="9941665598" lat="62.8972389" lon="8.0803889" version="1" timestamp="2022-08-09T05:25:40Z" changeset="124666127" uid="3497659" user="NKA">
		<tag k="name" v="Haltlia" />
		<tag k="place" v="farm" />
		<tag k="ssr:stedsnr" v="557994" />
	</node>
	<node id="9941665599" lat="62.8557472" lon="8.0095251" version="1" timestamp="2022-08-09T05:25:40Z" changeset="124666127" uid="3497659" user="NKA">
		<tag k="historic" v="shieling" />
		<tag k="name" v="Åbakksetra" />
		<tag k="place" v="isolated_dwelling" />
		<tag k="ssr:stedsnr" v="558557" />
	</node>
	<node id="9941665600" lat="62.9079189" lon="8.0151517" version="1" timestamp="2022-08-09T05:25:40Z" changeset="124666127" uid="3497659" user="NKA">
		<tag k="name" v="Nørhaugen" />
		<tag k="place" v="farm" />
		<tag k="ssr:stedsnr" v="34003" />
	</node>
	<node id="9941665601" lat="62.8980691" lon="8.0815011" version="1" timestamp="2022-08-09T05:25:40Z" changeset="124666127" uid="3497659" user="NKA">
		<tag k="name" v="Vollan" />
		<tag k="place" v="locality" />
		<tag k="ssr:stedsnr" v="945017" />
	</node>
	<node id="9941665602" lat="62.9651545" lon="7.685371" version="1" timestamp="2022-08-09T05:25:40Z" changeset="124666127" uid="3497659" user="NKA">
		<tag k="name" v="Vestgård" />
		<tag k="place" v="farm" />
		<tag k="ssr:stedsnr" v="762067" />
	</node>
	<node id="9941665603" lat="62.9632912" lon="7.7598848" version="1" timestamp="2022-08-09T05:25:40Z" changeset="124666127" uid="3497659" user="NKA">
		<tag k="name" v="Liabø" />
		<tag k="place" v="farm" />
		<tag k="ssr:stedsnr" v="823431" />
	</node>
	<node id="9941665604" lat="62.9250128" lon="7.7099416" version="1" timestamp="2022-08-09T05:25:40Z" changeset="124666127" uid="3497659" user="NKA">
		<tag k="name" v="Ligarden" />
		<tag k="place" v="farm" />
		<tag k="ssr:stedsnr" v="762047" />
	</node>
	<node id="9941665605" lat="62.9060416" lon="7.6777611" version="1" timestamp="2022-08-09T05:25:40Z" changeset="124666127" uid="3497659" user="NKA">
		<tag k="name" v="Astadhaugen" />
		<tag k="place" v="farm" />
		<tag k="ssr:stedsnr" v="702051" />
	</node>
	<node id="9941665606" lat="62.8558122" lon="7.5678977" version="1" timestamp="2022-08-09T05:25:40Z" changeset="124666127" uid="3497659" user="NKA">
		<tag k="name" v="Busteigen" />
		<tag k="place" v="farm" />
		<tag k="ssr:stedsnr" v="702773" />
	</node>
	<node id="9941665607" lat="62.9059487" lon="7.7819982" version="1" timestamp="2022-08-09T05:25:40Z" changeset="124666127" uid="3497659" user="NKA">
		<tag k="name" v="Skei" />
		<tag k="place" v="hamlet" />
		<tag k="ssr:stedsnr" v="618942" />
	</node>
	<node id="9941665608" lat="62.8482167" lon="7.5822667" version="1" timestamp="2022-08-09T05:25:40Z" changeset="124666127" uid="3497659" user="NKA">
		<tag k="name" v="Hjellbakken" />
		<tag k="place" v="farm" />
		<tag k="ssr:stedsnr" v="497687" />
	</node>
	<node id="9941665609" lat="62.8877" lon="7.6559527" version="1" timestamp="2022-08-09T05:25:40Z" changeset="124666127" uid="3497659" user="NKA">
		<tag k="name" v="Rabben" />
		<tag k="place" v="farm" />
		<tag k="ssr:stedsnr" v="823041" />
	</node>
	<node id="9941665610" lat="62.8620557" lon="7.8645772" version="1" timestamp="2022-08-09T05:25:40Z" changeset="124666127" uid="3497659" user="NKA">
		<tag k="name" v="Haugen" />
		<tag k="place" v="farm" />
		<tag k="ssr:stedsnr" v="823017" />
	</node>
	<node id="9941665611" lat="62.9103689" lon="7.9687378" version="1" timestamp="2022-08-09T05:25:40Z" changeset="124666127" uid="3497659" user="NKA">
		<tag k="name" v="Solskinskvilaren" />
		<tag k="place" v="isolated_dwelling" />
		<tag k="ssr:stedsnr" v="315927" />
	</node>
	<node id="9941665612" lat="62.8872462" lon="7.9576651" version="1" timestamp="2022-08-09T05:25:40Z" changeset="124666127" uid="3497659" user="NKA">
		<tag k="name" v="Vatn" />
		<tag k="place" v="locality" />
		<tag k="ssr:stedsnr" v="497971" />
	</node>
</osm>
