<?xml version="1.0" encoding="UTF-8"?>
<<<<<<< HEAD
<osm version="0.6" generator="osmapis">
	<node lat="68.91412500343327" lon="15.061169435636073" id="-12817">
		<tag k="name" v="Skarvskjæret" />
		<tag k="ssr:date" v="2016-05-10" />
=======
<osm generator="osmapis" version="0.6">
	<node id="-200958" lat="68.9238444458" lon="14.8482027863">
		<tag k="name" v="Våje" />
		<tag k="old_name" v="Våge" />
		<tag k="ssr:date" v="2016-05-10" />
		<tag k="ssr:gruppe" v="navigasjon" />
		<tag k="ssr:hovedgruppe" v="infrastruktur" />
		<tag k="ssr:stedsnr" v="261128" />
		<tag k="ssr:type" v="fyrlykt" />
	</node>
	<node id="-200826" lat="68.912577776" lon="15.3448333423">
		<tag k="name" v="Skiplingskjæran" />
		<tag k="ssr:date" v="2016-05-10" />
		<tag k="ssr:gruppe" v="navigasjon" />
		<tag k="ssr:hovedgruppe" v="infrastruktur" />
		<tag k="ssr:stedsnr" v="220286" />
		<tag k="ssr:type" v="fyrlykt" />
	</node>
	<node id="-202871" lat="68.8662527816" lon="14.9680861222">
		<tag k="name" v="Smines" />
		<tag k="ssr:date" v="2016-05-11" />
		<tag k="ssr:gruppe" v="navigasjon" />
		<tag k="ssr:hovedgruppe" v="infrastruktur" />
		<tag k="ssr:stedsnr" v="867834" />
		<tag k="ssr:type" v="fyrlykt" />
	</node>
	<node id="-202479" lat="69.0236083374" lon="15.1180694336">
		<tag k="name" v="Langskjærene" />
		<tag k="ssr:date" v="2016-05-10" />
		<tag k="ssr:gruppe" v="navigasjon" />
		<tag k="ssr:hovedgruppe" v="infrastruktur" />
		<tag k="ssr:stedsnr" v="583518" />
		<tag k="ssr:type" v="fyrlykt" />
	</node>
	<node id="-201068" lat="68.9461944482" lon="14.9322555641">
		<tag k="name" v="Geitholmen" />
		<tag k="ssr:date" v="2016-05-10" />
		<tag k="ssr:gruppe" v="navigasjon" />
		<tag k="ssr:hovedgruppe" v="infrastruktur" />
		<tag k="ssr:stedsnr" v="200136" />
		<tag k="ssr:type" v="fyrlykt" />
	</node>
	<node id="-201705" lat="68.9944416639" lon="15.0182777853">
		<tag k="name" v="Nyksund" />
		<tag k="ssr:date" v="2016-05-11" />
		<tag k="ssr:gruppe" v="navigasjon" />
		<tag k="ssr:hovedgruppe" v="infrastruktur" />
		<tag k="ssr:stedsnr" v="904907" />
		<tag k="ssr:type" v="fyrlykt" />
	</node>
	<node id="-202704" lat="68.963273566" lon="15.2962246031">
		<tag k="name" v="Meværene, Øvre" />
		<tag k="ssr:date" v="2020-06-02" />
		<tag k="ssr:gruppe" v="navigasjon" />
		<tag k="ssr:hovedgruppe" v="infrastruktur" />
		<tag k="ssr:stedsnr" v="806583" />
		<tag k="ssr:type" v="overett" />
	</node>
	<node id="-202716" lat="68.8722916665" lon="14.9072500042">
		<tag k="name" v="Breistrand" />
		<tag k="ssr:date" v="2016-05-11" />
>>>>>>> e1d4bc35ff8a6074a6f2e91616a996b547c36f15
		<tag k="ssr:gruppe" v="navigasjon" />
		<tag k="ssr:hovedgruppe" v="infrastruktur" />
		<tag k="ssr:stedsnr" v="97927" />
		<tag k="ssr:type" v="fyrlykt" />
	</node>
<<<<<<< HEAD
	<node lat="68.91257777595646" lon="15.344833342293898" id="-12944">
		<tag k="name" v="Skiplingskjæran" />
=======
	<node id="-201177" lat="68.8418500008" lon="14.7592444445">
		<tag k="name" v="Tinden, Øvre" />
>>>>>>> e1d4bc35ff8a6074a6f2e91616a996b547c36f15
		<tag k="ssr:date" v="2016-05-10" />
		<tag k="ssr:gruppe" v="navigasjon" />
		<tag k="ssr:hovedgruppe" v="infrastruktur" />
		<tag k="ssr:stedsnr" v="220286" />
		<tag k="ssr:type" v="fyrlykt" />
	</node>
<<<<<<< HEAD
	<node lat="69.18333333214463" lon="14.700000001432237" id="-12951">
		<tag k="name" v="Sortskallen" />
		<tag k="ssr:date" v="2016-05-10" />
		<tag k="ssr:gruppe" v="sjøbunn" />
		<tag k="ssr:hovedgruppe" v="sjø" />
		<tag k="ssr:stedsnr" v="223724" />
		<tag k="ssr:type" v="bankeISjø" />
	</node>
	<node lat="68.92384444579476" lon="14.84820278629735" id="-12975">
		<tag k="name" v="Vågje" />
		<tag k="old_name" v="Våge" />
=======
	<node id="-202192" lat="69.012813893" lon="15.0794833308">
		<tag k="name" v="Kvalbaken" />
>>>>>>> e1d4bc35ff8a6074a6f2e91616a996b547c36f15
		<tag k="ssr:date" v="2016-05-10" />
		<tag k="ssr:gruppe" v="navigasjon" />
		<tag k="ssr:hovedgruppe" v="infrastruktur" />
		<tag k="ssr:stedsnr" v="261128" />
		<tag k="ssr:type" v="fyrlykt" />
	</node>
<<<<<<< HEAD
	<node lat="68.90572222502281" lon="14.727402773553276" id="-12997">
		<tag k="name" v="Ryggen" />
		<tag k="ssr:date" v="2016-05-10" />
		<tag k="ssr:gruppe" v="sjøbunn" />
		<tag k="ssr:hovedgruppe" v="sjø" />
		<tag k="ssr:stedsnr" v="281979" />
		<tag k="ssr:type" v="ryggISjø" />
	</node>
	<node lat="68.92200000146521" lon="15.008197214168161" id="-13062">
		<tag k="name" v="Gjæva" />
=======
	<node id="-201278" lat="67.2804027759" lon="14.3763888983">
		<tag k="alt_name:no" v="Nordland" />
		<tag k="loc_name:se" v="Nordlánda fylka" />
		<tag k="loc_name:sma" v="Nordlaanten fylhke" />
		<tag k="loc_name:smj" v="Nordlánda fylkka" />
		<tag k="name" v="Nordland fylke" />
		<tag k="name:no" v="Nordland fylke" />
		<tag k="ssr:date" v="2020-04-15" />
		<tag k="ssr:gruppe" v="administrativeIndelinger" />
		<tag k="ssr:hovedgruppe" v="offentligAdministrasjon" />
		<tag k="ssr:stedsnr" v="511766" />
		<tag k="ssr:type" v="fylke" />
	</node>
	<node id="-201917" lat="68.9141250034" lon="15.0611694356">
		<tag k="name" v="Skarvskjæret" />
>>>>>>> e1d4bc35ff8a6074a6f2e91616a996b547c36f15
		<tag k="ssr:date" v="2016-05-10" />
		<tag k="ssr:gruppe" v="navigasjon" />
		<tag k="ssr:hovedgruppe" v="infrastruktur" />
		<tag k="ssr:stedsnr" v="321730" />
		<tag k="ssr:type" v="fyrlykt" />
	</node>
<<<<<<< HEAD
	<node lat="68.91462222273624" lon="15.087022234171947" id="-13125">
		<tag k="name" v="Øksnes kommune" />
=======
	<node id="-201020" lat="68.84148333" lon="14.7586527842">
		<tag k="name" v="Tinden, Nedre" />
>>>>>>> e1d4bc35ff8a6074a6f2e91616a996b547c36f15
		<tag k="ssr:date" v="2016-05-10" />
		<tag k="ssr:gruppe" v="administrativeIndelinger" />
		<tag k="ssr:hovedgruppe" v="offentligAdministrasjon" />
		<tag k="ssr:stedsnr" v="389710" />
		<tag k="ssr:type" v="kommune" />
	</node>
	<node lat="68.96750617931951" lon="15.287787529802918" id="-13172">
		<tag k="name" v="Meværene, Nedre" />
		<tag k="ssr:date" v="2020-06-02" />
		<tag k="ssr:gruppe" v="navigasjon" />
		<tag k="ssr:hovedgruppe" v="infrastruktur" />
		<tag k="ssr:stedsnr" v="442598" />
		<tag k="ssr:type" v="overett" />
	</node>
<<<<<<< HEAD
	<node lat="68.8418500008277" lon="14.759244444519455" id="-13193">
		<tag k="name" v="Tinden, Øvre" />
		<tag k="ssr:date" v="2016-05-10" />
		<tag k="ssr:gruppe" v="navigasjon" />
		<tag k="ssr:hovedgruppe" v="infrastruktur" />
		<tag k="ssr:stedsnr" v="462156" />
		<tag k="ssr:type" v="fyrlykt" />
	</node>
	<node lat="68.99700277845466" lon="15.009266667313192" id="-13316">
		<tag k="name" v="Nyksundøya" />
		<tag k="ssr:date" v="2016-05-10" />
=======
	<node id="-202933" lat="69.6388889725" lon="30.5666644427">
		<tag k="fixme" v="multiple name tags, choose one and add the other to alt_name" />
		<tag k="loc_name:se" v="Norgga gonagasriika" />
		<tag k="loc_name:sma" v="Nöörjen gånkarïjhke" />
		<tag k="loc_name:smj" v="Vuona gånågisrijkka" />
		<tag k="name" v="Noreg;Norge" />
		<tag k="name:en" v="Norway" />
		<tag k="name:no" v="Noreg;Norge" />
		<tag k="ssr:date" v="2020-06-04" />
		<tag k="ssr:gruppe" v="administrativeIndelinger" />
		<tag k="ssr:hovedgruppe" v="offentligAdministrasjon" />
		<tag k="ssr:stedsnr" v="26330" />
		<tag k="ssr:type" v="nasjon" />
	</node>
	<node id="-201512" lat="68.7970166644" lon="14.8505222122">
		<tag k="name" v="Bolleøy" />
		<tag k="ssr:date" v="2016-05-11" />
>>>>>>> e1d4bc35ff8a6074a6f2e91616a996b547c36f15
		<tag k="ssr:gruppe" v="navigasjon" />
		<tag k="ssr:hovedgruppe" v="infrastruktur" />
		<tag k="ssr:stedsnr" v="624194" />
		<tag k="ssr:type" v="fyrlykt" />
	</node>
<<<<<<< HEAD
	<node lat="68.8585500041726" lon="14.773136119422169" id="-13322">
=======
	<node id="-202535" lat="68.8585500042" lon="14.7731361194">
>>>>>>> e1d4bc35ff8a6074a6f2e91616a996b547c36f15
		<tag k="name" v="Terøy" />
		<tag k="ssr:date" v="2016-05-10" />
		<tag k="ssr:gruppe" v="navigasjon" />
		<tag k="ssr:hovedgruppe" v="infrastruktur" />
		<tag k="ssr:stedsnr" v="624809" />
		<tag k="ssr:type" v="fyrlykt" />
	</node>
<<<<<<< HEAD
	<node lat="68.8134277783887" lon="14.792130559966955" id="-13405">
		<tag k="name" v="Barkestaddjupta" />
		<tag k="ssr:date" v="2016-05-11" />
		<tag k="ssr:gruppe" v="sjøbunn" />
		<tag k="ssr:hovedgruppe" v="sjø" />
		<tag k="ssr:stedsnr" v="891745" />
		<tag k="ssr:type" v="søkkISjø" />
	</node>
	<node lat="68.8363888903803" lon="14.541386119048228" id="-13469">
		<tag k="loc_name:se" v="Viestterálas" />
		<tag k="name" v="Vesterålen" />
		<tag k="name:no" v="Vesterålen" />
		<tag k="ssr:date" v="2019-12-27" />
		<tag k="ssr:gruppe" v="terrengområder" />
		<tag k="ssr:hovedgruppe" v="terreng" />
		<tag k="ssr:stedsnr" v="753757" />
		<tag k="ssr:type" v="landskapsområde" />
	</node>
	<node lat="68.99444166386877" lon="15.0182777853069" id="-13600">
		<tag k="name" v="Nyksund" />
=======
	<node id="-201510" lat="68.8400750036" lon="14.7174111209">
		<tag k="name" v="Sunderøy" />
>>>>>>> e1d4bc35ff8a6074a6f2e91616a996b547c36f15
		<tag k="ssr:date" v="2016-05-11" />
		<tag k="ssr:gruppe" v="navigasjon" />
		<tag k="ssr:hovedgruppe" v="infrastruktur" />
		<tag k="ssr:stedsnr" v="904907" />
		<tag k="ssr:type" v="fyrlykt" />
	</node>
<<<<<<< HEAD
	<node lat="68.9461944481686" lon="14.932255564079876" id="-13936">
		<tag k="name" v="Geitholmen" />
		<tag k="ssr:date" v="2016-05-10" />
		<tag k="ssr:gruppe" v="navigasjon" />
		<tag k="ssr:hovedgruppe" v="infrastruktur" />
		<tag k="ssr:stedsnr" v="200136" />
		<tag k="ssr:type" v="fyrlykt" />
	</node>
	<node lat="68.84148332997003" lon="14.758652784214215" id="-13991">
		<tag k="name" v="Tinden, Nedre" />
=======
	<node id="-202917" lat="68.9139967372" lon="15.22026949">
		<tag k="name" v="Sørvågen" />
		<tag k="ssr:date" v="2019-05-30" />
		<tag k="ssr:gruppe" v="veg" />
		<tag k="ssr:hovedgruppe" v="infrastruktur" />
		<tag k="ssr:stedsnr" v="1001693" />
		<tag k="ssr:type" v="adressenavn" />
	</node>
	<node id="-202916" lat="68.9134637984" lon="15.0906519038">
		<tag k="name" v="Blåbærveien" />
		<tag k="ssr:date" v="2019-05-30" />
		<tag k="ssr:gruppe" v="veg" />
		<tag k="ssr:hovedgruppe" v="infrastruktur" />
		<tag k="ssr:stedsnr" v="1001798" />
		<tag k="ssr:type" v="adressenavn" />
	</node>
	<node id="-202274" lat="68.9146222227" lon="15.0870222342">
		<tag k="name" v="Øksnes kommune" />
		<tag k="ssr:date" v="2016-05-10" />
		<tag k="ssr:gruppe" v="administrativeIndelinger" />
		<tag k="ssr:hovedgruppe" v="offentligAdministrasjon" />
		<tag k="ssr:stedsnr" v="389710" />
		<tag k="ssr:type" v="kommune" />
	</node>
	<node id="-202138" lat="68.9220000015" lon="15.0081972142">
		<tag k="name" v="Gjæva" />
>>>>>>> e1d4bc35ff8a6074a6f2e91616a996b547c36f15
		<tag k="ssr:date" v="2016-05-10" />
		<tag k="ssr:gruppe" v="navigasjon" />
		<tag k="ssr:hovedgruppe" v="infrastruktur" />
		<tag k="ssr:stedsnr" v="280128" />
		<tag k="ssr:type" v="fyrlykt" />
	</node>
<<<<<<< HEAD
	<node lat="69.0128138929761" lon="15.079483330809666" id="-14086">
		<tag k="name" v="Kvalbaken" />
		<tag k="ssr:date" v="2016-05-10" />
		<tag k="ssr:gruppe" v="navigasjon" />
		<tag k="ssr:hovedgruppe" v="infrastruktur" />
		<tag k="ssr:stedsnr" v="341563" />
		<tag k="ssr:type" v="fyrlykt" />
	</node>
	<node lat="69.06647711787225" lon="15.170061484088597" id="-14135">
		<tag k="name" v="Anda" />
		<tag k="old_name" v="Anda fyr" />
		<tag k="ssr:date" v="2020-09-15" />
=======
	<node id="-201111" lat="68.9675061793" lon="15.2877875298">
		<tag k="name" v="Meværene, Nedre" />
		<tag k="ssr:date" v="2020-06-02" />
		<tag k="ssr:gruppe" v="navigasjon" />
		<tag k="ssr:hovedgruppe" v="infrastruktur" />
		<tag k="ssr:stedsnr" v="442598" />
		<tag k="ssr:type" v="overett" />
	</node>
	<node id="-202388" lat="69.0289916691" lon="15.1242361084">
		<tag k="name" v="Langenes" />
		<tag k="ssr:date" v="2016-05-10" />
>>>>>>> e1d4bc35ff8a6074a6f2e91616a996b547c36f15
		<tag k="ssr:gruppe" v="navigasjon" />
		<tag k="ssr:hovedgruppe" v="infrastruktur" />
		<tag k="ssr:stedsnr" v="381372" />
		<tag k="ssr:type" v="fyrlykt" />
	</node>
<<<<<<< HEAD
	<node lat="68.86703629647697" lon="14.831461869793074" id="-14147">
		<tag k="name" v="Hjellsandøy" />
		<tag k="old_name" v="Hjellsandøya" />
		<tag k="ssr:date" v="2020-09-15" />
		<tag k="ssr:gruppe" v="navigasjon" />
		<tag k="ssr:hovedgruppe" v="infrastruktur" />
		<tag k="ssr:stedsnr" v="381842" />
		<tag k="ssr:type" v="fyrlykt" />
	</node>
	<node lat="68.96751111205555" lon="14.99240000478948" id="-14224">
=======
	<node id="-201229" lat="68.9675111121" lon="14.9924000048">
>>>>>>> e1d4bc35ff8a6074a6f2e91616a996b547c36f15
		<tag k="name" v="Innerøy" />
		<tag k="old_name" v="Indreøya" />
		<tag k="ssr:date" v="2016-05-10" />
		<tag k="ssr:gruppe" v="navigasjon" />
		<tag k="ssr:hovedgruppe" v="infrastruktur" />
		<tag k="ssr:stedsnr" v="503143" />
		<tag k="ssr:type" v="fyrlykt" />
	</node>
<<<<<<< HEAD
	<node lat="67.2804027758844" lon="14.376388898255625" id="-14259">
		<tag k="alt_name:no" v="Nordland" />
		<tag k="loc_name:se" v="Nordlándda fylka" />
		<tag k="loc_name:sma" v="Nordlaanten fylhke" />
		<tag k="name" v="Nordland fylke - Nordlánda fylkka" />
		<tag k="name:no" v="Nordland fylke" />
		<tag k="name:smj" v="Nordlánda fylkka" />
		<tag k="ssr:date" v="2021-02-03" />
		<tag k="ssr:gruppe" v="administrativeIndelinger" />
		<tag k="ssr:hovedgruppe" v="offentligAdministrasjon" />
		<tag k="ssr:stedsnr" v="511766" />
		<tag k="ssr:type" v="fylke" />
	</node>
	<node lat="69.02907324250818" lon="15.124461934577605" id="-14306">
		<tag k="name" v="Langenes" />
		<tag k="ssr:date" v="2020-09-15" />
=======
	<node id="-202631" lat="68.8363888904" lon="14.541386119">
		<tag k="loc_name:se" v="Viestterálas" />
		<tag k="name" v="Vesterålen" />
		<tag k="name:no" v="Vesterålen" />
		<tag k="ssr:date" v="2019-12-27" />
		<tag k="ssr:gruppe" v="terrengområder" />
		<tag k="ssr:hovedgruppe" v="terreng" />
		<tag k="ssr:stedsnr" v="753757" />
		<tag k="ssr:type" v="landskapsområde" />
	</node>
	<node id="-202501" lat="68.9970027785" lon="15.0092666673">
		<tag k="name" v="Nyksundøya" />
		<tag k="ssr:date" v="2016-05-10" />
>>>>>>> e1d4bc35ff8a6074a6f2e91616a996b547c36f15
		<tag k="ssr:gruppe" v="navigasjon" />
		<tag k="ssr:hovedgruppe" v="infrastruktur" />
		<tag k="ssr:stedsnr" v="563340" />
		<tag k="ssr:type" v="fyrlykt" />
	</node>
<<<<<<< HEAD
	<node lat="69.02360833738942" lon="15.118069433594593" id="-14376">
		<tag k="name" v="Langskjærene" />
		<tag k="ssr:date" v="2016-05-10" />
		<tag k="ssr:gruppe" v="navigasjon" />
		<tag k="ssr:hovedgruppe" v="infrastruktur" />
		<tag k="ssr:stedsnr" v="583518" />
		<tag k="ssr:type" v="fyrlykt" />
	</node>
	<node lat="68.96327356600175" lon="15.296224603062495" id="-14610">
		<tag k="name" v="Meværene, Øvre" />
		<tag k="ssr:date" v="2020-06-02" />
		<tag k="ssr:gruppe" v="navigasjon" />
		<tag k="ssr:hovedgruppe" v="infrastruktur" />
		<tag k="ssr:stedsnr" v="806583" />
		<tag k="ssr:type" v="overett" />
	</node>
	<node lat="68.87229166653609" lon="14.907250004164293" id="-14620">
		<tag k="name" v="Breistrand" />
		<tag k="ssr:date" v="2016-05-11" />
		<tag k="ssr:gruppe" v="navigasjon" />
		<tag k="ssr:hovedgruppe" v="infrastruktur" />
		<tag k="ssr:stedsnr" v="806851" />
		<tag k="ssr:type" v="fyrlykt" />
	</node>
	<node lat="68.86625278159967" lon="14.968086122215736" id="-14756">
		<tag k="name" v="Smines" />
		<tag k="ssr:date" v="2016-05-11" />
		<tag k="ssr:gruppe" v="navigasjon" />
		<tag k="ssr:hovedgruppe" v="infrastruktur" />
		<tag k="ssr:stedsnr" v="867834" />
		<tag k="ssr:type" v="fyrlykt" />
	</node>
	<node lat="68.8400750035753" lon="14.71741112091108" id="-14787">
		<tag k="name" v="Sunderøy" />
		<tag k="ssr:date" v="2016-05-11" />
		<tag k="ssr:gruppe" v="navigasjon" />
		<tag k="ssr:hovedgruppe" v="infrastruktur" />
		<tag k="ssr:stedsnr" v="887176" />
		<tag k="ssr:type" v="fyrlykt" />
	</node>
	<node lat="68.79701666441409" lon="14.850522212227329" id="-14788">
		<tag k="name" v="Bolleøy" />
		<tag k="ssr:date" v="2016-05-11" />
		<tag k="ssr:gruppe" v="navigasjon" />
		<tag k="ssr:hovedgruppe" v="infrastruktur" />
		<tag k="ssr:stedsnr" v="887293" />
=======
	<node id="-202260" lat="68.8668888926" lon="14.8316249943">
		<tag k="name" v="Hjellsandøy" />
		<tag k="old_name" v="Hjellsandøya" />
		<tag k="ssr:date" v="2016-05-10" />
		<tag k="ssr:gruppe" v="navigasjon" />
		<tag k="ssr:hovedgruppe" v="infrastruktur" />
		<tag k="ssr:stedsnr" v="381842" />
		<tag k="ssr:type" v="fyrlykt" />
	</node>
	<node id="-202242" lat="69.0663111113" lon="15.1702888834">
		<tag k="name" v="Anda" />
		<tag k="old_name" v="Anda fyr" />
		<tag k="ssr:date" v="2016-05-10" />
		<tag k="ssr:gruppe" v="navigasjon" />
		<tag k="ssr:hovedgruppe" v="infrastruktur" />
		<tag k="ssr:stedsnr" v="381372" />
>>>>>>> e1d4bc35ff8a6074a6f2e91616a996b547c36f15
		<tag k="ssr:type" v="fyrlykt" />
	</node>
	<node lat="68.91399673723454" lon="15.220269490016246" id="-14853">
		<tag k="name" v="Sørvågen" />
		<tag k="ssr:date" v="2019-05-30" />
		<tag k="ssr:gruppe" v="veg" />
		<tag k="ssr:hovedgruppe" v="infrastruktur" />
		<tag k="ssr:stedsnr" v="1001693" />
		<tag k="ssr:type" v="adressenavn" />
	</node>
	<node lat="68.91346379838451" lon="15.090651903769855" id="-14854">
		<tag k="name" v="Blåbærveien" />
		<tag k="ssr:date" v="2019-05-30" />
		<tag k="ssr:gruppe" v="veg" />
		<tag k="ssr:hovedgruppe" v="infrastruktur" />
		<tag k="ssr:stedsnr" v="1001798" />
		<tag k="ssr:type" v="adressenavn" />
	</node>
	<node lat="68.97989483298711" lon="15.189204789573099" id="-14873">
		<tag k="name" v="Kloneset" />
		<tag k="ssr:date" v="2020-09-28" />
		<tag k="ssr:gruppe" v="veg" />
		<tag k="ssr:hovedgruppe" v="infrastruktur" />
		<tag k="ssr:stedsnr" v="1078396" />
		<tag k="ssr:type" v="adressenavn" />
	</node>
	<node lat="68.9030431845907" lon="15.09016335157435" id="-14874">
		<tag k="name" v="Inner-Myrvågveien" />
		<tag k="ssr:date" v="2021-01-27" />
		<tag k="ssr:gruppe" v="veg" />
		<tag k="ssr:hovedgruppe" v="infrastruktur" />
		<tag k="ssr:stedsnr" v="1079768" />
		<tag k="ssr:type" v="adressenavn" />
	</node>
	<node lat="68.81470380325123" lon="14.906033020805175" id="-14875">
		<tag k="name" v="Langøya" />
		<tag k="ssr:date" v="2021-01-27" />
		<tag k="ssr:gruppe" v="veg" />
		<tag k="ssr:hovedgruppe" v="infrastruktur" />
		<tag k="ssr:stedsnr" v="1079770" />
		<tag k="ssr:type" v="adressenavn" />
	</node>
	<node lat="69.01376067147658" lon="15.159948456804202" id="-14876">
		<tag k="name" v="Staggarsveien" />
		<tag k="ssr:date" v="2021-02-26" />
		<tag k="ssr:gruppe" v="veg" />
		<tag k="ssr:hovedgruppe" v="infrastruktur" />
		<tag k="ssr:stedsnr" v="1080159" />
		<tag k="ssr:type" v="adressenavn" />
	</node>
	<node lat="69.0184401659903" lon="15.15660443259962" id="-14877">
		<tag k="name" v="Langenesværet" />
		<tag k="ssr:date" v="2021-03-26" />
		<tag k="ssr:gruppe" v="veg" />
		<tag k="ssr:hovedgruppe" v="infrastruktur" />
		<tag k="ssr:stedsnr" v="1080645" />
		<tag k="ssr:type" v="adressenavn" />
	</node>
	<node lat="68.994787894709" lon="15.009974067519831" id="-14879">
		<tag k="name" v="Ungsmaløya" />
		<tag k="ssr:date" v="2021-04-14" />
		<tag k="ssr:gruppe" v="veg" />
		<tag k="ssr:hovedgruppe" v="infrastruktur" />
		<tag k="ssr:stedsnr" v="1080787" />
		<tag k="ssr:type" v="adressenavn" />
	</node>
	<node lat="68.99718775198693" lon="15.0164035172275" id="-14891">
		<tag k="name" v="Vei 3073" />
		<tag k="ssr:date" v="2021-10-18" />
		<tag k="ssr:gruppe" v="veg" />
		<tag k="ssr:hovedgruppe" v="infrastruktur" />
		<tag k="ssr:stedsnr" v="1082611" />
		<tag k="ssr:type" v="adressenavn" />
	</node>
	<node lat="68.93972260891884" lon="15.266097796069655" id="-14892">
		<tag k="name" v="Sør-Buhågen" />
		<tag k="ssr:date" v="2021-10-07" />
		<tag k="ssr:gruppe" v="veg" />
		<tag k="ssr:hovedgruppe" v="infrastruktur" />
		<tag k="ssr:stedsnr" v="1082551" />
		<tag k="ssr:type" v="adressenavn" />
	</node>
	<node lat="68.91448630497308" lon="15.197451018888216" id="-14894">
		<tag k="name" v="Steinvassveien" />
		<tag k="ssr:date" v="2021-10-11" />
		<tag k="ssr:gruppe" v="veg" />
		<tag k="ssr:hovedgruppe" v="infrastruktur" />
		<tag k="ssr:stedsnr" v="1082568" />
		<tag k="ssr:type" v="adressenavn" />
	</node>
</osm>
