<?xml version="1.0" encoding="UTF-8"?>
<osm version="0.6" generator="osmapis">
	<node id="485221740" lat="58.3214684" lon="7.2176008" version="2" timestamp="2018-05-08T05:16:33Z" changeset="58776660" uid="3842253" user="NKA_import">
		<tag k="alt_name" v="Jådland" />
		<tag k="name" v="Jåddan" />
		<tag k="place" v="hamlet" />
		<tag k="ssr:stedsnr" v="303559" />
		<tag k="ssr:type" v="gard" />
	</node>
	<node id="491481763" lat="58.3756747" lon="7.2215106" version="4" timestamp="2018-05-08T05:16:33Z" changeset="58776660" uid="3842253" user="NKA_import">
		<tag k="name" v="Birkeland" />
		<tag k="place" v="village" />
		<tag k="ssr:stedsnr" v="179025" />
		<tag k="ssr:type" v="bygdelagBygd" />
	</node>
	<node id="491481764" lat="58.3333643" lon="7.2089761" version="2" timestamp="2018-05-08T05:16:33Z" changeset="58776660" uid="3842253" user="NKA_import">
		<tag k="name" v="Snartemo" />
		<tag k="place" v="village" />
		<tag k="ssr:stedsnr" v="910689" />
		<tag k="ssr:type" v="bygdelagBygd" />
	</node>
	<node id="491481774" lat="58.461867" lon="7.2321108" version="5" timestamp="2021-10-29T06:11:26Z" changeset="113107708" uid="3497659" user="NKA">
		<tag k="alt_name" v="Skeide" />
		<tag k="name" v="Skeie" />
		<tag k="place" v="village" />
		<tag k="population" v="234" />
		<tag k="population:date" v="2021-01-01" />
		<tag k="ref:ssb_tettsted" v="4121" />
		<tag k="source:population" v="SSB - befolkning i tettstedet" />
		<tag k="ssr:stedsnr" v="243341" />
		<tag k="ssr:type" v="bygdelagBygd" />
	</node>
	<node id="491481778" lat="58.4785791" lon="7.2084341" version="2" timestamp="2018-05-08T05:16:33Z" changeset="58776660" uid="3842253" user="NKA_import">
		<tag k="name" v="Eiken" />
		<tag k="place" v="hamlet" />
		<tag k="ssr:stedsnr" v="425339" />
		<tag k="ssr:type" v="grend" />
	</node>
	<node id="527384788" lat="58.401683" lon="7.1828385" version="2" timestamp="2018-05-08T05:16:34Z" changeset="58776660" uid="3842253" user="NKA_import">
		<tag k="name" v="Lauen" />
		<tag k="place" v="hamlet" />
		<tag k="ssr:stedsnr" v="979617" />
		<tag k="ssr:type" v="navnegard" />
	</node>
	<node id="700279882" lat="58.3465429" lon="7.2933399" version="2" timestamp="2018-05-08T05:16:34Z" changeset="58776660" uid="3842253" user="NKA_import">
		<tag k="name" v="Naglestad" />
		<tag k="place" v="hamlet" />
		<tag k="ssr:stedsnr" v="243704" />
		<tag k="ssr:type" v="gard" />
	</node>
	<node id="746769745" lat="58.3829676" lon="7.1922823" version="2" timestamp="2018-05-08T05:16:34Z" changeset="58776660" uid="3842253" user="NKA_import">
		<tag k="name" v="Bakken" />
		<tag k="place" v="farm" />
		<tag k="ssr:stedsnr" v="850733" />
		<tag k="ssr:type" v="bruk" />
	</node>
	<node id="746782936" lat="58.3538922" lon="7.2151564" version="2" timestamp="2018-05-08T05:16:34Z" changeset="58776660" uid="3842253" user="NKA_import">
		<tag k="name" v="Gyberg" />
		<tag k="place" v="hamlet" />
		<tag k="ssr:stedsnr" v="910725" />
		<tag k="ssr:type" v="gard" />
	</node>
	<node id="746782944" lat="58.35174" lon="7.2101649" version="2" timestamp="2018-05-08T05:16:34Z" changeset="58776660" uid="3842253" user="NKA_import">
		<tag k="alt_name" v="Eilevstad" />
		<tag k="name" v="Eilefstad" />
		<tag k="place" v="farm" />
		<tag k="ssr:stedsnr" v="910703" />
		<tag k="ssr:type" v="gard" />
	</node>
	<node id="746783037" lat="58.3352957" lon="7.2003115" version="2" timestamp="2018-05-08T05:16:34Z" changeset="58776660" uid="3842253" user="NKA_import">
		<tag k="alt_name" v="Urdestad" />
		<tag k="name" v="Urestad" />
		<tag k="place" v="farm" />
		<tag k="ssr:stedsnr" v="546669" />
		<tag k="ssr:type" v="gard" />
	</node>
	<node id="746783059" lat="58.3849742" lon="7.2151899" version="3" timestamp="2018-05-08T05:16:34Z" changeset="58776660" uid="3842253" user="NKA_import">
		<tag k="alt_name" v="Kålemo" />
		<tag k="name" v="Kollemo" />
		<tag k="place" v="neighbourhood" />
		<tag k="ssr:stedsnr" v="425743" />
		<tag k="ssr:type" v="gard" />
	</node>
	<node id="746783220" lat="58.3658075" lon="7.2236728" version="2" timestamp="2018-05-08T05:16:34Z" changeset="58776660" uid="3842253" user="NKA_import">
		<tag k="name" v="Hamran" />
		<tag k="place" v="hamlet" />
		<tag k="ssr:stedsnr" v="728687" />
		<tag k="ssr:type" v="bruk" />
	</node>
	<node id="867292692" lat="58.3566382" lon="7.2034698" version="2" timestamp="2018-05-08T05:16:34Z" changeset="58776660" uid="3842253" user="NKA_import">
		<tag k="alt_name" v="Skardet" />
		<tag k="name" v="Skaret" />
		<tag k="place" v="farm" />
		<tag k="ssr:stedsnr" v="303725" />
		<tag k="ssr:type" v="gammelBosettingsplass" />
	</node>
	<node id="1702555865" lat="58.4420214" lon="7.2414629" version="2" timestamp="2018-05-08T05:16:34Z" changeset="58776660" uid="3842253" user="NKA_import">
		<tag k="name" v="Vik" />
		<tag k="place" v="hamlet" />
		<tag k="ssr:stedsnr" v="667635" />
		<tag k="ssr:type" v="bruk" />
	</node>
	<node id="4240806331" lat="58.5750713" lon="7.1531394" version="3" timestamp="2021-03-22T17:34:23Z" changeset="101520771" uid="3497659" user="NKA">
		<tag k="historic" v="shieling" />
		<tag k="name" v="Lykje" />
		<tag k="place" v="isolated_dwelling" />
		<tag k="ssr:stedsnr" v="546396" />
		<tag k="ssr:type" v="fritidsbolig" />
	</node>
	<node id="5603522194" lat="58.5184667" lon="7.1178306" version="1" timestamp="2018-05-08T05:16:16Z" changeset="58776660" uid="3842253" user="NKA_import">
		<tag k="name" v="Nøkland" />
		<tag k="place" v="hamlet" />
		<tag k="ssr:stedsnr" v="546091" />
		<tag k="ssr:type" v="gard" />
	</node>
	<node id="5603522195" lat="58.3511278" lon="7.2158306" version="1" timestamp="2018-05-08T05:16:16Z" changeset="58776660" uid="3842253" user="NKA_import">
		<tag k="name" v="Dugan" />
		<tag k="place" v="farm" />
		<tag k="ssr:stedsnr" v="643216" />
		<tag k="ssr:type" v="bruk" />
	</node>
	<node id="5603522196" lat="58.5400594" lon="7.2260997" version="2" timestamp="2021-03-22T17:34:23Z" changeset="101520771" uid="3497659" user="NKA">
		<tag k="alt_name" v="Skjekelii" />
		<tag k="name" v="Skjekkelia" />
		<tag k="place" v="isolated_dwelling" />
		<tag k="ssr:stedsnr" v="546123" />
		<tag k="ssr:type" v="fritidsbolig" />
	</node>
	<node id="5603522197" lat="58.4492194" lon="7.3138194" version="1" timestamp="2018-05-08T05:16:16Z" changeset="58776660" uid="3842253" user="NKA_import">
		<tag k="historic" v="shieling" />
		<tag k="name" v="Homestøl" />
		<tag k="place" v="locality" />
		<tag k="ssr:stedsnr" v="643245" />
		<tag k="ssr:type" v="gammelBosettingsplass" />
	</node>
	<node id="5603522198" lat="58.4739414" lon="7.1476714" version="2" timestamp="2021-03-22T17:34:23Z" changeset="101520771" uid="3497659" user="NKA">
		<tag k="name" v="Villomsdalen" />
		<tag k="place" v="isolated_dwelling" />
		<tag k="ssr:stedsnr" v="546313" />
		<tag k="ssr:type" v="fritidsbolig" />
	</node>
	<node id="5603522199" lat="58.3936028" lon="7.2419806" version="1" timestamp="2018-05-08T05:16:16Z" changeset="58776660" uid="3842253" user="NKA_import">
		<tag k="alt_name" v="Bjærum øvre;Bjerom, in" />
		<tag k="name" v="Øvre Bjærum" />
		<tag k="place" v="farm" />
		<tag k="ssr:stedsnr" v="728607" />
		<tag k="ssr:type" v="gard" />
	</node>
	<node id="5603522200" lat="58.3856278" lon="7.1901722" version="1" timestamp="2018-05-08T05:16:17Z" changeset="58776660" uid="3842253" user="NKA_import">
		<tag k="alt_name" v="Li" />
		<tag k="name" v="Lien" />
		<tag k="place" v="farm" />
		<tag k="ssr:stedsnr" v="728615" />
		<tag k="ssr:type" v="gard" />
	</node>
	<node id="5603522201" lat="58.5585083" lon="7.0812333" version="1" timestamp="2018-05-08T05:16:17Z" changeset="58776660" uid="3842253" user="NKA_import">
		<tag k="historic" v="shieling" />
		<tag k="name" v="Liestølen" />
		<tag k="place" v="locality" />
		<tag k="ssr:stedsnr" v="401540" />
		<tag k="ssr:type" v="gammelBosettingsplass" />
	</node>
	<node id="5603522202" lat="58.3586583" lon="7.1775889" version="1" timestamp="2018-05-08T05:16:17Z" changeset="58776660" uid="3842253" user="NKA_import">
		<tag k="name" v="Øygarden" />
		<tag k="place" v="locality" />
		<tag k="ssr:stedsnr" v="98943" />
		<tag k="ssr:type" v="gammelBosettingsplass" />
	</node>
	<node id="5603522203" lat="58.3954667" lon="7.2495472" version="1" timestamp="2018-05-08T05:16:17Z" changeset="58776660" uid="3842253" user="NKA_import">
		<tag k="name" v="Krona" />
		<tag k="place" v="farm" />
		<tag k="ssr:stedsnr" v="643421" />
		<tag k="ssr:type" v="bruk" />
	</node>
	<node id="5603522204" lat="58.5146417" lon="7.2620917" version="1" timestamp="2018-05-08T05:16:17Z" changeset="58776660" uid="3842253" user="NKA_import">
		<tag k="name" v="Flote" />
		<tag k="place" v="locality" />
		<tag k="ssr:stedsnr" v="36828" />
		<tag k="ssr:type" v="gammelBosettingsplass" />
	</node>
	<node id="5603522205" lat="58.4378667" lon="7.21795" version="1" timestamp="2018-05-08T05:16:17Z" changeset="58776660" uid="3842253" user="NKA_import">
		<tag k="name" v="Kleppe" />
		<tag k="place" v="farm" />
		<tag k="ssr:stedsnr" v="728646" />
		<tag k="ssr:type" v="gard" />
	</node>
	<node id="5603522206" lat="58.5009611" lon="7.2522389" version="1" timestamp="2018-05-08T05:16:17Z" changeset="58776660" uid="3842253" user="NKA_import">
		<tag k="name" v="Heimra Nerløa" />
		<tag k="place" v="locality" />
		<tag k="ssr:stedsnr" v="36907" />
		<tag k="ssr:type" v="byggForJordbrukFiskeOgFangst" />
	</node>
	<node id="5603522207" lat="58.3710583" lon="7.2832139" version="1" timestamp="2018-05-08T05:16:17Z" changeset="58776660" uid="3842253" user="NKA_import">
		<tag k="name" v="Loka" />
		<tag k="place" v="farm" />
		<tag k="ssr:stedsnr" v="728686" />
		<tag k="ssr:type" v="bruk" />
	</node>
	<node id="5603522208" lat="58.3932" lon="7.1911139" version="1" timestamp="2018-05-08T05:16:17Z" changeset="58776660" uid="3842253" user="NKA_import">
		<tag k="name" v="Hundeland" />
		<tag k="place" v="farm" />
		<tag k="ssr:stedsnr" v="546590" />
		<tag k="ssr:type" v="gard" />
	</node>
	<node id="5603522209" lat="58.3703333" lon="7.1607" version="1" timestamp="2018-05-08T05:16:18Z" changeset="58776660" uid="3842253" user="NKA_import">
		<tag k="historic" v="shieling" />
		<tag k="name" v="Tengstøl" />
		<tag k="place" v="locality" />
		<tag k="ssr:stedsnr" v="340193" />
		<tag k="ssr:type" v="byggForJordbrukFiskeOgFangst" />
	</node>
	<node id="5603522210" lat="58.3914944" lon="7.1967806" version="1" timestamp="2018-05-08T05:16:18Z" changeset="58776660" uid="3842253" user="NKA_import">
		<tag k="name" v="Klungland" />
		<tag k="place" v="farm" />
		<tag k="ssr:stedsnr" v="546594" />
		<tag k="ssr:type" v="gard" />
	</node>
	<node id="5603522211" lat="58.4128861" lon="7.2344417" version="1" timestamp="2018-05-08T05:16:18Z" changeset="58776660" uid="3842253" user="NKA_import">
		<tag k="alt_name" v="Eptefjell" />
		<tag k="name" v="Eftefjell" />
		<tag k="place" v="farm" />
		<tag k="ssr:stedsnr" v="546628" />
		<tag k="ssr:type" v="gard" />
	</node>
	<node id="5603522212" lat="58.3669194" lon="7.216725" version="1" timestamp="2018-05-08T05:16:18Z" changeset="58776660" uid="3842253" user="NKA_import">
		<tag k="name" v="Hellesmonen" />
		<tag k="place" v="farm" />
		<tag k="ssr:stedsnr" v="947981" />
		<tag k="ssr:type" v="bruk" />
	</node>
	<node id="5603522213" lat="58.5942996" lon="7.1432791" version="2" timestamp="2021-03-22T17:34:23Z" changeset="101520771" uid="3497659" user="NKA">
		<tag k="name" v="Linjehytta" />
		<tag k="place" v="isolated_dwelling" />
		<tag k="ssr:stedsnr" v="643489" />
		<tag k="ssr:type" v="fritidsbolig" />
	</node>
	<node id="5603522214" lat="58.3545722" lon="7.1870917" version="1" timestamp="2018-05-08T05:16:18Z" changeset="58776660" uid="3842253" user="NKA_import">
		<tag k="alt_name" v="Skotheii" />
		<tag k="name" v="Øvre Skothei" />
		<tag k="place" v="locality" />
		<tag k="ssr:stedsnr" v="546681" />
		<tag k="ssr:type" v="gammelBosettingsplass" />
	</node>
	<node id="5603522215" lat="58.3889997" lon="7.1318647" version="1" timestamp="2018-05-08T05:16:18Z" changeset="58776660" uid="3842253" user="NKA_import">
		<tag k="name" v="Skrubbåsen" />
		<tag k="place" v="locality" />
		<tag k="ssr:stedsnr" v="278045" />
		<tag k="ssr:type" v="byggForJordbrukFiskeOgFangst" />
	</node>
	<node id="5603522216" lat="58.4240083" lon="7.2758722" version="1" timestamp="2018-05-08T05:16:18Z" changeset="58776660" uid="3842253" user="NKA_import">
		<tag k="name" v="Gletne" />
		<tag k="place" v="farm" />
		<tag k="ssr:stedsnr" v="121659" />
		<tag k="ssr:type" v="gard" />
	</node>
	<node id="5603522217" lat="58.4291361" lon="7.2574194" version="1" timestamp="2018-05-08T05:16:18Z" changeset="58776660" uid="3842253" user="NKA_import">
		<tag k="alt_name" v="Stranden" />
		<tag k="name" v="Stronda" />
		<tag k="place" v="farm" />
		<tag k="ssr:stedsnr" v="121685" />
		<tag k="ssr:type" v="gard" />
	</node>
	<node id="5603522218" lat="58.3801472" lon="7.286175" version="1" timestamp="2018-05-08T05:16:18Z" changeset="58776660" uid="3842253" user="NKA_import">
		<tag k="alt_name" v="Åmdal" />
		<tag k="name" v="Åmdalen" />
		<tag k="place" v="farm" />
		<tag k="ssr:stedsnr" v="121734" />
		<tag k="ssr:type" v="gard" />
	</node>
	<node id="5603522219" lat="58.3743667" lon="7.2226583" version="1" timestamp="2018-05-08T05:16:19Z" changeset="58776660" uid="3842253" user="NKA_import">
		<tag k="name" v="Gumpen" />
		<tag k="place" v="farm" />
		<tag k="ssr:stedsnr" v="278740" />
		<tag k="ssr:type" v="bruk" />
	</node>
	<node id="5603522220" lat="58.4488306" lon="7.26005" version="1" timestamp="2018-05-08T05:16:19Z" changeset="58776660" uid="3842253" user="NKA_import">
		<tag k="name" v="Øygarden" />
		<tag k="place" v="locality" />
		<tag k="ssr:stedsnr" v="764141" />
		<tag k="ssr:type" v="gammelBosettingsplass" />
	</node>
	<node id="5603522221" lat="58.4637202" lon="7.3213614" version="1" timestamp="2018-05-08T05:16:19Z" changeset="58776660" uid="3842253" user="NKA_import">
		<tag k="name" v="Kvåle" />
		<tag k="place" v="hamlet" />
		<tag k="ssr:stedsnr" v="964913" />
		<tag k="ssr:type" v="grend" />
	</node>
	<node id="5603522222" lat="58.3266058" lon="7.1466129" version="1" timestamp="2018-05-08T05:16:19Z" changeset="58776660" uid="3842253" user="NKA_import">
		<tag k="name" v="Bjørnestøl" />
		<tag k="place" v="farm" />
		<tag k="ssr:stedsnr" v="979602" />
		<tag k="ssr:type" v="gard" />
	</node>
	<node id="5603522223" lat="58.3878306" lon="7.1263167" version="1" timestamp="2018-05-08T05:16:19Z" changeset="58776660" uid="3842253" user="NKA_import">
		<tag k="name" v="Ruskåsen" />
		<tag k="place" v="locality" />
		<tag k="ssr:stedsnr" v="156038" />
		<tag k="ssr:type" v="byggForJordbrukFiskeOgFangst" />
	</node>
	<node id="5603522224" lat="58.3834112" lon="7.2051032" version="1" timestamp="2018-05-08T05:16:19Z" changeset="58776660" uid="3842253" user="NKA_import">
		<tag k="name" v="Ros-Eikeland" />
		<tag k="place" v="farm" />
		<tag k="ssr:stedsnr" v="979607" />
		<tag k="ssr:type" v="gard" />
	</node>
	<node id="5603522225" lat="58.3851417" lon="7.1987297" version="1" timestamp="2018-05-08T05:16:19Z" changeset="58776660" uid="3842253" user="NKA_import">
		<tag k="name" v="Lille Eikeland" />
		<tag k="place" v="farm" />
		<tag k="ssr:stedsnr" v="979608" />
		<tag k="ssr:type" v="gard" />
	</node>
	<node id="5603522226" lat="58.413851" lon="7.1806425" version="1" timestamp="2018-05-08T05:16:19Z" changeset="58776660" uid="3842253" user="NKA_import">
		<tag k="name" v="Nedre Fåland" />
		<tag k="place" v="farm" />
		<tag k="ssr:stedsnr" v="979612" />
		<tag k="ssr:type" v="gard" />
	</node>
	<node id="5603522227" lat="58.4788611" lon="7.2111778" version="1" timestamp="2018-05-08T05:16:19Z" changeset="58776660" uid="3842253" user="NKA_import">
		<tag k="name" v="Krone" />
		<tag k="place" v="farm" />
		<tag k="ssr:stedsnr" v="37224" />
		<tag k="ssr:type" v="bruk" />
	</node>
	<node id="5603522228" lat="58.3062113" lon="7.2138254" version="1" timestamp="2018-05-08T05:16:19Z" changeset="58776660" uid="3842253" user="NKA_import">
		<tag k="name" v="Gysland" />
		<tag k="place" v="hamlet" />
		<tag k="ssr:stedsnr" v="979614" />
		<tag k="ssr:type" v="navnegard" />
	</node>
	<node id="5603522229" lat="58.4151438" lon="7.1804838" version="1" timestamp="2018-05-08T05:16:19Z" changeset="58776660" uid="3842253" user="NKA_import">
		<tag k="name" v="Fåland" />
		<tag k="place" v="hamlet" />
		<tag k="ssr:stedsnr" v="979619" />
		<tag k="ssr:type" v="navnegard" />
	</node>
	<node id="5603522230" lat="58.4344426" lon="7.1673583" version="1" timestamp="2018-05-08T05:16:19Z" changeset="58776660" uid="3842253" user="NKA_import">
		<tag k="name" v="Valefjell" />
		<tag k="place" v="farm" />
		<tag k="ssr:stedsnr" v="979622" />
		<tag k="ssr:type" v="gard" />
	</node>
	<node id="5603522231" lat="58.3915772" lon="7.2429016" version="1" timestamp="2018-05-08T05:16:20Z" changeset="58776660" uid="3842253" user="NKA_import">
		<tag k="name" v="Bjærum" />
		<tag k="place" v="hamlet" />
		<tag k="ssr:stedsnr" v="979623" />
		<tag k="ssr:type" v="navnegard" />
	</node>
	<node id="5603522232" lat="58.3577728" lon="7.1781776" version="1" timestamp="2018-05-08T05:16:20Z" changeset="58776660" uid="3842253" user="NKA_import">
		<tag k="name" v="Lille Støldal" />
		<tag k="place" v="farm" />
		<tag k="ssr:stedsnr" v="979625" />
		<tag k="ssr:type" v="gard" />
	</node>
	<node id="5603522233" lat="58.4425733" lon="7.2432122" version="1" timestamp="2018-05-08T05:16:20Z" changeset="58776660" uid="3842253" user="NKA_import">
		<tag k="name" v="Østre Vik" />
		<tag k="place" v="farm" />
		<tag k="ssr:stedsnr" v="979626" />
		<tag k="ssr:type" v="gard" />
	</node>
	<node id="5603522234" lat="58.3730361" lon="7.2232306" version="1" timestamp="2018-05-08T05:16:20Z" changeset="58776660" uid="3842253" user="NKA_import">
		<tag k="name" v="Nedre Birkeland" />
		<tag k="place" v="farm" />
		<tag k="ssr:stedsnr" v="885701" />
		<tag k="ssr:type" v="gard" />
	</node>
	<node id="5603522235" lat="58.442979" lon="7.2676258" version="1" timestamp="2018-05-08T05:16:20Z" changeset="58776660" uid="3842253" user="NKA_import">
		<tag k="name" v="Øvre Blåke" />
		<tag k="place" v="farm" />
		<tag k="ssr:stedsnr" v="979627" />
		<tag k="ssr:type" v="gard" />
	</node>
	<node id="5603522236" lat="58.3206667" lon="7.2730778" version="1" timestamp="2018-05-08T05:16:20Z" changeset="58776660" uid="3842253" user="NKA_import">
		<tag k="name" v="Vestre Sunde" />
		<tag k="place" v="farm" />
		<tag k="ssr:stedsnr" v="643881" />
		<tag k="ssr:type" v="gard" />
	</node>
	<node id="5603522237" lat="58.4398239" lon="7.2667293" version="1" timestamp="2018-05-08T05:16:20Z" changeset="58776660" uid="3842253" user="NKA_import">
		<tag k="name" v="Ytre Blåke" />
		<tag k="place" v="farm" />
		<tag k="ssr:stedsnr" v="979628" />
		<tag k="ssr:type" v="gard" />
	</node>
	<node id="5603522238" lat="58.4407446" lon="7.261426" version="1" timestamp="2018-05-08T05:16:20Z" changeset="58776660" uid="3842253" user="NKA_import">
		<tag k="name" v="Blåke" />
		<tag k="place" v="hamlet" />
		<tag k="ssr:stedsnr" v="979629" />
		<tag k="ssr:type" v="navnegard" />
	</node>
	<node id="5603522239" lat="58.4268086" lon="7.3134107" version="1" timestamp="2018-05-08T05:16:20Z" changeset="58776660" uid="3842253" user="NKA_import">
		<tag k="name" v="Vasland" />
		<tag k="place" v="farm" />
		<tag k="ssr:stedsnr" v="979630" />
		<tag k="ssr:type" v="gard" />
	</node>
	<node id="5603522240" lat="58.4551236" lon="7.3352698" version="1" timestamp="2018-05-08T05:16:20Z" changeset="58776660" uid="3842253" user="NKA_import">
		<tag k="name" v="Nerstøl" />
		<tag k="place" v="hamlet" />
		<tag k="ssr:stedsnr" v="979631" />
		<tag k="ssr:type" v="navnegard" />
	</node>
	<node id="5603522241" lat="58.5212944" lon="7.2397056" version="1" timestamp="2018-05-08T05:16:20Z" changeset="58776660" uid="3842253" user="NKA_import">
		<tag k="historic" v="shieling" />
		<tag k="name" v="Øytjødn" />
		<tag k="place" v="locality" />
		<tag k="ssr:stedsnr" v="764844" />
		<tag k="ssr:type" v="seterStøl" />
	</node>
	<node id="5603522242" lat="58.46355" lon="7.2312082" version="1" timestamp="2018-05-08T05:16:20Z" changeset="58776660" uid="3842253" user="NKA_import">
		<tag k="name" v="Nordre Skeie" />
		<tag k="place" v="farm" />
		<tag k="ssr:stedsnr" v="979633" />
		<tag k="ssr:type" v="gard" />
	</node>
	<node id="5603522243" lat="58.4560618" lon="7.235817" version="1" timestamp="2018-05-08T05:16:21Z" changeset="58776660" uid="3842253" user="NKA_import">
		<tag k="name" v="Søndre Skeie" />
		<tag k="place" v="farm" />
		<tag k="ssr:stedsnr" v="979634" />
		<tag k="ssr:type" v="gard" />
	</node>
	<node id="5603522244" lat="58.5288556" lon="7.2438861" version="1" timestamp="2018-05-08T05:16:21Z" changeset="58776660" uid="3842253" user="NKA_import">
		<tag k="name" v="Hedde" />
		<tag k="place" v="locality" />
		<tag k="ssr:stedsnr" v="764867" />
		<tag k="ssr:type" v="gammelBosettingsplass" />
	</node>
	<node id="5603522245" lat="58.4869222" lon="7.1957889" version="1" timestamp="2018-05-08T05:16:21Z" changeset="58776660" uid="3842253" user="NKA_import">
		<tag k="name" v="Tveitosen" />
		<tag k="place" v="hamlet" />
		<tag k="ssr:stedsnr" v="582132" />
		<tag k="ssr:type" v="grend" />
	</node>
	<node id="5603522246" lat="58.4917296" lon="7.3172365" version="1" timestamp="2018-05-08T05:16:21Z" changeset="58776660" uid="3842253" user="NKA_import">
		<tag k="name" v="Verdal" />
		<tag k="place" v="hamlet" />
		<tag k="ssr:stedsnr" v="979636" />
		<tag k="ssr:type" v="navnegard" />
	</node>
	<node id="5603522247" lat="58.4476241" lon="7.2272281" version="1" timestamp="2018-05-08T05:16:21Z" changeset="58776660" uid="3842253" user="NKA_import">
		<tag k="name" v="Jokumsøya" />
		<tag k="place" v="farm" />
		<tag k="ssr:stedsnr" v="979637" />
		<tag k="ssr:type" v="gard" />
	</node>
	<node id="5603522248" lat="58.4785292" lon="7.2111878" version="1" timestamp="2018-05-08T05:16:21Z" changeset="58776660" uid="3842253" user="NKA_import">
		<tag k="name" v="Øvre Eiken" />
		<tag k="place" v="farm" />
		<tag k="ssr:stedsnr" v="979638" />
		<tag k="ssr:type" v="gard" />
	</node>
	<node id="5603522249" lat="58.4787838" lon="7.2180954" version="1" timestamp="2018-05-08T05:16:21Z" changeset="58776660" uid="3842253" user="NKA_import">
		<tag k="name" v="Nedre Eiken" />
		<tag k="place" v="farm" />
		<tag k="ssr:stedsnr" v="979639" />
		<tag k="ssr:type" v="gard" />
	</node>
	<node id="5603522250" lat="58.4122054" lon="7.2607425" version="1" timestamp="2018-05-08T05:16:21Z" changeset="58776660" uid="3842253" user="NKA_import">
		<tag k="name" v="Steinsland" />
		<tag k="place" v="hamlet" />
		<tag k="ssr:stedsnr" v="660777" />
		<tag k="ssr:type" v="grend" />
	</node>
	<node id="5603522251" lat="58.513375" lon="7.2742472" version="1" timestamp="2018-05-08T05:16:21Z" changeset="58776660" uid="3842253" user="NKA_import">
		<tag k="alt_name" v="Karlstøl" />
		<tag k="historic" v="shieling" />
		<tag k="name" v="Kaldstøl" />
		<tag k="place" v="locality" />
		<tag k="ssr:stedsnr" v="667097" />
		<tag k="ssr:type" v="seterStøl" />
	</node>
	<node id="5603522252" lat="58.4956644" lon="7.1799534" version="1" timestamp="2018-05-08T05:16:21Z" changeset="58776660" uid="3842253" user="NKA_import">
		<tag k="name" v="Ytre Bryggeså" />
		<tag k="place" v="farm" />
		<tag k="ssr:stedsnr" v="979641" />
		<tag k="ssr:type" v="gard" />
	</node>
	<node id="5603522253" lat="58.4975252" lon="7.177392" version="1" timestamp="2018-05-08T05:16:21Z" changeset="58776660" uid="3842253" user="NKA_import">
		<tag k="name" v="Øvre Bryggeså" />
		<tag k="place" v="farm" />
		<tag k="ssr:stedsnr" v="979642" />
		<tag k="ssr:type" v="gard" />
	</node>
	<node id="5603522254" lat="58.4974778" lon="7.3254833" version="1" timestamp="2018-05-08T05:16:21Z" changeset="58776660" uid="3842253" user="NKA_import">
		<tag k="alt_name" v="Tilhaugen" />
		<tag k="name" v="Telhaug" />
		<tag k="place" v="farm" />
		<tag k="ssr:stedsnr" v="667315" />
		<tag k="ssr:type" v="gard" />
	</node>
	<node id="5603522255" lat="58.5057401" lon="7.1617765" version="1" timestamp="2018-05-08T05:16:22Z" changeset="58776660" uid="3842253" user="NKA_import">
		<tag k="name" v="Ytre Meland" />
		<tag k="place" v="farm" />
		<tag k="ssr:stedsnr" v="979644" />
		<tag k="ssr:type" v="gard" />
	</node>
	<node id="5603522256" lat="58.3576944" lon="7.1159389" version="1" timestamp="2018-05-08T05:16:22Z" changeset="58776660" uid="3842253" user="NKA_import">
		<tag k="name" v="Øygarden" />
		<tag k="place" v="locality" />
		<tag k="ssr:stedsnr" v="826996" />
		<tag k="ssr:type" v="gammelBosettingsplass" />
	</node>
	<node id="5603522257" lat="58.5090651" lon="7.1602021" version="1" timestamp="2018-05-08T05:16:22Z" changeset="58776660" uid="3842253" user="NKA_import">
		<tag k="name" v="Øvre Meland" />
		<tag k="place" v="farm" />
		<tag k="ssr:stedsnr" v="979645" />
		<tag k="ssr:type" v="gard" />
	</node>
	<node id="5603522258" lat="58.5074752" lon="7.1612704" version="1" timestamp="2018-05-08T05:16:22Z" changeset="58776660" uid="3842253" user="NKA_import">
		<tag k="name" v="Meland" />
		<tag k="place" v="hamlet" />
		<tag k="ssr:stedsnr" v="979646" />
		<tag k="ssr:type" v="navnegard" />
	</node>
	<node id="5603522259" lat="58.4444905" lon="7.2156903" version="1" timestamp="2018-05-08T05:16:22Z" changeset="58776660" uid="3842253" user="NKA_import">
		<tag k="name" v="Vestre Vik" />
		<tag k="place" v="farm" />
		<tag k="ssr:stedsnr" v="979647" />
		<tag k="ssr:type" v="gard" />
	</node>
	<node id="5603522260" lat="58.3030417" lon="7.1540611" version="1" timestamp="2018-05-08T05:16:22Z" changeset="58776660" uid="3842253" user="NKA_import">
		<tag k="name" v="Espeland" />
		<tag k="place" v="farm" />
		<tag k="ssr:stedsnr" v="849562" />
		<tag k="ssr:type" v="gard" />
	</node>
	<node id="5603522261" lat="58.4771643" lon="7.1948939" version="1" timestamp="2018-05-08T05:16:22Z" changeset="58776660" uid="3842253" user="NKA_import">
		<tag k="name" v="Vatne" />
		<tag k="place" v="hamlet" />
		<tag k="ssr:stedsnr" v="979648" />
		<tag k="ssr:type" v="navnegard" />
	</node>
	<node id="5603522262" lat="58.5528463" lon="7.0893782" version="1" timestamp="2018-05-08T05:16:22Z" changeset="58776660" uid="3842253" user="NKA_import">
		<tag k="name" v="Farhommen" />
		<tag k="place" v="farm" />
		<tag k="ssr:stedsnr" v="979650" />
		<tag k="ssr:type" v="gard" />
	</node>
	<node id="5603522263" lat="58.509625" lon="7.12325" version="1" timestamp="2018-05-08T05:16:22Z" changeset="58776660" uid="3842253" user="NKA_import">
		<tag k="name" v="Haddeland" />
		<tag k="place" v="hamlet" />
		<tag k="ssr:stedsnr" v="850083" />
		<tag k="ssr:type" v="gard" />
	</node>
	<node id="5603522264" lat="58.417791" lon="7.1771864" version="1" timestamp="2018-05-08T05:16:22Z" changeset="58776660" uid="3842253" user="NKA_import">
		<tag k="name" v="Øvre Fåland" />
		<tag k="place" v="farm" />
		<tag k="ssr:stedsnr" v="979613" />
		<tag k="ssr:type" v="gard" />
	</node>
	<node id="5603522265" lat="58.5155917" lon="7.1210278" version="1" timestamp="2018-05-08T05:16:22Z" changeset="58776660" uid="3842253" user="NKA_import">
		<tag k="name" v="Vollan" />
		<tag k="place" v="farm" />
		<tag k="ssr:stedsnr" v="219460" />
		<tag k="ssr:type" v="bruk" />
	</node>
	<node id="5603522266" lat="58.304925" lon="7.2131695" version="1" timestamp="2018-05-08T05:16:22Z" changeset="58776660" uid="3842253" user="NKA_import">
		<tag k="alt_name" v="Gysland" />
		<tag k="name" v="Nedre Gysland" />
		<tag k="place" v="farm" />
		<tag k="ssr:stedsnr" v="667506" />
		<tag k="ssr:type" v="gard" />
	</node>
	<node id="5603522267" lat="58.5398925" lon="7.1084942" version="1" timestamp="2018-05-08T05:16:23Z" changeset="58776660" uid="3842253" user="NKA_import">
		<tag k="name" v="Rossevatn" />
		<tag k="place" v="hamlet" />
		<tag k="ssr:stedsnr" v="850120" />
		<tag k="ssr:type" v="grend" />
	</node>
	<node id="5603522268" lat="58.3182889" lon="7.283075" version="1" timestamp="2018-05-08T05:16:23Z" changeset="58776660" uid="3842253" user="NKA_import">
		<tag k="alt_name" v="Austre Sunde;Østre Sunde" />
		<tag k="name" v="Sunde" />
		<tag k="place" v="farm" />
		<tag k="ssr:stedsnr" v="667507" />
		<tag k="ssr:type" v="gard" />
	</node>
	<node id="5603522269" lat="58.4848833" lon="7.1653945" version="1" timestamp="2018-05-08T05:16:23Z" changeset="58776660" uid="3842253" user="NKA_import">
		<tag k="alt_name" v="Ødegård;Ødegården" />
		<tag k="name" v="Øygarden" />
		<tag k="place" v="farm" />
		<tag k="ssr:stedsnr" v="850304" />
		<tag k="ssr:type" v="gard" />
	</node>
	<node id="5603522270" lat="58.3172694" lon="7.155625" version="1" timestamp="2018-05-08T05:16:23Z" changeset="58776660" uid="3842253" user="NKA_import">
		<tag k="alt_name" v="Berstøl" />
		<tag k="name" v="Bergstøl" />
		<tag k="place" v="farm" />
		<tag k="ssr:stedsnr" v="667517" />
		<tag k="ssr:type" v="gard" />
	</node>
	<node id="5603522271" lat="58.35325" lon="7.1902111" version="1" timestamp="2018-05-08T05:16:23Z" changeset="58776660" uid="3842253" user="NKA_import">
		<tag k="name" v="Nedre Skothei" />
		<tag k="place" v="locality" />
		<tag k="ssr:stedsnr" v="157951" />
		<tag k="ssr:type" v="gammelBosettingsplass" />
	</node>
	<node id="5603522272" lat="58.4529139" lon="7.3371222" version="1" timestamp="2018-05-08T05:16:23Z" changeset="58776660" uid="3842253" user="NKA_import">
		<tag k="name" v="Nerstøl ytre" />
		<tag k="place" v="farm" />
		<tag k="ssr:stedsnr" v="765151" />
		<tag k="ssr:type" v="gard" />
	</node>
	<node id="5603522273" lat="58.3659694" lon="7.1168917" version="1" timestamp="2018-05-08T05:16:23Z" changeset="58776660" uid="3842253" user="NKA_import">
		<tag k="name" v="Røynekleiv" />
		<tag k="place" v="isolated_dwelling" />
		<tag k="ssr:stedsnr" v="667671" />
		<tag k="ssr:type" v="fritidsbolig" />
	</node>
	<node id="5603522274" lat="58.4744111" lon="7.2252361" version="1" timestamp="2018-05-08T05:16:23Z" changeset="58776660" uid="3842253" user="NKA_import">
		<tag k="name" v="Eiken" />
		<tag k="place" v="farm" />
		<tag k="ssr:stedsnr" v="850328" />
		<tag k="ssr:type" v="bruk" />
	</node>
	<node id="5603522275" lat="58.5397139" lon="7.1606694" version="1" timestamp="2018-05-08T05:16:23Z" changeset="58776660" uid="3842253" user="NKA_import">
		<tag k="alt_name" v="Finnestøl" />
		<tag k="historic" v="shieling" />
		<tag k="name" v="Finnes" />
		<tag k="place" v="locality" />
		<tag k="ssr:stedsnr" v="668099" />
		<tag k="ssr:type" v="byggForJordbrukFiskeOgFangst" />
	</node>
	<node id="5603522276" lat="58.5531861" lon="7.0891389" version="1" timestamp="2018-05-08T05:16:23Z" changeset="58776660" uid="3842253" user="NKA_import">
		<tag k="name" v="Farhommen" />
		<tag k="place" v="locality" />
		<tag k="ssr:stedsnr" v="850403" />
		<tag k="ssr:type" v="byggForJordbrukFiskeOgFangst" />
	</node>
	<node id="5603522277" lat="58.4485194" lon="7.1961417" version="1" timestamp="2018-05-08T05:16:23Z" changeset="58776660" uid="3842253" user="NKA_import">
		<tag k="name" v="Skytel" />
		<tag k="place" v="farm" />
		<tag k="ssr:stedsnr" v="485303" />
		<tag k="ssr:type" v="gard" />
	</node>
	<node id="5603522278" lat="58.494925" lon="7.3286139" version="1" timestamp="2018-05-08T05:16:24Z" changeset="58776660" uid="3842253" user="NKA_import">
		<tag k="name" v="Gamle Telhaug gard" />
		<tag k="place" v="locality" />
		<tag k="ssr:stedsnr" v="279759" />
		<tag k="ssr:type" v="gammelBosettingsplass" />
	</node>
	<node id="5603522279" lat="58.4171306" lon="7.1772917" version="1" timestamp="2018-05-08T05:16:24Z" changeset="58776660" uid="3842253" user="NKA_import">
		<tag k="name" v="Fåland" />
		<tag k="place" v="farm" />
		<tag k="ssr:stedsnr" v="485622" />
		<tag k="ssr:type" v="bruk" />
	</node>
	<node id="5603522280" lat="58.4967905" lon="7.1761978" version="1" timestamp="2018-05-08T05:16:24Z" changeset="58776660" uid="3842253" user="NKA_import">
		<tag k="alt_name" v="Bryggesåk" />
		<tag k="name" v="Bryggeså" />
		<tag k="place" v="hamlet" />
		<tag k="ssr:stedsnr" v="364322" />
		<tag k="ssr:type" v="bruk" />
	</node>
	<node id="5603522281" lat="58.5187306" lon="7.2904139" version="1" timestamp="2018-05-08T05:16:24Z" changeset="58776660" uid="3842253" user="NKA_import">
		<tag k="name" v="Toroshommen" />
		<tag k="place" v="locality" />
		<tag k="ssr:stedsnr" v="582868" />
		<tag k="ssr:type" v="byggForJordbrukFiskeOgFangst" />
	</node>
	<node id="5603522282" lat="58.4693694" lon="7.1963333" version="1" timestamp="2018-05-08T05:16:24Z" changeset="58776660" uid="3842253" user="NKA_import">
		<tag k="alt_name" v="Hobbåsland" />
		<tag k="name" v="Hobbesland" />
		<tag k="place" v="farm" />
		<tag k="ssr:stedsnr" v="364372" />
		<tag k="ssr:type" v="gard" />
	</node>
	<node id="5603522283" lat="58.4534111" lon="7.21125" version="1" timestamp="2018-05-08T05:16:24Z" changeset="58776660" uid="3842253" user="NKA_import">
		<tag k="name" v="Håberg" />
		<tag k="place" v="farm" />
		<tag k="ssr:stedsnr" v="364381" />
		<tag k="ssr:type" v="gard" />
	</node>
	<node id="5603522284" lat="58.5272667" lon="7.1420472" version="1" timestamp="2018-05-08T05:16:24Z" changeset="58776660" uid="3842253" user="NKA_import">
		<tag k="alt_name" v="Rudlene" />
		<tag k="name" v="Rudlend" />
		<tag k="place" v="farm" />
		<tag k="ssr:stedsnr" v="60123" />
		<tag k="ssr:type" v="gard" />
	</node>
	<node id="5603522285" lat="58.428775" lon="7.2737694" version="1" timestamp="2018-05-08T05:16:24Z" changeset="58776660" uid="3842253" user="NKA_import">
		<tag k="name" v="Strondeløa" />
		<tag k="place" v="locality" />
		<tag k="ssr:stedsnr" v="280280" />
		<tag k="ssr:type" v="byggForJordbrukFiskeOgFangst" />
	</node>
	<node id="5603522286" lat="58.6181556" lon="7.1652111" version="1" timestamp="2018-05-08T05:16:24Z" changeset="58776660" uid="3842253" user="NKA_import">
		<tag k="name" v="Haien" />
		<tag k="place" v="locality" />
		<tag k="ssr:stedsnr" v="887536" />
		<tag k="ssr:type" v="gjerde" />
	</node>
	<node id="5603522287" lat="58.3091833" lon="7.2324972" version="1" timestamp="2018-05-08T05:16:24Z" changeset="58776660" uid="3842253" user="NKA_import">
		<tag k="alt_name" v="Gysland, øvre" />
		<tag k="name" v="Øvre Gysland" />
		<tag k="place" v="farm" />
		<tag k="ssr:stedsnr" v="60499" />
		<tag k="ssr:type" v="gard" />
	</node>
	<node id="5603522288" lat="58.3110278" lon="7.1732972" version="1" timestamp="2018-05-08T05:16:24Z" changeset="58776660" uid="3842253" user="NKA_import">
		<tag k="alt_name" v="Eiriksstøl" />
		<tag k="name" v="Eirikstøl" />
		<tag k="place" v="farm" />
		<tag k="ssr:stedsnr" v="364542" />
		<tag k="ssr:type" v="gard" />
	</node>
	<node id="5603522289" lat="58.5876361" lon="7.1186611" version="1" timestamp="2018-05-08T05:16:25Z" changeset="58776660" uid="3842253" user="NKA_import">
		<tag k="name" v="Gammel Øygard" />
		<tag k="place" v="locality" />
		<tag k="ssr:stedsnr" v="887545" />
		<tag k="ssr:type" v="gammelBosettingsplass" />
	</node>
	<node id="5603522290" lat="58.5018278" lon="7.3315611" version="1" timestamp="2018-05-08T05:16:25Z" changeset="58776660" uid="3842253" user="NKA_import">
		<tag k="alt_name" v="Verdal austre;Verdal" />
		<tag k="name" v="Austre Verdal" />
		<tag k="place" v="farm" />
		<tag k="ssr:stedsnr" v="61051" />
		<tag k="ssr:type" v="gard" />
	</node>
	<node id="5603522291" lat="58.3974628" lon="7.2264279" version="1" timestamp="2018-05-08T05:16:25Z" changeset="58776660" uid="3842253" user="NKA_import">
		<tag k="alt_name" v="Tingvatne" />
		<tag k="name" v="Tingvatn" />
		<tag k="place" v="hamlet" />
		<tag k="ssr:stedsnr" v="364635" />
		<tag k="ssr:type" v="gard" />
	</node>
	<node id="5603522292" lat="58.4282194" lon="7.313075" version="1" timestamp="2018-05-08T05:16:25Z" changeset="58776660" uid="3842253" user="NKA_import">
		<tag k="name" v="Vassland" />
		<tag k="place" v="locality" />
		<tag k="ssr:stedsnr" v="364670" />
		<tag k="ssr:type" v="gammelBosettingsplass" />
	</node>
	<node id="5603522293" lat="58.5528972" lon="7.2327472" version="1" timestamp="2018-05-08T05:16:25Z" changeset="58776660" uid="3842253" user="NKA_import">
		<tag k="name" v="Bryggesåhommen" />
		<tag k="place" v="locality" />
		<tag k="ssr:stedsnr" v="910392" />
		<tag k="ssr:type" v="byggForJordbrukFiskeOgFangst" />
	</node>
	<node id="5603522294" lat="58.3748278" lon="7.2136866" version="1" timestamp="2018-05-08T05:16:25Z" changeset="58776660" uid="3842253" user="NKA_import">
		<tag k="name" v="Helle" />
		<tag k="place" v="hamlet" />
		<tag k="ssr:stedsnr" v="364737" />
		<tag k="ssr:type" v="gard" />
	</node>
	<node id="5603522295" lat="58.3247111" lon="7.2065528" version="1" timestamp="2018-05-08T05:16:25Z" changeset="58776660" uid="3842253" user="NKA_import">
		<tag k="name" v="Skjeggestad" />
		<tag k="place" v="farm" />
		<tag k="ssr:stedsnr" v="910565" />
		<tag k="ssr:type" v="gard" />
	</node>
	<node id="5603522296" lat="58.3855389" lon="7.2765056" version="1" timestamp="2018-05-08T05:16:25Z" changeset="58776660" uid="3842253" user="NKA_import">
		<tag k="name" v="Håland" />
		<tag k="place" v="farm" />
		<tag k="ssr:stedsnr" v="364744" />
		<tag k="ssr:type" v="gard" />
	</node>
	<node id="5603522297" lat="58.390175" lon="7.1947778" version="1" timestamp="2018-05-08T05:16:25Z" changeset="58776660" uid="3842253" user="NKA_import">
		<tag k="name" v="Dukå" />
		<tag k="place" v="farm" />
		<tag k="ssr:stedsnr" v="910629" />
		<tag k="ssr:type" v="bruk" />
	</node>
	<node id="5603522298" lat="58.5447139" lon="7.1137528" version="1" timestamp="2018-05-08T05:16:25Z" changeset="58776660" uid="3842253" user="NKA_import">
		<tag k="alt_name" v="Espeskard" />
		<tag k="name" v="Espeskaret" />
		<tag k="place" v="farm" />
		<tag k="ssr:stedsnr" v="61389" />
		<tag k="ssr:type" v="gard" />
	</node>
	<node id="5603522299" lat="58.4347361" lon="7.2372361" version="1" timestamp="2018-05-08T05:16:25Z" changeset="58776660" uid="3842253" user="NKA_import">
		<tag k="alt_name" v="Eikneset;Eiknes" />
		<tag k="name" v="Eikeneset" />
		<tag k="place" v="farm" />
		<tag k="ssr:stedsnr" v="910673" />
		<tag k="ssr:type" v="gard" />
	</node>
	<node id="5603522300" lat="58.526875" lon="7.2056" version="1" timestamp="2018-05-08T05:16:26Z" changeset="58776660" uid="3842253" user="NKA_import">
		<tag k="name" v="Torskvæven" />
		<tag k="place" v="locality" />
		<tag k="ssr:stedsnr" v="521268" />
		<tag k="ssr:type" v="byggForJordbrukFiskeOgFangst" />
	</node>
	<node id="5603522301" lat="58.345325" lon="7.2048972" version="1" timestamp="2018-05-08T05:16:26Z" changeset="58776660" uid="3842253" user="NKA_import">
		<tag k="name" v="Neset" />
		<tag k="place" v="farm" />
		<tag k="ssr:stedsnr" v="61684" />
		<tag k="ssr:type" v="bruk" />
	</node>
	<node id="5603522302" lat="58.3421889" lon="7.2080583" version="1" timestamp="2018-05-08T05:16:26Z" changeset="58776660" uid="3842253" user="NKA_import">
		<tag k="alt_name" v="Prestegården" />
		<tag k="name" v="Hægebostad prestegård" />
		<tag k="place" v="farm" />
		<tag k="ssr:stedsnr" v="243705" />
		<tag k="ssr:type" v="gard" />
	</node>
	<node id="5603522303" lat="58.5176444" lon="7.1224278" version="1" timestamp="2018-05-08T05:16:26Z" changeset="58776660" uid="3842253" user="NKA_import">
		<tag k="name" v="Haugen" />
		<tag k="place" v="farm" />
		<tag k="ssr:stedsnr" v="158442" />
		<tag k="ssr:type" v="bruk" />
	</node>
	<node id="5603522304" lat="58.50705" lon="7.2594194" version="1" timestamp="2018-05-08T05:16:26Z" changeset="58776660" uid="3842253" user="NKA_import">
		<tag k="name" v="Ospeløa" />
		<tag k="place" v="locality" />
		<tag k="ssr:stedsnr" v="400023" />
		<tag k="ssr:type" v="byggForJordbrukFiskeOgFangst" />
	</node>
	<node id="5603522305" lat="58.5039528" lon="7.3699556" version="1" timestamp="2018-05-08T05:16:26Z" changeset="58776660" uid="3842253" user="NKA_import">
		<tag k="name" v="Godstad" />
		<tag k="place" v="farm" />
		<tag k="ssr:stedsnr" v="911872" />
		<tag k="ssr:type" v="bruk" />
	</node>
	<node id="5603522306" lat="58.5133406" lon="7.2672777" version="2" timestamp="2021-03-22T17:34:23Z" changeset="101520771" uid="3497659" user="NKA">
		<tag k="alt_name" v="Vadløa" />
		<tag k="name" v="Valøa" />
		<tag k="place" v="isolated_dwelling" />
		<tag k="ssr:stedsnr" v="243060" />
		<tag k="ssr:type" v="fritidsbolig" />
	</node>
	<node id="5603522307" lat="58.3382917" lon="7.2926167" version="1" timestamp="2018-05-08T05:16:26Z" changeset="58776660" uid="3842253" user="NKA_import">
		<tag k="name" v="Solheim" />
		<tag k="place" v="farm" />
		<tag k="ssr:stedsnr" v="765882" />
		<tag k="ssr:type" v="bruk" />
	</node>
	<node id="5603522308" lat="58.5633225" lon="7.1858031" version="2" timestamp="2021-03-22T17:34:23Z" changeset="101520771" uid="3497659" user="NKA">
		<tag k="name" v="Krobustøl" />
		<tag k="place" v="isolated_dwelling" />
		<tag k="ssr:stedsnr" v="243379" />
		<tag k="ssr:type" v="fritidsbolig" />
	</node>
	<node id="5603522309" lat="58.3988342" lon="7.2239817" version="1" timestamp="2018-05-08T05:16:26Z" changeset="58776660" uid="3842253" user="NKA_import">
		<tag k="name" v="Leitet" />
		<tag k="place" v="isolated_dwelling" />
		<tag k="ssr:stedsnr" v="887498" />
		<tag k="ssr:type" v="eneboligMindreBoligbygg" />
	</node>
	<node id="5603522310" lat="58.3270933" lon="7.1451642" version="2" timestamp="2021-03-22T17:34:23Z" changeset="101520771" uid="3497659" user="NKA">
		<tag k="name" v="Bjørnstøl" />
		<tag k="place" v="isolated_dwelling" />
		<tag k="ssr:stedsnr" v="243569" />
		<tag k="ssr:type" v="fritidsbolig" />
	</node>
	<node id="5603522311" lat="58.5208472" lon="7.1098083" version="1" timestamp="2018-05-08T05:16:27Z" changeset="58776660" uid="3842253" user="NKA_import">
		<tag k="alt_name" v="Åvetsland" />
		<tag k="name" v="Åvesland" />
		<tag k="place" v="farm" />
		<tag k="ssr:stedsnr" v="788088" />
		<tag k="ssr:type" v="gard" />
	</node>
	<node id="5603522312" lat="58.3304778" lon="7.2701556" version="1" timestamp="2018-05-08T05:16:27Z" changeset="58776660" uid="3842253" user="NKA_import">
		<tag k="name" v="Kvestad" />
		<tag k="place" v="farm" />
		<tag k="ssr:stedsnr" v="243572" />
		<tag k="ssr:type" v="gard" />
	</node>
	<node id="5603522313" lat="58.5099278" lon="7.2642333" version="1" timestamp="2018-05-08T05:16:27Z" changeset="58776660" uid="3842253" user="NKA_import">
		<tag k="name" v="Høkaløa" />
		<tag k="place" v="locality" />
		<tag k="ssr:stedsnr" v="522030" />
		<tag k="ssr:type" v="byggForJordbrukFiskeOgFangst" />
	</node>
	<node id="5603522314" lat="58.505425" lon="7.25755" version="1" timestamp="2018-05-08T05:16:27Z" changeset="58776660" uid="3842253" user="NKA_import">
		<tag k="name" v="Heimra-løa" />
		<tag k="place" v="locality" />
		<tag k="ssr:stedsnr" v="522032" />
		<tag k="ssr:type" v="byggForJordbrukFiskeOgFangst" />
	</node>
	<node id="5603522315" lat="58.4110142" lon="7.2582101" version="1" timestamp="2018-05-08T05:16:27Z" changeset="58776660" uid="3842253" user="NKA_import">
		<tag k="alt_name" v="Steinsland, nedre" />
		<tag k="name" v="Nedre Steinsland" />
		<tag k="place" v="farm" />
		<tag k="ssr:stedsnr" v="243678" />
		<tag k="ssr:type" v="gard" />
	</node>
	<node id="5603522316" lat="58.4943861" lon="7.16855" version="1" timestamp="2018-05-08T05:16:27Z" changeset="58776660" uid="3842253" user="NKA_import">
		<tag k="name" v="Eikåsen" />
		<tag k="place" v="farm" />
		<tag k="ssr:stedsnr" v="789335" />
		<tag k="ssr:type" v="gard" />
	</node>
	<node id="5603522317" lat="58.3880528" lon="7.20195" version="1" timestamp="2018-05-08T05:16:27Z" changeset="58776660" uid="3842253" user="NKA_import">
		<tag k="name" v="Kjellingland" />
		<tag k="place" v="farm" />
		<tag k="ssr:stedsnr" v="243738" />
		<tag k="ssr:type" v="gard" />
	</node>
	<node id="5603522318" lat="58.389183" lon="7.2466176" version="1" timestamp="2018-05-08T05:16:27Z" changeset="58776660" uid="3842253" user="NKA_import">
		<tag k="alt_name" v="Nedre Bjærum" />
		<tag k="name" v="Ytre Bjerom" />
		<tag k="place" v="farm" />
		<tag k="ssr:stedsnr" v="243741" />
		<tag k="ssr:type" v="gard" />
	</node>
	<node id="5603522319" lat="58.48305" lon="7.2042167" version="1" timestamp="2018-05-08T05:16:27Z" changeset="58776660" uid="3842253" user="NKA_import">
		<tag k="name" v="Tveiten" />
		<tag k="place" v="farm" />
		<tag k="ssr:stedsnr" v="789363" />
		<tag k="ssr:type" v="gard" />
	</node>
	<node id="5603522320" lat="58.4706333" lon="7.2273917" version="1" timestamp="2018-05-08T05:16:27Z" changeset="58776660" uid="3842253" user="NKA_import">
		<tag k="name" v="Skeie øvre" />
		<tag k="place" v="farm" />
		<tag k="ssr:stedsnr" v="522129" />
		<tag k="ssr:type" v="bruk" />
	</node>
	<node id="5603522421" lat="58.4041051" lon="7.1857303" version="1" timestamp="2018-05-08T05:16:27Z" changeset="58776660" uid="3842253" user="NKA_import">
		<tag k="alt_name" v="Lauen" />
		<tag k="name" v="Øvre Lauen" />
		<tag k="place" v="farm" />
		<tag k="ssr:stedsnr" v="789631" />
		<tag k="ssr:type" v="grend" />
	</node>
	<node id="5603522422" lat="58.5017222" lon="7.1437833" version="1" timestamp="2018-05-08T05:16:28Z" changeset="58776660" uid="3842253" user="NKA_import">
		<tag k="alt_name" v="Orta" />
		<tag k="name" v="Orte" />
		<tag k="place" v="farm" />
		<tag k="ssr:stedsnr" v="425056" />
		<tag k="ssr:type" v="gard" />
	</node>
	<node id="5603522423" lat="58.5317667" lon="7.1824805" version="1" timestamp="2018-05-08T05:16:28Z" changeset="58776660" uid="3842253" user="NKA_import">
		<tag k="historic" v="shieling" />
		<tag k="name" v="Jordestøl" />
		<tag k="place" v="locality" />
		<tag k="ssr:stedsnr" v="946406" />
		<tag k="ssr:type" v="byggForJordbrukFiskeOgFangst" />
	</node>
	<node id="5603522424" lat="58.5007167" lon="7.1752667" version="1" timestamp="2018-05-08T05:16:28Z" changeset="58776660" uid="3842253" user="NKA_import">
		<tag k="name" v="Handeland" />
		<tag k="place" v="hamlet" />
		<tag k="ssr:stedsnr" v="303061" />
		<tag k="ssr:type" v="gard" />
	</node>
	<node id="5603522425" lat="58.5209806" lon="7.1600972" version="1" timestamp="2018-05-08T05:16:28Z" changeset="58776660" uid="3842253" user="NKA_import">
		<tag k="alt_name" v="Øygarden" />
		<tag k="name" v="Melands Øygard" />
		<tag k="place" v="locality" />
		<tag k="ssr:stedsnr" v="303090" />
		<tag k="ssr:type" v="byggForJordbrukFiskeOgFangst" />
	</node>
	<node id="5603522426" lat="58.5288444" lon="7.2671472" version="1" timestamp="2018-05-08T05:16:28Z" changeset="58776660" uid="3842253" user="NKA_import">
		<tag k="name" v="Eikehommen" />
		<tag k="place" v="isolated_dwelling" />
		<tag k="ssr:stedsnr" v="303098" />
		<tag k="ssr:type" v="fritidsbolig" />
	</node>
	<node id="5603522427" lat="58.3764389" lon="7.223375" version="1" timestamp="2018-05-08T05:16:28Z" changeset="58776660" uid="3842253" user="NKA_import">
		<tag k="alt_name" v="Birkeland øvre" />
		<tag k="name" v="Øvre Birkeland" />
		<tag k="place" v="farm" />
		<tag k="ssr:stedsnr" v="789750" />
		<tag k="ssr:type" v="gard" />
	</node>
	<node id="5603522428" lat="58.4730722" lon="7.198225" version="1" timestamp="2018-05-08T05:16:28Z" changeset="58776660" uid="3842253" user="NKA_import">
		<tag k="alt_name" v="Vatne, yt" />
		<tag k="name" v="Ytre Vatne" />
		<tag k="place" v="farm" />
		<tag k="ssr:stedsnr" v="425340" />
		<tag k="ssr:type" v="gard" />
	</node>
	<node id="5603522429" lat="58.4882806" lon="7.3092278" version="1" timestamp="2018-05-08T05:16:28Z" changeset="58776660" uid="3842253" user="NKA_import">
		<tag k="alt_name" v="Verdal, vestre;Verdal" />
		<tag k="name" v="Vestre Verdal" />
		<tag k="place" v="farm" />
		<tag k="ssr:stedsnr" v="425347" />
		<tag k="ssr:type" v="gard" />
	</node>
	<node id="5603522430" lat="58.4917417" lon="7.1876778" version="1" timestamp="2018-05-08T05:16:28Z" changeset="58776660" uid="3842253" user="NKA_import">
		<tag k="name" v="Gardøl" />
		<tag k="place" v="farm" />
		<tag k="ssr:stedsnr" v="303307" />
		<tag k="ssr:type" v="gard" />
	</node>
	<node id="5603522431" lat="58.4647694" lon="7.3212944" version="1" timestamp="2018-05-08T05:16:28Z" changeset="58776660" uid="3842253" user="NKA_import">
		<tag k="alt_name" v="Kvåle store;Kvåle" />
		<tag k="name" v="Store Kvåle" />
		<tag k="place" v="farm" />
		<tag k="ssr:stedsnr" v="303346" />
		<tag k="ssr:type" v="gard" />
	</node>
	<node id="5603522432" lat="58.4680639" lon="7.3232333" version="1" timestamp="2018-05-08T05:16:28Z" changeset="58776660" uid="3842253" user="NKA_import">
		<tag k="alt_name" v="Kvåle lille" />
		<tag k="name" v="Lille Kvåle" />
		<tag k="place" v="farm" />
		<tag k="ssr:stedsnr" v="425357" />
		<tag k="ssr:type" v="gard" />
	</node>
	<node id="5603522433" lat="58.3849324" lon="7.2695624" version="1" timestamp="2018-05-08T05:16:28Z" changeset="58776660" uid="3842253" user="NKA_import">
		<tag k="name" v="Røyseland" />
		<tag k="place" v="farm" />
		<tag k="ssr:stedsnr" v="704386" />
		<tag k="ssr:type" v="gard" />
	</node>
	<node id="5603522434" lat="58.460625" lon="7.1967778" version="1" timestamp="2018-05-08T05:16:29Z" changeset="58776660" uid="3842253" user="NKA_import">
		<tag k="name" v="Skoland" />
		<tag k="place" v="farm" />
		<tag k="ssr:stedsnr" v="353" />
		<tag k="ssr:type" v="gard" />
	</node>
	<node id="5603522435" lat="58.4800167" lon="7.1931889" version="1" timestamp="2018-05-08T05:16:29Z" changeset="58776660" uid="3842253" user="NKA_import">
		<tag k="alt_name" v="Vatne, øvre;Vatne" />
		<tag k="name" v="Øvre Vatne" />
		<tag k="place" v="farm" />
		<tag k="ssr:stedsnr" v="606311" />
		<tag k="ssr:type" v="gard" />
	</node>
	<node id="5603522436" lat="58.4579333" lon="7.3153056" version="1" timestamp="2018-05-08T05:16:29Z" changeset="58776660" uid="3842253" user="NKA_import">
		<tag k="alt_name" v="Stuelien;Stulien" />
		<tag k="name" v="Stueli" />
		<tag k="place" v="farm" />
		<tag k="ssr:stedsnr" v="355" />
		<tag k="ssr:type" v="gard" />
	</node>
	<node id="5603522437" lat="58.3965389" lon="7.2655305" version="1" timestamp="2018-05-08T05:16:29Z" changeset="58776660" uid="3842253" user="NKA_import">
		<tag k="name" v="Krossen" />
		<tag k="place" v="farm" />
		<tag k="ssr:stedsnr" v="303628" />
		<tag k="ssr:type" v="gard" />
	</node>
	<node id="5603522438" lat="58.5421972" lon="7.0977583" version="1" timestamp="2018-05-08T05:16:29Z" changeset="58776660" uid="3842253" user="NKA_import">
		<tag k="alt_name" v="Lii" />
		<tag k="name" v="Lien" />
		<tag k="place" v="farm" />
		<tag k="ssr:stedsnr" v="182110" />
		<tag k="ssr:type" v="gard" />
	</node>
	<node id="5603522439" lat="58.3990093" lon="7.1831703" version="1" timestamp="2018-05-08T05:16:29Z" changeset="58776660" uid="3842253" user="NKA_import">
		<tag k="name" v="Nedre Lauen" />
		<tag k="place" v="farm" />
		<tag k="ssr:stedsnr" v="947012" />
		<tag k="ssr:type" v="grend" />
	</node>
	<node id="5603522440" lat="58.4470632" lon="7.2474415" version="1" timestamp="2018-05-08T05:16:29Z" changeset="58776660" uid="3842253" user="NKA_import">
		<tag k="alt_name" v="Grostøl" />
		<tag k="name" v="Grøstøl" />
		<tag k="place" v="hamlet" />
		<tag k="ssr:stedsnr" v="371" />
		<tag k="ssr:type" v="gard" />
	</node>
	<node id="5603522441" lat="58.4561556" lon="7.2337889" version="1" timestamp="2018-05-08T05:16:29Z" changeset="58776660" uid="3842253" user="NKA_import">
		<tag k="name" v="Skjekkeland" />
		<tag k="place" v="farm" />
		<tag k="ssr:stedsnr" v="182337" />
		<tag k="ssr:type" v="bruk" />
	</node>
	<node id="5603522442" lat="58.4018444" lon="7.2919139" version="1" timestamp="2018-05-08T05:16:29Z" changeset="58776660" uid="3842253" user="NKA_import">
		<tag k="alt_name" v="Yksnedal" />
		<tag k="name" v="Yksendal" />
		<tag k="place" v="farm" />
		<tag k="ssr:stedsnr" v="606619" />
		<tag k="ssr:type" v="gard" />
	</node>
	<node id="5603522443" lat="58.4245667" lon="7.2351444" version="1" timestamp="2018-05-08T05:16:29Z" changeset="58776660" uid="3842253" user="NKA_import">
		<tag k="name" v="Neset" />
		<tag k="place" v="farm" />
		<tag k="ssr:stedsnr" v="425653" />
		<tag k="ssr:type" v="gard" />
	</node>
	<node id="5603522444" lat="58.3958389" lon="7.1912917" version="1" timestamp="2018-05-08T05:16:29Z" changeset="58776660" uid="3842253" user="NKA_import">
		<tag k="name" v="Hommen" />
		<tag k="place" v="farm" />
		<tag k="ssr:stedsnr" v="606623" />
		<tag k="ssr:type" v="gard" />
	</node>
	<node id="5603522445" lat="58.4275556" lon="7.1803806" version="1" timestamp="2018-05-08T05:16:30Z" changeset="58776660" uid="3842253" user="NKA_import">
		<tag k="name" v="Røydland" />
		<tag k="place" v="farm" />
		<tag k="ssr:stedsnr" v="303659" />
		<tag k="ssr:type" v="gard" />
	</node>
	<node id="5603522446" lat="58.4567278" lon="7.3357389" version="1" timestamp="2018-05-08T05:16:30Z" changeset="58776660" uid="3842253" user="NKA_import">
		<tag k="alt_name" v="Nerstøl øvre;Nedrestøl" />
		<tag k="name" v="Øvre Nerstøl" />
		<tag k="place" v="farm" />
		<tag k="ssr:stedsnr" v="182353" />
		<tag k="ssr:type" v="gard" />
	</node>
	<node id="5603522447" lat="58.4024944" lon="7.311875" version="1" timestamp="2018-05-08T05:16:30Z" changeset="58776660" uid="3842253" user="NKA_import">
		<tag k="alt_name" v="Heddås" />
		<tag k="name" v="Hellåsen" />
		<tag k="place" v="farm" />
		<tag k="ssr:stedsnr" v="606651" />
		<tag k="ssr:type" v="gard" />
	</node>
	<node id="5603522448" lat="58.5535417" lon="7.1533722" version="1" timestamp="2018-05-08T05:16:30Z" changeset="58776660" uid="3842253" user="NKA_import">
		<tag k="historic" v="shieling" />
		<tag k="name" v="Homstøl" />
		<tag k="place" v="locality" />
		<tag k="ssr:stedsnr" v="182396" />
		<tag k="ssr:type" v="byggForJordbrukFiskeOgFangst" />
	</node>
	<node id="5603522449" lat="58.5054833" lon="7.2540306" version="1" timestamp="2018-05-08T05:16:30Z" changeset="58776660" uid="3842253" user="NKA_import">
		<tag k="name" v="Nerløa" />
		<tag k="place" v="locality" />
		<tag k="ssr:stedsnr" v="947034" />
		<tag k="ssr:type" v="byggForJordbrukFiskeOgFangst" />
	</node>
	<node id="5603522450" lat="58.4196111" lon="7.1840778" version="1" timestamp="2018-05-08T05:16:30Z" changeset="58776660" uid="3842253" user="NKA_import">
		<tag k="name" v="Ro" />
		<tag k="place" v="farm" />
		<tag k="ssr:stedsnr" v="303661" />
		<tag k="ssr:type" v="gard" />
	</node>
	<node id="5603522451" lat="58.4272778" lon="7.1647055" version="1" timestamp="2018-05-08T05:16:30Z" changeset="58776660" uid="3842253" user="NKA_import">
		<tag k="alt_name" v="Heddan" />
		<tag k="name" v="Helland" />
		<tag k="place" v="farm" />
		<tag k="ssr:stedsnr" v="606675" />
		<tag k="ssr:type" v="gard" />
	</node>
	<node id="5603522452" lat="58.3461722" lon="7.2680917" version="1" timestamp="2018-05-08T05:16:30Z" changeset="58776660" uid="3842253" user="NKA_import">
		<tag k="name" v="Mydland" />
		<tag k="place" v="farm" />
		<tag k="ssr:stedsnr" v="425699" />
		<tag k="ssr:type" v="gard" />
	</node>
	<node id="5603522453" lat="58.4161282" lon="7.2632896" version="1" timestamp="2018-05-08T05:16:30Z" changeset="58776660" uid="3842253" user="NKA_import">
		<tag k="alt_name" v="Steinsland, øvre" />
		<tag k="name" v="Øvre Steinsland" />
		<tag k="place" v="farm" />
		<tag k="ssr:stedsnr" v="303665" />
		<tag k="ssr:type" v="gard" />
	</node>
	<node id="5603522454" lat="58.5494583" lon="7.2082805" version="1" timestamp="2018-05-08T05:16:30Z" changeset="58776660" uid="3842253" user="NKA_import">
		<tag k="name" v="Trollsel" />
		<tag k="place" v="locality" />
		<tag k="ssr:stedsnr" v="97384" />
		<tag k="ssr:type" v="byggForJordbrukFiskeOgFangst" />
	</node>
	<node id="5603522455" lat="58.3303" lon="7.2047139" version="1" timestamp="2018-05-08T05:16:30Z" changeset="58776660" uid="3842253" user="NKA_import">
		<tag k="name" v="Høyland" />
		<tag k="place" v="farm" />
		<tag k="ssr:stedsnr" v="425713" />
		<tag k="ssr:type" v="gard" />
	</node>
	<node id="5603522456" lat="58.3980185" lon="7.1193091" version="2" timestamp="2021-03-22T17:34:23Z" changeset="101520771" uid="3497659" user="NKA">
		<tag k="alt_name" v="Homman" />
		<tag k="name" v="Marten" />
		<tag k="place" v="isolated_dwelling" />
		<tag k="ssr:stedsnr" v="619" />
		<tag k="ssr:type" v="fritidsbolig" />
	</node>
	<node id="5603522457" lat="58.5037889" lon="7.1651333" version="1" timestamp="2018-05-08T05:16:31Z" changeset="58776660" uid="3842253" user="NKA_import">
		<tag k="name" v="Stiland" />
		<tag k="place" v="farm" />
		<tag k="ssr:stedsnr" v="461329" />
		<tag k="ssr:type" v="bruk" />
	</node>
	<node id="5603522458" lat="58.4021056" lon="7.2548222" version="1" timestamp="2018-05-08T05:16:31Z" changeset="58776660" uid="3842253" user="NKA_import">
		<tag k="alt_name" v="Håmokland" />
		<tag k="name" v="Hommekland" />
		<tag k="place" v="farm" />
		<tag k="ssr:stedsnr" v="182628" />
		<tag k="ssr:type" v="gard" />
	</node>
	<node id="5603522459" lat="58.3822528" lon="7.2099417" version="1" timestamp="2018-05-08T05:16:31Z" changeset="58776660" uid="3842253" user="NKA_import">
		<tag k="name" v="Eikeland" />
		<tag k="place" v="farm" />
		<tag k="ssr:stedsnr" v="748" />
		<tag k="ssr:type" v="bruk" />
	</node>
	<node id="5603522460" lat="58.4172917" lon="7.2789444" version="1" timestamp="2018-05-08T05:16:31Z" changeset="58776660" uid="3842253" user="NKA_import">
		<tag k="name" v="Gletne" />
		<tag k="place" v="farm" />
		<tag k="ssr:stedsnr" v="182643" />
		<tag k="ssr:type" v="bruk" />
	</node>
	<node id="5603522461" lat="58.3297" lon="7.2152639" version="1" timestamp="2018-05-08T05:16:31Z" changeset="58776660" uid="3842253" user="NKA_import">
		<tag k="name" v="Nedre Snartemo" />
		<tag k="place" v="farm" />
		<tag k="ssr:stedsnr" v="401007" />
		<tag k="ssr:type" v="gard" />
	</node>
	<node id="5603522462" lat="58.4326111" lon="7.1954861" version="1" timestamp="2018-05-08T05:16:31Z" changeset="58776660" uid="3842253" user="NKA_import">
		<tag k="alt_name" v="Solheim" />
		<tag k="name" v="Urevatn" />
		<tag k="place" v="farm" />
		<tag k="ssr:stedsnr" v="182679" />
		<tag k="ssr:type" v="gard" />
	</node>
	<node id="5603522463" lat="58.4810444" lon="7.1218833" version="1" timestamp="2018-05-08T05:16:31Z" changeset="58776660" uid="3842253" user="NKA_import">
		<tag k="name" v="Krokspor" />
		<tag k="place" v="locality" />
		<tag k="ssr:stedsnr" v="642165" />
		<tag k="ssr:type" v="byggForJordbrukFiskeOgFangst" />
	</node>
	<node id="5603522464" lat="58.5002722" lon="7.2282639" version="1" timestamp="2018-05-08T05:16:31Z" changeset="58776660" uid="3842253" user="NKA_import">
		<tag k="historic" v="shieling" />
		<tag k="name" v="Fiskelandsstølen" />
		<tag k="place" v="locality" />
		<tag k="ssr:stedsnr" v="461001" />
		<tag k="ssr:type" v="gammelBosettingsplass" />
	</node>
	<node id="5603522465" lat="58.4509536" lon="7.2425761" version="1" timestamp="2018-05-08T05:16:31Z" changeset="58776660" uid="3842253" user="NKA_import">
		<tag k="name" v="Skogtun" />
		<tag k="place" v="isolated_dwelling" />
		<tag k="ssr:stedsnr" v="339180" />
		<tag k="ssr:type" v="eneboligMindreBoligbygg" />
	</node>
	<node id="5603522466" lat="58.3472778" lon="7.2124083" version="1" timestamp="2018-05-08T05:16:31Z" changeset="58776660" uid="3842253" user="NKA_import">
		<tag k="alt_name" v="Moen" />
		<tag k="name" v="Monen" />
		<tag k="place" v="farm" />
		<tag k="ssr:stedsnr" v="461058" />
		<tag k="ssr:type" v="gard" />
	</node>
	<node id="5603522467" lat="58.3409833" lon="7.2454583" version="1" timestamp="2018-05-08T05:16:31Z" changeset="58776660" uid="3842253" user="NKA_import">
		<tag k="name" v="Stumpeløå" />
		<tag k="place" v="locality" />
		<tag k="ssr:stedsnr" v="522770" />
		<tag k="ssr:type" v="byggForJordbrukFiskeOgFangst" />
	</node>
	<node id="5603522468" lat="58.3755111" lon="7.2060694" version="1" timestamp="2018-05-08T05:16:32Z" changeset="58776660" uid="3842253" user="NKA_import">
		<tag k="name" v="Kjennskaret" />
		<tag k="place" v="locality" />
		<tag k="ssr:stedsnr" v="704975" />
		<tag k="ssr:type" v="gammelBosettingsplass" />
	</node>
	<node id="5603522469" lat="58.5353361" lon="7.206375" version="1" timestamp="2018-05-08T05:16:32Z" changeset="58776660" uid="3842253" user="NKA_import">
		<tag k="historic" v="shieling" />
		<tag k="name" v="Sandvatnstøl" />
		<tag k="place" v="locality" />
		<tag k="ssr:stedsnr" v="947375" />
		<tag k="ssr:type" v="byggForJordbrukFiskeOgFangst" />
	</node>
	<node id="5603522470" lat="58.5411528" lon="7.2752556" version="1" timestamp="2018-05-08T05:16:32Z" changeset="58776660" uid="3842253" user="NKA_import">
		<tag k="name" v="Voddeløa" />
		<tag k="place" v="locality" />
		<tag k="ssr:stedsnr" v="522834" />
		<tag k="ssr:type" v="byggForJordbrukFiskeOgFangst" />
	</node>
	<node id="5603522471" lat="58.5397889" lon="7.1113722" version="1" timestamp="2018-05-08T05:16:32Z" changeset="58776660" uid="3842253" user="NKA_import">
		<tag k="name" v="Under fjellet" />
		<tag k="place" v="farm" />
		<tag k="ssr:stedsnr" v="947383" />
		<tag k="ssr:type" v="bruk" />
	</node>
	<node id="5603522472" lat="58.5256028" lon="7.2013861" version="1" timestamp="2018-05-08T05:16:32Z" changeset="58776660" uid="3842253" user="NKA_import">
		<tag k="name" v="Bulega" />
		<tag k="place" v="locality" />
		<tag k="ssr:stedsnr" v="339421" />
		<tag k="ssr:type" v="byggForJordbrukFiskeOgFangst" />
	</node>
	<node id="5603522473" lat="58.533628" lon="7.2767445" version="1" timestamp="2018-05-08T05:16:32Z" changeset="58776660" uid="3842253" user="NKA_import">
		<tag k="historic" v="shieling" />
		<tag k="name" v="Sjekholtstølen" />
		<tag k="place" v="locality" />
		<tag k="ssr:stedsnr" v="825831" />
		<tag k="ssr:type" v="byggForJordbrukFiskeOgFangst" />
	</node>
	<node id="5603522474" lat="58.3372444" lon="7.2010333" version="1" timestamp="2018-05-08T05:16:32Z" changeset="58776660" uid="3842253" user="NKA_import">
		<tag k="name" v="Skaret" />
		<tag k="place" v="farm" />
		<tag k="ssr:stedsnr" v="643006" />
		<tag k="ssr:type" v="bruk" />
	</node>
	<node id="5603522475" lat="58.4584556" lon="7.2348833" version="1" timestamp="2018-05-08T05:16:32Z" changeset="58776660" uid="3842253" user="NKA_import">
		<tag k="name" v="Slurpestøl" />
		<tag k="place" v="farm" />
		<tag k="ssr:stedsnr" v="36170" />
		<tag k="ssr:type" v="bruk" />
	</node>
	<node id="5603522476" lat="58.513592" lon="7.2782619" version="1" timestamp="2018-05-08T05:16:32Z" changeset="58776660" uid="3842253" user="NKA_import">
		<tag k="name" v="Austarvodden" />
		<tag k="place" v="locality" />
		<tag k="ssr:stedsnr" v="825867" />
		<tag k="ssr:type" v="byggForJordbrukFiskeOgFangst" />
	</node>
	<node id="5603522477" lat="58.5089167" lon="7.2585" version="1" timestamp="2018-05-08T05:16:32Z" changeset="58776660" uid="3842253" user="NKA_import">
		<tag k="alt_name" v="Nerløa" />
		<tag k="name" v="Indra Nerløa" />
		<tag k="place" v="locality" />
		<tag k="ssr:stedsnr" v="728057" />
		<tag k="ssr:type" v="byggForJordbrukFiskeOgFangst" />
	</node>
	<node id="5603522478" lat="58.5106472" lon="7.2583056" version="1" timestamp="2018-05-08T05:16:32Z" changeset="58776660" uid="3842253" user="NKA_import">
		<tag k="historic" v="shieling" />
		<tag k="name" v="Listøl" />
		<tag k="place" v="locality" />
		<tag k="ssr:stedsnr" v="728059" />
		<tag k="ssr:type" v="byggForJordbrukFiskeOgFangst" />
	</node>
	<node id="5603522479" lat="58.5423193" lon="7.1658903" version="1" timestamp="2018-05-08T05:16:33Z" changeset="58776660" uid="3842253" user="NKA_import">
		<tag k="alt_name" v="Midli" />
		<tag k="historic" v="shieling" />
		<tag k="name" v="Middlistøl" />
		<tag k="place" v="locality" />
		<tag k="ssr:stedsnr" v="728091" />
		<tag k="ssr:type" v="byggForJordbrukFiskeOgFangst" />
	</node>
	<node id="5603522480" lat="58.5385441" lon="7.2769194" version="2" timestamp="2021-03-22T17:34:23Z" changeset="101520771" uid="3497659" user="NKA">
		<tag k="name" v="Kvevan" />
		<tag k="place" v="isolated_dwelling" />
		<tag k="ssr:stedsnr" v="728095" />
		<tag k="ssr:type" v="fritidsbolig" />
	</node>
	<node id="5603522481" lat="58.4927694" lon="7.1778528" version="1" timestamp="2018-05-08T05:16:33Z" changeset="58776660" uid="3842253" user="NKA_import">
		<tag k="alt_name" v="Haugå" />
		<tag k="name" v="Hauge" />
		<tag k="place" v="farm" />
		<tag k="ssr:stedsnr" v="728282" />
		<tag k="ssr:type" v="gard" />
	</node>
	<node id="5603522482" lat="58.5151" lon="7.118525" version="1" timestamp="2018-05-08T05:16:33Z" changeset="58776660" uid="3842253" user="NKA_import">
		<tag k="name" v="Lunden" />
		<tag k="place" v="farm" />
		<tag k="ssr:stedsnr" v="401480" />
		<tag k="ssr:type" v="bruk" />
	</node>
	<node id="5603522483" lat="58.4436306" lon="7.2165583" version="1" timestamp="2018-05-08T05:16:33Z" changeset="58776660" uid="3842253" user="NKA_import">
		<tag k="name" v="Vik" />
		<tag k="place" v="farm" />
		<tag k="ssr:stedsnr" v="728326" />
		<tag k="ssr:type" v="bruk" />
	</node>
	<node id="5603522484" lat="58.333" lon="7.2177944" version="1" timestamp="2018-05-08T05:16:33Z" changeset="58776660" uid="3842253" user="NKA_import">
		<tag k="name" v="Øvre Snartemo" />
		<tag k="place" v="farm" />
		<tag k="ssr:stedsnr" v="543017" />
		<tag k="ssr:type" v="gard" />
	</node>
	<node id="5043654498" lat="58.3824555" lon="7.217102" version="1" timestamp="2017-08-18T20:38:55Z" changeset="51243172" uid="3842253" user="NKA_import" />
	<node id="5043654499" lat="58.3826986" lon="7.2181128" version="1" timestamp="2017-08-18T20:38:55Z" changeset="51243172" uid="3842253" user="NKA_import" />
	<node id="5043654500" lat="58.3835026" lon="7.2174093" version="1" timestamp="2017-08-18T20:38:55Z" changeset="51243172" uid="3842253" user="NKA_import" />
	<node id="5043654501" lat="58.3832595" lon="7.2163985" version="1" timestamp="2017-08-18T20:38:55Z" changeset="51243172" uid="3842253" user="NKA_import" />
	<way id="516699390" version="4" timestamp="2020-11-08T21:22:21Z" changeset="93757457" uid="7589857" user="Marius Geitle_import">
		<tag k="leisure" v="pitch" />
		<tag k="name" v="Kollemo idrettsplass" />
		<tag k="sport" v="soccer" />
		<tag k="ssr:stedsnr" v="877395" />
		<tag k="ssr:type" v="idrettsanlegg" />
		<tag k="surface" v="grass" />
		<nd ref="5043654501" />
		<nd ref="5043654500" />
		<nd ref="5043654499" />
		<nd ref="5043654498" />
		<nd ref="5043654501" />
	</way>
</osm>
