<?xml version="1.0" encoding="UTF-8"?>
<osm generator="osmapis" version="0.6">
	<node id="-876288" lat="63.1297666694" lon="10.0705499913">
		<tag k="highway" v="path" />
		<tag k="name" v="Karlsmovegen" />
		<tag k="ssr:stedsnr" v="400329" />
	</node>
	<node id="-876540" lat="63.3048138888" lon="10.3339111201">
		<tag k="name" v="Kvammen" />
		<tag k="railway" v="halt" />
		<tag k="ssr:stedsnr" v="195856" />
		<tag k="train" v="yes" />
	</node>
	<node id="-879095" lat="63.3025666628" lon="10.2866000025">
		<tag k="bridge" v="yes" />
		<tag k="layer" v="1" />
		<tag k="name" v="Ratbekkulverten" />
		<tag k="ssr:stedsnr" v="485881" />
	</node>
	<node id="-878099" lat="63.1530222201" lon="10.2837333239">
		<tag k="bridge" v="yes" />
		<tag k="layer" v="1" />
		<tag k="name" v="Gamle Lundabrua" />
		<tag k="old_name" v="Lundabrua" />
		<tag k="ssr:stedsnr" v="765782" />
	</node>
	<node id="-877808" lat="63.1426666633" lon="10.0070333429">
		<tag k="highway" v="path" />
		<tag k="name" v="Holtvegen" />
		<tag k="ssr:stedsnr" v="97295" />
	</node>
	<node id="-878598" lat="63.1517861112" lon="10.029641671">
		<tag k="highway" v="path" />
		<tag k="name" v="Hogstervegen" />
		<tag k="ssr:stedsnr" v="886729" />
	</node>
	<node id="-878186" lat="63.1424055545" lon="10.2050416678">
		<tag k="name" v="Slergrinda" />
		<tag k="place" v="locality" />
		<tag k="ssr:stedsnr" v="643508" />
	</node>
	<node id="-878312" lat="63.1974041283" lon="10.2977895308">
		<tag k="alt_name" v="Ler" />
		<tag k="name" v="Ler stasjon" />
		<tag k="railway" v="station" />
		<tag k="ssr:stedsnr" v="133770" />
		<tag k="train" v="yes" />
	</node>
	<node id="-879077" lat="63.2184694417" lon="10.3812277731">
		<tag k="highway" v="path" />
		<tag k="name" v="Langmyrbakkvegen" />
		<tag k="ssr:stedsnr" v="947759" />
	</node>
	<node id="-878306" lat="63.2992833316" lon="10.317833329">
		<tag k="name" v="Leirli" />
		<tag k="railway" v="halt" />
		<tag k="ssr:stedsnr" v="377800" />
		<tag k="train" v="yes" />
	</node>
	<node id="-877413" lat="63.1503194423" lon="10.1125194476">
		<tag k="highway" v="path" />
		<tag k="name" v="Hallguttu" />
		<tag k="ssr:stedsnr" v="886480" />
	</node>
	<node id="-877404" lat="63.1165611122" lon="10.0575083269">
		<tag k="fixme" v="consider highway=path" />
		<tag k="highway" v="track" />
		<tag k="name" v="Gammelvegen" />
		<tag k="ssr:stedsnr" v="643331" />
	</node>
	<node id="-875866" lat="63.32376667" lon="10.2161583363">
		<tag k="barrier" v="toll_booth" />
		<tag k="name" v="Øysand" />
		<tag k="ssr:stedsnr" v="837283" />
	</node>
	<node id="-879065" lat="63.1309527808" lon="9.97958610915">
		<tag k="highway" v="path" />
		<tag k="name" v="Brattstigen" />
		<tag k="ssr:stedsnr" v="643718" />
	</node>
	<node id="-877528" lat="63.1402166643" lon="10.0782861182">
		<tag k="fixme" v="consider highway=path" />
		<tag k="highway" v="track" />
		<tag k="name" v="Klettvegen" />
		<tag k="ssr:stedsnr" v="947405" />
	</node>
	<node id="-878393" lat="63.1246499971" lon="10.1290722132">
		<tag k="highway" v="path" />
		<tag k="name" v="Kjølvegen" />
		<tag k="ssr:stedsnr" v="280587" />
	</node>
	<node id="-877393" lat="63.281400002" lon="10.3239333426">
		<tag k="highway" v="path" />
		<tag k="name" v="Bjørnholet" />
		<tag k="ssr:stedsnr" v="37184" />
	</node>
	<node id="-875856" lat="63.3221861087" lon="10.2651388925">
		<tag k="bridge" v="yes" />
		<tag k="layer" v="1" />
		<tag k="name" v="Reitbakkbrua" />
		<tag k="ssr:stedsnr" v="141169" />
	</node>
	<node id="-877645" lat="63.2895222243" lon="10.2727749917">
		<tag k="alt_name" v="Melhus" />
		<tag k="name" v="Melhus stasjon" />
		<tag k="railway" v="station" />
		<tag k="ssr:stedsnr" v="559800" />
		<tag k="train" v="yes" />
	</node>
	<node id="-878284" lat="63.3242027822" lon="10.2158972243">
		<tag k="junction" v="yes" />
		<tag k="name" v="Øysandkrysset" />
		<tag k="place" v="locality" />
		<tag k="ssr:stedsnr" v="753460" />
	</node>
	<node id="-879185" lat="63.2902472231" lon="10.3316250007">
		<tag k="fixme" v="consider highway=path" />
		<tag k="highway" v="track" />
		<tag k="name" v="Sagklevan" />
		<tag k="ssr:stedsnr" v="219159" />
	</node>
	<node id="-877514" lat="63.1427611122" lon="10.2021222203">
		<tag k="highway" v="path" />
		<tag k="name" v="Grøtåsvegen" />
		<tag k="ssr:stedsnr" v="886503" />
	</node>
	<node id="-876727" lat="63.2978694456" lon="10.3534916577">
		<tag k="highway" v="path" />
		<tag k="name" v="Akselvegen" />
		<tag k="ssr:stedsnr" v="37887" />
	</node>
	<node id="-876614" lat="63.1431499989" lon="10.1884888892">
		<tag k="highway" v="path" />
		<tag k="name" v="Kleva" />
		<tag k="ssr:stedsnr" v="36996" />
	</node>
	<node id="-877123" lat="63.1238249965" lon="10.0489583274">
		<tag k="highway" v="path" />
		<tag k="name" v="Langåsvegen" />
		<tag k="ssr:stedsnr" v="36314" />
	</node>
	<node id="-879167" lat="63.14508333" lon="10.1943250029">
		<tag k="highway" v="path" />
		<tag k="name" v="Bruakleva" />
		<tag k="ssr:stedsnr" v="582986" />
	</node>
	<node id="-878737" lat="63.0839888908" lon="10.2023805525">
		<tag k="highway" v="path" />
		<tag k="name" v="Stigen" />
		<tag k="ssr:stedsnr" v="887614" />
	</node>
	<node id="-878651" lat="63.0886333368" lon="10.2500222145">
		<tag k="bridge" v="yes" />
		<tag k="layer" v="1" />
		<tag k="name" v="Klinkbrua" />
		<tag k="ssr:stedsnr" v="582880" />
	</node>
	<node id="-876089" lat="63.0966611115" lon="10.2890583301">
		<tag k="highway" v="path" />
		<tag k="name" v="Korsvegen" />
		<tag k="ssr:stedsnr" v="826901" />
	</node>
	<node id="-876088" lat="63.0997833378" lon="9.99335278286">
		<tag k="fixme" v="consider highway=path" />
		<tag k="highway" v="track" />
		<tag k="name" v="Støtan" />
		<tag k="ssr:stedsnr" v="522351" />
	</node>
	<node id="-879031" lat="63.1293583342" lon="10.2352361046">
		<tag k="fixme" v="consider highway=path" />
		<tag k="highway" v="track" />
		<tag k="name" v="Hallguttu" />
		<tag k="ssr:stedsnr" v="401782" />
	</node>
	<node id="-877622" lat="63.106658335" lon="10.0481888916">
		<tag k="fixme" v="consider highway=path" />
		<tag k="highway" v="track" />
		<tag k="name" v="Vollavegen" />
		<tag k="ssr:stedsnr" v="158293" />
	</node>
	<node id="-878261" lat="63.1011944412" lon="10.1528194421">
		<tag k="highway" v="path" />
		<tag k="name" v="Gammelvegen" />
		<tag k="ssr:stedsnr" v="401616" />
	</node>
	<node id="-876722" lat="63.1360055513" lon="10.1778944525">
		<tag k="highway" v="path" />
		<tag k="name" v="Våttålivegen" />
		<tag k="ssr:stedsnr" v="947993" />
	</node>
	<node id="-878384" lat="63.0837972182" lon="10.2526138945">
		<tag k="bridge" v="yes" />
		<tag k="layer" v="1" />
		<tag k="name" v="Gylløybrua" />
		<tag k="ssr:stedsnr" v="765866" />
	</node>
	<node id="-879021" lat="63.2623513161" lon="10.2890385542">
		<tag k="alt_name" v="Søberg" />
		<tag k="name" v="Søberg stasjon" />
		<tag k="railway" v="halt" />
		<tag k="ssr:stedsnr" v="74184" />
		<tag k="train" v="yes" />
	</node>
	<node id="-879026" lat="63.3164611144" lon="10.3373250048">
		<tag k="alt_name" v="Nypan" />
		<tag k="name" v="Nypan stasjon" />
		<tag k="railway" v="station" />
		<tag k="ssr:stedsnr" v="13867" />
		<tag k="train" v="yes" />
	</node>
	<node id="-877575" lat="63.1700222203" lon="10.026805548">
		<tag k="fixme" v="consider highway=path" />
		<tag k="highway" v="track" />
		<tag k="name" v="Sagmesterlykkjbakken" />
		<tag k="ssr:stedsnr" v="826403" />
	</node>
	<node id="-879271" lat="63.2335472195" lon="10.2797888842">
		<tag k="name" v="Kvål stasjon" />
		<tag k="railway" v="station" />
		<tag k="ssr:stedsnr" v="788317" />
		<tag k="train" v="yes" />
	</node>
	<node id="-878118" lat="63.2848861124" lon="10.2773194458">
		<tag k="name" v="Melhus Skysstasjon" />
		<tag k="railway" v="station" />
		<tag k="ssr:stedsnr" v="237681" />
		<tag k="train" v="yes" />
	</node>
	<node id="-878628" lat="63.1520388891" lon="10.2800249925">
		<tag k="alt_name" v="Lundamo" />
		<tag k="name" v="Lundamo stasjon" />
		<tag k="railway" v="station" />
		<tag k="ssr:stedsnr" v="557834" />
		<tag k="train" v="yes" />
	</node>
	<node id="-876294" lat="63.1851527737" lon="10.1592750032">
		<tag k="highway" v="path" />
		<tag k="name" v="Gamlevegen" />
		<tag k="ssr:stedsnr" v="280047" />
	</node>
	<node id="-878496" lat="63.1307249957" lon="10.312536116">
		<tag k="highway" v="path" />
		<tag k="name" v="Nonsåsstien" />
		<tag k="ssr:stedsnr" v="582835" />
	</node>
	<node id="-876319" lat="63.1054805588" lon="10.2237638839">
		<tag k="junction" v="yes" />
		<tag k="name" v="Hovinkrysset" />
		<tag k="place" v="locality" />
		<tag k="ssr:stedsnr" v="583142" />
	</node>
	<node id="-878554" lat="63.18799167" lon="10.1957694517">
		<tag k="highway" v="path" />
		<tag k="name" v="Kambvegen" />
		<tag k="ssr:stedsnr" v="219038" />
	</node>
	<node id="-875930" lat="63.1678555578" lon="10.1290222282">
		<tag k="highway" v="path" />
		<tag k="name" v="Livegen" />
		<tag k="ssr:stedsnr" v="764478" />
	</node>
	<node id="-876567" lat="63.13822778" lon="10.1795166603">
		<tag k="fixme" v="consider highway=path" />
		<tag k="highway" v="track" />
		<tag k="name" v="Grøtvikvegen" />
		<tag k="ssr:stedsnr" v="280103" />
	</node>
	<node id="-878358" lat="63.0988833359" lon="10.2302527772">
		<tag k="name" v="Hovin stasjon" />
		<tag k="railway" v="station" />
		<tag k="ssr:stedsnr" v="765860" />
		<tag k="train" v="yes" />
	</node>
	<node id="-878739" lat="63.130791671" lon="10.0205083329">
		<tag k="highway" v="path" />
		<tag k="name" v="Holtvegen" />
		<tag k="ssr:stedsnr" v="704301" />
	</node>
	<node id="-875921" lat="63.2334944455" lon="10.2797472188">
		<tag k="alt_name" v="Kvål stasjon" />
		<tag k="name" v="Kvål" />
		<tag k="railway" v="halt" />
		<tag k="ssr:stedsnr" v="498777" />
		<tag k="train" v="yes" />
	</node>
	<node id="-876594" lat="63.282208329" lon="10.3121833413">
		<tag k="fixme" v="consider highway=path" />
		<tag k="highway" v="track" />
		<tag k="name" v="Stenvegen" />
		<tag k="ssr:stedsnr" v="826183" />
	</node>
	<node id="-879117" lat="63.1635916662" lon="10.0201722198">
		<tag k="fixme" v="consider highway=path" />
		<tag k="highway" v="track" />
		<tag k="name" v="Råket" />
		<tag k="ssr:stedsnr" v="280741" />
	</node>
	<node id="-877065" lat="63.1337722193" lon="10.1202611201">
		<tag k="highway" v="path" />
		<tag k="name" v="Brattstigen" />
		<tag k="ssr:stedsnr" v="522547" />
	</node>
	<node id="-879111" lat="63.1620722193" lon="10.015902768">
		<tag k="fixme" v="consider highway=path" />
		<tag k="highway" v="track" />
		<tag k="name" v="Brautan" />
		<tag k="ssr:stedsnr" v="280739" />
	</node>
	<node id="-879110" lat="63.1621999959" lon="10.1816305651">
		<tag k="highway" v="path" />
		<tag k="name" v="Gammelvegen" />
		<tag k="ssr:stedsnr" v="582972" />
	</node>
	<node id="-876881" lat="63.3225777768" lon="10.2086138833">
		<tag k="barrier" v="toll_booth" />
		<tag k="name" v="Øysand" />
		<tag k="ssr:stedsnr" v="958583" />
	</node>
	<node id="-875691" lat="63.3078111141" lon="10.3721138833">
		<tag k="highway" v="path" />
		<tag k="name" v="Storkleva" />
		<tag k="ssr:stedsnr" v="887771" />
	</node>
</osm>
