<?xml version="1.0" encoding="UTF-8"?>
<osm version="0.6" generator="osmapis">
	<node lat="63.113000001379696" lon="10.392786112110853" id="-80663">
		<tag k="name" v="Horg østre bygdealmenning" />
		<tag k="place" v="locality" />
		<tag k="ssr:stedsnr" v="36110" />
	</node>
	<node lat="63.11581666692051" lon="10.429863885776646" id="-80664">
		<tag k="name" v="Horg østre bygdealmenning" />
		<tag k="place" v="locality" />
		<tag k="ssr:stedsnr" v="36113" />
	</node>
	<node lat="63.11010000324161" lon="10.465716658450855" id="-80812">
		<tag k="name" v="Horg østre bygdealmenning" />
		<tag k="place" v="locality" />
		<tag k="ssr:stedsnr" v="98817" />
	</node>
	<node lat="63.146358329321174" lon="10.473033341047621" id="-81360">
		<tag k="name" v="Horg østre bygdealmenning" />
		<tag k="place" v="locality" />
		<tag k="ssr:stedsnr" v="401813" />
	</node>
	<node lat="63.103094440229164" lon="10.472394448868632" id="-81366">
		<tag k="name" v="Horg østre bygdealmenning" />
		<tag k="place" v="locality" />
		<tag k="ssr:stedsnr" v="401795" />
	</node>
	<node lat="63.16384722417753" lon="10.446388897460006" id="-81914">
		<tag k="name" v="Horg østre bygdealmenning" />
		<tag k="place" v="locality" />
		<tag k="ssr:stedsnr" v="704215" />
	</node>
	<node lat="63.113744447752445" lon="10.448269453343986" id="-82371">
		<tag k="name" v="Horg østre bygdealmenning" />
		<tag k="place" v="locality" />
		<tag k="ssr:stedsnr" v="947133" />
	</node>
	<node lat="63.12348333166692" lon="10.395263879883672" id="-82639">
		<tag k="name" v="Horg østre bygdealmenning" />
		<tag k="place" v="locality" />
		<tag k="ssr:stedsnr" v="97127" />
	</node>
	<node lat="63.117997225743814" lon="10.392708338569848" id="-82640">
		<tag k="name" v="Horg østre bygdealmenning" />
		<tag k="place" v="locality" />
		<tag k="ssr:stedsnr" v="97128" />
	</node>
	<node lat="63.12276388752931" lon="10.42285832866563" id="-82641">
		<tag k="name" v="Horg østre bygdealmenning" />
		<tag k="place" v="locality" />
		<tag k="ssr:stedsnr" v="97131" />
	</node>
	<node lat="63.155847226044166" lon="10.472077771478483" id="-82830">
		<tag k="name" v="Horg østre bygdealmenning" />
		<tag k="place" v="locality" />
		<tag k="ssr:stedsnr" v="158839" />
	</node>
	<node lat="63.108594441638544" lon="10.388577784456547" id="-82948">
		<tag k="name" v="Horg østre bygdealmenning" />
		<tag k="place" v="locality" />
		<tag k="ssr:stedsnr" v="219139" />
	</node>
	<node lat="63.1508861140654" lon="10.429750000363496" id="-83027">
		<tag k="name" v="Horg østre bygdealmenning" />
		<tag k="place" v="locality" />
		<tag k="ssr:stedsnr" v="279239" />
	</node>
	<node lat="63.09240278051368" lon="10.444808328431355" id="-83357">
		<tag k="name" v="Horg østre bygdealmenning" />
		<tag k="place" v="locality" />
		<tag k="ssr:stedsnr" v="400118" />
	</node>
	<node lat="63.14314444108293" lon="10.421180545506177" id="-83358">
		<tag k="name" v="Horg østre bygdealmenning" />
		<tag k="place" v="locality" />
		<tag k="ssr:stedsnr" v="400197" />
	</node>
	<node lat="63.10289166535399" lon="10.386719448173773" id="-83554">
		<tag k="name" v="Horg østre bygdealmenning" />
		<tag k="place" v="locality" />
		<tag k="ssr:stedsnr" v="522137" />
	</node>
	<node lat="63.12029166837444" lon="10.446386118487748" id="-83694">
		<tag k="name" v="Horg østre bygdealmenning" />
		<tag k="place" v="locality" />
		<tag k="ssr:stedsnr" v="582136" />
	</node>
	<node lat="63.113097224155545" lon="10.412377778309853" id="-83698">
		<tag k="name" v="Horg østre bygdealmenning" />
		<tag k="place" v="locality" />
		<tag k="ssr:stedsnr" v="582139" />
	</node>
	<node lat="63.123313884581044" lon="10.475072229756952" id="-84242">
		<tag k="name" v="Horg østre bygdealmenning" />
		<tag k="place" v="locality" />
		<tag k="ssr:stedsnr" v="826812" />
	</node>
	<node lat="63.129347226780155" lon="10.39727777381627" id="-84424">
		<tag k="name" v="Horg østre bygdealmenning" />
		<tag k="place" v="locality" />
		<tag k="ssr:stedsnr" v="947225" />
	</node>
	<node lat="63.09322222513722" lon="10.479822215830218" id="-84474">
		<tag k="name" v="Horg østre bygdealmenning" />
		<tag k="place" v="locality" />
		<tag k="ssr:stedsnr" v="947821" />
	</node>
	<node lat="63.086542397160706" lon="10.337352109081309" id="-84526">
		<tag k="fixme" v="consider boundary=protected_area and relevant protect_class if not nature reserve" />
		<tag k="leisure" v="nature_reserve" />
		<tag k="name" v="Svarttjønnåsen og Gullaugtjønnberga naturreservat" />
		<tag k="old_name" v="Svarttjønnåsen naturreservat" />
		<tag k="ssr:stedsnr" v="989162" />
	</node>
</osm>
