<?xml version="1.0" encoding="UTF-8"?>
<<<<<<< HEAD
<osm version="0.6" generator="osmapis">
	<node lat="63.3396249964371" lon="10.225805557865803" id="-29862">
=======
<osm generator="osmapis" version="0.6">
	<node id="-750214" lat="63.1451472226" lon="10.1037222148">
		<tag k="name" v="Gresjmoodden" />
		<tag k="natural" v="cape" />
		<tag k="ssr:stedsnr" v="219567" />
	</node>
	<node id="-751309" lat="63.3396249964" lon="10.2258055579">
>>>>>>> e1d4bc35ff8a6074a6f2e91616a996b547c36f15
		<tag k="name" v="Øyamelen" />
		<tag k="natural" v="cape" />
		<tag k="ssr:stedsnr" v="680971" />
	</node>
<<<<<<< HEAD
	<node lat="63.33258059380711" lon="10.187988427164669" id="-30173">
=======
	<node id="-753371" lat="63.3312472185" lon="10.2155638897">
		<tag k="name" v="Øysand" />
		<tag k="natural" v="beach" />
		<tag k="place" v="locality" />
		<tag k="ssr:stedsnr" v="741339" />
	</node>
	<node id="-753803" lat="63.3325805938" lon="10.1879884272">
>>>>>>> e1d4bc35ff8a6074a6f2e91616a996b547c36f15
		<tag k="bay" v="fjord" />
		<tag k="name" v="Gaulosen" />
		<tag k="natural" v="bay" />
		<tag k="ssr:stedsnr" v="863510" />
	</node>
<<<<<<< HEAD
=======
	<node id="-750945" lat="63.3355777817" lon="10.2557749983">
		<tag k="name" v="Kuøra" />
		<tag k="natural" v="cape" />
		<tag k="ssr:stedsnr" v="498926" />
	</node>
>>>>>>> e1d4bc35ff8a6074a6f2e91616a996b547c36f15
</osm>
