<?xml version="1.0" encoding="UTF-8"?>
<<<<<<< HEAD
<osm version="0.6" generator="osmapis">
	<node lat="63.10110555199437" lon="9.976205554622588" id="-28680">
		<tag k="name" v="Skogstadvatnet" />
		<tag k="natural" v="water" />
		<tag k="ssr:stedsnr" v="12013" />
	</node>
	<node lat="63.19263611068883" lon="10.57903611538669" id="-28688">
		<tag k="name" v="Kløftvatnet" />
		<tag k="natural" v="water" />
		<tag k="ssr:stedsnr" v="12802" />
		<tag k="water" v="lake" />
	</node>
	<node lat="63.18912221813551" lon="10.566786115907052" id="-28689">
		<tag k="name" v="Litlgrønlitjønna" />
		<tag k="natural" v="water" />
		<tag k="ssr:stedsnr" v="12803" />
	</node>
	<node lat="63.125316663100214" lon="10.66307778394579" id="-28691">
		<tag k="name" v="Øvre Balltjønna" />
		<tag k="natural" v="water" />
		<tag k="ssr:stedsnr" v="12825" />
	</node>
	<node lat="63.16500555125614" lon="10.404427783995684" id="-28695">
		<tag k="name" v="Svarttjønna" />
		<tag k="natural" v="water" />
		<tag k="ssr:stedsnr" v="12840" />
	</node>
	<node lat="63.20367499808672" lon="10.329049996642675" id="-28697">
		<tag k="name" v="Bortna" />
		<tag k="ssr:stedsnr" v="12706" />
		<tag k="waterway" v="stream" />
	</node>
	<node lat="63.19372500310988" lon="10.391566671689914" id="-28698">
		<tag k="name" v="Hørvåstjønna" />
		<tag k="natural" v="water" />
		<tag k="ssr:stedsnr" v="12781" />
	</node>
	<node lat="63.10343333607824" lon="10.485594438493823" id="-28704">
		<tag k="name" v="Gammelåstjønna" />
		<tag k="natural" v="water" />
		<tag k="ssr:stedsnr" v="12917" />
	</node>
	<node lat="63.17840000290509" lon="10.113038882700248" id="-28705">
		<tag k="name" v="Sætra" />
		<tag k="ssr:stedsnr" v="13182" />
		<tag k="waterway" v="stream" />
	</node>
	<node lat="63.115633332682215" lon="10.460597231459552" id="-28712">
		<tag k="name" v="Stenslibekken" />
		<tag k="ssr:stedsnr" v="36105" />
		<tag k="waterway" v="stream" />
	</node>
	<node lat="63.191788887690215" lon="10.223472214469709" id="-28734">
		<tag k="name" v="Kalvhåggåbekken" />
		<tag k="ssr:stedsnr" v="37005" />
		<tag k="waterway" v="stream" />
	</node>
	<node lat="63.07708055886085" lon="10.120799994484308" id="-28741">
		<tag k="name" v="Svartbekken" />
		<tag k="ssr:stedsnr" v="37658" />
		<tag k="waterway" v="stream" />
	</node>
	<node lat="63.175833336110166" lon="10.446872225679401" id="-28750">
		<tag k="name" v="Bjørdalsbekken" />
		<tag k="ssr:stedsnr" v="37822" />
		<tag k="waterway" v="stream" />
	</node>
	<node lat="63.110527774615086" lon="10.232827774430781" id="-28752">
		<tag k="name" v="Gaulfossen" />
		<tag k="natural" v="waterfall" />
		<tag k="ssr:stedsnr" v="37861" />
	</node>
	<node lat="63.13680000234555" lon="10.101505557119836" id="-28783">
		<tag k="name" v="Gresja" />
		<tag k="ssr:stedsnr" v="73073" />
		<tag k="waterway" v="stream" />
	</node>
	<node lat="63.137527775369016" lon="10.437972221022184" id="-28803">
		<tag k="name" v="Kjæråstjønna" />
		<tag k="natural" v="water" />
		<tag k="ssr:stedsnr" v="97209" />
	</node>
	<node lat="63.12392500273926" lon="9.960500005845587" id="-28805">
		<tag k="name" v="Rangåa" />
		<tag k="ssr:stedsnr" v="97260" />
		<tag k="waterway" v="stream" />
	</node>
	<node lat="63.08309444628241" lon="10.276791674753353" id="-28820">
		<tag k="name" v="Øyadammen" />
		<tag k="natural" v="water" />
		<tag k="ssr:stedsnr" v="97925" />
		<tag k="water" v="pond" />
	</node>
	<node lat="63.228144442403234" lon="10.189708334960374" id="-28824">
		<tag k="name" v="Kloppmyrtjønna" />
		<tag k="natural" v="water" />
		<tag k="ssr:stedsnr" v="98021" />
	</node>
	<node lat="63.18135000192817" lon="10.171563886521875" id="-28827">
		<tag k="name" v="Sandbakklandet" />
		<tag k="natural" v="cape" />
		<tag k="ssr:stedsnr" v="98067" />
	</node>
	<node lat="63.16033611391504" lon="10.185000001020551" id="-28828">
		<tag k="name" v="Sagbekken" />
		<tag k="ssr:stedsnr" v="97960" />
		<tag k="waterway" v="stream" />
	</node>
	<node lat="63.152211107288764" lon="10.171480563116504" id="-28830">
		<tag k="name" v="Storrneset" />
		<tag k="natural" v="cape" />
		<tag k="ssr:stedsnr" v="97967" />
	</node>
	<node lat="63.17254722468951" lon="9.99202223111386" id="-28837">
		<tag k="name" v="Ner Kvernfossen" />
		<tag k="natural" v="waterfall" />
		<tag k="ssr:stedsnr" v="98375" />
	</node>
	<node lat="63.156747225811074" lon="10.326991669114676" id="-28841">
		<tag k="name" v="Lomtjønna" />
		<tag k="natural" v="water" />
		<tag k="ssr:stedsnr" v="98807" />
	</node>
	<node lat="63.215308335840604" lon="10.341722225105833" id="-28851">
		<tag k="name" v="Botnmyrbekken" />
		<tag k="ssr:stedsnr" v="98768" />
		<tag k="waterway" v="stream" />
	</node>
	<node lat="63.21634167011266" lon="10.366780546352091" id="-28852">
		<tag k="name" v="Merkesbekken" />
		<tag k="ssr:stedsnr" v="98776" />
		<tag k="waterway" v="stream" />
	</node>
	<node lat="63.13857499844554" lon="9.979727770789436" id="-28864">
		<tag k="name" v="Motjønna" />
		<tag k="natural" v="water" />
		<tag k="ssr:stedsnr" v="133077" />
	</node>
	<node lat="63.213863892160646" lon="10.473711108848175" id="-28871">
		<tag k="alt_name" v="Rångåvatnet" />
		<tag k="name" v="Rangåvatnet" />
		<tag k="natural" v="water" />
		<tag k="ssr:stedsnr" v="133678" />
		<tag k="water" v="lake" />
	</node>
	<node lat="63.21707777867602" lon="10.227058326069379" id="-28873">
		<tag k="name" v="Skjerva" />
		<tag k="ssr:stedsnr" v="133703" />
		<tag k="waterway" v="stream" />
	</node>
	<node lat="63.16463888709516" lon="10.243525003043366" id="-28874">
		<tag k="name" v="Svartvatnet" />
		<tag k="natural" v="water" />
		<tag k="ssr:stedsnr" v="133754" />
	</node>
	<node lat="63.17517500362542" lon="10.230427770946775" id="-28876">
		<tag k="name" v="Gaddholmen" />
		<tag k="place" v="islet" />
		<tag k="ssr:stedsnr" v="133764" />
	</node>
	<node lat="63.1454611100927" lon="9.92296944326378" id="-28884">
		<tag k="name" v="Skitjønna" />
		<tag k="natural" v="water" />
		<tag k="ssr:stedsnr" v="254073" />
	</node>
	<node lat="63.133575004414695" lon="10.066077771853077" id="-28890">
		<tag k="name" v="Jønnåa" />
		<tag k="ssr:stedsnr" v="255088" />
		<tag k="waterway" v="stream" />
	</node>
	<node lat="63.16401111149788" lon="10.044344440025137" id="-28896">
		<tag k="name" v="Bøvra" />
		<tag k="ssr:stedsnr" v="255149" />
		<tag k="waterway" v="stream" />
	</node>
	<node lat="63.18007500401988" lon="10.410958323635295" id="-28905">
		<tag k="name" v="Skottjønna" />
		<tag k="natural" v="water" />
		<tag k="ssr:stedsnr" v="255782" />
	</node>
	<node lat="63.08934721990295" lon="10.097530562673516" id="-28906">
		<tag k="name" v="Hallguttutjønna" />
		<tag k="natural" v="water" />
		<tag k="ssr:stedsnr" v="255537" />
	</node>
	<node lat="63.18479999875645" lon="10.506074993752065" id="-28907">
		<tag k="name" v="Losabekken" />
		<tag k="ssr:stedsnr" v="255790" />
		<tag k="waterway" v="stream" />
	</node>
	<node lat="63.186274995998524" lon="10.228177770321714" id="-28916">
		<tag k="name" v="Agnesodden" />
		<tag k="natural" v="cape" />
		<tag k="ssr:stedsnr" v="255840" />
	</node>
	<node lat="63.13223055629094" lon="10.532133336105577" id="-28918">
		<tag k="name" v="Sæterbekken" />
		<tag k="ssr:stedsnr" v="255848" />
		<tag k="waterway" v="stream" />
	</node>
	<node lat="63.206883335814965" lon="10.227425007658985" id="-28926">
		<tag k="name" v="Damtjønnbekken" />
		<tag k="ssr:stedsnr" v="158003" />
		<tag k="waterway" v="stream" />
	</node>
	<node lat="63.19193333046569" lon="10.242263885950658" id="-28927">
		<tag k="name" v="Litlbenna" />
		<tag k="natural" v="water" />
		<tag k="ssr:stedsnr" v="158018" />
		<tag k="water" v="lake" />
	</node>
	<node lat="63.20016110748576" lon="10.435175000959548" id="-28943">
		<tag k="name" v="Pætholet" />
		<tag k="natural" v="water" />
		<tag k="ssr:stedsnr" v="158208" />
	</node>
	<node lat="63.066800002354874" lon="10.112566660719489" id="-28971">
		<tag k="name" v="Sandholtbekken" />
		<tag k="ssr:stedsnr" v="158661" />
		<tag k="waterway" v="stream" />
	</node>
	<node lat="63.19669722254965" lon="10.228950008172822" id="-29014">
		<tag k="name" v="Nedre Langmyrtjønna" />
		<tag k="natural" v="water" />
		<tag k="ssr:stedsnr" v="219002" />
	</node>
	<node lat="63.19263611075983" lon="10.242886116003378" id="-29015">
		<tag k="name" v="Litlholmen" />
		<tag k="place" v="islet" />
		<tag k="ssr:stedsnr" v="219008" />
	</node>
	<node lat="63.18269167034744" lon="10.061077785683176" id="-29036">
		<tag k="name" v="Kattjønnbekken" />
		<tag k="ssr:stedsnr" v="219480" />
		<tag k="waterway" v="stream" />
	</node>
	<node lat="63.14289166973703" lon="10.218122213835834" id="-29041">
		<tag k="name" v="Hustjønnbekken" />
		<tag k="ssr:stedsnr" v="219822" />
		<tag k="waterway" v="stream" />
	</node>
	<node lat="63.18426388480338" lon="10.39879166838631" id="-29044">
		<tag k="name" v="Hørvåstjønna" />
		<tag k="natural" v="water" />
		<tag k="ssr:stedsnr" v="219812" />
	</node>
	<node lat="63.12273888814419" lon="10.32822776859563" id="-29052">
		<tag k="name" v="Sørja" />
		<tag k="ssr:stedsnr" v="219878" />
		<tag k="waterway" v="stream" />
	</node>
	<node lat="63.104252774189376" lon="10.155774999934959" id="-29060">
		<tag k="name" v="Rognlibekken" />
		<tag k="ssr:stedsnr" v="254012" />
		<tag k="waterway" v="stream" />
	</node>
	<node lat="63.113508332888735" lon="10.054224995444203" id="-29062">
		<tag k="name" v="Ekkerbekken" />
		<tag k="ssr:stedsnr" v="255030" />
		<tag k="waterway" v="stream" />
	</node>
	<node lat="63.096036237545775" lon="10.018907554702684" id="-29067">
		<tag k="name" v="Håmmåråsbekken" />
		<tag k="old_name" v="Hammaråsbekken" />
		<tag k="ssr:stedsnr" v="255516" />
		<tag k="waterway" v="stream" />
	</node>
	<node lat="63.08253055985972" lon="10.335619437285086" id="-29076">
		<tag k="alt_name" v="Rea" />
		<tag k="name" v="Ræa" />
		<tag k="ssr:stedsnr" v="255903" />
		<tag k="waterway" v="river" />
	</node>
	<node lat="63.067252773396405" lon="10.235527772767684" id="-29077">
		<tag k="name" v="Bjørkvatnet" />
		<tag k="natural" v="water" />
		<tag k="ssr:stedsnr" v="255922" />
	</node>
	<node lat="63.06682500077333" lon="10.252849990671614" id="-29081">
		<tag k="name" v="Bjørka" />
		<tag k="ssr:stedsnr" v="270787" />
		<tag k="waterway" v="stream" />
	</node>
	<node lat="63.26188333616894" lon="10.329338879464133" id="-29082">
		<tag k="name" v="Rundtjønna" />
		<tag k="natural" v="water" />
		<tag k="ssr:stedsnr" v="279139" />
	</node>
	<node lat="63.20497222273518" lon="10.395816657671821" id="-29085">
		<tag k="name" v="Brannåsbekken" />
		<tag k="ssr:stedsnr" v="279210" />
		<tag k="waterway" v="stream" />
	</node>
	<node lat="63.111755552923924" lon="9.92260277404631" id="-29091">
		<tag k="name" v="Holbekken" />
		<tag k="ssr:stedsnr" v="279303" />
		<tag k="waterway" v="stream" />
	</node>
	<node lat="63.08164999694957" lon="10.24406110463639" id="-29097">
		<tag k="name" v="Systutjønna" />
		<tag k="natural" v="water" />
		<tag k="ssr:stedsnr" v="279905" />
	</node>
	<node lat="63.08346944494172" lon="10.243200007321528" id="-29098">
		<tag k="name" v="Bakktjønna" />
		<tag k="natural" v="water" />
		<tag k="ssr:stedsnr" v="279906" />
	</node>
	<node lat="63.15281111282091" lon="10.32148889550215" id="-29112">
		<tag k="name" v="Lomtjønnbekken" />
		<tag k="ssr:stedsnr" v="280815" />
		<tag k="waterway" v="stream" />
	</node>
	<node lat="63.13805000204334" lon="10.289491673821942" id="-29114">
		<tag k="name" v="Kvernbekken" />
		<tag k="ssr:stedsnr" v="280826" />
		<tag k="waterway" v="stream" />
	</node>
	<node lat="63.29051666273729" lon="10.365088893684495" id="-29119">
		<tag k="name" v="Seterløfta" />
		<tag k="ssr:stedsnr" v="280876" />
		<tag k="waterway" v="stream" />
	</node>
	<node lat="63.21083889113596" lon="10.519116657439914" id="-29124">
		<tag k="name" v="Fiskelite" />
		<tag k="ssr:stedsnr" v="280926" />
		<tag k="waterway" v="stream" />
	</node>
	<node lat="63.096538891685064" lon="10.368338894821898" id="-29132">
		<tag k="name" v="Nedre Vollatjønna" />
		<tag k="natural" v="water" />
		<tag k="ssr:stedsnr" v="461134" />
	</node>
	<node lat="63.26576388646196" lon="10.262527780558036" id="-29133">
		<tag k="name" v="Svamparen" />
		<tag k="natural" v="water" />
		<tag k="ssr:stedsnr" v="461150" />
	</node>
	<node lat="63.13677499853028" lon="9.989788896598439" id="-29145">
		<tag k="name" v="Kattjønna" />
		<tag k="natural" v="water" />
		<tag k="ssr:stedsnr" v="461293" />
	</node>
	<node lat="63.09208055991805" lon="10.293658325670286" id="-29149">
		<tag k="name" v="Hogsterbekken" />
		<tag k="ssr:stedsnr" v="461906" />
		<tag k="waterway" v="stream" />
	</node>
	<node lat="63.13755833200939" lon="10.206694448619643" id="-29151">
		<tag k="name" v="Damvatnet" />
=======
<osm generator="osmapis" version="0.6">
	<node id="-751615" lat="63.2212500024" lon="10.4097249984">
		<tag k="name" v="Langvatnet" />
		<tag k="natural" v="water" />
		<tag k="ssr:stedsnr" v="862704" />
		<tag k="water" v="lake" />
	</node>
	<node id="-751614" lat="63.1859444489" lon="10.0909333389">
		<tag k="alt_name" v="Grevsjøen, store" />
		<tag k="name" v="Storgrevsjøen" />
		<tag k="natural" v="water" />
		<tag k="ssr:stedsnr" v="862210" />
		<tag k="water" v="lake" />
	</node>
	<node id="-753657" lat="63.1604555536" lon="10.3283111135">
		<tag k="name" v="Stordamskardtjønna" />
		<tag k="natural" v="water" />
		<tag k="ssr:stedsnr" v="826802" />
	</node>
	<node id="-753655" lat="63.1738388914" lon="10.4061722298">
		<tag k="name" v="Sjursprangtjønna" />
		<tag k="natural" v="water" />
		<tag k="ssr:stedsnr" v="826798" />
	</node>
	<node id="-753647" lat="63.2236916646" lon="10.3778472142">
		<tag k="name" v="Retseterbekken" />
		<tag k="ssr:stedsnr" v="826774" />
		<tag k="waterway" v="stream" />
	</node>
	<node id="-751597" lat="63.201175001" lon="10.2618527724">
		<tag k="alt_name" v="Lobekken" />
		<tag k="name" v="Loa" />
		<tag k="ssr:stedsnr" v="801767" />
		<tag k="waterway" v="stream" />
	</node>
	<node id="-751595" lat="63.1659833352" lon="10.3661500029">
		<tag k="name" v="Litldamvatnet" />
		<tag k="natural" v="water" />
		<tag k="old_name" v="Damvatnet, l" />
		<tag k="ssr:stedsnr" v="801759" />
	</node>
	<node id="-751594" lat="63.1624055533" lon="10.5953833403">
		<tag k="name" v="Kråksjøen" />
		<tag k="natural" v="water" />
		<tag k="ssr:stedsnr" v="801827" />
	</node>
	<node id="-751593" lat="63.157005553" lon="10.6844277684">
		<tag k="name" v="Okstjønna" />
		<tag k="natural" v="water" />
		<tag k="ssr:stedsnr" v="801826" />
	</node>
	<node id="-751589" lat="63.0393277749" lon="10.0477472314">
		<tag k="alt_name" v="Kokkslettbekken" />
		<tag k="name" v="Kokkslættbekken" />
		<tag k="ssr:stedsnr" v="801561" />
		<tag k="waterway" v="stream" />
	</node>
	<node id="-751588" lat="63.2256916646" lon="10.1646638792">
		<tag k="alt_name" v="Måssan" />
		<tag k="name" v="Måssån" />
		<tag k="old_name" v="Måsan" />
		<tag k="place" v="islet" />
		<tag k="ssr:stedsnr" v="801225" />
	</node>
	<node id="-751586" lat="63.2057861156" lon="10.1441749946">
		<tag k="name" v="Ånøya" />
		<tag k="natural" v="water" />
		<tag k="ssr:stedsnr" v="801206" />
		<tag k="water" v="lake" />
	</node>
	<node id="-751581" lat="63.0965111067" lon="10.4182194446">
		<tag k="alt_name" v="Klevatjønna" />
		<tag k="name" v="Kleivatjønna" />
		<tag k="natural" v="water" />
		<tag k="ssr:stedsnr" v="923933" />
	</node>
	<node id="-751576" lat="63.1172499958" lon="10.3602499993">
		<tag k="name" v="Skarvbekken" />
		<tag k="ssr:stedsnr" v="923851" />
		<tag k="waterway" v="stream" />
	</node>
	<node id="-751575" lat="63.185636109" lon="10.3787388867">
		<tag k="name" v="Lomtjønna" />
		<tag k="natural" v="water" />
		<tag k="ssr:stedsnr" v="923832" />
	</node>
	<node id="-751609" lat="63.1073305581" lon="9.92457499381">
		<tag k="name" v="Høltjønna" />
		<tag k="natural" v="water" />
		<tag k="ssr:stedsnr" v="862027" />
	</node>
	<node id="-751571" lat="63.1805111103" lon="10.3812749957">
		<tag k="name" v="Skotta" />
		<tag k="ssr:stedsnr" v="923774" />
		<tag k="waterway" v="stream" />
	</node>
	<node id="-753606" lat="63.1821861132" lon="10.0600777763">
		<tag k="name" v="Kattjønna" />
		<tag k="natural" v="water" />
		<tag k="ssr:stedsnr" v="826490" />
	</node>
	<node id="-750241" lat="63.1230301917" lon="10.5259307417">
		<tag k="name" v="Seterbekken" />
		<tag k="ssr:stedsnr" v="219846" />
		<tag k="waterway" v="stream" />
	</node>
	<node id="-753603" lat="63.0786805574" lon="10.0651416612">
		<tag k="name" v="Lysinga" />
		<tag k="ssr:stedsnr" v="826447" />
		<tag k="waterway" v="stream" />
	</node>
	<node id="-753597" lat="63.1451249992" lon="9.99836388969">
		<tag k="name" v="Dalbekken" />
		<tag k="ssr:stedsnr" v="826297" />
		<tag k="waterway" v="stream" />
	</node>
	<node id="-751548" lat="63.1199861111" lon="9.94127500813">
		<tag k="name" v="Skolda" />
		<tag k="ssr:stedsnr" v="923059" />
		<tag k="waterway" v="river" />
	</node>
	<node id="-751546" lat="63.1161555578" lon="10.1039750095">
		<tag k="name" v="Svartbergbekken" />
		<tag k="ssr:stedsnr" v="923042" />
		<tag k="waterway" v="stream" />
	</node>
	<node id="-751544" lat="63.1539999974" lon="10.4564194358">
		<tag k="name" v="Vårlibekken" />
		<tag k="ssr:stedsnr" v="922841" />
		<tag k="waterway" v="stream" />
	</node>
	<node id="-751543" lat="63.1603666642" lon="10.3960611197">
		<tag k="name" v="Storvatnet" />
		<tag k="natural" v="water" />
		<tag k="ssr:stedsnr" v="922840" />
	</node>
	<node id="-751542" lat="63.1633888881" lon="10.5233555537">
		<tag k="name" v="Nordre Helvetet" />
		<tag k="natural" v="water" />
		<tag k="old_name" v="Helvete, nordre" />
		<tag k="ssr:stedsnr" v="922837" />
	</node>
	<node id="-753585" lat="63.1782166689" lon="10.0867361189">
		<tag k="name" v="Grevsjøvika" />
		<tag k="natural" v="bay" />
		<tag k="ssr:stedsnr" v="826156" />
	</node>
	<node id="-753584" lat="63.0843000025" lon="10.4210361066">
		<tag k="name" v="Tilderbekken" />
		<tag k="ssr:stedsnr" v="826155" />
		<tag k="waterway" v="stream" />
	</node>
	<node id="-751534" lat="63.2174138895" lon="10.3600194388">
		<tag k="name" v="Solotjønna" />
		<tag k="natural" v="water" />
		<tag k="ssr:stedsnr" v="922703" />
	</node>
	<node id="-751532" lat="63.2439166704" lon="10.3651888867">
		<tag k="name" v="Ulvtjønna" />
		<tag k="natural" v="water" />
		<tag k="ssr:stedsnr" v="922607" />
	</node>
	<node id="-751530" lat="63.1017444481" lon="10.0910472161">
		<tag k="name" v="Tørrestjønna" />
		<tag k="natural" v="water" />
		<tag k="ssr:stedsnr" v="922527" />
	</node>
	<node id="-751528" lat="63.0955138861" lon="10.0988138973">
		<tag k="name" v="Buvatnet" />
		<tag k="natural" v="water" />
		<tag k="ssr:stedsnr" v="922495" />
	</node>
	<node id="-753575" lat="63.2393916684" lon="10.16084723">
		<tag k="name" v="Tangen" />
		<tag k="natural" v="cape" />
		<tag k="ssr:stedsnr" v="826052" />
	</node>
	<node id="-753574" lat="63.183725003" lon="10.1756472248">
		<tag k="name" v="Ratodden" />
		<tag k="natural" v="cape" />
		<tag k="ssr:stedsnr" v="826044" />
	</node>
	<node id="-750577" lat="63.1793250017" lon="10.07038888">
		<tag k="name" v="Kardustjønna" />
		<tag k="natural" v="water" />
		<tag k="ssr:stedsnr" v="280497" />
	</node>
	<node id="-753572" lat="63.1478194444" lon="10.1942972299">
		<tag k="name" v="Bennaenden" />
		<tag k="natural" v="bay" />
		<tag k="ssr:stedsnr" v="825999" />
	</node>
	<node id="-751523" lat="63.1537222179" lon="10.1659666583">
		<tag k="name" v="Langneset" />
		<tag k="natural" v="cape" />
		<tag k="ssr:stedsnr" v="922109" />
	</node>
	<node id="-750248" lat="63.1227388881" lon="10.3282277686">
		<tag k="name" v="Sørja" />
		<tag k="ssr:stedsnr" v="219878" />
		<tag k="waterway" v="stream" />
	</node>
	<node id="-751599" lat="63.1007555581" lon="10.0655722152">
		<tag k="name" v="Kvernbekken" />
		<tag k="ssr:stedsnr" v="825250" />
		<tag k="waterway" v="stream" />
	</node>
	<node id="-751503" lat="63.0587666649" lon="10.1016194424">
		<tag k="name" v="Seterbekken" />
		<tag k="ssr:stedsnr" v="765665" />
		<tag k="waterway" v="stream" />
	</node>
	<node id="-753537" lat="63.1456583323" lon="10.3902138971">
		<tag k="name" v="Talbergvatnet" />
		<tag k="natural" v="water" />
		<tag k="ssr:stedsnr" v="825157" />
		<tag k="water" v="lake" />
	</node>
	<node id="-751486" lat="63.1440611133" lon="10.1113833372">
		<tag k="name" v="Vikabukta" />
		<tag k="natural" v="bay" />
		<tag k="ssr:stedsnr" v="764538" />
	</node>
	<node id="-753527" lat="63.2665159642" lon="10.3418950437">
		<tag k="name" v="Damtjønna" />
		<tag k="natural" v="water" />
		<tag k="ssr:stedsnr" v="802798" />
	</node>
	<node id="-753521" lat="63.104011108" lon="10.4312861098">
		<tag k="alt_name" v="Gravabekken" />
		<tag k="name" v="Gråvåbekken" />
		<tag k="ssr:stedsnr" v="801904" />
		<tag k="waterway" v="stream" />
	</node>
	<node id="-753520" lat="63.1601083337" lon="10.2374750065">
		<tag k="alt_name" v="Øveråsvatnet, Store;Storøsåsvatnet" />
		<tag k="fixme" v="multiple name tags, choose one and add the other to alt_name" />
		<tag k="name" v="Stortjønna;Storøveråsvatnet" />
		<tag k="natural" v="water" />
		<tag k="ssr:stedsnr" v="801751" />
	</node>
	<node id="-753517" lat="63.2321250022" lon="10.4929166664">
		<tag k="name" v="Rangåa" />
		<tag k="ssr:stedsnr" v="801711" />
		<tag k="waterway" v="river" />
	</node>
	<node id="-753516" lat="63.0277111078" lon="10.0648027781">
		<tag k="name" v="Krokuttjønna" />
		<tag k="natural" v="water" />
		<tag k="ssr:stedsnr" v="801651" />
	</node>
	<node id="-753512" lat="63.1430250028" lon="10.5889194413">
		<tag k="name" v="Daltjønna" />
		<tag k="natural" v="water" />
		<tag k="ssr:stedsnr" v="801842" />
	</node>
	<node id="-753511" lat="63.1137916659" lon="10.3845888883">
		<tag k="name" v="Svartbekken" />
		<tag k="ssr:stedsnr" v="801799" />
		<tag k="waterway" v="stream" />
	</node>
	<node id="-753510" lat="63.1124583307" lon="10.3978444415">
		<tag k="name" v="Hopperdalsbekken" />
		<tag k="ssr:stedsnr" v="801798" />
		<tag k="waterway" v="stream" />
	</node>
	<node id="-753503" lat="63.0910194452" lon="9.90847222601">
		<tag k="name" v="Kalvhåggåvatnet" />
		<tag k="natural" v="water" />
		<tag k="old_name" v="Kalvhågåvatnet" />
		<tag k="ssr:stedsnr" v="801536" />
	</node>
	<node id="-751447" lat="63.1157499999" lon="10.4695749924">
		<tag k="name" v="Skjeldbreia" />
		<tag k="ssr:stedsnr" v="740818" />
		<tag k="waterway" v="river" />
	</node>
	<node id="-751442" lat="63.1704499992" lon="10.2444277779">
		<tag k="alt_name" v="Bulstobekken" />
		<tag k="name" v="Bullstobekken" />
		<tag k="ssr:stedsnr" v="740766" />
		<tag k="waterway" v="stream" />
	</node>
	<node id="-751441" lat="63.1835999961" lon="10.5970249973">
		<tag k="name" v="Svarttjønnbekken" />
		<tag k="ssr:stedsnr" v="740757" />
		<tag k="waterway" v="stream" />
	</node>
	<node id="-753487" lat="63.1197194413" lon="10.1335111152">
		<tag k="name" v="Øverkåstjønna" />
		<tag k="natural" v="water" />
		<tag k="ssr:stedsnr" v="801036" />
	</node>
	<node id="-751437" lat="63.0479694429" lon="10.045127768">
		<tag k="name" v="Altbjørvatnet" />
		<tag k="natural" v="water" />
		<tag k="ssr:stedsnr" v="740570" />
	</node>
	<node id="-752260" lat="63.0668000024" lon="10.1125666607">
		<tag k="name" v="Sandholtbekken" />
		<tag k="ssr:stedsnr" v="158661" />
		<tag k="waterway" v="stream" />
	</node>
	<node id="-751430" lat="63.1375111129" lon="10.2071888817">
		<tag k="name" v="Damtjønna" />
		<tag k="natural" v="water" />
		<tag k="ssr:stedsnr" v="740060" />
	</node>
	<node id="-751429" lat="63.158588889" lon="9.95231110365">
		<tag k="name" v="Blokkotjønna" />
		<tag k="natural" v="water" />
		<tag k="ssr:stedsnr" v="740115" />
	</node>
	<node id="-751417" lat="63.2313833369" lon="10.3174999968">
		<tag k="name" v="Stamtjønna" />
		<tag k="natural" v="water" />
		<tag k="ssr:stedsnr" v="704736" />
	</node>
	<node id="-753464" lat="63.1720861155" lon="10.4084138909">
		<tag k="name" v="Damtjønna" />
		<tag k="natural" v="water" />
		<tag k="ssr:stedsnr" v="765798" />
	</node>
	<node id="-751413" lat="63.0803555516" lon="10.1106388854">
		<tag k="name" v="Grimsbekken" />
		<tag k="ssr:stedsnr" v="704615" />
		<tag k="waterway" v="stream" />
	</node>
	<node id="-753458" lat="63.1627944484" lon="10.0333111113">
		<tag k="name" v="Kvernbekken" />
		<tag k="ssr:stedsnr" v="765717" />
		<tag k="waterway" v="stream" />
	</node>
	<node id="-751406" lat="63.1759277821" lon="10.2500722194">
		<tag k="name" v="Litl-Sagåsvatnet" />
>>>>>>> e1d4bc35ff8a6074a6f2e91616a996b547c36f15
		<tag k="natural" v="water" />
		<tag k="ssr:stedsnr" v="704126" />
		<tag k="water" v="lake" />
	</node>
<<<<<<< HEAD
	<node lat="63.15936944883278" lon="10.153347228515864" id="-29157">
		<tag k="name" v="Toskbekken" />
		<tag k="ssr:stedsnr" v="461941" />
		<tag k="waterway" v="stream" />
	</node>
	<node lat="63.07351944674919" lon="10.288372228573115" id="-29159">
		<tag k="name" v="Rostadholet" />
		<tag k="ssr:stedsnr" v="461952" />
		<tag k="waterway" v="stream" />
	</node>
	<node lat="63.19125000283882" lon="10.22064166986179" id="-29162">
		<tag k="name" v="Prestlivika" />
		<tag k="natural" v="bay" />
		<tag k="ssr:stedsnr" v="462036" />
	</node>
	<node lat="63.220883333693216" lon="10.223230550743184" id="-29165">
		<tag k="name" v="Vetabekken" />
		<tag k="ssr:stedsnr" v="462086" />
		<tag k="waterway" v="stream" />
	</node>
	<node lat="63.202905551771416" lon="10.132577783642143" id="-29170">
		<tag k="name" v="Litlånøya" />
		<tag k="natural" v="bay" />
		<tag k="ssr:stedsnr" v="462445" />
	</node>
	<node lat="63.187280551813686" lon="10.048180547573587" id="-29172">
		<tag k="name" v="Røsslibekken" />
		<tag k="ssr:stedsnr" v="462384" />
		<tag k="waterway" v="stream" />
	</node>
	<node lat="63.185494445487016" lon="10.027863883866331" id="-29173">
		<tag k="name" v="Gildalsbekken" />
		<tag k="ssr:stedsnr" v="462394" />
		<tag k="waterway" v="stream" />
	</node>
	<node lat="63.16362222413081" lon="10.264858342398552" id="-29190">
		<tag k="name" v="Valda" />
		<tag k="ssr:stedsnr" v="462777" />
		<tag k="waterway" v="stream" />
	</node>
	<node lat="63.10729166265721" lon="10.17920277558723" id="-29213">
		<tag k="name" v="Kolo" />
		<tag k="ssr:stedsnr" v="315016" />
		<tag k="waterway" v="stream" />
	</node>
	<node lat="63.21434999709249" lon="10.184874996213434" id="-29216">
		<tag k="name" v="Bjørsettjønna" />
		<tag k="natural" v="water" />
		<tag k="ssr:stedsnr" v="315209" />
	</node>
	<node lat="63.20658611454016" lon="10.47543055169802" id="-29218">
		<tag k="name" v="Låkkårtjønna" />
		<tag k="natural" v="water" />
		<tag k="ssr:stedsnr" v="315705" />
	</node>
	<node lat="63.222100003876825" lon="10.358030551122146" id="-29220">
		<tag k="name" v="Reitbekken" />
		<tag k="ssr:stedsnr" v="315716" />
		<tag k="waterway" v="stream" />
	</node>
	<node lat="63.14141110991159" lon="10.582325005786897" id="-29224">
		<tag k="name" v="Gåsvatnet" />
		<tag k="natural" v="water" />
		<tag k="ssr:stedsnr" v="315858" />
	</node>
	<node lat="63.23747500309135" lon="10.161811121075775" id="-29226">
		<tag k="name" v="Langodden" />
		<tag k="natural" v="cape" />
		<tag k="ssr:stedsnr" v="316309" />
	</node>
	<node lat="63.181819440307386" lon="10.28197222418135" id="-29229">
		<tag k="name" v="Damvatnet" />
		<tag k="natural" v="water" />
		<tag k="ssr:stedsnr" v="316808" />
	</node>
	<node lat="63.14362221925579" lon="10.394441659842252" id="-29234">
		<tag k="name" v="Talbergsbekken" />
		<tag k="ssr:stedsnr" v="340224" />
		<tag k="waterway" v="stream" />
	</node>
	<node lat="63.09254722311267" lon="9.992544442041206" id="-29236">
		<tag k="name" v="Baklibekken" />
		<tag k="ssr:stedsnr" v="340357" />
		<tag k="waterway" v="stream" />
	</node>
	<node lat="63.0714861156644" lon="9.99892777248224" id="-29246">
		<tag k="name" v="Sollibekken" />
		<tag k="ssr:stedsnr" v="340404" />
		<tag k="waterway" v="stream" />
	</node>
	<node lat="63.0880499957683" lon="10.196941668025907" id="-29253">
		<tag k="name" v="Svensagfossen" />
		<tag k="natural" v="waterfall" />
		<tag k="ssr:stedsnr" v="340607" />
	</node>
	<node lat="63.09238333517544" lon="10.274905547562456" id="-29259">
		<tag k="name" v="Krokan" />
		<tag k="ssr:stedsnr" v="340907" />
		<tag k="waterway" v="stream" />
	</node>
	<node lat="63.11742222444957" lon="10.233741660452605" id="-29276">
		<tag k="name" v="Gammelelva" />
		<tag k="natural" v="water" />
		<tag k="ssr:stedsnr" v="340844" />
		<tag k="water" v="lake" />
	</node>
	<node lat="63.215461109284156" lon="10.173102778375206" id="-29291">
		<tag k="name" v="Sildtjønna" />
		<tag k="natural" v="water" />
		<tag k="ssr:stedsnr" v="376230" />
	</node>
	<node lat="63.08500000220613" lon="10.022500002774583" id="-29293">
		<tag k="name" v="Litlbekken" />
		<tag k="ssr:stedsnr" v="376519" />
		<tag k="waterway" v="stream" />
	</node>
	<node lat="63.08488333544284" lon="10.421861106125515" id="-29300">
		<tag k="name" v="Tildertjønna" />
		<tag k="natural" v="water" />
		<tag k="ssr:stedsnr" v="400113" />
	</node>
	<node lat="63.097102773684234" lon="10.073258333211124" id="-29304">
		<tag k="name" v="Furuodden" />
		<tag k="natural" v="cape" />
		<tag k="ssr:stedsnr" v="400302" />
	</node>
	<node lat="63.19801388970256" lon="10.226027769892141" id="-29313">
		<tag k="name" v="Øvre Langmyrtjønna" />
		<tag k="natural" v="water" />
		<tag k="ssr:stedsnr" v="401003" />
	</node>
	<node lat="63.156805551365224" lon="10.195938878997854" id="-29317">
		<tag k="name" v="Gjetbergodden" />
		<tag k="natural" v="cape" />
		<tag k="ssr:stedsnr" v="400980" />
	</node>
	<node lat="63.21765277498569" lon="10.306855558459677" id="-29318">
		<tag k="name" v="Gammelelva" />
		<tag k="natural" v="water" />
		<tag k="ssr:stedsnr" v="401104" />
		<tag k="water" v="lake" />
	</node>
	<node lat="63.09536110845376" lon="10.19172221933166" id="-29333">
		<tag k="name" v="Sandåosen" />
		<tag k="natural" v="bay" />
		<tag k="ssr:stedsnr" v="401602" />
	</node>
	<node lat="63.139386114084196" lon="10.494430555988517" id="-29343">
		<tag k="name" v="Litltjønna" />
		<tag k="natural" v="water" />
		<tag k="ssr:stedsnr" v="401807" />
	</node>
	<node lat="63.10884444161433" lon="10.601891671851268" id="-29348">
		<tag k="name" v="Sama" />
		<tag k="ssr:stedsnr" v="401905" />
		<tag k="waterway" v="river" />
	</node>
	<node lat="63.20868333652637" lon="10.494522213235042" id="-29353">
		<tag k="name" v="Bortntjønna" />
=======
	<node id="-753451" lat="63.1853888855" lon="10.4854888833">
		<tag k="name" v="Holbekken" />
		<tag k="ssr:stedsnr" v="765901" />
		<tag k="waterway" v="stream" />
	</node>
	<node id="-753448" lat="63.0956361076" lon="10.3003583303">
		<tag k="name" v="Vollosen" />
		<tag k="natural" v="bay" />
		<tag k="ssr:stedsnr" v="765890" />
	</node>
	<node id="-753444" lat="63.1728194451" lon="10.294394442">
		<tag k="name" v="Lerdalshølen" />
		<tag k="place" v="locality" />
		<tag k="ssr:stedsnr" v="765876" />
	</node>
	<node id="-751387" lat="63.1330916701" lon="10.4843472152">
		<tag k="name" v="Stordalsbekken" />
		<tag k="ssr:stedsnr" v="887849" />
		<tag k="waterway" v="stream" />
	</node>
	<node id="-751383" lat="63.1159611071" lon="10.5053305645">
		<tag k="name" v="Odalsbekken" />
		<tag k="ssr:stedsnr" v="887822" />
		<tag k="waterway" v="stream" />
	</node>
	<node id="-753424" lat="63.0740027796" lon="10.0156444382">
		<tag k="name" v="Tjønnåsbekken" />
		<tag k="ssr:stedsnr" v="765406" />
		<tag k="waterway" v="stream" />
	</node>
	<node id="-751372" lat="63.1758055555" lon="10.0752916641">
		<tag k="name" v="Bakkatjønna" />
		<tag k="natural" v="water" />
		<tag k="ssr:stedsnr" v="887526" />
	</node>
	<node id="-751369" lat="63.0431333324" lon="10.0725444439">
		<tag k="name" v="Hestdalsbekken" />
		<tag k="ssr:stedsnr" v="887432" />
		<tag k="waterway" v="stream" />
	</node>
	<node id="-753412" lat="63.2389805563" lon="10.1543083299">
		<tag k="name" v="Bjørnholmen" />
		<tag k="place" v="islet" />
		<tag k="ssr:stedsnr" v="765052" />
	</node>
	<node id="-753411" lat="63.2199527763" lon="10.1989861153">
		<tag k="name" v="Lumpa" />
		<tag k="natural" v="water" />
		<tag k="ssr:stedsnr" v="765035" />
	</node>
	<node id="-753410" lat="63.2309138926" lon="10.1766861146">
		<tag k="name" v="Blåhåmmårbekken" />
		<tag k="ssr:stedsnr" v="765030" />
		<tag k="waterway" v="stream" />
	</node>
	<node id="-751359" lat="63.1652666676" lon="10.1673027848">
		<tag k="name" v="Småholman" />
		<tag k="place" v="islet" />
		<tag k="ssr:stedsnr" v="886951" />
	</node>
	<node id="-753404" lat="63.0927166684" lon="10.3611416592">
		<tag k="name" v="Søre Vollatjønna" />
		<tag k="natural" v="water" />
		<tag k="ssr:stedsnr" v="765139" />
	</node>
	<node id="-751355" lat="63.1433305556" lon="10.1538583316">
		<tag k="name" v="Storsundet" />
		<tag k="natural" v="strait" />
		<tag k="ssr:stedsnr" v="886985" />
	</node>
	<node id="-753400" lat="63.1869166668" lon="10.2497749997">
		<tag k="name" v="Råvika" />
		<tag k="natural" v="bay" />
		<tag k="ssr:stedsnr" v="765131" />
	</node>
	<node id="-753398" lat="63.2376055523" lon="10.3195611135">
		<tag k="name" v="Gruvbekken" />
		<tag k="ssr:stedsnr" v="765117" />
		<tag k="waterway" v="stream" />
	</node>
	<node id="-751349" lat="63.1384194472" lon="9.94505000786">
		<tag k="name" v="Hafellbekken" />
		<tag k="ssr:stedsnr" v="886751" />
		<tag k="waterway" v="stream" />
	</node>
	<node id="-751348" lat="63.1416555557" lon="9.93780556191">
		<tag k="name" v="Sagbekken" />
		<tag k="ssr:stedsnr" v="886741" />
		<tag k="waterway" v="stream" />
	</node>
	<node id="-751347" lat="63.1356444463" lon="9.98309444357">
		<tag k="name" v="Slættbekken" />
		<tag k="ssr:stedsnr" v="886740" />
		<tag k="waterway" v="stream" />
	</node>
	<node id="-751346" lat="63.1436972266" lon="9.97021667339">
		<tag k="name" v="Rønningsbekken" />
		<tag k="ssr:stedsnr" v="886736" />
		<tag k="waterway" v="stream" />
	</node>
	<node id="-753389" lat="63.1237027735" lon="10.1747750087">
		<tag k="name" v="Saudalsbekken" />
		<tag k="ssr:stedsnr" v="764556" />
		<tag k="waterway" v="stream" />
	</node>
	<node id="-751340" lat="63.1409472249" lon="10.2063972243">
		<tag k="name" v="Tistiltjønna" />
		<tag k="natural" v="water" />
		<tag k="ssr:stedsnr" v="886502" />
	</node>
	<node id="-753387" lat="63.1200527778" lon="10.0205111085">
		<tag k="name" v="Sagbekken" />
		<tag k="ssr:stedsnr" v="764242" />
		<tag k="waterway" v="stream" />
	</node>
	<node id="-751336" lat="63.1448750043" lon="10.1024805595">
		<tag k="name" v="Gresjosen" />
		<tag k="natural" v="bay" />
		<tag k="ssr:stedsnr" v="886527" />
	</node>
	<node id="-751335" lat="63.146749999" lon="10.1006750049">
		<tag k="name" v="Rennarbekkosen" />
		<tag k="natural" v="bay" />
		<tag k="ssr:stedsnr" v="886526" />
	</node>
	<node id="-750544" lat="63.0834694449" lon="10.2432000073">
		<tag k="name" v="Bakktjønna" />
>>>>>>> e1d4bc35ff8a6074a6f2e91616a996b547c36f15
		<tag k="natural" v="water" />
		<tag k="ssr:stedsnr" v="279906" />
	</node>
	<node id="-750688" lat="63.1900305556" lon="10.1677416731">
		<tag k="name" v="Storfossen" />
		<tag k="natural" v="waterfall" />
		<tag k="ssr:stedsnr" v="219054" />
	</node>
<<<<<<< HEAD
	<node lat="63.09348888712118" lon="9.937824990757267" id="-29380">
		<tag k="name" v="Svartvatnet" />
		<tag k="natural" v="water" />
		<tag k="ssr:stedsnr" v="437552" />
	</node>
	<node lat="63.133402778052144" lon="10.448224991161275" id="-29394">
		<tag k="name" v="Beggdalsbekken" />
		<tag k="ssr:stedsnr" v="461212" />
		<tag k="waterway" v="stream" />
	</node>
	<node lat="63.1418722218542" lon="10.453141669085195" id="-29395">
		<tag k="name" v="Jafsvolltjønna" />
		<tag k="natural" v="water" />
		<tag k="ssr:stedsnr" v="461214" />
	</node>
	<node lat="63.26193055696657" lon="10.258266664356315" id="-29397">
		<tag k="name" v="Svamparen" />
		<tag k="natural" v="water" />
		<tag k="ssr:stedsnr" v="461169" />
	</node>
	<node lat="63.163613887699036" lon="10.364941671067761" id="-29404">
		<tag k="name" v="Stordambekken" />
		<tag k="ssr:stedsnr" v="461261" />
		<tag k="waterway" v="stream" />
	</node>
	<node lat="63.09554444593999" lon="9.945522228672178" id="-29405">
		<tag k="name" v="Kvernbekken" />
		<tag k="ssr:stedsnr" v="461263" />
		<tag k="waterway" v="stream" />
	</node>
	<node lat="63.16636944821964" lon="10.1697833256079" id="-29420">
		<tag k="name" v="Våkkåstaden" />
		<tag k="natural" v="shoal" />
		<tag k="ssr:stedsnr" v="461967" />
	</node>
	<node lat="63.14480277987786" lon="9.887083334202874" id="-29436">
		<tag k="name" v="Langkjøsa" />
		<tag k="natural" v="strait" />
		<tag k="ssr:stedsnr" v="462736" />
	</node>
	<node lat="63.142277778958906" lon="9.891141662004229" id="-29437">
		<tag k="name" v="Litlodden" />
		<tag k="natural" v="cape" />
		<tag k="ssr:stedsnr" v="462738" />
	</node>
	<node lat="63.33059869511893" lon="10.207489411455455" id="-29438">
		<tag k="name" v="Gaulosen" />
		<tag k="natural" v="bay" />
		<tag k="ssr:stedsnr" v="462745" />
	</node>
	<node lat="63.107877779514446" lon="10.615124991767589" id="-29446">
		<tag k="name" v="Burubekken" />
		<tag k="ssr:stedsnr" v="462924" />
		<tag k="waterway" v="stream" />
	</node>
	<node lat="63.11278611450122" lon="10.145394446652627" id="-29452">
		<tag k="name" v="Åsatjønnin" />
		<tag k="natural" v="water" />
		<tag k="ssr:stedsnr" v="679013" />
	</node>
	<node lat="63.138102782027765" lon="10.15341111400786" id="-29453">
		<tag k="name" v="Grøtvatnet" />
		<tag k="natural" v="water" />
		<tag k="ssr:stedsnr" v="679068" />
		<tag k="water" v="lake" />
	</node>
	<node lat="63.131599997377485" lon="10.324008335601102" id="-29472">
		<tag k="name" v="Hauka" />
		<tag k="ssr:stedsnr" v="679792" />
		<tag k="waterway" v="stream" />
	</node>
	<node lat="63.164911109585205" lon="9.955500007512658" id="-29477">
		<tag k="loc_name" v="Estenstotjønna" />
		<tag k="name" v="Estenstadtjønna" />
		<tag k="natural" v="water" />
		<tag k="ssr:stedsnr" v="680151" />
	</node>
	<node lat="63.20255000152365" lon="10.207533332864484" id="-29480">
		<tag k="name" v="Torkjeltjønna" />
		<tag k="natural" v="water" />
		<tag k="ssr:stedsnr" v="680239" />
	</node>
	<node lat="63.0798999975279" lon="10.115805560403258" id="-29484">
		<tag k="name" v="Grimstjønna" />
		<tag k="natural" v="water" />
		<tag k="ssr:stedsnr" v="680585" />
	</node>
	<node lat="63.10392499990207" lon="10.553630549117853" id="-29492">
		<tag k="name" v="Håen" />
		<tag k="natural" v="water" />
		<tag k="ssr:stedsnr" v="680930" />
		<tag k="water" v="lake" />
	</node>
	<node lat="63.221202774153795" lon="10.166949992343728" id="-29495">
		<tag k="name" v="Lauvodden" />
		<tag k="natural" v="cape" />
		<tag k="ssr:stedsnr" v="497214" />
	</node>
	<node lat="63.18177777934423" lon="10.258505554033857" id="-29503">
		<tag k="name" v="Leksmyrvatnet" />
		<tag k="natural" v="water" />
		<tag k="ssr:stedsnr" v="497756" />
	</node>
	<node lat="63.18878055583755" lon="10.426747230624498" id="-29504">
		<tag k="name" v="Litlkaldvellvatnet" />
		<tag k="natural" v="water" />
		<tag k="old_name" v="Kaldvellvatnet, l" />
		<tag k="ssr:stedsnr" v="497794" />
		<tag k="water" v="lake" />
	</node>
	<node lat="63.119988892660096" lon="10.079377784569779" id="-29509">
		<tag k="name" v="Hestdalsbekken" />
		<tag k="ssr:stedsnr" v="498046" />
		<tag k="waterway" v="stream" />
	</node>
	<node lat="63.245725004208666" lon="10.23629444338958" id="-29517">
		<tag k="name" v="Sjetnhølen" />
		<tag k="place" v="locality" />
		<tag k="ssr:stedsnr" v="522116" />
	</node>
	<node lat="63.1229055584481" lon="9.988175007445177" id="-29525">
		<tag k="name" v="Stensvatnet" />
		<tag k="natural" v="water" />
		<tag k="ssr:stedsnr" v="522277" />
		<tag k="water" v="lake" />
	</node>
	<node lat="63.13592778232707" lon="10.030555551823436" id="-29532">
		<tag k="name" v="Kvernbekken" />
		<tag k="ssr:stedsnr" v="522314" />
		<tag k="waterway" v="stream" />
	</node>
	<node lat="63.17101666314177" lon="9.988883323932479" id="-29538">
		<tag k="name" v="Øver Kvernfossen" />
		<tag k="natural" v="waterfall" />
		<tag k="ssr:stedsnr" v="522374" />
	</node>
	<node lat="63.18207777439146" lon="10.037616671011843" id="-29539">
		<tag k="name" v="Grøtåstjønna" />
		<tag k="natural" v="water" />
		<tag k="ssr:stedsnr" v="522379" />
	</node>
	<node lat="63.07010833103037" lon="10.173763881165048" id="-29545">
		<tag k="name" v="Blåhåmmårbekken" />
		<tag k="ssr:stedsnr" v="522620" />
		<tag k="waterway" v="stream" />
	</node>
	<node lat="63.13834722309758" lon="9.979694440182444" id="-29555">
		<tag k="name" v="Moatjønna" />
		<tag k="natural" v="water" />
		<tag k="ssr:stedsnr" v="522711" />
	</node>
	<node lat="63.14466388573042" lon="9.909677773707863" id="-29559">
		<tag k="name" v="Kvernbekken" />
		<tag k="ssr:stedsnr" v="522727" />
		<tag k="waterway" v="stream" />
	</node>
	<node lat="63.13215832895513" lon="10.224652773420816" id="-29565">
		<tag k="name" v="Husbekken" />
		<tag k="ssr:stedsnr" v="522779" />
		<tag k="waterway" v="stream" />
	</node>
	<node lat="63.21387500391241" lon="10.52821665841931" id="-29587">
		<tag k="name" v="Brunga" />
		<tag k="ssr:stedsnr" v="557659" />
		<tag k="waterway" v="river" />
	</node>
	<node lat="63.19390278042379" lon="10.567838880757193" id="-29595">
		<tag k="name" v="Storgrønlitjønna" />
		<tag k="natural" v="water" />
		<tag k="ssr:stedsnr" v="558847" />
	</node>
	<node lat="63.27324166639264" lon="10.364425001593748" id="-29598">
		<tag k="name" v="Tortbergtjønna" />
		<tag k="natural" v="water" />
		<tag k="ssr:stedsnr" v="558801" />
	</node>
	<node lat="63.10902499648192" lon="9.925074999011171" id="-29616">
		<tag k="name" v="Holttjønna" />
		<tag k="natural" v="water" />
		<tag k="ssr:stedsnr" v="582322" />
	</node>
	<node lat="63.11965833135286" lon="9.923891664664103" id="-29618">
		<tag k="name" v="Kvernbekken" />
		<tag k="ssr:stedsnr" v="582326" />
		<tag k="waterway" v="stream" />
	</node>
	<node lat="63.12888055662149" lon="10.143733340038935" id="-29624">
		<tag k="name" v="Vikabekken" />
		<tag k="ssr:stedsnr" v="582523" />
		<tag k="waterway" v="stream" />
	</node>
	<node lat="63.14593611369304" lon="10.107694448046887" id="-29625">
		<tag k="name" v="Vikaodden" />
		<tag k="natural" v="cape" />
		<tag k="ssr:stedsnr" v="582539" />
	</node>
	<node lat="63.106866669443626" lon="10.099505550896298" id="-29627">
		<tag k="name" v="Svarttjønna" />
		<tag k="natural" v="water" />
		<tag k="ssr:stedsnr" v="582544" />
	</node>
	<node lat="63.14174166482816" lon="10.1862555568494" id="-29639">
		<tag k="name" v="Tjønna" />
		<tag k="natural" v="water" />
		<tag k="ssr:stedsnr" v="582995" />
	</node>
	<node lat="63.13517221979504" lon="10.474061114399282" id="-29664">
		<tag k="name" v="Sanddalsvatnet" />
		<tag k="natural" v="water" />
		<tag k="ssr:stedsnr" v="583848" />
		<tag k="water" v="lake" />
	</node>
	<node lat="63.13920000341473" lon="9.900669451218523" id="-29677">
		<tag k="alt_name" v="Syndsodden" />
		<tag k="name" v="Sundsodden" />
		<tag k="natural" v="cape" />
		<tag k="ssr:stedsnr" v="618078" />
	</node>
	<node lat="63.05257778090009" lon="10.112861104860231" id="-29681">
		<tag k="name" v="Svarttjønna" />
		<tag k="natural" v="water" />
		<tag k="ssr:stedsnr" v="618584" />
	</node>
	<node lat="63.11826110965644" lon="10.030425008790273" id="-29685">
		<tag k="name" v="Langåsvatnet" />
		<tag k="natural" v="water" />
		<tag k="ssr:stedsnr" v="619033" />
	</node>
	<node lat="63.24259123239117" lon="10.160203563913687" id="-29692">
		<tag k="name" v="Langholmen" />
		<tag k="place" v="islet" />
		<tag k="ssr:stedsnr" v="629455" />
	</node>
	<node lat="63.17592778206455" lon="10.25007221936745" id="-29697">
		<tag k="name" v="Litl-Sagåsvatnet" />
		<tag k="natural" v="water" />
		<tag k="ssr:stedsnr" v="704126" />
		<tag k="water" v="lake" />
	</node>
	<node lat="63.173283334956906" lon="10.170902779598215" id="-29703">
		<tag k="name" v="Grunnvika" />
		<tag k="natural" v="bay" />
		<tag k="ssr:stedsnr" v="704053" />
	</node>
	<node lat="63.222469445422206" lon="10.230380558279103" id="-29704">
		<tag k="name" v="Stjørdalsbekken" />
		<tag k="ssr:stedsnr" v="704082" />
		<tag k="waterway" v="stream" />
	</node>
	<node lat="63.221819447342554" lon="10.30878334204397" id="-29705">
		<tag k="name" v="Smedbekken" />
		<tag k="ssr:stedsnr" v="704085" />
		<tag k="waterway" v="stream" />
	</node>
	<node lat="63.17908055336724" lon="10.079388879302343" id="-29726">
		<tag k="name" v="Rotåstjønnbekken" />
		<tag k="ssr:stedsnr" v="704457" />
		<tag k="waterway" v="stream" />
	</node>
	<node lat="63.05668888604165" lon="10.025338889573913" id="-29728">
		<tag k="name" v="Skoldsvingen" />
		<tag k="ssr:stedsnr" v="704394" />
		<tag k="waterway" v="river" />
	</node>
	<node lat="63.077458336408675" lon="10.066236104067332" id="-29729">
		<tag k="name" v="Løva" />
		<tag k="ssr:stedsnr" v="704396" />
		<tag k="waterway" v="stream" />
	</node>
	<node lat="63.129677774516956" lon="10.098638896995078" id="-29734">
		<tag k="name" v="Stensettjønna" />
		<tag k="natural" v="water" />
		<tag k="ssr:stedsnr" v="704507" />
	</node>
	<node lat="63.11272499908741" lon="10.144511109483448" id="-29737">
		<tag k="name" v="Åsatjønna" />
		<tag k="natural" v="water" />
		<tag k="ssr:stedsnr" v="704533" />
	</node>
	<node lat="63.07401944016742" lon="10.184769442012437" id="-29744">
		<tag k="name" v="Skykjosen" />
		<tag k="natural" v="bay" />
		<tag k="ssr:stedsnr" v="704598" />
	</node>
	<node lat="63.21778333208689" lon="10.4316416588603" id="-29753">
		<tag k="name" v="Bjørgafossen" />
		<tag k="natural" v="waterfall" />
		<tag k="ssr:stedsnr" v="704825" />
	</node>
	<node lat="63.139508335402496" lon="10.197836108732798" id="-29768">
		<tag k="name" v="Støggeråsholet" />
		<tag k="natural" v="bay" />
		<tag k="ssr:stedsnr" v="704988" />
	</node>
	<node lat="63.21547499857163" lon="10.311080556065981" id="-29778">
		<tag k="name" v="Nyhushølen" />
		<tag k="place" v="locality" />
		<tag k="ssr:stedsnr" v="643115" />
	</node>
	<node lat="63.08744166909726" lon="10.016999995600175" id="-29783">
		<tag k="name" v="Råkbekken" />
		<tag k="ssr:stedsnr" v="643308" />
		<tag k="waterway" v="stream" />
	</node>
	<node lat="63.04443055135752" lon="10.10636666668782" id="-29787">
		<tag k="name" v="Storbekken" />
		<tag k="ssr:stedsnr" v="643291" />
		<tag k="waterway" v="stream" />
	</node>
	<node lat="63.15554722046403" lon="10.116300008142224" id="-29791">
		<tag k="name" v="Brunnsdalsbekken" />
		<tag k="ssr:stedsnr" v="643494" />
		<tag k="waterway" v="stream" />
	</node>
	<node lat="63.12555833330027" lon="9.906041663534266" id="-29799">
		<tag k="name" v="Skoldosen" />
		<tag k="natural" v="bay" />
		<tag k="ssr:stedsnr" v="643730" />
	</node>
	<node lat="63.136669440879714" lon="10.16840277460958" id="-29808">
		<tag k="name" v="Maurtuvodden" />
		<tag k="natural" v="cape" />
		<tag k="ssr:stedsnr" v="643979" />
	</node>
	<node lat="63.30196388914278" lon="10.34105833457776" id="-29816">
		<tag k="name" v="Kvamsbekken" />
		<tag k="ssr:stedsnr" v="643874" />
		<tag k="waterway" v="stream" />
	</node>
	<node lat="63.30364722195526" lon="10.39741111860937" id="-29819">
		<tag k="name" v="Damtjønna" />
		<tag k="natural" v="water" />
		<tag k="ssr:stedsnr" v="643879" />
	</node>
	<node lat="63.171788884940895" lon="10.132427771550942" id="-29842">
		<tag k="name" v="Eidåa" />
		<tag k="ssr:stedsnr" v="679120" />
		<tag k="waterway" v="river" />
	</node>
	<node lat="63.19571389003688" lon="10.150913893513444" id="-29851">
=======
	<node id="-751322" lat="63.142127776" lon="10.0860972231">
		<tag k="name" v="Kloppåsbekken" />
		<tag k="ssr:stedsnr" v="886485" />
		<tag k="waterway" v="stream" />
	</node>
	<node id="-753369" lat="63.1895305558" lon="10.1485611128">
		<tag k="name" v="Myraholmen" />
		<tag k="place" v="islet" />
		<tag k="ssr:stedsnr" v="741226" />
	</node>
	<node id="-752932" lat="63.1446638857" lon="9.90967777371">
		<tag k="name" v="Kvernbekken" />
		<tag k="ssr:stedsnr" v="522727" />
		<tag k="waterway" v="stream" />
	</node>
	<node id="-753364" lat="63.0928388879" lon="10.361863889">
		<tag k="name" v="Vollatjønnin" />
		<tag k="natural" v="water" />
		<tag k="ssr:stedsnr" v="740923" />
	</node>
	<node id="-750542" lat="63.1041527812" lon="10.3074249955">
		<tag k="name" v="Svartvassbekken" />
		<tag k="ssr:stedsnr" v="279888" />
		<tag k="waterway" v="stream" />
	</node>
	<node id="-753362" lat="63.2311749973" lon="10.3172583429">
		<tag k="name" v="Nylykkjtjønna" />
		<tag k="natural" v="water" />
		<tag k="ssr:stedsnr" v="740743" />
	</node>
	<node id="-753358" lat="63.1391749955" lon="10.4948805588">
		<tag k="name" v="Litlvatnet" />
		<tag k="natural" v="water" />
		<tag k="ssr:stedsnr" v="740842" />
	</node>
	<node id="-753357" lat="63.1367416626" lon="10.5093611066">
		<tag k="name" v="Hobekken" />
		<tag k="ssr:stedsnr" v="740839" />
		<tag k="waterway" v="stream" />
	</node>
	<node id="-751307" lat="63.0942249973" lon="10.295366666">
		<tag k="name" v="Gyllvatnet" />
		<tag k="natural" v="water" />
		<tag k="ssr:stedsnr" v="680960" />
	</node>
	<node id="-753353" lat="63.1932777771" lon="10.5416999997">
		<tag k="name" v="Fjellbekken" />
		<tag k="ssr:stedsnr" v="740792" />
		<tag k="waterway" v="stream" />
	</node>
	<node id="-752588" lat="63.0496444414" lon="10.1053166694">
		<tag k="name" v="Litlkrokuttjønna" />
		<tag k="natural" v="water" />
		<tag k="old_name" v="Krokuttjørna;Krokuttjønna" />
		<tag k="ssr:stedsnr" v="376593" />
	</node>
	<node id="-753347" lat="63.0826916679" lon="10.017783341">
		<tag k="name" v="Fossbekken" />
		<tag k="ssr:stedsnr" v="740485" />
		<tag k="waterway" v="stream" />
	</node>
	<node id="-753346" lat="63.0793805554" lon="10.1907444489">
		<tag k="name" v="Gaua" />
		<tag k="ssr:stedsnr" v="740481" />
		<tag k="waterway" v="river" />
	</node>
	<node id="-751297" lat="63.1717888849" lon="10.1324277716">
		<tag k="name" v="Eidåa" />
		<tag k="ssr:stedsnr" v="679120" />
		<tag k="waterway" v="river" />
	</node>
	<node id="-753344" lat="63.1739138853" lon="10.1962305545">
		<tag k="name" v="Solemstjønna" />
		<tag k="natural" v="water" />
		<tag k="ssr:stedsnr" v="740129" />
	</node>
	<node id="-751295" lat="63.1127861145" lon="10.1453944467">
		<tag k="name" v="Åsatjønnin" />
		<tag k="natural" v="water" />
		<tag k="ssr:stedsnr" v="679013" />
	</node>
	<node id="-753342" lat="63.1484194481" lon="9.89545834284">
		<tag k="name" v="Almkleivtjønna" />
		<tag k="natural" v="water" />
		<tag k="ssr:stedsnr" v="740099" />
	</node>
	<node id="-753339" lat="63.1194527814" lon="9.91688888911">
		<tag k="name" v="Hølbekken" />
		<tag k="ssr:stedsnr" v="740041" />
		<tag k="waterway" v="stream" />
	</node>
	<node id="-751289" lat="63.1366694409" lon="10.1684027746">
		<tag k="name" v="Maurtuvodden" />
		<tag k="natural" v="cape" />
		<tag k="ssr:stedsnr" v="643979" />
	</node>
	<node id="-753336" lat="63.1153749992" lon="9.94055000567">
		<tag k="name" v="Ellingsvatnet" />
		<tag k="natural" v="water" />
		<tag k="ssr:stedsnr" v="740011" />
	</node>
	<node id="-753329" lat="63.1339972184" lon="10.1996416647">
		<tag k="name" v="Nodalsbekken" />
		<tag k="ssr:stedsnr" v="643993" />
		<tag k="waterway" v="stream" />
	</node>
	<node id="-753327" lat="63.1679555542" lon="10.1464305521">
		<tag k="name" v="Litlåsvatnet" />
		<tag k="natural" v="water" />
		<tag k="ssr:stedsnr" v="643947" />
		<tag k="water" v="lake" />
	</node>
	<node id="-751277" lat="63.2425912324" lon="10.1602035639">
		<tag k="name" v="Langholmen" />
		<tag k="place" v="islet" />
		<tag k="ssr:stedsnr" v="629455" />
	</node>
	<node id="-753320" lat="63.084208334" lon="10.2860750021">
		<tag k="name" v="Øyabekken" />
		<tag k="ssr:stedsnr" v="643902" />
		<tag k="waterway" v="stream" />
	</node>
	<node id="-753315" lat="63.303647222" lon="10.3974111186">
		<tag k="name" v="Damtjønna" />
		<tag k="natural" v="water" />
		<tag k="ssr:stedsnr" v="643879" />
	</node>
	<node id="-753312" lat="63.3019638891" lon="10.3410583346">
		<tag k="name" v="Kvamsbekken" />
		<tag k="ssr:stedsnr" v="643874" />
		<tag k="waterway" v="stream" />
	</node>
	<node id="-753311" lat="63.0922583299" lon="10.2345999996">
		<tag k="alt_name" v="Skjerva" />
		<tag k="name" v="Kvernbekken" />
		<tag k="ssr:stedsnr" v="643870" />
		<tag k="waterway" v="stream" />
	</node>
	<node id="-753308" lat="63.0906694428" lon="10.2293999901">
		<tag k="name" v="Nylendbekken" />
		<tag k="ssr:stedsnr" v="643866" />
		<tag k="waterway" v="stream" />
	</node>
	<node id="-753304" lat="63.2253916682" lon="10.4159111075">
		<tag k="name" v="Bjørndalsbekken" />
		<tag k="ssr:stedsnr" v="643841" />
		<tag k="waterway" v="stream" />
	</node>
	<node id="-753293" lat="63.1262277796" lon="9.88960000486">
		<tag k="name" v="Lomtjønna" />
		<tag k="natural" v="water" />
		<tag k="ssr:stedsnr" v="643745" />
	</node>
	<node id="-753291" lat="63.1416638878" lon="9.89488889332">
		<tag k="name" v="Syndstronget" />
		<tag k="natural" v="strait" />
		<tag k="ssr:stedsnr" v="643741" />
	</node>
	<node id="-753288" lat="63.1255583333" lon="9.90604166353">
		<tag k="name" v="Skoldosen" />
		<tag k="natural" v="bay" />
		<tag k="ssr:stedsnr" v="643730" />
	</node>
	<node id="-751236" lat="63.124900002" lon="10.6344666628">
		<tag k="name" v="Sandåa" />
		<tag k="ssr:stedsnr" v="582930" />
		<tag k="waterway" v="stream" />
	</node>
	<node id="-751235" lat="63.0932527822" lon="10.3358527859">
		<tag k="name" v="Møssmørbekken" />
		<tag k="ssr:stedsnr" v="582922" />
		<tag k="waterway" v="stream" />
	</node>
	<node id="-751227" lat="63.1288805566" lon="10.14373334">
		<tag k="name" v="Vikabekken" />
		<tag k="ssr:stedsnr" v="582523" />
		<tag k="waterway" v="stream" />
	</node>
	<node id="-753272" lat="63.0875361138" lon="10.0984527692">
		<tag k="name" v="Håmmårdalsbekken" />
		<tag k="ssr:stedsnr" v="643602" />
		<tag k="waterway" v="stream" />
	</node>
	<node id="-753262" lat="63.1246833311" lon="10.1734666673">
		<tag k="name" v="Hårråklettjønna" />
		<tag k="natural" v="water" />
		<tag k="ssr:stedsnr" v="643555" />
	</node>
	<node id="-752389" lat="63.1267138849" lon="10.3114111064">
		<tag k="name" v="Litlvatnet" />
		<tag k="natural" v="water" />
		<tag k="ssr:stedsnr" v="316879" />
	</node>
	<node id="-751207" lat="63.1395083354" lon="10.1978361087">
		<tag k="name" v="Støggeråsholet" />
		<tag k="natural" v="bay" />
		<tag k="ssr:stedsnr" v="704988" />
	</node>
	<node id="-753253" lat="63.1555472205" lon="10.1163000081">
		<tag k="name" v="Brunnsdalsbekken" />
		<tag k="ssr:stedsnr" v="643494" />
		<tag k="waterway" v="stream" />
	</node>
	<node id="-751202" lat="63.1557666709" lon="10.1769694448">
		<tag k="name" v="Brann-neset" />
		<tag k="natural" v="cape" />
		<tag k="ssr:stedsnr" v="704965" />
	</node>
	<node id="-753242" lat="63.0285583289" lon="10.060363892">
		<tag k="name" v="Krokuttjønndammen" />
		<tag k="natural" v="bay" />
		<tag k="ssr:stedsnr" v="643370" />
	</node>
	<node id="-751186" lat="63.2177833321" lon="10.4316416589">
		<tag k="name" v="Bjørgafossen" />
		<tag k="natural" v="waterfall" />
		<tag k="ssr:stedsnr" v="704825" />
	</node>
	<node id="-751182" lat="63.1999472257" lon="10.4745805595">
		<tag k="name" v="Rangåa" />
		<tag k="ssr:stedsnr" v="704812" />
		<tag k="waterway" v="stream" />
	</node>
	<node id="-753229" lat="63.0874416691" lon="10.0169999956">
		<tag k="name" v="Råkbekken" />
		<tag k="ssr:stedsnr" v="643308" />
		<tag k="waterway" v="stream" />
	</node>
	<node id="-753227" lat="63.0444305514" lon="10.1063666667">
		<tag k="name" v="Storbekken" />
		<tag k="ssr:stedsnr" v="643291" />
		<tag k="waterway" v="stream" />
	</node>
	<node id="-753224" lat="63.1059999973" lon="9.9575833261">
		<tag k="name" v="Lauva" />
		<tag k="ssr:stedsnr" v="643260" />
		<tag k="waterway" v="stream" />
	</node>
	<node id="-753221" lat="63.1601805584" lon="10.3487333292">
		<tag k="name" v="Møstavatnet" />
		<tag k="natural" v="water" />
		<tag k="old_name" v="Møstadvatnet" />
		<tag k="ssr:stedsnr" v="643247" />
		<tag k="water" v="lake" />
	</node>
	<node id="-751168" lat="63.1507027773" lon="10.010166661">
		<tag k="name" v="Brubekken" />
		<tag k="ssr:stedsnr" v="704621" />
		<tag k="waterway" v="stream" />
	</node>
	<node id="-751167" lat="63.0740194402" lon="10.184769442">
		<tag k="name" v="Skykjosen" />
		<tag k="natural" v="bay" />
		<tag k="ssr:stedsnr" v="704598" />
	</node>
	<node id="-751160" lat="63.1127249991" lon="10.1445111095">
		<tag k="name" v="Åsatjønna" />
		<tag k="natural" v="water" />
		<tag k="ssr:stedsnr" v="704533" />
	</node>
	<node id="-753207" lat="63.2154749986" lon="10.3110805561">
		<tag k="name" v="Nyhushølen" />
		<tag k="place" v="locality" />
		<tag k="ssr:stedsnr" v="643115" />
	</node>
	<node id="-753204" lat="63.1827861079" lon="10.185875">
		<tag k="name" v="Nessan" />
		<tag k="natural" v="cape" />
		<tag k="ssr:stedsnr" v="643046" />
	</node>
	<node id="-753201" lat="63.2044083365" lon="10.2202527783">
		<tag k="name" v="Torkjeltjønnbekken" />
		<tag k="ssr:stedsnr" v="643033" />
		<tag k="waterway" v="stream" />
	</node>
	<node id="-751150" lat="63.1790805534" lon="10.0793888793">
		<tag k="name" v="Rotåstjønnbekken" />
		<tag k="ssr:stedsnr" v="704457" />
		<tag k="waterway" v="stream" />
	</node>
	<node id="-753195" lat="63.0869694461" lon="10.3225916642">
		<tag k="name" v="Storgyllvatnet" />
		<tag k="natural" v="water" />
		<tag k="ssr:stedsnr" v="619957" />
	</node>
	<node id="-751142" lat="63.0774583364" lon="10.0662361041">
		<tag k="name" v="Løva" />
		<tag k="ssr:stedsnr" v="704396" />
		<tag k="waterway" v="stream" />
	</node>
	<node id="-753189" lat="63.1985000015" lon="10.5061138964">
		<tag k="name" v="Øvre Teigatjønna" />
		<tag k="natural" v="water" />
		<tag k="ssr:stedsnr" v="619848" />
	</node>
	<node id="-751139" lat="63.1695388885" lon="10.030669445">
		<tag k="name" v="Meråa" />
		<tag k="ssr:stedsnr" v="704370" />
		<tag k="waterway" v="stream" />
	</node>
	<node id="-753186" lat="63.1760305596" lon="10.5932499911">
		<tag k="name" v="Svarttjønnin" />
		<tag k="natural" v="water" />
		<tag k="ssr:stedsnr" v="619795" />
	</node>
	<node id="-751536" lat="63.2240749996" lon="10.3267861029">
		<tag k="alt_name" v="Midflåbekken" />
		<tag k="name" v="Midtflåbekken" />
		<tag k="ssr:stedsnr" v="922718" />
		<tag k="waterway" v="stream" />
	</node>
	<node id="-753173" lat="63.2175444482" lon="10.1564750027">
		<tag k="name" v="Storholmen" />
		<tag k="place" v="islet" />
		<tag k="ssr:stedsnr" v="619258" />
	</node>
	<node id="-753170" lat="63.1182611097" lon="10.0304250088">
		<tag k="name" v="Langåsvatnet" />
		<tag k="natural" v="water" />
		<tag k="ssr:stedsnr" v="619033" />
	</node>
	<node id="-753169" lat="63.2536472207" lon="10.341447218">
		<tag k="name" v="Lomtjønna" />
		<tag k="natural" v="water" />
		<tag k="ssr:stedsnr" v="619238" />
	</node>
	<node id="-753163" lat="63.0525777809" lon="10.1128611049">
		<tag k="name" v="Svarttjønna" />
		<tag k="natural" v="water" />
		<tag k="ssr:stedsnr" v="618584" />
	</node>
	<node id="-751114" lat="63.1653944408" lon="10.425594447">
		<tag k="name" v="Litlbekken" />
		<tag k="ssr:stedsnr" v="704222" />
		<tag k="waterway" v="stream" />
	</node>
	<node id="-751113" lat="63.1633833375" lon="10.4295444468">
		<tag k="name" v="Huaren" />
		<tag k="ssr:stedsnr" v="704221" />
		<tag k="waterway" v="stream" />
	</node>
	<node id="-751112" lat="63.1607777802" lon="10.410399991">
		<tag k="name" v="Kampbekken" />
		<tag k="ssr:stedsnr" v="704220" />
		<tag k="waterway" v="stream" />
	</node>
	<node id="-753159" lat="63.1392000034" lon="9.90066945122">
		<tag k="alt_name" v="Syndsodden" />
		<tag k="name" v="Sundsodden" />
		<tag k="natural" v="cape" />
		<tag k="ssr:stedsnr" v="618078" />
	</node>
	<node id="-753156" lat="63.1359805547" lon="10.1122666716">
		<tag k="name" v="Skjersjøbekken" />
		<tag k="ssr:stedsnr" v="618065" />
		<tag k="waterway" v="stream" />
	</node>
	<node id="-751106" lat="63.2218194473" lon="10.308783342">
		<tag k="name" v="Smedbekken" />
		<tag k="ssr:stedsnr" v="704085" />
		<tag k="waterway" v="stream" />
	</node>
	<node id="-751105" lat="63.2224694454" lon="10.2303805583">
		<tag k="name" v="Stjørdalsbekken" />
		<tag k="ssr:stedsnr" v="704082" />
		<tag k="waterway" v="stream" />
	</node>
	<node id="-751102" lat="63.173283335" lon="10.1709027796">
		<tag k="name" v="Grunnvika" />
		<tag k="natural" v="bay" />
		<tag k="ssr:stedsnr" v="704053" />
	</node>
	<node id="-753137" lat="63.1351722198" lon="10.4740611144">
		<tag k="name" v="Sanddalsvatnet" />
		<tag k="natural" v="water" />
		<tag k="ssr:stedsnr" v="583848" />
		<tag k="water" v="lake" />
	</node>
	<node id="-751086" lat="63.1456194474" lon="10.2248500076">
		<tag k="name" v="Hustjønna" />
		<tag k="natural" v="water" />
		<tag k="ssr:stedsnr" v="557861" />
	</node>
	<node id="-751085" lat="63.2138750039" lon="10.5282166584">
		<tag k="name" v="Brunga" />
		<tag k="ssr:stedsnr" v="557659" />
		<tag k="waterway" v="river" />
	</node>
	<node id="-753125" lat="63.2181527791" lon="10.3553833382">
		<tag k="name" v="Litlsolotjønna" />
		<tag k="natural" v="water" />
		<tag k="ssr:stedsnr" v="583766" />
	</node>
	<node id="-751073" lat="63.1039249999" lon="10.5536305491">
		<tag k="name" v="Håen" />
		<tag k="natural" v="water" />
		<tag k="ssr:stedsnr" v="680930" />
		<tag k="water" v="lake" />
	</node>
	<node id="-751524" lat="63.1489333331" lon="10.1054194396">
		<tag k="alt_name" v="Gaustovatnet;Gausto-vatnet" />
		<tag k="name" v="Gaustadvatnet" />
		<tag k="natural" v="water" />
		<tag k="ssr:stedsnr" v="922112" />
		<tag k="water" v="lake" />
	</node>
	<node id="-751061" lat="63.1866916676" lon="10.5414694355">
		<tag k="name" v="Fjelltjønna" />
		<tag k="natural" v="water" />
		<tag k="ssr:stedsnr" v="680811" />
	</node>
	<node id="-751060" lat="63.1874249961" lon="10.4595277827">
		<tag k="alt_name" v="Bortntjønna" />
		<tag k="name" v="Bortstjønna" />
		<tag k="natural" v="water" />
		<tag k="ssr:stedsnr" v="680807" />
	</node>
	<node id="-753107" lat="63.1947861081" lon="10.0842861182">
		<tag k="name" v="Gurovassbekken" />
		<tag k="ssr:stedsnr" v="583514" />
		<tag k="waterway" v="stream" />
	</node>
	<node id="-753106" lat="63.1838305599" lon="10.1818833304">
		<tag k="name" v="Tangan" />
		<tag k="natural" v="cape" />
		<tag k="ssr:stedsnr" v="583035" />
	</node>
	<node id="-751054" lat="63.0974777777" lon="10.0755916698">
		<tag k="name" v="Damvatnet" />
		<tag k="natural" v="water" />
		<tag k="ssr:stedsnr" v="497538" />
	</node>
	<node id="-753100" lat="63.1417416648" lon="10.1862555568">
		<tag k="name" v="Tjønna" />
		<tag k="natural" v="water" />
		<tag k="ssr:stedsnr" v="582995" />
	</node>
	<node id="-751048" lat="63.1497777788" lon="10.4859194358">
		<tag k="name" v="Langvatnet" />
		<tag k="natural" v="water" />
		<tag k="ssr:stedsnr" v="497471" />
		<tag k="water" v="lake" />
	</node>
	<node id="-751047" lat="63.2043055526" lon="10.4188805531">
		<tag k="name" v="Kaldvella" />
		<tag k="ssr:stedsnr" v="497464" />
		<tag k="waterway" v="river" />
	</node>
	<node id="-751042" lat="63.1446055526" lon="10.1506555527">
		<tag k="name" v="Storholmen" />
		<tag k="place" v="islet" />
		<tag k="ssr:stedsnr" v="497089" />
	</node>
	<node id="-751041" lat="63.1362638902" lon="9.91547776931">
		<tag k="name" v="Hestholmen" />
		<tag k="place" v="islet" />
		<tag k="ssr:stedsnr" v="497079" />
	</node>
	<node id="-751037" lat="63.0798999975" lon="10.1158055604">
		<tag k="name" v="Grimstjønna" />
		<tag k="natural" v="water" />
		<tag k="ssr:stedsnr" v="680585" />
	</node>
	<node id="-751035" lat="63.2025500015" lon="10.2075333329">
		<tag k="name" v="Torkjeltjønna" />
		<tag k="natural" v="water" />
		<tag k="ssr:stedsnr" v="680239" />
	</node>
	<node id="-751033" lat="63.19571389" lon="10.1509138935">
>>>>>>> e1d4bc35ff8a6074a6f2e91616a996b547c36f15
		<tag k="name" v="Strandaholmen" />
		<tag k="place" v="islet" />
		<tag k="ssr:stedsnr" v="680207" />
	</node>
<<<<<<< HEAD
	<node lat="63.18742499606805" lon="10.459527782701416" id="-29853">
		<tag k="alt_name" v="Bortntjønna" />
		<tag k="name" v="Bortstjønna" />
		<tag k="natural" v="water" />
		<tag k="ssr:stedsnr" v="680807" />
	</node>
	<node lat="63.186691667580284" lon="10.541469435517993" id="-29854">
		<tag k="name" v="Fjelltjønna" />
		<tag k="natural" v="water" />
		<tag k="ssr:stedsnr" v="680811" />
	</node>
	<node lat="63.09422499730556" lon="10.295366666009947" id="-29860">
		<tag k="name" v="Gyllvatnet" />
		<tag k="natural" v="water" />
		<tag k="ssr:stedsnr" v="680960" />
	</node>
	<node lat="63.16077778022876" lon="10.410399990971692" id="-29869">
		<tag k="name" v="Kampbekken" />
		<tag k="ssr:stedsnr" v="704220" />
		<tag k="waterway" v="stream" />
	</node>
	<node lat="63.16338333749855" lon="10.429544446840174" id="-29870">
		<tag k="name" v="Huaren" />
		<tag k="ssr:stedsnr" v="704221" />
		<tag k="waterway" v="stream" />
	</node>
	<node lat="63.16539444082032" lon="10.425594447011974" id="-29871">
		<tag k="name" v="Litlbekken" />
		<tag k="ssr:stedsnr" v="704222" />
		<tag k="waterway" v="stream" />
	</node>
	<node lat="63.1695388885278" lon="10.030669444994674" id="-29886">
		<tag k="name" v="Meråa" />
		<tag k="ssr:stedsnr" v="704370" />
		<tag k="waterway" v="stream" />
	</node>
	<node lat="63.08035555156888" lon="10.110638885368578" id="-29892">
		<tag k="name" v="Grimsbekken" />
		<tag k="ssr:stedsnr" v="704615" />
		<tag k="waterway" v="stream" />
	</node>
	<node lat="63.150702777340165" lon="10.010166660967558" id="-29893">
		<tag k="name" v="Brubekken" />
		<tag k="ssr:stedsnr" v="704621" />
		<tag k="waterway" v="stream" />
	</node>
	<node lat="63.231383336945285" lon="10.317499996839242" id="-29900">
		<tag k="name" v="Stamtjønna" />
		<tag k="natural" v="water" />
		<tag k="ssr:stedsnr" v="704736" />
	</node>
	<node lat="63.19994722565415" lon="10.474580559536367" id="-29906">
		<tag k="name" v="Rangåa" />
		<tag k="ssr:stedsnr" v="704812" />
		<tag k="waterway" v="stream" />
	</node>
	<node lat="63.15576667090193" lon="10.17696944483244" id="-29910">
		<tag k="name" v="Brann-neset" />
		<tag k="natural" v="cape" />
		<tag k="ssr:stedsnr" v="704965" />
	</node>
	<node lat="63.11461701987579" lon="9.940420718304829" id="-29925">
		<tag k="name" v="Ellingsvatnet" />
		<tag k="natural" v="water" />
		<tag k="ssr:stedsnr" v="740011" />
	</node>
	<node lat="63.119452781367364" lon="9.916888889113636" id="-29928">
		<tag k="name" v="Hølbekken" />
		<tag k="ssr:stedsnr" v="740041" />
		<tag k="waterway" v="stream" />
	</node>
	<node lat="63.1585888890365" lon="9.95231110364634" id="-29932">
		<tag k="name" v="Blokkotjønna" />
		<tag k="natural" v="water" />
		<tag k="ssr:stedsnr" v="740115" />
	</node>
	<node lat="63.17391388525114" lon="10.196230554487805" id="-29934">
		<tag k="name" v="Solemstjønna" />
		<tag k="natural" v="water" />
		<tag k="ssr:stedsnr" v="740129" />
	</node>
	<node lat="63.13674166256735" lon="10.509361106626063" id="-29942">
		<tag k="name" v="Hobekken" />
		<tag k="ssr:stedsnr" v="740839" />
		<tag k="waterway" v="stream" />
	</node>
	<node lat="63.13917499551904" lon="10.494880558844672" id="-29943">
		<tag k="name" v="Litlvatnet" />
		<tag k="natural" v="water" />
		<tag k="ssr:stedsnr" v="740842" />
	</node>
	<node lat="63.193277777099745" lon="10.541699999737675" id="-29944">
		<tag k="name" v="Fjellbekken" />
		<tag k="ssr:stedsnr" v="740792" />
		<tag k="waterway" v="stream" />
	</node>
	<node lat="63.092838887922" lon="10.361863889031827" id="-29948">
		<tag k="name" v="Vollatjønnin" />
		<tag k="natural" v="water" />
		<tag k="ssr:stedsnr" v="740923" />
	</node>
	<node lat="63.1200527778112" lon="10.020511108496747" id="-29972">
		<tag k="name" v="Sagbekken" />
		<tag k="ssr:stedsnr" v="764242" />
		<tag k="waterway" v="stream" />
	</node>
	<node lat="63.12370277352427" lon="10.174775008658996" id="-29978">
		<tag k="name" v="Saudalsbekken" />
		<tag k="ssr:stedsnr" v="764556" />
		<tag k="waterway" v="stream" />
	</node>
	<node lat="63.23898055627455" lon="10.154308329929405" id="-29984">
		<tag k="name" v="Bjørnholmen" />
		<tag k="place" v="islet" />
		<tag k="ssr:stedsnr" v="765052" />
	</node>
	<node lat="63.07400277961056" lon="10.015644438154435" id="-29989">
		<tag k="name" v="Tjønnåsbekken" />
		<tag k="ssr:stedsnr" v="765406" />
		<tag k="waterway" v="stream" />
	</node>
	<node lat="63.162794448362405" lon="10.033311111254267" id="-29996">
		<tag k="name" v="Kvernbekken" />
		<tag k="ssr:stedsnr" v="765717" />
		<tag k="waterway" v="stream" />
	</node>
	<node lat="63.095636107601386" lon="10.300358330263492" id="-30011">
		<tag k="name" v="Vollosen" />
		<tag k="natural" v="bay" />
		<tag k="ssr:stedsnr" v="765890" />
	</node>
	<node lat="63.18538888552367" lon="10.485488883329156" id="-30014">
		<tag k="name" v="Holbekken" />
		<tag k="ssr:stedsnr" v="765901" />
		<tag k="waterway" v="stream" />
	</node>
	<node lat="63.1197194412918" lon="10.133511115230249" id="-30044">
		<tag k="name" v="Øverkåstjønna" />
		<tag k="natural" v="water" />
		<tag k="ssr:stedsnr" v="801036" />
	</node>
	<node lat="63.20578611557932" lon="10.144174994631067" id="-30049">
		<tag k="name" v="Ånøya" />
		<tag k="natural" v="water" />
		<tag k="ssr:stedsnr" v="801206" />
		<tag k="water" v="lake" />
	</node>
	<node lat="63.22569166461228" lon="10.16466387919054" id="-30051">
		<tag k="alt_name" v="Måssan" />
		<tag k="name" v="Måssån" />
		<tag k="old_name" v="Måsan" />
		<tag k="place" v="islet" />
		<tag k="ssr:stedsnr" v="801225" />
	</node>
	<node lat="63.23212500217807" lon="10.492916666369641" id="-30055">
		<tag k="name" v="Rangåa" />
		<tag k="ssr:stedsnr" v="801711" />
		<tag k="waterway" v="river" />
	</node>
	<node lat="63.10401110798683" lon="10.431286109800265" id="-30058">
		<tag k="alt_name" v="Gravabekken" />
		<tag k="name" v="Gråvåbekken" />
		<tag k="ssr:stedsnr" v="801904" />
		<tag k="waterway" v="stream" />
	</node>
	<node lat="63.15372221792894" lon="10.165966658297446" id="-30086">
		<tag k="name" v="Langneset" />
		<tag k="natural" v="cape" />
		<tag k="ssr:stedsnr" v="922109" />
	</node>
	<node lat="63.148933333134266" lon="10.105419439550841" id="-30087">
		<tag k="alt_name" v="Gaustovatnet;Gausto-vatnet" />
		<tag k="name" v="Gaustadvatnet" />
		<tag k="natural" v="water" />
		<tag k="ssr:stedsnr" v="922112" />
		<tag k="water" v="lake" />
	</node>
	<node lat="63.19595833495163" lon="10.51049721531006" id="-30101">
		<tag k="name" v="Litlrangåa" />
		<tag k="ssr:stedsnr" v="826931" />
		<tag k="waterway" v="stream" />
	</node>
	<node lat="63.22532500014676" lon="10.494033343205952" id="-30102">
		<tag k="name" v="Svartdalstjønna" />
		<tag k="natural" v="water" />
		<tag k="ssr:stedsnr" v="826944" />
	</node>
	<node lat="63.31051944569974" lon="10.346727777697335" id="-30115">
		<tag k="name" v="Stokkbekken" />
		<tag k="ssr:stedsnr" v="826876" />
		<tag k="waterway" v="stream" />
	</node>
	<node lat="63.10174444807626" lon="10.091047216057316" id="-30121">
		<tag k="name" v="Tørrestjønna" />
		<tag k="natural" v="water" />
		<tag k="ssr:stedsnr" v="922527" />
	</node>
	<node lat="63.22407499955092" lon="10.326786102898353" id="-30125">
		<tag k="alt_name" v="Midflåbekken" />
		<tag k="name" v="Midtflåbekken" />
		<tag k="ssr:stedsnr" v="922718" />
		<tag k="waterway" v="stream" />
	</node>
	<node lat="63.16338888811703" lon="10.523355553675563" id="-30128">
		<tag k="loc_name" v="Åstjønna" />
		<tag k="name" v="Nordre Helvetet" />
		<tag k="natural" v="water" />
		<tag k="old_name" v="Helvete, nordre" />
		<tag k="ssr:stedsnr" v="922837" />
	</node>
	<node lat="63.16036666424785" lon="10.396061119697041" id="-30129">
		<tag k="name" v="Storvatnet" />
		<tag k="natural" v="water" />
		<tag k="ssr:stedsnr" v="922840" />
	</node>
	<node lat="63.15399999744073" lon="10.456419435790462" id="-30130">
		<tag k="name" v="Vårlibekken" />
		<tag k="ssr:stedsnr" v="922841" />
		<tag k="waterway" v="stream" />
	</node>
	<node lat="63.116155557760315" lon="10.103975009456683" id="-30135">
		<tag k="name" v="Svartbergbekken" />
		<tag k="ssr:stedsnr" v="923042" />
		<tag k="waterway" v="stream" />
	</node>
	<node lat="63.11998611105433" lon="9.941275008128347" id="-30137">
		<tag k="name" v="Skolda" />
		<tag k="ssr:stedsnr" v="923059" />
		<tag k="waterway" v="river" />
	</node>
	<node lat="63.09651110671984" lon="10.418219444630187" id="-30140">
		<tag k="alt_name" v="Klevatjønna" />
		<tag k="name" v="Kleivatjønna" />
		<tag k="natural" v="water" />
		<tag k="ssr:stedsnr" v="923933" />
	</node>
	<node lat="63.185636109046214" lon="10.378738886744225" id="-30146">
		<tag k="name" v="Lomtjønna" />
		<tag k="natural" v="water" />
		<tag k="ssr:stedsnr" v="923832" />
	</node>
	<node lat="63.117249995780966" lon="10.360249999330282" id="-30147">
		<tag k="name" v="Skarvbekken" />
		<tag k="ssr:stedsnr" v="923851" />
		<tag k="waterway" v="stream" />
	</node>
	<node lat="63.18594444885308" lon="10.090933338860497" id="-30160">
		<tag k="alt_name" v="Grevsjøen, store" />
		<tag k="name" v="Storgrevsjøen" />
		<tag k="natural" v="water" />
		<tag k="ssr:stedsnr" v="862210" />
		<tag k="water" v="lake" />
	</node>
	<node lat="63.221250002372926" lon="10.409724998367928" id="-30165">
		<tag k="name" v="Langvatnet" />
		<tag k="natural" v="water" />
		<tag k="ssr:stedsnr" v="862704" />
		<tag k="water" v="lake" />
	</node>
	<node lat="63.14619166679749" lon="10.389805552528719" id="-30170">
		<tag k="name" v="Talbergsvatnet" />
		<tag k="natural" v="water" />
		<tag k="ssr:stedsnr" v="862871" />
	</node>
	<node lat="63.19370833065795" lon="10.242152778362005" id="-30177">
		<tag k="name" v="Sveodden" />
		<tag k="natural" v="cape" />
		<tag k="ssr:stedsnr" v="886016" />
	</node>
	<node lat="63.09291944369534" lon="10.082677775426369" id="-30182">
		<tag k="name" v="Giltjønna" />
		<tag k="natural" v="water" />
		<tag k="ssr:stedsnr" v="886319" />
	</node>
	<node lat="63.151974998402316" lon="10.063522223172606" id="-30188">
		<tag k="name" v="Vinnåa" />
		<tag k="ssr:stedsnr" v="886706" />
		<tag k="waterway" v="stream" />
	</node>
	<node lat="63.152425003458625" lon="10.067738881263635" id="-30189">
		<tag k="name" v="Strangliholbekken" />
		<tag k="ssr:stedsnr" v="886710" />
		<tag k="waterway" v="stream" />
	</node>
	<node lat="63.143697226643695" lon="9.970216673391578" id="-30192">
		<tag k="name" v="Rønningsbekken" />
		<tag k="ssr:stedsnr" v="886736" />
		<tag k="waterway" v="stream" />
	</node>
	<node lat="63.13564444626299" lon="9.983094443567476" id="-30193">
		<tag k="name" v="Slættbekken" />
		<tag k="ssr:stedsnr" v="886740" />
		<tag k="waterway" v="stream" />
	</node>
	<node lat="63.1416555557268" lon="9.937805561910437" id="-30194">
		<tag k="name" v="Sagbekken" />
		<tag k="ssr:stedsnr" v="886741" />
		<tag k="waterway" v="stream" />
	</node>
	<node lat="63.10672499763463" lon="10.271338878983583" id="-30199">
		<tag k="name" v="Dammen" />
		<tag k="natural" v="water" />
		<tag k="ssr:stedsnr" v="886855" />
		<tag k="water" v="pond" />
	</node>
	<node lat="63.16526666761924" lon="10.16730278477191" id="-30201">
		<tag k="name" v="Småholman" />
		<tag k="place" v="islet" />
		<tag k="ssr:stedsnr" v="886951" />
	</node>
	<node lat="63.16545555851615" lon="10.174505558246043" id="-30202">
		<tag k="name" v="Sandøra" />
		<tag k="natural" v="shoal" />
		<tag k="place" v="locality" />
		<tag k="ssr:stedsnr" v="886965" />
	</node>
	<node lat="63.13805278145464" lon="10.054141661646367" id="-30204">
		<tag k="name" v="Litlslættbekken" />
		<tag k="ssr:stedsnr" v="887146" />
		<tag k="waterway" v="stream" />
	</node>
	<node lat="63.189644440863226" lon="10.14782499064767" id="-30208">
		<tag k="name" v="Myraholmen" />
		<tag k="place" v="islet" />
		<tag k="ssr:stedsnr" v="887067" />
	</node>
	<node lat="63.11596110706859" lon="10.505330564514292" id="-30223">
		<tag k="name" v="Odalsbekken" />
		<tag k="ssr:stedsnr" v="887822" />
		<tag k="waterway" v="stream" />
	</node>
	<node lat="63.133091670148914" lon="10.484347215156228" id="-30225">
		<tag k="name" v="Stordalsbekken" />
		<tag k="ssr:stedsnr" v="887849" />
		<tag k="waterway" v="stream" />
	</node>
	<node lat="63.216505554342994" lon="10.412963884234696" id="-30226">
		<tag k="name" v="Moatjønna" />
		<tag k="natural" v="water" />
		<tag k="ssr:stedsnr" v="887859" />
	</node>
	<node lat="63.21681388834007" lon="10.42323888388014" id="-30227">
		<tag k="name" v="Børgabekken" />
		<tag k="ssr:stedsnr" v="887861" />
		<tag k="waterway" v="stream" />
	</node>
	<node lat="63.09551388614178" lon="10.098813897262053" id="-30236">
		<tag k="name" v="Buvatnet" />
		<tag k="natural" v="water" />
		<tag k="ssr:stedsnr" v="922495" />
	</node>
	<node lat="63.24391667044215" lon="10.365188886743578" id="-30237">
		<tag k="name" v="Ulvtjønna" />
		<tag k="natural" v="water" />
		<tag k="ssr:stedsnr" v="922607" />
	</node>
	<node lat="63.217413889525524" lon="10.36001943884693" id="-30239">
		<tag k="name" v="Solotjønna" />
		<tag k="natural" v="water" />
		<tag k="ssr:stedsnr" v="922703" />
	</node>
	<node lat="63.1805111103037" lon="10.381274995670712" id="-30255">
		<tag k="name" v="Skotta" />
		<tag k="ssr:stedsnr" v="923774" />
		<tag k="waterway" v="stream" />
	</node>
	<node lat="63.199900004036316" lon="10.165863889792542" id="-30268">
		<tag k="name" v="Aunbukta" />
		<tag k="natural" v="bay" />
		<tag k="ssr:stedsnr" v="947439" />
	</node>
	<node lat="63.205033333015095" lon="10.171013891279921" id="-30269">
		<tag k="name" v="Kvernbekken" />
		<tag k="ssr:stedsnr" v="947440" />
		<tag k="waterway" v="stream" />
	</node>
	<node lat="63.17836666880109" lon="10.111016670551168" id="-30274">
		<tag k="name" v="Setra" />
		<tag k="ssr:stedsnr" v="947458" />
		<tag k="waterway" v="river" />
	</node>
	<node lat="63.19290277407758" lon="10.25074999316805" id="-30279">
		<tag k="name" v="Osen" />
		<tag k="natural" v="bay" />
		<tag k="ssr:stedsnr" v="947132" />
	</node>
	<node lat="63.289224999358744" lon="10.248738893019452" id="-30284">
		<tag k="name" v="Varmbubekken" />
		<tag k="ssr:stedsnr" v="947179" />
		<tag k="waterway" v="stream" />
	</node>
	<node lat="63.24583611404172" lon="10.367711114402" id="-30295">
		<tag k="name" v="Vulubekken" />
		<tag k="ssr:stedsnr" v="947735" />
		<tag k="waterway" v="stream" />
	</node>
	<node lat="63.1674638895121" lon="10.05092499218923" id="-30301">
		<tag k="name" v="Holbekken" />
		<tag k="ssr:stedsnr" v="947688" />
		<tag k="waterway" v="stream" />
	</node>
	<node lat="63.07329107268931" lon="10.256836882897458" id="-30306">
		<tag k="name" v="Bruahølen" />
		<tag k="place" v="locality" />
		<tag k="ssr:stedsnr" v="947935" />
	</node>
	<node lat="63.11196566636105" lon="10.093149528681653" id="-30334">
		<tag k="name" v="Johansslættbekken" />
		<tag k="old_name" v="Johanslettbekken" />
		<tag k="ssr:stedsnr" v="12030" />
		<tag k="waterway" v="stream" />
	</node>
	<node lat="63.117961106964636" lon="10.178305556199142" id="-30335">
		<tag k="name" v="Godfarbekken" />
		<tag k="ssr:stedsnr" v="12031" />
		<tag k="waterway" v="stream" />
	</node>
	<node lat="63.133488889245015" lon="9.899086121005862" id="-30338">
		<tag k="name" v="Svorksjøen" />
		<tag k="natural" v="water" />
		<tag k="ssr:stedsnr" v="12095" />
		<tag k="water" v="lake" />
	</node>
	<node lat="63.06918610733901" lon="10.11949166339794" id="-30341">
		<tag k="name" v="Sandholtvatnet" />
		<tag k="natural" v="water" />
		<tag k="old_name" v="Sandholvatnet" />
		<tag k="ssr:stedsnr" v="12492" />
	</node>
	<node lat="63.09649167051615" lon="9.985183339750344" id="-30343">
		<tag k="name" v="Rødstjønna" />
		<tag k="natural" v="water" />
		<tag k="ssr:stedsnr" v="12542" />
	</node>
	<node lat="63.026277780838306" lon="10.038541662622423" id="-30345">
		<tag k="name" v="Okstjønna" />
		<tag k="natural" v="water" />
		<tag k="ssr:stedsnr" v="12677" />
	</node>
	<node lat="63.23536666515069" lon="10.367311114607869" id="-30348">
		<tag k="name" v="Lomtjønna" />
		<tag k="natural" v="water" />
		<tag k="ssr:stedsnr" v="12742" />
	</node>
	<node lat="63.10046666496118" lon="10.303588885005713" id="-30349">
		<tag k="name" v="Svartvatnet" />
		<tag k="natural" v="water" />
		<tag k="ssr:stedsnr" v="12923" />
	</node>
	<node lat="63.142011107475376" lon="10.344544451461823" id="-30356">
		<tag k="name" v="Litlvatnet" />
		<tag k="natural" v="water" />
		<tag k="ssr:stedsnr" v="36189" />
		<tag k="water" v="lake" />
	</node>
	<node lat="63.14034444331487" lon="10.352736104529676" id="-30357">
		<tag k="name" v="Bløtdalsbekken" />
		<tag k="ssr:stedsnr" v="36191" />
		<tag k="waterway" v="stream" />
	</node>
	<node lat="63.119661106823074" lon="10.069802785801084" id="-30373">
		<tag k="name" v="Sørgjerdsbekken" />
		<tag k="ssr:stedsnr" v="36326" />
		<tag k="waterway" v="stream" />
	</node>
	<node lat="63.141041665758515" lon="10.098038896879492" id="-30380">
		<tag k="name" v="Litlbekken" />
		<tag k="ssr:stedsnr" v="36488" />
		<tag k="waterway" v="stream" />
	</node>
	<node lat="63.25060833202842" lon="10.307636109859828" id="-30391">
		<tag k="name" v="Hødalsbekken" />
		<tag k="ssr:stedsnr" v="37127" />
		<tag k="waterway" v="stream" />
	</node>
	<node lat="63.181163890458095" lon="10.233505552704802" id="-30392">
=======
	<node id="-751032" lat="63.1649111096" lon="9.95550000751">
		<tag k="loc_name" v="Estenstotjønna" />
		<tag k="name" v="Estenstadtjønna" />
		<tag k="natural" v="water" />
		<tag k="ssr:stedsnr" v="680151" />
	</node>
	<node id="-753079" lat="63.1262027771" lon="10.2054500093">
		<tag k="name" v="Lomtjønna" />
		<tag k="natural" v="water" />
		<tag k="ssr:stedsnr" v="582575" />
	</node>
	<node id="-753077" lat="63.1068666694" lon="10.0995055509">
		<tag k="name" v="Svarttjønna" />
		<tag k="natural" v="water" />
		<tag k="ssr:stedsnr" v="582544" />
	</node>
	<node id="-751028" lat="63.1315999974" lon="10.3240083356">
		<tag k="name" v="Hauka" />
		<tag k="ssr:stedsnr" v="679792" />
		<tag k="waterway" v="stream" />
	</node>
	<node id="-753067" lat="63.1211249977" lon="10.0643999984">
		<tag k="name" v="Brennbekken" />
		<tag k="ssr:stedsnr" v="582366" />
		<tag k="waterway" v="stream" />
	</node>
	<node id="-753059" lat="63.1459361137" lon="10.107694448">
		<tag k="name" v="Vikaodden" />
		<tag k="natural" v="cape" />
		<tag k="ssr:stedsnr" v="582539" />
	</node>
	<node id="-753055" lat="63.1427694476" lon="10.4579916743">
		<tag k="name" v="Sanddalsbekken" />
		<tag k="ssr:stedsnr" v="582224" />
		<tag k="waterway" v="stream" />
	</node>
	<node id="-753052" lat="63.1196583314" lon="9.92389166466">
		<tag k="name" v="Kvernbekken" />
		<tag k="ssr:stedsnr" v="582326" />
		<tag k="waterway" v="stream" />
	</node>
	<node id="-753050" lat="63.1090249965" lon="9.92507499901">
		<tag k="name" v="Holttjønna" />
		<tag k="natural" v="water" />
		<tag k="ssr:stedsnr" v="582322" />
	</node>
	<node id="-751513" lat="63.2054472194" lon="10.5261499995">
		<tag k="name" v="Larstjønna" />
		<tag k="natural" v="water" />
		<tag k="ssr:stedsnr" v="765921" />
	</node>
	<node id="-753038" lat="63.2573083309" lon="10.2951750022">
		<tag k="name" v="Stygårdsbekken" />
		<tag k="ssr:stedsnr" v="582158" />
		<tag k="waterway" v="stream" />
	</node>
	<node id="-753036" lat="63.1961055567" lon="10.0994388881">
		<tag k="name" v="Sakktjønnbekken" />
		<tag k="ssr:stedsnr" v="570489" />
		<tag k="waterway" v="stream" />
	</node>
	<node id="-750984" lat="63.1078777795" lon="10.6151249918">
		<tag k="name" v="Burubekken" />
		<tag k="ssr:stedsnr" v="462924" />
		<tag k="waterway" v="stream" />
	</node>
	<node id="-753029" lat="63.1939027804" lon="10.5678388808">
		<tag k="name" v="Storgrønlitjønna" />
		<tag k="natural" v="water" />
		<tag k="ssr:stedsnr" v="558847" />
	</node>
	<node id="-753027" lat="63.096438889" lon="10.2855805528">
		<tag k="name" v="Gylla" />
		<tag k="ssr:stedsnr" v="558931" />
		<tag k="waterway" v="stream" />
	</node>
	<node id="-753019" lat="63.2732416664" lon="10.3644250016">
		<tag k="name" v="Tortbergtjønna" />
		<tag k="natural" v="water" />
		<tag k="ssr:stedsnr" v="558801" />
	</node>
	<node id="-753015" lat="63.2368249959" lon="10.3119611187">
		<tag k="name" v="Kvålsbekken" />
		<tag k="ssr:stedsnr" v="558786" />
		<tag k="waterway" v="stream" />
	</node>
	<node id="-750966" lat="63.1833777804" lon="10.2356444459">
		<tag k="name" v="Skiholmen" />
		<tag k="place" v="islet" />
		<tag k="ssr:stedsnr" v="437766" />
	</node>
	<node id="-750483" lat="63.0668250008" lon="10.2528499907">
		<tag k="name" v="Bjørka" />
		<tag k="ssr:stedsnr" v="270787" />
		<tag k="waterway" v="stream" />
	</node>
	<node id="-753007" lat="63.1901277795" lon="10.0758499991">
		<tag k="alt_name" v="Gurivatnet" />
		<tag k="name" v="Gurisvatnet" />
		<tag k="natural" v="water" />
		<tag k="ssr:stedsnr" v="558193" />
	</node>
	<node id="-753000" lat="63.1381666676" lon="10.1298277826">
		<tag k="name" v="Skjersjøen" />
		<tag k="natural" v="water" />
		<tag k="ssr:stedsnr" v="558086" />
	</node>
	<node id="-750950" lat="63.2759499981" lon="10.3132416756">
		<tag k="alt_name" v="Loddbekken" />
		<tag k="name" v="Lodda" />
		<tag k="ssr:stedsnr" v="498808" />
		<tag k="waterway" v="stream" />
	</node>
	<node id="-750949" lat="63.1639833292" lon="10.6162027739">
		<tag k="name" v="Flåbekken" />
		<tag k="ssr:stedsnr" v="498799" />
		<tag k="waterway" v="stream" />
	</node>
	<node id="-750947" lat="63.1652583357" lon="10.5426555511">
		<tag k="name" v="Juttjønna" />
		<tag k="natural" v="water" />
		<tag k="ssr:stedsnr" v="498796" />
	</node>
	<node id="-752988" lat="63.1485249966" lon="10.1434499924">
		<tag k="name" v="Hjultjønna" />
		<tag k="natural" v="water" />
		<tag k="ssr:stedsnr" v="557090" />
	</node>
	<node id="-750939" lat="63.1085194471" lon="10.1421333299">
		<tag k="name" v="Åsabekken" />
		<tag k="ssr:stedsnr" v="376017" />
		<tag k="waterway" v="stream" />
	</node>
	<node id="-750934" lat="63.260494444" lon="10.3324416745">
		<tag k="name" v="Øyvindstjønna" />
		<tag k="natural" v="water" />
		<tag k="ssr:stedsnr" v="498223" />
	</node>
	<node id="-750931" lat="63.1667499985" lon="9.96633889461">
		<tag k="alt_name" v="Morsjøen, store;Morsjøen" />
		<tag k="name" v="Stormorsjøen" />
		<tag k="natural" v="water" />
		<tag k="ssr:stedsnr" v="498159" />
		<tag k="water" v="lake" />
	</node>
	<node id="-750930" lat="63.1199888927" lon="10.0793777846">
		<tag k="name" v="Hestdalsbekken" />
		<tag k="ssr:stedsnr" v="498046" />
		<tag k="waterway" v="stream" />
	</node>
	<node id="-752976" lat="63.1441361067" lon="10.1857750027">
		<tag k="name" v="Bennabekken" />
		<tag k="ssr:stedsnr" v="522998" />
		<tag k="waterway" v="stream" />
	</node>
	<node id="-750921" lat="63.1887805558" lon="10.4267472306">
		<tag k="name" v="Litlkaldvellvatnet" />
		<tag k="natural" v="water" />
		<tag k="old_name" v="Kaldvellvatnet, l" />
		<tag k="ssr:stedsnr" v="497794" />
		<tag k="water" v="lake" />
	</node>
	<node id="-750920" lat="63.1817777793" lon="10.258505554">
		<tag k="name" v="Leksmyrvatnet" />
		<tag k="natural" v="water" />
		<tag k="ssr:stedsnr" v="497756" />
	</node>
	<node id="-750914" lat="63.2212027742" lon="10.1669499923">
		<tag k="name" v="Lauvodden" />
		<tag k="natural" v="cape" />
		<tag k="ssr:stedsnr" v="497214" />
	</node>
	<node id="-751156" lat="63.1296777745" lon="10.098638897">
		<tag k="name" v="Stensettjønna" />
		<tag k="natural" v="water" />
		<tag k="ssr:stedsnr" v="704507" />
	</node>
	<node id="-752943" lat="63.2316777815" lon="10.4486277695">
		<tag k="name" v="Sandtjønna" />
		<tag k="natural" v="water" />
		<tag k="ssr:stedsnr" v="522823" />
	</node>
	<node id="-752939" lat="63.132158329" lon="10.2246527734">
		<tag k="name" v="Husbekken" />
		<tag k="ssr:stedsnr" v="522779" />
		<tag k="waterway" v="stream" />
	</node>
	<node id="-750889" lat="63.1969750039" lon="10.5037499961">
		<tag k="name" v="Teigatjønnan" />
		<tag k="natural" v="water" />
		<tag k="ssr:stedsnr" v="331806" />
	</node>
	<node id="-750885" lat="63.1954823429" lon="10.5018309556">
		<tag k="name" v="Nedre Teigatjønna" />
		<tag k="natural" v="water" />
		<tag k="ssr:stedsnr" v="316852" />
	</node>
	<node id="-750884" lat="63.1673333341" lon="10.3979888848">
		<tag k="fixme" v="multiple name tags, choose one and add the other to alt_name" />
		<tag k="name" v="Kluftan;Kløftottjønnin" />
		<tag k="natural" v="water" />
		<tag k="ssr:stedsnr" v="316824" />
	</node>
	<node id="-750881" lat="63.1818194403" lon="10.2819722242">
		<tag k="name" v="Damvatnet" />
		<tag k="natural" v="water" />
		<tag k="ssr:stedsnr" v="316808" />
	</node>
	<node id="-752928" lat="63.1383472231" lon="9.97969444018">
		<tag k="name" v="Moatjønna" />
		<tag k="natural" v="water" />
		<tag k="ssr:stedsnr" v="522711" />
	</node>
	<node id="-750877" lat="63.2374750031" lon="10.1618111211">
		<tag k="name" v="Langodden" />
		<tag k="natural" v="cape" />
		<tag k="ssr:stedsnr" v="316309" />
	</node>
	<node id="-750871" lat="63.1095166642" lon="9.91995000732">
		<tag k="name" v="Løyfta" />
		<tag k="ssr:stedsnr" v="316014" />
		<tag k="waterway" v="stream" />
	</node>
	<node id="-750869" lat="63.1414111099" lon="10.5823250058">
		<tag k="name" v="Gåsvatnet" />
		<tag k="natural" v="water" />
		<tag k="ssr:stedsnr" v="315858" />
	</node>
	<node id="-750866" lat="63.2221000039" lon="10.3580305511">
		<tag k="name" v="Reitbekken" />
		<tag k="ssr:stedsnr" v="315716" />
		<tag k="waterway" v="stream" />
	</node>
	<node id="-752913" lat="63.070108331" lon="10.1737638812">
		<tag k="name" v="Blåhåmmårbekken" />
		<tag k="ssr:stedsnr" v="522620" />
		<tag k="waterway" v="stream" />
	</node>
	<node id="-750864" lat="63.2065861145" lon="10.4754305517">
		<tag k="name" v="Låkkårtjønna" />
		<tag k="natural" v="water" />
		<tag k="ssr:stedsnr" v="315705" />
	</node>
	<node id="-750940" lat="63.155550003" lon="9.90917777527">
		<tag k="name" v="Kjøsbekken" />
		<tag k="ssr:stedsnr" v="376118" />
		<tag k="waterway" v="stream" />
	</node>
	<node id="-750859" lat="63.2143499971" lon="10.1848749962">
		<tag k="name" v="Bjørsettjønna" />
		<tag k="natural" v="water" />
		<tag k="ssr:stedsnr" v="315209" />
	</node>
	<node id="-752900" lat="63.118655552" lon="10.1758611012">
		<tag k="name" v="Gofabekken" />
		<tag k="ssr:stedsnr" v="522539" />
		<tag k="waterway" v="stream" />
	</node>
	<node id="-752899" lat="63.1397222222" lon="10.1188888939">
		<tag k="name" v="Skolbakkbekken" />
		<tag k="ssr:stedsnr" v="522538" />
		<tag k="waterway" v="stream" />
	</node>
	<node id="-752897" lat="63.1486222239" lon="10.0880777859">
		<tag k="name" v="Rennarbekken" />
		<tag k="ssr:stedsnr" v="522523" />
		<tag k="waterway" v="stream" />
	</node>
	<node id="-752887" lat="63.1941249969" lon="10.1663916691">
		<tag k="name" v="Kloppvika" />
		<tag k="natural" v="bay" />
		<tag k="ssr:stedsnr" v="522439" />
	</node>
	<node id="-752883" lat="63.1820777744" lon="10.037616671">
		<tag k="name" v="Grøtåstjønna" />
		<tag k="natural" v="water" />
		<tag k="ssr:stedsnr" v="522379" />
	</node>
	<node id="-752882" lat="63.1710166631" lon="9.98888332393">
		<tag k="name" v="Øver Kvernfossen" />
		<tag k="natural" v="waterfall" />
		<tag k="ssr:stedsnr" v="522374" />
	</node>
	<node id="-752878" lat="63.0996916694" lon="9.97901944644">
		<tag k="name" v="Kvernbekken" />
		<tag k="ssr:stedsnr" v="522356" />
		<tag k="waterway" v="stream" />
	</node>
	<node id="-750827" lat="63.3305986951" lon="10.2074894115">
		<tag k="name" v="Gaulosen" />
		<tag k="natural" v="bay" />
		<tag k="ssr:stedsnr" v="462745" />
	</node>
	<node id="-750826" lat="63.142277779" lon="9.891141662">
		<tag k="name" v="Litlodden" />
		<tag k="natural" v="cape" />
		<tag k="ssr:stedsnr" v="462738" />
	</node>
	<node id="-750825" lat="63.1448027799" lon="9.8870833342">
		<tag k="name" v="Langkjøsa" />
		<tag k="natural" v="strait" />
		<tag k="ssr:stedsnr" v="462736" />
	</node>
	<node id="-752871" lat="63.1359277823" lon="10.0305555518">
		<tag k="name" v="Kvernbekken" />
		<tag k="ssr:stedsnr" v="522314" />
		<tag k="waterway" v="stream" />
	</node>
	<node id="-751141" lat="63.056688886" lon="10.0253388896">
		<tag k="name" v="Skoldsvingen" />
		<tag k="place" v="locality" />
		<tag k="ssr:stedsnr" v="704394" />
	</node>
	<node id="-752858" lat="63.1229055584" lon="9.98817500745">
		<tag k="name" v="Stensvatnet" />
		<tag k="natural" v="water" />
		<tag k="ssr:stedsnr" v="522277" />
		<tag k="water" v="lake" />
	</node>
	<node id="-752856" lat="63.092013892" lon="9.92346388422">
		<tag k="name" v="Kvernbekken" />
		<tag k="ssr:stedsnr" v="522257" />
		<tag k="waterway" v="stream" />
	</node>
	<node id="-750804" lat="63.2029055518" lon="10.1325777836">
		<tag k="name" v="Litlånøya" />
		<tag k="natural" v="bay" />
		<tag k="ssr:stedsnr" v="462445" />
	</node>
	<node id="-752851" lat="63.2081888905" lon="10.4139472307">
		<tag k="name" v="Kaldvellfossen" />
		<tag k="natural" v="waterfall" />
		<tag k="ssr:stedsnr" v="522196" />
	</node>
	<node id="-750802" lat="63.1854944455" lon="10.0278638839">
		<tag k="name" v="Gildalsbekken" />
		<tag k="ssr:stedsnr" v="462394" />
		<tag k="waterway" v="stream" />
	</node>
	<node id="-750801" lat="63.1872805518" lon="10.0481805476">
		<tag k="name" v="Røsslibekken" />
		<tag k="ssr:stedsnr" v="462384" />
		<tag k="waterway" v="stream" />
	</node>
	<node id="-750797" lat="63.2208833337" lon="10.2232305507">
		<tag k="name" v="Vetabekken" />
		<tag k="ssr:stedsnr" v="462086" />
		<tag k="waterway" v="stream" />
	</node>
	<node id="-750794" lat="63.1912500028" lon="10.2206416699">
		<tag k="name" v="Prestlivika" />
		<tag k="natural" v="bay" />
		<tag k="ssr:stedsnr" v="462036" />
	</node>
	<node id="-752841" lat="63.2457250042" lon="10.2362944434">
		<tag k="name" v="Sjetnhølen" />
		<tag k="place" v="locality" />
		<tag k="ssr:stedsnr" v="522116" />
	</node>
	<node id="-750788" lat="63.137558332" lon="10.2066944486">
		<tag k="name" v="Damvatnet" />
		<tag k="natural" v="water" />
		<tag k="ssr:stedsnr" v="461988" />
		<tag k="water" v="lake" />
	</node>
	<node id="-750783" lat="63.1663694482" lon="10.1697833256">
		<tag k="name" v="Våkkåstaden" />
		<tag k="natural" v="shoal" />
		<tag k="place" v="locality" />
		<tag k="ssr:stedsnr" v="461967" />
	</node>
	<node id="-752830" lat="63.1942166685" lon="10.2405750007">
		<tag k="name" v="Svevika" />
		<tag k="natural" v="bay" />
		<tag k="ssr:stedsnr" v="522012" />
	</node>
	<node id="-750779" lat="63.0735194467" lon="10.2883722286">
		<tag k="name" v="Rostadholet" />
		<tag k="ssr:stedsnr" v="461952" />
		<tag k="waterway" v="stream" />
	</node>
	<node id="-750777" lat="63.1593694488" lon="10.1533472285">
		<tag k="name" v="Toskbekken" />
		<tag k="ssr:stedsnr" v="461941" />
		<tag k="waterway" v="stream" />
	</node>
	<node id="-750774" lat="63.0920805599" lon="10.2936583257">
		<tag k="name" v="Hogsterbekken" />
		<tag k="ssr:stedsnr" v="461906" />
		<tag k="waterway" v="stream" />
	</node>
	<node id="-752821" lat="63.3131472222" lon="10.2349583334">
		<tag k="name" v="Onstjønna" />
		<tag k="natural" v="water" />
		<tag k="ssr:stedsnr" v="438874" />
	</node>
	<node id="-752814" lat="63.1029000011" lon="10.4601416679">
		<tag k="name" v="Steinslibekken" />
		<tag k="ssr:stedsnr" v="437887" />
		<tag k="waterway" v="stream" />
	</node>
	<node id="-752804" lat="63.2292416711" lon="10.4527416728">
		<tag k="name" v="Løksbekken" />
		<tag k="ssr:stedsnr" v="437725" />
		<tag k="waterway" v="stream" />
	</node>
	<node id="-752801" lat="63.026205553" lon="10.0532416605">
		<tag k="name" v="Blankvatnet" />
		<tag k="natural" v="water" />
		<tag k="ssr:stedsnr" v="437677" />
	</node>
	<node id="-750752" lat="63.1367749985" lon="9.9897888966">
		<tag k="name" v="Kattjønna" />
		<tag k="natural" v="water" />
		<tag k="ssr:stedsnr" v="461293" />
	</node>
	<node id="-752795" lat="63.0934888871" lon="9.93782499076">
		<tag k="name" v="Svartvatnet" />
		<tag k="natural" v="water" />
		<tag k="ssr:stedsnr" v="437552" />
	</node>
	<node id="-750746" lat="63.1636138877" lon="10.3649416711">
		<tag k="name" v="Stordambekken" />
		<tag k="ssr:stedsnr" v="461261" />
		<tag k="waterway" v="stream" />
	</node>
	<node id="-752792" lat="63.0773833328" lon="10.2141416722">
		<tag k="name" v="Kvernvatnet" />
		<tag k="natural" v="water" />
		<tag k="ssr:stedsnr" v="437522" />
		<tag k="water" v="lake" />
	</node>
	<node id="-750739" lat="63.1418722219" lon="10.4531416691">
		<tag k="name" v="Jafsvolltjønna" />
		<tag k="natural" v="water" />
		<tag k="ssr:stedsnr" v="461214" />
	</node>
	<node id="-752786" lat="63.135886108" lon="9.97525277805">
		<tag k="name" v="Lomtjønna" />
		<tag k="natural" v="water" />
		<tag k="ssr:stedsnr" v="437095" />
	</node>
	<node id="-750736" lat="63.261930557" lon="10.2582666644">
		<tag k="name" v="Svamparen" />
		<tag k="natural" v="water" />
		<tag k="ssr:stedsnr" v="461169" />
	</node>
	<node id="-750734" lat="63.2657638865" lon="10.2625277806">
		<tag k="name" v="Svamparen" />
		<tag k="natural" v="water" />
		<tag k="ssr:stedsnr" v="461150" />
	</node>
	<node id="-750733" lat="63.0965388917" lon="10.3683388948">
		<tag k="name" v="Nedre Vollatjønna" />
		<tag k="natural" v="water" />
		<tag k="ssr:stedsnr" v="461134" />
	</node>
	<node id="-750729" lat="63.2618833362" lon="10.3293388795">
		<tag k="name" v="Rundtjønna" />
		<tag k="natural" v="water" />
		<tag k="ssr:stedsnr" v="279139" />
	</node>
	<node id="-752774" lat="63.3012055548" lon="10.2902722222">
		<tag k="name" v="Ratbekken" />
		<tag k="ssr:stedsnr" v="424483" />
		<tag k="waterway" v="stream" />
	</node>
	<node id="-750724" lat="63.0672527734" lon="10.2355277728">
		<tag k="name" v="Bjørkvatnet" />
		<tag k="natural" v="water" />
		<tag k="ssr:stedsnr" v="255922" />
	</node>
	<node id="-750723" lat="63.0825305599" lon="10.3356194373">
		<tag k="alt_name" v="Rea" />
		<tag k="name" v="Ræa" />
		<tag k="ssr:stedsnr" v="255903" />
		<tag k="waterway" v="river" />
	</node>
	<node id="-750720" lat="63.0960362375" lon="10.0189075547">
		<tag k="name" v="Håmmåråsbekken" />
		<tag k="old_name" v="Hammaråsbekken" />
		<tag k="ssr:stedsnr" v="255516" />
		<tag k="waterway" v="stream" />
	</node>
	<node id="-750716" lat="63.1454611101" lon="9.92296944326">
		<tag k="name" v="Skitjønna" />
		<tag k="natural" v="water" />
		<tag k="ssr:stedsnr" v="254073" />
	</node>
	<node id="-752760" lat="63.1088444416" lon="10.6018916719">
		<tag k="name" v="Sama" />
		<tag k="ssr:stedsnr" v="401905" />
		<tag k="waterway" v="river" />
	</node>
	<node id="-752759" lat="63.2086833365" lon="10.4945222132">
		<tag k="name" v="Bortntjønna" />
		<tag k="natural" v="water" />
		<tag k="ssr:stedsnr" v="401896" />
	</node>
	<node id="-753403" lat="63.1539222195" lon="10.0889527827">
		<tag k="name" v="Korsvegbekken" />
		<tag k="ssr:stedsnr" v="765137" />
		<tag k="waterway" v="stream" />
	</node>
	<node id="-752745" lat="63.1076805542" lon="10.2667472309">
		<tag k="name" v="Kvernbekken" />
		<tag k="ssr:stedsnr" v="401828" />
		<tag k="waterway" v="stream" />
	</node>
	<node id="-750696" lat="63.1725500043" lon="10.031866671">
		<tag k="name" v="Litlmerkåa" />
		<tag k="ssr:stedsnr" v="219396" />
		<tag k="waterway" v="stream" />
	</node>
	<node id="-752743" lat="63.1393861141" lon="10.494430556">
		<tag k="name" v="Litltjønna" />
		<tag k="natural" v="water" />
		<tag k="ssr:stedsnr" v="401807" />
	</node>
	<node id="-750694" lat="63.1820583294" lon="10.0188499997">
		<tag k="name" v="Nedre Spellmannstjønna" />
		<tag k="natural" v="water" />
		<tag k="ssr:stedsnr" v="219390" />
	</node>
	<node id="-752738" lat="63.1741777784" lon="10.3939194459">
		<tag k="name" v="Frosktjønna" />
		<tag k="natural" v="water" />
		<tag k="ssr:stedsnr" v="401771" />
	</node>
	<node id="-752736" lat="63.1551277736" lon="10.2494388797">
		<tag k="name" v="Stortjønna" />
		<tag k="natural" v="water" />
		<tag k="ssr:stedsnr" v="401759" />
	</node>
	<node id="-750687" lat="63.1926361108" lon="10.242886116">
		<tag k="name" v="Litlholmen" />
		<tag k="place" v="islet" />
		<tag k="ssr:stedsnr" v="219008" />
	</node>
	<node id="-750686" lat="63.1966972225" lon="10.2289500082">
		<tag k="name" v="Nedre Langmyrtjønna" />
		<tag k="natural" v="water" />
		<tag k="ssr:stedsnr" v="219002" />
	</node>
	<node id="-752733" lat="63.2202250002" lon="10.355038887">
		<tag k="name" v="Haldosbekken" />
		<tag k="ssr:stedsnr" v="401748" />
		<tag k="waterway" v="stream" />
	</node>
	<node id="-750683" lat="63.0868638894" lon="10.4422083343">
		<tag k="name" v="Langlitjønna" />
		<tag k="natural" v="water" />
		<tag k="ssr:stedsnr" v="219135" />
	</node>
	<node id="-750681" lat="63.1733694482" lon="10.2522388972">
		<tag k="name" v="Sagåsvatnet" />
		<tag k="natural" v="water" />
		<tag k="ssr:stedsnr" v="219120" />
		<tag k="water" v="lake" />
	</node>
	<node id="-750673" lat="63.2931583357" lon="10.3363444456">
		<tag k="name" v="Lauvlibekken" />
		<tag k="ssr:stedsnr" v="195829" />
		<tag k="waterway" v="stream" />
	</node>
	<node id="-750665" lat="63.2391388917" lon="10.1543750081">
		<tag k="name" v="Bjørnaholmen" />
		<tag k="place" v="islet" />
		<tag k="ssr:stedsnr" v="195304" />
	</node>
	<node id="-752709" lat="63.0953611085" lon="10.1917222193">
		<tag k="name" v="Sandåosen" />
		<tag k="natural" v="bay" />
		<tag k="ssr:stedsnr" v="401602" />
	</node>
	<node id="-750658" lat="63.1592166643" lon="10.5616333326">
		<tag k="name" v="Austtjønna" />
		<tag k="natural" v="water" />
		<tag k="ssr:stedsnr" v="194839" />
	</node>
	<node id="-750649" lat="63.1634638921" lon="10.2042805518">
		<tag k="name" v="Benna" />
		<tag k="natural" v="water" />
		<tag k="ssr:stedsnr" v="194124" />
		<tag k="water" v="lake" />
	</node>
	<node id="-750647" lat="63.1048138896" lon="10.1011277833">
		<tag k="name" v="Svarttjønnan" />
		<tag k="natural" v="water" />
		<tag k="ssr:stedsnr" v="194021" />
	</node>
	<node id="-752688" lat="63.217652775" lon="10.3068555585">
		<tag k="name" v="Gammelelva" />
		<tag k="natural" v="water" />
		<tag k="ssr:stedsnr" v="401104" />
		<tag k="water" v="lake" />
	</node>
	<node id="-752683" lat="63.1764750001" lon="10.1349027702">
		<tag k="name" v="Osan" />
		<tag k="natural" v="bay" />
		<tag k="ssr:stedsnr" v="401045" />
	</node>
	<node id="-750633" lat="63.2108388911" lon="10.5191166574">
		<tag k="name" v="Fiskelite" />
		<tag k="ssr:stedsnr" v="280926" />
		<tag k="waterway" v="stream" />
	</node>
	<node id="-752678" lat="63.1980138897" lon="10.2260277699">
		<tag k="name" v="Øvre Langmyrtjønna" />
		<tag k="natural" v="water" />
		<tag k="ssr:stedsnr" v="401003" />
	</node>
	<node id="-752676" lat="63.1315777813" lon="10.1471305546">
		<tag k="name" v="Vikabukta" />
		<tag k="natural" v="bay" />
		<tag k="ssr:stedsnr" v="400986" />
	</node>
	<node id="-750627" lat="63.2905166627" lon="10.3650888937">
		<tag k="name" v="Seterløfta" />
		<tag k="ssr:stedsnr" v="280876" />
		<tag k="waterway" v="stream" />
	</node>
	<node id="-752674" lat="63.1532166682" lon="10.1976694495">
		<tag k="name" v="Brandholmen" />
		<tag k="place" v="islet" />
		<tag k="ssr:stedsnr" v="400981" />
	</node>
	<node id="-752673" lat="63.1568055514" lon="10.195938879">
		<tag k="name" v="Gjetbergodden" />
		<tag k="natural" v="cape" />
		<tag k="ssr:stedsnr" v="400980" />
	</node>
	<node id="-752671" lat="63.1342916698" lon="10.1616277816">
		<tag k="name" v="Bjørkneset" />
		<tag k="natural" v="cape" />
		<tag k="ssr:stedsnr" v="400974" />
	</node>
	<node id="-750614" lat="63.138050002" lon="10.2894916738">
		<tag k="name" v="Kvernbekken" />
		<tag k="ssr:stedsnr" v="280826" />
		<tag k="waterway" v="stream" />
	</node>
	<node id="-750613" lat="63.1528111128" lon="10.3214888955">
		<tag k="name" v="Lomtjønnbekken" />
		<tag k="ssr:stedsnr" v="280815" />
		<tag k="waterway" v="stream" />
	</node>
	<node id="-750608" lat="63.2343333321" lon="10.389813896">
		<tag k="name" v="Vollbekken" />
		<tag k="ssr:stedsnr" v="280783" />
		<tag k="waterway" v="stream" />
	</node>
	<node id="-752655" lat="63.1598694473" lon="10.1116249941">
		<tag k="name" v="Fluren" />
		<tag k="place" v="locality" />
		<tag k="ssr:stedsnr" v="400517" />
	</node>
	<node id="-752654" lat="63.1544527772" lon="10.1097750083">
		<tag k="name" v="Holmen" />
		<tag k="place" v="islet" />
		<tag k="ssr:stedsnr" v="400515" />
	</node>
	<node id="-752650" lat="63.0903722211" lon="9.98661944953">
		<tag k="name" v="Rypdalsbekken" />
		<tag k="ssr:stedsnr" v="400357" />
		<tag k="waterway" v="stream" />
	</node>
	<node id="-752647" lat="63.1088500035" lon="10.0778500066">
		<tag k="name" v="Hestdals-bekken" />
		<tag k="ssr:stedsnr" v="400343" />
		<tag k="waterway" v="stream" />
	</node>
	<node id="-752644" lat="63.1318666643" lon="10.0382472165">
		<tag k="name" v="Tennslættbekken" />
		<tag k="ssr:stedsnr" v="400318" />
		<tag k="waterway" v="stream" />
	</node>
	<node id="-752641" lat="63.0983583349" lon="10.0729138961">
		<tag k="name" v="Mørsvatnet" />
		<tag k="natural" v="water" />
		<tag k="ssr:stedsnr" v="400310" />
		<tag k="water" v="lake" />
	</node>
	<node id="-752639" lat="63.0971027737" lon="10.0732583332">
		<tag k="name" v="Furuodden" />
		<tag k="natural" v="cape" />
		<tag k="ssr:stedsnr" v="400302" />
	</node>
	<node id="-752629" lat="63.1649305547" lon="10.3757638853">
		<tag k="name" v="Høgkloppatjønna" />
		<tag k="natural" v="water" />
		<tag k="ssr:stedsnr" v="400224" />
	</node>
	<node id="-752625" lat="63.2773444439" lon="10.2755333386">
		<tag k="name" v="Kuba" />
		<tag k="place" v="island" />
		<tag k="ssr:stedsnr" v="400145" />
	</node>
	<node id="-752621" lat="63.0848833354" lon="10.4218611061">
		<tag k="name" v="Tildertjønna" />
		<tag k="natural" v="water" />
		<tag k="ssr:stedsnr" v="400113" />
	</node>
	<node id="-752619" lat="63.1496361108" lon="10.5656055549">
		<tag k="name" v="Bordstolan" />
		<tag k="natural" v="water" />
		<tag k="ssr:stedsnr" v="391834" />
		<tag k="water" v="lake" />
	</node>
	<node id="-750568" lat="63.2005861084" lon="10.4416694412">
		<tag k="name" v="Svartkaldvellvassfossen" />
		<tag k="natural" v="waterfall" />
		<tag k="ssr:stedsnr" v="280134" />
	</node>
	<node id="-752608" lat="63.0923861137" lon="10.3297916668">
		<tag k="name" v="Småvatna" />
		<tag k="natural" v="water" />
		<tag k="ssr:stedsnr" v="376953" />
	</node>
	<node id="-750559" lat="63.139516667" lon="10.1958527868">
		<tag k="name" v="Kariholet" />
		<tag k="natural" v="bay" />
		<tag k="ssr:stedsnr" v="279986" />
	</node>
	<node id="-750558" lat="63.143786109" lon="10.1468888832">
		<tag k="name" v="Litlsundet" />
		<tag k="natural" v="strait" />
		<tag k="ssr:stedsnr" v="279980" />
	</node>
	<node id="-750556" lat="63.1521611095" lon="10.1986805508">
		<tag k="name" v="Brandodden" />
		<tag k="natural" v="cape" />
		<tag k="ssr:stedsnr" v="279978" />
	</node>
	<node id="-752603" lat="63.1622500038" lon="10.5498027792">
		<tag k="name" v="Buvatnet" />
		<tag k="natural" v="water" />
		<tag k="ssr:stedsnr" v="376858" />
	</node>
	<node id="-752601" lat="63.1341166627" lon="10.4727611138">
		<tag k="name" v="Sandalsvatnet" />
		<tag k="natural" v="water" />
		<tag k="ssr:stedsnr" v="376841" />
	</node>
	<node id="-750550" lat="63.0582249967" lon="10.223047231">
		<tag k="name" v="Skytja" />
		<tag k="ssr:stedsnr" v="279957" />
		<tag k="waterway" v="stream" />
	</node>
	<node id="-752593" lat="63.2134444467" lon="10.2320138851">
		<tag k="name" v="Damtjønna" />
		<tag k="natural" v="water" />
		<tag k="ssr:stedsnr" v="376739" />
	</node>
	<node id="-752592" lat="63.2186333324" lon="10.4607277795">
		<tag k="name" v="Fisklaustjønna" />
		<tag k="natural" v="water" />
		<tag k="ssr:stedsnr" v="376728" />
	</node>
	<node id="-750543" lat="63.0816499969" lon="10.2440611046">
		<tag k="name" v="Systutjønna" />
		<tag k="natural" v="water" />
		<tag k="ssr:stedsnr" v="279905" />
	</node>
	<node id="-752590" lat="63.0620500013" lon="10.207074996">
		<tag k="name" v="Skita" />
		<tag k="ssr:stedsnr" v="376616" />
		<tag k="waterway" v="stream" />
	</node>
	<node id="-752589" lat="63.0474749991" lon="10.0718888867">
		<tag k="name" v="Altbjørbekken" />
		<tag k="ssr:stedsnr" v="376597" />
		<tag k="waterway" v="stream" />
	</node>
	<node id="-750540" lat="63.1265194433" lon="9.91676665827">
		<tag k="name" v="Rangåbukta" />
		<tag k="natural" v="bay" />
		<tag k="ssr:stedsnr" v="279745" />
	</node>
	<node id="-752582" lat="63.0850000022" lon="10.0225000028">
		<tag k="name" v="Litlbekken" />
		<tag k="ssr:stedsnr" v="376519" />
		<tag k="waterway" v="stream" />
	</node>
	<node id="-752580" lat="63.2154611093" lon="10.1731027784">
		<tag k="name" v="Sildtjønna" />
		<tag k="natural" v="water" />
		<tag k="ssr:stedsnr" v="376230" />
	</node>
	<node id="-752575" lat="63.1354027755" lon="10.1545388951">
		<tag k="alt_name" v="Veslholmen" />
		<tag k="name" v="Litlholmen" />
		<tag k="place" v="islet" />
		<tag k="ssr:stedsnr" v="376069" />
	</node>
	<node id="-752574" lat="63.1319722252" lon="10.1277611161">
		<tag k="name" v="Trånnåmyrtjønna" />
		<tag k="natural" v="water" />
		<tag k="ssr:stedsnr" v="376057" />
	</node>
	<node id="-750410" lat="63.1813500019" lon="10.1715638865">
		<tag k="name" v="Sandbakklandet" />
		<tag k="natural" v="cape" />
		<tag k="ssr:stedsnr" v="98067" />
	</node>
	<node id="-750522" lat="63.2709666658" lon="10.3577999946">
		<tag k="name" v="Langdalstjønna" />
		<tag k="natural" v="water" />
		<tag k="ssr:stedsnr" v="158875" />
	</node>
	<node id="-750516" lat="63.1476805527" lon="10.2516222296">
		<tag k="name" v="Floksa" />
		<tag k="ssr:stedsnr" v="158819" />
		<tag k="waterway" v="stream" />
	</node>
	<node id="-750508" lat="63.0976138912" lon="9.96786389355">
		<tag k="name" v="Rognlidalsbekken" />
		<tag k="ssr:stedsnr" v="279358" />
		<tag k="waterway" v="stream" />
	</node>
	<node id="-750407" lat="63.2281444424" lon="10.189708335">
		<tag k="name" v="Kloppmyrtjønna" />
		<tag k="natural" v="water" />
		<tag k="ssr:stedsnr" v="98021" />
	</node>
	<node id="-750502" lat="63.1117555529" lon="9.92260277405">
		<tag k="name" v="Holbekken" />
		<tag k="ssr:stedsnr" v="279303" />
		<tag k="waterway" v="stream" />
	</node>
	<node id="-750747" lat="63.0955444459" lon="9.94552222867">
		<tag k="name" v="Kvernbekken" />
		<tag k="ssr:stedsnr" v="461263" />
		<tag k="waterway" v="stream" />
	</node>
	<node id="-750493" lat="63.2049722227" lon="10.3958166577">
		<tag k="name" v="Brannåsbekken" />
		<tag k="ssr:stedsnr" v="279210" />
		<tag k="waterway" v="stream" />
	</node>
	<node id="-750488" lat="63.2686250044" lon="10.2293777848">
		<tag k="name" v="Holemsbekken" />
		<tag k="ssr:stedsnr" v="279166" />
		<tag k="waterway" v="stream" />
	</node>
	<node id="-752534" lat="63.1468305563" lon="10.172436114">
		<tag k="name" v="Litlbrokenden" />
		<tag k="natural" v="bay" />
		<tag k="ssr:stedsnr" v="340984" />
	</node>
	<node id="-750484" lat="63.2018083325" lon="10.0779222186">
		<tag k="name" v="Vålåtjønnbekken" />
		<tag k="ssr:stedsnr" v="145558" />
		<tag k="waterway" v="stream" />
	</node>
	<node id="-752531" lat="63.1279805592" lon="10.1565777738">
		<tag k="name" v="Merkjesbekken" />
		<tag k="ssr:stedsnr" v="340978" />
		<tag k="waterway" v="stream" />
	</node>
	<node id="-750477" lat="63.2170777787" lon="10.2270583261">
		<tag k="name" v="Skjerva" />
		<tag k="ssr:stedsnr" v="133703" />
		<tag k="waterway" v="stream" />
	</node>
	<node id="-750470" lat="63.1306805571" lon="10.4348611073">
		<tag k="alt_name" v="Sama" />
		<tag k="name" v="Sokna" />
		<tag k="ssr:stedsnr" v="133435" />
		<tag k="waterway" v="river" />
	</node>
	<node id="-750469" lat="63.149330558" lon="10.3836416595">
		<tag k="name" v="Svarttjønna" />
		<tag k="natural" v="water" />
		<tag k="ssr:stedsnr" v="133433" />
	</node>
	<node id="-752513" lat="63.0923833352" lon="10.2749055476">
		<tag k="name" v="Krokan" />
		<tag k="ssr:stedsnr" v="340907" />
		<tag k="waterway" v="stream" />
	</node>
	<node id="-750400" lat="63.0893472199" lon="10.0975305627">
		<tag k="name" v="Hallguttutjønna" />
		<tag k="natural" v="water" />
		<tag k="ssr:stedsnr" v="255537" />
	</node>
	<node id="-752509" lat="63.0884416632" lon="10.231061105">
		<tag k="name" v="Floksa" />
		<tag k="ssr:stedsnr" v="340877" />
		<tag k="waterway" v="stream" />
	</node>
	<node id="-752506" lat="63.262011113" lon="10.3504861112">
		<tag k="name" v="Sølvskakkeltjønna" />
		<tag k="natural" v="water" />
		<tag k="ssr:stedsnr" v="340859" />
	</node>
	<node id="-752504" lat="63.271950002" lon="10.336213881">
		<tag k="name" v="Lomtjønna" />
		<tag k="natural" v="water" />
		<tag k="ssr:stedsnr" v="340854" />
	</node>
	<node id="-752501" lat="63.1174222244" lon="10.2337416605">
		<tag k="name" v="Gammelelva" />
		<tag k="natural" v="water" />
		<tag k="ssr:stedsnr" v="340844" />
		<tag k="water" v="lake" />
	</node>
	<node id="-752498" lat="63.1321555589" lon="10.4946638948">
		<tag k="name" v="Slettdalsbekken" />
		<tag k="ssr:stedsnr" v="340833" />
		<tag k="waterway" v="stream" />
	</node>
	<node id="-752496" lat="63.1624527766" lon="10.4682722245">
		<tag k="name" v="Vårlibekken" />
		<tag k="ssr:stedsnr" v="340825" />
		<tag k="waterway" v="stream" />
	</node>
	<node id="-750447" lat="63.1322305563" lon="10.5321333361">
		<tag k="name" v="Sæterbekken" />
		<tag k="ssr:stedsnr" v="255848" />
		<tag k="waterway" v="stream" />
	</node>
	<node id="-750445" lat="63.186274996" lon="10.2281777703">
		<tag k="name" v="Agnesodden" />
		<tag k="natural" v="cape" />
		<tag k="ssr:stedsnr" v="255840" />
	</node>
	<node id="-752491" lat="63.1846083326" lon="10.3878444442">
		<tag k="name" v="Hørvåsbekken" />
		<tag k="ssr:stedsnr" v="340787" />
		<tag k="waterway" v="stream" />
	</node>
	<node id="-752487" lat="63.1574972252" lon="10.2467805546">
		<tag k="name" v="Litltjønna" />
		<tag k="natural" v="water" />
		<tag k="ssr:stedsnr" v="340776" />
	</node>
	<node id="-750437" lat="63.1847999988" lon="10.5060749938">
		<tag k="name" v="Losabekken" />
		<tag k="ssr:stedsnr" v="255790" />
		<tag k="waterway" v="stream" />
	</node>
	<node id="-750436" lat="63.180075004" lon="10.4109583236">
		<tag k="name" v="Skottjønna" />
		<tag k="natural" v="water" />
		<tag k="ssr:stedsnr" v="255782" />
	</node>
	<node id="-750435" lat="63.2163416701" lon="10.3667805464">
		<tag k="name" v="Merkesbekken" />
		<tag k="ssr:stedsnr" v="98776" />
		<tag k="waterway" v="stream" />
	</node>
	<node id="-750434" lat="63.2153083358" lon="10.3417222251">
		<tag k="name" v="Botnmyrbekken" />
		<tag k="ssr:stedsnr" v="98768" />
		<tag k="waterway" v="stream" />
	</node>
	<node id="-752477" lat="63.1412250019" lon="9.9263138896">
		<tag k="name" v="Skitjønnbekken" />
		<tag k="ssr:stedsnr" v="340725" />
		<tag k="waterway" v="stream" />
	</node>
	<node id="-750426" lat="63.0713277773" lon="10.099452785">
		<tag k="name" v="Tvibotntjønna" />
		<tag k="natural" v="water" />
		<tag k="ssr:stedsnr" v="98656" />
	</node>
	<node id="-750420" lat="63.1567472258" lon="10.3269916691">
		<tag k="name" v="Lomtjønna" />
		<tag k="natural" v="water" />
		<tag k="ssr:stedsnr" v="98807" />
	</node>
	<node id="-750414" lat="63.0609777767" lon="10.0805916757">
		<tag k="name" v="Vedløstjønna" />
		<tag k="natural" v="water" />
		<tag k="ssr:stedsnr" v="98457" />
	</node>
	<node id="-750411" lat="63.1725472247" lon="9.99202223111">
		<tag k="name" v="Ner Kvernfossen" />
		<tag k="natural" v="waterfall" />
		<tag k="ssr:stedsnr" v="98375" />
	</node>
	<node id="-752458" lat="63.0880499958" lon="10.196941668">
		<tag k="name" v="Svensagfossen" />
		<tag k="natural" v="waterfall" />
		<tag k="ssr:stedsnr" v="340607" />
	</node>
	<node id="-752455" lat="63.1095388906" lon="10.1997833392">
		<tag k="name" v="Tjudalstjønna" />
		<tag k="natural" v="water" />
		<tag k="ssr:stedsnr" v="340581" />
	</node>
	<node id="-750404" lat="63.1522111073" lon="10.1714805631">
		<tag k="name" v="Storrneset" />
		<tag k="natural" v="cape" />
		<tag k="ssr:stedsnr" v="97967" />
	</node>
	<node id="-750402" lat="63.1603361139" lon="10.185000001">
		<tag k="name" v="Sagbekken" />
		<tag k="ssr:stedsnr" v="97960" />
		<tag k="waterway" v="stream" />
	</node>
	<node id="-750401" lat="63.0830944463" lon="10.2767916748">
		<tag k="name" v="Øyadammen" />
		<tag k="natural" v="water" />
		<tag k="ssr:stedsnr" v="97925" />
		<tag k="water" v="pond" />
	</node>
	<node id="-752448" lat="63.1311027811" lon="10.1451555524">
		<tag k="name" v="Grøtvika" />
		<tag k="natural" v="bay" />
		<tag k="ssr:stedsnr" v="340538" />
	</node>
	<node id="-750383" lat="63.1239250027" lon="9.96050000585">
		<tag k="name" v="Rangåa" />
		<tag k="ssr:stedsnr" v="97260" />
		<tag k="waterway" v="stream" />
	</node>
	<node id="-752430" lat="63.0525250039" lon="10.0001500082">
		<tag k="name" v="Igltjønna" />
		<tag k="natural" v="water" />
		<tag k="ssr:stedsnr" v="340434" />
	</node>
	<node id="-750381" lat="63.1375277754" lon="10.437972221">
		<tag k="name" v="Kjæråstjønna" />
		<tag k="natural" v="water" />
		<tag k="ssr:stedsnr" v="97209" />
	</node>
	<node id="-752425" lat="63.0714861157" lon="9.99892777248">
		<tag k="name" v="Sollibekken" />
		<tag k="ssr:stedsnr" v="340404" />
		<tag k="waterway" v="stream" />
	</node>
	<node id="-752423" lat="63.1777916707" lon="10.0141305654">
		<tag k="name" v="Litldamtjønna" />
		<tag k="natural" v="water" />
		<tag k="ssr:stedsnr" v="340395" />
	</node>
	<node id="-752419" lat="63.0925472231" lon="9.99254444204">
		<tag k="name" v="Baklibekken" />
		<tag k="ssr:stedsnr" v="340357" />
		<tag k="waterway" v="stream" />
	</node>
	<node id="-750366" lat="63.1640111115" lon="10.04434444">
		<tag k="name" v="Bøvra" />
		<tag k="ssr:stedsnr" v="255149" />
		<tag k="waterway" v="stream" />
	</node>
	<node id="-752412" lat="63.1436222193" lon="10.3944416598">
		<tag k="name" v="Talbergsbekken" />
		<tag k="ssr:stedsnr" v="340224" />
		<tag k="waterway" v="stream" />
	</node>
	<node id="-752410" lat="63.2034666645" lon="10.4473444345">
		<tag k="name" v="Kringeltjønna" />
		<tag k="natural" v="water" />
		<tag k="ssr:stedsnr" v="340181" />
	</node>
	<node id="-752407" lat="63.1020388921" lon="10.3749277694">
		<tag k="name" v="Vollabekken" />
		<tag k="ssr:stedsnr" v="340140" />
		<tag k="waterway" v="stream" />
	</node>
	<node id="-752402" lat="63.21873056" lon="10.2037194514">
		<tag k="name" v="Litllumpa" />
		<tag k="natural" v="water" />
		<tag k="ssr:stedsnr" v="340039" />
	</node>
	<node id="-750353" lat="63.1988499997" lon="10.0729944431">
		<tag k="name" v="Storvålåtjønna" />
		<tag k="natural" v="water" />
		<tag k="ssr:stedsnr" v="84621" />
	</node>
	<node id="-752400" lat="63.2247055596" lon="10.1772611129">
		<tag k="name" v="Lauvoddbekken" />
		<tag k="ssr:stedsnr" v="340022" />
		<tag k="waterway" v="stream" />
	</node>
	<node id="-750345" lat="63.2161500012" lon="10.4976194475">
		<tag k="name" v="Langvatnet" />
		<tag k="natural" v="water" />
		<tag k="ssr:stedsnr" v="73505" />
		<tag k="water" v="lake" />
	</node>
	<node id="-752391" lat="63.183444445" lon="10.4228472271">
		<tag k="alt_name" v="Kaldvellvatnet" />
		<tag k="name" v="Storkaldvellvatnet" />
		<tag k="natural" v="water" />
		<tag k="old_name" v="Kaldvellvatnet, store" />
		<tag k="ssr:stedsnr" v="316848" />
		<tag k="water" v="lake" />
	</node>
	<node id="-750342" lat="63.1808611067" lon="10.1747805633">
		<tag k="name" v="Skjeggstadvatnet" />
		<tag k="natural" v="water" />
		<tag k="ssr:stedsnr" v="73144" />
		<tag k="water" v="lake" />
	</node>
	<node id="-750341" lat="63.1650166689" lon="9.92776111837">
		<tag k="name" v="Damtjønna" />
		<tag k="natural" v="water" />
		<tag k="ssr:stedsnr" v="73139" />
	</node>
	<node id="-750340" lat="63.1638277803" lon="9.91578888761">
		<tag k="name" v="Kvernbekken" />
		<tag k="ssr:stedsnr" v="73137" />
		<tag k="waterway" v="stream" />
	</node>
	<node id="-752384" lat="63.0717666666" lon="10.1393055502">
		<tag k="name" v="Flotjønna" />
		<tag k="natural" v="water" />
		<tag k="ssr:stedsnr" v="316572" />
	</node>
	<node id="-752383" lat="62.9520583306" lon="10.6874555532">
		<tag k="name" v="Gaula" />
		<tag k="ssr:stedsnr" v="316568" />
		<tag k="waterway" v="river" />
	</node>
	<node id="-752372" lat="63.0524611067" lon="10.0004138924">
		<tag k="name" v="Nedre Igltjønna" />
		<tag k="natural" v="water" />
		<tag k="ssr:stedsnr" v="315574" />
	</node>
	<node id="-750316" lat="63.1674694436" lon="9.93780277118">
		<tag k="name" v="Fagerlitjønna" />
		<tag k="natural" v="water" />
		<tag k="ssr:stedsnr" v="37751" />
	</node>
	<node id="-750314" lat="63.1105277746" lon="10.2328277744">
		<tag k="name" v="Gaulfossen" />
		<tag k="natural" v="waterfall" />
		<tag k="ssr:stedsnr" v="37861" />
	</node>
	<node id="-752360" lat="63.1072916627" lon="10.1792027756">
		<tag k="name" v="Kolo" />
		<tag k="ssr:stedsnr" v="315016" />
		<tag k="waterway" v="stream" />
	</node>
	<node id="-750311" lat="63.1758333361" lon="10.4468722257">
		<tag k="name" v="Bjørdalsbekken" />
		<tag k="ssr:stedsnr" v="37822" />
		<tag k="waterway" v="stream" />
	</node>
	<node id="-750304" lat="63.0770805589" lon="10.1207999945">
		<tag k="name" v="Svartbekken" />
		<tag k="ssr:stedsnr" v="37658" />
		<tag k="waterway" v="stream" />
	</node>
	<node id="-750298" lat="63.1811638905" lon="10.2335055527">
>>>>>>> e1d4bc35ff8a6074a6f2e91616a996b547c36f15
		<tag k="name" v="Tyvodden" />
		<tag k="natural" v="cape" />
		<tag k="ssr:stedsnr" v="37151" />
	</node>
<<<<<<< HEAD
	<node lat="63.19133055711637" lon="10.138536119542485" id="-30402">
		<tag k="name" v="Fluren" />
		<tag k="place" v="locality" />
		<tag k="ssr:stedsnr" v="37480" />
=======
	<node id="-750834" lat="63.1636222241" lon="10.2648583424">
		<tag k="name" v="Valda" />
		<tag k="ssr:stedsnr" v="462777" />
		<tag k="waterway" v="stream" />
	</node>
	<node id="-750287" lat="63.100466665" lon="10.303588885">
		<tag k="name" v="Svartvatnet" />
		<tag k="natural" v="water" />
		<tag k="ssr:stedsnr" v="12923" />
	</node>
	<node id="-752334" lat="63.0757942854" lon="10.2947628547">
		<tag k="name" v="Hundåa" />
		<tag k="ssr:stedsnr" v="194871" />
		<tag k="waterway" v="stream" />
	</node>
	<node id="-752333" lat="63.1481027759" lon="10.5690499975">
		<tag k="alt_name" v="Bordstolan, l" />
		<tag k="name" v="Litle Bordstolan" />
		<tag k="natural" v="water" />
		<tag k="ssr:stedsnr" v="194853" />
		<tag k="water" v="lake" />
	</node>
	<node id="-750282" lat="63.2036749981" lon="10.3290499966">
		<tag k="name" v="Bortna" />
		<tag k="ssr:stedsnr" v="12706" />
		<tag k="waterway" v="stream" />
	</node>
	<node id="-750280" lat="63.1650055513" lon="10.404427784">
		<tag k="name" v="Svarttjønna" />
		<tag k="natural" v="water" />
		<tag k="ssr:stedsnr" v="12840" />
	</node>
	<node id="-752326" lat="63.2439749993" lon="10.2279611019">
		<tag k="alt_name" v="Skjetnebekken;Skjetnbekken" />
		<tag k="name" v="Sjetnbekken" />
		<tag k="ssr:stedsnr" v="194590" />
		<tag k="waterway" v="stream" />
	</node>
	<node id="-750276" lat="63.1253166631" lon="10.6630777839">
		<tag k="name" v="Øvre Balltjønna" />
		<tag k="natural" v="water" />
		<tag k="ssr:stedsnr" v="12825" />
	</node>
	<node id="-752322" lat="63.092333332" lon="10.0852250081">
		<tag k="name" v="Igltjønna" />
		<tag k="natural" v="water" />
		<tag k="ssr:stedsnr" v="194474" />
	</node>
	<node id="-750273" lat="63.1926361107" lon="10.5790361154">
		<tag k="name" v="Kløftvatnet" />
		<tag k="natural" v="water" />
		<tag k="ssr:stedsnr" v="12802" />
		<tag k="water" v="lake" />
	</node>
	<node id="-752320" lat="63.2324166656" lon="10.1577194497">
		<tag k="name" v="Djupen" />
		<tag k="place" v="islet" />
		<tag k="ssr:stedsnr" v="194253" />
	</node>
	<node id="-752318" lat="63.1354000036" lon="10.0420027815">
		<tag k="name" v="Gåslandsvatnet" />
		<tag k="natural" v="water" />
		<tag k="ssr:stedsnr" v="194075" />
	</node>
	<node id="-752316" lat="63.2004500037" lon="10.1101083387">
		<tag k="name" v="Sakktjønna" />
		<tag k="natural" v="water" />
		<tag k="ssr:stedsnr" v="194186" />
	</node>
	<node id="-752314" lat="63.1228527802" lon="9.99061666924">
		<tag k="name" v="Steinsvatnet" />
		<tag k="natural" v="water" />
		<tag k="ssr:stedsnr" v="194031" />
	</node>
	<node id="-750258" lat="63.068194447" lon="10.2555555536">
		<tag k="name" v="Bjørkbekken" />
		<tag k="ssr:stedsnr" v="219953" />
		<tag k="waterway" v="stream" />
	</node>
	<node id="-752296" lat="63.143463892" lon="10.1582388825">
		<tag k="name" v="Elgåodden" />
		<tag k="natural" v="cape" />
		<tag k="ssr:stedsnr" v="158981" />
	</node>
	<node id="-750364" lat="63.1335750044" lon="10.0660777719">
		<tag k="name" v="Jønnåa" />
		<tag k="ssr:stedsnr" v="255088" />
		<tag k="waterway" v="stream" />
	</node>
	<node id="-750242" lat="63.1463111082" lon="10.4928472179">
		<tag k="name" v="Langvassbekken" />
		<tag k="ssr:stedsnr" v="219853" />
		<tag k="waterway" v="stream" />
	</node>
	<node id="-752289" lat="63.1150972202" lon="10.6385777753">
		<tag k="name" v="Samsjøen" />
		<tag k="natural" v="water" />
		<tag k="ssr:stedsnr" v="158934" />
		<tag k="water" v="lake" />
	</node>
	<node id="-750240" lat="63.1428916697" lon="10.2181222138">
		<tag k="name" v="Hustjønnbekken" />
		<tag k="ssr:stedsnr" v="219822" />
		<tag k="waterway" v="stream" />
	</node>
	<node id="-752287" lat="63.0691638927" lon="10.219241668">
		<tag k="name" v="Småvatna" />
		<tag k="natural" v="water" />
		<tag k="ssr:stedsnr" v="158927" />
		<tag k="water" v="lake" />
	</node>
	<node id="-750238" lat="63.1842638848" lon="10.3987916684">
		<tag k="name" v="Hørvåstjønna" />
		<tag k="natural" v="water" />
		<tag k="ssr:stedsnr" v="219812" />
	</node>
	<node id="-750234" lat="63.2172805526" lon="10.39098611">
		<tag k="name" v="Trollvika" />
		<tag k="natural" v="bay" />
		<tag k="ssr:stedsnr" v="219799" />
	</node>
	<node id="-750232" lat="63.235841669" lon="10.3940944433">
		<tag k="name" v="Langmyrbekken" />
		<tag k="ssr:stedsnr" v="219779" />
		<tag k="waterway" v="stream" />
	</node>
	<node id="-752273" lat="63.1608499962" lon="10.2098166686">
		<tag k="name" v="Grøtholmen" />
		<tag k="place" v="islet" />
		<tag k="ssr:stedsnr" v="158785" />
	</node>
	<node id="-752271" lat="63.128022224" lon="9.90027223155">
		<tag k="name" v="Torshallet" />
		<tag k="natural" v="cape" />
		<tag k="ssr:stedsnr" v="158746" />
	</node>
	<node id="-750359" lat="63.1135083329" lon="10.0542249954">
		<tag k="name" v="Ekkerbekken" />
		<tag k="ssr:stedsnr" v="255030" />
		<tag k="waterway" v="stream" />
	</node>
	<node id="-752263" lat="63.1674472181" lon="9.96019167076">
		<tag k="name" v="Litlbekken" />
		<tag k="ssr:stedsnr" v="158674" />
		<tag k="waterway" v="stream" />
	</node>
	<node id="-750738" lat="63.1334027781" lon="10.4482249912">
		<tag k="name" v="Beggdalsbekken" />
		<tag k="ssr:stedsnr" v="461212" />
		<tag k="waterway" v="stream" />
	</node>
	<node id="-750211" lat="63.145397218" lon="10.0988972225">
		<tag k="name" v="Nylykkjbukta" />
		<tag k="natural" v="bay" />
		<tag k="ssr:stedsnr" v="219557" />
	</node>
	<node id="-750354" lat="63.1042527742" lon="10.1557749999">
		<tag k="name" v="Rognlibekken" />
		<tag k="ssr:stedsnr" v="254012" />
		<tag k="waterway" v="stream" />
	</node>
	<node id="-750186" lat="63.1286749992" lon="10.4531833382">
		<tag k="name" v="Røssbekken" />
		<tag k="ssr:stedsnr" v="219197" />
		<tag k="waterway" v="stream" />
	</node>
	<node id="-750695" lat="63.1809944407" lon="10.01951112">
		<tag k="name" v="Øvre Spellmannstjønna" />
		<tag k="natural" v="water" />
		<tag k="ssr:stedsnr" v="219391" />
	</node>
	<node id="-750182" lat="63.1826916703" lon="10.0610777857">
		<tag k="name" v="Kattjønnbekken" />
		<tag k="ssr:stedsnr" v="219480" />
		<tag k="waterway" v="stream" />
	</node>
	<node id="-750274" lat="63.1891222181" lon="10.5667861159">
		<tag k="name" v="Litlgrønlitjønna" />
		<tag k="natural" v="water" />
		<tag k="ssr:stedsnr" v="12803" />
	</node>
	<node id="-752202" lat="63.1134055558" lon="10.0354500096">
		<tag k="name" v="Kattjønna" />
		<tag k="natural" v="water" />
		<tag k="ssr:stedsnr" v="158288" />
	</node>
	<node id="-752195" lat="63.2001611075" lon="10.435175001">
		<tag k="name" v="Pætholet" />
		<tag k="natural" v="water" />
		<tag k="ssr:stedsnr" v="158208" />
	</node>
	<node id="-752191" lat="63.1048638875" lon="10.100816668">
		<tag k="name" v="Svarttjønna" />
		<tag k="natural" v="water" />
		<tag k="ssr:stedsnr" v="158173" />
	</node>
	<node id="-752181" lat="63.1726694444" lon="10.1630916743">
		<tag k="name" v="Hafellbekken" />
		<tag k="ssr:stedsnr" v="158087" />
		<tag k="waterway" v="stream" />
	</node>
	<node id="-752177" lat="63.2420527741" lon="10.1624861048">
		<tag k="name" v="Oterholmen" />
		<tag k="place" v="islet" />
		<tag k="ssr:stedsnr" v="158064" />
	</node>
	<node id="-752175" lat="63.1919333305" lon="10.242263886">
		<tag k="name" v="Litlbenna" />
		<tag k="natural" v="water" />
		<tag k="ssr:stedsnr" v="158018" />
		<tag k="water" v="lake" />
	</node>
	<node id="-752174" lat="63.2068833358" lon="10.2274250077">
		<tag k="name" v="Damtjønnbekken" />
		<tag k="ssr:stedsnr" v="158003" />
		<tag k="waterway" v="stream" />
	</node>
	<node id="-752170" lat="63.2100222235" lon="10.1287916678">
		<tag k="name" v="Kjellsbekken" />
		<tag k="ssr:stedsnr" v="145540" />
		<tag k="waterway" v="stream" />
	</node>
	<node id="-750343" lat="63.0826416635" lon="10.148741666">
		<tag k="name" v="Sandåa" />
		<tag k="ssr:stedsnr" v="73502" />
		<tag k="waterway" v="river" />
	</node>
	<node id="-752159" lat="63.1003250032" lon="10.3171000044">
		<tag k="name" v="Haukvatnet" />
		<tag k="natural" v="water" />
		<tag k="ssr:stedsnr" v="133922" />
	</node>
	<node id="-752158" lat="63.1555972182" lon="10.365383329">
		<tag k="name" v="Stordamvatnet" />
		<tag k="natural" v="water" />
		<tag k="old_name" v="Damvatnet, store" />
		<tag k="ssr:stedsnr" v="133871" />
		<tag k="water" v="lake" />
	</node>
	<node id="-752157" lat="63.1469000024" lon="10.5521388946">
		<tag k="name" v="Såmmåran" />
		<tag k="natural" v="water" />
		<tag k="ssr:stedsnr" v="133868" />
		<tag k="water" v="lake" />
	</node>
	<node id="-752156" lat="63.1515999994" lon="10.5058611208">
		<tag k="name" v="Hotjønna" />
		<tag k="natural" v="water" />
		<tag k="ssr:stedsnr" v="133866" />
	</node>
	<node id="-752155" lat="63.151158337" lon="10.5621527713">
		<tag k="alt_name" v="Bordstolan, store" />
		<tag k="name" v="Store Bordstolan" />
		<tag k="natural" v="water" />
		<tag k="ssr:stedsnr" v="133865" />
		<tag k="water" v="lake" />
	</node>
	<node id="-752151" lat="63.1751750036" lon="10.2304277709">
		<tag k="name" v="Gaddholmen" />
		<tag k="place" v="islet" />
		<tag k="ssr:stedsnr" v="133764" />
	</node>
	<node id="-752149" lat="63.1473361142" lon="10.3559416751">
		<tag k="name" v="Kringlotvatnet" />
		<tag k="natural" v="water" />
		<tag k="ssr:stedsnr" v="133856" />
	</node>
	<node id="-752148" lat="63.1581305576" lon="10.5256611032">
		<tag k="name" v="Søre Helvetet" />
		<tag k="natural" v="water" />
		<tag k="old_name" v="Helvete, s" />
		<tag k="ssr:stedsnr" v="133847" />
	</node>
	<node id="-752144" lat="63.2138638922" lon="10.4737111088">
		<tag k="alt_name" v="Rångåvatnet" />
		<tag k="name" v="Rangåvatnet" />
		<tag k="natural" v="water" />
		<tag k="ssr:stedsnr" v="133678" />
		<tag k="water" v="lake" />
	</node>
	<node id="-753752" lat="63.1602638922" lon="10.3281944539">
		<tag k="name" v="Storskardtjønna" />
		<tag k="natural" v="water" />
		<tag k="ssr:stedsnr" v="862863" />
	</node>
	<node id="-752141" lat="63.0276027772" lon="10.0451111122">
		<tag k="name" v="Svarttjønna" />
		<tag k="natural" v="water" />
		<tag k="ssr:stedsnr" v="133651" />
	</node>
	<node id="-752140" lat="63.1646388871" lon="10.243525003">
		<tag k="name" v="Svartvatnet" />
		<tag k="natural" v="water" />
		<tag k="ssr:stedsnr" v="133754" />
	</node>
	<node id="-751362" lat="63.1380527815" lon="10.0541416616">
		<tag k="name" v="Litlslættbekken" />
		<tag k="ssr:stedsnr" v="887146" />
		<tag k="waterway" v="stream" />
	</node>
	<node id="-752135" lat="63.1542249979" lon="10.1710638894">
		<tag k="name" v="Broka" />
		<tag k="natural" v="bay" />
		<tag k="ssr:stedsnr" v="133101" />
	</node>
	<node id="-752133" lat="63.1385749984" lon="9.97972777079">
		<tag k="name" v="Motjønna" />
		<tag k="natural" v="water" />
		<tag k="ssr:stedsnr" v="133077" />
	</node>
	<node id="-752130" lat="63.1827333307" lon="10.1882888907">
		<tag k="name" v="Ramsjøen" />
		<tag k="natural" v="water" />
		<tag k="ssr:stedsnr" v="133138" />
	</node>
	<node id="-752126" lat="63.1193055535" lon="10.1164861143">
		<tag k="name" v="Svarttjønna" />
		<tag k="natural" v="water" />
		<tag k="ssr:stedsnr" v="133029" />
	</node>
	<node id="-752106" lat="63.2172055601" lon="10.4488444369">
		<tag k="name" v="Damtjønna" />
		<tag k="natural" v="water" />
		<tag k="ssr:stedsnr" v="98851" />
	</node>
	<node id="-752097" lat="63.182583329" lon="10.0763916735">
		<tag k="name" v="Kardustjønnbekken" />
		<tag k="ssr:stedsnr" v="98529" />
		<tag k="waterway" v="stream" />
	</node>
	<node id="-752090" lat="63.1606944442" lon="10.2062472187">
		<tag k="name" v="Storholmen" />
		<tag k="place" v="islet" />
		<tag k="ssr:stedsnr" v="97982" />
	</node>
	<node id="-752069" lat="63.1673638894" lon="9.93026111282">
		<tag k="name" v="Budalsbekken" />
		<tag k="ssr:stedsnr" v="97701" />
		<tag k="waterway" v="stream" />
	</node>
	<node id="-752058" lat="63.1094027761" lon="10.1751416745">
		<tag k="name" v="Storbekken" />
		<tag k="ssr:stedsnr" v="97534" />
		<tag k="waterway" v="stream" />
	</node>
	<node id="-753737" lat="63.1751888846" lon="10.363522228">
		<tag k="name" v="Damvassbekken" />
		<tag k="ssr:stedsnr" v="862759" />
		<tag k="waterway" v="stream" />
	</node>
	<node id="-752045" lat="63.1423138916" lon="10.0279638854">
		<tag k="name" v="Bakkåstjønna" />
		<tag k="natural" v="water" />
		<tag k="ssr:stedsnr" v="97331" />
	</node>
	<node id="-752035" lat="63.1997222196" lon="10.4188277766">
		<tag k="name" v="Litltjønna" />
		<tag k="natural" v="water" />
		<tag k="ssr:stedsnr" v="97193" />
	</node>
	<node id="-752034" lat="63.20852222" lon="10.4180194426">
		<tag k="name" v="Selfossbekken" />
		<tag k="ssr:stedsnr" v="97192" />
		<tag k="waterway" v="stream" />
	</node>
	<node id="-752033" lat="63.2429527746" lon="10.2259138913">
		<tag k="name" v="Steinbekken" />
		<tag k="ssr:stedsnr" v="97093" />
		<tag k="waterway" v="stream" />
	</node>
	<node id="-750661" lat="63.1082527816" lon="10.4120111172">
		<tag k="name" v="Storbekken" />
		<tag k="ssr:stedsnr" v="194909" />
		<tag k="waterway" v="stream" />
	</node>
	<node id="-752020" lat="63.298161115" lon="10.1854861212">
		<tag k="name" v="Vigda" />
		<tag k="ssr:stedsnr" v="74343" />
		<tag k="waterway" v="river" />
	</node>
	<node id="-752012" lat="63.1522583306" lon="10.5958000007">
		<tag k="name" v="Kråka" />
		<tag k="ssr:stedsnr" v="73859" />
		<tag k="waterway" v="stream" />
	</node>
	<node id="-752009" lat="63.161480557" lon="10.5135638938">
		<tag k="name" v="Lokan" />
		<tag k="natural" v="water" />
		<tag k="ssr:stedsnr" v="73842" />
		<tag k="water" v="lake" />
	</node>
	<node id="-752007" lat="63.1275194458" lon="10.2771000092">
		<tag k="name" v="Lynga" />
		<tag k="ssr:stedsnr" v="73835" />
		<tag k="waterway" v="stream" />
	</node>
	<node id="-752006" lat="63.1278361086" lon="10.6175638956">
		<tag k="name" v="Rundtjønnin" />
		<tag k="natural" v="water" />
		<tag k="ssr:stedsnr" v="73834" />
	</node>
	<node id="-752005" lat="63.1234361128" lon="10.6556750025">
		<tag k="name" v="Åsåra" />
		<tag k="ssr:stedsnr" v="73829" />
		<tag k="waterway" v="river" />
	</node>
	<node id="-752002" lat="63.1976527778" lon="10.4496083323">
		<tag k="name" v="Svartkaldvellvatnet" />
		<tag k="natural" v="water" />
		<tag k="old_name" v="Svartkaldellvatnet" />
		<tag k="ssr:stedsnr" v="73790" />
	</node>
	<node id="-752001" lat="63.173433331" lon="10.3508250037">
		<tag k="name" v="Møsta" />
		<tag k="old_name" v="Botnmyrbekken" />
		<tag k="ssr:stedsnr" v="73787" />
		<tag k="waterway" v="stream" />
	</node>
	<node id="-752000" lat="63.2760777754" lon="10.3582388874">
		<tag k="name" v="Langdalstjønna" />
		<tag k="natural" v="water" />
		<tag k="ssr:stedsnr" v="73785" />
	</node>
	<node id="-751999" lat="63.1582777755" lon="10.2311249966">
		<tag k="alt_name" v="Øveråsvatnet, l;Litløsåsvatnet" />
		<tag k="fixme" v="multiple name tags, choose one and add the other to alt_name" />
		<tag k="name" v="Litltjønna;Litløveråsvatnet" />
		<tag k="natural" v="water" />
		<tag k="ssr:stedsnr" v="73782" />
	</node>
	<node id="-751985" lat="63.1342425612" lon="10.1349749774">
		<tag k="name" v="Damtjønnin" />
		<tag k="natural" v="water" />
		<tag k="ssr:stedsnr" v="73076" />
	</node>
	<node id="-751984" lat="63.1368000023" lon="10.1015055571">
		<tag k="name" v="Gresja" />
		<tag k="ssr:stedsnr" v="73073" />
		<tag k="waterway" v="stream" />
	</node>
	<node id="-751956" lat="63.1256194412" lon="10.6222361044">
		<tag k="name" v="Rundtjønna" />
		<tag k="natural" v="water" />
		<tag k="ssr:stedsnr" v="37938" />
	</node>
	<node id="-751955" lat="63.1954000034" lon="10.5199777764">
		<tag k="name" v="Røddetjønna" />
		<tag k="natural" v="water" />
		<tag k="ssr:stedsnr" v="37933" />
	</node>
	<node id="-751952" lat="63.0916027807" lon="10.4876166629">
		<tag k="name" v="Bubekken" />
		<tag k="ssr:stedsnr" v="37843" />
		<tag k="waterway" v="stream" />
	</node>
	<node id="-751921" lat="63.1913305571" lon="10.1385361195">
		<tag k="name" v="Fluren" />
		<tag k="place" v="locality" />
		<tag k="ssr:stedsnr" v="37480" />
	</node>
	<node id="-751907" lat="63.250608332" lon="10.3076361099">
		<tag k="name" v="Hødalsbekken" />
		<tag k="ssr:stedsnr" v="37127" />
		<tag k="waterway" v="stream" />
	</node>
	<node id="-751896" lat="63.1410416658" lon="10.0980388969">
		<tag k="name" v="Litlbekken" />
		<tag k="ssr:stedsnr" v="36488" />
		<tag k="waterway" v="stream" />
	</node>
	<node id="-751887" lat="63.1196611068" lon="10.0698027858">
		<tag k="name" v="Sørgjerdsbekken" />
		<tag k="ssr:stedsnr" v="36326" />
		<tag k="waterway" v="stream" />
	</node>
	<node id="-751871" lat="63.1403444433" lon="10.3527361045">
		<tag k="name" v="Bløtdalsbekken" />
		<tag k="ssr:stedsnr" v="36191" />
		<tag k="waterway" v="stream" />
	</node>
	<node id="-751870" lat="63.1420111075" lon="10.3445444515">
		<tag k="name" v="Litlvatnet" />
		<tag k="natural" v="water" />
		<tag k="ssr:stedsnr" v="36189" />
		<tag k="water" v="lake" />
	</node>
	<node id="-751316" lat="63.156416665" lon="10.3502111128">
		<tag k="name" v="Litlmøstavatnet" />
		<tag k="natural" v="water" />
		<tag k="ssr:stedsnr" v="886239" />
		<tag k="water" v="lake" />
	</node>
	<node id="-751861" lat="63.1156333327" lon="10.4605972315">
		<tag k="name" v="Stenslibekken" />
		<tag k="ssr:stedsnr" v="36105" />
		<tag k="waterway" v="stream" />
	</node>
	<node id="-750291" lat="63.1917888877" lon="10.2234722145">
		<tag k="name" v="Kalvhåggåbekken" />
		<tag k="ssr:stedsnr" v="37005" />
		<tag k="waterway" v="stream" />
	</node>
	<node id="-751314" lat="63.0888388912" lon="10.3706888983">
		<tag k="name" v="Storbekken" />
		<tag k="ssr:stedsnr" v="886122" />
		<tag k="waterway" v="stream" />
	</node>
	<node id="-751850" lat="63.1784000029" lon="10.1130388827">
		<tag k="name" v="Sætra" />
		<tag k="ssr:stedsnr" v="13182" />
		<tag k="waterway" v="stream" />
	</node>
	<node id="-751847" lat="63.1937250031" lon="10.3915666717">
		<tag k="name" v="Hørvåstjønna" />
		<tag k="natural" v="water" />
		<tag k="ssr:stedsnr" v="12781" />
	</node>
	<node id="-751846" lat="63.0262777808" lon="10.0385416626">
		<tag k="name" v="Okstjønna" />
		<tag k="natural" v="water" />
		<tag k="ssr:stedsnr" v="12677" />
	</node>
	<node id="-751845" lat="63.2353666652" lon="10.3673111146">
		<tag k="name" v="Lomtjønna" />
		<tag k="natural" v="water" />
		<tag k="ssr:stedsnr" v="12742" />
	</node>
	<node id="-751842" lat="63.0691861073" lon="10.1194916634">
		<tag k="name" v="Sandholtvatnet" />
		<tag k="natural" v="water" />
		<tag k="old_name" v="Sandholvatnet" />
		<tag k="ssr:stedsnr" v="12492" />
	</node>
	<node id="-751839" lat="63.0964916705" lon="9.98518333975">
		<tag k="name" v="Rødstjønna" />
		<tag k="natural" v="water" />
		<tag k="ssr:stedsnr" v="12542" />
	</node>
	<node id="-751835" lat="63.1334888892" lon="9.89908612101">
		<tag k="name" v="Svorksjøen" />
		<tag k="natural" v="water" />
		<tag k="ssr:stedsnr" v="12095" />
		<tag k="water" v="lake" />
	</node>
	<node id="-751831" lat="63.117961107" lon="10.1783055562">
		<tag k="name" v="Godfarbekken" />
		<tag k="ssr:stedsnr" v="12031" />
		<tag k="waterway" v="stream" />
	</node>
	<node id="-751830" lat="63.1119656664" lon="10.0931495287">
		<tag k="name" v="Johansslættbekken" />
		<tag k="old_name" v="Johanslettbekken" />
		<tag k="ssr:stedsnr" v="12030" />
		<tag k="waterway" v="stream" />
	</node>
	<node id="-750286" lat="63.1034333361" lon="10.4855944385">
		<tag k="name" v="Gammelåstjønna" />
		<tag k="natural" v="water" />
		<tag k="ssr:stedsnr" v="12917" />
	</node>
	<node id="-751824" lat="63.101105552" lon="9.97620555462">
		<tag k="name" v="Skogstadvatnet" />
		<tag k="natural" v="water" />
		<tag k="ssr:stedsnr" v="12013" />
	</node>
	<node id="-751810" lat="63.0958250043" lon="10.2279083257">
		<tag k="name" v="Storkaribekken" />
		<tag k="ssr:stedsnr" v="947872" />
		<tag k="waterway" v="stream" />
	</node>
	<node id="-751808" lat="63.1083250045" lon="10.2888444399">
		<tag k="name" v="Velttjønna" />
		<tag k="natural" v="water" />
		<tag k="ssr:stedsnr" v="947854" />
	</node>
	<node id="-751802" lat="63.0695055567" lon="10.1943499943">
		<tag k="name" v="Skjykja" />
		<tag k="ssr:stedsnr" v="947662" />
		<tag k="waterway" v="stream" />
	</node>
	<node id="-753636" lat="63.1338694469" lon="9.96131111348">
		<tag k="name" v="Kattjønna" />
		<tag k="natural" v="water" />
		<tag k="ssr:stedsnr" v="826733" />
	</node>
	<node id="-751792" lat="63.1645972233" lon="10.2481527755">
		<tag k="name" v="Svarttjønna" />
		<tag k="natural" v="water" />
		<tag k="ssr:stedsnr" v="947768" />
	</node>
	<node id="-751787" lat="63.0908055534" lon="10.1734527743">
		<tag k="name" v="Væravollbekken" />
		<tag k="ssr:stedsnr" v="947562" />
		<tag k="waterway" v="stream" />
	</node>
	<node id="-751784" lat="63.1361305534" lon="10.206919446">
		<tag k="name" v="Damvassbekken" />
		<tag k="ssr:stedsnr" v="947515" />
		<tag k="waterway" v="stream" />
	</node>
	<node id="-751774" lat="63.1783666688" lon="10.1110166706">
		<tag k="name" v="Setra" />
		<tag k="ssr:stedsnr" v="947458" />
		<tag k="waterway" v="river" />
	</node>
	<node id="-751794" lat="63.1019888929" lon="10.3284277704">
		<tag k="name" v="Benskarven" />
		<tag k="ssr:stedsnr" v="947916" />
		<tag k="waterway" v="stream" />
	</node>
	<node id="-751755" lat="63.1892722214" lon="10.1691666671">
		<tag k="name" v="Litlfossen" />
		<tag k="natural" v="waterfall" />
		<tag k="ssr:stedsnr" v="947071" />
	</node>
	<node id="-753792" lat="63.0815876656" lon="10.0035671656">
		<tag k="name" v="Grønlibekken" />
		<tag k="ssr:stedsnr" v="987985" />
		<tag k="waterway" v="stream" />
	</node>
	<node id="-751296" lat="63.138102782" lon="10.153411114">
		<tag k="name" v="Grøtvatnet" />
		<tag k="natural" v="water" />
		<tag k="ssr:stedsnr" v="679068" />
		<tag k="water" v="lake" />
	</node>
	<node id="-751742" lat="63.2168138883" lon="10.4232388839">
		<tag k="name" v="Børgabekken" />
		<tag k="ssr:stedsnr" v="887861" />
		<tag k="waterway" v="stream" />
	</node>
	<node id="-751741" lat="63.2165055543" lon="10.4129638842">
		<tag k="name" v="Moatjønna" />
		<tag k="natural" v="water" />
		<tag k="ssr:stedsnr" v="887859" />
	</node>
	<node id="-751740" lat="63.068719446" lon="10.1447500043">
		<tag k="name" v="Blåhåmmårbekken" />
		<tag k="ssr:stedsnr" v="887656" />
		<tag k="waterway" v="stream" />
	</node>
	<node id="-751736" lat="63.2102416641" lon="10.1630222309">
		<tag k="name" v="Rørgrunnen" />
		<tag k="natural" v="shoal" />
		<tag k="place" v="locality" />
		<tag k="ssr:stedsnr" v="887467" />
	</node>
	<node id="-751734" lat="63.2182999977" lon="10.385447223">
		<tag k="name" v="Homyrdalsbekken" />
		<tag k="ssr:stedsnr" v="887757" />
		<tag k="waterway" v="stream" />
	</node>
	<node id="-751732" lat="63.1878500036" lon="10.1704861074">
		<tag k="name" v="Kvernbekken" />
		<tag k="ssr:stedsnr" v="887069" />
		<tag k="waterway" v="stream" />
	</node>
	<node id="-751730" lat="63.1896444409" lon="10.1478249906">
		<tag k="name" v="Myraholmen" />
		<tag k="place" v="islet" />
		<tag k="ssr:stedsnr" v="887067" />
	</node>
	<node id="-751726" lat="63.1067249976" lon="10.271338879">
		<tag k="name" v="Dammen" />
		<tag k="natural" v="water" />
		<tag k="ssr:stedsnr" v="886855" />
		<tag k="water" v="pond" />
	</node>
	<node id="-751722" lat="63.1654555585" lon="10.1745055582">
		<tag k="name" v="Sandøra" />
		<tag k="natural" v="shoal" />
		<tag k="place" v="locality" />
		<tag k="ssr:stedsnr" v="886965" />
	</node>
	<node id="-751719" lat="63.1296833373" lon="9.9116638926">
		<tag k="name" v="Bjørkliodden" />
		<tag k="natural" v="cape" />
		<tag k="ssr:stedsnr" v="886753" />
	</node>
	<node id="-751718" lat="63.1524250035" lon="10.0677388813">
		<tag k="name" v="Strangliholbekken" />
		<tag k="ssr:stedsnr" v="886710" />
		<tag k="waterway" v="stream" />
	</node>
	<node id="-751717" lat="63.1519749984" lon="10.0635222232">
		<tag k="name" v="Vinnåa" />
		<tag k="ssr:stedsnr" v="886706" />
		<tag k="waterway" v="stream" />
	</node>
	<node id="-753759" lat="63.0892694422" lon="10.3551222289">
		<tag k="alt_name" v="Rekroken" />
		<tag k="name" v="Rækroken" />
		<tag k="place" v="locality" />
		<tag k="ssr:stedsnr" v="862946" />
	</node>
	<node id="-753757" lat="63.1003916682" lon="10.3851805605">
		<tag k="name" v="Gaddvatnet" />
		<tag k="natural" v="water" />
		<tag k="ssr:stedsnr" v="862930" />
	</node>
	<node id="-751708" lat="63.0929194437" lon="10.0826777754">
		<tag k="name" v="Giltjønna" />
		<tag k="natural" v="water" />
		<tag k="ssr:stedsnr" v="886319" />
	</node>
	<node id="-753754" lat="63.1461916668" lon="10.3898055525">
		<tag k="name" v="Talbergsvatnet" />
		<tag k="natural" v="water" />
		<tag k="ssr:stedsnr" v="862871" />
	</node>
	<node id="-753753" lat="63.1597916708" lon="10.3483888967">
		<tag k="name" v="Møstavatna" />
		<tag k="natural" v="water" />
		<tag k="ssr:stedsnr" v="862865" />
		<tag k="water" v="lake" />
	</node>
	<node id="-751704" lat="63.2725972218" lon="10.2560222271">
		<tag k="name" v="Moabekken" />
		<tag k="ssr:stedsnr" v="886155" />
		<tag k="waterway" v="stream" />
	</node>
	<node id="-753751" lat="63.3021611094" lon="10.3113833422">
		<tag k="fixme" v="multiple name tags, choose one and add the other to alt_name" />
		<tag k="name" v="Brubakkbekken;Langbekken" />
		<tag k="ssr:stedsnr" v="862857" />
		<tag k="waterway" v="stream" />
	</node>
	<node id="-751702" lat="63.1315055583" lon="10.4033611127">
		<tag k="name" v="Sjefflibekken" />
		<tag k="ssr:stedsnr" v="886212" />
		<tag k="waterway" v="stream" />
	</node>
	<node id="-751700" lat="63.1462888856" lon="10.4283083349">
		<tag k="name" v="Holvolltjønna" />
		<tag k="natural" v="water" />
		<tag k="ssr:stedsnr" v="886204" />
	</node>
	<node id="-751699" lat="63.1367499999" lon="10.426222222">
		<tag k="name" v="Hobekken" />
		<tag k="ssr:stedsnr" v="886203" />
		<tag k="waterway" v="stream" />
	</node>
	<node id="-753746" lat="63.1206055515" lon="10.2995805625">
		<tag k="name" v="Lomtjønnin" />
		<tag k="natural" v="water" />
		<tag k="ssr:stedsnr" v="862847" />
	</node>
	<node id="-753744" lat="63.1316750022" lon="10.3019166601">
		<tag k="name" v="Storvatnet" />
		<tag k="natural" v="water" />
		<tag k="ssr:stedsnr" v="862842" />
		<tag k="water" v="lake" />
	</node>
	<node id="-751695" lat="63.1937083307" lon="10.2421527784">
		<tag k="name" v="Sveodden" />
		<tag k="natural" v="cape" />
		<tag k="ssr:stedsnr" v="886016" />
	</node>
	<node id="-751694" lat="63.1305027734" lon="9.97124721322">
		<tag k="name" v="Reksåsvatnet" />
		<tag k="natural" v="water" />
		<tag k="ssr:stedsnr" v="874956" />
		<tag k="water" v="lake" />
	</node>
	<node id="-753739" lat="63.1738027759" lon="10.2528166749">
		<tag k="name" v="Sågåsvatna" />
		<tag k="natural" v="water" />
		<tag k="ssr:stedsnr" v="862795" />
	</node>
	<node id="-751689" lat="63.0732910727" lon="10.2568368829">
		<tag k="name" v="Bruahølen" />
		<tag k="place" v="locality" />
		<tag k="ssr:stedsnr" v="947935" />
	</node>
	<node id="-751688" lat="63.2667638922" lon="10.3423388883">
		<tag k="name" v="Lauvsetdamtjønna" />
		<tag k="natural" v="water" />
		<tag k="ssr:stedsnr" v="947847" />
	</node>
	<node id="-753734" lat="63.0536583323" lon="10.0987388939">
		<tag k="name" v="Lomtjønna" />
		<tag k="natural" v="water" />
		<tag k="ssr:stedsnr" v="862587" />
	</node>
	<node id="-751685" lat="63.2477722243" lon="10.3606416635">
		<tag k="name" v="Sløbekken" />
		<tag k="ssr:stedsnr" v="947739" />
		<tag k="waterway" v="stream" />
	</node>
	<node id="-751684" lat="63.245836114" lon="10.3677111144">
		<tag k="name" v="Vulubekken" />
		<tag k="ssr:stedsnr" v="947735" />
		<tag k="waterway" v="stream" />
	</node>
	<node id="-751676" lat="63.1674638895" lon="10.0509249922">
		<tag k="name" v="Holbekken" />
		<tag k="ssr:stedsnr" v="947688" />
		<tag k="waterway" v="stream" />
	</node>
	<node id="-753719" lat="63.1745138912" lon="10.0127777734">
		<tag k="name" v="Stordamtjønna" />
		<tag k="natural" v="water" />
		<tag k="ssr:stedsnr" v="862177" />
	</node>
	<node id="-751668" lat="63.205033333" lon="10.1710138913">
		<tag k="name" v="Kvernbekken" />
		<tag k="ssr:stedsnr" v="947440" />
		<tag k="waterway" v="stream" />
	</node>
	<node id="-751667" lat="63.199900004" lon="10.1658638898">
		<tag k="name" v="Aunbukta" />
		<tag k="natural" v="bay" />
		<tag k="ssr:stedsnr" v="947439" />
	</node>
	<node id="-753714" lat="63.1237388922" lon="10.12591389">
		<tag k="name" v="Nerkåstjønna" />
		<tag k="natural" v="water" />
		<tag k="ssr:stedsnr" v="862063" />
	</node>
	<node id="-753713" lat="63.1254194427" lon="10.0898305459">
		<tag k="name" v="Storbekken" />
		<tag k="ssr:stedsnr" v="862058" />
		<tag k="waterway" v="stream" />
	</node>
	<node id="-751655" lat="63.1830277771" lon="10.0242888806">
		<tag k="name" v="Nedre Spellmannstjønna" />
		<tag k="natural" v="water" />
		<tag k="ssr:stedsnr" v="947392" />
	</node>
	<node id="-751654" lat="63.1437888846" lon="10.0089499944">
		<tag k="name" v="Kvernbekken" />
		<tag k="ssr:stedsnr" v="947295" />
		<tag k="waterway" v="stream" />
	</node>
	<node id="-751645" lat="63.2892249994" lon="10.248738893">
		<tag k="name" v="Varmbubekken" />
		<tag k="ssr:stedsnr" v="947179" />
		<tag k="waterway" v="stream" />
	</node>
	<node id="-753681" lat="63.2253250001" lon="10.4940333432">
		<tag k="name" v="Svartdalstjønna" />
		<tag k="natural" v="water" />
		<tag k="ssr:stedsnr" v="826944" />
	</node>
	<node id="-753680" lat="63.195958335" lon="10.5104972153">
		<tag k="name" v="Litlrangåa" />
		<tag k="ssr:stedsnr" v="826931" />
		<tag k="waterway" v="stream" />
	</node>
	<node id="-751630" lat="63.2264083352" lon="10.3072277694">
		<tag k="name" v="Kolobekken" />
		<tag k="ssr:stedsnr" v="947094" />
		<tag k="waterway" v="stream" />
	</node>
	<node id="-753675" lat="63.0863916673" lon="10.2454472144">
		<tag k="name" v="Krossbekken" />
		<tag k="ssr:stedsnr" v="826896" />
		<tag k="waterway" v="stream" />
	</node>
	<node id="-753672" lat="63.3105194457" lon="10.3467277777">
		<tag k="name" v="Stokkbekken" />
		<tag k="ssr:stedsnr" v="826876" />
		<tag k="waterway" v="stream" />
	</node>
	<node id="-751622" lat="63.1929027741" lon="10.2507499932">
		<tag k="name" v="Osen" />
		<tag k="natural" v="bay" />
		<tag k="ssr:stedsnr" v="947132" />
	</node>
	<node id="-750593" lat="63.0680094014" lon="10.1967247259">
		<tag k="name" v="Heiersagfossen" />
		<tag k="natural" v="waterfall" />
		<tag k="ssr:stedsnr" v="280700" />
	</node>
	<node id="-753666" lat="63.2259694424" lon="10.4530583319">
		<tag k="name" v="Fisklaustjønnbekken" />
		<tag k="ssr:stedsnr" v="826839" />
		<tag k="waterway" v="stream" />
>>>>>>> e1d4bc35ff8a6074a6f2e91616a996b547c36f15
	</node>
</osm>
