<?xml version="1.0" encoding="UTF-8"?>
<osm version="0.6" generator="osmapis">
	<node lat="63.106838886175" lon="9.919980555213959" id="-32926">
		<tag k="name" v="Jensberget" />
		<tag k="natural" v="hill" />
		<tag k="place" v="locality" />
		<tag k="ssr:stedsnr" v="12011" />
	</node>
	<node lat="63.13299999612879" lon="10.140674992452873" id="-32928">
		<tag k="name" v="Limberget" />
		<tag k="natural" v="hill" />
		<tag k="place" v="locality" />
		<tag k="ssr:stedsnr" v="12081" />
	</node>
	<node lat="63.1569555578341" lon="10.18133889120792" id="-32929">
		<tag k="fixme" v="consider natural=peak for the most distinct mountains in the district" />
		<tag k="name" v="Kvernaåsen" />
		<tag k="natural" v="hill" />
		<tag k="place" v="locality" />
		<tag k="ssr:stedsnr" v="12118" />
	</node>
	<node lat="63.16316666402263" lon="10.632363886609916" id="-32940">
		<tag k="fixme" v="consider natural=peak for the most distinct mountains in the district" />
		<tag k="name" v="Kråkfjellet" />
		<tag k="natural" v="hill" />
		<tag k="place" v="locality" />
		<tag k="ssr:stedsnr" v="12838" />
	</node>
	<node lat="63.19541944788724" lon="10.464880565139426" id="-32946">
		<tag k="name" v="Pindalen" />
		<tag k="natural" v="valley" />
		<tag k="place" v="locality" />
		<tag k="ssr:stedsnr" v="12782" />
	</node>
	<node lat="63.26051388777242" lon="10.304925003605533" id="-32960">
		<tag k="name" v="Helvetesdalen" />
		<tag k="natural" v="valley" />
		<tag k="place" v="locality" />
		<tag k="ssr:stedsnr" v="36127" />
	</node>
	<node lat="63.198152776273574" lon="10.386772229446823" id="-32962">
		<tag k="name" v="Kattuggelkammen" />
		<tag k="natural" v="hill" />
		<tag k="place" v="locality" />
		<tag k="ssr:stedsnr" v="36164" />
	</node>
	<node lat="63.14018333097848" lon="10.040391673518021" id="-32963">
		<tag k="fixme" v="consider natural=peak for the most distinct mountains in the district" />
		<tag k="name" v="Kjølåsen" />
		<tag k="natural" v="hill" />
		<tag k="place" v="locality" />
		<tag k="ssr:stedsnr" v="36301" />
	</node>
	<node lat="63.09496388882476" lon="9.910452768078194" id="-32966">
		<tag k="name" v="Storstensbakkan" />
		<tag k="natural" v="slope" />
		<tag k="place" v="locality" />
		<tag k="ssr:stedsnr" v="36213" />
	</node>
	<node lat="63.0947596921111" lon="9.935780469270417" id="-32968">
		<tag k="fixme" v="consider natural=peak for the most distinct mountains in the district" />
		<tag k="name" v="Svartvassåsen" />
		<tag k="natural" v="hill" />
		<tag k="place" v="locality" />
		<tag k="ssr:stedsnr" v="36222" />
	</node>
	<node lat="63.0918333301927" lon="9.915430553580734" id="-32970">
		<tag k="alt_name" v="Bergslætte" />
		<tag k="name" v="Bergslættet" />
		<tag k="place" v="locality" />
		<tag k="ssr:stedsnr" v="36274" />
	</node>
	<node lat="63.10210278112466" lon="9.903897223519254" id="-32971">
		<tag k="name" v="Fransengskardet" />
		<tag k="natural" v="valley" />
		<tag k="place" v="locality" />
		<tag k="ssr:stedsnr" v="36279" />
	</node>
	<node lat="63.11649722434779" lon="10.193752781815903" id="-32973">
		<tag k="name" v="Hoppardalen" />
		<tag k="natural" v="valley" />
		<tag k="place" v="locality" />
		<tag k="ssr:stedsnr" v="36520" />
	</node>
	<node lat="63.158866663097164" lon="10.103769440337294" id="-32975">
		<tag k="name" v="Oddhaugen" />
		<tag k="natural" v="hill" />
		<tag k="place" v="locality" />
		<tag k="ssr:stedsnr" v="36469" />
	</node>
	<node lat="63.14061944478936" lon="10.200016666610962" id="-32978">
		<tag k="name" v="Skitarbakken" />
		<tag k="natural" v="slope" />
		<tag k="place" v="locality" />
		<tag k="ssr:stedsnr" v="36976" />
	</node>
	<node lat="63.21852499729935" lon="10.307380545851172" id="-32980">
		<tag k="fixme" v="consider natural=peak for the most distinct mountains in the district" />
		<tag k="name" v="Nyhusklevan" />
		<tag k="natural" v="hill" />
		<tag k="place" v="locality" />
		<tag k="ssr:stedsnr" v="37116" />
	</node>
	<node lat="63.1821249960224" lon="10.244588885666891" id="-32986">
		<tag k="fixme" v="consider natural=peak for the most distinct mountains in the district" />
		<tag k="name" v="Bergåsen" />
		<tag k="natural" v="hill" />
		<tag k="place" v="locality" />
		<tag k="ssr:stedsnr" v="37161" />
	</node>
	<node lat="63.07886111275615" lon="10.09262499845776" id="-32990">
		<tag k="name" v="Bjørnbakken" />
		<tag k="natural" v="slope" />
		<tag k="place" v="locality" />
		<tag k="ssr:stedsnr" v="37665" />
	</node>
	<node lat="63.18620555420701" lon="10.384130546859241" id="-32994">
		<tag k="name" v="Litlslættet" />
		<tag k="place" v="locality" />
		<tag k="ssr:stedsnr" v="37806" />
	</node>
	<node lat="63.17517777998431" lon="10.424783335215388" id="-32995">
		<tag k="fixme" v="consider natural=peak for the most distinct mountains in the district" />
		<tag k="name" v="Seteråsen" />
		<tag k="natural" v="hill" />
		<tag k="place" v="locality" />
		<tag k="ssr:stedsnr" v="37818" />
	</node>
	<node lat="63.18376943999116" lon="10.44940000502974" id="-32996">
		<tag k="fixme" v="consider natural=peak for the most distinct mountains in the district" />
		<tag k="name" v="Bortnåsen" />
		<tag k="natural" v="hill" />
		<tag k="place" v="locality" />
		<tag k="ssr:stedsnr" v="37820" />
	</node>
	<node lat="63.24718610673657" lon="10.373425002733041" id="-33001">
		<tag k="fixme" v="consider natural=peak for the most distinct mountains in the district" />
		<tag k="name" v="Vuluåsen" />
		<tag k="natural" v="hill" />
		<tag k="place" v="locality" />
		<tag k="ssr:stedsnr" v="37767" />
	</node>
	<node lat="63.08830832950971" lon="10.300961102071325" id="-33004">
		<tag k="name" v="Ivaslættet" />
		<tag k="place" v="locality" />
		<tag k="ssr:stedsnr" v="37908" />
	</node>
	<node lat="63.108213889704665" lon="10.477102778434967" id="-33021">
		<tag k="name" v="Skjeldbreidalen" />
		<tag k="natural" v="valley" />
		<tag k="place" v="locality" />
		<tag k="ssr:stedsnr" v="242607" />
	</node>
	<node lat="63.07384167057211" lon="10.037486103018395" id="-33032">
		<tag k="fixme" v="consider natural=peak for the most distinct mountains in the district" />
		<tag k="name" v="Høgkneppen" />
		<tag k="natural" v="hill" />
		<tag k="place" v="locality" />
		<tag k="ssr:stedsnr" v="73522" />
	</node>
	<node lat="63.21058888481254" lon="10.43322778270237" id="-33034">
		<tag k="alt_name" v="Moaåsen" />
		<tag k="fixme" v="consider natural=peak for the most distinct mountains in the district" />
		<tag k="name" v="Sæteråsen" />
		<tag k="natural" v="hill" />
		<tag k="place" v="locality" />
		<tag k="ssr:stedsnr" v="73701" />
	</node>
	<node lat="63.17741944376969" lon="10.415997227283677" id="-33036">
		<tag k="fixme" v="consider natural=peak for the most distinct mountains in the district" />
		<tag k="name" v="Vindåsen" />
		<tag k="natural" v="hill" />
		<tag k="place" v="locality" />
		<tag k="ssr:stedsnr" v="73759" />
	</node>
	<node lat="63.17599722586294" lon="10.522191667856335" id="-33037">
		<tag k="name" v="Lokdalen" />
		<tag k="natural" v="valley" />
		<tag k="place" v="locality" />
		<tag k="ssr:stedsnr" v="73762" />
	</node>
	<node lat="63.27074722263281" lon="10.3119277823564" id="-33038">
		<tag k="fixme" v="consider natural=peak for the most distinct mountains in the district" />
		<tag k="name" v="Furuåsen" />
		<tag k="natural" v="hill" />
		<tag k="place" v="locality" />
		<tag k="ssr:stedsnr" v="73770" />
	</node>
	<node lat="63.10454167050298" lon="10.302583323922478" id="-33039">
		<tag k="fixme" v="consider natural=peak for the most distinct mountains in the district" />
		<tag k="name" v="Svartvassåsen" />
		<tag k="natural" v="hill" />
		<tag k="place" v="locality" />
		<tag k="ssr:stedsnr" v="73909" />
	</node>
	<node lat="63.292155557033766" lon="10.366355549465311" id="-33041">
		<tag k="name" v="Tømmerdalen" />
		<tag k="natural" v="valley" />
		<tag k="place" v="locality" />
		<tag k="ssr:stedsnr" v="74806" />
	</node>
	<node lat="63.19495000010392" lon="10.248452783293859" id="-33045">
		<tag k="name" v="Saghaugan" />
		<tag k="natural" v="hill" />
		<tag k="place" v="locality" />
		<tag k="ssr:stedsnr" v="97015" />
	</node>
	<node lat="63.1808055514305" lon="10.23599443926246" id="-33046">
		<tag k="name" v="Tortdalen" />
		<tag k="natural" v="valley" />
		<tag k="place" v="locality" />
		<tag k="ssr:stedsnr" v="97104" />
	</node>
	<node lat="63.18216389197879" lon="10.26442778044107" id="-33047">
		<tag k="fixme" v="consider natural=peak for the most distinct mountains in the district" />
		<tag k="name" v="Lemåsen" />
		<tag k="natural" v="hill" />
		<tag k="place" v="locality" />
		<tag k="ssr:stedsnr" v="97111" />
	</node>
	<node lat="63.17563888461937" lon="10.263697212492911" id="-33048">
		<tag k="name" v="Kånsdalen" />
		<tag k="natural" v="valley" />
		<tag k="place" v="locality" />
		<tag k="ssr:stedsnr" v="97113" />
	</node>
	<node lat="63.09826388624848" lon="10.3871111096352" id="-33049">
		<tag k="fixme" v="consider natural=peak for the most distinct mountains in the district" />
		<tag k="name" v="Tvilåsen" />
		<tag k="natural" v="hill" />
		<tag k="place" v="locality" />
		<tag k="ssr:stedsnr" v="97124" />
	</node>
	<node lat="63.105269442920815" lon="9.965149997770709" id="-33053">
		<tag k="name" v="Fosslikosen" />
		<tag k="natural" v="hill" />
		<tag k="place" v="locality" />
		<tag k="ssr:stedsnr" v="97263" />
	</node>
	<node lat="63.10528611153687" lon="9.922208333368989" id="-33054">
		<tag k="name" v="Ormberget" />
		<tag k="natural" v="hill" />
		<tag k="place" v="locality" />
		<tag k="ssr:stedsnr" v="97309" />
	</node>
	<node lat="63.09286666562192" lon="9.998733328396293" id="-33056">
		<tag k="fixme" v="consider natural=peak for the most distinct mountains in the district" />
		<tag k="name" v="Ondusåsen" />
		<tag k="natural" v="hill" />
		<tag k="place" v="locality" />
		<tag k="ssr:stedsnr" v="97363" />
	</node>
	<node lat="63.09561388658403" lon="10.009633340272835" id="-33057">
		<tag k="fixme" v="consider natural=peak for the most distinct mountains in the district" />
		<tag k="name" v="Håmmåråsåsen" />
		<tag k="natural" v="hill" />
		<tag k="place" v="locality" />
		<tag k="ssr:stedsnr" v="97378" />
	</node>
	<node lat="63.15877222497643" lon="10.092419437971145" id="-33059">
		<tag k="name" v="Grøtåspynten" />
		<tag k="natural" v="hill" />
		<tag k="place" v="locality" />
		<tag k="ssr:stedsnr" v="97506" />
	</node>
	<node lat="63.16540555400553" lon="10.035113894956849" id="-33066">
		<tag k="fixme" v="consider natural=peak for the most distinct mountains in the district" />
		<tag k="name" v="Kvikilsåsen" />
		<tag k="natural" v="hill" />
		<tag k="place" v="locality" />
		<tag k="ssr:stedsnr" v="97718" />
	</node>
	<node lat="63.10297500136352" lon="10.279991672024622" id="-33068">
		<tag k="name" v="Høgdalseggin" />
		<tag k="natural" v="mountain_range" />
		<tag k="ssr:stedsnr" v="97866" />
	</node>
	<node lat="63.09561666439345" lon="10.264758328062804" id="-33070">
		<tag k="name" v="Sløgdin" />
		<tag k="natural" v="slope" />
		<tag k="place" v="locality" />
		<tag k="ssr:stedsnr" v="97868" />
	</node>
	<node lat="63.182844447912416" lon="10.165438895954043" id="-33073">
		<tag k="name" v="Hårrådalen" />
		<tag k="natural" v="valley" />
		<tag k="place" v="locality" />
		<tag k="ssr:stedsnr" v="98064" />
	</node>
	<node lat="63.170608331250854" lon="10.23961944709855" id="-33079">
		<tag k="fixme" v="consider natural=peak for the most distinct mountains in the district" />
		<tag k="name" v="Båsmyråsen" />
		<tag k="natural" v="hill" />
		<tag k="place" v="locality" />
		<tag k="ssr:stedsnr" v="98111" />
	</node>
	<node lat="63.19743055172914" lon="10.08379167093191" id="-33085">
		<tag k="fixme" v="consider natural=peak for the most distinct mountains in the district" />
		<tag k="name" v="Slettåsen" />
		<tag k="natural" v="hill" />
		<tag k="place" v="locality" />
		<tag k="ssr:stedsnr" v="98524" />
	</node>
	<node lat="63.117519443144715" lon="10.116933331947575" id="-33086">
		<tag k="fixme" v="consider natural=peak for the most distinct mountains in the district" />
		<tag k="name" v="Stensetkjølen" />
		<tag k="natural" v="hill" />
		<tag k="place" v="locality" />
		<tag k="ssr:stedsnr" v="98578" />
	</node>
	<node lat="63.12181111132249" lon="10.11775555756559" id="-33087">
		<tag k="name" v="Enaslættet" />
		<tag k="place" v="locality" />
		<tag k="ssr:stedsnr" v="98579" />
	</node>
	<node lat="63.12690833189253" lon="10.495577772714874" id="-33090">
		<tag k="fixme" v="consider natural=peak for the most distinct mountains in the district" />
		<tag k="name" v="Ytter Slettdalsåsen" />
		<tag k="natural" v="hill" />
		<tag k="place" v="locality" />
		<tag k="ssr:stedsnr" v="98820" />
	</node>
	<node lat="63.29887222081847" lon="10.381336103329858" id="-33092">
		<tag k="name" v="Kudalen" />
		<tag k="natural" v="valley" />
		<tag k="place" v="locality" />
		<tag k="ssr:stedsnr" v="98875" />
	</node>
	<node lat="63.28791388644381" lon="10.365280554230345" id="-33093">
		<tag k="fixme" v="consider natural=peak for the most distinct mountains in the district" />
		<tag k="name" v="Høgåsen" />
		<tag k="natural" v="hill" />
		<tag k="place" v="locality" />
		<tag k="ssr:stedsnr" v="98876" />
	</node>
	<node lat="63.22747777608671" lon="10.425575000167523" id="-33094">
		<tag k="name" v="Storhaugen" />
		<tag k="natural" v="hill" />
		<tag k="place" v="locality" />
		<tag k="ssr:stedsnr" v="98761" />
	</node>
	<node lat="63.21224166909513" lon="10.344922223715377" id="-33095">
		<tag k="name" v="Skåla" />
		<tag k="natural" v="hill" />
		<tag k="place" v="locality" />
		<tag k="ssr:stedsnr" v="98762" />
	</node>
	<node lat="63.18968888861503" lon="10.377991676310517" id="-33096">
		<tag k="fixme" v="consider natural=peak for the most distinct mountains in the district" />
		<tag k="name" v="Gruvåsen" />
		<tag k="natural" v="hill" />
		<tag k="place" v="locality" />
		<tag k="ssr:stedsnr" v="98765" />
	</node>
	<node lat="63.14321666395792" lon="10.40507499894353" id="-33097">
		<tag k="name" v="Svartdalen" />
		<tag k="natural" v="valley" />
		<tag k="place" v="locality" />
		<tag k="ssr:stedsnr" v="98766" />
	</node>
	<node lat="63.17830555658542" lon="10.186319438341119" id="-33105">
		<tag k="fixme" v="consider natural=peak for the most distinct mountains in the district" />
		<tag k="name" v="Solemsåsen" />
		<tag k="natural" v="hill" />
		<tag k="place" v="locality" />
		<tag k="ssr:stedsnr" v="133121" />
	</node>
	<node lat="63.135488885573835" lon="10.382566675662954" id="-33119">
		<tag k="name" v="Gyllaug" />
		<tag k="natural" v="hill" />
		<tag k="place" v="locality" />
		<tag k="ssr:stedsnr" v="133803" />
	</node>
	<node lat="63.057911108774604" lon="10.117377772875848" id="-33135">
		<tag k="alt_name" v="Irskneppen" />
		<tag k="fixme" v="consider natural=peak for the most distinct mountains in the district" />
		<tag k="name" v="Ilsknippen" />
		<tag k="natural" v="hill" />
		<tag k="place" v="locality" />
		<tag k="ssr:stedsnr" v="254577" />
	</node>
	<node lat="63.121666664832" lon="9.996705551983135" id="-33139">
		<tag k="name" v="Brennhogstret" />
		<tag k="natural" v="slope" />
		<tag k="old_name" v="Brennhostret" />
		<tag k="place" v="locality" />
		<tag k="ssr:stedsnr" v="255045" />
	</node>
	<node lat="63.23237777327567" lon="10.174686119383168" id="-33141">
		<tag k="name" v="Blåhåmmåren" />
		<tag k="natural" v="hill" />
		<tag k="old_name" v="Blåhamaren" />
		<tag k="place" v="locality" />
		<tag k="ssr:stedsnr" v="255286" />
	</node>
	<node lat="63.15821666755321" lon="10.125625003523025" id="-33142">
		<tag k="alt_name" v="Ramnberget" />
		<tag k="name" v="Ramberget" />
		<tag k="natural" v="hill" />
		<tag k="place" v="locality" />
		<tag k="ssr:stedsnr" v="255139" />
	</node>
	<node lat="63.283938884746135" lon="10.33175000737752" id="-33145">
		<tag k="fixme" v="consider natural=peak for the most distinct mountains in the district" />
		<tag k="name" v="Svartåsen" />
		<tag k="natural" v="hill" />
		<tag k="place" v="locality" />
		<tag k="ssr:stedsnr" v="255152" />
	</node>
	<node lat="63.20292499923125" lon="10.34215834017007" id="-33147">
		<tag k="fixme" v="consider natural=peak for the most distinct mountains in the district" />
		<tag k="name" v="Skardåsen" />
		<tag k="natural" v="hill" />
		<tag k="place" v="locality" />
		<tag k="ssr:stedsnr" v="255489" />
	</node>
	<node lat="63.15463889203096" lon="10.34117778275666" id="-33148">
		<tag k="fixme" v="consider natural=peak for the most distinct mountains in the district" />
		<tag k="name" v="Ratåsen" />
		<tag k="natural" v="hill" />
		<tag k="place" v="locality" />
		<tag k="ssr:stedsnr" v="255495" />
	</node>
	<node lat="63.11346017233698" lon="10.29267953603073" id="-33149">
		<tag k="fixme" v="consider natural=peak for the most distinct mountains in the district" />
		<tag k="name" v="Ringvedåsen" />
		<tag k="natural" v="hill" />
		<tag k="old_name" v="Ringveåsen" />
		<tag k="place" v="locality" />
		<tag k="ssr:stedsnr" v="255497" />
	</node>
	<node lat="63.27090833622366" lon="10.221036119231897" id="-33157">
		<tag k="name" v="Lykkja" />
		<tag k="natural" v="hill" />
		<tag k="place" v="locality" />
		<tag k="ssr:stedsnr" v="255800" />
	</node>
	<node lat="63.19124166751416" lon="10.405738888956677" id="-33161">
		<tag k="fixme" v="consider natural=peak for the most distinct mountains in the district" />
		<tag k="name" v="Hørvåsen" />
		<tag k="natural" v="hill" />
		<tag k="place" v="locality" />
		<tag k="ssr:stedsnr" v="255836" />
	</node>
	<node lat="63.19753332956015" lon="10.482130560040266" id="-33162">
		<tag k="alt_name" v="Rangåliin" />
		<tag k="name" v="Rangålia" />
		<tag k="natural" v="slope" />
		<tag k="place" v="locality" />
		<tag k="ssr:stedsnr" v="255837" />
	</node>
	<node lat="63.094363890580865" lon="10.290580546655944" id="-33168">
		<tag k="fixme" v="consider natural=peak for the most distinct mountains in the district" />
		<tag k="name" v="Vassåsen" />
		<tag k="natural" v="hill" />
		<tag k="place" v="locality" />
		<tag k="ssr:stedsnr" v="255944" />
	</node>
	<node lat="63.179774998075295" lon="10.236388893411409" id="-33176">
		<tag k="fixme" v="consider natural=peak for the most distinct mountains in the district" />
		<tag k="name" v="Skrivaråsen" />
		<tag k="natural" v="hill" />
		<tag k="place" v="locality" />
		<tag k="ssr:stedsnr" v="158147" />
	</node>
	<node lat="63.16982777496233" lon="10.24264722536402" id="-33177">
		<tag k="name" v="Bulstodalen" />
		<tag k="natural" v="valley" />
		<tag k="place" v="locality" />
		<tag k="ssr:stedsnr" v="158148" />
	</node>
	<node lat="63.18172778074289" lon="10.251149996573684" id="-33178">
		<tag k="fixme" v="consider natural=peak for the most distinct mountains in the district" />
		<tag k="name" v="Kløvholet" />
		<tag k="natural" v="hill" />
		<tag k="place" v="locality" />
		<tag k="ssr:stedsnr" v="158159" />
	</node>
	<node lat="63.15221388674189" lon="10.338658332946236" id="-33179">
		<tag k="name" v="Drygsdalen" />
		<tag k="natural" v="valley" />
		<tag k="place" v="locality" />
		<tag k="ssr:stedsnr" v="158161" />
	</node>
	<node lat="63.08858332967545" lon="10.440627772646511" id="-33180">
		<tag k="name" v="Bredkjølen" />
		<tag k="natural" v="mountain_range" />
		<tag k="ssr:stedsnr" v="158164" />
	</node>
	<node lat="63.07577221885836" lon="10.318622220101258" id="-33181">
		<tag k="fixme" v="consider natural=peak for the most distinct mountains in the district" />
		<tag k="name" v="Svarttjønnhaugen" />
		<tag k="natural" v="hill" />
		<tag k="place" v="locality" />
		<tag k="ssr:stedsnr" v="158165" />
	</node>
	<node lat="63.14589721953606" lon="10.000130561937716" id="-33182">
		<tag k="name" v="Lia" />
		<tag k="natural" v="slope" />
		<tag k="place" v="locality" />
		<tag k="ssr:stedsnr" v="158304" />
	</node>
	<node lat="63.11420555701121" lon="9.90510000268752" id="-33185">
		<tag k="fixme" v="consider natural=peak for the most distinct mountains in the district" />
		<tag k="name" v="Kamban" />
		<tag k="natural" v="hill" />
		<tag k="place" v="locality" />
		<tag k="ssr:stedsnr" v="158309" />
	</node>
	<node lat="63.11858333524306" lon="10.081458335550852" id="-33187">
		<tag k="fixme" v="consider natural=peak for the most distinct mountains in the district" />
		<tag k="name" v="Ratåsen" />
		<tag k="natural" v="hill" />
		<tag k="place" v="locality" />
		<tag k="ssr:stedsnr" v="158367" />
	</node>
	<node lat="63.16743889148127" lon="10.381727775008306" id="-33191">
		<tag k="name" v="Sjursprangdalen" />
		<tag k="natural" v="valley" />
		<tag k="place" v="locality" />
		<tag k="ssr:stedsnr" v="158255" />
	</node>
	<node lat="63.15911666345613" lon="10.353627773411919" id="-33192">
		<tag k="name" v="Frosktjønndalen" />
		<tag k="natural" v="valley" />
		<tag k="place" v="locality" />
		<tag k="ssr:stedsnr" v="158260" />
	</node>
	<node lat="63.169588887230155" lon="10.35468610184969" id="-33193">
		<tag k="fixme" v="consider natural=peak for the most distinct mountains in the district" />
		<tag k="name" v="Sveåsen" />
		<tag k="natural" v="hill" />
		<tag k="place" v="locality" />
		<tag k="ssr:stedsnr" v="158262" />
	</node>
	<node lat="63.17586666555849" lon="10.014791673032297" id="-33195">
		<tag k="fixme" v="consider natural=peak for the most distinct mountains in the district" />
		<tag k="name" v="Slettåsen" />
		<tag k="natural" v="hill" />
		<tag k="place" v="locality" />
		<tag k="ssr:stedsnr" v="158410" />
	</node>
	<node lat="63.075888885155166" lon="10.001669440528039" id="-33196">
		<tag k="name" v="Snauhaugen" />
		<tag k="natural" v="hill" />
		<tag k="place" v="locality" />
		<tag k="ssr:stedsnr" v="158415" />
	</node>
	<node lat="63.152724998793296" lon="10.114969450870916" id="-33197">
		<tag k="name" v="Bergskamben" />
		<tag k="natural" v="hill" />
		<tag k="place" v="locality" />
		<tag k="ssr:stedsnr" v="158507" />
	</node>
	<node lat="63.11404444594836" lon="10.10783055575818" id="-33200">
		<tag k="fixme" v="consider natural=peak for the most distinct mountains in the district" />
		<tag k="name" v="Jutulstenåsen" />
		<tag k="natural" v="hill" />
		<tag k="place" v="locality" />
		<tag k="ssr:stedsnr" v="158559" />
	</node>
	<node lat="63.15689999814438" lon="10.04259722025396" id="-33205">
		<tag k="fixme" v="consider natural=peak for the most distinct mountains in the district" />
		<tag k="name" v="Svartbergråa" />
		<tag k="natural" v="hill" />
		<tag k="place" v="locality" />
		<tag k="ssr:stedsnr" v="158704" />
	</node>
	<node lat="63.155688892439485" lon="10.059866665988375" id="-33207">
		<tag k="name" v="Lyarhaugen" />
		<tag k="natural" v="hill" />
		<tag k="place" v="locality" />
		<tag k="ssr:stedsnr" v="158711" />
	</node>
	<node lat="63.152369441788046" lon="9.942791674821327" id="-33210">
		<tag k="name" v="Hanshaugen" />
		<tag k="natural" v="hill" />
		<tag k="place" v="locality" />
		<tag k="ssr:stedsnr" v="158761" />
	</node>
	<node lat="63.07692777506587" lon="10.122505559772298" id="-33216">
		<tag k="name" v="Svartslættet" />
		<tag k="place" v="locality" />
		<tag k="ssr:stedsnr" v="158654" />
	</node>
	<node lat="63.17235277416631" lon="10.432430557309358" id="-33221">
		<tag k="name" v="Bybotsvolldalen" />
		<tag k="natural" v="valley" />
		<tag k="place" v="locality" />
		<tag k="ssr:stedsnr" v="158806" />
	</node>
	<node lat="63.12714166703458" lon="10.234591670197434" id="-33223">
		<tag k="name" v="Kongshaugen" />
		<tag k="natural" v="hill" />
		<tag k="place" v="locality" />
		<tag k="ssr:stedsnr" v="158814" />
	</node>
	<node lat="63.17637777982851" lon="10.379102777145748" id="-33224">
		<tag k="name" v="Høgåsskardet" />
		<tag k="natural" v="valley" />
		<tag k="place" v="locality" />
		<tag k="ssr:stedsnr" v="158799" />
	</node>
	<node lat="63.1739583370169" lon="10.38739167524613" id="-33225">
		<tag k="name" v="Langdalen" />
		<tag k="natural" v="valley" />
		<tag k="place" v="locality" />
		<tag k="ssr:stedsnr" v="158800" />
	</node>
	<node lat="63.066427775615814" lon="10.237169450972546" id="-33229">
		<tag k="name" v="Tuvdalen" />
		<tag k="place" v="locality" />
		<tag k="ssr:stedsnr" v="158949" />
	</node>
	<node lat="63.06176111218036" lon="10.213830558146503" id="-33231">
		<tag k="name" v="Ørpiken" />
		<tag k="natural" v="hill" />
		<tag k="place" v="locality" />
		<tag k="ssr:stedsnr" v="158965" />
	</node>
	<node lat="63.11490555138498" lon="10.232516669220622" id="-33232">
		<tag k="name" v="Gilhaugen" />
		<tag k="natural" v="hill" />
		<tag k="place" v="locality" />
		<tag k="ssr:stedsnr" v="158850" />
	</node>
	<node lat="63.268283329806984" lon="10.347477768531048" id="-33234">
		<tag k="name" v="Salliin" />
		<tag k="natural" v="slope" />
		<tag k="place" v="locality" />
		<tag k="ssr:stedsnr" v="158862" />
	</node>
	<node lat="63.06385833410405" lon="10.000605555566434" id="-33247">
		<tag k="name" v="Storslættåsen" />
		<tag k="natural" v="hill" />
		<tag k="place" v="locality" />
		<tag k="ssr:stedsnr" v="263747" />
	</node>
	<node lat="65.11002777597567" lon="13.085422216082504" id="-33255">
		<tag k="fixme" v="consider natural=peak for the most distinct mountains in the district" />
		<tag k="name" v="Kløftfjellet - Sloeptjenguevtele" />
		<tag k="name:no" v="Kløftfjellet" />
		<tag k="name:sma" v="Sloeptjenguevtele" />
		<tag k="natural" v="hill" />
		<tag k="place" v="locality" />
		<tag k="ssr:stedsnr" v="196523" />
	</node>
	<node lat="63.143499998966" lon="10.077916665448667" id="-33259">
		<tag k="name" v="Almåsliin" />
		<tag k="natural" v="slope" />
		<tag k="place" v="locality" />
		<tag k="ssr:stedsnr" v="218405" />
	</node>
	<node lat="63.06725277777018" lon="9.990547224747747" id="-33260">
		<tag k="fixme" v="consider natural=peak for the most distinct mountains in the district" />
		<tag k="name" v="Sollihåmmåren" />
		<tag k="natural" v="hill" />
		<tag k="place" v="locality" />
		<tag k="ssr:stedsnr" v="218406" />
	</node>
	<node lat="63.19589444450212" lon="10.265186120793683" id="-33263">
		<tag k="fixme" v="consider natural=peak for the most distinct mountains in the district" />
		<tag k="name" v="Aunåsen" />
		<tag k="natural" v="hill" />
		<tag k="place" v="locality" />
		<tag k="ssr:stedsnr" v="219014" />
	</node>
	<node lat="63.18787777653147" lon="10.181766674767308" id="-33264">
		<tag k="name" v="Styggdalsflata" />
		<tag k="place" v="locality" />
		<tag k="ssr:stedsnr" v="219031" />
	</node>
	<node lat="63.20836388993791" lon="10.315216676031936" id="-33265">
		<tag k="fixme" v="consider natural=peak for the most distinct mountains in the district" />
		<tag k="name" v="Nyhusåsen" />
		<tag k="natural" v="hill" />
		<tag k="place" v="locality" />
		<tag k="ssr:stedsnr" v="219124" />
	</node>
	<node lat="63.19688611253294" lon="10.405386105149626" id="-33266">
		<tag k="name" v="Kvilberget" />
		<tag k="natural" v="hill" />
		<tag k="place" v="locality" />
		<tag k="ssr:stedsnr" v="219183" />
	</node>
	<node lat="63.117280557667335" lon="9.943219449510414" id="-33267">
		<tag k="name" v="Ellingsmoan" />
		<tag k="place" v="locality" />
		<tag k="ssr:stedsnr" v="219303" />
	</node>
	<node lat="63.14214444505415" lon="10.056408335962876" id="-33269">
		<tag k="name" v="Baklia" />
		<tag k="natural" v="slope" />
		<tag k="place" v="locality" />
		<tag k="ssr:stedsnr" v="219330" />
	</node>
	<node lat="63.16817222235244" lon="10.41613610639976" id="-33271">
		<tag k="name" v="Nedfallstrypa" />
		<tag k="natural" v="valley" />
		<tag k="place" v="locality" />
		<tag k="ssr:stedsnr" v="219222" />
	</node>
	<node lat="63.15893333363491" lon="10.404925006379315" id="-33272">
		<tag k="name" v="Bjørdalslia" />
		<tag k="natural" v="slope" />
		<tag k="place" v="locality" />
		<tag k="ssr:stedsnr" v="219225" />
	</node>
	<node lat="63.11436388844862" lon="10.194030550847314" id="-33278">
		<tag k="fixme" v="consider natural=peak for the most distinct mountains in the district" />
		<tag k="name" v="Klevan" />
		<tag k="natural" v="hill" />
		<tag k="place" v="locality" />
		<tag k="ssr:stedsnr" v="219594" />
	</node>
	<node lat="63.064016665291376" lon="10.20000555483302" id="-33279">
		<tag k="name" v="Skykjdalen" />
		<tag k="natural" v="valley" />
		<tag k="place" v="locality" />
		<tag k="ssr:stedsnr" v="219704" />
	</node>
	<node lat="63.15264722417572" lon="10.05190277204482" id="-33280">
		<tag k="fixme" v="consider natural=peak for the most distinct mountains in the district" />
		<tag k="name" v="Brattstigen" />
		<tag k="natural" v="hill" />
		<tag k="place" v="locality" />
		<tag k="ssr:stedsnr" v="219726" />
	</node>
	<node lat="63.10535555830537" lon="10.084702780657178" id="-33284">
		<tag k="name" v="Litlmoen" />
		<tag k="place" v="locality" />
		<tag k="ssr:stedsnr" v="219603" />
	</node>
	<node lat="63.08613055589362" lon="10.168772225657012" id="-33285">
		<tag k="name" v="Bjørndalen" />
		<tag k="natural" v="valley" />
		<tag k="place" v="locality" />
		<tag k="ssr:stedsnr" v="219609" />
	</node>
	<node lat="63.156422225361524" lon="10.31640000217225" id="-33289">
		<tag k="fixme" v="consider natural=peak for the most distinct mountains in the district" />
		<tag k="name" v="Drygen" />
		<tag k="natural" v="hill" />
		<tag k="place" v="locality" />
		<tag k="ssr:stedsnr" v="219807" />
	</node>
	<node lat="63.1898000012895" lon="10.387286106773548" id="-33290">
		<tag k="fixme" v="consider natural=peak for the most distinct mountains in the district" />
		<tag k="name" v="Hyllbergåsen" />
		<tag k="natural" v="hill" />
		<tag k="place" v="locality" />
		<tag k="ssr:stedsnr" v="219810" />
	</node>
	<node lat="63.13129999670593" lon="10.162736106232868" id="-33294">
		<tag k="fixme" v="consider natural=peak for the most distinct mountains in the district" />
		<tag k="name" v="Vikaåsen" />
		<tag k="natural" v="hill" />
		<tag k="place" v="locality" />
		<tag k="ssr:stedsnr" v="219979" />
	</node>
	<node lat="63.220097222469256" lon="10.444841666031104" id="-33297">
		<tag k="fixme" v="consider natural=peak for the most distinct mountains in the district" />
		<tag k="name" v="Brattåsen" />
		<tag k="natural" v="hill" />
		<tag k="place" v="locality" />
		<tag k="ssr:stedsnr" v="219871" />
	</node>
	<node lat="63.31610277953843" lon="10.354874993910745" id="-33300">
		<tag k="name" v="Hørsdalen" />
		<tag k="natural" v="valley" />
		<tag k="place" v="locality" />
		<tag k="ssr:stedsnr" v="219886" />
	</node>
	<node lat="63.1054055570458" lon="9.906363897892595" id="-33306">
		<tag k="name" v="Melberget" />
		<tag k="natural" v="hill" />
		<tag k="old_name" v="Mælberget" />
		<tag k="place" v="locality" />
		<tag k="ssr:stedsnr" v="254005" />
	</node>
	<node lat="63.1182250016641" lon="10.055125000993245" id="-33312">
		<tag k="fixme" v="consider natural=peak for the most distinct mountains in the district" />
		<tag k="name" v="Høgåsen" />
		<tag k="natural" v="hill" />
		<tag k="place" v="locality" />
		<tag k="ssr:stedsnr" v="255473" />
	</node>
	<node lat="63.06978610978878" lon="10.091966667518886" id="-33313">
		<tag k="fixme" v="consider natural=peak for the most distinct mountains in the district" />
		<tag k="name" v="Lauvåskjølen" />
		<tag k="natural" v="hill" />
		<tag k="place" v="locality" />
		<tag k="ssr:stedsnr" v="255502" />
	</node>
	<node lat="63.16786666265511" lon="10.261416664880185" id="-33319">
		<tag k="alt_name" v="Homyrkamben" />
		<tag k="fixme" v="consider natural=peak for the most distinct mountains in the district" />
		<tag k="name" v="Homyrkammen" />
		<tag k="natural" v="hill" />
		<tag k="place" v="locality" />
		<tag k="ssr:stedsnr" v="255814" />
	</node>
	<node lat="63.237258331359826" lon="10.412749999498367" id="-33322">
		<tag k="fixme" v="consider natural=peak for the most distinct mountains in the district" />
		<tag k="name" v="Brattlikammen" />
		<tag k="natural" v="hill" />
		<tag k="place" v="locality" />
		<tag k="ssr:stedsnr" v="255769" />
	</node>
	<node lat="63.209747225300916" lon="10.399838879441962" id="-33330">
		<tag k="name" v="Sluppåsskaret" />
		<tag k="natural" v="valley" />
		<tag k="place" v="locality" />
		<tag k="ssr:stedsnr" v="279203" />
	</node>
	<node lat="63.132591668079" lon="10.461513890656503" id="-33333">
		<tag k="fixme" v="consider natural=peak for the most distinct mountains in the district" />
		<tag k="name" v="Rossåsen" />
		<tag k="natural" v="hill" />
		<tag k="place" v="locality" />
		<tag k="ssr:stedsnr" v="279220" />
	</node>
	<node lat="63.146377776649985" lon="9.990358336407951" id="-33334">
		<tag k="name" v="Midthaugen" />
		<tag k="natural" v="hill" />
		<tag k="place" v="locality" />
		<tag k="ssr:stedsnr" v="279286" />
	</node>
	<node lat="63.133225004386404" lon="10.079372221021252" id="-33337">
		<tag k="name" v="Almåsmoen" />
		<tag k="place" v="locality" />
		<tag k="ssr:stedsnr" v="279408" />
	</node>
	<node lat="63.123211110171276" lon="9.9158277686546" id="-33339">
		<tag k="name" v="Storøya" />
		<tag k="place" v="locality" />
		<tag k="ssr:stedsnr" v="279307" />
	</node>
	<node lat="63.115219445207245" lon="9.95506389175163" id="-33340">
		<tag k="fixme" v="consider natural=peak for the most distinct mountains in the district" />
		<tag k="name" v="Svartåsen" />
		<tag k="natural" v="hill" />
		<tag k="place" v="locality" />
		<tag k="ssr:stedsnr" v="279308" />
	</node>
	<node lat="63.16020555467052" lon="10.167813889330528" id="-33347">
		<tag k="name" v="Brokabakkan" />
		<tag k="natural" v="slope" />
		<tag k="place" v="locality" />
		<tag k="ssr:stedsnr" v="279971" />
	</node>
	<node lat="63.149077778655425" lon="9.939844439201673" id="-33348">
		<tag k="name" v="Sandbrautberga" />
		<tag k="natural" v="hill" />
		<tag k="place" v="locality" />
		<tag k="ssr:stedsnr" v="280102" />
	</node>
	<node lat="63.11945277640615" lon="9.985291656963556" id="-33350">
		<tag k="fixme" v="consider natural=peak for the most distinct mountains in the district" />
		<tag k="name" v="Stensåsen" />
		<tag k="natural" v="hill" />
		<tag k="place" v="locality" />
		<tag k="ssr:stedsnr" v="280105" />
	</node>
	<node lat="63.13399999732124" lon="10.230608324922288" id="-33358">
		<tag k="name" v="Kvernhusdalen" />
		<tag k="natural" v="valley" />
		<tag k="place" v="locality" />
		<tag k="ssr:stedsnr" v="280806" />
	</node>
	<node lat="63.29220278177136" lon="10.344913885061175" id="-33362">
		<tag k="name" v="Langberga" />
		<tag k="natural" v="hill" />
		<tag k="place" v="locality" />
		<tag k="ssr:stedsnr" v="280872" />
	</node>
	<node lat="63.14761111541377" lon="10.306486119283196" id="-33363">
		<tag k="name" v="Damptippen" />
		<tag k="place" v="locality" />
		<tag k="ssr:stedsnr" v="280831" />
	</node>
	<node lat="63.295836115199045" lon="10.387811112874713" id="-33364">
		<tag k="fixme" v="consider natural=peak for the most distinct mountains in the district" />
		<tag k="name" v="Higeråsen" />
		<tag k="natural" v="hill" />
		<tag k="place" v="locality" />
		<tag k="ssr:stedsnr" v="280875" />
	</node>
	<node lat="63.14159721936036" lon="10.470358340493744" id="-33365">
		<tag k="name" v="Sørlia" />
		<tag k="natural" v="slope" />
		<tag k="place" v="locality" />
		<tag k="ssr:stedsnr" v="280832" />
	</node>
	<node lat="63.139363887125974" lon="10.31195832513212" id="-33367">
		<tag k="name" v="Gupperdalen" />
		<tag k="natural" v="valley" />
		<tag k="place" v="locality" />
		<tag k="ssr:stedsnr" v="280836" />
	</node>
	<node lat="63.1898111101012" lon="10.282799997434491" id="-33372">
		<tag k="fixme" v="consider natural=peak for the most distinct mountains in the district" />
		<tag k="name" v="Vollaåsen" />
		<tag k="natural" v="hill" />
		<tag k="place" v="locality" />
		<tag k="ssr:stedsnr" v="280928" />
	</node>
	<node lat="63.12309166603334" lon="9.970650007196184" id="-33377">
		<tag k="name" v="Storegga" />
		<tag k="natural" v="ridge" />
		<tag k="place" v="locality" />
		<tag k="ssr:stedsnr" v="461270" />
	</node>
	<node lat="63.12884444373697" lon="10.422141664872244" id="-33381">
		<tag k="fixme" v="consider natural=peak for the most distinct mountains in the district" />
		<tag k="name" v="Pyntmyråsen" />
		<tag k="natural" v="hill" />
		<tag k="place" v="locality" />
		<tag k="ssr:stedsnr" v="461224" />
	</node>
	<node lat="63.13677222422143" lon="10.377269453574396" id="-33382">
		<tag k="fixme" v="consider natural=peak for the most distinct mountains in the district" />
		<tag k="name" v="Hamran" />
		<tag k="natural" v="hill" />
		<tag k="place" v="locality" />
		<tag k="ssr:stedsnr" v="461225" />
	</node>
	<node lat="63.160805554471715" lon="10.427547217653354" id="-33384">
		<tag k="name" v="Ytter Bjørdalslia" />
		<tag k="natural" v="slope" />
		<tag k="place" v="locality" />
		<tag k="ssr:stedsnr" v="461235" />
	</node>
	<node lat="63.161499996621735" lon="10.3890416704254" id="-33385">
		<tag k="fixme" v="consider natural=peak for the most distinct mountains in the district" />
		<tag k="name" v="Langdalsåsen" />
		<tag k="natural" v="hill" />
		<tag k="place" v="locality" />
		<tag k="ssr:stedsnr" v="461253" />
	</node>
	<node lat="63.16643055216163" lon="10.372152772376866" id="-33386">
		<tag k="fixme" v="consider natural=peak for the most distinct mountains in the district" />
		<tag k="name" v="Høgåsen" />
		<tag k="natural" v="hill" />
		<tag k="place" v="locality" />
		<tag k="ssr:stedsnr" v="461256" />
	</node>
	<node lat="63.1116250007603" lon="10.060969446873315" id="-33388">
		<tag k="fixme" v="consider natural=peak for the most distinct mountains in the district" />
		<tag k="name" v="Nonsåsen" />
		<tag k="natural" v="hill" />
		<tag k="place" v="locality" />
		<tag k="ssr:stedsnr" v="461339" />
	</node>
	<node lat="63.12608889068674" lon="9.96573610653216" id="-33395">
		<tag k="name" v="Baklihaugen" />
		<tag k="natural" v="hill" />
		<tag k="place" v="locality" />
		<tag k="ssr:stedsnr" v="461729" />
	</node>
	<node lat="63.08579722529514" lon="10.295591670318311" id="-33397">
		<tag k="fixme" v="consider natural=peak for the most distinct mountains in the district" />
		<tag k="name" v="Bjørnaåsen" />
		<tag k="natural" v="hill" />
		<tag k="place" v="locality" />
		<tag k="ssr:stedsnr" v="461897" />
	</node>
	<node lat="63.13815000398757" lon="10.184852773995525" id="-33399">
		<tag k="fixme" v="consider natural=peak for the most distinct mountains in the district" />
		<tag k="name" v="Nygrindkleva" />
		<tag k="natural" v="hill" />
		<tag k="place" v="locality" />
		<tag k="ssr:stedsnr" v="461993" />
	</node>
	<node lat="63.143497223184575" lon="10.192211109293853" id="-33400">
		<tag k="fixme" v="consider natural=peak for the most distinct mountains in the district" />
		<tag k="name" v="Klevakamben" />
		<tag k="natural" v="hill" />
		<tag k="place" v="locality" />
		<tag k="ssr:stedsnr" v="462000" />
	</node>
	<node lat="63.07665555861619" lon="10.277580555383508" id="-33402">
		<tag k="name" v="Løvhaugen" />
		<tag k="natural" v="hill" />
		<tag k="place" v="locality" />
		<tag k="ssr:stedsnr" v="461925" />
	</node>
	<node lat="63.073055557224706" lon="10.249858328760444" id="-33403">
		<tag k="fixme" v="consider natural=peak for the most distinct mountains in the district" />
		<tag k="name" v="Bruakamben" />
		<tag k="natural" v="hill" />
		<tag k="place" v="locality" />
		<tag k="ssr:stedsnr" v="461931" />
	</node>
	<node lat="63.223636108296716" lon="10.1699416651615" id="-33407">
		<tag k="name" v="Småvolldalen" />
		<tag k="natural" v="valley" />
		<tag k="place" v="locality" />
		<tag k="ssr:stedsnr" v="462023" />
	</node>
	<node lat="63.190133330183784" lon="10.187663897478666" id="-33410">
		<tag k="name" v="Kamban" />
		<tag k="natural" v="ridge" />
		<tag k="place" v="locality" />
		<tag k="ssr:stedsnr" v="462042" />
	</node>
	<node lat="63.22625000409188" lon="10.229263891840624" id="-33411">
		<tag k="fixme" v="consider natural=peak for the most distinct mountains in the district" />
		<tag k="name" v="Svartråa" />
		<tag k="natural" v="hill" />
		<tag k="place" v="locality" />
		<tag k="ssr:stedsnr" v="462084" />
	</node>
	<node lat="63.11930555157832" lon="10.478161107766544" id="-33414">
		<tag k="name" v="Stordalsøya" />
		<tag k="place" v="locality" />
		<tag k="ssr:stedsnr" v="462824" />
	</node>
	<node lat="63.14135555347183" lon="10.28258055463717" id="-33415">
		<tag k="name" v="Kvernhusdalen" />
		<tag k="natural" v="valley" />
		<tag k="place" v="locality" />
		<tag k="ssr:stedsnr" v="462827" />
	</node>
	<node lat="63.14482222526165" lon="10.319536108810116" id="-33416">
		<tag k="name" v="Sagbakken" />
		<tag k="natural" v="slope" />
		<tag k="place" v="locality" />
		<tag k="ssr:stedsnr" v="462836" />
	</node>
	<node lat="63.182150000718806" lon="10.032094440896266" id="-33421">
		<tag k="name" v="Brentberget" />
		<tag k="natural" v="hill" />
		<tag k="place" v="locality" />
		<tag k="ssr:stedsnr" v="462398" />
	</node>
	<node lat="63.16230000233602" lon="9.972711101938003" id="-33426">
		<tag k="name" v="Bjørklia" />
		<tag k="natural" v="slope" />
		<tag k="place" v="locality" />
		<tag k="ssr:stedsnr" v="462662" />
	</node>
	<node lat="63.077277776368796" lon="10.10641110553594" id="-33427">
		<tag k="fixme" v="consider natural=peak for the most distinct mountains in the district" />
		<tag k="name" v="Sandholtåsen" />
		<tag k="natural" v="hill" />
		<tag k="place" v="locality" />
		<tag k="ssr:stedsnr" v="462642" />
	</node>
	<node lat="63.07804722270283" lon="10.101624993181176" id="-33428">
		<tag k="alt_name" v="Brandsåsåsen" />
		<tag k="fixme" v="consider natural=peak for the most distinct mountains in the district" />
		<tag k="name" v="Brannsåsåsen" />
		<tag k="natural" v="hill" />
		<tag k="place" v="locality" />
		<tag k="ssr:stedsnr" v="462643" />
	</node>
	<node lat="63.14535555279479" lon="10.39491666681345" id="-33430">
		<tag k="name" v="Bjørdalsliin" />
		<tag k="natural" v="slope" />
		<tag k="place" v="locality" />
		<tag k="ssr:stedsnr" v="462752" />
	</node>
	<node lat="63.16672499805088" lon="10.044569448712155" id="-33432">
		<tag k="name" v="Okslauken" />
		<tag k="natural" v="slope" />
		<tag k="place" v="locality" />
		<tag k="ssr:stedsnr" v="462704" />
	</node>
	<node lat="63.15333333217017" lon="10.228419449380556" id="-33433">
		<tag k="name" v="Kirstimyrhaugen" />
		<tag k="natural" v="hill" />
		<tag k="place" v="locality" />
		<tag k="ssr:stedsnr" v="462762" />
	</node>
	<node lat="63.22096666836433" lon="10.38678610747783" id="-33434">
		<tag k="name" v="Homyrdalen" />
		<tag k="natural" v="valley" />
		<tag k="place" v="locality" />
		<tag k="ssr:stedsnr" v="462764" />
	</node>
	<node lat="63.232194446807384" lon="10.377166676171703" id="-33435">
		<tag k="name" v="Reitslætta" />
		<tag k="place" v="locality" />
		<tag k="ssr:stedsnr" v="462766" />
	</node>
	<node lat="63.234177774275494" lon="10.370697215030154" id="-33436">
		<tag k="fixme" v="consider natural=peak for the most distinct mountains in the district" />
		<tag k="name" v="Lomtjønnåsen" />
		<tag k="natural" v="hill" />
		<tag k="place" v="locality" />
		<tag k="ssr:stedsnr" v="462767" />
	</node>
	<node lat="63.18443333490455" lon="10.3682444415938" id="-33438">
		<tag k="fixme" v="consider natural=peak for the most distinct mountains in the district" />
		<tag k="name" v="Stuåsen" />
		<tag k="natural" v="hill" />
		<tag k="place" v="locality" />
		<tag k="ssr:stedsnr" v="462779" />
	</node>
	<node lat="63.22022778018255" lon="10.472419441044396" id="-33440">
		<tag k="name" v="Sagslættet" />
		<tag k="place" v="locality" />
		<tag k="ssr:stedsnr" v="462929" />
	</node>
	<node lat="63.234344440159276" lon="10.17424444295498" id="-33464">
		<tag k="name" v="Vikabergan" />
		<tag k="natural" v="hill" />
		<tag k="place" v="locality" />
		<tag k="ssr:stedsnr" v="315255" />
	</node>
	<node lat="63.13778610858206" lon="10.60781944881843" id="-33470">
		<tag k="fixme" v="consider natural=peak for the most distinct mountains in the district" />
		<tag k="name" v="Nyhusfjellet" />
		<tag k="natural" v="hill" />
		<tag k="place" v="locality" />
		<tag k="ssr:stedsnr" v="315854" />
	</node>
	<node lat="63.18421944666864" lon="10.25251111129349" id="-33475">
		<tag k="alt_name" v="Litlsæteråsen" />
		<tag k="fixme" v="consider natural=peak for the most distinct mountains in the district" />
		<tag k="name" v="Losaåsen" />
		<tag k="natural" v="hill" />
		<tag k="place" v="locality" />
		<tag k="ssr:stedsnr" v="316807" />
	</node>
	<node lat="63.16972500246999" lon="10.57451665985435" id="-33477">
		<tag k="fixme" v="consider natural=peak for the most distinct mountains in the district" />
		<tag k="name" v="Litlfjellet" />
		<tag k="natural" v="hill" />
		<tag k="place" v="locality" />
		<tag k="ssr:stedsnr" v="316814" />
	</node>
	<node lat="63.16380833295799" lon="10.130416669967039" id="-33484">
		<tag k="name" v="Gammelløfta" />
		<tag k="natural" v="valley" />
		<tag k="place" v="locality" />
		<tag k="ssr:stedsnr" v="340503" />
	</node>
	<node lat="63.13685555944953" lon="10.096761105901253" id="-33488">
		<tag k="fixme" v="consider natural=peak for the most distinct mountains in the district" />
		<tag k="name" v="Gumdalshogsteråsen" />
		<tag k="natural" v="hill" />
		<tag k="place" v="locality" />
		<tag k="ssr:stedsnr" v="340544" />
	</node>
	<node lat="63.13085555529396" lon="10.111558327962536" id="-33490">
		<tag k="fixme" v="consider natural=peak for the most distinct mountains in the district" />
		<tag k="name" v="Fjøsåsen" />
		<tag k="natural" v="hill" />
		<tag k="place" v="locality" />
		<tag k="ssr:stedsnr" v="340553" />
	</node>
	<node lat="63.1680222194073" lon="10.448255562954001" id="-33491">
		<tag k="name" v="Kalvskinnet" />
		<tag k="natural" v="slope" />
		<tag k="place" v="locality" />
		<tag k="ssr:stedsnr" v="340242" />
	</node>
	<node lat="63.07635833740478" lon="10.009452782191273" id="-33494">
		<tag k="name" v="Røyholtet" />
		<tag k="natural" v="slope" />
		<tag k="place" v="locality" />
		<tag k="ssr:stedsnr" v="340413" />
	</node>
	<node lat="63.20021110856768" lon="10.09016666049006" id="-33495">
		<tag k="name" v="Bjørnakosa" />
		<tag k="natural" v="valley" />
		<tag k="place" v="locality" />
		<tag k="ssr:stedsnr" v="340497" />
	</node>
	<node lat="63.18193888662657" lon="10.530416669614107" id="-33507">
		<tag k="name" v="Brannlia" />
		<tag k="natural" v="slope" />
		<tag k="place" v="locality" />
		<tag k="ssr:stedsnr" v="340913" />
	</node>
	<node lat="63.17587777577897" lon="10.513658330201064" id="-33508">
		<tag k="name" v="Kjølen" />
		<tag k="natural" v="hill" />
		<tag k="place" v="locality" />
		<tag k="ssr:stedsnr" v="340917" />
	</node>
	<node lat="63.07928889331157" lon="10.230641670094364" id="-33509">
		<tag k="name" v="Furuhaugen" />
		<tag k="natural" v="hill" />
		<tag k="old_name" v="Finnhaugen" />
		<tag k="place" v="locality" />
		<tag k="ssr:stedsnr" v="340920" />
	</node>
	<node lat="63.08832777764573" lon="10.326236105015367" id="-33510">
		<tag k="name" v="Damkosa" />
		<tag k="place" v="locality" />
		<tag k="ssr:stedsnr" v="340926" />
	</node>
	<node lat="63.07018610900403" lon="10.271863882802664" id="-33511">
		<tag k="name" v="Håggåbakken" />
		<tag k="natural" v="slope" />
		<tag k="place" v="locality" />
		<tag k="ssr:stedsnr" v="340930" />
	</node>
	<node lat="63.157833330283346" lon="10.15708888606355" id="-33514">
		<tag k="name" v="Grytberget" />
		<tag k="natural" v="hill" />
		<tag k="place" v="locality" />
		<tag k="ssr:stedsnr" v="340953" />
	</node>
	<node lat="63.16669166907205" lon="10.18363055439584" id="-33516">
		<tag k="name" v="Gråkollberget" />
		<tag k="natural" v="hill" />
		<tag k="place" v="locality" />
		<tag k="ssr:stedsnr" v="340960" />
	</node>
	<node lat="63.15735277761148" lon="10.071813883305405" id="-33519">
		<tag k="name" v="Grøtåslia" />
		<tag k="natural" v="slope" />
		<tag k="place" v="locality" />
		<tag k="ssr:stedsnr" v="340701" />
	</node>
	<node lat="63.11719721818651" lon="10.5653388841081" id="-33521">
		<tag k="name" v="Salen" />
		<tag k="natural" v="hill" />
		<tag k="place" v="locality" />
		<tag k="ssr:stedsnr" v="340816" />
	</node>
	<node lat="63.175069441358964" lon="10.273772230081976" id="-33522">
		<tag k="name" v="Sveet" />
		<tag k="place" v="locality" />
		<tag k="ssr:stedsnr" v="340894" />
	</node>
	<node lat="63.09893610696443" lon="10.194341663135486" id="-33525">
		<tag k="name" v="Gaudalen" />
		<tag k="natural" v="valley" />
		<tag k="place" v="locality" />
		<tag k="ssr:stedsnr" v="343291" />
	</node>
	<node lat="63.10381944521368" lon="9.943938883739403" id="-33533">
		<tag k="alt_name" v="Litlfuggelåsåsen" />
		<tag k="fixme" v="consider natural=peak for the most distinct mountains in the district" />
		<tag k="name" v="Fuglåsen" />
		<tag k="natural" v="hill" />
		<tag k="place" v="locality" />
		<tag k="ssr:stedsnr" v="376007" />
	</node>
	<node lat="63.15146389099209" lon="10.378641675449543" id="-33546">
		<tag k="name" v="Styggdalen" />
		<tag k="natural" v="valley" />
		<tag k="place" v="locality" />
		<tag k="ssr:stedsnr" v="400227" />
	</node>
	<node lat="63.266780551798945" lon="10.316008323920826" id="-33549">
		<tag k="fixme" v="consider natural=peak for the most distinct mountains in the district" />
		<tag k="name" v="Silåsen" />
		<tag k="natural" v="hill" />
		<tag k="place" v="locality" />
		<tag k="ssr:stedsnr" v="400137" />
	</node>
	<node lat="63.20994444621065" lon="10.348094437191865" id="-33550">
		<tag k="fixme" v="consider natural=peak for the most distinct mountains in the district" />
		<tag k="name" v="Gardaåsen" />
		<tag k="natural" v="hill" />
		<tag k="place" v="locality" />
		<tag k="ssr:stedsnr" v="400191" />
	</node>
	<node lat="63.12774166880691" lon="9.984961106087763" id="-33559">
		<tag k="name" v="Slættet" />
		<tag k="place" v="locality" />
		<tag k="ssr:stedsnr" v="400730" />
	</node>
	<node lat="63.212266669759146" lon="10.23538610930742" id="-33561">
		<tag k="name" v="Svartholet" />
		<tag k="natural" v="valley" />
		<tag k="place" v="locality" />
		<tag k="ssr:stedsnr" v="401009" />
	</node>
	<node lat="63.225402777109196" lon="10.202586107306336" id="-33562">
		<tag k="name" v="Raudmyrberga" />
		<tag k="natural" v="hill" />
		<tag k="place" v="locality" />
		<tag k="ssr:stedsnr" v="401030" />
	</node>
	<node lat="63.17725833317184" lon="10.256722229757552" id="-33566">
		<tag k="name" v="Skjettendalen" />
		<tag k="natural" v="valley" />
		<tag k="place" v="locality" />
		<tag k="ssr:stedsnr" v="401133" />
	</node>
	<node lat="63.171050003967096" lon="10.261805557061276" id="-33567">
		<tag k="fixme" v="consider natural=peak for the most distinct mountains in the district" />
		<tag k="name" v="Ætteråsen" />
		<tag k="natural" v="hill" />
		<tag k="place" v="locality" />
		<tag k="ssr:stedsnr" v="401136" />
	</node>
	<node lat="63.28443055257852" lon="10.330586111764362" id="-33568">
		<tag k="name" v="Brannhaugan" />
		<tag k="natural" v="hill" />
		<tag k="place" v="locality" />
		<tag k="ssr:stedsnr" v="401176" />
	</node>
	<node lat="63.06713055952302" lon="10.010469448274943" id="-33571">
		<tag k="name" v="Høgknippen" />
		<tag k="natural" v="hill" />
		<tag k="place" v="locality" />
		<tag k="ssr:stedsnr" v="401427" />
	</node>
	<node lat="63.04030833109775" lon="10.080611105461692" id="-33572">
		<tag k="name" v="Hestdalshøgda" />
		<tag k="natural" v="hill" />
		<tag k="place" v="locality" />
		<tag k="ssr:stedsnr" v="401435" />
	</node>
	<node lat="63.17457777413684" lon="10.006505562799914" id="-33573">
		<tag k="fixme" v="consider natural=peak for the most distinct mountains in the district" />
		<tag k="name" v="Damtjønnåsen" />
		<tag k="natural" v="hill" />
		<tag k="place" v="locality" />
		<tag k="ssr:stedsnr" v="401379" />
	</node>
	<node lat="63.030136111528044" lon="10.05201110723226" id="-33574">
		<tag k="name" v="Storbjørklia" />
		<tag k="natural" v="slope" />
		<tag k="place" v="locality" />
		<tag k="ssr:stedsnr" v="401388" />
	</node>
	<node lat="63.103533330507425" lon="10.113361107732656" id="-33581">
		<tag k="fixme" v="consider natural=peak for the most distinct mountains in the district" />
		<tag k="name" v="Kørvåsen" />
		<tag k="natural" v="hill" />
		<tag k="place" v="locality" />
		<tag k="ssr:stedsnr" v="401612" />
	</node>
	<node lat="63.0908249978252" lon="10.133561112451664" id="-33582">
		<tag k="fixme" v="consider natural=peak for the most distinct mountains in the district" />
		<tag k="name" v="Bergslætthåmmåren" />
		<tag k="natural" v="hill" />
		<tag k="place" v="locality" />
		<tag k="ssr:stedsnr" v="401614" />
	</node>
	<node lat="63.14835277396862" lon="10.05993611413697" id="-33589">
		<tag k="name" v="Gåslandsbaklia" />
		<tag k="natural" v="slope" />
		<tag k="place" v="locality" />
		<tag k="ssr:stedsnr" v="401698" />
	</node>
	<node lat="63.17395555799163" lon="10.423144454405456" id="-33592">
		<tag k="name" v="Litlvolldalen" />
		<tag k="natural" v="valley" />
		<tag k="place" v="locality" />
		<tag k="ssr:stedsnr" v="401776" />
	</node>
	<node lat="63.08963333181645" lon="10.29116111970886" id="-33597">
		<tag k="name" v="Homyrhaugan" />
		<tag k="natural" v="hill" />
		<tag k="place" v="locality" />
		<tag k="ssr:stedsnr" v="401875" />
	</node>
	<node lat="63.18942499678291" lon="10.475902784828744" id="-33598">
		<tag k="name" v="Grasdalen" />
		<tag k="natural" v="valley" />
		<tag k="place" v="locality" />
		<tag k="ssr:stedsnr" v="401884" />
	</node>
	<node lat="63.03295555709361" lon="10.064638881214684" id="-33608">
		<tag k="name" v="Bukkhåmmåren" />
		<tag k="natural" v="hill" />
		<tag k="place" v="locality" />
		<tag k="ssr:stedsnr" v="485531" />
	</node>
	<node lat="63.14852499905229" lon="10.16878889115252" id="-33623">
		<tag k="fixme" v="consider natural=peak for the most distinct mountains in the district" />
		<tag k="name" v="Elgåsen" />
		<tag k="natural" v="hill" />
		<tag k="place" v="locality" />
		<tag k="ssr:stedsnr" v="437116" />
	</node>
	<node lat="63.16631151793966" lon="10.097972125504665" id="-33624">
		<tag k="fixme" v="consider natural=peak for the most distinct mountains in the district" />
		<tag k="name" v="Bøveråsen" />
		<tag k="natural" v="hill" />
		<tag k="place" v="locality" />
		<tag k="ssr:stedsnr" v="437150" />
	</node>
	<node lat="63.1735555517934" lon="10.380230551845134" id="-33626">
		<tag k="fixme" v="consider natural=peak for the most distinct mountains in the district" />
		<tag k="name" v="Høgåsen" />
		<tag k="natural" v="hill" />
		<tag k="place" v="locality" />
		<tag k="ssr:stedsnr" v="437510" />
	</node>
	<node lat="63.07049999950397" lon="10.2248222172588" id="-33632">
		<tag k="fixme" v="consider natural=peak for the most distinct mountains in the district" />
		<tag k="name" v="Brentåsen" />
		<tag k="natural" v="hill" />
		<tag k="place" v="locality" />
		<tag k="ssr:stedsnr" v="437861" />
	</node>
	<node lat="63.29260555653439" lon="10.35791943665163" id="-33637">
		<tag k="fixme" v="consider natural=peak for the most distinct mountains in the district" />
		<tag k="name" v="Hamran" />
		<tag k="natural" v="hill" />
		<tag k="place" v="locality" />
		<tag k="ssr:stedsnr" v="438819" />
	</node>
	<node lat="63.12756389008132" lon="10.370488880396078" id="-33639">
		<tag k="fixme" v="consider natural=peak for the most distinct mountains in the district" />
		<tag k="name" v="Svartåsen" />
		<tag k="natural" v="hill" />
		<tag k="place" v="locality" />
		<tag k="ssr:stedsnr" v="452803" />
	</node>
	<node lat="63.1971333375626" lon="10.37297499613312" id="-33640">
		<tag k="name" v="Kalvhåggådalen" />
		<tag k="natural" v="valley" />
		<tag k="place" v="locality" />
		<tag k="ssr:stedsnr" v="461204" />
	</node>
	<node lat="63.10974166244731" lon="9.926344436858194" id="-33646">
		<tag k="name" v="Langhaugan" />
		<tag k="natural" v="hill" />
		<tag k="place" v="locality" />
		<tag k="ssr:stedsnr" v="461310" />
	</node>
	<node lat="63.12813611562914" lon="10.009372212777636" id="-33647">
		<tag k="name" v="Svartdalen" />
		<tag k="natural" v="valley" />
		<tag k="place" v="locality" />
		<tag k="ssr:stedsnr" v="461302" />
	</node>
	<node lat="63.10952221979597" lon="9.913216661099318" id="-33648">
		<tag k="name" v="Tortdalen" />
		<tag k="natural" v="valley" />
		<tag k="place" v="locality" />
		<tag k="ssr:stedsnr" v="461304" />
	</node>
	<node lat="63.120897223321876" lon="9.961372222339358" id="-33653">
		<tag k="name" v="Skjoldmoen" />
		<tag k="place" v="locality" />
		<tag k="ssr:stedsnr" v="461264" />
	</node>
	<node lat="63.11918333746842" lon="10.09347500136248" id="-33654">
		<tag k="name" v="Storbekksvingen" />
		<tag k="place" v="locality" />
		<tag k="ssr:stedsnr" v="461603" />
	</node>
	<node lat="63.166666670204144" lon="10.09608054611365" id="-33657">
		<tag k="fixme" v="consider natural=peak for the most distinct mountains in the district" />
		<tag k="name" v="Etter Bøveråsen" />
		<tag k="natural" v="hill" />
		<tag k="place" v="locality" />
		<tag k="ssr:stedsnr" v="461524" />
	</node>
	<node lat="63.1102472183899" lon="10.105533337410249" id="-33662">
		<tag k="name" v="Jutulkula" />
		<tag k="natural" v="hill" />
		<tag k="place" v="locality" />
		<tag k="ssr:stedsnr" v="461573" />
	</node>
	<node lat="63.08417222384684" lon="10.288708323769724" id="-33663">
		<tag k="name" v="Marstenen" />
		<tag k="natural" v="slope" />
		<tag k="place" v="locality" />
		<tag k="ssr:stedsnr" v="461903" />
	</node>
	<node lat="63.154330556006734" lon="10.190902785904028" id="-33665">
		<tag k="fixme" v="consider natural=peak for the most distinct mountains in the district" />
		<tag k="name" v="Gjetbergåsen" />
		<tag k="natural" v="hill" />
		<tag k="place" v="locality" />
		<tag k="ssr:stedsnr" v="461963" />
	</node>
	<node lat="63.15634166969468" lon="10.186483329879065" id="-33666">
		<tag k="name" v="Svartdalen" />
		<tag k="natural" v="valley" />
		<tag k="place" v="locality" />
		<tag k="ssr:stedsnr" v="461965" />
	</node>
	<node lat="63.179486114945504" lon="10.102197222369469" id="-33673">
		<tag k="fixme" v="consider natural=peak for the most distinct mountains in the district" />
		<tag k="name" v="Skibakkåsen" />
		<tag k="natural" v="hill" />
		<tag k="place" v="locality" />
		<tag k="ssr:stedsnr" v="462456" />
	</node>
	<node lat="63.169908337225884" lon="10.1008527807398" id="-33674">
		<tag k="name" v="Skardet" />
		<tag k="natural" v="valley" />
		<tag k="place" v="locality" />
		<tag k="ssr:stedsnr" v="462463" />
	</node>
	<node lat="63.17950833035803" lon="10.07308610253726" id="-33676">
		<tag k="fixme" v="consider natural=peak for the most distinct mountains in the district" />
		<tag k="name" v="Kardustjønnåsen" />
		<tag k="natural" v="hill" />
		<tag k="place" v="locality" />
		<tag k="ssr:stedsnr" v="462478" />
	</node>
	<node lat="63.16423611405741" lon="10.003802780383774" id="-33678">
		<tag k="name" v="Stugguslættet" />
		<tag k="place" v="locality" />
		<tag k="ssr:stedsnr" v="462655" />
	</node>
	<node lat="63.15726111328839" lon="10.041022216690036" id="-33680">
		<tag k="name" v="Svartberget" />
		<tag k="natural" v="hill" />
		<tag k="place" v="locality" />
		<tag k="ssr:stedsnr" v="462705" />
	</node>
	<node lat="63.149519441163946" lon="10.3350638807985" id="-33687">
		<tag k="name" v="Skardsveet" />
		<tag k="natural" v="hill" />
		<tag k="place" v="locality" />
		<tag k="ssr:stedsnr" v="462802" />
	</node>
	<node lat="63.18769444865181" lon="10.411683341652266" id="-33688">
		<tag k="name" v="Gudrunhulu" />
		<tag k="place" v="locality" />
		<tag k="ssr:stedsnr" v="462814" />
	</node>
	<node lat="63.14765277793947" lon="10.242933327826501" id="-33689">
		<tag k="name" v="Løfta" />
		<tag k="natural" v="slope" />
		<tag k="place" v="locality" />
		<tag k="ssr:stedsnr" v="462818" />
	</node>
	<node lat="63.11942221861966" lon="10.239255552370356" id="-33690">
		<tag k="name" v="Røskaftøya" />
		<tag k="place" v="locality" />
		<tag k="ssr:stedsnr" v="462859" />
	</node>
	<node lat="63.26216944849515" lon="10.356338883748192" id="-33691">
		<tag k="fixme" v="consider natural=peak for the most distinct mountains in the district" />
		<tag k="name" v="Vassfjellvarden" />
		<tag k="natural" v="hill" />
		<tag k="place" v="locality" />
		<tag k="ssr:stedsnr" v="462867" />
	</node>
	<node lat="63.17821666442974" lon="10.530658333073873" id="-33692">
		<tag k="name" v="Hovadalen" />
		<tag k="natural" v="valley" />
		<tag k="place" v="locality" />
		<tag k="ssr:stedsnr" v="462918" />
	</node>
	<node lat="63.15243888718567" lon="10.190402769052412" id="-33701">
		<tag k="fixme" v="consider natural=peak for the most distinct mountains in the district" />
		<tag k="name" v="Hogsteråsen" />
		<tag k="natural" v="hill" />
		<tag k="place" v="locality" />
		<tag k="ssr:stedsnr" v="679102" />
	</node>
	<node lat="63.2429444428611" lon="10.24424443515436" id="-33710">
		<tag k="name" v="Høgmelan" />
		<tag k="natural" v="hill" />
		<tag k="old_name" v="Høgmælan" />
		<tag k="place" v="locality" />
		<tag k="ssr:stedsnr" v="679591" />
	</node>
	<node lat="63.16147500228586" lon="9.974049991154734" id="-33725">
		<tag k="name" v="Tjønnliberga" />
		<tag k="natural" v="hill" />
		<tag k="place" v="locality" />
		<tag k="ssr:stedsnr" v="680153" />
	</node>
	<node lat="63.07400737648952" lon="10.09433483054521" id="-33728">
		<tag k="name" v="Tvibotndalen" />
		<tag k="natural" v="valley" />
		<tag k="place" v="locality" />
		<tag k="ssr:stedsnr" v="680565" />
	</node>
	<node lat="63.07420555460568" lon="10.004522217369232" id="-33729">
		<tag k="fixme" v="consider natural=peak for the most distinct mountains in the district" />
		<tag k="name" v="Håmmåråsen" />
		<tag k="natural" v="hill" />
		<tag k="old_name" v="Hammaråsen" />
		<tag k="place" v="locality" />
		<tag k="ssr:stedsnr" v="680568" />
	</node>
	<node lat="63.08173889196648" lon="10.171336101637404" id="-33730">
		<tag k="fixme" v="consider natural=peak for the most distinct mountains in the district" />
		<tag k="name" v="Kneppan" />
		<tag k="natural" v="hill" />
		<tag k="place" v="locality" />
		<tag k="ssr:stedsnr" v="680575" />
	</node>
	<node lat="63.19383889164807" lon="10.326074999794692" id="-33733">
		<tag k="fixme" v="consider natural=peak for the most distinct mountains in the district" />
		<tag k="name" v="Våttåsen" />
		<tag k="natural" v="hill" />
		<tag k="place" v="locality" />
		<tag k="ssr:stedsnr" v="680547" />
	</node>
	<node lat="63.17312499945664" lon="10.558450001646964" id="-33734">
		<tag k="name" v="Ryphøgda" />
		<tag k="natural" v="hill" />
		<tag k="place" v="locality" />
		<tag k="ssr:stedsnr" v="680820" />
	</node>
	<node lat="63.18890277342985" lon="10.278849993738012" id="-33737">
		<tag k="fixme" v="consider natural=peak for the most distinct mountains in the district" />
		<tag k="name" v="Kleivahammaren" />
		<tag k="natural" v="hill" />
		<tag k="place" v="locality" />
		<tag k="ssr:stedsnr" v="680844" />
	</node>
	<node lat="63.08435000118788" lon="9.909744447223202" id="-33744">
		<tag k="fixme" v="consider natural=peak for the most distinct mountains in the district" />
		<tag k="name" v="Nonsåsen" />
		<tag k="natural" v="hill" />
		<tag k="place" v="locality" />
		<tag k="ssr:stedsnr" v="497505" />
	</node>
	<node lat="63.088774998850866" lon="10.008194445845945" id="-33745">
		<tag k="name" v="Grønlihåmmåren" />
		<tag k="natural" v="hill" />
		<tag k="old_name" v="Grønlihamaren" />
		<tag k="place" v="locality" />
		<tag k="ssr:stedsnr" v="497521" />
	</node>
	<node lat="63.12138055479667" lon="10.614369452335152" id="-33753">
		<tag k="name" v="Samsjølia" />
		<tag k="natural" v="hill" />
		<tag k="place" v="locality" />
		<tag k="ssr:stedsnr" v="497843" />
	</node>
	<node lat="63.146049997605864" lon="10.375969441643484" id="-33755">
		<tag k="alt_name" v="Talbergåsen" />
		<tag k="fixme" v="consider natural=peak for the most distinct mountains in the district" />
		<tag k="name" v="Talbergsåsen" />
		<tag k="natural" v="hill" />
		<tag k="place" v="locality" />
		<tag k="ssr:stedsnr" v="497857" />
	</node>
	<node lat="63.23858611511536" lon="10.3045638843763" id="-33765">
		<tag k="fixme" v="consider natural=peak for the most distinct mountains in the district" />
		<tag k="name" v="Klevåsen" />
		<tag k="natural" v="hill" />
		<tag k="place" v="locality" />
		<tag k="ssr:stedsnr" v="522118" />
	</node>
	<node lat="63.17633888706185" lon="10.244227784895193" id="-33766">
		<tag k="fixme" v="consider natural=peak for the most distinct mountains in the district" />
		<tag k="name" v="Buåsen" />
		<tag k="natural" v="hill" />
		<tag k="place" v="locality" />
		<tag k="ssr:stedsnr" v="522125" />
	</node>
	<node lat="63.21097222331478" lon="10.406563883332598" id="-33767">
		<tag k="fixme" v="consider natural=peak for the most distinct mountains in the district" />
		<tag k="name" v="Kaldvellmyråsen" />
		<tag k="natural" v="hill" />
		<tag k="place" v="locality" />
		<tag k="ssr:stedsnr" v="522206" />
	</node>
	<node lat="63.1460444425407" lon="10.453658334169933" id="-33769">
		<tag k="fixme" v="consider natural=peak for the most distinct mountains in the district" />
		<tag k="name" v="Heståsen" />
		<tag k="natural" v="hill" />
		<tag k="place" v="locality" />
		<tag k="ssr:stedsnr" v="522218" />
	</node>
	<node lat="63.143417665354725" lon="10.439203180288416" id="-33770">
		<tag k="name" v="Sagdalsholet" />
		<tag k="natural" v="valley" />
		<tag k="place" v="locality" />
		<tag k="ssr:stedsnr" v="522219" />
	</node>
	<node lat="63.27957222349181" lon="10.312499998450434" id="-33774">
		<tag k="name" v="Hundsrauva" />
		<tag k="natural" v="hill" />
		<tag k="place" v="locality" />
		<tag k="ssr:stedsnr" v="522182" />
	</node>
	<node lat="63.10336944336674" lon="9.905463880215299" id="-33775">
		<tag k="name" v="Hesjeberga" />
		<tag k="natural" v="hill" />
		<tag k="place" v="locality" />
		<tag k="ssr:stedsnr" v="522305" />
	</node>
	<node lat="63.143633335355794" lon="10.035469439376717" id="-33780">
		<tag k="name" v="Skardet" />
		<tag k="natural" v="valley" />
		<tag k="place" v="locality" />
		<tag k="ssr:stedsnr" v="522317" />
	</node>
	<node lat="63.140344448397464" lon="10.058888887118078" id="-33782">
		<tag k="name" v="Hårråkosa" />
		<tag k="natural" v="slope" />
		<tag k="place" v="locality" />
		<tag k="ssr:stedsnr" v="522324" />
	</node>
	<node lat="63.10014166627051" lon="10.00581943737369" id="-33783">
		<tag k="fixme" v="consider natural=peak for the most distinct mountains in the district" />
		<tag k="name" v="Rødåsåsen" />
		<tag k="natural" v="hill" />
		<tag k="place" v="locality" />
		<tag k="ssr:stedsnr" v="522361" />
	</node>
	<node lat="63.17090833647055" lon="10.000997215641755" id="-33784">
		<tag k="name" v="Høgåsdalen" />
		<tag k="natural" v="valley" />
		<tag k="place" v="locality" />
		<tag k="ssr:stedsnr" v="522372" />
	</node>
	<node lat="63.18843055209436" lon="10.079577779202804" id="-33787">
		<tag k="fixme" v="consider natural=peak for the most distinct mountains in the district" />
		<tag k="name" v="Trongliåsen" />
		<tag k="natural" v="hill" />
		<tag k="place" v="locality" />
		<tag k="ssr:stedsnr" v="522502" />
	</node>
	<node lat="63.139502780003816" lon="10.087166671211985" id="-33789">
		<tag k="fixme" v="consider natural=peak for the most distinct mountains in the district" />
		<tag k="name" v="Kloppåsen" />
		<tag k="natural" v="hill" />
		<tag k="place" v="locality" />
		<tag k="ssr:stedsnr" v="522513" />
	</node>
	<node lat="63.15211666597073" lon="9.998686105398118" id="-33797">
		<tag k="name" v="Gilhaugen" />
		<tag k="natural" v="hill" />
		<tag k="place" v="locality" />
		<tag k="ssr:stedsnr" v="522642" />
	</node>
	<node lat="63.14873611152054" lon="9.992086116213429" id="-33799">
		<tag k="name" v="Liaberget" />
		<tag k="natural" v="hill" />
		<tag k="place" v="locality" />
		<tag k="ssr:stedsnr" v="522649" />
	</node>
	<node lat="63.06249722369633" lon="10.20375000693828" id="-33801">
		<tag k="name" v="Storøya" />
		<tag k="place" v="locality" />
		<tag k="ssr:stedsnr" v="522667" />
	</node>
	<node lat="63.13077777604688" lon="9.963633336943772" id="-33803">
		<tag k="fixme" v="consider natural=peak for the most distinct mountains in the district" />
		<tag k="name" v="Reksåsåsen" />
		<tag k="natural" v="hill" />
		<tag k="place" v="locality" />
		<tag k="ssr:stedsnr" v="522715" />
	</node>
	<node lat="63.14369444478668" lon="9.91882778245299" id="-33805">
		<tag k="name" v="Holpynten" />
		<tag k="natural" v="hill" />
		<tag k="place" v="locality" />
		<tag k="ssr:stedsnr" v="522724" />
	</node>
	<node lat="63.24700277529404" lon="10.387241663384575" id="-33808">
		<tag k="fixme" v="consider natural=peak for the most distinct mountains in the district" />
		<tag k="name" v="Tjukkåsen" />
		<tag k="natural" v="hill" />
		<tag k="place" v="locality" />
		<tag k="ssr:stedsnr" v="522741" />
	</node>
	<node lat="63.235494444900176" lon="10.41624167070596" id="-33809">
		<tag k="name" v="Halvardslættet" />
		<tag k="place" v="locality" />
		<tag k="ssr:stedsnr" v="522742" />
	</node>
	<node lat="63.27789721863802" lon="10.360383328079228" id="-33810">
		<tag k="name" v="Tortberga" />
		<tag k="natural" v="hill" />
		<tag k="place" v="locality" />
		<tag k="ssr:stedsnr" v="522744" />
	</node>
	<node lat="63.1750027791168" lon="10.389502779344282" id="-33811">
		<tag k="fixme" v="consider natural=peak for the most distinct mountains in the district" />
		<tag k="name" v="Frosktjønnåsen" />
		<tag k="natural" v="hill" />
		<tag k="place" v="locality" />
		<tag k="ssr:stedsnr" v="522774" />
	</node>
	<node lat="63.11778055170763" lon="10.216041669353334" id="-33814">
		<tag k="fixme" v="consider natural=peak for the most distinct mountains in the district" />
		<tag k="name" v="Brattegga" />
		<tag k="natural" v="hill" />
		<tag k="place" v="locality" />
		<tag k="ssr:stedsnr" v="522814" />
	</node>
	<node lat="63.09482777947117" lon="10.26239444029494" id="-33816">
		<tag k="name" v="Kolmildalen" />
		<tag k="natural" v="valley" />
		<tag k="place" v="locality" />
		<tag k="ssr:stedsnr" v="522874" />
	</node>
	<node lat="63.18403056010071" lon="10.290019440698916" id="-33818">
		<tag k="fixme" v="consider natural=peak for the most distinct mountains in the district" />
		<tag k="name" v="Kjelåsen" />
		<tag k="natural" v="hill" />
		<tag k="place" v="locality" />
		<tag k="ssr:stedsnr" v="522880" />
	</node>
	<node lat="63.16464999665994" lon="10.182041668693161" id="-33820">
		<tag k="name" v="Andreasbakken" />
		<tag k="natural" v="slope" />
		<tag k="place" v="locality" />
		<tag k="ssr:stedsnr" v="522961" />
	</node>
	<node lat="63.128877777223344" lon="10.147083337525046" id="-33823">
		<tag k="fixme" v="consider natural=peak for the most distinct mountains in the district" />
		<tag k="name" v="Vikaåsan" />
		<tag k="natural" v="hill" />
		<tag k="place" v="locality" />
		<tag k="ssr:stedsnr" v="522979" />
	</node>
	<node lat="63.31139721959278" lon="10.36966111971302" id="-33830">
		<tag k="name" v="Svartdalen" />
		<tag k="natural" v="valley" />
		<tag k="place" v="locality" />
		<tag k="ssr:stedsnr" v="687364" />
	</node>
	<node lat="63.116797222213584" lon="10.593766669202076" id="-33831">
		<tag k="name" v="Kråklia" />
		<tag k="natural" v="slope" />
		<tag k="place" v="locality" />
		<tag k="ssr:stedsnr" v="688452" />
	</node>
	<node lat="63.180800000282545" lon="10.16399166750126" id="-33832">
		<tag k="fixme" v="consider natural=peak for the most distinct mountains in the district" />
		<tag k="name" v="Ospliåsen" />
		<tag k="natural" v="hill" />
		<tag k="place" v="locality" />
		<tag k="ssr:stedsnr" v="557160" />
	</node>
	<node lat="63.19000555603796" lon="10.449302784243134" id="-33841">
		<tag k="fixme" v="consider natural=peak for the most distinct mountains in the district" />
		<tag k="name" v="Finngangen" />
		<tag k="natural" v="hill" />
		<tag k="place" v="locality" />
		<tag k="ssr:stedsnr" v="558843" />
	</node>
	<node lat="63.18531111370811" lon="10.468405548666711" id="-33844">
		<tag k="name" v="Grasdalshøgda" />
		<tag k="natural" v="hill" />
		<tag k="place" v="locality" />
		<tag k="ssr:stedsnr" v="558799" />
	</node>
	<node lat="63.19506111273161" lon="10.097897226710018" id="-33851">
		<tag k="name" v="Breiadalen" />
		<tag k="natural" v="valley" />
		<tag k="place" v="locality" />
		<tag k="ssr:stedsnr" v="692517" />
	</node>
	<node lat="63.21191389206519" lon="10.240044451153363" id="-33853">
		<tag k="fixme" v="consider natural=peak for the most distinct mountains in the district" />
		<tag k="name" v="Brannåsen" />
		<tag k="natural" v="hill" />
		<tag k="place" v="locality" />
		<tag k="ssr:stedsnr" v="582006" />
	</node>
	<node lat="63.24813611189291" lon="10.29413611181758" id="-33854">
		<tag k="name" v="Skjerdingstadberga" />
		<tag k="natural" v="hill" />
		<tag k="place" v="locality" />
		<tag k="ssr:stedsnr" v="582093" />
	</node>
	<node lat="63.22691667091681" lon="10.212266666175823" id="-33855">
		<tag k="name" v="Bjørklia" />
		<tag k="natural" v="slope" />
		<tag k="place" v="locality" />
		<tag k="ssr:stedsnr" v="582100" />
	</node>
	<node lat="63.20237499943012" lon="10.430861101867615" id="-33857">
		<tag k="fixme" v="consider natural=peak for the most distinct mountains in the district" />
		<tag k="name" v="Seteråsen" />
		<tag k="natural" v="hill" />
		<tag k="place" v="locality" />
		<tag k="ssr:stedsnr" v="582199" />
	</node>
	<node lat="63.14424722068919" lon="10.01806111266883" id="-33859">
		<tag k="fixme" v="consider natural=peak for the most distinct mountains in the district" />
		<tag k="name" v="Ospåsen" />
		<tag k="natural" v="hill" />
		<tag k="place" v="locality" />
		<tag k="ssr:stedsnr" v="582312" />
	</node>
	<node lat="63.11049166514176" lon="9.932266675880893" id="-33864">
		<tag k="name" v="Gilhaugen" />
		<tag k="natural" v="hill" />
		<tag k="place" v="locality" />
		<tag k="ssr:stedsnr" v="582325" />
	</node>
	<node lat="63.07825555250137" lon="10.001472228407595" id="-33867">
		<tag k="name" v="Kolmilhaugen" />
		<tag k="natural" v="hill" />
		<tag k="place" v="locality" />
		<tag k="ssr:stedsnr" v="582411" />
	</node>
	<node lat="63.112369442044226" lon="10.176711114647912" id="-33869">
		<tag k="name" v="Langstrypet" />
		<tag k="natural" v="valley" />
		<tag k="place" v="locality" />
		<tag k="ssr:stedsnr" v="582518" />
	</node>
	<node lat="63.16406111183705" lon="10.146208332519794" id="-33881">
		<tag k="name" v="Bukkskardet" />
		<tag k="natural" v="valley" />
		<tag k="place" v="locality" />
		<tag k="ssr:stedsnr" v="582942" />
	</node>
	<node lat="63.051369447993636" lon="10.012475001983274" id="-33892">
		<tag k="fixme" v="consider natural=peak for the most distinct mountains in the district" />
		<tag k="name" v="Svarthåmmåren" />
		<tag k="natural" v="hill" />
		<tag k="place" v="locality" />
		<tag k="ssr:stedsnr" v="583449" />
	</node>
	<node lat="63.09886944555242" lon="10.087102772588302" id="-33894">
		<tag k="fixme" v="consider natural=peak for the most distinct mountains in the district" />
		<tag k="name" v="Tørresåsen" />
		<tag k="natural" v="hill" />
		<tag k="place" v="locality" />
		<tag k="ssr:stedsnr" v="583602" />
	</node>
	<node lat="63.080577773406056" lon="10.161872226077103" id="-33897">
		<tag k="fixme" v="consider natural=peak for the most distinct mountains in the district" />
		<tag k="name" v="Rognliåsen" />
		<tag k="natural" v="hill" />
		<tag k="place" v="locality" />
		<tag k="ssr:stedsnr" v="583621" />
	</node>
	<node lat="63.062372225457246" lon="10.168530561626946" id="-33898">
		<tag k="name" v="Gauliin" />
		<tag k="natural" v="slope" />
		<tag k="place" v="locality" />
		<tag k="ssr:stedsnr" v="583624" />
	</node>
	<node lat="63.07992777665275" lon="10.13227778372724" id="-33899">
		<tag k="name" v="Sørtømmeslættet" />
		<tag k="place" v="locality" />
		<tag k="ssr:stedsnr" v="583642" />
	</node>
	<node lat="63.103419446957574" lon="10.194841661523085" id="-33901">
		<tag k="name" v="Grøtdalen" />
		<tag k="natural" v="valley" />
		<tag k="place" v="locality" />
		<tag k="ssr:stedsnr" v="583646" />
	</node>
	<node lat="63.177119440875714" lon="10.408580556324486" id="-33908">
		<tag k="name" v="Sjursprangdalen" />
		<tag k="natural" v="valley" />
		<tag k="place" v="locality" />
		<tag k="ssr:stedsnr" v="583803" />
	</node>
	<node lat="63.21903056008182" lon="10.432024998543548" id="-33912">
		<tag k="name" v="Bjørgakammen" />
		<tag k="natural" v="ridge" />
		<tag k="place" v="locality" />
		<tag k="ssr:stedsnr" v="583849" />
	</node>
	<node lat="63.242019442878004" lon="10.22053333052371" id="-33913">
		<tag k="name" v="Såttån" />
		<tag k="place" v="locality" />
		<tag k="ssr:stedsnr" v="588461" />
	</node>
	<node lat="63.20475555145518" lon="10.231933334434668" id="-33943">
		<tag k="fixme" v="consider natural=peak for the most distinct mountains in the district" />
		<tag k="name" v="Langmyråsan" />
		<tag k="natural" v="hill" />
		<tag k="place" v="locality" />
		<tag k="ssr:stedsnr" v="704001" />
	</node>
	<node lat="63.082641666000214" lon="10.302427780386871" id="-33946">
		<tag k="fixme" v="consider natural=peak for the most distinct mountains in the district" />
		<tag k="name" v="Hagåskarvan" />
		<tag k="natural" v="hill" />
		<tag k="place" v="locality" />
		<tag k="ssr:stedsnr" v="704131" />
	</node>
	<node lat="63.09739999874231" lon="9.917691671303375" id="-33947">
		<tag k="name" v="Pinstiberget" />
		<tag k="natural" v="hill" />
		<tag k="place" v="locality" />
		<tag k="ssr:stedsnr" v="704138" />
	</node>
	<node lat="63.17062500227115" lon="10.203408340346975" id="-33948">
		<tag k="name" v="Solemsberga" />
		<tag k="natural" v="hill" />
		<tag k="place" v="locality" />
		<tag k="ssr:stedsnr" v="704036" />
	</node>
	<node lat="63.1230527734477" lon="10.066338890327021" id="-33956">
		<tag k="name" v="Gråkollberget" />
		<tag k="natural" v="hill" />
		<tag k="place" v="locality" />
		<tag k="ssr:stedsnr" v="704333" />
	</node>
	<node lat="63.21225277456152" lon="10.41722500221648" id="-33957">
		<tag k="fixme" v="consider natural=peak for the most distinct mountains in the district" />
		<tag k="name" v="Ratåsen" />
		<tag k="natural" v="hill" />
		<tag k="place" v="locality" />
		<tag k="ssr:stedsnr" v="704181" />
	</node>
	<node lat="63.11754444654694" lon="9.91477500298885" id="-33958">
		<tag k="name" v="Torhaugan" />
		<tag k="natural" v="hill" />
		<tag k="place" v="locality" />
		<tag k="ssr:stedsnr" v="704281" />
	</node>
	<node lat="63.09361388940305" lon="9.91771666228026" id="-33959">
		<tag k="fixme" v="consider natural=peak for the most distinct mountains in the district" />
		<tag k="name" v="Bergslættåsen" />
		<tag k="natural" v="hill" />
		<tag k="place" v="locality" />
		<tag k="ssr:stedsnr" v="704235" />
	</node>
	<node lat="63.13058611290237" lon="10.483991659726723" id="-33961">
		<tag k="name" v="Stordalen" />
		<tag k="natural" v="valley" />
		<tag k="place" v="locality" />
		<tag k="ssr:stedsnr" v="704815" />
	</node>
	<node lat="63.08599999789489" lon="10.005277780232651" id="-33967">
		<tag k="name" v="Burshaugen" />
		<tag k="natural" v="hill" />
		<tag k="place" v="locality" />
		<tag k="ssr:stedsnr" v="704344" />
	</node>
	<node lat="63.20308888449296" lon="10.16938054938289" id="-33968">
		<tag k="fixme" v="consider natural=peak for the most distinct mountains in the district" />
		<tag k="name" v="Aunåsen" />
		<tag k="natural" v="hill" />
		<tag k="place" v="locality" />
		<tag k="ssr:stedsnr" v="704412" />
	</node>
	<node lat="63.19393611275796" lon="10.12239167247715" id="-33969">
		<tag k="fixme" v="consider natural=peak for the most distinct mountains in the district" />
		<tag k="name" v="Brannåsan" />
		<tag k="natural" v="hill" />
		<tag k="place" v="locality" />
		<tag k="ssr:stedsnr" v="704418" />
	</node>
	<node lat="63.198933333220346" lon="10.118055559842983" id="-33970">
		<tag k="fixme" v="consider natural=peak for the most distinct mountains in the district" />
		<tag k="name" v="Limåsen" />
		<tag k="natural" v="hill" />
		<tag k="place" v="locality" />
		<tag k="ssr:stedsnr" v="704449" />
	</node>
	<node lat="63.19676389177062" lon="10.109852786448034" id="-33971">
		<tag k="fixme" v="consider natural=peak for the most distinct mountains in the district" />
		<tag k="name" v="Seteråsen" />
		<tag k="natural" v="hill" />
		<tag k="place" v="locality" />
		<tag k="ssr:stedsnr" v="704451" />
	</node>
	<node lat="63.20309444164122" lon="10.084916676100365" id="-33972">
		<tag k="fixme" v="consider natural=peak for the most distinct mountains in the district" />
		<tag k="name" v="Skarpslættåsen" />
		<tag k="natural" v="hill" />
		<tag k="place" v="locality" />
		<tag k="ssr:stedsnr" v="704453" />
	</node>
	<node lat="63.21238889107619" lon="10.177274994150315" id="-33977">
		<tag k="name" v="Litlsalen" />
		<tag k="natural" v="hill" />
		<tag k="place" v="locality" />
		<tag k="ssr:stedsnr" v="704399" />
	</node>
	<node lat="63.11088889080031" lon="10.17668055868434" id="-33979">
		<tag k="name" v="Kolomoen" />
		<tag k="place" v="locality" />
		<tag k="ssr:stedsnr" v="704494" />
	</node>
	<node lat="63.11909166236365" lon="10.111152773226893" id="-33983">
		<tag k="fixme" v="consider natural=peak for the most distinct mountains in the district" />
		<tag k="name" v="Kjølåsen" />
		<tag k="natural" v="hill" />
		<tag k="place" v="locality" />
		<tag k="ssr:stedsnr" v="704525" />
	</node>
	<node lat="63.107266665629886" lon="10.094602783963564" id="-33985">
		<tag k="name" v="Skrivarberget" />
		<tag k="natural" v="hill" />
		<tag k="place" v="locality" />
		<tag k="ssr:stedsnr" v="704554" />
	</node>
	<node lat="63.092652780536255" lon="10.1483527822338" id="-33988">
		<tag k="fixme" v="consider natural=peak for the most distinct mountains in the district" />
		<tag k="name" v="Blomliåsen" />
		<tag k="natural" v="hill" />
		<tag k="place" v="locality" />
		<tag k="ssr:stedsnr" v="704586" />
	</node>
	<node lat="63.13438889234015" lon="9.97426388963008" id="-33995">
		<tag k="name" v="Slingslættet" />
		<tag k="place" v="locality" />
		<tag k="ssr:stedsnr" v="704700" />
	</node>
	<node lat="63.10910555378635" lon="10.228350000497572" id="-33998">
		<tag k="name" v="Blommen" />
		<tag k="natural" v="hill" />
		<tag k="place" v="locality" />
		<tag k="ssr:stedsnr" v="704820" />
	</node>
	<node lat="63.12438333675397" lon="10.472391672967126" id="-33999">
		<tag k="name" v="Trongdalen" />
		<tag k="natural" v="valley" />
		<tag k="place" v="locality" />
		<tag k="ssr:stedsnr" v="704821" />
	</node>
	<node lat="63.213499997623565" lon="10.418044436918237" id="-34001">
		<tag k="name" v="Ratåsskardet" />
		<tag k="natural" v="valley" />
		<tag k="place" v="locality" />
		<tag k="ssr:stedsnr" v="704832" />
	</node>
	<node lat="63.295294441392784" lon="10.356755550599942" id="-34004">
		<tag k="name" v="Knullskardet" />
		<tag k="natural" v="valley" />
		<tag k="place" v="locality" />
		<tag k="ssr:stedsnr" v="704845" />
	</node>
	<node lat="63.275788892626785" lon="10.352938886676018" id="-34005">
		<tag k="name" v="Langdalan" />
		<tag k="natural" v="valley" />
		<tag k="place" v="locality" />
		<tag k="ssr:stedsnr" v="704851" />
	</node>
	<node lat="63.146961108054434" lon="10.146747224577371" id="-34006">
		<tag k="name" v="Klashaugan" />
		<tag k="natural" v="hill" />
		<tag k="place" v="locality" />
		<tag k="ssr:stedsnr" v="704978" />
	</node>
	<node lat="63.12742221929655" lon="10.149252782556175" id="-34007">
		<tag k="fixme" v="consider natural=peak for the most distinct mountains in the district" />
		<tag k="name" v="Svartåsen" />
		<tag k="natural" v="hill" />
		<tag k="place" v="locality" />
		<tag k="ssr:stedsnr" v="704981" />
	</node>
	<node lat="63.22185555262382" lon="10.464888895721264" id="-34008">
		<tag k="alt_name" v="Dalslætta" />
		<tag k="name" v="Dalsslætta" />
		<tag k="place" v="locality" />
		<tag k="ssr:stedsnr" v="704921" />
	</node>
	<node lat="63.06875833605496" lon="10.23863333578937" id="-34009">
		<tag k="name" v="Middagshaugan" />
		<tag k="natural" v="hill" />
		<tag k="place" v="locality" />
		<tag k="ssr:stedsnr" v="704927" />
	</node>
	<node lat="63.07481110981491" lon="10.308752779130312" id="-34010">
		<tag k="name" v="Saghola" />
		<tag k="natural" v="slope" />
		<tag k="place" v="locality" />
		<tag k="ssr:stedsnr" v="704939" />
	</node>
	<node lat="63.058863889953976" lon="10.2162749967716" id="-34011">
		<tag k="name" v="Tovlia" />
		<tag k="natural" v="slope" />
		<tag k="place" v="locality" />
		<tag k="ssr:stedsnr" v="704941" />
	</node>
	<node lat="63.172791667480794" lon="10.376722216638594" id="-34019">
		<tag k="fixme" v="consider natural=peak for the most distinct mountains in the district" />
		<tag k="name" v="Høgåsen" />
		<tag k="natural" v="hill" />
		<tag k="place" v="locality" />
		<tag k="ssr:stedsnr" v="705837" />
	</node>
	<node lat="63.19525000095047" lon="10.442119437601537" id="-34021">
		<tag k="name" v="Snølihøgda" />
		<tag k="natural" v="hill" />
		<tag k="place" v="locality" />
		<tag k="ssr:stedsnr" v="643205" />
	</node>
	<node lat="63.20176110905051" lon="10.416161119685874" id="-34022">
		<tag k="fixme" v="consider natural=peak for the most distinct mountains in the district" />
		<tag k="name" v="Litltjønnåsen" />
		<tag k="natural" v="hill" />
		<tag k="place" v="locality" />
		<tag k="ssr:stedsnr" v="643213" />
	</node>
	<node lat="63.20070555123687" lon="10.400236112756154" id="-34023">
		<tag k="fixme" v="consider natural=peak for the most distinct mountains in the district" />
		<tag k="name" v="Stormyråsen" />
		<tag k="natural" v="hill" />
		<tag k="place" v="locality" />
		<tag k="ssr:stedsnr" v="643215" />
	</node>
	<node lat="63.23161111321242" lon="10.29432221938206" id="-34026">
		<tag k="name" v="Kvernhusbakken" />
		<tag k="natural" v="slope" />
		<tag k="place" v="locality" />
		<tag k="ssr:stedsnr" v="643116" />
	</node>
	<node lat="63.23533333469218" lon="10.327988882231534" id="-34027">
		<tag k="fixme" v="consider natural=peak for the most distinct mountains in the district" />
		<tag k="name" v="Såteråsen" />
		<tag k="natural" v="hill" />
		<tag k="place" v="locality" />
		<tag k="ssr:stedsnr" v="643127" />
	</node>
	<node lat="63.26594721786899" lon="10.218169446548801" id="-34029">
		<tag k="name" v="Kneppen" />
		<tag k="natural" v="ridge" />
		<tag k="place" v="locality" />
		<tag k="ssr:stedsnr" v="643181" />
	</node>
	<node lat="63.09846944696379" lon="10.028416665378854" id="-34031">
		<tag k="fixme" v="consider natural=peak for the most distinct mountains in the district" />
		<tag k="name" v="Renåsåsen" />
		<tag k="natural" v="hill" />
		<tag k="place" v="locality" />
		<tag k="ssr:stedsnr" v="643309" />
	</node>
	<node lat="63.14941944405183" lon="10.114283340670173" id="-34037">
		<tag k="fixme" v="consider natural=peak for the most distinct mountains in the district" />
		<tag k="name" v="Vikaåsen" />
		<tag k="natural" v="hill" />
		<tag k="place" v="locality" />
		<tag k="ssr:stedsnr" v="643491" />
	</node>
	<node lat="63.189219447495816" lon="10.044919448447441" id="-34039">
		<tag k="fixme" v="consider natural=peak for the most distinct mountains in the district" />
		<tag k="name" v="Karikosåsen" />
		<tag k="natural" v="hill" />
		<tag k="place" v="locality" />
		<tag k="ssr:stedsnr" v="643382" />
	</node>
	<node lat="63.07046944028073" lon="10.003405561853938" id="-34040">
		<tag k="fixme" v="consider natural=peak for the most distinct mountains in the district" />
		<tag k="name" v="Tjønnåsan" />
		<tag k="natural" v="hill" />
		<tag k="place" v="locality" />
		<tag k="ssr:stedsnr" v="643390" />
	</node>
	<node lat="63.07249166569969" lon="9.997063896881356" id="-34041">
		<tag k="name" v="Sollia" />
		<tag k="natural" v="slope" />
		<tag k="place" v="locality" />
		<tag k="ssr:stedsnr" v="643391" />
	</node>
	<node lat="63.07455555377512" lon="10.004252784434362" id="-34042">
		<tag k="fixme" v="consider natural=peak for the most distinct mountains in the district" />
		<tag k="name" v="Blomåsen" />
		<tag k="natural" v="hill" />
		<tag k="place" v="locality" />
		<tag k="ssr:stedsnr" v="643392" />
	</node>
	<node lat="63.13495833637702" lon="9.946750006476332" id="-34045">
		<tag k="name" v="Sjølihaugan" />
		<tag k="natural" v="hill" />
		<tag k="place" v="locality" />
		<tag k="ssr:stedsnr" v="643727" />
	</node>
	<node lat="63.232169443205635" lon="10.373886109972075" id="-34047">
		<tag k="name" v="Reithøgda" />
		<tag k="natural" v="hill" />
		<tag k="place" v="locality" />
		<tag k="ssr:stedsnr" v="643773" />
	</node>
	<node lat="63.17301944139539" lon="10.401216669628935" id="-34048">
		<tag k="fixme" v="consider natural=peak for the most distinct mountains in the district" />
		<tag k="name" v="Sjursprangåsen" />
		<tag k="natural" v="hill" />
		<tag k="place" v="locality" />
		<tag k="ssr:stedsnr" v="643792" />
	</node>
	<node lat="63.09291111326784" lon="10.280758338313035" id="-34049">
		<tag k="name" v="Vassåskleva" />
		<tag k="natural" v="slope" />
		<tag k="place" v="locality" />
		<tag k="ssr:stedsnr" v="643908" />
	</node>
	<node lat="63.20650555925446" lon="10.508511108495513" id="-34052">
		<tag k="name" v="Teigahøgda" />
		<tag k="natural" v="hill" />
		<tag k="place" v="locality" />
		<tag k="ssr:stedsnr" v="643927" />
	</node>
	<node lat="63.16081944191242" lon="10.173102776715712" id="-34053">
		<tag k="fixme" v="consider natural=peak for the most distinct mountains in the district" />
		<tag k="name" v="Storbrandåsen" />
		<tag k="natural" v="hill" />
		<tag k="place" v="locality" />
		<tag k="ssr:stedsnr" v="643973" />
	</node>
	<node lat="63.14447222599958" lon="10.163377771445711" id="-34054">
		<tag k="name" v="Elgåsberga" />
		<tag k="natural" v="hill" />
		<tag k="place" v="locality" />
		<tag k="ssr:stedsnr" v="643976" />
	</node>
	<node lat="63.168024997211354" lon="10.49984166472268" id="-34060">
		<tag k="name" v="Storhaugdalen" />
		<tag k="natural" v="valley" />
		<tag k="place" v="locality" />
		<tag k="ssr:stedsnr" v="643824" />
	</node>
	<node lat="63.11148055166134" lon="10.21066389356516" id="-34061">
		<tag k="name" v="Moabakkan" />
		<tag k="natural" v="slope" />
		<tag k="place" v="locality" />
		<tag k="ssr:stedsnr" v="643826" />
	</node>
	<node lat="63.12908611195608" lon="10.492422231790497" id="-34062">
		<tag k="name" v="Slettdalen" />
		<tag k="natural" v="valley" />
		<tag k="place" v="locality" />
		<tag k="ssr:stedsnr" v="643829" />
	</node>
	<node lat="63.301133334701454" lon="10.370102782591204" id="-34067">
		<tag k="name" v="Furuhaugen" />
		<tag k="natural" v="hill" />
		<tag k="place" v="locality" />
		<tag k="ssr:stedsnr" v="643882" />
	</node>
	<node lat="63.18237499615903" lon="10.279816662232134" id="-34068">
		<tag k="name" v="Damvassplassen" />
		<tag k="place" v="locality" />
		<tag k="ssr:stedsnr" v="643888" />
	</node>
	<node lat="63.06564999881738" lon="10.240511103538422" id="-34072">
		<tag k="fixme" v="consider natural=peak for the most distinct mountains in the district" />
		<tag k="name" v="Brentåsen" />
		<tag k="natural" v="hill" />
		<tag k="place" v="locality" />
		<tag k="ssr:stedsnr" v="655003" />
	</node>
	<node lat="63.11066258460499" lon="10.229877775843994" id="-34081">
		<tag k="fixme" v="consider natural=peak for the most distinct mountains in the district" />
		<tag k="name" v="Hovinsåsen" />
		<tag k="natural" v="hill" />
		<tag k="place" v="locality" />
		<tag k="ssr:stedsnr" v="667143" />
	</node>
	<node lat="63.13999444277547" lon="10.339136115395062" id="-34082">
		<tag k="fixme" v="consider natural=peak for the most distinct mountains in the district" />
		<tag k="name" v="Trøåsen" />
		<tag k="natural" v="hill" />
		<tag k="place" v="locality" />
		<tag k="ssr:stedsnr" v="667221" />
	</node>
	<node lat="63.23688055327982" lon="10.365730550153632" id="-34091">
		<tag k="fixme" v="consider natural=peak for the most distinct mountains in the district" />
		<tag k="name" v="Holmyråsen" />
		<tag k="natural" v="hill" />
		<tag k="place" v="locality" />
		<tag k="ssr:stedsnr" v="679603" />
	</node>
	<node lat="63.06870277589054" lon="10.246177770141953" id="-34097">
		<tag k="fixme" v="consider natural=peak for the most distinct mountains in the district" />
		<tag k="name" v="Kleivåsen" />
		<tag k="natural" v="hill" />
		<tag k="place" v="locality" />
		<tag k="ssr:stedsnr" v="679882" />
	</node>
	<node lat="63.231888888644534" lon="10.212774999459759" id="-34110">
		<tag k="fixme" v="consider natural=peak for the most distinct mountains in the district" />
		<tag k="name" v="Blisteråsen" />
		<tag k="natural" v="hill" />
		<tag k="place" v="locality" />
		<tag k="ssr:stedsnr" v="704105" />
	</node>
	<node lat="63.17051389016144" lon="10.252027786399436" id="-34111">
		<tag k="name" v="Sagåslia" />
		<tag k="natural" v="slope" />
		<tag k="place" v="locality" />
		<tag k="ssr:stedsnr" v="704116" />
	</node>
	<node lat="63.22149999906083" lon="10.315430564454385" id="-34112">
		<tag k="fixme" v="consider natural=peak for the most distinct mountains in the district" />
		<tag k="name" v="Knuppåsen" />
		<tag k="natural" v="hill" />
		<tag k="place" v="locality" />
		<tag k="ssr:stedsnr" v="704062" />
	</node>
	<node lat="63.231474998925776" lon="10.22236944424481" id="-34113">
		<tag k="name" v="Høgberget" />
		<tag k="natural" v="hill" />
		<tag k="place" v="locality" />
		<tag k="ssr:stedsnr" v="704077" />
	</node>
	<node lat="63.14680000423312" lon="10.376177768381988" id="-34114">
		<tag k="name" v="Storklevberga" />
		<tag k="natural" v="hill" />
		<tag k="place" v="locality" />
		<tag k="ssr:stedsnr" v="704207" />
	</node>
	<node lat="63.16753610869069" lon="10.432600001020708" id="-34119">
		<tag k="fixme" v="consider natural=peak for the most distinct mountains in the district" />
		<tag k="name" v="Meåsen" />
		<tag k="natural" v="hill" />
		<tag k="place" v="locality" />
		<tag k="ssr:stedsnr" v="704223" />
	</node>
	<node lat="63.1373250007557" lon="9.992352780271462" id="-34120">
		<tag k="name" v="Skardet" />
		<tag k="natural" v="valley" />
		<tag k="place" v="locality" />
		<tag k="ssr:stedsnr" v="704263" />
	</node>
	<node lat="63.145125000446434" lon="9.994358328319043" id="-34121">
		<tag k="fixme" v="consider natural=peak for the most distinct mountains in the district" />
		<tag k="name" v="Åsen" />
		<tag k="natural" v="hill" />
		<tag k="place" v="locality" />
		<tag k="ssr:stedsnr" v="704265" />
	</node>
	<node lat="63.137430553552534" lon="10.002541672406604" id="-34122">
		<tag k="name" v="Estenstadslættet" />
		<tag k="place" v="locality" />
		<tag k="ssr:stedsnr" v="704267" />
	</node>
	<node lat="63.127361110696995" lon="10.074566661209552" id="-34131">
		<tag k="name" v="Lykkjberga" />
		<tag k="natural" v="hill" />
		<tag k="place" v="locality" />
		<tag k="ssr:stedsnr" v="704323" />
	</node>
	<node lat="63.06431666819868" lon="10.029327779169884" id="-34134">
		<tag k="fixme" v="consider natural=peak for the most distinct mountains in the district" />
		<tag k="name" v="Bjørlikamben" />
		<tag k="natural" v="hill" />
		<tag k="place" v="locality" />
		<tag k="ssr:stedsnr" v="704375" />
	</node>
	<node lat="63.13569722131662" lon="10.208433325972061" id="-34135">
		<tag k="name" v="Jobrentet" />
		<tag k="natural" v="slope" />
		<tag k="place" v="locality" />
		<tag k="ssr:stedsnr" v="704478" />
	</node>
	<node lat="63.14787777729611" lon="10.205383338800177" id="-34136">
		<tag k="name" v="Skavdalen" />
		<tag k="natural" v="valley" />
		<tag k="place" v="locality" />
		<tag k="ssr:stedsnr" v="704480" />
	</node>
	<node lat="63.280791667614956" lon="10.262047218043604" id="-34146">
		<tag k="name" v="Merradalen" />
		<tag k="natural" v="valley" />
		<tag k="place" v="locality" />
		<tag k="ssr:stedsnr" v="704733" />
	</node>
	<node lat="63.17838611078907" lon="10.252911119130417" id="-34148">
		<tag k="name" v="Sagåsdalen" />
		<tag k="natural" v="valley" />
		<tag k="place" v="locality" />
		<tag k="ssr:stedsnr" v="704739" />
	</node>
	<node lat="63.21887499836778" lon="10.357124990492625" id="-34150">
		<tag k="name" v="Gammelseterdalen" />
		<tag k="natural" v="valley" />
		<tag k="place" v="locality" />
		<tag k="ssr:stedsnr" v="704750" />
	</node>
	<node lat="63.205249999500786" lon="10.459213893371578" id="-34151">
		<tag k="name" v="Fugelleket" />
		<tag k="place" v="locality" />
		<tag k="ssr:stedsnr" v="704764" />
	</node>
	<node lat="63.15330000141083" lon="10.316583324547109" id="-34152">
		<tag k="fixme" v="consider natural=peak for the most distinct mountains in the district" />
		<tag k="name" v="Øveråsen" />
		<tag k="natural" v="hill" />
		<tag k="place" v="locality" />
		<tag k="ssr:stedsnr" v="704767" />
	</node>
	<node lat="63.08684999711148" lon="10.258858327906395" id="-34154">
		<tag k="fixme" v="consider natural=peak for the most distinct mountains in the district" />
		<tag k="name" v="Klinkåsen" />
		<tag k="natural" v="hill" />
		<tag k="place" v="locality" />
		<tag k="ssr:stedsnr" v="704867" />
	</node>
	<node lat="63.1011833354306" lon="10.295150009683216" id="-34155">
		<tag k="name" v="Høgdalen" />
		<tag k="natural" v="valley" />
		<tag k="place" v="locality" />
		<tag k="ssr:stedsnr" v="704881" />
	</node>
	<node lat="63.09376944899519" lon="10.315394438747209" id="-34156">
		<tag k="name" v="Bjørnhidalen" />
		<tag k="natural" v="valley" />
		<tag k="place" v="locality" />
		<tag k="ssr:stedsnr" v="704904" />
	</node>
	<node lat="63.116375001203764" lon="10.206808336279153" id="-34174">
		<tag k="name" v="Sørtømmesbakken" />
		<tag k="natural" v="slope" />
		<tag k="place" v="locality" />
		<tag k="ssr:stedsnr" v="740022" />
	</node>
	<node lat="63.131638886224955" lon="10.106908340528149" id="-34176">
		<tag k="alt_name" v="Kattuggelåsen" />
		<tag k="fixme" v="consider natural=peak for the most distinct mountains in the district" />
		<tag k="name" v="Kattuglåsen" />
		<tag k="natural" v="hill" />
		<tag k="old_name" v="Katugleåsen" />
		<tag k="place" v="locality" />
		<tag k="ssr:stedsnr" v="740043" />
	</node>
	<node lat="63.154552779317406" lon="10.086855556222082" id="-34178">
		<tag k="alt_name" v="Gaustogrøtåsen" />
		<tag k="fixme" v="consider natural=peak for the most distinct mountains in the district" />
		<tag k="name" v="Gaustadgrøtåsen" />
		<tag k="natural" v="hill" />
		<tag k="place" v="locality" />
		<tag k="ssr:stedsnr" v="740110" />
	</node>
	<node lat="63.08459999733381" lon="9.928505561717019" id="-34184">
		<tag k="fixme" v="consider natural=peak for the most distinct mountains in the district" />
		<tag k="name" v="Baklihaugåsen" />
		<tag k="natural" v="hill" />
		<tag k="place" v="locality" />
		<tag k="ssr:stedsnr" v="740506" />
	</node>
	<node lat="63.20936111272553" lon="10.508625008108726" id="-34186">
		<tag k="name" v="Bortshøgda" />
		<tag k="natural" v="hill" />
		<tag k="place" v="locality" />
		<tag k="ssr:stedsnr" v="740689" />
	</node>
	<node lat="63.13396944704766" lon="10.383844450611157" id="-34193">
		<tag k="name" v="Huhaugen" />
		<tag k="natural" v="hill" />
		<tag k="place" v="locality" />
		<tag k="ssr:stedsnr" v="740802" />
	</node>
	<node lat="63.13978333325569" lon="10.050216663671733" id="-34214">
		<tag k="name" v="Strypet" />
		<tag k="natural" v="valley" />
		<tag k="place" v="locality" />
		<tag k="ssr:stedsnr" v="764313" />
	</node>
	<node lat="63.13703888524929" lon="10.043099994552698" id="-34215">
		<tag k="name" v="Gåslandslia" />
		<tag k="natural" v="slope" />
		<tag k="place" v="locality" />
		<tag k="ssr:stedsnr" v="764318" />
	</node>
	<node lat="63.153530552460175" lon="10.376177780068607" id="-34216">
		<tag k="fixme" v="consider natural=peak for the most distinct mountains in the district" />
		<tag k="name" v="Gilderåsen" />
		<tag k="natural" v="hill" />
		<tag k="place" v="locality" />
		<tag k="ssr:stedsnr" v="764214" />
	</node>
	<node lat="63.105758335762076" lon="10.01093055470097" id="-34218">
		<tag k="name" v="Rødsslættet" />
		<tag k="place" v="locality" />
		<tag k="ssr:stedsnr" v="764240" />
	</node>
	<node lat="63.13787222537861" lon="10.026366659468033" id="-34222">
		<tag k="name" v="Gåslandsbakken" />
		<tag k="natural" v="slope" />
		<tag k="place" v="locality" />
		<tag k="ssr:stedsnr" v="764300" />
	</node>
	<node lat="63.19907500400407" lon="10.231433330473672" id="-34228">
		<tag k="fixme" v="consider natural=peak for the most distinct mountains in the district" />
		<tag k="name" v="Storkleivåsen" />
		<tag k="natural" v="hill" />
		<tag k="place" v="locality" />
		<tag k="ssr:stedsnr" v="765012" />
	</node>
	<node lat="63.20677777525525" lon="10.24114166937661" id="-34229">
		<tag k="fixme" v="consider natural=peak for the most distinct mountains in the district" />
		<tag k="name" v="Meraftasåsen" />
		<tag k="natural" v="hill" />
		<tag k="place" v="locality" />
		<tag k="ssr:stedsnr" v="765015" />
	</node>
	<node lat="63.2390083333736" lon="10.172972224807486" id="-34232">
		<tag k="fixme" v="consider natural=peak for the most distinct mountains in the district" />
		<tag k="name" v="Høgåsen" />
		<tag k="natural" v="hill" />
		<tag k="place" v="locality" />
		<tag k="ssr:stedsnr" v="765055" />
	</node>
	<node lat="63.21490833692428" lon="10.236613896827404" id="-34233">
		<tag k="name" v="Damtjønnhaugen" />
		<tag k="natural" v="hill" />
		<tag k="place" v="locality" />
		<tag k="ssr:stedsnr" v="765090" />
	</node>
	<node lat="63.22843889121062" lon="10.23668333274167" id="-34234">
		<tag k="name" v="Stjørdalen" />
		<tag k="natural" v="valley" />
		<tag k="place" v="locality" />
		<tag k="ssr:stedsnr" v="765091" />
	</node>
	<node lat="63.14529999776218" lon="10.364591659189825" id="-34235">
		<tag k="fixme" v="consider natural=peak for the most distinct mountains in the district" />
		<tag k="name" v="Oldertjønnåsen" />
		<tag k="natural" v="hill" />
		<tag k="place" v="locality" />
		<tag k="ssr:stedsnr" v="765207" />
	</node>
	<node lat="63.07031110683255" lon="10.055319440094365" id="-34237">
		<tag k="name" v="Brattlia" />
		<tag k="natural" v="slope" />
		<tag k="place" v="locality" />
		<tag k="ssr:stedsnr" v="765423" />
	</node>
	<node lat="63.17867777378075" lon="10.120919450676093" id="-34239">
		<tag k="fixme" v="consider natural=peak for the most distinct mountains in the district" />
		<tag k="name" v="Husåsen" />
		<tag k="natural" v="hill" />
		<tag k="place" v="locality" />
		<tag k="ssr:stedsnr" v="765442" />
	</node>
	<node lat="63.17198888892394" lon="9.93593332726482" id="-34241">
		<tag k="fixme" v="consider natural=peak for the most distinct mountains in the district" />
		<tag k="name" v="Storbudalsåsen" />
		<tag k="natural" v="hill" />
		<tag k="place" v="locality" />
		<tag k="ssr:stedsnr" v="765360" />
	</node>
	<node lat="63.093936109941275" lon="10.111877781860505" id="-34242">
		<tag k="name" v="Mjølkflotten" />
		<tag k="place" v="locality" />
		<tag k="ssr:stedsnr" v="765596" />
	</node>
	<node lat="63.06277500315754" lon="10.176791670846844" id="-34247">
		<tag k="fixme" v="consider natural=peak for the most distinct mountains in the district" />
		<tag k="name" v="Bjørnåsen" />
		<tag k="natural" v="hill" />
		<tag k="place" v="locality" />
		<tag k="ssr:stedsnr" v="765655" />
	</node>
	<node lat="63.17425832987672" lon="10.48256110950972" id="-34260">
		<tag k="name" v="Fjelldalen" />
		<tag k="natural" v="valley" />
		<tag k="place" v="locality" />
		<tag k="ssr:stedsnr" v="765899" />
	</node>
	<node lat="63.142430558330005" lon="10.038227778003277" id="-34292">
		<tag k="name" v="Skardberget" />
		<tag k="natural" v="hill" />
		<tag k="place" v="locality" />
		<tag k="ssr:stedsnr" v="801088" />
	</node>
	<node lat="63.09031111520469" lon="10.134783327715306" id="-34300">
		<tag k="name" v="Høgberget" />
		<tag k="natural" v="hill" />
		<tag k="place" v="locality" />
		<tag k="ssr:stedsnr" v="801522" />
	</node>
	<node lat="63.15343611049886" lon="10.227980563228225" id="-34308">
		<tag k="fixme" v="consider natural=peak for the most distinct mountains in the district" />
		<tag k="name" v="Øveråsen" />
		<tag k="natural" v="hill" />
		<tag k="place" v="locality" />
		<tag k="ssr:stedsnr" v="801824" />
	</node>
	<node lat="63.27645277994619" lon="10.32580277117604" id="-34309">
		<tag k="alt_name" v="Fuggelåsen" />
		<tag k="fixme" v="consider natural=peak for the most distinct mountains in the district" />
		<tag k="name" v="Fuglåsen" />
		<tag k="natural" v="hill" />
		<tag k="place" v="locality" />
		<tag k="ssr:stedsnr" v="802175" />
	</node>
	<node lat="63.30608333401761" lon="10.376872219369375" id="-34310">
		<tag k="name" v="Undurshaugen" />
		<tag k="natural" v="hill" />
		<tag k="place" v="locality" />
		<tag k="ssr:stedsnr" v="802869" />
	</node>
	<node lat="63.12542222477129" lon="10.072249997995504" id="-34311">
		<tag k="name" v="Gilhaugen" />
		<tag k="natural" v="hill" />
		<tag k="place" v="locality" />
		<tag k="ssr:stedsnr" v="825310" />
	</node>
	<node lat="63.10810555976161" lon="10.197433343264178" id="-34312">
		<tag k="name" v="Grøtskardet" />
		<tag k="natural" v="valley" />
		<tag k="place" v="locality" />
		<tag k="ssr:stedsnr" v="825526" />
	</node>
	<node lat="63.12260555705423" lon="10.092272213866075" id="-34313">
		<tag k="fixme" v="consider natural=peak for the most distinct mountains in the district" />
		<tag k="name" v="Brattåsen" />
		<tag k="natural" v="hill" />
		<tag k="place" v="locality" />
		<tag k="ssr:stedsnr" v="825531" />
	</node>
	<node lat="63.133805559693684" lon="10.045913886728533" id="-34315">
		<tag k="fixme" v="consider natural=peak for the most distinct mountains in the district" />
		<tag k="name" v="Middagsåsen" />
		<tag k="natural" v="hill" />
		<tag k="place" v="locality" />
		<tag k="ssr:stedsnr" v="825268" />
	</node>
	<node lat="63.138241666326394" lon="10.066174991758716" id="-34316">
		<tag k="fixme" v="consider natural=peak for the most distinct mountains in the district" />
		<tag k="name" v="Langmyråsen" />
		<tag k="natural" v="hill" />
		<tag k="place" v="locality" />
		<tag k="ssr:stedsnr" v="825286" />
	</node>
	<node lat="63.128313888621136" lon="10.130386120996032" id="-34317">
		<tag k="fixme" v="consider natural=peak for the most distinct mountains in the district" />
		<tag k="name" v="Trånnåmyråsan" />
		<tag k="natural" v="hill" />
		<tag k="place" v="locality" />
		<tag k="ssr:stedsnr" v="825464" />
	</node>
	<node lat="63.22005000417545" lon="10.307736102156033" id="-34326">
		<tag k="name" v="Granberget" />
		<tag k="natural" v="hill" />
		<tag k="place" v="locality" />
		<tag k="ssr:stedsnr" v="826112" />
	</node>
	<node lat="63.233652774161335" lon="10.29966111707853" id="-34327">
		<tag k="name" v="Dålåberga" />
		<tag k="natural" v="hill" />
		<tag k="place" v="locality" />
		<tag k="ssr:stedsnr" v="826116" />
	</node>
	<node lat="63.24830555457103" lon="10.209380559767142" id="-34328">
		<tag k="fixme" v="consider natural=peak for the most distinct mountains in the district" />
		<tag k="name" v="Våttååsen" />
		<tag k="natural" v="hill" />
		<tag k="place" v="locality" />
		<tag k="ssr:stedsnr" v="826124" />
	</node>
	<node lat="63.188924999341054" lon="10.271136110953266" id="-34329">
		<tag k="fixme" v="consider natural=peak for the most distinct mountains in the district" />
		<tag k="name" v="Milåsen" />
		<tag k="natural" v="hill" />
		<tag k="place" v="locality" />
		<tag k="ssr:stedsnr" v="826125" />
	</node>
	<node lat="63.18181389012084" lon="10.26947777105554" id="-34330">
		<tag k="fixme" v="consider natural=peak for the most distinct mountains in the district" />
		<tag k="name" v="Stokkdalsåsen" />
		<tag k="natural" v="hill" />
		<tag k="place" v="locality" />
		<tag k="ssr:stedsnr" v="826126" />
	</node>
	<node lat="63.273197222144944" lon="10.333088891757981" id="-34331">
		<tag k="name" v="Lomtjønnhaugen" />
		<tag k="natural" v="hill" />
		<tag k="place" v="locality" />
		<tag k="ssr:stedsnr" v="826169" />
	</node>
	<node lat="63.08447778224269" lon="10.152197229052652" id="-34337">
		<tag k="name" v="Sæterhaugen" />
		<tag k="natural" v="hill" />
		<tag k="place" v="locality" />
		<tag k="ssr:stedsnr" v="826619" />
	</node>
	<node lat="63.100030558892165" lon="10.153516666262501" id="-34338">
		<tag k="alt_name" v="Rognliene" />
		<tag k="name" v="Rognliin" />
		<tag k="natural" v="slope" />
		<tag k="place" v="locality" />
		<tag k="ssr:stedsnr" v="826625" />
	</node>
	<node lat="63.13264166531268" lon="10.180391667728237" id="-34340">
		<tag k="fixme" v="consider natural=peak for the most distinct mountains in the district" />
		<tag k="name" v="Grøtvåttån" />
		<tag k="natural" v="hill" />
		<tag k="old_name" v="Grøtvåtån" />
		<tag k="place" v="locality" />
		<tag k="ssr:stedsnr" v="922053" />
	</node>
	<node lat="63.07514999791843" lon="10.235086105636249" id="-34345">
		<tag k="fixme" v="consider natural=peak for the most distinct mountains in the district" />
		<tag k="name" v="Høgåsen" />
		<tag k="natural" v="hill" />
		<tag k="place" v="locality" />
		<tag k="ssr:stedsnr" v="826914" />
	</node>
	<node lat="63.080080555131794" lon="10.228749993149922" id="-34346">
		<tag k="fixme" v="consider natural=peak for the most distinct mountains in the district" />
		<tag k="name" v="Nonsåsen" />
		<tag k="natural" v="hill" />
		<tag k="place" v="locality" />
		<tag k="ssr:stedsnr" v="826919" />
	</node>
	<node lat="63.22459999716284" lon="10.503433325556493" id="-34350">
		<tag k="loc_name" v="Stongslættrya" />
		<tag k="name" v="Stongslætthøgda" />
		<tag k="natural" v="hill" />
		<tag k="place" v="locality" />
		<tag k="ssr:stedsnr" v="826946" />
	</node>
	<node lat="63.2180499995084" lon="10.518766673347264" id="-34351">
		<tag k="name" v="Furuhaugen" />
		<tag k="natural" v="hill" />
		<tag k="place" v="locality" />
		<tag k="ssr:stedsnr" v="826947" />
	</node>
	<node lat="63.08045000054941" lon="10.286072227544516" id="-34352">
		<tag k="name" v="Gammelvollskardet" />
		<tag k="natural" v="valley" />
		<tag k="place" v="locality" />
		<tag k="ssr:stedsnr" v="826958" />
	</node>
	<node lat="63.18328333720371" lon="10.413874994701208" id="-34354">
		<tag k="name" v="Skottjønndalen" />
		<tag k="natural" v="valley" />
		<tag k="place" v="locality" />
		<tag k="ssr:stedsnr" v="826805" />
	</node>
	<node lat="63.23503889179563" lon="10.341999992458712" id="-34356">
		<tag k="fixme" v="consider natural=peak for the most distinct mountains in the district" />
		<tag k="name" v="Elgåsen" />
		<tag k="natural" v="hill" />
		<tag k="place" v="locality" />
		<tag k="ssr:stedsnr" v="826808" />
	</node>
	<node lat="63.104705554279064" lon="10.219913895588425" id="-34358">
		<tag k="name" v="Kalvhåggåhaugen" />
		<tag k="natural" v="hill" />
		<tag k="place" v="locality" />
		<tag k="ssr:stedsnr" v="826863" />
	</node>
	<node lat="63.092894440031316" lon="10.261138893301293" id="-34364">
		<tag k="name" v="Sveet" />
		<tag k="natural" v="slope" />
		<tag k="place" v="locality" />
		<tag k="ssr:stedsnr" v="826887" />
	</node>
	<node lat="63.093799998389606" lon="10.215480564455603" id="-34366">
		<tag k="fixme" v="consider natural=peak for the most distinct mountains in the district" />
		<tag k="name" v="Nonsåsen" />
		<tag k="natural" v="hill" />
		<tag k="place" v="locality" />
		<tag k="ssr:stedsnr" v="922500" />
	</node>
	<node lat="63.07808888500867" lon="10.32619167574499" id="-34380">
		<tag k="fixme" v="consider natural=peak for the most distinct mountains in the district" />
		<tag k="name" v="Svarttjønnåsen" />
		<tag k="natural" v="hill" />
		<tag k="place" v="locality" />
		<tag k="ssr:stedsnr" v="922865" />
	</node>
	<node lat="63.11871389220699" lon="10.102563898521105" id="-34383">
		<tag k="name" v="Svartberget" />
		<tag k="natural" v="hill" />
		<tag k="place" v="locality" />
		<tag k="ssr:stedsnr" v="923044" />
	</node>
	<node lat="63.07761944516142" lon="10.144624996700681" id="-34388">
		<tag k="alt_name" v="Sandåberga" />
		<tag k="name" v="Sandaberga" />
		<tag k="natural" v="hill" />
		<tag k="place" v="locality" />
		<tag k="ssr:stedsnr" v="923554" />
	</node>
	<node lat="63.24761944301093" lon="10.290069452297653" id="-34396">
		<tag k="name" v="Skjerdingstadmoen" />
		<tag k="place" v="locality" />
		<tag k="ssr:stedsnr" v="837006" />
	</node>
	<node lat="63.24832500062754" lon="10.210519435841377" id="-34408">
		<tag k="fixme" v="consider natural=peak for the most distinct mountains in the district" />
		<tag k="name" v="Våttåsen" />
		<tag k="natural" v="hill" />
		<tag k="place" v="locality" />
		<tag k="ssr:stedsnr" v="862308" />
	</node>
	<node lat="63.18451666370401" lon="10.259763889670351" id="-34423">
		<tag k="fixme" v="consider natural=peak for the most distinct mountains in the district" />
		<tag k="name" v="Nonsgrovåsen" />
		<tag k="natural" v="hill" />
		<tag k="place" v="locality" />
		<tag k="ssr:stedsnr" v="886105" />
	</node>
	<node lat="63.23105833255373" lon="10.3076166705858" id="-34426">
		<tag k="fixme" v="consider natural=peak for the most distinct mountains in the district" />
		<tag k="name" v="Brannåsen" />
		<tag k="natural" v="hill" />
		<tag k="place" v="locality" />
		<tag k="ssr:stedsnr" v="886060" />
	</node>
	<node lat="63.14677500409317" lon="10.041266670701992" id="-34428">
		<tag k="name" v="Tåmmåsliin" />
		<tag k="natural" v="slope" />
		<tag k="place" v="locality" />
		<tag k="ssr:stedsnr" v="886316" />
	</node>
	<node lat="63.073758335489764" lon="9.990383340344367" id="-34431">
		<tag k="name" v="Langdalen" />
		<tag k="natural" v="valley" />
		<tag k="place" v="locality" />
		<tag k="ssr:stedsnr" v="886396" />
	</node>
	<node lat="63.09887778149112" lon="9.923769448195037" id="-34432">
		<tag k="name" v="Ingebrigtskosa" />
		<tag k="place" v="locality" />
		<tag k="ssr:stedsnr" v="886246" />
	</node>
	<node lat="63.10876944395028" lon="9.96008611766261" id="-34434">
		<tag k="fixme" v="consider natural=peak for the most distinct mountains in the district" />
		<tag k="name" v="Solliåsen" />
		<tag k="natural" v="hill" />
		<tag k="place" v="locality" />
		<tag k="ssr:stedsnr" v="886251" />
	</node>
	<node lat="63.15690277416187" lon="10.095636117777616" id="-34442">
		<tag k="name" v="Dolpin" />
		<tag k="place" v="locality" />
		<tag k="ssr:stedsnr" v="886498" />
	</node>
	<node lat="63.15385277687942" lon="9.99790834197782" id="-34443">
		<tag k="fixme" v="consider natural=peak for the most distinct mountains in the district" />
		<tag k="name" v="Åsen" />
		<tag k="natural" v="hill" />
		<tag k="place" v="locality" />
		<tag k="ssr:stedsnr" v="886658" />
	</node>
	<node lat="63.164219443948745" lon="9.994969437867866" id="-34444">
		<tag k="fixme" v="consider natural=peak for the most distinct mountains in the district" />
		<tag k="name" v="Brandåsen" />
		<tag k="natural" v="hill" />
		<tag k="place" v="locality" />
		<tag k="ssr:stedsnr" v="886662" />
	</node>
	<node lat="63.12415555385917" lon="10.311916668326218" id="-34447">
		<tag k="name" v="Finndalen" />
		<tag k="natural" v="valley" />
		<tag k="place" v="locality" />
		<tag k="ssr:stedsnr" v="886863" />
	</node>
	<node lat="63.18088055632734" lon="10.159002784833822" id="-34454">
		<tag k="name" v="Blomdalen" />
		<tag k="natural" v="valley" />
		<tag k="place" v="locality" />
		<tag k="ssr:stedsnr" v="887063" />
	</node>
	<node lat="63.19433055606862" lon="10.101202784943014" id="-34457">
		<tag k="fixme" v="consider natural=peak for the most distinct mountains in the district" />
		<tag k="name" v="Grevsjøhamran" />
		<tag k="natural" v="hill" />
		<tag k="place" v="locality" />
		<tag k="ssr:stedsnr" v="887519" />
	</node>
	<node lat="63.19374166855594" lon="10.190797225544305" id="-34458">
		<tag k="fixme" v="consider natural=peak for the most distinct mountains in the district" />
		<tag k="name" v="Seteråsen" />
		<tag k="natural" v="hill" />
		<tag k="place" v="locality" />
		<tag k="ssr:stedsnr" v="887457" />
	</node>
	<node lat="63.08634166794285" lon="10.121102786356104" id="-34461">
		<tag k="name" v="Hulluskardet" />
		<tag k="natural" v="valley" />
		<tag k="place" v="locality" />
		<tag k="ssr:stedsnr" v="887627" />
	</node>
	<node lat="63.09816944728599" lon="10.152186121084483" id="-34462">
		<tag k="name" v="Bjørdalen" />
		<tag k="natural" v="valley" />
		<tag k="place" v="locality" />
		<tag k="ssr:stedsnr" v="887632" />
	</node>
	<node lat="63.09939444867516" lon="10.169647213977463" id="-34463">
		<tag k="name" v="Stendalen" />
		<tag k="natural" v="valley" />
		<tag k="place" v="locality" />
		<tag k="ssr:stedsnr" v="887635" />
	</node>
	<node lat="63.15363055327444" lon="10.303425005455502" id="-34466">
		<tag k="fixme" v="consider natural=peak for the most distinct mountains in the district" />
		<tag k="name" v="Litlåsen" />
		<tag k="natural" v="hill" />
		<tag k="place" v="locality" />
		<tag k="ssr:stedsnr" v="887796" />
	</node>
	<node lat="63.19122778090596" lon="10.29076666436711" id="-34475">
		<tag k="name" v="Klevahåmmåren" />
		<tag k="natural" v="hill" />
		<tag k="place" v="locality" />
		<tag k="ssr:stedsnr" v="887899" />
	</node>
	<node lat="63.0855361114383" lon="10.125805553383545" id="-34482">
		<tag k="alt_name" v="Grimåsen" />
		<tag k="fixme" v="consider natural=peak for the most distinct mountains in the district" />
		<tag k="name" v="Grimsåsen" />
		<tag k="natural" v="hill" />
		<tag k="place" v="locality" />
		<tag k="ssr:stedsnr" v="922475" />
	</node>
	<node lat="63.23968333287118" lon="10.308649994972924" id="-34485">
		<tag k="alt_name" v="Kastlia" />
		<tag k="name" v="Kastliin" />
		<tag k="natural" v="slope" />
		<tag k="place" v="locality" />
		<tag k="ssr:stedsnr" v="922613" />
	</node>
	<node lat="63.13346944194314" lon="10.573641672044117" id="-34488">
		<tag k="fixme" v="consider natural=peak for the most distinct mountains in the district" />
		<tag k="loc_name" v="St.Olavsknippen" />
		<tag k="name" v="St Olavsknippen" />
		<tag k="natural" v="hill" />
		<tag k="place" v="locality" />
		<tag k="ssr:stedsnr" v="922782" />
	</node>
	<node lat="63.07264999910263" lon="10.288508331921804" id="-34491">
		<tag k="fixme" v="consider natural=peak for the most distinct mountains in the district" />
		<tag k="name" v="Storåsen" />
		<tag k="natural" v="hill" />
		<tag k="place" v="locality" />
		<tag k="ssr:stedsnr" v="922879" />
	</node>
	<node lat="63.15608333224793" lon="10.020830553596973" id="-34492">
		<tag k="fixme" v="consider natural=peak for the most distinct mountains in the district" />
		<tag k="name" v="Tæråsen" />
		<tag k="natural" v="hill" />
		<tag k="place" v="locality" />
		<tag k="ssr:stedsnr" v="923136" />
	</node>
	<node lat="63.18811944305096" lon="10.102261107430719" id="-34496">
		<tag k="fixme" v="consider natural=peak for the most distinct mountains in the district" />
		<tag k="name" v="Myråsen" />
		<tag k="natural" v="hill" />
		<tag k="place" v="locality" />
		<tag k="ssr:stedsnr" v="923217" />
	</node>
	<node lat="63.19448610700051" lon="10.191677779797391" id="-34498">
		<tag k="fixme" v="consider natural=peak for the most distinct mountains in the district" />
		<tag k="name" v="Bjørsetknippen" />
		<tag k="natural" v="hill" />
		<tag k="old_name" v="Bjørnsetknippen" />
		<tag k="place" v="locality" />
		<tag k="ssr:stedsnr" v="923223" />
	</node>
	<node lat="63.169527774879846" lon="10.000888880552482" id="-34499">
		<tag k="fixme" v="consider natural=peak for the most distinct mountains in the district" />
		<tag k="name" v="Høgåsen" />
		<tag k="natural" v="hill" />
		<tag k="place" v="locality" />
		<tag k="ssr:stedsnr" v="923520" />
	</node>
	<node lat="63.17720278225265" lon="10.201702772595782" id="-34506">
		<tag k="fixme" v="consider natural=peak for the most distinct mountains in the district" />
		<tag k="name" v="Kalvhåggååsen" />
		<tag k="natural" v="hill" />
		<tag k="place" v="locality" />
		<tag k="ssr:stedsnr" v="947043" />
	</node>
	<node lat="63.317072218592976" lon="10.26190833416678" id="-34508">
		<tag k="name" v="Reitdalen" />
		<tag k="natural" v="valley" />
		<tag k="place" v="locality" />
		<tag k="ssr:stedsnr" v="947084" />
	</node>
	<node lat="63.30882221930896" lon="10.246741666725603" id="-34509">
		<tag k="name" v="Bjørnabakken" />
		<tag k="natural" v="slope" />
		<tag k="place" v="locality" />
		<tag k="ssr:stedsnr" v="947087" />
	</node>
	<node lat="63.19934722306333" lon="10.365516657880171" id="-34510">
		<tag k="name" v="Lindøya" />
		<tag k="place" v="locality" />
		<tag k="ssr:stedsnr" v="947206" />
	</node>
	<node lat="63.203216669606256" lon="10.16711388176033" id="-34513">
		<tag k="name" v="Strypet" />
		<tag k="natural" v="valley" />
		<tag k="place" v="locality" />
		<tag k="ssr:stedsnr" v="947437" />
	</node>
	<node lat="63.185266663028486" lon="10.09438611025558" id="-34518">
		<tag k="fixme" v="consider natural=peak for the most distinct mountains in the district" />
		<tag k="name" v="Storgrevsjøhamran" />
		<tag k="natural" v="hill" />
		<tag k="place" v="locality" />
		<tag k="ssr:stedsnr" v="947454" />
	</node>
	<node lat="63.18847499876117" lon="10.105816663474911" id="-34519">
		<tag k="name" v="Storlia" />
		<tag k="natural" v="slope" />
		<tag k="place" v="locality" />
		<tag k="ssr:stedsnr" v="947455" />
	</node>
	<node lat="63.19331110680606" lon="10.202644441647806" id="-34523">
		<tag k="fixme" v="consider natural=peak for the most distinct mountains in the district" />
		<tag k="name" v="Brandåsen" />
		<tag k="natural" v="hill" />
		<tag k="place" v="locality" />
		<tag k="ssr:stedsnr" v="947469" />
	</node>
	<node lat="63.15754444500863" lon="10.346088894058601" id="-34524">
		<tag k="name" v="Klevdalen" />
		<tag k="natural" v="valley" />
		<tag k="place" v="locality" />
		<tag k="ssr:stedsnr" v="947129" />
	</node>
	<node lat="63.184100003203575" lon="10.045336105700697" id="-34528">
		<tag k="name" v="Bjørnakosa" />
		<tag k="natural" v="slope" />
		<tag k="place" v="locality" />
		<tag k="ssr:stedsnr" v="947135" />
	</node>
	<node lat="63.1311138854471" lon="10.00957778196445" id="-34529">
		<tag k="name" v="Holtslættet" />
		<tag k="place" v="locality" />
		<tag k="ssr:stedsnr" v="947138" />
	</node>
	<node lat="63.20459444065248" lon="10.4279166602928" id="-34532">
		<tag k="name" v="Skomakerslættet" />
		<tag k="place" v="locality" />
		<tag k="ssr:stedsnr" v="947188" />
	</node>
	<node lat="63.166908333163526" lon="10.136227779462997" id="-34537">
		<tag k="name" v="Eidsliin" />
		<tag k="natural" v="slope" />
		<tag k="place" v="locality" />
		<tag k="ssr:stedsnr" v="947506" />
	</node>
	<node lat="63.07213888772728" lon="10.195527779869181" id="-34544">
		<tag k="name" v="Grøtskardet" />
		<tag k="natural" v="valley" />
		<tag k="place" v="locality" />
		<tag k="ssr:stedsnr" v="947609" />
	</node>
	<node lat="63.16829999677071" lon="9.999811109001975" id="-34545">
		<tag k="fixme" v="consider natural=peak for the most distinct mountains in the district" />
		<tag k="name" v="Høgåsen" />
		<tag k="natural" v="hill" />
		<tag k="place" v="locality" />
		<tag k="ssr:stedsnr" v="947638" />
	</node>
	<node lat="63.155733332480175" lon="10.009330561257235" id="-34549">
		<tag k="name" v="Gilhaugen" />
		<tag k="natural" v="hill" />
		<tag k="place" v="locality" />
		<tag k="ssr:stedsnr" v="947691" />
	</node>
	<node lat="63.06787222316001" lon="10.24246666252595" id="-34554">
		<tag k="fixme" v="consider natural=peak for the most distinct mountains in the district" />
		<tag k="name" v="Aunåsen" />
		<tag k="natural" v="hill" />
		<tag k="place" v="locality" />
		<tag k="ssr:stedsnr" v="947936" />
	</node>
	<node lat="63.16793055842972" lon="10.154052784955379" id="-34555">
		<tag k="name" v="Fyrydugurdshaugen" />
		<tag k="natural" v="hill" />
		<tag k="place" v="locality" />
		<tag k="ssr:stedsnr" v="947947" />
	</node>
	<node lat="63.07443333609072" lon="10.284461103586711" id="-34556">
		<tag k="name" v="Skjepperdalen" />
		<tag k="natural" v="valley" />
		<tag k="place" v="locality" />
		<tag k="ssr:stedsnr" v="947950" />
	</node>
	<node lat="63.25620832955234" lon="10.275094445271588" id="-34561">
		<tag k="name" v="Hofstadmoen" />
		<tag k="place" v="locality" />
		<tag k="ssr:stedsnr" v="958010" />
	</node>
	<node lat="63.15465277920156" lon="10.098352781891748" id="-34586">
		<tag k="fixme" v="consider natural=peak for the most distinct mountains in the district" />
		<tag k="name" v="Lauvåsen" />
		<tag k="natural" v="hill" />
		<tag k="place" v="locality" />
		<tag k="ssr:stedsnr" v="12124" />
	</node>
	<node lat="63.06043888688356" lon="10.162466659829793" id="-34591">
		<tag k="name" v="Stodvolldalen" />
		<tag k="natural" v="valley" />
		<tag k="place" v="locality" />
		<tag k="ssr:stedsnr" v="12612" />
	</node>
	<node lat="63.27951388454508" lon="10.330313880246967" id="-34609">
		<tag k="name" v="Sauvollan" />
		<tag k="natural" v="slope" />
		<tag k="place" v="locality" />
		<tag k="ssr:stedsnr" v="36131" />
	</node>
	<node lat="63.27800000029339" lon="10.330972219060614" id="-34610">
		<tag k="name" v="Kastbakken" />
		<tag k="natural" v="slope" />
		<tag k="place" v="locality" />
		<tag k="ssr:stedsnr" v="36132" />
	</node>
	<node lat="63.228333337282095" lon="10.324263888405213" id="-34614">
		<tag k="fixme" v="consider natural=peak for the most distinct mountains in the district" />
		<tag k="name" v="Ratåsen" />
		<tag k="natural" v="hill" />
		<tag k="place" v="locality" />
		<tag k="ssr:stedsnr" v="37085" />
	</node>
	<node lat="63.227188889563486" lon="10.313561104699005" id="-34615">
		<tag k="fixme" v="consider natural=peak for the most distinct mountains in the district" />
		<tag k="name" v="Kalvhåggååsen" />
		<tag k="natural" v="hill" />
		<tag k="place" v="locality" />
		<tag k="ssr:stedsnr" v="37087" />
	</node>
	<node lat="63.23402778220443" lon="10.323013880043723" id="-34616">
		<tag k="fixme" v="consider natural=peak for the most distinct mountains in the district" />
		<tag k="name" v="Seteråsen" />
		<tag k="natural" v="hill" />
		<tag k="place" v="locality" />
		<tag k="ssr:stedsnr" v="37090" />
	</node>
	<node lat="63.085227776951534" lon="9.958841658132812" id="-34618">
		<tag k="fixme" v="consider natural=peak for the most distinct mountains in the district" />
		<tag k="name" v="Bjørkliåsen" />
		<tag k="natural" v="hill" />
		<tag k="place" v="locality" />
		<tag k="ssr:stedsnr" v="36322" />
	</node>
	<node lat="63.11665000350365" lon="10.080847223993482" id="-34619">
		<tag k="name" v="Hestdalen" />
		<tag k="natural" v="valley" />
		<tag k="place" v="locality" />
		<tag k="ssr:stedsnr" v="36325" />
	</node>
	<node lat="63.10364999995518" lon="9.988105545930008" id="-34621">
		<tag k="name" v="Gilhaugen" />
		<tag k="natural" v="hill" />
		<tag k="place" v="locality" />
		<tag k="ssr:stedsnr" v="36330" />
	</node>
	<node lat="63.16109444036123" lon="10.116797225606097" id="-34623">
		<tag k="name" v="Svahylla" />
		<tag k="place" v="locality" />
		<tag k="ssr:stedsnr" v="36441" />
	</node>
	<node lat="63.108624999343014" lon="10.150733326254592" id="-34624">
		<tag k="fixme" v="consider natural=peak for the most distinct mountains in the district" />
		<tag k="name" v="Midtømmesåsen" />
		<tag k="natural" v="hill" />
		<tag k="place" v="locality" />
		<tag k="ssr:stedsnr" v="36480" />
	</node>
	<node lat="63.081352779043954" lon="10.016158336750223" id="-34630">
		<tag k="fixme" v="consider natural=peak for the most distinct mountains in the district" />
		<tag k="name" v="Gråbenåsen" />
		<tag k="natural" v="hill" />
		<tag k="place" v="locality" />
		<tag k="ssr:stedsnr" v="37434" />
	</node>
	<node lat="63.18879999651317" lon="10.186477769768738" id="-34636">
		<tag k="name" v="Ramsjøliin" />
		<tag k="natural" v="slope" />
		<tag k="place" v="locality" />
		<tag k="ssr:stedsnr" v="37034" />
	</node>
	<node lat="63.23365277472699" lon="10.296638881345281" id="-34637">
		<tag k="name" v="Gruvdalen" />
		<tag k="natural" v="valley" />
		<tag k="place" v="locality" />
		<tag k="ssr:stedsnr" v="37122" />
	</node>
	<node lat="63.1870361153951" lon="10.261411106243841" id="-34640">
		<tag k="name" v="Nonsgrovberget" />
		<tag k="natural" v="hill" />
		<tag k="place" v="locality" />
		<tag k="ssr:stedsnr" v="37154" />
	</node>
	<node lat="63.2792361123609" lon="10.221502779734516" id="-34643">
		<tag k="name" v="Aundalen" />
		<tag k="natural" v="valley" />
		<tag k="place" v="locality" />
		<tag k="ssr:stedsnr" v="37192" />
	</node>
	<node lat="63.200272225834084" lon="10.187874992818028" id="-34646">
		<tag k="name" v="Sopphaugan" />
		<tag k="natural" v="hill" />
		<tag k="place" v="locality" />
		<tag k="ssr:stedsnr" v="37467" />
	</node>
	<node lat="63.19754444513768" lon="10.175863883184169" id="-34647">
		<tag k="name" v="Bjørsetberga" />
		<tag k="natural" v="hill" />
		<tag k="place" v="locality" />
		<tag k="ssr:stedsnr" v="37470" />
	</node>
	<node lat="63.20384444087259" lon="10.176283341916307" id="-34648">
		<tag k="name" v="Brattkleva" />
		<tag k="natural" v="hill" />
		<tag k="place" v="locality" />
		<tag k="ssr:stedsnr" v="37476" />
	</node>
	<node lat="63.120233333349596" lon="10.575330562450247" id="-34659">
		<tag k="name" v="Gammelseterdalen" />
		<tag k="natural" v="valley" />
		<tag k="place" v="locality" />
		<tag k="ssr:stedsnr" v="37786" />
	</node>
	<node lat="63.222733329072504" lon="10.390763893844994" id="-34660">
		<tag k="name" v="Homyrkammen" />
		<tag k="natural" v="ridge" />
		<tag k="place" v="locality" />
		<tag k="ssr:stedsnr" v="37789" />
	</node>
	<node lat="63.21562500410327" lon="10.456872217497766" id="-34664">
		<tag k="name" v="Syndre Fisklaustjønnhøgda" />
		<tag k="natural" v="hill" />
		<tag k="place" v="locality" />
		<tag k="ssr:stedsnr" v="37868" />
	</node>
</osm>
