<?xml version="1.0" encoding="UTF-8"?>
<osm generator="osmapis" version="0.6">
	<node id="-750973" lat="63.2879944441" lon="10.2640361188">
		<tag k="name" v="Niels Nielsen Dahl-bautaen" />
		<tag k="ssr:stedsnr" v="664293" />
		<tag k="tourism" v="attraction" />
	</node>
	<node id="-750459" lat="63.151780558" lon="10.2807305482">
		<tag k="name" v="Rolv Halvarson Lynge-bautaen" />
		<tag k="ssr:stedsnr" v="118310" />
		<tag k="tourism" v="attraction" />
	</node>
	<node id="-753146" lat="63.0847944433" lon="10.0117000048">
		<tag k="fixme" v="multiple name tags, choose one and add the other to alt_name" />
		<tag k="name" v="Hotell Norge;Sabotørmuseet" />
		<tag k="ssr:stedsnr" v="604330" />
		<tag k="tourism" v="museum" />
	</node>
	<node id="-752374" lat="63.1371162881" lon="10.254500546">
		<tag k="alt_name" v="Horg" />
		<tag k="amenity" v="place_of_worship" />
		<tag k="denomination" v="lutheran" />
		<tag k="name" v="Horg kirke" />
		<tag k="religion" v="christian" />
		<tag k="ssr:stedsnr" v="315825" />
	</node>
	<node id="-750704" lat="63.2875055558" lon="10.2764777738">
		<tag k="name" v="Per Borten-bysten" />
		<tag k="place" v="locality" />
		<tag k="ssr:stedsnr" v="241322" />
	</node>
	<node id="-750703" lat="63.2729153244" lon="10.2925520887">
		<tag k="name" v="Prestegårdslåna" />
		<tag k="ssr:stedsnr" v="241319" />
		<tag k="tourism" v="museum" />
	</node>
	<node id="-750333" lat="63.1981611157" lon="10.3065944352">
		<tag k="name" v="Flå bygdasamling" />
		<tag k="ssr:stedsnr" v="241533" />
		<tag k="tourism" v="museum" />
	</node>
	<node id="-752613" lat="63.2736709647" lon="10.2923307715">
		<tag k="alt_name" v="Melhus" />
		<tag k="amenity" v="place_of_worship" />
		<tag k="denomination" v="lutheran" />
		<tag k="name" v="Melhus kirke" />
		<tag k="religion" v="christian" />
		<tag k="ssr:stedsnr" v="377749" />
	</node>
	<node id="-751458" lat="63.2873193257" lon="10.2761791706">
		<tag k="amenity" v="community_centre" />
		<tag k="name" v="Melhus kino" />
		<tag k="ssr:stedsnr" v="908585" />
	</node>
	<node id="-751457" lat="63.1076194458" lon="10.2534777834">
		<tag k="name" v="Foss helleristningsfelt" />
		<tag k="ssr:stedsnr" v="908347" />
		<tag k="tourism" v="attraction" />
	</node>
	<node id="-750176" lat="63.2767222211" lon="10.2632888936">
		<tag k="name" v="Jarlshola" />
		<tag k="ssr:stedsnr" v="219151" />
		<tag k="tourism" v="attraction" />
	</node>
	<node id="-751443" lat="63.1956519601" lon="10.3078666307">
		<tag k="alt_name" v="Flå" />
		<tag k="amenity" v="place_of_worship" />
		<tag k="denomination" v="lutheran" />
		<tag k="name" v="Flå kirke" />
		<tag k="religion" v="christian" />
		<tag k="ssr:stedsnr" v="740773" />
	</node>
	<node id="-752078" lat="63.1114666652" lon="10.2373500086">
		<tag k="name" v="Horg bygdatun" />
		<tag k="ssr:stedsnr" v="97846" />
		<tag k="tourism" v="museum" />
	</node>
	<node id="-751970" lat="63.114469445" lon="9.98623056384">
		<tag k="name" v="Hølonda skimuseum" />
		<tag k="ssr:stedsnr" v="59544" />
		<tag k="tourism" v="museum" />
	</node>
	<node id="-751815" lat="63.2874529338" lon="10.2778819876">
		<tag k="name" v="Melhus bibliotek" />
		<tag k="ssr:stedsnr" v="969560" />
		<tag k="tourism" v="museum" />
	</node>
	<node id="-751558" lat="63.1063666709" lon="10.2261361089">
		<tag k="name" v="Melhus bibliotek, Hovin" />
		<tag k="ssr:stedsnr" v="787567" />
		<tag k="tourism" v="museum" />
	</node>
	<node id="-752545" lat="63.2829638846" lon="10.2583722298">
		<tag k="name" v="Einar Tambarskjelve-bautaen" />
		<tag k="ssr:stedsnr" v="362336" />
		<tag k="tourism" v="attraction" />
	</node>
	<node id="-753142" lat="63.155094447" lon="10.0104194499">
		<tag k="amenity" v="place_of_worship" />
		<tag k="denomination" v="lutheran" />
		<tag k="name" v="Kolbrandstad stavkyrkje" />
		<tag k="religion" v="christian" />
		<tag k="ssr:stedsnr" v="601661" />
	</node>
	<node id="-752578" lat="63.1480027818" lon="10.0108833299">
		<tag k="amenity" v="community_centre" />
		<tag k="name" v="Vonheim" />
		<tag k="ssr:stedsnr" v="376096" />
	</node>
	<node id="-750894" lat="63.1127305579" lon="9.99481388466">
		<tag k="name" v="Hølonda landbruksmuseum" />
		<tag k="ssr:stedsnr" v="483584" />
		<tag k="tourism" v="museum" />
	</node>
	<node id="-753704" lat="63.2870499958" lon="10.2774138955">
		<tag k="name" v="Martin Tranmæl-statuen" />
		<tag k="place" v="locality" />
		<tag k="ssr:stedsnr" v="848348" />
	</node>
	<node id="-752546" lat="63.2729833293" lon="10.2933944349">
		<tag k="name" v="Asbjørn fra Medalhus-bautaen" />
		<tag k="ssr:stedsnr" v="362339" />
		<tag k="tourism" v="attraction" />
	</node>
	<node id="-751265" lat="63.1081290748" lon="10.0792316859">
		<tag k="name" v="Simohogstret" />
		<tag k="place" v="locality" />
		<tag k="ssr:stedsnr" v="619023" />
	</node>
	<node id="-750358" lat="63.1137732252" lon="10.0232663739">
		<tag k="alt_name" v="Hølonda" />
		<tag k="amenity" v="place_of_worship" />
		<tag k="denomination" v="lutheran" />
		<tag k="name" v="Hølonda kirke" />
		<tag k="religion" v="christian" />
		<tag k="ssr:stedsnr" v="255029" />
	</node>
	<node id="-753794" lat="63.1476742103" lon="10.2700833176">
		<tag k="amenity" v="place_of_worship" />
		<tag k="fixme" v="specify religion=*, denomination=*, building=* etc" />
		<tag k="name" v="Lundamo misjonshus" />
		<tag k="ssr:stedsnr" v="990320" />
	</node>
</osm>
