<?xml version="1.0" encoding="UTF-8"?>
<osm version="0.6" generator="osmapis">
	<node lat="63.236627777270385" lon="10.200261102048808" id="-28687">
		<tag k="alt_name" v="Skitnemyra" />
		<tag k="name" v="Sjetnmyra" />
		<tag k="natural" v="wetland" />
		<tag k="ssr:stedsnr" v="12270" />
	</node>
	<node lat="63.20215277912115" lon="10.402069439272843" id="-28714">
		<tag k="name" v="Brannåsmyra" />
		<tag k="natural" v="wetland" />
		<tag k="ssr:stedsnr" v="36159" />
	</node>
	<node lat="63.11293611253581" lon="10.057352772132772" id="-28717">
		<tag k="name" v="Knutmyra" />
		<tag k="natural" v="wetland" />
		<tag k="ssr:stedsnr" v="36311" />
	</node>
	<node lat="63.11491389109686" lon="9.916336111479998" id="-28722">
		<tag k="name" v="Fuggelåsmyran" />
		<tag k="natural" v="wetland" />
		<tag k="ssr:stedsnr" v="36261" />
	</node>
	<node lat="63.12232778114578" lon="10.186433339348426" id="-28725">
		<tag k="name" v="Nordtømmesløkkjun" />
		<tag k="place" v="locality" />
		<tag k="ssr:stedsnr" v="36519" />
	</node>
	<node lat="63.20119444160418" lon="10.240063883808201" id="-28735">
		<tag k="name" v="Sjømyran" />
		<tag k="natural" v="wetland" />
		<tag k="ssr:stedsnr" v="37008" />
	</node>
	<node lat="63.232741669268826" lon="10.183116666346093" id="-28736">
		<tag k="name" v="Andsletton" />
		<tag k="natural" v="wetland" />
		<tag k="ssr:stedsnr" v="37024" />
	</node>
	<node lat="63.17782499744228" lon="10.15784999993449" id="-28737">
		<tag k="name" v="Bekkdalsmyra" />
		<tag k="natural" v="wetland" />
		<tag k="ssr:stedsnr" v="37063" />
	</node>
	<node lat="63.22342222596348" lon="10.332327783259142" id="-28738">
		<tag k="name" v="Botnmyra" />
		<tag k="natural" v="wetland" />
		<tag k="ssr:stedsnr" v="37081" />
	</node>
	<node lat="63.06699999680366" lon="10.12383610873242" id="-28742">
		<tag k="name" v="Gravaløkkja" />
		<tag k="place" v="locality" />
		<tag k="ssr:stedsnr" v="37664" />
	</node>
	<node lat="63.153780551826515" lon="9.975013886707863" id="-28744">
		<tag k="name" v="Flatkjølen" />
		<tag k="natural" v="wetland" />
		<tag k="ssr:stedsnr" v="37674" />
	</node>
	<node lat="63.152916669902545" lon="9.967813889461912" id="-28745">
		<tag k="name" v="Lauvhogstra" />
		<tag k="place" v="locality" />
		<tag k="ssr:stedsnr" v="37676" />
	</node>
	<node lat="63.145405557660595" lon="10.237119439316864" id="-28751">
		<tag k="name" v="Funseten" />
		<tag k="place" v="locality" />
		<tag k="ssr:stedsnr" v="37824" />
	</node>
	<node lat="63.16244999800309" lon="9.952047222932405" id="-28753">
		<tag k="landuse" v="meadow" />
		<tag k="name" v="Blokkoslættet" />
		<tag k="ssr:stedsnr" v="37761" />
	</node>
	<node lat="63.312233333859474" lon="10.374652769698471" id="-28755">
		<tag k="name" v="Svartåsmyra" />
		<tag k="natural" v="wetland" />
		<tag k="ssr:stedsnr" v="37782" />
	</node>
	<node lat="63.17759444736217" lon="10.310644435305761" id="-28756">
		<tag k="name" v="Fall-løkkja" />
		<tag k="place" v="locality" />
		<tag k="ssr:stedsnr" v="37903" />
	</node>
	<node lat="63.10235277438467" lon="10.188319451897119" id="-28768">
		<tag k="name" v="Kolomoløkkja" />
		<tag k="place" v="locality" />
		<tag k="ssr:stedsnr" v="60271" />
	</node>
	<node lat="63.0727388922835" lon="10.149244447376626" id="-28786">
		<tag k="name" v="Flomyrin" />
		<tag k="natural" v="wetland" />
		<tag k="old_name" v="Flomyran" />
		<tag k="ssr:stedsnr" v="73525" />
	</node>
	<node lat="63.20260833081319" lon="10.252955558006928" id="-28797">
		<tag k="name" v="Stormyra" />
		<tag k="natural" v="wetland" />
		<tag k="ssr:stedsnr" v="97014" />
	</node>
	<node lat="63.1325277733954" lon="10.428825002594035" id="-28804">
		<tag k="name" v="Pyntmyra" />
		<tag k="natural" v="wetland" />
		<tag k="ssr:stedsnr" v="97211" />
	</node>
	<node lat="63.057255556148185" lon="10.193641663135468" id="-28818">
		<tag k="name" v="Høgåskjølen" />
		<tag k="natural" v="wetland" />
		<tag k="ssr:stedsnr" v="97676" />
	</node>
	<node lat="63.101444442084684" lon="10.266588890674283" id="-28822">
		<tag k="historic" v="shieling" />
		<tag k="name" v="Høgåsvollen" />
		<tag k="place" v="locality" />
		<tag k="ssr:stedsnr" v="97867" />
	</node>
	<node lat="63.17711110780347" lon="10.163699990418316" id="-28825">
		<tag k="name" v="Langmyra" />
		<tag k="natural" v="wetland" />
		<tag k="ssr:stedsnr" v="98054" />
	</node>
	<node lat="63.17022500292246" lon="10.027694446153278" id="-28833">
		<tag k="name" v="Sagmesterlykkja" />
		<tag k="place" v="locality" />
		<tag k="ssr:stedsnr" v="98419" />
	</node>
	<node lat="63.06732222092842" lon="10.03305555726632" id="-28834">
		<tag k="name" v="Nordtømmesløkkja" />
		<tag k="place" v="locality" />
		<tag k="ssr:stedsnr" v="98427" />
	</node>
	<node lat="63.19773055298398" lon="10.17069444784705" id="-28835">
		<tag k="name" v="Bjørsetlykkja" />
		<tag k="place" v="locality" />
		<tag k="ssr:stedsnr" v="98466" />
	</node>
	<node lat="63.18240555290799" lon="10.115180549109462" id="-28836">
		<tag k="name" v="Åshåggån" />
		<tag k="place" v="locality" />
		<tag k="ssr:stedsnr" v="98476" />
	</node>
	<node lat="63.11808611191332" lon="10.476841672889739" id="-28844">
		<tag k="name" v="Stordalsmyra" />
		<tag k="natural" v="wetland" />
		<tag k="ssr:stedsnr" v="98822" />
	</node>
	<node lat="63.149038888247084" lon="10.336694448788181" id="-28856">
		<tag k="landuse" v="meadow" />
		<tag k="name" v="Ratåslykkja" />
		<tag k="ssr:stedsnr" v="121208" />
	</node>
	<node lat="63.128069448964176" lon="9.936238888242684" id="-28893">
		<tag k="name" v="Stormyra" />
		<tag k="natural" v="wetland" />
		<tag k="ssr:stedsnr" v="255061" />
	</node>
	<node lat="63.10907221831387" lon="9.90645277625935" id="-28937">
		<tag k="name" v="Kambmyra" />
		<tag k="natural" v="wetland" />
		<tag k="ssr:stedsnr" v="158308" />
	</node>
	<node lat="63.12433888985103" lon="10.047816672355308" id="-28939">
		<tag k="name" v="Flomyra" />
		<tag k="natural" v="wetland" />
		<tag k="ssr:stedsnr" v="158361" />
	</node>
	<node lat="63.233974998469165" lon="10.31782223061173" id="-28941">
		<tag k="name" v="Persmyra" />
		<tag k="natural" v="wetland" />
		<tag k="ssr:stedsnr" v="158100" />
	</node>
	<node lat="63.12679444853156" lon="9.988969441604095" id="-28947">
		<tag k="name" v="Brekklykkja" />
		<tag k="place" v="locality" />
		<tag k="ssr:stedsnr" v="158298" />
	</node>
	<node lat="63.09835000074383" lon="10.19222222423881" id="-28955">
		<tag k="landuse" v="meadow" />
		<tag k="name" v="Flåsliløkkja" />
		<tag k="ssr:stedsnr" v="158598" />
	</node>
	<node lat="63.102902775499935" lon="10.189213893860028" id="-28956">
		<tag k="name" v="Larsmoen" />
		<tag k="place" v="locality" />
		<tag k="ssr:stedsnr" v="158600" />
	</node>
	<node lat="63.15770833674704" lon="10.048569437430467" id="-28957">
		<tag k="name" v="Storraudmyra" />
		<tag k="natural" v="wetland" />
		<tag k="ssr:stedsnr" v="158703" />
	</node>
	<node lat="63.162622224764306" lon="10.016424997363478" id="-28961">
		<tag k="name" v="Oppigardslykkja" />
		<tag k="place" v="locality" />
		<tag k="ssr:stedsnr" v="158715" />
	</node>
	<node lat="63.09494999999757" lon="10.18478056366112" id="-28964">
		<tag k="name" v="Bjørnaliløkkja" />
		<tag k="place" v="locality" />
		<tag k="ssr:stedsnr" v="158602" />
	</node>
	<node lat="63.08858889200089" lon="10.093047213541587" id="-28966">
		<tag k="name" v="Nymoen" />
		<tag k="place" v="locality" />
		<tag k="ssr:stedsnr" v="158616" />
	</node>
	<node lat="63.09930278048004" lon="10.10582500399133" id="-28967">
		<tag k="name" v="Vargmyra" />
		<tag k="natural" v="wetland" />
		<tag k="ssr:stedsnr" v="158619" />
	</node>
	<node lat="63.075055559598134" lon="10.127805550720097" id="-28970">
		<tag k="name" v="Sandholtøyan" />
		<tag k="natural" v="wetland" />
		<tag k="ssr:stedsnr" v="158658" />
	</node>
	<node lat="63.1758138883641" lon="10.41977221719692" id="-28975">
		<tag k="name" v="Vindåsmyra" />
		<tag k="natural" v="wetland" />
		<tag k="ssr:stedsnr" v="158807" />
	</node>
	<node lat="63.0813034589921" lon="10.237935558396073" id="-28981">
		<tag k="name" v="Ratmoen" />
		<tag k="place" v="locality" />
		<tag k="ssr:stedsnr" v="158912" />
	</node>
	<node lat="63.11278332978047" lon="10.236833333392607" id="-28986">
		<tag k="name" v="Fossløkkja" />
		<tag k="place" v="locality" />
		<tag k="ssr:stedsnr" v="158855" />
	</node>
	<node lat="63.34221389261566" lon="10.217399993739177" id="-29001">
		<tag k="name" v="Storøra" />
		<tag k="place" v="locality" />
		<tag k="ssr:stedsnr" v="195503" />
	</node>
	<node lat="63.14169444791885" lon="10.071588885647193" id="-29009">
		<tag k="name" v="Furuolen" />
		<tag k="place" v="locality" />
		<tag k="ssr:stedsnr" v="218326" />
	</node>
	<node lat="63.13104999850246" lon="10.057397216798295" id="-29010">
		<tag k="name" v="Høgknippmyra" />
		<tag k="natural" v="wetland" />
		<tag k="ssr:stedsnr" v="218327" />
	</node>
	<node lat="63.07990000179305" lon="9.99333611418174" id="-29011">
		<tag k="name" v="Småvollan" />
		<tag k="place" v="locality" />
		<tag k="ssr:stedsnr" v="218402" />
	</node>
	<node lat="63.13153889013851" lon="10.037125007628989" id="-29023">
		<tag k="name" v="Kalvhåggålykkja" />
		<tag k="place" v="locality" />
		<tag k="ssr:stedsnr" v="219333" />
	</node>
	<node lat="63.18522222490154" lon="10.061080550128418" id="-29035">
		<tag k="name" v="Hundåsmyra" />
		<tag k="natural" v="wetland" />
		<tag k="ssr:stedsnr" v="219478" />
	</node>
	<node lat="63.06490555770754" lon="10.212550000832833" id="-29045">
		<tag k="name" v="Fjellmyran" />
		<tag k="natural" v="wetland" />
		<tag k="ssr:stedsnr" v="219929" />
	</node>
	<node lat="63.1336944455445" lon="10.202777782009784" id="-29048">
		<tag k="name" v="Finnkroa" />
		<tag k="place" v="locality" />
		<tag k="ssr:stedsnr" v="219991" />
	</node>
	<node lat="63.13531388802524" lon="10.1916666765479" id="-29049">
		<tag k="name" v="Middagsmyran" />
		<tag k="natural" v="wetland" />
		<tag k="ssr:stedsnr" v="219995" />
	</node>
	<node lat="63.11264166790443" lon="10.317130550692493" id="-29051">
		<tag k="name" v="Langkloppmyra" />
		<tag k="natural" v="wetland" />
		<tag k="ssr:stedsnr" v="219875" />
	</node>
	<node lat="63.207391670599094" lon="10.405608334530944" id="-29084">
		<tag k="name" v="Kojmyra" />
		<tag k="natural" v="wetland" />
		<tag k="ssr:stedsnr" v="279207" />
	</node>
	<node lat="63.1299277759871" lon="10.08224166736892" id="-29089">
		<tag k="name" v="Lykkjmyra" />
		<tag k="natural" v="wetland" />
		<tag k="ssr:stedsnr" v="279404" />
	</node>
	<node lat="63.08897777971985" lon="10.04701388274148" id="-29094">
		<tag k="name" v="Skuggen" />
		<tag k="place" v="locality" />
		<tag k="ssr:stedsnr" v="279316" />
	</node>
	<node lat="63.205247222294524" lon="10.119372212445638" id="-29104">
		<tag k="name" v="Raudmyra" />
		<tag k="natural" v="wetland" />
		<tag k="ssr:stedsnr" v="280518" />
	</node>
	<node lat="63.153794445671146" lon="9.896644451236098" id="-29107">
		<tag k="name" v="Høgmyra" />
		<tag k="natural" v="wetland" />
		<tag k="ssr:stedsnr" v="280704" />
	</node>
	<node lat="63.15351666702042" lon="9.902783340727115" id="-29108">
		<tag k="name" v="Vollmyra" />
		<tag k="natural" v="wetland" />
		<tag k="ssr:stedsnr" v="280705" />
	</node>
	<node lat="63.11073333167023" lon="10.311472216851223" id="-29113">
		<tag k="name" v="Kjelvollmyran" />
		<tag k="natural" v="wetland" />
		<tag k="ssr:stedsnr" v="280868" />
	</node>
	<node lat="63.14326389269341" lon="10.347324999361103" id="-29136">
		<tag k="historic" v="shieling" />
		<tag k="name" v="Smønvollen" />
		<tag k="place" v="locality" />
		<tag k="ssr:stedsnr" v="461232" />
	</node>
	<node lat="63.12100833005315" lon="10.052966674742901" id="-29142">
		<tag k="name" v="Brattmyran" />
		<tag k="natural" v="wetland" />
		<tag k="ssr:stedsnr" v="461341" />
	</node>
	<node lat="63.11073333775127" lon="9.978697224848972" id="-29143">
		<tag k="name" v="Høglykkja" />
		<tag k="place" v="locality" />
		<tag k="ssr:stedsnr" v="461273" />
	</node>
	<node lat="63.137305556145236" lon="10.009802776754505" id="-29146">
		<tag k="name" v="Holtet" />
		<tag k="place" v="locality" />
		<tag k="ssr:stedsnr" v="461300" />
	</node>
	<node lat="63.14769444409275" lon="10.072983329419461" id="-29147">
		<tag k="name" v="Krestaformyra" />
		<tag k="natural" v="wetland" />
		<tag k="ssr:stedsnr" v="461712" />
	</node>
	<node lat="63.200505551467025" lon="10.230713893858235" id="-29154">
		<tag k="name" v="Trehørningen" />
		<tag k="place" v="locality" />
		<tag k="ssr:stedsnr" v="462009" />
	</node>
	<node lat="63.22760277959134" lon="10.215494438489806" id="-29166">
		<tag k="name" v="Langmyra" />
		<tag k="natural" v="wetland" />
		<tag k="ssr:stedsnr" v="462100" />
	</node>
	<node lat="63.17409166865291" lon="10.038938890774547" id="-29171">
		<tag k="name" v="Restadlykkja" />
		<tag k="place" v="locality" />
		<tag k="ssr:stedsnr" v="462382" />
	</node>
	<node lat="63.078227773981105" lon="10.157880564137463" id="-29177">
		<tag k="name" v="Langkosa" />
		<tag k="natural" v="wetland" />
		<tag k="ssr:stedsnr" v="462632" />
	</node>
	<node lat="63.102569442865715" lon="10.24621110351651" id="-29194">
		<tag k="name" v="Eggaplassen" />
		<tag k="place" v="locality" />
		<tag k="ssr:stedsnr" v="462891" />
	</node>
	<node lat="63.14641944038406" lon="10.076838879704797" id="-29233">
		<tag k="name" v="Kariberglykkja" />
		<tag k="place" v="locality" />
		<tag k="ssr:stedsnr" v="339400" />
	</node>
	<node lat="63.246666666677775" lon="10.297622232049966" id="-29235">
		<tag k="name" v="Langmyra" />
		<tag k="natural" v="wetland" />
		<tag k="ssr:stedsnr" v="340114" />
	</node>
	<node lat="63.15100833328823" lon="10.135616656902036" id="-29238">
		<tag k="name" v="Johåggån" />
		<tag k="place" v="locality" />
		<tag k="ssr:stedsnr" v="340515" />
	</node>
	<node lat="63.16879444548401" lon="10.092519450605774" id="-29239">
		<tag k="name" v="Skardmyra" />
		<tag k="natural" v="wetland" />
		<tag k="ssr:stedsnr" v="340518" />
	</node>
	<node lat="63.171111112452394" lon="10.069083340340518" id="-29249">
		<tag k="name" v="Bakkalykkja" />
		<tag k="place" v="locality" />
		<tag k="ssr:stedsnr" v="340500" />
	</node>
	<node lat="63.17746944792821" lon="10.076308339176709" id="-29250">
		<tag k="name" v="Rotåstjønnmyra" />
		<tag k="natural" v="wetland" />
		<tag k="ssr:stedsnr" v="340501" />
	</node>
	<node lat="63.09520278037421" lon="10.199922224479273" id="-29251">
		<tag k="name" v="Hogstra" />
		<tag k="place" v="locality" />
		<tag k="ssr:stedsnr" v="340603" />
	</node>
	<node lat="63.162269443789135" lon="10.064519437841486" id="-29254">
		<tag k="name" v="Skjeftøyan" />
		<tag k="place" v="locality" />
		<tag k="ssr:stedsnr" v="340702" />
	</node>
	<node lat="63.25216388929675" lon="10.362655555407665" id="-29256">
		<tag k="historic" v="shieling" />
		<tag k="name" v="Gammelvollen" />
		<tag k="place" v="locality" />
		<tag k="ssr:stedsnr" v="340751" />
	</node>
	<node lat="63.23271666603989" lon="10.349430561652225" id="-29257">
		<tag k="name" v="Kumyra" />
		<tag k="natural" v="wetland" />
		<tag k="ssr:stedsnr" v="340760" />
	</node>
	<node lat="63.1663305592659" lon="10.150550009434065" id="-29265">
		<tag k="historic" v="shieling" />
		<tag k="name" v="Lykkjvollen" />
		<tag k="place" v="locality" />
		<tag k="ssr:stedsnr" v="340951" />
	</node>
	<node lat="63.167961115120434" lon="10.156950004020652" id="-29266">
		<tag k="name" v="Purkhogstra" />
		<tag k="place" v="locality" />
		<tag k="ssr:stedsnr" v="340952" />
	</node>
	<node lat="63.07538332911895" lon="10.097605561995488" id="-29270">
		<tag k="name" v="Jensmyra" />
		<tag k="natural" v="wetland" />
		<tag k="ssr:stedsnr" v="340650" />
	</node>
	<node lat="63.09884444260764" lon="10.48848888373421" id="-29273">
		<tag k="historic" v="shieling" />
		<tag k="name" v="Horgvollen" />
		<tag k="place" v="locality" />
		<tag k="ssr:stedsnr" v="340810" />
	</node>
	<node lat="63.12157500173587" lon="10.388408336647753" id="-29301">
		<tag k="historic" v="shieling" />
		<tag k="name" v="Svartvollen" />
		<tag k="place" v="locality" />
		<tag k="ssr:stedsnr" v="400134" />
	</node>
	<node lat="63.13877777974182" lon="10.061919447972157" id="-29305">
		<tag k="name" v="Langmyra" />
		<tag k="natural" v="wetland" />
		<tag k="ssr:stedsnr" v="400327" />
	</node>
	<node lat="63.145977777418224" lon="10.143016656749401" id="-29308">
		<tag k="name" v="Vennabakken" />
		<tag k="place" v="locality" />
		<tag k="ssr:stedsnr" v="400526" />
	</node>
	<node lat="63.113908329407735" lon="10.18294444339345" id="-29309">
		<tag k="name" v="Hoppardalsmyran" />
		<tag k="natural" v="wetland" />
		<tag k="ssr:stedsnr" v="400531" />
	</node>
	<node lat="63.14514444707617" lon="10.16592221927813" id="-29316">
		<tag k="name" v="Litlbrokhogstret" />
		<tag k="place" v="locality" />
		<tag k="ssr:stedsnr" v="400976" />
	</node>
	<node lat="63.20424999651248" lon="10.43440000787546" id="-29323">
		<tag k="name" v="Seteråsmyra" />
		<tag k="natural" v="wetland" />
		<tag k="ssr:stedsnr" v="401191" />
	</node>
	<node lat="63.163977776839594" lon="10.016372217330781" id="-29330">
		<tag k="name" v="Liahåggån" />
		<tag k="place" v="locality" />
		<tag k="ssr:stedsnr" v="401713" />
	</node>
	<node lat="63.177213887615665" lon="10.093666666239441" id="-29331">
		<tag k="name" v="Purkmyra" />
		<tag k="natural" v="wetland" />
		<tag k="ssr:stedsnr" v="401479" />
	</node>
	<node lat="63.18011111526786" lon="10.06945834133683" id="-29332">
		<tag k="name" v="Kardustjønnmyra" />
		<tag k="natural" v="wetland" />
		<tag k="ssr:stedsnr" v="401484" />
	</node>
	<node lat="63.079902777067915" lon="10.196494439624633" id="-29336">
		<tag k="name" v="Ner Høkåsmyra" />
		<tag k="natural" v="wetland" />
		<tag k="ssr:stedsnr" v="401625" />
	</node>
	<node lat="63.1522416697327" lon="10.059211108889299" id="-29341">
		<tag k="name" v="Trettkosa" />
		<tag k="place" v="locality" />
		<tag k="ssr:stedsnr" v="401694" />
	</node>
	<node lat="63.18605000043711" lon="10.272866670495256" id="-29349">
		<tag k="name" v="Milmyra" />
		<tag k="natural" v="wetland" />
		<tag k="ssr:stedsnr" v="401913" />
	</node>
	<node lat="63.071066666926505" lon="10.234461113956595" id="-29352">
		<tag k="name" v="Tuvmyra" />
		<tag k="natural" v="wetland" />
		<tag k="ssr:stedsnr" v="401886" />
	</node>
	<node lat="63.28967777701488" lon="10.32672777807829" id="-29396">
		<tag k="name" v="Kjøldmyra" />
		<tag k="natural" v="wetland" />
		<tag k="ssr:stedsnr" v="461162" />
	</node>
	<node lat="63.103963889661806" lon="9.920024995811513" id="-29398">
		<tag k="historic" v="shieling" />
		<tag k="name" v="Vakkervollen" />
		<tag k="place" v="locality" />
		<tag k="ssr:stedsnr" v="461307" />
	</node>
	<node lat="63.13561666661348" lon="10.016308338042341" id="-29402">
		<tag k="name" v="Stormyra" />
		<tag k="natural" v="wetland" />
		<tag k="ssr:stedsnr" v="461305" />
	</node>
	<node lat="63.13994166673465" lon="10.078569436677688" id="-29403">
		<tag k="name" v="Klettvollen" />
		<tag k="place" v="locality" />
		<tag k="ssr:stedsnr" v="461403" />
	</node>
	<node lat="63.14394444790193" lon="10.08873611985264" id="-29408">
		<tag k="name" v="Hogstra" />
		<tag k="place" v="locality" />
		<tag k="ssr:stedsnr" v="461507" />
	</node>
	<node lat="63.12668888930623" lon="10.26042499177232" id="-29413">
		<tag k="name" v="Bredlimoen" />
		<tag k="place" v="locality" />
		<tag k="ssr:stedsnr" v="461566" />
	</node>
	<node lat="63.150141664741504" lon="10.176994453534563" id="-29423">
		<tag k="name" v="Langmyran" />
		<tag k="natural" v="wetland" />
		<tag k="ssr:stedsnr" v="461971" />
	</node>
	<node lat="63.145841666714816" lon="10.176461112167097" id="-29424">
		<tag k="name" v="Stormyra" />
		<tag k="natural" v="wetland" />
		<tag k="ssr:stedsnr" v="461974" />
	</node>
	<node lat="63.19971666806711" lon="10.202888886350554" id="-29428">
		<tag k="name" v="Vørkjesmyra" />
		<tag k="natural" v="wetland" />
		<tag k="ssr:stedsnr" v="462468" />
	</node>
	<node lat="63.08339166311628" lon="10.161063879329955" id="-29430">
		<tag k="name" v="Rognlimyra" />
		<tag k="natural" v="wetland" />
		<tag k="ssr:stedsnr" v="462616" />
	</node>
	<node lat="63.12077777514991" lon="10.103169439370358" id="-29432">
		<tag k="name" v="Åsmyra" />
		<tag k="natural" v="wetland" />
		<tag k="ssr:stedsnr" v="462571" />
	</node>
	<node lat="63.17237221899811" lon="10.345758335395992" id="-29439">
		<tag k="name" v="Måssåmyra" />
		<tag k="natural" v="wetland" />
		<tag k="ssr:stedsnr" v="462750" />
	</node>
	<node lat="63.210536110782506" lon="10.34549999616798" id="-29521">
		<tag k="name" v="Småmyran" />
		<tag k="natural" v="wetland" />
		<tag k="ssr:stedsnr" v="522211" />
	</node>
	<node lat="63.104686110517136" lon="10.02084166579968" id="-29526">
		<tag k="name" v="Solhogstret" />
		<tag k="place" v="locality" />
		<tag k="ssr:stedsnr" v="522281" />
	</node>
	<node lat="63.092855559223445" lon="10.049338886307806" id="-29529">
		<tag k="name" v="Lauvmyra" />
		<tag k="natural" v="wetland" />
		<tag k="ssr:stedsnr" v="522307" />
	</node>
	<node lat="63.12826944290408" lon="10.033197217457415" id="-29531">
		<tag k="name" v="Vørkjin" />
		<tag k="place" v="locality" />
		<tag k="ssr:stedsnr" v="522313" />
	</node>
	<node lat="63.10410705071927" lon="10.165335974442693" id="-29544">
		<tag k="name" v="Stormyra" />
		<tag k="natural" v="wetland" />
		<tag k="ssr:stedsnr" v="522614" />
	</node>
	<node lat="63.08025555382903" lon="10.16890277308982" id="-29546">
		<tag k="name" v="Undungsmyra" />
		<tag k="natural" v="wetland" />
		<tag k="ssr:stedsnr" v="522624" />
	</node>
	<node lat="63.161430556424335" lon="9.99720277503976" id="-29551">
		<tag k="name" v="Brandåslykkja" />
		<tag k="place" v="locality" />
		<tag k="ssr:stedsnr" v="522645" />
	</node>
	<node lat="63.17462777904505" lon="10.314300001415777" id="-29570">
		<tag k="name" v="Skjettmyrbakken" />
		<tag k="place" v="locality" />
		<tag k="ssr:stedsnr" v="522878" />
	</node>
	<node lat="63.201888890778925" lon="10.22735000340102" id="-29586">
		<tag k="name" v="Langmyran" />
		<tag k="natural" v="wetland" />
		<tag k="ssr:stedsnr" v="557657" />
	</node>
	<node lat="63.15928055622182" lon="10.419694453769155" id="-29588">
		<tag k="alt_name" v="Bjørdalsmyran" />
		<tag k="name" v="Bjørdalsmyra" />
		<tag k="natural" v="wetland" />
		<tag k="ssr:stedsnr" v="557845" />
	</node>
	<node lat="63.25254167036357" lon="10.32874999847482" id="-29609">
		<tag k="historic" v="shieling" />
		<tag k="name" v="Skjerdingstadvollan" />
		<tag k="place" v="locality" />
		<tag k="ssr:stedsnr" v="582108" />
	</node>
	<node lat="63.10701111007165" lon="10.045266663901755" id="-29611">
		<tag k="historic" v="shieling" />
		<tag k="name" v="Jønlandsvollen" />
		<tag k="place" v="locality" />
		<tag k="ssr:stedsnr" v="582302" />
	</node>
	<node lat="63.12904166218015" lon="10.022316674600196" id="-29615">
		<tag k="name" v="Holtet" />
		<tag k="place" v="locality" />
		<tag k="ssr:stedsnr" v="582346" />
	</node>
	<node lat="63.162097226509196" lon="10.05271666660743" id="-29629">
		<tag k="historic" v="shieling" />
		<tag k="name" v="Restosetra" />
		<tag k="place" v="locality" />
		<tag k="ssr:stedsnr" v="582733" />
	</node>
	<node lat="63.089288886454156" lon="10.280872224441088" id="-29631">
		<tag k="name" v="Nørder Homyra" />
		<tag k="natural" v="wetland" />
		<tag k="ssr:stedsnr" v="582905" />
	</node>
	<node lat="63.08670833067748" lon="10.282494437196059" id="-29632">
		<tag k="name" v="Synner Homyra" />
		<tag k="natural" v="wetland" />
		<tag k="ssr:stedsnr" v="582906" />
	</node>
	<node lat="63.088049996948875" lon="10.28403888039751" id="-29633">
		<tag k="name" v="Kringelmyra" />
		<tag k="natural" v="wetland" />
		<tag k="ssr:stedsnr" v="582908" />
	</node>
	<node lat="63.162761114642244" lon="10.16245000791184" id="-29635">
		<tag k="historic" v="shieling" />
		<tag k="name" v="Mjølkvollen" />
		<tag k="place" v="locality" />
		<tag k="ssr:stedsnr" v="582948" />
	</node>
	<node lat="63.152747224015705" lon="10.159983330866057" id="-29636">
		<tag k="name" v="Postmyra" />
		<tag k="natural" v="wetland" />
		<tag k="ssr:stedsnr" v="582950" />
	</node>
	<node lat="63.13860832965" lon="10.200074996272079" id="-29638">
		<tag k="name" v="Grindbakklykkja" />
		<tag k="place" v="locality" />
		<tag k="ssr:stedsnr" v="582989" />
	</node>
	<node lat="63.20472222582957" lon="10.11829165689811" id="-29643">
		<tag k="name" v="Gorrtjønnslættet" />
		<tag k="natural" v="wetland" />
		<tag k="ssr:stedsnr" v="583504" />
	</node>
	<node lat="63.06692777555633" lon="10.05144167614065" id="-29644">
		<tag k="name" v="Stormyra" />
		<tag k="natural" v="wetland" />
		<tag k="ssr:stedsnr" v="583444" />
	</node>
	<node lat="63.1838305537453" lon="10.0549555578675" id="-29646">
		<tag k="name" v="Hestlykkja" />
		<tag k="place" v="locality" />
		<tag k="ssr:stedsnr" v="583492" />
	</node>
	<node lat="63.078236106876794" lon="10.184752772388473" id="-29648">
		<tag k="landuse" v="meadow" />
		<tag k="name" v="Gauløkkjun" />
		<tag k="ssr:stedsnr" v="583619" />
	</node>
	<node lat="63.087950002864034" lon="10.177288893467411" id="-29655">
		<tag k="historic" v="shieling" />
		<tag k="name" v="Rogndalsvollen" />
		<tag k="place" v="locality" />
		<tag k="ssr:stedsnr" v="583589" />
	</node>
	<node lat="63.24293888703989" lon="10.402491662356717" id="-29658">
		<tag k="name" v="Storkjølen" />
		<tag k="natural" v="wetland" />
		<tag k="ssr:stedsnr" v="583758" />
	</node>
	<node lat="63.18645000024269" lon="10.363272218111323" id="-29660">
		<tag k="name" v="Stormyra" />
		<tag k="natural" v="wetland" />
		<tag k="ssr:stedsnr" v="583792" />
	</node>
	<node lat="63.128208336868084" lon="10.221649997834161" id="-29662">
		<tag k="name" v="Nordtømme" />
		<tag k="place" v="locality" />
		<tag k="ssr:stedsnr" v="583805" />
	</node>
	<node lat="63.14004444386831" lon="10.229872219575501" id="-29663">
		<tag k="historic" v="shieling" />
		<tag k="name" v="Småvollan" />
		<tag k="place" v="locality" />
		<tag k="ssr:stedsnr" v="583807" />
	</node>
	<node lat="63.08496944305081" lon="10.186269445382385" id="-29698">
		<tag k="historic" v="shieling" />
		<tag k="name" v="Pipvollen" />
		<tag k="place" v="locality" />
		<tag k="ssr:stedsnr" v="704129" />
	</node>
	<node lat="63.17391666874018" lon="10.13848888439934" id="-29702">
		<tag k="name" v="Hafella" />
		<tag k="natural" v="wetland" />
		<tag k="ssr:stedsnr" v="704044" />
	</node>
	<node lat="63.2240888897013" lon="10.290136112212606" id="-29706">
		<tag k="name" v="Banhåmmårtjønna" />
		<tag k="place" v="locality" />
		<tag k="ssr:stedsnr" v="704090" />
	</node>
	<node lat="63.1100666705209" lon="10.374891676619942" id="-29707">
		<tag k="name" v="Tvilmyra" />
		<tag k="natural" v="wetland" />
		<tag k="ssr:stedsnr" v="704143" />
	</node>
	<node lat="63.28373332983101" lon="10.324397212196509" id="-29708">
		<tag k="name" v="Snurrumyra" />
		<tag k="natural" v="wetland" />
		<tag k="ssr:stedsnr" v="704157" />
	</node>
	<node lat="63.10572500369889" lon="9.971655563600388" id="-29713">
		<tag k="name" v="Stormyra" />
		<tag k="natural" v="wetland" />
		<tag k="ssr:stedsnr" v="704243" />
	</node>
	<node lat="63.08448055433198" lon="10.04638611629997" id="-29718">
		<tag k="name" v="Flomyra" />
		<tag k="natural" v="wetland" />
		<tag k="ssr:stedsnr" v="704293" />
	</node>
	<node lat="63.19559166814847" lon="10.198133333978275" id="-29731">
		<tag k="name" v="Storflyga" />
		<tag k="natural" v="wetland" />
		<tag k="ssr:stedsnr" v="704404" />
	</node>
	<node lat="63.13660833310247" lon="10.141875002037285" id="-29733">
		<tag k="name" v="Vennagjerdet" />
		<tag k="place" v="locality" />
		<tag k="ssr:stedsnr" v="704498" />
	</node>
	<node lat="63.098455552178876" lon="10.094952778025947" id="-29740">
		<tag k="name" v="Langmyra" />
		<tag k="natural" v="wetland" />
		<tag k="ssr:stedsnr" v="704576" />
	</node>
	<node lat="63.082061113515714" lon="10.18592778205023" id="-29743">
		<tag k="historic" v="shieling" />
		<tag k="name" v="Gjerdesvollen" />
		<tag k="place" v="locality" />
		<tag k="ssr:stedsnr" v="704595" />
	</node>
	<node lat="63.0671166663268" lon="10.189288886971182" id="-29747">
		<tag k="name" v="Tjønnamyra" />
		<tag k="natural" v="wetland" />
		<tag k="ssr:stedsnr" v="704652" />
	</node>
	<node lat="63.238058335886784" lon="10.357738885693244" id="-29749">
		<tag k="name" v="Holmyra" />
		<tag k="natural" v="wetland" />
		<tag k="ssr:stedsnr" v="704786" />
	</node>
	<node lat="63.237594442456746" lon="10.338263887946699" id="-29750">
		<tag k="name" v="Elgauga" />
		<tag k="natural" v="wetland" />
		<tag k="ssr:stedsnr" v="704787" />
	</node>
	<node lat="63.273241669986106" lon="10.339502769477244" id="-29755">
		<tag k="historic" v="shieling" />
		<tag k="name" v="Lauvsetsetervollen" />
		<tag k="place" v="locality" />
		<tag k="ssr:stedsnr" v="704840" />
	</node>
	<node lat="63.28166110889474" lon="10.337916664380849" id="-29756">
		<tag k="historic" v="shieling" />
		<tag k="name" v="Litlsetervollen" />
		<tag k="place" v="locality" />
		<tag k="ssr:stedsnr" v="704844" />
	</node>
	<node lat="63.152836113780204" lon="10.192041665650642" id="-29766">
		<tag k="name" v="Bessfarøya" />
		<tag k="place" v="locality" />
		<tag k="ssr:stedsnr" v="704951" />
	</node>
	<node lat="63.161569443052905" lon="10.193233334935684" id="-29767">
		<tag k="name" v="Karlslykkja" />
		<tag k="place" v="locality" />
		<tag k="ssr:stedsnr" v="704953" />
	</node>
	<node lat="63.13676388966968" lon="10.20542222964303" id="-29769">
		<tag k="name" v="Damvassmyra" />
		<tag k="natural" v="wetland" />
		<tag k="ssr:stedsnr" v="704991" />
	</node>
	<node lat="63.13849722583806" lon="10.191886114283285" id="-29770">
		<tag k="name" v="Lunningsmyra" />
		<tag k="natural" v="wetland" />
		<tag k="ssr:stedsnr" v="704999" />
	</node>
	<node lat="63.145274998174855" lon="10.085672228643627" id="-29771">
		<tag k="landuse" v="meadow" />
		<tag k="name" v="Lialykkja" />
		<tag k="ssr:stedsnr" v="705579" />
	</node>
	<node lat="63.183627781586395" lon="10.383683328209523" id="-29773">
		<tag k="name" v="Bossmyra" />
		<tag k="natural" v="wetland" />
		<tag k="ssr:stedsnr" v="705840" />
	</node>
	<node lat="63.23657222412897" lon="10.331891657579085" id="-29781">
		<tag k="name" v="Elgmyran" />
		<tag k="natural" v="wetland" />
		<tag k="ssr:stedsnr" v="643128" />
	</node>
	<node lat="63.12164722018693" lon="10.031174997207529" id="-29786">
		<tag k="name" v="Gråtaren" />
		<tag k="place" v="locality" />
		<tag k="ssr:stedsnr" v="643275" />
	</node>
	<node lat="63.19351388732929" lon="10.175741657235708" id="-29788">
		<tag k="name" v="Knippvegen" />
		<tag k="place" v="locality" />
		<tag k="ssr:stedsnr" v="643426" />
	</node>
	<node lat="63.13537499628169" lon="10.106824990621353" id="-29797">
		<tag k="historic" v="shieling" />
		<tag k="name" v="Tjønnvollan" />
		<tag k="place" v="locality" />
		<tag k="ssr:stedsnr" v="643534" />
	</node>
	<node lat="63.07498739351561" lon="10.238337727846023" id="-29803">
		<tag k="name" v="Hopslåtten" />
		<tag k="place" v="locality" />
		<tag k="ssr:stedsnr" v="643914" />
	</node>
	<node lat="63.17797500141061" lon="10.538722230218646" id="-29804">
		<tag k="name" v="Salen" />
		<tag k="natural" v="wetland" />
		<tag k="ssr:stedsnr" v="643915" />
	</node>
	<node lat="63.14983610994463" lon="10.055280548765932" id="-29812">
		<tag k="name" v="Ellendmyran" />
		<tag k="natural" v="wetland" />
		<tag k="ssr:stedsnr" v="643690" />
	</node>
	<node lat="63.096952778370024" lon="10.267252770649725" id="-29817">
		<tag k="name" v="Langmyra" />
		<tag k="natural" v="wetland" />
		<tag k="ssr:stedsnr" v="643875" />
	</node>
	<node lat="63.14108611517811" lon="9.995927773765583" id="-29876">
		<tag k="name" v="Råkmyra" />
		<tag k="natural" v="wetland" />
		<tag k="ssr:stedsnr" v="704268" />
	</node>
	<node lat="63.13976111306634" lon="10.01238056033323" id="-29877">
		<tag k="name" v="Sagmyran" />
		<tag k="natural" v="wetland" />
		<tag k="ssr:stedsnr" v="704271" />
	</node>
	<node lat="63.13178055663402" lon="10.073774993861672" id="-29880">
		<tag k="name" v="Bordtremyra" />
		<tag k="natural" v="wetland" />
		<tag k="ssr:stedsnr" v="704312" />
	</node>
	<node lat="63.12894722478007" lon="10.054588887181033" id="-29883">
		<tag k="name" v="Klokkarhåggån" />
		<tag k="place" v="locality" />
		<tag k="ssr:stedsnr" v="704317" />
	</node>
	<node lat="63.190049996173485" lon="10.042158336529344" id="-29885">
		<tag k="name" v="Følføttet" />
		<tag k="place" v="locality" />
		<tag k="ssr:stedsnr" v="704361" />
	</node>
	<node lat="63.16329444234563" lon="10.047747223007054" id="-29894">
		<tag k="name" v="Restomyran" />
		<tag k="natural" v="wetland" />
		<tag k="ssr:stedsnr" v="704677" />
	</node>
	<node lat="63.15432777711867" lon="10.058094449728914" id="-29895">
		<tag k="name" v="Hestlykkja" />
		<tag k="place" v="locality" />
		<tag k="ssr:stedsnr" v="704680" />
	</node>
	<node lat="63.14587777487134" lon="9.932077779110115" id="-29897">
		<tag k="name" v="Massmyra" />
		<tag k="natural" v="wetland" />
		<tag k="ssr:stedsnr" v="704703" />
	</node>
	<node lat="63.075077775039034" lon="10.152247222454742" id="-29920">
		<tag k="name" v="Hovinskjølen" />
		<tag k="natural" v="wetland" />
		<tag k="ssr:stedsnr" v="899834" />
	</node>
	<node lat="63.177727773885344" lon="10.356094453518102" id="-29974">
		<tag k="landuse" v="meadow" />
		<tag k="name" v="Lykkja" />
		<tag k="ssr:stedsnr" v="764291" />
	</node>
	<node lat="63.13449166604268" lon="10.079602786777935" id="-29976">
		<tag k="name" v="Aunmyra" />
		<tag k="natural" v="wetland" />
		<tag k="ssr:stedsnr" v="764411" />
	</node>
	<node lat="63.19713888772984" lon="10.248058324144706" id="-29983">
		<tag k="name" v="Hårråmyra" />
		<tag k="natural" v="wetland" />
		<tag k="ssr:stedsnr" v="765020" />
	</node>
	<node lat="63.05379444760517" lon="10.011508328953845" id="-29991">
		<tag k="historic" v="shieling" />
		<tag k="name" v="Lebergsvollan" />
		<tag k="place" v="locality" />
		<tag k="ssr:stedsnr" v="765429" />
	</node>
	<node lat="63.11541943995896" lon="10.056583341878545" id="-29993">
		<tag k="name" v="Torshogstret" />
		<tag k="place" v="locality" />
		<tag k="ssr:stedsnr" v="765322" />
	</node>
	<node lat="63.13448055160461" lon="9.978425004237078" id="-29997">
		<tag k="name" v="Trotlandsslættet" />
		<tag k="place" v="locality" />
		<tag k="ssr:stedsnr" v="765723" />
	</node>
	<node lat="63.15629444419609" lon="9.996222229703314" id="-29999">
		<tag k="name" v="Slettmyra" />
		<tag k="natural" v="wetland" />
		<tag k="ssr:stedsnr" v="765642" />
	</node>
	<node lat="63.118494444920394" lon="10.251658339127248" id="-30004">
		<tag k="name" v="Bergplassen" />
		<tag k="place" v="locality" />
		<tag k="ssr:stedsnr" v="765847" />
	</node>
	<node lat="63.089752778238406" lon="10.295238895880455" id="-30010">
		<tag k="name" v="Bjørnhola" />
		<tag k="place" v="locality" />
		<tag k="ssr:stedsnr" v="765888" />
	</node>
	<node lat="63.22778333201599" lon="10.18879999750461" id="-30075">
		<tag k="name" v="Kloppmyra" />
		<tag k="natural" v="wetland" />
		<tag k="ssr:stedsnr" v="826021" />
	</node>
	<node lat="63.146547218783056" lon="10.379116662539985" id="-30076">
		<tag k="historic" v="shieling" />
		<tag k="name" v="Svartvollen" />
		<tag k="place" v="locality" />
		<tag k="ssr:stedsnr" v="826222" />
	</node>
	<node lat="63.18549999979535" lon="10.034558327857068" id="-30089">
		<tag k="historic" v="shieling" />
		<tag k="name" v="Yttergjerdet" />
		<tag k="place" v="locality" />
		<tag k="ssr:stedsnr" v="826407" />
	</node>
	<node lat="63.11549166739897" lon="9.918827785862183" id="-30092">
		<tag k="name" v="Fuglåsmyra" />
		<tag k="natural" v="wetland" />
		<tag k="ssr:stedsnr" v="922049" />
	</node>
	<node lat="63.09093333220215" lon="10.334636110917767" id="-30100">
		<tag k="name" v="Svekjølen" />
		<tag k="natural" v="wetland" />
		<tag k="ssr:stedsnr" v="826923" />
	</node>
	<node lat="63.24402500257397" lon="10.340666669723984" id="-30108">
		<tag k="historic" v="shieling" />
		<tag k="name" v="Midtflåvollen" />
		<tag k="place" v="locality" />
		<tag k="ssr:stedsnr" v="826807" />
	</node>
	<node lat="63.116863893358875" lon="10.515686101488502" id="-30110">
		<tag k="name" v="Odalskjølen" />
		<tag k="natural" v="wetland" />
		<tag k="ssr:stedsnr" v="826810" />
	</node>
	<node lat="63.085111111998096" lon="10.222647226161389" id="-30112">
		<tag k="name" v="Måssåmyra" />
		<tag k="natural" v="wetland" />
		<tag k="ssr:stedsnr" v="826865" />
	</node>
	<node lat="63.08738333611273" lon="10.228547228771347" id="-30113">
		<tag k="name" v="Flotten" />
		<tag k="place" v="locality" />
		<tag k="ssr:stedsnr" v="826867" />
	</node>
	<node lat="63.29736666972198" lon="10.382149999279438" id="-30114">
		<tag k="name" v="Higeråsmyra" />
		<tag k="natural" v="wetland" />
		<tag k="ssr:stedsnr" v="826869" />
	</node>
	<node lat="63.085766662625794" lon="10.260222223007993" id="-30116">
		<tag k="name" v="Klinkåsmyra" />
		<tag k="natural" v="wetland" />
		<tag k="ssr:stedsnr" v="826884" />
	</node>
	<node lat="63.22653449544978" lon="10.277127157922534" id="-30154">
		<tag k="name" v="Rosmelen" />
		<tag k="place" v="locality" />
		<tag k="ssr:stedsnr" v="849810" />
	</node>
	<node lat="63.14348511460269" lon="10.385894450189909" id="-30171">
		<tag k="alt_name" v="Talbergvollen" />
		<tag k="historic" v="shieling" />
		<tag k="name" v="Talbergsvollen" />
		<tag k="place" v="locality" />
		<tag k="ssr:stedsnr" v="862872" />
	</node>
	<node lat="63.220908331115034" lon="10.315638890167513" id="-30178">
		<tag k="name" v="Knuppen" />
		<tag k="place" v="locality" />
		<tag k="ssr:stedsnr" v="886057" />
	</node>
	<node lat="63.10757500080069" lon="10.071797223463872" id="-30183">
		<tag k="name" v="Stormyra" />
		<tag k="natural" v="wetland" />
		<tag k="ssr:stedsnr" v="886337" />
	</node>
	<node lat="63.1077055530145" lon="10.260886107313874" id="-30198">
		<tag k="name" v="Klevmyra" />
		<tag k="natural" v="wetland" />
		<tag k="ssr:stedsnr" v="886854" />
	</node>
	<node lat="63.19754166702571" lon="10.224208342714899" id="-30206">
		<tag k="name" v="Branemstuggu" />
		<tag k="natural" v="wetland" />
		<tag k="ssr:stedsnr" v="887003" />
	</node>
	<node lat="63.19136666561186" lon="10.112750007875086" id="-30209">
		<tag k="name" v="Langsløgda" />
		<tag k="place" v="locality" />
		<tag k="ssr:stedsnr" v="887515" />
	</node>
	<node lat="63.09175277436391" lon="10.203052777784167" id="-30213">
		<tag k="name" v="Langmyra" />
		<tag k="natural" v="wetland" />
		<tag k="ssr:stedsnr" v="887619" />
	</node>
	<node lat="63.096930557591264" lon="10.165497220996324" id="-30217">
		<tag k="name" v="Storflåkkåmyra" />
		<tag k="natural" v="wetland" />
		<tag k="ssr:stedsnr" v="887637" />
	</node>
	<node lat="63.09665000322687" lon="10.155938890805407" id="-30218">
		<tag k="name" v="Buslættmyra" />
		<tag k="natural" v="wetland" />
		<tag k="ssr:stedsnr" v="887639" />
	</node>
	<node lat="63.19761111414116" lon="10.524236115597915" id="-30221">
		<tag k="name" v="Stormyra" />
		<tag k="natural" v="wetland" />
		<tag k="ssr:stedsnr" v="887924" />
	</node>
	<node lat="63.189586107051404" lon="10.279547217104502" id="-30222">
		<tag k="name" v="Klumpmyra" />
		<tag k="natural" v="wetland" />
		<tag k="ssr:stedsnr" v="887933" />
	</node>
	<node lat="63.06514917750051" lon="10.18373427276283" id="-30253">
		<tag k="alt_name" v="Borstuvollen" />
		<tag k="historic" v="shieling" />
		<tag k="name" v="Krokstadvollen" />
		<tag k="place" v="locality" />
		<tag k="ssr:stedsnr" v="923632" />
	</node>
	<node lat="63.198161113216926" lon="10.16883887930113" id="-30267">
		<tag k="name" v="Hestlykkja" />
		<tag k="place" v="locality" />
		<tag k="ssr:stedsnr" v="947438" />
	</node>
	<node lat="63.185777779822295" lon="10.119480557918527" id="-30270">
		<tag k="name" v="Smålykkjon" />
		<tag k="place" v="locality" />
		<tag k="ssr:stedsnr" v="947449" />
	</node>
	<node lat="63.18587777702842" lon="10.10897222017758" id="-30273">
		<tag k="name" v="Brannåsmyra" />
		<tag k="natural" v="wetland" />
		<tag k="ssr:stedsnr" v="947457" />
	</node>
	<node lat="63.17115555188616" lon="10.086711120268104" id="-30275">
		<tag k="name" v="Skardmyran" />
		<tag k="natural" v="wetland" />
		<tag k="ssr:stedsnr" v="947461" />
	</node>
	<node lat="63.17651666438733" lon="10.18829444663565" id="-30278">
		<tag k="name" v="Langmyra" />
		<tag k="natural" v="wetland" />
		<tag k="ssr:stedsnr" v="947131" />
	</node>
	<node lat="63.08607500330476" lon="10.363399993942094" id="-30283">
		<tag k="name" v="Trettvollen" />
		<tag k="natural" v="wetland" />
		<tag k="ssr:stedsnr" v="947139" />
	</node>
	<node lat="63.20145555363413" lon="10.411513892284864" id="-30286">
		<tag k="name" v="Tømmerlunnmyra" />
		<tag k="natural" v="wetland" />
		<tag k="ssr:stedsnr" v="947196" />
	</node>
	<node lat="63.104433331984275" lon="9.925538884274756" id="-30287">
		<tag k="landuse" v="meadow" />
		<tag k="name" v="Jensenget" />
		<tag k="ssr:stedsnr" v="947306" />
	</node>
	<node lat="63.09171110916588" lon="10.19693610191644" id="-30291">
		<tag k="landuse" v="quarry" />
		<tag k="name" v="Saggrubba" />
		<tag k="ssr:stedsnr" v="947586" />
	</node>
	<node lat="63.15489444389337" lon="10.064488882737596" id="-30299">
		<tag k="name" v="Vinndalskosa" />
		<tag k="place" v="locality" />
		<tag k="ssr:stedsnr" v="947680" />
	</node>
	<node lat="63.17102777720454" lon="10.457277767893796" id="-30304">
		<tag k="name" v="Kalvskinnet" />
		<tag k="place" v="locality" />
		<tag k="ssr:stedsnr" v="947804" />
	</node>
	<node lat="63.14426111454328" lon="10.202213882158816" id="-30310">
		<tag k="name" v="Sleran" />
		<tag k="place" v="locality" />
		<tag k="ssr:stedsnr" v="947984" />
	</node>
	<node lat="63.08848419302806" lon="10.214276692657682" id="-30328">
		<tag k="name" v="Homyra" />
		<tag k="natural" v="wetland" />
		<tag k="ssr:stedsnr" v="982438" />
	</node>
	<node lat="63.064659464271074" lon="10.220976952577656" id="-30329">
		<tag k="name" v="Ellingsmyran" />
		<tag k="natural" v="wetland" />
		<tag k="ssr:stedsnr" v="982440" />
	</node>
	<node lat="63.06837461650743" lon="10.173982074977062" id="-30331">
		<tag k="name" v="Blåhåmmårmyra" />
		<tag k="natural" v="wetland" />
		<tag k="ssr:stedsnr" v="982451" />
	</node>
	<node lat="63.09741388630022" lon="10.078716664398208" id="-30359">
		<tag k="name" v="Tølløvhåggån" />
		<tag k="place" v="locality" />
		<tag k="ssr:stedsnr" v="36293" />
	</node>
	<node lat="63.13566944795487" lon="10.054852768387152" id="-30360">
		<tag k="name" v="Homyra" />
		<tag k="natural" v="wetland" />
		<tag k="ssr:stedsnr" v="36298" />
	</node>
	<node lat="63.144502778999104" lon="9.997527781863402" id="-30370">
		<tag k="name" v="Råket" />
		<tag k="place" v="locality" />
		<tag k="ssr:stedsnr" v="36255" />
	</node>
	<node lat="63.09995555570189" lon="9.97998055788286" id="-30375">
		<tag k="name" v="Rønningen" />
		<tag k="place" v="locality" />
		<tag k="ssr:stedsnr" v="36334" />
	</node>
	<node lat="63.06050555960259" lon="10.220891659437822" id="-30387">
		<tag k="name" v="Rundmyra" />
		<tag k="natural" v="wetland" />
		<tag k="ssr:stedsnr" v="36947" />
	</node>
	<node lat="63.286125003376185" lon="10.329288885387692" id="-30395">
		<tag k="name" v="Brannhaugmyra" />
		<tag k="natural" v="wetland" />
		<tag k="ssr:stedsnr" v="37185" />
	</node>
	<node lat="63.11684722625842" lon="10.127724996740838" id="-30404">
		<tag k="name" v="Tjukkengmyra" />
		<tag k="natural" v="wetland" />
		<tag k="ssr:stedsnr" v="37600" />
	</node>
	<node lat="63.15072777926381" lon="10.079422225177215" id="-30408">
		<tag k="name" v="Vindalsmyra" />
		<tag k="natural" v="wetland" />
		<tag k="ssr:stedsnr" v="37695" />
	</node>
	<node lat="63.21995000276549" lon="10.352913895017748" id="-30410">
		<tag k="name" v="Arntsmyra" />
		<tag k="natural" v="wetland" />
		<tag k="ssr:stedsnr" v="37783" />
	</node>
	<node lat="63.18473888637925" lon="10.287347229056811" id="-30411">
		<tag k="name" v="Damløkkja" />
		<tag k="place" v="locality" />
		<tag k="ssr:stedsnr" v="37785" />
	</node>
	<node lat="63.15022500121157" lon="10.237316667665839" id="-30414">
		<tag k="name" v="Pøtamyra" />
		<tag k="natural" v="wetland" />
		<tag k="ssr:stedsnr" v="37792" />
	</node>
	<node lat="63.11905278226231" lon="10.332219442120966" id="-30418">
		<tag k="name" v="Homyra" />
		<tag k="natural" v="wetland" />
		<tag k="ssr:stedsnr" v="37878" />
	</node>
</osm>
