<?xml version="1.0" encoding="UTF-8"?>
<osm version="0.6" generator="osmapis">
	<node lat="63.15144444197902" lon="10.118736114189968" id="-35116">
		<tag k="fixme" v="consider place=hamlet" />
		<tag k="name" v="Berg" />
		<tag k="place" v="farm" />
		<tag k="ssr:stedsnr" v="12122" />
	</node>
	<node lat="63.08610555260944" lon="10.013605561910447" id="-35117">
		<tag k="name" v="Nybrott" />
		<tag k="place" v="isolated_dwelling" />
		<tag k="ssr:stedsnr" v="12511" />
	</node>
	<node lat="63.104305551284924" lon="10.050955562874549" id="-35118">
		<tag k="name" v="Jønlandsgjerdet" />
		<tag k="place" v="farm" />
		<tag k="ssr:stedsnr" v="12566" />
	</node>
	<node lat="63.10094999965263" lon="10.125449997038505" id="-35119">
		<tag k="fixme" v="consider place=hamlet" />
		<tag k="name" v="Esphaug" />
		<tag k="place" v="farm" />
		<tag k="ssr:stedsnr" v="12570" />
	</node>
	<node lat="63.13800555315361" lon="10.239016673613087" id="-35123">
		<tag k="fixme" v="consider place=hamlet" />
		<tag k="name" v="Evjen" />
		<tag k="place" v="farm" />
		<tag k="ssr:stedsnr" v="12816" />
	</node>
	<node lat="63.12006944557458" lon="10.544202774509332" id="-35125">
		<tag k="name" v="Reinsvollen" />
		<tag k="place" v="isolated_dwelling" />
		<tag k="ssr:stedsnr" v="12826" />
	</node>
	<node lat="63.16180833004181" lon="10.560583327150928" id="-35127">
		<tag k="historic" v="shieling" />
		<tag k="name" v="Fremosvollen" />
		<tag k="old_name" v="Fremvollen" />
		<tag k="place" v="isolated_dwelling" />
		<tag k="ssr:stedsnr" v="12839" />
	</node>
	<node lat="63.20599166672154" lon="10.324224996488239" id="-35129">
		<tag k="name" v="Sørflå" />
		<tag k="place" v="farm" />
		<tag k="ssr:stedsnr" v="12704" />
	</node>
	<node lat="63.19381944047209" lon="10.29043889427174" id="-35133">
		<tag k="alt_name" v="Losakleva" />
		<tag k="name" v="Losakleiva" />
		<tag k="place" v="farm" />
		<tag k="ssr:stedsnr" v="12791" />
	</node>
	<node lat="63.10761944552566" lon="10.313561118147302" id="-35134">
		<tag k="historic" v="shieling" />
		<tag k="name" v="Kjelvollen" />
		<tag k="place" v="isolated_dwelling" />
		<tag k="ssr:stedsnr" v="12910" />
	</node>
	<node lat="63.1064250010562" lon="10.23705555238911" id="-35135">
		<tag k="fixme" v="consider place=hamlet" />
		<tag k="name" v="Foss" />
		<tag k="place" v="farm" />
		<tag k="ssr:stedsnr" v="12912" />
	</node>
	<node lat="63.10723888527176" lon="10.224483325340346" id="-35136">
		<tag k="name" v="Teigen" />
		<tag k="place" v="farm" />
		<tag k="ssr:stedsnr" v="12914" />
	</node>
	<node lat="63.258550003132896" lon="10.2051916759414" id="-35139">
		<tag k="name" v="Valshaugen" />
		<tag k="place" v="farm" />
		<tag k="ssr:stedsnr" v="13702" />
	</node>
	<node lat="63.28967791505832" lon="10.292405248322194" id="-35140">
		<tag k="fixme" v="consider place=hamlet" />
		<tag k="name" v="Høgegga" />
		<tag k="place" v="farm" />
		<tag k="ssr:stedsnr" v="13801" />
	</node>
	<node lat="63.29429166343405" lon="10.26632499410263" id="-35141">
		<tag k="name" v="Blekesøya" />
		<tag k="place" v="farm" />
		<tag k="ssr:stedsnr" v="13820" />
	</node>
	<node lat="63.25910555972131" lon="10.207608336142354" id="-35142">
		<tag k="name" v="Solgløtt" />
		<tag k="place" v="isolated_dwelling" />
		<tag k="ssr:stedsnr" v="234476" />
	</node>
	<node lat="63.095288886794435" lon="9.923422218953478" id="-35153">
		<tag k="name" v="Nævsgrenda" />
		<tag k="place" v="hamlet" />
		<tag k="ssr:stedsnr" v="36214" />
	</node>
	<node lat="63.16181388442275" lon="9.96732500252007" id="-35160">
		<tag k="name" v="Kosin" />
		<tag k="place" v="isolated_dwelling" />
		<tag k="ssr:stedsnr" v="36571" />
	</node>
	<node lat="63.124555556567735" lon="10.218877776467737" id="-35163">
		<tag k="name" v="Søstuggu" />
		<tag k="place" v="farm" />
		<tag k="ssr:stedsnr" v="36970" />
	</node>
	<node lat="63.1321055590838" lon="10.25195276821741" id="-35165">
		<tag k="name" v="Flottan" />
		<tag k="place" v="farm" />
		<tag k="ssr:stedsnr" v="36980" />
	</node>
	<node lat="63.12245278059704" lon="10.039972228060302" id="-35173">
		<tag k="name" v="Gammelgarden" />
		<tag k="place" v="locality" />
		<tag k="ssr:stedsnr" v="37611" />
	</node>
	<node lat="63.176030558993325" lon="10.046833329451125" id="-35179">
		<tag k="name" v="Nylykkja" />
		<tag k="place" v="farm" />
		<tag k="ssr:stedsnr" v="37679" />
	</node>
	<node lat="63.165425000143635" lon="10.284577775095196" id="-35191">
		<tag k="name" v="Øyan" />
		<tag k="place" v="farm" />
		<tag k="ssr:stedsnr" v="37976" />
	</node>
	<node lat="63.30376666428542" lon="10.250780559758725" id="-35192">
		<tag k="name" v="Blekesmarka" />
		<tag k="place" v="quarter" />
		<tag k="ssr:stedsnr" v="40569" />
	</node>
	<node lat="63.2623118516178" lon="10.229393567814634" id="-35193">
		<tag k="name" v="Holem" />
		<tag k="place" v="farm" />
		<tag k="ssr:stedsnr" v="42086" />
	</node>
	<node lat="63.31343333110279" lon="10.35493055369734" id="-35195">
		<tag k="amenity" v="school" />
		<tag k="name" v="Rødde folkehøgskole" />
		<tag k="ssr:stedsnr" v="237691" />
	</node>
	<node lat="63.19767299682197" lon="10.313986196001448" id="-35196">
		<tag k="amenity" v="nursing_home" />
		<tag k="name" v="Flå eldresenter" />
		<tag k="ssr:stedsnr" v="237673" />
	</node>
	<node lat="63.30192778210438" lon="10.356563885536472" id="-35197">
		<tag k="fixme" v="multiple name tags, choose one and add the other to alt_name" />
		<tag k="name" v="Havdalsbakkan;Midtibakkan" />
		<tag k="place" v="farm" />
		<tag k="ssr:stedsnr" v="239801" />
	</node>
	<node lat="63.17694444008887" lon="10.337166660987721" id="-35199">
		<tag k="fixme" v="multiple name tags, choose one and add the other to alt_name" />
		<tag k="name" v="Nordre Rambraut;Øverrambraut" />
		<tag k="place" v="farm" />
		<tag k="ssr:stedsnr" v="59275" />
	</node>
	<node lat="63.1641158230986" lon="10.159603123692513" id="-35200">
		<tag k="name" v="Skjeggstad" />
		<tag k="place" v="hamlet" />
		<tag k="ssr:stedsnr" v="60119" />
	</node>
	<node lat="63.14063332993858" lon="10.242402775651218" id="-35202">
		<tag k="fixme" v="consider place=hamlet" />
		<tag k="name" v="Evjen" />
		<tag k="place" v="farm" />
		<tag k="ssr:stedsnr" v="60470" />
	</node>
	<node lat="63.183074997897116" lon="10.310680561896834" id="-35205">
		<tag k="alt_name" v="Høyset" />
		<tag k="fixme" v="consider place=hamlet" />
		<tag k="name" v="Høgsæte" />
		<tag k="place" v="farm" />
		<tag k="ssr:stedsnr" v="242358" />
	</node>
	<node lat="63.1725916710928" lon="10.283888891004942" id="-35206">
		<tag k="fixme" v="consider place=hamlet" />
		<tag k="name" v="Leberg" />
		<tag k="place" v="farm" />
		<tag k="ssr:stedsnr" v="242467" />
	</node>
	<node lat="63.21340462014087" lon="10.264960041752307" id="-35208">
		<tag k="name" v="Forset" />
		<tag k="place" v="hamlet" />
		<tag k="ssr:stedsnr" v="242855" />
	</node>
	<node lat="63.256644318516976" lon="10.249584514733844" id="-35209">
		<tag k="name" v="Trannmel" />
		<tag k="place" v="hamlet" />
		<tag k="ssr:stedsnr" v="242937" />
	</node>
	<node lat="63.2847118252803" lon="10.24083684339291" id="-35210">
		<tag k="fixme" v="consider place=hamlet" />
		<tag k="name" v="Voll" />
		<tag k="place" v="farm" />
		<tag k="ssr:stedsnr" v="242943" />
	</node>
	<node lat="63.30067665904398" lon="10.226211984896416" id="-35211">
		<tag k="name" v="Kråkmoen" />
		<tag k="place" v="farm" />
		<tag k="ssr:stedsnr" v="242959" />
	</node>
	<node lat="63.265941670731046" lon="10.204647220772937" id="-35212">
		<tag k="alt_name" v="Kottan" />
		<tag k="name" v="Kottum" />
		<tag k="place" v="farm" />
		<tag k="ssr:stedsnr" v="242964" />
	</node>
	<node lat="63.28586111461638" lon="10.233811117529703" id="-35213">
		<tag k="name" v="Vollan" />
		<tag k="place" v="farm" />
		<tag k="ssr:stedsnr" v="242971" />
	</node>
	<node lat="63.299500093911796" lon="10.238743491817736" id="-35214">
		<tag k="name" v="Rønningen" />
		<tag k="place" v="farm" />
		<tag k="ssr:stedsnr" v="242973" />
	</node>
	<node lat="63.30851772620465" lon="10.261865711967829" id="-35215">
		<tag k="fixme" v="consider place=hamlet" />
		<tag k="name" v="Øyås" />
		<tag k="place" v="farm" />
		<tag k="ssr:stedsnr" v="242996" />
	</node>
	<node lat="63.13648332941266" lon="10.228199998937404" id="-35217">
		<tag k="fixme" v="consider place=hamlet" />
		<tag k="name" v="Grinni" />
		<tag k="place" v="farm" />
		<tag k="ssr:stedsnr" v="73512" />
	</node>
	<node lat="63.227802779386394" lon="10.289302774608172" id="-35221">
		<tag k="name" v="Kvålslykkja" />
		<tag k="place" v="farm" />
		<tag k="ssr:stedsnr" v="73734" />
	</node>
	<node lat="63.29625574616535" lon="10.317720530897779" id="-35226">
		<tag k="name" v="Sørgarden Lerlia" />
		<tag k="place" v="farm" />
		<tag k="ssr:stedsnr" v="74803" />
	</node>
	<node lat="63.28068611028772" lon="10.25809445116007" id="-35228">
		<tag k="name" v="Gimsan" />
		<tag k="place" v="hamlet" />
		<tag k="ssr:stedsnr" v="74752" />
	</node>
	<node lat="63.13562322802899" lon="10.275079525477302" id="-35229">
		<tag k="fixme" v="consider place=hamlet" />
		<tag k="name" v="Lyngen" />
		<tag k="place" v="farm" />
		<tag k="ssr:stedsnr" v="97007" />
	</node>
	<node lat="63.09543055193589" lon="10.043755562321374" id="-35241">
		<tag k="name" v="Lauvmoen statsskog" />
		<tag k="place" v="locality" />
		<tag k="ssr:stedsnr" v="97316" />
	</node>
	<node lat="63.07276944014955" lon="10.272080546332262" id="-35246">
		<tag k="name" v="Beritstuggu" />
		<tag k="place" v="farm" />
		<tag k="ssr:stedsnr" v="97511" />
	</node>
	<node lat="63.0731444441718" lon="10.271086119270006" id="-35247">
		<tag k="name" v="Sandbakken" />
		<tag k="place" v="farm" />
		<tag k="ssr:stedsnr" v="97513" />
	</node>
	<node lat="63.071577781186235" lon="10.277777782313864" id="-35248">
		<tag k="name" v="Moen" />
		<tag k="place" v="farm" />
		<tag k="ssr:stedsnr" v="97514" />
	</node>
	<node lat="63.164477778480624" lon="10.156541670286039" id="-35249">
		<tag k="name" v="Skjeggstadhaugen" />
		<tag k="place" v="farm" />
		<tag k="ssr:stedsnr" v="97517" />
	</node>
	<node lat="63.088575001563555" lon="10.238561102254172" id="-35250">
		<tag k="name" v="Nordgarden" />
		<tag k="place" v="farm" />
		<tag k="ssr:stedsnr" v="97525" />
	</node>
	<node lat="63.11427499927967" lon="10.239580565409256" id="-35262">
		<tag k="name" v="Brekka" />
		<tag k="place" v="farm" />
		<tag k="ssr:stedsnr" v="97962" />
	</node>
	<node lat="63.12002222105035" lon="10.213111114125898" id="-35264">
		<tag k="name" v="Teigen" />
		<tag k="place" v="farm" />
		<tag k="ssr:stedsnr" v="97970" />
	</node>
	<node lat="63.135272219263264" lon="10.255861119898995" id="-35286">
		<tag k="amenity" v="nursing_home" />
		<tag k="name" v="Horg helse- og omsorgssenter" />
		<tag k="old_name" v="Horg alders- og sykehjem;Horg sykehjem" />
		<tag k="ssr:stedsnr" v="101570" />
	</node>
	<node lat="63.27101111497505" lon="10.21858889562856" id="-35287">
		<tag k="name" v="Løkkenhaugen" />
		<tag k="place" v="quarter" />
		<tag k="ssr:stedsnr" v="101582" />
	</node>
	<node lat="63.21554061860857" lon="10.255468417431155" id="-35290">
		<tag k="name" v="Forsetlykkja" />
		<tag k="place" v="farm" />
		<tag k="ssr:stedsnr" v="121869" />
	</node>
	<node lat="63.112213893269725" lon="10.206897216290496" id="-35292">
		<tag k="alt_name" v="Tugjerdet" />
		<tag k="name" v="Tuvgjerdet" />
		<tag k="place" v="farm" />
		<tag k="ssr:stedsnr" v="133011" />
	</node>
	<node lat="63.111161112628174" lon="9.967763882258666" id="-35293">
		<tag k="alt_name" v="Fosslia" />
		<tag k="fixme" v="consider place=hamlet" />
		<tag k="name" v="Fossli" />
		<tag k="place" v="farm" />
		<tag k="ssr:stedsnr" v="133014" />
	</node>
	<node lat="63.11186666431997" lon="10.014858330276201" id="-35294">
		<tag k="name" v="Nerlia" />
		<tag k="place" v="farm" />
		<tag k="ssr:stedsnr" v="133017" />
	</node>
	<node lat="63.11014722025458" lon="10.02217499954557" id="-35295">
		<tag k="fixme" v="consider place=hamlet" />
		<tag k="name" v="Krokstad" />
		<tag k="place" v="farm" />
		<tag k="ssr:stedsnr" v="133018" />
	</node>
	<node lat="63.13704712027626" lon="9.98520019730633" id="-35296">
		<tag k="fixme" v="multiple name tags, choose one and add the other to alt_name" />
		<tag k="name" v="Trotlandsmoen;Trotland" />
		<tag k="place" v="farm" />
		<tag k="ssr:stedsnr" v="133071" />
	</node>
	<node lat="63.10172500099749" lon="10.217513892383632" id="-35298">
		<tag k="alt_name" v="Flotten" />
		<tag k="name" v="Flåtten" />
		<tag k="place" v="farm" />
		<tag k="ssr:stedsnr" v="133505" />
	</node>
	<node lat="63.099958330110105" lon="10.211541674723184" id="-35299">
		<tag k="name" v="Hovinsbrauta" />
		<tag k="place" v="farm" />
		<tag k="ssr:stedsnr" v="133507" />
	</node>
	<node lat="63.09929166363136" lon="10.049866667533621" id="-35300">
		<tag k="name" v="Haugen" />
		<tag k="place" v="farm" />
		<tag k="ssr:stedsnr" v="133516" />
	</node>
	<node lat="63.087466669182305" lon="10.023849995140598" id="-35301">
		<tag k="name" v="Liahaugen" />
		<tag k="place" v="farm" />
		<tag k="ssr:stedsnr" v="133462" />
	</node>
	<node lat="63.208155556365675" lon="10.253230556061531" id="-35302">
		<tag k="loc_name" v="Dalum;Dulum" />
		<tag k="name" v="Dullum" />
		<tag k="old_name" v="Forsetdal" />
		<tag k="place" v="farm" />
		<tag k="ssr:stedsnr" v="133663" />
	</node>
	<node lat="63.21139821811239" lon="10.275561592010854" id="-35303">
		<tag k="fixme" v="consider place=hamlet" />
		<tag k="name" v="Eidsmo" />
		<tag k="place" v="farm" />
		<tag k="ssr:stedsnr" v="133666" />
	</node>
	<node lat="63.16254444168212" lon="10.274791658261547" id="-35308">
		<tag k="fixme" v="consider place=hamlet" />
		<tag k="name" v="Valdan" />
		<tag k="place" v="farm" />
		<tag k="ssr:stedsnr" v="133757" />
	</node>
	<node lat="63.17666388976276" lon="10.333519443616918" id="-35310">
		<tag k="name" v="Rambraut" />
		<tag k="place" v="hamlet" />
		<tag k="ssr:stedsnr" v="133767" />
	</node>
	<node lat="63.190077780496175" lon="10.13286389756893" id="-35312">
		<tag k="name" v="Nordgjerdet" />
		<tag k="place" v="farm" />
		<tag k="ssr:stedsnr" v="134219" />
	</node>
	<node lat="63.32417499582407" lon="10.24272500220008" id="-35313">
		<tag k="name" v="Nøysomhet" />
		<tag k="old_name" v="Nøisomhet" />
		<tag k="place" v="farm" />
		<tag k="ssr:stedsnr" v="134916" />
	</node>
	<node lat="63.291450001191315" lon="10.277886119411562" id="-35314">
		<tag k="name" v="Meegga" />
		<tag k="place" v="farm" />
		<tag k="ssr:stedsnr" v="134811" />
	</node>
	<node lat="63.28761334489359" lon="10.217684816447246" id="-35315">
		<tag k="fixme" v="consider place=hamlet" />
		<tag k="name" v="Heggdal" />
		<tag k="place" v="farm" />
		<tag k="ssr:stedsnr" v="134819" />
	</node>
	<node lat="63.303329338706035" lon="10.22604385159528" id="-35316">
		<tag k="fixme" v="consider place=hamlet" />
		<tag k="name" v="Grøset" />
		<tag k="place" v="farm" />
		<tag k="ssr:stedsnr" v="134871" />
	</node>
	<node lat="63.14540000293781" lon="10.002238892658712" id="-35318">
		<tag k="name" v="Sørheim" />
		<tag k="place" v="farm" />
		<tag k="ssr:stedsnr" v="254068" />
	</node>
	<node lat="63.1453750036062" lon="10.114966665838146" id="-35319">
		<tag k="name" v="Bergsvika" />
		<tag k="place" v="farm" />
		<tag k="ssr:stedsnr" v="254070" />
	</node>
	<node lat="63.05388889216115" lon="10.091711105330045" id="-35320">
		<tag k="historic" v="shieling" />
		<tag k="loc_name" v="Ekkarvollen" />
		<tag k="name" v="Ekkervollen" />
		<tag k="place" v="isolated_dwelling" />
		<tag k="ssr:stedsnr" v="254575" />
	</node>
	<node lat="63.211536111536255" lon="10.252583332871325" id="-35322">
		<tag k="alt_name" v="Nygården" />
		<tag k="name" v="Nygarden" />
		<tag k="place" v="farm" />
		<tag k="ssr:stedsnr" v="254693" />
	</node>
	<node lat="63.11542777794112" lon="9.99516388749614" id="-35324">
		<tag k="alt_name" v="Brennås" />
		<tag k="name" v="Brennan" />
		<tag k="place" v="farm" />
		<tag k="ssr:stedsnr" v="255043" />
	</node>
	<node lat="63.16168055790063" lon="10.078999996158798" id="-35330">
		<tag k="alt_name" v="Gaustoåsen" />
		<tag k="name" v="Gaustadåsen" />
		<tag k="place" v="farm" />
		<tag k="ssr:stedsnr" v="255150" />
	</node>
	<node lat="63.202688888574556" lon="10.309205559300006" id="-35332">
		<tag k="alt_name" v="Øvre Bortn;Fautgarden;Fogdegården" />
		<tag k="name" v="Bortn" />
		<tag k="place" v="farm" />
		<tag k="ssr:stedsnr" v="255485" />
	</node>
	<node lat="63.094527777002405" lon="10.030458330584624" id="-35336">
		<tag k="alt_name" v="Renåsen" />
		<tag k="fixme" v="consider place=hamlet" />
		<tag k="name" v="Reinåsen" />
		<tag k="place" v="farm" />
		<tag k="ssr:stedsnr" v="255532" />
	</node>
	<node lat="63.08906111045767" lon="10.096174990643606" id="-35337">
		<tag k="fixme" v="multiple name tags, choose one and add the other to alt_name" />
		<tag k="name" v="Hallgutu;Bukleva" />
		<tag k="place" v="farm" />
		<tag k="ssr:stedsnr" v="255535" />
	</node>
	<node lat="63.16531944539296" lon="10.429088891046122" id="-35341">
		<tag k="historic" v="shieling" />
		<tag k="name" v="Kjellstadvollen" />
		<tag k="old_name" v="Kjelstadvollen" />
		<tag k="place" v="isolated_dwelling" />
		<tag k="ssr:stedsnr" v="255795" />
	</node>
	<node lat="63.270958336031725" lon="10.241424990150996" id="-35342">
		<tag k="alt_name" v="Brekkmo" />
		<tag k="name" v="Brekkmoen" />
		<tag k="place" v="farm" />
		<tag k="ssr:stedsnr" v="255798" />
	</node>
	<node lat="63.144069446468656" lon="10.263880554148304" id="-35344">
		<tag k="name" v="Horghåggån" />
		<tag k="old_name" v="Horghågån" />
		<tag k="place" v="farm" />
		<tag k="ssr:stedsnr" v="255893" />
	</node>
	<node lat="63.19691692818133" lon="10.286673589214827" id="-35345">
		<tag k="fixme" v="consider place=hamlet" />
		<tag k="name" v="Losa" />
		<tag k="place" v="farm" />
		<tag k="ssr:stedsnr" v="255830" />
	</node>
	<node lat="63.18502778131171" lon="10.344116664030883" id="-35346">
		<tag k="name" v="Dal" />
		<tag k="place" v="farm" />
		<tag k="ssr:stedsnr" v="255833" />
	</node>
	<node lat="63.1301833327777" lon="10.226361106948108" id="-35350">
		<tag k="fixme" v="consider place=hamlet" />
		<tag k="name" v="Nordtømme" />
		<tag k="place" v="farm" />
		<tag k="ssr:stedsnr" v="255844" />
	</node>
	<node lat="63.13398929058615" lon="10.280801435584477" id="-35352">
		<tag k="fixme" v="multiple name tags, choose one and add the other to alt_name" />
		<tag k="name" v="Brandegga;Lyngen" />
		<tag k="place" v="farm" />
		<tag k="ssr:stedsnr" v="255849" />
	</node>
	<node lat="63.06793888708839" lon="10.27500555424468" id="-35353">
		<tag k="alt_name" v="Mælen;Vindsmelen" />
		<tag k="name" v="Melen" />
		<tag k="place" v="farm" />
		<tag k="ssr:stedsnr" v="255924" />
	</node>
	<node lat="63.3306388888949" lon="10.227119441430812" id="-35355">
		<tag k="alt_name" v="Rønningen" />
		<tag k="name" v="Øy" />
		<tag k="place" v="farm" />
		<tag k="ssr:stedsnr" v="256145" />
	</node>
	<node lat="63.29799855295741" lon="10.287127491973738" id="-35356">
		<tag k="alt_name" v="Brubakken" />
		<tag k="name" v="Nordre Brubakken" />
		<tag k="place" v="farm" />
		<tag k="ssr:stedsnr" v="256782" />
	</node>
	<node lat="63.300821662180894" lon="10.267138806885823" id="-35357">
		<tag k="fixme" v="consider place=hamlet" />
		<tag k="name" v="Tislauan" />
		<tag k="place" v="farm" />
		<tag k="ssr:stedsnr" v="256795" />
	</node>
	<node lat="63.29916028480004" lon="10.2383673974374" id="-35358">
		<tag k="fixme" v="consider place=hamlet" />
		<tag k="name" v="Rønningen" />
		<tag k="place" v="farm" />
		<tag k="ssr:stedsnr" v="256797" />
	</node>
	<node lat="63.12716388532707" lon="10.265669439974316" id="-35361">
		<tag k="name" v="Plassen" />
		<tag k="place" v="farm" />
		<tag k="ssr:stedsnr" v="157947" />
	</node>
	<node lat="63.19864999839896" lon="10.372699992575829" id="-35369">
		<tag k="alt_name" v="Øvre Ekran" />
		<tag k="name" v="Langland" />
		<tag k="place" v="farm" />
		<tag k="ssr:stedsnr" v="158306" />
	</node>
	<node lat="63.22320555776436" lon="10.294811113337826" id="-35375">
		<tag k="name" v="Øyan" />
		<tag k="place" v="farm" />
		<tag k="ssr:stedsnr" v="158206" />
	</node>
	<node lat="63.09778611254816" lon="10.229438889386923" id="-35384">
		<tag k="name" v="Klevan" />
		<tag k="place" v="farm" />
		<tag k="ssr:stedsnr" v="158551" />
	</node>
	<node lat="63.093719448320215" lon="10.228716662150925" id="-35385">
		<tag k="name" v="Klevløkkja" />
		<tag k="place" v="farm" />
		<tag k="ssr:stedsnr" v="158552" />
	</node>
	<node lat="63.10227221852442" lon="9.99384444622836" id="-35387">
		<tag k="name" v="Bjørtjørnåshaugen" />
		<tag k="place" v="farm" />
		<tag k="ssr:stedsnr" v="158561" />
	</node>
	<node lat="63.26318055627082" lon="10.20439723017494" id="-35392">
		<tag k="name" v="Garden" />
		<tag k="place" v="farm" />
		<tag k="ssr:stedsnr" v="158705" />
	</node>
	<node lat="63.30879721950034" lon="10.26640833913662" id="-35395">
		<tag k="name" v="Megarden" />
		<tag k="place" v="farm" />
		<tag k="ssr:stedsnr" v="158718" />
	</node>
	<node lat="63.07397777653564" lon="10.17857777579735" id="-35398">
		<tag k="historic" v="shieling" />
		<tag k="name" v="Innistuvollen" />
		<tag k="place" v="isolated_dwelling" />
		<tag k="ssr:stedsnr" v="158613" />
	</node>
	<node lat="63.099080557998604" lon="10.127394447575133" id="-35401">
		<tag k="name" v="Nygarden" />
		<tag k="place" v="farm" />
		<tag k="ssr:stedsnr" v="158620" />
	</node>
	<node lat="63.19521111385208" lon="10.288322230450303" id="-35405">
		<tag k="name" v="Losamelen" />
		<tag k="place" v="farm" />
		<tag k="ssr:stedsnr" v="158662" />
	</node>
	<node lat="63.17448610915044" lon="10.122733342312582" id="-35406">
		<tag k="name" v="Eidslia" />
		<tag k="place" v="farm" />
		<tag k="ssr:stedsnr" v="158670" />
	</node>
	<node lat="63.06854722358509" lon="9.983827780670167" id="-35412">
		<tag k="name" v="Tjørnenget" />
		<tag k="place" v="isolated_dwelling" />
		<tag k="ssr:stedsnr" v="158905" />
	</node>
	<node lat="63.080155174317866" lon="10.24194218350469" id="-35413">
		<tag k="name" v="Kalvhåggån" />
		<tag k="place" v="farm" />
		<tag k="ssr:stedsnr" v="158909" />
	</node>
	<node lat="63.14379722073267" lon="10.334941659231731" id="-35416">
		<tag k="name" v="Småaunlykkja" />
		<tag k="place" v="farm" />
		<tag k="ssr:stedsnr" v="158955" />
	</node>
	<node lat="63.10433889062313" lon="10.16216388032298" id="-35421">
		<tag k="leisure" v="pitch" />
		<tag k="loc_name" v="Kvennabakken skianlegg" />
		<tag k="name" v="Kvennabakkan skianlegg" />
		<tag k="ssr:stedsnr" v="163417" />
	</node>
	<node lat="63.17302777891793" lon="10.303116662411462" id="-35422">
		<tag k="alt_name" v="Helgamo" />
		<tag k="name" v="Helgemo" />
		<tag k="place" v="farm" />
		<tag k="ssr:stedsnr" v="181402" />
	</node>
	<node lat="63.17715000293137" lon="10.049822216316437" id="-35423">
		<tag k="fixme" v="consider place=hamlet" />
		<tag k="name" v="Restad" />
		<tag k="place" v="farm" />
		<tag k="ssr:stedsnr" v="181415" />
	</node>
	<node lat="63.1443777781809" lon="10.329455560729453" id="-35424">
		<tag k="name" v="Lundarønningen" />
		<tag k="place" v="farm" />
		<tag k="ssr:stedsnr" v="181760" />
	</node>
	<node lat="63.2441925757819" lon="10.254624385208249" id="-35425">
		<tag k="fixme" v="consider place=hamlet" />
		<tag k="name" v="Kregnes" />
		<tag k="place" v="farm" />
		<tag k="ssr:stedsnr" v="181910" />
	</node>
	<node lat="63.26064653424214" lon="10.230112989056156" id="-35426">
		<tag k="fixme" v="consider place=hamlet" />
		<tag k="name" v="Holem" />
		<tag k="place" v="farm" />
		<tag k="ssr:stedsnr" v="181931" />
	</node>
	<node lat="63.21643215986061" lon="10.274812198303314" id="-35427">
		<tag k="fixme" v="consider place=hamlet" />
		<tag k="name" v="Klepp" />
		<tag k="place" v="farm" />
		<tag k="ssr:stedsnr" v="181857" />
	</node>
	<node lat="63.078491670656554" lon="10.046386114839772" id="-35428">
		<tag k="fixme" v="consider place=hamlet" />
		<tag k="name" v="Bolet" />
		<tag k="old_name" v="Bjørkli" />
		<tag k="place" v="farm" />
		<tag k="ssr:stedsnr" v="182439" />
	</node>
	<node lat="63.12490832988189" lon="10.219263879023131" id="-35429">
		<tag k="name" v="Midttømme" />
		<tag k="place" v="hamlet" />
		<tag k="ssr:stedsnr" v="182445" />
	</node>
	<node lat="63.245480552264596" lon="10.272391670340234" id="-35430">
		<tag k="fixme" v="consider place=hamlet" />
		<tag k="name" v="Skjerdingstad" />
		<tag k="place" v="farm" />
		<tag k="ssr:stedsnr" v="182826" />
	</node>
	<node lat="63.19929804791854" lon="10.285762722111972" id="-35431">
		<tag k="name" v="Losa" />
		<tag k="place" v="farm" />
		<tag k="ssr:stedsnr" v="182829" />
	</node>
	<node lat="63.19882269038864" lon="10.300863771193466" id="-35432">
		<tag k="fixme" v="consider place=suburb, village or hamlet" />
		<tag k="name" v="Ler" />
		<tag k="place" v="quarter" />
		<tag k="ssr:stedsnr" v="263464" />
	</node>
	<node lat="63.22870585083835" lon="10.242975455940416" id="-35435">
		<tag k="alt_name" v="Rofstad nedre;Nedre Rofstad" />
		<tag k="name" v="Rofstad" />
		<tag k="place" v="farm" />
		<tag k="ssr:stedsnr" v="195729" />
	</node>
	<node lat="63.22283888598783" lon="10.279633326827986" id="-35436">
		<tag k="alt_name" v="Kåsehagen;Koshåggån" />
		<tag k="name" v="Kåsahåggån" />
		<tag k="place" v="farm" />
		<tag k="ssr:stedsnr" v="195732" />
	</node>
	<node lat="63.31490769188954" lon="10.35124384812954" id="-35437">
		<tag k="fixme" v="multiple name tags, choose one and add the other to alt_name" />
		<tag k="name" v="Øvre Stokkan;Stokkan" />
		<tag k="place" v="farm" />
		<tag k="ssr:stedsnr" v="195878" />
	</node>
	<node lat="63.31233364813506" lon="10.354620229585416" id="-35438">
		<tag k="fixme" v="consider place=hamlet" />
		<tag k="name" v="Rødde" />
		<tag k="place" v="farm" />
		<tag k="ssr:stedsnr" v="195879" />
	</node>
	<node lat="63.3156333332738" lon="10.34541111423841" id="-35439">
		<tag k="fixme" v="multiple name tags, choose one and add the other to alt_name" />
		<tag k="name" v="Midtre Stokkan;Stokkan" />
		<tag k="place" v="farm" />
		<tag k="ssr:stedsnr" v="195880" />
	</node>
	<node lat="63.317855557827876" lon="10.234583326646973" id="-35440">
		<tag k="name" v="Klungen" />
		<tag k="place" v="farm" />
		<tag k="ssr:stedsnr" v="195886" />
	</node>
	<node lat="63.21908333072205" lon="10.436758343134658" id="-35454">
		<tag k="historic" v="shieling" />
		<tag k="name" v="Bjørga" />
		<tag k="place" v="isolated_dwelling" />
		<tag k="ssr:stedsnr" v="219310" />
	</node>
	<node lat="63.193736110822165" lon="10.349791660614232" id="-35459">
		<tag k="name" v="Dalshaugen" />
		<tag k="place" v="farm" />
		<tag k="ssr:stedsnr" v="219275" />
	</node>
	<node lat="63.187108331275525" lon="10.35071111232511" id="-35460">
		<tag k="name" v="Nord-Aune" />
		<tag k="place" v="farm" />
		<tag k="ssr:stedsnr" v="219292" />
	</node>
	<node lat="63.109400004469684" lon="10.203252773170927" id="-35462">
		<tag k="name" v="Moaløkkja" />
		<tag k="place" v="farm" />
		<tag k="ssr:stedsnr" v="219525" />
	</node>
	<node lat="63.10228889075164" lon="10.049952780201727" id="-35463">
		<tag k="name" v="Teigen" />
		<tag k="place" v="farm" />
		<tag k="ssr:stedsnr" v="219573" />
	</node>
	<node lat="63.04690013396669" lon="10.02830877006098" id="-35467">
		<tag k="alt_name" v="Rafsamovollen" />
		<tag k="historic" v="shieling" />
		<tag k="name" v="Nedgardsvollen" />
		<tag k="place" v="isolated_dwelling" />
		<tag k="ssr:stedsnr" v="219707" />
	</node>
	<node lat="63.2521305538419" lon="10.1817222317523" id="-35472">
		<tag k="name" v="Litlmarka" />
		<tag k="place" v="farm" />
		<tag k="ssr:stedsnr" v="219682" />
	</node>
	<node lat="63.171158333333565" lon="10.11603333863261" id="-35473">
		<tag k="name" v="Eidshaugan" />
		<tag k="place" v="farm" />
		<tag k="ssr:stedsnr" v="219691" />
	</node>
	<node lat="63.16965833536468" lon="10.275980547026657" id="-35479">
		<tag k="name" v="Leberg" />
		<tag k="place" v="farm" />
		<tag k="ssr:stedsnr" v="219978" />
	</node>
	<node lat="63.10633093646819" lon="10.209638620584133" id="-35487">
		<tag k="name" v="Gaudalen" />
		<tag k="place" v="quarter" />
		<tag k="ssr:stedsnr" v="222510" />
	</node>
	<node lat="63.21004167088797" lon="10.307847225427011" id="-35489">
		<tag k="name" v="Nyhus" />
		<tag k="place" v="farm" />
		<tag k="ssr:stedsnr" v="242081" />
	</node>
	<node lat="63.11356666544366" lon="10.022116670665932" id="-35490">
		<tag k="name" v="Krokstad" />
		<tag k="place" v="hamlet" />
		<tag k="ssr:stedsnr" v="242096" />
	</node>
	<node lat="63.126591668426336" lon="9.978711118187771" id="-35491">
		<tag k="fixme" v="consider place=hamlet" />
		<tag k="name" v="Trotland" />
		<tag k="place" v="farm" />
		<tag k="ssr:stedsnr" v="242377" />
	</node>
	<node lat="63.128094446355924" lon="9.928188892802085" id="-35496">
		<tag k="name" v="Sjøstrand" />
		<tag k="place" v="farm" />
		<tag k="ssr:stedsnr" v="255073" />
	</node>
	<node lat="63.25286111268098" lon="10.238638889253577" id="-35497">
		<tag k="name" v="Sørlia" />
		<tag k="place" v="isolated_dwelling" />
		<tag k="ssr:stedsnr" v="255210" />
	</node>
	<node lat="63.21460277633163" lon="10.374291671499519" id="-35501">
		<tag k="alt_name" v="Bølandåsen" />
		<tag k="name" v="Bølandsåsen" />
		<tag k="place" v="farm" />
		<tag k="ssr:stedsnr" v="255710" />
	</node>
	<node lat="63.21254444721666" lon="10.379919448274865" id="-35502">
		<tag k="name" v="Bølandsmoen" />
		<tag k="place" v="farm" />
		<tag k="ssr:stedsnr" v="255712" />
	</node>
	<node lat="63.20948055276952" lon="10.366388893111278" id="-35503">
		<tag k="alt_name" v="Fremostuggu" />
		<tag k="name" v="Flatmo" />
		<tag k="place" v="farm" />
		<tag k="ssr:stedsnr" v="255716" />
	</node>
	<node lat="63.20911111391441" lon="10.307666670281645" id="-35504">
		<tag k="fixme" v="consider place=hamlet" />
		<tag k="name" v="Nyhus" />
		<tag k="place" v="farm" />
		<tag k="ssr:stedsnr" v="255720" />
	</node>
	<node lat="63.30498002804463" lon="10.287818333595837" id="-35506">
		<tag k="name" v="Søre Jaktøya" />
		<tag k="place" v="farm" />
		<tag k="ssr:stedsnr" v="255863" />
	</node>
	<node lat="63.30369323251421" lon="10.290508417236033" id="-35507">
		<tag k="alt_name" v="Rate" />
		<tag k="fixme" v="consider place=hamlet" />
		<tag k="name" v="Ratet" />
		<tag k="place" v="farm" />
		<tag k="ssr:stedsnr" v="255875" />
	</node>
	<node lat="63.31071294988549" lon="10.285848320231963" id="-35511">
		<tag k="fixme" v="consider place=hamlet" />
		<tag k="name" v="Jaktøya" />
		<tag k="place" v="farm" />
		<tag k="ssr:stedsnr" v="456427" />
	</node>
	<node lat="63.29348519034613" lon="10.2295743646698" id="-35512">
		<tag k="fixme" v="consider place=hamlet" />
		<tag k="name" v="Langørjan" />
		<tag k="place" v="farm" />
		<tag k="ssr:stedsnr" v="256766" />
	</node>
	<node lat="63.32295000246403" lon="10.256583335046624" id="-35513">
		<tag k="name" v="Udduvollen" />
		<tag k="place" v="farm" />
		<tag k="ssr:stedsnr" v="256873" />
	</node>
	<node lat="63.200466665495775" lon="10.368722222345793" id="-35521">
		<tag k="name" v="Ekran" />
		<tag k="place" v="farm" />
		<tag k="ssr:stedsnr" v="279296" />
	</node>
	<node lat="63.13609999678719" lon="10.147297230017596" id="-35528">
		<tag k="name" v="Vennagjerdet" />
		<tag k="place" v="isolated_dwelling" />
		<tag k="ssr:stedsnr" v="279515" />
	</node>
	<node lat="63.10063055450104" lon="10.254880564898272" id="-35529">
		<tag k="alt_name" v="Vollaaune" />
		<tag k="name" v="Vollaaunet" />
		<tag k="place" v="farm" />
		<tag k="ssr:stedsnr" v="279525" />
	</node>
	<node lat="63.10864166311508" lon="10.211644439976244" id="-35532">
		<tag k="name" v="Moen" />
		<tag k="place" v="farm" />
		<tag k="ssr:stedsnr" v="279970" />
	</node>
	<node lat="63.28854444095461" lon="10.262999991364193" id="-35539">
		<tag k="name" v="Gimsøya" />
		<tag k="place" v="farm" />
		<tag k="ssr:stedsnr" v="280703" />
	</node>
	<node lat="63.29693333484781" lon="10.251980550358631" id="-35542">
		<tag k="name" v="Blekestrøa" />
		<tag k="place" v="farm" />
		<tag k="ssr:stedsnr" v="280709" />
	</node>
	<node lat="63.140461107361205" lon="9.974088887051526" id="-35543">
		<tag k="name" v="Rønningen" />
		<tag k="place" v="farm" />
		<tag k="ssr:stedsnr" v="280617" />
	</node>
	<node lat="63.222370178663965" lon="10.30543082341636" id="-35554">
		<tag k="fixme" v="consider place=hamlet" />
		<tag k="name" v="Nordflå" />
		<tag k="place" v="farm" />
		<tag k="ssr:stedsnr" v="280903" />
	</node>
	<node lat="63.14394722334235" lon="9.987286120775872" id="-35555">
		<tag k="alt_name" v="Blokkum" />
		<tag k="loc_name" v="Nistuggu" />
		<tag k="name" v="Blokken" />
		<tag k="place" v="farm" />
		<tag k="ssr:stedsnr" v="280908" />
	</node>
	<node lat="63.06725258336078" lon="10.232300118779332" id="-35556">
		<tag k="historic" v="shieling" />
		<tag k="name" v="Flottan" />
		<tag k="place" v="isolated_dwelling" />
		<tag k="ssr:stedsnr" v="280914" />
	</node>
	<node lat="63.16308055242643" lon="10.301463897215804" id="-35559">
		<tag k="name" v="Innistuggu" />
		<tag k="place" v="farm" />
		<tag k="ssr:stedsnr" v="280971" />
	</node>
	<node lat="63.301238888777306" lon="10.284447232046832" id="-35561">
		<tag k="name" v="Brubakkhaugen" />
		<tag k="place" v="quarter" />
		<tag k="ssr:stedsnr" v="283515" />
	</node>
	<node lat="63.3263888867126" lon="10.213941674025326" id="-35562">
		<tag k="name" v="Øysand industriområde" />
		<tag k="place" v="quarter" />
		<tag k="ssr:stedsnr" v="283519" />
	</node>
	<node lat="63.26003227264848" lon="10.231680084292924" id="-35564">
		<tag k="name" v="Holem" />
		<tag k="place" v="farm" />
		<tag k="ssr:stedsnr" v="285082" />
	</node>
	<node lat="63.1195416625225" lon="9.95134167619165" id="-35573">
		<tag k="name" v="Nersvartåsen" />
		<tag k="place" v="locality" />
		<tag k="ssr:stedsnr" v="461313" />
	</node>
	<node lat="63.275711114884366" lon="10.256152779154032" id="-35577">
		<tag k="name" v="Gimskleva" />
		<tag k="place" v="farm" />
		<tag k="ssr:stedsnr" v="461282" />
	</node>
	<node lat="63.14257777354417" lon="10.262769444382439" id="-35591">
		<tag k="name" v="Husan" />
		<tag k="place" v="farm" />
		<tag k="ssr:stedsnr" v="461947" />
	</node>
	<node lat="63.1835916653227" lon="10.323008333651606" id="-35594">
		<tag k="name" v="Eggahaugen" />
		<tag k="place" v="farm" />
		<tag k="ssr:stedsnr" v="462034" />
	</node>
	<node lat="63.12808610873471" lon="10.088069444562112" id="-35608">
		<tag k="alt_name" v="Sundsetmoen" />
		<tag k="name" v="Sunnsetmoen" />
		<tag k="place" v="farm" />
		<tag k="ssr:stedsnr" v="462514" />
	</node>
	<node lat="63.12590556169454" lon="9.981841922216752" id="-35609">
		<tag k="fixme" v="multiple name tags, choose one and add the other to alt_name" />
		<tag k="name" v="Trotlandsgjerdet;Trotland" />
		<tag k="place" v="farm" />
		<tag k="ssr:stedsnr" v="462601" />
	</node>
	<node lat="63.18174999804437" lon="10.121966674234097" id="-35611">
		<tag k="name" v="Eidsrønningen" />
		<tag k="place" v="farm" />
		<tag k="ssr:stedsnr" v="462661" />
	</node>
	<node lat="63.206727780357966" lon="10.278191660395734" id="-35615">
		<tag k="name" v="Hogsegga" />
		<tag k="place" v="farm" />
		<tag k="ssr:stedsnr" v="462649" />
	</node>
	<node lat="63.278861115428" lon="10.261361110682985" id="-35617">
		<tag k="name" v="Gimslia" />
		<tag k="place" v="farm" />
		<tag k="ssr:stedsnr" v="462686" />
	</node>
	<node lat="63.10660277416362" lon="10.226100003401548" id="-35625">
		<tag k="amenity" v="school" />
		<tag k="name" v="Hovin skole" />
		<tag k="ssr:stedsnr" v="462847" />
	</node>
	<node lat="63.176141669861615" lon="10.283227774117135" id="-35628">
		<tag k="fixme" v="consider place=hamlet" />
		<tag k="name" v="Leberg" />
		<tag k="place" v="farm" />
		<tag k="ssr:stedsnr" v="462894" />
	</node>
	<node lat="63.20390555513616" lon="10.318299993213179" id="-35629">
		<tag k="name" v="Bortn" />
		<tag k="place" v="farm" />
		<tag k="ssr:stedsnr" v="462901" />
	</node>
	<node lat="63.16499444406162" lon="10.303063881883297" id="-35630">
		<tag k="name" v="Nordstuggu" />
		<tag k="place" v="farm" />
		<tag k="ssr:stedsnr" v="462998" />
	</node>
	<node lat="63.19171944718714" lon="10.36638889886396" id="-35631">
		<tag k="name" v="Bybotslykkja" />
		<tag k="place" v="farm" />
		<tag k="ssr:stedsnr" v="463229" />
	</node>
	<node lat="63.289455558525404" lon="10.267369447462551" id="-35632">
		<tag k="amenity" v="kindergarten" />
		<tag k="name" v="Strandvegen barnehage" />
		<tag k="ssr:stedsnr" v="298612" />
	</node>
	<node lat="63.29099166301252" lon="10.268094451683877" id="-35633">
		<tag k="name" v="Gimsøya" />
		<tag k="place" v="quarter" />
		<tag k="ssr:stedsnr" v="298988" />
	</node>
	<node lat="63.30229166348983" lon="10.272202782308725" id="-35634">
		<tag k="name" v="Tislauan" />
		<tag k="place" v="farm" />
		<tag k="ssr:stedsnr" v="464234" />
	</node>
	<node lat="63.137652778009695" lon="10.078708324869412" id="-35635">
		<tag k="name" v="Almås" />
		<tag k="place" v="farm" />
		<tag k="ssr:stedsnr" v="303106" />
	</node>
	<node lat="63.114441664291995" lon="10.017886102698558" id="-35636">
		<tag k="fixme" v="consider place=hamlet" />
		<tag k="name" v="Krokstad" />
		<tag k="place" v="farm" />
		<tag k="ssr:stedsnr" v="303113" />
	</node>
	<node lat="63.18169166214853" lon="10.29750834158761" id="-35637">
		<tag k="alt_name" v="Leberg, nedre;Nedre Leberg;Nerleberg" />
		<tag k="fixme" v="consider place=hamlet" />
		<tag k="name" v="Leberg" />
		<tag k="place" v="farm" />
		<tag k="ssr:stedsnr" v="303500" />
	</node>
	<node lat="63.275558557716714" lon="10.289243063047094" id="-35638">
		<tag k="name" v="Melhus" />
		<tag k="place" v="hamlet" />
		<tag k="ssr:stedsnr" v="303820" />
	</node>
	<node lat="63.20258409553899" lon="10.281892656629335" id="-35639">
		<tag k="name" v="Losa" />
		<tag k="place" v="hamlet" />
		<tag k="ssr:stedsnr" v="303833" />
	</node>
	<node lat="63.21078752890218" lon="10.27638006985618" id="-35640">
		<tag k="name" v="Eidsmo" />
		<tag k="place" v="farm" />
		<tag k="ssr:stedsnr" v="303834" />
	</node>
	<node lat="63.20451389178292" lon="10.303761119805847" id="-35641">
		<tag k="name" v="Bortn" />
		<tag k="place" v="farm" />
		<tag k="ssr:stedsnr" v="465152" />
	</node>
	<node lat="63.15206388653148" lon="10.29721665917245" id="-35642">
		<tag k="name" v="Løkkjbakken" />
		<tag k="place" v="quarter" />
		<tag k="ssr:stedsnr" v="465556" />
	</node>
	<node lat="63.190163891583175" lon="10.306513889584291" id="-35643">
		<tag k="name" v="Korea" />
		<tag k="place" v="quarter" />
		<tag k="ssr:stedsnr" v="465548" />
	</node>
	<node lat="63.2686638860061" lon="10.287583336693656" id="-35644">
		<tag k="name" v="Teigen industriområde" />
		<tag k="place" v="quarter" />
		<tag k="ssr:stedsnr" v="465567" />
	</node>
	<node lat="63.27680000085374" lon="10.254036109459602" id="-35645">
		<tag k="name" v="Olastubakken" />
		<tag k="place" v="quarter" />
		<tag k="ssr:stedsnr" v="465570" />
	</node>
	<node lat="63.126777773761404" lon="10.06479999355414" id="-35647">
		<tag k="name" v="Sunnsethaugen" />
		<tag k="place" v="farm" />
		<tag k="ssr:stedsnr" v="315056" />
	</node>
	<node lat="63.12882500006165" lon="10.050755556122358" id="-35648">
		<tag k="name" v="Bergheim" />
		<tag k="place" v="farm" />
		<tag k="ssr:stedsnr" v="315058" />
	</node>
	<node lat="63.21894683636925" lon="10.421410886448342" id="-35652">
		<tag k="alt_name" v="Moen" />
		<tag k="name" v="Lersmoen" />
		<tag k="place" v="farm" />
		<tag k="ssr:stedsnr" v="315715" />
	</node>
	<node lat="63.21298055446358" lon="10.32565832668608" id="-35654">
		<tag k="alt_name" v="Kirkflå" />
		<tag k="fixme" v="consider place=hamlet" />
		<tag k="name" v="Kjørkflå" />
		<tag k="place" v="farm" />
		<tag k="ssr:stedsnr" v="315719" />
	</node>
	<node lat="63.242200000631065" lon="10.22525555269592" id="-35655">
		<tag k="name" v="Mostien" />
		<tag k="place" v="farm" />
		<tag k="ssr:stedsnr" v="315609" />
	</node>
	<node lat="63.26150555579586" lon="10.342413879614826" id="-35658">
		<tag k="fixme" v="consider tourism=alpine_hut or tourism=chalet" />
		<tag k="name" v="Vassfjellhytta" />
		<tag k="ssr:stedsnr" v="316205" />
		<tag k="tourism" v="wilderness_hut" />
	</node>
	<node lat="63.068813885003294" lon="10.061850002435737" id="-35660">
		<tag k="historic" v="shieling" />
		<tag k="name" v="Evjevollan" />
		<tag k="place" v="isolated_dwelling" />
		<tag k="ssr:stedsnr" v="316660" />
	</node>
	<node lat="63.22049139776842" lon="10.271876582869524" id="-35664">
		<tag k="fixme" v="consider place=hamlet" />
		<tag k="name" v="Egga" />
		<tag k="place" v="farm" />
		<tag k="ssr:stedsnr" v="316546" />
	</node>
	<node lat="63.26072777717106" lon="10.216308335852192" id="-35665">
		<tag k="name" v="Lete" />
		<tag k="place" v="farm" />
		<tag k="ssr:stedsnr" v="339251" />
	</node>
	<node lat="63.06839722122429" lon="10.273955556936123" id="-35673">
		<tag k="fixme" v="consider place=hamlet" />
		<tag k="name" v="Krokstadsanden" />
		<tag k="place" v="farm" />
		<tag k="ssr:stedsnr" v="340519" />
	</node>
	<node lat="63.10267221884982" lon="10.218266669784086" id="-35675">
		<tag k="name" v="Bortistuggu" />
		<tag k="place" v="farm" />
		<tag k="ssr:stedsnr" v="340545" />
	</node>
	<node lat="63.17843888986468" lon="10.353186119021418" id="-35678">
		<tag k="name" v="Nylykkja" />
		<tag k="place" v="farm" />
		<tag k="ssr:stedsnr" v="340300" />
	</node>
	<node lat="63.139566665406754" lon="9.971036102843328" id="-35685">
		<tag k="name" v="Konstadgjerdet" />
		<tag k="place" v="farm" />
		<tag k="ssr:stedsnr" v="340605" />
	</node>
	<node lat="63.2254361077341" lon="10.25899166512775" id="-35688">
		<tag k="name" v="Langegga" />
		<tag k="place" v="farm" />
		<tag k="ssr:stedsnr" v="340746" />
	</node>
	<node lat="63.26401666473292" lon="10.288391660536433" id="-35691">
		<tag k="fixme" v="consider place=suburb, village or hamlet" />
		<tag k="name" v="Søberg" />
		<tag k="place" v="quarter" />
		<tag k="ssr:stedsnr" v="340761" />
	</node>
	<node lat="63.115605552309255" lon="10.235555557829285" id="-35701">
		<tag k="fixme" v="consider place=hamlet" />
		<tag k="name" v="Rønningen" />
		<tag k="place" v="farm" />
		<tag k="ssr:stedsnr" v="340959" />
	</node>
	<node lat="63.28170277393669" lon="10.258166660925024" id="-35704">
		<tag k="name" v="Monsstuggu" />
		<tag k="place" v="farm" />
		<tag k="ssr:stedsnr" v="340695" />
	</node>
	<node lat="63.1089888882917" lon="10.235383342279555" id="-35710">
		<tag k="name" v="Fossgrenda" />
		<tag k="place" v="hamlet" />
		<tag k="ssr:stedsnr" v="340849" />
	</node>
	<node lat="63.285383335820896" lon="10.266055563566548" id="-35712">
		<tag k="amenity" v="kindergarten" />
		<tag k="name" v="Elvebakken Montessoribarnehage" />
		<tag k="ssr:stedsnr" v="358656" />
	</node>
	<node lat="63.285354868971524" lon="10.285068077087141" id="-35713">
		<tag k="amenity" v="nursing_home" />
		<tag k="name" v="Lenalia avlastnings- og aktivitetssenter" />
		<tag k="ssr:stedsnr" v="358672" />
	</node>
	<node lat="63.30069478756145" lon="10.325262818511279" id="-35714">
		<tag k="name" v="Vollen" />
		<tag k="place" v="farm" />
		<tag k="ssr:stedsnr" v="363756" />
	</node>
	<node lat="63.30608294425835" lon="10.348282356567465" id="-35715">
		<tag k="fixme" v="consider place=hamlet" />
		<tag k="name" v="Nedre Havdal" />
		<tag k="place" v="farm" />
		<tag k="ssr:stedsnr" v="363770" />
	</node>
	<node lat="63.24700293091372" lon="10.268949129702197" id="-35716">
		<tag k="name" v="Skjerdingstad" />
		<tag k="place" v="hamlet" />
		<tag k="ssr:stedsnr" v="363807" />
	</node>
	<node lat="63.22203333691519" lon="10.248202779452823" id="-35718">
		<tag k="name" v="Stensås" />
		<tag k="place" v="farm" />
		<tag k="ssr:stedsnr" v="363858" />
	</node>
	<node lat="63.103175003211234" lon="9.979505548038347" id="-35720">
		<tag k="name" v="Skogstad" />
		<tag k="place" v="farm" />
		<tag k="ssr:stedsnr" v="376012" />
	</node>
	<node lat="63.187500000965315" lon="10.066175008971815" id="-35721">
		<tag k="name" v="Gurivasslykkja" />
		<tag k="place" v="farm" />
		<tag k="ssr:stedsnr" v="376177" />
	</node>
	<node lat="63.133855557894535" lon="10.077774998167499" id="-35722">
		<tag k="fixme" v="consider place=hamlet" />
		<tag k="name" v="Almås" />
		<tag k="place" v="farm" />
		<tag k="ssr:stedsnr" v="376073" />
	</node>
	<node lat="63.14095833244623" lon="9.957094445085557" id="-35723">
		<tag k="name" v="Konstadlykkja" />
		<tag k="place" v="farm" />
		<tag k="ssr:stedsnr" v="376082" />
	</node>
	<node lat="63.172750215028685" lon="10.284174581602354" id="-35725">
		<tag k="fixme" v="multiple name tags, choose one and add the other to alt_name" />
		<tag k="name" v="Leberg;Flotten" />
		<tag k="place" v="farm" />
		<tag k="ssr:stedsnr" v="376503" />
	</node>
	<node lat="63.08255833559866" lon="10.066688891686335" id="-35727">
		<tag k="alt_name" v="Innlegget" />
		<tag k="name" v="Lauvåsen" />
		<tag k="place" v="farm" />
		<tag k="ssr:stedsnr" v="376527" />
	</node>
	<node lat="63.160081560303844" lon="10.102294296397538" id="-35728">
		<tag k="alt_name" v="Hølonda helsestasjon" />
		<tag k="amenity" v="nursing_home" />
		<tag k="name" v="Korsvegen legekontor" />
		<tag k="ssr:stedsnr" v="480700" />
	</node>
	<node lat="63.27460278082939" lon="10.240386112831944" id="-35729">
		<tag k="amenity" v="kindergarten" />
		<tag k="name" v="Kosekroken barnehage" />
		<tag k="ssr:stedsnr" v="480648" />
	</node>
	<node lat="63.272188889970096" lon="10.251583328618803" id="-35730">
		<tag k="amenity" v="kindergarten" />
		<tag k="name" v="Tambartun barnehage" />
		<tag k="ssr:stedsnr" v="480649" />
	</node>
	<node lat="63.07220555825287" lon="10.272663885494566" id="-35740">
		<tag k="name" v="Sørsveet" />
		<tag k="place" v="farm" />
		<tag k="ssr:stedsnr" v="400506" />
	</node>
	<node lat="63.09477500234302" lon="10.306072215940876" id="-35743">
		<tag k="historic" v="shieling" />
		<tag k="name" v="Teigavollen" />
		<tag k="place" v="isolated_dwelling" />
		<tag k="ssr:stedsnr" v="400533" />
	</node>
	<node lat="63.05569722286736" lon="10.099213892920341" id="-35744">
		<tag k="historic" v="shieling" />
		<tag k="name" v="Bortistugguvollen" />
		<tag k="place" v="isolated_dwelling" />
		<tag k="ssr:stedsnr" v="400605" />
	</node>
	<node lat="63.29591944044529" lon="10.273969443059373" id="-35755">
		<tag k="name" v="Øran" />
		<tag k="place" v="locality" />
		<tag k="ssr:stedsnr" v="401188" />
	</node>
	<node lat="63.10512012166289" lon="10.209828773520655" id="-35761">
		<tag k="name" v="Brustuggu" />
		<tag k="place" v="farm" />
		<tag k="ssr:stedsnr" v="401511" />
	</node>
	<node lat="63.11930833049905" lon="10.025661113183984" id="-35762">
		<tag k="name" v="Åsheim" />
		<tag k="place" v="farm" />
		<tag k="ssr:stedsnr" v="401586" />
	</node>
	<node lat="63.237516667180145" lon="10.241366659892176" id="-35770">
		<tag k="alt_name" v="Kregnesmo" />
		<tag k="name" v="Kregnesmoen" />
		<tag k="place" v="farm" />
		<tag k="ssr:stedsnr" v="401630" />
	</node>
	<node lat="63.19582221886779" lon="10.306252771852117" id="-35771">
		<tag k="fixme" v="consider place=hamlet" />
		<tag k="name" v="Lersbakken" />
		<tag k="place" v="farm" />
		<tag k="ssr:stedsnr" v="401635" />
	</node>
	<node lat="63.28994444175665" lon="10.265711111813335" id="-35772">
		<tag k="name" v="Vonheim" />
		<tag k="place" v="isolated_dwelling" />
		<tag k="ssr:stedsnr" v="401689" />
	</node>
	<node lat="63.28318055854554" lon="10.257186117502268" id="-35773">
		<tag k="name" v="Kolbanstuggu" />
		<tag k="place" v="farm" />
		<tag k="ssr:stedsnr" v="401692" />
	</node>
	<node lat="63.1855666676939" lon="10.351733337781416" id="-35787">
		<tag k="fixme" v="consider place=hamlet" />
		<tag k="name" v="Aune" />
		<tag k="place" v="farm" />
		<tag k="ssr:stedsnr" v="485085" />
	</node>
	<node lat="63.16963888654044" lon="10.162413893990045" id="-35788">
		<tag k="fixme" v="consider place=hamlet" />
		<tag k="name" v="Skjeggstad" />
		<tag k="place" v="farm" />
		<tag k="ssr:stedsnr" v="485090" />
	</node>
	<node lat="63.11001335913552" lon="10.214141915808131" id="-35790">
		<tag k="fixme" v="consider place=hamlet" />
		<tag k="name" v="Moan" />
		<tag k="place" v="farm" />
		<tag k="ssr:stedsnr" v="485387" />
	</node>
	<node lat="63.088722221913535" lon="10.089511119476901" id="-35791">
		<tag k="fixme" v="consider place=hamlet" />
		<tag k="name" v="Bukleva" />
		<tag k="place" v="farm" />
		<tag k="ssr:stedsnr" v="485388" />
	</node>
	<node lat="63.15313888522546" lon="10.011480546793603" id="-35792">
		<tag k="name" v="Kolbrandstad" />
		<tag k="place" v="hamlet" />
		<tag k="ssr:stedsnr" v="485335" />
	</node>
	<node lat="63.09111949581054" lon="10.253708614241644" id="-35793">
		<tag k="name" v="Gyllan" />
		<tag k="place" v="hamlet" />
		<tag k="ssr:stedsnr" v="485353" />
	</node>
	<node lat="63.13719722292429" lon="10.319644438005339" id="-35795">
		<tag k="name" v="Samdal" />
		<tag k="place" v="farm" />
		<tag k="ssr:stedsnr" v="403239" />
	</node>
	<node lat="63.30005821019715" lon="10.311129010487857" id="-35796">
		<tag k="name" v="Haugen" />
		<tag k="place" v="farm" />
		<tag k="ssr:stedsnr" v="485772" />
	</node>
	<node lat="63.312395884357095" lon="10.353920668844944" id="-35797">
		<tag k="name" v="Rødde" />
		<tag k="place" v="farm" />
		<tag k="ssr:stedsnr" v="485783" />
	</node>
	<node lat="63.278336614273904" lon="10.260592803308233" id="-35798">
		<tag k="fixme" v="consider place=hamlet" />
		<tag k="name" v="Gimsan" />
		<tag k="place" v="farm" />
		<tag k="ssr:stedsnr" v="485978" />
	</node>
	<node lat="63.236511112957864" lon="10.27549999823062" id="-35799">
		<tag k="amenity" v="school" />
		<tag k="name" v="Øya videregående skole" />
		<tag k="ssr:stedsnr" v="406004" />
	</node>
	<node lat="63.14263888916891" lon="10.104963885947162" id="-35800">
		<tag k="building" v="industrial" />
		<tag k="name" v="Hølonda miljøstasjon" />
		<tag k="ssr:stedsnr" v="421305" />
	</node>
	<node lat="63.306744446967706" lon="10.348388890212176" id="-35801">
		<tag k="fixme" v="multiple name tags, choose one and add the other to alt_name" />
		<tag k="name" v="Nedre Havdal;Garden" />
		<tag k="place" v="farm" />
		<tag k="ssr:stedsnr" v="421793" />
	</node>
	<node lat="63.218851050541375" lon="10.420480627236024" id="-35802">
		<tag k="fixme" v="consider place=hamlet" />
		<tag k="name" v="Mo" />
		<tag k="place" v="farm" />
		<tag k="ssr:stedsnr" v="424110" />
	</node>
	<node lat="63.18928055879686" lon="10.312133333807695" id="-35803">
		<tag k="alt_name" v="Haltbrekken" />
		<tag k="name" v="Haltbrekka" />
		<tag k="place" v="farm" />
		<tag k="ssr:stedsnr" v="424113" />
	</node>
	<node lat="63.10785555467058" lon="10.237672220602494" id="-35804">
		<tag k="fixme" v="consider place=hamlet" />
		<tag k="name" v="Foss" />
		<tag k="place" v="farm" />
		<tag k="ssr:stedsnr" v="424409" />
	</node>
	<node lat="63.31539455668369" lon="10.340338740960783" id="-35805">
		<tag k="fixme" v="consider place=hamlet" />
		<tag k="name" v="Nedre Stokkan" />
		<tag k="place" v="farm" />
		<tag k="ssr:stedsnr" v="424796" />
	</node>
	<node lat="63.27956501549622" lon="10.210435655546483" id="-35806">
		<tag k="name" v="Kvammen" />
		<tag k="place" v="farm" />
		<tag k="ssr:stedsnr" v="424950" />
	</node>
	<node lat="63.09864444765531" lon="10.22973333518312" id="-35807">
		<tag k="fixme" v="consider place=hamlet" />
		<tag k="name" v="Hovin" />
		<tag k="place" v="farm" />
		<tag k="ssr:stedsnr" v="425446" />
	</node>
	<node lat="63.139116664220175" lon="9.933977776209767" id="-35808">
		<tag k="alt_name" v="Konstadsaga" />
		<tag k="name" v="Saga" />
		<tag k="place" v="farm" />
		<tag k="ssr:stedsnr" v="437103" />
	</node>
	<node lat="63.33325833723266" lon="10.217461115528847" id="-35811">
		<tag k="name" v="Øylykkja" />
		<tag k="place" v="farm" />
		<tag k="ssr:stedsnr" v="437299" />
	</node>
	<node lat="63.1037027795236" lon="9.984044437431765" id="-35814">
		<tag k="name" v="Gullstigen" />
		<tag k="place" v="farm" />
		<tag k="ssr:stedsnr" v="437563" />
	</node>
	<node lat="63.0533250038481" lon="10.012030563995765" id="-35815">
		<tag k="historic" v="shieling" />
		<tag k="name" v="Lerbergvollen" />
		<tag k="old_name" v="Lerbergsvollen" />
		<tag k="place" v="isolated_dwelling" />
		<tag k="ssr:stedsnr" v="437605" />
	</node>
	<node lat="63.20624444546311" lon="10.362561101844683" id="-35816">
		<tag k="fixme" v="consider place=hamlet" />
		<tag k="name" v="Fremo" />
		<tag k="place" v="farm" />
		<tag k="ssr:stedsnr" v="437700" />
	</node>
	<node lat="63.0819277807342" lon="10.256208336632767" id="-35817">
		<tag k="alt_name" v="Gylløyin" />
		<tag k="name" v="Gylløyan" />
		<tag k="place" v="farm" />
		<tag k="ssr:stedsnr" v="437852" />
	</node>
	<node lat="63.23610000250628" lon="10.235627783473834" id="-35819">
		<tag k="name" v="Molykkja" />
		<tag k="place" v="farm" />
		<tag k="ssr:stedsnr" v="437749" />
	</node>
	<node lat="63.23216944249141" lon="10.24955000778193" id="-35820">
		<tag k="name" v="Kregnes" />
		<tag k="place" v="farm" />
		<tag k="ssr:stedsnr" v="437751" />
	</node>
	<node lat="63.29920278141185" lon="10.299058342875156" id="-35821">
		<tag k="alt_name" v="Øyen" />
		<tag k="name" v="Ratøya" />
		<tag k="place" v="farm" />
		<tag k="ssr:stedsnr" v="438813" />
	</node>
	<node lat="63.30033529897748" lon="10.32542159224142" id="-35822">
		<tag k="fixme" v="consider place=hamlet" />
		<tag k="name" v="Vollen" />
		<tag k="place" v="farm" />
		<tag k="ssr:stedsnr" v="438816" />
	</node>
	<node lat="63.29410278165562" lon="10.22902222465443" id="-35824">
		<tag k="name" v="Langørjan" />
		<tag k="place" v="farm" />
		<tag k="ssr:stedsnr" v="446788" />
	</node>
	<node lat="63.07302222487585" lon="10.26705277283576" id="-35842">
		<tag k="name" v="Søndre Håggån" />
		<tag k="place" v="farm" />
		<tag k="ssr:stedsnr" v="461518" />
	</node>
	<node lat="63.07735833623112" lon="10.253430563182102" id="-35844">
		<tag k="name" v="Bruin" />
		<tag k="place" v="farm" />
		<tag k="ssr:stedsnr" v="461557" />
	</node>
	<node lat="63.12233889055615" lon="10.247494441611535" id="-35845">
		<tag k="name" v="Sjurshaugen" />
		<tag k="place" v="farm" />
		<tag k="ssr:stedsnr" v="461558" />
	</node>
	<node lat="63.0931055551812" lon="10.233219447809132" id="-35847">
		<tag k="name" v="Klevan" />
		<tag k="place" v="farm" />
		<tag k="ssr:stedsnr" v="461567" />
	</node>
	<node lat="63.1062194419809" lon="10.237138882852513" id="-35850">
		<tag k="name" v="Negarden" />
		<tag k="place" v="farm" />
		<tag k="ssr:stedsnr" v="461958" />
	</node>
	<node lat="63.1133055581842" lon="10.216277773827422" id="-35854">
		<tag k="name" v="Engliin" />
		<tag k="place" v="farm" />
		<tag k="ssr:stedsnr" v="461968" />
	</node>
	<node lat="63.112419441388035" lon="10.216808342244045" id="-35855">
		<tag k="name" v="Sørtømmemyran" />
		<tag k="place" v="farm" />
		<tag k="ssr:stedsnr" v="461969" />
	</node>
	<node lat="63.2673249980985" lon="10.217011105478342" id="-35858">
		<tag k="name" v="Holemsåsen" />
		<tag k="place" v="farm" />
		<tag k="ssr:stedsnr" v="462208" />
	</node>
	<node lat="63.307833334746675" lon="10.287794453161894" id="-35867">
		<tag k="name" v="Jaktøya" />
		<tag k="place" v="hamlet" />
		<tag k="ssr:stedsnr" v="462706" />
	</node>
	<node lat="63.21386944779172" lon="10.298877774783172" id="-35868">
		<tag k="name" v="Fornesøran" />
		<tag k="place" v="isolated_dwelling" />
		<tag k="ssr:stedsnr" v="462722" />
	</node>
	<node lat="63.18967382727632" lon="10.340577523451067" id="-35880">
		<tag k="name" v="Engan" />
		<tag k="place" v="farm" />
		<tag k="ssr:stedsnr" v="465220" />
	</node>
	<node lat="63.272684813676534" lon="10.270337254030071" id="-35881">
		<tag k="name" v="Baggøya" />
		<tag k="place" v="farm" />
		<tag k="ssr:stedsnr" v="465155" />
	</node>
	<node lat="63.303714927602094" lon="10.354472491657445" id="-35882">
		<tag k="fixme" v="consider place=hamlet" />
		<tag k="name" v="Øvre Havdal" />
		<tag k="place" v="farm" />
		<tag k="ssr:stedsnr" v="465817" />
	</node>
	<node lat="63.168649998784424" lon="10.034358337235739" id="-35888">
		<tag k="name" v="Litllufallet" />
		<tag k="old_name" v="Lufall, litle" />
		<tag k="place" v="farm" />
		<tag k="ssr:stedsnr" v="679143" />
	</node>
	<node lat="63.13280833189826" lon="10.263430560087187" id="-35889">
		<tag k="name" v="Midtlynge" />
		<tag k="place" v="farm" />
		<tag k="ssr:stedsnr" v="485204" />
	</node>
	<node lat="63.136153258850165" lon="10.274894706418426" id="-35890">
		<tag k="name" v="Lyngen" />
		<tag k="place" v="farm" />
		<tag k="ssr:stedsnr" v="485366" />
	</node>
	<node lat="63.26191845341051" lon="10.291312761803443" id="-35891">
		<tag k="name" v="Søberg" />
		<tag k="place" v="hamlet" />
		<tag k="ssr:stedsnr" v="485806" />
	</node>
	<node lat="63.29121111136319" lon="10.321077785264453" id="-35892">
		<tag k="name" v="Rønningen" />
		<tag k="place" v="farm" />
		<tag k="ssr:stedsnr" v="485812" />
	</node>
	<node lat="63.199844446658204" lon="10.275297216693364" id="-35893">
		<tag k="name" v="Stokkan" />
		<tag k="place" v="farm" />
		<tag k="ssr:stedsnr" v="485826" />
	</node>
	<node lat="63.23941934112851" lon="10.259933873730617" id="-35897">
		<tag k="fixme" v="consider place=hamlet" />
		<tag k="name" v="Kregnes" />
		<tag k="place" v="farm" />
		<tag k="ssr:stedsnr" v="679594" />
	</node>
	<node lat="63.08868333750586" lon="10.025716671255237" id="-35898">
		<tag k="name" v="Liagjerdet" />
		<tag k="place" v="farm" />
		<tag k="ssr:stedsnr" v="679488" />
	</node>
	<node lat="63.04910555612874" lon="10.028536114600843" id="-35899">
		<tag k="historic" v="shieling" />
		<tag k="name" v="Kleivalykkja" />
		<tag k="place" v="isolated_dwelling" />
		<tag k="ssr:stedsnr" v="679545" />
	</node>
	<node lat="63.19914999819706" lon="10.34574722450582" id="-35900">
		<tag k="name" v="Voll" />
		<tag k="place" v="farm" />
		<tag k="ssr:stedsnr" v="679746" />
	</node>
	<node lat="63.203316670813635" lon="10.354625002016313" id="-35901">
		<tag k="fixme" v="consider place=hamlet" />
		<tag k="name" v="Bøland" />
		<tag k="place" v="farm" />
		<tag k="ssr:stedsnr" v="679679" />
	</node>
	<node lat="63.216225001833664" lon="10.373811103701785" id="-35902">
		<tag k="name" v="Fremosåsen" />
		<tag k="old_name" v="Fremoåsen" />
		<tag k="place" v="farm" />
		<tag k="ssr:stedsnr" v="679693" />
	</node>
	<node lat="63.152069441174525" lon="10.266650007734617" id="-35903">
		<tag k="name" v="Valdøyan" />
		<tag k="place" v="farm" />
		<tag k="ssr:stedsnr" v="679830" />
	</node>
	<node lat="63.133502778941846" lon="10.32845833558448" id="-35904">
		<tag k="name" v="Kringlelykkja" />
		<tag k="place" v="farm" />
		<tag k="ssr:stedsnr" v="679791" />
	</node>
	<node lat="63.144855555756834" lon="10.265402769553626" id="-35906">
		<tag k="alt_name" v="Nygården" />
		<tag k="fixme" v="multiple name tags, choose one and add the other to alt_name" />
		<tag k="name" v="Horg;Nygarden" />
		<tag k="place" v="farm" />
		<tag k="ssr:stedsnr" v="679853" />
	</node>
	<node lat="63.12473997858314" lon="9.981095685933225" id="-35907">
		<tag k="alt_name" v="Trotland" />
		<tag k="name" v="Bjørgan" />
		<tag k="place" v="farm" />
		<tag k="ssr:stedsnr" v="680064" />
	</node>
	<node lat="63.12110555514414" lon="9.900391658949475" id="-35908">
		<tag k="alt_name" v="Fuggelåshogstret" />
		<tag k="name" v="Hogstret" />
		<tag k="place" v="farm" />
		<tag k="ssr:stedsnr" v="680047" />
	</node>
	<node lat="63.15213333258636" lon="10.009419447644053" id="-35909">
		<tag k="alt_name" v="Flotten" />
		<tag k="name" v="Flåtten" />
		<tag k="place" v="farm" />
		<tag k="ssr:stedsnr" v="680132" />
	</node>
	<node lat="63.198936111757455" lon="10.135997216668356" id="-35912">
		<tag k="alt_name" v="Strand" />
		<tag k="fixme" v="consider place=hamlet" />
		<tag k="name" v="Stranda" />
		<tag k="old_name" v="Stranden" />
		<tag k="place" v="farm" />
		<tag k="ssr:stedsnr" v="680216" />
	</node>
	<node lat="63.21060716534419" lon="10.26936222788784" id="-35918">
		<tag k="fixme" v="consider place=hamlet" />
		<tag k="name" v="Forset" />
		<tag k="place" v="farm" />
		<tag k="ssr:stedsnr" v="680541" />
	</node>
	<node lat="63.27660277993668" lon="10.249941675971204" id="-35921">
		<tag k="name" v="Sollia" />
		<tag k="place" v="farm" />
		<tag k="ssr:stedsnr" v="680832" />
	</node>
	<node lat="63.28240555638656" lon="10.224158343222262" id="-35922">
		<tag k="name" v="Vollhåggån" />
		<tag k="place" v="farm" />
		<tag k="ssr:stedsnr" v="680834" />
	</node>
	<node lat="63.32685277788576" lon="10.231052768159659" id="-35924">
		<tag k="name" v="Øyagjerdet" />
		<tag k="place" v="farm" />
		<tag k="ssr:stedsnr" v="680918" />
	</node>
	<node lat="63.17607499822781" lon="10.041913880782209" id="-35926">
		<tag k="name" v="Langbakken" />
		<tag k="place" v="farm" />
		<tag k="ssr:stedsnr" v="497146" />
	</node>
	<node lat="63.17012777407721" lon="10.073713883542665" id="-35927">
		<tag k="name" v="Rotåslykkja" />
		<tag k="place" v="farm" />
		<tag k="ssr:stedsnr" v="497147" />
	</node>
	<node lat="63.26309999652003" lon="10.272130545864444" id="-35929">
		<tag k="alt_name" v="Tranmelsøyen" />
		<tag k="name" v="Tranmelsøya" />
		<tag k="place" v="farm" />
		<tag k="ssr:stedsnr" v="681189" />
	</node>
	<node lat="63.10346388754929" lon="10.029152783862047" id="-35932">
		<tag k="name" v="Krokstadlykkja" />
		<tag k="place" v="farm" />
		<tag k="ssr:stedsnr" v="497532" />
	</node>
	<node lat="63.10422499580721" lon="10.051272229512046" id="-35933">
		<tag k="fixme" v="consider place=hamlet" />
		<tag k="name" v="Jønland" />
		<tag k="place" v="farm" />
		<tag k="ssr:stedsnr" v="497534" />
	</node>
	<node lat="63.08657499980091" lon="10.032180552271912" id="-35934">
		<tag k="alt_name" v="Liahåggån" />
		<tag k="name" v="Håggån" />
		<tag k="old_name" v="Hågån" />
		<tag k="place" v="farm" />
		<tag k="ssr:stedsnr" v="497495" />
	</node>
	<node lat="63.21392640174767" lon="10.26285866539434" id="-35935">
		<tag k="fixme" v="consider place=hamlet" />
		<tag k="name" v="Forset" />
		<tag k="place" v="farm" />
		<tag k="ssr:stedsnr" v="497704" />
	</node>
	<node lat="63.10521209443715" lon="10.408960702176994" id="-35938">
		<tag k="alt_name" v="Mongstuvollen" />
		<tag k="name" v="Slottsvollen" />
		<tag k="place" v="isolated_dwelling" />
		<tag k="ssr:stedsnr" v="497916" />
	</node>
	<node lat="63.12585833346496" lon="10.251447219416987" id="-35940">
		<tag k="fixme" v="consider place=hamlet" />
		<tag k="name" v="Bredlia" />
		<tag k="place" v="farm" />
		<tag k="ssr:stedsnr" v="497845" />
	</node>
	<node lat="63.11900833454373" lon="9.970225006119222" id="-35943">
		<tag k="name" v="Eggalykkja" />
		<tag k="place" v="farm" />
		<tag k="ssr:stedsnr" v="498054" />
	</node>
	<node lat="63.25581747619003" lon="10.195015951570248" id="-35944">
		<tag k="alt_name" v="Rakbjørga" />
		<tag k="fixme" v="consider place=hamlet" />
		<tag k="name" v="Rapbjørga" />
		<tag k="place" v="farm" />
		<tag k="ssr:stedsnr" v="498741" />
	</node>
	<node lat="63.31722777674563" lon="10.24902777658777" id="-35945">
		<tag k="name" v="Finnset" />
		<tag k="place" v="farm" />
		<tag k="ssr:stedsnr" v="498902" />
	</node>
	<node lat="63.09896111405255" lon="10.239652786828335" id="-35946">
		<tag k="fixme" v="consider place=hamlet" />
		<tag k="name" v="Vollan" />
		<tag k="place" v="farm" />
		<tag k="ssr:stedsnr" v="498940" />
	</node>
	<node lat="63.275803825108135" lon="10.295090556528526" id="-35947">
		<tag k="fixme" v="consider place=hamlet" />
		<tag k="name" v="Loddgarden" />
		<tag k="place" v="farm" />
		<tag k="ssr:stedsnr" v="681783" />
	</node>
	<node lat="63.13347222421068" lon="10.416144441491962" id="-35948">
		<tag k="name" v="Skogstuggu" />
		<tag k="place" v="farm" />
		<tag k="ssr:stedsnr" v="521272" />
	</node>
	<node lat="63.134891664645544" lon="10.447833328604906" id="-35949">
		<tag k="historic" v="shieling" />
		<tag k="name" v="Beggdalen" />
		<tag k="place" v="isolated_dwelling" />
		<tag k="ssr:stedsnr" v="521273" />
	</node>
	<node lat="63.28980278047947" lon="10.298361104103188" id="-35957">
		<tag k="name" v="Melhusmarka" />
		<tag k="place" v="farm" />
		<tag k="ssr:stedsnr" v="522261" />
	</node>
	<node lat="63.12191111094743" lon="10.56069721461547" id="-35963">
		<tag k="historic" v="shieling" />
		<tag k="name" v="Reinsvollen" />
		<tag k="place" v="isolated_dwelling" />
		<tag k="ssr:stedsnr" v="522310" />
	</node>
	<node lat="63.17057500169964" lon="10.312136111255464" id="-35967">
		<tag k="name" v="Einum" />
		<tag k="place" v="farm" />
		<tag k="ssr:stedsnr" v="522323" />
	</node>
	<node lat="63.13464166995782" lon="10.097363893706936" id="-35974">
		<tag k="name" v="Brubakken" />
		<tag k="place" v="farm" />
		<tag k="ssr:stedsnr" v="522511" />
	</node>
	<node lat="63.08732777976986" lon="10.084305551186192" id="-35976">
		<tag k="name" v="Bukleva" />
		<tag k="place" v="farm" />
		<tag k="ssr:stedsnr" v="522517" />
	</node>
	<node lat="63.24891111102111" lon="10.26904443951902" id="-35980">
		<tag k="name" v="Gravråksgjerdet" />
		<tag k="place" v="farm" />
		<tag k="ssr:stedsnr" v="522627" />
	</node>
	<node lat="63.24123889041742" lon="10.268508326826842" id="-35981">
		<tag k="name" v="Storhaugen" />
		<tag k="place" v="farm" />
		<tag k="ssr:stedsnr" v="522629" />
	</node>
	<node lat="63.19256110849783" lon="10.308069440524632" id="-35982">
		<tag k="name" v="Nyler" />
		<tag k="place" v="farm" />
		<tag k="ssr:stedsnr" v="522641" />
	</node>
	<node lat="63.23135833262844" lon="10.290586106068133" id="-35990">
		<tag k="name" v="Kvålshaugen" />
		<tag k="place" v="farm" />
		<tag k="ssr:stedsnr" v="522719" />
	</node>
	<node lat="63.22421111487745" lon="10.257816659736202" id="-35993">
		<tag k="name" v="Håggålykkja" />
		<tag k="place" v="farm" />
		<tag k="ssr:stedsnr" v="522732" />
	</node>
	<node lat="63.143772218538835" lon="10.28587222718392" id="-35999">
		<tag k="name" v="Leirtaket boligfelt" />
		<tag k="place" v="quarter" />
		<tag k="ssr:stedsnr" v="522806" />
	</node>
	<node lat="63.088027775613796" lon="10.233108325220957" id="-36001">
		<tag k="building" v="commercial" />
		<tag k="name" v="Skomakerstuggu" />
		<tag k="ssr:stedsnr" v="522860" />
	</node>
	<node lat="63.196913887991826" lon="10.304847221835246" id="-36005">
		<tag k="fixme" v="consider place=hamlet" />
		<tag k="name" v="Ler" />
		<tag k="place" v="farm" />
		<tag k="ssr:stedsnr" v="522882" />
	</node>
	<node lat="63.117472221039336" lon="10.222508336527943" id="-36007">
		<tag k="name" v="Nedgarden" />
		<tag k="place" v="farm" />
		<tag k="ssr:stedsnr" v="522962" />
	</node>
	<node lat="63.18728055750043" lon="10.312355557154417" id="-36008">
		<tag k="name" v="Haltbrekkleret" />
		<tag k="place" v="farm" />
		<tag k="ssr:stedsnr" v="522972" />
	</node>
	<node lat="63.11238888565529" lon="10.605052786557712" id="-36010">
		<tag k="name" v="Samsjølia hyttefelt" />
		<tag k="place" v="neighbourhood" />
		<tag k="ssr:stedsnr" v="525567" />
	</node>
	<node lat="63.19692350518621" lon="10.287975221535694" id="-36011">
		<tag k="name" v="Losa" />
		<tag k="place" v="farm" />
		<tag k="ssr:stedsnr" v="534674" />
	</node>
	<node lat="63.15299166425961" lon="10.287969446773088" id="-36012">
		<tag k="amenity" v="nursing_home" />
		<tag k="name" v="Lundamo legesenter" />
		<tag k="ssr:stedsnr" v="540673" />
	</node>
	<node lat="63.15241111030238" lon="10.006413881348113" id="-36013">
		<tag k="fixme" v="consider place=hamlet" />
		<tag k="name" v="Kolbrandstad" />
		<tag k="place" v="farm" />
		<tag k="ssr:stedsnr" v="545379" />
	</node>
	<node lat="63.15134902741621" lon="10.309657327789543" id="-36014">
		<tag k="alt_name" v="Åsan" />
		<tag k="fixme" v="consider place=hamlet" />
		<tag k="name" v="Lundeåsen" />
		<tag k="place" v="farm" />
		<tag k="ssr:stedsnr" v="545410" />
	</node>
	<node lat="63.30387629331633" lon="10.354335826153756" id="-36015">
		<tag k="name" v="Øvre Havdal" />
		<tag k="place" v="farm" />
		<tag k="ssr:stedsnr" v="545802" />
	</node>
	<node lat="63.138963888891816" lon="9.929766661542905" id="-36022">
		<tag k="name" v="Sjømoen" />
		<tag k="place" v="farm" />
		<tag k="ssr:stedsnr" v="558095" />
	</node>
	<node lat="63.186977780662346" lon="10.129900009274639" id="-36023">
		<tag k="fixme" v="consider place=hamlet" />
		<tag k="name" v="Myra" />
		<tag k="place" v="farm" />
		<tag k="ssr:stedsnr" v="558195" />
	</node>
	<node lat="63.06413055325743" lon="10.057700001726962" id="-36024">
		<tag k="historic" v="shieling" />
		<tag k="name" v="Midttømmesvollen" />
		<tag k="place" v="isolated_dwelling" />
		<tag k="ssr:stedsnr" v="558643" />
	</node>
	<node lat="63.26492842781602" lon="10.258369688642484" id="-36025">
		<tag k="name" v="Romol" />
		<tag k="place" v="hamlet" />
		<tag k="ssr:stedsnr" v="558808" />
	</node>
	<node lat="63.18681666938816" lon="10.313611110338025" id="-36026">
		<tag k="name" v="Teigaleret" />
		<tag k="place" v="farm" />
		<tag k="ssr:stedsnr" v="558841" />
	</node>
	<node lat="63.1818749962109" lon="10.346708338846232" id="-36029">
		<tag k="fixme" v="consider place=hamlet" />
		<tag k="name" v="Børset" />
		<tag k="place" v="farm" />
		<tag k="ssr:stedsnr" v="558793" />
	</node>
	<node lat="63.08675000147731" lon="10.393425004384385" id="-36032">
		<tag k="historic" v="shieling" />
		<tag k="name" v="Håggåvollen" />
		<tag k="old_name" v="Hågåvollen" />
		<tag k="place" v="isolated_dwelling" />
		<tag k="ssr:stedsnr" v="558946" />
	</node>
	<node lat="63.2860060530642" lon="10.283366157345583" id="-36033">
		<tag k="fixme" v="consider place=hamlet" />
		<tag k="name" v="Lena" />
		<tag k="place" v="farm" />
		<tag k="ssr:stedsnr" v="559799" />
	</node>
	<node lat="63.29327222230765" lon="10.230061113996866" id="-36035">
		<tag k="name" v="Langørjan" />
		<tag k="place" v="farm" />
		<tag k="ssr:stedsnr" v="689742" />
	</node>
	<node lat="63.28803055594837" lon="10.24138334007553" id="-36036">
		<tag k="name" v="Vollrønningen" />
		<tag k="place" v="farm" />
		<tag k="ssr:stedsnr" v="689764" />
	</node>
	<node lat="63.13705555900565" lon="10.325311105401273" id="-36038">
		<tag k="alt_name" v="Aungjerdet" />
		<tag k="name" v="Nedre Samdal" />
		<tag k="old_name" v="Brandeggen" />
		<tag k="place" v="farm" />
		<tag k="ssr:stedsnr" v="570401" />
	</node>
	<node lat="63.20146666514213" lon="10.366683335157546" id="-36046">
		<tag k="name" v="Ytterekran" />
		<tag k="place" v="farm" />
		<tag k="ssr:stedsnr" v="582313" />
	</node>
	<node lat="63.199505551219424" lon="10.354111118455583" id="-36047">
		<tag k="alt_name" v="Litjhåggån" />
		<tag k="name" v="Litlhåggån" />
		<tag k="place" v="farm" />
		<tag k="ssr:stedsnr" v="582318" />
	</node>
	<node lat="63.18656666997605" lon="10.307002786239552" id="-36052">
		<tag k="name" v="Haltbrekklykkja" />
		<tag k="place" v="farm" />
		<tag k="ssr:stedsnr" v="582350" />
	</node>
	<node lat="63.07765555424568" lon="10.251250000544065" id="-36056">
		<tag k="name" v="Synnerløkkja" />
		<tag k="place" v="farm" />
		<tag k="ssr:stedsnr" v="582521" />
	</node>
	<node lat="63.097575001062516" lon="10.2310666728611" id="-36059">
		<tag k="name" v="Kalvrønningen" />
		<tag k="place" v="farm" />
		<tag k="ssr:stedsnr" v="582542" />
	</node>
	<node lat="63.280936107369925" lon="10.259455557723008" id="-36061">
		<tag k="name" v="Israelstuggu" />
		<tag k="place" v="farm" />
		<tag k="ssr:stedsnr" v="582703" />
	</node>
	<node lat="63.10354166511676" lon="10.220666666253704" id="-36063">
		<tag k="name" v="Gjerdet" />
		<tag k="place" v="farm" />
		<tag k="ssr:stedsnr" v="582903" />
	</node>
	<node lat="63.13068333462188" lon="10.255583338806247" id="-36070">
		<tag k="name" v="Bysflotten" />
		<tag k="place" v="farm" />
		<tag k="ssr:stedsnr" v="582955" />
	</node>
	<node lat="63.15108726620279" lon="10.3088813527397" id="-36073">
		<tag k="name" v="Åsan" />
		<tag k="place" v="farm" />
		<tag k="ssr:stedsnr" v="582997" />
	</node>
	<node lat="63.16448055663854" lon="10.304399992179945" id="-36074">
		<tag k="name" v="Søstuggu" />
		<tag k="place" v="farm" />
		<tag k="ssr:stedsnr" v="582999" />
	</node>
	<node lat="63.225807157436115" lon="10.248916420911506" id="-36082">
		<tag k="name" v="Rofstadbakken" />
		<tag k="place" v="farm" />
		<tag k="ssr:stedsnr" v="583620" />
	</node>
	<node lat="63.21143243185439" lon="10.269903940836437" id="-36086">
		<tag k="name" v="Forset" />
		<tag k="place" v="farm" />
		<tag k="ssr:stedsnr" v="583643" />
	</node>
	<node lat="63.14283610732816" lon="9.982158331625524" id="-36089">
		<tag k="name" v="Brubakken" />
		<tag k="place" v="farm" />
		<tag k="ssr:stedsnr" v="583600" />
	</node>
	<node lat="63.233094441883296" lon="10.295252771591898" id="-36090">
		<tag k="name" v="Kvernmoen" />
		<tag k="place" v="farm" />
		<tag k="ssr:stedsnr" v="583724" />
	</node>
	<node lat="63.17777222360939" lon="10.349105548091677" id="-36092">
		<tag k="name" v="Fallan" />
		<tag k="place" v="hamlet" />
		<tag k="ssr:stedsnr" v="583789" />
	</node>
	<node lat="63.214479564561856" lon="10.255108752157986" id="-36100">
		<tag k="alt_name" v="Lykkja" />
		<tag k="name" v="Haugalykkja" />
		<tag k="old_name" v="HAUGA-LØKKEN" />
		<tag k="place" v="farm" />
		<tag k="ssr:stedsnr" v="595651" />
	</node>
	<node lat="63.10529166534755" lon="10.17794166661783" id="-36102">
		<tag k="name" v="Kvernabakken" />
		<tag k="place" v="locality" />
		<tag k="ssr:stedsnr" v="601818" />
	</node>
	<node lat="63.134252778542965" lon="10.32361666173106" id="-36104">
		<tag k="fixme" v="consider place=hamlet" />
		<tag k="name" v="Samdal" />
		<tag k="place" v="farm" />
		<tag k="ssr:stedsnr" v="606410" />
	</node>
	<node lat="63.272127776776216" lon="10.293697227610568" id="-36105">
		<tag k="fixme" v="consider place=hamlet" />
		<tag k="name" v="Melhus" />
		<tag k="place" v="farm" />
		<tag k="ssr:stedsnr" v="606822" />
	</node>
	<node lat="63.28998548581688" lon="10.294850342913703" id="-36106">
		<tag k="name" v="Høgegga" />
		<tag k="place" v="farm" />
		<tag k="ssr:stedsnr" v="606826" />
	</node>
	<node lat="63.22727094760916" lon="10.26907239286948" id="-36107">
		<tag k="name" v="Storrønningen" />
		<tag k="place" v="farm" />
		<tag k="ssr:stedsnr" v="606870" />
	</node>
	<node lat="63.23989919307867" lon="10.256707084290225" id="-36108">
		<tag k="fixme" v="consider place=hamlet" />
		<tag k="name" v="Kregnes" />
		<tag k="place" v="farm" />
		<tag k="ssr:stedsnr" v="606907" />
	</node>
	<node lat="63.28629238973657" lon="10.201789109057543" id="-36109">
		<tag k="alt_name" v="Dålån" />
		<tag k="name" v="Dalan" />
		<tag k="place" v="farm" />
		<tag k="ssr:stedsnr" v="606957" />
	</node>
	<node lat="63.15146388785666" lon="10.18054165994545" id="-36111">
		<tag k="name" v="Grøthogstret" />
		<tag k="place" v="farm" />
		<tag k="ssr:stedsnr" v="618094" />
	</node>
	<node lat="63.1765444462493" lon="10.061083329137285" id="-36112">
		<tag k="name" v="Klefstadmoen" />
		<tag k="place" v="farm" />
		<tag k="ssr:stedsnr" v="618132" />
	</node>
	<node lat="63.104377778617454" lon="10.188816671964899" id="-36113">
		<tag k="name" v="Sjursmoen" />
		<tag k="place" v="farm" />
		<tag k="ssr:stedsnr" v="618539" />
	</node>
	<node lat="63.15717500392297" lon="10.599800000783471" id="-36115">
		<tag k="historic" v="shieling" />
		<tag k="name" v="Borstuvollen" />
		<tag k="place" v="isolated_dwelling" />
		<tag k="ssr:stedsnr" v="618826" />
	</node>
	<node lat="63.163411106865226" lon="10.525161116793486" id="-36116">
		<tag k="historic" v="shieling" />
		<tag k="name" v="Langlandsvollen" />
		<tag k="place" v="isolated_dwelling" />
		<tag k="ssr:stedsnr" v="618827" />
	</node>
	<node lat="63.153558335088576" lon="10.022927782123826" id="-36119">
		<tag k="name" v="Olderøya" />
		<tag k="place" v="farm" />
		<tag k="ssr:stedsnr" v="619127" />
	</node>
	<node lat="63.24561800017044" lon="10.174914282709114" id="-36120">
		<tag k="alt_name" v="Olderøyen" />
		<tag k="name" v="Olderøya" />
		<tag k="place" v="farm" />
		<tag k="ssr:stedsnr" v="619298" />
	</node>
	<node lat="63.248905559591286" lon="10.179555561630783" id="-36121">
		<tag k="name" v="Olderøyåsen" />
		<tag k="place" v="farm" />
		<tag k="ssr:stedsnr" v="619332" />
	</node>
	<node lat="63.273409424448076" lon="10.270724307960986" id="-36122">
		<tag k="fixme" v="consider place=hamlet" />
		<tag k="name" v="Baggøya" />
		<tag k="place" v="farm" />
		<tag k="ssr:stedsnr" v="619808" />
	</node>
	<node lat="63.228563821759266" lon="10.36691289931641" id="-36123">
		<tag k="name" v="Reitvollen" />
		<tag k="place" v="locality" />
		<tag k="ssr:stedsnr" v="619782" />
	</node>
	<node lat="63.2310469137677" lon="10.277109561299945" id="-36124">
		<tag k="alt_name" v="Nerkvål" />
		<tag k="name" v="Kvål" />
		<tag k="place" v="farm" />
		<tag k="ssr:stedsnr" v="619786" />
	</node>
	<node lat="63.13994167023967" lon="10.242149996521444" id="-36126">
		<tag k="name" v="Oppstuggu" />
		<tag k="place" v="farm" />
		<tag k="ssr:stedsnr" v="703991" />
	</node>
	<node lat="63.13385277404706" lon="10.234755553577797" id="-36127">
		<tag k="name" v="Gangstuløkken" />
		<tag k="place" v="farm" />
		<tag k="ssr:stedsnr" v="703992" />
	</node>
	<node lat="63.12931110956089" lon="10.22618888802601" id="-36128">
		<tag k="name" v="Innistuggu" />
		<tag k="place" v="farm" />
		<tag k="ssr:stedsnr" v="703997" />
	</node>
	<node lat="63.19913055217201" lon="10.37533610798011" id="-36148">
		<tag k="name" v="Langlandsgjerdet" />
		<tag k="place" v="farm" />
		<tag k="ssr:stedsnr" v="704287" />
	</node>
	<node lat="63.18030555445856" lon="10.44927222287652" id="-36149">
		<tag k="historic" v="shieling" />
		<tag k="name" v="Bårsvollen" />
		<tag k="place" v="isolated_dwelling" />
		<tag k="ssr:stedsnr" v="704290" />
	</node>
	<node lat="63.1712027793673" lon="10.440125009639525" id="-36150">
		<tag k="historic" v="shieling" />
		<tag k="name" v="Valderåsvollen" />
		<tag k="place" v="isolated_dwelling" />
		<tag k="ssr:stedsnr" v="704291" />
	</node>
	<node lat="63.097916662306666" lon="10.241713884073619" id="-36160">
		<tag k="name" v="Småstenan" />
		<tag k="place" v="farm" />
		<tag k="ssr:stedsnr" v="704488" />
	</node>
	<node lat="63.095311114437074" lon="9.995056150455982" id="-36168">
		<tag k="alt_name" v="Gjerdet" />
		<tag k="name" v="Rød" />
		<tag k="place" v="farm" />
		<tag k="ssr:stedsnr" v="704521" />
	</node>
	<node lat="63.14797499668843" lon="9.995794438020662" id="-36175">
		<tag k="historic" v="shieling" />
		<tag k="name" v="Håggån" />
		<tag k="place" v="isolated_dwelling" />
		<tag k="ssr:stedsnr" v="704592" />
	</node>
	<node lat="63.186124998675844" lon="10.038683326885483" id="-36178">
		<tag k="fixme" v="multiple name tags, choose one and add the other to alt_name" />
		<tag k="name" v="Klefstadåsen;Klefstad" />
		<tag k="place" v="farm" />
		<tag k="ssr:stedsnr" v="704637" />
	</node>
	<node lat="63.06440000238508" lon="10.035358333214058" id="-36179">
		<tag k="name" v="Myraløkkja" />
		<tag k="place" v="farm" />
		<tag k="ssr:stedsnr" v="704647" />
	</node>
	<node lat="63.11518333318309" lon="10.243330562944193" id="-36198">
		<tag k="name" v="Håggåløkkja" />
		<tag k="place" v="farm" />
		<tag k="ssr:stedsnr" v="704946" />
	</node>
	<node lat="63.2029916659047" lon="10.356302773650448" id="-36210">
		<tag k="name" v="Bøland" />
		<tag k="place" v="hamlet" />
		<tag k="ssr:stedsnr" v="643223" />
	</node>
	<node lat="63.17423889006767" lon="10.535647225433346" id="-36218">
		<tag k="historic" v="shieling" />
		<tag k="name" v="Bølandsvollen" />
		<tag k="place" v="isolated_dwelling" />
		<tag k="ssr:stedsnr" v="643310" />
	</node>
	<node lat="63.16597499852964" lon="10.112330547144666" id="-36222">
		<tag k="name" v="Dammen" />
		<tag k="place" v="farm" />
		<tag k="ssr:stedsnr" v="643488" />
	</node>
	<node lat="63.1265944449939" lon="10.245719440261691" id="-36229">
		<tag k="name" v="Røskaftsveet" />
		<tag k="place" v="farm" />
		<tag k="ssr:stedsnr" v="643528" />
	</node>
	<node lat="63.21774797527844" lon="10.247361914872371" id="-36242">
		<tag k="name" v="Flåtten" />
		<tag k="place" v="farm" />
		<tag k="ssr:stedsnr" v="643626" />
	</node>
	<node lat="63.28308611055532" lon="10.256311111789904" id="-36243">
		<tag k="name" v="Bortistuggu" />
		<tag k="place" v="farm" />
		<tag k="ssr:stedsnr" v="643686" />
	</node>
	<node lat="63.29689722263789" lon="10.240736120370302" id="-36244">
		<tag k="name" v="Haug" />
		<tag k="place" v="farm" />
		<tag k="ssr:stedsnr" v="643689" />
	</node>
	<node lat="63.16820555493221" lon="10.314886109510645" id="-36251">
		<tag k="name" v="Hansstuggu" />
		<tag k="place" v="farm" />
		<tag k="ssr:stedsnr" v="643877" />
	</node>
	<node lat="63.178094443967325" lon="10.321816674664475" id="-36255">
		<tag k="name" v="Fribetet" />
		<tag k="place" v="locality" />
		<tag k="ssr:stedsnr" v="643892" />
	</node>
	<node lat="63.20802777416768" lon="10.306263894309717" id="-36256">
		<tag k="name" v="Nyhus" />
		<tag k="place" v="farm" />
		<tag k="ssr:stedsnr" v="647597" />
	</node>
	<node lat="63.2982777817187" lon="10.26330833022527" id="-36257">
		<tag k="name" v="Bleke" />
		<tag k="place" v="farm" />
		<tag k="ssr:stedsnr" v="707897" />
	</node>
	<node lat="63.17905555378142" lon="10.055475008086475" id="-36259">
		<tag k="name" v="Klefstadgjerdet" />
		<tag k="place" v="farm" />
		<tag k="ssr:stedsnr" v="661786" />
	</node>
	<node lat="63.2928833366627" lon="10.260361109926688" id="-36262">
		<tag k="building" v="industrial" />
		<tag k="name" v="Varmbu miljøstasjon" />
		<tag k="ssr:stedsnr" v="664301" />
	</node>
	<node lat="63.16100277754882" lon="10.298350007793143" id="-36263">
		<tag k="name" v="Lund" />
		<tag k="place" v="farm" />
		<tag k="ssr:stedsnr" v="665614" />
	</node>
	<node lat="63.26255833614896" lon="10.223591670131588" id="-36264">
		<tag k="fixme" v="consider place=hamlet" />
		<tag k="name" v="Holem" />
		<tag k="place" v="farm" />
		<tag k="ssr:stedsnr" v="667121" />
	</node>
	<node lat="63.16593689224902" lon="10.159485097600447" id="-36265">
		<tag k="name" v="Skjeggstad" />
		<tag k="place" v="farm" />
		<tag k="ssr:stedsnr" v="667127" />
	</node>
	<node lat="63.12112499817043" lon="10.043136110844246" id="-36266">
		<tag k="name" v="Langås" />
		<tag k="place" v="farm" />
		<tag k="ssr:stedsnr" v="667132" />
	</node>
	<node lat="63.133380219485176" lon="10.281216276028811" id="-36269">
		<tag k="fixme" v="consider place=hamlet" />
		<tag k="name" v="Lyngen" />
		<tag k="place" v="farm" />
		<tag k="ssr:stedsnr" v="667410" />
	</node>
	<node lat="63.13750833630188" lon="9.966641659228163" id="-36270">
		<tag k="name" v="Konstad" />
		<tag k="place" v="farm" />
		<tag k="ssr:stedsnr" v="667381" />
	</node>
	<node lat="63.21713657727305" lon="10.303837764141594" id="-36271">
		<tag k="name" v="Fornes" />
		<tag k="place" v="farm" />
		<tag k="ssr:stedsnr" v="667812" />
	</node>
	<node lat="63.23870144402673" lon="10.25718890149958" id="-36272">
		<tag k="name" v="Kregnes" />
		<tag k="place" v="hamlet" />
		<tag k="ssr:stedsnr" v="667898" />
	</node>
	<node lat="63.159941666489814" lon="10.102108340005246" id="-36273">
		<tag k="alt_name" v="Hølonda helsehus" />
		<tag k="amenity" v="nursing_home" />
		<tag k="name" v="Hølonda helse- og omsorgssenter" />
		<tag k="ssr:stedsnr" v="890580" />
	</node>
	<node lat="63.107680557431905" lon="10.223672232128605" id="-36274">
		<tag k="name" v="Teialia" />
		<tag k="place" v="quarter" />
		<tag k="ssr:stedsnr" v="890584" />
	</node>
	<node lat="63.138805553711514" lon="9.968866666177604" id="-36276">
		<tag k="fixme" v="consider place=hamlet" />
		<tag k="name" v="Konstad" />
		<tag k="place" v="farm" />
		<tag k="ssr:stedsnr" v="679084" />
	</node>
	<node lat="63.23863079915316" lon="10.229598524963539" id="-36278">
		<tag k="fixme" v="consider place=hamlet" />
		<tag k="name" v="Mo" />
		<tag k="place" v="farm" />
		<tag k="ssr:stedsnr" v="679588" />
	</node>
	<node lat="63.138224996662196" lon="10.229125006574938" id="-36279">
		<tag k="fixme" v="multiple name tags, choose one and add the other to alt_name" />
		<tag k="name" v="Litlgjerdet;Grinni" />
		<tag k="place" v="farm" />
		<tag k="ssr:stedsnr" v="679807" />
	</node>
	<node lat="63.138433330167956" lon="10.259805562696512" id="-36280">
		<tag k="fixme" v="consider place=hamlet" />
		<tag k="name" v="Horgmoen" />
		<tag k="place" v="farm" />
		<tag k="ssr:stedsnr" v="679809" />
	</node>
	<node lat="63.07968333244285" lon="10.258708336490306" id="-36281">
		<tag k="alt_name" v="Rønningen" />
		<tag k="name" v="Håggårønningen" />
		<tag k="old_name" v="Hågårønningen" />
		<tag k="place" v="farm" />
		<tag k="ssr:stedsnr" v="679868" />
	</node>
	<node lat="63.075694442005606" lon="10.250338898178374" id="-36282">
		<tag k="name" v="Krokstadlykkja" />
		<tag k="place" v="farm" />
		<tag k="ssr:stedsnr" v="679880" />
	</node>
	<node lat="63.068005551458405" lon="10.063741664922137" id="-36285">
		<tag k="historic" v="shieling" />
		<tag k="name" v="Grinnisvollen" />
		<tag k="place" v="isolated_dwelling" />
		<tag k="ssr:stedsnr" v="680673" />
	</node>
	<node lat="63.1750388899413" lon="10.288847214623363" id="-36288">
		<tag k="fixme" v="multiple name tags, choose one and add the other to alt_name" />
		<tag k="name" v="Leberg;Skardet" />
		<tag k="place" v="farm" />
		<tag k="ssr:stedsnr" v="680814" />
	</node>
	<node lat="63.183074997897116" lon="10.310680561896834" id="-36289">
		<tag k="alt_name" v="Høgsæte" />
		<tag k="name" v="Høyset" />
		<tag k="place" v="farm" />
		<tag k="ssr:stedsnr" v="680815" />
	</node>
	<node lat="63.27363333013415" lon="10.221730548747471" id="-36290">
		<tag k="name" v="Kvamsrønningen" />
		<tag k="place" v="isolated_dwelling" />
		<tag k="ssr:stedsnr" v="680818" />
	</node>
	<node lat="63.27279969663425" lon="10.218405920675906" id="-36291">
		<tag k="fixme" v="consider place=hamlet" />
		<tag k="name" v="Lykkja" />
		<tag k="place" v="farm" />
		<tag k="ssr:stedsnr" v="680781" />
	</node>
	<node lat="63.30634130270465" lon="10.362915883661003" id="-36292">
		<tag k="fixme" v="consider place=hamlet" />
		<tag k="name" v="Lysklett" />
		<tag k="place" v="farm" />
		<tag k="ssr:stedsnr" v="680875" />
	</node>
	<node lat="63.085952779645396" lon="10.242800006881483" id="-36294">
		<tag k="fixme" v="consider place=hamlet" />
		<tag k="name" v="Krokstadbakken" />
		<tag k="place" v="farm" />
		<tag k="ssr:stedsnr" v="680961" />
	</node>
	<node lat="63.20126111220368" lon="10.359136103266152" id="-36311">
		<tag k="name" v="Nedre Langland" />
		<tag k="place" v="farm" />
		<tag k="ssr:stedsnr" v="704277" />
	</node>
	<node lat="63.17588888731196" lon="10.330044448138567" id="-36312">
		<tag k="name" v="Søndre Rambraut" />
		<tag k="place" v="farm" />
		<tag k="ssr:stedsnr" v="704309" />
	</node>
	<node lat="63.18164444783136" lon="10.327211108631651" id="-36314">
		<tag k="name" v="Eggabakken" />
		<tag k="place" v="farm" />
		<tag k="ssr:stedsnr" v="704313" />
	</node>
	<node lat="63.183336572654305" lon="10.325824142635335" id="-36315">
		<tag k="alt_name" v="Øvre Eggen;Eggen øvre" />
		<tag k="name" v="Øvre Egga" />
		<tag k="place" v="farm" />
		<tag k="ssr:stedsnr" v="704315" />
	</node>
	<node lat="63.24935277789222" lon="10.26139443675412" id="-36323">
		<tag k="name" v="Gravråk" />
		<tag k="place" v="farm" />
		<tag k="ssr:stedsnr" v="704607" />
	</node>
	<node lat="63.18917777369403" lon="10.226258337685673" id="-36324">
		<tag k="name" v="Odden" />
		<tag k="place" v="farm" />
		<tag k="ssr:stedsnr" v="704612" />
	</node>
	<node lat="63.08506110998889" lon="10.23428612012921" id="-36329">
		<tag k="name" v="Øvermoen" />
		<tag k="place" v="farm" />
		<tag k="ssr:stedsnr" v="704510" />
	</node>
	<node lat="63.216529175493584" lon="10.272885204504398" id="-36331">
		<tag k="alt_name" v="Klepp" />
		<tag k="name" v="Øvre Klepp" />
		<tag k="place" v="farm" />
		<tag k="ssr:stedsnr" v="704719" />
	</node>
	<node lat="63.163961108573936" lon="10.229786112630967" id="-36335">
		<tag k="name" v="Bennaløkkja" />
		<tag k="place" v="locality" />
		<tag k="ssr:stedsnr" v="704747" />
	</node>
	<node lat="63.15636944464028" lon="10.295427770527477" id="-36344">
		<tag k="name" v="Oppgarden" />
		<tag k="place" v="farm" />
		<tag k="ssr:stedsnr" v="704967" />
	</node>
	<node lat="63.18404444658834" lon="10.313472228496128" id="-36345">
		<tag k="name" v="Høgsæte" />
		<tag k="place" v="farm" />
		<tag k="ssr:stedsnr" v="704976" />
	</node>
	<node lat="63.14418888881617" lon="9.995650006388937" id="-36346">
		<tag k="name" v="Bjørkås" />
		<tag k="place" v="isolated_dwelling" />
		<tag k="ssr:stedsnr" v="705677" />
	</node>
	<node lat="63.18416944367941" lon="10.341036120847704" id="-36347">
		<tag k="name" v="Dal" />
		<tag k="place" v="farm" />
		<tag k="ssr:stedsnr" v="706218" />
	</node>
	<node lat="63.21202777877181" lon="10.385327784747856" id="-36348">
		<tag k="leisure" v="pitch" />
		<tag k="name" v="Bollandsmoen motorsportsenter" />
		<tag k="ssr:stedsnr" v="707558" />
	</node>
	<node lat="63.121266665858634" lon="10.55003888979404" id="-36349">
		<tag k="name" v="Håen hyttefelt" />
		<tag k="place" v="neighbourhood" />
		<tag k="ssr:stedsnr" v="707567" />
	</node>
	<node lat="63.30132777371977" lon="10.35456110505749" id="-36350">
		<tag k="name" v="Havdalsrønningen" />
		<tag k="place" v="farm" />
		<tag k="ssr:stedsnr" v="707806" />
	</node>
	<node lat="63.169494441438346" lon="10.1132166762068" id="-36351">
		<tag k="amenity" v="school" />
		<tag k="name" v="Eid skole og barnehage" />
		<tag k="ssr:stedsnr" v="709816" />
	</node>
	<node lat="63.296822219893244" lon="10.213794445903478" id="-36352">
		<tag k="name" v="Kråkmoen" />
		<tag k="place" v="farm" />
		<tag k="ssr:stedsnr" v="716910" />
	</node>
	<node lat="63.28872222503827" lon="10.261913889336938" id="-36354">
		<tag k="amenity" v="kindergarten" />
		<tag k="name" v="Gimsøya barnehage" />
		<tag k="ssr:stedsnr" v="723625" />
	</node>
	<node lat="63.15721651776134" lon="10.289464084692982" id="-36355">
		<tag k="fixme" v="consider place=hamlet" />
		<tag k="name" v="Lund" />
		<tag k="place" v="farm" />
		<tag k="ssr:stedsnr" v="728409" />
	</node>
	<node lat="63.11640054311574" lon="10.222174115614006" id="-36356">
		<tag k="fixme" v="consider place=hamlet" />
		<tag k="name" v="Sørtømme" />
		<tag k="place" v="farm" />
		<tag k="ssr:stedsnr" v="728426" />
	</node>
	<node lat="63.15358610912184" lon="10.01681666021029" id="-36357">
		<tag k="fixme" v="consider place=hamlet" />
		<tag k="name" v="Kolbrandstad" />
		<tag k="place" v="farm" />
		<tag k="ssr:stedsnr" v="728368" />
	</node>
	<node lat="63.11448333763634" lon="9.982644452151261" id="-36359">
		<tag k="fixme" v="consider place=hamlet" />
		<tag k="name" v="Gåsbakken" />
		<tag k="place" v="farm" />
		<tag k="ssr:stedsnr" v="740012" />
	</node>
	<node lat="63.12698878014976" lon="9.973401639104509" id="-36363">
		<tag k="name" v="Trotland" />
		<tag k="place" v="farm" />
		<tag k="ssr:stedsnr" v="740049" />
	</node>
	<node lat="63.17012222614236" lon="10.163605557984955" id="-36366">
		<tag k="alt_name" v="Skjegstadbakken" />
		<tag k="name" v="Skjeggstadbakken" />
		<tag k="place" v="farm" />
		<tag k="ssr:stedsnr" v="740127" />
	</node>
	<node lat="63.14742778062765" lon="10.01550833434738" id="-36368">
		<tag k="alt_name" v="Gravåhågån" />
		<tag k="name" v="Gråvåhåggån" />
		<tag k="place" v="farm" />
		<tag k="ssr:stedsnr" v="740091" />
	</node>
	<node lat="63.211699998498034" lon="10.209286118565052" id="-36369">
		<tag k="name" v="Steinåssætra" />
		<tag k="place" v="isolated_dwelling" />
		<tag k="ssr:stedsnr" v="740204" />
	</node>
	<node lat="63.08923889304805" lon="10.024016659788693" id="-36371">
		<tag k="fixme" v="consider place=hamlet" />
		<tag k="name" v="Lia" />
		<tag k="place" v="farm" />
		<tag k="ssr:stedsnr" v="740513" />
	</node>
	<node lat="63.20480413152865" lon="10.278184617459239" id="-36373">
		<tag k="alt_name" v="Hogsegga" />
		<tag k="fixme" v="consider place=hamlet" />
		<tag k="name" v="Hoksegga" />
		<tag k="place" v="farm" />
		<tag k="ssr:stedsnr" v="740696" />
	</node>
	<node lat="63.207941671094815" lon="10.299141674012795" id="-36374">
		<tag k="name" v="Bortn" />
		<tag k="place" v="farm" />
		<tag k="ssr:stedsnr" v="740699" />
	</node>
	<node lat="63.12719444542469" lon="10.238177781404616" id="-36378">
		<tag k="alt_name" v="Sandbraut" />
		<tag k="name" v="Sandbrauta" />
		<tag k="place" v="farm" />
		<tag k="ssr:stedsnr" v="740798" />
	</node>
	<node lat="63.09374969989518" lon="10.431294594058162" id="-36380">
		<tag k="name" v="Gyllvollen" />
		<tag k="place" v="locality" />
		<tag k="ssr:stedsnr" v="740922" />
	</node>
	<node lat="63.091374998217795" lon="10.2357249935074" id="-36382">
		<tag k="alt_name" v="Krokstadøra;Øran" />
		<tag k="name" v="Krokstadøran" />
		<tag k="place" v="farm" />
		<tag k="ssr:stedsnr" v="740924" />
	</node>
	<node lat="63.095352781671934" lon="10.551133341425663" id="-36383">
		<tag k="historic" v="shieling" />
		<tag k="name" v="Bjørgvollen" />
		<tag k="place" v="isolated_dwelling" />
		<tag k="ssr:stedsnr" v="740926" />
	</node>
	<node lat="63.18222500176491" lon="10.129716658105812" id="-36384">
		<tag k="alt_name" v="Myrlykkja" />
		<tag k="name" v="Myralykkja" />
		<tag k="place" v="farm" />
		<tag k="ssr:stedsnr" v="741205" />
	</node>
	<node lat="63.18203611435518" lon="10.118763891122896" id="-36385">
		<tag k="name" v="Sommarvoll" />
		<tag k="place" v="farm" />
		<tag k="ssr:stedsnr" v="741208" />
	</node>
	<node lat="63.181233331344174" lon="10.116325001086679" id="-36386">
		<tag k="name" v="Skogly" />
		<tag k="place" v="farm" />
		<tag k="ssr:stedsnr" v="741209" />
	</node>
	<node lat="63.25151110880429" lon="10.262258342020973" id="-36387">
		<tag k="name" v="Gravråk" />
		<tag k="place" v="farm" />
		<tag k="ssr:stedsnr" v="741190" />
	</node>
	<node lat="63.2713750005281" lon="10.244094448542842" id="-36388">
		<tag k="name" v="Brekkås" />
		<tag k="place" v="farm" />
		<tag k="ssr:stedsnr" v="741192" />
	</node>
	<node lat="63.262958335150934" lon="10.245905556468884" id="-36389">
		<tag k="name" v="Romolshåggån" />
		<tag k="place" v="farm" />
		<tag k="ssr:stedsnr" v="741236" />
	</node>
	<node lat="63.31211701829845" lon="10.263459653734964" id="-36390">
		<tag k="fixme" v="consider place=hamlet" />
		<tag k="name" v="Øyås" />
		<tag k="place" v="farm" />
		<tag k="ssr:stedsnr" v="741884" />
	</node>
	<node lat="63.30619444265157" lon="10.22929166049909" id="-36391">
		<tag k="name" v="Blekesaunet" />
		<tag k="place" v="farm" />
		<tag k="ssr:stedsnr" v="741885" />
	</node>
	<node lat="63.2860888879126" lon="10.278288896669592" id="-36393">
		<tag k="building" v="commercial" />
		<tag k="name" v="Melhus lensmannskontor" />
		<tag k="ssr:stedsnr" v="905693" />
	</node>
	<node lat="63.30438315822608" lon="10.33287297097973" id="-36396">
		<tag k="fixme" v="consider place=hamlet" />
		<tag k="name" v="Kvammen" />
		<tag k="place" v="farm" />
		<tag k="ssr:stedsnr" v="760347" />
	</node>
	<node lat="63.17399444358174" lon="10.279944448587715" id="-36397">
		<tag k="name" v="Kalvhåggån" />
		<tag k="place" v="farm" />
		<tag k="ssr:stedsnr" v="764303" />
	</node>
	<node lat="63.16991110904675" lon="10.276155554168252" id="-36398">
		<tag k="name" v="Løkkja" />
		<tag k="place" v="farm" />
		<tag k="ssr:stedsnr" v="764304" />
	</node>
	<node lat="63.17156944682671" lon="10.290263890434442" id="-36399">
		<tag k="name" v="Kosa" />
		<tag k="place" v="isolated_dwelling" />
		<tag k="ssr:stedsnr" v="764307" />
	</node>
	<node lat="63.273461115091465" lon="10.22963334076325" id="-36403">
		<tag k="name" v="Holemslykkja" />
		<tag k="place" v="farm" />
		<tag k="ssr:stedsnr" v="764228" />
	</node>
	<node lat="63.169327780919886" lon="10.427816673450621" id="-36406">
		<tag k="historic" v="shieling" />
		<tag k="name" v="Bybotsetra" />
		<tag k="place" v="isolated_dwelling" />
		<tag k="ssr:stedsnr" v="764244" />
	</node>
	<node lat="63.088305558160855" lon="10.240586101402755" id="-36410">
		<tag k="name" v="Innistuggu" />
		<tag k="place" v="farm" />
		<tag k="ssr:stedsnr" v="764507" />
	</node>
	<node lat="63.15019999876553" lon="10.155291663308638" id="-36412">
		<tag k="alt_name" v="Hjultjørnhogstret" />
		<tag k="name" v="Hjultjønnhogstret" />
		<tag k="place" v="farm" />
		<tag k="ssr:stedsnr" v="764494" />
	</node>
	<node lat="63.05339794464047" lon="10.108395129450283" id="-36413">
		<tag k="historic" v="shieling" />
		<tag k="name" v="Negardsvollen" />
		<tag k="place" v="isolated_dwelling" />
		<tag k="ssr:stedsnr" v="764606" />
	</node>
	<node lat="63.25283333359538" lon="10.184216658633119" id="-36431">
		<tag k="name" v="Hestsprenget" />
		<tag k="place" v="farm" />
		<tag k="ssr:stedsnr" v="765640" />
	</node>
	<node lat="63.29333610739512" lon="10.222774997859448" id="-36434">
		<tag k="name" v="Gjerdet" />
		<tag k="place" v="farm" />
		<tag k="ssr:stedsnr" v="765692" />
	</node>
	<node lat="63.263788891115226" lon="10.199147221042242" id="-36435">
		<tag k="name" v="Stykket" />
		<tag k="place" v="farm" />
		<tag k="ssr:stedsnr" v="765694" />
	</node>
	<node lat="63.260836114431655" lon="10.199202774942872" id="-36436">
		<tag k="name" v="Gjerdet" />
		<tag k="place" v="farm" />
		<tag k="ssr:stedsnr" v="765697" />
	</node>
	<node lat="63.262355559143224" lon="10.24565277265774" id="-36438">
		<tag k="name" v="Holemshåggån" />
		<tag k="place" v="farm" />
		<tag k="ssr:stedsnr" v="765989" />
	</node>
	<node lat="63.200188889923304" lon="10.379536111562706" id="-36439">
		<tag k="name" v="Vollavadet" />
		<tag k="place" v="farm" />
		<tag k="ssr:stedsnr" v="765991" />
	</node>
	<node lat="63.16854166642612" lon="10.312897228126285" id="-36440">
		<tag k="name" v="Utstuggu" />
		<tag k="place" v="farm" />
		<tag k="ssr:stedsnr" v="765996" />
	</node>
	<node lat="63.155533330952565" lon="10.29454721242828" id="-36441">
		<tag k="name" v="Oppgarden" />
		<tag k="place" v="farm" />
		<tag k="ssr:stedsnr" v="765997" />
	</node>
	<node lat="63.14889166314895" lon="10.300261115621282" id="-36442">
		<tag k="name" v="Veltdalen" />
		<tag k="place" v="farm" />
		<tag k="ssr:stedsnr" v="765998" />
	</node>
	<node lat="63.13517500376024" lon="10.306505563757355" id="-36445">
		<tag k="name" v="Vassåsen" />
		<tag k="place" v="farm" />
		<tag k="ssr:stedsnr" v="765896" />
	</node>
	<node lat="63.305674999212016" lon="10.29528054907976" id="-36448">
		<tag k="name" v="Gjerdet" />
		<tag k="place" v="farm" />
		<tag k="ssr:stedsnr" v="767606" />
	</node>
	<node lat="63.28604722019531" lon="10.260799990417327" id="-36450">
		<tag k="amenity" v="school" />
		<tag k="name" v="Gimse ungdomsskole" />
		<tag k="ssr:stedsnr" v="770819" />
	</node>
	<node lat="63.096225003403006" lon="9.920263880357618" id="-36453">
		<tag k="fixme" v="consider place=hamlet" />
		<tag k="name" v="Næve" />
		<tag k="place" v="farm" />
		<tag k="ssr:stedsnr" v="910396" />
	</node>
	<node lat="63.1253944480863" lon="10.22027499806266" id="-36454">
		<tag k="fixme" v="consider place=hamlet" />
		<tag k="name" v="Midttømme" />
		<tag k="place" v="farm" />
		<tag k="ssr:stedsnr" v="910454" />
	</node>
	<node lat="63.11871366633509" lon="10.212838702768963" id="-36455">
		<tag k="name" v="Sørtømme" />
		<tag k="place" v="hamlet" />
		<tag k="ssr:stedsnr" v="910457" />
	</node>
	<node lat="63.29539092844576" lon="10.28147677360646" id="-36456">
		<tag k="name" v="Brubakkgrinda" />
		<tag k="place" v="farm" />
		<tag k="ssr:stedsnr" v="785158" />
	</node>
	<node lat="63.30426666619264" lon="10.333227768536796" id="-36457">
		<tag k="name" v="Kvammen" />
		<tag k="place" v="farm" />
		<tag k="ssr:stedsnr" v="910795" />
	</node>
	<node lat="63.27573888472053" lon="10.296150005438705" id="-36458">
		<tag k="name" v="Loddgarden" />
		<tag k="place" v="farm" />
		<tag k="ssr:stedsnr" v="910818" />
	</node>
	<node lat="63.28492500363805" lon="10.310638894886585" id="-36459">
		<tag k="name" v="Østerdalsvollen" />
		<tag k="place" v="isolated_dwelling" />
		<tag k="ssr:stedsnr" v="910820" />
	</node>
	<node lat="63.24799444235077" lon="10.2723444442073" id="-36460">
		<tag k="fixme" v="consider place=hamlet" />
		<tag k="name" v="Skjerdingstad" />
		<tag k="place" v="farm" />
		<tag k="ssr:stedsnr" v="910831" />
	</node>
	<node lat="63.222724236873574" lon="10.304427679056912" id="-36461">
		<tag k="name" v="Nordflå" />
		<tag k="place" v="hamlet" />
		<tag k="ssr:stedsnr" v="910843" />
	</node>
	<node lat="63.230688820698326" lon="10.275989270499577" id="-36462">
		<tag k="alt_name" v="Kvål nedre" />
		<tag k="fixme" v="consider place=hamlet" />
		<tag k="name" v="Kvål" />
		<tag k="place" v="farm" />
		<tag k="ssr:stedsnr" v="910845" />
	</node>
	<node lat="63.29994383748505" lon="10.230987355567285" id="-36463">
		<tag k="name" v="Tuftan" />
		<tag k="place" v="farm" />
		<tag k="ssr:stedsnr" v="910978" />
	</node>
	<node lat="63.31012216344203" lon="10.264668835620576" id="-36465">
		<tag k="name" v="Øyås" />
		<tag k="place" v="hamlet" />
		<tag k="ssr:stedsnr" v="910992" />
	</node>
	<node lat="63.31223836974753" lon="10.255606689178922" id="-36466">
		<tag k="name" v="Duvsten" />
		<tag k="place" v="farm" />
		<tag k="ssr:stedsnr" v="910993" />
	</node>
	<node lat="63.309218380117265" lon="10.275733721955614" id="-36467">
		<tag k="name" v="Ferjstaden" />
		<tag k="place" v="farm" />
		<tag k="ssr:stedsnr" v="910998" />
	</node>
	<node lat="63.15750000437503" lon="10.299544441189836" id="-36469">
		<tag k="fixme" v="consider place=hamlet" />
		<tag k="name" v="Lund" />
		<tag k="place" v="farm" />
		<tag k="ssr:stedsnr" v="788357" />
	</node>
	<node lat="63.16394246393887" lon="10.300147520839046" id="-36470">
		<tag k="name" v="Kjellstad" />
		<tag k="old_name" v="Kjelstad" />
		<tag k="place" v="hamlet" />
		<tag k="ssr:stedsnr" v="788361" />
	</node>
	<node lat="63.18971780597762" lon="10.342054195658655" id="-36471">
		<tag k="name" v="Engan" />
		<tag k="place" v="farm" />
		<tag k="ssr:stedsnr" v="788097" />
	</node>
	<node lat="63.133216669346474" lon="10.264675006966486" id="-36472">
		<tag k="name" v="Midlyngan" />
		<tag k="place" v="farm" />
		<tag k="ssr:stedsnr" v="788413" />
	</node>
	<node lat="63.25565560577294" lon="10.283852148416388" id="-36473">
		<tag k="name" v="Hofstad" />
		<tag k="place" v="farm" />
		<tag k="ssr:stedsnr" v="788814" />
	</node>
	<node lat="63.24571886047954" lon="10.175594146110884" id="-36474">
		<tag k="alt_name" v="Olderøyen" />
		<tag k="fixme" v="consider place=hamlet" />
		<tag k="name" v="Olderøya" />
		<tag k="place" v="farm" />
		<tag k="ssr:stedsnr" v="788963" />
	</node>
	<node lat="63.101700000321095" lon="9.931925007213813" id="-36475">
		<tag k="name" v="Tverrhaugen" />
		<tag k="place" v="farm" />
		<tag k="ssr:stedsnr" v="801009" />
	</node>
	<node lat="63.10935555959277" lon="9.97244167517852" id="-36476">
		<tag k="alt_name" v="Nordli" />
		<tag k="name" v="Nordlia" />
		<tag k="place" v="farm" />
		<tag k="ssr:stedsnr" v="801019" />
	</node>
	<node lat="63.14921389196574" lon="10.09989722930129" id="-36479">
		<tag k="fixme" v="consider place=hamlet" />
		<tag k="name" v="Gaustad" />
		<tag k="place" v="farm" />
		<tag k="ssr:stedsnr" v="801090" />
	</node>
	<node lat="63.15157778111618" lon="10.011999992401421" id="-36480">
		<tag k="name" v="Megarden" />
		<tag k="place" v="farm" />
		<tag k="ssr:stedsnr" v="801091" />
	</node>
	<node lat="63.14292499792248" lon="9.981599991858499" id="-36481">
		<tag k="alt_name" v="Blokkum" />
		<tag k="fixme" v="consider place=hamlet" />
		<tag k="name" v="Blokkom" />
		<tag k="place" v="farm" />
		<tag k="ssr:stedsnr" v="801092" />
	</node>
	<node lat="63.220916667649526" lon="10.199066660048677" id="-36483">
		<tag k="name" v="Kregnessætra" />
		<tag k="place" v="isolated_dwelling" />
		<tag k="ssr:stedsnr" v="801224" />
	</node>
	<node lat="63.15244166645406" lon="9.922219454092055" id="-36485">
		<tag k="name" v="Rønningen" />
		<tag k="place" v="farm" />
		<tag k="ssr:stedsnr" v="801117" />
	</node>
	<node lat="63.076424995924505" lon="10.064699997038936" id="-36487">
		<tag k="alt_name" v="Løvåsløkkja" />
		<tag k="name" v="Lauvåslykkja" />
		<tag k="place" v="farm" />
		<tag k="ssr:stedsnr" v="801488" />
	</node>
	<node lat="63.189544441834734" lon="10.365472216796437" id="-36489">
		<tag k="alt_name" v="Bybotlykkja" />
		<tag k="name" v="Bybotslykkja" />
		<tag k="place" v="farm" />
		<tag k="ssr:stedsnr" v="801772" />
	</node>
	<node lat="63.13596666574118" lon="10.276161102438744" id="-36490">
		<tag k="name" v="Bekkeråkeren" />
		<tag k="place" v="farm" />
		<tag k="ssr:stedsnr" v="801791" />
	</node>
	<node lat="63.12118888740858" lon="10.528041674217796" id="-36492">
		<tag k="historic" v="shieling" />
		<tag k="name" v="Granhaugvollen" />
		<tag k="place" v="isolated_dwelling" />
		<tag k="ssr:stedsnr" v="801805" />
	</node>
	<node lat="63.152161109696806" lon="10.285549992319263" id="-36493">
		<tag k="name" v="Lundamo" />
		<tag k="place" v="village" />
		<tag k="ssr:stedsnr" v="801816" />
	</node>
	<node lat="63.17576944567853" lon="10.308925005584996" id="-36500">
		<tag k="name" v="Helgamo" />
		<tag k="place" v="farm" />
		<tag k="ssr:stedsnr" v="825267" />
	</node>
	<node lat="63.09510833485456" lon="10.254688895263792" id="-36504">
		<tag k="name" v="Kåsan" />
		<tag k="place" v="farm" />
		<tag k="ssr:stedsnr" v="825467" />
	</node>
	<node lat="63.08275000032745" lon="10.23260278172299" id="-36505">
		<tag k="name" v="Gammelsagmoen" />
		<tag k="place" v="farm" />
		<tag k="ssr:stedsnr" v="825471" />
	</node>
	<node lat="63.08049722268376" lon="10.258524997829037" id="-36506">
		<tag k="name" v="Rønningen" />
		<tag k="place" v="farm" />
		<tag k="ssr:stedsnr" v="825472" />
	</node>
	<node lat="63.08344722559536" lon="10.24521666685532" id="-36507">
		<tag k="name" v="Haugen" />
		<tag k="place" v="farm" />
		<tag k="ssr:stedsnr" v="825473" />
	</node>
	<node lat="63.11183333544265" lon="10.223733331014042" id="-36510">
		<tag k="name" v="Rønningsløkkja" />
		<tag k="place" v="farm" />
		<tag k="ssr:stedsnr" v="825963" />
	</node>
	<node lat="63.10951667115089" lon="10.222941669473787" id="-36511">
		<tag k="name" v="Innlegget" />
		<tag k="place" v="farm" />
		<tag k="ssr:stedsnr" v="825966" />
	</node>
	<node lat="63.12471110933762" lon="10.073227774279518" id="-36527">
		<tag k="fixme" v="consider place=hamlet" />
		<tag k="name" v="Sunnset" />
		<tag k="place" v="farm" />
		<tag k="ssr:stedsnr" v="922060" />
	</node>
	<node lat="63.131194443571474" lon="10.089552770556685" id="-36528">
		<tag k="name" v="Nyhus" />
		<tag k="place" v="farm" />
		<tag k="ssr:stedsnr" v="922061" />
	</node>
	<node lat="63.12942499785868" lon="9.932138883917897" id="-36529">
		<tag k="name" v="Sandstad" />
		<tag k="place" v="farm" />
		<tag k="ssr:stedsnr" v="922069" />
	</node>
	<node lat="63.3059194451652" lon="10.29668889676352" id="-36530">
		<tag k="alt_name" v="Skottvoll" />
		<tag k="name" v="Langgjerdet" />
		<tag k="place" v="farm" />
		<tag k="ssr:stedsnr" v="826713" />
	</node>
	<node lat="63.174383336265215" lon="10.04886944332239" id="-36539">
		<tag k="fixme" v="consider place=hamlet" />
		<tag k="name" v="Restad" />
		<tag k="place" v="farm" />
		<tag k="ssr:stedsnr" v="922148" />
	</node>
	<node lat="63.15792499811714" lon="10.105130551743192" id="-36551">
		<tag k="alt_name" v="Gaustoodden" />
		<tag k="name" v="Odden" />
		<tag k="place" v="farm" />
		<tag k="ssr:stedsnr" v="922117" />
	</node>
	<node lat="63.09726944181752" lon="10.12055555697741" id="-36553">
		<tag k="name" v="Lian" />
		<tag k="place" v="farm" />
		<tag k="ssr:stedsnr" v="828903" />
	</node>
	<node lat="63.29829361501919" lon="10.26214338207256" id="-36555">
		<tag k="fixme" v="consider place=hamlet" />
		<tag k="name" v="Bleke" />
		<tag k="place" v="farm" />
		<tag k="ssr:stedsnr" v="828877" />
	</node>
	<node lat="63.04456111543391" lon="10.050369444388167" id="-36556">
		<tag k="historic" v="shieling" />
		<tag k="name" v="Sørtømmesvollan" />
		<tag k="place" v="isolated_dwelling" />
		<tag k="ssr:stedsnr" v="922552" />
	</node>
	<node lat="63.15090555330094" lon="10.288133333759864" id="-36557">
		<tag k="amenity" v="sports_centre" />
		<tag k="name" v="Lundahallen" />
		<tag k="ssr:stedsnr" v="829569" />
	</node>
	<node lat="63.20049444385603" lon="10.505777778529964" id="-36559">
		<tag k="historic" v="shieling" />
		<tag k="name" v="Teigavollen" />
		<tag k="place" v="isolated_dwelling" />
		<tag k="ssr:stedsnr" v="922752" />
	</node>
	<node lat="63.19993055854904" lon="10.26637499354431" id="-36560">
		<tag k="name" v="Stokklykkja" />
		<tag k="place" v="farm" />
		<tag k="ssr:stedsnr" v="922755" />
	</node>
	<node lat="63.164697985715996" lon="10.301039342584378" id="-36564">
		<tag k="fixme" v="consider place=hamlet" />
		<tag k="name" v="Kjellstad" />
		<tag k="old_name" v="Kjelstad" />
		<tag k="place" v="farm" />
		<tag k="ssr:stedsnr" v="922843" />
	</node>
	<node lat="63.13919717229857" lon="10.254622693585045" id="-36565">
		<tag k="fixme" v="consider place=hamlet" />
		<tag k="name" v="Horg" />
		<tag k="place" v="farm" />
		<tag k="ssr:stedsnr" v="922854" />
	</node>
	<node lat="63.15066944049002" lon="10.28461111655198" id="-36567">
		<tag k="amenity" v="school" />
		<tag k="name" v="Lundamo ungdomsskole" />
		<tag k="ssr:stedsnr" v="831799" />
	</node>
	<node lat="63.16010833327259" lon="10.100169440449228" id="-36571">
		<tag k="fixme" v="consider place=suburb, village or hamlet" />
		<tag k="name" v="Korsvegen" />
		<tag k="place" v="quarter" />
		<tag k="ssr:stedsnr" v="923151" />
	</node>
	<node lat="63.10388611375796" lon="10.242002772790311" id="-36572">
		<tag k="name" v="Grønlia" />
		<tag k="place" v="farm" />
		<tag k="ssr:stedsnr" v="923932" />
	</node>
	<node lat="63.28148333018803" lon="10.206291664170676" id="-36575">
		<tag k="alt_name" v="Lefstadaunet" />
		<tag k="name" v="Aunet" />
		<tag k="place" v="farm" />
		<tag k="ssr:stedsnr" v="923393" />
	</node>
	<node lat="63.166788884793974" lon="10.606227776520065" id="-36576">
		<tag k="name" v="Flåvollen" />
		<tag k="place" v="isolated_dwelling" />
		<tag k="ssr:stedsnr" v="923795" />
	</node>
	<node lat="63.171808334140245" lon="10.306894439118864" id="-36577">
		<tag k="alt_name" v="Einum" />
		<tag k="fixme" v="consider place=hamlet" />
		<tag k="name" v="Einan" />
		<tag k="place" v="farm" />
		<tag k="ssr:stedsnr" v="923811" />
	</node>
	<node lat="63.18764721814276" lon="10.305983341425298" id="-36578">
		<tag k="name" v="Haltbrekkgjerdet" />
		<tag k="old_name" v="Ler" />
		<tag k="place" v="farm" />
		<tag k="ssr:stedsnr" v="923827" />
	</node>
	<node lat="63.12372777610517" lon="10.435730560650725" id="-36581">
		<tag k="historic" v="shieling" />
		<tag k="name" v="Midlyngvollen" />
		<tag k="place" v="isolated_dwelling" />
		<tag k="ssr:stedsnr" v="923853" />
	</node>
	<node lat="63.30919652464442" lon="10.287069490162684" id="-36583">
		<tag k="name" v="Nordre Jaktøya" />
		<tag k="place" v="farm" />
		<tag k="ssr:stedsnr" v="924856" />
	</node>
	<node lat="63.15430000289352" lon="10.27530277094783" id="-36584">
		<tag k="building" v="industrial" />
		<tag k="name" v="Lundamo miljøstasjon" />
		<tag k="ssr:stedsnr" v="846293" />
	</node>
	<node lat="63.173194445171426" lon="10.118741673966461" id="-36585">
		<tag k="fixme" v="consider place=hamlet" />
		<tag k="name" v="Eid" />
		<tag k="place" v="farm" />
		<tag k="ssr:stedsnr" v="849406" />
	</node>
	<node lat="63.101902656977714" lon="10.221524185293587" id="-36586">
		<tag k="name" v="Hovin" />
		<tag k="place" v="hamlet" />
		<tag k="ssr:stedsnr" v="849475" />
	</node>
	<node lat="63.26690894104875" lon="10.256696999539585" id="-36588">
		<tag k="name" v="Romol" />
		<tag k="place" v="farm" />
		<tag k="ssr:stedsnr" v="849930" />
	</node>
	<node lat="63.30979014162278" lon="10.261372250834599" id="-36589">
		<tag k="fixme" v="consider place=hamlet" />
		<tag k="name" v="Øyås" />
		<tag k="place" v="farm" />
		<tag k="ssr:stedsnr" v="849996" />
	</node>
	<node lat="63.14453055667292" lon="9.900161105923118" id="-36590">
		<tag k="fixme" v="consider place=hamlet" />
		<tag k="name" v="Sundet" />
		<tag k="place" v="farm" />
		<tag k="ssr:stedsnr" v="862114" />
	</node>
	<node lat="63.150747218850704" lon="10.18500000694954" id="-36591">
		<tag k="alt_name" v="Brenna" />
		<tag k="name" v="Grøtbrenna" />
		<tag k="place" v="farm" />
		<tag k="ssr:stedsnr" v="862122" />
	</node>
	<node lat="63.18204166374713" lon="10.124705553286653" id="-36592">
		<tag k="name" v="Eidslykkja" />
		<tag k="place" v="farm" />
		<tag k="ssr:stedsnr" v="862203" />
	</node>
	<node lat="63.087058335860306" lon="10.070808335105745" id="-36595">
		<tag k="fixme" v="consider place=hamlet" />
		<tag k="name" v="Reitan" />
		<tag k="place" v="farm" />
		<tag k="ssr:stedsnr" v="862505" />
	</node>
	<node lat="63.09307499885407" lon="10.060280561969737" id="-36596">
		<tag k="alt_name" v="Espås" />
		<tag k="fixme" v="consider place=hamlet" />
		<tag k="name" v="Espåsen" />
		<tag k="place" v="farm" />
		<tag k="ssr:stedsnr" v="862518" />
	</node>
	<node lat="63.080600001540645" lon="10.07732500393449" id="-36597">
		<tag k="alt_name" v="Løvåsen" />
		<tag k="fixme" v="consider place=hamlet" />
		<tag k="name" v="Lauvåsen" />
		<tag k="place" v="farm" />
		<tag k="ssr:stedsnr" v="862502" />
	</node>
	<node lat="63.22110555933478" lon="10.38211943583711" id="-36599">
		<tag k="alt_name" v="Langmyra" />
		<tag k="name" v="Skogheim" />
		<tag k="place" v="farm" />
		<tag k="ssr:stedsnr" v="862707" />
	</node>
	<node lat="63.02506111137891" lon="10.038224992661458" id="-36600">
		<tag k="name" v="Godfjellstuggu" />
		<tag k="old_name" v="Godfjellstugu" />
		<tag k="place" v="isolated_dwelling" />
		<tag k="ssr:stedsnr" v="862662" />
	</node>
	<node lat="63.19587500325494" lon="10.341300001932865" id="-36601">
		<tag k="name" v="Håggålykkja" />
		<tag k="place" v="farm" />
		<tag k="ssr:stedsnr" v="862804" />
	</node>
	<node lat="63.19936667081098" lon="10.337600007314347" id="-36602">
		<tag k="name" v="Blukkuåsen" />
		<tag k="place" v="farm" />
		<tag k="ssr:stedsnr" v="862810" />
	</node>
	<node lat="63.14143888923543" lon="10.278363887203108" id="-36605">
		<tag k="name" v="Nordstu" />
		<tag k="place" v="farm" />
		<tag k="ssr:stedsnr" v="862874" />
	</node>
	<node lat="63.297724437725165" lon="10.26129029784681" id="-36607">
		<tag k="name" v="Bleke" />
		<tag k="place" v="farm" />
		<tag k="ssr:stedsnr" v="863799" />
	</node>
	<node lat="63.141742422267086" lon="10.334215650178898" id="-36608">
		<tag k="name" v="Lium" />
		<tag k="place" v="farm" />
		<tag k="ssr:stedsnr" v="931883" />
	</node>
	<node lat="63.176733334139584" lon="10.35243333818145" id="-36613">
		<tag k="name" v="Fallan" />
		<tag k="place" v="farm" />
		<tag k="ssr:stedsnr" v="886304" />
	</node>
	<node lat="63.26331388893198" lon="10.224566657828161" id="-36619">
		<tag k="name" v="Holemsgjerdet" />
		<tag k="place" v="farm" />
		<tag k="ssr:stedsnr" v="886250" />
	</node>
	<node lat="63.14932778009572" lon="10.305172225066238" id="-36636">
		<tag k="name" v="Velta" />
		<tag k="place" v="farm" />
		<tag k="ssr:stedsnr" v="886998" />
	</node>
	<node lat="63.082219292151365" lon="10.246140189758485" id="-36638">
		<tag k="name" v="Systuløkkja" />
		<tag k="place" v="farm" />
		<tag k="ssr:stedsnr" v="887152" />
	</node>
	<node lat="63.15063611484425" lon="10.300030553836013" id="-36653">
		<tag k="name" v="Litlstenen boligfelt" />
		<tag k="place" v="quarter" />
		<tag k="ssr:stedsnr" v="887801" />
	</node>
	<node lat="63.12460833579754" lon="10.215647218363051" id="-36657">
		<tag k="fixme" v="consider place=hamlet" />
		<tag k="name" v="Midttømme" />
		<tag k="place" v="farm" />
		<tag k="ssr:stedsnr" v="887845" />
	</node>
	<node lat="63.27543333385668" lon="10.24309443665453" id="-36662">
		<tag k="name" v="Gimsan" />
		<tag k="place" v="quarter" />
		<tag k="ssr:stedsnr" v="890612" />
	</node>
	<node lat="63.10577777781064" lon="10.239227778951959" id="-36664">
		<tag k="fixme" v="consider place=hamlet" />
		<tag k="name" v="Foss" />
		<tag k="place" v="farm" />
		<tag k="ssr:stedsnr" v="910418" />
	</node>
	<node lat="63.14132222670786" lon="10.257986109545083" id="-36665">
		<tag k="name" v="Horg" />
		<tag k="place" v="farm" />
		<tag k="ssr:stedsnr" v="910425" />
	</node>
	<node lat="63.23905004263441" lon="10.23019248271701" id="-36666">
		<tag k="name" v="Mo" />
		<tag k="place" v="farm" />
		<tag k="ssr:stedsnr" v="910922" />
	</node>
	<node lat="63.15009444145681" lon="9.91986110214884" id="-36667">
		<tag k="name" v="Austlia" />
		<tag k="place" v="farm" />
		<tag k="ssr:stedsnr" v="922097" />
	</node>
	<node lat="63.21566066131715" lon="10.255199648878968" id="-36673">
		<tag k="fixme" v="consider place=hamlet" />
		<tag k="name" v="Forsetlykkja" />
		<tag k="place" v="farm" />
		<tag k="ssr:stedsnr" v="922706" />
	</node>
	<node lat="63.12731110960293" lon="10.243577769085983" id="-36675">
		<tag k="fixme" v="consider place=hamlet" />
		<tag k="name" v="Røskaft" />
		<tag k="place" v="farm" />
		<tag k="ssr:stedsnr" v="922785" />
	</node>
	<node lat="63.150375002927504" lon="10.289299992017707" id="-36676">
		<tag k="name" v="Moen" />
		<tag k="place" v="farm" />
		<tag k="ssr:stedsnr" v="922828" />
	</node>
	<node lat="63.151677773631704" lon="10.012402783026324" id="-36679">
		<tag k="fixme" v="consider place=hamlet" />
		<tag k="name" v="Kolbrandstad" />
		<tag k="place" v="farm" />
		<tag k="ssr:stedsnr" v="923138" />
	</node>
	<node lat="63.16700555117559" lon="10.074775004041182" id="-36680">
		<tag k="name" v="Storslættet" />
		<tag k="old_name" v="Storslettet" />
		<tag k="place" v="farm" />
		<tag k="ssr:stedsnr" v="923173" />
	</node>
	<node lat="63.17905555378142" lon="10.055475008086475" id="-36681">
		<tag k="fixme" v="consider place=hamlet" />
		<tag k="name" v="Klefstad" />
		<tag k="place" v="farm" />
		<tag k="ssr:stedsnr" v="923208" />
	</node>
	<node lat="63.1892027810267" lon="10.211333336449536" id="-36683">
		<tag k="alt_name" v="Branemflåtten" />
		<tag k="name" v="Branemsflåtten" />
		<tag k="place" v="farm" />
		<tag k="ssr:stedsnr" v="923221" />
	</node>
	<node lat="63.06418055790743" lon="10.047688893300377" id="-36687">
		<tag k="historic" v="shieling" />
		<tag k="name" v="Innistuvollen" />
		<tag k="place" v="isolated_dwelling" />
		<tag k="ssr:stedsnr" v="923637" />
	</node>
	<node lat="63.33134166938242" lon="10.239255560434842" id="-36689">
		<tag k="alt_name" v="Øye" />
		<tag k="fixme" v="consider place=hamlet" />
		<tag k="name" v="Øy" />
		<tag k="place" v="farm" />
		<tag k="ssr:stedsnr" v="923922" />
	</node>
	<node lat="63.335669441306685" lon="10.219224990089595" id="-36690">
		<tag k="name" v="Øyaplassen" />
		<tag k="place" v="farm" />
		<tag k="ssr:stedsnr" v="923924" />
	</node>
	<node lat="63.276936110994555" lon="10.252686113455026" id="-36691">
		<tag k="alt_name" v="Trøndertun" />
		<tag k="amenity" v="school" />
		<tag k="name" v="Trøndertun folkehøgskole" />
		<tag k="old_name" v="Gauldal folkehøgskule" />
		<tag k="ssr:stedsnr" v="924765" />
	</node>
	<node lat="63.1941444439833" lon="10.355230557814217" id="-36697">
		<tag k="name" v="Skurlykkja" />
		<tag k="place" v="farm" />
		<tag k="ssr:stedsnr" v="947279" />
	</node>
	<node lat="63.19461944794163" lon="10.337822226296451" id="-36698">
		<tag k="name" v="Engset" />
		<tag k="place" v="farm" />
		<tag k="ssr:stedsnr" v="947288" />
	</node>
	<node lat="63.142119443719345" lon="10.098452782840198" id="-36722">
		<tag k="name" v="Nyvegen" />
		<tag k="place" v="farm" />
		<tag k="ssr:stedsnr" v="947503" />
	</node>
	<node lat="63.337538892343524" lon="10.225561107176599" id="-36725">
		<tag k="name" v="Øyen" />
		<tag k="place" v="farm" />
		<tag k="ssr:stedsnr" v="947711" />
	</node>
	<node lat="63.23199166443638" lon="10.29845276792781" id="-36726">
		<tag k="name" v="Dålån" />
		<tag k="place" v="farm" />
		<tag k="ssr:stedsnr" v="947716" />
	</node>
	<node lat="63.215419504060264" lon="10.262926206609935" id="-36727">
		<tag k="name" v="Litlrønningen" />
		<tag k="place" v="farm" />
		<tag k="ssr:stedsnr" v="947729" />
	</node>
	<node lat="63.305411108835095" lon="10.325755556209746" id="-36733">
		<tag k="name" v="Kvamsleret" />
		<tag k="place" v="farm" />
		<tag k="ssr:stedsnr" v="947687" />
	</node>
	<node lat="63.30873333233203" lon="10.260644444290115" id="-36736">
		<tag k="name" v="Perstu" />
		<tag k="place" v="farm" />
		<tag k="ssr:stedsnr" v="947692" />
	</node>
	<node lat="63.144058336371714" lon="10.276122223954852" id="-36738">
		<tag k="name" v="Varegga boligfelt" />
		<tag k="place" v="quarter" />
		<tag k="ssr:stedsnr" v="947811" />
	</node>
	<node lat="63.28633888523537" lon="10.263325004914318" id="-36746">
		<tag k="amenity" v="school" />
		<tag k="name" v="Gimse barneskole" />
		<tag k="ssr:stedsnr" v="952813" />
	</node>
	<node lat="63.248297791443825" lon="10.25620386177699" id="-36749">
		<tag k="fixme" v="consider place=hamlet" />
		<tag k="name" v="Gravråk" />
		<tag k="place" v="farm" />
		<tag k="ssr:stedsnr" v="970505" />
	</node>
	<node lat="63.278046125615276" lon="10.289126375984587" id="-36750">
		<tag k="fixme" v="consider place=hamlet" />
		<tag k="name" v="Melhus" />
		<tag k="place" v="farm" />
		<tag k="ssr:stedsnr" v="970506" />
	</node>
	<node lat="63.21314202013463" lon="10.258178914871381" id="-36751">
		<tag k="name" v="Haugen" />
		<tag k="place" v="farm" />
		<tag k="ssr:stedsnr" v="970560" />
	</node>
	<node lat="63.1726926597178" lon="10.1212628726751" id="-36752">
		<tag k="name" v="Eid" />
		<tag k="place" v="hamlet" />
		<tag k="ssr:stedsnr" v="970601" />
	</node>
	<node lat="63.28574883271936" lon="10.239057898847873" id="-36753">
		<tag k="alt_name" v="Voll" />
		<tag k="name" v="Vollan" />
		<tag k="place" v="hamlet" />
		<tag k="ssr:stedsnr" v="970704" />
	</node>
	<node lat="63.135211114790785" lon="10.235838896039189" id="-36754">
		<tag k="name" v="Grinni" />
		<tag k="place" v="farm" />
		<tag k="ssr:stedsnr" v="970751" />
	</node>
	<node lat="63.17542222577001" lon="10.291944451653269" id="-36755">
		<tag k="fixme" v="consider place=hamlet" />
		<tag k="name" v="Leberg" />
		<tag k="place" v="farm" />
		<tag k="ssr:stedsnr" v="970757" />
	</node>
	<node lat="63.151247218982355" lon="9.914386119571951" id="-36756">
		<tag k="name" v="Kjøsa" />
		<tag k="place" v="farm" />
		<tag k="ssr:stedsnr" v="970608" />
	</node>
	<node lat="63.140483336640486" lon="10.273308328760889" id="-36757">
		<tag k="fixme" v="consider place=hamlet" />
		<tag k="name" v="Lyngen" />
		<tag k="place" v="farm" />
		<tag k="ssr:stedsnr" v="970655" />
	</node>
	<node lat="63.246638607632796" lon="10.22465112211765" id="-36758">
		<tag k="fixme" v="consider place=hamlet" />
		<tag k="name" v="Sjetnan" />
		<tag k="place" v="farm" />
		<tag k="ssr:stedsnr" v="970662" />
	</node>
	<node lat="63.27320972771876" lon="10.21794932480284" id="-36759">
		<tag k="name" v="Lykkja" />
		<tag k="place" v="farm" />
		<tag k="ssr:stedsnr" v="970694" />
	</node>
	<node lat="63.06669685734978" lon="10.184695477000476" id="-36763">
		<tag k="historic" v="shieling" />
		<tag k="name" v="Nordgardsvollen" />
		<tag k="place" v="isolated_dwelling" />
		<tag k="ssr:stedsnr" v="982443" />
	</node>
	<node lat="63.113544444810834" lon="9.933927770303027" id="-36765">
		<tag k="name" v="Østlund" />
		<tag k="place" v="farm" />
		<tag k="ssr:stedsnr" v="12021" />
	</node>
	<node lat="63.112325001562645" lon="10.007466662812888" id="-36766">
		<tag k="name" v="Øyan" />
		<tag k="place" v="farm" />
		<tag k="ssr:stedsnr" v="12025" />
	</node>
	<node lat="63.12382222414429" lon="10.214280551094404" id="-36769">
		<tag k="alt_name" v="Haugen" />
		<tag k="name" v="Midtømmeshaugen" />
		<tag k="place" v="farm" />
		<tag k="ssr:stedsnr" v="12059" />
	</node>
	<node lat="63.124130556813384" lon="9.966727784765855" id="-36770">
		<tag k="alt_name" v="Litlegga" />
		<tag k="name" v="Egga" />
		<tag k="place" v="farm" />
		<tag k="ssr:stedsnr" v="12061" />
	</node>
	<node lat="63.16844166667982" lon="10.109616672489771" id="-36773">
		<tag k="name" v="Moan" />
		<tag k="place" v="farm" />
		<tag k="ssr:stedsnr" v="12161" />
	</node>
	<node lat="63.24861111362451" lon="10.28665000377805" id="-36775">
		<tag k="name" v="Gravråksmoen" />
		<tag k="old_name" v="Gravråkmoen" />
		<tag k="place" v="farm" />
		<tag k="ssr:stedsnr" v="12630" />
	</node>
	<node lat="63.23291111455084" lon="10.426794454174193" id="-36779">
		<tag k="name" v="Fredheim" />
		<tag k="old_name" v="Tanem" />
		<tag k="place" v="farm" />
		<tag k="ssr:stedsnr" v="12719" />
	</node>
	<node lat="63.23835277820088" lon="10.432855560046056" id="-36780">
		<tag k="name" v="Finnaunet" />
		<tag k="place" v="farm" />
		<tag k="ssr:stedsnr" v="12735" />
	</node>
	<node lat="63.09754444860532" lon="10.367355559298502" id="-36783">
		<tag k="historic" v="shieling" />
		<tag k="name" v="Vollavollen" />
		<tag k="old_name" v="Vollsvollen" />
		<tag k="place" v="isolated_dwelling" />
		<tag k="ssr:stedsnr" v="12929" />
	</node>
	<node lat="63.28521565107454" lon="10.20496355524725" id="-36784">
		<tag k="alt_name" v="Dålån" />
		<tag k="fixme" v="consider place=hamlet" />
		<tag k="name" v="Dalan" />
		<tag k="place" v="farm" />
		<tag k="ssr:stedsnr" v="13397" />
	</node>
	<node lat="63.2805361093241" lon="10.306672212788477" id="-36786">
		<tag k="name" v="Loddgardstrøa" />
		<tag k="place" v="farm" />
		<tag k="ssr:stedsnr" v="13784" />
	</node>
	<node lat="63.28961111497567" lon="10.306824995324671" id="-36787">
		<tag k="name" v="Nordegga" />
		<tag k="place" v="farm" />
		<tag k="ssr:stedsnr" v="13798" />
	</node>
	<node lat="63.291003335441516" lon="10.322053381762146" id="-36788">
		<tag k="fixme" v="consider place=hamlet" />
		<tag k="name" v="Rønningen" />
		<tag k="place" v="farm" />
		<tag k="ssr:stedsnr" v="13800" />
	</node>
	<node lat="63.1774305518162" lon="10.285252775647242" id="-36791">
		<tag k="name" v="Nordstuggu" />
		<tag k="place" v="farm" />
		<tag k="ssr:stedsnr" v="36292" />
	</node>
	<node lat="63.271622223998286" lon="10.24542222417526" id="-36794">
		<tag k="name" v="Brekkåsen" />
		<tag k="place" v="locality" />
		<tag k="ssr:stedsnr" v="36122" />
	</node>
	<node lat="63.13506388604801" lon="10.224822214782744" id="-36797">
		<tag k="name" v="Dalen" />
		<tag k="place" v="farm" />
		<tag k="ssr:stedsnr" v="36982" />
	</node>
	<node lat="63.1379055588117" lon="10.226477771934638" id="-36798">
		<tag k="name" v="Brenna" />
		<tag k="place" v="farm" />
		<tag k="ssr:stedsnr" v="36986" />
	</node>
	<node lat="63.10557197106432" lon="10.239586791033004" id="-36811">
		<tag k="name" v="Sørgarden" />
		<tag k="place" v="farm" />
		<tag k="ssr:stedsnr" v="36484" />
	</node>
	<node lat="63.105872223337194" lon="10.251624991721838" id="-36812">
		<tag k="name" v="Fossinnlegget" />
		<tag k="place" v="farm" />
		<tag k="ssr:stedsnr" v="36485" />
	</node>
	<node lat="63.09142499680895" lon="10.234536119718468" id="-36815">
		<tag k="name" v="Ørstuggu" />
		<tag k="place" v="isolated_dwelling" />
		<tag k="ssr:stedsnr" v="36495" />
	</node>
	<node lat="63.179783329846785" lon="10.058702777292261" id="-36817">
		<tag k="name" v="Gammelgarden" />
		<tag k="place" v="locality" />
		<tag k="ssr:stedsnr" v="37515" />
	</node>
	<node lat="63.14764166609048" lon="10.266755550993208" id="-36818">
		<tag k="name" v="Sanden" />
		<tag k="place" v="farm" />
		<tag k="ssr:stedsnr" v="36941" />
	</node>
	<node lat="63.13701944637845" lon="10.273150005276872" id="-36819">
		<tag k="name" v="Sanden" />
		<tag k="place" v="farm" />
		<tag k="ssr:stedsnr" v="36946" />
	</node>
	<node lat="63.10858611274569" lon="10.244805559268883" id="-36821">
		<tag k="name" v="Skogløkkjflotten" />
		<tag k="place" v="farm" />
		<tag k="ssr:stedsnr" v="36953" />
	</node>
	<node lat="63.29724999659585" lon="10.301683338779663" id="-36830">
		<tag k="name" v="Lerlivangen" />
		<tag k="place" v="farm" />
		<tag k="ssr:stedsnr" v="37240" />
	</node>
	<node lat="63.267288892847226" lon="10.211911120465492" id="-36831">
		<tag k="name" v="Veltet" />
		<tag k="place" v="farm" />
		<tag k="ssr:stedsnr" v="37248" />
	</node>
	<node lat="63.173019441445916" lon="10.12284722011072" id="-36836">
		<tag k="name" v="Eidsgrenda" />
		<tag k="place" v="hamlet" />
		<tag k="ssr:stedsnr" v="37489" />
	</node>
	<node lat="63.18440832954557" lon="10.058000001633319" id="-36838">
		<tag k="name" v="Nordlykkja" />
		<tag k="place" v="farm" />
		<tag k="ssr:stedsnr" v="37685" />
	</node>
	<node lat="63.049044448157694" lon="10.02870277976083" id="-36839">
		<tag k="name" v="Klevaløkkja" />
		<tag k="place" v="farm" />
		<tag k="ssr:stedsnr" v="37689" />
	</node>
	<node lat="63.04538333173853" lon="10.050927771644739" id="-36840">
		<tag k="historic" v="shieling" />
		<tag k="name" v="Moagjerdsvollen" />
		<tag k="place" v="isolated_dwelling" />
		<tag k="ssr:stedsnr" v="37691" />
	</node>
	<node lat="63.29479444610178" lon="10.245316666851155" id="-36842">
		<tag k="name" v="Varmbuflata" />
		<tag k="place" v="farm" />
		<tag k="ssr:stedsnr" v="37698" />
	</node>
	<node lat="63.150941666987364" lon="10.283586110453678" id="-36848">
		<tag k="amenity" v="sports_centre" />
		<tag k="name" v="Horghallen" />
		<tag k="ssr:stedsnr" v="37795" />
	</node>
	<node lat="63.151269445806605" lon="10.287652778082427" id="-36849">
		<tag k="amenity" v="school" />
		<tag k="name" v="Lundamo skole og barnehage" />
		<tag k="old_name" v="Lundamo barnehage" />
		<tag k="ssr:stedsnr" v="37797" />
	</node>
</osm>
