<?xml version="1.0" encoding="UTF-8"?>
<<<<<<< HEAD
<osm version="0.6" generator="osmapis">
	<node lat="59.30095277787402" lon="4.8733527700372115" id="-1967">
		<tag k="name" v="Grønhelletuå" />
		<tag k="natural" v="hill" />
		<tag k="place" v="locality" />
		<tag k="ssr:stedsnr" v="87916" />
	</node>
	<node lat="59.30481666375698" lon="4.891486107385672" id="-1970">
		<tag k="name" v="Håbjørg" />
		<tag k="natural" v="hill" />
		<tag k="place" v="locality" />
		<tag k="ssr:stedsnr" v="87921" />
	</node>
	<node lat="59.31295833154114" lon="4.877941664066316" id="-1979">
		<tag k="name" v="Gullberg" />
		<tag k="natural" v="hill" />
		<tag k="place" v="locality" />
		<tag k="ssr:stedsnr" v="209588" />
	</node>
	<node lat="59.314702773274625" lon="4.892447219261069" id="-1990">
		<tag k="alt_name" v="Vågefjell" />
		<tag k="fixme" v="consider natural=peak for the most distinct mountains in the district" />
		<tag k="name" v="Vågafjell" />
		<tag k="natural" v="hill" />
		<tag k="place" v="locality" />
		<tag k="ssr:stedsnr" v="451598" />
	</node>
	<node lat="59.295902778006564" lon="4.883422215122823" id="-1991">
		<tag k="name" v="Åkerfall" />
		<tag k="natural" v="hill" />
		<tag k="place" v="locality" />
		<tag k="ssr:stedsnr" v="451632" />
	</node>
	<node lat="59.30505278153907" lon="4.896058330985585" id="-2000">
		<tag k="fixme" v="consider natural=peak for the most distinct mountains in the district" />
		<tag k="name" v="Tormofjell" />
		<tag k="natural" v="hill" />
		<tag k="place" v="locality" />
		<tag k="ssr:stedsnr" v="269610" />
	</node>
	<node lat="59.301461112395245" lon="4.895808335373245" id="-2001">
		<tag k="name" v="Træhojen" />
		<tag k="natural" v="hill" />
		<tag k="place" v="locality" />
		<tag k="ssr:stedsnr" v="269612" />
	</node>
	<node lat="59.304930552774834" lon="4.911099997084778" id="-2010">
		<tag k="name" v="Høga Berget" />
		<tag k="natural" v="hill" />
		<tag k="place" v="locality" />
		<tag k="ssr:stedsnr" v="390538" />
	</node>
	<node lat="59.31138055278419" lon="4.871294447102436" id="-2011">
		<tag k="name" v="Tipphojen" />
		<tag k="natural" v="hill" />
		<tag k="place" v="locality" />
		<tag k="ssr:stedsnr" v="390549" />
	</node>
	<node lat="59.30961110758944" lon="4.8935444421935195" id="-2024">
		<tag k="name" v="Sjoardalen" />
		<tag k="natural" v="valley" />
		<tag k="place" v="locality" />
		<tag k="ssr:stedsnr" v="572610" />
	</node>
	<node lat="59.30488888792891" lon="4.889249996008128" id="-2026">
		<tag k="fixme" v="consider natural=peak for the most distinct mountains in the district" />
		<tag k="name" v="Yrefjellet" />
		<tag k="natural" v="hill" />
		<tag k="place" v="locality" />
		<tag k="ssr:stedsnr" v="694592" />
	</node>
	<node lat="59.30826944423482" lon="4.867238882282765" id="-2028">
		<tag k="alt_name" v="Kvilhaug" />
		<tag k="name" v="Kvithaug" />
		<tag k="natural" v="hill" />
		<tag k="place" v="locality" />
		<tag k="ssr:stedsnr" v="694564" />
	</node>
	<node lat="59.30532777539088" lon="4.873666672725032" id="-2033">
		<tag k="alt_name" v="Araseto" />
		<tag k="name" v="Arasetet" />
		<tag k="natural" v="hill" />
		<tag k="place" v="locality" />
		<tag k="ssr:stedsnr" v="669712" />
	</node>
	<node lat="59.303852776098324" lon="4.90086667540572" id="-2042">
		<tag k="name" v="Duberg" />
		<tag k="natural" v="hill" />
		<tag k="place" v="locality" />
		<tag k="ssr:stedsnr" v="755616" />
	</node>
	<node lat="59.30301110882549" lon="4.895013890981551" id="-2063">
		<tag k="name" v="Klopp" />
		<tag k="natural" v="hill" />
		<tag k="place" v="locality" />
		<tag k="ssr:stedsnr" v="27635" />
	</node>
	<node lat="59.297447225102324" lon="4.896544442698023" id="-2064">
		<tag k="name" v="Golo" />
		<tag k="natural" v="slope" />
		<tag k="place" v="locality" />
		<tag k="ssr:stedsnr" v="27645" />
	</node>
	<node lat="59.299947222785775" lon="4.865908338605221" id="-2070">
		<tag k="name" v="Spylakyrkja" />
		<tag k="natural" v="hill" />
		<tag k="place" v="locality" />
		<tag k="ssr:stedsnr" v="87568" />
	</node>
	<node lat="59.30203889101777" lon="4.889286103348435" id="-2076">
		<tag k="name" v="Skarshojen" />
		<tag k="natural" v="hill" />
		<tag k="place" v="locality" />
		<tag k="ssr:stedsnr" v="209619" />
	</node>
	<node lat="59.309144446386576" lon="4.879127772191092" id="-2081">
		<tag k="fixme" v="consider natural=peak for the most distinct mountains in the district" />
		<tag k="name" v="Varen" />
=======
<osm generator="osmapis" version="0.6">
	<node id="-41718" lat="59.3150472234" lon="4.89998888453">
		<tag k="alt_name" v="Møbjør" />
		<tag k="name" v="Måbjør" />
		<tag k="natural" v="hill" />
		<tag k="place" v="locality" />
		<tag k="ssr:stedsnr" v="730763" />
	</node>
	<node id="-41712" lat="59.301713891" lon="4.86745833704">
		<tag k="name" v="Vågadal" />
		<tag k="natural" v="valley" />
		<tag k="place" v="locality" />
		<tag k="ssr:stedsnr" v="876600" />
	</node>
	<node id="-41703" lat="59.3048888879" lon="4.88924999601">
		<tag k="fixme" v="consider natural=peak for the most distinct mountains in the district" />
		<tag k="name" v="Yrefjellet" />
		<tag k="natural" v="hill" />
		<tag k="place" v="locality" />
		<tag k="ssr:stedsnr" v="694592" />
	</node>
	<node id="-41699" lat="59.3082694442" lon="4.86723888228">
		<tag k="alt_name" v="Kvilhaug" />
		<tag k="name" v="Kvithaug" />
>>>>>>> e1d4bc35ff8a6074a6f2e91616a996b547c36f15
		<tag k="natural" v="hill" />
		<tag k="place" v="locality" />
		<tag k="ssr:stedsnr" v="330674" />
	</node>
<<<<<<< HEAD
	<node lat="59.30605555289676" lon="4.8933333302071125" id="-2083">
		<tag k="alt_name" v="Børge" />
		<tag k="name" v="Børgje" />
=======
	<node id="-41693" lat="59.3032277749" lon="4.87973889553">
		<tag k="name" v="Smørdusk" />
>>>>>>> e1d4bc35ff8a6074a6f2e91616a996b547c36f15
		<tag k="natural" v="hill" />
		<tag k="place" v="locality" />
		<tag k="ssr:stedsnr" v="366733" />
	</node>
<<<<<<< HEAD
	<node lat="59.30221388600143" lon="4.878394439638173" id="-2085">
		<tag k="name" v="Slåttedalen" />
		<tag k="natural" v="valley" />
=======
	<node id="-41692" lat="61.2177777797" lon="6.59979722139">
		<tag k="alt_name" v="Alskori" />
		<tag k="name" v="Almskori" />
>>>>>>> e1d4bc35ff8a6074a6f2e91616a996b547c36f15
		<tag k="place" v="locality" />
		<tag k="ssr:stedsnr" v="390598" />
	</node>
<<<<<<< HEAD
	<node lat="59.303025000598254" lon="4.899238883607503" id="-2088">
		<tag k="name" v="Svehojen" />
=======
	<node id="-41690" lat="59.3053277754" lon="4.87366667273">
		<tag k="alt_name" v="Araseto" />
		<tag k="name" v="Arasetet" />
>>>>>>> e1d4bc35ff8a6074a6f2e91616a996b547c36f15
		<tag k="natural" v="hill" />
		<tag k="place" v="locality" />
		<tag k="ssr:stedsnr" v="390566" />
	</node>
<<<<<<< HEAD
	<node lat="59.29829444608458" lon="4.902477769522749" id="-2090">
		<tag k="name" v="Hoberg" />
=======
	<node id="-41817" lat="59.3058527739" lon="4.8816055587">
		<tag k="name" v="Herbergshojen" />
>>>>>>> e1d4bc35ff8a6074a6f2e91616a996b547c36f15
		<tag k="natural" v="hill" />
		<tag k="place" v="locality" />
		<tag k="ssr:stedsnr" v="390585" />
	</node>
<<<<<<< HEAD
	<node lat="59.30322777491565" lon="4.879738895526739" id="-2093">
		<tag k="name" v="Smørdusk" />
=======
	<node id="-41815" lat="59.3038527761" lon="4.90086667541">
		<tag k="name" v="Duberg" />
>>>>>>> e1d4bc35ff8a6074a6f2e91616a996b547c36f15
		<tag k="natural" v="hill" />
		<tag k="place" v="locality" />
		<tag k="ssr:stedsnr" v="512665" />
	</node>
<<<<<<< HEAD
	<node lat="59.31098055634529" lon="4.889672229913244" id="-2103">
		<tag k="name" v="Ysphojen" />
=======
	<node id="-41682" lat="59.3030250006" lon="4.89923888361">
		<tag k="name" v="Svehojen" />
>>>>>>> e1d4bc35ff8a6074a6f2e91616a996b547c36f15
		<tag k="natural" v="hill" />
		<tag k="place" v="locality" />
		<tag k="ssr:stedsnr" v="572594" />
	</node>
<<<<<<< HEAD
	<node lat="59.31504722342011" lon="4.899988884525494" id="-2112">
		<tag k="alt_name" v="Møbjør" />
		<tag k="name" v="Måbjør" />
=======
	<node id="-41676" lat="59.3014611124" lon="4.89580833537">
		<tag k="name" v="Træhojen" />
>>>>>>> e1d4bc35ff8a6074a6f2e91616a996b547c36f15
		<tag k="natural" v="hill" />
		<tag k="place" v="locality" />
		<tag k="ssr:stedsnr" v="730763" />
	</node>
<<<<<<< HEAD
	<node lat="59.30585277386386" lon="4.8816055586959095" id="-2121">
		<tag k="name" v="Herbergshojen" />
=======
	<node id="-41675" lat="59.3050527815" lon="4.89605833099">
		<tag k="fixme" v="consider natural=peak for the most distinct mountains in the district" />
		<tag k="name" v="Tormofjell" />
>>>>>>> e1d4bc35ff8a6074a6f2e91616a996b547c36f15
		<tag k="natural" v="hill" />
		<tag k="place" v="locality" />
		<tag k="ssr:stedsnr" v="755632" />
	</node>
<<<<<<< HEAD
	<node lat="59.30171389099466" lon="4.867458337037782" id="-2136">
		<tag k="name" v="Vågadal" />
		<tag k="natural" v="valley" />
		<tag k="place" v="locality" />
		<tag k="ssr:stedsnr" v="876600" />
=======
	<node id="-41799" lat="59.3096111076" lon="4.89354444219">
		<tag k="name" v="Sjoardalen" />
		<tag k="natural" v="valley" />
		<tag k="place" v="locality" />
		<tag k="ssr:stedsnr" v="572610" />
	</node>
	<node id="-41798" lat="59.3109805563" lon="4.88967222991">
		<tag k="name" v="Ysphojen" />
		<tag k="natural" v="hill" />
		<tag k="place" v="locality" />
		<tag k="ssr:stedsnr" v="572594" />
	</node>
	<node id="-41667" lat="59.295902778" lon="4.88342221512">
		<tag k="name" v="Åkerfall" />
		<tag k="natural" v="hill" />
		<tag k="place" v="locality" />
		<tag k="ssr:stedsnr" v="451632" />
>>>>>>> e1d4bc35ff8a6074a6f2e91616a996b547c36f15
	</node>
	<node id="-41666" lat="59.3147027733" lon="4.89244721926">
		<tag k="alt_name" v="Vågefjell" />
		<tag k="fixme" v="consider natural=peak for the most distinct mountains in the district" />
		<tag k="name" v="Vågafjell" />
		<tag k="natural" v="hill" />
		<tag k="place" v="locality" />
		<tag k="ssr:stedsnr" v="451598" />
	</node>
	<node id="-41785" lat="59.3113805528" lon="4.8712944471">
		<tag k="name" v="Tipphojen" />
		<tag k="natural" v="hill" />
		<tag k="place" v="locality" />
		<tag k="ssr:stedsnr" v="390549" />
	</node>
	<node id="-41784" lat="59.3049305528" lon="4.91109999708">
		<tag k="name" v="Høga Berget" />
		<tag k="natural" v="hill" />
		<tag k="place" v="locality" />
		<tag k="ssr:stedsnr" v="390538" />
	</node>
	<node id="-41783" lat="59.302213886" lon="4.87839443964">
		<tag k="name" v="Slåttedalen" />
		<tag k="natural" v="valley" />
		<tag k="place" v="locality" />
		<tag k="ssr:stedsnr" v="390598" />
	</node>
	<node id="-41781" lat="59.2982944461" lon="4.90247776952">
		<tag k="name" v="Hoberg" />
		<tag k="natural" v="hill" />
		<tag k="place" v="locality" />
		<tag k="ssr:stedsnr" v="390585" />
	</node>
	<node id="-41779" lat="59.3060555529" lon="4.89333333021">
		<tag k="alt_name" v="Børge" />
		<tag k="name" v="Børgje" />
		<tag k="natural" v="hill" />
		<tag k="place" v="locality" />
		<tag k="ssr:stedsnr" v="366733" />
	</node>
	<node id="-41774" lat="59.3091444464" lon="4.87912777219">
		<tag k="fixme" v="consider natural=peak for the most distinct mountains in the district" />
		<tag k="name" v="Varen" />
		<tag k="natural" v="hill" />
		<tag k="place" v="locality" />
		<tag k="ssr:stedsnr" v="330674" />
	</node>
	<node id="-41764" lat="59.3129583315" lon="4.87794166407">
		<tag k="name" v="Gullberg" />
		<tag k="natural" v="hill" />
		<tag k="place" v="locality" />
		<tag k="ssr:stedsnr" v="209588" />
	</node>
	<node id="-41762" lat="59.302038891" lon="4.88928610335">
		<tag k="name" v="Skarshojen" />
		<tag k="natural" v="hill" />
		<tag k="place" v="locality" />
		<tag k="ssr:stedsnr" v="209619" />
	</node>
	<node id="-41754" lat="59.3048166638" lon="4.89148610739">
		<tag k="name" v="Håbjørg" />
		<tag k="natural" v="hill" />
		<tag k="place" v="locality" />
		<tag k="ssr:stedsnr" v="87921" />
	</node>
	<node id="-41751" lat="59.3009527779" lon="4.87335277004">
		<tag k="name" v="Grønhelletuå" />
		<tag k="natural" v="hill" />
		<tag k="place" v="locality" />
		<tag k="ssr:stedsnr" v="87916" />
	</node>
	<node id="-41747" lat="59.2999472228" lon="4.86590833861">
		<tag k="name" v="Spylakyrkja" />
		<tag k="natural" v="hill" />
		<tag k="place" v="locality" />
		<tag k="ssr:stedsnr" v="87568" />
	</node>
	<node id="-41741" lat="59.2974472251" lon="4.8965444427">
		<tag k="name" v="Golo" />
		<tag k="natural" v="slope" />
		<tag k="place" v="locality" />
		<tag k="ssr:stedsnr" v="27645" />
	</node>
	<node id="-41740" lat="59.3030111088" lon="4.89501389098">
		<tag k="name" v="Klopp" />
		<tag k="natural" v="hill" />
		<tag k="place" v="locality" />
		<tag k="ssr:stedsnr" v="27635" />
	</node>
</osm>
