<?xml version="1.0" encoding="UTF-8"?>
<<<<<<< HEAD
<osm version="0.6" generator="osmapis">
	<node lat="59.301203328731255" lon="4.889554422572851" id="-2004">
		<tag k="alt_name" v="Skarde" />
		<tag k="fixme" v="consider place=hamlet" />
		<tag k="name" v="Skare" />
=======
<osm generator="osmapis" version="0.6">
	<node id="-41728" lat="59.3016972248" lon="4.90093611414">
		<tag k="name" v="Leito" />
>>>>>>> e1d4bc35ff8a6074a6f2e91616a996b547c36f15
		<tag k="place" v="farm" />
		<tag k="ssr:stedsnr" v="330614" />
	</node>
<<<<<<< HEAD
	<node lat="59.30325981773763" lon="4.889382126574579" id="-2005">
=======
	<node id="-41820" lat="59.3002632448" lon="4.90383775658">
		<tag k="alt_name" v="Austerheim" />
>>>>>>> e1d4bc35ff8a6074a6f2e91616a996b547c36f15
		<tag k="fixme" v="consider place=hamlet" />
		<tag k="name" v="Hovland" />
		<tag k="place" v="farm" />
		<tag k="ssr:stedsnr" v="330652" />
	</node>
<<<<<<< HEAD
	<node lat="59.307577774960414" lon="4.880802780515275" id="-2053">
=======
	<node id="-41723" lat="59.307577775" lon="4.88080278052">
>>>>>>> e1d4bc35ff8a6074a6f2e91616a996b547c36f15
		<tag k="name" v="Herberg" />
		<tag k="place" v="farm" />
		<tag k="ssr:stedsnr" v="912727" />
	</node>
<<<<<<< HEAD
	<node lat="59.31155277939161" lon="4.881633335025942" id="-2056">
		<tag k="name" v="Vestre Nordvik" />
=======
	<node id="-41816" lat="59.2994749963" lon="4.89854166159">
		<tag k="name" v="Smogjet" />
>>>>>>> e1d4bc35ff8a6074a6f2e91616a996b547c36f15
		<tag k="place" v="farm" />
		<tag k="ssr:stedsnr" v="937541" />
	</node>
<<<<<<< HEAD
	<node lat="59.30169722484655" lon="4.9009361141362895" id="-2060">
		<tag k="name" v="Leito" />
=======
	<node id="-41719" lat="59.311171852" lon="4.88261787185">
		<tag k="fixme" v="consider place=hamlet" />
		<tag k="name" v="Nordvik" />
>>>>>>> e1d4bc35ff8a6074a6f2e91616a996b547c36f15
		<tag k="place" v="farm" />
		<tag k="ssr:stedsnr" v="937643" />
	</node>
<<<<<<< HEAD
	<node lat="59.30051389028437" lon="4.89678611425698" id="-2068">
		<tag k="name" v="Sørvik" />
		<tag k="place" v="farm" />
		<tag k="ssr:stedsnr" v="63735" />
	</node>
	<node lat="59.301897137311286" lon="4.882313964742873" id="-2077">
=======
	<node id="-41811" lat="59.2997834162" lon="4.88733122367">
>>>>>>> e1d4bc35ff8a6074a6f2e91616a996b547c36f15
		<tag k="fixme" v="consider place=hamlet" />
		<tag k="name" v="Kvalvik" />
		<tag k="place" v="farm" />
		<tag k="ssr:stedsnr" v="305743" />
	</node>
<<<<<<< HEAD
	<node lat="59.311171851965135" lon="4.882617871846174" id="-2113">
		<tag k="fixme" v="consider place=hamlet" />
		<tag k="name" v="Nordvik" />
=======
	<node id="-41746" lat="59.3005138903" lon="4.89678611426">
		<tag k="name" v="Sørvik" />
>>>>>>> e1d4bc35ff8a6074a6f2e91616a996b547c36f15
		<tag k="place" v="farm" />
		<tag k="ssr:stedsnr" v="730764" />
	</node>
<<<<<<< HEAD
	<node lat="59.31124444645437" lon="4.88732499960061" id="-2116">
=======
	<node id="-41809" lat="59.3112444465" lon="4.8873249996">
>>>>>>> e1d4bc35ff8a6074a6f2e91616a996b547c36f15
		<tag k="name" v="Austre Nordvik" />
		<tag k="place" v="farm" />
		<tag k="ssr:stedsnr" v="755590" />
	</node>
<<<<<<< HEAD
	<node lat="59.299783416232955" lon="4.8873312236728745" id="-2118">
=======
	<node id="-41679" lat="59.3012033287" lon="4.88955442257">
		<tag k="alt_name" v="Skarde" />
>>>>>>> e1d4bc35ff8a6074a6f2e91616a996b547c36f15
		<tag k="fixme" v="consider place=hamlet" />
		<tag k="name" v="Klovning" />
		<tag k="place" v="farm" />
		<tag k="ssr:stedsnr" v="755594" />
	</node>
<<<<<<< HEAD
	<node lat="59.29947499627628" lon="4.8985416615943045" id="-2120">
		<tag k="name" v="Smogjet" />
=======
	<node id="-41770" lat="59.3032598177" lon="4.88938212657">
		<tag k="fixme" v="consider place=hamlet" />
		<tag k="name" v="Hovland" />
>>>>>>> e1d4bc35ff8a6074a6f2e91616a996b547c36f15
		<tag k="place" v="farm" />
		<tag k="ssr:stedsnr" v="755629" />
	</node>
<<<<<<< HEAD
	<node lat="59.30026324480148" lon="4.903837756575092" id="-2122">
		<tag k="alt_name" v="Austerheim" />
=======
	<node id="-41768" lat="59.3018971373" lon="4.88231396474">
>>>>>>> e1d4bc35ff8a6074a6f2e91616a996b547c36f15
		<tag k="fixme" v="consider place=hamlet" />
		<tag k="name" v="Austrheim" />
		<tag k="place" v="farm" />
		<tag k="ssr:stedsnr" v="791732" />
	</node>
<<<<<<< HEAD
	<node lat="59.31003333151229" lon="4.888358327065879" id="-2127">
		<tag k="fixme" v="consider tourism=alpine_hut or tourism=chalet" />
		<tag k="name" v="Nordvikgården" />
		<tag k="ssr:stedsnr" v="844216" />
		<tag k="tourism" v="wilderness_hut" />
=======
	<node id="-41735" lat="59.3115527794" lon="4.88163333503">
		<tag k="name" v="Vestre Nordvik" />
		<tag k="place" v="farm" />
		<tag k="ssr:stedsnr" v="937541" />
>>>>>>> e1d4bc35ff8a6074a6f2e91616a996b547c36f15
	</node>
	<node id="-41826" lat="59.3100333315" lon="4.88835832707">
		<tag k="fixme" v="consider tourism=alpine_hut or tourism=chalet" />
		<tag k="name" v="Nordvikgården" />
		<tag k="ssr:stedsnr" v="844216" />
		<tag k="tourism" v="wilderness_hut" />
	</node>
</osm>
