<?xml version="1.0" encoding="UTF-8"?>
<osm generator="osmapis" version="0.6">
	<node id="-41829" lat="59.2939405971" lon="4.88957941283">
		<tag k="name" v="Indre Klovningsholmen" />
		<tag k="place" v="islet" />
		<tag k="ssr:stedsnr" v="980659" />
	</node>
	<node id="-41825" lat="59.3152222227" lon="4.86380833596">
		<tag k="fixme" v="consider seamark:type=rock or natural=shoal" />
		<tag k="name" v="Krossbergsskjeret" />
		<tag k="place" v="islet" />
		<tag k="ssr:stedsnr" v="816641" />
	</node>
	<node id="-41824" lat="59.3194000006" lon="4.87325832705">
		<tag k="name" v="Perlefluene" />
		<tag k="natural" v="shoal" />
		<tag k="place" v="locality" />
		<tag k="ssr:stedsnr" v="815937" />
	</node>
	<node id="-41823" lat="59.3102444419" lon="4.90706111962">
		<tag k="name" v="Bekkjarvik" />
		<tag k="natural" v="bay" />
		<tag k="ssr:stedsnr" v="815935" />
	</node>
	<node id="-41822" lat="59.3000638849" lon="4.90976111363">
		<tag k="name" v="Skarvaneset" />
		<tag k="natural" v="cape" />
		<tag k="ssr:stedsnr" v="791742" />
	</node>
	<node id="-41821" lat="59.3033333356" lon="4.91636388267">
		<tag k="alt_name" v="Skarholmen" />
		<tag k="name" v="Skardholmen" />
		<tag k="place" v="islet" />
		<tag k="ssr:stedsnr" v="791740" />
	</node>
	<node id="-41818" lat="59.3135361079" lon="4.8856249974">
		<tag k="name" v="Nordvikvågen" />
		<tag k="natural" v="bay" />
		<tag k="ssr:stedsnr" v="791707" />
	</node>
	<node id="-41814" lat="59.3147138851" lon="4.87022222927">
		<tag k="name" v="Grøvedn" />
		<tag k="natural" v="cape" />
		<tag k="ssr:stedsnr" v="755600" />
	</node>
	<node id="-41813" lat="59.3011944446" lon="4.8649944475">
		<tag k="alt_name" v="Jensavik" />
		<tag k="name" v="Jensavika" />
		<tag k="natural" v="bay" />
		<tag k="ssr:stedsnr" v="755598" />
	</node>
	<node id="-41812" lat="59.3021027817" lon="4.91069721999">
		<tag k="name" v="Søra Tressvika" />
		<tag k="natural" v="bay" />
		<tag k="ssr:stedsnr" v="755596" />
	</node>
	<node id="-41810" lat="59.3161583343" lon="4.88630555678">
		<tag k="name" v="Fiskholmen" />
		<tag k="place" v="islet" />
		<tag k="ssr:stedsnr" v="755591" />
	</node>
	<node id="-41808" lat="59.3147722213" lon="4.87310278105">
		<tag k="name" v="Biljeskarkloven" />
		<tag k="natural" v="cape" />
		<tag k="ssr:stedsnr" v="755586" />
	</node>
	<node id="-41807" lat="59.2982333352" lon="4.87824166715">
		<tag k="name" v="Øygardsholmen" />
		<tag k="place" v="islet" />
		<tag k="ssr:stedsnr" v="633652" />
	</node>
	<node id="-41806" lat="59.2970277815" lon="4.87565000827">
		<tag k="name" v="Stolen" />
		<tag k="natural" v="cape" />
		<tag k="ssr:stedsnr" v="633651" />
	</node>
	<node id="-41805" lat="59.2953166673" lon="4.89634721408">
		<tag k="fixme" v="consider seamark:type=rock or natural=shoal" />
		<tag k="name" v="Skarvaskjeret" />
		<tag k="place" v="islet" />
		<tag k="ssr:stedsnr" v="633640" />
	</node>
	<node id="-41804" lat="59.2984916706" lon="4.86412499583">
		<tag k="alt_name" v="Ravelet" />
		<tag k="name" v="Ravele" />
		<tag k="place" v="islet" />
		<tag k="ssr:stedsnr" v="633591" />
	</node>
	<node id="-41803" lat="59.3182500039" lon="4.87543611596">
		<tag k="name" v="Seiavågen" />
		<tag k="natural" v="bay" />
		<tag k="ssr:stedsnr" v="633589" />
	</node>
	<node id="-41802" lat="59.301419443" lon="4.9081916586">
		<tag k="name" v="Skarvanesvågen" />
		<tag k="natural" v="bay" />
		<tag k="ssr:stedsnr" v="609705" />
	</node>
	<node id="-41801" lat="59.3152388905" lon="4.86451111715">
		<tag k="name" v="Krossbarmflua" />
		<tag k="natural" v="shoal" />
		<tag k="place" v="locality" />
		<tag k="ssr:stedsnr" v="572932" />
	</node>
	<node id="-41796" lat="59.3027833349" lon="4.86129166639">
		<tag k="name" v="Videklovane" />
		<tag k="natural" v="cape" />
		<tag k="ssr:stedsnr" v="572575" />
	</node>
	<node id="-41795" lat="59.3182305548" lon="4.88088056395">
		<tag k="name" v="Teistodden" />
		<tag k="natural" v="cape" />
		<tag k="ssr:stedsnr" v="572570" />
	</node>
	<node id="-41794" lat="59.3141472195" lon="4.88623055333">
		<tag k="name" v="Vabeinsklubben" />
		<tag k="natural" v="cape" />
		<tag k="ssr:stedsnr" v="572566" />
	</node>
	<node id="-41793" lat="59.2972638856" lon="4.86611111708">
		<tag k="name" v="Svarteholmen" />
		<tag k="place" v="islet" />
		<tag k="ssr:stedsnr" v="572564" />
	</node>
	<node id="-41792" lat="59.3200472235" lon="4.87849444981">
		<tag k="alt_name" v="Møkkaflua" />
		<tag k="name" v="Mokkefluene" />
		<tag k="natural" v="shoal" />
		<tag k="place" v="locality" />
		<tag k="ssr:stedsnr" v="572560" />
	</node>
	<node id="-41790" lat="59.2997666661" lon="4.86390834067">
		<tag k="name" v="Hengholmen" />
		<tag k="place" v="islet" />
		<tag k="ssr:stedsnr" v="548731" />
	</node>
	<node id="-41788" lat="59.3102738877" lon="4.85892892034">
		<tag k="name" v="Ålavika" />
		<tag k="natural" v="bay" />
		<tag k="ssr:stedsnr" v="548708" />
	</node>
	<node id="-41787" lat="59.2698750008" lon="4.84472778031">
		<tag k="name" v="Vestreflua" />
		<tag k="natural" v="shoal" />
		<tag k="place" v="locality" />
		<tag k="ssr:stedsnr" v="390934" />
	</node>
	<node id="-41780" lat="59.2943446184" lon="4.89089122952">
		<tag k="alt_name" v="indre Tresskjeret;Indre Tresskjeret" />
		<tag k="fixme" v="consider seamark:type=rock or natural=shoal" />
		<tag k="name" v="Tresskjeret" />
		<tag k="place" v="islet" />
		<tag k="ssr:stedsnr" v="390582" />
	</node>
	<node id="-41777" lat="59.3187555573" lon="4.87733332992">
		<tag k="alt_name" v="Pedleneset" />
		<tag k="name" v="Perleneset" />
		<tag k="natural" v="cape" />
		<tag k="ssr:stedsnr" v="366713" />
	</node>
	<node id="-41776" lat="59.2308250003" lon="5.12212500819">
		<tag k="bay" v="fjord" />
		<tag k="name" v="Sirafjorden" />
		<tag k="natural" v="bay" />
		<tag k="ssr:stedsnr" v="365043" />
	</node>
	<node id="-41772" lat="59.2976638868" lon="4.89754166337">
		<tag k="name" v="Haganeset" />
		<tag k="natural" v="cape" />
		<tag k="ssr:stedsnr" v="330670" />
	</node>
	<node id="-41771" lat="59.2941250019" lon="4.89324999851">
		<tag k="fixme" v="consider seamark:type=rock or natural=shoal" />
		<tag k="name" v="Litle Tresskjeret" />
		<tag k="place" v="islet" />
		<tag k="ssr:stedsnr" v="330666" />
	</node>
	<node id="-41769" lat="59.2938666662" lon="4.89730833417">
		<tag k="name" v="Beiningen" />
		<tag k="place" v="islet" />
		<tag k="ssr:stedsnr" v="305749" />
	</node>
	<node id="-41767" lat="59.3144527787" lon="4.8641055577">
		<tag k="alt_name" v="Krossbergsvika austra" />
		<tag k="name" v="Austra Krossbergsvika" />
		<tag k="natural" v="bay" />
		<tag k="ssr:stedsnr" v="209597" />
	</node>
	<node id="-41765" lat="59.2938583376" lon="4.89992776883">
		<tag k="name" v="Kalven" />
		<tag k="place" v="islet" />
		<tag k="ssr:stedsnr" v="209590" />
	</node>
	<node id="-41763" lat="59.2947777755" lon="4.89761945122">
		<tag k="name" v="Beiningssundet" />
		<tag k="natural" v="strait" />
		<tag k="ssr:stedsnr" v="209635" />
	</node>
	<node id="-41761" lat="59.309219446" lon="4.85646945271">
		<tag k="name" v="Steffoskjer" />
		<tag k="natural" v="shoal" />
		<tag k="place" v="locality" />
		<tag k="ssr:stedsnr" v="208933" />
	</node>
	<node id="-41759" lat="59.3186749979" lon="4.90153889637">
		<tag k="name" v="Fattigmannshavn" />
		<tag k="natural" v="bay" />
		<tag k="ssr:stedsnr" v="148632" />
	</node>
	<node id="-41758" lat="59.3131944427" lon="4.8603388857">
		<tag k="name" v="Engelsbukta" />
		<tag k="natural" v="bay" />
		<tag k="ssr:stedsnr" v="148626" />
	</node>
	<node id="-41757" lat="59.3039472217" lon="4.91388888274">
		<tag k="alt_name" v="Terneklubben" />
		<tag k="name" v="Tedneklubben" />
		<tag k="natural" v="cape" />
		<tag k="ssr:stedsnr" v="148618" />
	</node>
	<node id="-41756" lat="59.2889555596" lon="4.90229445106">
		<tag k="name" v="Skjærflua" />
		<tag k="natural" v="shoal" />
		<tag k="place" v="locality" />
		<tag k="ssr:stedsnr" v="147923" />
	</node>
	<node id="-41755" lat="59.2876820768" lon="4.90103731502">
		<tag k="fixme" v="multiple name tags, choose one and add the other to alt_name; consider seamark:type=rock or natural=shoal" />
		<tag k="name" v="Litla Seiskjeret;Litlaskjeret" />
		<tag k="place" v="islet" />
		<tag k="ssr:stedsnr" v="123757" />
	</node>
	<node id="-41753" lat="59.2893999954" lon="4.84689443643">
		<tag k="name" v="Holmegrunka" />
		<tag k="natural" v="shoal" />
		<tag k="place" v="locality" />
		<tag k="ssr:stedsnr" v="87918" />
	</node>
	<node id="-41752" lat="59.2968194476" lon="4.91503889312">
		<tag k="name" v="Grunneflua" />
		<tag k="natural" v="shoal" />
		<tag k="place" v="locality" />
		<tag k="ssr:stedsnr" v="87917" />
	</node>
	<node id="-41750" lat="59.3034194407" lon="4.92082222413">
		<tag k="name" v="Skardholmflua" />
		<tag k="natural" v="shoal" />
		<tag k="place" v="locality" />
		<tag k="ssr:stedsnr" v="87912" />
	</node>
	<node id="-41748" lat="59.313466671" lon="4.86206667344">
		<tag k="alt_name" v="Krossbergsvika vestra" />
		<tag k="name" v="Vestra Krossbergsvika" />
		<tag k="natural" v="bay" />
		<tag k="ssr:stedsnr" v="87578" />
	</node>
	<node id="-41745" lat="59.266180551" lon="4.87220555159">
		<tag k="name" v="Skallen" />
		<tag k="natural" v="shoal" />
		<tag k="place" v="locality" />
		<tag k="ssr:stedsnr" v="63728" />
	</node>
	<node id="-41744" lat="59.3081527789" lon="4.90735833197">
		<tag k="name" v="Tednevik" />
		<tag k="natural" v="bay" />
		<tag k="ssr:stedsnr" v="27651" />
	</node>
	<node id="-41743" lat="59.3089416638" lon="4.90698610342">
		<tag k="name" v="Tedneholmen" />
		<tag k="place" v="islet" />
		<tag k="ssr:stedsnr" v="27649" />
	</node>
	<node id="-41742" lat="59.2979333301" lon="4.90463332805">
		<tag k="fixme" v="consider seamark:type=rock or natural=shoal" />
		<tag k="name" v="Vakskjer" />
		<tag k="place" v="islet" />
		<tag k="ssr:stedsnr" v="27646" />
	</node>
	<node id="-41738" lat="59.2995694414" lon="4.87990278422">
		<tag k="name" v="Kvalvikvågen" />
		<tag k="natural" v="bay" />
		<tag k="ssr:stedsnr" v="2741" />
	</node>
	<node id="-41737" lat="59.2910361131" lon="4.8971638913">
		<tag k="alt_name" v="stora Seiskjer" />
		<tag k="fixme" v="consider seamark:type=rock or natural=shoal" />
		<tag k="name" v="Storaskjeret" />
		<tag k="place" v="islet" />
		<tag k="ssr:stedsnr" v="2726" />
	</node>
	<node id="-41736" lat="59.3045500025" lon="4.85973056373">
		<tag k="alt_name" v="Helganesvik" />
		<tag k="name" v="Helganesvika" />
		<tag k="natural" v="bay" />
		<tag k="ssr:stedsnr" v="2713" />
	</node>
	<node id="-41734" lat="59.3021146111" lon="4.86060955468">
		<tag k="alt_name" v="norda Vågadalsskjeret" />
		<tag k="fixme" v="consider seamark:type=rock or natural=shoal" />
		<tag k="name" v="Nordra Vågadalsskjeret" />
		<tag k="place" v="islet" />
		<tag k="ssr:stedsnr" v="937621" />
	</node>
	<node id="-41733" lat="59.3033888864" lon="4.91231666535">
		<tag k="alt_name" v="norda Tressvika" />
		<tag k="name" v="Nordra Tressvika" />
		<tag k="natural" v="bay" />
		<tag k="ssr:stedsnr" v="937618" />
	</node>
	<node id="-41732" lat="59.2956916671" lon="4.86905000476">
		<tag k="alt_name" v="Spannanesholmane" />
		<tag k="name" v="Spannanesholmen" />
		<tag k="place" v="islet" />
		<tag k="ssr:stedsnr" v="937606" />
	</node>
	<node id="-41731" lat="59.310527779" lon="4.85748889178">
		<tag k="name" v="Treboane" />
		<tag k="natural" v="shoal" />
		<tag k="place" v="locality" />
		<tag k="ssr:stedsnr" v="936911" />
	</node>
	<node id="-41730" lat="59.2344138866" lon="4.87813889063">
		<tag k="alt_name" v="Rogalandsfeltet" />
		<tag k="name" v="Utsira sør" />
		<tag k="place" v="sea" />
		<tag k="ssr:stedsnr" v="873526" />
	</node>
	<node id="-41729" lat="59.2935913623" lon="4.88879624667">
		<tag k="alt_name" v="Klovningsholmen" />
		<tag k="name" v="Klovningsholmane" />
		<tag k="place" v="islet" />
		<tag k="ssr:stedsnr" v="852710" />
	</node>
	<node id="-41727" lat="59.3161777814" lon="4.90760278601">
		<tag k="alt_name" v="norda Barmeskøyla" />
		<tag k="name" v="Nordra Barmeskøyla" />
		<tag k="natural" v="cape" />
		<tag k="ssr:stedsnr" v="816659" />
	</node>
	<node id="-41726" lat="59.2979305564" lon="4.90106944489">
		<tag k="name" v="Skjevika" />
		<tag k="natural" v="bay" />
		<tag k="ssr:stedsnr" v="913594" />
	</node>
	<node id="-41725" lat="59.3081249957" lon="4.8883944471">
		<tag k="name" v="Utsira" />
		<tag k="place" v="island" />
		<tag k="ssr:stedsnr" v="912750" />
	</node>
	<node id="-41724" lat="59.2972999997" lon="4.86800555178">
		<tag k="alt_name" v="Spannanes" />
		<tag k="name" v="Spannaneset" />
		<tag k="natural" v="cape" />
		<tag k="ssr:stedsnr" v="912749" />
	</node>
	<node id="-41720" lat="59.2831472258" lon="4.84685833012">
		<tag k="alt_name" v="Spannholmen" />
		<tag k="name" v="Spannholmane" />
		<tag k="place" v="islet" />
		<tag k="ssr:stedsnr" v="730775" />
	</node>
	<node id="-41717" lat="59.3194499973" lon="4.89371944676">
		<tag k="alt_name" v="Breivik" />
		<tag k="name" v="Breidvika" />
		<tag k="natural" v="bay" />
		<tag k="ssr:stedsnr" v="730760" />
	</node>
	<node id="-41716" lat="59.3167055518" lon="4.88248611098">
		<tag k="name" v="Mikkelett" />
		<tag k="natural" v="cape" />
		<tag k="ssr:stedsnr" v="694554" />
	</node>
	<node id="-41714" lat="59.2957750038" lon="4.8916138942">
		<tag k="name" v="Klovningsneset" />
		<tag k="natural" v="cape" />
		<tag k="ssr:stedsnr" v="876637" />
	</node>
	<node id="-41713" lat="59.3170000017" lon="4.90607778556">
		<tag k="name" v="Sandvika" />
		<tag k="natural" v="bay" />
		<tag k="ssr:stedsnr" v="876611" />
	</node>
	<node id="-41710" lat="59.3164000004" lon="4.87475834201">
		<tag k="name" v="Skotavågen" />
		<tag k="natural" v="bay" />
		<tag k="ssr:stedsnr" v="876579" />
	</node>
	<node id="-41706" lat="59.2963027743" lon="4.88237778539">
		<tag k="name" v="Åkerfallvika" />
		<tag k="natural" v="bay" />
		<tag k="ssr:stedsnr" v="633659" />
	</node>
	<node id="-41705" lat="59.2811833312" lon="4.85066389278">
		<tag k="fixme" v="consider seamark:type=rock or natural=shoal" />
		<tag k="name" v="Suleskjer" />
		<tag k="place" v="islet" />
		<tag k="ssr:stedsnr" v="633615" />
	</node>
	<node id="-41704" lat="59.3011666676" lon="4.86176666443">
		<tag k="fixme" v="consider seamark:type=rock or natural=shoal" />
		<tag k="name" v="Søra Vågadalsskjeret" />
		<tag k="place" v="islet" />
		<tag k="ssr:stedsnr" v="633604" />
	</node>
	<node id="-41702" lat="59.3145305538" lon="4.90831110718">
		<tag k="name" v="Søra Barmeskøyla" />
		<tag k="natural" v="cape" />
		<tag k="ssr:stedsnr" v="694582" />
	</node>
	<node id="-41701" lat="59.310833333" lon="4.90834999607">
		<tag k="alt_name" v="Molskjerne" />
		<tag k="fixme" v="consider seamark:type=rock or natural=shoal" />
		<tag k="name" v="Moldskjerne" />
		<tag k="place" v="islet" />
		<tag k="ssr:stedsnr" v="694578" />
	</node>
	<node id="-41700" lat="59.2823972189" lon="4.84887500586">
		<tag k="name" v="Holmakøylo" />
		<tag k="place" v="islet" />
		<tag k="ssr:stedsnr" v="694569" />
	</node>
	<node id="-41698" lat="59.293097222" lon="4.88798334134">
		<tag k="name" v="Ytre Klovningsholmen" />
		<tag k="place" v="islet" />
		<tag k="ssr:stedsnr" v="694500" />
	</node>
	<node id="-41697" lat="59.296802777" lon="4.90305278261">
		<tag k="name" v="Håbergfluene" />
		<tag k="natural" v="shoal" />
		<tag k="place" v="locality" />
		<tag k="ssr:stedsnr" v="693927" />
	</node>
	<node id="-41696" lat="59.3165388858" lon="4.86892778204">
		<tag k="name" v="Skaboen" />
		<tag k="natural" v="shoal" />
		<tag k="place" v="locality" />
		<tag k="ssr:stedsnr" v="693924" />
	</node>
	<node id="-41695" lat="59.2978999996" lon="4.88276944102">
		<tag k="name" v="Djupatrævika" />
		<tag k="natural" v="bay" />
		<tag k="ssr:stedsnr" v="512670" />
	</node>
	<node id="-41691" lat="59.2976527798" lon="4.8951777847">
		<tag k="alt_name" v="Sørvikvågen" />
		<tag k="name" v="Sørevågen" />
		<tag k="natural" v="bay" />
		<tag k="ssr:stedsnr" v="669743" />
	</node>
	<node id="-41689" lat="59.2994250035" lon="4.89451389661">
		<tag k="alt_name" v="Tuvevågen" />
		<tag k="name" v="Tuevågen" />
		<tag k="natural" v="bay" />
		<tag k="ssr:stedsnr" v="451618" />
	</node>
	<node id="-41688" lat="59.29153333" lon="4.89168889598">
		<tag k="alt_name" v="Vindballen" />
		<tag k="fixme" v="consider seamark:type=rock or natural=shoal" />
		<tag k="name" v="Store Vindball" />
		<tag k="place" v="islet" />
		<tag k="ssr:stedsnr" v="451616" />
	</node>
	<node id="-41685" lat="59.3131194485" lon="4.9078083282">
		<tag k="name" v="Laksaklubben" />
		<tag k="natural" v="cape" />
		<tag k="ssr:stedsnr" v="512626" />
	</node>
	<node id="-41684" lat="59.3181277765" lon="4.88619721947">
		<tag k="fixme" v="consider seamark:type=rock or natural=shoal" />
		<tag k="name" v="Bondestein" />
		<tag k="place" v="islet" />
		<tag k="ssr:stedsnr" v="512599" />
	</node>
	<node id="-41683" lat="59.2942111091" lon="4.88891945183">
		<tag k="name" v="Klovningssundet" />
		<tag k="natural" v="strait" />
		<tag k="ssr:stedsnr" v="390602" />
	</node>
	<node id="-41681" lat="59.3120833294" lon="4.90678889306">
		<tag k="name" v="Tjørekloven" />
		<tag k="natural" v="cape" />
		<tag k="ssr:stedsnr" v="390563" />
	</node>
	<node id="-41678" lat="59.3187944446" lon="4.8733055574">
		<tag k="fixme" v="consider seamark:type=rock or natural=shoal" />
		<tag k="name" v="Seiavågskjeret" />
		<tag k="place" v="islet" />
		<tag k="ssr:stedsnr" v="330606" />
	</node>
	<node id="-41677" lat="59.3154944406" lon="4.90905000474">
		<tag k="name" v="Bermesholmen" />
		<tag k="natural" v="cape" />
		<tag k="ssr:stedsnr" v="329925" />
	</node>
	<node id="-41674" lat="59.3158222198" lon="4.90896666516">
		<tag k="name" v="Barmesholmen" />
		<tag k="natural" v="cape" />
		<tag k="ssr:stedsnr" v="269606" />
	</node>
	<node id="-41673" lat="59.3186111112" lon="4.89006388168">
		<tag k="alt_name" v="Endrevik" />
		<tag k="name" v="Indrevik" />
		<tag k="natural" v="bay" />
		<tag k="ssr:stedsnr" v="269603" />
	</node>
	<node id="-41672" lat="59.2984722204" lon="4.90532499432">
		<tag k="name" v="Spekkvika" />
		<tag k="natural" v="bay" />
		<tag k="ssr:stedsnr" v="452647" />
	</node>
	<node id="-41669" lat="59.3038111094" lon="4.85273334195">
		<tag k="name" v="Helganesboen" />
		<tag k="natural" v="shoal" />
		<tag k="place" v="locality" />
		<tag k="ssr:stedsnr" v="451934" />
	</node>
	<node id="-41668" lat="59.2950166642" lon="4.88508889056">
		<tag k="name" v="Turravika" />
		<tag k="natural" v="bay" />
		<tag k="ssr:stedsnr" v="451633" />
	</node>
	<node id="-41663" lat="59.2718583306" lon="4.84777499289">
		<tag k="name" v="Lausingen" />
		<tag k="place" v="islet" />
		<tag k="ssr:stedsnr" v="245705" />
	</node>
	<node id="-41662" lat="59.3082583321" lon="4.85630278289">
		<tag k="fixme" v="consider seamark:type=rock or natural=shoal" />
		<tag k="name" v="Helganeskrono" />
		<tag k="place" v="islet" />
		<tag k="ssr:stedsnr" v="148615" />
	</node>
	<node id="-41661" lat="59.3068777803" lon="4.91437778009">
		<tag k="name" v="Himmeriksboen" />
		<tag k="natural" v="shoal" />
		<tag k="place" v="locality" />
		<tag k="ssr:stedsnr" v="147916" />
	</node>
	<node id="-41660" lat="59.2900166647" lon="4.89172499259">
		<tag k="name" v="Vindballflua" />
		<tag k="natural" v="shoal" />
		<tag k="place" v="locality" />
		<tag k="ssr:stedsnr" v="269933" />
	</node>
	<node id="-41659" lat="59.2971249992" lon="4.87401388207">
		<tag k="name" v="Grensvika" />
		<tag k="natural" v="bay" />
		<tag k="ssr:stedsnr" v="269634" />
	</node>
	<node id="-41658" lat="59.3197861129" lon="4.89768332485">
		<tag k="name" v="Humrakloven" />
		<tag k="natural" v="cape" />
		<tag k="ssr:stedsnr" v="269600" />
	</node>
	<node id="-41657" lat="59.2828972214" lon="4.84560833897">
		<tag k="name" v="Portugiserkloven" />
		<tag k="natural" v="bay" />
		<tag k="ssr:stedsnr" v="269597" />
	</node>
	<node id="-41656" lat="59.2756333337" lon="4.84797777593">
		<tag k="name" v="Lausingboen" />
		<tag k="natural" v="shoal" />
		<tag k="place" v="locality" />
		<tag k="ssr:stedsnr" v="269092" />
	</node>
	<node id="-41654" lat="59.3051111073" lon="4.85759444015">
		<tag k="alt_name" v="Helganes" />
		<tag k="name" v="Helganeset" />
		<tag k="natural" v="cape" />
		<tag k="ssr:stedsnr" v="245698" />
	</node>
	<node id="-41653" lat="59.3149722253" lon="4.87426110853">
		<tag k="alt_name" v="Skjevik" />
		<tag k="name" v="Skjevika" />
		<tag k="natural" v="bay" />
		<tag k="ssr:stedsnr" v="245694" />
	</node>
	<node id="-41651" lat="59.2708861096" lon="4.84856945079">
		<tag k="fixme" v="consider seamark:type=rock or natural=shoal" />
		<tag k="name" v="Lausingssnajet" />
		<tag k="place" v="islet" />
		<tag k="ssr:stedsnr" v="27621" />
	</node>
</osm>
