<?xml version="1.0" encoding="UTF-8"?>
<osm generator="osmapis" version="0.6">
	<node id="-3711" lat="59.3122472184" lon="4.89389167242">
		<tag k="name" v="Langemyr" />
		<tag k="natural" v="wetland" />
		<tag k="ssr:stedsnr" v="451597" />
	</node>
	<node id="-3740" lat="59.2985583367" lon="4.87301945005">
		<tag k="name" v="Øygarden" />
		<tag k="place" v="locality" />
		<tag k="ssr:stedsnr" v="512667" />
	</node>
	<node id="-3865" lat="59.3104805591" lon="4.89808054713">
		<tag k="name" v="Austmarka" />
		<tag k="place" v="locality" />
		<tag k="ssr:stedsnr" v="791712" />
	</node>
	<node id="-3832" lat="59.3135250037" lon="4.86727778345">
		<tag k="name" v="Krossbarmen" />
		<tag k="place" v="locality" />
		<tag k="ssr:stedsnr" v="390551" />
	</node>
	<node id="-3716" lat="59.3023138898" lon="4.90255555495">
		<tag k="name" v="Lynghidler" />
		<tag k="place" v="locality" />
		<tag k="ssr:stedsnr" v="452628" />
	</node>
	<node id="-3795" lat="59.3105527785" lon="4.90168055652">
		<tag k="name" v="Tranheim" />
		<tag k="place" v="locality" />
		<tag k="ssr:stedsnr" v="87590" />
	</node>
	<node id="-3698" lat="59.3162277802" lon="4.89608888492">
		<tag k="name" v="Breimyr" />
		<tag k="natural" v="wetland" />
		<tag k="ssr:stedsnr" v="27623" />
	</node>
	<node id="-3761" lat="59.2991583326" lon="4.88208332647">
		<tag k="name" v="Djupatræ" />
		<tag k="place" v="locality" />
		<tag k="ssr:stedsnr" v="876647" />
	</node>
	<node id="-3726" lat="59.3118416639" lon="4.90211666909">
		<tag k="name" v="Koltemyr" />
		<tag k="natural" v="wetland" />
		<tag k="ssr:stedsnr" v="390560" />
	</node>
	<node id="-3819" lat="59.3093527772" lon="4.90267778168">
		<tag k="name" v="Stemmen" />
		<tag k="natural" v="wetland" />
		<tag k="ssr:stedsnr" v="330672" />
	</node>
	<node id="-3846" lat="59.2978194466" lon="4.88610555011">
		<tag k="name" v="Klovningshojen" />
		<tag k="place" v="locality" />
		<tag k="ssr:stedsnr" v="572644" />
	</node>
	<node id="-3812" lat="59.3068527791" lon="4.86329166129">
		<tag k="name" v="Breimyr" />
		<tag k="natural" v="wetland" />
		<tag k="ssr:stedsnr" v="209593" />
	</node>
	<node id="-3843" lat="59.3110833295" lon="4.85978888099">
		<tag k="name" v="Kvitagro" />
		<tag k="place" v="locality" />
		<tag k="ssr:stedsnr" v="572584" />
	</node>
</osm>
