<?xml version="1.0" encoding="UTF-8"?>
<osm version="0.6" generator="osmapis">
	<node id="34839089" lat="63.7301981" lon="8.8297021" version="7" timestamp="2022-07-30T05:16:32Z" changeset="124254506" uid="3497659" user="NKA">
		<tag k="name" v="Sistranda" />
		<tag k="place" v="village" />
		<tag k="population" v="1154" />
		<tag k="population:date" v="2021-01-01" />
		<tag k="ref:ssb_tettsted" v="6532" />
		<tag k="source:population" v="SSB - befolkning i tettstedet" />
		<tag k="ssr:stedsnr" v="923720" />
	</node>
	<node id="34839092" lat="63.6898002" lon="8.7601468" version="3" timestamp="2022-07-30T05:16:32Z" changeset="124254506" uid="3497659" user="NKA">
		<tag k="name" v="Flatval" />
		<tag k="place" v="village" />
		<tag k="ssr:stedsnr" v="438713" />
	</node>
	<node id="249789797" lat="63.7571396" lon="8.8218824" version="4" timestamp="2022-07-30T05:16:32Z" changeset="124254506" uid="3497659" user="NKA">
		<tag k="alt_name" v="Dyrvika" />
		<tag k="name" v="Dyrvik" />
		<tag k="place" v="village" />
		<tag k="ssr:stedsnr" v="498845" />
	</node>
	<node id="249789988" lat="63.706494" lon="8.562265" version="3" timestamp="2022-07-30T05:16:32Z" changeset="124254506" uid="3497659" user="NKA">
		<tag k="name" v="Nordskaget" />
		<tag k="place" v="village" />
		<tag k="ssr:stedsnr" v="317762" />
	</node>
	<node id="249791169" lat="63.6735632" lon="8.4437313" version="4" timestamp="2022-07-30T05:16:32Z" changeset="124254506" uid="3497659" user="NKA">
		<tag k="name" v="Bua" />
		<tag k="place" v="hamlet" />
		<tag k="ssr:stedsnr" v="825053" />
	</node>
	<node id="249791176" lat="63.6788469" lon="8.4333624" version="4" timestamp="2022-07-30T05:16:32Z" changeset="124254506" uid="3497659" user="NKA">
		<tag k="name" v="Haugen" />
		<tag k="place" v="farm" />
		<tag k="ssr:stedsnr" v="498798" />
	</node>
	<node id="249791308" lat="63.668469" lon="8.3056125" version="4" timestamp="2022-08-05T08:52:49Z" changeset="124512001" uid="9026132" user="PulisakZ">
		<tag k="name" v="Titran" />
		<tag k="place" v="village" />
		<tag k="ssr:stedsnr" v="498782" />
		<tag k="wikidata" v="Q6513525" />
		<tag k="wikipedia" v="en:Titran" />
	</node>
	<node id="249791862" lat="63.6745713" lon="8.5983252" version="3" timestamp="2022-07-30T05:16:32Z" changeset="124254506" uid="3497659" user="NKA">
		<tag k="name" v="Storhallaren" />
		<tag k="place" v="hamlet" />
		<tag k="ssr:stedsnr" v="13999" />
	</node>
	<node id="249791863" lat="63.6723637" lon="8.5562621" version="4" timestamp="2022-07-30T05:16:32Z" changeset="124254506" uid="3497659" user="NKA">
		<tag k="name" v="Avløysa" />
		<tag k="place" v="hamlet" />
		<tag k="ssr:stedsnr" v="621000" />
	</node>
	<node id="249791864" lat="63.6651886" lon="8.5016253" version="3" timestamp="2022-07-30T05:16:32Z" changeset="124254506" uid="3497659" user="NKA">
		<tag k="name" v="Fillingsneset" />
		<tag k="place" v="hamlet" />
		<tag k="ssr:stedsnr" v="924977" />
	</node>
	<node id="249792159" lat="63.7019843" lon="8.8150752" version="8" timestamp="2022-07-30T05:16:32Z" changeset="124254506" uid="3497659" user="NKA">
		<tag k="alt_name" v="Hamarvik" />
		<tag k="name" v="Hammarvika" />
		<tag k="place" v="village" />
		<tag k="population" v="500" />
		<tag k="population:date" v="2021-01-01" />
		<tag k="ref:ssb_tettsted" v="6531" />
		<tag k="source:population" v="SSB - befolkning i tettstedet" />
		<tag k="ssr:stedsnr" v="643332" />
	</node>
	<node id="270588616" lat="63.7969445" lon="8.8023438" version="3" timestamp="2022-07-30T05:16:32Z" changeset="124254506" uid="3497659" user="NKA">
		<tag k="name" v="Svellingen" />
		<tag k="place" v="village" />
		<tag k="ssr:stedsnr" v="680828" />
	</node>
	<node id="270588617" lat="63.7501631" lon="8.6829408" version="2" timestamp="2022-07-30T05:16:32Z" changeset="124254506" uid="3497659" user="NKA">
		<tag k="name" v="Sandvika" />
		<tag k="place" v="hamlet" />
		<tag k="ssr:stedsnr" v="522160" />
	</node>
	<node id="270588622" lat="63.7054863" lon="8.529964" version="3" timestamp="2022-07-30T05:16:32Z" changeset="124254506" uid="3497659" user="NKA">
		<tag k="name" v="Kverva" />
		<tag k="place" v="hamlet" />
		<tag k="ssr:stedsnr" v="195833" />
	</node>
	<node id="290233965" lat="63.7684257" lon="8.8141895" version="2" timestamp="2022-07-30T05:16:32Z" changeset="124254506" uid="3497659" user="NKA">
		<tag k="name" v="Neset" />
		<tag k="place" v="village" />
		<tag k="ssr:stedsnr" v="74849" />
	</node>
	<node id="290234087" lat="63.798138" lon="8.6827303" version="3" timestamp="2022-07-30T05:16:32Z" changeset="124254506" uid="3497659" user="NKA">
		<tag k="alt_name" v="Dyrøya" />
		<tag k="name" v="Setra" />
		<tag k="place" v="village" />
		<tag k="ssr:stedsnr" v="218596" />
	</node>
	<node id="297302151" lat="63.8676704" lon="8.6637918" version="6" timestamp="2022-07-30T05:16:32Z" changeset="124254506" uid="3497659" user="NKA">
		<tag k="name" v="Mausund" />
		<tag k="place" v="village" />
		<tag k="ssr:stedsnr" v="741013" />
	</node>
	<node id="305293876" lat="64.1703236" lon="9.4072243" version="4" timestamp="2022-07-30T05:16:32Z" changeset="124254506" uid="3497659" user="NKA">
		<tag k="name" v="Halten" />
		<tag k="place" v="hamlet" />
		<tag k="ssr:stedsnr" v="74933" />
	</node>
	<node id="1651752113" lat="63.845292" lon="8.4583815" version="3" timestamp="2022-07-30T05:16:32Z" changeset="124254506" uid="3497659" user="NKA">
		<tag k="name" v="Sula" />
		<tag k="place" v="village" />
		<tag k="ssr:stedsnr" v="825188" />
	</node>
	<node id="1656876775" lat="63.718328" lon="8.5949237" version="2" timestamp="2022-07-30T05:16:32Z" changeset="124254506" uid="3497659" user="NKA">
		<tag k="name" v="Espneset" />
		<tag k="place" v="hamlet" />
		<tag k="ssr:stedsnr" v="74825" />
	</node>
	<node id="1656876778" lat="63.667519" lon="8.3620868" version="2" timestamp="2022-07-30T05:16:32Z" changeset="124254506" uid="3497659" user="NKA">
		<tag k="name" v="Håvika" />
		<tag k="place" v="hamlet" />
		<tag k="ssr:stedsnr" v="195996" />
	</node>
	<node id="1656876788" lat="63.708075" lon="8.5508833" version="2" timestamp="2022-07-30T05:16:32Z" changeset="124254506" uid="3497659" user="NKA">
		<tag k="name" v="Kåvika" />
		<tag k="place" v="farm" />
		<tag k="ssr:stedsnr" v="36846" />
	</node>
	<node id="2017847859" lat="63.7476664" lon="8.8313862" version="3" timestamp="2022-07-30T05:16:32Z" changeset="124254506" uid="3497659" user="NKA">
		<tag k="alt_name" v="Ærvik" />
		<tag k="name" v="Ervika" />
		<tag k="place" v="village" />
		<tag k="ssr:stedsnr" v="195730" />
	</node>
	<node id="2338512111" lat="63.7844289" lon="8.6530959" version="2" timestamp="2022-07-30T05:16:32Z" changeset="124254506" uid="3497659" user="NKA">
		<tag k="name" v="Klungervika" />
		<tag k="place" v="hamlet" />
		<tag k="ssr:stedsnr" v="885574" />
	</node>
	<node id="5922616429" lat="63.7234667" lon="8.8373916" version="2" timestamp="2022-07-30T05:16:32Z" changeset="124254506" uid="3497659" user="NKA">
		<tag k="name" v="Nordrabben" />
		<tag k="place" v="farm" />
		<tag k="ssr:stedsnr" v="36540" />
	</node>
	<node id="5922678071" lat="63.7090695" lon="8.8089834" version="2" timestamp="2022-07-30T05:16:32Z" changeset="124254506" uid="3497659" user="NKA">
		<tag k="name" v="Nordli" />
		<tag k="no-kartverket-ssr:objid" v="216692" />
		<tag k="place" v="farm" />
		<tag k="ssr:stedsnr" v="13709" />
	</node>
	<node id="5922685085" lat="63.7006015" lon="8.8296578" version="2" timestamp="2022-07-30T05:16:32Z" changeset="124254506" uid="3497659" user="NKA">
		<tag k="name" v="Skaga" />
		<tag k="no-kartverket-ssr:objid" v="922557" />
		<tag k="place" v="farm" />
		<tag k="ssr:stedsnr" v="461367" />
	</node>
	<node id="5922685086" lat="63.7013191" lon="8.8178463" version="2" timestamp="2022-07-30T05:16:32Z" changeset="124254506" uid="3497659" user="NKA">
		<tag k="name" v="Hammaren" />
		<tag k="no-kartverket-ssr:objid" v="922544" />
		<tag k="place" v="farm" />
		<tag k="ssr:stedsnr" v="521336" />
	</node>
	<node id="5922686497" lat="63.7056806" lon="8.824564" version="2" timestamp="2022-07-30T05:16:32Z" changeset="124254506" uid="3497659" user="NKA">
		<tag k="name" v="Oppheim" />
		<tag k="no-kartverket-ssr:objid" v="216695" />
		<tag k="place" v="farm" />
		<tag k="ssr:stedsnr" v="377687" />
	</node>
	<node id="5922690316" lat="63.7058584" lon="8.8086417" version="2" timestamp="2022-07-30T05:16:32Z" changeset="124254506" uid="3497659" user="NKA">
		<tag k="name" v="Lyngås" />
		<tag k="no-kartverket-ssr:objid" v="216694" />
		<tag k="place" v="farm" />
		<tag k="ssr:stedsnr" v="680755" />
	</node>
	<node id="5922695385" lat="63.708302" lon="8.8084712" version="2" timestamp="2022-07-30T05:16:32Z" changeset="124254506" uid="3497659" user="NKA">
		<tag k="name" v="Sommarro" />
		<tag k="no-kartverket-ssr:objid" v="216693" />
		<tag k="place" v="farm" />
		<tag k="ssr:stedsnr" v="923734" />
	</node>
	<node id="5923767191" lat="63.7746785" lon="8.8695542" version="2" timestamp="2022-07-30T05:16:32Z" changeset="124254506" uid="3497659" user="NKA">
		<tag k="name" v="Staulan" />
		<tag k="place" v="hamlet" />
		<tag k="ssr:stedsnr" v="316904" />
	</node>
	<node id="6211163283" lat="63.7990489" lon="8.6951511" version="2" timestamp="2022-07-30T05:16:32Z" changeset="124254506" uid="3497659" user="NKA">
		<tag k="name" v="Norddyrøya" />
		<tag k="place" v="hamlet" />
		<tag k="ssr:stedsnr" v="632124" />
	</node>
	<node id="6211176885" lat="63.927578" lon="8.8996649" version="2" timestamp="2022-07-30T05:16:32Z" changeset="124254506" uid="3497659" user="NKA">
		<tag k="name" v="Gjæsingen" />
		<tag k="place" v="hamlet" />
		<tag k="ssr:stedsnr" v="885268" />
	</node>
	<node id="6211176891" lat="63.998338" lon="9.1739135" version="2" timestamp="2022-07-30T05:16:32Z" changeset="124254506" uid="3497659" user="NKA">
		<tag k="name" v="Froan" />
		<tag k="place" v="hamlet" />
		<tag k="ssr:stedsnr" v="825185" />
	</node>
	<node id="9920341099" lat="63.7218137" lon="8.8909049" version="1" timestamp="2022-07-30T05:16:32Z" changeset="124254506" uid="3497659" user="NKA">
		<tag k="alt_name" v="Stølan" />
		<tag k="name" v="Staulan" />
		<tag k="place" v="farm" />
		<tag k="ssr:stedsnr" v="134710" />
	</node>
	<node id="9920341100" lat="63.7299517" lon="8.8272473" version="1" timestamp="2022-07-30T05:16:32Z" changeset="124254506" uid="3497659" user="NKA">
		<tag k="name" v="Midtsian" />
		<tag k="place" v="neighbourhood" />
		<tag k="ssr:stedsnr" v="619770" />
	</node>
	<node id="9920341101" lat="63.7737222" lon="8.7637638" version="1" timestamp="2022-07-30T05:16:32Z" changeset="124254506" uid="3497659" user="NKA">
		<tag k="name" v="Ølet" />
		<tag k="place" v="locality" />
		<tag k="ssr:stedsnr" v="340543" />
	</node>
	<node id="9920341102" lat="63.6700013" lon="8.3087011" version="1" timestamp="2022-07-30T05:16:32Z" changeset="124254506" uid="3497659" user="NKA">
		<tag k="name" v="Gården" />
		<tag k="place" v="farm" />
		<tag k="ssr:stedsnr" v="339131" />
	</node>
	<node id="9920341103" lat="63.7041973" lon="8.5531055" version="1" timestamp="2022-07-30T05:16:32Z" changeset="124254506" uid="3497659" user="NKA">
		<tag k="name" v="Ørnmyra" />
		<tag k="place" v="farm" />
		<tag k="ssr:stedsnr" v="278332" />
	</node>
	<node id="9920341104" lat="63.7344773" lon="8.8297875" version="1" timestamp="2022-07-30T05:16:32Z" changeset="124254506" uid="3497659" user="NKA">
		<tag k="name" v="Myra" />
		<tag k="place" v="farm" />
		<tag k="ssr:stedsnr" v="970936" />
	</node>
	<node id="9920341105" lat="63.6912801" lon="8.6914805" version="1" timestamp="2022-07-30T05:16:32Z" changeset="124254506" uid="3497659" user="NKA">
		<tag k="alt_name" v="Øvre Skardsvåg;Skardsvåg, øvre" />
		<tag k="name" v="Øverskardsvågen" />
		<tag k="place" v="farm" />
		<tag k="ssr:stedsnr" v="134778" />
	</node>
	<node id="9920341106" lat="63.6794203" lon="8.6593411" version="1" timestamp="2022-07-30T05:16:32Z" changeset="124254506" uid="3497659" user="NKA">
		<tag k="name" v="Grubba" />
		<tag k="place" v="farm" />
		<tag k="ssr:stedsnr" v="923791" />
	</node>
	<node id="9920341107" lat="63.7878389" lon="8.6887083" version="1" timestamp="2022-07-30T05:16:32Z" changeset="124254506" uid="3497659" user="NKA">
		<tag k="name" v="Kjellmyra" />
		<tag k="place" v="farm" />
		<tag k="ssr:stedsnr" v="802944" />
	</node>
	<node id="9920341108" lat="63.8020028" lon="8.7720777" version="1" timestamp="2022-07-30T05:16:32Z" changeset="124254506" uid="3497659" user="NKA">
		<tag k="name" v="Bukta" />
		<tag k="place" v="farm" />
		<tag k="ssr:stedsnr" v="255817" />
	</node>
	<node id="9920341109" lat="63.7313467" lon="8.6305815" version="1" timestamp="2022-07-30T05:16:32Z" changeset="124254506" uid="3497659" user="NKA">
		<tag k="name" v="Tverrvågen" />
		<tag k="place" v="farm" />
		<tag k="ssr:stedsnr" v="680883" />
	</node>
	<node id="9920341110" lat="63.686475" lon="8.4591389" version="1" timestamp="2022-07-30T05:16:32Z" changeset="124254506" uid="3497659" user="NKA">
		<tag k="name" v="Setra" />
		<tag k="place" v="farm" />
		<tag k="ssr:stedsnr" v="946084" />
	</node>
	<node id="9920341111" lat="63.7869397" lon="8.7106462" version="1" timestamp="2022-07-30T05:16:32Z" changeset="124254506" uid="3497659" user="NKA">
		<tag k="name" v="Sjønhalsen" />
		<tag k="place" v="hamlet" />
		<tag k="ssr:stedsnr" v="214209" />
	</node>
	<node id="9920341112" lat="63.6873972" lon="8.4449945" version="1" timestamp="2022-07-30T05:16:32Z" changeset="124254506" uid="3497659" user="NKA">
		<tag k="name" v="Singstad" />
		<tag k="place" v="farm" />
		<tag k="ssr:stedsnr" v="802815" />
	</node>
	<node id="9920341113" lat="63.8675648" lon="8.6689833" version="1" timestamp="2022-07-30T05:16:32Z" changeset="124254506" uid="3497659" user="NKA">
		<tag k="name" v="Enget" />
		<tag k="place" v="farm" />
		<tag k="ssr:stedsnr" v="157421" />
	</node>
	<node id="9920341114" lat="63.7765447" lon="8.771788" version="1" timestamp="2022-07-30T05:16:32Z" changeset="124254506" uid="3497659" user="NKA">
		<tag k="name" v="Lia" />
		<tag k="place" v="farm" />
		<tag k="ssr:stedsnr" v="498872" />
	</node>
	<node id="9920341115" lat="63.6897584" lon="8.766089" version="1" timestamp="2022-07-30T05:16:32Z" changeset="124254506" uid="3497659" user="NKA">
		<tag k="name" v="Haugan" />
		<tag k="place" v="farm" />
		<tag k="ssr:stedsnr" v="521474" />
	</node>
	<node id="9920341116" lat="63.6963806" lon="8.4588973" version="1" timestamp="2022-07-30T05:16:32Z" changeset="124254506" uid="3497659" user="NKA">
		<tag k="name" v="Nordheim" />
		<tag k="place" v="farm" />
		<tag k="ssr:stedsnr" v="680846" />
	</node>
	<node id="9920390617" lat="64.0029884" lon="9.1751836" version="1" timestamp="2022-07-30T05:16:32Z" changeset="124254506" uid="3497659" user="NKA">
		<tag k="name" v="Moen" />
		<tag k="place" v="isolated_dwelling" />
		<tag k="ssr:stedsnr" v="863872" />
	</node>
	<node id="9920390618" lat="63.7688651" lon="8.7481729" version="1" timestamp="2022-07-30T05:16:32Z" changeset="124254506" uid="3497659" user="NKA">
		<tag k="name" v="Norddalen" />
		<tag k="place" v="farm" />
		<tag k="ssr:stedsnr" v="377863" />
	</node>
	<node id="9920390619" lat="63.6671611" lon="8.2972667" version="1" timestamp="2022-07-30T05:16:32Z" changeset="124254506" uid="3497659" user="NKA">
		<tag k="name" v="Heia" />
		<tag k="place" v="neighbourhood" />
		<tag k="ssr:stedsnr" v="704124" />
	</node>
	<node id="9920390620" lat="63.679243" lon="8.6545635" version="1" timestamp="2022-07-30T05:16:32Z" changeset="124254506" uid="3497659" user="NKA">
		<tag k="alt_name" v="Skjervika" />
		<tag k="name" v="Skjervik" />
		<tag k="place" v="locality" />
		<tag k="ssr:stedsnr" v="134772" />
	</node>
	<node id="9920390621" lat="63.6909111" lon="8.4373223" version="1" timestamp="2022-07-30T05:16:32Z" changeset="124254506" uid="3497659" user="NKA">
		<tag k="name" v="Frøya" />
		<tag k="place" v="farm" />
		<tag k="ssr:stedsnr" v="377764" />
	</node>
	<node id="9920390622" lat="63.6749094" lon="8.5948216" version="1" timestamp="2022-07-30T05:16:32Z" changeset="124254506" uid="3497659" user="NKA">
		<tag k="name" v="Haugen" />
		<tag k="place" v="farm" />
		<tag k="ssr:stedsnr" v="97225" />
	</node>
	<node id="9920390623" lat="63.6872139" lon="8.4465778" version="1" timestamp="2022-07-30T05:16:32Z" changeset="124254506" uid="3497659" user="NKA">
		<tag k="name" v="Vestad" />
		<tag k="place" v="farm" />
		<tag k="ssr:stedsnr" v="377769" />
	</node>
	<node id="9920390624" lat="63.8678371" lon="8.6347784" version="1" timestamp="2022-07-30T05:16:32Z" changeset="124254506" uid="3497659" user="NKA">
		<tag k="name" v="Myra" />
		<tag k="place" v="farm" />
		<tag k="ssr:stedsnr" v="461161" />
	</node>
	<node id="9920390625" lat="63.9306871" lon="8.9037757" version="1" timestamp="2022-07-30T05:16:32Z" changeset="124254506" uid="3497659" user="NKA">
		<tag k="name" v="Utheim" />
		<tag k="old_name" v="Ørheim" />
		<tag k="place" v="farm" />
		<tag k="ssr:stedsnr" v="1084011" />
	</node>
	<node id="9920390626" lat="63.6875111" lon="8.4490973" version="1" timestamp="2022-07-30T05:16:32Z" changeset="124254506" uid="3497659" user="NKA">
		<tag k="name" v="Østheim" />
		<tag k="place" v="farm" />
		<tag k="ssr:stedsnr" v="316841" />
	</node>
	<node id="9920390627" lat="63.6801676" lon="8.3956823" version="1" timestamp="2022-07-30T05:16:32Z" changeset="124254506" uid="3497659" user="NKA">
		<tag k="name" v="Daløya" />
		<tag k="place" v="hamlet" />
		<tag k="ssr:stedsnr" v="400082" />
	</node>
	<node id="9920390628" lat="63.6699659" lon="8.3708499" version="1" timestamp="2022-07-30T05:16:32Z" changeset="124254506" uid="3497659" user="NKA">
		<tag k="name" v="Dalsvik" />
		<tag k="place" v="farm" />
		<tag k="ssr:stedsnr" v="317985" />
	</node>
	<node id="9920390629" lat="63.6949583" lon="8.4556695" version="1" timestamp="2022-07-30T05:16:32Z" changeset="124254506" uid="3497659" user="NKA">
		<tag k="name" v="Midttun" />
		<tag k="place" v="farm" />
		<tag k="ssr:stedsnr" v="376831" />
	</node>
	<node id="9920390630" lat="63.6714306" lon="8.56765" version="1" timestamp="2022-07-30T05:16:32Z" changeset="124254506" uid="3497659" user="NKA">
		<tag k="name" v="Avløysskaget" />
		<tag k="place" v="farm" />
		<tag k="ssr:stedsnr" v="158004" />
	</node>
	<node id="9920390631" lat="63.6900306" lon="8.4461167" version="1" timestamp="2022-07-30T05:16:32Z" changeset="124254506" uid="3497659" user="NKA">
		<tag k="name" v="Høgset" />
		<tag k="place" v="farm" />
		<tag k="ssr:stedsnr" v="134801" />
	</node>
	<node id="9920390632" lat="63.862842" lon="8.6461101" version="1" timestamp="2022-07-30T05:16:32Z" changeset="124254506" uid="3497659" user="NKA">
		<tag k="name" v="Purkvika" />
		<tag k="place" v="farm" />
		<tag k="ssr:stedsnr" v="643418" />
	</node>
	<node id="9920390633" lat="63.6699972" lon="8.5476277" version="1" timestamp="2022-07-30T05:16:32Z" changeset="124254506" uid="3497659" user="NKA">
		<tag k="alt_name" v="Ørndal" />
		<tag k="name" v="Ørndalen" />
		<tag k="place" v="farm" />
		<tag k="ssr:stedsnr" v="638420" />
	</node>
	<node id="9920390634" lat="63.6714139" lon="8.5632112" version="1" timestamp="2022-07-30T05:16:32Z" changeset="124254506" uid="3497659" user="NKA">
		<tag k="name" v="Bekkastua" />
		<tag k="place" v="isolated_dwelling" />
		<tag k="ssr:stedsnr" v="582055" />
	</node>
	<node id="9920390635" lat="63.6708806" lon="8.3082529" version="1" timestamp="2022-07-30T05:16:32Z" changeset="124254506" uid="3497659" user="NKA">
		<tag k="name" v="Hamburglandet" />
		<tag k="place" v="neighbourhood" />
		<tag k="ssr:stedsnr" v="643149" />
	</node>
	<node id="9920390636" lat="63.7555227" lon="8.5888816" version="1" timestamp="2022-07-30T05:16:32Z" changeset="124254506" uid="3497659" user="NKA">
		<tag k="name" v="Auna" />
		<tag k="place" v="farm" />
		<tag k="ssr:stedsnr" v="947841" />
	</node>
	<node id="9920390637" lat="63.6848417" lon="8.6666528" version="1" timestamp="2022-07-30T05:16:32Z" changeset="124254506" uid="3497659" user="NKA">
		<tag k="name" v="Sikla" />
		<tag k="place" v="farm" />
		<tag k="ssr:stedsnr" v="825016" />
	</node>
	<node id="9920390638" lat="63.6918" lon="8.687389" version="1" timestamp="2022-07-30T05:16:32Z" changeset="124254506" uid="3497659" user="NKA">
		<tag k="name" v="Halten" />
		<tag k="place" v="farm" />
		<tag k="ssr:stedsnr" v="338297" />
	</node>
	<node id="9920390639" lat="63.66545" lon="8.3167251" version="1" timestamp="2022-07-30T05:16:32Z" changeset="124254506" uid="3497659" user="NKA">
		<tag k="name" v="Grønnhaugen" />
		<tag k="place" v="neighbourhood" />
		<tag k="ssr:stedsnr" v="947121" />
	</node>
	<node id="9920390640" lat="63.7828834" lon="8.7011639" version="1" timestamp="2022-07-30T05:16:32Z" changeset="124254506" uid="3497659" user="NKA">
		<tag k="name" v="Skjelvika" />
		<tag k="place" v="hamlet" />
		<tag k="ssr:stedsnr" v="945475" />
	</node>
	<node id="9920390641" lat="63.6938333" lon="8.7648695" version="1" timestamp="2022-07-30T05:16:32Z" changeset="124254506" uid="3497659" user="NKA">
		<tag k="name" v="Staulvollen" />
		<tag k="place" v="farm" />
		<tag k="ssr:stedsnr" v="157470" />
	</node>
	<node id="9920390642" lat="63.6745961" lon="8.6084512" version="1" timestamp="2022-07-30T05:16:32Z" changeset="124254506" uid="3497659" user="NKA">
		<tag k="name" v="Gangarvika" />
		<tag k="place" v="isolated_dwelling" />
		<tag k="ssr:stedsnr" v="946199" />
	</node>
	<node id="9920390643" lat="63.7729528" lon="8.707389" version="1" timestamp="2022-07-30T05:16:32Z" changeset="124254506" uid="3497659" user="NKA">
		<tag k="historic" v="shieling" />
		<tag k="name" v="Innersetra" />
		<tag k="place" v="isolated_dwelling" />
		<tag k="ssr:stedsnr" v="923893" />
	</node>
	<node id="9920390644" lat="63.6920944" lon="8.5973861" version="1" timestamp="2022-07-30T05:16:32Z" changeset="124254506" uid="3497659" user="NKA">
		<tag k="name" v="Engdal" />
		<tag k="place" v="farm" />
		<tag k="ssr:stedsnr" v="74760" />
	</node>
	<node id="9920390645" lat="63.6825528" lon="8.6533112" version="1" timestamp="2022-07-30T05:16:32Z" changeset="124254506" uid="3497659" user="NKA">
		<tag k="name" v="Dalvikern" />
		<tag k="place" v="farm" />
		<tag k="ssr:stedsnr" v="36193" />
	</node>
	<node id="9920390646" lat="63.6791389" lon="8.6461828" version="1" timestamp="2022-07-30T05:16:32Z" changeset="124254506" uid="3497659" user="NKA">
		<tag k="name" v="Storvika" />
		<tag k="place" v="farm" />
		<tag k="ssr:stedsnr" v="195772" />
	</node>
	<node id="9920390647" lat="63.6686945" lon="8.3098778" version="1" timestamp="2022-07-30T05:16:32Z" changeset="124254506" uid="3497659" user="NKA">
		<tag k="name" v="Hanshaugen" />
		<tag k="place" v="neighbourhood" />
		<tag k="ssr:stedsnr" v="97110" />
	</node>
	<node id="9920390648" lat="63.7083438" lon="8.508435" version="1" timestamp="2022-07-30T05:16:32Z" changeset="124254506" uid="3497659" user="NKA">
		<tag k="name" v="Måsøyvalen" />
		<tag k="place" v="hamlet" />
		<tag k="ssr:stedsnr" v="195831" />
	</node>
	<node id="9920390649" lat="63.6749107" lon="8.3815667" version="1" timestamp="2022-07-30T05:16:32Z" changeset="124254506" uid="3497659" user="NKA">
		<tag k="name" v="Bustvika" />
		<tag k="place" v="hamlet" />
		<tag k="ssr:stedsnr" v="195781" />
	</node>
	<node id="9920390650" lat="63.6794917" lon="8.4159" version="1" timestamp="2022-07-30T05:16:32Z" changeset="124254506" uid="3497659" user="NKA">
		<tag k="name" v="Skage" />
		<tag k="place" v="farm" />
		<tag k="ssr:stedsnr" v="498794" />
	</node>
	<node id="9920390651" lat="63.7030139" lon="8.4430499" version="1" timestamp="2022-07-30T05:16:32Z" changeset="124254506" uid="3497659" user="NKA">
		<tag k="name" v="Skaga" />
		<tag k="place" v="farm" />
		<tag k="ssr:stedsnr" v="438828" />
	</node>
	<node id="9920390652" lat="63.6799266" lon="8.4301878" version="1" timestamp="2022-07-30T05:16:32Z" changeset="124254506" uid="3497659" user="NKA">
		<tag k="name" v="Myra" />
		<tag k="place" v="farm" />
		<tag k="ssr:stedsnr" v="461082" />
	</node>
	<node id="9920390653" lat="63.6641724" lon="8.3112755" version="1" timestamp="2022-07-30T05:16:32Z" changeset="124254506" uid="3497659" user="NKA">
		<tag k="name" v="Stabben" />
		<tag k="place" v="farm" />
		<tag k="ssr:stedsnr" v="97399" />
	</node>
	<node id="9920390654" lat="63.6735666" lon="8.6015861" version="1" timestamp="2022-07-30T05:16:32Z" changeset="124254506" uid="3497659" user="NKA">
		<tag k="name" v="Kjehamna" />
		<tag k="place" v="farm" />
		<tag k="ssr:stedsnr" v="643234" />
	</node>
	<node id="9920390655" lat="63.6703487" lon="8.3715086" version="1" timestamp="2022-07-30T05:16:32Z" changeset="124254506" uid="3497659" user="NKA">
		<tag k="name" v="Dalsvikmyra" />
		<tag k="place" v="farm" />
		<tag k="ssr:stedsnr" v="704371" />
	</node>
	<node id="9920390656" lat="63.7620584" lon="8.8131167" version="1" timestamp="2022-07-30T05:16:32Z" changeset="124254506" uid="3497659" user="NKA">
		<tag k="name" v="Madsvågen" />
		<tag k="place" v="farm" />
		<tag k="ssr:stedsnr" v="825675" />
	</node>
	<node id="9920390657" lat="63.6816667" lon="8.6753638" version="1" timestamp="2022-07-30T05:16:32Z" changeset="124254506" uid="3497659" user="NKA">
		<tag k="alt_name" v="Mannvika" />
		<tag k="name" v="Mannvik" />
		<tag k="place" v="farm" />
		<tag k="ssr:stedsnr" v="620734" />
	</node>
	<node id="9920390658" lat="63.7797778" lon="8.5554" version="1" timestamp="2022-07-30T05:16:32Z" changeset="124254506" uid="3497659" user="NKA">
		<tag k="name" v="Gåsøya" />
		<tag k="place" v="locality" />
		<tag k="ssr:stedsnr" v="970962" />
	</node>
	<node id="9920390659" lat="63.6757773" lon="8.6176847" version="1" timestamp="2022-07-30T05:16:32Z" changeset="124254506" uid="3497659" user="NKA">
		<tag k="name" v="Hallaren" />
		<tag k="place" v="hamlet" />
		<tag k="ssr:stedsnr" v="278258" />
	</node>
	<node id="9920390660" lat="63.7944996" lon="8.7844945" version="1" timestamp="2022-07-30T05:16:32Z" changeset="124254506" uid="3497659" user="NKA">
		<tag k="name" v="Vikan" />
		<tag k="place" v="farm" />
		<tag k="ssr:stedsnr" v="970949" />
	</node>
	<node id="9920390661" lat="63.7367444" lon="8.6461918" version="1" timestamp="2022-07-30T05:16:32Z" changeset="124254506" uid="3497659" user="NKA">
		<tag k="name" v="Tunga" />
		<tag k="place" v="farm" />
		<tag k="ssr:stedsnr" v="802880" />
	</node>
	<node id="9920390662" lat="63.6791111" lon="8.4152279" version="1" timestamp="2022-07-30T05:16:32Z" changeset="124254506" uid="3497659" user="NKA">
		<tag k="name" v="Skaget" />
		<tag k="place" v="farm" />
		<tag k="ssr:stedsnr" v="522102" />
	</node>
	<node id="9920390663" lat="63.7015712" lon="8.8282559" version="1" timestamp="2022-07-30T05:16:32Z" changeset="124254506" uid="3497659" user="NKA">
		<tag k="alt_name" v="Nordhammer;Nordhammar" />
		<tag k="name" v="Nordhammaren" />
		<tag k="place" v="neighbourhood" />
		<tag k="ssr:stedsnr" v="316748" />
	</node>
	<node id="9920390664" lat="63.7073213" lon="8.5789268" version="1" timestamp="2022-07-30T05:16:32Z" changeset="124254506" uid="3497659" user="NKA">
		<tag k="name" v="Husvika" />
		<tag k="place" v="hamlet" />
		<tag k="ssr:stedsnr" v="681830" />
	</node>
	<node id="9920390665" lat="63.7864917" lon="8.8321418" version="1" timestamp="2022-07-30T05:16:32Z" changeset="124254506" uid="3497659" user="NKA">
		<tag k="name" v="Ramsøya" />
		<tag k="place" v="farm" />
		<tag k="ssr:stedsnr" v="158339" />
	</node>
	<node id="9920390666" lat="63.78655" lon="8.6474111" version="1" timestamp="2022-07-30T05:16:32Z" changeset="124254506" uid="3497659" user="NKA">
		<tag k="name" v="Ørnflauget" />
		<tag k="place" v="farm" />
		<tag k="ssr:stedsnr" v="498955" />
	</node>
	<node id="9920390667" lat="63.6721379" lon="8.5746472" version="1" timestamp="2022-07-30T05:16:32Z" changeset="124254506" uid="3497659" user="NKA">
		<tag k="name" v="Bekken" />
		<tag k="place" v="hamlet" />
		<tag k="ssr:stedsnr" v="499996" />
	</node>
	<node id="9920390668" lat="63.6946944" lon="8.4136862" version="1" timestamp="2022-07-30T05:16:32Z" changeset="124254506" uid="3497659" user="NKA">
		<tag k="name" v="Skjåstå" />
		<tag k="place" v="locality" />
		<tag k="ssr:stedsnr" v="376833" />
	</node>
	<node id="9920390669" lat="63.7794134" lon="8.8120282" version="1" timestamp="2022-07-30T05:16:32Z" changeset="124254506" uid="3497659" user="NKA">
		<tag k="name" v="Hellesvika" />
		<tag k="place" v="hamlet" />
		<tag k="ssr:stedsnr" v="97340" />
	</node>
	<node id="9920390670" lat="63.783875" lon="8.6585833" version="1" timestamp="2022-07-30T05:16:32Z" changeset="124254506" uid="3497659" user="NKA">
		<tag k="alt_name" v="Haugen" />
		<tag k="name" v="Dyrøygården" />
		<tag k="place" v="farm" />
		<tag k="ssr:stedsnr" v="498950" />
	</node>
	<node id="9920390671" lat="63.749286" lon="8.6796619" version="1" timestamp="2022-07-30T05:16:32Z" changeset="124254506" uid="3497659" user="NKA">
		<tag k="name" v="Rabben" />
		<tag k="place" v="farm" />
		<tag k="ssr:stedsnr" v="461221" />
	</node>
	<node id="9920390672" lat="63.7778709" lon="8.7758752" version="1" timestamp="2022-07-30T05:16:32Z" changeset="124254506" uid="3497659" user="NKA">
		<tag k="name" v="Strømøya" />
		<tag k="place" v="hamlet" />
		<tag k="ssr:stedsnr" v="377841" />
	</node>
	<node id="9920390673" lat="63.7293028" lon="8.6205751" version="1" timestamp="2022-07-30T05:16:32Z" changeset="124254506" uid="3497659" user="NKA">
		<tag k="name" v="Vågan" />
		<tag k="place" v="farm" />
		<tag k="ssr:stedsnr" v="339823" />
	</node>
	<node id="9920390674" lat="63.7890519" lon="8.7449194" version="1" timestamp="2022-07-30T05:16:32Z" changeset="124254506" uid="3497659" user="NKA">
		<tag k="name" v="Dragsneset" />
		<tag k="place" v="hamlet" />
		<tag k="ssr:stedsnr" v="339514" />
	</node>
	<node id="9920390675" lat="63.7675111" lon="8.8811194" version="1" timestamp="2022-07-30T05:16:32Z" changeset="124254506" uid="3497659" user="NKA">
		<tag k="name" v="Bakkan" />
		<tag k="place" v="farm" />
		<tag k="ssr:stedsnr" v="885686" />
	</node>
	<node id="9920390676" lat="63.8697178" lon="8.6683828" version="1" timestamp="2022-07-30T05:16:32Z" changeset="124254506" uid="3497659" user="NKA">
		<tag k="name" v="Støen" />
		<tag k="place" v="isolated_dwelling" />
		<tag k="ssr:stedsnr" v="158436" />
	</node>
	<node id="9920390677" lat="63.7028639" lon="8.578075" version="1" timestamp="2022-07-30T05:16:32Z" changeset="124254506" uid="3497659" user="NKA">
		<tag k="name" v="Heimervik" />
		<tag k="place" v="farm" />
		<tag k="ssr:stedsnr" v="134841" />
	</node>
	<node id="9920390678" lat="63.763355" lon="8.674861" version="1" timestamp="2022-07-30T05:16:32Z" changeset="124254506" uid="3497659" user="NKA">
		<tag k="name" v="Leirvika" />
		<tag k="place" v="hamlet" />
		<tag k="ssr:stedsnr" v="135873" />
	</node>
	<node id="9920390679" lat="63.6972202" lon="8.4452361" version="1" timestamp="2022-07-30T05:16:32Z" changeset="124254506" uid="3497659" user="NKA">
		<tag k="name" v="Valvågan" />
		<tag k="place" v="farm" />
		<tag k="ssr:stedsnr" v="316850" />
	</node>
	<node id="9920390680" lat="63.7554463" lon="8.690077" version="1" timestamp="2022-07-30T05:16:32Z" changeset="124254506" uid="3497659" user="NKA">
		<tag k="name" v="Djupveita" />
		<tag k="place" v="farm" />
		<tag k="ssr:stedsnr" v="97180" />
	</node>
	<node id="9920390681" lat="63.7516937" lon="8.5867695" version="1" timestamp="2022-07-30T05:16:32Z" changeset="124254506" uid="3497659" user="NKA">
		<tag k="name" v="Vardan" />
		<tag k="place" v="farm" />
		<tag k="ssr:stedsnr" v="256970" />
	</node>
	<node id="9920390682" lat="63.7739222" lon="8.710975" version="1" timestamp="2022-07-30T05:16:32Z" changeset="124254506" uid="3497659" user="NKA">
		<tag k="historic" v="shieling" />
		<tag k="name" v="Setra" />
		<tag k="place" v="isolated_dwelling" />
		<tag k="ssr:stedsnr" v="96538" />
	</node>
	<node id="9920390683" lat="63.7278042" lon="8.6366016" version="1" timestamp="2022-07-30T05:16:32Z" changeset="124254506" uid="3497659" user="NKA">
		<tag k="name" v="Asplia" />
		<tag k="place" v="farm" />
		<tag k="ssr:stedsnr" v="400854" />
	</node>
	<node id="9920390684" lat="63.7881444" lon="8.7167556" version="1" timestamp="2022-07-30T05:16:32Z" changeset="124254506" uid="3497659" user="NKA">
		<tag k="name" v="Oshøgda" />
		<tag k="place" v="farm" />
		<tag k="ssr:stedsnr" v="96532" />
	</node>
	<node id="9920390685" lat="63.7148528" lon="8.5905861" version="1" timestamp="2022-07-30T05:16:32Z" changeset="124254506" uid="3497659" user="NKA">
		<tag k="alt_name" v="Berglia" />
		<tag k="name" v="Bergli" />
		<tag k="place" v="farm" />
		<tag k="ssr:stedsnr" v="134860" />
	</node>
	<node id="9920390686" lat="63.7315417" lon="8.8297306" version="1" timestamp="2022-07-30T05:16:32Z" changeset="124254506" uid="3497659" user="NKA">
		<tag k="name" v="Innersian" />
		<tag k="place" v="neighbourhood" />
		<tag k="ssr:stedsnr" v="278687" />
	</node>
	<node id="9920390687" lat="63.7821833" lon="8.6912667" version="1" timestamp="2022-07-30T05:16:32Z" changeset="124254506" uid="3497659" user="NKA">
		<tag k="name" v="Trøa" />
		<tag k="place" v="farm" />
		<tag k="ssr:stedsnr" v="74925" />
	</node>
	<node id="9920390688" lat="63.7716111" lon="8.6772918" version="1" timestamp="2022-07-30T05:16:32Z" changeset="124254506" uid="3497659" user="NKA">
		<tag k="name" v="Aune" />
		<tag k="place" v="locality" />
		<tag k="ssr:stedsnr" v="74886" />
	</node>
	<node id="9920390689" lat="63.6719389" lon="8.5580834" version="1" timestamp="2022-07-30T05:16:32Z" changeset="124254506" uid="3497659" user="NKA">
		<tag k="name" v="Grindfara" />
		<tag k="place" v="isolated_dwelling" />
		<tag k="ssr:stedsnr" v="400059" />
	</node>
	<node id="9920390690" lat="63.7879556" lon="8.7365084" version="1" timestamp="2022-07-30T05:16:32Z" changeset="124254506" uid="3497659" user="NKA">
		<tag k="name" v="Sørvika" />
		<tag k="place" v="farm" />
		<tag k="ssr:stedsnr" v="36496" />
	</node>
	<node id="9920390691" lat="63.7453889" lon="8.6853306" version="1" timestamp="2022-07-30T05:16:32Z" changeset="124254506" uid="3497659" user="NKA">
		<tag k="name" v="Norddal" />
		<tag k="place" v="farm" />
		<tag k="ssr:stedsnr" v="13851" />
	</node>
	<node id="9920390692" lat="63.7045695" lon="8.5239861" version="1" timestamp="2022-07-30T05:16:32Z" changeset="124254506" uid="3497659" user="NKA">
		<tag k="name" v="Haugen" />
		<tag k="place" v="farm" />
		<tag k="ssr:stedsnr" v="339821" />
	</node>
	<node id="9920390693" lat="63.7783495" lon="8.6900459" version="1" timestamp="2022-07-30T05:16:32Z" changeset="124254506" uid="3497659" user="NKA">
		<tag k="name" v="Vollen" />
		<tag k="place" v="hamlet" />
		<tag k="ssr:stedsnr" v="35595" />
	</node>
	<node id="9920390694" lat="63.7663083" lon="8.8823333" version="1" timestamp="2022-07-30T05:16:32Z" changeset="124254506" uid="3497659" user="NKA">
		<tag k="name" v="Husøya" />
		<tag k="place" v="farm" />
		<tag k="ssr:stedsnr" v="680898" />
	</node>
	<node id="9920390695" lat="63.7777861" lon="8.6860806" version="1" timestamp="2022-07-30T05:16:32Z" changeset="124254506" uid="3497659" user="NKA">
		<tag k="name" v="Stranda" />
		<tag k="place" v="farm" />
		<tag k="ssr:stedsnr" v="73877" />
	</node>
	<node id="9920390696" lat="63.8003238" lon="8.7001488" version="1" timestamp="2022-07-30T05:16:32Z" changeset="124254506" uid="3497659" user="NKA">
		<tag k="name" v="Båtvika" />
		<tag k="place" v="farm" />
		<tag k="ssr:stedsnr" v="923917" />
	</node>
	<node id="9920390697" lat="63.7651432" lon="8.6873167" version="1" timestamp="2022-07-30T05:16:32Z" changeset="124254506" uid="3497659" user="NKA">
		<tag k="name" v="Bondenget" />
		<tag k="place" v="farm" />
		<tag k="ssr:stedsnr" v="14866" />
	</node>
	<node id="9920390698" lat="63.7848472" lon="8.7154195" version="1" timestamp="2022-07-30T05:16:32Z" changeset="124254506" uid="3497659" user="NKA">
		<tag k="name" v="Vamyra" />
		<tag k="place" v="farm" />
		<tag k="ssr:stedsnr" v="824519" />
	</node>
	<node id="9920390699" lat="63.7692611" lon="8.8727583" version="1" timestamp="2022-07-30T05:16:32Z" changeset="124254506" uid="3497659" user="NKA">
		<tag k="name" v="Hesjan" />
		<tag k="place" v="farm" />
		<tag k="ssr:stedsnr" v="335089" />
	</node>
	<node id="9920390700" lat="63.7031694" lon="8.5639473" version="1" timestamp="2022-07-30T05:16:32Z" changeset="124254506" uid="3497659" user="NKA">
		<tag k="name" v="Stein" />
		<tag k="place" v="farm" />
		<tag k="ssr:stedsnr" v="13821" />
	</node>
	<node id="9920390701" lat="63.7733361" lon="8.7513751" version="1" timestamp="2022-07-30T05:16:32Z" changeset="124254506" uid="3497659" user="NKA">
		<tag k="alt_name" v="Fagerstrand" />
		<tag k="name" v="Fagerstranda" />
		<tag k="place" v="farm" />
		<tag k="ssr:stedsnr" v="13846" />
	</node>
	<node id="9920390702" lat="63.7335278" lon="8.6471263" version="1" timestamp="2022-07-30T05:16:32Z" changeset="124254506" uid="3497659" user="NKA">
		<tag k="name" v="Krutvika" />
		<tag k="place" v="farm" />
		<tag k="ssr:stedsnr" v="886191" />
	</node>
	<node id="9920390703" lat="63.720875" lon="8.5944417" version="1" timestamp="2022-07-30T05:16:32Z" changeset="124254506" uid="3497659" user="NKA">
		<tag k="name" v="Engvika" />
		<tag k="place" v="farm" />
		<tag k="ssr:stedsnr" v="825815" />
	</node>
	<node id="9920390704" lat="63.7577502" lon="8.7038343" version="1" timestamp="2022-07-30T05:16:32Z" changeset="124254506" uid="3497659" user="NKA">
		<tag k="name" v="Klubben" />
		<tag k="place" v="hamlet" />
		<tag k="ssr:stedsnr" v="14877" />
	</node>
	<node id="9920390705" lat="63.7400583" lon="8.9056445" version="1" timestamp="2022-07-30T05:16:32Z" changeset="124254506" uid="3497659" user="NKA">
		<tag k="name" v="Hoven" />
		<tag k="place" v="farm" />
		<tag k="ssr:stedsnr" v="703822" />
	</node>
	<node id="9920390706" lat="63.702054" lon="8.4938286" version="1" timestamp="2022-07-30T05:16:32Z" changeset="124254506" uid="3497659" user="NKA">
		<tag k="name" v="Veita" />
		<tag k="place" v="farm" />
		<tag k="ssr:stedsnr" v="882710" />
	</node>
	<node id="9920390707" lat="63.8064015" lon="8.8032475" version="1" timestamp="2022-07-30T05:16:32Z" changeset="124254506" uid="3497659" user="NKA">
		<tag k="name" v="Prestgården" />
		<tag k="place" v="farm" />
		<tag k="ssr:stedsnr" v="581364" />
	</node>
	<node id="9920390708" lat="63.7401265" lon="8.6420588" version="1" timestamp="2022-07-30T05:16:32Z" changeset="124254506" uid="3497659" user="NKA">
		<tag k="name" v="Bremneset" />
		<tag k="place" v="hamlet" />
		<tag k="ssr:stedsnr" v="195866" />
	</node>
	<node id="9920390709" lat="63.7067583" lon="8.5425834" version="1" timestamp="2022-07-30T05:16:32Z" changeset="124254506" uid="3497659" user="NKA">
		<tag k="loc_name" v="Hålahauan" />
		<tag k="name" v="Holahaugan" />
		<tag k="place" v="neighbourhood" />
		<tag k="ssr:stedsnr" v="750307" />
	</node>
	<node id="9920390710" lat="63.7034972" lon="8.5279723" version="1" timestamp="2022-07-30T05:16:32Z" changeset="124254506" uid="3497659" user="NKA">
		<tag k="name" v="Solheim" />
		<tag k="place" v="farm" />
		<tag k="ssr:stedsnr" v="195830" />
	</node>
	<node id="9920390711" lat="63.7699417" lon="8.8781249" version="1" timestamp="2022-07-30T05:16:32Z" changeset="124254506" uid="3497659" user="NKA">
		<tag k="name" v="Solvang" />
		<tag k="place" v="farm" />
		<tag k="ssr:stedsnr" v="619885" />
	</node>
	<node id="9920390712" lat="63.7013" lon="8.5254194" version="1" timestamp="2022-07-30T05:16:32Z" changeset="124254506" uid="3497659" user="NKA">
		<tag k="name" v="Solli" />
		<tag k="place" v="farm" />
		<tag k="ssr:stedsnr" v="741842" />
	</node>
	<node id="9920390713" lat="63.7019805" lon="8.5622667" version="1" timestamp="2022-07-30T05:16:32Z" changeset="124254506" uid="3497659" user="NKA">
		<tag k="name" v="Berg" />
		<tag k="place" v="farm" />
		<tag k="ssr:stedsnr" v="195824" />
	</node>
	<node id="9920390714" lat="63.7715389" lon="8.8708001" version="1" timestamp="2022-07-30T05:16:32Z" changeset="124254506" uid="3497659" user="NKA">
		<tag k="name" v="Pila" />
		<tag k="place" v="farm" />
		<tag k="ssr:stedsnr" v="31105" />
	</node>
	<node id="9920390715" lat="63.7695778" lon="8.7300903" version="1" timestamp="2022-07-30T05:16:32Z" changeset="124254506" uid="3497659" user="NKA">
		<tag k="name" v="Bårdsenget" />
		<tag k="place" v="farm" />
		<tag k="ssr:stedsnr" v="863854" />
	</node>
	<node id="9920390716" lat="63.6989611" lon="8.5667222" version="1" timestamp="2022-07-30T05:16:32Z" changeset="124254506" uid="3497659" user="NKA">
		<tag k="name" v="Merradalen" />
		<tag k="place" v="farm" />
		<tag k="ssr:stedsnr" v="741841" />
	</node>
	<node id="9920390717" lat="63.7322583" lon="8.6395251" version="1" timestamp="2022-07-30T05:16:32Z" changeset="124254506" uid="3497659" user="NKA">
		<tag k="name" v="Krutvik" />
		<tag k="place" v="farm" />
		<tag k="ssr:stedsnr" v="741887" />
	</node>
	<node id="9920390718" lat="63.7027611" lon="8.5764529" version="1" timestamp="2022-07-30T05:16:32Z" changeset="124254506" uid="3497659" user="NKA">
		<tag k="name" v="Heimervika" />
		<tag k="place" v="farm" />
		<tag k="ssr:stedsnr" v="643160" />
	</node>
	<node id="9920390719" lat="63.6935305" lon="8.4552111" version="1" timestamp="2022-07-30T05:16:32Z" changeset="124254506" uid="3497659" user="NKA">
		<tag k="name" v="Sørgard" />
		<tag k="place" v="farm" />
		<tag k="ssr:stedsnr" v="741843" />
	</node>
	<node id="9920390720" lat="63.7145389" lon="8.6032195" version="1" timestamp="2022-07-30T05:16:32Z" changeset="124254506" uid="3497659" user="NKA">
		<tag k="name" v="Sandvik" />
		<tag k="place" v="farm" />
		<tag k="ssr:stedsnr" v="863820" />
	</node>
	<node id="9920390721" lat="63.759925" lon="8.7009167" version="1" timestamp="2022-07-30T05:16:32Z" changeset="124254506" uid="3497659" user="NKA">
		<tag k="name" v="Ner Klubben" />
		<tag k="place" v="farm" />
		<tag k="ssr:stedsnr" v="643955" />
	</node>
	<node id="9920390722" lat="63.7129611" lon="8.5827918" version="1" timestamp="2022-07-30T05:16:32Z" changeset="124254506" uid="3497659" user="NKA">
		<tag k="name" v="Lomsmyra" />
		<tag k="place" v="farm" />
		<tag k="ssr:stedsnr" v="522802" />
	</node>
	<node id="9920390723" lat="63.7331916" lon="8.6394945" version="1" timestamp="2022-07-30T05:16:32Z" changeset="124254506" uid="3497659" user="NKA">
		<tag k="name" v="Nordre Grindfaret" />
		<tag k="place" v="locality" />
		<tag k="ssr:stedsnr" v="643324" />
	</node>
	<node id="9920390724" lat="63.7265349" lon="8.6188082" version="1" timestamp="2022-07-30T05:16:32Z" changeset="124254506" uid="3497659" user="NKA">
		<tag k="name" v="Tuvneset" />
		<tag k="place" v="farm" />
		<tag k="ssr:stedsnr" v="642822" />
	</node>
	<node id="9920390725" lat="63.7581383" lon="8.6976068" version="1" timestamp="2022-07-30T05:16:32Z" changeset="124254506" uid="3497659" user="NKA">
		<tag k="name" v="Øver Klubben" />
		<tag k="place" v="farm" />
		<tag k="ssr:stedsnr" v="643172" />
	</node>
	<node id="9920390726" lat="63.7216306" lon="8.6005694" version="1" timestamp="2022-07-30T05:16:32Z" changeset="124254506" uid="3497659" user="NKA">
		<tag k="name" v="Valen" />
		<tag k="place" v="farm" />
		<tag k="ssr:stedsnr" v="559840" />
	</node>
	<node id="9920390727" lat="63.7871305" lon="8.7173722" version="1" timestamp="2022-07-30T05:16:32Z" changeset="124254506" uid="3497659" user="NKA">
		<tag k="name" v="Breivika" />
		<tag k="place" v="farm" />
		<tag k="ssr:stedsnr" v="338442" />
	</node>
	<node id="9920390728" lat="63.7974234" lon="8.6760542" version="1" timestamp="2022-07-30T05:16:32Z" changeset="124254506" uid="3497659" user="NKA">
		<tag k="name" v="Stranda" />
		<tag k="place" v="hamlet" />
		<tag k="ssr:stedsnr" v="461608" />
	</node>
	<node id="9920390729" lat="63.7895528" lon="8.6802279" version="1" timestamp="2022-07-30T05:16:32Z" changeset="124254506" uid="3497659" user="NKA">
		<tag k="name" v="Holet" />
		<tag k="place" v="hamlet" />
		<tag k="ssr:stedsnr" v="520507" />
	</node>
	<node id="9920390730" lat="63.7540266" lon="8.5793842" version="1" timestamp="2022-07-30T05:16:32Z" changeset="124254506" uid="3497659" user="NKA">
		<tag k="name" v="Myra" />
		<tag k="place" v="farm" />
		<tag k="ssr:stedsnr" v="218870" />
	</node>
	<node id="9920390731" lat="63.7984" lon="8.7821528" version="1" timestamp="2022-07-30T05:16:32Z" changeset="124254506" uid="3497659" user="NKA">
		<tag k="alt_name" v="Vikasund" />
		<tag k="name" v="Vikasundet" />
		<tag k="place" v="hamlet" />
		<tag k="ssr:stedsnr" v="363647" />
	</node>
	<node id="9920390732" lat="63.7722898" lon="8.7409" version="1" timestamp="2022-07-30T05:16:32Z" changeset="124254506" uid="3497659" user="NKA">
		<tag k="name" v="Auka" />
		<tag k="place" v="hamlet" />
		<tag k="ssr:stedsnr" v="256837" />
	</node>
	<node id="9920390733" lat="63.7656161" lon="8.7346306" version="1" timestamp="2022-07-30T05:16:32Z" changeset="124254506" uid="3497659" user="NKA">
		<tag k="name" v="Gurvikdalen" />
		<tag k="place" v="hamlet" />
		<tag k="ssr:stedsnr" v="316913" />
	</node>
	<node id="9920390734" lat="63.736655" lon="8.6687464" version="1" timestamp="2022-07-30T05:16:32Z" changeset="124254506" uid="3497659" user="NKA">
		<tag k="name" v="Tungvågen" />
		<tag k="place" v="farm" />
		<tag k="ssr:stedsnr" v="279230" />
	</node>
	<node id="9920390735" lat="63.7550281" lon="8.6872678" version="1" timestamp="2022-07-30T05:16:32Z" changeset="124254506" uid="3497659" user="NKA">
		<tag k="name" v="Kleiva" />
		<tag k="place" v="farm" />
		<tag k="ssr:stedsnr" v="279184" />
	</node>
	<node id="9920390736" lat="63.7532655" lon="8.6875738" version="1" timestamp="2022-07-30T05:16:32Z" changeset="124254506" uid="3497659" user="NKA">
		<tag k="name" v="Tøfta" />
		<tag k="place" v="farm" />
		<tag k="ssr:stedsnr" v="279182" />
	</node>
	<node id="9920390737" lat="63.8691459" lon="8.6663972" version="1" timestamp="2022-07-30T05:16:32Z" changeset="124254506" uid="3497659" user="NKA">
		<tag k="name" v="Berge" />
		<tag k="place" v="farm" />
		<tag k="ssr:stedsnr" v="218462" />
	</node>
	<node id="9920390738" lat="63.6915611" lon="8.5978472" version="1" timestamp="2022-07-30T05:16:32Z" changeset="124254506" uid="3497659" user="NKA">
		<tag k="name" v="Engdalen" />
		<tag k="place" v="farm" />
		<tag k="ssr:stedsnr" v="825096" />
	</node>
	<node id="9920390739" lat="63.7571777" lon="8.6942983" version="1" timestamp="2022-07-30T05:16:32Z" changeset="124254506" uid="3497659" user="NKA">
		<tag k="name" v="Heia" />
		<tag k="place" v="farm" />
		<tag k="ssr:stedsnr" v="218188" />
	</node>
	<node id="9920390740" lat="63.7180599" lon="8.6103612" version="1" timestamp="2022-07-30T05:16:32Z" changeset="124254506" uid="3497659" user="NKA">
		<tag k="name" v="Auna" />
		<tag k="place" v="farm" />
		<tag k="ssr:stedsnr" v="218864" />
	</node>
	<node id="9920390741" lat="63.7885685" lon="8.8008797" version="1" timestamp="2022-07-30T05:16:32Z" changeset="124254506" uid="3497659" user="NKA">
		<tag k="name" v="Stølan" />
		<tag k="place" v="hamlet" />
		<tag k="ssr:stedsnr" v="498879" />
	</node>
	<node id="9920390742" lat="63.7543247" lon="8.5960667" version="1" timestamp="2022-07-30T05:16:32Z" changeset="124254506" uid="3497659" user="NKA">
		<tag k="name" v="Vågen" />
		<tag k="place" v="farm" />
		<tag k="ssr:stedsnr" v="218866" />
	</node>
	<node id="9920390743" lat="63.7685267" lon="8.7586713" version="1" timestamp="2022-07-30T05:16:32Z" changeset="124254506" uid="3497659" user="NKA">
		<tag k="name" v="Skjelldam" />
		<tag k="place" v="farm" />
		<tag k="ssr:stedsnr" v="218172" />
	</node>
	<node id="9920390744" lat="63.6675638" lon="8.5147889" version="1" timestamp="2022-07-30T05:16:32Z" changeset="124254506" uid="3497659" user="NKA">
		<tag k="name" v="Stororta" />
		<tag k="place" v="farm" />
		<tag k="ssr:stedsnr" v="559988" />
	</node>
	<node id="9920390745" lat="63.7531256" lon="8.6809966" version="1" timestamp="2022-07-30T05:16:32Z" changeset="124254506" uid="3497659" user="NKA">
		<tag k="name" v="Grindfaret" />
		<tag k="place" v="farm" />
		<tag k="ssr:stedsnr" v="158195" />
	</node>
	<node id="9920390746" lat="63.8645953" lon="8.6570015" version="1" timestamp="2022-07-30T05:16:32Z" changeset="124254506" uid="3497659" user="NKA">
		<tag k="name" v="Øya" />
		<tag k="place" v="farm" />
		<tag k="ssr:stedsnr" v="825418" />
	</node>
	<node id="9920390747" lat="63.8009292" lon="8.6948065" version="1" timestamp="2022-07-30T05:16:32Z" changeset="124254506" uid="3497659" user="NKA">
		<tag k="name" v="Øyn" />
		<tag k="place" v="hamlet" />
		<tag k="ssr:stedsnr" v="389680" />
	</node>
	<node id="9920390748" lat="63.6834887" lon="8.6674597" version="1" timestamp="2022-07-30T05:16:32Z" changeset="124254506" uid="3497659" user="NKA">
		<tag k="name" v="Skardsvågen" />
		<tag k="place" v="hamlet" />
		<tag k="ssr:stedsnr" v="377745" />
	</node>
	<node id="9920390749" lat="63.7217288" lon="8.8787194" version="1" timestamp="2022-07-30T05:16:32Z" changeset="124254506" uid="3497659" user="NKA">
		<tag k="name" v="Inntian" />
		<tag k="place" v="hamlet" />
		<tag k="ssr:stedsnr" v="741752" />
	</node>
	<node id="9920390750" lat="63.7942404" lon="8.794012" version="1" timestamp="2022-07-30T05:16:32Z" changeset="124254506" uid="3497659" user="NKA">
		<tag k="name" v="Aune" />
		<tag k="place" v="hamlet" />
		<tag k="ssr:stedsnr" v="195789" />
	</node>
	<node id="9920390751" lat="63.804775" lon="8.8064029" version="1" timestamp="2022-07-30T05:16:32Z" changeset="124254506" uid="3497659" user="NKA">
		<tag k="name" v="Inderøya" />
		<tag k="place" v="farm" />
		<tag k="ssr:stedsnr" v="316825" />
	</node>
	<node id="9920390752" lat="63.6843334" lon="8.4515055" version="1" timestamp="2022-07-30T05:16:32Z" changeset="124254506" uid="3497659" user="NKA">
		<tag k="name" v="Sørli" />
		<tag k="place" v="farm" />
		<tag k="ssr:stedsnr" v="559785" />
	</node>
	<node id="9920390753" lat="63.7638218" lon="8.8056267" version="1" timestamp="2022-07-30T05:16:32Z" changeset="124254506" uid="3497659" user="NKA">
		<tag k="name" v="Vavika" />
		<tag k="place" v="hamlet" />
		<tag k="ssr:stedsnr" v="581761" />
	</node>
	<node id="9920390754" lat="63.7874076" lon="8.8004846" version="1" timestamp="2022-07-30T05:16:32Z" changeset="124254506" uid="3497659" user="NKA">
		<tag k="name" v="Prestgården" />
		<tag k="place" v="locality" />
		<tag k="ssr:stedsnr" v="582355" />
	</node>
	<node id="9920390755" lat="63.720951" lon="8.839981" version="1" timestamp="2022-07-30T05:16:32Z" changeset="124254506" uid="3497659" user="NKA">
		<tag k="name" v="Rabben" />
		<tag k="place" v="quarter" />
		<tag k="ssr:stedsnr" v="760042" />
	</node>
	<node id="9920390756" lat="63.7166222" lon="8.841711" version="1" timestamp="2022-07-30T05:16:32Z" changeset="124254506" uid="3497659" user="NKA">
		<tag k="name" v="Børaunet" />
		<tag k="place" v="farm" />
		<tag k="ssr:stedsnr" v="400177" />
	</node>
	<node id="9920390757" lat="63.8131611" lon="8.796275" version="1" timestamp="2022-07-30T05:16:32Z" changeset="124254506" uid="3497659" user="NKA">
		<tag k="name" v="Rekkavika" />
		<tag k="place" v="farm" />
		<tag k="ssr:stedsnr" v="862769" />
	</node>
	<node id="9920390758" lat="63.69975" lon="8.4504779" version="1" timestamp="2022-07-30T05:16:32Z" changeset="124254506" uid="3497659" user="NKA">
		<tag k="name" v="Nordhaug" />
		<tag k="place" v="farm" />
		<tag k="ssr:stedsnr" v="680847" />
	</node>
	<node id="9920390759" lat="63.7911673" lon="8.6604801" version="1" timestamp="2022-07-30T05:16:32Z" changeset="124254506" uid="3497659" user="NKA">
		<tag k="name" v="Breivika" />
		<tag k="place" v="hamlet" />
		<tag k="ssr:stedsnr" v="641520" />
	</node>
	<node id="9920390760" lat="63.6929065" lon="8.7694309" version="1" timestamp="2022-07-30T05:16:32Z" changeset="124254506" uid="3497659" user="NKA">
		<tag k="name" v="Langåsen" />
		<tag k="place" v="hamlet" />
		<tag k="ssr:stedsnr" v="521500" />
	</node>
	<node id="9920390761" lat="63.6899727" lon="8.7732852" version="1" timestamp="2022-07-30T05:16:32Z" changeset="124254506" uid="3497659" user="NKA">
		<tag k="name" v="Øya" />
		<tag k="place" v="hamlet" />
		<tag k="ssr:stedsnr" v="97360" />
	</node>
	<node id="9920390762" lat="63.6921472" lon="8.4554805" version="1" timestamp="2022-07-30T05:16:32Z" changeset="124254506" uid="3497659" user="NKA">
		<tag k="name" v="Lunheim" />
		<tag k="place" v="farm" />
		<tag k="ssr:stedsnr" v="316839" />
	</node>
	<node id="9920390763" lat="63.8643695" lon="8.6495139" version="1" timestamp="2022-07-30T05:16:32Z" changeset="124254506" uid="3497659" user="NKA">
		<tag k="name" v="Kåvik" />
		<tag k="place" v="hamlet" />
		<tag k="ssr:stedsnr" v="680004" />
	</node>
	<node id="9920390764" lat="63.6923166" lon="8.3961195" version="1" timestamp="2022-07-30T05:16:32Z" changeset="124254506" uid="3497659" user="NKA">
		<tag k="name" v="Straumen" />
		<tag k="place" v="locality" />
		<tag k="ssr:stedsnr" v="316853" />
	</node>
	<node id="9920390765" lat="63.7179305" lon="8.8395083" version="1" timestamp="2022-07-30T05:16:32Z" changeset="124254506" uid="3497659" user="NKA">
		<tag k="name" v="Sørrabben" />
		<tag k="place" v="farm" />
		<tag k="ssr:stedsnr" v="886200" />
	</node>
	<node id="9920390766" lat="63.7360816" lon="8.8335185" version="1" timestamp="2022-07-30T05:16:32Z" changeset="124254506" uid="3497659" user="NKA">
		<tag k="name" v="Yttersian" />
		<tag k="place" v="quarter" />
		<tag k="ssr:stedsnr" v="195750" />
	</node>
	<node id="9920390767" lat="63.7058736" lon="8.5113778" version="1" timestamp="2022-07-30T05:16:32Z" changeset="124254506" uid="3497659" user="NKA">
		<tag k="name" v="Sørskaget" />
		<tag k="place" v="hamlet" />
		<tag k="ssr:stedsnr" v="924809" />
	</node>
	<node id="9920390768" lat="63.6798333" lon="8.6400723" version="1" timestamp="2022-07-30T05:16:32Z" changeset="124254506" uid="3497659" user="NKA">
		<tag k="name" v="Skarpnes" />
		<tag k="place" v="farm" />
		<tag k="ssr:stedsnr" v="31759" />
	</node>
	<node id="9920390769" lat="63.7701653" lon="8.8705384" version="1" timestamp="2022-07-30T05:16:32Z" changeset="124254506" uid="3497659" user="NKA">
		<tag k="name" v="Uttian" />
		<tag k="place" v="hamlet" />
		<tag k="ssr:stedsnr" v="825717" />
	</node>
	<node id="9920390770" lat="63.797025" lon="8.8110862" version="1" timestamp="2022-07-30T05:16:32Z" changeset="124254506" uid="3497659" user="NKA">
		<tag k="name" v="Berget" />
		<tag k="place" v="farm" />
		<tag k="ssr:stedsnr" v="885337" />
	</node>
	<node id="9920390771" lat="63.8051166" lon="8.7938944" version="1" timestamp="2022-07-30T05:16:32Z" changeset="124254506" uid="3497659" user="NKA">
		<tag k="name" v="Hamna" />
		<tag k="place" v="farm" />
		<tag k="ssr:stedsnr" v="195790" />
	</node>
	<node id="9920390772" lat="63.7028893" lon="8.4516845" version="1" timestamp="2022-07-30T05:16:32Z" changeset="124254506" uid="3497659" user="NKA">
		<tag k="name" v="Kvisten" />
		<tag k="place" v="hamlet" />
		<tag k="ssr:stedsnr" v="522070" />
	</node>
	<node id="9920390773" lat="63.706272" lon="8.5190045" version="1" timestamp="2022-07-30T05:16:32Z" changeset="124254506" uid="3497659" user="NKA">
		<tag k="name" v="Heia" />
		<tag k="place" v="farm" />
		<tag k="ssr:stedsnr" v="947824" />
	</node>
	<node id="9920390774" lat="63.7881305" lon="8.7892306" version="1" timestamp="2022-07-30T05:16:32Z" changeset="124254506" uid="3497659" user="NKA">
		<tag k="name" v="Postvika" />
		<tag k="place" v="farm" />
		<tag k="ssr:stedsnr" v="741889" />
	</node>
	<node id="9920390775" lat="63.7699945" lon="8.8606084" version="1" timestamp="2022-07-30T05:16:32Z" changeset="124254506" uid="3497659" user="NKA">
		<tag k="name" v="Gåsvika" />
		<tag k="place" v="hamlet" />
		<tag k="ssr:stedsnr" v="703726" />
	</node>
	<node id="9920390776" lat="63.7664195" lon="8.8672749" version="1" timestamp="2022-07-30T05:16:32Z" changeset="124254506" uid="3497659" user="NKA">
		<tag k="name" v="Gården" />
		<tag k="place" v="farm" />
		<tag k="ssr:stedsnr" v="703724" />
	</node>
	<node id="9920390777" lat="63.7941416" lon="8.8061709" version="1" timestamp="2022-07-30T05:16:32Z" changeset="124254506" uid="3497659" user="NKA">
		<tag k="name" v="Sletta" />
		<tag k="place" v="hamlet" />
		<tag k="ssr:stedsnr" v="970946" />
	</node>
	<node id="9920390778" lat="63.7788055" lon="8.8140557" version="1" timestamp="2022-07-30T05:16:32Z" changeset="124254506" uid="3497659" user="NKA">
		<tag k="name" v="Hallarvika" />
		<tag k="place" v="farm" />
		<tag k="ssr:stedsnr" v="643316" />
	</node>
	<node id="9920390779" lat="63.7275473" lon="8.827914" version="1" timestamp="2022-07-30T05:16:32Z" changeset="124254506" uid="3497659" user="NKA">
		<tag k="name" v="Grønnskaget" />
		<tag k="place" v="quarter" />
		<tag k="ssr:stedsnr" v="947579" />
	</node>
	<node id="9920390780" lat="63.7223769" lon="8.617129" version="1" timestamp="2022-07-30T05:16:32Z" changeset="124254506" uid="3497659" user="NKA">
		<tag k="name" v="Valen" />
		<tag k="place" v="farm" />
		<tag k="ssr:stedsnr" v="970931" />
	</node>
	<node id="9920390781" lat="63.7947858" lon="8.7192777" version="1" timestamp="2022-07-30T05:16:32Z" changeset="124254506" uid="3497659" user="NKA">
		<tag k="name" v="Garnvika" />
		<tag k="place" v="hamlet" />
		<tag k="ssr:stedsnr" v="947539" />
	</node>
	<node id="9920390782" lat="63.6749667" lon="8.3250744" version="1" timestamp="2022-07-30T05:16:32Z" changeset="124254506" uid="3497659" user="NKA">
		<tag k="name" v="Fredheim" />
		<tag k="place" v="farm" />
		<tag k="ssr:stedsnr" v="741813" />
	</node>
	<node id="9920390783" lat="63.6984105" lon="8.8169984" version="1" timestamp="2022-07-30T05:16:32Z" changeset="124254506" uid="3497659" user="NKA">
		<tag k="name" v="Hammarneset" />
		<tag k="place" v="neighbourhood" />
		<tag k="ssr:stedsnr" v="946321" />
	</node>
	<node id="9920390784" lat="63.7515248" lon="8.6782287" version="1" timestamp="2022-07-30T05:16:32Z" changeset="124254506" uid="3497659" user="NKA">
		<tag k="name" v="Sjurvollen" />
		<tag k="place" v="farm" />
		<tag k="ssr:stedsnr" v="582183" />
	</node>
	<node id="9920390785" lat="63.7219785" lon="8.8272144" version="1" timestamp="2022-07-30T05:16:32Z" changeset="124254506" uid="3497659" user="NKA">
		<tag k="name" v="Beinskardet" />
		<tag k="place" v="quarter" />
		<tag k="ssr:stedsnr" v="725021" />
	</node>
	<node id="9920390786" lat="63.6959527" lon="8.8002778" version="1" timestamp="2022-07-30T05:16:32Z" changeset="124254506" uid="3497659" user="NKA">
		<tag k="name" v="Nygården" />
		<tag k="place" v="farm" />
		<tag k="ssr:stedsnr" v="400339" />
	</node>
	<node id="9920390787" lat="63.7733778" lon="8.7437277" version="1" timestamp="2022-07-30T05:16:32Z" changeset="124254506" uid="3497659" user="NKA">
		<tag k="name" v="Aukan" />
		<tag k="place" v="farm" />
		<tag k="ssr:stedsnr" v="460600" />
	</node>
	<node id="9920390788" lat="63.7131166" lon="8.8382194" version="1" timestamp="2022-07-30T05:16:32Z" changeset="124254506" uid="3497659" user="NKA">
		<tag k="name" v="Strandheim" />
		<tag k="place" v="farm" />
		<tag k="ssr:stedsnr" v="680745" />
	</node>
	<node id="9920390789" lat="63.7032542" lon="8.8293144" version="1" timestamp="2022-07-30T05:16:32Z" changeset="124254506" uid="3497659" user="NKA">
		<tag k="name" v="Hammarberget" />
		<tag k="place" v="neighbourhood" />
		<tag k="ssr:stedsnr" v="522359" />
	</node>
	<node id="9920390790" lat="63.6960946" lon="8.7850133" version="1" timestamp="2022-07-30T05:16:32Z" changeset="124254506" uid="3497659" user="NKA">
		<tag k="name" v="Nabeita" />
		<tag k="place" v="hamlet" />
		<tag k="ssr:stedsnr" v="279343" />
	</node>
	<node id="9920390791" lat="63.7651016" lon="8.8114745" version="1" timestamp="2022-07-30T05:16:32Z" changeset="124254506" uid="3497659" user="NKA">
		<tag k="name" v="Klauva" />
		<tag k="place" v="hamlet" />
		<tag k="ssr:stedsnr" v="802891" />
	</node>
	<node id="9920390792" lat="63.7863173" lon="8.799034" version="1" timestamp="2022-07-30T05:16:32Z" changeset="124254506" uid="3497659" user="NKA">
		<tag k="name" v="Stølbakken" />
		<tag k="place" v="farm" />
		<tag k="ssr:stedsnr" v="182841" />
	</node>
	<node id="9920390793" lat="63.7235129" lon="8.8352697" version="1" timestamp="2022-07-30T05:16:32Z" changeset="124254506" uid="3497659" user="NKA">
		<tag k="name" v="Bekken" />
		<tag k="place" v="farm" />
		<tag k="ssr:stedsnr" v="438694" />
	</node>
	<node id="9920390794" lat="63.743957" lon="8.8312188" version="1" timestamp="2022-07-30T05:16:32Z" changeset="124254506" uid="3497659" user="NKA">
		<tag k="name" v="Fredagsvik" />
		<tag k="place" v="farm" />
		<tag k="ssr:stedsnr" v="335017" />
	</node>
	<node id="9920390795" lat="63.6790777" lon="8.4268597" version="1" timestamp="2022-07-30T05:16:32Z" changeset="124254506" uid="3497659" user="NKA">
		<tag k="name" v="Dørvikan" />
		<tag k="place" v="farm" />
		<tag k="ssr:stedsnr" v="802777" />
	</node>
	<node id="9920390796" lat="63.7591611" lon="8.821664" version="1" timestamp="2022-07-30T05:16:32Z" changeset="124254506" uid="3497659" user="NKA">
		<tag k="name" v="Grindvika" />
		<tag k="place" v="farm" />
		<tag k="ssr:stedsnr" v="339667" />
	</node>
	<node id="9920390797" lat="63.7182694" lon="8.6092584" version="1" timestamp="2022-07-30T05:16:32Z" changeset="124254506" uid="3497659" user="NKA">
		<tag k="name" v="Aunet" />
		<tag k="place" v="farm" />
		<tag k="ssr:stedsnr" v="317790" />
	</node>
	<node id="9920390798" lat="63.7649005" lon="8.7247939" version="1" timestamp="2022-07-30T05:16:32Z" changeset="124254506" uid="3497659" user="NKA">
		<tag k="name" v="Sørdalen" />
		<tag k="place" v="farm" />
		<tag k="ssr:stedsnr" v="400152" />
	</node>
	<node id="9920390799" lat="63.733175" lon="8.6447167" version="1" timestamp="2022-07-30T05:16:32Z" changeset="124254506" uid="3497659" user="NKA">
		<tag k="name" v="Sør Krutvika" />
		<tag k="place" v="farm" />
		<tag k="ssr:stedsnr" v="400200" />
	</node>
	<node id="9920390800" lat="63.7412517" lon="8.6443734" version="1" timestamp="2022-07-30T05:16:32Z" changeset="124254506" uid="3497659" user="NKA">
		<tag k="name" v="Myra" />
		<tag k="place" v="farm" />
		<tag k="ssr:stedsnr" v="764172" />
	</node>
	<node id="9920390801" lat="63.6905861" lon="8.7878695" version="1" timestamp="2022-07-30T05:16:32Z" changeset="124254506" uid="3497659" user="NKA">
		<tag k="name" v="Vikan" />
		<tag k="place" v="farm" />
		<tag k="ssr:stedsnr" v="218347" />
	</node>
	<node id="5053626200" lat="63.7953852" lon="8.7999237" version="1" timestamp="2017-08-23T13:16:31Z" changeset="51375396" uid="5732597" user="ENTUR Johan Wiklund" />
	<node id="5053627223" lat="63.7951077" lon="8.7991359" version="1" timestamp="2017-08-23T13:16:40Z" changeset="51375396" uid="5732597" user="ENTUR Johan Wiklund" />
	<way id="46742237" version="7" timestamp="2022-01-24T21:00:15Z" changeset="116559033" uid="3497659" user="NKA">
		<tag k="bridge" v="yes" />
		<tag k="highway" v="secondary" />
		<tag k="layer" v="1" />
		<tag k="maxspeed" v="80" />
		<tag k="name" v="Staulstraumbrua" />
		<tag k="ref" v="6472" />
		<tag k="ssr:stedsnr" v="218303" />
		<nd ref="5053626200" />
		<nd ref="5053627223" />
	</way>
</osm>
