<?xml version="1.0" encoding="UTF-8"?>
<osm generator="osmapis" version="0.6">
	<node id="-212480" lat="59.1462027811" lon="9.65863332914">
		<tag k="highway" v="bus_stop" />
		<tag k="name" v="Assuransegata" />
		<tag k="ssr:stedsnr" v="842041" />
	</node>
	<node id="-212478" lat="59.1281111145" lon="9.65101666197">
		<tag k="highway" v="bus_stop" />
		<tag k="name" v="Smihaugvegen" />
		<tag k="ssr:stedsnr" v="842891" />
	</node>
	<node id="-211285" lat="59.1025138922" lon="9.68246388233">
		<tag k="highway" v="bus_stop" />
		<tag k="name" v="Hovet" />
		<tag k="ssr:stedsnr" v="355692" />
	</node>
	<node id="-211448" lat="59.1321750086" lon="9.62743188414">
		<tag k="man_made" v="quay" />
		<tag k="name" v="Tinfoskaia" />
		<tag k="place" v="locality" />
		<tag k="ssr:stedsnr" v="989416" />
	</node>
	<node id="-211447" lat="59.1309917394" lon="9.62556778897">
		<tag k="man_made" v="quay" />
		<tag k="name" v="Krankaia" />
		<tag k="place" v="locality" />
		<tag k="ssr:stedsnr" v="989415" />
	</node>
	<node id="-211446" lat="59.1260438721" lon="9.61709795782">
		<tag k="man_made" v="quay" />
		<tag k="name" v="Dypvannskaia" />
		<tag k="place" v="locality" />
		<tag k="ssr:stedsnr" v="989414" />
	</node>
	<node id="-211956" lat="59.13561667" lon="9.66049444956">
		<tag k="layer" v="-1" />
		<tag k="name" v="Porsgrunn" />
		<tag k="ssr:stedsnr" v="529369" />
		<tag k="tunnel" v="yes" />
	</node>
	<node id="-211443" lat="59.0662918014" lon="9.69934146149">
		<tag k="man_made" v="quay" />
		<tag k="name" v="Breviksterminalen" />
		<tag k="place" v="locality" />
		<tag k="ssr:stedsnr" v="989353" />
	</node>
	<node id="-211441" lat="59.1374510944" lon="9.66849514082">
		<tag k="bridge" v="yes" />
		<tag k="layer" v="1" />
		<tag k="name" v="Myrene bru" />
		<tag k="ssr:stedsnr" v="988784" />
	</node>
	<node id="-211440" lat="59.1440950072" lon="9.65652893175">
		<tag k="bridge" v="yes" />
		<tag k="layer" v="1" />
		<tag k="name" v="Osebru" />
		<tag k="ssr:stedsnr" v="987610" />
	</node>
	<node id="-211439" lat="59.14271251" lon="9.65819789377">
		<tag k="bridge" v="yes" />
		<tag k="layer" v="1" />
		<tag k="name" v="Flodebrua" />
		<tag k="ssr:stedsnr" v="987609" />
	</node>
	<node id="-211438" lat="59.140453081" lon="9.66100336508">
		<tag k="bridge" v="yes" />
		<tag k="layer" v="1" />
		<tag k="name" v="Elverhøybrua" />
		<tag k="ssr:stedsnr" v="987607" />
	</node>
	<node id="-211437" lat="59.1392069178" lon="9.66585539931">
		<tag k="bridge" v="yes" />
		<tag k="layer" v="1" />
		<tag k="name" v="Gjerpensbrua" />
		<tag k="ssr:stedsnr" v="987606" />
	</node>
	<node id="-211436" lat="59.1397944845" lon="9.67208868892">
		<tag k="bridge" v="yes" />
		<tag k="layer" v="1" />
		<tag k="name" v="Kjølnesbrua" />
		<tag k="ssr:stedsnr" v="987605" />
	</node>
	<node id="-211435" lat="59.1478343435" lon="9.67341753489">
		<tag k="bridge" v="yes" />
		<tag k="layer" v="1" />
		<tag k="name" v="Slottsbru" />
		<tag k="ssr:stedsnr" v="987604" />
	</node>
	<node id="-211946" lat="59.150308335" lon="9.65921944343">
		<tag k="name" v="Osebakken" />
		<tag k="railway" v="halt" />
		<tag k="ssr:stedsnr" v="487647" />
		<tag k="train" v="yes" />
	</node>
	<node id="-211474" lat="59.1204333371" lon="9.71678888689">
		<tag k="bridge" v="yes" />
		<tag k="layer" v="1" />
		<tag k="name" v="Bjørkedalsbekken" />
		<tag k="ssr:stedsnr" v="46696" />
	</node>
	<node id="-212452" lat="59.1243777798" lon="9.71246945137">
		<tag k="bridge" v="yes" />
		<tag k="layer" v="1" />
		<tag k="name" v="Våtekleiv" />
		<tag k="ssr:stedsnr" v="836656" />
	</node>
	<node id="-212448" lat="59.0535699448" lon="9.67544185789">
		<tag k="bridge" v="yes" />
		<tag k="layer" v="1" />
		<tag k="name" v="Grenlandsbrua" />
		<tag k="ssr:stedsnr" v="836603" />
	</node>
	<node id="-212447" lat="59.1012138861" lon="9.80801667386">
		<tag k="bridge" v="yes" />
		<tag k="layer" v="1" />
		<tag k="name" v="Garveriet" />
		<tag k="ssr:stedsnr" v="836602" />
	</node>
	<node id="-212445" lat="59.1463083299" lon="9.73370277383">
		<tag k="bridge" v="yes" />
		<tag k="layer" v="1" />
		<tag k="name" v="Bjørkedal" />
		<tag k="ssr:stedsnr" v="836595" />
	</node>
	<node id="-211535" lat="59.1332638903" lon="9.65651388067">
		<tag k="highway" v="bus_stop" />
		<tag k="name" v="Brekka" />
		<tag k="ssr:stedsnr" v="53983" />
	</node>
	<node id="-211924" lat="59.1405888921" lon="9.64090555186">
		<tag k="bridge" v="yes" />
		<tag k="layer" v="1" />
		<tag k="name" v="Vippebru" />
		<tag k="ssr:stedsnr" v="480727" />
	</node>
	<node id="-211918" lat="59.0513055529" lon="9.77521665792">
		<tag k="man_made" v="quay" />
		<tag k="name" v="Bjønnesbrygga" />
		<tag k="place" v="locality" />
		<tag k="ssr:stedsnr" v="472409" />
	</node>
	<node id="-212423" lat="59.1397416649" lon="9.6416722226">
		<tag k="alt_name" v="Porsgrunn" />
		<tag k="bridge" v="yes" />
		<tag k="layer" v="1" />
		<tag k="name" v="Porsgrunnbrua" />
		<tag k="ssr:stedsnr" v="818367" />
	</node>
	<node id="-211392" lat="59.1782111122" lon="9.78093888904">
		<tag k="bridge" v="yes" />
		<tag k="layer" v="1" />
		<tag k="name" v="Kroken" />
		<tag k="ssr:stedsnr" v="896716" />
	</node>
	<node id="-211391" lat="59.0911888861" lon="9.80750555264">
		<tag k="bridge" v="yes" />
		<tag k="layer" v="1" />
		<tag k="name" v="Langangen øst" />
		<tag k="ssr:stedsnr" v="896715" />
	</node>
	<node id="-211390" lat="59.0805055585" lon="9.82183333278">
		<tag k="bridge" v="yes" />
		<tag k="layer" v="1" />
		<tag k="name" v="Langmyrbekk" />
		<tag k="ssr:stedsnr" v="896711" />
	</node>
	<node id="-211701" lat="59.0495555539" lon="9.69417221532">
		<tag k="bridge" v="yes" />
		<tag k="layer" v="1" />
		<tag k="name" v="Brevikbrua" />
		<tag k="ssr:stedsnr" v="174249" />
	</node>
	<node id="-211387" lat="59.0943444478" lon="9.67873889082">
		<tag k="highway" v="bus_stop" />
		<tag k="name" v="Luna ring" />
		<tag k="ssr:stedsnr" v="477687" />
	</node>
	<node id="-212342" lat="59.0259944431" lon="9.76222499884">
		<tag k="name" v="Kjerringleden" />
		<tag k="place" v="locality" />
		<tag k="ssr:stedsnr" v="752720" />
	</node>
	<node id="-211385" lat="59.0952888913" lon="9.68680555635">
		<tag k="highway" v="bus_stop" />
		<tag k="name" v="Skjelsvik senter" />
		<tag k="ssr:stedsnr" v="477351" />
	</node>
	<node id="-211384" lat="59.1261972266" lon="9.65482499291">
		<tag k="highway" v="bus_stop" />
		<tag k="name" v="Grønli" />
		<tag k="ssr:stedsnr" v="477966" />
	</node>
	<node id="-211383" lat="59.1362833322" lon="9.65964721781">
		<tag k="highway" v="bus_stop" />
		<tag k="name" v="Louis Vauverts gate" />
		<tag k="ssr:stedsnr" v="477035" />
	</node>
	<node id="-211892" lat="59.0533638869" lon="9.8345222155">
		<tag k="bridge" v="yes" />
		<tag k="layer" v="1" />
		<tag k="name" v="Svartkjenn" />
		<tag k="ssr:stedsnr" v="471681" />
	</node>
	<node id="-211890" lat="59.075441667" lon="9.665077779">
		<tag k="bridge" v="yes" />
		<tag k="layer" v="1" />
		<tag k="name" v="Kjørholtvegen" />
		<tag k="ssr:stedsnr" v="471655" />
	</node>
	<node id="-211699" lat="59.1251416629" lon="9.64285555813">
		<tag k="highway" v="bus_stop" />
		<tag k="name" v="Kirstistien" />
		<tag k="ssr:stedsnr" v="174048" />
	</node>
	<node id="-212400" lat="59.0962777789" lon="9.68638610315">
		<tag k="name" v="Skjelsvika" />
		<tag k="old_name" v="Skjelsvik" />
		<tag k="railway" v="station" />
		<tag k="ssr:stedsnr" v="790383" />
		<tag k="train" v="yes" />
	</node>
	<node id="-211886" lat="59.0775277768" lon="9.66419444487">
		<tag k="bridge" v="yes" />
		<tag k="layer" v="1" />
		<tag k="name" v="Friervegen" />
		<tag k="ssr:stedsnr" v="471642" />
	</node>
	<node id="-211885" lat="59.134483212" lon="9.62955901076">
		<tag k="bridge" v="yes" />
		<tag k="layer" v="1" />
		<tag k="name" v="Frednesbrua" />
		<tag k="ssr:stedsnr" v="471641" />
	</node>
	<node id="-212396" lat="59.0520027774" lon="9.69505832495">
		<tag k="highway" v="bus_stop" />
		<tag k="name" v="Brevikbrua" />
		<tag k="ssr:stedsnr" v="781221" />
	</node>
	<node id="-212395" lat="59.1005138877" lon="9.692163887">
		<tag k="highway" v="bus_stop" />
		<tag k="name" v="Ørstveit" />
		<tag k="ssr:stedsnr" v="780656" />
	</node>
	<node id="-212394" lat="59.0475138928" lon="9.72758055372">
		<tag k="man_made" v="quay" />
		<tag k="name" v="Kommunebrygga" />
		<tag k="place" v="locality" />
		<tag k="ssr:stedsnr" v="776407" />
	</node>
	<node id="-211361" lat="59.1455055582" lon="9.76940833389">
		<tag k="highway" v="path" />
		<tag k="name" v="Kjerkebakkleiva" />
		<tag k="ssr:stedsnr" v="411890" />
	</node>
	<node id="-211872" lat="59.1539111152" lon="9.66480556149">
		<tag k="man_made" v="tower" />
		<tag k="name" v="NRK Telemark" />
		<tag k="ssr:stedsnr" v="454724" />
		<tag k="tower:type" v="communications" />
	</node>
	<node id="-211359" lat="59.05222222" lon="9.69094721723">
		<tag k="name" v="Brevik" />
		<tag k="railway" v="station" />
		<tag k="ssr:stedsnr" v="411861" />
		<tag k="train" v="yes" />
	</node>
	<node id="-212379" lat="59.1022166627" lon="9.7694527806">
		<tag k="bridge" v="yes" />
		<tag k="layer" v="1" />
		<tag k="name" v="Skredderrønningen" />
		<tag k="ssr:stedsnr" v="775651" />
	</node>
	<node id="-212377" lat="59.1204583329" lon="9.71165555712">
		<tag k="bridge" v="yes" />
		<tag k="layer" v="1" />
		<tag k="name" v="Presteskogen" />
		<tag k="ssr:stedsnr" v="775625" />
	</node>
	<node id="-212376" lat="59.106975003" lon="9.74430277913">
		<tag k="bridge" v="yes" />
		<tag k="layer" v="1" />
		<tag k="name" v="Rutua" />
		<tag k="ssr:stedsnr" v="775617" />
	</node>
	<node id="-212375" lat="59.0951083376" lon="9.66645834089">
		<tag k="bridge" v="yes" />
		<tag k="layer" v="1" />
		<tag k="name" v="Rønningen" />
		<tag k="ssr:stedsnr" v="775615" />
	</node>
	<node id="-212374" lat="59.1422472262" lon="9.6584444455">
		<tag k="bridge" v="yes" />
		<tag k="layer" v="1" />
		<tag k="name" v="Leirkup" />
		<tag k="ssr:stedsnr" v="775609" />
	</node>
	<node id="-211327" lat="59.1196888884" lon="9.7144527741">
		<tag k="bridge" v="yes" />
		<tag k="layer" v="1" />
		<tag k="name" v="Kåsa" />
		<tag k="ssr:stedsnr" v="410669" />
	</node>
	<node id="-211326" lat="59.1475777805" lon="9.66050000112">
		<tag k="bridge" v="yes" />
		<tag k="layer" v="1" />
		<tag k="name" v="Hovenga bru" />
		<tag k="ssr:stedsnr" v="410666" />
	</node>
	<node id="-211325" lat="59.1335750019" lon="9.63069721495">
		<tag k="bridge" v="yes" />
		<tag k="layer" v="1" />
		<tag k="name" v="Jønholtdalen" />
		<tag k="ssr:stedsnr" v="410664" />
	</node>
	<node id="-212348" lat="59.0997611115" lon="9.67454999888">
		<tag k="layer" v="-1" />
		<tag k="name" v="Brattås" />
		<tag k="ssr:stedsnr" v="772118" />
		<tag k="tunnel" v="yes" />
	</node>
	<node id="-211323" lat="59.1153444412" lon="9.72464444583">
		<tag k="layer" v="-1" />
		<tag k="name" v="Telemarksporten" />
		<tag k="ssr:stedsnr" v="408690" />
		<tag k="tunnel" v="yes" />
	</node>
	<node id="-211320" lat="59.1256138862" lon="9.61197778556">
		<tag k="name" v="Torsbergrenna" />
		<tag k="place" v="locality" />
		<tag k="ssr:stedsnr" v="390988" />
	</node>
	<node id="-211318" lat="59.1075583371" lon="9.63206666604">
		<tag k="name" v="Frierflaket" />
		<tag k="place" v="locality" />
		<tag k="ssr:stedsnr" v="389021" />
	</node>
	<node id="-211829" lat="59.0958694417" lon="9.67363889621">
		<tag k="highway" v="bus_stop" />
		<tag k="name" v="Uranusvegen" />
		<tag k="ssr:stedsnr" v="417677" />
	</node>
	<node id="-211827" lat="59.1505555582" lon="9.66089999857">
		<tag k="highway" v="bus_stop" />
		<tag k="name" v="Sandbakken" />
		<tag k="ssr:stedsnr" v="416749" />
	</node>
	<node id="-211826" lat="59.1076472203" lon="9.70042777589">
		<tag k="highway" v="bus_stop" />
		<tag k="name" v="Nystrand" />
		<tag k="ssr:stedsnr" v="416264" />
	</node>
	<node id="-211794" lat="59.0968777782" lon="9.68545832773">
		<tag k="highway" v="bus_stop" />
		<tag k="name" v="Skjelsvik midlertidig" />
		<tag k="ssr:stedsnr" v="234332" />
	</node>
	<node id="-211309" lat="59.1471333295" lon="9.73492499545">
		<tag k="name" v="Bjørkedalen" />
		<tag k="railway" v="station" />
		<tag k="ssr:stedsnr" v="365631" />
		<tag k="train" v="yes" />
	</node>
	<node id="-211304" lat="59.124058332" lon="9.69585278387">
		<tag k="name" v="Eidanger" />
		<tag k="railway" v="station" />
		<tag k="ssr:stedsnr" v="365577" />
		<tag k="train" v="yes" />
	</node>
	<node id="-212320" lat="59.0894972226" lon="9.68859166324">
		<tag k="highway" v="bus_stop" />
		<tag k="name" v="Gamle postveg" />
		<tag k="ssr:stedsnr" v="720670" />
	</node>
	<node id="-212319" lat="59.1180694425" lon="9.66671944295">
		<tag k="highway" v="bus_stop" />
		<tag k="name" v="Tveitanvegen" />
		<tag k="ssr:stedsnr" v="720569" />
	</node>
	<node id="-212318" lat="59.1273250021" lon="9.69005000006">
		<tag k="highway" v="bus_stop" />
		<tag k="name" v="Valler" />
		<tag k="ssr:stedsnr" v="720441" />
	</node>
	<node id="-212317" lat="59.1296722234" lon="9.68614722639">
		<tag k="highway" v="bus_stop" />
		<tag k="name" v="Vallermyrene" />
		<tag k="ssr:stedsnr" v="720440" />
	</node>
	<node id="-211290" lat="59.1231388915" lon="9.69345833746">
		<tag k="highway" v="bus_stop" />
		<tag k="name" v="Stasjonsvegen" />
		<tag k="ssr:stedsnr" v="356433" />
	</node>
	<node id="-211289" lat="59.1172722201" lon="9.69887777682">
		<tag k="highway" v="bus_stop" />
		<tag k="name" v="Tveten" />
		<tag k="ssr:stedsnr" v="356331" />
	</node>
	<node id="-211288" lat="59.096355554" lon="9.68392777675">
		<tag k="highway" v="bus_stop" />
		<tag k="name" v="Brattås skole" />
		<tag k="ssr:stedsnr" v="356293" />
	</node>
	<node id="-211287" lat="59.0835666705" lon="9.6822944503">
		<tag k="highway" v="bus_stop" />
		<tag k="name" v="Lundedalen" />
		<tag k="ssr:stedsnr" v="356225" />
	</node>
	<node id="-212310" lat="59.0545805513" lon="9.70164721431">
		<tag k="landuse" v="harbour" />
		<tag k="name" v="Hamna" />
		<tag k="seamark:type" v="harbour" />
		<tag k="ssr:stedsnr" v="715858" />
	</node>
	<node id="-211797" lat="59.1203555594" lon="9.66271110748">
		<tag k="highway" v="bus_stop" />
		<tag k="name" v="Stigen" />
		<tag k="ssr:stedsnr" v="235586" />
	</node>
	<node id="-211796" lat="59.1514999963" lon="9.64104166606">
		<tag k="highway" v="bus_stop" />
		<tag k="name" v="Pors stadion" />
		<tag k="ssr:stedsnr" v="234799" />
	</node>
	<node id="-211795" lat="59.1072472184" lon="9.67225555758">
		<tag k="highway" v="bus_stop" />
		<tag k="name" v="Hjortestien" />
		<tag k="ssr:stedsnr" v="234537" />
	</node>
	<node id="-211282" lat="59.1169138921" lon="9.6630638876">
		<tag k="highway" v="bus_stop" />
		<tag k="name" v="Bokfinkvegen" />
		<tag k="ssr:stedsnr" v="355517" />
	</node>
	<node id="-211792" lat="59.1355055513" lon="9.76845000246">
		<tag k="man_made" v="cairn" />
		<tag k="name" v="Fjerdingen" />
		<tag k="place" v="locality" />
		<tag k="ssr:stedsnr" v="232096" />
	</node>
	<node id="-211283" lat="59.0874555565" lon="9.68724166339">
		<tag k="highway" v="bus_stop" />
		<tag k="name" v="Løvsjø" />
		<tag k="ssr:stedsnr" v="355674" />
	</node>
	<node id="-212280" lat="59.1081111105" lon="9.69671388143">
		<tag k="bridge" v="yes" />
		<tag k="layer" v="1" />
		<tag k="name" v="Øvald" />
		<tag k="ssr:stedsnr" v="714651" />
	</node>
	<node id="-212276" lat="59.076041667" lon="9.66285277347">
		<tag k="bridge" v="yes" />
		<tag k="layer" v="1" />
		<tag k="name" v="Kjørholt bru" />
		<tag k="ssr:stedsnr" v="714630" />
	</node>
	<node id="-212273" lat="59.1565277799" lon="9.74488333175">
		<tag k="bridge" v="yes" />
		<tag k="layer" v="1" />
		<tag k="name" v="Siljan" />
		<tag k="ssr:stedsnr" v="714622" />
	</node>
	<node id="-212272" lat="59.1499027804" lon="9.66124165872">
		<tag k="bridge" v="yes" />
		<tag k="layer" v="1" />
		<tag k="name" v="Skauernjordet" />
		<tag k="ssr:stedsnr" v="714623" />
	</node>
	<node id="-212270" lat="59.136997221" lon="9.62788332474">
		<tag k="bridge" v="yes" />
		<tag k="layer" v="1" />
		<tag k="name" v="Drangedalsveien bru" />
		<tag k="ssr:stedsnr" v="714606" />
	</node>
	<node id="-211740" lat="59.1050611071" lon="9.7507888891">
		<tag k="bridge" v="yes" />
		<tag k="layer" v="1" />
		<tag k="name" v="Lanner" />
		<tag k="ssr:stedsnr" v="228708" />
	</node>
	<node id="-211739" lat="59.1649277775" lon="9.8111305536">
		<tag k="bridge" v="yes" />
		<tag k="layer" v="1" />
		<tag k="loc_name" v="Løkebru" />
		<tag k="name" v="Løke" />
		<tag k="ssr:stedsnr" v="228707" />
	</node>
	<node id="-211738" lat="59.0821333346" lon="9.66540278263">
		<tag k="layer" v="-1" />
		<tag k="name" v="Steinbrekka" />
		<tag k="ssr:stedsnr" v="226778" />
		<tag k="tunnel" v="yes" />
	</node>
	<node id="-211225" lat="59.1206333325" lon="9.71351944102">
		<tag k="bridge" v="yes" />
		<tag k="layer" v="1" />
		<tag k="name" v="Moheim" />
		<tag k="ssr:stedsnr" v="350614" />
	</node>
	<node id="-212243" lat="59.1390111144" lon="9.62828334195">
		<tag k="layer" v="-1" />
		<tag k="name" v="Vabakken" />
		<tag k="ssr:stedsnr" v="711680" />
		<tag k="tunnel" v="yes" />
	</node>
	<node id="-212242" lat="59.0534194445" lon="9.69481110688">
		<tag k="layer" v="-1" />
		<tag k="name" v="Brevik" />
		<tag k="ssr:stedsnr" v="711132" />
		<tag k="tunnel" v="yes" />
	</node>
	<node id="-212233" lat="59.1105333369" lon="9.69760277764">
		<tag k="name" v="Nystrand" />
		<tag k="railway" v="station" />
		<tag k="ssr:stedsnr" v="669403" />
		<tag k="train" v="yes" />
	</node>
	<node id="-212218" lat="59.0640444442" lon="9.69013888222">
		<tag k="highway" v="bus_stop" />
		<tag k="name" v="Tangenvegen" />
		<tag k="ssr:stedsnr" v="660343" />
	</node>
	<node id="-212217" lat="59.0898222216" lon="9.68968055422">
		<tag k="highway" v="bus_stop" />
		<tag k="name" v="Brånan" />
		<tag k="ssr:stedsnr" v="659720" />
	</node>
	<node id="-212216" lat="59.0770833327" lon="9.68705278112">
		<tag k="highway" v="bus_stop" />
		<tag k="name" v="Heistad" />
		<tag k="ssr:stedsnr" v="659685" />
	</node>
	<node id="-212215" lat="59.0972277809" lon="9.67862222627">
		<tag k="highway" v="bus_stop" />
		<tag k="name" v="Venusvegen" />
		<tag k="ssr:stedsnr" v="659658" />
	</node>
	<node id="-212214" lat="59.1094138871" lon="9.65623333086">
		<tag k="highway" v="bus_stop" />
		<tag k="name" v="Gunnigata" />
		<tag k="ssr:stedsnr" v="659093" />
	</node>
	<node id="-212213" lat="59.1387583371" lon="9.64823056051">
		<tag k="highway" v="bus_stop" />
		<tag k="name" v="Meieritorvet" />
		<tag k="ssr:stedsnr" v="658971" />
	</node>
	<node id="-211700" lat="59.1360666695" lon="9.644002773">
		<tag k="highway" v="bus_stop" />
		<tag k="name" v="Skippergata" />
		<tag k="ssr:stedsnr" v="174251" />
	</node>
	<node id="-212211" lat="59.1403638932" lon="9.65724444435">
		<tag k="highway" v="bus_stop" />
		<tag k="name" v="Porsgrunn terminal" />
		<tag k="ssr:stedsnr" v="658033" />
	</node>
	<node id="-211697" lat="59.1021222191" lon="9.69884722844">
		<tag k="highway" v="bus_stop" />
		<tag k="name" v="Mule" />
		<tag k="ssr:stedsnr" v="173674" />
	</node>
	<node id="-211696" lat="59.1055361116" lon="9.70052221461">
		<tag k="highway" v="bus_stop" />
		<tag k="name" v="Øvaldvegen" />
		<tag k="ssr:stedsnr" v="173264" />
	</node>
	<node id="-211182" lat="59.1386277769" lon="9.64368332989">
		<tag k="highway" v="bus_stop" />
		<tag k="name" v="Down Town" />
		<tag k="ssr:stedsnr" v="295985" />
	</node>
	<node id="-211181" lat="59.0969250019" lon="9.67444444082">
		<tag k="highway" v="bus_stop" />
		<tag k="name" v="Siriusvegen" />
		<tag k="ssr:stedsnr" v="295646" />
	</node>
	<node id="-211179" lat="59.1010805514" lon="9.68874167149">
		<tag k="bridge" v="yes" />
		<tag k="layer" v="1" />
		<tag k="name" v="Ørstvedt bru" />
		<tag k="ssr:stedsnr" v="46720" />
	</node>
	<node id="-211324" lat="59.11925833" lon="9.70804444362">
		<tag k="bridge" v="yes" />
		<tag k="layer" v="1" />
		<tag k="name" v="Preståsen" />
		<tag k="ssr:stedsnr" v="410658" />
	</node>
	<node id="-211679" lat="59.1112055512" lon="9.71070555171">
		<tag k="bridge" v="yes" />
		<tag k="layer" v="1" />
		<tag k="name" v="Herregårdsstrand" />
		<tag k="ssr:stedsnr" v="168648" />
	</node>
	<node id="-211226" lat="59.0937416694" lon="9.78754999836">
		<tag k="bridge" v="yes" />
		<tag k="layer" v="1" />
		<tag k="name" v="Kokkersvold bru" />
		<tag k="ssr:stedsnr" v="350630" />
	</node>
	<node id="-212169" lat="59.0609500017" lon="9.68819444724">
		<tag k="bridge" v="yes" />
		<tag k="layer" v="1" />
		<tag k="name" v="Norcem bru" />
		<tag k="ssr:stedsnr" v="653665" />
	</node>
	<node id="-211830" lat="59.1413638858" lon="9.64038056095">
		<tag k="highway" v="bus_stop" />
		<tag k="name" v="Porsgrunn porselen" />
		<tag k="ssr:stedsnr" v="417987" />
	</node>
	<node id="-211127" lat="59.052186115" lon="9.69501943951">
		<tag k="bridge" v="yes" />
		<tag k="layer" v="1" />
		<tag k="name" v="Trosvikvegen" />
		<tag k="ssr:stedsnr" v="289730" />
	</node>
	<node id="-211126" lat="59.0999333339" lon="9.67700833041">
		<tag k="bridge" v="yes" />
		<tag k="layer" v="1" />
		<tag k="name" v="Skjelsvikdalen" />
		<tag k="ssr:stedsnr" v="289728" />
	</node>
	<node id="-212149" lat="59.1009527779" lon="9.68802777024">
		<tag k="layer" v="-1" />
		<tag k="name" v="Hovet" />
		<tag k="ssr:stedsnr" v="651504" />
		<tag k="tunnel" v="yes" />
	</node>
	<node id="-211124" lat="59.1111333345" lon="9.69862500809">
		<tag k="bridge" v="yes" />
		<tag k="layer" v="1" />
		<tag k="name" v="Amund Tvetens veg" />
		<tag k="ssr:stedsnr" v="289701" />
	</node>
	<node id="-211616" lat="59.1333972238" lon="9.64445833594">
		<tag k="highway" v="bus_stop" />
		<tag k="name" v="Frednes" />
		<tag k="ssr:stedsnr" v="114193" />
	</node>
	<node id="-211615" lat="59.0816861088" lon="9.68295555369">
		<tag k="highway" v="bus_stop" />
		<tag k="name" v="Grava" />
		<tag k="ssr:stedsnr" v="113682" />
	</node>
	<node id="-211613" lat="59.1105722218" lon="9.70246111092">
		<tag k="highway" v="bus_stop" />
		<tag k="name" v="Prestealleen" />
		<tag k="ssr:stedsnr" v="113279" />
	</node>
	<node id="-211612" lat="59.0565166684" lon="9.69059999906">
		<tag k="highway" v="bus_stop" />
		<tag k="name" v="Furulund" />
		<tag k="ssr:stedsnr" v="113648" />
	</node>
	<node id="-211611" lat="59.1316305529" lon="9.6309722251">
		<tag k="bridge" v="yes" />
		<tag k="layer" v="1" />
		<tag k="name" v="Koltangbrua" />
		<tag k="ssr:stedsnr" v="109643" />
	</node>
	<node id="-212118" lat="59.0601666654" lon="9.68847499376">
		<tag k="highway" v="bus_stop" />
		<tag k="name" v="Setrevegen" />
		<tag k="ssr:stedsnr" v="599209" />
	</node>
	<node id="-212117" lat="59.1298444455" lon="9.64180555738">
		<tag k="highway" v="bus_stop" />
		<tag k="name" v="Øyekast" />
		<tag k="ssr:stedsnr" v="599030" />
	</node>
	<node id="-212116" lat="59.1468972217" lon="9.64188054995">
		<tag k="highway" v="bus_stop" />
		<tag k="name" v="Bjørndalen" />
		<tag k="ssr:stedsnr" v="598987" />
	</node>
	<node id="-212115" lat="59.1448083309" lon="9.64117777682">
		<tag k="highway" v="bus_stop" />
		<tag k="name" v="Vemmern" />
		<tag k="ssr:stedsnr" v="598983" />
	</node>
	<node id="-212114" lat="59.138202779" lon="9.65309444317">
		<tag k="highway" v="bus_stop" />
		<tag k="name" v="Aallsgate" />
		<tag k="ssr:stedsnr" v="598963" />
	</node>
	<node id="-212113" lat="59.1165083359" lon="9.65942499515">
		<tag k="highway" v="bus_stop" />
		<tag k="name" v="Blåklokkevegen" />
		<tag k="ssr:stedsnr" v="598541" />
	</node>
	<node id="-212111" lat="59.1258638901" lon="9.69126111987">
		<tag k="highway" v="bus_stop" />
		<tag k="name" v="Enger" />
		<tag k="ssr:stedsnr" v="598416" />
	</node>
	<node id="-212105" lat="59.0517194441" lon="9.70918888272">
		<tag k="man_made" v="breakwater" />
		<tag k="name" v="Banken" />
		<tag k="place" v="locality" />
		<tag k="ssr:stedsnr" v="593977" />
	</node>
	<node id="-212212" lat="59.1049694487" lon="9.68209165977">
		<tag k="highway" v="bus_stop" />
		<tag k="name" v="Hovet skole" />
		<tag k="ssr:stedsnr" v="658726" />
	</node>
	<node id="-212601" lat="59.1359722189" lon="9.62841389442">
		<tag k="bridge" v="yes" />
		<tag k="layer" v="1" />
		<tag k="name" v="Klaffbru" />
		<tag k="ssr:stedsnr" v="966725" />
	</node>
	<node id="-212589" lat="59.1146222231" lon="9.64354722008">
		<tag k="name" v="Herøyakanalen" />
		<tag k="ssr:stedsnr" v="958044" />
		<tag k="waterway" v="canal" />
	</node>
	<node id="-212075" lat="59.1174277744" lon="9.71831945066">
		<tag k="junction" v="yes" />
		<tag k="name" v="Lillegårdskrysset" />
		<tag k="place" v="locality" />
		<tag k="ssr:stedsnr" v="593313" />
	</node>
	<node id="-211560" lat="59.0858527744" lon="9.71970555493">
		<tag k="bridge" v="yes" />
		<tag k="layer" v="1" />
		<tag k="name" v="Røra" />
		<tag k="ssr:stedsnr" v="107682" />
	</node>
	<node id="-211559" lat="59.0872611074" lon="9.68661665923">
		<tag k="bridge" v="yes" />
		<tag k="layer" v="1" />
		<tag k="name" v="Løvsjøtoppen" />
		<tag k="ssr:stedsnr" v="107676" />
	</node>
	<node id="-212057" lat="59.1305638915" lon="9.63335833499">
		<tag k="bridge" v="yes" />
		<tag k="layer" v="1" />
		<tag k="name" v="Hydrobanen bru" />
		<tag k="ssr:stedsnr" v="592700" />
	</node>
	<node id="-212056" lat="59.1312611102" lon="9.72234722948">
		<tag k="bridge" v="yes" />
		<tag k="layer" v="1" />
		<tag k="name" v="Kjølsrud" />
		<tag k="ssr:stedsnr" v="592698" />
	</node>
	<node id="-212055" lat="59.1362472228" lon="9.66482500213">
		<tag k="bridge" v="yes" />
		<tag k="layer" v="1" />
		<tag k="name" v="Bånnåsen" />
		<tag k="ssr:stedsnr" v="592684" />
	</node>
	<node id="-212054" lat="59.0826249968" lon="9.81810278062">
		<tag k="bridge" v="yes" />
		<tag k="layer" v="1" />
		<tag k="name" v="Halvarp" />
		<tag k="ssr:stedsnr" v="592682" />
	</node>
	<node id="-212053" lat="59.084755557" lon="9.66509721661">
		<tag k="bridge" v="yes" />
		<tag k="layer" v="1" />
		<tag k="name" v="Grava" />
		<tag k="ssr:stedsnr" v="592680" />
	</node>
	<node id="-212052" lat="59.1498500041" lon="9.66128333256">
		<tag k="bridge" v="yes" />
		<tag k="layer" v="1" />
		<tag k="name" v="Baneveien" />
		<tag k="ssr:stedsnr" v="592677" />
	</node>
	<node id="-212051" lat="59.0733861148" lon="9.66191945174">
		<tag k="layer" v="-1" />
		<tag k="name" v="Kjørholt" />
		<tag k="ssr:stedsnr" v="590282" />
		<tag k="tunnel" v="yes" />
	</node>
	<node id="-212049" lat="59.0601527787" lon="9.76103333077">
		<tag k="bridge" v="yes" />
		<tag k="layer" v="1" />
		<tag k="name" v="Solvika" />
		<tag k="ssr:stedsnr" v="592710" />
	</node>
	<node id="-212048" lat="59.1300999964" lon="9.61695554879">
		<tag k="bridge" v="yes" />
		<tag k="layer" v="1" />
		<tag k="name" v="Knardalstrand" />
		<tag k="ssr:stedsnr" v="592705" />
	</node>
	<node id="-212047" lat="59.0920861149" lon="9.79962499384">
		<tag k="bridge" v="yes" />
		<tag k="layer" v="1" />
		<tag k="name" v="Langangen vest" />
		<tag k="ssr:stedsnr" v="592702" />
	</node>
	<node id="-211533" lat="59.1327027801" lon="9.67668610558">
		<tag k="highway" v="bus_stop" />
		<tag k="name" v="Trollskogvegen" />
		<tag k="ssr:stedsnr" v="53450" />
	</node>
	<node id="-211532" lat="59.1427999956" lon="9.65860277187">
		<tag k="highway" v="bus_stop" />
		<tag k="name" v="Dr. Munks gate" />
		<tag k="ssr:stedsnr" v="53043" />
	</node>
	<node id="-211530" lat="59.107088889" lon="9.68183888282">
		<tag k="highway" v="bus_stop" />
		<tag k="name" v="Flintvegen" />
		<tag k="ssr:stedsnr" v="52689" />
	</node>
	<node id="-211529" lat="59.0703277772" lon="9.68566110731">
		<tag k="highway" v="bus_stop" />
		<tag k="name" v="Ørvik" />
		<tag k="ssr:stedsnr" v="52636" />
	</node>
	<node id="-211528" lat="59.0990166709" lon="9.6835111092">
		<tag k="highway" v="bus_stop" />
		<tag k="name" v="Skjelsvik" />
		<tag k="ssr:stedsnr" v="52303" />
	</node>
	<node id="-212547" lat="59.1368388892" lon="9.62843333766">
		<tag k="bridge" v="yes" />
		<tag k="layer" v="1" />
		<tag k="name" v="Stranda" />
		<tag k="ssr:stedsnr" v="957659" />
	</node>
	<node id="-212546" lat="59.0965055511" lon="9.68577778441">
		<tag k="bridge" v="yes" />
		<tag k="layer" v="1" />
		<tag k="name" v="Skjelsvik" />
		<tag k="ssr:stedsnr" v="957656" />
	</node>
	<node id="-212543" lat="59.1276972207" lon="9.63912778132">
		<tag k="bridge" v="yes" />
		<tag k="layer" v="1" />
		<tag k="name" v="Kirstibakken" />
		<tag k="ssr:stedsnr" v="957639" />
	</node>
	<node id="-211125" lat="59.0925777745" lon="9.78813055925">
		<tag k="bridge" v="yes" />
		<tag k="layer" v="1" />
		<tag k="name" v="Kokkersvold" />
		<tag k="ssr:stedsnr" v="289718" />
	</node>
	<node id="-212537" lat="59.1494333355" lon="9.63573889407">
		<tag k="bridge" v="yes" />
		<tag k="layer" v="1" />
		<tag k="name" v="Bjørndalsjordet" />
		<tag k="ssr:stedsnr" v="957606" />
	</node>
	<node id="-212015" lat="59.1026222237" lon="9.66717222595">
		<tag k="highway" v="bus_stop" />
		<tag k="name" v="Skjelsvikskauen" />
		<tag k="ssr:stedsnr" v="538657" />
	</node>
	<node id="-212013" lat="59.1122277747" lon="9.66227499875">
		<tag k="highway" v="bus_stop" />
		<tag k="name" v="Korpelivegen" />
		<tag k="ssr:stedsnr" v="537539" />
	</node>
	<node id="-212012" lat="59.109424999" lon="9.66772222296">
		<tag k="highway" v="bus_stop" />
		<tag k="name" v="Stridskleivsenteret" />
		<tag k="ssr:stedsnr" v="537538" />
	</node>
	<node id="-212005" lat="59.1247611104" lon="9.69445278428">
		<tag k="junction" v="yes" />
		<tag k="name" v="Trekanten" />
		<tag k="place" v="locality" />
		<tag k="ssr:stedsnr" v="533348" />
	</node>
	<node id="-211888" lat="59.1021027779" lon="9.71923055869">
		<tag k="bridge" v="yes" />
		<tag k="layer" v="1" />
		<tag k="name" v="Rødtu" />
		<tag k="ssr:stedsnr" v="471653" />
	</node>
	<node id="-212506" lat="59.1533277798" lon="9.65831389434">
		<tag k="highway" v="bus_stop" />
		<tag k="name" v="Borgeskogen" />
		<tag k="ssr:stedsnr" v="902806" />
	</node>
	<node id="-212505" lat="59.0916388848" lon="9.6860694487">
		<tag k="highway" v="bus_stop" />
		<tag k="name" v="Orionvegen" />
		<tag k="ssr:stedsnr" v="902681" />
	</node>
	<node id="-212504" lat="59.1177750002" lon="9.66836111531">
		<tag k="highway" v="bus_stop" />
		<tag k="name" v="Flåtten" />
		<tag k="ssr:stedsnr" v="902579" />
	</node>
	<node id="-211989" lat="59.1068527778" lon="9.74507221862">
		<tag k="bridge" v="yes" />
		<tag k="layer" v="1" />
		<tag k="name" v="Stulen" />
		<tag k="ssr:stedsnr" v="532665" />
	</node>
	<node id="-211986" lat="59.0897333327" lon="9.80199167109">
		<tag k="bridge" v="yes" />
		<tag k="layer" v="1" />
		<tag k="name" v="Langangen" />
		<tag k="ssr:stedsnr" v="532647" />
	</node>
	<node id="-211984" lat="59.1027361137" lon="9.69397777949">
		<tag k="bridge" v="yes" />
		<tag k="layer" v="1" />
		<tag k="name" v="Mule bru" />
		<tag k="ssr:stedsnr" v="532633" />
	</node>
	<node id="-211286" lat="59.1297555533" lon="9.65438611031">
		<tag k="highway" v="bus_stop" />
		<tag k="name" v="Skrukkerødvegen" />
		<tag k="ssr:stedsnr" v="355950" />
	</node>
	<node id="-212481" lat="59.1311638865" lon="9.65603610625">
		<tag k="highway" v="bus_stop" />
		<tag k="name" v="Sykehuset" />
		<tag k="ssr:stedsnr" v="842966" />
	</node>
</osm>
