<?xml version="1.0" encoding="UTF-8"?>
<osm generator="osmapis" version="0.6">
	<node id="-211454" lat="59.0635583299" lon="9.73452778285">
		<tag k="alt_name" v="Smiholmen" />
		<tag k="name" v="Smieholmen" />
		<tag k="place" v="islet" />
		<tag k="ssr:stedsnr" v="1462" />
	</node>
	<node id="-212475" lat="59.0522611103" lon="9.75808333907">
		<tag k="name" v="Valborgstranda" />
		<tag k="natural" v="bay" />
		<tag k="ssr:stedsnr" v="837425" />
	</node>
	<node id="-211199" lat="59.0189666624" lon="9.78100000318">
		<tag k="name" v="Linnarenna" />
		<tag k="natural" v="strait" />
		<tag k="ssr:stedsnr" v="328351" />
	</node>
	<node id="-211445" lat="59.1332970213" lon="9.62941447078">
		<tag k="name" v="Koltangsundet" />
		<tag k="natural" v="strait" />
		<tag k="ssr:stedsnr" v="989410" />
	</node>
	<node id="-211444" lat="59.0621532916" lon="9.73867594499">
		<tag k="name" v="Grytebeinsundet" />
		<tag k="natural" v="strait" />
		<tag k="ssr:stedsnr" v="989365" />
	</node>
	<node id="-211955" lat="59.0466666649" lon="9.71494166715">
		<tag k="bay" v="fjord" />
		<tag k="name" v="Brevikfjorden" />
		<tag k="natural" v="bay" />
		<tag k="ssr:stedsnr" v="524173" />
	</node>
	<node id="-212466" lat="59.0798166658" lon="9.79196110294">
		<tag k="name" v="Linnatangen" />
		<tag k="natural" v="cape" />
		<tag k="ssr:stedsnr" v="836945" />
	</node>
	<node id="-211953" lat="59.1278555543" lon="9.62592222837">
		<tag k="name" v="Roligheten" />
		<tag k="natural" v="cape" />
		<tag k="ssr:stedsnr" v="511047" />
	</node>
	<node id="-212464" lat="59.0954388896" lon="9.71412499142">
		<tag k="name" v="Kjerkebukta" />
		<tag k="natural" v="bay" />
		<tag k="ssr:stedsnr" v="836931" />
	</node>
	<node id="-212462" lat="59.1010750001" lon="9.70168888941">
		<tag k="name" v="Mulebukta" />
		<tag k="natural" v="bay" />
		<tag k="ssr:stedsnr" v="836927" />
	</node>
	<node id="-211949" lat="59.0388333372" lon="9.77941388614">
		<tag k="name" v="Bjørsund" />
		<tag k="natural" v="strait" />
		<tag k="ssr:stedsnr" v="509702" />
	</node>
	<node id="-211948" lat="59.0861916664" lon="9.69855833084">
		<tag k="name" v="Hvalsbukta" />
		<tag k="natural" v="bay" />
		<tag k="ssr:stedsnr" v="497691" />
	</node>
	<node id="-211937" lat="59.0596972213" lon="9.74197777306">
		<tag k="name" v="Finnsholmane" />
		<tag k="place" v="islet" />
		<tag k="ssr:stedsnr" v="487479" />
	</node>
	<node id="-211423" lat="59.0639749965" lon="9.79775278351">
		<tag k="name" v="Kjøpmannsøya" />
		<tag k="natural" v="cape" />
		<tag k="ssr:stedsnr" v="897924" />
	</node>
	<node id="-211421" lat="59.0989416627" lon="9.71564722062">
		<tag k="name" v="Kula" />
		<tag k="place" v="islet" />
		<tag k="ssr:stedsnr" v="897900" />
	</node>
	<node id="-212444" lat="59.0077305556" lon="9.82735555092">
		<tag k="name" v="Sandvika" />
		<tag k="natural" v="bay" />
		<tag k="ssr:stedsnr" v="836591" />
	</node>
	<node id="-211923" lat="59.0657444429" lon="9.73382499615">
		<tag k="name" v="Bakstebergholmen" />
		<tag k="place" v="islet" />
		<tag k="ssr:stedsnr" v="480462" />
	</node>
	<node id="-211921" lat="59.0438000038" lon="9.83833055944">
		<tag k="name" v="Stranda" />
		<tag k="natural" v="beach" />
		<tag k="place" v="locality" />
		<tag k="ssr:stedsnr" v="480275" />
	</node>
	<node id="-211915" lat="59.0312916708" lon="9.81133333957">
		<tag k="name" v="Kjesund" />
		<tag k="natural" v="strait" />
		<tag k="ssr:stedsnr" v="471993" />
	</node>
	<node id="-211909" lat="59.0328055511" lon="9.81616111507">
		<tag k="name" v="Furuholmen" />
		<tag k="place" v="islet" />
		<tag k="ssr:stedsnr" v="471930" />
	</node>
	<node id="-211908" lat="59.0856777779" lon="9.71704444976">
		<tag k="name" v="Rørabukta" />
		<tag k="natural" v="bay" />
		<tag k="ssr:stedsnr" v="471931" />
	</node>
	<node id="-212419" lat="59.0161166708" lon="9.76172777118">
		<tag k="name" v="Råholmbåane" />
		<tag k="place" v="locality" />
		<tag k="seamark:type" v="rock" />
		<tag k="ssr:stedsnr" v="813749" />
	</node>
	<node id="-212418" lat="59.0214972196" lon="9.82189999299">
		<tag k="name" v="Håøya" />
		<tag k="place" v="island" />
		<tag k="ssr:stedsnr" v="791267" />
	</node>
	<node id="-211389" lat="59.0443027821" lon="9.72986388379">
		<tag k="name" v="Smakkebåen" />
		<tag k="place" v="locality" />
		<tag k="seamark:type" v="rock" />
		<tag k="ssr:stedsnr" v="269112" />
	</node>
	<node id="-211388" lat="59.0448000024" lon="9.73411111496">
		<tag k="name" v="Kalvehue" />
		<tag k="natural" v="cape" />
		<tag k="ssr:stedsnr" v="269110" />
	</node>
	<node id="-212406" lat="59.0333583322" lon="9.78740832487">
		<tag k="name" v="Veaholmen" />
		<tag k="place" v="islet" />
		<tag k="ssr:stedsnr" v="790498" />
	</node>
	<node id="-211779" lat="59.0306333347" lon="9.80725834167">
		<tag k="name" v="Suggesund" />
		<tag k="natural" v="strait" />
		<tag k="ssr:stedsnr" v="229918" />
	</node>
	<node id="-212397" lat="59.0424194469" lon="9.75021666759">
		<tag k="name" v="Orebuktbåen" />
		<tag k="place" v="locality" />
		<tag k="seamark:type" v="rock" />
		<tag k="ssr:stedsnr" v="784394" />
	</node>
	<node id="-211442" lat="59.0598086515" lon="9.79663971436">
		<tag k="name" v="Eggholmbåane" />
		<tag k="place" v="locality" />
		<tag k="seamark:type" v="rock" />
		<tag k="ssr:stedsnr" v="989212" />
	</node>
	<node id="-211370" lat="59.0735666678" lon="9.73721944903">
		<tag k="name" v="Smedvika" />
		<tag k="natural" v="bay" />
		<tag k="ssr:stedsnr" v="411990" />
	</node>
	<node id="-212388" lat="59.0383944472" lon="9.73928888289">
		<tag k="name" v="Bjørkøyholmen" />
		<tag k="place" v="islet" />
		<tag k="ssr:stedsnr" v="775943" />
	</node>
	<node id="-212387" lat="59.0342333348" lon="9.74603056419">
		<tag k="name" v="Bjørkøybukta" />
		<tag k="natural" v="bay" />
		<tag k="ssr:stedsnr" v="775936" />
	</node>
	<node id="-211355" lat="59.025219444" lon="9.80828333219">
		<tag k="name" v="Store Vesta" />
		<tag k="natural" v="bay" />
		<tag k="ssr:stedsnr" v="411652" />
	</node>
	<node id="-211870" lat="59.0816638858" lon="9.70216667416">
		<tag k="name" v="Midtfjordbåen" />
		<tag k="place" v="locality" />
		<tag k="seamark:type" v="rock" />
		<tag k="ssr:stedsnr" v="451189" />
	</node>
	<node id="-211869" lat="59.039433337" lon="9.73179999833">
		<tag k="name" v="Bjørkøybåen" />
		<tag k="place" v="locality" />
		<tag k="seamark:type" v="rock" />
		<tag k="ssr:stedsnr" v="451114" />
	</node>
	<node id="-211867" lat="59.0906777815" lon="9.71243610558">
		<tag k="name" v="Røratangen" />
		<tag k="natural" v="cape" />
		<tag k="ssr:stedsnr" v="451017" />
	</node>
	<node id="-211354" lat="59.018686112" lon="9.81783055378">
		<tag k="loc_name" v="Jordsbukta" />
		<tag k="name" v="Jordbukta" />
		<tag k="natural" v="bay" />
		<tag k="ssr:stedsnr" v="411650" />
	</node>
	<node id="-211865" lat="59.0364222212" lon="9.78023055887">
		<tag k="name" v="Østre Brattholmen" />
		<tag k="place" v="islet" />
		<tag k="ssr:stedsnr" v="449719" />
	</node>
	<node id="-211863" lat="59.0953916671" lon="9.64748056404">
		<tag k="name" v="Åsstranda" />
		<tag k="natural" v="beach" />
		<tag k="place" v="locality" />
		<tag k="ssr:stedsnr" v="427449" />
	</node>
	<node id="-211861" lat="59.0974055582" lon="9.71721945246">
		<tag k="alt_name" v="Vissevåg" />
		<tag k="name" v="Vissevåga" />
		<tag k="natural" v="bay" />
		<tag k="ssr:stedsnr" v="427408" />
	</node>
	<node id="-211950" lat="59.0290166686" lon="9.76426110451">
		<tag k="name" v="Risøysundet" />
		<tag k="natural" v="strait" />
		<tag k="ssr:stedsnr" v="509705" />
	</node>
	<node id="-211857" lat="59.1110083319" lon="9.71241944153">
		<tag k="name" v="Herregårdsstranda" />
		<tag k="natural" v="beach" />
		<tag k="place" v="locality" />
		<tag k="ssr:stedsnr" v="426585" />
	</node>
	<node id="-212367" lat="59.0212972185" lon="9.76046666245">
		<tag k="name" v="Krabbesund" />
		<tag k="natural" v="strait" />
		<tag k="ssr:stedsnr" v="775413" />
	</node>
	<node id="-212141" lat="59.068236115" lon="9.74116944819">
		<tag k="fixme" v="consider seamark:type=rock or natural=shoal" />
		<tag k="name" v="Kolleskjærane" />
		<tag k="place" v="islet" />
		<tag k="ssr:stedsnr" v="630795" />
	</node>
	<node id="-211851" lat="59.0591388846" lon="9.79256665997">
		<tag k="name" v="Eggholmane" />
		<tag k="place" v="islet" />
		<tag k="ssr:stedsnr" v="426432" />
	</node>
	<node id="-212362" lat="59.0409083334" lon="9.77946111964">
		<tag k="name" v="Kjerringholmen" />
		<tag k="place" v="islet" />
		<tag k="ssr:stedsnr" v="775036" />
	</node>
	<node id="-211849" lat="59.0562500002" lon="9.74056111064">
		<tag k="alt_name" v="Lauvøya" />
		<tag k="name" v="Løvøya" />
		<tag k="place" v="island" />
		<tag k="ssr:stedsnr" v="426419" />
	</node>
	<node id="-211844" lat="59.0067249972" lon="9.82440555018">
		<tag k="name" v="Håøytangbåen" />
		<tag k="place" v="locality" />
		<tag k="seamark:type" v="rock" />
		<tag k="ssr:stedsnr" v="420572" />
	</node>
	<node id="-211840" lat="59.0310527801" lon="9.76496943955">
		<tag k="name" v="Risesundodden" />
		<tag k="natural" v="cape" />
		<tag k="ssr:stedsnr" v="420351" />
	</node>
	<node id="-211839" lat="59.030708329" lon="9.76814999603">
		<tag k="name" v="Odden" />
		<tag k="natural" v="cape" />
		<tag k="ssr:stedsnr" v="420347" />
	</node>
	<node id="-211838" lat="59.0359166674" lon="9.76105000705">
		<tag k="name" v="Kalven" />
		<tag k="natural" v="strait" />
		<tag k="ssr:stedsnr" v="420343" />
	</node>
	<node id="-212344" lat="59.0072333354" lon="9.82521944724">
		<tag k="name" v="Håøytangen" />
		<tag k="natural" v="cape" />
		<tag k="ssr:stedsnr" v="753311" />
	</node>
	<node id="-212343" lat="59.0425222182" lon="9.79727222249">
		<tag k="name" v="Vierbåen" />
		<tag k="place" v="locality" />
		<tag k="seamark:type" v="rock" />
		<tag k="ssr:stedsnr" v="753060" />
	</node>
	<node id="-211823" lat="59.0562333346" lon="9.75895555998">
		<tag k="alt_name" v="Kjelkavik" />
		<tag k="name" v="Kjelkevik" />
		<tag k="natural" v="bay" />
		<tag k="ssr:stedsnr" v="266848" />
	</node>
	<node id="-212334" lat="59.0919333303" lon="9.70071388516">
		<tag k="fixme" v="multiple name tags, choose one and add the other to alt_name" />
		<tag k="name" v="Kotøya;Ørstvetøya" />
		<tag k="natural" v="cape" />
		<tag k="ssr:stedsnr" v="730445" />
	</node>
	<node id="-212332" lat="59.0713499976" lon="9.70483332638">
		<tag k="bay" v="fjord" />
		<tag k="name" v="Eidangerfjorden" />
		<tag k="natural" v="bay" />
		<tag k="ssr:stedsnr" v="730401" />
	</node>
	<node id="-211814" lat="59.0461916658" lon="9.78904165936">
		<tag k="alt_name" v="Karisholmen" />
		<tag k="name" v="Karisholmane" />
		<tag k="place" v="islet" />
		<tag k="ssr:stedsnr" v="244506" />
	</node>
	<node id="-212325" lat="59.0239388902" lon="9.75275554875">
		<tag k="name" v="Risøyodden" />
		<tag k="natural" v="cape" />
		<tag k="ssr:stedsnr" v="723367" />
	</node>
	<node id="-212324" lat="59.0271444468" lon="9.75888889018">
		<tag k="name" v="Risøyhamna" />
		<tag k="natural" v="bay" />
		<tag k="ssr:stedsnr" v="723343" />
	</node>
	<node id="-211811" lat="59.0546583364" lon="9.72664999769">
		<tag k="name" v="Sandøya" />
		<tag k="place" v="island" />
		<tag k="ssr:stedsnr" v="244447" />
	</node>
	<node id="-211296" lat="59.0289527774" lon="9.77363333875">
		<tag k="name" v="Brønnebukta" />
		<tag k="natural" v="bay" />
		<tag k="ssr:stedsnr" v="359364" />
	</node>
	<node id="-211807" lat="59.0738777794" lon="9.79091667281">
		<tag k="bay" v="fjord" />
		<tag k="name" v="Langangsfjorden" />
		<tag k="natural" v="bay" />
		<tag k="ssr:stedsnr" v="244417" />
	</node>
	<node id="-211294" lat="59.055900001" lon="9.66605556183">
		<tag k="name" v="Flauodden" />
		<tag k="natural" v="cape" />
		<tag k="ssr:stedsnr" v="359113" />
	</node>
	<node id="-211292" lat="59.07915833" lon="9.79123055715">
		<tag k="name" v="Vika" />
		<tag k="natural" v="bay" />
		<tag k="ssr:stedsnr" v="359010" />
	</node>
	<node id="-211803" lat="59.0327638861" lon="9.75788055855">
		<tag k="name" v="Dyreholet" />
		<tag k="natural" v="bay" />
		<tag k="ssr:stedsnr" v="238369" />
	</node>
	<node id="-211802" lat="59.0336027787" lon="9.76192223034">
		<tag k="name" v="Risesundbåane" />
		<tag k="place" v="locality" />
		<tag k="seamark:type" v="rock" />
		<tag k="ssr:stedsnr" v="238365" />
	</node>
	<node id="-211801" lat="59.0327666631" lon="9.81356388665">
		<tag k="name" v="Auensbukta" />
		<tag k="natural" v="bay" />
		<tag k="ssr:stedsnr" v="238360" />
	</node>
	<node id="-212309" lat="59.0552194482" lon="9.77542500495">
		<tag k="name" v="Hola" />
		<tag k="natural" v="bay" />
		<tag k="ssr:stedsnr" v="715446" />
	</node>
	<node id="-212307" lat="59.0838972221" lon="9.79879167374">
		<tag k="name" v="Holmen" />
		<tag k="natural" v="cape" />
		<tag k="ssr:stedsnr" v="715343" />
	</node>
	<node id="-211469" lat="59.0215361108" lon="9.798599997">
		<tag k="bay" v="fjord" />
		<tag k="name" v="Håøyfjorden" />
		<tag k="natural" v="bay" />
		<tag k="ssr:stedsnr" v="27373" />
	</node>
	<node id="-211789" lat="59.059461107" lon="9.77831111512">
		<tag k="name" v="Gunnersvika" />
		<tag k="natural" v="bay" />
		<tag k="ssr:stedsnr" v="230404" />
	</node>
	<node id="-211788" lat="59.048724998" lon="9.72591389742">
		<tag k="name" v="Smørtønna" />
		<tag k="place" v="locality" />
		<tag k="seamark:type" v="rock" />
		<tag k="ssr:stedsnr" v="229996" />
	</node>
	<node id="-212291" lat="59.0111111141" lon="9.81979167284">
		<tag k="name" v="Rislittodden" />
		<tag k="natural" v="cape" />
		<tag k="ssr:stedsnr" v="714892" />
	</node>
	<node id="-211778" lat="59.0897194469" lon="9.71217222622">
		<tag k="fixme" v="consider seamark:type=rock or natural=shoal" />
		<tag k="name" v="Røraskjæret" />
		<tag k="place" v="islet" />
		<tag k="ssr:stedsnr" v="229916" />
	</node>
	<node id="-211776" lat="59.0404861089" lon="9.76435832746">
		<tag k="name" v="Kisteholmen" />
		<tag k="place" v="islet" />
		<tag k="ssr:stedsnr" v="229885" />
	</node>
	<node id="-211775" lat="59.0297388875" lon="9.80093056163">
		<tag k="name" v="Ånestein" />
		<tag k="place" v="islet" />
		<tag k="ssr:stedsnr" v="229883" />
	</node>
	<node id="-211774" lat="59.0602472195" lon="9.78158888019">
		<tag k="name" v="Odden" />
		<tag k="natural" v="cape" />
		<tag k="ssr:stedsnr" v="229864" />
	</node>
	<node id="-211509" lat="59.045491667" lon="9.80234443922">
		<tag k="name" v="Sandstranda" />
		<tag k="natural" v="beach" />
		<tag k="place" v="locality" />
		<tag k="ssr:stedsnr" v="47847" />
	</node>
	<node id="-211935" lat="59.0522916634" lon="9.70452777655">
		<tag k="name" v="Sylterøya" />
		<tag k="place" v="island" />
		<tag k="ssr:stedsnr" v="487469" />
	</node>
	<node id="-211256" lat="59.0972055591" lon="9.69310832564">
		<tag k="alt_name" v="Skjelsvika" />
		<tag k="name" v="Skjelsvikbukta" />
		<tag k="natural" v="bay" />
		<tag k="ssr:stedsnr" v="351694" />
	</node>
	<node id="-211255" lat="59.0787361068" lon="9.69746388375">
		<tag k="name" v="Lundebukta" />
		<tag k="natural" v="bay" />
		<tag k="ssr:stedsnr" v="351392" />
	</node>
	<node id="-211252" lat="59.01912778" lon="9.77034721756">
		<tag k="name" v="Kalveholet" />
		<tag k="natural" v="beach" />
		<tag k="place" v="locality" />
		<tag k="ssr:stedsnr" v="350989" />
	</node>
	<node id="-212019" lat="59.0427888903" lon="9.7403250044">
		<tag k="name" v="Kalvsundet" />
		<tag k="natural" v="strait" />
		<tag k="ssr:stedsnr" v="541372" />
	</node>
	<node id="-211760" lat="59.0264805552" lon="9.80479444386">
		<tag k="name" v="Lille Vesta" />
		<tag k="natural" v="bay" />
		<tag k="ssr:stedsnr" v="229569" />
	</node>
	<node id="-211247" lat="59.0786249957" lon="9.79191665831">
		<tag k="fixme" v="consider seamark:type=rock or natural=shoal" />
		<tag k="name" v="Kultane" />
		<tag k="place" v="islet" />
		<tag k="ssr:stedsnr" v="350924" />
	</node>
	<node id="-211245" lat="59.0295027794" lon="9.81268610572">
		<tag k="name" v="Vervebukta" />
		<tag k="natural" v="bay" />
		<tag k="ssr:stedsnr" v="350920" />
	</node>
	<node id="-211756" lat="59.0782027774" lon="9.71741389051">
		<tag k="name" v="Brønnstadbukta" />
		<tag k="natural" v="bay" />
		<tag k="ssr:stedsnr" v="229376" />
	</node>
	<node id="-212530" lat="59.0752111093" lon="9.69158334138">
		<tag k="name" v="Heistadbukta" />
		<tag k="natural" v="bay" />
		<tag k="ssr:stedsnr" v="934804" />
	</node>
	<node id="-211753" lat="59.0492277793" lon="9.75915000184">
		<tag k="name" v="Matholmen" />
		<tag k="place" v="islet" />
		<tag k="ssr:stedsnr" v="229043" />
	</node>
	<node id="-211239" lat="59.0853805581" lon="9.80032499519">
		<tag k="name" v="Kilen" />
		<tag k="natural" v="bay" />
		<tag k="ssr:stedsnr" v="350877" />
	</node>
	<node id="-212259" lat="59.0226694449" lon="9.80982499195">
		<tag k="name" v="Skutevika" />
		<tag k="natural" v="bay" />
		<tag k="ssr:stedsnr" v="714555" />
	</node>
	<node id="-212251" lat="59.0404416701" lon="9.7777583299">
		<tag k="name" v="Lille Bjørsund" />
		<tag k="natural" v="strait" />
		<tag k="ssr:stedsnr" v="714002" />
	</node>
	<node id="-211736" lat="59.0480361151" lon="9.76170277264">
		<tag k="name" v="Sildevika" />
		<tag k="natural" v="bay" />
		<tag k="ssr:stedsnr" v="208089" />
	</node>
	<node id="-211735" lat="59.0593861101" lon="9.74015833443">
		<tag k="name" v="Klokkerholmen" />
		<tag k="place" v="islet" />
		<tag k="ssr:stedsnr" v="207391" />
	</node>
	<node id="-211734" lat="59.036705557" lon="9.80849999922">
		<tag k="alt_name" v="Auens hue" />
		<tag k="name" v="Auenshue" />
		<tag k="natural" v="cape" />
		<tag k="ssr:stedsnr" v="207342" />
	</node>
	<node id="-211733" lat="59.0189833355" lon="9.7569666652">
		<tag k="name" v="Karlsbåen" />
		<tag k="place" v="locality" />
		<tag k="seamark:type" v="rock" />
		<tag k="ssr:stedsnr" v="206744" />
	</node>
	<node id="-211732" lat="59.0126527734" lon="9.82294444193">
		<tag k="name" v="Bukkevika" />
		<tag k="natural" v="bay" />
		<tag k="ssr:stedsnr" v="206735" />
	</node>
	<node id="-211730" lat="59.0709" lon="9.69161945302">
		<tag k="name" v="Ørvika" />
		<tag k="natural" v="bay" />
		<tag k="ssr:stedsnr" v="205842" />
	</node>
	<node id="-212240" lat="59.0523361118" lon="9.70461666992">
		<tag k="name" v="Øya" />
		<tag k="place" v="island" />
		<tag k="ssr:stedsnr" v="693094" />
	</node>
	<node id="-212239" lat="59.0847305518" lon="9.64270833905">
		<tag k="name" v="Lurebåen" />
		<tag k="place" v="locality" />
		<tag k="seamark:type" v="rock" />
		<tag k="ssr:stedsnr" v="693020" />
	</node>
	<node id="-212237" lat="59.0980694424" lon="9.69761388736">
		<tag k="name" v="Ørstveitbukta" />
		<tag k="natural" v="bay" />
		<tag k="ssr:stedsnr" v="693013" />
	</node>
	<node id="-211244" lat="59.0173388933" lon="9.77401665843">
		<tag k="name" v="Svensvika" />
		<tag k="natural" v="bay" />
		<tag k="ssr:stedsnr" v="350908" />
	</node>
	<node id="-212228" lat="59.0667888847" lon="9.72509165794">
		<tag k="name" v="Ulesund" />
		<tag k="natural" v="strait" />
		<tag k="ssr:stedsnr" v="668435" />
	</node>
	<node id="-211201" lat="59.0768055556" lon="9.69720000857">
		<tag k="name" v="Lundebåane" />
		<tag k="place" v="locality" />
		<tag k="seamark:type" v="rock" />
		<tag k="ssr:stedsnr" v="329162" />
	</node>
	<node id="-211200" lat="59.0616305588" lon="9.69323055157">
		<tag k="name" v="Dalsbukta" />
		<tag k="natural" v="bay" />
		<tag k="ssr:stedsnr" v="329103" />
	</node>
	<node id="-212223" lat="59.020697223" lon="9.77976944364">
		<tag k="name" v="Capri" />
		<tag k="place" v="islet" />
		<tag k="ssr:stedsnr" v="662356" />
	</node>
	<node id="-212221" lat="59.0333694486" lon="9.75742221751">
		<tag k="name" v="Levalbukta" />
		<tag k="natural" v="bay" />
		<tag k="ssr:stedsnr" v="662325" />
	</node>
	<node id="-212220" lat="59.1079361099" lon="9.71637499356">
		<tag k="name" v="Haslebukta" />
		<tag k="natural" v="bay" />
		<tag k="ssr:stedsnr" v="662083" />
	</node>
	<node id="-211707" lat="59.047100001" lon="9.74824444152">
		<tag k="name" v="Odden" />
		<tag k="natural" v="cape" />
		<tag k="ssr:stedsnr" v="177440" />
	</node>
	<node id="-212210" lat="59.1214722212" lon="9.61623334022">
		<tag k="name" v="Tangen" />
		<tag k="natural" v="cape" />
		<tag k="ssr:stedsnr" v="655643" />
	</node>
	<node id="-211185" lat="59.0704833352" lon="9.72975833071">
		<tag k="name" v="Fjellnes" />
		<tag k="natural" v="cape" />
		<tag k="ssr:stedsnr" v="298396" />
	</node>
	<node id="-211691" lat="59.0433749962" lon="9.77960278425">
		<tag k="name" v="Ristillen" />
		<tag k="place" v="islet" />
		<tag k="ssr:stedsnr" v="168950" />
	</node>
	<node id="-212200" lat="59.0220916685" lon="9.76734722857">
		<tag k="name" v="Fiskeberget" />
		<tag k="natural" v="cape" />
		<tag k="ssr:stedsnr" v="653958" />
	</node>
	<node id="-211175" lat="59.1050611111" lon="9.72004999771">
		<tag k="alt_name" v="Døvika" />
		<tag k="name" v="Døvikbukta" />
		<tag k="natural" v="bay" />
		<tag k="ssr:stedsnr" v="291182" />
	</node>
	<node id="-211174" lat="59.0509083366" lon="9.70647221511">
		<tag k="name" v="Blokkhustangen" />
		<tag k="natural" v="cape" />
		<tag k="ssr:stedsnr" v="290995" />
	</node>
	<node id="-212193" lat="59.0183611086" lon="9.77877499892">
		<tag k="alt_name" v="Gardsholmen" />
		<tag k="name" v="Albertsholmen" />
		<tag k="place" v="islet" />
		<tag k="ssr:stedsnr" v="653926" />
	</node>
	<node id="-212192" lat="59.0172222246" lon="9.81474721907">
		<tag k="name" v="Narholmen" />
		<tag k="place" v="islet" />
		<tag k="ssr:stedsnr" v="653904" />
	</node>
	<node id="-212191" lat="59.0442638906" lon="9.73197222063">
		<tag k="name" v="Storholmen" />
		<tag k="place" v="islet" />
		<tag k="ssr:stedsnr" v="653902" />
	</node>
	<node id="-211465" lat="59.0912638923" lon="9.79707777744">
		<tag k="name" v="Kjøya" />
		<tag k="natural" v="cape" />
		<tag k="ssr:stedsnr" v="26004" />
	</node>
	<node id="-211159" lat="59.0331444422" lon="9.75729722333">
		<tag k="name" v="Dambukta" />
		<tag k="natural" v="bay" />
		<tag k="ssr:stedsnr" v="290603" />
	</node>
	<node id="-211153" lat="59.0588694409" lon="9.73957222613">
		<tag k="name" v="Flåtasundet" />
		<tag k="natural" v="strait" />
		<tag k="ssr:stedsnr" v="290536" />
	</node>
	<node id="-211148" lat="59.0550972235" lon="9.7566972184">
		<tag k="name" v="Grisholmen" />
		<tag k="place" v="islet" />
		<tag k="ssr:stedsnr" v="290034" />
	</node>
	<node id="-211147" lat="59.013744442" lon="9.77126943806">
		<tag k="name" v="Skjulsund" />
		<tag k="natural" v="strait" />
		<tag k="ssr:stedsnr" v="290031" />
	</node>
	<node id="-211319" lat="59.0464500003" lon="9.77634445034">
		<tag k="name" v="Sildevika" />
		<tag k="natural" v="bay" />
		<tag k="ssr:stedsnr" v="389091" />
	</node>
	<node id="-211649" lat="59.0506194409" lon="9.6917888856">
		<tag k="name" v="Strømtangen" />
		<tag k="natural" v="cape" />
		<tag k="ssr:stedsnr" v="146038" />
	</node>
	<node id="-211646" lat="59.0674555559" lon="9.73494166585">
		<tag k="name" v="Stolholmen" />
		<tag k="place" v="islet" />
		<tag k="ssr:stedsnr" v="144842" />
	</node>
	<node id="-211645" lat="59.0599861097" lon="9.75290000044">
		<tag k="loc_name" v="Solvikholmane" />
		<tag k="name" v="Kleivholmane" />
		<tag k="place" v="islet" />
		<tag k="ssr:stedsnr" v="144840" />
	</node>
	<node id="-211644" lat="59.0581027748" lon="9.74506389405">
		<tag k="name" v="Løvøyholmen" />
		<tag k="place" v="islet" />
		<tag k="ssr:stedsnr" v="144836" />
	</node>
	<node id="-212154" lat="59.0204083311" lon="9.77715000262">
		<tag k="name" v="Gardsbukta" />
		<tag k="natural" v="bay" />
		<tag k="ssr:stedsnr" v="653049" />
	</node>
	<node id="-211638" lat="59.0359166674" lon="9.76105000705">
		<tag k="name" v="Kalven" />
		<tag k="natural" v="strait" />
		<tag k="ssr:stedsnr" v="123538" />
	</node>
	<node id="-211636" lat="59.0870333296" lon="9.64521388622">
		<tag k="name" v="Gravastranda" />
		<tag k="natural" v="beach" />
		<tag k="place" v="locality" />
		<tag k="ssr:stedsnr" v="123487" />
	</node>
	<node id="-211633" lat="59.1044805586" lon="9.7127055639">
		<tag k="name" v="Kattøya" />
		<tag k="place" v="islet" />
		<tag k="ssr:stedsnr" v="123447" />
	</node>
	<node id="-212144" lat="59.0924111118" lon="9.64568055943">
		<tag k="name" v="Skjellbukta" />
		<tag k="natural" v="bay" />
		<tag k="ssr:stedsnr" v="632014" />
	</node>
	<node id="-212142" lat="59.061841671" lon="9.78085833089">
		<tag k="name" v="Solvika" />
		<tag k="natural" v="bay" />
		<tag k="ssr:stedsnr" v="631335" />
	</node>
	<node id="-211629" lat="59.0204444474" lon="9.83506111097">
		<tag k="bay" v="fjord" />
		<tag k="name" v="Mørjefjorden" />
		<tag k="natural" v="bay" />
		<tag k="ssr:stedsnr" v="123292" />
	</node>
	<node id="-212135" lat="59.0320611081" lon="9.75187222547">
		<tag k="name" v="Bjørkøya" />
		<tag k="place" v="island" />
		<tag k="ssr:stedsnr" v="608510" />
	</node>
	<node id="-211622" lat="59.0205555574" lon="9.76600555486">
		<tag k="name" v="Hjemmeholmen" />
		<tag k="place" v="islet" />
		<tag k="ssr:stedsnr" v="116340" />
	</node>
	<node id="-211620" lat="59.034447223" lon="9.81206944103">
		<tag k="name" v="Auensbåane" />
		<tag k="place" v="locality" />
		<tag k="seamark:type" v="rock" />
		<tag k="ssr:stedsnr" v="116309" />
	</node>
	<node id="-211618" lat="59.0977277749" lon="9.69465555113">
		<tag k="name" v="Skjelsviktangen" />
		<tag k="natural" v="cape" />
		<tag k="ssr:stedsnr" v="116068" />
	</node>
	<node id="-211617" lat="59.0720944429" lon="9.78758055165">
		<tag k="name" v="Rekøya" />
		<tag k="place" v="islet" />
		<tag k="ssr:stedsnr" v="116001" />
	</node>
	<node id="-212128" lat="59.0255333299" lon="9.75477500756">
		<tag k="name" v="Risøya" />
		<tag k="natural" v="cape" />
		<tag k="ssr:stedsnr" v="608263" />
	</node>
	<node id="-212123" lat="59.0626722246" lon="9.74352499933">
		<tag k="bay" v="fjord" />
		<tag k="name" v="Ormerfjorden" />
		<tag k="natural" v="bay" />
		<tag k="old_name" v="Ormefjorden" />
		<tag k="ssr:stedsnr" v="607416" />
	</node>
	<node id="-211608" lat="59.1096500014" lon="9.70869167101">
		<tag k="name" v="Prestegrunnen" />
		<tag k="natural" v="beach" />
		<tag k="place" v="locality" />
		<tag k="ssr:stedsnr" v="109346" />
	</node>
	<node id="-212109" lat="59.0609583331" lon="9.72746389584">
		<tag k="name" v="Sandøysundet" />
		<tag k="natural" v="strait" />
		<tag k="ssr:stedsnr" v="594385" />
	</node>
	<node id="-211595" lat="59.0145583326" lon="9.77764445068">
		<tag k="name" v="Saueholmen" />
		<tag k="place" v="islet" />
		<tag k="ssr:stedsnr" v="108879" />
	</node>
	<node id="-212106" lat="59.0726972266" lon="9.74004445271">
		<tag k="name" v="Ørjevika" />
		<tag k="natural" v="bay" />
		<tag k="ssr:stedsnr" v="593984" />
	</node>
	<node id="-211592" lat="59.055202775" lon="9.7045722268">
		<tag k="name" v="Setretangen" />
		<tag k="natural" v="cape" />
		<tag k="ssr:stedsnr" v="108843" />
	</node>
	<node id="-212098" lat="59.0877361155" lon="9.80114999663">
		<tag k="name" v="Hjertevika" />
		<tag k="natural" v="bay" />
		<tag k="ssr:stedsnr" v="593877" />
	</node>
	<node id="-212093" lat="59.052500003" lon="9.72233333722">
		<tag k="name" v="Postberget" />
		<tag k="natural" v="cape" />
		<tag k="ssr:stedsnr" v="593937" />
	</node>
	<node id="-212088" lat="59.0228444476" lon="9.75860277221">
		<tag k="name" v="Vestreholmen" />
		<tag k="place" v="islet" />
		<tag k="ssr:stedsnr" v="593551" />
	</node>
	<node id="-212599" lat="59.0601194445" lon="9.72476111669">
		<tag k="name" v="Krosstangen" />
		<tag k="natural" v="cape" />
		<tag k="ssr:stedsnr" v="966459" />
	</node>
	<node id="-212598" lat="59.0100861108" lon="9.82271110569">
		<tag k="fixme" v="consider seamark:type=rock or natural=shoal" />
		<tag k="name" v="Småskjæra" />
		<tag k="place" v="islet" />
		<tag k="ssr:stedsnr" v="966280" />
	</node>
	<node id="-212597" lat="59.015055557" lon="9.80955833336">
		<tag k="name" v="Narholmbåen" />
		<tag k="natural" v="shoal" />
		<tag k="place" v="locality" />
		<tag k="ssr:stedsnr" v="966277" />
	</node>
	<node id="-211572" lat="59.0816416677" lon="9.71629722668">
		<tag k="name" v="Kråkevika" />
		<tag k="natural" v="bay" />
		<tag k="ssr:stedsnr" v="108387" />
	</node>
	<node id="-211569" lat="59.0533388898" lon="9.75808888052">
		<tag k="name" v="Krøsstangen" />
		<tag k="natural" v="cape" />
		<tag k="ssr:stedsnr" v="108042" />
	</node>
	<node id="-211568" lat="59.0134055586" lon="9.77081111307">
		<tag k="name" v="Skjulsholmen" />
		<tag k="place" v="islet" />
		<tag k="ssr:stedsnr" v="108037" />
	</node>
	<node id="-212591" lat="59.0464472228" lon="9.73055554699">
		<tag k="name" v="Breistranda" />
		<tag k="natural" v="beach" />
		<tag k="place" v="locality" />
		<tag k="ssr:stedsnr" v="958446" />
	</node>
	<node id="-212077" lat="59.0248555594" lon="9.76315833583">
		<tag k="name" v="Sivstranda" />
		<tag k="natural" v="bay" />
		<tag k="ssr:stedsnr" v="593042" />
	</node>
	<node id="-212076" lat="59.0183000025" lon="9.76484166554">
		<tag k="name" v="Råholmen" />
		<tag k="place" v="islet" />
		<tag k="ssr:stedsnr" v="593040" />
	</node>
	<node id="-212584" lat="59.08223056" lon="9.79114444992">
		<tag k="name" v="Dypvika" />
		<tag k="natural" v="bay" />
		<tag k="ssr:stedsnr" v="957951" />
	</node>
	<node id="-211556" lat="59.0668749988" lon="9.64450277111">
		<tag k="name" v="Kongkleivbåen" />
		<tag k="place" v="locality" />
		<tag k="seamark:type" v="rock" />
		<tag k="ssr:stedsnr" v="87086" />
	</node>
	<node id="-211573" lat="59.0343777736" lon="9.7749722225">
		<tag k="name" v="Brattholmane" />
		<tag k="place" v="islet" />
		<tag k="ssr:stedsnr" v="108479" />
	</node>
	<node id="-211553" lat="59.0223250002" lon="9.75843333941">
		<tag k="name" v="Risøyholmane" />
		<tag k="place" v="islet" />
		<tag k="ssr:stedsnr" v="85860" />
	</node>
	<node id="-211215" lat="59.044533333" lon="9.73206666282">
		<tag k="name" v="Kalvesundet" />
		<tag k="natural" v="strait" />
		<tag k="ssr:stedsnr" v="350024" />
	</node>
	<node id="-211300" lat="59.0583722266" lon="9.73209721408">
		<tag k="alt_name" v="Lauvøysundet" />
		<tag k="name" v="Løvøysundet" />
		<tag k="natural" v="strait" />
		<tag k="old_name" v="Lauvøysund" />
		<tag k="ssr:stedsnr" v="365473" />
	</node>
	<node id="-211541" lat="59.0563472234" lon="9.77770000374">
		<tag k="name" v="Holandsodden" />
		<tag k="natural" v="cape" />
		<tag k="ssr:stedsnr" v="56506" />
	</node>
	<node id="-211540" lat="59.0609027763" lon="9.74062778405">
		<tag k="name" v="Løvøya, l" />
		<tag k="place" v="islet" />
		<tag k="ssr:stedsnr" v="56497" />
	</node>
	<node id="-211539" lat="59.049474997" lon="9.75195556197">
		<tag k="name" v="Løvøybåane" />
		<tag k="place" v="locality" />
		<tag k="seamark:type" v="rock" />
		<tag k="ssr:stedsnr" v="56453" />
	</node>
	<node id="-211537" lat="59.0379916695" lon="9.77007221362">
		<tag k="name" v="Brattholmbåen" />
		<tag k="natural" v="shoal" />
		<tag k="place" v="locality" />
		<tag k="ssr:stedsnr" v="56342" />
	</node>
	<node id="-211536" lat="59.0111916666" lon="9.81967222534">
		<tag k="name" v="Rislillodden" />
		<tag k="natural" v="cape" />
		<tag k="ssr:stedsnr" v="56278" />
	</node>
	<node id="-212493" lat="59.1223305573" lon="9.63925555304">
		<tag k="bay" v="fjord" />
		<tag k="name" v="Gunnekleivfjorden" />
		<tag k="natural" v="bay" />
		<tag k="ssr:stedsnr" v="851550" />
	</node>
	<node id="-212040" lat="59.0703277766" lon="9.73910277056">
		<tag k="name" v="Bjørkholmen" />
		<tag k="place" v="islet" />
		<tag k="ssr:stedsnr" v="571964" />
	</node>
	<node id="-212039" lat="59.0072333354" lon="9.82521944724">
		<tag k="name" v="Håøytangen" />
		<tag k="natural" v="cape" />
		<tag k="ssr:stedsnr" v="571837" />
	</node>
	<node id="-212038" lat="59.0556320968" lon="9.73953627695">
		<tag k="name" v="Flyndra" />
		<tag k="natural" v="strait" />
		<tag k="ssr:stedsnr" v="571117" />
	</node>
	<node id="-212037" lat="59.0491499972" lon="9.69294444547">
		<tag k="name" v="Brevikstrømmen" />
		<tag k="natural" v="strait" />
		<tag k="ssr:stedsnr" v="571032" />
	</node>
	<node id="-211524" lat="59.0445666661" lon="9.74675833821">
		<tag k="loc_name" v="Orebuktholmen" />
		<tag k="name" v="Oreholmen" />
		<tag k="place" v="islet" />
		<tag k="ssr:stedsnr" v="48393" />
	</node>
	<node id="-211467" lat="59.0526861142" lon="9.79925277261">
		<tag k="name" v="Tjuvåsodden" />
		<tag k="natural" v="cape" />
		<tag k="ssr:stedsnr" v="26035" />
	</node>
	<node id="-211514" lat="59.0349083317" lon="9.7411305533">
		<tag k="name" v="Levra" />
		<tag k="natural" v="cape" />
		<tag k="ssr:stedsnr" v="47942" />
	</node>
	<node id="-211295" lat="59.0482111135" lon="9.78797500734">
		<tag k="name" v="Hønseholmen" />
		<tag k="place" v="islet" />
		<tag k="ssr:stedsnr" v="359352" />
	</node>
	<node id="-211512" lat="59.0553305568" lon="9.75222222399">
		<tag k="name" v="Lortholmen" />
		<tag k="place" v="islet" />
		<tag k="ssr:stedsnr" v="47883" />
	</node>
	<node id="-211511" lat="59.0445444423" lon="9.77795555943">
		<tag k="alt_name" v="Kattholmen" />
		<tag k="name" v="Kattholmane" />
		<tag k="place" v="islet" />
		<tag k="ssr:stedsnr" v="47882" />
	</node>
	<node id="-211977" lat="59.0455666682" lon="9.74932499544">
		<tag k="fixme" v="consider seamark:type=rock or natural=shoal" />
		<tag k="name" v="Brentaskjæra" />
		<tag k="place" v="islet" />
		<tag k="ssr:stedsnr" v="532570" />
	</node>
	<node id="-212020" lat="59.0497888859" lon="9.77796943678">
		<tag k="name" v="Linnatangen" />
		<tag k="natural" v="cape" />
		<tag k="ssr:stedsnr" v="541506" />
	</node>
	<node id="-212531" lat="59.1021361144" lon="9.64965000497">
		<tag k="alt_name" v="Versvikbukta" />
		<tag k="name" v="Versvika" />
		<tag k="natural" v="bay" />
		<tag k="ssr:stedsnr" v="936064" />
	</node>
	<node id="-212018" lat="59.0395750018" lon="9.74792222485">
		<tag k="name" v="Hegnebukta" />
		<tag k="natural" v="bay" />
		<tag k="ssr:stedsnr" v="541361" />
	</node>
	<node id="-212518" lat="59.0640888927" lon="9.7247194505">
		<tag k="name" v="Oksøya" />
		<tag k="place" v="island" />
		<tag k="ssr:stedsnr" v="912480" />
	</node>
	<node id="-211493" lat="59.0454611151" lon="9.80293610438">
		<tag k="name" v="Auenlandet" />
		<tag k="natural" v="beach" />
		<tag k="place" v="locality" />
		<tag k="ssr:stedsnr" v="47597" />
	</node>
	<node id="-212004" lat="59.0343777736" lon="9.7749722225">
		<tag k="name" v="Vestre Brattholmen" />
		<tag k="place" v="islet" />
		<tag k="ssr:stedsnr" v="533200" />
	</node>
	<node id="-211291" lat="59.0701861133" lon="9.7868916676">
		<tag k="name" v="Bjønnhistranda" />
		<tag k="natural" v="beach" />
		<tag k="place" v="locality" />
		<tag k="ssr:stedsnr" v="359005" />
	</node>
	<node id="-211186" lat="59.0534722235" lon="9.77768611111">
		<tag k="name" v="Bjønnesholmen" />
		<tag k="place" v="islet" />
		<tag k="ssr:stedsnr" v="298464" />
	</node>
	<node id="-211996" lat="59.0622666711" lon="9.75296666965">
		<tag k="name" v="Kleivodden" />
		<tag k="natural" v="cape" />
		<tag k="ssr:stedsnr" v="532940" />
	</node>
	<node id="-212507" lat="59.0470972221" lon="9.77900833179">
		<tag k="name" v="Eikenes" />
		<tag k="natural" v="cape" />
		<tag k="ssr:stedsnr" v="905508" />
	</node>
	<node id="-211994" lat="59.0625250005" lon="9.73971945007">
		<tag k="name" v="Grytebeina" />
		<tag k="place" v="islet" />
		<tag k="ssr:stedsnr" v="532911" />
	</node>
	<node id="-211992" lat="59.0609194423" lon="9.72148055968">
		<tag k="name" v="Trompetholmen" />
		<tag k="place" v="islet" />
		<tag k="ssr:stedsnr" v="532878" />
	</node>
	<node id="-212502" lat="59.0927749971" lon="9.69687777423">
		<tag k="name" v="Tangenbukta" />
		<tag k="natural" v="bay" />
		<tag k="ssr:stedsnr" v="876021" />
	</node>
	<node id="-212501" lat="59.0508916661" lon="9.70800554862">
		<tag k="name" v="Blokkhustangen" />
		<tag k="natural" v="cape" />
		<tag k="ssr:stedsnr" v="875093" />
	</node>
	<node id="-211473" lat="59.026930553" lon="9.76163611311">
		<tag k="name" v="Rorholmen" />
		<tag k="place" v="islet" />
		<tag k="ssr:stedsnr" v="267723" />
	</node>
	<node id="-211981" lat="59.0675777808" lon="9.74661389586">
		<tag k="name" v="Rambergodden" />
		<tag k="natural" v="cape" />
		<tag k="ssr:stedsnr" v="532601" />
	</node>
	<node id="-211468" lat="59.0644500029" lon="9.6982749962">
		<tag k="name" v="Ørviktangen" />
		<tag k="natural" v="cape" />
		<tag k="ssr:stedsnr" v="26096" />
	</node>
	<node id="-211979" lat="59.0268888895" lon="9.74905832741">
		<tag k="name" v="Risøyskjæra" />
		<tag k="place" v="islet" />
		<tag k="ssr:stedsnr" v="532595" />
	</node>
	<node id="-211466" lat="59.0459305592" lon="9.80132500585">
		<tag k="fixme" v="consider seamark:type=rock or natural=shoal" />
		<tag k="name" v="Sandstrandskjær" />
		<tag k="place" v="islet" />
		<tag k="ssr:stedsnr" v="26032" />
	</node>
	<node id="-212489" lat="59.0458083378" lon="9.75839166398">
		<tag k="loc_name" v="Hesteholmen" />
		<tag k="name" v="Hestholmen" />
		<tag k="place" v="islet" />
		<tag k="ssr:stedsnr" v="851464" />
	</node>
	<node id="-211464" lat="59.0899111105" lon="9.64085277572">
		<tag k="name" v="Nautelandsbåen" />
		<tag k="place" v="locality" />
		<tag k="seamark:type" v="rock" />
		<tag k="ssr:stedsnr" v="26005" />
	</node>
	<node id="-212487" lat="59.0523999963" lon="9.78754722861">
		<tag k="name" v="Bukkøya" />
		<tag k="place" v="island" />
		<tag k="ssr:stedsnr" v="851408" />
	</node>
	<node id="-211462" lat="59.0294000038" lon="9.7631194366">
		<tag k="name" v="Fiskerholmen" />
		<tag k="natural" v="cape" />
		<tag k="ssr:stedsnr" v="24757" />
	</node>
	<node id="-211973" lat="59.0658222195" lon="9.71865277764">
		<tag k="name" v="Oksøyodden" />
		<tag k="natural" v="cape" />
		<tag k="ssr:stedsnr" v="532039" />
	</node>
	<node id="-212532" lat="59.0459499998" lon="9.73734166548">
		<tag k="name" v="Sandøybukta" />
		<tag k="natural" v="bay" />
		<tag k="ssr:stedsnr" v="936090" />
	</node>
	<node id="-212482" lat="59.0538499996" lon="9.75942499556">
		<tag k="name" v="Krøsstangbukta" />
		<tag k="natural" v="bay" />
		<tag k="ssr:stedsnr" v="845523" />
	</node>
	<node id="-211457" lat="59.0236250022" lon="9.76943610601">
		<tag k="name" v="Siktesøya" />
		<tag k="place" v="island" />
		<tag k="ssr:stedsnr" v="2283" />
	</node>
</osm>
