<?xml version="1.0" encoding="UTF-8"?>
<osm generator="osmapis" version="0.6">
	<node id="-212096" lat="59.1518888857" lon="9.79948332866">
		<tag k="name" v="Rienbekken" />
		<tag k="ssr:stedsnr" v="593805" />
		<tag k="waterway" v="stream" />
	</node>
	<node id="-212071" lat="59.1151000026" lon="9.71383332824">
		<tag k="name" v="Herregårdsbekken" />
		<tag k="ssr:stedsnr" v="592954" />
		<tag k="waterway" v="stream" />
	</node>
	<node id="-212350" lat="59.0793666641" lon="9.69196389333">
		<tag k="name" v="Lundedammen" />
		<tag k="natural" v="water" />
		<tag k="ssr:stedsnr" v="776383" />
	</node>
	<node id="-211668" lat="59.1281416672" lon="9.73096667492">
		<tag k="name" v="Steinbekken" />
		<tag k="ssr:stedsnr" v="168246" />
		<tag k="waterway" v="stream" />
	</node>
	<node id="-212596" lat="59.0577972213" lon="9.82798334148">
		<tag k="name" v="Langevannet" />
		<tag k="natural" v="water" />
		<tag k="ssr:stedsnr" v="965045" />
		<tag k="water" v="lake" />
	</node>
	<node id="-212083" lat="59.150361114" lon="9.69813611463">
		<tag k="name" v="Svinholtdammen nedre" />
		<tag k="natural" v="water" />
		<tag k="ssr:stedsnr" v="593355" />
		<tag k="water" v="pond" />
	</node>
	<node id="-212208" lat="59.1479916695" lon="9.81820277388">
		<tag k="name" v="Småvatna" />
		<tag k="natural" v="water" />
		<tag k="ssr:stedsnr" v="654861" />
		<tag k="water" v="lake" />
	</node>
	<node id="-211694" lat="59.0960111085" lon="9.81511388855">
		<tag k="name" v="Tallaksrudtjønna" />
		<tag k="natural" v="water" />
		<tag k="ssr:stedsnr" v="169301" />
	</node>
	<node id="-211943" lat="59.1752805571" lon="9.87359722037">
		<tag k="name" v="Hustufttjenna" />
		<tag k="natural" v="water" />
		<tag k="ssr:stedsnr" v="487595" />
	</node>
	<node id="-211666" lat="59.1095555564" lon="9.74462776935">
		<tag k="name" v="Lannerdammen" />
		<tag k="natural" v="water" />
		<tag k="ssr:stedsnr" v="168065" />
		<tag k="water" v="lake" />
	</node>
	<node id="-211178" lat="59.1402805594" lon="9.67024445155">
		<tag k="name" v="Oselva" />
		<tag k="ssr:stedsnr" v="291802" />
		<tag k="waterway" v="river" />
	</node>
	<node id="-211945" lat="59.1200194484" lon="9.7457972172">
		<tag k="alt_name" v="Sortilen" />
		<tag k="name" v="Sortilsvatnet" />
		<tag k="natural" v="water" />
		<tag k="ssr:stedsnr" v="487633" />
	</node>
	<node id="-212583" lat="59.160150003" lon="9.75940278462">
		<tag k="name" v="Sagbekken" />
		<tag k="ssr:stedsnr" v="957924" />
		<tag k="waterway" v="stream" />
	</node>
	<node id="-211941" lat="59.1845499971" lon="9.77285555462">
		<tag k="name" v="Loppetjenn" />
		<tag k="natural" v="water" />
		<tag k="ssr:stedsnr" v="487580" />
	</node>
	<node id="-211554" lat="59.0769888849" lon="9.76306666799">
		<tag k="loc_name" v="Gravtjenn" />
		<tag k="name" v="Gravtjern" />
		<tag k="natural" v="water" />
		<tag k="ssr:stedsnr" v="85994" />
	</node>
	<node id="-212577" lat="59.1663833341" lon="9.83940278377">
		<tag k="name" v="Ragnhildrødvann" />
		<tag k="natural" v="water" />
		<tag k="ssr:stedsnr" v="957861" />
		<tag k="water" v="lake" />
	</node>
	<node id="-212453" lat="59.0891416655" lon="9.75875554776">
		<tag k="name" v="Svarttjenn" />
		<tag k="natural" v="water" />
		<tag k="ssr:stedsnr" v="836657" />
	</node>
	<node id="-211548" lat="59.160061114" lon="9.80523333083">
		<tag k="name" v="Hornevann" />
		<tag k="natural" v="water" />
		<tag k="old_name" v="Hornevatn" />
		<tag k="ssr:stedsnr" v="62520" />
	</node>
	<node id="-211674" lat="59.1714361136" lon="9.88480000551">
		<tag k="name" v="Bjønnesodden" />
		<tag k="natural" v="cape" />
		<tag k="ssr:stedsnr" v="168602" />
	</node>
	<node id="-211919" lat="59.0839472209" lon="9.78800832992">
		<tag k="name" v="Slåtta" />
		<tag k="natural" v="water" />
		<tag k="ssr:stedsnr" v="472898" />
	</node>
	<node id="-212568" lat="59.0214583337" lon="9.77895000863">
		<tag k="name" v="Tjuvholet" />
		<tag k="natural" v="bay" />
		<tag k="ssr:stedsnr" v="957061" />
	</node>
	<node id="-211513" lat="59.1359500034" lon="9.63660833236">
		<tag k="name" v="Frednesøya" />
		<tag k="natural" v="cape" />
		<tag k="ssr:stedsnr" v="47937" />
	</node>
	<node id="-212436" lat="59.0722638885" lon="9.68978056328">
		<tag k="name" v="Heistadbekken" />
		<tag k="ssr:stedsnr" v="836336" />
		<tag k="waterway" v="stream" />
	</node>
	<node id="-211667" lat="59.0572944454" lon="9.67755555977">
		<tag k="name" v="Dammane" />
		<tag k="natural" v="water" />
		<tag k="ssr:stedsnr" v="168070" />
		<tag k="water" v="pond" />
	</node>
	<node id="-212050" lat="59.1327277792" lon="9.62554443881">
		<tag k="name" v="Porsgrunnselva" />
		<tag k="ssr:stedsnr" v="589791" />
		<tag k="waterway" v="river" />
	</node>
	<node id="-211665" lat="59.1791805547" lon="9.77418889093">
		<tag k="name" v="Tvittingen" />
		<tag k="natural" v="water" />
		<tag k="ssr:stedsnr" v="168064" />
	</node>
	<node id="-212303" lat="59.0537555588" lon="9.74041944257">
		<tag k="name" v="Smellkjeften" />
		<tag k="natural" v="bay" />
		<tag k="ssr:stedsnr" v="714991" />
	</node>
	<node id="-211917" lat="59.166213889" lon="9.85851666443">
		<tag k="name" v="Bakkepollen" />
		<tag k="natural" v="bay" />
		<tag k="ssr:stedsnr" v="472337" />
	</node>
	<node id="-211402" lat="59.1812555588" lon="9.77894165992">
		<tag k="name" v="Tvittingen" />
		<tag k="natural" v="water" />
		<tag k="ssr:stedsnr" v="896961" />
	</node>
	<node id="-212549" lat="59.0328916644" lon="9.7592944479">
		<tag k="name" v="Brønnbukta" />
		<tag k="natural" v="bay" />
		<tag k="ssr:stedsnr" v="957664" />
	</node>
	<node id="-211780" lat="59.094558331" lon="9.69612777221">
		<tag k="name" v="Tangendammen" />
		<tag k="ssr:stedsnr" v="229921" />
		<tag k="waterway" v="dam" />
	</node>
	<node id="-211894" lat="59.1556777752" lon="9.76054444221">
		<tag k="name" v="Damtjenn" />
		<tag k="natural" v="water" />
		<tag k="ssr:stedsnr" v="471689" />
	</node>
	<node id="-212517" lat="59.0581916695" lon="9.82790277671">
		<tag k="alt_name" v="Langevatnet;Langvatn" />
		<tag k="loc_name" v="Langvann" />
		<tag k="name" v="Langevannet" />
		<tag k="natural" v="water" />
		<tag k="ssr:stedsnr" v="912473" />
	</node>
	<node id="-211187" lat="59.16865833" lon="9.81489999511">
		<tag k="loc_name" v="Setretjenna" />
		<tag k="name" v="Setertjenn" />
		<tag k="natural" v="water" />
		<tag k="ssr:stedsnr" v="304498" />
	</node>
	<node id="-211643" lat="59.1479972243" lon="9.73098610636">
		<tag k="name" v="Lundevann" />
		<tag k="natural" v="water" />
		<tag k="old_name" v="Lundevatn" />
		<tag k="ssr:stedsnr" v="123647" />
	</node>
	<node id="-212281" lat="59.1437583305" lon="9.73433888946">
		<tag k="name" v="Flogstadtjenn" />
		<tag k="natural" v="water" />
		<tag k="ssr:stedsnr" v="714662" />
	</node>
	<node id="-212022" lat="59.1031527785" lon="9.73256111602">
		<tag k="name" v="Rutua" />
		<tag k="ssr:stedsnr" v="547427" />
		<tag k="waterway" v="stream" />
	</node>
	<node id="-211893" lat="59.1113888899" lon="9.83028889315">
		<tag k="name" v="Mellomtjenna" />
		<tag k="natural" v="water" />
		<tag k="ssr:stedsnr" v="471683" />
	</node>
	<node id="-211380" lat="59.140424996" lon="9.64716110352">
		<tag k="name" v="Strømtangskjæret" />
		<tag k="place" v="islet" />
		<tag k="ssr:stedsnr" v="473666" />
	</node>
	<node id="-212403" lat="59.0691749985" lon="9.81349999806">
		<tag k="loc_name" v="Hallvarptjenn" />
		<tag k="name" v="Halvarptjernet" />
		<tag k="natural" v="water" />
		<tag k="ssr:stedsnr" v="790408" />
	</node>
	<node id="-211571" lat="59.148991669" lon="9.73336944231">
		<tag k="name" v="Åleberget" />
		<tag k="natural" v="cape" />
		<tag k="ssr:stedsnr" v="108382" />
	</node>
	<node id="-211504" lat="59.1954111085" lon="9.85158333879">
		<tag k="name" v="Lille Tverrmyrtjenn" />
		<tag k="natural" v="water" />
		<tag k="ssr:stedsnr" v="47675" />
	</node>
	<node id="-212523" lat="59.1771055543" lon="9.89308333238">
		<tag k="alt_name" v="Bjønnesøya" />
		<tag k="name" v="Bjørnnesøya" />
		<tag k="place" v="islet" />
		<tag k="ssr:stedsnr" v="912583" />
	</node>
	<node id="-212138" lat="59.1811111127" lon="9.77862222866">
		<tag k="name" v="Tvittingane" />
		<tag k="natural" v="water" />
		<tag k="ssr:stedsnr" v="608587" />
	</node>
	<node id="-211601" lat="59.0822111155" lon="9.83691111797">
		<tag k="name" v="Nøklegårdbekken" />
		<tag k="ssr:stedsnr" v="108931" />
		<tag k="waterway" v="stream" />
	</node>
	<node id="-212483" lat="59.1072666641" lon="9.83013332775">
		<tag k="loc_name" v="Bjørndalstjenna" />
		<tag k="name" v="Bjørndalstjerna" />
		<tag k="natural" v="water" />
		<tag k="old_name" v="Bjørndalstjernet" />
		<tag k="ssr:stedsnr" v="851372" />
	</node>
	<node id="-211505" lat="59.0932777771" lon="9.7686916611">
		<tag k="name" v="Stulevann" />
		<tag k="natural" v="water" />
		<tag k="ssr:stedsnr" v="47686" />
		<tag k="water" v="lake" />
	</node>
	<node id="-212389" lat="59.0731305573" lon="9.80581388667">
		<tag k="name" v="Slåtta" />
		<tag k="natural" v="water" />
		<tag k="ssr:stedsnr" v="775957" />
	</node>
	<node id="-211364" lat="59.0822777767" lon="9.75303889087">
		<tag k="name" v="Demningane" />
		<tag k="natural" v="water" />
		<tag k="ssr:stedsnr" v="411932" />
		<tag k="water" v="pond" />
	</node>
	<node id="-211599" lat="59.0862861085" lon="9.68085000465">
		<tag k="name" v="Lundebekken" />
		<tag k="ssr:stedsnr" v="108904" />
		<tag k="waterway" v="stream" />
	</node>
	<node id="-212002" lat="59.1520416699" lon="9.7494833342">
		<tag k="name" v="Sagdammen" />
		<tag k="ssr:stedsnr" v="532987" />
		<tag k="waterway" v="dam" />
	</node>
	<node id="-211853" lat="59.1674833364" lon="9.79286666778">
		<tag k="name" v="Fiskeløs" />
		<tag k="natural" v="water" />
		<tag k="ssr:stedsnr" v="426488" />
	</node>
	<node id="-211231" lat="59.0852777771" lon="9.77732499824">
		<tag k="name" v="Almedalstjenna" />
		<tag k="natural" v="water" />
		<tag k="ssr:stedsnr" v="350662" />
	</node>
	<node id="-212254" lat="59.1409166698" lon="9.70084444408">
		<tag k="name" v="Svinholtdammen øvre" />
		<tag k="natural" v="water" />
		<tag k="ssr:stedsnr" v="714054" />
		<tag k="water" v="pond" />
	</node>
	<node id="-211229" lat="59.1437583374" lon="9.79567499921">
		<tag k="name" v="Rønningtjenna" />
		<tag k="natural" v="water" />
		<tag k="ssr:stedsnr" v="350652" />
	</node>
	<node id="-211546" lat="59.0626722249" lon="9.7753833322">
		<tag k="name" v="Dammen" />
		<tag k="natural" v="water" />
		<tag k="ssr:stedsnr" v="62453" />
	</node>
	<node id="-211237" lat="59.0618833334" lon="9.68132499437">
		<tag k="name" v="Dammen" />
		<tag k="ssr:stedsnr" v="350843" />
		<tag k="waterway" v="dam" />
	</node>
	<node id="-211737" lat="59.0738972262" lon="9.65009444122">
		<tag k="alt_name" v="Hitterbekken" />
		<tag k="loc_name" v="Hitterødbekken" />
		<tag k="name" v="Hitterbekk" />
		<tag k="ssr:stedsnr" v="208161" />
		<tag k="waterway" v="stream" />
	</node>
	<node id="-211864" lat="59.185705552" lon="9.79117222391">
		<tag k="name" v="Oklungen" />
		<tag k="natural" v="water" />
		<tag k="ssr:stedsnr" v="427539" />
	</node>
	<node id="-211607" lat="59.0224583353" lon="9.77966945152">
		<tag k="name" v="Sauehamna" />
		<tag k="natural" v="bay" />
		<tag k="ssr:stedsnr" v="109058" />
	</node>
	<node id="-212409" lat="59.1740194408" lon="9.78664721406">
		<tag k="loc_name" v="Nøklevann" />
		<tag k="name" v="Nøklevannet" />
		<tag k="natural" v="water" />
		<tag k="ssr:stedsnr" v="790530" />
	</node>
	<node id="-211604" lat="59.0792277782" lon="9.79606666737">
		<tag k="name" v="Kustrand" />
		<tag k="natural" v="beach" />
		<tag k="ssr:stedsnr" v="108954" />
	</node>
	<node id="-211663" lat="59.0478583336" lon="9.74583611619">
		<tag k="name" v="Kubekken" />
		<tag k="ssr:stedsnr" v="168022" />
		<tag k="waterway" v="stream" />
	</node>
	<node id="-211602" lat="59.0849111071" lon="9.72875555159">
		<tag k="name" v="Rørabekken" />
		<tag k="ssr:stedsnr" v="108932" />
		<tag k="waterway" v="stream" />
	</node>
	<node id="-211729" lat="59.1602611107" lon="9.70013056319">
		<tag k="name" v="Ønnabekken" />
		<tag k="ssr:stedsnr" v="202908" />
		<tag k="waterway" v="stream" />
	</node>
	<node id="-211160" lat="59.1280555579" lon="9.80780277906">
		<tag k="name" v="Viersdalsvannet" />
		<tag k="natural" v="water" />
		<tag k="ssr:stedsnr" v="290629" />
		<tag k="water" v="lake" />
	</node>
	<node id="-211342" lat="59.1202999962" lon="9.7821361128">
		<tag k="name" v="Salbotvatnet" />
		<tag k="natural" v="water" />
		<tag k="ssr:stedsnr" v="411358" />
		<tag k="water" v="lake" />
	</node>
	<node id="-212365" lat="59.1374750037" lon="9.66914166012">
		<tag k="name" v="Leirkup" />
		<tag k="ssr:stedsnr" v="775060" />
		<tag k="waterway" v="river" />
	</node>
	<node id="-212364" lat="59.0452333304" lon="9.74658055465">
		<tag k="name" v="Orebukta" />
		<tag k="natural" v="bay" />
		<tag k="ssr:stedsnr" v="775059" />
	</node>
	<node id="-212528" lat="59.1892777796" lon="9.77099999445">
		<tag k="name" v="Mjøvannsdammen" />
		<tag k="ssr:stedsnr" v="931135" />
		<tag k="waterway" v="dam" />
	</node>
	<node id="-211722" lat="59.1773694411" lon="9.85825277254">
		<tag k="name" v="Harastokktjenna" />
		<tag k="natural" v="water" />
		<tag k="ssr:stedsnr" v="184557" />
	</node>
	<node id="-212232" lat="59.101622222" lon="9.8009138826">
		<tag k="name" v="Ønna" />
		<tag k="ssr:stedsnr" v="669375" />
		<tag k="waterway" v="river" />
	</node>
	<node id="-211974" lat="59.061086115" lon="9.81639722247">
		<tag k="name" v="Svarttjønn" />
		<tag k="natural" v="water" />
		<tag k="ssr:stedsnr" v="532093" />
	</node>
	<node id="-212255" lat="59.1273027749" lon="9.72032499152">
		<tag k="name" v="Bjørkedalsbekken" />
		<tag k="ssr:stedsnr" v="714209" />
		<tag k="waterway" v="stream" />
	</node>
	<node id="-211590" lat="59.1599722243" lon="9.74192777251">
		<tag k="name" v="Siljantjenn" />
		<tag k="natural" v="water" />
		<tag k="ssr:stedsnr" v="108675" />
	</node>
</osm>
