<?xml version="1.0" encoding="UTF-8"?>
<osm generator="osmapis" version="0.6">
	<node id="-492155" lat="60.778608329" lon="4.72838888798">
		<tag k="name" v="Øvsta Vassivarvatnet" />
		<tag k="natural" v="water" />
		<tag k="ssr:stedsnr" v="158154" />
		<tag k="water" v="lake" />
	</node>
	<node id="-492281" lat="60.7707191165" lon="4.73761779516">
		<tag k="name" v="Rekkingedalstjørna" />
		<tag k="natural" v="water" />
		<tag k="ssr:stedsnr" v="705081" />
	</node>
	<node id="-492279" lat="60.7635840624" lon="4.7260429627">
		<tag k="name" v="Tjørnane" />
		<tag k="natural" v="water" />
		<tag k="ssr:stedsnr" v="704119" />
	</node>
	<node id="-492277" lat="60.7620416658" lon="4.71899999169">
		<tag k="name" v="Hammarsvatnet" />
		<tag k="natural" v="water" />
		<tag k="ssr:stedsnr" v="703009" />
		<tag k="water" v="lake" />
	</node>
	<node id="-492276" lat="60.7681027762" lon="4.71378888446">
		<tag k="name" v="Langevasskrokane" />
		<tag k="natural" v="water" />
		<tag k="ssr:stedsnr" v="703001" />
		<tag k="water" v="lake" />
	</node>
	<node id="-492137" lat="60.7657086665" lon="4.73466194016">
		<tag k="name" v="Nordra Fedjebjørnstjørna" />
		<tag k="natural" v="water" />
		<tag k="ssr:stedsnr" v="98112" />
	</node>
	<node id="-492123" lat="60.7688345482" lon="4.71029353276">
		<tag k="name" v="Langevatnet" />
		<tag k="natural" v="water" />
		<tag k="ssr:stedsnr" v="68656" />
	</node>
	<node id="-492242" lat="60.7726014485" lon="4.7225995847">
		<tag k="name" v="Grønevasstjørna" />
		<tag k="natural" v="water" />
		<tag k="ssr:stedsnr" v="583116" />
	</node>
	<node id="-492227" lat="60.7616522276" lon="4.73589393236">
		<tag k="name" v="Søra Fedjebjørnstjørna" />
		<tag k="natural" v="water" />
		<tag k="ssr:stedsnr" v="522121" />
	</node>
	<node id="-492223" lat="60.7763777793" lon="4.71181111922">
		<tag k="name" v="Bonholmen" />
		<tag k="place" v="islet" />
		<tag k="ssr:stedsnr" v="522089" />
	</node>
	<node id="-492087" lat="60.7681996584" lon="4.72009602868">
		<tag k="name" v="Storevasstjørna" />
		<tag k="natural" v="water" />
		<tag k="ssr:stedsnr" v="886006" />
	</node>
	<node id="-492086" lat="60.776241667" lon="4.71948055716">
		<tag k="name" v="Måsholmen" />
		<tag k="place" v="islet" />
		<tag k="ssr:stedsnr" v="401076" />
	</node>
	<node id="-492084" lat="60.7568305575" lon="4.71980276935">
		<tag k="name" v="Småsengsvatnet" />
		<tag k="natural" v="water" />
		<tag k="ssr:stedsnr" v="401011" />
		<tag k="water" v="lake" />
	</node>
	<node id="-492335" lat="60.7746500012" lon="4.71543888842">
		<tag k="name" v="Husavatnet" />
		<tag k="natural" v="water" />
		<tag k="ssr:stedsnr" v="917617" />
		<tag k="water" v="lake" />
	</node>
	<node id="-492204" lat="60.7584694417" lon="4.71033610322">
		<tag k="name" v="Aurihopsvatna" />
		<tag k="natural" v="water" />
		<tag k="ssr:stedsnr" v="462030" />
		<tag k="water" v="lake" />
	</node>
	<node id="-492328" lat="60.7702000018" lon="4.72419166632">
		<tag k="name" v="Storevatnet" />
		<tag k="natural" v="water" />
		<tag k="ssr:stedsnr" v="858238" />
	</node>
	<node id="-492320" lat="60.7773750034" lon="4.72811111747">
		<tag k="name" v="Nedsta Vassivarvatnet" />
		<tag k="natural" v="water" />
		<tag k="ssr:stedsnr" v="826150" />
		<tag k="water" v="lake" />
	</node>
	<node id="-492063" lat="60.7563249985" lon="4.72627777364">
		<tag k="name" v="Sengsvatnet" />
		<tag k="natural" v="water" />
		<tag k="ssr:stedsnr" v="340111" />
		<tag k="water" v="lake" />
	</node>
	<node id="-492061" lat="60.7614643039" lon="4.70959175704">
		<tag k="name" v="Vassviketjørna" />
		<tag k="natural" v="water" />
		<tag k="ssr:stedsnr" v="340080" />
	</node>
	<node id="-492180" lat="60.7642653719" lon="4.7103556585">
		<tag k="name" v="Kroken" />
		<tag k="natural" v="water" />
		<tag k="ssr:stedsnr" v="249640" />
	</node>
	<node id="-492305" lat="60.7662263477" lon="4.72117994681">
		<tag k="name" v="Brurevatna" />
		<tag k="natural" v="water" />
		<tag k="ssr:stedsnr" v="797231" />
		<tag k="water" v="lake" />
	</node>
	<node id="-492174" lat="60.7549646354" lon="4.71791494361">
		<tag k="name" v="Sekkjedalstjørna" />
		<tag k="natural" v="water" />
		<tag k="ssr:stedsnr" v="219032" />
	</node>
	<node id="-492172" lat="60.7624604426" lon="4.736128662">
		<tag k="name" v="Blåbærholmtjørna" />
		<tag k="natural" v="water" />
		<tag k="ssr:stedsnr" v="219121" />
	</node>
</osm>
