<?xml version="1.0" encoding="UTF-8"?>
<osm generator="osmapis" version="0.6">
	<node id="-491520" lat="60.7990083291" lon="4.70246389335">
		<tag k="fixme" v="consider seamark:type=rock or natural=shoal" />
		<tag k="name" v="Nordøyskjeret" />
		<tag k="place" v="islet" />
		<tag k="ssr:stedsnr" v="85786" />
	</node>
	<node id="-491519" lat="60.7744749989" lon="4.68639444481">
		<tag k="name" v="Sandøygrunnen" />
		<tag k="natural" v="shoal" />
		<tag k="place" v="locality" />
		<tag k="ssr:stedsnr" v="85734" />
	</node>
	<node id="-491518" lat="60.765109667" lon="4.69628737638">
		<tag k="fixme" v="consider seamark:type=rock or natural=shoal" />
		<tag k="name" v="Kavringen" />
		<tag k="place" v="islet" />
		<tag k="ssr:stedsnr" v="85727" />
	</node>
	<node id="-491517" lat="60.7788972245" lon="4.71489165799">
		<tag k="name" v="Fedje" />
		<tag k="place" v="village" />
		<tag k="ssr:stedsnr" v="85061" />
	</node>
	<node id="-491516" lat="60.7785832929" lon="4.71696408969">
		<tag k="name" v="Husa" />
		<tag k="place" v="farm" />
		<tag k="ssr:stedsnr" v="81097" />
	</node>
	<node id="-491515" lat="60.7818694426" lon="4.71332500389">
		<tag k="name" v="Steinborg" />
		<tag k="place" v="farm" />
		<tag k="ssr:stedsnr" v="81086" />
	</node>
	<node id="-491514" lat="60.7735138929" lon="4.73685833794">
		<tag k="name" v="Sildevågen" />
		<tag k="natural" v="bay" />
		<tag k="ssr:stedsnr" v="69243" />
	</node>
	<node id="-491513" lat="60.7783805536" lon="4.73863889754">
		<tag k="name" v="Flundrevågen" />
		<tag k="natural" v="bay" />
		<tag k="ssr:stedsnr" v="69015" />
	</node>
	<node id="-491512" lat="60.7688345482" lon="4.71029353276">
		<tag k="name" v="Langevatnet" />
		<tag k="natural" v="water" />
		<tag k="ssr:stedsnr" v="68656" />
	</node>
	<node id="-491511" lat="60.8235555524" lon="4.65865556466">
		<tag k="name" v="Innarsøyane" />
		<tag k="place" v="islet" />
		<tag k="ssr:stedsnr" v="67745" />
	</node>
	<node id="-491510" lat="60.7949027785" lon="4.69392500121">
		<tag k="name" v="Austra Slissøyna" />
		<tag k="place" v="islet" />
		<tag k="ssr:stedsnr" v="67644" />
	</node>
	<node id="-491509" lat="60.8064916666" lon="4.67583611186">
		<tag k="name" v="Håflua" />
		<tag k="natural" v="shoal" />
		<tag k="place" v="locality" />
		<tag k="ssr:stedsnr" v="67640" />
	</node>
	<node id="-491508" lat="60.8439861102" lon="4.65320555381">
		<tag k="name" v="Spaken" />
		<tag k="natural" v="shoal" />
		<tag k="place" v="locality" />
		<tag k="ssr:stedsnr" v="56835" />
	</node>
	<node id="-491507" lat="60.7681888874" lon="4.64964721369">
		<tag k="name" v="Pershammaren" />
		<tag k="natural" v="shoal" />
		<tag k="place" v="locality" />
		<tag k="ssr:stedsnr" v="56798" />
	</node>
	<node id="-491506" lat="60.7608305546" lon="4.74366943618">
		<tag k="name" v="Langøyna" />
		<tag k="place" v="island" />
		<tag k="ssr:stedsnr" v="37152" />
	</node>
	<node id="-491505" lat="60.7591861124" lon="4.72026110334">
		<tag k="name" v="Sengsvasshøyen" />
		<tag k="natural" v="hill" />
		<tag k="place" v="locality" />
		<tag k="ssr:stedsnr" v="37148" />
	</node>
	<node id="-491504" lat="60.7863138912" lon="4.67999166016">
		<tag k="name" v="Flatholmen" />
		<tag k="place" v="islet" />
		<tag k="ssr:stedsnr" v="37141" />
	</node>
	<node id="-491503" lat="60.774074999" lon="4.69830833918">
		<tag k="fixme" v="consider seamark:type=rock or natural=shoal" />
		<tag k="name" v="Otresteinen" />
		<tag k="place" v="islet" />
		<tag k="ssr:stedsnr" v="37131" />
	</node>
	<node id="-491502" lat="60.7877527779" lon="4.68408333384">
		<tag k="name" v="Søre Lyngholmen" />
		<tag k="place" v="islet" />
		<tag k="ssr:stedsnr" v="37124" />
	</node>
	<node id="-491501" lat="60.7736638902" lon="4.70031111027">
		<tag k="name" v="Synselen" />
		<tag k="natural" v="hill" />
		<tag k="place" v="locality" />
		<tag k="ssr:stedsnr" v="24775" />
	</node>
	<node id="-491500" lat="60.7816805566" lon="4.71704166668">
		<tag k="name" v="Grenda" />
		<tag k="place" v="farm" />
		<tag k="ssr:stedsnr" v="21090" />
	</node>
	<node id="-491499" lat="60.7871638888" lon="4.71060555277">
		<tag k="name" v="Skotholmen" />
		<tag k="place" v="farm" />
		<tag k="ssr:stedsnr" v="21083" />
	</node>
	<node id="-491498" lat="60.781774999" lon="4.72006666077">
		<tag k="name" v="Kopper" />
		<tag k="place" v="farm" />
		<tag k="ssr:stedsnr" v="20089" />
	</node>
	<node id="-491497" lat="60.7830027797" lon="4.71549999218">
		<tag k="name" v="Brotet" />
		<tag k="place" v="farm" />
		<tag k="ssr:stedsnr" v="20085" />
	</node>
	<node id="-491496" lat="60.7863613077" lon="4.71561805024">
		<tag k="fixme" v="consider place=hamlet" />
		<tag k="name" v="Moldøyna" />
		<tag k="place" v="farm" />
		<tag k="ssr:stedsnr" v="20078" />
	</node>
	<node id="-491495" lat="60.8145388925" lon="4.61838056135">
		<tag k="name" v="Vårhammarflua" />
		<tag k="natural" v="shoal" />
		<tag k="place" v="locality" />
		<tag k="ssr:stedsnr" v="7728" />
	</node>
	<node id="-491494" lat="60.7774361076" lon="4.67381666684">
		<tag k="name" v="Store Fiskholmen" />
		<tag k="place" v="islet" />
		<tag k="ssr:stedsnr" v="7615" />
	</node>
	<node id="-491493" lat="60.8125305549" lon="4.64838610676">
		<tag k="name" v="Nordra Revet" />
		<tag k="natural" v="shoal" />
		<tag k="place" v="locality" />
		<tag k="ssr:stedsnr" v="7604" />
	</node>
	<node id="-491492" lat="60.8111194425" lon="4.6718777767">
		<tag k="name" v="Meflua" />
		<tag k="natural" v="shoal" />
		<tag k="place" v="locality" />
		<tag k="ssr:stedsnr" v="7602" />
	</node>
	<node id="-491491" lat="60.7806870786" lon="4.716525306">
		<tag k="fixme" v="consider place=hamlet" />
		<tag k="name" v="Fedje" />
		<tag k="place" v="farm" />
		<tag k="ssr:stedsnr" v="989217" />
	</node>
	<node id="-491490" lat="60.7667611091" lon="4.68730524473">
		<tag k="name" v="Søre Islendingen" />
		<tag k="place" v="islet" />
		<tag k="ssr:stedsnr" v="1072119" />
	</node>
	<node id="-491489" lat="60.7783477243" lon="4.69527714375">
		<tag k="name" v="Vidnappen" />
		<tag k="natural" v="cape" />
		<tag k="ssr:stedsnr" v="1072118" />
	</node>
	<node id="-491488" lat="60.7780475658" lon="4.68541197907">
		<tag k="man_made" v="cairn" />
		<tag k="name" v="Nordra Leieskjeret varde" />
		<tag k="place" v="locality" />
		<tag k="ssr:stedsnr" v="1072096" />
	</node>
	<node id="-491487" lat="60.7761527761" lon="4.73153056338">
		<tag k="name" v="Grønehøyen" />
		<tag k="natural" v="hill" />
		<tag k="place" v="locality" />
		<tag k="ssr:stedsnr" v="887119" />
	</node>
	<node id="-491486" lat="60.7874000008" lon="4.68651110951">
		<tag k="name" v="Lyngholmosen" />
		<tag k="natural" v="strait" />
		<tag k="ssr:stedsnr" v="887105" />
	</node>
	<node id="-491485" lat="60.7903333332" lon="4.70592777863">
		<tag k="fixme" v="consider seamark:type=rock or natural=shoal" />
		<tag k="name" v="Ringeskjeret" />
		<tag k="place" v="islet" />
		<tag k="ssr:stedsnr" v="887084" />
	</node>
	<node id="-491484" lat="60.7971749964" lon="4.689727779">
		<tag k="name" v="Rognholmen" />
		<tag k="place" v="islet" />
		<tag k="ssr:stedsnr" v="887083" />
	</node>
	<node id="-491483" lat="60.778125003" lon="4.68636389619">
		<tag k="fixme" v="consider seamark:type=rock or natural=shoal" />
		<tag k="name" v="Nordra Liaskjeret" />
		<tag k="place" v="islet" />
		<tag k="ssr:stedsnr" v="887081" />
	</node>
	<node id="-491482" lat="60.7504083376" lon="4.70842777515">
		<tag k="fixme" v="consider seamark:type=rock or natural=shoal" />
		<tag k="name" v="Teistenakken" />
		<tag k="place" v="islet" />
		<tag k="ssr:stedsnr" v="887035" />
	</node>
	<node id="-491481" lat="60.7681996584" lon="4.72009602868">
		<tag k="name" v="Storevasstjørna" />
		<tag k="natural" v="water" />
		<tag k="ssr:stedsnr" v="886006" />
	</node>
	<node id="-491480" lat="60.776241667" lon="4.71948055716">
		<tag k="name" v="Måsholmen" />
		<tag k="place" v="islet" />
		<tag k="ssr:stedsnr" v="401076" />
	</node>
	<node id="-491479" lat="60.7968388868" lon="4.69280832695">
		<tag k="name" v="Nordøysundet" />
		<tag k="natural" v="strait" />
		<tag k="ssr:stedsnr" v="401027" />
	</node>
	<node id="-491478" lat="60.7568305575" lon="4.71980276935">
		<tag k="name" v="Småsengsvatnet" />
		<tag k="natural" v="water" />
		<tag k="ssr:stedsnr" v="401011" />
		<tag k="water" v="lake" />
	</node>
	<node id="-491477" lat="60.788949997" lon="4.67576389693">
		<tag k="fixme" v="consider seamark:type=rock or natural=shoal" />
		<tag k="name" v="Lyngholmeskjeret" />
		<tag k="place" v="islet" />
		<tag k="ssr:stedsnr" v="400075" />
	</node>
	<node id="-491476" lat="60.780613889" lon="4.72396666115">
		<tag k="name" v="Rognsvågen" />
		<tag k="natural" v="bay" />
		<tag k="ssr:stedsnr" v="388816" />
	</node>
	<node id="-491475" lat="60.7836861088" lon="4.69159167586">
		<tag k="name" v="Karlsøyna" />
		<tag k="place" v="island" />
		<tag k="ssr:stedsnr" v="388815" />
	</node>
	<node id="-491474" lat="60.7784916645" lon="4.68133055454">
		<tag k="fixme" v="consider seamark:type=rock or natural=shoal" />
		<tag k="name" v="Harjen" />
		<tag k="place" v="islet" />
		<tag k="ssr:stedsnr" v="388814" />
	</node>
	<node id="-491473" lat="60.7819722244" lon="4.7182583287">
		<tag k="name" v="Opphaugen" />
		<tag k="place" v="farm" />
		<tag k="ssr:stedsnr" v="385097" />
	</node>
	<node id="-491472" lat="60.7839527768" lon="4.69661944813">
		<tag k="name" v="Hesteneset" />
		<tag k="place" v="farm" />
		<tag k="ssr:stedsnr" v="385018" />
	</node>
	<node id="-491471" lat="60.7797222227" lon="4.7169222291">
		<tag k="name" v="Kopper" />
		<tag k="place" v="farm" />
		<tag k="ssr:stedsnr" v="384117" />
	</node>
	<node id="-491470" lat="60.7789694145" lon="4.7137236659">
		<tag k="name" v="Husa" />
		<tag k="place" v="farm" />
		<tag k="ssr:stedsnr" v="384114" />
	</node>
	<node id="-491469" lat="60.7816775924" lon="4.71394824556">
		<tag k="name" v="Muren" />
		<tag k="place" v="farm" />
		<tag k="ssr:stedsnr" v="384106" />
	</node>
	<node id="-491468" lat="60.8449138853" lon="4.64117222679">
		<tag k="fixme" v="consider seamark:type=rock or natural=shoal" />
		<tag k="name" v="Dubleskjeret" />
		<tag k="place" v="islet" />
		<tag k="ssr:stedsnr" v="371744" />
	</node>
	<node id="-491466" lat="60.7678666702" lon="4.68658055478">
		<tag k="name" v="Islendingane" />
		<tag k="place" v="islet" />
		<tag k="ssr:stedsnr" v="371636" />
	</node>
	<node id="-491465" lat="60.8421305542" lon="4.64048332902">
		<tag k="fixme" v="consider seamark:type=rock or natural=shoal" />
		<tag k="name" v="Ekreskjeret" />
		<tag k="place" v="islet" />
		<tag k="ssr:stedsnr" v="370759" />
	</node>
	<node id="-491464" lat="60.8218638871" lon="4.66171944132">
		<tag k="name" v="Burøyna" />
		<tag k="place" v="island" />
		<tag k="ssr:stedsnr" v="370752" />
	</node>
	<node id="-491463" lat="60.8011499962" lon="4.66744721508">
		<tag k="fixme" v="consider seamark:type=rock or natural=shoal" />
		<tag k="name" v="Store Geitungen" />
		<tag k="place" v="islet" />
		<tag k="ssr:stedsnr" v="370639" />
	</node>
	<node id="-491462" lat="60.81365" lon="4.66377222183">
		<tag k="name" v="Gjøklakken" />
		<tag k="natural" v="shoal" />
		<tag k="place" v="locality" />
		<tag k="ssr:stedsnr" v="370637" />
	</node>
	<node id="-491461" lat="60.8435333379" lon="4.64696667392">
		<tag k="fixme" v="consider seamark:type=rock or natural=shoal" />
		<tag k="name" v="Utrorskjeret" />
		<tag k="place" v="islet" />
		<tag k="ssr:stedsnr" v="359827" />
	</node>
	<node id="-491460" lat="60.8026527751" lon="4.68020555847">
		<tag k="fixme" v="consider seamark:type=rock or natural=shoal" />
		<tag k="name" v="Håfluskjera" />
		<tag k="place" v="islet" />
		<tag k="ssr:stedsnr" v="357132" />
	</node>
	<node id="-491459" lat="60.7837305512" lon="4.7057194411">
		<tag k="name" v="Dansevågen" />
		<tag k="natural" v="bay" />
		<tag k="ssr:stedsnr" v="340126" />
	</node>
	<node id="-491458" lat="60.7602888923" lon="4.70271111269">
		<tag k="fixme" v="consider seamark:type=rock or natural=shoal" />
		<tag k="name" v="Vassvikeskjeret" />
		<tag k="place" v="islet" />
		<tag k="ssr:stedsnr" v="340119" />
	</node>
	<node id="-491457" lat="60.7563249985" lon="4.72627777364">
		<tag k="name" v="Sengsvatnet" />
		<tag k="natural" v="water" />
		<tag k="ssr:stedsnr" v="340111" />
		<tag k="water" v="lake" />
	</node>
	<node id="-491456" lat="60.7873361122" lon="4.68035832855">
		<tag k="fixme" v="consider seamark:type=rock or natural=shoal" />
		<tag k="name" v="Flatholmeskjeret" />
		<tag k="place" v="islet" />
		<tag k="ssr:stedsnr" v="340091" />
	</node>
	<node id="-491455" lat="60.7614643039" lon="4.70959175704">
		<tag k="name" v="Vassviketjørna" />
		<tag k="natural" v="water" />
		<tag k="ssr:stedsnr" v="340080" />
	</node>
	<node id="-491454" lat="60.7689638923" lon="4.71754166091">
		<tag k="name" v="Storevasshøyen" />
		<tag k="natural" v="hill" />
		<tag k="place" v="locality" />
		<tag k="ssr:stedsnr" v="339086" />
	</node>
	<node id="-491453" lat="60.7787527769" lon="4.69107778103">
		<tag k="name" v="Nordre Vidnappen" />
		<tag k="natural" v="cape" />
		<tag k="ssr:stedsnr" v="328834" />
	</node>
	<node id="-491452" lat="60.7772027764" lon="4.67118889337">
		<tag k="name" v="Storeflua" />
		<tag k="natural" v="shoal" />
		<tag k="place" v="locality" />
		<tag k="ssr:stedsnr" v="328830" />
	</node>
	<node id="-491451" lat="60.7825499974" lon="4.71586666044">
		<tag k="name" v="Vika" />
		<tag k="place" v="farm" />
		<tag k="ssr:stedsnr" v="324081" />
	</node>
	<node id="-491450" lat="60.7846194447" lon="4.72782500028">
		<tag k="fixme" v="consider seamark:type=rock or natural=shoal" />
		<tag k="name" v="Vardeskjeret" />
		<tag k="place" v="islet" />
		<tag k="ssr:stedsnr" v="311004" />
	</node>
	<node id="-491449" lat="60.7828472186" lon="4.67333055025">
		<tag k="name" v="Sandholmosen" />
		<tag k="natural" v="strait" />
		<tag k="ssr:stedsnr" v="310645" />
	</node>
	<node id="-491446" lat="60.7868694434" lon="4.65159443561">
		<tag k="name" v="Mågøyskallen" />
		<tag k="natural" v="shoal" />
		<tag k="place" v="locality" />
		<tag k="ssr:stedsnr" v="310640" />
	</node>
	<node id="-491445" lat="60.8294944428" lon="4.65103333595">
		<tag k="name" v="Svartskjerflua" />
		<tag k="natural" v="shoal" />
		<tag k="place" v="locality" />
		<tag k="ssr:stedsnr" v="298803" />
	</node>
	<node id="-491444" lat="60.844563887" lon="4.64966389112">
		<tag k="fixme" v="consider seamark:type=rock or natural=shoal" />
		<tag k="name" v="Skotten" />
		<tag k="place" v="islet" />
		<tag k="ssr:stedsnr" v="298779" />
	</node>
	<node id="-491443" lat="60.7751249961" lon="4.72885278663">
		<tag k="bridge" v="yes" />
		<tag k="layer" v="1" />
		<tag k="name" v="Sildevågen" />
		<tag k="ssr:stedsnr" v="290125" />
	</node>
	<node id="-491442" lat="60.7883666647" lon="4.67436943855">
		<tag k="name" v="Sandholmeklubben" />
		<tag k="place" v="islet" />
		<tag k="ssr:stedsnr" v="280083" />
	</node>
	<node id="-491441" lat="60.7762861094" lon="4.67177221895">
		<tag k="fixme" v="consider seamark:type=rock or natural=shoal" />
		<tag k="name" v="Fiskholmeskjeret" />
		<tag k="place" v="islet" />
		<tag k="ssr:stedsnr" v="280082" />
	</node>
	<node id="-491440" lat="60.7703055597" lon="4.6874361196">
		<tag k="fixme" v="consider seamark:type=rock or natural=shoal" />
		<tag k="name" v="Hella" />
		<tag k="place" v="islet" />
		<tag k="ssr:stedsnr" v="280018" />
	</node>
	<node id="-491439" lat="60.7813845073" lon="4.69379577441">
		<tag k="name" v="Hesthøyen" />
		<tag k="natural" v="hill" />
		<tag k="place" v="locality" />
		<tag k="ssr:stedsnr" v="275714" />
	</node>
	<node id="-491744" lat="60.7822556918" lon="4.71434688721">
		<tag k="amenity" v="ferry_terminal" />
		<tag k="name" v="Fedje ferjekai" />
		<tag k="ssr:stedsnr" v="978595" />
	</node>
	<node id="-491742" lat="60.8219888859" lon="4.65446666203">
		<tag k="name" v="Ljøsøyna" />
		<tag k="place" v="islet" />
		<tag k="ssr:stedsnr" v="966861" />
	</node>
	<node id="-491741" lat="60.7520833337" lon="4.71068332929">
		<tag k="name" v="Hellisøy" />
		<tag k="place" v="locality" />
		<tag k="ssr:stedsnr" v="961271" />
	</node>
	<node id="-491740" lat="60.7640861109" lon="4.74502777942">
		<tag k="name" v="Langøybukta" />
		<tag k="natural" v="bay" />
		<tag k="ssr:stedsnr" v="947117" />
	</node>
	<node id="-491739" lat="60.7831194478" lon="4.68145000549">
		<tag k="name" v="Småklovningane" />
		<tag k="place" v="islet" />
		<tag k="ssr:stedsnr" v="947109" />
	</node>
	<node id="-491738" lat="60.7710611137" lon="4.73115556088">
		<tag k="name" v="Rekkingedalen" />
		<tag k="natural" v="valley" />
		<tag k="place" v="locality" />
		<tag k="ssr:stedsnr" v="947106" />
	</node>
	<node id="-491737" lat="60.780013885" lon="4.69144444942">
		<tag k="name" v="Sildevika" />
		<tag k="natural" v="bay" />
		<tag k="ssr:stedsnr" v="947104" />
	</node>
	<node id="-491736" lat="60.7688805536" lon="4.72451944044">
		<tag k="name" v="Skusle" />
		<tag k="place" v="locality" />
		<tag k="ssr:stedsnr" v="947105" />
	</node>
	<node id="-491735" lat="60.7954638877" lon="4.67157222009">
		<tag k="fixme" v="consider seamark:type=rock or natural=shoal" />
		<tag k="name" v="Gudmundskjeret" />
		<tag k="place" v="islet" />
		<tag k="ssr:stedsnr" v="947083" />
	</node>
	<node id="-491734" lat="60.7709361112" lon="4.70657500541">
		<tag k="fixme" v="consider natural=peak for the most distinct mountains in the district" />
		<tag k="name" v="Såta" />
		<tag k="natural" v="hill" />
		<tag k="ssr:stedsnr" v="947022" />
	</node>
	<node id="-491733" lat="60.7749972259" lon="4.70853610538">
		<tag k="name" v="Lynghøyen" />
		<tag k="natural" v="hill" />
		<tag k="place" v="locality" />
		<tag k="ssr:stedsnr" v="946065" />
	</node>
	<node id="-491732" lat="60.7791777754" lon="4.67243054683">
		<tag k="name" v="Ivarsboen" />
		<tag k="natural" v="shoal" />
		<tag k="place" v="locality" />
		<tag k="ssr:stedsnr" v="935827" />
	</node>
	<node id="-491731" lat="60.7782136551" lon="4.71363408001">
		<tag k="name" v="Husa" />
		<tag k="place" v="farm" />
		<tag k="ssr:stedsnr" v="931093" />
	</node>
	<node id="-491730" lat="60.7835972202" lon="4.72190000043">
		<tag k="name" v="Berge" />
		<tag k="place" v="farm" />
		<tag k="ssr:stedsnr" v="931089" />
	</node>
	<node id="-491729" lat="60.778321954" lon="4.71424771739">
		<tag k="name" v="Husa" />
		<tag k="place" v="farm" />
		<tag k="ssr:stedsnr" v="931090" />
	</node>
	<node id="-491728" lat="60.7848305559" lon="4.70251389652">
		<tag k="name" v="Kongestølen" />
		<tag k="place" v="farm" />
		<tag k="ssr:stedsnr" v="931070" />
	</node>
	<node id="-491727" lat="60.7862447526" lon="4.71388678248">
		<tag k="name" v="Moldøyna" />
		<tag k="place" v="farm" />
		<tag k="ssr:stedsnr" v="931012" />
	</node>
	<node id="-491726" lat="60.7666972184" lon="4.74457221424">
		<tag k="name" v="Langøyneset" />
		<tag k="natural" v="cape" />
		<tag k="ssr:stedsnr" v="918991" />
	</node>
	<node id="-491725" lat="60.765383337" lon="4.67577778331">
		<tag k="name" v="Langboen" />
		<tag k="natural" v="shoal" />
		<tag k="place" v="locality" />
		<tag k="ssr:stedsnr" v="917620" />
	</node>
	<node id="-491724" lat="60.7746500012" lon="4.71543888842">
		<tag k="name" v="Husavatnet" />
		<tag k="natural" v="water" />
		<tag k="ssr:stedsnr" v="917617" />
		<tag k="water" v="lake" />
	</node>
	<node id="-491723" lat="60.7223333307" lon="4.71245277745">
		<tag k="name" v="Stretefluene" />
		<tag k="place" v="locality" />
		<tag k="seamark:type" v="rock" />
		<tag k="ssr:stedsnr" v="905775" />
	</node>
	<node id="-491722" lat="60.8295583293" lon="4.64304999419">
		<tag k="name" v="Frilsøysundet" />
		<tag k="natural" v="strait" />
		<tag k="ssr:stedsnr" v="875077" />
	</node>
	<node id="-491721" lat="60.7571444457" lon="4.74389166285">
		<tag k="name" v="Tareflua" />
		<tag k="natural" v="shoal" />
		<tag k="place" v="locality" />
		<tag k="ssr:stedsnr" v="874780" />
	</node>
	<node id="-491720" lat="60.7804583307" lon="4.72050555548">
		<tag k="name" v="Kopper" />
		<tag k="place" v="farm" />
		<tag k="ssr:stedsnr" v="870100" />
	</node>
	<node id="-491719" lat="60.7810027747" lon="4.71293888546">
		<tag k="name" v="Eide" />
		<tag k="place" v="farm" />
		<tag k="ssr:stedsnr" v="870099" />
	</node>
	<node id="-491718" lat="60.780402778" lon="4.71577222056">
		<tag k="name" v="Kopper" />
		<tag k="place" v="farm" />
		<tag k="ssr:stedsnr" v="870074" />
	</node>
	<node id="-491717" lat="60.7702000018" lon="4.72419166632">
		<tag k="name" v="Storevatnet" />
		<tag k="natural" v="water" />
		<tag k="ssr:stedsnr" v="858238" />
	</node>
	<node id="-491716" lat="60.781475002" lon="4.71470556372">
		<tag k="alt_name" v="Fedje" />
		<tag k="amenity" v="place_of_worship" />
		<tag k="denomination" v="lutheran" />
		<tag k="name" v="Fedje kyrkje" />
		<tag k="religion" v="christian" />
		<tag k="ssr:stedsnr" v="857641" />
	</node>
	<node id="-491715" lat="60.7718333346" lon="4.68632499523">
		<tag k="fixme" v="consider seamark:type=rock or natural=shoal" />
		<tag k="name" v="Oksen" />
		<tag k="place" v="islet" />
		<tag k="ssr:stedsnr" v="857642" />
	</node>
	<node id="-491714" lat="60.8413138889" lon="4.61181388959">
		<tag k="name" v="Grunnefjellet" />
		<tag k="natural" v="shoal" />
		<tag k="place" v="locality" />
		<tag k="ssr:stedsnr" v="856760" />
	</node>
	<node id="-491713" lat="60.780938885" lon="4.67436944235">
		<tag k="name" v="Lisle Fiskholmen" />
		<tag k="place" v="islet" />
		<tag k="ssr:stedsnr" v="856653" />
	</node>
	<node id="-491712" lat="60.8015861155" lon="4.63982500746">
		<tag k="name" v="Vassvikeskallen" />
		<tag k="natural" v="shoal" />
		<tag k="place" v="locality" />
		<tag k="ssr:stedsnr" v="856650" />
	</node>
	<node id="-491711" lat="60.8015722249" lon="4.65701667119">
		<tag k="name" v="Kloveflua" />
		<tag k="natural" v="shoal" />
		<tag k="place" v="locality" />
		<tag k="ssr:stedsnr" v="845891" />
	</node>
	<node id="-491710" lat="60.8311763597" lon="4.62914408154">
		<tag k="name" v="Kabelflua" />
		<tag k="natural" v="shoal" />
		<tag k="place" v="locality" />
		<tag k="ssr:stedsnr" v="843706" />
	</node>
	<node id="-491709" lat="60.7773750034" lon="4.72811111747">
		<tag k="name" v="Nedsta Vassivarvatnet" />
		<tag k="natural" v="water" />
		<tag k="ssr:stedsnr" v="826150" />
		<tag k="water" v="lake" />
	</node>
	<node id="-491708" lat="60.7587416684" lon="4.7438083346">
		<tag k="name" v="Mortevika" />
		<tag k="natural" v="bay" />
		<tag k="ssr:stedsnr" v="826148" />
	</node>
	<node id="-491707" lat="60.7961361071" lon="4.68779999559">
		<tag k="name" v="Nordre Flotten" />
		<tag k="place" v="islet" />
		<tag k="ssr:stedsnr" v="826123" />
	</node>
	<node id="-491706" lat="60.7989666648" lon="4.70285556111">
		<tag k="fixme" v="consider seamark:type=rock or natural=shoal" />
		<tag k="name" v="Lisla Nordøyskjeret" />
		<tag k="place" v="islet" />
		<tag k="ssr:stedsnr" v="826118" />
	</node>
	<node id="-491705" lat="60.7895944409" lon="4.6887555611">
		<tag k="name" v="Klubben" />
		<tag k="place" v="islet" />
		<tag k="ssr:stedsnr" v="826034" />
	</node>
	<node id="-491704" lat="60.7884499979" lon="4.66670277301">
		<tag k="name" v="Mågøyosen" />
		<tag k="natural" v="strait" />
		<tag k="ssr:stedsnr" v="826032" />
	</node>
	<node id="-491703" lat="60.7768805546" lon="4.70140555095">
		<tag k="name" v="Straumshøyen" />
		<tag k="natural" v="hill" />
		<tag k="place" v="locality" />
		<tag k="ssr:stedsnr" v="826022" />
	</node>
	<node id="-491702" lat="60.7885388866" lon="4.69480277724">
		<tag k="name" v="Stora Karijelto" />
		<tag k="place" v="islet" />
		<tag k="ssr:stedsnr" v="825050" />
	</node>
	<node id="-491701" lat="60.796458333" lon="4.64711388769">
		<tag k="name" v="Klovnakkene" />
		<tag k="natural" v="shoal" />
		<tag k="place" v="locality" />
		<tag k="ssr:stedsnr" v="814375" />
	</node>
	<node id="-491700" lat="60.7945777808" lon="4.70366667156">
		<tag k="name" v="Grisholmsundet" />
		<tag k="natural" v="strait" />
		<tag k="ssr:stedsnr" v="813817" />
	</node>
	<node id="-491699" lat="60.8074222203" lon="4.66226110532">
		<tag k="name" v="Nordra Fallet" />
		<tag k="natural" v="shoal" />
		<tag k="place" v="locality" />
		<tag k="ssr:stedsnr" v="813815" />
	</node>
	<node id="-491698" lat="60.761080555" lon="4.70549166879">
		<tag k="name" v="Løynevågen" />
		<tag k="natural" v="bay" />
		<tag k="ssr:stedsnr" v="813761" />
	</node>
	<node id="-491697" lat="60.7831882276" lon="4.71710323826">
		<tag k="name" v="Børen" />
		<tag k="place" v="farm" />
		<tag k="ssr:stedsnr" v="810097" />
	</node>
	<node id="-491696" lat="60.7765111782" lon="4.70560207893">
		<tag k="fixme" v="consider place=hamlet" />
		<tag k="name" v="Træsneset" />
		<tag k="place" v="farm" />
		<tag k="ssr:stedsnr" v="810089" />
	</node>
	<node id="-491695" lat="60.7781250036" lon="4.69727221463">
		<tag k="name" v="Langedalen" />
		<tag k="place" v="farm" />
		<tag k="ssr:stedsnr" v="810005" />
	</node>
	<node id="-491694" lat="60.7662263477" lon="4.72117994681">
		<tag k="name" v="Brurevatna" />
		<tag k="natural" v="water" />
		<tag k="ssr:stedsnr" v="797231" />
		<tag k="water" v="lake" />
	</node>
	<node id="-491693" lat="60.7754611128" lon="4.74335277089">
		<tag k="name" v="Hovden" />
		<tag k="place" v="island" />
		<tag k="ssr:stedsnr" v="797025" />
	</node>
	<node id="-491692" lat="60.8446138922" lon="4.63271666909">
		<tag k="fixme" v="consider seamark:type=rock or natural=shoal" />
		<tag k="name" v="Flåskjeret" />
		<tag k="place" v="islet" />
		<tag k="ssr:stedsnr" v="796757" />
	</node>
	<node id="-491691" lat="60.8239277825" lon="4.66421667402">
		<tag k="name" v="Hovden" />
		<tag k="place" v="islet" />
		<tag k="ssr:stedsnr" v="795749" />
	</node>
	<node id="-491690" lat="60.795044448" lon="4.660275008">
		<tag k="fixme" v="consider seamark:type=rock or natural=shoal" />
		<tag k="name" v="Gauteskjeret" />
		<tag k="place" v="islet" />
		<tag k="ssr:stedsnr" v="795661" />
	</node>
	<node id="-491689" lat="60.8182083317" lon="4.64737499722">
		<tag k="name" v="Fostro" />
		<tag k="natural" v="shoal" />
		<tag k="place" v="locality" />
		<tag k="ssr:stedsnr" v="795656" />
	</node>
	<node id="-491688" lat="60.7579416707" lon="4.74411666666">
		<tag k="fixme" v="consider seamark:type=rock or natural=shoal" />
		<tag k="name" v="Mortevikskjeret" />
		<tag k="place" v="islet" />
		<tag k="ssr:stedsnr" v="784814" />
	</node>
	<node id="-491687" lat="60.7831194451" lon="4.70976389013">
		<tag k="name" v="Kremmarholmen" />
		<tag k="place" v="islet" />
		<tag k="ssr:stedsnr" v="768254" />
	</node>
	<node id="-491686" lat="60.7905194467" lon="4.70332778015">
		<tag k="name" v="Moldøyholmen" />
		<tag k="place" v="islet" />
		<tag k="ssr:stedsnr" v="765113" />
	</node>
	<node id="-491685" lat="60.8006277793" lon="4.68935554691">
		<tag k="fixme" v="consider seamark:type=rock or natural=shoal" />
		<tag k="name" v="Teieskjeret" />
		<tag k="place" v="islet" />
		<tag k="ssr:stedsnr" v="765036" />
	</node>
	<node id="-491684" lat="60.7899222184" lon="4.6911388911">
		<tag k="name" v="Nordra Karijelto" />
		<tag k="place" v="islet" />
		<tag k="ssr:stedsnr" v="764073" />
	</node>
	<node id="-491683" lat="60.7784916645" lon="4.68133055454">
		<tag k="fixme" v="consider seamark:type=rock or natural=shoal" />
		<tag k="name" v="Argen" />
		<tag k="place" v="islet" />
		<tag k="ssr:stedsnr" v="760729" />
	</node>
	<node id="-491682" lat="60.8060638889" lon="4.66502222617">
		<tag k="name" v="Søra Fallet" />
		<tag k="natural" v="shoal" />
		<tag k="place" v="locality" />
		<tag k="ssr:stedsnr" v="753800" />
	</node>
	<node id="-491681" lat="60.7528416682" lon="4.69843611975">
		<tag k="name" v="Nordre Hellesøyskallen" />
		<tag k="natural" v="shoal" />
		<tag k="place" v="locality" />
		<tag k="ssr:stedsnr" v="752736" />
	</node>
	<node id="-491680" lat="60.7448944402" lon="4.65806110911">
		<tag k="name" v="Grunneskallen" />
		<tag k="natural" v="shoal" />
		<tag k="place" v="locality" />
		<tag k="ssr:stedsnr" v="752229" />
	</node>
	<node id="-491679" lat="60.783405558" lon="4.71814443693">
		<tag k="name" v="Nord-Tangen" />
		<tag k="place" v="farm" />
		<tag k="ssr:stedsnr" v="749061" />
	</node>
	<node id="-491678" lat="60.7538499992" lon="4.71832777496">
		<tag k="name" v="Fjellheim" />
		<tag k="place" v="farm" />
		<tag k="ssr:stedsnr" v="749057" />
	</node>
	<node id="-491677" lat="60.7824722262" lon="4.72086389362">
		<tag k="name" v="Nedst-Tangen" />
		<tag k="place" v="farm" />
		<tag k="ssr:stedsnr" v="748088" />
	</node>
	<node id="-491676" lat="60.7743500017" lon="4.6744916672">
		<tag k="name" v="Skjeljeflunakken" />
		<tag k="natural" v="shoal" />
		<tag k="place" v="locality" />
		<tag k="ssr:stedsnr" v="735634" />
	</node>
	<node id="-491675" lat="60.7848222209" lon="4.69140278175">
		<tag k="name" v="Skarvøyosen" />
		<tag k="natural" v="strait" />
		<tag k="ssr:stedsnr" v="735631" />
	</node>
	<node id="-491674" lat="60.7939527822" lon="4.67756944986">
		<tag k="name" v="Lyngmågøyna" />
		<tag k="place" v="islet" />
		<tag k="ssr:stedsnr" v="735626" />
	</node>
	<node id="-491673" lat="60.8039916705" lon="4.67963887975">
		<tag k="fixme" v="consider seamark:type=rock or natural=shoal" />
		<tag k="name" v="Lisla Håfluskjeret" />
		<tag k="place" v="islet" />
		<tag k="ssr:stedsnr" v="735622" />
	</node>
	<node id="-491672" lat="60.7599111074" lon="4.70581389547">
		<tag k="name" v="Vassvikskjeret" />
		<tag k="place" v="islet" />
		<tag k="ssr:stedsnr" v="723845" />
	</node>
	<node id="-491671" lat="60.8409083377" lon="4.62925000569">
		<tag k="name" v="Ivarsnakken" />
		<tag k="natural" v="shoal" />
		<tag k="place" v="locality" />
		<tag k="ssr:stedsnr" v="723824" />
	</node>
	<node id="-491670" lat="60.7707191165" lon="4.73761779516">
		<tag k="name" v="Rekkingedalstjørna" />
		<tag k="natural" v="water" />
		<tag k="ssr:stedsnr" v="705081" />
	</node>
	<node id="-491669" lat="60.7865805581" lon="4.70631389517">
		<tag k="name" v="Kyrkjevågen" />
		<tag k="natural" v="bay" />
		<tag k="ssr:stedsnr" v="704013" />
	</node>
	<node id="-491668" lat="60.7635840624" lon="4.7260429627">
		<tag k="name" v="Tjørnane" />
		<tag k="natural" v="water" />
		<tag k="ssr:stedsnr" v="704119" />
	</node>
	<node id="-491667" lat="60.7942277742" lon="4.68691666899">
		<tag k="alt_name" v="Flotten" />
		<tag k="name" v="Søre Flotten" />
		<tag k="place" v="islet" />
		<tag k="ssr:stedsnr" v="703075" />
	</node>
	<node id="-491666" lat="60.7620416658" lon="4.71899999169">
		<tag k="name" v="Hammarsvatnet" />
		<tag k="natural" v="water" />
		<tag k="ssr:stedsnr" v="703009" />
		<tag k="water" v="lake" />
	</node>
	<node id="-491665" lat="60.7681027762" lon="4.71378888446">
		<tag k="name" v="Langevasskrokane" />
		<tag k="natural" v="water" />
		<tag k="ssr:stedsnr" v="703001" />
		<tag k="water" v="lake" />
	</node>
	<node id="-491664" lat="60.7841972211" lon="4.70493055404">
		<tag k="name" v="Vestre Vågen" />
		<tag k="natural" v="bay" />
		<tag k="ssr:stedsnr" v="692934" />
	</node>
	<node id="-491663" lat="60.7759749996" lon="4.69332778052">
		<tag k="name" v="Søre Vidnappen" />
		<tag k="natural" v="cape" />
		<tag k="ssr:stedsnr" v="692830" />
	</node>
	<node id="-491662" lat="60.7811638906" lon="4.6858055478">
		<tag k="name" v="Argeskjeret" />
		<tag k="natural" v="shoal" />
		<tag k="place" v="locality" />
		<tag k="ssr:stedsnr" v="692826" />
	</node>
	<node id="-491661" lat="60.7893861109" lon="4.70668055101">
		<tag k="name" v="Moldøyosen" />
		<tag k="natural" v="strait" />
		<tag k="ssr:stedsnr" v="692820" />
	</node>
	<node id="-491660" lat="60.7965027758" lon="4.68304165882">
		<tag k="name" v="Nåla" />
		<tag k="place" v="islet" />
		<tag k="ssr:stedsnr" v="692817" />
	</node>
	<node id="-491659" lat="60.7569111103" lon="4.70952221661">
		<tag k="name" v="Aurihopen" />
		<tag k="natural" v="bay" />
		<tag k="ssr:stedsnr" v="692777" />
	</node>
	<node id="-491658" lat="60.7656083311" lon="4.74456944863">
		<tag k="name" v="Gulenakken" />
		<tag k="natural" v="cape" />
		<tag k="ssr:stedsnr" v="692775" />
	</node>
	<node id="-491657" lat="60.7663166632" lon="4.69135278116">
		<tag k="name" v="Hatteboen" />
		<tag k="natural" v="shoal" />
		<tag k="place" v="locality" />
		<tag k="ssr:stedsnr" v="692763" />
	</node>
	<node id="-491656" lat="60.7725555527" lon="4.72457777866">
		<tag k="name" v="Nygård" />
		<tag k="place" v="farm" />
		<tag k="ssr:stedsnr" v="688065" />
	</node>
	<node id="-491655" lat="60.8389027803" lon="4.62664444805">
		<tag k="name" v="Nordosflua" />
		<tag k="natural" v="shoal" />
		<tag k="place" v="locality" />
		<tag k="ssr:stedsnr" v="674753" />
	</node>
	<node id="-491654" lat="60.8434555584" lon="4.64270000009">
		<tag k="fixme" v="consider seamark:type=rock or natural=shoal" />
		<tag k="name" v="Gygra" />
		<tag k="place" v="islet" />
		<tag k="ssr:stedsnr" v="674743" />
	</node>
	<node id="-491653" lat="60.7851361121" lon="4.66906666528">
		<tag k="name" v="Hatlenipen" />
		<tag k="place" v="islet" />
		<tag k="ssr:stedsnr" v="674641" />
	</node>
	<node id="-491652" lat="60.7871055512" lon="4.67192500057">
		<tag k="name" v="Sandholmen" />
		<tag k="place" v="islet" />
		<tag k="ssr:stedsnr" v="674638" />
	</node>
	<node id="-491651" lat="60.7940305533" lon="4.69089721436">
		<tag k="name" v="Vestra Slissøyna" />
		<tag k="place" v="islet" />
		<tag k="ssr:stedsnr" v="674636" />
	</node>
	<node id="-491650" lat="60.8003944482" lon="4.68952499483">
		<tag k="fixme" v="consider seamark:type=rock or natural=shoal" />
		<tag k="name" v="Terneskjera" />
		<tag k="place" v="islet" />
		<tag k="ssr:stedsnr" v="674634" />
	</node>
	<node id="-491649" lat="60.7830222232" lon="4.73185555902">
		<tag k="name" v="Stongevågen" />
		<tag k="natural" v="bay" />
		<tag k="ssr:stedsnr" v="643133" />
	</node>
	<node id="-491648" lat="60.7862611147" lon="4.70283332486">
		<tag k="name" v="Lislemulen" />
		<tag k="natural" v="cape" />
		<tag k="ssr:stedsnr" v="643131" />
	</node>
	<node id="-491647" lat="60.7919472263" lon="4.65940832666">
		<tag k="fixme" v="consider seamark:type=rock or natural=shoal" />
		<tag k="name" v="Ytsta Mågøyskjeret" />
		<tag k="place" v="islet" />
		<tag k="ssr:stedsnr" v="643027" />
	</node>
	<node id="-491646" lat="60.7824277813" lon="4.69051666983">
		<tag k="name" v="Karlsøysundet" />
		<tag k="natural" v="strait" />
		<tag k="ssr:stedsnr" v="642004" />
	</node>
	<node id="-491645" lat="60.7775749998" lon="4.69138332729">
		<tag k="name" v="Vidnappsvika" />
		<tag k="natural" v="bay" />
		<tag k="ssr:stedsnr" v="642001" />
	</node>
	<node id="-491644" lat="60.7891999986" lon="4.68047499779">
		<tag k="name" v="Lyngholmane" />
		<tag k="place" v="islet" />
		<tag k="ssr:stedsnr" v="631845" />
	</node>
	<node id="-491643" lat="60.792755552" lon="4.70297222626">
		<tag k="name" v="Hellsøyna" />
		<tag k="place" v="island" />
		<tag k="ssr:stedsnr" v="631842" />
	</node>
	<node id="-491642" lat="60.7952861112" lon="4.70108888591">
		<tag k="name" v="Grisholmen" />
		<tag k="place" v="islet" />
		<tag k="ssr:stedsnr" v="631841" />
	</node>
	<node id="-491641" lat="60.7728111084" lon="4.74181110533">
		<tag k="name" v="Hjeltevardneset" />
		<tag k="natural" v="cape" />
		<tag k="ssr:stedsnr" v="631774" />
	</node>
	<node id="-491640" lat="60.7599583364" lon="4.693530553">
		<tag k="name" v="Djupeflua" />
		<tag k="natural" v="shoal" />
		<tag k="place" v="locality" />
		<tag k="ssr:stedsnr" v="630724" />
	</node>
	<node id="-491639" lat="60.7833254711" lon="4.71664179251">
		<tag k="name" v="Børhaugen" />
		<tag k="place" v="farm" />
		<tag k="ssr:stedsnr" v="627093" />
	</node>
	<node id="-491638" lat="60.7816611103" lon="4.71496667396">
		<tag k="name" v="Blåstokken" />
		<tag k="natural" v="hill" />
		<tag k="place" v="locality" />
		<tag k="ssr:stedsnr" v="627082" />
	</node>
	<node id="-491637" lat="60.7633750026" lon="4.73486111552">
		<tag k="name" v="Fedjebjørnen" />
		<tag k="natural" v="hill" />
		<tag k="place" v="locality" />
		<tag k="ssr:stedsnr" v="615220" />
	</node>
	<node id="-491636" lat="60.7860238956" lon="4.715753857">
		<tag k="name" v="Moldøyna" />
		<tag k="place" v="islet" />
		<tag k="ssr:stedsnr" v="614010" />
	</node>
	<node id="-491635" lat="60.8282999959" lon="4.63863332728">
		<tag k="name" v="Stora Frilsøyna" />
		<tag k="place" v="island" />
		<tag k="ssr:stedsnr" v="613736" />
	</node>
	<node id="-491634" lat="60.7980055523" lon="4.69680277564">
		<tag k="name" v="Nordøyna" />
		<tag k="place" v="islet" />
		<tag k="ssr:stedsnr" v="613625" />
	</node>
	<node id="-491633" lat="60.8050499993" lon="4.64799999887">
		<tag k="name" v="Revnakken" />
		<tag k="natural" v="shoal" />
		<tag k="place" v="locality" />
		<tag k="ssr:stedsnr" v="613621" />
	</node>
	<node id="-491632" lat="60.7997000041" lon="4.67957221568">
		<tag k="name" v="Kjøholmen" />
		<tag k="place" v="islet" />
		<tag k="ssr:stedsnr" v="598838" />
	</node>
	<node id="-491631" lat="60.7726014485" lon="4.7225995847">
		<tag k="name" v="Grønevasstjørna" />
		<tag k="natural" v="water" />
		<tag k="ssr:stedsnr" v="583116" />
	</node>
	<node id="-491630" lat="60.7646749976" lon="4.71936111493">
		<tag k="name" v="Fagrevollen" />
		<tag k="place" v="locality" />
		<tag k="ssr:stedsnr" v="583114" />
	</node>
	<node id="-491629" lat="60.7823250016" lon="4.70153610363">
		<tag k="name" v="Sulen" />
		<tag k="place" v="farm" />
		<tag k="ssr:stedsnr" v="583071" />
	</node>
	<node id="-491628" lat="60.8008527774" lon="4.67176389032">
		<tag k="fixme" v="consider seamark:type=rock or natural=shoal" />
		<tag k="name" v="Lisle Geitungen" />
		<tag k="place" v="islet" />
		<tag k="ssr:stedsnr" v="570811" />
	</node>
	<node id="-491627" lat="60.761119445" lon="4.74786666684">
		<tag k="name" v="Langøyflua" />
		<tag k="natural" v="shoal" />
		<tag k="place" v="locality" />
		<tag k="ssr:stedsnr" v="570764" />
	</node>
	<node id="-491626" lat="60.7681833345" lon="4.69768333696">
		<tag k="name" v="Kvalvika" />
		<tag k="natural" v="bay" />
		<tag k="ssr:stedsnr" v="570754" />
	</node>
	<node id="-491625" lat="60.7777361073" lon="4.7375249928">
		<tag k="name" v="Midt-Tangen" />
		<tag k="place" v="farm" />
		<tag k="ssr:stedsnr" v="566077" />
	</node>
	<node id="-491624" lat="60.7583396347" lon="4.74032055055">
		<tag k="fixme" v="consider place=hamlet" />
		<tag k="name" v="Stormark" />
		<tag k="place" v="farm" />
		<tag k="ssr:stedsnr" v="554201" />
	</node>
	<node id="-491623" lat="60.7597249971" lon="4.70820555299">
		<tag k="name" v="Vassvika" />
		<tag k="natural" v="bay" />
		<tag k="ssr:stedsnr" v="553660" />
	</node>
	<node id="-491622" lat="60.7683749964" lon="4.67261943692">
		<tag k="name" v="Suleflua" />
		<tag k="natural" v="shoal" />
		<tag k="place" v="locality" />
		<tag k="ssr:stedsnr" v="553655" />
	</node>
	<node id="-491621" lat="60.7767305569" lon="4.68833333195">
		<tag k="fixme" v="consider seamark:type=rock or natural=shoal" />
		<tag k="name" v="Søra Leieskjeret" />
		<tag k="place" v="islet" />
		<tag k="ssr:stedsnr" v="552684" />
	</node>
	<node id="-491620" lat="60.7869361133" lon="4.69032500199">
		<tag k="name" v="Skarvøyna" />
		<tag k="place" v="islet" />
		<tag k="ssr:stedsnr" v="552683" />
	</node>
	<node id="-491619" lat="60.8020166641" lon="4.68170832752">
		<tag k="fixme" v="consider seamark:type=rock or natural=shoal" />
		<tag k="name" v="Stora Håfluskjeret" />
		<tag k="place" v="islet" />
		<tag k="ssr:stedsnr" v="552677" />
	</node>
	<node id="-491618" lat="60.8077444451" lon="4.65589999235">
		<tag k="fixme" v="consider seamark:type=rock or natural=shoal" />
		<tag k="name" v="Ribbeskjera" />
		<tag k="place" v="islet" />
		<tag k="ssr:stedsnr" v="552676" />
	</node>
	<node id="-491617" lat="60.7797000016" lon="4.70603055982">
		<tag k="name" v="Pollen" />
		<tag k="natural" v="bay" />
		<tag k="ssr:stedsnr" v="541769" />
	</node>
	<node id="-491616" lat="60.7616522276" lon="4.73589393236">
		<tag k="name" v="Søra Fedjebjørnstjørna" />
		<tag k="natural" v="water" />
		<tag k="ssr:stedsnr" v="522121" />
	</node>
	<node id="-491615" lat="60.795136109" lon="4.67936111029">
		<tag k="name" v="Nålevågen" />
		<tag k="natural" v="bay" />
		<tag k="ssr:stedsnr" v="522113" />
	</node>
	<node id="-491614" lat="60.7854111116" lon="4.72309166186">
		<tag k="name" v="Kisteneset" />
		<tag k="natural" v="cape" />
		<tag k="ssr:stedsnr" v="522103" />
	</node>
	<node id="-491613" lat="60.7715611107" lon="4.73971389658">
		<tag k="name" v="Terneneset" />
		<tag k="natural" v="cape" />
		<tag k="ssr:stedsnr" v="522096" />
	</node>
	<node id="-491612" lat="60.7763777793" lon="4.71181111922">
		<tag k="name" v="Bonholmen" />
		<tag k="place" v="islet" />
		<tag k="ssr:stedsnr" v="522089" />
	</node>
	<node id="-491611" lat="60.8430361153" lon="4.65108889002">
		<tag k="name" v="Holmengrå" />
		<tag k="place" v="islet" />
		<tag k="ssr:stedsnr" v="511362" />
	</node>
	<node id="-491610" lat="60.7819666632" lon="4.69237500664">
		<tag k="name" v="Hestevågen" />
		<tag k="natural" v="bay" />
		<tag k="ssr:stedsnr" v="510862" />
	</node>
	<node id="-491609" lat="60.797005559" lon="4.70422500578">
		<tag k="fixme" v="consider seamark:type=rock or natural=shoal" />
		<tag k="name" v="Grisholmskjeret" />
		<tag k="place" v="islet" />
		<tag k="ssr:stedsnr" v="510854" />
	</node>
	<node id="-491608" lat="60.7489611121" lon="4.70472500305">
		<tag k="name" v="Hellesøyflua" />
		<tag k="natural" v="shoal" />
		<tag k="place" v="locality" />
		<tag k="ssr:stedsnr" v="509746" />
	</node>
	<node id="-491607" lat="60.7644916671" lon="4.69782776909">
		<tag k="name" v="Halsen" />
		<tag k="natural" v="cape" />
		<tag k="ssr:stedsnr" v="509730" />
	</node>
	<node id="-491606" lat="60.7820722236" lon="4.71405000258">
		<tag k="name" v="Stuberg" />
		<tag k="place" v="farm" />
		<tag k="ssr:stedsnr" v="506099" />
	</node>
	<node id="-491605" lat="60.7802254493" lon="4.70403485045">
		<tag k="fixme" v="consider place=hamlet" />
		<tag k="name" v="Kremmarholmen" />
		<tag k="place" v="farm" />
		<tag k="ssr:stedsnr" v="506094" />
	</node>
	<node id="-491603" lat="60.8274916683" lon="4.65559721787">
		<tag k="fixme" v="consider seamark:type=rock or natural=shoal" />
		<tag k="name" v="Svartskjeret" />
		<tag k="place" v="islet" />
		<tag k="ssr:stedsnr" v="492731" />
	</node>
	<node id="-491602" lat="60.8235194434" lon="4.64115555557">
		<tag k="name" v="Humreboflua" />
		<tag k="natural" v="shoal" />
		<tag k="place" v="locality" />
		<tag k="ssr:stedsnr" v="492729" />
	</node>
	<node id="-491601" lat="60.7358749958" lon="4.76193055153">
		<tag k="bay" v="fjord" />
		<tag k="name" v="Fedjeosen" />
		<tag k="natural" v="bay" />
		<tag k="ssr:stedsnr" v="492659" />
	</node>
	<node id="-491600" lat="60.7676805579" lon="4.71508334202">
		<tag k="name" v="Fedje" />
		<tag k="place" v="island" />
		<tag k="ssr:stedsnr" v="492615" />
	</node>
	<node id="-491599" lat="60.7992138864" lon="4.6599083425">
		<tag k="fixme" v="consider seamark:type=rock or natural=shoal" />
		<tag k="name" v="Klovane" />
		<tag k="place" v="islet" />
		<tag k="ssr:stedsnr" v="492601" />
	</node>
	<node id="-491598" lat="60.8120694457" lon="4.6480277818">
		<tag k="fixme" v="consider seamark:type=rock or natural=shoal" />
		<tag k="name" v="Lisle Geitungen" />
		<tag k="place" v="islet" />
		<tag k="ssr:stedsnr" v="492595" />
	</node>
	<node id="-491597" lat="60.810491668" lon="4.66077499864">
		<tag k="fixme" v="consider seamark:type=rock or natural=shoal" />
		<tag k="name" v="Sverslingane" />
		<tag k="place" v="islet" />
		<tag k="ssr:stedsnr" v="492592" />
	</node>
	<node id="-491596" lat="60.7620333371" lon="4.64757778249">
		<tag k="name" v="Laggenakken" />
		<tag k="natural" v="shoal" />
		<tag k="place" v="locality" />
		<tag k="ssr:stedsnr" v="480796" />
	</node>
	<node id="-491595" lat="60.7693861078" lon="4.68433611741">
		<tag k="fixme" v="consider seamark:type=rock or natural=shoal" />
		<tag k="name" v="Klumpen" />
		<tag k="place" v="islet" />
		<tag k="ssr:stedsnr" v="462081" />
	</node>
	<node id="-491594" lat="60.7955388864" lon="4.68471389683">
		<tag k="name" v="Teistosen" />
		<tag k="natural" v="strait" />
		<tag k="ssr:stedsnr" v="462073" />
	</node>
	<node id="-491593" lat="60.7584694417" lon="4.71033610322">
		<tag k="name" v="Aurihopsvatna" />
		<tag k="natural" v="water" />
		<tag k="ssr:stedsnr" v="462030" />
		<tag k="water" v="lake" />
	</node>
	<node id="-491592" lat="60.7679388897" lon="4.68332223064">
		<tag k="fixme" v="consider seamark:type=rock or natural=shoal" />
		<tag k="name" v="Islendingskjeret" />
		<tag k="place" v="islet" />
		<tag k="ssr:stedsnr" v="462027" />
	</node>
	<node id="-491591" lat="60.8234527769" lon="4.64483610659">
		<tag k="name" v="Humreboane" />
		<tag k="natural" v="shoal" />
		<tag k="place" v="locality" />
		<tag k="ssr:stedsnr" v="457484" />
	</node>
	<node id="-491590" lat="60.7854694434" lon="4.70646943733">
		<tag k="name" v="Mulen" />
		<tag k="natural" v="cape" />
		<tag k="ssr:stedsnr" v="449978" />
	</node>
	<node id="-491589" lat="60.7852277781" lon="4.72252222134">
		<tag k="name" v="Kista" />
		<tag k="natural" v="cape" />
		<tag k="ssr:stedsnr" v="449977" />
	</node>
	<node id="-491588" lat="60.801119441" lon="4.69763612039">
		<tag k="name" v="Nordøyflua" />
		<tag k="natural" v="shoal" />
		<tag k="place" v="locality" />
		<tag k="ssr:stedsnr" v="449798" />
	</node>
	<node id="-491587" lat="60.7690027771" lon="4.67873055252">
		<tag k="fixme" v="consider seamark:type=rock or natural=shoal" />
		<tag k="name" v="Suleskjeret" />
		<tag k="place" v="islet" />
		<tag k="ssr:stedsnr" v="449750" />
	</node>
	<node id="-491586" lat="60.7805472183" lon="4.71231667084">
		<tag k="name" v="Uthaugen" />
		<tag k="place" v="farm" />
		<tag k="ssr:stedsnr" v="446089" />
	</node>
	<node id="-491585" lat="60.7824304205" lon="4.72673853355">
		<tag k="fixme" v="consider place=hamlet" />
		<tag k="name" v="Rognsvågen" />
		<tag k="place" v="farm" />
		<tag k="ssr:stedsnr" v="446078" />
	</node>
	<node id="-491584" lat="60.7809861133" lon="4.7167222223">
		<tag k="name" v="Kopper" />
		<tag k="place" v="farm" />
		<tag k="ssr:stedsnr" v="445095" />
	</node>
	<node id="-491583" lat="60.7783254023" lon="4.71101246097">
		<tag k="name" v="Husa" />
		<tag k="place" v="farm" />
		<tag k="ssr:stedsnr" v="445092" />
	</node>
	<node id="-491582" lat="60.8324305599" lon="4.61323611739">
		<tag k="name" v="Grunnenakken" />
		<tag k="natural" v="shoal" />
		<tag k="place" v="locality" />
		<tag k="ssr:stedsnr" v="431764" />
	</node>
	<node id="-491581" lat="60.8383305556" lon="4.65458333686">
		<tag k="name" v="Utrorboane" />
		<tag k="natural" v="shoal" />
		<tag k="place" v="locality" />
		<tag k="ssr:stedsnr" v="431763" />
	</node>
	<node id="-491580" lat="60.8218111135" lon="4.64975834187">
		<tag k="name" v="Ljøsøyskjeret" />
		<tag k="place" v="islet" />
		<tag k="ssr:stedsnr" v="431760" />
	</node>
	<node id="-491579" lat="60.7920805536" lon="4.65923888453">
		<tag k="fixme" v="consider seamark:type=rock or natural=shoal" />
		<tag k="name" v="Mågøyskjera" />
		<tag k="place" v="islet" />
		<tag k="ssr:stedsnr" v="431656" />
	</node>
	<node id="-491578" lat="60.8090055516" lon="4.6611250069">
		<tag k="fixme" v="consider seamark:type=rock or natural=shoal" />
		<tag k="name" v="Store Sverslingen" />
		<tag k="place" v="islet" />
		<tag k="ssr:stedsnr" v="431649" />
	</node>
	<node id="-491577" lat="60.8148750014" lon="4.65664444952">
		<tag k="name" v="Nordre Ålen" />
		<tag k="natural" v="strait" />
		<tag k="ssr:stedsnr" v="431644" />
	</node>
	<node id="-491576" lat="60.7556944403" lon="4.70336111365">
		<tag k="fixme" v="consider seamark:type=rock or natural=shoal" />
		<tag k="name" v="Hellesøyskjeret" />
		<tag k="place" v="islet" />
		<tag k="ssr:stedsnr" v="432628" />
	</node>
	<node id="-491575" lat="60.7609432158" lon="4.68045938002">
		<tag k="name" v="Fedjeboen" />
		<tag k="natural" v="shoal" />
		<tag k="place" v="locality" />
		<tag k="ssr:stedsnr" v="432627" />
	</node>
	<node id="-491574" lat="60.7777972229" lon="4.68601944218">
		<tag k="fixme" v="consider seamark:type=rock or natural=shoal" />
		<tag k="name" v="Nordra Leieskjeret" />
		<tag k="place" v="islet" />
		<tag k="ssr:stedsnr" v="432621" />
	</node>
	<node id="-491573" lat="60.8213111146" lon="4.65822221907">
		<tag k="name" v="Lyngholmen" />
		<tag k="place" v="islet" />
		<tag k="ssr:stedsnr" v="420856" />
	</node>
	<node id="-491572" lat="60.7530294092" lon="4.70925861035">
		<tag k="name" v="Hellesøyna" />
		<tag k="place" v="island" />
		<tag k="ssr:stedsnr" v="267770" />
	</node>
	<node id="-491571" lat="60.8013027816" lon="4.6862749979">
		<tag k="name" v="Mågøyosen" />
		<tag k="natural" v="strait" />
		<tag k="ssr:stedsnr" v="267765" />
	</node>
	<node id="-491570" lat="60.7507666624" lon="4.72632778181">
		<tag k="name" v="Synste Odden" />
		<tag k="natural" v="cape" />
		<tag k="ssr:stedsnr" v="251220" />
	</node>
	<node id="-491569" lat="60.7642653719" lon="4.7103556585">
		<tag k="name" v="Kroken" />
		<tag k="natural" v="water" />
		<tag k="ssr:stedsnr" v="249640" />
	</node>
	<node id="-491568" lat="60.8086833292" lon="4.64598333213">
		<tag k="name" v="Søra Revet" />
		<tag k="natural" v="shoal" />
		<tag k="place" v="locality" />
		<tag k="ssr:stedsnr" v="249613" />
	</node>
	<node id="-491567" lat="60.8245111124" lon="4.6454138886">
		<tag k="name" v="Humreboen" />
		<tag k="natural" v="shoal" />
		<tag k="place" v="locality" />
		<tag k="ssr:stedsnr" v="238849" />
	</node>
	<node id="-491566" lat="60.7799833345" lon="4.69663054839">
		<tag k="man_made" v="tower" />
		<tag k="name" v="Fedje VTC" />
		<tag k="ssr:stedsnr" v="238802" />
		<tag k="tower:type" v="communications" />
	</node>
	<node id="-491564" lat="60.7960250034" lon="4.67618055338">
		<tag k="name" v="Mågøyklubben" />
		<tag k="natural" v="cape" />
		<tag k="ssr:stedsnr" v="219080" />
	</node>
	<node id="-491563" lat="60.7549646354" lon="4.71791494361">
		<tag k="name" v="Sekkjedalstjørna" />
		<tag k="natural" v="water" />
		<tag k="ssr:stedsnr" v="219032" />
	</node>
	<node id="-491562" lat="60.7786166709" lon="4.70953611718">
		<tag k="name" v="Husavågen" />
		<tag k="natural" v="bay" />
		<tag k="ssr:stedsnr" v="219021" />
	</node>
	<node id="-491561" lat="60.7624604426" lon="4.736128662">
		<tag k="name" v="Blåbærholmtjørna" />
		<tag k="natural" v="water" />
		<tag k="ssr:stedsnr" v="219121" />
	</node>
	<node id="-491560" lat="60.7652055585" lon="4.71532222773">
		<tag k="name" v="Sjonsihøyen" />
		<tag k="natural" v="hill" />
		<tag k="place" v="locality" />
		<tag k="ssr:stedsnr" v="219118" />
	</node>
	<node id="-491559" lat="60.779566666" lon="4.73305833275">
		<tag k="name" v="Bratthammaren" />
		<tag k="natural" v="hill" />
		<tag k="place" v="locality" />
		<tag k="ssr:stedsnr" v="219113" />
	</node>
	<node id="-491558" lat="60.7606638898" lon="4.71713888221">
		<tag k="name" v="Alterhaugen" />
		<tag k="natural" v="hill" />
		<tag k="place" v="locality" />
		<tag k="ssr:stedsnr" v="218070" />
	</node>
	<node id="-491557" lat="60.7941555561" lon="4.67235555156">
		<tag k="name" v="Nordra Eidet" />
		<tag k="place" v="locality" />
		<tag k="ssr:stedsnr" v="218071" />
	</node>
	<node id="-491556" lat="60.7863305543" lon="4.71873888498">
		<tag k="name" v="Siglingeneset" />
		<tag k="natural" v="cape" />
		<tag k="ssr:stedsnr" v="218069" />
	</node>
	<node id="-491555" lat="60.7915555533" lon="4.69845277656">
		<tag k="name" v="Lepsøyna" />
		<tag k="place" v="island" />
		<tag k="ssr:stedsnr" v="207822" />
	</node>
	<node id="-491554" lat="60.8088472185" lon="4.67014722568">
		<tag k="name" v="Høgeboen" />
		<tag k="natural" v="shoal" />
		<tag k="place" v="locality" />
		<tag k="ssr:stedsnr" v="207812" />
	</node>
	<node id="-491552" lat="60.7599083372" lon="4.70125555174">
		<tag k="name" v="Havreboen" />
		<tag k="natural" v="shoal" />
		<tag k="place" v="locality" />
		<tag k="ssr:stedsnr" v="206761" />
	</node>
	<node id="-491550" lat="60.804830553" lon="4.73252778038">
		<tag k="bay" v="fjord" />
		<tag k="name" v="Fedjefjorden" />
		<tag k="natural" v="bay" />
		<tag k="ssr:stedsnr" v="189713" />
	</node>
	<node id="-491549" lat="60.7540527742" lon="4.71072500106">
		<tag k="name" v="Fyrsundet" />
		<tag k="natural" v="strait" />
		<tag k="ssr:stedsnr" v="189602" />
	</node>
	<node id="-491548" lat="60.7745527743" lon="4.69628334074">
		<tag k="name" v="Bruvågen" />
		<tag k="natural" v="bay" />
		<tag k="ssr:stedsnr" v="189598" />
	</node>
	<node id="-491547" lat="60.7919555566" lon="4.66783055428">
		<tag k="name" v="Grøna Mågøyna" />
		<tag k="place" v="islet" />
		<tag k="ssr:stedsnr" v="189592" />
	</node>
	<node id="-491546" lat="60.8344749995" lon="4.65326111215">
		<tag k="name" v="Nordosen" />
		<tag k="natural" v="strait" />
		<tag k="ssr:stedsnr" v="188769" />
	</node>
	<node id="-491545" lat="60.754744446" lon="4.70813889139">
		<tag k="name" v="Hammarsundsflua" />
		<tag k="place" v="locality" />
		<tag k="seamark:type" v="rock" />
		<tag k="ssr:stedsnr" v="177814" />
	</node>
	<node id="-491544" lat="60.778608329" lon="4.72838888798">
		<tag k="name" v="Øvsta Vassivarvatnet" />
		<tag k="natural" v="water" />
		<tag k="ssr:stedsnr" v="158154" />
		<tag k="water" v="lake" />
	</node>
	<node id="-491543" lat="60.7708388862" lon="4.69556111071">
		<tag k="name" v="Sengsbukta" />
		<tag k="natural" v="bay" />
		<tag k="ssr:stedsnr" v="158134" />
	</node>
	<node id="-491542" lat="60.7845027743" lon="4.67724722698">
		<tag k="name" v="Store Klovningane" />
		<tag k="place" v="islet" />
		<tag k="ssr:stedsnr" v="158108" />
	</node>
	<node id="-491541" lat="60.7812833298" lon="4.67753333887">
		<tag k="fixme" v="consider seamark:type=rock or natural=shoal" />
		<tag k="name" v="Langa Skjeret" />
		<tag k="place" v="islet" />
		<tag k="ssr:stedsnr" v="158109" />
	</node>
	<node id="-491540" lat="60.797505556" lon="4.70015278111">
		<tag k="fixme" v="consider seamark:type=rock or natural=shoal" />
		<tag k="name" v="Skjeret" />
		<tag k="place" v="islet" />
		<tag k="ssr:stedsnr" v="158103" />
	</node>
	<node id="-491539" lat="60.7937944485" lon="4.66344444913">
		<tag k="fixme" v="consider seamark:type=rock or natural=shoal" />
		<tag k="name" v="Insta Mågøyskjeret" />
		<tag k="place" v="islet" />
		<tag k="ssr:stedsnr" v="158047" />
	</node>
	<node id="-491538" lat="60.7911361066" lon="4.67162221499">
		<tag k="name" v="Søra Eidet" />
		<tag k="place" v="locality" />
		<tag k="ssr:stedsnr" v="158043" />
	</node>
	<node id="-491537" lat="60.7853316309" lon="4.70765602859">
		<tag k="name" v="Mulen" />
		<tag k="place" v="farm" />
		<tag k="ssr:stedsnr" v="157003" />
	</node>
	<node id="-491536" lat="60.8059944475" lon="4.67452778245">
		<tag k="name" v="Slurvane" />
		<tag k="natural" v="shoal" />
		<tag k="place" v="locality" />
		<tag k="ssr:stedsnr" v="146793" />
	</node>
	<node id="-491535" lat="60.7520666709" lon="4.72025833917">
		<tag k="name" v="Breivika" />
		<tag k="natural" v="bay" />
		<tag k="ssr:stedsnr" v="145781" />
	</node>
	<node id="-491534" lat="60.7718000016" lon="4.69438334226">
		<tag k="name" v="Sengsneset" />
		<tag k="natural" v="cape" />
		<tag k="ssr:stedsnr" v="145766" />
	</node>
	<node id="-491533" lat="60.7566027807" lon="4.65533611617">
		<tag k="name" v="Øshammaren" />
		<tag k="natural" v="shoal" />
		<tag k="place" v="locality" />
		<tag k="ssr:stedsnr" v="145758" />
	</node>
	<node id="-491532" lat="60.7496166649" lon="4.69908889551">
		<tag k="name" v="Søre Hellesøyskallen" />
		<tag k="natural" v="shoal" />
		<tag k="place" v="locality" />
		<tag k="ssr:stedsnr" v="145756" />
	</node>
	<node id="-491531" lat="60.7856887641" lon="4.71646206075">
		<tag k="name" v="Moldøyna" />
		<tag k="place" v="farm" />
		<tag k="ssr:stedsnr" v="142021" />
	</node>
	<node id="-491530" lat="60.7548999962" lon="4.74067500001">
		<tag k="name" v="Æskjeret" />
		<tag k="place" v="islet" />
		<tag k="ssr:stedsnr" v="129219" />
	</node>
	<node id="-491529" lat="60.7830111101" lon="4.72897778197">
		<tag k="name" v="Rognsneset" />
		<tag k="natural" v="cape" />
		<tag k="ssr:stedsnr" v="129007" />
	</node>
	<node id="-491528" lat="60.8278277811" lon="4.64761389636">
		<tag k="name" v="Lisla Frilsøyna" />
		<tag k="place" v="island" />
		<tag k="ssr:stedsnr" v="128742" />
	</node>
	<node id="-491527" lat="60.8312305554" lon="4.63528889315">
		<tag k="fixme" v="consider seamark:type=rock or natural=shoal" />
		<tag k="name" v="Vestskjer" />
		<tag k="place" v="islet" />
		<tag k="ssr:stedsnr" v="116846" />
	</node>
	<node id="-491526" lat="60.7657086665" lon="4.73466194016">
		<tag k="name" v="Nordra Fedjebjørnstjørna" />
		<tag k="natural" v="water" />
		<tag k="ssr:stedsnr" v="98112" />
	</node>
	<node id="-491525" lat="60.7797138861" lon="4.70837500876">
		<tag k="name" v="Smiholmen" />
		<tag k="place" v="islet" />
		<tag k="ssr:stedsnr" v="98022" />
	</node>
	<node id="-491524" lat="60.7898722267" lon="4.68085556243">
		<tag k="name" v="Nordre Lyngholmen" />
		<tag k="place" v="islet" />
		<tag k="ssr:stedsnr" v="98014" />
	</node>
	<node id="-491523" lat="60.7718416641" lon="4.71517499939">
		<tag k="name" v="Kvernhusdalen" />
		<tag k="natural" v="valley" />
		<tag k="place" v="locality" />
		<tag k="ssr:stedsnr" v="97082" />
	</node>
	<node id="-491522" lat="60.7849694459" lon="4.68224166083">
		<tag k="name" v="Siriholmen" />
		<tag k="place" v="islet" />
		<tag k="ssr:stedsnr" v="85796" />
	</node>
	<node id="-491521" lat="60.783794448" lon="4.66954444913">
		<tag k="fixme" v="consider seamark:type=rock or natural=shoal" />
		<tag k="name" v="Navarskjeret" />
		<tag k="place" v="islet" />
		<tag k="ssr:stedsnr" v="85794" />
	</node>
</osm>
