<?xml version="1.0" encoding="UTF-8"?>
<osm generator="osmapis" version="0.6">
	<node id="-491517" lat="60.7788972245" lon="4.71489165799">
		<tag k="name" v="Fedje" />
		<tag k="place" v="village" />
		<tag k="ssr:stedsnr" v="85061" />
	</node>
	<node id="-491516" lat="60.7785832929" lon="4.71696408969">
		<tag k="name" v="Husa" />
		<tag k="place" v="farm" />
		<tag k="ssr:stedsnr" v="81097" />
	</node>
	<node id="-491515" lat="60.7818694426" lon="4.71332500389">
		<tag k="name" v="Steinborg" />
		<tag k="place" v="farm" />
		<tag k="ssr:stedsnr" v="81086" />
	</node>
	<node id="-491639" lat="60.7833254711" lon="4.71664179251">
		<tag k="name" v="Børhaugen" />
		<tag k="place" v="farm" />
		<tag k="ssr:stedsnr" v="627093" />
	</node>
	<node id="-491625" lat="60.7777361073" lon="4.7375249928">
		<tag k="name" v="Midt-Tangen" />
		<tag k="place" v="farm" />
		<tag k="ssr:stedsnr" v="566077" />
	</node>
	<node id="-491624" lat="60.7583396347" lon="4.74032055055">
		<tag k="fixme" v="consider place=hamlet" />
		<tag k="name" v="Stormark" />
		<tag k="place" v="farm" />
		<tag k="ssr:stedsnr" v="554201" />
	</node>
	<node id="-491629" lat="60.7823250016" lon="4.70153610363">
		<tag k="name" v="Sulen" />
		<tag k="place" v="farm" />
		<tag k="ssr:stedsnr" v="583071" />
	</node>
	<node id="-491500" lat="60.7816805566" lon="4.71704166668">
		<tag k="name" v="Grenda" />
		<tag k="place" v="farm" />
		<tag k="ssr:stedsnr" v="21090" />
	</node>
	<node id="-491499" lat="60.7871638888" lon="4.71060555277">
		<tag k="name" v="Skotholmen" />
		<tag k="place" v="farm" />
		<tag k="ssr:stedsnr" v="21083" />
	</node>
	<node id="-491498" lat="60.781774999" lon="4.72006666077">
		<tag k="name" v="Kopper" />
		<tag k="place" v="farm" />
		<tag k="ssr:stedsnr" v="20089" />
	</node>
	<node id="-491497" lat="60.7830027797" lon="4.71549999218">
		<tag k="name" v="Brotet" />
		<tag k="place" v="farm" />
		<tag k="ssr:stedsnr" v="20085" />
	</node>
	<node id="-491496" lat="60.7863613077" lon="4.71561805024">
		<tag k="fixme" v="consider place=hamlet" />
		<tag k="name" v="Moldøyna" />
		<tag k="place" v="farm" />
		<tag k="ssr:stedsnr" v="20078" />
	</node>
	<node id="-491729" lat="60.778321954" lon="4.71424771739">
		<tag k="name" v="Husa" />
		<tag k="place" v="farm" />
		<tag k="ssr:stedsnr" v="931090" />
	</node>
	<node id="-491491" lat="60.7806870786" lon="4.716525306">
		<tag k="fixme" v="consider place=hamlet" />
		<tag k="name" v="Fedje" />
		<tag k="place" v="farm" />
		<tag k="ssr:stedsnr" v="989217" />
	</node>
	<node id="-491472" lat="60.7839527768" lon="4.69661944813">
		<tag k="name" v="Hesteneset" />
		<tag k="place" v="farm" />
		<tag k="ssr:stedsnr" v="385018" />
	</node>
	<node id="-491471" lat="60.7797222227" lon="4.7169222291">
		<tag k="name" v="Kopper" />
		<tag k="place" v="farm" />
		<tag k="ssr:stedsnr" v="384117" />
	</node>
	<node id="-491606" lat="60.7820722236" lon="4.71405000258">
		<tag k="name" v="Stuberg" />
		<tag k="place" v="farm" />
		<tag k="ssr:stedsnr" v="506099" />
	</node>
	<node id="-491605" lat="60.7802254493" lon="4.70403485045">
		<tag k="fixme" v="consider place=hamlet" />
		<tag k="name" v="Kremmarholmen" />
		<tag k="place" v="farm" />
		<tag k="ssr:stedsnr" v="506094" />
	</node>
	<node id="-491731" lat="60.7782136551" lon="4.71363408001">
		<tag k="name" v="Husa" />
		<tag k="place" v="farm" />
		<tag k="ssr:stedsnr" v="931093" />
	</node>
	<node id="-491730" lat="60.7835972202" lon="4.72190000043">
		<tag k="name" v="Berge" />
		<tag k="place" v="farm" />
		<tag k="ssr:stedsnr" v="931089" />
	</node>
	<node id="-491473" lat="60.7819722244" lon="4.7182583287">
		<tag k="name" v="Opphaugen" />
		<tag k="place" v="farm" />
		<tag k="ssr:stedsnr" v="385097" />
	</node>
	<node id="-491728" lat="60.7848305559" lon="4.70251389652">
		<tag k="name" v="Kongestølen" />
		<tag k="place" v="farm" />
		<tag k="ssr:stedsnr" v="931070" />
	</node>
	<node id="-491727" lat="60.7862447526" lon="4.71388678248">
		<tag k="name" v="Moldøyna" />
		<tag k="place" v="farm" />
		<tag k="ssr:stedsnr" v="931012" />
	</node>
	<node id="-491470" lat="60.7789694145" lon="4.7137236659">
		<tag k="name" v="Husa" />
		<tag k="place" v="farm" />
		<tag k="ssr:stedsnr" v="384114" />
	</node>
	<node id="-491469" lat="60.7816775924" lon="4.71394824556">
		<tag k="name" v="Muren" />
		<tag k="place" v="farm" />
		<tag k="ssr:stedsnr" v="384106" />
	</node>
	<node id="-491720" lat="60.7804583307" lon="4.72050555548">
		<tag k="name" v="Kopper" />
		<tag k="place" v="farm" />
		<tag k="ssr:stedsnr" v="870100" />
	</node>
	<node id="-491719" lat="60.7810027747" lon="4.71293888546">
		<tag k="name" v="Eide" />
		<tag k="place" v="farm" />
		<tag k="ssr:stedsnr" v="870099" />
	</node>
	<node id="-491718" lat="60.780402778" lon="4.71577222056">
		<tag k="name" v="Kopper" />
		<tag k="place" v="farm" />
		<tag k="ssr:stedsnr" v="870074" />
	</node>
	<node id="-491586" lat="60.7805472183" lon="4.71231667084">
		<tag k="name" v="Uthaugen" />
		<tag k="place" v="farm" />
		<tag k="ssr:stedsnr" v="446089" />
	</node>
	<node id="-491585" lat="60.7824304205" lon="4.72673853355">
		<tag k="fixme" v="consider place=hamlet" />
		<tag k="name" v="Rognsvågen" />
		<tag k="place" v="farm" />
		<tag k="ssr:stedsnr" v="446078" />
	</node>
	<node id="-491584" lat="60.7809861133" lon="4.7167222223">
		<tag k="name" v="Kopper" />
		<tag k="place" v="farm" />
		<tag k="ssr:stedsnr" v="445095" />
	</node>
	<node id="-491583" lat="60.7783254023" lon="4.71101246097">
		<tag k="name" v="Husa" />
		<tag k="place" v="farm" />
		<tag k="ssr:stedsnr" v="445092" />
	</node>
	<node id="-491451" lat="60.7825499974" lon="4.71586666044">
		<tag k="name" v="Vika" />
		<tag k="place" v="farm" />
		<tag k="ssr:stedsnr" v="324081" />
	</node>
	<node id="-491697" lat="60.7831882276" lon="4.71710323826">
		<tag k="name" v="Børen" />
		<tag k="place" v="farm" />
		<tag k="ssr:stedsnr" v="810097" />
	</node>
	<node id="-491696" lat="60.7765111782" lon="4.70560207893">
		<tag k="fixme" v="consider place=hamlet" />
		<tag k="name" v="Træsneset" />
		<tag k="place" v="farm" />
		<tag k="ssr:stedsnr" v="810089" />
	</node>
	<node id="-491695" lat="60.7781250036" lon="4.69727221463">
		<tag k="name" v="Langedalen" />
		<tag k="place" v="farm" />
		<tag k="ssr:stedsnr" v="810005" />
	</node>
	<node id="-491679" lat="60.783405558" lon="4.71814443693">
		<tag k="name" v="Nord-Tangen" />
		<tag k="place" v="farm" />
		<tag k="ssr:stedsnr" v="749061" />
	</node>
	<node id="-491678" lat="60.7538499992" lon="4.71832777496">
		<tag k="name" v="Fjellheim" />
		<tag k="place" v="farm" />
		<tag k="ssr:stedsnr" v="749057" />
	</node>
	<node id="-491677" lat="60.7824722262" lon="4.72086389362">
		<tag k="name" v="Nedst-Tangen" />
		<tag k="place" v="farm" />
		<tag k="ssr:stedsnr" v="748088" />
	</node>
	<node id="-491537" lat="60.7853316309" lon="4.70765602859">
		<tag k="name" v="Mulen" />
		<tag k="place" v="farm" />
		<tag k="ssr:stedsnr" v="157003" />
	</node>
	<node id="-491531" lat="60.7856887641" lon="4.71646206075">
		<tag k="name" v="Moldøyna" />
		<tag k="place" v="farm" />
		<tag k="ssr:stedsnr" v="142021" />
	</node>
	<node id="-491656" lat="60.7725555527" lon="4.72457777866">
		<tag k="name" v="Nygård" />
		<tag k="place" v="farm" />
		<tag k="ssr:stedsnr" v="688065" />
	</node>
</osm>
