<?xml version="1.0" encoding="UTF-8"?>
<osm generator="osmapis" version="0.6">
	<node id="-492353" lat="60.8219888859" lon="4.65446666203">
		<tag k="name" v="Ljøsøyna" />
		<tag k="place" v="islet" />
		<tag k="ssr:stedsnr" v="966861" />
	</node>
	<node id="-492351" lat="60.7640861109" lon="4.74502777942">
		<tag k="name" v="Langøybukta" />
		<tag k="natural" v="bay" />
		<tag k="ssr:stedsnr" v="947117" />
	</node>
	<node id="-492350" lat="60.7831194478" lon="4.68145000549">
		<tag k="name" v="Småklovningane" />
		<tag k="place" v="islet" />
		<tag k="ssr:stedsnr" v="947109" />
	</node>
	<node id="-492348" lat="60.780013885" lon="4.69144444942">
		<tag k="name" v="Sildevika" />
		<tag k="natural" v="bay" />
		<tag k="ssr:stedsnr" v="947104" />
	</node>
	<node id="-492346" lat="60.7954638877" lon="4.67157222009">
		<tag k="fixme" v="consider seamark:type=rock or natural=shoal" />
		<tag k="name" v="Gudmundskjeret" />
		<tag k="place" v="islet" />
		<tag k="ssr:stedsnr" v="947083" />
	</node>
	<node id="-492343" lat="60.7791777754" lon="4.67243054683">
		<tag k="name" v="Ivarsboen" />
		<tag k="natural" v="shoal" />
		<tag k="place" v="locality" />
		<tag k="ssr:stedsnr" v="935827" />
	</node>
	<node id="-492337" lat="60.7666972184" lon="4.74457221424">
		<tag k="name" v="Langøyneset" />
		<tag k="natural" v="cape" />
		<tag k="ssr:stedsnr" v="918991" />
	</node>
	<node id="-492336" lat="60.765383337" lon="4.67577778331">
		<tag k="name" v="Langboen" />
		<tag k="natural" v="shoal" />
		<tag k="place" v="locality" />
		<tag k="ssr:stedsnr" v="917620" />
	</node>
	<node id="-492334" lat="60.7223333307" lon="4.71245277745">
		<tag k="name" v="Stretefluene" />
		<tag k="place" v="locality" />
		<tag k="seamark:type" v="rock" />
		<tag k="ssr:stedsnr" v="905775" />
	</node>
	<node id="-492333" lat="60.8295583293" lon="4.64304999419">
		<tag k="name" v="Frilsøysundet" />
		<tag k="natural" v="strait" />
		<tag k="ssr:stedsnr" v="875077" />
	</node>
	<node id="-492332" lat="60.7571444457" lon="4.74389166285">
		<tag k="name" v="Tareflua" />
		<tag k="natural" v="shoal" />
		<tag k="place" v="locality" />
		<tag k="ssr:stedsnr" v="874780" />
	</node>
	<node id="-492326" lat="60.7718333346" lon="4.68632499523">
		<tag k="fixme" v="consider seamark:type=rock or natural=shoal" />
		<tag k="name" v="Oksen" />
		<tag k="place" v="islet" />
		<tag k="ssr:stedsnr" v="857642" />
	</node>
	<node id="-492325" lat="60.8413138889" lon="4.61181388959">
		<tag k="name" v="Grunnefjellet" />
		<tag k="natural" v="shoal" />
		<tag k="place" v="locality" />
		<tag k="ssr:stedsnr" v="856760" />
	</node>
	<node id="-492324" lat="60.780938885" lon="4.67436944235">
		<tag k="name" v="Lisle Fiskholmen" />
		<tag k="place" v="islet" />
		<tag k="ssr:stedsnr" v="856653" />
	</node>
	<node id="-492323" lat="60.8015861155" lon="4.63982500746">
		<tag k="name" v="Vassvikeskallen" />
		<tag k="natural" v="shoal" />
		<tag k="place" v="locality" />
		<tag k="ssr:stedsnr" v="856650" />
	</node>
	<node id="-492322" lat="60.8015722249" lon="4.65701667119">
		<tag k="name" v="Kloveflua" />
		<tag k="natural" v="shoal" />
		<tag k="place" v="locality" />
		<tag k="ssr:stedsnr" v="845891" />
	</node>
	<node id="-492321" lat="60.8311763597" lon="4.62914408154">
		<tag k="name" v="Kabelflua" />
		<tag k="natural" v="shoal" />
		<tag k="place" v="locality" />
		<tag k="ssr:stedsnr" v="843706" />
	</node>
	<node id="-492319" lat="60.7587416684" lon="4.7438083346">
		<tag k="name" v="Mortevika" />
		<tag k="natural" v="bay" />
		<tag k="ssr:stedsnr" v="826148" />
	</node>
	<node id="-492318" lat="60.7961361071" lon="4.68779999559">
		<tag k="name" v="Nordre Flotten" />
		<tag k="place" v="islet" />
		<tag k="ssr:stedsnr" v="826123" />
	</node>
	<node id="-492317" lat="60.7989666648" lon="4.70285556111">
		<tag k="fixme" v="consider seamark:type=rock or natural=shoal" />
		<tag k="name" v="Lisla Nordøyskjeret" />
		<tag k="place" v="islet" />
		<tag k="ssr:stedsnr" v="826118" />
	</node>
	<node id="-492316" lat="60.7895944409" lon="4.6887555611">
		<tag k="name" v="Klubben" />
		<tag k="place" v="islet" />
		<tag k="ssr:stedsnr" v="826034" />
	</node>
	<node id="-492315" lat="60.7884499979" lon="4.66670277301">
		<tag k="name" v="Mågøyosen" />
		<tag k="natural" v="strait" />
		<tag k="ssr:stedsnr" v="826032" />
	</node>
	<node id="-492313" lat="60.7885388866" lon="4.69480277724">
		<tag k="name" v="Stora Karijelto" />
		<tag k="place" v="islet" />
		<tag k="ssr:stedsnr" v="825050" />
	</node>
	<node id="-492312" lat="60.796458333" lon="4.64711388769">
		<tag k="name" v="Klovnakkene" />
		<tag k="natural" v="shoal" />
		<tag k="place" v="locality" />
		<tag k="ssr:stedsnr" v="814375" />
	</node>
	<node id="-492311" lat="60.7945777808" lon="4.70366667156">
		<tag k="name" v="Grisholmsundet" />
		<tag k="natural" v="strait" />
		<tag k="ssr:stedsnr" v="813817" />
	</node>
	<node id="-492310" lat="60.8074222203" lon="4.66226110532">
		<tag k="name" v="Nordra Fallet" />
		<tag k="natural" v="shoal" />
		<tag k="place" v="locality" />
		<tag k="ssr:stedsnr" v="813815" />
	</node>
	<node id="-492309" lat="60.761080555" lon="4.70549166879">
		<tag k="name" v="Løynevågen" />
		<tag k="natural" v="bay" />
		<tag k="ssr:stedsnr" v="813761" />
	</node>
	<node id="-492304" lat="60.7750273314" lon="4.74361940091">
		<tag k="name" v="Hovden" />
		<tag k="natural" v="cape" />
		<tag k="ssr:stedsnr" v="797025" />
	</node>
	<node id="-492303" lat="60.8446138922" lon="4.63271666909">
		<tag k="fixme" v="consider seamark:type=rock or natural=shoal" />
		<tag k="name" v="Flåskjeret" />
		<tag k="place" v="islet" />
		<tag k="ssr:stedsnr" v="796757" />
	</node>
	<node id="-492302" lat="60.8239277825" lon="4.66421667402">
		<tag k="name" v="Hovden" />
		<tag k="place" v="islet" />
		<tag k="ssr:stedsnr" v="795749" />
	</node>
	<node id="-492301" lat="60.795044448" lon="4.660275008">
		<tag k="fixme" v="consider seamark:type=rock or natural=shoal" />
		<tag k="name" v="Gauteskjeret" />
		<tag k="place" v="islet" />
		<tag k="ssr:stedsnr" v="795661" />
	</node>
	<node id="-492300" lat="60.8182083317" lon="4.64737499722">
		<tag k="name" v="Fostro" />
		<tag k="natural" v="shoal" />
		<tag k="place" v="locality" />
		<tag k="ssr:stedsnr" v="795656" />
	</node>
	<node id="-492299" lat="60.7579416707" lon="4.74411666666">
		<tag k="fixme" v="consider seamark:type=rock or natural=shoal" />
		<tag k="name" v="Mortevikskjeret" />
		<tag k="place" v="islet" />
		<tag k="ssr:stedsnr" v="784814" />
	</node>
	<node id="-492298" lat="60.7831194451" lon="4.70976389013">
		<tag k="name" v="Kremmarholmen" />
		<tag k="place" v="islet" />
		<tag k="ssr:stedsnr" v="768254" />
	</node>
	<node id="-492297" lat="60.7905194467" lon="4.70332778015">
		<tag k="name" v="Moldøyholmen" />
		<tag k="place" v="islet" />
		<tag k="ssr:stedsnr" v="765113" />
	</node>
	<node id="-492296" lat="60.8006277793" lon="4.68935554691">
		<tag k="fixme" v="consider seamark:type=rock or natural=shoal" />
		<tag k="name" v="Teieskjeret" />
		<tag k="place" v="islet" />
		<tag k="ssr:stedsnr" v="765036" />
	</node>
	<node id="-492295" lat="60.7899222184" lon="4.6911388911">
		<tag k="name" v="Nordra Karijelto" />
		<tag k="place" v="islet" />
		<tag k="ssr:stedsnr" v="764073" />
	</node>
	<node id="-492294" lat="60.7784916645" lon="4.68133055454">
		<tag k="fixme" v="consider seamark:type=rock or natural=shoal" />
		<tag k="name" v="Argen" />
		<tag k="place" v="islet" />
		<tag k="ssr:stedsnr" v="760729" />
	</node>
	<node id="-492293" lat="60.8060638889" lon="4.66502222617">
		<tag k="name" v="Søra Fallet" />
		<tag k="natural" v="shoal" />
		<tag k="place" v="locality" />
		<tag k="ssr:stedsnr" v="753800" />
	</node>
	<node id="-492292" lat="60.7528416682" lon="4.69843611975">
		<tag k="name" v="Nordre Hellesøyskallen" />
		<tag k="natural" v="shoal" />
		<tag k="place" v="locality" />
		<tag k="ssr:stedsnr" v="752736" />
	</node>
	<node id="-492291" lat="60.7448944402" lon="4.65806110911">
		<tag k="name" v="Grunneskallen" />
		<tag k="natural" v="shoal" />
		<tag k="place" v="locality" />
		<tag k="ssr:stedsnr" v="752229" />
	</node>
	<node id="-492287" lat="60.7743500017" lon="4.6744916672">
		<tag k="name" v="Skjeljeflunakken" />
		<tag k="natural" v="shoal" />
		<tag k="place" v="locality" />
		<tag k="ssr:stedsnr" v="735634" />
	</node>
	<node id="-492286" lat="60.7848222209" lon="4.69140278175">
		<tag k="name" v="Skarvøyosen" />
		<tag k="natural" v="strait" />
		<tag k="ssr:stedsnr" v="735631" />
	</node>
	<node id="-492285" lat="60.7939527822" lon="4.67756944986">
		<tag k="name" v="Lyngmågøyna" />
		<tag k="place" v="islet" />
		<tag k="ssr:stedsnr" v="735626" />
	</node>
	<node id="-492284" lat="60.8039916705" lon="4.67963887975">
		<tag k="fixme" v="consider seamark:type=rock or natural=shoal" />
		<tag k="name" v="Lisla Håfluskjeret" />
		<tag k="place" v="islet" />
		<tag k="ssr:stedsnr" v="735622" />
	</node>
	<node id="-492283" lat="60.7599111074" lon="4.70581389547">
		<tag k="name" v="Vassvikskjeret" />
		<tag k="place" v="islet" />
		<tag k="ssr:stedsnr" v="723845" />
	</node>
	<node id="-492282" lat="60.8409083377" lon="4.62925000569">
		<tag k="name" v="Ivarsnakken" />
		<tag k="natural" v="shoal" />
		<tag k="place" v="locality" />
		<tag k="ssr:stedsnr" v="723824" />
	</node>
	<node id="-492280" lat="60.7865805581" lon="4.70631389517">
		<tag k="name" v="Kyrkjevågen" />
		<tag k="natural" v="bay" />
		<tag k="ssr:stedsnr" v="704013" />
	</node>
	<node id="-492278" lat="60.7942277742" lon="4.68691666899">
		<tag k="alt_name" v="Flotten" />
		<tag k="name" v="Søre Flotten" />
		<tag k="place" v="islet" />
		<tag k="ssr:stedsnr" v="703075" />
	</node>
	<node id="-492275" lat="60.7841972211" lon="4.70493055404">
		<tag k="name" v="Vestre Vågen" />
		<tag k="natural" v="bay" />
		<tag k="ssr:stedsnr" v="692934" />
	</node>
	<node id="-492274" lat="60.7759749996" lon="4.69332778052">
		<tag k="name" v="Søre Vidnappen" />
		<tag k="natural" v="cape" />
		<tag k="ssr:stedsnr" v="692830" />
	</node>
	<node id="-492273" lat="60.7811638906" lon="4.6858055478">
		<tag k="name" v="Argeskjeret" />
		<tag k="natural" v="shoal" />
		<tag k="place" v="locality" />
		<tag k="ssr:stedsnr" v="692826" />
	</node>
	<node id="-492272" lat="60.7893861109" lon="4.70668055101">
		<tag k="name" v="Moldøyosen" />
		<tag k="natural" v="strait" />
		<tag k="ssr:stedsnr" v="692820" />
	</node>
	<node id="-492271" lat="60.7965027758" lon="4.68304165882">
		<tag k="name" v="Nåla" />
		<tag k="place" v="islet" />
		<tag k="ssr:stedsnr" v="692817" />
	</node>
	<node id="-492270" lat="60.7569111103" lon="4.70952221661">
		<tag k="name" v="Aurihopen" />
		<tag k="natural" v="bay" />
		<tag k="ssr:stedsnr" v="692777" />
	</node>
	<node id="-492269" lat="60.7656083311" lon="4.74456944863">
		<tag k="name" v="Gulenakken" />
		<tag k="natural" v="cape" />
		<tag k="ssr:stedsnr" v="692775" />
	</node>
	<node id="-492268" lat="60.7663166632" lon="4.69135278116">
		<tag k="name" v="Hatteboen" />
		<tag k="natural" v="shoal" />
		<tag k="place" v="locality" />
		<tag k="ssr:stedsnr" v="692763" />
	</node>
	<node id="-492266" lat="60.8389027803" lon="4.62664444805">
		<tag k="name" v="Nordosflua" />
		<tag k="natural" v="shoal" />
		<tag k="place" v="locality" />
		<tag k="ssr:stedsnr" v="674753" />
	</node>
	<node id="-492265" lat="60.8434555584" lon="4.64270000009">
		<tag k="fixme" v="consider seamark:type=rock or natural=shoal" />
		<tag k="name" v="Gygra" />
		<tag k="place" v="islet" />
		<tag k="ssr:stedsnr" v="674743" />
	</node>
	<node id="-492264" lat="60.7851361121" lon="4.66906666528">
		<tag k="name" v="Hatlenipen" />
		<tag k="place" v="islet" />
		<tag k="ssr:stedsnr" v="674641" />
	</node>
	<node id="-492263" lat="60.7871055512" lon="4.67192500057">
		<tag k="name" v="Sandholmen" />
		<tag k="place" v="islet" />
		<tag k="ssr:stedsnr" v="674638" />
	</node>
	<node id="-492262" lat="60.7940305533" lon="4.69089721436">
		<tag k="name" v="Vestra Slissøyna" />
		<tag k="place" v="islet" />
		<tag k="ssr:stedsnr" v="674636" />
	</node>
	<node id="-492261" lat="60.8003944482" lon="4.68952499483">
		<tag k="fixme" v="consider seamark:type=rock or natural=shoal" />
		<tag k="name" v="Terneskjera" />
		<tag k="place" v="islet" />
		<tag k="ssr:stedsnr" v="674634" />
	</node>
	<node id="-492260" lat="60.7830222232" lon="4.73185555902">
		<tag k="name" v="Stongevågen" />
		<tag k="natural" v="bay" />
		<tag k="ssr:stedsnr" v="643133" />
	</node>
	<node id="-492259" lat="60.7862611147" lon="4.70283332486">
		<tag k="name" v="Lislemulen" />
		<tag k="natural" v="cape" />
		<tag k="ssr:stedsnr" v="643131" />
	</node>
	<node id="-492258" lat="60.7919472263" lon="4.65940832666">
		<tag k="fixme" v="consider seamark:type=rock or natural=shoal" />
		<tag k="name" v="Ytsta Mågøyskjeret" />
		<tag k="place" v="islet" />
		<tag k="ssr:stedsnr" v="643027" />
	</node>
	<node id="-492257" lat="60.7824277813" lon="4.69051666983">
		<tag k="name" v="Karlsøysundet" />
		<tag k="natural" v="strait" />
		<tag k="ssr:stedsnr" v="642004" />
	</node>
	<node id="-492256" lat="60.7775749998" lon="4.69138332729">
		<tag k="name" v="Vidnappsvika" />
		<tag k="natural" v="bay" />
		<tag k="ssr:stedsnr" v="642001" />
	</node>
	<node id="-492255" lat="60.7891999986" lon="4.68047499779">
		<tag k="name" v="Lyngholmane" />
		<tag k="place" v="islet" />
		<tag k="ssr:stedsnr" v="631845" />
	</node>
	<node id="-492254" lat="60.792755552" lon="4.70297222626">
		<tag k="name" v="Hellsøyna" />
		<tag k="place" v="island" />
		<tag k="ssr:stedsnr" v="631842" />
	</node>
	<node id="-492253" lat="60.7952861112" lon="4.70108888591">
		<tag k="name" v="Grisholmen" />
		<tag k="place" v="islet" />
		<tag k="ssr:stedsnr" v="631841" />
	</node>
	<node id="-492252" lat="60.7728111084" lon="4.74181110533">
		<tag k="name" v="Hjeltevardneset" />
		<tag k="natural" v="cape" />
		<tag k="ssr:stedsnr" v="631774" />
	</node>
	<node id="-492251" lat="60.7599583364" lon="4.693530553">
		<tag k="name" v="Djupeflua" />
		<tag k="natural" v="shoal" />
		<tag k="place" v="locality" />
		<tag k="ssr:stedsnr" v="630724" />
	</node>
	<node id="-492247" lat="60.7860238956" lon="4.715753857">
		<tag k="name" v="Moldøyna" />
		<tag k="place" v="islet" />
		<tag k="ssr:stedsnr" v="614010" />
	</node>
	<node id="-492246" lat="60.8282999959" lon="4.63863332728">
		<tag k="name" v="Stora Frilsøyna" />
		<tag k="place" v="island" />
		<tag k="ssr:stedsnr" v="613736" />
	</node>
	<node id="-492245" lat="60.7980055523" lon="4.69680277564">
		<tag k="name" v="Nordøyna" />
		<tag k="place" v="islet" />
		<tag k="ssr:stedsnr" v="613625" />
	</node>
	<node id="-492244" lat="60.8050499993" lon="4.64799999887">
		<tag k="name" v="Revnakken" />
		<tag k="natural" v="shoal" />
		<tag k="place" v="locality" />
		<tag k="ssr:stedsnr" v="613621" />
	</node>
	<node id="-492243" lat="60.7997000041" lon="4.67957221568">
		<tag k="name" v="Kjøholmen" />
		<tag k="place" v="islet" />
		<tag k="ssr:stedsnr" v="598838" />
	</node>
	<node id="-492239" lat="60.8008527774" lon="4.67176389032">
		<tag k="fixme" v="consider seamark:type=rock or natural=shoal" />
		<tag k="name" v="Lisle Geitungen" />
		<tag k="place" v="islet" />
		<tag k="ssr:stedsnr" v="570811" />
	</node>
	<node id="-492238" lat="60.761119445" lon="4.74786666684">
		<tag k="name" v="Langøyflua" />
		<tag k="natural" v="shoal" />
		<tag k="place" v="locality" />
		<tag k="ssr:stedsnr" v="570764" />
	</node>
	<node id="-492237" lat="60.7681833345" lon="4.69768333696">
		<tag k="name" v="Kvalvika" />
		<tag k="natural" v="bay" />
		<tag k="ssr:stedsnr" v="570754" />
	</node>
	<node id="-492234" lat="60.7597249971" lon="4.70820555299">
		<tag k="name" v="Vassvika" />
		<tag k="natural" v="bay" />
		<tag k="ssr:stedsnr" v="553660" />
	</node>
	<node id="-492233" lat="60.7683749964" lon="4.67261943692">
		<tag k="name" v="Suleflua" />
		<tag k="natural" v="shoal" />
		<tag k="place" v="locality" />
		<tag k="ssr:stedsnr" v="553655" />
	</node>
	<node id="-492232" lat="60.7767305569" lon="4.68833333195">
		<tag k="fixme" v="consider seamark:type=rock or natural=shoal" />
		<tag k="name" v="Søra Leieskjeret" />
		<tag k="place" v="islet" />
		<tag k="ssr:stedsnr" v="552684" />
	</node>
	<node id="-492231" lat="60.7869361133" lon="4.69032500199">
		<tag k="name" v="Skarvøyna" />
		<tag k="place" v="islet" />
		<tag k="ssr:stedsnr" v="552683" />
	</node>
	<node id="-492230" lat="60.8020166641" lon="4.68170832752">
		<tag k="fixme" v="consider seamark:type=rock or natural=shoal" />
		<tag k="name" v="Stora Håfluskjeret" />
		<tag k="place" v="islet" />
		<tag k="ssr:stedsnr" v="552677" />
	</node>
	<node id="-492229" lat="60.8079740802" lon="4.65565810689">
		<tag k="fixme" v="consider seamark:type=rock or natural=shoal" />
		<tag k="name" v="Ribbeskjera" />
		<tag k="place" v="islet" />
		<tag k="ssr:stedsnr" v="552676" />
	</node>
	<node id="-492228" lat="60.7797000016" lon="4.70603055982">
		<tag k="name" v="Pollen" />
		<tag k="natural" v="bay" />
		<tag k="ssr:stedsnr" v="541769" />
	</node>
	<node id="-492226" lat="60.795136109" lon="4.67936111029">
		<tag k="name" v="Nålevågen" />
		<tag k="natural" v="bay" />
		<tag k="ssr:stedsnr" v="522113" />
	</node>
	<node id="-492225" lat="60.7854111116" lon="4.72309166186">
		<tag k="name" v="Kisteneset" />
		<tag k="natural" v="cape" />
		<tag k="ssr:stedsnr" v="522103" />
	</node>
	<node id="-492224" lat="60.7715611107" lon="4.73971389658">
		<tag k="name" v="Terneneset" />
		<tag k="natural" v="cape" />
		<tag k="ssr:stedsnr" v="522096" />
	</node>
	<node id="-492222" lat="60.8430361153" lon="4.65108889002">
		<tag k="name" v="Holmengrå" />
		<tag k="place" v="islet" />
		<tag k="ssr:stedsnr" v="511362" />
	</node>
	<node id="-492221" lat="60.7819666632" lon="4.69237500664">
		<tag k="name" v="Hestevågen" />
		<tag k="natural" v="bay" />
		<tag k="ssr:stedsnr" v="510862" />
	</node>
	<node id="-492220" lat="60.7967307501" lon="4.7048666885">
		<tag k="fixme" v="consider seamark:type=rock or natural=shoal" />
		<tag k="name" v="Grisholmskjeret" />
		<tag k="place" v="islet" />
		<tag k="ssr:stedsnr" v="510854" />
	</node>
	<node id="-492219" lat="60.7489611121" lon="4.70472500305">
		<tag k="name" v="Hellesøyflua" />
		<tag k="natural" v="shoal" />
		<tag k="place" v="locality" />
		<tag k="ssr:stedsnr" v="509746" />
	</node>
	<node id="-492218" lat="60.7644916671" lon="4.69782776909">
		<tag k="name" v="Halsen" />
		<tag k="natural" v="cape" />
		<tag k="ssr:stedsnr" v="509730" />
	</node>
	<node id="-492214" lat="60.8274916683" lon="4.65559721787">
		<tag k="fixme" v="consider seamark:type=rock or natural=shoal" />
		<tag k="name" v="Svartskjeret" />
		<tag k="place" v="islet" />
		<tag k="ssr:stedsnr" v="492731" />
	</node>
	<node id="-492213" lat="60.8235194434" lon="4.64115555557">
		<tag k="name" v="Humreboflua" />
		<tag k="natural" v="shoal" />
		<tag k="place" v="locality" />
		<tag k="ssr:stedsnr" v="492729" />
	</node>
	<node id="-492212" lat="60.7358749958" lon="4.76193055153">
		<tag k="bay" v="fjord" />
		<tag k="name" v="Fedjeosen" />
		<tag k="natural" v="bay" />
		<tag k="ssr:stedsnr" v="492659" />
	</node>
	<node id="-492211" lat="60.7676805579" lon="4.71508334202">
		<tag k="name" v="Fedje" />
		<tag k="place" v="island" />
		<tag k="ssr:stedsnr" v="492615" />
	</node>
	<node id="-492210" lat="60.7992138864" lon="4.6599083425">
		<tag k="fixme" v="consider seamark:type=rock or natural=shoal" />
		<tag k="name" v="Klovane" />
		<tag k="place" v="islet" />
		<tag k="ssr:stedsnr" v="492601" />
	</node>
	<node id="-492209" lat="60.8120694457" lon="4.6480277818">
		<tag k="fixme" v="consider seamark:type=rock or natural=shoal" />
		<tag k="name" v="Lisle Geitungen" />
		<tag k="place" v="islet" />
		<tag k="ssr:stedsnr" v="492595" />
	</node>
	<node id="-492208" lat="60.810491668" lon="4.66077499864">
		<tag k="fixme" v="consider seamark:type=rock or natural=shoal" />
		<tag k="name" v="Sverslingane" />
		<tag k="place" v="islet" />
		<tag k="ssr:stedsnr" v="492592" />
	</node>
	<node id="-492207" lat="60.7620333371" lon="4.64757778249">
		<tag k="name" v="Laggenakken" />
		<tag k="natural" v="shoal" />
		<tag k="place" v="locality" />
		<tag k="ssr:stedsnr" v="480796" />
	</node>
	<node id="-492206" lat="60.7693861078" lon="4.68433611741">
		<tag k="fixme" v="consider seamark:type=rock or natural=shoal" />
		<tag k="name" v="Klumpen" />
		<tag k="place" v="islet" />
		<tag k="ssr:stedsnr" v="462081" />
	</node>
	<node id="-492205" lat="60.7955388864" lon="4.68471389683">
		<tag k="name" v="Teistosen" />
		<tag k="natural" v="strait" />
		<tag k="ssr:stedsnr" v="462073" />
	</node>
	<node id="-492203" lat="60.7679388897" lon="4.68332223064">
		<tag k="fixme" v="consider seamark:type=rock or natural=shoal" />
		<tag k="name" v="Islendingskjeret" />
		<tag k="place" v="islet" />
		<tag k="ssr:stedsnr" v="462027" />
	</node>
	<node id="-492202" lat="60.8234527769" lon="4.64483610659">
		<tag k="name" v="Humreboane" />
		<tag k="natural" v="shoal" />
		<tag k="place" v="locality" />
		<tag k="ssr:stedsnr" v="457484" />
	</node>
	<node id="-492201" lat="60.7854694434" lon="4.70646943733">
		<tag k="name" v="Mulen" />
		<tag k="natural" v="cape" />
		<tag k="ssr:stedsnr" v="449978" />
	</node>
	<node id="-492200" lat="60.7852277781" lon="4.72252222134">
		<tag k="name" v="Kista" />
		<tag k="natural" v="cape" />
		<tag k="ssr:stedsnr" v="449977" />
	</node>
	<node id="-492199" lat="60.801119441" lon="4.69763612039">
		<tag k="name" v="Nordøyflua" />
		<tag k="natural" v="shoal" />
		<tag k="place" v="locality" />
		<tag k="ssr:stedsnr" v="449798" />
	</node>
	<node id="-492198" lat="60.7690027771" lon="4.67873055252">
		<tag k="fixme" v="consider seamark:type=rock or natural=shoal" />
		<tag k="name" v="Suleskjeret" />
		<tag k="place" v="islet" />
		<tag k="ssr:stedsnr" v="449750" />
	</node>
	<node id="-492193" lat="60.8324305599" lon="4.61323611739">
		<tag k="name" v="Grunnenakken" />
		<tag k="natural" v="shoal" />
		<tag k="place" v="locality" />
		<tag k="ssr:stedsnr" v="431764" />
	</node>
	<node id="-492192" lat="60.8384011302" lon="4.65332406707">
		<tag k="name" v="Utrorboane" />
		<tag k="natural" v="shoal" />
		<tag k="place" v="locality" />
		<tag k="ssr:stedsnr" v="431763" />
	</node>
	<node id="-492191" lat="60.8218111135" lon="4.64975834187">
		<tag k="name" v="Ljøsøyskjeret" />
		<tag k="place" v="islet" />
		<tag k="ssr:stedsnr" v="431760" />
	</node>
	<node id="-492190" lat="60.7920805536" lon="4.65923888453">
		<tag k="fixme" v="consider seamark:type=rock or natural=shoal" />
		<tag k="name" v="Mågøyskjera" />
		<tag k="place" v="islet" />
		<tag k="ssr:stedsnr" v="431656" />
	</node>
	<node id="-492189" lat="60.8090055516" lon="4.6611250069">
		<tag k="fixme" v="consider seamark:type=rock or natural=shoal" />
		<tag k="name" v="Store Sverslingen" />
		<tag k="place" v="islet" />
		<tag k="ssr:stedsnr" v="431649" />
	</node>
	<node id="-492188" lat="60.8148750014" lon="4.65664444952">
		<tag k="name" v="Nordre Ålen" />
		<tag k="natural" v="strait" />
		<tag k="ssr:stedsnr" v="431644" />
	</node>
	<node id="-492187" lat="60.7556944403" lon="4.70336111365">
		<tag k="fixme" v="consider seamark:type=rock or natural=shoal" />
		<tag k="name" v="Hellesøyskjeret" />
		<tag k="place" v="islet" />
		<tag k="ssr:stedsnr" v="432628" />
	</node>
	<node id="-492186" lat="60.7609432158" lon="4.68045938002">
		<tag k="name" v="Fedjeboen" />
		<tag k="natural" v="shoal" />
		<tag k="place" v="locality" />
		<tag k="ssr:stedsnr" v="432627" />
	</node>
	<node id="-492185" lat="60.7777972229" lon="4.68601944218">
		<tag k="fixme" v="consider seamark:type=rock or natural=shoal" />
		<tag k="name" v="Nordra Leieskjeret" />
		<tag k="place" v="islet" />
		<tag k="ssr:stedsnr" v="432621" />
	</node>
	<node id="-492184" lat="60.8213111146" lon="4.65822221907">
		<tag k="name" v="Lyngholmen" />
		<tag k="place" v="islet" />
		<tag k="ssr:stedsnr" v="420856" />
	</node>
	<node id="-492183" lat="60.7530294092" lon="4.70925861035">
		<tag k="name" v="Hellesøyna" />
		<tag k="place" v="island" />
		<tag k="ssr:stedsnr" v="267770" />
	</node>
	<node id="-492182" lat="60.8013027816" lon="4.6862749979">
		<tag k="name" v="Mågøyosen" />
		<tag k="natural" v="strait" />
		<tag k="ssr:stedsnr" v="267765" />
	</node>
	<node id="-492181" lat="60.7507666624" lon="4.72632778181">
		<tag k="name" v="Synste Odden" />
		<tag k="natural" v="cape" />
		<tag k="ssr:stedsnr" v="251220" />
	</node>
	<node id="-492179" lat="60.8072962858" lon="4.64903582397">
		<tag k="name" v="Søra Revet" />
		<tag k="natural" v="shoal" />
		<tag k="place" v="locality" />
		<tag k="ssr:stedsnr" v="249613" />
	</node>
	<node id="-492178" lat="60.8245111124" lon="4.6454138886">
		<tag k="name" v="Humreboen" />
		<tag k="natural" v="shoal" />
		<tag k="place" v="locality" />
		<tag k="ssr:stedsnr" v="238849" />
	</node>
	<node id="-492175" lat="60.7960250034" lon="4.67618055338">
		<tag k="name" v="Mågøyklubben" />
		<tag k="natural" v="cape" />
		<tag k="ssr:stedsnr" v="219080" />
	</node>
	<node id="-492173" lat="60.7786166709" lon="4.70953611718">
		<tag k="name" v="Husavågen" />
		<tag k="natural" v="bay" />
		<tag k="ssr:stedsnr" v="219021" />
	</node>
	<node id="-492168" lat="60.7941555561" lon="4.67235555156">
		<tag k="name" v="Nordra Eidet" />
		<tag k="place" v="locality" />
		<tag k="ssr:stedsnr" v="218071" />
	</node>
	<node id="-492167" lat="60.7863305543" lon="4.71873888498">
		<tag k="name" v="Siglingeneset" />
		<tag k="natural" v="cape" />
		<tag k="ssr:stedsnr" v="218069" />
	</node>
	<node id="-492166" lat="60.7915555533" lon="4.69845277656">
		<tag k="name" v="Lepsøyna" />
		<tag k="place" v="island" />
		<tag k="ssr:stedsnr" v="207822" />
	</node>
	<node id="-492165" lat="60.8088472185" lon="4.67014722568">
		<tag k="name" v="Høgeboen" />
		<tag k="natural" v="shoal" />
		<tag k="place" v="locality" />
		<tag k="ssr:stedsnr" v="207812" />
	</node>
	<node id="-492163" lat="60.7599083372" lon="4.70125555174">
		<tag k="name" v="Havreboen" />
		<tag k="natural" v="shoal" />
		<tag k="place" v="locality" />
		<tag k="ssr:stedsnr" v="206761" />
	</node>
	<node id="-492161" lat="60.804830553" lon="4.73252778038">
		<tag k="bay" v="fjord" />
		<tag k="name" v="Fedjefjorden" />
		<tag k="natural" v="bay" />
		<tag k="ssr:stedsnr" v="189713" />
	</node>
	<node id="-492160" lat="60.7540527742" lon="4.71072500106">
		<tag k="name" v="Fyrsundet" />
		<tag k="natural" v="strait" />
		<tag k="ssr:stedsnr" v="189602" />
	</node>
	<node id="-492159" lat="60.7745527743" lon="4.69628334074">
		<tag k="name" v="Bruvågen" />
		<tag k="natural" v="bay" />
		<tag k="ssr:stedsnr" v="189598" />
	</node>
	<node id="-492158" lat="60.7919555566" lon="4.66783055428">
		<tag k="name" v="Grøna Mågøyna" />
		<tag k="place" v="islet" />
		<tag k="ssr:stedsnr" v="189592" />
	</node>
	<node id="-492157" lat="60.8342021184" lon="4.64040462068">
		<tag k="name" v="Nordosen" />
		<tag k="natural" v="strait" />
		<tag k="ssr:stedsnr" v="188769" />
	</node>
	<node id="-492156" lat="60.754744446" lon="4.70813889139">
		<tag k="name" v="Hammarsundsflua" />
		<tag k="place" v="locality" />
		<tag k="seamark:type" v="rock" />
		<tag k="ssr:stedsnr" v="177814" />
	</node>
	<node id="-492154" lat="60.7708388862" lon="4.69556111071">
		<tag k="name" v="Sengsbukta" />
		<tag k="natural" v="bay" />
		<tag k="ssr:stedsnr" v="158134" />
	</node>
	<node id="-492153" lat="60.7845027743" lon="4.67724722698">
		<tag k="name" v="Store Klovningane" />
		<tag k="place" v="islet" />
		<tag k="ssr:stedsnr" v="158108" />
	</node>
	<node id="-492152" lat="60.7812833298" lon="4.67753333887">
		<tag k="fixme" v="consider seamark:type=rock or natural=shoal" />
		<tag k="name" v="Langa Skjeret" />
		<tag k="place" v="islet" />
		<tag k="ssr:stedsnr" v="158109" />
	</node>
	<node id="-492151" lat="60.797505556" lon="4.70015278111">
		<tag k="fixme" v="consider seamark:type=rock or natural=shoal" />
		<tag k="name" v="Skjeret" />
		<tag k="place" v="islet" />
		<tag k="ssr:stedsnr" v="158103" />
	</node>
	<node id="-492150" lat="60.7937944485" lon="4.66344444913">
		<tag k="fixme" v="consider seamark:type=rock or natural=shoal" />
		<tag k="name" v="Insta Mågøyskjeret" />
		<tag k="place" v="islet" />
		<tag k="ssr:stedsnr" v="158047" />
	</node>
	<node id="-492149" lat="60.7911361066" lon="4.67162221499">
		<tag k="name" v="Søra Eidet" />
		<tag k="place" v="locality" />
		<tag k="ssr:stedsnr" v="158043" />
	</node>
	<node id="-492147" lat="60.8059944475" lon="4.67452778245">
		<tag k="name" v="Slurvane" />
		<tag k="natural" v="shoal" />
		<tag k="place" v="locality" />
		<tag k="ssr:stedsnr" v="146793" />
	</node>
	<node id="-492146" lat="60.7520666709" lon="4.72025833917">
		<tag k="name" v="Breivika" />
		<tag k="natural" v="bay" />
		<tag k="ssr:stedsnr" v="145781" />
	</node>
	<node id="-492145" lat="60.7718000016" lon="4.69438334226">
		<tag k="name" v="Sengsneset" />
		<tag k="natural" v="cape" />
		<tag k="ssr:stedsnr" v="145766" />
	</node>
	<node id="-492144" lat="60.7566027807" lon="4.65533611617">
		<tag k="name" v="Øshammaren" />
		<tag k="natural" v="shoal" />
		<tag k="place" v="locality" />
		<tag k="ssr:stedsnr" v="145758" />
	</node>
	<node id="-492143" lat="60.7496166649" lon="4.69908889551">
		<tag k="name" v="Søre Hellesøyskallen" />
		<tag k="natural" v="shoal" />
		<tag k="place" v="locality" />
		<tag k="ssr:stedsnr" v="145756" />
	</node>
	<node id="-492141" lat="60.7548999962" lon="4.74067500001">
		<tag k="name" v="Æskjeret" />
		<tag k="place" v="islet" />
		<tag k="ssr:stedsnr" v="129219" />
	</node>
	<node id="-492140" lat="60.7830111101" lon="4.72897778197">
		<tag k="name" v="Rognsneset" />
		<tag k="natural" v="cape" />
		<tag k="ssr:stedsnr" v="129007" />
	</node>
	<node id="-492139" lat="60.8278277811" lon="4.64761389636">
		<tag k="name" v="Lisla Frilsøyna" />
		<tag k="place" v="island" />
		<tag k="ssr:stedsnr" v="128742" />
	</node>
	<node id="-492138" lat="60.8312305554" lon="4.63528889315">
		<tag k="fixme" v="consider seamark:type=rock or natural=shoal" />
		<tag k="name" v="Vestskjer" />
		<tag k="place" v="islet" />
		<tag k="ssr:stedsnr" v="116846" />
	</node>
	<node id="-492136" lat="60.7797138861" lon="4.70837500876">
		<tag k="name" v="Smiholmen" />
		<tag k="place" v="islet" />
		<tag k="ssr:stedsnr" v="98022" />
	</node>
	<node id="-492135" lat="60.7898722267" lon="4.68085556243">
		<tag k="name" v="Nordre Lyngholmen" />
		<tag k="place" v="islet" />
		<tag k="ssr:stedsnr" v="98014" />
	</node>
	<node id="-492133" lat="60.7849694459" lon="4.68224166083">
		<tag k="name" v="Siriholmen" />
		<tag k="place" v="islet" />
		<tag k="ssr:stedsnr" v="85796" />
	</node>
	<node id="-492132" lat="60.783794448" lon="4.66954444913">
		<tag k="fixme" v="consider seamark:type=rock or natural=shoal" />
		<tag k="name" v="Navarskjeret" />
		<tag k="place" v="islet" />
		<tag k="ssr:stedsnr" v="85794" />
	</node>
	<node id="-492131" lat="60.7990083291" lon="4.70246389335">
		<tag k="fixme" v="consider seamark:type=rock or natural=shoal" />
		<tag k="name" v="Nordøyskjeret" />
		<tag k="place" v="islet" />
		<tag k="ssr:stedsnr" v="85786" />
	</node>
	<node id="-492130" lat="60.7744749989" lon="4.68639444481">
		<tag k="name" v="Sandøygrunnen" />
		<tag k="natural" v="shoal" />
		<tag k="place" v="locality" />
		<tag k="ssr:stedsnr" v="85734" />
	</node>
	<node id="-492129" lat="60.765109667" lon="4.69628737638">
		<tag k="fixme" v="consider seamark:type=rock or natural=shoal" />
		<tag k="name" v="Kavringen" />
		<tag k="place" v="islet" />
		<tag k="ssr:stedsnr" v="85727" />
	</node>
	<node id="-492125" lat="60.7735138929" lon="4.73685833794">
		<tag k="name" v="Sildevågen" />
		<tag k="natural" v="bay" />
		<tag k="ssr:stedsnr" v="69243" />
	</node>
	<node id="-492124" lat="60.7783805536" lon="4.73863889754">
		<tag k="name" v="Flundrevågen" />
		<tag k="natural" v="bay" />
		<tag k="ssr:stedsnr" v="69015" />
	</node>
	<node id="-492122" lat="60.8235555524" lon="4.65865556466">
		<tag k="name" v="Innarsøyane" />
		<tag k="place" v="islet" />
		<tag k="ssr:stedsnr" v="67745" />
	</node>
	<node id="-492121" lat="60.7949027785" lon="4.69392500121">
		<tag k="name" v="Austra Slissøyna" />
		<tag k="place" v="islet" />
		<tag k="ssr:stedsnr" v="67644" />
	</node>
	<node id="-492120" lat="60.8064916666" lon="4.67583611186">
		<tag k="name" v="Håflua" />
		<tag k="natural" v="shoal" />
		<tag k="place" v="locality" />
		<tag k="ssr:stedsnr" v="67640" />
	</node>
	<node id="-492119" lat="60.8439861102" lon="4.65320555381">
		<tag k="name" v="Spaken" />
		<tag k="natural" v="shoal" />
		<tag k="place" v="locality" />
		<tag k="ssr:stedsnr" v="56835" />
	</node>
	<node id="-492118" lat="60.7681888874" lon="4.64964721369">
		<tag k="name" v="Pershammaren" />
		<tag k="natural" v="shoal" />
		<tag k="place" v="locality" />
		<tag k="ssr:stedsnr" v="56798" />
	</node>
	<node id="-492117" lat="60.7608305546" lon="4.74366943618">
		<tag k="name" v="Langøyna" />
		<tag k="place" v="island" />
		<tag k="ssr:stedsnr" v="37152" />
	</node>
	<node id="-492115" lat="60.7863138912" lon="4.67999166016">
		<tag k="name" v="Flatholmen" />
		<tag k="place" v="islet" />
		<tag k="ssr:stedsnr" v="37141" />
	</node>
	<node id="-492114" lat="60.774074999" lon="4.69830833918">
		<tag k="fixme" v="consider seamark:type=rock or natural=shoal" />
		<tag k="name" v="Otresteinen" />
		<tag k="place" v="islet" />
		<tag k="ssr:stedsnr" v="37131" />
	</node>
	<node id="-492113" lat="60.7877527779" lon="4.68408333384">
		<tag k="name" v="Søre Lyngholmen" />
		<tag k="place" v="islet" />
		<tag k="ssr:stedsnr" v="37124" />
	</node>
	<node id="-492106" lat="60.8145388925" lon="4.61838056135">
		<tag k="name" v="Vårhammarflua" />
		<tag k="natural" v="shoal" />
		<tag k="place" v="locality" />
		<tag k="ssr:stedsnr" v="7728" />
	</node>
	<node id="-492105" lat="60.7774361076" lon="4.67381666684">
		<tag k="name" v="Store Fiskholmen" />
		<tag k="place" v="islet" />
		<tag k="ssr:stedsnr" v="7615" />
	</node>
	<node id="-492104" lat="60.8117128852" lon="4.6487775818">
		<tag k="name" v="Nordra Revet" />
		<tag k="natural" v="shoal" />
		<tag k="place" v="locality" />
		<tag k="ssr:stedsnr" v="7604" />
	</node>
	<node id="-492103" lat="60.8111194425" lon="4.6718777767">
		<tag k="name" v="Meflua" />
		<tag k="natural" v="shoal" />
		<tag k="place" v="locality" />
		<tag k="ssr:stedsnr" v="7602" />
	</node>
	<node id="-492100" lat="60.8283797369" lon="4.64303778221">
		<tag k="name" v="Frilsøyane" />
		<tag k="place" v="island" />
		<tag k="ssr:stedsnr" v="1072133" />
	</node>
	<node id="-492099" lat="60.812775851" lon="4.64863301946">
		<tag k="name" v="Revet" />
		<tag k="natural" v="shoal" />
		<tag k="place" v="locality" />
		<tag k="ssr:stedsnr" v="1072131" />
	</node>
	<node id="-492097" lat="60.7807064671" lon="4.70906465844">
		<tag k="name" v="Sørvågen" />
		<tag k="natural" v="bay" />
		<tag k="ssr:stedsnr" v="1072124" />
	</node>
	<node id="-492096" lat="60.7667611091" lon="4.68730524473">
		<tag k="name" v="Søre Islendingen" />
		<tag k="place" v="islet" />
		<tag k="ssr:stedsnr" v="1072119" />
	</node>
	<node id="-492095" lat="60.7783477243" lon="4.69527714375">
		<tag k="name" v="Vidnappen" />
		<tag k="natural" v="cape" />
		<tag k="ssr:stedsnr" v="1072118" />
	</node>
	<node id="-492092" lat="60.7874000008" lon="4.68651110951">
		<tag k="name" v="Lyngholmosen" />
		<tag k="natural" v="strait" />
		<tag k="ssr:stedsnr" v="887105" />
	</node>
	<node id="-492091" lat="60.7903333332" lon="4.70592777863">
		<tag k="fixme" v="consider seamark:type=rock or natural=shoal" />
		<tag k="name" v="Ringeskjeret" />
		<tag k="place" v="islet" />
		<tag k="ssr:stedsnr" v="887084" />
	</node>
	<node id="-492090" lat="60.7971749964" lon="4.689727779">
		<tag k="name" v="Rognholmen" />
		<tag k="place" v="islet" />
		<tag k="ssr:stedsnr" v="887083" />
	</node>
	<node id="-492089" lat="60.778125003" lon="4.68636389619">
		<tag k="fixme" v="consider seamark:type=rock or natural=shoal" />
		<tag k="name" v="Nordra Liaskjeret" />
		<tag k="place" v="islet" />
		<tag k="ssr:stedsnr" v="887081" />
	</node>
	<node id="-492088" lat="60.7504083376" lon="4.70842777515">
		<tag k="fixme" v="consider seamark:type=rock or natural=shoal" />
		<tag k="name" v="Teistenakken" />
		<tag k="place" v="islet" />
		<tag k="ssr:stedsnr" v="887035" />
	</node>
	<node id="-492085" lat="60.7968388868" lon="4.69280832695">
		<tag k="name" v="Nordøysundet" />
		<tag k="natural" v="strait" />
		<tag k="ssr:stedsnr" v="401027" />
	</node>
	<node id="-492083" lat="60.788949997" lon="4.67576389693">
		<tag k="fixme" v="consider seamark:type=rock or natural=shoal" />
		<tag k="name" v="Lyngholmeskjeret" />
		<tag k="place" v="islet" />
		<tag k="ssr:stedsnr" v="400075" />
	</node>
	<node id="-492082" lat="60.780613889" lon="4.72396666115">
		<tag k="name" v="Rognsvågen" />
		<tag k="natural" v="bay" />
		<tag k="ssr:stedsnr" v="388816" />
	</node>
	<node id="-492081" lat="60.7836861088" lon="4.69159167586">
		<tag k="name" v="Karlsøyna" />
		<tag k="place" v="island" />
		<tag k="ssr:stedsnr" v="388815" />
	</node>
	<node id="-492080" lat="60.7784916645" lon="4.68133055454">
		<tag k="fixme" v="consider seamark:type=rock or natural=shoal" />
		<tag k="name" v="Harjen" />
		<tag k="place" v="islet" />
		<tag k="ssr:stedsnr" v="388814" />
	</node>
	<node id="-492074" lat="60.8449138853" lon="4.64117222679">
		<tag k="fixme" v="consider seamark:type=rock or natural=shoal" />
		<tag k="name" v="Dubleskjeret" />
		<tag k="place" v="islet" />
		<tag k="ssr:stedsnr" v="371744" />
	</node>
	<node id="-492072" lat="60.7678666702" lon="4.68658055478">
		<tag k="name" v="Islendingane" />
		<tag k="place" v="islet" />
		<tag k="ssr:stedsnr" v="371636" />
	</node>
	<node id="-492071" lat="60.8421305542" lon="4.64048332902">
		<tag k="fixme" v="consider seamark:type=rock or natural=shoal" />
		<tag k="name" v="Ekreskjeret" />
		<tag k="place" v="islet" />
		<tag k="ssr:stedsnr" v="370759" />
	</node>
	<node id="-492070" lat="60.8218638871" lon="4.66171944132">
		<tag k="name" v="Burøyna" />
		<tag k="place" v="island" />
		<tag k="ssr:stedsnr" v="370752" />
	</node>
	<node id="-492069" lat="60.8011499962" lon="4.66744721508">
		<tag k="fixme" v="consider seamark:type=rock or natural=shoal" />
		<tag k="name" v="Store Geitungen" />
		<tag k="place" v="islet" />
		<tag k="ssr:stedsnr" v="370639" />
	</node>
	<node id="-492068" lat="60.81365" lon="4.66377222183">
		<tag k="name" v="Gjøklakken" />
		<tag k="natural" v="shoal" />
		<tag k="place" v="locality" />
		<tag k="ssr:stedsnr" v="370637" />
	</node>
	<node id="-492067" lat="60.8435333379" lon="4.64696667392">
		<tag k="fixme" v="consider seamark:type=rock or natural=shoal" />
		<tag k="name" v="Utrorskjeret" />
		<tag k="place" v="islet" />
		<tag k="ssr:stedsnr" v="359827" />
	</node>
	<node id="-492066" lat="60.8026527751" lon="4.68020555847">
		<tag k="fixme" v="consider seamark:type=rock or natural=shoal" />
		<tag k="name" v="Håfluskjera" />
		<tag k="place" v="islet" />
		<tag k="ssr:stedsnr" v="357132" />
	</node>
	<node id="-492065" lat="60.7837305512" lon="4.7057194411">
		<tag k="name" v="Dansevågen" />
		<tag k="natural" v="bay" />
		<tag k="ssr:stedsnr" v="340126" />
	</node>
	<node id="-492064" lat="60.7602888923" lon="4.70271111269">
		<tag k="fixme" v="consider seamark:type=rock or natural=shoal" />
		<tag k="name" v="Vassvikeskjeret" />
		<tag k="place" v="islet" />
		<tag k="ssr:stedsnr" v="340119" />
	</node>
	<node id="-492062" lat="60.7873361122" lon="4.68035832855">
		<tag k="fixme" v="consider seamark:type=rock or natural=shoal" />
		<tag k="name" v="Flatholmeskjeret" />
		<tag k="place" v="islet" />
		<tag k="ssr:stedsnr" v="340091" />
	</node>
	<node id="-492059" lat="60.7787527769" lon="4.69107778103">
		<tag k="name" v="Nordre Vidnappen" />
		<tag k="natural" v="cape" />
		<tag k="ssr:stedsnr" v="328834" />
	</node>
	<node id="-492058" lat="60.7772027764" lon="4.67118889337">
		<tag k="name" v="Storeflua" />
		<tag k="natural" v="shoal" />
		<tag k="place" v="locality" />
		<tag k="ssr:stedsnr" v="328830" />
	</node>
	<node id="-492056" lat="60.7846194447" lon="4.72782500028">
		<tag k="fixme" v="consider seamark:type=rock or natural=shoal" />
		<tag k="name" v="Vardeskjeret" />
		<tag k="place" v="islet" />
		<tag k="ssr:stedsnr" v="311004" />
	</node>
	<node id="-492055" lat="60.7828472186" lon="4.67333055025">
		<tag k="name" v="Sandholmosen" />
		<tag k="natural" v="strait" />
		<tag k="ssr:stedsnr" v="310645" />
	</node>
	<node id="-492052" lat="60.7868694434" lon="4.65159443561">
		<tag k="name" v="Mågøyskallen" />
		<tag k="natural" v="shoal" />
		<tag k="place" v="locality" />
		<tag k="ssr:stedsnr" v="310640" />
	</node>
	<node id="-492051" lat="60.8294944428" lon="4.65103333595">
		<tag k="name" v="Svartskjerflua" />
		<tag k="natural" v="shoal" />
		<tag k="place" v="locality" />
		<tag k="ssr:stedsnr" v="298803" />
	</node>
	<node id="-492050" lat="60.844563887" lon="4.64966389112">
		<tag k="fixme" v="consider seamark:type=rock or natural=shoal" />
		<tag k="name" v="Skotten" />
		<tag k="place" v="islet" />
		<tag k="ssr:stedsnr" v="298779" />
	</node>
	<node id="-492048" lat="60.7883666647" lon="4.67436943855">
		<tag k="name" v="Sandholmeklubben" />
		<tag k="place" v="islet" />
		<tag k="ssr:stedsnr" v="280083" />
	</node>
	<node id="-492047" lat="60.7762861094" lon="4.67177221895">
		<tag k="fixme" v="consider seamark:type=rock or natural=shoal" />
		<tag k="name" v="Fiskholmeskjeret" />
		<tag k="place" v="islet" />
		<tag k="ssr:stedsnr" v="280082" />
	</node>
	<node id="-492046" lat="60.7703055597" lon="4.6874361196">
		<tag k="fixme" v="consider seamark:type=rock or natural=shoal" />
		<tag k="name" v="Hella" />
		<tag k="place" v="islet" />
		<tag k="ssr:stedsnr" v="280018" />
	</node>
</osm>
