<?xml version="1.0" encoding="UTF-8"?>
<<<<<<< HEAD
<osm version="0.6" generator="osmapis">
	<node lat="62.19936666626759" lon="6.130844437355169" id="-4409">
		<tag k="alt_name" v="Ørsta" />
		<tag k="name" v="Ørsta kommune" />
		<tag k="ssr:date" v="2016-05-10" />
		<tag k="ssr:gruppe" v="administrativeIndelinger" />
		<tag k="ssr:hovedgruppe" v="offentligAdministrasjon" />
		<tag k="ssr:stedsnr" v="268160" />
		<tag k="ssr:type" v="kommune" />
	</node>
	<node lat="62.24043055916173" lon="6.341913890489565" id="-4972">
		<tag k="name" v="Svingen" />
		<tag k="ssr:date" v="2016-05-10" />
		<tag k="ssr:gruppe" v="veg" />
		<tag k="ssr:hovedgruppe" v="infrastruktur" />
		<tag k="ssr:stedsnr" v="612279" />
		<tag k="ssr:type" v="vegstrekning" />
	</node>
	<node lat="62.248188885668576" lon="5.96175833055991" id="-5368">
		<tag k="name" v="Rjånes" />
		<tag k="ssr:date" v="2016-05-11" />
		<tag k="ssr:gruppe" v="navigasjon" />
		<tag k="ssr:hovedgruppe" v="infrastruktur" />
		<tag k="ssr:stedsnr" v="840006" />
		<tag k="ssr:type" v="lanterne" />
	</node>
	<node lat="62.73392710705581" lon="7.14918030614603" id="-5774">
		<tag k="alt_name" v="Møre og Romsdal" />
		<tag k="name" v="Møre og Romsdal fylke" />
		<tag k="ssr:date" v="2021-09-21" />
		<tag k="ssr:gruppe" v="administrativeIndelinger" />
		<tag k="ssr:hovedgruppe" v="offentligAdministrasjon" />
		<tag k="ssr:stedsnr" v="145583" />
		<tag k="ssr:type" v="fylke" />
	</node>
	<node lat="62.24112290916516" lon="5.979470716066825" id="-6255">
		<tag k="name" v="Raudøy" />
		<tag k="ssr:date" v="2020-09-16" />
		<tag k="ssr:gruppe" v="navigasjon" />
		<tag k="ssr:hovedgruppe" v="infrastruktur" />
		<tag k="ssr:stedsnr" v="436134" />
		<tag k="ssr:type" v="fyrlykt" />
	</node>
	<node lat="62.21618889031082" lon="6.0083333393205836" id="-6765">
		<tag k="name" v="Lianesholmen" />
		<tag k="ssr:date" v="2016-05-11" />
		<tag k="ssr:gruppe" v="navigasjon" />
		<tag k="ssr:hovedgruppe" v="infrastruktur" />
		<tag k="ssr:stedsnr" v="780343" />
		<tag k="ssr:type" v="lanterne" />
	</node>
	<node lat="62.206112413566665" lon="6.528790832003758" id="-6891">
		<tag k="alt_name" v="Leknes" />
		<tag k="name" v="Lekneset" />
		<tag k="ssr:date" v="2020-09-08" />
		<tag k="ssr:gruppe" v="navigasjon" />
		<tag k="ssr:hovedgruppe" v="infrastruktur" />
		<tag k="ssr:stedsnr" v="860551" />
		<tag k="ssr:type" v="fyrlykt" />
	</node>
	<node lat="62.248733400781454" lon="6.281476260946291" id="-6997">
		<tag k="name" v="Kubbestøylen" />
		<tag k="ssr:date" v="2019-05-31" />
		<tag k="ssr:gruppe" v="veg" />
		<tag k="ssr:hovedgruppe" v="infrastruktur" />
		<tag k="ssr:stedsnr" v="1061438" />
		<tag k="ssr:type" v="adressenavn" />
	</node>
	<node lat="62.24004162198992" lon="6.333302674860456" id="-6998">
		<tag k="name" v="Myklebustsetra" />
		<tag k="ssr:date" v="2019-05-31" />
		<tag k="ssr:gruppe" v="veg" />
		<tag k="ssr:hovedgruppe" v="infrastruktur" />
		<tag k="ssr:stedsnr" v="1061441" />
		<tag k="ssr:type" v="adressenavn" />
	</node>
	<node lat="62.23511370509954" lon="6.314934047627884" id="-6999">
		<tag k="name" v="Øyasetra" />
		<tag k="ssr:date" v="2019-05-31" />
		<tag k="ssr:gruppe" v="veg" />
		<tag k="ssr:hovedgruppe" v="infrastruktur" />
		<tag k="ssr:stedsnr" v="1061442" />
		<tag k="ssr:type" v="adressenavn" />
	</node>
	<node lat="62.225182771395886" lon="6.183834535201945" id="-7000">
		<tag k="name" v="Nupasetra" />
		<tag k="ssr:date" v="2019-05-31" />
		<tag k="ssr:gruppe" v="veg" />
		<tag k="ssr:hovedgruppe" v="infrastruktur" />
		<tag k="ssr:stedsnr" v="1061445" />
		<tag k="ssr:type" v="adressenavn" />
	</node>
	<node lat="62.2338695312072" lon="6.079207793751737" id="-7001">
		<tag k="name" v="Skorgesetra" />
		<tag k="ssr:date" v="2019-05-31" />
		<tag k="ssr:gruppe" v="veg" />
		<tag k="ssr:hovedgruppe" v="infrastruktur" />
		<tag k="ssr:stedsnr" v="1061447" />
		<tag k="ssr:type" v="adressenavn" />
	</node>
	<node lat="62.241839790214385" lon="6.281983689083862" id="-7002">
		<tag k="name" v="Årsætersetra" />
		<tag k="ssr:date" v="2019-05-31" />
		<tag k="ssr:gruppe" v="veg" />
		<tag k="ssr:hovedgruppe" v="infrastruktur" />
		<tag k="ssr:stedsnr" v="1061448" />
		<tag k="ssr:type" v="adressenavn" />
	</node>
	<node lat="62.19305182774186" lon="6.175626553162096" id="-7003">
		<tag k="name" v="Brekkesetra" />
		<tag k="ssr:date" v="2019-05-31" />
		<tag k="ssr:gruppe" v="veg" />
		<tag k="ssr:hovedgruppe" v="infrastruktur" />
		<tag k="ssr:stedsnr" v="1061449" />
		<tag k="ssr:type" v="adressenavn" />
	</node>
	<node lat="62.253746644254655" lon="6.23077989907877" id="-7004">
		<tag k="name" v="Høgeheida" />
		<tag k="ssr:date" v="2019-05-31" />
		<tag k="ssr:gruppe" v="veg" />
		<tag k="ssr:hovedgruppe" v="infrastruktur" />
		<tag k="ssr:stedsnr" v="1061451" />
		<tag k="ssr:type" v="adressenavn" />
	</node>
	<node lat="62.23183668242816" lon="6.211281525147999" id="-7005">
		<tag k="name" v="Vallasetra" />
		<tag k="ssr:date" v="2019-05-31" />
		<tag k="ssr:gruppe" v="veg" />
		<tag k="ssr:hovedgruppe" v="infrastruktur" />
		<tag k="ssr:stedsnr" v="1061452" />
		<tag k="ssr:type" v="adressenavn" />
	</node>
	<node lat="62.13329289091814" lon="6.192882045533393" id="-7006">
		<tag k="name" v="Krøvelssetra" />
		<tag k="ssr:date" v="2019-05-31" />
		<tag k="ssr:gruppe" v="veg" />
		<tag k="ssr:hovedgruppe" v="infrastruktur" />
		<tag k="ssr:stedsnr" v="1061454" />
		<tag k="ssr:type" v="adressenavn" />
	</node>
	<node lat="62.283557207252514" lon="6.2768838725226805" id="-7007">
=======
<osm generator="osmapis" version="0.6">
	<node id="-65960" lat="62.2404305592" lon="6.34191389049">
		<tag k="name" v="Svingen" />
		<tag k="ssr:date" v="2016-05-10" />
		<tag k="ssr:gruppe" v="veg" />
		<tag k="ssr:hovedgruppe" v="infrastruktur" />
		<tag k="ssr:stedsnr" v="612279" />
		<tag k="ssr:type" v="vegstrekning" />
	</node>
	<node id="-66469" lat="62.2835572073" lon="6.27688387252">
>>>>>>> e1d4bc35ff8a6074a6f2e91616a996b547c36f15
		<tag k="name" v="Steinstøylen" />
		<tag k="ssr:date" v="2019-05-31" />
		<tag k="ssr:gruppe" v="veg" />
		<tag k="ssr:hovedgruppe" v="infrastruktur" />
		<tag k="ssr:stedsnr" v="1061432" />
		<tag k="ssr:type" v="adressenavn" />
	</node>
<<<<<<< HEAD
	<node lat="62.27376044035627" lon="6.284396821820393" id="-7008">
		<tag k="name" v="Romedalsstøylen" />
		<tag k="ssr:date" v="2019-05-31" />
		<tag k="ssr:gruppe" v="veg" />
		<tag k="ssr:hovedgruppe" v="infrastruktur" />
		<tag k="ssr:stedsnr" v="1061435" />
		<tag k="ssr:type" v="adressenavn" />
	</node>
	<node lat="62.172061338594915" lon="6.1135451582313305" id="-7009">
		<tag k="name" v="Ossetra" />
		<tag k="ssr:date" v="2019-05-31" />
		<tag k="ssr:gruppe" v="veg" />
		<tag k="ssr:hovedgruppe" v="infrastruktur" />
		<tag k="ssr:stedsnr" v="1061467" />
		<tag k="ssr:type" v="adressenavn" />
	</node>
	<node lat="62.14805757452489" lon="6.2410434581733965" id="-7010">
		<tag k="name" v="Bakkeråsa" />
		<tag k="ssr:date" v="2019-05-31" />
		<tag k="ssr:gruppe" v="veg" />
		<tag k="ssr:hovedgruppe" v="infrastruktur" />
		<tag k="ssr:stedsnr" v="1061559" />
		<tag k="ssr:type" v="adressenavn" />
	</node>
	<node lat="62.14857005699549" lon="6.2389963254927" id="-7011">
		<tag k="name" v="Strandavegen" />
		<tag k="ssr:date" v="2019-05-31" />
		<tag k="ssr:gruppe" v="veg" />
		<tag k="ssr:hovedgruppe" v="infrastruktur" />
		<tag k="ssr:stedsnr" v="1061560" />
		<tag k="ssr:type" v="adressenavn" />
	</node>
	<node lat="62.24758906471521" lon="6.032314678825987" id="-7012">
		<tag k="name" v="Leite" />
		<tag k="ssr:date" v="2019-05-31" />
		<tag k="ssr:gruppe" v="veg" />
		<tag k="ssr:hovedgruppe" v="infrastruktur" />
		<tag k="ssr:stedsnr" v="1061563" />
		<tag k="ssr:type" v="adressenavn" />
	</node>
	<node lat="62.24921015813823" lon="6.034796721517997" id="-7013">
		<tag k="name" v="Liadalssetra" />
		<tag k="ssr:date" v="2019-05-31" />
		<tag k="ssr:gruppe" v="veg" />
		<tag k="ssr:hovedgruppe" v="infrastruktur" />
		<tag k="ssr:stedsnr" v="1061566" />
		<tag k="ssr:type" v="adressenavn" />
	</node>
	<node lat="62.135470371843205" lon="6.521670881380892" id="-7014">
		<tag k="name" v="Kvamsedalssetra" />
		<tag k="ssr:date" v="2019-12-03" />
=======
	<node id="-66360" lat="62.2060888897" lon="6.52870555589">
		<tag k="name" v="Leknes" />
		<tag k="ssr:date" v="2016-05-11" />
		<tag k="ssr:gruppe" v="navigasjon" />
		<tag k="ssr:hovedgruppe" v="infrastruktur" />
		<tag k="ssr:stedsnr" v="860551" />
		<tag k="ssr:type" v="fyrlykt" />
	</node>
	<node id="-66504" lat="69.6388889725" lon="30.5666644427">
		<tag k="fixme" v="multiple name tags, choose one and add the other to alt_name" />
		<tag k="loc_name:se" v="Norgga gonagasriika" />
		<tag k="loc_name:sma" v="Nöörjen gånkarïjhke" />
		<tag k="loc_name:smj" v="Vuona gånågisrijkka" />
		<tag k="name" v="Noreg;Norge" />
		<tag k="name:en" v="Norway" />
		<tag k="name:no" v="Noreg;Norge" />
		<tag k="ssr:date" v="2020-06-04" />
		<tag k="ssr:gruppe" v="administrativeIndelinger" />
		<tag k="ssr:hovedgruppe" v="offentligAdministrasjon" />
		<tag k="ssr:stedsnr" v="26330" />
		<tag k="ssr:type" v="nasjon" />
	</node>
	<node id="-66503" lat="62.2298271873" lon="6.59976491301">
		<tag k="name" v="Myrsetra" />
		<tag k="ssr:date" v="2019-12-04" />
>>>>>>> e1d4bc35ff8a6074a6f2e91616a996b547c36f15
		<tag k="ssr:gruppe" v="veg" />
		<tag k="ssr:hovedgruppe" v="infrastruktur" />
		<tag k="ssr:stedsnr" v="1073682" />
		<tag k="ssr:type" v="adressenavn" />
	</node>
<<<<<<< HEAD
	<node lat="62.14241434912784" lon="6.389231171455188" id="-7015">
		<tag k="name" v="Kvia" />
		<tag k="name:no" v="Kvia" />
		<tag k="ssr:date" v="2019-12-03" />
=======
	<node id="-66502" lat="62.2263881275" lon="6.6343300223">
		<tag k="name" v="Langsetra" />
		<tag k="ssr:date" v="2019-12-04" />
>>>>>>> e1d4bc35ff8a6074a6f2e91616a996b547c36f15
		<tag k="ssr:gruppe" v="veg" />
		<tag k="ssr:hovedgruppe" v="infrastruktur" />
		<tag k="ssr:stedsnr" v="1073679" />
		<tag k="ssr:type" v="adressenavn" />
	</node>
<<<<<<< HEAD
	<node lat="62.15987621447553" lon="6.446341867892947" id="-7016">
		<tag k="name" v="Årsetsetra" />
		<tag k="ssr:date" v="2019-12-03" />
=======
	<node id="-66501" lat="62.2922956141" lon="6.35492289996">
		<tag k="name" v="Ytre-Standalsetra" />
		<tag k="ssr:date" v="2019-12-04" />
>>>>>>> e1d4bc35ff8a6074a6f2e91616a996b547c36f15
		<tag k="ssr:gruppe" v="veg" />
		<tag k="ssr:hovedgruppe" v="infrastruktur" />
		<tag k="ssr:stedsnr" v="1073680" />
		<tag k="ssr:type" v="adressenavn" />
	</node>
<<<<<<< HEAD
	<node lat="62.19598313468922" lon="6.3410646680630425" id="-7017">
		<tag k="name" v="Frølandssetra" />
=======
	<node id="-66500" lat="62.2845687428" lon="6.52204298693">
		<tag k="name" v="Trandalssetra" />
>>>>>>> e1d4bc35ff8a6074a6f2e91616a996b547c36f15
		<tag k="ssr:date" v="2019-12-03" />
		<tag k="ssr:gruppe" v="veg" />
		<tag k="ssr:hovedgruppe" v="infrastruktur" />
		<tag k="ssr:stedsnr" v="1073683" />
		<tag k="ssr:type" v="adressenavn" />
	</node>
<<<<<<< HEAD
	<node lat="62.143366609440896" lon="6.7467180091814996" id="-7018">
=======
	<node id="-66499" lat="62.1433666094" lon="6.74671800918">
>>>>>>> e1d4bc35ff8a6074a6f2e91616a996b547c36f15
		<tag k="name" v="Urasetra" />
		<tag k="ssr:date" v="2019-12-03" />
		<tag k="ssr:gruppe" v="veg" />
		<tag k="ssr:hovedgruppe" v="infrastruktur" />
		<tag k="ssr:stedsnr" v="1073687" />
		<tag k="ssr:type" v="adressenavn" />
	</node>
<<<<<<< HEAD
	<node lat="62.284568742844556" lon="6.522042986929252" id="-7019">
		<tag k="name" v="Trandalssetra" />
=======
	<node id="-66498" lat="62.1959831347" lon="6.34106466806">
		<tag k="name" v="Frølandssetra" />
>>>>>>> e1d4bc35ff8a6074a6f2e91616a996b547c36f15
		<tag k="ssr:date" v="2019-12-03" />
		<tag k="ssr:gruppe" v="veg" />
		<tag k="ssr:hovedgruppe" v="infrastruktur" />
		<tag k="ssr:stedsnr" v="1073688" />
		<tag k="ssr:type" v="adressenavn" />
	</node>
<<<<<<< HEAD
	<node lat="62.29229561406624" lon="6.354922899963172" id="-7020">
		<tag k="name" v="Ytre-Standalsetra" />
		<tag k="ssr:date" v="2019-12-04" />
=======
	<node id="-66497" lat="62.1598762145" lon="6.44634186789">
		<tag k="name" v="Årsetsetra" />
		<tag k="ssr:date" v="2019-12-03" />
>>>>>>> e1d4bc35ff8a6074a6f2e91616a996b547c36f15
		<tag k="ssr:gruppe" v="veg" />
		<tag k="ssr:hovedgruppe" v="infrastruktur" />
		<tag k="ssr:stedsnr" v="1073691" />
		<tag k="ssr:type" v="adressenavn" />
	</node>
<<<<<<< HEAD
	<node lat="62.22638812750932" lon="6.634330022303682" id="-7021">
		<tag k="name" v="Langsetra" />
		<tag k="ssr:date" v="2019-12-04" />
=======
	<node id="-66496" lat="62.1424143491" lon="6.38923117146">
		<tag k="name" v="Kvia" />
		<tag k="name:no" v="Kvia" />
		<tag k="ssr:date" v="2019-12-03" />
>>>>>>> e1d4bc35ff8a6074a6f2e91616a996b547c36f15
		<tag k="ssr:gruppe" v="veg" />
		<tag k="ssr:hovedgruppe" v="infrastruktur" />
		<tag k="ssr:stedsnr" v="1073692" />
		<tag k="ssr:type" v="adressenavn" />
	</node>
<<<<<<< HEAD
	<node lat="62.229827187260156" lon="6.5997649130111995" id="-7022">
		<tag k="name" v="Myrsetra" />
		<tag k="ssr:date" v="2019-12-04" />
=======
	<node id="-66495" lat="62.1354703718" lon="6.52167088138">
		<tag k="name" v="Kvamsedalssetra" />
		<tag k="ssr:date" v="2019-12-03" />
>>>>>>> e1d4bc35ff8a6074a6f2e91616a996b547c36f15
		<tag k="ssr:gruppe" v="veg" />
		<tag k="ssr:hovedgruppe" v="infrastruktur" />
		<tag k="ssr:stedsnr" v="1073693" />
		<tag k="ssr:type" v="adressenavn" />
	</node>
<<<<<<< HEAD
	<node lat="62.266228798432714" lon="6.1379933457051985" id="-7023">
		<tag k="name" v="Øyesetra" />
=======
	<node id="-66494" lat="62.2650825566" lon="6.18887263102">
		<tag k="name" v="Grytastøylen" />
>>>>>>> e1d4bc35ff8a6074a6f2e91616a996b547c36f15
		<tag k="ssr:date" v="2019-12-03" />
		<tag k="ssr:gruppe" v="veg" />
		<tag k="ssr:hovedgruppe" v="infrastruktur" />
		<tag k="ssr:stedsnr" v="1073658" />
		<tag k="ssr:type" v="adressenavn" />
	</node>
<<<<<<< HEAD
	<node lat="62.34328231758176" lon="6.294363203076395" id="-7024">
		<tag k="name" v="Gamlestøylen" />
=======
	<node id="-66493" lat="62.231196385" lon="6.58813748577">
		<tag k="name" v="Haukåssetra" />
>>>>>>> e1d4bc35ff8a6074a6f2e91616a996b547c36f15
		<tag k="ssr:date" v="2019-12-03" />
		<tag k="ssr:gruppe" v="veg" />
		<tag k="ssr:hovedgruppe" v="infrastruktur" />
		<tag k="ssr:stedsnr" v="1073657" />
		<tag k="ssr:type" v="adressenavn" />
	</node>
<<<<<<< HEAD
	<node lat="62.323314459319185" lon="6.27571213558821" id="-7025">
		<tag k="name" v="Melbøsetra" />
=======
	<node id="-66492" lat="62.1945058501" lon="6.34118516913">
		<tag k="name" v="Stokkesetra" />
>>>>>>> e1d4bc35ff8a6074a6f2e91616a996b547c36f15
		<tag k="ssr:date" v="2019-12-03" />
		<tag k="ssr:gruppe" v="veg" />
		<tag k="ssr:hovedgruppe" v="infrastruktur" />
		<tag k="ssr:stedsnr" v="1073659" />
		<tag k="ssr:type" v="adressenavn" />
	</node>
<<<<<<< HEAD
	<node lat="62.27114527996284" lon="6.147757101606174" id="-7026">
		<tag k="name" v="Busetsetra" />
=======
	<node id="-66491" lat="62.1628059016" lon="6.44218059977">
		<tag k="name" v="Kvistadsetra" />
>>>>>>> e1d4bc35ff8a6074a6f2e91616a996b547c36f15
		<tag k="ssr:date" v="2019-12-03" />
		<tag k="ssr:gruppe" v="veg" />
		<tag k="ssr:hovedgruppe" v="infrastruktur" />
		<tag k="ssr:stedsnr" v="1073660" />
		<tag k="ssr:type" v="adressenavn" />
	</node>
<<<<<<< HEAD
	<node lat="62.250578560297534" lon="6.367838698975206" id="-7027">
=======
	<node id="-66490" lat="62.2505785603" lon="6.36783869898">
>>>>>>> e1d4bc35ff8a6074a6f2e91616a996b547c36f15
		<tag k="name" v="Standalsetra" />
		<tag k="ssr:date" v="2019-12-03" />
		<tag k="ssr:gruppe" v="veg" />
		<tag k="ssr:hovedgruppe" v="infrastruktur" />
		<tag k="ssr:stedsnr" v="1073661" />
		<tag k="ssr:type" v="adressenavn" />
	</node>
<<<<<<< HEAD
	<node lat="62.16280590161986" lon="6.442180599766395" id="-7028">
		<tag k="name" v="Kvistadsetra" />
=======
	<node id="-66489" lat="62.27114528" lon="6.14775710161">
		<tag k="name" v="Busetsetra" />
>>>>>>> e1d4bc35ff8a6074a6f2e91616a996b547c36f15
		<tag k="ssr:date" v="2019-12-03" />
		<tag k="ssr:gruppe" v="veg" />
		<tag k="ssr:hovedgruppe" v="infrastruktur" />
		<tag k="ssr:stedsnr" v="1073674" />
		<tag k="ssr:type" v="adressenavn" />
	</node>
<<<<<<< HEAD
	<node lat="62.19450585005101" lon="6.341185169125148" id="-7029">
		<tag k="name" v="Stokkesetra" />
=======
	<node id="-66488" lat="62.3233144593" lon="6.27571213559">
		<tag k="name" v="Melbøsetra" />
>>>>>>> e1d4bc35ff8a6074a6f2e91616a996b547c36f15
		<tag k="ssr:date" v="2019-12-03" />
		<tag k="ssr:gruppe" v="veg" />
		<tag k="ssr:hovedgruppe" v="infrastruktur" />
		<tag k="ssr:stedsnr" v="1073675" />
		<tag k="ssr:type" v="adressenavn" />
	</node>
<<<<<<< HEAD
	<node lat="62.231196385036846" lon="6.588137485772211" id="-7030">
		<tag k="name" v="Haukåssetra" />
=======
	<node id="-66487" lat="62.3432823176" lon="6.29436320308">
		<tag k="name" v="Gamlestøylen" />
>>>>>>> e1d4bc35ff8a6074a6f2e91616a996b547c36f15
		<tag k="ssr:date" v="2019-12-03" />
		<tag k="ssr:gruppe" v="veg" />
		<tag k="ssr:hovedgruppe" v="infrastruktur" />
		<tag k="ssr:stedsnr" v="1073677" />
		<tag k="ssr:type" v="adressenavn" />
	</node>
<<<<<<< HEAD
	<node lat="62.265082556571116" lon="6.188872631018783" id="-7031">
		<tag k="name" v="Grytastøylen" />
=======
	<node id="-66486" lat="62.2662287984" lon="6.13799334571">
		<tag k="name" v="Øyesetra" />
>>>>>>> e1d4bc35ff8a6074a6f2e91616a996b547c36f15
		<tag k="ssr:date" v="2019-12-03" />
		<tag k="ssr:gruppe" v="veg" />
		<tag k="ssr:hovedgruppe" v="infrastruktur" />
		<tag k="ssr:stedsnr" v="1073678" />
		<tag k="ssr:type" v="adressenavn" />
	</node>
<<<<<<< HEAD
	<node lat="62.18363668536702" lon="6.20767251372873" id="-7033">
		<tag k="name" v="Åsebrauta" />
		<tag k="ssr:date" v="2021-06-21" />
=======
	<node id="-66485" lat="62.2492101581" lon="6.03479672152">
		<tag k="name" v="Liadalssetra" />
		<tag k="ssr:date" v="2019-05-31" />
>>>>>>> e1d4bc35ff8a6074a6f2e91616a996b547c36f15
		<tag k="ssr:gruppe" v="veg" />
		<tag k="ssr:hovedgruppe" v="infrastruktur" />
		<tag k="ssr:stedsnr" v="1081571" />
		<tag k="ssr:type" v="adressenavn" />
	</node>
<<<<<<< HEAD
	<node lat="62.18441665517898" lon="6.1009193010173215" id="-7034">
		<tag k="name" v="Leitebakken" />
		<tag k="ssr:date" v="2021-06-21" />
=======
	<node id="-66484" lat="62.2475890647" lon="6.03231467883">
		<tag k="name" v="Leite" />
		<tag k="ssr:date" v="2019-05-31" />
>>>>>>> e1d4bc35ff8a6074a6f2e91616a996b547c36f15
		<tag k="ssr:gruppe" v="veg" />
		<tag k="ssr:hovedgruppe" v="infrastruktur" />
		<tag k="ssr:stedsnr" v="1081570" />
		<tag k="ssr:type" v="adressenavn" />
	</node>
<<<<<<< HEAD
	<node lat="62.18963925709363" lon="6.123100797983581" id="-7035">
		<tag k="name" v="Oseflata" />
		<tag k="ssr:date" v="2021-06-21" />
=======
	<node id="-66483" lat="62.148570057" lon="6.23899632549">
		<tag k="name" v="Strandavegen" />
		<tag k="ssr:date" v="2019-05-31" />
>>>>>>> e1d4bc35ff8a6074a6f2e91616a996b547c36f15
		<tag k="ssr:gruppe" v="veg" />
		<tag k="ssr:hovedgruppe" v="infrastruktur" />
		<tag k="ssr:stedsnr" v="1081572" />
		<tag k="ssr:type" v="adressenavn" />
	</node>
<<<<<<< HEAD
	<node lat="62.188454229765746" lon="6.132195441861939" id="-7036">
		<tag k="name" v="Holane" />
		<tag k="ssr:date" v="2021-06-28" />
=======
	<node id="-66482" lat="62.1480575745" lon="6.24104345817">
		<tag k="name" v="Bakkeråsa" />
		<tag k="ssr:date" v="2019-05-31" />
>>>>>>> e1d4bc35ff8a6074a6f2e91616a996b547c36f15
		<tag k="ssr:gruppe" v="veg" />
		<tag k="ssr:hovedgruppe" v="infrastruktur" />
		<tag k="ssr:stedsnr" v="1081667" />
		<tag k="ssr:type" v="adressenavn" />
	</node>
<<<<<<< HEAD
	<node lat="62.24854918034699" lon="6.350885232623314" id="-7037">
		<tag k="name" v="Bjønnanakkvegen" />
		<tag k="ssr:date" v="2021-08-26" />
		<tag k="ssr:gruppe" v="veg" />
		<tag k="ssr:hovedgruppe" v="infrastruktur" />
		<tag k="ssr:stedsnr" v="1082044" />
		<tag k="ssr:type" v="adressenavn" />
	</node>
	<node lat="62.24669287551768" lon="6.351617480425692" id="-7040">
		<tag k="name" v="Kolåstindvegen" />
		<tag k="ssr:date" v="2021-11-05" />
=======
	<node id="-65329" lat="62.7345361111" lon="7.15065554732">
		<tag k="alt_name" v="Møre og Romsdal" />
		<tag k="name" v="Møre og Romsdal fylke" />
		<tag k="ssr:date" v="2019-12-27" />
		<tag k="ssr:gruppe" v="administrativeIndelinger" />
		<tag k="ssr:hovedgruppe" v="offentligAdministrasjon" />
		<tag k="ssr:stedsnr" v="145583" />
		<tag k="ssr:type" v="fylke" />
	</node>
	<node id="-66480" lat="62.1332928909" lon="6.19288204553">
		<tag k="name" v="Krøvelssetra" />
		<tag k="ssr:date" v="2019-05-31" />
>>>>>>> e1d4bc35ff8a6074a6f2e91616a996b547c36f15
		<tag k="ssr:gruppe" v="veg" />
		<tag k="ssr:hovedgruppe" v="infrastruktur" />
		<tag k="ssr:stedsnr" v="1082836" />
		<tag k="ssr:type" v="adressenavn" />
	</node>
<<<<<<< HEAD
	<node lat="62.2473600126959" lon="6.35311997224009" id="-7041">
		<tag k="name" v="Alpetunet" />
		<tag k="ssr:date" v="2021-11-05" />
=======
	<node id="-66479" lat="62.2318366824" lon="6.21128152515">
		<tag k="name" v="Vallasetra" />
		<tag k="ssr:date" v="2019-05-31" />
>>>>>>> e1d4bc35ff8a6074a6f2e91616a996b547c36f15
		<tag k="ssr:gruppe" v="veg" />
		<tag k="ssr:hovedgruppe" v="infrastruktur" />
		<tag k="ssr:stedsnr" v="1082837" />
		<tag k="ssr:type" v="adressenavn" />
	</node>
	<node lat="62.24892906451251" lon="6.3521567209975025" id="-7042">
		<tag k="name" v="Setretindvegen" />
		<tag k="ssr:date" v="2021-11-05" />
		<tag k="ssr:gruppe" v="veg" />
		<tag k="ssr:hovedgruppe" v="infrastruktur" />
		<tag k="ssr:stedsnr" v="1082839" />
		<tag k="ssr:type" v="adressenavn" />
	</node>
	<node lat="62.24726951237855" lon="6.3550201740926315" id="-7043">
		<tag k="name" v="Vasshaugane" />
		<tag k="ssr:date" v="2021-11-05" />
		<tag k="ssr:gruppe" v="veg" />
		<tag k="ssr:hovedgruppe" v="infrastruktur" />
		<tag k="ssr:stedsnr" v="1082838" />
		<tag k="ssr:type" v="adressenavn" />
	</node>
	<node id="-66478" lat="62.2537466443" lon="6.23077989908">
		<tag k="name" v="Høgeheida" />
		<tag k="ssr:date" v="2019-05-31" />
		<tag k="ssr:gruppe" v="veg" />
		<tag k="ssr:hovedgruppe" v="infrastruktur" />
		<tag k="ssr:stedsnr" v="1061451" />
		<tag k="ssr:type" v="adressenavn" />
	</node>
	<node id="-66477" lat="62.1930518277" lon="6.17562655316">
		<tag k="name" v="Brekkesetra" />
		<tag k="ssr:date" v="2019-05-31" />
		<tag k="ssr:gruppe" v="veg" />
		<tag k="ssr:hovedgruppe" v="infrastruktur" />
		<tag k="ssr:stedsnr" v="1061449" />
		<tag k="ssr:type" v="adressenavn" />
	</node>
	<node id="-66476" lat="62.2418397902" lon="6.28198368908">
		<tag k="name" v="Årsætersetra" />
		<tag k="ssr:date" v="2019-05-31" />
		<tag k="ssr:gruppe" v="veg" />
		<tag k="ssr:hovedgruppe" v="infrastruktur" />
		<tag k="ssr:stedsnr" v="1061448" />
		<tag k="ssr:type" v="adressenavn" />
	</node>
	<node id="-66475" lat="62.2338695312" lon="6.07920779375">
		<tag k="name" v="Skorgesetra" />
		<tag k="ssr:date" v="2019-05-31" />
		<tag k="ssr:gruppe" v="veg" />
		<tag k="ssr:hovedgruppe" v="infrastruktur" />
		<tag k="ssr:stedsnr" v="1061447" />
		<tag k="ssr:type" v="adressenavn" />
	</node>
	<node id="-66474" lat="62.2251827714" lon="6.1838345352">
		<tag k="name" v="Nupasetra" />
		<tag k="ssr:date" v="2019-05-31" />
		<tag k="ssr:gruppe" v="veg" />
		<tag k="ssr:hovedgruppe" v="infrastruktur" />
		<tag k="ssr:stedsnr" v="1061445" />
		<tag k="ssr:type" v="adressenavn" />
	</node>
	<node id="-66473" lat="62.2351137051" lon="6.31493404763">
		<tag k="name" v="Øyasetra" />
		<tag k="ssr:date" v="2019-05-31" />
		<tag k="ssr:gruppe" v="veg" />
		<tag k="ssr:hovedgruppe" v="infrastruktur" />
		<tag k="ssr:stedsnr" v="1061442" />
		<tag k="ssr:type" v="adressenavn" />
	</node>
	<node id="-66472" lat="62.240041622" lon="6.33330267486">
		<tag k="name" v="Myklebustsetra" />
		<tag k="ssr:date" v="2019-05-31" />
		<tag k="ssr:gruppe" v="veg" />
		<tag k="ssr:hovedgruppe" v="infrastruktur" />
		<tag k="ssr:stedsnr" v="1061441" />
		<tag k="ssr:type" v="adressenavn" />
	</node>
	<node id="-66471" lat="62.2487334008" lon="6.28147626095">
		<tag k="name" v="Kubbestøylen" />
		<tag k="ssr:date" v="2019-05-31" />
		<tag k="ssr:gruppe" v="veg" />
		<tag k="ssr:hovedgruppe" v="infrastruktur" />
		<tag k="ssr:stedsnr" v="1061438" />
		<tag k="ssr:type" v="adressenavn" />
	</node>
	<node id="-66470" lat="62.2737604404" lon="6.28439682182">
		<tag k="name" v="Romedalsstøylen" />
		<tag k="ssr:date" v="2019-05-31" />
		<tag k="ssr:gruppe" v="veg" />
		<tag k="ssr:hovedgruppe" v="infrastruktur" />
		<tag k="ssr:stedsnr" v="1061435" />
		<tag k="ssr:type" v="adressenavn" />
	</node>
	<node id="-66481" lat="62.1720613386" lon="6.11354515823">
		<tag k="name" v="Ossetra" />
		<tag k="ssr:date" v="2019-05-31" />
		<tag k="ssr:gruppe" v="veg" />
		<tag k="ssr:hovedgruppe" v="infrastruktur" />
		<tag k="ssr:stedsnr" v="1061467" />
		<tag k="ssr:type" v="adressenavn" />
	</node>
	<node id="-66212" lat="62.2161888903" lon="6.00833333932">
		<tag k="name" v="Lianesholmen" />
		<tag k="ssr:date" v="2016-05-11" />
		<tag k="ssr:gruppe" v="navigasjon" />
		<tag k="ssr:hovedgruppe" v="infrastruktur" />
		<tag k="ssr:stedsnr" v="780343" />
		<tag k="ssr:type" v="lanterne" />
	</node>
	<node id="-64278" lat="62.2408444488" lon="5.97971389418">
		<tag k="name" v="Raudøy" />
		<tag k="ssr:date" v="2016-05-10" />
		<tag k="ssr:gruppe" v="navigasjon" />
		<tag k="ssr:hovedgruppe" v="infrastruktur" />
		<tag k="ssr:stedsnr" v="436134" />
		<tag k="ssr:type" v="fyrlykt" />
	</node>
	<node id="-64911" lat="62.2481888857" lon="5.96175833056">
		<tag k="name" v="Rjånes" />
		<tag k="ssr:date" v="2016-05-11" />
		<tag k="ssr:gruppe" v="navigasjon" />
		<tag k="ssr:hovedgruppe" v="infrastruktur" />
		<tag k="ssr:stedsnr" v="840006" />
		<tag k="ssr:type" v="lanterne" />
	</node>
	<node id="-64013" lat="62.1993666663" lon="6.13084443736">
		<tag k="alt_name" v="Ørsta" />
		<tag k="name" v="Ørsta kommune" />
		<tag k="ssr:date" v="2016-05-10" />
		<tag k="ssr:gruppe" v="administrativeIndelinger" />
		<tag k="ssr:hovedgruppe" v="offentligAdministrasjon" />
		<tag k="ssr:stedsnr" v="268160" />
		<tag k="ssr:type" v="kommune" />
	</node>
</osm>
