<?xml version="1.0" encoding="UTF-8"?>
<osm version="0.6" generator="osmapis">
	<node lat="69.53833611387357" lon="17.053486120200898" id="-98946">
		<tag k="name" v="Skreigrunnsdjupet" />
		<tag k="ssr:date" v="2019-12-27" />
		<tag k="ssr:gruppe" v="sjøbunn" />
		<tag k="ssr:hovedgruppe" v="sjø" />
		<tag k="ssr:stedsnr" v="19000" />
		<tag k="ssr:type" v="havdyp" />
	</node>
	<node lat="69.45416944567195" lon="17.16933888198632" id="-99147">
		<tag k="name" v="Bergsråsa" />
		<tag k="ssr:date" v="2019-12-27" />
		<tag k="ssr:gruppe" v="sjøbunn" />
		<tag k="ssr:hovedgruppe" v="sjø" />
		<tag k="ssr:stedsnr" v="52990" />
		<tag k="ssr:type" v="bankeISjø" />
	</node>
	<node lat="69.2819555600326" lon="16.78674721830963" id="-99339">
		<tag k="name" v="Mefjordingen" />
		<tag k="ssr:date" v="2019-12-27" />
		<tag k="ssr:gruppe" v="navigasjon" />
		<tag k="ssr:hovedgruppe" v="infrastruktur" />
		<tag k="ssr:stedsnr" v="139203" />
		<tag k="ssr:type" v="fyrlykt" />
	</node>
	<node lat="69.24243333230513" lon="17.965436096401866" id="-99378">
		<tag k="name" v="Gisundet bru" />
		<tag k="ssr:date" v="2019-12-27" />
		<tag k="ssr:gruppe" v="navigasjon" />
		<tag k="ssr:hovedgruppe" v="infrastruktur" />
		<tag k="ssr:stedsnr" v="150964" />
		<tag k="ssr:type" v="fyrlykt" />
	</node>
	<node lat="69.43878055231244" lon="16.768461104878558" id="-99404">
		<tag k="name" v="Fallbakkdjupet" />
		<tag k="ssr:date" v="2019-12-27" />
		<tag k="ssr:gruppe" v="sjøbunn" />
		<tag k="ssr:hovedgruppe" v="sjø" />
		<tag k="ssr:stedsnr" v="167406" />
		<tag k="ssr:type" v="havdyp" />
	</node>
	<node lat="69.176795527623" lon="17.957564285556085" id="-99542">
		<tag k="name" v="Klauva" />
		<tag k="ssr:date" v="2020-11-26" />
		<tag k="ssr:gruppe" v="navigasjon" />
		<tag k="ssr:hovedgruppe" v="infrastruktur" />
		<tag k="ssr:stedsnr" v="261471" />
		<tag k="ssr:type" v="fyrlykt" />
	</node>
	<node lat="69.2971055569866" lon="16.98945832781467" id="-99633">
		<tag k="name" v="Hamnneset" />
		<tag k="old_name" v="Hamneset" />
		<tag k="ssr:date" v="2019-12-27" />
		<tag k="ssr:gruppe" v="navigasjon" />
		<tag k="ssr:hovedgruppe" v="infrastruktur" />
		<tag k="ssr:stedsnr" v="201400" />
		<tag k="ssr:type" v="fyrlykt" />
	</node>
	<node lat="69.4222674626328" lon="17.155207744243683" id="-99787">
		<tag k="name" v="Flatholmen" />
		<tag k="ssr:date" v="2020-11-10" />
		<tag k="ssr:gruppe" v="navigasjon" />
		<tag k="ssr:hovedgruppe" v="infrastruktur" />
		<tag k="ssr:stedsnr" v="261255" />
		<tag k="ssr:type" v="fyrlykt" />
	</node>
	<node lat="69.45191388887311" lon="17.140466671645456" id="-100169">
		<tag k="name" v="Lille Teistholmen" />
		<tag k="ssr:date" v="2021-01-05" />
		<tag k="ssr:gruppe" v="navigasjon" />
		<tag k="ssr:hovedgruppe" v="infrastruktur" />
		<tag k="ssr:stedsnr" v="360322" />
		<tag k="ssr:type" v="fyrlykt" />
	</node>
	<node lat="69.43688055175946" lon="17.15646389028162" id="-100244">
		<tag k="name" v="Kvaløykåsa" />
		<tag k="ssr:date" v="2019-12-27" />
		<tag k="ssr:gruppe" v="sjøbunn" />
		<tag k="ssr:hovedgruppe" v="sjø" />
		<tag k="ssr:stedsnr" v="477140" />
		<tag k="ssr:type" v="bankeISjø" />
	</node>
	<node lat="69.29117222619759" lon="16.788194438024572" id="-100285">
		<tag k="name" v="Holmenvær" />
		<tag k="ssr:date" v="2019-12-27" />
		<tag k="ssr:gruppe" v="navigasjon" />
		<tag k="ssr:hovedgruppe" v="infrastruktur" />
		<tag k="ssr:stedsnr" v="481351" />
		<tag k="ssr:type" v="fyrlykt" />
	</node>
	<node lat="69.15024685908233" lon="16.993376223222157" id="-100290">
		<tag k="name" v="Fiskeneset" />
		<tag k="ssr:date" v="2020-09-10" />
		<tag k="ssr:gruppe" v="navigasjon" />
		<tag k="ssr:hovedgruppe" v="infrastruktur" />
		<tag k="ssr:stedsnr" v="381266" />
		<tag k="ssr:type" v="fyrlykt" />
	</node>
	<node lat="69.4412966847767" lon="17.13676860679225" id="-100304">
		<tag k="alt_name" v="Kjøbmandsøy" />
		<tag k="name" v="Kjøpmannsøy" />
		<tag k="ssr:date" v="2020-11-26" />
		<tag k="ssr:gruppe" v="navigasjon" />
		<tag k="ssr:hovedgruppe" v="infrastruktur" />
		<tag k="ssr:stedsnr" v="382312" />
		<tag k="ssr:type" v="fyrlykt" />
	</node>
	<node lat="69.54724634715048" lon="17.6536151504872" id="-100335">
		<tag k="name" v="Øyfjord" />
		<tag k="old_name" v="Øifjord" />
		<tag k="ssr:date" v="2020-09-10" />
		<tag k="ssr:gruppe" v="navigasjon" />
		<tag k="ssr:hovedgruppe" v="infrastruktur" />
		<tag k="ssr:stedsnr" v="382864" />
		<tag k="ssr:type" v="fyrlykt" />
	</node>
	<node lat="69.27007682211703" lon="17.976597057274056" id="-100345">
		<tag k="name" v="Trollvikgrunnen" />
		<tag k="ssr:date" v="2020-09-10" />
		<tag k="ssr:gruppe" v="navigasjon" />
		<tag k="ssr:hovedgruppe" v="infrastruktur" />
		<tag k="ssr:stedsnr" v="394889" />
		<tag k="ssr:type" v="fyrlykt" />
	</node>
	<node lat="69.55658055884899" lon="17.587327766923572" id="-100347">
		<tag k="name" v="Toften" />
		<tag k="ssr:date" v="2019-12-27" />
		<tag k="ssr:gruppe" v="veg" />
		<tag k="ssr:hovedgruppe" v="infrastruktur" />
		<tag k="ssr:stedsnr" v="485744" />
		<tag k="ssr:type" v="adressenavn" />
	</node>
	<node lat="69.06565457485463" lon="17.017483858868196" id="-100456">
		<tag k="name" v="Dragøyskjær" />
		<tag k="old_name" v="Dragøyskjeret" />
		<tag k="ssr:date" v="2020-11-26" />
		<tag k="ssr:gruppe" v="navigasjon" />
		<tag k="ssr:hovedgruppe" v="infrastruktur" />
		<tag k="ssr:stedsnr" v="443002" />
		<tag k="ssr:type" v="fyrlykt" />
	</node>
	<node lat="69.5402611092145" lon="17.309580551871232" id="-100497">
		<tag k="name" v="Okseneset" />
		<tag k="ssr:date" v="2019-12-27" />
		<tag k="ssr:gruppe" v="navigasjon" />
		<tag k="ssr:hovedgruppe" v="infrastruktur" />
		<tag k="ssr:stedsnr" v="469964" />
		<tag k="ssr:type" v="fyrlykt" />
	</node>
	<node lat="69.59778333123593" lon="17.687638874418784" id="-100566">
		<tag k="name" v="Nøringen" />
		<tag k="ssr:date" v="2019-12-27" />
		<tag k="ssr:gruppe" v="navigasjon" />
		<tag k="ssr:hovedgruppe" v="infrastruktur" />
		<tag k="ssr:stedsnr" v="481966" />
		<tag k="ssr:type" v="lanterne" />
	</node>
	<node lat="69.41355833702879" lon="17.140133325583008" id="-100617">
		<tag k="name" v="Hamn" />
		<tag k="ssr:date" v="2019-12-27" />
		<tag k="ssr:gruppe" v="navigasjon" />
		<tag k="ssr:hovedgruppe" v="infrastruktur" />
		<tag k="ssr:stedsnr" v="685260" />
		<tag k="ssr:type" v="fyrlykt" />
	</node>
	<node lat="69.35700000095406" lon="18.11321943045556" id="-100835">
		<tag k="name" v="Bukkskinn, Øvre" />
		<tag k="ssr:date" v="2019-12-27" />
		<tag k="ssr:gruppe" v="navigasjon" />
		<tag k="ssr:hovedgruppe" v="infrastruktur" />
		<tag k="ssr:stedsnr" v="693966" />
		<tag k="ssr:type" v="fyrlykt" />
	</node>
	<node lat="69.4916666695467" lon="16.722222233489262" id="-101332">
		<tag k="name" v="Sveinsgrunnbakken" />
		<tag k="ssr:date" v="2019-12-27" />
		<tag k="ssr:gruppe" v="sjøbunn" />
		<tag k="ssr:hovedgruppe" v="sjø" />
		<tag k="ssr:stedsnr" v="727740" />
		<tag k="ssr:type" v="bakkeISjø" />
	</node>
	<node lat="69.59813611294508" lon="17.68496389827721" id="-101591">
		<tag k="name" v="Nøringen lykt" />
		<tag k="ssr:date" v="2019-12-27" />
		<tag k="ssr:gruppe" v="navigasjon" />
		<tag k="ssr:hovedgruppe" v="infrastruktur" />
		<tag k="ssr:stedsnr" v="837128" />
		<tag k="ssr:type" v="fyrlykt" />
	</node>
	<node lat="69.42406166509073" lon="17.29729684529464" id="-101730">
		<tag k="name" v="Flatneset" />
		<tag k="ssr:date" v="2020-11-26" />
		<tag k="ssr:gruppe" v="navigasjon" />
		<tag k="ssr:hovedgruppe" v="infrastruktur" />
		<tag k="ssr:stedsnr" v="928225" />
		<tag k="ssr:type" v="fyrlykt" />
	</node>
	<node lat="69.48940639965248" lon="17.33439333057284" id="-101762">
		<tag k="name" v="Tungeneset" />
		<tag k="ssr:date" v="2020-11-26" />
		<tag k="ssr:gruppe" v="navigasjon" />
		<tag k="ssr:hovedgruppe" v="infrastruktur" />
		<tag k="ssr:stedsnr" v="929179" />
		<tag k="ssr:type" v="fyrlykt" />
	</node>
	<node lat="69.52557302017624" lon="17.432126343589335" id="-101951">
		<tag k="name" v="Mefjord" />
		<tag k="old_name" v="Mefjordvær" />
		<tag k="ssr:date" v="2020-11-26" />
		<tag k="ssr:gruppe" v="navigasjon" />
		<tag k="ssr:hovedgruppe" v="infrastruktur" />
		<tag k="ssr:stedsnr" v="929812" />
		<tag k="ssr:type" v="fyrlykt" />
	</node>
	<node lat="69.33677222179156" lon="17.074200000374784" id="-101962">
		<tag k="name" v="Torsken" />
		<tag k="ssr:date" v="2019-12-27" />
		<tag k="ssr:gruppe" v="navigasjon" />
		<tag k="ssr:hovedgruppe" v="infrastruktur" />
		<tag k="ssr:stedsnr" v="952121" />
		<tag k="ssr:type" v="fyrlykt" />
	</node>
	<node lat="69.4329322104822" lon="17.267941843631252" id="-102015">
		<tag k="name" v="Bergsråsa" />
		<tag k="ssr:date" v="2021-04-30" />
		<tag k="ssr:gruppe" v="sjøbunn" />
		<tag k="ssr:hovedgruppe" v="sjø" />
		<tag k="ssr:stedsnr" v="962140" />
		<tag k="ssr:type" v="bankeISjø" />
	</node>
	<node lat="69.36169444777097" lon="18.093222214525486" id="-102168">
		<tag k="name" v="Vardneset" />
		<tag k="ssr:date" v="2019-12-27" />
		<tag k="ssr:gruppe" v="navigasjon" />
		<tag k="ssr:hovedgruppe" v="infrastruktur" />
		<tag k="ssr:stedsnr" v="25508" />
		<tag k="ssr:type" v="fyrlykt" />
	</node>
	<node lat="69.80600277557465" lon="17.243111103536787" id="-102183">
		<tag k="name" v="Malangsdjupet" />
		<tag k="ssr:date" v="2019-12-27" />
		<tag k="ssr:gruppe" v="sjøbunn" />
		<tag k="ssr:hovedgruppe" v="sjø" />
		<tag k="ssr:stedsnr" v="41677" />
		<tag k="ssr:type" v="havdyp" />
	</node>
	<node lat="69.33225833009138" lon="16.985580545487394" id="-102388">
		<tag k="name" v="Senholmen" />
		<tag k="old_name" v="Sennholmen" />
		<tag k="ssr:date" v="2019-12-27" />
		<tag k="ssr:gruppe" v="navigasjon" />
		<tag k="ssr:hovedgruppe" v="infrastruktur" />
		<tag k="ssr:stedsnr" v="79328" />
		<tag k="ssr:type" v="fyrlykt" />
	</node>
	<node lat="69.36725833538135" lon="18.499030555270295" id="-102427">
		<tag k="name" v="Sultindvikneset" />
		<tag k="ssr:date" v="2019-12-27" />
		<tag k="ssr:gruppe" v="navigasjon" />
		<tag k="ssr:hovedgruppe" v="infrastruktur" />
		<tag k="ssr:stedsnr" v="79675" />
		<tag k="ssr:type" v="fyrlykt" />
	</node>
	<node lat="69.04880282989365" lon="17.013268501182342" id="-102674">
		<tag k="name" v="Halsvær" />
		<tag k="ssr:date" v="2021-01-05" />
		<tag k="ssr:gruppe" v="navigasjon" />
		<tag k="ssr:hovedgruppe" v="infrastruktur" />
		<tag k="ssr:stedsnr" v="139115" />
		<tag k="ssr:type" v="fyrlykt" />
	</node>
	<node lat="69.49697075132893" lon="17.19842626333466" id="-102679">
		<tag k="name" v="Røra" />
		<tag k="old_name" v="Roren" />
		<tag k="ssr:date" v="2021-01-05" />
		<tag k="ssr:gruppe" v="navigasjon" />
		<tag k="ssr:hovedgruppe" v="infrastruktur" />
		<tag k="ssr:stedsnr" v="139211" />
		<tag k="ssr:type" v="fyrlykt" />
	</node>
	<node lat="69.2611106996363" lon="17.051245569746555" id="-102693">
		<tag k="name" v="Bloskeneset" />
		<tag k="old_name" v="Blåskjelneset" />
		<tag k="ssr:date" v="2021-01-05" />
		<tag k="ssr:gruppe" v="navigasjon" />
		<tag k="ssr:hovedgruppe" v="infrastruktur" />
		<tag k="ssr:stedsnr" v="139414" />
		<tag k="ssr:type" v="fyrlykt" />
	</node>
	<node lat="69.45189999194807" lon="17.140420162078062" id="-102745">
		<tag k="name" v="Hjelmen" />
		<tag k="ssr:date" v="2021-01-05" />
		<tag k="ssr:gruppe" v="navigasjon" />
		<tag k="ssr:hovedgruppe" v="infrastruktur" />
		<tag k="ssr:stedsnr" v="140311" />
		<tag k="ssr:type" v="fyrlykt" />
	</node>
	<node lat="69.5900939380447" lon="17.852602866463396" id="-102763">
		<tag k="name" v="Hekkingsundet" />
		<tag k="old_name" v="Hekkingsund lykt" />
		<tag k="ssr:date" v="2021-01-05" />
		<tag k="ssr:gruppe" v="navigasjon" />
		<tag k="ssr:hovedgruppe" v="infrastruktur" />
		<tag k="ssr:stedsnr" v="146273" />
		<tag k="ssr:type" v="fyrlykt" />
	</node>
	<node lat="69.22802222610144" lon="17.970819435736935" id="-103141">
		<tag k="name" v="Finnsnes" />
		<tag k="ssr:date" v="2019-12-27" />
		<tag k="ssr:gruppe" v="navigasjon" />
		<tag k="ssr:hovedgruppe" v="infrastruktur" />
		<tag k="ssr:stedsnr" v="211494" />
		<tag k="ssr:type" v="fyrlykt" />
	</node>
	<node lat="69.36426111373532" lon="17.03359721891104" id="-103147">
		<tag k="name" v="Gryllefjord molo" />
		<tag k="ssr:date" v="2019-12-27" />
		<tag k="ssr:gruppe" v="navigasjon" />
		<tag k="ssr:hovedgruppe" v="infrastruktur" />
		<tag k="ssr:stedsnr" v="285075" />
		<tag k="ssr:type" v="fyrlykt" />
	</node>
	<node lat="69.46111111297188" lon="16.59444445704187" id="-103335">
		<tag k="name" v="Vesterbakken" />
		<tag k="ssr:date" v="2019-12-27" />
		<tag k="ssr:gruppe" v="sjøbunn" />
		<tag k="ssr:hovedgruppe" v="sjø" />
		<tag k="ssr:stedsnr" v="302728" />
		<tag k="ssr:type" v="bakkeISjø" />
	</node>
	<node lat="69.37747947316217" lon="18.094329505353805" id="-103375">
		<tag k="name" v="Slettneset" />
		<tag k="ssr:date" v="2020-11-10" />
		<tag k="ssr:gruppe" v="navigasjon" />
		<tag k="ssr:hovedgruppe" v="infrastruktur" />
		<tag k="ssr:stedsnr" v="321649" />
		<tag k="ssr:type" v="fyrlykt" />
	</node>
	<node lat="69.44329942704928" lon="18.372168709152273" id="-103431">
		<tag k="name" v="Klavikneset" />
		<tag k="old_name" v="Kravikneset" />
		<tag k="ssr:date" v="2020-11-10" />
		<tag k="ssr:gruppe" v="navigasjon" />
		<tag k="ssr:hovedgruppe" v="infrastruktur" />
		<tag k="ssr:stedsnr" v="322664" />
		<tag k="ssr:type" v="fyrlykt" />
	</node>
	<node lat="69.29917222508162" lon="17.976558326858488" id="-103464">
		<tag k="name" v="Søre Leiknesøyra" />
		<tag k="ssr:date" v="2019-12-27" />
		<tag k="ssr:gruppe" v="navigasjon" />
		<tag k="ssr:hovedgruppe" v="infrastruktur" />
		<tag k="ssr:stedsnr" v="332979" />
		<tag k="ssr:type" v="fyrlykt" />
	</node>
	<node lat="69.2241319803039" lon="16.879543435455922" id="-103653">
		<tag k="name" v="Leikneset" />
		<tag k="ssr:date" v="2020-09-10" />
		<tag k="ssr:gruppe" v="navigasjon" />
		<tag k="ssr:hovedgruppe" v="infrastruktur" />
		<tag k="ssr:stedsnr" v="381193" />
		<tag k="ssr:type" v="fyrlykt" />
	</node>
	<node lat="69.60088117623161" lon="17.49276576102386" id="-103725">
		<tag k="name" v="Kjølva" />
		<tag k="ssr:date" v="2020-09-10" />
		<tag k="ssr:gruppe" v="navigasjon" />
		<tag k="ssr:hovedgruppe" v="infrastruktur" />
		<tag k="ssr:stedsnr" v="382729" />
		<tag k="ssr:type" v="fyrlykt" />
	</node>
	<node lat="69.00916574157814" lon="17.234759623606323" id="-103762">
		<tag k="name" v="Bispeflua" />
		<tag k="ssr:date" v="2020-09-10" />
		<tag k="ssr:gruppe" v="navigasjon" />
		<tag k="ssr:hovedgruppe" v="infrastruktur" />
		<tag k="ssr:stedsnr" v="393315" />
		<tag k="ssr:type" v="fyrlykt" />
	</node>
	<node lat="69.23662777999425" lon="17.95664443023047" id="-103764">
		<tag k="name" v="Finnsnesrenna" />
		<tag k="ssr:date" v="2019-12-27" />
		<tag k="ssr:gruppe" v="navigasjon" />
		<tag k="ssr:hovedgruppe" v="infrastruktur" />
		<tag k="ssr:stedsnr" v="393492" />
		<tag k="ssr:type" v="fyrlykt" />
	</node>
	<node lat="69.15811667028154" lon="16.84294445320282" id="-103772">
		<tag k="name" v="Hjelmen" />
		<tag k="ssr:date" v="2019-12-27" />
		<tag k="ssr:gruppe" v="navigasjon" />
		<tag k="ssr:hovedgruppe" v="infrastruktur" />
		<tag k="ssr:stedsnr" v="402898" />
		<tag k="ssr:type" v="fyrlykt" />
	</node>
	<node lat="69.35327752123686" lon="18.10142766683602" id="-104180">
		<tag k="name" v="Bukkskinn, Nedre" />
		<tag k="old_name" v="Bukkeskinn, nedre" />
		<tag k="ssr:date" v="2020-09-17" />
		<tag k="ssr:gruppe" v="navigasjon" />
		<tag k="ssr:hovedgruppe" v="infrastruktur" />
		<tag k="ssr:stedsnr" v="504724" />
		<tag k="ssr:type" v="fyrlykt" />
	</node>
	<node lat="69.75972222072627" lon="17.399999986457438" id="-104437">
		<tag k="name" v="Vesterhola" />
		<tag k="ssr:date" v="2019-12-27" />
		<tag k="ssr:gruppe" v="sjøbunn" />
		<tag k="ssr:hovedgruppe" v="sjø" />
		<tag k="ssr:stedsnr" v="545647" />
		<tag k="ssr:type" v="havdyp" />
	</node>
	<node lat="69.05850836656992" lon="16.76085649742581" id="-104443">
		<tag k="name" v="Senjehestneset" />
		<tag k="ssr:date" v="2020-09-17" />
		<tag k="ssr:gruppe" v="navigasjon" />
		<tag k="ssr:hovedgruppe" v="infrastruktur" />
		<tag k="ssr:stedsnr" v="563069" />
		<tag k="ssr:type" v="fyrlykt" />
	</node>
	<node lat="69.4237422853097" lon="17.239965880407375" id="-104489">
		<tag k="name" v="Kvanholmen" />
		<tag k="old_name" v="Kvannholmen" />
		<tag k="ssr:date" v="2020-09-17" />
		<tag k="ssr:gruppe" v="navigasjon" />
		<tag k="ssr:hovedgruppe" v="infrastruktur" />
		<tag k="ssr:stedsnr" v="564246" />
		<tag k="ssr:type" v="fyrlykt" />
	</node>
	<node lat="69.60155464344346" lon="17.829736149695346" id="-104542">
		<tag k="name" v="Hekkingen" />
		<tag k="old_name" v="Hekkingen fyr" />
		<tag k="ssr:date" v="2020-09-01" />
		<tag k="ssr:gruppe" v="navigasjon" />
		<tag k="ssr:hovedgruppe" v="infrastruktur" />
		<tag k="ssr:stedsnr" v="564797" />
		<tag k="ssr:type" v="fyrstasjon" />
	</node>
	<node lat="69.29740277802996" lon="17.968297213313413" id="-104570">
		<tag k="name" v="Vestre Leiknesøyra" />
		<tag k="ssr:date" v="2019-12-27" />
		<tag k="ssr:gruppe" v="navigasjon" />
		<tag k="ssr:hovedgruppe" v="infrastruktur" />
		<tag k="ssr:stedsnr" v="575984" />
		<tag k="ssr:type" v="fyrlykt" />
	</node>
	<node lat="69.55739722675868" lon="17.5866583206156" id="-104765">
		<tag k="name" v="Øyfjordvær" />
		<tag k="ssr:date" v="2019-12-27" />
		<tag k="ssr:gruppe" v="veg" />
		<tag k="ssr:hovedgruppe" v="infrastruktur" />
		<tag k="ssr:stedsnr" v="606779" />
		<tag k="ssr:type" v="adressenavn" />
	</node>
	<node lat="69.45637332752608" lon="18.13397191382393" id="-104822">
		<tag k="name" v="Rødbergsodden" />
		<tag k="ssr:date" v="2020-09-17" />
		<tag k="ssr:gruppe" v="navigasjon" />
		<tag k="ssr:hovedgruppe" v="infrastruktur" />
		<tag k="ssr:stedsnr" v="625626" />
		<tag k="ssr:type" v="fyrlykt" />
	</node>
	<node lat="69.37660102390954" lon="16.868540843541822" id="-104824">
		<tag k="name" v="Månes" />
		<tag k="old_name" v="Måneset" />
		<tag k="ssr:date" v="2020-09-17" />
		<tag k="ssr:gruppe" v="navigasjon" />
		<tag k="ssr:hovedgruppe" v="infrastruktur" />
		<tag k="ssr:stedsnr" v="625370" />
		<tag k="ssr:type" v="fyrlykt" />
	</node>
	<node lat="69.58462594395642" lon="17.863543671949248" id="-104855">
		<tag k="name" v="Langskjær" />
		<tag k="old_name" v="Langskjer;Langskjæret lykt" />
		<tag k="ssr:date" v="2020-10-15" />
		<tag k="ssr:gruppe" v="navigasjon" />
		<tag k="ssr:hovedgruppe" v="infrastruktur" />
		<tag k="ssr:stedsnr" v="625788" />
		<tag k="ssr:type" v="fyrlykt" />
	</node>
	<node lat="69.23966388477226" lon="17.962827775455924" id="-104878">
		<tag k="name" v="Bjørnhiskjerboen" />
		<tag k="ssr:date" v="2019-12-27" />
		<tag k="ssr:gruppe" v="navigasjon" />
		<tag k="ssr:hovedgruppe" v="infrastruktur" />
		<tag k="ssr:stedsnr" v="635360" />
		<tag k="ssr:type" v="fyrlykt" />
	</node>
	<node lat="69.31386388667516" lon="17.98518332560424" id="-104881">
		<tag k="name" v="Nordre Leiknesøyra" />
		<tag k="ssr:date" v="2019-12-27" />
		<tag k="ssr:gruppe" v="navigasjon" />
		<tag k="ssr:hovedgruppe" v="infrastruktur" />
		<tag k="ssr:stedsnr" v="635874" />
		<tag k="ssr:type" v="fyrlykt" />
	</node>
	<node lat="69.2767388931573" lon="16.954908333659386" id="-104892">
		<tag k="name" v="Ytre Strya" />
		<tag k="ssr:date" v="2019-12-27" />
		<tag k="ssr:gruppe" v="navigasjon" />
		<tag k="ssr:hovedgruppe" v="infrastruktur" />
		<tag k="ssr:stedsnr" v="649964" />
		<tag k="ssr:type" v="fyrlykt" />
	</node>
	<node lat="69.02870296074067" lon="17.230336060979116" id="-105256">
		<tag k="name" v="Lekangsneset" />
		<tag k="ssr:date" v="2020-11-26" />
		<tag k="ssr:gruppe" v="navigasjon" />
		<tag k="ssr:hovedgruppe" v="infrastruktur" />
		<tag k="ssr:stedsnr" v="746074" />
		<tag k="ssr:type" v="fyrlykt" />
	</node>
	<node lat="69.53580154516212" lon="17.778801251072814" id="-105308">
		<tag k="name" v="Baltsfjord" />
		<tag k="ssr:date" v="2021-01-05" />
		<tag k="ssr:gruppe" v="navigasjon" />
		<tag k="ssr:hovedgruppe" v="infrastruktur" />
		<tag k="ssr:stedsnr" v="746780" />
		<tag k="ssr:type" v="fyrlykt" />
	</node>
	<node lat="69.3602111087449" lon="16.98785278593539" id="-105360">
		<tag k="name" v="Hovdaneset" />
		<tag k="ssr:date" v="2019-12-27" />
		<tag k="ssr:gruppe" v="navigasjon" />
		<tag k="ssr:hovedgruppe" v="infrastruktur" />
		<tag k="ssr:stedsnr" v="770181" />
		<tag k="ssr:type" v="fyrlykt" />
	</node>
	<node lat="69.48333333134758" lon="16.694444437626846" id="-105543">
		<tag k="name" v="Tåja" />
		<tag k="ssr:date" v="2019-12-27" />
		<tag k="ssr:gruppe" v="sjøbunn" />
		<tag k="ssr:hovedgruppe" v="sjø" />
		<tag k="ssr:stedsnr" v="788735" />
		<tag k="ssr:type" v="ryggISjø" />
	</node>
	<node lat="69.40452717458304" lon="16.94100550421308" id="-105595">
		<tag k="name" v="Teistneset" />
		<tag k="old_name" v="Teisteneset" />
		<tag k="ssr:date" v="2020-11-26" />
		<tag k="ssr:gruppe" v="navigasjon" />
		<tag k="ssr:hovedgruppe" v="infrastruktur" />
		<tag k="ssr:stedsnr" v="807256" />
		<tag k="ssr:type" v="fyrlykt" />
	</node>
	<node lat="69.24096111337957" lon="17.97143054317386" id="-105698">
		<tag k="name" v="Bjørnhiskjær" />
		<tag k="ssr:date" v="2019-12-27" />
		<tag k="ssr:gruppe" v="navigasjon" />
		<tag k="ssr:hovedgruppe" v="infrastruktur" />
		<tag k="ssr:stedsnr" v="818509" />
		<tag k="ssr:type" v="fyrlykt" />
	</node>
	<node lat="69.4788247074781" lon="17.314855882911864" id="-105961">
		<tag k="name" v="Steinfjorden" />
		<tag k="ssr:date" v="2020-11-26" />
		<tag k="ssr:gruppe" v="navigasjon" />
		<tag k="ssr:hovedgruppe" v="infrastruktur" />
		<tag k="ssr:stedsnr" v="868171" />
		<tag k="ssr:type" v="fyrlykt" />
	</node>
	<node lat="69.46628303820246" lon="17.223036171192707" id="-105971">
		<tag k="name" v="Bøvær" />
		<tag k="ssr:date" v="2019-12-27" />
		<tag k="ssr:gruppe" v="navigasjon" />
		<tag k="ssr:hovedgruppe" v="infrastruktur" />
		<tag k="ssr:stedsnr" v="868261" />
		<tag k="ssr:type" v="fyrlykt" />
	</node>
	<node lat="69.47362778184062" lon="16.779558322610793" id="-106028">
		<tag k="name" v="Fallbakken" />
		<tag k="ssr:date" v="2019-12-27" />
		<tag k="ssr:gruppe" v="sjøbunn" />
		<tag k="ssr:hovedgruppe" v="sjø" />
		<tag k="ssr:stedsnr" v="868936" />
		<tag k="ssr:type" v="bakkeISjø" />
	</node>
	<node lat="69.45992777845994" lon="18.10459167063758" id="-106043">
		<tag k="name" v="Egga" />
		<tag k="ssr:date" v="2019-12-27" />
		<tag k="ssr:gruppe" v="sjøbunn" />
		<tag k="ssr:hovedgruppe" v="sjø" />
		<tag k="ssr:stedsnr" v="874721" />
		<tag k="ssr:type" v="eggISjø" />
	</node>
	<node lat="69.24419444162706" lon="17.96843888280321" id="-106058">
		<tag k="name" v="Finnsnesrenna" />
		<tag k="ssr:date" v="2019-12-27" />
		<tag k="ssr:gruppe" v="sjøbunn" />
		<tag k="ssr:hovedgruppe" v="sjø" />
		<tag k="ssr:stedsnr" v="939973" />
		<tag k="ssr:type" v="renneKløftISjø" />
	</node>
	<node lat="69.23539817855396" lon="17.92768929390284" id="-106115">
		<tag k="name" v="Trollvassveien" />
		<tag k="old_name" v="Trollveien" />
		<tag k="ssr:date" v="2019-12-27" />
		<tag k="ssr:gruppe" v="veg" />
		<tag k="ssr:hovedgruppe" v="infrastruktur" />
		<tag k="ssr:stedsnr" v="958972" />
		<tag k="ssr:type" v="adressenavn" />
	</node>
	<node lat="69.47338888888494" lon="18.31511387837336" id="-106149">
		<tag k="name" v="Revet" />
		<tag k="ssr:date" v="2019-12-27" />
		<tag k="ssr:gruppe" v="sjøbunn" />
		<tag k="ssr:hovedgruppe" v="sjø" />
		<tag k="ssr:stedsnr" v="960985" />
		<tag k="ssr:type" v="ryggISjø" />
	</node>
	<node lat="69.50443666166562" lon="17.632651004055546" id="-106257">
		<tag k="name" v="Øyfjordveien" />
		<tag k="ssr:date" v="2019-12-27" />
		<tag k="ssr:gruppe" v="veg" />
		<tag k="ssr:hovedgruppe" v="infrastruktur" />
		<tag k="ssr:stedsnr" v="986622" />
		<tag k="ssr:type" v="adressenavn" />
	</node>
	<node lat="69.50203490625748" lon="17.641026934823344" id="-106258">
		<tag k="name" v="Arnakkveien" />
		<tag k="ssr:date" v="2019-12-27" />
		<tag k="ssr:gruppe" v="veg" />
		<tag k="ssr:hovedgruppe" v="infrastruktur" />
		<tag k="ssr:stedsnr" v="986623" />
		<tag k="ssr:type" v="adressenavn" />
	</node>
	<node lat="69.23481033567698" lon="18.059257384739663" id="-106281">
		<tag k="name" v="Skogenveien" />
		<tag k="ssr:date" v="2019-12-27" />
		<tag k="ssr:gruppe" v="veg" />
		<tag k="ssr:hovedgruppe" v="infrastruktur" />
		<tag k="ssr:stedsnr" v="1011036" />
		<tag k="ssr:type" v="adressenavn" />
	</node>
	<node lat="69.23688634378145" lon="18.04522844419953" id="-106282">
		<tag k="name" v="Mellomlia" />
		<tag k="ssr:date" v="2019-12-27" />
		<tag k="ssr:gruppe" v="veg" />
		<tag k="ssr:hovedgruppe" v="infrastruktur" />
		<tag k="ssr:stedsnr" v="1011037" />
		<tag k="ssr:type" v="adressenavn" />
	</node>
	<node lat="69.23443574531085" lon="18.029201683138357" id="-106283">
		<tag k="name" v="Svaleveien" />
		<tag k="ssr:date" v="2019-12-27" />
		<tag k="ssr:gruppe" v="veg" />
		<tag k="ssr:hovedgruppe" v="infrastruktur" />
		<tag k="ssr:stedsnr" v="1011038" />
		<tag k="ssr:type" v="adressenavn" />
	</node>
	<node lat="69.23596309244446" lon="18.031433730430177" id="-106285">
		<tag k="name" v="Rypeveien" />
		<tag k="ssr:date" v="2019-12-27" />
		<tag k="ssr:gruppe" v="veg" />
		<tag k="ssr:hovedgruppe" v="infrastruktur" />
		<tag k="ssr:stedsnr" v="1011040" />
		<tag k="ssr:type" v="adressenavn" />
	</node>
	<node lat="69.23535827325709" lon="17.927448648690298" id="-106345">
		<tag k="name" v="Laukhellaveien" />
		<tag k="ssr:date" v="2019-12-27" />
		<tag k="ssr:gruppe" v="veg" />
		<tag k="ssr:hovedgruppe" v="infrastruktur" />
		<tag k="ssr:stedsnr" v="1010950" />
		<tag k="ssr:type" v="adressenavn" />
	</node>
	<node lat="69.23815278078818" lon="17.938748210715993" id="-106346">
		<tag k="name" v="Harald Silsands vei" />
		<tag k="ssr:date" v="2019-12-27" />
		<tag k="ssr:gruppe" v="veg" />
		<tag k="ssr:hovedgruppe" v="infrastruktur" />
		<tag k="ssr:stedsnr" v="1010952" />
		<tag k="ssr:type" v="adressenavn" />
	</node>
	<node lat="69.23962896658162" lon="17.93424144189327" id="-106404">
		<tag k="name" v="Anton Silsands vei" />
		<tag k="ssr:date" v="2019-12-27" />
		<tag k="ssr:gruppe" v="veg" />
		<tag k="ssr:hovedgruppe" v="infrastruktur" />
		<tag k="ssr:stedsnr" v="1010896" />
		<tag k="ssr:type" v="adressenavn" />
	</node>
	<node lat="69.24973506047489" lon="17.95544395230397" id="-106405">
		<tag k="name" v="Heggeveien" />
		<tag k="ssr:date" v="2019-12-27" />
		<tag k="ssr:gruppe" v="veg" />
		<tag k="ssr:hovedgruppe" v="infrastruktur" />
		<tag k="ssr:stedsnr" v="1010898" />
		<tag k="ssr:type" v="adressenavn" />
	</node>
	<node lat="69.23924601729728" lon="17.94023215986181" id="-106406">
		<tag k="name" v="Gammelveien" />
		<tag k="ssr:date" v="2019-12-27" />
		<tag k="ssr:gruppe" v="veg" />
		<tag k="ssr:hovedgruppe" v="infrastruktur" />
		<tag k="ssr:stedsnr" v="1010900" />
		<tag k="ssr:type" v="adressenavn" />
	</node>
	<node lat="69.23895554249158" lon="17.938312809091805" id="-106407">
		<tag k="name" v="Myrveien" />
		<tag k="ssr:date" v="2019-12-27" />
		<tag k="ssr:gruppe" v="veg" />
		<tag k="ssr:hovedgruppe" v="infrastruktur" />
		<tag k="ssr:stedsnr" v="1010902" />
		<tag k="ssr:type" v="adressenavn" />
	</node>
	<node lat="69.25012592619285" lon="17.955249319433047" id="-106408">
		<tag k="name" v="Granveien" />
		<tag k="ssr:date" v="2019-12-27" />
		<tag k="ssr:gruppe" v="veg" />
		<tag k="ssr:hovedgruppe" v="infrastruktur" />
		<tag k="ssr:stedsnr" v="1010904" />
		<tag k="ssr:type" v="adressenavn" />
	</node>
	<node lat="69.2472436908564" lon="17.94885093561908" id="-106409">
		<tag k="name" v="Hallveien" />
		<tag k="ssr:date" v="2019-12-27" />
		<tag k="ssr:gruppe" v="veg" />
		<tag k="ssr:hovedgruppe" v="infrastruktur" />
		<tag k="ssr:stedsnr" v="1010906" />
		<tag k="ssr:type" v="adressenavn" />
	</node>
	<node lat="69.24978228998626" lon="17.957723240203347" id="-106410">
		<tag k="name" v="Asphaugen" />
		<tag k="ssr:date" v="2019-12-27" />
		<tag k="ssr:gruppe" v="veg" />
		<tag k="ssr:hovedgruppe" v="infrastruktur" />
		<tag k="ssr:stedsnr" v="1010908" />
		<tag k="ssr:type" v="adressenavn" />
	</node>
	<node lat="69.25271189904866" lon="17.95855722048448" id="-106411">
		<tag k="name" v="Olsborgveien" />
		<tag k="ssr:date" v="2019-12-27" />
		<tag k="ssr:gruppe" v="veg" />
		<tag k="ssr:hovedgruppe" v="infrastruktur" />
		<tag k="ssr:stedsnr" v="1010910" />
		<tag k="ssr:type" v="adressenavn" />
	</node>
	<node lat="69.24617078845424" lon="17.953229430730044" id="-106412">
		<tag k="name" v="Sortebekken" />
		<tag k="ssr:date" v="2019-12-27" />
		<tag k="ssr:gruppe" v="veg" />
		<tag k="ssr:hovedgruppe" v="infrastruktur" />
		<tag k="ssr:stedsnr" v="1010912" />
		<tag k="ssr:type" v="adressenavn" />
	</node>
	<node lat="69.24489290876342" lon="17.94962886559815" id="-106413">
		<tag k="name" v="Stallbakken" />
		<tag k="ssr:date" v="2019-12-27" />
		<tag k="ssr:gruppe" v="veg" />
		<tag k="ssr:hovedgruppe" v="infrastruktur" />
		<tag k="ssr:stedsnr" v="1010915" />
		<tag k="ssr:type" v="adressenavn" />
	</node>
	<node lat="69.24499604988223" lon="17.951950166343277" id="-106414">
		<tag k="name" v="Vikaveien" />
		<tag k="ssr:date" v="2019-12-27" />
		<tag k="ssr:gruppe" v="veg" />
		<tag k="ssr:hovedgruppe" v="infrastruktur" />
		<tag k="ssr:stedsnr" v="1010917" />
		<tag k="ssr:type" v="adressenavn" />
	</node>
	<node lat="69.24512358659709" lon="17.949567575215898" id="-106415">
		<tag k="name" v="Einerhaugen" />
		<tag k="ssr:date" v="2019-12-27" />
		<tag k="ssr:gruppe" v="veg" />
		<tag k="ssr:hovedgruppe" v="infrastruktur" />
		<tag k="ssr:stedsnr" v="1010919" />
		<tag k="ssr:type" v="adressenavn" />
	</node>
	<node lat="69.24283886606821" lon="17.949100565513977" id="-106416">
		<tag k="name" v="Forraveien" />
		<tag k="ssr:date" v="2019-12-27" />
		<tag k="ssr:gruppe" v="veg" />
		<tag k="ssr:hovedgruppe" v="infrastruktur" />
		<tag k="ssr:stedsnr" v="1010921" />
		<tag k="ssr:type" v="adressenavn" />
	</node>
	<node lat="69.24386531644492" lon="17.941396980227154" id="-106417">
		<tag k="name" v="Steinveien" />
		<tag k="ssr:date" v="2019-12-27" />
		<tag k="ssr:gruppe" v="veg" />
		<tag k="ssr:hovedgruppe" v="infrastruktur" />
		<tag k="ssr:stedsnr" v="1010923" />
		<tag k="ssr:type" v="adressenavn" />
	</node>
	<node lat="69.24476175365736" lon="17.942054744688924" id="-106418">
		<tag k="name" v="Resset" />
		<tag k="ssr:date" v="2019-12-27" />
		<tag k="ssr:gruppe" v="veg" />
		<tag k="ssr:hovedgruppe" v="infrastruktur" />
		<tag k="ssr:stedsnr" v="1010925" />
		<tag k="ssr:type" v="adressenavn" />
	</node>
	<node lat="69.23342422922873" lon="18.008101175659988" id="-106441">
		<tag k="name" v="Hågen" />
		<tag k="ssr:date" v="2019-12-27" />
		<tag k="ssr:gruppe" v="veg" />
		<tag k="ssr:hovedgruppe" v="infrastruktur" />
		<tag k="ssr:stedsnr" v="1011022" />
		<tag k="ssr:type" v="adressenavn" />
	</node>
	<node lat="69.23146016077743" lon="18.001495493897817" id="-106442">
		<tag k="name" v="Sandvikveien" />
		<tag k="ssr:date" v="2019-12-27" />
		<tag k="ssr:gruppe" v="veg" />
		<tag k="ssr:hovedgruppe" v="infrastruktur" />
		<tag k="ssr:stedsnr" v="1011023" />
		<tag k="ssr:type" v="adressenavn" />
	</node>
	<node lat="69.23387086956457" lon="18.017020030891622" id="-106443">
		<tag k="name" v="Elverum" />
		<tag k="ssr:date" v="2019-12-27" />
		<tag k="ssr:gruppe" v="veg" />
		<tag k="ssr:hovedgruppe" v="infrastruktur" />
		<tag k="ssr:stedsnr" v="1011024" />
		<tag k="ssr:type" v="adressenavn" />
	</node>
	<node lat="69.23447067862557" lon="18.012954253068568" id="-106444">
		<tag k="name" v="Olderveien" />
		<tag k="ssr:date" v="2019-12-27" />
		<tag k="ssr:gruppe" v="veg" />
		<tag k="ssr:hovedgruppe" v="infrastruktur" />
		<tag k="ssr:stedsnr" v="1011025" />
		<tag k="ssr:type" v="adressenavn" />
	</node>
	<node lat="69.233963514528" lon="18.003477922724972" id="-106445">
		<tag k="name" v="Øvre Hamna" />
		<tag k="ssr:date" v="2019-12-27" />
		<tag k="ssr:gruppe" v="veg" />
		<tag k="ssr:hovedgruppe" v="infrastruktur" />
		<tag k="ssr:stedsnr" v="1011026" />
		<tag k="ssr:type" v="adressenavn" />
	</node>
	<node lat="69.23089016940561" lon="17.990689004444363" id="-106446">
		<tag k="name" v="Parkveien" />
		<tag k="ssr:date" v="2019-12-27" />
		<tag k="ssr:gruppe" v="veg" />
		<tag k="ssr:hovedgruppe" v="infrastruktur" />
		<tag k="ssr:stedsnr" v="1011027" />
		<tag k="ssr:type" v="adressenavn" />
	</node>
	<node lat="69.23139813318978" lon="17.988677107682722" id="-106447">
		<tag k="name" v="Buslettveien" />
		<tag k="ssr:date" v="2019-12-27" />
		<tag k="ssr:gruppe" v="veg" />
		<tag k="ssr:hovedgruppe" v="infrastruktur" />
		<tag k="ssr:stedsnr" v="1011028" />
		<tag k="ssr:type" v="adressenavn" />
	</node>
	<node lat="69.23267688730058" lon="17.99113984994682" id="-106449">
		<tag k="name" v="Sven Eidissens vei" />
		<tag k="ssr:date" v="2019-12-27" />
		<tag k="ssr:gruppe" v="veg" />
		<tag k="ssr:hovedgruppe" v="infrastruktur" />
		<tag k="ssr:stedsnr" v="1011030" />
		<tag k="ssr:type" v="adressenavn" />
	</node>
	<node lat="69.23463145200948" lon="18.06215435792214" id="-106450">
		<tag k="name" v="Vinterveien" />
		<tag k="ssr:date" v="2019-12-27" />
		<tag k="ssr:gruppe" v="veg" />
		<tag k="ssr:hovedgruppe" v="infrastruktur" />
		<tag k="ssr:stedsnr" v="1011031" />
		<tag k="ssr:type" v="adressenavn" />
	</node>
	<node lat="69.23491998453424" lon="18.056276729182283" id="-106451">
		<tag k="name" v="Kvitbergan" />
		<tag k="ssr:date" v="2019-12-27" />
		<tag k="ssr:gruppe" v="veg" />
		<tag k="ssr:hovedgruppe" v="infrastruktur" />
		<tag k="ssr:stedsnr" v="1011032" />
		<tag k="ssr:type" v="adressenavn" />
	</node>
	<node lat="69.23497876493391" lon="18.04445752778052" id="-106453">
		<tag k="name" v="Otterveien" />
		<tag k="ssr:date" v="2019-12-27" />
		<tag k="ssr:gruppe" v="veg" />
		<tag k="ssr:hovedgruppe" v="infrastruktur" />
		<tag k="ssr:stedsnr" v="1011034" />
		<tag k="ssr:type" v="adressenavn" />
	</node>
	<node lat="69.23702610881693" lon="18.037146112075657" id="-106454">
		<tag k="name" v="Stærveien" />
		<tag k="ssr:date" v="2019-12-27" />
		<tag k="ssr:gruppe" v="veg" />
		<tag k="ssr:hovedgruppe" v="infrastruktur" />
		<tag k="ssr:stedsnr" v="1011035" />
		<tag k="ssr:type" v="adressenavn" />
	</node>
	<node lat="69.23543679527987" lon="18.045058118966338" id="-106455">
		<tag k="name" v="Bjønnliveien" />
		<tag k="ssr:date" v="2019-12-27" />
		<tag k="ssr:gruppe" v="veg" />
		<tag k="ssr:hovedgruppe" v="infrastruktur" />
		<tag k="ssr:stedsnr" v="1011090" />
		<tag k="ssr:type" v="adressenavn" />
	</node>
	<node lat="69.23350627243207" lon="18.094571051924117" id="-106456">
		<tag k="name" v="Leiren" />
		<tag k="ssr:date" v="2019-12-27" />
		<tag k="ssr:gruppe" v="veg" />
		<tag k="ssr:hovedgruppe" v="infrastruktur" />
		<tag k="ssr:stedsnr" v="1011094" />
		<tag k="ssr:type" v="adressenavn" />
	</node>
	<node lat="69.23344576643274" lon="18.092487874244263" id="-106457">
		<tag k="name" v="Snarveien" />
		<tag k="ssr:date" v="2019-12-27" />
		<tag k="ssr:gruppe" v="veg" />
		<tag k="ssr:hovedgruppe" v="infrastruktur" />
		<tag k="ssr:stedsnr" v="1011097" />
		<tag k="ssr:type" v="adressenavn" />
	</node>
	<node lat="69.23473200408709" lon="18.03379950077069" id="-106458">
		<tag k="name" v="Tiurveien" />
		<tag k="ssr:date" v="2019-12-27" />
		<tag k="ssr:gruppe" v="veg" />
		<tag k="ssr:hovedgruppe" v="infrastruktur" />
		<tag k="ssr:stedsnr" v="1011041" />
		<tag k="ssr:type" v="adressenavn" />
	</node>
	<node lat="69.23430393273" lon="18.023665529381972" id="-106459">
		<tag k="name" v="Seljeveien" />
		<tag k="ssr:date" v="2019-12-27" />
		<tag k="ssr:gruppe" v="veg" />
		<tag k="ssr:hovedgruppe" v="infrastruktur" />
		<tag k="ssr:stedsnr" v="1011042" />
		<tag k="ssr:type" v="adressenavn" />
	</node>
	<node lat="69.23403768343678" lon="18.0213895405066" id="-106460">
		<tag k="name" v="Aspeveien" />
		<tag k="ssr:date" v="2019-12-27" />
		<tag k="ssr:gruppe" v="veg" />
		<tag k="ssr:hovedgruppe" v="infrastruktur" />
		<tag k="ssr:stedsnr" v="1011043" />
		<tag k="ssr:type" v="adressenavn" />
	</node>
	<node lat="69.23542040041015" lon="18.094066997764447" id="-106463">
		<tag k="name" v="Kveldro" />
		<tag k="ssr:date" v="2019-12-27" />
		<tag k="ssr:gruppe" v="veg" />
		<tag k="ssr:hovedgruppe" v="infrastruktur" />
		<tag k="ssr:stedsnr" v="1011049" />
		<tag k="ssr:type" v="adressenavn" />
	</node>
	<node lat="69.23724843253974" lon="18.102857374570295" id="-106464">
		<tag k="name" v="Nybrottsveien" />
		<tag k="ssr:date" v="2019-12-27" />
		<tag k="ssr:gruppe" v="veg" />
		<tag k="ssr:hovedgruppe" v="infrastruktur" />
		<tag k="ssr:stedsnr" v="1011051" />
		<tag k="ssr:type" v="adressenavn" />
	</node>
	<node lat="69.2357875598104" lon="18.09141449402022" id="-106465">
		<tag k="name" v="Brattlia" />
		<tag k="ssr:date" v="2019-12-27" />
		<tag k="ssr:gruppe" v="veg" />
		<tag k="ssr:hovedgruppe" v="infrastruktur" />
		<tag k="ssr:stedsnr" v="1011057" />
		<tag k="ssr:type" v="adressenavn" />
	</node>
	<node lat="69.23311733511035" lon="18.084003934356424" id="-106466">
		<tag k="name" v="Tverrveien" />
		<tag k="ssr:date" v="2019-12-27" />
		<tag k="ssr:gruppe" v="veg" />
		<tag k="ssr:hovedgruppe" v="infrastruktur" />
		<tag k="ssr:stedsnr" v="1011060" />
		<tag k="ssr:type" v="adressenavn" />
	</node>
	<node lat="69.23127693628228" lon="18.069657528841635" id="-106467">
		<tag k="name" v="Lunde" />
		<tag k="ssr:date" v="2019-12-27" />
		<tag k="ssr:gruppe" v="veg" />
		<tag k="ssr:hovedgruppe" v="infrastruktur" />
		<tag k="ssr:stedsnr" v="1011064" />
		<tag k="ssr:type" v="adressenavn" />
	</node>
	<node lat="69.23333142490465" lon="18.08287562941941" id="-106468">
		<tag k="name" v="Kleivaveien" />
		<tag k="ssr:date" v="2019-12-27" />
		<tag k="ssr:gruppe" v="veg" />
		<tag k="ssr:hovedgruppe" v="infrastruktur" />
		<tag k="ssr:stedsnr" v="1011066" />
		<tag k="ssr:type" v="adressenavn" />
	</node>
	<node lat="69.23378708792931" lon="18.086011676143595" id="-106469">
		<tag k="name" v="Botnveien" />
		<tag k="ssr:date" v="2019-12-27" />
		<tag k="ssr:gruppe" v="veg" />
		<tag k="ssr:hovedgruppe" v="infrastruktur" />
		<tag k="ssr:stedsnr" v="1011067" />
		<tag k="ssr:type" v="adressenavn" />
	</node>
	<node lat="69.23317870476382" lon="18.08167501170985" id="-106470">
		<tag k="name" v="Skavikveien" />
		<tag k="ssr:date" v="2019-12-27" />
		<tag k="ssr:gruppe" v="veg" />
		<tag k="ssr:hovedgruppe" v="infrastruktur" />
		<tag k="ssr:stedsnr" v="1011069" />
		<tag k="ssr:type" v="adressenavn" />
	</node>
	<node lat="69.24365637341181" lon="17.948239744986946" id="-106471">
		<tag k="name" v="Rogneveien" />
		<tag k="ssr:date" v="2019-12-27" />
		<tag k="ssr:gruppe" v="veg" />
		<tag k="ssr:hovedgruppe" v="infrastruktur" />
		<tag k="ssr:stedsnr" v="1011071" />
		<tag k="ssr:type" v="adressenavn" />
	</node>
	<node lat="69.23982984399312" lon="17.983883135031636" id="-106472">
		<tag k="name" v="Klippeveien" />
		<tag k="ssr:date" v="2019-12-27" />
		<tag k="ssr:gruppe" v="veg" />
		<tag k="ssr:hovedgruppe" v="infrastruktur" />
		<tag k="ssr:stedsnr" v="1011073" />
		<tag k="ssr:type" v="adressenavn" />
	</node>
	<node lat="69.24293662349467" lon="17.947718370078885" id="-106473">
		<tag k="name" v="Fergeveien" />
		<tag k="ssr:date" v="2019-12-27" />
		<tag k="ssr:gruppe" v="veg" />
		<tag k="ssr:hovedgruppe" v="infrastruktur" />
		<tag k="ssr:stedsnr" v="1011075" />
		<tag k="ssr:type" v="adressenavn" />
	</node>
	<node lat="69.24178038820462" lon="17.949300739000993" id="-106474">
		<tag k="name" v="Naustveien" />
		<tag k="ssr:date" v="2019-12-27" />
		<tag k="ssr:gruppe" v="veg" />
		<tag k="ssr:hovedgruppe" v="infrastruktur" />
		<tag k="ssr:stedsnr" v="1011077" />
		<tag k="ssr:type" v="adressenavn" />
	</node>
	<node lat="69.23781818596392" lon="17.980967724739696" id="-106475">
		<tag k="name" v="Bergveien" />
		<tag k="ssr:date" v="2019-12-27" />
		<tag k="ssr:gruppe" v="veg" />
		<tag k="ssr:hovedgruppe" v="infrastruktur" />
		<tag k="ssr:stedsnr" v="1011079" />
		<tag k="ssr:type" v="adressenavn" />
	</node>
	<node lat="69.23811993706674" lon="17.982727220186" id="-106476">
		<tag k="name" v="Nordli" />
		<tag k="ssr:date" v="2019-12-27" />
		<tag k="ssr:gruppe" v="veg" />
		<tag k="ssr:hovedgruppe" v="infrastruktur" />
		<tag k="ssr:stedsnr" v="1011081" />
		<tag k="ssr:type" v="adressenavn" />
	</node>
	<node lat="69.23954568724625" lon="17.982872409488596" id="-106477">
		<tag k="name" v="Sjøbakken" />
		<tag k="ssr:date" v="2019-12-27" />
		<tag k="ssr:gruppe" v="veg" />
		<tag k="ssr:hovedgruppe" v="infrastruktur" />
		<tag k="ssr:stedsnr" v="1011083" />
		<tag k="ssr:type" v="adressenavn" />
	</node>
	<node lat="69.2399195962055" lon="17.98414345967716" id="-106478">
		<tag k="name" v="Myrheim" />
		<tag k="ssr:date" v="2019-12-27" />
		<tag k="ssr:gruppe" v="veg" />
		<tag k="ssr:hovedgruppe" v="infrastruktur" />
		<tag k="ssr:stedsnr" v="1011085" />
		<tag k="ssr:type" v="adressenavn" />
	</node>
	<node lat="69.22938936768854" lon="17.9774305945342" id="-106514">
		<tag k="name" v="Strandveien" />
		<tag k="ssr:date" v="2019-12-27" />
		<tag k="ssr:gruppe" v="veg" />
		<tag k="ssr:hovedgruppe" v="infrastruktur" />
		<tag k="ssr:stedsnr" v="1011349" />
		<tag k="ssr:type" v="adressenavn" />
	</node>
	<node lat="69.22956643101666" lon="17.986516050286728" id="-106515">
		<tag k="name" v="Storgata" />
		<tag k="ssr:date" v="2019-12-27" />
		<tag k="ssr:gruppe" v="veg" />
		<tag k="ssr:hovedgruppe" v="infrastruktur" />
		<tag k="ssr:stedsnr" v="1011350" />
		<tag k="ssr:type" v="adressenavn" />
	</node>
	<node lat="69.2307414099995" lon="17.97702474396786" id="-106516">
		<tag k="name" v="Nyvenget" />
		<tag k="ssr:date" v="2019-12-27" />
		<tag k="ssr:gruppe" v="veg" />
		<tag k="ssr:hovedgruppe" v="infrastruktur" />
		<tag k="ssr:stedsnr" v="1011351" />
		<tag k="ssr:type" v="adressenavn" />
	</node>
	<node lat="69.23001590026084" lon="17.97750201907597" id="-106517">
		<tag k="name" v="Harvikveien" />
		<tag k="ssr:date" v="2019-12-27" />
		<tag k="ssr:gruppe" v="veg" />
		<tag k="ssr:hovedgruppe" v="infrastruktur" />
		<tag k="ssr:stedsnr" v="1011352" />
		<tag k="ssr:type" v="adressenavn" />
	</node>
	<node lat="69.228606773247" lon="17.989112667849675" id="-106518">
		<tag k="name" v="Hans Karolius vei" />
		<tag k="ssr:date" v="2019-12-27" />
		<tag k="ssr:gruppe" v="veg" />
		<tag k="ssr:hovedgruppe" v="infrastruktur" />
		<tag k="ssr:stedsnr" v="1011353" />
		<tag k="ssr:type" v="adressenavn" />
	</node>
	<node lat="69.22864242448453" lon="17.986173577122056" id="-106519">
		<tag k="name" v="Erling Nilssens vei" />
		<tag k="ssr:date" v="2019-12-27" />
		<tag k="ssr:gruppe" v="veg" />
		<tag k="ssr:hovedgruppe" v="infrastruktur" />
		<tag k="ssr:stedsnr" v="1011354" />
		<tag k="ssr:type" v="adressenavn" />
	</node>
	<node lat="69.23024954524796" lon="18.001884473490996" id="-106520">
		<tag k="name" v="Hersvik" />
		<tag k="ssr:date" v="2019-12-27" />
		<tag k="ssr:gruppe" v="veg" />
		<tag k="ssr:hovedgruppe" v="infrastruktur" />
		<tag k="ssr:stedsnr" v="1011355" />
		<tag k="ssr:type" v="adressenavn" />
	</node>
	<node lat="69.23025915255832" lon="17.993531185021503" id="-106521">
		<tag k="name" v="Fredly" />
		<tag k="ssr:date" v="2019-12-27" />
		<tag k="ssr:gruppe" v="veg" />
		<tag k="ssr:hovedgruppe" v="infrastruktur" />
		<tag k="ssr:stedsnr" v="1011356" />
		<tag k="ssr:type" v="adressenavn" />
	</node>
	<node lat="69.22833707320409" lon="17.991061214566393" id="-106522">
		<tag k="name" v="Sjøgata" />
		<tag k="ssr:date" v="2019-12-27" />
		<tag k="ssr:gruppe" v="veg" />
		<tag k="ssr:hovedgruppe" v="infrastruktur" />
		<tag k="ssr:stedsnr" v="1011357" />
		<tag k="ssr:type" v="adressenavn" />
	</node>
	<node lat="69.2276057497421" lon="17.977828869510038" id="-106523">
		<tag k="name" v="Ringveien" />
		<tag k="ssr:date" v="2019-12-27" />
		<tag k="ssr:gruppe" v="veg" />
		<tag k="ssr:hovedgruppe" v="infrastruktur" />
		<tag k="ssr:stedsnr" v="1011358" />
		<tag k="ssr:type" v="adressenavn" />
	</node>
	<node lat="69.22762752149228" lon="17.978179579905294" id="-106524">
		<tag k="name" v="Meierigata" />
		<tag k="ssr:date" v="2019-12-27" />
		<tag k="ssr:gruppe" v="veg" />
		<tag k="ssr:hovedgruppe" v="infrastruktur" />
		<tag k="ssr:stedsnr" v="1011359" />
		<tag k="ssr:type" v="adressenavn" />
	</node>
	<node lat="69.22893458802588" lon="17.976385191278908" id="-106525">
		<tag k="name" v="Bernhard Lunds vei" />
		<tag k="ssr:date" v="2019-12-27" />
		<tag k="ssr:gruppe" v="veg" />
		<tag k="ssr:hovedgruppe" v="infrastruktur" />
		<tag k="ssr:stedsnr" v="1011360" />
		<tag k="ssr:type" v="adressenavn" />
	</node>
	<node lat="69.23553121399664" lon="17.984891634655067" id="-106526">
		<tag k="name" v="Bjørklia" />
		<tag k="ssr:date" v="2019-12-27" />
		<tag k="ssr:gruppe" v="veg" />
		<tag k="ssr:hovedgruppe" v="infrastruktur" />
		<tag k="ssr:stedsnr" v="1011362" />
		<tag k="ssr:type" v="adressenavn" />
	</node>
	<node lat="69.22963956414559" lon="17.98437064210462" id="-106527">
		<tag k="name" v="Skolegata" />
		<tag k="ssr:date" v="2019-12-27" />
		<tag k="ssr:gruppe" v="veg" />
		<tag k="ssr:hovedgruppe" v="infrastruktur" />
		<tag k="ssr:stedsnr" v="1011363" />
		<tag k="ssr:type" v="adressenavn" />
	</node>
	<node lat="69.23007953207848" lon="17.988409758084043" id="-106528">
		<tag k="name" v="Rådhusveien" />
		<tag k="ssr:date" v="2019-12-27" />
		<tag k="ssr:gruppe" v="veg" />
		<tag k="ssr:hovedgruppe" v="infrastruktur" />
		<tag k="ssr:stedsnr" v="1011364" />
		<tag k="ssr:type" v="adressenavn" />
	</node>
	<node lat="69.23247577779864" lon="17.979728766188416" id="-106530">
		<tag k="name" v="Idrettsveien" />
		<tag k="ssr:date" v="2019-12-27" />
		<tag k="ssr:gruppe" v="veg" />
		<tag k="ssr:hovedgruppe" v="infrastruktur" />
		<tag k="ssr:stedsnr" v="1011366" />
		<tag k="ssr:type" v="adressenavn" />
	</node>
	<node lat="69.23286827547237" lon="17.979613122847706" id="-106531">
		<tag k="name" v="Bergliveien" />
		<tag k="ssr:date" v="2019-12-27" />
		<tag k="ssr:gruppe" v="veg" />
		<tag k="ssr:hovedgruppe" v="infrastruktur" />
		<tag k="ssr:stedsnr" v="1011367" />
		<tag k="ssr:type" v="adressenavn" />
	</node>
	<node lat="69.23533093565678" lon="17.979027458549663" id="-106532">
		<tag k="name" v="Nordmarka" />
		<tag k="ssr:date" v="2019-12-27" />
		<tag k="ssr:gruppe" v="veg" />
		<tag k="ssr:hovedgruppe" v="infrastruktur" />
		<tag k="ssr:stedsnr" v="1011368" />
		<tag k="ssr:type" v="adressenavn" />
	</node>
	<node lat="69.23391100144143" lon="17.976100570936925" id="-106533">
		<tag k="name" v="Høyden" />
		<tag k="ssr:date" v="2019-12-27" />
		<tag k="ssr:gruppe" v="veg" />
		<tag k="ssr:hovedgruppe" v="infrastruktur" />
		<tag k="ssr:stedsnr" v="1011369" />
		<tag k="ssr:type" v="adressenavn" />
	</node>
	<node lat="69.23152143600767" lon="17.978277483888203" id="-106534">
		<tag k="name" v="Knausen" />
		<tag k="ssr:date" v="2019-12-27" />
		<tag k="ssr:gruppe" v="veg" />
		<tag k="ssr:hovedgruppe" v="infrastruktur" />
		<tag k="ssr:stedsnr" v="1011370" />
		<tag k="ssr:type" v="adressenavn" />
	</node>
	<node lat="69.23178608101232" lon="17.9834310571071" id="-106535">
		<tag k="name" v="Mellomveien" />
		<tag k="ssr:date" v="2019-12-27" />
		<tag k="ssr:gruppe" v="veg" />
		<tag k="ssr:hovedgruppe" v="infrastruktur" />
		<tag k="ssr:stedsnr" v="1011371" />
		<tag k="ssr:type" v="adressenavn" />
	</node>
	<node lat="69.23271144873962" lon="17.98110434235623" id="-106536">
		<tag k="name" v="Liaveien" />
		<tag k="ssr:date" v="2019-12-27" />
		<tag k="ssr:gruppe" v="veg" />
		<tag k="ssr:hovedgruppe" v="infrastruktur" />
		<tag k="ssr:stedsnr" v="1011372" />
		<tag k="ssr:type" v="adressenavn" />
	</node>
	<node lat="69.23494064198441" lon="17.976570520217845" id="-106537">
		<tag k="name" v="Westbyveien" />
		<tag k="ssr:date" v="2019-12-27" />
		<tag k="ssr:gruppe" v="veg" />
		<tag k="ssr:hovedgruppe" v="infrastruktur" />
		<tag k="ssr:stedsnr" v="1011373" />
		<tag k="ssr:type" v="adressenavn" />
	</node>
	<node lat="69.23269331801926" lon="17.974025401472897" id="-106538">
		<tag k="name" v="Larsbakken" />
		<tag k="ssr:date" v="2019-12-27" />
		<tag k="ssr:gruppe" v="veg" />
		<tag k="ssr:hovedgruppe" v="infrastruktur" />
		<tag k="ssr:stedsnr" v="1011374" />
		<tag k="ssr:type" v="adressenavn" />
	</node>
	<node lat="69.23197912615949" lon="17.97776600361415" id="-106539">
		<tag k="name" v="Nygårdsveien" />
		<tag k="ssr:date" v="2019-12-27" />
		<tag k="ssr:gruppe" v="veg" />
		<tag k="ssr:hovedgruppe" v="infrastruktur" />
		<tag k="ssr:stedsnr" v="1011375" />
		<tag k="ssr:type" v="adressenavn" />
	</node>
	<node lat="69.23006111552414" lon="17.981069555203092" id="-106540">
		<tag k="name" v="Smørhusbakken" />
		<tag k="ssr:date" v="2019-12-27" />
		<tag k="ssr:gruppe" v="veg" />
		<tag k="ssr:hovedgruppe" v="infrastruktur" />
		<tag k="ssr:stedsnr" v="1011376" />
		<tag k="ssr:type" v="adressenavn" />
	</node>
	<node lat="69.15666005513522" lon="16.88393628190495" id="-106688">
		<tag k="name" v="Hallvardsøyan" />
		<tag k="ssr:date" v="2021-05-04" />
		<tag k="ssr:gruppe" v="veg" />
		<tag k="ssr:hovedgruppe" v="infrastruktur" />
		<tag k="ssr:stedsnr" v="1081128" />
		<tag k="ssr:type" v="adressenavn" />
	</node>
	<node lat="69.1410740907371" lon="17.084001786262615" id="-106693">
		<tag k="name" v="Bunkan" />
		<tag k="ssr:date" v="2021-07-08" />
		<tag k="ssr:gruppe" v="veg" />
		<tag k="ssr:hovedgruppe" v="infrastruktur" />
		<tag k="ssr:stedsnr" v="1081808" />
		<tag k="ssr:type" v="adressenavn" />
	</node>
	<node lat="69.0336325712792" lon="16.910457460289294" id="-106694">
		<tag k="name" v="Lemmingvær" />
		<tag k="ssr:date" v="2021-07-08" />
		<tag k="ssr:gruppe" v="veg" />
		<tag k="ssr:hovedgruppe" v="infrastruktur" />
		<tag k="ssr:stedsnr" v="1081806" />
		<tag k="ssr:type" v="adressenavn" />
	</node>
	<node lat="69.14931749720718" lon="16.994117698694833" id="-106695">
		<tag k="name" v="Oksen" />
		<tag k="ssr:date" v="2021-07-08" />
		<tag k="ssr:gruppe" v="veg" />
		<tag k="ssr:hovedgruppe" v="infrastruktur" />
		<tag k="ssr:stedsnr" v="1081807" />
		<tag k="ssr:type" v="adressenavn" />
	</node>
	<node lat="69.10247574836634" lon="17.085352429342045" id="-106696">
		<tag k="name" v="Bunkevatnet" />
		<tag k="ssr:date" v="2021-07-08" />
		<tag k="ssr:gruppe" v="veg" />
		<tag k="ssr:hovedgruppe" v="infrastruktur" />
		<tag k="ssr:stedsnr" v="1081809" />
		<tag k="ssr:type" v="adressenavn" />
	</node>
</osm>
