<?xml version="1.0" encoding="UTF-8"?>
<osm generator="osmapis" version="0.6">
	<node id="-901013" lat="64.0347361087" lon="11.1771000015">
		<tag k="name" v="Kvitberghalla" />
		<tag k="natural" v="hill" />
		<tag k="place" v="locality" />
		<tag k="ssr:stedsnr" v="89946" />
	</node>
	<node id="-901009" lat="64.1320749995" lon="11.1246555643">
		<tag k="fixme" v="consider natural=peak for the most distinct mountains in the district" />
		<tag k="name" v="Ferjåsan" />
		<tag k="natural" v="hill" />
		<tag k="place" v="locality" />
		<tag k="ssr:stedsnr" v="291585" />
	</node>
	<node id="-901006" lat="64.0297666684" lon="11.1001194376">
		<tag k="name" v="Almlilia" />
		<tag k="natural" v="slope" />
		<tag k="place" v="locality" />
		<tag k="ssr:stedsnr" v="742997" />
	</node>
	<node id="-901005" lat="64.1331944402" lon="11.1617583266">
		<tag k="name" v="Styggdalen" />
		<tag k="natural" v="valley" />
		<tag k="place" v="locality" />
		<tag k="ssr:stedsnr" v="291583" />
	</node>
	<node id="-901004" lat="64.020061107" lon="10.9379638911">
		<tag k="name" v="Stordalen" />
		<tag k="natural" v="valley" />
		<tag k="place" v="locality" />
		<tag k="ssr:stedsnr" v="438990" />
	</node>
	<node id="-901003" lat="64.1229888859" lon="11.1462194428">
		<tag k="name" v="Påldalen" />
		<tag k="natural" v="valley" />
		<tag k="place" v="locality" />
		<tag k="ssr:stedsnr" v="291584" />
	</node>
	<node id="-901001" lat="64.0298611116" lon="10.8858805643">
		<tag k="name" v="Sandvasslia" />
		<tag k="natural" v="slope" />
		<tag k="place" v="locality" />
		<tag k="ssr:stedsnr" v="776071" />
	</node>
	<node id="-900995" lat="64.0894527781" lon="11.0986361044">
		<tag k="name" v="Hammerdalen" />
		<tag k="natural" v="valley" />
		<tag k="place" v="locality" />
		<tag k="ssr:stedsnr" v="412662" />
	</node>
	<node id="-900993" lat="64.0902222265" lon="11.1772555509">
		<tag k="fixme" v="consider natural=peak for the most distinct mountains in the district" />
		<tag k="name" v="Røsstømtehalla" />
		<tag k="natural" v="hill" />
		<tag k="place" v="locality" />
		<tag k="ssr:stedsnr" v="89949" />
	</node>
	<node id="-900992" lat="64.0722499974" lon="10.8451361021">
		<tag k="fixme" v="consider natural=peak for the most distinct mountains in the district" />
		<tag k="name" v="Reinsjøheia" />
		<tag k="natural" v="hill" />
		<tag k="place" v="locality" />
		<tag k="ssr:stedsnr" v="439531" />
	</node>
	<node id="-900989" lat="63.9903999964" lon="10.8694055452">
		<tag k="name" v="Nyfjellkammen" />
		<tag k="natural" v="ridge" />
		<tag k="place" v="locality" />
		<tag k="ssr:stedsnr" v="108110" />
	</node>
	<node id="-900984" lat="63.8686305532" lon="10.6975694369">
		<tag k="fixme" v="consider natural=peak for the most distinct mountains in the district" />
		<tag k="name" v="Fosskammen" />
		<tag k="natural" v="hill" />
		<tag k="place" v="locality" />
		<tag k="ssr:stedsnr" v="923311" />
	</node>
	<node id="-900981" lat="63.817527775" lon="10.6063138842">
		<tag k="name" v="Raudtinddalen" />
		<tag k="natural" v="valley" />
		<tag k="place" v="locality" />
		<tag k="ssr:stedsnr" v="256404" />
	</node>
	<node id="-900977" lat="64.0862722217" lon="11.2615805557">
		<tag k="name" v="Øvre Grønnsvedalshalla" />
		<tag k="natural" v="slope" />
		<tag k="place" v="locality" />
		<tag k="ssr:stedsnr" v="629853" />
	</node>
	<node id="-900974" lat="64.0204861122" lon="10.9506416754">
		<tag k="fixme" v="consider natural=peak for the most distinct mountains in the district" />
		<tag k="name" v="Helvetesåsen" />
		<tag k="natural" v="hill" />
		<tag k="place" v="locality" />
		<tag k="ssr:stedsnr" v="559769" />
	</node>
	<node id="-900973" lat="63.8785138852" lon="10.7195305542">
		<tag k="name" v="Vakkerheia" />
		<tag k="natural" v="hill" />
		<tag k="place" v="locality" />
		<tag k="ssr:stedsnr" v="332086" />
	</node>
	<node id="-900972" lat="63.8977361072" lon="10.878316666">
		<tag k="name" v="Bolmsetlia" />
		<tag k="natural" v="slope" />
		<tag k="place" v="locality" />
		<tag k="ssr:stedsnr" v="817072" />
	</node>
	<node id="-900971" lat="63.9007416666" lon="10.6483805557">
		<tag k="name" v="Steindalen" />
		<tag k="natural" v="valley" />
		<tag k="place" v="locality" />
		<tag k="ssr:stedsnr" v="619324" />
	</node>
	<node id="-900967" lat="64.0744749995" lon="11.1982277827">
		<tag k="fixme" v="consider natural=peak for the most distinct mountains in the district" />
		<tag k="name" v="Storåsen" />
		<tag k="natural" v="hill" />
		<tag k="place" v="locality" />
		<tag k="ssr:stedsnr" v="514962" />
	</node>
	<node id="-900963" lat="63.9967972218" lon="10.8579777787">
		<tag k="name" v="Grønnlidalen" />
		<tag k="natural" v="valley" />
		<tag k="place" v="locality" />
		<tag k="ssr:stedsnr" v="351086" />
	</node>
	<node id="-900957" lat="63.7991305571" lon="10.6241527802">
		<tag k="name" v="Bukkslættet" />
		<tag k="natural" v="hill" />
		<tag k="place" v="locality" />
		<tag k="ssr:stedsnr" v="74466" />
	</node>
	<node id="-900956" lat="64.0246694477" lon="10.9611888967">
		<tag k="alt_name" v="Finnklompen" />
		<tag k="fixme" v="consider natural=peak for the most distinct mountains in the district" />
		<tag k="name" v="Finnklumpen" />
		<tag k="natural" v="hill" />
		<tag k="place" v="locality" />
		<tag k="ssr:stedsnr" v="438988" />
	</node>
	<node id="-900955" lat="63.8070444424" lon="10.495266661">
		<tag k="name" v="Augvassdalen" />
		<tag k="natural" v="valley" />
		<tag k="place" v="locality" />
		<tag k="ssr:stedsnr" v="837213" />
	</node>
	<node id="-900952" lat="64.1174777817" lon="10.9685500042">
		<tag k="alt_name" v="Finnburhaugen" />
		<tag k="name" v="Finnburshaugen" />
		<tag k="natural" v="hill" />
		<tag k="place" v="locality" />
		<tag k="ssr:stedsnr" v="559494" />
	</node>
	<node id="-900947" lat="64.0870444448" lon="11.2670777844">
		<tag k="name" v="Grønnholet" />
		<tag k="place" v="locality" />
		<tag k="ssr:stedsnr" v="933865" />
	</node>
	<node id="-900946" lat="63.9856250022" lon="11.1266472248">
		<tag k="name" v="Kistvikberga" />
		<tag k="natural" v="hill" />
		<tag k="place" v="locality" />
		<tag k="ssr:stedsnr" v="514110" />
	</node>
	<node id="-900945" lat="64.0391416705" lon="11.1788444412">
		<tag k="name" v="Masterdalen" />
		<tag k="natural" v="valley" />
		<tag k="place" v="locality" />
		<tag k="ssr:stedsnr" v="514938" />
	</node>
	<node id="-900944" lat="64.0890750003" lon="11.27524444">
		<tag k="name" v="Øvre Persvedalshalla" />
		<tag k="natural" v="slope" />
		<tag k="place" v="locality" />
		<tag k="ssr:stedsnr" v="933867" />
	</node>
	<node id="-900942" lat="64.0847333331" lon="11.1715694457">
		<tag k="name" v="Storbuliin" />
		<tag k="natural" v="slope" />
		<tag k="place" v="locality" />
		<tag k="ssr:stedsnr" v="514943" />
	</node>
	<node id="-900937" lat="63.8373583308" lon="10.52724999">
		<tag k="name" v="Lauvhatten" />
		<tag k="natural" v="hill" />
		<tag k="place" v="locality" />
		<tag k="ssr:stedsnr" v="775229" />
	</node>
	<node id="-900936" lat="64.0480305551" lon="10.9078638862">
		<tag k="fixme" v="consider natural=peak for the most distinct mountains in the district" />
		<tag k="name" v="Hyllvassheia" />
		<tag k="natural" v="hill" />
		<tag k="place" v="locality" />
		<tag k="ssr:stedsnr" v="317932" />
	</node>
	<node id="-900934" lat="64.0055638858" lon="11.1191027715">
		<tag k="name" v="Jerpdalen" />
		<tag k="natural" v="valley" />
		<tag k="place" v="locality" />
		<tag k="ssr:stedsnr" v="574117" />
	</node>
	<node id="-900933" lat="64.0249027796" lon="11.0731388904">
		<tag k="name" v="Hestlia" />
		<tag k="natural" v="slope" />
		<tag k="place" v="locality" />
		<tag k="ssr:stedsnr" v="48054" />
	</node>
	<node id="-900931" lat="63.8483749968" lon="10.6252500073">
		<tag k="name" v="Gåvasslia" />
		<tag k="natural" v="slope" />
		<tag k="place" v="locality" />
		<tag k="ssr:stedsnr" v="654194" />
	</node>
	<node id="-900929" lat="64.0410083373" lon="10.8276500057">
		<tag k="alt_name" v="Svartklompen" />
		<tag k="name" v="Svartklumpen" />
		<tag k="natural" v="hill" />
		<tag k="place" v="locality" />
		<tag k="ssr:stedsnr" v="256942" />
	</node>
	<node id="-900925" lat="63.8800249967" lon="10.8064472156">
		<tag k="fixme" v="consider natural=peak for the most distinct mountains in the district" />
		<tag k="name" v="Kammen" />
		<tag k="natural" v="hill" />
		<tag k="place" v="locality" />
		<tag k="ssr:stedsnr" v="392097" />
	</node>
	<node id="-900924" lat="64.0168444424" lon="11.0879638898">
		<tag k="name" v="Almlihøgda" />
		<tag k="natural" v="hill" />
		<tag k="place" v="locality" />
		<tag k="ssr:stedsnr" v="48050" />
	</node>
	<node id="-900923" lat="63.9883583355" lon="11.0335500077">
		<tag k="name" v="Bjørklidalen" />
		<tag k="natural" v="valley" />
		<tag k="place" v="locality" />
		<tag k="ssr:stedsnr" v="499518" />
	</node>
	<node id="-900920" lat="63.8646777763" lon="10.7067111064">
		<tag k="name" v="Seterdalen" />
		<tag k="natural" v="valley" />
		<tag k="place" v="locality" />
		<tag k="ssr:stedsnr" v="47248" />
	</node>
	<node id="-900917" lat="64.0971305517" lon="11.1508111185">
		<tag k="name" v="Trongdalen" />
		<tag k="natural" v="valley" />
		<tag k="place" v="locality" />
		<tag k="ssr:stedsnr" v="291564" />
	</node>
	<node id="-900912" lat="64.0877083307" lon="11.2801416638">
		<tag k="name" v="Revhisvehalla" />
		<tag k="natural" v="slope" />
		<tag k="place" v="locality" />
		<tag k="ssr:stedsnr" v="750823" />
	</node>
	<node id="-900909" lat="64.0781555536" lon="10.9040333368">
		<tag k="fixme" v="consider natural=peak for the most distinct mountains in the district" />
		<tag k="name" v="Tørrisheimåsen" />
		<tag k="natural" v="hill" />
		<tag k="place" v="locality" />
		<tag k="ssr:stedsnr" v="715675" />
	</node>
	<node id="-900906" lat="64.0999888846" lon="11.3101805494">
		<tag k="name" v="Kleiva" />
		<tag k="place" v="locality" />
		<tag k="ssr:stedsnr" v="629804" />
	</node>
	<node id="-900905" lat="64.0322999972" lon="11.099399999">
		<tag k="fixme" v="consider natural=peak for the most distinct mountains in the district" />
		<tag k="name" v="Langmyråsen" />
		<tag k="natural" v="hill" />
		<tag k="place" v="locality" />
		<tag k="ssr:stedsnr" v="230006" />
	</node>
	<node id="-900903" lat="63.9043333326" lon="10.8442694538">
		<tag k="fixme" v="consider natural=peak for the most distinct mountains in the district" />
		<tag k="name" v="Gammelseterhaugen" />
		<tag k="natural" v="hill" />
		<tag k="place" v="locality" />
		<tag k="ssr:stedsnr" v="654210" />
	</node>
	<node id="-900898" lat="64.0858833375" lon="11.2449722159">
		<tag k="name" v="Storberget" />
		<tag k="natural" v="hill" />
		<tag k="place" v="locality" />
		<tag k="ssr:stedsnr" v="629830" />
	</node>
	<node id="-900894" lat="64.0828805514" lon="11.0973388788">
		<tag k="name" v="Grandhusskaret" />
		<tag k="natural" v="valley" />
		<tag k="place" v="locality" />
		<tag k="ssr:stedsnr" v="532653" />
	</node>
	<node id="-900893" lat="64.0552944443" lon="10.8358194446">
		<tag k="alt_name" v="Reinsjøklompen" />
		<tag k="name" v="Reinsjøklumpen" />
		<tag k="natural" v="hill" />
		<tag k="place" v="locality" />
		<tag k="ssr:stedsnr" v="438964" />
	</node>
	<node id="-900892" lat="63.9959222264" lon="11.0231805599">
		<tag k="name" v="Todalen" />
		<tag k="natural" v="valley" />
		<tag k="place" v="locality" />
		<tag k="ssr:stedsnr" v="776059" />
	</node>
	<node id="-900884" lat="64.0766499997" lon="11.2048666597">
		<tag k="alt_name" v="Storberget" />
		<tag k="name" v="Storåsberget" />
		<tag k="natural" v="hill" />
		<tag k="place" v="locality" />
		<tag k="ssr:stedsnr" v="439507" />
	</node>
	<node id="-900882" lat="63.9332277821" lon="10.925602783">
		<tag k="name" v="Reinfanhaugen" />
		<tag k="natural" v="hill" />
		<tag k="place" v="locality" />
		<tag k="ssr:stedsnr" v="392075" />
	</node>
	<node id="-900879" lat="63.9801083337" lon="10.8619388925">
		<tag k="name" v="Straumseterlia" />
		<tag k="natural" v="slope" />
		<tag k="place" v="locality" />
		<tag k="ssr:stedsnr" v="169088" />
	</node>
	<node id="-900877" lat="64.0831388847" lon="11.2686944526">
		<tag k="name" v="Langnesbakken" />
		<tag k="natural" v="slope" />
		<tag k="place" v="locality" />
		<tag k="ssr:stedsnr" v="750843" />
	</node>
	<node id="-900873" lat="64.1136222227" lon="11.1888805611">
		<tag k="name" v="Seterliklumpen" />
		<tag k="natural" v="hill" />
		<tag k="place" v="locality" />
		<tag k="ssr:stedsnr" v="559489" />
	</node>
	<node id="-900869" lat="63.8069361115" lon="10.622202779">
		<tag k="name" v="Kalvtrøberget" />
		<tag k="natural" v="hill" />
		<tag k="place" v="locality" />
		<tag k="ssr:stedsnr" v="332053" />
	</node>
	<node id="-900865" lat="64.0146888911" lon="10.9426972312">
		<tag k="fixme" v="consider natural=peak for the most distinct mountains in the district" />
		<tag k="name" v="Helvetesåsen" />
		<tag k="natural" v="hill" />
		<tag k="place" v="locality" />
		<tag k="ssr:stedsnr" v="108064" />
	</node>
	<node id="-900864" lat="63.9637611135" lon="11.002652769">
		<tag k="name" v="Tjurruliheia" />
		<tag k="natural" v="hill" />
		<tag k="place" v="locality" />
		<tag k="ssr:stedsnr" v="26273" />
	</node>
	<node id="-900863" lat="64.0904388898" lon="11.2736333242">
		<tag k="name" v="Stammyrshalla" />
		<tag k="natural" v="slope" />
		<tag k="place" v="locality" />
		<tag k="ssr:stedsnr" v="933873" />
	</node>
	<node id="-900856" lat="63.8835083298" lon="10.7662444431">
		<tag k="name" v="Slettlia" />
		<tag k="natural" v="slope" />
		<tag k="place" v="locality" />
		<tag k="ssr:stedsnr" v="14670" />
	</node>
	<node id="-900852" lat="64.0256527799" lon="10.9320888795">
		<tag k="name" v="Jordfallet" />
		<tag k="natural" v="slope" />
		<tag k="place" v="locality" />
		<tag k="ssr:stedsnr" v="135989" />
	</node>
	<node id="-900847" lat="63.8922611111" lon="10.6794611188">
		<tag k="name" v="Seterhaugen" />
		<tag k="natural" v="hill" />
		<tag k="place" v="locality" />
		<tag k="ssr:stedsnr" v="13332" />
	</node>
	<node id="-900845" lat="64.1057999973" lon="11.2624111015">
		<tag k="name" v="Kjerringdalen" />
		<tag k="natural" v="valley" />
		<tag k="place" v="locality" />
		<tag k="ssr:stedsnr" v="508191" />
	</node>
	<node id="-900839" lat="64.0920611109" lon="11.0926416571">
		<tag k="name" v="Nova" />
		<tag k="natural" v="valley" />
		<tag k="place" v="locality" />
		<tag k="ssr:stedsnr" v="715653" />
	</node>
	<node id="-900837" lat="63.8755166644" lon="10.7893444355">
		<tag k="name" v="Messalia" />
		<tag k="natural" v="slope" />
		<tag k="place" v="locality" />
		<tag k="ssr:stedsnr" v="574090" />
	</node>
	<node id="-900836" lat="64.0251638926" lon="11.1211916758">
		<tag k="name" v="Dalengberget" />
		<tag k="natural" v="hill" />
		<tag k="place" v="locality" />
		<tag k="ssr:stedsnr" v="169478" />
	</node>
	<node id="-900834" lat="64.0447916645" lon="10.9727166767">
		<tag k="fixme" v="consider natural=peak for the most distinct mountains in the district" />
		<tag k="name" v="Spillernyheia" />
		<tag k="natural" v="hill" />
		<tag k="place" v="locality" />
		<tag k="ssr:stedsnr" v="958645" />
	</node>
	<node id="-900832" lat="64.0497361086" lon="11.1487111072">
		<tag k="name" v="Svartdalen" />
		<tag k="natural" v="valley" />
		<tag k="place" v="locality" />
		<tag k="ssr:stedsnr" v="351431" />
	</node>
	<node id="-900830" lat="63.8964583333" lon="10.6197694463">
		<tag k="fixme" v="consider natural=peak for the most distinct mountains in the district" />
		<tag k="name" v="Mefjellet" />
		<tag k="natural" v="hill" />
		<tag k="place" v="locality" />
		<tag k="ssr:stedsnr" v="741357" />
	</node>
	<node id="-900826" lat="63.8638916637" lon="10.7383527741">
		<tag k="alt_name" v="Fagerviklia" />
		<tag k="name" v="Stor-reset" />
		<tag k="natural" v="slope" />
		<tag k="place" v="locality" />
		<tag k="ssr:stedsnr" v="135721" />
	</node>
	<node id="-900825" lat="64.0398277799" lon="10.9333749935">
		<tag k="name" v="Paulinadalen" />
		<tag k="natural" v="valley" />
		<tag k="place" v="locality" />
		<tag k="ssr:stedsnr" v="742957" />
	</node>
	<node id="-900824" lat="64.1290861135" lon="11.1617944352">
		<tag k="name" v="Holtadalen" />
		<tag k="natural" v="valley" />
		<tag k="place" v="locality" />
		<tag k="ssr:stedsnr" v="837575" />
	</node>
	<node id="-900820" lat="64.119663892" lon="11.1509944463">
		<tag k="name" v="Strømnesdalen" />
		<tag k="natural" v="valley" />
		<tag k="place" v="locality" />
		<tag k="ssr:stedsnr" v="654573" />
	</node>
	<node id="-900819" lat="63.7563611131" lon="10.4876638828">
		<tag k="name" v="Middagsskaret" />
		<tag k="natural" v="valley" />
		<tag k="place" v="locality" />
		<tag k="ssr:stedsnr" v="939244" />
	</node>
	<node id="-900818" lat="63.9710916629" lon="11.0716194395">
		<tag k="name" v="Bjørga" />
		<tag k="natural" v="hill" />
		<tag k="place" v="locality" />
		<tag k="ssr:stedsnr" v="514088" />
	</node>
	<node id="-900810" lat="64.0963611069" lon="11.1310416671">
		<tag k="name" v="Kamman" />
		<tag k="natural" v="hill" />
		<tag k="place" v="locality" />
		<tag k="ssr:stedsnr" v="439502" />
	</node>
	<node id="-900803" lat="64.0310194462" lon="10.8275972187">
		<tag k="fixme" v="consider natural=peak for the most distinct mountains in the district" />
		<tag k="name" v="Silleråsen" />
		<tag k="natural" v="hill" />
		<tag k="place" v="locality" />
		<tag k="ssr:stedsnr" v="654162" />
	</node>
	<node id="-900802" lat="63.7989055546" lon="10.6465527743">
		<tag k="alt_name" v="Mortensfjellet" />
		<tag k="fixme" v="consider natural=peak for the most distinct mountains in the district" />
		<tag k="name" v="Mortenfjellet" />
		<tag k="natural" v="hill" />
		<tag k="place" v="locality" />
		<tag k="ssr:stedsnr" v="14395" />
	</node>
	<node id="-900799" lat="63.8190972241" lon="10.5303194347">
		<tag k="name" v="Augvasshaugen" />
		<tag k="natural" v="hill" />
		<tag k="place" v="locality" />
		<tag k="ssr:stedsnr" v="958260" />
	</node>
	<node id="-900789" lat="64.0155388887" lon="10.9049972236">
		<tag k="name" v="Jovassnakken" />
		<tag k="natural" v="hill" />
		<tag k="place" v="locality" />
		<tag k="ssr:stedsnr" v="169064" />
	</node>
	<node id="-900786" lat="64.0300277778" lon="11.0857444532">
		<tag k="fixme" v="consider natural=peak for the most distinct mountains in the district" />
		<tag k="name" v="Vardeheia" />
		<tag k="natural" v="hill" />
		<tag k="place" v="locality" />
		<tag k="ssr:stedsnr" v="716063" />
	</node>
	<node id="-900783" lat="64.0430277761" lon="11.0593444521">
		<tag k="alt_name" v="Fautenghalla" />
		<tag k="name" v="Fauthalla" />
		<tag k="natural" v="hill" />
		<tag k="place" v="locality" />
		<tag k="ssr:stedsnr" v="14929" />
	</node>
	<node id="-900778" lat="64.0060444432" lon="10.8152999989">
		<tag k="fixme" v="consider natural=peak for the most distinct mountains in the district" />
		<tag k="name" v="Litlåsen" />
		<tag k="natural" v="hill" />
		<tag k="place" v="locality" />
		<tag k="ssr:stedsnr" v="654179" />
	</node>
	<node id="-900773" lat="64.0443472219" lon="11.0375666585">
		<tag k="fixme" v="consider natural=peak for the most distinct mountains in the district" />
		<tag k="name" v="Kinnkjerrklumpen" />
		<tag k="natural" v="hill" />
		<tag k="place" v="locality" />
		<tag k="ssr:stedsnr" v="14928" />
	</node>
	<node id="-900771" lat="64.0191500014" lon="11.058402781">
		<tag k="fixme" v="consider natural=peak for the most distinct mountains in the district" />
		<tag k="name" v="Nordliåsen" />
		<tag k="natural" v="hill" />
		<tag k="place" v="locality" />
		<tag k="ssr:stedsnr" v="716061" />
	</node>
	<node id="-900768" lat="63.8078305512" lon="10.5590472307">
		<tag k="fixme" v="consider natural=peak for the most distinct mountains in the district" />
		<tag k="name" v="Rognåsheia" />
		<tag k="natural" v="hill" />
		<tag k="place" v="locality" />
		<tag k="ssr:stedsnr" v="438430" />
	</node>
	<node id="-900766" lat="63.8648749977" lon="10.6967444518">
		<tag k="name" v="Styggmarka" />
		<tag k="natural" v="slope" />
		<tag k="place" v="locality" />
		<tag k="ssr:stedsnr" v="958256" />
	</node>
	<node id="-900761" lat="63.9161777819" lon="10.9186777796">
		<tag k="name" v="Skjelstadlia" />
		<tag k="natural" v="slope" />
		<tag k="place" v="locality" />
		<tag k="ssr:stedsnr" v="390812" />
	</node>
	<node id="-900760" lat="63.8844555584" lon="10.756136113">
		<tag k="fixme" v="consider natural=peak for the most distinct mountains in the district" />
		<tag k="name" v="Rørtjønnkammen" />
		<tag k="natural" v="hill" />
		<tag k="place" v="locality" />
		<tag k="ssr:stedsnr" v="837196" />
	</node>
	<node id="-900758" lat="63.9165472212" lon="10.7331500046">
		<tag k="fixme" v="consider natural=peak for the most distinct mountains in the district" />
		<tag k="loc_name:sma" v="Jorpetjahke" />
		<tag k="name" v="Trevassheia" />
		<tag k="name:no" v="Trevassheia" />
		<tag k="natural" v="hill" />
		<tag k="place" v="locality" />
		<tag k="ssr:stedsnr" v="439493" />
	</node>
	<node id="-900755" lat="63.9594611069" lon="10.8138388892">
		<tag k="fixme" v="consider natural=peak for the most distinct mountains in the district" />
		<tag k="name" v="Fossafjellet" />
		<tag k="natural" v="hill" />
		<tag k="place" v="locality" />
		<tag k="ssr:stedsnr" v="654149" />
	</node>
	<node id="-900754" lat="64.0980861129" lon="10.939122214">
		<tag k="name" v="Søndagsheia" />
		<tag k="natural" v="hill" />
		<tag k="place" v="locality" />
		<tag k="ssr:stedsnr" v="864561" />
	</node>
	<node id="-900753" lat="64.0680916708" lon="11.1979138976">
		<tag k="name" v="Sandbrøyta" />
		<tag k="place" v="locality" />
		<tag k="ssr:stedsnr" v="635968" />
	</node>
	<node id="-900743" lat="64.0492333369" lon="11.1945249975">
		<tag k="name" v="Nonsskaret" />
		<tag k="natural" v="valley" />
		<tag k="place" v="locality" />
		<tag k="ssr:stedsnr" v="210992" />
	</node>
	<node id="-900741" lat="64.0327972266" lon="10.7937000056">
		<tag k="name" v="Skamnaklompan" />
		<tag k="natural" v="hill" />
		<tag k="place" v="locality" />
		<tag k="ssr:stedsnr" v="350605" />
	</node>
	<node id="-900740" lat="64.0386249983" lon="10.9055833425">
		<tag k="name" v="Hyllvassheia" />
		<tag k="natural" v="hill" />
		<tag k="place" v="locality" />
		<tag k="ssr:stedsnr" v="742944" />
	</node>
	<node id="-900735" lat="63.9234527749" lon="10.9319166638">
		<tag k="fixme" v="consider natural=peak for the most distinct mountains in the district" />
		<tag k="name" v="Gammelseterkammen" />
		<tag k="natural" v="hill" />
		<tag k="place" v="locality" />
		<tag k="ssr:stedsnr" v="693813" />
	</node>
	<node id="-900733" lat="64.0971055518" lon="11.3072694404">
		<tag k="name" v="Ramshylla" />
		<tag k="natural" v="hill" />
		<tag k="place" v="locality" />
		<tag k="ssr:stedsnr" v="378133" />
	</node>
	<node id="-900732" lat="63.8335194467" lon="10.5988527742">
		<tag k="name" v="Orvasslia" />
		<tag k="natural" v="slope" />
		<tag k="place" v="locality" />
		<tag k="ssr:stedsnr" v="89070" />
	</node>
	<node id="-900729" lat="63.9356111132" lon="10.9700805643">
		<tag k="name" v="Olderviklia" />
		<tag k="natural" v="slope" />
		<tag k="place" v="locality" />
		<tag k="ssr:stedsnr" v="574067" />
	</node>
	<node id="-900728" lat="64.0253527776" lon="11.1252749946">
		<tag k="fixme" v="consider natural=peak for the most distinct mountains in the district" />
		<tag k="name" v="Vadåsen" />
		<tag k="natural" v="hill" />
		<tag k="place" v="locality" />
		<tag k="ssr:stedsnr" v="559986" />
	</node>
	<node id="-900727" lat="64.0688861123" lon="10.8674666634">
		<tag k="name" v="Vakkerliin" />
		<tag k="natural" v="slope" />
		<tag k="place" v="locality" />
		<tag k="ssr:stedsnr" v="532618" />
	</node>
	<node id="-900725" lat="64.0913499965" lon="10.9757805615">
		<tag k="name" v="Helvetet" />
		<tag k="place" v="locality" />
		<tag k="ssr:stedsnr" v="594538" />
	</node>
	<node id="-900721" lat="64.0526583332" lon="11.0971972186">
		<tag k="name" v="Småhaugan" />
		<tag k="natural" v="hill" />
		<tag k="place" v="locality" />
		<tag k="ssr:stedsnr" v="716023" />
	</node>
	<node id="-900712" lat="63.8554527811" lon="10.7101583373">
		<tag k="name" v="Fagerviklia" />
		<tag k="natural" v="slope" />
		<tag k="place" v="locality" />
		<tag k="ssr:stedsnr" v="89060" />
	</node>
	<node id="-900711" lat="63.9312555575" lon="10.851705556">
		<tag k="name" v="Steintjønnlia" />
		<tag k="natural" v="slope" />
		<tag k="place" v="locality" />
		<tag k="ssr:stedsnr" v="715221" />
	</node>
	<node id="-900709" lat="64.0441527745" lon="11.0504944418">
		<tag k="name" v="Heienden" />
		<tag k="place" v="locality" />
		<tag k="ssr:stedsnr" v="48003" />
	</node>
	<node id="-900699" lat="64.0222055586" lon="11.190294437">
		<tag k="name" v="Brennhaugan" />
		<tag k="natural" v="hill" />
		<tag k="place" v="locality" />
		<tag k="ssr:stedsnr" v="378983" />
	</node>
	<node id="-900696" lat="63.906850004" lon="10.699166675">
		<tag k="alt_name" v="Vestre Trevassheia" />
		<tag k="fixme" v="consider natural=peak for the most distinct mountains in the district" />
		<tag k="name" v="Nordheia" />
		<tag k="natural" v="hill" />
		<tag k="place" v="locality" />
		<tag k="ssr:stedsnr" v="13306" />
	</node>
	<node id="-900695" lat="64.0023916637" lon="10.9798388877">
		<tag k="name" v="Storskaret" />
		<tag k="natural" v="valley" />
		<tag k="place" v="locality" />
		<tag k="ssr:stedsnr" v="169036" />
	</node>
	<node id="-900693" lat="64.0824000019" lon="10.8867111143">
		<tag k="fixme" v="consider natural=peak for the most distinct mountains in the district" />
		<tag k="name" v="Tørrisheia" />
		<tag k="natural" v="hill" />
		<tag k="place" v="locality" />
		<tag k="ssr:stedsnr" v="499469" />
	</node>
	<node id="-900689" lat="64.1312777807" lon="11.0154527757">
		<tag k="fixme" v="consider natural=peak for the most distinct mountains in the district" />
		<tag k="name" v="Esplingheia" />
		<tag k="natural" v="hill" />
		<tag k="place" v="locality" />
		<tag k="ssr:stedsnr" v="924593" />
	</node>
	<node id="-900688" lat="64.0032194406" lon="10.7995916654">
		<tag k="name" v="Ormhaugen" />
		<tag k="natural" v="hill" />
		<tag k="place" v="locality" />
		<tag k="ssr:stedsnr" v="229132" />
	</node>
	<node id="-900682" lat="64.1005388875" lon="11.2268138877">
		<tag k="fixme" v="consider natural=peak for the most distinct mountains in the district" />
		<tag k="name" v="Tverråsen" />
		<tag k="natural" v="hill" />
		<tag k="place" v="locality" />
		<tag k="ssr:stedsnr" v="681136" />
	</node>
	<node id="-900681" lat="64.1319027746" lon="11.0290055502">
		<tag k="name" v="Bjønnaskaret" />
		<tag k="natural" v="valley" />
		<tag k="place" v="locality" />
		<tag k="ssr:stedsnr" v="837571" />
	</node>
	<node id="-900680" lat="64.0538138905" lon="11.0935666618">
		<tag k="name" v="Småhaugan" />
		<tag k="natural" v="hill" />
		<tag k="place" v="locality" />
		<tag k="ssr:stedsnr" v="681948" />
	</node>
	<node id="-900676" lat="64.0042277749" lon="10.8098138942">
		<tag k="name" v="Vakkerbakken" />
		<tag k="natural" v="slope" />
		<tag k="place" v="locality" />
		<tag k="ssr:stedsnr" v="229134" />
	</node>
	<node id="-900675" lat="64.0412194485" lon="10.9217638828">
		<tag k="name" v="Grunntjønnliin" />
		<tag k="natural" v="slope" />
		<tag k="place" v="locality" />
		<tag k="ssr:stedsnr" v="412577" />
	</node>
	<node id="-900674" lat="63.9477055596" lon="10.9710333265">
		<tag k="name" v="Tømmerdalen" />
		<tag k="natural" v="valley" />
		<tag k="place" v="locality" />
		<tag k="ssr:stedsnr" v="654156" />
	</node>
	<node id="-900670" lat="64.0806749965" lon="11.0860472161">
		<tag k="fixme" v="consider natural=peak for the most distinct mountains in the district" />
		<tag k="name" v="Skardsåsen" />
		<tag k="natural" v="hill" />
		<tag k="place" v="locality" />
		<tag k="ssr:stedsnr" v="196488" />
	</node>
	<node id="-900669" lat="64.0067638921" lon="10.8492138969">
		<tag k="name" v="Blomsterholet" />
		<tag k="natural" v="valley" />
		<tag k="place" v="locality" />
		<tag k="ssr:stedsnr" v="229124" />
	</node>
	<node id="-900668" lat="64.1018194407" lon="11.2736444529">
		<tag k="name" v="Kvitberget" />
		<tag k="natural" v="hill" />
		<tag k="place" v="locality" />
		<tag k="ssr:stedsnr" v="378131" />
	</node>
	<node id="-900666" lat="63.7670194452" lon="10.506611105">
		<tag k="name" v="Sørlia" />
		<tag k="natural" v="slope" />
		<tag k="place" v="locality" />
		<tag k="ssr:stedsnr" v="28248" />
	</node>
	<node id="-900665" lat="63.9865749982" lon="10.8238499958">
		<tag k="alt_name" v="Storheia" />
		<tag k="fixme" v="consider natural=peak for the most distinct mountains in the district" />
		<tag k="name" v="Tiheia" />
		<tag k="natural" v="hill" />
		<tag k="place" v="locality" />
		<tag k="ssr:stedsnr" v="134630" />
	</node>
	<node id="-900662" lat="64.0505500004" lon="11.0631416673">
		<tag k="name" v="Ratliin" />
		<tag k="natural" v="slope" />
		<tag k="place" v="locality" />
		<tag k="ssr:stedsnr" v="681944" />
	</node>
	<node id="-900659" lat="64.0200527798" lon="10.8729416757">
		<tag k="fixme" v="consider natural=peak for the most distinct mountains in the district" />
		<tag k="name" v="Vargskardheia" />
		<tag k="natural" v="hill" />
		<tag k="place" v="locality" />
		<tag k="ssr:stedsnr" v="559980" />
	</node>
	<node id="-900657" lat="64.1113888846" lon="11.139949993">
		<tag k="fixme" v="consider natural=peak for the most distinct mountains in the district" />
		<tag k="name" v="Erikheia" />
		<tag k="natural" v="hill" />
		<tag k="place" v="locality" />
		<tag k="ssr:stedsnr" v="594530" />
	</node>
	<node id="-900653" lat="63.8231194457" lon="10.6125611158">
		<tag k="name" v="Raudtinddalen" />
		<tag k="natural" v="valley" />
		<tag k="place" v="locality" />
		<tag k="ssr:stedsnr" v="574061" />
	</node>
	<node id="-900651" lat="64.0224138904" lon="11.0396027718">
		<tag k="name" v="Kløvskaret" />
		<tag k="natural" v="valley" />
		<tag k="place" v="locality" />
		<tag k="ssr:stedsnr" v="169031" />
	</node>
	<node id="-900646" lat="64.0999166687" lon="11.2680611174">
		<tag k="name" v="Lunnberget" />
		<tag k="natural" v="hill" />
		<tag k="place" v="locality" />
		<tag k="ssr:stedsnr" v="568198" />
	</node>
	<node id="-900645" lat="64.0522416703" lon="11.1091916736">
		<tag k="name" v="Sagberga" />
		<tag k="natural" v="hill" />
		<tag k="place" v="locality" />
		<tag k="ssr:stedsnr" v="169024" />
	</node>
	<node id="-900640" lat="64.0253527754" lon="10.7951749961">
		<tag k="name" v="Skamnaliin" />
		<tag k="natural" v="slope" />
		<tag k="place" v="locality" />
		<tag k="ssr:stedsnr" v="47175" />
	</node>
	<node id="-900638" lat="64.0817666631" lon="10.9776166574">
		<tag k="name" v="Brekksletta" />
		<tag k="place" v="locality" />
		<tag k="ssr:stedsnr" v="499464" />
	</node>
	<node id="-900637" lat="64.1299750006" lon="11.0939083231">
		<tag k="name" v="Ferjskaret" />
		<tag k="natural" v="valley" />
		<tag k="place" v="locality" />
		<tag k="ssr:stedsnr" v="958595" />
	</node>
	<node id="-900636" lat="63.7910805578" lon="10.594491662">
		<tag k="name" v="Gjøversteinlia" />
		<tag k="natural" v="slope" />
		<tag k="place" v="locality" />
		<tag k="ssr:stedsnr" v="836339" />
	</node>
	<node id="-900634" lat="63.8738277818" lon="10.6923222169">
		<tag k="name" v="Kammen" />
		<tag k="natural" v="hill" />
		<tag k="place" v="locality" />
		<tag k="ssr:stedsnr" v="897231" />
	</node>
	<node id="-900632" lat="63.888016664" lon="10.6419277867">
		<tag k="name" v="Mefjellheia" />
		<tag k="natural" v="hill" />
		<tag k="place" v="locality" />
		<tag k="ssr:stedsnr" v="958202" />
	</node>
	<node id="-900631" lat="64.0929888906" lon="11.1000611158">
		<tag k="name" v="Måggåtjønndalen" />
		<tag k="natural" v="valley" />
		<tag k="place" v="locality" />
		<tag k="ssr:stedsnr" v="196479" />
	</node>
	<node id="-900628" lat="63.8961166627" lon="10.6797750067">
		<tag k="name" v="Seterheia" />
		<tag k="natural" v="hill" />
		<tag k="place" v="locality" />
		<tag k="ssr:stedsnr" v="958203" />
	</node>
	<node id="-900625" lat="63.8053916677" lon="10.548452778">
		<tag k="name" v="Damdalen" />
		<tag k="natural" v="valley" />
		<tag k="place" v="locality" />
		<tag k="ssr:stedsnr" v="514032" />
	</node>
	<node id="-900617" lat="64.0967861147" lon="11.3118055581">
		<tag k="fixme" v="consider natural=peak for the most distinct mountains in the district" />
		<tag k="name" v="Tjukkåsen" />
		<tag k="natural" v="hill" />
		<tag k="place" v="locality" />
		<tag k="ssr:stedsnr" v="143792" />
	</node>
	<node id="-900616" lat="63.8223333289" lon="10.6355750096">
		<tag k="name" v="Bleikberget" />
		<tag k="natural" v="hill" />
		<tag k="place" v="locality" />
		<tag k="ssr:stedsnr" v="46757" />
	</node>
	<node id="-900613" lat="64.0349250016" lon="10.8493472307">
		<tag k="name" v="Sandvassdalen" />
		<tag k="natural" v="valley" />
		<tag k="place" v="locality" />
		<tag k="ssr:stedsnr" v="74941" />
	</node>
	<node id="-900611" lat="63.9465805587" lon="10.9676972175">
		<tag k="fixme" v="consider natural=peak for the most distinct mountains in the district" />
		<tag k="name" v="Dalsfjellet" />
		<tag k="natural" v="hill" />
		<tag k="place" v="locality" />
		<tag k="ssr:stedsnr" v="775144" />
	</node>
	<node id="-900603" lat="63.8429916642" lon="10.5960944458">
		<tag k="name" v="Fiskløysheia" />
		<tag k="natural" v="hill" />
		<tag k="place" v="locality" />
		<tag k="ssr:stedsnr" v="633504" />
	</node>
	<node id="-900601" lat="64.1151055537" lon="11.2107305515">
		<tag k="fixme" v="consider natural=peak for the most distinct mountains in the district" />
		<tag k="name" v="Brennheia" />
		<tag k="natural" v="hill" />
		<tag k="place" v="locality" />
		<tag k="ssr:stedsnr" v="803159" />
	</node>
	<node id="-900599" lat="63.9881055557" lon="10.978477786">
		<tag k="name" v="Lomliklumpen" />
		<tag k="natural" v="hill" />
		<tag k="place" v="locality" />
		<tag k="ssr:stedsnr" v="924563" />
	</node>
	<node id="-900598" lat="63.9889055591" lon="10.8246388862">
		<tag k="name" v="Storheia" />
		<tag k="natural" v="hill" />
		<tag k="place" v="locality" />
		<tag k="ssr:stedsnr" v="654112" />
	</node>
	<node id="-900596" lat="63.9214222189" lon="10.8216750054">
		<tag k="name" v="Seterhaugen" />
		<tag k="natural" v="hill" />
		<tag k="place" v="locality" />
		<tag k="ssr:stedsnr" v="560533" />
	</node>
	<node id="-900592" lat="64.1186777813" lon="11.1351138841">
		<tag k="fixme" v="consider natural=peak for the most distinct mountains in the district" />
		<tag k="name" v="Steinheia" />
		<tag k="natural" v="hill" />
		<tag k="place" v="locality" />
		<tag k="ssr:stedsnr" v="958605" />
	</node>
	<node id="-900586" lat="63.7827861067" lon="10.5813361088">
		<tag k="name" v="Prekstolen" />
		<tag k="natural" v="hill" />
		<tag k="place" v="locality" />
		<tag k="ssr:stedsnr" v="514016" />
	</node>
	<node id="-900585" lat="64.1029166693" lon="11.2237388812">
		<tag k="name" v="Dalsveet" />
		<tag k="natural" v="slope" />
		<tag k="place" v="locality" />
		<tag k="ssr:stedsnr" v="257148" />
	</node>
	<node id="-900584" lat="64.0852444471" lon="10.9938444434">
		<tag k="fixme" v="multiple name tags, choose one and add the other to alt_name; consider natural=peak for the most distinct mountains in the district" />
		<tag k="name" v="Bjørnaheia;Rundheia" />
		<tag k="natural" v="hill" />
		<tag k="place" v="locality" />
		<tag k="ssr:stedsnr" v="499457" />
	</node>
	<node id="-900582" lat="63.7402305569" lon="10.4441055481">
		<tag k="fixme" v="consider natural=peak for the most distinct mountains in the district" />
		<tag k="name" v="Storhåmmåren" />
		<tag k="natural" v="hill" />
		<tag k="place" v="locality" />
		<tag k="ssr:stedsnr" v="47969" />
	</node>
	<node id="-900581" lat="64.0865500016" lon="11.257294442">
		<tag k="fixme" v="consider natural=peak for the most distinct mountains in the district" />
		<tag k="name" v="Ressemåsen" />
		<tag k="natural" v="hill" />
		<tag k="place" v="locality" />
		<tag k="ssr:stedsnr" v="196197" />
	</node>
	<node id="-900577" lat="64.0807583304" lon="11.2120222264">
		<tag k="name" v="Grytdalen" />
		<tag k="natural" v="valley" />
		<tag k="place" v="locality" />
		<tag k="ssr:stedsnr" v="635949" />
	</node>
	<node id="-900572" lat="63.9824027755" lon="10.9113361022">
		<tag k="name" v="Nonsskaret" />
		<tag k="natural" v="valley" />
		<tag k="place" v="locality" />
		<tag k="ssr:stedsnr" v="47153" />
	</node>
	<node id="-900569" lat="64.035191669" lon="11.0760499992">
		<tag k="name" v="Furuhevlan" />
		<tag k="natural" v="hill" />
		<tag k="place" v="locality" />
		<tag k="ssr:stedsnr" v="169004" />
	</node>
	<node id="-900568" lat="64.0186305513" lon="11.0842666709">
		<tag k="fixme" v="consider natural=peak for the most distinct mountains in the district" />
		<tag k="name" v="Brennberghalla" />
		<tag k="natural" v="hill" />
		<tag k="place" v="locality" />
		<tag k="ssr:stedsnr" v="898050" />
	</node>
	<node id="-900566" lat="64.0346749973" lon="10.8057749956">
		<tag k="alt_name" v="Siriklompen" />
		<tag k="name" v="Siriklumpen" />
		<tag k="natural" v="hill" />
		<tag k="place" v="locality" />
		<tag k="ssr:stedsnr" v="74936" />
	</node>
	<node id="-900563" lat="63.9933694406" lon="10.8762472137">
		<tag k="fixme" v="consider natural=peak for the most distinct mountains in the district" />
		<tag k="name" v="Nyfjellet" />
		<tag k="natural" v="hill" />
		<tag k="ssr:stedsnr" v="542770" />
	</node>
	<node id="-900559" lat="64.0774972203" lon="11.2115416565">
		<tag k="name" v="Sveberget" />
		<tag k="natural" v="hill" />
		<tag k="place" v="locality" />
		<tag k="ssr:stedsnr" v="635944" />
	</node>
	<node id="-900558" lat="64.0796111107" lon="11.1918361146">
		<tag k="name" v="Kudalen" />
		<tag k="natural" v="valley" />
		<tag k="place" v="locality" />
		<tag k="ssr:stedsnr" v="635943" />
	</node>
	<node id="-900557" lat="64.0400083361" lon="10.9533999921">
		<tag k="fixme" v="consider natural=peak for the most distinct mountains in the district" />
		<tag k="name" v="Heimholhatten" />
		<tag k="natural" v="hill" />
		<tag k="place" v="locality" />
		<tag k="ssr:stedsnr" v="559962" />
	</node>
	<node id="-900555" lat="64.0002138925" lon="10.8315694392">
		<tag k="name" v="Bjørnatanglihøgda" />
		<tag k="natural" v="hill" />
		<tag k="place" v="locality" />
		<tag k="ssr:stedsnr" v="317870" />
	</node>
	<node id="-900554" lat="63.937869444" lon="10.9000222197">
		<tag k="name" v="Bokkhammaren" />
		<tag k="natural" v="hill" />
		<tag k="place" v="locality" />
		<tag k="ssr:stedsnr" v="897202" />
	</node>
	<node id="-900551" lat="64.0221361081" lon="10.8613722124">
		<tag k="fixme" v="consider natural=peak for the most distinct mountains in the district" />
		<tag k="name" v="Sandvassheia" />
		<tag k="natural" v="hill" />
		<tag k="place" v="locality" />
		<tag k="ssr:stedsnr" v="654097" />
	</node>
	<node id="-900549" lat="64.0417111074" lon="11.1901583287">
		<tag k="name" v="Kjerrholet" />
		<tag k="natural" v="valley" />
		<tag k="place" v="locality" />
		<tag k="ssr:stedsnr" v="696994" />
	</node>
	<node id="-900548" lat="63.977786114" lon="10.9028111151">
		<tag k="fixme" v="multiple name tags, choose one and add the other to alt_name; consider natural=peak for the most distinct mountains in the district" />
		<tag k="name" v="Høytjønnheia;Holmheia;Nonskardheia" />
		<tag k="natural" v="hill" />
		<tag k="place" v="locality" />
		<tag k="ssr:stedsnr" v="924549" />
	</node>
	<node id="-900544" lat="64.0881194468" lon="11.1338388974">
		<tag k="name" v="Langnesdalen" />
		<tag k="natural" v="valley" />
		<tag k="place" v="locality" />
		<tag k="ssr:stedsnr" v="472702" />
	</node>
	<node id="-900542" lat="64.1017111084" lon="11.1955138884">
		<tag k="name" v="Beretliin" />
		<tag k="natural" v="slope" />
		<tag k="place" v="locality" />
		<tag k="ssr:stedsnr" v="341785" />
	</node>
	<node id="-900539" lat="64.08553889" lon="11.1060444455">
		<tag k="fixme" v="consider natural=peak for the most distinct mountains in the district" />
		<tag k="name" v="Grandhusheia" />
		<tag k="natural" v="hill" />
		<tag k="place" v="locality" />
		<tag k="ssr:stedsnr" v="472701" />
	</node>
	<node id="-900536" lat="64.0280472214" lon="11.176377778">
		<tag k="fixme" v="consider natural=peak for the most distinct mountains in the district" />
		<tag k="name" v="Øvertjønnhalla" />
		<tag k="natural" v="hill" />
		<tag k="place" v="locality" />
		<tag k="ssr:stedsnr" v="635091" />
	</node>
	<node id="-900535" lat="64.0597555556" lon="11.0713861047">
		<tag k="name" v="Grønndalen" />
		<tag k="natural" v="valley" />
		<tag k="place" v="locality" />
		<tag k="ssr:stedsnr" v="776727" />
	</node>
	<node id="-900533" lat="64.0256027744" lon="10.7708111186">
		<tag k="fixme" v="consider natural=peak for the most distinct mountains in the district" />
		<tag k="name" v="Skamnaklompan" />
		<tag k="natural" v="hill" />
		<tag k="ssr:stedsnr" v="958179" />
	</node>
	<node id="-900532" lat="63.7890166633" lon="10.5242305552">
		<tag k="name" v="Melia" />
		<tag k="natural" v="slope" />
		<tag k="place" v="locality" />
		<tag k="ssr:stedsnr" v="574020" />
	</node>
	<node id="-900527" lat="63.7846666652" lon="10.4750666662">
		<tag k="name" v="Kjørdalen" />
		<tag k="natural" v="valley" />
		<tag k="place" v="locality" />
		<tag k="ssr:stedsnr" v="514007" />
	</node>
	<node id="-900523" lat="63.7848388867" lon="10.5474111053">
		<tag k="fixme" v="consider natural=peak for the most distinct mountains in the district" />
		<tag k="name" v="Forsellhøgda" />
		<tag k="natural" v="hill" />
		<tag k="place" v="locality" />
		<tag k="ssr:stedsnr" v="89013" />
	</node>
	<node id="-900517" lat="64.0454638851" lon="10.9980250095">
		<tag k="name" v="Pissbekkdalen" />
		<tag k="natural" v="valley" />
		<tag k="place" v="locality" />
		<tag k="ssr:stedsnr" v="230688" />
	</node>
	<node id="-900514" lat="64.1194222247" lon="11.1828888917">
		<tag k="fixme" v="consider natural=peak for the most distinct mountains in the district" />
		<tag k="name" v="Skurven" />
		<tag k="natural" v="hill" />
		<tag k="place" v="locality" />
		<tag k="ssr:stedsnr" v="681624" />
	</node>
	<node id="-900511" lat="63.996191668" lon="10.8316138963">
		<tag k="name" v="Bjønnatanglia" />
		<tag k="natural" v="slope" />
		<tag k="place" v="locality" />
		<tag k="ssr:stedsnr" v="837110" />
	</node>
	<node id="-900510" lat="64.0631055596" lon="11.0957611201">
		<tag k="name" v="Nilshaugen" />
		<tag k="natural" v="hill" />
		<tag k="place" v="locality" />
		<tag k="ssr:stedsnr" v="533758" />
	</node>
	<node id="-900507" lat="63.9024194419" lon="10.8014277685">
		<tag k="fixme" v="consider natural=peak for the most distinct mountains in the district" />
		<tag k="name" v="Stamtjønnheia" />
		<tag k="natural" v="hill" />
		<tag k="place" v="locality" />
		<tag k="ssr:stedsnr" v="13530" />
	</node>
	<node id="-900504" lat="63.9569249977" lon="11.0013361053">
		<tag k="name" v="Brennlihaugen" />
		<tag k="natural" v="hill" />
		<tag k="place" v="locality" />
		<tag k="ssr:stedsnr" v="256601" />
	</node>
	<node id="-900501" lat="63.8753388904" lon="10.5838583239">
		<tag k="fixme" v="consider natural=peak for the most distinct mountains in the district" />
		<tag k="name" v="Mefjellnova" />
		<tag k="natural" v="hill" />
		<tag k="place" v="locality" />
		<tag k="ssr:stedsnr" v="13274" />
	</node>
	<node id="-900497" lat="64.0654888907" lon="11.0635694425">
		<tag k="name" v="Langdalskammen" />
		<tag k="natural" v="ridge" />
		<tag k="place" v="locality" />
		<tag k="ssr:stedsnr" v="351734" />
	</node>
	<node id="-900496" lat="63.954147225" lon="10.7840722307">
		<tag k="name" v="Svartdalen" />
		<tag k="natural" v="valley" />
		<tag k="place" v="locality" />
		<tag k="ssr:stedsnr" v="775138" />
	</node>
	<node id="-900495" lat="63.9988916685" lon="10.9661333322">
		<tag k="name" v="Lomlia" />
		<tag k="natural" v="slope" />
		<tag k="place" v="locality" />
		<tag k="ssr:stedsnr" v="229083" />
	</node>
	<node id="-900493" lat="64.035438888" lon="10.8695916655">
		<tag k="fixme" v="consider natural=peak for the most distinct mountains in the district" />
		<tag k="name" v="Silderklumpen" />
		<tag k="natural" v="hill" />
		<tag k="place" v="locality" />
		<tag k="ssr:stedsnr" v="135931" />
	</node>
	<node id="-900492" lat="63.9627833335" lon="11.0422694359">
		<tag k="name" v="Nebben" />
		<tag k="natural" v="hill" />
		<tag k="place" v="locality" />
		<tag k="ssr:stedsnr" v="635106" />
	</node>
	<node id="-900491" lat="63.7749499979" lon="10.5133805455">
		<tag k="name" v="Stordalen" />
		<tag k="natural" v="valley" />
		<tag k="place" v="locality" />
		<tag k="ssr:stedsnr" v="89005" />
	</node>
	<node id="-900484" lat="63.9803527767" lon="10.8023277772">
		<tag k="name" v="Moaskara" />
		<tag k="natural" v="valley" />
		<tag k="place" v="locality" />
		<tag k="ssr:stedsnr" v="837121" />
	</node>
	<node id="-900482" lat="64.0307083333" lon="10.7939805619">
		<tag k="name" v="Midtvassklompan" />
		<tag k="natural" v="hill" />
		<tag k="place" v="locality" />
		<tag k="ssr:stedsnr" v="715182" />
	</node>
	<node id="-900481" lat="64.0005749995" lon="10.9266027812">
		<tag k="name" v="Kjåppådalen" />
		<tag k="natural" v="valley" />
		<tag k="place" v="locality" />
		<tag k="ssr:stedsnr" v="229075" />
	</node>
	<node id="-900480" lat="64.0982611133" lon="11.1564277786">
		<tag k="fixme" v="consider natural=peak for the most distinct mountains in the district" />
		<tag k="name" v="Stjernheia" />
		<tag k="natural" v="hill" />
		<tag k="place" v="locality" />
		<tag k="ssr:stedsnr" v="958575" />
	</node>
	<node id="-900479" lat="64.00742778" lon="10.7929277859">
		<tag k="name" v="Buhaugen" />
		<tag k="natural" v="hill" />
		<tag k="place" v="locality" />
		<tag k="ssr:stedsnr" v="14878" />
	</node>
	<node id="-900475" lat="64.1255583336" lon="11.1127972283">
		<tag k="fixme" v="consider natural=peak for the most distinct mountains in the district" />
		<tag k="name" v="Sør-Ferjåsen" />
		<tag k="natural" v="hill" />
		<tag k="place" v="locality" />
		<tag k="ssr:stedsnr" v="715587" />
	</node>
	<node id="-900473" lat="64.0029861078" lon="11.1510472181">
		<tag k="name" v="Vasshalla" />
		<tag k="natural" v="hill" />
		<tag k="place" v="locality" />
		<tag k="ssr:stedsnr" v="317863" />
	</node>
	<node id="-900469" lat="64.0746555551" lon="11.1640722283">
		<tag k="fixme" v="consider natural=peak for the most distinct mountains in the district" />
		<tag k="name" v="Johankammen" />
		<tag k="natural" v="hill" />
		<tag k="place" v="locality" />
		<tag k="ssr:stedsnr" v="230676" />
	</node>
	<node id="-900466" lat="64.0501694449" lon="11.1999888935">
		<tag k="name" v="Vikahalla" />
		<tag k="natural" v="slope" />
		<tag k="place" v="locality" />
		<tag k="ssr:stedsnr" v="803946" />
	</node>
	<node id="-900465" lat="64.0109583291" lon="10.7865916695">
		<tag k="name" v="Nordlonhaugen" />
		<tag k="natural" v="hill" />
		<tag k="place" v="locality" />
		<tag k="ssr:stedsnr" v="958185" />
	</node>
	<node id="-900457" lat="64.1069472208" lon="11.150366667">
		<tag k="fixme" v="consider natural=peak for the most distinct mountains in the district" />
		<tag k="name" v="Måggåtjønnheia" />
		<tag k="natural" v="hill" />
		<tag k="place" v="locality" />
		<tag k="ssr:stedsnr" v="715560" />
	</node>
	<node id="-900454" lat="64.1018277739" lon="10.9553750073">
		<tag k="fixme" v="consider natural=peak for the most distinct mountains in the district" />
		<tag k="name" v="Brentheia" />
		<tag k="natural" v="hill" />
		<tag k="place" v="locality" />
		<tag k="ssr:stedsnr" v="499427" />
	</node>
	<node id="-900450" lat="64.0071416648" lon="11.1000222309">
		<tag k="name" v="Ner-Almlia" />
		<tag k="natural" v="slope" />
		<tag k="place" v="locality" />
		<tag k="ssr:stedsnr" v="210126" />
	</node>
	<node id="-900444" lat="63.9430666635" lon="10.9445805482">
		<tag k="name" v="Knorthaugen" />
		<tag k="natural" v="hill" />
		<tag k="place" v="locality" />
		<tag k="ssr:stedsnr" v="681607" />
	</node>
	<node id="-900443" lat="64.0809277789" lon="11.2603166596">
		<tag k="name" v="Storberget" />
		<tag k="natural" v="hill" />
		<tag k="place" v="locality" />
		<tag k="ssr:stedsnr" v="872858" />
	</node>
	<node id="-900440" lat="64.0421722231" lon="11.2027916717">
		<tag k="name" v="Merradalen" />
		<tag k="natural" v="valley" />
		<tag k="place" v="locality" />
		<tag k="ssr:stedsnr" v="28993" />
	</node>
	<node id="-900436" lat="63.9550555557" lon="10.9016555621">
		<tag k="name" v="Kuliin" />
		<tag k="natural" v="slope" />
		<tag k="place" v="locality" />
		<tag k="ssr:stedsnr" v="256595" />
	</node>
	<node id="-900433" lat="64.0083555584" lon="11.1824722232">
		<tag k="name" v="Trappberga" />
		<tag k="natural" v="hill" />
		<tag k="place" v="locality" />
		<tag k="ssr:stedsnr" v="939974" />
	</node>
	<node id="-900432" lat="63.984500004" lon="10.8362055557">
		<tag k="name" v="Fersverrilia" />
		<tag k="natural" v="slope" />
		<tag k="place" v="locality" />
		<tag k="ssr:stedsnr" v="715142" />
	</node>
	<node id="-900431" lat="63.7924416642" lon="10.5147583262">
		<tag k="name" v="Rolsskardheia" />
		<tag k="natural" v="hill" />
		<tag k="place" v="locality" />
		<tag k="ssr:stedsnr" v="196434" />
	</node>
	<node id="-900430" lat="64.0886944466" lon="11.3002472128">
		<tag k="name" v="Lauvhaugen" />
		<tag k="natural" v="hill" />
		<tag k="place" v="locality" />
		<tag k="ssr:stedsnr" v="447845" />
	</node>
	<node id="-900428" lat="64.0213805527" lon="10.766816668">
		<tag k="fixme" v="consider natural=peak for the most distinct mountains in the district" />
		<tag k="name" v="Kastbotenklompen" />
		<tag k="natural" v="hill" />
		<tag k="ssr:stedsnr" v="897169" />
	</node>
	<node id="-900422" lat="64.0984416695" lon="11.2302611115">
		<tag k="alt_name" v="Tveråshalla" />
		<tag k="name" v="Tverråshalla" />
		<tag k="natural" v="slope" />
		<tag k="place" v="locality" />
		<tag k="ssr:stedsnr" v="766779" />
	</node>
	<node id="-900419" lat="64.0710749968" lon="11.2042833261">
		<tag k="name" v="Hyllberga" />
		<tag k="natural" v="hill" />
		<tag k="place" v="locality" />
		<tag k="ssr:stedsnr" v="756993" />
	</node>
	<node id="-900416" lat="63.9936555561" lon="11.1162361184">
		<tag k="fixme" v="consider natural=peak for the most distinct mountains in the district" />
		<tag k="name" v="Høgkammen" />
		<tag k="natural" v="hill" />
		<tag k="place" v="locality" />
		<tag k="ssr:stedsnr" v="756988" />
	</node>
	<node id="-900415" lat="64.0015916688" lon="10.9248222183">
		<tag k="name" v="Steinlia" />
		<tag k="natural" v="slope" />
		<tag k="place" v="locality" />
		<tag k="ssr:stedsnr" v="317854" />
	</node>
	<node id="-900410" lat="63.8214222258" lon="10.513369445">
		<tag k="alt_name" v="Bjørklia" />
		<tag k="fixme" v="consider natural=peak for the most distinct mountains in the district" />
		<tag k="name" v="Bjørkliheia" />
		<tag k="natural" v="hill" />
		<tag k="place" v="locality" />
		<tag k="ssr:stedsnr" v="680552" />
	</node>
	<node id="-900409" lat="63.9441527757" lon="10.9883749917">
		<tag k="name" v="Tunsdalen" />
		<tag k="natural" v="valley" />
		<tag k="place" v="locality" />
		<tag k="ssr:stedsnr" v="635064" />
	</node>
	<node id="-900405" lat="64.0065500009" lon="10.8919166602">
		<tag k="name" v="Vargskaret" />
		<tag k="natural" v="valley" />
		<tag k="place" v="locality" />
		<tag k="ssr:stedsnr" v="47111" />
	</node>
	<node id="-900402" lat="63.7871277763" lon="10.5956138875">
		<tag k="fixme" v="consider natural=peak for the most distinct mountains in the district" />
		<tag k="name" v="Gjøversteinen" />
		<tag k="natural" v="hill" />
		<tag k="place" v="locality" />
		<tag k="ssr:stedsnr" v="863428" />
	</node>
	<node id="-900398" lat="63.9945472259" lon="11.0015694525">
		<tag k="name" v="Storlia" />
		<tag k="natural" v="slope" />
		<tag k="place" v="locality" />
		<tag k="ssr:stedsnr" v="473061" />
	</node>
	<node id="-900397" lat="64.0446666677" lon="11.114183329">
		<tag k="name" v="Tømtdalen" />
		<tag k="natural" v="valley" />
		<tag k="place" v="locality" />
		<tag k="ssr:stedsnr" v="594449" />
	</node>
	<node id="-900396" lat="63.8701805517" lon="10.726486111">
		<tag k="alt_name" v="Seterdalen" />
		<tag k="name" v="Volladalen" />
		<tag k="natural" v="valley" />
		<tag k="place" v="locality" />
		<tag k="ssr:stedsnr" v="803693" />
	</node>
	<node id="-900392" lat="63.8567416702" lon="10.6817972258">
		<tag k="fixme" v="consider natural=peak for the most distinct mountains in the district" />
		<tag k="name" v="Ringliheia" />
		<tag k="natural" v="hill" />
		<tag k="place" v="locality" />
		<tag k="ssr:stedsnr" v="134322" />
	</node>
	<node id="-900388" lat="64.0585277772" lon="11.1287666574">
		<tag k="name" v="Brennberga" />
		<tag k="natural" v="hill" />
		<tag k="place" v="locality" />
		<tag k="ssr:stedsnr" v="924540" />
	</node>
	<node id="-900383" lat="64.0871611146" lon="11.2727444405">
		<tag k="name" v="Hårråstokkdalen" />
		<tag k="natural" v="valley" />
		<tag k="place" v="locality" />
		<tag k="ssr:stedsnr" v="447822" />
	</node>
	<node id="-900381" lat="63.976516669" lon="10.8120361187">
		<tag k="fixme" v="consider natural=peak for the most distinct mountains in the district" />
		<tag k="name" v="Middagsheia" />
		<tag k="natural" v="hill" />
		<tag k="place" v="locality" />
		<tag k="ssr:stedsnr" v="377553" />
	</node>
	<node id="-900380" lat="63.8745333305" lon="10.7778166594">
		<tag k="fixme" v="consider natural=peak for the most distinct mountains in the district" />
		<tag k="name" v="Tømmerlunnfjellet" />
		<tag k="natural" v="hill" />
		<tag k="place" v="locality" />
		<tag k="ssr:stedsnr" v="439690" />
	</node>
	<node id="-900378" lat="64.088333332" lon="11.2579972182">
		<tag k="name" v="Slætteskvisten" />
		<tag k="place" v="locality" />
		<tag k="ssr:stedsnr" v="447828" />
	</node>
	<node id="-900377" lat="64.1121083353" lon="10.9415138934">
		<tag k="alt_name" v="Finnliin" />
		<tag k="name" v="Finnlia" />
		<tag k="natural" v="slope" />
		<tag k="place" v="locality" />
		<tag k="ssr:stedsnr" v="438629" />
	</node>
	<node id="-900376" lat="63.7841138918" lon="10.5616138867">
		<tag k="name" v="Sørvågdalen" />
		<tag k="natural" v="valley" />
		<tag k="place" v="locality" />
		<tag k="ssr:stedsnr" v="559402" />
	</node>
	<node id="-900375" lat="63.9413111111" lon="10.8340277707">
		<tag k="fixme" v="consider natural=peak for the most distinct mountains in the district" />
		<tag k="name" v="Hundheia" />
		<tag k="natural" v="hill" />
		<tag k="place" v="locality" />
		<tag k="ssr:stedsnr" v="378645" />
	</node>
	<node id="-900373" lat="64.1152888876" lon="11.1204138836">
		<tag k="name" v="Storliheia" />
		<tag k="natural" v="hill" />
		<tag k="place" v="locality" />
		<tag k="ssr:stedsnr" v="499419" />
	</node>
	<node id="-900371" lat="64.0724333296" lon="11.2111805499">
		<tag k="name" v="Malmlia" />
		<tag k="natural" v="slope" />
		<tag k="place" v="locality" />
		<tag k="ssr:stedsnr" v="696977" />
	</node>
	<node id="-900368" lat="64.0838249967" lon="11.259322219">
		<tag k="name" v="Einardalshalla" />
		<tag k="natural" v="slope" />
		<tag k="place" v="locality" />
		<tag k="ssr:stedsnr" v="872860" />
	</node>
	<node id="-900364" lat="63.9468111123" lon="10.8653111169">
		<tag k="fixme" v="consider natural=peak for the most distinct mountains in the district" />
		<tag k="loc_name:sma" v="Gierkietjahke" />
		<tag k="name" v="Steinheia" />
		<tag k="name:no" v="Steinheia" />
		<tag k="natural" v="hill" />
		<tag k="place" v="locality" />
		<tag k="ssr:stedsnr" v="681617" />
	</node>
	<node id="-900356" lat="64.0858583377" lon="11.2731416682">
		<tag k="fixme" v="consider natural=peak for the most distinct mountains in the district" />
		<tag k="name" v="Vester Flatåsen" />
		<tag k="natural" v="hill" />
		<tag k="place" v="locality" />
		<tag k="ssr:stedsnr" v="447830" />
	</node>
	<node id="-900355" lat="64.0844388883" lon="11.259686108">
		<tag k="name" v="Grønnsvedalen" />
		<tag k="natural" v="valley" />
		<tag k="place" v="locality" />
		<tag k="ssr:stedsnr" v="447836" />
	</node>
	<node id="-900354" lat="63.9401361079" lon="10.9393972137">
		<tag k="name" v="Buahaugen" />
		<tag k="natural" v="hill" />
		<tag k="place" v="locality" />
		<tag k="ssr:stedsnr" v="681613" />
	</node>
	<node id="-900350" lat="64.1342944463" lon="11.1259527736">
		<tag k="fixme" v="consider natural=peak for the most distinct mountains in the district" />
		<tag k="name" v="Ferjheia" />
		<tag k="natural" v="hill" />
		<tag k="place" v="locality" />
		<tag k="ssr:stedsnr" v="256583" />
	</node>
	<node id="-900340" lat="64.0612083362" lon="11.0413611074">
		<tag k="name" v="Halla" />
		<tag k="natural" v="hill" />
		<tag k="place" v="locality" />
		<tag k="ssr:stedsnr" v="924538" />
	</node>
	<node id="-900335" lat="64.0928694467" lon="11.2900305503">
		<tag k="fixme" v="consider natural=peak for the most distinct mountains in the district" />
		<tag k="name" v="Brennhalla" />
		<tag k="natural" v="hill" />
		<tag k="place" v="locality" />
		<tag k="ssr:stedsnr" v="265858" />
	</node>
	<node id="-900332" lat="64.0866972215" lon="11.151305552">
		<tag k="name" v="Perdalen" />
		<tag k="natural" v="valley" />
		<tag k="place" v="locality" />
		<tag k="ssr:stedsnr" v="351699" />
	</node>
	<node id="-900329" lat="64.0663194434" lon="11.1210638882">
		<tag k="fixme" v="consider natural=peak for the most distinct mountains in the district" />
		<tag k="name" v="Høtthalla" />
		<tag k="natural" v="hill" />
		<tag k="place" v="locality" />
		<tag k="ssr:stedsnr" v="776680" />
	</node>
	<node id="-900327" lat="63.979372226" lon="10.8538888989">
		<tag k="name" v="Trongskaret" />
		<tag k="natural" v="valley" />
		<tag k="place" v="locality" />
		<tag k="ssr:stedsnr" v="897152" />
	</node>
	<node id="-900322" lat="64.0098916699" lon="11.0579944519">
		<tag k="fixme" v="consider natural=peak for the most distinct mountains in the district" />
		<tag k="name" v="Nordliheia" />
		<tag k="natural" v="hill" />
		<tag k="place" v="locality" />
		<tag k="ssr:stedsnr" v="196967" />
	</node>
	<node id="-900321" lat="64.007977777" lon="10.8351555624">
		<tag k="fixme" v="consider natural=peak for the most distinct mountains in the district" />
		<tag k="name" v="Olaåsen" />
		<tag k="natural" v="hill" />
		<tag k="place" v="locality" />
		<tag k="ssr:stedsnr" v="958127" />
	</node>
	<node id="-900313" lat="63.9362500036" lon="10.8218777685">
		<tag k="name" v="Høylasset" />
		<tag k="natural" v="ridge" />
		<tag k="place" v="locality" />
		<tag k="ssr:stedsnr" v="897155" />
	</node>
	<node id="-900310" lat="64.0392527812" lon="11.1687694536">
		<tag k="fixme" v="consider natural=peak for the most distinct mountains in the district" />
		<tag k="name" v="Brennengkammen" />
		<tag k="natural" v="hill" />
		<tag k="place" v="locality" />
		<tag k="ssr:stedsnr" v="837449" />
	</node>
	<node id="-900308" lat="64.0528027786" lon="11.0235555541">
		<tag k="name" v="Gauklia" />
		<tag k="natural" v="slope" />
		<tag k="place" v="locality" />
		<tag k="ssr:stedsnr" v="196960" />
	</node>
	<node id="-900307" lat="64.1051666628" lon="11.2655194435">
		<tag k="fixme" v="consider natural=peak for the most distinct mountains in the district" />
		<tag k="name" v="Høgkamåsen" />
		<tag k="natural" v="hill" />
		<tag k="place" v="locality" />
		<tag k="ssr:stedsnr" v="499140" />
	</node>
	<node id="-900306" lat="63.81130833" lon="10.5928111128">
		<tag k="name" v="Tangstadlia" />
		<tag k="natural" v="slope" />
		<tag k="place" v="locality" />
		<tag k="ssr:stedsnr" v="635041" />
	</node>
	<node id="-900305" lat="63.7657805569" lon="10.5160833404">
		<tag k="name" v="Nilsholet" />
		<tag k="natural" v="valley" />
		<tag k="place" v="locality" />
		<tag k="ssr:stedsnr" v="878243" />
	</node>
	<node id="-900299" lat="64.1094055524" lon="11.3097194474">
		<tag k="name" v="Hamran" />
		<tag k="natural" v="hill" />
		<tag k="place" v="locality" />
		<tag k="ssr:stedsnr" v="872819" />
	</node>
	<node id="-900297" lat="63.9895111104" lon="10.8939972148">
		<tag k="fixme" v="consider natural=peak for the most distinct mountains in the district" />
		<tag k="name" v="Brennhalla" />
		<tag k="natural" v="hill" />
		<tag k="place" v="locality" />
		<tag k="ssr:stedsnr" v="47090" />
	</node>
	<node id="-900295" lat="63.7658833289" lon="10.4511916727">
		<tag k="name" v="Nordlia" />
		<tag k="natural" v="slope" />
		<tag k="place" v="locality" />
		<tag k="ssr:stedsnr" v="634232" />
	</node>
	<node id="-900288" lat="64.0869083365" lon="11.161088887">
		<tag k="name" v="Tømtdalen" />
		<tag k="natural" v="valley" />
		<tag k="place" v="locality" />
		<tag k="ssr:stedsnr" v="351703" />
	</node>
	<node id="-900287" lat="63.8744222251" lon="10.7482777771">
		<tag k="name" v="Smørfathalla" />
		<tag k="natural" v="slope" />
		<tag k="place" v="locality" />
		<tag k="ssr:stedsnr" v="210093" />
	</node>
	<node id="-900278" lat="64.0419583332" lon="11.17231388">
		<tag k="fixme" v="consider natural=peak for the most distinct mountains in the district" />
		<tag k="name" v="Bualihøgda" />
		<tag k="natural" v="hill" />
		<tag k="place" v="locality" />
		<tag k="ssr:stedsnr" v="837451" />
	</node>
	<node id="-900274" lat="64.0696888871" lon="11.197358339">
		<tag k="name" v="Kleppen" />
		<tag k="place" v="locality" />
		<tag k="ssr:stedsnr" v="149975" />
	</node>
	<node id="-900270" lat="63.8514805569" lon="10.607558337">
		<tag k="name" v="Raudtinden" />
		<tag k="natural" v="hill" />
		<tag k="place" v="locality" />
		<tag k="ssr:stedsnr" v="13494" />
	</node>
	<node id="-900264" lat="64.0726916708" lon="11.1608444494">
		<tag k="fixme" v="consider natural=peak for the most distinct mountains in the district" />
		<tag k="name" v="Vasslihalla" />
		<tag k="natural" v="hill" />
		<tag k="place" v="locality" />
		<tag k="ssr:stedsnr" v="48677" />
	</node>
	<node id="-900262" lat="64.0877666668" lon="11.3019638957">
		<tag k="name" v="Kippvedberget" />
		<tag k="natural" v="hill" />
		<tag k="place" v="locality" />
		<tag k="ssr:stedsnr" v="872840" />
	</node>
	<node id="-900260" lat="63.9886694454" lon="11.1381249973">
		<tag k="name" v="Follaberga" />
		<tag k="natural" v="hill" />
		<tag k="place" v="locality" />
		<tag k="ssr:stedsnr" v="756987" />
	</node>
	<node id="-900258" lat="64.1231944462" lon="11.1272166731">
		<tag k="fixme" v="consider natural=peak for the most distinct mountains in the district" />
		<tag k="name" v="Storliåsen" />
		<tag k="natural" v="hill" />
		<tag k="place" v="locality" />
		<tag k="ssr:stedsnr" v="109530" />
	</node>
	<node id="-900256" lat="63.805250004" lon="10.5026944529">
		<tag k="fixme" v="consider natural=peak for the most distinct mountains in the district" />
		<tag k="name" v="Grønliheia" />
		<tag k="natural" v="hill" />
		<tag k="place" v="locality" />
		<tag k="ssr:stedsnr" v="196415" />
	</node>
	<node id="-900254" lat="64.0040999971" lon="11.1772861146">
		<tag k="name" v="Bjørnadalen" />
		<tag k="natural" v="valley" />
		<tag k="place" v="locality" />
		<tag k="ssr:stedsnr" v="939971" />
	</node>
	<node id="-900253" lat="63.8983138869" lon="10.8658944415">
		<tag k="fixme" v="consider natural=peak for the most distinct mountains in the district" />
		<tag k="name" v="Buliheia" />
		<tag k="natural" v="hill" />
		<tag k="place" v="locality" />
		<tag k="ssr:stedsnr" v="635057" />
	</node>
	<node id="-900247" lat="64.057983336" lon="11.2142638904">
		<tag k="name" v="Nertrøa" />
		<tag k="place" v="locality" />
		<tag k="ssr:stedsnr" v="756984" />
	</node>
	<node id="-900246" lat="63.8965777778" lon="10.8171638887">
		<tag k="name" v="Hansslættet" />
		<tag k="place" v="locality" />
		<tag k="ssr:stedsnr" v="924526" />
	</node>
	<node id="-900245" lat="63.9080166678" lon="10.6114055503">
		<tag k="fixme" v="multiple name tags, choose one and add the other to alt_name; consider natural=peak for the most distinct mountains in the district" />
		<tag k="name" v="Mefjellvarden;Prinsen" />
		<tag k="natural" v="hill" />
		<tag k="place" v="locality" />
		<tag k="ssr:stedsnr" v="802324" />
	</node>
	<node id="-900243" lat="64.0689194482" lon="11.137652772">
		<tag k="name" v="Høghaugen" />
		<tag k="natural" v="hill" />
		<tag k="place" v="locality" />
		<tag k="ssr:stedsnr" v="351686" />
	</node>
	<node id="-900240" lat="63.9565472186" lon="10.9504194356">
		<tag k="name" v="Funndalen" />
		<tag k="natural" v="valley" />
		<tag k="place" v="locality" />
		<tag k="ssr:stedsnr" v="897157" />
	</node>
	<node id="-900236" lat="64.0745944445" lon="11.2056138803">
		<tag k="fixme" v="consider natural=peak for the most distinct mountains in the district" />
		<tag k="name" v="Rugsvehalla" />
		<tag k="natural" v="hill" />
		<tag k="place" v="locality" />
		<tag k="ssr:stedsnr" v="756980" />
	</node>
	<node id="-900232" lat="63.8974749959" lon="10.8006222133">
		<tag k="fixme" v="consider natural=peak for the most distinct mountains in the district" />
		<tag k="name" v="Vålihaugan" />
		<tag k="natural" v="hill" />
		<tag k="ssr:stedsnr" v="815271" />
	</node>
	<node id="-900231" lat="64.1262444471" lon="11.1496777683">
		<tag k="fixme" v="consider natural=peak for the most distinct mountains in the district" />
		<tag k="name" v="Såggåstadåsen" />
		<tag k="natural" v="hill" />
		<tag k="place" v="locality" />
		<tag k="ssr:stedsnr" v="109528" />
	</node>
	<node id="-900229" lat="63.9567722192" lon="10.9621138978">
		<tag k="name" v="Almliin" />
		<tag k="natural" v="slope" />
		<tag k="place" v="locality" />
		<tag k="ssr:stedsnr" v="897160" />
	</node>
	<node id="-900228" lat="64.0300000021" lon="10.7669333296">
		<tag k="name" v="Svartvassdalen" />
		<tag k="natural" v="valley" />
		<tag k="place" v="locality" />
		<tag k="ssr:stedsnr" v="897162" />
	</node>
	<node id="-900219" lat="64.0244833333" lon="11.024305565">
		<tag k="name" v="Brennberga" />
		<tag k="natural" v="hill" />
		<tag k="place" v="locality" />
		<tag k="ssr:stedsnr" v="473044" />
	</node>
	<node id="-900216" lat="64.0985111098" lon="11.2159500072">
		<tag k="name" v="Mikalhaugen" />
		<tag k="natural" v="hill" />
		<tag k="place" v="locality" />
		<tag k="ssr:stedsnr" v="523785" />
	</node>
	<node id="-900215" lat="64.1069472205" lon="11.2705416709">
		<tag k="name" v="Kvitbergdalen" />
		<tag k="natural" v="valley" />
		<tag k="place" v="locality" />
		<tag k="ssr:stedsnr" v="690214" />
	</node>
	<node id="-900212" lat="63.970900001" lon="11.0663694387">
		<tag k="name" v="Aspvikdalen" />
		<tag k="natural" v="valley" />
		<tag k="place" v="locality" />
		<tag k="ssr:stedsnr" v="696086" />
	</node>
	<node id="-900211" lat="63.9546805524" lon="10.8890722174">
		<tag k="fixme" v="consider natural=peak for the most distinct mountains in the district" />
		<tag k="name" v="Reinstjønnheia" />
		<tag k="natural" v="hill" />
		<tag k="place" v="locality" />
		<tag k="ssr:stedsnr" v="742599" />
	</node>
	<node id="-900206" lat="64.0039416698" lon="10.8880416751">
		<tag k="fixme" v="consider natural=peak for the most distinct mountains in the district" />
		<tag k="name" v="Grønlidalsheia" />
		<tag k="natural" v="hill" />
		<tag k="place" v="locality" />
		<tag k="ssr:stedsnr" v="135886" />
	</node>
	<node id="-900200" lat="64.0078805579" lon="11.0047749939">
		<tag k="fixme" v="consider natural=peak for the most distinct mountains in the district" />
		<tag k="name" v="Pikheia" />
		<tag k="natural" v="hill" />
		<tag k="place" v="locality" />
		<tag k="ssr:stedsnr" v="135890" />
	</node>
	<node id="-900192" lat="63.8724361123" lon="10.7654499978">
		<tag k="name" v="Sveaskaret" />
		<tag k="natural" v="valley" />
		<tag k="place" v="locality" />
		<tag k="ssr:stedsnr" v="939097" />
	</node>
	<node id="-900190" lat="63.8872972256" lon="10.8505388894">
		<tag k="name" v="Stavremslia" />
		<tag k="natural" v="slope" />
		<tag k="place" v="locality" />
		<tag k="ssr:stedsnr" v="696081" />
	</node>
	<node id="-900185" lat="64.121299998" lon="11.009944454">
		<tag k="fixme" v="consider natural=peak for the most distinct mountains in the district" />
		<tag k="name" v="Nordesplingskurven" />
		<tag k="natural" v="hill" />
		<tag k="place" v="locality" />
		<tag k="ssr:stedsnr" v="14570" />
	</node>
	<node id="-900180" lat="64.0154000012" lon="10.95237501">
		<tag k="fixme" v="consider natural=peak for the most distinct mountains in the district" />
		<tag k="name" v="Nyseteråsen" />
		<tag k="natural" v="hill" />
		<tag k="place" v="locality" />
		<tag k="ssr:stedsnr" v="47063" />
	</node>
	<node id="-900179" lat="63.9245055598" lon="10.7852444437">
		<tag k="name" v="Lauvlidalen" />
		<tag k="natural" v="valley" />
		<tag k="place" v="locality" />
		<tag k="ssr:stedsnr" v="317557" />
	</node>
	<node id="-900174" lat="64.0010444459" lon="10.8323472132">
		<tag k="fixme" v="consider natural=peak for the most distinct mountains in the district" />
		<tag k="name" v="Bybekkåsen" />
		<tag k="natural" v="hill" />
		<tag k="place" v="locality" />
		<tag k="ssr:stedsnr" v="897126" />
	</node>
	<node id="-900173" lat="64.10193056" lon="11.3255694376">
		<tag k="name" v="Svarthåmmåren" />
		<tag k="natural" v="hill" />
		<tag k="place" v="locality" />
		<tag k="ssr:stedsnr" v="447793" />
	</node>
	<node id="-900168" lat="64.0692888883" lon="11.1253444343">
		<tag k="fixme" v="consider natural=peak for the most distinct mountains in the district" />
		<tag k="name" v="Seterlikammen" />
		<tag k="natural" v="hill" />
		<tag k="old_name" v="Grønlikammen" />
		<tag k="place" v="locality" />
		<tag k="ssr:stedsnr" v="203016" />
	</node>
	<node id="-900165" lat="64.1009694425" lon="11.1863527842">
		<tag k="name" v="Seterhaugen" />
		<tag k="natural" v="hill" />
		<tag k="place" v="locality" />
		<tag k="ssr:stedsnr" v="159775" />
	</node>
	<node id="-900163" lat="63.8931583324" lon="10.8391611199">
		<tag k="name" v="Haramyrheia" />
		<tag k="natural" v="hill" />
		<tag k="place" v="locality" />
		<tag k="ssr:stedsnr" v="696100" />
	</node>
	<node id="-900162" lat="64.0784388851" lon="11.0373722188">
		<tag k="fixme" v="consider natural=peak for the most distinct mountains in the district" />
		<tag k="name" v="Reklingheia" />
		<tag k="natural" v="hill" />
		<tag k="place" v="locality" />
		<tag k="ssr:stedsnr" v="620523" />
	</node>
	<node id="-900157" lat="64.0364777753" lon="11.1788416628">
		<tag k="name" v="Gammelbudalen" />
		<tag k="natural" v="valley" />
		<tag k="place" v="locality" />
		<tag k="ssr:stedsnr" v="756961" />
	</node>
	<node id="-900155" lat="63.7670138897" lon="10.5202694352">
		<tag k="fixme" v="consider natural=peak for the most distinct mountains in the district" />
		<tag k="name" v="Grønnskardaksla" />
		<tag k="natural" v="hill" />
		<tag k="place" v="locality" />
		<tag k="ssr:stedsnr" v="634228" />
	</node>
	<node id="-900144" lat="64.1108666625" lon="11.0115166625">
		<tag k="fixme" v="consider natural=peak for the most distinct mountains in the district" />
		<tag k="name" v="Langvasskurvan" />
		<tag k="natural" v="hill" />
		<tag k="place" v="locality" />
		<tag k="ssr:stedsnr" v="593609" />
	</node>
	<node id="-900142" lat="64.0515805534" lon="10.9885638892">
		<tag k="fixme" v="consider natural=peak for the most distinct mountains in the district" />
		<tag k="name" v="Spillernyhalla" />
		<tag k="natural" v="hill" />
		<tag k="place" v="locality" />
		<tag k="ssr:stedsnr" v="898731" />
	</node>
	<node id="-900136" lat="64.0423305594" lon="11.178377779">
		<tag k="fixme" v="consider natural=peak for the most distinct mountains in the district" />
		<tag k="name" v="Kjerrenghalla" />
		<tag k="natural" v="hill" />
		<tag k="place" v="locality" />
		<tag k="ssr:stedsnr" v="271999" />
	</node>
	<node id="-900132" lat="64.0104305554" lon="11.1444499987">
		<tag k="fixme" v="consider natural=peak for the most distinct mountains in the district" />
		<tag k="name" v="Hesjeåsen" />
		<tag k="natural" v="hill" />
		<tag k="place" v="locality" />
		<tag k="ssr:stedsnr" v="473019" />
	</node>
	<node id="-900127" lat="64.0974527815" lon="11.1997500006">
		<tag k="fixme" v="consider natural=peak for the most distinct mountains in the district" />
		<tag k="name" v="Lauvåsen" />
		<tag k="natural" v="hill" />
		<tag k="place" v="locality" />
		<tag k="ssr:stedsnr" v="706736" />
	</node>
	<node id="-900124" lat="63.988388893" lon="11.0531805637">
		<tag k="fixme" v="consider natural=peak for the most distinct mountains in the district" />
		<tag k="name" v="Follahøgda" />
		<tag k="natural" v="hill" />
		<tag k="place" v="locality" />
		<tag k="ssr:stedsnr" v="256548" />
	</node>
	<node id="-900121" lat="64.0323444477" lon="10.7747277744">
		<tag k="name" v="Reinsjødalen" />
		<tag k="natural" v="valley" />
		<tag k="place" v="locality" />
		<tag k="ssr:stedsnr" v="196937" />
	</node>
	<node id="-900118" lat="63.8316750028" lon="10.6345638848">
		<tag k="name" v="Ådalen" />
		<tag k="natural" v="valley" />
		<tag k="place" v="locality" />
		<tag k="ssr:stedsnr" v="210060" />
	</node>
	<node id="-900108" lat="64.0318250022" lon="11.2189888801">
		<tag k="name" v="Storkleiva" />
		<tag k="natural" v="cliff" />
		<tag k="ssr:stedsnr" v="271992" />
	</node>
	<node id="-900107" lat="64.0118861152" lon="11.0799916732">
		<tag k="name" v="Brennholet" />
		<tag k="natural" v="valley" />
		<tag k="place" v="locality" />
		<tag k="ssr:stedsnr" v="864970" />
	</node>
	<node id="-900105" lat="64.0129722231" lon="10.7973694453">
		<tag k="name" v="Finnhaugen" />
		<tag k="natural" v="hill" />
		<tag k="place" v="locality" />
		<tag k="ssr:stedsnr" v="290184" />
	</node>
	<node id="-900103" lat="63.9474416705" lon="10.8019722319">
		<tag k="fixme" v="consider natural=peak for the most distinct mountains in the district" />
		<tag k="name" v="Lysvassheia" />
		<tag k="natural" v="hill" />
		<tag k="place" v="locality" />
		<tag k="ssr:stedsnr" v="742586" />
	</node>
	<node id="-900100" lat="63.9367694402" lon="10.8832555566">
		<tag k="name" v="Vergdalen" />
		<tag k="natural" v="valley" />
		<tag k="place" v="locality" />
		<tag k="ssr:stedsnr" v="742582" />
	</node>
	<node id="-900098" lat="64.0376194403" lon="11.1447611165">
		<tag k="fixme" v="consider natural=peak for the most distinct mountains in the district" />
		<tag k="name" v="Storberget" />
		<tag k="natural" v="hill" />
		<tag k="place" v="locality" />
		<tag k="ssr:stedsnr" v="958473" />
	</node>
	<node id="-900096" lat="64.1141888857" lon="11.1612305507">
		<tag k="alt_name" v="Sjurliin" />
		<tag k="name" v="Sjurlia" />
		<tag k="natural" v="slope" />
		<tag k="place" v="locality" />
		<tag k="ssr:stedsnr" v="135604" />
	</node>
	<node id="-900090" lat="64.1142861136" lon="11.0068333426">
		<tag k="name" v="Nordesplingdalen" />
		<tag k="natural" v="valley" />
		<tag k="place" v="locality" />
		<tag k="ssr:stedsnr" v="533679" />
	</node>
	<node id="-900085" lat="63.9856555526" lon="10.9986444347">
		<tag k="fixme" v="consider natural=peak for the most distinct mountains in the district" />
		<tag k="name" v="Stamliheia" />
		<tag k="natural" v="hill" />
		<tag k="place" v="locality" />
		<tag k="ssr:stedsnr" v="256538" />
	</node>
	<node id="-900082" lat="64.1242611131" lon="11.0061333424">
		<tag k="fixme" v="consider natural=peak for the most distinct mountains in the district" />
		<tag k="name" v="Bjørnaheia" />
		<tag k="natural" v="hill" />
		<tag k="place" v="locality" />
		<tag k="ssr:stedsnr" v="803628" />
	</node>
	<node id="-900075" lat="63.9981416622" lon="11.102058339">
		<tag k="name" v="Gomdalberget" />
		<tag k="natural" v="hill" />
		<tag k="place" v="locality" />
		<tag k="ssr:stedsnr" v="756109" />
	</node>
	<node id="-900074" lat="64.0087277813" lon="11.1207166632">
		<tag k="fixme" v="consider natural=peak for the most distinct mountains in the district" />
		<tag k="name" v="Bjørnahalla" />
		<tag k="natural" v="hill" />
		<tag k="place" v="locality" />
		<tag k="ssr:stedsnr" v="864968" />
	</node>
	<node id="-900073" lat="63.8267250025" lon="10.5247833319">
		<tag k="name" v="Lauvhaugen" />
		<tag k="natural" v="hill" />
		<tag k="place" v="locality" />
		<tag k="ssr:stedsnr" v="351254" />
	</node>
	<node id="-900072" lat="64.0389805524" lon="11.13800833">
		<tag k="fixme" v="consider natural=peak for the most distinct mountains in the district" />
		<tag k="name" v="Kilåskammen" />
		<tag k="natural" v="hill" />
		<tag k="place" v="locality" />
		<tag k="ssr:stedsnr" v="499932" />
	</node>
	<node id="-900071" lat="64.1457444479" lon="11.0632777865">
		<tag k="fixme" v="consider natural=peak for the most distinct mountains in the district" />
		<tag k="name" v="Alhusen" />
		<tag k="natural" v="hill" />
		<tag k="place" v="locality" />
		<tag k="ssr:stedsnr" v="559611" />
	</node>
	<node id="-900069" lat="64.1013416691" lon="11.2793416575">
		<tag k="name" v="Langlia" />
		<tag k="natural" v="slope" />
		<tag k="place" v="locality" />
		<tag k="ssr:stedsnr" v="933198" />
	</node>
	<node id="-900067" lat="64.0960027749" lon="10.9228055485">
		<tag k="name" v="Likkistheia" />
		<tag k="natural" v="hill" />
		<tag k="place" v="locality" />
		<tag k="ssr:stedsnr" v="924490" />
	</node>
	<node id="-900059" lat="64.0938611098" lon="11.0089916685">
		<tag k="name" v="Rissheia" />
		<tag k="natural" v="hill" />
		<tag k="place" v="locality" />
		<tag k="ssr:stedsnr" v="924493" />
	</node>
	<node id="-900056" lat="63.9972388909" lon="10.8905527809">
		<tag k="fixme" v="consider natural=peak for the most distinct mountains in the district" />
		<tag k="name" v="Litlgodliheia" />
		<tag k="natural" v="hill" />
		<tag k="place" v="locality" />
		<tag k="ssr:stedsnr" v="897119" />
	</node>
	<node id="-900053" lat="64.0825611147" lon="11.0268027702">
		<tag k="name" v="Grønlidalen" />
		<tag k="natural" v="valley" />
		<tag k="place" v="locality" />
		<tag k="ssr:stedsnr" v="776640" />
	</node>
	<node id="-900050" lat="64.0741416632" lon="11.1246999896">
		<tag k="name" v="Seterlia" />
		<tag k="natural" v="slope" />
		<tag k="place" v="locality" />
		<tag k="ssr:stedsnr" v="169688" />
	</node>
	<node id="-900045" lat="64.0689194429" lon="11.1622194523">
		<tag k="fixme" v="consider natural=peak for the most distinct mountains in the district" />
		<tag k="name" v="Måssåmyrhøgda" />
		<tag k="natural" v="hill" />
		<tag k="place" v="locality" />
		<tag k="ssr:stedsnr" v="898698" />
	</node>
	<node id="-900044" lat="63.7832611146" lon="10.4161222134">
		<tag k="fixme" v="consider natural=peak for the most distinct mountains in the district" />
		<tag k="name" v="Skurvhatten" />
		<tag k="natural" v="hill" />
		<tag k="place" v="locality" />
		<tag k="ssr:stedsnr" v="817238" />
	</node>
	<node id="-900038" lat="63.8222694442" lon="10.5560055547">
		<tag k="fixme" v="consider natural=peak for the most distinct mountains in the district" />
		<tag k="name" v="Orvassheia" />
		<tag k="natural" v="hill" />
		<tag k="place" v="locality" />
		<tag k="ssr:stedsnr" v="802561" />
	</node>
	<node id="-900037" lat="63.7987305517" lon="10.5408194532">
		<tag k="name" v="Perdalen" />
		<tag k="natural" v="valley" />
		<tag k="place" v="locality" />
		<tag k="ssr:stedsnr" v="210034" />
	</node>
	<node id="-900034" lat="64.0876777822" lon="11.0382777838">
		<tag k="fixme" v="consider natural=peak for the most distinct mountains in the district" />
		<tag k="name" v="Grønliheia" />
		<tag k="natural" v="hill" />
		<tag k="place" v="locality" />
		<tag k="ssr:stedsnr" v="533669" />
	</node>
	<node id="-900033" lat="63.8547944453" lon="10.7021888831">
		<tag k="name" v="Moldaunlia" />
		<tag k="natural" v="slope" />
		<tag k="place" v="locality" />
		<tag k="ssr:stedsnr" v="696065" />
	</node>
	<node id="-900025" lat="63.9797527816" lon="11.0202694416">
		<tag k="name" v="Merliåka" />
		<tag k="natural" v="hill" />
		<tag k="place" v="locality" />
		<tag k="ssr:stedsnr" v="290174" />
	</node>
	<node id="-900021" lat="64.1060805548" lon="11.1609388832">
		<tag k="fixme" v="consider natural=peak for the most distinct mountains in the district" />
		<tag k="name" v="Nonsheia" />
		<tag k="natural" v="hill" />
		<tag k="place" v="locality" />
		<tag k="ssr:stedsnr" v="377504" />
	</node>
	<node id="-900014" lat="63.9905944456" lon="10.9433833356">
		<tag k="fixme" v="consider natural=peak for the most distinct mountains in the district" />
		<tag k="name" v="Tortholheia" />
		<tag k="natural" v="hill" />
		<tag k="place" v="locality" />
		<tag k="ssr:stedsnr" v="897077" />
	</node>
	<node id="-900003" lat="64.078369442" lon="11.179294442">
		<tag k="fixme" v="consider natural=peak for the most distinct mountains in the district" />
		<tag k="name" v="Gusliåsen" />
		<tag k="natural" v="hill" />
		<tag k="place" v="locality" />
		<tag k="ssr:stedsnr" v="878951" />
	</node>
	<node id="-899997" lat="64.0781444425" lon="11.2098027688">
		<tag k="name" v="Geitakløyvberget" />
		<tag k="natural" v="hill" />
		<tag k="place" v="locality" />
		<tag k="ssr:stedsnr" v="878950" />
	</node>
	<node id="-899995" lat="63.9264833356" lon="10.7790444413">
		<tag k="loc_name" v="Nordre Bjønnadalen" />
		<tag k="name" v="Nord-Bjørnådalen" />
		<tag k="natural" v="valley" />
		<tag k="place" v="locality" />
		<tag k="ssr:stedsnr" v="742566" />
	</node>
	<node id="-899992" lat="63.7765611115" lon="10.5640805471">
		<tag k="name" v="Lauvliheia" />
		<tag k="natural" v="hill" />
		<tag k="place" v="locality" />
		<tag k="ssr:stedsnr" v="210022" />
	</node>
	<node id="-899991" lat="63.7570222201" lon="10.4711249971">
		<tag k="name" v="Vannbakklia" />
		<tag k="natural" v="slope" />
		<tag k="place" v="locality" />
		<tag k="ssr:stedsnr" v="210025" />
	</node>
	<node id="-899983" lat="63.9278472231" lon="10.7594472263">
		<tag k="name" v="Gryta" />
		<tag k="natural" v="valley" />
		<tag k="place" v="locality" />
		<tag k="ssr:stedsnr" v="135585" />
	</node>
	<node id="-899968" lat="64.0511166652" lon="11.1170777798">
		<tag k="name" v="Rennmolia" />
		<tag k="natural" v="slope" />
		<tag k="place" v="locality" />
		<tag k="ssr:stedsnr" v="958458" />
	</node>
	<node id="-899966" lat="63.9805249961" lon="10.8994416571">
		<tag k="name" v="Holmlia" />
		<tag k="natural" v="slope" />
		<tag k="place" v="locality" />
		<tag k="ssr:stedsnr" v="74574" />
	</node>
	<node id="-899964" lat="63.8578249959" lon="10.6491638879">
		<tag k="fixme" v="consider natural=peak for the most distinct mountains in the district" />
		<tag k="loc_name:sma" v="Slettanvaerie" />
		<tag k="name" v="Staurheia" />
		<tag k="name:no" v="Staurheia" />
		<tag k="natural" v="hill" />
		<tag k="place" v="locality" />
		<tag k="ssr:stedsnr" v="862297" />
	</node>
	<node id="-899960" lat="63.998647221" lon="10.8562888897">
		<tag k="name" v="Magnhildhalsen" />
		<tag k="natural" v="valley" />
		<tag k="place" v="locality" />
		<tag k="ssr:stedsnr" v="897091" />
	</node>
	<node id="-899947" lat="63.9330416708" lon="10.937311118">
		<tag k="name" v="Brenthaugen" />
		<tag k="natural" v="hill" />
		<tag k="place" v="locality" />
		<tag k="ssr:stedsnr" v="742573" />
	</node>
	<node id="-899941" lat="64.0018527803" lon="10.8620472282">
		<tag k="fixme" v="consider natural=peak for the most distinct mountains in the district" />
		<tag k="name" v="Grønnlidalsheia" />
		<tag k="natural" v="hill" />
		<tag k="place" v="locality" />
		<tag k="ssr:stedsnr" v="897093" />
	</node>
	<node id="-899936" lat="63.9829833338" lon="10.9178583256">
		<tag k="name" v="Middagsheia" />
		<tag k="natural" v="hill" />
		<tag k="place" v="locality" />
		<tag k="ssr:stedsnr" v="74570" />
	</node>
	<node id="-899934" lat="63.8599638917" lon="10.7153194458">
		<tag k="name" v="Fagervikheia" />
		<tag k="natural" v="hill" />
		<tag k="place" v="locality" />
		<tag k="ssr:stedsnr" v="558279" />
	</node>
	<node id="-899932" lat="64.1036111119" lon="10.9190611119">
		<tag k="name" v="Torslia" />
		<tag k="natural" v="slope" />
		<tag k="place" v="locality" />
		<tag k="ssr:stedsnr" v="377499" />
	</node>
	<node id="-899931" lat="64.0365361077" lon="11.1116749954">
		<tag k="name" v="Kvennhushaugen" />
		<tag k="natural" v="hill" />
		<tag k="place" v="locality" />
		<tag k="ssr:stedsnr" v="412417" />
	</node>
	<node id="-899930" lat="63.8344277791" lon="10.6226249989">
		<tag k="name" v="Blåberga" />
		<tag k="natural" v="hill" />
		<tag k="place" v="locality" />
		<tag k="ssr:stedsnr" v="802544" />
	</node>
	<node id="-899928" lat="63.8533027783" lon="10.6339249931">
		<tag k="fixme" v="consider natural=peak for the most distinct mountains in the district" />
		<tag k="name" v="Gåsvassheia" />
		<tag k="natural" v="hill" />
		<tag k="place" v="locality" />
		<tag k="ssr:stedsnr" v="255462" />
	</node>
	<node id="-899927" lat="63.950630559" lon="10.9819361209">
		<tag k="name" v="Rundhaugen" />
		<tag k="natural" v="hill" />
		<tag k="place" v="locality" />
		<tag k="ssr:stedsnr" v="803623" />
	</node>
	<node id="-899924" lat="64.0895111119" lon="11.2700972176">
		<tag k="name" v="Stammyrhalsen" />
		<tag k="natural" v="valley" />
		<tag k="place" v="locality" />
		<tag k="ssr:stedsnr" v="386836" />
	</node>
	<node id="-899922" lat="64.0790416624" lon="11.2119555483">
		<tag k="fixme" v="consider natural=peak for the most distinct mountains in the district" />
		<tag k="name" v="Grytdalshalla" />
		<tag k="natural" v="hill" />
		<tag k="place" v="locality" />
		<tag k="ssr:stedsnr" v="878964" />
	</node>
	<node id="-899919" lat="63.992541671" lon="11.0418083294">
		<tag k="name" v="Bjørkliskardet" />
		<tag k="natural" v="valley" />
		<tag k="place" v="locality" />
		<tag k="ssr:stedsnr" v="135577" />
	</node>
	<node id="-899918" lat="64.0834361109" lon="11.2064777725">
		<tag k="fixme" v="consider natural=peak for the most distinct mountains in the district" />
		<tag k="name" v="Stokkseteråsen" />
		<tag k="natural" v="hill" />
		<tag k="place" v="locality" />
		<tag k="ssr:stedsnr" v="878967" />
	</node>
	<node id="-899917" lat="64.0770555525" lon="11.2522055482">
		<tag k="name" v="Kirstiberget" />
		<tag k="natural" v="hill" />
		<tag k="place" v="locality" />
		<tag k="ssr:stedsnr" v="386839" />
	</node>
	<node id="-899910" lat="64.0907749985" lon="11.2535750049">
		<tag k="fixme" v="consider natural=peak for the most distinct mountains in the district" />
		<tag k="name" v="Geilåsen" />
		<tag k="natural" v="hill" />
		<tag k="place" v="locality" />
		<tag k="ssr:stedsnr" v="83846" />
	</node>
	<node id="-899909" lat="63.9308611152" lon="10.9043999934">
		<tag k="name" v="Reinfannhaugen" />
		<tag k="natural" v="hill" />
		<tag k="place" v="locality" />
		<tag k="ssr:stedsnr" v="681523" />
	</node>
	<node id="-899908" lat="63.7796249966" lon="10.4672638885">
		<tag k="name" v="Hippeliberga" />
		<tag k="natural" v="hill" />
		<tag k="place" v="locality" />
		<tag k="ssr:stedsnr" v="696010" />
	</node>
	<node id="-899907" lat="63.8655194484" lon="10.730874992">
		<tag k="name" v="Fagervikheia" />
		<tag k="natural" v="hill" />
		<tag k="place" v="locality" />
		<tag k="ssr:stedsnr" v="149090" />
	</node>
	<node id="-899905" lat="63.9444305582" lon="10.8937305595">
		<tag k="name" v="Bjørklia" />
		<tag k="natural" v="slope" />
		<tag k="place" v="locality" />
		<tag k="ssr:stedsnr" v="75645" />
	</node>
	<node id="-899904" lat="63.917800004" lon="10.8394777845">
		<tag k="fixme" v="consider natural=peak for the most distinct mountains in the district" />
		<tag k="name" v="Sjettenbakken" />
		<tag k="natural" v="hill" />
		<tag k="place" v="locality" />
		<tag k="ssr:stedsnr" v="776193" />
	</node>
	<node id="-899900" lat="63.8139138887" lon="10.6163222239">
		<tag k="name" v="Vollen" />
		<tag k="place" v="locality" />
		<tag k="ssr:stedsnr" v="939015" />
	</node>
	<node id="-899895" lat="63.8090166628" lon="10.5321222157">
		<tag k="fixme" v="consider natural=peak for the most distinct mountains in the district" />
		<tag k="name" v="Seterheia" />
		<tag k="natural" v="hill" />
		<tag k="place" v="locality" />
		<tag k="ssr:stedsnr" v="680479" />
	</node>
	<node id="-899893" lat="64.0946750021" lon="11.1708499987">
		<tag k="name" v="Trettdalen" />
		<tag k="natural" v="valley" />
		<tag k="place" v="locality" />
		<tag k="ssr:stedsnr" v="291702" />
	</node>
	<node id="-899891" lat="63.7815722236" lon="10.4811638825">
		<tag k="name" v="Kamberga" />
		<tag k="natural" v="hill" />
		<tag k="place" v="locality" />
		<tag k="ssr:stedsnr" v="210006" />
	</node>
	<node id="-899888" lat="63.8759638916" lon="10.6997249914">
		<tag k="fixme" v="consider natural=peak for the most distinct mountains in the district" />
		<tag k="name" v="Oksålheia" />
		<tag k="natural" v="hill" />
		<tag k="place" v="locality" />
		<tag k="ssr:stedsnr" v="862271" />
	</node>
	<node id="-899886" lat="63.7719416667" lon="10.5130722313">
		<tag k="name" v="Stordalen" />
		<tag k="natural" v="valley" />
		<tag k="place" v="locality" />
		<tag k="ssr:stedsnr" v="392247" />
	</node>
	<node id="-899884" lat="64.0235888924" lon="11.1256694545">
		<tag k="name" v="Hermannsnasa" />
		<tag k="natural" v="hill" />
		<tag k="place" v="locality" />
		<tag k="ssr:stedsnr" v="109437" />
	</node>
	<node id="-899881" lat="63.9805611121" lon="11.0262388855">
		<tag k="alt_name" v="Nævaheia" />
		<tag k="fixme" v="consider natural=peak for the most distinct mountains in the district" />
		<tag k="name" v="Nevaheia" />
		<tag k="natural" v="hill" />
		<tag k="place" v="locality" />
		<tag k="ssr:stedsnr" v="74565" />
	</node>
	<node id="-899878" lat="63.944019441" lon="11.0033305483">
		<tag k="name" v="Bonhaugen" />
		<tag k="natural" v="hill" />
		<tag k="place" v="locality" />
		<tag k="ssr:stedsnr" v="756066" />
	</node>
	<node id="-899877" lat="64.0135222212" lon="11.1698305468">
		<tag k="name" v="Andersengdalen" />
		<tag k="natural" v="valley" />
		<tag k="place" v="locality" />
		<tag k="ssr:stedsnr" v="109441" />
	</node>
	<node id="-899875" lat="63.9774194476" lon="10.9734305519">
		<tag k="fixme" v="consider natural=peak for the most distinct mountains in the district" />
		<tag k="name" v="Halsheia" />
		<tag k="natural" v="hill" />
		<tag k="place" v="locality" />
		<tag k="ssr:stedsnr" v="135568" />
	</node>
	<node id="-899869" lat="64.0794083335" lon="11.1553138789">
		<tag k="fixme" v="consider natural=peak for the most distinct mountains in the district" />
		<tag k="name" v="Hevlan" />
		<tag k="natural" v="hill" />
		<tag k="place" v="locality" />
		<tag k="ssr:stedsnr" v="291707" />
	</node>
	<node id="-899866" lat="64.1153055516" lon="10.9735777711">
		<tag k="name" v="Nordesplingdalen" />
		<tag k="natural" v="valley" />
		<tag k="place" v="locality" />
		<tag k="ssr:stedsnr" v="472544" />
	</node>
	<node id="-899864" lat="63.8679749958" lon="10.7613916638">
		<tag k="name" v="Killingberglia" />
		<tag k="natural" v="slope" />
		<tag k="place" v="locality" />
		<tag k="ssr:stedsnr" v="271115" />
	</node>
	<node id="-899859" lat="63.7677027775" lon="10.4705027792">
		<tag k="name" v="Trolldalen" />
		<tag k="natural" v="valley" />
		<tag k="place" v="locality" />
		<tag k="ssr:stedsnr" v="696024" />
	</node>
	<node id="-899858" lat="63.9701999982" lon="10.7856638954">
		<tag k="fixme" v="consider natural=peak for the most distinct mountains in the district" />
		<tag k="name" v="Simadalsheia" />
		<tag k="natural" v="hill" />
		<tag k="place" v="locality" />
		<tag k="ssr:stedsnr" v="135561" />
	</node>
	<node id="-899856" lat="63.9276027791" lon="10.7199638854">
		<tag k="name" v="Dugurdmålshaugen" />
		<tag k="natural" v="hill" />
		<tag k="place" v="locality" />
		<tag k="ssr:stedsnr" v="803605" />
	</node>
	<node id="-899853" lat="64.0972833297" lon="11.1769805467">
		<tag k="fixme" v="consider natural=peak for the most distinct mountains in the district" />
		<tag k="name" v="Nybuåsen" />
		<tag k="natural" v="hill" />
		<tag k="place" v="locality" />
		<tag k="ssr:stedsnr" v="948826" />
	</node>
	<node id="-899851" lat="64.0907916666" lon="11.291005561">
		<tag k="name" v="Øysterhøgberget" />
		<tag k="natural" v="hill" />
		<tag k="place" v="locality" />
		<tag k="ssr:stedsnr" v="508841" />
	</node>
	<node id="-899850" lat="64.0395944469" lon="10.8779333405">
		<tag k="name" v="Vargskaret" />
		<tag k="natural" v="valley" />
		<tag k="place" v="locality" />
		<tag k="ssr:stedsnr" v="289700" />
	</node>
	<node id="-899846" lat="64.037188891" lon="11.1932527867">
		<tag k="name" v="Saghalla" />
		<tag k="natural" v="valley" />
		<tag k="place" v="locality" />
		<tag k="ssr:stedsnr" v="817995" />
	</node>
	<node id="-899843" lat="64.0894583301" lon="10.9837638896">
		<tag k="fixme" v="multiple name tags, choose one and add the other to alt_name; consider natural=peak for the most distinct mountains in the district" />
		<tag k="name" v="Helvetesåsen;Litlheia" />
		<tag k="natural" v="hill" />
		<tag k="place" v="locality" />
		<tag k="ssr:stedsnr" v="681531" />
	</node>
	<node id="-899841" lat="64.0180138925" lon="11.1912972258">
		<tag k="name" v="Bresten" />
		<tag k="natural" v="hill" />
		<tag k="place" v="locality" />
		<tag k="ssr:stedsnr" v="499888" />
	</node>
	<node id="-899835" lat="64.094494448" lon="11.0248166575">
		<tag k="fixme" v="consider natural=peak for the most distinct mountains in the district" />
		<tag k="name" v="Olheia" />
		<tag k="natural" v="hill" />
		<tag k="place" v="locality" />
		<tag k="ssr:stedsnr" v="256494" />
	</node>
	<node id="-899830" lat="64.0227805588" lon="11.190047213">
		<tag k="name" v="Brennhaugklompen" />
		<tag k="natural" v="hill" />
		<tag k="place" v="locality" />
		<tag k="ssr:stedsnr" v="271121" />
	</node>
	<node id="-899825" lat="64.0730861094" lon="11.2023111027">
		<tag k="name" v="Ekornberget" />
		<tag k="natural" v="hill" />
		<tag k="place" v="locality" />
		<tag k="ssr:stedsnr" v="453985" />
	</node>
	<node id="-899820" lat="64.0285972199" lon="10.799438887">
		<tag k="name" v="Lauvhaugen" />
		<tag k="natural" v="hill" />
		<tag k="place" v="locality" />
		<tag k="ssr:stedsnr" v="411177" />
	</node>
	<node id="-899818" lat="63.8896361097" lon="10.8608222211">
		<tag k="name" v="Bakken" />
		<tag k="natural" v="slope" />
		<tag k="place" v="locality" />
		<tag k="ssr:stedsnr" v="44481" />
	</node>
	<node id="-899812" lat="63.9689277752" lon="10.9394305586">
		<tag k="fixme" v="consider natural=peak for the most distinct mountains in the district" />
		<tag k="name" v="Bannsettheia" />
		<tag k="natural" v="hill" />
		<tag k="place" v="locality" />
		<tag k="ssr:stedsnr" v="438554" />
	</node>
	<node id="-899810" lat="63.7970027808" lon="10.4882249921">
		<tag k="name" v="Jetringstjønnheia" />
		<tag k="natural" v="hill" />
		<tag k="place" v="locality" />
		<tag k="ssr:stedsnr" v="108221" />
	</node>
	<node id="-899808" lat="63.9177861101" lon="10.8522138894">
		<tag k="alt_name" v="Nordslætthalla" />
		<tag k="name" v="Sørhalla" />
		<tag k="natural" v="slope" />
		<tag k="place" v="locality" />
		<tag k="ssr:stedsnr" v="378560" />
	</node>
	<node id="-899804" lat="64.0849361116" lon="11.2466666576">
		<tag k="fixme" v="consider natural=peak for the most distinct mountains in the district" />
		<tag k="name" v="Koltjønnåsen" />
		<tag k="natural" v="hill" />
		<tag k="place" v="locality" />
		<tag k="ssr:stedsnr" v="508847" />
	</node>
	<node id="-899799" lat="64.0063166624" lon="10.9058138873">
		<tag k="name" v="Jovasslia" />
		<tag k="natural" v="slope" />
		<tag k="place" v="locality" />
		<tag k="ssr:stedsnr" v="472120" />
	</node>
	<node id="-899798" lat="63.9921305585" lon="11.0956888904">
		<tag k="name" v="Svartberga" />
		<tag k="natural" v="hill" />
		<tag k="place" v="locality" />
		<tag k="ssr:stedsnr" v="878118" />
	</node>
	<node id="-899796" lat="63.9765194473" lon="10.9294722143">
		<tag k="fixme" v="consider natural=peak for the most distinct mountains in the district" />
		<tag k="name" v="Vakkerheia" />
		<tag k="natural" v="hill" />
		<tag k="place" v="locality" />
		<tag k="ssr:stedsnr" v="803578" />
	</node>
	<node id="-899791" lat="63.8653972232" lon="10.6767777679">
		<tag k="fixme" v="consider natural=peak for the most distinct mountains in the district" />
		<tag k="name" v="Fossheia" />
		<tag k="natural" v="hill" />
		<tag k="place" v="locality" />
		<tag k="ssr:stedsnr" v="438268" />
	</node>
	<node id="-899790" lat="63.9746333371" lon="10.9349833316">
		<tag k="name" v="Bruraheia" />
		<tag k="natural" v="hill" />
		<tag k="place" v="locality" />
		<tag k="ssr:stedsnr" v="14507" />
	</node>
	<node id="-899787" lat="63.7966472261" lon="10.5333499938">
		<tag k="name" v="Perdalsheia" />
		<tag k="natural" v="hill" />
		<tag k="place" v="locality" />
		<tag k="ssr:stedsnr" v="924435" />
	</node>
	<node id="-899786" lat="64.0023111125" lon="11.1316861137">
		<tag k="name" v="Gortjønnhøgda" />
		<tag k="natural" v="hill" />
		<tag k="place" v="locality" />
		<tag k="ssr:stedsnr" v="499881" />
	</node>
	<node id="-899785" lat="63.9205833343" lon="10.9474166756">
		<tag k="name" v="Sørlia" />
		<tag k="natural" v="slope" />
		<tag k="place" v="locality" />
		<tag k="ssr:stedsnr" v="147800" />
	</node>
	<node id="-899784" lat="63.9351805583" lon="10.7563777785">
		<tag k="name" v="Kløvheia" />
		<tag k="natural" v="hill" />
		<tag k="place" v="locality" />
		<tag k="ssr:stedsnr" v="439598" />
	</node>
	<node id="-899783" lat="63.9710833295" lon="11.0278833244">
		<tag k="fixme" v="consider natural=peak for the most distinct mountains in the district" />
		<tag k="name" v="Nygårdsheia" />
		<tag k="natural" v="hill" />
		<tag k="place" v="locality" />
		<tag k="ssr:stedsnr" v="14506" />
	</node>
	<node id="-899782" lat="63.8885305591" lon="10.783513885">
		<tag k="name" v="Slettheia" />
		<tag k="natural" v="hill" />
		<tag k="place" v="locality" />
		<tag k="ssr:stedsnr" v="271096" />
	</node>
	<node id="-899779" lat="63.9912277814" lon="10.9439000052">
		<tag k="fixme" v="consider natural=peak for the most distinct mountains in the district" />
		<tag k="name" v="Klumpan" />
		<tag k="natural" v="hill" />
		<tag k="place" v="locality" />
		<tag k="ssr:stedsnr" v="559577" />
	</node>
	<node id="-899775" lat="64.0547305516" lon="10.9723777701">
		<tag k="name" v="Spillernyhevlan" />
		<tag k="natural" v="ridge" />
		<tag k="place" v="locality" />
		<tag k="ssr:stedsnr" v="898615" />
	</node>
	<node id="-899773" lat="64.0023333324" lon="10.9175694467">
		<tag k="name" v="Steinliheia" />
		<tag k="natural" v="hill" />
		<tag k="place" v="locality" />
		<tag k="ssr:stedsnr" v="864912" />
	</node>
	<node id="-899768" lat="64.0907166684" lon="11.1571305568">
		<tag k="fixme" v="consider natural=peak for the most distinct mountains in the district" />
		<tag k="name" v="Sørlihalla" />
		<tag k="natural" v="hill" />
		<tag k="place" v="locality" />
		<tag k="ssr:stedsnr" v="654722" />
	</node>
	<node id="-899761" lat="64.0748500039" lon="11.0505416581">
		<tag k="name" v="Breitjønnheia" />
		<tag k="natural" v="hill" />
		<tag k="place" v="locality" />
		<tag k="ssr:stedsnr" v="317492" />
	</node>
	<node id="-899760" lat="63.7978527797" lon="10.6024888858">
		<tag k="name" v="Vikaura" />
		<tag k="natural" v="cliff" />
		<tag k="ssr:stedsnr" v="756044" />
	</node>
	<node id="-899758" lat="64.0879833322" lon="11.2753166622">
		<tag k="name" v="Langdalen" />
		<tag k="natural" v="valley" />
		<tag k="place" v="locality" />
		<tag k="ssr:stedsnr" v="326844" />
	</node>
	<node id="-899756" lat="63.9654249983" lon="10.9930916715">
		<tag k="fixme" v="consider natural=peak for the most distinct mountains in the district" />
		<tag k="name" v="Litlbuhalla" />
		<tag k="natural" v="hill" />
		<tag k="place" v="locality" />
		<tag k="ssr:stedsnr" v="878131" />
	</node>
	<node id="-899755" lat="63.9817083367" lon="10.849591672">
		<tag k="name" v="Fersverrilia" />
		<tag k="natural" v="slope" />
		<tag k="place" v="locality" />
		<tag k="ssr:stedsnr" v="411148" />
	</node>
	<node id="-899749" lat="64.0869555572" lon="11.2746444525">
		<tag k="name" v="Nedre Persvedalshalla" />
		<tag k="natural" v="slope" />
		<tag k="place" v="locality" />
		<tag k="ssr:stedsnr" v="326843" />
	</node>
	<node id="-899746" lat="64.0071166686" lon="11.0882916602">
		<tag k="fixme" v="consider natural=peak for the most distinct mountains in the district" />
		<tag k="name" v="Almliheia" />
		<tag k="natural" v="hill" />
		<tag k="place" v="locality" />
		<tag k="ssr:stedsnr" v="560905" />
	</node>
	<node id="-899745" lat="64.0004916704" lon="11.1019694535">
		<tag k="name" v="Lauvholet" />
		<tag k="natural" v="valley" />
		<tag k="place" v="locality" />
		<tag k="ssr:stedsnr" v="560907" />
	</node>
	<node id="-899743" lat="63.7736944467" lon="10.551477777">
		<tag k="name" v="Farbekkskaret" />
		<tag k="natural" v="valley" />
		<tag k="place" v="locality" />
		<tag k="ssr:stedsnr" v="28024" />
	</node>
	<node id="-899742" lat="64.0500027816" lon="10.8371277714">
		<tag k="name" v="Reinsjødalen" />
		<tag k="natural" v="valley" />
		<tag k="place" v="locality" />
		<tag k="ssr:stedsnr" v="592689" />
	</node>
	<node id="-899739" lat="64.0341361118" lon="10.8654222214">
		<tag k="name" v="Sillerbråttet" />
		<tag k="natural" v="hill" />
		<tag k="place" v="locality" />
		<tag k="ssr:stedsnr" v="714593" />
	</node>
	<node id="-899738" lat="63.8786472201" lon="10.5988333241">
		<tag k="fixme" v="consider natural=peak for the most distinct mountains in the district" />
		<tag k="name" v="Mefjellet" />
		<tag k="natural" v="hill" />
		<tag k="place" v="locality" />
		<tag k="ssr:stedsnr" v="533192" />
	</node>
	<node id="-899734" lat="64.0850888915" lon="11.260397219">
		<tag k="name" v="Grønnsvedalshalla" />
		<tag k="natural" v="slope" />
		<tag k="place" v="locality" />
		<tag k="ssr:stedsnr" v="326851" />
	</node>
	<node id="-899732" lat="63.9341805511" lon="10.8020777757">
		<tag k="fixme" v="consider natural=peak for the most distinct mountains in the district" />
		<tag k="name" v="Skimmelheia" />
		<tag k="natural" v="hill" />
		<tag k="place" v="locality" />
		<tag k="ssr:stedsnr" v="439592" />
	</node>
	<node id="-899731" lat="63.9056249966" lon="10.7680249924">
		<tag k="fixme" v="consider natural=peak for the most distinct mountains in the district" />
		<tag k="name" v="Vakkerheia" />
		<tag k="natural" v="hill" />
		<tag k="place" v="locality" />
		<tag k="ssr:stedsnr" v="438534" />
	</node>
	<node id="-899727" lat="63.9376722236" lon="10.9592333234">
		<tag k="name" v="Svartdalen" />
		<tag k="natural" v="valley" />
		<tag k="place" v="locality" />
		<tag k="ssr:stedsnr" v="439591" />
	</node>
	<node id="-899725" lat="63.99830556" lon="10.8846111026">
		<tag k="name" v="Tjønnfjellet" />
		<tag k="natural" v="hill" />
		<tag k="place" v="locality" />
		<tag k="ssr:stedsnr" v="472113" />
	</node>
	<node id="-899724" lat="64.0863722233" lon="11.163805548">
		<tag k="fixme" v="consider natural=peak for the most distinct mountains in the district" />
		<tag k="name" v="Røsstømthalla" />
		<tag k="natural" v="hill" />
		<tag k="place" v="locality" />
		<tag k="ssr:stedsnr" v="594694" />
	</node>
	<node id="-899721" lat="63.8309805523" lon="10.6321027829">
		<tag k="fixme" v="consider natural=peak for the most distinct mountains in the district" />
		<tag k="name" v="Tørrkammen" />
		<tag k="natural" v="hill" />
		<tag k="place" v="locality" />
		<tag k="ssr:stedsnr" v="498532" />
	</node>
	<node id="-899717" lat="64.1003499972" lon="11.2138888902">
		<tag k="name" v="Tømthaugen" />
		<tag k="natural" v="hill" />
		<tag k="place" v="locality" />
		<tag k="ssr:stedsnr" v="644751" />
	</node>
	<node id="-899714" lat="63.9533972207" lon="10.9676972218">
		<tag k="fixme" v="consider natural=peak for the most distinct mountains in the district" />
		<tag k="name" v="Høgåsen" />
		<tag k="natural" v="hill" />
		<tag k="place" v="locality" />
		<tag k="ssr:stedsnr" v="878126" />
	</node>
	<node id="-899711" lat="63.7838416689" lon="10.5843555654">
		<tag k="name" v="Ytterliskaret" />
		<tag k="natural" v="valley" />
		<tag k="place" v="locality" />
		<tag k="ssr:stedsnr" v="28019" />
	</node>
	<node id="-899709" lat="64.0368527799" lon="11.093383327">
		<tag k="name" v="Isnesdalen" />
		<tag k="natural" v="valley" />
		<tag k="place" v="locality" />
		<tag k="ssr:stedsnr" v="958011" />
	</node>
	<node id="-899708" lat="64.0192000041" lon="10.7705361173">
		<tag k="name" v="Kastbotenlia" />
		<tag k="natural" v="slope" />
		<tag k="place" v="locality" />
		<tag k="ssr:stedsnr" v="351181" />
	</node>
	<node id="-899703" lat="63.9418999976" lon="10.9823416691">
		<tag k="fixme" v="consider natural=peak for the most distinct mountains in the district" />
		<tag k="name" v="Høgkammen" />
		<tag k="natural" v="hill" />
		<tag k="place" v="locality" />
		<tag k="ssr:stedsnr" v="864662" />
	</node>
	<node id="-899700" lat="64.1263333356" lon="11.1759166696">
		<tag k="name" v="Vånnåbukammen" />
		<tag k="natural" v="ridge" />
		<tag k="place" v="locality" />
		<tag k="ssr:stedsnr" v="533595" />
	</node>
	<node id="-899698" lat="64.0724222181" lon="11.1474638962">
		<tag k="fixme" v="consider natural=peak for the most distinct mountains in the district" />
		<tag k="name" v="Aunkammen" />
		<tag k="natural" v="hill" />
		<tag k="place" v="locality" />
		<tag k="ssr:stedsnr" v="803561" />
	</node>
	<node id="-899696" lat="63.8972861074" lon="10.8257833417">
		<tag k="name" v="Saglia" />
		<tag k="natural" v="slope" />
		<tag k="place" v="locality" />
		<tag k="ssr:stedsnr" v="878091" />
	</node>
	<node id="-899695" lat="63.8036944461" lon="10.5509722252">
		<tag k="name" v="Austerskaret" />
		<tag k="natural" v="valley" />
		<tag k="place" v="locality" />
		<tag k="ssr:stedsnr" v="756024" />
	</node>
	<node id="-899694" lat="64.0856583351" lon="11.2176277845">
		<tag k="fixme" v="consider natural=peak for the most distinct mountains in the district" />
		<tag k="name" v="Fosselhalla" />
		<tag k="natural" v="hill" />
		<tag k="place" v="locality" />
		<tag k="ssr:stedsnr" v="453946" />
	</node>
	<node id="-899692" lat="63.9694111134" lon="10.7495138942">
		<tag k="name" v="Solskinskvelven" />
		<tag k="natural" v="hill" />
		<tag k="place" v="locality" />
		<tag k="ssr:stedsnr" v="559558" />
	</node>
	<node id="-899691" lat="63.9248361075" lon="10.8378777732">
		<tag k="name" v="Storhaugen" />
		<tag k="natural" v="hill" />
		<tag k="place" v="locality" />
		<tag k="ssr:stedsnr" v="351167" />
	</node>
	<node id="-899689" lat="63.9402472181" lon="10.978980564">
		<tag k="fixme" v="consider natural=peak for the most distinct mountains in the district" />
		<tag k="name" v="Kammen" />
		<tag k="natural" v="hill" />
		<tag k="place" v="locality" />
		<tag k="ssr:stedsnr" v="878090" />
	</node>
	<node id="-899687" lat="63.93271389" lon="10.9491277815">
		<tag k="name" v="Snertviklia" />
		<tag k="natural" v="slope" />
		<tag k="place" v="locality" />
		<tag k="ssr:stedsnr" v="271074" />
	</node>
	<node id="-899684" lat="63.9907444451" lon="10.7911416742">
		<tag k="fixme" v="consider natural=peak for the most distinct mountains in the district" />
		<tag k="name" v="Middagsliåsen" />
		<tag k="natural" v="hill" />
		<tag k="place" v="locality" />
		<tag k="ssr:stedsnr" v="108184" />
	</node>
	<node id="-899683" lat="64.1289555556" lon="11.0393000073">
		<tag k="fixme" v="consider natural=peak for the most distinct mountains in the district" />
		<tag k="name" v="Bjønnaheia" />
		<tag k="natural" v="hill" />
		<tag k="place" v="locality" />
		<tag k="ssr:stedsnr" v="351554" />
	</node>
	<node id="-899674" lat="63.9242083296" lon="10.9072944514">
		<tag k="fixme" v="consider natural=peak for the most distinct mountains in the district" />
		<tag k="name" v="Hattheia" />
		<tag k="natural" v="hill" />
		<tag k="place" v="locality" />
		<tag k="ssr:stedsnr" v="317473" />
	</node>
	<node id="-899671" lat="64.0635722239" lon="11.1251416607">
		<tag k="fixme" v="consider natural=peak for the most distinct mountains in the district" />
		<tag k="name" v="Litlengåsen" />
		<tag k="natural" v="hill" />
		<tag k="place" v="locality" />
		<tag k="ssr:stedsnr" v="654700" />
	</node>
	<node id="-899670" lat="64.104005551" lon="11.1307111195">
		<tag k="fixme" v="consider natural=peak for the most distinct mountains in the district" />
		<tag k="name" v="Pålheia" />
		<tag k="natural" v="hill" />
		<tag k="place" v="locality" />
		<tag k="ssr:stedsnr" v="776527" />
	</node>
	<node id="-899667" lat="64.0457944427" lon="11.2009472163">
		<tag k="name" v="Bjørnadalen" />
		<tag k="natural" v="valley" />
		<tag k="place" v="locality" />
		<tag k="ssr:stedsnr" v="393000" />
	</node>
	<node id="-899666" lat="64.1237083374" lon="11.1131611075">
		<tag k="name" v="Langvasshevlan" />
		<tag k="natural" v="ridge" />
		<tag k="place" v="locality" />
		<tag k="ssr:stedsnr" v="351562" />
	</node>
	<node id="-899660" lat="63.9852194451" lon="10.8891111195">
		<tag k="name" v="Damhaugen" />
		<tag k="natural" v="hill" />
		<tag k="place" v="locality" />
		<tag k="ssr:stedsnr" v="472103" />
	</node>
	<node id="-899654" lat="63.8075416651" lon="10.5803555613">
		<tag k="name" v="Rennberget" />
		<tag k="natural" v="hill" />
		<tag k="place" v="locality" />
		<tag k="ssr:stedsnr" v="756020" />
	</node>
	<node id="-899653" lat="64.0102722265" lon="10.9447888818">
		<tag k="name" v="Kjåppåhaugen" />
		<tag k="natural" v="hill" />
		<tag k="place" v="locality" />
		<tag k="ssr:stedsnr" v="593095" />
	</node>
	<node id="-899651" lat="63.8863305591" lon="10.8245944509">
		<tag k="fixme" v="consider natural=peak for the most distinct mountains in the district" />
		<tag k="loc_name" v="Lomtjønnheia" />
		<tag k="name" v="Stavremsheia" />
		<tag k="natural" v="hill" />
		<tag k="place" v="locality" />
		<tag k="ssr:stedsnr" v="803560" />
	</node>
	<node id="-899646" lat="64.1220416669" lon="11.1255555471">
		<tag k="name" v="Jodalen" />
		<tag k="natural" v="valley" />
		<tag k="place" v="locality" />
		<tag k="ssr:stedsnr" v="48532" />
	</node>
	<node id="-899643" lat="63.9608861072" lon="10.9815972253">
		<tag k="name" v="Kalvtrømarkberga" />
		<tag k="natural" v="hill" />
		<tag k="place" v="locality" />
		<tag k="ssr:stedsnr" v="817127" />
	</node>
	<node id="-899635" lat="64.1328611103" lon="11.1538861194">
		<tag k="name" v="Sagdalen" />
		<tag k="natural" v="valley" />
		<tag k="place" v="locality" />
		<tag k="ssr:stedsnr" v="48533" />
	</node>
	<node id="-899631" lat="63.9303666642" lon="10.816636106">
		<tag k="fixme" v="consider natural=peak for the most distinct mountains in the district" />
		<tag k="name" v="Finnåsen" />
		<tag k="natural" v="hill" />
		<tag k="place" v="locality" />
		<tag k="ssr:stedsnr" v="776156" />
	</node>
	<node id="-899624" lat="64.0112194408" lon="10.7811722241">
		<tag k="name" v="Nordlonhaugen" />
		<tag k="natural" v="hill" />
		<tag k="place" v="locality" />
		<tag k="ssr:stedsnr" v="533163" />
	</node>
	<node id="-899623" lat="64.0583944459" lon="11.1856472235">
		<tag k="fixme" v="consider natural=peak for the most distinct mountains in the district" />
		<tag k="name" v="Skåkmyråsen" />
		<tag k="natural" v="hill" />
		<tag k="place" v="locality" />
		<tag k="ssr:stedsnr" v="332988" />
	</node>
	<node id="-899616" lat="64.0157611143" lon="10.9330722188">
		<tag k="fixme" v="consider natural=peak for the most distinct mountains in the district" />
		<tag k="name" v="Stordalshøgda" />
		<tag k="natural" v="hill" />
		<tag k="place" v="locality" />
		<tag k="ssr:stedsnr" v="290066" />
	</node>
	<node id="-899614" lat="64.0667166705" lon="10.9432555482">
		<tag k="fixme" v="consider natural=peak for the most distinct mountains in the district" />
		<tag k="name" v="Stuvågfjellet" />
		<tag k="natural" v="hill" />
		<tag k="place" v="locality" />
		<tag k="ssr:stedsnr" v="803572" />
	</node>
	<node id="-899613" lat="64.0342583291" lon="11.1599666642">
		<tag k="name" v="Gokshaugen" />
		<tag k="natural" v="hill" />
		<tag k="place" v="locality" />
		<tag k="ssr:stedsnr" v="317993" />
	</node>
	<node id="-899601" lat="63.9592944472" lon="10.9198333286">
		<tag k="fixme" v="consider natural=peak for the most distinct mountains in the district" />
		<tag k="name" v="Vakkerdalsheia" />
		<tag k="natural" v="hill" />
		<tag k="place" v="locality" />
		<tag k="ssr:stedsnr" v="196582" />
	</node>
	<node id="-899597" lat="63.8138500006" lon="10.584711112">
		<tag k="name" v="Vardalen" />
		<tag k="natural" v="valley" />
		<tag k="place" v="locality" />
		<tag k="ssr:stedsnr" v="149021" />
	</node>
	<node id="-899595" lat="64.0855638868" lon="11.260313883">
		<tag k="name" v="Øvre Grønnsvedalen" />
		<tag k="natural" v="valley" />
		<tag k="place" v="locality" />
		<tag k="ssr:stedsnr" v="568845" />
	</node>
	<node id="-899594" lat="63.9806138874" lon="10.9081583345">
		<tag k="name" v="Holmheia" />
		<tag k="natural" v="hill" />
		<tag k="place" v="locality" />
		<tag k="ssr:stedsnr" v="776151" />
	</node>
	<node id="-899591" lat="63.9006750044" lon="10.7466000028">
		<tag k="loc_name" v="Bjønnadalen" />
		<tag k="name" v="Sør-Bjørnådalen" />
		<tag k="natural" v="valley" />
		<tag k="place" v="locality" />
		<tag k="ssr:stedsnr" v="195537" />
	</node>
	<node id="-899590" lat="64.0995277817" lon="11.2208083281">
		<tag k="name" v="Brenthaugen" />
		<tag k="natural" v="hill" />
		<tag k="place" v="locality" />
		<tag k="ssr:stedsnr" v="402793" />
	</node>
	<node id="-899589" lat="63.7895555546" lon="10.4723722302">
		<tag k="name" v="Jetringstjønnheia" />
		<tag k="natural" v="hill" />
		<tag k="place" v="locality" />
		<tag k="ssr:stedsnr" v="756028" />
	</node>
	<node id="-899587" lat="63.9735000006" lon="11.0019472301">
		<tag k="name" v="Sundnesseterheia" />
		<tag k="natural" v="hill" />
		<tag k="place" v="locality" />
		<tag k="ssr:stedsnr" v="196584" />
	</node>
	<node id="-899585" lat="64.0846972196" lon="11.2476444422">
		<tag k="fixme" v="consider natural=peak for the most distinct mountains in the district" />
		<tag k="name" v="Høghalla" />
		<tag k="natural" v="hill" />
		<tag k="place" v="locality" />
		<tag k="ssr:stedsnr" v="620184" />
	</node>
	<node id="-899581" lat="63.9301916631" lon="10.7994777724">
		<tag k="name" v="Lauvlia" />
		<tag k="natural" v="slope" />
		<tag k="place" v="locality" />
		<tag k="ssr:stedsnr" v="864646" />
	</node>
	<node id="-899580" lat="64.0103250021" lon="10.796505557">
		<tag k="name" v="Sjulkampen" />
		<tag k="natural" v="hill" />
		<tag k="place" v="locality" />
		<tag k="ssr:stedsnr" v="108168" />
	</node>
	<node id="-899575" lat="64.1021305548" lon="11.2457111133">
		<tag k="name" v="Vesterdalen" />
		<tag k="natural" v="valley" />
		<tag k="place" v="locality" />
		<tag k="ssr:stedsnr" v="447184" />
	</node>
	<node id="-899574" lat="63.9576666697" lon="10.8025694488">
		<tag k="name" v="Hestberget" />
		<tag k="natural" v="hill" />
		<tag k="place" v="locality" />
		<tag k="ssr:stedsnr" v="499566" />
	</node>
	<node id="-899568" lat="63.790558329" lon="10.5058916741">
		<tag k="name" v="Rolsliheia" />
		<tag k="natural" v="hill" />
		<tag k="place" v="locality" />
		<tag k="ssr:stedsnr" v="756001" />
	</node>
	<node id="-899563" lat="63.9632722226" lon="10.8479444482">
		<tag k="fixme" v="consider natural=peak for the most distinct mountains in the district" />
		<tag k="name" v="Nonsheia" />
		<tag k="natural" v="hill" />
		<tag k="place" v="locality" />
		<tag k="ssr:stedsnr" v="499568" />
	</node>
	<node id="-899562" lat="64.0865777735" lon="10.9258194401">
		<tag k="fixme" v="consider natural=peak for the most distinct mountains in the district" />
		<tag k="name" v="Lågheia" />
		<tag k="natural" v="hill" />
		<tag k="place" v="locality" />
		<tag k="ssr:stedsnr" v="108579" />
	</node>
	<node id="-899557" lat="63.8200527741" lon="10.6146416751">
		<tag k="fixme" v="consider natural=peak for the most distinct mountains in the district" />
		<tag k="name" v="Raudtindkammen" />
		<tag k="natural" v="hill" />
		<tag k="place" v="locality" />
		<tag k="ssr:stedsnr" v="256454" />
	</node>
	<node id="-899554" lat="64.0053305592" lon="10.9724250027">
		<tag k="name" v="Svartberga" />
		<tag k="natural" v="hill" />
		<tag k="place" v="locality" />
		<tag k="ssr:stedsnr" v="472072" />
	</node>
	<node id="-899550" lat="63.899611115" lon="10.8694333427">
		<tag k="fixme" v="consider natural=peak for the most distinct mountains in the district" />
		<tag k="name" v="Raudmyrheia" />
		<tag k="natural" v="hill" />
		<tag k="place" v="locality" />
		<tag k="ssr:stedsnr" v="195534" />
	</node>
	<node id="-899549" lat="64.0976500035" lon="11.2007416641">
		<tag k="name" v="Einarhaugen" />
		<tag k="natural" v="hill" />
		<tag k="place" v="locality" />
		<tag k="ssr:stedsnr" v="438510" />
	</node>
	<node id="-899545" lat="64.0531694473" lon="11.0701166707">
		<tag k="name" v="Storhaugan" />
		<tag k="natural" v="hill" />
		<tag k="place" v="locality" />
		<tag k="ssr:stedsnr" v="134974" />
	</node>
	<node id="-899544" lat="64.1001166657" lon="11.2603277794">
		<tag k="name" v="Aunberga" />
		<tag k="natural" v="hill" />
		<tag k="place" v="locality" />
		<tag k="ssr:stedsnr" v="265214" />
	</node>
	<node id="-899539" lat="64.0192611138" lon="11.1426999975">
		<tag k="fixme" v="consider natural=peak for the most distinct mountains in the district" />
		<tag k="name" v="Tømseåsen" />
		<tag k="natural" v="hill" />
		<tag k="place" v="locality" />
		<tag k="ssr:stedsnr" v="256984" />
	</node>
	<node id="-899537" lat="63.9568166644" lon="10.7659222211">
		<tag k="name" v="Ulvasshaugen" />
		<tag k="natural" v="hill" />
		<tag k="place" v="locality" />
		<tag k="ssr:stedsnr" v="196576" />
	</node>
	<node id="-899535" lat="64.0547333361" lon="11.1968527845">
		<tag k="name" v="Hessimyråsen" />
		<tag k="natural" v="hill" />
		<tag k="place" v="locality" />
		<tag k="ssr:stedsnr" v="89991" />
	</node>
	<node id="-899534" lat="64.1066777808" lon="11.3020722222">
		<tag k="name" v="Brennberget" />
		<tag k="natural" v="hill" />
		<tag k="place" v="locality" />
		<tag k="ssr:stedsnr" v="265212" />
	</node>
	<node id="-899533" lat="64.0920833312" lon="11.1311500019">
		<tag k="name" v="Kosten" />
		<tag k="natural" v="hill" />
		<tag k="place" v="locality" />
		<tag k="ssr:stedsnr" v="958739" />
	</node>
	<node id="-899532" lat="64.101947218" lon="11.1601138821">
		<tag k="fixme" v="consider natural=peak for the most distinct mountains in the district" />
		<tag k="name" v="Kattarompheia" />
		<tag k="natural" v="hill" />
		<tag k="place" v="locality" />
		<tag k="ssr:stedsnr" v="351534" />
	</node>
	<node id="-899528" lat="63.9973249985" lon="11.120658341">
		<tag k="fixme" v="consider natural=peak for the most distinct mountains in the district" />
		<tag k="name" v="Svartåsen" />
		<tag k="natural" v="hill" />
		<tag k="place" v="locality" />
		<tag k="ssr:stedsnr" v="453122" />
	</node>
	<node id="-899525" lat="63.9538805559" lon="10.9342388789">
		<tag k="fixme" v="consider natural=peak for the most distinct mountains in the district" />
		<tag k="name" v="Lifjellet" />
		<tag k="natural" v="hill" />
		<tag k="place" v="locality" />
		<tag k="ssr:stedsnr" v="108156" />
	</node>
	<node id="-899524" lat="64.0827277765" lon="11.2360805637">
		<tag k="alt_name" v="Holderberget" />
		<tag k="name" v="Hollerberget" />
		<tag k="natural" v="hill" />
		<tag k="place" v="locality" />
		<tag k="ssr:stedsnr" v="317187" />
	</node>
	<node id="-899523" lat="63.9732750009" lon="10.8302583299">
		<tag k="name" v="Simdalsklompan" />
		<tag k="natural" v="hill" />
		<tag k="place" v="locality" />
		<tag k="ssr:stedsnr" v="533137" />
	</node>
	<node id="-899518" lat="64.1093722255" lon="11.2152416771">
		<tag k="fixme" v="consider natural=peak for the most distinct mountains in the district" />
		<tag k="name" v="Husåsen" />
		<tag k="natural" v="hill" />
		<tag k="place" v="locality" />
		<tag k="ssr:stedsnr" v="317450" />
	</node>
	<node id="-899507" lat="64.0719444479" lon="11.1775388916">
		<tag k="name" v="Aunkammen" />
		<tag k="natural" v="hill" />
		<tag k="place" v="locality" />
		<tag k="ssr:stedsnr" v="89980" />
	</node>
	<node id="-899503" lat="64.0305305542" lon="10.8042722229">
		<tag k="name" v="Midtvassdalen" />
		<tag k="natural" v="valley" />
		<tag k="place" v="locality" />
		<tag k="ssr:stedsnr" v="169163" />
	</node>
	<node id="-899497" lat="64.1074555569" lon="11.2995250091">
		<tag k="name" v="Høgberget" />
		<tag k="natural" v="hill" />
		<tag k="place" v="locality" />
		<tag k="ssr:stedsnr" v="265190" />
	</node>
	<node id="-899494" lat="63.9946250043" lon="11.1642722222">
		<tag k="name" v="Sandnesberga" />
		<tag k="natural" v="hill" />
		<tag k="place" v="locality" />
		<tag k="ssr:stedsnr" v="89984" />
	</node>
	<node id="-899492" lat="63.9549527745" lon="10.9251083282">
		<tag k="name" v="Vakkerdalen" />
		<tag k="natural" v="valley" />
		<tag k="place" v="locality" />
		<tag k="ssr:stedsnr" v="196571" />
	</node>
	<node id="-899490" lat="63.74427222" lon="10.4615861093">
		<tag k="alt_name" v="Budeiklompen" />
		<tag k="name" v="Budeiklumpen" />
		<tag k="natural" v="hill" />
		<tag k="place" v="locality" />
		<tag k="ssr:stedsnr" v="134717" />
	</node>
	<node id="-899482" lat="63.8005861091" lon="10.5430249991">
		<tag k="name" v="Hestliskaret" />
		<tag k="natural" v="valley" />
		<tag k="place" v="locality" />
		<tag k="ssr:stedsnr" v="271033" />
	</node>
	<node id="-899480" lat="64.0365972265" lon="10.9838777682">
		<tag k="fixme" v="consider natural=peak for the most distinct mountains in the district" />
		<tag k="name" v="Sandvassheia" />
		<tag k="natural" v="hill" />
		<tag k="place" v="locality" />
		<tag k="ssr:stedsnr" v="15000" />
	</node>
	<node id="-899478" lat="64.1071333358" lon="11.0730666761">
		<tag k="fixme" v="consider natural=peak for the most distinct mountains in the district" />
		<tag k="name" v="Langvassheia" />
		<tag k="natural" v="hill" />
		<tag k="place" v="locality" />
		<tag k="ssr:stedsnr" v="317455" />
	</node>
	<node id="-899477" lat="63.7746277786" lon="10.5036833234">
		<tag k="name" v="Storhaugen" />
		<tag k="natural" v="hill" />
		<tag k="place" v="locality" />
		<tag k="ssr:stedsnr" v="756006" />
	</node>
	<node id="-899476" lat="64.0157388851" lon="10.822580559">
		<tag k="name" v="Måggåtjønnklumpen" />
		<tag k="natural" v="hill" />
		<tag k="place" v="locality" />
		<tag k="ssr:stedsnr" v="256975" />
	</node>
	<node id="-899475" lat="64.101672224" lon="11.0873944547">
		<tag k="fixme" v="consider natural=peak for the most distinct mountains in the district" />
		<tag k="name" v="Svartvassheia" />
		<tag k="natural" v="hill" />
		<tag k="place" v="locality" />
		<tag k="ssr:stedsnr" v="317456" />
	</node>
	<node id="-899474" lat="64.0518805579" lon="11.1671916753">
		<tag k="fixme" v="consider natural=peak for the most distinct mountains in the district" />
		<tag k="name" v="Brattreitåsen" />
		<tag k="natural" v="hill" />
		<tag k="place" v="locality" />
		<tag k="ssr:stedsnr" v="377951" />
	</node>
	<node id="-899470" lat="64.1156138866" lon="11.0710861016">
		<tag k="name" v="Mehaugen" />
		<tag k="natural" v="hill" />
		<tag k="place" v="locality" />
		<tag k="ssr:stedsnr" v="74506" />
	</node>
	<node id="-899461" lat="64.105022219" lon="11.2195305627">
		<tag k="name" v="Kristenhalsen" />
		<tag k="natural" v="valley" />
		<tag k="place" v="locality" />
		<tag k="ssr:stedsnr" v="827773" />
	</node>
	<node id="-899459" lat="64.0325638906" lon="11.1856222121">
		<tag k="name" v="Nerenghalla" />
		<tag k="natural" v="hill" />
		<tag k="place" v="locality" />
		<tag k="ssr:stedsnr" v="392965" />
	</node>
	<node id="-899458" lat="64.0192583368" lon="10.8294138953">
		<tag k="fixme" v="consider natural=peak for the most distinct mountains in the district" />
		<tag k="name" v="Vakkerslettåsen" />
		<tag k="natural" v="hill" />
		<tag k="place" v="locality" />
		<tag k="ssr:stedsnr" v="169159" />
	</node>
	<node id="-899457" lat="64.0935194483" lon="11.2755">
		<tag k="name" v="Stordalen" />
		<tag k="natural" v="valley" />
		<tag k="place" v="locality" />
		<tag k="ssr:stedsnr" v="568822" />
	</node>
	<node id="-899453" lat="64.0836861068" lon="11.1822249904">
		<tag k="fixme" v="consider natural=peak for the most distinct mountains in the district" />
		<tag k="name" v="Tortåsen" />
		<tag k="natural" v="hill" />
		<tag k="place" v="locality" />
		<tag k="ssr:stedsnr" v="332951" />
	</node>
	<node id="-899444" lat="63.9729388887" lon="10.9956138846">
		<tag k="name" v="Halsberget" />
		<tag k="natural" v="hill" />
		<tag k="place" v="locality" />
		<tag k="ssr:stedsnr" v="169150" />
	</node>
	<node id="-899439" lat="64.0137166661" lon="10.8162694343">
		<tag k="name" v="Kruvhalla" />
		<tag k="natural" v="hill" />
		<tag k="place" v="locality" />
		<tag k="ssr:stedsnr" v="256973" />
	</node>
	<node id="-899433" lat="64.123297223" lon="11.0777861109">
		<tag k="fixme" v="consider natural=peak for the most distinct mountains in the district" />
		<tag k="name" v="Ferjheia" />
		<tag k="natural" v="hill" />
		<tag k="place" v="locality" />
		<tag k="ssr:stedsnr" v="898551" />
	</node>
	<node id="-899429" lat="63.7601749979" lon="10.4993888936">
		<tag k="fixme" v="consider natural=peak for the most distinct mountains in the district" />
		<tag k="name" v="Småkallrådet" />
		<tag k="natural" v="hill" />
		<tag k="place" v="locality" />
		<tag k="ssr:stedsnr" v="271020" />
	</node>
	<node id="-899426" lat="63.9915833331" lon="10.8607916566">
		<tag k="name" v="Gammelmerket" />
		<tag k="natural" v="hill" />
		<tag k="place" v="locality" />
		<tag k="ssr:stedsnr" v="351124" />
	</node>
	<node id="-899424" lat="63.98320833" lon="10.9195527726">
		<tag k="name" v="Middagsskaret" />
		<tag k="natural" v="valley" />
		<tag k="place" v="locality" />
		<tag k="ssr:stedsnr" v="169145" />
	</node>
	<node id="-899421" lat="63.8034388922" lon="10.5630249988">
		<tag k="fixme" v="consider natural=peak for the most distinct mountains in the district" />
		<tag k="name" v="Rognåsen" />
		<tag k="natural" v="hill" />
		<tag k="place" v="locality" />
		<tag k="ssr:stedsnr" v="271031" />
	</node>
	<node id="-899420" lat="63.9978861088" lon="10.9206805456">
		<tag k="name" v="Storsteinberget" />
		<tag k="natural" v="hill" />
		<tag k="place" v="locality" />
		<tag k="ssr:stedsnr" v="741670" />
	</node>
	<node id="-899418" lat="64.034713892" lon="11.1472333281">
		<tag k="name" v="Skurven" />
		<tag k="natural" v="hill" />
		<tag k="place" v="locality" />
		<tag k="ssr:stedsnr" v="230441" />
	</node>
	<node id="-899416" lat="64.0777027756" lon="11.1898749971">
		<tag k="name" v="Hansdalen" />
		<tag k="natural" v="valley" />
		<tag k="place" v="locality" />
		<tag k="ssr:stedsnr" v="574978" />
	</node>
	<node id="-899410" lat="64.0619111092" lon="11.0685333259">
		<tag k="name" v="Langdalen" />
		<tag k="natural" v="valley" />
		<tag k="place" v="locality" />
		<tag k="ssr:stedsnr" v="864602" />
	</node>
	<node id="-899409" lat="63.8131888911" lon="10.5675750084">
		<tag k="name" v="Rognåsberga" />
		<tag k="natural" v="hill" />
		<tag k="place" v="locality" />
		<tag k="ssr:stedsnr" v="271027" />
	</node>
	<node id="-899408" lat="64.0707583363" lon="11.1154916594">
		<tag k="name" v="Seterlidalen" />
		<tag k="natural" v="valley" />
		<tag k="place" v="locality" />
		<tag k="ssr:stedsnr" v="107714" />
	</node>
	<node id="-899407" lat="64.0258611082" lon="11.1377916698">
		<tag k="fixme" v="consider natural=peak for the most distinct mountains in the district" />
		<tag k="name" v="Litlstakkåsen" />
		<tag k="natural" v="hill" />
		<tag k="place" v="locality" />
		<tag k="ssr:stedsnr" v="716505" />
	</node>
	<node id="-899406" lat="64.0753972219" lon="11.2311555513">
		<tag k="name" v="Ressemlia" />
		<tag k="natural" v="slope" />
		<tag k="place" v="locality" />
		<tag k="ssr:stedsnr" v="89964" />
	</node>
	<node id="-899403" lat="64.0934722223" lon="11.1657861033">
		<tag k="fixme" v="consider natural=peak for the most distinct mountains in the district" />
		<tag k="name" v="Litlheia" />
		<tag k="natural" v="hill" />
		<tag k="place" v="locality" />
		<tag k="ssr:stedsnr" v="958729" />
	</node>
	<node id="-899395" lat="64.0841472258" lon="11.2843388834">
		<tag k="name" v="Vedaberget" />
		<tag k="natural" v="hill" />
		<tag k="place" v="locality" />
		<tag k="ssr:stedsnr" v="204824" />
	</node>
	<node id="-899393" lat="63.9639027822" lon="10.9500333322">
		<tag k="name" v="Almliberga" />
		<tag k="place" v="locality" />
		<tag k="ssr:stedsnr" v="329361" />
	</node>
	<node id="-899389" lat="63.7748361087" lon="10.4597694406">
		<tag k="name" v="Blankheia" />
		<tag k="natural" v="hill" />
		<tag k="place" v="locality" />
		<tag k="ssr:stedsnr" v="271010" />
	</node>
	<node id="-899387" lat="64.0449083343" lon="11.0096055521">
		<tag k="name" v="Bjørbekkdalen" />
		<tag k="natural" v="valley" />
		<tag k="old_name" v="Bjørkbekkdalen" />
		<tag k="place" v="locality" />
		<tag k="ssr:stedsnr" v="412676" />
	</node>
	<node id="-899384" lat="63.805405552" lon="10.5381388922">
		<tag k="name" v="Storhaugen" />
		<tag k="natural" v="hill" />
		<tag k="place" v="locality" />
		<tag k="ssr:stedsnr" v="620426" />
	</node>
	<node id="-899382" lat="64.0699055541" lon="11.1694361019">
		<tag k="name" v="Måssåmyrhøgda" />
		<tag k="natural" v="hill" />
		<tag k="place" v="locality" />
		<tag k="ssr:stedsnr" v="514978" />
	</node>
	<node id="-899381" lat="64.0958916627" lon="11.0464083397">
		<tag k="name" v="Hoven" />
		<tag k="place" v="locality" />
		<tag k="ssr:stedsnr" v="135499" />
	</node>
	<node id="-899380" lat="64.0928583351" lon="11.2902722191">
		<tag k="name" v="Høgberget" />
		<tag k="natural" v="hill" />
		<tag k="place" v="locality" />
		<tag k="ssr:stedsnr" v="438208" />
	</node>
	<node id="-899379" lat="64.0216027735" lon="11.0867166659">
		<tag k="fixme" v="consider natural=peak for the most distinct mountains in the district" />
		<tag k="name" v="Brunheia" />
		<tag k="natural" v="hill" />
		<tag k="place" v="locality" />
		<tag k="ssr:stedsnr" v="655062" />
	</node>
	<node id="-899376" lat="64.1066249986" lon="11.2644638805">
		<tag k="fixme" v="consider natural=peak for the most distinct mountains in the district" />
		<tag k="name" v="Dalhalla" />
		<tag k="natural" v="hill" />
		<tag k="place" v="locality" />
		<tag k="ssr:stedsnr" v="811194" />
	</node>
	<node id="-899374" lat="63.9352027793" lon="10.9088972168">
		<tag k="name" v="Langådalen" />
		<tag k="natural" v="valley" />
		<tag k="place" v="locality" />
		<tag k="ssr:stedsnr" v="742490" />
	</node>
	<node id="-899365" lat="64.09517778" lon="11.1969805483">
		<tag k="fixme" v="consider natural=peak for the most distinct mountains in the district" />
		<tag k="name" v="Lønnengåsen" />
		<tag k="natural" v="hill" />
		<tag k="place" v="locality" />
		<tag k="ssr:stedsnr" v="332942" />
	</node>
	<node id="-899363" lat="64.0895527753" lon="11.123399998">
		<tag k="fixme" v="consider natural=peak for the most distinct mountains in the district" />
		<tag k="name" v="Vardheia" />
		<tag k="natural" v="hill" />
		<tag k="place" v="locality" />
		<tag k="ssr:stedsnr" v="14443" />
	</node>
	<node id="-899356" lat="64.0864805584" lon="11.2698055624">
		<tag k="name" v="Bråttåhalla" />
		<tag k="natural" v="slope" />
		<tag k="place" v="locality" />
		<tag k="ssr:stedsnr" v="204818" />
	</node>
	<node id="-899355" lat="63.9975305551" lon="10.8902666646">
		<tag k="name" v="Vargskardheia" />
		<tag k="natural" v="hill" />
		<tag k="place" v="locality" />
		<tag k="ssr:stedsnr" v="802461" />
	</node>
	<node id="-899347" lat="64.0956416668" lon="11.1287416689">
		<tag k="fixme" v="consider natural=peak for the most distinct mountains in the district" />
		<tag k="name" v="Bartnesheia" />
		<tag k="natural" v="hill" />
		<tag k="place" v="locality" />
		<tag k="ssr:stedsnr" v="412665" />
	</node>
	<node id="-899345" lat="64.0331527807" lon="11.1742166635">
		<tag k="name" v="Prekstolen" />
		<tag k="natural" v="hill" />
		<tag k="place" v="locality" />
		<tag k="ssr:stedsnr" v="874587" />
	</node>
	<node id="-899344" lat="63.83671389" lon="10.6567944467">
		<tag k="name" v="Langneslia" />
		<tag k="natural" v="slope" />
		<tag k="place" v="locality" />
		<tag k="ssr:stedsnr" v="817062" />
	</node>
	<node id="-899339" lat="64.0352694426" lon="10.9533555501">
		<tag k="name" v="Heimholet" />
		<tag k="natural" v="valley" />
		<tag k="place" v="locality" />
		<tag k="ssr:stedsnr" v="594607" />
	</node>
	<node id="-899337" lat="64.1057583353" lon="11.2447055603">
		<tag k="name" v="Landsemdalen" />
		<tag k="natural" v="valley" />
		<tag k="place" v="locality" />
		<tag k="ssr:stedsnr" v="681175" />
	</node>
	<node id="-899336" lat="64.0254916711" lon="11.0821499945">
		<tag k="fixme" v="consider natural=peak for the most distinct mountains in the district" />
		<tag k="name" v="Malbuheia" />
		<tag k="natural" v="hill" />
		<tag k="place" v="locality" />
		<tag k="ssr:stedsnr" v="742991" />
	</node>
	<node id="-899333" lat="64.085619448" lon="11.2759222311">
		<tag k="name" v="Vesterhøgberget" />
		<tag k="natural" v="hill" />
		<tag k="place" v="locality" />
		<tag k="ssr:stedsnr" v="629839" />
	</node>
	<node id="-899332" lat="64.0900694456" lon="11.2840111184">
		<tag k="fixme" v="consider natural=peak for the most distinct mountains in the district" />
		<tag k="name" v="Flatåsen" />
		<tag k="natural" v="hill" />
		<tag k="place" v="locality" />
		<tag k="ssr:stedsnr" v="629840" />
	</node>
	<node id="-899329" lat="63.9892833353" lon="11.0402277706">
		<tag k="fixme" v="consider natural=peak for the most distinct mountains in the district" />
		<tag k="name" v="Follaheia" />
		<tag k="natural" v="hill" />
		<tag k="place" v="locality" />
		<tag k="ssr:stedsnr" v="499534" />
	</node>
	<node id="-899316" lat="63.7771666699" lon="10.5283722245">
		<tag k="name" v="Svartholet" />
		<tag k="natural" v="valley" />
		<tag k="place" v="locality" />
		<tag k="ssr:stedsnr" v="620395" />
	</node>
	<node id="-899312" lat="63.7864694403" lon="10.4939055474">
		<tag k="name" v="Buengheia" />
		<tag k="natural" v="hill" />
		<tag k="place" v="locality" />
		<tag k="ssr:stedsnr" v="271002" />
	</node>
	<node id="-899311" lat="63.7790444464" lon="10.5211416583">
		<tag k="name" v="Sjettenbakkhøgda" />
		<tag k="natural" v="hill" />
		<tag k="place" v="locality" />
		<tag k="ssr:stedsnr" v="620394" />
	</node>
	<node id="-899310" lat="64.0942305536" lon="11.2996222256">
		<tag k="name" v="Langmyrhøgda" />
		<tag k="natural" v="hill" />
		<tag k="place" v="locality" />
		<tag k="ssr:stedsnr" v="204807" />
	</node>
	<node id="-899307" lat="64.0988055579" lon="11.1740055647">
		<tag k="name" v="Stjernlia" />
		<tag k="natural" v="slope" />
		<tag k="place" v="locality" />
		<tag k="ssr:stedsnr" v="863527" />
	</node>
	<node id="-899304" lat="64.0533111077" lon="11.0816666766">
		<tag k="name" v="Lønnsbrekka" />
		<tag k="natural" v="valley" />
		<tag k="place" v="locality" />
		<tag k="ssr:stedsnr" v="317946" />
	</node>
	<node id="-899303" lat="63.9940555542" lon="11.1256555559">
		<tag k="name" v="Bonningstekkdalen" />
		<tag k="natural" v="valley" />
		<tag k="place" v="locality" />
		<tag k="ssr:stedsnr" v="514121" />
	</node>
	<node id="-899299" lat="64.0766277803" lon="11.120652774">
		<tag k="alt_name" v="Seterlihalla" />
		<tag k="name" v="Rafshall" />
		<tag k="natural" v="hill" />
		<tag k="place" v="locality" />
		<tag k="ssr:stedsnr" v="439521" />
	</node>
	<node id="-899298" lat="64.0614722197" lon="11.0775500001">
		<tag k="name" v="Grønnkammen" />
		<tag k="natural" v="ridge" />
		<tag k="place" v="locality" />
		<tag k="ssr:stedsnr" v="109702" />
	</node>
	<node id="-899297" lat="64.0205277817" lon="11.1698222277">
		<tag k="fixme" v="consider natural=peak for the most distinct mountains in the district" />
		<tag k="name" v="Olaengåsen" />
		<tag k="natural" v="hill" />
		<tag k="place" v="locality" />
		<tag k="ssr:stedsnr" v="716502" />
	</node>
	<node id="-899292" lat="64.1042750009" lon="10.9953305525">
		<tag k="fixme" v="consider natural=peak for the most distinct mountains in the district" />
		<tag k="name" v="Søresplingskurven" />
		<tag k="natural" v="hill" />
		<tag k="place" v="locality" />
		<tag k="ssr:stedsnr" v="14430" />
	</node>
	<node id="-899287" lat="63.8826194455" lon="10.7448472198">
		<tag k="name" v="Lauvlia" />
		<tag k="natural" v="slope" />
		<tag k="place" v="locality" />
		<tag k="ssr:stedsnr" v="196804" />
	</node>
	<node id="-899285" lat="63.9472888911" lon="10.9847194434">
		<tag k="name" v="Finnkoihaugen" />
		<tag k="natural" v="hill" />
		<tag k="place" v="locality" />
		<tag k="ssr:stedsnr" v="514125" />
	</node>
</osm>
