<?xml version="1.0" encoding="UTF-8"?>
<osm generator="osmapis" version="0.6">
	<node id="-901802" lat="64.0978555532" lon="11.1951222279">
		<tag k="name" v="Sognmyra" />
		<tag k="natural" v="wetland" />
		<tag k="ssr:stedsnr" v="523804" />
	</node>
	<node id="-901627" lat="64.0875749986" lon="11.1541694412">
		<tag k="name" v="Gjertrumyra" />
		<tag k="natural" v="wetland" />
		<tag k="ssr:stedsnr" v="351692" />
	</node>
	<node id="-902137" lat="64.0604083301" lon="10.8930833402">
		<tag k="name" v="Bartnesenget" />
		<tag k="natural" v="wetland" />
		<tag k="ssr:stedsnr" v="775591" />
	</node>
	<node id="-901621" lat="64.016438893" lon="11.13311111">
		<tag k="name" v="Oveslettet" />
		<tag k="natural" v="wetland" />
		<tag k="ssr:stedsnr" v="473025" />
	</node>
	<node id="-901612" lat="63.869869444" lon="10.7985472144">
		<tag k="name" v="Vølsetøra" />
		<tag k="place" v="locality" />
		<tag k="ssr:stedsnr" v="226527" />
	</node>
	<node id="-901609" lat="64.1205861082" lon="11.1639194372">
		<tag k="alt_name" v="Holmvikengan" />
		<tag k="name" v="Holmvikmyran" />
		<tag k="natural" v="wetland" />
		<tag k="ssr:stedsnr" v="742597" />
	</node>
	<node id="-901096" lat="63.9625555549" lon="10.9956555454">
		<tag k="name" v="Sandslimyrin" />
		<tag k="natural" v="wetland" />
		<tag k="ssr:stedsnr" v="453138" />
	</node>
	<node id="-901095" lat="63.802319444" lon="10.6275027842">
		<tag k="landuse" v="quarry" />
		<tag k="name" v="Finesgruva" />
		<tag k="ssr:stedsnr" v="149045" />
	</node>
	<node id="-902118" lat="64.0144722211" lon="11.1235527749">
		<tag k="name" v="Bolmyra" />
		<tag k="natural" v="wetland" />
		<tag k="ssr:stedsnr" v="351029" />
	</node>
	<node id="-902116" lat="64.1304777735" lon="11.1702361037">
		<tag k="name" v="Trettmyra" />
		<tag k="natural" v="wetland" />
		<tag k="ssr:stedsnr" v="837553" />
	</node>
	<node id="-902114" lat="63.9944861143" lon="11.0237777848">
		<tag k="name" v="Todalsmyrin" />
		<tag k="natural" v="wetland" />
		<tag k="ssr:stedsnr" v="169045" />
	</node>
	<node id="-902113" lat="64.0749777818" lon="11.1954055561">
		<tag k="name" v="Laurdagsmyra" />
		<tag k="natural" v="wetland" />
		<tag k="ssr:stedsnr" v="635957" />
	</node>
	<node id="-902112" lat="64.0226611085" lon="11.1402583231">
		<tag k="name" v="Jensenget" />
		<tag k="natural" v="wetland" />
		<tag k="ssr:stedsnr" v="351024" />
	</node>
	<node id="-901087" lat="64.0370027755" lon="11.2061916628">
		<tag k="name" v="Porsmyra" />
		<tag k="natural" v="wetland" />
		<tag k="ssr:stedsnr" v="392993" />
	</node>
	<node id="-901541" lat="64.1060861129" lon="11.2786722152">
		<tag k="landuse" v="meadow" />
		<tag k="name" v="Nordslættet" />
		<tag k="ssr:stedsnr" v="690220" />
	</node>
	<node id="-901083" lat="64.0881638845" lon="11.1734500036">
		<tag k="name" v="Gullkrikja" />
		<tag k="natural" v="wetland" />
		<tag k="ssr:stedsnr" v="594680" />
	</node>
	<node id="-901594" lat="63.9052694426" lon="10.8513916691">
		<tag k="name" v="Klokkarmyran" />
		<tag k="natural" v="wetland" />
		<tag k="ssr:stedsnr" v="802572" />
	</node>
	<node id="-902105" lat="64.0317277732" lon="11.109027787">
		<tag k="name" v="Langmyra" />
		<tag k="natural" v="wetland" />
		<tag k="ssr:stedsnr" v="351009" />
	</node>
	<node id="-901078" lat="64.1120472179" lon="11.1296388949">
		<tag k="name" v="Erikengan" />
		<tag k="natural" v="wetland" />
		<tag k="ssr:stedsnr" v="776528" />
	</node>
	<node id="-901077" lat="64.0693972217" lon="11.0507583241">
		<tag k="name" v="Breitjønnmyrin" />
		<tag k="natural" v="wetland" />
		<tag k="ssr:stedsnr" v="742517" />
	</node>
	<node id="-901588" lat="64.0918944481" lon="11.1906916736">
		<tag k="name" v="Åsenget" />
		<tag k="natural" v="wetland" />
		<tag k="ssr:stedsnr" v="149957" />
	</node>
	<node id="-901863" lat="64.0373611099" lon="11.1992194467">
		<tag k="name" v="Sagmyra" />
		<tag k="natural" v="wetland" />
		<tag k="ssr:stedsnr" v="757000" />
	</node>
	<node id="-901367" lat="64.0129944461" lon="10.9696916581">
		<tag k="name" v="Langmyra" />
		<tag k="natural" v="wetland" />
		<tag k="ssr:stedsnr" v="715060" />
	</node>
	<node id="-901569" lat="64.0974888909" lon="11.188797217">
		<tag k="name" v="Hopenget" />
		<tag k="natural" v="wetland" />
		<tag k="ssr:stedsnr" v="706741" />
	</node>
	<node id="-902078" lat="64.0260833326" lon="11.0040722142">
		<tag k="name" v="Heimarka" />
		<tag k="place" v="locality" />
		<tag k="ssr:stedsnr" v="716035" />
	</node>
	<node id="-901053" lat="63.9512222195" lon="11.0017555631">
		<tag k="name" v="Raudmyra" />
		<tag k="natural" v="wetland" />
		<tag k="ssr:stedsnr" v="817125" />
	</node>
	<node id="-901706" lat="64.0892833367" lon="11.153436104">
		<tag k="name" v="Sørlimyrin" />
		<tag k="natural" v="wetland" />
		<tag k="ssr:stedsnr" v="48684" />
	</node>
	<node id="-901556" lat="64.0016638928" lon="11.0311111203">
		<tag k="historic" v="shieling" />
		<tag k="name" v="Todalsseteren" />
		<tag k="place" v="locality" />
		<tag k="ssr:stedsnr" v="728962" />
	</node>
	<node id="-902067" lat="64.0897694487" lon="11.2738805609">
		<tag k="name" v="Stammyra" />
		<tag k="natural" v="wetland" />
		<tag k="ssr:stedsnr" v="143809" />
	</node>
	<node id="-901039" lat="64.0149500032" lon="11.1385638829">
		<tag k="name" v="Tømseenget" />
		<tag k="natural" v="wetland" />
		<tag k="ssr:stedsnr" v="924961" />
	</node>
	<node id="-901036" lat="64.0963999973" lon="11.3139055647">
		<tag k="name" v="Småmyrin" />
		<tag k="natural" v="wetland" />
		<tag k="ssr:stedsnr" v="326815" />
	</node>
	<node id="-902059" lat="64.0090694408" lon="10.8106694459">
		<tag k="name" v="Rørtjønnmyra" />
		<tag k="natural" v="wetland" />
		<tag k="ssr:stedsnr" v="837171" />
	</node>
	<node id="-901544" lat="64.0438611149" lon="11.0754638827">
		<tag k="name" v="Kvennhusmyrin" />
		<tag k="natural" v="wetland" />
		<tag k="ssr:stedsnr" v="594024" />
	</node>
	<node id="-902054" lat="64.1090722204" lon="11.2578222119">
		<tag k="landuse" v="meadow" />
		<tag k="name" v="Stålenget" />
		<tag k="ssr:stedsnr" v="568200" />
	</node>
	<node id="-902053" lat="64.0821250008" lon="11.1844722308">
		<tag k="name" v="Setermyra" />
		<tag k="natural" v="wetland" />
		<tag k="ssr:stedsnr" v="210967" />
	</node>
	<node id="-901538" lat="64.0103833339" lon="11.1268277878">
		<tag k="name" v="Høgengan" />
		<tag k="natural" v="wetland" />
		<tag k="ssr:stedsnr" v="473023" />
	</node>
	<node id="-902191" lat="64.0287222204" lon="11.1257416707">
		<tag k="name" v="Kristenenget" />
		<tag k="natural" v="wetland" />
		<tag k="ssr:stedsnr" v="776025" />
	</node>
	<node id="-902044" lat="64.0907611082" lon="11.1966722244">
		<tag k="name" v="Stormyra" />
		<tag k="natural" v="wetland" />
		<tag k="ssr:stedsnr" v="635937" />
	</node>
	<node id="-902349" lat="63.7871611135" lon="10.5955222297">
		<tag k="name" v="Geværsteinen" />
		<tag k="natural" v="stone" />
		<tag k="ssr:stedsnr" v="587645" />
	</node>
	<node id="-901528" lat="64.0500777751" lon="11.0633805594">
		<tag k="name" v="Storsteinslettet" />
		<tag k="natural" v="wetland" />
		<tag k="ssr:stedsnr" v="473001" />
	</node>
	<node id="-901526" lat="64.0168111142" lon="11.1702527772">
		<tag k="name" v="Olaenget" />
		<tag k="natural" v="wetland" />
		<tag k="ssr:stedsnr" v="837015" />
	</node>
	<node id="-901013" lat="64.0876499959" lon="11.2939194388">
		<tag k="landuse" v="meadow" />
		<tag k="name" v="Bjørgen" />
		<tag k="ssr:stedsnr" v="326825" />
	</node>
	<node id="-901519" lat="64.0379249989" lon="11.1714722167">
		<tag k="name" v="Brennengan" />
		<tag k="natural" v="wetland" />
		<tag k="ssr:stedsnr" v="958470" />
	</node>
	<node id="-902030" lat="64.1037833336" lon="11.2753111061">
		<tag k="name" v="Stormyra" />
		<tag k="natural" v="wetland" />
		<tag k="ssr:stedsnr" v="326184" />
	</node>
	<node id="-901002" lat="64.0345166658" lon="11.0408833276">
		<tag k="historic" v="shieling" />
		<tag k="name" v="Fremmerheia" />
		<tag k="place" v="locality" />
		<tag k="ssr:stedsnr" v="317999" />
	</node>
	<node id="-900998" lat="64.0970222227" lon="11.1720555552">
		<tag k="name" v="Nybuenget" />
		<tag k="natural" v="wetland" />
		<tag k="ssr:stedsnr" v="48520" />
	</node>
	<node id="-902017" lat="64.098072219" lon="11.1659805652">
		<tag k="name" v="Rostadenget" />
		<tag k="natural" v="wetland" />
		<tag k="ssr:stedsnr" v="958590" />
	</node>
	<node id="-901496" lat="64.1031777771" lon="11.2569944455">
		<tag k="name" v="Moamyra" />
		<tag k="natural" v="wetland" />
		<tag k="ssr:stedsnr" v="204140" />
	</node>
	<node id="-900979" lat="64.0461444476" lon="11.1880638802">
		<tag k="name" v="Langmyra" />
		<tag k="natural" v="wetland" />
		<tag k="ssr:stedsnr" v="574999" />
	</node>
	<node id="-902001" lat="63.7514194475" lon="10.445961121">
		<tag k="name" v="Orsjødalsmyra" />
		<tag k="natural" v="wetland" />
		<tag k="ssr:stedsnr" v="47973" />
	</node>
	<node id="-901999" lat="64.0264555564" lon="10.8372138972">
		<tag k="name" v="Litlsandvassmyra" />
		<tag k="natural" v="wetland" />
		<tag k="ssr:stedsnr" v="837150" />
	</node>
	<node id="-901994" lat="64.109227776" lon="11.2275055498">
		<tag k="name" v="Storbuenget" />
		<tag k="natural" v="wetland" />
		<tag k="ssr:stedsnr" v="341801" />
	</node>
	<node id="-902119" lat="64.0884361102" lon="11.265711108">
		<tag k="name" v="Slættet" />
		<tag k="natural" v="wetland" />
		<tag k="ssr:stedsnr" v="143820" />
	</node>
	<node id="-901180" lat="64.0408277797" lon="11.1485333264">
		<tag k="name" v="Hansaenget" />
		<tag k="natural" v="wetland" />
		<tag k="ssr:stedsnr" v="109417" />
	</node>
	<node id="-900965" lat="64.0598361081" lon="11.1882666648">
		<tag k="name" v="Skåkmyra" />
		<tag k="natural" v="wetland" />
		<tag k="ssr:stedsnr" v="89995" />
	</node>
	<node id="-901474" lat="63.7641750039" lon="10.4417472153">
		<tag k="name" v="Langmyra" />
		<tag k="natural" v="wetland" />
		<tag k="ssr:stedsnr" v="817242" />
	</node>
	<node id="-901985" lat="64.0183499979" lon="11.1538750036">
		<tag k="name" v="Jakobenget" />
		<tag k="natural" v="wetland" />
		<tag k="ssr:stedsnr" v="716014" />
	</node>
	<node id="-901981" lat="63.7650805567" lon="10.4871416626">
		<tag k="name" v="Tjurumyrin" />
		<tag k="natural" v="wetland" />
		<tag k="ssr:stedsnr" v="514019" />
	</node>
	<node id="-901462" lat="64.1027555592" lon="11.2461388912">
		<tag k="name" v="Fagermyra" />
		<tag k="natural" v="wetland" />
		<tag k="ssr:stedsnr" v="22168" />
	</node>
	<node id="-901972" lat="64.1034500005" lon="11.2781638929">
		<tag k="name" v="Sørslættet" />
		<tag k="natural" v="wetland" />
		<tag k="ssr:stedsnr" v="568192" />
	</node>
	<node id="-901971" lat="64.0231277802" lon="11.1724333338">
		<tag k="name" v="Marinamyra" />
		<tag k="natural" v="wetland" />
		<tag k="ssr:stedsnr" v="803981" />
	</node>
	<node id="-900944" lat="64.0208305532" lon="11.0691999976">
		<tag k="name" v="Malbumyrin" />
		<tag k="natural" v="wetland" />
		<tag k="ssr:stedsnr" v="655069" />
	</node>
	<node id="-901029" lat="63.8999277809" lon="10.8473833403">
		<tag k="name" v="Holbekkmyran" />
		<tag k="natural" v="wetland" />
		<tag k="ssr:stedsnr" v="256464" />
	</node>
	<node id="-900749" lat="64.0217333324" lon="11.134722212">
		<tag k="name" v="Kjerringhola" />
		<tag k="natural" v="wetland" />
		<tag k="ssr:stedsnr" v="351481" />
	</node>
	<node id="-900940" lat="64.1196638874" lon="11.1190361163">
		<tag k="name" v="Storlimyra" />
		<tag k="natural" v="wetland" />
		<tag k="ssr:stedsnr" v="48508" />
	</node>
	<node id="-901963" lat="64.0388861115" lon="11.1838749914">
		<tag k="name" v="Sivertmyra" />
		<tag k="natural" v="wetland" />
		<tag k="ssr:stedsnr" v="696991" />
	</node>
	<node id="-901489" lat="64.0166361092" lon="10.9996611046">
		<tag k="name" v="Josefmyrin" />
		<tag k="natural" v="wetland" />
		<tag k="ssr:stedsnr" v="47033" />
	</node>
	<node id="-900928" lat="64.10095278" lon="11.1803444437">
		<tag k="name" v="Kumyra" />
		<tag k="natural" v="wetland" />
		<tag k="ssr:stedsnr" v="402762" />
	</node>
	<node id="-901600" lat="63.8942083346" lon="10.8490972127">
		<tag k="name" v="Håråmyra" />
		<tag k="natural" v="wetland" />
		<tag k="ssr:stedsnr" v="210068" />
	</node>
	<node id="-901949" lat="64.0375972229" lon="11.052874996">
		<tag k="name" v="Heimarka" />
		<tag k="place" v="locality" />
		<tag k="ssr:stedsnr" v="169002" />
	</node>
	<node id="-900923" lat="64.0749861098" lon="11.1828166734">
		<tag k="name" v="Dalenget" />
		<tag k="natural" v="wetland" />
		<tag k="ssr:stedsnr" v="332961" />
	</node>
	<node id="-900922" lat="64.0089944481" lon="11.1363666737">
		<tag k="name" v="Trettmyra" />
		<tag k="natural" v="wetland" />
		<tag k="ssr:stedsnr" v="817118" />
	</node>
	<node id="-902111" lat="64.0742749976" lon="11.1421083387">
		<tag k="name" v="Seterlimyrin" />
		<tag k="natural" v="wetland" />
		<tag k="ssr:stedsnr" v="560551" />
	</node>
	<node id="-901172" lat="63.9878583332" lon="11.1237222299">
		<tag k="name" v="Brettingen" />
		<tag k="place" v="locality" />
		<tag k="ssr:stedsnr" v="878116" />
	</node>
	<node id="-901679" lat="64.067780558" lon="11.1156555477">
		<tag k="name" v="Kammyra" />
		<tag k="natural" v="wetland" />
		<tag k="ssr:stedsnr" v="351687" />
	</node>
	<node id="-901940" lat="64.0227972221" lon="11.1982111009">
		<tag k="name" v="Langmyra" />
		<tag k="natural" v="wetland" />
		<tag k="ssr:stedsnr" v="635088" />
	</node>
	<node id="-900914" lat="64.0851666683" lon="11.2866777755">
		<tag k="landuse" v="meadow" />
		<tag k="name" v="Buksa" />
		<tag k="ssr:stedsnr" v="204853" />
	</node>
	<node id="-901931" lat="64.0280277814" lon="11.13618611">
		<tag k="name" v="Litlstakkenget" />
		<tag k="natural" v="wetland" />
		<tag k="ssr:stedsnr" v="898016" />
	</node>
	<node id="-901415" lat="64.0013472208" lon="10.9559777747">
		<tag k="name" v="Gråtarmyra" />
		<tag k="natural" v="wetland" />
		<tag k="ssr:stedsnr" v="897080" />
	</node>
	<node id="-901412" lat="63.8821249964" lon="10.8136111125">
		<tag k="name" v="Trolltjønnmyra" />
		<tag k="natural" v="wetland" />
		<tag k="ssr:stedsnr" v="120303" />
	</node>
	<node id="-901595" lat="64.1253555592" lon="11.1344333341">
		<tag k="name" v="Ferjengan" />
		<tag k="natural" v="wetland" />
		<tag k="ssr:stedsnr" v="109513" />
	</node>
	<node id="-900895" lat="63.7932083343" lon="10.5644666573">
		<tag k="name" v="Stormyra" />
		<tag k="natural" v="wetland" />
		<tag k="ssr:stedsnr" v="756012" />
	</node>
	<node id="-901913" lat="64.0308666654" lon="11.0110333433">
		<tag k="name" v="Heimarka" />
		<tag k="place" v="locality" />
		<tag k="ssr:stedsnr" v="57746" />
	</node>
	<node id="-901399" lat="64.0177305572" lon="11.0184861202">
		<tag k="name" v="Holsetmarka" />
		<tag k="place" v="locality" />
		<tag k="ssr:stedsnr" v="412038" />
	</node>
	<node id="-902422" lat="64.038858333" lon="10.840377773">
		<tag k="name" v="Kvennhusmyrin" />
		<tag k="natural" v="wetland" />
		<tag k="ssr:stedsnr" v="229630" />
	</node>
	<node id="-902361" lat="64.0931583314" lon="11.2514666743">
		<tag k="name" v="Holtet" />
		<tag k="place" v="locality" />
		<tag k="ssr:stedsnr" v="933864" />
	</node>
	<node id="-901763" lat="64.10740556" lon="11.1730861141">
		<tag k="name" v="Faukenget" />
		<tag k="natural" v="wetland" />
		<tag k="ssr:stedsnr" v="715562" />
	</node>
	<node id="-900879" lat="64.0835444485" lon="11.008391663">
		<tag k="name" v="Olheihågan" />
		<tag k="natural" v="wetland" />
		<tag k="ssr:stedsnr" v="14461" />
	</node>
	<node id="-902411" lat="64.1003638922" lon="11.2201055478">
		<tag k="name" v="Simamyrin" />
		<tag k="natural" v="wetland" />
		<tag k="ssr:stedsnr" v="584740" />
	</node>
	<node id="-900874" lat="64.0679166706" lon="11.1915888924">
		<tag k="name" v="Hollåsmarka" />
		<tag k="place" v="locality" />
		<tag k="ssr:stedsnr" v="332967" />
	</node>
	<node id="-900870" lat="64.0469861097" lon="11.1595805619">
		<tag k="name" v="Breimyra" />
		<tag k="natural" v="wetland" />
		<tag k="ssr:stedsnr" v="377950" />
	</node>
	<node id="-900869" lat="64.1030000035" lon="11.2041527844">
		<tag k="name" v="Merramyra" />
		<tag k="natural" v="wetland" />
		<tag k="ssr:stedsnr" v="402767" />
	</node>
	<node id="-902399" lat="64.0003416649" lon="11.1113527708">
		<tag k="name" v="Stormyra" />
		<tag k="natural" v="wetland" />
		<tag k="ssr:stedsnr" v="514122" />
	</node>
	<node id="-901374" lat="64.0656027746" lon="11.1573111107">
		<tag k="name" v="Stormyra" />
		<tag k="natural" v="wetland" />
		<tag k="ssr:stedsnr" v="681550" />
	</node>
	<node id="-900861" lat="64.1048111129" lon="11.2669833422">
		<tag k="name" v="Tjønnmyra" />
		<tag k="natural" v="wetland" />
		<tag k="ssr:stedsnr" v="811185" />
	</node>
	<node id="-901372" lat="63.7840055532" lon="10.5578277703">
		<tag k="name" v="Tjønnmyra" />
		<tag k="natural" v="wetland" />
		<tag k="ssr:stedsnr" v="210018" />
	</node>
	<node id="-901370" lat="64.0422527801" lon="11.1374194423">
		<tag k="name" v="Kilmyra" />
		<tag k="natural" v="wetland" />
		<tag k="ssr:stedsnr" v="412411" />
	</node>
	<node id="-900856" lat="63.9141888928" lon="10.8456722192">
		<tag k="name" v="Stormyra" />
		<tag k="natural" v="wetland" />
		<tag k="ssr:stedsnr" v="742483" />
	</node>
	<node id="-900855" lat="64.0119611068" lon="10.9810722263">
		<tag k="name" v="Sneppamyra" />
		<tag k="natural" v="wetland" />
		<tag k="ssr:stedsnr" v="593037" />
	</node>
	<node id="-902390" lat="64.113544442" lon="11.1813305655">
		<tag k="name" v="Heienget" />
		<tag k="natural" v="wetland" />
		<tag k="ssr:stedsnr" v="99757" />
	</node>
	<node id="-901365" lat="63.9521361092" lon="10.9597277875">
		<tag k="name" v="Gammelsetermyrin" />
		<tag k="natural" v="wetland" />
		<tag k="ssr:stedsnr" v="593153" />
	</node>
	<node id="-901358" lat="64.093949997" lon="11.2974416663">
		<tag k="name" v="Langmyra" />
		<tag k="natural" v="wetland" />
		<tag k="ssr:stedsnr" v="386830" />
	</node>
	<node id="-900845" lat="63.9105972264" lon="10.8278833256">
		<tag k="name" v="Sørenvassmarka" />
		<tag k="place" v="locality" />
		<tag k="ssr:stedsnr" v="742485" />
	</node>
	<node id="-900839" lat="64.099874998" lon="11.1861500041">
		<tag k="historic" v="shieling" />
		<tag k="name" v="Gammeltømtet" />
		<tag k="place" v="locality" />
		<tag k="ssr:stedsnr" v="584773" />
	</node>
	<node id="-902373" lat="64.0891361135" lon="11.1449888927">
		<tag k="name" v="Skarsmyrin" />
		<tag k="natural" v="wetland" />
		<tag k="ssr:stedsnr" v="715712" />
	</node>
	<node id="-902372" lat="64.0247055601" lon="11.1310444382">
		<tag k="name" v="Lomtjønnmyra" />
		<tag k="natural" v="wetland" />
		<tag k="ssr:stedsnr" v="230017" />
	</node>
	<node id="-902369" lat="63.9996722225" lon="11.1525166724">
		<tag k="name" v="Tjønnmyra" />
		<tag k="natural" v="wetland" />
		<tag k="ssr:stedsnr" v="89127" />
	</node>
	<node id="-901856" lat="64.0269333355" lon="10.8474055603">
		<tag k="name" v="Storsandvassmyra" />
		<tag k="natural" v="wetland" />
		<tag k="ssr:stedsnr" v="196987" />
	</node>
	<node id="-902364" lat="64.0439944452" lon="11.1493388909">
		<tag k="name" v="Hundmyra" />
		<tag k="natural" v="wetland" />
		<tag k="ssr:stedsnr" v="776431" />
	</node>
	<node id="-901339" lat="64.0396750037" lon="11.1652583251">
		<tag k="name" v="Kallslettet" />
		<tag k="natural" v="wetland" />
		<tag k="ssr:stedsnr" v="412413" />
	</node>
	<node id="-901338" lat="64.0902722191" lon="11.0764833429">
		<tag k="name" v="Skarsetermyrin" />
		<tag k="natural" v="wetland" />
		<tag k="ssr:stedsnr" v="957643" />
	</node>
	<node id="-900825" lat="64.049680555" lon="11.1733611202">
		<tag k="name" v="Stålgjøta" />
		<tag k="natural" v="wetland" />
		<tag k="ssr:stedsnr" v="230444" />
	</node>
	<node id="-901848" lat="64.1064388932" lon="11.1266444441">
		<tag k="name" v="Pålengan" />
		<tag k="natural" v="wetland" />
		<tag k="ssr:stedsnr" v="412517" />
	</node>
	<node id="-901155" lat="63.9103055549" lon="10.8456194471">
		<tag k="name" v="Klokkarmyrbekken" />
		<tag k="natural" v="wetland" />
		<tag k="ssr:stedsnr" v="149058" />
	</node>
	<node id="-901840" lat="64.0295333355" lon="11.1520638806">
		<tag k="name" v="Tverrbekkenget" />
		<tag k="natural" v="wetland" />
		<tag k="ssr:stedsnr" v="594468" />
	</node>
	<node id="-901327" lat="64.0752833333" lon="11.1009638959">
		<tag k="name" v="Storenget" />
		<tag k="natural" v="wetland" />
		<tag k="ssr:stedsnr" v="169649" />
	</node>
	<node id="-900814" lat="64.0651027748" lon="11.1285083323">
		<tag k="name" v="Dammyrin" />
		<tag k="natural" v="wetland" />
		<tag k="ssr:stedsnr" v="439537" />
	</node>
	<node id="-900813" lat="64.0334250014" lon="11.1620472247">
		<tag k="name" v="Gauksenget" />
		<tag k="natural" v="wetland" />
		<tag k="ssr:stedsnr" v="230434" />
	</node>
	<node id="-901834" lat="64.0896194412" lon="11.3064361015">
		<tag k="landuse" v="meadow" />
		<tag k="name" v="Buavollen" />
		<tag k="ssr:stedsnr" v="447843" />
	</node>
	<node id="-902343" lat="64.0006305553" lon="10.9379250036">
		<tag k="name" v="Tjønnmyra" />
		<tag k="natural" v="wetland" />
		<tag k="ssr:stedsnr" v="533077" />
	</node>
	<node id="-901409" lat="63.795047222" lon="10.5689166569">
		<tag k="name" v="Stormyra" />
		<tag k="natural" v="wetland" />
		<tag k="ssr:stedsnr" v="939033" />
	</node>
	<node id="-902338" lat="63.9983361083" lon="10.9183305575">
		<tag k="name" v="Vassmyra" />
		<tag k="natural" v="wetland" />
		<tag k="ssr:stedsnr" v="108084" />
	</node>
	<node id="-902332" lat="64.0891166704" lon="11.3033638932">
		<tag k="landuse" v="meadow" />
		<tag k="name" v="Katabalvollen" />
		<tag k="ssr:stedsnr" v="22827" />
	</node>
	<node id="-901407" lat="64.0859194462" lon="11.2866944431">
		<tag k="landuse" v="meadow" />
		<tag k="name" v="Serken" />
		<tag k="ssr:stedsnr" v="83869" />
	</node>
	<node id="-901815" lat="64.0919305551" lon="10.9059888928">
		<tag k="name" v="Flatmyrin" />
		<tag k="natural" v="wetland" />
		<tag k="ssr:stedsnr" v="350537" />
	</node>
	<node id="-901814" lat="64.0902583335" lon="11.1720499937">
		<tag k="name" v="Ytter Hollerenget" />
		<tag k="natural" v="wetland" />
		<tag k="ssr:stedsnr" v="776696" />
	</node>
	<node id="-902324" lat="64.0994305559" lon="11.3132888971">
		<tag k="name" v="Kleivmyrin" />
		<tag k="natural" v="wetland" />
		<tag k="ssr:stedsnr" v="629807" />
	</node>
	<node id="-902322" lat="63.9547277793" lon="10.9867111048">
		<tag k="name" v="Simamyra" />
		<tag k="natural" v="wetland" />
		<tag k="ssr:stedsnr" v="574122" />
	</node>
	<node id="-900784" lat="64.0798666623" lon="11.1951388924">
		<tag k="name" v="Litlenget" />
		<tag k="natural" v="wetland" />
		<tag k="ssr:stedsnr" v="332945" />
	</node>
	<node id="-902319" lat="64.0884416654" lon="11.2618222209">
		<tag k="name" v="Slættmyra" />
		<tag k="natural" v="wetland" />
		<tag k="ssr:stedsnr" v="22824" />
	</node>
	<node id="-902318" lat="64.0683805576" lon="11.1320527825">
		<tag k="name" v="Nordmyrin" />
		<tag k="natural" v="wetland" />
		<tag k="ssr:stedsnr" v="412646" />
	</node>
	<node id="-901804" lat="64.0431388889" lon="11.1935277732">
		<tag k="name" v="Litlbuenget" />
		<tag k="natural" v="wetland" />
		<tag k="ssr:stedsnr" v="149997" />
	</node>
	<node id="-901234" lat="64.1021249981" lon="11.2345166597">
		<tag k="name" v="Raudmyra" />
		<tag k="natural" v="wetland" />
		<tag k="ssr:stedsnr" v="644778" />
	</node>
	<node id="-900778" lat="63.8939722268" lon="10.8276888804">
		<tag k="name" v="Håkkåslættet" />
		<tag k="natural" v="wetland" />
		<tag k="ssr:stedsnr" v="817088" />
	</node>
	<node id="-901800" lat="64.0474111148" lon="11.1848555493">
		<tag k="name" v="Perslættet" />
		<tag k="natural" v="wetland" />
		<tag k="ssr:stedsnr" v="939997" />
	</node>
	<node id="-900775" lat="64.0909722211" lon="11.2024472141">
		<tag k="name" v="Frekenget" />
		<tag k="natural" v="wetland" />
		<tag k="ssr:stedsnr" v="332943" />
	</node>
	<node id="-900773" lat="64.0561916688" lon="11.1892222306">
		<tag k="name" v="Hessimyra" />
		<tag k="natural" v="wetland" />
		<tag k="ssr:stedsnr" v="514987" />
	</node>
	<node id="-901281" lat="64.0932777801" lon="11.17304167">
		<tag k="name" v="Øver Hollerenget" />
		<tag k="natural" v="wetland" />
		<tag k="ssr:stedsnr" v="291706" />
	</node>
	<node id="-900766" lat="64.087566665" lon="11.194191659">
		<tag k="name" v="Tjønnmyra" />
		<tag k="natural" v="wetland" />
		<tag k="ssr:stedsnr" v="332939" />
	</node>
	<node id="-900805" lat="64.0342777786" lon="11.1733972193">
		<tag k="name" v="Holmyra" />
		<tag k="natural" v="wetland" />
		<tag k="ssr:stedsnr" v="655446" />
	</node>
	<node id="-900764" lat="63.7510027769" lon="10.4382555549">
		<tag k="name" v="Ørsjødalsmyran" />
		<tag k="natural" v="wetland" />
		<tag k="ssr:stedsnr" v="666203" />
	</node>
	<node id="-900763" lat="64.0874333335" lon="11.2987388947">
		<tag k="landuse" v="meadow" />
		<tag k="name" v="Tobakkskista" />
		<tag k="ssr:stedsnr" v="22855" />
	</node>
	<node id="-900762" lat="64.031511109" lon="11.1919833241">
		<tag k="name" v="Dammyra" />
		<tag k="natural" v="wetland" />
		<tag k="ssr:stedsnr" v="89948" />
	</node>
	<node id="-900756" lat="64.0819027787" lon="11.158919449">
		<tag k="name" v="Vintermyra" />
		<tag k="natural" v="wetland" />
		<tag k="ssr:stedsnr" v="715704" />
	</node>
	<node id="-902285" lat="63.8494722213" lon="10.7107472311">
		<tag k="name" v="Moldøra" />
		<tag k="place" v="locality" />
		<tag k="ssr:stedsnr" v="288691" />
	</node>
	<node id="-901260" lat="64.0172277762" lon="10.8547833329">
		<tag k="name" v="Heislettet" />
		<tag k="natural" v="wetland" />
		<tag k="ssr:stedsnr" v="290119" />
	</node>
	<node id="-901314" lat="64.0990694456" lon="11.2133749951">
		<tag k="name" v="Stjernmyra" />
		<tag k="natural" v="wetland" />
		<tag k="ssr:stedsnr" v="644772" />
	</node>
	<node id="-900744" lat="64.0340305572" lon="11.185438891">
		<tag k="name" v="Merkesmyra" />
		<tag k="natural" v="wetland" />
		<tag k="ssr:stedsnr" v="332929" />
	</node>
	<node id="-902252" lat="64.0737527785" lon="11.1506138903">
		<tag k="name" v="Johanbakken" />
		<tag k="natural" v="wetland" />
		<tag k="ssr:stedsnr" v="109666" />
	</node>
	<node id="-902277" lat="64.0849583348" lon="11.2637277759">
		<tag k="name" v="Søkkdymyra" />
		<tag k="natural" v="wetland" />
		<tag k="ssr:stedsnr" v="933872" />
	</node>
	<node id="-900739" lat="63.9738805585" lon="10.8738722177">
		<tag k="name" v="Grønnlimyrin" />
		<tag k="natural" v="wetland" />
		<tag k="ssr:stedsnr" v="351101" />
	</node>
	<node id="-900738" lat="64.0837361103" lon="11.2550277752">
		<tag k="name" v="Torvmyra" />
		<tag k="natural" v="wetland" />
		<tag k="ssr:stedsnr" v="629837" />
	</node>
	<node id="-901247" lat="63.9741777782" lon="11.0719388948">
		<tag k="name" v="Geitvikmyra" />
		<tag k="natural" v="wetland" />
		<tag k="ssr:stedsnr" v="149075" />
	</node>
	<node id="-901758" lat="64.1244666683" lon="11.1495888932">
		<tag k="name" v="Såggåstadenget" />
		<tag k="natural" v="wetland" />
		<tag k="ssr:stedsnr" v="412510" />
	</node>
	<node id="-901757" lat="64.0438444469" lon="11.1838638853">
		<tag k="name" v="Kjerrenget" />
		<tag k="natural" v="wetland" />
		<tag k="ssr:stedsnr" v="149994" />
	</node>
	<node id="-901241" lat="64.0791194406" lon="11.1649000073">
		<tag k="name" v="Åenget" />
		<tag k="natural" v="wetland" />
		<tag k="ssr:stedsnr" v="291699" />
	</node>
	<node id="-901140" lat="64.094144445" lon="11.1772638846">
		<tag k="name" v="Heienget" />
		<tag k="natural" v="wetland" />
		<tag k="ssr:stedsnr" v="817961" />
	</node>
	<node id="-901237" lat="63.9036444464" lon="10.8311499936">
		<tag k="name" v="Granvollmyra" />
		<tag k="natural" v="wetland" />
		<tag k="ssr:stedsnr" v="776196" />
	</node>
	<node id="-900722" lat="63.9967555553" lon="11.1397416693">
		<tag k="name" v="Simaenget" />
		<tag k="natural" v="wetland" />
		<tag k="ssr:stedsnr" v="392116" />
	</node>
	<node id="-901741" lat="64.0152527792" lon="11.1784527737">
		<tag k="name" v="Breimyra" />
		<tag k="natural" v="wetland" />
		<tag k="ssr:stedsnr" v="196966" />
	</node>
	<node id="-900716" lat="64.0246722214" lon="11.1169694418">
		<tag k="name" v="Dalengmyra" />
		<tag k="natural" v="wetland" />
		<tag k="ssr:stedsnr" v="230021" />
	</node>
	<node id="-901226" lat="64.1284638905" lon="11.1718444438">
		<tag k="name" v="Holtaenget" />
		<tag k="natural" v="wetland" />
		<tag k="ssr:stedsnr" v="230530" />
	</node>
	<node id="-901733" lat="64.1089250007" lon="11.2462999911">
		<tag k="landuse" v="meadow" />
		<tag k="name" v="Nordengan" />
		<tag k="ssr:stedsnr" v="872828" />
	</node>
	<node id="-900708" lat="63.8814333299" lon="10.7510666652">
		<tag k="name" v="Halvgåttmyra" />
		<tag k="natural" v="wetland" />
		<tag k="ssr:stedsnr" v="229209" />
	</node>
	<node id="-902242" lat="64.0480416682" lon="10.9480972212">
		<tag k="name" v="Spillernymyra" />
		<tag k="natural" v="wetland" />
		<tag k="ssr:stedsnr" v="958646" />
	</node>
	<node id="-902240" lat="64.0555694446" lon="11.1837944437">
		<tag k="name" v="Raudfloa" />
		<tag k="natural" v="wetland" />
		<tag k="ssr:stedsnr" v="635989" />
	</node>
	<node id="-902238" lat="64.0008750017" lon="11.0177166767">
		<tag k="name" v="Åsamyrin" />
		<tag k="natural" v="wetland" />
		<tag k="ssr:stedsnr" v="716048" />
	</node>
	<node id="-901391" lat="64.0431444454" lon="11.1194222282">
		<tag k="name" v="Haugamyra" />
		<tag k="natural" v="wetland" />
		<tag k="ssr:stedsnr" v="412425" />
	</node>
	<node id="-901220" lat="64.0067694405" lon="10.8427555568">
		<tag k="name" v="Skjeftmyra" />
		<tag k="natural" v="wetland" />
		<tag k="ssr:stedsnr" v="411180" />
	</node>
	<node id="-901206" lat="64.096030555" lon="11.3025694368">
		<tag k="name" v="Kvernhusmyra" />
		<tag k="natural" v="wetland" />
		<tag k="ssr:stedsnr" v="143152" />
	</node>
	<node id="-902329" lat="64.0035138897" lon="10.9528277804">
		<tag k="name" v="Nøkkblomstermyra" />
		<tag k="natural" v="wetland" />
		<tag k="ssr:stedsnr" v="108075" />
	</node>
	<node id="-902226" lat="64.0892222259" lon="11.3016500096">
		<tag k="landuse" v="meadow" />
		<tag k="name" v="Kristoferekra" />
		<tag k="ssr:stedsnr" v="143847" />
	</node>
	<node id="-901711" lat="64.0744416646" lon="11.2218083327">
		<tag k="name" v="Sanda" />
		<tag k="natural" v="stone" />
		<tag k="ssr:stedsnr" v="939949" />
	</node>
	<node id="-902219" lat="64.1127777769" lon="11.0797444342">
		<tag k="name" v="Midterslettet" />
		<tag k="natural" v="wetland" />
		<tag k="ssr:stedsnr" v="532651" />
	</node>
	<node id="-902218" lat="64.046147221" lon="11.0809250042">
		<tag k="name" v="Stormyra" />
		<tag k="natural" v="wetland" />
		<tag k="ssr:stedsnr" v="438962" />
	</node>
	<node id="-901705" lat="64.0377916697" lon="11.1536861097">
		<tag k="name" v="Tjønnenget" />
		<tag k="natural" v="wetland" />
		<tag k="ssr:stedsnr" v="594445" />
	</node>
	<node id="-901899" lat="64.0776250029" lon="11.1524972197">
		<tag k="name" v="Danielengan" />
		<tag k="natural" v="wetland" />
		<tag k="ssr:stedsnr" v="472687" />
	</node>
	<node id="-901696" lat="64.0819638913" lon="11.1380111169">
		<tag k="name" v="Heienget" />
		<tag k="natural" v="wetland" />
		<tag k="ssr:stedsnr" v="48680" />
	</node>
	<node id="-902206" lat="64.0875638883" lon="11.2710361206">
		<tag k="name" v="Kartmyra" />
		<tag k="natural" v="wetland" />
		<tag k="ssr:stedsnr" v="750821" />
	</node>
	<node id="-901693" lat="64.0408222249" lon="11.1657250022">
		<tag k="name" v="Buenget" />
		<tag k="natural" v="wetland" />
		<tag k="ssr:stedsnr" v="594447" />
	</node>
	<node id="-902204" lat="63.9869416644" lon="11.0908305626">
		<tag k="name" v="Urdmyra" />
		<tag k="natural" v="wetland" />
		<tag k="ssr:stedsnr" v="574077" />
	</node>
	<node id="-902203" lat="64.0131444427" lon="11.1612777751">
		<tag k="name" v="Dymyra" />
		<tag k="natural" v="wetland" />
		<tag k="ssr:stedsnr" v="48022" />
	</node>
	<node id="-902201" lat="63.9839194486" lon="11.0926361204">
		<tag k="name" v="Hamptjønnmyra" />
		<tag k="natural" v="wetland" />
		<tag k="ssr:stedsnr" v="89084" />
	</node>
	<node id="-901688" lat="64.0888805548" lon="11.1949888842">
		<tag k="name" v="Skulenget" />
		<tag k="natural" v="wetland" />
		<tag k="ssr:stedsnr" v="756966" />
	</node>
	<node id="-901812" lat="64.1004944418" lon="11.2002111051">
		<tag k="name" v="Beretmyra" />
		<tag k="natural" v="wetland" />
		<tag k="ssr:stedsnr" v="523802" />
	</node>
	<node id="-901685" lat="64.1033250021" lon="11.2117888814">
		<tag k="name" v="Trettmyra" />
		<tag k="natural" v="wetland" />
		<tag k="ssr:stedsnr" v="38794" />
	</node>
	<node id="-901684" lat="64.0779027735" lon="11.1670527857">
		<tag k="name" v="Langmyrin" />
		<tag k="natural" v="wetland" />
		<tag k="ssr:stedsnr" v="776692" />
	</node>
	<node id="-902195" lat="64.0476777733" lon="11.1889666693">
		<tag k="name" v="Søktemyrin" />
		<tag k="natural" v="wetland" />
		<tag k="ssr:stedsnr" v="210996" />
	</node>
	<node id="-901548" lat="64.0113333321" lon="10.8345749924">
		<tag k="alt_name" v="Stormyrin" />
		<tag k="name" v="Stormyra" />
		<tag k="natural" v="wetland" />
		<tag k="ssr:stedsnr" v="135881" />
	</node>
	<node id="-901167" lat="64.088944441" lon="11.1885055481">
		<tag k="name" v="Bårdenget" />
		<tag k="natural" v="wetland" />
		<tag k="ssr:stedsnr" v="453958" />
	</node>
	<node id="-902190" lat="64.0398722223" lon="11.1989444398">
		<tag k="name" v="Merradalsmyra" />
		<tag k="natural" v="wetland" />
		<tag k="ssr:stedsnr" v="210995" />
	</node>
	<node id="-901165" lat="64.0194194437" lon="11.12182499">
		<tag k="name" v="Storengan" />
		<tag k="natural" v="wetland" />
		<tag k="ssr:stedsnr" v="109022" />
	</node>
	<node id="-902183" lat="64.1006333292" lon="11.3219805585">
		<tag k="name" v="Leirvikmyra" />
		<tag k="natural" v="wetland" />
		<tag k="ssr:stedsnr" v="933842" />
	</node>
	<node id="-901382" lat="64.0415277767" lon="11.0635416635">
		<tag k="name" v="Fautenget" />
		<tag k="natural" v="wetland" />
		<tag k="ssr:stedsnr" v="837003" />
	</node>
	<node id="-901150" lat="64.0932000036" lon="11.1834888977">
		<tag k="name" v="Kringelenget" />
		<tag k="natural" v="wetland" />
		<tag k="ssr:stedsnr" v="817968" />
	</node>
	<node id="-901654" lat="64.0806083349" lon="11.1743111092">
		<tag k="name" v="Fossengan" />
		<tag k="natural" v="wetland" />
		<tag k="ssr:stedsnr" v="776691" />
	</node>
	<node id="-901652" lat="64.079947221" lon="11.202344452">
		<tag k="name" v="Stormyra" />
		<tag k="natural" v="wetland" />
		<tag k="ssr:stedsnr" v="939960" />
	</node>
	<node id="-901651" lat="64.0949888917" lon="11.1808555584">
		<tag k="name" v="Holderenget" />
		<tag k="natural" v="wetland" />
		<tag k="ssr:stedsnr" v="696948" />
	</node>
	<node id="-901650" lat="64.0871833338" lon="11.2535527798">
		<tag k="name" v="Kringelmyra" />
		<tag k="natural" v="wetland" />
		<tag k="ssr:stedsnr" v="872835" />
	</node>
	<node id="-902161" lat="64.0115166706" lon="11.165750005">
		<tag k="name" v="Martinmyra" />
		<tag k="natural" v="wetland" />
		<tag k="ssr:stedsnr" v="351022" />
	</node>
	<node id="-901648" lat="64.0567027757" lon="11.0839416689">
		<tag k="name" v="Litlstakkenget" />
		<tag k="natural" v="wetland" />
		<tag k="ssr:stedsnr" v="898748" />
	</node>
	<node id="-901647" lat="63.7869055542" lon="10.5902916576">
		<tag k="name" v="Gjøversteinmyra" />
		<tag k="natural" v="wetland" />
		<tag k="ssr:stedsnr" v="289385" />
	</node>
	<node id="-901646" lat="64.0862166705" lon="11.2798222158">
		<tag k="name" v="Sveian" />
		<tag k="place" v="locality" />
		<tag k="ssr:stedsnr" v="872837" />
	</node>
	<node id="-901261" lat="64.0202527795" lon="11.012663898">
		<tag k="name" v="Holsetermyrin" />
		<tag k="natural" v="wetland" />
		<tag k="ssr:stedsnr" v="715032" />
	</node>
	<node id="-901639" lat="64.0621638878" lon="11.1412388832">
		<tag k="name" v="Dammyra" />
		<tag k="natural" v="wetland" />
		<tag k="ssr:stedsnr" v="776683" />
	</node>
	<node id="-901126" lat="64.0344361078" lon="11.1969527869">
		<tag k="name" v="Torvmyra" />
		<tag k="natural" v="wetland" />
		<tag k="ssr:stedsnr" v="817964" />
	</node>
	<node id="-901634" lat="64.0881555528" lon="11.1617027851">
		<tag k="name" v="Røssenget" />
		<tag k="natural" v="wetland" />
		<tag k="ssr:stedsnr" v="533720" />
	</node>
</osm>
