<?xml version="1.0" encoding="UTF-8"?>
<osm generator="osmapis" version="0.6">
	<node id="-901120" lat="63.9935694489" lon="11.1645694426">
		<tag k="alt_name" v="Sandnestangen" />
		<tag k="name" v="Sandnesodden" />
		<tag k="natural" v="cape" />
		<tag k="ssr:stedsnr" v="863598" />
	</node>
	<node id="-900733" lat="64.0679999992" lon="11.0281416674">
		<tag k="name" v="Ramstadholmen" />
		<tag k="place" v="islet" />
		<tag k="ssr:stedsnr" v="864587" />
	</node>
	<node id="-901866" lat="64.0623305539" lon="11.2152805589">
		<tag k="name" v="Bukta" />
		<tag k="natural" v="bay" />
		<tag k="ssr:stedsnr" v="696969" />
	</node>
	<node id="-901622" lat="64.0217027798" lon="11.2185638914">
		<tag k="name" v="Vadaneset" />
		<tag k="natural" v="cape" />
		<tag k="ssr:stedsnr" v="924772" />
	</node>
	<node id="-900981" lat="64.0412527811" lon="11.2178638953">
		<tag k="name" v="Rossneset" />
		<tag k="natural" v="cape" />
		<tag k="ssr:stedsnr" v="89992" />
	</node>
	<node id="-901364" lat="63.9531138906" lon="11.0160055476">
		<tag k="name" v="Tunshamna" />
		<tag k="natural" v="bay" />
		<tag k="ssr:stedsnr" v="75651" />
	</node>
	<node id="-902131" lat="63.8076694429" lon="10.6038194491">
		<tag k="loc_name" v="Raudtindøra" />
		<tag k="name" v="Raudtinnøra" />
		<tag k="natural" v="cape" />
		<tag k="ssr:stedsnr" v="89062" />
	</node>
	<node id="-901617" lat="64.0976111111" lon="11.330416674">
		<tag k="name" v="Øysternaustbukta" />
		<tag k="natural" v="bay" />
		<tag k="ssr:stedsnr" v="447781" />
	</node>
	<node id="-901614" lat="63.8070999983" lon="10.6119166758">
		<tag k="name" v="Verrabotnen" />
		<tag k="natural" v="bay" />
		<tag k="old_name" v="Verrabotn" />
		<tag k="ssr:stedsnr" v="196407" />
	</node>
	<node id="-902124" lat="64.0489833358" lon="11.212311103">
		<tag k="alt_name" v="Kirkereitvika" />
		<tag k="fixme" v="multiple name tags, choose one and add the other to alt_name" />
		<tag k="name" v="Vikabukta;Kirkreitvika" />
		<tag k="natural" v="bay" />
		<tag k="ssr:stedsnr" v="74958" />
	</node>
	<node id="-900714" lat="64.0288611085" lon="11.2249694409">
		<tag k="name" v="Rambergholmen" />
		<tag k="place" v="islet" />
		<tag k="ssr:stedsnr" v="864067" />
	</node>
	<node id="-901608" lat="63.8714138908" lon="10.8024805526">
		<tag k="name" v="Åvika" />
		<tag k="natural" v="bay" />
		<tag k="ssr:stedsnr" v="939096" />
	</node>
	<node id="-901479" lat="64.0993611152" lon="11.3328722229">
		<tag k="name" v="Strømnestangen" />
		<tag k="natural" v="cape" />
		<tag k="ssr:stedsnr" v="811804" />
	</node>
	<node id="-901862" lat="63.9917722231" lon="11.1532833352">
		<tag k="name" v="Storbukta" />
		<tag k="natural" v="bay" />
		<tag k="ssr:stedsnr" v="28991" />
	</node>
	<node id="-900962" lat="64.0157638922" lon="11.2183444492">
		<tag k="name" v="Naustgrunnen" />
		<tag k="natural" v="shoal" />
		<tag k="place" v="locality" />
		<tag k="ssr:stedsnr" v="469182" />
	</node>
	<node id="-901471" lat="63.978727782" lon="11.0934499948">
		<tag k="name" v="Kuvika" />
		<tag k="natural" v="bay" />
		<tag k="ssr:stedsnr" v="464289" />
	</node>
	<node id="-901982" lat="64.1081027735" lon="11.3196499947">
		<tag k="name" v="Holmviktangen" />
		<tag k="natural" v="cape" />
		<tag k="ssr:stedsnr" v="143790" />
	</node>
	<node id="-901725" lat="64.1003500017" lon="11.3053833271">
		<tag k="name" v="Holmvikbogen" />
		<tag k="natural" v="bay" />
		<tag k="ssr:stedsnr" v="196152" />
	</node>
	<node id="-900698" lat="64.0007655945" lon="11.2621858886">
		<tag k="bay" v="fjord" />
		<tag k="name" v="Beitstadfjorden" />
		<tag k="natural" v="bay" />
		<tag k="ssr:stedsnr" v="803613" />
	</node>
	<node id="-901845" lat="63.9468111138" lon="11.0116583241">
		<tag k="name" v="Skjærbukta" />
		<tag k="natural" v="bay" />
		<tag k="ssr:stedsnr" v="696135" />
	</node>
	<node id="-902352" lat="64.0410472191" lon="11.096113882">
		<tag k="name" v="Isnestangen" />
		<tag k="natural" v="cape" />
		<tag k="ssr:stedsnr" v="256940" />
	</node>
	<node id="-902223" lat="64.1114666653" lon="11.305255561">
		<tag k="name" v="Alhusøra" />
		<tag k="place" v="locality" />
		<tag k="ssr:stedsnr" v="508203" />
	</node>
	<node id="-901324" lat="63.8106666685" lon="10.6298472139">
		<tag k="fixme" v="consider seamark:type=rock or natural=shoal" />
		<tag k="name" v="Storskjæret" />
		<tag k="place" v="islet" />
		<tag k="ssr:stedsnr" v="28059" />
	</node>
	<node id="-901704" lat="63.798427774" lon="10.5939194348">
		<tag k="name" v="Sørvågen" />
		<tag k="natural" v="bay" />
		<tag k="ssr:stedsnr" v="635039" />
	</node>
	<node id="-901452" lat="64.0706722209" lon="11.2207500022">
		<tag k="name" v="Malmstranda" />
		<tag k="natural" v="beach" />
		<tag k="place" v="locality" />
		<tag k="ssr:stedsnr" v="271985" />
	</node>
	<node id="-901190" lat="63.8753472208" lon="10.8222333324">
		<tag k="name" v="Kråkøra" />
		<tag k="natural" v="beach" />
		<tag k="place" v="locality" />
		<tag k="ssr:stedsnr" v="165485" />
	</node>
	<node id="-901059" lat="64.100424999" lon="11.3292055477">
		<tag k="name" v="Djupvika" />
		<tag k="natural" v="bay" />
		<tag k="ssr:stedsnr" v="326834" />
	</node>
	<node id="-902209" lat="64.0077361107" lon="11.2041583257">
		<tag k="name" v="Vadaneset" />
		<tag k="natural" v="cape" />
		<tag k="ssr:stedsnr" v="924880" />
	</node>
	<node id="-902337" lat="64.0770444451" lon="11.2621944436">
		<tag k="name" v="Langnesøra" />
		<tag k="natural" v="cape" />
		<tag k="ssr:stedsnr" v="750827" />
	</node>
	<node id="-901310" lat="63.9864361152" lon="11.1289027857">
		<tag k="name" v="Kistvika" />
		<tag k="natural" v="bay" />
		<tag k="ssr:stedsnr" v="742550" />
	</node>
	<node id="-901179" lat="63.9843972212" lon="11.1160416757">
		<tag k="fixme" v="consider seamark:type=rock or natural=shoal" />
		<tag k="name" v="Storfollaskjæret" />
		<tag k="place" v="islet" />
		<tag k="ssr:stedsnr" v="878114" />
	</node>
	<node id="-901689" lat="63.9577194478" lon="11.0278361208">
		<tag k="fixme" v="consider seamark:type=rock or natural=shoal" />
		<tag k="name" v="Naustvikskjæret" />
		<tag k="place" v="islet" />
		<tag k="ssr:stedsnr" v="468142" />
	</node>
	<node id="-901686" lat="63.9749222215" lon="11.079227781">
		<tag k="name" v="Geitvika" />
		<tag k="natural" v="bay" />
		<tag k="ssr:stedsnr" v="635061" />
	</node>
	<node id="-902259" lat="63.935224997" lon="10.9805722276">
		<tag k="name" v="Storodden" />
		<tag k="natural" v="cape" />
		<tag k="ssr:stedsnr" v="89093" />
	</node>
	<node id="-901296" lat="64.0968361145" lon="11.3307805476">
		<tag k="name" v="Litingen" />
		<tag k="natural" v="cape" />
		<tag k="ssr:stedsnr" v="386829" />
	</node>
	<node id="-900783" lat="63.8053249987" lon="10.590230559">
		<tag k="name" v="Tangstadleira" />
		<tag k="natural" v="cape" />
		<tag k="ssr:stedsnr" v="878053" />
	</node>
	<node id="-902315" lat="64.1057055581" lon="11.3123111041">
		<tag k="name" v="Karebukta" />
		<tag k="natural" v="bay" />
		<tag k="ssr:stedsnr" v="22822" />
	</node>
	<node id="-902058" lat="63.8353583332" lon="10.6648055581">
		<tag k="name" v="Laupberget" />
		<tag k="natural" v="cape" />
		<tag k="ssr:stedsnr" v="410950" />
	</node>
	<node id="-901063" lat="63.9520805562" lon="11.0185333298">
		<tag k="name" v="Slåttavika" />
		<tag k="natural" v="bay" />
		<tag k="ssr:stedsnr" v="817128" />
	</node>
	<node id="-902306" lat="63.8384944491" lon="10.6736999913">
		<tag k="name" v="Langneset" />
		<tag k="natural" v="cape" />
		<tag k="ssr:stedsnr" v="332056" />
	</node>
	<node id="-901664" lat="64.0410472191" lon="11.096113882">
		<tag k="name" v="Isnestangen" />
		<tag k="natural" v="cape" />
		<tag k="ssr:stedsnr" v="291015" />
	</node>
	<node id="-901694" lat="64.0765611151" lon="11.2516138976">
		<tag k="name" v="Oldervika" />
		<tag k="natural" v="bay" />
		<tag k="ssr:stedsnr" v="265860" />
	</node>
	<node id="-901657" lat="64.0030499994" lon="11.1870999941">
		<tag k="name" v="Vaggsundet" />
		<tag k="natural" v="strait" />
		<tag k="ssr:stedsnr" v="756985" />
	</node>
	<node id="-901394" lat="63.8298388886" lon="10.654541668">
		<tag k="name" v="Laksneset" />
		<tag k="natural" v="cape" />
		<tag k="ssr:stedsnr" v="939037" />
	</node>
	<node id="-902289" lat="63.8057722252" lon="10.5940888835">
		<tag k="name" v="Nordvågen" />
		<tag k="natural" v="bay" />
		<tag k="ssr:stedsnr" v="332052" />
	</node>
	<node id="-900880" lat="64.0734888918" lon="11.2240916769">
		<tag k="name" v="Nersanda" />
		<tag k="natural" v="beach" />
		<tag k="place" v="locality" />
		<tag k="ssr:stedsnr" v="332968" />
	</node>
	<node id="-901134" lat="64.0010583302" lon="11.1886777759">
		<tag k="name" v="Vaggen" />
		<tag k="place" v="islet" />
		<tag k="ssr:stedsnr" v="560911" />
	</node>
	<node id="-901129" lat="63.8390750018" lon="10.676269452">
		<tag k="name" v="Trongsundet" />
		<tag k="natural" v="strait" />
		<tag k="ssr:stedsnr" v="377468" />
	</node>
	<node id="-901384" lat="63.8230833354" lon="10.6402499976">
		<tag k="name" v="Yttermoldøra" />
		<tag k="natural" v="cape" />
		<tag k="ssr:stedsnr" v="28071" />
	</node>
	<node id="-900741" lat="64.0913888848" lon="11.3213916736">
		<tag k="name" v="Beitstadsundet" />
		<tag k="natural" v="strait" />
		<tag k="ssr:stedsnr" v="933887" />
	</node>
</osm>
