<?xml version="1.0" encoding="UTF-8"?>
<osm generator="osmapis" version="0.6">
	<node id="-901017" lat="63.8788409693" lon="10.8308812982">
		<tag k="name" v="Oldersveet" />
		<tag k="place" v="locality" />
		<tag k="ssr:stedsnr" v="984320" />
	</node>
	<node id="-901010" lat="64.0293333361" lon="11.2027500032">
		<tag k="name" v="Nerenget" />
		<tag k="place" v="locality" />
		<tag k="ssr:stedsnr" v="681995" />
	</node>
	<node id="-901008" lat="64.0157590363" lon="10.7997894091">
		<tag k="fixme" v="consider place=hamlet" />
		<tag k="name" v="Kruven" />
		<tag k="place" v="farm" />
		<tag k="ssr:stedsnr" v="14980" />
	</node>
	<node id="-901002" lat="63.9122638908" lon="10.9299499978">
		<tag k="name" v="Ytter-Skjelstad" />
		<tag k="place" v="farm" />
		<tag k="ssr:stedsnr" v="14441" />
	</node>
	<node id="-900999" lat="64.0235388871" lon="11.0684777734">
		<tag k="historic" v="shieling" />
		<tag k="name" v="Malbuseteren" />
		<tag k="place" v="locality" />
		<tag k="ssr:stedsnr" v="776066" />
	</node>
	<node id="-900998" lat="64.1271083329" lon="11.1245833354">
		<tag k="name" v="Gustfallet" />
		<tag k="place" v="neighbourhood" />
		<tag k="ssr:stedsnr" v="178869" />
	</node>
	<node id="-900997" lat="63.9639127589" lon="11.0297188359">
		<tag k="name" v="Liaunet" />
		<tag k="place" v="locality" />
		<tag k="ssr:stedsnr" v="976023" />
	</node>
	<node id="-900991" lat="64.04503889" lon="11.2079416642">
		<tag k="name" v="Nordberg" />
		<tag k="place" v="farm" />
		<tag k="ssr:stedsnr" v="620930" />
	</node>
	<node id="-900986" lat="64.0221535353" lon="11.1052670334">
		<tag k="fixme" v="consider place=hamlet" />
		<tag k="name" v="Almlia" />
		<tag k="place" v="farm" />
		<tag k="ssr:stedsnr" v="438984" />
	</node>
	<node id="-900985" lat="63.7665194483" lon="10.4754861203">
		<tag k="name" v="Lyngset" />
		<tag k="place" v="farm" />
		<tag k="ssr:stedsnr" v="620409" />
	</node>
	<node id="-900983" lat="64.0108055512" lon="11.2071166629">
		<tag k="name" v="Vada ytre" />
		<tag k="place" v="farm" />
		<tag k="ssr:stedsnr" v="514123" />
	</node>
	<node id="-900975" lat="63.9062055532" lon="10.9210944468">
		<tag k="name" v="Øyster-Sand" />
		<tag k="place" v="farm" />
		<tag k="ssr:stedsnr" v="559508" />
	</node>
	<node id="-900970" lat="64.1149388918" lon="10.9834027764">
		<tag k="name" v="Nordesplingsetran" />
		<tag k="place" v="locality" />
		<tag k="ssr:stedsnr" v="135480" />
	</node>
	<node id="-900969" lat="63.7961083312" lon="10.5854805568">
		<tag k="name" v="Vågen" />
		<tag k="place" v="isolated_dwelling" />
		<tag k="ssr:stedsnr" v="74465" />
	</node>
	<node id="-900968" lat="64.0212777803" lon="11.0210416675">
		<tag k="name" v="Holsetran" />
		<tag k="place" v="locality" />
		<tag k="ssr:stedsnr" v="438989" />
	</node>
	<node id="-900965" lat="64.0282249956" lon="10.8719583327">
		<tag k="historic" v="shieling" />
		<tag k="name" v="Ytre Sandvasstømte" />
		<tag k="place" v="locality" />
		<tag k="ssr:stedsnr" v="533098" />
	</node>
	<node id="-900964" lat="63.7740200349" lon="10.4832908133">
		<tag k="name" v="Midtre Ørsjødalen" />
		<tag k="place" v="farm" />
		<tag k="ssr:stedsnr" v="257485" />
	</node>
	<node id="-900959" lat="64.0959718956" lon="11.3245703572">
		<tag k="fixme" v="consider place=hamlet" />
		<tag k="name" v="Strømnes" />
		<tag k="place" v="farm" />
		<tag k="ssr:stedsnr" v="629850" />
	</node>
	<node id="-900949" lat="64.0571153361" lon="11.148766452">
		<tag k="fixme" v="consider place=hamlet" />
		<tag k="name" v="Rennmoen" />
		<tag k="place" v="farm" />
		<tag k="ssr:stedsnr" v="14964" />
	</node>
	<node id="-900940" lat="63.7556305518" lon="10.4741555641">
		<tag k="historic" v="shieling" />
		<tag k="name" v="Laupheimen" />
		<tag k="place" v="locality" />
		<tag k="ssr:stedsnr" v="210256" />
	</node>
	<node id="-900935" lat="63.7927083306" lon="10.5499333257">
		<tag k="name" v="Øvre Tangstad" />
		<tag k="place" v="farm" />
		<tag k="ssr:stedsnr" v="317408" />
	</node>
	<node id="-900930" lat="64.1031277776" lon="10.9277527786">
		<tag k="name" v="Torslisetran" />
		<tag k="place" v="isolated_dwelling" />
		<tag k="ssr:stedsnr" v="559497" />
	</node>
	<node id="-900922" lat="63.8849083321" lon="10.8546888903">
		<tag k="name" v="Ytter-Stavrem" />
		<tag k="place" v="farm" />
		<tag k="ssr:stedsnr" v="256674" />
	</node>
	<node id="-900919" lat="64.086630558" lon="11.222933326">
		<tag k="name" v="Fosseng" />
		<tag k="place" v="farm" />
		<tag k="ssr:stedsnr" v="863236" />
	</node>
	<node id="-900916" lat="63.9005388932" lon="10.9046944391">
		<tag k="name" v="Saltbua" />
		<tag k="place" v="isolated_dwelling" />
		<tag k="ssr:stedsnr" v="408520" />
	</node>
	<node id="-900915" lat="64.0434666634" lon="11.0837999936">
		<tag k="building" v="industrial" />
		<tag k="industrial" v="factory" />
		<tag k="name" v="Brattingfoss" />
		<tag k="ssr:stedsnr" v="256934" />
	</node>
	<node id="-900914" lat="64.0119499962" lon="11.1943777857">
		<tag k="name" v="Persplassen" />
		<tag k="place" v="locality" />
		<tag k="ssr:stedsnr" v="574120" />
	</node>
	<node id="-900902" lat="64.0455750012" lon="11.1083555515">
		<tag k="name" v="Kolhaugen" />
		<tag k="place" v="farm" />
		<tag k="ssr:stedsnr" v="620924" />
	</node>
	<node id="-900901" lat="63.7556111079" lon="10.4487916744">
		<tag k="name" v="Aursand" />
		<tag k="place" v="farm" />
		<tag k="ssr:stedsnr" v="924366" />
	</node>
	<node id="-900897" lat="64.0413583341" lon="11.1154333362">
		<tag k="name" v="Antonhaugen" />
		<tag k="place" v="farm" />
		<tag k="ssr:stedsnr" v="620923" />
	</node>
	<node id="-900896" lat="63.8473086448" lon="10.6939416765">
		<tag k="fixme" v="consider place=hamlet" />
		<tag k="name" v="Moldan" />
		<tag k="place" v="farm" />
		<tag k="ssr:stedsnr" v="976022" />
	</node>
	<node id="-900883" lat="63.801336112" lon="10.5794444486">
		<tag k="name" v="Fineshaugen" />
		<tag k="place" v="farm" />
		<tag k="ssr:stedsnr" v="453030" />
	</node>
	<node id="-900876" lat="64.0591361129" lon="11.1522416699">
		<tag k="name" v="Fjellgårdan" />
		<tag k="place" v="hamlet" />
		<tag k="ssr:stedsnr" v="543582" />
	</node>
	<node id="-900871" lat="63.8026250029" lon="10.5815249956">
		<tag k="fixme" v="consider place=hamlet" />
		<tag k="name" v="Verrabotn" />
		<tag k="place" v="village" />
		<tag k="ssr:stedsnr" v="438446" />
	</node>
	<node id="-900862" lat="63.8849095693" lon="10.85460355">
		<tag k="name" v="Stavrem" />
		<tag k="place" v="farm" />
		<tag k="ssr:stedsnr" v="694246" />
	</node>
	<node id="-900861" lat="64.0733138906" lon="11.2165416636">
		<tag k="fixme" v="consider place=suburb, village or hamlet" />
		<tag k="name" v="Malmlia" />
		<tag k="place" v="quarter" />
		<tag k="ssr:stedsnr" v="543584" />
	</node>
	<node id="-900860" lat="63.77988611" lon="10.5024583367">
		<tag k="name" v="Buenget" />
		<tag k="place" v="isolated_dwelling" />
		<tag k="ssr:stedsnr" v="256388" />
	</node>
	<node id="-900855" lat="64.0700027734" lon="11.2159277747">
		<tag k="amenity" v="school" />
		<tag k="name" v="Malm skole" />
		<tag k="ssr:stedsnr" v="241213" />
	</node>
	<node id="-900854" lat="63.8984777819" lon="10.9006138902">
		<tag k="name" v="Sjøbakken" />
		<tag k="place" v="farm" />
		<tag k="ssr:stedsnr" v="863519" />
	</node>
	<node id="-900851" lat="64.0811388905" lon="11.2408166592">
		<tag k="name" v="Skardset" />
		<tag k="place" v="quarter" />
		<tag k="ssr:stedsnr" v="543587" />
	</node>
	<node id="-900850" lat="64.0240583299" lon="10.9915666625">
		<tag k="alt_name" v="Midterheia" />
		<tag k="historic" v="shieling" />
		<tag k="name" v="Midterheiseteren" />
		<tag k="old_name" v="Midtreheiaseteren" />
		<tag k="place" v="locality" />
		<tag k="ssr:stedsnr" v="135984" />
	</node>
	<node id="-900842" lat="64.0240972204" lon="11.1614833423">
		<tag k="historic" v="shieling" />
		<tag k="name" v="Verstjønntømte" />
		<tag k="place" v="locality" />
		<tag k="ssr:stedsnr" v="931351" />
	</node>
	<node id="-900816" lat="64.0156333325" lon="11.2104888836">
		<tag k="name" v="Vada" />
		<tag k="place" v="farm" />
		<tag k="ssr:stedsnr" v="574096" />
	</node>
	<node id="-900809" lat="64.0198611107" lon="11.1114305618">
		<tag k="name" v="Vadamelen" />
		<tag k="place" v="farm" />
		<tag k="ssr:stedsnr" v="135981" />
	</node>
	<node id="-900806" lat="64.0134194422" lon="10.9567944373">
		<tag k="historic" v="shieling" />
		<tag k="name" v="Nysetertømte" />
		<tag k="place" v="locality" />
		<tag k="ssr:stedsnr" v="533059" />
	</node>
	<node id="-900801" lat="64.0608898538" lon="11.1650002481">
		<tag k="fixme" v="consider place=hamlet" />
		<tag k="name" v="Ystmarka" />
		<tag k="place" v="farm" />
		<tag k="ssr:stedsnr" v="74968" />
	</node>
	<node id="-900800" lat="64.0278346648" lon="10.820555752">
		<tag k="fixme" v="consider place=hamlet" />
		<tag k="name" v="Ner-Silderen" />
		<tag k="place" v="farm" />
		<tag k="ssr:stedsnr" v="559993" />
	</node>
	<node id="-900797" lat="64.0463555588" lon="11.0922416647">
		<tag k="alt_name" v="Folladal øvre" />
		<tag k="name" v="Øvre Folladal" />
		<tag k="place" v="farm" />
		<tag k="ssr:stedsnr" v="351036" />
	</node>
	<node id="-900796" lat="64.0479916628" lon="11.1282527815">
		<tag k="historic" v="shieling" />
		<tag k="name" v="Brattreittømtet" />
		<tag k="place" v="locality" />
		<tag k="ssr:stedsnr" v="776421" />
	</node>
	<node id="-900794" lat="63.7815222246" lon="10.5289499987">
		<tag k="historic" v="shieling" />
		<tag k="name" v="Nesseteren" />
		<tag k="place" v="locality" />
		<tag k="ssr:stedsnr" v="817020" />
	</node>
	<node id="-900776" lat="64.0707397698" lon="11.2153947718">
		<tag k="fixme" v="consider place=hamlet" />
		<tag k="name" v="Malm" />
		<tag k="place" v="farm" />
		<tag k="ssr:stedsnr" v="976018" />
	</node>
	<node id="-900774" lat="63.8850950274" lon="10.8548100926">
		<tag k="fixme" v="consider place=hamlet" />
		<tag k="name" v="Stavrem" />
		<tag k="place" v="farm" />
		<tag k="ssr:stedsnr" v="952467" />
	</node>
	<node id="-900770" lat="64.0114277788" lon="10.9887333328">
		<tag k="name" v="Sneppen" />
		<tag k="place" v="farm" />
		<tag k="ssr:stedsnr" v="533045" />
	</node>
	<node id="-900769" lat="63.798108335" lon="10.5731305629">
		<tag k="name" v="Finesaunet" />
		<tag k="place" v="farm" />
		<tag k="ssr:stedsnr" v="742436" />
	</node>
	<node id="-900764" lat="64.0973750038" lon="11.2488555507">
		<tag k="name" v="Geilsvean" />
		<tag k="place" v="locality" />
		<tag k="ssr:stedsnr" v="508187" />
	</node>
	<node id="-900751" lat="64.019247219" lon="11.0990611057">
		<tag k="name" v="Plassen" />
		<tag k="place" v="locality" />
		<tag k="ssr:stedsnr" v="169048" />
	</node>
	<node id="-900749" lat="63.8085694432" lon="10.60063611">
		<tag k="name" v="Tangvika" />
		<tag k="place" v="farm" />
		<tag k="ssr:stedsnr" v="514054" />
	</node>
	<node id="-900747" lat="63.8874027751" lon="10.8635777713">
		<tag k="name" v="Buenget" />
		<tag k="place" v="farm" />
		<tag k="ssr:stedsnr" v="105501" />
	</node>
	<node id="-900744" lat="64.0470944472" lon="11.1013000058">
		<tag k="alt_name" v="Folladal nedre" />
		<tag k="name" v="Folladal" />
		<tag k="place" v="farm" />
		<tag k="ssr:stedsnr" v="74962" />
	</node>
	<node id="-900739" lat="63.7639388881" lon="10.4634527789">
		<tag k="name" v="Aursjømyr" />
		<tag k="place" v="farm" />
		<tag k="ssr:stedsnr" v="332014" />
	</node>
	<node id="-900737" lat="63.7736188854" lon="10.4818497631">
		<tag k="fixme" v="consider place=hamlet" />
		<tag k="name" v="Ørsjødalen" />
		<tag k="place" v="farm" />
		<tag k="ssr:stedsnr" v="816541" />
	</node>
	<node id="-900731" lat="64.0503055568" lon="11.0988250077">
		<tag k="name" v="Lønnsbrekka" />
		<tag k="place" v="locality" />
		<tag k="ssr:stedsnr" v="716025" />
	</node>
	<node id="-900723" lat="63.7594750022" lon="10.4540916659">
		<tag k="name" v="Brubakk" />
		<tag k="place" v="farm" />
		<tag k="ssr:stedsnr" v="257445" />
	</node>
	<node id="-900715" lat="63.8087138915" lon="10.6069055458">
		<tag k="name" v="Melan" />
		<tag k="place" v="isolated_dwelling" />
		<tag k="ssr:stedsnr" v="14383" />
	</node>
	<node id="-900710" lat="63.8768944447" lon="10.8278111203">
		<tag k="name" v="Øra" />
		<tag k="place" v="farm" />
		<tag k="ssr:stedsnr" v="223443" />
	</node>
	<node id="-900706" lat="63.9493472258" lon="11.0012444348">
		<tag k="name" v="Teigen" />
		<tag k="place" v="farm" />
		<tag k="ssr:stedsnr" v="712700" />
	</node>
	<node id="-900698" lat="63.8411777779" lon="10.6786833404">
		<tag k="name" v="Buberg" />
		<tag k="place" v="locality" />
		<tag k="ssr:stedsnr" v="89063" />
	</node>
	<node id="-900691" lat="63.7572694468" lon="10.455844453">
		<tag k="name" v="Vinnan" />
		<tag k="place" v="farm" />
		<tag k="ssr:stedsnr" v="620362" />
	</node>
	<node id="-900690" lat="63.878558329" lon="10.8335222284">
		<tag k="name" v="Bergsli" />
		<tag k="place" v="isolated_dwelling" />
		<tag k="ssr:stedsnr" v="650457" />
	</node>
	<node id="-900686" lat="63.8726489739" lon="10.7999889156">
		<tag k="fixme" v="consider place=hamlet" />
		<tag k="name" v="Vølset" />
		<tag k="place" v="farm" />
		<tag k="ssr:stedsnr" v="14642" />
	</node>
	<node id="-900673" lat="64.0378388873" lon="11.1291138872">
		<tag k="name" v="Vestre Kilåsen" />
		<tag k="place" v="farm" />
		<tag k="ssr:stedsnr" v="58527" />
	</node>
	<node id="-900664" lat="64.0200472227" lon="10.8169666709">
		<tag k="historic" v="shieling" />
		<tag k="name" v="Fellessetran" />
		<tag k="place" v="locality" />
		<tag k="ssr:stedsnr" v="378974" />
	</node>
	<node id="-900663" lat="64.0975062585" lon="11.2812929488">
		<tag k="fixme" v="consider place=hamlet" />
		<tag k="name" v="Landsem" />
		<tag k="place" v="farm" />
		<tag k="ssr:stedsnr" v="378129" />
	</node>
	<node id="-900661" lat="64.0699138932" lon="11.2121277687">
		<tag k="name" v="Øver-Malm" />
		<tag k="place" v="farm" />
		<tag k="ssr:stedsnr" v="635973" />
	</node>
	<node id="-900652" lat="63.8021361135" lon="10.6067999997">
		<tag k="name" v="Kvernavika" />
		<tag k="place" v="isolated_dwelling" />
		<tag k="ssr:stedsnr" v="742419" />
	</node>
	<node id="-900650" lat="63.9949416678" lon="11.1679555529">
		<tag k="name" v="Sandneset" />
		<tag k="place" v="farm" />
		<tag k="ssr:stedsnr" v="134632" />
	</node>
	<node id="-900649" lat="64.039683334" lon="11.1286999988">
		<tag k="name" v="Nordre Kilåsen" />
		<tag k="place" v="farm" />
		<tag k="ssr:stedsnr" v="74946" />
	</node>
	<node id="-900644" lat="64.0920194456" lon="11.2284111023">
		<tag k="name" v="Tverås" />
		<tag k="place" v="farm" />
		<tag k="ssr:stedsnr" v="635941" />
	</node>
	<node id="-900630" lat="63.8034527791" lon="10.5268416628">
		<tag k="historic" v="shieling" />
		<tag k="name" v="Vester-Tangstadseteren" />
		<tag k="place" v="locality" />
		<tag k="ssr:stedsnr" v="514030" />
	</node>
	<node id="-900627" lat="64.0958777749" lon="11.261758327">
		<tag k="name" v="Vassenget" />
		<tag k="place" v="farm" />
		<tag k="ssr:stedsnr" v="143803" />
	</node>
	<node id="-900622" lat="63.8334805565" lon="10.6582722129">
		<tag k="alt_name" v="Moldlia" />
		<tag k="name" v="Lia" />
		<tag k="place" v="isolated_dwelling" />
		<tag k="ssr:stedsnr" v="619522" />
	</node>
	<node id="-900621" lat="64.0833388921" lon="10.9395333271">
		<tag k="name" v="Gammeltømtet" />
		<tag k="place" v="isolated_dwelling" />
		<tag k="ssr:stedsnr" v="499466" />
	</node>
	<node id="-900614" lat="64.0378888912" lon="11.1292611099">
		<tag k="name" v="Kilåsen" />
		<tag k="place" v="farm" />
		<tag k="ssr:stedsnr" v="74944" />
	</node>
	<node id="-900605" lat="63.7489888913" lon="10.4554638931">
		<tag k="historic" v="shieling" />
		<tag k="name" v="Jensenseteren" />
		<tag k="place" v="locality" />
		<tag k="ssr:stedsnr" v="47976" />
	</node>
	<node id="-900602" lat="63.8539000036" lon="10.7220500026">
		<tag k="name" v="Tømmerberget" />
		<tag k="place" v="isolated_dwelling" />
		<tag k="ssr:stedsnr" v="863727" />
	</node>
	<node id="-900597" lat="64.0852899323" lon="11.2224660454">
		<tag k="name" v="Fossdal" />
		<tag k="place" v="farm" />
		<tag k="ssr:stedsnr" v="863199" />
	</node>
	<node id="-900595" lat="63.9935083371" lon="11.1071055541">
		<tag k="name" v="Storsvebakken" />
		<tag k="place" v="locality" />
		<tag k="ssr:stedsnr" v="635112" />
	</node>
	<node id="-900593" lat="63.8033154867" lon="10.5937164062">
		<tag k="fixme" v="consider place=hamlet" />
		<tag k="name" v="Fines" />
		<tag k="place" v="farm" />
		<tag k="ssr:stedsnr" v="559435" />
	</node>
	<node id="-900591" lat="64.0224916676" lon="11.2174805631">
		<tag k="name" v="Stranda" />
		<tag k="place" v="farm" />
		<tag k="ssr:stedsnr" v="439977" />
	</node>
	<node id="-900589" lat="63.7541027808" lon="10.4462055654">
		<tag k="name" v="Midtgard" />
		<tag k="place" v="farm" />
		<tag k="ssr:stedsnr" v="438392" />
	</node>
	<node id="-900587" lat="64.0971777748" lon="11.2181805582">
		<tag k="name" v="Stjernen" />
		<tag k="place" v="farm" />
		<tag k="ssr:stedsnr" v="341803" />
	</node>
	<node id="-900580" lat="63.8244545696" lon="10.6395441293">
		<tag k="fixme" v="consider place=hamlet" />
		<tag k="name" v="Raudmoldan" />
		<tag k="place" v="farm" />
		<tag k="ssr:stedsnr" v="619533" />
	</node>
	<node id="-900579" lat="63.8041444468" lon="10.584608342">
		<tag k="name" v="Nordre Tangstad" />
		<tag k="place" v="farm" />
		<tag k="ssr:stedsnr" v="559438" />
	</node>
	<node id="-900576" lat="63.8117472253" lon="10.5477277869">
		<tag k="historic" v="shieling" />
		<tag k="name" v="Auster-Tangstadseteren" />
		<tag k="place" v="locality" />
		<tag k="ssr:stedsnr" v="89031" />
	</node>
	<node id="-900575" lat="63.9848555566" lon="11.1110583353">
		<tag k="name" v="Follaflata" />
		<tag k="place" v="quarter" />
		<tag k="ssr:stedsnr" v="421886" />
	</node>
	<node id="-900565" lat="64.0282000033" lon="10.9104388929">
		<tag k="historic" v="shieling" />
		<tag k="name" v="Sandvasstømte" />
		<tag k="place" v="locality" />
		<tag k="ssr:stedsnr" v="229101" />
	</node>
	<node id="-900564" lat="63.7744674465" lon="10.4853943702">
		<tag k="name" v="Austre Ørsjødalen" />
		<tag k="place" v="farm" />
		<tag k="ssr:stedsnr" v="803449" />
	</node>
	<node id="-900545" lat="64.0064333316" lon="11.191780557">
		<tag k="name" v="Nesvoll" />
		<tag k="place" v="farm" />
		<tag k="ssr:stedsnr" v="681903" />
	</node>
	<node id="-900543" lat="64.0954325927" lon="11.2185433511">
		<tag k="fixme" v="consider place=hamlet" />
		<tag k="name" v="Stjerna" />
		<tag k="place" v="farm" />
		<tag k="ssr:stedsnr" v="499172" />
	</node>
	<node id="-900541" lat="63.8759194477" lon="10.8151027869">
		<tag k="name" v="Berg" />
		<tag k="place" v="farm" />
		<tag k="ssr:stedsnr" v="803704" />
	</node>
	<node id="-900531" lat="63.7918805573" lon="10.5365472265">
		<tag k="name" v="Brennfjellia" />
		<tag k="place" v="locality" />
		<tag k="ssr:stedsnr" v="89008" />
	</node>
	<node id="-900526" lat="64.0055555522" lon="10.9398638858">
		<tag k="name" v="Kjåppån" />
		<tag k="place" v="farm" />
		<tag k="ssr:stedsnr" v="742910" />
	</node>
	<node id="-900524" lat="64.0387944457" lon="11.2159083262">
		<tag k="name" v="Rossvoll" />
		<tag k="place" v="farm" />
		<tag k="ssr:stedsnr" v="135935" />
	</node>
	<node id="-900521" lat="63.8972472194" lon="10.8971916748">
		<tag k="name" v="Sveet" />
		<tag k="place" v="farm" />
		<tag k="ssr:stedsnr" v="13532" />
	</node>
	<node id="-900515" lat="63.7774138906" lon="10.5451722237">
		<tag k="historic" v="shieling" />
		<tag k="name" v="Vågaseteren" />
		<tag k="place" v="locality" />
		<tag k="ssr:stedsnr" v="89012" />
	</node>
	<node id="-900506" lat="63.7896222263" lon="10.5485861123">
		<tag k="name" v="Setran" />
		<tag k="place" v="farm" />
		<tag k="ssr:stedsnr" v="742392" />
	</node>
	<node id="-900505" lat="63.876794444" lon="10.8255638921">
		<tag k="name" v="Voll" />
		<tag k="place" v="farm" />
		<tag k="ssr:stedsnr" v="439704" />
	</node>
	<node id="-900478" lat="64.0598416654" lon="11.2089416662">
		<tag k="name" v="Haugan" />
		<tag k="place" v="farm" />
		<tag k="ssr:stedsnr" v="28997" />
	</node>
	<node id="-900462" lat="63.7709138861" lon="10.481086103">
		<tag k="name" v="Sandvoll" />
		<tag k="place" v="farm" />
		<tag k="ssr:stedsnr" v="271258" />
	</node>
	<node id="-900460" lat="64.0534944436" lon="11.1310055573">
		<tag k="name" v="Heimstad" />
		<tag k="old_name" v="Heimdal" />
		<tag k="place" v="farm" />
		<tag k="ssr:stedsnr" v="863960" />
	</node>
	<node id="-900459" lat="64.0108527786" lon="11.2035833372">
		<tag k="name" v="Nordgard" />
		<tag k="place" v="farm" />
		<tag k="ssr:stedsnr" v="14875" />
	</node>
	<node id="-900453" lat="64.071044441" lon="11.201430565">
		<tag k="name" v="Sveian" />
		<tag k="place" v="farm" />
		<tag k="ssr:stedsnr" v="756994" />
	</node>
	<node id="-900442" lat="64.0945027758" lon="11.3106472151">
		<tag k="name" v="Kalvhåggån" />
		<tag k="place" v="locality" />
		<tag k="ssr:stedsnr" v="447839" />
	</node>
	<node id="-900441" lat="64.0014083321" lon="11.1790305521">
		<tag k="alt_name" v="Sagen" />
		<tag k="name" v="Saga" />
		<tag k="place" v="farm" />
		<tag k="ssr:stedsnr" v="14872" />
	</node>
	<node id="-900420" lat="64.0625805588" lon="11.1701277805">
		<tag k="name" v="Østre Ystmarka" />
		<tag k="place" v="farm" />
		<tag k="ssr:stedsnr" v="472679" />
	</node>
	<node id="-900413" lat="64.0648892599" lon="11.2107990141">
		<tag k="name" v="Brattreit" />
		<tag k="place" v="hamlet" />
		<tag k="ssr:stedsnr" v="924530" />
	</node>
	<node id="-900412" lat="63.9883555597" lon="11.1000583314">
		<tag k="name" v="Bakkan" />
		<tag k="place" v="quarter" />
		<tag k="ssr:stedsnr" v="967916" />
	</node>
	<node id="-900411" lat="64.017899961" lon="11.2111786698">
		<tag k="fixme" v="consider place=hamlet" />
		<tag k="name" v="Inner-Vada" />
		<tag k="place" v="farm" />
		<tag k="ssr:stedsnr" v="196980" />
	</node>
	<node id="-900407" lat="64.0365621149" lon="10.8396020094">
		<tag k="fixme" v="consider place=hamlet" />
		<tag k="name" v="Øver-Silderen" />
		<tag k="place" v="farm" />
		<tag k="ssr:stedsnr" v="559941" />
	</node>
	<node id="-900406" lat="63.8394972256" lon="10.6324944368">
		<tag k="name" v="Raudmoldsetran" />
		<tag k="place" v="isolated_dwelling" />
		<tag k="ssr:stedsnr" v="741554" />
	</node>
	<node id="-900395" lat="64.0047361148" lon="11.1869222127">
		<tag k="name" v="Godthåp" />
		<tag k="place" v="farm" />
		<tag k="ssr:stedsnr" v="257929" />
	</node>
	<node id="-900394" lat="64.0919423506" lon="11.3137468301">
		<tag k="name" v="Strømnesaunet" />
		<tag k="place" v="farm" />
		<tag k="ssr:stedsnr" v="265872" />
	</node>
	<node id="-900384" lat="63.9538083378" lon="11.0134444356">
		<tag k="name" v="Torsveet" />
		<tag k="place" v="farm" />
		<tag k="ssr:stedsnr" v="378648" />
	</node>
	<node id="-900379" lat="64.1209499992" lon="11.1232694392">
		<tag k="name" v="Storlisetran" />
		<tag k="place" v="locality" />
		<tag k="ssr:stedsnr" v="256588" />
	</node>
	<node id="-900372" lat="63.8805750035" lon="10.842819445">
		<tag k="name" v="Sjømark" />
		<tag k="place" v="farm" />
		<tag k="ssr:stedsnr" v="635079" />
	</node>
	<node id="-900370" lat="64.0703833342" lon="11.2187027731">
		<tag k="name" v="Ner-Malm" />
		<tag k="place" v="farm" />
		<tag k="ssr:stedsnr" v="696976" />
	</node>
	<node id="-900369" lat="63.9618694468" lon="10.8226083246">
		<tag k="name" v="Fossatømtet" />
		<tag k="place" v="locality" />
		<tag k="ssr:stedsnr" v="317576" />
	</node>
	<node id="-900363" lat="63.9882888886" lon="10.8894555477">
		<tag k="alt_name" v="Sandseter østre" />
		<tag k="name" v="Østre Sandseter" />
		<tag k="place" v="farm" />
		<tag k="ssr:stedsnr" v="47101" />
	</node>
	<node id="-900362" lat="63.9780345866" lon="11.082742919">
		<tag k="fixme" v="consider place=hamlet" />
		<tag k="name" v="Geitvika" />
		<tag k="place" v="farm" />
		<tag k="ssr:stedsnr" v="377560" />
	</node>
	<node id="-900358" lat="63.8674027787" lon="10.7787277784">
		<tag k="name" v="Svean" />
		<tag k="place" v="farm" />
		<tag k="ssr:stedsnr" v="499701" />
	</node>
	<node id="-900353" lat="63.9876611115" lon="11.1145388882">
		<tag k="name" v="Geilbakken" />
		<tag k="place" v="isolated_dwelling" />
		<tag k="ssr:stedsnr" v="210105" />
	</node>
	<node id="-900352" lat="64.1016944467" lon="11.2551138915">
		<tag k="name" v="Mo" />
		<tag k="place" v="farm" />
		<tag k="ssr:stedsnr" v="803134" />
	</node>
	<node id="-900347" lat="64.0539222195" lon="11.0526749965">
		<tag k="name" v="Holden" />
		<tag k="old_name" v="Holden Pensjonat" />
		<tag k="place" v="farm" />
		<tag k="ssr:stedsnr" v="863965" />
	</node>
	<node id="-900345" lat="64.0533888894" lon="11.2097305501">
		<tag k="alt_name" v="Kjerkreit" />
		<tag k="name" v="Kirkreit" />
		<tag k="place" v="farm" />
		<tag k="ssr:stedsnr" v="967562" />
	</node>
	<node id="-900342" lat="64.0761166671" lon="11.2393666584">
		<tag k="name" v="Tjuin" />
		<tag k="place" v="quarter" />
		<tag k="ssr:stedsnr" v="447834" />
	</node>
	<node id="-900341" lat="64.0484750044" lon="11.0197972133">
		<tag k="name" v="Pissbekksetran" />
		<tag k="place" v="locality" />
		<tag k="ssr:stedsnr" v="863964" />
	</node>
	<node id="-900339" lat="64.0938194475" lon="11.3172694499">
		<tag k="name" v="Rønningan" />
		<tag k="place" v="locality" />
		<tag k="ssr:stedsnr" v="872865" />
	</node>
	<node id="-900337" lat="64.0518638855" lon="10.9723222312">
		<tag k="name" v="Spildernysetran" />
		<tag k="place" v="isolated_dwelling" />
		<tag k="ssr:stedsnr" v="499961" />
	</node>
	<node id="-900333" lat="63.9420833313" lon="10.9891305636">
		<tag k="name" v="Tunsøra" />
		<tag k="place" v="farm" />
		<tag k="ssr:stedsnr" v="378638" />
	</node>
	<node id="-900330" lat="64.0968305533" lon="11.2724138955">
		<tag k="name" v="Vestre Landsem" />
		<tag k="place" v="farm" />
		<tag k="ssr:stedsnr" v="872827" />
	</node>
	<node id="-900326" lat="64.018555553" lon="11.1958222118">
		<tag k="name" v="Storbakken" />
		<tag k="place" v="locality" />
		<tag k="ssr:stedsnr" v="210097" />
	</node>
	<node id="-900325" lat="63.7865722263" lon="10.5266222278">
		<tag k="name" v="Sagen" />
		<tag k="place" v="farm" />
		<tag k="ssr:stedsnr" v="75438" />
	</node>
	<node id="-900323" lat="63.9445027774" lon="11.0019777799">
		<tag k="name" v="Ner-Tua" />
		<tag k="place" v="farm" />
		<tag k="ssr:stedsnr" v="317569" />
	</node>
	<node id="-900319" lat="64.0252250029" lon="11.2141472325">
		<tag k="name" v="Rambergplassen" />
		<tag k="place" v="farm" />
		<tag k="ssr:stedsnr" v="210099" />
	</node>
	<node id="-900318" lat="64.0112194426" lon="11.0498638863">
		<tag k="historic" v="shieling" />
		<tag k="name" v="Nordlisetran" />
		<tag k="place" v="locality" />
		<tag k="ssr:stedsnr" v="196968" />
	</node>
	<node id="-900316" lat="64.078433334" lon="11.2217055616">
		<tag k="name" v="Tigerbyen" />
		<tag k="place" v="quarter" />
		<tag k="ssr:stedsnr" v="664570" />
	</node>
	<node id="-900311" lat="63.8722833298" lon="10.6919972122">
		<tag k="historic" v="shieling" />
		<tag k="name" v="Ormsetseteren" />
		<tag k="place" v="locality" />
		<tag k="ssr:stedsnr" v="290233" />
	</node>
	<node id="-900304" lat="64.0542222221" lon="11.1309777764">
		<tag k="name" v="Brenna" />
		<tag k="place" v="farm" />
		<tag k="ssr:stedsnr" v="499965" />
	</node>
	<node id="-900302" lat="64.056822222" lon="11.2114222295">
		<tag k="alt_name" v="Kjerkreit indre" />
		<tag k="name" v="Indre Kjerkreit" />
		<tag k="place" v="farm" />
		<tag k="ssr:stedsnr" v="149980" />
	</node>
	<node id="-900294" lat="63.8752527788" lon="10.8103555461">
		<tag k="name" v="Åsheim" />
		<tag k="place" v="farm" />
		<tag k="ssr:stedsnr" v="864734" />
	</node>
	<node id="-900290" lat="63.9061345366" lon="10.9201514387">
		<tag k="name" v="Sand" />
		<tag k="place" v="hamlet" />
		<tag k="ssr:stedsnr" v="815260" />
	</node>
	<node id="-900282" lat="63.8789444466" lon="10.7501333335">
		<tag k="historic" v="shieling" />
		<tag k="name" v="Lauvliseteren" />
		<tag k="place" v="locality" />
		<tag k="ssr:stedsnr" v="210092" />
	</node>
	<node id="-900279" lat="64.0937944453" lon="11.2328638817">
		<tag k="name" v="Tverrås" />
		<tag k="place" v="quarter" />
		<tag k="ssr:stedsnr" v="585710" />
	</node>
	<node id="-900267" lat="64.0583388894" lon="11.1518527713">
		<tag k="name" v="Rennemo" />
		<tag k="place" v="farm" />
		<tag k="ssr:stedsnr" v="351690" />
	</node>
	<node id="-900265" lat="63.7602833326" lon="10.4567777868">
		<tag k="name" v="Engum" />
		<tag k="place" v="farm" />
		<tag k="ssr:stedsnr" v="803401" />
	</node>
	<node id="-900249" lat="63.7648388868" lon="10.4722972219">
		<tag k="name" v="Vassbakken" />
		<tag k="place" v="farm" />
		<tag k="ssr:stedsnr" v="14310" />
	</node>
	<node id="-900227" lat="64.0954794531" lon="11.3239907696">
		<tag k="name" v="Strømnes" />
		<tag k="place" v="farm" />
		<tag k="ssr:stedsnr" v="741283" />
	</node>
	<node id="-900225" lat="64.0908972212" lon="11.306005553">
		<tag k="name" v="Fauk" />
		<tag k="place" v="locality" />
		<tag k="ssr:stedsnr" v="447807" />
	</node>
	<node id="-900224" lat="64.0661000044" lon="11.2210111195">
		<tag k="name" v="Brattreitøra" />
		<tag k="place" v="quarter" />
		<tag k="ssr:stedsnr" v="118544" />
	</node>
	<node id="-900218" lat="63.846991667" lon="10.6933972312">
		<tag k="alt_name" v="Moldan vestre" />
		<tag k="fixme" v="multiple name tags, choose one and add the other to alt_name" />
		<tag k="loc_name" v="Moldan østre" />
		<tag k="name" v="Moldan;Vestre Moldan" />
		<tag k="place" v="farm" />
		<tag k="ssr:stedsnr" v="741546" />
	</node>
	<node id="-900210" lat="63.9864749956" lon="10.8814777794">
		<tag k="loc_name" v="Sandseter øvre" />
		<tag k="name" v="Øvre Sandseter" />
		<tag k="place" v="farm" />
		<tag k="ssr:stedsnr" v="162441" />
	</node>
	<node id="-900194" lat="64.0335000007" lon="11.0485083349">
		<tag k="name" v="Kristianrommet" />
		<tag k="place" v="locality" />
		<tag k="ssr:stedsnr" v="291001" />
	</node>
	<node id="-900188" lat="64.0460888859" lon="11.2092361182">
		<tag k="name" v="Vika" />
		<tag k="place" v="hamlet" />
		<tag k="ssr:stedsnr" v="879000" />
	</node>
	<node id="-900183" lat="63.9862777815" lon="11.1138027682">
		<tag k="name" v="Follafoss" />
		<tag k="place" v="village" />
		<tag k="ssr:stedsnr" v="681574" />
	</node>
	<node id="-900171" lat="63.9627978209" lon="11.024622653">
		<tag k="name" v="Nygården" />
		<tag k="place" v="locality" />
		<tag k="ssr:stedsnr" v="742594" />
	</node>
	<node id="-900161" lat="63.8763305533" lon="10.643383337">
		<tag k="historic" v="shieling" />
		<tag k="name" v="Alfheimseteren" />
		<tag k="place" v="locality" />
		<tag k="ssr:stedsnr" v="290198" />
	</node>
	<node id="-900158" lat="64.1185027751" lon="11.0900972311">
		<tag k="name" v="Ferjlia" />
		<tag k="place" v="neighbourhood" />
		<tag k="ssr:stedsnr" v="724891" />
	</node>
	<node id="-900154" lat="63.8507500031" lon="10.7117333331">
		<tag k="name" v="Moldaunet" />
		<tag k="place" v="isolated_dwelling" />
		<tag k="ssr:stedsnr" v="289781" />
	</node>
	<node id="-900153" lat="63.9981472242" lon="11.1580111134">
		<tag k="historic" v="shieling" />
		<tag k="name" v="Sandnessetran" />
		<tag k="place" v="locality" />
		<tag k="ssr:stedsnr" v="939107" />
	</node>
	<node id="-900150" lat="64.0032916651" lon="11.1694916653">
		<tag k="name" v="Fossen" />
		<tag k="place" v="locality" />
		<tag k="ssr:stedsnr" v="939108" />
	</node>
	<node id="-900140" lat="63.8029611131" lon="10.5842833279">
		<tag k="name" v="Midtre Tangstad" />
		<tag k="place" v="farm" />
		<tag k="ssr:stedsnr" v="499385" />
	</node>
	<node id="-900137" lat="63.9921597267" lon="11.1209252162">
		<tag k="name" v="Vassbakken" />
		<tag k="old_name" v="Vandbakken" />
		<tag k="place" v="locality" />
		<tag k="ssr:stedsnr" v="256553" />
	</node>
	<node id="-900133" lat="63.9980583307" lon="11.0287166669">
		<tag k="historic" v="shieling" />
		<tag k="name" v="Todalsetran" />
		<tag k="place" v="locality" />
		<tag k="ssr:stedsnr" v="317550" />
	</node>
	<node id="-900129" lat="64.0445833289" lon="11.0841111156">
		<tag k="name" v="Brattingen" />
		<tag k="place" v="locality" />
		<tag k="ssr:stedsnr" v="594025" />
	</node>
	<node id="-900126" lat="63.8561027751" lon="10.7312916625">
		<tag k="name" v="Fagervika" />
		<tag k="place" v="farm" />
		<tag k="ssr:stedsnr" v="13742" />
	</node>
	<node id="-900123" lat="64.012133334" lon="11.1985944482">
		<tag k="name" v="Vollen" />
		<tag k="place" v="locality" />
		<tag k="ssr:stedsnr" v="939102" />
	</node>
	<node id="-900122" lat="64.1263333353" lon="11.1056416727">
		<tag k="name" v="Sundet" />
		<tag k="place" v="neighbourhood" />
		<tag k="ssr:stedsnr" v="118881" />
	</node>
	<node id="-900120" lat="64.0092072921" lon="11.204026865">
		<tag k="fixme" v="consider place=hamlet" />
		<tag k="name" v="Ytter-Vada" />
		<tag k="place" v="farm" />
		<tag k="ssr:stedsnr" v="135877" />
	</node>
	<node id="-900119" lat="64.0400888846" lon="11.1181222312">
		<tag k="name" v="Redding" />
		<tag k="place" v="farm" />
		<tag k="ssr:stedsnr" v="499940" />
	</node>
	<node id="-900117" lat="64.0026694485" lon="11.0096416624">
		<tag k="historic" v="shieling" />
		<tag k="name" v="Åsaseteren" />
		<tag k="place" v="locality" />
		<tag k="ssr:stedsnr" v="837046" />
	</node>
	<node id="-900114" lat="64.0590527789" lon="11.0509194543">
		<tag k="name" v="Holdsetran" />
		<tag k="place" v="isolated_dwelling" />
		<tag k="ssr:stedsnr" v="257613" />
	</node>
	<node id="-900112" lat="63.9985055532" lon="10.9311861117">
		<tag k="name" v="Plassen" />
		<tag k="place" v="locality" />
		<tag k="ssr:stedsnr" v="958076" />
	</node>
	<node id="-900110" lat="63.9863083333" lon="10.9349138953">
		<tag k="name" v="Steinsetran" />
		<tag k="place" v="locality" />
		<tag k="ssr:stedsnr" v="317538" />
	</node>
	<node id="-900109" lat="63.9658805546" lon="10.878224999">
		<tag k="name" v="Reinstjønnsetran" />
		<tag k="place" v="locality" />
		<tag k="ssr:stedsnr" v="863643" />
	</node>
	<node id="-900104" lat="64.0357333367" lon="11.0595833331">
		<tag k="name" v="Olarommet" />
		<tag k="place" v="locality" />
		<tag k="ssr:stedsnr" v="594007" />
	</node>
	<node id="-900101" lat="64.0959111121" lon="11.1525583418">
		<tag k="name" v="Øverressemsetran" />
		<tag k="place" v="isolated_dwelling" />
		<tag k="ssr:stedsnr" v="620513" />
	</node>
	<node id="-900092" lat="63.9132978182" lon="10.9309441862">
		<tag k="fixme" v="consider place=hamlet" />
		<tag k="name" v="Skjelstad" />
		<tag k="place" v="farm" />
		<tag k="ssr:stedsnr" v="572304" />
	</node>
	<node id="-900089" lat="63.9661583359" lon="10.8969555497">
		<tag k="name" v="Heistua" />
		<tag k="place" v="isolated_dwelling" />
		<tag k="ssr:stedsnr" v="803630" />
	</node>
	<node id="-900084" lat="63.992538892" lon="10.9019333258">
		<tag k="name" v="Fageraunet" />
		<tag k="place" v="farm" />
		<tag k="ssr:stedsnr" v="317540" />
	</node>
	<node id="-900081" lat="64.1033996991" lon="11.3040819987">
		<tag k="name" v="Holmvika" />
		<tag k="place" v="hamlet" />
		<tag k="ssr:stedsnr" v="439114" />
	</node>
	<node id="-900078" lat="64.0099555567" lon="10.7970416598">
		<tag k="fixme" v="consider place=hamlet" />
		<tag k="name" v="Sela" />
		<tag k="place" v="village" />
		<tag k="ssr:stedsnr" v="439908" />
	</node>
	<node id="-900077" lat="64.0203555536" lon="11.1047611173">
		<tag k="name" v="Almås" />
		<tag k="place" v="farm" />
		<tag k="ssr:stedsnr" v="412057" />
	</node>
	<node id="-900070" lat="63.9458225364" lon="11.0038872192">
		<tag k="name" v="Tua" />
		<tag k="place" v="hamlet" />
		<tag k="ssr:stedsnr" v="829082" />
	</node>
	<node id="-900057" lat="63.9518833353" lon="11.0083833257">
		<tag k="alt_name" v="Langeng" />
		<tag k="name" v="Langaunet" />
		<tag k="place" v="farm" />
		<tag k="ssr:stedsnr" v="742591" />
	</node>
	<node id="-900048" lat="63.9959972261" lon="10.9683972152">
		<tag k="historic" v="shieling" />
		<tag k="name" v="Lomliseteren" />
		<tag k="place" v="locality" />
		<tag k="ssr:stedsnr" v="715086" />
	</node>
	<node id="-900043" lat="63.9633333293" lon="10.8037500078">
		<tag k="name" v="Simadalen" />
		<tag k="place" v="isolated_dwelling" />
		<tag k="ssr:stedsnr" v="681565" />
	</node>
	<node id="-900036" lat="63.8827249986" lon="10.8473805488">
		<tag k="name" v="Stavset" />
		<tag k="place" v="isolated_dwelling" />
		<tag k="ssr:stedsnr" v="28091" />
	</node>
	<node id="-900035" lat="63.8873611086" lon="10.8662722144">
		<tag k="name" v="Løvset" />
		<tag k="place" v="farm" />
		<tag k="ssr:stedsnr" v="939076" />
	</node>
	<node id="-900031" lat="63.9862500035" lon="11.1066055486">
		<tag k="amenity" v="school" />
		<tag k="name" v="Folla skole" />
		<tag k="ssr:stedsnr" v="665245" />
	</node>
	<node id="-900029" lat="64.1334166637" lon="11.0786388855">
		<tag k="historic" v="shieling" />
		<tag k="name" v="Sprovsetran" />
		<tag k="place" v="locality" />
		<tag k="ssr:stedsnr" v="742588" />
	</node>
	<node id="-900027" lat="63.9868222182" lon="11.1207972283">
		<tag k="name" v="Brettingen" />
		<tag k="place" v="quarter" />
		<tag k="ssr:stedsnr" v="967855" />
	</node>
	<node id="-900017" lat="63.7623833296" lon="10.4581277703">
		<tag k="name" v="Heimslett" />
		<tag k="place" v="farm" />
		<tag k="ssr:stedsnr" v="864420" />
	</node>
	<node id="-900011" lat="63.9467055523" lon="11.0043611163">
		<tag k="name" v="Øver-Tua" />
		<tag k="place" v="farm" />
		<tag k="ssr:stedsnr" v="559606" />
	</node>
	<node id="-900007" lat="64.0949472183" lon="11.2378972188">
		<tag k="name" v="Tverås" />
		<tag k="place" v="farm" />
		<tag k="ssr:stedsnr" v="878960" />
	</node>
	<node id="-900006" lat="63.9295472239" lon="10.8259361175">
		<tag k="name" v="Nesvassetran" />
		<tag k="place" v="isolated_dwelling" />
		<tag k="ssr:stedsnr" v="742568" />
	</node>
	<node id="-899993" lat="63.9733944418" lon="10.8629361153">
		<tag k="name" v="Straumsetran" />
		<tag k="place" v="isolated_dwelling" />
		<tag k="ssr:stedsnr" v="317525" />
	</node>
	<node id="-899989" lat="63.8796072603" lon="10.8345310532">
		<tag k="loc_name" v="Lille-Stavrum" />
		<tag k="name" v="Litl-Stavrem" />
		<tag k="place" v="locality" />
		<tag k="ssr:stedsnr" v="284418" />
	</node>
	<node id="-899988" lat="64.0962605069" lon="11.2407189681">
		<tag k="alt_name" v="Tverås" />
		<tag k="name" v="Tverrås" />
		<tag k="place" v="hamlet" />
		<tag k="ssr:stedsnr" v="134257" />
	</node>
	<node id="-899987" lat="64.009372222" lon="11.1674166595">
		<tag k="name" v="Vassbakken" />
		<tag k="place" v="locality" />
		<tag k="ssr:stedsnr" v="756091" />
	</node>
	<node id="-899985" lat="63.9871444417" lon="10.8857305487">
		<tag k="loc_name" v="Sandseter nedre" />
		<tag k="name" v="Nedre Sandseter" />
		<tag k="place" v="farm" />
		<tag k="ssr:stedsnr" v="587451" />
	</node>
	<node id="-899982" lat="64.0903333322" lon="11.3011666724">
		<tag k="name" v="Vollan" />
		<tag k="place" v="locality" />
		<tag k="ssr:stedsnr" v="620231" />
	</node>
	<node id="-899977" lat="64.0743166639" lon="10.9076750098">
		<tag k="name" v="Tørrisheimen" />
		<tag k="place" v="isolated_dwelling" />
		<tag k="ssr:stedsnr" v="378584" />
	</node>
	<node id="-899973" lat="63.9967027741" lon="11.02713334">
		<tag k="historic" v="shieling" />
		<tag k="name" v="Sør-Todalseteren" />
		<tag k="place" v="locality" />
		<tag k="ssr:stedsnr" v="534049" />
	</node>
	<node id="-899972" lat="63.9504777792" lon="11.0001888969">
		<tag k="fixme" v="multiple name tags, choose one and add the other to alt_name" />
		<tag k="name" v="Haugen;Svean" />
		<tag k="place" v="farm" />
		<tag k="ssr:stedsnr" v="75658" />
	</node>
	<node id="-899967" lat="63.7597055516" lon="10.4408666609">
		<tag k="name" v="Soffelia" />
		<tag k="place" v="locality" />
		<tag k="ssr:stedsnr" v="392253" />
	</node>
	<node id="-899962" lat="64.0523333304" lon="11.1214777686">
		<tag k="name" v="Moholt" />
		<tag k="place" v="farm" />
		<tag k="ssr:stedsnr" v="958459" />
	</node>
	<node id="-899950" lat="64.0575555583" lon="10.9137694441">
		<tag k="historic" v="shieling" />
		<tag k="name" v="Nyseteren" />
		<tag k="place" v="locality" />
		<tag k="ssr:stedsnr" v="836604" />
	</node>
	<node id="-899948" lat="63.9518527804" lon="11.0054055465">
		<tag k="name" v="Marken" />
		<tag k="place" v="farm" />
		<tag k="ssr:stedsnr" v="227694" />
	</node>
	<node id="-899946" lat="63.8957640205" lon="10.8900081605">
		<tag k="fixme" v="consider place=hamlet" />
		<tag k="name" v="Bolmset" />
		<tag k="place" v="farm" />
		<tag k="ssr:stedsnr" v="256521" />
	</node>
	<node id="-899929" lat="64.0931333294" lon="11.2241111181">
		<tag k="alt_name" v="Tveråsaunet" />
		<tag k="name" v="Tverråsaunet" />
		<tag k="place" v="farm" />
		<tag k="ssr:stedsnr" v="271961" />
	</node>
	<node id="-899923" lat="63.8301194476" lon="10.6535583285">
		<tag k="name" v="Litl-Raudmoldan" />
		<tag k="place" v="isolated_dwelling" />
		<tag k="ssr:stedsnr" v="802547" />
	</node>
	<node id="-899915" lat="64.0803249978" lon="11.2377138811">
		<tag k="name" v="Holderen" />
		<tag k="place" v="quarter" />
		<tag k="ssr:stedsnr" v="878966" />
	</node>
	<node id="-899903" lat="64.0940472247" lon="11.2164638867">
		<tag k="alt_name" v="Sveet" />
		<tag k="name" v="Sve" />
		<tag k="place" v="farm" />
		<tag k="ssr:stedsnr" v="681524" />
	</node>
	<node id="-899902" lat="63.7561388855" lon="10.4417249967">
		<tag k="name" v="Slettvoll" />
		<tag k="place" v="farm" />
		<tag k="ssr:stedsnr" v="332226" />
	</node>
	<node id="-899899" lat="64.0185333314" lon="11.1733333243">
		<tag k="historic" v="shieling" />
		<tag k="name" v="Indre Vadasetran" />
		<tag k="place" v="locality" />
		<tag k="ssr:stedsnr" v="506342" />
	</node>
	<node id="-899898" lat="63.9889694484" lon="11.1150888812">
		<tag k="name" v="Geilvollen" />
		<tag k="place" v="farm" />
		<tag k="ssr:stedsnr" v="135573" />
	</node>
	<node id="-899896" lat="64.111636112" lon="11.0413027695">
		<tag k="name" v="Langvassetran" />
		<tag k="place" v="isolated_dwelling" />
		<tag k="ssr:stedsnr" v="620483" />
	</node>
	<node id="-899890" lat="63.8035483167" lon="10.5830762003">
		<tag k="fixme" v="consider place=hamlet" />
		<tag k="name" v="Tangstad" />
		<tag k="place" v="farm" />
		<tag k="ssr:stedsnr" v="88441" />
	</node>
	<node id="-899889" lat="63.8739222225" lon="10.7344305558">
		<tag k="historic" v="shieling" />
		<tag k="name" v="Vollansetern" />
		<tag k="place" v="locality" />
		<tag k="ssr:stedsnr" v="756068" />
	</node>
	<node id="-899882" lat="63.9944373962" lon="10.9183503394">
		<tag k="fixme" v="consider place=hamlet" />
		<tag k="name" v="Gotvasslia" />
		<tag k="place" v="farm" />
		<tag k="ssr:stedsnr" v="863603" />
	</node>
	<node id="-899863" lat="64.0784722249" lon="10.828813887">
		<tag k="name" v="Tekssjøtømtet" />
		<tag k="place" v="isolated_dwelling" />
		<tag k="ssr:stedsnr" v="681534" />
	</node>
	<node id="-899860" lat="63.9886472266" lon="11.1101194358">
		<tag k="name" v="Rønningen" />
		<tag k="place" v="quarter" />
		<tag k="ssr:stedsnr" v="360919" />
	</node>
	<node id="-899855" lat="64.1042805588" lon="11.3018250048">
		<tag k="fixme" v="consider place=hamlet" />
		<tag k="name" v="Øystre Holmvika" />
		<tag k="place" v="farm" />
		<tag k="ssr:stedsnr" v="83829" />
	</node>
	<node id="-899852" lat="63.9478138852" lon="11.0007638839">
		<tag k="name" v="Storsveet" />
		<tag k="place" v="farm" />
		<tag k="ssr:stedsnr" v="803610" />
	</node>
	<node id="-899849" lat="63.9382972188" lon="10.9841999967">
		<tag k="name" v="Oldervika" />
		<tag k="place" v="isolated_dwelling" />
		<tag k="ssr:stedsnr" v="803609" />
	</node>
	<node id="-899844" lat="63.892777775" lon="10.6799444366">
		<tag k="historic" v="shieling" />
		<tag k="name" v="Ormsetseteren" />
		<tag k="place" v="locality" />
		<tag k="ssr:stedsnr" v="351201" />
	</node>
	<node id="-899838" lat="64.0533333374" lon="11.2099972149">
		<tag k="alt_name" v="Kjerkreit yttre" />
		<tag k="name" v="Ytre Kjerkreit" />
		<tag k="place" v="farm" />
		<tag k="ssr:stedsnr" v="453987" />
	</node>
	<node id="-899833" lat="64.014441668" lon="11.2008000022">
		<tag k="name" v="Larsplassen" />
		<tag k="place" v="locality" />
		<tag k="ssr:stedsnr" v="756080" />
	</node>
	<node id="-899829" lat="63.9958249955" lon="10.9712333429">
		<tag k="name" v="Lomlisetran" />
		<tag k="place" v="locality" />
		<tag k="ssr:stedsnr" v="559586" />
	</node>
	<node id="-899827" lat="64.0271277821" lon="11.0205111059">
		<tag k="name" v="Hedmarkrommet" />
		<tag k="place" v="locality" />
		<tag k="ssr:stedsnr" v="109041" />
	</node>
	<node id="-899823" lat="64.0735527776" lon="11.209922228">
		<tag k="name" v="Rugsveet" />
		<tag k="place" v="locality" />
		<tag k="ssr:stedsnr" v="453984" />
	</node>
	<node id="-899817" lat="63.9761805526" lon="11.0831027738">
		<tag k="name" v="Nedre Geitvika" />
		<tag k="place" v="isolated_dwelling" />
		<tag k="ssr:stedsnr" v="14512" />
	</node>
	<node id="-899816" lat="63.7521972249" lon="10.4443333358">
		<tag k="name" v="Holtan" />
		<tag k="place" v="farm" />
		<tag k="ssr:stedsnr" v="741474" />
	</node>
	<node id="-899814" lat="63.8695694421" lon="10.7931361059">
		<tag k="name" v="Elvadalen" />
		<tag k="place" v="farm" />
		<tag k="ssr:stedsnr" v="924728" />
	</node>
	<node id="-899811" lat="64.1020912002" lon="11.3009186595">
		<tag k="fixme" v="consider place=hamlet" />
		<tag k="name" v="Vestre Holmvika" />
		<tag k="place" v="farm" />
		<tag k="ssr:stedsnr" v="83827" />
	</node>
	<node id="-899803" lat="63.9986999973" lon="11.1116027785">
		<tag k="name" v="Seterbakken" />
		<tag k="place" v="locality" />
		<tag k="ssr:stedsnr" v="817986" />
	</node>
	<node id="-899802" lat="63.9454194431" lon="11.0038388949">
		<tag k="name" v="Tua" />
		<tag k="place" v="farm" />
		<tag k="ssr:stedsnr" v="864655" />
	</node>
	<node id="-899795" lat="64.0778635249" lon="11.2407831844">
		<tag k="fixme" v="consider place=hamlet" />
		<tag k="name" v="Skard" />
		<tag k="place" v="farm" />
		<tag k="ssr:stedsnr" v="256220" />
	</node>
	<node id="-899792" lat="64.0785794108" lon="11.2628877625">
		<tag k="fixme" v="consider place=hamlet" />
		<tag k="name" v="Langnes" />
		<tag k="place" v="farm" />
		<tag k="ssr:stedsnr" v="256221" />
	</node>
	<node id="-899789" lat="63.91105833" lon="10.9246083237">
		<tag k="name" v="Vangen" />
		<tag k="place" v="farm" />
		<tag k="ssr:stedsnr" v="378547" />
	</node>
	<node id="-899781" lat="63.9723444463" lon="11.0027138904">
		<tag k="historic" v="shieling" />
		<tag k="name" v="Sundnesseteren" />
		<tag k="place" v="locality" />
		<tag k="ssr:stedsnr" v="411158" />
	</node>
	<node id="-899774" lat="64.0950780716" lon="11.2526916874">
		<tag k="fixme" v="consider place=hamlet" />
		<tag k="name" v="Geilen" />
		<tag k="place" v="farm" />
		<tag k="ssr:stedsnr" v="326864" />
	</node>
	<node id="-899769" lat="63.9025527765" lon="10.9078027689">
		<tag k="name" v="Hovset" />
		<tag k="place" v="farm" />
		<tag k="ssr:stedsnr" v="328389" />
	</node>
	<node id="-899764" lat="64.0979194412" lon="11.2899111021">
		<tag k="name" v="Vollen" />
		<tag k="place" v="farm" />
		<tag k="ssr:stedsnr" v="508834" />
	</node>
	<node id="-899763" lat="63.9924888917" lon="11.1019166595">
		<tag k="name" v="Øysterenget" />
		<tag k="place" v="locality" />
		<tag k="ssr:stedsnr" v="878117" />
	</node>
	<node id="-899762" lat="64.0900194414" lon="11.230263889">
		<tag k="name" v="Øver-Åsen" />
		<tag k="place" v="quarter" />
		<tag k="ssr:stedsnr" v="707746" />
	</node>
	<node id="-899757" lat="63.8433722263" lon="10.6814333281">
		<tag k="name" v="Litl-Molden" />
		<tag k="place" v="farm" />
		<tag k="ssr:stedsnr" v="149054" />
	</node>
	<node id="-899753" lat="63.9186888857" lon="10.9422805516">
		<tag k="name" v="Solheim" />
		<tag k="place" v="farm" />
		<tag k="ssr:stedsnr" v="317481" />
	</node>
	<node id="-899750" lat="64.078975284" lon="11.2303681819">
		<tag k="name" v="Ressem" />
		<tag k="place" v="hamlet" />
		<tag k="ssr:stedsnr" v="924169" />
	</node>
	<node id="-899747" lat="64.0574743925" lon="11.2117985913">
		<tag k="name" v="Kirkreit" />
		<tag k="place" v="quarter" />
		<tag k="ssr:stedsnr" v="725541" />
	</node>
	<node id="-899733" lat="63.9164111103" lon="10.9380250055">
		<tag k="name" v="Hoven" />
		<tag k="place" v="farm" />
		<tag k="ssr:stedsnr" v="378544" />
	</node>
	<node id="-899729" lat="63.7969305588" lon="10.5667527813">
		<tag k="name" v="Nyplassen" />
		<tag k="place" v="farm" />
		<tag k="ssr:stedsnr" v="410735" />
	</node>
	<node id="-899723" lat="64.0587527786" lon="11.2093972207">
		<tag k="name" v="Haugan" />
		<tag k="place" v="quarter" />
		<tag k="ssr:stedsnr" v="725539" />
	</node>
	<node id="-899722" lat="64.1025527757" lon="10.9745972271">
		<tag k="name" v="Søresplingsetran" />
		<tag k="place" v="locality" />
		<tag k="ssr:stedsnr" v="681511" />
	</node>
	<node id="-899716" lat="63.8976166638" lon="10.8924083287">
		<tag k="name" v="Sjømarka" />
		<tag k="place" v="isolated_dwelling" />
		<tag k="ssr:stedsnr" v="167965" />
	</node>
	<node id="-899707" lat="64.0812638901" lon="11.2556611206">
		<tag k="name" v="Langnesaunet" />
		<tag k="place" v="locality" />
		<tag k="ssr:stedsnr" v="326848" />
	</node>
	<node id="-899699" lat="63.8817027802" lon="10.8456361064">
		<tag k="name" v="Litlenget" />
		<tag k="place" v="isolated_dwelling" />
		<tag k="ssr:stedsnr" v="529477" />
	</node>
	<node id="-899697" lat="63.949947219" lon="10.9494500094">
		<tag k="historic" v="shieling" />
		<tag k="name" v="Gammelseteren" />
		<tag k="place" v="locality" />
		<tag k="ssr:stedsnr" v="411152" />
	</node>
	<node id="-899690" lat="63.7964972231" lon="10.5669500001">
		<tag k="name" v="Engan" />
		<tag k="place" v="farm" />
		<tag k="ssr:stedsnr" v="377453" />
	</node>
	<node id="-899680" lat="63.8000750005" lon="10.5648138811">
		<tag k="name" v="Øverlia" />
		<tag k="place" v="farm" />
		<tag k="ssr:stedsnr" v="377451" />
	</node>
	<node id="-899679" lat="64.1067944463" lon="11.2458194389">
		<tag k="name" v="Dalsveet" />
		<tag k="place" v="locality" />
		<tag k="ssr:stedsnr" v="872194" />
	</node>
	<node id="-899662" lat="63.8027527793" lon="10.4860444484">
		<tag k="alt_name" v="Grønliseteren" />
		<tag k="historic" v="shieling" />
		<tag k="name" v="Grønlia" />
		<tag k="place" v="locality" />
		<tag k="ssr:stedsnr" v="924417" />
	</node>
	<node id="-899661" lat="63.9245388849" lon="10.8672583254">
		<tag k="name" v="Sandsetran" />
		<tag k="place" v="locality" />
		<tag k="ssr:stedsnr" v="317478" />
	</node>
	<node id="-899658" lat="64.0718638849" lon="11.090063891">
		<tag k="historic" v="shieling" />
		<tag k="name" v="Fagerlisetran" />
		<tag k="place" v="locality" />
		<tag k="ssr:stedsnr" v="803557" />
	</node>
	<node id="-899655" lat="64.0742305589" lon="11.1256777742">
		<tag k="historic" v="shieling" />
		<tag k="name" v="Seterlisetran" />
		<tag k="place" v="locality" />
		<tag k="ssr:stedsnr" v="135532" />
	</node>
	<node id="-899650" lat="63.889172225" lon="10.7416888991">
		<tag k="name" v="Rørtjønnsetran" />
		<tag k="place" v="isolated_dwelling" />
		<tag k="ssr:stedsnr" v="135536" />
	</node>
	<node id="-899648" lat="63.8852089531" lon="10.8554664677">
		<tag k="name" v="Øyster-Stavrem" />
		<tag k="place" v="farm" />
		<tag k="ssr:stedsnr" v="924686" />
	</node>
	<node id="-899642" lat="64.0328305546" lon="11.2057527816">
		<tag k="historic" v="shieling" />
		<tag k="name" v="Rambergtømtet" />
		<tag k="place" v="locality" />
		<tag k="ssr:stedsnr" v="453954" />
	</node>
	<node id="-899640" lat="64.1316111122" lon="11.1364555586">
		<tag k="historic" v="shieling" />
		<tag k="name" v="Ferjtømtet" />
		<tag k="place" v="locality" />
		<tag k="ssr:stedsnr" v="351560" />
	</node>
	<node id="-899638" lat="64.0823083336" lon="11.2726249978">
		<tag k="name" v="Sundbygda" />
		<tag k="place" v="hamlet" />
		<tag k="ssr:stedsnr" v="786615" />
	</node>
	<node id="-899637" lat="63.909947222" lon="10.9264444511">
		<tag k="name" v="Storenget" />
		<tag k="place" v="farm" />
		<tag k="ssr:stedsnr" v="269838" />
	</node>
	<node id="-899636" lat="64.1218277811" lon="11.0499750045">
		<tag k="historic" v="shieling" />
		<tag k="name" v="Sprovseteren" />
		<tag k="place" v="locality" />
		<tag k="ssr:stedsnr" v="533583" />
	</node>
	<node id="-899630" lat="63.8920111069" lon="10.8802750027">
		<tag k="name" v="Nordheim" />
		<tag k="place" v="farm" />
		<tag k="ssr:stedsnr" v="742526" />
	</node>
	<node id="-899628" lat="63.998452779" lon="11.1741027819">
		<tag k="name" v="Sveet" />
		<tag k="place" v="isolated_dwelling" />
		<tag k="ssr:stedsnr" v="453125" />
	</node>
	<node id="-899621" lat="64.0618750034" lon="10.895877768">
		<tag k="name" v="Sildernaustet" />
		<tag k="place" v="locality" />
		<tag k="ssr:stedsnr" v="803569" />
	</node>
	<node id="-899620" lat="64.0551263763" lon="11.2112961272">
		<tag k="alt_name" v="Kirkreit" />
		<tag k="fixme" v="consider place=hamlet" />
		<tag k="name" v="Kjerkreit" />
		<tag k="place" v="farm" />
		<tag k="ssr:stedsnr" v="377963" />
	</node>
	<node id="-899617" lat="64.0058521269" lon="10.7910420849">
		<tag k="fixme" v="consider place=hamlet" />
		<tag k="name" v="Selen" />
		<tag k="place" v="farm" />
		<tag k="ssr:stedsnr" v="864910" />
	</node>
	<node id="-899608" lat="64.0268261929" lon="11.2178229657">
		<tag k="fixme" v="consider place=hamlet" />
		<tag k="name" v="Ramberg" />
		<tag k="place" v="farm" />
		<tag k="ssr:stedsnr" v="620991" />
	</node>
	<node id="-899603" lat="64.0816916672" lon="11.2415777811">
		<tag k="name" v="Skardset" />
		<tag k="place" v="farm" />
		<tag k="ssr:stedsnr" v="620187" />
	</node>
	<node id="-899602" lat="63.8934361067" lon="10.6948055511">
		<tag k="historic" v="shieling" />
		<tag k="name" v="Gammel - Okålseteren" />
		<tag k="place" v="locality" />
		<tag k="ssr:stedsnr" v="169183" />
	</node>
	<node id="-899596" lat="63.8621823041" lon="10.7576738619">
		<tag k="name" v="Killingberget" />
		<tag k="place" v="locality" />
		<tag k="ssr:stedsnr" v="878099" />
	</node>
	<node id="-899592" lat="63.8893361149" lon="10.8740638817">
		<tag k="name" v="Tangen" />
		<tag k="place" v="farm" />
		<tag k="ssr:stedsnr" v="803563" />
	</node>
	<node id="-899579" lat="64.0631861133" lon="11.2064194354">
		<tag k="name" v="Heimdal" />
		<tag k="place" v="farm" />
		<tag k="ssr:stedsnr" v="574997" />
	</node>
	<node id="-899576" lat="64.0636249958" lon="11.1781250029">
		<tag k="alt_name" v="Aunet nedre" />
		<tag k="name" v="Nedre Aunet" />
		<tag k="place" v="farm" />
		<tag k="ssr:stedsnr" v="89994" />
	</node>
	<node id="-899573" lat="63.9056194451" lon="10.9186083235">
		<tag k="name" v="Vester-Sand" />
		<tag k="place" v="farm" />
		<tag k="ssr:stedsnr" v="438506" />
	</node>
	<node id="-899572" lat="64.0181805578" lon="11.2076611037">
		<tag k="name" v="Nytrøa" />
		<tag k="place" v="farm" />
		<tag k="ssr:stedsnr" v="620970" />
	</node>
	<node id="-899569" lat="63.9588194406" lon="11.0284861098">
		<tag k="name" v="Naustvika" />
		<tag k="place" v="isolated_dwelling" />
		<tag k="ssr:stedsnr" v="499564" />
	</node>
	<node id="-899564" lat="64.0871814597" lon="11.2884452854">
		<tag k="fixme" v="consider place=hamlet" />
		<tag k="name" v="Såggåstad" />
		<tag k="place" v="farm" />
		<tag k="ssr:stedsnr" v="256192" />
	</node>
	<node id="-899561" lat="63.8438972255" lon="10.6845305658">
		<tag k="name" v="Tomtan" />
		<tag k="place" v="isolated_dwelling" />
		<tag k="ssr:stedsnr" v="895715" />
	</node>
	<node id="-899555" lat="64.0675999998" lon="11.1027249914">
		<tag k="historic" v="shieling" />
		<tag k="name" v="Ramtømtet" />
		<tag k="place" v="locality" />
		<tag k="ssr:stedsnr" v="715755" />
	</node>
	<node id="-899543" lat="64.0903222256" lon="11.016244451">
		<tag k="name" v="Olheisetran" />
		<tag k="place" v="locality" />
		<tag k="ssr:stedsnr" v="803541" />
	</node>
	<node id="-899542" lat="64.0836111137" lon="11.1879166744">
		<tag k="historic" v="shieling" />
		<tag k="name" v="Nerressemsetran" />
		<tag k="place" v="locality" />
		<tag k="ssr:stedsnr" v="135519" />
	</node>
	<node id="-899531" lat="64.0077027808" lon="11.1947833235">
		<tag k="name" v="Strandvoll" />
		<tag k="place" v="farm" />
		<tag k="ssr:stedsnr" v="392976" />
	</node>
	<node id="-899522" lat="63.7731916623" lon="10.4841944439">
		<tag k="name" v="Ørsjødalen" />
		<tag k="place" v="hamlet" />
		<tag k="ssr:stedsnr" v="149010" />
	</node>
	<node id="-899520" lat="63.9780277817" lon="11.0879138969">
		<tag k="name" v="Litlfollsveet" />
		<tag k="place" v="farm" />
		<tag k="ssr:stedsnr" v="878079" />
	</node>
	<node id="-899512" lat="64.1014833294" lon="11.2538527691">
		<tag k="name" v="Buahaugen" />
		<tag k="place" v="locality" />
		<tag k="ssr:stedsnr" v="265193" />
	</node>
	<node id="-899502" lat="64.0025777753" lon="11.1776027719">
		<tag k="name" v="Bakken" />
		<tag k="place" v="locality" />
		<tag k="ssr:stedsnr" v="574986" />
	</node>
	<node id="-899499" lat="63.9036166689" lon="10.911850006">
		<tag k="fixme" v="consider place=hamlet" />
		<tag k="name" v="Verrastranda" />
		<tag k="place" v="village" />
		<tag k="ssr:stedsnr" v="317447" />
	</node>
	<node id="-899491" lat="64.0463916623" lon="11.1145027832">
		<tag k="name" v="Tømte" />
		<tag k="place" v="farm" />
		<tag k="ssr:stedsnr" v="924946" />
	</node>
	<node id="-899489" lat="64.0189722219" lon="11.1708388937">
		<tag k="historic" v="shieling" />
		<tag k="name" v="Olaengtømtet" />
		<tag k="place" v="locality" />
		<tag k="ssr:stedsnr" v="655469" />
	</node>
	<node id="-899487" lat="63.798247223" lon="10.5670638822">
		<tag k="alt_name" v="Hestli" />
		<tag k="name" v="Hestlia" />
		<tag k="place" v="farm" />
		<tag k="ssr:stedsnr" v="271034" />
	</node>
	<node id="-899485" lat="64.0686916643" lon="11.2189416702">
		<tag k="name" v="Bjørkan" />
		<tag k="place" v="quarter" />
		<tag k="ssr:stedsnr" v="574989" />
	</node>
	<node id="-899472" lat="63.8690361124" lon="10.7201472193">
		<tag k="historic" v="shieling" />
		<tag k="name" v="Nersetern" />
		<tag k="place" v="locality" />
		<tag k="ssr:stedsnr" v="453106" />
	</node>
	<node id="-899454" lat="63.9183166677" lon="10.8201888919">
		<tag k="name" v="Sørenvassetran" />
		<tag k="place" v="isolated_dwelling" />
		<tag k="ssr:stedsnr" v="135508" />
	</node>
	<node id="-899449" lat="63.9292777793" lon="10.9664750014">
		<tag k="name" v="Snertvika" />
		<tag k="place" v="farm" />
		<tag k="ssr:stedsnr" v="14456" />
	</node>
	<node id="-899437" lat="64.0765027811" lon="11.2291000082">
		<tag k="name" v="Ressem" />
		<tag k="place" v="farm" />
		<tag k="ssr:stedsnr" v="332948" />
	</node>
	<node id="-899434" lat="64.0970749973" lon="11.2588583367">
		<tag k="name" v="Landsemaunet" />
		<tag k="place" v="locality" />
		<tag k="ssr:stedsnr" v="447160" />
	</node>
	<node id="-899432" lat="64.0661500957" lon="11.183806187">
		<tag k="fixme" v="consider place=hamlet" />
		<tag k="name" v="Aunet" />
		<tag k="place" v="farm" />
		<tag k="ssr:stedsnr" v="75580" />
	</node>
	<node id="-899430" lat="64.0843638903" lon="11.0754722265">
		<tag k="name" v="Skardssetran" />
		<tag k="place" v="locality" />
		<tag k="ssr:stedsnr" v="135509" />
	</node>
	<node id="-899422" lat="63.8864305522" lon="10.8565611119">
		<tag k="name" v="Trøa" />
		<tag k="place" v="isolated_dwelling" />
		<tag k="ssr:stedsnr" v="287526" />
	</node>
	<node id="-899417" lat="63.9944361092" lon="10.9096805614">
		<tag k="name" v="Rønningen" />
		<tag k="place" v="isolated_dwelling" />
		<tag k="ssr:stedsnr" v="776089" />
	</node>
	<node id="-899415" lat="63.9031583342" lon="10.9119277706">
		<tag k="fixme" v="multiple name tags, choose one and add the other to alt_name" />
		<tag k="name" v="Hoven;Vestre Hoven" />
		<tag k="place" v="farm" />
		<tag k="ssr:stedsnr" v="817083" />
	</node>
	<node id="-899404" lat="64.0753388894" lon="11.223983331">
		<tag k="name" v="Malm" />
		<tag k="place" v="village" />
		<tag k="ssr:stedsnr" v="75570" />
	</node>
	<node id="-899401" lat="64.030733336" lon="11.0575611194">
		<tag k="name" v="Seljestu" />
		<tag k="place" v="locality" />
		<tag k="ssr:stedsnr" v="439000" />
	</node>
	<node id="-899398" lat="63.8737861091" lon="10.8129638869">
		<tag k="name" v="Sjøvoll" />
		<tag k="place" v="farm" />
		<tag k="ssr:stedsnr" v="817097" />
	</node>
	<node id="-899397" lat="64.057983336" lon="11.2142638904">
		<tag k="name" v="Nertrøa" />
		<tag k="place" v="quarter" />
		<tag k="ssr:stedsnr" v="603574" />
	</node>
	<node id="-899394" lat="63.904030558" lon="10.9147805617">
		<tag k="name" v="Litl-Sand" />
		<tag k="place" v="farm" />
		<tag k="ssr:stedsnr" v="451832" />
	</node>
	<node id="-899392" lat="64.0354111092" lon="11.133577778">
		<tag k="fixme" v="multiple name tags, choose one and add the other to alt_name" />
		<tag k="name" v="Kilåsen;Austre Kilåsen" />
		<tag k="place" v="farm" />
		<tag k="ssr:stedsnr" v="924933" />
	</node>
	<node id="-899378" lat="63.9139722257" lon="10.9329638813">
		<tag k="name" v="Øyster-Skjelstad" />
		<tag k="place" v="farm" />
		<tag k="ssr:stedsnr" v="135494" />
	</node>
	<node id="-899373" lat="64.0613138899" lon="11.1435833387">
		<tag k="name" v="Dambakken" />
		<tag k="place" v="locality" />
		<tag k="ssr:stedsnr" v="958723" />
	</node>
	<node id="-899357" lat="64.0818250019" lon="11.2732361012">
		<tag k="name" v="Ålberg" />
		<tag k="place" v="farm" />
		<tag k="ssr:stedsnr" v="22859" />
	</node>
	<node id="-899354" lat="63.9316138932" lon="10.8927611144">
		<tag k="historic" v="shieling" />
		<tag k="name" v="Skjelstadsetran" />
		<tag k="place" v="locality" />
		<tag k="ssr:stedsnr" v="742489" />
	</node>
	<node id="-899351" lat="64.0929888862" lon="11.2416249961">
		<tag k="name" v="Tverrås" />
		<tag k="place" v="farm" />
		<tag k="ssr:stedsnr" v="89953" />
	</node>
	<node id="-899346" lat="63.8538583367" lon="10.6590638892">
		<tag k="historic" v="shieling" />
		<tag k="name" v="Moldseteren" />
		<tag k="place" v="locality" />
		<tag k="ssr:stedsnr" v="453062" />
	</node>
	<node id="-899343" lat="63.985086108" lon="11.1140194412">
		<tag k="name" v="Stor Folla" />
		<tag k="place" v="locality" />
		<tag k="ssr:stedsnr" v="392110" />
	</node>
	<node id="-899340" lat="63.9873316502" lon="10.8847435923">
		<tag k="fixme" v="consider place=hamlet" />
		<tag k="name" v="Sandsetra" />
		<tag k="place" v="farm" />
		<tag k="ssr:stedsnr" v="196547" />
	</node>
	<node id="-899331" lat="63.8803583371" lon="10.8425555599">
		<tag k="name" v="Sjømark" />
		<tag k="place" v="farm" />
		<tag k="ssr:stedsnr" v="681710" />
	</node>
	<node id="-899326" lat="64.00773333" lon="11.172336105">
		<tag k="name" v="Tømmerhogget" />
		<tag k="place" v="isolated_dwelling" />
		<tag k="ssr:stedsnr" v="392119" />
	</node>
	<node id="-899320" lat="64.0133333318" lon="11.1983888796">
		<tag k="name" v="Kleiva" />
		<tag k="place" v="locality" />
		<tag k="ssr:stedsnr" v="332100" />
	</node>
	<node id="-899309" lat="63.9917472261" lon="11.109350003">
		<tag k="name" v="Storsvebakken" />
		<tag k="place" v="quarter" />
		<tag k="ssr:stedsnr" v="603936" />
	</node>
	<node id="-899306" lat="64.0831194434" lon="11.2294027711">
		<tag k="name" v="Ner-Åsen" />
		<tag k="place" v="quarter" />
		<tag k="ssr:stedsnr" v="221694" />
	</node>
	<node id="-899305" lat="64.0674916667" lon="11.187955565">
		<tag k="alt_name" v="Hollåsen" />
		<tag k="name" v="Holdåsen" />
		<tag k="place" v="farm" />
		<tag k="ssr:stedsnr" v="864596" />
	</node>
	<node id="-899295" lat="64.0048805531" lon="10.7966527876">
		<tag k="name" v="Sela østre" />
		<tag k="place" v="farm" />
		<tag k="ssr:stedsnr" v="169111" />
	</node>
	<node id="-899293" lat="63.9991472247" lon="10.7873055502">
		<tag k="fixme" v="consider place=hamlet" />
		<tag k="name" v="Myrmoen" />
		<tag k="place" v="farm" />
		<tag k="ssr:stedsnr" v="924382" />
	</node>
	<node id="-899290" lat="63.7730850793" lon="10.4812617918">
		<tag k="name" v="Vestre Ørsjødalen" />
		<tag k="place" v="farm" />
		<tag k="ssr:stedsnr" v="257487" />
	</node>
	<node id="-899288" lat="64.0154861093" lon="10.8004027724">
		<tag k="name" v="Leirskolen - Krievviegiedtie" />
		<tag k="name:no" v="Leirskolen" />
		<tag k="name:sma" v="Krievviegiedtie" />
		<tag k="place" v="farm" />
		<tag k="ssr:stedsnr" v="180706" />
	</node>
</osm>
