<?xml version="1.0" encoding="UTF-8"?>
<osm generator="osmapis" version="0.6">
	<node id="-901014" lat="64.0246722263" lon="10.7767388883">
		<tag k="name" v="Klumptjønna" />
		<tag k="natural" v="water" />
		<tag k="ssr:stedsnr" v="438992" />
	</node>
	<node id="-901012" lat="64.0998750033" lon="10.9103694546">
		<tag k="name" v="Torsvatnet" />
		<tag k="natural" v="water" />
		<tag k="ssr:stedsnr" v="14440" />
		<tag k="water" v="lake" />
	</node>
	<node id="-901007" lat="64.1067444422" lon="11.0128555564">
		<tag k="name" v="Skurvtjønnin" />
		<tag k="natural" v="water" />
		<tag k="ssr:stedsnr" v="803510" />
	</node>
	<node id="-900996" lat="64.0245500028" lon="11.0119083288">
		<tag k="name" v="Selja" />
		<tag k="ssr:stedsnr" v="74750" />
		<tag k="waterway" v="river" />
	</node>
	<node id="-900994" lat="64.0971333322" lon="10.9586777831">
		<tag k="name" v="Steintjønna" />
		<tag k="natural" v="water" />
		<tag k="ssr:stedsnr" v="14439" />
	</node>
	<node id="-900990" lat="64.1023638879" lon="11.2031277732">
		<tag k="name" v="Stjernbekken" />
		<tag k="ssr:stedsnr" v="803513" />
		<tag k="waterway" v="stream" />
	</node>
	<node id="-900987" lat="64.000358335" lon="10.9463444364">
		<tag k="name" v="Nerfjorden" />
		<tag k="natural" v="water" />
		<tag k="ssr:stedsnr" v="776079" />
		<tag k="water" v="lake" />
	</node>
	<node id="-900982" lat="64.0108583356" lon="10.8647111012">
		<tag k="name" v="Innermarkbekken" />
		<tag k="ssr:stedsnr" v="351088" />
		<tag k="waterway" v="stream" />
	</node>
	<node id="-900980" lat="63.9951722242" lon="11.136580558">
		<tag k="name" v="Kvernavatnet" />
		<tag k="natural" v="water" />
		<tag k="ssr:stedsnr" v="499529" />
	</node>
	<node id="-900978" lat="63.9850027771" lon="10.8921111114">
		<tag k="name" v="Straumseterdammen" />
		<tag k="ssr:stedsnr" v="533095" />
		<tag k="waterway" v="dam" />
	</node>
	<node id="-900976" lat="64.0664277754" lon="11.0386277812">
		<tag k="name" v="Kattjønna" />
		<tag k="natural" v="water" />
		<tag k="ssr:stedsnr" v="864591" />
	</node>
	<node id="-900960" lat="64.0779944415" lon="11.1137611159">
		<tag k="name" v="Storengbekken" />
		<tag k="ssr:stedsnr" v="439526" />
		<tag k="waterway" v="stream" />
	</node>
	<node id="-900951" lat="64.0266333371" lon="10.9931944399">
		<tag k="name" v="Seterbekken" />
		<tag k="ssr:stedsnr" v="776044" />
		<tag k="waterway" v="stream" />
	</node>
	<node id="-900948" lat="64.1084027748" lon="10.9669222119">
		<tag k="name" v="Nordesplingen" />
		<tag k="natural" v="water" />
		<tag k="ssr:stedsnr" v="559495" />
	</node>
	<node id="-900943" lat="63.9835027805" lon="11.078475">
		<tag k="name" v="Spikarbekken" />
		<tag k="ssr:stedsnr" v="499517" />
		<tag k="waterway" v="stream" />
	</node>
	<node id="-900939" lat="64.0021361127" lon="10.9623416762">
		<tag k="name" v="Oldernesbekken" />
		<tag k="ssr:stedsnr" v="108086" />
		<tag k="waterway" v="stream" />
	</node>
	<node id="-900928" lat="64.0577583332" lon="11.113280565">
		<tag k="name" v="Dalengbekken" />
		<tag k="ssr:stedsnr" v="412647" />
		<tag k="waterway" v="stream" />
	</node>
	<node id="-900900" lat="64.0372305564" lon="11.1552111196">
		<tag k="name" v="Ner Gaukstjønna" />
		<tag k="natural" v="water" />
		<tag k="ssr:stedsnr" v="533459" />
	</node>
	<node id="-900899" lat="64.0036722221" lon="10.8452555594">
		<tag k="name" v="Bybekkelva" />
		<tag k="ssr:stedsnr" v="229182" />
		<tag k="waterway" v="river" />
	</node>
	<node id="-900891" lat="64.011736114" lon="11.0794333255">
		<tag k="name" v="Brennholbekken" />
		<tag k="ssr:stedsnr" v="351059" />
		<tag k="waterway" v="stream" />
	</node>
	<node id="-900890" lat="63.9141055542" lon="10.6541611147">
		<tag k="loc_name:sma" v="Sarvejaevrie" />
		<tag k="name" v="Stor-Mefjellsvatnet" />
		<tag k="name:no" v="Stor-Mefjellsvatnet" />
		<tag k="natural" v="water" />
		<tag k="ssr:stedsnr" v="316340" />
	</node>
	<node id="-900889" lat="64.0781444466" lon="11.1617277714">
		<tag k="name" v="Ressemelva" />
		<tag k="ssr:stedsnr" v="864583" />
		<tag k="waterway" v="stream" />
	</node>
	<node id="-900888" lat="63.8794361084" lon="10.8236555561">
		<tag k="name" v="Ørabekken" />
		<tag k="ssr:stedsnr" v="89110" />
		<tag k="waterway" v="stream" />
	</node>
	<node id="-900887" lat="63.8012194474" lon="10.5550111105">
		<tag k="name" v="Langskogbekken" />
		<tag k="ssr:stedsnr" v="453031" />
		<tag k="waterway" v="stream" />
	</node>
	<node id="-900886" lat="64.0262666652" lon="11.1948305472">
		<tag k="name" v="Nertjønna" />
		<tag k="natural" v="water" />
		<tag k="ssr:stedsnr" v="135993" />
	</node>
	<node id="-900885" lat="63.9867083298" lon="10.865688887">
		<tag k="name" v="Sandbukta" />
		<tag k="natural" v="bay" />
		<tag k="ssr:stedsnr" v="169090" />
	</node>
	<node id="-900881" lat="63.8791666636" lon="10.7979416724">
		<tag k="name" v="Vølsetelva" />
		<tag k="ssr:stedsnr" v="378733" />
		<tag k="waterway" v="stream" />
	</node>
	<node id="-900875" lat="64.026752781" lon="10.816091661">
		<tag k="name" v="Sildertjønna" />
		<tag k="natural" v="water" />
		<tag k="ssr:stedsnr" v="135992" />
	</node>
	<node id="-900872" lat="64.1081583365" lon="11.0207222184">
		<tag k="name" v="Skurvtjønnbekken" />
		<tag k="ssr:stedsnr" v="958684" />
		<tag k="waterway" v="stream" />
	</node>
	<node id="-900868" lat="64.0706916642" lon="11.1610472204">
		<tag k="name" v="Vasslivatnet" />
		<tag k="natural" v="water" />
		<tag k="ssr:stedsnr" v="196514" />
	</node>
	<node id="-900867" lat="63.790722224" lon="10.4875888985">
		<tag k="name" v="Valtjønnin" />
		<tag k="natural" v="water" />
		<tag k="ssr:stedsnr" v="620389" />
	</node>
	<node id="-900859" lat="64.0106194476" lon="11.153305548">
		<tag k="name" v="Langtangen" />
		<tag k="natural" v="cape" />
		<tag k="ssr:stedsnr" v="169480" />
	</node>
	<node id="-900858" lat="64.0622055544" lon="11.036208335">
		<tag k="name" v="Svartvassbukta" />
		<tag k="natural" v="bay" />
		<tag k="ssr:stedsnr" v="560572" />
	</node>
	<node id="-900857" lat="63.881219447" lon="10.6916000047">
		<tag k="name" v="Jakoptjønna" />
		<tag k="natural" v="water" />
		<tag k="ssr:stedsnr" v="923287" />
	</node>
	<node id="-900853" lat="64.0817583321" lon="10.8640416699">
		<tag k="name" v="Korsvatna" />
		<tag k="natural" v="water" />
		<tag k="ssr:stedsnr" v="439511" />
	</node>
	<node id="-900849" lat="64.0794222182" lon="11.0593722155">
		<tag k="fixme" v="multiple name tags, choose one and add the other to alt_name" />
		<tag k="name" v="Reklingan;Dårligtjønnin" />
		<tag k="natural" v="water" />
		<tag k="ssr:stedsnr" v="864579" />
	</node>
	<node id="-900846" lat="63.7907499987" lon="10.6303250059">
		<tag k="name" v="Samsetertjønna" />
		<tag k="natural" v="water" />
		<tag k="ssr:stedsnr" v="803480" />
	</node>
	<node id="-900844" lat="64.0062000006" lon="10.8307444467">
		<tag k="name" v="Øverbybekkvatnet" />
		<tag k="natural" v="water" />
		<tag k="ssr:stedsnr" v="931350" />
	</node>
	<node id="-900843" lat="63.8299194419" lon="10.5459611042">
		<tag k="loc_name:sma" v="Guhkiesjaevrie" />
		<tag k="name" v="Langvatnet" />
		<tag k="name:no" v="Langvatnet" />
		<tag k="natural" v="water" />
		<tag k="ssr:stedsnr" v="863494" />
		<tag k="water" v="lake" />
	</node>
	<node id="-900838" lat="64.0987472191" lon="11.0695861076">
		<tag k="name" v="Svartvatnet" />
		<tag k="natural" v="water" />
		<tag k="ssr:stedsnr" v="439498" />
	</node>
	<node id="-900835" lat="63.9258555552" lon="10.8974138793">
		<tag k="fixme" v="multiple name tags, choose one and add the other to alt_name" />
		<tag k="name" v="Skjelstadsteintjønna;Steintjønna" />
		<tag k="natural" v="water" />
		<tag k="ssr:stedsnr" v="664684" />
	</node>
	<node id="-900833" lat="63.7648138896" lon="10.4829972228">
		<tag k="name" v="Kvernhusbekken" />
		<tag k="ssr:stedsnr" v="211019" />
		<tag k="waterway" v="stream" />
	</node>
	<node id="-900823" lat="64.0907055544" lon="10.9685055546">
		<tag k="name" v="Søresplingstangen" />
		<tag k="natural" v="cape" />
		<tag k="ssr:stedsnr" v="439500" />
	</node>
	<node id="-900822" lat="63.8455972249" lon="10.6312416721">
		<tag k="name" v="Gåsvatnet" />
		<tag k="natural" v="water" />
		<tag k="ssr:stedsnr" v="923516" />
	</node>
	<node id="-900821" lat="63.9050888899" lon="10.8998583343">
		<tag k="name" v="Daukallbekken" />
		<tag k="ssr:stedsnr" v="514090" />
		<tag k="waterway" v="stream" />
	</node>
	<node id="-900817" lat="63.8951833309" lon="10.7709333359">
		<tag k="name" v="Småtjønnin" />
		<tag k="natural" v="water" />
		<tag k="ssr:stedsnr" v="785759" />
		<tag k="water" v="lake" />
	</node>
	<node id="-900814" lat="64.1324194438" lon="11.1483361058">
		<tag k="name" v="Ferjfossen" />
		<tag k="natural" v="waterfall" />
		<tag k="ssr:stedsnr" v="837577" />
	</node>
	<node id="-900813" lat="64.08574167" lon="11.0830055544">
		<tag k="name" v="Skarseterbekken" />
		<tag k="ssr:stedsnr" v="350636" />
		<tag k="waterway" v="stream" />
	</node>
	<node id="-900811" lat="63.9975416626" lon="10.9336916684">
		<tag k="name" v="Plassafjorden" />
		<tag k="natural" v="water" />
		<tag k="ssr:stedsnr" v="169071" />
	</node>
	<node id="-900805" lat="63.8877416658" lon="10.6993888863">
		<tag k="name" v="Vesterlona" />
		<tag k="natural" v="water" />
		<tag k="ssr:stedsnr" v="837183" />
		<tag k="water" v="lake" />
	</node>
	<node id="-900804" lat="63.9741361113" lon="11.0617861088">
		<tag k="name" v="Aspvikbekken" />
		<tag k="ssr:stedsnr" v="89081" />
		<tag k="waterway" v="stream" />
	</node>
	<node id="-900791" lat="63.8294722248" lon="10.5327472319">
		<tag k="name" v="Langvasselva" />
		<tag k="ssr:stedsnr" v="715264" />
		<tag k="waterway" v="river" />
	</node>
	<node id="-900788" lat="64.0172972226" lon="10.9914694414">
		<tag k="name" v="Svarttjønnbekken" />
		<tag k="ssr:stedsnr" v="533037" />
		<tag k="waterway" v="stream" />
	</node>
	<node id="-900787" lat="63.8001361073" lon="10.4938527726">
		<tag k="name" v="Jakoptjønna" />
		<tag k="natural" v="water" />
		<tag k="ssr:stedsnr" v="135449" />
	</node>
	<node id="-900785" lat="64.0419694479" lon="10.8518916612">
		<tag k="name" v="Ytre Andortjønna" />
		<tag k="natural" v="water" />
		<tag k="ssr:stedsnr" v="47620" />
	</node>
	<node id="-900782" lat="64.0511972177" lon="11.0007138974">
		<tag k="name" v="Spildernytjønna" />
		<tag k="natural" v="water" />
		<tag k="ssr:stedsnr" v="74965" />
	</node>
	<node id="-900781" lat="64.0722916669" lon="10.8742361159">
		<tag k="name" v="Korsbekken" />
		<tag k="ssr:stedsnr" v="560556" />
		<tag k="waterway" v="stream" />
	</node>
	<node id="-900777" lat="63.8894277812" lon="10.7071861139">
		<tag k="name" v="Midterlonet" />
		<tag k="natural" v="water" />
		<tag k="ssr:stedsnr" v="47206" />
		<tag k="water" v="lake" />
	</node>
	<node id="-900775" lat="64.0275138915" lon="11.0107138964">
		<tag k="name" v="Heddemarkbekken" />
		<tag k="ssr:stedsnr" v="351042" />
		<tag k="waterway" v="stream" />
	</node>
	<node id="-900767" lat="63.8898527817" lon="10.857475003">
		<tag k="name" v="Kvernbekken" />
		<tag k="ssr:stedsnr" v="89077" />
		<tag k="waterway" v="stream" />
	</node>
	<node id="-900765" lat="64.0589972179" lon="10.9996944384">
		<tag k="alt_name" v="Spillernytangen" />
		<tag k="name" v="Spildernytangen" />
		<tag k="natural" v="cape" />
		<tag k="ssr:stedsnr" v="499495" />
	</node>
	<node id="-900762" lat="63.9103749967" lon="10.7910527735">
		<tag k="name" v="Sørenvasslona" />
		<tag k="place" v="locality" />
		<tag k="ssr:stedsnr" v="864563" />
	</node>
	<node id="-900759" lat="63.8239250033" lon="10.5759833303">
		<tag k="name" v="Orvatnet" />
		<tag k="natural" v="water" />
		<tag k="ssr:stedsnr" v="923528" />
		<tag k="water" v="lake" />
	</node>
	<node id="-900757" lat="63.796105553" lon="10.5093722215">
		<tag k="name" v="Anderstjønna" />
		<tag k="natural" v="water" />
		<tag k="ssr:stedsnr" v="742433" />
	</node>
	<node id="-900756" lat="64.0598805521" lon="10.9742833284">
		<tag k="name" v="Furunestangen" />
		<tag k="natural" v="cape" />
		<tag k="ssr:stedsnr" v="499493" />
	</node>
	<node id="-900752" lat="64.0371194459" lon="11.155908336">
		<tag k="name" v="Gokshaugtjønnin" />
		<tag k="natural" v="water" />
		<tag k="ssr:stedsnr" v="681939" />
	</node>
	<node id="-900748" lat="63.928611114" lon="10.9096972155">
		<tag k="name" v="Gørpøla" />
		<tag k="natural" v="water" />
		<tag k="ssr:stedsnr" v="632388" />
	</node>
	<node id="-900746" lat="63.9286916668" lon="10.8140638985">
		<tag k="name" v="Finnåslona" />
		<tag k="natural" v="water" />
		<tag k="ssr:stedsnr" v="654148" />
		<tag k="water" v="lake" />
	</node>
	<node id="-900745" lat="64.0192166649" lon="11.1559805589">
		<tag k="name" v="Verstjønnbekken" />
		<tag k="ssr:stedsnr" v="559984" />
		<tag k="waterway" v="stream" />
	</node>
	<node id="-900742" lat="64.0256777779" lon="11.1640333333">
		<tag k="name" v="Verstjønna" />
		<tag k="natural" v="water" />
		<tag k="ssr:stedsnr" v="559985" />
	</node>
	<node id="-900736" lat="64.0184972267" lon="10.9341361019">
		<tag k="name" v="Stordalsbekken" />
		<tag k="ssr:stedsnr" v="169052" />
		<tag k="waterway" v="stream" />
	</node>
	<node id="-900734" lat="63.937138889" lon="10.9291666621">
		<tag k="name" v="Gørpølelva" />
		<tag k="ssr:stedsnr" v="574066" />
		<tag k="waterway" v="stream" />
	</node>
	<node id="-900730" lat="64.0471138896" lon="11.0871750072">
		<tag k="name" v="Folladalsbekken" />
		<tag k="ssr:stedsnr" v="533028" />
		<tag k="waterway" v="stream" />
	</node>
	<node id="-900724" lat="64.0159388902" lon="10.7899138881">
		<tag k="name" v="Kruvtjønna - Giedtietjonne" />
		<tag k="name:no" v="Kruvtjønna" />
		<tag k="name:sma" v="Giedtietjonne" />
		<tag k="natural" v="water" />
		<tag k="ssr:stedsnr" v="378977" />
	</node>
	<node id="-900722" lat="63.8905555574" lon="10.6861555515">
		<tag k="name" v="Hundsømmet" />
		<tag k="natural" v="strait" />
		<tag k="ssr:stedsnr" v="47198" />
	</node>
	<node id="-900718" lat="64.036872223" lon="11.2005777716">
		<tag k="name" v="Litlkleivbekken" />
		<tag k="ssr:stedsnr" v="438945" />
		<tag k="waterway" v="stream" />
	</node>
	<node id="-900717" lat="63.8531416643" lon="10.7035111026">
		<tag k="name" v="Moldelva" />
		<tag k="ssr:stedsnr" v="514061" />
		<tag k="waterway" v="river" />
	</node>
	<node id="-900716" lat="63.8679805595" lon="10.6465222289">
		<tag k="name" v="Småtjønnin" />
		<tag k="natural" v="water" />
		<tag k="ssr:stedsnr" v="741340" />
	</node>
	<node id="-900714" lat="63.9074416703" lon="10.8267444431">
		<tag k="name" v="Sørenvasselva" />
		<tag k="ssr:stedsnr" v="958219" />
		<tag k="waterway" v="river" />
	</node>
	<node id="-900704" lat="64.057333331" lon="10.8986361105">
		<tag k="name" v="Andortjønnbekken" />
		<tag k="ssr:stedsnr" v="715622" />
		<tag k="waterway" v="stream" />
	</node>
	<node id="-900697" lat="64.0817222242" lon="11.0457166619">
		<tag k="name" v="Reklingtjønna" />
		<tag k="natural" v="water" />
		<tag k="ssr:stedsnr" v="196486" />
	</node>
	<node id="-900692" lat="64.002044444" lon="10.7966861126">
		<tag k="name" v="Lona" />
		<tag k="natural" v="water" />
		<tag k="ssr:stedsnr" v="229131" />
		<tag k="water" v="lake" />
	</node>
	<node id="-900687" lat="63.8560638894" lon="10.6721333399">
		<tag k="name" v="Buavatnet" />
		<tag k="natural" v="water" />
		<tag k="ssr:stedsnr" v="316307" />
	</node>
	<node id="-900683" lat="63.768208334" lon="10.4965472205">
		<tag k="name" v="Kutjønna" />
		<tag k="natural" v="water" />
		<tag k="ssr:stedsnr" v="717948" />
	</node>
	<node id="-900678" lat="64.077852777" lon="11.1278833325">
		<tag k="name" v="Rafsin" />
		<tag k="natural" v="water" />
		<tag k="ssr:stedsnr" v="499472" />
	</node>
	<node id="-900677" lat="64.0506722227" lon="10.884133333">
		<tag k="name" v="Andortjønnin" />
		<tag k="natural" v="water" />
		<tag k="ssr:stedsnr" v="74952" />
	</node>
	<node id="-900672" lat="64.0108111107" lon="10.7909666761">
		<tag k="name" v="Nordlona" />
		<tag k="natural" v="water" />
		<tag k="ssr:stedsnr" v="47179" />
		<tag k="water" v="lake" />
	</node>
	<node id="-900660" lat="64.0524944458" lon="10.8868916763">
		<tag k="name" v="Fremre Andortjønna" />
		<tag k="natural" v="water" />
		<tag k="ssr:stedsnr" v="168624" />
	</node>
	<node id="-900658" lat="64.014727781" lon="10.8814861159">
		<tag k="name" v="Vargtjønnin" />
		<tag k="natural" v="water" />
		<tag k="ssr:stedsnr" v="378972" />
	</node>
	<node id="-900655" lat="64.0194333334" lon="10.8393555504">
		<tag k="name" v="Lomtjønna" />
		<tag k="natural" v="water" />
		<tag k="ssr:stedsnr" v="378973" />
	</node>
	<node id="-900654" lat="63.7843361079" lon="10.4675638858">
		<tag k="name" v="Spongtjønna" />
		<tag k="natural" v="water" />
		<tag k="ssr:stedsnr" v="332004" />
	</node>
	<node id="-900641" lat="63.9548805584" lon="10.7313972158">
		<tag k="name" v="Langholtjønna" />
		<tag k="natural" v="water" />
		<tag k="ssr:stedsnr" v="620594" />
	</node>
	<node id="-900639" lat="64.1114472206" lon="11.1975277732">
		<tag k="name" v="Seterlibekken" />
		<tag k="ssr:stedsnr" v="220781" />
		<tag k="waterway" v="stream" />
	</node>
	<node id="-900635" lat="64.0753083299" lon="10.973966667">
		<tag k="name" v="Bjørnatangen" />
		<tag k="natural" v="cape" />
		<tag k="ssr:stedsnr" v="499743" />
	</node>
	<node id="-900629" lat="64.0258555596" lon="10.8059833377">
		<tag k="name" v="Midtivatnet" />
		<tag k="natural" v="water" />
		<tag k="ssr:stedsnr" v="863992" />
	</node>
	<node id="-900626" lat="63.9879027764" lon="10.8980805648">
		<tag k="name" v="Kjeholmen" />
		<tag k="natural" v="cape" />
		<tag k="ssr:stedsnr" v="924567" />
	</node>
	<node id="-900624" lat="63.8091472239" lon="10.5854777714">
		<tag k="name" v="Naustbekken" />
		<tag k="ssr:stedsnr" v="514028" />
		<tag k="waterway" v="stream" />
	</node>
	<node id="-900623" lat="63.7608027813" lon="10.4624694413">
		<tag k="name" v="Kubekken" />
		<tag k="ssr:stedsnr" v="392025" />
		<tag k="waterway" v="stream" />
	</node>
	<node id="-900620" lat="63.9707222181" lon="10.9971250072">
		<tag k="name" v="Halsbekken" />
		<tag k="ssr:stedsnr" v="775148" />
		<tag k="waterway" v="stream" />
	</node>
	<node id="-900618" lat="64.0225611073" lon="11.0634888984">
		<tag k="name" v="Malbutjønna" />
		<tag k="natural" v="water" />
		<tag k="ssr:stedsnr" v="863987" />
	</node>
	<node id="-900615" lat="63.9906416628" lon="10.9266861171">
		<tag k="name" v="Steinseterbekken" />
		<tag k="ssr:stedsnr" v="924560" />
		<tag k="waterway" v="stream" />
	</node>
	<node id="-900612" lat="64.005791665" lon="11.096030562">
		<tag k="name" v="Neralmlibekken" />
		<tag k="ssr:stedsnr" v="635115" />
		<tag k="waterway" v="stream" />
	</node>
	<node id="-900610" lat="64.0413055512" lon="11.1065222209">
		<tag k="name" v="Bomfesttangen" />
		<tag k="natural" v="cape" />
		<tag k="ssr:stedsnr" v="169020" />
	</node>
	<node id="-900609" lat="64.1153638897" lon="11.1004222323">
		<tag k="name" v="Finnkoibukta" />
		<tag k="natural" v="bay" />
		<tag k="ssr:stedsnr" v="897630" />
	</node>
	<node id="-900608" lat="63.9337972233" lon="10.6947388858">
		<tag k="loc_name:sma" v="Guhkiesjaevrie" />
		<tag k="name" v="Langvatnet" />
		<tag k="name:no" v="Langvatnet" />
		<tag k="natural" v="water" />
		<tag k="ssr:stedsnr" v="134364" />
		<tag k="water" v="lake" />
	</node>
	<node id="-900607" lat="64.0588472238" lon="11.0295111212">
		<tag k="name" v="Hallalonet" />
		<tag k="natural" v="strait" />
		<tag k="ssr:stedsnr" v="472732" />
	</node>
	<node id="-900604" lat="64.0810638863" lon="11.1476583426">
		<tag k="name" v="Røssin" />
		<tag k="natural" v="water" />
		<tag k="ssr:stedsnr" v="560532" />
		<tag k="water" v="lake" />
	</node>
	<node id="-900600" lat="63.7757500019" lon="10.444199993">
		<tag k="name" v="Setertjønna" />
		<tag k="natural" v="water" />
		<tag k="ssr:stedsnr" v="803443" />
	</node>
	<node id="-900594" lat="64.0343027791" lon="11.0604472198">
		<tag k="name" v="Follavatnet" />
		<tag k="natural" v="water" />
		<tag k="ssr:stedsnr" v="863999" />
		<tag k="water" v="lake" />
	</node>
	<node id="-900578" lat="64.0443888851" lon="11.130452774">
		<tag k="name" v="Tømtbekken" />
		<tag k="ssr:stedsnr" v="291474" />
		<tag k="waterway" v="stream" />
	</node>
	<node id="-900567" lat="63.9846944436" lon="10.9076944384">
		<tag k="name" v="Nonsskarbekken" />
		<tag k="ssr:stedsnr" v="229100" />
		<tag k="waterway" v="stream" />
	</node>
	<node id="-900562" lat="63.8035666641" lon="10.6414611128">
		<tag k="name" v="Svarttjønna" />
		<tag k="natural" v="water" />
		<tag k="ssr:stedsnr" v="559441" />
	</node>
	<node id="-900556" lat="64.0449416667" lon="10.9261305543">
		<tag k="name" v="Hyllvassbekken" />
		<tag k="ssr:stedsnr" v="559963" />
		<tag k="waterway" v="stream" />
	</node>
	<node id="-900553" lat="64.0272499986" lon="10.8878888856">
		<tag k="name" v="Midtre Sandvatnet" />
		<tag k="natural" v="water" />
		<tag k="ssr:stedsnr" v="654098" />
		<tag k="water" v="lake" />
	</node>
	<node id="-900550" lat="64.021586107" lon="10.7925250067">
		<tag k="name" v="Skamnabekken" />
		<tag k="ssr:stedsnr" v="715176" />
		<tag k="waterway" v="stream" />
	</node>
	<node id="-900547" lat="64.1265083359" lon="11.1090027805">
		<tag k="name" v="Storferja" />
		<tag k="natural" v="water" />
		<tag k="ssr:stedsnr" v="681630" />
		<tag k="water" v="lake" />
	</node>
	<node id="-900546" lat="63.9003750012" lon="10.7162583253">
		<tag k="name" v="Holmtjønna" />
		<tag k="natural" v="water" />
		<tag k="ssr:stedsnr" v="680315" />
	</node>
	<node id="-900540" lat="63.864930558" lon="10.6225944393">
		<tag k="name" v="Rørtjønnin" />
		<tag k="natural" v="water" />
		<tag k="ssr:stedsnr" v="255290" />
	</node>
	<node id="-900537" lat="63.9831999983" lon="10.8674083253">
		<tag k="name" v="Straumhaugen" />
		<tag k="place" v="island" />
		<tag k="ssr:stedsnr" v="229097" />
	</node>
	<node id="-900534" lat="64.0301916697" lon="10.895905546">
		<tag k="name" v="Vargtjønnbekken" />
		<tag k="ssr:stedsnr" v="654092" />
		<tag k="waterway" v="stream" />
	</node>
	<node id="-900530" lat="63.9089250021" lon="10.8848722253">
		<tag k="name" v="Stamtjønna" />
		<tag k="natural" v="water" />
		<tag k="ssr:stedsnr" v="499448" />
	</node>
	<node id="-900525" lat="64.0646027749" lon="11.0517194447">
		<tag k="name" v="Svartvatnet" />
		<tag k="natural" v="water" />
		<tag k="ssr:stedsnr" v="776719" />
		<tag k="water" v="lake" />
	</node>
	<node id="-900519" lat="63.9149055554" lon="10.712600007">
		<tag k="name" v="Midtre Trevatnet" />
		<tag k="natural" v="water" />
		<tag k="ssr:stedsnr" v="498393" />
		<tag k="water" v="lake" />
	</node>
	<node id="-900518" lat="64.0206916626" lon="10.8462138964">
		<tag k="name" v="Merkestjønna" />
		<tag k="natural" v="water" />
		<tag k="ssr:stedsnr" v="439975" />
	</node>
	<node id="-900516" lat="63.9295194402" lon="10.8863805485">
		<tag k="name" v="Langådalsvatnet" />
		<tag k="natural" v="water" />
		<tag k="ssr:stedsnr" v="499453" />
	</node>
	<node id="-900512" lat="64.0694749974" lon="11.1026472214">
		<tag k="name" v="Seterlibekken" />
		<tag k="ssr:stedsnr" v="48730" />
		<tag k="waterway" v="stream" />
	</node>
	<node id="-900509" lat="64.1430777735" lon="11.0547250059">
		<tag k="name" v="Alhustjønnin" />
		<tag k="natural" v="water" />
		<tag k="ssr:stedsnr" v="412530" />
	</node>
	<node id="-900503" lat="63.9463638908" lon="10.8191111069">
		<tag k="name" v="Huldertjønna" />
		<tag k="natural" v="water" />
		<tag k="ssr:stedsnr" v="620586" />
	</node>
	<node id="-900500" lat="64.1178194413" lon="11.0522722205">
		<tag k="name" v="Sprovsetertjønnin" />
		<tag k="natural" v="water" />
		<tag k="ssr:stedsnr" v="256602" />
	</node>
	<node id="-900499" lat="64.0753138905" lon="10.9739749971">
		<tag k="name" v="Bjønnatangen" />
		<tag k="natural" v="cape" />
		<tag k="ssr:stedsnr" v="654107" />
	</node>
	<node id="-900498" lat="63.9807833358" lon="11.0860166691">
		<tag k="name" v="Geitvikbekken" />
		<tag k="ssr:stedsnr" v="635108" />
		<tag k="waterway" v="stream" />
	</node>
	<node id="-900494" lat="63.9978000017" lon="10.8035222142">
		<tag k="name" v="Svartbukta" />
		<tag k="natural" v="bay" />
		<tag k="ssr:stedsnr" v="47129" />
	</node>
	<node id="-900490" lat="64.0614166632" lon="11.1429666638">
		<tag k="fixme" v="multiple name tags, choose one and add the other to alt_name" />
		<tag k="name" v="Rennemobekken;Svebekken" />
		<tag k="ssr:stedsnr" v="439961" />
		<tag k="waterway" v="stream" />
	</node>
	<node id="-900489" lat="64.0061166667" lon="10.9124499978">
		<tag k="name" v="Jovatnet" />
		<tag k="natural" v="water" />
		<tag k="ssr:stedsnr" v="14881" />
	</node>
	<node id="-900487" lat="64.0400361099" lon="11.1144444454">
		<tag k="name" v="Kjerstifossen" />
		<tag k="natural" v="waterfall" />
		<tag k="ssr:stedsnr" v="473477" />
	</node>
	<node id="-900486" lat="63.9918666672" lon="10.8085916592">
		<tag k="name" v="Sagbekken" />
		<tag k="ssr:stedsnr" v="47126" />
		<tag k="waterway" v="stream" />
	</node>
	<node id="-900483" lat="64.0132305552" lon="11.0345611018">
		<tag k="name" v="Nordlitjønna" />
		<tag k="natural" v="water" />
		<tag k="ssr:stedsnr" v="803966" />
	</node>
	<node id="-900477" lat="64.0174638885" lon="10.9821305608">
		<tag k="name" v="Finntjønnin" />
		<tag k="natural" v="water" />
		<tag k="ssr:stedsnr" v="803968" />
	</node>
	<node id="-900472" lat="64.0498611124" lon="11.0298583394">
		<tag k="name" v="Bjørbekken" />
		<tag k="ssr:stedsnr" v="646510" />
		<tag k="waterway" v="stream" />
	</node>
	<node id="-900470" lat="63.9942333347" lon="10.8249861031">
		<tag k="name" v="Siristeinen" />
		<tag k="place" v="islet" />
		<tag k="ssr:stedsnr" v="47123" />
	</node>
	<node id="-900468" lat="63.8145138928" lon="10.5585861125">
		<tag k="name" v="Litlkjerringtjønna" />
		<tag k="natural" v="water" />
		<tag k="ssr:stedsnr" v="923481" />
	</node>
	<node id="-900467" lat="64.0273388844" lon="10.8722416721">
		<tag k="name" v="Ytre Sandvatnet" />
		<tag k="natural" v="water" />
		<tag k="ssr:stedsnr" v="654099" />
		<tag k="water" v="lake" />
	</node>
	<node id="-900463" lat="64.0264944444" lon="11.047749996">
		<tag k="name" v="Nordlielva" />
		<tag k="ssr:stedsnr" v="473072" />
		<tag k="waterway" v="river" />
	</node>
	<node id="-900448" lat="64.0059638917" lon="11.1299194365">
		<tag k="name" v="Marsitjønna" />
		<tag k="natural" v="water" />
		<tag k="ssr:stedsnr" v="14870" />
	</node>
	<node id="-900447" lat="63.9901194472" lon="10.9057361034">
		<tag k="name" v="Gåtvatnet - Gåetiejaevrie" />
		<tag k="name:no" v="Gåtvatnet" />
		<tag k="name:sma" v="Gåetiejaevrie" />
		<tag k="natural" v="water" />
		<tag k="ssr:stedsnr" v="620562" />
	</node>
	<node id="-900438" lat="63.9858944402" lon="10.8938777748">
		<tag k="name" v="Tverråa" />
		<tag k="ssr:stedsnr" v="620561" />
		<tag k="waterway" v="stream" />
	</node>
	<node id="-900427" lat="64.0080500038" lon="10.8193166676">
		<tag k="name" v="Rørtjønna" />
		<tag k="natural" v="water" />
		<tag k="ssr:stedsnr" v="257934" />
	</node>
	<node id="-900424" lat="63.7627083311" lon="10.4733805463">
		<tag k="name" v="Vassbakkvatnet" />
		<tag k="natural" v="water" />
		<tag k="old_name" v="Aursjøen;Aursjøen, store" />
		<tag k="ssr:stedsnr" v="742363" />
	</node>
	<node id="-900421" lat="64.0468861079" lon="10.8127944451">
		<tag k="loc_name" v="Reinsjøan" />
		<tag k="name" v="Reinsjøen" />
		<tag k="natural" v="water" />
		<tag k="ssr:stedsnr" v="268182" />
		<tag k="water" v="lake" />
	</node>
	<node id="-900418" lat="64.0876805573" lon="11.2007722303">
		<tag k="name" v="Skulen" />
		<tag k="natural" v="waterfall" />
		<tag k="ssr:stedsnr" v="696962" />
	</node>
	<node id="-900414" lat="64.102961113" lon="11.1175666663">
		<tag k="name" v="Svarttjønnin" />
		<tag k="natural" v="water" />
		<tag k="ssr:stedsnr" v="499434" />
	</node>
	<node id="-900408" lat="63.7676361081" lon="10.4429222313">
		<tag k="name" v="Damtjønna" />
		<tag k="natural" v="water" />
		<tag k="ssr:stedsnr" v="149214" />
	</node>
	<node id="-900399" lat="63.9318305522" lon="10.9349888857">
		<tag k="name" v="Snertvikstamtjønna" />
		<tag k="natural" v="water" />
		<tag k="ssr:stedsnr" v="681604" />
	</node>
	<node id="-900390" lat="64.0202138881" lon="10.8036138975">
		<tag k="name" v="Kruvelva" />
		<tag k="ssr:stedsnr" v="196974" />
		<tag k="waterway" v="stream" />
	</node>
	<node id="-900386" lat="64.1433916663" lon="11.1245722216">
		<tag k="name" v="Tverrelva" />
		<tag k="ssr:stedsnr" v="256586" />
		<tag k="waterway" v="stream" />
	</node>
	<node id="-900385" lat="64.1077388868" lon="11.237800007">
		<tag k="name" v="Husåselva" />
		<tag k="ssr:stedsnr" v="523803" />
		<tag k="waterway" v="river" />
	</node>
	<node id="-900374" lat="63.8537166702" lon="10.6660722152">
		<tag k="name" v="Damvatnet" />
		<tag k="natural" v="water" />
		<tag k="ssr:stedsnr" v="680303" />
	</node>
	<node id="-900367" lat="63.9505027791" lon="10.8233805597">
		<tag k="name" v="Fiskløysa" />
		<tag k="natural" v="water" />
		<tag k="ssr:stedsnr" v="681616" />
		<tag k="water" v="lake" />
	</node>
	<node id="-900366" lat="64.0130916679" lon="10.9960083332">
		<tag k="name" v="Sneppafjorden" />
		<tag k="natural" v="water" />
		<tag k="ssr:stedsnr" v="229048" />
	</node>
	<node id="-900365" lat="64.0066277794" lon="10.9835527778">
		<tag k="name" v="Åsabekken" />
		<tag k="ssr:stedsnr" v="257925" />
		<tag k="waterway" v="stream" />
	</node>
	<node id="-900361" lat="63.9911999956" lon="11.140013895">
		<tag k="name" v="Kvernabekken" />
		<tag k="ssr:stedsnr" v="696974" />
		<tag k="waterway" v="stream" />
	</node>
	<node id="-900359" lat="63.769377779" lon="10.5040111119">
		<tag k="name" v="Aursjøen" />
		<tag k="natural" v="water" />
		<tag k="ssr:stedsnr" v="439422" />
	</node>
	<node id="-900349" lat="63.9873916673" lon="10.854641668">
		<tag k="name" v="Otertangen" />
		<tag k="natural" v="cape" />
		<tag k="ssr:stedsnr" v="47098" />
	</node>
	<node id="-900348" lat="64.089411109" lon="11.2236777723">
		<tag k="name" v="Sagfossen" />
		<tag k="natural" v="waterfall" />
		<tag k="ssr:stedsnr" v="28973" />
	</node>
	<node id="-900336" lat="64.0105972186" lon="10.9547472232">
		<tag k="name" v="Nyseterbekken" />
		<tag k="ssr:stedsnr" v="837064" />
		<tag k="waterway" v="stream" />
	</node>
	<node id="-900334" lat="63.8878888905" lon="10.6728666655">
		<tag k="name" v="Ormsetvatnet" />
		<tag k="natural" v="water" />
		<tag k="ssr:stedsnr" v="377286" />
		<tag k="water" v="lake" />
	</node>
	<node id="-900324" lat="63.8862805564" lon="10.6003416706">
		<tag k="name" v="Midtre Mefjellsvatnet" />
		<tag k="natural" v="water" />
		<tag k="ssr:stedsnr" v="498358" />
	</node>
	<node id="-900317" lat="64.0062166671" lon="11.1653111104">
		<tag k="alt_name" v="Sagelva" />
		<tag k="name" v="Sagbekken" />
		<tag k="ssr:stedsnr" v="378907" />
		<tag k="waterway" v="stream" />
	</node>
	<node id="-900315" lat="63.888058333" lon="10.7003305556">
		<tag k="name" v="Ormsetlonan" />
		<tag k="natural" v="water" />
		<tag k="ssr:stedsnr" v="377284" />
	</node>
	<node id="-900301" lat="64.078955558" lon="11.1323305582">
		<tag k="name" v="Rafsbekken" />
		<tag k="ssr:stedsnr" v="351708" />
		<tag k="waterway" v="stream" />
	</node>
	<node id="-900300" lat="64.0017055586" lon="10.8678916721">
		<tag k="name" v="Grønnlidalsbekken" />
		<tag k="ssr:stedsnr" v="47089" />
		<tag k="waterway" v="stream" />
	</node>
	<node id="-900296" lat="63.9699194457" lon="10.8913472144">
		<tag k="name" v="Lauvtjønna" />
		<tag k="natural" v="water" />
		<tag k="ssr:stedsnr" v="377552" />
	</node>
	<node id="-900289" lat="63.9682805538" lon="11.020311109">
		<tag k="name" v="Liabekken" />
		<tag k="ssr:stedsnr" v="939116" />
		<tag k="waterway" v="stream" />
	</node>
	<node id="-900286" lat="64.0568638879" lon="11.1617194447">
		<tag k="name" v="Brattreitelva" />
		<tag k="ssr:stedsnr" v="499967" />
		<tag k="waterway" v="river" />
	</node>
	<node id="-900285" lat="63.9638027806" lon="11.0189944471">
		<tag k="name" v="Nygårdsbekken" />
		<tag k="ssr:stedsnr" v="939117" />
		<tag k="waterway" v="stream" />
	</node>
	<node id="-900263" lat="63.8646611126" lon="10.7509888919">
		<tag k="name" v="Kvitkubekken" />
		<tag k="ssr:stedsnr" v="210085" />
		<tag k="waterway" v="stream" />
	</node>
	<node id="-900261" lat="64.0178916633" lon="10.9957888894">
		<tag k="name" v="Seljefossan" />
		<tag k="natural" v="waterfall" />
		<tag k="ssr:stedsnr" v="594045" />
	</node>
	<node id="-900259" lat="64.0544805528" lon="11.1489055485">
		<tag k="name" v="Trondneset" />
		<tag k="natural" v="cape" />
		<tag k="ssr:stedsnr" v="351689" />
	</node>
	<node id="-900257" lat="63.9655888886" lon="10.9857222241">
		<tag k="name" v="Sandslielva" />
		<tag k="ssr:stedsnr" v="696129" />
		<tag k="waterway" v="river" />
	</node>
	<node id="-900255" lat="63.8664527748" lon="10.6948916649">
		<tag k="name" v="Ormsetfossen" />
		<tag k="natural" v="waterfall" />
		<tag k="ssr:stedsnr" v="472238" />
	</node>
	<node id="-900252" lat="64.0853416681" lon="11.2548138991">
		<tag k="name" v="Koltjønna" />
		<tag k="natural" v="water" />
		<tag k="ssr:stedsnr" v="447800" />
	</node>
	<node id="-900250" lat="64.0226972246" lon="10.822799996">
		<tag k="name" v="Vannskiftbekken" />
		<tag k="ssr:stedsnr" v="897166" />
		<tag k="waterway" v="stream" />
	</node>
	<node id="-900248" lat="64.0563222211" lon="11.0396611055">
		<tag k="name" v="Litl - Holden" />
		<tag k="natural" v="water" />
		<tag k="ssr:stedsnr" v="291014" />
		<tag k="water" v="lake" />
	</node>
	<node id="-900230" lat="64.0685138888" lon="10.9953027847">
		<tag k="name" v="Olheitangen" />
		<tag k="natural" v="cape" />
		<tag k="ssr:stedsnr" v="169734" />
	</node>
	<node id="-900222" lat="64.0469166707" lon="11.0673805574">
		<tag k="name" v="Stokkvedelva" />
		<tag k="ssr:stedsnr" v="863947" />
		<tag k="waterway" v="stream" />
	</node>
	<node id="-900220" lat="63.8451805583" lon="10.6774527876">
		<tag k="name" v="Litl-Moldbekken" />
		<tag k="ssr:stedsnr" v="635048" />
		<tag k="waterway" v="stream" />
	</node>
	<node id="-900217" lat="64.0586722185" lon="10.8624166698">
		<tag k="name" v="Reinsjøtjønnin" />
		<tag k="natural" v="water" />
		<tag k="ssr:stedsnr" v="499958" />
	</node>
	<node id="-900205" lat="63.9971055544" lon="10.9587666672">
		<tag k="name" v="Klumptjønnbekken" />
		<tag k="ssr:stedsnr" v="317553" />
		<tag k="waterway" v="stream" />
	</node>
	<node id="-900203" lat="63.9256611112" lon="10.8476444444">
		<tag k="name" v="Steintjønna" />
		<tag k="natural" v="water" />
		<tag k="ssr:stedsnr" v="329517" />
	</node>
	<node id="-900202" lat="63.970366668" lon="10.8620944525">
		<tag k="name" v="Reinstjønnelva" />
		<tag k="ssr:stedsnr" v="958102" />
		<tag k="waterway" v="river" />
	</node>
	<node id="-900193" lat="64.0153916639" lon="10.9685694415">
		<tag k="name" v="Finntjønnbekken" />
		<tag k="ssr:stedsnr" v="47066" />
		<tag k="waterway" v="stream" />
	</node>
	<node id="-900189" lat="64.0714972186" lon="10.9842083364">
		<tag k="name" v="Bernvågen" />
		<tag k="natural" v="bay" />
		<tag k="ssr:stedsnr" v="620527" />
	</node>
	<node id="-900184" lat="64.0832861152" lon="11.1726944503">
		<tag k="name" v="Danielbekken" />
		<tag k="ssr:stedsnr" v="149959" />
		<tag k="waterway" v="stream" />
	</node>
	<node id="-900177" lat="63.907011112" lon="10.7858861061">
		<tag k="name" v="Småvatna" />
		<tag k="natural" v="water" />
		<tag k="ssr:stedsnr" v="482750" />
		<tag k="water" v="lake" />
	</node>
	<node id="-900172" lat="63.8455277821" lon="10.5417333236">
		<tag k="name" v="Litlskjerivatnet" />
		<tag k="natural" v="water" />
		<tag k="ssr:stedsnr" v="680520" />
	</node>
	<node id="-900170" lat="63.905344444" lon="10.8355555515">
		<tag k="name" v="Nesvasselva" />
		<tag k="ssr:stedsnr" v="802575" />
		<tag k="waterway" v="river" />
	</node>
	<node id="-900169" lat="63.9259777822" lon="10.8497305505">
		<tag k="name" v="Steintjønna" />
		<tag k="natural" v="water" />
		<tag k="ssr:stedsnr" v="924497" />
	</node>
	<node id="-900167" lat="63.9955111128" lon="10.8412361107">
		<tag k="name" v="Friarbukta" />
		<tag k="natural" v="bay" />
		<tag k="ssr:stedsnr" v="897127" />
	</node>
	<node id="-900166" lat="63.9932638928" lon="10.9527722235">
		<tag k="name" v="Klumptjønna" />
		<tag k="natural" v="water" />
		<tag k="ssr:stedsnr" v="317555" />
	</node>
	<node id="-900159" lat="64.0346194469" lon="10.8836666571">
		<tag k="name" v="Nordvargtjønna" />
		<tag k="natural" v="water" />
		<tag k="ssr:stedsnr" v="196939" />
	</node>
	<node id="-900152" lat="63.9950444415" lon="10.853922232">
		<tag k="name" v="Grønneset" />
		<tag k="natural" v="cape" />
		<tag k="ssr:stedsnr" v="715115" />
	</node>
	<node id="-900151" lat="63.9639361126" lon="10.8181055563">
		<tag k="name" v="Simadalsvatnet" />
		<tag k="natural" v="water" />
		<tag k="ssr:stedsnr" v="14567" />
		<tag k="water" v="lake" />
	</node>
	<node id="-900149" lat="64.0565222233" lon="11.0058305458">
		<tag k="alt_name" v="Spillernybukta" />
		<tag k="name" v="Spildernybukta" />
		<tag k="natural" v="bay" />
		<tag k="ssr:stedsnr" v="620539" />
	</node>
	<node id="-900147" lat="63.8801694421" lon="10.7505583359">
		<tag k="name" v="Lauvlifossen" />
		<tag k="natural" v="waterfall" />
		<tag k="ssr:stedsnr" v="377525" />
	</node>
	<node id="-900139" lat="63.7842000008" lon="10.4383083339">
		<tag k="name" v="Skurvtjønna" />
		<tag k="natural" v="water" />
		<tag k="ssr:stedsnr" v="878242" />
	</node>
	<node id="-900138" lat="63.9315611142" lon="10.9551305501">
		<tag k="name" v="Storbekken" />
		<tag k="ssr:stedsnr" v="210066" />
		<tag k="waterway" v="stream" />
	</node>
	<node id="-900099" lat="64.0146305542" lon="10.992813896">
		<tag k="name" v="Nerfjorden" />
		<tag k="natural" v="water" />
		<tag k="ssr:stedsnr" v="47038" />
	</node>
	<node id="-900097" lat="63.9486527784" lon="10.9530722143">
		<tag k="name" v="Gammelsetertjønna" />
		<tag k="natural" v="water" />
		<tag k="ssr:stedsnr" v="14557" />
	</node>
	<node id="-900095" lat="64.0252666694" lon="10.8803916696">
		<tag k="name" v="Vargtjønnbekken" />
		<tag k="ssr:stedsnr" v="897107" />
		<tag k="waterway" v="stream" />
	</node>
	<node id="-900093" lat="63.984524999" lon="11.0545527772">
		<tag k="fixme" v="multiple name tags, choose one and add the other to alt_name" />
		<tag k="name" v="Aslakdammen;Klumtjønna" />
		<tag k="natural" v="water" />
		<tag k="ssr:stedsnr" v="317535" />
	</node>
	<node id="-900091" lat="64.0055027809" lon="10.9543166769">
		<tag k="name" v="Kjelholmen" />
		<tag k="place" v="islet" />
		<tag k="ssr:stedsnr" v="715073" />
	</node>
	<node id="-900088" lat="64.0089499996" lon="11.1479888828">
		<tag k="name" v="Tømsevatnet" />
		<tag k="natural" v="water" />
		<tag k="ssr:stedsnr" v="864966" />
	</node>
	<node id="-900087" lat="63.9412361148" lon="10.8888805576">
		<tag k="name" v="Tverrelva" />
		<tag k="ssr:stedsnr" v="135597" />
		<tag k="waterway" v="stream" />
	</node>
	<node id="-900086" lat="64.0103055517" lon="10.9844499923">
		<tag k="name" v="Kjåppån - Tjuahpa" />
		<tag k="name:no" v="Kjåppån" />
		<tag k="name:sma" v="Tjuahpa" />
		<tag k="natural" v="water" />
		<tag k="ssr:stedsnr" v="75932" />
		<tag k="water" v="lake" />
	</node>
	<node id="-900080" lat="64.0597083325" lon="10.9180694364">
		<tag k="name" v="Musvågen" />
		<tag k="natural" v="bay" />
		<tag k="ssr:stedsnr" v="681555" />
	</node>
	<node id="-900079" lat="63.8865249995" lon="10.8270111162">
		<tag k="name" v="Lomtjønna" />
		<tag k="natural" v="water" />
		<tag k="ssr:stedsnr" v="282266" />
	</node>
	<node id="-900065" lat="63.8925111114" lon="10.7486388814">
		<tag k="name" v="Litlrørtjønna" />
		<tag k="natural" v="water" />
		<tag k="ssr:stedsnr" v="421775" />
	</node>
	<node id="-900064" lat="63.8275750041" lon="10.6323472127">
		<tag k="name" v="Raudmoldelva" />
		<tag k="ssr:stedsnr" v="696076" />
		<tag k="waterway" v="river" />
	</node>
	<node id="-900062" lat="64.0122833303" lon="10.8246250049">
		<tag k="name" v="Måggåtjønna" />
		<tag k="natural" v="water" />
		<tag k="ssr:stedsnr" v="75928" />
	</node>
	<node id="-900060" lat="63.9998583354" lon="11.0012555642">
		<tag k="name" v="Åsavatnet" />
		<tag k="natural" v="water" />
		<tag k="ssr:stedsnr" v="438577" />
	</node>
	<node id="-900055" lat="63.8772305547" lon="10.6342861139">
		<tag k="name" v="Rørtjønnbekken" />
		<tag k="ssr:stedsnr" v="472184" />
		<tag k="waterway" v="stream" />
	</node>
	<node id="-900054" lat="64.0244083298" lon="11.0379500012">
		<tag k="name" v="Holseterbekken" />
		<tag k="ssr:stedsnr" v="412040" />
		<tag k="waterway" v="stream" />
	</node>
	<node id="-900046" lat="63.9343000035" lon="10.7416527753">
		<tag k="name" v="Fundertjønna" />
		<tag k="natural" v="water" />
		<tag k="ssr:stedsnr" v="135592" />
	</node>
	<node id="-900042" lat="64.1296111136" lon="11.1423222244">
		<tag k="name" v="Litlferja" />
		<tag k="natural" v="water" />
		<tag k="ssr:stedsnr" v="742589" />
	</node>
	<node id="-900041" lat="63.8510388918" lon="10.6547249919">
		<tag k="name" v="Setervatnet" />
		<tag k="natural" v="water" />
		<tag k="ssr:stedsnr" v="680514" />
	</node>
	<node id="-900040" lat="63.786608331" lon="10.5210250035">
		<tag k="name" v="Sagbekken" />
		<tag k="ssr:stedsnr" v="635001" />
		<tag k="waterway" v="stream" />
	</node>
	<node id="-900028" lat="63.9063333367" lon="10.6460999943">
		<tag k="loc_name:sma" v="Girkietjonne" />
		<tag k="name" v="Steintjønna" />
		<tag k="name:no" v="Steintjønna" />
		<tag k="natural" v="water" />
		<tag k="ssr:stedsnr" v="862310" />
	</node>
	<node id="-900026" lat="63.8567972235" lon="10.5573027786">
		<tag k="name" v="Søre Mefjellsvatnet" />
		<tag k="natural" v="water" />
		<tag k="ssr:stedsnr" v="498322" />
	</node>
	<node id="-900024" lat="64.0949944421" lon="10.9338388796">
		<tag k="name" v="Torselva" />
		<tag k="ssr:stedsnr" v="924489" />
		<tag k="waterway" v="stream" />
	</node>
	<node id="-900023" lat="63.9926250028" lon="10.9152472323">
		<tag k="name" v="Storviktangen" />
		<tag k="natural" v="cape" />
		<tag k="ssr:stedsnr" v="897076" />
	</node>
	<node id="-900022" lat="64.142983329" lon="11.0845749968">
		<tag k="name" v="Angeltjønna" />
		<tag k="natural" v="water" />
		<tag k="ssr:stedsnr" v="803616" />
	</node>
	<node id="-900020" lat="64.0708833299" lon="11.0293972232">
		<tag k="name" v="Hodalsholet" />
		<tag k="natural" v="bay" />
		<tag k="ssr:stedsnr" v="378581" />
	</node>
	<node id="-900019" lat="63.9035194462" lon="10.8928861126">
		<tag k="name" v="Sjøbakkbekken" />
		<tag k="ssr:stedsnr" v="28085" />
		<tag k="waterway" v="stream" />
	</node>
	<node id="-900018" lat="63.9358694416" lon="10.9363499925">
		<tag k="name" v="Svartdalstjønna" />
		<tag k="natural" v="water" />
		<tag k="ssr:stedsnr" v="14542" />
	</node>
	<node id="-900015" lat="64.0216916661" lon="10.775244446">
		<tag k="name" v="Klomptjønnbekken" />
		<tag k="ssr:stedsnr" v="472169" />
		<tag k="waterway" v="stream" />
	</node>
	<node id="-900013" lat="63.8069444485" lon="10.5358055532">
		<tag k="name" v="Kutjønna" />
		<tag k="natural" v="water" />
		<tag k="ssr:stedsnr" v="696034" />
	</node>
	<node id="-900010" lat="64.0063972257" lon="11.0288138906">
		<tag k="name" v="Bjørklibekken" />
		<tag k="ssr:stedsnr" v="534042" />
		<tag k="waterway" v="stream" />
	</node>
	<node id="-900005" lat="64.0207805538" lon="11.0995111119">
		<tag k="name" v="Jeppebekken" />
		<tag k="ssr:stedsnr" v="958055" />
		<tag k="waterway" v="stream" />
	</node>
	<node id="-900004" lat="63.8020000018" lon="10.5502250091">
		<tag k="name" v="Svartbekken" />
		<tag k="ssr:stedsnr" v="210032" />
		<tag k="waterway" v="stream" />
	</node>
	<node id="-899998" lat="64.114800003" lon="11.0350749913">
		<tag k="name" v="Potta" />
		<tag k="natural" v="bay" />
		<tag k="ssr:stedsnr" v="108670" />
	</node>
	<node id="-899990" lat="63.9709555533" lon="10.9021611113">
		<tag k="name" v="Tørkletjønna" />
		<tag k="natural" v="water" />
		<tag k="ssr:stedsnr" v="317524" />
	</node>
	<node id="-899984" lat="64.0009861086" lon="10.9890638906">
		<tag k="name" v="Svarttjønna" />
		<tag k="natural" v="water" />
		<tag k="ssr:stedsnr" v="958047" />
	</node>
	<node id="-899980" lat="63.948566669" lon="10.9049111054">
		<tag k="name" v="Lunin" />
		<tag k="natural" v="water" />
		<tag k="ssr:stedsnr" v="75656" />
	</node>
	<node id="-899979" lat="64.0938000029" lon="11.2637916764">
		<tag k="name" v="Landsemvatnet" />
		<tag k="natural" v="water" />
		<tag k="ssr:stedsnr" v="924195" />
	</node>
	<node id="-899975" lat="64.1059055512" lon="11.1019361172">
		<tag k="name" v="Svarttjønnin" />
		<tag k="natural" v="water" />
		<tag k="ssr:stedsnr" v="108672" />
	</node>
	<node id="-899974" lat="64.0506527805" lon="11.1847694517">
		<tag k="name" v="Kjerkreitbekken" />
		<tag k="ssr:stedsnr" v="817999" />
		<tag k="waterway" v="stream" />
	</node>
	<node id="-899965" lat="63.9484361085" lon="10.8846500091">
		<tag k="name" v="Synnavindstjønnin" />
		<tag k="natural" v="water" />
		<tag k="ssr:stedsnr" v="75654" />
	</node>
	<node id="-899963" lat="64.0961416645" lon="11.0967277697">
		<tag k="name" v="Litlvatnet" />
		<tag k="natural" v="water" />
		<tag k="ssr:stedsnr" v="620506" />
	</node>
	<node id="-899958" lat="63.8494888908" lon="10.6040833338">
		<tag k="name" v="Fiskløysa" />
		<tag k="natural" v="water" />
		<tag k="ssr:stedsnr" v="558276" />
	</node>
	<node id="-899956" lat="64.0773111085" lon="11.0072861011">
		<tag k="name" v="Olheibekken" />
		<tag k="ssr:stedsnr" v="378574" />
		<tag k="waterway" v="stream" />
	</node>
	<node id="-899955" lat="64.1069611136" lon="10.9493694454">
		<tag k="name" v="Finntjønna" />
		<tag k="natural" v="water" />
		<tag k="ssr:stedsnr" v="377496" />
	</node>
	<node id="-899949" lat="63.8903333306" lon="10.8088222268">
		<tag k="name" v="Flåan" />
		<tag k="place" v="locality" />
		<tag k="ssr:stedsnr" v="256520" />
	</node>
	<node id="-899942" lat="63.7632416647" lon="10.5081472213">
		<tag k="name" v="Kuskjelltjønna" />
		<tag k="natural" v="water" />
		<tag k="ssr:stedsnr" v="392251" />
	</node>
	<node id="-899940" lat="63.9910416632" lon="10.8979499999">
		<tag k="name" v="Aunbukta" />
		<tag k="natural" v="bay" />
		<tag k="ssr:stedsnr" v="135581" />
	</node>
	<node id="-899939" lat="63.9770555532" lon="10.996008333">
		<tag k="name" v="Stamtjønnin" />
		<tag k="natural" v="water" />
		<tag k="ssr:stedsnr" v="438563" />
	</node>
	<node id="-899935" lat="63.8789222248" lon="10.6622305546">
		<tag k="name" v="Storholmen" />
		<tag k="place" v="islet" />
		<tag k="ssr:stedsnr" v="498305" />
	</node>
	<node id="-899933" lat="63.9835527739" lon="10.8187166755">
		<tag k="name" v="Taskvasstjønna" />
		<tag k="natural" v="water" />
		<tag k="ssr:stedsnr" v="290153" />
	</node>
	<node id="-899921" lat="64.1408194436" lon="11.119441666">
		<tag k="name" v="Settertjønna" />
		<tag k="natural" v="water" />
		<tag k="ssr:stedsnr" v="863633" />
	</node>
	<node id="-899920" lat="63.9491250041" lon="10.9825055648">
		<tag k="name" v="Tunselva" />
		<tag k="ssr:stedsnr" v="803622" />
		<tag k="waterway" v="stream" />
	</node>
	<node id="-899916" lat="63.8890555592" lon="10.7366305581">
		<tag k="name" v="Lona" />
		<tag k="place" v="locality" />
		<tag k="ssr:stedsnr" v="256517" />
	</node>
	<node id="-899913" lat="63.8907944458" lon="10.715775001">
		<tag k="name" v="Austerlonet" />
		<tag k="natural" v="water" />
		<tag k="ssr:stedsnr" v="411205" />
		<tag k="water" v="lake" />
	</node>
	<node id="-899912" lat="64.0920305537" lon="10.9259166597">
		<tag k="name" v="Ingertjønnin" />
		<tag k="natural" v="water" />
		<tag k="ssr:stedsnr" v="681525" />
	</node>
	<node id="-899894" lat="64.0922750005" lon="10.9956388951">
		<tag k="name" v="Finndalsbekken" />
		<tag k="ssr:stedsnr" v="169653" />
		<tag k="waterway" v="stream" />
	</node>
	<node id="-899892" lat="63.9805972202" lon="10.9116861024">
		<tag k="fixme" v="multiple name tags, choose one and add the other to alt_name" />
		<tag k="name" v="Skardtjønna;Holmtjønna" />
		<tag k="natural" v="water" />
		<tag k="ssr:stedsnr" v="74568" />
	</node>
	<node id="-899885" lat="63.9903666711" lon="10.8377722185">
		<tag k="fixme" v="multiple name tags, choose one and add the other to alt_name" />
		<tag k="name" v="Steinodden;Storodden" />
		<tag k="natural" v="cape" />
		<tag k="ssr:stedsnr" v="14523" />
	</node>
	<node id="-899876" lat="63.8493055532" lon="10.6503111093">
		<tag k="name" v="Moldvatnet" />
		<tag k="natural" v="water" />
		<tag k="ssr:stedsnr" v="836149" />
		<tag k="water" v="lake" />
	</node>
	<node id="-899873" lat="63.9847361112" lon="10.7877555469">
		<tag k="name" v="Middagstjønna" />
		<tag k="natural" v="water" />
		<tag k="ssr:stedsnr" v="742547" />
	</node>
	<node id="-899871" lat="63.8900416632" lon="10.6799472171">
		<tag k="name" v="Setertangen" />
		<tag k="natural" v="cape" />
		<tag k="ssr:stedsnr" v="411192" />
	</node>
	<node id="-899870" lat="63.9963916658" lon="10.8504138796">
		<tag k="name" v="Bybekksundet" />
		<tag k="natural" v="strait" />
		<tag k="ssr:stedsnr" v="290136" />
	</node>
	<node id="-899865" lat="63.7536138881" lon="10.4628750022">
		<tag k="name" v="Seterlibekken" />
		<tag k="ssr:stedsnr" v="514251" />
		<tag k="waterway" v="stream" />
	</node>
	<node id="-899862" lat="63.9390166666" lon="10.8093472178">
		<tag k="loc_name:sma" v="Lihtsejaevrie" />
		<tag k="name" v="Lysvatnet" />
		<tag k="name:no" v="Lysvatnet" />
		<tag k="natural" v="water" />
		<tag k="ssr:stedsnr" v="75635" />
	</node>
	<node id="-899857" lat="63.873727782" lon="10.6889027832">
		<tag k="name" v="Lona" />
		<tag k="natural" v="water" />
		<tag k="ssr:stedsnr" v="351204" />
		<tag k="water" v="lake" />
	</node>
	<node id="-899854" lat="64.0302694466" lon="11.036644444">
		<tag k="name" v="Skogstutangen" />
		<tag k="natural" v="cape" />
		<tag k="ssr:stedsnr" v="958041" />
	</node>
	<node id="-899845" lat="63.9930416631" lon="10.8468444364">
		<tag k="name" v="Bybekktangen" />
		<tag k="natural" v="cape" />
		<tag k="ssr:stedsnr" v="593130" />
	</node>
	<node id="-899842" lat="63.9396472214" lon="10.7752472135">
		<tag k="name" v="Otertjønnin" />
		<tag k="natural" v="water" />
		<tag k="ssr:stedsnr" v="439607" />
	</node>
	<node id="-899840" lat="64.01941389" lon="10.8077972291">
		<tag k="name" v="Svartdyet" />
		<tag k="natural" v="water" />
		<tag k="ssr:stedsnr" v="411173" />
	</node>
	<node id="-899839" lat="63.830463887" lon="10.5228472224">
		<tag k="name" v="Skjerivasselva" />
		<tag k="ssr:stedsnr" v="533220" />
		<tag k="waterway" v="river" />
	</node>
	<node id="-899837" lat="63.7483750002" lon="10.4631666632">
		<tag k="name" v="Ryptjønna" />
		<tag k="natural" v="water" />
		<tag k="ssr:stedsnr" v="776979" />
	</node>
	<node id="-899836" lat="63.7930638872" lon="10.5796472151">
		<tag k="name" v="Sørvågelva" />
		<tag k="ssr:stedsnr" v="696016" />
		<tag k="waterway" v="river" />
	</node>
	<node id="-899832" lat="64.0087583306" lon="11.1069722132">
		<tag k="loc_name" v="Folla" />
		<tag k="name" v="Follaelva" />
		<tag k="ssr:stedsnr" v="377998" />
		<tag k="waterway" v="river" />
	</node>
	<node id="-899831" lat="64.03149167" lon="11.132780551">
		<tag k="name" v="Dalengbekken" />
		<tag k="ssr:stedsnr" v="109425" />
		<tag k="waterway" v="stream" />
	</node>
	<node id="-899819" lat="64.0308361075" lon="11.148583333">
		<tag k="name" v="Lomtjønna" />
		<tag k="natural" v="water" />
		<tag k="ssr:stedsnr" v="924993" />
	</node>
	<node id="-899815" lat="64.0334527767" lon="10.8235944489">
		<tag k="name" v="Kvennhusbekken" />
		<tag k="ssr:stedsnr" v="714611" />
		<tag k="waterway" v="stream" />
	</node>
	<node id="-899806" lat="63.9544388871" lon="10.880663898">
		<tag k="name" v="Reinstjønna" />
		<tag k="natural" v="water" />
		<tag k="ssr:stedsnr" v="439611" />
	</node>
	<node id="-899801" lat="64.0433583366" lon="10.8054777779">
		<tag k="alt_name" v="Reinsjøen, vestre" />
		<tag k="name" v="Vestre Reinsjøen" />
		<tag k="natural" v="water" />
		<tag k="ssr:stedsnr" v="13962" />
		<tag k="water" v="lake" />
	</node>
	<node id="-899797" lat="63.9234583364" lon="10.8421722196">
		<tag k="name" v="Steintjønnelva" />
		<tag k="ssr:stedsnr" v="108212" />
		<tag k="waterway" v="river" />
	</node>
	<node id="-899794" lat="63.9067444479" lon="10.772375007">
		<tag k="name" v="Bjørntjønnin" />
		<tag k="natural" v="water" />
		<tag k="ssr:stedsnr" v="378550" />
	</node>
	<node id="-899788" lat="63.9711000031" lon="10.8465611036">
		<tag k="name" v="Vargåa" />
		<tag k="ssr:stedsnr" v="803581" />
		<tag k="waterway" v="stream" />
	</node>
	<node id="-899780" lat="63.971275003" lon="10.9085999967">
		<tag k="name" v="Høytjønnin" />
		<tag k="natural" v="water" />
		<tag k="ssr:stedsnr" v="803580" />
	</node>
	<node id="-899776" lat="64.0278444447" lon="10.7800416748">
		<tag k="name" v="Skamnatjønna" />
		<tag k="natural" v="water" />
		<tag k="ssr:stedsnr" v="647427" />
	</node>
	<node id="-899772" lat="64.0184388908" lon="10.9230333316">
		<tag k="name" v="Sandvasselva" />
		<tag k="ssr:stedsnr" v="924966" />
		<tag k="waterway" v="stream" />
	</node>
	<node id="-899771" lat="64.0188277737" lon="10.8858749972">
		<tag k="name" v="Vargtjønna" />
		<tag k="natural" v="water" />
		<tag k="ssr:stedsnr" v="290115" />
	</node>
	<node id="-899770" lat="63.9910111135" lon="10.8415166738">
		<tag k="loc_name:sma" v="Sillejaevrie" />
		<tag k="name" v="Selavatnet" />
		<tag k="name:no" v="Selavatnet" />
		<tag k="natural" v="water" />
		<tag k="ssr:stedsnr" v="863589" />
		<tag k="water" v="lake" />
	</node>
	<node id="-899765" lat="63.8257166671" lon="10.5717833399">
		<tag k="name" v="Hallvardstjønna" />
		<tag k="natural" v="water" />
		<tag k="ssr:stedsnr" v="498544" />
	</node>
	<node id="-899748" lat="64.003347218" lon="11.1009611033">
		<tag k="name" v="Leirkjølbekken" />
		<tag k="ssr:stedsnr" v="878133" />
		<tag k="waterway" v="stream" />
	</node>
	<node id="-899740" lat="63.9238444405" lon="10.8316222148">
		<tag k="name" v="Nesvatnet" />
		<tag k="natural" v="water" />
		<tag k="ssr:stedsnr" v="439588" />
	</node>
	<node id="-899737" lat="63.9108611148" lon="10.7118583432">
		<tag k="name" v="Nedre Trevatnet" />
		<tag k="natural" v="water" />
		<tag k="ssr:stedsnr" v="923373" />
		<tag k="water" v="lake" />
	</node>
	<node id="-899735" lat="64.0004138929" lon="11.0051805511">
		<tag k="name" v="Åsvatnet" />
		<tag k="natural" v="water" />
		<tag k="ssr:stedsnr" v="499871" />
	</node>
	<node id="-899730" lat="64.0568138846" lon="10.9486722306">
		<tag k="name" v="Stuvågbukta" />
		<tag k="natural" v="bay" />
		<tag k="ssr:stedsnr" v="14495" />
	</node>
	<node id="-899728" lat="64.0394027774" lon="11.0998861206">
		<tag k="name" v="Isnesbukta" />
		<tag k="natural" v="bay" />
		<tag k="ssr:stedsnr" v="958008" />
	</node>
	<node id="-899719" lat="63.9113416663" lon="10.8882361172">
		<tag k="name" v="Stamnan" />
		<tag k="natural" v="water" />
		<tag k="ssr:stedsnr" v="378545" />
	</node>
	<node id="-899713" lat="64.1034277812" lon="11.1639777773">
		<tag k="name" v="Kattrumptjønna" />
		<tag k="natural" v="water" />
		<tag k="ssr:stedsnr" v="256476" />
	</node>
	<node id="-899710" lat="63.9814277763" lon="10.8804138798">
		<tag k="name" v="Straumsetervatnet" />
		<tag k="natural" v="water" />
		<tag k="ssr:stedsnr" v="559572" />
	</node>
	<node id="-899704" lat="63.9957638877" lon="10.9007805486">
		<tag k="name" v="Aunbekken" />
		<tag k="ssr:stedsnr" v="290100" />
		<tag k="waterway" v="stream" />
	</node>
	<node id="-899702" lat="63.9895499998" lon="10.8056638792">
		<tag k="name" v="Svarttjønna" />
		<tag k="natural" v="water" />
		<tag k="ssr:stedsnr" v="863596" />
	</node>
	<node id="-899688" lat="64.0920805554" lon="10.9684277696">
		<tag k="name" v="Esplingvågen" />
		<tag k="natural" v="bay" />
		<tag k="ssr:stedsnr" v="776534" />
	</node>
	<node id="-899686" lat="63.8873777781" lon="10.7446111078">
		<tag k="alt_name" v="Småtjønnin" />
		<tag k="name" v="Rørtjønna" />
		<tag k="natural" v="water" />
		<tag k="ssr:stedsnr" v="742520" />
	</node>
	<node id="-899677" lat="63.9799555561" lon="11.0789305454">
		<tag k="name" v="Spikarbekken" />
		<tag k="ssr:stedsnr" v="817133" />
		<tag k="waterway" v="stream" />
	</node>
	<node id="-899676" lat="64.1140777776" lon="11.0558555506">
		<tag k="name" v="Langvatnet" />
		<tag k="natural" v="water" />
		<tag k="ssr:stedsnr" v="681488" />
		<tag k="water" v="lake" />
	</node>
	<node id="-899675" lat="63.9728611145" lon="11.0424305594">
		<tag k="name" v="Bjørklibekken" />
		<tag k="ssr:stedsnr" v="817132" />
		<tag k="waterway" v="stream" />
	</node>
	<node id="-899672" lat="64.0684444454" lon="11.1449222289">
		<tag k="alt_name" v="Sleppingan" />
		<tag k="name" v="Sleppingen" />
		<tag k="natural" v="water" />
		<tag k="ssr:stedsnr" v="803558" />
	</node>
	<node id="-899668" lat="63.9998333323" lon="10.9064583402">
		<tag k="name" v="Kvernhusdammen" />
		<tag k="natural" v="water" />
		<tag k="ssr:stedsnr" v="499865" />
	</node>
	<node id="-899665" lat="64.0601861104" lon="11.1176972121">
		<tag k="name" v="Merkestjønna" />
		<tag k="natural" v="water" />
		<tag k="ssr:stedsnr" v="654698" />
	</node>
	<node id="-899659" lat="63.9827250023" lon="10.8661583384">
		<tag k="name" v="Straumen" />
		<tag k="ssr:stedsnr" v="472102" />
		<tag k="waterway" v="rapids" />
	</node>
	<node id="-899652" lat="64.0697583365" lon="11.0653416609">
		<tag k="name" v="Breitjønna" />
		<tag k="natural" v="water" />
		<tag k="ssr:stedsnr" v="742518" />
	</node>
	<node id="-899644" lat="64.0092083325" lon="10.7888972308">
		<tag k="name" v="Dreielva" />
		<tag k="ssr:stedsnr" v="108182" />
		<tag k="waterway" v="river" />
	</node>
	<node id="-899641" lat="64.009616671" lon="10.8253277786">
		<tag k="name" v="Måggåtjønnbekken" />
		<tag k="ssr:stedsnr" v="776134" />
		<tag k="waterway" v="stream" />
	</node>
	<node id="-899634" lat="63.9909027797" lon="10.9150083379">
		<tag k="name" v="Bordvika" />
		<tag k="natural" v="bay" />
		<tag k="ssr:stedsnr" v="290085" />
	</node>
	<node id="-899632" lat="63.9307555552" lon="10.8126027829">
		<tag k="name" v="Lyvasselva" />
		<tag k="ssr:stedsnr" v="776155" />
		<tag k="waterway" v="river" />
	</node>
	<node id="-899629" lat="64.0297305578" lon="10.9210083289">
		<tag k="name" v="Grunntjønnbekken" />
		<tag k="ssr:stedsnr" v="317995" />
		<tag k="waterway" v="stream" />
	</node>
	<node id="-899627" lat="64.0777111104" lon="11.1377444482">
		<tag k="name" v="Lomtjønna" />
		<tag k="natural" v="water" />
		<tag k="ssr:stedsnr" v="654717" />
	</node>
	<node id="-899619" lat="64.0261333323" lon="11.1857083345">
		<tag k="name" v="Øvertjønna" />
		<tag k="natural" v="water" />
		<tag k="ssr:stedsnr" v="317994" />
	</node>
	<node id="-899618" lat="64.0151111137" lon="10.9801194517">
		<tag k="name" v="Svarttjønna" />
		<tag k="natural" v="water" />
		<tag k="ssr:stedsnr" v="472087" />
	</node>
	<node id="-899612" lat="64.015208332" lon="10.8809888868">
		<tag k="name" v="Vargtjønna" />
		<tag k="natural" v="water" />
		<tag k="ssr:stedsnr" v="411119" />
	</node>
	<node id="-899611" lat="63.8108638928" lon="10.5489777787">
		<tag k="name" v="Kjerringtjønna" />
		<tag k="natural" v="water" />
		<tag k="ssr:stedsnr" v="802499" />
	</node>
	<node id="-899610" lat="64.0523444467" lon="10.8091527812">
		<tag k="alt_name" v="Reinsjøen, nordre" />
		<tag k="name" v="Nordre Reinsjøen" />
		<tag k="natural" v="water" />
		<tag k="ssr:stedsnr" v="377964" />
		<tag k="water" v="lake" />
	</node>
	<node id="-899609" lat="64.0982194431" lon="10.9719499997">
		<tag k="name" v="Søresplingen" />
		<tag k="natural" v="water" />
		<tag k="ssr:stedsnr" v="317465" />
	</node>
	<node id="-899606" lat="64.0891972264" lon="10.9715805572">
		<tag k="name" v="Svinvågen" />
		<tag k="natural" v="bay" />
		<tag k="ssr:stedsnr" v="776539" />
	</node>
	<node id="-899600" lat="64.0003999987" lon="10.9468472119">
		<tag k="name" v="Gåtvasslielva" />
		<tag k="ssr:stedsnr" v="560891" />
		<tag k="waterway" v="stream" />
	</node>
	<node id="-899598" lat="64.1180027814" lon="11.0822138935">
		<tag k="name" v="Nilsengtangen" />
		<tag k="natural" v="cape" />
		<tag k="ssr:stedsnr" v="48523" />
	</node>
	<node id="-899583" lat="63.8390583366" lon="10.6185361025">
		<tag k="alt_name" v="Raudtindelva" />
		<tag k="name" v="Raudtinnelva" />
		<tag k="ssr:stedsnr" v="271066" />
		<tag k="waterway" v="river" />
	</node>
	<node id="-899582" lat="64.1072499958" lon="11.2027472129">
		<tag k="name" v="Saugestadbekken" />
		<tag k="ssr:stedsnr" v="402795" />
		<tag k="waterway" v="stream" />
	</node>
	<node id="-899578" lat="64.0901388915" lon="10.9485638932">
		<tag k="name" v="Torsbukta" />
		<tag k="natural" v="bay" />
		<tag k="ssr:stedsnr" v="48515" />
	</node>
	<node id="-899577" lat="64.0739000022" lon="10.9445138827">
		<tag k="name" v="Holden" />
		<tag k="natural" v="water" />
		<tag k="ssr:stedsnr" v="135523" />
		<tag k="water" v="lake" />
	</node>
	<node id="-899566" lat="64.0750444438" lon="11.0949166765">
		<tag k="name" v="Finntjønna" />
		<tag k="natural" v="water" />
		<tag k="ssr:stedsnr" v="742505" />
	</node>
	<node id="-899560" lat="64.0160444453" lon="10.7703166756">
		<tag k="name" v="Kastbotnen" />
		<tag k="natural" v="water" />
		<tag k="ssr:stedsnr" v="620967" />
	</node>
	<node id="-899558" lat="64.0521138917" lon="11.0313000026">
		<tag k="name" v="Pissbekkbukta" />
		<tag k="natural" v="bay" />
		<tag k="ssr:stedsnr" v="715752" />
	</node>
	<node id="-899552" lat="63.880583337" lon="10.7343777832">
		<tag k="name" v="Reinstjønna" />
		<tag k="natural" v="water" />
		<tag k="ssr:stedsnr" v="135525" />
	</node>
	<node id="-899547" lat="64.0821500025" lon="11.1626527733">
		<tag k="name" v="Lomtjønna" />
		<tag k="natural" v="water" />
		<tag k="ssr:stedsnr" v="135520" />
	</node>
	<node id="-899546" lat="64.1259833319" lon="11.1591166596">
		<tag k="name" v="Holmvikbekken" />
		<tag k="ssr:stedsnr" v="898567" />
		<tag k="waterway" v="stream" />
	</node>
	<node id="-899541" lat="64.0979222202" lon="11.1346833396">
		<tag k="name" v="Andtjønna" />
		<tag k="natural" v="water" />
		<tag k="ssr:stedsnr" v="48511" />
	</node>
	<node id="-899536" lat="64.028613891" lon="10.7870194416">
		<tag k="name" v="Skamnavatnet" />
		<tag k="natural" v="water" />
		<tag k="ssr:stedsnr" v="317989" />
	</node>
	<node id="-899521" lat="64.064824999" lon="11.0312333285">
		<tag k="name" v="Holdtangen" />
		<tag k="natural" v="cape" />
		<tag k="ssr:stedsnr" v="75590" />
	</node>
	<node id="-899516" lat="64.1302527797" lon="11.071313897">
		<tag k="name" v="Rundhaugvatnet" />
		<tag k="natural" v="water" />
		<tag k="ssr:stedsnr" v="196569" />
	</node>
	<node id="-899513" lat="64.0041333332" lon="10.8008611058">
		<tag k="name" v="Sjurbukta" />
		<tag k="natural" v="bay" />
		<tag k="ssr:stedsnr" v="776131" />
	</node>
	<node id="-899511" lat="63.9456944478" lon="10.7526083399">
		<tag k="name" v="Svarttjønna" />
		<tag k="natural" v="water" />
		<tag k="ssr:stedsnr" v="499556" />
	</node>
	<node id="-899510" lat="63.8990944467" lon="10.7901277745">
		<tag k="name" v="Stamtjønnin" />
		<tag k="natural" v="water" />
		<tag k="ssr:stedsnr" v="74510" />
	</node>
	<node id="-899506" lat="64.0014527789" lon="10.8441666671">
		<tag k="name" v="Nerbybekkvatnet" />
		<tag k="natural" v="water" />
		<tag k="ssr:stedsnr" v="864893" />
	</node>
	<node id="-899505" lat="64.1127194477" lon="11.1135000075">
		<tag k="name" v="Finnkoibekken" />
		<tag k="ssr:stedsnr" v="48505" />
		<tag k="waterway" v="stream" />
	</node>
	<node id="-899498" lat="63.7884999981" lon="10.510616663">
		<tag k="name" v="Rolsbekken" />
		<tag k="ssr:stedsnr" v="149005" />
		<tag k="waterway" v="stream" />
	</node>
	<node id="-899496" lat="63.8925111119" lon="10.7485972199">
		<tag k="name" v="Småtjønnin" />
		<tag k="natural" v="water" />
		<tag k="ssr:stedsnr" v="803556" />
	</node>
	<node id="-899493" lat="64.0348666711" lon="10.9345694365">
		<tag k="name" v="Grunntjønna" />
		<tag k="natural" v="water" />
		<tag k="ssr:stedsnr" v="14999" />
	</node>
	<node id="-899486" lat="64.0415527786" lon="10.9074611145">
		<tag k="name" v="Hyllvatnet" />
		<tag k="natural" v="water" />
		<tag k="ssr:stedsnr" v="377946" />
	</node>
	<node id="-899484" lat="63.815180556" lon="10.5161027771">
		<tag k="name" v="Augvatnet" />
		<tag k="natural" v="water" />
		<tag k="ssr:stedsnr" v="377429" />
		<tag k="water" v="lake" />
	</node>
	<node id="-899483" lat="64.1370249958" lon="11.103141665">
		<tag k="name" v="Gåslona" />
		<tag k="place" v="locality" />
		<tag k="ssr:stedsnr" v="196572" />
	</node>
	<node id="-899479" lat="64.0955555521" lon="11.2693888785">
		<tag k="name" v="Landsemvatnet" />
		<tag k="natural" v="water" />
		<tag k="ssr:stedsnr" v="265202" />
		<tag k="water" v="lake" />
	</node>
	<node id="-899471" lat="64.0271277817" lon="10.9006027727">
		<tag k="name" v="Sandvatna" />
		<tag k="natural" v="water" />
		<tag k="ssr:stedsnr" v="317984" />
		<tag k="water" v="lake" />
	</node>
	<node id="-899469" lat="64.0767305597" lon="11.1942277743">
		<tag k="name" v="Koltjønna" />
		<tag k="natural" v="water" />
		<tag k="ssr:stedsnr" v="742508" />
	</node>
	<node id="-899468" lat="63.7775444482" lon="10.4965499948">
		<tag k="name" v="Tangstadelva" />
		<tag k="ssr:stedsnr" v="756007" />
		<tag k="waterway" v="river" />
	</node>
	<node id="-899467" lat="63.8823222205" lon="10.7488888904">
		<tag k="name" v="Rørtjønnelva" />
		<tag k="ssr:stedsnr" v="453105" />
		<tag k="waterway" v="river" />
	</node>
	<node id="-899464" lat="64.0623416704" lon="10.8814166718">
		<tag k="name" v="Reinsjøbukta" />
		<tag k="natural" v="bay" />
		<tag k="ssr:stedsnr" v="75583" />
	</node>
	<node id="-899462" lat="63.7928194481" lon="10.4875500015">
		<tag k="name" v="Feitauretjønna" />
		<tag k="natural" v="water" />
		<tag k="ssr:stedsnr" v="756002" />
	</node>
	<node id="-899451" lat="64.092730556" lon="11.1515111202">
		<tag k="name" v="Måggåtjønnbekken" />
		<tag k="ssr:stedsnr" v="14454" />
		<tag k="waterway" v="stream" />
	</node>
	<node id="-899445" lat="64.0085444437" lon="10.9601472187">
		<tag k="name" v="Litlkjåppån" />
		<tag k="natural" v="water" />
		<tag k="ssr:stedsnr" v="411083" />
	</node>
	<node id="-899438" lat="64.0902472238" lon="10.8417111039">
		<tag k="name" v="Torsvassbekken" />
		<tag k="ssr:stedsnr" v="14451" />
		<tag k="waterway" v="stream" />
	</node>
	<node id="-899436" lat="63.9167638848" lon="10.8463000045">
		<tag k="name" v="Langdalsbekken" />
		<tag k="ssr:stedsnr" v="817085" />
		<tag k="waterway" v="stream" />
	</node>
	<node id="-899427" lat="63.7994777801" lon="10.5258972268">
		<tag k="name" v="Litltjønna" />
		<tag k="natural" v="water" />
		<tag k="ssr:stedsnr" v="681455" />
	</node>
	<node id="-899423" lat="63.904911113" lon="10.8835638866">
		<tag k="name" v="Litltjønna" />
		<tag k="natural" v="water" />
		<tag k="ssr:stedsnr" v="803523" />
	</node>
	<node id="-899419" lat="64.1150083316" lon="10.986366676">
		<tag k="name" v="Nordesplingtjønna" />
		<tag k="natural" v="water" />
		<tag k="ssr:stedsnr" v="317444" />
	</node>
	<node id="-899414" lat="64.0596833296" lon="11.0881472122">
		<tag k="name" v="Ramstjønna" />
		<tag k="natural" v="water" />
		<tag k="ssr:stedsnr" v="864603" />
	</node>
	<node id="-899412" lat="63.9149750017" lon="10.8210305589">
		<tag k="name" v="Sørenvatnet" />
		<tag k="natural" v="water" />
		<tag k="ssr:stedsnr" v="135506" />
	</node>
	<node id="-899405" lat="64.0974527809" lon="11.0180333276">
		<tag k="name" v="Finndalstjønna" />
		<tag k="natural" v="water" />
		<tag k="ssr:stedsnr" v="14446" />
	</node>
	<node id="-899396" lat="63.9757305519" lon="10.854261109">
		<tag k="name" v="Agnettjønna" />
		<tag k="natural" v="water" />
		<tag k="ssr:stedsnr" v="169137" />
	</node>
	<node id="-899388" lat="64.0144083335" lon="10.9593249997">
		<tag k="name" v="Nysetertjønna" />
		<tag k="natural" v="water" />
		<tag k="ssr:stedsnr" v="620957" />
	</node>
	<node id="-899386" lat="64.0164833322" lon="10.8963527735">
		<tag k="name" v="Vargtjønna" />
		<tag k="natural" v="water" />
		<tag k="ssr:stedsnr" v="776103" />
	</node>
	<node id="-899385" lat="63.9986111133" lon="10.8355666709">
		<tag k="name" v="Vertjønna" />
		<tag k="natural" v="water" />
		<tag k="ssr:stedsnr" v="533114" />
	</node>
	<node id="-899377" lat="64.0940694415" lon="11.1912444407">
		<tag k="name" v="Lønnengbekken" />
		<tag k="ssr:stedsnr" v="803533" />
		<tag k="waterway" v="stream" />
	</node>
	<node id="-899375" lat="63.7605833337" lon="10.4800305559">
		<tag k="name" v="Lauparbekken" />
		<tag k="ssr:stedsnr" v="271019" />
		<tag k="waterway" v="stream" />
	</node>
	<node id="-899372" lat="63.9464861106" lon="10.7680694397">
		<tag k="name" v="Igltjønna" />
		<tag k="natural" v="water" />
		<tag k="ssr:stedsnr" v="404294" />
	</node>
	<node id="-899367" lat="63.8900527738" lon="10.7875777812">
		<tag k="name" v="Kvennabekken" />
		<tag k="ssr:stedsnr" v="817089" />
		<tag k="waterway" v="stream" />
	</node>
	<node id="-899366" lat="64.0486916682" lon="10.8233805588">
		<tag k="alt_name" v="Reinsjøen, austre" />
		<tag k="name" v="Austre Reinsjøen" />
		<tag k="natural" v="water" />
		<tag k="ssr:stedsnr" v="802980" />
		<tag k="water" v="lake" />
	</node>
	<node id="-899362" lat="63.9953444406" lon="10.81083055">
		<tag k="name" v="Sagbukta" />
		<tag k="natural" v="bay" />
		<tag k="ssr:stedsnr" v="533119" />
	</node>
	<node id="-899360" lat="64.0626222237" lon="10.8862111073">
		<tag k="name" v="Stuvågen" />
		<tag k="natural" v="bay" />
		<tag k="ssr:stedsnr" v="439543" />
	</node>
	<node id="-899353" lat="63.9887388914" lon="10.8521361197">
		<tag k="name" v="Otertangen" />
		<tag k="natural" v="cape" />
		<tag k="ssr:stedsnr" v="108117" />
	</node>
	<node id="-899341" lat="63.7728499983" lon="10.5343222222">
		<tag k="name" v="Grønskardammen" />
		<tag k="natural" v="water" />
		<tag k="ssr:stedsnr" v="169128" />
		<tag k="water" v="pond" />
	</node>
	<node id="-899338" lat="64.0361111154" lon="11.1606166639">
		<tag k="name" v="Øver Gaukstjønna" />
		<tag k="natural" v="water" />
		<tag k="ssr:stedsnr" v="716483" />
	</node>
	<node id="-899334" lat="63.8682805543" lon="10.7699638972">
		<tag k="name" v="Svartbekken" />
		<tag k="ssr:stedsnr" v="378765" />
		<tag k="waterway" v="stream" />
	</node>
	<node id="-899328" lat="64.0235472212" lon="11.1289249986">
		<tag k="name" v="Lomtjønna" />
		<tag k="natural" v="water" />
		<tag k="ssr:stedsnr" v="74748" />
	</node>
	<node id="-899323" lat="64.0192861076" lon="11.0709833311">
		<tag k="name" v="Malbubekken" />
		<tag k="ssr:stedsnr" v="742992" />
		<tag k="waterway" v="stream" />
	</node>
	<node id="-899322" lat="64.0210111154" lon="10.9820361018">
		<tag k="name" v="Lauvholbekken" />
		<tag k="ssr:stedsnr" v="836020" />
		<tag k="waterway" v="stream" />
	</node>
	<node id="-899321" lat="63.9405999999" lon="10.9739722198">
		<tag k="name" v="Svartdalsbekken" />
		<tag k="ssr:stedsnr" v="453071" />
		<tag k="waterway" v="stream" />
	</node>
	<node id="-899318" lat="63.7775944478" lon="10.5551888813">
		<tag k="name" v="Farkbekken" />
		<tag k="ssr:stedsnr" v="620396" />
		<tag k="waterway" v="stream" />
	</node>
	<node id="-899317" lat="64.0205638871" lon="10.9911722128">
		<tag k="name" v="Finntjønnbekken" />
		<tag k="ssr:stedsnr" v="836021" />
		<tag k="waterway" v="stream" />
	</node>
	<node id="-899315" lat="64.0471138923" lon="11.0044777685">
		<tag k="name" v="Pissbekken" />
		<tag k="ssr:stedsnr" v="317955" />
		<tag k="waterway" v="stream" />
	</node>
	<node id="-899314" lat="63.8529805541" lon="10.5765805509">
		<tag k="name" v="Bogatjønna" />
		<tag k="natural" v="water" />
		<tag k="ssr:stedsnr" v="863257" />
	</node>
	<node id="-899313" lat="63.9193611157" lon="10.7170722147">
		<tag k="name" v="Øvre Trevatnet" />
		<tag k="natural" v="water" />
		<tag k="ssr:stedsnr" v="13363" />
		<tag k="water" v="lake" />
	</node>
	<node id="-899301" lat="64.0947388895" lon="10.8716416636">
		<tag k="name" v="Litltorsvatnet" />
		<tag k="natural" v="water" />
		<tag k="ssr:stedsnr" v="803519" />
	</node>
	<node id="-899291" lat="64.0004611105" lon="10.9552555601">
		<tag k="name" v="Flatangerbekken" />
		<tag k="ssr:stedsnr" v="351082" />
		<tag k="waterway" v="stream" />
	</node>
	<node id="-899289" lat="64.1016611103" lon="11.1424499964">
		<tag k="name" v="Måggåtjønna" />
		<tag k="natural" v="water" />
		<tag k="ssr:stedsnr" v="559504" />
	</node>
</osm>
