<?xml version="1.0" encoding="UTF-8"?>
<osm generator="osmapis" version="0.6">
	<node id="-899805" lat="63.7783583322" lon="10.4912638903">
		<tag k="name" v="Seterbakken" />
		<tag k="place" v="locality" />
		<tag k="ssr:stedsnr" v="696013" />
	</node>
	<node id="-900474" lat="63.7835527773" lon="10.5127638817">
		<tag k="name" v="Ner-Rolsliseteren" />
		<tag k="place" v="locality" />
		<tag k="ssr:stedsnr" v="574009" />
	</node>
	<node id="-899538" lat="63.8018911395" lon="10.5812078908">
		<tag k="amenity" v="place_of_worship" />
		<tag k="denomination" v="lutheran" />
		<tag k="loc_name" v="Fines kapel" />
		<tag k="name" v="Fines kirke" />
		<tag k="religion" v="christian" />
		<tag k="ssr:stedsnr" v="377441" />
	</node>
	<node id="-899501" lat="63.7858500016" lon="10.5117305623">
		<tag k="name" v="Ã˜ver-Rolsliseteren" />
		<tag k="place" v="locality" />
		<tag k="ssr:stedsnr" v="149004" />
	</node>
	<node id="-900458" lat="64.0695333341" lon="11.2181000063">
		<tag k="amenity" v="place_of_worship" />
		<tag k="denomination" v="lutheran" />
		<tag k="name" v="Malm kirke" />
		<tag k="religion" v="christian" />
		<tag k="ssr:stedsnr" v="25466" />
	</node>
	<node id="-899943" lat="63.9854166701" lon="11.1136583295">
		<tag k="amenity" v="place_of_worship" />
		<tag k="denomination" v="lutheran" />
		<tag k="name" v="Follafoss kirke" />
		<tag k="religion" v="christian" />
		<tag k="ssr:stedsnr" v="766682" />
	</node>
	<node id="-899874" lat="64.0062777736" lon="10.7946361014">
		<tag k="amenity" v="place_of_worship" />
		<tag k="denomination" v="lutheran" />
		<tag k="name" v="Sela" />
		<tag k="religion" v="christian" />
		<tag k="ssr:stedsnr" v="935543" />
	</node>
</osm>
