<?xml version="1.0" encoding="UTF-8"?>
<osm generator="osmapis" version="0.6">
	<node id="-127483" lat="61.2047083362" lon="10.4862777735">
		<tag k="name" v="Stormyra" />
		<tag k="natural" v="wetland" />
		<tag k="ssr:stedsnr" v="189906" />
	</node>
	<node id="-126966" lat="61.3374999963" lon="10.680680557">
		<tag k="name" v="Veiddhavna" />
		<tag k="place" v="locality" />
		<tag k="ssr:stedsnr" v="284171" />
	</node>
	<node id="-127474" lat="61.3555722189" lon="10.2226527741">
		<tag k="name" v="Torsteinsmyra" />
		<tag k="natural" v="wetland" />
		<tag k="ssr:stedsnr" v="179808" />
	</node>
	<node id="-127470" lat="61.3489888851" lon="10.5815388864">
		<tag k="name" v="Slåsbergmyra" />
		<tag k="natural" v="wetland" />
		<tag k="ssr:stedsnr" v="179421" />
	</node>
	<node id="-127469" lat="61.2936083331" lon="10.3751333348">
		<tag k="name" v="Hesthågån" />
		<tag k="place" v="locality" />
		<tag k="ssr:stedsnr" v="170590" />
	</node>
	<node id="-126956" lat="61.3120027785" lon="10.4480083393">
		<tag k="name" v="Torvmyra" />
		<tag k="natural" v="wetland" />
		<tag k="ssr:stedsnr" v="282763" />
	</node>
	<node id="-127973" lat="61.3549527794" lon="10.2156138933">
		<tag k="name" v="Hundrelassmyra" />
		<tag k="natural" v="wetland" />
		<tag k="ssr:stedsnr" v="664836" />
	</node>
	<node id="-127460" lat="61.2946083303" lon="10.3241861123">
		<tag k="landuse" v="quarry" />
		<tag k="name" v="Steinberget" />
		<tag k="ssr:stedsnr" v="162511" />
	</node>
	<node id="-127970" lat="61.2961027764" lon="10.3919861034">
		<tag k="name" v="Hjelldekken" />
		<tag k="place" v="locality" />
		<tag k="ssr:stedsnr" v="655588" />
	</node>
	<node id="-127456" lat="61.3353944446" lon="10.4587527703">
		<tag k="name" v="Langmyra" />
		<tag k="natural" v="wetland" />
		<tag k="ssr:stedsnr" v="162253" />
	</node>
	<node id="-126936" lat="61.2641388854" lon="10.54691111">
		<tag k="name" v="Lisåsan" />
		<tag k="place" v="locality" />
		<tag k="ssr:stedsnr" v="282297" />
	</node>
	<node id="-127446" lat="61.3081222249" lon="10.3746111082">
		<tag k="name" v="Torvmyra" />
		<tag k="natural" v="wetland" />
		<tag k="ssr:stedsnr" v="160761" />
	</node>
	<node id="-127445" lat="61.3007527791" lon="10.3726666636">
		<tag k="name" v="Akselmyra" />
		<tag k="natural" v="wetland" />
		<tag k="ssr:stedsnr" v="160756" />
	</node>
	<node id="-127438" lat="61.1966944485" lon="10.4972888809">
		<tag k="name" v="Nedre Lemyra" />
		<tag k="natural" v="wetland" />
		<tag k="ssr:stedsnr" v="160296" />
	</node>
	<node id="-127944" lat="61.2780305559" lon="10.4931194433">
		<tag k="name" v="Grønslålyua" />
		<tag k="place" v="locality" />
		<tag k="ssr:stedsnr" v="645680" />
	</node>
	<node id="-127937" lat="61.2872638889" lon="10.4216388841">
		<tag k="name" v="Haugalykkja" />
		<tag k="place" v="locality" />
		<tag k="ssr:stedsnr" v="645510" />
	</node>
	<node id="-127422" lat="61.2632861103" lon="10.5150388974">
		<tag k="alt_name" v="Raumyra" />
		<tag k="name" v="Raudmyra" />
		<tag k="natural" v="wetland" />
		<tag k="ssr:stedsnr" v="129478" />
	</node>
	<node id="-127933" lat="61.2294444417" lon="10.5075444523">
		<tag k="name" v="Hestmyra" />
		<tag k="natural" v="wetland" />
		<tag k="ssr:stedsnr" v="645311" />
	</node>
	<node id="-127418" lat="61.3897388847" lon="10.5005444492">
		<tag k="name" v="Vargøymyra" />
		<tag k="natural" v="wetland" />
		<tag k="ssr:stedsnr" v="129308" />
	</node>
	<node id="-127916" lat="61.31238611" lon="10.4977611172">
		<tag k="alt_name" v="Grøtåsmyra" />
		<tag k="name" v="Grøtåsmyrane" />
		<tag k="natural" v="wetland" />
		<tag k="ssr:stedsnr" v="615244" />
	</node>
	<node id="-127402" lat="61.4081111121" lon="10.5246194472">
		<tag k="name" v="Torvmyra" />
		<tag k="natural" v="wetland" />
		<tag k="ssr:stedsnr" v="118962" />
	</node>
	<node id="-127395" lat="61.3546416671" lon="10.5435805485">
		<tag k="name" v="Storstein" />
		<tag k="natural" v="stone" />
		<tag k="ssr:stedsnr" v="118390" />
	</node>
	<node id="-127390" lat="61.3286000011" lon="10.2639027784">
		<tag k="name" v="Skålan" />
		<tag k="place" v="locality" />
		<tag k="ssr:stedsnr" v="102898" />
	</node>
	<node id="-127388" lat="61.1918861093" lon="10.4245027686">
		<tag k="landuse" v="meadow" />
		<tag k="name" v="Bakksvea" />
		<tag k="ssr:stedsnr" v="102627" />
	</node>
	<node id="-127382" lat="61.2580166684" lon="10.4440694421">
		<tag k="name" v="Skei" />
		<tag k="place" v="locality" />
		<tag k="ssr:stedsnr" v="102270" />
	</node>
	<node id="-126958" lat="61.3531111081" lon="10.333650003">
		<tag k="name" v="Brånåmyra" />
		<tag k="natural" v="wetland" />
		<tag k="ssr:stedsnr" v="282856" />
	</node>
	<node id="-127885" lat="61.3113527784" lon="10.2618444387">
		<tag k="name" v="Brånån" />
		<tag k="place" v="locality" />
		<tag k="ssr:stedsnr" v="603516" />
	</node>
	<node id="-127042" lat="61.3525972186" lon="10.4695555551">
		<tag k="name" v="Høgmyra" />
		<tag k="natural" v="wetland" />
		<tag k="ssr:stedsnr" v="344274" />
	</node>
	<node id="-127882" lat="61.3315833328" lon="10.4847361066">
		<tag k="name" v="Trollmyra" />
		<tag k="natural" v="wetland" />
		<tag k="ssr:stedsnr" v="603394" />
	</node>
	<node id="-127879" lat="61.2639805528" lon="10.3297583358">
		<tag k="name" v="Kneppmyra" />
		<tag k="natural" v="wetland" />
		<tag k="ssr:stedsnr" v="600034" />
	</node>
	<node id="-127878" lat="61.2934888891" lon="10.458633335">
		<tag k="name" v="Tangmyra" />
		<tag k="natural" v="wetland" />
		<tag k="ssr:stedsnr" v="595508" />
	</node>
	<node id="-128385" lat="61.2809249963" lon="10.464805556">
		<tag k="name" v="Rundslåtten" />
		<tag k="place" v="locality" />
		<tag k="ssr:stedsnr" v="959501" />
	</node>
	<node id="-127356" lat="61.3555222213" lon="10.4455499989">
		<tag k="name" v="Kattsteinen" />
		<tag k="natural" v="stone" />
		<tag k="ssr:stedsnr" v="99707" />
	</node>
	<node id="-127354" lat="61.3090027794" lon="10.5769111113">
		<tag k="name" v="Lykkebotmyra" />
		<tag k="natural" v="wetland" />
		<tag k="ssr:stedsnr" v="99561" />
	</node>
	<node id="-127864" lat="61.2893250036" lon="10.2554555465">
		<tag k="landuse" v="quarry" />
		<tag k="name" v="Holoberget" />
		<tag k="ssr:stedsnr" v="587429" />
	</node>
	<node id="-127862" lat="61.3704916697" lon="10.3402083373">
		<tag k="name" v="Bjørkebrua" />
		<tag k="place" v="locality" />
		<tag k="ssr:stedsnr" v="587341" />
	</node>
	<node id="-127861" lat="61.3808527766" lon="10.3208888856">
		<tag k="name" v="Lappahushølet" />
		<tag k="natural" v="wetland" />
		<tag k="ssr:stedsnr" v="587334" />
	</node>
	<node id="-128372" lat="61.3758666644" lon="10.3422916669">
		<tag k="name" v="Langkloppmyra" />
		<tag k="natural" v="wetland" />
		<tag k="ssr:stedsnr" v="951296" />
	</node>
	<node id="-127550" lat="61.3701722194" lon="10.3951666686">
		<tag k="name" v="Ståkåmyra" />
		<tag k="natural" v="wetland" />
		<tag k="ssr:stedsnr" v="223004" />
	</node>
	<node id="-127344" lat="61.3678361092" lon="10.2258611199">
		<tag k="name" v="Hesjamyra" />
		<tag k="natural" v="wetland" />
		<tag k="ssr:stedsnr" v="84838" />
	</node>
	<node id="-127854" lat="61.3198805543" lon="10.6873027806">
		<tag k="name" v="Langmyra" />
		<tag k="natural" v="wetland" />
		<tag k="ssr:stedsnr" v="586158" />
	</node>
	<node id="-128061" lat="61.2901361149" lon="10.4541861133">
		<tag k="name" v="Tangen" />
		<tag k="natural" v="beach" />
		<tag k="ssr:stedsnr" v="716531" />
		<tag k="surface" v="sand" />
	</node>
	<node id="-128363" lat="61.3688611102" lon="10.445958342">
		<tag k="name" v="Svarthaugmyra" />
		<tag k="natural" v="wetland" />
		<tag k="ssr:stedsnr" v="951065" />
	</node>
	<node id="-127846" lat="61.221458331" lon="10.5950222169">
		<tag k="name" v="Kjellsmyrene" />
		<tag k="natural" v="wetland" />
		<tag k="ssr:stedsnr" v="585286" />
	</node>
	<node id="-127845" lat="61.2229888892" lon="10.5165833407">
		<tag k="name" v="Lunnstadmyra" />
		<tag k="natural" v="wetland" />
		<tag k="ssr:stedsnr" v="585285" />
	</node>
	<node id="-127930" lat="61.2139499973" lon="10.5032111127">
		<tag k="name" v="Torvmyra" />
		<tag k="natural" v="wetland" />
		<tag k="ssr:stedsnr" v="645299" />
	</node>
	<node id="-127840" lat="61.2989083336" lon="10.4533416648">
		<tag k="name" v="Geitbergmyra" />
		<tag k="natural" v="wetland" />
		<tag k="ssr:stedsnr" v="584805" />
	</node>
	<node id="-128345" lat="61.2189583293" lon="10.4984944428">
		<tag k="landuse" v="quarry" />
		<tag k="name" v="Sandstulgruva" />
		<tag k="ssr:stedsnr" v="949292" />
	</node>
	<node id="-128343" lat="61.3753722189" lon="10.5603027838">
		<tag k="landuse" v="meadow" />
		<tag k="name" v="Gillebuslæen" />
		<tag k="ssr:stedsnr" v="949262" />
	</node>
	<node id="-128341" lat="61.3325388929" lon="10.4318027712">
		<tag k="name" v="Storstein" />
		<tag k="natural" v="stone" />
		<tag k="ssr:stedsnr" v="944738" />
	</node>
	<node id="-127819" lat="61.3656694407" lon="10.489533332">
		<tag k="loc_name" v="Gumpa" />
		<tag k="name" v="Gompa" />
		<tag k="natural" v="wetland" />
		<tag k="ssr:stedsnr" v="554331" />
	</node>
	<node id="-127289" lat="61.2548861154" lon="10.437961108">
		<tag k="landuse" v="quarry" />
		<tag k="name" v="Jevnegruva" />
		<tag k="ssr:stedsnr" v="41209" />
	</node>
	<node id="-128312" lat="61.2883166701" lon="10.5441277822">
		<tag k="name" v="Bottrudmyra" />
		<tag k="natural" v="wetland" />
		<tag k="ssr:stedsnr" v="918305" />
	</node>
	<node id="-127283" lat="61.2113777766" lon="10.4510166704">
		<tag k="name" v="Kråkroa" />
		<tag k="place" v="locality" />
		<tag k="ssr:stedsnr" v="40617" />
	</node>
	<node id="-128302" lat="61.2953527773" lon="10.2327000048">
		<tag k="name" v="Hongsinnlegginga" />
		<tag k="place" v="locality" />
		<tag k="ssr:stedsnr" v="907869" />
	</node>
	<node id="-128300" lat="61.3345888929" lon="10.220825009">
		<tag k="name" v="Åsan" />
		<tag k="place" v="locality" />
		<tag k="ssr:stedsnr" v="907819" />
	</node>
	<node id="-127787" lat="61.1886472217" lon="10.4226083399">
		<tag k="name" v="Svenskerud" />
		<tag k="place" v="locality" />
		<tag k="ssr:stedsnr" v="526525" />
	</node>
	<node id="-127783" lat="61.3727722221" lon="10.3163555609">
		<tag k="name" v="Korsbekkmyra" />
		<tag k="natural" v="wetland" />
		<tag k="ssr:stedsnr" v="526300" />
	</node>
	<node id="-127782" lat="61.3500583372" lon="10.4501027847">
		<tag k="name" v="Gravåskjørka" />
		<tag k="natural" v="stone" />
		<tag k="ssr:stedsnr" v="526256" />
	</node>
	<node id="-127770" lat="61.2655944454" lon="10.4839888887">
		<tag k="name" v="Furtholoa" />
		<tag k="natural" v="wetland" />
		<tag k="ssr:stedsnr" v="524806" />
	</node>
	<node id="-127769" lat="61.2450916656" lon="10.7243138835">
		<tag k="name" v="Holman" />
		<tag k="place" v="locality" />
		<tag k="ssr:stedsnr" v="524741" />
	</node>
	<node id="-127767" lat="61.2629972189" lon="10.7340777796">
		<tag k="name" v="Blekkmyra" />
		<tag k="natural" v="wetland" />
		<tag k="ssr:stedsnr" v="524736" />
	</node>
	<node id="-127766" lat="61.2950055545" lon="10.4885333271">
		<tag k="landuse" v="peat_cutting" />
		<tag k="name" v="Torvhusa" />
		<tag k="ssr:stedsnr" v="524660" />
	</node>
	<node id="-127765" lat="61.2867527766" lon="10.4879000021">
		<tag k="name" v="Malmyra" />
		<tag k="natural" v="wetland" />
		<tag k="ssr:stedsnr" v="524656" />
	</node>
	<node id="-127754" lat="61.2809583315" lon="10.4565972282">
		<tag k="name" v="Nordjordsmyra" />
		<tag k="natural" v="wetland" />
		<tag k="ssr:stedsnr" v="524461" />
	</node>
	<node id="-127241" lat="61.292175002" lon="10.7295388895">
		<tag k="name" v="Gravmyra" />
		<tag k="natural" v="wetland" />
		<tag k="ssr:stedsnr" v="8414" />
	</node>
	<node id="-127458" lat="61.3652944469" lon="10.3562416733">
		<tag k="name" v="Stormyra" />
		<tag k="natural" v="wetland" />
		<tag k="ssr:stedsnr" v="162318" />
	</node>
	<node id="-127747" lat="61.3615583344" lon="10.4960888955">
		<tag k="landuse" v="meadow" />
		<tag k="name" v="Lånkeslåttan" />
		<tag k="ssr:stedsnr" v="524276" />
	</node>
	<node id="-127746" lat="61.3664944434" lon="10.2592388927">
		<tag k="name" v="Kapelrudmoen" />
		<tag k="place" v="locality" />
		<tag k="ssr:stedsnr" v="524260" />
	</node>
	<node id="-128253" lat="61.3071749977" lon="10.2861555556">
		<tag k="name" v="Vassrudmoen" />
		<tag k="place" v="locality" />
		<tag k="ssr:stedsnr" v="847535" />
	</node>
	<node id="-128248" lat="61.2921111129" lon="10.4692472262">
		<tag k="name" v="Millersmyra" />
		<tag k="natural" v="wetland" />
		<tag k="ssr:stedsnr" v="838560" />
	</node>
	<node id="-128231" lat="61.364655557" lon="10.3330194518">
		<tag k="name" v="Vollen" />
		<tag k="place" v="locality" />
		<tag k="ssr:stedsnr" v="830293" />
	</node>
	<node id="-127526" lat="61.2205527746" lon="10.5175472128">
		<tag k="name" v="Rugga" />
		<tag k="natural" v="stone" />
		<tag k="ssr:stedsnr" v="221302" />
	</node>
	<node id="-128224" lat="61.3039750031" lon="10.3852027843">
		<tag k="name" v="Kloppmyra" />
		<tag k="natural" v="wetland" />
		<tag k="ssr:stedsnr" v="828752" />
	</node>
	<node id="-128218" lat="61.2529083316" lon="10.4929361111">
		<tag k="name" v="Vesleslåa" />
		<tag k="place" v="locality" />
		<tag k="ssr:stedsnr" v="828633" />
	</node>
	<node id="-128215" lat="61.2521083352" lon="10.5093555594">
		<tag k="name" v="Slæen" />
		<tag k="place" v="locality" />
		<tag k="ssr:stedsnr" v="828593" />
	</node>
	<node id="-128213" lat="61.2795555542" lon="10.4289972274">
		<tag k="name" v="Rønningen" />
		<tag k="place" v="locality" />
		<tag k="ssr:stedsnr" v="828507" />
	</node>
	<node id="-128266" lat="61.3314055529" lon="10.2224000007">
		<tag k="name" v="Kringletjønnmyra" />
		<tag k="natural" v="wetland" />
		<tag k="ssr:stedsnr" v="857952" />
	</node>
	<node id="-128204" lat="61.3694111094" lon="10.4914694378">
		<tag k="landuse" v="meadow" />
		<tag k="name" v="Børkjeslæen" />
		<tag k="ssr:stedsnr" v="828302" />
	</node>
	<node id="-127690" lat="61.2065972178" lon="10.5071222236">
		<tag k="name" v="Langmyra" />
		<tag k="natural" v="wetland" />
		<tag k="ssr:stedsnr" v="492147" />
	</node>
	<node id="-127682" lat="61.2326416704" lon="10.4558527835">
		<tag k="name" v="Joenget" />
		<tag k="place" v="locality" />
		<tag k="ssr:stedsnr" v="466822" />
	</node>
	<node id="-127676" lat="61.2067638852" lon="10.4757277859">
		<tag k="name" v="Veslemyra" />
		<tag k="natural" v="wetland" />
		<tag k="ssr:stedsnr" v="466560" />
	</node>
	<node id="-127674" lat="61.3782888889" lon="10.3168694487">
		<tag k="name" v="Neverlangmyra" />
		<tag k="natural" v="wetland" />
		<tag k="ssr:stedsnr" v="466334" />
	</node>
	<node id="-128182" lat="61.3665999964" lon="10.4338250079">
		<tag k="name" v="Saumyra" />
		<tag k="natural" v="wetland" />
		<tag k="ssr:stedsnr" v="797300" />
	</node>
	<node id="-127156" lat="61.2828583348" lon="10.5095444384">
		<tag k="name" v="Svartåsmyra" />
		<tag k="natural" v="wetland" />
		<tag k="ssr:stedsnr" v="888672" />
	</node>
	<node id="-127667" lat="61.310236107" lon="10.6994833405">
		<tag k="name" v="Krukslåa" />
		<tag k="place" v="locality" />
		<tag k="ssr:stedsnr" v="465173" />
	</node>
	<node id="-127665" lat="61.2636944441" lon="10.646508332">
		<tag k="name" v="Langmyra" />
		<tag k="natural" v="wetland" />
		<tag k="ssr:stedsnr" v="466511" />
	</node>
	<node id="-127151" lat="61.3724944421" lon="10.4804444484">
		<tag k="landuse" v="meadow" />
		<tag k="name" v="Glømmeslæen" />
		<tag k="ssr:stedsnr" v="888269" />
	</node>
	<node id="-127147" lat="61.3022611139" lon="10.7953222222">
		<tag k="name" v="Stormyra" />
		<tag k="natural" v="wetland" />
		<tag k="ssr:stedsnr" v="884680" />
	</node>
	<node id="-127657" lat="61.39423056" lon="10.5236805494">
		<tag k="name" v="Raubergmyra" />
		<tag k="natural" v="wetland" />
		<tag k="ssr:stedsnr" v="463996" />
	</node>
	<node id="-127653" lat="61.3020833303" lon="10.5572388961">
		<tag k="name" v="Tråppbergmyra" />
		<tag k="natural" v="wetland" />
		<tag k="ssr:stedsnr" v="463533" />
	</node>
	<node id="-128164" lat="61.3276916672" lon="10.2089527848">
		<tag k="name" v="Langmyra" />
		<tag k="natural" v="wetland" />
		<tag k="ssr:stedsnr" v="786848" />
	</node>
	<node id="-128163" lat="61.3556499992" lon="10.2388694364">
		<tag k="name" v="Innleggen" />
		<tag k="place" v="locality" />
		<tag k="ssr:stedsnr" v="786816" />
	</node>
	<node id="-128159" lat="61.3581499985" lon="10.5580222187">
		<tag k="name" v="Djupsmyra" />
		<tag k="natural" v="wetland" />
		<tag k="ssr:stedsnr" v="786456" />
	</node>
	<node id="-128154" lat="61.2372611122" lon="10.4536833288">
		<tag k="name" v="Midtjordet" />
		<tag k="place" v="locality" />
		<tag k="ssr:stedsnr" v="769797" />
	</node>
	<node id="-127129" lat="61.3167361128" lon="10.705308325">
		<tag k="name" v="Svartdalsslåttan" />
		<tag k="place" v="locality" />
		<tag k="ssr:stedsnr" v="405323" />
	</node>
	<node id="-127128" lat="61.3134138866" lon="10.6824361131">
		<tag k="name" v="Styggmyra" />
		<tag k="natural" v="wetland" />
		<tag k="ssr:stedsnr" v="405321" />
	</node>
	<node id="-128146" lat="61.3203222183" lon="10.3749416735">
		<tag k="name" v="Steinkloppmyra" />
		<tag k="natural" v="wetland" />
		<tag k="ssr:stedsnr" v="769261" />
	</node>
	<node id="-128145" lat="61.3291277789" lon="10.4510972246">
		<tag k="name" v="Skåetjønnmyra" />
		<tag k="natural" v="wetland" />
		<tag k="ssr:stedsnr" v="769251" />
	</node>
	<node id="-128139" lat="61.3508500035" lon="10.3342277833">
		<tag k="name" v="Karihaugmyra" />
		<tag k="natural" v="wetland" />
		<tag k="ssr:stedsnr" v="767875" />
	</node>
	<node id="-127114" lat="61.2833499959" lon="10.4853138968">
		<tag k="name" v="Malmen" />
		<tag k="natural" v="wetland" />
		<tag k="ssr:stedsnr" v="403674" />
	</node>
	<node id="-127112" lat="61.3521972223" lon="10.3820416684">
		<tag k="name" v="Stormyra" />
		<tag k="natural" v="wetland" />
		<tag k="ssr:stedsnr" v="403634" />
	</node>
	<node id="-127623" lat="61.3035416644" lon="10.4840638932">
		<tag k="name" v="Kloppmyra" />
		<tag k="natural" v="wetland" />
		<tag k="ssr:stedsnr" v="433271" />
	</node>
	<node id="-128133" lat="61.2690361078" lon="10.5473027715">
		<tag k="name" v="Steinmyra" />
		<tag k="natural" v="wetland" />
		<tag k="ssr:stedsnr" v="767627" />
	</node>
	<node id="-127108" lat="61.3929694424" lon="10.4636083305">
		<tag k="name" v="Jutulsteinen" />
		<tag k="natural" v="stone" />
		<tag k="ssr:stedsnr" v="403542" />
	</node>
	<node id="-128129" lat="61.2827805519" lon="10.4278916595">
		<tag k="name" v="Bergelykkja" />
		<tag k="place" v="locality" />
		<tag k="ssr:stedsnr" v="767522" />
	</node>
	<node id="-127613" lat="61.2988361151" lon="10.2318305549">
		<tag k="name" v="Gonstadlykkja" />
		<tag k="place" v="locality" />
		<tag k="ssr:stedsnr" v="422904" />
	</node>
	<node id="-128111" lat="61.260172218" lon="10.5404888901">
		<tag k="name" v="Brennåsmyra" />
		<tag k="natural" v="wetland" />
		<tag k="ssr:stedsnr" v="767316" />
	</node>
	<node id="-127164" lat="61.3828944409" lon="10.34533334">
		<tag k="name" v="Slettmyra" />
		<tag k="place" v="locality" />
		<tag k="ssr:stedsnr" v="889286" />
	</node>
	<node id="-126993" lat="61.2941638844" lon="10.4931777825">
		<tag k="name" v="Stormyra" />
		<tag k="natural" v="wetland" />
		<tag k="ssr:stedsnr" v="311322" />
	</node>
	<node id="-128357" lat="61.3552555567" lon="10.4638638933">
		<tag k="name" v="Bakkomslåtten" />
		<tag k="place" v="locality" />
		<tag k="ssr:stedsnr" v="949623" />
	</node>
	<node id="-128186" lat="61.2850111144" lon="10.7505583346">
		<tag k="alt_name" v="Farbergsætervangen" />
		<tag k="historic" v="shieling" />
		<tag k="name" v="Farbergvangen" />
		<tag k="place" v="locality" />
		<tag k="ssr:stedsnr" v="797378" />
	</node>
	<node id="-127573" lat="61.3492583367" lon="10.2047749925">
		<tag k="name" v="Langmyra" />
		<tag k="place" v="locality" />
		<tag k="ssr:stedsnr" v="240824" />
	</node>
	<node id="-127570" lat="61.3142777809" lon="10.2543611105">
		<tag k="name" v="Hestmyra" />
		<tag k="natural" v="wetland" />
		<tag k="ssr:stedsnr" v="240560" />
	</node>
	<node id="-127051" lat="61.191555558" lon="10.4132333394">
		<tag k="name" v="Kjøyllbekksvea" />
		<tag k="place" v="locality" />
		<tag k="ssr:stedsnr" v="344642" />
	</node>
	<node id="-127562" lat="61.3240499989" lon="10.7264638811">
		<tag k="name" v="Bergeslåa" />
		<tag k="place" v="locality" />
		<tag k="ssr:stedsnr" v="223847" />
	</node>
	<node id="-127560" lat="61.2164138894" lon="10.4468361103">
		<tag k="name" v="Nerjordet" />
		<tag k="place" v="locality" />
		<tag k="ssr:stedsnr" v="223647" />
	</node>
	<node id="-127043" lat="61.3686805557" lon="10.3309444427">
		<tag k="name" v="Raumyra" />
		<tag k="natural" v="wetland" />
		<tag k="ssr:stedsnr" v="344321" />
	</node>
	<node id="-127554" lat="61.2576361071" lon="10.4333138904">
		<tag k="landuse" v="quarry" />
		<tag k="name" v="Haugsgruva" />
		<tag k="ssr:stedsnr" v="223211" />
	</node>
	<node id="-127041" lat="61.3259972241" lon="10.4046916706">
		<tag k="name" v="Torvmyra" />
		<tag k="natural" v="wetland" />
		<tag k="ssr:stedsnr" v="344272" />
	</node>
	<node id="-128062" lat="61.2953222241" lon="10.379688885">
		<tag k="name" v="Hesthågåmyra" />
		<tag k="natural" v="wetland" />
		<tag k="ssr:stedsnr" v="716604" />
	</node>
	<node id="-127170" lat="61.3155777791" lon="10.353869445">
		<tag k="name" v="Jenthaugmyra" />
		<tag k="natural" v="wetland" />
		<tag k="ssr:stedsnr" v="889414" />
	</node>
	<node id="-127548" lat="61.2084305528" lon="10.4627222132">
		<tag k="name" v="Nystugua" />
		<tag k="place" v="locality" />
		<tag k="ssr:stedsnr" v="223570" />
	</node>
	<node id="-128059" lat="61.3189305595" lon="10.2513527754">
		<tag k="name" v="Stormyra" />
		<tag k="natural" v="wetland" />
		<tag k="ssr:stedsnr" v="708930" />
	</node>
	<node id="-127546" lat="61.2541361144" lon="10.6540611205">
		<tag k="name" v="Austmyra" />
		<tag k="natural" v="wetland" />
		<tag k="ssr:stedsnr" v="223516" />
	</node>
	<node id="-127543" lat="61.4107472252" lon="10.5832000072">
		<tag k="name" v="Hølmyra" />
		<tag k="natural" v="wetland" />
		<tag k="ssr:stedsnr" v="221906" />
	</node>
	<node id="-128054" lat="61.2788666694" lon="10.3941722287">
		<tag k="name" v="Dalsenget" />
		<tag k="place" v="locality" />
		<tag k="ssr:stedsnr" v="708609" />
	</node>
	<node id="-127029" lat="61.2224029969" lon="10.5278356006">
		<tag k="name" v="Andtjønnsmyra" />
		<tag k="natural" v="wetland" />
		<tag k="ssr:stedsnr" v="342645" />
	</node>
	<node id="-128052" lat="61.1968833344" lon="10.4240777761">
		<tag k="name" v="Midtbrenna" />
		<tag k="place" v="locality" />
		<tag k="ssr:stedsnr" v="708574" />
	</node>
	<node id="-128051" lat="61.2091111119" lon="10.4421083256">
		<tag k="name" v="Skogalykkja" />
		<tag k="place" v="locality" />
		<tag k="ssr:stedsnr" v="708555" />
	</node>
	<node id="-127535" lat="61.3125944458" lon="10.5879055649">
		<tag k="name" v="Flågåmyra" />
		<tag k="natural" v="wetland" />
		<tag k="ssr:stedsnr" v="221509" />
	</node>
	<node id="-128045" lat="61.3339944446" lon="10.3988249952">
		<tag k="name" v="Raumyra" />
		<tag k="natural" v="wetland" />
		<tag k="ssr:stedsnr" v="708266" />
	</node>
	<node id="-128044" lat="61.3276444487" lon="10.4292805516">
		<tag k="name" v="Hølmyra" />
		<tag k="natural" v="wetland" />
		<tag k="ssr:stedsnr" v="708260" />
	</node>
	<node id="-127019" lat="61.2194055529" lon="10.5157055476">
		<tag k="name" v="Ilsæterurda" />
		<tag k="natural" v="scree" />
		<tag k="ssr:stedsnr" v="342296" />
	</node>
	<node id="-127530" lat="61.1970444478" lon="10.5021444407">
		<tag k="name" v="Øvre Lemyra" />
		<tag k="natural" v="wetland" />
		<tag k="ssr:stedsnr" v="221321" />
	</node>
	<node id="-128041" lat="61.319122221" lon="10.6688416682">
		<tag k="name" v="Krokmyra" />
		<tag k="natural" v="wetland" />
		<tag k="ssr:stedsnr" v="708182" />
	</node>
	<node id="-128038" lat="61.2901083348" lon="10.4363611054">
		<tag k="name" v="Slåtten" />
		<tag k="place" v="locality" />
		<tag k="ssr:stedsnr" v="707549" />
	</node>
	<node id="-127868" lat="61.2027250042" lon="10.423597222">
		<tag k="landuse" v="landfill" />
		<tag k="name" v="Tverrslaget" />
		<tag k="ssr:stedsnr" v="587596" />
	</node>
	<node id="-127517" lat="61.387263885" lon="10.6454583388">
		<tag k="name" v="Skytilmyra" />
		<tag k="natural" v="wetland" />
		<tag k="ssr:stedsnr" v="216635" />
	</node>
	<node id="-128027" lat="61.2963138843" lon="10.5498027864">
		<tag k="name" v="Hesjamyra" />
		<tag k="natural" v="wetland" />
		<tag k="ssr:stedsnr" v="706832" />
	</node>
	<node id="-128026" lat="61.272269444" lon="10.4968944439">
		<tag k="name" v="Lisåsan" />
		<tag k="place" v="locality" />
		<tag k="ssr:stedsnr" v="706815" />
	</node>
	<node id="-128259" lat="61.2449222223" lon="10.7044472134">
		<tag k="name" v="Venåsbekkene" />
		<tag k="natural" v="wetland" />
		<tag k="ssr:stedsnr" v="857147" />
	</node>
	<node id="-128016" lat="61.2200000042" lon="10.4969611135">
		<tag k="landuse" v="quarry" />
		<tag k="name" v="Bjørgegruva" />
		<tag k="ssr:stedsnr" v="706307" />
	</node>
	<node id="-128014" lat="61.2936083365" lon="10.7696666683">
		<tag k="name" v="Åstdals-slåttan" />
		<tag k="place" v="locality" />
		<tag k="ssr:stedsnr" v="707765" />
	</node>
	<node id="-126987" lat="61.2893861152" lon="10.2323361086">
		<tag k="name" v="Kampamyra" />
		<tag k="natural" v="wetland" />
		<tag k="ssr:stedsnr" v="300894" />
	</node>
	<node id="-128006" lat="61.4440888893" lon="10.6993750038">
		<tag k="historic" v="shieling" />
		<tag k="name" v="Glømmevollen" />
		<tag k="place" v="locality" />
		<tag k="ssr:stedsnr" v="676350" />
	</node>
</osm>
