<?xml version="1.0" encoding="UTF-8"?>
<osm generator="osmapis" version="0.6">
	<node id="-128000" lat="61.3419305516" lon="10.6913111091">
		<tag k="alt_name" v="Øvreåsta" />
		<tag k="name" v="Øver-Åsta" />
		<tag k="ssr:stedsnr" v="676277" />
		<tag k="waterway" v="river" />
	</node>
	<node id="-127884" lat="61.3583944425" lon="10.5873250001">
		<tag k="name" v="Akksjøbekken" />
		<tag k="ssr:stedsnr" v="603413" />
		<tag k="waterway" v="stream" />
	</node>
	<node id="-127486" lat="61.251030556" lon="10.4304777827">
		<tag k="alt_name" v="Jevnfjorden" />
		<tag k="name" v="Jemnefjorden" />
		<tag k="place" v="locality" />
		<tag k="ssr:stedsnr" v="190141" />
	</node>
	<node id="-127482" lat="61.2005777742" lon="10.4590249996">
		<tag k="name" v="Sagåa" />
		<tag k="ssr:stedsnr" v="189903" />
		<tag k="waterway" v="river" />
	</node>
	<node id="-127993" lat="61.1926055559" lon="10.4438833413">
		<tag k="alt_name" v="Kvæsa" />
		<tag k="name" v="Kvesa" />
		<tag k="ssr:stedsnr" v="675937" />
		<tag k="waterway" v="river" />
	</node>
	<node id="-126967" lat="61.3154055523" lon="10.6503222256">
		<tag k="name" v="Estensbekken" />
		<tag k="ssr:stedsnr" v="284183" />
		<tag k="waterway" v="stream" />
	</node>
	<node id="-127478" lat="61.2236055594" lon="10.5910361033">
		<tag k="name" v="Kjellsbekken" />
		<tag k="ssr:stedsnr" v="189151" />
		<tag k="waterway" v="stream" />
	</node>
	<node id="-126965" lat="61.3730472232" lon="10.4625833317">
		<tag k="name" v="Søre Sundhaugen" />
		<tag k="place" v="island" />
		<tag k="ssr:stedsnr" v="284062" />
	</node>
	<node id="-126963" lat="61.1942583322" lon="10.4087750029">
		<tag k="name" v="Ensbyteinlagan" />
		<tag k="place" v="locality" />
		<tag k="ssr:stedsnr" v="283606" />
	</node>
	<node id="-127986" lat="61.3895777739" lon="10.5875416653">
		<tag k="alt_name" v="Vesle Tautra" />
		<tag k="name" v="Vesltautra" />
		<tag k="ssr:stedsnr" v="675351" />
		<tag k="waterway" v="stream" />
	</node>
	<node id="-127985" lat="61.3869111122" lon="10.6028305593">
		<tag k="name" v="Stortautra" />
		<tag k="ssr:stedsnr" v="675349" />
		<tag k="waterway" v="stream" />
	</node>
	<node id="-127984" lat="61.3842583356" lon="10.6399277823">
		<tag k="alt_name" v="Skytilen" />
		<tag k="name" v="Skyttilen" />
		<tag k="natural" v="water" />
		<tag k="ssr:stedsnr" v="675328" />
	</node>
	<node id="-127981" lat="61.2223638898" lon="10.6299500068">
		<tag k="name" v="Kriksvika" />
		<tag k="natural" v="bay" />
		<tag k="ssr:stedsnr" v="675197" />
	</node>
	<node id="-126955" lat="61.3132694463" lon="10.3842500063">
		<tag k="name" v="Hundbergsbekken" />
		<tag k="ssr:stedsnr" v="282761" />
		<tag k="waterway" v="stream" />
	</node>
	<node id="-126954" lat="61.2535749987" lon="10.7978194514">
		<tag k="name" v="Merrehølen" />
		<tag k="place" v="locality" />
		<tag k="ssr:stedsnr" v="282741" />
	</node>
	<node id="-127977" lat="61.2391305523" lon="10.7041611059">
		<tag k="name" v="Grytfjellbekken" />
		<tag k="ssr:stedsnr" v="675167" />
		<tag k="waterway" v="stream" />
	</node>
	<node id="-127463" lat="61.1866861147" lon="10.4151722218">
		<tag k="name" v="Stygghølet" />
		<tag k="place" v="locality" />
		<tag k="ssr:stedsnr" v="162591" />
	</node>
	<node id="-126949" lat="61.3590833324" lon="10.4619666622">
		<tag k="name" v="Våsjøbekken" />
		<tag k="ssr:stedsnr" v="282637" />
		<tag k="waterway" v="stream" />
	</node>
	<node id="-127972" lat="61.2971444464" lon="10.2496638954">
		<tag k="name" v="Musa" />
		<tag k="ssr:stedsnr" v="664599" />
		<tag k="waterway" v="stream" />
	</node>
	<node id="-127971" lat="61.3113515196" lon="10.2449990795">
		<tag k="name" v="Steinbekken" />
		<tag k="ssr:stedsnr" v="664501" />
		<tag k="waterway" v="stream" />
	</node>
	<node id="-127739" lat="61.302347224" lon="10.5530333393">
		<tag k="name" v="Tråppbergtjønnan" />
		<tag k="natural" v="water" />
		<tag k="ssr:stedsnr" v="519709" />
	</node>
	<node id="-127455" lat="61.3254305525" lon="10.6698138822">
		<tag k="name" v="Ukstjønnet" />
		<tag k="natural" v="water" />
		<tag k="ssr:stedsnr" v="162160" />
	</node>
	<node id="-127454" lat="61.3987083309" lon="10.4858250078">
		<tag k="name" v="Vesle Tromstjønnet" />
		<tag k="natural" v="water" />
		<tag k="ssr:stedsnr" v="160994" />
	</node>
	<node id="-127453" lat="61.4006388877" lon="10.5119111032">
		<tag k="name" v="Flåtåmobekken" />
		<tag k="ssr:stedsnr" v="160992" />
		<tag k="waterway" v="stream" />
	</node>
	<node id="-127452" lat="61.4598777806" lon="10.6781111152">
		<tag k="name" v="Søre Eldåtjønn" />
		<tag k="natural" v="water" />
		<tag k="ssr:stedsnr" v="160953" />
	</node>
	<node id="-127450" lat="61.2543416709" lon="10.511924998">
		<tag k="name" v="Blæsterfalla" />
		<tag k="ssr:stedsnr" v="160820" />
		<tag k="waterway" v="rapids" />
	</node>
	<node id="-126934" lat="61.3892750035" lon="10.561669443">
		<tag k="name" v="Vesleøya" />
		<tag k="place" v="islet" />
		<tag k="ssr:stedsnr" v="282291" />
	</node>
	<node id="-126933" lat="61.2995861096" lon="10.3356138887">
		<tag k="name" v="Rinna" />
		<tag k="ssr:stedsnr" v="282285" />
		<tag k="waterway" v="stream" />
	</node>
	<node id="-127954" lat="61.3269833326" lon="10.6021222158">
		<tag k="name" v="Slåtjønnet" />
		<tag k="natural" v="water" />
		<tag k="ssr:stedsnr" v="647193" />
	</node>
	<node id="-127953" lat="61.2163750037" lon="10.4761611072">
		<tag k="name" v="Skalmstadbekken" />
		<tag k="ssr:stedsnr" v="647162" />
		<tag k="waterway" v="stream" />
	</node>
	<node id="-127440" lat="61.287183336" lon="10.2743861042">
		<tag k="name" v="Bjørnstadåa" />
		<tag k="ssr:stedsnr" v="160362" />
		<tag k="waterway" v="stream" />
	</node>
	<node id="-127950" lat="61.3767416627" lon="10.467113883">
		<tag k="name" v="Sjursbekken" />
		<tag k="ssr:stedsnr" v="647095" />
		<tag k="waterway" v="stream" />
	</node>
	<node id="-127949" lat="61.3642999957" lon="10.4306888861">
		<tag k="name" v="Saumyrbekken" />
		<tag k="ssr:stedsnr" v="647092" />
		<tag k="waterway" v="stream" />
	</node>
	<node id="-127948" lat="61.3694777742" lon="10.4016277792">
		<tag k="name" v="Gåløybekken" />
		<tag k="ssr:stedsnr" v="647008" />
		<tag k="waterway" v="stream" />
	</node>
	<node id="-127435" lat="61.3650499964" lon="10.5623694522">
		<tag k="name" v="Djupsåa" />
		<tag k="ssr:stedsnr" v="160258" />
		<tag k="waterway" v="river" />
	</node>
	<node id="-127143" lat="61.2519194445" lon="10.435663896">
		<tag k="name" v="Trælvika" />
		<tag k="natural" v="bay" />
		<tag k="ssr:stedsnr" v="883796" />
	</node>
	<node id="-127432" lat="61.326680552" lon="10.3906527702">
		<tag k="name" v="Nedre Hundtjønnet" />
		<tag k="natural" v="water" />
		<tag k="ssr:stedsnr" v="155762" />
	</node>
	<node id="-127431" lat="61.3589472254" lon="10.5524972178">
		<tag k="name" v="Hølbekken" />
		<tag k="ssr:stedsnr" v="155631" />
		<tag k="waterway" v="stream" />
	</node>
	<node id="-127939" lat="61.3836944471" lon="10.43399166">
		<tag k="name" v="Skardtjønnet" />
		<tag k="natural" v="water" />
		<tag k="ssr:stedsnr" v="645533" />
	</node>
	<node id="-127936" lat="61.2706000041" lon="10.397311119">
		<tag k="name" v="Gillebufjorden" />
		<tag k="place" v="locality" />
		<tag k="ssr:stedsnr" v="645407" />
	</node>
	<node id="-127420" lat="61.3981416683" lon="10.6642916592">
		<tag k="name" v="Skjela" />
		<tag k="ssr:stedsnr" v="129326" />
		<tag k="waterway" v="stream" />
	</node>
	<node id="-127419" lat="61.3627611136" lon="10.4961472133">
		<tag k="name" v="Grunnesåa" />
		<tag k="ssr:stedsnr" v="129311" />
		<tag k="waterway" v="river" />
	</node>
	<node id="-127929" lat="61.220102779" lon="10.4827222294">
		<tag k="name" v="Bjørgebekken" />
		<tag k="ssr:stedsnr" v="645296" />
		<tag k="waterway" v="stream" />
	</node>
	<node id="-127926" lat="61.3897583315" lon="10.7018916644">
		<tag k="name" v="Saltbelgsåa" />
		<tag k="ssr:stedsnr" v="645172" />
		<tag k="waterway" v="stream" />
	</node>
	<node id="-127411" lat="61.2380416678" lon="10.6537166719">
		<tag k="alt_name" v="Krikstjønnet" />
		<tag k="name" v="Krikstjørnet" />
		<tag k="natural" v="water" />
		<tag k="ssr:stedsnr" v="129169" />
	</node>
	<node id="-127922" lat="61.3358000016" lon="10.7484749938">
		<tag k="name" v="Lyngåa" />
		<tag k="ssr:stedsnr" v="615398" />
		<tag k="waterway" v="river" />
	</node>
	<node id="-127920" lat="61.3472583363" lon="10.3987083296">
		<tag k="name" v="Kalvbekken" />
		<tag k="ssr:stedsnr" v="615263" />
		<tag k="waterway" v="stream" />
	</node>
	<node id="-127919" lat="61.3505388883" lon="10.4847555598">
		<tag k="name" v="Bjørtjønnet" />
		<tag k="natural" v="water" />
		<tag k="ssr:stedsnr" v="615261" />
	</node>
	<node id="-127918" lat="61.3419333319" lon="10.505472222">
		<tag k="name" v="Bretta" />
		<tag k="ssr:stedsnr" v="615254" />
		<tag k="waterway" v="stream" />
	</node>
	<node id="-127133" lat="61.1841666682" lon="10.4156527783">
		<tag k="name" v="Sanna" />
		<tag k="place" v="locality" />
		<tag k="ssr:stedsnr" v="405596" />
	</node>
	<node id="-126962" lat="61.1943000024" lon="10.4084444511">
		<tag k="name" v="Ensbyfallan" />
		<tag k="ssr:stedsnr" v="283591" />
		<tag k="waterway" v="rapids" />
	</node>
	<node id="-127815" lat="61.3638833367" lon="10.3330611192">
		<tag k="name" v="Teppa" />
		<tag k="place" v="locality" />
		<tag k="ssr:stedsnr" v="554319" />
	</node>
	<node id="-127910" lat="61.2442361116" lon="10.7200722136">
		<tag k="name" v="Venåsbekken" />
		<tag k="ssr:stedsnr" v="614750" />
		<tag k="waterway" v="stream" />
	</node>
	<node id="-127909" lat="61.2984277768" lon="10.8214472214">
		<tag k="name" v="Skolla" />
		<tag k="ssr:stedsnr" v="614746" />
		<tag k="waterway" v="stream" />
	</node>
	<node id="-127905" lat="61.2680500039" lon="10.7032472227">
		<tag k="name" v="Purkebekken" />
		<tag k="ssr:stedsnr" v="614493" />
		<tag k="waterway" v="stream" />
	</node>
	<node id="-127903" lat="61.2653861155" lon="10.4536194358">
		<tag k="alt_name" v="Brynsåa, s" />
		<tag k="name" v="Søre Brynsåa" />
		<tag k="ssr:stedsnr" v="614489" />
		<tag k="waterway" v="stream" />
	</node>
	<node id="-127386" lat="61.2659472251" lon="10.6613583293">
		<tag k="name" v="Langmyrbekken" />
		<tag k="ssr:stedsnr" v="102565" />
		<tag k="waterway" v="stream" />
	</node>
	<node id="-127898" lat="61.4116111093" lon="10.6171555488">
		<tag k="name" v="Gyritjønnet" />
		<tag k="natural" v="water" />
		<tag k="ssr:stedsnr" v="614307" />
	</node>
	<node id="-127011" lat="61.4636361091" lon="10.6622111141">
		<tag k="name" v="Eldåtjønna" />
		<tag k="natural" v="water" />
		<tag k="ssr:stedsnr" v="312351" />
	</node>
	<node id="-127892" lat="61.2148138932" lon="10.5595166663">
		<tag k="name" v="Fjellbekken" />
		<tag k="ssr:stedsnr" v="614188" />
		<tag k="waterway" v="stream" />
	</node>
	<node id="-127888" lat="61.3570972258" lon="10.2018027686">
		<tag k="name" v="Roåkerbekken" />
		<tag k="ssr:stedsnr" v="603826" />
		<tag k="waterway" v="stream" />
	</node>
	<node id="-127887" lat="61.3345000012" lon="10.5920583245">
		<tag k="name" v="Indre Bretta" />
		<tag k="ssr:stedsnr" v="603561" />
		<tag k="waterway" v="stream" />
	</node>
	<node id="-127372" lat="61.266449997" lon="10.5591111111">
		<tag k="name" v="Hemre Liendbekken" />
		<tag k="ssr:stedsnr" v="100613" />
		<tag k="waterway" v="stream" />
	</node>
	<node id="-128395" lat="61.2998361108" lon="10.2940527745">
		<tag k="name" v="Trælvika" />
		<tag k="natural" v="bay" />
		<tag k="ssr:stedsnr" v="968649" />
	</node>
	<node id="-128394" lat="61.306038885" lon="10.2981166742">
		<tag k="name" v="Sundhaugen" />
		<tag k="natural" v="cape" />
		<tag k="ssr:stedsnr" v="968646" />
	</node>
	<node id="-127881" lat="61.3310472222" lon="10.5654611193">
		<tag k="name" v="Gunnhildtjønnet" />
		<tag k="natural" v="water" />
		<tag k="ssr:stedsnr" v="603376" />
	</node>
	<node id="-128391" lat="61.3442055534" lon="10.5579083363">
		<tag k="name" v="Fjørkentjønnet" />
		<tag k="natural" v="water" />
		<tag k="ssr:stedsnr" v="968462" />
	</node>
	<node id="-127330" lat="61.3924222237" lon="10.4365055503">
		<tag k="name" v="Måsåmyrtjønna" />
		<tag k="natural" v="water" />
		<tag k="ssr:stedsnr" v="69344" />
	</node>
	<node id="-127873" lat="61.3187666672" lon="10.2862583355">
		<tag k="name" v="Krakvollen" />
		<tag k="natural" v="beach" />
		<tag k="ssr:stedsnr" v="587935" />
	</node>
	<node id="-127872" lat="61.3132388895" lon="10.7641222295">
		<tag k="name" v="Lyngåkroken" />
		<tag k="place" v="locality" />
		<tag k="ssr:stedsnr" v="587822" />
	</node>
	<node id="-127296" lat="61.2629527754" lon="10.6011555514">
		<tag k="name" v="Løyptjønnet" />
		<tag k="natural" v="water" />
		<tag k="ssr:stedsnr" v="41511" />
	</node>
	<node id="-128381" lat="61.2466027763" lon="10.4315805645">
		<tag k="name" v="Strømshuguet" />
		<tag k="natural" v="cape" />
		<tag k="ssr:stedsnr" v="951836" />
	</node>
	<node id="-128380" lat="61.2524027753" lon="10.4442583261">
		<tag k="name" v="Storkjølla" />
		<tag k="natural" v="spring" />
		<tag k="ssr:stedsnr" v="951788" />
	</node>
	<node id="-127867" lat="61.1862861072" lon="10.4285666681">
		<tag k="name" v="Kallykkjebekken" />
		<tag k="ssr:stedsnr" v="587551" />
		<tag k="waterway" v="stream" />
	</node>
	<node id="-127863" lat="61.3675194458" lon="10.3155555649">
		<tag k="name" v="Korsbekken" />
		<tag k="ssr:stedsnr" v="587345" />
		<tag k="waterway" v="stream" />
	</node>
	<node id="-127350" lat="61.3884027797" lon="10.5570194387">
		<tag k="name" v="Jehansberget" />
		<tag k="place" v="islet" />
		<tag k="ssr:stedsnr" v="99344" />
	</node>
	<node id="-128371" lat="61.3270361083" lon="10.3980500031">
		<tag k="name" v="Tjønnmellom" />
		<tag k="natural" v="strait" />
		<tag k="ssr:stedsnr" v="951260" />
	</node>
	<node id="-127857" lat="61.2390972243" lon="10.435619439">
		<tag k="name" v="Aronsvekjølla" />
		<tag k="natural" v="spring" />
		<tag k="ssr:stedsnr" v="587164" />
	</node>
	<node id="-127856" lat="61.3639194455" lon="10.4181777729">
		<tag k="name" v="Svarttjønnet" />
		<tag k="natural" v="water" />
		<tag k="ssr:stedsnr" v="587083" />
	</node>
	<node id="-128351" lat="61.2918166692" lon="10.2809555635">
		<tag k="name" v="Hovdøya" />
		<tag k="place" v="island" />
		<tag k="ssr:stedsnr" v="949352" />
	</node>
	<node id="-127853" lat="61.2434972216" lon="10.7484722135">
		<tag k="name" v="Storsanden" />
		<tag k="natural" v="bay" />
		<tag k="ssr:stedsnr" v="585745" />
	</node>
	<node id="-127852" lat="61.2479777795" lon="10.4814638961">
		<tag k="name" v="Skurgrasbekken" />
		<tag k="ssr:stedsnr" v="585642" />
		<tag k="waterway" v="stream" />
	</node>
	<node id="-127851" lat="61.2683666701" lon="10.5750388983">
		<tag k="name" v="Indre Liendbekken" />
		<tag k="ssr:stedsnr" v="585606" />
		<tag k="waterway" v="stream" />
	</node>
	<node id="-126951" lat="61.2818444422" lon="10.4997583259">
		<tag k="name" v="Indre Brynsåa" />
		<tag k="ssr:stedsnr" v="282666" />
		<tag k="waterway" v="stream" />
	</node>
	<node id="-127335" lat="61.3706220027" lon="10.7428560594">
		<tag k="name" v="Bulona" />
		<tag k="natural" v="water" />
		<tag k="ssr:stedsnr" v="69441" />
	</node>
	<node id="-127334" lat="61.3336555536" lon="10.7330499921">
		<tag k="alt_name" v="Nordre Bøsætertjønn" />
		<tag k="name" v="Bøsætertjørna" />
		<tag k="natural" v="water" />
		<tag k="ssr:stedsnr" v="69424" />
	</node>
	<node id="-128356" lat="61.2464861071" lon="10.5205861179">
		<tag k="name" v="Nysæterbekken" />
		<tag k="ssr:stedsnr" v="949575" />
		<tag k="waterway" v="stream" />
	</node>
	<node id="-127842" lat="61.2896638878" lon="10.5837972243">
		<tag k="name" v="Rognhaugbekken" />
		<tag k="ssr:stedsnr" v="584859" />
		<tag k="waterway" v="stream" />
	</node>
	<node id="-127327" lat="61.3131388858" lon="10.6624916753">
		<tag k="alt_name" v="Estensvatnet" />
		<tag k="name" v="Øysteinvatnet" />
		<tag k="natural" v="water" />
		<tag k="ssr:stedsnr" v="69289" />
	</node>
	<node id="-127326" lat="61.2799527775" lon="10.6214055582">
		<tag k="name" v="Rulltjønnet" />
		<tag k="natural" v="water" />
		<tag k="ssr:stedsnr" v="69274" />
	</node>
	<node id="-127836" lat="61.3859055556" lon="10.386133327">
		<tag k="name" v="Grautauget" />
		<tag k="natural" v="water" />
		<tag k="ssr:stedsnr" v="580610" />
	</node>
	<node id="-127323" lat="61.2253750019" lon="10.5649361043">
		<tag k="alt_name" v="Malmtjønnet" />
		<tag k="name" v="Malmtjørnet" />
		<tag k="natural" v="water" />
		<tag k="ssr:stedsnr" v="69171" />
	</node>
	<node id="-128346" lat="61.3918111079" lon="10.5519666664">
		<tag k="name" v="Storvika" />
		<tag k="natural" v="bay" />
		<tag k="ssr:stedsnr" v="949296" />
	</node>
	<node id="-126948" lat="61.3551138925" lon="10.4083333257">
		<tag k="name" v="Brennlitjønnet" />
		<tag k="natural" v="water" />
		<tag k="ssr:stedsnr" v="282632" />
	</node>
	<node id="-127060" lat="61.3231750025" lon="10.5256277744">
		<tag k="name" v="Nordre Keikslitjønnet" />
		<tag k="natural" v="water" />
		<tag k="ssr:stedsnr" v="361459" />
	</node>
	<node id="-128339" lat="61.3766694412" lon="10.5924444491">
		<tag k="name" v="Doktertjønnet" />
		<tag k="natural" v="water" />
		<tag k="ssr:stedsnr" v="944685" />
	</node>
	<node id="-127313" lat="61.2728694467" lon="10.7062694463">
		<tag k="name" v="Kvannbekken" />
		<tag k="ssr:stedsnr" v="68503" />
		<tag k="waterway" v="stream" />
	</node>
	<node id="-127824" lat="61.2593166668" lon="10.6116166638">
		<tag k="alt_name" v="Moksjøen, øvre;Øver-Moksjøen" />
		<tag k="name" v="Øvre Moksjøen" />
		<tag k="natural" v="water" />
		<tag k="ssr:stedsnr" v="554480" />
	</node>
	<node id="-127823" lat="61.430199998" lon="10.7026500038">
		<tag k="alt_name" v="Halansbekken" />
		<tag k="name" v="Hallansbekken" />
		<tag k="ssr:stedsnr" v="554369" />
		<tag k="waterway" v="stream" />
	</node>
	<node id="-127822" lat="61.4231000014" lon="10.6146194504">
		<tag k="name" v="Gråurdtjønnet" />
		<tag k="natural" v="water" />
		<tag k="ssr:stedsnr" v="554350" />
	</node>
	<node id="-127308" lat="61.3007916623" lon="10.2908805511">
		<tag k="name" v="Auromsreset" />
		<tag k="ssr:stedsnr" v="58638" />
		<tag k="waterway" v="rapids" />
	</node>
	<node id="-128331" lat="61.4104055585" lon="10.5193166732">
		<tag k="name" v="Tverråa" />
		<tag k="ssr:stedsnr" v="918964" />
		<tag k="waterway" v="stream" />
	</node>
	<node id="-127818" lat="61.3529444457" lon="10.5912194495">
		<tag k="name" v="Akksjøen" />
		<tag k="natural" v="water" />
		<tag k="ssr:stedsnr" v="554330" />
		<tag k="water" v="lake" />
	</node>
	<node id="-128329" lat="61.3234833306" lon="10.3139333353">
		<tag k="name" v="Moksa" />
		<tag k="ssr:stedsnr" v="918952" />
		<tag k="waterway" v="river" />
	</node>
	<node id="-127816" lat="61.3856472263" lon="10.5357472221">
		<tag k="name" v="Goppollåa" />
		<tag k="ssr:stedsnr" v="554325" />
		<tag k="waterway" v="stream" />
	</node>
	<node id="-128396" lat="61.3559390434" lon="10.1937545992">
		<tag k="name" v="Åbbortjønnet" />
		<tag k="natural" v="water" />
		<tag k="ssr:stedsnr" v="968857" />
	</node>
	<node id="-127814" lat="61.3450805585" lon="10.3851861104">
		<tag k="name" v="Moksa" />
		<tag k="ssr:stedsnr" v="554313" />
		<tag k="waterway" v="river" />
	</node>
	<node id="-127605" lat="61.2910416658" lon="10.2821944473">
		<tag k="alt_name" v="Hovdfossen" />
		<tag k="name" v="Hovdefossen" />
		<tag k="ssr:stedsnr" v="251792" />
		<tag k="waterway" v="rapids" />
	</node>
	<node id="-127299" lat="61.3196861132" lon="10.2452749955">
		<tag k="name" v="Bolstadtjønnet" />
		<tag k="natural" v="water" />
		<tag k="ssr:stedsnr" v="41875" />
	</node>
	<node id="-128320" lat="61.3752666639" lon="10.6424888845">
		<tag k="alt_name" v="Skytilbekken" />
		<tag k="name" v="Skyttilbekken" />
		<tag k="ssr:stedsnr" v="918364" />
		<tag k="waterway" v="stream" />
	</node>
	<node id="-127315" lat="61.2805583313" lon="10.4571944351">
		<tag k="alt_name" v="Brynsåa, nordre;Nordre Brynsåa" />
		<tag k="name" v="Nørdre Brynsåa" />
		<tag k="ssr:stedsnr" v="68514" />
		<tag k="waterway" v="stream" />
	</node>
	<node id="-127803" lat="61.3839305569" lon="10.3095944425">
		<tag k="name" v="Rolla" />
		<tag k="ssr:stedsnr" v="553886" />
		<tag k="waterway" v="river" />
	</node>
	<node id="-127801" lat="61.2614833328" lon="10.6874527741">
		<tag k="name" v="Koltjønnet" />
		<tag k="natural" v="water" />
		<tag k="ssr:stedsnr" v="553472" />
	</node>
	<node id="-127306" lat="61.2947833315" lon="10.4111722155">
		<tag k="name" v="Båsbekken" />
		<tag k="ssr:stedsnr" v="48546" />
		<tag k="waterway" v="stream" />
	</node>
	<node id="-127799" lat="61.2170138854" lon="10.5704611099">
		<tag k="alt_name" v="Okstjørnbekken" />
		<tag k="name" v="Ukstjønnbekken" />
		<tag k="ssr:stedsnr" v="553153" />
		<tag k="waterway" v="stream" />
	</node>
	<node id="-128310" lat="61.2424750016" lon="10.4725305631">
		<tag k="name" v="Lysa" />
		<tag k="ssr:stedsnr" v="918161" />
		<tag k="waterway" v="stream" />
	</node>
	<node id="-127281" lat="61.2935916675" lon="10.562547219">
		<tag k="name" v="Rognhaugtjønnet" />
		<tag k="natural" v="water" />
		<tag k="ssr:stedsnr" v="39814" />
	</node>
	<node id="-128304" lat="61.2191333352" lon="10.5633972262">
		<tag k="alt_name" v="Okstjørnet" />
		<tag k="name" v="Ukstjønnet" />
		<tag k="natural" v="water" />
		<tag k="ssr:stedsnr" v="917137" />
	</node>
	<node id="-127791" lat="61.2530638914" lon="10.4224805533">
		<tag k="name" v="Blæstervika" />
		<tag k="natural" v="bay" />
		<tag k="ssr:stedsnr" v="526782" />
	</node>
	<node id="-128299" lat="61.3556111095" lon="10.206347214">
		<tag k="name" v="Slåbekken" />
		<tag k="ssr:stedsnr" v="907801" />
		<tag k="waterway" v="stream" />
	</node>
	<node id="-127785" lat="61.366841669" lon="10.3195111165">
		<tag k="name" v="Vedemselva" />
		<tag k="ssr:stedsnr" v="526309" />
		<tag k="waterway" v="river" />
	</node>
	<node id="-126940" lat="61.3094666686" lon="10.3010388874">
		<tag k="name" v="Lybekkstrømmen" />
		<tag k="ssr:stedsnr" v="282360" />
		<tag k="waterway" v="rapids" />
	</node>
	<node id="-127268" lat="61.2887888864" lon="10.2803277719">
		<tag k="name" v="Bjørnstadøya" />
		<tag k="place" v="island" />
		<tag k="ssr:stedsnr" v="39350" />
	</node>
	<node id="-127110" lat="61.3873888867" lon="10.4724055499">
		<tag k="name" v="Vargøybekken" />
		<tag k="ssr:stedsnr" v="403587" />
		<tag k="waterway" v="stream" />
	</node>
	<node id="-127792" lat="61.2443416667" lon="10.4287194465">
		<tag k="name" v="Rybakkøya" />
		<tag k="natural" v="cape" />
		<tag k="ssr:stedsnr" v="526783" />
	</node>
	<node id="-128283" lat="61.381615219" lon="10.7574024864">
		<tag k="name" v="Lyngen" />
		<tag k="natural" v="water" />
		<tag k="ssr:stedsnr" v="858437" />
		<tag k="water" v="lake" />
	</node>
	<node id="-128282" lat="61.393805553" lon="10.5745722163">
		<tag k="name" v="Tauterslåvika" />
		<tag k="natural" v="bay" />
		<tag k="ssr:stedsnr" v="858353" />
	</node>
	<node id="-128276" lat="61.3282888919" lon="10.4044194462">
		<tag k="name" v="Hundtjønna" />
		<tag k="natural" v="water" />
		<tag k="ssr:stedsnr" v="858306" />
	</node>
	<node id="-128275" lat="61.3104722223" lon="10.4272472146">
		<tag k="name" v="Skåeåa" />
		<tag k="ssr:stedsnr" v="858276" />
		<tag k="waterway" v="stream" />
	</node>
	<node id="-128274" lat="61.3151527735" lon="10.364833327">
		<tag k="name" v="Svarttjønnet" />
		<tag k="natural" v="water" />
		<tag k="ssr:stedsnr" v="858275" />
	</node>
	<node id="-127249" lat="61.2440444417" lon="10.7616972257">
		<tag k="name" v="Augbekken" />
		<tag k="ssr:stedsnr" v="8743" />
		<tag k="waterway" v="stream" />
	</node>
	<node id="-128272" lat="61.2820861121" lon="10.6777722188">
		<tag k="name" v="Gravtjønnet" />
		<tag k="natural" v="water" />
		<tag k="ssr:stedsnr" v="858261" />
	</node>
	<node id="-127247" lat="61.2660861124" lon="10.3662111056">
		<tag k="name" v="Kattåa" />
		<tag k="ssr:stedsnr" v="8516" />
		<tag k="waterway" v="stream" />
	</node>
	<node id="-127756" lat="61.2841527822" lon="10.4374888801">
		<tag k="name" v="Sæterbekken" />
		<tag k="ssr:stedsnr" v="524466" />
		<tag k="waterway" v="stream" />
	</node>
	<node id="-127053" lat="61.3277138917" lon="10.7404944502">
		<tag k="name" v="Søre Bøsætertjønn" />
		<tag k="natural" v="water" />
		<tag k="ssr:stedsnr" v="344829" />
	</node>
	<node id="-128265" lat="61.3268916681" lon="10.2399944377">
		<tag k="name" v="Mustjønnet" />
		<tag k="natural" v="water" />
		<tag k="ssr:stedsnr" v="857951" />
	</node>
	<node id="-127240" lat="61.393950003" lon="10.4374000071">
		<tag k="name" v="Knapptjønnet" />
		<tag k="natural" v="water" />
		<tag k="ssr:stedsnr" v="8347" />
	</node>
	<node id="-128263" lat="61.2486277803" lon="10.7398277704">
		<tag k="name" v="Hornsjøen" />
		<tag k="natural" v="water" />
		<tag k="ssr:stedsnr" v="857736" />
		<tag k="water" v="lake" />
	</node>
	<node id="-128336" lat="61.3463472229" lon="10.646077783">
		<tag k="alt_name" v="Nedreåsta" />
		<tag k="name" v="Ner-Åsta" />
		<tag k="ssr:stedsnr" v="919271" />
		<tag k="waterway" v="river" />
	</node>
	<node id="-128260" lat="61.2389916647" lon="10.5669749976">
		<tag k="alt_name" v="Rautjønnet" />
		<tag k="name" v="Raudtjørnet" />
		<tag k="natural" v="water" />
		<tag k="ssr:stedsnr" v="857163" />
	</node>
	<node id="-127235" lat="61.310122223" lon="10.6214500043">
		<tag k="name" v="Mjøvatnet" />
		<tag k="natural" v="water" />
		<tag k="ssr:stedsnr" v="8301" />
	</node>
	<node id="-127234" lat="61.2433916642" lon="10.462369447">
		<tag k="name" v="Mosåa" />
		<tag k="ssr:stedsnr" v="8155" />
		<tag k="waterway" v="river" />
	</node>
	<node id="-127232" lat="61.2465583297" lon="10.5802666681">
		<tag k="name" v="Hitbekken" />
		<tag k="ssr:stedsnr" v="8142" />
		<tag k="waterway" v="stream" />
	</node>
	<node id="-127740" lat="61.4403861132" lon="10.6124194464">
		<tag k="name" v="Gråurdtjønnbekken" />
		<tag k="ssr:stedsnr" v="524157" />
		<tag k="waterway" v="stream" />
	</node>
	<node id="-128251" lat="61.332891665" lon="10.2228333381">
		<tag k="name" v="Kringeltjønnet" />
		<tag k="natural" v="water" />
		<tag k="ssr:stedsnr" v="847860" />
		<tag k="water" v="pond" />
	</node>
	<node id="-128249" lat="61.2730555518" lon="10.3179611186">
		<tag k="name" v="Gåsøya" />
		<tag k="place" v="island" />
		<tag k="ssr:stedsnr" v="843026" />
	</node>
	<node id="-127736" lat="61.3434944488" lon="10.3446249951">
		<tag k="name" v="Åkvisla" />
		<tag k="ssr:stedsnr" v="519639" />
		<tag k="waterway" v="stream" />
	</node>
	<node id="-127734" lat="61.2613250008" lon="10.7627777784">
		<tag k="alt_name" v="Hynnåa" />
		<tag k="name" v="Hynna" />
		<tag k="ssr:stedsnr" v="495779" />
		<tag k="waterway" v="river" />
	</node>
	<node id="-128245" lat="61.2857888893" lon="10.4625888856">
		<tag k="name" v="Sæterbekken" />
		<tag k="ssr:stedsnr" v="837502" />
		<tag k="waterway" v="stream" />
	</node>
	<node id="-127520" lat="61.3220017264" lon="10.293054307">
		<tag k="name" v="Båtstøtjønnet" />
		<tag k="natural" v="water" />
		<tag k="ssr:stedsnr" v="219933" />
	</node>
	<node id="-127441" lat="61.291386113" lon="10.2791833343">
		<tag k="name" v="Veslefossen" />
		<tag k="ssr:stedsnr" v="160364" />
		<tag k="waterway" v="rapids" />
	</node>
	<node id="-127080" lat="61.3962194412" lon="10.6399194392">
		<tag k="name" v="Jogrimen" />
		<tag k="natural" v="water" />
		<tag k="ssr:stedsnr" v="372343" />
	</node>
	<node id="-127022" lat="61.3902111125" lon="10.5623333256">
		<tag k="name" v="Storøya" />
		<tag k="place" v="island" />
		<tag k="ssr:stedsnr" v="342306" />
	</node>
	<node id="-127380" lat="61.3271999975" lon="10.6733444505">
		<tag k="name" v="Uksbekken" />
		<tag k="ssr:stedsnr" v="102189" />
		<tag k="waterway" v="stream" />
	</node>
	<node id="-128221" lat="61.3459472223" lon="10.4221499998">
		<tag k="name" v="Syddlonan" />
		<tag k="natural" v="water" />
		<tag k="ssr:stedsnr" v="828638" />
		<tag k="water" v="lake" />
	</node>
	<node id="-128219" lat="61.3537833294" lon="10.4383999989">
		<tag k="name" v="Kroklonen" />
		<tag k="natural" v="water" />
		<tag k="ssr:stedsnr" v="828635" />
		<tag k="water" v="lake" />
	</node>
	<node id="-127695" lat="61.2286055525" lon="10.577541664">
		<tag k="alt_name" v="Svarttjønnet" />
		<tag k="name" v="Svarttjørnet" />
		<tag k="natural" v="water" />
		<tag k="ssr:stedsnr" v="493170" />
	</node>
	<node id="-127704" lat="61.3928527751" lon="10.7070416748">
		<tag k="name" v="Saltbelgen" />
		<tag k="natural" v="water" />
		<tag k="ssr:stedsnr" v="493333" />
	</node>
	<node id="-127191" lat="61.2327416711" lon="10.437061112">
		<tag k="loc_name" v="Gudbrandsdalslågen" />
		<tag k="name" v="Lågen" />
		<tag k="ssr:stedsnr" v="129173" />
		<tag k="waterway" v="river" />
	</node>
	<node id="-127702" lat="61.3680250045" lon="10.5567194399">
		<tag k="name" v="Grotjønnet" />
		<tag k="natural" v="water" />
		<tag k="ssr:stedsnr" v="493318" />
	</node>
	<node id="-127516" lat="61.3532527817" lon="10.6123111165">
		<tag k="name" v="Knapptjønna" />
		<tag k="natural" v="water" />
		<tag k="ssr:stedsnr" v="216620" />
	</node>
	<node id="-127185" lat="61.2056722264" lon="10.4411888827">
		<tag k="name" v="Kjærlighetsfossen" />
		<tag k="natural" v="waterfall" />
		<tag k="ssr:stedsnr" v="891571" />
	</node>
	<node id="-128207" lat="61.2007694478" lon="10.4894611116">
		<tag k="alt_name" v="Bagstadåa" />
		<tag k="name" v="Bakstadåa" />
		<tag k="ssr:stedsnr" v="828327" />
		<tag k="waterway" v="stream" />
	</node>
	<node id="-127693" lat="61.2481416675" lon="10.5615222157">
		<tag k="alt_name" v="Rautjønnbekken" />
		<tag k="name" v="Raudtjørnbekken" />
		<tag k="ssr:stedsnr" v="493146" />
		<tag k="waterway" v="stream" />
	</node>
	<node id="-128201" lat="61.3008638925" lon="10.5904277851">
		<tag k="name" v="Brandskjønnbekken" />
		<tag k="ssr:stedsnr" v="823682" />
		<tag k="waterway" v="stream" />
	</node>
	<node id="-127175" lat="61.2575000007" lon="10.735733338">
		<tag k="name" v="Hynnoset" />
		<tag k="natural" v="bay" />
		<tag k="ssr:stedsnr" v="889760" />
	</node>
	<node id="-128197" lat="61.4146333312" lon="10.6055055631">
		<tag k="name" v="Tittertjønna" />
		<tag k="natural" v="water" />
		<tag k="ssr:stedsnr" v="798293" />
	</node>
	<node id="-127679" lat="61.1964361091" lon="10.4374527852">
		<tag k="name" v="Kveskroken" />
		<tag k="place" v="locality" />
		<tag k="ssr:stedsnr" v="466590" />
	</node>
	<node id="-128189" lat="61.2949361156" lon="10.2643027802">
		<tag k="name" v="Musa" />
		<tag k="ssr:stedsnr" v="797762" />
		<tag k="waterway" v="river" />
	</node>
	<node id="-127007" lat="61.3334138906" lon="10.5476166604">
		<tag k="name" v="Brettdalsvatnet" />
		<tag k="natural" v="water" />
		<tag k="ssr:stedsnr" v="312273" />
	</node>
	<node id="-127160" lat="61.2565944451" lon="10.5192472177">
		<tag k="name" v="Kroklon" />
		<tag k="natural" v="water" />
		<tag k="ssr:stedsnr" v="888824" />
		<tag k="water" v="lake" />
	</node>
	<node id="-127092" lat="61.3231444485" lon="10.6001138906">
		<tag k="name" v="Svartbergtjønnet" />
		<tag k="natural" v="water" />
		<tag k="ssr:stedsnr" v="397737" />
	</node>
	<node id="-127670" lat="61.2759472256" lon="10.3416999966">
		<tag k="name" v="Storaurevika" />
		<tag k="natural" v="bay" />
		<tag k="ssr:stedsnr" v="465438" />
	</node>
	<node id="-127157" lat="61.2233527786" lon="10.5311083357">
		<tag k="name" v="Steintjønnet" />
		<tag k="natural" v="water" />
		<tag k="ssr:stedsnr" v="888686" />
	</node>
	<node id="-127006" lat="61.3118555537" lon="10.6956861063">
		<tag k="name" v="Svartdalsbekken" />
		<tag k="ssr:stedsnr" v="312261" />
		<tag k="waterway" v="stream" />
	</node>
	<node id="-127859" lat="61.3271972181" lon="10.3680305591">
		<tag k="name" v="Hundtjønnbekken" />
		<tag k="ssr:stedsnr" v="587304" />
		<tag k="waterway" v="stream" />
	</node>
	<node id="-127124" lat="61.3206861134" lon="10.6242750074">
		<tag k="name" v="Revholbekken" />
		<tag k="ssr:stedsnr" v="405167" />
		<tag k="waterway" v="stream" />
	</node>
	<node id="-127150" lat="61.3665888874" lon="10.5313527847">
		<tag k="name" v="Storodden" />
		<tag k="natural" v="cape" />
		<tag k="ssr:stedsnr" v="888270" />
	</node>
	<node id="-127658" lat="61.2945499998" lon="10.6238388954">
		<tag k="name" v="Elghølen" />
		<tag k="natural" v="water" />
		<tag k="ssr:stedsnr" v="464299" />
		<tag k="water" v="lake" />
	</node>
	<node id="-127144" lat="61.4065972258" lon="10.5392472284">
		<tag k="name" v="Fjelltjønnet" />
		<tag k="natural" v="water" />
		<tag k="ssr:stedsnr" v="884614" />
	</node>
	<node id="-128167" lat="61.2506138919" lon="10.6999916676">
		<tag k="name" v="Storåsbekken" />
		<tag k="ssr:stedsnr" v="796126" />
		<tag k="waterway" v="stream" />
	</node>
	<node id="-127345" lat="61.3688222226" lon="10.4120194453">
		<tag k="name" v="Ståkåmyrtjønnet" />
		<tag k="natural" v="water" />
		<tag k="ssr:stedsnr" v="94654" />
	</node>
	<node id="-128161" lat="61.3498222239" lon="10.5870027841">
		<tag k="name" v="Akksjøkjølla" />
		<tag k="ssr:stedsnr" v="786465" />
		<tag k="waterway" v="stream" />
	</node>
	<node id="-128160" lat="61.3512944478" lon="10.5482388963">
		<tag k="name" v="Vatn-tjønna" />
		<tag k="natural" v="water" />
		<tag k="ssr:stedsnr" v="786455" />
	</node>
	<node id="-127645" lat="61.3550027748" lon="10.3219111157">
		<tag k="name" v="Glømmebekken" />
		<tag k="ssr:stedsnr" v="433967" />
		<tag k="waterway" v="stream" />
	</node>
	<node id="-127641" lat="61.2894361114" lon="10.3240972283">
		<tag k="name" v="Rinda" />
		<tag k="ssr:stedsnr" v="433778" />
		<tag k="waterway" v="stream" />
	</node>
	<node id="-128150" lat="61.2766111075" lon="10.3492250058">
		<tag k="name" v="Vesleaurevika" />
		<tag k="natural" v="bay" />
		<tag k="ssr:stedsnr" v="769467" />
	</node>
	<node id="-127190" lat="61.2299055517" lon="10.8304638946">
		<tag k="name" v="Åsta" />
		<tag k="ssr:stedsnr" v="736725" />
		<tag k="waterway" v="river" />
	</node>
	<node id="-128148" lat="61.295605556" lon="10.6833111101">
		<tag k="name" v="Vesle-Auge" />
		<tag k="natural" v="water" />
		<tag k="ssr:stedsnr" v="769317" />
	</node>
	<node id="-126984" lat="61.3358111134" lon="10.5819777749">
		<tag k="name" v="Bokketjønnan" />
		<tag k="natural" v="water" />
		<tag k="ssr:stedsnr" v="300582" />
	</node>
	<node id="-127121" lat="61.3656222189" lon="10.4141388917">
		<tag k="name" v="Flatsætertjønnet" />
		<tag k="natural" v="water" />
		<tag k="ssr:stedsnr" v="405071" />
	</node>
	<node id="-127120" lat="61.2576333325" lon="10.5227111179">
		<tag k="name" v="Mosåa" />
		<tag k="ssr:stedsnr" v="403848" />
		<tag k="waterway" v="river" />
	</node>
	<node id="-127118" lat="61.3624833352" lon="10.183436114">
		<tag k="name" v="Martintjønnet" />
		<tag k="natural" v="water" />
		<tag k="ssr:stedsnr" v="403843" />
	</node>
	<node id="-127117" lat="61.3436694467" lon="10.3495694504">
		<tag k="name" v="Kjerringhølen" />
		<tag k="natural" v="water" />
		<tag k="ssr:stedsnr" v="403829" />
		<tag k="water" v="lake" />
	</node>
	<node id="-127116" lat="61.2522499964" lon="10.739655561">
		<tag k="name" v="Killingholmen" />
		<tag k="place" v="islet" />
		<tag k="ssr:stedsnr" v="403761" />
	</node>
	<node id="-127624" lat="61.2951000005" lon="10.5144583281">
		<tag k="name" v="Storåsbekken" />
		<tag k="ssr:stedsnr" v="433274" />
		<tag k="waterway" v="stream" />
	</node>
	<node id="-127084" lat="61.3571476622" lon="10.7639566073">
		<tag k="alt_name" v="Lyngtjørna, vestre" />
		<tag k="name" v="Vestre Lyngtjørna" />
		<tag k="natural" v="water" />
		<tag k="ssr:stedsnr" v="372429" />
	</node>
	<node id="-128134" lat="61.2358861118" lon="10.5627944514">
		<tag k="name" v="Høgåsbekken" />
		<tag k="ssr:stedsnr" v="767646" />
		<tag k="waterway" v="stream" />
	</node>
	<node id="-128131" lat="61.2729083374" lon="10.5737750078">
		<tag k="name" v="Imerttjønnet" />
		<tag k="natural" v="water" />
		<tag k="ssr:stedsnr" v="767622" />
	</node>
	<node id="-126943" lat="61.2593111079" lon="10.4176722309">
		<tag k="name" v="Jevnefjorden" />
		<tag k="place" v="locality" />
		<tag k="ssr:stedsnr" v="282420" />
	</node>
	<node id="-127103" lat="61.3911138905" lon="10.5664416653">
		<tag k="name" v="Hatten" />
		<tag k="place" v="islet" />
		<tag k="ssr:stedsnr" v="403306" />
	</node>
	<node id="-128126" lat="61.2736036906" lon="10.394083292">
		<tag k="alt_name" v="Kramprudsvika" />
		<tag k="name" v="Kramperudsvika" />
		<tag k="natural" v="bay" />
		<tag k="ssr:stedsnr" v="767418" />
	</node>
	<node id="-127101" lat="61.3983277771" lon="10.5693499951">
		<tag k="name" v="Kjøllbekken" />
		<tag k="ssr:stedsnr" v="403298" />
		<tag k="waterway" v="stream" />
	</node>
	<node id="-127167" lat="61.2585111132" lon="10.5725527794">
		<tag k="name" v="Moksjøbekken" />
		<tag k="ssr:stedsnr" v="889323" />
		<tag k="waterway" v="stream" />
	</node>
	<node id="-128119" lat="61.3674444454" lon="10.2820277702">
		<tag k="name" v="Mågålineset" />
		<tag k="natural" v="cape" />
		<tag k="ssr:stedsnr" v="767275" />
	</node>
	<node id="-128117" lat="61.3507833329" lon="10.2537833287">
		<tag k="name" v="Botterudbekken" />
		<tag k="ssr:stedsnr" v="767218" />
		<tag k="waterway" v="stream" />
	</node>
	<node id="-128116" lat="61.3591249961" lon="10.2862694463">
		<tag k="name" v="Sagodden" />
		<tag k="natural" v="cape" />
		<tag k="ssr:stedsnr" v="767201" />
	</node>
	<node id="-127091" lat="61.2791222227" lon="10.5925527864">
		<tag k="name" v="Smiltjønnet" />
		<tag k="natural" v="water" />
		<tag k="ssr:stedsnr" v="397718" />
	</node>
	<node id="-127602" lat="61.3618394381" lon="10.7806615259">
		<tag k="alt_name" v="Lyngtjørna, østre" />
		<tag k="name" v="Østre Lyngtjørna" />
		<tag k="natural" v="water" />
		<tag k="ssr:stedsnr" v="251425" />
	</node>
	<node id="-127763" lat="61.3548055571" lon="10.4571305547">
		<tag k="name" v="Storlonen" />
		<tag k="natural" v="water" />
		<tag k="ssr:stedsnr" v="524623" />
		<tag k="water" v="lake" />
	</node>
	<node id="-127600" lat="61.421147223" lon="10.6576444418">
		<tag k="name" v="Skardtjønnet" />
		<tag k="natural" v="water" />
		<tag k="ssr:stedsnr" v="251362" />
	</node>
	<node id="-127599" lat="61.3895305574" lon="10.686249995">
		<tag k="alt_name" v="Åstavatnet, øvre;Øver-Åstvatnet" />
		<tag k="name" v="Øvre Åstavatnet" />
		<tag k="natural" v="water" />
		<tag k="ssr:stedsnr" v="251354" />
		<tag k="water" v="lake" />
	</node>
	<node id="-127598" lat="61.3653722205" lon="10.5268222167">
		<tag k="alt_name" v="Grunnesvatnet" />
		<tag k="name" v="Grunnvatnet" />
		<tag k="natural" v="water" />
		<tag k="ssr:stedsnr" v="251342" />
		<tag k="water" v="lake" />
	</node>
	<node id="-127085" lat="61.2571499973" lon="10.5425055637">
		<tag k="alt_name" v="Moksjøen, nedre" />
		<tag k="name" v="Nedre Moksjøen" />
		<tag k="natural" v="water" />
		<tag k="ssr:stedsnr" v="372486" />
	</node>
	<node id="-127596" lat="61.3785397315" lon="10.6098945638">
		<tag k="alt_name" v="Åstavatnet, nedre;Ner-Åstvatnet" />
		<tag k="name" v="Nedre Åstavatnet" />
		<tag k="natural" v="water" />
		<tag k="ssr:stedsnr" v="251332" />
		<tag k="water" v="lake" />
	</node>
	<node id="-127762" lat="61.2487416689" lon="10.5042944356">
		<tag k="name" v="Søre Slåbekken" />
		<tag k="ssr:stedsnr" v="524619" />
		<tag k="waterway" v="stream" />
	</node>
	<node id="-128106" lat="61.3435611082" lon="10.6805944453">
		<tag k="name" v="Lorttjønnet" />
		<tag k="natural" v="water" />
		<tag k="ssr:stedsnr" v="762721" />
	</node>
	<node id="-127081" lat="61.3919129438" lon="10.5606687498">
		<tag k="name" v="Goppollvatnet" />
		<tag k="natural" v="water" />
		<tag k="ssr:stedsnr" v="372347" />
		<tag k="water" v="lake" />
	</node>
	<node id="-128104" lat="61.3926861149" lon="10.4000444514">
		<tag k="name" v="Klufttjønnet" />
		<tag k="natural" v="water" />
		<tag k="ssr:stedsnr" v="762621" />
	</node>
	<node id="-127079" lat="61.410472223" lon="10.6610861147">
		<tag k="name" v="Skjeltjønnet" />
		<tag k="natural" v="water" />
		<tag k="ssr:stedsnr" v="372338" />
	</node>
	<node id="-127078" lat="61.3689303171" lon="10.5887500696">
		<tag k="name" v="Djupen" />
		<tag k="natural" v="water" />
		<tag k="ssr:stedsnr" v="372328" />
		<tag k="water" v="lake" />
	</node>
	<node id="-127077" lat="61.3772388929" lon="10.4578000063">
		<tag k="alt_name" v="Våsjøen" />
		<tag k="name" v="Vålsjøen" />
		<tag k="natural" v="water" />
		<tag k="ssr:stedsnr" v="372325" />
		<tag k="water" v="lake" />
	</node>
	<node id="-127410" lat="61.2341972225" lon="10.6930138875">
		<tag k="name" v="Kruggrenna" />
		<tag k="ssr:stedsnr" v="129166" />
		<tag k="waterway" v="stream" />
	</node>
	<node id="-127075" lat="61.3154305546" lon="10.6408138911">
		<tag k="name" v="Gorrtjønnet" />
		<tag k="natural" v="water" />
		<tag k="ssr:stedsnr" v="372294" />
	</node>
	<node id="-127073" lat="61.2900611118" lon="10.6034888858">
		<tag k="name" v="Gåssjøen" />
		<tag k="natural" v="water" />
		<tag k="ssr:stedsnr" v="372275" />
	</node>
	<node id="-127072" lat="61.2434861111" lon="10.6970166668">
		<tag k="name" v="Midtbekken" />
		<tag k="ssr:stedsnr" v="432126" />
		<tag k="waterway" v="stream" />
	</node>
	<node id="-127061" lat="61.3592333366" lon="10.4903111108">
		<tag k="name" v="Lånkebulona" />
		<tag k="natural" v="water" />
		<tag k="ssr:stedsnr" v="361499" />
		<tag k="water" v="lake" />
	</node>
	<node id="-128084" lat="61.398361111" lon="10.4303361052">
		<tag k="name" v="Skardtjønnan" />
		<tag k="natural" v="water" />
		<tag k="ssr:stedsnr" v="736315" />
	</node>
	<node id="-128081" lat="61.3195166624" lon="10.5362472219">
		<tag k="name" v="Keiktjønnet" />
		<tag k="natural" v="water" />
		<tag k="ssr:stedsnr" v="736302" />
	</node>
	<node id="-128080" lat="61.352291664" lon="10.6856444503">
		<tag k="name" v="Høvrebutjønnet" />
		<tag k="natural" v="water" />
		<tag k="ssr:stedsnr" v="736300" />
	</node>
	<node id="-128079" lat="61.2975083297" lon="10.6751999947">
		<tag k="alt_name" v="Stor-Auge" />
		<tag k="name" v="Augan" />
		<tag k="natural" v="water" />
		<tag k="ssr:stedsnr" v="736294" />
	</node>
	<node id="-127566" lat="61.2890388883" lon="10.4499194498">
		<tag k="name" v="Klukkerhølet" />
		<tag k="place" v="locality" />
		<tag k="ssr:stedsnr" v="231588" />
	</node>
	<node id="-128077" lat="61.2976749982" lon="10.6631666678">
		<tag k="name" v="Gjæsa" />
		<tag k="ssr:stedsnr" v="736263" />
		<tag k="waterway" v="river" />
	</node>
	<node id="-128075" lat="61.2292722183" lon="10.6378166722">
		<tag k="name" v="Kriksbekken" />
		<tag k="ssr:stedsnr" v="736164" />
		<tag k="waterway" v="stream" />
	</node>
	<node id="-127017" lat="61.2672972228" lon="10.6344250056">
		<tag k="name" v="Haugstjønna" />
		<tag k="natural" v="water" />
		<tag k="ssr:stedsnr" v="337712" />
	</node>
	<node id="-127558" lat="61.3676277745" lon="10.3310305562">
		<tag k="name" v="Raumyrkroken" />
		<tag k="place" v="locality" />
		<tag k="ssr:stedsnr" v="223334" />
	</node>
	<node id="-127045" lat="61.2019750041" lon="10.422372224">
		<tag k="name" v="Dølkjøylla" />
		<tag k="natural" v="spring" />
		<tag k="ssr:stedsnr" v="344586" />
	</node>
	<node id="-128068" lat="61.3572555599" lon="10.1826388905">
		<tag k="name" v="Knapptjønnet" />
		<tag k="natural" v="water" />
		<tag k="ssr:stedsnr" v="725816" />
	</node>
	<node id="-127158" lat="61.3095277739" lon="10.3742638866">
		<tag k="name" v="Svarttjønnet" />
		<tag k="natural" v="water" />
		<tag k="ssr:stedsnr" v="888771" />
	</node>
	<node id="-127153" lat="61.2747916676" lon="10.4165416597">
		<tag k="name" v="Hovsåa" />
		<tag k="ssr:stedsnr" v="888387" />
		<tag k="waterway" v="stream" />
	</node>
	<node id="-127036" lat="61.3754027759" lon="10.4461861059">
		<tag k="name" v="Kjøllåsbekken" />
		<tag k="ssr:stedsnr" v="344063" />
		<tag k="waterway" v="stream" />
	</node>
	<node id="-127035" lat="61.3794972267" lon="10.4547055601">
		<tag k="name" v="Nørdre Sundhaugen" />
		<tag k="place" v="island" />
		<tag k="ssr:stedsnr" v="344060" />
	</node>
	<node id="-127545" lat="61.260711112" lon="10.6946277823">
		<tag k="name" v="Koltjønnbekken" />
		<tag k="ssr:stedsnr" v="223514" />
		<tag k="waterway" v="stream" />
	</node>
	<node id="-127544" lat="61.4013111127" lon="10.4974861054">
		<tag k="name" v="Laukamsbekken" />
		<tag k="ssr:stedsnr" v="221980" />
		<tag k="waterway" v="stream" />
	</node>
	<node id="-127031" lat="61.347524999" lon="10.342797213">
		<tag k="name" v="Nedre Åkvislebekken" />
		<tag k="ssr:stedsnr" v="342791" />
		<tag k="waterway" v="stream" />
	</node>
	<node id="-127030" lat="61.2450222215" lon="10.7352500013">
		<tag k="name" v="Vassenden" />
		<tag k="natural" v="bay" />
		<tag k="ssr:stedsnr" v="342720" />
	</node>
	<node id="-127540" lat="61.3458805531" lon="10.3483916696">
		<tag k="name" v="Øvre Åkvislebekken" />
		<tag k="ssr:stedsnr" v="221800" />
		<tag k="waterway" v="stream" />
	</node>
	<node id="-127537" lat="61.2529916707" lon="10.5121027734">
		<tag k="name" v="Nørdre Slåbekken" />
		<tag k="ssr:stedsnr" v="221588" />
		<tag k="waterway" v="stream" />
	</node>
	<node id="-127023" lat="61.3999083323" lon="10.5496694476">
		<tag k="name" v="Uksbåsbekken" />
		<tag k="ssr:stedsnr" v="342305" />
		<tag k="waterway" v="stream" />
	</node>
	<node id="-127534" lat="61.2804833295" lon="10.4447277854">
		<tag k="name" v="Finnsbekken" />
		<tag k="ssr:stedsnr" v="221499" />
		<tag k="waterway" v="stream" />
	</node>
	<node id="-127531" lat="61.2213861073" lon="10.5501027753">
		<tag k="name" v="Stulsbekken" />
		<tag k="ssr:stedsnr" v="221324" />
		<tag k="waterway" v="stream" />
	</node>
	<node id="-127239" lat="61.3992777746" lon="10.6208583384">
		<tag k="name" v="Titterbekken" />
		<tag k="ssr:stedsnr" v="8341" />
		<tag k="waterway" v="stream" />
	</node>
	<node id="-127016" lat="61.4098805516" lon="10.5444500002">
		<tag k="name" v="Fjellbekken" />
		<tag k="ssr:stedsnr" v="342904" />
		<tag k="waterway" v="stream" />
	</node>
	<node id="-127527" lat="61.2234444454" lon="10.4867722305">
		<tag k="name" v="Stubberudbekken" />
		<tag k="ssr:stedsnr" v="221305" />
		<tag k="waterway" v="stream" />
	</node>
	<node id="-128037" lat="61.2753361081" lon="10.4483916737">
		<tag k="name" v="Norsebekkhølet" />
		<tag k="place" v="locality" />
		<tag k="ssr:stedsnr" v="707531" />
	</node>
	<node id="-127523" lat="61.3744444461" lon="10.4843722209">
		<tag k="name" v="Knarkebakktjønnet" />
		<tag k="natural" v="water" />
		<tag k="ssr:stedsnr" v="221276" />
	</node>
	<node id="-127009" lat="61.33161111" lon="10.4547638942">
		<tag k="name" v="Skåetjønna" />
		<tag k="natural" v="water" />
		<tag k="ssr:stedsnr" v="312287" />
	</node>
	<node id="-128032" lat="61.3463638914" lon="10.2596833357">
		<tag k="name" v="Kvennbekken" />
		<tag k="ssr:stedsnr" v="707269" />
		<tag k="waterway" v="stream" />
	</node>
	<node id="-127408" lat="61.2367750046" lon="10.4002638799">
		<tag k="alt_name" v="Rundvatnet" />
		<tag k="name" v="Brånåtjørnet" />
		<tag k="natural" v="water" />
		<tag k="ssr:stedsnr" v="129162" />
	</node>
	<node id="-128030" lat="61.3507138911" lon="10.2728527806">
		<tag k="name" v="Botterudodden" />
		<tag k="natural" v="cape" />
		<tag k="ssr:stedsnr" v="707253" />
	</node>
	<node id="-128261" lat="61.2171694448" lon="10.6197194421">
		<tag k="alt_name" v="Holman" />
		<tag k="name" v="Holma" />
		<tag k="place" v="islet" />
		<tag k="ssr:stedsnr" v="857185" />
	</node>
	<node id="-128028" lat="61.2548388892" lon="10.4953944361">
		<tag k="name" v="Storfallet" />
		<tag k="natural" v="waterfall" />
		<tag k="ssr:stedsnr" v="706839" />
	</node>
	<node id="-127322" lat="61.335913893" lon="10.2391361037">
		<tag k="name" v="Kverntjønnet" />
		<tag k="natural" v="water" />
		<tag k="ssr:stedsnr" v="68947" />
	</node>
	<node id="-128025" lat="61.3016694477" lon="10.4049666644">
		<tag k="name" v="Skåeåa" />
		<tag k="ssr:stedsnr" v="706770" />
		<tag k="waterway" v="stream" />
	</node>
	<node id="-127236" lat="61.3112972267" lon="10.3570111095">
		<tag k="name" v="Rindtjønnet" />
		<tag k="natural" v="water" />
		<tag k="ssr:stedsnr" v="8305" />
	</node>
	<node id="-127510" lat="61.3769416629" lon="10.2557083297">
		<tag k="name" v="Losna" />
		<tag k="natural" v="water" />
		<tag k="ssr:stedsnr" v="190995" />
		<tag k="water" v="lake" />
	</node>
	<node id="-127500" lat="61.276058332" lon="10.5019222174">
		<tag k="name" v="Mattisbekken" />
		<tag k="ssr:stedsnr" v="190511" />
		<tag k="waterway" v="stream" />
	</node>
	<node id="-127498" lat="61.4529555537" lon="10.6984638812">
		<tag k="name" v="Glømmebekken" />
		<tag k="ssr:stedsnr" v="190349" />
		<tag k="waterway" v="stream" />
	</node>
	<node id="-128009" lat="61.2841305544" lon="10.3396583414">
		<tag k="name" v="Igletjønnet" />
		<tag k="natural" v="water" />
		<tag k="ssr:stedsnr" v="676754" />
	</node>
	<node id="-128008" lat="61.2982388902" lon="10.2244333294">
		<tag k="alt_name" v="Blesse-bekken" />
		<tag k="name" v="Blesumbekken" />
		<tag k="ssr:stedsnr" v="676753" />
		<tag k="waterway" v="stream" />
	</node>
	<node id="-127495" lat="61.4029277747" lon="10.5053916653">
		<tag k="name" v="Tromstjønnet" />
		<tag k="natural" v="water" />
		<tag k="ssr:stedsnr" v="190324" />
	</node>
	<node id="-128005" lat="61.4133000005" lon="10.5876388874">
		<tag k="name" v="Tautertjønnet" />
		<tag k="natural" v="water" />
		<tag k="ssr:stedsnr" v="676334" />
	</node>
	<node id="-127492" lat="61.3064222254" lon="10.6528555487">
		<tag k="name" v="Helgetjønnet" />
		<tag k="natural" v="water" />
		<tag k="ssr:stedsnr" v="190273" />
	</node>
</osm>
