<?xml version="1.0" encoding="UTF-8"?>
<osm version="0.6" generator="osmapis">
	<node id="86002386" lat="62.1450799" lon="6.0667731" version="9" timestamp="2022-08-18T16:32:46Z" changeset="125070030" uid="3497659" user="NKA">
		<tag k="name" v="Volda" />
		<tag k="place" v="town" />
		<tag k="population" v="6817" />
		<tag k="population:date" v="2021-01-01" />
		<tag k="ref:ssb_tettsted" v="6071" />
		<tag k="source:population" v="SSB - befolkning i tettstedet" />
		<tag k="ssr:stedsnr" v="314796" />
	</node>
	<node id="451967881" lat="61.9743535" lon="6.5250604" version="3" timestamp="2022-08-18T16:32:46Z" changeset="125070030" uid="3497659" user="NKA">
		<tag k="name" v="Hornindal" />
		<tag k="place" v="hamlet" />
		<tag k="ssr:stedsnr" v="759662" />
	</node>
	<node id="1334311925" lat="62.0339594" lon="6.4116217" version="2" timestamp="2022-08-18T16:32:46Z" changeset="125070030" uid="3497659" user="NKA">
		<tag k="name" v="Kalvatn" />
		<tag k="place" v="hamlet" />
		<tag k="ssr:stedsnr" v="324171" />
	</node>
	<node id="1334318107" lat="61.9665802" lon="6.5252984" version="6" timestamp="2022-08-18T16:32:46Z" changeset="125070030" uid="3497659" user="NKA">
		<tag k="name" v="Grodås" />
		<tag k="place" v="village" />
		<tag k="population" v="490" />
		<tag k="population:date" v="2021-01-01" />
		<tag k="ref:ssb_tettsted" v="5711" />
		<tag k="source:population" v="SSB - befolkning i tettstedet" />
		<tag k="ssr:stedsnr" v="10911" />
	</node>
	<node id="2278940781" lat="61.9822536" lon="6.4481418" version="2" timestamp="2022-08-18T16:32:46Z" changeset="125070030" uid="3497659" user="NKA">
		<tag k="name" v="Otterdal" />
		<tag k="place" v="hamlet" />
		<tag k="ssr:stedsnr" v="313891" />
	</node>
	<node id="2278940782" lat="61.9740578" lon="6.5116052" version="2" timestamp="2022-08-18T16:32:46Z" changeset="125070030" uid="3497659" user="NKA">
		<tag k="name" v="Ytrehorne" />
		<tag k="place" v="hamlet" />
		<tag k="ssr:stedsnr" v="875163" />
	</node>
	<node id="3154694350" lat="62.1645472" lon="5.9409034" version="2" timestamp="2022-08-18T16:32:46Z" changeset="125070030" uid="3497659" user="NKA">
		<tag k="name" v="Lauvstad" />
		<tag k="place" v="village" />
		<tag k="ssr:stedsnr" v="132028" />
	</node>
	<node id="3716069438" lat="61.9862493" lon="6.2868145" version="2" timestamp="2022-08-18T16:32:46Z" changeset="125070030" uid="3497659" user="NKA">
		<tag k="historic" v="shieling" />
		<tag k="name" v="Grøndalsstølen" />
		<tag k="place" v="hamlet" />
		<tag k="ssr:stedsnr" v="529093" />
	</node>
	<node id="3717336843" lat="62.1043424" lon="6.5533915" version="3" timestamp="2022-08-18T16:32:46Z" changeset="125070030" uid="3497659" user="NKA">
		<tag k="name" v="Bjørke" />
		<tag k="place" v="village" />
		<tag k="ssr:stedsnr" v="495656" />
	</node>
	<node id="3717339150" lat="62.1065544" lon="6.5638448" version="2" timestamp="2022-08-18T16:32:46Z" changeset="125070030" uid="3497659" user="NKA">
		<tag k="name" v="Åkre" />
		<tag k="place" v="hamlet" />
		<tag k="ssr:stedsnr" v="71703" />
	</node>
	<node id="4813871262" lat="62.2200939" lon="5.9385728" version="2" timestamp="2022-08-18T16:32:46Z" changeset="125070030" uid="3497659" user="NKA">
		<tag k="name" v="Birkenes" />
		<tag k="place" v="hamlet" />
		<tag k="ssr:stedsnr" v="468605" />
	</node>
	<node id="5772960537" lat="62.0566786" lon="6.3913372" version="2" timestamp="2022-08-18T16:32:46Z" changeset="125070030" uid="3497659" user="NKA">
		<tag k="alt_name" v="Vindåsen" />
		<tag k="name" v="Vindsåsen" />
		<tag k="place" v="farm" />
		<tag k="ssr:stedsnr" v="678719" />
	</node>
	<node id="5772960538" lat="62.0625836" lon="6.3668536" version="2" timestamp="2022-08-18T16:32:46Z" changeset="125070030" uid="3497659" user="NKA">
		<tag k="name" v="Hjellbakkane" />
		<tag k="place" v="farm" />
		<tag k="ssr:stedsnr" v="860759" />
	</node>
	<node id="5772960539" lat="62.0609821" lon="6.376054" version="2" timestamp="2022-08-18T16:32:46Z" changeset="125070030" uid="3497659" user="NKA">
		<tag k="name" v="Nes" />
		<tag k="place" v="hamlet" />
		<tag k="ssr:stedsnr" v="254680" />
	</node>
	<node id="5772960540" lat="62.060903" lon="6.384298" version="2" timestamp="2022-08-18T16:32:46Z" changeset="125070030" uid="3497659" user="NKA">
		<tag k="name" v="Langvatn" />
		<tag k="place" v="hamlet" />
		<tag k="ssr:stedsnr" v="861712" />
	</node>
	<node id="5838358845" lat="62.1189521" lon="6.5472539" version="2" timestamp="2022-08-18T16:32:46Z" changeset="125070030" uid="3497659" user="NKA">
		<tag k="name" v="Finnes" />
		<tag k="place" v="hamlet" />
		<tag k="ssr:stedsnr" v="254640" />
	</node>
	<node id="5838358846" lat="62.0689686" lon="6.4685914" version="2" timestamp="2022-08-18T16:32:46Z" changeset="125070030" uid="3497659" user="NKA">
		<tag k="name" v="Skjåstad" />
		<tag k="place" v="hamlet" />
		<tag k="ssr:stedsnr" v="132731" />
	</node>
	<node id="5838358847" lat="62.0941462" lon="6.5379143" version="2" timestamp="2022-08-18T16:32:46Z" changeset="125070030" uid="3497659" user="NKA">
		<tag k="name" v="Ner-Saure" />
		<tag k="place" v="farm" />
		<tag k="ssr:stedsnr" v="263520" />
	</node>
	<node id="5838358848" lat="62.0908258" lon="6.5345408" version="2" timestamp="2022-08-18T16:32:46Z" changeset="125070030" uid="3497659" user="NKA">
		<tag k="name" v="Fram-Saure" />
		<tag k="place" v="hamlet" />
		<tag k="ssr:stedsnr" v="860691" />
	</node>
	<node id="5838358849" lat="62.1356583" lon="6.6743" version="2" timestamp="2022-08-18T16:32:46Z" changeset="125070030" uid="3497659" user="NKA">
		<tag k="historic" v="shieling" />
		<tag k="name" v="Viddalssætra" />
		<tag k="place" v="isolated_dwelling" />
		<tag k="ssr:stedsnr" v="72652" />
	</node>
	<node id="5838358850" lat="62.1400683" lon="6.6151315" version="2" timestamp="2022-08-18T16:32:46Z" changeset="125070030" uid="3497659" user="NKA">
		<tag k="name" v="Viddal" />
		<tag k="place" v="hamlet" />
		<tag k="ssr:stedsnr" v="72661" />
	</node>
	<node id="5838358851" lat="62.1219682" lon="6.5860008" version="2" timestamp="2022-08-18T16:32:46Z" changeset="125070030" uid="3497659" user="NKA">
		<tag k="name" v="Leira" />
		<tag k="place" v="hamlet" />
		<tag k="ssr:stedsnr" v="921692" />
	</node>
	<node id="6214191506" lat="62.0623208" lon="6.326219" version="2" timestamp="2022-08-18T16:32:46Z" changeset="125070030" uid="3497659" user="NKA">
		<tag k="alt_name" v="Austefjorden" />
		<tag k="name" v="Fyrde" />
		<tag k="place" v="village" />
		<tag k="ssr:stedsnr" v="617753" />
	</node>
	<node id="6858950906" lat="62.1676083" lon="6.0341615" version="2" timestamp="2022-01-26T07:34:57Z" changeset="116611763" uid="3497659" user="NKA">
		<tag k="junction" v="yes" />
		<tag k="name" v="Korsen" />
		<tag k="ssr:stedsnr" v="96927" />
	</node>
	<node id="7102203033" lat="62.1674455" lon="6.0332236" version="4" timestamp="2022-08-18T16:32:46Z" changeset="125070030" uid="3497659" user="NKA">
		<tag k="name" v="Mork" />
		<tag k="place" v="village" />
		<tag k="population" v="475" />
		<tag k="population:date" v="2021-01-01" />
		<tag k="ref:ssb_tettsted" v="6072" />
		<tag k="source:population" v="SSB - befolkning i tettstedet" />
		<tag k="ssr:stedsnr" v="617054" />
	</node>
	<node id="7188357732" lat="62.1186316" lon="6.0329471" version="9" timestamp="2022-08-18T16:32:46Z" changeset="125070030" uid="3497659" user="NKA">
		<tag k="name" v="Folkestad" />
		<tag k="place" v="village" />
		<tag k="ssr:stedsnr" v="435791" />
	</node>
	<node id="9961924185" lat="62.0098361" lon="6.0414753" version="1" timestamp="2022-08-18T16:32:46Z" changeset="125070030" uid="3497659" user="NKA">
		<tag k="name" v="Trondebakken" />
		<tag k="place" v="farm" />
		<tag k="ssr:stedsnr" v="374974" />
	</node>
	<node id="9961924186" lat="61.9916223" lon="6.0834253" version="1" timestamp="2022-08-18T16:32:46Z" changeset="125070030" uid="3497659" user="NKA">
		<tag k="name" v="Løbakk" />
		<tag k="place" v="farm" />
		<tag k="ssr:stedsnr" v="566327" />
	</node>
	<node id="9961924187" lat="62.1179291" lon="5.9292652" version="1" timestamp="2022-08-18T16:32:46Z" changeset="125070030" uid="3497659" user="NKA">
		<tag k="name" v="Dravlauslida" />
		<tag k="place" v="farm" />
		<tag k="ssr:stedsnr" v="435785" />
	</node>
	<node id="9961924188" lat="62.0572387" lon="6.3324965" version="1" timestamp="2022-08-18T16:32:46Z" changeset="125070030" uid="3497659" user="NKA">
		<tag k="name" v="Holebø" />
		<tag k="place" v="farm" />
		<tag k="ssr:stedsnr" v="581967" />
	</node>
	<node id="9961924189" lat="62.1515711" lon="6.1562314" version="1" timestamp="2022-08-18T16:32:46Z" changeset="125070030" uid="3497659" user="NKA">
		<tag k="name" v="Fremmerlida" />
		<tag k="place" v="hamlet" />
		<tag k="ssr:stedsnr" v="678793" />
	</node>
	<node id="9961924190" lat="62.1146917" lon="5.9413419" version="1" timestamp="2022-08-18T16:32:46Z" changeset="125070030" uid="3497659" user="NKA">
		<tag k="name" v="Garden" />
		<tag k="place" v="farm" />
		<tag k="ssr:stedsnr" v="374869" />
	</node>
	<node id="9961924191" lat="61.9579111" lon="6.526164" version="1" timestamp="2022-08-18T16:32:46Z" changeset="125070030" uid="3497659" user="NKA">
		<tag k="historic" v="shieling" />
		<tag k="name" v="Vikasætra" />
		<tag k="place" v="isolated_dwelling" />
		<tag k="ssr:stedsnr" v="70878" />
	</node>
	<node id="9961924192" lat="61.9854549" lon="6.5028735" version="1" timestamp="2022-08-18T16:32:46Z" changeset="125070030" uid="3497659" user="NKA">
		<tag k="name" v="Litlestøylen" />
		<tag k="place" v="hamlet" />
		<tag k="ssr:stedsnr" v="617262" />
	</node>
	<node id="9961924193" lat="62.0058611" lon="6.080003" version="1" timestamp="2022-08-18T16:32:46Z" changeset="125070030" uid="3497659" user="NKA">
		<tag k="name" v="Austheim" />
		<tag k="place" v="farm" />
		<tag k="ssr:stedsnr" v="678943" />
	</node>
	<node id="9961924194" lat="62.030175" lon="6.3990308" version="1" timestamp="2022-08-18T16:32:46Z" changeset="125070030" uid="3497659" user="NKA">
		<tag k="name" v="Bøen" />
		<tag k="place" v="farm" />
		<tag k="ssr:stedsnr" v="35967" />
	</node>
	<node id="9961924195" lat="62.1490765" lon="6.1373202" version="1" timestamp="2022-08-18T16:32:46Z" changeset="125070030" uid="3497659" user="NKA">
		<tag k="name" v="Bakkane" />
		<tag k="place" v="farm" />
		<tag k="ssr:stedsnr" v="824965" />
	</node>
	<node id="9961924196" lat="61.9813528" lon="6.3200808" version="1" timestamp="2022-08-18T16:32:46Z" changeset="125070030" uid="3497659" user="NKA">
		<tag k="historic" v="shieling" />
		<tag k="name" v="Osdalssætra" />
		<tag k="place" v="isolated_dwelling" />
		<tag k="ssr:stedsnr" v="920878" />
	</node>
	<node id="9961924197" lat="62.0849083" lon="6.4467919" version="1" timestamp="2022-08-18T16:32:46Z" changeset="125070030" uid="3497659" user="NKA">
		<tag k="historic" v="shieling" />
		<tag k="name" v="Bjørkesætra" />
		<tag k="place" v="isolated_dwelling" />
		<tag k="ssr:stedsnr" v="921650" />
	</node>
	<node id="9961924198" lat="62.0657257" lon="6.2641517" version="1" timestamp="2022-08-18T16:32:46Z" changeset="125070030" uid="3497659" user="NKA">
		<tag k="name" v="Håvika" />
		<tag k="place" v="hamlet" />
		<tag k="ssr:stedsnr" v="435758" />
	</node>
	<node id="9961924199" lat="61.9631438" lon="6.5192642" version="1" timestamp="2022-08-18T16:32:46Z" changeset="125070030" uid="3497659" user="NKA">
		<tag k="alt_name" v="Svor, in" />
		<tag k="name" v="Indre Svor" />
		<tag k="place" v="farm" />
		<tag k="ssr:stedsnr" v="192909" />
	</node>
	<node id="9961924200" lat="62.0055973" lon="5.9986198" version="1" timestamp="2022-08-18T16:32:46Z" changeset="125070030" uid="3497659" user="NKA">
		<tag k="historic" v="shieling" />
		<tag k="name" v="Laurdalssætra" />
		<tag k="place" v="isolated_dwelling" />
		<tag k="ssr:stedsnr" v="739938" />
	</node>
	<node id="9961924201" lat="61.9987827" lon="6.6175569" version="1" timestamp="2022-08-18T16:32:46Z" changeset="125070030" uid="3497659" user="NKA">
		<tag k="name" v="Solheim" />
		<tag k="place" v="farm" />
		<tag k="ssr:stedsnr" v="192241" />
	</node>
	<node id="9961924202" lat="62.1984084" lon="5.8517475" version="1" timestamp="2022-08-18T16:32:46Z" changeset="125070030" uid="3497659" user="NKA">
		<tag k="name" v="Plassen" />
		<tag k="place" v="isolated_dwelling" />
		<tag k="ssr:stedsnr" v="556110" />
	</node>
	<node id="9961924203" lat="62.1067222" lon="6.5110696" version="1" timestamp="2022-08-18T16:32:46Z" changeset="125070030" uid="3497659" user="NKA">
		<tag k="historic" v="shieling" />
		<tag k="name" v="Seljerimstøylen" />
		<tag k="place" v="isolated_dwelling" />
		<tag k="ssr:stedsnr" v="772673" />
	</node>
	<node id="9961924204" lat="62.1145913" lon="6.0312645" version="1" timestamp="2022-08-18T16:32:46Z" changeset="125070030" uid="3497659" user="NKA">
		<tag k="alt_name" v="Folkestad indre" />
		<tag k="name" v="Indre Folkestad" />
		<tag k="place" v="farm" />
		<tag k="ssr:stedsnr" v="953404" />
	</node>
	<node id="9961924205" lat="62.1804195" lon="5.9213537" version="1" timestamp="2022-08-18T16:32:46Z" changeset="125070030" uid="3497659" user="NKA">
		<tag k="name" v="Gjøsdal" />
		<tag k="place" v="locality" />
		<tag k="ssr:stedsnr" v="983099" />
	</node>
	<node id="9961924206" lat="62.0605472" lon="6.0881836" version="1" timestamp="2022-08-18T16:32:46Z" changeset="125070030" uid="3497659" user="NKA">
		<tag k="name" v="Lisjebakken" />
		<tag k="place" v="farm" />
		<tag k="ssr:stedsnr" v="966147" />
	</node>
	<node id="9961924207" lat="61.9961167" lon="6.4949475" version="1" timestamp="2022-08-18T16:32:46Z" changeset="125070030" uid="3497659" user="NKA">
		<tag k="historic" v="shieling" />
		<tag k="name" v="Gamlesetra" />
		<tag k="place" v="isolated_dwelling" />
		<tag k="ssr:stedsnr" v="760245" />
	</node>
	<node id="9961924208" lat="62.1047056" lon="6.5659057" version="1" timestamp="2022-08-18T16:32:46Z" changeset="125070030" uid="3497659" user="NKA">
		<tag k="name" v="Erikgarden" />
		<tag k="place" v="farm" />
		<tag k="ssr:stedsnr" v="921671" />
	</node>
	<node id="9961924209" lat="62.0390444" lon="5.9476169" version="1" timestamp="2022-08-18T16:32:46Z" changeset="125070030" uid="3497659" user="NKA">
		<tag k="historic" v="shieling" />
		<tag k="name" v="Brunesetra" />
		<tag k="place" v="isolated_dwelling" />
		<tag k="ssr:stedsnr" v="954925" />
	</node>
	<node id="9961924210" lat="62.0345893" lon="5.8881538" version="1" timestamp="2022-08-18T16:32:46Z" changeset="125070030" uid="3497659" user="NKA">
		<tag k="alt_name" v="Eidset" />
		<tag k="name" v="Eisset" />
		<tag k="place" v="hamlet" />
		<tag k="ssr:stedsnr" v="921972" />
	</node>
	<node id="9961924211" lat="61.9972059" lon="6.5979058" version="1" timestamp="2022-08-18T16:32:46Z" changeset="125070030" uid="3497659" user="NKA">
		<tag k="name" v="Rygg" />
		<tag k="place" v="farm" />
		<tag k="ssr:stedsnr" v="638351" />
	</node>
	<node id="9961924212" lat="62.1171562" lon="6.5917649" version="1" timestamp="2022-08-18T16:32:46Z" changeset="125070030" uid="3497659" user="NKA">
		<tag k="name" v="Sellereite" />
		<tag k="place" v="hamlet" />
		<tag k="ssr:stedsnr" v="921678" />
	</node>
	<node id="9961924213" lat="62.0560583" lon="6.2727071" version="1" timestamp="2022-08-18T16:32:46Z" changeset="125070030" uid="3497659" user="NKA">
		<tag k="name" v="Slåttelidsætra" />
		<tag k="place" v="isolated_dwelling" />
		<tag k="ssr:stedsnr" v="921740" />
	</node>
	<node id="9961924214" lat="62.0829068" lon="6.1855311" version="1" timestamp="2022-08-18T16:32:46Z" changeset="125070030" uid="3497659" user="NKA">
		<tag k="name" v="Høydalsneset" />
		<tag k="place" v="hamlet" />
		<tag k="ssr:stedsnr" v="753066" />
	</node>
	<node id="9961924215" lat="62.0568472" lon="5.8691892" version="1" timestamp="2022-08-18T16:32:46Z" changeset="125070030" uid="3497659" user="NKA">
		<tag k="historic" v="shieling" />
		<tag k="name" v="Keipedalen" />
		<tag k="place" v="isolated_dwelling" />
		<tag k="ssr:stedsnr" v="556886" />
	</node>
	<node id="9961924216" lat="62.1588166" lon="6.0427919" version="1" timestamp="2022-08-18T16:32:46Z" changeset="125070030" uid="3497659" user="NKA">
		<tag k="alt_name" v="Ekset" />
		<tag k="name" v="Jogarden" />
		<tag k="place" v="farm" />
		<tag k="ssr:stedsnr" v="784186" />
	</node>
	<node id="9961970717" lat="62.0727306" lon="6.3626197" version="1" timestamp="2022-08-18T16:32:46Z" changeset="125070030" uid="3497659" user="NKA">
		<tag k="historic" v="shieling" />
		<tag k="name" v="Høgestøylen" />
		<tag k="place" v="isolated_dwelling" />
		<tag k="ssr:stedsnr" v="739633" />
	</node>
	<node id="9961970718" lat="62.0886917" lon="6.353303" version="1" timestamp="2022-08-18T16:32:46Z" changeset="125070030" uid="3497659" user="NKA">
		<tag k="historic" v="shieling" />
		<tag k="name" v="Norddalssætra" />
		<tag k="place" v="isolated_dwelling" />
		<tag k="ssr:stedsnr" v="738644" />
	</node>
	<node id="9961970719" lat="62.1530916" lon="5.8967115" version="1" timestamp="2022-08-18T16:32:46Z" changeset="125070030" uid="3497659" user="NKA">
		<tag k="name" v="Gamlesætra" />
		<tag k="place" v="locality" />
		<tag k="ssr:stedsnr" v="496060" />
	</node>
	<node id="9961970720" lat="62.1487577" lon="6.1563013" version="1" timestamp="2022-08-18T16:32:46Z" changeset="125070030" uid="3497659" user="NKA">
		<tag k="name" v="Tømmerbakken" />
		<tag k="place" v="farm" />
		<tag k="ssr:stedsnr" v="435825" />
	</node>
	<node id="9961970721" lat="62.0112834" lon="6.2150418" version="1" timestamp="2022-08-18T16:32:46Z" changeset="125070030" uid="3497659" user="NKA">
		<tag k="historic" v="shieling" />
		<tag k="name" v="Rinddalssætra" />
		<tag k="place" v="isolated_dwelling" />
		<tag k="ssr:stedsnr" v="739557" />
	</node>
	<node id="9961970722" lat="61.9980245" lon="6.5721354" version="1" timestamp="2022-08-18T16:32:46Z" changeset="125070030" uid="3497659" user="NKA">
		<tag k="name" v="Krokabakk" />
		<tag k="place" v="farm" />
		<tag k="ssr:stedsnr" v="457219" />
	</node>
	<node id="9961970723" lat="62.1350555" lon="6.6743445" version="1" timestamp="2022-08-18T16:32:46Z" changeset="125070030" uid="3497659" user="NKA">
		<tag k="historic" v="shieling" />
		<tag k="name" v="Elbertstøylen" />
		<tag k="place" v="locality" />
		<tag k="ssr:stedsnr" v="590023" />
	</node>
	<node id="9961970724" lat="62.0351445" lon="6.3920947" version="1" timestamp="2022-08-18T16:32:46Z" changeset="125070030" uid="3497659" user="NKA">
		<tag k="name" v="Bruabakken" />
		<tag k="place" v="farm" />
		<tag k="ssr:stedsnr" v="278913" />
	</node>
	<node id="9961970725" lat="62.0536785" lon="6.3116167" version="1" timestamp="2022-08-18T16:32:46Z" changeset="125070030" uid="3497659" user="NKA">
		<tag k="name" v="Skaret" />
		<tag k="place" v="farm" />
		<tag k="ssr:stedsnr" v="617745" />
	</node>
	<node id="9961970726" lat="62.0873985" lon="6.2308317" version="1" timestamp="2022-08-18T16:32:46Z" changeset="125070030" uid="3497659" user="NKA">
		<tag k="name" v="Skjeret" />
		<tag k="place" v="farm" />
		<tag k="ssr:stedsnr" v="253673" />
	</node>
	<node id="9961970727" lat="62.1317289" lon="5.9396205" version="1" timestamp="2022-08-18T16:32:46Z" changeset="125070030" uid="3497659" user="NKA">
		<tag k="name" v="Nesheim" />
		<tag k="place" v="farm" />
		<tag k="ssr:stedsnr" v="921764" />
	</node>
	<node id="9961970728" lat="62.0118138" lon="6.7228112" version="1" timestamp="2022-08-18T16:32:46Z" changeset="125070030" uid="3497659" user="NKA">
		<tag k="historic" v="shieling" />
		<tag k="name" v="Terdalssætra" />
		<tag k="place" v="isolated_dwelling" />
		<tag k="ssr:stedsnr" v="71499" />
	</node>
	<node id="9961970729" lat="62.1159939" lon="6.0261463" version="1" timestamp="2022-08-18T16:32:46Z" changeset="125070030" uid="3497659" user="NKA">
		<tag k="name" v="Holen" />
		<tag k="place" v="hamlet" />
		<tag k="ssr:stedsnr" v="921858" />
	</node>
	<node id="9961970730" lat="61.9966203" lon="6.52684" version="1" timestamp="2022-08-18T16:32:46Z" changeset="125070030" uid="3497659" user="NKA">
		<tag k="name" v="Haugen" />
		<tag k="place" v="hamlet" />
		<tag k="ssr:stedsnr" v="131864" />
	</node>
	<node id="9961970731" lat="62.0895944" lon="6.5268947" version="1" timestamp="2022-08-18T16:32:46Z" changeset="125070030" uid="3497659" user="NKA">
		<tag k="historic" v="shieling" />
		<tag k="name" v="Nykvistøylen" />
		<tag k="place" v="isolated_dwelling" />
		<tag k="ssr:stedsnr" v="219622" />
	</node>
	<node id="9961970732" lat="61.9495361" lon="6.5481057" version="1" timestamp="2022-08-18T16:32:46Z" changeset="125070030" uid="3497659" user="NKA">
		<tag k="historic" v="shieling" />
		<tag k="name" v="Per i svorsetra" />
		<tag k="place" v="isolated_dwelling" />
		<tag k="ssr:stedsnr" v="275224" />
	</node>
	<node id="9961970733" lat="62.0138365" lon="6.692203" version="1" timestamp="2022-08-18T16:32:46Z" changeset="125070030" uid="3497659" user="NKA">
		<tag k="name" v="Muldsvor" />
		<tag k="place" v="farm" />
		<tag k="ssr:stedsnr" v="11254" />
	</node>
	<node id="9961970734" lat="62.169032" lon="6.021081" version="1" timestamp="2022-08-18T16:32:46Z" changeset="125070030" uid="3497659" user="NKA">
		<tag k="name" v="Litle-Mork" />
		<tag k="place" v="farm" />
		<tag k="ssr:stedsnr" v="581977" />
	</node>
	<node id="9961970735" lat="62.0085139" lon="6.0775948" version="1" timestamp="2022-08-18T16:32:46Z" changeset="125070030" uid="3497659" user="NKA">
		<tag k="name" v="Holmevik" />
		<tag k="place" v="farm" />
		<tag k="ssr:stedsnr" v="193953" />
	</node>
	<node id="9961970736" lat="61.9617039" lon="6.5053936" version="1" timestamp="2022-08-18T16:32:46Z" changeset="125070030" uid="3497659" user="NKA">
		<tag k="alt_name" v="Svor, yt" />
		<tag k="name" v="Ytre Svor" />
		<tag k="place" v="farm" />
		<tag k="ssr:stedsnr" v="434874" />
	</node>
	<node id="9961970737" lat="61.9973216" lon="6.0794868" version="1" timestamp="2022-08-18T16:32:46Z" changeset="125070030" uid="3497659" user="NKA">
		<tag k="name" v="Helset" />
		<tag k="place" v="hamlet" />
		<tag k="ssr:stedsnr" v="253356" />
	</node>
	<node id="9961970738" lat="62.0132" lon="6.0395419" version="1" timestamp="2022-08-18T16:32:46Z" changeset="125070030" uid="3497659" user="NKA">
		<tag k="name" v="Sandvika" />
		<tag k="place" v="farm" />
		<tag k="ssr:stedsnr" v="496942" />
	</node>
	<node id="9961970739" lat="62.00435" lon="6.154328" version="1" timestamp="2022-08-18T16:32:46Z" changeset="125070030" uid="3497659" user="NKA">
		<tag k="historic" v="shieling" />
		<tag k="name" v="Nysætra" />
		<tag k="place" v="isolated_dwelling" />
		<tag k="ssr:stedsnr" v="193952" />
	</node>
	<node id="9961970740" lat="62.0650289" lon="6.3204162" version="1" timestamp="2022-08-18T16:32:46Z" changeset="125070030" uid="3497659" user="NKA">
		<tag k="alt_name" v="Leite" />
		<tag k="name" v="Leitet" />
		<tag k="place" v="farm" />
		<tag k="ssr:stedsnr" v="763935" />
	</node>
	<node id="9961970741" lat="62.05675" lon="6.0478418" version="1" timestamp="2022-08-18T16:32:46Z" changeset="125070030" uid="3497659" user="NKA">
		<tag k="name" v="Mjeltevika" />
		<tag k="place" v="farm" />
		<tag k="ssr:stedsnr" v="617879" />
	</node>
	<node id="9961970742" lat="61.9787778" lon="6.7195723" version="1" timestamp="2022-08-18T16:32:46Z" changeset="125070030" uid="3497659" user="NKA">
		<tag k="alt_name" v="Strynesetra" />
		<tag k="historic" v="shieling" />
		<tag k="name" v="Strynesætra" />
		<tag k="place" v="isolated_dwelling" />
		<tag k="ssr:stedsnr" v="10243" />
	</node>
	<node id="9961970743" lat="62.1548118" lon="6.0542483" version="1" timestamp="2022-08-18T16:32:46Z" changeset="125070030" uid="3497659" user="NKA">
		<tag k="alt_name" v="Nordalen" />
		<tag k="name" v="Norddalen" />
		<tag k="place" v="hamlet" />
		<tag k="ssr:stedsnr" v="800058" />
	</node>
	<node id="9961970744" lat="62.1464415" lon="6.1311522" version="1" timestamp="2022-08-18T16:32:46Z" changeset="125070030" uid="3497659" user="NKA">
		<tag k="alt_name" v="Hoggen" />
		<tag k="name" v="Hogga" />
		<tag k="place" v="hamlet" />
		<tag k="ssr:stedsnr" v="435829" />
	</node>
	<node id="9961970745" lat="62.0598617" lon="6.0709859" version="1" timestamp="2022-08-18T16:32:46Z" changeset="125070030" uid="3497659" user="NKA">
		<tag k="name" v="Fylsvika" />
		<tag k="place" v="hamlet" />
		<tag k="ssr:stedsnr" v="800873" />
	</node>
	<node id="9961970746" lat="62.0586807" lon="6.0857242" version="1" timestamp="2022-08-18T16:32:46Z" changeset="125070030" uid="3497659" user="NKA">
		<tag k="name" v="Litlebotnen" />
		<tag k="place" v="farm" />
		<tag k="ssr:stedsnr" v="496874" />
	</node>
	<node id="9961970747" lat="62.07468" lon="6.3177851" version="1" timestamp="2022-08-18T16:32:46Z" changeset="125070030" uid="3497659" user="NKA">
		<tag k="name" v="Geitvika" />
		<tag k="place" v="hamlet" />
		<tag k="ssr:stedsnr" v="314647" />
	</node>
	<node id="9961970748" lat="62.0746083" lon="6.2312308" version="1" timestamp="2022-08-18T16:32:46Z" changeset="125070030" uid="3497659" user="NKA">
		<tag k="historic" v="shieling" />
		<tag k="name" v="Vikesæter" />
		<tag k="place" v="isolated_dwelling" />
		<tag k="ssr:stedsnr" v="285498" />
	</node>
	<node id="9961970749" lat="62.0809036" lon="6.3011726" version="1" timestamp="2022-08-18T16:32:46Z" changeset="125070030" uid="3497659" user="NKA">
		<tag k="alt_name" v="Stornes" />
		<tag k="name" v="Storenes" />
		<tag k="place" v="farm" />
		<tag k="ssr:stedsnr" v="771934" />
	</node>
	<node id="9961970750" lat="62.0171629" lon="6.5795187" version="1" timestamp="2022-08-18T16:32:46Z" changeset="125070030" uid="3497659" user="NKA">
		<tag k="historic" v="shieling" />
		<tag k="name" v="Hjortedalssætra" />
		<tag k="place" v="hamlet" />
		<tag k="ssr:stedsnr" v="921257" />
	</node>
	<node id="9961970751" lat="62.0899194" lon="6.0862383" version="1" timestamp="2022-08-18T16:32:46Z" changeset="125070030" uid="3497659" user="NKA">
		<tag k="name" v="Storemek" />
		<tag k="place" v="farm" />
		<tag k="ssr:stedsnr" v="253860" />
	</node>
	<node id="9961970752" lat="62.112525" lon="6.1646086" version="1" timestamp="2022-08-18T16:32:46Z" changeset="125070030" uid="3497659" user="NKA">
		<tag k="alt_name" v="Vadsteinsætra" />
		<tag k="historic" v="shieling" />
		<tag k="name" v="Vassteinsætra" />
		<tag k="place" v="isolated_dwelling" />
		<tag k="ssr:stedsnr" v="496847" />
	</node>
	<node id="9961970753" lat="62.0960511" lon="6.0837588" version="1" timestamp="2022-08-18T16:32:46Z" changeset="125070030" uid="3497659" user="NKA">
		<tag k="name" v="Litlemek" />
		<tag k="place" v="farm" />
		<tag k="ssr:stedsnr" v="374850" />
	</node>
	<node id="9961970754" lat="62.0634154" lon="6.2939362" version="1" timestamp="2022-08-18T16:32:46Z" changeset="125070030" uid="3497659" user="NKA">
		<tag k="name" v="Skinvika" />
		<tag k="place" v="farm" />
		<tag k="ssr:stedsnr" v="739736" />
	</node>
	<node id="9961970755" lat="62.1004583" lon="6.1680803" version="1" timestamp="2022-08-18T16:32:46Z" changeset="125070030" uid="3497659" user="NKA">
		<tag k="name" v="Hjartåbygda" />
		<tag k="place" v="hamlet" />
		<tag k="ssr:stedsnr" v="738900" />
	</node>
	<node id="9961970756" lat="62.0915888" lon="6.0708447" version="1" timestamp="2022-08-18T16:32:46Z" changeset="125070030" uid="3497659" user="NKA">
		<tag k="name" v="Meksætra" />
		<tag k="place" v="isolated_dwelling" />
		<tag k="ssr:stedsnr" v="374849" />
	</node>
	<node id="9961970757" lat="62.1269778" lon="6.0230281" version="1" timestamp="2022-08-18T16:32:46Z" changeset="125070030" uid="3497659" user="NKA">
		<tag k="name" v="Hagen" />
		<tag k="place" v="farm" />
		<tag k="ssr:stedsnr" v="738771" />
	</node>
	<node id="9961970758" lat="62.1561361" lon="6.089503" version="1" timestamp="2022-08-18T16:32:46Z" changeset="125070030" uid="3497659" user="NKA">
		<tag k="historic" v="shieling" />
		<tag k="name" v="Prestesætra" />
		<tag k="place" v="isolated_dwelling" />
		<tag k="ssr:stedsnr" v="460978" />
	</node>
	<node id="9961970759" lat="61.9971388" lon="6.5812168" version="1" timestamp="2022-08-18T16:32:46Z" changeset="125070030" uid="3497659" user="NKA">
		<tag k="name" v="Lyngstad" />
		<tag k="place" v="farm" />
		<tag k="ssr:stedsnr" v="71837" />
	</node>
	<node id="9961970760" lat="62.0896442" lon="6.2217491" version="1" timestamp="2022-08-18T16:32:46Z" changeset="125070030" uid="3497659" user="NKA">
		<tag k="name" v="Hunneset" />
		<tag k="place" v="hamlet" />
		<tag k="ssr:stedsnr" v="374651" />
	</node>
	<node id="9961970761" lat="62.0193884" lon="6.0593744" version="1" timestamp="2022-08-18T16:32:46Z" changeset="125070030" uid="3497659" user="NKA">
		<tag k="name" v="Byrkjely" />
		<tag k="place" v="farm" />
		<tag k="ssr:stedsnr" v="374962" />
	</node>
	<node id="9961970762" lat="62.0936313" lon="6.1487021" version="1" timestamp="2022-08-18T16:32:46Z" changeset="125070030" uid="3497659" user="NKA">
		<tag k="name" v="Furnes" />
		<tag k="place" v="farm" />
		<tag k="ssr:stedsnr" v="253857" />
	</node>
	<node id="9961970763" lat="62.0004402" lon="6.5756154" version="1" timestamp="2022-08-18T16:32:46Z" changeset="125070030" uid="3497659" user="NKA">
		<tag k="name" v="Engebø" />
		<tag k="place" v="farm" />
		<tag k="ssr:stedsnr" v="11710" />
	</node>
	<node id="9961970764" lat="62.097785" lon="6.1862711" version="1" timestamp="2022-08-18T16:32:46Z" changeset="125070030" uid="3497659" user="NKA">
		<tag k="name" v="Hjartå" />
		<tag k="place" v="hamlet" />
		<tag k="ssr:stedsnr" v="314821" />
	</node>
	<node id="9961970765" lat="62.0632961" lon="6.2122646" version="1" timestamp="2022-08-18T16:32:46Z" changeset="125070030" uid="3497659" user="NKA">
		<tag k="name" v="Høydalsdalen" />
		<tag k="place" v="hamlet" />
		<tag k="ssr:stedsnr" v="132899" />
	</node>
	<node id="9961970766" lat="61.9914297" lon="6.5152513" version="1" timestamp="2022-08-18T16:32:46Z" changeset="125070030" uid="3497659" user="NKA">
		<tag k="name" v="Kringla" />
		<tag k="place" v="farm" />
		<tag k="ssr:stedsnr" v="821406" />
	</node>
	<node id="9961970767" lat="62.0820664" lon="6.2603055" version="1" timestamp="2022-08-18T16:32:46Z" changeset="125070030" uid="3497659" user="NKA">
		<tag k="name" v="Årset" />
		<tag k="place" v="hamlet" />
		<tag k="ssr:stedsnr" v="253667" />
	</node>
	<node id="9961970768" lat="62.1308321" lon="5.9709644" version="1" timestamp="2022-08-18T16:32:46Z" changeset="125070030" uid="3497659" user="NKA">
		<tag k="name" v="Indre Nautvika" />
		<tag k="place" v="farm" />
		<tag k="ssr:stedsnr" v="286529" />
	</node>
	<node id="9961970769" lat="62.0738" lon="6.1715947" version="1" timestamp="2022-08-18T16:32:46Z" changeset="125070030" uid="3497659" user="NKA">
		<tag k="historic" v="shieling" />
		<tag k="name" v="Nesasætra" />
		<tag k="place" v="isolated_dwelling" />
		<tag k="ssr:stedsnr" v="132924" />
	</node>
	<node id="9961970770" lat="62.0012751" lon="6.638596" version="1" timestamp="2022-08-18T16:32:46Z" changeset="125070030" uid="3497659" user="NKA">
		<tag k="name" v="Indre Haugen" />
		<tag k="place" v="farm" />
		<tag k="ssr:stedsnr" v="193247" />
	</node>
	<node id="9961970771" lat="62.1022795" lon="6.1508362" version="1" timestamp="2022-08-18T16:32:46Z" changeset="125070030" uid="3497659" user="NKA">
		<tag k="alt_name" v="Vadstein" />
		<tag k="name" v="Vassteinen" />
		<tag k="place" v="farm" />
		<tag k="ssr:stedsnr" v="132864" />
	</node>
	<node id="9961970772" lat="62.0918455" lon="6.2325647" version="1" timestamp="2022-08-18T16:32:46Z" changeset="125070030" uid="3497659" user="NKA">
		<tag k="name" v="Ullaland" />
		<tag k="place" v="hamlet" />
		<tag k="ssr:stedsnr" v="131656" />
	</node>
	<node id="9961970773" lat="62.0562035" lon="6.3177254" version="1" timestamp="2022-08-18T16:32:46Z" changeset="125070030" uid="3497659" user="NKA">
		<tag k="name" v="Sunndalsåsen" />
		<tag k="place" v="farm" />
		<tag k="ssr:stedsnr" v="96890" />
	</node>
	<node id="9961970774" lat="62.0543784" lon="6.3243555" version="1" timestamp="2022-08-18T16:32:46Z" changeset="125070030" uid="3497659" user="NKA">
		<tag k="name" v="Sunndalsfolla" />
		<tag k="place" v="farm" />
		<tag k="ssr:stedsnr" v="96886" />
	</node>
	<node id="9961970775" lat="62.1480582" lon="6.121394" version="1" timestamp="2022-08-18T16:32:46Z" changeset="125070030" uid="3497659" user="NKA">
		<tag k="name" v="Slettebakk" />
		<tag k="place" v="farm" />
		<tag k="ssr:stedsnr" v="824974" />
	</node>
	<node id="9961970776" lat="62.1594315" lon="5.9465099" version="1" timestamp="2022-08-18T16:32:46Z" changeset="125070030" uid="3497659" user="NKA">
		<tag k="name" v="Bakkeland" />
		<tag k="place" v="farm" />
		<tag k="ssr:stedsnr" v="763029" />
	</node>
	<node id="9961970777" lat="61.9899809" lon="6.5088884" version="1" timestamp="2022-08-18T16:32:46Z" changeset="125070030" uid="3497659" user="NKA">
		<tag k="name" v="Kipaplassen" />
		<tag k="place" v="locality" />
		<tag k="ssr:stedsnr" v="457387" />
	</node>
	<node id="9961970778" lat="61.9957527" lon="6.0635836" version="1" timestamp="2022-08-18T16:32:46Z" changeset="125070030" uid="3497659" user="NKA">
		<tag k="name" v="Stranda" />
		<tag k="place" v="farm" />
		<tag k="ssr:stedsnr" v="506325" />
	</node>
	<node id="9961970779" lat="61.9999933" lon="6.6306032" version="1" timestamp="2022-08-18T16:32:46Z" changeset="125070030" uid="3497659" user="NKA">
		<tag k="name" v="Birkeland" />
		<tag k="place" v="farm" />
		<tag k="ssr:stedsnr" v="556315" />
	</node>
	<node id="9961970780" lat="62.051352" lon="6.2814673" version="1" timestamp="2022-08-18T16:32:46Z" changeset="125070030" uid="3497659" user="NKA">
		<tag k="historic" v="shieling" />
		<tag k="name" v="Skinnviksætra" />
		<tag k="place" v="hamlet" />
		<tag k="ssr:stedsnr" v="72710" />
	</node>
	<node id="9961970781" lat="62.0564389" lon="6.0772363" version="1" timestamp="2022-08-18T16:32:46Z" changeset="125070030" uid="3497659" user="NKA">
		<tag k="name" v="Leirosen" />
		<tag k="place" v="farm" />
		<tag k="ssr:stedsnr" v="496872" />
	</node>
	<node id="9961970782" lat="62.072142" lon="6.10064" version="1" timestamp="2022-08-18T16:32:46Z" changeset="125070030" uid="3497659" user="NKA">
		<tag k="name" v="Bjørneset" />
		<tag k="place" v="hamlet" />
		<tag k="ssr:stedsnr" v="11910" />
	</node>
	<node id="9961970783" lat="62.1417944" lon="6.1347114" version="1" timestamp="2022-08-18T16:32:46Z" changeset="125070030" uid="3497659" user="NKA">
		<tag k="name" v="Dalheim" />
		<tag k="place" v="farm" />
		<tag k="ssr:stedsnr" v="496756" />
	</node>
	<node id="9961970784" lat="62.0379502" lon="5.8926812" version="1" timestamp="2022-08-18T16:32:46Z" changeset="125070030" uid="3497659" user="NKA">
		<tag k="name" v="Litleneset" />
		<tag k="place" v="farm" />
		<tag k="ssr:stedsnr" v="375976" />
	</node>
	<node id="9961970785" lat="62.0556896" lon="6.0861934" version="1" timestamp="2022-08-18T16:32:46Z" changeset="125070030" uid="3497659" user="NKA">
		<tag k="alt_name" v="Botnen;Store botn" />
		<tag k="name" v="Storebotnen" />
		<tag k="place" v="hamlet" />
		<tag k="ssr:stedsnr" v="11889" />
	</node>
	<node id="9961970786" lat="62.0729229" lon="6.207037" version="1" timestamp="2022-08-18T16:32:46Z" changeset="125070030" uid="3497659" user="NKA">
		<tag k="name" v="Bøen" />
		<tag k="place" v="farm" />
		<tag k="ssr:stedsnr" v="921906" />
	</node>
	<node id="9961970787" lat="62.0564445" lon="6.4789974" version="1" timestamp="2022-08-18T16:32:46Z" changeset="125070030" uid="3497659" user="NKA">
		<tag k="name" v="Skipedalssætra" />
		<tag k="place" v="locality" />
		<tag k="ssr:stedsnr" v="314721" />
	</node>
	<node id="9961970788" lat="62.0717528" lon="5.9010559" version="1" timestamp="2022-08-18T16:32:46Z" changeset="125070030" uid="3497659" user="NKA">
		<tag k="name" v="Hatlen" />
		<tag k="place" v="farm" />
		<tag k="ssr:stedsnr" v="374922" />
	</node>
	<node id="9961970789" lat="62.0745833" lon="6.2881725" version="1" timestamp="2022-08-18T16:32:46Z" changeset="125070030" uid="3497659" user="NKA">
		<tag k="name" v="Hamre" />
		<tag k="place" v="hamlet" />
		<tag k="ssr:stedsnr" v="860681" />
	</node>
	<node id="9961970790" lat="62.0123972" lon="6.0680058" version="1" timestamp="2022-08-18T16:32:46Z" changeset="125070030" uid="3497659" user="NKA">
		<tag k="name" v="Torgarden" />
		<tag k="place" v="farm" />
		<tag k="ssr:stedsnr" v="253976" />
	</node>
	<node id="9961970791" lat="62.1216271" lon="6.0259285" version="1" timestamp="2022-08-18T16:32:46Z" changeset="125070030" uid="3497659" user="NKA">
		<tag k="alt_name" v="Folkestad-Reiten" />
		<tag k="name" v="Folkestadreite" />
		<tag k="place" v="farm" />
		<tag k="ssr:stedsnr" v="711542" />
	</node>
	<node id="9961970792" lat="62.1083492" lon="6.127194" version="1" timestamp="2022-08-18T16:32:46Z" changeset="125070030" uid="3497659" user="NKA">
		<tag k="name" v="Løvik" />
		<tag k="place" v="farm" />
		<tag k="ssr:stedsnr" v="890484" />
	</node>
	<node id="9961970793" lat="62.1110278" lon="6.2374419" version="1" timestamp="2022-08-18T16:32:46Z" changeset="125070030" uid="3497659" user="NKA">
		<tag k="historic" v="shieling" />
		<tag k="name" v="Ullalandssætra" />
		<tag k="place" v="isolated_dwelling" />
		<tag k="ssr:stedsnr" v="193655" />
	</node>
	<node id="9961970794" lat="62.1305257" lon="6.0189375" version="1" timestamp="2022-08-18T16:32:46Z" changeset="125070030" uid="3497659" user="NKA">
		<tag k="name" v="Rønstad" />
		<tag k="place" v="hamlet" />
		<tag k="ssr:stedsnr" v="799786" />
	</node>
	<node id="9961970795" lat="61.997763" lon="6.5910451" version="1" timestamp="2022-08-18T16:32:46Z" changeset="125070030" uid="3497659" user="NKA">
		<tag k="name" v="Dobakk" />
		<tag k="place" v="farm" />
		<tag k="ssr:stedsnr" v="92374" />
	</node>
	<node id="9961970796" lat="62.211572" lon="5.9558324" version="1" timestamp="2022-08-18T16:32:46Z" changeset="125070030" uid="3497659" user="NKA">
		<tag k="alt_name" v="Lid;Lid ytre" />
		<tag k="name" v="Ytre Lid" />
		<tag k="place" v="farm" />
		<tag k="ssr:stedsnr" v="314088" />
	</node>
	<node id="9961970797" lat="62.001225" lon="6.1617086" version="1" timestamp="2022-08-18T16:32:46Z" changeset="125070030" uid="3497659" user="NKA">
		<tag k="historic" v="shieling" />
		<tag k="name" v="Helsetsætra" />
		<tag k="place" v="isolated_dwelling" />
		<tag k="ssr:stedsnr" v="800553" />
	</node>
	<node id="9961970798" lat="62.1481149" lon="6.1055806" version="1" timestamp="2022-08-18T16:32:46Z" changeset="125070030" uid="3497659" user="NKA">
		<tag k="name" v="Kolbeingarden" />
		<tag k="place" v="farm" />
		<tag k="ssr:stedsnr" v="780490" />
	</node>
	<node id="9961970799" lat="62.0983927" lon="6.168245" version="1" timestamp="2022-08-18T16:32:46Z" changeset="125070030" uid="3497659" user="NKA">
		<tag k="name" v="Åsen" />
		<tag k="place" v="farm" />
		<tag k="ssr:stedsnr" v="893077" />
	</node>
	<node id="9961970800" lat="62.0591194" lon="6.1157614" version="1" timestamp="2022-08-18T16:32:46Z" changeset="125070030" uid="3497659" user="NKA">
		<tag k="alt_name" v="Bjørnasetsætra" />
		<tag k="historic" v="shieling" />
		<tag k="name" v="Bjørnesetsætra" />
		<tag k="place" v="isolated_dwelling" />
		<tag k="ssr:stedsnr" v="193879" />
	</node>
	<node id="9961970801" lat="62.0929264" lon="5.9596741" version="1" timestamp="2022-08-18T16:32:46Z" changeset="125070030" uid="3497659" user="NKA">
		<tag k="name" v="Rossetvika" />
		<tag k="old_name" v="Rossetvikane" />
		<tag k="place" v="farm" />
		<tag k="ssr:stedsnr" v="207965" />
	</node>
	<node id="9961970802" lat="62.0560662" lon="6.3078769" version="1" timestamp="2022-08-18T16:32:46Z" changeset="125070030" uid="3497659" user="NKA">
		<tag k="name" v="Åselid" />
		<tag k="place" v="farm" />
		<tag k="ssr:stedsnr" v="703951" />
	</node>
	<node id="9961970803" lat="62.0721925" lon="6.2372888" version="1" timestamp="2022-08-18T16:32:46Z" changeset="125070030" uid="3497659" user="NKA">
		<tag k="alt_name" v="Stranda" />
		<tag k="name" v="Vikestranda" />
		<tag k="place" v="farm" />
		<tag k="ssr:stedsnr" v="617640" />
	</node>
	<node id="9961970804" lat="62.0214387" lon="5.8475415" version="1" timestamp="2022-08-18T16:32:46Z" changeset="125070030" uid="3497659" user="NKA">
		<tag k="alt_name" v="Mårstøl" />
		<tag k="name" v="Morstøylen" />
		<tag k="place" v="hamlet" />
		<tag k="ssr:stedsnr" v="738993" />
	</node>
	<node id="9961970805" lat="62.1392063" lon="6.6356011" version="1" timestamp="2022-08-18T16:32:46Z" changeset="125070030" uid="3497659" user="NKA">
		<tag k="name" v="Telset" />
		<tag k="place" v="locality" />
		<tag k="ssr:stedsnr" v="617694" />
	</node>
	<node id="9961970806" lat="62.0989722" lon="5.9066947" version="1" timestamp="2022-08-18T16:32:46Z" changeset="125070030" uid="3497659" user="NKA">
		<tag k="historic" v="shieling" />
		<tag k="name" v="Fossastøylen" />
		<tag k="place" v="isolated_dwelling" />
		<tag k="ssr:stedsnr" v="799895" />
	</node>
	<node id="9961970807" lat="62.0633447" lon="5.9253802" version="1" timestamp="2022-08-18T16:32:46Z" changeset="125070030" uid="3497659" user="NKA">
		<tag k="name" v="Dalsbygda" />
		<tag k="place" v="hamlet" />
		<tag k="ssr:stedsnr" v="739926" />
	</node>
	<node id="9961970808" lat="62.0540519" lon="5.9444716" version="1" timestamp="2022-08-18T16:32:46Z" changeset="125070030" uid="3497659" user="NKA">
		<tag k="name" v="Rangsætra" />
		<tag k="place" v="hamlet" />
		<tag k="ssr:stedsnr" v="556885" />
	</node>
	<node id="9961970809" lat="62.0627611" lon="6.1810224" version="1" timestamp="2022-08-18T16:32:46Z" changeset="125070030" uid="3497659" user="NKA">
		<tag k="historic" v="shieling" />
		<tag k="name" v="Heiddalsstøylen" />
		<tag k="place" v="isolated_dwelling" />
		<tag k="ssr:stedsnr" v="565121" />
	</node>
	<node id="9961970810" lat="62.0354976" lon="5.8612315" version="1" timestamp="2022-08-18T16:32:46Z" changeset="125070030" uid="3497659" user="NKA">
		<tag k="alt_name" v="Stranda" />
		<tag k="name" v="Jostranda" />
		<tag k="place" v="hamlet" />
		<tag k="ssr:stedsnr" v="739970" />
	</node>
	<node id="9961970811" lat="62.1381996" lon="5.9725686" version="1" timestamp="2022-08-18T16:32:46Z" changeset="125070030" uid="3497659" user="NKA">
		<tag k="name" v="Kornberg" />
		<tag k="place" v="hamlet" />
		<tag k="ssr:stedsnr" v="374831" />
	</node>
	<node id="9961970812" lat="62.1195945" lon="5.8800753" version="1" timestamp="2022-08-18T16:32:46Z" changeset="125070030" uid="3497659" user="NKA">
		<tag k="historic" v="shieling" />
		<tag k="name" v="Dravlausstøylen" />
		<tag k="place" v="isolated_dwelling" />
		<tag k="ssr:stedsnr" v="556772" />
	</node>
	<node id="9961970813" lat="62.1234428" lon="6.0181968" version="1" timestamp="2022-08-18T16:32:46Z" changeset="125070030" uid="3497659" user="NKA">
		<tag k="alt_name" v="Folkestadåsen" />
		<tag k="name" v="Åsen" />
		<tag k="place" v="farm" />
		<tag k="ssr:stedsnr" v="738794" />
	</node>
	<node id="9961970814" lat="62.1699889" lon="6.0531583" version="1" timestamp="2022-08-18T16:32:46Z" changeset="125070030" uid="3497659" user="NKA">
		<tag k="name" v="Liaskaret" />
		<tag k="place" v="farm" />
		<tag k="ssr:stedsnr" v="338945" />
	</node>
	<node id="9961970815" lat="62.1226242" lon="6.021862" version="1" timestamp="2022-08-18T16:32:46Z" changeset="125070030" uid="3497659" user="NKA">
		<tag k="name" v="Kongsvoll" />
		<tag k="place" v="farm" />
		<tag k="ssr:stedsnr" v="104545" />
	</node>
	<node id="9961970816" lat="62.1336444" lon="6.1264835" version="1" timestamp="2022-08-18T16:32:46Z" changeset="125070030" uid="3497659" user="NKA">
		<tag k="historic" v="shieling" />
		<tag k="name" v="Litlesætra" />
		<tag k="place" v="isolated_dwelling" />
		<tag k="ssr:stedsnr" v="528675" />
	</node>
	<node id="9961970817" lat="61.9996544" lon="6.0567928" version="1" timestamp="2022-08-18T16:32:46Z" changeset="125070030" uid="3497659" user="NKA">
		<tag k="name" v="Skogly" />
		<tag k="place" v="farm" />
		<tag k="ssr:stedsnr" v="435582" />
	</node>
	<node id="9961970818" lat="62.0656694" lon="6.1820392" version="1" timestamp="2022-08-18T16:32:46Z" changeset="125070030" uid="3497659" user="NKA">
		<tag k="historic" v="shieling" />
		<tag k="name" v="Lauvhaugsætra" />
		<tag k="place" v="isolated_dwelling" />
		<tag k="ssr:stedsnr" v="556877" />
	</node>
	<node id="9961970819" lat="62.005225" lon="6.0392668" version="1" timestamp="2022-08-18T16:32:46Z" changeset="125070030" uid="3497659" user="NKA">
		<tag k="name" v="Vonheim" />
		<tag k="place" v="farm" />
		<tag k="ssr:stedsnr" v="71974" />
	</node>
	<node id="9961970820" lat="62.080841" lon="6.5154827" version="1" timestamp="2022-08-18T16:32:46Z" changeset="125070030" uid="3497659" user="NKA">
		<tag k="name" v="Raudstad" />
		<tag k="place" v="hamlet" />
		<tag k="ssr:stedsnr" v="496738" />
	</node>
	<node id="9961970821" lat="62.0742025" lon="6.0627216" version="1" timestamp="2022-08-18T16:32:46Z" changeset="125070030" uid="3497659" user="NKA">
		<tag k="historic" v="shieling" />
		<tag k="name" v="Aarøyane" />
		<tag k="place" v="isolated_dwelling" />
		<tag k="ssr:stedsnr" v="528214" />
	</node>
	<node id="9961970822" lat="62.0640872" lon="6.2847886" version="1" timestamp="2022-08-18T16:32:46Z" changeset="125070030" uid="3497659" user="NKA">
		<tag k="name" v="Botnen" />
		<tag k="place" v="hamlet" />
		<tag k="ssr:stedsnr" v="374753" />
	</node>
	<node id="9961970823" lat="62.1147263" lon="5.9345943" version="1" timestamp="2022-08-18T16:32:46Z" changeset="125070030" uid="3497659" user="NKA">
		<tag k="name" v="Reite" />
		<tag k="place" v="farm" />
		<tag k="ssr:stedsnr" v="467517" />
	</node>
	<node id="9961970824" lat="62.0320528" lon="6.3171114" version="1" timestamp="2022-08-18T16:32:46Z" changeset="125070030" uid="3497659" user="NKA">
		<tag k="historic" v="shieling" />
		<tag k="name" v="Sunndalssætra" />
		<tag k="place" v="isolated_dwelling" />
		<tag k="ssr:stedsnr" v="374702" />
	</node>
	<node id="9961970825" lat="62.0957317" lon="6.0837628" version="1" timestamp="2022-08-18T16:32:46Z" changeset="125070030" uid="3497659" user="NKA">
		<tag k="alt_name" v="Mek Lille" />
		<tag k="name" v="Litle Mek" />
		<tag k="place" v="farm" />
		<tag k="ssr:stedsnr" v="832709" />
	</node>
	<node id="9961970826" lat="62.0611625" lon="6.3285996" version="1" timestamp="2022-08-18T16:32:46Z" changeset="125070030" uid="3497659" user="NKA">
		<tag k="alt_name" v="Førdesreite" />
		<tag k="name" v="Fyrdsreitane" />
		<tag k="place" v="farm" />
		<tag k="ssr:stedsnr" v="338957" />
	</node>
	<node id="9961970827" lat="62.1457278" lon="6.0664002" version="1" timestamp="2022-08-18T16:32:46Z" changeset="125070030" uid="3497659" user="NKA">
		<tag k="name" v="Sivert Aarflot-plassen" />
		<tag k="place" v="square" />
		<tag k="ssr:stedsnr" v="724991" />
	</node>
	<node id="9961970828" lat="62.073375" lon="6.1020947" version="1" timestamp="2022-08-18T16:32:46Z" changeset="125070030" uid="3497659" user="NKA">
		<tag k="name" v="Medgarden" />
		<tag k="place" v="farm" />
		<tag k="ssr:stedsnr" v="617920" />
	</node>
	<node id="9961970829" lat="62.0698195" lon="6.2125697" version="1" timestamp="2022-08-18T16:32:46Z" changeset="125070030" uid="3497659" user="NKA">
		<tag k="historic" v="shieling" />
		<tag k="name" v="Midtgardseter" />
		<tag k="place" v="isolated_dwelling" />
		<tag k="ssr:stedsnr" v="407291" />
	</node>
	<node id="9961970830" lat="62.1803704" lon="6.0381151" version="1" timestamp="2022-08-18T16:32:46Z" changeset="125070030" uid="3497659" user="NKA">
		<tag k="name" v="Ytrestøylen" />
		<tag k="place" v="farm" />
		<tag k="ssr:stedsnr" v="460935" />
	</node>
	<node id="9961970831" lat="62.1161833" lon="6.0201938" version="1" timestamp="2022-08-18T16:32:46Z" changeset="125070030" uid="3497659" user="NKA">
		<tag k="name" v="Nybø" />
		<tag k="place" v="farm" />
		<tag k="ssr:stedsnr" v="617859" />
	</node>
	<node id="9961970832" lat="62.1653055" lon="6.0334336" version="1" timestamp="2022-08-18T16:32:46Z" changeset="125070030" uid="3497659" user="NKA">
		<tag k="name" v="Reset" />
		<tag k="place" v="neighbourhood" />
		<tag k="ssr:stedsnr" v="460954" />
	</node>
	<node id="9961970833" lat="62.1451556" lon="6.0864474" version="1" timestamp="2022-08-18T16:32:46Z" changeset="125070030" uid="3497659" user="NKA">
		<tag k="name" v="Nordtun" />
		<tag k="place" v="farm" />
		<tag k="ssr:stedsnr" v="824966" />
	</node>
	<node id="9961970834" lat="62.1144667" lon="6.1315196" version="1" timestamp="2022-08-18T16:32:46Z" changeset="125070030" uid="3497659" user="NKA">
		<tag k="historic" v="shieling" />
		<tag k="name" v="Homborsetsætra" />
		<tag k="place" v="isolated_dwelling" />
		<tag k="ssr:stedsnr" v="435880" />
	</node>
	<node id="9961970835" lat="62.1200805" lon="5.9767475" version="1" timestamp="2022-08-18T16:32:46Z" changeset="125070030" uid="3497659" user="NKA">
		<tag k="name" v="Nordre Rossetvik" />
		<tag k="place" v="locality" />
		<tag k="ssr:stedsnr" v="708134" />
	</node>
	<node id="9961970836" lat="62.159807" lon="5.9312059" version="1" timestamp="2022-08-18T16:32:46Z" changeset="125070030" uid="3497659" user="NKA">
		<tag k="name" v="Nakken" />
		<tag k="place" v="hamlet" />
		<tag k="ssr:stedsnr" v="617079" />
	</node>
	<node id="9961970837" lat="62.0598528" lon="5.9599337" version="1" timestamp="2022-08-18T16:32:46Z" changeset="125070030" uid="3497659" user="NKA">
		<tag k="historic" v="shieling" />
		<tag k="name" v="Heida" />
		<tag k="place" v="isolated_dwelling" />
		<tag k="ssr:stedsnr" v="468891" />
	</node>
	<node id="9961970838" lat="62.1339694" lon="5.9782224" version="1" timestamp="2022-08-18T16:32:46Z" changeset="125070030" uid="3497659" user="NKA">
		<tag k="name" v="Gamlegjerdet" />
		<tag k="place" v="farm" />
		<tag k="ssr:stedsnr" v="435836" />
	</node>
	<node id="9961970839" lat="62.1457963" lon="6.1218575" version="1" timestamp="2022-08-18T16:32:46Z" changeset="125070030" uid="3497659" user="NKA">
		<tag k="name" v="Rotevatn" />
		<tag k="place" v="hamlet" />
		<tag k="ssr:stedsnr" v="435832" />
	</node>
	<node id="9961970840" lat="62.1344472" lon="6.6104586" version="1" timestamp="2022-08-18T16:32:46Z" changeset="125070030" uid="3497659" user="NKA">
		<tag k="name" v="Seljebakkplassen" />
		<tag k="place" v="locality" />
		<tag k="ssr:stedsnr" v="955850" />
	</node>
	<node id="9961970841" lat="62.1484055" lon="5.882042" version="1" timestamp="2022-08-18T16:32:46Z" changeset="125070030" uid="3497659" user="NKA">
		<tag k="historic" v="shieling" />
		<tag k="name" v="Ulvestadsætra" />
		<tag k="place" v="isolated_dwelling" />
		<tag k="ssr:stedsnr" v="435811" />
	</node>
	<node id="9961970842" lat="62.07565" lon="6.0495864" version="1" timestamp="2022-08-18T16:32:46Z" changeset="125070030" uid="3497659" user="NKA">
		<tag k="historic" v="shieling" />
		<tag k="name" v="Straumssætra" />
		<tag k="place" v="isolated_dwelling" />
		<tag k="ssr:stedsnr" v="253913" />
	</node>
	<node id="9961970843" lat="62.1204174" lon="5.9405829" version="1" timestamp="2022-08-18T16:32:46Z" changeset="125070030" uid="3497659" user="NKA">
		<tag k="alt_name" v="Vika;Drabløsvik" />
		<tag k="name" v="Dravlausvik" />
		<tag k="place" v="hamlet" />
		<tag k="ssr:stedsnr" v="374794" />
	</node>
	<node id="9961970844" lat="62.0845138" lon="6.3401614" version="1" timestamp="2022-08-18T16:32:46Z" changeset="125070030" uid="3497659" user="NKA">
		<tag k="historic" v="shieling" />
		<tag k="name" v="Fjellstøylen" />
		<tag k="place" v="isolated_dwelling" />
		<tag k="ssr:stedsnr" v="529960" />
	</node>
	<node id="9961970845" lat="62.1607833" lon="5.936628" version="1" timestamp="2022-08-18T16:32:46Z" changeset="125070030" uid="3497659" user="NKA">
		<tag k="alt_name" v="Skaret" />
		<tag k="name" v="Skarde" />
		<tag k="place" v="farm" />
		<tag k="ssr:stedsnr" v="800060" />
	</node>
	<node id="9961970846" lat="62.1738438" lon="6.0047408" version="1" timestamp="2022-08-18T16:32:46Z" changeset="125070030" uid="3497659" user="NKA">
		<tag k="alt_name" v="Eikreim" />
		<tag k="name" v="Eikrem" />
		<tag k="place" v="hamlet" />
		<tag k="ssr:stedsnr" v="557010" />
	</node>
	<node id="9961970847" lat="62.0819223" lon="6.4461224" version="1" timestamp="2022-08-18T16:32:46Z" changeset="125070030" uid="3497659" user="NKA">
		<tag k="alt_name" v="Skjåstadsætra" />
		<tag k="historic" v="shieling" />
		<tag k="name" v="Skjåstadstølen" />
		<tag k="place" v="isolated_dwelling" />
		<tag k="ssr:stedsnr" v="678637" />
	</node>
	<node id="9961970848" lat="62.0960027" lon="5.9992891" version="1" timestamp="2022-08-18T16:32:46Z" changeset="125070030" uid="3497659" user="NKA">
		<tag k="historic" v="shieling" />
		<tag k="name" v="Folkestadsætra" />
		<tag k="place" v="isolated_dwelling" />
		<tag k="ssr:stedsnr" v="556832" />
	</node>
	<node id="9961970849" lat="62.0566056" lon="5.9385143" version="1" timestamp="2022-08-18T16:32:46Z" changeset="125070030" uid="3497659" user="NKA">
		<tag k="name" v="Vonheim" />
		<tag k="place" v="farm" />
		<tag k="ssr:stedsnr" v="739870" />
	</node>
	<node id="9961970850" lat="62.0588301" lon="6.2995779" version="1" timestamp="2022-08-18T16:32:46Z" changeset="125070030" uid="3497659" user="NKA">
		<tag k="name" v="Juvika" />
		<tag k="place" v="hamlet" />
		<tag k="ssr:stedsnr" v="921736" />
	</node>
	<node id="9961970851" lat="62.1524743" lon="5.9323993" version="1" timestamp="2022-08-18T16:32:46Z" changeset="125070030" uid="3497659" user="NKA">
		<tag k="alt_name" v="Åsen" />
		<tag k="name" v="Sætreåsen" />
		<tag k="place" v="hamlet" />
		<tag k="ssr:stedsnr" v="800056" />
	</node>
	<node id="9961970852" lat="62.1115833" lon="5.9374086" version="1" timestamp="2022-08-18T16:32:46Z" changeset="125070030" uid="3497659" user="NKA">
		<tag k="name" v="Haugane" />
		<tag k="place" v="farm" />
		<tag k="ssr:stedsnr" v="771525" />
	</node>
	<node id="9961970853" lat="62.1242667" lon="5.9737252" version="1" timestamp="2022-08-18T16:32:46Z" changeset="125070030" uid="3497659" user="NKA">
		<tag k="name" v="Gråneset" />
		<tag k="place" v="farm" />
		<tag k="ssr:stedsnr" v="938215" />
	</node>
	<node id="9961970854" lat="62.1795345" lon="6.023436" version="1" timestamp="2022-08-18T16:32:46Z" changeset="125070030" uid="3497659" user="NKA">
		<tag k="name" v="Håskjold" />
		<tag k="place" v="hamlet" />
		<tag k="ssr:stedsnr" v="445505" />
	</node>
	<node id="9961970855" lat="62.1196215" lon="6.0215162" version="1" timestamp="2022-08-18T16:32:46Z" changeset="125070030" uid="3497659" user="NKA">
		<tag k="name" v="Brenne" />
		<tag k="place" v="farm" />
		<tag k="ssr:stedsnr" v="832590" />
	</node>
	<node id="9961970856" lat="62.1769944" lon="5.9033892" version="1" timestamp="2022-08-18T16:32:46Z" changeset="125070030" uid="3497659" user="NKA">
		<tag k="historic" v="shieling" />
		<tag k="name" v="Tilsetsætra" />
		<tag k="place" v="isolated_dwelling" />
		<tag k="ssr:stedsnr" v="314017" />
	</node>
	<node id="9961970857" lat="62.121988" lon="6.0269921" version="1" timestamp="2022-08-18T16:32:46Z" changeset="125070030" uid="3497659" user="NKA">
		<tag k="name" v="Reitane" />
		<tag k="place" v="hamlet" />
		<tag k="ssr:stedsnr" v="921785" />
	</node>
	<node id="9961970858" lat="62.1478" lon="5.8817114" version="1" timestamp="2022-08-18T16:32:46Z" changeset="125070030" uid="3497659" user="NKA">
		<tag k="historic" v="shieling" />
		<tag k="name" v="Lauvstadsetra" />
		<tag k="place" v="isolated_dwelling" />
		<tag k="ssr:stedsnr" v="832859" />
	</node>
	<node id="9961970859" lat="62.1530468" lon="5.9445683" version="1" timestamp="2022-08-18T16:32:46Z" changeset="125070030" uid="3497659" user="NKA">
		<tag k="name" v="Sætre" />
		<tag k="place" v="hamlet" />
		<tag k="ssr:stedsnr" v="314058" />
	</node>
	<node id="9961970860" lat="62.1425084" lon="6.0918557" version="1" timestamp="2022-08-18T16:32:46Z" changeset="125070030" uid="3497659" user="NKA">
		<tag k="name" v="Leitet" />
		<tag k="place" v="farm" />
		<tag k="ssr:stedsnr" v="799829" />
	</node>
	<node id="9961970861" lat="62.0900722" lon="6.0064641" version="1" timestamp="2022-08-18T16:32:46Z" changeset="125070030" uid="3497659" user="NKA">
		<tag k="historic" v="shieling" />
		<tag k="name" v="Innaforsetra" />
		<tag k="place" v="isolated_dwelling" />
		<tag k="ssr:stedsnr" v="771888" />
	</node>
	<node id="9961970862" lat="62.0768722" lon="6.3347002" version="1" timestamp="2022-08-18T16:32:46Z" changeset="125070030" uid="3497659" user="NKA">
		<tag k="alt_name" v="Litledalssætra" />
		<tag k="historic" v="shieling" />
		<tag k="name" v="Litledalsstølen" />
		<tag k="place" v="isolated_dwelling" />
		<tag k="ssr:stedsnr" v="800631" />
	</node>
	<node id="9961970863" lat="62.1162181" lon="6.0234667" version="1" timestamp="2022-08-18T16:32:46Z" changeset="125070030" uid="3497659" user="NKA">
		<tag k="name" v="Holte" />
		<tag k="place" v="farm" />
		<tag k="ssr:stedsnr" v="407601" />
	</node>
	<node id="9961970864" lat="62.1489493" lon="6.1036234" version="1" timestamp="2022-08-18T16:32:46Z" changeset="125070030" uid="3497659" user="NKA">
		<tag k="alt_name" v="Heltne" />
		<tag k="name" v="Heltnane" />
		<tag k="place" v="neighbourhood" />
		<tag k="ssr:stedsnr" v="435808" />
	</node>
	<node id="9961970865" lat="62.0730638" lon="6.2165603" version="1" timestamp="2022-08-18T16:32:46Z" changeset="125070030" uid="3497659" user="NKA">
		<tag k="alt_name" v="Høydal indre" />
		<tag k="name" v="Indre Høydal" />
		<tag k="place" v="farm" />
		<tag k="ssr:stedsnr" v="770481" />
	</node>
	<node id="9961970866" lat="62.0111182" lon="5.8437497" version="1" timestamp="2022-08-18T16:32:46Z" changeset="125070030" uid="3497659" user="NKA">
		<tag k="alt_name" v="Åmelfoten;Ytre Åmelfot" />
		<tag k="name" v="Ytre Åmelfoten" />
		<tag k="place" v="farm" />
		<tag k="ssr:stedsnr" v="10943" />
	</node>
	<node id="9961970867" lat="62.1127379" lon="6.0314217" version="1" timestamp="2022-08-18T16:32:46Z" changeset="125070030" uid="3497659" user="NKA">
		<tag k="name" v="Flote ytre" />
		<tag k="place" v="farm" />
		<tag k="ssr:stedsnr" v="771400" />
	</node>
	<node id="9961970868" lat="62.1721556" lon="6.014703" version="1" timestamp="2022-08-18T16:32:46Z" changeset="125070030" uid="3497659" user="NKA">
		<tag k="name" v="Haugen" />
		<tag k="place" v="farm" />
		<tag k="ssr:stedsnr" v="132012" />
	</node>
	<node id="9961970869" lat="62.1205629" lon="6.0162982" version="1" timestamp="2022-08-18T16:32:46Z" changeset="125070030" uid="3497659" user="NKA">
		<tag k="name" v="Åsebøen" />
		<tag k="place" v="hamlet" />
		<tag k="ssr:stedsnr" v="435794" />
	</node>
	<node id="9961970870" lat="62.209125" lon="5.9603975" version="1" timestamp="2022-08-18T16:32:46Z" changeset="125070030" uid="3497659" user="NKA">
		<tag k="name" v="Indre Lid" />
		<tag k="old_name" v="Lid-indre" />
		<tag k="place" v="farm" />
		<tag k="ssr:stedsnr" v="164705" />
	</node>
	<node id="9961970871" lat="62.0092649" lon="5.8441414" version="1" timestamp="2022-08-18T16:32:46Z" changeset="125070030" uid="3497659" user="NKA">
		<tag k="alt_name" v="Indre Åmelfot;Åmelfoten;Åmelfot" />
		<tag k="name" v="Indre Åmelfoten" />
		<tag k="place" v="farm" />
		<tag k="ssr:stedsnr" v="407383" />
	</node>
	<node id="9961970872" lat="62.0026078" lon="6.6487132" version="1" timestamp="2022-08-18T16:32:46Z" changeset="125070030" uid="3497659" user="NKA">
		<tag k="name" v="Raftevollen" />
		<tag k="place" v="farm" />
		<tag k="ssr:stedsnr" v="921266" />
	</node>
	<node id="9961970873" lat="62.0895894" lon="6.2380511" version="1" timestamp="2022-08-18T16:32:46Z" changeset="125070030" uid="3497659" user="NKA">
		<tag k="name" v="Selvika" />
		<tag k="place" v="hamlet" />
		<tag k="ssr:stedsnr" v="678654" />
	</node>
	<node id="9961970874" lat="61.993775" lon="6.4469557" version="1" timestamp="2022-08-18T16:32:46Z" changeset="125070030" uid="3497659" user="NKA">
		<tag k="historic" v="shieling" />
		<tag k="name" v="Otredalssætra" />
		<tag k="place" v="isolated_dwelling" />
		<tag k="ssr:stedsnr" v="920829" />
	</node>
	<node id="9961970875" lat="62.10445" lon="6.2123336" version="1" timestamp="2022-08-18T16:32:46Z" changeset="125070030" uid="3497659" user="NKA">
		<tag k="historic" v="shieling" />
		<tag k="name" v="Hjartåsætra" />
		<tag k="place" v="isolated_dwelling" />
		<tag k="ssr:stedsnr" v="678855" />
	</node>
	<node id="9961970876" lat="62.1717777" lon="6.0418725" version="1" timestamp="2022-08-18T16:32:46Z" changeset="125070030" uid="3497659" user="NKA">
		<tag k="name" v="Furene" />
		<tag k="place" v="neighbourhood" />
		<tag k="ssr:stedsnr" v="140133" />
	</node>
	<node id="9961970877" lat="61.937725" lon="6.4921113" version="1" timestamp="2022-08-18T16:32:46Z" changeset="125070030" uid="3497659" user="NKA">
		<tag k="name" v="Innerhola" />
		<tag k="place" v="farm" />
		<tag k="ssr:stedsnr" v="799922" />
	</node>
	<node id="9961970878" lat="62.0431731" lon="6.0464552" version="1" timestamp="2022-08-18T16:32:46Z" changeset="125070030" uid="3497659" user="NKA">
		<tag k="name" v="Øvre - Kile" />
		<tag k="place" v="farm" />
		<tag k="ssr:stedsnr" v="142280" />
	</node>
	<node id="9961970879" lat="62.0583039" lon="6.3295735" version="1" timestamp="2022-08-18T16:32:46Z" changeset="125070030" uid="3497659" user="NKA">
		<tag k="name" v="Sunndalskleiva" />
		<tag k="place" v="farm" />
		<tag k="ssr:stedsnr" v="521893" />
	</node>
	<node id="9961970880" lat="62.0932741" lon="5.9628743" version="1" timestamp="2022-08-18T16:32:46Z" changeset="125070030" uid="3497659" user="NKA">
		<tag k="alt_name" v="Rossetvik" />
		<tag k="name" v="Rossetvikane" />
		<tag k="place" v="farm" />
		<tag k="ssr:stedsnr" v="43460" />
	</node>
	<node id="9961970881" lat="62.1355798" lon="5.9663448" version="1" timestamp="2022-08-18T16:32:46Z" changeset="125070030" uid="3497659" user="NKA">
		<tag k="name" v="Ytre Nautvika" />
		<tag k="place" v="farm" />
		<tag k="ssr:stedsnr" v="43507" />
	</node>
	<node id="9961970882" lat="62.1481784" lon="6.1184307" version="1" timestamp="2022-08-18T16:32:46Z" changeset="125070030" uid="3497659" user="NKA">
		<tag k="name" v="Vikebygda" />
		<tag k="place" v="suburb" />
		<tag k="ssr:stedsnr" v="314787" />
	</node>
	<node id="9961970883" lat="61.9843538" lon="6.5213198" version="1" timestamp="2022-08-18T16:32:46Z" changeset="125070030" uid="3497659" user="NKA">
		<tag k="name" v="Lødøen" />
		<tag k="place" v="farm" />
		<tag k="ssr:stedsnr" v="799896" />
	</node>
	<node id="9961970884" lat="62.1104694" lon="5.9393141" version="1" timestamp="2022-08-18T16:32:46Z" changeset="125070030" uid="3497659" user="NKA">
		<tag k="name" v="Osen" />
		<tag k="place" v="farm" />
		<tag k="ssr:stedsnr" v="589480" />
	</node>
	<node id="9961970885" lat="62.2024389" lon="5.9787114" version="1" timestamp="2022-08-18T16:32:46Z" changeset="125070030" uid="3497659" user="NKA">
		<tag k="name" v="Einebakken" />
		<tag k="place" v="farm" />
		<tag k="ssr:stedsnr" v="42682" />
	</node>
	<node id="9961970886" lat="61.9885145" lon="6.5784489" version="1" timestamp="2022-08-18T16:32:46Z" changeset="125070030" uid="3497659" user="NKA">
		<tag k="name" v="Sætra" />
		<tag k="place" v="farm" />
		<tag k="ssr:stedsnr" v="738896" />
	</node>
	<node id="9961970887" lat="62.0622897" lon="5.9241681" version="1" timestamp="2022-08-18T16:32:46Z" changeset="125070030" uid="3497659" user="NKA">
		<tag k="name" v="Indre Dale" />
		<tag k="old_name" v="Dale-indre" />
		<tag k="place" v="farm" />
		<tag k="ssr:stedsnr" v="164339" />
	</node>
	<node id="9961970888" lat="61.9627529" lon="6.5128005" version="1" timestamp="2022-08-18T16:32:46Z" changeset="125070030" uid="3497659" user="NKA">
		<tag k="name" v="Svor" />
		<tag k="place" v="hamlet" />
		<tag k="ssr:stedsnr" v="781744" />
	</node>
	<node id="9961970889" lat="62.063516" lon="5.896453" version="1" timestamp="2022-08-18T16:32:46Z" changeset="125070030" uid="3497659" user="NKA">
		<tag k="name" v="Innselset" />
		<tag k="place" v="hamlet" />
		<tag k="ssr:stedsnr" v="253936" />
	</node>
	<node id="9961970890" lat="61.9612132" lon="6.5454772" version="1" timestamp="2022-08-18T16:32:46Z" changeset="125070030" uid="3497659" user="NKA">
		<tag k="name" v="Grothaugen" />
		<tag k="place" v="farm" />
		<tag k="ssr:stedsnr" v="677901" />
	</node>
	<node id="9961970891" lat="62.0319789" lon="6.3984781" version="1" timestamp="2022-08-18T16:32:46Z" changeset="125070030" uid="3497659" user="NKA">
		<tag k="name" v="Sørekalvatn" />
		<tag k="place" v="farm" />
		<tag k="ssr:stedsnr" v="688180" />
	</node>
	<node id="9961970892" lat="61.9862445" lon="6.0474587" version="1" timestamp="2022-08-18T16:32:46Z" changeset="125070030" uid="3497659" user="NKA">
		<tag k="historic" v="shieling" />
		<tag k="name" v="Løsetsetra" />
		<tag k="place" v="isolated_dwelling" />
		<tag k="ssr:stedsnr" v="711578" />
	</node>
	<node id="9961970893" lat="62.0771694" lon="5.889067" version="1" timestamp="2022-08-18T16:32:46Z" changeset="125070030" uid="3497659" user="NKA">
		<tag k="historic" v="shieling" />
		<tag k="name" v="Hovlida" />
		<tag k="place" v="isolated_dwelling" />
		<tag k="ssr:stedsnr" v="11913" />
	</node>
	<node id="9961970894" lat="62.165125" lon="6.1240114" version="1" timestamp="2022-08-18T16:32:46Z" changeset="125070030" uid="3497659" user="NKA">
		<tag k="name" v="Turnhytta" />
		<tag k="place" v="isolated_dwelling" />
		<tag k="ssr:stedsnr" v="739047" />
	</node>
	<node id="9961970895" lat="62.0707131" lon="6.2015554" version="1" timestamp="2022-08-18T16:32:46Z" changeset="125070030" uid="3497659" user="NKA">
		<tag k="alt_name" v="Røsten" />
		<tag k="name" v="Rysta" />
		<tag k="place" v="farm" />
		<tag k="ssr:stedsnr" v="314893" />
	</node>
	<node id="9961970896" lat="62.0784349" lon="5.9381702" version="1" timestamp="2022-08-18T16:32:46Z" changeset="125070030" uid="3497659" user="NKA">
		<tag k="name" v="Dalberget" />
		<tag k="place" v="farm" />
		<tag k="ssr:stedsnr" v="739898" />
	</node>
	<node id="9961970897" lat="62.0698839" lon="5.8988632" version="1" timestamp="2022-08-18T16:32:46Z" changeset="125070030" uid="3497659" user="NKA">
		<tag k="name" v="Nyheim" />
		<tag k="place" v="farm" />
		<tag k="ssr:stedsnr" v="71934" />
	</node>
	<node id="9961970898" lat="62.1439221" lon="6.0805829" version="1" timestamp="2022-08-18T16:32:46Z" changeset="125070030" uid="3497659" user="NKA">
		<tag k="name" v="Sagebakken" />
		<tag k="place" v="farm" />
		<tag k="ssr:stedsnr" v="399010" />
	</node>
	<node id="9961970899" lat="62.152652" lon="6.1254523" version="1" timestamp="2022-08-18T16:32:46Z" changeset="125070030" uid="3497659" user="NKA">
		<tag k="name" v="Bratteberget" />
		<tag k="place" v="neighbourhood" />
		<tag k="ssr:stedsnr" v="253811" />
	</node>
	<node id="9961970900" lat="62.0696797" lon="6.1972397" version="1" timestamp="2022-08-18T16:32:46Z" changeset="125070030" uid="3497659" user="NKA">
		<tag k="alt_name" v="Øysteberget" />
		<tag k="name" v="Øvsteberget" />
		<tag k="place" v="farm" />
		<tag k="ssr:stedsnr" v="132926" />
	</node>
	<node id="9961970901" lat="61.9959345" lon="6.5717525" version="1" timestamp="2022-08-18T16:32:46Z" changeset="125070030" uid="3497659" user="NKA">
		<tag k="name" v="Kroken" />
		<tag k="place" v="farm" />
		<tag k="ssr:stedsnr" v="616846" />
	</node>
	<node id="9961970902" lat="62.0190861" lon="5.8137031" version="1" timestamp="2022-08-18T16:32:46Z" changeset="125070030" uid="3497659" user="NKA">
		<tag k="name" v="Dansamarka" />
		<tag k="place" v="locality" />
		<tag k="ssr:stedsnr" v="528414" />
	</node>
	<node id="9961970903" lat="61.9995666" lon="6.4917642" version="1" timestamp="2022-08-18T16:32:46Z" changeset="125070030" uid="3497659" user="NKA">
		<tag k="historic" v="shieling" />
		<tag k="name" v="Midtsetra" />
		<tag k="place" v="isolated_dwelling" />
		<tag k="ssr:stedsnr" v="457214" />
	</node>
	<node id="9961970904" lat="61.9995261" lon="6.0556139" version="1" timestamp="2022-08-18T16:32:46Z" changeset="125070030" uid="3497659" user="NKA">
		<tag k="name" v="Søre Bjørkedalen" />
		<tag k="place" v="farm" />
		<tag k="ssr:stedsnr" v="570857" />
	</node>
	<node id="9961970905" lat="62.0984144" lon="6.1739206" version="1" timestamp="2022-08-18T16:32:46Z" changeset="125070030" uid="3497659" user="NKA">
		<tag k="name" v="Reitane" />
		<tag k="place" v="hamlet" />
		<tag k="ssr:stedsnr" v="132822" />
	</node>
	<node id="9961970906" lat="62.0731094" lon="6.0726452" version="1" timestamp="2022-08-18T16:32:46Z" changeset="125070030" uid="3497659" user="NKA">
		<tag k="name" v="Årviknes" />
		<tag k="old_name" v="Aarviknes" />
		<tag k="place" v="farm" />
		<tag k="ssr:stedsnr" v="164228" />
	</node>
	<node id="9961970907" lat="62.0353805" lon="6.4489751" version="1" timestamp="2022-08-18T16:32:46Z" changeset="125070030" uid="3497659" user="NKA">
		<tag k="historic" v="shieling" />
		<tag k="name" v="Kvivsdalssætra" />
		<tag k="place" v="isolated_dwelling" />
		<tag k="ssr:stedsnr" v="435726" />
	</node>
	<node id="9961970908" lat="62.147389" lon="6.0705657" version="1" timestamp="2022-08-18T16:32:46Z" changeset="125070030" uid="3497659" user="NKA">
		<tag k="name" v="Hallkjellsvik" />
		<tag k="place" v="farm" />
		<tag k="ssr:stedsnr" v="763900" />
	</node>
	<node id="9961970909" lat="62.0569755" lon="5.928209" version="1" timestamp="2022-08-18T16:32:46Z" changeset="125070030" uid="3497659" user="NKA">
		<tag k="name" v="Haukåsen" />
		<tag k="place" v="farm" />
		<tag k="ssr:stedsnr" v="374901" />
	</node>
	<node id="9961970910" lat="61.9761527" lon="6.4894307" version="1" timestamp="2022-08-18T16:32:46Z" changeset="125070030" uid="3497659" user="NKA">
		<tag k="historic" v="shieling" />
		<tag k="name" v="Ytrehornssætra" />
		<tag k="place" v="isolated_dwelling" />
		<tag k="ssr:stedsnr" v="495863" />
	</node>
	<node id="9961970911" lat="62.0686155" lon="6.201584" version="1" timestamp="2022-08-18T16:32:46Z" changeset="125070030" uid="3497659" user="NKA">
		<tag k="name" v="Berg" />
		<tag k="place" v="farm" />
		<tag k="ssr:stedsnr" v="890712" />
	</node>
	<node id="9961970912" lat="62.0570253" lon="5.9270007" version="1" timestamp="2022-08-18T16:32:46Z" changeset="125070030" uid="3497659" user="NKA">
		<tag k="name" v="Bøen" />
		<tag k="place" v="farm" />
		<tag k="ssr:stedsnr" v="285292" />
	</node>
	<node id="9961970913" lat="61.9973108" lon="6.5468487" version="1" timestamp="2022-08-18T16:32:46Z" changeset="125070030" uid="3497659" user="NKA">
		<tag k="name" v="Hjellbakkane" />
		<tag k="place" v="hamlet" />
		<tag k="ssr:stedsnr" v="435845" />
	</node>
	<node id="9961970914" lat="61.987999" lon="6.5352939" version="1" timestamp="2022-08-18T16:32:46Z" changeset="125070030" uid="3497659" user="NKA">
		<tag k="name" v="Tomasgarden" />
		<tag k="place" v="hamlet" />
		<tag k="ssr:stedsnr" v="435890" />
	</node>
	<node id="9961970915" lat="61.9944042" lon="6.6939139" version="1" timestamp="2022-08-18T16:32:46Z" changeset="125070030" uid="3497659" user="NKA">
		<tag k="historic" v="shieling" />
		<tag k="name" v="Fellessetra" />
		<tag k="place" v="isolated_dwelling" />
		<tag k="ssr:stedsnr" v="760644" />
	</node>
	<node id="9961970916" lat="61.9944791" lon="6.3586245" version="1" timestamp="2022-08-18T16:32:46Z" changeset="125070030" uid="3497659" user="NKA">
		<tag k="name" v="Osdalen" />
		<tag k="place" v="hamlet" />
		<tag k="ssr:stedsnr" v="556824" />
	</node>
	<node id="9961970917" lat="62.0586513" lon="5.9282654" version="1" timestamp="2022-08-18T16:32:46Z" changeset="125070030" uid="3497659" user="NKA">
		<tag k="name" v="Brunene" />
		<tag k="place" v="farm" />
		<tag k="ssr:stedsnr" v="314869" />
	</node>
	<node id="9961970918" lat="62.0037055" lon="6.4888418" version="1" timestamp="2022-08-18T16:32:46Z" changeset="125070030" uid="3497659" user="NKA">
		<tag k="alt_name" v="Lillestølsetra" />
		<tag k="historic" v="shieling" />
		<tag k="loc_name" v="Litlestølssetra" />
		<tag k="name" v="Litlestølssætra" />
		<tag k="place" v="isolated_dwelling" />
		<tag k="ssr:stedsnr" v="132245" />
	</node>
	<node id="9961970919" lat="62.1192057" lon="6.0974844" version="1" timestamp="2022-08-18T16:32:46Z" changeset="125070030" uid="3497659" user="NKA">
		<tag k="name" v="Greivsnes" />
		<tag k="place" v="farm" />
		<tag k="ssr:stedsnr" v="830469" />
	</node>
	<node id="9961970920" lat="62.016882" lon="6.0654347" version="1" timestamp="2022-08-18T16:32:46Z" changeset="125070030" uid="3497659" user="NKA">
		<tag k="name" v="Nørdre Bjørkedalen" />
		<tag k="place" v="hamlet" />
		<tag k="ssr:stedsnr" v="949902" />
	</node>
	<node id="9961970921" lat="62.0276499" lon="5.9041614" version="1" timestamp="2022-08-18T16:32:46Z" changeset="125070030" uid="3497659" user="NKA">
		<tag k="historic" v="shieling" />
		<tag k="name" v="Stølen" />
		<tag k="place" v="isolated_dwelling" />
		<tag k="ssr:stedsnr" v="225277" />
	</node>
	<node id="9961970922" lat="61.9945383" lon="6.0749448" version="1" timestamp="2022-08-18T16:32:46Z" changeset="125070030" uid="3497659" user="NKA">
		<tag k="name" v="Løset" />
		<tag k="place" v="hamlet" />
		<tag k="ssr:stedsnr" v="192329" />
	</node>
	<node id="9961970923" lat="62.098989" lon="6.1650472" version="1" timestamp="2022-08-18T16:32:46Z" changeset="125070030" uid="3497659" user="NKA">
		<tag k="name" v="Ervika" />
		<tag k="place" v="farm" />
		<tag k="ssr:stedsnr" v="556834" />
	</node>
	<node id="9961970924" lat="62.1471528" lon="6.0739253" version="1" timestamp="2022-08-18T16:32:46Z" changeset="125070030" uid="3497659" user="NKA">
		<tag k="name" v="Skjerva" />
		<tag k="place" v="farm" />
		<tag k="ssr:stedsnr" v="642922" />
	</node>
	<node id="9961970925" lat="62.1373422" lon="6.1343882" version="1" timestamp="2022-08-18T16:32:46Z" changeset="125070030" uid="3497659" user="NKA">
		<tag k="name" v="Vassbotnen" />
		<tag k="place" v="hamlet" />
		<tag k="ssr:stedsnr" v="738764" />
	</node>
	<node id="9961970926" lat="62.1507183" lon="6.1050479" version="1" timestamp="2022-08-18T16:32:46Z" changeset="125070030" uid="3497659" user="NKA">
		<tag k="name" v="Gjerdet" />
		<tag k="place" v="farm" />
		<tag k="ssr:stedsnr" v="460971" />
	</node>
	<node id="9961970927" lat="61.9694778" lon="6.0194947" version="1" timestamp="2022-08-18T16:32:46Z" changeset="125070030" uid="3497659" user="NKA">
		<tag k="historic" v="shieling" />
		<tag k="name" v="Ossetra" />
		<tag k="place" v="isolated_dwelling" />
		<tag k="ssr:stedsnr" v="408936" />
	</node>
	<node id="9961970928" lat="62.134525" lon="6.1328641" version="1" timestamp="2022-08-18T16:32:46Z" changeset="125070030" uid="3497659" user="NKA">
		<tag k="name" v="Nymarka" />
		<tag k="place" v="farm" />
		<tag k="ssr:stedsnr" v="799779" />
	</node>
	<node id="9961970929" lat="62.0100461" lon="5.8433877" version="1" timestamp="2022-08-18T16:32:46Z" changeset="125070030" uid="3497659" user="NKA">
		<tag k="name" v="Åmelfoten" />
		<tag k="place" v="hamlet" />
		<tag k="ssr:stedsnr" v="449846" />
	</node>
	<node id="9961970930" lat="62.1465139" lon="6.1392975" version="1" timestamp="2022-08-18T16:32:46Z" changeset="125070030" uid="3497659" user="NKA">
		<tag k="name" v="Kleppen" />
		<tag k="place" v="farm" />
		<tag k="ssr:stedsnr" v="399976" />
	</node>
	<node id="9961970931" lat="62.1509066" lon="6.1396527" version="1" timestamp="2022-08-18T16:32:46Z" changeset="125070030" uid="3497659" user="NKA">
		<tag k="alt_name" v="Driveklepp" />
		<tag k="name" v="Drivklepp" />
		<tag k="place" v="hamlet" />
		<tag k="ssr:stedsnr" v="617820" />
	</node>
	<node id="9961970932" lat="62.1454872" lon="6.0831894" version="1" timestamp="2022-08-18T16:32:46Z" changeset="125070030" uid="3497659" user="NKA">
		<tag k="name" v="Kvernabakken" />
		<tag k="place" v="farm" />
		<tag k="ssr:stedsnr" v="399895" />
	</node>
	<node id="9961970933" lat="62.1370222" lon="6.1497531" version="1" timestamp="2022-08-18T16:32:46Z" changeset="125070030" uid="3497659" user="NKA">
		<tag k="historic" v="shieling" />
		<tag k="name" v="Skinstøylen" />
		<tag k="place" v="isolated_dwelling" />
		<tag k="ssr:stedsnr" v="399966" />
	</node>
	<node id="9961970934" lat="62.1403861" lon="6.1748169" version="1" timestamp="2022-08-18T16:32:46Z" changeset="125070030" uid="3497659" user="NKA">
		<tag k="historic" v="shieling" />
		<tag k="name" v="Storesætra" />
		<tag k="place" v="isolated_dwelling" />
		<tag k="ssr:stedsnr" v="833232" />
	</node>
	<node id="9961970935" lat="62.1518209" lon="6.1316671" version="1" timestamp="2022-08-18T16:32:46Z" changeset="125070030" uid="3497659" user="NKA">
		<tag k="name" v="Dalen" />
		<tag k="place" v="farm" />
		<tag k="ssr:stedsnr" v="374811" />
	</node>
	<node id="9961970936" lat="61.9413095" lon="6.4935524" version="1" timestamp="2022-08-18T16:32:46Z" changeset="125070030" uid="3497659" user="NKA">
		<tag k="name" v="Kjøs" />
		<tag k="place" v="hamlet" />
		<tag k="ssr:stedsnr" v="313944" />
	</node>
	<node id="9961970937" lat="62.1291667" lon="6.190453" version="1" timestamp="2022-08-18T16:32:46Z" changeset="125070030" uid="3497659" user="NKA">
		<tag k="historic" v="shieling" />
		<tag k="name" v="Rotevassætra" />
		<tag k="place" v="isolated_dwelling" />
		<tag k="ssr:stedsnr" v="374771" />
	</node>
	<node id="9961970938" lat="62.1439305" lon="6.1676919" version="1" timestamp="2022-08-18T16:32:46Z" changeset="125070030" uid="3497659" user="NKA">
		<tag k="historic" v="shieling" />
		<tag k="name" v="Timannsætra" />
		<tag k="place" v="isolated_dwelling" />
		<tag k="ssr:stedsnr" v="338960" />
	</node>
	<node id="9961970939" lat="61.936675" lon="6.5214391" version="1" timestamp="2022-08-18T16:32:46Z" changeset="125070030" uid="3497659" user="NKA">
		<tag k="name" v="Røvik" />
		<tag k="place" v="farm" />
		<tag k="ssr:stedsnr" v="677921" />
	</node>
	<node id="9961970940" lat="62.1506811" lon="6.1230607" version="1" timestamp="2022-08-18T16:32:46Z" changeset="125070030" uid="3497659" user="NKA">
		<tag k="name" v="Hagen" />
		<tag k="place" v="farm" />
		<tag k="ssr:stedsnr" v="96965" />
	</node>
	<node id="9961970941" lat="61.9656547" lon="6.5300503" version="1" timestamp="2022-08-18T16:32:46Z" changeset="125070030" uid="3497659" user="NKA">
		<tag k="name" v="Kirkhornsbakkane" />
		<tag k="place" v="neighbourhood" />
		<tag k="ssr:stedsnr" v="646846" />
	</node>
	<node id="9961970942" lat="61.9727682" lon="6.5265177" version="1" timestamp="2022-08-18T16:32:46Z" changeset="125070030" uid="3497659" user="NKA">
		<tag k="name" v="Kyrkjhorne" />
		<tag k="place" v="farm" />
		<tag k="ssr:stedsnr" v="678252" />
	</node>
	<node id="9961970943" lat="61.9522777" lon="6.486778" version="1" timestamp="2022-08-18T16:32:46Z" changeset="125070030" uid="3497659" user="NKA">
		<tag k="historic" v="shieling" />
		<tag k="name" v="Kongsviksætra" />
		<tag k="place" v="isolated_dwelling" />
		<tag k="ssr:stedsnr" v="192900" />
	</node>
	<node id="9961970944" lat="61.9758222" lon="6.544428" version="1" timestamp="2022-08-18T16:32:46Z" changeset="125070030" uid="3497659" user="NKA">
		<tag k="historic" v="shieling" />
		<tag k="name" v="Lønnssætra" />
		<tag k="place" v="isolated_dwelling" />
		<tag k="ssr:stedsnr" v="253869" />
	</node>
	<node id="9961970945" lat="62.1492473" lon="6.1464486" version="1" timestamp="2022-08-18T16:32:46Z" changeset="125070030" uid="3497659" user="NKA">
		<tag k="name" v="Lidabakkane" />
		<tag k="place" v="farm" />
		<tag k="ssr:stedsnr" v="35889" />
	</node>
	<node id="9961970946" lat="62.1478721" lon="6.1486441" version="1" timestamp="2022-08-18T16:32:46Z" changeset="125070030" uid="3497659" user="NKA">
		<tag k="name" v="Nedrelida" />
		<tag k="place" v="hamlet" />
		<tag k="ssr:stedsnr" v="131841" />
	</node>
	<node id="9961970947" lat="61.962775" lon="6.5308836" version="1" timestamp="2022-08-18T16:32:46Z" changeset="125070030" uid="3497659" user="NKA">
		<tag k="name" v="Lund" />
		<tag k="place" v="farm" />
		<tag k="ssr:stedsnr" v="434876" />
	</node>
	<node id="9961970948" lat="62.1498272" lon="6.1092426" version="1" timestamp="2022-08-18T16:32:46Z" changeset="125070030" uid="3497659" user="NKA">
		<tag k="alt_name" v="Ura;Plassen" />
		<tag k="name" v="Ura - Plassen" />
		<tag k="old_name" v="LITLEBØ;Litlebø" />
		<tag k="place" v="farm" />
		<tag k="ssr:stedsnr" v="885963" />
	</node>
	<node id="9961970949" lat="62.1577556" lon="6.1300031" version="1" timestamp="2022-08-18T16:32:46Z" changeset="125070030" uid="3497659" user="NKA">
		<tag k="alt_name" v="Bergs-sætra" />
		<tag k="historic" v="shieling" />
		<tag k="name" v="Bergssætra" />
		<tag k="place" v="isolated_dwelling" />
		<tag k="ssr:stedsnr" v="885961" />
	</node>
	<node id="9961970950" lat="61.9724027" lon="6.563939" version="1" timestamp="2022-08-18T16:32:46Z" changeset="125070030" uid="3497659" user="NKA">
		<tag k="historic" v="shieling" />
		<tag k="name" v="Gamlesetra" />
		<tag k="place" v="isolated_dwelling" />
		<tag k="ssr:stedsnr" v="153653" />
	</node>
	<node id="9961970951" lat="61.9319423" lon="6.5078038" version="1" timestamp="2022-08-18T16:32:46Z" changeset="125070030" uid="3497659" user="NKA">
		<tag k="name" v="Jutdalen" />
		<tag k="place" v="hamlet" />
		<tag k="ssr:stedsnr" v="313925" />
	</node>
	<node id="9961970952" lat="62.1307028" lon="6.1641612" version="1" timestamp="2022-08-18T16:32:46Z" changeset="125070030" uid="3497659" user="NKA">
		<tag k="historic" v="shieling" />
		<tag k="name" v="Botnasætra" />
		<tag k="place" v="isolated_dwelling" />
		<tag k="ssr:stedsnr" v="771672" />
	</node>
	<node id="9961970953" lat="62.1416639" lon="6.1892168" version="1" timestamp="2022-08-18T16:32:46Z" changeset="125070030" uid="3497659" user="NKA">
		<tag k="name" v="Kroken" />
		<tag k="place" v="isolated_dwelling" />
		<tag k="ssr:stedsnr" v="192778" />
	</node>
	<node id="9961970954" lat="61.9975861" lon="6.6894168" version="1" timestamp="2022-08-18T16:32:46Z" changeset="125070030" uid="3497659" user="NKA">
		<tag k="alt_name" v="Knutsdalsetra" />
		<tag k="name" v="Knutsdalssætra" />
		<tag k="place" v="locality" />
		<tag k="ssr:stedsnr" v="799236" />
	</node>
	<node id="9961970955" lat="62.1580639" lon="6.1012114" version="1" timestamp="2022-08-18T16:32:46Z" changeset="125070030" uid="3497659" user="NKA">
		<tag k="historic" v="shieling" />
		<tag k="name" v="Ullastøylen" />
		<tag k="place" v="isolated_dwelling" />
		<tag k="ssr:stedsnr" v="338944" />
	</node>
	<node id="9961970956" lat="62.1441639" lon="6.0885668" version="1" timestamp="2022-08-18T16:32:46Z" changeset="125070030" uid="3497659" user="NKA">
		<tag k="alt_name" v="Nymarka" />
		<tag k="name" v="Nymark" />
		<tag k="place" v="farm" />
		<tag k="ssr:stedsnr" v="192836" />
	</node>
	<node id="9961970957" lat="62.1482438" lon="6.1024229" version="1" timestamp="2022-08-18T16:32:46Z" changeset="125070030" uid="3497659" user="NKA">
		<tag k="name" v="Hammaren" />
		<tag k="place" v="farm" />
		<tag k="ssr:stedsnr" v="399926" />
	</node>
	<node id="9961970958" lat="62.0758425" lon="6.1044613" version="1" timestamp="2022-08-18T16:32:46Z" changeset="125070030" uid="3497659" user="NKA">
		<tag k="name" v="Lineberget" />
		<tag k="place" v="farm" />
		<tag k="ssr:stedsnr" v="253919" />
	</node>
	<node id="9961970959" lat="62.1601277" lon="6.0911642" version="1" timestamp="2022-08-18T16:32:46Z" changeset="125070030" uid="3497659" user="NKA">
		<tag k="name" v="Ullastøylen" />
		<tag k="place" v="isolated_dwelling" />
		<tag k="ssr:stedsnr" v="557767" />
	</node>
	<node id="9961970960" lat="61.9991367" lon="6.6519396" version="1" timestamp="2022-08-18T16:32:46Z" changeset="125070030" uid="3497659" user="NKA">
		<tag k="name" v="Nygard" />
		<tag k="place" v="farm" />
		<tag k="ssr:stedsnr" v="678253" />
	</node>
	<node id="9961970961" lat="62.0627055" lon="6.068592" version="1" timestamp="2022-08-18T16:32:46Z" changeset="125070030" uid="3497659" user="NKA">
		<tag k="name" v="Brauta" />
		<tag k="place" v="farm" />
		<tag k="ssr:stedsnr" v="375870" />
	</node>
	<node id="9961970962" lat="62.1033357" lon="6.1415817" version="1" timestamp="2022-08-18T16:32:46Z" changeset="125070030" uid="3497659" user="NKA">
		<tag k="name" v="Homborset" />
		<tag k="place" v="hamlet" />
		<tag k="ssr:stedsnr" v="10880" />
	</node>
	<node id="9961970963" lat="62.0935641" lon="6.0871813" version="1" timestamp="2022-08-18T16:32:46Z" changeset="125070030" uid="3497659" user="NKA">
		<tag k="name" v="Mek" />
		<tag k="place" v="hamlet" />
		<tag k="ssr:stedsnr" v="930146" />
	</node>
	<node id="9961970964" lat="62.026175" lon="6.7113107" version="1" timestamp="2022-08-18T16:32:46Z" changeset="125070030" uid="3497659" user="NKA">
		<tag k="name" v="Støverstein" />
		<tag k="place" v="farm" />
		<tag k="ssr:stedsnr" v="436679" />
	</node>
	<node id="9961970965" lat="61.9938472" lon="6.6979557" version="1" timestamp="2022-08-18T16:32:46Z" changeset="125070030" uid="3497659" user="NKA">
		<tag k="historic" v="shieling" />
		<tag k="name" v="Sandgrova" />
		<tag k="place" v="isolated_dwelling" />
		<tag k="ssr:stedsnr" v="314246" />
	</node>
	<node id="9961970966" lat="62.1387649" lon="6.0825066" version="1" timestamp="2022-08-18T16:32:46Z" changeset="125070030" uid="3497659" user="NKA">
		<tag k="name" v="Rotset" />
		<tag k="place" v="hamlet" />
		<tag k="ssr:stedsnr" v="314805" />
	</node>
	<node id="9961970967" lat="61.9986139" lon="6.656478" version="1" timestamp="2022-08-18T16:32:46Z" changeset="125070030" uid="3497659" user="NKA">
		<tag k="historic" v="shieling" />
		<tag k="name" v="Gards-stølane" />
		<tag k="place" v="isolated_dwelling" />
		<tag k="ssr:stedsnr" v="396612" />
	</node>
	<node id="9961970968" lat="62.1497919" lon="6.0668877" version="1" timestamp="2022-08-18T16:32:46Z" changeset="125070030" uid="3497659" user="NKA">
		<tag k="name" v="Engeset" />
		<tag k="place" v="farm" />
		<tag k="ssr:stedsnr" v="799814" />
	</node>
	<node id="9961970969" lat="61.9752099" lon="6.1108539" version="1" timestamp="2022-08-18T16:32:46Z" changeset="125070030" uid="3497659" user="NKA">
		<tag k="historic" v="shieling" />
		<tag k="name" v="Stigedalssætra" />
		<tag k="place" v="isolated_dwelling" />
		<tag k="ssr:stedsnr" v="142301" />
	</node>
	<node id="9961970970" lat="62.0061444" lon="6.0492727" version="1" timestamp="2022-08-18T16:32:46Z" changeset="125070030" uid="3497659" user="NKA">
		<tag k="name" v="Jogarden" />
		<tag k="place" v="farm" />
		<tag k="ssr:stedsnr" v="21328" />
	</node>
	<node id="9961970971" lat="61.975203" lon="6.1108392" version="1" timestamp="2022-08-18T16:32:46Z" changeset="125070030" uid="3497659" user="NKA">
		<tag k="name" v="Løsetsætra" />
		<tag k="place" v="farm" />
		<tag k="ssr:stedsnr" v="10249" />
	</node>
	<node id="9961970972" lat="61.9988332" lon="6.0568853" version="1" timestamp="2022-08-18T16:32:46Z" changeset="125070030" uid="3497659" user="NKA">
		<tag k="alt_name" v="Øygarden" />
		<tag k="name" v="Eidseflot" />
		<tag k="place" v="hamlet" />
		<tag k="ssr:stedsnr" v="495305" />
	</node>
	<node id="9961970973" lat="61.994075" lon="5.786167" version="1" timestamp="2022-08-18T16:32:46Z" changeset="125070030" uid="3497659" user="NKA">
		<tag k="historic" v="shieling" />
		<tag k="name" v="Tryfta" />
		<tag k="place" v="isolated_dwelling" />
		<tag k="ssr:stedsnr" v="252039" />
	</node>
	<node id="9961970974" lat="61.9999917" lon="5.7636086" version="1" timestamp="2022-08-18T16:32:46Z" changeset="125070030" uid="3497659" user="NKA">
		<tag k="historic" v="shieling" />
		<tag k="name" v="Storlisætra" />
		<tag k="place" v="isolated_dwelling" />
		<tag k="ssr:stedsnr" v="617965" />
	</node>
	<node id="9961970975" lat="62.1367695" lon="6.6456224" version="1" timestamp="2022-08-18T16:32:46Z" changeset="125070030" uid="3497659" user="NKA">
		<tag k="historic" v="shieling" />
		<tag k="name" v="Holssætra" />
		<tag k="place" v="isolated_dwelling" />
		<tag k="ssr:stedsnr" v="954893" />
	</node>
	<node id="9961970976" lat="62.1542022" lon="6.0624438" version="1" timestamp="2022-08-18T16:32:46Z" changeset="125070030" uid="3497659" user="NKA">
		<tag k="name" v="Klepp" />
		<tag k="place" v="hamlet" />
		<tag k="ssr:stedsnr" v="557056" />
	</node>
	<node id="9961970977" lat="62.212656" lon="5.9552789" version="1" timestamp="2022-08-18T16:32:46Z" changeset="125070030" uid="3497659" user="NKA">
		<tag k="name" v="Leite" />
		<tag k="place" v="farm" />
		<tag k="ssr:stedsnr" v="346664" />
	</node>
	<node id="9961970978" lat="62.2104098" lon="5.9590825" version="1" timestamp="2022-08-18T16:32:46Z" changeset="125070030" uid="3497659" user="NKA">
		<tag k="name" v="Lid" />
		<tag k="place" v="hamlet" />
		<tag k="ssr:stedsnr" v="982921" />
	</node>
	<node id="9961970979" lat="62.213119" lon="5.9541836" version="1" timestamp="2022-08-18T16:32:46Z" changeset="125070030" uid="3497659" user="NKA">
		<tag k="name" v="Bøen" />
		<tag k="place" v="farm" />
		<tag k="ssr:stedsnr" v="860103" />
	</node>
	<node id="9961970980" lat="62.0602986" lon="6.35734" version="1" timestamp="2022-08-18T16:32:46Z" changeset="125070030" uid="3497659" user="NKA">
		<tag k="name" v="Bjørkly" />
		<tag k="place" v="farm" />
		<tag k="ssr:stedsnr" v="253747" />
	</node>
	<node id="9961970981" lat="62.1431273" lon="6.1296069" version="1" timestamp="2022-08-18T16:32:46Z" changeset="125070030" uid="3497659" user="NKA">
		<tag k="name" v="Nybø" />
		<tag k="place" v="farm" />
		<tag k="ssr:stedsnr" v="769196" />
	</node>
	<node id="9961970982" lat="62.0651702" lon="5.9263825" version="1" timestamp="2022-08-18T16:32:46Z" changeset="125070030" uid="3497659" user="NKA">
		<tag k="name" v="Ytre Dale" />
		<tag k="old_name" v="Dale-ytre" />
		<tag k="place" v="farm" />
		<tag k="ssr:stedsnr" v="953311" />
	</node>
	<node id="9961970983" lat="62.0986124" lon="5.9283883" version="1" timestamp="2022-08-18T16:32:46Z" changeset="125070030" uid="3497659" user="NKA">
		<tag k="name" v="Lyngneset" />
		<tag k="place" v="farm" />
		<tag k="ssr:stedsnr" v="813853" />
	</node>
	<node id="9961970984" lat="62.0284611" lon="6.6723974" version="1" timestamp="2022-08-18T16:32:46Z" changeset="125070030" uid="3497659" user="NKA">
		<tag k="historic" v="shieling" />
		<tag k="name" v="Hornindalssætra" />
		<tag k="place" v="hamlet" />
		<tag k="ssr:stedsnr" v="72667" />
	</node>
	<node id="9961970985" lat="62.0468974" lon="6.4269551" version="1" timestamp="2022-08-18T16:32:46Z" changeset="125070030" uid="3497659" user="NKA">
		<tag k="alt_name" v="Bueide" />
		<tag k="name" v="Bueidet" />
		<tag k="place" v="farm" />
		<tag k="ssr:stedsnr" v="314711" />
	</node>
	<node id="9961970986" lat="62.0209611" lon="6.7181263" version="1" timestamp="2022-08-18T16:32:46Z" changeset="125070030" uid="3497659" user="NKA">
		<tag k="name" v="Lyngvoll" />
		<tag k="place" v="farm" />
		<tag k="ssr:stedsnr" v="861226" />
	</node>
	<node id="9961970987" lat="62.0566742" lon="6.3794394" version="1" timestamp="2022-08-18T16:32:46Z" changeset="125070030" uid="3497659" user="NKA">
		<tag k="name" v="Langeneset" />
		<tag k="place" v="farm" />
		<tag k="ssr:stedsnr" v="800706" />
	</node>
	<node id="9961970988" lat="62.0515778" lon="6.3494696" version="1" timestamp="2022-08-18T16:32:46Z" changeset="125070030" uid="3497659" user="NKA">
		<tag k="historic" v="shieling" />
		<tag k="name" v="Gjersdalssætra" />
		<tag k="place" v="isolated_dwelling" />
		<tag k="ssr:stedsnr" v="71740" />
	</node>
	<node id="9961970989" lat="62.0408157" lon="6.4089137" version="1" timestamp="2022-08-18T16:32:46Z" changeset="125070030" uid="3497659" user="NKA">
		<tag k="name" v="Kalvassvik" />
		<tag k="place" v="farm" />
		<tag k="ssr:stedsnr" v="35966" />
	</node>
	<node id="9961970990" lat="62.0746416" lon="6.2226763" version="1" timestamp="2022-08-18T16:32:46Z" changeset="125070030" uid="3497659" user="NKA">
		<tag k="name" v="Høydalsvika" />
		<tag k="place" v="hamlet" />
		<tag k="ssr:stedsnr" v="435664" />
	</node>
	<node id="9961970991" lat="62.0487463" lon="6.396617" version="1" timestamp="2022-08-18T16:32:46Z" changeset="125070030" uid="3497659" user="NKA">
		<tag k="name" v="Eide" />
		<tag k="place" v="hamlet" />
		<tag k="ssr:stedsnr" v="193689" />
	</node>
	<node id="9961970992" lat="61.9838056" lon="6.6395612" version="1" timestamp="2022-08-18T16:32:46Z" changeset="125070030" uid="3497659" user="NKA">
		<tag k="alt_name" v="Tomasgardsetra" />
		<tag k="historic" v="shieling" />
		<tag k="name" v="Tomasgardsætra" />
		<tag k="place" v="isolated_dwelling" />
		<tag k="ssr:stedsnr" v="556299" />
	</node>
	<node id="9961970993" lat="62.1026668" lon="6.4742722" version="1" timestamp="2022-08-18T16:32:46Z" changeset="125070030" uid="3497659" user="NKA">
		<tag k="historic" v="shieling" />
		<tag k="name" v="Bakkedalssætra" />
		<tag k="place" v="hamlet" />
		<tag k="ssr:stedsnr" v="921673" />
	</node>
	<node id="9961970994" lat="61.9721445" lon="5.808192" version="1" timestamp="2022-08-18T16:32:46Z" changeset="125070030" uid="3497659" user="NKA">
		<tag k="historic" v="shieling" />
		<tag k="name" v="Broten" />
		<tag k="place" v="isolated_dwelling" />
		<tag k="ssr:stedsnr" v="626537" />
	</node>
	<node id="9961970995" lat="62.0604737" lon="6.3583462" version="1" timestamp="2022-08-18T16:32:46Z" changeset="125070030" uid="3497659" user="NKA">
		<tag k="name" v="Aursnes" />
		<tag k="place" v="farm" />
		<tag k="ssr:stedsnr" v="217955" />
	</node>
	<node id="9961970996" lat="62.1133594" lon="6.5436847" version="1" timestamp="2022-08-18T16:32:46Z" changeset="125070030" uid="3497659" user="NKA">
		<tag k="name" v="Sætre" />
		<tag k="place" v="farm" />
		<tag k="ssr:stedsnr" v="800662" />
	</node>
	<node id="9961970997" lat="62.0557438" lon="6.3792783" version="1" timestamp="2022-08-18T16:32:46Z" changeset="125070030" uid="3497659" user="NKA">
		<tag k="name" v="Langenes" />
		<tag k="place" v="farm" />
		<tag k="ssr:stedsnr" v="217963" />
	</node>
	<node id="9961970998" lat="62.0968611" lon="6.2904779" version="1" timestamp="2022-08-18T16:32:46Z" changeset="125070030" uid="3497659" user="NKA">
		<tag k="historic" v="shieling" />
		<tag k="name" v="Austadsætra" />
		<tag k="place" v="isolated_dwelling" />
		<tag k="ssr:stedsnr" v="738670" />
	</node>
	<node id="9961970999" lat="61.9788323" lon="6.5135296" version="1" timestamp="2022-08-18T16:32:46Z" changeset="125070030" uid="3497659" user="NKA">
		<tag k="name" v="Vellene" />
		<tag k="place" v="hamlet" />
		<tag k="ssr:stedsnr" v="495865" />
	</node>
	<node id="9961971000" lat="62.1389279" lon="6.1347734" version="1" timestamp="2022-08-18T16:32:46Z" changeset="125070030" uid="3497659" user="NKA">
		<tag k="name" v="Bøen" />
		<tag k="place" v="farm" />
		<tag k="ssr:stedsnr" v="521966" />
	</node>
	<node id="9961971001" lat="62.0821166" lon="6.4429641" version="1" timestamp="2022-08-18T16:32:46Z" changeset="125070030" uid="3497659" user="NKA">
		<tag k="historic" v="shieling" />
		<tag k="name" v="Saurssætra" />
		<tag k="place" v="isolated_dwelling" />
		<tag k="ssr:stedsnr" v="799661" />
	</node>
	<node id="9961971002" lat="62.1170306" lon="5.9406642" version="1" timestamp="2022-08-18T16:32:46Z" changeset="125070030" uid="3497659" user="NKA">
		<tag k="name" v="Holen" />
		<tag k="place" v="farm" />
		<tag k="ssr:stedsnr" v="921791" />
	</node>
	<node id="9961971003" lat="62.0908195" lon="6.2620058" version="1" timestamp="2022-08-18T16:32:46Z" changeset="125070030" uid="3497659" user="NKA">
		<tag k="alt_name" v="Støylane" />
		<tag k="historic" v="shieling" />
		<tag k="name" v="Litlesætra" />
		<tag k="place" v="isolated_dwelling" />
		<tag k="ssr:stedsnr" v="496661" />
	</node>
	<node id="9961971004" lat="62.2057106" lon="5.9695401" version="1" timestamp="2022-08-18T16:32:46Z" changeset="125070030" uid="3497659" user="NKA">
		<tag k="name" v="Berkvika" />
		<tag k="place" v="hamlet" />
		<tag k="ssr:stedsnr" v="435127" />
	</node>
	<node id="9961971005" lat="62.1863945" lon="5.8641502" version="1" timestamp="2022-08-18T16:32:46Z" changeset="125070030" uid="3497659" user="NKA">
		<tag k="historic" v="shieling" />
		<tag k="name" v="Litlesetra" />
		<tag k="place" v="isolated_dwelling" />
		<tag k="ssr:stedsnr" v="212820" />
	</node>
	<node id="9961971006" lat="62.1375063" lon="6.6109748" version="1" timestamp="2022-08-18T16:32:46Z" changeset="125070030" uid="3497659" user="NKA">
		<tag k="name" v="Hole" />
		<tag k="place" v="hamlet" />
		<tag k="ssr:stedsnr" v="436654" />
	</node>
	<node id="9961971007" lat="62.0735084" lon="6.5295696" version="1" timestamp="2022-08-18T16:32:46Z" changeset="125070030" uid="3497659" user="NKA">
		<tag k="historic" v="shieling" />
		<tag k="name" v="Raudstadsætra" />
		<tag k="place" v="isolated_dwelling" />
		<tag k="ssr:stedsnr" v="193716" />
	</node>
	<node id="9961971008" lat="61.9649939" lon="6.5247437" version="1" timestamp="2022-08-18T16:32:46Z" changeset="125070030" uid="3497659" user="NKA">
		<tag k="name" v="Urdene" />
		<tag k="place" v="neighbourhood" />
		<tag k="ssr:stedsnr" v="709233" />
	</node>
	<node id="9961971009" lat="62.0695944" lon="6.4077335" version="1" timestamp="2022-08-18T16:32:46Z" changeset="125070030" uid="3497659" user="NKA">
		<tag k="historic" v="shieling" />
		<tag k="name" v="Langvassætra" />
		<tag k="place" v="isolated_dwelling" />
		<tag k="ssr:stedsnr" v="314741" />
	</node>
	<node id="9961971010" lat="62.1612107" lon="5.9439235" version="1" timestamp="2022-08-18T16:32:46Z" changeset="125070030" uid="3497659" user="NKA">
		<tag k="name" v="Bjørkvoll" />
		<tag k="place" v="hamlet" />
		<tag k="ssr:stedsnr" v="132027" />
	</node>
	<node id="9961971011" lat="62.1338302" lon="5.9685896" version="1" timestamp="2022-08-18T16:32:46Z" changeset="125070030" uid="3497659" user="NKA">
		<tag k="name" v="Nautvika" />
		<tag k="place" v="hamlet" />
		<tag k="ssr:stedsnr" v="131780" />
	</node>
	<node id="9961971012" lat="62.1631707" lon="5.9183969" version="1" timestamp="2022-08-18T16:32:46Z" changeset="125070030" uid="3497659" user="NKA">
		<tag k="name" v="Haugen" />
		<tag k="place" v="hamlet" />
		<tag k="ssr:stedsnr" v="11026" />
	</node>
	<node id="9961971013" lat="62.0724706" lon="6.4767381" version="1" timestamp="2022-08-18T16:32:46Z" changeset="125070030" uid="3497659" user="NKA">
		<tag k="name" v="Morka" />
		<tag k="place" v="hamlet" />
		<tag k="ssr:stedsnr" v="132733" />
	</node>
	<node id="9961971014" lat="62.1139545" lon="6.5312436" version="1" timestamp="2022-08-18T16:32:46Z" changeset="125070030" uid="3497659" user="NKA">
		<tag k="name" v="Bakken" />
		<tag k="place" v="locality" />
		<tag k="ssr:stedsnr" v="314678" />
	</node>
	<node id="9961971015" lat="62.1715324" lon="5.9315315" version="1" timestamp="2022-08-18T16:32:46Z" changeset="125070030" uid="3497659" user="NKA">
		<tag k="name" v="Torvika" />
		<tag k="place" v="hamlet" />
		<tag k="ssr:stedsnr" v="72022" />
	</node>
	<node id="9961971016" lat="62.1180527" lon="5.8825725" version="1" timestamp="2022-08-18T16:32:46Z" changeset="125070030" uid="3497659" user="NKA">
		<tag k="historic" v="shieling" />
		<tag k="name" v="Gamlestøylen" />
		<tag k="place" v="isolated_dwelling" />
		<tag k="ssr:stedsnr" v="192788" />
	</node>
	<node id="9961971017" lat="61.9383953" lon="6.4890622" version="1" timestamp="2022-08-18T16:32:46Z" changeset="125070030" uid="3497659" user="NKA">
		<tag k="name" v="Hola" />
		<tag k="place" v="farm" />
		<tag k="ssr:stedsnr" v="555908" />
	</node>
	<node id="9961971018" lat="62.1243407" lon="5.9412416" version="1" timestamp="2022-08-18T16:32:46Z" changeset="125070030" uid="3497659" user="NKA">
		<tag k="alt_name" v="Dravlaus;Dravlaus ytre" />
		<tag k="name" v="Ytre Dravlaus" />
		<tag k="place" v="farm" />
		<tag k="ssr:stedsnr" v="10797" />
	</node>
	<node id="9961971019" lat="62.0382694" lon="6.3840446" version="1" timestamp="2022-08-18T16:32:46Z" changeset="125070030" uid="3497659" user="NKA">
		<tag k="historic" v="shieling" />
		<tag k="name" v="Eidssætra" />
		<tag k="place" v="isolated_dwelling" />
		<tag k="ssr:stedsnr" v="253715" />
	</node>
	<node id="9961971020" lat="62.1626305" lon="5.9267587" version="1" timestamp="2022-08-18T16:32:46Z" changeset="125070030" uid="3497659" user="NKA">
		<tag k="name" v="Gjerdet" />
		<tag k="place" v="farm" />
		<tag k="ssr:stedsnr" v="861030" />
	</node>
	<node id="9961971021" lat="62.1554299" lon="5.925001" version="1" timestamp="2022-08-18T16:32:46Z" changeset="125070030" uid="3497659" user="NKA">
		<tag k="name" v="Løndalen" />
		<tag k="place" v="farm" />
		<tag k="ssr:stedsnr" v="193064" />
	</node>
	<node id="9961971022" lat="62.1934453" lon="5.8758477" version="1" timestamp="2022-08-18T16:32:46Z" changeset="125070030" uid="3497659" user="NKA">
		<tag k="name" v="Koppen" />
		<tag k="place" v="hamlet" />
		<tag k="ssr:stedsnr" v="314113" />
	</node>
	<node id="9961971023" lat="62.1870421" lon="5.8818923" version="1" timestamp="2022-08-18T16:32:46Z" changeset="125070030" uid="3497659" user="NKA">
		<tag k="name" v="Høystøylen" />
		<tag k="place" v="hamlet" />
		<tag k="ssr:stedsnr" v="374126" />
	</node>
	<node id="9961971024" lat="62.1761929" lon="5.9293299" version="1" timestamp="2022-08-18T16:32:46Z" changeset="125070030" uid="3497659" user="NKA">
		<tag k="name" v="Stigen" />
		<tag k="place" v="farm" />
		<tag k="ssr:stedsnr" v="496012" />
	</node>
	<node id="9961971025" lat="62.07305" lon="6.2910502" version="1" timestamp="2022-08-18T16:32:46Z" changeset="125070030" uid="3497659" user="NKA">
		<tag k="name" v="Leirvika" />
		<tag k="place" v="farm" />
		<tag k="ssr:stedsnr" v="739631" />
	</node>
	<node id="9961971026" lat="62.1143527" lon="6.5861862" version="1" timestamp="2022-08-18T16:32:46Z" changeset="125070030" uid="3497659" user="NKA">
		<tag k="historic" v="shieling" />
		<tag k="name" v="Grønestøylen" />
		<tag k="place" v="locality" />
		<tag k="ssr:stedsnr" v="409231" />
	</node>
	<node id="9961971027" lat="62.2191616" lon="5.9370996" version="1" timestamp="2022-08-18T16:32:46Z" changeset="125070030" uid="3497659" user="NKA">
		<tag k="name" v="Berkneset" />
		<tag k="place" v="farm" />
		<tag k="ssr:stedsnr" v="146581" />
	</node>
	<node id="9961971028" lat="62.116617" lon="5.9374408" version="1" timestamp="2022-08-18T16:32:46Z" changeset="125070030" uid="3497659" user="NKA">
		<tag k="name" v="Myra" />
		<tag k="place" v="farm" />
		<tag k="ssr:stedsnr" v="131805" />
	</node>
	<node id="9961971029" lat="62.1543331" lon="5.9389307" version="1" timestamp="2022-08-18T16:32:46Z" changeset="125070030" uid="3497659" user="NKA">
		<tag k="name" v="Grøtholen" />
		<tag k="place" v="farm" />
		<tag k="ssr:stedsnr" v="436055" />
	</node>
	<node id="9961971030" lat="61.9645639" lon="6.5299752" version="1" timestamp="2022-08-18T16:32:46Z" changeset="125070030" uid="3497659" user="NKA">
		<tag k="name" v="Nyland" />
		<tag k="place" v="neighbourhood" />
		<tag k="ssr:stedsnr" v="950848" />
	</node>
	<node id="9961971031" lat="61.9980782" lon="6.6125619" version="1" timestamp="2022-08-18T16:32:46Z" changeset="125070030" uid="3497659" user="NKA">
		<tag k="name" v="Bakke" />
		<tag k="place" v="farm" />
		<tag k="ssr:stedsnr" v="978087" />
	</node>
	<node id="9961971032" lat="62.0045009" lon="5.8533506" version="1" timestamp="2022-08-18T16:32:46Z" changeset="125070030" uid="3497659" user="NKA">
		<tag k="name" v="Steinsvika" />
		<tag k="place" v="hamlet" />
		<tag k="ssr:stedsnr" v="314953" />
	</node>
	<node id="9961971033" lat="61.9986388" lon="6.6882696" version="1" timestamp="2022-08-18T16:32:46Z" changeset="125070030" uid="3497659" user="NKA">
		<tag k="historic" v="shieling" />
		<tag k="name" v="Litleknutsdalssetra" />
		<tag k="place" v="isolated_dwelling" />
		<tag k="ssr:stedsnr" v="638624" />
	</node>
	<node id="9961971034" lat="61.9983095" lon="6.6045175" version="1" timestamp="2022-08-18T16:32:46Z" changeset="125070030" uid="3497659" user="NKA">
		<tag k="name" v="Ljosvang" />
		<tag k="place" v="farm" />
		<tag k="ssr:stedsnr" v="942224" />
	</node>
	<node id="9961971035" lat="61.9925356" lon="6.6123894" version="1" timestamp="2022-08-18T16:32:46Z" changeset="125070030" uid="3497659" user="NKA">
		<tag k="loc_name" v="Taranset" />
		<tag k="name" v="Taraldset" />
		<tag k="place" v="hamlet" />
		<tag k="ssr:stedsnr" v="920213" />
	</node>
	<node id="9961971036" lat="62.0051611" lon="6.5879584" version="1" timestamp="2022-08-18T16:32:46Z" changeset="125070030" uid="3497659" user="NKA">
		<tag k="historic" v="shieling" />
		<tag k="name" v="Dovesetra" />
		<tag k="place" v="isolated_dwelling" />
		<tag k="ssr:stedsnr" v="942225" />
	</node>
	<node id="9961971037" lat="62.1820861" lon="5.8614031" version="1" timestamp="2022-08-18T16:32:46Z" changeset="125070030" uid="3497659" user="NKA">
		<tag k="historic" v="shieling" />
		<tag k="name" v="Velsviksætra" />
		<tag k="place" v="isolated_dwelling" />
		<tag k="ssr:stedsnr" v="71007" />
	</node>
	<node id="9961971038" lat="62.0089194" lon="6.5708056" version="1" timestamp="2022-08-18T16:32:46Z" changeset="125070030" uid="3497659" user="NKA">
		<tag k="historic" v="shieling" />
		<tag k="name" v="Gamlesetra" />
		<tag k="place" v="isolated_dwelling" />
		<tag k="ssr:stedsnr" v="821645" />
	</node>
	<node id="9961971039" lat="61.991869" lon="6.5213645" version="1" timestamp="2022-08-18T16:32:46Z" changeset="125070030" uid="3497659" user="NKA">
		<tag k="name" v="Lødemel" />
		<tag k="place" v="hamlet" />
		<tag k="ssr:stedsnr" v="799894" />
	</node>
	<node id="9961971040" lat="61.9615667" lon="6.512719" version="1" timestamp="2022-08-18T16:32:46Z" changeset="125070030" uid="3497659" user="NKA">
		<tag k="name" v="Midtre Svor" />
		<tag k="place" v="farm" />
		<tag k="ssr:stedsnr" v="920902" />
	</node>
	<node id="9961971041" lat="61.9912826" lon="6.5318774" version="1" timestamp="2022-08-18T16:32:46Z" changeset="125070030" uid="3497659" user="NKA">
		<tag k="name" v="Gausemel" />
		<tag k="place" v="farm" />
		<tag k="ssr:stedsnr" v="799899" />
	</node>
	<node id="9961971042" lat="62.0620086" lon="6.2920458" version="1" timestamp="2022-08-18T16:32:46Z" changeset="125070030" uid="3497659" user="NKA">
		<tag k="name" v="Høgset" />
		<tag k="place" v="farm" />
		<tag k="ssr:stedsnr" v="771296" />
	</node>
	<node id="9961971043" lat="61.9833" lon="6.6327585" version="1" timestamp="2022-08-18T16:32:46Z" changeset="125070030" uid="3497659" user="NKA">
		<tag k="historic" v="shieling" />
		<tag k="name" v="Nyesætra" />
		<tag k="place" v="isolated_dwelling" />
		<tag k="ssr:stedsnr" v="799257" />
	</node>
	<node id="9961971044" lat="61.993652" lon="6.5549457" version="1" timestamp="2022-08-18T16:32:46Z" changeset="125070030" uid="3497659" user="NKA">
		<tag k="name" v="Fannemel" />
		<tag k="place" v="neighbourhood" />
		<tag k="ssr:stedsnr" v="707858" />
	</node>
	<node id="9961971045" lat="62.0833078" lon="6.2912275" version="1" timestamp="2022-08-18T16:32:46Z" changeset="125070030" uid="3497659" user="NKA">
		<tag k="name" v="Aurstad" />
		<tag k="place" v="hamlet" />
		<tag k="ssr:stedsnr" v="617649" />
	</node>
	<node id="9961971046" lat="62.0590325" lon="6.316724" version="1" timestamp="2022-08-18T16:32:46Z" changeset="125070030" uid="3497659" user="NKA">
		<tag k="alt_name" v="Holsvik" />
		<tag k="name" v="Hollsvik" />
		<tag k="place" v="hamlet" />
		<tag k="ssr:stedsnr" v="270910" />
	</node>
	<node id="9961971047" lat="62.0164703" lon="6.5649238" version="1" timestamp="2022-08-18T16:32:46Z" changeset="125070030" uid="3497659" user="NKA">
		<tag k="historic" v="shieling" />
		<tag k="name" v="Bruasætra" />
		<tag k="place" v="hamlet" />
		<tag k="ssr:stedsnr" v="739242" />
	</node>
	<node id="9961971048" lat="62.0015232" lon="6.5727537" version="1" timestamp="2022-08-18T16:32:46Z" changeset="125070030" uid="3497659" user="NKA">
		<tag k="name" v="Engelund" />
		<tag k="place" v="farm" />
		<tag k="ssr:stedsnr" v="760251" />
	</node>
	<node id="9961971049" lat="62.0596193" lon="6.3265255" version="1" timestamp="2022-08-18T16:32:46Z" changeset="125070030" uid="3497659" user="NKA">
		<tag k="name" v="Fossheim" />
		<tag k="place" v="farm" />
		<tag k="ssr:stedsnr" v="314725" />
	</node>
	<node id="9961971050" lat="61.9599111" lon="6.5663501" version="1" timestamp="2022-08-18T16:32:46Z" changeset="125070030" uid="3497659" user="NKA">
		<tag k="historic" v="shieling" />
		<tag k="name" v="Grothaugsætra" />
		<tag k="place" v="isolated_dwelling" />
		<tag k="ssr:stedsnr" v="677900" />
	</node>
	<node id="9961971051" lat="62.1327861" lon="6.1168418" version="1" timestamp="2022-08-18T16:32:46Z" changeset="125070030" uid="3497659" user="NKA">
		<tag k="historic" v="shieling" />
		<tag k="name" v="Gamlesætra" />
		<tag k="place" v="isolated_dwelling" />
		<tag k="ssr:stedsnr" v="104670" />
	</node>
	<node id="9961971052" lat="62.1204695" lon="6.5457863" version="1" timestamp="2022-08-18T16:32:46Z" changeset="125070030" uid="3497659" user="NKA">
		<tag k="historic" v="shieling" />
		<tag k="name" v="Støylen" />
		<tag k="place" v="locality" />
		<tag k="ssr:stedsnr" v="45196" />
	</node>
	<node id="9961971053" lat="61.9537111" lon="6.554464" version="1" timestamp="2022-08-18T16:32:46Z" changeset="125070030" uid="3497659" user="NKA">
		<tag k="historic" v="shieling" />
		<tag k="name" v="Grodåssætra" />
		<tag k="place" v="isolated_dwelling" />
		<tag k="ssr:stedsnr" v="677889" />
	</node>
	<node id="9961971054" lat="62.1631528" lon="6.1703753" version="1" timestamp="2022-08-18T16:32:46Z" changeset="125070030" uid="3497659" user="NKA">
		<tag k="name" v="Kleppesætra" />
		<tag k="place" v="isolated_dwelling" />
		<tag k="ssr:stedsnr" v="617803" />
	</node>
	<node id="9961971055" lat="61.9782889" lon="6.6331558" version="1" timestamp="2022-08-18T16:32:46Z" changeset="125070030" uid="3497659" user="NKA">
		<tag k="historic" v="shieling" />
		<tag k="name" v="Holskarsætra" />
		<tag k="place" v="isolated_dwelling" />
		<tag k="ssr:stedsnr" v="495256" />
	</node>
	<node id="9961971056" lat="61.9984374" lon="6.5826087" version="1" timestamp="2022-08-18T16:32:46Z" changeset="125070030" uid="3497659" user="NKA">
		<tag k="name" v="Espen" />
		<tag k="place" v="hamlet" />
		<tag k="ssr:stedsnr" v="616840" />
	</node>
	<node id="9961971057" lat="62.067326" lon="6.2917049" version="1" timestamp="2022-08-18T16:32:46Z" changeset="125070030" uid="3497659" user="NKA">
		<tag k="name" v="Løfolla" />
		<tag k="place" v="hamlet" />
		<tag k="ssr:stedsnr" v="132641" />
	</node>
	<node id="9961971058" lat="62.0691861" lon="6.1924251" version="1" timestamp="2022-08-18T16:32:46Z" changeset="125070030" uid="3497659" user="NKA">
		<tag k="historic" v="shieling" />
		<tag k="name" v="Rangseter" />
		<tag k="place" v="isolated_dwelling" />
		<tag k="ssr:stedsnr" v="832353" />
	</node>
	<node id="9961971059" lat="62.1961533" lon="5.8627935" version="1" timestamp="2022-08-18T16:32:46Z" changeset="125070030" uid="3497659" user="NKA">
		<tag k="name" v="Sjurgarden" />
		<tag k="place" v="farm" />
		<tag k="ssr:stedsnr" v="496092" />
	</node>
	<node id="9961971060" lat="62.0201028" lon="6.5618085" version="1" timestamp="2022-08-18T16:32:46Z" changeset="125070030" uid="3497659" user="NKA">
		<tag k="historic" v="shieling" />
		<tag k="name" v="Storesætra" />
		<tag k="place" v="hamlet" />
		<tag k="ssr:stedsnr" v="496697" />
	</node>
	<node id="9961971061" lat="61.9791707" lon="6.5213077" version="1" timestamp="2022-08-18T16:32:46Z" changeset="125070030" uid="3497659" user="NKA">
		<tag k="name" v="Kyrkjhorne" />
		<tag k="place" v="hamlet" />
		<tag k="ssr:stedsnr" v="313875" />
	</node>
	<node id="9961971062" lat="61.9593272" lon="6.5476442" version="1" timestamp="2022-08-18T16:32:46Z" changeset="125070030" uid="3497659" user="NKA">
		<tag k="name" v="Solli" />
		<tag k="place" v="farm" />
		<tag k="ssr:stedsnr" v="131928" />
	</node>
	<node id="9961971063" lat="61.9565722" lon="6.5593669" version="1" timestamp="2022-08-18T16:32:46Z" changeset="125070030" uid="3497659" user="NKA">
		<tag k="name" v="Liskog" />
		<tag k="place" v="farm" />
		<tag k="ssr:stedsnr" v="373881" />
	</node>
	<node id="9961971064" lat="62.0986217" lon="6.1727216" version="1" timestamp="2022-08-18T16:32:46Z" changeset="125070030" uid="3497659" user="NKA">
		<tag k="name" v="Reite" />
		<tag k="place" v="farm" />
		<tag k="ssr:stedsnr" v="407083" />
	</node>
	<node id="9961971065" lat="62.0571745" lon="6.3511144" version="1" timestamp="2022-08-18T16:32:46Z" changeset="125070030" uid="3497659" user="NKA">
		<tag k="name" v="Gjersdalen" />
		<tag k="place" v="farm" />
		<tag k="ssr:stedsnr" v="921739" />
	</node>
	<node id="9961971066" lat="62.0742265" lon="6.2120638" version="1" timestamp="2022-08-18T16:32:46Z" changeset="125070030" uid="3497659" user="NKA">
		<tag k="name" v="Høydalen" />
		<tag k="place" v="hamlet" />
		<tag k="ssr:stedsnr" v="253907" />
	</node>
	<node id="9961971067" lat="62.1054472" lon="6.2166225" version="1" timestamp="2022-08-18T16:32:46Z" changeset="125070030" uid="3497659" user="NKA">
		<tag k="historic" v="shieling" />
		<tag k="name" v="Aldalsstøylen" />
		<tag k="place" v="isolated_dwelling" />
		<tag k="ssr:stedsnr" v="346544" />
	</node>
	<node id="9961971068" lat="62.0655142" lon="6.2802976" version="1" timestamp="2022-08-18T16:32:46Z" changeset="125070030" uid="3497659" user="NKA">
		<tag k="name" v="Slåttelida" />
		<tag k="place" v="farm" />
		<tag k="ssr:stedsnr" v="71767" />
	</node>
	<node id="9961971069" lat="62.0050945" lon="6.0385002" version="1" timestamp="2022-08-18T16:32:46Z" changeset="125070030" uid="3497659" user="NKA">
		<tag k="name" v="Koppen" />
		<tag k="place" v="farm" />
		<tag k="ssr:stedsnr" v="468555" />
	</node>
	<node id="9961971070" lat="62.0568444" lon="6.2617003" version="1" timestamp="2022-08-18T16:32:46Z" changeset="125070030" uid="3497659" user="NKA">
		<tag k="historic" v="shieling" />
		<tag k="name" v="Håvikseter" />
		<tag k="place" v="locality" />
		<tag k="ssr:stedsnr" v="104273" />
	</node>
	<node id="9961971071" lat="62.0455417" lon="6.224753" version="1" timestamp="2022-08-18T16:32:46Z" changeset="125070030" uid="3497659" user="NKA">
		<tag k="historic" v="shieling" />
		<tag k="name" v="Langedalssætra" />
		<tag k="place" v="isolated_dwelling" />
		<tag k="ssr:stedsnr" v="72703" />
	</node>
	<node id="9961971072" lat="62.000745" lon="5.8473989" version="1" timestamp="2022-08-18T16:32:46Z" changeset="125070030" uid="3497659" user="NKA">
		<tag k="name" v="Vassbakkane" />
		<tag k="place" v="hamlet" />
		<tag k="ssr:stedsnr" v="193957" />
	</node>
	<node id="9961971073" lat="62.0074478" lon="5.825838" version="1" timestamp="2022-08-18T16:32:46Z" changeset="125070030" uid="3497659" user="NKA">
		<tag k="alt_name" v="Åmelfotseter" />
		<tag k="name" v="Åmelfotsætra" />
		<tag k="place" v="farm" />
		<tag k="ssr:stedsnr" v="192947" />
	</node>
	<node id="9961971074" lat="62.0517747" lon="6.3363317" version="1" timestamp="2022-08-18T16:32:46Z" changeset="125070030" uid="3497659" user="NKA">
		<tag k="name" v="Engjaberget" />
		<tag k="place" v="hamlet" />
		<tag k="ssr:stedsnr" v="72711" />
	</node>
	<node id="9961971075" lat="62.0045871" lon="5.8205587" version="1" timestamp="2022-08-18T16:32:46Z" changeset="125070030" uid="3497659" user="NKA">
		<tag k="name" v="Dal" />
		<tag k="place" v="farm" />
		<tag k="ssr:stedsnr" v="649137" />
	</node>
	<node id="9961971076" lat="62.0955" lon="6.2710891" version="1" timestamp="2022-08-18T16:32:46Z" changeset="125070030" uid="3497659" user="NKA">
		<tag k="historic" v="shieling" />
		<tag k="name" v="Årsetsætra" />
		<tag k="place" v="isolated_dwelling" />
		<tag k="ssr:stedsnr" v="10680" />
	</node>
	<node id="9961971077" lat="62.0478444" lon="6.079842" version="1" timestamp="2022-08-18T16:32:46Z" changeset="125070030" uid="3497659" user="NKA">
		<tag k="historic" v="shieling" />
		<tag k="name" v="Heida" />
		<tag k="place" v="isolated_dwelling" />
		<tag k="ssr:stedsnr" v="72887" />
	</node>
	<node id="9961971078" lat="62.0561805" lon="6.2729974" version="1" timestamp="2022-08-18T16:32:46Z" changeset="125070030" uid="3497659" user="NKA">
		<tag k="historic" v="shieling" />
		<tag k="name" v="Botnastølen" />
		<tag k="place" v="isolated_dwelling" />
		<tag k="ssr:stedsnr" v="43347" />
	</node>
	<node id="9961971079" lat="62.1281917" lon="6.0143142" version="1" timestamp="2022-08-18T16:32:46Z" changeset="125070030" uid="3497659" user="NKA">
		<tag k="name" v="Bøen" />
		<tag k="place" v="farm" />
		<tag k="ssr:stedsnr" v="921773" />
	</node>
	<node id="9961971080" lat="62.0156265" lon="5.8175599" version="1" timestamp="2022-08-18T16:32:46Z" changeset="125070030" uid="3497659" user="NKA">
		<tag k="historic" v="shieling" />
		<tag k="name" v="Dansen" />
		<tag k="place" v="isolated_dwelling" />
		<tag k="ssr:stedsnr" v="10988" />
	</node>
	<node id="9961971081" lat="61.9877361" lon="5.8246197" version="1" timestamp="2022-08-18T16:32:46Z" changeset="125070030" uid="3497659" user="NKA">
		<tag k="historic" v="shieling" />
		<tag k="name" v="Støylen" />
		<tag k="place" v="isolated_dwelling" />
		<tag k="ssr:stedsnr" v="373010" />
	</node>
	<node id="9961971082" lat="62.1330017" lon="6.010913" version="1" timestamp="2022-08-18T16:32:46Z" changeset="125070030" uid="3497659" user="NKA">
		<tag k="name" v="Løndalen" />
		<tag k="place" v="farm" />
		<tag k="ssr:stedsnr" v="678756" />
	</node>
	<node id="9961971083" lat="62.1627686" lon="6.0298461" version="1" timestamp="2022-08-18T16:32:46Z" changeset="125070030" uid="3497659" user="NKA">
		<tag k="alt_name" v="Nedre Ekset" />
		<tag k="name" v="Ekset" />
		<tag k="place" v="hamlet" />
		<tag k="ssr:stedsnr" v="617056" />
	</node>
	<node id="9961971084" lat="62.1163934" lon="5.9398103" version="1" timestamp="2022-08-18T16:32:46Z" changeset="125070030" uid="3497659" user="NKA">
		<tag k="alt_name" v="Dravlaus indre" />
		<tag k="name" v="Indre Dravlaus" />
		<tag k="place" v="farm" />
		<tag k="ssr:stedsnr" v="965131" />
	</node>
	<node id="9961971085" lat="62.1136887" lon="5.9360762" version="1" timestamp="2022-08-18T16:32:46Z" changeset="125070030" uid="3497659" user="NKA">
		<tag k="name" v="Reitane" />
		<tag k="place" v="hamlet" />
		<tag k="ssr:stedsnr" v="678835" />
	</node>
	<node id="9961971086" lat="62.1566028" lon="5.9482864" version="1" timestamp="2022-08-18T16:32:46Z" changeset="125070030" uid="3497659" user="NKA">
		<tag k="name" v="Molvikgarden" />
		<tag k="place" v="farm" />
		<tag k="ssr:stedsnr" v="678064" />
	</node>
	<node id="9961971087" lat="61.9588111" lon="6.5425891" version="1" timestamp="2022-08-18T16:32:46Z" changeset="125070030" uid="3497659" user="NKA">
		<tag k="name" v="Hogden" />
		<tag k="place" v="farm" />
		<tag k="ssr:stedsnr" v="335238" />
	</node>
	<node id="9961971088" lat="61.9985445" lon="6.0856418" version="1" timestamp="2022-08-18T16:32:46Z" changeset="125070030" uid="3497659" user="NKA">
		<tag k="name" v="Sanden" />
		<tag k="place" v="farm" />
		<tag k="ssr:stedsnr" v="346572" />
	</node>
	<node id="9961971089" lat="62.0547222" lon="6.1145835" version="1" timestamp="2022-08-18T16:32:46Z" changeset="125070030" uid="3497659" user="NKA">
		<tag k="historic" v="shieling" />
		<tag k="name" v="Brundalstølen" />
		<tag k="place" v="isolated_dwelling" />
		<tag k="ssr:stedsnr" v="468087" />
	</node>
	<node id="9961971090" lat="62.0026194" lon="6.5502751" version="1" timestamp="2022-08-18T16:32:46Z" changeset="125070030" uid="3497659" user="NKA">
		<tag k="name" v="Harevadet" />
		<tag k="place" v="neighbourhood" />
		<tag k="ssr:stedsnr" v="483887" />
	</node>
	<node id="9961971091" lat="62.0665972" lon="5.9447059" version="1" timestamp="2022-08-18T16:32:46Z" changeset="125070030" uid="3497659" user="NKA">
		<tag k="historic" v="shieling" />
		<tag k="name" v="Raudegotene" />
		<tag k="place" v="isolated_dwelling" />
		<tag k="ssr:stedsnr" v="556936" />
	</node>
	<node id="9961971092" lat="62.0498147" lon="6.3284937" version="1" timestamp="2022-08-18T16:32:46Z" changeset="125070030" uid="3497659" user="NKA">
		<tag k="name" v="Sunndalen" />
		<tag k="place" v="hamlet" />
		<tag k="ssr:stedsnr" v="800689" />
	</node>
	<node id="9961971093" lat="62.0713522" lon="5.9018897" version="1" timestamp="2022-08-18T16:32:46Z" changeset="125070030" uid="3497659" user="NKA">
		<tag k="name" v="Aksnesseter" />
		<tag k="place" v="farm" />
		<tag k="ssr:stedsnr" v="467331" />
	</node>
	<node id="9961971094" lat="62.1172715" lon="5.8703876" version="1" timestamp="2022-08-18T16:32:46Z" changeset="125070030" uid="3497659" user="NKA">
		<tag k="historic" v="shieling" />
		<tag k="name" v="Nystøylen" />
		<tag k="place" v="isolated_dwelling" />
		<tag k="ssr:stedsnr" v="496776" />
	</node>
	<node id="9961971095" lat="61.9382333" lon="6.5152113" version="1" timestamp="2022-08-18T16:32:46Z" changeset="125070030" uid="3497659" user="NKA">
		<tag k="name" v="Hagvik" />
		<tag k="place" v="farm" />
		<tag k="ssr:stedsnr" v="71950" />
	</node>
	<node id="9961971096" lat="62.0503415" lon="6.3906682" version="1" timestamp="2022-08-18T16:32:46Z" changeset="125070030" uid="3497659" user="NKA">
		<tag k="alt_name" v="Hjellebø" />
		<tag k="name" v="Hjellane" />
		<tag k="place" v="farm" />
		<tag k="ssr:stedsnr" v="374710" />
	</node>
	<node id="9961971097" lat="61.9701333" lon="6.5412141" version="1" timestamp="2022-08-18T16:32:46Z" changeset="125070030" uid="3497659" user="NKA">
		<tag k="historic" v="shieling" />
		<tag k="name" v="Kyrkjhornssætra" />
		<tag k="place" v="isolated_dwelling" />
		<tag k="ssr:stedsnr" v="71919" />
	</node>
	<node id="9961971098" lat="61.9530444" lon="6.4869418" version="1" timestamp="2022-08-18T16:32:46Z" changeset="125070030" uid="3497659" user="NKA">
		<tag k="historic" v="shieling" />
		<tag k="name" v="Svorasætra" />
		<tag k="place" v="isolated_dwelling" />
		<tag k="ssr:stedsnr" v="70859" />
	</node>
	<node id="9961971099" lat="61.957067" lon="6.5556649" version="1" timestamp="2022-08-18T16:32:46Z" changeset="125070030" uid="3497659" user="NKA">
		<tag k="name" v="Lida" />
		<tag k="place" v="farm" />
		<tag k="ssr:stedsnr" v="70876" />
	</node>
	<node id="9961971100" lat="61.9803361" lon="6.5245946" version="1" timestamp="2022-08-18T16:32:46Z" changeset="125070030" uid="3497659" user="NKA">
		<tag k="name" v="Løvland" />
		<tag k="place" v="farm" />
		<tag k="ssr:stedsnr" v="10859" />
	</node>
	<node id="9961971101" lat="62.1618638" lon="5.922592" version="1" timestamp="2022-08-18T16:32:46Z" changeset="125070030" uid="3497659" user="NKA">
		<tag k="loc_name" v="Lisjemyra" />
		<tag k="name" v="Nybakk" />
		<tag k="place" v="farm" />
		<tag k="ssr:stedsnr" v="254034" />
	</node>
	<node id="9961971102" lat="62.1675709" lon="5.932287" version="1" timestamp="2022-08-18T16:32:46Z" changeset="125070030" uid="3497659" user="NKA">
		<tag k="name" v="Ulvestad" />
		<tag k="place" v="hamlet" />
		<tag k="ssr:stedsnr" v="254022" />
	</node>
	<node id="9961971103" lat="62.0554083" lon="5.9328126" version="1" timestamp="2022-08-18T16:32:46Z" changeset="125070030" uid="3497659" user="NKA">
		<tag k="name" v="Hjellane" />
		<tag k="place" v="hamlet" />
		<tag k="ssr:stedsnr" v="314866" />
	</node>
	<node id="9961971104" lat="62.1705111" lon="5.9280725" version="1" timestamp="2022-08-18T16:32:46Z" changeset="125070030" uid="3497659" user="NKA">
		<tag k="loc_name" v="Krikane" />
		<tag k="name" v="Krekane" />
		<tag k="place" v="farm" />
		<tag k="ssr:stedsnr" v="314014" />
	</node>
	<node id="9961971105" lat="62.054675" lon="6.1155308" version="1" timestamp="2022-08-18T16:32:46Z" changeset="125070030" uid="3497659" user="NKA">
		<tag k="historic" v="shieling" />
		<tag k="name" v="Innstøylen" />
		<tag k="place" v="isolated_dwelling" />
		<tag k="ssr:stedsnr" v="678882" />
	</node>
	<node id="9961971106" lat="62.0739778" lon="6.1719586" version="1" timestamp="2022-08-18T16:32:46Z" changeset="125070030" uid="3497659" user="NKA">
		<tag k="historic" v="shieling" />
		<tag k="name" v="Nykkedalsstølen" />
		<tag k="place" v="isolated_dwelling" />
		<tag k="ssr:stedsnr" v="165162" />
	</node>
	<node id="9961971107" lat="62.1408945" lon="5.9262976" version="1" timestamp="2022-08-18T16:32:46Z" changeset="125070030" uid="3497659" user="NKA">
		<tag k="historic" v="shieling" />
		<tag k="name" v="Sæsshaugen" />
		<tag k="place" v="isolated_dwelling" />
		<tag k="ssr:stedsnr" v="253828" />
	</node>
	<node id="9961971108" lat="62.0673112" lon="5.8960907" version="1" timestamp="2022-08-18T16:32:46Z" changeset="125070030" uid="3497659" user="NKA">
		<tag k="name" v="Skoglund" />
		<tag k="place" v="farm" />
		<tag k="ssr:stedsnr" v="253937" />
	</node>
	<node id="9961971109" lat="62.1103343" lon="5.9375087" version="1" timestamp="2022-08-18T16:32:46Z" changeset="125070030" uid="3497659" user="NKA">
		<tag k="name" v="Litlebøen" />
		<tag k="place" v="hamlet" />
		<tag k="ssr:stedsnr" v="131900" />
	</node>
	<node id="9961971110" lat="62.0468249" lon="5.9434388" version="1" timestamp="2022-08-18T16:32:46Z" changeset="125070030" uid="3497659" user="NKA">
		<tag k="name" v="Byrkjestøylen" />
		<tag k="place" v="locality" />
		<tag k="ssr:stedsnr" v="132894" />
	</node>
	<node id="9961971111" lat="62.0525275" lon="6.0593479" version="1" timestamp="2022-08-18T16:32:46Z" changeset="125070030" uid="3497659" user="NKA">
		<tag k="name" v="Søvika" />
		<tag k="place" v="hamlet" />
		<tag k="ssr:stedsnr" v="314877" />
	</node>
	<node id="9961971112" lat="62.045482" lon="6.0438546" version="1" timestamp="2022-08-18T16:32:46Z" changeset="125070030" uid="3497659" user="NKA">
		<tag k="name" v="Kile" />
		<tag k="place" v="hamlet" />
		<tag k="ssr:stedsnr" v="739981" />
	</node>
	<node id="9961971113" lat="62.2079155" lon="5.9857338" version="1" timestamp="2022-08-18T16:32:46Z" changeset="125070030" uid="3497659" user="NKA">
		<tag k="alt_name" v="Eidheim" />
		<tag k="name" v="Eideim" />
		<tag k="place" v="hamlet" />
		<tag k="ssr:stedsnr" v="314086" />
	</node>
	<node id="9961971114" lat="62.1646861" lon="6.0228752" version="1" timestamp="2022-08-18T16:32:46Z" changeset="125070030" uid="3497659" user="NKA">
		<tag k="alt_name" v="Ryde" />
		<tag k="name" v="Rydet" />
		<tag k="place" v="farm" />
		<tag k="ssr:stedsnr" v="72048" />
	</node>
	<node id="9961971115" lat="62.0044361" lon="5.8193059" version="1" timestamp="2022-08-18T16:32:46Z" changeset="125070030" uid="3497659" user="NKA">
		<tag k="alt_name" v="Dal" />
		<tag k="name" v="Dalen" />
		<tag k="place" v="farm" />
		<tag k="ssr:stedsnr" v="617968" />
	</node>
	<node id="9961971116" lat="62.1514527" lon="6.1296391" version="1" timestamp="2022-08-18T16:32:46Z" changeset="125070030" uid="3497659" user="NKA">
		<tag k="name" v="Fransplassen" />
		<tag k="place" v="farm" />
		<tag k="ssr:stedsnr" v="96898" />
	</node>
	<node id="9961971117" lat="62.1183707" lon="6.0145084" version="1" timestamp="2022-08-18T16:32:46Z" changeset="125070030" uid="3497659" user="NKA">
		<tag k="name" v="Bjørnanakken" />
		<tag k="place" v="hamlet" />
		<tag k="ssr:stedsnr" v="10792" />
	</node>
	<node id="9961971118" lat="62.1795363" lon="6.0348334" version="1" timestamp="2022-08-18T16:32:46Z" changeset="125070030" uid="3497659" user="NKA">
		<tag k="name" v="Gjøsstøylen" />
		<tag k="place" v="hamlet" />
		<tag k="ssr:stedsnr" v="72031" />
	</node>
	<node id="9961971119" lat="62.14944" lon="6.1170927" version="1" timestamp="2022-08-18T16:32:46Z" changeset="125070030" uid="3497659" user="NKA">
		<tag k="name" v="Kriken" />
		<tag k="place" v="farm" />
		<tag k="ssr:stedsnr" v="96966" />
	</node>
	<node id="9961971120" lat="62.2108777" lon="5.9596224" version="1" timestamp="2022-08-18T16:32:46Z" changeset="125070030" uid="3497659" user="NKA">
		<tag k="name" v="Lystad" />
		<tag k="place" v="farm" />
		<tag k="ssr:stedsnr" v="71085" />
	</node>
	<node id="9961971121" lat="62.1760333" lon="5.9175031" version="1" timestamp="2022-08-18T16:32:46Z" changeset="125070030" uid="3497659" user="NKA">
		<tag k="historic" v="shieling" />
		<tag k="name" v="Torviksetra" />
		<tag k="place" v="isolated_dwelling" />
		<tag k="ssr:stedsnr" v="43037" />
	</node>
	<node id="9961971122" lat="62.13711" lon="6.1368766" version="1" timestamp="2022-08-18T16:32:46Z" changeset="125070030" uid="3497659" user="NKA">
		<tag k="name" v="Holen" />
		<tag k="place" v="farm" />
		<tag k="ssr:stedsnr" v="28918" />
	</node>
	<node id="9961971123" lat="62.2077528" lon="5.9762336" version="1" timestamp="2022-08-18T16:32:46Z" changeset="125070030" uid="3497659" user="NKA">
		<tag k="name" v="Gjerdet" />
		<tag k="place" v="farm" />
		<tag k="ssr:stedsnr" v="892711" />
	</node>
	<node id="9961971124" lat="62.1509772" lon="5.94335" version="1" timestamp="2022-08-18T16:32:46Z" changeset="125070030" uid="3497659" user="NKA">
		<tag k="alt_name" v="Sætre" />
		<tag k="name" v="Nilsgarden" />
		<tag k="place" v="farm" />
		<tag k="ssr:stedsnr" v="10811" />
	</node>
	<node id="9961971125" lat="62.0354139" lon="6.0521309" version="1" timestamp="2022-08-18T16:32:46Z" changeset="125070030" uid="3497659" user="NKA">
		<tag k="name" v="Stakkset" />
		<tag k="place" v="farm" />
		<tag k="ssr:stedsnr" v="870290" />
	</node>
	<node id="9961971126" lat="62.1252965" lon="6.0061133" version="1" timestamp="2022-08-18T16:32:46Z" changeset="125070030" uid="3497659" user="NKA">
		<tag k="name" v="Sollida" />
		<tag k="place" v="farm" />
		<tag k="ssr:stedsnr" v="192807" />
	</node>
	<node id="9961971127" lat="62.1831028" lon="6.010667" version="1" timestamp="2022-08-18T16:32:46Z" changeset="125070030" uid="3497659" user="NKA">
		<tag k="historic" v="shieling" />
		<tag k="name" v="Nagestøylen" />
		<tag k="place" v="isolated_dwelling" />
		<tag k="ssr:stedsnr" v="35975" />
	</node>
	<node id="9961971128" lat="62.1478667" lon="6.1069058" version="1" timestamp="2022-08-18T16:32:46Z" changeset="125070030" uid="3497659" user="NKA">
		<tag k="name" v="Heltnesundet" />
		<tag k="place" v="farm" />
		<tag k="ssr:stedsnr" v="885970" />
	</node>
	<node id="9961971129" lat="62.0773965" lon="5.9124377" version="1" timestamp="2022-08-18T16:32:46Z" changeset="125070030" uid="3497659" user="NKA">
		<tag k="name" v="Aksnes" />
		<tag k="place" v="hamlet" />
		<tag k="ssr:stedsnr" v="771310" />
	</node>
	<node id="9961971130" lat="62.1712206" lon="6.0315605" version="1" timestamp="2022-08-18T16:32:46Z" changeset="125070030" uid="3497659" user="NKA">
		<tag k="name" v="Store-Mork" />
		<tag k="place" v="farm" />
		<tag k="ssr:stedsnr" v="642886" />
	</node>
	<node id="9961971131" lat="62.1820083" lon="6.0259364" version="1" timestamp="2022-08-18T16:32:46Z" changeset="125070030" uid="3497659" user="NKA">
		<tag k="name" v="Kleiva" />
		<tag k="place" v="farm" />
		<tag k="ssr:stedsnr" v="678004" />
	</node>
	<node id="9961971132" lat="62.1235728" lon="6.0176061" version="1" timestamp="2022-08-18T16:32:46Z" changeset="125070030" uid="3497659" user="NKA">
		<tag k="alt_name" v="Folkestadås" />
		<tag k="name" v="Folkestadåsen" />
		<tag k="place" v="farm" />
		<tag k="ssr:stedsnr" v="407596" />
	</node>
	<node id="9961971133" lat="62.1189729" lon="6.0159125" version="1" timestamp="2022-08-18T16:32:46Z" changeset="125070030" uid="3497659" user="NKA">
		<tag k="name" v="Bjørnenakk" />
		<tag k="place" v="farm" />
		<tag k="ssr:stedsnr" v="346564" />
	</node>
	<node id="9961971134" lat="62.1250707" lon="6.0077049" version="1" timestamp="2022-08-18T16:32:46Z" changeset="125070030" uid="3497659" user="NKA">
		<tag k="name" v="Sollid" />
		<tag k="place" v="farm" />
		<tag k="ssr:stedsnr" v="832584" />
	</node>
	<node id="9961971135" lat="62.0408413" lon="5.899301" version="1" timestamp="2022-08-18T16:32:46Z" changeset="125070030" uid="3497659" user="NKA">
		<tag k="name" v="Fjøsneset" />
		<tag k="place" v="farm" />
		<tag k="ssr:stedsnr" v="193973" />
	</node>
	<node id="9961971136" lat="62.164184" lon="6.0340678" version="1" timestamp="2022-08-18T16:32:46Z" changeset="125070030" uid="3497659" user="NKA">
		<tag k="name" v="Rot" />
		<tag k="place" v="farm" />
		<tag k="ssr:stedsnr" v="173300" />
	</node>
	<node id="9961971137" lat="62.0825583" lon="5.9446531" version="1" timestamp="2022-08-18T16:32:46Z" changeset="125070030" uid="3497659" user="NKA">
		<tag k="name" v="Dalbergstranda" />
		<tag k="place" v="locality" />
		<tag k="ssr:stedsnr" v="634108" />
	</node>
	<node id="9961971138" lat="62.0675265" lon="6.0653808" version="1" timestamp="2022-08-18T16:32:46Z" changeset="125070030" uid="3497659" user="NKA">
		<tag k="name" v="Straumshamn" />
		<tag k="place" v="farm" />
		<tag k="ssr:stedsnr" v="193923" />
	</node>
	<node id="9961971139" lat="62.1674809" lon="5.9147687" version="1" timestamp="2022-08-18T16:32:46Z" changeset="125070030" uid="3497659" user="NKA">
		<tag k="name" v="Espenakken" />
		<tag k="place" v="farm" />
		<tag k="ssr:stedsnr" v="193027" />
	</node>
	<node id="9961971140" lat="61.9900894" lon="6.5273526" version="1" timestamp="2022-08-18T16:32:46Z" changeset="125070030" uid="3497659" user="NKA">
		<tag k="name" v="Hingarden" />
		<tag k="place" v="locality" />
		<tag k="ssr:stedsnr" v="821229" />
	</node>
	<node id="9961971141" lat="62.1407694" lon="5.9256225" version="1" timestamp="2022-08-18T16:32:46Z" changeset="125070030" uid="3497659" user="NKA">
		<tag k="historic" v="shieling" />
		<tag k="name" v="Sessetra" />
		<tag k="place" v="isolated_dwelling" />
		<tag k="ssr:stedsnr" v="649833" />
	</node>
	<node id="9961971142" lat="62.0378083" lon="5.8952643" version="1" timestamp="2022-08-18T16:32:46Z" changeset="125070030" uid="3497659" user="NKA">
		<tag k="historic" v="shieling" />
		<tag k="name" v="Dalsgjerde" />
		<tag k="place" v="isolated_dwelling" />
		<tag k="ssr:stedsnr" v="893325" />
	</node>
	<node id="9961971143" lat="62.0598141" lon="5.9349771" version="1" timestamp="2022-08-18T16:32:46Z" changeset="125070030" uid="3497659" user="NKA">
		<tag k="name" v="Litlebøen" />
		<tag k="place" v="hamlet" />
		<tag k="ssr:stedsnr" v="617886" />
	</node>
	<node id="9961971144" lat="61.9935445" lon="6.5368918" version="1" timestamp="2022-08-18T16:32:46Z" changeset="125070030" uid="3497659" user="NKA">
		<tag k="name" v="Tytebærhaugen" />
		<tag k="place" v="neighbourhood" />
		<tag k="ssr:stedsnr" v="829868" />
	</node>
	<node id="9961971145" lat="62.0469147" lon="5.9499893" version="1" timestamp="2022-08-18T16:32:46Z" changeset="125070030" uid="3497659" user="NKA">
		<tag k="name" v="Hesteflotene" />
		<tag k="place" v="farm" />
		<tag k="ssr:stedsnr" v="193892" />
	</node>
	<node id="9961971146" lat="62.0938528" lon="5.9745086" version="1" timestamp="2022-08-18T16:32:46Z" changeset="125070030" uid="3497659" user="NKA">
		<tag k="name" v="Vikestøylen" />
		<tag k="place" v="isolated_dwelling" />
		<tag k="ssr:stedsnr" v="435849" />
	</node>
	<node id="9961971147" lat="61.9903013" lon="6.5187003" version="1" timestamp="2022-08-18T16:32:46Z" changeset="125070030" uid="3497659" user="NKA">
		<tag k="name" v="Kongsjord" />
		<tag k="place" v="farm" />
		<tag k="ssr:stedsnr" v="1073916" />
	</node>
	<node id="9961971148" lat="62.0299376" lon="5.9614939" version="1" timestamp="2022-08-18T16:32:46Z" changeset="125070030" uid="3497659" user="NKA">
		<tag k="historic" v="shieling" />
		<tag k="name" v="Sanden" />
		<tag k="place" v="hamlet" />
		<tag k="ssr:stedsnr" v="739997" />
	</node>
	<node id="9961971149" lat="62.0368973" lon="6.3436336" version="1" timestamp="2022-08-18T16:32:46Z" changeset="125070030" uid="3497659" user="NKA">
		<tag k="historic" v="shieling" />
		<tag k="name" v="Haralddalssætra" />
		<tag k="place" v="isolated_dwelling" />
		<tag k="ssr:stedsnr" v="71737" />
	</node>
	<node id="9961971150" lat="62.0478921" lon="6.3333005" version="1" timestamp="2022-08-18T16:32:46Z" changeset="125070030" uid="3497659" user="NKA">
		<tag k="name" v="Høybakk" />
		<tag k="place" v="farm" />
		<tag k="ssr:stedsnr" v="695894" />
	</node>
	<node id="9961971151" lat="62.0606833" lon="5.9604253" version="1" timestamp="2022-08-18T16:32:46Z" changeset="125070030" uid="3497659" user="NKA">
		<tag k="historic" v="shieling" />
		<tag k="name" v="Litlebøsætra" />
		<tag k="place" v="isolated_dwelling" />
		<tag k="ssr:stedsnr" v="193880" />
	</node>
	<node id="9961971152" lat="62.0615017" lon="5.9357674" version="1" timestamp="2022-08-18T16:32:46Z" changeset="125070030" uid="3497659" user="NKA">
		<tag k="name" v="Myra" />
		<tag k="place" v="farm" />
		<tag k="ssr:stedsnr" v="419042" />
	</node>
	<node id="9961971153" lat="62.0591639" lon="5.9295309" version="1" timestamp="2022-08-18T16:32:46Z" changeset="125070030" uid="3497659" user="NKA">
		<tag k="name" v="Brune" />
		<tag k="place" v="farm" />
		<tag k="ssr:stedsnr" v="408935" />
	</node>
	<node id="9961971154" lat="62.0242611" lon="5.8267392" version="1" timestamp="2022-08-18T16:32:46Z" changeset="125070030" uid="3497659" user="NKA">
		<tag k="historic" v="shieling" />
		<tag k="name" v="Muren" />
		<tag k="place" v="isolated_dwelling" />
		<tag k="ssr:stedsnr" v="861995" />
	</node>
	<node id="9961971155" lat="62.111458" lon="6.0313821" version="1" timestamp="2022-08-18T16:32:46Z" changeset="125070030" uid="3497659" user="NKA">
		<tag k="name" v="Flotane" />
		<tag k="place" v="hamlet" />
		<tag k="ssr:stedsnr" v="799884" />
	</node>
	<node id="9961971156" lat="62.0956222" lon="6.0005392" version="1" timestamp="2022-08-18T16:32:46Z" changeset="125070030" uid="3497659" user="NKA">
		<tag k="name" v="Hamna" />
		<tag k="place" v="isolated_dwelling" />
		<tag k="ssr:stedsnr" v="528431" />
	</node>
	<node id="9961971157" lat="62.1492556" lon="5.9157669" version="1" timestamp="2022-08-18T16:32:46Z" changeset="125070030" uid="3497659" user="NKA">
		<tag k="historic" v="shieling" />
		<tag k="name" v="Åsesetra" />
		<tag k="place" v="isolated_dwelling" />
		<tag k="ssr:stedsnr" v="771840" />
	</node>
	<node id="9961971158" lat="62.1076381" lon="6.0504406" version="1" timestamp="2022-08-18T16:32:46Z" changeset="125070030" uid="3497659" user="NKA">
		<tag k="alt_name" v="Krumsvik store" />
		<tag k="name" v="Store Krumsvik" />
		<tag k="place" v="farm" />
		<tag k="ssr:stedsnr" v="771395" />
	</node>
	<node id="9961971159" lat="62.1078363" lon="6.0528565" version="1" timestamp="2022-08-18T16:32:46Z" changeset="125070030" uid="3497659" user="NKA">
		<tag k="name" v="Krumsvika" />
		<tag k="place" v="hamlet" />
		<tag k="ssr:stedsnr" v="132846" />
	</node>
	<node id="9961971160" lat="62.0693557" lon="6.1979302" version="1" timestamp="2022-08-18T16:32:46Z" changeset="125070030" uid="3497659" user="NKA">
		<tag k="alt_name" v="Øygarden" />
		<tag k="name" v="Ødegård" />
		<tag k="place" v="farm" />
		<tag k="ssr:stedsnr" v="771340" />
	</node>
	<node id="9961971161" lat="62.066943" lon="6.0669418" version="1" timestamp="2022-08-18T16:32:46Z" changeset="125070030" uid="3497659" user="NKA">
		<tag k="name" v="Straume" />
		<tag k="place" v="hamlet" />
		<tag k="ssr:stedsnr" v="132930" />
	</node>
	<node id="9961971162" lat="62.0996444" lon="6.0508975" version="1" timestamp="2022-08-18T16:32:46Z" changeset="125070030" uid="3497659" user="NKA">
		<tag k="historic" v="shieling" />
		<tag k="name" v="Krumsviksætra" />
		<tag k="place" v="isolated_dwelling" />
		<tag k="ssr:stedsnr" v="10875" />
	</node>
	<node id="9961971163" lat="62.0721667" lon="6.2077696" version="1" timestamp="2022-08-18T16:32:46Z" changeset="125070030" uid="3497659" user="NKA">
		<tag k="alt_name" v="Høydal ytre" />
		<tag k="name" v="Ytre Høydal" />
		<tag k="place" v="farm" />
		<tag k="ssr:stedsnr" v="527497" />
	</node>
	<node id="9961971164" lat="62.1058016" lon="5.9344462" version="1" timestamp="2022-08-18T16:32:46Z" changeset="125070030" uid="3497659" user="NKA">
		<tag k="alt_name" v="Løvika" />
		<tag k="name" v="Løvik" />
		<tag k="place" v="hamlet" />
		<tag k="ssr:stedsnr" v="346522" />
	</node>
	<node id="9961971165" lat="62.0571278" lon="6.0592974" version="1" timestamp="2022-08-18T16:32:46Z" changeset="125070030" uid="3497659" user="NKA">
		<tag k="name" v="Stonganeset" />
		<tag k="place" v="farm" />
		<tag k="ssr:stedsnr" v="870309" />
	</node>
	<node id="9961971166" lat="61.985625" lon="6.0468947" version="1" timestamp="2022-08-18T16:32:46Z" changeset="125070030" uid="3497659" user="NKA">
		<tag k="historic" v="shieling" />
		<tag k="name" v="Langedalssætra" />
		<tag k="place" v="isolated_dwelling" />
		<tag k="ssr:stedsnr" v="435349" />
	</node>
	<node id="9961971167" lat="62.0555083" lon="5.9320029" version="1" timestamp="2022-08-18T16:32:46Z" changeset="125070030" uid="3497659" user="NKA">
		<tag k="name" v="Hjelle" />
		<tag k="place" v="farm" />
		<tag k="ssr:stedsnr" v="225908" />
	</node>
	<node id="9961971168" lat="62.1468532" lon="5.9392991" version="1" timestamp="2022-08-18T16:32:46Z" changeset="125070030" uid="3497659" user="NKA">
		<tag k="name" v="Kvangardsnes" />
		<tag k="place" v="farm" />
		<tag k="ssr:stedsnr" v="225692" />
	</node>
	<node id="9961971169" lat="62.0032951" lon="6.0419503" version="1" timestamp="2022-08-18T16:32:46Z" changeset="125070030" uid="3497659" user="NKA">
		<tag k="name" v="Kjellstad" />
		<tag k="place" v="farm" />
		<tag k="ssr:stedsnr" v="193948" />
	</node>
	<node id="9961971170" lat="62.0049055" lon="6.0496502" version="1" timestamp="2022-08-18T16:32:46Z" changeset="125070030" uid="3497659" user="NKA">
		<tag k="name" v="Sørdalsbøen" />
		<tag k="place" v="farm" />
		<tag k="ssr:stedsnr" v="870336" />
	</node>
	<node id="9961971171" lat="62.1430255" lon="6.0754126" version="1" timestamp="2022-08-18T16:32:46Z" changeset="125070030" uid="3497659" user="NKA">
		<tag k="loc_name" v="Øyra" />
		<tag k="name" v="Prestegarden" />
		<tag k="place" v="farm" />
		<tag k="ssr:stedsnr" v="217016" />
	</node>
	<node id="9961971172" lat="62.0062477" lon="6.0481725" version="1" timestamp="2022-08-18T16:32:46Z" changeset="125070030" uid="3497659" user="NKA">
		<tag k="name" v="Søre Bjørkedalen" />
		<tag k="place" v="hamlet" />
		<tag k="ssr:stedsnr" v="585903" />
	</node>
	<node id="9961971173" lat="62.1237048" lon="5.9399316" version="1" timestamp="2022-08-18T16:32:46Z" changeset="125070030" uid="3497659" user="NKA">
		<tag k="name" v="Dravlaus" />
		<tag k="place" v="hamlet" />
		<tag k="ssr:stedsnr" v="115160" />
	</node>
	<node id="9961971174" lat="62.0039651" lon="6.040954" version="1" timestamp="2022-08-18T16:32:46Z" changeset="125070030" uid="3497659" user="NKA">
		<tag k="name" v="Storegjære" />
		<tag k="place" v="farm" />
		<tag k="ssr:stedsnr" v="711589" />
	</node>
	<node id="9961971175" lat="62.0751329" lon="6.0678222" version="1" timestamp="2022-08-18T16:32:46Z" changeset="125070030" uid="3497659" user="NKA">
		<tag k="name" v="Årvika" />
		<tag k="place" v="hamlet" />
		<tag k="ssr:stedsnr" v="556909" />
	</node>
	<node id="9961971176" lat="62.0502472" lon="6.0692142" version="1" timestamp="2022-08-18T16:32:46Z" changeset="125070030" uid="3497659" user="NKA">
		<tag k="historic" v="shieling" />
		<tag k="name" v="Liasetra" />
		<tag k="place" v="isolated_dwelling" />
		<tag k="ssr:stedsnr" v="407721" />
	</node>
	<node id="9961971177" lat="62.0044139" lon="6.1227753" version="1" timestamp="2022-08-18T16:32:46Z" changeset="125070030" uid="3497659" user="NKA">
		<tag k="alt_name" v="Fladalssetra" />
		<tag k="historic" v="shieling" />
		<tag k="name" v="Flatdalssætra" />
		<tag k="place" v="isolated_dwelling" />
		<tag k="ssr:stedsnr" v="11963" />
	</node>
	<node id="9961971178" lat="62.1108355" lon="6.0327176" version="1" timestamp="2022-08-18T16:32:46Z" changeset="125070030" uid="3497659" user="NKA">
		<tag k="name" v="Flote indre" />
		<tag k="place" v="farm" />
		<tag k="ssr:stedsnr" v="832409" />
	</node>
	<node id="9961971179" lat="62.1181404" lon="5.9379415" version="1" timestamp="2022-08-18T16:32:46Z" changeset="125070030" uid="3497659" user="NKA">
		<tag k="alt_name" v="Myren" />
		<tag k="name" v="Lisjemyra" />
		<tag k="place" v="farm" />
		<tag k="ssr:stedsnr" v="55449" />
	</node>
	<node id="9961971180" lat="62.1843174" lon="5.9178914" version="1" timestamp="2022-08-18T16:32:46Z" changeset="125070030" uid="3497659" user="NKA">
		<tag k="name" v="Tilset" />
		<tag k="place" v="hamlet" />
		<tag k="ssr:stedsnr" v="71006" />
	</node>
	<node id="9961971181" lat="62.0458568" lon="6.3978091" version="1" timestamp="2022-08-18T16:32:46Z" changeset="125070030" uid="3497659" user="NKA">
		<tag k="name" v="Måna" />
		<tag k="place" v="farm" />
		<tag k="ssr:stedsnr" v="338939" />
	</node>
	<node id="9961971182" lat="62.1807361" lon="5.8811503" version="1" timestamp="2022-08-18T16:32:46Z" changeset="125070030" uid="3497659" user="NKA">
		<tag k="historic" v="shieling" />
		<tag k="name" v="Koppesætra" />
		<tag k="place" v="isolated_dwelling" />
		<tag k="ssr:stedsnr" v="11006" />
	</node>
	<node id="9961971183" lat="61.9954737" lon="6.6444047" version="1" timestamp="2022-08-18T16:32:46Z" changeset="125070030" uid="3497659" user="NKA">
		<tag k="name" v="Seljeset" />
		<tag k="place" v="hamlet" />
		<tag k="ssr:stedsnr" v="253260" />
	</node>
	<node id="9961971184" lat="61.9847194" lon="6.5172502" version="1" timestamp="2022-08-18T16:32:46Z" changeset="125070030" uid="3497659" user="NKA">
		<tag k="name" v="Løvoll" />
		<tag k="place" v="farm" />
		<tag k="ssr:stedsnr" v="578218" />
	</node>
	<node id="9961971185" lat="61.9502308" lon="6.4660386" version="1" timestamp="2022-08-18T16:32:46Z" changeset="125070030" uid="3497659" user="NKA">
		<tag k="name" v="Kongsvik" />
		<tag k="place" v="hamlet" />
		<tag k="ssr:stedsnr" v="616897" />
	</node>
	<node id="9961971186" lat="61.9993263" lon="6.628825" version="1" timestamp="2022-08-18T16:32:46Z" changeset="125070030" uid="3497659" user="NKA">
		<tag k="name" v="Brendefur" />
		<tag k="place" v="farm" />
		<tag k="ssr:stedsnr" v="131216" />
	</node>
	<node id="9961971187" lat="62.1962993" lon="5.8656916" version="1" timestamp="2022-08-18T16:32:46Z" changeset="125070030" uid="3497659" user="NKA">
		<tag k="name" v="Velsvika" />
		<tag k="place" v="hamlet" />
		<tag k="ssr:stedsnr" v="617128" />
	</node>
	<node id="9961971188" lat="61.9982652" lon="6.6024594" version="1" timestamp="2022-08-18T16:32:46Z" changeset="125070030" uid="3497659" user="NKA">
		<tag k="name" v="Indre Hornindal" />
		<tag k="place" v="hamlet" />
		<tag k="ssr:stedsnr" v="131214" />
	</node>
	<node id="9961971189" lat="62.0379296" lon="6.4139399" version="1" timestamp="2022-08-18T16:32:46Z" changeset="125070030" uid="3497659" user="NKA">
		<tag k="name" v="Nørekalvatn" />
		<tag k="place" v="farm" />
		<tag k="ssr:stedsnr" v="384176" />
	</node>
</osm>
