<?xml version="1.0" encoding="UTF-8"?>
<osm generator="osmapis" version="0.6">
	<node id="-487932" lat="60.6681805593" lon="5.59660000567">
		<tag k="landuse" v="harbour" />
		<tag k="name" v="Paddøyhavnen" />
		<tag k="seamark:type" v="harbour" />
		<tag k="ssr:stedsnr" v="894788" />
	</node>
	<node id="-488434" lat="60.6357249963" lon="5.49471110644">
		<tag k="name" v="Kanalen" />
		<tag k="ssr:stedsnr" v="105541" />
		<tag k="waterway" v="canal" />
	</node>
	<node id="-490476" lat="60.6018722265" lon="5.28256665852">
		<tag k="bridge" v="yes" />
		<tag k="layer" v="1" />
		<tag k="name" v="Herland" />
		<tag k="ssr:stedsnr" v="775097" />
	</node>
	<node id="-490475" lat="60.5473166701" lon="5.28116110284">
		<tag k="bridge" v="yes" />
		<tag k="layer" v="1" />
		<tag k="name" v="Knarvik barneskule" />
		<tag k="ssr:stedsnr" v="775087" />
	</node>
	<node id="-490474" lat="60.7385055543" lon="5.1577138855">
		<tag k="bridge" v="yes" />
		<tag k="layer" v="1" />
		<tag k="name" v="Kolås" />
		<tag k="ssr:stedsnr" v="775086" />
	</node>
	<node id="-490473" lat="60.6055472213" lon="5.40110556405">
		<tag k="bridge" v="yes" />
		<tag k="layer" v="1" />
		<tag k="name" v="Eidsnesstraumen" />
		<tag k="ssr:stedsnr" v="775018" />
	</node>
	<node id="-488420" lat="60.5708222196" lon="5.23038332788">
		<tag k="fixme" v="verify maritime location" />
		<tag k="mooring" v="yes" />
		<tag k="name" v="Prestestøa" />
		<tag k="place" v="locality" />
		<tag k="ssr:stedsnr" v="105420" />
	</node>
	<node id="-489947" lat="60.6543111069" lon="5.36787499984">
		<tag k="man_made" v="quay" />
		<tag k="name" v="Vetterstø" />
		<tag k="place" v="locality" />
		<tag k="ssr:stedsnr" v="651491" />
	</node>
	<node id="-488409" lat="60.5610500034" lon="5.32859721783">
		<tag k="layer" v="-1" />
		<tag k="name" v="Mundalsberget" />
		<tag k="ssr:stedsnr" v="105361" />
		<tag k="tunnel" v="yes" />
	</node>
	<node id="-487895" lat="60.7019277745" lon="5.55204444268">
		<tag k="layer" v="-1" />
		<tag k="name" v="Eikefet Små" />
		<tag k="ssr:stedsnr" v="894451" />
		<tag k="tunnel" v="yes" />
	</node>
	<node id="-489293" lat="60.574530553" lon="5.37081667151">
		<tag k="bridge" v="yes" />
		<tag k="layer" v="1" />
		<tag k="name" v="Leiknes" />
		<tag k="ssr:stedsnr" v="472091" />
	</node>
	<node id="-488268" lat="60.738655553" lon="5.63273056152">
		<tag k="bridge" v="yes" />
		<tag k="layer" v="1" />
		<tag k="name" v="Romarheim" />
		<tag k="ssr:stedsnr" v="47093" />
	</node>
	<node id="-489414" lat="60.5416499974" lon="5.28745278033">
		<tag k="man_made" v="quay" />
		<tag k="name" v="Knarvik kai" />
		<tag k="place" v="locality" />
		<tag k="ssr:stedsnr" v="530104" />
	</node>
	<node id="-487363" lat="60.5983666627" lon="5.27797778338">
		<tag k="layer" v="-1" />
		<tag k="name" v="Espelandstunnelen" />
		<tag k="ssr:stedsnr" v="291539" />
		<tag k="tunnel" v="yes" />
	</node>
	<node id="-487362" lat="60.737230555" lon="5.1615277698">
		<tag k="bridge" v="yes" />
		<tag k="layer" v="1" />
		<tag k="name" v="Fonnebostvegen" />
		<tag k="ssr:stedsnr" v="290107" />
	</node>
	<node id="-487361" lat="60.6703111127" lon="5.16741943539">
		<tag k="bridge" v="yes" />
		<tag k="layer" v="1" />
		<tag k="name" v="Skåtsund" />
		<tag k="ssr:stedsnr" v="290102" />
	</node>
	<node id="-488896" lat="60.5534527766" lon="5.27146945192">
		<tag k="man_made" v="quay" />
		<tag k="name" v="Herlandstøa" />
		<tag k="place" v="locality" />
		<tag k="ssr:stedsnr" v="227102" />
	</node>
	<node id="-488890" lat="60.6525999982" lon="5.32192221649">
		<tag k="man_made" v="quay" />
		<tag k="name" v="Støa" />
		<tag k="place" v="locality" />
		<tag k="ssr:stedsnr" v="227082" />
	</node>
	<node id="-490925" lat="60.5596277745" lon="5.24212500944">
		<tag k="man_made" v="quay" />
		<tag k="name" v="Gamlestøa" />
		<tag k="place" v="locality" />
		<tag k="ssr:stedsnr" v="955095" />
	</node>
	<node id="-489384" lat="60.6140722177" lon="5.29747221839">
		<tag k="layer" v="-1" />
		<tag k="name" v="Furuberg" />
		<tag k="ssr:stedsnr" v="529415" />
		<tag k="tunnel" v="yes" />
	</node>
	<node id="-489383" lat="60.6982333298" lon="5.57474166043">
		<tag k="layer" v="-1" />
		<tag k="name" v="Mitnes" />
		<tag k="ssr:stedsnr" v="529321" />
		<tag k="tunnel" v="yes" />
	</node>
	<node id="-487844" lat="60.6316722192" lon="5.47717221606">
		<tag k="layer" v="-1" />
		<tag k="name" v="Bjørsvik" />
		<tag k="ssr:stedsnr" v="894147" />
		<tag k="tunnel" v="yes" />
	</node>
	<node id="-490390" lat="60.5645972207" lon="5.36304999872">
		<tag k="man_made" v="quay" />
		<tag k="name" v="Mundalstø" />
		<tag k="place" v="locality" />
		<tag k="ssr:stedsnr" v="773347" />
	</node>
	<node id="-487316" lat="60.7328583333" lon="5.66899444662">
		<tag k="fixme" v="verify maritime location" />
		<tag k="mooring" v="yes" />
		<tag k="name" v="Vetle Bjørnstøa" />
		<tag k="place" v="locality" />
		<tag k="ssr:stedsnr" v="287987" />
	</node>
	<node id="-489872" lat="60.6978805583" lon="5.56787221586">
		<tag k="layer" v="-1" />
		<tag k="name" v="Utnes" />
		<tag k="ssr:stedsnr" v="650645" />
		<tag k="tunnel" v="yes" />
	</node>
	<node id="-488335" lat="60.6074833347" lon="5.28384443526">
		<tag k="bridge" v="yes" />
		<tag k="layer" v="1" />
		<tag k="name" v="Vatne" />
		<tag k="ssr:stedsnr" v="108116" />
	</node>
	<node id="-488334" lat="60.6094138901" lon="5.45551389458">
		<tag k="bridge" v="yes" />
		<tag k="layer" v="1" />
		<tag k="name" v="Totlandsmyra" />
		<tag k="ssr:stedsnr" v="108111" />
	</node>
	<node id="-490893" lat="60.59486667" lon="5.36066111774">
		<tag k="layer" v="-1" />
		<tag k="name" v="Hjelmås" />
		<tag k="ssr:stedsnr" v="954482" />
		<tag k="tunnel" v="yes" />
	</node>
	<node id="-488332" lat="60.5833861106" lon="5.36387222095">
		<tag k="bridge" v="yes" />
		<tag k="layer" v="1" />
		<tag k="name" v="Hillesvåg" />
		<tag k="ssr:stedsnr" v="108104" />
	</node>
	<node id="-490891" lat="60.6024277763" lon="5.28261944117">
		<tag k="layer" v="-1" />
		<tag k="name" v="Herland" />
		<tag k="ssr:stedsnr" v="954471" />
		<tag k="tunnel" v="yes" />
	</node>
	<node id="-487807" lat="60.6149444447" lon="5.42436667138">
		<tag k="bridge" v="yes" />
		<tag k="layer" v="1" />
		<tag k="name" v="Hindenesvegen" />
		<tag k="ssr:stedsnr" v="411114" />
	</node>
	<node id="-489854" lat="60.675705557" lon="5.50567222796">
		<tag k="alt_name" v="Eikefet" />
		<tag k="layer" v="-1" />
		<tag k="name" v="Eikefettunnelen" />
		<tag k="ssr:stedsnr" v="632672" />
		<tag k="tunnel" v="yes" />
	</node>
	<node id="-487805" lat="60.8017861079" lon="5.61781389312">
		<tag k="bridge" v="yes" />
		<tag k="layer" v="1" />
		<tag k="name" v="Olsbotn" />
		<tag k="ssr:stedsnr" v="411107" />
	</node>
	<node id="-487804" lat="60.6087555592" lon="5.39620554984">
		<tag k="bridge" v="yes" />
		<tag k="layer" v="1" />
		<tag k="name" v="Eikangervåg" />
		<tag k="ssr:stedsnr" v="411014" />
	</node>
	<node id="-490360" lat="60.5445944461" lon="5.27568888273">
		<tag k="man_made" v="quay" />
		<tag k="name" v="Klubbestøa" />
		<tag k="place" v="locality" />
		<tag k="ssr:stedsnr" v="773148" />
	</node>
	<node id="-487286" lat="60.6812916669" lon="5.22576388937">
		<tag k="layer" v="-1" />
		<tag k="name" v="Hundvin" />
		<tag k="ssr:stedsnr" v="287529" />
		<tag k="tunnel" v="yes" />
	</node>
	<node id="-488764" lat="60.6282583315" lon="5.47535554874">
		<tag k="bridge" v="yes" />
		<tag k="layer" v="1" />
		<tag k="name" v="Dalland" />
		<tag k="ssr:stedsnr" v="168018" />
	</node>
	<node id="-490896" lat="60.6060611134" lon="5.28889443596">
		<tag k="layer" v="-1" />
		<tag k="name" v="Vatne" />
		<tag k="ssr:stedsnr" v="954638" />
		<tag k="tunnel" v="yes" />
	</node>
	<node id="-487258" lat="60.7324861129" lon="5.1984333247">
		<tag k="layer" v="-1" />
		<tag k="name" v="Lyngfjell" />
		<tag k="ssr:stedsnr" v="287328" />
		<tag k="tunnel" v="yes" />
	</node>
	<node id="-490327" lat="60.7349916699" lon="5.65262499631">
		<tag k="layer" v="-1" />
		<tag k="name" v="Høydalstunnelen" />
		<tag k="ssr:stedsnr" v="772498" />
		<tag k="tunnel" v="yes" />
	</node>
	<node id="-489294" lat="60.6317694419" lon="5.35712778362">
		<tag k="bridge" v="yes" />
		<tag k="layer" v="1" />
		<tag k="name" v="Høyland" />
		<tag k="ssr:stedsnr" v="472100" />
	</node>
	<node id="-488269" lat="60.7245833369" lon="5.21459166944">
		<tag k="bridge" v="yes" />
		<tag k="layer" v="1" />
		<tag k="name" v="Vågseidet" />
		<tag k="ssr:stedsnr" v="47115" />
	</node>
	<node id="-489292" lat="60.6799416703" lon="5.14734999057">
		<tag k="bridge" v="yes" />
		<tag k="layer" v="1" />
		<tag k="name" v="Brusund" />
		<tag k="ssr:stedsnr" v="472019" />
	</node>
	<node id="-488267" lat="60.7675472222" lon="5.10488055575">
		<tag k="bridge" v="yes" />
		<tag k="layer" v="1" />
		<tag k="name" v="Lauvås" />
		<tag k="ssr:stedsnr" v="47085" />
	</node>
	<node id="-489868" lat="60.7172333304" lon="5.62512500724">
		<tag k="layer" v="-1" />
		<tag k="name" v="Litle-Urdal" />
		<tag k="ssr:stedsnr" v="650289" />
		<tag k="tunnel" v="yes" />
	</node>
	<node id="-489283" lat="60.6709055568" lon="5.35595000626">
		<tag k="highway" v="path" />
		<tag k="name" v="Stien" />
		<tag k="ssr:stedsnr" v="470123" />
	</node>
	<node id="-488767" lat="60.7789277748" lon="5.06868889472">
		<tag k="bridge" v="yes" />
		<tag k="layer" v="1" />
		<tag k="name" v="Hellestveit" />
		<tag k="ssr:stedsnr" v="168118" />
	</node>
	<node id="-488766" lat="60.570280552" lon="5.37630278566">
		<tag k="bridge" v="yes" />
		<tag k="layer" v="1" />
		<tag k="name" v="Leknes" />
		<tag k="ssr:stedsnr" v="168110" />
	</node>
	<node id="-488765" lat="60.6143722246" lon="5.4283277859">
		<tag k="bridge" v="yes" />
		<tag k="layer" v="1" />
		<tag k="name" v="Bedehusvegen" />
		<tag k="ssr:stedsnr" v="168023" />
	</node>
	<node id="-489788" lat="60.6117249969" lon="5.39850000569">
		<tag k="bridge" v="yes" />
		<tag k="layer" v="1" />
		<tag k="name" v="Vikje" />
		<tag k="ssr:stedsnr" v="593126" />
	</node>
	<node id="-489787" lat="60.609688893" lon="5.44240554766">
		<tag k="bridge" v="yes" />
		<tag k="layer" v="1" />
		<tag k="name" v="Taterhøla" />
		<tag k="ssr:stedsnr" v="593123" />
	</node>
	<node id="-489786" lat="60.5903027745" lon="5.36243889504">
		<tag k="bridge" v="yes" />
		<tag k="layer" v="1" />
		<tag k="name" v="Apalen" />
		<tag k="ssr:stedsnr" v="593025" />
	</node>
	<node id="-488237" lat="60.7310444428" lon="5.51691111079">
		<tag k="man_made" v="quay" />
		<tag k="name" v="Fjellenausta" />
		<tag k="place" v="locality" />
		<tag k="ssr:stedsnr" v="45665" />
	</node>
	<node id="-487717" lat="60.5598638903" lon="5.32981943786">
		<tag k="man_made" v="quay" />
		<tag k="name" v="Nepstadstøa" />
		<tag k="place" v="locality" />
		<tag k="ssr:stedsnr" v="409099" />
	</node>
	<node id="-487696" lat="60.698883334" lon="5.58277499281">
		<tag k="layer" v="-1" />
		<tag k="name" v="Vikanes" />
		<tag k="ssr:stedsnr" v="408649" />
		<tag k="tunnel" v="yes" />
	</node>
	<node id="-490233" lat="60.5976944453" lon="5.37417500829">
		<tag k="bridge" v="yes" />
		<tag k="layer" v="1" />
		<tag k="name" v="Vikane" />
		<tag k="ssr:stedsnr" v="715116" />
	</node>
	<node id="-490232" lat="60.5697388847" lon="5.37394721599">
		<tag k="bridge" v="yes" />
		<tag k="layer" v="1" />
		<tag k="name" v="Hodnedalsvegen" />
		<tag k="ssr:stedsnr" v="715097" />
	</node>
	<node id="-490231" lat="60.6100166669" lon="5.43881111757">
		<tag k="bridge" v="yes" />
		<tag k="layer" v="1" />
		<tag k="name" v="Eknes" />
		<tag k="ssr:stedsnr" v="715095" />
	</node>
	<node id="-490230" lat="60.6669222187" lon="5.33912500056">
		<tag k="bridge" v="yes" />
		<tag k="layer" v="1" />
		<tag k="name" v="Hauge" />
		<tag k="ssr:stedsnr" v="715092" />
	</node>
	<node id="-487806" lat="60.5550083295" lon="5.3085583248">
		<tag k="bridge" v="yes" />
		<tag k="layer" v="1" />
		<tag k="name" v="Gjervik" />
		<tag k="ssr:stedsnr" v="411112" />
	</node>
	<node id="-490723" lat="60.7162361118" lon="5.62049166698">
		<tag k="bridge" v="yes" />
		<tag k="layer" v="1" />
		<tag k="name" v="Urdal Vetle" />
		<tag k="ssr:stedsnr" v="836091" />
	</node>
	<node id="-490722" lat="60.5944333305" lon="5.36054999141">
		<tag k="bridge" v="yes" />
		<tag k="layer" v="1" />
		<tag k="name" v="Hjelmåsvatnet" />
		<tag k="ssr:stedsnr" v="836075" />
	</node>
	<node id="-488151" lat="60.6609583373" lon="5.35440000747">
		<tag k="man_made" v="quay" />
		<tag k="name" v="Tveitestø" />
		<tag k="place" v="locality" />
		<tag k="ssr:stedsnr" v="44487" />
	</node>
	<node id="-488138" lat="60.708052782" lon="5.17050834013">
		<tag k="man_made" v="quay" />
		<tag k="name" v="Kjøsstøa" />
		<tag k="place" v="locality" />
		<tag k="ssr:stedsnr" v="44313" />
	</node>
	<node id="-489666" lat="60.6851694452" lon="5.12137500333">
		<tag k="fixme" v="verify maritime location" />
		<tag k="mooring" v="yes" />
		<tag k="name" v="Vasstøa" />
		<tag k="place" v="locality" />
		<tag k="ssr:stedsnr" v="590258" />
	</node>
	<node id="-490014" lat="60.5499805585" lon="5.29984444639">
		<tag k="bridge" v="yes" />
		<tag k="layer" v="1" />
		<tag k="name" v="Såta" />
		<tag k="ssr:stedsnr" v="654101" />
	</node>
	<node id="-487602" lat="60.6152638899" lon="5.41939444167">
		<tag k="bridge" v="yes" />
		<tag k="layer" v="1" />
		<tag k="name" v="Vatshelle" />
		<tag k="ssr:stedsnr" v="350113" />
	</node>
	<node id="-487601" lat="60.5965499977" lon="5.36839445172">
		<tag k="bridge" v="yes" />
		<tag k="layer" v="1" />
		<tag k="name" v="Lyngholmsundet" />
		<tag k="ssr:stedsnr" v="350085" />
	</node>
	<node id="-487600" lat="60.637508333" lon="5.48856666024">
		<tag k="bridge" v="yes" />
		<tag k="layer" v="1" />
		<tag k="name" v="Storbotn" />
		<tag k="ssr:stedsnr" v="350080" />
	</node>
	<node id="-487599" lat="60.6565583374" lon="5.34450833036">
		<tag k="bridge" v="yes" />
		<tag k="layer" v="1" />
		<tag k="name" v="Kløvheim" />
		<tag k="ssr:stedsnr" v="350078" />
	</node>
	<node id="-490156" lat="60.6199388903" lon="5.39618611623">
		<tag k="ford" v="yes" />
		<tag k="name" v="Vetravadet" />
		<tag k="place" v="locality" />
		<tag k="ssr:stedsnr" v="712299" />
	</node>
	<node id="-489128" lat="60.7323055574" lon="5.27662777001">
		<tag k="man_made" v="quay" />
		<tag k="name" v="Sævrås kai" />
		<tag k="place" v="locality" />
		<tag k="ssr:stedsnr" v="469148" />
	</node>
	<node id="-488615" lat="60.5967972198" lon="5.36940554732">
		<tag k="layer" v="-1" />
		<tag k="name" v="Sauås" />
		<tag k="ssr:stedsnr" v="165791" />
		<tag k="tunnel" v="yes" />
	</node>
	<node id="-489629" lat="60.5843777813" lon="5.36431111565">
		<tag k="layer" v="-1" />
		<tag k="name" v="Apal" />
		<tag k="ssr:stedsnr" v="590080" />
		<tag k="tunnel" v="yes" />
	</node>
	<node id="-488601" lat="60.6631777751" lon="5.36747221841">
		<tag k="fixme" v="verify maritime location" />
		<tag k="mooring" v="yes" />
		<tag k="name" v="Gongstøa" />
		<tag k="place" v="locality" />
		<tag k="ssr:stedsnr" v="165304" />
	</node>
	<node id="-489611" lat="60.6886111133" lon="5.11676944404">
		<tag k="man_made" v="quay" />
		<tag k="name" v="Prestebryggja" />
		<tag k="place" v="locality" />
		<tag k="ssr:stedsnr" v="570245" />
	</node>
	<node id="-487360" lat="60.608163893" lon="5.43117778128">
		<tag k="bridge" v="yes" />
		<tag k="layer" v="1" />
		<tag k="name" v="Eiknesvåg" />
		<tag k="ssr:stedsnr" v="290018" />
	</node>
	<node id="-488574" lat="60.6279805582" lon="5.18670278009">
		<tag k="fixme" v="verify maritime location" />
		<tag k="mooring" v="yes" />
		<tag k="name" v="Sæbøstøa" />
		<tag k="place" v="locality" />
		<tag k="ssr:stedsnr" v="145275" />
	</node>
	<node id="-490097" lat="60.6998500037" lon="5.59105000003">
		<tag k="layer" v="-1" />
		<tag k="name" v="Vikesund" />
		<tag k="ssr:stedsnr" v="711663" />
		<tag k="tunnel" v="yes" />
	</node>
	<node id="-488333" lat="60.6979277808" lon="5.56610555994">
		<tag k="bridge" v="yes" />
		<tag k="layer" v="1" />
		<tag k="name" v="Urdal Store" />
		<tag k="ssr:stedsnr" v="108112" />
	</node>
	<node id="-488830" lat="60.6059361087" lon="5.43267776992">
		<tag k="man_made" v="quay" />
		<tag k="name" v="Gangstø" />
		<tag k="place" v="locality" />
		<tag k="ssr:stedsnr" v="226289" />
	</node>
	<node id="-490087" lat="60.645075001" lon="5.28917222568">
		<tag k="ford" v="yes" />
		<tag k="name" v="Kustøa" />
		<tag k="place" v="locality" />
		<tag k="ssr:stedsnr" v="711081" />
	</node>
	<node id="-488533" lat="60.7099249996" lon="5.52485000771">
		<tag k="bridge" v="yes" />
		<tag k="layer" v="1" />
		<tag k="name" v="Sæterbrua" />
		<tag k="ssr:stedsnr" v="127306" />
	</node>
	<node id="-489542" lat="60.5534250017" lon="5.27356111202">
		<tag k="bridge" v="yes" />
		<tag k="layer" v="1" />
		<tag k="name" v="Isdalsbakken" />
		<tag k="ssr:stedsnr" v="533092" />
	</node>
	<node id="-489541" lat="60.7319611142" lon="5.20345555189">
		<tag k="bridge" v="yes" />
		<tag k="layer" v="1" />
		<tag k="name" v="Fjellanger" />
		<tag k="ssr:stedsnr" v="533091" />
	</node>
	<node id="-489540" lat="60.7338833351" lon="5.1711722141">
		<tag k="bridge" v="yes" />
		<tag k="layer" v="1" />
		<tag k="name" v="Haugatun" />
		<tag k="ssr:stedsnr" v="533088" />
	</node>
	<node id="-489539" lat="60.7037277817" lon="5.42238056323">
		<tag k="bridge" v="yes" />
		<tag k="layer" v="1" />
		<tag k="name" v="Kjekallvågen" />
		<tag k="ssr:stedsnr" v="533086" />
	</node>
	<node id="-489538" lat="60.6301166681" lon="5.47653333942">
		<tag k="bridge" v="yes" />
		<tag k="layer" v="1" />
		<tag k="name" v="Torvmyra" />
		<tag k="ssr:stedsnr" v="532094" />
	</node>
	<node id="-487263" lat="60.5647861105" lon="5.37088332857">
		<tag k="man_made" v="quay" />
		<tag k="name" v="Hopdalstø" />
		<tag k="place" v="locality" />
		<tag k="ssr:stedsnr" v="287368" />
	</node>
	<node id="-488504" lat="60.7286055586" lon="5.26489722475">
		<tag k="bridge" v="yes" />
		<tag k="layer" v="1" />
		<tag k="name" v="Natåselva" />
		<tag k="ssr:stedsnr" v="108096" />
	</node>
	<node id="-488503" lat="60.6239861115" lon="5.46613333113">
		<tag k="bridge" v="yes" />
		<tag k="layer" v="1" />
		<tag k="name" v="Klokkarundergang" />
		<tag k="ssr:stedsnr" v="108089" />
	</node>
	<node id="-488502" lat="60.6270888858" lon="5.47378888743">
		<tag k="bridge" v="yes" />
		<tag k="layer" v="1" />
		<tag k="name" v="Eialeitet" />
		<tag k="ssr:stedsnr" v="108020" />
	</node>
	<node id="-487988" lat="60.7058972262" lon="5.22525555485">
		<tag k="bridge" v="yes" />
		<tag k="layer" v="1" />
		<tag k="name" v="Torvena" />
		<tag k="ssr:stedsnr" v="897120" />
	</node>
	<node id="-487987" lat="60.6103944437" lon="5.46135000012">
		<tag k="bridge" v="yes" />
		<tag k="layer" v="1" />
		<tag k="name" v="Totlandsvegen" />
		<tag k="ssr:stedsnr" v="897117" />
	</node>
	<node id="-487469" lat="60.5573750003" lon="5.32368610977">
		<tag k="man_made" v="quay" />
		<tag k="name" v="Grøttveitstøa" />
		<tag k="place" v="locality" />
		<tag k="ssr:stedsnr" v="348067" />
	</node>
	<node id="-488990" lat="60.6148611137" lon="5.26419166614">
		<tag k="bridge" v="yes" />
		<tag k="layer" v="1" />
		<tag k="name" v="Stokke" />
		<tag k="ssr:stedsnr" v="229088" />
	</node>
	<node id="-490013" lat="60.558283333" lon="5.32167778409">
		<tag k="bridge" v="yes" />
		<tag k="layer" v="1" />
		<tag k="name" v="Grøttveit" />
		<tag k="ssr:stedsnr" v="654090" />
	</node>
	<node id="-490012" lat="60.5710737201" lon="5.22977073743">
		<tag k="bridge" v="yes" />
		<tag k="layer" v="1" />
		<tag k="name" v="Alverstraumen" />
		<tag k="ssr:stedsnr" v="654013" />
	</node>
	<node id="-490011" lat="60.6882583351" lon="5.44983888637">
		<tag k="bridge" v="yes" />
		<tag k="layer" v="1" />
		<tag k="name" v="Dyrdal" />
		<tag k="ssr:stedsnr" v="654007" />
	</node>
	<node id="-490010" lat="60.6638972255" lon="5.13480276964">
		<tag k="bridge" v="yes" />
		<tag k="layer" v="1" />
		<tag k="name" v="Bergfjord" />
		<tag k="ssr:stedsnr" v="654006" />
	</node>
	<node id="-487448" lat="60.6631027777" lon="5.36599444511">
		<tag k="man_made" v="quay" />
		<tag k="name" v="Gangstø" />
		<tag k="place" v="locality" />
		<tag k="ssr:stedsnr" v="347245" />
	</node>
</osm>
