<?xml version="1.0" encoding="UTF-8"?>
<osm generator="osmapis" version="0.6">
	<node id="-487422" lat="60.6502472247" lon="5.13016389285">
		<tag k="name" v="Pesvik" />
		<tag k="place" v="isolated_dwelling" />
		<tag k="ssr:stedsnr" v="327280" />
	</node>
	<node id="-487418" lat="60.7565820018" lon="5.12776298265">
		<tag k="fixme" v="consider place=hamlet" />
		<tag k="name" v="Rossnes" />
		<tag k="place" v="farm" />
		<tag k="ssr:stedsnr" v="312707" />
	</node>
	<node id="-487409" lat="60.591075675" lon="5.28224797881">
		<tag k="fixme" v="consider place=hamlet" />
		<tag k="name" v="Hjelmtveit" />
		<tag k="place" v="farm" />
		<tag k="ssr:stedsnr" v="310104" />
	</node>
	<node id="-489455" lat="60.592394444" lon="5.36337221676">
		<tag k="name" v="Hjelmås" />
		<tag k="place" v="village" />
		<tag k="ssr:stedsnr" v="530316" />
	</node>
	<node id="-487403" lat="60.7117981425" lon="5.54127894677">
		<tag k="fixme" v="consider place=hamlet" />
		<tag k="name" v="Eikemo" />
		<tag k="place" v="farm" />
		<tag k="ssr:stedsnr" v="309333" />
	</node>
	<node id="-487402" lat="60.707049999" lon="5.52004445211">
		<tag k="historic" v="shieling" />
		<tag k="name" v="Eikefetsætra" />
		<tag k="place" v="locality" />
		<tag k="ssr:stedsnr" v="309319" />
	</node>
	<node id="-487401" lat="60.7024555542" lon="5.56617777222">
		<tag k="name" v="Stormyr" />
		<tag k="place" v="farm" />
		<tag k="ssr:stedsnr" v="309289" />
	</node>
	<node id="-487398" lat="60.6594545565" lon="5.13811963275">
		<tag k="alt_name" v="Festå" />
		<tag k="name" v="Festo" />
		<tag k="place" v="hamlet" />
		<tag k="ssr:stedsnr" v="309258" />
	</node>
	<node id="-488785" lat="60.7204081373" lon="5.21478836619">
		<tag k="fixme" v="consider place=hamlet" />
		<tag k="name" v="Våge" />
		<tag k="place" v="farm" />
		<tag k="ssr:stedsnr" v="188205" />
	</node>
	<node id="-487396" lat="60.6365552229" lon="5.24565378493">
		<tag k="fixme" v="consider place=hamlet" />
		<tag k="name" v="Spurkeland" />
		<tag k="place" v="farm" />
		<tag k="ssr:stedsnr" v="309239" />
	</node>
	<node id="-487387" lat="60.5569638885" lon="5.26828333602">
		<tag k="name" v="Nygarden" />
		<tag k="place" v="farm" />
		<tag k="ssr:stedsnr" v="309095" />
	</node>
	<node id="-489434" lat="60.7293166648" lon="5.18108055735">
		<tag k="name" v="Haukås" />
		<tag k="place" v="farm" />
		<tag k="ssr:stedsnr" v="530222" />
	</node>
	<node id="-487759" lat="60.6413361155" lon="5.42943610983">
		<tag k="name" v="Bjørgo" />
		<tag k="place" v="farm" />
		<tag k="ssr:stedsnr" v="409435" />
	</node>
	<node id="-487384" lat="60.6250223032" lon="5.26830811426">
		<tag k="fixme" v="consider place=hamlet" />
		<tag k="name" v="Ryland" />
		<tag k="place" v="farm" />
		<tag k="ssr:stedsnr" v="309041" />
	</node>
	<node id="-487383" lat="60.618173799" lon="5.43018685603">
		<tag k="fixme" v="consider place=hamlet" />
		<tag k="name" v="Bjørndal" />
		<tag k="place" v="farm" />
		<tag k="ssr:stedsnr" v="309021" />
	</node>
	<node id="-487382" lat="60.6105572774" lon="5.21116713594">
		<tag k="fixme" v="consider place=hamlet" />
		<tag k="name" v="Selevoll" />
		<tag k="place" v="farm" />
		<tag k="ssr:stedsnr" v="309014" />
	</node>
	<node id="-487381" lat="60.6143555573" lon="5.25243056075">
		<tag k="name" v="Nymark" />
		<tag k="place" v="farm" />
		<tag k="ssr:stedsnr" v="309012" />
	</node>
	<node id="-487378" lat="60.6652027737" lon="5.17174445099">
		<tag k="name" v="Tofting" />
		<tag k="place" v="farm" />
		<tag k="ssr:stedsnr" v="45358" />
	</node>
	<node id="-489417" lat="60.5595666705" lon="5.32140554659">
		<tag k="name" v="Nepstad" />
		<tag k="place" v="farm" />
		<tag k="ssr:stedsnr" v="530122" />
	</node>
	<node id="-489390" lat="60.6542111068" lon="5.38171666901">
		<tag k="name" v="Åsgård" />
		<tag k="place" v="farm" />
		<tag k="ssr:stedsnr" v="529494" />
	</node>
	<node id="-489380" lat="60.707519442" lon="5.20089444945">
		<tag k="name" v="Hauge" />
		<tag k="place" v="farm" />
		<tag k="ssr:stedsnr" v="529270" />
	</node>
	<node id="-489379" lat="60.6945305561" lon="5.22864722901">
		<tag k="amenity" v="school" />
		<tag k="name" v="Skodvin skule" />
		<tag k="ssr:stedsnr" v="529265" />
	</node>
	<node id="-487330" lat="60.6974444412" lon="5.43068333093">
		<tag k="name" v="Skår" />
		<tag k="place" v="farm" />
		<tag k="ssr:stedsnr" v="288378" />
	</node>
	<node id="-489376" lat="60.6806055533" lon="5.22227776906">
		<tag k="fixme" v="consider place=hamlet" />
		<tag k="name" v="Bruvoll" />
		<tag k="place" v="farm" />
		<tag k="ssr:stedsnr" v="529218" />
	</node>
	<node id="-487327" lat="60.658386112" lon="5.43002499444">
		<tag k="alt_name" v="Askeland søre" />
		<tag k="fixme" v="consider place=hamlet" />
		<tag k="name" v="Søre Askeland" />
		<tag k="place" v="farm" />
		<tag k="ssr:stedsnr" v="288144" />
	</node>
	<node id="-487326" lat="60.6592583371" lon="5.34490834174">
		<tag k="name" v="Kløvheim" />
		<tag k="place" v="farm" />
		<tag k="ssr:stedsnr" v="288086" />
	</node>
	<node id="-487317" lat="60.7277463627" lon="5.64351545326">
		<tag k="name" v="Romarheim" />
		<tag k="place" v="village" />
		<tag k="ssr:stedsnr" v="287999" />
	</node>
	<node id="-489362" lat="60.6779638858" lon="5.21668333741">
		<tag k="name" v="Skarvberget" />
		<tag k="place" v="farm" />
		<tag k="ssr:stedsnr" v="509308" />
	</node>
	<node id="-489354" lat="60.7593899913" lon="5.09122657617">
		<tag k="fixme" v="consider place=hamlet" />
		<tag k="name" v="Kårdal" />
		<tag k="place" v="farm" />
		<tag k="ssr:stedsnr" v="494156" />
	</node>
	<node id="-487305" lat="60.6598111151" lon="5.4751777684">
		<tag k="name" v="Stalltræet" />
		<tag k="place" v="farm" />
		<tag k="ssr:stedsnr" v="287636" />
	</node>
	<node id="-489349" lat="60.7791583311" lon="5.07063056352">
		<tag k="fixme" v="consider place=hamlet" />
		<tag k="name" v="Hellestveit" />
		<tag k="place" v="farm" />
		<tag k="ssr:stedsnr" v="493205" />
	</node>
	<node id="-489345" lat="60.7414474878" lon="5.23448857393">
		<tag k="fixme" v="consider place=hamlet" />
		<tag k="name" v="Vadbu" />
		<tag k="place" v="farm" />
		<tag k="ssr:stedsnr" v="492651" />
	</node>
	<node id="-489344" lat="60.6472500018" lon="5.27594167214">
		<tag k="name" v="Nystølen" />
		<tag k="place" v="farm" />
		<tag k="ssr:stedsnr" v="492154" />
	</node>
	<node id="-488768" lat="60.773449999" lon="5.11155277086">
		<tag k="fixme" v="consider place=hamlet" />
		<tag k="name" v="Tvibergneset" />
		<tag k="place" v="farm" />
		<tag k="ssr:stedsnr" v="173527" />
	</node>
	<node id="-487294" lat="60.6438027795" lon="5.51296667535">
		<tag k="name" v="Husdalen" />
		<tag k="place" v="farm" />
		<tag k="ssr:stedsnr" v="287565" />
	</node>
	<node id="-489340" lat="60.6254167377" lon="5.4764875193">
		<tag k="alt_name" v="Eido;Ostereido" />
		<tag k="name" v="Eide" />
		<tag k="place" v="hamlet" />
		<tag k="ssr:stedsnr" v="491714" />
	</node>
	<node id="-487291" lat="60.6570583304" lon="5.37749443834">
		<tag k="name" v="Skogheim" />
		<tag k="place" v="farm" />
		<tag k="ssr:stedsnr" v="287545" />
	</node>
	<node id="-489338" lat="60.7231277768" lon="5.21519445051">
		<tag k="name" v="Vågseidet" />
		<tag k="place" v="isolated_dwelling" />
		<tag k="ssr:stedsnr" v="491655" />
	</node>
	<node id="-489336" lat="60.7204777747" lon="5.51798610926">
		<tag k="alt_name" v="Eikemosetra" />
		<tag k="historic" v="shieling" />
		<tag k="name" v="Eikemosætra" />
		<tag k="place" v="locality" />
		<tag k="ssr:stedsnr" v="491298" />
	</node>
	<node id="-487284" lat="60.6549277745" lon="5.44098055615">
		<tag k="name" v="Toft" />
		<tag k="place" v="farm" />
		<tag k="ssr:stedsnr" v="287524" />
	</node>
	<node id="-487282" lat="60.7794166679" lon="5.06988612004">
		<tag k="name" v="Hellestveit" />
		<tag k="place" v="farm" />
		<tag k="ssr:stedsnr" v="287499" />
	</node>
	<node id="-487273" lat="60.5811500027" lon="5.20883054815">
		<tag k="alt_name" v="Soltveit nordre" />
		<tag k="fixme" v="consider place=hamlet" />
		<tag k="name" v="Nordre Soltveit" />
		<tag k="place" v="farm" />
		<tag k="ssr:stedsnr" v="287434" />
	</node>
	<node id="-488003" lat="60.6777568779" lon="5.21667787319">
		<tag k="fixme" v="consider place=hamlet" />
		<tag k="name" v="Hundvin" />
		<tag k="place" v="farm" />
		<tag k="ssr:stedsnr" v="989427" />
	</node>
	<node id="-489318" lat="60.5902673084" lon="5.23600285208">
		<tag k="fixme" v="consider place=hamlet" />
		<tag k="name" v="Håland" />
		<tag k="place" v="farm" />
		<tag k="ssr:stedsnr" v="491103" />
	</node>
	<node id="-489312" lat="60.6227338116" lon="5.21238512918">
		<tag k="alt_name" v="Litleskaret" />
		<tag k="fixme" v="consider place=hamlet" />
		<tag k="name" v="Litleskardet" />
		<tag k="place" v="farm" />
		<tag k="ssr:stedsnr" v="491047" />
	</node>
	<node id="-489311" lat="60.5981694456" lon="5.22251944817">
		<tag k="alt_name" v="Fosse, in;Fosse" />
		<tag k="name" v="Indre Fosse" />
		<tag k="place" v="farm" />
		<tag k="ssr:stedsnr" v="491030" />
	</node>
	<node id="-489310" lat="60.6044666623" lon="5.27809444687">
		<tag k="name" v="Nyland" />
		<tag k="place" v="farm" />
		<tag k="ssr:stedsnr" v="491029" />
	</node>
	<node id="-489309" lat="60.6122490579" lon="5.24680419592">
		<tag k="fixme" v="consider place=hamlet" />
		<tag k="name" v="Odderås" />
		<tag k="place" v="farm" />
		<tag k="ssr:stedsnr" v="491013" />
	</node>
	<node id="-487260" lat="60.6142611136" lon="5.38684722983">
		<tag k="alt_name" v="Eikanger øvre" />
		<tag k="name" v="Øvre Eikanger" />
		<tag k="place" v="farm" />
		<tag k="ssr:stedsnr" v="287333" />
	</node>
	<node id="-489307" lat="60.6206111134" lon="5.26961389262">
		<tag k="name" v="Seim" />
		<tag k="place" v="hamlet" />
		<tag k="ssr:stedsnr" v="491010" />
	</node>
	<node id="-489304" lat="60.6991750029" lon="5.58574166245">
		<tag k="fixme" v="consider place=hamlet" />
		<tag k="name" v="Vikaneset" />
		<tag k="place" v="village" />
		<tag k="ssr:stedsnr" v="491252" />
	</node>
	<node id="-489302" lat="60.6697585618" lon="5.27113196589">
		<tag k="fixme" v="consider place=hamlet" />
		<tag k="name" v="Seli" />
		<tag k="place" v="farm" />
		<tag k="ssr:stedsnr" v="491248" />
	</node>
	<node id="-489300" lat="60.6781027759" lon="5.395761112">
		<tag k="alt_name" v="Veland, nedre;Veland" />
		<tag k="name" v="Nedre Veland" />
		<tag k="place" v="farm" />
		<tag k="ssr:stedsnr" v="491225" />
	</node>
	<node id="-487251" lat="60.6619583288" lon="5.42062777282">
		<tag k="fixme" v="consider place=hamlet" />
		<tag k="name" v="Askelandsvågen" />
		<tag k="place" v="village" />
		<tag k="ssr:stedsnr" v="287287" />
	</node>
	<node id="-489296" lat="60.6360858788" lon="5.20614774613">
		<tag k="fixme" v="consider place=hamlet" />
		<tag k="name" v="Storoksa" />
		<tag k="place" v="farm" />
		<tag k="ssr:stedsnr" v="491205" />
	</node>
	<node id="-489295" lat="60.6958638878" lon="5.30887221695">
		<tag k="name" v="Nævdal" />
		<tag k="place" v="farm" />
		<tag k="ssr:stedsnr" v="480683" />
	</node>
	<node id="-487244" lat="60.6922722247" lon="5.33605555013">
		<tag k="name" v="Jordal" />
		<tag k="place" v="farm" />
		<tag k="ssr:stedsnr" v="287256" />
	</node>
	<node id="-487661" lat="60.6341609209" lon="5.30566651669">
		<tag k="fixme" v="consider place=hamlet" />
		<tag k="name" v="Toskheim" />
		<tag k="place" v="farm" />
		<tag k="ssr:stedsnr" v="408063" />
	</node>
	<node id="-487237" lat="60.7455250016" lon="5.17248888998">
		<tag k="alt_name" v="Fonnebust" />
		<tag k="name" v="Fonnebost" />
		<tag k="place" v="village" />
		<tag k="ssr:stedsnr" v="287233" />
	</node>
	<node id="-489284" lat="60.6365055579" lon="5.20440833188">
		<tag k="name" v="Storoksa" />
		<tag k="place" v="farm" />
		<tag k="ssr:stedsnr" v="470287" />
	</node>
	<node id="-487232" lat="60.7423138867" lon="5.23604166584">
		<tag k="name" v="Vabø" />
		<tag k="place" v="farm" />
		<tag k="ssr:stedsnr" v="287213" />
	</node>
	<node id="-487231" lat="60.676522222" lon="5.33133889022">
		<tag k="name" v="Kleiva" />
		<tag k="place" v="farm" />
		<tag k="ssr:stedsnr" v="287211" />
	</node>
	<node id="-489278" lat="60.7171499993" lon="5.62181111956">
		<tag k="name" v="Vetleurdal" />
		<tag k="place" v="farm" />
		<tag k="ssr:stedsnr" v="469979" />
	</node>
	<node id="-487229" lat="60.7146361112" lon="5.12499166859">
		<tag k="name" v="Kvalvågnes" />
		<tag k="place" v="farm" />
		<tag k="ssr:stedsnr" v="287201" />
	</node>
	<node id="-487219" lat="60.6851638891" lon="5.23008332828">
		<tag k="name" v="Konglevoll" />
		<tag k="place" v="farm" />
		<tag k="ssr:stedsnr" v="287131" />
	</node>
	<node id="-488753" lat="60.7714583368" lon="5.53117500109">
		<tag k="historic" v="shieling" />
		<tag k="name" v="Liasetra" />
		<tag k="place" v="locality" />
		<tag k="ssr:stedsnr" v="166844" />
	</node>
	<node id="-489251" lat="60.7032694409" lon="5.51515832672">
		<tag k="historic" v="shieling" />
		<tag k="name" v="Gamlesetra" />
		<tag k="place" v="locality" />
		<tag k="ssr:stedsnr" v="469718" />
	</node>
	<node id="-489249" lat="60.7068749999" lon="5.49477777949">
		<tag k="historic" v="shieling" />
		<tag k="name" v="Rødlandssetra" />
		<tag k="place" v="locality" />
		<tag k="ssr:stedsnr" v="469712" />
	</node>
	<node id="-489230" lat="60.7133444423" lon="5.05615833258">
		<tag k="name" v="Kalven" />
		<tag k="place" v="farm" />
		<tag k="ssr:stedsnr" v="469537" />
	</node>
	<node id="-489214" lat="60.5739555582" lon="5.23323056284">
		<tag k="alt_name" v="Tveiten øvre" />
		<tag k="name" v="Øvre Tveiten" />
		<tag k="place" v="farm" />
		<tag k="ssr:stedsnr" v="469431" />
	</node>
	<node id="-489211" lat="60.6943333312" lon="5.40433889018">
		<tag k="name" v="Nesbø" />
		<tag k="place" v="farm" />
		<tag k="ssr:stedsnr" v="469421" />
	</node>
	<node id="-489193" lat="60.610369441" lon="5.39065555107">
		<tag k="name" v="Eikangervåg" />
		<tag k="place" v="farm" />
		<tag k="ssr:stedsnr" v="469312" />
	</node>
	<node id="-489189" lat="60.7066222209" lon="5.16546111129">
		<tag k="name" v="Ones" />
		<tag k="place" v="farm" />
		<tag k="ssr:stedsnr" v="469296" />
	</node>
	<node id="-489187" lat="60.6123305512" lon="5.45622222131">
		<tag k="name" v="Totland" />
		<tag k="place" v="farm" />
		<tag k="ssr:stedsnr" v="469294" />
	</node>
	<node id="-489178" lat="60.6038253756" lon="5.44863190119">
		<tag k="name" v="Eknes" />
		<tag k="place" v="hamlet" />
		<tag k="ssr:stedsnr" v="469251" />
	</node>
	<node id="-489175" lat="60.688600001" lon="5.21328610743">
		<tag k="name" v="Træland" />
		<tag k="place" v="farm" />
		<tag k="ssr:stedsnr" v="469223" />
	</node>
	<node id="-489159" lat="60.7287938798" lon="5.23637298125">
		<tag k="historic" v="shieling" />
		<tag k="name" v="Vabøstølen" />
		<tag k="place" v="locality" />
		<tag k="ssr:stedsnr" v="469162" />
	</node>
	<node id="-489158" lat="60.7277194481" lon="5.2814277782">
		<tag k="name" v="Ringås" />
		<tag k="place" v="farm" />
		<tag k="ssr:stedsnr" v="469160" />
	</node>
	<node id="-489150" lat="60.625483335" lon="5.26884999228">
		<tag k="name" v="Rydland" />
		<tag k="place" v="farm" />
		<tag k="ssr:stedsnr" v="469060" />
	</node>
	<node id="-489149" lat="60.6304555512" lon="5.26216388051">
		<tag k="name" v="Totland" />
		<tag k="place" v="farm" />
		<tag k="ssr:stedsnr" v="469058" />
	</node>
	<node id="-489145" lat="60.6036388925" lon="5.27839722492">
		<tag k="name" v="Nyland" />
		<tag k="place" v="farm" />
		<tag k="ssr:stedsnr" v="469045" />
	</node>
	<node id="-489124" lat="60.5729333305" lon="5.34815278251">
		<tag k="alt_name" v="Mundal øvre" />
		<tag k="name" v="Øvre Mundal" />
		<tag k="place" v="farm" />
		<tag k="ssr:stedsnr" v="469139" />
	</node>
	<node id="-489122" lat="60.5685444432" lon="5.34083610869">
		<tag k="historic" v="shieling" />
		<tag k="name" v="Setret" />
		<tag k="place" v="locality" />
		<tag k="ssr:stedsnr" v="469134" />
	</node>
	<node id="-489117" lat="60.5683722243" lon="5.24811944382">
		<tag k="historic" v="shieling" />
		<tag k="name" v="Grønstølen" />
		<tag k="place" v="locality" />
		<tag k="ssr:stedsnr" v="469117" />
	</node>
	<node id="-488678" lat="60.6965555577" lon="5.30656110926">
		<tag k="name" v="Nevdal" />
		<tag k="place" v="farm" />
		<tag k="ssr:stedsnr" v="166251" />
	</node>
	<node id="-489069" lat="60.6438835467" lon="5.23672496047">
		<tag k="fixme" v="consider place=hamlet" />
		<tag k="name" v="Neset" />
		<tag k="place" v="farm" />
		<tag k="ssr:stedsnr" v="431219" />
	</node>
	<node id="-489100" lat="60.7810972212" lon="5.09540277105">
		<tag k="name" v="Tvibergøyna" />
		<tag k="place" v="farm" />
		<tag k="ssr:stedsnr" v="433674" />
	</node>
	<node id="-489099" lat="60.7682750021" lon="5.49850277197">
		<tag k="historic" v="shieling" />
		<tag k="name" v="Kalvedalen" />
		<tag k="place" v="locality" />
		<tag k="ssr:stedsnr" v="433441" />
	</node>
	<node id="-489098" lat="60.769138888" lon="5.63473888251">
		<tag k="alt_name" v="Svartholsetra" />
		<tag k="historic" v="shieling" />
		<tag k="name" v="Svartholet" />
		<tag k="old_name" v="Svartholsetri" />
		<tag k="place" v="locality" />
		<tag k="ssr:stedsnr" v="433431" />
	</node>
	<node id="-489096" lat="60.7703807605" lon="5.03499955407">
		<tag k="fixme" v="consider place=hamlet" />
		<tag k="name" v="Keilegavlen" />
		<tag k="place" v="farm" />
		<tag k="ssr:stedsnr" v="433188" />
	</node>
	<node id="-490246" lat="60.5678526982" lon="5.27313751632">
		<tag k="fixme" v="consider place=hamlet" />
		<tag k="name" v="Isdal" />
		<tag k="place" v="farm" />
		<tag k="ssr:stedsnr" v="734079" />
	</node>
	<node id="-489086" lat="60.7267787995" lon="5.23523272465">
		<tag k="alt_name" v="Fjellsende" />
		<tag k="fixme" v="consider place=hamlet" />
		<tag k="name" v="Fjellsenda" />
		<tag k="place" v="farm" />
		<tag k="ssr:stedsnr" v="431674" />
	</node>
	<node id="-489082" lat="60.6936384391" lon="5.59440981669">
		<tag k="fixme" v="consider place=hamlet" />
		<tag k="name" v="Hokøyni" />
		<tag k="place" v="farm" />
		<tag k="ssr:stedsnr" v="431400" />
	</node>
	<node id="-489080" lat="60.676727782" lon="5.53971943635">
		<tag k="historic" v="shieling" />
		<tag k="name" v="Eiknessætra" />
		<tag k="place" v="locality" />
		<tag k="ssr:stedsnr" v="431366" />
	</node>
	<node id="-489078" lat="60.6990196922" lon="5.56444167163">
		<tag k="fixme" v="consider place=hamlet" />
		<tag k="name" v="Store-Aurdal" />
		<tag k="place" v="farm" />
		<tag k="ssr:stedsnr" v="431274" />
	</node>
	<node id="-489074" lat="60.6683566548" lon="5.15491570908">
		<tag k="fixme" v="consider place=hamlet" />
		<tag k="name" v="Skotsund" />
		<tag k="place" v="farm" />
		<tag k="ssr:stedsnr" v="431254" />
	</node>
	<node id="-489073" lat="60.6429861095" lon="5.28278054951">
		<tag k="fixme" v="consider place=hamlet" />
		<tag k="name" v="Kjenes" />
		<tag k="place" v="farm" />
		<tag k="ssr:stedsnr" v="431239" />
	</node>
	<node id="-489072" lat="60.6601472189" lon="5.43016944431">
		<tag k="name" v="Askeland" />
		<tag k="place" v="hamlet" />
		<tag k="ssr:stedsnr" v="431228" />
	</node>
	<node id="-489071" lat="60.6566583312" lon="5.28310833814">
		<tag k="alt_name" v="Leivestad, nordre;Leivestad" />
		<tag k="name" v="Nordre Leivestad" />
		<tag k="place" v="farm" />
		<tag k="ssr:stedsnr" v="431224" />
	</node>
	<node id="-489070" lat="60.6562388921" lon="5.32597500274">
		<tag k="fixme" v="consider place=hamlet" />
		<tag k="loc_name" v="Tveito" />
		<tag k="name" v="Øvretveito" />
		<tag k="place" v="farm" />
		<tag k="ssr:stedsnr" v="431222" />
	</node>
	<node id="-488381" lat="60.6701638866" lon="5.26536111423">
		<tag k="name" v="Seljedal" />
		<tag k="place" v="farm" />
		<tag k="ssr:stedsnr" v="105233" />
	</node>
	<node id="-489068" lat="60.6421608638" lon="5.17994207111">
		<tag k="fixme" v="consider place=hamlet" />
		<tag k="name" v="Smørdal" />
		<tag k="place" v="farm" />
		<tag k="ssr:stedsnr" v="431212" />
	</node>
	<node id="-489065" lat="60.6863515448" lon="5.12848045052">
		<tag k="fixme" v="consider place=hamlet" />
		<tag k="name" v="Innluro" />
		<tag k="place" v="farm" />
		<tag k="ssr:stedsnr" v="431157" />
	</node>
	<node id="-489061" lat="60.5845312137" lon="5.19305242083">
		<tag k="alt_name" v="Fjellsende" />
		<tag k="fixme" v="consider place=hamlet" />
		<tag k="name" v="Fjellsenda" />
		<tag k="place" v="farm" />
		<tag k="ssr:stedsnr" v="431128" />
	</node>
	<node id="-489055" lat="60.6189666633" lon="5.34962499719">
		<tag k="name" v="Vassbygdi" />
		<tag k="place" v="hamlet" />
		<tag k="ssr:stedsnr" v="431057" />
	</node>
	<node id="-489054" lat="60.7291553097" lon="5.18483664874">
		<tag k="fixme" v="consider place=hamlet" />
		<tag k="name" v="Haukås" />
		<tag k="place" v="farm" />
		<tag k="ssr:stedsnr" v="268894" />
	</node>
	<node id="-489036" lat="60.8013276992" lon="5.63738012242">
		<tag k="alt_name" v="Dyrkolbotn;Dyrkollbotn" />
		<tag k="fixme" v="consider place=hamlet" />
		<tag k="name" v="Dyrkollebotnen" />
		<tag k="old_name" v="Dyrkollbotnen" />
		<tag k="place" v="farm" />
		<tag k="ssr:stedsnr" v="251503" />
	</node>
	<node id="-488034" lat="60.6927541514" lon="5.11152072572">
		<tag k="fixme" v="consider place=hamlet" />
		<tag k="name" v="Utluro" />
		<tag k="place" v="farm" />
		<tag k="ssr:stedsnr" v="6195" />
	</node>
	<node id="-489032" lat="60.7822379081" lon="5.07776847371">
		<tag k="alt_name" v="Knarrviki;Knarvik" />
		<tag k="fixme" v="consider place=hamlet" />
		<tag k="name" v="Knarrvik" />
		<tag k="place" v="farm" />
		<tag k="ssr:stedsnr" v="251261" />
	</node>
	<node id="-489029" lat="60.7539111075" lon="5.62915555466">
		<tag k="name" v="Gamlesætri" />
		<tag k="place" v="farm" />
		<tag k="ssr:stedsnr" v="251058" />
	</node>
	<node id="-489026" lat="60.7433259388" lon="5.08095852289">
		<tag k="fixme" v="consider place=hamlet" />
		<tag k="name" v="Finnesbø" />
		<tag k="place" v="farm" />
		<tag k="ssr:stedsnr" v="249740" />
	</node>
	<node id="-489022" lat="60.545297219" lon="5.28207778467">
		<tag k="name" v="Knarvik" />
		<tag k="place" v="village" />
		<tag k="ssr:stedsnr" v="249433" />
	</node>
	<node id="-489019" lat="60.7167382525" lon="5.62091854054">
		<tag k="alt_name" v="Litle Aurdal" />
		<tag k="fixme" v="consider place=hamlet" />
		<tag k="name" v="Vetle-Aurdal" />
		<tag k="place" v="farm" />
		<tag k="ssr:stedsnr" v="249288" />
	</node>
	<node id="-489016" lat="60.6647379719" lon="5.32428418108">
		<tag k="fixme" v="consider place=hamlet" />
		<tag k="name" v="Reikerås" />
		<tag k="place" v="farm" />
		<tag k="ssr:stedsnr" v="249230" />
	</node>
	<node id="-489014" lat="60.6647653579" lon="5.4227703495">
		<tag k="fixme" v="consider place=hamlet" />
		<tag k="name" v="Rød" />
		<tag k="place" v="farm" />
		<tag k="ssr:stedsnr" v="249219" />
	</node>
	<node id="-489013" lat="60.6761999969" lon="5.41045000866">
		<tag k="alt_name" v="Veland, øvre;Veland" />
		<tag k="name" v="Øvre Veland" />
		<tag k="place" v="farm" />
		<tag k="ssr:stedsnr" v="249200" />
	</node>
	<node id="-489012" lat="60.6580194462" lon="5.34362499929">
		<tag k="name" v="Kløvheim" />
		<tag k="place" v="farm" />
		<tag k="ssr:stedsnr" v="249182" />
	</node>
	<node id="-489011" lat="60.6863599601" lon="5.34099600261">
		<tag k="fixme" v="consider place=hamlet" />
		<tag k="name" v="Jordal" />
		<tag k="place" v="farm" />
		<tag k="ssr:stedsnr" v="249135" />
	</node>
	<node id="-489010" lat="60.687963272" lon="5.32464438128">
		<tag k="fixme" v="consider place=hamlet" />
		<tag k="name" v="Bjørnevoll" />
		<tag k="place" v="farm" />
		<tag k="ssr:stedsnr" v="249134" />
	</node>
	<node id="-489006" lat="60.6290333318" lon="5.43543889082">
		<tag k="name" v="Bjørgetrædet" />
		<tag k="place" v="farm" />
		<tag k="ssr:stedsnr" v="249004" />
	</node>
	<node id="-489000" lat="60.7376861156" lon="5.63933889653">
		<tag k="name" v="Nordli" />
		<tag k="place" v="farm" />
		<tag k="ssr:stedsnr" v="248434" />
	</node>
	<node id="-488996" lat="60.6718501232" lon="5.47281388359">
		<tag k="alt_name" v="Andås" />
		<tag k="fixme" v="consider place=hamlet" />
		<tag k="name" v="Odnåsen" />
		<tag k="place" v="farm" />
		<tag k="ssr:stedsnr" v="248320" />
	</node>
	<node id="-488993" lat="60.6306555596" lon="5.18111388672">
		<tag k="loc_name" v="Nappane" />
		<tag k="name" v="Nappen" />
		<tag k="place" v="farm" />
		<tag k="ssr:stedsnr" v="248041" />
	</node>
	<node id="-491035" lat="60.6328416697" lon="5.31418333232">
		<tag k="name" v="Toskheim" />
		<tag k="place" v="farm" />
		<tag k="ssr:stedsnr" v="957294" />
	</node>
	<node id="-491023" lat="60.7219972194" lon="5.55036944616">
		<tag k="historic" v="shieling" />
		<tag k="name" v="Gamlesetra" />
		<tag k="place" v="locality" />
		<tag k="ssr:stedsnr" v="955847" />
	</node>
	<node id="-491017" lat="60.7426777775" lon="5.59222777379">
		<tag k="historic" v="shieling" />
		<tag k="name" v="Vetleurdalsetra" />
		<tag k="place" v="locality" />
		<tag k="ssr:stedsnr" v="955798" />
	</node>
	<node id="-491011" lat="60.7515777799" lon="5.52705000346">
		<tag k="historic" v="shieling" />
		<tag k="name" v="Rauneholsetra" />
		<tag k="place" v="locality" />
		<tag k="ssr:stedsnr" v="955663" />
	</node>
	<node id="-490999" lat="60.6799916676" lon="5.08998610365">
		<tag k="name" v="Klumpane" />
		<tag k="place" v="farm" />
		<tag k="ssr:stedsnr" v="955548" />
	</node>
	<node id="-490996" lat="60.7029694447" lon="5.07832777866">
		<tag k="name" v="Stongi" />
		<tag k="place" v="farm" />
		<tag k="ssr:stedsnr" v="955533" />
	</node>
	<node id="-490994" lat="60.636205559" lon="5.52209444191">
		<tag k="name" v="Skåratræet" />
		<tag k="place" v="farm" />
		<tag k="ssr:stedsnr" v="955525" />
	</node>
	<node id="-490993" lat="60.6294138883" lon="5.48353888051">
		<tag k="amenity" v="school" />
		<tag k="name" v="Ostereidet" />
		<tag k="ssr:stedsnr" v="955508" />
	</node>
	<node id="-490992" lat="60.7501222247" lon="5.07130277066">
		<tag k="name" v="Skireidet" />
		<tag k="place" v="farm" />
		<tag k="ssr:stedsnr" v="955495" />
	</node>
	<node id="-490989" lat="60.7846083338" lon="5.00613056443">
		<tag k="name" v="Keilo" />
		<tag k="place" v="farm" />
		<tag k="ssr:stedsnr" v="955474" />
	</node>
	<node id="-488939" lat="60.6991194439" lon="5.43846945159">
		<tag k="historic" v="shieling" />
		<tag k="name" v="Gamlesetra" />
		<tag k="place" v="locality" />
		<tag k="ssr:stedsnr" v="227403" />
	</node>
	<node id="-488931" lat="60.6545944449" lon="5.18263056095">
		<tag k="name" v="Øvre Myksvoll" />
		<tag k="place" v="farm" />
		<tag k="ssr:stedsnr" v="227342" />
	</node>
	<node id="-488930" lat="60.5667944407" lon="5.3644222212">
		<tag k="alt_name" v="Mundal nedre" />
		<tag k="name" v="Nedre Mundal" />
		<tag k="place" v="farm" />
		<tag k="ssr:stedsnr" v="227336" />
	</node>
	<node id="-488927" lat="60.6440166657" lon="5.17476110882">
		<tag k="historic" v="shieling" />
		<tag k="name" v="Smørdalstølen" />
		<tag k="place" v="locality" />
		<tag k="ssr:stedsnr" v="227327" />
	</node>
	<node id="-490968" lat="60.7311611114" lon="5.29688055557">
		<tag k="name" v="Hodneland" />
		<tag k="place" v="farm" />
		<tag k="ssr:stedsnr" v="955362" />
	</node>
	<node id="-488697" lat="60.6389527807" lon="5.17459721582">
		<tag k="name" v="Titland" />
		<tag k="place" v="farm" />
		<tag k="ssr:stedsnr" v="166329" />
	</node>
	<node id="-488915" lat="60.6904833354" lon="5.31715277645">
		<tag k="name" v="Nævdal" />
		<tag k="place" v="farm" />
		<tag k="ssr:stedsnr" v="227187" />
	</node>
	<node id="-490956" lat="60.7404138906" lon="5.13758333858">
		<tag k="historic" v="shieling" />
		<tag k="name" v="Skjerjestølane" />
		<tag k="place" v="locality" />
		<tag k="ssr:stedsnr" v="955242" />
	</node>
	<node id="-488899" lat="60.5772194442" lon="5.23655277367">
		<tag k="alt_name" v="Tveiten nedre" />
		<tag k="name" v="Nedre Tveiten" />
		<tag k="place" v="farm" />
		<tag k="ssr:stedsnr" v="227122" />
	</node>
	<node id="-490946" lat="60.7381444409" lon="5.15561666148">
		<tag k="name" v="Kvalen" />
		<tag k="place" v="farm" />
		<tag k="ssr:stedsnr" v="955197" />
	</node>
	<node id="-490943" lat="60.7220611133" lon="5.21697777912">
		<tag k="name" v="Vågseidet" />
		<tag k="place" v="village" />
		<tag k="ssr:stedsnr" v="955186" />
	</node>
	<node id="-490935" lat="60.5891472247" lon="5.29627776999">
		<tag k="alt_name" v="Kopperdal Nordre" />
		<tag k="fixme" v="consider place=hamlet" />
		<tag k="name" v="Nordre Kopperdal" />
		<tag k="place" v="farm" />
		<tag k="ssr:stedsnr" v="955135" />
	</node>
	<node id="-490931" lat="60.6044944463" lon="5.34754721545">
		<tag k="name" v="Fyllingatræet" />
		<tag k="place" v="farm" />
		<tag k="ssr:stedsnr" v="955121" />
	</node>
	<node id="-490929" lat="60.5736722256" lon="5.23698611254">
		<tag k="alt_name" v="Tveiten øvre" />
		<tag k="name" v="Øvre Tveiten" />
		<tag k="place" v="farm" />
		<tag k="ssr:stedsnr" v="955118" />
	</node>
	<node id="-490927" lat="60.6224222246" lon="5.27406111481">
		<tag k="name" v="Hopland" />
		<tag k="place" v="farm" />
		<tag k="ssr:stedsnr" v="955099" />
	</node>
	<node id="-490921" lat="60.6584083329" lon="5.32235555847">
		<tag k="name" v="Øvretveit" />
		<tag k="place" v="farm" />
		<tag k="ssr:stedsnr" v="955085" />
	</node>
	<node id="-490917" lat="60.614369446" lon="5.30733054635">
		<tag k="name" v="Kleivdal" />
		<tag k="place" v="farm" />
		<tag k="ssr:stedsnr" v="955067" />
	</node>
	<node id="-490915" lat="60.6326027768" lon="5.32811110857">
		<tag k="name" v="Kalsås" />
		<tag k="place" v="farm" />
		<tag k="ssr:stedsnr" v="955062" />
	</node>
	<node id="-488866" lat="60.6686555599" lon="5.38221944236">
		<tag k="alt_name" v="Hindenes ytre" />
		<tag k="name" v="Ytre Hindenes" />
		<tag k="place" v="farm" />
		<tag k="ssr:stedsnr" v="226539" />
	</node>
	<node id="-490909" lat="60.5862944404" lon="5.34254444335">
		<tag k="name" v="Hodnesdal" />
		<tag k="place" v="farm" />
		<tag k="ssr:stedsnr" v="955021" />
	</node>
	<node id="-490903" lat="60.7894324783" lon="5.63596798079">
		<tag k="amenity" v="school" />
		<tag k="name" v="Dyrkollbotn leirskule" />
		<tag k="ssr:stedsnr" v="954975" />
	</node>
	<node id="-490899" lat="60.7088527781" lon="5.55647500066">
		<tag k="historic" v="shieling" />
		<tag k="name" v="Klenlistølen" />
		<tag k="place" v="locality" />
		<tag k="ssr:stedsnr" v="954742" />
	</node>
	<node id="-488849" lat="60.6225222254" lon="5.37972777166">
		<tag k="name" v="Haugen" />
		<tag k="place" v="farm" />
		<tag k="ssr:stedsnr" v="226370" />
	</node>
	<node id="-488845" lat="60.6178722201" lon="5.43076943775">
		<tag k="name" v="Bjørndal" />
		<tag k="place" v="farm" />
		<tag k="ssr:stedsnr" v="226342" />
	</node>
	<node id="-490890" lat="60.5976638912" lon="5.21901111272">
		<tag k="alt_name" v="Fosse indre" />
		<tag k="name" v="Indre Fosse" />
		<tag k="place" v="farm" />
		<tag k="ssr:stedsnr" v="954377" />
	</node>
	<node id="-488839" lat="60.7107305595" lon="5.22395276982">
		<tag k="name" v="Løtveit" />
		<tag k="place" v="farm" />
		<tag k="ssr:stedsnr" v="226321" />
	</node>
	<node id="-490874" lat="60.597302777" lon="5.29376944357">
		<tag k="name" v="Eikeland" />
		<tag k="place" v="farm" />
		<tag k="ssr:stedsnr" v="954117" />
	</node>
	<node id="-490871" lat="60.613008336" lon="5.46498610263">
		<tag k="name" v="Askvik" />
		<tag k="place" v="farm" />
		<tag k="ssr:stedsnr" v="954084" />
	</node>
	<node id="-490868" lat="60.7348967444" lon="5.27434926839">
		<tag k="fixme" v="consider place=hamlet" />
		<tag k="name" v="Sævrås" />
		<tag k="place" v="farm" />
		<tag k="ssr:stedsnr" v="941773" />
	</node>
	<node id="-488815" lat="60.5930638908" lon="5.36411945072">
		<tag k="name" v="Hjelmås" />
		<tag k="place" v="hamlet" />
		<tag k="ssr:stedsnr" v="213374" />
	</node>
	<node id="-490861" lat="60.6547305533" lon="5.18200000826">
		<tag k="name" v="Øvre Myksvoll" />
		<tag k="place" v="farm" />
		<tag k="ssr:stedsnr" v="935303" />
	</node>
	<node id="-488810" lat="60.7326916703" lon="5.10624443622">
		<tag k="name" v="Skornes" />
		<tag k="place" v="farm" />
		<tag k="ssr:stedsnr" v="207139" />
	</node>
	<node id="-488806" lat="60.7510178983" lon="5.13797412748">
		<tag k="fixme" v="consider place=hamlet" />
		<tag k="name" v="Tjukkhetla" />
		<tag k="place" v="farm" />
		<tag k="ssr:stedsnr" v="191677" />
	</node>
	<node id="-488805" lat="60.7686749979" lon="5.10264443552">
		<tag k="name" v="Lauvås" />
		<tag k="place" v="hamlet" />
		<tag k="ssr:stedsnr" v="191647" />
	</node>
	<node id="-488803" lat="60.7695277733" lon="5.60978610328">
		<tag k="historic" v="shieling" />
		<tag k="name" v="Laksebotnen" />
		<tag k="place" v="locality" />
		<tag k="ssr:stedsnr" v="190464" />
	</node>
	<node id="-488794" lat="60.6740916638" lon="5.60563889307">
		<tag k="name" v="Pynten" />
		<tag k="place" v="farm" />
		<tag k="ssr:stedsnr" v="188380" />
	</node>
	<node id="-490841" lat="60.740519232" lon="5.25327707428">
		<tag k="alt_name" v="Vabunes" />
		<tag k="fixme" v="consider place=hamlet" />
		<tag k="name" v="Vadbuneset" />
		<tag k="place" v="farm" />
		<tag k="ssr:stedsnr" v="917653" />
	</node>
	<node id="-490840" lat="60.7074243284" lon="5.19995944908">
		<tag k="fixme" v="consider place=hamlet" />
		<tag k="name" v="Hauge" />
		<tag k="place" v="farm" />
		<tag k="ssr:stedsnr" v="917122" />
	</node>
	<node id="-490839" lat="60.6052722227" lon="5.39810277661">
		<tag k="name" v="Eikangervåg" />
		<tag k="place" v="village" />
		<tag k="ssr:stedsnr" v="917088" />
	</node>
	<node id="-488788" lat="60.6685416691" lon="5.41355555089">
		<tag k="fixme" v="consider place=hamlet" />
		<tag k="name" v="Nedrås" />
		<tag k="place" v="farm" />
		<tag k="ssr:stedsnr" v="188265" />
	</node>
	<node id="-490835" lat="60.6325305572" lon="5.51107499694">
		<tag k="fixme" v="consider place=hamlet" />
		<tag k="name" v="Skor" />
		<tag k="old_name" v="Skori" />
		<tag k="place" v="farm" />
		<tag k="ssr:stedsnr" v="916729" />
	</node>
	<node id="-490833" lat="60.7326738734" lon="5.10516159831">
		<tag k="fixme" v="consider place=hamlet" />
		<tag k="name" v="Skorneset" />
		<tag k="place" v="farm" />
		<tag k="ssr:stedsnr" v="916699" />
	</node>
	<node id="-488783" lat="60.6044444481" lon="5.44907221695">
		<tag k="alt_name" v="Eiknes" />
		<tag k="name" v="Eknes" />
		<tag k="place" v="hamlet" />
		<tag k="ssr:stedsnr" v="188113" />
	</node>
	<node id="-488782" lat="60.6041325571" lon="5.4145731872">
		<tag k="alt_name" v="Eidsnes, yt" />
		<tag k="fixme" v="consider place=hamlet" />
		<tag k="name" v="Ytre Eidsnes" />
		<tag k="place" v="farm" />
		<tag k="ssr:stedsnr" v="188109" />
	</node>
	<node id="-488781" lat="60.6334701029" lon="5.21810529728">
		<tag k="fixme" v="consider place=hamlet" />
		<tag k="name" v="Mongstad" />
		<tag k="place" v="farm" />
		<tag k="ssr:stedsnr" v="188051" />
	</node>
	<node id="-488780" lat="60.6337611071" lon="5.30711111772">
		<tag k="name" v="Toskheim" />
		<tag k="place" v="farm" />
		<tag k="ssr:stedsnr" v="188046" />
	</node>
	<node id="-488778" lat="60.6102611095" lon="5.38865555378">
		<tag k="name" v="Eikanger" />
		<tag k="place" v="hamlet" />
		<tag k="ssr:stedsnr" v="188022" />
	</node>
	<node id="-488777" lat="60.608878205" lon="5.24306076585">
		<tag k="name" v="Elsås" />
		<tag k="place" v="hamlet" />
		<tag k="ssr:stedsnr" v="188013" />
	</node>
	<node id="-490824" lat="60.7284805524" lon="5.64424999726">
		<tag k="fixme" v="consider place=hamlet" />
		<tag k="name" v="Romarheim" />
		<tag k="place" v="village" />
		<tag k="ssr:stedsnr" v="916332" />
	</node>
	<node id="-490822" lat="60.7151861103" lon="5.52594999911">
		<tag k="fixme" v="consider place=hamlet" />
		<tag k="name" v="Sætre" />
		<tag k="place" v="farm" />
		<tag k="ssr:stedsnr" v="916294" />
	</node>
	<node id="-488770" lat="60.6134276704" lon="5.28121369141">
		<tag k="fixme" v="consider place=hamlet" />
		<tag k="name" v="Seim" />
		<tag k="place" v="farm" />
		<tag k="ssr:stedsnr" v="188069" />
	</node>
	<node id="-488769" lat="60.6210051819" lon="5.27586620486">
		<tag k="fixme" v="consider place=hamlet" />
		<tag k="name" v="Hopland" />
		<tag k="place" v="farm" />
		<tag k="ssr:stedsnr" v="188068" />
	</node>
	<node id="-490816" lat="60.7148184064" lon="5.30783424179">
		<tag k="fixme" v="consider place=hamlet" />
		<tag k="name" v="Hodnakvamme" />
		<tag k="place" v="farm" />
		<tag k="ssr:stedsnr" v="916194" />
	</node>
	<node id="-490815" lat="60.7148223303" lon="5.26729147169">
		<tag k="fixme" v="consider place=hamlet" />
		<tag k="loc_name" v="Skauno" />
		<tag k="name" v="Skauo" />
		<tag k="place" v="farm" />
		<tag k="ssr:stedsnr" v="916171" />
	</node>
	<node id="-490813" lat="60.6847729436" lon="5.39164359681">
		<tag k="fixme" v="consider place=hamlet" />
		<tag k="name" v="Rødland" />
		<tag k="place" v="farm" />
		<tag k="ssr:stedsnr" v="916151" />
	</node>
	<node id="-490808" lat="60.5635916701" lon="5.24869167145">
		<tag k="name" v="Steingard" />
		<tag k="place" v="farm" />
		<tag k="ssr:stedsnr" v="916081" />
	</node>
	<node id="-490807" lat="60.5776052077" lon="5.35884369231">
		<tag k="fixme" v="consider place=hamlet" />
		<tag k="name" v="Øvstegarden" />
		<tag k="place" v="farm" />
		<tag k="ssr:stedsnr" v="916076" />
	</node>
	<node id="-490805" lat="60.6016166639" lon="5.21688888103">
		<tag k="alt_name" v="Fosse, yt" />
		<tag k="name" v="Ytre Fosse" />
		<tag k="place" v="farm" />
		<tag k="ssr:stedsnr" v="916027" />
	</node>
	<node id="-490803" lat="60.6137502772" lon="5.45595941341">
		<tag k="fixme" v="consider place=hamlet" />
		<tag k="name" v="Totland" />
		<tag k="place" v="farm" />
		<tag k="ssr:stedsnr" v="916019" />
	</node>
	<node id="-490802" lat="60.5415222268" lon="5.28055833925">
		<tag k="name" v="Klubben" />
		<tag k="place" v="quarter" />
		<tag k="ssr:stedsnr" v="906807" />
	</node>
	<node id="-490801" lat="60.6919444454" lon="5.31377500764">
		<tag k="name" v="Nævdal" />
		<tag k="place" v="farm" />
		<tag k="ssr:stedsnr" v="905696" />
	</node>
	<node id="-490800" lat="60.6925527822" lon="5.31689722456">
		<tag k="name" v="Nævdal" />
		<tag k="place" v="farm" />
		<tag k="ssr:stedsnr" v="905695" />
	</node>
	<node id="-490799" lat="60.7944194462" lon="5.06703333912">
		<tag k="name" v="Mongstad Base" />
		<tag k="place" v="quarter" />
		<tag k="ssr:stedsnr" v="905654" />
	</node>
	<node id="-490798" lat="60.8118638867" lon="5.03273888446">
		<tag k="building" v="industrial" />
		<tag k="industrial" v="factory" />
		<tag k="name" v="Oljeraffineri" />
		<tag k="ssr:stedsnr" v="905646" />
	</node>
	<node id="-490795" lat="60.7119043886" lon="5.21356782138">
		<tag k="fixme" v="consider place=hamlet" />
		<tag k="name" v="Gaulen" />
		<tag k="place" v="farm" />
		<tag k="ssr:stedsnr" v="875857" />
	</node>
	<node id="-487711" lat="60.6096861089" lon="5.2414833285">
		<tag k="alt_name" v="Elsås Nordre" />
		<tag k="name" v="Nordre Elsås" />
		<tag k="place" v="farm" />
		<tag k="ssr:stedsnr" v="409065" />
	</node>
	<node id="-488739" lat="60.7373805548" lon="5.53381110339">
		<tag k="name" v="Fjelle" />
		<tag k="place" v="farm" />
		<tag k="ssr:stedsnr" v="166637" />
	</node>
	<node id="-490779" lat="60.7873208242" lon="5.04027381472">
		<tag k="fixme" v="consider place=hamlet" />
		<tag k="name" v="Hope" />
		<tag k="place" v="farm" />
		<tag k="ssr:stedsnr" v="858233" />
	</node>
	<node id="-490771" lat="60.6267750039" lon="5.54410833694">
		<tag k="fixme" v="consider place=hamlet" />
		<tag k="name" v="Mulen" />
		<tag k="place" v="farm" />
		<tag k="ssr:stedsnr" v="856726" />
	</node>
	<node id="-490770" lat="60.7482651141" lon="5.09646418723">
		<tag k="fixme" v="consider place=hamlet" />
		<tag k="name" v="Sirset" />
		<tag k="place" v="farm" />
		<tag k="ssr:stedsnr" v="856697" />
	</node>
	<node id="-490765" lat="60.7222638913" lon="5.63636388784">
		<tag k="name" v="Floten" />
		<tag k="place" v="farm" />
		<tag k="ssr:stedsnr" v="856312" />
	</node>
	<node id="-490763" lat="60.6760761869" lon="5.33287773553">
		<tag k="fixme" v="consider place=hamlet" />
		<tag k="name" v="Kleivi" />
		<tag k="place" v="farm" />
		<tag k="ssr:stedsnr" v="856243" />
	</node>
	<node id="-490762" lat="60.6659822687" lon="5.13655789491">
		<tag k="alt_name" v="Bergfjord" />
		<tag k="fixme" v="consider place=hamlet" />
		<tag k="name" v="Berfjord" />
		<tag k="place" v="farm" />
		<tag k="ssr:stedsnr" v="856235" />
	</node>
	<node id="-488712" lat="60.5789027783" lon="5.2309166648">
		<tag k="alt_name" v="Tveiten nedre" />
		<tag k="name" v="Nedre Tveiten" />
		<tag k="place" v="farm" />
		<tag k="ssr:stedsnr" v="166414" />
	</node>
	<node id="-488711" lat="60.5800611142" lon="5.21351945028">
		<tag k="alt_name" v="Soltveit søre" />
		<tag k="fixme" v="consider place=hamlet" />
		<tag k="name" v="Søre Soltveit" />
		<tag k="place" v="farm" />
		<tag k="ssr:stedsnr" v="166408" />
	</node>
	<node id="-490755" lat="60.6921775829" lon="5.40861124415">
		<tag k="fixme" v="consider place=hamlet" />
		<tag k="name" v="Nesbø" />
		<tag k="place" v="farm" />
		<tag k="ssr:stedsnr" v="856157" />
	</node>
	<node id="-490754" lat="60.6906638896" lon="5.23243334118">
		<tag k="alt_name" v="Skodven, nedre;Skodven" />
		<tag k="name" v="Nedre Skodven" />
		<tag k="place" v="farm" />
		<tag k="ssr:stedsnr" v="856125" />
	</node>
	<node id="-490753" lat="60.6904519463" lon="5.2214717274">
		<tag k="alt_name" v="Hetlehovde" />
		<tag k="fixme" v="consider place=hamlet" />
		<tag k="name" v="Hetlehovda" />
		<tag k="place" v="farm" />
		<tag k="ssr:stedsnr" v="856123" />
	</node>
	<node id="-490752" lat="60.6920710606" lon="5.30078014026">
		<tag k="fixme" v="consider place=hamlet" />
		<tag k="name" v="Smørdal" />
		<tag k="place" v="farm" />
		<tag k="ssr:stedsnr" v="856122" />
	</node>
	<node id="-490750" lat="60.5679055586" lon="5.37828888212">
		<tag k="fixme" v="consider place=hamlet" />
		<tag k="name" v="Leknes" />
		<tag k="place" v="village" />
		<tag k="ssr:stedsnr" v="856077" />
	</node>
	<node id="-490749" lat="60.622594171" lon="5.23857052294">
		<tag k="fixme" v="consider place=hamlet" />
		<tag k="name" v="Li" />
		<tag k="place" v="farm" />
		<tag k="ssr:stedsnr" v="856064" />
	</node>
	<node id="-490748" lat="60.6305583315" lon="5.37086666925">
		<tag k="name" v="Apalhaug" />
		<tag k="place" v="farm" />
		<tag k="ssr:stedsnr" v="856054" />
	</node>
	<node id="-490745" lat="60.6270837445" lon="5.21297925819">
		<tag k="fixme" v="consider place=hamlet" />
		<tag k="name" v="Skardet" />
		<tag k="place" v="farm" />
		<tag k="ssr:stedsnr" v="856044" />
	</node>
	<node id="-488695" lat="60.6167500013" lon="5.37926944368">
		<tag k="name" v="Eikangerlid" />
		<tag k="place" v="farm" />
		<tag k="ssr:stedsnr" v="166327" />
	</node>
	<node id="-490741" lat="60.6022805596" lon="5.33481667088">
		<tag k="fixme" v="consider place=hamlet" />
		<tag k="name" v="Sætre" />
		<tag k="place" v="farm" />
		<tag k="ssr:stedsnr" v="856030" />
	</node>
	<node id="-488689" lat="60.6229249999" lon="5.41820000593">
		<tag k="name" v="Vasshelle" />
		<tag k="place" v="farm" />
		<tag k="ssr:stedsnr" v="166305" />
	</node>
	<node id="-490729" lat="60.6993561022" lon="5.16877526575">
		<tag k="alt_name" v="Kvalvåggrend" />
		<tag k="fixme" v="consider place=hamlet" />
		<tag k="name" v="Kvalvågen" />
		<tag k="place" v="farm" />
		<tag k="ssr:stedsnr" v="855171" />
	</node>
	<node id="-490728" lat="60.7002796214" lon="5.27758201229">
		<tag k="fixme" v="consider place=hamlet" />
		<tag k="name" v="Tveiten" />
		<tag k="place" v="farm" />
		<tag k="ssr:stedsnr" v="855168" />
	</node>
	<node id="-490726" lat="60.8093861128" lon="5.02438056419">
		<tag k="building" v="industrial" />
		<tag k="industrial" v="factory" />
		<tag k="name" v="Flammetårn" />
		<tag k="ssr:stedsnr" v="845658" />
	</node>
	<node id="-490725" lat="60.6318403854" lon="5.55727472046">
		<tag k="alt_name" v="Molviki" />
		<tag k="fixme" v="consider place=hamlet" />
		<tag k="name" v="Molvik" />
		<tag k="place" v="farm" />
		<tag k="ssr:stedsnr" v="839719" />
	</node>
	<node id="-488673" lat="60.7481249998" lon="5.17255833678">
		<tag k="name" v="Jordgamme" />
		<tag k="place" v="locality" />
		<tag k="ssr:stedsnr" v="166228" />
	</node>
	<node id="-488669" lat="60.7386999991" lon="5.14026110819">
		<tag k="name" v="Skjerje" />
		<tag k="place" v="farm" />
		<tag k="ssr:stedsnr" v="166210" />
	</node>
	<node id="-490715" lat="60.7809972256" lon="5.65736111164">
		<tag k="historic" v="shieling" />
		<tag k="name" v="Heimste Stølen" />
		<tag k="place" v="locality" />
		<tag k="ssr:stedsnr" v="834890" />
	</node>
	<node id="-488666" lat="60.6867666661" lon="5.33990832528">
		<tag k="name" v="Jordal" />
		<tag k="place" v="farm" />
		<tag k="ssr:stedsnr" v="166198" />
	</node>
	<node id="-488665" lat="60.7205805529" lon="5.21496666691">
		<tag k="name" v="Våge" />
		<tag k="place" v="farm" />
		<tag k="ssr:stedsnr" v="166197" />
	</node>
	<node id="-490706" lat="60.7536027791" lon="5.62879443595">
		<tag k="historic" v="shieling" />
		<tag k="name" v="Gamlesetra" />
		<tag k="place" v="locality" />
		<tag k="ssr:stedsnr" v="834817" />
	</node>
	<node id="-490701" lat="60.7383166652" lon="5.63454999724">
		<tag k="name" v="Soltun" />
		<tag k="place" v="farm" />
		<tag k="ssr:stedsnr" v="834761" />
	</node>
	<node id="-488649" lat="60.6692055548" lon="5.2799888819">
		<tag k="name" v="Vik" />
		<tag k="place" v="farm" />
		<tag k="ssr:stedsnr" v="166134" />
	</node>
	<node id="-490693" lat="60.6915666706" lon="5.54923889585">
		<tag k="historic" v="shieling" />
		<tag k="name" v="Vetlaløa" />
		<tag k="place" v="locality" />
		<tag k="ssr:stedsnr" v="834640" />
	</node>
	<node id="-490690" lat="60.651052775" lon="5.54728610824">
		<tag k="historic" v="shieling" />
		<tag k="name" v="Gamlesetra" />
		<tag k="place" v="locality" />
		<tag k="ssr:stedsnr" v="834631" />
	</node>
	<node id="-490687" lat="60.6917777814" lon="5.40816110763">
		<tag k="name" v="Nesbø" />
		<tag k="place" v="farm" />
		<tag k="ssr:stedsnr" v="834610" />
	</node>
	<node id="-490682" lat="60.6780972231" lon="5.1098722174">
		<tag k="name" v="Lygresteinen" />
		<tag k="place" v="farm" />
		<tag k="ssr:stedsnr" v="834551" />
	</node>
	<node id="-488629" lat="60.6070611111" lon="5.24491944325">
		<tag k="alt_name" v="Elsås Søre" />
		<tag k="name" v="Søre Elsås" />
		<tag k="place" v="farm" />
		<tag k="ssr:stedsnr" v="166047" />
	</node>
	<node id="-488628" lat="60.6180833327" lon="5.34868611761">
		<tag k="fixme" v="consider place=hamlet" />
		<tag k="name" v="Sandvik" />
		<tag k="place" v="farm" />
		<tag k="ssr:stedsnr" v="166043" />
	</node>
	<node id="-488625" lat="60.5963972185" lon="5.27881110912">
		<tag k="name" v="Espeland" />
		<tag k="place" v="farm" />
		<tag k="ssr:stedsnr" v="166026" />
	</node>
	<node id="-488624" lat="60.7119527824" lon="5.26298611678">
		<tag k="name" v="Skauge" />
		<tag k="place" v="farm" />
		<tag k="ssr:stedsnr" v="166025" />
	</node>
	<node id="-490671" lat="60.7406611098" lon="5.09331667487">
		<tag k="name" v="Straumsvik" />
		<tag k="place" v="farm" />
		<tag k="ssr:stedsnr" v="834481" />
	</node>
	<node id="-488611" lat="60.7003944408" lon="5.57601667484">
		<tag k="name" v="Vike" />
		<tag k="place" v="farm" />
		<tag k="ssr:stedsnr" v="165742" />
	</node>
	<node id="-490649" lat="60.6489694425" lon="5.19593333502">
		<tag k="historic" v="shieling" />
		<tag k="name" v="Høgstølen" />
		<tag k="place" v="locality" />
		<tag k="ssr:stedsnr" v="834346" />
	</node>
	<node id="-490643" lat="60.6416611072" lon="5.17895555116">
		<tag k="name" v="Smørdal" />
		<tag k="place" v="farm" />
		<tag k="ssr:stedsnr" v="834322" />
	</node>
	<node id="-488587" lat="60.5928666687" lon="5.27014721539">
		<tag k="name" v="Sletta" />
		<tag k="place" v="farm" />
		<tag k="ssr:stedsnr" v="165012" />
	</node>
	<node id="-490634" lat="60.7523333341" lon="5.1168194415">
		<tag k="name" v="Gjerdevågshus" />
		<tag k="place" v="farm" />
		<tag k="ssr:stedsnr" v="834252" />
	</node>
	<node id="-488580" lat="60.5707703673" lon="5.23821744573">
		<tag k="fixme" v="consider place=hamlet" />
		<tag k="name" v="Alver" />
		<tag k="place" v="farm" />
		<tag k="ssr:stedsnr" v="146551" />
	</node>
	<node id="-490626" lat="60.7350861072" lon="5.13046388485">
		<tag k="name" v="Saltnes" />
		<tag k="place" v="farm" />
		<tag k="ssr:stedsnr" v="834215" />
	</node>
	<node id="-488575" lat="60.620558329" lon="5.24234721753">
		<tag k="name" v="Li" />
		<tag k="place" v="farm" />
		<tag k="ssr:stedsnr" v="145304" />
	</node>
	<node id="-490622" lat="60.6838611136" lon="5.31347776909">
		<tag k="historic" v="shieling" />
		<tag k="name" v="Austsetra" />
		<tag k="place" v="locality" />
		<tag k="ssr:stedsnr" v="834191" />
	</node>
	<node id="-490617" lat="60.7300749968" lon="5.26659722119">
		<tag k="historic" v="shieling" />
		<tag k="name" v="Stølen" />
		<tag k="place" v="locality" />
		<tag k="ssr:stedsnr" v="834174" />
	</node>
	<node id="-488565" lat="60.7560777766" lon="5.19093610734">
		<tag k="name" v="Fossane" />
		<tag k="place" v="farm" />
		<tag k="ssr:stedsnr" v="130675" />
	</node>
	<node id="-490611" lat="60.7351583346" lon="5.27245277029">
		<tag k="name" v="Sævrås" />
		<tag k="place" v="farm" />
		<tag k="ssr:stedsnr" v="834152" />
	</node>
	<node id="-490609" lat="60.7328083316" lon="5.27294722548">
		<tag k="name" v="Sævrås" />
		<tag k="place" v="farm" />
		<tag k="ssr:stedsnr" v="834145" />
	</node>
	<node id="-490606" lat="60.5686833789" lon="5.2424272997">
		<tag k="alt_name" v="Alver øvre" />
		<tag k="name" v="Øvre Alver" />
		<tag k="place" v="farm" />
		<tag k="ssr:stedsnr" v="834123" />
	</node>
	<node id="-488557" lat="60.7539638924" lon="5.6377083368">
		<tag k="name" v="Nymark" />
		<tag k="place" v="farm" />
		<tag k="ssr:stedsnr" v="130041" />
	</node>
	<node id="-488555" lat="60.7735449398" lon="5.66436206406">
		<tag k="fixme" v="consider place=hamlet" />
		<tag k="name" v="Eiterdalen" />
		<tag k="place" v="farm" />
		<tag k="ssr:stedsnr" v="129447" />
	</node>
	<node id="-488551" lat="60.7412027755" lon="5.10318888933">
		<tag k="name" v="Lyngbø" />
		<tag k="place" v="farm" />
		<tag k="ssr:stedsnr" v="128664" />
	</node>
	<node id="-488549" lat="60.7381037605" lon="5.11911959235">
		<tag k="fixme" v="consider place=hamlet" />
		<tag k="name" v="Syslok" />
		<tag k="place" v="farm" />
		<tag k="ssr:stedsnr" v="128661" />
	</node>
	<node id="-488548" lat="60.7416206717" lon="5.18144506918">
		<tag k="fixme" v="consider place=hamlet" />
		<tag k="name" v="Holmås" />
		<tag k="place" v="farm" />
		<tag k="ssr:stedsnr" v="128656" />
	</node>
	<node id="-487270" lat="60.6934416699" lon="5.40838888435">
		<tag k="name" v="Nesbø" />
		<tag k="place" v="farm" />
		<tag k="ssr:stedsnr" v="287423" />
	</node>
	<node id="-490591" lat="60.5906500012" lon="5.23569444003">
		<tag k="name" v="Håland" />
		<tag k="place" v="farm" />
		<tag k="ssr:stedsnr" v="834016" />
	</node>
	<node id="-490585" lat="60.7030749976" lon="5.54822222182">
		<tag k="name" v="Eikefet" />
		<tag k="place" v="farm" />
		<tag k="ssr:stedsnr" v="833729" />
	</node>
	<node id="-487295" lat="60.7063666649" lon="5.07522499705">
		<tag k="name" v="Kalven" />
		<tag k="place" v="farm" />
		<tag k="ssr:stedsnr" v="287568" />
	</node>
	<node id="-490582" lat="60.7068750022" lon="5.52087221456">
		<tag k="historic" v="shieling" />
		<tag k="name" v="Fitjasetra" />
		<tag k="place" v="locality" />
		<tag k="ssr:stedsnr" v="833714" />
	</node>
	<node id="-488386" lat="60.7007614158" lon="5.32287137694">
		<tag k="fixme" v="consider place=hamlet" />
		<tag k="name" v="Myking" />
		<tag k="place" v="farm" />
		<tag k="ssr:stedsnr" v="105263" />
	</node>
	<node id="-488530" lat="60.6442138886" lon="5.38093611469">
		<tag k="fixme" v="consider place=hamlet" />
		<tag k="name" v="Svindal" />
		<tag k="place" v="farm" />
		<tag k="ssr:stedsnr" v="127230" />
	</node>
	<node id="-488528" lat="60.7081425142" lon="5.21013895803">
		<tag k="fixme" v="consider place=hamlet" />
		<tag k="name" v="Brunnsland" />
		<tag k="place" v="farm" />
		<tag k="ssr:stedsnr" v="127200" />
	</node>
	<node id="-488527" lat="60.6996805566" lon="5.24589999174">
		<tag k="alt_name" v="Skodven, øvre" />
		<tag k="name" v="Øvre Skodven" />
		<tag k="place" v="farm" />
		<tag k="ssr:stedsnr" v="127184" />
	</node>
	<node id="-488526" lat="60.6966951862" lon="5.20376727411">
		<tag k="alt_name" v="Træland" />
		<tag k="fixme" v="consider place=hamlet" />
		<tag k="name" v="Trælland" />
		<tag k="place" v="farm" />
		<tag k="ssr:stedsnr" v="127182" />
	</node>
	<node id="-488524" lat="60.6997998983" lon="5.57558337741">
		<tag k="fixme" v="consider place=hamlet" />
		<tag k="name" v="Viko" />
		<tag k="place" v="farm" />
		<tag k="ssr:stedsnr" v="127280" />
	</node>
	<node id="-490571" lat="60.7117666699" lon="5.21435554843">
		<tag k="name" v="Gaulen" />
		<tag k="place" v="farm" />
		<tag k="ssr:stedsnr" v="833295" />
	</node>
	<node id="-490570" lat="60.5961222235" lon="5.35965277192">
		<tag k="name" v="Hjelmås" />
		<tag k="place" v="farm" />
		<tag k="ssr:stedsnr" v="833278" />
	</node>
	<node id="-487499" lat="60.7571611125" lon="5.12676945246">
		<tag k="name" v="Rossnes" />
		<tag k="place" v="farm" />
		<tag k="ssr:stedsnr" v="348193" />
	</node>
	<node id="-488520" lat="60.6732332394" lon="5.2500986481">
		<tag k="fixme" v="consider place=hamlet" />
		<tag k="name" v="Grimstad" />
		<tag k="place" v="farm" />
		<tag k="ssr:stedsnr" v="127254" />
	</node>
	<node id="-488519" lat="60.6821559881" lon="5.3928394793">
		<tag k="alt_name" v="Hølleland" />
		<tag k="fixme" v="consider place=hamlet" />
		<tag k="name" v="Hølland" />
		<tag k="place" v="farm" />
		<tag k="ssr:stedsnr" v="127150" />
	</node>
	<node id="-490566" lat="60.6444111148" lon="5.23615278322">
		<tag k="name" v="Neset" />
		<tag k="place" v="farm" />
		<tag k="ssr:stedsnr" v="833046" />
	</node>
	<node id="-488516" lat="60.5806998463" lon="5.24743623363">
		<tag k="fixme" v="consider place=hamlet" />
		<tag k="name" v="Erstad" />
		<tag k="place" v="farm" />
		<tag k="ssr:stedsnr" v="127113" />
	</node>
	<node id="-488515" lat="60.5954684029" lon="5.35985494598">
		<tag k="fixme" v="consider place=hamlet" />
		<tag k="name" v="Hjelmåsen" />
		<tag k="place" v="farm" />
		<tag k="ssr:stedsnr" v="127106" />
	</node>
	<node id="-488513" lat="60.6049120749" lon="5.29143161273">
		<tag k="alt_name" v="Vatne" />
		<tag k="fixme" v="consider place=hamlet" />
		<tag k="name" v="Votno" />
		<tag k="place" v="farm" />
		<tag k="ssr:stedsnr" v="127031" />
	</node>
	<node id="-488512" lat="60.6051363806" lon="5.35321680355">
		<tag k="alt_name" v="Fyllingen" />
		<tag k="fixme" v="consider place=hamlet" />
		<tag k="name" v="Fylingen" />
		<tag k="place" v="farm" />
		<tag k="ssr:stedsnr" v="127030" />
	</node>
	<node id="-488510" lat="60.6180891998" lon="5.34265610171">
		<tag k="fixme" v="consider place=hamlet" />
		<tag k="name" v="Hakset" />
		<tag k="place" v="farm" />
		<tag k="ssr:stedsnr" v="127010" />
	</node>
	<node id="-487635" lat="60.7125892456" lon="5.12513009401">
		<tag k="fixme" v="consider place=hamlet" />
		<tag k="name" v="Kvalvågneset" />
		<tag k="place" v="farm" />
		<tag k="ssr:stedsnr" v="370653" />
	</node>
	<node id="-488506" lat="60.7533416695" lon="5.06628333106">
		<tag k="name" v="Rissundet" />
		<tag k="place" v="quarter" />
		<tag k="ssr:stedsnr" v="117788" />
	</node>
	<node id="-488498" lat="60.7738805584" lon="5.66468333953">
		<tag k="name" v="Eiterdalen" />
		<tag k="place" v="farm" />
		<tag k="ssr:stedsnr" v="106913" />
	</node>
	<node id="-488497" lat="60.7630694413" lon="5.57226944728">
		<tag k="name" v="Bjørn West-hytta" />
		<tag k="place" v="isolated_dwelling" />
		<tag k="ssr:stedsnr" v="106863" />
	</node>
	<node id="-490530" lat="60.7861474143" lon="5.00881053184">
		<tag k="alt_name" v="Indra Keila" />
		<tag k="fixme" v="consider place=hamlet" />
		<tag k="name" v="Keila" />
		<tag k="place" v="farm" />
		<tag k="ssr:stedsnr" v="797227" />
	</node>
	<node id="-490521" lat="60.6335694408" lon="5.4917305529">
		<tag k="alt_name" v="Bjørsviki" />
		<tag k="fixme" v="consider place=hamlet" />
		<tag k="name" v="Bjørsvik" />
		<tag k="place" v="village" />
		<tag k="ssr:stedsnr" v="795692" />
	</node>
	<node id="-490519" lat="60.7428250006" lon="5.59404444257">
		<tag k="historic" v="shieling" />
		<tag k="name" v="Vetle-Aurdalssætra" />
		<tag k="place" v="locality" />
		<tag k="ssr:stedsnr" v="795518" />
	</node>
	<node id="-488470" lat="60.6689333294" lon="5.15148889759">
		<tag k="name" v="Skotsund" />
		<tag k="place" v="farm" />
		<tag k="ssr:stedsnr" v="106347" />
	</node>
	<node id="-490510" lat="60.6494250011" lon="5.15201111198">
		<tag k="fixme" v="consider place=hamlet" />
		<tag k="name" v="Haukås" />
		<tag k="place" v="farm" />
		<tag k="ssr:stedsnr" v="795273" />
	</node>
	<node id="-490508" lat="60.6597565773" lon="5.11575023349">
		<tag k="fixme" v="consider place=hamlet" />
		<tag k="name" v="Bruknappen" />
		<tag k="place" v="farm" />
		<tag k="ssr:stedsnr" v="795263" />
	</node>
	<node id="-490506" lat="60.6538595479" lon="5.44030710271">
		<tag k="alt_name" v="Toft" />
		<tag k="fixme" v="consider place=hamlet" />
		<tag k="name" v="Tofto" />
		<tag k="place" v="farm" />
		<tag k="ssr:stedsnr" v="795253" />
	</node>
	<node id="-490505" lat="60.6533499958" lon="5.32370000902">
		<tag k="fixme" v="consider place=hamlet" />
		<tag k="name" v="Grovi" />
		<tag k="place" v="farm" />
		<tag k="ssr:stedsnr" v="795247" />
	</node>
	<node id="-490504" lat="60.6510875857" lon="5.3412551115">
		<tag k="fixme" v="consider place=hamlet" />
		<tag k="name" v="Fammestad" />
		<tag k="place" v="farm" />
		<tag k="ssr:stedsnr" v="795241" />
	</node>
	<node id="-490500" lat="60.6581055548" lon="5.32209444947">
		<tag k="name" v="Opptun" />
		<tag k="place" v="farm" />
		<tag k="ssr:stedsnr" v="795230" />
	</node>
	<node id="-490499" lat="60.6455419023" lon="5.20205397382">
		<tag k="fixme" v="consider place=hamlet" />
		<tag k="name" v="Litloksa" />
		<tag k="place" v="farm" />
		<tag k="ssr:stedsnr" v="795228" />
	</node>
	<node id="-488447" lat="60.6994972259" lon="5.56298611789">
		<tag k="name" v="Store-Urdal" />
		<tag k="place" v="farm" />
		<tag k="ssr:stedsnr" v="105731" />
	</node>
	<node id="-490494" lat="60.7060060456" lon="5.16725375233">
		<tag k="fixme" v="consider place=hamlet" />
		<tag k="name" v="Ones" />
		<tag k="place" v="farm" />
		<tag k="ssr:stedsnr" v="795192" />
	</node>
	<node id="-488444" lat="60.6858444458" lon="5.46126110335">
		<tag k="historic" v="shieling" />
		<tag k="name" v="Auststølen" />
		<tag k="place" v="locality" />
		<tag k="ssr:stedsnr" v="105616" />
	</node>
	<node id="-490491" lat="60.6954727472" lon="5.26380698781">
		<tag k="name" v="Fjellsbø" />
		<tag k="place" v="hamlet" />
		<tag k="ssr:stedsnr" v="795169" />
	</node>
	<node id="-490490" lat="60.577836115" lon="5.21878054752">
		<tag k="name" v="Alverstraumen" />
		<tag k="place" v="hamlet" />
		<tag k="ssr:stedsnr" v="795159" />
	</node>
	<node id="-490489" lat="60.5872551054" lon="5.34287380621">
		<tag k="fixme" v="consider place=hamlet" />
		<tag k="name" v="Hodnesdal" />
		<tag k="place" v="farm" />
		<tag k="ssr:stedsnr" v="795149" />
	</node>
	<node id="-490486" lat="60.6347405454" lon="5.36080894334">
		<tag k="fixme" v="consider place=hamlet" />
		<tag k="name" v="Høyland" />
		<tag k="place" v="farm" />
		<tag k="ssr:stedsnr" v="795082" />
	</node>
	<node id="-490485" lat="60.6347476356" lon="5.33959043867">
		<tag k="fixme" v="consider place=hamlet" />
		<tag k="name" v="Hegertveit" />
		<tag k="place" v="farm" />
		<tag k="ssr:stedsnr" v="795078" />
	</node>
	<node id="-490484" lat="60.6329249021" lon="5.46120710705">
		<tag k="alt_name" v="Eidatrædet;Eidetræ" />
		<tag k="name" v="Eidatræet" />
		<tag k="place" v="farm" />
		<tag k="ssr:stedsnr" v="795073" />
	</node>
	<node id="-490483" lat="60.6315246825" lon="5.25107493343">
		<tag k="fixme" v="consider place=hamlet" />
		<tag k="name" v="Skor" />
		<tag k="place" v="farm" />
		<tag k="ssr:stedsnr" v="795071" />
	</node>
	<node id="-490482" lat="60.640941878" lon="5.46439303613">
		<tag k="alt_name" v="Kvamme" />
		<tag k="fixme" v="consider place=hamlet" />
		<tag k="name" v="Kvommo" />
		<tag k="place" v="farm" />
		<tag k="ssr:stedsnr" v="795053" />
	</node>
	<node id="-488432" lat="60.6988443536" lon="5.58593812355">
		<tag k="name" v="Vikanes" />
		<tag k="place" v="village" />
		<tag k="ssr:stedsnr" v="105526" />
	</node>
	<node id="-490478" lat="60.578702775" lon="5.21447777745">
		<tag k="name" v="Alverstraumen" />
		<tag k="place" v="quarter" />
		<tag k="ssr:stedsnr" v="784778" />
	</node>
	<node id="-488429" lat="60.7432361136" lon="5.08201943628">
		<tag k="name" v="Finnesbø" />
		<tag k="place" v="farm" />
		<tag k="ssr:stedsnr" v="105506" />
	</node>
	<node id="-488428" lat="60.6682333331" lon="5.41354444346">
		<tag k="name" v="Nedreås" />
		<tag k="place" v="farm" />
		<tag k="ssr:stedsnr" v="105493" />
	</node>
	<node id="-488419" lat="60.6506000009" lon="5.14939999122">
		<tag k="name" v="Haukås" />
		<tag k="place" v="farm" />
		<tag k="ssr:stedsnr" v="105405" />
	</node>
	<node id="-490459" lat="60.7957305539" lon="5.64124445031">
		<tag k="name" v="Stranda" />
		<tag k="place" v="farm" />
		<tag k="ssr:stedsnr" v="773853" />
	</node>
	<node id="-488410" lat="60.5690527752" lon="5.35650833747">
		<tag k="alt_name" v="Mundal øvre" />
		<tag k="name" v="Øvre Mundal" />
		<tag k="place" v="farm" />
		<tag k="ssr:stedsnr" v="105371" />
	</node>
	<node id="-490455" lat="60.7742583294" lon="5.52933333743">
		<tag k="historic" v="shieling" />
		<tag k="name" v="Steinsedalssetra" />
		<tag k="place" v="locality" />
		<tag k="ssr:stedsnr" v="773821" />
	</node>
	<node id="-488406" lat="60.6146638918" lon="5.37554166138">
		<tag k="name" v="Eikevoll" />
		<tag k="place" v="farm" />
		<tag k="ssr:stedsnr" v="105346" />
	</node>
	<node id="-488400" lat="60.5902638916" lon="5.39247222153">
		<tag k="fixme" v="consider place=hamlet" />
		<tag k="name" v="Fyllingsnes" />
		<tag k="place" v="farm" />
		<tag k="ssr:stedsnr" v="105319" />
	</node>
	<node id="-488396" lat="60.5873138849" lon="5.35253889147">
		<tag k="name" v="Teviki" />
		<tag k="place" v="farm" />
		<tag k="ssr:stedsnr" v="105306" />
	</node>
	<node id="-490438" lat="60.6823222259" lon="5.46243054634">
		<tag k="historic" v="shieling" />
		<tag k="name" v="Dyrdalssetra" />
		<tag k="place" v="locality" />
		<tag k="ssr:stedsnr" v="773590" />
	</node>
	<node id="-490436" lat="60.6884777808" lon="5.45012222664">
		<tag k="name" v="Dyrdal" />
		<tag k="place" v="farm" />
		<tag k="ssr:stedsnr" v="773581" />
	</node>
	<node id="-490434" lat="60.6713638911" lon="5.37554166303">
		<tag k="name" v="Hindenes" />
		<tag k="place" v="farm" />
		<tag k="ssr:stedsnr" v="773569" />
	</node>
	<node id="-488385" lat="60.6926694471" lon="5.30208055862">
		<tag k="name" v="Smørdal" />
		<tag k="place" v="farm" />
		<tag k="ssr:stedsnr" v="105262" />
	</node>
	<node id="-490432" lat="60.6897249963" lon="5.372319452">
		<tag k="name" v="Storvik" />
		<tag k="place" v="farm" />
		<tag k="ssr:stedsnr" v="773567" />
	</node>
	<node id="-490430" lat="60.6313194417" lon="5.55672499962">
		<tag k="name" v="Molvik" />
		<tag k="place" v="farm" />
		<tag k="ssr:stedsnr" v="773549" />
	</node>
	<node id="-490429" lat="60.6343749995" lon="5.55973888417">
		<tag k="historic" v="shieling" />
		<tag k="name" v="Øvrestølen" />
		<tag k="place" v="locality" />
		<tag k="ssr:stedsnr" v="773547" />
	</node>
	<node id="-487924" lat="60.6252666698" lon="5.481277784">
		<tag k="fixme" v="consider place=hamlet" />
		<tag k="name" v="Indre Eide" />
		<tag k="place" v="farm" />
		<tag k="ssr:stedsnr" v="894641" />
	</node>
	<node id="-490421" lat="60.6920833351" lon="5.11182777032">
		<tag k="alt_name" v="Lygren ytre" />
		<tag k="name" v="Ytre Lygren" />
		<tag k="place" v="farm" />
		<tag k="ssr:stedsnr" v="773510" />
	</node>
	<node id="-488366" lat="60.6562500006" lon="5.17242499298">
		<tag k="name" v="Bergås" />
		<tag k="place" v="farm" />
		<tag k="ssr:stedsnr" v="105140" />
	</node>
	<node id="-488360" lat="60.6699861101" lon="5.33551111363">
		<tag k="name" v="Myr" />
		<tag k="place" v="farm" />
		<tag k="ssr:stedsnr" v="105107" />
	</node>
	<node id="-490406" lat="60.6281277799" lon="5.41810000374">
		<tag k="name" v="Eidsheim" />
		<tag k="place" v="farm" />
		<tag k="ssr:stedsnr" v="773435" />
	</node>
	<node id="-488349" lat="60.5889916673" lon="5.28753888385">
		<tag k="historic" v="shieling" />
		<tag k="name" v="Slåstølen" />
		<tag k="place" v="locality" />
		<tag k="ssr:stedsnr" v="105033" />
	</node>
	<node id="-490392" lat="60.5800111137" lon="5.35558889067">
		<tag k="historic" v="shieling" />
		<tag k="name" v="Eikestølen" />
		<tag k="place" v="locality" />
		<tag k="ssr:stedsnr" v="773349" />
	</node>
	<node id="-487236" lat="60.6717861113" lon="5.25004445088">
		<tag k="name" v="Søre Grimstad" />
		<tag k="place" v="farm" />
		<tag k="ssr:stedsnr" v="287229" />
	</node>
	<node id="-490388" lat="60.6279805578" lon="5.21091944685">
		<tag k="name" v="Skare" />
		<tag k="place" v="farm" />
		<tag k="ssr:stedsnr" v="773330" />
	</node>
	<node id="-488337" lat="60.6647472205" lon="5.38400556388">
		<tag k="alt_name" v="Hindenes indre" />
		<tag k="name" v="Indre Hindenes" />
		<tag k="place" v="farm" />
		<tag k="ssr:stedsnr" v="104071" />
	</node>
	<node id="-488336" lat="60.6765560266" lon="5.40735659283">
		<tag k="fixme" v="consider place=hamlet" />
		<tag k="name" v="Veland" />
		<tag k="place" v="farm" />
		<tag k="ssr:stedsnr" v="104070" />
	</node>
	<node id="-488320" lat="60.7610681001" lon="5.0693857131">
		<tag k="fixme" v="consider place=hamlet" />
		<tag k="name" v="Risa" />
		<tag k="place" v="farm" />
		<tag k="ssr:stedsnr" v="69192" />
	</node>
	<node id="-490366" lat="60.6773250013" lon="5.29890277685">
		<tag k="historic" v="shieling" />
		<tag k="name" v="Tveitasetra" />
		<tag k="place" v="locality" />
		<tag k="ssr:stedsnr" v="773190" />
	</node>
	<node id="-488311" lat="60.7429638907" lon="5.15564444067">
		<tag k="fixme" v="consider place=suburb, village or hamlet" />
		<tag k="name" v="Kolås" />
		<tag k="place" v="quarter" />
		<tag k="ssr:stedsnr" v="67694" />
	</node>
	<node id="-490357" lat="60.5870833358" lon="5.29988055059">
		<tag k="alt_name" v="Kopperdal Søre" />
		<tag k="fixme" v="consider place=hamlet" />
		<tag k="name" v="Søre Kopperdal" />
		<tag k="place" v="farm" />
		<tag k="ssr:stedsnr" v="773143" />
	</node>
	<node id="-490356" lat="60.5835666629" lon="5.34911389035">
		<tag k="name" v="Hodnesdal" />
		<tag k="place" v="farm" />
		<tag k="ssr:stedsnr" v="773141" />
	</node>
	<node id="-488304" lat="60.5600257" lon="5.31818825083">
		<tag k="alt_name" v="Grøttveit" />
		<tag k="fixme" v="consider place=hamlet" />
		<tag k="name" v="Grottveit" />
		<tag k="place" v="farm" />
		<tag k="ssr:stedsnr" v="67456" />
	</node>
	<node id="-490351" lat="60.5709500014" lon="5.23494721771">
		<tag k="name" v="Alversund" />
		<tag k="place" v="hamlet" />
		<tag k="ssr:stedsnr" v="773117" />
	</node>
	<node id="-490349" lat="60.6916583356" lon="5.11620555361">
		<tag k="name" v="Lygra" />
		<tag k="place" v="farm" />
		<tag k="ssr:stedsnr" v="773111" />
	</node>
	<node id="-488298" lat="60.7004833332" lon="5.5966944472">
		<tag k="name" v="Vikasund" />
		<tag k="place" v="farm" />
		<tag k="ssr:stedsnr" v="67288" />
	</node>
	<node id="-488296" lat="60.6649266408" lon="5.38627861771">
		<tag k="alt_name" v="Hindnes, in" />
		<tag k="fixme" v="consider place=hamlet" />
		<tag k="name" v="Indre Hindnes" />
		<tag k="place" v="farm" />
		<tag k="ssr:stedsnr" v="67265" />
	</node>
	<node id="-490342" lat="60.6229472251" lon="5.2376805621">
		<tag k="name" v="Nordre Li" />
		<tag k="place" v="farm" />
		<tag k="ssr:stedsnr" v="773056" />
	</node>
	<node id="-490341" lat="60.6139722253" lon="5.27420277057">
		<tag k="name" v="Seim" />
		<tag k="place" v="farm" />
		<tag k="ssr:stedsnr" v="773040" />
	</node>
	<node id="-488290" lat="60.5657527816" lon="5.36510555928">
		<tag k="name" v="Munndalsstøi" />
		<tag k="place" v="farm" />
		<tag k="ssr:stedsnr" v="67096" />
	</node>
	<node id="-488289" lat="60.6363778901" lon="5.44365833472">
		<tag k="fixme" v="consider place=hamlet" />
		<tag k="name" v="Heltveit" />
		<tag k="place" v="farm" />
		<tag k="ssr:stedsnr" v="67069" />
	</node>
	<node id="-488288" lat="60.6305441235" lon="5.21555647584">
		<tag k="fixme" v="consider place=hamlet" />
		<tag k="name" v="Bøkevoll" />
		<tag k="place" v="farm" />
		<tag k="ssr:stedsnr" v="67060" />
	</node>
	<node id="-488787" lat="60.6715874453" lon="5.27552377434">
		<tag k="fixme" v="consider place=hamlet" />
		<tag k="name" v="Vik" />
		<tag k="place" v="farm" />
		<tag k="ssr:stedsnr" v="188260" />
	</node>
	<node id="-488283" lat="60.6879930796" lon="5.41239523574">
		<tag k="fixme" v="consider place=hamlet" />
		<tag k="name" v="Gjelsvika" />
		<tag k="old_name" v="Gjelsviki" />
		<tag k="place" v="farm" />
		<tag k="ssr:stedsnr" v="67160" />
	</node>
	<node id="-488281" lat="60.5982612412" lon="5.32914847282">
		<tag k="alt_name" v="Sjurseter" />
		<tag k="fixme" v="consider place=hamlet" />
		<tag k="name" v="Sjauset" />
		<tag k="place" v="farm" />
		<tag k="ssr:stedsnr" v="67040" />
	</node>
	<node id="-488277" lat="60.7374477094" lon="5.5350432931">
		<tag k="fixme" v="consider place=hamlet" />
		<tag k="name" v="Fjellet" />
		<tag k="place" v="farm" />
		<tag k="ssr:stedsnr" v="66419" />
	</node>
	<node id="-488276" lat="60.68653333" lon="5.59871944093">
		<tag k="name" v="Liabakken" />
		<tag k="place" v="farm" />
		<tag k="ssr:stedsnr" v="66342" />
	</node>
	<node id="-490321" lat="60.5740138919" lon="5.22072222254">
		<tag k="fixme" v="consider place=hamlet" />
		<tag k="name" v="Hilland" />
		<tag k="place" v="farm" />
		<tag k="ssr:stedsnr" v="772422" />
	</node>
	<node id="-488271" lat="60.5535083303" lon="5.27843333764">
		<tag k="name" v="Juvikstølen" />
		<tag k="place" v="quarter" />
		<tag k="ssr:stedsnr" v="56789" />
	</node>
	<node id="-490313" lat="60.7008944401" lon="5.1652444417">
		<tag k="name" v="Kvalvåg" />
		<tag k="place" v="farm" />
		<tag k="ssr:stedsnr" v="772318" />
	</node>
	<node id="-490311" lat="60.6953972244" lon="5.20431111725">
		<tag k="name" v="Træland" />
		<tag k="place" v="farm" />
		<tag k="ssr:stedsnr" v="772312" />
	</node>
	<node id="-487905" lat="60.6651611151" lon="5.42189443526">
		<tag k="name" v="Rød" />
		<tag k="place" v="farm" />
		<tag k="ssr:stedsnr" v="894528" />
	</node>
	<node id="-488256" lat="60.7710833366" lon="5.53309443808">
		<tag k="historic" v="shieling" />
		<tag k="name" v="Torsheimsetra" />
		<tag k="place" v="locality" />
		<tag k="ssr:stedsnr" v="45835" />
	</node>
	<node id="-490295" lat="60.6671472267" lon="5.34195278221">
		<tag k="name" v="Hauge" />
		<tag k="place" v="farm" />
		<tag k="ssr:stedsnr" v="772082" />
	</node>
	<node id="-488242" lat="60.7394750024" lon="5.63537499535">
		<tag k="name" v="Nordli" />
		<tag k="place" v="farm" />
		<tag k="ssr:stedsnr" v="45754" />
	</node>
	<node id="-490289" lat="60.7106658579" lon="5.18866754875">
		<tag k="fixme" v="consider place=hamlet" />
		<tag k="name" v="Marås" />
		<tag k="place" v="farm" />
		<tag k="ssr:stedsnr" v="753856" />
	</node>
	<node id="-490280" lat="60.7577472187" lon="5.06140832668">
		<tag k="fixme" v="consider place=suburb, village or hamlet" />
		<tag k="name" v="Risasjøen" />
		<tag k="place" v="quarter" />
		<tag k="ssr:stedsnr" v="737166" />
	</node>
	<node id="-488228" lat="60.7522583297" lon="5.49354999489">
		<tag k="historic" v="shieling" />
		<tag k="name" v="Gamlesetra" />
		<tag k="place" v="locality" />
		<tag k="ssr:stedsnr" v="45608" />
	</node>
	<node id="-488223" lat="60.667094443" lon="5.49655000377">
		<tag k="historic" v="shieling" />
		<tag k="name" v="Andåssetra" />
		<tag k="place" v="locality" />
		<tag k="ssr:stedsnr" v="45575" />
	</node>
	<node id="-490257" lat="60.6653764305" lon="5.17552465687">
		<tag k="alt_name" v="Tofting" />
		<tag k="fixme" v="consider place=hamlet" />
		<tag k="name" v="Toptingi" />
		<tag k="place" v="farm" />
		<tag k="ssr:stedsnr" v="734270" />
	</node>
	<node id="-490256" lat="60.6709611127" lon="5.33401666987">
		<tag k="alt_name" v="Myri" />
		<tag k="fixme" v="consider place=hamlet" />
		<tag k="name" v="Myr" />
		<tag k="place" v="farm" />
		<tag k="ssr:stedsnr" v="734256" />
	</node>
	<node id="-490255" lat="60.6478666625" lon="5.33027500944">
		<tag k="name" v="Trædet" />
		<tag k="place" v="farm" />
		<tag k="ssr:stedsnr" v="734240" />
	</node>
	<node id="-490253" lat="60.7068093682" lon="5.27299421271">
		<tag k="fixme" v="consider place=hamlet" />
		<tag k="name" v="Sletten" />
		<tag k="place" v="farm" />
		<tag k="ssr:stedsnr" v="734209" />
	</node>
	<node id="-490252" lat="60.710088341" lon="5.22525377288">
		<tag k="fixme" v="consider place=hamlet" />
		<tag k="name" v="Løtveit" />
		<tag k="place" v="farm" />
		<tag k="ssr:stedsnr" v="734205" />
	</node>
	<node id="-490251" lat="60.7145805517" lon="5.28259443914">
		<tag k="name" v="Uglåsen" />
		<tag k="place" v="farm" />
		<tag k="ssr:stedsnr" v="734200" />
	</node>
	<node id="-488201" lat="60.6332250024" lon="5.21927221454">
		<tag k="name" v="Monstad" />
		<tag k="place" v="farm" />
		<tag k="ssr:stedsnr" v="45322" />
	</node>
	<node id="-488199" lat="60.7485315773" lon="5.15828757318">
		<tag k="fixme" v="consider place=hamlet" />
		<tag k="name" v="Kolås" />
		<tag k="place" v="farm" />
		<tag k="ssr:stedsnr" v="45241" />
	</node>
	<node id="-488198" lat="60.7411166699" lon="5.16529999651">
		<tag k="name" v="Åtun" />
		<tag k="place" v="farm" />
		<tag k="ssr:stedsnr" v="45240" />
	</node>
	<node id="-490245" lat="60.5787777743" lon="5.33983888132">
		<tag k="fixme" v="consider place=hamlet" />
		<tag k="name" v="Hopsdal" />
		<tag k="place" v="farm" />
		<tag k="ssr:stedsnr" v="734072" />
	</node>
	<node id="-490240" lat="60.6183027821" lon="5.25281111405">
		<tag k="name" v="Gardviki" />
		<tag k="place" v="farm" />
		<tag k="ssr:stedsnr" v="734060" />
	</node>
	<node id="-490239" lat="60.6335378535" lon="5.32717721893">
		<tag k="fixme" v="consider place=hamlet" />
		<tag k="name" v="Kallsås" />
		<tag k="place" v="farm" />
		<tag k="ssr:stedsnr" v="734045" />
	</node>
	<node id="-490238" lat="60.5999694956" lon="5.28413490694">
		<tag k="fixme" v="consider place=hamlet" />
		<tag k="name" v="Herland" />
		<tag k="place" v="farm" />
		<tag k="ssr:stedsnr" v="734031" />
	</node>
	<node id="-490237" lat="60.614161109" lon="5.36243333246">
		<tag k="name" v="Stykket" />
		<tag k="place" v="farm" />
		<tag k="ssr:stedsnr" v="734028" />
	</node>
	<node id="-490236" lat="60.6175210923" lon="5.38051903618">
		<tag k="fixme" v="consider place=hamlet" />
		<tag k="name" v="Li" />
		<tag k="place" v="farm" />
		<tag k="ssr:stedsnr" v="734027" />
	</node>
	<node id="-490235" lat="60.6222418995" lon="5.42102718122">
		<tag k="fixme" v="consider place=hamlet" />
		<tag k="loc_name" v="Vessel" />
		<tag k="name" v="Vassel" />
		<tag k="place" v="farm" />
		<tag k="ssr:stedsnr" v="734005" />
	</node>
	<node id="-488184" lat="60.7141222241" lon="5.0521833417">
		<tag k="name" v="Kalven" />
		<tag k="place" v="farm" />
		<tag k="ssr:stedsnr" v="45106" />
	</node>
	<node id="-488179" lat="60.6860250039" lon="5.32516389345">
		<tag k="name" v="Bjørnevoll" />
		<tag k="place" v="farm" />
		<tag k="ssr:stedsnr" v="45172" />
	</node>
	<node id="-490226" lat="60.7355722219" lon="5.63775277">
		<tag k="name" v="Træi" />
		<tag k="place" v="farm" />
		<tag k="ssr:stedsnr" v="712956" />
	</node>
	<node id="-488176" lat="60.7350722201" lon="5.64191388831">
		<tag k="name" v="Trædi" />
		<tag k="place" v="farm" />
		<tag k="ssr:stedsnr" v="44984" />
	</node>
	<node id="-488165" lat="60.6464472202" lon="5.34818334031">
		<tag k="name" v="Husebø" />
		<tag k="place" v="farm" />
		<tag k="ssr:stedsnr" v="45015" />
	</node>
	<node id="-488161" lat="60.7113000016" lon="5.53921945221">
		<tag k="name" v="Eikemo" />
		<tag k="place" v="farm" />
		<tag k="ssr:stedsnr" v="44704" />
	</node>
	<node id="-490203" lat="60.7548499993" lon="5.49156388736">
		<tag k="historic" v="shieling" />
		<tag k="name" v="Norddalssetra" />
		<tag k="place" v="locality" />
		<tag k="ssr:stedsnr" v="712620" />
	</node>
	<node id="-490200" lat="60.6837027768" lon="5.5576750052">
		<tag k="historic" v="shieling" />
		<tag k="name" v="Haukøysetra" />
		<tag k="place" v="locality" />
		<tag k="ssr:stedsnr" v="712604" />
	</node>
	<node id="-490199" lat="60.6232777766" lon="5.47852222648">
		<tag k="fixme" v="consider place=hamlet" />
		<tag k="name" v="Ostereidet" />
		<tag k="place" v="village" />
		<tag k="ssr:stedsnr" v="712590" />
	</node>
	<node id="-490193" lat="60.6743277771" lon="5.10512500031">
		<tag k="name" v="Hovden" />
		<tag k="place" v="farm" />
		<tag k="ssr:stedsnr" v="712531" />
	</node>
	<node id="-488714" lat="60.7601611131" lon="5.07001666629">
		<tag k="name" v="Risa" />
		<tag k="place" v="farm" />
		<tag k="ssr:stedsnr" v="166420" />
	</node>
	<node id="-488137" lat="60.6093138896" lon="5.38256944414">
		<tag k="historic" v="shieling" />
		<tag k="name" v="Litlestølen" />
		<tag k="place" v="locality" />
		<tag k="ssr:stedsnr" v="44311" />
	</node>
	<node id="-487201" lat="60.6975250012" lon="5.26330556299">
		<tag k="name" v="Nordre Fjellsbø" />
		<tag k="place" v="farm" />
		<tag k="ssr:stedsnr" v="287027" />
	</node>
	<node id="-488131" lat="60.5877055571" lon="5.36057221654">
		<tag k="name" v="Apalen" />
		<tag k="place" v="farm" />
		<tag k="ssr:stedsnr" v="44281" />
	</node>
	<node id="-490172" lat="60.6290583342" lon="5.37371667255">
		<tag k="name" v="Høyland" />
		<tag k="place" v="farm" />
		<tag k="ssr:stedsnr" v="712421" />
	</node>
	<node id="-488123" lat="60.5866250028" lon="5.23109166805">
		<tag k="name" v="Kvamsvåg" />
		<tag k="place" v="hamlet" />
		<tag k="ssr:stedsnr" v="44223" />
	</node>
	<node id="-490167" lat="60.6487527768" lon="5.44685833804">
		<tag k="name" v="Toft" />
		<tag k="place" v="farm" />
		<tag k="ssr:stedsnr" v="712399" />
	</node>
	<node id="-490165" lat="60.5878807362" lon="5.22968595573">
		<tag k="fixme" v="consider place=hamlet" />
		<tag k="name" v="Furhovden" />
		<tag k="place" v="farm" />
		<tag k="ssr:stedsnr" v="712349" />
	</node>
	<node id="-488116" lat="60.5759916686" lon="5.28684443757">
		<tag k="name" v="Åse" />
		<tag k="place" v="farm" />
		<tag k="ssr:stedsnr" v="44166" />
	</node>
	<node id="-490162" lat="60.6597083367" lon="5.13321110861">
		<tag k="alt_name" v="Feste Nordre" />
		<tag k="name" v="Nordre Feste" />
		<tag k="place" v="farm" />
		<tag k="ssr:stedsnr" v="712342" />
	</node>
	<node id="-488107" lat="60.6600083306" lon="5.24336944614">
		<tag k="historic" v="shieling" />
		<tag k="name" v="Setre" />
		<tag k="place" v="locality" />
		<tag k="ssr:stedsnr" v="44135" />
	</node>
	<node id="-488104" lat="60.5776638882" lon="5.24792778521">
		<tag k="name" v="Erstad" />
		<tag k="place" v="farm" />
		<tag k="ssr:stedsnr" v="44117" />
	</node>
	<node id="-488099" lat="60.5601777768" lon="5.31730833247">
		<tag k="name" v="Grøttveit" />
		<tag k="place" v="farm" />
		<tag k="ssr:stedsnr" v="44106" />
	</node>
	<node id="-488098" lat="60.5557166695" lon="5.30474722232">
		<tag k="name" v="Gjervik" />
		<tag k="place" v="farm" />
		<tag k="ssr:stedsnr" v="44100" />
	</node>
	<node id="-490142" lat="60.6747499981" lon="5.24753332498">
		<tag k="name" v="Nordre Grimstad" />
		<tag k="place" v="farm" />
		<tag k="ssr:stedsnr" v="712184" />
	</node>
	<node id="-488093" lat="60.6081222184" lon="5.32165556243">
		<tag k="name" v="Halsteindal" />
		<tag k="place" v="farm" />
		<tag k="ssr:stedsnr" v="44064" />
	</node>
	<node id="-488089" lat="60.6116972185" lon="5.24602223145">
		<tag k="name" v="Otterås" />
		<tag k="place" v="farm" />
		<tag k="ssr:stedsnr" v="44051" />
	</node>
	<node id="-488303" lat="60.6902833337" lon="5.58708888269">
		<tag k="name" v="Hatlehaug" />
		<tag k="place" v="farm" />
		<tag k="ssr:stedsnr" v="67390" />
	</node>
	<node id="-490133" lat="60.7600777801" lon="5.17983055023">
		<tag k="alt_name" v="Fanebustsjøen" />
		<tag k="name" v="Fonnebostsjøen" />
		<tag k="place" v="hamlet" />
		<tag k="ssr:stedsnr" v="712143" />
	</node>
	<node id="-488084" lat="60.6360805523" lon="5.24694166747">
		<tag k="name" v="Spurkeland" />
		<tag k="place" v="farm" />
		<tag k="ssr:stedsnr" v="44047" />
	</node>
	<node id="-490129" lat="60.6118277732" lon="5.38321943873">
		<tag k="alt_name" v="Eikanger nedre" />
		<tag k="name" v="Nedre Eikanger" />
		<tag k="place" v="farm" />
		<tag k="ssr:stedsnr" v="712130" />
	</node>
	<node id="-488080" lat="60.5905277807" lon="5.34892499163">
		<tag k="name" v="Haukås" />
		<tag k="place" v="farm" />
		<tag k="ssr:stedsnr" v="44011" />
	</node>
	<node id="-490122" lat="60.5571333315" lon="5.29897222243">
		<tag k="historic" v="shieling" />
		<tag k="name" v="Stølen" />
		<tag k="place" v="locality" />
		<tag k="ssr:stedsnr" v="712098" />
	</node>
	<node id="-490121" lat="60.5598694473" lon="5.32567777769">
		<tag k="name" v="Øyjord" />
		<tag k="place" v="farm" />
		<tag k="ssr:stedsnr" v="712095" />
	</node>
	<node id="-490109" lat="60.6168861132" lon="5.34356943554">
		<tag k="historic" v="shieling" />
		<tag k="name" v="Hageseter" />
		<tag k="place" v="locality" />
		<tag k="ssr:stedsnr" v="712048" />
	</node>
	<node id="-490107" lat="60.6974277755" lon="5.24807778193">
		<tag k="alt_name" v="Skodvin øvre" />
		<tag k="name" v="Øvre Skodvin" />
		<tag k="place" v="farm" />
		<tag k="ssr:stedsnr" v="712037" />
	</node>
	<node id="-490106" lat="60.5903722246" lon="5.28536110636">
		<tag k="historic" v="shieling" />
		<tag k="name" v="Høgstølen" />
		<tag k="place" v="locality" />
		<tag k="ssr:stedsnr" v="712035" />
	</node>
	<node id="-490105" lat="60.7002583369" lon="5.278888894">
		<tag k="name" v="Tveiten" />
		<tag k="place" v="farm" />
		<tag k="ssr:stedsnr" v="712026" />
	</node>
	<node id="-488055" lat="60.6640063961" lon="5.59651057313">
		<tag k="alt_name" v="Paddøyni" />
		<tag k="fixme" v="consider place=hamlet" />
		<tag k="name" v="Padøy" />
		<tag k="place" v="farm" />
		<tag k="ssr:stedsnr" v="6655" />
	</node>
	<node id="-490102" lat="60.5874833295" lon="5.26236111595">
		<tag k="historic" v="shieling" />
		<tag k="name" v="Skarpesetra" />
		<tag k="place" v="locality" />
		<tag k="ssr:stedsnr" v="712010" />
	</node>
	<node id="-487529" lat="60.6093861119" lon="5.21146944252">
		<tag k="name" v="Selevoll" />
		<tag k="place" v="farm" />
		<tag k="ssr:stedsnr" v="348391" />
	</node>
	<node id="-488050" lat="60.5586416649" lon="5.32009999956">
		<tag k="alt_name" v="Gjerdviki, in" />
		<tag k="name" v="Indre Gjerdviki" />
		<tag k="place" v="hamlet" />
		<tag k="ssr:stedsnr" v="6467" />
	</node>
	<node id="-488042" lat="60.6622777788" lon="5.27830278621">
		<tag k="name" v="Djupviki" />
		<tag k="place" v="farm" />
		<tag k="ssr:stedsnr" v="6257" />
	</node>
	<node id="-488041" lat="60.6605250003" lon="5.18735278237">
		<tag k="name" v="Myksvoll" />
		<tag k="place" v="farm" />
		<tag k="ssr:stedsnr" v="6254" />
	</node>
	<node id="-488040" lat="60.6524785221" lon="5.1829243783">
		<tag k="alt_name" v="Nedre Myksvoll" />
		<tag k="name" v="Myksvoll" />
		<tag k="place" v="hamlet" />
		<tag k="ssr:stedsnr" v="6253" />
	</node>
	<node id="-488039" lat="60.6652333365" lon="5.42125000413">
		<tag k="name" v="Ås" />
		<tag k="place" v="farm" />
		<tag k="ssr:stedsnr" v="6246" />
	</node>
	<node id="-488038" lat="60.6760083328" lon="5.21822778496">
		<tag k="alt_name" v="Hundven" />
		<tag k="name" v="Hundvin" />
		<tag k="place" v="hamlet" />
		<tag k="ssr:stedsnr" v="6238" />
	</node>
	<node id="-488036" lat="60.6390433982" lon="5.20907311922">
		<tag k="fixme" v="consider place=hamlet" />
		<tag k="name" v="Vollo" />
		<tag k="place" v="farm" />
		<tag k="ssr:stedsnr" v="6220" />
	</node>
	<node id="-488035" lat="60.6539527787" lon="5.35960833026">
		<tag k="name" v="Olderhaugen" />
		<tag k="place" v="farm" />
		<tag k="ssr:stedsnr" v="6216" />
	</node>
	<node id="-490082" lat="60.6641749993" lon="5.23449443857">
		<tag k="building" v="industrial" />
		<tag k="industrial" v="factory" />
		<tag k="name" v="Nesfossen" />
		<tag k="ssr:stedsnr" v="693618" />
	</node>
	<node id="-490076" lat="60.7526591799" lon="5.17673324773">
		<tag k="fixme" v="consider place=hamlet" />
		<tag k="name" v="Fonnebost" />
		<tag k="place" v="farm" />
		<tag k="ssr:stedsnr" v="676731" />
	</node>
	<node id="-490075" lat="60.7688617206" lon="5.15225258927">
		<tag k="fixme" v="consider place=hamlet" />
		<tag k="name" v="Sundsbø" />
		<tag k="place" v="farm" />
		<tag k="ssr:stedsnr" v="676701" />
	</node>
	<node id="-488026" lat="60.5921197715" lon="5.27129452163">
		<tag k="fixme" v="consider place=hamlet" />
		<tag k="name" v="Sletta" />
		<tag k="place" v="farm" />
		<tag k="ssr:stedsnr" v="6119" />
	</node>
	<node id="-488025" lat="60.5948554758" lon="5.28292747469">
		<tag k="fixme" v="consider place=hamlet" />
		<tag k="name" v="Espeland" />
		<tag k="place" v="farm" />
		<tag k="ssr:stedsnr" v="6118" />
	</node>
	<node id="-488024" lat="60.5910234029" lon="5.20709904206">
		<tag k="alt_name" v="Remme" />
		<tag k="fixme" v="consider place=hamlet" />
		<tag k="name" v="Rimmo" />
		<tag k="place" v="farm" />
		<tag k="ssr:stedsnr" v="6115" />
	</node>
	<node id="-488023" lat="60.6052326443" lon="5.42327904451">
		<tag k="alt_name" v="Eidsnes, in;Eidsnes" />
		<tag k="fixme" v="consider place=hamlet" />
		<tag k="name" v="Indre Eidsnes" />
		<tag k="place" v="farm" />
		<tag k="ssr:stedsnr" v="6107" />
	</node>
	<node id="-488022" lat="60.5753166685" lon="5.34570277612">
		<tag k="name" v="Dalabygdi" />
		<tag k="place" v="hamlet" />
		<tag k="ssr:stedsnr" v="6070" />
	</node>
	<node id="-488021" lat="60.5756210558" lon="5.28762360884">
		<tag k="name" v="Åse" />
		<tag k="place" v="hamlet" />
		<tag k="ssr:stedsnr" v="6066" />
	</node>
	<node id="-488020" lat="60.6094992392" lon="5.26615906564">
		<tag k="fixme" v="consider place=hamlet" />
		<tag k="name" v="Fiskeset" />
		<tag k="place" v="farm" />
		<tag k="ssr:stedsnr" v="6011" />
	</node>
	<node id="-490063" lat="60.7363861116" lon="5.16102221608">
		<tag k="name" v="Lindås" />
		<tag k="place" v="village" />
		<tag k="ssr:stedsnr" v="674686" />
	</node>
	<node id="-490062" lat="60.6434595347" lon="5.46914674718">
		<tag k="fixme" v="consider place=hamlet" />
		<tag k="name" v="Storset" />
		<tag k="place" v="farm" />
		<tag k="ssr:stedsnr" v="674672" />
	</node>
	<node id="-488012" lat="60.7303298718" lon="5.64280156404">
		<tag k="fixme" v="consider place=hamlet" />
		<tag k="name" v="Romarheim" />
		<tag k="place" v="farm" />
		<tag k="ssr:stedsnr" v="989496" />
	</node>
	<node id="-488011" lat="60.6129686836" lon="5.38464676199">
		<tag k="name" v="Eikanger" />
		<tag k="place" v="hamlet" />
		<tag k="ssr:stedsnr" v="989487" />
	</node>
	<node id="-488010" lat="60.5675053053" lon="5.36166844268">
		<tag k="name" v="Munndal" />
		<tag k="place" v="hamlet" />
		<tag k="ssr:stedsnr" v="989485" />
	</node>
	<node id="-488009" lat="60.5562462752" lon="5.30786691628">
		<tag k="name" v="Gjerdviki" />
		<tag k="place" v="hamlet" />
		<tag k="ssr:stedsnr" v="989484" />
	</node>
	<node id="-488008" lat="60.6550677289" lon="5.28162522807">
		<tag k="name" v="Leivestad" />
		<tag k="place" v="hamlet" />
		<tag k="ssr:stedsnr" v="989482" />
	</node>
	<node id="-488007" lat="60.5987081297" lon="5.22099971223">
		<tag k="name" v="Fosse" />
		<tag k="place" v="hamlet" />
		<tag k="ssr:stedsnr" v="989459" />
	</node>
	<node id="-488006" lat="60.692986205" lon="5.24044384239">
		<tag k="name" v="Skodven" />
		<tag k="place" v="hamlet" />
		<tag k="ssr:stedsnr" v="989431" />
	</node>
	<node id="-490053" lat="60.5979843677" lon="5.29425977946">
		<tag k="name" v="Eikeland" />
		<tag k="place" v="hamlet" />
		<tag k="ssr:stedsnr" v="674024" />
	</node>
	<node id="-488004" lat="60.6734684185" lon="5.12871998984">
		<tag k="fixme" v="consider place=hamlet" />
		<tag k="name" v="Langenes" />
		<tag k="place" v="farm" />
		<tag k="ssr:stedsnr" v="989428" />
	</node>
	<node id="-490051" lat="60.6325750014" lon="5.55735555601">
		<tag k="fixme" v="consider place=hamlet" />
		<tag k="name" v="Molvikagrendi" />
		<tag k="place" v="village" />
		<tag k="ssr:stedsnr" v="673700" />
	</node>
	<node id="-490048" lat="60.7274583691" lon="5.28102251498">
		<tag k="fixme" v="consider place=hamlet" />
		<tag k="name" v="Ringåsen" />
		<tag k="place" v="farm" />
		<tag k="ssr:stedsnr" v="673663" />
	</node>
	<node id="-490046" lat="60.6678749957" lon="5.5945555494">
		<tag k="alt_name" v="Paddøyhamn" />
		<tag k="name" v="Hamn" />
		<tag k="place" v="farm" />
		<tag k="ssr:stedsnr" v="673654" />
	</node>
	<node id="-490042" lat="60.563003084" lon="5.31556301269">
		<tag k="fixme" v="consider place=hamlet" />
		<tag k="name" v="Nepstad" />
		<tag k="place" v="farm" />
		<tag k="ssr:stedsnr" v="673450" />
	</node>
	<node id="-488543" lat="60.612726674" lon="5.46793528455">
		<tag k="fixme" v="consider place=hamlet" />
		<tag k="name" v="Askviki" />
		<tag k="place" v="farm" />
		<tag k="ssr:stedsnr" v="127771" />
	</node>
	<node id="-490040" lat="60.6595805569" lon="5.47434166509">
		<tag k="name" v="Stalltræet" />
		<tag k="place" v="farm" />
		<tag k="ssr:stedsnr" v="673353" />
	</node>
	<node id="-488027" lat="60.5823537603" lon="5.20989220603">
		<tag k="name" v="Soltveit" />
		<tag k="place" v="hamlet" />
		<tag k="ssr:stedsnr" v="6125" />
	</node>
	<node id="-487989" lat="60.6335833378" lon="5.31596666836">
		<tag k="name" v="Toskheim" />
		<tag k="place" v="farm" />
		<tag k="ssr:stedsnr" v="897451" />
	</node>
	<node id="-490036" lat="60.7026680284" lon="5.54790637676">
		<tag k="fixme" v="consider place=hamlet" />
		<tag k="name" v="Eikefet" />
		<tag k="place" v="farm" />
		<tag k="ssr:stedsnr" v="673274" />
	</node>
	<node id="-490033" lat="60.7100472713" lon="5.31529272455">
		<tag k="fixme" v="consider place=hamlet" />
		<tag k="name" v="Hodno" />
		<tag k="place" v="farm" />
		<tag k="ssr:stedsnr" v="673196" />
	</node>
	<node id="-490032" lat="60.7004194473" lon="5.32431667154">
		<tag k="name" v="Myking" />
		<tag k="place" v="hamlet" />
		<tag k="ssr:stedsnr" v="673191" />
	</node>
	<node id="-487982" lat="60.7679361086" lon="5.49837776985">
		<tag k="historic" v="shieling" />
		<tag k="name" v="Kalvedalssetra" />
		<tag k="place" v="locality" />
		<tag k="ssr:stedsnr" v="895854" />
	</node>
	<node id="-490027" lat="60.6897934576" lon="5.45118011219">
		<tag k="fixme" v="consider place=hamlet" />
		<tag k="name" v="Dyrdal" />
		<tag k="place" v="farm" />
		<tag k="ssr:stedsnr" v="673155" />
	</node>
	<node id="-490025" lat="60.6863805602" lon="5.13486945015">
		<tag k="alt_name" v="Grønås" />
		<tag k="name" v="Grønåsen" />
		<tag k="place" v="farm" />
		<tag k="ssr:stedsnr" v="673146" />
	</node>
	<node id="-487976" lat="60.6784861086" lon="5.48291110824">
		<tag k="historic" v="shieling" />
		<tag k="name" v="Basttoløa" />
		<tag k="place" v="locality" />
		<tag k="ssr:stedsnr" v="895722" />
	</node>
	<node id="-490023" lat="60.5616388864" lon="5.27166666555">
		<tag k="name" v="Isdal" />
		<tag k="place" v="farm" />
		<tag k="ssr:stedsnr" v="673109" />
	</node>
	<node id="-490021" lat="60.6293020528" lon="5.26527228435">
		<tag k="fixme" v="consider place=hamlet" />
		<tag k="name" v="Totland" />
		<tag k="place" v="farm" />
		<tag k="ssr:stedsnr" v="673052" />
	</node>
	<node id="-490020" lat="60.6420245032" lon="5.42754809765">
		<tag k="fixme" v="consider place=hamlet" />
		<tag k="name" v="Bjørgo" />
		<tag k="place" v="farm" />
		<tag k="ssr:stedsnr" v="673041" />
	</node>
	<node id="-490019" lat="60.6234777808" lon="5.38075833999">
		<tag k="fixme" v="consider place=hamlet" />
		<tag k="name" v="Myr" />
		<tag k="place" v="farm" />
		<tag k="ssr:stedsnr" v="673005" />
	</node>
	<node id="-490017" lat="60.810194447" lon="5.0316583325">
		<tag k="building" v="industrial" />
		<tag k="industrial" v="factory" />
		<tag k="name" v="Skorstein 120m" />
		<tag k="ssr:stedsnr" v="662645" />
	</node>
	<node id="-490016" lat="60.7833638889" lon="5.1025166673">
		<tag k="name" v="Tvibergøyna" />
		<tag k="place" v="farm" />
		<tag k="ssr:stedsnr" v="658576" />
	</node>
	<node id="-490015" lat="60.5553305574" lon="5.26936944659">
		<tag k="alt_name" v="Isdalsstø" />
		<tag k="name" v="Isdalstø" />
		<tag k="place" v="village" />
		<tag k="ssr:stedsnr" v="657089" />
	</node>
	<node id="-487964" lat="60.6280277788" lon="5.36961666027">
		<tag k="name" v="Træ" />
		<tag k="place" v="farm" />
		<tag k="ssr:stedsnr" v="895436" />
	</node>
	<node id="-487962" lat="60.6373805516" lon="5.43193333007">
		<tag k="name" v="Bjørgetræ" />
		<tag k="place" v="farm" />
		<tag k="ssr:stedsnr" v="895417" />
	</node>
	<node id="-488537" lat="60.5611444407" lon="5.33036944661">
		<tag k="name" v="Neset" />
		<tag k="place" v="farm" />
		<tag k="ssr:stedsnr" v="127472" />
	</node>
	<node id="-487955" lat="60.6035055565" lon="5.22017776973">
		<tag k="historic" v="shieling" />
		<tag k="name" v="Stølane" />
		<tag k="place" v="locality" />
		<tag k="ssr:stedsnr" v="895345" />
	</node>
	<node id="-487947" lat="60.6389027764" lon="5.20914999933">
		<tag k="name" v="Valle" />
		<tag k="place" v="farm" />
		<tag k="ssr:stedsnr" v="895299" />
	</node>
	<node id="-487946" lat="60.6512055574" lon="5.33991110287">
		<tag k="name" v="Fammestad" />
		<tag k="place" v="farm" />
		<tag k="ssr:stedsnr" v="895073" />
	</node>
	<node id="-487944" lat="60.6537166653" lon="5.32899722268">
		<tag k="name" v="Nedretveit" />
		<tag k="place" v="farm" />
		<tag k="ssr:stedsnr" v="895062" />
	</node>
	<node id="-489989" lat="60.6764055576" lon="5.53795278193">
		<tag k="historic" v="shieling" />
		<tag k="name" v="Eknessetra" />
		<tag k="place" v="locality" />
		<tag k="ssr:stedsnr" v="651757" />
	</node>
	<node id="-487936" lat="60.7643833342" lon="5.5340888871">
		<tag k="historic" v="shieling" />
		<tag k="name" v="Paddøysetra" />
		<tag k="place" v="locality" />
		<tag k="ssr:stedsnr" v="894871" />
	</node>
	<node id="-487930" lat="60.5825361126" lon="5.36338611453">
		<tag k="name" v="Hellesvåg" />
		<tag k="place" v="village" />
		<tag k="ssr:stedsnr" v="894767" />
	</node>
	<node id="-489972" lat="60.6751111094" lon="5.41352499131">
		<tag k="name" v="Velandstræ" />
		<tag k="place" v="farm" />
		<tag k="ssr:stedsnr" v="651608" />
	</node>
	<node id="-489959" lat="60.6964138879" lon="5.10064167089">
		<tag k="name" v="Lygra" />
		<tag k="place" v="farm" />
		<tag k="ssr:stedsnr" v="651558" />
	</node>
	<node id="-489957" lat="60.6341250043" lon="5.49229445234">
		<tag k="fixme" v="consider place=hamlet" />
		<tag k="name" v="Bjørsvik" />
		<tag k="place" v="farm" />
		<tag k="ssr:stedsnr" v="651555" />
	</node>
	<node id="-487908" lat="60.7411861073" lon="5.1011277783">
		<tag k="name" v="Lyngbø" />
		<tag k="place" v="farm" />
		<tag k="ssr:stedsnr" v="894537" />
	</node>
	<node id="-487906" lat="60.7328611084" lon="5.10350277422">
		<tag k="name" v="Skårnes" />
		<tag k="place" v="farm" />
		<tag k="ssr:stedsnr" v="894531" />
	</node>
	<node id="-489953" lat="60.7002138848" lon="5.59556111685">
		<tag k="name" v="Vikasund" />
		<tag k="place" v="farm" />
		<tag k="ssr:stedsnr" v="651528" />
	</node>
	<node id="-489929" lat="60.5720138882" lon="5.37070277463">
		<tag k="historic" v="shieling" />
		<tag k="name" v="Eikelistølen" />
		<tag k="place" v="locality" />
		<tag k="ssr:stedsnr" v="651329" />
	</node>
	<node id="-487880" lat="60.6071888863" lon="5.44283611701">
		<tag k="name" v="Eknes" />
		<tag k="place" v="farm" />
		<tag k="ssr:stedsnr" v="894334" />
	</node>
	<node id="-489927" lat="60.6432250002" lon="5.20362777092">
		<tag k="fixme" v="consider place=hamlet" />
		<tag k="name" v="Mykletun" />
		<tag k="place" v="farm" />
		<tag k="ssr:stedsnr" v="651323" />
	</node>
	<node id="-488523" lat="60.6675138578" lon="5.34211667844">
		<tag k="fixme" v="consider place=hamlet" />
		<tag k="name" v="Hauge" />
		<tag k="place" v="farm" />
		<tag k="ssr:stedsnr" v="127275" />
	</node>
	<node id="-489920" lat="60.7530222237" lon="5.12005277634">
		<tag k="name" v="Osterhus" />
		<tag k="place" v="farm" />
		<tag k="ssr:stedsnr" v="651250" />
	</node>
	<node id="-488522" lat="60.6715527817" lon="5.4091694413">
		<tag k="fixme" v="consider place=hamlet" />
		<tag k="name" v="Øvrås" />
		<tag k="place" v="farm" />
		<tag k="ssr:stedsnr" v="127265" />
	</node>
	<node id="-487861" lat="60.6885916682" lon="5.25912500269">
		<tag k="name" v="Refsdal" />
		<tag k="place" v="farm" />
		<tag k="ssr:stedsnr" v="894239" />
	</node>
	<node id="-489899" lat="60.7696222256" lon="5.15325833215">
		<tag k="name" v="Sundsbø" />
		<tag k="place" v="farm" />
		<tag k="ssr:stedsnr" v="651156" />
	</node>
	<node id="-487848" lat="60.5664583299" lon="5.27147500655">
		<tag k="name" v="Isdal" />
		<tag k="place" v="farm" />
		<tag k="ssr:stedsnr" v="894183" />
	</node>
	<node id="-488518" lat="60.6875936665" lon="5.26073151677">
		<tag k="fixme" v="consider place=hamlet" />
		<tag k="name" v="Revsdalen" />
		<tag k="place" v="farm" />
		<tag k="ssr:stedsnr" v="127133" />
	</node>
	<node id="-487839" lat="60.6649722247" lon="5.174975">
		<tag k="name" v="Tofting" />
		<tag k="place" v="farm" />
		<tag k="ssr:stedsnr" v="894131" />
	</node>
	<node id="-489882" lat="60.5998222179" lon="5.29070277373">
		<tag k="name" v="Eikeland" />
		<tag k="place" v="farm" />
		<tag k="ssr:stedsnr" v="651041" />
	</node>
	<node id="-489876" lat="60.5855888878" lon="5.23681666032">
		<tag k="name" v="Kvamme" />
		<tag k="place" v="farm" />
		<tag k="ssr:stedsnr" v="651012" />
	</node>
	<node id="-487823" lat="60.6203555534" lon="5.24286389212">
		<tag k="name" v="Søre Li" />
		<tag k="place" v="farm" />
		<tag k="ssr:stedsnr" v="894054" />
	</node>
	<node id="-487203" lat="60.6079361078" lon="5.24635277694">
		<tag k="historic" v="shieling" />
		<tag k="name" v="Gullstølen" />
		<tag k="place" v="locality" />
		<tag k="ssr:stedsnr" v="287036" />
	</node>
	<node id="-487811" lat="60.6340972235" lon="5.34006667171">
		<tag k="name" v="Heggertveit" />
		<tag k="place" v="farm" />
		<tag k="ssr:stedsnr" v="894004" />
	</node>
	<node id="-487810" lat="60.7075777813" lon="5.23524999628">
		<tag k="name" v="Løtveit" />
		<tag k="place" v="farm" />
		<tag k="ssr:stedsnr" v="894001" />
	</node>
	<node id="-487809" lat="60.7676972265" lon="5.48883610961">
		<tag k="fixme" v="consider tourism=alpine_hut or tourism=chalet" />
		<tag k="name" v="Kalvedalshytta" />
		<tag k="ssr:stedsnr" v="888079" />
		<tag k="tourism" v="wilderness_hut" />
	</node>
	<node id="-487828" lat="60.6205638921" lon="5.33984166103">
		<tag k="name" v="Øvre Hageseter" />
		<tag k="place" v="farm" />
		<tag k="ssr:stedsnr" v="894068" />
	</node>
	<node id="-489839" lat="60.7510396108" lon="5.10059573058">
		<tag k="fixme" v="consider place=hamlet" />
		<tag k="name" v="Verås" />
		<tag k="place" v="farm" />
		<tag k="ssr:stedsnr" v="615710" />
	</node>
	<node id="-489835" lat="60.7807805559" lon="5.03961666762">
		<tag k="name" v="Utgjerdet" />
		<tag k="place" v="farm" />
		<tag k="ssr:stedsnr" v="615212" />
	</node>
	<node id="-489832" lat="60.7538321039" lon="5.60601952899">
		<tag k="fixme" v="consider place=hamlet" />
		<tag k="name" v="Stussdalen" />
		<tag k="place" v="farm" />
		<tag k="ssr:stedsnr" v="615051" />
	</node>
	<node id="-489831" lat="60.7640749979" lon="5.53434444802">
		<tag k="historic" v="shieling" />
		<tag k="name" v="Paddesætret" />
		<tag k="place" v="locality" />
		<tag k="ssr:stedsnr" v="615034" />
	</node>
	<node id="-489829" lat="60.7739055575" lon="5.53045278671">
		<tag k="historic" v="shieling" />
		<tag k="name" v="Steinsetdalssætret" />
		<tag k="place" v="locality" />
		<tag k="ssr:stedsnr" v="614453" />
	</node>
	<node id="-489827" lat="60.6383277777" lon="5.48874167116">
		<tag k="name" v="Storbotnen" />
		<tag k="place" v="farm" />
		<tag k="ssr:stedsnr" v="613649" />
	</node>
	<node id="-489825" lat="60.6688675216" lon="5.38237915759">
		<tag k="alt_name" v="Hindnes, yt;Hindnes" />
		<tag k="fixme" v="consider place=hamlet" />
		<tag k="name" v="Ytre Hindnes" />
		<tag k="place" v="farm" />
		<tag k="ssr:stedsnr" v="613234" />
	</node>
	<node id="-489818" lat="60.7306543253" lon="5.29874141267">
		<tag k="fixme" v="consider place=hamlet" />
		<tag k="name" v="Hodneland" />
		<tag k="place" v="farm" />
		<tag k="ssr:stedsnr" v="612650" />
	</node>
	<node id="-487762" lat="60.7414166676" lon="5.05694722428">
		<tag k="name" v="Midthagen" />
		<tag k="place" v="farm" />
		<tag k="ssr:stedsnr" v="409481" />
	</node>
	<node id="-489807" lat="60.6731556484" lon="5.33023924493">
		<tag k="fixme" v="consider place=hamlet" />
		<tag k="name" v="Li" />
		<tag k="place" v="farm" />
		<tag k="ssr:stedsnr" v="612248" />
	</node>
	<node id="-489806" lat="60.6701138503" lon="5.26667003158">
		<tag k="fixme" v="consider place=hamlet" />
		<tag k="name" v="Berge" />
		<tag k="place" v="farm" />
		<tag k="ssr:stedsnr" v="612247" />
	</node>
	<node id="-489805" lat="60.6513249966" lon="5.38614166696">
		<tag k="fixme" v="consider place=hamlet" />
		<tag k="name" v="Asgard" />
		<tag k="place" v="farm" />
		<tag k="ssr:stedsnr" v="612236" />
	</node>
	<node id="-489804" lat="60.6376408234" lon="5.34165302853">
		<tag k="alt_name" v="Heggernes" />
		<tag k="fixme" v="consider place=hamlet" />
		<tag k="name" v="Hegernes" />
		<tag k="place" v="farm" />
		<tag k="ssr:stedsnr" v="612224" />
	</node>
	<node id="-489801" lat="60.7224083343" lon="5.3219277824">
		<tag k="name" v="Hodnalii" />
		<tag k="place" v="farm" />
		<tag k="ssr:stedsnr" v="612184" />
	</node>
	<node id="-489799" lat="60.6979774607" lon="5.43090355786">
		<tag k="fixme" v="consider place=hamlet" />
		<tag k="name" v="Skor" />
		<tag k="place" v="farm" />
		<tag k="ssr:stedsnr" v="612168" />
	</node>
	<node id="-487750" lat="60.715741671" lon="5.30598610855">
		<tag k="name" v="Hodnekvam" />
		<tag k="place" v="farm" />
		<tag k="ssr:stedsnr" v="409350" />
	</node>
	<node id="-489796" lat="60.5687779004" lon="5.240779831">
		<tag k="name" v="Alver" />
		<tag k="ssr:stedsnr" v="612088" />
		<tag k="tourism" v="hotel" />
	</node>
	<node id="-489795" lat="60.5753396756" lon="5.36371668895">
		<tag k="fixme" v="consider place=hamlet" />
		<tag k="name" v="Midgarden" />
		<tag k="place" v="farm" />
		<tag k="ssr:stedsnr" v="612080" />
	</node>
	<node id="-487745" lat="60.5784444451" lon="5.35569166887">
		<tag k="name" v="Øvstegård" />
		<tag k="place" v="farm" />
		<tag k="ssr:stedsnr" v="409333" />
	</node>
	<node id="-489790" lat="60.7704222204" lon="5.57452777013">
		<tag k="historic" v="shieling" />
		<tag k="name" v="Stussdalssetra" />
		<tag k="place" v="locality" />
		<tag k="ssr:stedsnr" v="605466" />
	</node>
	<node id="-487738" lat="60.7425749963" lon="5.18032500503">
		<tag k="name" v="Holmås" />
		<tag k="place" v="farm" />
		<tag k="ssr:stedsnr" v="409243" />
	</node>
	<node id="-489783" lat="60.7629416685" lon="5.64298056173">
		<tag k="historic" v="shieling" />
		<tag k="name" v="Høseløena" />
		<tag k="place" v="locality" />
		<tag k="ssr:stedsnr" v="591917" />
	</node>
	<node id="-487730" lat="60.7278972257" lon="5.1952527837">
		<tag k="name" v="Fjellanger" />
		<tag k="place" v="farm" />
		<tag k="ssr:stedsnr" v="409205" />
	</node>
	<node id="-487726" lat="60.7278055548" lon="5.26738332705">
		<tag k="name" v="Natås" />
		<tag k="place" v="farm" />
		<tag k="ssr:stedsnr" v="409184" />
	</node>
	<node id="-487725" lat="60.7136999966" lon="5.26282776901">
		<tag k="name" v="Skauge" />
		<tag k="place" v="farm" />
		<tag k="ssr:stedsnr" v="409182" />
	</node>
	<node id="-487723" lat="60.6558000024" lon="5.27929166352">
		<tag k="alt_name" v="Leivestad Nordre" />
		<tag k="name" v="Nordre Leivestad" />
		<tag k="place" v="farm" />
		<tag k="ssr:stedsnr" v="409153" />
	</node>
	<node id="-489761" lat="60.6557027762" lon="5.17539999397">
		<tag k="name" v="Bergås" />
		<tag k="place" v="farm" />
		<tag k="ssr:stedsnr" v="591323" />
	</node>
	<node id="-489759" lat="60.6504722197" lon="5.1820972316">
		<tag k="name" v="Nedre Myksvoll" />
		<tag k="place" v="farm" />
		<tag k="ssr:stedsnr" v="591319" />
	</node>
	<node id="-488358" lat="60.5527027792" lon="5.28192499878">
		<tag k="historic" v="shieling" />
		<tag k="name" v="Juvikstølen" />
		<tag k="place" v="locality" />
		<tag k="ssr:stedsnr" v="105093" />
	</node>
	<node id="-489737" lat="60.7005694406" lon="5.56056945347">
		<tag k="name" v="Viki" />
		<tag k="place" v="farm" />
		<tag k="ssr:stedsnr" v="590727" />
	</node>
	<node id="-489730" lat="60.6223852841" lon="5.47410195066">
		<tag k="alt_name" v="Eide ytre" />
		<tag k="fixme" v="consider place=hamlet" />
		<tag k="name" v="Ytre Eide" />
		<tag k="place" v="farm" />
		<tag k="ssr:stedsnr" v="590613" />
	</node>
	<node id="-489729" lat="60.6127111129" lon="5.46913888967">
		<tag k="name" v="Askvik" />
		<tag k="place" v="farm" />
		<tag k="ssr:stedsnr" v="590614" />
	</node>
	<node id="-489725" lat="60.686224996" lon="5.39049166819">
		<tag k="name" v="Rødland" />
		<tag k="place" v="farm" />
		<tag k="ssr:stedsnr" v="590581" />
	</node>
	<node id="-489711" lat="60.6325361086" lon="5.51357499772">
		<tag k="name" v="Skår" />
		<tag k="place" v="farm" />
		<tag k="ssr:stedsnr" v="590531" />
	</node>
	<node id="-489709" lat="60.6626805541" lon="5.42559167505">
		<tag k="alt_name" v="Askeland nordre" />
		<tag k="fixme" v="consider place=hamlet" />
		<tag k="name" v="Nordre Askeland" />
		<tag k="place" v="farm" />
		<tag k="ssr:stedsnr" v="590504" />
	</node>
	<node id="-487651" lat="60.782252776" lon="5.04157221411">
		<tag k="name" v="Hope" />
		<tag k="place" v="farm" />
		<tag k="ssr:stedsnr" v="388138" />
	</node>
	<node id="-489697" lat="60.7690361129" lon="5.10214167386">
		<tag k="fixme" v="consider place=hamlet" />
		<tag k="name" v="Lauvås" />
		<tag k="place" v="farm" />
		<tag k="ssr:stedsnr" v="590416" />
	</node>
	<node id="-487644" lat="60.7774250024" lon="5.63322777979">
		<tag k="historic" v="shieling" />
		<tag k="name" v="Nysætret" />
		<tag k="place" v="locality" />
		<tag k="ssr:stedsnr" v="372462" />
	</node>
	<node id="-487641" lat="60.817677782" lon="5.03094999116">
		<tag k="alt_name" v="Equinor Mongstad" />
		<tag k="building" v="industrial" />
		<tag k="industrial" v="factory" />
		<tag k="name" v="Mongstad" />
		<tag k="old_name" v="Statoil Mongstad" />
		<tag k="ssr:stedsnr" v="372041" />
	</node>
	<node id="-489683" lat="60.5756916683" lon="5.36369166931">
		<tag k="name" v="Midtgård" />
		<tag k="place" v="farm" />
		<tag k="ssr:stedsnr" v="590340" />
	</node>
	<node id="-487634" lat="60.7322111126" lon="5.27431388089">
		<tag k="fixme" v="consider place=hamlet" />
		<tag k="name" v="Sævrås" />
		<tag k="place" v="village" />
		<tag k="ssr:stedsnr" v="370645" />
	</node>
	<node id="-487631" lat="60.7363277808" lon="5.55020555093">
		<tag k="historic" v="shieling" />
		<tag k="name" v="Store-Aurdalssætra" />
		<tag k="place" v="locality" />
		<tag k="ssr:stedsnr" v="370483" />
	</node>
	<node id="-489676" lat="60.7109222253" lon="5.18875000254">
		<tag k="name" v="Marås" />
		<tag k="place" v="farm" />
		<tag k="ssr:stedsnr" v="590293" />
	</node>
	<node id="-487626" lat="60.7177416691" lon="5.56618333741">
		<tag k="alt_name" v="Vikesetra" />
		<tag k="historic" v="shieling" />
		<tag k="name" v="Vikasætra" />
		<tag k="place" v="locality" />
		<tag k="ssr:stedsnr" v="370347" />
	</node>
	<node id="-487618" lat="60.6534638894" lon="5.32966752172">
		<tag k="fixme" v="consider place=hamlet" />
		<tag k="name" v="Nedretveito" />
		<tag k="place" v="farm" />
		<tag k="ssr:stedsnr" v="370240" />
	</node>
	<node id="-487614" lat="60.5748527751" lon="5.21989445316">
		<tag k="name" v="Hilland" />
		<tag k="place" v="farm" />
		<tag k="ssr:stedsnr" v="370158" />
	</node>
	<node id="-487613" lat="60.5907583357" lon="5.34833055923">
		<tag k="fixme" v="consider place=hamlet" />
		<tag k="name" v="Haukåsen" />
		<tag k="place" v="farm" />
		<tag k="ssr:stedsnr" v="370134" />
	</node>
	<node id="-487611" lat="60.574798783" lon="5.23795553495">
		<tag k="name" v="Tveiten" />
		<tag k="place" v="hamlet" />
		<tag k="ssr:stedsnr" v="370086" />
	</node>
	<node id="-487604" lat="60.6139825953" lon="5.30745046462">
		<tag k="fixme" v="consider place=hamlet" />
		<tag k="name" v="Kleivdal" />
		<tag k="place" v="farm" />
		<tag k="ssr:stedsnr" v="370012" />
	</node>
	<node id="-487603" lat="60.6270357977" lon="5.41857565915">
		<tag k="fixme" v="consider place=hamlet" />
		<tag k="name" v="Æse" />
		<tag k="place" v="farm" />
		<tag k="ssr:stedsnr" v="370002" />
	</node>
	<node id="-489635" lat="60.6519027795" lon="5.28188056089">
		<tag k="alt_name" v="Leivestad Søre" />
		<tag k="name" v="Søre Leivestad" />
		<tag k="place" v="farm" />
		<tag k="ssr:stedsnr" v="590128" />
	</node>
	<node id="-487584" lat="60.7635222262" lon="5.53466944921">
		<tag k="name" v="Maurstad" />
		<tag k="place" v="farm" />
		<tag k="ssr:stedsnr" v="348830" />
	</node>
	<node id="-489627" lat="60.6232722201" lon="5.33576667497">
		<tag k="name" v="Noraledet" />
		<tag k="place" v="farm" />
		<tag k="ssr:stedsnr" v="590065" />
	</node>
	<node id="-489624" lat="60.6952527755" lon="5.25930277827">
		<tag k="name" v="Søre Fjellsbø" />
		<tag k="place" v="farm" />
		<tag k="ssr:stedsnr" v="590026" />
	</node>
	<node id="-489618" lat="60.5637861152" lon="5.25234999442">
		<tag k="name" v="Alver næringsområde" />
		<tag k="place" v="quarter" />
		<tag k="ssr:stedsnr" v="582321" />
	</node>
	<node id="-487564" lat="60.6873083349" lon="5.41250000356">
		<tag k="name" v="Gjelsvik" />
		<tag k="place" v="farm" />
		<tag k="ssr:stedsnr" v="348576" />
	</node>
	<node id="-487563" lat="60.6714694423" lon="5.4096888868">
		<tag k="name" v="Øvreås" />
		<tag k="place" v="farm" />
		<tag k="ssr:stedsnr" v="348574" />
	</node>
	<node id="-487558" lat="60.6966111143" lon="5.51762776877">
		<tag k="historic" v="shieling" />
		<tag k="name" v="Stølane" />
		<tag k="place" v="locality" />
		<tag k="ssr:stedsnr" v="348541" />
	</node>
	<node id="-489600" lat="60.7854802296" lon="5.62228069555">
		<tag k="fixme" v="consider place=hamlet" />
		<tag k="name" v="Nipa" />
		<tag k="place" v="farm" />
		<tag k="ssr:stedsnr" v="554477" />
	</node>
	<node id="-487550" lat="60.6346555596" lon="5.49126943814">
		<tag k="name" v="Vågen" />
		<tag k="place" v="farm" />
		<tag k="ssr:stedsnr" v="348505" />
	</node>
	<node id="-489594" lat="60.7545333316" lon="5.49258333121">
		<tag k="historic" v="shieling" />
		<tag k="name" v="Norddalen" />
		<tag k="place" v="locality" />
		<tag k="ssr:stedsnr" v="554038" />
	</node>
	<node id="-487545" lat="60.6438888843" lon="5.46984999334">
		<tag k="name" v="Storset" />
		<tag k="place" v="farm" />
		<tag k="ssr:stedsnr" v="348483" />
	</node>
	<node id="-489592" lat="60.6436795361" lon="5.51202724307">
		<tag k="fixme" v="consider place=hamlet" />
		<tag k="name" v="Husdalen" />
		<tag k="place" v="farm" />
		<tag k="ssr:stedsnr" v="552707" />
	</node>
	<node id="-489591" lat="60.7278496865" lon="5.16419751565">
		<tag k="alt_name" v="Spjeldnes" />
		<tag k="fixme" v="consider place=hamlet" />
		<tag k="name" v="Spjeldneset" />
		<tag k="place" v="farm" />
		<tag k="ssr:stedsnr" v="552700" />
	</node>
	<node id="-489589" lat="60.7290260065" lon="5.26099873021">
		<tag k="fixme" v="consider place=hamlet" />
		<tag k="name" v="Natås" />
		<tag k="place" v="farm" />
		<tag k="ssr:stedsnr" v="552695" />
	</node>
	<node id="-489588" lat="60.6637138896" lon="5.54141111625">
		<tag k="alt_name" v="Molviksetra" />
		<tag k="historic" v="shieling" />
		<tag k="name" v="Molviksætra" />
		<tag k="place" v="locality" />
		<tag k="ssr:stedsnr" v="552682" />
	</node>
	<node id="-487535" lat="60.7699444454" lon="5.03724444804">
		<tag k="name" v="Keilegavlen" />
		<tag k="place" v="farm" />
		<tag k="ssr:stedsnr" v="348419" />
	</node>
	<node id="-489581" lat="60.6615584599" lon="5.47054939467">
		<tag k="fixme" v="consider place=hamlet" />
		<tag k="name" v="Stallen" />
		<tag k="place" v="farm" />
		<tag k="ssr:stedsnr" v="552361" />
	</node>
	<node id="-489579" lat="60.6554389673" lon="5.17452877833">
		<tag k="fixme" v="consider place=hamlet" />
		<tag k="name" v="Berås" />
		<tag k="place" v="farm" />
		<tag k="ssr:stedsnr" v="552261" />
	</node>
	<node id="-489577" lat="60.6510166638" lon="5.27962500382">
		<tag k="alt_name" v="Leivestad, s" />
		<tag k="name" v="Søre Leivestad" />
		<tag k="place" v="farm" />
		<tag k="ssr:stedsnr" v="552215" />
	</node>
	<node id="-488124" lat="60.7544888897" lon="5.12820554704">
		<tag k="name" v="Rossnes" />
		<tag k="place" v="farm" />
		<tag k="ssr:stedsnr" v="44247" />
	</node>
	<node id="-487523" lat="60.6393638862" lon="5.17077499231">
		<tag k="historic" v="shieling" />
		<tag k="name" v="Grønstølen" />
		<tag k="place" v="locality" />
		<tag k="ssr:stedsnr" v="348331" />
	</node>
	<node id="-489570" lat="60.6939694466" lon="5.31392777036">
		<tag k="fixme" v="consider place=hamlet" />
		<tag k="name" v="Nævdal" />
		<tag k="place" v="farm" />
		<tag k="ssr:stedsnr" v="552139" />
	</node>
	<node id="-487521" lat="60.5691194447" lon="5.37306388859">
		<tag k="fixme" v="consider place=hamlet" />
		<tag k="loc_name" v="Leiknes" />
		<tag k="name" v="Leknes" />
		<tag k="place" v="farm" />
		<tag k="ssr:stedsnr" v="348323" />
	</node>
	<node id="-487520" lat="60.6457749961" lon="5.20229444342">
		<tag k="name" v="Litleoksa" />
		<tag k="place" v="farm" />
		<tag k="ssr:stedsnr" v="348321" />
	</node>
	<node id="-489566" lat="60.5561888915" lon="5.30648611312">
		<tag k="alt_name" v="Gjerdviki, yt;Gjervik" />
		<tag k="name" v="Ytre Gjerdviki" />
		<tag k="old_name" v="Gjerdviki" />
		<tag k="place" v="hamlet" />
		<tag k="ssr:stedsnr" v="552099" />
	</node>
	<node id="-489564" lat="60.5669083347" lon="5.3710777829">
		<tag k="name" v="Munndal" />
		<tag k="place" v="hamlet" />
		<tag k="ssr:stedsnr" v="552092" />
	</node>
	<node id="-489562" lat="60.6077150272" lon="5.32214110112">
		<tag k="alt_name" v="Hallsteindal" />
		<tag k="fixme" v="consider place=hamlet" />
		<tag k="name" v="Hallsteindalen" />
		<tag k="place" v="farm" />
		<tag k="ssr:stedsnr" v="552039" />
	</node>
	<node id="-489559" lat="60.6215721227" lon="5.31659598365">
		<tag k="fixme" v="consider place=hamlet" />
		<tag k="name" v="Gausereid" />
		<tag k="place" v="farm" />
		<tag k="ssr:stedsnr" v="552009" />
	</node>
	<node id="-487509" lat="60.7105944407" lon="5.3158416725">
		<tag k="name" v="Hodne" />
		<tag k="place" v="farm" />
		<tag k="ssr:stedsnr" v="348240" />
	</node>
	<node id="-487779" lat="60.6754166628" lon="5.40876110461">
		<tag k="name" v="Øvre Veland" />
		<tag k="place" v="farm" />
		<tag k="ssr:stedsnr" v="409585" />
	</node>
	<node id="-487503" lat="60.6850359843" lon="5.23502558415">
		<tag k="fixme" v="consider place=hamlet" />
		<tag k="name" v="Konglevoll" />
		<tag k="place" v="farm" />
		<tag k="ssr:stedsnr" v="348206" />
	</node>
	<node id="-489547" lat="60.6975597194" lon="5.2836374025">
		<tag k="fixme" v="consider place=hamlet" />
		<tag k="name" v="Vedfjell" />
		<tag k="place" v="farm" />
		<tag k="ssr:stedsnr" v="551187" />
	</node>
	<node id="-489546" lat="60.6996944414" lon="5.19648056244">
		<tag k="name" v="Lyngbø" />
		<tag k="place" v="farm" />
		<tag k="ssr:stedsnr" v="551186" />
	</node>
	<node id="-489544" lat="60.5863357889" lon="5.23928655777">
		<tag k="name" v="Kvamme" />
		<tag k="place" v="hamlet" />
		<tag k="ssr:stedsnr" v="551120" />
	</node>
	<node id="-489543" lat="60.5726916676" lon="5.22151944662">
		<tag k="name" v="Hilland" />
		<tag k="place" v="quarter" />
		<tag k="ssr:stedsnr" v="541787" />
	</node>
	<node id="-487494" lat="60.7280361097" lon="5.16194166876">
		<tag k="name" v="Spjeldnes" />
		<tag k="place" v="farm" />
		<tag k="ssr:stedsnr" v="348179" />
	</node>
	<node id="-488005" lat="60.7074503346" lon="5.19647529392">
		<tag k="fixme" v="consider place=hamlet" />
		<tag k="name" v="Haugsmyr" />
		<tag k="place" v="farm" />
		<tag k="ssr:stedsnr" v="989430" />
	</node>
	<node id="-487485" lat="60.7408472244" lon="5.25201944385">
		<tag k="name" v="Vabøneset" />
		<tag k="place" v="farm" />
		<tag k="ssr:stedsnr" v="348143" />
	</node>
	<node id="-487482" lat="60.6696083331" lon="5.2670472219">
		<tag k="name" v="Berge" />
		<tag k="place" v="farm" />
		<tag k="ssr:stedsnr" v="348131" />
	</node>
	<node id="-489529" lat="60.7781138884" lon="5.63154167315">
		<tag k="historic" v="shieling" />
		<tag k="name" v="Nysetra" />
		<tag k="place" v="locality" />
		<tag k="ssr:stedsnr" v="530903" />
	</node>
	<node id="-487479" lat="60.5783138874" lon="5.34043889412">
		<tag k="name" v="Hopsdal" />
		<tag k="place" v="farm" />
		<tag k="ssr:stedsnr" v="348122" />
	</node>
	<node id="-487474" lat="60.5698527812" lon="5.23685834096">
		<tag k="alt_name" v="Alver nedre" />
		<tag k="name" v="Nedre Alver" />
		<tag k="place" v="farm" />
		<tag k="ssr:stedsnr" v="348099" />
	</node>
	<node id="-487473" lat="60.5655166688" lon="5.24746110913">
		<tag k="name" v="Steingarden" />
		<tag k="place" v="farm" />
		<tag k="ssr:stedsnr" v="348093" />
	</node>
	<node id="-487470" lat="60.6639694415" lon="5.34720278634">
		<tag k="name" v="Vangen" />
		<tag k="place" v="farm" />
		<tag k="ssr:stedsnr" v="348070" />
	</node>
	<node id="-489509" lat="60.7146888892" lon="5.52606111022">
		<tag k="name" v="Sætre" />
		<tag k="place" v="farm" />
		<tag k="ssr:stedsnr" v="530692" />
	</node>
	<node id="-489507" lat="60.7363277755" lon="5.54970000764">
		<tag k="historic" v="shieling" />
		<tag k="name" v="Store Urdalssetra" />
		<tag k="place" v="locality" />
		<tag k="ssr:stedsnr" v="530659" />
	</node>
	<node id="-488623" lat="60.6030277758" lon="5.33226388749">
		<tag k="name" v="Sætre" />
		<tag k="place" v="farm" />
		<tag k="ssr:stedsnr" v="166023" />
	</node>
	<node id="-490737" lat="60.7275576943" lon="5.19877081422">
		<tag k="fixme" v="consider place=hamlet" />
		<tag k="name" v="Fjellanger" />
		<tag k="place" v="farm" />
		<tag k="ssr:stedsnr" v="855667" />
	</node>
	<node id="-487454" lat="60.6580861104" lon="5.13878610288">
		<tag k="alt_name" v="Feste Søre" />
		<tag k="name" v="Søre Feste" />
		<tag k="place" v="farm" />
		<tag k="ssr:stedsnr" v="347380" />
	</node>
	<node id="-487449" lat="60.6704444483" lon="5.11739443554">
		<tag k="historic" v="shieling" />
		<tag k="name" v="Stølane" />
		<tag k="place" v="locality" />
		<tag k="ssr:stedsnr" v="347252" />
	</node>
	<node id="-489496" lat="60.6712138928" lon="5.09729721979">
		<tag k="name" v="Grøna" />
		<tag k="place" v="farm" />
		<tag k="ssr:stedsnr" v="530569" />
	</node>
	<node id="-487443" lat="60.5997861143" lon="5.28426111763">
		<tag k="name" v="Herland" />
		<tag k="place" v="farm" />
		<tag k="ssr:stedsnr" v="347027" />
	</node>
	<node id="-489489" lat="60.7325444427" lon="5.05769999348">
		<tag k="name" v="Skansen" />
		<tag k="place" v="farm" />
		<tag k="ssr:stedsnr" v="530519" />
	</node>
	<node id="-487440" lat="60.5889527807" lon="5.28442221718">
		<tag k="name" v="Hjelmtveit" />
		<tag k="place" v="farm" />
		<tag k="ssr:stedsnr" v="348029" />
	</node>
	<node id="-488792" lat="60.6399847794" lon="5.17709195177">
		<tag k="name" v="Titland" />
		<tag k="place" v="hamlet" />
		<tag k="ssr:stedsnr" v="188235" />
	</node>
	<node id="-489483" lat="60.7845527767" lon="5.0407638958">
		<tag k="name" v="Hope" />
		<tag k="place" v="farm" />
		<tag k="ssr:stedsnr" v="530491" />
	</node>
	<node id="-489482" lat="60.6454000014" lon="5.37921111848">
		<tag k="name" v="Svindal" />
		<tag k="place" v="farm" />
		<tag k="ssr:stedsnr" v="530489" />
	</node>
	<node id="-487430" lat="60.6825749959" lon="5.21927500161">
		<tag k="name" v="Tveitarås" />
		<tag k="place" v="farm" />
		<tag k="ssr:stedsnr" v="328288" />
	</node>
	<node id="-487427" lat="60.7458839763" lon="5.06516475053">
		<tag k="fixme" v="consider place=hamlet" />
		<tag k="name" v="Risøy" />
		<tag k="place" v="farm" />
		<tag k="ssr:stedsnr" v="328152" />
	</node>
	<node id="-487426" lat="60.7349159256" lon="5.13389238859">
		<tag k="fixme" v="consider place=hamlet" />
		<tag k="name" v="Saltnes" />
		<tag k="place" v="farm" />
		<tag k="ssr:stedsnr" v="328143" />
	</node>
	<node id="-490054" lat="60.5887805524" lon="5.39484443998">
		<tag k="alt_name" v="Fylingsnes" />
		<tag k="name" v="Fylingsneset" />
		<tag k="place" v="hamlet" />
		<tag k="ssr:stedsnr" v="674095" />
	</node>
</osm>
