<?xml version="1.0" encoding="UTF-8"?>
<osm generator="osmapis" version="0.6">
	<node id="-489045" lat="60.7065472201" lon="5.28392222471">
		<tag k="name" v="Stortjørnmyra" />
		<tag k="natural" v="wetland" />
		<tag k="ssr:stedsnr" v="590229" />
	</node>
	<node id="-489979" lat="60.7002222202" lon="5.54629165879">
		<tag k="landuse" v="meadow" />
		<tag k="name" v="Flotena" />
		<tag k="ssr:stedsnr" v="833731" />
	</node>
	<node id="-486891" lat="60.7057472243" lon="5.33861389471">
		<tag k="name" v="Tjørnemyrane" />
		<tag k="natural" v="wetland" />
		<tag k="ssr:stedsnr" v="348235" />
	</node>
	<node id="-486880" lat="60.6815611123" lon="5.29071944407">
		<tag k="name" v="Stormyra" />
		<tag k="natural" v="wetland" />
		<tag k="ssr:stedsnr" v="348181" />
	</node>
	<node id="-486879" lat="60.6895722248" lon="5.29734999739">
		<tag k="name" v="Stemmemyrane" />
		<tag k="natural" v="wetland" />
		<tag k="ssr:stedsnr" v="348180" />
	</node>
	<node id="-486874" lat="60.7174694406" lon="5.27454166788">
		<tag k="name" v="Sekkjena" />
		<tag k="natural" v="wetland" />
		<tag k="ssr:stedsnr" v="348152" />
	</node>
	<node id="-488918" lat="60.72871667" lon="5.63627499144">
		<tag k="name" v="Strokedalensmyra" />
		<tag k="natural" v="wetland" />
		<tag k="ssr:stedsnr" v="530940" />
	</node>
	<node id="-488912" lat="60.7726416656" lon="5.63651666165">
		<tag k="name" v="Ospekjerret" />
		<tag k="place" v="locality" />
		<tag k="ssr:stedsnr" v="530875" />
	</node>
	<node id="-488895" lat="60.7073166702" lon="5.53728333816">
		<tag k="name" v="Stallabrotet" />
		<tag k="natural" v="scree" />
		<tag k="ssr:stedsnr" v="530700" />
	</node>
	<node id="-487357" lat="60.7411805556" lon="5.51713055418">
		<tag k="name" v="Sauasteinen" />
		<tag k="natural" v="stone" />
		<tag k="ssr:stedsnr" v="895597" />
	</node>
	<node id="-487354" lat="60.6291583289" lon="5.40097777777">
		<tag k="name" v="Stormyra" />
		<tag k="natural" v="wetland" />
		<tag k="ssr:stedsnr" v="895441" />
	</node>
	<node id="-490399" lat="60.6373194442" lon="5.55387221531">
		<tag k="name" v="Paddemyra" />
		<tag k="natural" v="wetland" />
		<tag k="ssr:stedsnr" v="955560" />
	</node>
	<node id="-489400" lat="60.7862333314" lon="5.62878333415">
		<tag k="name" v="Jungkallmyrane" />
		<tag k="natural" v="wetland" />
		<tag k="ssr:stedsnr" v="651994" />
	</node>
	<node id="-486839" lat="60.6680999972" lon="5.35120833557">
		<tag k="name" v="Austmarka" />
		<tag k="place" v="locality" />
		<tag k="ssr:stedsnr" v="347484" />
	</node>
	<node id="-490420" lat="60.7328944476" lon="5.55026944122">
		<tag k="name" v="Myrane" />
		<tag k="natural" v="wetland" />
		<tag k="ssr:stedsnr" v="955852" />
	</node>
	<node id="-489389" lat="60.7604916648" lon="5.60347500666">
		<tag k="name" v="Kløvsteinane" />
		<tag k="natural" v="stone" />
		<tag k="ssr:stedsnr" v="651887" />
	</node>
	<node id="-486820" lat="60.6410250006" lon="5.33822221634">
		<tag k="landuse" v="meadow" />
		<tag k="name" v="Saukefita" />
		<tag k="ssr:stedsnr" v="348009" />
	</node>
	<node id="-487840" lat="60.6311416636" lon="5.34276944234">
		<tag k="name" v="Stormyra" />
		<tag k="natural" v="wetland" />
		<tag k="ssr:stedsnr" v="106011" />
	</node>
	<node id="-487327" lat="60.734994442" lon="5.65355833905">
		<tag k="name" v="Høydalsmyra" />
		<tag k="natural" v="wetland" />
		<tag k="ssr:stedsnr" v="894987" />
	</node>
	<node id="-487832" lat="60.7330305547" lon="5.62797500184">
		<tag k="name" v="Krokmyrane" />
		<tag k="natural" v="wetland" />
		<tag k="ssr:stedsnr" v="105940" />
	</node>
	<node id="-487822" lat="60.6846333308" lon="5.40816666905">
		<tag k="name" v="Melskogen" />
		<tag k="place" v="locality" />
		<tag k="ssr:stedsnr" v="105613" />
	</node>
	<node id="-488845" lat="60.7239666621" lon="5.2929916608">
		<tag k="name" v="Langemyra" />
		<tag k="natural" v="wetland" />
		<tag k="ssr:stedsnr" v="530384" />
	</node>
	<node id="-489111" lat="60.6731249985" lon="5.40360554886">
		<tag k="name" v="Skogen" />
		<tag k="place" v="locality" />
		<tag k="ssr:stedsnr" v="590577" />
	</node>
	<node id="-488840" lat="60.5984111115" lon="5.38129443895">
		<tag k="name" v="Kjerrena" />
		<tag k="place" v="locality" />
		<tag k="ssr:stedsnr" v="530317" />
	</node>
	<node id="-489329" lat="60.6961416707" lon="5.39464999887">
		<tag k="name" v="Træsvollen" />
		<tag k="place" v="locality" />
		<tag k="ssr:stedsnr" v="651411" />
	</node>
	<node id="-487792" lat="60.7240305553" lon="5.30240554689">
		<tag k="name" v="Porsmyra" />
		<tag k="natural" v="wetland" />
		<tag k="ssr:stedsnr" v="105396" />
	</node>
	<node id="-490350" lat="60.7018388846" lon="5.29253332904">
		<tag k="name" v="Sekkena" />
		<tag k="natural" v="wetland" />
		<tag k="ssr:stedsnr" v="955237" />
	</node>
	<node id="-488290" lat="60.574219444" lon="5.28036666669">
		<tag k="name" v="Bruramyra" />
		<tag k="natural" v="wetland" />
		<tag k="ssr:stedsnr" v="227167" />
	</node>
	<node id="-487258" lat="60.6800111095" lon="5.20255278609">
		<tag k="name" v="Fagrevellena" />
		<tag k="natural" v="wetland" />
		<tag k="ssr:stedsnr" v="894267" />
	</node>
	<node id="-490317" lat="60.6608833361" lon="5.32537222879">
		<tag k="name" v="Sekkena" />
		<tag k="natural" v="wetland" />
		<tag k="ssr:stedsnr" v="955087" />
	</node>
	<node id="-489802" lat="60.6333500021" lon="5.36029721539">
		<tag k="name" v="Høylandsmyr" />
		<tag k="natural" v="wetland" />
		<tag k="ssr:stedsnr" v="773440" />
	</node>
	<node id="-490311" lat="60.8165805578" lon="5.67203610766">
		<tag k="name" v="Rotamyra" />
		<tag k="natural" v="wetland" />
		<tag k="ssr:stedsnr" v="955065" />
	</node>
	<node id="-487990" lat="60.6931444454" lon="5.54318054965">
		<tag k="name" v="Blåsvaena" />
		<tag k="place" v="locality" />
		<tag k="ssr:stedsnr" v="165740" />
	</node>
	<node id="-487745" lat="60.5831861068" lon="5.31905555352">
		<tag k="name" v="Breimyra" />
		<tag k="natural" v="wetland" />
		<tag k="ssr:stedsnr" v="105142" />
	</node>
	<node id="-486716" lat="60.6448888932" lon="5.36952778493">
		<tag k="name" v="Skarsmyra" />
		<tag k="natural" v="wetland" />
		<tag k="ssr:stedsnr" v="288427" />
	</node>
	<node id="-489270" lat="60.6007972201" lon="5.24055832602">
		<tag k="name" v="Måsemyra" />
		<tag k="natural" v="wetland" />
		<tag k="ssr:stedsnr" v="651024" />
	</node>
	<node id="-488244" lat="60.6651333347" lon="5.44043334227">
		<tag k="name" v="Høljamyrane" />
		<tag k="natural" v="wetland" />
		<tag k="ssr:stedsnr" v="226529" />
	</node>
	<node id="-486700" lat="60.8109527824" lon="5.64754722585">
		<tag k="name" v="Urateigen" />
		<tag k="place" v="locality" />
		<tag k="ssr:stedsnr" v="288009" />
	</node>
	<node id="-487201" lat="60.596600001" lon="5.24291666972">
		<tag k="name" v="Stormyrane" />
		<tag k="natural" v="wetland" />
		<tag k="ssr:stedsnr" v="894018" />
	</node>
	<node id="-486678" lat="60.6398027761" lon="5.56521112009">
		<tag k="name" v="Stortorgmyra" />
		<tag k="natural" v="wetland" />
		<tag k="ssr:stedsnr" v="287588" />
	</node>
	<node id="-489603" lat="60.7515666641" lon="5.63517778399">
		<tag k="name" v="Stormyra" />
		<tag k="natural" v="wetland" />
		<tag k="ssr:stedsnr" v="712807" />
	</node>
	<node id="-487691" lat="60.7935444444" lon="5.04936944348">
		<tag k="name" v="Storemyra" />
		<tag k="natural" v="wetland" />
		<tag k="ssr:stedsnr" v="69018" />
	</node>
	<node id="-488184" lat="60.8015111067" lon="5.04121111053">
		<tag k="name" v="Austremyrane" />
		<tag k="natural" v="wetland" />
		<tag k="ssr:stedsnr" v="191008" />
	</node>
	<node id="-489716" lat="60.6623805581" lon="5.41811945207">
		<tag k="name" v="Lunnesteinen" />
		<tag k="natural" v="stone" />
		<tag k="ssr:stedsnr" v="772489" />
	</node>
	<node id="-487137" lat="60.7214833315" lon="5.29378888984">
		<tag k="name" v="Svemyra" />
		<tag k="natural" v="wetland" />
		<tag k="ssr:stedsnr" v="409359" />
	</node>
	<node id="-486618" lat="60.6812666701" lon="5.2811861185">
		<tag k="name" v="Selisteinen" />
		<tag k="natural" v="stone" />
		<tag k="ssr:stedsnr" v="287241" />
	</node>
	<node id="-487641" lat="60.7678111103" lon="5.64252777373">
		<tag k="name" v="Kusteinen" />
		<tag k="natural" v="stone" />
		<tag k="ssr:stedsnr" v="45901" />
	</node>
	<node id="-488663" lat="60.660088889" lon="5.34130277034">
		<tag k="name" v="Kløvemyrane" />
		<tag k="natural" v="wetland" />
		<tag k="ssr:stedsnr" v="470061" />
	</node>
	<node id="-487119" lat="60.7798722227" lon="5.12114444577">
		<tag k="name" v="Kalvetona" />
		<tag k="natural" v="wetland" />
		<tag k="ssr:stedsnr" v="409219" />
	</node>
	<node id="-486606" lat="60.6839277795" lon="5.30888610974">
		<tag k="name" v="Merkesmyra" />
		<tag k="natural" v="wetland" />
		<tag k="ssr:stedsnr" v="287193" />
	</node>
	<node id="-486604" lat="60.7152333332" lon="5.25984999185">
		<tag k="landuse" v="meadow" />
		<tag k="name" v="Småfitjena" />
		<tag k="ssr:stedsnr" v="287180" />
	</node>
	<node id="-489155" lat="60.5872111141" lon="5.19451943996">
		<tag k="name" v="Soltveitmyrane" />
		<tag k="natural" v="wetland" />
		<tag k="ssr:stedsnr" v="591367" />
	</node>
	<node id="-488129" lat="60.7555222196" lon="5.58628889655">
		<tag k="name" v="Træsmyra" />
		<tag k="natural" v="wetland" />
		<tag k="ssr:stedsnr" v="166799" />
	</node>
	<node id="-487029" lat="60.7832277775" lon="5.05196388988">
		<tag k="name" v="Sæmyra" />
		<tag k="natural" v="wetland" />
		<tag k="ssr:stedsnr" v="372239" />
	</node>
	<node id="-488636" lat="60.7021611104" lon="5.56694999806">
		<tag k="name" v="Stormyra" />
		<tag k="natural" v="wetland" />
		<tag k="ssr:stedsnr" v="469743" />
	</node>
	<node id="-486586" lat="60.5763750001" lon="5.33350276916">
		<tag k="landuse" v="peat_cutting" />
		<tag k="name" v="Torvhusa" />
		<tag k="ssr:stedsnr" v="287088" />
	</node>
	<node id="-486577" lat="60.5969583304" lon="5.23710278403">
		<tag k="name" v="Godmyra" />
		<tag k="natural" v="wetland" />
		<tag k="ssr:stedsnr" v="287010" />
	</node>
	<node id="-488109" lat="60.6410611107" lon="5.36296665921">
		<tag k="name" v="Kjerrena" />
		<tag k="place" v="locality" />
		<tag k="ssr:stedsnr" v="166481" />
	</node>
	<node id="-488103" lat="60.7841638909" lon="5.05414722999">
		<tag k="name" v="Langura" />
		<tag k="natural" v="scree" />
		<tag k="ssr:stedsnr" v="166462" />
	</node>
	<node id="-487793" lat="60.7194861089" lon="5.25720278055">
		<tag k="landuse" v="meadow" />
		<tag k="name" v="Storafitjena" />
		<tag k="ssr:stedsnr" v="105402" />
	</node>
	<node id="-487586" lat="60.648461108" lon="5.4619888967">
		<tag k="name" v="Dammen" />
		<tag k="natural" v="wetland" />
		<tag k="ssr:stedsnr" v="45416" />
	</node>
	<node id="-489121" lat="60.7127305526" lon="5.53823611543">
		<tag k="name" v="Olderkjerret" />
		<tag k="place" v="locality" />
		<tag k="ssr:stedsnr" v="590711" />
	</node>
	<node id="-487575" lat="60.554877779" lon="5.27553332429">
		<tag k="name" v="Orresteinen" />
		<tag k="natural" v="stone" />
		<tag k="ssr:stedsnr" v="45236" />
	</node>
	<node id="-487790" lat="60.7270472182" lon="5.29165832583">
		<tag k="name" v="Stormyra" />
		<tag k="natural" v="wetland" />
		<tag k="ssr:stedsnr" v="105389" />
	</node>
	<node id="-489617" lat="60.7664999962" lon="5.60621111289">
		<tag k="name" v="Hengjesteinen" />
		<tag k="natural" v="stone" />
		<tag k="ssr:stedsnr" v="712923" />
	</node>
	<node id="-487566" lat="60.7349944428" lon="5.18142778395">
		<tag k="name" v="Lindura" />
		<tag k="natural" v="scree" />
		<tag k="ssr:stedsnr" v="45191" />
	</node>
	<node id="-487555" lat="60.676922218" lon="5.30925833255">
		<tag k="name" v="Søra Loftsmyra" />
		<tag k="natural" v="wetland" />
		<tag k="ssr:stedsnr" v="45162" />
	</node>
	<node id="-488065" lat="60.5925972253" lon="5.39891944428">
		<tag k="name" v="Gangstømyra" />
		<tag k="natural" v="wetland" />
		<tag k="ssr:stedsnr" v="166282" />
	</node>
	<node id="-490102" lat="60.7258805513" lon="5.54137777061">
		<tag k="name" v="Storura" />
		<tag k="natural" v="scree" />
		<tag k="ssr:stedsnr" v="834832" />
	</node>
	<node id="-487541" lat="60.6988361151" lon="5.53529999202">
		<tag k="name" v="Nonsteinane" />
		<tag k="natural" v="stone" />
		<tag k="ssr:stedsnr" v="44722" />
	</node>
	<node id="-489571" lat="60.6570916632" lon="5.44939166603">
		<tag k="name" v="Pittjordsmyra" />
		<tag k="natural" v="wetland" />
		<tag k="ssr:stedsnr" v="712436" />
	</node>
	<node id="-489570" lat="60.7857972222" lon="5.04915278011">
		<tag k="name" v="Semyra" />
		<tag k="natural" v="wetland" />
		<tag k="ssr:stedsnr" v="712435" />
	</node>
	<node id="-490079" lat="60.6854833335" lon="5.41115832741">
		<tag k="name" v="Gjelsvikmyrane" />
		<tag k="natural" v="wetland" />
		<tag k="ssr:stedsnr" v="834607" />
	</node>
	<node id="-490074" lat="60.6429138904" lon="5.5502472216">
		<tag k="name" v="Ospakjerret" />
		<tag k="place" v="locality" />
		<tag k="ssr:stedsnr" v="834549" />
	</node>
	<node id="-488024" lat="60.565558336" lon="5.24544721811">
		<tag k="name" v="Breimyra" />
		<tag k="natural" v="wetland" />
		<tag k="ssr:stedsnr" v="166110" />
	</node>
	<node id="-488533" lat="60.8030388889" lon="5.62992499312">
		<tag k="name" v="Svaena" />
		<tag k="place" v="locality" />
		<tag k="ssr:stedsnr" v="469061" />
	</node>
	<node id="-489555" lat="60.7270999957" lon="5.31504165912">
		<tag k="name" v="Langamyra" />
		<tag k="natural" v="wetland" />
		<tag k="ssr:stedsnr" v="712343" />
	</node>
	<node id="-489552" lat="60.5724277803" lon="5.35698611809">
		<tag k="name" v="Patemyr" />
		<tag k="natural" v="wetland" />
		<tag k="ssr:stedsnr" v="712315" />
	</node>
	<node id="-490424" lat="60.7644111129" lon="5.62424167068">
		<tag k="name" v="Nyutlødalsmyra" />
		<tag k="natural" v="wetland" />
		<tag k="ssr:stedsnr" v="955883" />
	</node>
	<node id="-488518" lat="60.6026333378" lon="5.23750555838">
		<tag k="name" v="Heiabergmyra" />
		<tag k="natural" v="wetland" />
		<tag k="ssr:stedsnr" v="469019" />
	</node>
	<node id="-487492" lat="60.5720249969" lon="5.28428611157">
		<tag k="name" v="Mosura" />
		<tag k="natural" v="scree" />
		<tag k="ssr:stedsnr" v="44165" />
	</node>
	<node id="-488515" lat="60.8092416681" lon="5.64467499438">
		<tag k="name" v="Trollsura" />
		<tag k="natural" v="scree" />
		<tag k="ssr:stedsnr" v="469004" />
	</node>
	<node id="-487999" lat="60.6042416653" lon="5.2419333392">
		<tag k="name" v="Storamyra" />
		<tag k="natural" v="wetland" />
		<tag k="ssr:stedsnr" v="166014" />
	</node>
	<node id="-487996" lat="60.7989277815" lon="5.67931110898">
		<tag k="name" v="Altervollane" />
		<tag k="place" v="locality" />
		<tag k="ssr:stedsnr" v="165903" />
	</node>
	<node id="-486969" lat="60.7217222209" lon="5.54251388326">
		<tag k="name" v="Smogura" />
		<tag k="natural" v="scree" />
		<tag k="ssr:stedsnr" v="348817" />
	</node>
	<node id="-489016" lat="60.5598416675" lon="5.28942222001">
		<tag k="name" v="Revura" />
		<tag k="natural" v="scree" />
		<tag k="ssr:stedsnr" v="590082" />
	</node>
	<node id="-487478" lat="60.5555111106" lon="5.31435278333">
		<tag k="name" v="Krabbura" />
		<tag k="natural" v="scree" />
		<tag k="ssr:stedsnr" v="44107" />
	</node>
	<node id="-487988" lat="60.7129416654" lon="5.54495000908">
		<tag k="name" v="Klungermyra" />
		<tag k="natural" v="wetland" />
		<tag k="ssr:stedsnr" v="165732" />
	</node>
	<node id="-489989" lat="60.6425138899" lon="5.31892223062">
		<tag k="name" v="Myrbærmyra" />
		<tag k="natural" v="wetland" />
		<tag k="ssr:stedsnr" v="834067" />
	</node>
</osm>
