<?xml version="1.0" encoding="UTF-8"?>
<osm generator="osmapis" version="0.6">
	<node id="-488127" lat="60.6887722265" lon="5.11918889227">
		<tag k="alt_name" v="Lygra" />
		<tag k="amenity" v="place_of_worship" />
		<tag k="denomination" v="lutheran" />
		<tag k="name" v="Lygra kyrkje" />
		<tag k="religion" v="christian" />
		<tag k="ssr:stedsnr" v="44262" />
	</node>
	<node id="-487389" lat="60.5720583293" lon="5.23329999715">
		<tag k="alt_name" v="Alversund" />
		<tag k="amenity" v="place_of_worship" />
		<tag k="denomination" v="lutheran" />
		<tag k="name" v="Alversund kyrkje" />
		<tag k="religion" v="christian" />
		<tag k="ssr:stedsnr" v="309136" />
	</node>
	<node id="-490747" lat="60.6167833316" lon="5.27685555347">
		<tag k="alt_name" v="Seim" />
		<tag k="amenity" v="place_of_worship" />
		<tag k="denomination" v="lutheran" />
		<tag k="name" v="Seim kyrkje" />
		<tag k="religion" v="christian" />
		<tag k="ssr:stedsnr" v="856055" />
	</node>
	<node id="-488013" lat="60.5493437532" lon="5.28814901136">
		<tag k="amenity" v="place_of_worship" />
		<tag k="denomination" v="lutheran" />
		<tag k="name" v="Knarvik kyrkje" />
		<tag k="religion" v="christian" />
		<tag k="ssr:stedsnr" v="990954" />
	</node>
	<node id="-489075" lat="60.6751694471" lon="5.2158222169">
		<tag k="alt_name" v="Hundvin" />
		<tag k="amenity" v="place_of_worship" />
		<tag k="denomination" v="lutheran" />
		<tag k="name" v="Hundvin kyrkje" />
		<tag k="religion" v="christian" />
		<tag k="ssr:stedsnr" v="431255" />
	</node>
	<node id="-490829" lat="60.7368666628" lon="5.1591250037">
		<tag k="alt_name" v="Lindås" />
		<tag k="amenity" v="place_of_worship" />
		<tag k="denomination" v="lutheran" />
		<tag k="name" v="Lindås kyrkje" />
		<tag k="religion" v="christian" />
		<tag k="ssr:stedsnr" v="916667" />
	</node>
	<node id="-488043" lat="60.6986083307" lon="5.58529444668">
		<tag k="alt_name" v="Vike" />
		<tag k="amenity" v="place_of_worship" />
		<tag k="denomination" v="lutheran" />
		<tag k="name" v="Vike kyrkje" />
		<tag k="old_name" v="Ostereide" />
		<tag k="religion" v="christian" />
		<tag k="ssr:stedsnr" v="6275" />
	</node>
	<node id="-490026" lat="60.7000333343" lon="5.32536944597">
		<tag k="alt_name" v="Myking" />
		<tag k="amenity" v="place_of_worship" />
		<tag k="denomination" v="lutheran" />
		<tag k="name" v="Myking kyrkje" />
		<tag k="religion" v="christian" />
		<tag k="ssr:stedsnr" v="673154" />
	</node>
	<node id="-490727" lat="60.6264749979" lon="5.48727499997">
		<tag k="alt_name" v="Ostereidet" />
		<tag k="amenity" v="place_of_worship" />
		<tag k="denomination" v="lutheran" />
		<tag k="name" v="Ostereidet kyrkje" />
		<tag k="religion" v="christian" />
		<tag k="ssr:stedsnr" v="846339" />
	</node>
</osm>
