<?xml version="1.0" encoding="UTF-8"?>
<osm generator="osmapis" version="0.6">
	<node id="-487424" lat="60.5434916692" lon="5.29770278217">
		<tag k="name" v="Kvassneset" />
		<tag k="natural" v="cape" />
		<tag k="ssr:stedsnr" v="327513" />
	</node>
	<node id="-487423" lat="60.7777722237" lon="5.15141666284">
		<tag k="name" v="Storebukttangen" />
		<tag k="natural" v="cape" />
		<tag k="ssr:stedsnr" v="105202" />
	</node>
	<node id="-489470" lat="60.6996444458" lon="5.42615833153">
		<tag k="name" v="Neset" />
		<tag k="natural" v="cape" />
		<tag k="ssr:stedsnr" v="530431" />
	</node>
	<node id="-489469" lat="60.6932694448" lon="5.43774721968">
		<tag k="name" v="Djuvvika" />
		<tag k="natural" v="bay" />
		<tag k="ssr:stedsnr" v="530429" />
	</node>
	<node id="-489468" lat="60.7018124605" lon="5.39466963026">
		<tag k="name" v="Søreholmen" />
		<tag k="place" v="islet" />
		<tag k="ssr:stedsnr" v="530417" />
	</node>
	<node id="-489465" lat="60.5847666677" lon="5.18593889654">
		<tag k="name" v="Vika" />
		<tag k="natural" v="bay" />
		<tag k="ssr:stedsnr" v="530401" />
	</node>
	<node id="-489464" lat="60.7335249987" lon="5.27769999665">
		<tag k="name" v="Nothusholmen" />
		<tag k="place" v="islet" />
		<tag k="ssr:stedsnr" v="530395" />
	</node>
	<node id="-489460" lat="60.6495638885" lon="5.2052583376">
		<tag k="name" v="Litloksevika" />
		<tag k="natural" v="bay" />
		<tag k="ssr:stedsnr" v="530375" />
	</node>
	<node id="-489459" lat="60.5803250017" lon="5.38136667048">
		<tag k="name" v="Kråka" />
		<tag k="place" v="island" />
		<tag k="ssr:stedsnr" v="530373" />
	</node>
	<node id="-489457" lat="60.6015833378" lon="5.40689722525">
		<tag k="name" v="Grimsneset" />
		<tag k="natural" v="cape" />
		<tag k="ssr:stedsnr" v="530325" />
	</node>
	<node id="-487408" lat="60.7226555524" lon="5.36507777758">
		<tag k="bay" v="fjord" />
		<tag k="name" v="Austfjorden" />
		<tag k="natural" v="bay" />
		<tag k="ssr:stedsnr" v="309687" />
	</node>
	<node id="-487407" lat="60.696213891" lon="5.06120277073">
		<tag k="name" v="Krosshamna" />
		<tag k="natural" v="bay" />
		<tag k="ssr:stedsnr" v="309737" />
	</node>
	<node id="-489454" lat="60.5977666629" lon="5.41828054733">
		<tag k="name" v="Smalneset" />
		<tag k="natural" v="cape" />
		<tag k="ssr:stedsnr" v="530304" />
	</node>
	<node id="-489453" lat="60.6013027813" lon="5.4480250008">
		<tag k="name" v="Kalneset" />
		<tag k="natural" v="cape" />
		<tag k="ssr:stedsnr" v="530301" />
	</node>
	<node id="-489450" lat="60.7001416621" lon="5.33609443688">
		<tag k="fixme" v="consider seamark:type=rock or natural=shoal" />
		<tag k="name" v="Kobbeskjeret" />
		<tag k="place" v="islet" />
		<tag k="ssr:stedsnr" v="530270" />
	</node>
	<node id="-489449" lat="60.717375001" lon="5.15544165908">
		<tag k="name" v="Klumpholmen" />
		<tag k="place" v="islet" />
		<tag k="ssr:stedsnr" v="530265" />
	</node>
	<node id="-489448" lat="60.727302775" lon="5.14157500421">
		<tag k="bay" v="fjord" />
		<tag k="name" v="Osane" />
		<tag k="natural" v="bay" />
		<tag k="ssr:stedsnr" v="530263" />
	</node>
	<node id="-487420" lat="60.7391113102" lon="4.99778371066">
		<tag k="name" v="Flatholmen" />
		<tag k="place" v="islet" />
		<tag k="ssr:stedsnr" v="327179" />
	</node>
	<node id="-487394" lat="60.721530275" lon="5.19990641742">
		<tag k="alt_name" v="Fjellangervågen" />
		<tag k="name" v="Fjellangsvågen" />
		<tag k="natural" v="bay" />
		<tag k="ssr:stedsnr" v="309199" />
	</node>
	<node id="-487393" lat="60.6750249959" lon="5.15261665929">
		<tag k="name" v="Toptingasundet" />
		<tag k="natural" v="strait" />
		<tag k="ssr:stedsnr" v="309188" />
	</node>
	<node id="-487392" lat="60.6763138853" lon="5.12680556494">
		<tag k="alt_name" v="Nordre Langenesvågen" />
		<tag k="name" v="Austvågen" />
		<tag k="natural" v="bay" />
		<tag k="ssr:stedsnr" v="309184" />
	</node>
	<node id="-489439" lat="60.7475722222" lon="5.22278889444">
		<tag k="name" v="Skjelvika" />
		<tag k="natural" v="bay" />
		<tag k="ssr:stedsnr" v="530233" />
	</node>
	<node id="-487390" lat="60.711000003" lon="5.38000833573">
		<tag k="name" v="Flustaken" />
		<tag k="natural" v="shoal" />
		<tag k="place" v="locality" />
		<tag k="ssr:stedsnr" v="309138" />
	</node>
	<node id="-489436" lat="60.7492361067" lon="5.24081111082">
		<tag k="name" v="Søre Hånesholmen" />
		<tag k="place" v="islet" />
		<tag k="ssr:stedsnr" v="530229" />
	</node>
	<node id="-487417" lat="60.7738277774" lon="5.16000833799">
		<tag k="name" v="Skjelvika" />
		<tag k="natural" v="bay" />
		<tag k="ssr:stedsnr" v="312660" />
	</node>
	<node id="-487377" lat="60.6354758235" lon="5.1727253927">
		<tag k="name" v="Søre Juvvika" />
		<tag k="natural" v="bay" />
		<tag k="ssr:stedsnr" v="45349" />
	</node>
	<node id="-489424" lat="60.7283166622" lon="5.28125832565">
		<tag k="name" v="Åsvika" />
		<tag k="natural" v="bay" />
		<tag k="ssr:stedsnr" v="530160" />
	</node>
	<node id="-489419" lat="60.6532555528" lon="5.24624721785">
		<tag k="name" v="Klungertona" />
		<tag k="natural" v="cape" />
		<tag k="ssr:stedsnr" v="530134" />
	</node>
	<node id="-489415" lat="60.6204499985" lon="5.25241388108">
		<tag k="name" v="Gardvika" />
		<tag k="natural" v="bay" />
		<tag k="ssr:stedsnr" v="530115" />
	</node>
	<node id="-488779" lat="60.6412388883" lon="5.39457500444">
		<tag k="name" v="Ørnneset" />
		<tag k="natural" v="cape" />
		<tag k="ssr:stedsnr" v="188037" />
	</node>
	<node id="-489847" lat="60.7475638883" lon="5.07068332807">
		<tag k="name" v="Austresundholmane" />
		<tag k="place" v="islet" />
		<tag k="ssr:stedsnr" v="631145" />
	</node>
	<node id="-489574" lat="60.7036963404" lon="5.16506776772">
		<tag k="name" v="Vestrevågen" />
		<tag k="natural" v="bay" />
		<tag k="ssr:stedsnr" v="552169" />
	</node>
	<node id="-489391" lat="60.6978250013" lon="5.57328610867">
		<tag k="name" v="Sauvika" />
		<tag k="natural" v="bay" />
		<tag k="ssr:stedsnr" v="529708" />
	</node>
	<node id="-489382" lat="60.6575972243" lon="5.37284444098">
		<tag k="name" v="Fuglevika" />
		<tag k="natural" v="bay" />
		<tag k="ssr:stedsnr" v="529289" />
	</node>
	<node id="-489378" lat="60.6694138874" lon="5.45079443555">
		<tag k="name" v="Kallhella" />
		<tag k="natural" v="cape" />
		<tag k="ssr:stedsnr" v="529248" />
	</node>
	<node id="-489377" lat="60.6737722215" lon="5.44058611244">
		<tag k="name" v="Velandskjele" />
		<tag k="natural" v="bay" />
		<tag k="ssr:stedsnr" v="529249" />
	</node>
	<node id="-487328" lat="60.5452333374" lon="5.27200000561">
		<tag k="name" v="Hagelsundet" />
		<tag k="natural" v="strait" />
		<tag k="ssr:stedsnr" v="288157" />
	</node>
	<node id="-489371" lat="60.6882500011" lon="5.1825083359">
		<tag k="alt_name" v="Håvardsvika, s" />
		<tag k="name" v="Søre Håvardsvika" />
		<tag k="natural" v="bay" />
		<tag k="ssr:stedsnr" v="526136" />
	</node>
	<node id="-489370" lat="60.6391166653" lon="5.27131389549">
		<tag k="name" v="Fastholmen" />
		<tag k="place" v="islet" />
		<tag k="ssr:stedsnr" v="529038" />
	</node>
	<node id="-489369" lat="60.655111111" lon="5.19973611035">
		<tag k="name" v="Handdragvik" />
		<tag k="natural" v="bay" />
		<tag k="ssr:stedsnr" v="511884" />
	</node>
	<node id="-489368" lat="60.820725004" lon="5.0108749997">
		<tag k="fixme" v="consider seamark:type=rock or natural=shoal" />
		<tag k="name" v="Kvalskjeret" />
		<tag k="place" v="islet" />
		<tag k="ssr:stedsnr" v="510779" />
	</node>
	<node id="-489367" lat="60.6967083344" lon="5.10957500464">
		<tag k="name" v="Naustevik" />
		<tag k="natural" v="bay" />
		<tag k="ssr:stedsnr" v="510271" />
	</node>
	<node id="-489366" lat="60.7939534212" lon="4.99693414933">
		<tag k="name" v="Notholmen" />
		<tag k="place" v="islet" />
		<tag k="ssr:stedsnr" v="510169" />
	</node>
	<node id="-489365" lat="60.7719976262" lon="5.01386413706">
		<tag k="fixme" v="consider seamark:type=rock or natural=shoal" />
		<tag k="name" v="Vauleskjeret" />
		<tag k="place" v="islet" />
		<tag k="ssr:stedsnr" v="510167" />
	</node>
	<node id="-489363" lat="60.7146888859" lon="5.11835277655">
		<tag k="name" v="Mikkelvågen" />
		<tag k="natural" v="bay" />
		<tag k="ssr:stedsnr" v="509327" />
	</node>
	<node id="-487314" lat="60.7228027731" lon="5.64051388117">
		<tag k="name" v="Einevika" />
		<tag k="natural" v="bay" />
		<tag k="ssr:stedsnr" v="287961" />
	</node>
	<node id="-489361" lat="60.770563887" lon="5.10842777718">
		<tag k="name" v="Drageneset" />
		<tag k="natural" v="cape" />
		<tag k="ssr:stedsnr" v="494947" />
	</node>
	<node id="-489360" lat="60.766724999" lon="5.11648055019">
		<tag k="name" v="Gausvågen" />
		<tag k="natural" v="bay" />
		<tag k="ssr:stedsnr" v="494678" />
	</node>
	<node id="-489359" lat="60.7641000031" lon="5.18311387994">
		<tag k="alt_name" v="Raudholmane" />
		<tag k="name" v="Raudholmen" />
		<tag k="place" v="islet" />
		<tag k="ssr:stedsnr" v="494665" />
	</node>
	<node id="-487310" lat="60.6969944405" lon="5.57671388133">
		<tag k="name" v="Midtneset" />
		<tag k="natural" v="cape" />
		<tag k="ssr:stedsnr" v="287722" />
	</node>
	<node id="-487307" lat="60.6578689217" lon="5.57810244798">
		<tag k="name" v="Snappholneset" />
		<tag k="natural" v="cape" />
		<tag k="ssr:stedsnr" v="287658" />
	</node>
	<node id="-489353" lat="60.7579333293" lon="5.04708611841">
		<tag k="alt_name" v="Risaosen" />
		<tag k="bay" v="fjord" />
		<tag k="name" v="Risasjøen" />
		<tag k="natural" v="bay" />
		<tag k="ssr:stedsnr" v="494153" />
	</node>
	<node id="-487301" lat="60.689391669" lon="5.1106861114">
		<tag k="name" v="Utlurvågen" />
		<tag k="natural" v="bay" />
		<tag k="ssr:stedsnr" v="287601" />
	</node>
	<node id="-487299" lat="60.737427775" lon="5.08193055889">
		<tag k="name" v="Bøholmen" />
		<tag k="place" v="islet" />
		<tag k="ssr:stedsnr" v="287596" />
	</node>
	<node id="-489346" lat="60.8003416662" lon="5.06440833496">
		<tag k="alt_name" v="Skåten" />
		<tag k="fixme" v="consider seamark:type=rock or natural=shoal" />
		<tag k="name" v="Skoten" />
		<tag k="place" v="islet" />
		<tag k="ssr:stedsnr" v="493007" />
	</node>
	<node id="-489342" lat="60.6857666668" lon="5.09198055017">
		<tag k="name" v="Sandsundet" />
		<tag k="natural" v="strait" />
		<tag k="ssr:stedsnr" v="491754" />
	</node>
	<node id="-489341" lat="60.7024444463" lon="5.08729167316">
		<tag k="alt_name" v="Kalvsundet" />
		<tag k="name" v="Kalvssundet" />
		<tag k="natural" v="strait" />
		<tag k="ssr:stedsnr" v="491739" />
	</node>
	<node id="-487288" lat="60.7215055515" lon="5.09353333967">
		<tag k="name" v="Straumsøyna" />
		<tag k="place" v="island" />
		<tag k="ssr:stedsnr" v="287536" />
	</node>
	<node id="-487287" lat="60.7372750003" lon="5.06592777247">
		<tag k="name" v="Skrubbholmen" />
		<tag k="place" v="islet" />
		<tag k="ssr:stedsnr" v="287532" />
	</node>
	<node id="-487283" lat="60.7914805587" lon="4.99613611606">
		<tag k="name" v="Midttangvågen" />
		<tag k="natural" v="bay" />
		<tag k="ssr:stedsnr" v="287503" />
	</node>
	<node id="-489329" lat="60.5414972186" lon="5.28800555469">
		<tag k="name" v="Knarvik" />
		<tag k="natural" v="bay" />
		<tag k="ssr:stedsnr" v="491427" />
	</node>
	<node id="-489328" lat="60.6612933914" lon="5.36079836533">
		<tag k="name" v="Haugsholmane" />
		<tag k="place" v="islet" />
		<tag k="ssr:stedsnr" v="491200" />
	</node>
	<node id="-487278" lat="60.8159527758" lon="5.04043055584">
		<tag k="name" v="Gjetneset" />
		<tag k="natural" v="cape" />
		<tag k="ssr:stedsnr" v="287463" />
	</node>
	<node id="-487277" lat="60.8172861069" lon="5.01403888021">
		<tag k="alt_name" v="Ternholmen" />
		<tag k="name" v="Tennholmen" />
		<tag k="place" v="islet" />
		<tag k="ssr:stedsnr" v="287461" />
	</node>
	<node id="-489324" lat="60.6969805528" lon="5.09844444824">
		<tag k="name" v="Luro" />
		<tag k="place" v="island" />
		<tag k="ssr:stedsnr" v="491186" />
	</node>
	<node id="-489323" lat="60.7233333374" lon="5.34672778478">
		<tag k="name" v="Kråka" />
		<tag k="place" v="islet" />
		<tag k="ssr:stedsnr" v="491179" />
	</node>
	<node id="-487274" lat="60.5783361118" lon="5.22620555111">
		<tag k="name" v="Geitøyna" />
		<tag k="place" v="island" />
		<tag k="ssr:stedsnr" v="287437" />
	</node>
	<node id="-489321" lat="60.6825166654" lon="5.10208612016">
		<tag k="alt_name" v="Salhus" />
		<tag k="name" v="Salhuset" />
		<tag k="place" v="island" />
		<tag k="ssr:stedsnr" v="491168" />
	</node>
	<node id="-489320" lat="60.6846555546" lon="5.38243611054">
		<tag k="name" v="Langholmen" />
		<tag k="place" v="islet" />
		<tag k="ssr:stedsnr" v="491159" />
	</node>
	<node id="-489319" lat="60.6849333301" lon="5.44631389494">
		<tag k="name" v="Dyrdalsneset" />
		<tag k="natural" v="cape" />
		<tag k="ssr:stedsnr" v="491152" />
	</node>
	<node id="-489317" lat="60.5658499998" lon="5.21785833988">
		<tag k="name" v="Radtangen" />
		<tag k="natural" v="cape" />
		<tag k="ssr:stedsnr" v="491078" />
	</node>
	<node id="-487264" lat="60.5760055514" lon="5.37823888946">
		<tag k="name" v="Fløsviknakken" />
		<tag k="natural" v="cape" />
		<tag k="ssr:stedsnr" v="287383" />
	</node>
	<node id="-487261" lat="60.699394446" lon="5.14595278538">
		<tag k="name" v="Dordihusvika" />
		<tag k="natural" v="bay" />
		<tag k="ssr:stedsnr" v="287337" />
	</node>
	<node id="-487257" lat="60.6478333329" lon="5.38794721647">
		<tag k="name" v="Apalvika" />
		<tag k="natural" v="bay" />
		<tag k="ssr:stedsnr" v="287324" />
	</node>
	<node id="-487255" lat="60.7060222221" lon="5.15928612003">
		<tag k="fixme" v="consider seamark:type=rock or natural=shoal" />
		<tag k="name" v="Gamlanaustskjeret" />
		<tag k="place" v="islet" />
		<tag k="ssr:stedsnr" v="287319" />
	</node>
	<node id="-487254" lat="60.711008336" lon="5.17982221437">
		<tag k="name" v="Neset" />
		<tag k="natural" v="cape" />
		<tag k="ssr:stedsnr" v="287316" />
	</node>
	<node id="-487253" lat="60.6792666652" lon="5.14406944786">
		<tag k="name" v="Tjørnnesklumpen" />
		<tag k="natural" v="cape" />
		<tag k="ssr:stedsnr" v="287306" />
	</node>
	<node id="-487243" lat="60.7120555545" lon="5.34353611973">
		<tag k="name" v="Likulten" />
		<tag k="natural" v="shoal" />
		<tag k="place" v="locality" />
		<tag k="ssr:stedsnr" v="287254" />
	</node>
	<node id="-489290" lat="60.6654305517" lon="5.1797499945">
		<tag k="name" v="Gardsendvika" />
		<tag k="natural" v="bay" />
		<tag k="ssr:stedsnr" v="470320" />
	</node>
	<node id="-487241" lat="60.7216888866" lon="5.14160554863">
		<tag k="name" v="Lauvholmen" />
		<tag k="place" v="islet" />
		<tag k="ssr:stedsnr" v="287248" />
	</node>
	<node id="-489287" lat="60.6441940211" lon="5.14209999315">
		<tag k="name" v="Ospevika" />
		<tag k="natural" v="bay" />
		<tag k="ssr:stedsnr" v="470308" />
	</node>
	<node id="-489286" lat="60.6330638853" lon="5.22789445246">
		<tag k="name" v="Storsteinvika" />
		<tag k="natural" v="bay" />
		<tag k="ssr:stedsnr" v="470301" />
	</node>
	<node id="-489285" lat="60.6389861091" lon="5.21579443826">
		<tag k="name" v="Pollneset" />
		<tag k="natural" v="cape" />
		<tag k="ssr:stedsnr" v="470299" />
	</node>
	<node id="-487233" lat="60.7737416699" lon="5.15253332609">
		<tag k="name" v="Langøyna" />
		<tag k="natural" v="beach" />
		<tag k="place" v="locality" />
		<tag k="ssr:stedsnr" v="287216" />
	</node>
	<node id="-487230" lat="60.7191638877" lon="5.18602499743">
		<tag k="name" v="Haugsneset" />
		<tag k="natural" v="cape" />
		<tag k="ssr:stedsnr" v="287202" />
	</node>
	<node id="-487226" lat="60.7166694419" lon="5.12862500241">
		<tag k="name" v="Vågane" />
		<tag k="natural" v="bay" />
		<tag k="ssr:stedsnr" v="287191" />
	</node>
	<node id="-487391" lat="60.6840611119" lon="5.11286110794">
		<tag k="name" v="Lurosen" />
		<tag k="natural" v="strait" />
		<tag k="ssr:stedsnr" v="309152" />
	</node>
	<node id="-487224" lat="60.7625750039" lon="5.18491389009">
		<tag k="name" v="Lyngholmen" />
		<tag k="place" v="islet" />
		<tag k="ssr:stedsnr" v="287179" />
	</node>
	<node id="-487222" lat="60.7729555547" lon="5.14440278571">
		<tag k="name" v="Skumvika" />
		<tag k="natural" v="bay" />
		<tag k="ssr:stedsnr" v="287169" />
	</node>
	<node id="-487211" lat="60.6366361152" lon="5.23777500314">
		<tag k="name" v="Pålsholet" />
		<tag k="natural" v="bay" />
		<tag k="ssr:stedsnr" v="287102" />
	</node>
	<node id="-489257" lat="60.6717000015" lon="5.46861943726">
		<tag k="name" v="Naustvika" />
		<tag k="natural" v="bay" />
		<tag k="ssr:stedsnr" v="469754" />
	</node>
	<node id="-487388" lat="60.5907777787" lon="5.21439445002">
		<tag k="name" v="Årsholmen" />
		<tag k="place" v="islet" />
		<tag k="ssr:stedsnr" v="309105" />
	</node>
	<node id="-487206" lat="60.6479666623" lon="5.25458888099">
		<tag k="name" v="Vikane" />
		<tag k="natural" v="bay" />
		<tag k="ssr:stedsnr" v="287059" />
	</node>
	<node id="-487202" lat="60.7638416691" lon="5.11273055179">
		<tag k="name" v="Gjerdvågstraumen" />
		<tag k="natural" v="strait" />
		<tag k="ssr:stedsnr" v="287032" />
	</node>
	<node id="-487399" lat="60.6725750009" lon="5.12271389421">
		<tag k="alt_name" v="Bergfjordsfjorden" />
		<tag k="bay" v="fjord" />
		<tag k="name" v="Berfjord" />
		<tag k="natural" v="bay" />
		<tag k="ssr:stedsnr" v="309262" />
	</node>
	<node id="-487376" lat="60.6452805592" lon="5.1385777742">
		<tag k="name" v="Haukåsneset" />
		<tag k="natural" v="cape" />
		<tag k="ssr:stedsnr" v="45347" />
	</node>
	<node id="-489239" lat="60.6815805541" lon="5.10861666638">
		<tag k="name" v="Lushola" />
		<tag k="natural" v="bay" />
		<tag k="ssr:stedsnr" v="469590" />
	</node>
	<node id="-489237" lat="60.7446805524" lon="5.06868333569">
		<tag k="name" v="Austreneset" />
		<tag k="natural" v="cape" />
		<tag k="ssr:stedsnr" v="469582" />
	</node>
	<node id="-489235" lat="60.676591922" lon="5.0885494684">
		<tag k="alt_name" v="Vestre Eidsvika" />
		<tag k="name" v="Vestra Eidsvika" />
		<tag k="natural" v="bay" />
		<tag k="ssr:stedsnr" v="469570" />
	</node>
	<node id="-489234" lat="60.6697416634" lon="5.10766111381">
		<tag k="name" v="Øytangane" />
		<tag k="natural" v="cape" />
		<tag k="ssr:stedsnr" v="469567" />
	</node>
	<node id="-489229" lat="60.6651528615" lon="5.36008272303">
		<tag k="fixme" v="consider seamark:type=rock or natural=shoal" />
		<tag k="loc_name" v="Kobbaskjeret" />
		<tag k="name" v="Kobbaskjæret" />
		<tag k="place" v="islet" />
		<tag k="ssr:stedsnr" v="469525" />
	</node>
	<node id="-489226" lat="60.729369448" lon="5.0647583412">
		<tag k="name" v="Dragøyholmane" />
		<tag k="place" v="islet" />
		<tag k="ssr:stedsnr" v="469521" />
	</node>
	<node id="-489225" lat="60.7229972269" lon="5.08990000411">
		<tag k="name" v="Kjerringastraumen" />
		<tag k="natural" v="strait" />
		<tag k="ssr:stedsnr" v="469506" />
	</node>
	<node id="-489222" lat="60.7806133071" lon="5.0259890857">
		<tag k="name" v="Vestre Aurevika" />
		<tag k="natural" v="bay" />
		<tag k="ssr:stedsnr" v="469502" />
	</node>
	<node id="-489218" lat="60.7716361074" lon="5.10006944439">
		<tag k="name" v="Nordre Lauvåsvika" />
		<tag k="natural" v="bay" />
		<tag k="ssr:stedsnr" v="469479" />
	</node>
	<node id="-489217" lat="60.7034472187" lon="5.60529723123">
		<tag k="name" v="Botsholmneset" />
		<tag k="natural" v="cape" />
		<tag k="ssr:stedsnr" v="469468" />
	</node>
	<node id="-488746" lat="60.6912722181" lon="5.58341110573">
		<tag k="name" v="Kolavika" />
		<tag k="natural" v="bay" />
		<tag k="ssr:stedsnr" v="166756" />
	</node>
	<node id="-489210" lat="60.7023472229" lon="5.42192500229">
		<tag k="alt_name" v="Skoravika, nordre" />
		<tag k="name" v="Nordre Skoravika" />
		<tag k="natural" v="bay" />
		<tag k="ssr:stedsnr" v="469417" />
	</node>
	<node id="-489209" lat="60.5764638881" lon="5.19848611063">
		<tag k="fixme" v="consider seamark:type=rock or natural=shoal" />
		<tag k="name" v="Kverneskjera" />
		<tag k="place" v="islet" />
		<tag k="ssr:stedsnr" v="469416" />
	</node>
	<node id="-489208" lat="60.7267972252" lon="5.66156389728">
		<tag k="name" v="Åsneset" />
		<tag k="natural" v="cape" />
		<tag k="ssr:stedsnr" v="469412" />
	</node>
	<node id="-489207" lat="60.6740861094" lon="5.37644722071">
		<tag k="name" v="Gyltodden" />
		<tag k="natural" v="cape" />
		<tag k="ssr:stedsnr" v="469413" />
	</node>
	<node id="-489206" lat="60.6795638909" lon="5.38853888917">
		<tag k="name" v="Risholmen" />
		<tag k="place" v="islet" />
		<tag k="ssr:stedsnr" v="469411" />
	</node>
	<node id="-489203" lat="60.7343638906" lon="5.30418056373">
		<tag k="name" v="Naustholmen" />
		<tag k="place" v="islet" />
		<tag k="ssr:stedsnr" v="469392" />
	</node>
	<node id="-489200" lat="60.6618277799" lon="5.11550556228">
		<tag k="name" v="Bruknappneset" />
		<tag k="natural" v="cape" />
		<tag k="ssr:stedsnr" v="469382" />
	</node>
	<node id="-489197" lat="60.5831833366" lon="5.36881110562">
		<tag k="name" v="Grønvika" />
		<tag k="natural" v="bay" />
		<tag k="ssr:stedsnr" v="469347" />
	</node>
	<node id="-489196" lat="60.6112083364" lon="5.40115277146">
		<tag k="name" v="Vika" />
		<tag k="natural" v="bay" />
		<tag k="ssr:stedsnr" v="469346" />
	</node>
	<node id="-489195" lat="60.6979472228" lon="5.15172222543">
		<tag k="name" v="Træsvika" />
		<tag k="natural" v="bay" />
		<tag k="ssr:stedsnr" v="469317" />
	</node>
	<node id="-489194" lat="60.7103027806" lon="5.16643889203">
		<tag k="fixme" v="consider seamark:type=rock or natural=shoal" />
		<tag k="name" v="Naustskjeret" />
		<tag k="place" v="islet" />
		<tag k="ssr:stedsnr" v="469316" />
	</node>
	<node id="-489192" lat="60.710316666" lon="5.14651945181">
		<tag k="name" v="Breivika" />
		<tag k="natural" v="bay" />
		<tag k="ssr:stedsnr" v="469307" />
	</node>
	<node id="-489188" lat="60.7026944453" lon="5.38429999748">
		<tag k="name" v="Klungerholmflua" />
		<tag k="place" v="locality" />
		<tag k="seamark:type" v="rock" />
		<tag k="ssr:stedsnr" v="469295" />
	</node>
	<node id="-489183" lat="60.5956333357" lon="5.40391111757">
		<tag k="name" v="Saltneset" />
		<tag k="natural" v="cape" />
		<tag k="ssr:stedsnr" v="469276" />
	</node>
	<node id="-489181" lat="60.6707361098" lon="5.1272000063">
		<tag k="name" v="Gjerdhaugvika" />
		<tag k="natural" v="bay" />
		<tag k="ssr:stedsnr" v="469265" />
	</node>
	<node id="-489179" lat="60.6734361146" lon="5.12011667081">
		<tag k="name" v="Kaldnesholmane" />
		<tag k="place" v="islet" />
		<tag k="ssr:stedsnr" v="469256" />
	</node>
	<node id="-489172" lat="60.7223416665" lon="5.16834166615">
		<tag k="name" v="Ørneneset" />
		<tag k="natural" v="cape" />
		<tag k="ssr:stedsnr" v="469214" />
	</node>
	<node id="-489170" lat="60.7325361097" lon="5.1204694494">
		<tag k="name" v="Sysloktangane" />
		<tag k="natural" v="cape" />
		<tag k="ssr:stedsnr" v="469206" />
	</node>
	<node id="-487715" lat="60.5543777733" lon="5.31175277094">
		<tag k="name" v="Gjervika" />
		<tag k="natural" v="bay" />
		<tag k="ssr:stedsnr" v="409096" />
	</node>
	<node id="-487657" lat="60.6291138915" lon="5.25474445036">
		<tag k="name" v="Nordra Totlandsvika" />
		<tag k="natural" v="bay" />
		<tag k="old_name" v="Nordra Totlandsvik" />
		<tag k="ssr:stedsnr" v="389631" />
	</node>
	<node id="-489166" lat="60.7413083329" lon="5.24048054871">
		<tag k="name" v="Troveneset" />
		<tag k="natural" v="cape" />
		<tag k="ssr:stedsnr" v="469192" />
	</node>
	<node id="-489162" lat="60.7233820848" lon="5.21181496078">
		<tag k="name" v="Vågsvika" />
		<tag k="natural" v="bay" />
		<tag k="ssr:stedsnr" v="469178" />
	</node>
	<node id="-488395" lat="60.6859888919" lon="5.14005555228">
		<tag k="name" v="Grønevika" />
		<tag k="natural" v="bay" />
		<tag k="ssr:stedsnr" v="105301" />
	</node>
	<node id="-488736" lat="60.6637972265" lon="5.57688055254">
		<tag k="name" v="Sjurneset" />
		<tag k="natural" v="cape" />
		<tag k="ssr:stedsnr" v="166602" />
	</node>
	<node id="-489130" lat="60.7609972243" lon="5.12473889171">
		<tag k="name" v="Høgholmen" />
		<tag k="place" v="islet" />
		<tag k="ssr:stedsnr" v="469154" />
	</node>
	<node id="-489129" lat="60.7758194417" lon="5.15886666122">
		<tag k="name" v="Tyskebukta" />
		<tag k="natural" v="bay" />
		<tag k="ssr:stedsnr" v="469152" />
	</node>
	<node id="-489127" lat="60.7644916622" lon="5.11786388883">
		<tag k="name" v="Flatholmen" />
		<tag k="place" v="islet" />
		<tag k="ssr:stedsnr" v="469147" />
	</node>
	<node id="-489126" lat="60.7472694425" lon="5.24542500939">
		<tag k="name" v="Håneset" />
		<tag k="natural" v="cape" />
		<tag k="ssr:stedsnr" v="469146" />
	</node>
	<node id="-487860" lat="60.7313277815" lon="5.1452749925">
		<tag k="name" v="Galtevika" />
		<tag k="natural" v="bay" />
		<tag k="ssr:stedsnr" v="894237" />
	</node>
	<node id="-489114" lat="60.6243416642" lon="5.24556666464">
		<tag k="name" v="Lianeset" />
		<tag k="natural" v="cape" />
		<tag k="ssr:stedsnr" v="450885" />
	</node>
	<node id="-489113" lat="60.7406583293" lon="5.27414445268">
		<tag k="name" v="Sævråsneset" />
		<tag k="natural" v="cape" />
		<tag k="ssr:stedsnr" v="450871" />
	</node>
	<node id="-489112" lat="60.5680249984" lon="5.21256944058">
		<tag k="name" v="Lauvvikneset" />
		<tag k="natural" v="cape" />
		<tag k="ssr:stedsnr" v="450665" />
	</node>
	<node id="-489110" lat="60.5725194459" lon="5.20566943921">
		<tag k="name" v="Gondstøholmen" />
		<tag k="place" v="islet" />
		<tag k="ssr:stedsnr" v="449628" />
	</node>
	<node id="-489109" lat="60.6206111099" lon="5.2537916638">
		<tag k="name" v="Nordra Gardvika" />
		<tag k="natural" v="bay" />
		<tag k="ssr:stedsnr" v="449304" />
	</node>
	<node id="-489108" lat="60.7825055533" lon="4.99827777343">
		<tag k="name" v="Brattholmen" />
		<tag k="place" v="islet" />
		<tag k="ssr:stedsnr" v="449187" />
	</node>
	<node id="-489106" lat="60.7222833372" lon="5.080952779">
		<tag k="name" v="Klokkarbenken" />
		<tag k="natural" v="strait" />
		<tag k="ssr:stedsnr" v="449137" />
	</node>
	<node id="-489105" lat="60.7284916661" lon="5.06765833118">
		<tag k="fixme" v="consider seamark:type=rock or natural=shoal" />
		<tag k="name" v="Grønholmskjeret" />
		<tag k="place" v="islet" />
		<tag k="ssr:stedsnr" v="449134" />
	</node>
	<node id="-489104" lat="60.7418249995" lon="5.05676944013">
		<tag k="name" v="Midthaugen" />
		<tag k="place" v="islet" />
		<tag k="ssr:stedsnr" v="449132" />
	</node>
	<node id="-489103" lat="60.7382055529" lon="5.08965832772">
		<tag k="name" v="Veråsstraumen" />
		<tag k="natural" v="strait" />
		<tag k="ssr:stedsnr" v="449131" />
	</node>
	<node id="-489102" lat="60.752805556" lon="5.21728055052">
		<tag k="name" v="Koparholmen" />
		<tag k="place" v="islet" />
		<tag k="ssr:stedsnr" v="433741" />
	</node>
	<node id="-489101" lat="60.7612055531" lon="5.12438610336">
		<tag k="name" v="Høgholmen" />
		<tag k="place" v="islet" />
		<tag k="ssr:stedsnr" v="433739" />
	</node>
	<node id="-488727" lat="60.6430083321" lon="5.39328055291">
		<tag k="name" v="Store Notholmen" />
		<tag k="place" v="islet" />
		<tag k="ssr:stedsnr" v="166470" />
	</node>
	<node id="-489095" lat="60.826200003" lon="4.98019444472">
		<tag k="name" v="Vestretaren" />
		<tag k="natural" v="shoal" />
		<tag k="place" v="locality" />
		<tag k="ssr:stedsnr" v="433079" />
	</node>
	<node id="-489092" lat="60.7990722199" lon="5.06602222501">
		<tag k="name" v="Hamna" />
		<tag k="natural" v="bay" />
		<tag k="ssr:stedsnr" v="433010" />
	</node>
	<node id="-489091" lat="60.7403750023" lon="5.06645554615">
		<tag k="alt_name" v="Lauvøy" />
		<tag k="name" v="Lauvøyna" />
		<tag k="place" v="island" />
		<tag k="ssr:stedsnr" v="431778" />
	</node>
	<node id="-489089" lat="60.6303277805" lon="5.51829999493">
		<tag k="alt_name" v="Skorabogen" />
		<tag k="name" v="Skårabogen" />
		<tag k="natural" v="bay" />
		<tag k="ssr:stedsnr" v="431739" />
	</node>
	<node id="-489085" lat="60.7127416669" lon="5.16857500264">
		<tag k="fixme" v="multiple name tags, choose one and add the other to alt_name" />
		<tag k="name" v="Grønøy;Litløyna" />
		<tag k="place" v="islet" />
		<tag k="ssr:stedsnr" v="431664" />
	</node>
	<node id="-489079" lat="60.7388611071" lon="5.67205278027">
		<tag k="name" v="Bjørnstø" />
		<tag k="natural" v="bay" />
		<tag k="ssr:stedsnr" v="431334" />
	</node>
	<node id="-489067" lat="60.6921833339" lon="5.38160833382">
		<tag k="name" v="Rødlandsosen" />
		<tag k="natural" v="strait" />
		<tag k="ssr:stedsnr" v="431180" />
	</node>
	<node id="-489066" lat="60.679249996" lon="5.11672499414">
		<tag k="name" v="Tunnholmen" />
		<tag k="place" v="islet" />
		<tag k="ssr:stedsnr" v="431173" />
	</node>
	<node id="-489062" lat="60.583874996" lon="5.21880277339">
		<tag k="alt_name" v="Tveitøy" />
		<tag k="name" v="Tveitøyna" />
		<tag k="place" v="islet" />
		<tag k="ssr:stedsnr" v="431129" />
	</node>
	<node id="-488721" lat="60.7860361078" lon="5.0920694478">
		<tag k="name" v="Nordre Øyvågen" />
		<tag k="natural" v="bay" />
		<tag k="ssr:stedsnr" v="166453" />
	</node>
	<node id="-489058" lat="60.6045083313" lon="5.43845556027">
		<tag k="alt_name" v="Eiknesvågen" />
		<tag k="name" v="Eknesvågen" />
		<tag k="natural" v="bay" />
		<tag k="ssr:stedsnr" v="431113" />
	</node>
	<node id="-489057" lat="60.5584277767" lon="5.22646944688">
		<tag k="name" v="Tjuvholmen" />
		<tag k="place" v="islet" />
		<tag k="ssr:stedsnr" v="431111" />
	</node>
	<node id="-489056" lat="60.5746777776" lon="5.38161667369">
		<tag k="name" v="Hestholmen" />
		<tag k="place" v="islet" />
		<tag k="ssr:stedsnr" v="431078" />
	</node>
	<node id="-489053" lat="60.7155277799" lon="5.1750166584">
		<tag k="fixme" v="consider seamark:type=rock or natural=shoal" />
		<tag k="name" v="Maråsskjeret" />
		<tag k="place" v="islet" />
		<tag k="ssr:stedsnr" v="268864" />
	</node>
	<node id="-489052" lat="60.6879055594" lon="5.1790722206">
		<tag k="name" v="Håvarden" />
		<tag k="natural" v="shoal" />
		<tag k="place" v="locality" />
		<tag k="ssr:stedsnr" v="268859" />
	</node>
	<node id="-489051" lat="60.6715749976" lon="5.13131943907">
		<tag k="name" v="Søre Langenesvågen" />
		<tag k="natural" v="bay" />
		<tag k="ssr:stedsnr" v="267258" />
	</node>
	<node id="-489050" lat="60.6688749956" lon="5.13089444156">
		<tag k="alt_name" v="Bergfjordvågen" />
		<tag k="name" v="Berfjordvågen" />
		<tag k="natural" v="bay" />
		<tag k="ssr:stedsnr" v="267256" />
	</node>
	<node id="-489049" lat="60.6917583363" lon="5.12548333737">
		<tag k="name" v="Gongstøa" />
		<tag k="natural" v="bay" />
		<tag k="ssr:stedsnr" v="267245" />
	</node>
	<node id="-489048" lat="60.7028555601" lon="5.09137222665">
		<tag k="name" v="Utlurtangane" />
		<tag k="natural" v="cape" />
		<tag k="ssr:stedsnr" v="267243" />
	</node>
	<node id="-489047" lat="60.7798281805" lon="5.13798134748">
		<tag k="fixme" v="consider seamark:type=rock or natural=shoal" />
		<tag k="name" v="Austskjeret" />
		<tag k="place" v="islet" />
		<tag k="ssr:stedsnr" v="267160" />
	</node>
	<node id="-489046" lat="60.7917555596" lon="5.07129722364">
		<tag k="name" v="Kvernhusneset" />
		<tag k="natural" v="cape" />
		<tag k="ssr:stedsnr" v="267156" />
	</node>
	<node id="-489045" lat="60.7808027809" lon="5.03355277251">
		<tag k="name" v="Parisholmen" />
		<tag k="place" v="islet" />
		<tag k="ssr:stedsnr" v="267148" />
	</node>
	<node id="-489044" lat="60.7780843597" lon="5.00490731673">
		<tag k="name" v="Vabeinsflua" />
		<tag k="natural" v="shoal" />
		<tag k="place" v="locality" />
		<tag k="ssr:stedsnr" v="267129" />
	</node>
	<node id="-489042" lat="60.7682638882" lon="5.03359722232">
		<tag k="name" v="Keilegavlvika" />
		<tag k="natural" v="bay" />
		<tag k="ssr:stedsnr" v="267113" />
	</node>
	<node id="-489041" lat="60.7512249983" lon="5.04870834124">
		<tag k="name" v="Bjelkesundholmen" />
		<tag k="place" v="islet" />
		<tag k="ssr:stedsnr" v="267114" />
	</node>
	<node id="-489038" lat="60.7725083343" lon="5.17143334053">
		<tag k="alt_name" v="Grøningane" />
		<tag k="name" v="Grøningen" />
		<tag k="place" v="islet" />
		<tag k="ssr:stedsnr" v="251724" />
	</node>
	<node id="-489037" lat="60.7750666636" lon="5.15153332911">
		<tag k="name" v="Langøyna" />
		<tag k="place" v="islet" />
		<tag k="ssr:stedsnr" v="251708" />
	</node>
	<node id="-489033" lat="60.7874000006" lon="5.07982499656">
		<tag k="name" v="Gardsendholmen" />
		<tag k="place" v="islet" />
		<tag k="ssr:stedsnr" v="251262" />
	</node>
	<node id="-489031" lat="60.7625277767" lon="5.04045554747">
		<tag k="alt_name" v="Matholmane;Store Mathholmen" />
		<tag k="name" v="Store Matholmen" />
		<tag k="place" v="islet" />
		<tag k="ssr:stedsnr" v="251180" />
	</node>
	<node id="-489030" lat="60.8242138922" lon="5.00310832382">
		<tag k="name" v="Kvalen" />
		<tag k="place" v="islet" />
		<tag k="ssr:stedsnr" v="251082" />
	</node>
	<node id="-490653" lat="60.6845327582" lon="5.38546444452">
		<tag k="name" v="Hørlandsvika" />
		<tag k="natural" v="bay" />
		<tag k="ssr:stedsnr" v="834379" />
	</node>
	<node id="-489027" lat="60.798102778" lon="5.07214722606">
		<tag k="name" v="Hamneflua" />
		<tag k="natural" v="shoal" />
		<tag k="place" v="locality" />
		<tag k="ssr:stedsnr" v="251010" />
	</node>
	<node id="-489025" lat="60.6190638917" lon="5.47362777557">
		<tag k="name" v="Dyrsvika" />
		<tag k="natural" v="bay" />
		<tag k="ssr:stedsnr" v="249709" />
	</node>
	<node id="-489023" lat="60.5663999987" lon="5.37967776986">
		<tag k="name" v="Leknestangen" />
		<tag k="natural" v="cape" />
		<tag k="ssr:stedsnr" v="249451" />
	</node>
	<node id="-487652" lat="60.7427944256" lon="5.01123382532">
		<tag k="name" v="Njøteneset" />
		<tag k="natural" v="cape" />
		<tag k="ssr:stedsnr" v="388150" />
	</node>
	<node id="-489008" lat="60.5867583351" lon="5.40624999859">
		<tag k="name" v="Storneset" />
		<tag k="natural" v="cape" />
		<tag k="ssr:stedsnr" v="249044" />
	</node>
	<node id="-489007" lat="60.6896833339" lon="5.57978611654">
		<tag k="name" v="Leirvika" />
		<tag k="natural" v="bay" />
		<tag k="ssr:stedsnr" v="249021" />
	</node>
	<node id="-489004" lat="60.7470045652" lon="5.25702687584">
		<tag k="alt_name" v="Apeneset" />
		<tag k="name" v="Ospeneset" />
		<tag k="natural" v="cape" />
		<tag k="ssr:stedsnr" v="248683" />
	</node>
	<node id="-489003" lat="60.7251361085" lon="5.17765000799">
		<tag k="name" v="Haukåsstraumen" />
		<tag k="natural" v="strait" />
		<tag k="ssr:stedsnr" v="248664" />
	</node>
	<node id="-489001" lat="60.7403499971" lon="5.26274167608">
		<tag k="name" v="Vadbuneset" />
		<tag k="natural" v="cape" />
		<tag k="ssr:stedsnr" v="248654" />
	</node>
	<node id="-488997" lat="60.6807055586" lon="5.57143055769">
		<tag k="alt_name" v="Ystasundet" />
		<tag k="name" v="Ytstasundet" />
		<tag k="natural" v="strait" />
		<tag k="ssr:stedsnr" v="248327" />
	</node>
	<node id="-488994" lat="60.7029194436" lon="5.1814305488">
		<tag k="name" v="Høyvikneset" />
		<tag k="natural" v="cape" />
		<tag k="ssr:stedsnr" v="248172" />
	</node>
	<node id="-491037" lat="60.8126083342" lon="5.04122499386">
		<tag k="name" v="Hjellneset" />
		<tag k="natural" v="cape" />
		<tag k="ssr:stedsnr" v="966640" />
	</node>
	<node id="-488985" lat="60.7278455775" lon="5.65055924968">
		<tag k="name" v="Stortoneset" />
		<tag k="natural" v="cape" />
		<tag k="ssr:stedsnr" v="227938" />
	</node>
	<node id="-491032" lat="60.7172555568" lon="5.63592777182">
		<tag k="alt_name" v="Auneset" />
		<tag k="name" v="Audneset" />
		<tag k="natural" v="cape" />
		<tag k="ssr:stedsnr" v="955968" />
	</node>
	<node id="-488708" lat="60.6790972223" lon="5.34964444488">
		<tag k="fixme" v="consider seamark:type=rock or natural=shoal" />
		<tag k="loc_name" v="Storskjeret" />
		<tag k="name" v="Storskjæret" />
		<tag k="place" v="islet" />
		<tag k="ssr:stedsnr" v="166389" />
	</node>
	<node id="-488969" lat="60.6665166623" lon="5.58364166525">
		<tag k="name" v="Hatlevika" />
		<tag k="natural" v="bay" />
		<tag k="ssr:stedsnr" v="227768" />
	</node>
	<node id="-491015" lat="60.6877166712" lon="5.58509722562">
		<tag k="name" v="Setervika" />
		<tag k="natural" v="bay" />
		<tag k="ssr:stedsnr" v="955763" />
	</node>
	<node id="-488966" lat="60.6909194472" lon="5.58087222034">
		<tag k="name" v="Steinneset" />
		<tag k="natural" v="cape" />
		<tag k="ssr:stedsnr" v="227734" />
	</node>
	<node id="-491009" lat="60.6260878667" lon="5.54607034915">
		<tag k="name" v="Mulen" />
		<tag k="natural" v="cape" />
		<tag k="ssr:stedsnr" v="955616" />
	</node>
	<node id="-491008" lat="60.68630278" lon="5.08715000185">
		<tag k="name" v="Håvågen" />
		<tag k="natural" v="bay" />
		<tag k="ssr:stedsnr" v="955580" />
	</node>
	<node id="-491006" lat="60.683069443" lon="5.10083889039">
		<tag k="name" v="Salthusøyna" />
		<tag k="place" v="island" />
		<tag k="ssr:stedsnr" v="955577" />
	</node>
	<node id="-491005" lat="60.6859361142" lon="5.08510833336">
		<tag k="alt_name" v="Håvågnese" />
		<tag k="name" v="Håvågneset" />
		<tag k="natural" v="cape" />
		<tag k="ssr:stedsnr" v="955571" />
	</node>
	<node id="-491004" lat="60.7351633758" lon="5.09705854813">
		<tag k="name" v="Skårnessundet" />
		<tag k="natural" v="strait" />
		<tag k="ssr:stedsnr" v="955570" />
	</node>
	<node id="-488955" lat="60.7031888902" lon="5.08431667515">
		<tag k="name" v="Støltangen" />
		<tag k="natural" v="cape" />
		<tag k="ssr:stedsnr" v="227555" />
	</node>
	<node id="-488954" lat="60.6697093957" lon="5.10141742763">
		<tag k="name" v="Søre Eidsvika" />
		<tag k="natural" v="bay" />
		<tag k="ssr:stedsnr" v="227550" />
	</node>
	<node id="-491001" lat="60.7021638886" lon="5.08390555227">
		<tag k="name" v="Breivika" />
		<tag k="natural" v="bay" />
		<tag k="ssr:stedsnr" v="955557" />
	</node>
	<node id="-488951" lat="60.6983305573" lon="5.1068611036">
		<tag k="name" v="Nordre Naustvika" />
		<tag k="natural" v="bay" />
		<tag k="ssr:stedsnr" v="227527" />
	</node>
	<node id="-490997" lat="60.6722111153" lon="5.10690277645">
		<tag k="name" v="Undervågen" />
		<tag k="natural" v="bay" />
		<tag k="ssr:stedsnr" v="955541" />
	</node>
	<node id="-488948" lat="60.7268305601" lon="5.07181667036">
		<tag k="name" v="Skata" />
		<tag k="place" v="islet" />
		<tag k="ssr:stedsnr" v="227485" />
	</node>
	<node id="-488947" lat="60.7775944462" lon="5.08664999673">
		<tag k="name" v="Grønevika" />
		<tag k="natural" v="bay" />
		<tag k="ssr:stedsnr" v="227476" />
	</node>
	<node id="-488944" lat="60.6457083294" lon="5.44635833727">
		<tag k="name" v="Åmundsholmen" />
		<tag k="place" v="islet" />
		<tag k="ssr:stedsnr" v="227433" />
	</node>
	<node id="-488942" lat="60.7062421861" lon="5.38974057659">
		<tag k="name" v="Nordholmen" />
		<tag k="place" v="islet" />
		<tag k="ssr:stedsnr" v="227426" />
	</node>
	<node id="-490988" lat="60.7805924191" lon="5.02791554482">
		<tag k="name" v="Austre Aurevika" />
		<tag k="natural" v="bay" />
		<tag k="ssr:stedsnr" v="955472" />
	</node>
	<node id="-490986" lat="60.7680527754" lon="5.03515832775">
		<tag k="name" v="Naustvika" />
		<tag k="natural" v="bay" />
		<tag k="ssr:stedsnr" v="955463" />
	</node>
	<node id="-488937" lat="60.67621389" lon="5.35062499415">
		<tag k="name" v="Vaulavikane" />
		<tag k="natural" v="bay" />
		<tag k="ssr:stedsnr" v="227372" />
	</node>
	<node id="-490984" lat="60.7808833298" lon="5.10419166344">
		<tag k="name" v="Tyborgøysundet" />
		<tag k="natural" v="strait" />
		<tag k="ssr:stedsnr" v="955458" />
	</node>
	<node id="-490983" lat="60.7817750013" lon="5.08583610465">
		<tag k="name" v="Toppholmen" />
		<tag k="place" v="islet" />
		<tag k="ssr:stedsnr" v="955456" />
	</node>
	<node id="-488933" lat="60.6683499992" lon="5.11606388794">
		<tag k="name" v="Olsåna" />
		<tag k="natural" v="bay" />
		<tag k="ssr:stedsnr" v="227349" />
	</node>
	<node id="-488932" lat="60.6563027771" lon="5.22645555554">
		<tag k="name" v="Kråkedalsbukta" />
		<tag k="natural" v="bay" />
		<tag k="ssr:stedsnr" v="227348" />
	</node>
	<node id="-490979" lat="60.7564749977" lon="5.05916389652">
		<tag k="name" v="Doveneset" />
		<tag k="natural" v="cape" />
		<tag k="ssr:stedsnr" v="955443" />
	</node>
	<node id="-490978" lat="60.7593500016" lon="5.05795277674">
		<tag k="name" v="Vaulevika" />
		<tag k="natural" v="bay" />
		<tag k="ssr:stedsnr" v="955438" />
	</node>
	<node id="-490977" lat="60.7981944436" lon="5.06572778166">
		<tag k="name" v="Havneklubben" />
		<tag k="natural" v="cape" />
		<tag k="ssr:stedsnr" v="955429" />
	</node>
	<node id="-490976" lat="60.5672500021" lon="5.2138805534">
		<tag k="name" v="Vestre Radtangen" />
		<tag k="natural" v="cape" />
		<tag k="ssr:stedsnr" v="955430" />
	</node>
	<node id="-490975" lat="60.7055611117" lon="5.34974999099">
		<tag k="name" v="Salbuvika" />
		<tag k="natural" v="bay" />
		<tag k="ssr:stedsnr" v="955425" />
	</node>
	<node id="-490973" lat="60.6934833297" lon="5.43563610259">
		<tag k="name" v="Lyngneset" />
		<tag k="natural" v="cape" />
		<tag k="ssr:stedsnr" v="955413" />
	</node>
	<node id="-490972" lat="60.5756416646" lon="5.22373888642">
		<tag k="name" v="Hillandsvika" />
		<tag k="natural" v="bay" />
		<tag k="ssr:stedsnr" v="955398" />
	</node>
	<node id="-490971" lat="60.6783944478" lon="5.39128334081">
		<tag k="name" v="Velandsvika" />
		<tag k="natural" v="bay" />
		<tag k="ssr:stedsnr" v="955379" />
	</node>
	<node id="-490970" lat="60.725469445" lon="5.32169722064">
		<tag k="name" v="Smedvika" />
		<tag k="natural" v="bay" />
		<tag k="ssr:stedsnr" v="955371" />
	</node>
	<node id="-490969" lat="60.7155944468" lon="5.3378722206">
		<tag k="name" v="Søra Bogsulvika" />
		<tag k="natural" v="bay" />
		<tag k="ssr:stedsnr" v="955367" />
	</node>
	<node id="-488356" lat="60.6431944439" lon="5.26384443774">
		<tag k="name" v="Mjåsundet" />
		<tag k="natural" v="strait" />
		<tag k="ssr:stedsnr" v="105063" />
	</node>
	<node id="-490966" lat="60.5765638849" lon="5.37668055845">
		<tag k="name" v="Fløsvika" />
		<tag k="natural" v="bay" />
		<tag k="ssr:stedsnr" v="955342" />
	</node>
	<node id="-490965" lat="60.5712111128" lon="5.38746666418">
		<tag k="name" v="Katevågstangen" />
		<tag k="natural" v="cape" />
		<tag k="ssr:stedsnr" v="955338" />
	</node>
	<node id="-490963" lat="60.6331138889" lon="5.22532778">
		<tag k="name" v="Neset" />
		<tag k="natural" v="cape" />
		<tag k="ssr:stedsnr" v="955321" />
	</node>
	<node id="-488914" lat="60.7181222241" lon="5.12014444192">
		<tag k="name" v="Austeneset" />
		<tag k="natural" v="cape" />
		<tag k="ssr:stedsnr" v="227180" />
	</node>
	<node id="-488913" lat="60.7186277785" lon="5.11804444883">
		<tag k="name" v="Djuvvika" />
		<tag k="natural" v="bay" />
		<tag k="ssr:stedsnr" v="227178" />
	</node>
	<node id="-490958" lat="60.5958973933" lon="5.3679763506">
		<tag k="name" v="Lyngholmen" />
		<tag k="place" v="islet" />
		<tag k="ssr:stedsnr" v="955275" />
	</node>
	<node id="-488904" lat="60.7685194403" lon="5.16184166824">
		<tag k="name" v="Søre Trongholet" />
		<tag k="natural" v="strait" />
		<tag k="ssr:stedsnr" v="227156" />
	</node>
	<node id="-488902" lat="60.735805552" lon="5.29422222973">
		<tag k="name" v="Skatevågen" />
		<tag k="natural" v="bay" />
		<tag k="ssr:stedsnr" v="227142" />
	</node>
	<node id="-490949" lat="60.7177527773" lon="5.14943334072">
		<tag k="name" v="Djuvvikneset" />
		<tag k="natural" v="cape" />
		<tag k="ssr:stedsnr" v="955215" />
	</node>
	<node id="-490942" lat="60.7235555536" lon="5.18953889454">
		<tag k="name" v="Snekkevika" />
		<tag k="natural" v="bay" />
		<tag k="ssr:stedsnr" v="955180" />
	</node>
	<node id="-488326" lat="60.68545278" lon="5.14651667467">
		<tag k="name" v="Skjelvikflua" />
		<tag k="natural" v="shoal" />
		<tag k="place" v="locality" />
		<tag k="ssr:stedsnr" v="85225" />
	</node>
	<node id="-490924" lat="60.5613611117" lon="5.23742500077">
		<tag k="name" v="Tømmervika" />
		<tag k="natural" v="bay" />
		<tag k="ssr:stedsnr" v="955094" />
	</node>
	<node id="-488874" lat="60.6000694462" lon="5.36534166656">
		<tag k="alt_name" v="Sauvika" />
		<tag k="name" v="Sauvågen" />
		<tag k="natural" v="bay" />
		<tag k="ssr:stedsnr" v="226946" />
	</node>
	<node id="-488873" lat="60.6400638857" lon="5.39516944638">
		<tag k="name" v="Svindalsvågen" />
		<tag k="natural" v="bay" />
		<tag k="ssr:stedsnr" v="226809" />
	</node>
	<node id="-488872" lat="60.6912166662" lon="5.34001944006">
		<tag k="name" v="Tverrneset" />
		<tag k="natural" v="cape" />
		<tag k="ssr:stedsnr" v="226804" />
	</node>
	<node id="-488865" lat="60.7313722243" lon="5.0774249917">
		<tag k="name" v="Furuholmen" />
		<tag k="place" v="islet" />
		<tag k="ssr:stedsnr" v="226530" />
	</node>
	<node id="-488862" lat="60.6566388914" lon="5.43076110833">
		<tag k="fixme" v="consider seamark:type=rock or natural=shoal" />
		<tag k="name" v="Dalaskjeret" />
		<tag k="place" v="islet" />
		<tag k="ssr:stedsnr" v="226520" />
	</node>
	<node id="-488858" lat="60.7797305538" lon="5.10400833372">
		<tag k="name" v="Tyborgneset" />
		<tag k="natural" v="cape" />
		<tag k="ssr:stedsnr" v="226491" />
	</node>
	<node id="-488857" lat="60.5658555577" lon="5.22690000416">
		<tag k="name" v="Heimetangen" />
		<tag k="natural" v="cape" />
		<tag k="ssr:stedsnr" v="226472" />
	</node>
	<node id="-488856" lat="60.8239750017" lon="5.00462778677">
		<tag k="name" v="Kvaløy" />
		<tag k="place" v="island" />
		<tag k="ssr:stedsnr" v="226460" />
	</node>
	<node id="-488855" lat="60.6220527804" lon="5.20471944285">
		<tag k="name" v="Skarsvågen" />
		<tag k="natural" v="bay" />
		<tag k="ssr:stedsnr" v="226447" />
	</node>
	<node id="-488854" lat="60.5773999984" lon="5.22737778162">
		<tag k="fixme" v="consider seamark:type=rock or natural=shoal" />
		<tag k="name" v="Hundeskjeret" />
		<tag k="place" v="islet" />
		<tag k="ssr:stedsnr" v="226442" />
	</node>
	<node id="-490901" lat="60.5921500026" lon="5.36692777327">
		<tag k="name" v="Hjelmåsvågen" />
		<tag k="natural" v="bay" />
		<tag k="ssr:stedsnr" v="954768" />
	</node>
	<node id="-490900" lat="60.710694446" lon="5.34598055644">
		<tag k="name" v="Haraldsneset" />
		<tag k="natural" v="cape" />
		<tag k="ssr:stedsnr" v="954754" />
	</node>
	<node id="-488844" lat="60.6373388856" lon="5.44508333098">
		<tag k="name" v="Hopen" />
		<tag k="natural" v="bay" />
		<tag k="ssr:stedsnr" v="226343" />
	</node>
	<node id="-490889" lat="60.7050111108" lon="5.13080833069">
		<tag k="name" v="Klammersvågen" />
		<tag k="natural" v="bay" />
		<tag k="ssr:stedsnr" v="954318" />
	</node>
	<node id="-488838" lat="60.6807416652" lon="5.14640555548">
		<tag k="name" v="Brusundet" />
		<tag k="natural" v="strait" />
		<tag k="ssr:stedsnr" v="226316" />
	</node>
	<node id="-488836" lat="60.6755833356" lon="5.16221666764">
		<tag k="name" v="Breiavika" />
		<tag k="natural" v="bay" />
		<tag k="ssr:stedsnr" v="226311" />
	</node>
	<node id="-488835" lat="60.6722083355" lon="5.15929443637">
		<tag k="name" v="Toftingneset" />
		<tag k="natural" v="cape" />
		<tag k="ssr:stedsnr" v="226309" />
	</node>
	<node id="-490882" lat="60.6735833314" lon="5.16544166566">
		<tag k="name" v="Børøytangen" />
		<tag k="natural" v="cape" />
		<tag k="ssr:stedsnr" v="954278" />
	</node>
	<node id="-490881" lat="60.684083332" lon="5.14024999759">
		<tag k="name" v="Skjelvika" />
		<tag k="natural" v="bay" />
		<tag k="ssr:stedsnr" v="954267" />
	</node>
	<node id="-490880" lat="60.5999472192" lon="5.44434445003">
		<tag k="name" v="Vågsneset" />
		<tag k="natural" v="cape" />
		<tag k="ssr:stedsnr" v="954265" />
	</node>
	<node id="-490879" lat="60.6775138852" lon="5.12784444554">
		<tag k="name" v="Langenestangane" />
		<tag k="place" v="island" />
		<tag k="ssr:stedsnr" v="954263" />
	</node>
	<node id="-490878" lat="60.6850166706" lon="5.42614721994">
		<tag k="alt_name" v="Lammeneset" />
		<tag k="name" v="Lammaneset" />
		<tag k="natural" v="cape" />
		<tag k="ssr:stedsnr" v="954261" />
	</node>
	<node id="-490877" lat="60.6872916679" lon="5.1288416587">
		<tag k="name" v="Lygra" />
		<tag k="place" v="island" />
		<tag k="ssr:stedsnr" v="954255" />
	</node>
	<node id="-490876" lat="60.598952779" lon="5.41596665986">
		<tag k="name" v="Eidadalstangen" />
		<tag k="natural" v="cape" />
		<tag k="ssr:stedsnr" v="954247" />
	</node>
	<node id="-487658" lat="60.6502861106" lon="5.22840833809">
		<tag k="name" v="Hamnatangen" />
		<tag k="natural" v="cape" />
		<tag k="ssr:stedsnr" v="389869" />
	</node>
	<node id="-490873" lat="60.6563833361" lon="5.23422777373">
		<tag k="name" v="Lotrebogane" />
		<tag k="place" v="locality" />
		<tag k="seamark:type" v="rock" />
		<tag k="ssr:stedsnr" v="954106" />
	</node>
	<node id="-490872" lat="60.6290611134" lon="5.25297223065">
		<tag k="name" v="Totlandsvika" />
		<tag k="natural" v="bay" />
		<tag k="ssr:stedsnr" v="954092" />
	</node>
	<node id="-490869" lat="60.6262638905" lon="5.54577778236">
		<tag k="name" v="Mulsneset" />
		<tag k="natural" v="cape" />
		<tag k="ssr:stedsnr" v="953846" />
	</node>
	<node id="-490867" lat="60.7723194409" lon="5.1214861148">
		<tag k="name" v="Tvibergnes" />
		<tag k="natural" v="cape" />
		<tag k="ssr:stedsnr" v="935984" />
	</node>
	<node id="-490866" lat="60.7605222183" lon="5.20553332503">
		<tag k="name" v="Ådneflua" />
		<tag k="natural" v="shoal" />
		<tag k="place" v="locality" />
		<tag k="ssr:stedsnr" v="935934" />
	</node>
	<node id="-490865" lat="60.6516388882" lon="5.22570555263">
		<tag k="name" v="Hamnaflua" />
		<tag k="natural" v="shoal" />
		<tag k="place" v="locality" />
		<tag k="ssr:stedsnr" v="935893" />
	</node>
	<node id="-490864" lat="60.7367888868" lon="5.30121388241">
		<tag k="name" v="Gulenakken" />
		<tag k="place" v="locality" />
		<tag k="ssr:stedsnr" v="935872" />
	</node>
	<node id="-490863" lat="60.5835166697" lon="5.21550555338">
		<tag k="name" v="Rimmeflua" />
		<tag k="natural" v="shoal" />
		<tag k="place" v="locality" />
		<tag k="ssr:stedsnr" v="935569" />
	</node>
	<node id="-488814" lat="60.7607694438" lon="5.18257778384">
		<tag k="name" v="Naustneset" />
		<tag k="natural" v="cape" />
		<tag k="ssr:stedsnr" v="207922" />
	</node>
	<node id="-488813" lat="60.639847226" lon="5.2696055519">
		<tag k="name" v="Totlandsosen" />
		<tag k="natural" v="bay" />
		<tag k="ssr:stedsnr" v="207881" />
	</node>
	<node id="-490860" lat="60.6781055517" lon="5.11158612062">
		<tag k="name" v="Luresteinen" />
		<tag k="natural" v="cape" />
		<tag k="ssr:stedsnr" v="935264" />
	</node>
	<node id="-490859" lat="60.7726500028" lon="5.0988027743">
		<tag k="name" v="Ångholmen" />
		<tag k="place" v="islet" />
		<tag k="ssr:stedsnr" v="935176" />
	</node>
	<node id="-490858" lat="60.7686805533" lon="5.02314166485">
		<tag k="fixme" v="consider seamark:type=rock or natural=shoal" />
		<tag k="name" v="Småskjeret" />
		<tag k="place" v="islet" />
		<tag k="ssr:stedsnr" v="935142" />
	</node>
	<node id="-490857" lat="60.727061112" lon="5.10241388031">
		<tag k="name" v="Brakøyholmen" />
		<tag k="place" v="islet" />
		<tag k="ssr:stedsnr" v="935139" />
	</node>
	<node id="-488808" lat="60.6839472245" lon="5.14827221781">
		<tag k="name" v="Skjelvikholmen" />
		<tag k="place" v="islet" />
		<tag k="ssr:stedsnr" v="206270" />
	</node>
	<node id="-490855" lat="60.6087361129" lon="5.2066777785">
		<tag k="name" v="Selevollsvik" />
		<tag k="natural" v="bay" />
		<tag k="ssr:stedsnr" v="935658" />
	</node>
	<node id="-490854" lat="60.7579999961" lon="5.10917777012">
		<tag k="alt_name" v="Jervågen" />
		<tag k="name" v="Gjerdvågen" />
		<tag k="natural" v="bay" />
		<tag k="ssr:stedsnr" v="919685" />
	</node>
	<node id="-490853" lat="60.7704305579" lon="5.16539443615">
		<tag k="name" v="Lyngholmen" />
		<tag k="place" v="islet" />
		<tag k="ssr:stedsnr" v="919673" />
	</node>
	<node id="-487654" lat="60.7778500033" lon="5.11474999996">
		<tag k="name" v="Lamholmen" />
		<tag k="place" v="islet" />
		<tag k="ssr:stedsnr" v="388166" />
	</node>
	<node id="-488800" lat="60.7392666637" lon="5.07718610284">
		<tag k="name" v="Lamholmen" />
		<tag k="place" v="islet" />
		<tag k="ssr:stedsnr" v="188784" />
	</node>
	<node id="-490847" lat="60.7814666681" lon="5.08193056431">
		<tag k="alt_name" v="Knarrviksvika" />
		<tag k="name" v="Knarrvika" />
		<tag k="natural" v="bay" />
		<tag k="ssr:stedsnr" v="919224" />
	</node>
	<node id="-490846" lat="60.8181930295" lon="5.00768689362">
		<tag k="name" v="Leirvågen" />
		<tag k="natural" v="bay" />
		<tag k="ssr:stedsnr" v="919081" />
	</node>
	<node id="-490845" lat="60.7832166676" lon="5.1256055565">
		<tag k="name" v="Smalnesflua" />
		<tag k="natural" v="shoal" />
		<tag k="place" v="locality" />
		<tag k="ssr:stedsnr" v="918747" />
	</node>
	<node id="-490844" lat="60.7767694465" lon="5.1500611183">
		<tag k="name" v="Storebukta" />
		<tag k="natural" v="bay" />
		<tag k="ssr:stedsnr" v="918743" />
	</node>
	<node id="-490842" lat="60.7476694435" lon="5.23252500373">
		<tag k="alt_name" v="Litløy" />
		<tag k="name" v="Litløyna" />
		<tag k="place" v="islet" />
		<tag k="ssr:stedsnr" v="917658" />
	</node>
	<node id="-488791" lat="60.6575861082" lon="5.36624999196">
		<tag k="name" v="Vågane" />
		<tag k="natural" v="strait" />
		<tag k="ssr:stedsnr" v="188232" />
	</node>
	<node id="-490838" lat="60.5413166651" lon="5.27847777775">
		<tag k="name" v="Klubben" />
		<tag k="natural" v="cape" />
		<tag k="ssr:stedsnr" v="917026" />
	</node>
	<node id="-490837" lat="60.6929499957" lon="5.0635833258">
		<tag k="alt_name" v="Geitevik" />
		<tag k="name" v="Geitevågen" />
		<tag k="natural" v="bay" />
		<tag k="ssr:stedsnr" v="916782" />
	</node>
	<node id="-490836" lat="60.6123138916" lon="5.46913611485">
		<tag k="name" v="Askvika" />
		<tag k="natural" v="bay" />
		<tag k="ssr:stedsnr" v="916766" />
	</node>
	<node id="-490831" lat="60.7224638872" lon="5.16995000154">
		<tag k="name" v="Grunnevågen" />
		<tag k="natural" v="bay" />
		<tag k="ssr:stedsnr" v="916684" />
	</node>
	<node id="-490830" lat="60.7152750017" lon="5.11141665753">
		<tag k="name" v="Straumsneset" />
		<tag k="natural" v="cape" />
		<tag k="ssr:stedsnr" v="916674" />
	</node>
	<node id="-490828" lat="60.7333361128" lon="5.28826111259">
		<tag k="alt_name" v="Hodnelandsvågen, nordre" />
		<tag k="name" v="Nordre Hodnelandsvågen" />
		<tag k="natural" v="bay" />
		<tag k="ssr:stedsnr" v="916665" />
	</node>
	<node id="-490827" lat="60.6953805587" lon="5.59182778291">
		<tag k="name" v="Langholmen" />
		<tag k="place" v="islet" />
		<tag k="ssr:stedsnr" v="916393" />
	</node>
	<node id="-488775" lat="60.7099416662" lon="5.43843611592">
		<tag k="name" v="Kjekalleholmen" />
		<tag k="place" v="islet" />
		<tag k="ssr:stedsnr" v="188165" />
	</node>
	<node id="-488774" lat="60.688983331" lon="5.09668332894">
		<tag k="alt_name" v="Arsholmen" />
		<tag k="name" v="Asholmen" />
		<tag k="place" v="islet" />
		<tag k="ssr:stedsnr" v="188161" />
	</node>
	<node id="-488772" lat="60.5702353223" lon="5.2294344386">
		<tag k="name" v="Alverstraumen" />
		<tag k="natural" v="strait" />
		<tag k="ssr:stedsnr" v="188089" />
	</node>
	<node id="-490817" lat="60.6561833345" lon="5.24423333977">
		<tag k="name" v="Kjeviktangen" />
		<tag k="natural" v="cape" />
		<tag k="ssr:stedsnr" v="916213" />
	</node>
	<node id="-487553" lat="60.6826694488" lon="5.08804444787">
		<tag k="name" v="Stølevika" />
		<tag k="natural" v="bay" />
		<tag k="ssr:stedsnr" v="348511" />
	</node>
	<node id="-490814" lat="60.7174238565" lon="5.20428091776">
		<tag k="alt_name" v="Gaulevik" />
		<tag k="name" v="Gaulevika" />
		<tag k="natural" v="bay" />
		<tag k="ssr:stedsnr" v="916172" />
	</node>
	<node id="-490811" lat="60.6906305588" lon="5.17962500483">
		<tag k="alt_name" v="Nordre Håvardsvika" />
		<tag k="loc_name" v="Nordra Håvardsvik" />
		<tag k="name" v="Nordra Håvardsvika" />
		<tag k="natural" v="bay" />
		<tag k="ssr:stedsnr" v="916144" />
	</node>
	<node id="-490810" lat="60.585449997" lon="5.22907222468">
		<tag k="name" v="Kvamsvågen" />
		<tag k="natural" v="bay" />
		<tag k="ssr:stedsnr" v="916120" />
	</node>
	<node id="-487647" lat="60.7652805541" lon="5.17733054764">
		<tag k="name" v="Lamholmane" />
		<tag k="place" v="islet" />
		<tag k="ssr:stedsnr" v="372718" />
	</node>
	<node id="-490806" lat="60.6443694411" lon="5.44122778375">
		<tag k="name" v="Langøyna" />
		<tag k="place" v="islet" />
		<tag k="ssr:stedsnr" v="916038" />
	</node>
	<node id="-488329" lat="60.6272944458" lon="5.25912776987">
		<tag k="name" v="Søra Totlandsvika" />
		<tag k="natural" v="bay" />
		<tag k="old_name" v="Søra Totlandsvik" />
		<tag k="ssr:stedsnr" v="86614" />
	</node>
	<node id="-490794" lat="60.638419445" lon="5.27414445197">
		<tag k="alt_name" v="Holmevika" />
		<tag k="name" v="Holmavik" />
		<tag k="natural" v="bay" />
		<tag k="ssr:stedsnr" v="874345" />
	</node>
	<node id="-490793" lat="60.6199555521" lon="5.25996112056">
		<tag k="name" v="Fisketangen" />
		<tag k="natural" v="cape" />
		<tag k="ssr:stedsnr" v="874311" />
	</node>
	<node id="-490792" lat="60.6669249998" lon="5.11229444039">
		<tag k="fixme" v="consider seamark:type=rock or natural=shoal" />
		<tag k="name" v="Øyskjera" />
		<tag k="place" v="islet" />
		<tag k="ssr:stedsnr" v="874302" />
	</node>
	<node id="-490791" lat="60.6862527803" lon="5.14313888451">
		<tag k="name" v="Grønåsnesflua" />
		<tag k="natural" v="shoal" />
		<tag k="place" v="locality" />
		<tag k="ssr:stedsnr" v="874293" />
	</node>
	<node id="-490790" lat="60.6810500031" lon="5.11639999962">
		<tag k="fixme" v="consider seamark:type=rock or natural=shoal" />
		<tag k="name" v="Gulaskjeret" />
		<tag k="place" v="islet" />
		<tag k="ssr:stedsnr" v="874288" />
	</node>
	<node id="-490789" lat="60.6823276512" lon="5.09808740254">
		<tag k="name" v="Musholmane" />
		<tag k="place" v="islet" />
		<tag k="ssr:stedsnr" v="874287" />
	</node>
	<node id="-490788" lat="60.7170222224" lon="5.05245554887">
		<tag k="name" v="Kalven" />
		<tag k="natural" v="shoal" />
		<tag k="place" v="locality" />
		<tag k="ssr:stedsnr" v="874276" />
	</node>
	<node id="-490787" lat="60.773881312" lon="5.1671559997">
		<tag k="name" v="Grøningflua" />
		<tag k="natural" v="shoal" />
		<tag k="place" v="locality" />
		<tag k="ssr:stedsnr" v="874217" />
	</node>
	<node id="-490786" lat="60.7811305534" lon="5.11225555891">
		<tag k="name" v="Klubben" />
		<tag k="place" v="islet" />
		<tag k="ssr:stedsnr" v="874213" />
	</node>
	<node id="-490785" lat="60.7481416699" lon="5.07167777488">
		<tag k="name" v="Austresundet" />
		<tag k="natural" v="strait" />
		<tag k="ssr:stedsnr" v="874169" />
	</node>
	<node id="-490784" lat="60.7493361141" lon="5.03619445321">
		<tag k="name" v="Skagen" />
		<tag k="natural" v="cape" />
		<tag k="ssr:stedsnr" v="874167" />
	</node>
	<node id="-490783" lat="60.7180138904" lon="5.14884999835">
		<tag k="name" v="Juvika" />
		<tag k="natural" v="bay" />
		<tag k="ssr:stedsnr" v="874150" />
	</node>
	<node id="-490782" lat="60.7463969424" lon="5.25482889418">
		<tag k="name" v="Låtrebogane" />
		<tag k="natural" v="bay" />
		<tag k="ssr:stedsnr" v="873215" />
	</node>
	<node id="-490780" lat="60.7606416628" lon="5.191497221">
		<tag k="name" v="Nautevågen" />
		<tag k="natural" v="bay" />
		<tag k="ssr:stedsnr" v="858718" />
	</node>
	<node id="-488731" lat="60.6297138863" lon="5.49667500736">
		<tag k="name" v="Skåraholmen" />
		<tag k="place" v="islet" />
		<tag k="ssr:stedsnr" v="166515" />
	</node>
	<node id="-488730" lat="60.7417388895" lon="5.07198889544">
		<tag k="name" v="Kjeldsholmen" />
		<tag k="place" v="islet" />
		<tag k="ssr:stedsnr" v="166501" />
	</node>
	<node id="-490776" lat="60.8144388935" lon="5.04066111549">
		<tag k="name" v="Rotevika" />
		<tag k="natural" v="bay" />
		<tag k="ssr:stedsnr" v="858037" />
	</node>
	<node id="-490775" lat="60.8100277805" lon="5.04137500097">
		<tag k="name" v="Mongstadvika" />
		<tag k="natural" v="bay" />
		<tag k="ssr:stedsnr" v="858035" />
	</node>
	<node id="-488726" lat="60.7787138898" lon="5.03929721824">
		<tag k="name" v="Hopevågen" />
		<tag k="natural" v="bay" />
		<tag k="ssr:stedsnr" v="166468" />
	</node>
	<node id="-490773" lat="60.7092407856" lon="5.06429350371">
		<tag k="name" v="Lurøykalven" />
		<tag k="place" v="island" />
		<tag k="ssr:stedsnr" v="856828" />
	</node>
	<node id="-490772" lat="60.7404472201" lon="5.04601389714">
		<tag k="name" v="Engholmen" />
		<tag k="place" v="islet" />
		<tag k="ssr:stedsnr" v="856769" />
	</node>
	<node id="-490769" lat="60.7442999958" lon="5.23734167279">
		<tag k="alt_name" v="Vabøvågen" />
		<tag k="name" v="Vabuvågen" />
		<tag k="natural" v="bay" />
		<tag k="old_name" v="Vadbuvågen" />
		<tag k="ssr:stedsnr" v="856691" />
	</node>
	<node id="-488717" lat="60.700016663" lon="5.39091666508">
		<tag k="name" v="Krokaneset" />
		<tag k="natural" v="cape" />
		<tag k="ssr:stedsnr" v="166433" />
	</node>
	<node id="-488716" lat="60.8221499955" lon="4.99990832849">
		<tag k="name" v="Håvardsvik" />
		<tag k="natural" v="bay" />
		<tag k="ssr:stedsnr" v="166427" />
	</node>
	<node id="-487298" lat="60.7249336103" lon="5.04983825279">
		<tag k="bay" v="fjord" />
		<tag k="name" v="Lurefjorden" />
		<tag k="natural" v="bay" />
		<tag k="ssr:stedsnr" v="287590" />
	</node>
	<node id="-488713" lat="60.6088027802" lon="5.20442500297">
		<tag k="name" v="Torsvika" />
		<tag k="natural" v="bay" />
		<tag k="ssr:stedsnr" v="166413" />
	</node>
	<node id="-490759" lat="60.6797999965" lon="5.36299166239">
		<tag k="fixme" v="multiple name tags, choose one and add the other to alt_name" />
		<tag k="name" v="Hindnesodden;Oddane" />
		<tag k="natural" v="cape" />
		<tag k="ssr:stedsnr" v="856225" />
	</node>
	<node id="-488710" lat="60.5784555521" lon="5.21932499851">
		<tag k="name" v="Kråkevika" />
		<tag k="natural" v="bay" />
		<tag k="ssr:stedsnr" v="166405" />
	</node>
	<node id="-488709" lat="60.673488888" lon="5.37463334248">
		<tag k="name" v="Tyskeneset" />
		<tag k="natural" v="cape" />
		<tag k="ssr:stedsnr" v="166402" />
	</node>
	<node id="-490756" lat="60.7087250043" lon="5.12326943679">
		<tag k="name" v="Fiskeneset" />
		<tag k="natural" v="cape" />
		<tag k="ssr:stedsnr" v="856169" />
	</node>
	<node id="-488707" lat="60.7338916709" lon="5.30806665779">
		<tag k="fixme" v="consider seamark:type=rock or natural=shoal" />
		<tag k="name" v="Flatskjera" />
		<tag k="place" v="islet" />
		<tag k="ssr:stedsnr" v="166386" />
	</node>
	<node id="-487637" lat="60.7269111084" lon="5.08633055438">
		<tag k="alt_name" v="Spjøtøyna" />
		<tag k="name" v="Spjotøyna" />
		<tag k="place" v="island" />
		<tag k="ssr:stedsnr" v="370769" />
	</node>
	<node id="-490746" lat="60.635172221" lon="5.46036111896">
		<tag k="alt_name" v="Eidevågen" />
		<tag k="name" v="Eidavågen" />
		<tag k="natural" v="bay" />
		<tag k="ssr:stedsnr" v="856047" />
	</node>
	<node id="-487636" lat="60.6283750019" lon="5.49653888784">
		<tag k="name" v="Vågsneset" />
		<tag k="natural" v="cape" />
		<tag k="ssr:stedsnr" v="370726" />
	</node>
	<node id="-488692" lat="60.6071722194" lon="5.43357222529">
		<tag k="name" v="Bjørndalsvika" />
		<tag k="natural" v="bay" />
		<tag k="ssr:stedsnr" v="166311" />
	</node>
	<node id="-490738" lat="60.7324861077" lon="5.0612333264">
		<tag k="name" v="Dragøyna" />
		<tag k="place" v="island" />
		<tag k="ssr:stedsnr" v="855774" />
	</node>
	<node id="-490736" lat="60.7322500042" lon="5.13704166853">
		<tag k="name" v="Saltneset" />
		<tag k="natural" v="cape" />
		<tag k="ssr:stedsnr" v="855652" />
	</node>
	<node id="-490735" lat="60.732341738" lon="5.30692018372">
		<tag k="alt_name" v="Hodnelandsvågen, s;Austre Hodnelandsvågen" />
		<tag k="name" v="Søre Hodnelandsvågen" />
		<tag k="natural" v="bay" />
		<tag k="ssr:stedsnr" v="855648" />
	</node>
	<node id="-488686" lat="60.5882694413" lon="5.3977749913">
		<tag k="name" v="Litlevågen" />
		<tag k="natural" v="bay" />
		<tag k="ssr:stedsnr" v="166288" />
	</node>
	<node id="-490733" lat="60.726350002" lon="5.12103055804">
		<tag k="name" v="Fluøyna" />
		<tag k="place" v="islet" />
		<tag k="ssr:stedsnr" v="855636" />
	</node>
	<node id="-488677" lat="60.6988277776" lon="5.33456111448">
		<tag k="name" v="Mykinghella" />
		<tag k="natural" v="bay" />
		<tag k="ssr:stedsnr" v="166245" />
	</node>
	<node id="-490724" lat="60.6121611155" lon="5.20544445137">
		<tag k="alt_name" v="Lammevågen" />
		<tag k="name" v="Lammavågen" />
		<tag k="natural" v="bay" />
		<tag k="ssr:stedsnr" v="836642" />
	</node>
	<node id="-488675" lat="60.7182166697" lon="5.14696666367">
		<tag k="name" v="Djuvvika" />
		<tag k="natural" v="bay" />
		<tag k="ssr:stedsnr" v="166234" />
	</node>
	<node id="-488672" lat="60.7336972177" lon="5.14051666201">
		<tag k="name" v="Skitnevågen" />
		<tag k="natural" v="bay" />
		<tag k="ssr:stedsnr" v="166225" />
	</node>
	<node id="-488664" lat="60.7479861133" lon="5.24220556094">
		<tag k="name" v="Søre Hånessundet" />
		<tag k="natural" v="strait" />
		<tag k="ssr:stedsnr" v="166195" />
	</node>
	<node id="-488663" lat="60.6961040478" lon="5.40814756096">
		<tag k="name" v="Bøvika" />
		<tag k="natural" v="bay" />
		<tag k="ssr:stedsnr" v="166193" />
	</node>
	<node id="-488660" lat="60.7237555516" lon="5.12343054813">
		<tag k="name" v="Vestretangen" />
		<tag k="natural" v="cape" />
		<tag k="ssr:stedsnr" v="166183" />
	</node>
	<node id="-488659" lat="60.7158166686" lon="5.13369722574">
		<tag k="name" v="Bårdneset" />
		<tag k="natural" v="cape" />
		<tag k="ssr:stedsnr" v="166180" />
	</node>
	<node id="-488656" lat="60.763080556" lon="5.12220000751">
		<tag k="name" v="Grunnevågen" />
		<tag k="natural" v="bay" />
		<tag k="ssr:stedsnr" v="166156" />
	</node>
	<node id="-488655" lat="60.7701222244" lon="5.15583611055">
		<tag k="name" v="Oldrevika" />
		<tag k="natural" v="bay" />
		<tag k="ssr:stedsnr" v="166153" />
	</node>
	<node id="-488653" lat="60.73291944" lon="5.28328888269">
		<tag k="name" v="Storneset" />
		<tag k="natural" v="cape" />
		<tag k="ssr:stedsnr" v="166144" />
	</node>
	<node id="-488652" lat="60.7986527761" lon="5.06393055967">
		<tag k="name" v="Havnen" />
		<tag k="natural" v="bay" />
		<tag k="ssr:stedsnr" v="166142" />
	</node>
	<node id="-488642" lat="60.5607861896" lon="5.3318064588">
		<tag k="name" v="Neset" />
		<tag k="natural" v="cape" />
		<tag k="ssr:stedsnr" v="166098" />
	</node>
	<node id="-490685" lat="60.6895833341" lon="5.08713888112">
		<tag k="name" v="Skitnevågen" />
		<tag k="natural" v="bay" />
		<tag k="ssr:stedsnr" v="834581" />
	</node>
	<node id="-490684" lat="60.7455111087" lon="5.07419721861">
		<tag k="name" v="Austesundet" />
		<tag k="natural" v="strait" />
		<tag k="ssr:stedsnr" v="834571" />
	</node>
	<node id="-490674" lat="60.6966416668" lon="5.59471111013">
		<tag k="fixme" v="consider seamark:type=rock or natural=shoal" />
		<tag k="name" v="Vikaholmskjeret" />
		<tag k="place" v="islet" />
		<tag k="ssr:stedsnr" v="834507" />
	</node>
	<node id="-490669" lat="60.7305027795" lon="5.08744165916">
		<tag k="name" v="Bruvågen" />
		<tag k="natural" v="bay" />
		<tag k="ssr:stedsnr" v="834468" />
	</node>
	<node id="-489821" lat="60.6722401026" lon="5.09486645433">
		<tag k="alt_name" v="Grunnasundet" />
		<tag k="name" v="Grunnesundet" />
		<tag k="natural" v="strait" />
		<tag k="ssr:stedsnr" v="612760" />
	</node>
	<node id="-490666" lat="60.6398583295" lon="5.39526944099">
		<tag k="name" v="Vestvågen" />
		<tag k="natural" v="bay" />
		<tag k="ssr:stedsnr" v="834455" />
	</node>
	<node id="-490664" lat="60.6363166625" lon="5.45695277656">
		<tag k="name" v="Knutsneset" />
		<tag k="natural" v="cape" />
		<tag k="ssr:stedsnr" v="834450" />
	</node>
	<node id="-490663" lat="60.639072224" lon="5.46161111013">
		<tag k="name" v="Furvågane" />
		<tag k="natural" v="bay" />
		<tag k="ssr:stedsnr" v="834448" />
	</node>
	<node id="-490662" lat="60.767069447" lon="5.04290000752">
		<tag k="name" v="Revursvika" />
		<tag k="natural" v="bay" />
		<tag k="ssr:stedsnr" v="834445" />
	</node>
	<node id="-490657" lat="60.6414555511" lon="5.44924443997">
		<tag k="fixme" v="consider seamark:type=rock or natural=shoal" />
		<tag k="name" v="Gullnakken" />
		<tag k="place" v="islet" />
		<tag k="ssr:stedsnr" v="834416" />
	</node>
	<node id="-490655" lat="60.6838916621" lon="5.38416943757">
		<tag k="name" v="Storholmen" />
		<tag k="place" v="islet" />
		<tag k="ssr:stedsnr" v="834388" />
	</node>
	<node id="-488605" lat="60.662683332" lon="5.11933333944">
		<tag k="name" v="Festevågen" />
		<tag k="natural" v="bay" />
		<tag k="ssr:stedsnr" v="165384" />
	</node>
	<node id="-490652" lat="60.5838055554" lon="5.1842277824">
		<tag k="name" v="Sveneset" />
		<tag k="natural" v="cape" />
		<tag k="ssr:stedsnr" v="834377" />
	</node>
	<node id="-488603" lat="60.7097972181" lon="5.12459722773">
		<tag k="alt_name" v="Sildevågen" />
		<tag k="name" v="Sildavågen" />
		<tag k="natural" v="bay" />
		<tag k="ssr:stedsnr" v="165314" />
	</node>
	<node id="-488602" lat="60.6605944445" lon="5.36767221804">
		<tag k="name" v="Gilsneset" />
		<tag k="natural" v="cape" />
		<tag k="ssr:stedsnr" v="165306" />
	</node>
	<node id="-488599" lat="60.6800416699" lon="5.14199444213">
		<tag k="name" v="Brislingavika" />
		<tag k="natural" v="bay" />
		<tag k="ssr:stedsnr" v="165274" />
	</node>
	<node id="-488598" lat="60.6718388879" lon="5.12642777956">
		<tag k="name" v="Kaldneset" />
		<tag k="natural" v="cape" />
		<tag k="ssr:stedsnr" v="165262" />
	</node>
	<node id="-488596" lat="60.6858333317" lon="5.1846611094">
		<tag k="name" v="Sauvikane" />
		<tag k="natural" v="bay" />
		<tag k="ssr:stedsnr" v="165248" />
	</node>
	<node id="-488595" lat="60.6506777825" lon="5.38068611757">
		<tag k="name" v="Røtasundet" />
		<tag k="natural" v="strait" />
		<tag k="ssr:stedsnr" v="165244" />
	</node>
	<node id="-490639" lat="60.6097222235" lon="5.42878334118">
		<tag k="name" v="Grunnevågen" />
		<tag k="natural" v="bay" />
		<tag k="ssr:stedsnr" v="834295" />
	</node>
	<node id="-490638" lat="60.5858222185" lon="5.39419722447">
		<tag k="name" v="Bøneset" />
		<tag k="natural" v="cape" />
		<tag k="ssr:stedsnr" v="834282" />
	</node>
	<node id="-488586" lat="60.6573524979" lon="5.57739986632">
		<tag k="name" v="Steinvågneset" />
		<tag k="natural" v="cape" />
		<tag k="ssr:stedsnr" v="164855" />
	</node>
	<node id="-488584" lat="60.719672223" lon="5.16936667304">
		<tag k="name" v="Gullnakken" />
		<tag k="natural" v="cape" />
		<tag k="ssr:stedsnr" v="146861" />
	</node>
	<node id="-488583" lat="60.7918361073" lon="4.99109723001">
		<tag k="name" v="Småholmen" />
		<tag k="place" v="islet" />
		<tag k="ssr:stedsnr" v="146778" />
	</node>
	<node id="-488581" lat="60.5510416656" lon="5.27603332889">
		<tag k="alt_name" v="Juvvika" />
		<tag k="name" v="Juvika" />
		<tag k="natural" v="bay" />
		<tag k="ssr:stedsnr" v="146642" />
	</node>
	<node id="-488579" lat="60.7598493327" lon="5.18555345312">
		<tag k="alt_name" v="Garnholmen" />
		<tag k="name" v="Garnhusholmen" />
		<tag k="place" v="islet" />
		<tag k="ssr:stedsnr" v="146184" />
	</node>
	<node id="-488578" lat="60.7818916703" lon="5.08934722453">
		<tag k="name" v="Lyngholmen" />
		<tag k="place" v="islet" />
		<tag k="ssr:stedsnr" v="146175" />
	</node>
	<node id="-490625" lat="60.7442361136" lon="5.2404555489">
		<tag k="name" v="Vabøneset" />
		<tag k="natural" v="cape" />
		<tag k="ssr:stedsnr" v="834205" />
	</node>
	<node id="-488576" lat="60.707313893" lon="5.17474722551">
		<tag k="name" v="Kobbeneset" />
		<tag k="natural" v="cape" />
		<tag k="ssr:stedsnr" v="145322" />
	</node>
	<node id="-490621" lat="60.7233194452" lon="5.18616388455">
		<tag k="name" v="Gryteneset" />
		<tag k="natural" v="cape" />
		<tag k="ssr:stedsnr" v="834190" />
	</node>
	<node id="-488571" lat="60.7171996697" lon="5.33641002315">
		<tag k="name" v="Bukksula" />
		<tag k="natural" v="cape" />
		<tag k="ssr:stedsnr" v="145195" />
	</node>
	<node id="-488569" lat="60.7476786694" lon="4.99269663635">
		<tag k="name" v="Naustvika" />
		<tag k="natural" v="bay" />
		<tag k="ssr:stedsnr" v="145180" />
	</node>
	<node id="-488568" lat="60.7407638859" lon="5.08277221435">
		<tag k="name" v="Paddebergsosen" />
		<tag k="natural" v="strait" />
		<tag k="ssr:stedsnr" v="145160" />
	</node>
	<node id="-490614" lat="60.7620666662" lon="5.17780555728">
		<tag k="name" v="Nautevågen" />
		<tag k="natural" v="bay" />
		<tag k="ssr:stedsnr" v="834164" />
	</node>
	<node id="-490613" lat="60.760897226" lon="5.12665832754">
		<tag k="name" v="Garvika" />
		<tag k="natural" v="bay" />
		<tag k="ssr:stedsnr" v="834161" />
	</node>
	<node id="-488728" lat="60.781941667" lon="5.03514723101">
		<tag k="name" v="Litlevika" />
		<tag k="natural" v="bay" />
		<tag k="ssr:stedsnr" v="166472" />
	</node>
	<node id="-490610" lat="60.7342361098" lon="5.28725277161">
		<tag k="name" v="Litlaneset" />
		<tag k="natural" v="cape" />
		<tag k="ssr:stedsnr" v="834147" />
	</node>
	<node id="-488561" lat="60.7833694472" lon="5.09168610868">
		<tag k="name" v="Tvibergøyna" />
		<tag k="place" v="island" />
		<tag k="ssr:stedsnr" v="130214" />
	</node>
	<node id="-488560" lat="60.7771166633" lon="5.02008611904">
		<tag k="alt_name" v="Keiløy" />
		<tag k="name" v="Keila" />
		<tag k="place" v="island" />
		<tag k="ssr:stedsnr" v="130207" />
	</node>
	<node id="-488559" lat="60.7655944467" lon="5.03168055663">
		<tag k="name" v="Keiletangen" />
		<tag k="natural" v="cape" />
		<tag k="ssr:stedsnr" v="130186" />
	</node>
	<node id="-488558" lat="60.7655138881" lon="5.0532638956">
		<tag k="alt_name" v="Tyttebærneset" />
		<tag k="name" v="Tytebærneset" />
		<tag k="natural" v="cape" />
		<tag k="ssr:stedsnr" v="130138" />
	</node>
	<node id="-488554" lat="60.8272250017" lon="4.98352776924">
		<tag k="name" v="Austretaren" />
		<tag k="natural" v="shoal" />
		<tag k="place" v="locality" />
		<tag k="ssr:stedsnr" v="129092" />
	</node>
	<node id="-488553" lat="60.7716999972" lon="5.04709999568">
		<tag k="alt_name" v="Mjåsundstraumen" />
		<tag k="name" v="Mjåsundet" />
		<tag k="natural" v="strait" />
		<tag k="ssr:stedsnr" v="129217" />
	</node>
	<node id="-488552" lat="60.7912055568" lon="5.09142221336">
		<tag k="name" v="Øyflua" />
		<tag k="natural" v="shoal" />
		<tag k="place" v="locality" />
		<tag k="ssr:stedsnr" v="129028" />
	</node>
	<node id="-488547" lat="60.6831027803" lon="5.09107500655">
		<tag k="name" v="Vågane" />
		<tag k="natural" v="bay" />
		<tag k="ssr:stedsnr" v="127791" />
	</node>
	<node id="-488546" lat="60.7363944417" lon="5.05139166025">
		<tag k="alt_name" v="Børøy" />
		<tag k="name" v="Børo" />
		<tag k="place" v="islet" />
		<tag k="ssr:stedsnr" v="127783" />
	</node>
	<node id="-488545" lat="60.7335499958" lon="5.08889999473">
		<tag k="alt_name" v="Brakøy" />
		<tag k="name" v="Brakøyna" />
		<tag k="place" v="island" />
		<tag k="ssr:stedsnr" v="127782" />
	</node>
	<node id="-488544" lat="60.7060888931" lon="5.07081666732">
		<tag k="fixme" v="multiple name tags, choose one and add the other to alt_name" />
		<tag k="name" v="Kalvsvågen;Kalvsvika" />
		<tag k="natural" v="bay" />
		<tag k="ssr:stedsnr" v="127780" />
	</node>
	<node id="-488542" lat="60.6230306837" lon="5.49069311473">
		<tag k="alt_name" v="Drangsneset" />
		<tag k="name" v="Drengsneset" />
		<tag k="natural" v="cape" />
		<tag k="ssr:stedsnr" v="127748" />
	</node>
	<node id="-488540" lat="60.7233027788" lon="5.11484722601">
		<tag k="name" v="Straumsosen" />
		<tag k="natural" v="strait" />
		<tag k="ssr:stedsnr" v="127667" />
	</node>
	<node id="-487609" lat="60.6446333297" lon="5.44542777633">
		<tag k="name" v="Tosko" />
		<tag k="place" v="islet" />
		<tag k="ssr:stedsnr" v="370049" />
	</node>
	<node id="-488331" lat="60.7900833348" lon="4.99559999397">
		<tag k="name" v="Breiabukta" />
		<tag k="natural" v="bay" />
		<tag k="ssr:stedsnr" v="88546" />
	</node>
	<node id="-490578" lat="60.6523222227" lon="5.41871111254">
		<tag k="name" v="Storskrebukta" />
		<tag k="natural" v="bay" />
		<tag k="ssr:stedsnr" v="833495" />
	</node>
	<node id="-490577" lat="60.6620750007" lon="5.41263611909">
		<tag k="fixme" v="consider seamark:type=rock or natural=shoal" />
		<tag k="name" v="Øyaskjeret" />
		<tag k="place" v="islet" />
		<tag k="ssr:stedsnr" v="833493" />
	</node>
	<node id="-490576" lat="60.7082361081" lon="5.15384721834">
		<tag k="name" v="Mjåsundet" />
		<tag k="natural" v="strait" />
		<tag k="ssr:stedsnr" v="833324" />
	</node>
	<node id="-490575" lat="60.7112055587" lon="5.12056666972">
		<tag k="name" v="Naustbukta" />
		<tag k="natural" v="bay" />
		<tag k="ssr:stedsnr" v="833320" />
	</node>
	<node id="-490574" lat="60.6727555564" lon="5.37403055305">
		<tag k="name" v="Gyltevågen" />
		<tag k="natural" v="bay" />
		<tag k="ssr:stedsnr" v="833313" />
	</node>
	<node id="-490573" lat="60.6519916629" lon="5.4219000027">
		<tag k="name" v="Stolsneset" />
		<tag k="natural" v="cape" />
		<tag k="ssr:stedsnr" v="833308" />
	</node>
	<node id="-490572" lat="60.648608337" lon="5.42815278431">
		<tag k="name" v="Storskrida" />
		<tag k="natural" v="cape" />
		<tag k="ssr:stedsnr" v="833307" />
	</node>
	<node id="-490560" lat="60.6727944441" lon="5.5686499931">
		<tag k="name" v="Rabbeneset" />
		<tag k="natural" v="cape" />
		<tag k="ssr:stedsnr" v="832843" />
	</node>
	<node id="-490559" lat="60.6582111069" lon="5.58311388226">
		<tag k="name" v="Pæholmen" />
		<tag k="place" v="islet" />
		<tag k="ssr:stedsnr" v="832841" />
	</node>
	<node id="-490557" lat="60.5949111066" lon="5.42452221818">
		<tag k="name" v="Ospholmen" />
		<tag k="place" v="islet" />
		<tag k="ssr:stedsnr" v="833268" />
	</node>
	<node id="-488508" lat="60.709677781" lon="5.15074445133">
		<tag k="alt_name" v="Kvalvågen" />
		<tag k="name" v="Vågen" />
		<tag k="natural" v="bay" />
		<tag k="ssr:stedsnr" v="127169" />
	</node>
	<node id="-490555" lat="60.6052472241" lon="5.43806111896">
		<tag k="name" v="Snekkevika" />
		<tag k="natural" v="bay" />
		<tag k="ssr:stedsnr" v="833265" />
	</node>
	<node id="-490554" lat="60.6997354083" lon="5.39186428333">
		<tag k="name" v="Krokeneset" />
		<tag k="natural" v="cape" />
		<tag k="ssr:stedsnr" v="833263" />
	</node>
	<node id="-490553" lat="60.6798083372" lon="5.12377500594">
		<tag k="name" v="Smørslikka" />
		<tag k="place" v="island" />
		<tag k="ssr:stedsnr" v="833258" />
	</node>
	<node id="-490551" lat="60.7511027758" lon="5.11579722723">
		<tag k="name" v="Midttangen" />
		<tag k="natural" v="cape" />
		<tag k="ssr:stedsnr" v="833231" />
	</node>
	<node id="-490548" lat="60.6939916682" lon="5.0970333313">
		<tag k="fixme" v="consider seamark:type=rock or natural=shoal" />
		<tag k="name" v="Kuskjeret" />
		<tag k="place" v="islet" />
		<tag k="ssr:stedsnr" v="817171" />
	</node>
	<node id="-490547" lat="60.7695361117" lon="5.17635000561">
		<tag k="name" v="Breidflua" />
		<tag k="natural" v="shoal" />
		<tag k="place" v="locality" />
		<tag k="ssr:stedsnr" v="814942" />
	</node>
	<node id="-490546" lat="60.7631722211" lon="5.18776666395">
		<tag k="name" v="Sersjantflua" />
		<tag k="natural" v="shoal" />
		<tag k="place" v="locality" />
		<tag k="ssr:stedsnr" v="814938" />
	</node>
	<node id="-490545" lat="60.64689444" lon="5.25906666258">
		<tag k="fixme" v="consider seamark:type=rock or natural=shoal" />
		<tag k="name" v="Steinvikskjeret" />
		<tag k="place" v="islet" />
		<tag k="ssr:stedsnr" v="814890" />
	</node>
	<node id="-490543" lat="60.6380166663" lon="5.27362222175">
		<tag k="name" v="Lausholmen" />
		<tag k="place" v="islet" />
		<tag k="ssr:stedsnr" v="813287" />
	</node>
	<node id="-490542" lat="60.6971333362" lon="5.19469722875">
		<tag k="name" v="Pamphavet" />
		<tag k="natural" v="bay" />
		<tag k="ssr:stedsnr" v="813282" />
	</node>
	<node id="-490541" lat="60.6615249957" lon="5.24064722562">
		<tag k="name" v="Trælavik" />
		<tag k="natural" v="bay" />
		<tag k="ssr:stedsnr" v="813280" />
	</node>
	<node id="-490539" lat="60.6425166697" lon="5.1509916603">
		<tag k="name" v="Juvika" />
		<tag k="natural" v="bay" />
		<tag k="ssr:stedsnr" v="813254" />
	</node>
	<node id="-490538" lat="60.6618916655" lon="5.11352499681">
		<tag k="fixme" v="consider seamark:type=rock or natural=shoal" />
		<tag k="name" v="Terneskjeret" />
		<tag k="place" v="islet" />
		<tag k="ssr:stedsnr" v="813252" />
	</node>
	<node id="-488967" lat="60.6920861081" lon="5.59777778426">
		<tag k="name" v="Båtneset" />
		<tag k="natural" v="cape" />
		<tag k="ssr:stedsnr" v="227761" />
	</node>
	<node id="-490536" lat="60.757266671" lon="5.20975555171">
		<tag k="name" v="Ådnøyna" />
		<tag k="place" v="island" />
		<tag k="ssr:stedsnr" v="797934" />
	</node>
	<node id="-490529" lat="60.8259805578" lon="4.99635277067">
		<tag k="name" v="Klubben" />
		<tag k="place" v="islet" />
		<tag k="ssr:stedsnr" v="797078" />
	</node>
	<node id="-490525" lat="60.7924444467" lon="5.0701055494">
		<tag k="name" v="Kvernhusvika" />
		<tag k="natural" v="bay" />
		<tag k="ssr:stedsnr" v="797030" />
	</node>
	<node id="-490522" lat="60.7451083303" lon="5.24590000291">
		<tag k="name" v="Lindevågen" />
		<tag k="natural" v="bay" />
		<tag k="ssr:stedsnr" v="795693" />
	</node>
	<node id="-488473" lat="60.692764491" lon="5.40335475509">
		<tag k="name" v="Klenevågen" />
		<tag k="natural" v="bay" />
		<tag k="ssr:stedsnr" v="106385" />
	</node>
	<node id="-487940" lat="60.7294320922" lon="5.65317702136">
		<tag k="name" v="Revsneset" />
		<tag k="natural" v="cape" />
		<tag k="ssr:stedsnr" v="894992" />
	</node>
	<node id="-490517" lat="60.6943333331" lon="5.5862555559">
		<tag k="name" v="Storholmen" />
		<tag k="place" v="islet" />
		<tag k="ssr:stedsnr" v="795420" />
	</node>
	<node id="-490515" lat="60.6714888903" lon="5.60320277969">
		<tag k="name" v="Lyraneset" />
		<tag k="natural" v="cape" />
		<tag k="ssr:stedsnr" v="795395" />
	</node>
	<node id="-488455" lat="60.7241000033" lon="5.6440166621">
		<tag k="name" v="Romarheimsneset" />
		<tag k="natural" v="cape" />
		<tag k="ssr:stedsnr" v="105948" />
	</node>
	<node id="-490502" lat="60.6665416651" lon="5.46088611167">
		<tag k="bay" v="fjord" />
		<tag k="fixme" v="multiple name tags, choose one and add the other to alt_name" />
		<tag k="name" v="Stallbotnen;Stallbotnfjorden" />
		<tag k="natural" v="bay" />
		<tag k="ssr:stedsnr" v="795234" />
	</node>
	<node id="-490501" lat="60.657255555" lon="5.22866944634">
		<tag k="name" v="Kråketangen" />
		<tag k="natural" v="cape" />
		<tag k="ssr:stedsnr" v="795232" />
	</node>
	<node id="-488448" lat="60.6863249963" lon="5.59091666598">
		<tag k="name" v="Klubbholmen" />
		<tag k="natural" v="cape" />
		<tag k="ssr:stedsnr" v="105759" />
	</node>
	<node id="-490495" lat="60.7032611084" lon="5.18149999168">
		<tag k="name" v="Trællandsvågen" />
		<tag k="natural" v="bay" />
		<tag k="ssr:stedsnr" v="795197" />
	</node>
	<node id="-488724" lat="60.6383388886" lon="5.44333889706">
		<tag k="name" v="Måsøyna" />
		<tag k="natural" v="cape" />
		<tag k="ssr:stedsnr" v="166464" />
	</node>
	<node id="-490488" lat="60.5445861126" lon="5.31805277039">
		<tag k="bay" v="fjord" />
		<tag k="name" v="Osterfjorden" />
		<tag k="natural" v="bay" />
		<tag k="ssr:stedsnr" v="795102" />
	</node>
	<node id="-488439" lat="60.6789499964" lon="5.10486111731">
		<tag k="name" v="Vaurevågen" />
		<tag k="natural" v="bay" />
		<tag k="ssr:stedsnr" v="105576" />
	</node>
	<node id="-488438" lat="60.6876833324" lon="5.09507777596">
		<tag k="name" v="Sandsholmen" />
		<tag k="place" v="islet" />
		<tag k="ssr:stedsnr" v="105571" />
	</node>
	<node id="-488437" lat="60.638161114" lon="5.57303332528">
		<tag k="name" v="Tjuvabergneset" />
		<tag k="natural" v="cape" />
		<tag k="ssr:stedsnr" v="105559" />
	</node>
	<node id="-488435" lat="60.6820027745" lon="5.08855277416">
		<tag k="name" v="Toskevika" />
		<tag k="natural" v="bay" />
		<tag k="ssr:stedsnr" v="105552" />
	</node>
	<node id="-490481" lat="60.6084944491" lon="5.40408334079">
		<tag k="name" v="Nordøyna" />
		<tag k="place" v="islet" />
		<tag k="ssr:stedsnr" v="795043" />
	</node>
	<node id="-487655" lat="60.6957805561" lon="5.16467777897">
		<tag k="name" v="Kvalvågen" />
		<tag k="natural" v="bay" />
		<tag k="ssr:stedsnr" v="388291" />
	</node>
	<node id="-488427" lat="60.6526277812" lon="5.43788610614">
		<tag k="fixme" v="consider seamark:type=rock or natural=shoal" />
		<tag k="name" v="Søskjeret" />
		<tag k="place" v="islet" />
		<tag k="ssr:stedsnr" v="105491" />
	</node>
	<node id="-488426" lat="60.7305333367" lon="5.09695000396">
		<tag k="name" v="Grunnevågen" />
		<tag k="natural" v="bay" />
		<tag k="ssr:stedsnr" v="105489" />
	</node>
	<node id="-488425" lat="60.6609055538" lon="5.42051665948">
		<tag k="name" v="Klenevågen" />
		<tag k="natural" v="bay" />
		<tag k="ssr:stedsnr" v="105488" />
	</node>
	<node id="-488424" lat="60.7178749993" lon="5.09311110813">
		<tag k="name" v="Skjeltholmen" />
		<tag k="place" v="islet" />
		<tag k="ssr:stedsnr" v="105483" />
	</node>
	<node id="-488422" lat="60.7564249979" lon="5.05465833222">
		<tag k="fixme" v="consider seamark:type=rock or natural=shoal" />
		<tag k="name" v="Risskjera" />
		<tag k="place" v="islet" />
		<tag k="ssr:stedsnr" v="105448" />
	</node>
	<node id="-488421" lat="60.6190499994" lon="5.20417222785">
		<tag k="name" v="Jordvågen" />
		<tag k="natural" v="bay" />
		<tag k="ssr:stedsnr" v="105424" />
	</node>
	<node id="-488614" lat="60.5802166646" lon="5.38187778158">
		<tag k="name" v="Kråkholmen" />
		<tag k="place" v="islet" />
		<tag k="ssr:stedsnr" v="165789" />
	</node>
	<node id="-488418" lat="60.6477977041" lon="5.13504323183">
		<tag k="name" v="Nordre Haukåsneset" />
		<tag k="natural" v="cape" />
		<tag k="ssr:stedsnr" v="105406" />
	</node>
	<node id="-488416" lat="60.7233684993" lon="5.32398580776">
		<tag k="name" v="Rekevika" />
		<tag k="natural" v="bay" />
		<tag k="ssr:stedsnr" v="105404" />
	</node>
	<node id="-488411" lat="60.5698777758" lon="5.38141944334">
		<tag k="name" v="Storneset" />
		<tag k="natural" v="cape" />
		<tag k="ssr:stedsnr" v="105379" />
	</node>
	<node id="-490862" lat="60.6586194409" lon="5.1960444475">
		<tag k="fixme" v="consider seamark:type=rock or natural=shoal" />
		<tag k="name" v="Handragskjeret" />
		<tag k="place" v="islet" />
		<tag k="ssr:stedsnr" v="935304" />
	</node>
	<node id="-490447" lat="60.6506388897" lon="5.59523889089">
		<tag k="name" v="Bakarneset" />
		<tag k="natural" v="cape" />
		<tag k="ssr:stedsnr" v="773759" />
	</node>
	<node id="-490445" lat="60.6828000009" lon="5.59179999893">
		<tag k="name" v="Lauvvika" />
		<tag k="natural" v="bay" />
		<tag k="ssr:stedsnr" v="773745" />
	</node>
	<node id="-490443" lat="60.6731469642" lon="5.46999562673">
		<tag k="name" v="Flotavika" />
		<tag k="natural" v="bay" />
		<tag k="ssr:stedsnr" v="773696" />
	</node>
	<node id="-488394" lat="60.6032833354" lon="5.45531943904">
		<tag k="name" v="Kvernhusvika" />
		<tag k="natural" v="bay" />
		<tag k="ssr:stedsnr" v="105295" />
	</node>
	<node id="-488393" lat="60.6722305556" lon="5.21101388008">
		<tag k="name" v="Brønndalsvika" />
		<tag k="natural" v="bay" />
		<tag k="ssr:stedsnr" v="105290" />
	</node>
	<node id="-488392" lat="60.6780749957" lon="5.20094166419">
		<tag k="name" v="Bruvollsanden" />
		<tag k="natural" v="beach" />
		<tag k="place" v="locality" />
		<tag k="ssr:stedsnr" v="105289" />
	</node>
	<node id="-488382" lat="60.7103999985" lon="5.34687222926">
		<tag k="name" v="Haraldvika" />
		<tag k="natural" v="bay" />
		<tag k="ssr:stedsnr" v="105249" />
	</node>
	<node id="-488949" lat="60.7411166684" lon="5.07606944013">
		<tag k="name" v="Vanlukka" />
		<tag k="place" v="island" />
		<tag k="ssr:stedsnr" v="227496" />
	</node>
	<node id="-488380" lat="60.7334805555" lon="5.13078889162">
		<tag k="name" v="Syslakvågen" />
		<tag k="natural" v="bay" />
		<tag k="ssr:stedsnr" v="105232" />
	</node>
	<node id="-487242" lat="60.7546416625" lon="5.11435277697">
		<tag k="name" v="Åløypesundet" />
		<tag k="natural" v="strait" />
		<tag k="ssr:stedsnr" v="287253" />
	</node>
	<node id="-488377" lat="60.7495865937" lon="5.23944417289">
		<tag k="name" v="Nordre Hånessundet" />
		<tag k="natural" v="strait" />
		<tag k="ssr:stedsnr" v="105197" />
	</node>
	<node id="-490418" lat="60.691711114" lon="5.10309445228">
		<tag k="name" v="Skarpeneset" />
		<tag k="natural" v="cape" />
		<tag k="ssr:stedsnr" v="773505" />
	</node>
	<node id="-490416" lat="60.6940611087" lon="5.59433611685">
		<tag k="name" v="Haukøyna" />
		<tag k="place" v="island" />
		<tag k="ssr:stedsnr" v="773494" />
	</node>
	<node id="-490414" lat="60.7271722209" lon="5.10051665864">
		<tag k="name" v="Brakøyholmane" />
		<tag k="place" v="islet" />
		<tag k="ssr:stedsnr" v="773475" />
	</node>
	<node id="-490413" lat="60.7942638887" lon="4.99578611446">
		<tag k="name" v="Notholmen" />
		<tag k="place" v="islet" />
		<tag k="ssr:stedsnr" v="773474" />
	</node>
	<node id="-490410" lat="60.7706138891" lon="5.04678889566">
		<tag k="name" v="Nekkavika" />
		<tag k="natural" v="bay" />
		<tag k="ssr:stedsnr" v="773444" />
	</node>
	<node id="-488361" lat="60.7764595259" lon="5.14985567992">
		<tag k="name" v="Storbukta" />
		<tag k="natural" v="bay" />
		<tag k="ssr:stedsnr" v="105118" />
	</node>
	<node id="-490405" lat="60.6396972184" lon="5.44861945142">
		<tag k="name" v="Linekalven" />
		<tag k="place" v="island" />
		<tag k="ssr:stedsnr" v="773428" />
	</node>
	<node id="-490404" lat="60.6979998822" lon="5.38976595196">
		<tag k="name" v="Langeneset" />
		<tag k="natural" v="cape" />
		<tag k="ssr:stedsnr" v="773421" />
	</node>
	<node id="-490402" lat="60.5891916677" lon="5.21616666089">
		<tag k="name" v="Årsholmsundet" />
		<tag k="natural" v="strait" />
		<tag k="ssr:stedsnr" v="773391" />
	</node>
	<node id="-490651" lat="60.7329861077" lon="5.31039165791">
		<tag k="name" v="Sundsholmen" />
		<tag k="place" v="islet" />
		<tag k="ssr:stedsnr" v="834372" />
	</node>
	<node id="-490400" lat="60.6782555514" lon="5.3613555615">
		<tag k="name" v="Djuvvika" />
		<tag k="natural" v="bay" />
		<tag k="ssr:stedsnr" v="773384" />
	</node>
	<node id="-490399" lat="60.7344638875" lon="5.29795555621">
		<tag k="name" v="Kippevika" />
		<tag k="natural" v="bay" />
		<tag k="ssr:stedsnr" v="773378" />
	</node>
	<node id="-490395" lat="60.5749722247" lon="5.38085833315">
		<tag k="name" v="Furholmen" />
		<tag k="place" v="islet" />
		<tag k="ssr:stedsnr" v="773360" />
	</node>
	<node id="-487425" lat="60.7221388899" lon="5.18425000205">
		<tag k="alt_name" v="Brunslandsholmane" />
		<tag k="name" v="Brunnslandsholmane" />
		<tag k="place" v="islet" />
		<tag k="ssr:stedsnr" v="328130" />
	</node>
	<node id="-490391" lat="60.6414749982" lon="5.15085000393">
		<tag k="name" v="Juvvikneset" />
		<tag k="natural" v="cape" />
		<tag k="ssr:stedsnr" v="773348" />
	</node>
	<node id="-488339" lat="60.6615694441" lon="5.58057778669">
		<tag k="name" v="Molviksundet" />
		<tag k="natural" v="strait" />
		<tag k="ssr:stedsnr" v="104839" />
	</node>
	<node id="-490386" lat="60.6939" lon="5.17091666831">
		<tag k="name" v="Gamle Naustvika" />
		<tag k="natural" v="bay" />
		<tag k="ssr:stedsnr" v="773325" />
	</node>
	<node id="-490382" lat="60.6997249997" lon="5.33394167093">
		<tag k="alt_name" v="Hodnavika" />
		<tag k="name" v="Hodnevika" />
		<tag k="natural" v="bay" />
		<tag k="ssr:stedsnr" v="773250" />
	</node>
	<node id="-490380" lat="60.7154222256" lon="5.15993889013">
		<tag k="fixme" v="consider seamark:type=rock or natural=shoal" />
		<tag k="name" v="Katteskjera" />
		<tag k="place" v="islet" />
		<tag k="ssr:stedsnr" v="773242" />
	</node>
	<node id="-490379" lat="60.729836115" lon="5.13045277228">
		<tag k="name" v="Gølnaholmane" />
		<tag k="place" v="islet" />
		<tag k="ssr:stedsnr" v="773238" />
	</node>
	<node id="-488330" lat="60.6687472232" lon="5.17484165758">
		<tag k="name" v="Toftingflua" />
		<tag k="natural" v="shoal" />
		<tag k="place" v="locality" />
		<tag k="ssr:stedsnr" v="86882" />
	</node>
	<node id="-490647" lat="60.564986108" lon="5.37208611191">
		<tag k="name" v="Maurholet" />
		<tag k="natural" v="bay" />
		<tag k="ssr:stedsnr" v="834337" />
	</node>
	<node id="-488328" lat="60.5633472179" lon="5.34173611358">
		<tag k="name" v="Djupedalsneset" />
		<tag k="natural" v="cape" />
		<tag k="ssr:stedsnr" v="85465" />
	</node>
	<node id="-488327" lat="60.6876504801" lon="5.10117632688">
		<tag k="fixme" v="consider seamark:type=rock or natural=shoal" />
		<tag k="name" v="Bispen" />
		<tag k="place" v="islet" />
		<tag k="ssr:stedsnr" v="85231" />
	</node>
	<node id="-490425" lat="60.7068361087" lon="5.07828888305">
		<tag k="name" v="Øydjorda" />
		<tag k="place" v="island" />
		<tag k="ssr:stedsnr" v="773534" />
	</node>
	<node id="-488325" lat="60.8159586829" lon="5.00265908268">
		<tag k="alt_name" v="Båtholmen" />
		<tag k="name" v="Båtevikholmen" />
		<tag k="place" v="islet" />
		<tag k="ssr:stedsnr" v="85139" />
	</node>
	<node id="-490372" lat="60.7793833304" lon="5.13196111519">
		<tag k="name" v="Dyrkollneset" />
		<tag k="natural" v="cape" />
		<tag k="ssr:stedsnr" v="773213" />
	</node>
	<node id="-488323" lat="60.7628194457" lon="5.19094443593">
		<tag k="fixme" v="consider seamark:type=rock or natural=shoal" />
		<tag k="name" v="Morteskjeret" />
		<tag k="place" v="islet" />
		<tag k="ssr:stedsnr" v="69728" />
	</node>
	<node id="-488319" lat="60.8086583375" lon="5.04795000489">
		<tag k="name" v="Gardsendflua" />
		<tag k="natural" v="shoal" />
		<tag k="place" v="locality" />
		<tag k="ssr:stedsnr" v="69061" />
	</node>
	<node id="-490363" lat="60.7598666697" lon="5.18207778085">
		<tag k="name" v="Vika" />
		<tag k="natural" v="bay" />
		<tag k="ssr:stedsnr" v="773167" />
	</node>
	<node id="-488312" lat="60.7933249961" lon="5.08835278675">
		<tag k="name" v="Skolten" />
		<tag k="natural" v="shoal" />
		<tag k="place" v="locality" />
		<tag k="ssr:stedsnr" v="69016" />
	</node>
	<node id="-488307" lat="60.7180083348" lon="5.15813055254">
		<tag k="alt_name" v="Langøy" />
		<tag k="name" v="Langøyna" />
		<tag k="place" v="islet" />
		<tag k="ssr:stedsnr" v="67657" />
	</node>
	<node id="-488936" lat="60.7319638908" lon="5.30663333655">
		<tag k="name" v="Søre Hodnelandsvågen" />
		<tag k="natural" v="bay" />
		<tag k="ssr:stedsnr" v="227368" />
	</node>
	<node id="-490346" lat="60.561361114" lon="5.33307500437">
		<tag k="name" v="Furvika" />
		<tag k="natural" v="bay" />
		<tag k="ssr:stedsnr" v="773098" />
	</node>
	<node id="-487888" lat="60.6076055515" lon="5.39288888629">
		<tag k="name" v="Vågen" />
		<tag k="natural" v="bay" />
		<tag k="ssr:stedsnr" v="894374" />
	</node>
	<node id="-488293" lat="60.6471777771" lon="5.13827499459">
		<tag k="alt_name" v="Haukåsvika" />
		<tag k="name" v="Haukåsvågen" />
		<tag k="natural" v="bay" />
		<tag k="ssr:stedsnr" v="67218" />
	</node>
	<node id="-488292" lat="60.6916416628" lon="5.37089167375">
		<tag k="name" v="Hosøyna" />
		<tag k="place" v="island" />
		<tag k="ssr:stedsnr" v="67142" />
	</node>
	<node id="-488291" lat="60.601536113" lon="5.42339721337">
		<tag k="name" v="Innegardsvågen" />
		<tag k="natural" v="bay" />
		<tag k="ssr:stedsnr" v="67126" />
	</node>
	<node id="-488287" lat="60.6751555561" lon="5.1228972257">
		<tag k="name" v="Langeneset" />
		<tag k="natural" v="cape" />
		<tag k="ssr:stedsnr" v="67057" />
	</node>
	<node id="-490331" lat="60.6514194407" lon="5.37568054866">
		<tag k="name" v="Ospholmen" />
		<tag k="place" v="islet" />
		<tag k="ssr:stedsnr" v="772765" />
	</node>
	<node id="-488280" lat="60.6789361147" lon="5.09202221438">
		<tag k="alt_name" v="Eidsvika, austra;Østre Eidsvika" />
		<tag k="name" v="Austra Eidsvika" />
		<tag k="natural" v="bay" />
		<tag k="ssr:stedsnr" v="66751" />
	</node>
	<node id="-488279" lat="60.7256916627" lon="5.13408610949">
		<tag k="alt_name" v="Bjørnøy" />
		<tag k="name" v="Bjørnøyna" />
		<tag k="place" v="islet" />
		<tag k="ssr:stedsnr" v="66633" />
	</node>
	<node id="-488278" lat="60.7355750015" lon="5.14763888678">
		<tag k="alt_name" v="Ådnevik" />
		<tag k="name" v="Ådnevika" />
		<tag k="natural" v="bay" />
		<tag k="ssr:stedsnr" v="66617" />
	</node>
	<node id="-490325" lat="60.6586194411" lon="5.36174445253">
		<tag k="name" v="Sandvikane" />
		<tag k="natural" v="bay" />
		<tag k="ssr:stedsnr" v="772494" />
	</node>
	<node id="-490324" lat="60.6574305556" lon="5.35946666015">
		<tag k="name" v="Skråneset" />
		<tag k="natural" v="cape" />
		<tag k="ssr:stedsnr" v="772493" />
	</node>
	<node id="-487900" lat="60.7691888851" lon="5.10424166599">
		<tag k="name" v="Søra Lauvåsvika" />
		<tag k="natural" v="bay" />
		<tag k="ssr:stedsnr" v="894490" />
	</node>
	<node id="-488272" lat="60.7042188725" lon="5.39209669065">
		<tag k="alt_name" v="Gjelsvikaholmane" />
		<tag k="name" v="Gjelsvikholmane" />
		<tag k="place" v="islet" />
		<tag k="ssr:stedsnr" v="66131" />
	</node>
	<node id="-488938" lat="60.6903361128" lon="5.36781945106">
		<tag k="name" v="Storvika" />
		<tag k="natural" v="bay" />
		<tag k="ssr:stedsnr" v="227376" />
	</node>
	<node id="-490314" lat="60.7087194437" lon="5.15490555001">
		<tag k="name" v="Båtefløytet" />
		<tag k="natural" v="bay" />
		<tag k="ssr:stedsnr" v="772326" />
	</node>
	<node id="-490310" lat="60.7020472247" lon="5.1834916588">
		<tag k="name" v="Nordre Kvernhusholmen" />
		<tag k="place" v="islet" />
		<tag k="ssr:stedsnr" v="772309" />
	</node>
	<node id="-488929" lat="60.638355556" lon="5.21518888387">
		<tag k="name" v="Pollen" />
		<tag k="natural" v="bay" />
		<tag k="ssr:stedsnr" v="227335" />
	</node>
	<node id="-490306" lat="60.6765777744" lon="5.12361666016">
		<tag k="name" v="Austevågen" />
		<tag k="natural" v="bay" />
		<tag k="ssr:stedsnr" v="772285" />
	</node>
	<node id="-490304" lat="60.6732611075" lon="5.1324833314">
		<tag k="alt_name" v="Langeneset" />
		<tag k="name" v="Langenes" />
		<tag k="natural" v="cape" />
		<tag k="ssr:stedsnr" v="772277" />
	</node>
	<node id="-490303" lat="60.6518638861" lon="5.37641388566">
		<tag k="name" v="Midtsundet" />
		<tag k="natural" v="strait" />
		<tag k="ssr:stedsnr" v="772269" />
	</node>
	<node id="-490302" lat="60.7505222222" lon="5.1157000075">
		<tag k="name" v="Galningavågen" />
		<tag k="natural" v="bay" />
		<tag k="ssr:stedsnr" v="772246" />
	</node>
	<node id="-490288" lat="60.6743388912" lon="5.15418611501">
		<tag k="name" v="Bukkholmen" />
		<tag k="place" v="islet" />
		<tag k="ssr:stedsnr" v="752250" />
	</node>
	<node id="-490287" lat="60.7654991918" lon="5.02642725374">
		<tag k="name" v="Matholmflua" />
		<tag k="natural" v="shoal" />
		<tag k="place" v="locality" />
		<tag k="ssr:stedsnr" v="752167" />
	</node>
	<node id="-490286" lat="60.7868263629" lon="4.98824087007">
		<tag k="name" v="Kalandsosen" />
		<tag k="natural" v="bay" />
		<tag k="ssr:stedsnr" v="752166" />
	</node>
	<node id="-490285" lat="60.7373194448" lon="5.09501666781">
		<tag k="name" v="Skornesvågen" />
		<tag k="natural" v="bay" />
		<tag k="ssr:stedsnr" v="752137" />
	</node>
	<node id="-490284" lat="60.7620277768" lon="5.03853888028">
		<tag k="name" v="Litle Matholmen" />
		<tag k="place" v="islet" />
		<tag k="ssr:stedsnr" v="752131" />
	</node>
	<node id="-490283" lat="60.7435888869" lon="5.07396110926">
		<tag k="name" v="Hestholmen" />
		<tag k="place" v="islet" />
		<tag k="ssr:stedsnr" v="752126" />
	</node>
	<node id="-490401" lat="60.6769361069" lon="5.39265278418">
		<tag k="name" v="Sjåneset" />
		<tag k="natural" v="cape" />
		<tag k="ssr:stedsnr" v="773385" />
	</node>
	<node id="-487559" lat="60.6868944416" lon="5.07960554983">
		<tag k="name" v="Midtvågneset" />
		<tag k="natural" v="cape" />
		<tag k="ssr:stedsnr" v="348547" />
	</node>
	<node id="-490279" lat="60.8221499978" lon="5.00752777928">
		<tag k="name" v="Jektholmen" />
		<tag k="place" v="islet" />
		<tag k="ssr:stedsnr" v="737074" />
	</node>
	<node id="-490278" lat="60.7595055512" lon="5.18351110844">
		<tag k="name" v="Kolåsvika" />
		<tag k="natural" v="bay" />
		<tag k="ssr:stedsnr" v="736742" />
	</node>
	<node id="-490277" lat="60.7856333311" lon="5.09376110777">
		<tag k="alt_name" v="Øyvågen, nordre" />
		<tag k="name" v="Nordre Øyvågen" />
		<tag k="natural" v="bay" />
		<tag k="ssr:stedsnr" v="736685" />
	</node>
	<node id="-490273" lat="60.7810666675" lon="5.03079444385">
		<tag k="name" v="Hopssundet" />
		<tag k="natural" v="strait" />
		<tag k="ssr:stedsnr" v="736242" />
	</node>
	<node id="-488928" lat="60.6396666701" lon="5.212436106">
		<tag k="name" v="Vallevika" />
		<tag k="natural" v="bay" />
		<tag k="ssr:stedsnr" v="227333" />
	</node>
	<node id="-490268" lat="60.7465361104" lon="5.05890832576">
		<tag k="name" v="Risøyna" />
		<tag k="place" v="island" />
		<tag k="ssr:stedsnr" v="734771" />
	</node>
	<node id="-490267" lat="60.6874416643" lon="5.07960276974">
		<tag k="alt_name" v="Midtre Håvågen;Midtvika" />
		<tag k="name" v="Midtvågen" />
		<tag k="natural" v="bay" />
		<tag k="ssr:stedsnr" v="734762" />
	</node>
	<node id="-490265" lat="60.7312888918" lon="5.1721444505">
		<tag k="name" v="Haukås" />
		<tag k="natural" v="cape" />
		<tag k="ssr:stedsnr" v="734674" />
	</node>
	<node id="-488215" lat="60.6362999967" lon="5.45167777621">
		<tag k="name" v="Langeneset" />
		<tag k="natural" v="cape" />
		<tag k="ssr:stedsnr" v="45467" />
	</node>
	<node id="-488921" lat="60.6889805551" lon="5.34180834067">
		<tag k="name" v="Træsneset" />
		<tag k="natural" v="cape" />
		<tag k="ssr:stedsnr" v="227226" />
	</node>
	<node id="-488212" lat="60.6465833339" lon="5.44990554956">
		<tag k="name" v="Hageneset" />
		<tag k="natural" v="cape" />
		<tag k="ssr:stedsnr" v="45430" />
	</node>
	<node id="-488211" lat="60.6940150402" lon="5.36677293004">
		<tag k="name" v="Stykkeneset" />
		<tag k="natural" v="cape" />
		<tag k="ssr:stedsnr" v="45423" />
	</node>
	<node id="-488989" lat="60.7279361109" lon="5.65981388162">
		<tag k="name" v="Vetle Askvika" />
		<tag k="natural" v="bay" />
		<tag k="ssr:stedsnr" v="227986" />
	</node>
	<node id="-487896" lat="60.6209305596" lon="5.20537499612">
		<tag k="name" v="Skarsneset" />
		<tag k="natural" v="cape" />
		<tag k="ssr:stedsnr" v="894458" />
	</node>
	<node id="-488206" lat="60.6898470692" lon="5.38695677032">
		<tag k="name" v="Henriksneset" />
		<tag k="natural" v="cape" />
		<tag k="ssr:stedsnr" v="45393" />
	</node>
	<node id="-488205" lat="60.6866256229" lon="5.38638997321">
		<tag k="name" v="Elsvika" />
		<tag k="natural" v="bay" />
		<tag k="ssr:stedsnr" v="45386" />
	</node>
	<node id="-488204" lat="60.6707305539" lon="5.36262778233">
		<tag k="name" v="Geitneset" />
		<tag k="natural" v="cape" />
		<tag k="ssr:stedsnr" v="45376" />
	</node>
	<node id="-488202" lat="60.6292695479" lon="5.18179129563">
		<tag k="loc_name" v="Nappavika" />
		<tag k="name" v="Nappevika" />
		<tag k="natural" v="bay" />
		<tag k="ssr:stedsnr" v="45335" />
	</node>
	<node id="-490248" lat="60.6988750028" lon="5.3877666603">
		<tag k="name" v="Klungerholmane" />
		<tag k="place" v="islet" />
		<tag k="ssr:stedsnr" v="734168" />
	</node>
	<node id="-488577" lat="60.7865388931" lon="5.09334167152">
		<tag k="name" v="Øyholmen" />
		<tag k="place" v="islet" />
		<tag k="ssr:stedsnr" v="146174" />
	</node>
	<node id="-487894" lat="60.696136114" lon="5.40408056365">
		<tag k="name" v="Tappane" />
		<tag k="place" v="locality" />
		<tag k="ssr:stedsnr" v="894446" />
	</node>
	<node id="-490242" lat="60.6217555528" lon="5.2065888956">
		<tag k="name" v="Skardsvågen" />
		<tag k="natural" v="bay" />
		<tag k="ssr:stedsnr" v="734065" />
	</node>
	<node id="-488192" lat="60.7193027793" lon="5.1449249926">
		<tag k="name" v="Djuvvikklumpen" />
		<tag k="natural" v="cape" />
		<tag k="ssr:stedsnr" v="45216" />
	</node>
	<node id="-488190" lat="60.7311666648" lon="5.13701389606">
		<tag k="name" v="Saltnesklubben" />
		<tag k="natural" v="cape" />
		<tag k="ssr:stedsnr" v="45202" />
	</node>
	<node id="-487893" lat="60.5765222226" lon="5.22773888429">
		<tag k="name" v="Kyrkholmen" />
		<tag k="place" v="islet" />
		<tag k="ssr:stedsnr" v="894440" />
	</node>
	<node id="-488186" lat="60.7717472189" lon="5.12671944745">
		<tag k="name" v="Småvikane" />
		<tag k="natural" v="bay" />
		<tag k="ssr:stedsnr" v="45141" />
	</node>
	<node id="-487556" lat="60.7061944411" lon="5.08230833795">
		<tag k="name" v="Florsvika" />
		<tag k="natural" v="bay" />
		<tag k="ssr:stedsnr" v="348531" />
	</node>
	<node id="-488182" lat="60.7519499972" lon="5.20330277389">
		<tag k="name" v="Monsevika" />
		<tag k="natural" v="bay" />
		<tag k="ssr:stedsnr" v="45097" />
	</node>
	<node id="-490229" lat="60.7302666664" lon="5.65439166423">
		<tag k="name" v="Store Askvika" />
		<tag k="natural" v="bay" />
		<tag k="ssr:stedsnr" v="712996" />
	</node>
	<node id="-488178" lat="60.7136361092" lon="5.14469999207">
		<tag k="name" v="Himrevågen" />
		<tag k="natural" v="bay" />
		<tag k="ssr:stedsnr" v="45166" />
	</node>
	<node id="-488573" lat="60.6795277803" lon="5.15745277557">
		<tag k="name" v="Stova" />
		<tag k="natural" v="cape" />
		<tag k="ssr:stedsnr" v="145264" />
	</node>
	<node id="-487207" lat="60.5471416692" lon="5.2734222242">
		<tag k="name" v="Litlavika" />
		<tag k="natural" v="bay" />
		<tag k="ssr:stedsnr" v="287086" />
	</node>
	<node id="-490209" lat="60.8216555534" lon="4.98614166085">
		<tag k="name" v="Leirvågsundet" />
		<tag k="natural" v="strait" />
		<tag k="ssr:stedsnr" v="712762" />
	</node>
	<node id="-490208" lat="60.5698111071" lon="5.37831388754">
		<tag k="name" v="Leknesvågen" />
		<tag k="natural" v="bay" />
		<tag k="ssr:stedsnr" v="712736" />
	</node>
	<node id="-488159" lat="60.7070138895" lon="5.06732499495">
		<tag k="name" v="Havnen" />
		<tag k="natural" v="bay" />
		<tag k="ssr:stedsnr" v="44543" />
	</node>
	<node id="-488154" lat="60.6957888884" lon="5.11130556018">
		<tag k="name" v="Skrubbenesvika" />
		<tag k="natural" v="bay" />
		<tag k="ssr:stedsnr" v="44516" />
	</node>
	<node id="-488153" lat="60.6977305571" lon="5.10960832561">
		<tag k="name" v="Naustneset" />
		<tag k="natural" v="cape" />
		<tag k="ssr:stedsnr" v="44513" />
	</node>
	<node id="-488152" lat="60.6636777779" lon="5.35823611707">
		<tag k="name" v="Haugsneset" />
		<tag k="natural" v="cape" />
		<tag k="ssr:stedsnr" v="44488" />
	</node>
	<node id="-488150" lat="60.6572000022" lon="5.35726388233">
		<tag k="name" v="Timmervika" />
		<tag k="natural" v="bay" />
		<tag k="ssr:stedsnr" v="44483" />
	</node>
	<node id="-488149" lat="60.7325805515" lon="5.06900000281">
		<tag k="name" v="Brakøyosen" />
		<tag k="natural" v="bay" />
		<tag k="ssr:stedsnr" v="44478" />
	</node>
	<node id="-488147" lat="60.7764666681" lon="5.0443527819">
		<tag k="name" v="Grevika" />
		<tag k="natural" v="bay" />
		<tag k="ssr:stedsnr" v="44455" />
	</node>
	<node id="-490194" lat="60.7437527756" lon="5.06797499392">
		<tag k="name" v="Vestreneset" />
		<tag k="natural" v="cape" />
		<tag k="ssr:stedsnr" v="712537" />
	</node>
	<node id="-488145" lat="60.7895972203" lon="5.08931110935">
		<tag k="name" v="Nordre Øytangen" />
		<tag k="natural" v="cape" />
		<tag k="ssr:stedsnr" v="44439" />
	</node>
	<node id="-490192" lat="60.6877222205" lon="5.10119445206">
		<tag k="fixme" v="consider seamark:type=rock or natural=shoal" />
		<tag k="name" v="Biskopen" />
		<tag k="place" v="islet" />
		<tag k="ssr:stedsnr" v="712529" />
	</node>
	<node id="-488143" lat="60.7831861094" lon="5.08600555159">
		<tag k="name" v="Gulholmen" />
		<tag k="place" v="islet" />
		<tag k="ssr:stedsnr" v="44436" />
	</node>
	<node id="-490190" lat="60.676811112" lon="5.11028334062">
		<tag k="name" v="Smedneset" />
		<tag k="natural" v="cape" />
		<tag k="ssr:stedsnr" v="712519" />
	</node>
	<node id="-490187" lat="60.6937222186" lon="5.07773333563">
		<tag k="name" v="Djuvvika" />
		<tag k="natural" v="bay" />
		<tag k="ssr:stedsnr" v="712501" />
	</node>
	<node id="-490186" lat="60.6965222209" lon="5.10832500638">
		<tag k="name" v="Søre Naustvika" />
		<tag k="natural" v="bay" />
		<tag k="ssr:stedsnr" v="712498" />
	</node>
	<node id="-490185" lat="60.703052778" lon="5.60514999279">
		<tag k="name" v="Båtholneset" />
		<tag k="natural" v="cape" />
		<tag k="ssr:stedsnr" v="712489" />
	</node>
	<node id="-490184" lat="60.7177500009" lon="5.09818334184">
		<tag k="name" v="Kalløyna" />
		<tag k="place" v="island" />
		<tag k="ssr:stedsnr" v="712481" />
	</node>
	<node id="-490182" lat="60.7273388895" lon="5.07558333065">
		<tag k="name" v="Dragevika" />
		<tag k="natural" v="bay" />
		<tag k="ssr:stedsnr" v="712451" />
	</node>
	<node id="-488133" lat="60.71216111" lon="5.18055834078">
		<tag k="name" v="Maråsvågen" />
		<tag k="natural" v="bay" />
		<tag k="ssr:stedsnr" v="44295" />
	</node>
	<node id="-490180" lat="60.7828742483" lon="5.0821706347">
		<tag k="name" v="Knarrvikneset" />
		<tag k="natural" v="cape" />
		<tag k="ssr:stedsnr" v="712444" />
	</node>
	<node id="-490179" lat="60.6414138913" lon="5.39308611228">
		<tag k="name" v="Årneset" />
		<tag k="natural" v="cape" />
		<tag k="ssr:stedsnr" v="712441" />
	</node>
	<node id="-488130" lat="60.6736000006" lon="5.15787500893">
		<tag k="name" v="Hamsholmen" />
		<tag k="place" v="islet" />
		<tag k="ssr:stedsnr" v="44276" />
	</node>
	<node id="-488128" lat="60.6024722232" lon="5.45332221487">
		<tag k="name" v="Naustvika" />
		<tag k="natural" v="bay" />
		<tag k="ssr:stedsnr" v="44265" />
	</node>
	<node id="-488126" lat="60.6625805553" lon="5.36449999414">
		<tag k="name" v="Gangstøneset" />
		<tag k="natural" v="cape" />
		<tag k="ssr:stedsnr" v="44259" />
	</node>
	<node id="-488146" lat="60.7876333366" lon="5.08623333455">
		<tag k="fixme" v="consider seamark:type=rock or natural=shoal" />
		<tag k="name" v="Skarveskjeret" />
		<tag k="place" v="islet" />
		<tag k="ssr:stedsnr" v="44444" />
	</node>
	<node id="-490170" lat="60.7618138847" lon="5.03904166808">
		<tag k="name" v="Små Mathholmen" />
		<tag k="place" v="islet" />
		<tag k="ssr:stedsnr" v="712413" />
	</node>
	<node id="-488121" lat="60.74625278" lon="5.25346389761">
		<tag k="name" v="Søre Lotrebogane" />
		<tag k="natural" v="bay" />
		<tag k="ssr:stedsnr" v="44205" />
	</node>
	<node id="-490168" lat="60.6958777762" lon="5.38857777606">
		<tag k="name" v="Setstølvika" />
		<tag k="natural" v="bay" />
		<tag k="ssr:stedsnr" v="712411" />
	</node>
	<node id="-490164" lat="60.6689083327" lon="5.12481389807">
		<tag k="name" v="Lønnevågen" />
		<tag k="natural" v="bay" />
		<tag k="ssr:stedsnr" v="712344" />
	</node>
	<node id="-490169" lat="60.5776944421" lon="5.19644722722">
		<tag k="name" v="Ramsvika" />
		<tag k="natural" v="bay" />
		<tag k="ssr:stedsnr" v="712410" />
	</node>
	<node id="-490159" lat="60.6326204719" lon="5.17281550036">
		<tag k="name" v="Naustneset" />
		<tag k="natural" v="cape" />
		<tag k="ssr:stedsnr" v="712313" />
	</node>
	<node id="-490158" lat="60.6085055512" lon="5.39893610991">
		<tag k="name" v="Solstrand" />
		<tag k="natural" v="bay" />
		<tag k="ssr:stedsnr" v="712311" />
	</node>
	<node id="-488219" lat="60.6781166676" lon="5.4579111053">
		<tag k="name" v="Stongeneset" />
		<tag k="natural" v="cape" />
		<tag k="ssr:stedsnr" v="45553" />
	</node>
	<node id="-488901" lat="60.7344194408" lon="5.2804638972">
		<tag k="name" v="Sævråsholmane" />
		<tag k="place" v="islet" />
		<tag k="ssr:stedsnr" v="227135" />
	</node>
	<node id="-490140" lat="60.7423249969" lon="5.23986943953">
		<tag k="name" v="Langholmen" />
		<tag k="place" v="islet" />
		<tag k="ssr:stedsnr" v="712178" />
	</node>
	<node id="-490139" lat="60.7483611143" lon="5.24807222357">
		<tag k="name" v="Nordre Lotrebogane" />
		<tag k="natural" v="bay" />
		<tag k="ssr:stedsnr" v="712176" />
	</node>
	<node id="-490138" lat="60.7801999965" lon="5.13733888995">
		<tag k="name" v="Langholmen" />
		<tag k="place" v="islet" />
		<tag k="ssr:stedsnr" v="712170" />
	</node>
	<node id="-490136" lat="60.7068194432" lon="5.42628610236">
		<tag k="name" v="Kjekallevågen" />
		<tag k="natural" v="bay" />
		<tag k="ssr:stedsnr" v="712151" />
	</node>
	<node id="-487876" lat="60.6019249974" lon="5.45020277185">
		<tag k="name" v="Breivika" />
		<tag k="natural" v="bay" />
		<tag k="ssr:stedsnr" v="894303" />
	</node>
	<node id="-490132" lat="60.7567916707" lon="5.19047222367">
		<tag k="name" v="Sandvikaneset" />
		<tag k="natural" v="cape" />
		<tag k="ssr:stedsnr" v="712139" />
	</node>
	<node id="-490131" lat="60.5677361075" lon="5.22362222389">
		<tag k="name" v="Austre Radtangen" />
		<tag k="natural" v="cape" />
		<tag k="ssr:stedsnr" v="712133" />
	</node>
	<node id="-490130" lat="60.7634944433" lon="5.11911388294">
		<tag k="name" v="Ospholmen" />
		<tag k="place" v="islet" />
		<tag k="ssr:stedsnr" v="712131" />
	</node>
	<node id="-487875" lat="60.6012777807" lon="5.41695833731">
		<tag k="name" v="Neset" />
		<tag k="natural" v="cape" />
		<tag k="ssr:stedsnr" v="894299" />
	</node>
	<node id="-488078" lat="60.7359083301" lon="5.28653610721">
		<tag k="name" v="Storholmen" />
		<tag k="place" v="islet" />
		<tag k="ssr:stedsnr" v="25864" />
	</node>
	<node id="-488077" lat="60.5798361113" lon="5.19054166943">
		<tag k="name" v="Hjeltskjerneset" />
		<tag k="natural" v="cape" />
		<tag k="ssr:stedsnr" v="24546" />
	</node>
	<node id="-488076" lat="60.657374997" lon="5.2445916607">
		<tag k="name" v="Kjevika" />
		<tag k="natural" v="bay" />
		<tag k="ssr:stedsnr" v="24306" />
	</node>
	<node id="-488075" lat="60.6351527816" lon="5.2221472172">
		<tag k="name" v="Mongstadvågen" />
		<tag k="natural" v="bay" />
		<tag k="ssr:stedsnr" v="24296" />
	</node>
	<node id="-488074" lat="60.781452782" lon="5.0264111058">
		<tag k="name" v="Aurevikane" />
		<tag k="natural" v="bay" />
		<tag k="ssr:stedsnr" v="24167" />
	</node>
	<node id="-488073" lat="60.7672899535" lon="5.16928958814">
		<tag k="name" v="Klauvholmen" />
		<tag k="place" v="islet" />
		<tag k="ssr:stedsnr" v="25204" />
	</node>
	<node id="-488072" lat="60.7736246786" lon="5.14775691247">
		<tag k="name" v="Langøysundet" />
		<tag k="natural" v="strait" />
		<tag k="ssr:stedsnr" v="25201" />
	</node>
	<node id="-488071" lat="60.7492944403" lon="5.24236388533">
		<tag k="name" v="Hånesholmen" />
		<tag k="place" v="islet" />
		<tag k="ssr:stedsnr" v="9739" />
	</node>
	<node id="-488069" lat="60.805183335" lon="5.05416944802">
		<tag k="name" v="Grunnevika" />
		<tag k="natural" v="bay" />
		<tag k="ssr:stedsnr" v="9007" />
	</node>
	<node id="-488068" lat="60.7775916691" lon="5.1246111149">
		<tag k="name" v="Smalneset" />
		<tag k="natural" v="cape" />
		<tag k="ssr:stedsnr" v="8723" />
	</node>
	<node id="-488063" lat="60.6981777765" lon="5.08927777026">
		<tag k="name" v="Kalvstangen" />
		<tag k="natural" v="cape" />
		<tag k="ssr:stedsnr" v="6754" />
	</node>
	<node id="-488060" lat="60.7220694433" lon="5.14839722182">
		<tag k="name" v="Ternholmane" />
		<tag k="place" v="islet" />
		<tag k="ssr:stedsnr" v="6674" />
	</node>
	<node id="-488059" lat="60.726944443" lon="5.1506222286">
		<tag k="alt_name" v="Lindåsosane" />
		<tag k="name" v="Spjeldnesosen" />
		<tag k="natural" v="strait" />
		<tag k="ssr:stedsnr" v="6671" />
	</node>
	<node id="-488057" lat="60.7178361098" lon="5.10959999922">
		<tag k="name" v="Hanøyna" />
		<tag k="place" v="islet" />
		<tag k="ssr:stedsnr" v="6670" />
	</node>
	<node id="-488056" lat="60.7294666708" lon="5.31910278572">
		<tag k="name" v="Stonganeset" />
		<tag k="natural" v="cape" />
		<tag k="ssr:stedsnr" v="6664" />
	</node>
	<node id="-488054" lat="60.7341500019" lon="5.28165000832">
		<tag k="name" v="Sævråsvågen" />
		<tag k="natural" v="bay" />
		<tag k="ssr:stedsnr" v="6650" />
	</node>
	<node id="-488049" lat="60.6828638909" lon="5.58978054875">
		<tag k="name" v="Midtsundet" />
		<tag k="natural" v="strait" />
		<tag k="ssr:stedsnr" v="6398" />
	</node>
	<node id="-490096" lat="60.7022055583" lon="5.18082500694">
		<tag k="name" v="Høyvika" />
		<tag k="natural" v="bay" />
		<tag k="ssr:stedsnr" v="711324" />
	</node>
	<node id="-490095" lat="60.703161109" lon="5.16719722451">
		<tag k="name" v="Holmen" />
		<tag k="place" v="islet" />
		<tag k="ssr:stedsnr" v="711311" />
	</node>
	<node id="-490094" lat="60.6700083331" lon="5.12951944365">
		<tag k="name" v="Lammeneset" />
		<tag k="natural" v="cape" />
		<tag k="ssr:stedsnr" v="711292" />
	</node>
	<node id="-490093" lat="60.6967972261" lon="5.40894166433">
		<tag k="name" v="Bøvikholmen" />
		<tag k="place" v="islet" />
		<tag k="ssr:stedsnr" v="711274" />
	</node>
	<node id="-490092" lat="60.5993611153" lon="5.44287778618">
		<tag k="name" v="Mannshjellvika" />
		<tag k="natural" v="bay" />
		<tag k="ssr:stedsnr" v="711267" />
	</node>
	<node id="-487868" lat="60.6996388848" lon="5.33703055824">
		<tag k="fixme" v="consider seamark:type=rock or natural=shoal" />
		<tag k="name" v="Storskjeret" />
		<tag k="place" v="islet" />
		<tag k="ssr:stedsnr" v="894256" />
	</node>
	<node id="-488037" lat="60.6682944432" lon="5.36014999186">
		<tag k="bay" v="fjord" />
		<tag k="name" v="Dalafjorden" />
		<tag k="natural" v="bay" />
		<tag k="ssr:stedsnr" v="6229" />
	</node>
	<node id="-490083" lat="60.6031583363" lon="5.21056944372">
		<tag k="name" v="Fosseneset" />
		<tag k="natural" v="cape" />
		<tag k="ssr:stedsnr" v="693624" />
	</node>
	<node id="-490081" lat="60.6646944402" lon="5.11566110479">
		<tag k="name" v="Festeneset" />
		<tag k="natural" v="cape" />
		<tag k="ssr:stedsnr" v="692271" />
	</node>
	<node id="-490079" lat="60.7876388911" lon="4.99257777471">
		<tag k="fixme" v="consider seamark:type=rock or natural=shoal" />
		<tag k="name" v="Såteflua" />
		<tag k="place" v="islet" />
		<tag k="ssr:stedsnr" v="692169" />
	</node>
	<node id="-490078" lat="60.7017694463" lon="5.18422777753">
		<tag k="name" v="Kvernhusholmane" />
		<tag k="place" v="islet" />
		<tag k="ssr:stedsnr" v="692138" />
	</node>
	<node id="-488029" lat="60.5746138903" lon="5.22670000573">
		<tag k="name" v="Kongsøyna" />
		<tag k="place" v="islet" />
		<tag k="ssr:stedsnr" v="6132" />
	</node>
	<node id="-488028" lat="60.5845861106" lon="5.22679722325">
		<tag k="name" v="Tveitaneset" />
		<tag k="natural" v="cape" />
		<tag k="ssr:stedsnr" v="6127" />
	</node>
	<node id="-490074" lat="60.778252774" lon="5.1301194397">
		<tag k="name" v="Dyrkollvika" />
		<tag k="natural" v="bay" />
		<tag k="ssr:stedsnr" v="676669" />
	</node>
	<node id="-490067" lat="60.8218944489" lon="4.99410278613">
		<tag k="name" v="Håvarden" />
		<tag k="place" v="island" />
		<tag k="ssr:stedsnr" v="676075" />
	</node>
	<node id="-488018" lat="60.632452774" lon="5.28230000955">
		<tag k="name" v="Botn" />
		<tag k="natural" v="bay" />
		<tag k="ssr:stedsnr" v="267291" />
	</node>
	<node id="-490059" lat="60.6600083311" lon="5.42074999536">
		<tag k="name" v="Askelandsøyna" />
		<tag k="place" v="islet" />
		<tag k="ssr:stedsnr" v="674196" />
	</node>
	<node id="-490056" lat="60.7020916639" lon="5.13516388768">
		<tag k="name" v="Klammersholmane" />
		<tag k="place" v="islet" />
		<tag k="ssr:stedsnr" v="674153" />
	</node>
	<node id="-490052" lat="60.7200388877" lon="5.08584445033">
		<tag k="name" v="Turøyna" />
		<tag k="place" v="islet" />
		<tag k="ssr:stedsnr" v="673742" />
	</node>
	<node id="-488002" lat="60.6119194451" lon="5.20326943831">
		<tag k="name" v="Lammaneset" />
		<tag k="natural" v="cape" />
		<tag k="ssr:stedsnr" v="389610" />
	</node>
	<node id="-487999" lat="60.7813444455" lon="5.18355277473">
		<tag k="bay" v="fjord" />
		<tag k="name" v="Fensfjorden" />
		<tag k="natural" v="bay" />
		<tag k="ssr:stedsnr" v="263243" />
	</node>
	<node id="-487998" lat="60.594183335" lon="5.15177777928">
		<tag k="bay" v="fjord" />
		<tag k="name" v="Radfjorden" />
		<tag k="natural" v="bay" />
		<tag k="ssr:stedsnr" v="552027" />
	</node>
	<node id="-487997" lat="60.5533844082" lon="5.25045672412">
		<tag k="bay" v="fjord" />
		<tag k="name" v="Kvernafjorden" />
		<tag k="natural" v="bay" />
		<tag k="ssr:stedsnr" v="431107" />
	</node>
	<node id="-487996" lat="60.6922277778" lon="5.05914721635">
		<tag k="name" v="Slettosen" />
		<tag k="natural" v="strait" />
		<tag k="ssr:stedsnr" v="370797" />
	</node>
	<node id="-487995" lat="60.815493705" lon="5.04023140799">
		<tag k="name" v="Gilneset" />
		<tag k="natural" v="cape" />
		<tag k="ssr:stedsnr" v="1072194" />
	</node>
	<node id="-487994" lat="60.8227558909" lon="5.00713362997">
		<tag k="name" v="Jektholmsundet" />
		<tag k="natural" v="strait" />
		<tag k="ssr:stedsnr" v="1072193" />
	</node>
	<node id="-487993" lat="60.7718056609" lon="5.04718388763">
		<tag k="name" v="Mjåsundstraumen" />
		<tag k="natural" v="strait" />
		<tag k="ssr:stedsnr" v="1072189" />
	</node>
	<node id="-487992" lat="60.7227095907" lon="5.09853428015">
		<tag k="name" v="Lindåsstraumen" />
		<tag k="natural" v="strait" />
		<tag k="ssr:stedsnr" v="1072187" />
	</node>
	<node id="-487991" lat="60.6054628804" lon="5.20382788045">
		<tag k="name" v="Straumane" />
		<tag k="natural" v="strait" />
		<tag k="ssr:stedsnr" v="1072168" />
	</node>
	<node id="-490037" lat="60.696252777" lon="5.57036110542">
		<tag k="alt_name" v="Havnneset" />
		<tag k="name" v="Hamnneset" />
		<tag k="natural" v="cape" />
		<tag k="ssr:stedsnr" v="673275" />
	</node>
	<node id="-490035" lat="60.6592638888" lon="5.23491666936">
		<tag k="alt_name" v="Kråkosen" />
		<tag k="name" v="Kråkeosen" />
		<tag k="natural" v="strait" />
		<tag k="ssr:stedsnr" v="673263" />
	</node>
	<node id="-490034" lat="60.6319305556" lon="5.2412750034">
		<tag k="bay" v="fjord" />
		<tag k="name" v="Seimsfjorden" />
		<tag k="natural" v="bay" />
		<tag k="ssr:stedsnr" v="673223" />
	</node>
	<node id="-487859" lat="60.7304916659" lon="5.15993054789">
		<tag k="name" v="Spjeldnestangen" />
		<tag k="natural" v="cape" />
		<tag k="ssr:stedsnr" v="894236" />
	</node>
	<node id="-490029" lat="60.677724996" lon="5.15641667026">
		<tag k="name" v="Børøyna" />
		<tag k="place" v="island" />
		<tag k="ssr:stedsnr" v="673162" />
	</node>
	<node id="-490028" lat="60.674133335" lon="5.38455278467">
		<tag k="bay" v="fjord" />
		<tag k="name" v="Hindnesfjorden" />
		<tag k="natural" v="bay" />
		<tag k="ssr:stedsnr" v="673160" />
	</node>
	<node id="-490024" lat="60.5866111138" lon="5.41185278588">
		<tag k="alt_name" v="Glesholmen;Glossholmen" />
		<tag k="name" v="Glosholmen" />
		<tag k="place" v="islet" />
		<tag k="ssr:stedsnr" v="673131" />
	</node>
	<node id="-490022" lat="60.6376538072" lon="5.460736646">
		<tag k="alt_name" v="Kvommaset;Kvammeneset" />
		<tag k="name" v="Kvommaneset" />
		<tag k="natural" v="cape" />
		<tag k="ssr:stedsnr" v="673054" />
	</node>
	<node id="-487967" lat="60.642244444" lon="5.39425278019">
		<tag k="name" v="Litle Notholmen" />
		<tag k="place" v="islet" />
		<tag k="ssr:stedsnr" v="895447" />
	</node>
	<node id="-487272" lat="60.5648694445" lon="5.22456665939">
		<tag k="fixme" v="consider seamark:type=rock or natural=shoal" />
		<tag k="name" v="Hillandskjera" />
		<tag k="place" v="islet" />
		<tag k="ssr:stedsnr" v="287432" />
	</node>
	<node id="-487763" lat="60.7472500024" lon="5.07162500689">
		<tag k="name" v="Austesundholmane" />
		<tag k="place" v="islet" />
		<tag k="ssr:stedsnr" v="409484" />
	</node>
	<node id="-487956" lat="60.6036916669" lon="5.20853056464">
		<tag k="name" v="Ytrefossvika" />
		<tag k="natural" v="bay" />
		<tag k="ssr:stedsnr" v="895366" />
	</node>
	<node id="-487953" lat="60.6575944405" lon="5.19725278042">
		<tag k="name" v="Oksebåsen" />
		<tag k="natural" v="bay" />
		<tag k="ssr:stedsnr" v="895326" />
	</node>
	<node id="-487952" lat="60.6554111153" lon="5.19910833777">
		<tag k="name" v="Horndragsvika" />
		<tag k="natural" v="bay" />
		<tag k="ssr:stedsnr" v="895323" />
	</node>
	<node id="-487951" lat="60.65322222" lon="5.22907778013">
		<tag k="name" v="Skarpneset" />
		<tag k="natural" v="cape" />
		<tag k="ssr:stedsnr" v="895320" />
	</node>
	<node id="-489988" lat="60.6554583313" lon="5.35860000517">
		<tag k="name" v="Fammestadvågen" />
		<tag k="natural" v="bay" />
		<tag k="ssr:stedsnr" v="651755" />
	</node>
	<node id="-487931" lat="60.6894638911" lon="5.59202777387">
		<tag k="name" v="Vågen" />
		<tag k="natural" v="bay" />
		<tag k="ssr:stedsnr" v="894779" />
	</node>
	<node id="-489975" lat="60.6534555553" lon="5.57492499949">
		<tag k="name" v="Steinbugen" />
		<tag k="natural" v="bay" />
		<tag k="ssr:stedsnr" v="651623" />
	</node>
	<node id="-487752" lat="60.6878948155" lon="5.37947691622">
		<tag k="name" v="Havnen" />
		<tag k="natural" v="bay" />
		<tag k="ssr:stedsnr" v="409374" />
	</node>
	<node id="-489969" lat="60.6891946114" lon="5.37790879959">
		<tag k="name" v="Straumen" />
		<tag k="natural" v="bay" />
		<tag k="ssr:stedsnr" v="651598" />
	</node>
	<node id="-487915" lat="60.6876777769" lon="5.06797777192">
		<tag k="name" v="Kolevikane" />
		<tag k="natural" v="bay" />
		<tag k="ssr:stedsnr" v="894581" />
	</node>
	<node id="-489961" lat="60.7097888881" lon="5.07346667219">
		<tag k="name" v="Klubben" />
		<tag k="natural" v="cape" />
		<tag k="ssr:stedsnr" v="651575" />
	</node>
	<node id="-487912" lat="60.6987972222" lon="5.59855277807">
		<tag k="name" v="Vetleholmen" />
		<tag k="place" v="islet" />
		<tag k="ssr:stedsnr" v="894558" />
	</node>
	<node id="-487911" lat="60.6948333337" lon="5.59232500724">
		<tag k="name" v="Klubben" />
		<tag k="place" v="islet" />
		<tag k="ssr:stedsnr" v="894559" />
	</node>
	<node id="-487907" lat="60.7323138883" lon="5.07452222567">
		<tag k="name" v="Kartholmen" />
		<tag k="place" v="islet" />
		<tag k="ssr:stedsnr" v="894533" />
	</node>
	<node id="-487904" lat="60.7312611121" lon="5.08137499807">
		<tag k="name" v="Steinneset" />
		<tag k="natural" v="cape" />
		<tag k="ssr:stedsnr" v="894520" />
	</node>
	<node id="-487504" lat="60.7320361118" lon="5.15848610676">
		<tag k="name" v="Spjeldnessundet" />
		<tag k="natural" v="strait" />
		<tag k="ssr:stedsnr" v="348218" />
	</node>
	<node id="-489948" lat="60.7275944429" lon="5.07907500128">
		<tag k="name" v="Sjøneset" />
		<tag k="natural" v="cape" />
		<tag k="ssr:stedsnr" v="651493" />
	</node>
	<node id="-487899" lat="60.6937166686" lon="5.38360833628">
		<tag k="name" v="Svinningsneset" />
		<tag k="natural" v="cape" />
		<tag k="ssr:stedsnr" v="894475" />
	</node>
	<node id="-487897" lat="60.7628999994" lon="5.0578888806">
		<tag k="name" v="Vaulen" />
		<tag k="natural" v="cape" />
		<tag k="ssr:stedsnr" v="894461" />
	</node>
	<node id="-489944" lat="60.646011111" lon="5.38703611641">
		<tag k="name" v="Brandsholmen" />
		<tag k="place" v="islet" />
		<tag k="ssr:stedsnr" v="651474" />
	</node>
	<node id="-489942" lat="60.6360944485" lon="5.45958610501">
		<tag k="name" v="Maskefjæra" />
		<tag k="natural" v="shoal" />
		<tag k="place" v="locality" />
		<tag k="ssr:stedsnr" v="651465" />
	</node>
	<node id="-489941" lat="60.641436109" lon="5.44001389822">
		<tag k="name" v="Notholmen" />
		<tag k="place" v="islet" />
		<tag k="ssr:stedsnr" v="651446" />
	</node>
	<node id="-489939" lat="60.6961333372" lon="5.43112778366">
		<tag k="alt_name" v="Skoravika, s" />
		<tag k="name" v="Søre Skoravika" />
		<tag k="natural" v="bay" />
		<tag k="ssr:stedsnr" v="651419" />
	</node>
	<node id="-487890" lat="60.5819472255" lon="5.36994721536">
		<tag k="name" v="Hillesvågen" />
		<tag k="natural" v="bay" />
		<tag k="ssr:stedsnr" v="894379" />
	</node>
	<node id="-489937" lat="60.6859641065" lon="5.37630907648">
		<tag k="name" v="Hosøytangen" />
		<tag k="natural" v="cape" />
		<tag k="ssr:stedsnr" v="651407" />
	</node>
	<node id="-489936" lat="60.6903948005" lon="5.3879205978">
		<tag k="name" v="Henriksvika" />
		<tag k="natural" v="bay" />
		<tag k="ssr:stedsnr" v="651396" />
	</node>
	<node id="-489935" lat="60.7239570559" lon="5.32335453638">
		<tag k="name" v="Rekevikneset" />
		<tag k="natural" v="cape" />
		<tag k="ssr:stedsnr" v="651390" />
	</node>
	<node id="-489934" lat="60.7335611156" lon="5.30368611383">
		<tag k="name" v="Naustdalsvika" />
		<tag k="natural" v="bay" />
		<tag k="ssr:stedsnr" v="651387" />
	</node>
	<node id="-489930" lat="60.6344527765" lon="5.22333055074">
		<tag k="name" v="Klubbavika" />
		<tag k="natural" v="bay" />
		<tag k="ssr:stedsnr" v="651333" />
	</node>
	<node id="-487879" lat="60.6988932855" lon="5.19165050266">
		<tag k="name" v="Herborgholmen" />
		<tag k="place" v="islet" />
		<tag k="ssr:stedsnr" v="894331" />
	</node>
	<node id="-487878" lat="60.6015222212" lon="5.36016388948">
		<tag k="name" v="Fyllingavågen" />
		<tag k="natural" v="bay" />
		<tag k="ssr:stedsnr" v="894328" />
	</node>
	<node id="-489925" lat="60.586325004" lon="5.37844999043">
		<tag k="fixme" v="consider seamark:type=rock or natural=shoal" />
		<tag k="name" v="Kyrkjeskjeret" />
		<tag k="place" v="islet" />
		<tag k="ssr:stedsnr" v="651293" />
	</node>
	<node id="-489924" lat="60.604988886" lon="5.40246943944">
		<tag k="name" v="Straumen" />
		<tag k="natural" v="strait" />
		<tag k="ssr:stedsnr" v="651292" />
	</node>
	<node id="-489923" lat="60.5930444417" lon="5.37188333645">
		<tag k="name" v="Larsholmen" />
		<tag k="place" v="islet" />
		<tag k="ssr:stedsnr" v="651287" />
	</node>
	<node id="-489922" lat="60.5986361127" lon="5.41184445232">
		<tag k="name" v="Sørholmen" />
		<tag k="place" v="islet" />
		<tag k="ssr:stedsnr" v="651272" />
	</node>
	<node id="-487873" lat="60.6610666629" lon="5.36554166777">
		<tag k="name" v="Hjellsnesvika" />
		<tag k="natural" v="bay" />
		<tag k="ssr:stedsnr" v="894294" />
	</node>
	<node id="-489918" lat="60.6989111131" lon="5.34508055577">
		<tag k="name" v="Hodneneset" />
		<tag k="natural" v="cape" />
		<tag k="ssr:stedsnr" v="651241" />
	</node>
	<node id="-489916" lat="60.7327750025" lon="5.13836665999">
		<tag k="name" v="Saltnesvika" />
		<tag k="natural" v="bay" />
		<tag k="ssr:stedsnr" v="651227" />
	</node>
	<node id="-489913" lat="60.754530556" lon="5.19297777047">
		<tag k="name" v="Fossevika" />
		<tag k="natural" v="bay" />
		<tag k="ssr:stedsnr" v="651212" />
	</node>
	<node id="-489912" lat="60.7524638842" lon="5.19984166009">
		<tag k="name" v="Lyngvika" />
		<tag k="natural" v="bay" />
		<tag k="ssr:stedsnr" v="651213" />
	</node>
	<node id="-489909" lat="60.7181194425" lon="5.20069166347">
		<tag k="name" v="Klubben" />
		<tag k="natural" v="cape" />
		<tag k="ssr:stedsnr" v="651197" />
	</node>
	<node id="-489908" lat="60.7216668273" lon="5.18992735364">
		<tag k="name" v="Ålesholmen" />
		<tag k="place" v="islet" />
		<tag k="ssr:stedsnr" v="651196" />
	</node>
	<node id="-489907" lat="60.7180305534" lon="5.1156666751">
		<tag k="name" v="Midtneset" />
		<tag k="natural" v="cape" />
		<tag k="ssr:stedsnr" v="651192" />
	</node>
	<node id="-489906" lat="60.7247888877" lon="5.12647500465">
		<tag k="name" v="Austretangen" />
		<tag k="natural" v="cape" />
		<tag k="ssr:stedsnr" v="651189" />
	</node>
	<node id="-489905" lat="60.7138777739" lon="5.13492777461">
		<tag k="name" v="Mosholmen" />
		<tag k="place" v="islet" />
		<tag k="ssr:stedsnr" v="651186" />
	</node>
	<node id="-489904" lat="60.7178833371" lon="5.12696667032">
		<tag k="name" v="Bårdnesholmen" />
		<tag k="place" v="islet" />
		<tag k="ssr:stedsnr" v="651184" />
	</node>
	<node id="-487855" lat="60.7434083305" lon="5.24102221418">
		<tag k="name" v="Naustvågen" />
		<tag k="natural" v="bay" />
		<tag k="ssr:stedsnr" v="894219" />
	</node>
	<node id="-489902" lat="60.7699805599" lon="5.134444444">
		<tag k="name" v="Øyvågen" />
		<tag k="natural" v="bay" />
		<tag k="ssr:stedsnr" v="651169" />
	</node>
	<node id="-489901" lat="60.7727555517" lon="5.15097222792">
		<tag k="name" v="Breivika" />
		<tag k="natural" v="bay" />
		<tag k="ssr:stedsnr" v="651162" />
	</node>
	<node id="-487852" lat="60.719525003" lon="5.18914444826">
		<tag k="name" v="Bordvika" />
		<tag k="natural" v="bay" />
		<tag k="ssr:stedsnr" v="894195" />
	</node>
	<node id="-487846" lat="60.7595638893" lon="5.12970277175">
		<tag k="name" v="Mjelkevika" />
		<tag k="natural" v="bay" />
		<tag k="ssr:stedsnr" v="894166" />
	</node>
	<node id="-489889" lat="60.6203750034" lon="5.26412778128">
		<tag k="name" v="Hoplandsvågen" />
		<tag k="natural" v="bay" />
		<tag k="ssr:stedsnr" v="651111" />
	</node>
	<node id="-487840" lat="60.661505558" lon="5.239294437">
		<tag k="name" v="Trelevika" />
		<tag k="natural" v="bay" />
		<tag k="ssr:stedsnr" v="894130" />
	</node>
	<node id="-488676" lat="60.7201583361" lon="5.14994999932">
		<tag k="name" v="Klovningane" />
		<tag k="place" v="island" />
		<tag k="ssr:stedsnr" v="166235" />
	</node>
	<node id="-487834" lat="60.627088885" lon="5.25851944474">
		<tag k="name" v="Holtavika" />
		<tag k="natural" v="bay" />
		<tag k="ssr:stedsnr" v="894106" />
	</node>
	<node id="-487833" lat="60.6214194452" lon="5.26436944803">
		<tag k="name" v="Rydlandsneset" />
		<tag k="natural" v="cape" />
		<tag k="ssr:stedsnr" v="894105" />
	</node>
	<node id="-487829" lat="60.5469944447" lon="5.30201389608">
		<tag k="name" v="Rossvika" />
		<tag k="natural" v="bay" />
		<tag k="ssr:stedsnr" v="894084" />
	</node>
	<node id="-487653" lat="60.8116611116" lon="5.04296110501">
		<tag k="name" v="Klungreflua" />
		<tag k="natural" v="shoal" />
		<tag k="place" v="locality" />
		<tag k="ssr:stedsnr" v="388163" />
	</node>
	<node id="-489871" lat="60.7112833338" lon="5.16621389265">
		<tag k="name" v="Trælandsvågen" />
		<tag k="natural" v="bay" />
		<tag k="ssr:stedsnr" v="650302" />
	</node>
	<node id="-487822" lat="60.6469333338" lon="5.25818054711">
		<tag k="name" v="Steinsvika" />
		<tag k="natural" v="bay" />
		<tag k="ssr:stedsnr" v="894055" />
	</node>
	<node id="-489867" lat="60.711791663" lon="5.13798889633">
		<tag k="name" v="Boknesvågen" />
		<tag k="natural" v="bay" />
		<tag k="ssr:stedsnr" v="650279" />
	</node>
	<node id="-489866" lat="60.6718638872" lon="5.12906666614">
		<tag k="name" v="Vestre Langenesvågen" />
		<tag k="natural" v="bay" />
		<tag k="ssr:stedsnr" v="650265" />
	</node>
	<node id="-489865" lat="60.6732027762" lon="5.1630999937">
		<tag k="name" v="Toftingasundet" />
		<tag k="natural" v="strait" />
		<tag k="ssr:stedsnr" v="650263" />
	</node>
	<node id="-489863" lat="60.6716277767" lon="5.16391944386">
		<tag k="name" v="Kastevågen" />
		<tag k="natural" v="bay" />
		<tag k="ssr:stedsnr" v="650260" />
	</node>
	<node id="-489862" lat="60.6825444466" lon="5.13271111125">
		<tag k="name" v="Skoltevågen" />
		<tag k="natural" v="bay" />
		<tag k="ssr:stedsnr" v="650258" />
	</node>
	<node id="-489861" lat="60.68824444" lon="5.11495833117">
		<tag k="name" v="Lygrevågen" />
		<tag k="natural" v="bay" />
		<tag k="ssr:stedsnr" v="650257" />
	</node>
	<node id="-489860" lat="60.6603388877" lon="5.36763056436">
		<tag k="name" v="Hjellsneset" />
		<tag k="natural" v="cape" />
		<tag k="ssr:stedsnr" v="650239" />
	</node>
	<node id="-489859" lat="60.7496638903" lon="5.12015555746">
		<tag k="name" v="Kattedalsvika" />
		<tag k="natural" v="bay" />
		<tag k="ssr:stedsnr" v="650213" />
	</node>
	<node id="-488853" lat="60.5849472207" lon="5.2264694428">
		<tag k="name" v="Tveitneset" />
		<tag k="natural" v="cape" />
		<tag k="ssr:stedsnr" v="226428" />
	</node>
	<node id="-489852" lat="60.6739527776" lon="5.20868889415">
		<tag k="name" v="Træsneset" />
		<tag k="natural" v="cape" />
		<tag k="ssr:stedsnr" v="631599" />
	</node>
	<node id="-487421" lat="60.7288285596" lon="5.27866710223">
		<tag k="name" v="Åsevik" />
		<tag k="natural" v="bay" />
		<tag k="ssr:stedsnr" v="327200" />
	</node>
	<node id="-489850" lat="60.78431389" lon="5.08333333803">
		<tag k="name" v="Hatleflua" />
		<tag k="natural" v="shoal" />
		<tag k="place" v="locality" />
		<tag k="ssr:stedsnr" v="631175" />
	</node>
	<node id="-489849" lat="60.7781924475" lon="5.08860720524">
		<tag k="fixme" v="consider seamark:type=rock or natural=shoal" />
		<tag k="name" v="Skåten" />
		<tag k="place" v="islet" />
		<tag k="ssr:stedsnr" v="631172" />
	</node>
	<node id="-489848" lat="60.7512027784" lon="5.06412222054">
		<tag k="name" v="Risøystraumen" />
		<tag k="natural" v="strait" />
		<tag k="ssr:stedsnr" v="631144" />
	</node>
	<node id="-488852" lat="60.649297225" lon="5.12816667067">
		<tag k="name" v="Pessvika" />
		<tag k="natural" v="bay" />
		<tag k="ssr:stedsnr" v="226424" />
	</node>
	<node id="-489846" lat="60.7553194424" lon="5.06256945124">
		<tag k="name" v="Stornesvik" />
		<tag k="natural" v="bay" />
		<tag k="ssr:stedsnr" v="631141" />
	</node>
	<node id="-489845" lat="60.7679999986" lon="5.0518055529">
		<tag k="name" v="Kastevågen" />
		<tag k="natural" v="bay" />
		<tag k="ssr:stedsnr" v="631137" />
	</node>
	<node id="-489844" lat="60.7145277768" lon="5.15987222869">
		<tag k="name" v="Osmundholmen" />
		<tag k="place" v="islet" />
		<tag k="ssr:stedsnr" v="631130" />
	</node>
	<node id="-489843" lat="60.7167383523" lon="5.10586101866">
		<tag k="name" v="Lurestraumen" />
		<tag k="natural" v="strait" />
		<tag k="ssr:stedsnr" v="630325" />
	</node>
	<node id="-489842" lat="60.7361416666" lon="5.29012777997">
		<tag k="name" v="Hodnelandsholmane" />
		<tag k="place" v="islet" />
		<tag k="ssr:stedsnr" v="630186" />
	</node>
	<node id="-489841" lat="60.7311187562" lon="5.28077112992">
		<tag k="alt_name" v="Hodnelandsvågen" />
		<tag k="name" v="Vestre Hodnelandsvågen" />
		<tag k="natural" v="bay" />
		<tag k="ssr:stedsnr" v="630184" />
	</node>
	<node id="-489840" lat="60.7543833335" lon="5.23022778476">
		<tag k="name" v="Storflua" />
		<tag k="natural" v="shoal" />
		<tag k="place" v="locality" />
		<tag k="ssr:stedsnr" v="615720" />
	</node>
	<node id="-487781" lat="60.6152833365" lon="5.47265277538">
		<tag k="name" v="Merkesneset" />
		<tag k="natural" v="cape" />
		<tag k="ssr:stedsnr" v="409605" />
	</node>
	<node id="-488507" lat="60.6178833346" lon="5.20001944934">
		<tag k="name" v="Vedneset" />
		<tag k="natural" v="cape" />
		<tag k="ssr:stedsnr" v="127063" />
	</node>
	<node id="-488088" lat="60.6491833365" lon="5.3833305578">
		<tag k="fixme" v="multiple name tags, choose one and add the other to alt_name" />
		<tag k="name" v="Asgardholmane;Hegrasteøyna" />
		<tag k="place" v="islet" />
		<tag k="ssr:stedsnr" v="44305" />
	</node>
	<node id="-487773" lat="60.6824833333" lon="5.09830555292">
		<tag k="name" v="Salthusvågen" />
		<tag k="natural" v="bay" />
		<tag k="ssr:stedsnr" v="409561" />
	</node>
	<node id="-489816" lat="60.7173472205" lon="5.18777222992">
		<tag k="alt_name" v="Botelsvågen;Botlesvågen" />
		<tag k="name" v="Bottelvågen" />
		<tag k="natural" v="bay" />
		<tag k="ssr:stedsnr" v="612643" />
	</node>
	<node id="-487767" lat="60.6975583333" lon="5.09232500598">
		<tag k="name" v="Smørhavnen" />
		<tag k="natural" v="bay" />
		<tag k="ssr:stedsnr" v="409511" />
	</node>
	<node id="-487766" lat="60.6322777748" lon="5.4922888937">
		<tag k="name" v="Grunnevågen" />
		<tag k="natural" v="bay" />
		<tag k="ssr:stedsnr" v="409506" />
	</node>
	<node id="-487764" lat="60.7183944444" lon="5.10549444956">
		<tag k="name" v="Hanøystraumen" />
		<tag k="natural" v="strait" />
		<tag k="ssr:stedsnr" v="409494" />
	</node>
	<node id="-489870" lat="60.7041444433" lon="5.16388054994">
		<tag k="name" v="Vestevågen" />
		<tag k="natural" v="bay" />
		<tag k="ssr:stedsnr" v="650300" />
	</node>
	<node id="-489810" lat="60.6982527789" lon="5.59408888904">
		<tag k="name" v="Vikaholmen" />
		<tag k="place" v="islet" />
		<tag k="ssr:stedsnr" v="612274" />
	</node>
	<node id="-487756" lat="60.699887036" lon="5.38869299003">
		<tag k="name" v="Kyrkjesundet" />
		<tag k="natural" v="strait" />
		<tag k="ssr:stedsnr" v="409412" />
	</node>
	<node id="-487755" lat="60.5736694441" lon="5.22976944405">
		<tag k="name" v="Alvervika" />
		<tag k="natural" v="bay" />
		<tag k="ssr:stedsnr" v="409394" />
	</node>
	<node id="-489800" lat="60.6953111098" lon="5.40268610563">
		<tag k="name" v="Gjelsvikvågen" />
		<tag k="natural" v="bay" />
		<tag k="ssr:stedsnr" v="612175" />
	</node>
	<node id="-489798" lat="60.7042138923" lon="5.4222499953">
		<tag k="name" v="Langeneset" />
		<tag k="natural" v="cape" />
		<tag k="ssr:stedsnr" v="612156" />
	</node>
	<node id="-487748" lat="60.5736138913" lon="5.38472222895">
		<tag k="name" v="Litleholmen" />
		<tag k="place" v="islet" />
		<tag k="ssr:stedsnr" v="409343" />
	</node>
	<node id="-487747" lat="60.5696694443" lon="5.38587777301">
		<tag k="name" v="Fatavika" />
		<tag k="natural" v="bay" />
		<tag k="ssr:stedsnr" v="409341" />
	</node>
	<node id="-489791" lat="60.6066805534" lon="5.39410554749">
		<tag k="alt_name" v="Eikangvågen" />
		<tag k="name" v="Eikangervågen" />
		<tag k="natural" v="bay" />
		<tag k="ssr:stedsnr" v="612024" />
	</node>
	<node id="-487742" lat="60.6436111114" lon="5.22982222915">
		<tag k="name" v="Nesvika" />
		<tag k="natural" v="bay" />
		<tag k="ssr:stedsnr" v="409322" />
	</node>
	<node id="-489789" lat="60.818458331" lon="5.00026110331">
		<tag k="name" v="Veren" />
		<tag k="place" v="islet" />
		<tag k="ssr:stedsnr" v="601619" />
	</node>
	<node id="-487736" lat="60.7514500024" lon="5.21519443647">
		<tag k="name" v="Osen" />
		<tag k="natural" v="strait" />
		<tag k="ssr:stedsnr" v="409227" />
	</node>
	<node id="-487734" lat="60.7499694235" lon="5.23691109482">
		<tag k="name" v="Nordre Hånesholmen" />
		<tag k="place" v="islet" />
		<tag k="ssr:stedsnr" v="409221" />
	</node>
	<node id="-488841" lat="60.6052749983" lon="5.39486943997">
		<tag k="name" v="Storholmen" />
		<tag k="place" v="islet" />
		<tag k="ssr:stedsnr" v="226322" />
	</node>
	<node id="-487728" lat="60.7239583366" lon="5.20289721999">
		<tag k="name" v="Klubben" />
		<tag k="natural" v="cape" />
		<tag k="ssr:stedsnr" v="409199" />
	</node>
	<node id="-489771" lat="60.6750916663" lon="5.46847778695">
		<tag k="name" v="Mortevika" />
		<tag k="natural" v="bay" />
		<tag k="ssr:stedsnr" v="591707" />
	</node>
	<node id="-489764" lat="60.6623916641" lon="5.18630000607">
		<tag k="name" v="Myksvollvika" />
		<tag k="natural" v="bay" />
		<tag k="ssr:stedsnr" v="591333" />
	</node>
	<node id="-489763" lat="60.6510388859" lon="5.22471666369">
		<tag k="name" v="Havnetangen" />
		<tag k="natural" v="cape" />
		<tag k="ssr:stedsnr" v="591331" />
	</node>
	<node id="-489762" lat="60.6506416664" lon="5.23001389417">
		<tag k="name" v="Sutaren" />
		<tag k="natural" v="bay" />
		<tag k="ssr:stedsnr" v="591326" />
	</node>
	<node id="-489760" lat="60.6506527808" lon="5.22756666144">
		<tag k="name" v="Havnen" />
		<tag k="natural" v="bay" />
		<tag k="ssr:stedsnr" v="591325" />
	</node>
	<node id="-489960" lat="60.7075694427" lon="5.06392500025">
		<tag k="fixme" v="consider seamark:type=rock or natural=shoal" />
		<tag k="name" v="Skjerjena" />
		<tag k="place" v="islet" />
		<tag k="ssr:stedsnr" v="651567" />
	</node>
	<node id="-489757" lat="60.6353277777" lon="5.22069445205">
		<tag k="name" v="Monstadvågen" />
		<tag k="natural" v="bay" />
		<tag k="ssr:stedsnr" v="591297" />
	</node>
	<node id="-489755" lat="60.6943388887" lon="5.11558333347">
		<tag k="name" v="Fusnesvika" />
		<tag k="natural" v="bay" />
		<tag k="ssr:stedsnr" v="591282" />
	</node>
	<node id="-489754" lat="60.6957555562" lon="5.16259443749">
		<tag k="name" v="Sandvika" />
		<tag k="natural" v="bay" />
		<tag k="ssr:stedsnr" v="591280" />
	</node>
	<node id="-487697" lat="60.6931083373" lon="5.55284444338">
		<tag k="name" v="Eikefetneset" />
		<tag k="natural" v="cape" />
		<tag k="ssr:stedsnr" v="408700" />
	</node>
	<node id="-487608" lat="60.6420611152" lon="5.44609443879">
		<tag k="alt_name" v="Storøy" />
		<tag k="name" v="Storøyna" />
		<tag k="place" v="islet" />
		<tag k="ssr:stedsnr" v="370048" />
	</node>
	<node id="-489743" lat="60.7221083297" lon="5.64767499273">
		<tag k="bay" v="fjord" />
		<tag k="name" v="Romarheimsfjorden" />
		<tag k="natural" v="bay" />
		<tag k="ssr:stedsnr" v="590950" />
	</node>
	<node id="-487687" lat="60.7094888861" lon="5.16698054916">
		<tag k="name" v="Naustvika" />
		<tag k="natural" v="bay" />
		<tag k="ssr:stedsnr" v="408339" />
	</node>
	<node id="-487685" lat="60.7102166679" lon="5.14969999575">
		<tag k="name" v="Eisebuneset" />
		<tag k="natural" v="cape" />
		<tag k="ssr:stedsnr" v="408338" />
	</node>
	<node id="-487681" lat="60.7072251103" lon="5.38784945597">
		<tag k="name" v="Fluene" />
		<tag k="place" v="locality" />
		<tag k="seamark:type" v="rock" />
		<tag k="ssr:stedsnr" v="408321" />
	</node>
	<node id="-487680" lat="60.5968916675" lon="5.37738332453">
		<tag k="name" v="Vikane" />
		<tag k="natural" v="bay" />
		<tag k="ssr:stedsnr" v="408311" />
	</node>
	<node id="-488832" lat="60.6752500018" lon="5.15334444302">
		<tag k="name" v="Hundsholmen" />
		<tag k="place" v="islet" />
		<tag k="ssr:stedsnr" v="226305" />
	</node>
	<node id="-487678" lat="60.5992972193" lon="5.40755000377">
		<tag k="fixme" v="consider seamark:type=rock or natural=shoal" />
		<tag k="name" v="Kobbaskjeret" />
		<tag k="place" v="islet" />
		<tag k="ssr:stedsnr" v="408304" />
	</node>
	<node id="-488490" lat="60.6546611125" lon="5.59551667237">
		<tag k="name" v="Bakarbukta" />
		<tag k="natural" v="bay" />
		<tag k="ssr:stedsnr" v="106788" />
	</node>
	<node id="-487674" lat="60.6662583377" lon="5.36485000404">
		<tag k="name" v="Kulasanden" />
		<tag k="natural" v="shoal" />
		<tag k="place" v="locality" />
		<tag k="ssr:stedsnr" v="408274" />
	</node>
	<node id="-488831" lat="60.6717301483" lon="5.16618323462">
		<tag k="name" v="Nothusholmane" />
		<tag k="place" v="islet" />
		<tag k="ssr:stedsnr" v="226292" />
	</node>
	<node id="-487672" lat="60.6570027803" lon="5.37130833624">
		<tag k="name" v="Fuglevikneset" />
		<tag k="natural" v="cape" />
		<tag k="ssr:stedsnr" v="408270" />
	</node>
	<node id="-489719" lat="60.6299527814" lon="5.55648055655">
		<tag k="name" v="Storneset" />
		<tag k="natural" v="cape" />
		<tag k="ssr:stedsnr" v="590554" />
	</node>
	<node id="-489715" lat="60.6928166664" lon="5.06106389514">
		<tag k="name" v="Vårenhus" />
		<tag k="natural" v="cape" />
		<tag k="ssr:stedsnr" v="590541" />
	</node>
	<node id="-489712" lat="60.6312805525" lon="5.49473888342">
		<tag k="name" v="Bjørsvika" />
		<tag k="natural" v="bay" />
		<tag k="ssr:stedsnr" v="590530" />
	</node>
	<node id="-488698" lat="60.6424581684" lon="5.14971691633">
		<tag k="name" v="Nordre Juvvika" />
		<tag k="natural" v="bay" />
		<tag k="ssr:stedsnr" v="166341" />
	</node>
	<node id="-489853" lat="60.5471500025" lon="5.30385555819">
		<tag k="name" v="Rossavika" />
		<tag k="natural" v="bay" />
		<tag k="ssr:stedsnr" v="632640" />
	</node>
	<node id="-487675" lat="60.6840500024" lon="5.44591666538">
		<tag k="name" v="Sollineset" />
		<tag k="natural" v="cape" />
		<tag k="ssr:stedsnr" v="408278" />
	</node>
	<node id="-489707" lat="60.6496333365" lon="5.44121111697">
		<tag k="name" v="Furevikneset" />
		<tag k="natural" v="cape" />
		<tag k="ssr:stedsnr" v="590494" />
	</node>
	<node id="-489706" lat="60.7303638881" lon="5.10945277024">
		<tag k="name" v="Skårneset" />
		<tag k="natural" v="cape" />
		<tag k="ssr:stedsnr" v="590492" />
	</node>
	<node id="-489705" lat="60.7236083365" lon="5.09963056092">
		<tag k="name" v="Tangane" />
		<tag k="natural" v="cape" />
		<tag k="ssr:stedsnr" v="590491" />
	</node>
	<node id="-487656" lat="60.6359694463" lon="5.27658610906">
		<tag k="name" v="Holmasundet" />
		<tag k="natural" v="strait" />
		<tag k="ssr:stedsnr" v="388302" />
	</node>
	<node id="-489703" lat="60.7270583318" lon="5.080752779">
		<tag k="name" v="Skitnevågen" />
		<tag k="natural" v="bay" />
		<tag k="ssr:stedsnr" v="590486" />
	</node>
	<node id="-489702" lat="60.7790972264" lon="5.09629722192">
		<tag k="name" v="Hundeneset" />
		<tag k="natural" v="cape" />
		<tag k="ssr:stedsnr" v="590483" />
	</node>
	<node id="-489701" lat="60.7659055544" lon="5.0356083299">
		<tag k="name" v="Klubben" />
		<tag k="natural" v="cape" />
		<tag k="ssr:stedsnr" v="590440" />
	</node>
	<node id="-489700" lat="60.7668805558" lon="5.04686388193">
		<tag k="name" v="Kutangen" />
		<tag k="natural" v="cape" />
		<tag k="ssr:stedsnr" v="590437" />
	</node>
	<node id="-489699" lat="60.6983812653" lon="5.39089386915">
		<tag k="name" v="Vestre Bjørnevika" />
		<tag k="natural" v="bay" />
		<tag k="ssr:stedsnr" v="590431" />
	</node>
	<node id="-489698" lat="60.6992050073" lon="5.39647127956">
		<tag k="name" v="Hjeltasundet" />
		<tag k="natural" v="strait" />
		<tag k="ssr:stedsnr" v="590422" />
	</node>
	<node id="-489851" lat="60.6200527738" lon="5.25764443974">
		<tag k="name" v="Søra Gardvika" />
		<tag k="natural" v="bay" />
		<tag k="ssr:stedsnr" v="631272" />
	</node>
	<node id="-487648" lat="60.7713777816" lon="5.1242416599">
		<tag k="name" v="Selvågen" />
		<tag k="natural" v="bay" />
		<tag k="ssr:stedsnr" v="372953" />
	</node>
	<node id="-488144" lat="60.7865083375" lon="5.09111666634">
		<tag k="name" v="Øyeholmen" />
		<tag k="place" v="islet" />
		<tag k="ssr:stedsnr" v="44437" />
	</node>
	<node id="-489694" lat="60.7034158773" lon="5.39292220941">
		<tag k="name" v="Storholmen" />
		<tag k="place" v="islet" />
		<tag k="ssr:stedsnr" v="590401" />
	</node>
	<node id="-489631" lat="60.6362888869" lon="5.23779721867">
		<tag k="name" v="Andersvika" />
		<tag k="natural" v="bay" />
		<tag k="ssr:stedsnr" v="590102" />
	</node>
	<node id="-489691" lat="60.7301444465" lon="5.31637500232">
		<tag k="name" v="Stongevika" />
		<tag k="natural" v="bay" />
		<tag k="ssr:stedsnr" v="590381" />
	</node>
	<node id="-487642" lat="60.785650001" lon="5.01498055446">
		<tag k="name" v="Keilesundet" />
		<tag k="natural" v="strait" />
		<tag k="ssr:stedsnr" v="372234" />
	</node>
	<node id="-487640" lat="60.7442138855" lon="5.04907500791">
		<tag k="name" v="Ådnøyna" />
		<tag k="place" v="island" />
		<tag k="ssr:stedsnr" v="370790" />
	</node>
	<node id="-487639" lat="60.6859113796" lon="5.08102946117">
		<tag k="alt_name" v="Vestre Håvågen;Vestrevika" />
		<tag k="name" v="Vestrevågen" />
		<tag k="natural" v="bay" />
		<tag k="ssr:stedsnr" v="370779" />
	</node>
	<node id="-487638" lat="60.7234500024" lon="5.08041944957">
		<tag k="name" v="Skarvøyna" />
		<tag k="place" v="islet" />
		<tag k="ssr:stedsnr" v="370768" />
	</node>
	<node id="-489685" lat="60.5716527745" lon="5.38510555817">
		<tag k="name" v="Katevågen" />
		<tag k="natural" v="bay" />
		<tag k="ssr:stedsnr" v="590349" />
	</node>
	<node id="-489721" lat="60.7351166643" lon="5.05563611975">
		<tag k="name" v="Børsundet" />
		<tag k="natural" v="strait" />
		<tag k="ssr:stedsnr" v="590564" />
	</node>
	<node id="-488142" lat="60.6801805573" lon="5.10978333241">
		<tag k="name" v="Steinsvika" />
		<tag k="natural" v="bay" />
		<tag k="ssr:stedsnr" v="44562" />
	</node>
	<node id="-489681" lat="60.711913885" lon="5.14520277751">
		<tag k="name" v="Sviddaneset" />
		<tag k="natural" v="cape" />
		<tag k="ssr:stedsnr" v="590320" />
	</node>
	<node id="-489679" lat="60.6425277749" lon="5.43409721663">
		<tag k="name" v="Kvalvika" />
		<tag k="natural" v="bay" />
		<tag k="ssr:stedsnr" v="590309" />
	</node>
	<node id="-489677" lat="60.5863722224" lon="5.3971055627">
		<tag k="name" v="Havnen" />
		<tag k="natural" v="bay" />
		<tag k="ssr:stedsnr" v="590300" />
	</node>
	<node id="-489675" lat="60.6719527761" lon="5.15813332586">
		<tag k="name" v="Havnen" />
		<tag k="natural" v="bay" />
		<tag k="ssr:stedsnr" v="590292" />
	</node>
	<node id="-489673" lat="60.6729027743" lon="5.15766112043">
		<tag k="name" v="Sandsundholmen" />
		<tag k="place" v="islet" />
		<tag k="ssr:stedsnr" v="590281" />
	</node>
	<node id="-489672" lat="60.5967638851" lon="5.43025833559">
		<tag k="name" v="Stabbevika" />
		<tag k="natural" v="bay" />
		<tag k="ssr:stedsnr" v="590278" />
	</node>
	<node id="-489671" lat="60.596797223" lon="5.42255276958">
		<tag k="name" v="Furuvika" />
		<tag k="natural" v="bay" />
		<tag k="ssr:stedsnr" v="590277" />
	</node>
	<node id="-489669" lat="60.6961750027" lon="5.42976389663">
		<tag k="fixme" v="consider seamark:type=rock or natural=shoal" />
		<tag k="name" v="Skoreskjeret" />
		<tag k="place" v="islet" />
		<tag k="ssr:stedsnr" v="590266" />
	</node>
	<node id="-487620" lat="60.6706951392" lon="5.16807031558">
		<tag k="fixme" v="multiple name tags, choose one and add the other to alt_name" />
		<tag k="name" v="Nothusholmane;Toftingholmen" />
		<tag k="place" v="islet" />
		<tag k="ssr:stedsnr" v="370268" />
	</node>
	<node id="-489667" lat="60.6751888899" lon="5.4703111147">
		<tag k="name" v="Murtevika" />
		<tag k="natural" v="bay" />
		<tag k="ssr:stedsnr" v="590264" />
	</node>
	<node id="-487617" lat="60.6444000007" lon="5.26209999953">
		<tag k="alt_name" v="Rylandspollen" />
		<tag k="bay" v="fjord" />
		<tag k="name" v="Rydlandsvågen" />
		<tag k="natural" v="bay" />
		<tag k="ssr:stedsnr" v="370233" />
	</node>
	<node id="-487616" lat="60.6855333312" lon="5.44668610946">
		<tag k="name" v="Dyrdalsvika" />
		<tag k="natural" v="bay" />
		<tag k="ssr:stedsnr" v="370179" />
	</node>
	<node id="-488821" lat="60.6387250035" lon="5.27111389093">
		<tag k="name" v="Lausholmen" />
		<tag k="place" v="islet" />
		<tag k="ssr:stedsnr" v="226046" />
	</node>
	<node id="-487612" lat="60.5873750034" lon="5.2220666652">
		<tag k="name" v="Kvamsholmen" />
		<tag k="place" v="islet" />
		<tag k="ssr:stedsnr" v="370129" />
	</node>
	<node id="-489657" lat="60.7182833371" lon="5.14977778058">
		<tag k="name" v="Djuvvikholmen" />
		<tag k="place" v="islet" />
		<tag k="ssr:stedsnr" v="590227" />
	</node>
	<node id="-489656" lat="60.7202916696" lon="5.16878055505">
		<tag k="name" v="Gulnakken" />
		<tag k="natural" v="cape" />
		<tag k="ssr:stedsnr" v="590225" />
	</node>
	<node id="-487606" lat="60.6408611105" lon="5.40051665936">
		<tag k="name" v="Æsevågen" />
		<tag k="natural" v="bay" />
		<tag k="ssr:stedsnr" v="370044" />
	</node>
	<node id="-489653" lat="60.7496111069" lon="5.21372778135">
		<tag k="name" v="Djuvvika" />
		<tag k="natural" v="bay" />
		<tag k="ssr:stedsnr" v="590209" />
	</node>
	<node id="-489652" lat="60.7384472195" lon="5.2739083346">
		<tag k="name" v="Vikane" />
		<tag k="natural" v="bay" />
		<tag k="ssr:stedsnr" v="590206" />
	</node>
	<node id="-489644" lat="60.7712972179" lon="5.15345555449">
		<tag k="name" v="Nordre Trongholet" />
		<tag k="natural" v="strait" />
		<tag k="ssr:stedsnr" v="590165" />
	</node>
	<node id="-489643" lat="60.7672027755" lon="5.12879444255">
		<tag k="name" v="Litlestraumen" />
		<tag k="natural" v="strait" />
		<tag k="ssr:stedsnr" v="590160" />
	</node>
	<node id="-489641" lat="60.7752083311" lon="5.13733889429">
		<tag k="name" v="Kvernhusvika" />
		<tag k="natural" v="bay" />
		<tag k="ssr:stedsnr" v="590157" />
	</node>
	<node id="-489639" lat="60.7694611068" lon="5.16244166281">
		<tag k="name" v="Gisholmen" />
		<tag k="place" v="islet" />
		<tag k="ssr:stedsnr" v="590153" />
	</node>
	<node id="-488134" lat="60.7179083366" lon="5.33391945233">
		<tag k="name" v="Nordra Bogsulvika" />
		<tag k="natural" v="bay" />
		<tag k="ssr:stedsnr" v="44367" />
	</node>
	<node id="-489582" lat="60.6912749978" lon="5.57769167346">
		<tag k="name" v="Rossholmen" />
		<tag k="place" v="islet" />
		<tag k="ssr:stedsnr" v="552404" />
	</node>
	<node id="-487877" lat="60.6766500003" lon="5.14126388056">
		<tag k="name" v="Persvika" />
		<tag k="natural" v="bay" />
		<tag k="ssr:stedsnr" v="894304" />
	</node>
	<node id="-487580" lat="60.6708583319" lon="5.58350000347">
		<tag k="name" v="Lindebugen" />
		<tag k="natural" v="bay" />
		<tag k="ssr:stedsnr" v="348764" />
	</node>
	<node id="-487579" lat="60.6768111121" lon="5.6050944402">
		<tag k="name" v="Porsvika" />
		<tag k="natural" v="bay" />
		<tag k="ssr:stedsnr" v="348754" />
	</node>
	<node id="-488132" lat="60.5848666674" lon="5.36695555305">
		<tag k="name" v="Hellesneset" />
		<tag k="natural" v="cape" />
		<tag k="ssr:stedsnr" v="44285" />
	</node>
	<node id="-489620" lat="60.6714138846" lon="5.5775166581">
		<tag k="name" v="Lindetoneset" />
		<tag k="natural" v="cape" />
		<tag k="ssr:stedsnr" v="589870" />
	</node>
	<node id="-489619" lat="60.600663893" lon="5.40740833569">
		<tag k="name" v="Granholmen" />
		<tag k="place" v="islet" />
		<tag k="ssr:stedsnr" v="589090" />
	</node>
	<node id="-489616" lat="60.5833638871" lon="5.22482221587">
		<tag k="name" v="Flatholmen" />
		<tag k="place" v="islet" />
		<tag k="ssr:stedsnr" v="571589" />
	</node>
	<node id="-489615" lat="60.718166666" lon="5.09240833616">
		<tag k="name" v="Sjelteholmane" />
		<tag k="place" v="islet" />
		<tag k="ssr:stedsnr" v="571101" />
	</node>
	<node id="-489614" lat="60.7101694455" lon="5.18183611543">
		<tag k="name" v="Maråsneset" />
		<tag k="natural" v="cape" />
		<tag k="ssr:stedsnr" v="570297" />
	</node>
	<node id="-489613" lat="60.6337333295" lon="5.24456389159">
		<tag k="name" v="Tømmervikneset" />
		<tag k="natural" v="cape" />
		<tag k="ssr:stedsnr" v="570281" />
	</node>
	<node id="-489612" lat="60.6491637458" lon="5.20615417403">
		<tag k="name" v="Litloksaklubben" />
		<tag k="place" v="islet" />
		<tag k="ssr:stedsnr" v="570259" />
	</node>
	<node id="-489610" lat="60.6740833335" lon="5.11423610943">
		<tag k="name" v="Brattholmen" />
		<tag k="place" v="islet" />
		<tag k="ssr:stedsnr" v="570235" />
	</node>
	<node id="-489609" lat="60.6882000011" lon="5.06882500861">
		<tag k="fixme" v="consider seamark:type=rock or natural=shoal" />
		<tag k="name" v="Kolevikskjeret" />
		<tag k="place" v="islet" />
		<tag k="ssr:stedsnr" v="570232" />
	</node>
	<node id="-489608" lat="60.7754388899" lon="5.09428888744">
		<tag k="fixme" v="consider seamark:type=rock or natural=shoal" />
		<tag k="name" v="Grønvikskjeret" />
		<tag k="place" v="islet" />
		<tag k="ssr:stedsnr" v="570155" />
	</node>
	<node id="-488812" lat="60.747310724" lon="5.22378481308">
		<tag k="name" v="Skjellvikholmen" />
		<tag k="place" v="islet" />
		<tag k="ssr:stedsnr" v="207197" />
	</node>
	<node id="-489606" lat="60.7225277793" lon="5.12672778022">
		<tag k="name" v="Onestangen" />
		<tag k="natural" v="cape" />
		<tag k="ssr:stedsnr" v="570128" />
	</node>
	<node id="-489605" lat="60.728672218" lon="5.07563889346">
		<tag k="name" v="Dragsundet" />
		<tag k="natural" v="strait" />
		<tag k="ssr:stedsnr" v="570126" />
	</node>
	<node id="-489604" lat="60.7620555527" lon="5.12298054802">
		<tag k="name" v="Rossnesvågen" />
		<tag k="natural" v="bay" />
		<tag k="ssr:stedsnr" v="554737" />
	</node>
	<node id="-487555" lat="60.7021861073" lon="5.09173333454">
		<tag k="name" v="Tangane" />
		<tag k="natural" v="cape" />
		<tag k="ssr:stedsnr" v="348526" />
	</node>
	<node id="-487554" lat="60.6299111093" lon="5.55223333865">
		<tag k="name" v="Sandvika" />
		<tag k="natural" v="bay" />
		<tag k="ssr:stedsnr" v="348522" />
	</node>
	<node id="-488811" lat="60.8158631051" lon="5.01840062738">
		<tag k="name" v="Mongstadvågen" />
		<tag k="natural" v="bay" />
		<tag k="ssr:stedsnr" v="207170" />
	</node>
	<node id="-489595" lat="60.7562361098" lon="5.05572778142">
		<tag k="name" v="Rissundet" />
		<tag k="natural" v="strait" />
		<tag k="ssr:stedsnr" v="554184" />
	</node>
	<node id="-489593" lat="60.7928861133" lon="5.09006111946">
		<tag k="alt_name" v="Ternskjeret" />
		<tag k="fixme" v="consider seamark:type=rock or natural=shoal" />
		<tag k="name" v="Terneskjeret" />
		<tag k="place" v="islet" />
		<tag k="ssr:stedsnr" v="554016" />
	</node>
	<node id="-487539" lat="60.7911638879" lon="4.99530834004">
		<tag k="name" v="Midttangen" />
		<tag k="natural" v="cape" />
		<tag k="ssr:stedsnr" v="348440" />
	</node>
	<node id="-489586" lat="60.6674111085" lon="5.58918334046">
		<tag k="alt_name" v="Paddøyna" />
		<tag k="name" v="Paddøy" />
		<tag k="place" v="island" />
		<tag k="ssr:stedsnr" v="552680" />
	</node>
	<node id="-488467" lat="60.6807027804" lon="5.38598056133">
		<tag k="name" v="Auso" />
		<tag k="place" v="island" />
		<tag k="ssr:stedsnr" v="106144" />
	</node>
	<node id="-487534" lat="60.7690055587" lon="5.0487249949">
		<tag k="fixme" v="consider seamark:type=rock or natural=shoal" />
		<tag k="name" v="Kasteskjeret" />
		<tag k="place" v="islet" />
		<tag k="ssr:stedsnr" v="348417" />
	</node>
	<node id="-487532" lat="60.7023055536" lon="5.34905000694">
		<tag k="name" v="Litlevika" />
		<tag k="natural" v="bay" />
		<tag k="ssr:stedsnr" v="348410" />
	</node>
	<node id="-487531" lat="60.8254944446" lon="4.99845277424">
		<tag k="name" v="Klubben" />
		<tag k="place" v="island" />
		<tag k="ssr:stedsnr" v="348406" />
	</node>
	<node id="-488807" lat="60.6862583331" lon="5.08787222688">
		<tag k="alt_name" v="Austre Håvågen" />
		<tag k="name" v="Håvågen" />
		<tag k="natural" v="bay" />
		<tag k="ssr:stedsnr" v="206266" />
	</node>
	<node id="-489576" lat="60.6426888865" lon="5.23103333887">
		<tag k="alt_name" v="Bønestangen" />
		<tag k="name" v="Nestangen" />
		<tag k="natural" v="cape" />
		<tag k="ssr:stedsnr" v="552210" />
	</node>
	<node id="-487527" lat="60.5957777752" lon="5.21577222742">
		<tag k="name" v="Indrefossvika" />
		<tag k="natural" v="bay" />
		<tag k="ssr:stedsnr" v="348366" />
	</node>
	<node id="-489580" lat="60.7284993432" lon="5.655511553">
		<tag k="name" v="Askvika" />
		<tag k="natural" v="bay" />
		<tag k="ssr:stedsnr" v="552329" />
	</node>
	<node id="-489573" lat="60.6799555541" lon="5.14711389166">
		<tag k="name" v="Brusundet" />
		<tag k="natural" v="strait" />
		<tag k="ssr:stedsnr" v="552160" />
	</node>
	<node id="-487522" lat="60.6301444413" lon="5.17786943925">
		<tag k="name" v="Slumpen" />
		<tag k="natural" v="bay" />
		<tag k="ssr:stedsnr" v="348328" />
	</node>
	<node id="-489569" lat="60.6991361116" lon="5.34608055175">
		<tag k="name" v="Hodnaneset" />
		<tag k="natural" v="cape" />
		<tag k="ssr:stedsnr" v="552138" />
	</node>
	<node id="-489567" lat="60.5954444477" lon="5.20642777629">
		<tag k="name" v="Djupvikneset" />
		<tag k="natural" v="cape" />
		<tag k="ssr:stedsnr" v="552108" />
	</node>
	<node id="-489563" lat="60.5818277814" lon="5.37058611557">
		<tag k="alt_name" v="Hillesvågen" />
		<tag k="loc_name" v="Hellesvåg" />
		<tag k="name" v="Hellesvågen" />
		<tag k="natural" v="bay" />
		<tag k="ssr:stedsnr" v="552079" />
	</node>
	<node id="-487329" lat="60.6917405529" lon="5.12495489926">
		<tag k="name" v="Gangstø" />
		<tag k="natural" v="bay" />
		<tag k="ssr:stedsnr" v="288297" />
	</node>
	<node id="-489557" lat="60.6884527759" lon="5.07176111388">
		<tag k="alt_name" v="Lurøyane" />
		<tag k="name" v="Lurøyna" />
		<tag k="place" v="island" />
		<tag k="ssr:stedsnr" v="551778" />
	</node>
	<node id="-489486" lat="60.7258861074" lon="5.07421943645">
		<tag k="name" v="Flatholmen" />
		<tag k="place" v="islet" />
		<tag k="ssr:stedsnr" v="530499" />
	</node>
	<node id="-489552" lat="60.7310000038" lon="5.14438888054">
		<tag k="name" v="Galteneset" />
		<tag k="natural" v="cape" />
		<tag k="ssr:stedsnr" v="551631" />
	</node>
	<node id="-489551" lat="60.6857312037" lon="5.59628239951">
		<tag k="alt_name" v="Hokøyna" />
		<tag k="name" v="Hokøy" />
		<tag k="place" v="island" />
		<tag k="ssr:stedsnr" v="551342" />
	</node>
	<node id="-487501" lat="60.7521194437" lon="5.20151388557">
		<tag k="name" v="Hognevika" />
		<tag k="natural" v="bay" />
		<tag k="ssr:stedsnr" v="348199" />
	</node>
	<node id="-487497" lat="60.737152776" lon="5.28392778344">
		<tag k="name" v="Austreholmen" />
		<tag k="place" v="islet" />
		<tag k="ssr:stedsnr" v="348185" />
	</node>
	<node id="-487493" lat="60.7148405972" lon="5.15949714321">
		<tag k="name" v="Osundholmen" />
		<tag k="place" v="islet" />
		<tag k="ssr:stedsnr" v="348178" />
	</node>
	<node id="-487492" lat="60.716233337" lon="5.13619444771">
		<tag k="name" v="Vestrevågen" />
		<tag k="natural" v="bay" />
		<tag k="ssr:stedsnr" v="348173" />
	</node>
	<node id="-487491" lat="60.6360805537" lon="5.4556388977">
		<tag k="name" v="Knutsvika" />
		<tag k="natural" v="bay" />
		<tag k="ssr:stedsnr" v="348155" />
	</node>
	<node id="-487488" lat="60.773399997" lon="5.12178054917">
		<tag k="name" v="Nesstraumen" />
		<tag k="natural" v="strait" />
		<tag k="ssr:stedsnr" v="348150" />
	</node>
	<node id="-487484" lat="60.7603666705" lon="5.12565554665">
		<tag k="name" v="Grønholmen" />
		<tag k="place" v="islet" />
		<tag k="ssr:stedsnr" v="348142" />
	</node>
	<node id="-487433" lat="60.6452111138" lon="5.20974444569">
		<tag k="fixme" v="consider seamark:type=rock or natural=shoal" />
		<tag k="name" v="Mykletunskjeret" />
		<tag k="place" v="islet" />
		<tag k="ssr:stedsnr" v="328878" />
	</node>
	<node id="-488797" lat="60.6442833349" lon="5.57847500311">
		<tag k="name" v="Tjuvasundet" />
		<tag k="natural" v="strait" />
		<tag k="ssr:stedsnr" v="188715" />
	</node>
	<node id="-489516" lat="60.6751555522" lon="5.59131665944">
		<tag k="name" v="Hjeltebugen" />
		<tag k="natural" v="bay" />
		<tag k="ssr:stedsnr" v="530767" />
	</node>
	<node id="-488796" lat="60.7349805535" lon="5.12922499966">
		<tag k="name" v="Syslokvågen" />
		<tag k="natural" v="bay" />
		<tag k="ssr:stedsnr" v="188710" />
	</node>
	<node id="-487462" lat="60.6740500008" lon="5.35510555498">
		<tag k="fixme" v="consider seamark:type=rock or natural=shoal" />
		<tag k="name" v="Vauleskjeret" />
		<tag k="place" v="islet" />
		<tag k="ssr:stedsnr" v="347783" />
	</node>
	<node id="-487461" lat="60.5882777773" lon="5.37618888698">
		<tag k="name" v="Langholmen" />
		<tag k="place" v="islet" />
		<tag k="ssr:stedsnr" v="347779" />
	</node>
	<node id="-487457" lat="60.6624867064" lon="5.35389677919">
		<tag k="name" v="Haugsvika" />
		<tag k="natural" v="bay" />
		<tag k="ssr:stedsnr" v="347493" />
	</node>
	<node id="-489502" lat="60.6860132536" lon="5.38549158567">
		<tag k="name" v="Sjurneset" />
		<tag k="natural" v="cape" />
		<tag k="ssr:stedsnr" v="530597" />
	</node>
	<node id="-487429" lat="60.6778972201" lon="5.12640000653">
		<tag k="name" v="Seglholmen" />
		<tag k="natural" v="cape" />
		<tag k="ssr:stedsnr" v="328257" />
	</node>
	<node id="-489500" lat="60.6826694422" lon="5.10692778604">
		<tag k="name" v="Breiavika" />
		<tag k="natural" v="bay" />
		<tag k="ssr:stedsnr" v="530592" />
	</node>
	<node id="-487451" lat="60.6820305544" lon="5.13295833309">
		<tag k="name" v="Skolteviksneset" />
		<tag k="natural" v="cape" />
		<tag k="ssr:stedsnr" v="347277" />
	</node>
	<node id="-487428" lat="60.7846583352" lon="5.01781389216">
		<tag k="name" v="Mulen" />
		<tag k="natural" v="cape" />
		<tag k="ssr:stedsnr" v="328180" />
	</node>
	<node id="-489491" lat="60.694987699" lon="5.36748540056">
		<tag k="fixme" v="consider seamark:type=rock or natural=shoal" />
		<tag k="name" v="Kuskjeret" />
		<tag k="place" v="islet" />
		<tag k="ssr:stedsnr" v="530545" />
	</node>
	<node id="-489490" lat="60.6991527784" lon="5.59340833409">
		<tag k="name" v="Holsundet" />
		<tag k="natural" v="strait" />
		<tag k="ssr:stedsnr" v="530536" />
	</node>
	<node id="-487441" lat="60.6592138888" lon="5.60164722687">
		<tag k="name" v="Hundskjeften" />
		<tag k="natural" v="cape" />
		<tag k="ssr:stedsnr" v="346842" />
	</node>
	<node id="-489488" lat="60.7217361067" lon="5.10412499407">
		<tag k="name" v="Petterholmen" />
		<tag k="place" v="islet" />
		<tag k="ssr:stedsnr" v="530509" />
	</node>
	<node id="-489487" lat="60.7309583377" lon="5.07098334064">
		<tag k="name" v="Neset" />
		<tag k="natural" v="cape" />
		<tag k="ssr:stedsnr" v="530500" />
	</node>
	<node id="-487463" lat="60.6056611097" lon="5.46006945027">
		<tag k="name" v="Totlandsvika" />
		<tag k="natural" v="bay" />
		<tag k="ssr:stedsnr" v="347787" />
	</node>
	<node id="-489485" lat="60.7306722222" lon="5.06902222373">
		<tag k="name" v="Dragøysundet" />
		<tag k="natural" v="strait" />
		<tag k="ssr:stedsnr" v="530497" />
	</node>
	<node id="-489484" lat="60.7922111083" lon="5.00091943616">
		<tag k="fixme" v="consider seamark:type=rock or natural=shoal" />
		<tag k="name" v="Lågeskjersanden" />
		<tag k="place" v="islet" />
		<tag k="ssr:stedsnr" v="530492" />
	</node>
	<node id="-487434" lat="60.718247226" lon="5.09729722707">
		<tag k="name" v="Kalvøy" />
		<tag k="place" v="island" />
		<tag k="ssr:stedsnr" v="329134" />
	</node>
	<node id="-489481" lat="60.7818444463" lon="5.03302777857">
		<tag k="name" v="Storevika" />
		<tag k="natural" v="bay" />
		<tag k="ssr:stedsnr" v="530486" />
	</node>
	<node id="-487432" lat="60.8188833302" lon="5.0239361136">
		<tag k="name" v="Svenes" />
		<tag k="natural" v="cape" />
		<tag k="ssr:stedsnr" v="328745" />
	</node>
	<node id="-487431" lat="60.6961722256" lon="5.15731388297">
		<tag k="name" v="Ållaupeflua" />
		<tag k="natural" v="shoal" />
		<tag k="place" v="locality" />
		<tag k="ssr:stedsnr" v="328291" />
	</node>
	<node id="-489478" lat="60.7577527779" lon="5.05612777539">
		<tag k="name" v="Kjøøyna" />
		<tag k="place" v="island" />
		<tag k="ssr:stedsnr" v="530460" />
	</node>
	<node id="-489477" lat="60.7624972258" lon="5.05386388515">
		<tag k="fixme" v="consider seamark:type=rock or natural=shoal" />
		<tag k="name" v="Vågsskjeret" />
		<tag k="place" v="islet" />
		<tag k="ssr:stedsnr" v="530457" />
	</node>
	<node id="-489476" lat="60.6946499982" lon="5.38523054821">
		<tag k="name" v="Hundevikane" />
		<tag k="natural" v="bay" />
		<tag k="ssr:stedsnr" v="530450" />
	</node>
	<node id="-489473" lat="60.6970750039" lon="5.39715000824">
		<tag k="name" v="Krokavågen" />
		<tag k="natural" v="bay" />
		<tag k="ssr:stedsnr" v="530443" />
	</node>
</osm>
