<?xml version="1.0" encoding="UTF-8"?>
<osm generator="osmapis" version="0.6">
	<node id="-489463" lat="60.6552852897" lon="5.13096358358">
		<tag k="name" v="Storetjørna" />
		<tag k="natural" v="water" />
		<tag k="ssr:stedsnr" v="530387" />
	</node>
	<node id="-487412" lat="60.7401847872" lon="5.12730000624">
		<tag k="name" v="Sysloktjørna" />
		<tag k="natural" v="water" />
		<tag k="ssr:stedsnr" v="310683" />
	</node>
	<node id="-487406" lat="60.7335500016" lon="5.63659722389">
		<tag k="name" v="Romarheimselva" />
		<tag k="ssr:stedsnr" v="309488" />
		<tag k="waterway" v="river" />
	</node>
	<node id="-487404" lat="60.7376638893" lon="5.5595333413">
		<tag k="name" v="Andevatnet" />
		<tag k="natural" v="water" />
		<tag k="ssr:stedsnr" v="309485" />
	</node>
	<node id="-489451" lat="60.7524694428" lon="5.13166666755">
		<tag k="name" v="Lammeneset" />
		<tag k="natural" v="cape" />
		<tag k="ssr:stedsnr" v="530275" />
	</node>
	<node id="-487400" lat="60.6705777814" lon="5.22047777501">
		<tag k="alt_name" v="Toravatnet" />
		<tag k="name" v="Torevatnet" />
		<tag k="natural" v="water" />
		<tag k="ssr:stedsnr" v="309264" />
	</node>
	<node id="-487397" lat="60.6395750005" lon="5.28260833582">
		<tag k="name" v="Litlavatnet" />
		<tag k="natural" v="water" />
		<tag k="ssr:stedsnr" v="309244" />
	</node>
	<node id="-487395" lat="60.7106194423" lon="5.3096138943">
		<tag k="name" v="Søravatnet" />
		<tag k="natural" v="water" />
		<tag k="ssr:stedsnr" v="309208" />
	</node>
	<node id="-487386" lat="60.5639416833" lon="5.27276855287">
		<tag k="name" v="Isdalsvatnet" />
		<tag k="natural" v="water" />
		<tag k="ssr:stedsnr" v="309076" />
	</node>
	<node id="-489430" lat="60.810397218" lon="5.65316943903">
		<tag k="name" v="Fitjaelva" />
		<tag k="ssr:stedsnr" v="530203" />
		<tag k="waterway" v="river" />
	</node>
	<node id="-489427" lat="60.7490479896" lon="5.65667300492">
		<tag k="name" v="Blombrekkstjørna" />
		<tag k="natural" v="water" />
		<tag k="ssr:stedsnr" v="530179" />
	</node>
	<node id="-489425" lat="60.7253764536" lon="5.27747115628">
		<tag k="name" v="Tranbærtjørna" />
		<tag k="natural" v="water" />
		<tag k="ssr:stedsnr" v="530171" />
	</node>
	<node id="-489418" lat="60.7451027938" lon="5.12031345091">
		<tag k="name" v="Gjerdvågstjørna" />
		<tag k="natural" v="water" />
		<tag k="ssr:stedsnr" v="530129" />
	</node>
	<node id="-487415" lat="60.8128820264" lon="5.6972695717">
		<tag k="name" v="Ljosavotna" />
		<tag k="natural" v="water" />
		<tag k="ssr:stedsnr" v="312483" />
		<tag k="water" v="lake" />
	</node>
	<node id="-487359" lat="60.7666972221" lon="5.61438332619">
		<tag k="name" v="Laksebekken" />
		<tag k="ssr:stedsnr" v="288935" />
		<tag k="waterway" v="stream" />
	</node>
	<node id="-489406" lat="60.6328861135" lon="5.31740556308">
		<tag k="name" v="Søreidet" />
		<tag k="natural" v="strait" />
		<tag k="ssr:stedsnr" v="530066" />
	</node>
	<node id="-487356" lat="60.7683555552" lon="5.65109444088">
		<tag k="name" v="Eiterdalsfossen" />
		<tag k="natural" v="waterfall" />
		<tag k="ssr:stedsnr" v="288914" />
	</node>
	<node id="-489400" lat="60.6454833335" lon="5.32791388373">
		<tag k="name" v="Breivika" />
		<tag k="natural" v="bay" />
		<tag k="ssr:stedsnr" v="530022" />
	</node>
	<node id="-489399" lat="60.6388555517" lon="5.32906944597">
		<tag k="name" v="Tverråna" />
		<tag k="ssr:stedsnr" v="530020" />
		<tag k="waterway" v="river" />
	</node>
	<node id="-489396" lat="60.6394750028" lon="5.31460555951">
		<tag k="name" v="Grunne" />
		<tag k="natural" v="shoal" />
		<tag k="place" v="locality" />
		<tag k="ssr:stedsnr" v="530001" />
	</node>
	<node id="-489393" lat="60.7063999973" lon="5.56504999293">
		<tag k="name" v="Askekråna" />
		<tag k="ssr:stedsnr" v="529746" />
		<tag k="waterway" v="stream" />
	</node>
	<node id="-487343" lat="60.6737608748" lon="5.53071689162">
		<tag k="name" v="Fossatjørna" />
		<tag k="natural" v="water" />
		<tag k="ssr:stedsnr" v="288721" />
	</node>
	<node id="-487342" lat="60.6801394928" lon="5.48871833504">
		<tag k="name" v="Nipetjørna" />
		<tag k="natural" v="water" />
		<tag k="ssr:stedsnr" v="288716" />
		<tag k="water" v="pond" />
	</node>
	<node id="-489388" lat="60.6660305538" lon="5.38756111726">
		<tag k="name" v="Dalselva" />
		<tag k="ssr:stedsnr" v="529490" />
		<tag k="waterway" v="river" />
	</node>
	<node id="-487338" lat="60.7159555541" lon="5.50585000675">
		<tag k="name" v="Eidevatna" />
		<tag k="natural" v="water" />
		<tag k="ssr:stedsnr" v="288642" />
		<tag k="water" v="lake" />
	</node>
	<node id="-487337" lat="60.6785631205" lon="5.54651801094">
		<tag k="alt_name" v="Svartevatnet" />
		<tag k="name" v="Svartatjørna" />
		<tag k="natural" v="water" />
		<tag k="ssr:stedsnr" v="288578" />
	</node>
	<node id="-487331" lat="60.6367666675" lon="5.37787500295">
		<tag k="name" v="Lonena" />
		<tag k="natural" v="water" />
		<tag k="ssr:stedsnr" v="288406" />
		<tag k="water" v="lake" />
	</node>
	<node id="-489373" lat="60.6613944457" lon="5.29128055645">
		<tag k="name" v="Grønevika" />
		<tag k="natural" v="bay" />
		<tag k="ssr:stedsnr" v="529088" />
	</node>
	<node id="-489372" lat="60.6289083329" lon="5.29645555429">
		<tag k="name" v="Litlevatnet" />
		<tag k="natural" v="water" />
		<tag k="ssr:stedsnr" v="529054" />
		<tag k="water" v="lake" />
	</node>
	<node id="-487322" lat="60.6429694413" lon="5.33821110515">
		<tag k="name" v="Neset" />
		<tag k="natural" v="cape" />
		<tag k="ssr:stedsnr" v="288031" />
	</node>
	<node id="-487318" lat="60.8035594413" lon="5.65103579905">
		<tag k="name" v="Tuptatjørna" />
		<tag k="natural" v="water" />
		<tag k="ssr:stedsnr" v="288003" />
	</node>
	<node id="-487315" lat="60.7964765177" lon="5.62755300245">
		<tag k="name" v="Nipeskartjørna" />
		<tag k="natural" v="water" />
		<tag k="ssr:stedsnr" v="287964" />
	</node>
	<node id="-487313" lat="60.7506999974" lon="5.586608342">
		<tag k="name" v="Stallbekken" />
		<tag k="place" v="locality" />
		<tag k="ssr:stedsnr" v="287833" />
	</node>
	<node id="-487308" lat="60.6504423258" lon="5.48275336197">
		<tag k="name" v="Haldorstjørna" />
		<tag k="natural" v="water" />
		<tag k="ssr:stedsnr" v="287659" />
	</node>
	<node id="-489355" lat="60.7875888907" lon="5.0309777783">
		<tag k="alt_name" v="Hopevatnet" />
		<tag k="name" v="Hopsvatnet" />
		<tag k="natural" v="water" />
		<tag k="ssr:stedsnr" v="494213" />
	</node>
	<node id="-489352" lat="60.7494382069" lon="5.09271600282">
		<tag k="alt_name" v="Sjursetvatnet;Veråsvatnet" />
		<tag k="name" v="Sirsetvatnet" />
		<tag k="natural" v="water" />
		<tag k="ssr:stedsnr" v="494148" />
		<tag k="water" v="lake" />
	</node>
	<node id="-489351" lat="60.7562249956" lon="5.55848055481">
		<tag k="name" v="Langevatnet" />
		<tag k="natural" v="water" />
		<tag k="ssr:stedsnr" v="494053" />
	</node>
	<node id="-489348" lat="60.7624898955" lon="5.56995174582">
		<tag k="alt_name" v="Sætravatnet, nedre;Nedre Setervatnet" />
		<tag k="name" v="Nedre Sætravatnet" />
		<tag k="natural" v="water" />
		<tag k="ssr:stedsnr" v="493046" />
	</node>
	<node id="-489337" lat="60.7399305547" lon="5.25779444321">
		<tag k="name" v="Litlavatnet" />
		<tag k="natural" v="water" />
		<tag k="ssr:stedsnr" v="491640" />
	</node>
	<node id="-489335" lat="60.7021298483" lon="5.48984460975">
		<tag k="name" v="Krokavatnet" />
		<tag k="natural" v="water" />
		<tag k="ssr:stedsnr" v="491292" />
	</node>
	<node id="-489333" lat="60.7496192345" lon="5.53965709482">
		<tag k="name" v="Kupevatnet" />
		<tag k="natural" v="water" />
		<tag k="ssr:stedsnr" v="491471" />
	</node>
	<node id="-489331" lat="60.7324333336" lon="5.60522500193">
		<tag k="name" v="Sætredalselva" />
		<tag k="ssr:stedsnr" v="491463" />
		<tag k="waterway" v="stream" />
	</node>
	<node id="-489330" lat="60.7409610794" lon="5.58704319958">
		<tag k="alt_name" v="Fjellbotstjørna" />
		<tag k="name" v="Fjellbotnstjørna" />
		<tag k="natural" v="water" />
		<tag k="ssr:stedsnr" v="491462" />
	</node>
	<node id="-489326" lat="60.7072198333" lon="5.22143901561">
		<tag k="name" v="Gaulevatnet" />
		<tag k="natural" v="water" />
		<tag k="ssr:stedsnr" v="491191" />
	</node>
	<node id="-489325" lat="60.7055672349" lon="5.20387204397">
		<tag k="name" v="Haugstjørna" />
		<tag k="natural" v="water" />
		<tag k="ssr:stedsnr" v="491190" />
	</node>
	<node id="-487275" lat="60.7750861079" lon="5.10990278699">
		<tag k="name" v="Nesvatnet" />
		<tag k="natural" v="water" />
		<tag k="ssr:stedsnr" v="287452" />
		<tag k="water" v="lake" />
	</node>
	<node id="-489322" lat="60.7110715953" lon="5.12727784609">
		<tag k="name" v="Botnavatnet" />
		<tag k="natural" v="water" />
		<tag k="ssr:stedsnr" v="491177" />
	</node>
	<node id="-489314" lat="60.6288378968" lon="5.33416830942">
		<tag k="name" v="Kallsåstjørna" />
		<tag k="natural" v="water" />
		<tag k="ssr:stedsnr" v="491058" />
	</node>
	<node id="-487265" lat="60.6660000003" lon="5.12686112021">
		<tag k="name" v="Olseelva" />
		<tag k="ssr:stedsnr" v="287408" />
		<tag k="waterway" v="river" />
	</node>
	<node id="-487262" lat="60.5780722264" lon="5.36264443744">
		<tag k="name" v="Lona" />
		<tag k="natural" v="water" />
		<tag k="ssr:stedsnr" v="287357" />
		<tag k="water" v="lake" />
	</node>
	<node id="-487259" lat="60.6100083372" lon="5.3862027751">
		<tag k="name" v="Nedgardselva" />
		<tag k="ssr:stedsnr" v="287331" />
		<tag k="waterway" v="river" />
	</node>
	<node id="-489305" lat="60.6274055533" lon="5.40984167217">
		<tag k="alt_name" v="Esevatnet" />
		<tag k="name" v="Æsevatnet" />
		<tag k="natural" v="water" />
		<tag k="ssr:stedsnr" v="491006" />
		<tag k="water" v="lake" />
	</node>
	<node id="-489297" lat="60.6508767059" lon="5.36534212402">
		<tag k="alt_name" v="Trossvatnet" />
		<tag k="name" v="Trossavatnet" />
		<tag k="natural" v="water" />
		<tag k="ssr:stedsnr" v="491214" />
	</node>
	<node id="-489280" lat="60.6499640035" lon="5.33649789499">
		<tag k="alt_name" v="Fammstadtjørna" />
		<tag k="name" v="Fammestadtjørna" />
		<tag k="natural" v="water" />
		<tag k="ssr:stedsnr" v="470058" />
	</node>
	<node id="-489274" lat="60.7203333305" lon="5.61473333868">
		<tag k="name" v="Vetleurdalselva" />
		<tag k="ssr:stedsnr" v="469944" />
		<tag k="waterway" v="river" />
	</node>
	<node id="-489268" lat="60.7626805514" lon="5.5319249933">
		<tag k="name" v="Grunnevassfossen" />
		<tag k="natural" v="waterfall" />
		<tag k="ssr:stedsnr" v="469854" />
	</node>
	<node id="-489265" lat="60.7844314348" lon="5.50795419021">
		<tag k="name" v="Steinsedalselva" />
		<tag k="ssr:stedsnr" v="469830" />
		<tag k="waterway" v="river" />
	</node>
	<node id="-489260" lat="60.7737722186" lon="5.57568889721">
		<tag k="name" v="Setertjørna" />
		<tag k="natural" v="water" />
		<tag k="ssr:stedsnr" v="469794" />
	</node>
	<node id="-489253" lat="60.6978222242" lon="5.54492499357">
		<tag k="name" v="Gropabekken" />
		<tag k="ssr:stedsnr" v="469735" />
		<tag k="waterway" v="stream" />
	</node>
	<node id="-489246" lat="60.729961111" lon="5.50507500822">
		<tag k="name" v="Båtevatnet" />
		<tag k="natural" v="water" />
		<tag k="ssr:stedsnr" v="469682" />
		<tag k="water" v="lake" />
	</node>
	<node id="-488748" lat="60.7433583329" lon="5.61716110285">
		<tag k="name" v="Eidet" />
		<tag k="natural" v="strait" />
		<tag k="ssr:stedsnr" v="166791" />
	</node>
	<node id="-489202" lat="60.6535105819" lon="5.1298758146">
		<tag k="name" v="Småtjørna" />
		<tag k="natural" v="water" />
		<tag k="ssr:stedsnr" v="469387" />
	</node>
	<node id="-489164" lat="60.832563885" lon="5.67009999176">
		<tag k="name" v="Inste Geitskarvatnet" />
		<tag k="natural" v="water" />
		<tag k="ssr:stedsnr" v="469181" />
		<tag k="water" v="lake" />
	</node>
	<node id="-489160" lat="60.73196381" lon="5.25134861207">
		<tag k="name" v="Tørrtjørna" />
		<tag k="natural" v="water" />
		<tag k="ssr:stedsnr" v="469163" />
	</node>
	<node id="-489154" lat="60.6434055581" lon="5.28848889268">
		<tag k="name" v="Langevika" />
		<tag k="natural" v="bay" />
		<tag k="ssr:stedsnr" v="469076" />
	</node>
	<node id="-489153" lat="60.6322666694" lon="5.32180832428">
		<tag k="name" v="Søreidbekken" />
		<tag k="ssr:stedsnr" v="469067" />
		<tag k="waterway" v="stream" />
	</node>
	<node id="-489147" lat="60.6367583322" lon="5.28695000395">
		<tag k="name" v="Branninganeset" />
		<tag k="natural" v="cape" />
		<tag k="ssr:stedsnr" v="469054" />
	</node>
	<node id="-489143" lat="60.5933916702" lon="5.27939167419">
		<tag k="name" v="Espelandsvatnet" />
		<tag k="natural" v="water" />
		<tag k="ssr:stedsnr" v="469042" />
		<tag k="water" v="lake" />
	</node>
	<node id="-489141" lat="60.5985527812" lon="5.34501667427">
		<tag k="name" v="Lona" />
		<tag k="natural" v="water" />
		<tag k="ssr:stedsnr" v="469036" />
		<tag k="water" v="lake" />
	</node>
	<node id="-489131" lat="60.7980555577" lon="5.67695278254">
		<tag k="name" v="Altertjørna" />
		<tag k="natural" v="water" />
		<tag k="ssr:stedsnr" v="468975" />
	</node>
	<node id="-489121" lat="60.7340431241" lon="5.23585005952">
		<tag k="name" v="Stortjørna" />
		<tag k="natural" v="water" />
		<tag k="ssr:stedsnr" v="469130" />
	</node>
	<node id="-489093" lat="60.7656727829" lon="5.53461176012">
		<tag k="name" v="Grunnevatnet" />
		<tag k="natural" v="water" />
		<tag k="ssr:stedsnr" v="433037" />
	</node>
	<node id="-489090" lat="60.7085134529" lon="5.07248115284">
		<tag k="alt_name" v="Kalvsvatnet, nordre" />
		<tag k="name" v="Nordre Kalvsvatnet" />
		<tag k="natural" v="water" />
		<tag k="ssr:stedsnr" v="431769" />
	</node>
	<node id="-489087" lat="60.6566416693" lon="5.49346666253">
		<tag k="name" v="Storneset" />
		<tag k="natural" v="cape" />
		<tag k="ssr:stedsnr" v="431684" />
	</node>
	<node id="-489076" lat="60.6609432416" lon="5.24698755039">
		<tag k="alt_name" v="Kjeggjarvvatnet;Kjeggarvatn" />
		<tag k="name" v="Kjeggjarvatnet" />
		<tag k="natural" v="water" />
		<tag k="ssr:stedsnr" v="431270" />
		<tag k="water" v="lake" />
	</node>
	<node id="-489063" lat="60.5854938912" lon="5.27045766519">
		<tag k="alt_name" v="Træddalsvatnet" />
		<tag k="name" v="Trædalsvatnet" />
		<tag k="natural" v="water" />
		<tag k="ssr:stedsnr" v="431131" />
	</node>
	<node id="-489060" lat="60.5979500038" lon="5.38559166348">
		<tag k="alt_name" v="Tjørna" />
		<tag k="name" v="Fyllingsnestjørna" />
		<tag k="natural" v="water" />
		<tag k="ssr:stedsnr" v="431126" />
	</node>
	<node id="-489040" lat="60.7669944435" lon="5.64986388679">
		<tag k="alt_name" v="Eitra" />
		<tag k="name" v="Eitro" />
		<tag k="ssr:stedsnr" v="251843" />
		<tag k="waterway" v="river" />
	</node>
	<node id="-489039" lat="60.7631122628" lon="5.10533304923">
		<tag k="name" v="Evjo" />
		<tag k="natural" v="water" />
		<tag k="ssr:stedsnr" v="251739" />
	</node>
	<node id="-489024" lat="60.6493305566" lon="5.47760277073">
		<tag k="name" v="Brutjørna" />
		<tag k="natural" v="water" />
		<tag k="ssr:stedsnr" v="249647" />
	</node>
	<node id="-489021" lat="60.6878221444" lon="5.53682338208">
		<tag k="name" v="Krokavatnet" />
		<tag k="natural" v="water" />
		<tag k="ssr:stedsnr" v="249364" />
	</node>
	<node id="-488995" lat="60.7240163073" lon="5.56608985811">
		<tag k="name" v="Smaldalstjørna" />
		<tag k="natural" v="water" />
		<tag k="ssr:stedsnr" v="248293" />
	</node>
	<node id="-491034" lat="60.7588132865" lon="5.12045622249">
		<tag k="name" v="Rossnesvatnet" />
		<tag k="natural" v="water" />
		<tag k="ssr:stedsnr" v="957216" />
	</node>
	<node id="-488972" lat="60.7477777785" lon="5.60305555672">
		<tag k="alt_name" v="Stemmetjørna, nedre" />
		<tag k="name" v="Nedre Stemmetjørna" />
		<tag k="natural" v="water" />
		<tag k="ssr:stedsnr" v="227794" />
	</node>
	<node id="-487340" lat="60.7311191621" lon="5.53516735617">
		<tag k="name" v="Hundetjørna" />
		<tag k="natural" v="water" />
		<tag k="ssr:stedsnr" v="288650" />
	</node>
	<node id="-488962" lat="60.7496895911" lon="5.54524221165">
		<tag k="name" v="Nipetjørna" />
		<tag k="natural" v="water" />
		<tag k="ssr:stedsnr" v="227647" />
	</node>
	<node id="-487445" lat="60.7529777791" lon="5.50700277607">
		<tag k="name" v="Nordalsbekken" />
		<tag k="ssr:stedsnr" v="347084" />
		<tag k="waterway" v="stream" />
	</node>
	<node id="-490991" lat="60.7777861104" lon="5.04702500302">
		<tag k="name" v="Grimelva" />
		<tag k="ssr:stedsnr" v="955478" />
		<tag k="waterway" v="river" />
	</node>
	<node id="-490065" lat="60.7815777803" lon="5.57761388302">
		<tag k="alt_name" v="Bergulvtjørna" />
		<tag k="name" v="Bergulvatjørna" />
		<tag k="natural" v="water" />
		<tag k="ssr:stedsnr" v="675485" />
	</node>
	<node id="-488924" lat="60.7513194473" lon="5.13138888811">
		<tag k="name" v="Skitnedalsvika" />
		<tag k="natural" v="bay" />
		<tag k="ssr:stedsnr" v="227244" />
	</node>
	<node id="-490961" lat="60.6132357061" lon="5.358446022">
		<tag k="name" v="Senholmen" />
		<tag k="place" v="islet" />
		<tag k="ssr:stedsnr" v="955301" />
	</node>
	<node id="-490951" lat="60.7056611099" lon="5.27724721487">
		<tag k="name" v="Kvernhuselva" />
		<tag k="ssr:stedsnr" v="955223" />
		<tag k="waterway" v="river" />
	</node>
	<node id="-488888" lat="60.6445472209" lon="5.31167222483">
		<tag k="name" v="Storvika" />
		<tag k="natural" v="bay" />
		<tag k="ssr:stedsnr" v="227073" />
	</node>
	<node id="-487325" lat="60.6390513001" lon="5.29242188307">
		<tag k="name" v="Tirebotntjørna" />
		<tag k="natural" v="water" />
		<tag k="ssr:stedsnr" v="288075" />
	</node>
	<node id="-488868" lat="60.7086999979" lon="5.51768889731">
		<tag k="name" v="Fitjaelva" />
		<tag k="ssr:stedsnr" v="226737" />
		<tag k="waterway" v="river" />
	</node>
	<node id="-490907" lat="60.6370250021" lon="5.3304166711">
		<tag k="name" v="Lonena" />
		<tag k="natural" v="water" />
		<tag k="ssr:stedsnr" v="955012" />
		<tag k="water" v="lake" />
	</node>
	<node id="-490905" lat="60.641922222" lon="5.34532223076">
		<tag k="name" v="Fita" />
		<tag k="place" v="locality" />
		<tag k="ssr:stedsnr" v="955009" />
	</node>
	<node id="-488851" lat="60.655386114" lon="5.16154443584">
		<tag k="name" v="Lonena" />
		<tag k="natural" v="water" />
		<tag k="ssr:stedsnr" v="226419" />
		<tag k="water" v="lake" />
	</node>
	<node id="-488848" lat="60.6115499999" lon="5.35238333875">
		<tag k="name" v="Furholmen" />
		<tag k="place" v="islet" />
		<tag k="ssr:stedsnr" v="226362" />
	</node>
	<node id="-490895" lat="60.7053916711" lon="5.49790278375">
		<tag k="name" v="Toprafossen" />
		<tag k="natural" v="waterfall" />
		<tag k="ssr:stedsnr" v="954540" />
	</node>
	<node id="-488843" lat="60.6100333374" lon="5.44576389666">
		<tag k="name" v="Vann" />
		<tag k="natural" v="water" />
		<tag k="ssr:stedsnr" v="226331" />
		<tag k="water" v="lake" />
	</node>
	<node id="-488840" lat="60.693935853" lon="5.21566909245">
		<tag k="name" v="Hetlehovdatjørna" />
		<tag k="natural" v="water" />
		<tag k="ssr:stedsnr" v="226320" />
	</node>
	<node id="-490887" lat="60.6233825938" lon="5.40945340162">
		<tag k="name" v="Olstjørna" />
		<tag k="natural" v="water" />
		<tag k="ssr:stedsnr" v="954307" />
	</node>
	<node id="-488834" lat="60.5936916705" lon="5.35723055937">
		<tag k="name" v="Masholmen" />
		<tag k="place" v="islet" />
		<tag k="ssr:stedsnr" v="226307" />
	</node>
	<node id="-488827" lat="60.6535388883" lon="5.27420277432">
		<tag k="name" v="Kverhusvika" />
		<tag k="natural" v="bay" />
		<tag k="ssr:stedsnr" v="226140" />
	</node>
	<node id="-488820" lat="60.6415388898" lon="5.27780277209">
		<tag k="name" v="Medåsvika" />
		<tag k="natural" v="bay" />
		<tag k="ssr:stedsnr" v="226032" />
	</node>
	<node id="-490850" lat="60.7577420726" lon="5.4976540022">
		<tag k="name" v="Kringlevatnet" />
		<tag k="natural" v="water" />
		<tag k="ssr:stedsnr" v="919443" />
	</node>
	<node id="-488801" lat="60.7573361069" lon="5.62955000689">
		<tag k="name" v="Varmåna" />
		<tag k="ssr:stedsnr" v="190045" />
		<tag k="waterway" v="stream" />
	</node>
	<node id="-488799" lat="60.6490154648" lon="5.47024702295">
		<tag k="name" v="Storsettjørna" />
		<tag k="natural" v="water" />
		<tag k="ssr:stedsnr" v="188694" />
	</node>
	<node id="-488795" lat="60.7359242812" lon="5.54834292346">
		<tag k="name" v="Tungevatnet" />
		<tag k="natural" v="water" />
		<tag k="ssr:stedsnr" v="188490" />
	</node>
	<node id="-490823" lat="60.717036908" lon="5.57886509686">
		<tag k="name" v="Svartetjørna" />
		<tag k="natural" v="water" />
		<tag k="ssr:stedsnr" v="916307" />
	</node>
	<node id="-490820" lat="60.6564337421" lon="5.29479748843">
		<tag k="name" v="Midtvatnet" />
		<tag k="natural" v="water" />
		<tag k="ssr:stedsnr" v="916259" />
	</node>
	<node id="-488758" lat="60.767724656" lon="5.49574046597">
		<tag k="name" v="Tjørna" />
		<tag k="natural" v="water" />
		<tag k="ssr:stedsnr" v="166864" />
	</node>
	<node id="-490804" lat="60.6100837433" lon="5.37415593942">
		<tag k="name" v="Eikeklettvatnet" />
		<tag k="natural" v="water" />
		<tag k="ssr:stedsnr" v="916020" />
	</node>
	<node id="-488755" lat="60.770327779" lon="5.52909167206">
		<tag k="name" v="Flådalselva" />
		<tag k="ssr:stedsnr" v="166848" />
		<tag k="waterway" v="river" />
	</node>
	<node id="-488754" lat="60.7728376045" lon="5.52454739078">
		<tag k="name" v="Lomtjørna" />
		<tag k="natural" v="water" />
		<tag k="ssr:stedsnr" v="166846" />
	</node>
	<node id="-487304" lat="60.6661861128" lon="5.51020555361">
		<tag k="name" v="Langetjørna" />
		<tag k="natural" v="water" />
		<tag k="ssr:stedsnr" v="287633" />
	</node>
	<node id="-490796" lat="60.7496861106" lon="5.20922221383">
		<tag k="name" v="Langåna" />
		<tag k="ssr:stedsnr" v="875860" />
		<tag k="waterway" v="river" />
	</node>
	<node id="-488740" lat="60.7565911743" lon="5.54465841234">
		<tag k="name" v="Stintatjørnane" />
		<tag k="natural" v="water" />
		<tag k="ssr:stedsnr" v="166639" />
		<tag k="water" v="lake" />
	</node>
	<node id="-488738" lat="60.7427500041" lon="5.5291944522">
		<tag k="name" v="Kvernhuselva" />
		<tag k="ssr:stedsnr" v="166636" />
		<tag k="waterway" v="river" />
	</node>
	<node id="-490781" lat="60.75078254" lon="5.1845739646">
		<tag k="alt_name" v="Fonnebustvatnet" />
		<tag k="name" v="Fonnebostvatnet" />
		<tag k="natural" v="water" />
		<tag k="ssr:stedsnr" v="858765" />
	</node>
	<node id="-488732" lat="60.6429527758" lon="5.50130554799">
		<tag k="name" v="Mjåneset" />
		<tag k="natural" v="cape" />
		<tag k="ssr:stedsnr" v="166532" />
	</node>
	<node id="-490768" lat="60.6458365111" lon="5.52248475367">
		<tag k="name" v="Stortjørna" />
		<tag k="natural" v="water" />
		<tag k="ssr:stedsnr" v="856679" />
	</node>
	<node id="-490764" lat="60.7126708811" lon="5.6039287463">
		<tag k="name" v="Revadalstjørna" />
		<tag k="natural" v="water" />
		<tag k="ssr:stedsnr" v="856297" />
	</node>
	<node id="-490761" lat="60.6594527031" lon="5.12892738173">
		<tag k="alt_name" v="Trædsvatnet" />
		<tag k="name" v="Træsvatnet" />
		<tag k="natural" v="water" />
		<tag k="ssr:stedsnr" v="856232" />
	</node>
	<node id="-490760" lat="60.6643457036" lon="5.16083754648">
		<tag k="name" v="Skotsundvatnet" />
		<tag k="natural" v="water" />
		<tag k="ssr:stedsnr" v="856233" />
	</node>
	<node id="-490758" lat="60.6478055578" lon="5.31400555278">
		<tag k="name" v="Tveitavatnet" />
		<tag k="natural" v="water" />
		<tag k="ssr:stedsnr" v="856216" />
		<tag k="water" v="lake" />
	</node>
	<node id="-490757" lat="60.643969441" lon="5.28631389617">
		<tag k="name" v="Langvikneset" />
		<tag k="natural" v="cape" />
		<tag k="ssr:stedsnr" v="856199" />
	</node>
	<node id="-490744" lat="60.6281499979" lon="5.30418054723">
		<tag k="name" v="Høgholmen" />
		<tag k="place" v="islet" />
		<tag k="ssr:stedsnr" v="856041" />
	</node>
	<node id="-490742" lat="60.5999388906" lon="5.24733888502">
		<tag k="name" v="Storavatnet" />
		<tag k="natural" v="water" />
		<tag k="ssr:stedsnr" v="856033" />
	</node>
	<node id="-488693" lat="60.6278410655" lon="5.21424614085">
		<tag k="name" v="Skarsvatnet" />
		<tag k="natural" v="water" />
		<tag k="ssr:stedsnr" v="166320" />
	</node>
	<node id="-490739" lat="60.6188552698" lon="5.42449372437">
		<tag k="name" v="Bjørndalsvatnet" />
		<tag k="natural" v="water" />
		<tag k="ssr:stedsnr" v="856001" />
	</node>
	<node id="-490734" lat="60.7363888926" lon="5.26325555127">
		<tag k="name" v="Storavatnet" />
		<tag k="natural" v="water" />
		<tag k="ssr:stedsnr" v="855645" />
	</node>
	<node id="-490732" lat="60.7332999975" lon="5.53863888055">
		<tag k="name" v="Linskartjørna" />
		<tag k="natural" v="water" />
		<tag k="ssr:stedsnr" v="855418" />
	</node>
	<node id="-488679" lat="60.7456666695" lon="5.13326110678">
		<tag k="name" v="Prestelva" />
		<tag k="ssr:stedsnr" v="166255" />
		<tag k="waterway" v="river" />
	</node>
	<node id="-488674" lat="60.6712499977" lon="5.27814166799">
		<tag k="name" v="Vikeelva" />
		<tag k="ssr:stedsnr" v="166232" />
		<tag k="waterway" v="river" />
	</node>
	<node id="-490721" lat="60.7868499967" lon="5.62537499789">
		<tag k="name" v="Nipefossen" />
		<tag k="natural" v="waterfall" />
		<tag k="ssr:stedsnr" v="834990" />
	</node>
	<node id="-488671" lat="60.7520805573" lon="5.18805000165">
		<tag k="name" v="Fosselva" />
		<tag k="ssr:stedsnr" v="166221" />
		<tag k="waterway" v="river" />
	</node>
	<node id="-490717" lat="60.7674586361" lon="5.61762770431">
		<tag k="name" v="Reitletjørna" />
		<tag k="natural" v="water" />
		<tag k="ssr:stedsnr" v="834916" />
	</node>
	<node id="-488667" lat="60.6854305554" lon="5.33948056434">
		<tag k="name" v="Storelva" />
		<tag k="ssr:stedsnr" v="166201" />
		<tag k="waterway" v="river" />
	</node>
	<node id="-490713" lat="60.7740996038" lon="5.51207752486">
		<tag k="name" v="Flådalsneset" />
		<tag k="natural" v="cape" />
		<tag k="ssr:stedsnr" v="834868" />
	</node>
	<node id="-490707" lat="60.7816250034" lon="5.57388056257">
		<tag k="name" v="Fagerskarbekken" />
		<tag k="ssr:stedsnr" v="834823" />
		<tag k="waterway" v="stream" />
	</node>
	<node id="-488648" lat="60.6656027794" lon="5.28396389221">
		<tag k="name" v="Vaulen" />
		<tag k="natural" v="strait" />
		<tag k="ssr:stedsnr" v="166132" />
	</node>
	<node id="-490691" lat="60.6684944437" lon="5.51652499151">
		<tag k="name" v="Setretjørna" />
		<tag k="natural" v="water" />
		<tag k="ssr:stedsnr" v="834633" />
	</node>
	<node id="-488636" lat="60.8123166652" lon="5.66557223141">
		<tag k="loc_name" v="Instebotselva" />
		<tag k="name" v="Instebøelva" />
		<tag k="ssr:stedsnr" v="166070" />
		<tag k="waterway" v="river" />
	</node>
	<node id="-488633" lat="60.8139444425" lon="5.69813889226">
		<tag k="name" v="Inste Ljøsavatnet" />
		<tag k="natural" v="water" />
		<tag k="ssr:stedsnr" v="166058" />
		<tag k="water" v="lake" />
	</node>
	<node id="-488631" lat="60.8024359419" lon="5.62415707821">
		<tag k="name" v="Olsbotstjørna" />
		<tag k="natural" v="water" />
		<tag k="ssr:stedsnr" v="166049" />
	</node>
	<node id="-490668" lat="60.7849777736" lon="5.03599722724">
		<tag k="name" v="Kvernhuselva" />
		<tag k="ssr:stedsnr" v="834462" />
		<tag k="waterway" v="river" />
	</node>
	<node id="-488617" lat="60.7955939522" lon="5.63971388454">
		<tag k="name" v="Strandaneset" />
		<tag k="natural" v="cape" />
		<tag k="ssr:stedsnr" v="165983" />
	</node>
	<node id="-488609" lat="60.7092861108" lon="5.54178888166">
		<tag k="name" v="Neset" />
		<tag k="natural" v="cape" />
		<tag k="ssr:stedsnr" v="165738" />
	</node>
	<node id="-490656" lat="60.628241668" lon="5.42330556208">
		<tag k="name" v="Æseelva" />
		<tag k="ssr:stedsnr" v="834414" />
		<tag k="waterway" v="river" />
	</node>
	<node id="-488600" lat="60.7096111153" lon="5.13481945067">
		<tag k="name" v="Klårevatnet" />
		<tag k="natural" v="water" />
		<tag k="ssr:stedsnr" v="165298" />
		<tag k="water" v="lake" />
	</node>
	<node id="-488593" lat="60.6550777738" lon="5.30167499441">
		<tag k="name" v="Austre Vaulen" />
		<tag k="natural" v="strait" />
		<tag k="ssr:stedsnr" v="165086" />
	</node>
	<node id="-488588" lat="60.6422555563" lon="5.2762083333">
		<tag k="name" v="Nesøyra" />
		<tag k="natural" v="beach" />
		<tag k="ssr:stedsnr" v="165039" />
	</node>
	<node id="-490630" lat="60.7039638928" lon="5.28568610663">
		<tag k="name" v="Olderdalselva" />
		<tag k="ssr:stedsnr" v="834238" />
		<tag k="waterway" v="river" />
	</node>
	<node id="-490629" lat="60.6731277774" lon="5.32396666499">
		<tag k="name" v="Kvitebergsbekken" />
		<tag k="ssr:stedsnr" v="834235" />
		<tag k="waterway" v="stream" />
	</node>
	<node id="-490620" lat="60.6849527756" lon="5.32647778538">
		<tag k="name" v="Lonena" />
		<tag k="natural" v="water" />
		<tag k="ssr:stedsnr" v="834189" />
		<tag k="water" v="lake" />
	</node>
	<node id="-488556" lat="60.8285305582" lon="5.64876110557">
		<tag k="alt_name" v="Øvste Nysetervatnet" />
		<tag k="name" v="Øvstavatnet" />
		<tag k="natural" v="water" />
		<tag k="ssr:stedsnr" v="129384" />
	</node>
	<node id="-490603" lat="60.649897221" lon="5.31222777328">
		<tag k="name" v="Litle Volløyna" />
		<tag k="place" v="island" />
		<tag k="ssr:stedsnr" v="834099" />
	</node>
	<node id="-490602" lat="60.6588555564" lon="5.34054443858">
		<tag k="name" v="Kløvelva" />
		<tag k="ssr:stedsnr" v="834094" />
		<tag k="waterway" v="river" />
	</node>
	<node id="-490600" lat="60.6562250035" lon="5.31342778123">
		<tag k="name" v="Kvivika" />
		<tag k="natural" v="bay" />
		<tag k="ssr:stedsnr" v="834085" />
	</node>
	<node id="-488550" lat="60.7433094078" lon="5.13953894975">
		<tag k="name" v="Iletjørna" />
		<tag k="natural" v="water" />
		<tag k="ssr:stedsnr" v="128663" />
	</node>
	<node id="-490593" lat="60.8382139372" lon="5.70879803906">
		<tag k="name" v="Orfallet" />
		<tag k="natural" v="bay" />
		<tag k="ssr:stedsnr" v="834023" />
	</node>
	<node id="-488534" lat="60.7185455777" lon="5.60466341165">
		<tag k="alt_name" v="Borddalstjørna" />
		<tag k="name" v="Bordalstjørna" />
		<tag k="natural" v="water" />
		<tag k="ssr:stedsnr" v="127318" />
	</node>
	<node id="-488532" lat="60.6403832011" lon="5.34496531004">
		<tag k="alt_name" v="Heggernesvatnet" />
		<tag k="name" v="Hegernesvatnet" />
		<tag k="natural" v="water" />
		<tag k="ssr:stedsnr" v="127232" />
	</node>
	<node id="-488525" lat="60.7061416708" lon="5.57578055316">
		<tag k="name" v="Stemmetjørna" />
		<tag k="natural" v="water" />
		<tag k="ssr:stedsnr" v="127300" />
	</node>
	<node id="-488517" lat="60.5843194463" lon="5.35411944012">
		<tag k="name" v="Piparvatnet" />
		<tag k="natural" v="water" />
		<tag k="ssr:stedsnr" v="127117" />
	</node>
	<node id="-488514" lat="60.6267361137" lon="5.30840000634">
		<tag k="name" v="Flatholmen" />
		<tag k="place" v="islet" />
		<tag k="ssr:stedsnr" v="127043" />
	</node>
	<node id="-488511" lat="60.6034579222" lon="5.36874970777">
		<tag k="alt_name" v="Sauvatnet" />
		<tag k="name" v="Sauavatnet" />
		<tag k="natural" v="water" />
		<tag k="ssr:stedsnr" v="127025" />
	</node>
	<node id="-488509" lat="60.6206999989" lon="5.40879445125">
		<tag k="name" v="Arivatnet" />
		<tag k="natural" v="water" />
		<tag k="ssr:stedsnr" v="127007" />
	</node>
	<node id="-488500" lat="60.765916872" lon="5.59580766635">
		<tag k="name" v="Klumpetjørna" />
		<tag k="natural" v="water" />
		<tag k="ssr:stedsnr" v="106928" />
	</node>
	<node id="-488499" lat="60.8276999978" lon="5.66794444991">
		<tag k="name" v="Heimste Geitaskarvatnet" />
		<tag k="natural" v="water" />
		<tag k="ssr:stedsnr" v="106924" />
		<tag k="water" v="lake" />
	</node>
	<node id="-488491" lat="60.7767666651" lon="5.57149445264">
		<tag k="name" v="Fossbotsbekken" />
		<tag k="ssr:stedsnr" v="106797" />
		<tag k="waterway" v="stream" />
	</node>
	<node id="-490532" lat="60.8107472603" lon="5.65890593113">
		<tag k="fixme" v="multiple name tags, choose one and add the other to alt_name" />
		<tag k="name" v="Instebotnsvatnet;Instevatnet" />
		<tag k="natural" v="water" />
		<tag k="ssr:stedsnr" v="797492" />
	</node>
	<node id="-490531" lat="60.7729833347" lon="5.51498888199">
		<tag k="name" v="Flådalsvatnet" />
		<tag k="natural" v="water" />
		<tag k="ssr:stedsnr" v="797456" />
		<tag k="water" v="lake" />
	</node>
	<node id="-488481" lat="60.755854702" lon="5.50353729539">
		<tag k="name" v="Fisketjørna" />
		<tag k="natural" v="water" />
		<tag k="ssr:stedsnr" v="106626" />
	</node>
	<node id="-490528" lat="60.7539560275" lon="5.53092465275">
		<tag k="name" v="Brandavatnet" />
		<tag k="natural" v="water" />
		<tag k="ssr:stedsnr" v="797055" />
	</node>
	<node id="-488316" lat="60.8086111138" lon="5.65787500235">
		<tag k="name" v="Furneset" />
		<tag k="natural" v="cape" />
		<tag k="ssr:stedsnr" v="69530" />
	</node>
	<node id="-490524" lat="60.6679194452" lon="5.24057499916">
		<tag k="alt_name" v="Hundvinvatnet;Hundvinsvatnet" />
		<tag k="name" v="Hundvensvatnet" />
		<tag k="natural" v="water" />
		<tag k="ssr:stedsnr" v="796043" />
		<tag k="water" v="lake" />
	</node>
	<node id="-490518" lat="60.7403888318" lon="5.6095196594">
		<tag k="name" v="Krossdalstjørna" />
		<tag k="natural" v="water" />
		<tag k="ssr:stedsnr" v="795503" />
	</node>
	<node id="-488465" lat="60.6469666671" lon="5.3136694471">
		<tag k="name" v="Larsaholmen" />
		<tag k="place" v="islet" />
		<tag k="ssr:stedsnr" v="106061" />
	</node>
	<node id="-490512" lat="60.7270638903" lon="5.54321943869">
		<tag k="name" v="Eikefetelva" />
		<tag k="ssr:stedsnr" v="795353" />
		<tag k="waterway" v="river" />
	</node>
	<node id="-488460" lat="60.8006023822" lon="5.6350987365">
		<tag k="name" v="Tjørna" />
		<tag k="natural" v="water" />
		<tag k="ssr:stedsnr" v="105978" />
	</node>
	<node id="-490503" lat="60.6463080821" lon="5.36169524973">
		<tag k="alt_name" v="Oksevatnet" />
		<tag k="name" v="Oksavatnet" />
		<tag k="natural" v="water" />
		<tag k="ssr:stedsnr" v="795242" />
	</node>
	<node id="-488451" lat="60.7324222178" lon="5.60428888842">
		<tag k="name" v="Seterdalselva" />
		<tag k="ssr:stedsnr" v="105937" />
		<tag k="waterway" v="river" />
	</node>
	<node id="-490498" lat="60.696366667" lon="5.18183889767">
		<tag k="alt_name" v="Kvalvågvatnet" />
		<tag k="name" v="Kvalvågsvatnet" />
		<tag k="natural" v="water" />
		<tag k="ssr:stedsnr" v="795211" />
	</node>
	<node id="-490497" lat="60.7172500009" lon="5.2963749921">
		<tag k="name" v="Nordravatnet" />
		<tag k="natural" v="water" />
		<tag k="ssr:stedsnr" v="795208" />
	</node>
	<node id="-490496" lat="60.7235337363" lon="5.31152449287">
		<tag k="name" v="Austevatnet" />
		<tag k="natural" v="water" />
		<tag k="old_name" v="Austrevatnet" />
		<tag k="ssr:stedsnr" v="795202" />
	</node>
	<node id="-488445" lat="60.7074492351" lon="5.51142213492">
		<tag k="name" v="Haugatjørna" />
		<tag k="natural" v="water" />
		<tag k="ssr:stedsnr" v="105712" />
	</node>
	<node id="-487935" lat="60.7506277791" lon="5.60908889667">
		<tag k="name" v="Kvernhusbekken" />
		<tag k="ssr:stedsnr" v="894816" />
		<tag k="waterway" v="stream" />
	</node>
	<node id="-488433" lat="60.6573714843" lon="5.56235550001">
		<tag k="name" v="Furekamtjørna" />
		<tag k="natural" v="water" />
		<tag k="ssr:stedsnr" v="105533" />
	</node>
	<node id="-490480" lat="60.6130487898" lon="5.35312407894">
		<tag k="alt_name" v="Sandvikvatnet" />
		<tag k="name" v="Sandvikavatnet" />
		<tag k="natural" v="water" />
		<tag k="ssr:stedsnr" v="795041" />
	</node>
	<node id="-490477" lat="60.7548621508" lon="5.12063332905">
		<tag k="name" v="Rossnestjørna" />
		<tag k="natural" v="water" />
		<tag k="ssr:stedsnr" v="775306" />
	</node>
	<node id="-490469" lat="60.7166055589" lon="5.61239999741">
		<tag k="name" v="Revadalsbekken" />
		<tag k="ssr:stedsnr" v="773961" />
		<tag k="waterway" v="stream" />
	</node>
	<node id="-490450" lat="60.746118405" lon="5.59770478709">
		<tag k="alt_name" v="Stemmetjørna, øvre" />
		<tag k="name" v="Øvre Stemmetjørna" />
		<tag k="natural" v="water" />
		<tag k="ssr:stedsnr" v="773779" />
	</node>
	<node id="-490448" lat="60.7776659194" lon="5.57518390298">
		<tag k="name" v="Fitjatjørna" />
		<tag k="natural" v="water" />
		<tag k="ssr:stedsnr" v="773768" />
	</node>
	<node id="-488399" lat="60.697830496" lon="5.20990829485">
		<tag k="name" v="Trælandstjørna" />
		<tag k="natural" v="water" />
		<tag k="ssr:stedsnr" v="105314" />
	</node>
	<node id="-490442" lat="60.7405277756" lon="5.54910556436">
		<tag k="name" v="Steinhusbekken" />
		<tag k="ssr:stedsnr" v="773647" />
		<tag k="waterway" v="stream" />
	</node>
	<node id="-488389" lat="60.7528611069" lon="5.12966110881">
		<tag k="name" v="Hegreneset" />
		<tag k="natural" v="cape" />
		<tag k="ssr:stedsnr" v="105272" />
	</node>
	<node id="-490433" lat="60.6907732719" lon="5.37140486803">
		<tag k="name" v="Nordre Tjørna" />
		<tag k="natural" v="water" />
		<tag k="ssr:stedsnr" v="773568" />
	</node>
	<node id="-488384" lat="60.6946694455" lon="5.29682778187">
		<tag k="name" v="Smørdalselva" />
		<tag k="ssr:stedsnr" v="105261" />
		<tag k="waterway" v="river" />
	</node>
	<node id="-490428" lat="60.7012472351" lon="5.511272965">
		<tag k="name" v="Svartatjørna" />
		<tag k="natural" v="water" />
		<tag k="ssr:stedsnr" v="773546" />
	</node>
	<node id="-490427" lat="60.6943910112" lon="5.48760556789">
		<tag k="name" v="Nordre Topravatnet" />
		<tag k="natural" v="water" />
		<tag k="ssr:stedsnr" v="773543" />
		<tag k="water" v="lake" />
	</node>
	<node id="-490422" lat="60.6395027767" lon="5.50498056029">
		<tag k="name" v="Husdaltjørna" />
		<tag k="natural" v="water" />
		<tag k="ssr:stedsnr" v="773511" />
	</node>
	<node id="-490415" lat="60.7449583372" lon="5.08849443524">
		<tag k="name" v="Straumsvatnet" />
		<tag k="natural" v="water" />
		<tag k="ssr:stedsnr" v="773486" />
		<tag k="water" v="lake" />
	</node>
	<node id="-488365" lat="60.6516250015" lon="5.27605833865">
		<tag k="name" v="Jektevika" />
		<tag k="natural" v="bay" />
		<tag k="ssr:stedsnr" v="105137" />
	</node>
	<node id="-487922" lat="60.666572218" lon="5.49558610513">
		<tag k="name" v="Stegafossen" />
		<tag k="natural" v="waterfall" />
		<tag k="ssr:stedsnr" v="894622" />
	</node>
	<node id="-490408" lat="60.6280383557" lon="5.39080760844">
		<tag k="name" v="Basttjørna" />
		<tag k="natural" v="water" />
		<tag k="ssr:stedsnr" v="773438" />
	</node>
	<node id="-490398" lat="60.7241549751" lon="5.31143496881">
		<tag k="name" v="Vassholmen" />
		<tag k="place" v="islet" />
		<tag k="ssr:stedsnr" v="773375" />
	</node>
	<node id="-488343" lat="60.5994416689" lon="5.23725834068">
		<tag k="name" v="Litlavatnet" />
		<tag k="natural" v="water" />
		<tag k="ssr:stedsnr" v="105013" />
		<tag k="water" v="lake" />
	</node>
	<node id="-490383" lat="60.7518583351" lon="5.12853611627">
		<tag k="alt_name" v="Tjukkhetlvatnet" />
		<tag k="name" v="Tjukkhetlevatnet" />
		<tag k="natural" v="water" />
		<tag k="ssr:stedsnr" v="773260" />
		<tag k="water" v="lake" />
	</node>
	<node id="-488322" lat="60.7829550281" lon="5.63038557454">
		<tag k="name" v="Åstjørna" />
		<tag k="natural" v="water" />
		<tag k="ssr:stedsnr" v="69491" />
	</node>
	<node id="-488321" lat="60.8315231086" lon="5.6987725557">
		<tag k="alt_name" v="Sørdalsvatnet, heimsta" />
		<tag k="name" v="Heimsta Sørdalsvatnet" />
		<tag k="natural" v="water" />
		<tag k="ssr:stedsnr" v="69399" />
	</node>
	<node id="-488318" lat="60.7607119825" lon="5.57530791267">
		<tag k="name" v="Leitetjørna" />
		<tag k="natural" v="water" />
		<tag k="ssr:stedsnr" v="69029" />
	</node>
	<node id="-488317" lat="60.7640931999" lon="5.57613750627">
		<tag k="alt_name" v="Sætravatnet, øvre;Øvre Setervatnet" />
		<tag k="name" v="Øvre Sætravatnet" />
		<tag k="natural" v="water" />
		<tag k="ssr:stedsnr" v="69026" />
	</node>
	<node id="-490364" lat="60.7193878906" lon="5.27125432084">
		<tag k="name" v="Tjørnane" />
		<tag k="natural" v="water" />
		<tag k="ssr:stedsnr" v="773180" />
		<tag k="water" v="lake" />
	</node>
	<node id="-488315" lat="60.8136150702" lon="5.61591079313">
		<tag k="name" v="Nipetjørna" />
		<tag k="natural" v="water" />
		<tag k="ssr:stedsnr" v="69531" />
	</node>
	<node id="-488310" lat="60.6467350617" lon="5.56522796964">
		<tag k="name" v="Kvernhustjørna" />
		<tag k="natural" v="water" />
		<tag k="ssr:stedsnr" v="67693" />
	</node>
	<node id="-488309" lat="60.6451109075" lon="5.48243816839">
		<tag k="name" v="Vågatjørna" />
		<tag k="natural" v="water" />
		<tag k="ssr:stedsnr" v="67679" />
	</node>
	<node id="-488308" lat="60.7273624112" lon="5.21897279324">
		<tag k="name" v="Eidsvatnet" />
		<tag k="natural" v="water" />
		<tag k="ssr:stedsnr" v="67665" />
	</node>
	<node id="-488306" lat="60.6410777752" lon="5.54502777728">
		<tag k="name" v="Molvikelva" />
		<tag k="ssr:stedsnr" v="67653" />
		<tag k="waterway" v="river" />
	</node>
	<node id="-488305" lat="60.7405611113" lon="5.61827778364">
		<tag k="alt_name" v="Eidskogvatnet, s;Søre Eikskogvatnet" />
		<tag k="name" v="Søre Eidskogvatnet" />
		<tag k="natural" v="water" />
		<tag k="ssr:stedsnr" v="67471" />
	</node>
	<node id="-488302" lat="60.6770916702" lon="5.55701388836">
		<tag k="name" v="Sagelva" />
		<tag k="ssr:stedsnr" v="67362" />
		<tag k="waterway" v="stream" />
	</node>
	<node id="-488300" lat="60.7198865738" lon="5.57140695712">
		<tag k="name" v="Kvamsvatnet" />
		<tag k="natural" v="water" />
		<tag k="ssr:stedsnr" v="67316" />
	</node>
	<node id="-490345" lat="60.8049145076" lon="5.65601003586">
		<tag k="name" v="Tuptavika" />
		<tag k="natural" v="bay" />
		<tag k="ssr:stedsnr" v="773079" />
	</node>
	<node id="-488295" lat="60.6654710668" lon="5.35526523912">
		<tag k="name" v="Haugsvatnet" />
		<tag k="natural" v="water" />
		<tag k="ssr:stedsnr" v="67264" />
	</node>
	<node id="-490339" lat="60.8515627968" lon="5.69981350417">
		<tag k="name" v="Nedste Godbotsfossen" />
		<tag k="natural" v="waterfall" />
		<tag k="ssr:stedsnr" v="773034" />
	</node>
	<node id="-490332" lat="60.6365030657" lon="5.34154448893">
		<tag k="name" v="Heggernestjørna" />
		<tag k="natural" v="water" />
		<tag k="ssr:stedsnr" v="773004" />
	</node>
	<node id="-490317" lat="60.6483333316" lon="5.14195276918">
		<tag k="name" v="Haukåsvatnet" />
		<tag k="natural" v="water" />
		<tag k="ssr:stedsnr" v="772382" />
		<tag k="water" v="lake" />
	</node>
	<node id="-488266" lat="60.7737761131" lon="5.63115937793">
		<tag k="name" v="Varmetjørna" />
		<tag k="natural" v="water" />
		<tag k="ssr:stedsnr" v="45917" />
	</node>
	<node id="-490300" lat="60.6674916677" lon="5.25653611995">
		<tag k="name" v="Ådnevika" />
		<tag k="natural" v="bay" />
		<tag k="ssr:stedsnr" v="772147" />
	</node>
	<node id="-490296" lat="60.7664916677" lon="5.48512777176">
		<tag k="name" v="Storevatnet" />
		<tag k="natural" v="water" />
		<tag k="ssr:stedsnr" v="772100" />
		<tag k="water" v="lake" />
	</node>
	<node id="-487220" lat="60.6493972235" lon="5.28096111738">
		<tag k="name" v="Vassneset" />
		<tag k="natural" v="cape" />
		<tag k="ssr:stedsnr" v="287143" />
	</node>
	<node id="-488236" lat="60.725316663" lon="5.50978888878">
		<tag k="name" v="Orfallet" />
		<tag k="natural" v="bay" />
		<tag k="ssr:stedsnr" v="45659" />
	</node>
	<node id="-490281" lat="60.8042415156" lon="5.67420703168">
		<tag k="name" v="Gråvatnet" />
		<tag k="natural" v="water" />
		<tag k="ssr:stedsnr" v="737452" />
	</node>
	<node id="-490276" lat="60.7760249971" lon="5.63034166924">
		<tag k="name" v="Nysætrevatnet" />
		<tag k="natural" v="water" />
		<tag k="ssr:stedsnr" v="736441" />
		<tag k="water" v="lake" />
	</node>
	<node id="-488227" lat="60.7523388912" lon="5.51436944189">
		<tag k="name" v="Fjelleelva" />
		<tag k="ssr:stedsnr" v="45606" />
		<tag k="waterway" v="river" />
	</node>
	<node id="-490274" lat="60.7578833328" lon="5.51479444698">
		<tag k="alt_name" v="Sjøsætervatnet" />
		<tag k="name" v="Krednevatnet" />
		<tag k="natural" v="water" />
		<tag k="ssr:stedsnr" v="736356" />
	</node>
	<node id="-490271" lat="60.7533949434" lon="5.47779765457">
		<tag k="name" v="Klefjellvatna" />
		<tag k="natural" v="water" />
		<tag k="ssr:stedsnr" v="736055" />
		<tag k="water" v="lake" />
	</node>
	<node id="-490270" lat="60.763773956" lon="5.55370824469">
		<tag k="name" v="Tverrvatnet" />
		<tag k="natural" v="water" />
		<tag k="ssr:stedsnr" v="736041" />
	</node>
	<node id="-490263" lat="60.7299777811" lon="5.50676944496">
		<tag k="name" v="Båtevatnet" />
		<tag k="natural" v="water" />
		<tag k="ssr:stedsnr" v="734485" />
		<tag k="water" v="lake" />
	</node>
	<node id="-488207" lat="60.7003458181" lon="5.44791893847">
		<tag k="name" v="Svartatjørna" />
		<tag k="natural" v="water" />
		<tag k="ssr:stedsnr" v="45409" />
	</node>
	<node id="-490254" lat="60.6461583322" lon="5.28494166941">
		<tag k="alt_name" v="Storevatnet" />
		<tag k="name" v="Storavatnet" />
		<tag k="natural" v="water" />
		<tag k="ssr:stedsnr" v="734216" />
		<tag k="water" v="lake" />
	</node>
	<node id="-490250" lat="60.7245749989" lon="5.28569443848">
		<tag k="name" v="Plasselva" />
		<tag k="ssr:stedsnr" v="734193" />
		<tag k="waterway" v="stream" />
	</node>
	<node id="-487352" lat="60.7628805517" lon="5.57494444946">
		<tag k="name" v="Orfallet" />
		<tag k="natural" v="bay" />
		<tag k="ssr:stedsnr" v="288857" />
	</node>
	<node id="-490247" lat="60.6004361154" lon="5.34559167027">
		<tag k="name" v="Litlavatnet" />
		<tag k="natural" v="water" />
		<tag k="ssr:stedsnr" v="734111" />
	</node>
	<node id="-490244" lat="60.5770758264" lon="5.23920099246">
		<tag k="name" v="Tveitavatnet" />
		<tag k="natural" v="water" />
		<tag k="ssr:stedsnr" v="734068" />
	</node>
	<node id="-488185" lat="60.6655577546" lon="5.28051161671">
		<tag k="name" v="Kjørslevika" />
		<tag k="natural" v="bay" />
		<tag k="ssr:stedsnr" v="45125" />
	</node>
	<node id="-488181" lat="60.6498250005" lon="5.31750000049">
		<tag k="name" v="Grovaneset" />
		<tag k="natural" v="cape" />
		<tag k="ssr:stedsnr" v="45080" />
	</node>
	<node id="-490228" lat="60.7320499967" lon="5.64265555686">
		<tag k="name" v="Lona" />
		<tag k="natural" v="water" />
		<tag k="ssr:stedsnr" v="712993" />
		<tag k="water" v="lake" />
	</node>
	<node id="-490227" lat="60.7907000021" lon="5.62410278209">
		<tag k="name" v="Kjeldebekken" />
		<tag k="ssr:stedsnr" v="712989" />
		<tag k="waterway" v="stream" />
	</node>
	<node id="-488175" lat="60.7927325006" lon="5.63575081617">
		<tag k="name" v="Holmane" />
		<tag k="place" v="islet" />
		<tag k="ssr:stedsnr" v="44975" />
	</node>
	<node id="-490217" lat="60.7674600007" lon="5.49174427263">
		<tag k="name" v="Nedstetjørna" />
		<tag k="natural" v="water" />
		<tag k="ssr:stedsnr" v="712869" />
	</node>
	<node id="-490214" lat="60.7601972256" lon="5.56878332724">
		<tag k="name" v="Nedre Orfallet" />
		<tag k="natural" v="bay" />
		<tag k="ssr:stedsnr" v="712862" />
	</node>
	<node id="-488164" lat="60.6998647704" lon="5.23152052124">
		<tag k="name" v="Skodvinstjørna" />
		<tag k="natural" v="water" />
		<tag k="ssr:stedsnr" v="45004" />
	</node>
	<node id="-490211" lat="60.7283694462" lon="5.5490250054">
		<tag k="name" v="Tjørnskartjørna" />
		<tag k="natural" v="water" />
		<tag k="ssr:stedsnr" v="712830" />
	</node>
	<node id="-490202" lat="60.7541611112" lon="5.48398888026">
		<tag k="name" v="Storneset" />
		<tag k="natural" v="cape" />
		<tag k="ssr:stedsnr" v="712615" />
	</node>
	<node id="-490201" lat="60.7529283725" lon="5.50402977211">
		<tag k="name" v="Gamlesetertjørna" />
		<tag k="natural" v="water" />
		<tag k="ssr:stedsnr" v="712612" />
	</node>
	<node id="-490198" lat="60.6680555565" lon="5.48193055967">
		<tag k="name" v="Andåstjørna" />
		<tag k="natural" v="water" />
		<tag k="ssr:stedsnr" v="712587" />
	</node>
	<node id="-490275" lat="60.8301319636" lon="5.6684694779">
		<tag k="name" v="Geitaskarvatna" />
		<tag k="natural" v="water" />
		<tag k="ssr:stedsnr" v="736380" />
		<tag k="water" v="lake" />
	</node>
	<node id="-488139" lat="60.6093666682" lon="5.35353056031">
		<tag k="name" v="Vasstangen" />
		<tag k="natural" v="cape" />
		<tag k="ssr:stedsnr" v="44316" />
	</node>
	<node id="-488117" lat="60.7277076074" lon="5.24731243404">
		<tag k="name" v="Natåstjørna" />
		<tag k="natural" v="water" />
		<tag k="ssr:stedsnr" v="44168" />
		<tag k="water" v="pond" />
	</node>
	<node id="-488903" lat="60.7284998944" lon="5.2755137206">
		<tag k="name" v="Stemmetjørna" />
		<tag k="natural" v="water" />
		<tag k="ssr:stedsnr" v="227154" />
	</node>
	<node id="-488097" lat="60.651966669" lon="5.29773055247">
		<tag k="name" v="Vestre Vaulen" />
		<tag k="natural" v="strait" />
		<tag k="ssr:stedsnr" v="44097" />
	</node>
	<node id="-490137" lat="60.8050916634" lon="5.66112222423">
		<tag k="name" v="Furnesbekken" />
		<tag k="ssr:stedsnr" v="712157" />
		<tag k="waterway" v="stream" />
	</node>
	<node id="-488081" lat="60.5969611082" lon="5.33467499972">
		<tag k="name" v="Åstangen" />
		<tag k="natural" v="cape" />
		<tag k="ssr:stedsnr" v="44021" />
	</node>
	<node id="-490128" lat="60.6681249988" lon="5.25399999376">
		<tag k="name" v="Klubben" />
		<tag k="natural" v="cape" />
		<tag k="ssr:stedsnr" v="712123" />
	</node>
	<node id="-490119" lat="60.6622583326" lon="5.25298055859">
		<tag k="name" v="Neselva" />
		<tag k="ssr:stedsnr" v="712084" />
		<tag k="waterway" v="river" />
	</node>
	<node id="-490117" lat="60.6459666641" lon="5.29842222287">
		<tag k="name" v="Sponeidet" />
		<tag k="natural" v="strait" />
		<tag k="ssr:stedsnr" v="712069" />
	</node>
	<node id="-490116" lat="60.6247666644" lon="5.30633889011">
		<tag k="name" v="Flatneset" />
		<tag k="natural" v="cape" />
		<tag k="ssr:stedsnr" v="712064" />
	</node>
	<node id="-488066" lat="60.772233089" lon="5.06616309609">
		<tag k="name" v="Skåptjørna" />
		<tag k="natural" v="water" />
		<tag k="ssr:stedsnr" v="8212" />
	</node>
	<node id="-488062" lat="60.7452953179" lon="5.1887113683">
		<tag k="name" v="Holmåsvatnet" />
		<tag k="natural" v="water" />
		<tag k="ssr:stedsnr" v="6693" />
	</node>
	<node id="-488061" lat="60.7451419684" lon="5.21371005242">
		<tag k="name" v="Langavatnet" />
		<tag k="natural" v="water" />
		<tag k="ssr:stedsnr" v="6692" />
		<tag k="water" v="lake" />
	</node>
	<node id="-490108" lat="60.7734722263" lon="5.0277194373">
		<tag k="name" v="Vestre" />
		<tag k="natural" v="water" />
		<tag k="ssr:stedsnr" v="712041" />
		<tag k="water" v="lake" />
	</node>
	<node id="-488058" lat="60.7224555575" lon="5.25481944573">
		<tag k="name" v="Siriåselva" />
		<tag k="ssr:stedsnr" v="6669" />
		<tag k="waterway" v="stream" />
	</node>
	<node id="-488051" lat="60.7358250004" lon="5.53282500802">
		<tag k="name" v="Habakkelva" />
		<tag k="ssr:stedsnr" v="6468" />
		<tag k="waterway" v="stream" />
	</node>
	<node id="-490098" lat="60.7930055539" lon="5.63379722916">
		<tag k="name" v="Kuneset" />
		<tag k="natural" v="cape" />
		<tag k="ssr:stedsnr" v="711987" />
	</node>
	<node id="-488048" lat="60.6683619385" lon="5.51611288348">
		<tag k="name" v="Sætretjørna" />
		<tag k="natural" v="water" />
		<tag k="ssr:stedsnr" v="6369" />
	</node>
	<node id="-490089" lat="60.7460861085" lon="5.54619445301">
		<tag k="name" v="Storelva" />
		<tag k="ssr:stedsnr" v="711105" />
		<tag k="waterway" v="river" />
	</node>
	<node id="-488033" lat="60.7041638862" lon="5.28875000521">
		<tag k="name" v="Storelva" />
		<tag k="ssr:stedsnr" v="6181" />
		<tag k="waterway" v="stream" />
	</node>
	<node id="-488032" lat="60.7180472212" lon="5.27361110367">
		<tag k="name" v="Krokelva" />
		<tag k="ssr:stedsnr" v="6180" />
		<tag k="waterway" v="stream" />
	</node>
	<node id="-488031" lat="60.6886055536" lon="5.2013305568">
		<tag k="alt_name" v="Nøkkvatnet" />
		<tag k="name" v="Nykkvatnet" />
		<tag k="natural" v="water" />
		<tag k="ssr:stedsnr" v="6141" />
	</node>
	<node id="-488030" lat="60.6912694404" lon="5.25011110828">
		<tag k="name" v="Dalselva" />
		<tag k="ssr:stedsnr" v="6138" />
		<tag k="waterway" v="stream" />
	</node>
	<node id="-490077" lat="60.8096749995" lon="5.65369999274">
		<tag k="name" v="Langeneset" />
		<tag k="natural" v="cape" />
		<tag k="ssr:stedsnr" v="676953" />
	</node>
	<node id="-490068" lat="60.7564907487" lon="5.08093491961">
		<tag k="name" v="Rotevatnet" />
		<tag k="natural" v="water" />
		<tag k="ssr:stedsnr" v="676181" />
	</node>
	<node id="-488017" lat="60.8351535486" lon="5.70823452003">
		<tag k="alt_name" v="Sørdalsvatnet, insta;Inste Sødalsvatnet" />
		<tag k="name" v="Insta Sørdalsvatnet" />
		<tag k="natural" v="water" />
		<tag k="ssr:stedsnr" v="433364" />
	</node>
	<node id="-488016" lat="60.8164261845" lon="5.71022582562">
		<tag k="alt_name" v="Djupevatnet" />
		<tag k="name" v="Djupavatnet" />
		<tag k="natural" v="water" />
		<tag k="ssr:stedsnr" v="9503" />
	</node>
	<node id="-488015" lat="60.8501421004" lon="5.67076131498">
		<tag k="name" v="Godbotsvatnet" />
		<tag k="natural" v="water" />
		<tag k="ssr:stedsnr" v="311476" />
		<tag k="water" v="lake" />
	</node>
	<node id="-488014" lat="60.8508417493" lon="5.69622834137">
		<tag k="name" v="Øvre Vemundsvatnet" />
		<tag k="natural" v="water" />
		<tag k="ssr:stedsnr" v="858423" />
		<tag k="water" v="lake" />
	</node>
	<node id="-490060" lat="60.6493888928" lon="5.31113333022">
		<tag k="name" v="Tveitøyna" />
		<tag k="place" v="islet" />
		<tag k="ssr:stedsnr" v="674205" />
	</node>
	<node id="-490049" lat="60.654505558" lon="5.50045554842">
		<tag k="name" v="Løypeneset" />
		<tag k="natural" v="cape" />
		<tag k="ssr:stedsnr" v="673666" />
	</node>
	<node id="-490047" lat="60.740419927" lon="5.19915326608">
		<tag k="name" v="Gåsetjørna" />
		<tag k="natural" v="water" />
		<tag k="ssr:stedsnr" v="673657" />
	</node>
	<node id="-490043" lat="60.7436247338" lon="5.53301452845">
		<tag k="name" v="Grøndalstjørna" />
		<tag k="natural" v="water" />
		<tag k="ssr:stedsnr" v="673466" />
	</node>
	<node id="-490038" lat="60.722402779" lon="5.58432500531">
		<tag k="name" v="Raunskogsvatnet" />
		<tag k="natural" v="water" />
		<tag k="ssr:stedsnr" v="673312" />
		<tag k="water" v="lake" />
	</node>
	<node id="-490031" lat="60.7021956715" lon="5.23336875794">
		<tag k="alt_name" v="Skodvinsvatnet" />
		<tag k="name" v="Skodvensvatnet" />
		<tag k="natural" v="water" />
		<tag k="ssr:stedsnr" v="673190" />
		<tag k="water" v="lake" />
	</node>
	<node id="-487977" lat="60.6908376256" lon="5.48924790701">
		<tag k="name" v="Søre Topravatnet" />
		<tag k="natural" v="water" />
		<tag k="ssr:stedsnr" v="895721" />
		<tag k="water" v="lake" />
	</node>
	<node id="-487974" lat="60.7190555583" lon="5.51872776915">
		<tag k="name" v="Setreelva" />
		<tag k="ssr:stedsnr" v="895661" />
		<tag k="waterway" v="river" />
	</node>
	<node id="-487973" lat="60.7486694468" lon="5.54093610537">
		<tag k="name" v="Sagelva" />
		<tag k="ssr:stedsnr" v="895644" />
		<tag k="waterway" v="river" />
	</node>
	<node id="-487972" lat="60.746127778" lon="5.54251666514">
		<tag k="name" v="Sagafossen" />
		<tag k="natural" v="waterfall" />
		<tag k="ssr:stedsnr" v="895643" />
	</node>
	<node id="-487971" lat="60.736311109" lon="5.53620000785">
		<tag k="name" v="Håbakkelva" />
		<tag k="ssr:stedsnr" v="895629" />
		<tag k="waterway" v="river" />
	</node>
	<node id="-489997" lat="60.7636833331" lon="5.56617777952">
		<tag k="name" v="Tverrvasseidet" />
		<tag k="natural" v="strait" />
		<tag k="ssr:stedsnr" v="651861" />
	</node>
	<node id="-489995" lat="60.7553916627" lon="5.62019167424">
		<tag k="name" v="Stusselva" />
		<tag k="ssr:stedsnr" v="651817" />
		<tag k="waterway" v="river" />
	</node>
	<node id="-487941" lat="60.7886111117" lon="5.61920278689">
		<tag k="name" v="Nordelva" />
		<tag k="ssr:stedsnr" v="894996" />
		<tag k="waterway" v="river" />
	</node>
	<node id="-489983" lat="60.7332415584" lon="5.53876766615">
		<tag k="name" v="Liaskartjørna" />
		<tag k="natural" v="water" />
		<tag k="ssr:stedsnr" v="651685" />
	</node>
	<node id="-487934" lat="60.7407944412" lon="5.62109721456">
		<tag k="name" v="Sluppabekken" />
		<tag k="ssr:stedsnr" v="894807" />
		<tag k="waterway" v="stream" />
	</node>
	<node id="-489981" lat="60.7408583357" lon="5.55592776927">
		<tag k="name" v="Borvikfossen" />
		<tag k="natural" v="waterfall" />
		<tag k="ssr:stedsnr" v="651667" />
	</node>
	<node id="-489979" lat="60.7506611151" lon="5.53128055603">
		<tag k="name" v="Sponvikane" />
		<tag k="natural" v="bay" />
		<tag k="ssr:stedsnr" v="651658" />
	</node>
	<node id="-489978" lat="60.7373277747" lon="5.55436388191">
		<tag k="name" v="Seterbekken" />
		<tag k="ssr:stedsnr" v="651655" />
		<tag k="waterway" v="stream" />
	</node>
	<node id="-489973" lat="60.6551778943" lon="5.479869636">
		<tag k="alt_name" v="Stalltjørna" />
		<tag k="name" v="Stalletjørna" />
		<tag k="natural" v="water" />
		<tag k="ssr:stedsnr" v="651615" />
	</node>
	<node id="-489970" lat="60.6892229626" lon="5.37475232758">
		<tag k="name" v="Søre Tjørna" />
		<tag k="natural" v="water" />
		<tag k="ssr:stedsnr" v="651600" />
	</node>
	<node id="-489967" lat="60.6931333364" lon="5.48836666297">
		<tag k="name" v="Topraeidet" />
		<tag k="natural" v="strait" />
		<tag k="ssr:stedsnr" v="651589" />
	</node>
	<node id="-487918" lat="60.6441216347" lon="5.56039738914">
		<tag k="name" v="Rustitjørna" />
		<tag k="natural" v="water" />
		<tag k="ssr:stedsnr" v="894584" />
	</node>
	<node id="-487913" lat="60.6377666647" lon="5.49644999701">
		<tag k="name" v="Fureneset" />
		<tag k="natural" v="cape" />
		<tag k="ssr:stedsnr" v="894571" />
	</node>
	<node id="-487909" lat="60.7511262664" lon="5.0742316822">
		<tag k="name" v="Skipeidtjørna" />
		<tag k="natural" v="water" />
		<tag k="ssr:stedsnr" v="894542" />
	</node>
	<node id="-489954" lat="60.6445427202" lon="5.4846939543">
		<tag k="name" v="Svartatjørna" />
		<tag k="natural" v="water" />
		<tag k="ssr:stedsnr" v="651531" />
	</node>
	<node id="-489951" lat="60.7478522668" lon="5.08154763084">
		<tag k="name" v="Svartetjørna" />
		<tag k="natural" v="water" />
		<tag k="ssr:stedsnr" v="651514" />
	</node>
	<node id="-489940" lat="60.775666664" lon="5.03326667296">
		<tag k="name" v="Austre Lona" />
		<tag k="natural" v="water" />
		<tag k="ssr:stedsnr" v="651439" />
		<tag k="water" v="lake" />
	</node>
	<node id="-489926" lat="60.6148749972" lon="5.35752500114">
		<tag k="name" v="Grønvika" />
		<tag k="natural" v="bay" />
		<tag k="ssr:stedsnr" v="651317" />
	</node>
	<node id="-487865" lat="60.6865722248" lon="5.20607777467">
		<tag k="name" v="Eidet" />
		<tag k="natural" v="strait" />
		<tag k="ssr:stedsnr" v="894251" />
	</node>
	<node id="-487864" lat="60.6756499973" lon="5.2843499981">
		<tag k="name" v="Kallekleivelva" />
		<tag k="ssr:stedsnr" v="894246" />
		<tag k="waterway" v="river" />
	</node>
	<node id="-489911" lat="60.7359888273" lon="5.25811848041">
		<tag k="name" v="Iletjørna" />
		<tag k="natural" v="water" />
		<tag k="ssr:stedsnr" v="651209" />
	</node>
	<node id="-489910" lat="60.6879972259" lon="5.31731667349">
		<tag k="name" v="Botnaelva" />
		<tag k="ssr:stedsnr" v="651198" />
		<tag k="waterway" v="river" />
	</node>
	<node id="-487845" lat="60.6582861086" lon="5.26340555243">
		<tag k="name" v="Arneset" />
		<tag k="natural" v="cape" />
		<tag k="ssr:stedsnr" v="894149" />
	</node>
	<node id="-489886" lat="60.6362015102" lon="5.31651256303">
		<tag k="name" v="Mørketjørna" />
		<tag k="natural" v="water" />
		<tag k="ssr:stedsnr" v="651066" />
	</node>
	<node id="-489884" lat="60.8114666679" lon="5.69446667289">
		<tag k="name" v="Heimste Ljøsavatnet" />
		<tag k="natural" v="water" />
		<tag k="ssr:stedsnr" v="651064" />
		<tag k="water" v="lake" />
	</node>
	<node id="-487749" lat="60.7138805532" lon="5.30153611108">
		<tag k="name" v="Litlavatnet" />
		<tag k="natural" v="water" />
		<tag k="ssr:stedsnr" v="409351" />
		<tag k="water" v="lake" />
	</node>
	<node id="-488226" lat="60.7530311833" lon="5.48571447479">
		<tag k="name" v="Indre Klefjellvatnet" />
		<tag k="natural" v="water" />
		<tag k="ssr:stedsnr" v="45604" />
		<tag k="water" v="lake" />
	</node>
	<node id="-487816" lat="60.7000722183" lon="5.27103055445">
		<tag k="name" v="Fjellsbøstemma" />
		<tag k="natural" v="water" />
		<tag k="ssr:stedsnr" v="894024" />
		<tag k="water" v="lake" />
	</node>
	<node id="-489858" lat="60.6468916639" lon="5.28441388445">
		<tag k="name" v="Svinholmen" />
		<tag k="place" v="islet" />
		<tag k="ssr:stedsnr" v="650034" />
	</node>
	<node id="-489837" lat="60.7956044967" lon="5.63609667135">
		<tag k="fixme" v="multiple name tags, choose one and add the other to alt_name" />
		<tag k="name" v="Botnavatnet;Heimevatnet" />
		<tag k="natural" v="water" />
		<tag k="ssr:stedsnr" v="615449" />
	</node>
	<node id="-489834" lat="60.7652280134" lon="5.07642649502">
		<tag k="name" v="Raudtjørna" />
		<tag k="natural" v="water" />
		<tag k="ssr:stedsnr" v="615140" />
	</node>
	<node id="-488166" lat="60.6469222265" lon="5.33946111762">
		<tag k="name" v="Kvernhuselva" />
		<tag k="ssr:stedsnr" v="45014" />
		<tag k="waterway" v="river" />
	</node>
	<node id="-489822" lat="60.6080444405" lon="5.33461945312">
		<tag k="name" v="Langavatnet" />
		<tag k="natural" v="water" />
		<tag k="ssr:stedsnr" v="613028" />
	</node>
	<node id="-489819" lat="60.6394572004" lon="5.50553468236">
		<tag k="name" v="Husdalstjørna" />
		<tag k="natural" v="water" />
		<tag k="ssr:stedsnr" v="612708" />
	</node>
	<node id="-487770" lat="60.6440305528" lon="5.49802222899">
		<tag k="name" v="Våganeset" />
		<tag k="natural" v="cape" />
		<tag k="ssr:stedsnr" v="409520" />
	</node>
	<node id="-489813" lat="60.6680324301" lon="5.48235117709">
		<tag k="name" v="Odnåstjørna" />
		<tag k="natural" v="water" />
		<tag k="ssr:stedsnr" v="612365" />
	</node>
	<node id="-489812" lat="60.6536916639" lon="5.49473888225">
		<tag k="name" v="Husdalsvatnet" />
		<tag k="natural" v="water" />
		<tag k="ssr:stedsnr" v="612349" />
		<tag k="water" v="lake" />
	</node>
	<node id="-489811" lat="60.6664138861" lon="5.51081112052">
		<tag k="name" v="Langtjørna" />
		<tag k="natural" v="water" />
		<tag k="ssr:stedsnr" v="612347" />
	</node>
	<node id="-489809" lat="60.7000249974" lon="5.52670832726">
		<tag k="name" v="Gulingsvatnet" />
		<tag k="natural" v="water" />
		<tag k="ssr:stedsnr" v="612263" />
	</node>
	<node id="-489808" lat="60.6679444402" lon="5.25425833688">
		<tag k="name" v="Klubben" />
		<tag k="natural" v="cape" />
		<tag k="ssr:stedsnr" v="612257" />
	</node>
	<node id="-489803" lat="60.7139972252" lon="5.30166944228">
		<tag k="name" v="Lonene" />
		<tag k="ssr:stedsnr" v="612199" />
		<tag k="waterway" v="stream" />
	</node>
	<node id="-489797" lat="60.5544735598" lon="5.28425199245">
		<tag k="alt_name" v="Lona" />
		<tag k="name" v="Lonena" />
		<tag k="natural" v="water" />
		<tag k="ssr:stedsnr" v="612112" />
	</node>
	<node id="-489794" lat="60.5774782334" lon="5.27454959569">
		<tag k="alt_name" v="Langevatnet" />
		<tag k="name" v="Langavatnet" />
		<tag k="natural" v="water" />
		<tag k="ssr:stedsnr" v="612074" />
		<tag k="water" v="lake" />
	</node>
	<node id="-487743" lat="60.5737722202" lon="5.37031667419">
		<tag k="name" v="Lekneselva" />
		<tag k="ssr:stedsnr" v="409325" />
		<tag k="waterway" v="river" />
	</node>
	<node id="-487737" lat="60.7449333324" lon="5.21379166209">
		<tag k="name" v="Langevatnet" />
		<tag k="natural" v="water" />
		<tag k="ssr:stedsnr" v="409234" />
		<tag k="water" v="lake" />
	</node>
	<node id="-489784" lat="60.7724361111" lon="5.61078888878">
		<tag k="name" v="Tausetjørna" />
		<tag k="natural" v="water" />
		<tag k="ssr:stedsnr" v="591928" />
	</node>
	<node id="-489777" lat="60.7714222192" lon="5.57370277781">
		<tag k="name" v="Seterelva" />
		<tag k="ssr:stedsnr" v="591767" />
		<tag k="waterway" v="river" />
	</node>
	<node id="-487727" lat="60.6816999985" lon="5.31439166526">
		<tag k="name" v="Liastemma" />
		<tag k="ssr:stedsnr" v="409192" />
		<tag k="waterway" v="dam" />
	</node>
	<node id="-489774" lat="60.6811694413" lon="5.49758333554">
		<tag k="name" v="Nipevatnet" />
		<tag k="natural" v="water" />
		<tag k="ssr:stedsnr" v="591725" />
		<tag k="water" v="lake" />
	</node>
	<node id="-489770" lat="60.7459504458" lon="5.55334678425">
		<tag k="name" v="Setdalstjørna" />
		<tag k="natural" v="water" />
		<tag k="ssr:stedsnr" v="591650" />
	</node>
	<node id="-487716" lat="60.6567416668" lon="5.31520000361">
		<tag k="name" v="Kvernhuselva" />
		<tag k="ssr:stedsnr" v="409098" />
		<tag k="waterway" v="river" />
	</node>
	<node id="-487713" lat="60.6457916708" lon="5.31351667209">
		<tag k="name" v="Fellneset" />
		<tag k="natural" v="cape" />
		<tag k="ssr:stedsnr" v="409077" />
	</node>
	<node id="-487712" lat="60.6307472249" lon="5.30113888421">
		<tag k="name" v="Mjåtangen" />
		<tag k="natural" v="cape" />
		<tag k="ssr:stedsnr" v="409071" />
	</node>
	<node id="-487710" lat="60.8052583309" lon="5.63710556475">
		<tag k="name" v="Svabekken" />
		<tag k="ssr:stedsnr" v="409063" />
		<tag k="waterway" v="stream" />
	</node>
	<node id="-487706" lat="60.8176499972" lon="5.70450833716">
		<tag k="name" v="Sødalseidet" />
		<tag k="natural" v="strait" />
		<tag k="ssr:stedsnr" v="409029" />
	</node>
	<node id="-487703" lat="60.6288388863" lon="5.3337833282">
		<tag k="name" v="Kolåstjørna" />
		<tag k="natural" v="water" />
		<tag k="ssr:stedsnr" v="409008" />
	</node>
	<node id="-487702" lat="60.802061113" lon="5.65226944198">
		<tag k="name" v="Tuptabekken" />
		<tag k="ssr:stedsnr" v="409002" />
		<tag k="waterway" v="stream" />
	</node>
	<node id="-487701" lat="60.7985911797" lon="5.63565358169">
		<tag k="name" v="Båtstøneset" />
		<tag k="natural" v="cape" />
		<tag k="ssr:stedsnr" v="408980" />
	</node>
	<node id="-487694" lat="60.6588638884" lon="5.43675277763">
		<tag k="name" v="Nipeelva" />
		<tag k="ssr:stedsnr" v="408516" />
		<tag k="waterway" v="river" />
	</node>
	<node id="-489739" lat="60.7500395384" lon="5.61904281738">
		<tag k="name" v="Brubenktjørna" />
		<tag k="natural" v="water" />
		<tag k="ssr:stedsnr" v="590789" />
	</node>
	<node id="-487677" lat="60.5945638874" lon="5.35553055311">
		<tag k="name" v="Hjelmåsvatnet" />
		<tag k="natural" v="water" />
		<tag k="ssr:stedsnr" v="408289" />
		<tag k="water" v="lake" />
	</node>
	<node id="-487670" lat="60.6609500041" lon="5.25951389104">
		<tag k="name" v="Nestangen" />
		<tag k="natural" v="cape" />
		<tag k="ssr:stedsnr" v="408152" />
	</node>
	<node id="-489717" lat="60.6388277739" lon="5.49276388073">
		<tag k="name" v="Slurpevågen" />
		<tag k="natural" v="bay" />
		<tag k="ssr:stedsnr" v="590547" />
	</node>
	<node id="-489713" lat="60.6539132123" lon="5.56263815324">
		<tag k="name" v="Steinbutjørna" />
		<tag k="natural" v="water" />
		<tag k="ssr:stedsnr" v="590533" />
	</node>
	<node id="-487662" lat="60.6315944457" lon="5.30043611775">
		<tag k="name" v="Grønvika" />
		<tag k="natural" v="bay" />
		<tag k="ssr:stedsnr" v="408065" />
	</node>
	<node id="-489704" lat="60.7896805548" lon="5.02762221854">
		<tag k="name" v="Dalselva" />
		<tag k="ssr:stedsnr" v="590485" />
		<tag k="waterway" v="river" />
	</node>
	<node id="-489693" lat="60.6726194441" lon="5.35504445113">
		<tag k="name" v="Vaulane" />
		<tag k="place" v="locality" />
		<tag k="ssr:stedsnr" v="590391" />
	</node>
	<node id="-489688" lat="60.7296999982" lon="5.29814166606">
		<tag k="name" v="Langestølselva" />
		<tag k="ssr:stedsnr" v="590368" />
		<tag k="waterway" v="river" />
	</node>
	<node id="-489686" lat="60.7159472208" lon="5.29806111776">
		<tag k="name" v="Nestangvika" />
		<tag k="natural" v="bay" />
		<tag k="ssr:stedsnr" v="590363" />
	</node>
	<node id="-489682" lat="60.6085682424" lon="5.37164094104">
		<tag k="name" v="Småtjørnane" />
		<tag k="natural" v="water" />
		<tag k="ssr:stedsnr" v="590329" />
	</node>
	<node id="-487633" lat="60.7473833352" lon="5.54712778521">
		<tag k="name" v="Storelva" />
		<tag k="ssr:stedsnr" v="370508" />
		<tag k="waterway" v="stream" />
	</node>
	<node id="-487632" lat="60.7445901119" lon="5.61595554053">
		<tag k="alt_name" v="Eidskogvatnet, nordre;Nordre Eikskogvatnet" />
		<tag k="name" v="Nordre Eidskogvatnet" />
		<tag k="natural" v="water" />
		<tag k="ssr:stedsnr" v="370490" />
	</node>
	<node id="-489678" lat="60.693550003" lon="5.18818610209">
		<tag k="name" v="Nøkkvasselva" />
		<tag k="ssr:stedsnr" v="590305" />
		<tag k="waterway" v="river" />
	</node>
	<node id="-487627" lat="60.7232694408" lon="5.61312500317">
		<tag k="name" v="Vetle-Aurdalselva" />
		<tag k="ssr:stedsnr" v="370360" />
		<tag k="waterway" v="stream" />
	</node>
	<node id="-487625" lat="60.7165444469" lon="5.572780552">
		<tag k="name" v="Kupevatnet" />
		<tag k="natural" v="water" />
		<tag k="ssr:stedsnr" v="370345" />
	</node>
	<node id="-487624" lat="60.7055416636" lon="5.58976388728">
		<tag k="name" v="Kvernhusbekken" />
		<tag k="ssr:stedsnr" v="370322" />
		<tag k="waterway" v="stream" />
	</node>
	<node id="-487623" lat="60.6948277818" lon="5.48794999619">
		<tag k="name" v="Langevatnet" />
		<tag k="natural" v="water" />
		<tag k="ssr:stedsnr" v="370300" />
		<tag k="water" v="lake" />
	</node>
	<node id="-487622" lat="60.6663544373" lon="5.2739611273">
		<tag k="name" v="Vikavatnet" />
		<tag k="natural" v="water" />
		<tag k="ssr:stedsnr" v="370290" />
	</node>
	<node id="-487619" lat="60.6604826101" lon="5.14460813487">
		<tag k="name" v="Festevatnet" />
		<tag k="natural" v="water" />
		<tag k="ssr:stedsnr" v="370265" />
	</node>
	<node id="-489661" lat="60.7476918713" lon="5.13060265499">
		<tag k="name" v="Låketjørna" />
		<tag k="natural" v="water" />
		<tag k="ssr:stedsnr" v="590241" />
	</node>
	<node id="-489655" lat="60.6750138905" lon="5.27435834166">
		<tag k="name" v="Kvernhuselva" />
		<tag k="ssr:stedsnr" v="590222" />
		<tag k="waterway" v="river" />
	</node>
	<node id="-487605" lat="60.5973141542" lon="5.33783252795">
		<tag k="name" v="Sjausetvatnet" />
		<tag k="natural" v="water" />
		<tag k="ssr:stedsnr" v="370035" />
		<tag k="water" v="lake" />
	</node>
	<node id="-489651" lat="60.7306611106" lon="5.16758055779">
		<tag k="name" v="Prestelva" />
		<tag k="ssr:stedsnr" v="590184" />
		<tag k="waterway" v="river" />
	</node>
	<node id="-487593" lat="60.7759638849" lon="5.62914721628">
		<tag k="name" v="Nysetervatnet" />
		<tag k="natural" v="water" />
		<tag k="ssr:stedsnr" v="348905" />
		<tag k="water" v="lake" />
	</node>
	<node id="-487589" lat="60.7725193661" lon="5.66682239832">
		<tag k="name" v="Kjeldebekken" />
		<tag k="ssr:stedsnr" v="348851" />
		<tag k="waterway" v="stream" />
	</node>
	<node id="-489628" lat="60.803022224" lon="5.64257777089">
		<tag k="name" v="Fossen" />
		<tag k="natural" v="waterfall" />
		<tag k="ssr:stedsnr" v="590069" />
	</node>
	<node id="-489625" lat="60.6209861139" lon="5.31833055109">
		<tag k="name" v="Gausereidet" />
		<tag k="natural" v="strait" />
		<tag k="ssr:stedsnr" v="590056" />
	</node>
	<node id="-489622" lat="60.8153000025" lon="5.66264443974">
		<tag k="name" v="Midbotselva" />
		<tag k="ssr:stedsnr" v="590007" />
		<tag k="waterway" v="river" />
	</node>
	<node id="-487571" lat="60.7545499988" lon="5.54870834187">
		<tag k="name" v="Budalsbekken" />
		<tag k="ssr:stedsnr" v="348632" />
		<tag k="waterway" v="stream" />
	</node>
	<node id="-489603" lat="60.8062916644" lon="5.64672778643">
		<tag k="name" v="Fossvatnet" />
		<tag k="natural" v="water" />
		<tag k="ssr:stedsnr" v="554536" />
	</node>
	<node id="-489602" lat="60.8005333334" lon="5.66121667424">
		<tag k="alt_name" v="Tuftavatnet" />
		<tag k="name" v="Tuptavatnet" />
		<tag k="natural" v="water" />
		<tag k="ssr:stedsnr" v="554516" />
	</node>
	<node id="-487552" lat="60.6386444422" lon="5.49901944682">
		<tag k="name" v="Grautevika" />
		<tag k="natural" v="bay" />
		<tag k="ssr:stedsnr" v="348510" />
	</node>
	<node id="-489599" lat="60.7723560797" lon="5.61102930872">
		<tag k="name" v="Taushaugtjørna" />
		<tag k="natural" v="water" />
		<tag k="ssr:stedsnr" v="554470" />
	</node>
	<node id="-489598" lat="60.7739305599" lon="5.57624166336">
		<tag k="name" v="Sætratjørna" />
		<tag k="natural" v="water" />
		<tag k="ssr:stedsnr" v="554467" />
	</node>
	<node id="-489597" lat="60.7759750017" lon="5.62128611125">
		<tag k="name" v="Laksevatnet" />
		<tag k="natural" v="water" />
		<tag k="ssr:stedsnr" v="554460" />
	</node>
	<node id="-489585" lat="60.7456712993" lon="5.5260074615">
		<tag k="name" v="Kvernhusvatnet" />
		<tag k="natural" v="water" />
		<tag k="ssr:stedsnr" v="552520" />
	</node>
	<node id="-489583" lat="60.7492516526" lon="5.64071872943">
		<tag k="name" v="Kisdalsvatnet" />
		<tag k="natural" v="water" />
		<tag k="ssr:stedsnr" v="552505" />
	</node>
	<node id="-489571" lat="60.694644448" lon="5.21601944337">
		<tag k="name" v="Litlehovdatjørna" />
		<tag k="natural" v="water" />
		<tag k="ssr:stedsnr" v="552142" />
	</node>
	<node id="-489568" lat="60.5931971077" lon="5.35023131419">
		<tag k="name" v="Haukåsvatnet" />
		<tag k="natural" v="water" />
		<tag k="ssr:stedsnr" v="552117" />
		<tag k="water" v="lake" />
	</node>
	<node id="-487515" lat="60.6108361136" lon="5.35793333989">
		<tag k="name" v="Ilneset" />
		<tag k="natural" v="cape" />
		<tag k="ssr:stedsnr" v="348306" />
	</node>
	<node id="-489561" lat="60.6151386031" lon="5.37894058908">
		<tag k="name" v="Liavatnet" />
		<tag k="natural" v="water" />
		<tag k="ssr:stedsnr" v="552036" />
	</node>
	<node id="-489560" lat="60.6095435838" lon="5.28441123549">
		<tag k="name" v="Seimsvatnet" />
		<tag k="natural" v="water" />
		<tag k="ssr:stedsnr" v="552012" />
	</node>
	<node id="-489558" lat="60.6240737283" lon="5.36502024785">
		<tag k="name" v="Torvvatnet" />
		<tag k="natural" v="water" />
		<tag k="ssr:stedsnr" v="552005" />
	</node>
	<node id="-489556" lat="60.7040707994" lon="5.08120603566">
		<tag k="alt_name" v="Kalvsvatnet, s" />
		<tag k="name" v="Søre Kalvsvatnet" />
		<tag k="natural" v="water" />
		<tag k="ssr:stedsnr" v="551758" />
	</node>
	<node id="-489554" lat="60.7267174584" lon="5.13055475392">
		<tag k="name" v="Gåsetjørna" />
		<tag k="natural" v="water" />
		<tag k="ssr:stedsnr" v="551648" />
	</node>
	<node id="-489553" lat="60.731639501" lon="5.22942207252">
		<tag k="alt_name" v="Austevatnet" />
		<tag k="name" v="Austrevatnet" />
		<tag k="natural" v="water" />
		<tag k="ssr:stedsnr" v="551635" />
	</node>
	<node id="-489549" lat="60.6365888862" lon="5.31658889083">
		<tag k="name" v="Myrketjørna" />
		<tag k="natural" v="water" />
		<tag k="ssr:stedsnr" v="551225" />
	</node>
	<node id="-487500" lat="60.7583777755" lon="5.14162499682">
		<tag k="name" v="Burkerelva" />
		<tag k="ssr:stedsnr" v="348194" />
		<tag k="waterway" v="river" />
	</node>
	<node id="-488802" lat="60.7661331914" lon="5.63560171269">
		<tag k="alt_name" v="Svartavatnet;Svartevatnet" />
		<tag k="name" v="Svartholsvatnet" />
		<tag k="natural" v="water" />
		<tag k="ssr:stedsnr" v="190048" />
	</node>
	<node id="-489545" lat="60.5745599977" lon="5.20950057813">
		<tag k="name" v="Hillandsvatnet" />
		<tag k="natural" v="water" />
		<tag k="ssr:stedsnr" v="551135" />
	</node>
	<node id="-489536" lat="60.7224055523" lon="5.58328333125">
		<tag k="name" v="Rauneskogvatnet" />
		<tag k="natural" v="water" />
		<tag k="ssr:stedsnr" v="530957" />
		<tag k="water" v="lake" />
	</node>
	<node id="-489530" lat="60.7667676407" lon="5.64066373075">
		<tag k="name" v="Kutjørna" />
		<tag k="natural" v="water" />
		<tag k="ssr:stedsnr" v="530906" />
	</node>
	<node id="-487472" lat="60.6625777781" lon="5.32713333153">
		<tag k="name" v="Lonelva" />
		<tag k="ssr:stedsnr" v="348089" />
		<tag k="waterway" v="river" />
	</node>
	<node id="-489506" lat="60.7541888921" lon="5.49143610459">
		<tag k="name" v="Vika" />
		<tag k="natural" v="bay" />
		<tag k="ssr:stedsnr" v="530653" />
	</node>
	<node id="-489494" lat="60.6381194405" lon="5.49308889676">
		<tag k="name" v="Bjørneneset" />
		<tag k="natural" v="cape" />
		<tag k="ssr:stedsnr" v="530558" />
	</node>
	<node id="-489493" lat="60.6434055518" lon="5.49947221597">
		<tag k="name" v="Mjånesholmane" />
		<tag k="place" v="islet" />
		<tag k="ssr:stedsnr" v="530553" />
	</node>
	<node id="-487444" lat="60.63194444" lon="5.3045527749">
		<tag k="name" v="Kalvetrævika" />
		<tag k="natural" v="bay" />
		<tag k="ssr:stedsnr" v="347063" />
	</node>
	<node id="-487438" lat="60.6429250018" lon="5.32946388171">
		<tag k="name" v="Grønvika" />
		<tag k="natural" v="bay" />
		<tag k="ssr:stedsnr" v="348012" />
	</node>
	<node id="-487437" lat="60.6425805593" lon="5.32652221558">
		<tag k="name" v="Heggerneset" />
		<tag k="natural" v="cape" />
		<tag k="ssr:stedsnr" v="348011" />
	</node>
</osm>
