<?xml version="1.0" encoding="UTF-8"?>
<osm version="0.6" generator="osmapis">
	<node lat="58.88131666388273" lon="9.018316669075178" id="-59089">
		<tag k="alt_name" v="Gjerstad" />
		<tag k="name" v="Gjerstad kommune" />
		<tag k="ssr:date" v="2020-01-07" />
		<tag k="ssr:gruppe" v="administrativeIndelinger" />
		<tag k="ssr:hovedgruppe" v="offentligAdministrasjon" />
		<tag k="ssr:stedsnr" v="388239" />
		<tag k="ssr:type" v="kommune" />
	</node>
	<node lat="58.827509525180815" lon="9.077929014988138" id="-59770">
		<tag k="name" v="Brokelandsheia nord" />
		<tag k="ssr:date" v="2019-12-27" />
		<tag k="ssr:gruppe" v="veg" />
		<tag k="ssr:hovedgruppe" v="infrastruktur" />
		<tag k="ssr:stedsnr" v="973842" />
		<tag k="ssr:type" v="adressenavn" />
	</node>
	<node lat="58.867413914042714" lon="9.151334288905783" id="-59771">
		<tag k="name" v="Kalvvannsveien" />
		<tag k="ssr:date" v="2019-12-27" />
		<tag k="ssr:gruppe" v="veg" />
		<tag k="ssr:hovedgruppe" v="infrastruktur" />
		<tag k="ssr:stedsnr" v="973844" />
		<tag k="ssr:type" v="adressenavn" />
	</node>
	<node lat="58.87826831211269" lon="9.018960813197099" id="-59772">
		<tag k="name" v="Klokkargården" />
		<tag k="ssr:date" v="2019-12-27" />
		<tag k="ssr:gruppe" v="veg" />
		<tag k="ssr:hovedgruppe" v="infrastruktur" />
		<tag k="ssr:stedsnr" v="973846" />
		<tag k="ssr:type" v="adressenavn" />
	</node>
	<node lat="58.882976693046096" lon="9.040536468235466" id="-59773">
		<tag k="name" v="Aplandsveien" />
		<tag k="ssr:date" v="2019-12-27" />
		<tag k="ssr:gruppe" v="veg" />
		<tag k="ssr:hovedgruppe" v="infrastruktur" />
		<tag k="ssr:stedsnr" v="973847" />
		<tag k="ssr:type" v="adressenavn" />
	</node>
	<node lat="58.88007441247473" lon="9.041794036455954" id="-59774">
		<tag k="name" v="Lindberga" />
		<tag k="ssr:date" v="2019-12-27" />
		<tag k="ssr:gruppe" v="veg" />
		<tag k="ssr:hovedgruppe" v="infrastruktur" />
		<tag k="ssr:stedsnr" v="973848" />
		<tag k="ssr:type" v="adressenavn" />
	</node>
	<node lat="58.90107514586293" lon="9.01595214511449" id="-59775">
		<tag k="name" v="Evjevannsveien" />
		<tag k="ssr:date" v="2019-12-27" />
		<tag k="ssr:gruppe" v="veg" />
		<tag k="ssr:hovedgruppe" v="infrastruktur" />
		<tag k="ssr:stedsnr" v="973849" />
		<tag k="ssr:type" v="adressenavn" />
	</node>
	<node lat="58.891236148568574" lon="9.055487163223711" id="-59776">
		<tag k="name" v="Krokenveien" />
		<tag k="ssr:date" v="2019-12-27" />
		<tag k="ssr:gruppe" v="veg" />
		<tag k="ssr:hovedgruppe" v="infrastruktur" />
		<tag k="ssr:stedsnr" v="973850" />
		<tag k="ssr:type" v="adressenavn" />
	</node>
	<node lat="58.92889417943071" lon="8.956551571968548" id="-59778">
		<tag k="name" v="Tvilandstjennene" />
		<tag k="ssr:date" v="2019-12-27" />
		<tag k="ssr:gruppe" v="veg" />
		<tag k="ssr:hovedgruppe" v="infrastruktur" />
		<tag k="ssr:stedsnr" v="973852" />
		<tag k="ssr:type" v="adressenavn" />
	</node>
	<node lat="58.84761157635348" lon="9.082453993121433" id="-60819">
		<tag k="name" v="Foneveien" />
		<tag k="ssr:date" v="2019-12-27" />
		<tag k="ssr:gruppe" v="veg" />
		<tag k="ssr:hovedgruppe" v="infrastruktur" />
		<tag k="ssr:stedsnr" v="973845" />
		<tag k="ssr:type" v="adressenavn" />
	</node>
	<node lat="58.82986986917998" lon="9.1795023242476" id="-60820">
		<tag k="name" v="Stratveien" />
		<tag k="ssr:date" v="2019-12-27" />
		<tag k="ssr:gruppe" v="veg" />
		<tag k="ssr:hovedgruppe" v="infrastruktur" />
		<tag k="ssr:stedsnr" v="973839" />
		<tag k="ssr:type" v="adressenavn" />
	</node>
	<node lat="58.820756530579715" lon="9.077598974823703" id="-60821">
		<tag k="name" v="Brokelandsheia øst" />
		<tag k="ssr:date" v="2019-12-27" />
		<tag k="ssr:gruppe" v="veg" />
		<tag k="ssr:hovedgruppe" v="infrastruktur" />
		<tag k="ssr:stedsnr" v="973841" />
		<tag k="ssr:type" v="adressenavn" />
	</node>
</osm>
