<?xml version="1.0" encoding="UTF-8"?>
<osm generator="osmapis" version="0.6">
	<node id="-12704" lat="59.3546888903" lon="11.7695833342">
		<tag k="name" v="Dansefuruveien" />
		<tag k="ssr:date" v="2016-05-11" />
		<tag k="ssr:gruppe" v="veg" />
		<tag k="ssr:hovedgruppe" v="infrastruktur" />
		<tag k="ssr:stedsnr" v="719801" />
		<tag k="ssr:type" v="vegstrekning" />
	</node>
	<node id="-11863" lat="59.4601249997" lon="11.6227916645">
		<tag k="name" v="Liseterveg" />
		<tag k="ssr:date" v="2016-05-10" />
		<tag k="ssr:gruppe" v="veg" />
		<tag k="ssr:hovedgruppe" v="infrastruktur" />
		<tag k="ssr:stedsnr" v="234495" />
		<tag k="ssr:type" v="vegstrekning" />
	</node>
	<node id="-12008" lat="59.5948722242" lon="11.5629305535">
		<tag k="name" v="Langlibakken" />
		<tag k="ssr:date" v="2016-05-10" />
		<tag k="ssr:gruppe" v="veg" />
		<tag k="ssr:hovedgruppe" v="infrastruktur" />
		<tag k="ssr:stedsnr" v="416476" />
		<tag k="ssr:type" v="vegstrekning" />
	</node>
	<node id="-11086" lat="59.4806086373" lon="11.666325189">
		<tag k="name" v="Tjernstubben" />
		<tag k="ssr:date" v="2019-05-31" />
		<tag k="ssr:gruppe" v="veg" />
		<tag k="ssr:hovedgruppe" v="infrastruktur" />
		<tag k="ssr:stedsnr" v="1060382" />
		<tag k="ssr:type" v="adressenavn" />
	</node>
	<node id="-11085" lat="59.4830040051" lon="11.6595503525">
		<tag k="name" v="Sagodden" />
		<tag k="ssr:date" v="2019-05-31" />
		<tag k="ssr:gruppe" v="veg" />
		<tag k="ssr:hovedgruppe" v="infrastruktur" />
		<tag k="ssr:stedsnr" v="1060337" />
		<tag k="ssr:type" v="adressenavn" />
	</node>
	<node id="-11084" lat="59.537836219" lon="11.6467254709">
		<tag k="name" v="Høgåsveien" />
		<tag k="ssr:date" v="2019-05-31" />
		<tag k="ssr:gruppe" v="veg" />
		<tag k="ssr:hovedgruppe" v="infrastruktur" />
		<tag k="ssr:stedsnr" v="1060316" />
		<tag k="ssr:type" v="adressenavn" />
	</node>
	<node id="-13259" lat="59.4795222179" lon="11.6591749985">
		<tag k="name" v="Marker kommune" />
		<tag k="ssr:date" v="2016-05-11" />
		<tag k="ssr:gruppe" v="administrativeIndelinger" />
		<tag k="ssr:hovedgruppe" v="offentligAdministrasjon" />
		<tag k="ssr:stedsnr" v="935329" />
		<tag k="ssr:type" v="kommune" />
	</node>
	<node id="-11082" lat="59.5369644199" lon="11.6595089898">
		<tag k="name" v="Høgåsbråten" />
		<tag k="ssr:date" v="2019-05-31" />
		<tag k="ssr:gruppe" v="veg" />
		<tag k="ssr:hovedgruppe" v="infrastruktur" />
		<tag k="ssr:stedsnr" v="1060314" />
		<tag k="ssr:type" v="adressenavn" />
	</node>
	<node id="-11081" lat="59.5070575487" lon="11.6269289274">
		<tag k="name" v="Tynnelsrudveien" />
		<tag k="ssr:date" v="2019-05-31" />
		<tag k="ssr:gruppe" v="veg" />
		<tag k="ssr:hovedgruppe" v="infrastruktur" />
		<tag k="ssr:stedsnr" v="1060308" />
		<tag k="ssr:type" v="adressenavn" />
	</node>
	<node id="-13384" lat="60.5908609473" lon="9.63819281559">
		<tag k="fixme" v="multiple name tags, choose one and add the other to alt_name" />
		<tag k="name" v="Austlandet;Østlandet" />
		<tag k="ssr:date" v="2018-01-09" />
		<tag k="ssr:gruppe" v="administrativeIndelinger" />
		<tag k="ssr:hovedgruppe" v="offentligAdministrasjon" />
		<tag k="ssr:stedsnr" v="974775" />
		<tag k="ssr:type" v="annenAdministrativInndeling" />
	</node>
	<node id="-11079" lat="59.5685018222" lon="11.584122889">
		<tag k="name" v="Lauvnesveien" />
		<tag k="ssr:date" v="2019-05-31" />
		<tag k="ssr:gruppe" v="veg" />
		<tag k="ssr:hovedgruppe" v="infrastruktur" />
		<tag k="ssr:stedsnr" v="1060300" />
		<tag k="ssr:type" v="adressenavn" />
	</node>
	<node id="-11078" lat="59.3468559625" lon="11.6845363923">
		<tag k="name" v="Djupvikveien" />
		<tag k="ssr:date" v="2019-05-31" />
		<tag k="ssr:gruppe" v="veg" />
		<tag k="ssr:hovedgruppe" v="infrastruktur" />
		<tag k="ssr:stedsnr" v="1060274" />
		<tag k="ssr:type" v="adressenavn" />
	</node>
	<node id="-11077" lat="59.4428564526" lon="11.7085861243">
		<tag k="name" v="Lømbuseterveien" />
		<tag k="ssr:date" v="2019-05-31" />
		<tag k="ssr:gruppe" v="veg" />
		<tag k="ssr:hovedgruppe" v="infrastruktur" />
		<tag k="ssr:stedsnr" v="1060272" />
		<tag k="ssr:type" v="adressenavn" />
	</node>
	<node id="-11083" lat="59.5423353028" lon="11.6503070308">
		<tag k="name" v="Hienveien" />
		<tag k="ssr:date" v="2019-05-31" />
		<tag k="ssr:gruppe" v="veg" />
		<tag k="ssr:hovedgruppe" v="infrastruktur" />
		<tag k="ssr:stedsnr" v="1060315" />
		<tag k="ssr:type" v="adressenavn" />
	</node>
</osm>
