<?xml version="1.0" encoding="UTF-8"?>
<<<<<<< HEAD
<osm version="0.6" generator="osmapis">
	<node lat="62.39296389046838" lon="5.779547214891494" id="-1337">
		<tag k="name" v="Eggholmdjupet" />
		<tag k="ssr:date" v="2016-05-10" />
		<tag k="ssr:gruppe" v="sjøbunn" />
		<tag k="ssr:hovedgruppe" v="sjø" />
		<tag k="ssr:stedsnr" v="234898" />
		<tag k="ssr:type" v="havdyp" />
	</node>
	<node lat="62.427433479916196" lon="5.834210280851967" id="-1385">
		<tag k="name" v="Flørauden" />
		<tag k="ssr:date" v="2020-09-08" />
		<tag k="ssr:gruppe" v="navigasjon" />
		<tag k="ssr:hovedgruppe" v="infrastruktur" />
		<tag k="ssr:stedsnr" v="132958" />
		<tag k="ssr:type" v="fyrlykt" />
	</node>
	<node lat="62.340378475650915" lon="5.8098043614189265" id="-1388">
		<tag k="name" v="Boholmen" />
		<tag k="ssr:date" v="2020-09-08" />
=======
<osm generator="osmapis" version="0.6">
	<node id="-62880" lat="62.3673361149" lon="5.77163888263">
		<tag k="name" v="Vattøyskjæret" />
		<tag k="ssr:date" v="2016-05-10" />
>>>>>>> e1d4bc35ff8a6074a6f2e91616a996b547c36f15
		<tag k="ssr:gruppe" v="navigasjon" />
		<tag k="ssr:hovedgruppe" v="infrastruktur" />
		<tag k="ssr:stedsnr" v="253834" />
		<tag k="ssr:type" v="fyrlykt" />
	</node>
<<<<<<< HEAD
	<node lat="62.73392710705581" lon="7.14918030614603" id="-1394">
		<tag k="alt_name" v="Møre og Romsdal" />
		<tag k="name" v="Møre og Romsdal fylke" />
		<tag k="ssr:date" v="2021-09-21" />
		<tag k="ssr:gruppe" v="administrativeIndelinger" />
		<tag k="ssr:hovedgruppe" v="offentligAdministrasjon" />
		<tag k="ssr:stedsnr" v="145583" />
		<tag k="ssr:type" v="fylke" />
	</node>
	<node lat="62.34416944634011" lon="5.844877773118651" id="-1408">
=======
	<node id="-62461" lat="62.3441694463" lon="5.84487777312">
>>>>>>> e1d4bc35ff8a6074a6f2e91616a996b547c36f15
		<tag k="name" v="Ulstein kommune" />
		<tag k="ssr:date" v="2016-05-10" />
		<tag k="ssr:gruppe" v="administrativeIndelinger" />
		<tag k="ssr:hovedgruppe" v="offentligAdministrasjon" />
		<tag k="ssr:stedsnr" v="267913" />
		<tag k="ssr:type" v="kommune" />
	</node>
<<<<<<< HEAD
	<node lat="62.24881388689903" lon="5.897022225229322" id="-1412">
		<tag k="name" v="Bakarskjær" />
		<tag k="ssr:date" v="2016-05-10" />
=======
	<node id="-62620" lat="62.4307284991" lon="5.75902831394">
		<tag k="alt_name" v="Grasøyane" />
		<tag k="name" v="Grasøyane fyr" />
		<tag k="ssr:date" v="2019-02-12" />
>>>>>>> e1d4bc35ff8a6074a6f2e91616a996b547c36f15
		<tag k="ssr:gruppe" v="navigasjon" />
		<tag k="ssr:hovedgruppe" v="infrastruktur" />
		<tag k="ssr:stedsnr" v="220877" />
		<tag k="ssr:type" v="fyrlykt" />
	</node>
<<<<<<< HEAD
	<node lat="62.24591111403183" lon="5.882177782118212" id="-1540">
		<tag k="name" v="Grønevikholmen" />
=======
	<node id="-62841" lat="62.4275944452" lon="5.83421666802">
		<tag k="name" v="Flørauden" />
>>>>>>> e1d4bc35ff8a6074a6f2e91616a996b547c36f15
		<tag k="ssr:date" v="2016-05-10" />
		<tag k="ssr:gruppe" v="navigasjon" />
		<tag k="ssr:hovedgruppe" v="infrastruktur" />
		<tag k="ssr:stedsnr" v="584912" />
		<tag k="ssr:type" v="lanterne" />
	</node>
<<<<<<< HEAD
	<node lat="62.40543055239813" lon="5.820380555047016" id="-1548">
		<tag k="name" v="Djupet" />
=======
	<node id="-62680" lat="62.2499444472" lon="5.82513610919">
		<tag k="name" v="Aursnes" />
>>>>>>> e1d4bc35ff8a6074a6f2e91616a996b547c36f15
		<tag k="ssr:date" v="2016-05-11" />
		<tag k="ssr:gruppe" v="sjøbunn" />
		<tag k="ssr:hovedgruppe" v="sjø" />
		<tag k="ssr:stedsnr" v="703486" />
		<tag k="ssr:type" v="havdyp" />
	</node>
	<node lat="62.24997149058608" lon="5.825009395232247" id="-1634">
		<tag k="name" v="Aursnes" />
		<tag k="ssr:date" v="2020-09-08" />
		<tag k="ssr:gruppe" v="navigasjon" />
		<tag k="ssr:hovedgruppe" v="infrastruktur" />
		<tag k="ssr:stedsnr" v="921221" />
		<tag k="ssr:type" v="fyrlykt" />
	</node>
<<<<<<< HEAD
	<node lat="62.47107500169919" lon="5.817149995613469" id="-1738">
		<tag k="name" v="Breisunddjupet" />
=======
	<node id="-62612" lat="62.245911114" lon="5.88217778212">
		<tag k="name" v="Grønevikholmen" />
		<tag k="ssr:date" v="2016-05-10" />
		<tag k="ssr:gruppe" v="navigasjon" />
		<tag k="ssr:hovedgruppe" v="infrastruktur" />
		<tag k="ssr:stedsnr" v="584912" />
		<tag k="ssr:type" v="lanterne" />
	</node>
	<node id="-62836" lat="62.2958694402" lon="5.79076944818">
		<tag k="name" v="Dimna sørpynt" />
>>>>>>> e1d4bc35ff8a6074a6f2e91616a996b547c36f15
		<tag k="ssr:date" v="2016-05-10" />
		<tag k="ssr:gruppe" v="sjøbunn" />
		<tag k="ssr:hovedgruppe" v="sjø" />
		<tag k="ssr:stedsnr" v="112916" />
		<tag k="ssr:type" v="havdyp" />
	</node>
	<node lat="62.29575474730123" lon="5.7908370583719515" id="-1753">
		<tag k="name" v="Dimna sørpynt" />
		<tag k="ssr:date" v="2020-09-08" />
		<tag k="ssr:gruppe" v="navigasjon" />
		<tag k="ssr:hovedgruppe" v="infrastruktur" />
		<tag k="ssr:stedsnr" v="132760" />
		<tag k="ssr:type" v="fyrlykt" />
	</node>
<<<<<<< HEAD
	<node lat="62.367449982537416" lon="5.771903718806148" id="-1782">
		<tag k="name" v="Vattøyskjæret" />
		<tag k="ssr:date" v="2020-09-08" />
=======
	<node id="-63155" lat="62.323591667" lon="5.76542499922">
		<tag k="name" v="Teigesund" />
		<tag k="ssr:date" v="2016-05-11" />
>>>>>>> e1d4bc35ff8a6074a6f2e91616a996b547c36f15
		<tag k="ssr:gruppe" v="navigasjon" />
		<tag k="ssr:hovedgruppe" v="infrastruktur" />
		<tag k="ssr:stedsnr" v="192887" />
		<tag k="ssr:type" v="fyrlykt" />
	</node>
<<<<<<< HEAD
	<node lat="62.24952222105578" lon="5.902149990665497" id="-1870">
		<tag k="name" v="Bakarflu" />
		<tag k="ssr:date" v="2016-05-10" />
		<tag k="ssr:gruppe" v="navigasjon" />
		<tag k="ssr:hovedgruppe" v="infrastruktur" />
		<tag k="ssr:stedsnr" v="402892" />
		<tag k="ssr:type" v="lanterne" />
	</node>
	<node lat="62.373395708642434" lon="5.7919946957639" id="-1876">
=======
	<node id="-63184" lat="69.6388889725" lon="30.5666644427">
		<tag k="fixme" v="multiple name tags, choose one and add the other to alt_name" />
		<tag k="loc_name:se" v="Norgga gonagasriika" />
		<tag k="loc_name:sma" v="Nöörjen gånkarïjhke" />
		<tag k="loc_name:smj" v="Vuona gånågisrijkka" />
		<tag k="name" v="Noreg;Norge" />
		<tag k="name:en" v="Norway" />
		<tag k="name:no" v="Noreg;Norge" />
		<tag k="ssr:date" v="2020-06-04" />
		<tag k="ssr:gruppe" v="administrativeIndelinger" />
		<tag k="ssr:hovedgruppe" v="offentligAdministrasjon" />
		<tag k="ssr:stedsnr" v="26330" />
		<tag k="ssr:type" v="nasjon" />
	</node>
	<node id="-62959" lat="62.3734611121" lon="5.79202776851">
>>>>>>> e1d4bc35ff8a6074a6f2e91616a996b547c36f15
		<tag k="name" v="Vattøy" />
		<tag k="ssr:date" v="2020-09-08" />
		<tag k="ssr:gruppe" v="navigasjon" />
		<tag k="ssr:hovedgruppe" v="infrastruktur" />
		<tag k="ssr:stedsnr" v="435911" />
		<tag k="ssr:type" v="fyrlykt" />
	</node>
<<<<<<< HEAD
	<node lat="62.43072849914783" lon="5.759028313943248" id="-1950">
		<tag k="alt_name" v="Grasøyane" />
		<tag k="name" v="Grasøyane fyr" />
		<tag k="ssr:date" v="2019-02-12" />
=======
	<node id="-62412" lat="62.2488138869" lon="5.89702222523">
		<tag k="name" v="Bakarskjær" />
		<tag k="ssr:date" v="2016-05-10" />
>>>>>>> e1d4bc35ff8a6074a6f2e91616a996b547c36f15
		<tag k="ssr:gruppe" v="navigasjon" />
		<tag k="ssr:hovedgruppe" v="infrastruktur" />
		<tag k="ssr:stedsnr" v="617953" />
		<tag k="ssr:type" v="fyrstasjon" />
	</node>
	<node lat="62.399968166715475" lon="5.850794270362799" id="-1977">
		<tag k="name" v="Flø" />
		<tag k="ssr:date" v="2020-09-08" />
		<tag k="ssr:gruppe" v="navigasjon" />
		<tag k="ssr:hovedgruppe" v="infrastruktur" />
		<tag k="ssr:stedsnr" v="739861" />
		<tag k="ssr:type" v="fyrlykt" />
	</node>
<<<<<<< HEAD
	<node lat="62.32365572023255" lon="5.765346835899215" id="-2069">
		<tag k="name" v="Teigesund" />
		<tag k="ssr:date" v="2020-09-08" />
=======
	<node id="-62950" lat="62.2495222211" lon="5.90214999067">
		<tag k="name" v="Bakarflu" />
		<tag k="ssr:date" v="2016-05-10" />
>>>>>>> e1d4bc35ff8a6074a6f2e91616a996b547c36f15
		<tag k="ssr:gruppe" v="navigasjon" />
		<tag k="ssr:hovedgruppe" v="infrastruktur" />
		<tag k="ssr:stedsnr" v="861771" />
		<tag k="ssr:type" v="fyrlykt" />
	</node>
	<node lat="62.335773809454885" lon="5.85655126852886" id="-2122">
		<tag k="name" v="Indre Saunes" />
		<tag k="ssr:date" v="2021-05-27" />
		<tag k="ssr:gruppe" v="veg" />
		<tag k="ssr:hovedgruppe" v="infrastruktur" />
		<tag k="ssr:stedsnr" v="1081355" />
		<tag k="ssr:type" v="adressenavn" />
	</node>
	<node lat="62.351419223910646" lon="5.8283478226628995" id="-2123">
		<tag k="name" v="Myravegen" />
		<tag k="ssr:date" v="2021-08-19" />
		<tag k="ssr:gruppe" v="veg" />
		<tag k="ssr:hovedgruppe" v="infrastruktur" />
		<tag k="ssr:stedsnr" v="1081999" />
		<tag k="ssr:type" v="adressenavn" />
	</node>
	<node lat="62.35346896289181" lon="5.832429090500815" id="-2124">
		<tag k="name" v="Skeidsbakkane" />
		<tag k="ssr:date" v="2021-08-19" />
		<tag k="ssr:gruppe" v="veg" />
		<tag k="ssr:hovedgruppe" v="infrastruktur" />
		<tag k="ssr:stedsnr" v="1081998" />
		<tag k="ssr:type" v="adressenavn" />
	</node>
	<node lat="62.305942808788465" lon="5.931103247816836" id="-2125">
		<tag k="name" v="Løsetvegen" />
		<tag k="ssr:date" v="2021-08-19" />
		<tag k="ssr:gruppe" v="veg" />
		<tag k="ssr:hovedgruppe" v="infrastruktur" />
		<tag k="ssr:stedsnr" v="1082001" />
		<tag k="ssr:type" v="adressenavn" />
	</node>
	<node lat="62.35067738731106" lon="5.828791539924543" id="-2126">
		<tag k="name" v="Jarbryggjevegen" />
		<tag k="ssr:date" v="2021-08-19" />
		<tag k="ssr:gruppe" v="veg" />
		<tag k="ssr:hovedgruppe" v="infrastruktur" />
		<tag k="ssr:stedsnr" v="1082000" />
		<tag k="ssr:type" v="adressenavn" />
	</node>
	<node lat="62.30420595640679" lon="5.933202720664435" id="-2127">
		<tag k="name" v="Bukketrappvegen" />
		<tag k="ssr:date" v="2021-08-19" />
		<tag k="ssr:gruppe" v="veg" />
		<tag k="ssr:hovedgruppe" v="infrastruktur" />
		<tag k="ssr:stedsnr" v="1082002" />
		<tag k="ssr:type" v="adressenavn" />
	</node>
	<node id="-62433" lat="62.3403361085" lon="5.80963611407">
		<tag k="name" v="Boholmen" />
		<tag k="ssr:date" v="2016-05-10" />
		<tag k="ssr:gruppe" v="navigasjon" />
		<tag k="ssr:hovedgruppe" v="infrastruktur" />
		<tag k="ssr:stedsnr" v="253834" />
		<tag k="ssr:type" v="fyrlykt" />
	</node>
	<node id="-62657" lat="62.3999555583" lon="5.85074722653">
		<tag k="name" v="Flø" />
		<tag k="ssr:date" v="2016-05-11" />
		<tag k="ssr:gruppe" v="navigasjon" />
		<tag k="ssr:hovedgruppe" v="infrastruktur" />
		<tag k="ssr:stedsnr" v="739861" />
		<tag k="ssr:type" v="fyrlykt" />
	</node>
</osm>
