<?xml version="1.0" encoding="UTF-8"?>
<osm version="0.6" generator="osmapis">
	<node lat="60.3992335258585" lon="11.044170780309033" id="-30087">
		<tag k="name" v="Skredderbakkvegen" />
		<tag k="ssr:date" v="2019-12-27" />
		<tag k="ssr:gruppe" v="veg" />
		<tag k="ssr:hovedgruppe" v="infrastruktur" />
		<tag k="ssr:stedsnr" v="218803" />
		<tag k="ssr:type" v="adressenavn" />
	</node>
	<node lat="60.44048602569506" lon="10.868589411956304" id="-30088">
		<tag k="name" v="Sørengvegen" />
		<tag k="ssr:date" v="2019-12-27" />
		<tag k="ssr:gruppe" v="veg" />
		<tag k="ssr:hovedgruppe" v="infrastruktur" />
		<tag k="ssr:stedsnr" v="218772" />
		<tag k="ssr:type" v="adressenavn" />
	</node>
	<node lat="60.45171003011965" lon="10.761815952474869" id="-30089">
		<tag k="name" v="Røsåsvegen" />
		<tag k="ssr:date" v="2019-12-27" />
		<tag k="ssr:gruppe" v="veg" />
		<tag k="ssr:hovedgruppe" v="infrastruktur" />
		<tag k="ssr:stedsnr" v="218777" />
		<tag k="ssr:type" v="adressenavn" />
	</node>
	<node lat="60.47040356085014" lon="11.036450200010583" id="-30090">
		<tag k="name" v="Øverbyvegen" />
		<tag k="ssr:date" v="2019-12-27" />
		<tag k="ssr:gruppe" v="veg" />
		<tag k="ssr:hovedgruppe" v="infrastruktur" />
		<tag k="ssr:stedsnr" v="218810" />
		<tag k="ssr:type" v="adressenavn" />
	</node>
	<node lat="60.35184149294072" lon="10.977999682428178" id="-30103">
		<tag k="name" v="Greinenvegen" />
		<tag k="ssr:date" v="2019-12-27" />
		<tag k="ssr:gruppe" v="veg" />
		<tag k="ssr:hovedgruppe" v="infrastruktur" />
		<tag k="ssr:stedsnr" v="222843" />
		<tag k="ssr:type" v="adressenavn" />
	</node>
	<node lat="60.41887222425463" lon="10.9531611167459" id="-30109">
		<tag k="name" v="Sørsetervegen" />
		<tag k="ssr:date" v="2019-12-27" />
		<tag k="ssr:gruppe" v="veg" />
		<tag k="ssr:hovedgruppe" v="infrastruktur" />
		<tag k="ssr:stedsnr" v="224228" />
		<tag k="ssr:type" v="vegstrekning" />
	</node>
	<node lat="60.434432997129754" lon="11.049266130135829" id="-30120">
		<tag k="name" v="Mortensvegen" />
		<tag k="ssr:date" v="2019-12-27" />
		<tag k="ssr:gruppe" v="veg" />
		<tag k="ssr:hovedgruppe" v="infrastruktur" />
		<tag k="ssr:stedsnr" v="224695" />
		<tag k="ssr:type" v="adressenavn" />
	</node>
	<node lat="60.41263362820025" lon="11.1183356288529" id="-30128">
		<tag k="name" v="Hermodts plass" />
		<tag k="ssr:date" v="2019-12-27" />
		<tag k="ssr:gruppe" v="veg" />
		<tag k="ssr:hovedgruppe" v="infrastruktur" />
		<tag k="ssr:stedsnr" v="40510" />
		<tag k="ssr:type" v="adressenavn" />
	</node>
	<node lat="60.438341664703565" lon="10.846174998340018" id="-30130">
		<tag k="name" v="Lomtjernsvegen" />
		<tag k="ssr:date" v="2019-12-27" />
		<tag k="ssr:gruppe" v="veg" />
		<tag k="ssr:hovedgruppe" v="infrastruktur" />
		<tag k="ssr:stedsnr" v="41220" />
		<tag k="ssr:type" v="vegstrekning" />
	</node>
	<node lat="60.43370555171039" lon="10.85161667041088" id="-30132">
		<tag k="name" v="Skjeggerudvegen" />
		<tag k="ssr:date" v="2019-12-27" />
		<tag k="ssr:gruppe" v="veg" />
		<tag k="ssr:hovedgruppe" v="infrastruktur" />
		<tag k="ssr:stedsnr" v="41174" />
		<tag k="ssr:type" v="vegstrekning" />
	</node>
	<node lat="60.37486457758324" lon="10.920674295610919" id="-30138">
		<tag k="name" v="Jeppestigen" />
		<tag k="ssr:date" v="2019-12-27" />
		<tag k="ssr:gruppe" v="veg" />
		<tag k="ssr:hovedgruppe" v="infrastruktur" />
		<tag k="ssr:stedsnr" v="42693" />
		<tag k="ssr:type" v="adressenavn" />
	</node>
	<node lat="60.38176943979737" lon="11.114492558711776" id="-30157">
		<tag k="name" v="Krafttjennsvegen" />
		<tag k="ssr:date" v="2019-12-27" />
		<tag k="ssr:gruppe" v="veg" />
		<tag k="ssr:hovedgruppe" v="infrastruktur" />
		<tag k="ssr:stedsnr" v="101507" />
		<tag k="ssr:type" v="adressenavn" />
	</node>
	<node lat="60.487367149143736" lon="10.951387373615827" id="-30158">
		<tag k="name" v="Midtbuvegen" />
		<tag k="ssr:date" v="2019-12-27" />
		<tag k="ssr:gruppe" v="veg" />
		<tag k="ssr:hovedgruppe" v="infrastruktur" />
		<tag k="ssr:stedsnr" v="101511" />
		<tag k="ssr:type" v="adressenavn" />
	</node>
	<node lat="60.50742222504942" lon="11.063288891431812" id="-30159">
		<tag k="name" v="Steinsjøelvvegen" />
		<tag k="ssr:date" v="2019-12-27" />
		<tag k="ssr:gruppe" v="veg" />
		<tag k="ssr:hovedgruppe" v="infrastruktur" />
		<tag k="ssr:stedsnr" v="102006" />
		<tag k="ssr:type" v="vegstrekning" />
	</node>
	<node lat="60.43248058535539" lon="11.066354645239834" id="-30166">
		<tag k="name" v="Kvennstuvegen" />
		<tag k="ssr:date" v="2019-12-27" />
		<tag k="ssr:gruppe" v="veg" />
		<tag k="ssr:hovedgruppe" v="infrastruktur" />
		<tag k="ssr:stedsnr" v="103705" />
		<tag k="ssr:type" v="adressenavn" />
	</node>
	<node lat="60.48979673602615" lon="11.072030010261056" id="-30171">
		<tag k="name" v="Røtjennsvegen" />
		<tag k="ssr:date" v="2019-12-27" />
		<tag k="ssr:gruppe" v="veg" />
		<tag k="ssr:hovedgruppe" v="infrastruktur" />
		<tag k="ssr:stedsnr" v="112380" />
		<tag k="ssr:type" v="adressenavn" />
	</node>
	<node lat="60.35126600221724" lon="11.00861130802163" id="-30172">
		<tag k="name" v="Myrvegen" />
		<tag k="ssr:date" v="2019-12-27" />
		<tag k="ssr:gruppe" v="veg" />
		<tag k="ssr:hovedgruppe" v="infrastruktur" />
		<tag k="ssr:stedsnr" v="112273" />
		<tag k="ssr:type" v="adressenavn" />
	</node>
	<node lat="60.360808833790806" lon="10.968711667893732" id="-30178">
		<tag k="name" v="Heggetjennsvegen" />
		<tag k="ssr:date" v="2019-12-27" />
		<tag k="ssr:gruppe" v="veg" />
		<tag k="ssr:hovedgruppe" v="infrastruktur" />
		<tag k="ssr:stedsnr" v="119093" />
		<tag k="ssr:type" v="adressenavn" />
	</node>
	<node lat="60.34397023928842" lon="11.015513452912016" id="-30212">
		<tag k="name" v="Vestsidevegen" />
		<tag k="ssr:date" v="2019-12-27" />
		<tag k="ssr:gruppe" v="veg" />
		<tag k="ssr:hovedgruppe" v="infrastruktur" />
		<tag k="ssr:stedsnr" v="157463" />
		<tag k="ssr:type" v="adressenavn" />
	</node>
	<node lat="60.48164682186296" lon="11.010517805165698" id="-30213">
		<tag k="name" v="Ringstadvegen" />
		<tag k="ssr:date" v="2019-12-27" />
		<tag k="ssr:gruppe" v="veg" />
		<tag k="ssr:hovedgruppe" v="infrastruktur" />
		<tag k="ssr:stedsnr" v="157809" />
		<tag k="ssr:type" v="adressenavn" />
	</node>
	<node lat="60.48639722324885" lon="10.774208327473707" id="-30220">
		<tag k="name" v="Hølbekkvegen" />
		<tag k="ssr:date" v="2019-12-27" />
		<tag k="ssr:gruppe" v="veg" />
		<tag k="ssr:hovedgruppe" v="infrastruktur" />
		<tag k="ssr:stedsnr" v="163214" />
		<tag k="ssr:type" v="vegstrekning" />
	</node>
	<node lat="60.46511181227449" lon="11.042995229427746" id="-30225">
		<tag k="name" v="Sørflavegen" />
		<tag k="ssr:date" v="2019-12-27" />
		<tag k="ssr:gruppe" v="veg" />
		<tag k="ssr:hovedgruppe" v="infrastruktur" />
		<tag k="ssr:stedsnr" v="163724" />
		<tag k="ssr:type" v="adressenavn" />
	</node>
	<node lat="60.42163888935096" lon="11.091513884866504" id="-30231">
		<tag k="name" v="Kinnavegen" />
		<tag k="ssr:date" v="2019-12-27" />
		<tag k="ssr:gruppe" v="veg" />
		<tag k="ssr:hovedgruppe" v="infrastruktur" />
		<tag k="ssr:stedsnr" v="163827" />
		<tag k="ssr:type" v="vegstrekning" />
	</node>
	<node lat="60.410323980125085" lon="11.058337281953293" id="-30232">
		<tag k="name" v="Rådyrstigen" />
		<tag k="ssr:date" v="2019-12-27" />
		<tag k="ssr:gruppe" v="veg" />
		<tag k="ssr:hovedgruppe" v="infrastruktur" />
		<tag k="ssr:stedsnr" v="172200" />
		<tag k="ssr:type" v="adressenavn" />
	</node>
	<node lat="60.427775384689006" lon="11.064710744403177" id="-30233">
		<tag k="name" v="Mjølnervegen" />
		<tag k="ssr:date" v="2019-12-27" />
		<tag k="ssr:gruppe" v="veg" />
		<tag k="ssr:hovedgruppe" v="infrastruktur" />
		<tag k="ssr:stedsnr" v="172202" />
		<tag k="ssr:type" v="adressenavn" />
	</node>
	<node lat="60.4709471141206" lon="10.95707062520727" id="-30240">
		<tag k="name" v="Rundtjennsvegen" />
		<tag k="ssr:date" v="2019-12-27" />
		<tag k="ssr:gruppe" v="veg" />
		<tag k="ssr:hovedgruppe" v="infrastruktur" />
		<tag k="ssr:stedsnr" v="180072" />
		<tag k="ssr:type" v="adressenavn" />
	</node>
	<node lat="60.44043333460969" lon="10.784388882899634" id="-30247">
		<tag k="name" v="Tuvslivegen" />
		<tag k="ssr:date" v="2019-12-27" />
		<tag k="ssr:gruppe" v="veg" />
		<tag k="ssr:hovedgruppe" v="infrastruktur" />
		<tag k="ssr:stedsnr" v="181412" />
		<tag k="ssr:type" v="vegstrekning" />
	</node>
	<node lat="60.41510501241389" lon="11.052010897062058" id="-30279">
		<tag k="name" v="Nøkkefaret" />
		<tag k="ssr:date" v="2019-12-27" />
		<tag k="ssr:gruppe" v="veg" />
		<tag k="ssr:hovedgruppe" v="infrastruktur" />
		<tag k="ssr:stedsnr" v="222509" />
		<tag k="ssr:type" v="adressenavn" />
	</node>
	<node lat="60.46835484136192" lon="11.090858532149644" id="-30294">
		<tag k="name" v="Østligrindvegen" />
		<tag k="ssr:date" v="2019-12-27" />
		<tag k="ssr:gruppe" v="veg" />
		<tag k="ssr:hovedgruppe" v="infrastruktur" />
		<tag k="ssr:stedsnr" v="227207" />
		<tag k="ssr:type" v="adressenavn" />
	</node>
	<node lat="60.4275555528299" lon="11.089966666648252" id="-30295">
		<tag k="name" v="Siridalsvegen" />
		<tag k="ssr:date" v="2019-12-27" />
		<tag k="ssr:gruppe" v="veg" />
		<tag k="ssr:hovedgruppe" v="infrastruktur" />
		<tag k="ssr:stedsnr" v="237450" />
		<tag k="ssr:type" v="vegstrekning" />
	</node>
	<node lat="60.47507777919543" lon="10.851152771301194" id="-30303">
		<tag k="name" v="Veslesvartungsvegen" />
		<tag k="ssr:date" v="2019-12-27" />
		<tag k="ssr:gruppe" v="veg" />
		<tag k="ssr:hovedgruppe" v="infrastruktur" />
		<tag k="ssr:stedsnr" v="239862" />
		<tag k="ssr:type" v="vegstrekning" />
	</node>
	<node lat="60.41579905507135" lon="11.052587645674885" id="-30324">
		<tag k="name" v="Alvestigen" />
		<tag k="ssr:date" v="2019-12-27" />
		<tag k="ssr:gruppe" v="veg" />
		<tag k="ssr:hovedgruppe" v="infrastruktur" />
		<tag k="ssr:stedsnr" v="283509" />
		<tag k="ssr:type" v="adressenavn" />
	</node>
	<node lat="60.426766668386996" lon="10.95196389404159" id="-30328">
		<tag k="name" v="Badstuengvegen" />
		<tag k="ssr:date" v="2019-12-27" />
		<tag k="ssr:gruppe" v="veg" />
		<tag k="ssr:hovedgruppe" v="infrastruktur" />
		<tag k="ssr:stedsnr" v="284198" />
		<tag k="ssr:type" v="vegstrekning" />
	</node>
	<node lat="60.49628795819556" lon="11.004359787942553" id="-30332">
		<tag k="name" v="Holtemarka" />
		<tag k="ssr:date" v="2019-12-27" />
		<tag k="ssr:gruppe" v="veg" />
		<tag k="ssr:hovedgruppe" v="infrastruktur" />
		<tag k="ssr:stedsnr" v="285705" />
		<tag k="ssr:type" v="adressenavn" />
	</node>
	<node lat="60.422807784277346" lon="11.064408222676738" id="-30333">
		<tag k="name" v="Falkemyrvegen" />
		<tag k="ssr:date" v="2019-12-27" />
		<tag k="ssr:gruppe" v="veg" />
		<tag k="ssr:hovedgruppe" v="infrastruktur" />
		<tag k="ssr:stedsnr" v="285708" />
		<tag k="ssr:type" v="adressenavn" />
	</node>
	<node lat="60.474849593321224" lon="11.026455098955477" id="-30337">
		<tag k="name" v="Møllevegen" />
		<tag k="ssr:date" v="2019-12-27" />
		<tag k="ssr:gruppe" v="veg" />
		<tag k="ssr:hovedgruppe" v="infrastruktur" />
		<tag k="ssr:stedsnr" v="293247" />
		<tag k="ssr:type" v="adressenavn" />
	</node>
	<node lat="60.490293883008114" lon="11.002052685182353" id="-30338">
		<tag k="name" v="Fagerlundsvegen" />
		<tag k="ssr:date" v="2019-12-27" />
		<tag k="ssr:gruppe" v="veg" />
		<tag k="ssr:hovedgruppe" v="infrastruktur" />
		<tag k="ssr:stedsnr" v="293250" />
		<tag k="ssr:type" v="adressenavn" />
	</node>
	<node lat="60.42169184430771" lon="11.081939647319885" id="-30346">
		<tag k="name" v="Åsand" />
		<tag k="ssr:date" v="2019-12-27" />
		<tag k="ssr:gruppe" v="veg" />
		<tag k="ssr:hovedgruppe" v="infrastruktur" />
		<tag k="ssr:stedsnr" v="301741" />
		<tag k="ssr:type" v="adressenavn" />
	</node>
	<node lat="60.43429030032767" lon="11.068813784883483" id="-30356">
		<tag k="name" v="Brustadvegen" />
		<tag k="ssr:date" v="2019-12-27" />
		<tag k="ssr:gruppe" v="veg" />
		<tag k="ssr:hovedgruppe" v="infrastruktur" />
		<tag k="ssr:stedsnr" v="460850" />
		<tag k="ssr:type" v="adressenavn" />
	</node>
	<node lat="60.38819844231082" lon="11.038879819722482" id="-30357">
		<tag k="name" v="Rudstigen" />
		<tag k="ssr:date" v="2019-12-27" />
		<tag k="ssr:gruppe" v="veg" />
		<tag k="ssr:hovedgruppe" v="infrastruktur" />
		<tag k="ssr:stedsnr" v="339771" />
		<tag k="ssr:type" v="adressenavn" />
	</node>
	<node lat="60.414859997805216" lon="11.05167306447973" id="-30378">
		<tag k="name" v="Huldrevegen" />
		<tag k="ssr:date" v="2019-12-27" />
		<tag k="ssr:gruppe" v="veg" />
		<tag k="ssr:hovedgruppe" v="infrastruktur" />
		<tag k="ssr:stedsnr" v="464567" />
		<tag k="ssr:type" v="adressenavn" />
	</node>
	<node lat="60.44779166334852" lon="10.942680554908463" id="-30379">
		<tag k="name" v="Fjellsjøvegen" />
		<tag k="ssr:date" v="2019-12-27" />
		<tag k="ssr:gruppe" v="veg" />
		<tag k="ssr:hovedgruppe" v="infrastruktur" />
		<tag k="ssr:stedsnr" v="360614" />
		<tag k="ssr:type" v="vegstrekning" />
	</node>
	<node lat="60.43789055481281" lon="11.06746986206106" id="-30386">
		<tag k="name" v="Hagakroken" />
		<tag k="ssr:date" v="2019-12-27" />
		<tag k="ssr:gruppe" v="veg" />
		<tag k="ssr:hovedgruppe" v="infrastruktur" />
		<tag k="ssr:stedsnr" v="362671" />
		<tag k="ssr:type" v="adressenavn" />
	</node>
	<node lat="60.44942847730763" lon="11.040487384913849" id="-30410">
		<tag k="name" v="Monsrudvegen" />
		<tag k="ssr:date" v="2019-12-27" />
		<tag k="ssr:gruppe" v="veg" />
		<tag k="ssr:hovedgruppe" v="infrastruktur" />
		<tag k="ssr:stedsnr" v="467661" />
		<tag k="ssr:type" v="adressenavn" />
	</node>
	<node lat="60.46065149033143" lon="11.060286390833884" id="-30419">
		<tag k="name" v="Røsrudvegen" />
		<tag k="ssr:date" v="2019-12-27" />
		<tag k="ssr:gruppe" v="veg" />
		<tag k="ssr:hovedgruppe" v="infrastruktur" />
		<tag k="ssr:stedsnr" v="399801" />
		<tag k="ssr:type" v="adressenavn" />
	</node>
	<node lat="60.404358331474576" lon="11.111391672219224" id="-30438">
		<tag k="name" v="Kløvdalsvegen" />
		<tag k="ssr:date" v="2019-12-27" />
		<tag k="ssr:gruppe" v="veg" />
		<tag k="ssr:hovedgruppe" v="infrastruktur" />
		<tag k="ssr:stedsnr" v="406774" />
		<tag k="ssr:type" v="vegstrekning" />
	</node>
	<node lat="60.48873438262177" lon="11.017067038882832" id="-30439">
		<tag k="name" v="Reksla" />
		<tag k="ssr:date" v="2019-12-27" />
		<tag k="ssr:gruppe" v="veg" />
		<tag k="ssr:hovedgruppe" v="infrastruktur" />
		<tag k="ssr:stedsnr" v="475214" />
		<tag k="ssr:type" v="adressenavn" />
	</node>
	<node lat="60.435732541035904" lon="11.067190721981788" id="-30440">
		<tag k="name" v="Øvre Hagavegen" />
		<tag k="ssr:date" v="2019-12-27" />
		<tag k="ssr:gruppe" v="veg" />
		<tag k="ssr:hovedgruppe" v="infrastruktur" />
		<tag k="ssr:stedsnr" v="475362" />
		<tag k="ssr:type" v="adressenavn" />
	</node>
	<node lat="60.44706223397765" lon="11.023203410748922" id="-30458">
		<tag k="name" v="Rognstadvegen" />
		<tag k="ssr:date" v="2019-12-27" />
		<tag k="ssr:gruppe" v="veg" />
		<tag k="ssr:hovedgruppe" v="infrastruktur" />
		<tag k="ssr:stedsnr" v="460774" />
		<tag k="ssr:type" v="adressenavn" />
	</node>
	<node lat="60.35505737690706" lon="11.00120844166053" id="-30459">
		<tag k="name" v="Rustadhaugvegen" />
		<tag k="ssr:date" v="2019-12-27" />
		<tag k="ssr:gruppe" v="veg" />
		<tag k="ssr:hovedgruppe" v="infrastruktur" />
		<tag k="ssr:stedsnr" v="460820" />
		<tag k="ssr:type" v="adressenavn" />
	</node>
	<node lat="60.447439705768346" lon="10.752132092817561" id="-30465">
		<tag k="name" v="Nedre Fallveg" />
		<tag k="ssr:date" v="2019-12-27" />
		<tag k="ssr:gruppe" v="veg" />
		<tag k="ssr:hovedgruppe" v="infrastruktur" />
		<tag k="ssr:stedsnr" v="465485" />
		<tag k="ssr:type" v="adressenavn" />
	</node>
	<node lat="60.347167326218404" lon="11.00044687376976" id="-30466">
		<tag k="name" v="Kongelivegen" />
		<tag k="ssr:date" v="2019-12-27" />
		<tag k="ssr:gruppe" v="veg" />
		<tag k="ssr:hovedgruppe" v="infrastruktur" />
		<tag k="ssr:stedsnr" v="465516" />
		<tag k="ssr:type" v="adressenavn" />
	</node>
	<node lat="60.43497499890506" lon="10.770641660357024" id="-30478">
		<tag k="name" v="Fuglåsvegen" />
		<tag k="ssr:date" v="2019-12-27" />
		<tag k="ssr:gruppe" v="veg" />
		<tag k="ssr:hovedgruppe" v="infrastruktur" />
		<tag k="ssr:stedsnr" v="467771" />
		<tag k="ssr:type" v="vegstrekning" />
	</node>
	<node lat="60.47340555616027" lon="10.87823888989777" id="-30483">
		<tag k="name" v="Lusmyrvegen" />
		<tag k="ssr:date" v="2019-12-27" />
		<tag k="ssr:gruppe" v="veg" />
		<tag k="ssr:hovedgruppe" v="infrastruktur" />
		<tag k="ssr:stedsnr" v="664831" />
		<tag k="ssr:type" v="vegstrekning" />
	</node>
	<node lat="60.42071780935835" lon="10.956407299769607" id="-30492">
		<tag k="name" v="Sørsætervegen" />
		<tag k="ssr:date" v="2019-12-27" />
		<tag k="ssr:gruppe" v="veg" />
		<tag k="ssr:hovedgruppe" v="infrastruktur" />
		<tag k="ssr:stedsnr" v="665090" />
		<tag k="ssr:type" v="adressenavn" />
	</node>
	<node lat="60.409203841562" lon="11.057335221988431" id="-30493">
		<tag k="name" v="Kjerkevegen" />
		<tag k="ssr:date" v="2019-12-27" />
		<tag k="ssr:gruppe" v="veg" />
		<tag k="ssr:hovedgruppe" v="infrastruktur" />
		<tag k="ssr:stedsnr" v="475206" />
		<tag k="ssr:type" v="adressenavn" />
	</node>
	<node lat="60.420561528783516" lon="11.083210308401426" id="-30494">
		<tag k="name" v="Christian Bundlis veg" />
		<tag k="ssr:date" v="2019-12-27" />
		<tag k="ssr:gruppe" v="veg" />
		<tag k="ssr:hovedgruppe" v="infrastruktur" />
		<tag k="ssr:stedsnr" v="475368" />
		<tag k="ssr:type" v="adressenavn" />
	</node>
	<node lat="60.48657785782517" lon="11.072115035142584" id="-30495">
		<tag k="name" v="Melbyvegen" />
		<tag k="ssr:date" v="2019-12-27" />
		<tag k="ssr:gruppe" v="veg" />
		<tag k="ssr:hovedgruppe" v="infrastruktur" />
		<tag k="ssr:stedsnr" v="475369" />
		<tag k="ssr:type" v="adressenavn" />
	</node>
	<node lat="60.45176944897985" lon="10.754302775891531" id="-30497">
		<tag k="name" v="Skåbakkvegen" />
		<tag k="ssr:date" v="2019-12-27" />
		<tag k="ssr:gruppe" v="veg" />
		<tag k="ssr:hovedgruppe" v="infrastruktur" />
		<tag k="ssr:stedsnr" v="666463" />
		<tag k="ssr:type" v="vegstrekning" />
	</node>
	<node lat="60.37872396046263" lon="11.074355965380265" id="-30526">
		<tag k="name" v="Haugnesvegen" />
		<tag k="ssr:date" v="2019-12-27" />
		<tag k="ssr:gruppe" v="veg" />
		<tag k="ssr:hovedgruppe" v="infrastruktur" />
		<tag k="ssr:stedsnr" v="520826" />
		<tag k="ssr:type" v="adressenavn" />
	</node>
	<node lat="60.48720264758739" lon="10.992774895016508" id="-30527">
		<tag k="name" v="Rognlivegen" />
		<tag k="ssr:date" v="2019-12-27" />
		<tag k="ssr:gruppe" v="veg" />
		<tag k="ssr:hovedgruppe" v="infrastruktur" />
		<tag k="ssr:stedsnr" v="521802" />
		<tag k="ssr:type" v="adressenavn" />
	</node>
	<node lat="60.432149997554454" lon="10.814497229425424" id="-30540">
		<tag k="name" v="Fuglåsvegen" />
		<tag k="ssr:date" v="2019-12-27" />
		<tag k="ssr:gruppe" v="veg" />
		<tag k="ssr:hovedgruppe" v="infrastruktur" />
		<tag k="ssr:stedsnr" v="527236" />
		<tag k="ssr:type" v="vegstrekning" />
	</node>
	<node lat="60.431872218745696" lon="10.987502772554228" id="-30573">
		<tag k="name" v="Stormyrvegen" />
		<tag k="ssr:date" v="2019-12-27" />
		<tag k="ssr:gruppe" v="veg" />
		<tag k="ssr:hovedgruppe" v="infrastruktur" />
		<tag k="ssr:stedsnr" v="586106" />
		<tag k="ssr:type" v="vegstrekning" />
	</node>
	<node lat="60.36187936684385" lon="10.937072660238682" id="-30576">
		<tag k="name" v="Øyangsvegen" />
		<tag k="ssr:date" v="2019-12-27" />
		<tag k="ssr:gruppe" v="veg" />
		<tag k="ssr:hovedgruppe" v="infrastruktur" />
		<tag k="ssr:stedsnr" v="586528" />
		<tag k="ssr:type" v="adressenavn" />
	</node>
	<node lat="60.44073888503963" lon="10.98680832872441" id="-30581">
		<tag k="name" v="Jodalsvegen" />
		<tag k="ssr:date" v="2019-12-27" />
		<tag k="ssr:gruppe" v="veg" />
		<tag k="ssr:hovedgruppe" v="infrastruktur" />
		<tag k="ssr:stedsnr" v="587709" />
		<tag k="ssr:type" v="vegstrekning" />
	</node>
	<node lat="60.467717963126866" lon="11.087865456895429" id="-30586">
		<tag k="name" v="Ekralia" />
		<tag k="ssr:date" v="2019-12-27" />
		<tag k="ssr:gruppe" v="veg" />
		<tag k="ssr:hovedgruppe" v="infrastruktur" />
		<tag k="ssr:stedsnr" v="590210" />
		<tag k="ssr:type" v="adressenavn" />
	</node>
	<node lat="60.4806692546003" lon="11.022860654766205" id="-30587">
		<tag k="name" v="Lysgardslia" />
		<tag k="ssr:date" v="2019-12-27" />
		<tag k="ssr:gruppe" v="veg" />
		<tag k="ssr:hovedgruppe" v="infrastruktur" />
		<tag k="ssr:stedsnr" v="596210" />
		<tag k="ssr:type" v="adressenavn" />
	</node>
	<node lat="60.428127613068916" lon="11.066468479913057" id="-30588">
		<tag k="name" v="Tunvegen" />
		<tag k="ssr:date" v="2019-12-27" />
		<tag k="ssr:gruppe" v="veg" />
		<tag k="ssr:hovedgruppe" v="infrastruktur" />
		<tag k="ssr:stedsnr" v="597230" />
		<tag k="ssr:type" v="adressenavn" />
	</node>
	<node lat="60.41434344738445" lon="11.032461004042498" id="-30589">
		<tag k="name" v="Klokkerstigen" />
		<tag k="ssr:date" v="2019-12-27" />
		<tag k="ssr:gruppe" v="veg" />
		<tag k="ssr:hovedgruppe" v="infrastruktur" />
		<tag k="ssr:stedsnr" v="597259" />
		<tag k="ssr:type" v="adressenavn" />
	</node>
	<node lat="60.44132777507263" lon="10.840763894467702" id="-30595">
		<tag k="name" v="Kulpevegen" />
		<tag k="ssr:date" v="2019-12-27" />
		<tag k="ssr:gruppe" v="veg" />
		<tag k="ssr:hovedgruppe" v="infrastruktur" />
		<tag k="ssr:stedsnr" v="605419" />
		<tag k="ssr:type" v="vegstrekning" />
	</node>
	<node lat="60.35476246987371" lon="11.073631816222345" id="-30603">
		<tag k="name" v="Bogvegen" />
		<tag k="ssr:date" v="2019-12-27" />
		<tag k="ssr:gruppe" v="veg" />
		<tag k="ssr:hovedgruppe" v="infrastruktur" />
		<tag k="ssr:stedsnr" v="641783" />
		<tag k="ssr:type" v="adressenavn" />
	</node>
	<node lat="60.40900715271848" lon="11.053067948472995" id="-30604">
		<tag k="name" v="Skrukkelivegen" />
		<tag k="ssr:date" v="2019-12-27" />
		<tag k="ssr:gruppe" v="veg" />
		<tag k="ssr:hovedgruppe" v="infrastruktur" />
		<tag k="ssr:stedsnr" v="642708" />
		<tag k="ssr:type" v="adressenavn" />
	</node>
	<node lat="60.37721897309548" lon="11.00207442221208" id="-30606">
		<tag k="name" v="Rudssætervegen" />
		<tag k="ssr:date" v="2019-12-27" />
		<tag k="ssr:gruppe" v="veg" />
		<tag k="ssr:hovedgruppe" v="infrastruktur" />
		<tag k="ssr:stedsnr" v="646492" />
		<tag k="ssr:type" v="adressenavn" />
	</node>
	<node lat="60.43396944254664" lon="10.935349992245873" id="-30611">
		<tag k="name" v="Tørkhusvegen" />
		<tag k="ssr:date" v="2019-12-27" />
		<tag k="ssr:gruppe" v="veg" />
		<tag k="ssr:hovedgruppe" v="infrastruktur" />
		<tag k="ssr:stedsnr" v="648215" />
		<tag k="ssr:type" v="vegstrekning" />
	</node>
	<node lat="60.49035555167032" lon="11.066391668257776" id="-30657">
		<tag k="name" v="Skjellegardsvegen" />
		<tag k="ssr:date" v="2019-12-27" />
		<tag k="ssr:gruppe" v="veg" />
		<tag k="ssr:hovedgruppe" v="infrastruktur" />
		<tag k="ssr:stedsnr" v="707512" />
		<tag k="ssr:type" v="adressenavn" />
	</node>
	<node lat="60.35666388711686" lon="10.958883332315885" id="-30669">
		<tag k="name" v="Steinmyrvegen" />
		<tag k="ssr:date" v="2019-12-27" />
		<tag k="ssr:gruppe" v="veg" />
		<tag k="ssr:hovedgruppe" v="infrastruktur" />
		<tag k="ssr:stedsnr" v="709519" />
		<tag k="ssr:type" v="vegstrekning" />
	</node>
	<node lat="60.44504068084116" lon="10.96434120046853" id="-30694">
		<tag k="name" v="Geitryggvegen" />
		<tag k="ssr:date" v="2019-12-27" />
		<tag k="ssr:gruppe" v="veg" />
		<tag k="ssr:hovedgruppe" v="infrastruktur" />
		<tag k="ssr:stedsnr" v="891748" />
		<tag k="ssr:type" v="adressenavn" />
	</node>
	<node lat="60.338536129208684" lon="11.101793443841197" id="-30710">
		<tag k="name" v="Østsidevegen" />
		<tag k="ssr:date" v="2019-12-27" />
		<tag k="ssr:gruppe" v="veg" />
		<tag k="ssr:hovedgruppe" v="infrastruktur" />
		<tag k="ssr:stedsnr" v="763715" />
		<tag k="ssr:type" v="adressenavn" />
	</node>
	<node lat="60.416716052677096" lon="11.04046326085012" id="-30711">
		<tag k="name" v="Buråsvegen" />
		<tag k="ssr:date" v="2019-12-27" />
		<tag k="ssr:gruppe" v="veg" />
		<tag k="ssr:hovedgruppe" v="infrastruktur" />
		<tag k="ssr:stedsnr" v="764816" />
		<tag k="ssr:type" v="adressenavn" />
	</node>
	<node lat="60.43277227938686" lon="11.079238866741743" id="-30712">
		<tag k="name" v="Bergslåttvegen" />
		<tag k="ssr:date" v="2019-12-27" />
		<tag k="ssr:gruppe" v="veg" />
		<tag k="ssr:hovedgruppe" v="infrastruktur" />
		<tag k="ssr:stedsnr" v="768498" />
		<tag k="ssr:type" v="adressenavn" />
	</node>
	<node lat="60.48976962237974" lon="10.756236620646174" id="-30729">
		<tag k="name" v="Rognholvegen" />
		<tag k="ssr:date" v="2019-12-27" />
		<tag k="ssr:gruppe" v="veg" />
		<tag k="ssr:hovedgruppe" v="infrastruktur" />
		<tag k="ssr:stedsnr" v="770624" />
		<tag k="ssr:type" v="adressenavn" />
	</node>
	<node lat="60.411666665936416" lon="10.939291669888483" id="-30735">
		<tag k="name" v="Breimyrvegen" />
		<tag k="ssr:date" v="2019-12-27" />
		<tag k="ssr:gruppe" v="veg" />
		<tag k="ssr:hovedgruppe" v="infrastruktur" />
		<tag k="ssr:stedsnr" v="770829" />
		<tag k="ssr:type" v="vegstrekning" />
	</node>
	<node lat="60.36349541312221" lon="10.993570326150145" id="-30736">
		<tag k="name" v="Gamle Jeppedalsvegen" />
		<tag k="ssr:date" v="2019-12-27" />
		<tag k="ssr:gruppe" v="veg" />
		<tag k="ssr:hovedgruppe" v="infrastruktur" />
		<tag k="ssr:stedsnr" v="779203" />
		<tag k="ssr:type" v="adressenavn" />
	</node>
	<node lat="60.40318066930827" lon="11.044223465367597" id="-30737">
		<tag k="name" v="Lundbybakkevegen" />
		<tag k="ssr:date" v="2019-12-27" />
		<tag k="ssr:gruppe" v="veg" />
		<tag k="ssr:hovedgruppe" v="infrastruktur" />
		<tag k="ssr:stedsnr" v="900239" />
		<tag k="ssr:type" v="adressenavn" />
	</node>
	<node lat="60.35118393612085" lon="11.011506122369424" id="-30740">
		<tag k="name" v="Furuvegen" />
		<tag k="ssr:date" v="2019-12-27" />
		<tag k="ssr:gruppe" v="veg" />
		<tag k="ssr:hovedgruppe" v="infrastruktur" />
		<tag k="ssr:stedsnr" v="900261" />
		<tag k="ssr:type" v="adressenavn" />
	</node>
	<node lat="60.452333332065486" lon="10.795622224012288" id="-30747">
		<tag k="name" v="Gamlevollvegen" />
		<tag k="ssr:date" v="2019-12-27" />
		<tag k="ssr:gruppe" v="veg" />
		<tag k="ssr:hovedgruppe" v="infrastruktur" />
		<tag k="ssr:stedsnr" v="787427" />
		<tag k="ssr:type" v="vegstrekning" />
	</node>
	<node lat="60.435362870850845" lon="11.0658457623307" id="-30752">
		<tag k="name" v="Torget" />
		<tag k="ssr:date" v="2019-12-27" />
		<tag k="ssr:gruppe" v="veg" />
		<tag k="ssr:hovedgruppe" v="infrastruktur" />
		<tag k="ssr:stedsnr" v="901344" />
		<tag k="ssr:type" v="adressenavn" />
	</node>
	<node lat="60.475436107546614" lon="10.842058337360829" id="-30775">
		<tag k="name" v="Finnvollvegen" />
		<tag k="ssr:date" v="2019-12-27" />
		<tag k="ssr:gruppe" v="veg" />
		<tag k="ssr:hovedgruppe" v="infrastruktur" />
		<tag k="ssr:stedsnr" v="907792" />
		<tag k="ssr:type" v="vegstrekning" />
	</node>
	<node lat="60.48397778073612" lon="10.967866666500425" id="-30777">
		<tag k="name" v="Snultravegen" />
		<tag k="ssr:date" v="2019-12-27" />
		<tag k="ssr:gruppe" v="veg" />
		<tag k="ssr:hovedgruppe" v="infrastruktur" />
		<tag k="ssr:stedsnr" v="907847" />
		<tag k="ssr:type" v="vegstrekning" />
	</node>
	<node lat="60.39148161367286" lon="11.07815305577399" id="-30779">
		<tag k="name" v="Sandsbråtan" />
		<tag k="ssr:date" v="2019-12-27" />
		<tag k="ssr:gruppe" v="veg" />
		<tag k="ssr:hovedgruppe" v="infrastruktur" />
		<tag k="ssr:stedsnr" v="908682" />
		<tag k="ssr:type" v="adressenavn" />
	</node>
	<node lat="60.45362007443879" lon="10.894489076989478" id="-30795">
		<tag k="name" v="Trollilavegen" />
		<tag k="ssr:date" v="2019-12-27" />
		<tag k="ssr:gruppe" v="veg" />
		<tag k="ssr:hovedgruppe" v="infrastruktur" />
		<tag k="ssr:stedsnr" v="831603" />
		<tag k="ssr:type" v="adressenavn" />
	</node>
	<node lat="60.4808745156287" lon="10.717035276188543" id="-30796">
		<tag k="name" v="Damhaugvegen" />
		<tag k="ssr:date" v="2019-12-27" />
		<tag k="ssr:gruppe" v="veg" />
		<tag k="ssr:hovedgruppe" v="infrastruktur" />
		<tag k="ssr:stedsnr" v="831610" />
		<tag k="ssr:type" v="adressenavn" />
	</node>
	<node lat="60.44739742913227" lon="11.033412597270246" id="-30798">
		<tag k="name" v="Slåttbråtavegen" />
		<tag k="ssr:date" v="2019-12-27" />
		<tag k="ssr:gruppe" v="veg" />
		<tag k="ssr:hovedgruppe" v="infrastruktur" />
		<tag k="ssr:stedsnr" v="831600" />
		<tag k="ssr:type" v="adressenavn" />
	</node>
	<node lat="60.42157303892641" lon="10.917708674881336" id="-30799">
		<tag k="name" v="Grasbakkvegen" />
		<tag k="ssr:date" v="2019-12-27" />
		<tag k="ssr:gruppe" v="veg" />
		<tag k="ssr:hovedgruppe" v="infrastruktur" />
		<tag k="ssr:stedsnr" v="831602" />
		<tag k="ssr:type" v="adressenavn" />
	</node>
	<node lat="60.46231388894669" lon="11.096330547630659" id="-30803">
		<tag k="name" v="Tisjøvegen" />
		<tag k="ssr:date" v="2019-12-27" />
		<tag k="ssr:gruppe" v="veg" />
		<tag k="ssr:hovedgruppe" v="infrastruktur" />
		<tag k="ssr:stedsnr" v="831998" />
		<tag k="ssr:type" v="vegstrekning" />
	</node>
	<node lat="60.43521892061749" lon="11.06489914250494" id="-30805">
		<tag k="name" v="Glassverkvegen" />
		<tag k="ssr:date" v="2019-12-27" />
		<tag k="ssr:gruppe" v="veg" />
		<tag k="ssr:hovedgruppe" v="infrastruktur" />
		<tag k="ssr:stedsnr" v="840210" />
		<tag k="ssr:type" v="adressenavn" />
	</node>
	<node lat="60.41514234814172" lon="11.009910970662817" id="-30806">
		<tag k="name" v="Kabberudvegen" />
		<tag k="ssr:date" v="2019-12-27" />
		<tag k="ssr:gruppe" v="veg" />
		<tag k="ssr:hovedgruppe" v="infrastruktur" />
		<tag k="ssr:stedsnr" v="840214" />
		<tag k="ssr:type" v="adressenavn" />
	</node>
	<node lat="60.49125353681891" lon="11.008933301262633" id="-30807">
		<tag k="name" v="Amundalsvegen" />
		<tag k="ssr:date" v="2019-12-27" />
		<tag k="ssr:gruppe" v="veg" />
		<tag k="ssr:hovedgruppe" v="infrastruktur" />
		<tag k="ssr:stedsnr" v="840217" />
		<tag k="ssr:type" v="adressenavn" />
	</node>
	<node lat="60.415513466429665" lon="11.030336797197522" id="-30808">
		<tag k="name" v="Movegen" />
		<tag k="ssr:date" v="2019-12-27" />
		<tag k="ssr:gruppe" v="veg" />
		<tag k="ssr:hovedgruppe" v="infrastruktur" />
		<tag k="ssr:stedsnr" v="840238" />
		<tag k="ssr:type" v="adressenavn" />
	</node>
	<node lat="60.44078789679922" lon="11.056332820933603" id="-30809">
		<tag k="name" v="Smedvegen" />
		<tag k="ssr:date" v="2019-12-27" />
		<tag k="ssr:gruppe" v="veg" />
		<tag k="ssr:hovedgruppe" v="infrastruktur" />
		<tag k="ssr:stedsnr" v="840240" />
		<tag k="ssr:type" v="adressenavn" />
	</node>
	<node lat="60.44993513196548" lon="10.8208344252486" id="-30847">
		<tag k="name" v="Osttjennsvegen" />
		<tag k="ssr:date" v="2019-12-27" />
		<tag k="ssr:gruppe" v="veg" />
		<tag k="ssr:hovedgruppe" v="infrastruktur" />
		<tag k="ssr:stedsnr" v="885749" />
		<tag k="ssr:type" v="adressenavn" />
	</node>
	<node lat="60.364597224229584" lon="10.938397231336397" id="-30848">
		<tag k="name" v="Gamle Jeppedalsvegen" />
		<tag k="ssr:date" v="2019-12-27" />
		<tag k="ssr:gruppe" v="veg" />
		<tag k="ssr:hovedgruppe" v="infrastruktur" />
		<tag k="ssr:stedsnr" v="889749" />
		<tag k="ssr:type" v="vegstrekning" />
	</node>
	<node lat="60.41390161583416" lon="11.03268756531797" id="-30858">
		<tag k="name" v="Hvilegutua" />
		<tag k="ssr:date" v="2019-12-27" />
		<tag k="ssr:gruppe" v="veg" />
		<tag k="ssr:hovedgruppe" v="infrastruktur" />
		<tag k="ssr:stedsnr" v="892709" />
		<tag k="ssr:type" v="adressenavn" />
	</node>
	<node lat="60.43518055751617" lon="11.067066661248075" id="-30883">
		<tag k="name" v="Hurdal kommune" />
		<tag k="ssr:date" v="2019-12-27" />
		<tag k="ssr:gruppe" v="administrativeIndelinger" />
		<tag k="ssr:hovedgruppe" v="offentligAdministrasjon" />
		<tag k="ssr:stedsnr" v="934988" />
		<tag k="ssr:type" v="kommune" />
	</node>
	<node lat="60.45711842090955" lon="10.799721352947037" id="-30885">
		<tag k="name" v="Driftsleder E. Lundbergs veg" />
		<tag k="ssr:date" v="2019-12-27" />
		<tag k="ssr:gruppe" v="veg" />
		<tag k="ssr:hovedgruppe" v="infrastruktur" />
		<tag k="ssr:stedsnr" v="950497" />
		<tag k="ssr:type" v="adressenavn" />
	</node>
	<node lat="60.443216666528144" lon="10.985124994017982" id="-30898">
		<tag k="name" v="Dalavegen" />
		<tag k="ssr:date" v="2019-12-27" />
		<tag k="ssr:gruppe" v="veg" />
		<tag k="ssr:hovedgruppe" v="infrastruktur" />
		<tag k="ssr:stedsnr" v="952655" />
		<tag k="ssr:type" v="vegstrekning" />
	</node>
	<node lat="60.41524041976358" lon="11.018506105250042" id="-30900">
		<tag k="name" v="Silvifuturumvegen" />
		<tag k="ssr:date" v="2019-12-27" />
		<tag k="ssr:gruppe" v="veg" />
		<tag k="ssr:hovedgruppe" v="infrastruktur" />
		<tag k="ssr:stedsnr" v="952694" />
		<tag k="ssr:type" v="adressenavn" />
	</node>
	<node lat="60.438200362277" lon="11.065220319981679" id="-30906">
		<tag k="name" v="Lensmannsvegen" />
		<tag k="ssr:date" v="2019-12-27" />
		<tag k="ssr:gruppe" v="veg" />
		<tag k="ssr:hovedgruppe" v="infrastruktur" />
		<tag k="ssr:stedsnr" v="961206" />
		<tag k="ssr:type" v="adressenavn" />
	</node>
	<node lat="60.43141130796837" lon="11.094145115971543" id="-30915">
		<tag k="name" v="Vindfallavegen" />
		<tag k="ssr:date" v="2019-12-27" />
		<tag k="ssr:gruppe" v="veg" />
		<tag k="ssr:hovedgruppe" v="infrastruktur" />
		<tag k="ssr:stedsnr" v="969075" />
		<tag k="ssr:type" v="adressenavn" />
	</node>
	<node lat="60.43172241670132" lon="11.074592558908213" id="-30917">
		<tag k="name" v="Andersstubben" />
		<tag k="ssr:date" v="2019-12-27" />
		<tag k="ssr:gruppe" v="veg" />
		<tag k="ssr:hovedgruppe" v="infrastruktur" />
		<tag k="ssr:stedsnr" v="976594" />
		<tag k="ssr:type" v="adressenavn" />
	</node>
	<node lat="60.4161055599255" lon="10.959225001889385" id="-30941">
		<tag k="name" v="Lundbylivegen" />
		<tag k="ssr:date" v="2019-12-27" />
		<tag k="ssr:gruppe" v="veg" />
		<tag k="ssr:hovedgruppe" v="infrastruktur" />
		<tag k="ssr:stedsnr" v="42199" />
		<tag k="ssr:type" v="vegstrekning" />
	</node>
	<node lat="60.40551389046675" lon="10.963708342187246" id="-30947">
		<tag k="name" v="Breimyrvegen" />
		<tag k="ssr:date" v="2019-12-27" />
		<tag k="ssr:gruppe" v="veg" />
		<tag k="ssr:hovedgruppe" v="infrastruktur" />
		<tag k="ssr:stedsnr" v="42837" />
		<tag k="ssr:type" v="vegstrekning" />
	</node>
	<node lat="60.4486649151896" lon="11.048916623945447" id="-30951">
		<tag k="name" v="Hurdal verk" />
		<tag k="ssr:date" v="2019-12-27" />
		<tag k="ssr:gruppe" v="veg" />
		<tag k="ssr:hovedgruppe" v="infrastruktur" />
		<tag k="ssr:stedsnr" v="51230" />
		<tag k="ssr:type" v="adressenavn" />
	</node>
	<node lat="60.49408007709441" lon="10.999163265085443" id="-30952">
		<tag k="name" v="Ospekollen" />
		<tag k="ssr:date" v="2019-12-27" />
		<tag k="ssr:gruppe" v="veg" />
		<tag k="ssr:hovedgruppe" v="infrastruktur" />
		<tag k="ssr:stedsnr" v="51246" />
		<tag k="ssr:type" v="adressenavn" />
	</node>
	<node lat="60.47361786742902" lon="10.834373909894444" id="-30960">
		<tag k="name" v="Fløytemyrvegen" />
		<tag k="ssr:date" v="2019-12-27" />
		<tag k="ssr:gruppe" v="veg" />
		<tag k="ssr:hovedgruppe" v="infrastruktur" />
		<tag k="ssr:stedsnr" v="59653" />
		<tag k="ssr:type" v="adressenavn" />
	</node>
	<node lat="60.34508339083672" lon="11.014561218410902" id="-30980">
		<tag k="name" v="Grensevegen" />
		<tag k="ssr:date" v="2019-12-27" />
		<tag k="ssr:gruppe" v="veg" />
		<tag k="ssr:hovedgruppe" v="infrastruktur" />
		<tag k="ssr:stedsnr" v="96775" />
		<tag k="ssr:type" v="adressenavn" />
	</node>
	<node lat="60.47252759757537" lon="11.020585946514936" id="-30981">
		<tag k="name" v="Nordlisvegen" />
		<tag k="ssr:date" v="2019-12-27" />
		<tag k="ssr:gruppe" v="veg" />
		<tag k="ssr:hovedgruppe" v="infrastruktur" />
		<tag k="ssr:stedsnr" v="96796" />
		<tag k="ssr:type" v="adressenavn" />
	</node>
	<node lat="60.4486649151896" lon="11.048916623945447" id="-30982">
		<tag k="name" v="Høversjøvegen" />
		<tag k="ssr:date" v="2019-12-27" />
		<tag k="ssr:gruppe" v="veg" />
		<tag k="ssr:hovedgruppe" v="infrastruktur" />
		<tag k="ssr:stedsnr" v="96516" />
		<tag k="ssr:type" v="adressenavn" />
	</node>
	<node lat="60.36632499979934" lon="10.965863882087504" id="-30995">
		<tag k="name" v="Heggetjernsvegen" />
		<tag k="ssr:date" v="2019-12-27" />
		<tag k="ssr:gruppe" v="veg" />
		<tag k="ssr:hovedgruppe" v="infrastruktur" />
		<tag k="ssr:stedsnr" v="103554" />
		<tag k="ssr:type" v="vegstrekning" />
	</node>
	<node lat="60.41846827849272" lon="10.938312790802764" id="-30998">
		<tag k="name" v="Sollivegen" />
		<tag k="ssr:date" v="2019-12-27" />
		<tag k="ssr:gruppe" v="veg" />
		<tag k="ssr:hovedgruppe" v="infrastruktur" />
		<tag k="ssr:stedsnr" v="103646" />
		<tag k="ssr:type" v="adressenavn" />
	</node>
	<node lat="60.41564119230717" lon="11.024740086527402" id="-30999">
		<tag k="name" v="Gamle Skrukkelivegen" />
		<tag k="ssr:date" v="2019-12-27" />
		<tag k="ssr:gruppe" v="veg" />
		<tag k="ssr:hovedgruppe" v="infrastruktur" />
		<tag k="ssr:stedsnr" v="103647" />
		<tag k="ssr:type" v="adressenavn" />
	</node>
	<node lat="60.41578888084465" lon="11.059858357000245" id="-31004">
		<tag k="name" v="Elgfaret" />
		<tag k="ssr:date" v="2019-12-27" />
		<tag k="ssr:gruppe" v="veg" />
		<tag k="ssr:hovedgruppe" v="infrastruktur" />
		<tag k="ssr:stedsnr" v="112240" />
		<tag k="ssr:type" v="adressenavn" />
	</node>
	<node lat="60.41540028487264" lon="11.058818353769535" id="-31005">
		<tag k="name" v="Harasporet" />
		<tag k="ssr:date" v="2019-12-27" />
		<tag k="ssr:gruppe" v="veg" />
		<tag k="ssr:hovedgruppe" v="infrastruktur" />
		<tag k="ssr:stedsnr" v="112241" />
		<tag k="ssr:type" v="adressenavn" />
	</node>
	<node lat="60.43754646011342" lon="11.06438121407205" id="-31006">
		<tag k="name" v="Badstuvegen" />
		<tag k="ssr:date" v="2019-12-27" />
		<tag k="ssr:gruppe" v="veg" />
		<tag k="ssr:hovedgruppe" v="infrastruktur" />
		<tag k="ssr:stedsnr" v="112243" />
		<tag k="ssr:type" v="adressenavn" />
	</node>
	<node lat="60.435027847568726" lon="10.884140332999394" id="-31040">
		<tag k="name" v="Svartungsvegen" />
		<tag k="ssr:date" v="2019-12-27" />
		<tag k="ssr:gruppe" v="veg" />
		<tag k="ssr:hovedgruppe" v="infrastruktur" />
		<tag k="ssr:stedsnr" v="157767" />
		<tag k="ssr:type" v="adressenavn" />
	</node>
	<node lat="60.346824404641104" lon="10.99872327124919" id="-31044">
		<tag k="name" v="Elvevegen" />
		<tag k="ssr:date" v="2019-12-27" />
		<tag k="ssr:gruppe" v="veg" />
		<tag k="ssr:hovedgruppe" v="infrastruktur" />
		<tag k="ssr:stedsnr" v="161834" />
		<tag k="ssr:type" v="adressenavn" />
	</node>
	<node lat="60.482013890196406" lon="10.991280554126483" id="-31048">
		<tag k="name" v="Lismarkvegen" />
		<tag k="ssr:date" v="2019-12-27" />
		<tag k="ssr:gruppe" v="veg" />
		<tag k="ssr:hovedgruppe" v="infrastruktur" />
		<tag k="ssr:stedsnr" v="163050" />
		<tag k="ssr:type" v="vegstrekning" />
	</node>
	<node lat="60.50934999686249" lon="11.072283336181469" id="-31054">
		<tag k="name" v="Steinsjødamvegen" />
		<tag k="ssr:date" v="2019-12-27" />
		<tag k="ssr:gruppe" v="veg" />
		<tag k="ssr:hovedgruppe" v="infrastruktur" />
		<tag k="ssr:stedsnr" v="163126" />
		<tag k="ssr:type" v="vegstrekning" />
	</node>
	<node lat="60.4105369927008" lon="11.050805047224962" id="-31059">
		<tag k="name" v="Landsbyvegen" />
		<tag k="ssr:date" v="2019-12-27" />
		<tag k="ssr:gruppe" v="veg" />
		<tag k="ssr:hovedgruppe" v="infrastruktur" />
		<tag k="ssr:stedsnr" v="163632" />
		<tag k="ssr:type" v="adressenavn" />
	</node>
	<node lat="60.402397190414305" lon="11.080152261234298" id="-31068">
		<tag k="name" v="Dalsætervegen" />
		<tag k="ssr:date" v="2019-12-27" />
		<tag k="ssr:gruppe" v="veg" />
		<tag k="ssr:hovedgruppe" v="infrastruktur" />
		<tag k="ssr:stedsnr" v="172361" />
		<tag k="ssr:type" v="adressenavn" />
	</node>
	<node lat="60.438826993622285" lon="11.061575278900358" id="-31069">
		<tag k="name" v="Vegvoktersvingen" />
		<tag k="ssr:date" v="2019-12-27" />
		<tag k="ssr:gruppe" v="veg" />
		<tag k="ssr:hovedgruppe" v="infrastruktur" />
		<tag k="ssr:stedsnr" v="172246" />
		<tag k="ssr:type" v="adressenavn" />
	</node>
	<node lat="60.429155552045195" lon="11.097883324637428" id="-31070">
		<tag k="name" v="Vindfallvegen" />
		<tag k="ssr:date" v="2019-12-27" />
		<tag k="ssr:gruppe" v="veg" />
		<tag k="ssr:hovedgruppe" v="infrastruktur" />
		<tag k="ssr:stedsnr" v="176400" />
		<tag k="ssr:type" v="vegstrekning" />
	</node>
	<node lat="60.45793347464377" lon="10.73486709399" id="-31083">
		<tag k="name" v="Fallvegen" />
		<tag k="ssr:date" v="2019-12-27" />
		<tag k="ssr:gruppe" v="veg" />
		<tag k="ssr:hovedgruppe" v="infrastruktur" />
		<tag k="ssr:stedsnr" v="181442" />
		<tag k="ssr:type" v="adressenavn" />
	</node>
	<node lat="60.46299302583357" lon="11.045357996706558" id="-31100">
		<tag k="name" v="Steinsjøvegen" />
		<tag k="ssr:date" v="2019-12-27" />
		<tag k="ssr:gruppe" v="veg" />
		<tag k="ssr:hovedgruppe" v="infrastruktur" />
		<tag k="ssr:stedsnr" v="278778" />
		<tag k="ssr:type" v="adressenavn" />
	</node>
	<node lat="60.41944191437933" lon="10.971275023485777" id="-31101">
		<tag k="name" v="Brattlivegen" />
		<tag k="ssr:date" v="2019-12-27" />
		<tag k="ssr:gruppe" v="veg" />
		<tag k="ssr:hovedgruppe" v="infrastruktur" />
		<tag k="ssr:stedsnr" v="278780" />
		<tag k="ssr:type" v="adressenavn" />
	</node>
	<node lat="60.45790246140227" lon="11.058733611558713" id="-31102">
		<tag k="name" v="Ødemarksvegen" />
		<tag k="ssr:date" v="2019-12-27" />
		<tag k="ssr:gruppe" v="veg" />
		<tag k="ssr:hovedgruppe" v="infrastruktur" />
		<tag k="ssr:stedsnr" v="278817" />
		<tag k="ssr:type" v="adressenavn" />
	</node>
	<node lat="60.465267847861824" lon="11.06056732193556" id="-31103">
		<tag k="name" v="Sæteråsvegen" />
		<tag k="ssr:date" v="2019-12-27" />
		<tag k="ssr:gruppe" v="veg" />
		<tag k="ssr:hovedgruppe" v="infrastruktur" />
		<tag k="ssr:stedsnr" v="278819" />
		<tag k="ssr:type" v="adressenavn" />
	</node>
	<node lat="60.44667308229162" lon="10.749411404054873" id="-31104">
		<tag k="name" v="Gransstuvegen" />
		<tag k="ssr:date" v="2019-12-27" />
		<tag k="ssr:gruppe" v="veg" />
		<tag k="ssr:hovedgruppe" v="infrastruktur" />
		<tag k="ssr:stedsnr" v="283455" />
		<tag k="ssr:type" v="adressenavn" />
	</node>
	<node lat="60.4478944446133" lon="10.824991663171826" id="-31105">
		<tag k="name" v="Lisæterkulpvegen" />
		<tag k="ssr:date" v="2019-12-27" />
		<tag k="ssr:gruppe" v="veg" />
		<tag k="ssr:hovedgruppe" v="infrastruktur" />
		<tag k="ssr:stedsnr" v="283468" />
		<tag k="ssr:type" v="adressenavn" />
	</node>
	<node lat="60.445055172705715" lon="11.024750041410202" id="-31122">
		<tag k="name" v="Haugvegen" />
		<tag k="ssr:date" v="2019-12-27" />
		<tag k="ssr:gruppe" v="veg" />
		<tag k="ssr:hovedgruppe" v="infrastruktur" />
		<tag k="ssr:stedsnr" v="285637" />
		<tag k="ssr:type" v="adressenavn" />
	</node>
	<node lat="60.36811067576597" lon="10.994905407386659" id="-31130">
		<tag k="name" v="Tajebråtan" />
		<tag k="ssr:date" v="2019-12-27" />
		<tag k="ssr:gruppe" v="veg" />
		<tag k="ssr:hovedgruppe" v="infrastruktur" />
		<tag k="ssr:stedsnr" v="293256" />
		<tag k="ssr:type" v="adressenavn" />
	</node>
	<node lat="60.39877382161991" lon="11.078424642099689" id="-31131">
		<tag k="name" v="Fautbråtavegen" />
		<tag k="ssr:date" v="2019-12-27" />
		<tag k="ssr:gruppe" v="veg" />
		<tag k="ssr:hovedgruppe" v="infrastruktur" />
		<tag k="ssr:stedsnr" v="294355" />
		<tag k="ssr:type" v="adressenavn" />
	</node>
	<node lat="60.43343262717915" lon="11.075450782377994" id="-31132">
		<tag k="name" v="Brustadlia" />
		<tag k="ssr:date" v="2019-12-27" />
		<tag k="ssr:gruppe" v="veg" />
		<tag k="ssr:hovedgruppe" v="infrastruktur" />
		<tag k="ssr:stedsnr" v="294358" />
		<tag k="ssr:type" v="adressenavn" />
	</node>
	<node lat="60.45470004516875" lon="11.063806118630959" id="-31143">
		<tag k="name" v="Karinastuvegen" />
		<tag k="ssr:date" v="2019-12-27" />
		<tag k="ssr:gruppe" v="veg" />
		<tag k="ssr:hovedgruppe" v="infrastruktur" />
		<tag k="ssr:stedsnr" v="301646" />
		<tag k="ssr:type" v="adressenavn" />
	</node>
	<node lat="60.447053465319186" lon="11.043149652505893" id="-31166">
		<tag k="name" v="Hallsteinbakkvegen" />
		<tag k="ssr:date" v="2019-12-27" />
		<tag k="ssr:gruppe" v="veg" />
		<tag k="ssr:hovedgruppe" v="infrastruktur" />
		<tag k="ssr:stedsnr" v="339779" />
		<tag k="ssr:type" v="adressenavn" />
	</node>
	<node lat="60.45355872961297" lon="11.064657506686778" id="-31167">
		<tag k="name" v="Tømtevegen" />
		<tag k="ssr:date" v="2019-12-27" />
		<tag k="ssr:gruppe" v="veg" />
		<tag k="ssr:hovedgruppe" v="infrastruktur" />
		<tag k="ssr:stedsnr" v="339790" />
		<tag k="ssr:type" v="adressenavn" />
	</node>
	<node lat="60.34791029829203" lon="11.00571839843877" id="-31168">
		<tag k="name" v="Jeppedalsvegen" />
		<tag k="ssr:date" v="2019-12-27" />
		<tag k="ssr:gruppe" v="veg" />
		<tag k="ssr:hovedgruppe" v="infrastruktur" />
		<tag k="ssr:stedsnr" v="339748" />
		<tag k="ssr:type" v="adressenavn" />
	</node>
	<node lat="60.41262500368791" lon="10.956563894871351" id="-31171">
		<tag k="name" v="Knaisætra" />
		<tag k="ssr:date" v="2019-12-27" />
		<tag k="ssr:gruppe" v="veg" />
		<tag k="ssr:hovedgruppe" v="infrastruktur" />
		<tag k="ssr:stedsnr" v="343478" />
		<tag k="ssr:type" v="adressenavn" />
	</node>
	<node lat="60.38437535086042" lon="11.128728228112477" id="-31172">
		<tag k="name" v="Lorthølsvegen" />
		<tag k="ssr:date" v="2019-12-27" />
		<tag k="ssr:gruppe" v="veg" />
		<tag k="ssr:hovedgruppe" v="infrastruktur" />
		<tag k="ssr:stedsnr" v="343486" />
		<tag k="ssr:type" v="adressenavn" />
	</node>
	<node lat="60.47200277856828" lon="10.831186102953847" id="-31191">
		<tag k="name" v="Fløytmyrvegen" />
		<tag k="ssr:date" v="2019-12-27" />
		<tag k="ssr:gruppe" v="veg" />
		<tag k="ssr:hovedgruppe" v="infrastruktur" />
		<tag k="ssr:stedsnr" v="358907" />
		<tag k="ssr:type" v="vegstrekning" />
	</node>
	<node lat="60.440797223387484" lon="10.723994443285429" id="-31195">
		<tag k="alt_name" v="Tuvssetervegen" />
		<tag k="name" v="Tuvsetervegen" />
		<tag k="ssr:date" v="2019-12-27" />
		<tag k="ssr:gruppe" v="veg" />
		<tag k="ssr:hovedgruppe" v="infrastruktur" />
		<tag k="ssr:stedsnr" v="362458" />
		<tag k="ssr:type" v="vegstrekning" />
	</node>
	<node lat="60.451279609224244" lon="10.759453071111137" id="-31224">
		<tag k="name" v="Skåbakkvegen" />
		<tag k="ssr:date" v="2019-12-27" />
		<tag k="ssr:gruppe" v="veg" />
		<tag k="ssr:hovedgruppe" v="infrastruktur" />
		<tag k="ssr:stedsnr" v="406645" />
		<tag k="ssr:type" v="adressenavn" />
	</node>
	<node lat="60.40581666861095" lon="11.104461114000474" id="-31227">
		<tag k="name" v="Tyrrisvegen" />
		<tag k="ssr:date" v="2019-12-27" />
		<tag k="ssr:gruppe" v="veg" />
		<tag k="ssr:hovedgruppe" v="infrastruktur" />
		<tag k="ssr:stedsnr" v="406781" />
		<tag k="ssr:type" v="vegstrekning" />
	</node>
	<node lat="60.482106709113914" lon="11.012005995322966" id="-31238">
		<tag k="name" v="Øvre Inngjerdingsvegen" />
		<tag k="ssr:date" v="2019-12-27" />
		<tag k="ssr:gruppe" v="veg" />
		<tag k="ssr:hovedgruppe" v="infrastruktur" />
		<tag k="ssr:stedsnr" v="415228" />
		<tag k="ssr:type" v="adressenavn" />
	</node>
	<node lat="60.44014042006575" lon="11.055263450801219" id="-31239">
		<tag k="name" v="Opperudvegen" />
		<tag k="ssr:date" v="2019-12-27" />
		<tag k="ssr:gruppe" v="veg" />
		<tag k="ssr:hovedgruppe" v="infrastruktur" />
		<tag k="ssr:stedsnr" v="415239" />
		<tag k="ssr:type" v="adressenavn" />
	</node>
	<node lat="60.40962840557212" lon="11.033684639984374" id="-31240">
		<tag k="name" v="Gjødingvegen" />
		<tag k="ssr:date" v="2019-12-27" />
		<tag k="ssr:gruppe" v="veg" />
		<tag k="ssr:hovedgruppe" v="infrastruktur" />
		<tag k="ssr:stedsnr" v="415241" />
		<tag k="ssr:type" v="adressenavn" />
	</node>
	<node lat="60.41556504689887" lon="11.027698191085786" id="-31241">
		<tag k="name" v="Åkervegen" />
		<tag k="ssr:date" v="2019-12-27" />
		<tag k="ssr:gruppe" v="veg" />
		<tag k="ssr:hovedgruppe" v="infrastruktur" />
		<tag k="ssr:stedsnr" v="415244" />
		<tag k="ssr:type" v="adressenavn" />
	</node>
	<node lat="60.443311113589715" lon="11.117847222354246" id="-31242">
		<tag k="name" v="Aklangvegen" />
		<tag k="ssr:date" v="2019-12-27" />
		<tag k="ssr:gruppe" v="veg" />
		<tag k="ssr:hovedgruppe" v="infrastruktur" />
		<tag k="ssr:stedsnr" v="419876" />
		<tag k="ssr:type" v="vegstrekning" />
	</node>
	<node lat="60.46826666280728" lon="10.963186113808778" id="-31249">
		<tag k="name" v="Rundtjernvegen" />
		<tag k="ssr:date" v="2019-12-27" />
		<tag k="ssr:gruppe" v="veg" />
		<tag k="ssr:hovedgruppe" v="infrastruktur" />
		<tag k="ssr:stedsnr" v="422867" />
		<tag k="ssr:type" v="vegstrekning" />
	</node>
	<node lat="60.40962840557212" lon="11.033684639984374" id="-31253">
		<tag k="name" v="Fyssbekkvegen" />
		<tag k="ssr:date" v="2019-12-27" />
		<tag k="ssr:gruppe" v="veg" />
		<tag k="ssr:hovedgruppe" v="infrastruktur" />
		<tag k="ssr:stedsnr" v="423699" />
		<tag k="ssr:type" v="adressenavn" />
	</node>
	<node lat="60.440655553645044" lon="11.091372218049575" id="-31273">
		<tag k="name" v="Stridalsvegen" />
		<tag k="ssr:date" v="2019-12-27" />
		<tag k="ssr:gruppe" v="veg" />
		<tag k="ssr:hovedgruppe" v="infrastruktur" />
		<tag k="ssr:stedsnr" v="480892" />
		<tag k="ssr:type" v="vegstrekning" />
	</node>
	<node lat="60.44338811302478" lon="10.719638292447426" id="-31283">
		<tag k="name" v="Tuvsætervegen" />
		<tag k="ssr:date" v="2019-12-27" />
		<tag k="ssr:gruppe" v="veg" />
		<tag k="ssr:hovedgruppe" v="infrastruktur" />
		<tag k="ssr:stedsnr" v="483100" />
		<tag k="ssr:type" v="adressenavn" />
	</node>
	<node lat="60.40922696149242" lon="11.058964525482772" id="-31285">
		<tag k="name" v="Meieriodden" />
		<tag k="ssr:date" v="2019-12-27" />
		<tag k="ssr:gruppe" v="veg" />
		<tag k="ssr:hovedgruppe" v="infrastruktur" />
		<tag k="ssr:stedsnr" v="483677" />
		<tag k="ssr:type" v="adressenavn" />
	</node>
	<node lat="60.39519158674659" lon="11.130683843698451" id="-31303">
		<tag k="name" v="Koiedalsvegen" />
		<tag k="ssr:date" v="2019-12-27" />
		<tag k="ssr:gruppe" v="veg" />
		<tag k="ssr:hovedgruppe" v="infrastruktur" />
		<tag k="ssr:stedsnr" v="525500" />
		<tag k="ssr:type" v="adressenavn" />
	</node>
	<node lat="60.40109721869162" lon="10.952041667904997" id="-31319">
		<tag k="name" v="Middagskollvegen" />
		<tag k="ssr:date" v="2019-12-27" />
		<tag k="ssr:gruppe" v="veg" />
		<tag k="ssr:hovedgruppe" v="infrastruktur" />
		<tag k="ssr:stedsnr" v="527554" />
		<tag k="ssr:type" v="vegstrekning" />
	</node>
	<node lat="60.488941876591966" lon="11.000503364060409" id="-31329">
		<tag k="name" v="Gransvegen" />
		<tag k="ssr:date" v="2019-12-27" />
		<tag k="ssr:gruppe" v="veg" />
		<tag k="ssr:hovedgruppe" v="infrastruktur" />
		<tag k="ssr:stedsnr" v="536197" />
		<tag k="ssr:type" v="adressenavn" />
	</node>
	<node lat="60.41263362820025" lon="11.1183356288529" id="-31330">
		<tag k="name" v="Tisjøvegen" />
		<tag k="ssr:date" v="2019-12-27" />
		<tag k="ssr:gruppe" v="veg" />
		<tag k="ssr:hovedgruppe" v="infrastruktur" />
		<tag k="ssr:stedsnr" v="536349" />
		<tag k="ssr:type" v="adressenavn" />
	</node>
	<node lat="60.46893031442313" lon="11.070222311404992" id="-31331">
		<tag k="name" v="Harstadvegen" />
		<tag k="ssr:date" v="2019-12-27" />
		<tag k="ssr:gruppe" v="veg" />
		<tag k="ssr:hovedgruppe" v="infrastruktur" />
		<tag k="ssr:stedsnr" v="536353" />
		<tag k="ssr:type" v="adressenavn" />
	</node>
	<node lat="60.44734444483411" lon="10.823833327631425" id="-31345">
		<tag k="name" v="Liseterkulpvegen" />
		<tag k="ssr:date" v="2019-12-27" />
		<tag k="ssr:gruppe" v="veg" />
		<tag k="ssr:hovedgruppe" v="infrastruktur" />
		<tag k="ssr:stedsnr" v="545373" />
		<tag k="ssr:type" v="vegstrekning" />
	</node>
	<node lat="60.3472232306527" lon="11.013071620691628" id="-31360">
		<tag k="name" v="Rustadvegen" />
		<tag k="ssr:date" v="2019-12-27" />
		<tag k="ssr:gruppe" v="veg" />
		<tag k="ssr:hovedgruppe" v="infrastruktur" />
		<tag k="ssr:stedsnr" v="581537" />
		<tag k="ssr:type" v="adressenavn" />
	</node>
	<node lat="60.483825003186105" lon="10.720963884846643" id="-31366">
		<tag k="name" v="Damhaugvegen" />
		<tag k="ssr:date" v="2019-12-27" />
		<tag k="ssr:gruppe" v="veg" />
		<tag k="ssr:hovedgruppe" v="infrastruktur" />
		<tag k="ssr:stedsnr" v="587250" />
		<tag k="ssr:type" v="vegstrekning" />
	</node>
	<node lat="60.45659903572182" lon="10.79849437026037" id="-31368">
		<tag k="name" v="Dalsstubben" />
		<tag k="ssr:date" v="2019-12-27" />
		<tag k="ssr:gruppe" v="veg" />
		<tag k="ssr:hovedgruppe" v="infrastruktur" />
		<tag k="ssr:stedsnr" v="587749" />
		<tag k="ssr:type" v="adressenavn" />
	</node>
	<node lat="60.390461108989555" lon="10.964361112039034" id="-31371">
		<tag k="name" v="Rundhaugvegen" />
		<tag k="ssr:date" v="2019-12-27" />
		<tag k="ssr:gruppe" v="veg" />
		<tag k="ssr:hovedgruppe" v="infrastruktur" />
		<tag k="ssr:stedsnr" v="588636" />
		<tag k="ssr:type" v="vegstrekning" />
	</node>
	<node lat="60.45391119129032" lon="10.844174055619453" id="-31381">
		<tag k="name" v="Simarudvegen" />
		<tag k="ssr:date" v="2019-12-27" />
		<tag k="ssr:gruppe" v="veg" />
		<tag k="ssr:hovedgruppe" v="infrastruktur" />
		<tag k="ssr:stedsnr" v="597234" />
		<tag k="ssr:type" v="adressenavn" />
	</node>
	<node lat="60.446881780543755" lon="11.022910326592484" id="-31395">
		<tag k="name" v="Rognstadkollvegen" />
		<tag k="ssr:date" v="2019-12-27" />
		<tag k="ssr:gruppe" v="veg" />
		<tag k="ssr:hovedgruppe" v="infrastruktur" />
		<tag k="ssr:stedsnr" v="604753" />
		<tag k="ssr:type" v="adressenavn" />
	</node>
	<node lat="60.4452083344934" lon="10.700761109688647" id="-31397">
		<tag k="name" v="Bustevollvegen" />
		<tag k="ssr:date" v="2019-12-27" />
		<tag k="ssr:gruppe" v="veg" />
		<tag k="ssr:hovedgruppe" v="infrastruktur" />
		<tag k="ssr:stedsnr" v="605455" />
		<tag k="ssr:type" v="vegstrekning" />
	</node>
	<node lat="60.482279664754905" lon="11.011146771202563" id="-31420">
		<tag k="name" v="Nordengvegen" />
		<tag k="ssr:date" v="2019-12-27" />
		<tag k="ssr:gruppe" v="veg" />
		<tag k="ssr:hovedgruppe" v="infrastruktur" />
		<tag k="ssr:stedsnr" v="642783" />
		<tag k="ssr:type" v="adressenavn" />
	</node>
	<node lat="60.47850894757894" lon="11.021865039811408" id="-31421">
		<tag k="name" v="Garsjøvegen" />
		<tag k="ssr:date" v="2019-12-27" />
		<tag k="ssr:gruppe" v="veg" />
		<tag k="ssr:hovedgruppe" v="infrastruktur" />
		<tag k="ssr:stedsnr" v="642750" />
		<tag k="ssr:type" v="adressenavn" />
	</node>
	<node lat="60.44226093119265" lon="10.861198591807444" id="-31434">
		<tag k="name" v="Skabland" />
		<tag k="ssr:date" v="2019-12-27" />
		<tag k="ssr:gruppe" v="veg" />
		<tag k="ssr:hovedgruppe" v="infrastruktur" />
		<tag k="ssr:stedsnr" v="648659" />
		<tag k="ssr:type" v="adressenavn" />
	</node>
	<node lat="60.427810310283384" lon="11.065983127092126" id="-31452">
		<tag k="name" v="Doktorvegen" />
		<tag k="ssr:date" v="2019-12-27" />
		<tag k="ssr:gruppe" v="veg" />
		<tag k="ssr:hovedgruppe" v="infrastruktur" />
		<tag k="ssr:stedsnr" v="657198" />
		<tag k="ssr:type" v="adressenavn" />
	</node>
	<node lat="60.470285171214094" lon="11.037637349269934" id="-31453">
		<tag k="name" v="Gamle Trondheimsvegen" />
		<tag k="ssr:date" v="2019-12-27" />
		<tag k="ssr:gruppe" v="veg" />
		<tag k="ssr:hovedgruppe" v="infrastruktur" />
		<tag k="ssr:stedsnr" v="657175" />
		<tag k="ssr:type" v="adressenavn" />
	</node>
	<node lat="60.43736389166087" lon="10.9696833247193" id="-31462">
		<tag k="name" v="Bredelivegen" />
		<tag k="ssr:date" v="2019-12-27" />
		<tag k="ssr:gruppe" v="veg" />
		<tag k="ssr:hovedgruppe" v="infrastruktur" />
		<tag k="ssr:stedsnr" v="709160" />
		<tag k="ssr:type" v="vegstrekning" />
	</node>
	<node lat="60.437817022969405" lon="11.05943470878836" id="-31469">
		<tag k="name" v="Hagavegen" />
		<tag k="ssr:date" v="2019-12-27" />
		<tag k="ssr:gruppe" v="veg" />
		<tag k="ssr:hovedgruppe" v="infrastruktur" />
		<tag k="ssr:stedsnr" v="718208" />
		<tag k="ssr:type" v="adressenavn" />
	</node>
	<node lat="60.427427448759865" lon="11.064618287769315" id="-31470">
		<tag k="name" v="Knaimoen" />
		<tag k="ssr:date" v="2019-12-27" />
		<tag k="ssr:gruppe" v="veg" />
		<tag k="ssr:hovedgruppe" v="infrastruktur" />
		<tag k="ssr:stedsnr" v="718211" />
		<tag k="ssr:type" v="adressenavn" />
	</node>
	<node lat="60.44363249119417" lon="10.853779418378174" id="-31471">
		<tag k="name" v="Stensrudvegen" />
		<tag k="ssr:date" v="2019-12-27" />
		<tag k="ssr:gruppe" v="veg" />
		<tag k="ssr:hovedgruppe" v="infrastruktur" />
		<tag k="ssr:stedsnr" v="718218" />
		<tag k="ssr:type" v="adressenavn" />
	</node>
	<node lat="60.455395214686526" lon="10.844516935301508" id="-31472">
		<tag k="name" v="Simarudsvingen" />
		<tag k="ssr:date" v="2019-12-27" />
		<tag k="ssr:gruppe" v="veg" />
		<tag k="ssr:hovedgruppe" v="infrastruktur" />
		<tag k="ssr:stedsnr" v="718220" />
		<tag k="ssr:type" v="adressenavn" />
	</node>
	<node lat="60.46716764258414" lon="11.053048303896816" id="-31483">
		<tag k="name" v="Solbergvegen" />
		<tag k="ssr:date" v="2019-12-27" />
		<tag k="ssr:gruppe" v="veg" />
		<tag k="ssr:hovedgruppe" v="infrastruktur" />
		<tag k="ssr:stedsnr" v="726747" />
		<tag k="ssr:type" v="adressenavn" />
	</node>
	<node lat="60.41770853062241" lon="10.992282935990607" id="-31497">
		<tag k="name" v="Gjødingssætervegen" />
		<tag k="ssr:date" v="2019-12-27" />
		<tag k="ssr:gruppe" v="veg" />
		<tag k="ssr:hovedgruppe" v="infrastruktur" />
		<tag k="ssr:stedsnr" v="764776" />
		<tag k="ssr:type" v="adressenavn" />
	</node>
	<node lat="60.44331776153792" lon="11.059313455191866" id="-31517">
		<tag k="name" v="Jordmorvegen" />
		<tag k="ssr:date" v="2019-12-27" />
		<tag k="ssr:gruppe" v="veg" />
		<tag k="ssr:hovedgruppe" v="infrastruktur" />
		<tag k="ssr:stedsnr" v="779228" />
		<tag k="ssr:type" v="adressenavn" />
	</node>
	<node lat="60.436488940834394" lon="11.067008961596535" id="-31518">
		<tag k="name" v="Torgkroken" />
		<tag k="ssr:date" v="2019-12-27" />
		<tag k="ssr:gruppe" v="veg" />
		<tag k="ssr:hovedgruppe" v="infrastruktur" />
		<tag k="ssr:stedsnr" v="779201" />
		<tag k="ssr:type" v="adressenavn" />
	</node>
	<node lat="60.4436196473671" lon="10.853915705039217" id="-31526">
		<tag k="name" v="Lomtjennsvegen" />
		<tag k="ssr:date" v="2019-12-27" />
		<tag k="ssr:gruppe" v="veg" />
		<tag k="ssr:hovedgruppe" v="infrastruktur" />
		<tag k="ssr:stedsnr" v="787085" />
		<tag k="ssr:type" v="adressenavn" />
	</node>
	<node lat="60.47274112976853" lon="10.838711934064165" id="-31528">
		<tag k="name" v="Finnevollvegen" />
		<tag k="ssr:date" v="2019-12-27" />
		<tag k="ssr:gruppe" v="veg" />
		<tag k="ssr:hovedgruppe" v="infrastruktur" />
		<tag k="ssr:stedsnr" v="787679" />
		<tag k="ssr:type" v="adressenavn" />
	</node>
	<node lat="60.448016670190185" lon="10.704488897000944" id="-31529">
		<tag k="name" v="Kåvemyrvegen" />
		<tag k="ssr:date" v="2019-12-27" />
		<tag k="ssr:gruppe" v="veg" />
		<tag k="ssr:hovedgruppe" v="infrastruktur" />
		<tag k="ssr:stedsnr" v="787473" />
		<tag k="ssr:type" v="vegstrekning" />
	</node>
	<node lat="60.443588524357665" lon="10.734166593495859" id="-31542">
		<tag k="name" v="Øvre Fallveg" />
		<tag k="ssr:date" v="2019-12-27" />
		<tag k="ssr:gruppe" v="veg" />
		<tag k="ssr:hovedgruppe" v="infrastruktur" />
		<tag k="ssr:stedsnr" v="829563" />
		<tag k="ssr:type" v="adressenavn" />
	</node>
	<node lat="60.381485268522596" lon="11.010605818627122" id="-31543">
		<tag k="name" v="Høgmyrvegen" />
		<tag k="ssr:date" v="2019-12-27" />
		<tag k="ssr:gruppe" v="veg" />
		<tag k="ssr:hovedgruppe" v="infrastruktur" />
		<tag k="ssr:stedsnr" v="829495" />
		<tag k="ssr:type" v="adressenavn" />
	</node>
	<node lat="60.358400003268535" lon="10.931591658705186" id="-31546">
		<tag k="name" v="Kvernsjøvegen" />
		<tag k="ssr:date" v="2019-12-27" />
		<tag k="ssr:gruppe" v="veg" />
		<tag k="ssr:hovedgruppe" v="infrastruktur" />
		<tag k="ssr:stedsnr" v="829756" />
		<tag k="ssr:type" v="vegstrekning" />
	</node>
	<node lat="60.47948333290591" lon="11.028030553561447" id="-31548">
		<tag k="alt_name" v="Kongevegen" />
		<tag k="name" v="Gamle Trondheimsvegen" />
		<tag k="ssr:date" v="2019-12-27" />
		<tag k="ssr:gruppe" v="veg" />
		<tag k="ssr:hovedgruppe" v="infrastruktur" />
		<tag k="ssr:stedsnr" v="831009" />
		<tag k="ssr:type" v="vegstrekning" />
	</node>
	<node lat="60.417413885755366" lon="10.930625000782769" id="-31551">
		<tag k="name" v="Røysumholvegen" />
		<tag k="ssr:date" v="2019-12-27" />
		<tag k="ssr:gruppe" v="veg" />
		<tag k="ssr:hovedgruppe" v="infrastruktur" />
		<tag k="ssr:stedsnr" v="831168" />
		<tag k="ssr:type" v="vegstrekning" />
	</node>
	<node lat="60.363465847159844" lon="11.072677972357473" id="-31566">
		<tag k="name" v="Østerudvegen" />
		<tag k="ssr:date" v="2019-12-27" />
		<tag k="ssr:gruppe" v="veg" />
		<tag k="ssr:hovedgruppe" v="infrastruktur" />
		<tag k="ssr:stedsnr" v="840348" />
		<tag k="ssr:type" v="adressenavn" />
	</node>
	<node lat="60.47695277760483" lon="10.705844444266031" id="-31567">
		<tag k="name" v="Grandalsvegen" />
		<tag k="ssr:date" v="2019-12-27" />
		<tag k="ssr:gruppe" v="veg" />
		<tag k="ssr:hovedgruppe" v="infrastruktur" />
		<tag k="ssr:stedsnr" v="844902" />
		<tag k="ssr:type" v="vegstrekning" />
	</node>
	<node lat="60.43382147135136" lon="11.074955493779484" id="-31570">
		<tag k="name" v="Brustadsletta" />
		<tag k="ssr:date" v="2019-12-27" />
		<tag k="ssr:gruppe" v="veg" />
		<tag k="ssr:hovedgruppe" v="infrastruktur" />
		<tag k="ssr:stedsnr" v="846646" />
		<tag k="ssr:type" v="adressenavn" />
	</node>
	<node lat="60.401416622144254" lon="11.13804401567643" id="-31589">
		<tag k="name" v="Minneåsvegen" />
		<tag k="ssr:date" v="2019-12-27" />
		<tag k="ssr:gruppe" v="veg" />
		<tag k="ssr:hovedgruppe" v="infrastruktur" />
		<tag k="ssr:stedsnr" v="946467" />
		<tag k="ssr:type" v="adressenavn" />
	</node>
	<node lat="60.44842781952332" lon="10.834121388216527" id="-31590">
		<tag k="name" v="Vollengvegen" />
		<tag k="ssr:date" v="2019-12-27" />
		<tag k="ssr:gruppe" v="veg" />
		<tag k="ssr:hovedgruppe" v="infrastruktur" />
		<tag k="ssr:stedsnr" v="946770" />
		<tag k="ssr:type" v="adressenavn" />
	</node>
	<node lat="60.3451638902486" lon="11.090691675039896" id="-31591">
		<tag k="name" v="Svartholtvegen" />
		<tag k="ssr:date" v="2019-12-27" />
		<tag k="ssr:gruppe" v="veg" />
		<tag k="ssr:hovedgruppe" v="infrastruktur" />
		<tag k="ssr:stedsnr" v="950735" />
		<tag k="ssr:type" v="vegstrekning" />
	</node>
	<node lat="60.40305555744755" lon="11.133930561950242" id="-31592">
		<tag k="name" v="Byfellavegen" />
		<tag k="ssr:date" v="2019-12-27" />
		<tag k="ssr:gruppe" v="veg" />
		<tag k="ssr:hovedgruppe" v="infrastruktur" />
		<tag k="ssr:stedsnr" v="950742" />
		<tag k="ssr:type" v="vegstrekning" />
	</node>
	<node lat="60.44779182499475" lon="10.836478027966846" id="-31600">
		<tag k="name" v="Storgata" />
		<tag k="ssr:date" v="2019-12-27" />
		<tag k="ssr:gruppe" v="veg" />
		<tag k="ssr:hovedgruppe" v="infrastruktur" />
		<tag k="ssr:stedsnr" v="952612" />
		<tag k="ssr:type" v="adressenavn" />
	</node>
	<node lat="60.44625208266635" lon="10.873990602031796" id="-31601">
		<tag k="name" v="Elvbakkvegen" />
		<tag k="ssr:date" v="2019-12-27" />
		<tag k="ssr:gruppe" v="veg" />
		<tag k="ssr:hovedgruppe" v="infrastruktur" />
		<tag k="ssr:stedsnr" v="952619" />
		<tag k="ssr:type" v="adressenavn" />
	</node>
	<node lat="60.40127162164244" lon="11.079570081558714" id="-31603">
		<tag k="name" v="Haraldvangen" />
		<tag k="ssr:date" v="2019-12-27" />
		<tag k="ssr:gruppe" v="veg" />
		<tag k="ssr:hovedgruppe" v="infrastruktur" />
		<tag k="ssr:stedsnr" v="952719" />
		<tag k="ssr:type" v="adressenavn" />
	</node>
	<node lat="60.40840000383172" lon="10.91599999206728" id="-31608">
		<tag k="name" v="Bekkemyrvegen" />
		<tag k="ssr:date" v="2019-12-27" />
		<tag k="ssr:gruppe" v="veg" />
		<tag k="ssr:hovedgruppe" v="infrastruktur" />
		<tag k="ssr:stedsnr" v="952825" />
		<tag k="ssr:type" v="vegstrekning" />
	</node>
	<node lat="60.34822967439223" lon="11.01311732930584" id="-31615">
		<tag k="name" v="Rustadbruksvegen" />
		<tag k="ssr:date" v="2019-12-27" />
		<tag k="ssr:gruppe" v="veg" />
		<tag k="ssr:hovedgruppe" v="infrastruktur" />
		<tag k="ssr:stedsnr" v="961214" />
		<tag k="ssr:type" v="adressenavn" />
	</node>
	<node lat="60.410775162979455" lon="11.06094356463026" id="-31637">
		<tag k="name" v="Strandvegen" />
		<tag k="ssr:date" v="2019-12-27" />
		<tag k="ssr:gruppe" v="veg" />
		<tag k="ssr:hovedgruppe" v="infrastruktur" />
		<tag k="ssr:stedsnr" v="1070110" />
		<tag k="ssr:type" v="adressenavn" />
	</node>
	<node lat="60.34050020166042" lon="11.0937729082273" id="-31638">
		<tag k="name" v="Svartholtvegen" />
		<tag k="ssr:date" v="2019-12-27" />
		<tag k="ssr:gruppe" v="veg" />
		<tag k="ssr:hovedgruppe" v="infrastruktur" />
		<tag k="ssr:stedsnr" v="1070390" />
		<tag k="ssr:type" v="adressenavn" />
	</node>
	<node lat="60.352813948630285" lon="11.101545725723183" id="-31639">
		<tag k="name" v="Byfellavegen" />
		<tag k="ssr:date" v="2019-12-27" />
		<tag k="ssr:gruppe" v="veg" />
		<tag k="ssr:hovedgruppe" v="infrastruktur" />
		<tag k="ssr:stedsnr" v="1070392" />
		<tag k="ssr:type" v="adressenavn" />
	</node>
	<node lat="60.402810652270354" lon="11.094388604862484" id="-31640">
		<tag k="name" v="Kløvdalsvegen" />
		<tag k="ssr:date" v="2019-12-27" />
		<tag k="ssr:gruppe" v="veg" />
		<tag k="ssr:hovedgruppe" v="infrastruktur" />
		<tag k="ssr:stedsnr" v="1070393" />
		<tag k="ssr:type" v="adressenavn" />
	</node>
	<node lat="60.424111657203746" lon="11.090356329373764" id="-31641">
		<tag k="name" v="Siridalsvegen" />
		<tag k="ssr:date" v="2019-12-27" />
		<tag k="ssr:gruppe" v="veg" />
		<tag k="ssr:hovedgruppe" v="infrastruktur" />
		<tag k="ssr:stedsnr" v="1070396" />
		<tag k="ssr:type" v="adressenavn" />
	</node>
	<node lat="60.50873675236757" lon="11.07467270186335" id="-31642">
		<tag k="name" v="Steinsjødamvegen" />
		<tag k="ssr:date" v="2019-12-27" />
		<tag k="ssr:gruppe" v="veg" />
		<tag k="ssr:hovedgruppe" v="infrastruktur" />
		<tag k="ssr:stedsnr" v="1070397" />
		<tag k="ssr:type" v="adressenavn" />
	</node>
	<node lat="60.48783156263632" lon="11.0591060465271" id="-31643">
		<tag k="name" v="Steinsjøelvvegen" />
		<tag k="ssr:date" v="2019-12-27" />
		<tag k="ssr:gruppe" v="veg" />
		<tag k="ssr:hovedgruppe" v="infrastruktur" />
		<tag k="ssr:stedsnr" v="1070398" />
		<tag k="ssr:type" v="adressenavn" />
	</node>
	<node lat="60.48437535826877" lon="10.979217292951835" id="-31644">
		<tag k="name" v="Lismarkvegen" />
		<tag k="ssr:date" v="2019-12-27" />
		<tag k="ssr:gruppe" v="veg" />
		<tag k="ssr:hovedgruppe" v="infrastruktur" />
		<tag k="ssr:stedsnr" v="1070399" />
		<tag k="ssr:type" v="adressenavn" />
	</node>
	<node lat="60.403046971206635" lon="11.103489960191112" id="-31645">
		<tag k="name" v="Tyrrissvegen" />
		<tag k="ssr:date" v="2019-12-27" />
		<tag k="ssr:gruppe" v="veg" />
		<tag k="ssr:hovedgruppe" v="infrastruktur" />
		<tag k="ssr:stedsnr" v="1070400" />
		<tag k="ssr:type" v="adressenavn" />
	</node>
	<node lat="60.42406928928801" lon="11.090529796883105" id="-31646">
		<tag k="name" v="Kinnavegen" />
		<tag k="ssr:date" v="2019-12-27" />
		<tag k="ssr:gruppe" v="veg" />
		<tag k="ssr:hovedgruppe" v="infrastruktur" />
		<tag k="ssr:stedsnr" v="1070402" />
		<tag k="ssr:type" v="adressenavn" />
	</node>
	<node lat="60.44262862429176" lon="11.117042787032736" id="-31647">
		<tag k="name" v="Aklangvegen" />
		<tag k="ssr:date" v="2019-12-27" />
		<tag k="ssr:gruppe" v="veg" />
		<tag k="ssr:hovedgruppe" v="infrastruktur" />
		<tag k="ssr:stedsnr" v="1070404" />
		<tag k="ssr:type" v="adressenavn" />
	</node>
	<node lat="60.43044351460664" lon="10.941765625634064" id="-31648">
		<tag k="name" v="Tørkhusvegen" />
		<tag k="ssr:date" v="2019-12-27" />
		<tag k="ssr:gruppe" v="veg" />
		<tag k="ssr:hovedgruppe" v="infrastruktur" />
		<tag k="ssr:stedsnr" v="1070406" />
		<tag k="ssr:type" v="adressenavn" />
	</node>
	<node lat="60.445655800394526" lon="10.96159408573884" id="-31649">
		<tag k="name" v="Fjellsjøvegen" />
		<tag k="ssr:date" v="2019-12-27" />
		<tag k="ssr:gruppe" v="veg" />
		<tag k="ssr:hovedgruppe" v="infrastruktur" />
		<tag k="ssr:stedsnr" v="1070407" />
		<tag k="ssr:type" v="adressenavn" />
	</node>
	<node lat="60.44085617570536" lon="10.983676477558447" id="-31650">
		<tag k="name" v="Jodalsvegen" />
		<tag k="ssr:date" v="2019-12-27" />
		<tag k="ssr:gruppe" v="veg" />
		<tag k="ssr:hovedgruppe" v="infrastruktur" />
		<tag k="ssr:stedsnr" v="1070408" />
		<tag k="ssr:type" v="adressenavn" />
	</node>
	<node lat="60.471372590288134" lon="10.956782710192117" id="-31651">
		<tag k="name" v="Kampevegen" />
		<tag k="ssr:date" v="2019-12-27" />
		<tag k="ssr:gruppe" v="veg" />
		<tag k="ssr:hovedgruppe" v="infrastruktur" />
		<tag k="ssr:stedsnr" v="1070410" />
		<tag k="ssr:type" v="adressenavn" />
	</node>
	<node lat="60.48637666095097" lon="10.982141156212291" id="-31652">
		<tag k="name" v="Snultravegen" />
		<tag k="ssr:date" v="2019-12-27" />
		<tag k="ssr:gruppe" v="veg" />
		<tag k="ssr:hovedgruppe" v="infrastruktur" />
		<tag k="ssr:stedsnr" v="1070412" />
		<tag k="ssr:type" v="adressenavn" />
	</node>
	<node lat="60.42461246098975" lon="10.92647058511491" id="-31653">
		<tag k="name" v="Badstuengvegen" />
		<tag k="ssr:date" v="2019-12-27" />
		<tag k="ssr:gruppe" v="veg" />
		<tag k="ssr:hovedgruppe" v="infrastruktur" />
		<tag k="ssr:stedsnr" v="1070413" />
		<tag k="ssr:type" v="adressenavn" />
	</node>
	<node lat="60.36187936684385" lon="10.937072660238682" id="-31654">
		<tag k="name" v="Kvernsjøvegen" />
		<tag k="ssr:date" v="2019-12-27" />
		<tag k="ssr:gruppe" v="veg" />
		<tag k="ssr:hovedgruppe" v="infrastruktur" />
		<tag k="ssr:stedsnr" v="1070415" />
		<tag k="ssr:type" v="adressenavn" />
	</node>
	<node lat="60.37118349087817" lon="10.975534370287521" id="-31655">
		<tag k="name" v="Vestlivegen" />
		<tag k="ssr:date" v="2019-12-27" />
		<tag k="ssr:gruppe" v="veg" />
		<tag k="ssr:hovedgruppe" v="infrastruktur" />
		<tag k="ssr:stedsnr" v="1070419" />
		<tag k="ssr:type" v="adressenavn" />
	</node>
	<node lat="60.36675954575729" lon="11.01344302006731" id="-31656">
		<tag k="name" v="Vikensvegen" />
		<tag k="ssr:date" v="2019-12-27" />
		<tag k="ssr:gruppe" v="veg" />
		<tag k="ssr:hovedgruppe" v="infrastruktur" />
		<tag k="ssr:stedsnr" v="1070421" />
		<tag k="ssr:type" v="adressenavn" />
	</node>
	<node lat="60.49023744922115" lon="10.712084311688917" id="-31657">
		<tag k="name" v="Brannelvvegen" />
		<tag k="ssr:date" v="2019-12-27" />
		<tag k="ssr:gruppe" v="veg" />
		<tag k="ssr:hovedgruppe" v="infrastruktur" />
		<tag k="ssr:stedsnr" v="1070337" />
		<tag k="ssr:type" v="adressenavn" />
	</node>
	<node lat="60.49023744922115" lon="10.712084311688917" id="-31658">
		<tag k="name" v="Grandalsvegen" />
		<tag k="ssr:date" v="2019-12-27" />
		<tag k="ssr:gruppe" v="veg" />
		<tag k="ssr:hovedgruppe" v="infrastruktur" />
		<tag k="ssr:stedsnr" v="1070338" />
		<tag k="ssr:type" v="adressenavn" />
	</node>
	<node lat="60.43299190994841" lon="10.979512498009589" id="-31659">
		<tag k="name" v="Bredelivegen" />
		<tag k="ssr:date" v="2019-12-27" />
		<tag k="ssr:gruppe" v="veg" />
		<tag k="ssr:hovedgruppe" v="infrastruktur" />
		<tag k="ssr:stedsnr" v="1070422" />
		<tag k="ssr:type" v="adressenavn" />
	</node>
	<node lat="60.43030905198111" lon="10.983836143879342" id="-31660">
		<tag k="name" v="Stormyrvegen" />
		<tag k="ssr:date" v="2019-12-27" />
		<tag k="ssr:gruppe" v="veg" />
		<tag k="ssr:hovedgruppe" v="infrastruktur" />
		<tag k="ssr:stedsnr" v="1070423" />
		<tag k="ssr:type" v="adressenavn" />
	</node>
	<node lat="60.4180171806349" lon="10.950881472604069" id="-31661">
		<tag k="name" v="Lundbylivegen" />
		<tag k="ssr:date" v="2019-12-27" />
		<tag k="ssr:gruppe" v="veg" />
		<tag k="ssr:hovedgruppe" v="infrastruktur" />
		<tag k="ssr:stedsnr" v="1070426" />
		<tag k="ssr:type" v="adressenavn" />
	</node>
	<node lat="60.358526550402516" lon="10.957567985287236" id="-31662">
		<tag k="name" v="Steinmyrvegen" />
		<tag k="ssr:date" v="2019-12-27" />
		<tag k="ssr:gruppe" v="veg" />
		<tag k="ssr:hovedgruppe" v="infrastruktur" />
		<tag k="ssr:stedsnr" v="1070428" />
		<tag k="ssr:type" v="adressenavn" />
	</node>
	<node lat="60.41657004935121" lon="10.943137499756345" id="-31663">
		<tag k="name" v="Røysumholvegen" />
		<tag k="ssr:date" v="2019-12-27" />
		<tag k="ssr:gruppe" v="veg" />
		<tag k="ssr:hovedgruppe" v="infrastruktur" />
		<tag k="ssr:stedsnr" v="1070429" />
		<tag k="ssr:type" v="adressenavn" />
	</node>
	<node lat="60.41387629297325" lon="10.906007293688997" id="-31664">
		<tag k="name" v="Bekkemyrvegen" />
		<tag k="ssr:date" v="2019-12-27" />
		<tag k="ssr:gruppe" v="veg" />
		<tag k="ssr:hovedgruppe" v="infrastruktur" />
		<tag k="ssr:stedsnr" v="1070432" />
		<tag k="ssr:type" v="adressenavn" />
	</node>
	<node lat="60.48979673602615" lon="11.072030010261056" id="-31665">
		<tag k="name" v="Bergvatnvegen" />
		<tag k="ssr:date" v="2019-12-27" />
		<tag k="ssr:gruppe" v="veg" />
		<tag k="ssr:hovedgruppe" v="infrastruktur" />
		<tag k="ssr:stedsnr" v="1070436" />
		<tag k="ssr:type" v="adressenavn" />
	</node>
	<node lat="60.38914847630332" lon="10.960982148573073" id="-31666">
		<tag k="name" v="Rundhaugvegen" />
		<tag k="ssr:date" v="2019-12-27" />
		<tag k="ssr:gruppe" v="veg" />
		<tag k="ssr:hovedgruppe" v="infrastruktur" />
		<tag k="ssr:stedsnr" v="1070439" />
		<tag k="ssr:type" v="adressenavn" />
	</node>
	<node lat="60.35999575982407" lon="10.953204353692792" id="-31667">
		<tag k="name" v="Middagskollvegen" />
		<tag k="ssr:date" v="2019-12-27" />
		<tag k="ssr:gruppe" v="veg" />
		<tag k="ssr:hovedgruppe" v="infrastruktur" />
		<tag k="ssr:stedsnr" v="1070440" />
		<tag k="ssr:type" v="adressenavn" />
	</node>
	<node lat="60.415285128841425" lon="10.924773598679176" id="-31668">
		<tag k="name" v="Breimyrvegen" />
		<tag k="ssr:date" v="2019-12-27" />
		<tag k="ssr:gruppe" v="veg" />
		<tag k="ssr:hovedgruppe" v="infrastruktur" />
		<tag k="ssr:stedsnr" v="1070441" />
		<tag k="ssr:type" v="adressenavn" />
	</node>
	<node lat="60.435373748907445" lon="10.839366934114055" id="-31669">
		<tag k="name" v="Tuvslivegen" />
		<tag k="ssr:date" v="2019-12-27" />
		<tag k="ssr:gruppe" v="veg" />
		<tag k="ssr:hovedgruppe" v="infrastruktur" />
		<tag k="ssr:stedsnr" v="1070443" />
		<tag k="ssr:type" v="adressenavn" />
	</node>
	<node lat="60.45525753435589" lon="10.801413812787036" id="-31670">
		<tag k="name" v="Gamlevollvegen" />
		<tag k="ssr:date" v="2019-12-27" />
		<tag k="ssr:gruppe" v="veg" />
		<tag k="ssr:hovedgruppe" v="infrastruktur" />
		<tag k="ssr:stedsnr" v="1070444" />
		<tag k="ssr:type" v="adressenavn" />
	</node>
	<node lat="60.47075092153131" lon="10.866905622128753" id="-31671">
		<tag k="name" v="Lusmyrvegen" />
		<tag k="ssr:date" v="2019-12-27" />
		<tag k="ssr:gruppe" v="veg" />
		<tag k="ssr:hovedgruppe" v="infrastruktur" />
		<tag k="ssr:stedsnr" v="1070446" />
		<tag k="ssr:type" v="adressenavn" />
	</node>
	<node lat="60.47166817362537" lon="10.858338672790662" id="-31672">
		<tag k="name" v="Veslesvartungsvegen" />
		<tag k="ssr:date" v="2019-12-27" />
		<tag k="ssr:gruppe" v="veg" />
		<tag k="ssr:hovedgruppe" v="infrastruktur" />
		<tag k="ssr:stedsnr" v="1070448" />
		<tag k="ssr:type" v="adressenavn" />
	</node>
	<node lat="60.4361618641166" lon="10.846767926482503" id="-31673">
		<tag k="name" v="Skjeggerudvegen" />
		<tag k="ssr:date" v="2019-12-27" />
		<tag k="ssr:gruppe" v="veg" />
		<tag k="ssr:hovedgruppe" v="infrastruktur" />
		<tag k="ssr:stedsnr" v="1070450" />
		<tag k="ssr:type" v="adressenavn" />
	</node>
	<node lat="60.42744721006795" lon="10.839895128551982" id="-31674">
		<tag k="name" v="Fuglåsvegen" />
		<tag k="ssr:date" v="2019-12-27" />
		<tag k="ssr:gruppe" v="veg" />
		<tag k="ssr:hovedgruppe" v="infrastruktur" />
		<tag k="ssr:stedsnr" v="1070451" />
		<tag k="ssr:type" v="adressenavn" />
	</node>
	<node lat="60.44079026747345" lon="10.843943750988354" id="-31675">
		<tag k="name" v="Kulpevegen" />
		<tag k="ssr:date" v="2019-12-27" />
		<tag k="ssr:gruppe" v="veg" />
		<tag k="ssr:hovedgruppe" v="infrastruktur" />
		<tag k="ssr:stedsnr" v="1070454" />
		<tag k="ssr:type" v="adressenavn" />
	</node>
	<node lat="60.447611330616596" lon="10.698394875178728" id="-31676">
		<tag k="name" v="Bustevollvegen" />
		<tag k="ssr:date" v="2019-12-27" />
		<tag k="ssr:gruppe" v="veg" />
		<tag k="ssr:hovedgruppe" v="infrastruktur" />
		<tag k="ssr:stedsnr" v="1070456" />
		<tag k="ssr:type" v="adressenavn" />
	</node>
	<node lat="60.44485409033115" lon="10.710465529532234" id="-31677">
		<tag k="name" v="Kåvemyrvegen" />
		<tag k="ssr:date" v="2019-12-27" />
		<tag k="ssr:gruppe" v="veg" />
		<tag k="ssr:hovedgruppe" v="infrastruktur" />
		<tag k="ssr:stedsnr" v="1070457" />
		<tag k="ssr:type" v="adressenavn" />
	</node>
	<node lat="60.48740011035502" lon="10.773475608569322" id="-31678">
		<tag k="name" v="Hølbekkvegen" />
		<tag k="ssr:date" v="2019-12-27" />
		<tag k="ssr:gruppe" v="veg" />
		<tag k="ssr:hovedgruppe" v="infrastruktur" />
		<tag k="ssr:stedsnr" v="1070460" />
		<tag k="ssr:type" v="adressenavn" />
	</node>
	<node lat="59.91168968762522" lon="10.758188226721538" id="-31679">
		<tag k="name" v="Viken fylke" />
		<tag k="ssr:date" v="2022-01-03" />
		<tag k="ssr:gruppe" v="administrativeIndelinger" />
		<tag k="ssr:hovedgruppe" v="offentligAdministrasjon" />
		<tag k="ssr:stedsnr" v="1074403" />
		<tag k="ssr:type" v="fylke" />
	</node>
	<node lat="60.393610053446025" lon="11.083906321581674" id="-31680">
		<tag k="name" v="Olgas veg" />
		<tag k="ssr:date" v="2020-06-09" />
		<tag k="ssr:gruppe" v="veg" />
		<tag k="ssr:hovedgruppe" v="infrastruktur" />
		<tag k="ssr:stedsnr" v="1077279" />
		<tag k="ssr:type" v="adressenavn" />
	</node>
	<node lat="60.39542146083169" lon="11.082370354113715" id="-31681">
		<tag k="name" v="Borghilds veg" />
		<tag k="ssr:date" v="2020-06-09" />
		<tag k="ssr:gruppe" v="veg" />
		<tag k="ssr:hovedgruppe" v="infrastruktur" />
		<tag k="ssr:stedsnr" v="1077273" />
		<tag k="ssr:type" v="adressenavn" />
	</node>
	<node lat="60.3963074976245" lon="11.082572178937676" id="-31682">
		<tag k="name" v="Thorvalds veg" />
		<tag k="ssr:date" v="2020-06-09" />
		<tag k="ssr:gruppe" v="veg" />
		<tag k="ssr:hovedgruppe" v="infrastruktur" />
		<tag k="ssr:stedsnr" v="1077272" />
		<tag k="ssr:type" v="adressenavn" />
	</node>
	<node lat="60.39089651479793" lon="11.082825413406079" id="-31683">
		<tag k="name" v="Astas veg" />
		<tag k="ssr:date" v="2020-06-09" />
		<tag k="ssr:gruppe" v="veg" />
		<tag k="ssr:hovedgruppe" v="infrastruktur" />
		<tag k="ssr:stedsnr" v="1077276" />
		<tag k="ssr:type" v="adressenavn" />
	</node>
	<node lat="60.39546412406802" lon="11.083661832995011" id="-31684">
		<tag k="name" v="Trygves veg" />
		<tag k="ssr:date" v="2020-06-09" />
		<tag k="ssr:gruppe" v="veg" />
		<tag k="ssr:hovedgruppe" v="infrastruktur" />
		<tag k="ssr:stedsnr" v="1077274" />
		<tag k="ssr:type" v="adressenavn" />
	</node>
	<node lat="60.39591054506351" lon="11.08038676372704" id="-31685">
		<tag k="name" v="Jakob Langtons veg" />
		<tag k="ssr:date" v="2020-06-09" />
		<tag k="ssr:gruppe" v="veg" />
		<tag k="ssr:hovedgruppe" v="infrastruktur" />
		<tag k="ssr:stedsnr" v="1077275" />
		<tag k="ssr:type" v="adressenavn" />
	</node>
	<node lat="60.39133011405116" lon="11.083815021944048" id="-31686">
		<tag k="name" v="Leifs veg" />
		<tag k="ssr:date" v="2020-06-09" />
		<tag k="ssr:gruppe" v="veg" />
		<tag k="ssr:hovedgruppe" v="infrastruktur" />
		<tag k="ssr:stedsnr" v="1077280" />
		<tag k="ssr:type" v="adressenavn" />
	</node>
	<node lat="60.39342963375943" lon="11.084530048682078" id="-31687">
		<tag k="name" v="Julies veg" />
		<tag k="ssr:date" v="2020-06-09" />
		<tag k="ssr:gruppe" v="veg" />
		<tag k="ssr:hovedgruppe" v="infrastruktur" />
		<tag k="ssr:stedsnr" v="1077277" />
		<tag k="ssr:type" v="adressenavn" />
	</node>
	<node lat="60.39344783236522" lon="11.081645309904875" id="-31688">
		<tag k="name" v="Josefs veg" />
		<tag k="ssr:date" v="2020-06-09" />
		<tag k="ssr:gruppe" v="veg" />
		<tag k="ssr:hovedgruppe" v="infrastruktur" />
		<tag k="ssr:stedsnr" v="1077278" />
		<tag k="ssr:type" v="adressenavn" />
	</node>
	<node lat="60.351429874195915" lon="11.066862678844913" id="-31691">
		<tag k="name" v="Bogkleiva" />
		<tag k="ssr:date" v="2022-02-10" />
		<tag k="ssr:gruppe" v="veg" />
		<tag k="ssr:hovedgruppe" v="infrastruktur" />
		<tag k="ssr:stedsnr" v="1083777" />
		<tag k="ssr:type" v="adressenavn" />
	</node>
	<node lat="60.353089133061" lon="11.065454044176198" id="-31692">
		<tag k="name" v="Bogkollen" />
		<tag k="ssr:date" v="2022-02-10" />
		<tag k="ssr:gruppe" v="veg" />
		<tag k="ssr:hovedgruppe" v="infrastruktur" />
		<tag k="ssr:stedsnr" v="1083778" />
		<tag k="ssr:type" v="adressenavn" />
	</node>
	<node lat="60.35511806287928" lon="11.064068640010493" id="-31693">
		<tag k="name" v="Bogvika" />
		<tag k="ssr:date" v="2022-02-10" />
		<tag k="ssr:gruppe" v="veg" />
		<tag k="ssr:hovedgruppe" v="infrastruktur" />
		<tag k="ssr:stedsnr" v="1083779" />
		<tag k="ssr:type" v="adressenavn" />
	</node>
	<node lat="60.352087543681456" lon="11.069679590501224" id="-31694">
		<tag k="name" v="Bogkroken" />
		<tag k="ssr:date" v="2022-02-10" />
		<tag k="ssr:gruppe" v="veg" />
		<tag k="ssr:hovedgruppe" v="infrastruktur" />
		<tag k="ssr:stedsnr" v="1083780" />
		<tag k="ssr:type" v="adressenavn" />
	</node>
	<node lat="60.35328271171298" lon="11.069352912135567" id="-31695">
		<tag k="name" v="Utsikten" />
		<tag k="ssr:date" v="2022-02-10" />
		<tag k="ssr:gruppe" v="veg" />
		<tag k="ssr:hovedgruppe" v="infrastruktur" />
		<tag k="ssr:stedsnr" v="1083781" />
		<tag k="ssr:type" v="adressenavn" />
	</node>
	<node lat="60.35478252779831" lon="11.067975921789317" id="-31696">
		<tag k="name" v="Heimlinna" />
		<tag k="ssr:date" v="2022-02-10" />
		<tag k="ssr:gruppe" v="veg" />
		<tag k="ssr:hovedgruppe" v="infrastruktur" />
		<tag k="ssr:stedsnr" v="1083783" />
		<tag k="ssr:type" v="adressenavn" />
	</node>
	<node lat="60.352688948811846" lon="11.070799929603357" id="-31697">
		<tag k="name" v="Bogtoppen" />
		<tag k="ssr:date" v="2022-02-10" />
		<tag k="ssr:gruppe" v="veg" />
		<tag k="ssr:hovedgruppe" v="infrastruktur" />
		<tag k="ssr:stedsnr" v="1083782" />
		<tag k="ssr:type" v="adressenavn" />
	</node>
	<node lat="60.43318675054894" lon="11.06493198936775" id="-31698">
		<tag k="name" v="Elvebredden" />
		<tag k="ssr:date" v="2022-02-10" />
		<tag k="ssr:gruppe" v="veg" />
		<tag k="ssr:hovedgruppe" v="infrastruktur" />
		<tag k="ssr:stedsnr" v="1083784" />
		<tag k="ssr:type" v="adressenavn" />
	</node>
</osm>
