<?xml version="1.0" encoding="UTF-8"?>
<osm generator="osmapis" version="0.6">
	<node id="-31646" lat="59.9890277748" lon="11.2809611097">
		<tag k="name" v="Tertittbanen" />
		<tag k="ssr:date" v="2016-05-10" />
		<tag k="ssr:gruppe" v="bane" />
		<tag k="ssr:hovedgruppe" v="infrastruktur" />
		<tag k="ssr:stedsnr" v="118701" />
		<tag k="ssr:type" v="banestrekning" />
	</node>
	<node id="-32253" lat="59.9870861066" lon="11.2401888955">
		<tag k="name" v="Sørum kommune" />
		<tag k="ssr:date" v="2016-05-11" />
		<tag k="ssr:gruppe" v="administrativeIndelinger" />
		<tag k="ssr:hovedgruppe" v="offentligAdministrasjon" />
		<tag k="ssr:stedsnr" v="875388" />
		<tag k="ssr:type" v="kommune" />
	</node>
	<node id="-32252" lat="59.9863583375" lon="11.2441833276">
		<tag k="name" v="Tertitten Urskog-Hølandsbanen" />
		<tag k="old_name" v="Tertitten Aurskog-Hølandsbanen" />
		<tag k="ssr:date" v="2019-02-26" />
		<tag k="ssr:gruppe" v="bane" />
		<tag k="ssr:hovedgruppe" v="infrastruktur" />
		<tag k="ssr:stedsnr" v="874012" />
		<tag k="ssr:type" v="banestrekning" />
	</node>
	<node id="-31515" lat="60.026692748" lon="11.0629423257">
		<tag k="name" v="Hekseberg terrasse" />
		<tag k="ssr:date" v="2019-05-31" />
		<tag k="ssr:gruppe" v="veg" />
		<tag k="ssr:hovedgruppe" v="infrastruktur" />
		<tag k="ssr:stedsnr" v="1068931" />
		<tag k="ssr:type" v="adressenavn" />
	</node>
	<node id="-32211" lat="59.8948027819" lon="11.2810749961">
		<tag k="name" v="Mjøsjøvegen" />
		<tag k="ssr:date" v="2016-05-11" />
		<tag k="ssr:gruppe" v="veg" />
		<tag k="ssr:hovedgruppe" v="infrastruktur" />
		<tag k="ssr:stedsnr" v="846275" />
		<tag k="ssr:type" v="vegstrekning" />
	</node>
	<node id="-32330" lat="60.5908609473" lon="9.63819281559">
		<tag k="fixme" v="multiple name tags, choose one and add the other to alt_name" />
		<tag k="name" v="Austlandet;Østlandet" />
		<tag k="ssr:date" v="2018-01-09" />
		<tag k="ssr:gruppe" v="administrativeIndelinger" />
		<tag k="ssr:hovedgruppe" v="offentligAdministrasjon" />
		<tag k="ssr:stedsnr" v="974775" />
		<tag k="ssr:type" v="annenAdministrativInndeling" />
	</node>
	<node id="-31516" lat="59.9479283356" lon="11.2412818443">
		<tag k="name" v="Varsjøen" />
		<tag k="ssr:date" v="2019-05-31" />
		<tag k="ssr:gruppe" v="veg" />
		<tag k="ssr:hovedgruppe" v="infrastruktur" />
		<tag k="ssr:stedsnr" v="1069035" />
		<tag k="ssr:type" v="adressenavn" />
	</node>
	<node id="-31397" lat="60.0232583301" lon="11.2022305503">
		<tag k="name" v="Nordvollvegen" />
		<tag k="ssr:date" v="2019-05-31" />
		<tag k="ssr:gruppe" v="veg" />
		<tag k="ssr:hovedgruppe" v="infrastruktur" />
		<tag k="ssr:stedsnr" v="303547" />
		<tag k="ssr:type" v="adressenavn" />
	</node>
	<node id="-31522" lat="60.0335485605" lon="11.1281443434">
		<tag k="name" v="Røyskattvegen" />
		<tag k="ssr:date" v="2019-05-31" />
		<tag k="ssr:gruppe" v="veg" />
		<tag k="ssr:hovedgruppe" v="infrastruktur" />
		<tag k="ssr:stedsnr" v="1067655" />
		<tag k="ssr:type" v="adressenavn" />
	</node>
	<node id="-31521" lat="60.0572246701" lon="11.1218521874">
		<tag k="name" v="Skjelmerudvegen" />
		<tag k="ssr:date" v="2019-05-31" />
		<tag k="ssr:gruppe" v="veg" />
		<tag k="ssr:hovedgruppe" v="infrastruktur" />
		<tag k="ssr:stedsnr" v="1067650" />
		<tag k="ssr:type" v="adressenavn" />
	</node>
</osm>
