<?xml version="1.0" encoding="UTF-8"?>
<osm generator="osmapis" version="0.6">
	<node id="-31518" lat="60.0353122823" lon="11.2296505368">
		<tag k="loc_name" v="Teie" />
		<tag k="place" v="farm" />
		<tag k="ssr:date" v="2019-01-23" />
		<tag k="ssr:gruppe" v="gardsbebyggelse" />
		<tag k="ssr:hovedgruppe" v="bebyggelse" />
		<tag k="ssr:stedsnr" v="989176" />
		<tag k="ssr:type" v="bruk" />
	</node>
	<node id="-32061" lat="60.0436138874" lon="11.182091672">
		<tag k="amenity" v="school" />
		<tag k="old_name" v="Refsum skole" />
		<tag k="ssr:date" v="2016-05-10" />
		<tag k="ssr:gruppe" v="institusjoner" />
		<tag k="ssr:hovedgruppe" v="bebyggelse" />
		<tag k="ssr:stedsnr" v="665225" />
		<tag k="ssr:type" v="skole" />
	</node>
	<node id="-32150" lat="59.9792388851" lon="11.3630444433">
		<tag k="old_name" v="Lillo" />
		<tag k="place" v="locality" />
		<tag k="ssr:date" v="2016-05-11" />
		<tag k="ssr:gruppe" v="bolighus" />
		<tag k="ssr:hovedgruppe" v="bebyggelse" />
		<tag k="ssr:stedsnr" v="768416" />
		<tag k="ssr:type" v="gammelBosettingsplass" />
	</node>
	<node id="-31893" lat="60.0336805532" lon="11.1863527752">
		<tag k="amenity" v="school" />
		<tag k="old_name" v="Vesterskaun;Vesterskaun skole" />
		<tag k="ssr:date" v="2016-05-10" />
		<tag k="ssr:gruppe" v="institusjoner" />
		<tag k="ssr:hovedgruppe" v="bebyggelse" />
		<tag k="ssr:stedsnr" v="490876" />
		<tag k="ssr:type" v="skole" />
	</node>
	<node id="-32148" lat="60.0504416666" lon="11.1353555582">
		<tag k="old_name" v="Areteid stasjon" />
		<tag k="railway" v="station" />
		<tag k="ssr:date" v="2016-05-11" />
		<tag k="ssr:gruppe" v="bane" />
		<tag k="ssr:hovedgruppe" v="infrastruktur" />
		<tag k="ssr:stedsnr" v="768386" />
		<tag k="ssr:type" v="stasjon" />
		<tag k="train" v="yes" />
	</node>
	<node id="-31698" lat="60.0208444474" lon="11.2245750027">
		<tag k="old_name" v="Lørenfallet" />
		<tag k="place" v="farm" />
		<tag k="ssr:date" v="2016-05-10" />
		<tag k="ssr:gruppe" v="gardsbebyggelse" />
		<tag k="ssr:hovedgruppe" v="bebyggelse" />
		<tag k="ssr:stedsnr" v="163042" />
		<tag k="ssr:type" v="bruk" />
	</node>
	<node id="-31811" lat="60.0144249959" lon="11.0686000084">
		<tag k="old_name" v="Børkehagan" />
		<tag k="place" v="locality" />
		<tag k="ssr:date" v="2016-05-10" />
		<tag k="ssr:gruppe" v="dyrkamark" />
		<tag k="ssr:hovedgruppe" v="markslag" />
		<tag k="ssr:stedsnr" v="421813" />
		<tag k="ssr:type" v="utmark" />
	</node>
	<node id="-32039" lat="59.9540027787" lon="11.3257638943">
		<tag k="amenity" v="school" />
		<tag k="old_name" v="Mork skole" />
		<tag k="ssr:date" v="2016-05-10" />
		<tag k="ssr:gruppe" v="institusjoner" />
		<tag k="ssr:hovedgruppe" v="bebyggelse" />
		<tag k="ssr:stedsnr" v="646439" />
		<tag k="ssr:type" v="skole" />
	</node>
	<node id="-31974" lat="60.0541194426" lon="11.159341667">
		<tag k="man_made" v="tower" />
		<tag k="old_name" v="Kløfta radiosender" />
		<tag k="ssr:date" v="2016-05-10" />
		<tag k="ssr:gruppe" v="kommunikasjon" />
		<tag k="ssr:hovedgruppe" v="infrastruktur" />
		<tag k="ssr:stedsnr" v="585362" />
		<tag k="ssr:type" v="tV-Radio-EllerMobiltelefontårn" />
		<tag k="tower:type" v="communications" />
	</node>
	<node id="-31589" lat="60.0441638912" lon="11.2277611131">
		<tag k="old_name" v="Stubberud" />
		<tag k="place" v="locality" />
		<tag k="ssr:date" v="2016-05-10" />
		<tag k="ssr:gruppe" v="bolighus" />
		<tag k="ssr:hovedgruppe" v="bebyggelse" />
		<tag k="ssr:stedsnr" v="59203" />
		<tag k="ssr:type" v="gammelBosettingsplass" />
	</node>
	<node id="-31747" lat="60.0286916709" lon="11.3090416662">
		<tag k="amenity" v="school" />
		<tag k="old_name" v="Fosserud skole" />
		<tag k="ssr:date" v="2016-05-10" />
		<tag k="ssr:gruppe" v="institusjoner" />
		<tag k="ssr:hovedgruppe" v="bebyggelse" />
		<tag k="ssr:stedsnr" v="222311" />
		<tag k="ssr:type" v="skole" />
	</node>
	<node id="-31745" lat="60.0259777782" lon="11.1048416652">
		<tag k="amenity" v="school" />
		<tag k="old_name" v="Melvold ungdomsskole" />
		<tag k="ssr:date" v="2016-05-10" />
		<tag k="ssr:gruppe" v="institusjoner" />
		<tag k="ssr:hovedgruppe" v="bebyggelse" />
		<tag k="ssr:stedsnr" v="222131" />
		<tag k="ssr:type" v="skole" />
	</node>
</osm>
