<?xml version="1.0" encoding="UTF-8"?>
<osm generator="osmapis" version="0.6">
	<node id="-695936" lat="68.4216101768" lon="16.1178171996">
		<tag k="name" v="Losveien" />
		<tag k="ssr:date" v="2019-05-30" />
		<tag k="ssr:gruppe" v="veg" />
		<tag k="ssr:hovedgruppe" v="infrastruktur" />
		<tag k="ssr:stedsnr" v="1008150" />
		<tag k="ssr:type" v="adressenavn" />
	</node>
	<node id="-695935" lat="68.3983240548" lon="16.1178296912">
		<tag k="name" v="Tjeldoddveien" />
		<tag k="ssr:date" v="2019-05-30" />
		<tag k="ssr:gruppe" v="veg" />
		<tag k="ssr:hovedgruppe" v="infrastruktur" />
		<tag k="ssr:stedsnr" v="1008149" />
		<tag k="ssr:type" v="adressenavn" />
	</node>
	<node id="-696190" lat="68.5432333365" lon="16.4435305574">
		<tag k="name" v="Kalvøya, Nedre" />
		<tag k="ssr:date" v="2016-05-10" />
		<tag k="ssr:gruppe" v="navigasjon" />
		<tag k="ssr:hovedgruppe" v="infrastruktur" />
		<tag k="ssr:stedsnr" v="141867" />
		<tag k="ssr:type" v="lanterne" />
	</node>
	<node id="-696189" lat="68.5423888893" lon="16.4111000068">
		<tag k="name" v="Hol, Øvre" />
		<tag k="old_name" v="Øvre Hol;Hol" />
		<tag k="ssr:date" v="2016-05-10" />
		<tag k="ssr:gruppe" v="navigasjon" />
		<tag k="ssr:hovedgruppe" v="infrastruktur" />
		<tag k="ssr:stedsnr" v="141863" />
		<tag k="ssr:type" v="fyrlykt" />
	</node>
	<node id="-695932" lat="68.4265736865" lon="16.3381166783">
		<tag k="name" v="Midtgårdveien" />
		<tag k="ssr:date" v="2019-05-30" />
		<tag k="ssr:gruppe" v="veg" />
		<tag k="ssr:hovedgruppe" v="infrastruktur" />
		<tag k="ssr:stedsnr" v="1008143" />
		<tag k="ssr:type" v="adressenavn" />
	</node>
	<node id="-695931" lat="68.4862689674" lon="16.1513469948">
		<tag k="name" v="Valvågen" />
		<tag k="ssr:date" v="2019-05-30" />
		<tag k="ssr:gruppe" v="veg" />
		<tag k="ssr:hovedgruppe" v="infrastruktur" />
		<tag k="ssr:stedsnr" v="1008135" />
		<tag k="ssr:type" v="adressenavn" />
	</node>
	<node id="-695930" lat="68.5658114505" lon="16.2667646378">
		<tag k="name" v="Nystadveien" />
		<tag k="ssr:date" v="2019-05-30" />
		<tag k="ssr:gruppe" v="veg" />
		<tag k="ssr:hovedgruppe" v="infrastruktur" />
		<tag k="ssr:stedsnr" v="1008016" />
		<tag k="ssr:type" v="adressenavn" />
	</node>
	<node id="-695929" lat="68.5640743673" lon="16.2374108692">
		<tag k="name" v="Storelvveien" />
		<tag k="ssr:date" v="2019-05-30" />
		<tag k="ssr:gruppe" v="veg" />
		<tag k="ssr:hovedgruppe" v="infrastruktur" />
		<tag k="ssr:stedsnr" v="1008015" />
		<tag k="ssr:type" v="adressenavn" />
	</node>
	<node id="-695928" lat="68.5655941108" lon="16.2658450021">
		<tag k="name" v="Kløverheimveien" />
		<tag k="ssr:date" v="2019-05-30" />
		<tag k="ssr:gruppe" v="veg" />
		<tag k="ssr:hovedgruppe" v="infrastruktur" />
		<tag k="ssr:stedsnr" v="1008014" />
		<tag k="ssr:type" v="adressenavn" />
	</node>
	<node id="-695927" lat="68.5660901333" lon="16.4322553413">
		<tag k="name" v="Løbakkveien" />
		<tag k="ssr:date" v="2019-05-30" />
		<tag k="ssr:gruppe" v="veg" />
		<tag k="ssr:hovedgruppe" v="infrastruktur" />
		<tag k="ssr:stedsnr" v="1008008" />
		<tag k="ssr:type" v="adressenavn" />
	</node>
	<node id="-695926" lat="68.5627489571" lon="16.3047973985">
		<tag k="name" v="Ballstadveien" />
		<tag k="ssr:date" v="2019-05-30" />
		<tag k="ssr:gruppe" v="veg" />
		<tag k="ssr:hovedgruppe" v="infrastruktur" />
		<tag k="ssr:stedsnr" v="1008005" />
		<tag k="ssr:type" v="adressenavn" />
	</node>
	<node id="-695925" lat="68.5656052105" lon="16.4302042888">
		<tag k="name" v="Haugbakkveien" />
		<tag k="ssr:date" v="2019-05-30" />
		<tag k="ssr:gruppe" v="veg" />
		<tag k="ssr:hovedgruppe" v="infrastruktur" />
		<tag k="ssr:stedsnr" v="1008004" />
		<tag k="ssr:type" v="adressenavn" />
	</node>
	<node id="-695924" lat="68.4970724321" lon="16.5072588547">
		<tag k="name" v="Strandveien" />
		<tag k="ssr:date" v="2019-05-30" />
		<tag k="ssr:gruppe" v="veg" />
		<tag k="ssr:hovedgruppe" v="infrastruktur" />
		<tag k="ssr:stedsnr" v="1007914" />
		<tag k="ssr:type" v="adressenavn" />
	</node>
	<node id="-695934" lat="68.4368545814" lon="16.1378954039">
		<tag k="name" v="Vågeveien" />
		<tag k="ssr:date" v="2019-05-30" />
		<tag k="ssr:gruppe" v="veg" />
		<tag k="ssr:hovedgruppe" v="infrastruktur" />
		<tag k="ssr:stedsnr" v="1008148" />
		<tag k="ssr:type" v="adressenavn" />
	</node>
	<node id="-695922" lat="68.5557361547" lon="16.5262536127">
		<tag k="name" v="Myrveien" />
		<tag k="ssr:date" v="2019-05-30" />
		<tag k="ssr:gruppe" v="veg" />
		<tag k="ssr:hovedgruppe" v="infrastruktur" />
		<tag k="ssr:stedsnr" v="1008120" />
		<tag k="ssr:type" v="adressenavn" />
	</node>
	<node id="-695921" lat="68.5561533884" lon="16.5247618767">
		<tag k="name" v="Stornakkveien" />
		<tag k="ssr:date" v="2019-05-30" />
		<tag k="ssr:gruppe" v="veg" />
		<tag k="ssr:hovedgruppe" v="infrastruktur" />
		<tag k="ssr:stedsnr" v="1008118" />
		<tag k="ssr:type" v="adressenavn" />
	</node>
	<node id="-695920" lat="68.5562420665" lon="16.5261918174">
		<tag k="name" v="Bekkevollveien" />
		<tag k="ssr:date" v="2019-05-30" />
		<tag k="ssr:gruppe" v="veg" />
		<tag k="ssr:hovedgruppe" v="infrastruktur" />
		<tag k="ssr:stedsnr" v="1008117" />
		<tag k="ssr:type" v="adressenavn" />
	</node>
	<node id="-695919" lat="68.5528137889" lon="16.5437049436">
		<tag k="name" v="Strandaveien" />
		<tag k="ssr:date" v="2019-05-30" />
		<tag k="ssr:gruppe" v="veg" />
		<tag k="ssr:hovedgruppe" v="infrastruktur" />
		<tag k="ssr:stedsnr" v="1008114" />
		<tag k="ssr:type" v="adressenavn" />
	</node>
	<node id="-695918" lat="68.541065424" lon="16.5780847396">
		<tag k="name" v="Fjelldalsveien" />
		<tag k="ssr:date" v="2019-05-30" />
		<tag k="ssr:gruppe" v="veg" />
		<tag k="ssr:hovedgruppe" v="infrastruktur" />
		<tag k="ssr:stedsnr" v="1008113" />
		<tag k="ssr:type" v="adressenavn" />
	</node>
	<node id="-695933" lat="68.4245982496" lon="16.3220089274">
		<tag k="name" v="Skoganvegen" />
		<tag k="ssr:date" v="2019-05-30" />
		<tag k="ssr:gruppe" v="veg" />
		<tag k="ssr:hovedgruppe" v="infrastruktur" />
		<tag k="ssr:stedsnr" v="1008145" />
		<tag k="ssr:type" v="adressenavn" />
	</node>
	<node id="-695916" lat="68.5558540286" lon="16.5473952398">
		<tag k="name" v="Bakkenveien" />
		<tag k="ssr:date" v="2019-05-30" />
		<tag k="ssr:gruppe" v="veg" />
		<tag k="ssr:hovedgruppe" v="infrastruktur" />
		<tag k="ssr:stedsnr" v="1008110" />
		<tag k="ssr:type" v="adressenavn" />
	</node>
	<node id="-695915" lat="68.5535016321" lon="16.5170456607">
		<tag k="name" v="Brannskoleveien" />
		<tag k="ssr:date" v="2019-05-30" />
		<tag k="ssr:gruppe" v="veg" />
		<tag k="ssr:hovedgruppe" v="infrastruktur" />
		<tag k="ssr:stedsnr" v="1008109" />
		<tag k="ssr:type" v="adressenavn" />
	</node>
	<node id="-696298" lat="68.5515111076" lon="16.4811111171">
		<tag k="name" v="Nordøygrunnen" />
		<tag k="ssr:date" v="2016-05-10" />
		<tag k="ssr:gruppe" v="navigasjon" />
		<tag k="ssr:hovedgruppe" v="infrastruktur" />
		<tag k="ssr:stedsnr" v="202853" />
		<tag k="ssr:type" v="fyrlykt" />
	</node>
	<node id="-695914" lat="68.5475910592" lon="16.5176129863">
		<tag k="name" v="Knausveien" />
		<tag k="ssr:date" v="2019-05-30" />
		<tag k="ssr:gruppe" v="veg" />
		<tag k="ssr:hovedgruppe" v="infrastruktur" />
		<tag k="ssr:stedsnr" v="1008108" />
		<tag k="ssr:type" v="adressenavn" />
	</node>
	<node id="-695912" lat="68.556037599" lon="16.5414007235">
		<tag k="name" v="Kalshågveien" />
		<tag k="ssr:date" v="2019-05-30" />
		<tag k="ssr:gruppe" v="veg" />
		<tag k="ssr:hovedgruppe" v="infrastruktur" />
		<tag k="ssr:stedsnr" v="1008106" />
		<tag k="ssr:type" v="adressenavn" />
	</node>
	<node id="-695911" lat="68.5559022087" lon="16.5257500382">
		<tag k="name" v="Auraveien" />
		<tag k="ssr:date" v="2019-05-30" />
		<tag k="ssr:gruppe" v="veg" />
		<tag k="ssr:hovedgruppe" v="infrastruktur" />
		<tag k="ssr:stedsnr" v="1008105" />
		<tag k="ssr:type" v="adressenavn" />
	</node>
	<node id="-695910" lat="68.5579203726" lon="16.5376066286">
		<tag k="name" v="Sjøveien" />
		<tag k="ssr:date" v="2019-05-30" />
		<tag k="ssr:gruppe" v="veg" />
		<tag k="ssr:hovedgruppe" v="infrastruktur" />
		<tag k="ssr:stedsnr" v="1008104" />
		<tag k="ssr:type" v="adressenavn" />
	</node>
	<node id="-695909" lat="68.5406229173" lon="16.4695429582">
		<tag k="name" v="Øyaveien" />
		<tag k="ssr:date" v="2019-05-30" />
		<tag k="ssr:gruppe" v="veg" />
		<tag k="ssr:hovedgruppe" v="infrastruktur" />
		<tag k="ssr:stedsnr" v="1008102" />
		<tag k="ssr:type" v="adressenavn" />
	</node>
	<node id="-695908" lat="68.4652085331" lon="16.4348786399">
		<tag k="name" v="Myklebostadveien" />
		<tag k="ssr:date" v="2019-05-30" />
		<tag k="ssr:gruppe" v="veg" />
		<tag k="ssr:hovedgruppe" v="infrastruktur" />
		<tag k="ssr:stedsnr" v="1008099" />
		<tag k="ssr:type" v="adressenavn" />
	</node>
	<node id="-695907" lat="68.5071225261" lon="16.4407540523">
		<tag k="name" v="Tjeldøyveien" />
		<tag k="ssr:date" v="2019-05-30" />
		<tag k="ssr:gruppe" v="veg" />
		<tag k="ssr:hovedgruppe" v="infrastruktur" />
		<tag k="ssr:stedsnr" v="1008098" />
		<tag k="ssr:type" v="adressenavn" />
	</node>
	<node id="-695906" lat="68.5657461013" lon="16.2551361433">
		<tag k="name" v="Klungnesveien" />
		<tag k="ssr:date" v="2019-05-30" />
		<tag k="ssr:gruppe" v="veg" />
		<tag k="ssr:hovedgruppe" v="infrastruktur" />
		<tag k="ssr:stedsnr" v="1008026" />
		<tag k="ssr:type" v="adressenavn" />
	</node>
	<node id="-695905" lat="68.5676425335" lon="16.2654206085">
		<tag k="name" v="Dukanveien" />
		<tag k="ssr:date" v="2019-05-30" />
		<tag k="ssr:gruppe" v="veg" />
		<tag k="ssr:hovedgruppe" v="infrastruktur" />
		<tag k="ssr:stedsnr" v="1008025" />
		<tag k="ssr:type" v="adressenavn" />
	</node>
	<node id="-695904" lat="68.5662546625" lon="16.2507520023">
		<tag k="name" v="Kongsvikdalveien" />
		<tag k="ssr:date" v="2019-05-30" />
		<tag k="ssr:gruppe" v="veg" />
		<tag k="ssr:hovedgruppe" v="infrastruktur" />
		<tag k="ssr:stedsnr" v="1008024" />
		<tag k="ssr:type" v="adressenavn" />
	</node>
	<node id="-695903" lat="68.5628368277" lon="16.4340626819">
		<tag k="name" v="Kong Olavs vei" />
		<tag k="ssr:date" v="2019-05-30" />
		<tag k="ssr:gruppe" v="veg" />
		<tag k="ssr:hovedgruppe" v="infrastruktur" />
		<tag k="ssr:stedsnr" v="1008022" />
		<tag k="ssr:type" v="adressenavn" />
	</node>
	<node id="-695902" lat="68.4942472644" lon="16.5137031387">
		<tag k="name" v="Arne Wisthus veg" />
		<tag k="ssr:date" v="2019-05-30" />
		<tag k="ssr:gruppe" v="veg" />
		<tag k="ssr:hovedgruppe" v="infrastruktur" />
		<tag k="ssr:stedsnr" v="1007894" />
		<tag k="ssr:type" v="adressenavn" />
	</node>
	<node id="-695901" lat="68.4947277881" lon="16.5148170414">
		<tag k="name" v="Hesthagen" />
		<tag k="ssr:date" v="2019-05-30" />
		<tag k="ssr:gruppe" v="veg" />
		<tag k="ssr:hovedgruppe" v="infrastruktur" />
		<tag k="ssr:stedsnr" v="1007892" />
		<tag k="ssr:type" v="adressenavn" />
	</node>
	<node id="-695900" lat="68.4974214531" lon="16.5126781176">
		<tag k="name" v="Øvreveien" />
		<tag k="ssr:date" v="2019-05-30" />
		<tag k="ssr:gruppe" v="veg" />
		<tag k="ssr:hovedgruppe" v="infrastruktur" />
		<tag k="ssr:stedsnr" v="1007889" />
		<tag k="ssr:type" v="adressenavn" />
	</node>
	<node id="-695899" lat="68.4958711651" lon="16.52052895">
		<tag k="name" v="Utsiktsveien" />
		<tag k="old_name" v="Utsikten" />
		<tag k="ssr:date" v="2019-05-30" />
		<tag k="ssr:gruppe" v="veg" />
		<tag k="ssr:hovedgruppe" v="infrastruktur" />
		<tag k="ssr:stedsnr" v="1007885" />
		<tag k="ssr:type" v="adressenavn" />
	</node>
	<node id="-696282" lat="68.4977277741" lon="16.47713056">
		<tag k="name" v="Søre Rambøskjæret" />
		<tag k="ssr:date" v="2016-05-10" />
		<tag k="ssr:gruppe" v="navigasjon" />
		<tag k="ssr:hovedgruppe" v="infrastruktur" />
		<tag k="ssr:stedsnr" v="199404" />
		<tag k="ssr:type" v="fyrlykt" />
	</node>
	<node id="-695897" lat="68.4953669255" lon="16.5136897087">
		<tag k="name" v="Steinbakken" />
		<tag k="ssr:date" v="2019-05-30" />
		<tag k="ssr:gruppe" v="veg" />
		<tag k="ssr:hovedgruppe" v="infrastruktur" />
		<tag k="ssr:stedsnr" v="1007878" />
		<tag k="ssr:type" v="adressenavn" />
	</node>
	<node id="-695896" lat="68.4932078771" lon="16.5212950985">
		<tag k="name" v="Akeveien" />
		<tag k="old_name" v="Akebakken" />
		<tag k="ssr:date" v="2019-12-05" />
		<tag k="ssr:gruppe" v="veg" />
		<tag k="ssr:hovedgruppe" v="infrastruktur" />
		<tag k="ssr:stedsnr" v="1007872" />
		<tag k="ssr:type" v="adressenavn" />
	</node>
	<node id="-695895" lat="68.490670755" lon="16.5250599709">
		<tag k="name" v="Laveien" />
		<tag k="ssr:date" v="2019-05-30" />
		<tag k="ssr:gruppe" v="veg" />
		<tag k="ssr:hovedgruppe" v="infrastruktur" />
		<tag k="ssr:stedsnr" v="1007868" />
		<tag k="ssr:type" v="adressenavn" />
	</node>
	<node id="-695894" lat="68.4831548219" lon="16.5325529499">
		<tag k="name" v="Oldervikveien" />
		<tag k="ssr:date" v="2019-05-30" />
		<tag k="ssr:gruppe" v="veg" />
		<tag k="ssr:hovedgruppe" v="infrastruktur" />
		<tag k="ssr:stedsnr" v="1007852" />
		<tag k="ssr:type" v="adressenavn" />
	</node>
	<node id="-695893" lat="68.5063557328" lon="16.4559619612">
		<tag k="name" v="Rambøveien" />
		<tag k="ssr:date" v="2019-05-30" />
		<tag k="ssr:gruppe" v="veg" />
		<tag k="ssr:hovedgruppe" v="infrastruktur" />
		<tag k="ssr:stedsnr" v="1007839" />
		<tag k="ssr:type" v="adressenavn" />
	</node>
	<node id="-695892" lat="68.492410033" lon="16.5186665846">
		<tag k="name" v="Lundveien" />
		<tag k="ssr:date" v="2019-05-30" />
		<tag k="ssr:gruppe" v="veg" />
		<tag k="ssr:hovedgruppe" v="infrastruktur" />
		<tag k="ssr:stedsnr" v="1007829" />
		<tag k="ssr:type" v="adressenavn" />
	</node>
	<node id="-695891" lat="68.4925383162" lon="16.5206869883">
		<tag k="name" v="Mølnvollen" />
		<tag k="ssr:date" v="2019-05-30" />
		<tag k="ssr:gruppe" v="veg" />
		<tag k="ssr:hovedgruppe" v="infrastruktur" />
		<tag k="ssr:stedsnr" v="1007823" />
		<tag k="ssr:type" v="adressenavn" />
	</node>
	<node id="-695890" lat="68.4932251464" lon="16.5163861313">
		<tag k="name" v="Skoleveien" />
		<tag k="ssr:date" v="2019-05-30" />
		<tag k="ssr:gruppe" v="veg" />
		<tag k="ssr:hovedgruppe" v="infrastruktur" />
		<tag k="ssr:stedsnr" v="1007811" />
		<tag k="ssr:type" v="adressenavn" />
	</node>
	<node id="-695889" lat="68.4914981022" lon="16.5189064701">
		<tag k="name" v="Melsbøveien" />
		<tag k="ssr:date" v="2019-05-30" />
		<tag k="ssr:gruppe" v="veg" />
		<tag k="ssr:hovedgruppe" v="infrastruktur" />
		<tag k="ssr:stedsnr" v="1007804" />
		<tag k="ssr:type" v="adressenavn" />
	</node>
	<node id="-695888" lat="68.4968630623" lon="16.5280294068">
		<tag k="name" v="Tjønnmyrveien" />
		<tag k="ssr:date" v="2019-05-30" />
		<tag k="ssr:gruppe" v="veg" />
		<tag k="ssr:hovedgruppe" v="infrastruktur" />
		<tag k="ssr:stedsnr" v="1007801" />
		<tag k="ssr:type" v="adressenavn" />
	</node>
	<node id="-695887" lat="68.4913578877" lon="16.5303867572">
		<tag k="name" v="Rødholtveien" />
		<tag k="ssr:date" v="2019-05-30" />
		<tag k="ssr:gruppe" v="veg" />
		<tag k="ssr:hovedgruppe" v="infrastruktur" />
		<tag k="ssr:stedsnr" v="1007796" />
		<tag k="ssr:type" v="adressenavn" />
	</node>
	<node id="-695886" lat="68.49040241" lon="16.522010685">
		<tag k="name" v="Kapellveien" />
		<tag k="ssr:date" v="2019-05-30" />
		<tag k="ssr:gruppe" v="veg" />
		<tag k="ssr:hovedgruppe" v="infrastruktur" />
		<tag k="ssr:stedsnr" v="1007792" />
		<tag k="ssr:type" v="adressenavn" />
	</node>
	<node id="-696802" lat="68.5428722256" lon="16.4448944409">
		<tag k="name" v="Øvre Kalvøy" />
		<tag k="ssr:date" v="2016-05-10" />
		<tag k="ssr:gruppe" v="navigasjon" />
		<tag k="ssr:hovedgruppe" v="infrastruktur" />
		<tag k="ssr:stedsnr" v="636712" />
		<tag k="ssr:type" v="fyrlykt" />
	</node>
	<node id="-696905" lat="68.5370138845" lon="16.432319449">
		<tag k="name" v="Ormtunga" />
		<tag k="old_name" v="Ormtunga Lysbøye" />
		<tag k="ssr:date" v="2016-05-11" />
		<tag k="ssr:gruppe" v="navigasjon" />
		<tag k="ssr:hovedgruppe" v="infrastruktur" />
		<tag k="ssr:stedsnr" v="697040" />
		<tag k="ssr:type" v="fyrlykt" />
	</node>
	<node id="-696389" lat="68.5566277756" lon="16.3293499952">
		<tag k="name" v="Ballstadstraumen" />
		<tag k="ssr:date" v="2016-05-10" />
		<tag k="ssr:gruppe" v="navigasjon" />
		<tag k="ssr:hovedgruppe" v="infrastruktur" />
		<tag k="ssr:stedsnr" v="262863" />
		<tag k="ssr:type" v="fyrlykt" />
	</node>
	<node id="-696708" lat="68.5389111144" lon="16.4202416627">
		<tag k="name" v="Stokkøyrenna, Nedre" />
		<tag k="old_name" v="Nedre Stokkøyrenna" />
		<tag k="ssr:date" v="2016-05-10" />
		<tag k="ssr:gruppe" v="navigasjon" />
		<tag k="ssr:hovedgruppe" v="infrastruktur" />
		<tag k="ssr:stedsnr" v="575027" />
		<tag k="ssr:type" v="fyrlykt" />
	</node>
	<node id="-696258" lat="68.5390527816" lon="16.4206166778">
		<tag k="name" v="Stokkøyrenna, Øvre" />
		<tag k="old_name" v="Øvre Stokkøyrenna" />
		<tag k="ssr:date" v="2016-05-10" />
		<tag k="ssr:gruppe" v="navigasjon" />
		<tag k="ssr:hovedgruppe" v="infrastruktur" />
		<tag k="ssr:stedsnr" v="151036" />
		<tag k="ssr:type" v="fyrlykt" />
	</node>
	<node id="-695776" lat="68.4726472201" lon="16.5268249866">
		<tag k="name" v="Ramsund" />
		<tag k="ssr:date" v="2016-05-10" />
		<tag k="ssr:gruppe" v="navigasjon" />
		<tag k="ssr:hovedgruppe" v="infrastruktur" />
		<tag k="ssr:stedsnr" v="380421" />
		<tag k="ssr:type" v="fyrlykt" />
	</node>
	<node id="-695913" lat="68.5538588557" lon="16.5152549667">
		<tag k="name" v="Erling Johannessens veg" />
		<tag k="ssr:date" v="2019-05-30" />
		<tag k="ssr:gruppe" v="veg" />
		<tag k="ssr:hovedgruppe" v="infrastruktur" />
		<tag k="ssr:stedsnr" v="1008107" />
		<tag k="ssr:type" v="adressenavn" />
	</node>
	<node id="-696799" lat="68.506941664" lon="16.4494583408">
		<tag k="name" v="Ramsundet bru" />
		<tag k="ssr:date" v="2016-05-10" />
		<tag k="ssr:gruppe" v="navigasjon" />
		<tag k="ssr:hovedgruppe" v="infrastruktur" />
		<tag k="ssr:stedsnr" v="636066" />
		<tag k="ssr:type" v="lanterne" />
	</node>
	<node id="-695923" lat="68.4968980255" lon="16.5077599637">
		<tag k="name" v="Brennaveien" />
		<tag k="ssr:date" v="2019-05-30" />
		<tag k="ssr:gruppe" v="veg" />
		<tag k="ssr:hovedgruppe" v="infrastruktur" />
		<tag k="ssr:stedsnr" v="1007912" />
		<tag k="ssr:type" v="adressenavn" />
	</node>
	<node id="-696528" lat="68.5660666691" lon="16.5556749888">
		<tag k="name" v="Fjelldalsholman" />
		<tag k="ssr:date" v="2016-05-10" />
		<tag k="ssr:gruppe" v="navigasjon" />
		<tag k="ssr:hovedgruppe" v="infrastruktur" />
		<tag k="ssr:stedsnr" v="505819" />
		<tag k="ssr:type" v="fyrlykt" />
	</node>
	<node id="-697005" lat="68.4940555556" lon="16.1420222318">
		<tag k="name" v="Nordstrandskjær" />
		<tag k="old_name" v="Nordstrandskjeret" />
		<tag k="ssr:date" v="2016-05-11" />
		<tag k="ssr:gruppe" v="navigasjon" />
		<tag k="ssr:hovedgruppe" v="infrastruktur" />
		<tag k="ssr:stedsnr" v="806142" />
		<tag k="ssr:type" v="fyrlykt" />
	</node>
	<node id="-695978" lat="68.5563472227" lon="16.2325639003">
		<tag k="name" v="Stakksvollholmen" />
		<tag k="ssr:date" v="2016-05-10" />
		<tag k="ssr:gruppe" v="navigasjon" />
		<tag k="ssr:hovedgruppe" v="infrastruktur" />
		<tag k="ssr:stedsnr" v="20843" />
		<tag k="ssr:type" v="fyrlykt" />
	</node>
	<node id="-697001" lat="68.5276250047" lon="16.4618861036">
		<tag k="name" v="Sandneset" />
		<tag k="ssr:date" v="2016-05-11" />
		<tag k="ssr:gruppe" v="navigasjon" />
		<tag k="ssr:hovedgruppe" v="infrastruktur" />
		<tag k="ssr:stedsnr" v="869811" />
		<tag k="ssr:type" v="fyrlykt" />
	</node>
	<node id="-697256" lat="68.5432333301" lon="16.4141444483">
		<tag k="alt_name" v="Hol, Nedre" />
		<tag k="name" v="Nedre Hol" />
		<tag k="ssr:date" v="2016-05-11" />
		<tag k="ssr:gruppe" v="navigasjon" />
		<tag k="ssr:hovedgruppe" v="infrastruktur" />
		<tag k="ssr:stedsnr" v="935726" />
		<tag k="ssr:type" v="fyrlykt" />
	</node>
	<node id="-697306" lat="68.4849327361" lon="16.2297866207">
		<tag k="fixme" v="multiple name tags, choose one and add the other to alt_name" />
		<tag k="name" v="Nord-Noreg;Nord-Norge" />
		<tag k="ssr:date" v="2017-05-18" />
		<tag k="ssr:gruppe" v="administrativeIndelinger" />
		<tag k="ssr:hovedgruppe" v="offentligAdministrasjon" />
		<tag k="ssr:stedsnr" v="976106" />
		<tag k="ssr:type" v="annenAdministrativInndeling" />
	</node>
	<node id="-696966" lat="68.5555638912" lon="16.3617138816">
		<tag k="name" v="Tjeldsund kommune" />
		<tag k="ssr:date" v="2016-05-11" />
		<tag k="ssr:gruppe" v="administrativeIndelinger" />
		<tag k="ssr:hovedgruppe" v="offentligAdministrasjon" />
		<tag k="ssr:stedsnr" v="753961" />
		<tag k="ssr:type" v="kommune" />
	</node>
	<node id="-696993" lat="68.5026138855" lon="16.458288878">
		<tag k="name" v="Rambøskjæret" />
		<tag k="ssr:date" v="2016-05-11" />
		<tag k="ssr:gruppe" v="navigasjon" />
		<tag k="ssr:hovedgruppe" v="infrastruktur" />
		<tag k="ssr:stedsnr" v="758058" />
		<tag k="ssr:type" v="fyrlykt" />
	</node>
	<node id="-697200" lat="68.5056000002" lon="16.4499194405">
		<tag k="name" v="Hella" />
		<tag k="ssr:date" v="2016-05-11" />
		<tag k="ssr:gruppe" v="navigasjon" />
		<tag k="ssr:hovedgruppe" v="infrastruktur" />
		<tag k="ssr:stedsnr" v="879073" />
		<tag k="ssr:type" v="fyrlykt" />
	</node>
	<node id="-696433" lat="68.5142277769" lon="16.4532388764">
		<tag k="name" v="Sandnesskjæret" />
		<tag k="old_name" v="Sandnesskjeret;Sandnesskjer lykt" />
		<tag k="ssr:date" v="2016-05-10" />
		<tag k="ssr:gruppe" v="navigasjon" />
		<tag k="ssr:hovedgruppe" v="infrastruktur" />
		<tag k="ssr:stedsnr" v="445811" />
		<tag k="ssr:type" v="fyrlykt" />
	</node>
	<node id="-695898" lat="68.4935233461" lon="16.5201428143">
		<tag k="name" v="Sekeliveien" />
		<tag k="ssr:date" v="2019-05-30" />
		<tag k="ssr:gruppe" v="veg" />
		<tag k="ssr:hovedgruppe" v="infrastruktur" />
		<tag k="ssr:stedsnr" v="1007881" />
		<tag k="ssr:type" v="adressenavn" />
	</node>
	<node id="-697297" lat="68.5302333343" lon="16.4562555656">
		<tag k="name" v="Sandnesøra" />
		<tag k="old_name" v="Sandnesøra Lysbøye" />
		<tag k="ssr:date" v="2016-05-11" />
		<tag k="ssr:gruppe" v="navigasjon" />
		<tag k="ssr:hovedgruppe" v="infrastruktur" />
		<tag k="ssr:stedsnr" v="940040" />
		<tag k="ssr:type" v="fyrlykt" />
	</node>
	<node id="-695917" lat="68.5452660429" lon="16.5065197364">
		<tag k="name" v="Ramstadveien" />
		<tag k="ssr:date" v="2019-05-30" />
		<tag k="ssr:gruppe" v="veg" />
		<tag k="ssr:hovedgruppe" v="infrastruktur" />
		<tag k="ssr:stedsnr" v="1008112" />
		<tag k="ssr:type" v="adressenavn" />
	</node>
	<node id="-697154" lat="68.5522611117" lon="16.4556444554">
		<tag k="name" v="Holsflu lysbøye" />
		<tag k="old_name" v="Holsflua lysbøye" />
		<tag k="ssr:date" v="2016-05-11" />
		<tag k="ssr:gruppe" v="navigasjon" />
		<tag k="ssr:hovedgruppe" v="infrastruktur" />
		<tag k="ssr:stedsnr" v="875684" />
		<tag k="ssr:type" v="fyrlykt" />
	</node>
	<node id="-697303" lat="68.5428722227" lon="16.4449194335">
		<tag k="name" v="Kalvøya, Øvre" />
		<tag k="ssr:date" v="2016-05-11" />
		<tag k="ssr:gruppe" v="navigasjon" />
		<tag k="ssr:hovedgruppe" v="infrastruktur" />
		<tag k="ssr:stedsnr" v="946564" />
		<tag k="ssr:type" v="lanterne" />
	</node>
	<node id="-695944" lat="68.44929678" lon="16.1600396597">
		<tag k="name" v="Forosveien" />
		<tag k="ssr:date" v="2019-05-30" />
		<tag k="ssr:gruppe" v="veg" />
		<tag k="ssr:hovedgruppe" v="infrastruktur" />
		<tag k="ssr:stedsnr" v="1008158" />
		<tag k="ssr:type" v="adressenavn" />
	</node>
	<node id="-695943" lat="68.4509612866" lon="16.1423374271">
		<tag k="name" v="Lappskarveien" />
		<tag k="ssr:date" v="2019-05-30" />
		<tag k="ssr:gruppe" v="veg" />
		<tag k="ssr:hovedgruppe" v="infrastruktur" />
		<tag k="ssr:stedsnr" v="1008157" />
		<tag k="ssr:type" v="adressenavn" />
	</node>
	<node id="-695942" lat="68.4490187491" lon="16.1549975467">
		<tag k="name" v="Kaiveien" />
		<tag k="old_name" v="Bryggeveien" />
		<tag k="ssr:date" v="2019-12-05" />
		<tag k="ssr:gruppe" v="veg" />
		<tag k="ssr:hovedgruppe" v="infrastruktur" />
		<tag k="ssr:stedsnr" v="1008156" />
		<tag k="ssr:type" v="adressenavn" />
	</node>
	<node id="-695941" lat="68.5164127083" lon="16.2001193855">
		<tag k="name" v="Draglandsveien" />
		<tag k="ssr:date" v="2019-05-30" />
		<tag k="ssr:gruppe" v="veg" />
		<tag k="ssr:hovedgruppe" v="infrastruktur" />
		<tag k="ssr:stedsnr" v="1008155" />
		<tag k="ssr:type" v="adressenavn" />
	</node>
	<node id="-695940" lat="68.45111752" lon="16.1325365463">
		<tag k="name" v="Kjerstadveien" />
		<tag k="ssr:date" v="2019-05-30" />
		<tag k="ssr:gruppe" v="veg" />
		<tag k="ssr:hovedgruppe" v="infrastruktur" />
		<tag k="ssr:stedsnr" v="1008154" />
		<tag k="ssr:type" v="adressenavn" />
	</node>
	<node id="-695939" lat="68.5441212475" lon="16.3958954901">
		<tag k="name" v="Øygårdsveien" />
		<tag k="ssr:date" v="2019-05-30" />
		<tag k="ssr:gruppe" v="veg" />
		<tag k="ssr:hovedgruppe" v="infrastruktur" />
		<tag k="ssr:stedsnr" v="1008153" />
		<tag k="ssr:type" v="adressenavn" />
	</node>
	<node id="-695938" lat="68.4281603617" lon="16.3368545111">
		<tag k="name" v="Norbakkveien" />
		<tag k="ssr:date" v="2019-05-30" />
		<tag k="ssr:gruppe" v="veg" />
		<tag k="ssr:hovedgruppe" v="infrastruktur" />
		<tag k="ssr:stedsnr" v="1008152" />
		<tag k="ssr:type" v="adressenavn" />
	</node>
	<node id="-695937" lat="68.4261811925" lon="16.3392201141">
		<tag k="name" v="Nordgårdveien" />
		<tag k="ssr:date" v="2019-05-30" />
		<tag k="ssr:gruppe" v="veg" />
		<tag k="ssr:hovedgruppe" v="infrastruktur" />
		<tag k="ssr:stedsnr" v="1008151" />
		<tag k="ssr:type" v="adressenavn" />
	</node>
</osm>
