<?xml version="1.0" encoding="UTF-8"?>
<osm version="0.6" generator="osmapis">
	<node id="1720501156" lat="68.6887535" lon="17.9809059" version="2" timestamp="2022-07-06T05:57:08Z" changeset="123260435" uid="3497659" user="NKA">
		<tag k="name" v="Fossbakken" />
		<tag k="place" v="village" />
		<tag k="ssr:stedsnr" v="203181" />
	</node>
	<node id="1841746686" lat="68.7470256" lon="17.8062907" version="5" timestamp="2022-07-06T05:57:08Z" changeset="123260435" uid="3497659" user="NKA">
		<tag k="alt_name:no" v="Tennevollen" />
		<tag k="loc_name:se" v="Deannjá" />
		<tag k="name" v="Tennevoll" />
		<tag k="name:no" v="Tennevoll" />
		<tag k="place" v="village" />
		<tag k="population" v="310" />
		<tag k="population:date" v="2021-01-01" />
		<tag k="ref:ssb_tettsted" v="8221" />
		<tag k="source:population" v="SSB - befolkning i tettstedet" />
		<tag k="ssr:stedsnr" v="624898" />
	</node>
	<node id="9869589172" lat="68.7198712" lon="17.8566263" version="1" timestamp="2022-07-06T05:57:08Z" changeset="123260435" uid="3497659" user="NKA">
		<tag k="loc_name:se" v="Sáttodievvá" />
		<tag k="name" v="Sandmelen" />
		<tag k="name:no" v="Sandmelen" />
		<tag k="place" v="farm" />
		<tag k="ssr:stedsnr" v="1077299" />
	</node>
	<node id="9869589173" lat="68.7191791" lon="17.8728869" version="1" timestamp="2022-07-06T05:57:08Z" changeset="123260435" uid="3497659" user="NKA">
		<tag k="name" v="Skredberget" />
		<tag k="place" v="farm" />
		<tag k="ssr:stedsnr" v="1077298" />
	</node>
	<node id="9869589174" lat="68.6972417" lon="17.9886611" version="1" timestamp="2022-07-06T05:57:08Z" changeset="123260435" uid="3497659" user="NKA">
		<tag k="name" v="Nordre Fossbakken" />
		<tag k="place" v="farm" />
		<tag k="ssr:stedsnr" v="563542" />
	</node>
	<node id="9869589175" lat="68.6960417" lon="18.0134973" version="1" timestamp="2022-07-06T05:57:08Z" changeset="123260435" uid="3497659" user="NKA">
		<tag k="name" v="Mina" />
		<tag k="place" v="locality" />
		<tag k="ssr:stedsnr" v="563333" />
	</node>
	<node id="9869589176" lat="68.7806006" lon="17.6559561" version="1" timestamp="2022-07-06T05:57:08Z" changeset="123260435" uid="3497659" user="NKA">
		<tag k="name" v="Hestnes" />
		<tag k="place" v="hamlet" />
		<tag k="ssr:stedsnr" v="571777" />
	</node>
	<node id="9869589177" lat="68.7994623" lon="17.5467164" version="1" timestamp="2022-07-06T05:57:08Z" changeset="123260435" uid="3497659" user="NKA">
		<tag k="name" v="Skjelnesplassen" />
		<tag k="place" v="farm" />
		<tag k="ssr:stedsnr" v="381735" />
	</node>
	<node id="9869589178" lat="68.6971583" lon="18.0271167" version="1" timestamp="2022-07-06T05:57:08Z" changeset="123260435" uid="3497659" user="NKA">
		<tag k="historic" v="shieling" />
		<tag k="name" v="Sætran" />
		<tag k="place" v="isolated_dwelling" />
		<tag k="ssr:stedsnr" v="536749" />
	</node>
	<node id="9869589179" lat="68.7219889" lon="17.810861" version="1" timestamp="2022-07-06T05:57:08Z" changeset="123260435" uid="3497659" user="NKA">
		<tag k="name" v="Sommarheimen" />
		<tag k="place" v="locality" />
		<tag k="ssr:stedsnr" v="117506" />
	</node>
	<node id="9869589180" lat="68.759664" lon="17.7678267" version="1" timestamp="2022-07-06T05:57:08Z" changeset="123260435" uid="3497659" user="NKA">
		<tag k="alt_name:no" v="Lotternes" />
		<tag k="loc_name:se" v="Lohtarnášši;Loahtarnássi" />
		<tag k="name" v="Låternes" />
		<tag k="name:no" v="Låternes" />
		<tag k="place" v="hamlet" />
		<tag k="ssr:stedsnr" v="624730" />
	</node>
	<node id="9869589181" lat="68.7261772" lon="17.8100563" version="1" timestamp="2022-07-06T05:57:08Z" changeset="123260435" uid="3497659" user="NKA">
		<tag k="alt_name" v="Moshågen" />
		<tag k="name" v="Moshaugen" />
		<tag k="place" v="farm" />
		<tag k="ssr:stedsnr" v="624924" />
	</node>
	<node id="9869589182" lat="68.723" lon="17.8410916" version="1" timestamp="2022-07-06T05:57:08Z" changeset="123260435" uid="3497659" user="NKA">
		<tag k="name" v="Gammelgården" />
		<tag k="place" v="locality" />
		<tag k="ssr:stedsnr" v="57695" />
	</node>
	<node id="9869589183" lat="68.7970305" lon="17.6589473" version="1" timestamp="2022-07-06T05:57:08Z" changeset="123260435" uid="3497659" user="NKA">
		<tag k="name" v="Lars-Polsaheimen" />
		<tag k="place" v="locality" />
		<tag k="ssr:stedsnr" v="178204" />
	</node>
	<node id="9869589184" lat="68.6727416" lon="17.9005751" version="1" timestamp="2022-07-06T05:57:08Z" changeset="123260435" uid="3497659" user="NKA">
		<tag k="name" v="Lapphaugen" />
		<tag k="place" v="hamlet" />
		<tag k="ssr:stedsnr" v="624602" />
	</node>
	<node id="9869589185" lat="68.722525" lon="17.8415418" version="1" timestamp="2022-07-06T05:57:08Z" changeset="123260435" uid="3497659" user="NKA">
		<tag k="name" v="Sandmelen" />
		<tag k="place" v="locality" />
		<tag k="ssr:stedsnr" v="17946" />
	</node>
	<node id="9869589186" lat="68.7455916" lon="17.8123278" version="1" timestamp="2022-07-06T05:57:08Z" changeset="123260435" uid="3497659" user="NKA">
		<tag k="name" v="Olderholmen" />
		<tag k="place" v="farm" />
		<tag k="ssr:stedsnr" v="724440" />
	</node>
	<node id="9869589187" lat="68.7367361" lon="17.8195667" version="1" timestamp="2022-07-06T05:57:08Z" changeset="123260435" uid="3497659" user="NKA">
		<tag k="name" v="Silddádievvá - Spansgårdsstigninga" />
		<tag k="name:no" v="Spansgårdsstigninga" />
		<tag k="name:se" v="Silddádievvá" />
		<tag k="place" v="neighbourhood" />
		<tag k="ssr:stedsnr" v="413164" />
	</node>
	<node id="9869589188" lat="68.7436181" lon="17.8121983" version="1" timestamp="2022-07-06T05:57:08Z" changeset="123260435" uid="3497659" user="NKA">
		<tag k="name" v="Spansdalen" />
		<tag k="place" v="farm" />
		<tag k="ssr:stedsnr" v="967443" />
	</node>
	<node id="9869589189" lat="68.7659472" lon="17.7578473" version="1" timestamp="2022-07-06T05:57:08Z" changeset="123260435" uid="3497659" user="NKA">
		<tag k="name" v="Oldran" />
		<tag k="place" v="farm" />
		<tag k="ssr:stedsnr" v="239549" />
	</node>
	<node id="9869589190" lat="68.7610974" lon="17.80634" version="1" timestamp="2022-07-06T05:57:08Z" changeset="123260435" uid="3497659" user="NKA">
		<tag k="alt_name:no" v="Hesjevik" />
		<tag k="loc_name:se" v="Heasseviika" />
		<tag k="name" v="Hesjevika" />
		<tag k="name:no" v="Hesjevika" />
		<tag k="place" v="hamlet" />
		<tag k="ssr:stedsnr" v="928709" />
	</node>
	<node id="9869589191" lat="68.8015306" lon="17.5439721" version="1" timestamp="2022-07-06T05:57:08Z" changeset="123260435" uid="3497659" user="NKA">
		<tag k="name" v="Viken" />
		<tag k="place" v="farm" />
		<tag k="ssr:stedsnr" v="724185" />
	</node>
	<node id="9869589192" lat="68.7227812" lon="17.8461808" version="1" timestamp="2022-07-06T05:57:08Z" changeset="123260435" uid="3497659" user="NKA">
		<tag k="loc_name:no" v="Mellagårdan" />
		<tag k="name" v="Gaskagoahti" />
		<tag k="name:se" v="Gaskagoahti" />
		<tag k="place" v="hamlet" />
		<tag k="ssr:stedsnr" v="1079854" />
	</node>
	<node id="9869589193" lat="68.7954123" lon="17.7188286" version="1" timestamp="2022-07-06T05:57:08Z" changeset="123260435" uid="3497659" user="NKA">
		<tag k="loc_name:se" v="Liiddak" />
		<tag k="name" v="Lia" />
		<tag k="name:no" v="Lia" />
		<tag k="place" v="farm" />
		<tag k="ssr:stedsnr" v="685684" />
	</node>
	<node id="9869589194" lat="68.7815525" lon="17.7871252" version="1" timestamp="2022-07-06T05:57:08Z" changeset="123260435" uid="3497659" user="NKA">
		<tag k="name" v="Vieland" />
		<tag k="old_name" v="Veiland" />
		<tag k="place" v="farm" />
		<tag k="ssr:stedsnr" v="181888" />
	</node>
	<node id="9869589195" lat="68.7511194" lon="17.8151277" version="1" timestamp="2022-07-06T05:57:08Z" changeset="123260435" uid="3497659" user="NKA">
		<tag k="name" v="Hågen" />
		<tag k="place" v="farm" />
		<tag k="ssr:stedsnr" v="663448" />
	</node>
	<node id="9869589196" lat="68.7216474" lon="17.8466837" version="1" timestamp="2022-07-06T05:57:08Z" changeset="123260435" uid="3497659" user="NKA">
		<tag k="name" v="Storsletta" />
		<tag k="place" v="farm" />
		<tag k="ssr:stedsnr" v="1077300" />
	</node>
	<node id="9869589197" lat="68.7722612" lon="17.7414883" version="1" timestamp="2022-07-06T05:57:08Z" changeset="123260435" uid="3497659" user="NKA">
		<tag k="loc_name:se" v="Revkanjárga;Revkanášši" />
		<tag k="name" v="Røkenes" />
		<tag k="name:no" v="Røkenes" />
		<tag k="place" v="hamlet" />
		<tag k="ssr:stedsnr" v="79686" />
	</node>
	<node id="9869589198" lat="68.7745389" lon="17.7384" version="1" timestamp="2022-07-06T05:57:08Z" changeset="123260435" uid="3497659" user="NKA">
		<tag k="name" v="Strand" />
		<tag k="place" v="farm" />
		<tag k="ssr:stedsnr" v="602548" />
	</node>
	<node id="9869589199" lat="68.7522834" lon="17.8134721" version="1" timestamp="2022-07-06T05:57:08Z" changeset="123260435" uid="3497659" user="NKA">
		<tag k="name" v="Lyngmoen" />
		<tag k="place" v="hamlet" />
		<tag k="ssr:stedsnr" v="503697" />
	</node>
	<node id="9869589200" lat="68.7484611" lon="17.8172917" version="1" timestamp="2022-07-06T05:57:08Z" changeset="123260435" uid="3497659" user="NKA">
		<tag k="name" v="Mikkelmoen" />
		<tag k="place" v="farm" />
		<tag k="ssr:stedsnr" v="542475" />
	</node>
	<node id="9869589201" lat="68.7917223" lon="17.7608195" version="1" timestamp="2022-07-06T05:57:08Z" changeset="123260435" uid="3497659" user="NKA">
		<tag k="name" v="Toften" />
		<tag k="place" v="farm" />
		<tag k="ssr:stedsnr" v="360362" />
	</node>
	<node id="9869589202" lat="68.8216182" lon="17.7095507" version="1" timestamp="2022-07-06T05:57:08Z" changeset="123260435" uid="3497659" user="NKA">
		<tag k="name" v="Gamvikvatnan" />
		<tag k="place" v="locality" />
		<tag k="ssr:stedsnr" v="1077312" />
	</node>
	<node id="9869589203" lat="68.6939778" lon="17.9736111" version="1" timestamp="2022-07-06T05:57:08Z" changeset="123260435" uid="3497659" user="NKA">
		<tag k="name" v="Fossbakken søndre" />
		<tag k="place" v="farm" />
		<tag k="ssr:stedsnr" v="928526" />
	</node>
	<node id="9869589204" lat="68.7870265" lon="17.6028971" version="1" timestamp="2022-07-06T05:57:08Z" changeset="123260435" uid="3497659" user="NKA">
		<tag k="name" v="Keiprødplassen" />
		<tag k="place" v="farm" />
		<tag k="ssr:stedsnr" v="1077311" />
	</node>
	<node id="9869589205" lat="68.7841668" lon="17.7845863" version="1" timestamp="2022-07-06T05:57:08Z" changeset="123260435" uid="3497659" user="NKA">
		<tag k="loc_name:se" v="Oavák" />
		<tag k="name" v="Å" />
		<tag k="name:no" v="Å" />
		<tag k="place" v="hamlet" />
		<tag k="ssr:stedsnr" v="867328" />
	</node>
	<node id="9869589206" lat="68.7326442" lon="17.9497462" version="1" timestamp="2022-07-06T05:57:08Z" changeset="123260435" uid="3497659" user="NKA">
		<tag k="name" v="Trosen" />
		<tag k="place" v="locality" />
		<tag k="ssr:stedsnr" v="1077313" />
	</node>
	<node id="9869589207" lat="68.7707416" lon="17.7489304" version="1" timestamp="2022-07-06T05:57:08Z" changeset="123260435" uid="3497659" user="NKA">
		<tag k="name" v="Holtet" />
		<tag k="place" v="farm" />
		<tag k="ssr:stedsnr" v="879516" />
	</node>
	<node id="9869589208" lat="68.8165832" lon="17.4857134" version="1" timestamp="2022-07-06T05:57:08Z" changeset="123260435" uid="3497659" user="NKA">
		<tag k="loc_name:se" v="Skilnášši" />
		<tag k="name" v="Skjelnes" />
		<tag k="name:no" v="Skjelnes" />
		<tag k="place" v="farm" />
		<tag k="ssr:stedsnr" v="875197" />
	</node>
	<node id="9869589209" lat="68.8046385" lon="17.6165135" version="1" timestamp="2022-07-06T05:57:08Z" changeset="123260435" uid="3497659" user="NKA">
		<tag k="name" v="Fjellet" />
		<tag k="place" v="farm" />
		<tag k="ssr:stedsnr" v="1077268" />
	</node>
	<node id="9869589210" lat="68.7907217" lon="17.7703479" version="1" timestamp="2022-07-06T05:57:08Z" changeset="123260435" uid="3497659" user="NKA">
		<tag k="loc_name:se" v="Rodik" />
		<tag k="name" v="Rød" />
		<tag k="name:no" v="Rød" />
		<tag k="place" v="hamlet" />
		<tag k="ssr:stedsnr" v="563751" />
	</node>
	<node id="9869589211" lat="68.7593444" lon="17.7564834" version="1" timestamp="2022-07-06T05:57:08Z" changeset="123260435" uid="3497659" user="NKA">
		<tag k="name" v="Brekka" />
		<tag k="place" v="farm" />
		<tag k="ssr:stedsnr" v="543389" />
	</node>
	<node id="9869589212" lat="68.7620723" lon="17.7592973" version="1" timestamp="2022-07-06T05:57:08Z" changeset="123260435" uid="3497659" user="NKA">
		<tag k="name" v="Rimoen" />
		<tag k="place" v="farm" />
		<tag k="ssr:stedsnr" v="968389" />
	</node>
	<node id="9869589213" lat="68.7477583" lon="17.8088416" version="1" timestamp="2022-07-06T05:57:08Z" changeset="123260435" uid="3497659" user="NKA">
		<tag k="name" v="Vollen" />
		<tag k="place" v="farm" />
		<tag k="ssr:stedsnr" v="542473" />
	</node>
	<node id="9869589214" lat="68.7832973" lon="17.7914194" version="1" timestamp="2022-07-06T05:57:08Z" changeset="123260435" uid="3497659" user="NKA">
		<tag k="name" v="Åbrekka" />
		<tag k="place" v="farm" />
		<tag k="ssr:stedsnr" v="967539" />
	</node>
	<node id="9869589215" lat="68.7793426" lon="17.6916355" version="1" timestamp="2022-07-06T05:57:08Z" changeset="123260435" uid="3497659" user="NKA">
		<tag k="name" v="Marines" />
		<tag k="place" v="farm" />
		<tag k="ssr:stedsnr" v="117562" />
	</node>
	<node id="9869589216" lat="68.8059177" lon="17.6115517" version="1" timestamp="2022-07-06T05:57:08Z" changeset="123260435" uid="3497659" user="NKA">
		<tag k="name" v="Elvenesfjellet" />
		<tag k="place" v="locality" />
		<tag k="ssr:stedsnr" v="745721" />
	</node>
	<node id="9869629217" lat="68.7237152" lon="17.8331252" version="1" timestamp="2022-07-06T05:57:08Z" changeset="123260435" uid="3497659" user="NKA">
		<tag k="name" v="Hoalbma - Holmen" />
		<tag k="name:no" v="Holmen" />
		<tag k="name:se" v="Hoalbma" />
		<tag k="place" v="farm" />
		<tag k="ssr:stedsnr" v="927940" />
	</node>
	<node id="9869629218" lat="68.6865722" lon="18.002286" version="1" timestamp="2022-07-06T05:57:08Z" changeset="123260435" uid="3497659" user="NKA">
		<tag k="name" v="Selstraum" />
		<tag k="place" v="farm" />
		<tag k="ssr:stedsnr" v="928332" />
	</node>
	<node id="9869629219" lat="68.6888639" lon="18.0059277" version="1" timestamp="2022-07-06T05:57:08Z" changeset="123260435" uid="3497659" user="NKA">
		<tag k="historic" v="shieling" />
		<tag k="name" v="Gammelsætran" />
		<tag k="place" v="isolated_dwelling" />
		<tag k="ssr:stedsnr" v="718387" />
	</node>
	<node id="9869629220" lat="68.6192271" lon="17.8935608" version="1" timestamp="2022-07-06T05:57:08Z" changeset="123260435" uid="3497659" user="NKA">
		<tag k="name" v="Grasvatnet" />
		<tag k="place" v="locality" />
		<tag k="ssr:stedsnr" v="1077314" />
	</node>
	<node id="9869629221" lat="68.7747163" lon="17.8007938" version="1" timestamp="2022-07-06T05:57:08Z" changeset="123260435" uid="3497659" user="NKA">
		<tag k="loc_name:se" v="Suolemak" />
		<tag k="name" v="Soløy" />
		<tag k="name:no" v="Soløy" />
		<tag k="place" v="hamlet" />
		<tag k="ssr:stedsnr" v="381758" />
	</node>
	<node id="9869629222" lat="68.7663374" lon="17.8068907" version="1" timestamp="2022-07-06T05:57:08Z" changeset="123260435" uid="3497659" user="NKA">
		<tag k="alt_name:no" v="Hesjevik" />
		<tag k="loc_name:se" v="Heasseviika" />
		<tag k="name" v="Hesjevika" />
		<tag k="name:no" v="Hesjevika" />
		<tag k="place" v="farm" />
		<tag k="ssr:stedsnr" v="663506" />
	</node>
	<node id="9869629223" lat="68.7705722" lon="17.8959806" version="1" timestamp="2022-07-06T05:57:08Z" changeset="123260435" uid="3497659" user="NKA">
		<tag k="name" v="Anna-Mariagammen" />
		<tag k="place" v="locality" />
		<tag k="ssr:stedsnr" v="906835" />
	</node>
	<node id="9869629224" lat="68.6752056" lon="17.9061499" version="1" timestamp="2022-07-06T05:57:08Z" changeset="123260435" uid="3497659" user="NKA">
		<tag k="name" v="Veilund" />
		<tag k="place" v="farm" />
		<tag k="ssr:stedsnr" v="847547" />
	</node>
	<node id="9869629225" lat="68.7285666" lon="17.8592278" version="1" timestamp="2022-07-06T05:57:08Z" changeset="123260435" uid="3497659" user="NKA">
		<tag k="historic" v="shieling" />
		<tag k="name" v="Nerdalssætra" />
		<tag k="place" v="isolated_dwelling" />
		<tag k="ssr:stedsnr" v="724697" />
	</node>
	<node id="9869629226" lat="68.7537083" lon="17.7023556" version="1" timestamp="2022-07-06T05:57:08Z" changeset="123260435" uid="3497659" user="NKA">
		<tag k="name" v="Holman" />
		<tag k="place" v="locality" />
		<tag k="ssr:stedsnr" v="261715" />
	</node>
	<node id="9869629227" lat="68.6511819" lon="17.9135127" version="1" timestamp="2022-07-06T05:57:08Z" changeset="123260435" uid="3497659" user="NKA">
		<tag k="name" v="Høgstad" />
		<tag k="place" v="locality" />
		<tag k="ssr:stedsnr" v="786635" />
	</node>
	<node id="9869629228" lat="68.7923522" lon="17.576" version="1" timestamp="2022-07-06T05:57:08Z" changeset="123260435" uid="3497659" user="NKA">
		<tag k="loc_name:se" v="Reaidnagillu" />
		<tag k="name" v="Reinland" />
		<tag k="name:no" v="Reinland" />
		<tag k="place" v="hamlet" />
		<tag k="ssr:stedsnr" v="928675" />
	</node>
	<node id="9869629229" lat="68.6884777" lon="17.9642166" version="1" timestamp="2022-07-06T05:57:08Z" changeset="123260435" uid="3497659" user="NKA">
		<tag k="name" v="Bjørklund" />
		<tag k="place" v="farm" />
		<tag k="ssr:stedsnr" v="846685" />
	</node>
	<node id="9869629230" lat="68.7238078" lon="17.837444" version="1" timestamp="2022-07-06T05:57:08Z" changeset="123260435" uid="3497659" user="NKA">
		<tag k="name" v="Spansdalsmarka" />
		<tag k="place" v="farm" />
		<tag k="ssr:stedsnr" v="846704" />
	</node>
	<node id="9869629231" lat="68.7461701" lon="17.7943745" version="1" timestamp="2022-07-06T05:57:08Z" changeset="123260435" uid="3497659" user="NKA">
		<tag k="name" v="Sneveibakkan" />
		<tag k="place" v="neighbourhood" />
		<tag k="ssr:stedsnr" v="979001" />
	</node>
	<node id="9869629232" lat="68.7957584" lon="17.5661444" version="1" timestamp="2022-07-06T05:57:08Z" changeset="123260435" uid="3497659" user="NKA">
		<tag k="loc_name:se" v="Siida" />
		<tag k="name" v="Heimen" />
		<tag k="name:no" v="Heimen" />
		<tag k="place" v="locality" />
		<tag k="ssr:stedsnr" v="481222" />
	</node>
	<node id="9869629233" lat="68.7918445" lon="17.7566445" version="1" timestamp="2022-07-06T05:57:08Z" changeset="123260435" uid="3497659" user="NKA">
		<tag k="name" v="Gammelgårdan" />
		<tag k="place" v="locality" />
		<tag k="ssr:stedsnr" v="846375" />
	</node>
	<node id="9869629234" lat="68.7836245" lon="17.61997" version="1" timestamp="2022-07-06T05:57:08Z" changeset="123260435" uid="3497659" user="NKA">
		<tag k="loc_name:se" v="Geaippák" />
		<tag k="name" v="Keiprød" />
		<tag k="name:no" v="Keiprød" />
		<tag k="place" v="hamlet" />
		<tag k="ssr:stedsnr" v="807687" />
	</node>
	<node id="9869629235" lat="68.7228195" lon="17.8452193" version="1" timestamp="2022-07-06T05:57:08Z" changeset="123260435" uid="3497659" user="NKA">
		<tag k="name" v="Busletta" />
		<tag k="place" v="farm" />
		<tag k="ssr:stedsnr" v="563946" />
	</node>
	<node id="9869629236" lat="68.7636806" lon="17.8073332" version="1" timestamp="2022-07-06T05:57:08Z" changeset="123260435" uid="3497659" user="NKA">
		<tag k="name" v="Finnura" />
		<tag k="place" v="farm" />
		<tag k="ssr:stedsnr" v="119286" />
	</node>
	<node id="9869629237" lat="68.7214516" lon="17.8602223" version="1" timestamp="2022-07-06T05:57:08Z" changeset="123260435" uid="3497659" user="NKA">
		<tag k="name" v="Ruŋgu - Spansdalen" />
		<tag k="name:no" v="Spansdalen" />
		<tag k="name:se" v="Ruŋgu" />
		<tag k="place" v="hamlet" />
		<tag k="ssr:stedsnr" v="503868" />
	</node>
	<node id="9869629238" lat="68.8014667" lon="17.738964" version="1" timestamp="2022-07-06T05:57:08Z" changeset="123260435" uid="3497659" user="NKA">
		<tag k="name" v="Gluntegammen" />
		<tag k="place" v="locality" />
		<tag k="ssr:stedsnr" v="481503" />
	</node>
	<node id="9869629239" lat="68.7715028" lon="17.7472917" version="1" timestamp="2022-07-06T05:57:08Z" changeset="123260435" uid="3497659" user="NKA">
		<tag k="name" v="Hågen" />
		<tag k="place" v="farm" />
		<tag k="ssr:stedsnr" v="785547" />
	</node>
	<node id="9869629240" lat="68.7346087" lon="17.7989411" version="1" timestamp="2022-07-06T05:57:08Z" changeset="123260435" uid="3497659" user="NKA">
		<tag k="name" v="Moen" />
		<tag k="place" v="hamlet" />
		<tag k="ssr:stedsnr" v="139917" />
	</node>
	<node id="9869629241" lat="68.7786917" lon="17.8083111" version="1" timestamp="2022-07-06T05:57:08Z" changeset="123260435" uid="3497659" user="NKA">
		<tag k="name" v="Holmen" />
		<tag k="place" v="farm" />
		<tag k="ssr:stedsnr" v="360536" />
	</node>
	<node id="9869629242" lat="68.7430234" lon="17.814003" version="1" timestamp="2022-07-06T05:57:08Z" changeset="123260435" uid="3497659" user="NKA">
		<tag k="loc_name:se" v="Silddádállu" />
		<tag k="name" v="Spansgård" />
		<tag k="name:no" v="Spansgård" />
		<tag k="place" v="farm" />
		<tag k="ssr:stedsnr" v="324148" />
	</node>
	<node id="9869629243" lat="68.7689805" lon="17.7490832" version="1" timestamp="2022-07-06T05:57:08Z" changeset="123260435" uid="3497659" user="NKA">
		<tag k="name" v="Nystad" />
		<tag k="place" v="farm" />
		<tag k="ssr:stedsnr" v="602581" />
	</node>
	<node id="9869629244" lat="68.7563445" lon="17.8100722" version="1" timestamp="2022-07-06T05:57:08Z" changeset="123260435" uid="3497659" user="NKA">
		<tag k="name" v="Hesjemoen" />
		<tag k="place" v="farm" />
		<tag k="ssr:stedsnr" v="58308" />
	</node>
	<node id="9869629245" lat="68.795036" lon="17.7326067" version="1" timestamp="2022-07-06T05:57:08Z" changeset="123260435" uid="3497659" user="NKA">
		<tag k="loc_name:no" v="Gamvika" />
		<tag k="loc_name:se" v="Gámaviika" />
		<tag k="name" v="Gamvik" />
		<tag k="name:no" v="Gamvik" />
		<tag k="place" v="hamlet" />
		<tag k="ssr:stedsnr" v="381754" />
	</node>
	<node id="9869629246" lat="68.720376" lon="17.8615793" version="1" timestamp="2022-07-06T05:57:08Z" changeset="123260435" uid="3497659" user="NKA">
		<tag k="loc_name:no" v="Olderneset" />
		<tag k="loc_name:se" v="Leaibenjárga" />
		<tag k="name" v="Oldernes" />
		<tag k="name:no" v="Oldernes" />
		<tag k="place" v="farm" />
		<tag k="ssr:stedsnr" v="786623" />
	</node>
	<node id="9869629247" lat="68.7698788" lon="17.8038035" version="1" timestamp="2022-07-06T05:57:08Z" changeset="123260435" uid="3497659" user="NKA">
		<tag k="alt_name" v="Altanen;Tha" />
		<tag k="name" v="Ta" />
		<tag k="place" v="farm" />
		<tag k="ssr:stedsnr" v="443691" />
	</node>
	<node id="9869629248" lat="68.6792528" lon="17.9218694" version="1" timestamp="2022-07-06T05:57:08Z" changeset="123260435" uid="3497659" user="NKA">
		<tag k="name" v="Sætra" />
		<tag k="place" v="locality" />
		<tag k="ssr:stedsnr" v="542684" />
	</node>
	<node id="9869629249" lat="68.6863876" lon="17.9907659" version="1" timestamp="2022-07-06T05:57:08Z" changeset="123260435" uid="3497659" user="NKA">
		<tag k="alt_name" v="Østlund" />
		<tag k="name" v="Austlund" />
		<tag k="place" v="locality" />
		<tag k="ssr:stedsnr" v="867577" />
	</node>
	<node id="9869629250" lat="68.7204183" lon="17.8558491" version="1" timestamp="2022-07-06T05:57:08Z" changeset="123260435" uid="3497659" user="NKA">
		<tag k="name" v="Donbealli" />
		<tag k="name:se" v="Donbealli" />
		<tag k="place" v="hamlet" />
		<tag k="ssr:stedsnr" v="1079545" />
	</node>
</osm>
