<?xml version="1.0" encoding="UTF-8"?>
<osm generator="osmapis" version="0.6">
	<node id="-111991" lat="60.5908609473" lon="9.63819281559">
		<tag k="fixme" v="multiple name tags, choose one and add the other to alt_name" />
		<tag k="name" v="Austlandet;Ã˜stlandet" />
		<tag k="ssr:date" v="2018-01-09" />
		<tag k="ssr:gruppe" v="administrativeIndelinger" />
		<tag k="ssr:hovedgruppe" v="offentligAdministrasjon" />
		<tag k="ssr:stedsnr" v="974775" />
		<tag k="ssr:type" v="annenAdministrativInndeling" />
	</node>
	<node id="-111381" lat="62.0929333356" lon="9.11081389669">
		<tag k="alt_name" v="Raumabana" />
		<tag k="name" v="Raumabanen" />
		<tag k="ssr:date" v="2016-05-10" />
		<tag k="ssr:gruppe" v="bane" />
		<tag k="ssr:hovedgruppe" v="infrastruktur" />
		<tag k="ssr:stedsnr" v="657956" />
		<tag k="ssr:type" v="banestrekning" />
	</node>
	<node id="-111203" lat="62.1178500003" lon="8.86261666571">
		<tag k="name" v="Lesja kommune" />
		<tag k="ssr:date" v="2016-05-10" />
		<tag k="ssr:gruppe" v="administrativeIndelinger" />
		<tag k="ssr:hovedgruppe" v="offentligAdministrasjon" />
		<tag k="ssr:stedsnr" v="571755" />
		<tag k="ssr:type" v="kommune" />
	</node>
	<node id="-110393" lat="62.2605050665" lon="8.21421394075">
		<tag k="name" v="Fantkrokan" />
		<tag k="ssr:date" v="2019-05-30" />
		<tag k="ssr:gruppe" v="veg" />
		<tag k="ssr:hovedgruppe" v="infrastruktur" />
		<tag k="ssr:stedsnr" v="1013053" />
		<tag k="ssr:type" v="adressenavn" />
	</node>
</osm>
