<?xml version="1.0" encoding="UTF-8"?>
<osm version="0.6" generator="osmapis">
	<node lat="61.962380556828265" lon="5.994627777592216" id="-34272">
		<tag k="name" v="Fossane" />
		<tag k="natural" v="waterfall" />
		<tag k="ssr:date" v="2019-12-27" />
		<tag k="ssr:gruppe" v="rennendeVann" />
		<tag k="ssr:hovedgruppe" v="ferskvann" />
		<tag k="ssr:stedsnr" v="229620" />
		<tag k="ssr:type" v="foss" />
	</node>
	<node lat="61.91221388905986" lon="6.091041659320312" id="-34273">
		<tag k="name" v="Haugen" />
		<tag k="natural" v="hill" />
		<tag k="place" v="locality" />
		<tag k="ssr:date" v="2019-12-27" />
		<tag k="ssr:gruppe" v="høyder" />
		<tag k="ssr:hovedgruppe" v="terreng" />
		<tag k="ssr:stedsnr" v="229760" />
		<tag k="ssr:type" v="haug" />
	</node>
	<node lat="61.96333333429496" lon="5.7352972310730435" id="-34274">
		<tag k="name" v="Hestelia" />
		<tag k="natural" v="slope" />
		<tag k="place" v="locality" />
		<tag k="ssr:date" v="2019-12-27" />
		<tag k="ssr:gruppe" v="skråninger" />
		<tag k="ssr:hovedgruppe" v="terreng" />
		<tag k="ssr:stedsnr" v="229761" />
		<tag k="ssr:type" v="li" />
	</node>
	<node lat="61.92702777510049" lon="6.052655557736647" id="-34275">
		<tag k="name" v="Sagliberget" />
		<tag k="natural" v="hill" />
		<tag k="place" v="locality" />
		<tag k="ssr:date" v="2019-12-27" />
		<tag k="ssr:gruppe" v="høyder" />
		<tag k="ssr:hovedgruppe" v="terreng" />
		<tag k="ssr:stedsnr" v="229657" />
		<tag k="ssr:type" v="berg" />
	</node>
	<node lat="61.9227416629274" lon="6.0651888904746185" id="-34276">
		<tag k="fixme" v="consider natural=peak for the most distinct mountains in the district" />
		<tag k="name" v="Høghammaren" />
		<tag k="natural" v="hill" />
		<tag k="place" v="locality" />
		<tag k="ssr:date" v="2019-12-27" />
		<tag k="ssr:gruppe" v="høyder" />
		<tag k="ssr:hovedgruppe" v="terreng" />
		<tag k="ssr:stedsnr" v="229664" />
		<tag k="ssr:type" v="ås" />
	</node>
	<node lat="61.87622777699708" lon="5.7957611035578385" id="-34277">
		<tag k="name" v="Ytreelva" />
		<tag k="ssr:date" v="2019-12-27" />
		<tag k="ssr:gruppe" v="rennendeVann" />
		<tag k="ssr:hovedgruppe" v="ferskvann" />
		<tag k="ssr:stedsnr" v="229671" />
		<tag k="ssr:type" v="bekk" />
		<tag k="waterway" v="stream" />
	</node>
	<node lat="61.873819440219116" lon="6.089797224851938" id="-34278">
		<tag k="fixme" v="consider natural=peak for the most distinct mountains in the district" />
		<tag k="name" v="Fureåsen" />
		<tag k="natural" v="hill" />
		<tag k="place" v="locality" />
		<tag k="ssr:date" v="2019-12-27" />
		<tag k="ssr:gruppe" v="høyder" />
		<tag k="ssr:hovedgruppe" v="terreng" />
		<tag k="ssr:stedsnr" v="229714" />
		<tag k="ssr:type" v="ås" />
	</node>
	<node lat="61.897330554133674" lon="6.08950555863088" id="-34279">
		<tag k="name" v="Rundshaugen" />
		<tag k="natural" v="hill" />
		<tag k="place" v="locality" />
		<tag k="ssr:date" v="2019-12-27" />
		<tag k="ssr:gruppe" v="høyder" />
		<tag k="ssr:hovedgruppe" v="terreng" />
		<tag k="ssr:stedsnr" v="229720" />
		<tag k="ssr:type" v="haug" />
	</node>
	<node lat="61.90490000333532" lon="6.1007472247724" id="-34280">
		<tag k="name" v="Brendenakken" />
		<tag k="natural" v="hill" />
		<tag k="place" v="locality" />
		<tag k="ssr:date" v="2019-12-27" />
		<tag k="ssr:gruppe" v="høyder" />
		<tag k="ssr:hovedgruppe" v="terreng" />
		<tag k="ssr:stedsnr" v="229725" />
		<tag k="ssr:type" v="haug" />
	</node>
	<node lat="61.89382500187559" lon="5.892652768278883" id="-34281">
		<tag k="name" v="Trollkonehaugen" />
		<tag k="natural" v="hill" />
		<tag k="place" v="locality" />
		<tag k="ssr:date" v="2019-12-27" />
		<tag k="ssr:gruppe" v="høyder" />
		<tag k="ssr:hovedgruppe" v="terreng" />
		<tag k="ssr:stedsnr" v="229786" />
		<tag k="ssr:type" v="haug" />
	</node>
	<node lat="61.94895000307278" lon="5.80276666563177" id="-34282">
		<tag k="name" v="Svarthammarbotnen" />
		<tag k="natural" v="valley" />
		<tag k="place" v="locality" />
		<tag k="ssr:date" v="2019-12-27" />
		<tag k="ssr:gruppe" v="senkninger" />
		<tag k="ssr:hovedgruppe" v="terreng" />
		<tag k="ssr:stedsnr" v="229836" />
		<tag k="ssr:type" v="botn" />
	</node>
	<node lat="61.8942888878002" lon="5.926880558534198" id="-34283">
		<tag k="name" v="Strandagjølet" />
		<tag k="natural" v="gorge" />
		<tag k="ssr:date" v="2019-12-27" />
		<tag k="ssr:gruppe" v="senkninger" />
		<tag k="ssr:hovedgruppe" v="terreng" />
		<tag k="ssr:stedsnr" v="229819" />
		<tag k="ssr:type" v="juv" />
	</node>
	<node lat="61.902236112843134" lon="5.901513891505995" id="-34284">
		<tag k="name" v="Leirvikberget" />
		<tag k="natural" v="cape" />
		<tag k="ssr:date" v="2019-12-27" />
		<tag k="ssr:gruppe" v="kystkontur" />
		<tag k="ssr:hovedgruppe" v="sjø" />
		<tag k="ssr:stedsnr" v="229820" />
		<tag k="ssr:type" v="nesISjø" />
	</node>
	<node lat="61.866091669531535" lon="6.210577777316958" id="-34285">
		<tag k="name" v="Brunstigen" />
		<tag k="natural" v="hill" />
		<tag k="place" v="locality" />
		<tag k="ssr:date" v="2019-12-27" />
		<tag k="ssr:gruppe" v="høyder" />
		<tag k="ssr:hovedgruppe" v="terreng" />
		<tag k="ssr:stedsnr" v="229822" />
		<tag k="ssr:type" v="berg" />
	</node>
	<node lat="61.89595556019148" lon="5.943261120017442" id="-34286">
		<tag k="name" v="Litlenakken" />
		<tag k="natural" v="hill" />
		<tag k="place" v="locality" />
		<tag k="ssr:date" v="2019-12-27" />
		<tag k="ssr:gruppe" v="høyder" />
		<tag k="ssr:hovedgruppe" v="terreng" />
		<tag k="ssr:stedsnr" v="229842" />
		<tag k="ssr:type" v="haug" />
	</node>
	<node lat="61.965499997915906" lon="5.73613610279113" id="-34287">
		<tag k="name" v="Hestelia" />
		<tag k="natural" v="slope" />
		<tag k="place" v="locality" />
		<tag k="ssr:date" v="2019-12-27" />
		<tag k="ssr:gruppe" v="skråninger" />
		<tag k="ssr:hovedgruppe" v="terreng" />
		<tag k="ssr:stedsnr" v="229852" />
		<tag k="ssr:type" v="li" />
	</node>
	<node lat="62.00545833357781" lon="6.215411119999362" id="-34288">
		<tag k="name" v="Ferlevatnet" />
		<tag k="natural" v="water" />
		<tag k="ssr:date" v="2019-12-27" />
		<tag k="ssr:gruppe" v="stilleståendeVann" />
		<tag k="ssr:hovedgruppe" v="ferskvann" />
		<tag k="ssr:stedsnr" v="253578" />
		<tag k="ssr:type" v="tjern" />
	</node>
	<node lat="61.94573611476786" lon="5.931586106059772" id="-34289">
		<tag k="name" v="Grønlia" />
		<tag k="natural" v="slope" />
		<tag k="place" v="locality" />
		<tag k="ssr:date" v="2019-12-27" />
		<tag k="ssr:gruppe" v="skråninger" />
		<tag k="ssr:hovedgruppe" v="terreng" />
		<tag k="ssr:stedsnr" v="229913" />
		<tag k="ssr:type" v="li" />
	</node>
	<node lat="61.93673055669924" lon="5.801166657407446" id="-34290">
		<tag k="name" v="Breimyra" />
		<tag k="natural" v="wetland" />
		<tag k="ssr:date" v="2019-12-27" />
		<tag k="ssr:gruppe" v="våtmark" />
		<tag k="ssr:hovedgruppe" v="markslag" />
		<tag k="ssr:stedsnr" v="229919" />
		<tag k="ssr:type" v="myr" />
	</node>
	<node lat="61.9379888921556" lon="5.804275000230947" id="-34291">
		<tag k="name" v="Rystabakkane" />
		<tag k="natural" v="slope" />
		<tag k="place" v="locality" />
		<tag k="ssr:date" v="2019-12-27" />
		<tag k="ssr:gruppe" v="skråninger" />
		<tag k="ssr:hovedgruppe" v="terreng" />
		<tag k="ssr:stedsnr" v="229920" />
		<tag k="ssr:type" v="bakke" />
	</node>
	<node lat="61.964997218745374" lon="5.950588898508676" id="-34292">
		<tag k="alt_name" v="Høgebakken" />
		<tag k="name" v="Høgebakkane" />
		<tag k="natural" v="slope" />
		<tag k="place" v="locality" />
		<tag k="ssr:date" v="2019-12-27" />
		<tag k="ssr:gruppe" v="skråninger" />
		<tag k="ssr:hovedgruppe" v="terreng" />
		<tag k="ssr:stedsnr" v="229924" />
		<tag k="ssr:type" v="bakke" />
	</node>
	<node lat="61.93591111359834" lon="5.784527770700229" id="-34293">
		<tag k="name" v="Hushamremyrane" />
		<tag k="natural" v="wetland" />
		<tag k="ssr:date" v="2019-12-27" />
		<tag k="ssr:gruppe" v="våtmark" />
		<tag k="ssr:hovedgruppe" v="markslag" />
		<tag k="ssr:stedsnr" v="229927" />
		<tag k="ssr:type" v="myr" />
	</node>
	<node lat="62.16249166511264" lon="5.112286112447883" id="-34294">
		<tag k="name" v="Lakseelva" />
		<tag k="ssr:date" v="2019-12-27" />
		<tag k="ssr:gruppe" v="rennendeVann" />
		<tag k="ssr:hovedgruppe" v="ferskvann" />
		<tag k="ssr:stedsnr" v="231012" />
		<tag k="ssr:type" v="elv" />
		<tag k="waterway" v="river" />
	</node>
	<node lat="62.207902780369416" lon="5.210727779022821" id="-34295">
		<tag k="name" v="Skibbehaugen" />
		<tag k="natural" v="hill" />
		<tag k="place" v="locality" />
		<tag k="ssr:date" v="2019-12-27" />
		<tag k="ssr:gruppe" v="høyder" />
		<tag k="ssr:hovedgruppe" v="terreng" />
		<tag k="ssr:stedsnr" v="231019" />
		<tag k="ssr:type" v="haug" />
	</node>
	<node lat="62.15420278077746" lon="5.1848638851572675" id="-34296">
		<tag k="name" v="Hamnaneset" />
		<tag k="natural" v="cape" />
		<tag k="ssr:date" v="2019-12-27" />
		<tag k="ssr:gruppe" v="ferskvannskontur" />
		<tag k="ssr:hovedgruppe" v="ferskvann" />
		<tag k="ssr:stedsnr" v="231054" />
		<tag k="ssr:type" v="nes" />
	</node>
	<node lat="62.15697499739852" lon="5.124899993521649" id="-34297">
		<tag k="name" v="Slettebakken" />
		<tag k="natural" v="slope" />
		<tag k="place" v="locality" />
		<tag k="ssr:date" v="2019-12-27" />
		<tag k="ssr:gruppe" v="skråninger" />
		<tag k="ssr:hovedgruppe" v="terreng" />
		<tag k="ssr:stedsnr" v="231057" />
		<tag k="ssr:type" v="bakke" />
	</node>
	<node lat="62.15920555460298" lon="5.101669448089944" id="-34298">
		<tag k="name" v="Øvstehjellen" />
		<tag k="natural" v="slope" />
		<tag k="place" v="locality" />
		<tag k="ssr:date" v="2019-12-27" />
		<tag k="ssr:gruppe" v="skråninger" />
		<tag k="ssr:hovedgruppe" v="terreng" />
		<tag k="ssr:stedsnr" v="231058" />
		<tag k="ssr:type" v="bakke" />
	</node>
	<node lat="62.16513333509551" lon="5.131672217948718" id="-34299">
		<tag k="name" v="Grønahaugen" />
		<tag k="natural" v="hill" />
		<tag k="place" v="locality" />
		<tag k="ssr:date" v="2019-12-27" />
		<tag k="ssr:gruppe" v="høyder" />
		<tag k="ssr:hovedgruppe" v="terreng" />
		<tag k="ssr:stedsnr" v="231072" />
		<tag k="ssr:type" v="haug" />
	</node>
	<node lat="62.02329908578011" lon="5.447603458665108" id="-34300">
		<tag k="fixme" v="consider natural=peak for the most distinct mountains in the district" />
		<tag k="name" v="Geitskarhornet" />
		<tag k="natural" v="hill" />
		<tag k="place" v="locality" />
		<tag k="ssr:date" v="2019-12-27" />
		<tag k="ssr:gruppe" v="høyder" />
		<tag k="ssr:hovedgruppe" v="terreng" />
		<tag k="ssr:stedsnr" v="231408" />
		<tag k="ssr:type" v="fjell" />
	</node>
	<node lat="61.93569444376905" lon="5.317641666467602" id="-34301">
		<tag k="name" v="Bleikemerra" />
		<tag k="natural" v="hill" />
		<tag k="place" v="locality" />
		<tag k="ssr:date" v="2019-12-27" />
		<tag k="ssr:gruppe" v="høyder" />
		<tag k="ssr:hovedgruppe" v="terreng" />
		<tag k="ssr:stedsnr" v="10247" />
		<tag k="ssr:type" v="haug" />
	</node>
	<node lat="61.92599999798748" lon="5.517502780986639" id="-34302">
		<tag k="name" v="Midthjellsneset" />
		<tag k="natural" v="cape" />
		<tag k="ssr:date" v="2021-06-08" />
		<tag k="ssr:gruppe" v="kystkontur" />
		<tag k="ssr:hovedgruppe" v="sjø" />
		<tag k="ssr:stedsnr" v="10432" />
		<tag k="ssr:type" v="nesISjø" />
	</node>
	<node lat="61.93328340879549" lon="5.8213008230796355" id="-34303">
		<tag k="name" v="Remme" />
		<tag k="place" v="hamlet" />
		<tag k="ssr:date" v="2019-12-27" />
		<tag k="ssr:gruppe" v="gardsbebyggelse" />
		<tag k="ssr:hovedgruppe" v="bebyggelse" />
		<tag k="ssr:stedsnr" v="10434" />
		<tag k="ssr:type" v="navnegard" />
	</node>
	<node lat="61.93067885385689" lon="5.812815399795494" id="-34304">
		<tag k="fixme" v="consider place=hamlet" />
		<tag k="name" v="Nygard" />
		<tag k="place" v="farm" />
		<tag k="ssr:date" v="2021-06-08" />
		<tag k="ssr:gruppe" v="gardsbebyggelse" />
		<tag k="ssr:hovedgruppe" v="bebyggelse" />
		<tag k="ssr:stedsnr" v="10446" />
		<tag k="ssr:type" v="gard" />
	</node>
	<node lat="61.947563887301065" lon="5.872475001207938" id="-34305">
		<tag k="name" v="Bakke" />
		<tag k="place" v="farm" />
		<tag k="ssr:date" v="2019-12-27" />
		<tag k="ssr:gruppe" v="gardsbebyggelse" />
		<tag k="ssr:hovedgruppe" v="bebyggelse" />
		<tag k="ssr:stedsnr" v="10485" />
		<tag k="ssr:type" v="bruk" />
	</node>
	<node lat="61.95255555552176" lon="6.041683328664798" id="-34306">
		<tag k="fixme" v="consider natural=peak for the most distinct mountains in the district" />
		<tag k="name" v="Svartdalshornet" />
		<tag k="natural" v="hill" />
		<tag k="place" v="locality" />
		<tag k="ssr:date" v="2019-12-27" />
		<tag k="ssr:gruppe" v="høyder" />
		<tag k="ssr:hovedgruppe" v="terreng" />
		<tag k="ssr:stedsnr" v="10491" />
		<tag k="ssr:type" v="ås" />
	</node>
	<node lat="61.94749444674617" lon="5.914375009187574" id="-34307">
		<tag k="name" v="Hjelmelandsdalen" />
		<tag k="natural" v="valley" />
		<tag k="place" v="locality" />
		<tag k="ssr:date" v="2019-12-27" />
		<tag k="ssr:gruppe" v="senkninger" />
		<tag k="ssr:hovedgruppe" v="terreng" />
		<tag k="ssr:stedsnr" v="10493" />
		<tag k="ssr:type" v="dal" />
	</node>
	<node lat="61.94639340635996" lon="5.887407018832044" id="-34308">
		<tag k="fixme" v="consider place=hamlet" />
		<tag k="name" v="Tjørstad" />
		<tag k="place" v="farm" />
		<tag k="ssr:date" v="2021-06-08" />
		<tag k="ssr:gruppe" v="gardsbebyggelse" />
		<tag k="ssr:hovedgruppe" v="bebyggelse" />
		<tag k="ssr:stedsnr" v="10494" />
		<tag k="ssr:type" v="gard" />
	</node>
	<node lat="61.94273406561376" lon="5.8921626720302385" id="-34309">
		<tag k="fixme" v="consider place=hamlet" />
		<tag k="name" v="Engjeland" />
		<tag k="place" v="farm" />
		<tag k="ssr:date" v="2021-06-08" />
		<tag k="ssr:gruppe" v="gardsbebyggelse" />
		<tag k="ssr:hovedgruppe" v="bebyggelse" />
		<tag k="ssr:stedsnr" v="10498" />
		<tag k="ssr:type" v="gard" />
	</node>
	<node lat="61.91195000280188" lon="6.111925007760692" id="-34310">
		<tag k="name" v="Gangstøda" />
		<tag k="place" v="farm" />
		<tag k="ssr:date" v="2021-06-08" />
		<tag k="ssr:gruppe" v="gardsbebyggelse" />
		<tag k="ssr:hovedgruppe" v="bebyggelse" />
		<tag k="ssr:stedsnr" v="10606" />
		<tag k="ssr:type" v="bruk" />
	</node>
	<node lat="61.8982773743281" lon="5.962703695511895" id="-34311">
		<tag k="fixme" v="consider place=hamlet" />
		<tag k="name" v="Åshammaren" />
		<tag k="place" v="farm" />
		<tag k="ssr:date" v="2021-06-08" />
		<tag k="ssr:gruppe" v="gardsbebyggelse" />
		<tag k="ssr:hovedgruppe" v="bebyggelse" />
		<tag k="ssr:stedsnr" v="10608" />
		<tag k="ssr:type" v="gard" />
	</node>
	<node lat="61.87889999941967" lon="5.943402785292901" id="-34312">
		<tag k="fixme" v="consider natural=peak for the most distinct mountains in the district" />
		<tag k="name" v="Svorafjellet" />
		<tag k="natural" v="hill" />
		<tag k="place" v="locality" />
		<tag k="ssr:date" v="2019-12-27" />
		<tag k="ssr:gruppe" v="høyder" />
		<tag k="ssr:hovedgruppe" v="terreng" />
		<tag k="ssr:stedsnr" v="10631" />
		<tag k="ssr:type" v="ås" />
	</node>
	<node lat="61.994280556804924" lon="5.3851833345506614" id="-34313">
		<tag k="historic" v="shieling" />
		<tag k="name" v="Setra" />
		<tag k="place" v="isolated_dwelling" />
		<tag k="ssr:date" v="2019-12-27" />
		<tag k="ssr:gruppe" v="gardsbebyggelse" />
		<tag k="ssr:hovedgruppe" v="bebyggelse" />
		<tag k="ssr:stedsnr" v="231677" />
		<tag k="ssr:type" v="seterStøl" />
	</node>
	<node lat="61.939211907773014" lon="6.034274599615023" id="-34314">
		<tag k="fixme" v="consider natural=peak for the most distinct mountains in the district" />
		<tag k="name" v="Skambergegga" />
		<tag k="natural" v="hill" />
		<tag k="place" v="locality" />
		<tag k="ssr:date" v="2021-06-08" />
		<tag k="ssr:gruppe" v="høyder" />
		<tag k="ssr:hovedgruppe" v="terreng" />
		<tag k="ssr:stedsnr" v="10533" />
		<tag k="ssr:type" v="ås" />
	</node>
	<node lat="61.92164440401509" lon="5.886259279690355" id="-34315">
		<tag k="fixme" v="consider place=hamlet" />
		<tag k="name" v="Haugen" />
		<tag k="place" v="farm" />
		<tag k="ssr:date" v="2019-12-27" />
		<tag k="ssr:gruppe" v="gardsbebyggelse" />
		<tag k="ssr:hovedgruppe" v="bebyggelse" />
		<tag k="ssr:stedsnr" v="10547" />
		<tag k="ssr:type" v="gard" />
	</node>
	<node lat="61.91774117903327" lon="6.078425136945498" id="-34316">
		<tag k="fixme" v="consider place=hamlet" />
		<tag k="name" v="Mona" />
		<tag k="place" v="farm" />
		<tag k="ssr:date" v="2021-06-08" />
		<tag k="ssr:gruppe" v="gardsbebyggelse" />
		<tag k="ssr:hovedgruppe" v="bebyggelse" />
		<tag k="ssr:stedsnr" v="10581" />
		<tag k="ssr:type" v="gard" />
	</node>
	<node lat="61.91560555617046" lon="6.08307500663349" id="-34317">
		<tag k="landuse" v="industrial" />
		<tag k="name" v="Kviafossen" />
		<tag k="power" v="plant" />
		<tag k="ssr:date" v="2019-12-27" />
		<tag k="ssr:gruppe" v="energi" />
		<tag k="ssr:hovedgruppe" v="infrastruktur" />
		<tag k="ssr:stedsnr" v="10586" />
		<tag k="ssr:type" v="kraftstasjon" />
	</node>
	<node lat="61.9120666650001" lon="6.126561114266994" id="-34318">
		<tag k="name" v="Kjellvorneset" />
		<tag k="natural" v="cape" />
		<tag k="ssr:date" v="2021-06-08" />
		<tag k="ssr:gruppe" v="ferskvannskontur" />
		<tag k="ssr:hovedgruppe" v="ferskvann" />
		<tag k="ssr:stedsnr" v="10588" />
		<tag k="ssr:type" v="nes" />
	</node>
	<node lat="61.92886389262306" lon="5.469150003328738" id="-34319">
		<tag k="name" v="Åsnes" />
		<tag k="place" v="farm" />
		<tag k="ssr:date" v="2019-12-27" />
		<tag k="ssr:gruppe" v="gardsbebyggelse" />
		<tag k="ssr:hovedgruppe" v="bebyggelse" />
		<tag k="ssr:stedsnr" v="10839" />
		<tag k="ssr:type" v="bruk" />
	</node>
	<node lat="61.987511012946655" lon="5.259944762240735" id="-34320">
		<tag k="fixme" v="consider place=hamlet" />
		<tag k="name" v="Venøya" />
		<tag k="place" v="farm" />
		<tag k="ssr:date" v="2019-12-27" />
		<tag k="ssr:gruppe" v="gardsbebyggelse" />
		<tag k="ssr:hovedgruppe" v="bebyggelse" />
		<tag k="ssr:stedsnr" v="10881" />
		<tag k="ssr:type" v="gard" />
	</node>
	<node lat="61.946533765941986" lon="6.328329111727482" id="-34321">
		<tag k="alt_name" v="Furefjerding ytre" />
		<tag k="fixme" v="consider place=hamlet" />
		<tag k="name" v="Ytre Furefjerdingen" />
		<tag k="place" v="farm" />
		<tag k="ssr:date" v="2019-12-27" />
		<tag k="ssr:gruppe" v="gardsbebyggelse" />
		<tag k="ssr:hovedgruppe" v="bebyggelse" />
		<tag k="ssr:stedsnr" v="10896" />
		<tag k="ssr:type" v="gard" />
	</node>
	<node lat="61.966458332157" lon="5.311583340169402" id="-34322">
		<tag k="fixme" v="consider natural=peak for the most distinct mountains in the district" />
		<tag k="name" v="Blåfjellet" />
		<tag k="natural" v="hill" />
		<tag k="place" v="locality" />
		<tag k="ssr:date" v="2019-12-27" />
		<tag k="ssr:gruppe" v="høyder" />
		<tag k="ssr:hovedgruppe" v="terreng" />
		<tag k="ssr:stedsnr" v="10784" />
		<tag k="ssr:type" v="ås" />
	</node>
	<node lat="61.95813889035569" lon="6.3504472136555465" id="-34323">
		<tag k="fixme" v="consider natural=peak for the most distinct mountains in the district" />
		<tag k="name" v="Mannsegga" />
		<tag k="natural" v="hill" />
		<tag k="place" v="locality" />
		<tag k="ssr:date" v="2019-12-27" />
		<tag k="ssr:gruppe" v="høyder" />
		<tag k="ssr:hovedgruppe" v="terreng" />
		<tag k="ssr:stedsnr" v="10901" />
		<tag k="ssr:type" v="ås" />
	</node>
	<node lat="61.9534888866457" lon="6.360447215136721" id="-34324">
		<tag k="name" v="Blekgrova" />
		<tag k="ssr:date" v="2019-12-27" />
		<tag k="ssr:gruppe" v="rennendeVann" />
		<tag k="ssr:hovedgruppe" v="ferskvann" />
		<tag k="ssr:stedsnr" v="10902" />
		<tag k="ssr:type" v="bekk" />
		<tag k="waterway" v="stream" />
	</node>
	<node lat="61.955866669382836" lon="6.2904222217594" id="-34325">
		<tag k="name" v="Svartesvedene" />
		<tag k="natural" v="slope" />
		<tag k="place" v="locality" />
		<tag k="ssr:date" v="2019-12-27" />
		<tag k="ssr:gruppe" v="skråninger" />
		<tag k="ssr:hovedgruppe" v="terreng" />
		<tag k="ssr:stedsnr" v="10907" />
		<tag k="ssr:type" v="li" />
	</node>
	<node lat="61.901072220477836" lon="6.26170000403201" id="-34326">
		<tag k="name" v="Henneelva" />
		<tag k="ssr:date" v="2021-06-08" />
		<tag k="ssr:gruppe" v="rennendeVann" />
		<tag k="ssr:hovedgruppe" v="ferskvann" />
		<tag k="ssr:stedsnr" v="10944" />
		<tag k="ssr:type" v="bekk" />
		<tag k="waterway" v="stream" />
	</node>
	<node lat="61.88478332910809" lon="6.219680557273234" id="-34327">
		<tag k="name" v="Tverreggene" />
		<tag k="natural" v="hill" />
		<tag k="place" v="locality" />
		<tag k="ssr:date" v="2021-06-08" />
		<tag k="ssr:gruppe" v="høyder" />
		<tag k="ssr:hovedgruppe" v="terreng" />
		<tag k="ssr:stedsnr" v="10979" />
		<tag k="ssr:type" v="haug" />
	</node>
	<node lat="61.89148888681682" lon="6.259602786579191" id="-34328">
		<tag k="name" v="Kvanndalsvatnet" />
		<tag k="natural" v="water" />
		<tag k="ssr:date" v="2021-06-08" />
		<tag k="ssr:gruppe" v="stilleståendeVann" />
		<tag k="ssr:hovedgruppe" v="ferskvann" />
		<tag k="ssr:stedsnr" v="10999" />
		<tag k="ssr:type" v="tjern" />
	</node>
	<node lat="62.015678450488466" lon="5.468130565784484" id="-34329">
		<tag k="fixme" v="consider place=hamlet" />
		<tag k="name" v="Bakkebøen" />
		<tag k="place" v="farm" />
		<tag k="ssr:date" v="2021-06-08" />
		<tag k="ssr:gruppe" v="gardsbebyggelse" />
		<tag k="ssr:hovedgruppe" v="bebyggelse" />
		<tag k="ssr:stedsnr" v="11287" />
		<tag k="ssr:type" v="gard" />
	</node>
	<node lat="62.021198077053036" lon="5.392010057641118" id="-34330">
		<tag k="fixme" v="consider place=hamlet" />
		<tag k="name" v="Hatleneset" />
		<tag k="place" v="farm" />
		<tag k="ssr:date" v="2021-06-08" />
		<tag k="ssr:gruppe" v="gardsbebyggelse" />
		<tag k="ssr:hovedgruppe" v="bebyggelse" />
		<tag k="ssr:stedsnr" v="11289" />
		<tag k="ssr:type" v="gard" />
	</node>
	<node lat="62.09062777319327" lon="5.275008326472653" id="-34331">
		<tag k="name" v="Vassdalsvatnet" />
		<tag k="natural" v="water" />
		<tag k="ssr:date" v="2019-12-27" />
		<tag k="ssr:gruppe" v="stilleståendeVann" />
		<tag k="ssr:hovedgruppe" v="ferskvann" />
		<tag k="ssr:stedsnr" v="11429" />
		<tag k="ssr:type" v="tjern" />
	</node>
	<node lat="62.14093106327418" lon="5.2461257436266955" id="-34332">
		<tag k="fixme" v="consider place=hamlet" />
		<tag k="name" v="Nygard" />
		<tag k="place" v="farm" />
		<tag k="ssr:date" v="2021-06-08" />
		<tag k="ssr:gruppe" v="gardsbebyggelse" />
		<tag k="ssr:hovedgruppe" v="bebyggelse" />
		<tag k="ssr:stedsnr" v="11432" />
		<tag k="ssr:type" v="gard" />
	</node>
	<node lat="62.004768994641914" lon="5.269703071333747" id="-34333">
		<tag k="name" v="Djupedalsvatnet" />
		<tag k="natural" v="water" />
		<tag k="ssr:date" v="2019-12-27" />
		<tag k="ssr:gruppe" v="stilleståendeVann" />
		<tag k="ssr:hovedgruppe" v="ferskvann" />
		<tag k="ssr:stedsnr" v="11187" />
		<tag k="ssr:type" v="vann" />
		<tag k="water" v="lake" />
	</node>
	<node lat="62.10299780248767" lon="5.248070138822771" id="-34334">
		<tag k="fixme" v="consider place=hamlet" />
		<tag k="name" v="Austmyr" />
		<tag k="place" v="farm" />
		<tag k="ssr:date" v="2019-12-27" />
		<tag k="ssr:gruppe" v="gardsbebyggelse" />
		<tag k="ssr:hovedgruppe" v="bebyggelse" />
		<tag k="ssr:stedsnr" v="11377" />
		<tag k="ssr:type" v="gard" />
	</node>
	<node lat="62.1061416657928" lon="5.242547221317566" id="-34335">
		<tag k="alt_name" v="Drage Indre" />
		<tag k="name" v="Drage" />
		<tag k="place" v="farm" />
		<tag k="ssr:date" v="2019-12-27" />
		<tag k="ssr:gruppe" v="gardsbebyggelse" />
		<tag k="ssr:hovedgruppe" v="bebyggelse" />
		<tag k="ssr:stedsnr" v="11378" />
		<tag k="ssr:type" v="bruk" />
	</node>
	<node lat="62.10172221946318" lon="5.190063885768969" id="-34336">
		<tag k="name" v="Furestranda" />
		<tag k="natural" v="beach" />
		<tag k="ssr:date" v="2019-12-27" />
		<tag k="ssr:gruppe" v="kystkontur" />
		<tag k="ssr:hovedgruppe" v="sjø" />
		<tag k="ssr:stedsnr" v="11673" />
		<tag k="ssr:type" v="strandISjø" />
	</node>
	<node lat="62.120713889615274" lon="5.1522277760175" id="-34337">
		<tag k="name" v="Furestøylen" />
		<tag k="place" v="locality" />
		<tag k="ssr:date" v="2019-12-27" />
		<tag k="ssr:gruppe" v="gardsbebyggelse" />
		<tag k="ssr:hovedgruppe" v="bebyggelse" />
		<tag k="ssr:stedsnr" v="11704" />
		<tag k="ssr:type" v="byggForJordbrukFiskeOgFangst" />
	</node>
	<node lat="62.12104166897987" lon="5.126891666437594" id="-34338">
		<tag k="fixme" v="consider natural=peak for the most distinct mountains in the district" />
		<tag k="name" v="Høgeheida" />
		<tag k="natural" v="hill" />
		<tag k="place" v="locality" />
		<tag k="ssr:date" v="2021-06-08" />
		<tag k="ssr:gruppe" v="høyder" />
		<tag k="ssr:hovedgruppe" v="terreng" />
		<tag k="ssr:stedsnr" v="11711" />
		<tag k="ssr:type" v="ås" />
	</node>
	<node lat="62.126977780754494" lon="5.120333333899767" id="-34339">
		<tag k="name" v="Hoddevikneset" />
		<tag k="natural" v="cape" />
		<tag k="ssr:date" v="2021-06-08" />
		<tag k="ssr:gruppe" v="kystkontur" />
		<tag k="ssr:hovedgruppe" v="sjø" />
		<tag k="ssr:stedsnr" v="11712" />
		<tag k="ssr:type" v="nesISjø" />
	</node>
	<node lat="62.03775555603959" lon="5.366372228642343" id="-34340">
		<tag k="name" v="Dyvedal" />
		<tag k="place" v="locality" />
		<tag k="ssr:date" v="2019-12-27" />
		<tag k="ssr:gruppe" v="terrengdetaljer" />
		<tag k="ssr:hovedgruppe" v="terreng" />
		<tag k="ssr:stedsnr" v="231919" />
		<tag k="ssr:type" v="annenTerrengdetalj" />
	</node>
	<node lat="62.03268055960269" lon="5.41045833175326" id="-34341">
		<tag k="name" v="Buhola" />
		<tag k="place" v="locality" />
		<tag k="ssr:date" v="2019-12-27" />
		<tag k="ssr:gruppe" v="terrengdetaljer" />
		<tag k="ssr:hovedgruppe" v="terreng" />
		<tag k="ssr:stedsnr" v="231923" />
		<tag k="ssr:type" v="annenTerrengdetalj" />
	</node>
	<node lat="62.03001111172398" lon="5.410183330168868" id="-34342">
		<tag k="name" v="Lestovika" />
		<tag k="natural" v="bay" />
		<tag k="ssr:date" v="2019-12-27" />
		<tag k="ssr:gruppe" v="kystkontur" />
		<tag k="ssr:hovedgruppe" v="sjø" />
		<tag k="ssr:stedsnr" v="231927" />
		<tag k="ssr:type" v="vikISjø" />
	</node>
	<node lat="62.05282500372286" lon="5.321836116376763" id="-34343">
		<tag k="name" v="Skarveklubben" />
		<tag k="place" v="islet" />
		<tag k="ssr:date" v="2019-12-27" />
		<tag k="ssr:gruppe" v="kystkontur" />
		<tag k="ssr:hovedgruppe" v="sjø" />
		<tag k="ssr:stedsnr" v="231951" />
		<tag k="ssr:type" v="holmeISjø" />
	</node>
	<node lat="62.051350001452114" lon="5.3857916716506695" id="-34344">
		<tag k="name" v="Høgeskjevane" />
		<tag k="natural" v="hill" />
		<tag k="place" v="locality" />
		<tag k="ssr:date" v="2019-12-27" />
		<tag k="ssr:gruppe" v="høyder" />
		<tag k="ssr:hovedgruppe" v="terreng" />
		<tag k="ssr:stedsnr" v="231964" />
		<tag k="ssr:type" v="haug" />
	</node>
	<node lat="62.07996944639165" lon="5.403625007757361" id="-34345">
		<tag k="name" v="Stigetangen" />
		<tag k="natural" v="cape" />
		<tag k="ssr:date" v="2019-12-27" />
		<tag k="ssr:gruppe" v="kystkontur" />
		<tag k="ssr:hovedgruppe" v="sjø" />
		<tag k="ssr:stedsnr" v="231991" />
		<tag k="ssr:type" v="nesISjø" />
	</node>
	<node lat="62.08308888518103" lon="5.399033336277899" id="-34346">
		<tag k="name" v="Furenesvika" />
		<tag k="natural" v="bay" />
		<tag k="ssr:date" v="2019-12-27" />
		<tag k="ssr:gruppe" v="kystkontur" />
		<tag k="ssr:hovedgruppe" v="sjø" />
		<tag k="ssr:stedsnr" v="231994" />
		<tag k="ssr:type" v="vikISjø" />
	</node>
	<node lat="62.12693055578998" lon="5.259236118617393" id="-34347">
		<tag k="name" v="Kvannskaret" />
		<tag k="natural" v="valley" />
		<tag k="place" v="locality" />
		<tag k="ssr:date" v="2019-12-27" />
		<tag k="ssr:gruppe" v="senkninger" />
		<tag k="ssr:hovedgruppe" v="terreng" />
		<tag k="ssr:stedsnr" v="232122" />
		<tag k="ssr:type" v="skar" />
	</node>
	<node lat="62.135550001220594" lon="5.289047213756721" id="-34348">
		<tag k="name" v="Stavokla" />
		<tag k="natural" v="hill" />
		<tag k="place" v="locality" />
		<tag k="ssr:date" v="2019-12-27" />
		<tag k="ssr:gruppe" v="høyder" />
		<tag k="ssr:hovedgruppe" v="terreng" />
		<tag k="ssr:stedsnr" v="232125" />
		<tag k="ssr:type" v="haug" />
	</node>
	<node lat="62.16840278001507" lon="5.283149997367445" id="-34349">
		<tag k="name" v="Litleneset" />
		<tag k="natural" v="cape" />
		<tag k="ssr:date" v="2019-12-27" />
		<tag k="ssr:gruppe" v="kystkontur" />
		<tag k="ssr:hovedgruppe" v="sjø" />
		<tag k="ssr:stedsnr" v="232218" />
		<tag k="ssr:type" v="nesISjø" />
	</node>
	<node lat="62.103591669074845" lon="5.235941658200686" id="-34350">
		<tag k="alt_name" v="Ytste Drage;Drage Ytre" />
		<tag k="name" v="Ytre Drage" />
		<tag k="place" v="hamlet" />
		<tag k="ssr:date" v="2019-12-27" />
		<tag k="ssr:gruppe" v="bebyggelsesområder" />
		<tag k="ssr:hovedgruppe" v="bebyggelse" />
		<tag k="ssr:stedsnr" v="232155" />
		<tag k="ssr:type" v="grend" />
	</node>
	<node lat="62.10689166443612" lon="5.218002774104459" id="-34351">
		<tag k="alt_name" v="Vetenakken" />
		<tag k="fixme" v="consider natural=peak for the most distinct mountains in the district" />
		<tag k="name" v="Vidanakken" />
		<tag k="natural" v="hill" />
		<tag k="place" v="locality" />
		<tag k="ssr:date" v="2019-12-27" />
		<tag k="ssr:gruppe" v="høyder" />
		<tag k="ssr:hovedgruppe" v="terreng" />
		<tag k="ssr:stedsnr" v="232156" />
		<tag k="ssr:type" v="topp" />
	</node>
	<node lat="62.2036222182427" lon="5.182372219938549" id="-34352">
		<tag k="name" v="Fiksnesgjøtten" />
		<tag k="natural" v="valley" />
		<tag k="place" v="locality" />
		<tag k="ssr:date" v="2019-12-27" />
		<tag k="ssr:gruppe" v="senkninger" />
		<tag k="ssr:hovedgruppe" v="terreng" />
		<tag k="ssr:stedsnr" v="232472" />
		<tag k="ssr:type" v="skar" />
	</node>
	<node lat="62.184750001877916" lon="5.0913999939306835" id="-34353">
		<tag k="name" v="Hendabåen" />
		<tag k="place" v="locality" />
		<tag k="seamark:type" v="rock" />
		<tag k="ssr:date" v="2019-12-27" />
		<tag k="ssr:gruppe" v="grunnerISjø" />
		<tag k="ssr:hovedgruppe" v="sjø" />
		<tag k="ssr:stedsnr" v="232474" />
		<tag k="ssr:type" v="båeISjø" />
	</node>
	<node lat="62.19454301801003" lon="5.177969619958234" id="-34354">
		<tag k="name" v="Gletteneset" />
		<tag k="natural" v="cape" />
		<tag k="ssr:date" v="2019-12-27" />
		<tag k="ssr:gruppe" v="kystkontur" />
		<tag k="ssr:hovedgruppe" v="sjø" />
		<tag k="ssr:stedsnr" v="232686" />
		<tag k="ssr:type" v="nesISjø" />
	</node>
	<node lat="62.19183055385346" lon="5.164222218263827" id="-34355">
		<tag k="name" v="Halsen" />
		<tag k="natural" v="hill" />
		<tag k="place" v="locality" />
		<tag k="ssr:date" v="2019-12-27" />
		<tag k="ssr:gruppe" v="høyder" />
		<tag k="ssr:hovedgruppe" v="terreng" />
		<tag k="ssr:stedsnr" v="232693" />
		<tag k="ssr:type" v="haug" />
	</node>
</osm>
