<?xml version="1.0" encoding="UTF-8"?>
<osm version="0.6" generator="osmapis">
	<node lat="62.19296279824669" lon="5.164528106225519" id="-82293">
		<tag k="alt_name" v="Stattvågen" />
		<tag k="name" v="Stattvågen lykt" />
		<tag k="ssr:date" v="2020-09-03" />
		<tag k="ssr:gruppe" v="navigasjon" />
		<tag k="ssr:hovedgruppe" v="infrastruktur" />
		<tag k="ssr:stedsnr" v="392112" />
		<tag k="ssr:type" v="fyrlykt" />
	</node>
	<node lat="61.96092253275354" lon="5.496528556820848" id="-82677">
		<tag k="name" v="Nave" />
		<tag k="ssr:date" v="2019-12-27" />
		<tag k="ssr:gruppe" v="veg" />
		<tag k="ssr:hovedgruppe" v="infrastruktur" />
		<tag k="ssr:stedsnr" v="605865" />
		<tag k="ssr:type" v="adressenavn" />
	</node>
	<node lat="62.14970278126544" lon="5.3088527747035075" id="-83033">
		<tag k="name" v="Borgundvåg molo" />
		<tag k="ssr:date" v="2019-12-27" />
		<tag k="ssr:gruppe" v="navigasjon" />
		<tag k="ssr:hovedgruppe" v="infrastruktur" />
		<tag k="ssr:stedsnr" v="904355" />
		<tag k="ssr:type" v="lanterne" />
	</node>
	<node lat="62.05131388815562" lon="5.34466110897153" id="-83049">
		<tag k="alt_name" v="Selje" />
		<tag k="name" v="Selje lykt" />
		<tag k="ssr:date" v="2019-12-27" />
		<tag k="ssr:gruppe" v="navigasjon" />
		<tag k="ssr:hovedgruppe" v="infrastruktur" />
		<tag k="ssr:stedsnr" v="906594" />
		<tag k="ssr:type" v="fyrlykt" />
	</node>
	<node lat="62.032833211087656" lon="5.3438681021764305" id="-83180">
		<tag k="alt_name" v="Saltnes lykt" />
		<tag k="name" v="Saltnes" />
		<tag k="old_name" v="Saltaneset;Salt lykt" />
		<tag k="ssr:date" v="2019-12-27" />
		<tag k="ssr:gruppe" v="navigasjon" />
		<tag k="ssr:hovedgruppe" v="infrastruktur" />
		<tag k="ssr:stedsnr" v="921261" />
		<tag k="ssr:type" v="fyrlykt" />
	</node>
	<node lat="62.16900941882688" lon="5.080427472957358" id="-83199">
		<tag k="name" v="Buholmen" />
		<tag k="old_name" v="Buholmen lykt" />
		<tag k="ssr:date" v="2020-09-08" />
		<tag k="ssr:gruppe" v="navigasjon" />
		<tag k="ssr:hovedgruppe" v="infrastruktur" />
		<tag k="ssr:stedsnr" v="921750" />
		<tag k="ssr:type" v="fyrlykt" />
	</node>
	<node lat="62.11614722350117" lon="5.1936416741903395" id="-83203">
		<tag k="name" v="Kleiva" />
		<tag k="ssr:date" v="2019-12-27" />
		<tag k="ssr:gruppe" v="veg" />
		<tag k="ssr:hovedgruppe" v="infrastruktur" />
		<tag k="ssr:stedsnr" v="921719" />
		<tag k="ssr:type" v="vegstrekning" />
	</node>
	<node lat="61.91794932125299" lon="5.998800256836258" id="-83461">
		<tag k="name" v="Inste Urene" />
		<tag k="ssr:date" v="2019-12-27" />
		<tag k="ssr:gruppe" v="veg" />
		<tag k="ssr:hovedgruppe" v="infrastruktur" />
		<tag k="ssr:stedsnr" v="980685" />
		<tag k="ssr:type" v="adressenavn" />
	</node>
	<node lat="61.91170643483034" lon="6.01102515898131" id="-83462">
		<tag k="name" v="Langelandsåsen" />
		<tag k="ssr:date" v="2019-12-27" />
		<tag k="ssr:gruppe" v="veg" />
		<tag k="ssr:hovedgruppe" v="infrastruktur" />
		<tag k="ssr:stedsnr" v="980686" />
		<tag k="ssr:type" v="adressenavn" />
	</node>
	<node lat="61.90393220700272" lon="6.005661444912044" id="-83469">
		<tag k="name" v="Norsvegen" />
		<tag k="ssr:date" v="2019-12-27" />
		<tag k="ssr:gruppe" v="veg" />
		<tag k="ssr:hovedgruppe" v="infrastruktur" />
		<tag k="ssr:stedsnr" v="980693" />
		<tag k="ssr:type" v="adressenavn" />
	</node>
	<node lat="61.92379454457517" lon="5.887829874248598" id="-83474">
		<tag k="name" v="Haugen" />
		<tag k="ssr:date" v="2019-12-27" />
		<tag k="ssr:gruppe" v="veg" />
		<tag k="ssr:hovedgruppe" v="infrastruktur" />
		<tag k="ssr:stedsnr" v="980698" />
		<tag k="ssr:type" v="adressenavn" />
	</node>
	<node lat="61.9145540182437" lon="5.64510261844952" id="-83477">
		<tag k="name" v="Hundshaugvegen" />
		<tag k="ssr:date" v="2019-12-27" />
		<tag k="ssr:gruppe" v="veg" />
		<tag k="ssr:hovedgruppe" v="infrastruktur" />
		<tag k="ssr:stedsnr" v="980724" />
		<tag k="ssr:type" v="adressenavn" />
	</node>
	<node lat="61.914689156336905" lon="5.6442898304896865" id="-83478">
		<tag k="name" v="Stranda" />
		<tag k="ssr:date" v="2019-12-27" />
		<tag k="ssr:gruppe" v="veg" />
		<tag k="ssr:hovedgruppe" v="infrastruktur" />
		<tag k="ssr:stedsnr" v="980725" />
		<tag k="ssr:type" v="adressenavn" />
	</node>
	<node lat="61.92514843830208" lon="5.601991407774899" id="-83484">
		<tag k="name" v="Skoravegen" />
		<tag k="ssr:date" v="2019-12-27" />
		<tag k="ssr:gruppe" v="veg" />
		<tag k="ssr:hovedgruppe" v="infrastruktur" />
		<tag k="ssr:stedsnr" v="980731" />
		<tag k="ssr:type" v="adressenavn" />
	</node>
	<node lat="61.92262272504917" lon="5.583018591724896" id="-83485">
		<tag k="name" v="Hausvegen" />
		<tag k="ssr:date" v="2019-12-27" />
		<tag k="ssr:gruppe" v="veg" />
		<tag k="ssr:hovedgruppe" v="infrastruktur" />
		<tag k="ssr:stedsnr" v="980732" />
		<tag k="ssr:type" v="adressenavn" />
	</node>
	<node lat="61.86819309718881" lon="5.805251342833395" id="-83487">
		<tag k="name" v="Torheimsvegen" />
		<tag k="ssr:date" v="2019-12-27" />
		<tag k="ssr:gruppe" v="veg" />
		<tag k="ssr:hovedgruppe" v="infrastruktur" />
		<tag k="ssr:stedsnr" v="980735" />
		<tag k="ssr:type" v="adressenavn" />
	</node>
	<node lat="61.862928829224785" lon="6.102383491919997" id="-83489">
		<tag k="name" v="Lotsbergvegen" />
		<tag k="ssr:date" v="2019-12-27" />
		<tag k="ssr:gruppe" v="veg" />
		<tag k="ssr:hovedgruppe" v="infrastruktur" />
		<tag k="ssr:stedsnr" v="980738" />
		<tag k="ssr:type" v="adressenavn" />
	</node>
	<node lat="61.91386998518122" lon="6.296292056354246" id="-83493">
		<tag k="name" v="Skredevegen" />
		<tag k="ssr:date" v="2019-12-27" />
		<tag k="ssr:gruppe" v="veg" />
		<tag k="ssr:hovedgruppe" v="infrastruktur" />
		<tag k="ssr:stedsnr" v="980742" />
		<tag k="ssr:type" v="adressenavn" />
	</node>
	<node lat="61.93707961013301" lon="6.428757037387163" id="-83495">
		<tag k="name" v="Storevikvegen" />
		<tag k="ssr:date" v="2019-12-27" />
		<tag k="ssr:gruppe" v="veg" />
		<tag k="ssr:hovedgruppe" v="infrastruktur" />
		<tag k="ssr:stedsnr" v="980744" />
		<tag k="ssr:type" v="adressenavn" />
	</node>
	<node lat="62.198086110245164" lon="5.177647216464173" id="-83828">
		<tag k="alt_name" v="Honningsvåg" />
		<tag k="name" v="Honningsvåg lykt" />
		<tag k="ssr:date" v="2019-12-27" />
		<tag k="ssr:gruppe" v="navigasjon" />
		<tag k="ssr:hovedgruppe" v="infrastruktur" />
		<tag k="ssr:stedsnr" v="117274" />
		<tag k="ssr:type" v="fyrlykt" />
	</node>
	<node lat="61.934956572120406" lon="5.396528704468014" id="-83833">
		<tag k="name" v="Rimstaddalen" />
		<tag k="ssr:date" v="2019-12-27" />
		<tag k="ssr:gruppe" v="veg" />
		<tag k="ssr:hovedgruppe" v="infrastruktur" />
		<tag k="ssr:stedsnr" v="120837" />
		<tag k="ssr:type" v="adressenavn" />
	</node>
	<node lat="61.942955932408495" lon="5.453738077855088" id="-83834">
		<tag k="name" v="Heggedalsvegen" />
		<tag k="ssr:date" v="2019-12-27" />
		<tag k="ssr:gruppe" v="veg" />
		<tag k="ssr:hovedgruppe" v="infrastruktur" />
		<tag k="ssr:stedsnr" v="120852" />
		<tag k="ssr:type" v="adressenavn" />
	</node>
	<node lat="62.1950722212974" lon="5.19155555918819" id="-84183">
		<tag k="name" v="Stattvågen nordre molo" />
		<tag k="ssr:date" v="2019-12-27" />
		<tag k="ssr:gruppe" v="navigasjon" />
		<tag k="ssr:hovedgruppe" v="infrastruktur" />
		<tag k="ssr:stedsnr" v="299244" />
		<tag k="ssr:type" v="lanterne" />
	</node>
	<node lat="61.91040000206098" lon="5.684816658593088" id="-84245">
		<tag k="alt_name" v="Reksnes" />
		<tag k="name" v="Reksnes lykt" />
		<tag k="ssr:date" v="2019-12-27" />
		<tag k="ssr:gruppe" v="navigasjon" />
		<tag k="ssr:hovedgruppe" v="infrastruktur" />
		<tag k="ssr:stedsnr" v="337371" />
		<tag k="ssr:type" v="fyrlykt" />
	</node>
	<node lat="61.94224241259041" lon="5.452176706760436" id="-84348">
		<tag k="name" v="Maurstadeidet" />
		<tag k="ssr:date" v="2019-12-27" />
		<tag k="ssr:gruppe" v="veg" />
		<tag k="ssr:hovedgruppe" v="infrastruktur" />
		<tag k="ssr:stedsnr" v="363831" />
		<tag k="ssr:type" v="adressenavn" />
	</node>
	<node lat="61.93821804094079" lon="5.417306273573319" id="-84538">
		<tag k="name" v="Strandavegen" />
		<tag k="ssr:date" v="2019-12-27" />
		<tag k="ssr:gruppe" v="veg" />
		<tag k="ssr:hovedgruppe" v="infrastruktur" />
		<tag k="ssr:stedsnr" v="424831" />
		<tag k="ssr:type" v="adressenavn" />
	</node>
	<node lat="61.9544114939422" lon="5.486634631255575" id="-84539">
		<tag k="name" v="Strandabergvegen" />
		<tag k="ssr:date" v="2019-12-27" />
		<tag k="ssr:gruppe" v="veg" />
		<tag k="ssr:hovedgruppe" v="infrastruktur" />
		<tag k="ssr:stedsnr" v="424840" />
		<tag k="ssr:type" v="adressenavn" />
	</node>
	<node lat="62.19184999690173" lon="5.207061120343534" id="-84708">
		<tag k="name" v="Indre Honninningsvåg, øvre" />
		<tag k="ssr:date" v="2019-12-27" />
		<tag k="ssr:gruppe" v="navigasjon" />
		<tag k="ssr:hovedgruppe" v="infrastruktur" />
		<tag k="ssr:stedsnr" v="541239" />
		<tag k="ssr:type" v="lanterne" />
	</node>
	<node lat="61.926787438970536" lon="5.459075613121052" id="-84865">
		<tag k="alt_name" v="Åsneset" />
		<tag k="name" v="Åsnes" />
		<tag k="ssr:date" v="2020-09-08" />
		<tag k="ssr:gruppe" v="navigasjon" />
		<tag k="ssr:hovedgruppe" v="infrastruktur" />
		<tag k="ssr:stedsnr" v="616214" />
		<tag k="ssr:type" v="fyrlykt" />
	</node>
	<node lat="61.95407037407126" lon="5.485321966464033" id="-85108">
		<tag k="name" v="Øyehaugen" />
		<tag k="ssr:date" v="2019-12-27" />
		<tag k="ssr:gruppe" v="veg" />
		<tag k="ssr:hovedgruppe" v="infrastruktur" />
		<tag k="ssr:stedsnr" v="727845" />
		<tag k="ssr:type" v="adressenavn" />
	</node>
	<node lat="62.01549999773699" lon="5.456575005312644" id="-85259">
		<tag k="name" v="Gamle Kongevegen" />
		<tag k="ssr:date" v="2019-12-27" />
		<tag k="ssr:gruppe" v="veg" />
		<tag k="ssr:hovedgruppe" v="infrastruktur" />
		<tag k="ssr:stedsnr" v="778542" />
		<tag k="ssr:type" v="vegstrekning" />
	</node>
	<node lat="62.19230555553927" lon="5.204041664660624" id="-85435">
		<tag k="name" v="Indre Honninningsvåg, nedre" />
		<tag k="ssr:date" v="2019-12-27" />
		<tag k="ssr:gruppe" v="navigasjon" />
		<tag k="ssr:hovedgruppe" v="infrastruktur" />
		<tag k="ssr:stedsnr" v="845242" />
		<tag k="ssr:type" v="lanterne" />
	</node>
	<node lat="62.09624166639942" lon="5.094827779058049" id="-85632">
		<tag k="name" v="Gamla lysbøye" />
		<tag k="ssr:date" v="2019-12-27" />
		<tag k="ssr:gruppe" v="navigasjon" />
		<tag k="ssr:hovedgruppe" v="infrastruktur" />
		<tag k="ssr:stedsnr" v="966749" />
		<tag k="ssr:type" v="lysbøye" />
	</node>
	<node lat="62.194036111672865" lon="5.190761103001186" id="-85633">
		<tag k="name" v="Stattvågen søre molo" />
		<tag k="ssr:date" v="2019-12-27" />
		<tag k="ssr:gruppe" v="navigasjon" />
		<tag k="ssr:hovedgruppe" v="infrastruktur" />
		<tag k="ssr:stedsnr" v="966228" />
		<tag k="ssr:type" v="lanterne" />
	</node>
	<node lat="61.92411730903735" lon="5.887708029745356" id="-85648">
		<tag k="name" v="Hjalmavegen" />
		<tag k="ssr:date" v="2019-12-27" />
		<tag k="ssr:gruppe" v="veg" />
		<tag k="ssr:hovedgruppe" v="infrastruktur" />
		<tag k="ssr:stedsnr" v="980701" />
		<tag k="ssr:type" v="adressenavn" />
	</node>
	<node lat="61.924195143368124" lon="5.8703907232984465" id="-85649">
		<tag k="name" v="Bjørhovdevegen" />
		<tag k="ssr:date" v="2019-12-27" />
		<tag k="ssr:gruppe" v="veg" />
		<tag k="ssr:hovedgruppe" v="infrastruktur" />
		<tag k="ssr:stedsnr" v="980702" />
		<tag k="ssr:type" v="adressenavn" />
	</node>
	<node lat="61.914759085220844" lon="5.857731816737757" id="-85651">
		<tag k="name" v="Løkjavegen" />
		<tag k="ssr:date" v="2019-12-27" />
		<tag k="ssr:gruppe" v="veg" />
		<tag k="ssr:hovedgruppe" v="infrastruktur" />
		<tag k="ssr:stedsnr" v="980704" />
		<tag k="ssr:type" v="adressenavn" />
	</node>
	<node lat="61.91339714838589" lon="5.861087791679899" id="-85652">
		<tag k="name" v="Løkjastranda" />
		<tag k="ssr:date" v="2019-12-27" />
		<tag k="ssr:gruppe" v="veg" />
		<tag k="ssr:hovedgruppe" v="infrastruktur" />
		<tag k="ssr:stedsnr" v="980705" />
		<tag k="ssr:type" v="adressenavn" />
	</node>
	<node lat="61.91661441506272" lon="5.848442184130093" id="-85653">
		<tag k="name" v="Naustdalsvegen" />
		<tag k="ssr:date" v="2019-12-27" />
		<tag k="ssr:gruppe" v="veg" />
		<tag k="ssr:hovedgruppe" v="infrastruktur" />
		<tag k="ssr:stedsnr" v="980706" />
		<tag k="ssr:type" v="adressenavn" />
	</node>
	<node lat="61.95900333778135" lon="5.958149701225699" id="-85654">
		<tag k="name" v="Brekkevegen" />
		<tag k="ssr:date" v="2019-12-27" />
		<tag k="ssr:gruppe" v="veg" />
		<tag k="ssr:hovedgruppe" v="infrastruktur" />
		<tag k="ssr:stedsnr" v="980707" />
		<tag k="ssr:type" v="adressenavn" />
	</node>
	<node lat="61.958417225526276" lon="5.936647807729783" id="-85655">
		<tag k="name" v="Gamlelø" />
		<tag k="ssr:date" v="2019-12-27" />
		<tag k="ssr:gruppe" v="veg" />
		<tag k="ssr:hovedgruppe" v="infrastruktur" />
		<tag k="ssr:stedsnr" v="980708" />
		<tag k="ssr:type" v="adressenavn" />
	</node>
	<node lat="61.96004645361827" lon="5.936895764700486" id="-85656">
		<tag k="name" v="Fosseholtvegen" />
		<tag k="ssr:date" v="2019-12-27" />
		<tag k="ssr:gruppe" v="veg" />
		<tag k="ssr:hovedgruppe" v="infrastruktur" />
		<tag k="ssr:stedsnr" v="980709" />
		<tag k="ssr:type" v="adressenavn" />
	</node>
	<node lat="61.917770000530275" lon="5.739955478381741" id="-85661">
		<tag k="name" v="Orheimsvegen" />
		<tag k="ssr:date" v="2019-12-27" />
		<tag k="ssr:gruppe" v="veg" />
		<tag k="ssr:hovedgruppe" v="infrastruktur" />
		<tag k="ssr:stedsnr" v="980714" />
		<tag k="ssr:type" v="adressenavn" />
	</node>
	<node lat="61.92089300287939" lon="5.786366882808775" id="-85664">
		<tag k="name" v="Myroldrinden" />
		<tag k="ssr:date" v="2019-12-27" />
		<tag k="ssr:gruppe" v="veg" />
		<tag k="ssr:hovedgruppe" v="infrastruktur" />
		<tag k="ssr:stedsnr" v="980717" />
		<tag k="ssr:type" v="adressenavn" />
	</node>
	<node lat="61.918326823655335" lon="5.767543151902002" id="-85665">
		<tag k="name" v="Vikabakken" />
		<tag k="ssr:date" v="2019-12-27" />
		<tag k="ssr:gruppe" v="veg" />
		<tag k="ssr:hovedgruppe" v="infrastruktur" />
		<tag k="ssr:stedsnr" v="980718" />
		<tag k="ssr:type" v="adressenavn" />
	</node>
	<node lat="61.91991410391926" lon="5.7753219479931035" id="-85667">
		<tag k="name" v="Myrold" />
		<tag k="ssr:date" v="2019-12-27" />
		<tag k="ssr:gruppe" v="veg" />
		<tag k="ssr:hovedgruppe" v="infrastruktur" />
		<tag k="ssr:stedsnr" v="980720" />
		<tag k="ssr:type" v="adressenavn" />
	</node>
	<node lat="61.91808464923415" lon="5.881562267111943" id="-85686">
		<tag k="name" v="Tippaåsen" />
		<tag k="ssr:date" v="2019-12-27" />
		<tag k="ssr:gruppe" v="veg" />
		<tag k="ssr:hovedgruppe" v="infrastruktur" />
		<tag k="ssr:stedsnr" v="985129" />
		<tag k="ssr:type" v="adressenavn" />
	</node>
	<node lat="61.896352440655924" lon="5.87430228260006" id="-85688">
		<tag k="name" v="Hundeidvegen" />
		<tag k="ssr:date" v="2019-12-27" />
		<tag k="ssr:gruppe" v="veg" />
		<tag k="ssr:hovedgruppe" v="infrastruktur" />
		<tag k="ssr:stedsnr" v="985131" />
		<tag k="ssr:type" v="adressenavn" />
	</node>
	<node lat="61.917227763284096" lon="5.9906104290855815" id="-85692">
		<tag k="name" v="Langerusta" />
		<tag k="ssr:date" v="2019-12-27" />
		<tag k="ssr:gruppe" v="veg" />
		<tag k="ssr:hovedgruppe" v="infrastruktur" />
		<tag k="ssr:stedsnr" v="1053245" />
		<tag k="ssr:type" v="adressenavn" />
	</node>
	<node lat="61.91562429619521" lon="5.992462762799965" id="-85693">
		<tag k="name" v="Kvernhusvegen" />
		<tag k="ssr:date" v="2019-12-27" />
		<tag k="ssr:gruppe" v="veg" />
		<tag k="ssr:hovedgruppe" v="infrastruktur" />
		<tag k="ssr:stedsnr" v="1053266" />
		<tag k="ssr:type" v="adressenavn" />
	</node>
	<node lat="61.91293231552644" lon="5.9793392216175185" id="-85694">
		<tag k="name" v="Leirongane" />
		<tag k="ssr:date" v="2019-12-27" />
		<tag k="ssr:gruppe" v="veg" />
		<tag k="ssr:hovedgruppe" v="infrastruktur" />
		<tag k="ssr:stedsnr" v="1053274" />
		<tag k="ssr:type" v="adressenavn" />
	</node>
	<node lat="61.91476566669094" lon="5.983681624508094" id="-85698">
		<tag k="name" v="Melvegen" />
		<tag k="ssr:date" v="2019-12-27" />
		<tag k="ssr:gruppe" v="veg" />
		<tag k="ssr:hovedgruppe" v="infrastruktur" />
		<tag k="ssr:stedsnr" v="1053343" />
		<tag k="ssr:type" v="adressenavn" />
	</node>
	<node lat="61.917191929569476" lon="5.991807897505207" id="-85699">
		<tag k="name" v="Holane" />
		<tag k="ssr:date" v="2019-12-27" />
		<tag k="ssr:gruppe" v="veg" />
		<tag k="ssr:hovedgruppe" v="infrastruktur" />
		<tag k="ssr:stedsnr" v="1053352" />
		<tag k="ssr:type" v="adressenavn" />
	</node>
	<node lat="61.91289035951309" lon="5.986947264635647" id="-85700">
		<tag k="name" v="Høgebakkane" />
		<tag k="ssr:date" v="2019-12-27" />
		<tag k="ssr:gruppe" v="veg" />
		<tag k="ssr:hovedgruppe" v="infrastruktur" />
		<tag k="ssr:stedsnr" v="1053372" />
		<tag k="ssr:type" v="adressenavn" />
	</node>
	<node lat="61.91752452359296" lon="5.995618739738794" id="-85701">
		<tag k="name" v="Huldresvadet" />
		<tag k="ssr:date" v="2019-12-27" />
		<tag k="ssr:gruppe" v="veg" />
		<tag k="ssr:hovedgruppe" v="infrastruktur" />
		<tag k="ssr:stedsnr" v="1053375" />
		<tag k="ssr:type" v="adressenavn" />
	</node>
	<node lat="61.90210708648567" lon="5.997510975134737" id="-85702">
		<tag k="name" v="Malakoff" />
		<tag k="ssr:date" v="2019-12-27" />
		<tag k="ssr:gruppe" v="veg" />
		<tag k="ssr:hovedgruppe" v="infrastruktur" />
		<tag k="ssr:stedsnr" v="1053309" />
		<tag k="ssr:type" v="adressenavn" />
	</node>
	<node lat="61.90834612409999" lon="5.995757778689611" id="-85703">
		<tag k="name" v="Lundenvegen" />
		<tag k="ssr:date" v="2019-12-27" />
		<tag k="ssr:gruppe" v="veg" />
		<tag k="ssr:hovedgruppe" v="infrastruktur" />
		<tag k="ssr:stedsnr" v="1053313" />
		<tag k="ssr:type" v="adressenavn" />
	</node>
	<node lat="61.9046349384392" lon="5.989705154532476" id="-85704">
		<tag k="name" v="Kaivegen" />
		<tag k="ssr:date" v="2019-12-27" />
		<tag k="ssr:gruppe" v="veg" />
		<tag k="ssr:hovedgruppe" v="infrastruktur" />
		<tag k="ssr:stedsnr" v="1053396" />
		<tag k="ssr:type" v="adressenavn" />
	</node>
	<node lat="61.907709732505296" lon="5.998212005447177" id="-85705">
		<tag k="name" v="Korsvegen" />
		<tag k="ssr:date" v="2019-12-27" />
		<tag k="ssr:gruppe" v="veg" />
		<tag k="ssr:hovedgruppe" v="infrastruktur" />
		<tag k="ssr:stedsnr" v="1053403" />
		<tag k="ssr:type" v="adressenavn" />
	</node>
	<node lat="61.91634143923928" lon="5.989849558097743" id="-85706">
		<tag k="name" v="Kilura" />
		<tag k="ssr:date" v="2019-12-27" />
		<tag k="ssr:gruppe" v="veg" />
		<tag k="ssr:hovedgruppe" v="infrastruktur" />
		<tag k="ssr:stedsnr" v="1053417" />
		<tag k="ssr:type" v="adressenavn" />
	</node>
	<node lat="61.91225688885895" lon="5.996777987559221" id="-85707">
		<tag k="name" v="Fossevegen" />
		<tag k="ssr:date" v="2019-12-27" />
		<tag k="ssr:gruppe" v="veg" />
		<tag k="ssr:hovedgruppe" v="infrastruktur" />
		<tag k="ssr:stedsnr" v="1053486" />
		<tag k="ssr:type" v="adressenavn" />
	</node>
	<node lat="61.9175935352282" lon="5.987905740361074" id="-85708">
		<tag k="name" v="Elvavegen" />
		<tag k="ssr:date" v="2019-12-27" />
		<tag k="ssr:gruppe" v="veg" />
		<tag k="ssr:hovedgruppe" v="infrastruktur" />
		<tag k="ssr:stedsnr" v="1053440" />
		<tag k="ssr:type" v="adressenavn" />
	</node>
	<node lat="61.91767981819547" lon="5.988980723398005" id="-85709">
		<tag k="name" v="Einevegen" />
		<tag k="ssr:date" v="2019-12-27" />
		<tag k="ssr:gruppe" v="veg" />
		<tag k="ssr:hovedgruppe" v="infrastruktur" />
		<tag k="ssr:stedsnr" v="1053443" />
		<tag k="ssr:type" v="adressenavn" />
	</node>
	<node lat="61.915860279544916" lon="5.976862696879708" id="-85710">
		<tag k="name" v="Fjellvegen" />
		<tag k="ssr:date" v="2019-12-27" />
		<tag k="ssr:gruppe" v="veg" />
		<tag k="ssr:hovedgruppe" v="infrastruktur" />
		<tag k="ssr:stedsnr" v="1053477" />
		<tag k="ssr:type" v="adressenavn" />
	</node>
	<node lat="61.9082126026041" lon="5.988250973891266" id="-85717">
		<tag k="name" v="Tverrgata" />
		<tag k="ssr:date" v="2019-12-27" />
		<tag k="ssr:gruppe" v="veg" />
		<tag k="ssr:hovedgruppe" v="infrastruktur" />
		<tag k="ssr:stedsnr" v="1053555" />
		<tag k="ssr:type" v="adressenavn" />
	</node>
	<node lat="61.90718035460976" lon="5.997531274172321" id="-85718">
		<tag k="name" v="Spangbergs veg" />
		<tag k="ssr:date" v="2019-12-27" />
		<tag k="ssr:gruppe" v="veg" />
		<tag k="ssr:hovedgruppe" v="infrastruktur" />
		<tag k="ssr:stedsnr" v="1053556" />
		<tag k="ssr:type" v="adressenavn" />
	</node>
	<node lat="61.90210708648567" lon="5.997510975134737" id="-85719">
		<tag k="name" v="Øyane" />
		<tag k="ssr:date" v="2019-12-27" />
		<tag k="ssr:gruppe" v="veg" />
		<tag k="ssr:hovedgruppe" v="infrastruktur" />
		<tag k="ssr:stedsnr" v="1053561" />
		<tag k="ssr:type" v="adressenavn" />
	</node>
	<node lat="61.917956101711376" lon="5.997504018342299" id="-85720">
		<tag k="name" v="Urene" />
		<tag k="ssr:date" v="2019-12-27" />
		<tag k="ssr:gruppe" v="veg" />
		<tag k="ssr:hovedgruppe" v="infrastruktur" />
		<tag k="ssr:stedsnr" v="1053564" />
		<tag k="ssr:type" v="adressenavn" />
	</node>
	<node lat="61.90525236967757" lon="5.995699403497204" id="-85721">
		<tag k="name" v="Øyebakken" />
		<tag k="ssr:date" v="2019-12-27" />
		<tag k="ssr:gruppe" v="veg" />
		<tag k="ssr:hovedgruppe" v="infrastruktur" />
		<tag k="ssr:stedsnr" v="1053569" />
		<tag k="ssr:type" v="adressenavn" />
	</node>
	<node lat="61.91255301074475" lon="5.985588483185941" id="-85724">
		<tag k="name" v="Sjukehusvegen" />
		<tag k="ssr:date" v="2019-12-27" />
		<tag k="ssr:gruppe" v="veg" />
		<tag k="ssr:hovedgruppe" v="infrastruktur" />
		<tag k="ssr:stedsnr" v="1053583" />
		<tag k="ssr:type" v="adressenavn" />
	</node>
	<node lat="61.90825267754724" lon="6.000799757818184" id="-85725">
		<tag k="name" v="Flata" />
		<tag k="ssr:date" v="2019-12-27" />
		<tag k="ssr:gruppe" v="veg" />
		<tag k="ssr:hovedgruppe" v="infrastruktur" />
		<tag k="ssr:stedsnr" v="1053496" />
		<tag k="ssr:type" v="adressenavn" />
	</node>
	<node lat="61.90539726309184" lon="5.989490548544515" id="-85726">
		<tag k="name" v="Hola" />
		<tag k="ssr:date" v="2019-12-27" />
		<tag k="ssr:gruppe" v="veg" />
		<tag k="ssr:hovedgruppe" v="infrastruktur" />
		<tag k="ssr:stedsnr" v="1053509" />
		<tag k="ssr:type" v="adressenavn" />
	</node>
	<node lat="61.907449845533826" lon="5.9894317921878555" id="-85727">
		<tag k="name" v="Gjerdevegen" />
		<tag k="ssr:date" v="2019-12-27" />
		<tag k="ssr:gruppe" v="veg" />
		<tag k="ssr:hovedgruppe" v="infrastruktur" />
		<tag k="ssr:stedsnr" v="1053521" />
		<tag k="ssr:type" v="adressenavn" />
	</node>
	<node lat="61.90523671332512" lon="5.989961736415569" id="-85728">
		<tag k="name" v="Alleen" />
		<tag k="ssr:date" v="2019-12-27" />
		<tag k="ssr:gruppe" v="veg" />
		<tag k="ssr:hovedgruppe" v="infrastruktur" />
		<tag k="ssr:stedsnr" v="1053524" />
		<tag k="ssr:type" v="adressenavn" />
	</node>
	<node lat="61.90682868739063" lon="5.992389514009605" id="-85729">
		<tag k="name" v="Bankgata" />
		<tag k="ssr:date" v="2019-12-27" />
		<tag k="ssr:gruppe" v="veg" />
		<tag k="ssr:hovedgruppe" v="infrastruktur" />
		<tag k="ssr:stedsnr" v="1053525" />
		<tag k="ssr:type" v="adressenavn" />
	</node>
	<node lat="61.90539180627613" lon="5.989955987080836" id="-85730">
		<tag k="name" v="Almenningen" />
		<tag k="ssr:date" v="2019-12-27" />
		<tag k="ssr:gruppe" v="veg" />
		<tag k="ssr:hovedgruppe" v="infrastruktur" />
		<tag k="ssr:stedsnr" v="1053526" />
		<tag k="ssr:type" v="adressenavn" />
	</node>
	<node lat="61.91107306285291" lon="5.99700239929272" id="-85731">
		<tag k="name" v="Bruhola" />
		<tag k="ssr:date" v="2019-12-27" />
		<tag k="ssr:gruppe" v="veg" />
		<tag k="ssr:hovedgruppe" v="infrastruktur" />
		<tag k="ssr:stedsnr" v="1053527" />
		<tag k="ssr:type" v="adressenavn" />
	</node>
	<node lat="61.90649998856657" lon="5.996109500157166" id="-85732">
		<tag k="name" v="Boalthmarka" />
		<tag k="ssr:date" v="2019-12-27" />
		<tag k="ssr:gruppe" v="veg" />
		<tag k="ssr:hovedgruppe" v="infrastruktur" />
		<tag k="ssr:stedsnr" v="1053530" />
		<tag k="ssr:type" v="adressenavn" />
	</node>
	<node lat="61.90587676350043" lon="5.990003814578852" id="-85733">
		<tag k="name" v="Eidsgata" />
		<tag k="ssr:date" v="2019-12-27" />
		<tag k="ssr:gruppe" v="veg" />
		<tag k="ssr:hovedgruppe" v="infrastruktur" />
		<tag k="ssr:stedsnr" v="1053532" />
		<tag k="ssr:type" v="adressenavn" />
	</node>
	<node lat="61.90802235601386" lon="5.997030637409489" id="-85734">
		<tag k="name" v="Øyanevegen" />
		<tag k="ssr:date" v="2019-12-27" />
		<tag k="ssr:gruppe" v="veg" />
		<tag k="ssr:hovedgruppe" v="infrastruktur" />
		<tag k="ssr:stedsnr" v="1053586" />
		<tag k="ssr:type" v="adressenavn" />
	</node>
	<node lat="61.90240382838828" lon="5.985867039802167" id="-85735">
		<tag k="name" v="Sjøgata" />
		<tag k="ssr:date" v="2019-12-27" />
		<tag k="ssr:gruppe" v="veg" />
		<tag k="ssr:hovedgruppe" v="infrastruktur" />
		<tag k="ssr:stedsnr" v="1053589" />
		<tag k="ssr:type" v="adressenavn" />
	</node>
	<node lat="61.91380649731816" lon="5.972355549709271" id="-85736">
		<tag k="name" v="Skårhaugstranda" />
		<tag k="ssr:date" v="2019-12-27" />
		<tag k="ssr:gruppe" v="veg" />
		<tag k="ssr:hovedgruppe" v="infrastruktur" />
		<tag k="ssr:stedsnr" v="1053593" />
		<tag k="ssr:type" v="adressenavn" />
	</node>
	<node lat="61.91077003580668" lon="5.999344607574978" id="-85737">
		<tag k="name" v="Skulevegen" />
		<tag k="ssr:date" v="2019-12-27" />
		<tag k="ssr:gruppe" v="veg" />
		<tag k="ssr:hovedgruppe" v="infrastruktur" />
		<tag k="ssr:stedsnr" v="1053595" />
		<tag k="ssr:type" v="adressenavn" />
	</node>
	<node lat="61.91720639367745" lon="5.987805902837565" id="-85738">
		<tag k="name" v="Smalebruvegen" />
		<tag k="ssr:date" v="2019-12-27" />
		<tag k="ssr:gruppe" v="veg" />
		<tag k="ssr:hovedgruppe" v="infrastruktur" />
		<tag k="ssr:stedsnr" v="1053598" />
		<tag k="ssr:type" v="adressenavn" />
	</node>
	<node lat="61.89939667621575" lon="5.982215696858105" id="-85739">
		<tag k="name" v="Osvegen" />
		<tag k="ssr:date" v="2019-12-27" />
		<tag k="ssr:gruppe" v="veg" />
		<tag k="ssr:hovedgruppe" v="infrastruktur" />
		<tag k="ssr:stedsnr" v="1053605" />
		<tag k="ssr:type" v="adressenavn" />
	</node>
	<node lat="61.91114075962515" lon="5.98614300250075" id="-85740">
		<tag k="name" v="Myklebustvegen" />
		<tag k="ssr:date" v="2019-12-27" />
		<tag k="ssr:gruppe" v="veg" />
		<tag k="ssr:hovedgruppe" v="infrastruktur" />
		<tag k="ssr:stedsnr" v="1053608" />
		<tag k="ssr:type" v="adressenavn" />
	</node>
	<node lat="61.9137020631273" lon="5.97677352124717" id="-85741">
		<tag k="name" v="Prestealleen" />
		<tag k="ssr:date" v="2019-12-27" />
		<tag k="ssr:gruppe" v="veg" />
		<tag k="ssr:hovedgruppe" v="infrastruktur" />
		<tag k="ssr:stedsnr" v="1053614" />
		<tag k="ssr:type" v="adressenavn" />
	</node>
	<node lat="61.90797614613736" lon="5.992660886269946" id="-85742">
		<tag k="name" v="Postvegen" />
		<tag k="ssr:date" v="2019-12-27" />
		<tag k="ssr:gruppe" v="veg" />
		<tag k="ssr:hovedgruppe" v="infrastruktur" />
		<tag k="ssr:stedsnr" v="1053617" />
		<tag k="ssr:type" v="adressenavn" />
	</node>
	<node lat="61.91712843320387" lon="5.987405302903617" id="-85743">
		<tag k="name" v="Repolvegen" />
		<tag k="ssr:date" v="2019-12-27" />
		<tag k="ssr:gruppe" v="veg" />
		<tag k="ssr:hovedgruppe" v="infrastruktur" />
		<tag k="ssr:stedsnr" v="1053618" />
		<tag k="ssr:type" v="adressenavn" />
	</node>
	<node lat="61.90562044578056" lon="5.993792339428685" id="-85744">
		<tag k="name" v="Sandplassen" />
		<tag k="ssr:date" v="2019-12-27" />
		<tag k="ssr:gruppe" v="veg" />
		<tag k="ssr:hovedgruppe" v="infrastruktur" />
		<tag k="ssr:stedsnr" v="1053629" />
		<tag k="ssr:type" v="adressenavn" />
	</node>
	<node lat="61.905483594010626" lon="5.992060041356016" id="-85745">
		<tag k="name" v="Rådhusvegen" />
		<tag k="ssr:date" v="2019-12-27" />
		<tag k="ssr:gruppe" v="veg" />
		<tag k="ssr:hovedgruppe" v="infrastruktur" />
		<tag k="ssr:stedsnr" v="1053631" />
		<tag k="ssr:type" v="adressenavn" />
	</node>
	<node lat="62.01436645231794" lon="5.493032413716105" id="-85775">
		<tag k="name" v="Skorgevegen" />
		<tag k="ssr:date" v="2020-02-13" />
		<tag k="ssr:gruppe" v="veg" />
		<tag k="ssr:hovedgruppe" v="infrastruktur" />
		<tag k="ssr:stedsnr" v="1075120" />
		<tag k="ssr:type" v="adressenavn" />
	</node>
	<node lat="62.10385748109831" lon="5.229921975239318" id="-85777">
		<tag k="name" v="Furestranda" />
		<tag k="ssr:date" v="2020-02-13" />
		<tag k="ssr:gruppe" v="veg" />
		<tag k="ssr:hovedgruppe" v="infrastruktur" />
		<tag k="ssr:stedsnr" v="1075121" />
		<tag k="ssr:type" v="adressenavn" />
	</node>
	<node lat="62.12387151848225" lon="5.302971335589673" id="-85781">
		<tag k="name" v="Øvre Stave" />
		<tag k="ssr:date" v="2020-02-13" />
		<tag k="ssr:gruppe" v="veg" />
		<tag k="ssr:hovedgruppe" v="infrastruktur" />
		<tag k="ssr:stedsnr" v="1075128" />
		<tag k="ssr:type" v="adressenavn" />
	</node>
	<node lat="61.95881255437788" lon="5.2083197352585575" id="-85782">
		<tag k="name" v="Seljevegen" />
		<tag k="ssr:date" v="2020-02-13" />
		<tag k="ssr:gruppe" v="veg" />
		<tag k="ssr:hovedgruppe" v="infrastruktur" />
		<tag k="ssr:stedsnr" v="1075132" />
		<tag k="ssr:type" v="adressenavn" />
	</node>
	<node lat="62.02176174590921" lon="5.347073747410051" id="-85784">
		<tag k="name" v="Salt" />
		<tag k="ssr:date" v="2020-02-13" />
		<tag k="ssr:gruppe" v="veg" />
		<tag k="ssr:hovedgruppe" v="infrastruktur" />
		<tag k="ssr:stedsnr" v="1075133" />
		<tag k="ssr:type" v="adressenavn" />
	</node>
	<node lat="62.04370315870561" lon="5.349593934509842" id="-85786">
		<tag k="name" v="Sandvikseidet" />
		<tag k="ssr:date" v="2020-02-20" />
		<tag k="ssr:gruppe" v="veg" />
		<tag k="ssr:hovedgruppe" v="infrastruktur" />
		<tag k="ssr:stedsnr" v="1075439" />
		<tag k="ssr:type" v="adressenavn" />
	</node>
	<node lat="62.00392770226486" lon="5.452063559198794" id="-85787">
		<tag k="name" v="Kjøde" />
		<tag k="ssr:date" v="2020-02-20" />
		<tag k="ssr:gruppe" v="veg" />
		<tag k="ssr:hovedgruppe" v="infrastruktur" />
		<tag k="ssr:stedsnr" v="1075440" />
		<tag k="ssr:type" v="adressenavn" />
	</node>
	<node lat="62.03434609551345" lon="5.398416041151519" id="-85788">
		<tag k="name" v="Nedre Berge" />
		<tag k="ssr:date" v="2020-02-20" />
		<tag k="ssr:gruppe" v="veg" />
		<tag k="ssr:hovedgruppe" v="infrastruktur" />
		<tag k="ssr:stedsnr" v="1075441" />
		<tag k="ssr:type" v="adressenavn" />
	</node>
	<node lat="62.05931680719453" lon="5.446952095335083" id="-85789">
		<tag k="name" v="Øvre Årsheim" />
		<tag k="ssr:date" v="2020-02-20" />
		<tag k="ssr:gruppe" v="veg" />
		<tag k="ssr:hovedgruppe" v="infrastruktur" />
		<tag k="ssr:stedsnr" v="1075442" />
		<tag k="ssr:type" v="adressenavn" />
	</node>
	<node lat="62.036423256749465" lon="5.389729110721303" id="-85790">
		<tag k="name" v="Øvre Berge" />
		<tag k="ssr:date" v="2020-02-20" />
		<tag k="ssr:gruppe" v="veg" />
		<tag k="ssr:hovedgruppe" v="infrastruktur" />
		<tag k="ssr:stedsnr" v="1075444" />
		<tag k="ssr:type" v="adressenavn" />
	</node>
	<node lat="61.974020614256126" lon="5.229774764387506" id="-85793">
		<tag k="name" v="Pernesvegen" />
		<tag k="ssr:date" v="2020-02-24" />
		<tag k="ssr:gruppe" v="veg" />
		<tag k="ssr:hovedgruppe" v="infrastruktur" />
		<tag k="ssr:stedsnr" v="1075517" />
		<tag k="ssr:type" v="adressenavn" />
	</node>
	<node lat="62.0930866375514" lon="5.377183425361856" id="-85796">
		<tag k="name" v="Fløde" />
		<tag k="ssr:date" v="2020-02-20" />
		<tag k="ssr:gruppe" v="veg" />
		<tag k="ssr:hovedgruppe" v="infrastruktur" />
		<tag k="ssr:stedsnr" v="1075446" />
		<tag k="ssr:type" v="adressenavn" />
	</node>
	<node lat="62.113975739873766" lon="5.325796421544612" id="-85798">
		<tag k="name" v="Øvrelidbakkane" />
		<tag k="ssr:date" v="2020-02-20" />
		<tag k="ssr:gruppe" v="veg" />
		<tag k="ssr:hovedgruppe" v="infrastruktur" />
		<tag k="ssr:stedsnr" v="1075451" />
		<tag k="ssr:type" v="adressenavn" />
	</node>
	<node lat="62.11271844612887" lon="5.330323963665948" id="-85803">
		<tag k="name" v="Myravegen" />
		<tag k="ssr:date" v="2020-02-20" />
		<tag k="ssr:gruppe" v="veg" />
		<tag k="ssr:hovedgruppe" v="infrastruktur" />
		<tag k="ssr:stedsnr" v="1075457" />
		<tag k="ssr:type" v="adressenavn" />
	</node>
	<node lat="62.11605805298612" lon="5.3206539703061075" id="-85806">
		<tag k="name" v="Leikanger" />
		<tag k="ssr:date" v="2020-02-20" />
		<tag k="ssr:gruppe" v="veg" />
		<tag k="ssr:hovedgruppe" v="infrastruktur" />
		<tag k="ssr:stedsnr" v="1075459" />
		<tag k="ssr:type" v="adressenavn" />
	</node>
	<node lat="62.1221728828463" lon="5.307587197968826" id="-85807">
		<tag k="name" v="Stavetunvegen" />
		<tag k="ssr:date" v="2020-02-20" />
		<tag k="ssr:gruppe" v="veg" />
		<tag k="ssr:hovedgruppe" v="infrastruktur" />
		<tag k="ssr:stedsnr" v="1075460" />
		<tag k="ssr:type" v="adressenavn" />
	</node>
	<node lat="61.99815478022354" lon="5.2985227466774365" id="-85808">
		<tag k="name" v="Røysetvegen" />
		<tag k="ssr:date" v="2020-02-20" />
		<tag k="ssr:gruppe" v="veg" />
		<tag k="ssr:hovedgruppe" v="infrastruktur" />
		<tag k="ssr:stedsnr" v="1075461" />
		<tag k="ssr:type" v="adressenavn" />
	</node>
	<node lat="61.99818994973699" lon="5.289954104137624" id="-85809">
		<tag k="name" v="Barmavegen" />
		<tag k="ssr:date" v="2020-02-20" />
		<tag k="ssr:gruppe" v="veg" />
		<tag k="ssr:hovedgruppe" v="infrastruktur" />
		<tag k="ssr:stedsnr" v="1075466" />
		<tag k="ssr:type" v="adressenavn" />
	</node>
	<node lat="61.97794015649925" lon="5.275829897964155" id="-85811">
		<tag k="name" v="Venøya" />
		<tag k="ssr:date" v="2020-02-20" />
		<tag k="ssr:gruppe" v="veg" />
		<tag k="ssr:hovedgruppe" v="infrastruktur" />
		<tag k="ssr:stedsnr" v="1075464" />
		<tag k="ssr:type" v="adressenavn" />
	</node>
	<node lat="62.04357056676219" lon="5.341639373488496" id="-85816">
		<tag k="name" v="Øvre Klokkarvika" />
		<tag k="ssr:date" v="2020-02-24" />
		<tag k="ssr:gruppe" v="veg" />
		<tag k="ssr:hovedgruppe" v="infrastruktur" />
		<tag k="ssr:stedsnr" v="1075530" />
		<tag k="ssr:type" v="adressenavn" />
	</node>
	<node lat="62.04010982728714" lon="5.355465098281868" id="-85818">
		<tag k="name" v="Reidavegen" />
		<tag k="ssr:date" v="2020-02-24" />
		<tag k="ssr:gruppe" v="veg" />
		<tag k="ssr:hovedgruppe" v="infrastruktur" />
		<tag k="ssr:stedsnr" v="1075536" />
		<tag k="ssr:type" v="adressenavn" />
	</node>
	<node lat="62.03904483830267" lon="5.358249874882307" id="-85822">
		<tag k="name" v="Hamre" />
		<tag k="ssr:date" v="2020-02-24" />
		<tag k="ssr:gruppe" v="veg" />
		<tag k="ssr:hovedgruppe" v="infrastruktur" />
		<tag k="ssr:stedsnr" v="1075543" />
		<tag k="ssr:type" v="adressenavn" />
	</node>
	<node lat="62.17258546388093" lon="5.165249960070302" id="-85823">
		<tag k="name" v="Årvikvegen" />
		<tag k="ssr:date" v="2020-02-24" />
		<tag k="ssr:gruppe" v="veg" />
		<tag k="ssr:hovedgruppe" v="infrastruktur" />
		<tag k="ssr:stedsnr" v="1075541" />
		<tag k="ssr:type" v="adressenavn" />
	</node>
	<node lat="61.97475091250146" lon="5.233581174996226" id="-85828">
		<tag k="name" v="Keilevegen" />
		<tag k="ssr:date" v="2020-02-24" />
		<tag k="ssr:gruppe" v="veg" />
		<tag k="ssr:hovedgruppe" v="infrastruktur" />
		<tag k="ssr:stedsnr" v="1075518" />
		<tag k="ssr:type" v="adressenavn" />
	</node>
</osm>
