<?xml version="1.0" encoding="UTF-8"?>
<osm version="0.6" generator="osmapis">
	<node lat="60.22253333492725" lon="9.1518638973065" id="-18422">
		<tag k="alt_name" v="Bjørneskarfjell" />
		<tag k="fixme" v="consider natural=peak for the most distinct mountains in the district" />
		<tag k="name" v="Bjørneskardsfjellet" />
		<tag k="natural" v="hill" />
		<tag k="place" v="locality" />
		<tag k="ssr:stedsnr" v="4905" />
	</node>
	<node lat="60.2188666691818" lon="9.137677774386944" id="-18425">
		<tag k="fixme" v="consider natural=peak for the most distinct mountains in the district" />
		<tag k="name" v="Myrsetåsen" />
		<tag k="natural" v="hill" />
		<tag k="place" v="locality" />
		<tag k="ssr:stedsnr" v="4913" />
	</node>
	<node lat="60.24819167106596" lon="8.149872222995393" id="-18427">
		<tag k="name" v="Breidhovd" />
		<tag k="natural" v="hill" />
		<tag k="place" v="locality" />
		<tag k="ssr:stedsnr" v="5514" />
	</node>
	<node lat="60.23781944431222" lon="8.638511102564259" id="-18430">
		<tag k="name" v="Sedalen" />
		<tag k="natural" v="valley" />
		<tag k="place" v="locality" />
		<tag k="ssr:stedsnr" v="5824" />
	</node>
	<node lat="60.37152222325342" lon="7.9723722257897744" id="-18431">
		<tag k="name" v="Syningen" />
		<tag k="natural" v="hill" />
		<tag k="place" v="locality" />
		<tag k="ssr:stedsnr" v="5766" />
	</node>
	<node lat="60.203811113156476" lon="9.077874997409818" id="-18433">
		<tag k="name" v="Langelihøgde" />
		<tag k="natural" v="hill" />
		<tag k="place" v="locality" />
		<tag k="ssr:stedsnr" v="5904" />
	</node>
	<node lat="60.27999444244982" lon="7.6648083373919" id="-18434">
		<tag k="fixme" v="consider natural=peak for the most distinct mountains in the district" />
		<tag k="name" v="Ribbehæ" />
		<tag k="natural" v="hill" />
		<tag k="place" v="locality" />
		<tag k="ssr:stedsnr" v="5965" />
	</node>
	<node lat="60.312602777171534" lon="9.085038880924182" id="-18442">
		<tag k="fixme" v="consider natural=peak for the most distinct mountains in the district" />
		<tag k="name" v="Kråkenatten" />
		<tag k="natural" v="hill" />
		<tag k="place" v="locality" />
		<tag k="ssr:stedsnr" v="6470" />
	</node>
	<node lat="60.50786111289915" lon="8.578297216608547" id="-18451">
		<tag k="fixme" v="consider natural=peak for the most distinct mountains in the district" />
		<tag k="name" v="Sundshovda" />
		<tag k="natural" v="hill" />
		<tag k="place" v="locality" />
		<tag k="ssr:stedsnr" v="7206" />
	</node>
	<node lat="60.43390833696804" lon="8.66476944766666" id="-18454">
		<tag k="alt_name" v="Aastveit" />
		<tag k="name" v="Åstveit" />
		<tag k="place" v="locality" />
		<tag k="ssr:stedsnr" v="234487" />
	</node>
	<node lat="60.227875001121745" lon="7.803474999202444" id="-18474">
		<tag k="fixme" v="consider natural=peak for the most distinct mountains in the district" />
		<tag k="name" v="Store Skrekken" />
		<tag k="natural" v="hill" />
		<tag k="place" v="locality" />
		<tag k="ssr:stedsnr" v="65640" />
	</node>
	<node lat="60.21873889102455" lon="7.813086102876648" id="-18475">
		<tag k="fixme" v="consider natural=peak for the most distinct mountains in the district" />
		<tag k="name" v="Vesle Skrekken" />
		<tag k="natural" v="hill" />
		<tag k="place" v="locality" />
		<tag k="ssr:stedsnr" v="65651" />
	</node>
	<node lat="60.11763611218554" lon="8.988316672527237" id="-18478">
		<tag k="alt_name" v="Eidsfjellet" />
		<tag k="fixme" v="consider natural=peak for the most distinct mountains in the district" />
		<tag k="name" v="Eidsfjell" />
		<tag k="natural" v="hill" />
		<tag k="place" v="locality" />
		<tag k="ssr:stedsnr" v="65539" />
	</node>
	<node lat="60.25327777558627" lon="8.946513886784391" id="-18491">
		<tag k="name" v="Skreidberget" />
		<tag k="natural" v="hill" />
		<tag k="place" v="locality" />
		<tag k="ssr:stedsnr" v="66302" />
	</node>
	<node lat="60.26171666875804" lon="8.411594444499842" id="-18495">
		<tag k="fixme" v="consider natural=peak for the most distinct mountains in the district" />
		<tag k="name" v="Gamleseternuten" />
		<tag k="natural" v="hill" />
		<tag k="place" v="locality" />
		<tag k="ssr:stedsnr" v="66049" />
	</node>
	<node lat="60.23876666261288" lon="7.676402779686069" id="-18496">
		<tag k="fixme" v="consider natural=peak for the most distinct mountains in the district" />
		<tag k="name" v="Nilsbunuten" />
		<tag k="natural" v="hill" />
		<tag k="place" v="locality" />
		<tag k="ssr:stedsnr" v="66261" />
	</node>
	<node lat="60.28906389056082" lon="8.396400008242287" id="-18504">
		<tag k="fixme" v="consider natural=peak for the most distinct mountains in the district" />
		<tag k="loc_name" v="Grythøvd" />
		<tag k="name" v="Grytehovde" />
		<tag k="natural" v="hill" />
		<tag k="old_name" v="Grythovd" />
		<tag k="place" v="locality" />
		<tag k="ssr:stedsnr" v="67005" />
	</node>
	<node lat="60.34125277392909" lon="9.087275002092843" id="-18506">
		<tag k="name" v="Skjerøkternatten" />
		<tag k="natural" v="hill" />
		<tag k="place" v="locality" />
		<tag k="ssr:stedsnr" v="67412" />
	</node>
	<node lat="60.360213889115236" lon="8.748958341016683" id="-18507">
		<tag k="fixme" v="consider natural=peak for the most distinct mountains in the district" />
		<tag k="name" v="Bjørnebergåsen" />
		<tag k="natural" v="hill" />
		<tag k="place" v="locality" />
		<tag k="ssr:stedsnr" v="67431" />
	</node>
	<node lat="60.42110277859976" lon="8.984049992373569" id="-18512">
		<tag k="name" v="Åsbrun" />
		<tag k="natural" v="ridge" />
		<tag k="old_name" v="Isbrunatten" />
		<tag k="place" v="locality" />
		<tag k="ssr:stedsnr" v="67350" />
	</node>
	<node lat="60.09894999981634" lon="7.487983339709965" id="-18518">
		<tag k="name" v="Hardangervidda" />
		<tag k="natural" v="plateau" />
		<tag k="ssr:stedsnr" v="85109" />
	</node>
	<node lat="60.17237499889159" lon="8.849675000921298" id="-18523">
		<tag k="fixme" v="consider natural=peak for the most distinct mountains in the district" />
		<tag k="name" v="Breidsethovda" />
		<tag k="natural" v="hill" />
		<tag k="place" v="locality" />
		<tag k="ssr:stedsnr" v="247549" />
	</node>
	<node lat="60.17256389092992" lon="7.97205000547117" id="-18524">
		<tag k="alt_name" v="Vestre Hettehove" />
		<tag k="fixme" v="consider natural=peak for the most distinct mountains in the district" />
		<tag k="name" v="Vestre Hettehovet" />
		<tag k="natural" v="hill" />
		<tag k="old_name" v="v Hettehove" />
		<tag k="place" v="locality" />
		<tag k="ssr:stedsnr" v="247553" />
	</node>
	<node lat="60.172130554741734" lon="9.083266667141977" id="-18527">
		<tag k="alt_name" v="Elgdalen" />
		<tag k="name" v="Elgsdalen" />
		<tag k="natural" v="valley" />
		<tag k="place" v="locality" />
		<tag k="ssr:stedsnr" v="247598" />
	</node>
	<node lat="60.237836106962355" lon="8.576969442368275" id="-18534">
		<tag k="fixme" v="consider natural=peak for the most distinct mountains in the district" />
		<tag k="name" v="Glopphovda" />
		<tag k="natural" v="hill" />
		<tag k="place" v="locality" />
		<tag k="ssr:stedsnr" v="247849" />
	</node>
	<node lat="60.225450003906666" lon="8.94888888614539" id="-18536">
		<tag k="name" v="Rosetnatten" />
		<tag k="natural" v="hill" />
		<tag k="place" v="locality" />
		<tag k="ssr:stedsnr" v="247878" />
	</node>
	<node lat="60.23226111479695" lon="8.878861110926815" id="-18539">
		<tag k="alt_name" v="Skjenhovdkulten" />
		<tag k="fixme" v="consider natural=peak for the most distinct mountains in the district" />
		<tag k="loc_name" v="Skjenhøvdkulten" />
		<tag k="name" v="Skinhovdkulten" />
		<tag k="natural" v="hill" />
		<tag k="place" v="locality" />
		<tag k="ssr:stedsnr" v="247991" />
	</node>
	<node lat="60.191361115513175" lon="9.048958330187594" id="-18542">
		<tag k="fixme" v="consider natural=peak for the most distinct mountains in the district" />
		<tag k="name" v="Lauvbuåsen" />
		<tag k="natural" v="hill" />
		<tag k="place" v="locality" />
		<tag k="ssr:stedsnr" v="247932" />
	</node>
	<node lat="60.24647499930637" lon="8.931288891335344" id="-18548">
		<tag k="name" v="Bjørnhaug" />
		<tag k="natural" v="hill" />
		<tag k="place" v="locality" />
		<tag k="ssr:stedsnr" v="100566" />
	</node>
	<node lat="60.08426944013812" lon="9.064869445097811" id="-18553">
		<tag k="name" v="Skardkås" />
		<tag k="natural" v="hill" />
		<tag k="place" v="locality" />
		<tag k="ssr:stedsnr" v="101003" />
	</node>
	<node lat="60.16874999948487" lon="8.486344448903607" id="-18560">
		<tag k="fixme" v="consider natural=peak for the most distinct mountains in the district" />
		<tag k="name" v="Salhovda" />
		<tag k="natural" v="hill" />
		<tag k="old_name" v="Sahovda" />
		<tag k="place" v="locality" />
		<tag k="ssr:stedsnr" v="102878" />
	</node>
	<node lat="60.34734999558393" lon="7.9052750004478805" id="-18563">
		<tag k="fixme" v="consider natural=peak for the most distinct mountains in the district" />
		<tag k="name" v="Selstjønnutan" />
		<tag k="natural" v="hill" />
		<tag k="place" v="locality" />
		<tag k="ssr:stedsnr" v="248827" />
	</node>
	<node lat="60.48970277472024" lon="8.634783341440377" id="-18568">
		<tag k="name" v="Knippen" />
		<tag k="natural" v="hill" />
		<tag k="place" v="locality" />
		<tag k="ssr:stedsnr" v="249038" />
	</node>
	<node lat="60.42410000429624" lon="8.709747218740167" id="-18573">
		<tag k="fixme" v="consider natural=peak for the most distinct mountains in the district" />
		<tag k="name" v="Turrhaugnatten" />
		<tag k="natural" v="hill" />
		<tag k="place" v="locality" />
		<tag k="ssr:stedsnr" v="249092" />
	</node>
	<node lat="60.35301666372598" lon="8.10271944888705" id="-18574">
		<tag k="fixme" v="consider natural=peak for the most distinct mountains in the district" />
		<tag k="name" v="Halstjønntind" />
		<tag k="natural" v="hill" />
		<tag k="place" v="locality" />
		<tag k="ssr:stedsnr" v="249178" />
	</node>
	<node lat="60.25618332894817" lon="8.966438891309233" id="-18577">
		<tag k="fixme" v="consider natural=peak for the most distinct mountains in the district" />
		<tag k="name" v="Geitåsen" />
		<tag k="natural" v="hill" />
		<tag k="place" v="locality" />
		<tag k="ssr:stedsnr" v="249292" />
	</node>
	<node lat="60.38047222121962" lon="9.057094444006008" id="-18580">
		<tag k="fixme" v="consider natural=peak for the most distinct mountains in the district" />
		<tag k="loc_name" v="Styggramflæe" />
		<tag k="name" v="Styggegramsfjellet" />
		<tag k="natural" v="hill" />
		<tag k="old_name" v="Styggegram-Fj." />
		<tag k="place" v="locality" />
		<tag k="ssr:stedsnr" v="249370" />
	</node>
	<node lat="60.32304166287425" lon="8.757463894333153" id="-18585">
		<tag k="alt_name" v="Granasetfjellet;Grånåsetfjell" />
		<tag k="fixme" v="consider natural=peak for the most distinct mountains in the district" />
		<tag k="name" v="Grånåsetfjellet" />
		<tag k="natural" v="hill" />
		<tag k="place" v="locality" />
		<tag k="ssr:stedsnr" v="249450" />
	</node>
	<node lat="60.31383333389037" lon="8.664749995813585" id="-18586">
		<tag k="name" v="Raudsjødalen" />
		<tag k="natural" v="valley" />
		<tag k="place" v="locality" />
		<tag k="ssr:stedsnr" v="249460" />
	</node>
	<node lat="60.34881388497001" lon="9.008280546800561" id="-18589">
		<tag k="alt_name" v="Austhaugen" />
		<tag k="name" v="Austhaugan" />
		<tag k="natural" v="hill" />
		<tag k="place" v="locality" />
		<tag k="ssr:stedsnr" v="249407" />
	</node>
	<node lat="60.32662500398398" lon="8.642011115274489" id="-18594">
		<tag k="alt_name" v="Hvilinghallnuten" />
		<tag k="fixme" v="consider natural=peak for the most distinct mountains in the district" />
		<tag k="name" v="Gvilingshallnuten" />
		<tag k="natural" v="hill" />
		<tag k="place" v="locality" />
		<tag k="ssr:stedsnr" v="249443" />
	</node>
	<node lat="60.23544167100383" lon="8.611269444743222" id="-18608">
		<tag k="alt_name" v="Tverrlihovd" />
		<tag k="name" v="Tverrlihovda" />
		<tag k="natural" v="hill" />
		<tag k="place" v="locality" />
		<tag k="ssr:stedsnr" v="126856" />
	</node>
	<node lat="60.19286944432592" lon="8.616927781385908" id="-18609">
		<tag k="fixme" v="consider natural=peak for the most distinct mountains in the district" />
		<tag k="name" v="Borgsjånutan" />
		<tag k="natural" v="hill" />
		<tag k="place" v="locality" />
		<tag k="ssr:stedsnr" v="126860" />
	</node>
	<node lat="60.27347777667088" lon="8.26019443857398" id="-18613">
		<tag k="fixme" v="consider natural=peak for the most distinct mountains in the district" />
		<tag k="name" v="Bollatjønnuten" />
		<tag k="natural" v="hill" />
		<tag k="place" v="locality" />
		<tag k="ssr:stedsnr" v="127060" />
	</node>
	<node lat="60.27188055415567" lon="8.96790276912477" id="-18619">
		<tag k="name" v="Rånatten" />
		<tag k="natural" v="hill" />
		<tag k="place" v="locality" />
		<tag k="ssr:stedsnr" v="127307" />
	</node>
	<node lat="60.3049555577341" lon="8.933880563977132" id="-18631">
		<tag k="name" v="Stornatten" />
		<tag k="natural" v="hill" />
		<tag k="place" v="locality" />
		<tag k="ssr:stedsnr" v="127511" />
	</node>
	<node lat="60.30845833716913" lon="8.638563879907764" id="-18642">
		<tag k="fixme" v="consider natural=peak for the most distinct mountains in the district" />
		<tag k="name" v="Røyslandshøgde" />
		<tag k="natural" v="hill" />
		<tag k="place" v="locality" />
		<tag k="ssr:stedsnr" v="161899" />
	</node>
	<node lat="60.13886944699163" lon="9.000377774251875" id="-18643">
		<tag k="name" v="Storåsen" />
		<tag k="natural" v="ridge" />
		<tag k="place" v="locality" />
		<tag k="ssr:stedsnr" v="163024" />
	</node>
	<node lat="60.22416388713925" lon="7.92026943551171" id="-18655">
		<tag k="name" v="Geitvassdalen" />
		<tag k="natural" v="valley" />
		<tag k="place" v="locality" />
		<tag k="ssr:stedsnr" v="186692" />
	</node>
	<node lat="60.37607500204176" lon="7.815097228182454" id="-18668">
		<tag k="fixme" v="consider natural=peak for the most distinct mountains in the district" />
		<tag k="name" v="Melrakkhovda" />
		<tag k="natural" v="hill" />
		<tag k="place" v="locality" />
		<tag k="ssr:stedsnr" v="187772" />
	</node>
	<node lat="60.20315277718077" lon="9.118786113085005" id="-18669">
		<tag k="name" v="Hektemogen" />
		<tag k="natural" v="valley" />
		<tag k="place" v="locality" />
		<tag k="ssr:stedsnr" v="187903" />
	</node>
	<node lat="60.29058333528739" lon="8.356650006755814" id="-18673">
		<tag k="name" v="Veneli" />
		<tag k="natural" v="slope" />
		<tag k="place" v="locality" />
		<tag k="ssr:stedsnr" v="188010" />
	</node>
	<node lat="60.27025833550161" lon="7.705286109605112" id="-18679">
		<tag k="fixme" v="consider natural=peak for the most distinct mountains in the district" />
		<tag k="name" v="Napparrjoet" />
		<tag k="natural" v="hill" />
		<tag k="place" v="locality" />
		<tag k="ssr:stedsnr" v="187977" />
	</node>
	<node lat="60.39435000219735" lon="8.76664999307561" id="-18690">
		<tag k="alt_name" v="Vaggehøvda" />
		<tag k="name" v="Vaggehovda" />
		<tag k="natural" v="hill" />
		<tag k="place" v="locality" />
		<tag k="ssr:stedsnr" v="188427" />
	</node>
	<node lat="60.32078333557051" lon="9.002208327840636" id="-18695">
		<tag k="alt_name" v="Rykfosshaugen" />
		<tag k="loc_name" v="Rykkføsshaugan" />
		<tag k="name" v="Rykfosshaugan" />
		<tag k="natural" v="hill" />
		<tag k="place" v="locality" />
		<tag k="ssr:stedsnr" v="188480" />
	</node>
	<node lat="60.281613890776164" lon="8.833225008737822" id="-18699">
		<tag k="name" v="Baklie" />
		<tag k="natural" v="slope" />
		<tag k="place" v="locality" />
		<tag k="ssr:stedsnr" v="188511" />
	</node>
	<node lat="60.258361110864776" lon="7.696249998518517" id="-18705">
		<tag k="name" v="Midtstrandsdalen" />
		<tag k="natural" v="valley" />
		<tag k="place" v="locality" />
		<tag k="ssr:stedsnr" v="188986" />
	</node>
	<node lat="60.23970000383158" lon="8.254450005709385" id="-18722">
		<tag k="name" v="Synhovd" />
		<tag k="natural" v="hill" />
		<tag k="place" v="locality" />
		<tag k="ssr:stedsnr" v="247513" />
	</node>
	<node lat="60.24339444257752" lon="8.649249992828333" id="-18728">
		<tag k="alt_name" v="Sedalshøgda" />
		<tag k="fixme" v="consider natural=peak for the most distinct mountains in the district" />
		<tag k="name" v="Sedalshovda" />
		<tag k="natural" v="hill" />
		<tag k="place" v="locality" />
		<tag k="ssr:stedsnr" v="247813" />
	</node>
	<node lat="60.403158336706014" lon="8.574761113246623" id="-18734">
		<tag k="alt_name" v="Rudaåsen" />
		<tag k="fixme" v="consider natural=peak for the most distinct mountains in the district" />
		<tag k="name" v="Ruaåsen" />
		<tag k="natural" v="hill" />
		<tag k="place" v="locality" />
		<tag k="ssr:stedsnr" v="248351" />
	</node>
	<node lat="60.368361112944775" lon="8.976666662071493" id="-18735">
		<tag k="alt_name" v="Ryggfjell" />
		<tag k="fixme" v="consider natural=peak for the most distinct mountains in the district" />
		<tag k="name" v="Ryggfjellet" />
		<tag k="natural" v="hill" />
		<tag k="place" v="locality" />
		<tag k="ssr:stedsnr" v="248358" />
	</node>
	<node lat="60.29817500212329" lon="9.087680552079291" id="-18738">
		<tag k="name" v="Gauknatten" />
		<tag k="natural" v="hill" />
		<tag k="place" v="locality" />
		<tag k="ssr:stedsnr" v="248472" />
	</node>
	<node lat="60.33364999854604" lon="7.8876250068402" id="-18739">
		<tag k="name" v="Midtselstjønndalen" />
		<tag k="natural" v="valley" />
		<tag k="place" v="locality" />
		<tag k="ssr:stedsnr" v="248819" />
	</node>
	<node lat="60.25186666563389" lon="8.551277776883637" id="-18741">
		<tag k="name" v="Ræpeholberget" />
		<tag k="natural" v="hill" />
		<tag k="place" v="locality" />
		<tag k="ssr:stedsnr" v="249245" />
	</node>
	<node lat="60.18198611465896" lon="8.988283330918996" id="-18767">
		<tag k="fixme" v="consider natural=peak for the most distinct mountains in the district" />
		<tag k="name" v="Tjuvenatten" />
		<tag k="natural" v="hill" />
		<tag k="place" v="locality" />
		<tag k="ssr:stedsnr" v="302698" />
	</node>
	<node lat="60.25989444642971" lon="8.94528333430464" id="-18771">
		<tag k="name" v="Ørneberget" />
		<tag k="natural" v="cliff" />
		<tag k="ssr:stedsnr" v="464589" />
	</node>
	<node lat="60.245287576111714" lon="8.969789773474657" id="-18772">
		<tag k="fixme" v="consider natural=peak for the most distinct mountains in the district" />
		<tag k="name" v="Nonsåsen" />
		<tag k="natural" v="hill" />
		<tag k="place" v="locality" />
		<tag k="ssr:stedsnr" v="464590" />
	</node>
	<node lat="60.19177499735784" lon="8.04224999442681" id="-18779">
		<tag k="fixme" v="consider natural=peak for the most distinct mountains in the district" />
		<tag k="name" v="Falkenuten" />
		<tag k="natural" v="hill" />
		<tag k="place" v="locality" />
		<tag k="ssr:stedsnr" v="307600" />
	</node>
	<node lat="60.21230473559589" lon="9.108646947766106" id="-18783">
		<tag k="fixme" v="consider natural=peak for the most distinct mountains in the district" />
		<tag k="name" v="Almeliåsen" />
		<tag k="natural" v="hill" />
		<tag k="place" v="locality" />
		<tag k="ssr:stedsnr" v="465631" />
	</node>
	<node lat="60.09515278080758" lon="9.008911109218987" id="-18786">
		<tag k="name" v="Smylinatten" />
		<tag k="natural" v="hill" />
		<tag k="place" v="locality" />
		<tag k="ssr:stedsnr" v="308500" />
	</node>
	<node lat="60.34262500204093" lon="8.991025006055235" id="-18799">
		<tag k="alt_name" v="Bjørstølfjell" />
		<tag k="fixme" v="consider natural=peak for the most distinct mountains in the district" />
		<tag k="loc_name" v="Bjorstulfjellet" />
		<tag k="name" v="Bjørstølfjellet" />
		<tag k="natural" v="hill" />
		<tag k="place" v="locality" />
		<tag k="ssr:stedsnr" v="309432" />
	</node>
	<node lat="60.32846944427153" lon="9.052277774049537" id="-18805">
		<tag k="name" v="Bruhaugen" />
		<tag k="natural" v="hill" />
		<tag k="place" v="locality" />
		<tag k="ssr:stedsnr" v="309449" />
	</node>
	<node lat="60.317005555918875" lon="9.040149995522397" id="-18814">
		<tag k="name" v="Endreskard" />
		<tag k="natural" v="valley" />
		<tag k="place" v="locality" />
		<tag k="ssr:stedsnr" v="309472" />
	</node>
	<node lat="60.371150003681485" lon="7.90759999160146" id="-18818">
		<tag k="fixme" v="consider natural=peak for the most distinct mountains in the district" />
		<tag k="name" v="Heinbunuten" />
		<tag k="natural" v="hill" />
		<tag k="place" v="locality" />
		<tag k="ssr:stedsnr" v="309782" />
	</node>
	<node lat="60.37947499913118" lon="7.972624998726253" id="-18819">
		<tag k="fixme" v="consider natural=peak for the most distinct mountains in the district" />
		<tag k="name" v="Grasnuten" />
		<tag k="natural" v="hill" />
		<tag k="place" v="locality" />
		<tag k="ssr:stedsnr" v="309791" />
	</node>
	<node lat="60.29451111516098" lon="8.158305553960407" id="-18821">
		<tag k="fixme" v="consider natural=peak for the most distinct mountains in the district" />
		<tag k="name" v="Ulvelinuten" />
		<tag k="natural" v="hill" />
		<tag k="place" v="locality" />
		<tag k="ssr:stedsnr" v="310012" />
	</node>
	<node lat="60.326055555448505" lon="8.386841658449669" id="-18828">
		<tag k="fixme" v="consider natural=peak for the most distinct mountains in the district" />
		<tag k="name" v="Falkeberget" />
		<tag k="natural" v="hill" />
		<tag k="place" v="locality" />
		<tag k="ssr:stedsnr" v="323024" />
	</node>
	<node lat="60.19780000202227" lon="9.00977500263154" id="-18834">
		<tag k="name" v="Rundberg" />
		<tag k="place" v="locality" />
		<tag k="ssr:stedsnr" v="360302" />
	</node>
	<node lat="60.114727780605755" lon="9.115283335658614" id="-18839">
		<tag k="fixme" v="consider natural=peak for the most distinct mountains in the district" />
		<tag k="name" v="Piggtjønnåsen" />
		<tag k="natural" v="hill" />
		<tag k="place" v="locality" />
		<tag k="ssr:stedsnr" v="368578" />
	</node>
	<node lat="60.20083610743338" lon="7.731849991548986" id="-18842">
		<tag k="fixme" v="consider natural=peak for the most distinct mountains in the district" />
		<tag k="name" v="Torjusnuten" />
		<tag k="natural" v="hill" />
		<tag k="place" v="locality" />
		<tag k="ssr:stedsnr" v="368627" />
	</node>
	<node lat="60.36938610674963" lon="8.330275000363105" id="-18844">
		<tag k="name" v="Sessebråten" />
		<tag k="natural" v="hill" />
		<tag k="place" v="locality" />
		<tag k="ssr:stedsnr" v="369180" />
	</node>
	<node lat="60.27749999627289" lon="7.977897215481944" id="-18848">
		<tag k="fixme" v="consider natural=peak for the most distinct mountains in the district" />
		<tag k="name" v="Dagfiskenutan" />
		<tag k="natural" v="hill" />
		<tag k="place" v="locality" />
		<tag k="ssr:stedsnr" v="369764" />
	</node>
	<node lat="60.28381111553063" lon="8.41264445035282" id="-18850">
		<tag k="fixme" v="consider natural=peak for the most distinct mountains in the district" />
		<tag k="name" v="Salhovde" />
		<tag k="natural" v="hill" />
		<tag k="place" v="locality" />
		<tag k="ssr:stedsnr" v="370001" />
	</node>
	<node lat="60.29150832921126" lon="8.385588889443314" id="-18853">
		<tag k="fixme" v="consider natural=peak for the most distinct mountains in the district" />
		<tag k="loc_name" v="Snofonnskardkultan" />
		<tag k="name" v="Snøfonnskardnutan" />
		<tag k="natural" v="hill" />
		<tag k="place" v="locality" />
		<tag k="ssr:stedsnr" v="370010" />
	</node>
	<node lat="60.28826388585461" lon="8.272808342229476" id="-18855">
		<tag k="name" v="Hestehallene" />
		<tag k="natural" v="valley" />
		<tag k="place" v="locality" />
		<tag k="ssr:stedsnr" v="370019" />
	</node>
	<node lat="60.249836107002935" lon="8.346013886281627" id="-18860">
		<tag k="name" v="Tyrhovdnuten" />
		<tag k="natural" v="hill" />
		<tag k="place" v="locality" />
		<tag k="ssr:stedsnr" v="370052" />
	</node>
	<node lat="60.25268888801703" lon="8.114788882765533" id="-18862">
		<tag k="fixme" v="consider natural=peak for the most distinct mountains in the district" />
		<tag k="name" v="Skrykkjevarden" />
		<tag k="natural" v="hill" />
		<tag k="place" v="locality" />
		<tag k="ssr:stedsnr" v="370070" />
	</node>
	<node lat="60.27603333176426" lon="8.39817499489467" id="-18863">
		<tag k="fixme" v="consider natural=peak for the most distinct mountains in the district" />
		<tag k="loc_name" v="Skjennuten" />
		<tag k="name" v="Skinnuten" />
		<tag k="natural" v="hill" />
		<tag k="place" v="locality" />
		<tag k="ssr:stedsnr" v="370071" />
	</node>
	<node lat="60.33055848857529" lon="8.212107722305921" id="-18877">
		<tag k="fixme" v="consider natural=peak for the most distinct mountains in the district" />
		<tag k="name" v="Ræpeholåsen" />
		<tag k="natural" v="hill" />
		<tag k="place" v="locality" />
		<tag k="ssr:stedsnr" v="370291" />
	</node>
	<node lat="60.3768749981545" lon="9.112083333274283" id="-18879">
		<tag k="name" v="Langelie" />
		<tag k="natural" v="slope" />
		<tag k="place" v="locality" />
		<tag k="ssr:stedsnr" v="370420" />
	</node>
	<node lat="60.273761109608266" lon="8.617861117909698" id="-18886">
		<tag k="alt_name" v="Tandbergberget" />
		<tag k="loc_name" v="Tønnbergsberget" />
		<tag k="name" v="Tonnbergsberget" />
		<tag k="natural" v="hill" />
		<tag k="place" v="locality" />
		<tag k="ssr:stedsnr" v="370514" />
	</node>
	<node lat="60.142213892958345" lon="8.957991659061992" id="-18888">
		<tag k="alt_name" v="Skirvdalen" />
		<tag k="name" v="Skriudalen" />
		<tag k="natural" v="valley" />
		<tag k="place" v="locality" />
		<tag k="ssr:stedsnr" v="378777" />
	</node>
	<node lat="60.181949995659046" lon="8.72293611137658" id="-18899">
		<tag k="fixme" v="consider natural=peak for the most distinct mountains in the district" />
		<tag k="name" v="Gråvårantan" />
		<tag k="natural" v="hill" />
		<tag k="place" v="locality" />
		<tag k="ssr:stedsnr" v="392298" />
	</node>
	<node lat="60.19418889195289" lon="9.071377774805102" id="-18905">
		<tag k="fixme" v="consider natural=peak for the most distinct mountains in the district" />
		<tag k="name" v="Stevnemyråsen" />
		<tag k="natural" v="hill" />
		<tag k="place" v="locality" />
		<tag k="ssr:stedsnr" v="404124" />
	</node>
	<node lat="60.245783336328884" lon="8.987355552186507" id="-18908">
		<tag k="name" v="Gampedalen" />
		<tag k="natural" v="valley" />
		<tag k="place" v="locality" />
		<tag k="ssr:stedsnr" v="404579" />
	</node>
	<node lat="60.17308888923918" lon="7.751849998025379" id="-18911">
		<tag k="fixme" v="consider natural=peak for the most distinct mountains in the district" />
		<tag k="name" v="Nottaren" />
		<tag k="natural" v="hill" />
		<tag k="place" v="locality" />
		<tag k="ssr:stedsnr" v="489612" />
	</node>
	<node lat="60.1531749986712" lon="8.847688881156168" id="-18916">
		<tag k="alt_name" v="Store Synhovd" />
		<tag k="fixme" v="consider natural=peak for the most distinct mountains in the district" />
		<tag k="loc_name" v="Storesynhovd" />
		<tag k="name" v="Store Synhovda" />
		<tag k="natural" v="hill" />
		<tag k="place" v="locality" />
		<tag k="ssr:stedsnr" v="421604" />
	</node>
	<node lat="60.2229694426523" lon="8.341074999780519" id="-18924">
		<tag k="fixme" v="consider natural=peak for the most distinct mountains in the district" />
		<tag k="name" v="Søre Afdalsnuten" />
		<tag k="natural" v="hill" />
		<tag k="place" v="locality" />
		<tag k="ssr:stedsnr" v="489955" />
	</node>
	<node lat="60.244266662476925" lon="7.6100833285752" id="-18926">
		<tag k="fixme" v="consider natural=peak for the most distinct mountains in the district" />
		<tag k="name" v="Kleivshovd" />
		<tag k="natural" v="hill" />
		<tag k="place" v="locality" />
		<tag k="ssr:stedsnr" v="490256" />
	</node>
	<node lat="60.116002780518265" lon="7.764549998513276" id="-18930">
		<tag k="fixme" v="consider natural=peak for the most distinct mountains in the district" />
		<tag k="name" v="Sørtjønnhovda" />
		<tag k="natural" v="hill" />
		<tag k="place" v="locality" />
		<tag k="ssr:stedsnr" v="490548" />
	</node>
	<node lat="60.0733916648407" lon="9.092113891287944" id="-18933">
		<tag k="fixme" v="consider natural=peak for the most distinct mountains in the district" />
		<tag k="name" v="Skavlemåsen" />
		<tag k="natural" v="hill" />
		<tag k="place" v="locality" />
		<tag k="ssr:stedsnr" v="490701" />
	</node>
	<node lat="60.154150000898106" lon="7.823291670962868" id="-18938">
		<tag k="fixme" v="consider natural=peak for the most distinct mountains in the district" />
		<tag k="name" v="Vegarhovda" />
		<tag k="natural" v="hill" />
		<tag k="place" v="locality" />
		<tag k="ssr:stedsnr" v="429554" />
	</node>
	<node lat="60.18170555749963" lon="8.925780563954854" id="-18941">
		<tag k="fixme" v="consider natural=peak for the most distinct mountains in the district" />
		<tag k="name" v="Krosstjønnhovdun" />
		<tag k="natural" v="hill" />
		<tag k="place" v="locality" />
		<tag k="ssr:stedsnr" v="429566" />
	</node>
	<node lat="60.17302063264961" lon="8.99244811878802" id="-18945">
		<tag k="fixme" v="consider natural=peak for the most distinct mountains in the district" />
		<tag k="name" v="Noreåsen" />
		<tag k="natural" v="hill" />
		<tag k="old_name" v="Nordåsen" />
		<tag k="place" v="locality" />
		<tag k="ssr:stedsnr" v="429596" />
	</node>
	<node lat="60.2116277764293" lon="8.312233330250553" id="-18953">
		<tag k="fixme" v="consider natural=peak for the most distinct mountains in the district" />
		<tag k="name" v="Nordre Afdalsnuten" />
		<tag k="natural" v="hill" />
		<tag k="place" v="locality" />
		<tag k="ssr:stedsnr" v="429952" />
	</node>
	<node lat="60.19903055229233" lon="8.372255558202996" id="-18955">
		<tag k="name" v="Nutenuten" />
		<tag k="natural" v="hill" />
		<tag k="place" v="locality" />
		<tag k="ssr:stedsnr" v="429961" />
	</node>
	<node lat="60.204186107962144" lon="8.41790833375587" id="-18956">
		<tag k="name" v="Nuteflott" />
		<tag k="natural" v="hill" />
		<tag k="place" v="locality" />
		<tag k="ssr:stedsnr" v="429963" />
	</node>
	<node lat="60.27674721890389" lon="8.429133340657483" id="-18961">
		<tag k="fixme" v="consider natural=peak for the most distinct mountains in the district" />
		<tag k="name" v="Vardehovde" />
		<tag k="natural" v="hill" />
		<tag k="old_name" v="Vardehovd" />
		<tag k="place" v="locality" />
		<tag k="ssr:stedsnr" v="491060" />
	</node>
	<node lat="60.179299998917315" lon="8.492977782769437" id="-18963">
		<tag k="loc_name" v="Knutsfisknuten" />
		<tag k="name" v="Knutfiskenuten" />
		<tag k="natural" v="hill" />
		<tag k="place" v="locality" />
		<tag k="ssr:stedsnr" v="430853" />
	</node>
	<node lat="60.31509444516682" lon="7.688758338646087" id="-18964">
		<tag k="fixme" v="consider natural=peak for the most distinct mountains in the district" />
		<tag k="name" v="Nibbenuten" />
		<tag k="natural" v="hill" />
		<tag k="place" v="locality" />
		<tag k="ssr:stedsnr" v="430896" />
	</node>
	<node lat="60.25537222173849" lon="8.266166665637082" id="-18969">
		<tag k="fixme" v="consider natural=peak for the most distinct mountains in the district" />
		<tag k="name" v="Falkenuten" />
		<tag k="natural" v="hill" />
		<tag k="place" v="locality" />
		<tag k="ssr:stedsnr" v="431053" />
	</node>
	<node lat="60.355538892008354" lon="8.10915556369871" id="-18970">
		<tag k="fixme" v="consider natural=peak for the most distinct mountains in the district" />
		<tag k="name" v="Låglitunga" />
		<tag k="natural" v="hill" />
		<tag k="place" v="locality" />
		<tag k="ssr:stedsnr" v="431218" />
	</node>
	<node lat="60.36598611316161" lon="8.905330553365154" id="-18976">
		<tag k="fixme" v="consider natural=peak for the most distinct mountains in the district" />
		<tag k="name" v="Natten" />
		<tag k="natural" v="hill" />
		<tag k="place" v="locality" />
		<tag k="ssr:stedsnr" v="431398" />
	</node>
	<node lat="60.27676666745589" lon="8.523600002253694" id="-18977">
		<tag k="fixme" v="consider natural=peak for the most distinct mountains in the district" />
		<tag k="name" v="Nordnuten" />
		<tag k="natural" v="hill" />
		<tag k="place" v="locality" />
		<tag k="ssr:stedsnr" v="431510" />
	</node>
	<node lat="60.39886388646709" lon="8.49895278494758" id="-18983">
		<tag k="fixme" v="consider natural=peak for the most distinct mountains in the district" />
		<tag k="name" v="Tallåsen" />
		<tag k="natural" v="hill" />
		<tag k="place" v="locality" />
		<tag k="ssr:stedsnr" v="431407" />
	</node>
	<node lat="60.335199999063796" lon="8.487077774808688" id="-18987">
		<tag k="fixme" v="consider natural=peak for the most distinct mountains in the district" />
		<tag k="name" v="Djupegrønuten" />
		<tag k="natural" v="hill" />
		<tag k="place" v="locality" />
		<tag k="ssr:stedsnr" v="431445" />
	</node>
	<node lat="60.3217504810833" lon="8.574333337019377" id="-18988">
		<tag k="fixme" v="consider natural=peak for the most distinct mountains in the district" />
		<tag k="name" v="Kringlehovda" />
		<tag k="natural" v="hill" />
		<tag k="place" v="locality" />
		<tag k="ssr:stedsnr" v="431450" />
	</node>
	<node lat="60.3195000026001" lon="9.103274991060223" id="-18991">
		<tag k="fixme" v="consider natural=peak for the most distinct mountains in the district" />
		<tag k="name" v="Stornatten" />
		<tag k="natural" v="hill" />
		<tag k="place" v="locality" />
		<tag k="ssr:stedsnr" v="431454" />
	</node>
	<node lat="60.30486388672167" lon="9.11867499711989" id="-18994">
		<tag k="fixme" v="consider natural=peak for the most distinct mountains in the district" />
		<tag k="name" v="Slokuåsen" />
		<tag k="natural" v="hill" />
		<tag k="place" v="locality" />
		<tag k="ssr:stedsnr" v="431491" />
	</node>
	<node lat="60.288302776918194" lon="8.533016667829317" id="-18995">
		<tag k="name" v="Uvdal" />
		<tag k="natural" v="valley" />
		<tag k="place" v="locality" />
		<tag k="ssr:stedsnr" v="431500" />
	</node>
	<node lat="60.27707777523759" lon="9.135561104759145" id="-18998">
		<tag k="fixme" v="consider natural=peak for the most distinct mountains in the district" />
		<tag k="name" v="Haugefjellet" />
		<tag k="natural" v="hill" />
		<tag k="place" v="locality" />
		<tag k="ssr:stedsnr" v="491264" />
	</node>
	<node lat="60.366199996577876" lon="8.738822230807392" id="-19001">
		<tag k="alt_name" v="Veåsen" />
		<tag k="fixme" v="consider natural=peak for the most distinct mountains in the district" />
		<tag k="name" v="Vedåsen" />
		<tag k="natural" v="hill" />
		<tag k="place" v="locality" />
		<tag k="ssr:stedsnr" v="491424" />
	</node>
	<node lat="60.32860833230144" lon="8.848813880866839" id="-19002">
		<tag k="name" v="Skållie" />
		<tag k="natural" v="slope" />
		<tag k="place" v="locality" />
		<tag k="ssr:stedsnr" v="491432" />
	</node>
	<node lat="60.29216944813741" lon="8.695522227070292" id="-19006">
		<tag k="fixme" v="consider natural=peak for the most distinct mountains in the district" />
		<tag k="name" v="Høghovda" />
		<tag k="natural" v="hill" />
		<tag k="place" v="locality" />
		<tag k="ssr:stedsnr" v="491473" />
	</node>
	<node lat="60.2785249970703" lon="7.753724995760094" id="-19009">
		<tag k="name" v="Tormodfloti" />
		<tag k="natural" v="hill" />
		<tag k="place" v="locality" />
		<tag k="ssr:stedsnr" v="491741" />
	</node>
	<node lat="60.27123889166992" lon="8.997180555270894" id="-19013">
		<tag k="alt_name" v="Åsen" />
		<tag k="fixme" v="consider natural=peak for the most distinct mountains in the district" />
		<tag k="name" v="Lykkjeåsen" />
		<tag k="natural" v="hill" />
		<tag k="place" v="locality" />
		<tag k="ssr:stedsnr" v="492252" />
	</node>
	<node lat="60.236205552165835" lon="9.09504999969412" id="-19030">
		<tag k="name" v="Kolbjørnsdalen" />
		<tag k="natural" v="valley" />
		<tag k="place" v="locality" />
		<tag k="ssr:stedsnr" v="671987" />
	</node>
	<node lat="60.13433561596622" lon="8.977020019232677" id="-19038">
		<tag k="fixme" v="consider natural=peak for the most distinct mountains in the district" />
		<tag k="name" v="Heggjesetnatten" />
		<tag k="natural" v="hill" />
		<tag k="place" v="locality" />
		<tag k="ssr:stedsnr" v="672472" />
	</node>
	<node lat="60.16326388801723" lon="8.944327783558506" id="-19042">
		<tag k="name" v="Gamlestulnatten" />
		<tag k="natural" v="hill" />
		<tag k="place" v="locality" />
		<tag k="ssr:stedsnr" v="672587" />
	</node>
	<node lat="60.16962777985342" lon="9.094077776403934" id="-19043">
		<tag k="alt_name" v="Elgsdalsåsen" />
		<tag k="fixme" v="consider natural=peak for the most distinct mountains in the district" />
		<tag k="name" v="Elgdalsåsen" />
		<tag k="natural" v="hill" />
		<tag k="place" v="locality" />
		<tag k="ssr:stedsnr" v="672595" />
	</node>
	<node lat="60.20985555175173" lon="7.667030559045682" id="-19044">
		<tag k="fixme" v="consider natural=peak for the most distinct mountains in the district" />
		<tag k="name" v="Veisenuten" />
		<tag k="natural" v="hill" />
		<tag k="place" v="locality" />
		<tag k="ssr:stedsnr" v="672691" />
	</node>
	<node lat="60.13450833562308" lon="7.617705551242503" id="-19045">
		<tag k="name" v="Langebuflatin" />
		<tag k="place" v="locality" />
		<tag k="ssr:stedsnr" v="672714" />
	</node>
	<node lat="60.23121667079496" lon="8.600630557259954" id="-19049">
		<tag k="alt_name" v="Sønstevasshovd" />
		<tag k="fixme" v="consider natural=peak for the most distinct mountains in the district" />
		<tag k="name" v="Sønstevasshovda" />
		<tag k="natural" v="hill" />
		<tag k="place" v="locality" />
		<tag k="ssr:stedsnr" v="672852" />
	</node>
	<node lat="60.25516111148459" lon="8.29173888962482" id="-19064">
		<tag k="fixme" v="consider natural=peak for the most distinct mountains in the district" />
		<tag k="name" v="Langetjønnfjellet" />
		<tag k="natural" v="hill" />
		<tag k="place" v="locality" />
		<tag k="ssr:stedsnr" v="673056" />
	</node>
	<node lat="60.32091389052715" lon="8.35275833897479" id="-19065">
		<tag k="fixme" v="consider natural=peak for the most distinct mountains in the district" />
		<tag k="name" v="Storhovde" />
		<tag k="natural" v="hill" />
		<tag k="place" v="locality" />
		<tag k="ssr:stedsnr" v="673247" />
	</node>
	<node lat="60.30765277738478" lon="8.356730555287056" id="-19067">
		<tag k="alt_name" v="Smørhøl" />
		<tag k="name" v="Smørholet" />
		<tag k="natural" v="slope" />
		<tag k="place" v="locality" />
		<tag k="ssr:stedsnr" v="673252" />
	</node>
	<node lat="60.386647222641734" lon="8.53515000010283" id="-19071">
		<tag k="alt_name" v="Skulkehøgde" />
		<tag k="name" v="Skulkehovda" />
		<tag k="natural" v="hill" />
		<tag k="place" v="locality" />
		<tag k="ssr:stedsnr" v="673412" />
	</node>
	<node lat="60.33152222176136" lon="8.994549996444473" id="-19080">
		<tag k="fixme" v="consider natural=peak for the most distinct mountains in the district" />
		<tag k="loc_name" v="Gonnarås" />
		<tag k="name" v="Gunnaråsen" />
		<tag k="natural" v="hill" />
		<tag k="place" v="locality" />
		<tag k="ssr:stedsnr" v="673428" />
	</node>
	<node lat="60.30100000239103" lon="8.908483325241269" id="-19093">
		<tag k="fixme" v="multiple name tags, choose one and add the other to alt_name; consider natural=peak for the most distinct mountains in the district" />
		<tag k="name" v="Solheimfjellet;Grytingfjellet" />
		<tag k="natural" v="hill" />
		<tag k="place" v="locality" />
		<tag k="ssr:stedsnr" v="674445" />
	</node>
	<node lat="60.30618333422216" lon="8.881733327523039" id="-19095">
		<tag k="name" v="Kynatten" />
		<tag k="natural" v="hill" />
		<tag k="place" v="locality" />
		<tag k="ssr:stedsnr" v="674448" />
	</node>
	<node lat="60.265533336813576" lon="8.851563886969405" id="-19106">
		<tag k="name" v="Høllarbakken" />
		<tag k="natural" v="slope" />
		<tag k="place" v="locality" />
		<tag k="ssr:stedsnr" v="481070" />
	</node>
	<node lat="60.09683888952302" lon="8.977102770675863" id="-19110">
		<tag k="loc_name" v="Slepeskaret" />
		<tag k="name" v="Slepeskardet" />
		<tag k="natural" v="valley" />
		<tag k="place" v="locality" />
		<tag k="ssr:stedsnr" v="483582" />
	</node>
	<node lat="60.167036108634754" lon="8.941088896247301" id="-19117">
		<tag k="alt_name" v="Byggingen;Byggingan" />
		<tag k="fixme" v="consider natural=peak for the most distinct mountains in the district" />
		<tag k="name" v="Byggjingen" />
		<tag k="natural" v="hill" />
		<tag k="place" v="locality" />
		<tag k="ssr:stedsnr" v="489594" />
	</node>
	<node lat="60.22669166946286" lon="8.447980547471918" id="-19118">
		<tag k="name" v="Sjugurdstjønnberget" />
		<tag k="natural" v="hill" />
		<tag k="place" v="locality" />
		<tag k="ssr:stedsnr" v="489933" />
	</node>
	<node lat="60.371719447133394" lon="8.41570555094563" id="-19119">
		<tag k="fixme" v="consider natural=peak for the most distinct mountains in the district" />
		<tag k="name" v="Storåsen" />
		<tag k="natural" v="hill" />
		<tag k="place" v="locality" />
		<tag k="ssr:stedsnr" v="490187" />
	</node>
	<node lat="60.1271166700723" lon="9.004516664893776" id="-19123">
		<tag k="alt_name" v="Nonsnuten" />
		<tag k="loc_name" v="Nonsetnattin" />
		<tag k="name" v="Nonsetnatten" />
		<tag k="natural" v="hill" />
		<tag k="place" v="locality" />
		<tag k="ssr:stedsnr" v="490487" />
	</node>
	<node lat="60.30194722216634" lon="8.412500007118563" id="-19130">
		<tag k="name" v="Jønndalen" />
		<tag k="natural" v="valley" />
		<tag k="place" v="locality" />
		<tag k="ssr:stedsnr" v="491021" />
	</node>
	<node lat="60.22783889276682" lon="8.316713885694789" id="-19136">
		<tag k="name" v="Smågådalen" />
		<tag k="natural" v="valley" />
		<tag k="place" v="locality" />
		<tag k="ssr:stedsnr" v="490944" />
	</node>
	<node lat="60.22554166671895" lon="8.11320554693479" id="-19137">
		<tag k="name" v="Skjortedalen" />
		<tag k="natural" v="valley" />
		<tag k="place" v="locality" />
		<tag k="ssr:stedsnr" v="490947" />
	</node>
	<node lat="60.313791669712735" lon="8.291211116222334" id="-19144">
		<tag k="name" v="Skarvsfetjan" />
		<tag k="place" v="locality" />
		<tag k="ssr:stedsnr" v="491226" />
	</node>
	<node lat="60.31247222579108" lon="8.272705563042434" id="-19145">
		<tag k="name" v="Dyregravshallie" />
		<tag k="natural" v="slope" />
		<tag k="place" v="locality" />
		<tag k="ssr:stedsnr" v="491233" />
	</node>
	<node lat="60.336338887709644" lon="9.089400006926507" id="-19150">
		<tag k="name" v="Kupanatten" />
		<tag k="natural" v="hill" />
		<tag k="place" v="locality" />
		<tag k="ssr:stedsnr" v="491415" />
	</node>
</osm>
