<?xml version="1.0" encoding="UTF-8"?>
<osm version="0.6" generator="osmapis">
	<node lat="60.10267500005231" lon="9.01988610499292" id="-18417">
		<tag k="historic" v="shieling" />
		<tag k="loc_name" v="Teigssetre" />
		<tag k="name" v="Teigsetre" />
		<tag k="place" v="isolated_dwelling" />
		<tag k="ssr:stedsnr" v="4535" />
	</node>
	<node lat="60.15485833238144" lon="8.924925001373436" id="-18419">
		<tag k="alt_name" v="Tørrhaugseter" />
		<tag k="historic" v="shieling" />
		<tag k="loc_name" v="Turrhaug" />
		<tag k="name" v="Turrhaugen" />
		<tag k="place" v="isolated_dwelling" />
		<tag k="ssr:stedsnr" v="4601" />
	</node>
	<node lat="60.16223063054988" lon="9.092507891361755" id="-18420">
		<tag k="alt_name" v="Elgsdalseter" />
		<tag k="name" v="Elgsdalen" />
		<tag k="place" v="locality" />
		<tag k="ssr:stedsnr" v="4615" />
	</node>
	<node lat="60.20992222466011" lon="7.888758324652326" id="-18421">
		<tag k="name" v="Muran" />
		<tag k="place" v="isolated_dwelling" />
		<tag k="ssr:stedsnr" v="4673" />
	</node>
	<node lat="60.220050001207966" lon="9.111277773600634" id="-18424">
		<tag k="alt_name" v="Verjestølen" />
		<tag k="historic" v="shieling" />
		<tag k="name" v="Vergjestulen" />
		<tag k="place" v="isolated_dwelling" />
		<tag k="ssr:stedsnr" v="4912" />
	</node>
	<node lat="60.2470444451293" lon="8.350563893650707" id="-18426">
		<tag k="name" v="Tyrhovdbue" />
		<tag k="place" v="locality" />
		<tag k="ssr:stedsnr" v="5509" />
	</node>
	<node lat="60.23645555654001" lon="8.73036389259358" id="-18429">
		<tag k="historic" v="shieling" />
		<tag k="loc_name" v="Øygardssetre" />
		<tag k="name" v="Øygardsseter" />
		<tag k="place" v="isolated_dwelling" />
		<tag k="ssr:stedsnr" v="5816" />
	</node>
	<node lat="60.360955555432625" lon="7.864675002546857" id="-18432">
		<tag k="name" v="Sleiposlægret" />
		<tag k="place" v="locality" />
		<tag k="ssr:stedsnr" v="5771" />
	</node>
	<node lat="60.260258330789995" lon="8.904480562941888" id="-18435">
		<tag k="alt_name" v="Fønset" />
		<tag k="name" v="Fønnset" />
		<tag k="place" v="isolated_dwelling" />
		<tag k="ssr:stedsnr" v="6303" />
	</node>
	<node lat="60.261488893175326" lon="8.839961111653365" id="-18438">
		<tag k="name" v="Heggheim" />
		<tag k="place" v="farm" />
		<tag k="ssr:stedsnr" v="6266" />
	</node>
	<node lat="60.27462778008442" lon="9.074600008587286" id="-18439">
		<tag k="alt_name" v="Høgeliseter" />
		<tag k="historic" v="shieling" />
		<tag k="name" v="Høgeli" />
		<tag k="place" v="isolated_dwelling" />
		<tag k="ssr:stedsnr" v="6272" />
	</node>
	<node lat="60.258666664423124" lon="8.752338892145955" id="-18440">
		<tag k="name" v="Sjåheim" />
		<tag k="place" v="locality" />
		<tag k="ssr:stedsnr" v="6273" />
	</node>
	<node lat="60.274949995772886" lon="9.026300008820746" id="-18441">
		<tag k="name" v="Dakkeset" />
		<tag k="place" v="farm" />
		<tag k="ssr:stedsnr" v="6276" />
	</node>
	<node lat="60.30372222041329" lon="9.072016671613142" id="-18446">
		<tag k="historic" v="shieling" />
		<tag k="name" v="Gamlesetre" />
		<tag k="place" v="isolated_dwelling" />
		<tag k="ssr:stedsnr" v="6493" />
	</node>
	<node lat="60.28308333213724" lon="8.766438884339077" id="-18448">
		<tag k="fixme" v="multiple name tags, choose one and add the other to alt_name" />
		<tag k="historic" v="shieling" />
		<tag k="loc_name" v="Torsrudsetre" />
		<tag k="name" v="Torsrudseter;Koggestadsetre" />
		<tag k="place" v="isolated_dwelling" />
		<tag k="ssr:stedsnr" v="6503" />
	</node>
	<node lat="60.27870277587826" lon="8.575311106621696" id="-18449">
		<tag k="name" v="Øyan" />
		<tag k="place" v="farm" />
		<tag k="ssr:stedsnr" v="6506" />
	</node>
	<node lat="60.27862778182896" lon="8.75599999934169" id="-18450">
		<tag k="name" v="Øvre Gvammen" />
		<tag k="place" v="farm" />
		<tag k="ssr:stedsnr" v="6508" />
	</node>
	<node lat="60.26232978560237" lon="8.648296369058865" id="-18452">
		<tag k="alt_name" v="Rausgard;Rausgård" />
		<tag k="name" v="Raudsgard" />
		<tag k="old_name" v="Rausgaard" />
		<tag k="place" v="hamlet" />
		<tag k="ssr:stedsnr" v="8511" />
	</node>
	<node lat="60.29530277679678" lon="8.560797218023419" id="-18455">
		<tag k="alt_name" v="Mellem Sønstebø" />
		<tag k="name" v="Mellom-Sønstebø" />
		<tag k="place" v="farm" />
		<tag k="ssr:stedsnr" v="40918" />
	</node>
	<node lat="60.206456915852606" lon="9.001996453828232" id="-18456">
		<tag k="fixme" v="consider place=hamlet" />
		<tag k="name" v="Loftsgarden" />
		<tag k="place" v="farm" />
		<tag k="ssr:stedsnr" v="41799" />
	</node>
	<node lat="60.34072499780004" lon="9.051047230755685" id="-18457">
		<tag k="name" v="Steinset seter" />
		<tag k="place" v="neighbourhood" />
		<tag k="ssr:stedsnr" v="237764" />
	</node>
	<node lat="60.26565000424831" lon="8.796005561045316" id="-18458">
		<tag k="name" v="Lund" />
		<tag k="place" v="farm" />
		<tag k="ssr:stedsnr" v="239142" />
	</node>
	<node lat="60.20485555384909" lon="9.025327785196485" id="-18462">
		<tag k="name" v="Vonheim" />
		<tag k="place" v="isolated_dwelling" />
		<tag k="ssr:stedsnr" v="239356" />
	</node>
	<node lat="60.32021793413153" lon="8.493661716700831" id="-18463">
		<tag k="alt_name" v="Mellem Nørstebø;Nørdstebø, m" />
		<tag k="fixme" v="consider place=hamlet" />
		<tag k="name" v="Millom-Nørdstebø" />
		<tag k="place" v="farm" />
		<tag k="ssr:stedsnr" v="239419" />
	</node>
	<node lat="60.31873333154444" lon="8.43558889440865" id="-18464">
		<tag k="loc_name" v="Nysetre" />
		<tag k="name" v="Nyseter" />
		<tag k="place" v="locality" />
		<tag k="ssr:stedsnr" v="239553" />
	</node>
	<node lat="60.26672364202053" lon="8.971607531234254" id="-18465">
		<tag k="alt_name" v="Ørndalen" />
		<tag k="fixme" v="consider place=hamlet" />
		<tag k="name" v="Omdalen" />
		<tag k="place" v="farm" />
		<tag k="ssr:stedsnr" v="239653" />
	</node>
	<node lat="60.268413892972454" lon="8.77333888547022" id="-18466">
		<tag k="name" v="Tovrud" />
		<tag k="place" v="farm" />
		<tag k="ssr:stedsnr" v="57115" />
	</node>
	<node lat="60.38495041302542" lon="8.733100485085407" id="-18467">
		<tag k="alt_name" v="Buinseter" />
		<tag k="historic" v="shieling" />
		<tag k="name" v="Buin" />
		<tag k="place" v="isolated_dwelling" />
		<tag k="ssr:stedsnr" v="57335" />
	</node>
	<node lat="60.31947778143064" lon="8.94132777514705" id="-18468">
		<tag k="name" v="Fjellvang" />
		<tag k="place" v="isolated_dwelling" />
		<tag k="ssr:stedsnr" v="59002" />
	</node>
	<node lat="60.16379444741878" lon="9.010180547170448" id="-18470">
		<tag k="name" v="Nore prestegard" />
		<tag k="place" v="farm" />
		<tag k="ssr:stedsnr" v="241059" />
	</node>
	<node lat="60.32165555426361" lon="8.99339165873642" id="-18471">
		<tag k="alt_name" v="Nedre Rykfosseter" />
		<tag k="historic" v="shieling" />
		<tag k="name" v="Nedre Rykfoss" />
		<tag k="place" v="isolated_dwelling" />
		<tag k="ssr:stedsnr" v="241216" />
	</node>
	<node lat="60.24575555774222" lon="7.950191659085976" id="-18473">
		<tag k="name" v="Trønderbu" />
		<tag k="place" v="isolated_dwelling" />
		<tag k="ssr:stedsnr" v="65636" />
	</node>
	<node lat="60.144758332372284" lon="9.016261116219354" id="-18476">
		<tag k="name" v="Sanden" />
		<tag k="place" v="farm" />
		<tag k="ssr:stedsnr" v="65514" />
	</node>
	<node lat="60.108446439394214" lon="9.06150154653172" id="-18477">
		<tag k="alt_name" v="Haustveit" />
		<tag k="fixme" v="consider place=hamlet" />
		<tag k="name" v="Hausttveit" />
		<tag k="place" v="farm" />
		<tag k="ssr:stedsnr" v="65528" />
	</node>
	<node lat="60.158069448036365" lon="9.030711106259755" id="-18479">
		<tag k="alt_name" v="Skøre" />
		<tag k="historic" v="shieling" />
		<tag k="name" v="Skori" />
		<tag k="place" v="isolated_dwelling" />
		<tag k="ssr:stedsnr" v="65600" />
	</node>
	<node lat="60.23387499713405" lon="8.585252784792404" id="-18480">
		<tag k="name" v="Imingfjell Turistheim" />
		<tag k="old_name" v="Imingfjell" />
		<tag k="ssr:stedsnr" v="65858" />
		<tag k="tourism" v="hotel" />
	</node>
	<node lat="60.24406944448678" lon="8.676841673215538" id="-18481">
		<tag k="historic" v="shieling" />
		<tag k="name" v="Løyngardsetre" />
		<tag k="place" v="isolated_dwelling" />
		<tag k="ssr:stedsnr" v="65861" />
	</node>
	<node lat="60.21624722636017" lon="8.962825001632345" id="-18482">
		<tag k="historic" v="shieling" />
		<tag k="loc_name" v="Hengjelie" />
		<tag k="name" v="Hengelie" />
		<tag k="place" v="isolated_dwelling" />
		<tag k="ssr:stedsnr" v="65903" />
	</node>
	<node lat="60.21177499575008" lon="9.043966663299171" id="-18483">
		<tag k="fixme" v="multiple name tags, choose one and add the other to alt_name" />
		<tag k="name" v="Vetterhuslie;Lie" />
		<tag k="place" v="farm" />
		<tag k="ssr:stedsnr" v="65920" />
	</node>
	<node lat="60.20351666840445" lon="8.970249991380177" id="-18484">
		<tag k="alt_name" v="Nysetseter" />
		<tag k="historic" v="shieling" />
		<tag k="name" v="Nyset" />
		<tag k="place" v="isolated_dwelling" />
		<tag k="ssr:stedsnr" v="65924" />
	</node>
	<node lat="60.196383333131294" lon="8.38540555033137" id="-18487">
		<tag k="historic" v="shieling" />
		<tag k="loc_name" v="Nuten" />
		<tag k="name" v="Nutesetre" />
		<tag k="place" v="isolated_dwelling" />
		<tag k="ssr:stedsnr" v="65961" />
	</node>
	<node lat="60.23115833574657" lon="8.990461111327484" id="-18488">
		<tag k="name" v="Myrvoll" />
		<tag k="place" v="isolated_dwelling" />
		<tag k="ssr:stedsnr" v="65997" />
	</node>
	<node lat="60.229805552934174" lon="9.034788887075123" id="-18489">
		<tag k="name" v="Lisledal" />
		<tag k="place" v="isolated_dwelling" />
		<tag k="ssr:stedsnr" v="65999" />
	</node>
	<node lat="60.25500278221342" lon="8.978588896230212" id="-18490">
		<tag k="loc_name" v="Hallandsgrend;Hallandsgrende" />
		<tag k="name" v="Hallandsgrendi" />
		<tag k="place" v="hamlet" />
		<tag k="ssr:stedsnr" v="66301" />
	</node>
	<node lat="60.366933334617386" lon="8.853358325596608" id="-18492">
		<tag k="alt_name" v="Bekkenseter" />
		<tag k="historic" v="shieling" />
		<tag k="loc_name" v="Bekkene" />
		<tag k="name" v="Bekkeset" />
		<tag k="place" v="isolated_dwelling" />
		<tag k="ssr:stedsnr" v="66352" />
	</node>
	<node lat="60.4013055553855" lon="8.64424999751475" id="-18493">
		<tag k="historic" v="shieling" />
		<tag k="name" v="Nedre Ræpehol" />
		<tag k="place" v="isolated_dwelling" />
		<tag k="ssr:stedsnr" v="66362" />
	</node>
	<node lat="60.32073610734266" lon="8.517691670430466" id="-18499">
		<tag k="historic" v="shieling" />
		<tag k="loc_name" v="Viersjordsetre" />
		<tag k="name" v="Viersjordseter" />
		<tag k="place" v="isolated_dwelling" />
		<tag k="ssr:stedsnr" v="241852" />
	</node>
	<node lat="60.27922636477561" lon="8.974413863892465" id="-18505">
		<tag k="alt_name" v="Murargarden" />
		<tag k="fixme" v="consider place=hamlet" />
		<tag k="name" v="Murugarden" />
		<tag k="place" v="farm" />
		<tag k="ssr:stedsnr" v="67290" />
	</node>
	<node lat="60.305186107316224" lon="8.986844435555003" id="-18508">
		<tag k="historic" v="shieling" />
		<tag k="name" v="Nordre Ringputtåsen" />
		<tag k="place" v="isolated_dwelling" />
		<tag k="ssr:stedsnr" v="241870" />
	</node>
	<node lat="60.2625999985944" lon="8.990324992717806" id="-18509">
		<tag k="name" v="Nedre Sporan" />
		<tag k="place" v="farm" />
		<tag k="ssr:stedsnr" v="67315" />
	</node>
	<node lat="60.25672222053158" lon="9.159780553266962" id="-18510">
		<tag k="name" v="Dangeset" />
		<tag k="place" v="isolated_dwelling" />
		<tag k="ssr:stedsnr" v="67320" />
	</node>
	<node lat="60.43381666755017" lon="8.899863896124344" id="-18511">
		<tag k="fixme" v="multiple name tags, choose one and add the other to alt_name" />
		<tag k="historic" v="shieling" />
		<tag k="name" v="Liaset;Sundbulisetre" />
		<tag k="place" v="isolated_dwelling" />
		<tag k="ssr:stedsnr" v="67348" />
	</node>
	<node lat="60.28800156674425" lon="8.881629110055384" id="-18513">
		<tag k="fixme" v="consider place=hamlet" />
		<tag k="name" v="Gryting" />
		<tag k="place" v="farm" />
		<tag k="ssr:stedsnr" v="67504" />
	</node>
	<node lat="60.28676388761698" lon="9.003941674997117" id="-18515">
		<tag k="alt_name" v="Fløti" />
		<tag k="loc_name" v="Fløte" />
		<tag k="name" v="Flåte" />
		<tag k="place" v="farm" />
		<tag k="ssr:stedsnr" v="67519" />
	</node>
	<node lat="60.28128489882056" lon="8.5971041318901" id="-18516">
		<tag k="name" v="Rennå" />
		<tag k="old_name" v="Renna" />
		<tag k="place" v="locality" />
		<tag k="ssr:stedsnr" v="67601" />
	</node>
	<node lat="60.37471111232297" lon="8.918072227795495" id="-18519">
		<tag k="historic" v="shieling" />
		<tag k="name" v="Slåttelihaugen" />
		<tag k="place" v="isolated_dwelling" />
		<tag k="ssr:stedsnr" v="248345" />
	</node>
	<node lat="60.121251075020744" lon="9.037675851648133" id="-18520">
		<tag k="fixme" v="consider place=hamlet" />
		<tag k="name" v="Hellekleiv" />
		<tag k="place" v="farm" />
		<tag k="ssr:stedsnr" v="247533" />
	</node>
	<node lat="60.14658889330646" lon="9.064880557307273" id="-18521">
		<tag k="loc_name" v="Skogan" />
		<tag k="name" v="Skogangrendi" />
		<tag k="place" v="hamlet" />
		<tag k="ssr:stedsnr" v="247495" />
	</node>
	<node lat="60.18848888834561" lon="9.062894442427023" id="-18525">
		<tag k="alt_name" v="Løkeset" />
		<tag k="historic" v="shieling" />
		<tag k="name" v="Løkjeset" />
		<tag k="old_name" v="Løkjeset sr" />
		<tag k="place" v="isolated_dwelling" />
		<tag k="ssr:stedsnr" v="247554" />
	</node>
	<node lat="60.155463884732626" lon="8.946586117926433" id="-18526">
		<tag k="alt_name" v="Byggingen;Byggingan" />
		<tag k="historic" v="shieling" />
		<tag k="name" v="Byggjingen" />
		<tag k="place" v="isolated_dwelling" />
		<tag k="ssr:stedsnr" v="247593" />
	</node>
	<node lat="60.08347337064376" lon="9.085958023061332" id="-18528">
		<tag k="name" v="Fossebrekke" />
		<tag k="old_name" v="Nordre Fossebrekke" />
		<tag k="place" v="farm" />
		<tag k="ssr:stedsnr" v="247733" />
	</node>
	<node lat="60.23903333709474" lon="8.7003305625494" id="-18532">
		<tag k="historic" v="shieling" />
		<tag k="name" v="Tjønnset" />
		<tag k="place" v="isolated_dwelling" />
		<tag k="ssr:stedsnr" v="247841" />
	</node>
	<node lat="60.212594441281134" lon="8.976813888954075" id="-18537">
		<tag k="historic" v="shieling" />
		<tag k="name" v="Søre Liset" />
		<tag k="place" v="isolated_dwelling" />
		<tag k="ssr:stedsnr" v="247882" />
	</node>
	<node lat="60.23803610881744" lon="9.01194999616009" id="-18538">
		<tag k="alt_name" v="Hjalland" />
		<tag k="name" v="Hjallan" />
		<tag k="place" v="farm" />
		<tag k="ssr:stedsnr" v="247981" />
	</node>
	<node lat="60.254274725816686" lon="8.300135147795517" id="-18545">
		<tag k="historic" v="shieling" />
		<tag k="name" v="Gamle Langetjønnsetre" />
		<tag k="place" v="isolated_dwelling" />
		<tag k="ssr:stedsnr" v="248044" />
	</node>
	<node lat="60.23271389184427" lon="8.964919453144978" id="-18546">
		<tag k="alt_name" v="Grånåsetseter" />
		<tag k="historic" v="shieling" />
		<tag k="name" v="Grånåset" />
		<tag k="place" v="isolated_dwelling" />
		<tag k="ssr:stedsnr" v="247996" />
	</node>
	<node lat="60.35543611270736" lon="8.926744449794628" id="-18551">
		<tag k="alt_name" v="Baustebøle" />
		<tag k="historic" v="shieling" />
		<tag k="name" v="Baustebølet" />
		<tag k="old_name" v="Baustebølseter" />
		<tag k="place" v="isolated_dwelling" />
		<tag k="ssr:stedsnr" v="248369" />
	</node>
	<node lat="60.39337499729622" lon="8.697680555251914" id="-18552">
		<tag k="fixme" v="multiple name tags, choose one and add the other to alt_name" />
		<tag k="historic" v="shieling" />
		<tag k="loc_name" v="Joslistølen;Ljoslistulen" />
		<tag k="name" v="Ljoslistølen;Ljosliseter" />
		<tag k="place" v="isolated_dwelling" />
		<tag k="ssr:stedsnr" v="248372" />
	</node>
	<node lat="60.26268909750564" lon="8.666017601847534" id="-18555">
		<tag k="name" v="Brandsgard" />
		<tag k="place" v="farm" />
		<tag k="ssr:stedsnr" v="248475" />
	</node>
	<node lat="60.27022279719166" lon="8.748795167017605" id="-18556">
		<tag k="alt_name" v="Grøneflåta;Grønneflåta" />
		<tag k="loc_name" v="Grønneflåtå" />
		<tag k="name" v="Øygarden" />
		<tag k="place" v="farm" />
		<tag k="ssr:stedsnr" v="248478" />
	</node>
	<node lat="60.27027222021171" lon="8.795072214007158" id="-18557">
		<tag k="alt_name" v="Bakke nedre" />
		<tag k="name" v="Nedre Bakke" />
		<tag k="place" v="farm" />
		<tag k="ssr:stedsnr" v="248486" />
	</node>
	<node lat="60.18600555564508" lon="9.14968333193965" id="-18558">
		<tag k="historic" v="shieling" />
		<tag k="name" v="Nybu" />
		<tag k="place" v="isolated_dwelling" />
		<tag k="ssr:stedsnr" v="101362" />
	</node>
	<node lat="60.259774086957044" lon="7.9451311162840765" id="-18562">
		<tag k="name" v="Danemannslægret" />
		<tag k="place" v="locality" />
		<tag k="ssr:stedsnr" v="248780" />
	</node>
	<node lat="60.30158611500994" lon="8.359366673928072" id="-18566">
		<tag k="historic" v="shieling" />
		<tag k="name" v="Breibu" />
		<tag k="place" v="isolated_dwelling" />
		<tag k="ssr:stedsnr" v="249018" />
	</node>
	<node lat="60.49119444064933" lon="8.743361102239733" id="-18567">
		<tag k="alt_name" v="Ulerud" />
		<tag k="historic" v="shieling" />
		<tag k="name" v="Urderud" />
		<tag k="place" v="isolated_dwelling" />
		<tag k="ssr:stedsnr" v="249037" />
	</node>
	<node lat="60.454188309659315" lon="8.697481606961293" id="-18569">
		<tag k="alt_name" v="Breidvik" />
		<tag k="name" v="Breivik" />
		<tag k="place" v="hamlet" />
		<tag k="ssr:stedsnr" v="249059" />
	</node>
	<node lat="60.47037777919659" lon="8.706222230634333" id="-18570">
		<tag k="historic" v="shieling" />
		<tag k="name" v="Myrestølen" />
		<tag k="place" v="isolated_dwelling" />
		<tag k="ssr:stedsnr" v="249073" />
	</node>
	<node lat="60.46322597544091" lon="8.744910786430566" id="-18571">
		<tag k="alt_name" v="Hytten" />
		<tag k="fixme" v="consider place=hamlet" />
		<tag k="name" v="Hytta" />
		<tag k="place" v="farm" />
		<tag k="ssr:stedsnr" v="249075" />
	</node>
	<node lat="60.46185278089846" lon="8.673225003562939" id="-18572">
		<tag k="name" v="Nedre Lian" />
		<tag k="place" v="farm" />
		<tag k="ssr:stedsnr" v="249080" />
	</node>
	<node lat="60.27431086832578" lon="8.949263474880881" id="-18575">
		<tag k="alt_name" v="Toen" />
		<tag k="fixme" v="consider place=hamlet" />
		<tag k="name" v="Ton" />
		<tag k="place" v="farm" />
		<tag k="ssr:stedsnr" v="249235" />
	</node>
	<node lat="60.26178289998164" lon="8.84587553764914" id="-18576">
		<tag k="fixme" v="consider place=hamlet" />
		<tag k="name" v="Presterud" />
		<tag k="place" v="farm" />
		<tag k="ssr:stedsnr" v="249283" />
	</node>
	<node lat="60.26259722646063" lon="8.968013891169406" id="-18578">
		<tag k="name" v="Granhaug" />
		<tag k="old_name" v="Grønhaug" />
		<tag k="place" v="farm" />
		<tag k="ssr:stedsnr" v="249294" />
	</node>
	<node lat="60.33653888889491" lon="8.981308329026422" id="-18581">
		<tag k="alt_name" v="Ryggeliseter" />
		<tag k="historic" v="shieling" />
		<tag k="name" v="Ryggelie" />
		<tag k="place" v="isolated_dwelling" />
		<tag k="ssr:stedsnr" v="249396" />
	</node>
	<node lat="60.343633335732356" lon="8.903302768911548" id="-18582">
		<tag k="name" v="Grøndalen" />
		<tag k="place" v="locality" />
		<tag k="ssr:stedsnr" v="249400" />
	</node>
	<node lat="60.35810833560563" lon="9.120311110542119" id="-18584">
		<tag k="historic" v="shieling" />
		<tag k="name" v="Sverig" />
		<tag k="old_name" v="Sverigessætri" />
		<tag k="place" v="isolated_dwelling" />
		<tag k="ssr:stedsnr" v="249388" />
	</node>
	<node lat="60.31470000343338" lon="8.963219437043236" id="-18587">
		<tag k="alt_name" v="Bjølldokka;Bjelldokken" />
		<tag k="loc_name" v="Bjelldøkkje" />
		<tag k="name" v="Bjølledokken" />
		<tag k="place" v="farm" />
		<tag k="ssr:stedsnr" v="249467" />
	</node>
	<node lat="60.28429834935863" lon="8.88508208819344" id="-18588">
		<tag k="fixme" v="consider place=hamlet" />
		<tag k="name" v="Kvernerud" />
		<tag k="place" v="farm" />
		<tag k="ssr:stedsnr" v="249502" />
	</node>
	<node lat="60.332474997626804" lon="9.043563885265531" id="-18592">
		<tag k="alt_name" v="Steinsetseter" />
		<tag k="historic" v="shieling" />
		<tag k="name" v="Steinset" />
		<tag k="place" v="isolated_dwelling" />
		<tag k="ssr:stedsnr" v="249421" />
	</node>
	<node lat="60.33225000184068" lon="8.868527771645319" id="-18593">
		<tag k="historic" v="shieling" />
		<tag k="name" v="Sjåbu" />
		<tag k="place" v="isolated_dwelling" />
		<tag k="ssr:stedsnr" v="249426" />
	</node>
	<node lat="60.264891667030554" lon="8.871788892182819" id="-18597">
		<tag k="name" v="Fønnebøjordet" />
		<tag k="place" v="farm" />
		<tag k="ssr:stedsnr" v="120005" />
	</node>
	<node lat="60.27403333639989" lon="8.800600005520009" id="-18598">
		<tag k="name" v="Nedre Åstveit" />
		<tag k="place" v="farm" />
		<tag k="ssr:stedsnr" v="120115" />
	</node>
	<node lat="60.26445833389542" lon="8.986861108311428" id="-18600">
		<tag k="name" v="Søre Sporan" />
		<tag k="place" v="farm" />
		<tag k="ssr:stedsnr" v="120660" />
	</node>
	<node lat="60.26766388852351" lon="9.012977777025228" id="-18601">
		<tag k="name" v="Nedre Plassen" />
		<tag k="place" v="farm" />
		<tag k="ssr:stedsnr" v="120670" />
	</node>
	<node lat="60.15807367773156" lon="7.671552918190829" id="-18602">
		<tag k="name" v="Elsjåholet" />
		<tag k="place" v="locality" />
		<tag k="ssr:stedsnr" v="125759" />
	</node>
	<node lat="60.383750004194326" lon="8.459749990961594" id="-18603">
		<tag k="historic" v="shieling" />
		<tag k="name" v="Hovdesetre" />
		<tag k="place" v="isolated_dwelling" />
		<tag k="ssr:stedsnr" v="126209" />
	</node>
	<node lat="60.133211112777595" lon="9.124619451584493" id="-18604">
		<tag k="alt_name" v="Vergjedalssetre" />
		<tag k="historic" v="shieling" />
		<tag k="loc_name" v="Vergjedalen" />
		<tag k="name" v="Haustveitvergjedalen" />
		<tag k="old_name" v="Hausttveisætri" />
		<tag k="place" v="isolated_dwelling" />
		<tag k="ssr:stedsnr" v="126509" />
	</node>
	<node lat="60.202649338410595" lon="9.000501946340679" id="-18606">
		<tag k="alt_name" v="Sælebakke" />
		<tag k="fixme" v="consider place=hamlet" />
		<tag k="name" v="Selabakke" />
		<tag k="place" v="farm" />
		<tag k="ssr:stedsnr" v="126912" />
	</node>
	<node lat="60.2130916696004" lon="8.991736112279945" id="-18611">
		<tag k="name" v="Stakkhaug" />
		<tag k="place" v="farm" />
		<tag k="ssr:stedsnr" v="126897" />
	</node>
	<node lat="60.32179722641236" lon="8.44878888978958" id="-18615">
		<tag k="loc_name" v="Roe" />
		<tag k="name" v="Roi" />
		<tag k="place" v="isolated_dwelling" />
		<tag k="ssr:stedsnr" v="127248" />
	</node>
	<node lat="60.307366667315584" lon="8.385438889361136" id="-18616">
		<tag k="historic" v="shieling" />
		<tag k="name" v="Flåtåsetre" />
		<tag k="place" v="isolated_dwelling" />
		<tag k="ssr:stedsnr" v="127257" />
	</node>
	<node lat="60.26115833607103" lon="8.874461114837983" id="-18620">
		<tag k="name" v="Persgard" />
		<tag k="place" v="farm" />
		<tag k="ssr:stedsnr" v="127314" />
	</node>
	<node lat="60.2747574783896" lon="9.006191375269252" id="-18621">
		<tag k="fixme" v="consider place=hamlet" />
		<tag k="name" v="Bekkeset" />
		<tag k="place" v="farm" />
		<tag k="ssr:stedsnr" v="127292" />
	</node>
	<node lat="60.328061112159375" lon="8.877675008097077" id="-18624">
		<tag k="alt_name" v="Gaukesetseter" />
		<tag k="historic" v="shieling" />
		<tag k="name" v="Gaukset" />
		<tag k="place" v="isolated_dwelling" />
		<tag k="ssr:stedsnr" v="127444" />
	</node>
	<node lat="60.32761389274957" lon="8.489016674163794" id="-18625">
		<tag k="historic" v="shieling" />
		<tag k="name" v="Nørdstebøsetre" />
		<tag k="place" v="isolated_dwelling" />
		<tag k="ssr:stedsnr" v="127459" />
	</node>
	<node lat="60.30599166870605" lon="8.795247219054167" id="-18626">
		<tag k="alt_name" v="Baklistulen" />
		<tag k="historic" v="shieling" />
		<tag k="name" v="Baklistølen" />
		<tag k="place" v="isolated_dwelling" />
		<tag k="ssr:stedsnr" v="127495" />
	</node>
	<node lat="60.38472777804184" lon="8.949508339916065" id="-18628">
		<tag k="alt_name" v="Kursetseter" />
		<tag k="historic" v="shieling" />
		<tag k="name" v="Kurset" />
		<tag k="place" v="isolated_dwelling" />
		<tag k="ssr:stedsnr" v="127393" />
	</node>
	<node lat="60.26221111343397" lon="8.630199994850175" id="-18635">
		<tag k="loc_name" v="Runningan" />
		<tag k="name" v="Rudningan" />
		<tag k="place" v="farm" />
		<tag k="ssr:stedsnr" v="127544" />
	</node>
	<node lat="60.290074996036694" lon="8.978113887943366" id="-18636">
		<tag k="loc_name" v="Raunefløte" />
		<tag k="name" v="Nordre Land" />
		<tag k="place" v="isolated_dwelling" />
		<tag k="ssr:stedsnr" v="127546" />
	</node>
	<node lat="60.28406635830391" lon="8.95375661828101" id="-18637">
		<tag k="fixme" v="multiple name tags, choose one and add the other to alt_name" />
		<tag k="historic" v="shieling" />
		<tag k="name" v="Nåmestølen;Løyteplass" />
		<tag k="place" v="isolated_dwelling" />
		<tag k="ssr:stedsnr" v="127547" />
	</node>
	<node lat="60.243825001131505" lon="8.588197216691443" id="-18638">
		<tag k="historic" v="shieling" />
		<tag k="name" v="Glopphovdstulen" />
		<tag k="place" v="isolated_dwelling" />
		<tag k="ssr:stedsnr" v="161574" />
	</node>
	<node lat="60.26113889262939" lon="8.591702770829349" id="-18639">
		<tag k="alt_name" v="Mellem Imingen" />
		<tag k="name" v="Mellom-Imingen" />
		<tag k="place" v="farm" />
		<tag k="ssr:stedsnr" v="161575" />
	</node>
	<node lat="60.25497500075442" lon="8.98243888765683" id="-18641">
		<tag k="name" v="Kallekåset" />
		<tag k="place" v="farm" />
		<tag k="ssr:stedsnr" v="161919" />
	</node>
	<node lat="60.36506389124487" lon="8.946105557251599" id="-18645">
		<tag k="alt_name" v="Aliseter" />
		<tag k="historic" v="shieling" />
		<tag k="loc_name" v="Alislie" />
		<tag k="name" v="Alislien" />
		<tag k="old_name" v="Aslislien" />
		<tag k="place" v="isolated_dwelling" />
		<tag k="ssr:stedsnr" v="177368" />
	</node>
	<node lat="60.320033337207384" lon="8.939424992311618" id="-18647">
		<tag k="name" v="Brubakken" />
		<tag k="place" v="isolated_dwelling" />
		<tag k="ssr:stedsnr" v="180002" />
	</node>
	<node lat="60.306188891107155" lon="8.969780549181557" id="-18648">
		<tag k="name" v="Nordre Trondrud" />
		<tag k="place" v="farm" />
		<tag k="ssr:stedsnr" v="180004" />
	</node>
	<node lat="60.317038885385365" lon="8.50156389152" id="-18649">
		<tag k="name" v="Nordre Flåta" />
		<tag k="place" v="farm" />
		<tag k="ssr:stedsnr" v="180856" />
	</node>
	<node lat="60.29929444864983" lon="9.11108610809398" id="-18650">
		<tag k="historic" v="shieling" />
		<tag k="name" v="Krosstjørnhaugen" />
		<tag k="place" v="isolated_dwelling" />
		<tag k="ssr:stedsnr" v="180864" />
	</node>
	<node lat="60.124708329066145" lon="9.055841658357595" id="-18651">
		<tag k="alt_name" v="Søre Kåsin" />
		<tag k="loc_name" v="Søre Køsin" />
		<tag k="name" v="Søre Kosin" />
		<tag k="place" v="farm" />
		<tag k="ssr:stedsnr" v="186602" />
	</node>
	<node lat="60.17362777896707" lon="8.98284166139192" id="-18653">
		<tag k="name" v="Brenna" />
		<tag k="place" v="isolated_dwelling" />
		<tag k="ssr:stedsnr" v="186616" />
	</node>
	<node lat="60.099841666666435" lon="9.027324993144564" id="-18657">
		<tag k="historic" v="shieling" />
		<tag k="loc_name" v="Nord-Myransetre" />
		<tag k="name" v="Nørdre Myransetre" />
		<tag k="place" v="isolated_dwelling" />
		<tag k="ssr:stedsnr" v="186576" />
	</node>
	<node lat="60.115269447959555" lon="9.030997221500224" id="-18658">
		<tag k="historic" v="shieling" />
		<tag k="name" v="Bjørndalen" />
		<tag k="place" v="isolated_dwelling" />
		<tag k="ssr:stedsnr" v="186597" />
	</node>
	<node lat="60.23697222284077" lon="9.047605564321056" id="-18660">
		<tag k="name" v="Nordre Øktedalen" />
		<tag k="place" v="farm" />
		<tag k="ssr:stedsnr" v="186999" />
	</node>
	<node lat="60.22170832947514" lon="8.968586105889635" id="-18662">
		<tag k="historic" v="shieling" />
		<tag k="loc_name" v="Nysetre" />
		<tag k="name" v="Nyseter" />
		<tag k="place" v="isolated_dwelling" />
		<tag k="ssr:stedsnr" v="186893" />
	</node>
	<node lat="60.14718611052296" lon="9.117230551334604" id="-18664">
		<tag k="historic" v="shieling" />
		<tag k="name" v="Smettbak" />
		<tag k="place" v="isolated_dwelling" />
		<tag k="ssr:stedsnr" v="187483" />
	</node>
	<node lat="60.20505075702089" lon="9.012847020272195" id="-18670">
		<tag k="alt_name" v="Midtstigen" />
		<tag k="fixme" v="consider place=hamlet" />
		<tag k="name" v="Midstigen" />
		<tag k="place" v="farm" />
		<tag k="ssr:stedsnr" v="187904" />
	</node>
	<node lat="60.19333333133942" lon="8.883694442545519" id="-18671">
		<tag k="alt_name" v="Breisetseter" />
		<tag k="loc_name" v="Breiset" />
		<tag k="name" v="Breidset" />
		<tag k="place" v="locality" />
		<tag k="ssr:stedsnr" v="187912" />
	</node>
	<node lat="60.275741663796374" lon="8.268675004664182" id="-18674">
		<tag k="name" v="Bollatjønnlægret" />
		<tag k="place" v="locality" />
		<tag k="ssr:stedsnr" v="188071" />
	</node>
	<node lat="60.46239999747342" lon="8.749977777259657" id="-18677">
		<tag k="alt_name" v="Haga" />
		<tag k="name" v="Øvre Haga" />
		<tag k="place" v="farm" />
		<tag k="ssr:stedsnr" v="188093" />
	</node>
	<node lat="60.259725001233505" lon="8.913480548273942" id="-18682">
		<tag k="alt_name" v="Rykansrud" />
		<tag k="loc_name" v="Rikansrud" />
		<tag k="name" v="Rykanrud" />
		<tag k="place" v="locality" />
		<tag k="ssr:stedsnr" v="188304" />
	</node>
	<node lat="60.25557500266464" lon="8.903688883278912" id="-18683">
		<tag k="name" v="Odden" />
		<tag k="place" v="farm" />
		<tag k="ssr:stedsnr" v="188305" />
	</node>
	<node lat="60.33906389074684" lon="8.427955564552745" id="-18685">
		<tag k="alt_name" v="Langeløyteseter" />
		<tag k="historic" v="shieling" />
		<tag k="loc_name" v="Långeløyte" />
		<tag k="name" v="Langeløyte" />
		<tag k="place" v="isolated_dwelling" />
		<tag k="ssr:stedsnr" v="188269" />
	</node>
	<node lat="60.392197221282" lon="8.58409443576484" id="-18689">
		<tag k="alt_name" v="Bjørkebuseter" />
		<tag k="historic" v="shieling" />
		<tag k="loc_name" v="Bjørkebuin" />
		<tag k="name" v="Børkjebuin" />
		<tag k="place" v="isolated_dwelling" />
		<tag k="ssr:stedsnr" v="188426" />
	</node>
	<node lat="60.359283332779086" lon="8.949874991220103" id="-18691">
		<tag k="historic" v="shieling" />
		<tag k="name" v="Langåsen" />
		<tag k="place" v="isolated_dwelling" />
		<tag k="ssr:stedsnr" v="188428" />
	</node>
	<node lat="60.33873888588385" lon="8.494902772703671" id="-18692">
		<tag k="name" v="Vasstulan Høyfjellsseter" />
		<tag k="old_name" v="Vasstulan" />
		<tag k="ssr:stedsnr" v="188469" />
		<tag k="tourism" v="hotel" />
	</node>
	<node lat="60.34614721993863" lon="8.785538895229179" id="-18693">
		<tag k="alt_name" v="Flødøkken" />
		<tag k="historic" v="shieling" />
		<tag k="name" v="Flødokki" />
		<tag k="place" v="isolated_dwelling" />
		<tag k="ssr:stedsnr" v="188470" />
	</node>
	<node lat="60.35236110780478" lon="8.745266665159974" id="-18694">
		<tag k="historic" v="shieling" />
		<tag k="name" v="Risdalen" />
		<tag k="place" v="isolated_dwelling" />
		<tag k="ssr:stedsnr" v="188471" />
	</node>
	<node lat="60.31318055897936" lon="8.47231944995493" id="-18696">
		<tag k="historic" v="shieling" />
		<tag k="name" v="Devegg" />
		<tag k="place" v="isolated_dwelling" />
		<tag k="ssr:stedsnr" v="188481" />
	</node>
	<node lat="60.277322220563846" lon="8.587433334561647" id="-18700">
		<tag k="alt_name" v="Søre Kveta" />
		<tag k="name" v="Søre Gveta" />
		<tag k="place" v="farm" />
		<tag k="ssr:stedsnr" v="188515" />
	</node>
	<node lat="60.27863333264459" lon="8.801758334435366" id="-18702">
		<tag k="historic" v="shieling" />
		<tag k="name" v="Bakkesetre" />
		<tag k="place" v="isolated_dwelling" />
		<tag k="ssr:stedsnr" v="188524" />
	</node>
	<node lat="60.29657499819923" lon="9.010247225393575" id="-18703">
		<tag k="historic" v="shieling" />
		<tag k="name" v="Lauvåsen" />
		<tag k="place" v="isolated_dwelling" />
		<tag k="ssr:stedsnr" v="188528" />
	</node>
	<node lat="60.08294961494196" lon="9.08143223092219" id="-18708">
		<tag k="alt_name" v="Nordre Koppargarden" />
		<tag k="name" v="Nordre Kopargarden" />
		<tag k="place" v="locality" />
		<tag k="ssr:stedsnr" v="222010" />
	</node>
	<node lat="60.08183055153556" lon="9.08880278464315" id="-18709">
		<tag k="alt_name" v="Søre Kobbergården" />
		<tag k="name" v="Søre Kopargarden" />
		<tag k="place" v="farm" />
		<tag k="ssr:stedsnr" v="222011" />
	</node>
	<node lat="60.26211666724933" lon="8.824994446291754" id="-18712">
		<tag k="name" v="Bjørkheim" />
		<tag k="place" v="farm" />
		<tag k="ssr:stedsnr" v="222524" />
	</node>
	<node lat="60.30218322732565" lon="8.550843745582108" id="-18714">
		<tag k="name" v="Rønnegvammen" />
		<tag k="place" v="hamlet" />
		<tag k="ssr:stedsnr" v="234383" />
	</node>
	<node lat="60.26918889185716" lon="8.803774998686725" id="-18715">
		<tag k="name" v="Nordre Grøtjorden" />
		<tag k="place" v="farm" />
		<tag k="ssr:stedsnr" v="239089" />
	</node>
	<node lat="60.268244440423345" lon="8.807738891818557" id="-18716">
		<tag k="name" v="Søre Grøtjorden" />
		<tag k="place" v="farm" />
		<tag k="ssr:stedsnr" v="239090" />
	</node>
	<node lat="60.27049444885364" lon="8.73713610368586" id="-18717">
		<tag k="name" v="Nordre Tufto" />
		<tag k="place" v="farm" />
		<tag k="ssr:stedsnr" v="239129" />
	</node>
	<node lat="60.27078888718966" lon="8.740966667175414" id="-18718">
		<tag k="name" v="Søre Tufto" />
		<tag k="place" v="farm" />
		<tag k="ssr:stedsnr" v="239130" />
	</node>
	<node lat="60.27361111110135" lon="8.743330550505584" id="-18719">
		<tag k="name" v="Beltesbrekke" />
		<tag k="place" v="farm" />
		<tag k="ssr:stedsnr" v="239131" />
	</node>
	<node lat="60.30935832926533" lon="8.969686102938159" id="-18720">
		<tag k="name" v="Søre Hørjusgard" />
		<tag k="place" v="farm" />
		<tag k="ssr:stedsnr" v="241036" />
	</node>
	<node lat="60.09429429929394" lon="9.026743600327071" id="-18721">
		<tag k="historic" v="shieling" />
		<tag k="name" v="Søre Myransetre" />
		<tag k="place" v="isolated_dwelling" />
		<tag k="ssr:stedsnr" v="247507" />
	</node>
	<node lat="60.18518888866781" lon="8.972308340147896" id="-18724">
		<tag k="alt_name" v="Nedre Kurverud" />
		<tag k="historic" v="shieling" />
		<tag k="name" v="Nedre Kurverudseter" />
		<tag k="place" v="isolated_dwelling" />
		<tag k="ssr:stedsnr" v="247568" />
	</node>
	<node lat="60.14823055561944" lon="9.047566659065836" id="-18725">
		<tag k="alt_name" v="Pønteseter" />
		<tag k="historic" v="shieling" />
		<tag k="loc_name" v="Pynte;Pønte" />
		<tag k="name" v="Pyntestulen" />
		<tag k="place" v="isolated_dwelling" />
		<tag k="ssr:stedsnr" v="247575" />
	</node>
	<node lat="60.146621966471244" lon="9.024624386116523" id="-18726">
		<tag k="alt_name" v="Strømmen" />
		<tag k="fixme" v="consider place=hamlet" />
		<tag k="name" v="Straumen" />
		<tag k="place" v="farm" />
		<tag k="ssr:stedsnr" v="247577" />
	</node>
	<node lat="60.08770555361714" lon="9.094800004147393" id="-18727">
		<tag k="name" v="Søre Skaget" />
		<tag k="place" v="farm" />
		<tag k="ssr:stedsnr" v="247666" />
	</node>
	<node lat="60.20880000198343" lon="9.0338250068697" id="-18730">
		<tag k="name" v="Brekka" />
		<tag k="place" v="isolated_dwelling" />
		<tag k="ssr:stedsnr" v="247915" />
	</node>
	<node lat="60.27542287409259" lon="8.796038010002853" id="-18736">
		<tag k="fixme" v="consider place=hamlet" />
		<tag k="name" v="Bringsrud" />
		<tag k="place" v="farm" />
		<tag k="ssr:stedsnr" v="248461" />
	</node>
	<node lat="60.27397790266622" lon="8.782458680241712" id="-18737">
		<tag k="fixme" v="consider place=hamlet" />
		<tag k="name" v="Guton" />
		<tag k="place" v="farm" />
		<tag k="ssr:stedsnr" v="248463" />
	</node>
	<node lat="60.261916666876" lon="8.765272228535139" id="-18742">
		<tag k="alt_name" v="Haugen" />
		<tag k="name" v="Ladehus" />
		<tag k="place" v="farm" />
		<tag k="ssr:stedsnr" v="249248" />
	</node>
	<node lat="60.272849997618074" lon="8.96093611597075" id="-18743">
		<tag k="loc_name" v="Rågrende" />
		<tag k="name" v="Rågrendi" />
		<tag k="old_name" v="Raagrend" />
		<tag k="place" v="hamlet" />
		<tag k="ssr:stedsnr" v="249249" />
	</node>
	<node lat="60.27524166274378" lon="8.991358326976272" id="-18744">
		<tag k="name" v="Øvre Ringputt" />
		<tag k="place" v="farm" />
		<tag k="ssr:stedsnr" v="249253" />
	</node>
	<node lat="60.26656489345073" lon="8.903168309870312" id="-18745">
		<tag k="fixme" v="consider place=hamlet" />
		<tag k="name" v="Hovda" />
		<tag k="place" v="farm" />
		<tag k="ssr:stedsnr" v="249258" />
	</node>
	<node lat="60.32441133158482" lon="8.17793694182096" id="-18747">
		<tag k="name" v="Fagerskard" />
		<tag k="place" v="locality" />
		<tag k="ssr:stedsnr" v="249226" />
	</node>
	<node lat="60.269352781873735" lon="8.992969444470514" id="-18748">
		<tag k="historic" v="shieling" />
		<tag k="name" v="Lykkja" />
		<tag k="old_name" v="Borgstølen" />
		<tag k="place" v="isolated_dwelling" />
		<tag k="ssr:stedsnr" v="249266" />
	</node>
	<node lat="60.118488888877025" lon="9.126813891748341" id="-18750">
		<tag k="historic" v="shieling" />
		<tag k="name" v="Øye" />
		<tag k="place" v="isolated_dwelling" />
		<tag k="ssr:stedsnr" v="282026" />
	</node>
	<node lat="60.30308645383247" lon="8.547709548337483" id="-18755">
		<tag k="fixme" v="consider place=hamlet" />
		<tag k="name" v="Nord-Rønnegvammen" />
		<tag k="place" v="farm" />
		<tag k="ssr:stedsnr" v="283907" />
	</node>
	<node lat="60.29429444049406" lon="8.562202784401988" id="-18756">
		<tag k="name" v="Søre Sønstebø" />
		<tag k="place" v="farm" />
		<tag k="ssr:stedsnr" v="283909" />
	</node>
	<node lat="60.447402774887124" lon="8.880613884767632" id="-18760">
		<tag k="name" v="Langedrag Naturpark" />
		<tag k="old_name" v="E.K.T. Langedrag Naturpark" />
		<tag k="ssr:stedsnr" v="294420" />
		<tag k="tourism" v="theme_park" />
	</node>
	<node lat="60.26888611196225" lon="8.805691666990123" id="-18761">
		<tag k="alt_name" v="Mellem Grøtjorden" />
		<tag k="name" v="Mellom-Grøtjorden" />
		<tag k="place" v="farm" />
		<tag k="ssr:stedsnr" v="300094" />
	</node>
	<node lat="60.3007222200198" lon="8.527811106709498" id="-18763">
		<tag k="name" v="Uvdal alpinsenter" />
		<tag k="place" v="neighbourhood" />
		<tag k="ssr:stedsnr" v="300882" />
	</node>
	<node lat="60.32344166763232" lon="8.99483889209501" id="-18764">
		<tag k="alt_name" v="Øvre Rykfosseter" />
		<tag k="historic" v="shieling" />
		<tag k="name" v="Øvre Rykfoss" />
		<tag k="place" v="isolated_dwelling" />
		<tag k="ssr:stedsnr" v="301205" />
	</node>
	<node lat="60.173225003549206" lon="9.000288884566844" id="-18765">
		<tag k="name" v="Bakkan" />
		<tag k="place" v="isolated_dwelling" />
		<tag k="ssr:stedsnr" v="302105" />
	</node>
	<node lat="60.26818611341163" lon="9.002313882779946" id="-18766">
		<tag k="name" v="Øvre Borge" />
		<tag k="place" v="farm" />
		<tag k="ssr:stedsnr" v="302692" />
	</node>
	<node lat="60.321783335393846" lon="8.507302781846219" id="-18768">
		<tag k="name" v="Nedre Flåtaplassen" />
		<tag k="place" v="locality" />
		<tag k="ssr:stedsnr" v="302835" />
	</node>
	<node lat="60.38960555582703" lon="8.503594447929835" id="-18769">
		<tag k="name" v="Hagaset" />
		<tag k="place" v="neighbourhood" />
		<tag k="ssr:stedsnr" v="464230" />
	</node>
	<node lat="60.25342222025327" lon="8.976855563690565" id="-18775">
		<tag k="name" v="Sørli" />
		<tag k="place" v="farm" />
		<tag k="ssr:stedsnr" v="464932" />
	</node>
	<node lat="60.185944448494226" lon="8.970775008454874" id="-18776">
		<tag k="alt_name" v="Øvre Kurverud" />
		<tag k="historic" v="shieling" />
		<tag k="name" v="Øvre Kurverudseter" />
		<tag k="place" v="isolated_dwelling" />
		<tag k="ssr:stedsnr" v="307605" />
	</node>
	<node lat="60.19054942270617" lon="9.009193853891176" id="-18777">
		<tag k="fixme" v="consider place=hamlet" />
		<tag k="name" v="Svensrud" />
		<tag k="place" v="farm" />
		<tag k="ssr:stedsnr" v="307607" />
	</node>
	<node lat="60.178247219235516" lon="8.967805551367647" id="-18778">
		<tag k="historic" v="shieling" />
		<tag k="name" v="Fjosstulen" />
		<tag k="old_name" v="Ulbåsseter;Fjosstølen;Ulbåsstulen" />
		<tag k="place" v="isolated_dwelling" />
		<tag k="ssr:stedsnr" v="307597" />
	</node>
	<node lat="60.18248642030312" lon="8.462875416910371" id="-18782">
		<tag k="name" v="Gryttjønnleger" />
		<tag k="place" v="isolated_dwelling" />
		<tag k="ssr:stedsnr" v="307964" />
	</node>
	<node lat="60.15526388701576" lon="9.116166670009443" id="-18784">
		<tag k="fixme" v="multiple name tags, choose one and add the other to alt_name" />
		<tag k="historic" v="shieling" />
		<tag k="loc_name" v="Smettbak" />
		<tag k="name" v="Øvre Smettbaken;Øvre Smettbakseter" />
		<tag k="place" v="isolated_dwelling" />
		<tag k="ssr:stedsnr" v="308493" />
	</node>
	<node lat="60.21676666655652" lon="9.043774995685864" id="-18787">
		<tag k="name" v="Tusteberget" />
		<tag k="place" v="farm" />
		<tag k="ssr:stedsnr" v="308903" />
	</node>
	<node lat="60.23380208741246" lon="8.984018333166718" id="-18789">
		<tag k="fixme" v="consider place=hamlet" />
		<tag k="name" v="Vedalen" />
		<tag k="place" v="farm" />
		<tag k="ssr:stedsnr" v="308993" />
	</node>
	<node lat="60.233837028608235" lon="9.027733775741325" id="-18790">
		<tag k="alt_name" v="Gravningsgard" />
		<tag k="fixme" v="consider place=hamlet" />
		<tag k="loc_name" v="Grammisgard" />
		<tag k="name" v="Gravningsgarden" />
		<tag k="place" v="farm" />
		<tag k="ssr:stedsnr" v="308996" />
	</node>
	<node lat="60.22936388488257" lon="8.964255561484475" id="-18792">
		<tag k="alt_name" v="Myrsæt" />
		<tag k="historic" v="shieling" />
		<tag k="name" v="Myrset" />
		<tag k="place" v="isolated_dwelling" />
		<tag k="ssr:stedsnr" v="308887" />
	</node>
	<node lat="60.48711666889825" lon="8.733147222661097" id="-18794">
		<tag k="historic" v="shieling" />
		<tag k="name" v="Hyttestølen" />
		<tag k="place" v="isolated_dwelling" />
		<tag k="ssr:stedsnr" v="309097" />
	</node>
	<node lat="60.377744444758484" lon="9.019694438753916" id="-18795">
		<tag k="historic" v="shieling" />
		<tag k="loc_name" v="Børgegrammin" />
		<tag k="name" v="Borgelie" />
		<tag k="place" v="isolated_dwelling" />
		<tag k="ssr:stedsnr" v="309397" />
	</node>
	<node lat="60.26820815611864" lon="8.596123660896748" id="-18797">
		<tag k="alt_name" v="Bjørkeflåta" />
		<tag k="fixme" v="consider place=hamlet" />
		<tag k="name" v="Børkjeflåta" />
		<tag k="place" v="farm" />
		<tag k="ssr:stedsnr" v="309513" />
	</node>
	<node lat="60.26154497614165" lon="8.594500909767874" id="-18798">
		<tag k="alt_name" v="Imingen" />
		<tag k="name" v="Imingan" />
		<tag k="place" v="hamlet" />
		<tag k="ssr:stedsnr" v="309533" />
	</node>
	<node lat="60.343573383408774" lon="8.867210708148761" id="-18803">
		<tag k="historic" v="shieling" />
		<tag k="loc_name" v="Solheimsetre" />
		<tag k="name" v="Solemsetre" />
		<tag k="place" v="isolated_dwelling" />
		<tag k="ssr:stedsnr" v="309442" />
	</node>
	<node lat="60.33140000086554" lon="9.07709445009546" id="-18806">
		<tag k="alt_name" v="Kupaseter" />
		<tag k="historic" v="shieling" />
		<tag k="name" v="Kupa" />
		<tag k="place" v="isolated_dwelling" />
		<tag k="ssr:stedsnr" v="309450" />
	</node>
	<node lat="60.32795555714802" lon="8.987766670377228" id="-18807">
		<tag k="historic" v="shieling" />
		<tag k="name" v="Margitstul" />
		<tag k="place" v="isolated_dwelling" />
		<tag k="ssr:stedsnr" v="309452" />
	</node>
	<node lat="60.331530555130854" lon="9.017022215185063" id="-18808">
		<tag k="name" v="Elvestrand" />
		<tag k="old_name" v="Elvastrand" />
		<tag k="place" v="isolated_dwelling" />
		<tag k="ssr:stedsnr" v="309453" />
	</node>
	<node lat="60.35277500365912" lon="8.719222215518819" id="-18809">
		<tag k="alt_name" v="Dauvedalen" />
		<tag k="historic" v="shieling" />
		<tag k="name" v="Daudedalen" />
		<tag k="place" v="isolated_dwelling" />
		<tag k="ssr:stedsnr" v="309456" />
	</node>
	<node lat="60.32846388940295" lon="8.964725001304405" id="-18810">
		<tag k="historic" v="shieling" />
		<tag k="name" v="Tjønnset" />
		<tag k="place" v="isolated_dwelling" />
		<tag k="ssr:stedsnr" v="309457" />
	</node>
	<node lat="60.31466254395206" lon="8.520866750361309" id="-18815">
		<tag k="fixme" v="consider place=hamlet" />
		<tag k="name" v="Sjugerud" />
		<tag k="place" v="farm" />
		<tag k="ssr:stedsnr" v="309475" />
	</node>
	<node lat="60.31914679885065" lon="8.95105567156309" id="-18816">
		<tag k="name" v="Loftsgarden" />
		<tag k="old_name" v="Loftsgaarden;Loftsgd" />
		<tag k="place" v="hamlet" />
		<tag k="ssr:stedsnr" v="309476" />
	</node>
	<node lat="60.310496250751676" lon="8.532560437519333" id="-18817">
		<tag k="fixme" v="consider place=hamlet" />
		<tag k="name" v="Gjermundrud" />
		<tag k="place" v="farm" />
		<tag k="ssr:stedsnr" v="309477" />
	</node>
	<node lat="60.50556110894504" lon="8.573444449332909" id="-18823">
		<tag k="historic" v="shieling" />
		<tag k="name" v="Sundshovda" />
		<tag k="place" v="isolated_dwelling" />
		<tag k="ssr:stedsnr" v="310178" />
	</node>
	<node lat="60.260733333634285" lon="8.882341666678848" id="-18824">
		<tag k="name" v="Persgardjordet" />
		<tag k="place" v="isolated_dwelling" />
		<tag k="ssr:stedsnr" v="310281" />
	</node>
	<node lat="60.30263610696179" lon="8.869733329608055" id="-18825">
		<tag k="historic" v="shieling" />
		<tag k="name" v="Nysetre" />
		<tag k="place" v="isolated_dwelling" />
		<tag k="ssr:stedsnr" v="310479" />
	</node>
	<node lat="60.28280833628422" lon="8.885536114713553" id="-18826">
		<tag k="name" v="Kvernerud" />
		<tag k="place" v="farm" />
		<tag k="ssr:stedsnr" v="466418" />
	</node>
	<node lat="60.284616667319774" lon="8.880700003513333" id="-18827">
		<tag k="name" v="Vikhaugen" />
		<tag k="place" v="farm" />
		<tag k="ssr:stedsnr" v="466898" />
	</node>
	<node lat="60.191325002068524" lon="9.010963892422224" id="-18829">
		<tag k="name" v="Dølen" />
		<tag k="place" v="isolated_dwelling" />
		<tag k="ssr:stedsnr" v="343106" />
	</node>
	<node lat="60.17936666811543" lon="9.004219450271151" id="-18830">
		<tag k="historic" v="shieling" />
		<tag k="name" v="Haugan" />
		<tag k="place" v="isolated_dwelling" />
		<tag k="ssr:stedsnr" v="343109" />
	</node>
	<node lat="60.268430552174465" lon="8.720236111590031" id="-18831">
		<tag k="name" v="Solstad" />
		<tag k="place" v="isolated_dwelling" />
		<tag k="ssr:stedsnr" v="345764" />
	</node>
	<node lat="60.26962221881921" lon="8.839163885270223" id="-18833">
		<tag k="name" v="Kjørren" />
		<tag k="place" v="farm" />
		<tag k="ssr:stedsnr" v="360052" />
	</node>
	<node lat="60.10578888665164" lon="9.022733330755258" id="-18838">
		<tag k="alt_name" v="Fallet seter" />
		<tag k="historic" v="shieling" />
		<tag k="loc_name" v="Falle" />
		<tag k="name" v="Fallet" />
		<tag k="place" v="isolated_dwelling" />
		<tag k="ssr:stedsnr" v="368569" />
	</node>
	<node lat="60.181163892207444" lon="8.96068334116975" id="-18840">
		<tag k="historic" v="shieling" />
		<tag k="name" v="Svåstulen" />
		<tag k="old_name" v="Svaastølen" />
		<tag k="place" v="isolated_dwelling" />
		<tag k="ssr:stedsnr" v="368618" />
	</node>
	<node lat="60.230299996165215" lon="9.043305548081811" id="-18843">
		<tag k="name" v="Søre Øktedalen" />
		<tag k="place" v="farm" />
		<tag k="ssr:stedsnr" v="368893" />
	</node>
	<node lat="60.23202609288856" lon="7.671120933012977" id="-18846">
		<tag k="name" v="Nilsbu" />
		<tag k="place" v="isolated_dwelling" />
		<tag k="ssr:stedsnr" v="369671" />
	</node>
	<node lat="60.24881389326377" lon="8.593174997913993" id="-18847">
		<tag k="alt_name" v="Hegnun" />
		<tag k="name" v="Fjellheim" />
		<tag k="place" v="farm" />
		<tag k="ssr:stedsnr" v="369809" />
	</node>
	<node lat="60.27519999678083" lon="7.984130547350721" id="-18849">
		<tag k="name" v="Dagfiskehyttun" />
		<tag k="place" v="isolated_dwelling" />
		<tag k="ssr:stedsnr" v="369766" />
	</node>
	<node lat="60.297594447917206" lon="8.199455547722394" id="-18854">
		<tag k="name" v="Bakkebu" />
		<tag k="place" v="isolated_dwelling" />
		<tag k="ssr:stedsnr" v="370017" />
	</node>
	<node lat="60.306955557547504" lon="8.409405553994771" id="-18856">
		<tag k="alt_name" v="Roi" />
		<tag k="name" v="Roe" />
		<tag k="place" v="isolated_dwelling" />
		<tag k="ssr:stedsnr" v="370026" />
	</node>
	<node lat="60.31566944061692" lon="8.44876389630428" id="-18859">
		<tag k="name" v="Staupet" />
		<tag k="place" v="farm" />
		<tag k="ssr:stedsnr" v="370038" />
	</node>
	<node lat="60.269719443993615" lon="8.434352783835381" id="-18861">
		<tag k="loc_name" v="Roe" />
		<tag k="name" v="Roi" />
		<tag k="place" v="locality" />
		<tag k="ssr:stedsnr" v="370067" />
	</node>
	<node lat="60.2630849326394" lon="8.309100588692381" id="-18864">
		<tag k="historic" v="shieling" />
		<tag k="name" v="Nye Langetjønnsetre" />
		<tag k="place" v="isolated_dwelling" />
		<tag k="ssr:stedsnr" v="370078" />
	</node>
	<node lat="60.4610872938827" lon="8.770037814338501" id="-18865">
		<tag k="fixme" v="consider place=hamlet" />
		<tag k="name" v="Megarden" />
		<tag k="place" v="farm" />
		<tag k="ssr:stedsnr" v="370084" />
	</node>
	<node lat="60.27471355150551" lon="9.014839481323127" id="-18867">
		<tag k="fixme" v="consider place=hamlet" />
		<tag k="name" v="Øygarden" />
		<tag k="old_name" v="Øygd" />
		<tag k="place" v="farm" />
		<tag k="ssr:stedsnr" v="370308" />
	</node>
	<node lat="60.27974999562668" lon="9.005850005680589" id="-18868">
		<tag k="name" v="Ligarden" />
		<tag k="place" v="farm" />
		<tag k="ssr:stedsnr" v="370313" />
	</node>
	<node lat="60.26870000211778" lon="8.966650008222256" id="-18870">
		<tag k="alt_name" v="Midtjordet" />
		<tag k="fixme" v="consider place=hamlet" />
		<tag k="name" v="Mejordet" />
		<tag k="place" v="farm" />
		<tag k="ssr:stedsnr" v="370327" />
	</node>
	<node lat="60.31908580217245" lon="8.447748654059815" id="-18872">
		<tag k="name" v="Hytta" />
		<tag k="place" v="locality" />
		<tag k="ssr:stedsnr" v="370264" />
	</node>
	<node lat="60.339005552912" lon="8.322002782661757" id="-18874">
		<tag k="name" v="Hallene" />
		<tag k="place" v="locality" />
		<tag k="ssr:stedsnr" v="370281" />
	</node>
	<node lat="60.33429999632365" lon="8.094158329877557" id="-18875">
		<tag k="name" v="Jensebu" />
		<tag k="place" v="isolated_dwelling" />
		<tag k="ssr:stedsnr" v="370283" />
	</node>
	<node lat="60.363647224388686" lon="9.007886116938142" id="-18878">
		<tag k="historic" v="shieling" />
		<tag k="loc_name" v="Maritjønn" />
		<tag k="name" v="Maritjønnstølen" />
		<tag k="place" v="isolated_dwelling" />
		<tag k="ssr:stedsnr" v="370414" />
	</node>
	<node lat="60.27837777533479" lon="8.586624999498692" id="-18885">
		<tag k="alt_name" v="Nordre Kveta" />
		<tag k="name" v="Nordre Gveta" />
		<tag k="place" v="farm" />
		<tag k="ssr:stedsnr" v="370513" />
	</node>
	<node lat="60.5022416622902" lon="8.649480562890714" id="-18887">
		<tag k="name" v="Rødungen" />
		<tag k="place" v="neighbourhood" />
		<tag k="ssr:stedsnr" v="480813" />
	</node>
	<node lat="60.25194166862374" lon="8.948169453113488" id="-18889">
		<tag k="alt_name" v="Kleivstull" />
		<tag k="historic" v="shieling" />
		<tag k="name" v="Nedre Kleivstul" />
		<tag k="place" v="isolated_dwelling" />
		<tag k="ssr:stedsnr" v="481587" />
	</node>
	<node lat="60.267232540256394" lon="8.858673946779687" id="-18890">
		<tag k="fixme" v="consider place=hamlet" />
		<tag k="name" v="Ljotegard" />
		<tag k="place" v="farm" />
		<tag k="ssr:stedsnr" v="481933" />
	</node>
	<node lat="60.265488888600736" lon="8.80357777258037" id="-18891">
		<tag k="name" v="Hagen" />
		<tag k="place" v="farm" />
		<tag k="ssr:stedsnr" v="482145" />
	</node>
	<node lat="60.27533333031859" lon="9.006744440752078" id="-18895">
		<tag k="name" v="Nordre Bekkeset" />
		<tag k="place" v="farm" />
		<tag k="ssr:stedsnr" v="482644" />
	</node>
	<node lat="60.320622226589656" lon="8.948930559966783" id="-18897">
		<tag k="alt_name" v="Nordre Loftsgard" />
		<tag k="name" v="Nørdre Loftsgarden" />
		<tag k="place" v="farm" />
		<tag k="ssr:stedsnr" v="483004" />
	</node>
	<node lat="60.31804722505595" lon="8.95670000221513" id="-18898">
		<tag k="name" v="Nordre Skarpås" />
		<tag k="place" v="farm" />
		<tag k="ssr:stedsnr" v="483042" />
	</node>
	<node lat="60.30704166540303" lon="8.530108330279937" id="-18900">
		<tag k="name" v="Søre Myran" />
		<tag k="place" v="farm" />
		<tag k="ssr:stedsnr" v="484847" />
	</node>
	<node lat="60.14724077140905" lon="9.011377941315935" id="-18901">
		<tag k="fixme" v="consider place=hamlet" />
		<tag k="name" v="Frygne" />
		<tag k="place" v="farm" />
		<tag k="ssr:stedsnr" v="400277" />
	</node>
	<node lat="60.32730555298432" lon="8.921069453232882" id="-18902">
		<tag k="alt_name" v="Dyrbu;Dyrebusetre" />
		<tag k="historic" v="shieling" />
		<tag k="name" v="Dyrebu" />
		<tag k="place" v="isolated_dwelling" />
		<tag k="ssr:stedsnr" v="402012" />
	</node>
	<node lat="60.099622218283564" lon="9.067397216001114" id="-18903">
		<tag k="name" v="Åsly" />
		<tag k="place" v="isolated_dwelling" />
		<tag k="ssr:stedsnr" v="404015" />
	</node>
	<node lat="60.30145947519951" lon="8.549506419696808" id="-18909">
		<tag k="fixme" v="consider place=hamlet" />
		<tag k="name" v="Søre Rønnegvammen" />
		<tag k="place" v="farm" />
		<tag k="ssr:stedsnr" v="404903" />
	</node>
	<node lat="60.31969903328755" lon="8.497597005057639" id="-18910">
		<tag k="alt_name" v="Søre Nørstebø" />
		<tag k="fixme" v="consider place=hamlet" />
		<tag k="name" v="Søre Nørdstebø" />
		<tag k="place" v="farm" />
		<tag k="ssr:stedsnr" v="412546" />
	</node>
	<node lat="60.26576388602405" lon="8.787997228742132" id="-18913">
		<tag k="name" v="Løvheim" />
		<tag k="place" v="farm" />
		<tag k="ssr:stedsnr" v="416106" />
	</node>
	<node lat="60.26494444166428" lon="8.766369436281014" id="-18917">
		<tag k="name" v="Søre Bjørnsrudslåtta" />
		<tag k="place" v="farm" />
		<tag k="ssr:stedsnr" v="422114" />
	</node>
	<node lat="60.26609167055781" lon="8.815286119995173" id="-18918">
		<tag k="alt_name" v="Mellem Kyllesdal" />
		<tag k="name" v="Mellom-Kyllesdal" />
		<tag k="place" v="farm" />
		<tag k="ssr:stedsnr" v="422147" />
	</node>
	<node lat="60.31177499609069" lon="8.968163883483381" id="-18919">
		<tag k="name" v="Nord-Hørjusgard" />
		<tag k="place" v="farm" />
		<tag k="ssr:stedsnr" v="423048" />
	</node>
	<node lat="60.244526907556825" lon="9.002123829695831" id="-18920">
		<tag k="fixme" v="consider place=hamlet" />
		<tag k="name" v="Gvammen" />
		<tag k="place" v="farm" />
		<tag k="ssr:stedsnr" v="423150" />
	</node>
	<node lat="60.2683530928597" lon="8.850204462719438" id="-18921">
		<tag k="fixme" v="consider place=hamlet" />
		<tag k="loc_name" v="Vesleåsen" />
		<tag k="name" v="Lilleåsen" />
		<tag k="place" v="farm" />
		<tag k="ssr:stedsnr" v="423302" />
	</node>
	<node lat="60.491897225635114" lon="8.522341673611816" id="-18928">
		<tag k="name" v="Skogstad" />
		<tag k="place" v="farm" />
		<tag k="ssr:stedsnr" v="491040" />
	</node>
	<node lat="60.48816389264084" lon="8.512180549163082" id="-18929">
		<tag k="name" v="Grefsgarddokken" />
		<tag k="old_name" v="Grevskardokken" />
		<tag k="place" v="farm" />
		<tag k="ssr:stedsnr" v="491044" />
	</node>
	<node lat="60.08320832990777" lon="9.06126944816609" id="-18932">
		<tag k="historic" v="shieling" />
		<tag k="loc_name" v="Juverud" />
		<tag k="name" v="Gjuverud" />
		<tag k="place" v="isolated_dwelling" />
		<tag k="ssr:stedsnr" v="490699" />
	</node>
	<node lat="60.0993555530546" lon="9.067102769191347" id="-18934">
		<tag k="name" v="Åsly" />
		<tag k="place" v="isolated_dwelling" />
		<tag k="ssr:stedsnr" v="490705" />
	</node>
	<node lat="60.23900277428351" lon="8.634227783744057" id="-18936">
		<tag k="alt_name" v="Sedalsseter" />
		<tag k="historic" v="shieling" />
		<tag k="name" v="Sedalen" />
		<tag k="place" v="isolated_dwelling" />
		<tag k="ssr:stedsnr" v="490849" />
	</node>
	<node lat="60.18523333045766" lon="9.11603611297469" id="-18940">
		<tag k="alt_name" v="Verjeset;Vergjestulen" />
		<tag k="historic" v="shieling" />
		<tag k="name" v="Vergjeset" />
		<tag k="place" v="isolated_dwelling" />
		<tag k="ssr:stedsnr" v="429560" />
	</node>
	<node lat="60.1543583312326" lon="9.044516662470722" id="-18942">
		<tag k="historic" v="shieling" />
		<tag k="loc_name" v="Straumsheimsetre" />
		<tag k="name" v="Straumstulen" />
		<tag k="place" v="isolated_dwelling" />
		<tag k="ssr:stedsnr" v="429586" />
	</node>
	<node lat="60.14795555857726" lon="9.01256945175122" id="-18943">
		<tag k="alt_name" v="Mellem Frygne" />
		<tag k="name" v="Mellom-Frygne" />
		<tag k="place" v="farm" />
		<tag k="ssr:stedsnr" v="429590" />
	</node>
	<node lat="60.212810348290574" lon="9.010891829596806" id="-18946">
		<tag k="fixme" v="consider place=hamlet" />
		<tag k="name" v="Kollandsrud" />
		<tag k="place" v="farm" />
		<tag k="ssr:stedsnr" v="490897" />
	</node>
	<node lat="60.20648674207136" lon="8.997375830692231" id="-18947">
		<tag k="fixme" v="consider place=hamlet" />
		<tag k="name" v="Bakke" />
		<tag k="place" v="farm" />
		<tag k="ssr:stedsnr" v="490899" />
	</node>
	<node lat="60.16250833307004" lon="8.905441669103727" id="-18948">
		<tag k="name" v="Feten" />
		<tag k="place" v="locality" />
		<tag k="ssr:stedsnr" v="429607" />
	</node>
	<node lat="60.2030777754989" lon="8.99146667467723" id="-18950">
		<tag k="name" v="Nedre Groven" />
		<tag k="place" v="farm" />
		<tag k="ssr:stedsnr" v="429909" />
	</node>
	<node lat="60.20716944141286" lon="9.00140277813798" id="-18952">
		<tag k="alt_name" v="Øvre Loftsgard" />
		<tag k="name" v="Øvre Loftsgarden" />
		<tag k="place" v="farm" />
		<tag k="ssr:stedsnr" v="429926" />
	</node>
	<node lat="60.23544665297262" lon="9.00271684053585" id="-18959">
		<tag k="fixme" v="consider place=hamlet" />
		<tag k="name" v="Vrenne" />
		<tag k="place" v="farm" />
		<tag k="ssr:stedsnr" v="490998" />
	</node>
	<node lat="60.481855553331926" lon="8.687861117932975" id="-18966">
		<tag k="historic" v="shieling" />
		<tag k="name" v="Sørestøl" />
		<tag k="place" v="isolated_dwelling" />
		<tag k="ssr:stedsnr" v="431106" />
	</node>
	<node lat="60.31268888908805" lon="8.382894451532303" id="-18974">
		<tag k="name" v="Grønebakk" />
		<tag k="place" v="isolated_dwelling" />
		<tag k="ssr:stedsnr" v="431257" />
	</node>
	<node lat="60.263994448006734" lon="8.961072218301634" id="-18975">
		<tag k="alt_name" v="Søre Brugara" />
		<tag k="name" v="Søre Brugard" />
		<tag k="place" v="farm" />
		<tag k="ssr:stedsnr" v="431310" />
	</node>
	<node lat="60.34618333457642" lon="8.387083340511417" id="-18978">
		<tag k="historic" v="shieling" />
		<tag k="name" v="Ormetjønnstølen" />
		<tag k="place" v="isolated_dwelling" />
		<tag k="ssr:stedsnr" v="491239" />
	</node>
	<node lat="60.337180557939675" lon="8.277155550831571" id="-18979">
		<tag k="historic" v="shieling" />
		<tag k="name" v="Rundhovda" />
		<tag k="place" v="isolated_dwelling" />
		<tag k="ssr:stedsnr" v="491240" />
	</node>
	<node lat="60.259622224915006" lon="8.783699995569807" id="-18980">
		<tag k="name" v="Grandokk" />
		<tag k="place" v="isolated_dwelling" />
		<tag k="ssr:stedsnr" v="431290" />
	</node>
	<node lat="60.26048611308715" lon="8.801222223426178" id="-18981">
		<tag k="name" v="Elvestad" />
		<tag k="place" v="farm" />
		<tag k="ssr:stedsnr" v="431292" />
	</node>
	<node lat="60.34504999944348" lon="8.866258330162474" id="-18982">
		<tag k="historic" v="shieling" />
		<tag k="name" v="Nordsetre" />
		<tag k="place" v="isolated_dwelling" />
		<tag k="ssr:stedsnr" v="431406" />
	</node>
	<node lat="60.41300833233667" lon="8.807636107194444" id="-18984">
		<tag k="alt_name" v="Fjølabuseter" />
		<tag k="historic" v="shieling" />
		<tag k="name" v="Fjølabu" />
		<tag k="place" v="isolated_dwelling" />
		<tag k="ssr:stedsnr" v="431408" />
	</node>
	<node lat="60.33440277660968" lon="8.911416661626964" id="-18985">
		<tag k="alt_name" v="Skigardstølen" />
		<tag k="historic" v="shieling" />
		<tag k="name" v="Skigardsetre" />
		<tag k="place" v="isolated_dwelling" />
		<tag k="ssr:stedsnr" v="431440" />
	</node>
	<node lat="60.35452500215315" lon="8.683575005645128" id="-18986">
		<tag k="alt_name" v="Søre Steinsetdalseter" />
		<tag k="historic" v="shieling" />
		<tag k="loc_name" v="Søre Steinsetdalen" />
		<tag k="name" v="Steinset" />
		<tag k="place" v="isolated_dwelling" />
		<tag k="ssr:stedsnr" v="431441" />
	</node>
	<node lat="60.29434999916411" lon="8.543999994849504" id="-18993">
		<tag k="name" v="Granheim" />
		<tag k="place" v="farm" />
		<tag k="ssr:stedsnr" v="431490" />
	</node>
	<node lat="60.28153055635032" lon="8.572111108224737" id="-18996">
		<tag k="fixme" v="multiple name tags, choose one and add the other to alt_name; consider place=hamlet" />
		<tag k="name" v="Øyen;Øylandet" />
		<tag k="place" v="farm" />
		<tag k="ssr:stedsnr" v="431501" />
	</node>
	<node lat="60.27628333165177" lon="8.901522218209886" id="-18997">
		<tag k="name" v="Vollan" />
		<tag k="place" v="farm" />
		<tag k="ssr:stedsnr" v="491254" />
	</node>
	<node lat="60.26260681358539" lon="8.813582104260698" id="-18999">
		<tag k="name" v="Kyllesdal" />
		<tag k="place" v="hamlet" />
		<tag k="ssr:stedsnr" v="491269" />
	</node>
	<node lat="60.39973611187495" lon="8.566458328545433" id="-19004">
		<tag k="name" v="Ruaåsen" />
		<tag k="place" v="isolated_dwelling" />
		<tag k="ssr:stedsnr" v="491401" />
	</node>
	<node lat="60.32226739182073" lon="8.936193077261134" id="-19005">
		<tag k="fixme" v="consider place=hamlet" />
		<tag k="name" v="Storli" />
		<tag k="old_name" v="Storlii" />
		<tag k="place" v="farm" />
		<tag k="ssr:stedsnr" v="491455" />
	</node>
	<node lat="60.28164721882518" lon="8.529875007608368" id="-19007">
		<tag k="historic" v="shieling" />
		<tag k="name" v="Fjellsetre" />
		<tag k="place" v="isolated_dwelling" />
		<tag k="ssr:stedsnr" v="491474" />
	</node>
	<node lat="60.28246000500843" lon="9.13395587893525" id="-19008">
		<tag k="alt_name" v="Øktedalstølan" />
		<tag k="historic" v="shieling" />
		<tag k="name" v="Øktedalssetran" />
		<tag k="place" v="isolated_dwelling" />
		<tag k="ssr:stedsnr" v="491520" />
	</node>
	<node lat="60.28212500160574" lon="8.017838894725214" id="-19010">
		<tag k="name" v="Høljabu" />
		<tag k="place" v="isolated_dwelling" />
		<tag k="ssr:stedsnr" v="491766" />
	</node>
	<node lat="60.27744722199344" lon="8.0759472235779" id="-19011">
		<tag k="name" v="Heigeitlen" />
		<tag k="place" v="isolated_dwelling" />
		<tag k="ssr:stedsnr" v="491769" />
	</node>
	<node lat="60.25582499933722" lon="8.88679445078229" id="-19014">
		<tag k="name" v="Neset" />
		<tag k="place" v="isolated_dwelling" />
		<tag k="ssr:stedsnr" v="492255" />
	</node>
	<node lat="60.26160555907226" lon="8.89405834108083" id="-19015">
		<tag k="alt_name" v="Strond" />
		<tag k="name" v="Strand" />
		<tag k="place" v="farm" />
		<tag k="ssr:stedsnr" v="492256" />
	</node>
	<node lat="60.25733475366146" lon="9.004020566988165" id="-19016">
		<tag k="fixme" v="consider place=hamlet" />
		<tag k="name" v="Skjønne" />
		<tag k="place" v="farm" />
		<tag k="ssr:stedsnr" v="492264" />
	</node>
	<node lat="60.38373333235238" lon="8.982513880648193" id="-19019">
		<tag k="alt_name" v="Knutstølen" />
		<tag k="historic" v="shieling" />
		<tag k="name" v="Knutstul" />
		<tag k="place" v="isolated_dwelling" />
		<tag k="ssr:stedsnr" v="492355" />
	</node>
	<node lat="60.145388889025575" lon="7.791172219919725" id="-19020">
		<tag k="name" v="Råstugu" />
		<tag k="place" v="isolated_dwelling" />
		<tag k="ssr:stedsnr" v="445590" />
	</node>
	<node lat="60.40133889032079" lon="8.97965556417319" id="-19021">
		<tag k="fixme" v="consider tourism=alpine_hut or tourism=chalet" />
		<tag k="loc_name" v="Dalsvøllen" />
		<tag k="name" v="Dalabu" />
		<tag k="ssr:stedsnr" v="449236" />
		<tag k="tourism" v="wilderness_hut" />
	</node>
	<node lat="60.17498055879721" lon="8.898544442363171" id="-19022">
		<tag k="alt_name" v="Kurverudstulen" />
		<tag k="historic" v="shieling" />
		<tag k="name" v="Kurverudsetre" />
		<tag k="place" v="isolated_dwelling" />
		<tag k="ssr:stedsnr" v="671573" />
	</node>
	<node lat="60.191586111128196" lon="8.994122228939899" id="-19024">
		<tag k="name" v="Kurverudkåsin" />
		<tag k="place" v="farm" />
		<tag k="ssr:stedsnr" v="671585" />
	</node>
	<node lat="60.24661388448733" lon="9.032105562141199" id="-19028">
		<tag k="alt_name" v="Ivarsgard" />
		<tag k="name" v="Ivarsgarden" />
		<tag k="place" v="isolated_dwelling" />
		<tag k="ssr:stedsnr" v="671973" />
	</node>
	<node lat="60.24065423696464" lon="7.6465453386776385" id="-19032">
		<tag k="name" v="Knutsbu" />
		<tag k="place" v="isolated_dwelling" />
		<tag k="ssr:stedsnr" v="672240" />
	</node>
	<node lat="60.09954528852137" lon="9.059604001820608" id="-19033">
		<tag k="name" v="Nedre Sunde" />
		<tag k="place" v="farm" />
		<tag k="ssr:stedsnr" v="672681" />
	</node>
	<node lat="60.09944593536466" lon="9.056783529536057" id="-19034">
		<tag k="name" v="Øvre Sunde" />
		<tag k="place" v="farm" />
		<tag k="ssr:stedsnr" v="672682" />
	</node>
	<node lat="60.09716944143054" lon="9.053744443031544" id="-19035">
		<tag k="name" v="Nordre Myran" />
		<tag k="place" v="farm" />
		<tag k="ssr:stedsnr" v="672683" />
	</node>
	<node lat="60.137975003768496" lon="9.104736110315699" id="-19036">
		<tag k="historic" v="shieling" />
		<tag k="name" v="Kulteplassen" />
		<tag k="place" v="isolated_dwelling" />
		<tag k="ssr:stedsnr" v="672462" />
	</node>
	<node lat="60.133522226610765" lon="9.039747220455238" id="-19037">
		<tag k="name" v="Evju" />
		<tag k="place" v="farm" />
		<tag k="ssr:stedsnr" v="672470" />
	</node>
	<node lat="60.13770000164245" lon="9.030741664462731" id="-19039">
		<tag k="name" v="Vårviki" />
		<tag k="place" v="isolated_dwelling" />
		<tag k="ssr:stedsnr" v="672481" />
	</node>
	<node lat="60.168355551793105" lon="9.020577777116952" id="-19041">
		<tag k="name" v="Midtre Hvaale" />
		<tag k="place" v="farm" />
		<tag k="ssr:stedsnr" v="672530" />
	</node>
	<node lat="60.2197388885334" lon="8.904211105135042" id="-19046">
		<tag k="name" v="Geithaugen" />
		<tag k="place" v="isolated_dwelling" />
		<tag k="ssr:stedsnr" v="672878" />
	</node>
	<node lat="60.23494166828702" lon="9.046138886912379" id="-19047">
		<tag k="alt_name" v="Mellem Øktedalen" />
		<tag k="loc_name" v="Myljom Øktdalen" />
		<tag k="name" v="Midtre Øktedalen" />
		<tag k="place" v="farm" />
		<tag k="ssr:stedsnr" v="672887" />
	</node>
	<node lat="60.221325002985196" lon="9.019016672254002" id="-19048">
		<tag k="name" v="Vasskleiv" />
		<tag k="place" v="isolated_dwelling" />
		<tag k="ssr:stedsnr" v="672892" />
	</node>
	<node lat="60.21809444728846" lon="9.162677779928707" id="-19050">
		<tag k="historic" v="shieling" />
		<tag k="name" v="Turrfurusetre" />
		<tag k="place" v="isolated_dwelling" />
		<tag k="ssr:stedsnr" v="672916" />
	</node>
	<node lat="60.22627500415197" lon="8.984361116974455" id="-19051">
		<tag k="historic" v="shieling" />
		<tag k="name" v="Svarterud" />
		<tag k="place" v="isolated_dwelling" />
		<tag k="ssr:stedsnr" v="672901" />
	</node>
	<node lat="60.20114999635081" lon="8.902541671369038" id="-19055">
		<tag k="historic" v="shieling" />
		<tag k="name" v="Bakkesetre" />
		<tag k="place" v="isolated_dwelling" />
		<tag k="ssr:stedsnr" v="672918" />
	</node>
	<node lat="60.203185152639264" lon="9.029480403563465" id="-19056">
		<tag k="name" v="Nordre Teigen" />
		<tag k="place" v="farm" />
		<tag k="ssr:stedsnr" v="672921" />
	</node>
	<node lat="60.19762777882766" lon="9.021977782756835" id="-19061">
		<tag k="name" v="Nerås" />
		<tag k="place" v="farm" />
		<tag k="ssr:stedsnr" v="672945" />
	</node>
	<node lat="60.491122219340554" lon="8.526466674924963" id="-19062">
		<tag k="name" v="Fredheim" />
		<tag k="place" v="farm" />
		<tag k="ssr:stedsnr" v="673040" />
	</node>
	<node lat="60.49606110897187" lon="8.63487778022981" id="-19063">
		<tag k="fixme" v="multiple name tags, choose one and add the other to alt_name" />
		<tag k="historic" v="shieling" />
		<tag k="name" v="Bjørnalistølen;Bjørnalie" />
		<tag k="place" v="isolated_dwelling" />
		<tag k="ssr:stedsnr" v="673042" />
	</node>
	<node lat="60.27794999570847" lon="8.910086106080177" id="-19068">
		<tag k="name" v="Nordre Flåta" />
		<tag k="place" v="farm" />
		<tag k="ssr:stedsnr" v="673281" />
	</node>
	<node lat="60.36984444553282" lon="8.99586665980754" id="-19073">
		<tag k="historic" v="shieling" />
		<tag k="name" v="Fuglset" />
		<tag k="place" v="isolated_dwelling" />
		<tag k="ssr:stedsnr" v="673381" />
	</node>
	<node lat="60.404105554764136" lon="8.646136111096128" id="-19075">
		<tag k="historic" v="shieling" />
		<tag k="name" v="Øvre Ræpehol" />
		<tag k="place" v="isolated_dwelling" />
		<tag k="ssr:stedsnr" v="673387" />
	</node>
	<node lat="60.30164791678163" lon="8.975723771560768" id="-19077">
		<tag k="fixme" v="consider place=hamlet" />
		<tag k="name" v="Sønsterud" />
		<tag k="place" v="farm" />
		<tag k="ssr:stedsnr" v="673479" />
	</node>
	<node lat="60.29193333257012" lon="9.055113881135673" id="-19078">
		<tag k="alt_name" v="Dansarfløtin" />
		<tag k="historic" v="shieling" />
		<tag k="name" v="Dansarflotin" />
		<tag k="place" v="isolated_dwelling" />
		<tag k="ssr:stedsnr" v="673497" />
	</node>
	<node lat="60.28424999645119" lon="9.000091666133459" id="-19079">
		<tag k="alt_name" v="Landgarden" />
		<tag k="name" v="Landsgard" />
		<tag k="place" v="farm" />
		<tag k="ssr:stedsnr" v="673501" />
	</node>
	<node lat="60.33842499900054" lon="8.832099999308115" id="-19081">
		<tag k="historic" v="shieling" />
		<tag k="name" v="Brennhovd" />
		<tag k="place" v="isolated_dwelling" />
		<tag k="ssr:stedsnr" v="673430" />
	</node>
	<node lat="60.31638333108149" lon="8.506886118257002" id="-19082">
		<tag k="name" v="Nedre Flåta" />
		<tag k="place" v="farm" />
		<tag k="ssr:stedsnr" v="673434" />
	</node>
	<node lat="60.37157222372942" lon="7.735452769072928" id="-19085">
		<tag k="name" v="Storholmlægret" />
		<tag k="place" v="isolated_dwelling" />
		<tag k="ssr:stedsnr" v="673765" />
	</node>
	<node lat="60.3895734535771" lon="7.961111884261909" id="-19088">
		<tag k="name" v="Grønenuten felæger" />
		<tag k="place" v="isolated_dwelling" />
		<tag k="ssr:stedsnr" v="673786" />
	</node>
	<node lat="60.26138889093447" lon="8.958391668665874" id="-19090">
		<tag k="alt_name" v="Dokke" />
		<tag k="name" v="Dokki" />
		<tag k="place" v="farm" />
		<tag k="ssr:stedsnr" v="674283" />
	</node>
	<node lat="60.406522225273974" lon="8.932258324386066" id="-19092">
		<tag k="alt_name" v="Gaukeset;Gauksetseter" />
		<tag k="historic" v="shieling" />
		<tag k="name" v="Gaukset" />
		<tag k="place" v="isolated_dwelling" />
		<tag k="ssr:stedsnr" v="674337" />
	</node>
	<node lat="60.20163908645794" lon="9.029527377164799" id="-19098">
		<tag k="fixme" v="consider place=hamlet" />
		<tag k="name" v="Teigen" />
		<tag k="place" v="farm" />
		<tag k="ssr:stedsnr" v="465660" />
	</node>
	<node lat="60.296733334496466" lon="8.55062777905999" id="-19099">
		<tag k="name" v="Myrhaug" />
		<tag k="place" v="farm" />
		<tag k="ssr:stedsnr" v="465908" />
	</node>
	<node lat="60.30433055904995" lon="8.528122216736532" id="-19100">
		<tag k="name" v="Myranslåtta" />
		<tag k="place" v="farm" />
		<tag k="ssr:stedsnr" v="465913" />
	</node>
	<node lat="60.261558334010374" lon="8.78744722879183" id="-19103">
		<tag k="name" v="Næringsparken" />
		<tag k="place" v="quarter" />
		<tag k="ssr:stedsnr" v="477111" />
	</node>
	<node lat="60.3152527793294" lon="9.009177778750566" id="-19104">
		<tag k="alt_name" v="Søre Åmot" />
		<tag k="historic" v="shieling" />
		<tag k="name" v="Sør-Åmot" />
		<tag k="place" v="isolated_dwelling" />
		<tag k="ssr:stedsnr" v="477978" />
	</node>
	<node lat="60.26724167002178" lon="8.845861113483737" id="-19105">
		<tag k="name" v="Nordre Fønstelien" />
		<tag k="place" v="farm" />
		<tag k="ssr:stedsnr" v="481069" />
	</node>
	<node lat="60.40249228562586" lon="8.645375286548704" id="-19107">
		<tag k="historic" v="shieling" />
		<tag k="name" v="Ræpehol" />
		<tag k="place" v="isolated_dwelling" />
		<tag k="ssr:stedsnr" v="481369" />
	</node>
	<node lat="60.27523611493025" lon="8.751416666381726" id="-19108">
		<tag k="name" v="Søre Rui" />
		<tag k="place" v="farm" />
		<tag k="ssr:stedsnr" v="482125" />
	</node>
	<node lat="60.21772221912459" lon="8.983161109681552" id="-19109">
		<tag k="historic" v="shieling" />
		<tag k="name" v="Hollesrud" />
		<tag k="place" v="isolated_dwelling" />
		<tag k="ssr:stedsnr" v="482379" />
	</node>
	<node lat="60.26662967968911" lon="8.876731145595981" id="-19111">
		<tag k="fixme" v="consider place=hamlet" />
		<tag k="name" v="Søre Fønnebø" />
		<tag k="place" v="farm" />
		<tag k="ssr:stedsnr" v="484006" />
	</node>
	<node lat="60.267129762600874" lon="8.862094454359644" id="-19112">
		<tag k="fixme" v="consider place=hamlet" />
		<tag k="name" v="Haugen" />
		<tag k="place" v="farm" />
		<tag k="ssr:stedsnr" v="484007" />
	</node>
	<node lat="60.28167467689072" lon="8.922232496372912" id="-19113">
		<tag k="historic" v="shieling" />
		<tag k="loc_name" v="Pinslesetre" />
		<tag k="name" v="Pinslaseter" />
		<tag k="place" v="isolated_dwelling" />
		<tag k="ssr:stedsnr" v="484660" />
	</node>
	<node lat="60.19084883509457" lon="9.005488701043545" id="-19116">
		<tag k="fixme" v="consider place=hamlet" />
		<tag k="name" v="Ulbåsen" />
		<tag k="old_name" v="Ulebaasen" />
		<tag k="place" v="farm" />
		<tag k="ssr:stedsnr" v="489609" />
	</node>
	<node lat="60.36379721979722" lon="8.390575008091691" id="-19121">
		<tag k="historic" v="shieling" />
		<tag k="name" v="Syningan" />
		<tag k="place" v="isolated_dwelling" />
		<tag k="ssr:stedsnr" v="490193" />
	</node>
	<node lat="60.16053333358878" lon="8.942891669673088" id="-19126">
		<tag k="historic" v="shieling" />
		<tag k="name" v="Gamlestulen" />
		<tag k="place" v="isolated_dwelling" />
		<tag k="ssr:stedsnr" v="490589" />
	</node>
	<node lat="60.16755000241822" lon="9.019538881037493" id="-19127">
		<tag k="fixme" v="multiple name tags, choose one and add the other to alt_name" />
		<tag k="name" v="Søndre Hvaale;Nedre Hvåle" />
		<tag k="old_name" v="Søndre Hvåle" />
		<tag k="place" v="farm" />
		<tag k="ssr:stedsnr" v="490598" />
	</node>
	<node lat="60.24619565884962" lon="8.555945166136137" id="-19128">
		<tag k="historic" v="shieling" />
		<tag k="name" v="Ræpehol" />
		<tag k="place" v="isolated_dwelling" />
		<tag k="ssr:stedsnr" v="490825" />
	</node>
	<node lat="60.29274722527151" lon="8.16033888193105" id="-19129">
		<tag k="fixme" v="consider tourism=alpine_hut or tourism=chalet" />
		<tag k="name" v="Ulvelilægeret" />
		<tag k="old_name" v="Ulvelilægret" />
		<tag k="ssr:stedsnr" v="491019" />
		<tag k="tourism" v="wilderness_hut" />
	</node>
	<node lat="60.20593332910294" lon="9.002272226033083" id="-19131">
		<tag k="alt_name" v="Nedre Loftsgard" />
		<tag k="name" v="Nedre Loftsgarden" />
		<tag k="place" v="farm" />
		<tag k="ssr:stedsnr" v="490905" />
	</node>
	<node lat="60.19405833303758" lon="9.001291670009424" id="-19134">
		<tag k="alt_name" v="Øianhaugen;Haugen" />
		<tag k="name" v="Øyanhaugen" />
		<tag k="place" v="farm" />
		<tag k="ssr:stedsnr" v="490931" />
	</node>
	<node lat="60.26717777436461" lon="8.947258332946522" id="-19147">
		<tag k="name" v="Rødberg" />
		<tag k="place" v="village" />
		<tag k="ssr:stedsnr" v="491289" />
	</node>
	<node lat="60.26630756733711" lon="8.824699320309264" id="-19152">
		<tag k="alt_name" v="Dokki" />
		<tag k="fixme" v="consider place=hamlet" />
		<tag k="loc_name" v="Døkken" />
		<tag k="name" v="Dokken" />
		<tag k="place" v="farm" />
		<tag k="ssr:stedsnr" v="491526" />
	</node>
	<node lat="60.30375833743288" lon="8.983697226570479" id="-19153">
		<tag k="historic" v="shieling" />
		<tag k="name" v="Sekkjesetre" />
		<tag k="old_name" v="Sønsterudsætri" />
		<tag k="place" v="isolated_dwelling" />
		<tag k="ssr:stedsnr" v="491481" />
	</node>
</osm>
