<?xml version="1.0" encoding="UTF-8"?>
<osm version="0.6" generator="osmapis">
	<node lat="60.07718055889233" lon="9.064447222428214" id="-35102">
		<tag k="fixme" v="consider boundary=protected_area and relevant protect_class if not nature reserve" />
		<tag k="leisure" v="nature_reserve" />
		<tag k="name" v="Juveruddalen naturreservat" />
		<tag k="ssr:stedsnr" v="586002" />
	</node>
	<node lat="60.17305833245696" lon="7.410455562662454" id="-35959">
		<tag k="fixme" v="consider boundary=protected_area and relevant protect_class if not nature reserve" />
		<tag k="leisure" v="nature_reserve" />
		<tag k="name" v="Hardangervidda nasjonalpark" />
		<tag k="ssr:stedsnr" v="186651" />
	</node>
	<node lat="60.14718403824697" lon="9.232016706981604" id="-36898">
		<tag k="fixme" v="consider boundary=protected_area and relevant protect_class if not nature reserve" />
		<tag k="leisure" v="nature_reserve" />
		<tag k="name" v="Trillemarka-Rollagsfjell naturreservat" />
		<tag k="ssr:stedsnr" v="981232" />
	</node>
	<node lat="60.25123225281816" lon="8.910230805885723" id="-36914">
		<tag k="fixme" v="consider boundary=protected_area and relevant protect_class if not nature reserve" />
		<tag k="leisure" v="nature_reserve" />
		<tag k="name" v="Oslien naturreservat" />
		<tag k="ssr:stedsnr" v="991089" />
	</node>
	<node lat="60.12616438912483" lon="9.007552573052045" id="-37012">
		<tag k="fixme" v="consider boundary=protected_area and relevant protect_class if not nature reserve" />
		<tag k="leisure" v="nature_reserve" />
		<tag k="name" v="HellekleivÃ¥e naturreservat" />
		<tag k="ssr:stedsnr" v="1084241" />
	</node>
</osm>
