<?xml version="1.0" encoding="UTF-8"?>
<osm version="0.6" generator="osmapis">
	<node lat="60.16929166857948" lon="9.012344451275037" id="-14703">
		<tag k="alt_name" v="Nore kirke;Nore" />
		<tag k="amenity" v="place_of_worship" />
		<tag k="denomination" v="lutheran" />
		<tag k="name" v="Nore kyrkje" />
		<tag k="religion" v="christian" />
		<tag k="ssr:stedsnr" v="4562" />
	</node>
	<node lat="60.2457416711874" lon="7.9344444480821785" id="-14758">
		<tag k="name" v="Reinavasslægret" />
		<tag k="place" v="locality" />
		<tag k="ssr:stedsnr" v="65634" />
	</node>
	<node lat="60.15761388670119" lon="7.8529611107925055" id="-14940">
		<tag k="name" v="Vegarhovdlægret" />
		<tag k="place" v="locality" />
		<tag k="ssr:stedsnr" v="186628" />
	</node>
	<node lat="60.269547221537685" lon="8.026955555532265" id="-14990">
		<tag k="name" v="Slagsvollægret" />
		<tag k="place" v="locality" />
		<tag k="ssr:stedsnr" v="188809" />
	</node>
	<node lat="60.16457778188281" lon="9.010255563671132" id="-14993">
		<tag k="alt_name" v="Nore stavkirke" />
		<tag k="amenity" v="place_of_worship" />
		<tag k="denomination" v="lutheran" />
		<tag k="name" v="Nore stavkyrkje" />
		<tag k="religion" v="christian" />
		<tag k="ssr:stedsnr" v="267386" />
	</node>
	<node lat="60.258180555006824" lon="8.910086112553381" id="-15193">
		<tag k="name" v="Fønset" />
		<tag k="place" v="locality" />
		<tag k="ssr:stedsnr" v="404575" />
	</node>
	<node lat="60.45736944093117" lon="8.746336102892215" id="-15340">
		<tag k="alt_name" v="Tunhovd" />
		<tag k="amenity" v="place_of_worship" />
		<tag k="denomination" v="lutheran" />
		<tag k="name" v="Tunhovd kirke" />
		<tag k="old_name" v="Tunhovd kapell" />
		<tag k="religion" v="christian" />
		<tag k="ssr:stedsnr" v="673077" />
	</node>
	<node lat="60.306400001626145" lon="7.953524990961292" id="-15370">
		<tag k="name" v="Geitsjølægret" />
		<tag k="place" v="locality" />
		<tag k="ssr:stedsnr" v="673750" />
	</node>
	<node lat="60.23353610869084" lon="8.334799994062106" id="-15421">
		<tag k="name" v="Nedre Gvonnevieren" />
		<tag k="place" v="locality" />
		<tag k="ssr:stedsnr" v="490941" />
	</node>
	<node lat="60.24785833698695" lon="8.855544443026526" id="-15450">
		<tag k="name" v="Hollarkøs" />
		<tag k="place" v="locality" />
		<tag k="ssr:stedsnr" v="525575" />
	</node>
	<node lat="60.085077776707585" lon="9.081586110091953" id="-15583">
		<tag k="name" v="Flata" />
		<tag k="place" v="locality" />
		<tag k="ssr:stedsnr" v="707006" />
	</node>
	<node lat="60.31254722674558" lon="8.459750004210068" id="-15593">
		<tag k="name" v="Bruvollen" />
		<tag k="place" v="locality" />
		<tag k="ssr:stedsnr" v="709566" />
	</node>
	<node lat="60.2281472223506" lon="7.9058416581696935" id="-15601">
		<tag k="name" v="Tjuvhyttlægret" />
		<tag k="place" v="locality" />
		<tag k="ssr:stedsnr" v="671669" />
	</node>
	<node lat="60.28445555513933" lon="9.009061115834328" id="-15649">
		<tag k="name" v="Fløtebekken" />
		<tag k="place" v="locality" />
		<tag k="ssr:stedsnr" v="726886" />
	</node>
	<node lat="60.14952777821008" lon="7.74935277259145" id="-15661">
		<tag k="name" v="Meinsbulægret" />
		<tag k="place" v="locality" />
		<tag k="ssr:stedsnr" v="733538" />
	</node>
	<node lat="60.269491667266976" lon="8.75287223080065" id="-15691">
		<tag k="alt_name" v="Uvdal kyrkje;Uvdal" />
		<tag k="amenity" v="place_of_worship" />
		<tag k="denomination" v="lutheran" />
		<tag k="name" v="Uvdal kirke" />
		<tag k="religion" v="christian" />
		<tag k="ssr:stedsnr" v="734535" />
	</node>
	<node lat="60.24569722424137" lon="8.056986118923911" id="-15769">
		<tag k="name" v="Skrykkjevieren" />
		<tag k="place" v="locality" />
		<tag k="ssr:stedsnr" v="914685" />
	</node>
	<node lat="60.25892777848176" lon="8.999205547354268" id="-15820">
		<tag k="alt_name" v="Skjønne kirke;Skjønne" />
		<tag k="amenity" v="place_of_worship" />
		<tag k="denomination" v="lutheran" />
		<tag k="name" v="Skjønne kyrkje" />
		<tag k="religion" v="christian" />
		<tag k="ssr:stedsnr" v="917257" />
	</node>
	<node lat="60.238969447119054" lon="8.289952778488797" id="-15852">
		<tag k="name" v="Bustadlegeret" />
		<tag k="place" v="locality" />
		<tag k="ssr:stedsnr" v="855537" />
	</node>
	<node lat="60.3008638891906" lon="8.537997228396803" id="-15900">
		<tag k="name" v="Tyrihovd" />
		<tag k="place" v="locality" />
		<tag k="ssr:stedsnr" v="890916" />
	</node>
	<node lat="60.198402780896096" lon="7.940630561408494" id="-15921">
		<tag k="name" v="Eidsjølægret" />
		<tag k="place" v="locality" />
		<tag k="ssr:stedsnr" v="914603" />
	</node>
	<node lat="60.28470555529701" lon="8.915250002211534" id="-15952">
		<tag k="name" v="Grindeset" />
		<tag k="place" v="locality" />
		<tag k="ssr:stedsnr" v="916519" />
	</node>
	<node lat="60.24562778197442" lon="8.15020000705764" id="-16023">
		<tag k="name" v="Breidhovdlegeret" />
		<tag k="place" v="locality" />
		<tag k="ssr:stedsnr" v="5532" />
	</node>
	<node lat="60.35204722238984" lon="7.96494999261819" id="-16027">
		<tag k="name" v="Albrektslægret" />
		<tag k="place" v="locality" />
		<tag k="ssr:stedsnr" v="5785" />
	</node>
	<node lat="60.25190277991886" lon="7.75315000552449" id="-16074">
		<tag k="name" v="Midstrandlægret" />
		<tag k="place" v="locality" />
		<tag k="ssr:stedsnr" v="6781" />
	</node>
	<node lat="60.32604721923311" lon="8.044908333232824" id="-16126">
		<tag k="name" v="Gamlelægret" />
		<tag k="place" v="locality" />
		<tag k="ssr:stedsnr" v="66752" />
	</node>
	<node lat="60.235386110533774" lon="8.347905555968952" id="-16140">
		<tag k="name" v="Øvre Gvonnevieren" />
		<tag k="place" v="locality" />
		<tag k="ssr:stedsnr" v="66934" />
	</node>
	<node lat="60.17382499677724" lon="8.07202499686104" id="-16215">
		<tag k="name" v="Hettehovelægret" />
		<tag k="place" v="locality" />
		<tag k="ssr:stedsnr" v="126576" />
	</node>
	<node lat="60.28447222576515" lon="7.843649991627107" id="-16254">
		<tag k="name" v="Tormodlægret" />
		<tag k="place" v="locality" />
		<tag k="ssr:stedsnr" v="127781" />
	</node>
	<node lat="60.22516944690718" lon="8.284661110184597" id="-16290">
		<tag k="name" v="Smågebu" />
		<tag k="place" v="locality" />
		<tag k="ssr:stedsnr" v="186932" />
	</node>
	<node lat="60.29992777574074" lon="7.904852775411409" id="-16309">
		<tag k="name" v="Blåurdlægret" />
		<tag k="place" v="locality" />
		<tag k="ssr:stedsnr" v="188780" />
	</node>
	<node lat="60.29517499978288" lon="8.029152771506963" id="-16437">
		<tag k="name" v="Hyttebu" />
		<tag k="place" v="locality" />
		<tag k="ssr:stedsnr" v="309751" />
	</node>
	<node lat="60.26513888492065" lon="8.834847220295066" id="-16558">
		<tag k="alt_name" v="Uvdal stavkirke" />
		<tag k="amenity" v="place_of_worship" />
		<tag k="denomination" v="lutheran" />
		<tag k="name" v="Uvdal stavkyrkje" />
		<tag k="religion" v="christian" />
		<tag k="ssr:stedsnr" v="421186" />
	</node>
	<node lat="60.231091662829115" lon="9.023036107557077" id="-16634">
		<tag k="name" v="Anneplassen" />
		<tag k="place" v="locality" />
		<tag k="ssr:stedsnr" v="527545" />
	</node>
	<node lat="60.31809722334935" lon="7.988947227882795" id="-16692">
		<tag k="name" v="Geitsjøhallet felæger" />
		<tag k="place" v="locality" />
		<tag k="ssr:stedsnr" v="551779" />
	</node>
	<node lat="60.28504722657952" lon="8.913161107308904" id="-16924">
		<tag k="name" v="Flåteslåtta" />
		<tag k="place" v="locality" />
		<tag k="ssr:stedsnr" v="787863" />
	</node>
	<node lat="60.344822219663946" lon="8.03087500670956" id="-17053">
		<tag k="name" v="Heinoslægret" />
		<tag k="place" v="locality" />
		<tag k="ssr:stedsnr" v="855827" />
	</node>
	<node lat="60.25081944305819" lon="8.950391661394871" id="-17081">
		<tag k="name" v="Kleive" />
		<tag k="place" v="locality" />
		<tag k="ssr:stedsnr" v="889563" />
	</node>
</osm>
