<?xml version="1.0" encoding="UTF-8"?>
<osm generator="osmapis" version="0.6">
	<node id="-294521" lat="60.2582194422" lon="8.99936388785">
		<tag k="bridge" v="yes" />
		<tag k="layer" v="1" />
		<tag k="name" v="Skjønne" />
		<tag k="ssr:stedsnr" v="228667" />
	</node>
	<node id="-294520" lat="60.1997194421" lon="8.98845278207">
		<tag k="bridge" v="yes" />
		<tag k="layer" v="1" />
		<tag k="name" v="Rustgård" />
		<tag k="ssr:stedsnr" v="228666" />
	</node>
	<node id="-294519" lat="60.1345250029" lon="9.01824722514">
		<tag k="bridge" v="yes" />
		<tag k="layer" v="1" />
		<tag k="name" v="Eide" />
		<tag k="ssr:stedsnr" v="228660" />
	</node>
	<node id="-294902" lat="60.2707722221" lon="8.75590556058">
		<tag k="bridge" v="yes" />
		<tag k="layer" v="1" />
		<tag k="name" v="Grønneflåta øvre" />
		<tag k="ssr:stedsnr" v="714541" />
	</node>
	<node id="-295669" lat="60.2660305564" lon="8.92977777781">
		<tag k="bridge" v="yes" />
		<tag k="layer" v="1" />
		<tag k="name" v="Smådøla østre" />
		<tag k="ssr:stedsnr" v="168590" />
	</node>
	<node id="-295668" lat="60.2687555552" lon="8.76238333234">
		<tag k="bridge" v="yes" />
		<tag k="layer" v="1" />
		<tag k="name" v="Grønneflåta Søndre" />
		<tag k="ssr:stedsnr" v="168574" />
	</node>
	<node id="-296435" lat="60.2680333322" lon="8.95136111248">
		<tag k="name" v="Rødberg stasjon" />
		<tag k="railway" v="station" />
		<tag k="ssr:stedsnr" v="786730" />
		<tag k="train" v="yes" />
	</node>
	<node id="-296176" lat="60.2686277805" lon="8.87370832917">
		<tag k="highway" v="path" />
		<tag k="name" v="Allmannavegen" />
		<tag k="ssr:stedsnr" v="542086" />
	</node>
	<node id="-294511" lat="60.3838666696" lon="8.48708611097">
		<tag k="bridge" v="yes" />
		<tag k="layer" v="1" />
		<tag k="name" v="Ånevass" />
		<tag k="ssr:stedsnr" v="289678" />
	</node>
	<node id="-294510" lat="60.2713611149" lon="8.76094166515">
		<tag k="bridge" v="yes" />
		<tag k="layer" v="1" />
		<tag k="name" v="Rolfs øvre" />
		<tag k="ssr:stedsnr" v="289676" />
	</node>
	<node id="-294509" lat="60.2472277741" lon="9.0083555583">
		<tag k="bridge" v="yes" />
		<tag k="layer" v="1" />
		<tag k="name" v="Gvammen" />
		<tag k="ssr:stedsnr" v="289651" />
	</node>
	<node id="-296300" lat="60.1042999997" lon="9.05036389521">
		<tag k="bridge" v="yes" />
		<tag k="layer" v="1" />
		<tag k="name" v="Teigsåe" />
		<tag k="ssr:stedsnr" v="592662" />
	</node>
	<node id="-296299" lat="60.1893750032" lon="9.00253888513">
		<tag k="bridge" v="yes" />
		<tag k="layer" v="1" />
		<tag k="name" v="Åmot" />
		<tag k="ssr:stedsnr" v="592649" />
	</node>
	<node id="-296169" lat="60.2621750017" lon="8.65188333955">
		<tag k="bridge" v="yes" />
		<tag k="layer" v="1" />
		<tag k="name" v="Røysgard" />
		<tag k="ssr:stedsnr" v="532591" />
	</node>
	<node id="-296419" lat="60.1723833319" lon="9.01880556381">
		<tag k="bridge" v="yes" />
		<tag k="layer" v="1" />
		<tag k="name" v="Lammeskår" />
		<tag k="ssr:stedsnr" v="775564" />
	</node>
	<node id="-295266" lat="60.2617833309" lon="8.98183888882">
		<tag k="bridge" v="yes" />
		<tag k="layer" v="1" />
		<tag k="name" v="Sponild" />
		<tag k="ssr:stedsnr" v="896668" />
	</node>
	<node id="-296545" lat="60.2652083307" lon="8.79456666258">
		<tag k="bridge" v="yes" />
		<tag k="layer" v="1" />
		<tag k="name" v="Eid" />
		<tag k="ssr:stedsnr" v="835640" />
	</node>
	<node id="-296544" lat="60.2674222236" lon="8.71463056151">
		<tag k="bridge" v="yes" />
		<tag k="layer" v="1" />
		<tag k="name" v="Galåker" />
		<tag k="ssr:stedsnr" v="835638" />
	</node>
	<node id="-294495" lat="60.2463305567" lon="8.82323889467">
		<tag k="fixme" v="consider highway=path" />
		<tag k="highway" v="track" />
		<tag k="name" v="Haugåsvegen" />
		<tag k="ssr:stedsnr" v="282593" />
	</node>
	<node id="-294490" lat="60.3138333339" lon="8.66474999581">
		<tag k="highway" v="path" />
		<tag k="name" v="Røyslandsvegen" />
		<tag k="ssr:stedsnr" v="161861" />
	</node>
	<node id="-295563" lat="60.2649499999" lon="8.92856666918">
		<tag k="bridge" v="yes" />
		<tag k="layer" v="1" />
		<tag k="name" v="Smådøla vestre" />
		<tag k="ssr:stedsnr" v="107627" />
	</node>
	<node id="-296408" lat="60.2623027739" lon="8.98295555033">
		<tag k="bridge" v="yes" />
		<tag k="layer" v="1" />
		<tag k="name" v="Sporan" />
		<tag k="ssr:stedsnr" v="653623" />
	</node>
	<node id="-296407" lat="60.4556611075" lon="8.74519444211">
		<tag k="bridge" v="yes" />
		<tag k="layer" v="1" />
		<tag k="name" v="Røungelv" />
		<tag k="ssr:stedsnr" v="653606" />
	</node>
	<node id="-294611" lat="60.1517249981" lon="7.58538611213">
		<tag k="ford" v="yes" />
		<tag k="name" v="Riavad" />
		<tag k="place" v="locality" />
		<tag k="ssr:stedsnr" v="490761" />
	</node>
	<node id="-294865" lat="60.3328833356" lon="8.73551389544">
		<tag k="highway" v="path" />
		<tag k="name" v="Heimveghalle" />
		<tag k="ssr:stedsnr" v="542163" />
	</node>
	<node id="-296655" lat="60.4576777791" lon="8.7895472216">
		<tag k="junction" v="yes" />
		<tag k="name" v="Tunhovdkrysset" />
		<tag k="place" v="locality" />
		<tag k="ssr:stedsnr" v="967243" />
	</node>
	<node id="-296653" lat="60.20758611" lon="9.0225222232">
		<tag k="bridge" v="yes" />
		<tag k="layer" v="1" />
		<tag k="name" v="Øktodden nordre" />
		<tag k="ssr:stedsnr" v="957583" />
	</node>
	<node id="-296652" lat="60.2740805525" lon="8.59151667219">
		<tag k="bridge" v="yes" />
		<tag k="layer" v="1" />
		<tag k="name" v="Bjørkeflåta" />
		<tag k="ssr:stedsnr" v="957573" />
	</node>
	<node id="-294859" lat="60.3002583374" lon="8.33541945006">
		<tag k="alt_name" v="Nordmannslepa" />
		<tag k="highway" v="path" />
		<tag k="name" v="Nordmannsslepa" />
		<tag k="ssr:stedsnr" v="507938" />
	</node>
	<node id="-295927" lat="60.1687166669" lon="9.01356389345">
		<tag k="bridge" v="yes" />
		<tag k="layer" v="1" />
		<tag k="name" v="Norefjord" />
		<tag k="ssr:stedsnr" v="349657" />
	</node>
	<node id="-295367" lat="60.1416527745" lon="9.01636666118">
		<tag k="alt_name" v="Eidstryken" />
		<tag k="name" v="Eidsstryken" />
		<tag k="railway" v="station" />
		<tag k="ssr:stedsnr" v="5499" />
		<tag k="train" v="yes" />
	</node>
	<node id="-295265" lat="60.1994000016" lon="9.02868332775">
		<tag k="bridge" v="yes" />
		<tag k="layer" v="1" />
		<tag k="name" v="Teigen" />
		<tag k="ssr:stedsnr" v="896665" />
	</node>
	<node id="-295670" lat="60.0993222261" lon="9.06693611384">
		<tag k="bridge" v="yes" />
		<tag k="layer" v="1" />
		<tag k="name" v="Kravikfjord" />
		<tag k="ssr:stedsnr" v="168594" />
	</node>
	<node id="-294539" lat="60.269861108" lon="8.93907221344">
		<tag k="bridge" v="yes" />
		<tag k="layer" v="1" />
		<tag k="name" v="Rødberg skiløype" />
		<tag k="ssr:stedsnr" v="289664" />
	</node>
	<node id="-295264" lat="60.2068250028" lon="9.02280833766">
		<tag k="bridge" v="yes" />
		<tag k="layer" v="1" />
		<tag k="name" v="Øktodden Søndre" />
		<tag k="ssr:stedsnr" v="896661" />
	</node>
	<node id="-296543" lat="60.2692888894" lon="8.75687777237">
		<tag k="bridge" v="yes" />
		<tag k="layer" v="1" />
		<tag k="name" v="Grønneflåta nordre" />
		<tag k="ssr:stedsnr" v="835636" />
	</node>
	<node id="-296120" lat="60.4510027736" lon="8.77718611652">
		<tag k="man_made" v="quay" />
		<tag k="name" v="Tunhovdbryggja" />
		<tag k="place" v="locality" />
		<tag k="ssr:stedsnr" v="431137" />
	</node>
	<node id="-295475" lat="60.2824583308" lon="8.82910000068">
		<tag k="fixme" v="consider highway=path" />
		<tag k="highway" v="track" />
		<tag k="name" v="Baklivegen" />
		<tag k="ssr:stedsnr" v="59006" />
	</node>
	<node id="-295088" lat="60.2795305565" lon="8.58337221852">
		<tag k="bridge" v="yes" />
		<tag k="layer" v="1" />
		<tag k="name" v="Kveta" />
		<tag k="ssr:stedsnr" v="714565" />
	</node>
	<node id="-295087" lat="60.2658916639" lon="8.94856388454">
		<tag k="bridge" v="yes" />
		<tag k="layer" v="1" />
		<tag k="name" v="Rødberg" />
		<tag k="ssr:stedsnr" v="714556" />
	</node>
	<node id="-295928" lat="60.4834777803" lon="8.50278610634">
		<tag k="bridge" v="yes" />
		<tag k="layer" v="1" />
		<tag k="name" v="Halldalsåne" />
		<tag k="ssr:stedsnr" v="350549" />
	</node>
	<node id="-295263" lat="60.2626500019" lon="8.67287500651">
		<tag k="bridge" v="yes" />
		<tag k="layer" v="1" />
		<tag k="name" v="Haugjorden" />
		<tag k="ssr:stedsnr" v="896657" />
	</node>
	<node id="-295461" lat="60.1441972196" lon="9.00877500672">
		<tag k="bridge" v="yes" />
		<tag k="layer" v="1" />
		<tag k="name" v="Eidsåe" />
		<tag k="ssr:stedsnr" v="46657" />
	</node>
	<node id="-294944" lat="60.1937777738" lon="8.2966694446">
		<tag k="highway" v="path" />
		<tag k="loc_name" v="Kongsbergslepa;Nordmannsslepa;Talgslepa" />
		<tag k="name" v="Søre Nordmannsslepa" />
		<tag k="ssr:stedsnr" v="627131" />
	</node>
	<node id="-294559" lat="60.1357194464" lon="9.03786667031">
		<tag k="bridge" v="yes" />
		<tag k="layer" v="1" />
		<tag k="name" v="Kjøntveit" />
		<tag k="ssr:stedsnr" v="471610" />
	</node>
	<node id="-296602" lat="60.3014944439" lon="8.24432777765">
		<tag k="alt_name" v="Nordmannsslepa, store;Stora Nordmannsslepa;Store Nordmannslepa;Søndre Nordmannslepa;Store Normannsslepa" />
		<tag k="highway" v="path" />
		<tag k="name" v="Store Nordmannsslepa" />
		<tag k="ssr:stedsnr" v="856239" />
	</node>
	<node id="-294292" lat="60.3004388878" lon="8.76123056307">
		<tag k="highway" v="path" />
		<tag k="name" v="Dagalisleppa" />
		<tag k="ssr:stedsnr" v="223906" />
	</node>
	<node id="-294546" lat="60.2433027777" lon="8.58511667326">
		<tag k="junction" v="yes" />
		<tag k="name" v="Langlikrysset" />
		<tag k="place" v="locality" />
		<tag k="ssr:stedsnr" v="464599" />
	</node>
	<node id="-294285" lat="60.2229805565" lon="8.82702778627">
		<tag k="ford" v="yes" />
		<tag k="name" v="Deveggvadet" />
		<tag k="place" v="locality" />
		<tag k="ssr:stedsnr" v="222279" />
	</node>
	<node id="-294540" lat="60.1954444481" lon="9.02698054732">
		<tag k="bridge" v="yes" />
		<tag k="layer" v="1" />
		<tag k="name" v="Juva" />
		<tag k="ssr:stedsnr" v="289673" />
	</node>
	<node id="-295179" lat="60.1876833345" lon="9.00473054731">
		<tag k="bridge" v="yes" />
		<tag k="layer" v="1" />
		<tag k="name" v="Ulebåsen" />
		<tag k="ssr:stedsnr" v="774666" />
	</node>
	<node id="-295178" lat="60.2139305554" lon="9.03661944329">
		<tag k="bridge" v="yes" />
		<tag k="layer" v="1" />
		<tag k="name" v="Vetterhus" />
		<tag k="ssr:stedsnr" v="774664" />
	</node>
	<node id="-295177" lat="60.2937944477" lon="8.56269167386">
		<tag k="bridge" v="yes" />
		<tag k="layer" v="1" />
		<tag k="name" v="Sønstebø" />
		<tag k="ssr:stedsnr" v="774660" />
	</node>
</osm>
