<?xml version="1.0" encoding="UTF-8"?>
<osm generator="osmapis" version="0.6">
	<node id="-292863" lat="60.2683333376" lon="9.12417499443">
		<tag k="loc_name" v="Rovassbekken" />
		<tag k="name" v="Robekken" />
		<tag k="ssr:stedsnr" v="249260" />
		<tag k="waterway" v="stream" />
	</node>
	<node id="-294909" lat="60.1996500023" lon="8.48726944653">
		<tag k="name" v="Gryttjønnbekken" />
		<tag k="ssr:stedsnr" v="794863" />
		<tag k="waterway" v="stream" />
	</node>
	<node id="-294908" lat="60.1814749961" lon="8.78960000385">
		<tag k="name" v="Vesle Lufsjå" />
		<tag k="natural" v="water" />
		<tag k="ssr:stedsnr" v="794859" />
	</node>
	<node id="-294903" lat="60.2449222204" lon="7.67836110438">
		<tag k="name" v="Bakketjønnbekken" />
		<tag k="ssr:stedsnr" v="794250" />
		<tag k="waterway" v="stream" />
	</node>
	<node id="-294900" lat="60.2171361083" lon="9.09268055262">
		<tag k="name" v="Trytetjønne" />
		<tag k="natural" v="water" />
		<tag k="ssr:stedsnr" v="793905" />
	</node>
	<node id="-294899" lat="60.221480555" lon="9.09199721878">
		<tag k="name" v="Beintjønn" />
		<tag k="natural" v="water" />
		<tag k="ssr:stedsnr" v="793902" />
	</node>
	<node id="-294898" lat="60.2152499994" lon="8.88746110544">
		<tag k="alt_name" v="Svartevatnet" />
		<tag k="name" v="Svartevatn" />
		<tag k="natural" v="water" />
		<tag k="ssr:stedsnr" v="793901" />
		<tag k="water" v="lake" />
	</node>
	<node id="-294896" lat="60.2226527773" lon="9.08467221359">
		<tag k="name" v="Snonattjønne" />
		<tag k="natural" v="water" />
		<tag k="ssr:stedsnr" v="793888" />
	</node>
	<node id="-292846" lat="60.2840444431" lon="8.26800278453">
		<tag k="name" v="Torestjønne" />
		<tag k="natural" v="water" />
		<tag k="ssr:stedsnr" v="249006" />
	</node>
	<node id="-294891" lat="60.2310249964" lon="8.72134722537">
		<tag k="name" v="Tverråe" />
		<tag k="ssr:stedsnr" v="793852" />
		<tag k="waterway" v="stream" />
	</node>
	<node id="-292840" lat="60.2809472258" lon="7.88289721445">
		<tag k="name" v="Tormodbekken" />
		<tag k="ssr:stedsnr" v="248766" />
		<tag k="waterway" v="stream" />
	</node>
	<node id="-294882" lat="60.1783861121" lon="7.60888888866">
		<tag k="name" v="Nedre Krakavadtjønne" />
		<tag k="natural" v="water" />
		<tag k="ssr:stedsnr" v="793724" />
	</node>
	<node id="-294881" lat="60.1849510614" lon="7.59034039867">
		<tag k="name" v="Øvre Krakavadtjønne" />
		<tag k="natural" v="water" />
		<tag k="ssr:stedsnr" v="793711" />
	</node>
	<node id="-294880" lat="60.2198166699" lon="7.73456388202">
		<tag k="name" v="Skrekkstjønne" />
		<tag k="natural" v="water" />
		<tag k="ssr:stedsnr" v="793691" />
	</node>
	<node id="-292827" lat="60.3710111077" lon="8.39555277613">
		<tag k="name" v="Syningtjønne" />
		<tag k="natural" v="water" />
		<tag k="ssr:stedsnr" v="248180" />
	</node>
	<node id="-292825" lat="60.4985361095" lon="8.72725833312">
		<tag k="fixme" v="multiple name tags, choose one and add the other to alt_name" />
		<tag k="name" v="Kløvtjørn;Klovsteintjønne" />
		<tag k="natural" v="water" />
		<tag k="ssr:stedsnr" v="248037" />
	</node>
	<node id="-292821" lat="60.3501000002" lon="8.89936944583">
		<tag k="alt_name" v="Skinholbekken" />
		<tag k="name" v="Skjenhølbekken" />
		<tag k="ssr:stedsnr" v="249380" />
		<tag k="waterway" v="stream" />
	</node>
	<node id="-292819" lat="60.2386638865" lon="8.52474999706">
		<tag k="name" v="Flåtåe" />
		<tag k="ssr:stedsnr" v="247848" />
		<tag k="waterway" v="stream" />
	</node>
	<node id="-292817" lat="60.2219916669" lon="8.51098055113">
		<tag k="name" v="Mevatn" />
		<tag k="natural" v="water" />
		<tag k="ssr:stedsnr" v="247824" />
	</node>
	<node id="-292815" lat="60.1584416672" lon="7.58103055129">
		<tag k="name" v="Kagelitjønne" />
		<tag k="natural" v="water" />
		<tag k="ssr:stedsnr" v="247745" />
	</node>
	<node id="-292814" lat="60.138447222" lon="7.59566667172">
		<tag k="name" v="Langebuåne" />
		<tag k="ssr:stedsnr" v="247739" />
		<tag k="waterway" v="river" />
	</node>
	<node id="-292812" lat="60.2279833295" lon="7.62865000447">
		<tag k="name" v="Skrovstjønne" />
		<tag k="natural" v="water" />
		<tag k="ssr:stedsnr" v="247690" />
	</node>
	<node id="-294853" lat="60.2995999981" lon="9.10048332608">
		<tag k="name" v="Butjønne" />
		<tag k="natural" v="water" />
		<tag k="ssr:stedsnr" v="778392" />
	</node>
	<node id="-292801" lat="60.1808638931" lon="9.07183610495">
		<tag k="name" v="Elgtjønne" />
		<tag k="natural" v="water" />
		<tag k="ssr:stedsnr" v="247545" />
	</node>
	<node id="-292795" lat="60.2360805584" lon="8.91808611576">
		<tag k="name" v="Hansetjønn" />
		<tag k="natural" v="water" />
		<tag k="ssr:stedsnr" v="247994" />
	</node>
	<node id="-294842" lat="60.1747611083" lon="7.865350007">
		<tag k="name" v="Skjerhølnuttjønn" />
		<tag k="natural" v="water" />
		<tag k="ssr:stedsnr" v="748122" />
	</node>
	<node id="-292791" lat="60.1732920487" lon="8.45343769896">
		<tag k="name" v="Store Gryttjønne" />
		<tag k="natural" v="water" />
		<tag k="ssr:stedsnr" v="247970" />
	</node>
	<node id="-294834" lat="60.0810861138" lon="9.06010000609">
		<tag k="name" v="Tverråe" />
		<tag k="ssr:stedsnr" v="646007" />
		<tag k="waterway" v="stream" />
	</node>
	<node id="-292784" lat="60.2543186078" lon="8.47665483072">
		<tag k="name" v="Buvatn" />
		<tag k="natural" v="water" />
		<tag k="ssr:stedsnr" v="67529" />
		<tag k="water" v="lake" />
	</node>
	<node id="-292783" lat="60.2823555512" lon="9.06740278013">
		<tag k="name" v="Søre Kråketjønn" />
		<tag k="natural" v="water" />
		<tag k="ssr:stedsnr" v="67526" />
	</node>
	<node id="-294830" lat="60.198955624" lon="9.18287040801">
		<tag k="name" v="Miljomvatn" />
		<tag k="natural" v="water" />
		<tag k="ssr:stedsnr" v="636098" />
		<tag k="water" v="lake" />
	</node>
	<node id="-294557" lat="60.3562500006" lon="8.30404722693">
		<tag k="name" v="Store Ormetjønne" />
		<tag k="natural" v="water" />
		<tag k="ssr:stedsnr" v="431223" />
		<tag k="water" v="lake" />
	</node>
	<node id="-294828" lat="60.3924749961" lon="8.90909999862">
		<tag k="name" v="Svartetjønne" />
		<tag k="natural" v="water" />
		<tag k="ssr:stedsnr" v="613345" />
	</node>
	<node id="-294826" lat="60.2858000027" lon="8.55026110892">
		<tag k="name" v="Nonsbekken" />
		<tag k="ssr:stedsnr" v="613465" />
		<tag k="waterway" v="stream" />
	</node>
	<node id="-292777" lat="60.3473803785" lon="8.10147637357">
		<tag k="name" v="Halstjønne" />
		<tag k="natural" v="water" />
		<tag k="ssr:stedsnr" v="67231" />
	</node>
	<node id="-292775" lat="60.2939666692" lon="8.17186667425">
		<tag k="name" v="Ulvelibekken" />
		<tag k="ssr:stedsnr" v="67021" />
		<tag k="waterway" v="stream" />
	</node>
	<node id="-294820" lat="60.3624250014" lon="7.97897222125">
		<tag k="name" v="Bleiketjønnan" />
		<tag k="natural" v="water" />
		<tag k="ssr:stedsnr" v="612799" />
		<tag k="water" v="lake" />
	</node>
	<node id="-294818" lat="60.2605250021" lon="8.56929167043">
		<tag k="name" v="Imingbekken" />
		<tag k="ssr:stedsnr" v="612527" />
		<tag k="waterway" v="stream" />
	</node>
	<node id="-294817" lat="60.2982888918" lon="8.90051388214">
		<tag k="alt_name" v="Solheimsbekken" />
		<tag k="name" v="Solheimbekken" />
		<tag k="ssr:stedsnr" v="612522" />
		<tag k="waterway" v="stream" />
	</node>
	<node id="-292768" lat="60.1782046197" lon="8.53200340247">
		<tag k="name" v="Gunnleiksfisktjønnan" />
		<tag k="natural" v="water" />
		<tag k="ssr:stedsnr" v="66849" />
		<tag k="water" v="lake" />
	</node>
	<node id="-292762" lat="60.2783638853" lon="8.71096667317">
		<tag k="name" v="Flåtabekken" />
		<tag k="ssr:stedsnr" v="66437" />
		<tag k="waterway" v="stream" />
	</node>
	<node id="-292760" lat="60.2978583301" lon="8.92552777492">
		<tag k="name" v="Damtjønne" />
		<tag k="natural" v="water" />
		<tag k="ssr:stedsnr" v="66428" />
	</node>
	<node id="-292756" lat="60.2519242538" lon="8.18634904183">
		<tag k="name" v="Halstjønn" />
		<tag k="natural" v="water" />
		<tag k="ssr:stedsnr" v="66048" />
		<tag k="water" v="lake" />
	</node>
	<node id="-294803" lat="60.3340247105" lon="8.46014330935">
		<tag k="name" v="Gvonnetjønne" />
		<tag k="natural" v="water" />
		<tag k="ssr:stedsnr" v="612255" />
	</node>
	<node id="-294801" lat="60.3461111097" lon="8.12693333079">
		<tag k="name" v="Skriubekken" />
		<tag k="ssr:stedsnr" v="612251" />
		<tag k="waterway" v="stream" />
	</node>
	<node id="-294799" lat="60.3527666633" lon="8.43876945079">
		<tag k="name" v="Nordre Kroktjønne" />
		<tag k="natural" v="water" />
		<tag k="ssr:stedsnr" v="612217" />
	</node>
	<node id="-294798" lat="60.3553944489" lon="8.34373889207">
		<tag k="name" v="Damtjønne" />
		<tag k="natural" v="water" />
		<tag k="ssr:stedsnr" v="612212" />
	</node>
	<node id="-294797" lat="60.453025" lon="8.60393888308">
		<tag k="name" v="Åsodden" />
		<tag k="natural" v="cape" />
		<tag k="ssr:stedsnr" v="612091" />
	</node>
	<node id="-294795" lat="60.3161388881" lon="8.54339167079">
		<tag k="name" v="Deilebekken" />
		<tag k="ssr:stedsnr" v="612448" />
		<tag k="waterway" v="stream" />
	</node>
	<node id="-294791" lat="60.3658166712" lon="8.54201389351">
		<tag k="alt_name" v="Eltebekk" />
		<tag k="name" v="Eltebekken" />
		<tag k="ssr:stedsnr" v="612419" />
		<tag k="waterway" v="stream" />
	</node>
	<node id="-294787" lat="60.368911112" lon="9.08299999716">
		<tag k="name" v="Grånsettjønne" />
		<tag k="natural" v="water" />
		<tag k="ssr:stedsnr" v="612413" />
	</node>
	<node id="-292843" lat="60.3533472234" lon="7.97247499214">
		<tag k="name" v="Albrektsbekken" />
		<tag k="ssr:stedsnr" v="248824" />
		<tag k="waterway" v="stream" />
	</node>
	<node id="-294780" lat="60.2446055563" lon="8.82308333783">
		<tag k="name" v="Haugåsbekken" />
		<tag k="ssr:stedsnr" v="611871" />
		<tag k="waterway" v="stream" />
	</node>
	<node id="-294775" lat="60.2429333307" lon="9.15956111051">
		<tag k="name" v="Kårsetvatnet" />
		<tag k="natural" v="water" />
		<tag k="ssr:stedsnr" v="611992" />
	</node>
	<node id="-294771" lat="60.1843944473" lon="8.15430556037">
		<tag k="name" v="Fiskeodden" />
		<tag k="natural" v="cape" />
		<tag k="ssr:stedsnr" v="611975" />
	</node>
	<node id="-294769" lat="60.1326194469" lon="7.56716388245">
		<tag k="name" v="Langebutjønnan" />
		<tag k="natural" v="water" />
		<tag k="ssr:stedsnr" v="611734" />
		<tag k="water" v="lake" />
	</node>
	<node id="-294765" lat="60.1038027765" lon="9.03483610775">
		<tag k="name" v="Teigsåe" />
		<tag k="ssr:stedsnr" v="611547" />
		<tag k="waterway" v="stream" />
	</node>
	<node id="-294764" lat="60.1008416692" lon="8.96203334124">
		<tag k="alt_name" v="Vesle Skjervsjøen" />
		<tag k="loc_name" v="Vesle Skjærsjøen" />
		<tag k="name" v="Vesle Skirvsjøen" />
		<tag k="natural" v="water" />
		<tag k="old_name" v="Lille Skirvsjøen" />
		<tag k="ssr:stedsnr" v="611532" />
	</node>
	<node id="-294763" lat="60.1551166704" lon="9.19266388357">
		<tag k="loc_name" v="Sølandsåe" />
		<tag k="name" v="Sørlandsåe" />
		<tag k="ssr:stedsnr" v="611525" />
		<tag k="waterway" v="river" />
	</node>
	<node id="-294761" lat="60.1436166691" lon="9.0568277767">
		<tag k="alt_name" v="Trytetjønn" />
		<tag k="name" v="Trytetjønne" />
		<tag k="natural" v="water" />
		<tag k="ssr:stedsnr" v="611516" />
	</node>
	<node id="-294758" lat="60.2314777777" lon="7.91991666207">
		<tag k="name" v="Festningstjønne" />
		<tag k="natural" v="water" />
		<tag k="ssr:stedsnr" v="611680" />
	</node>
	<node id="-292707" lat="60.1447035512" lon="7.86593100319">
		<tag k="name" v="Steintjønne" />
		<tag k="natural" v="water" />
		<tag k="ssr:stedsnr" v="4566" />
	</node>
	<node id="-294754" lat="60.1847833377" lon="8.03524165786">
		<tag k="name" v="Falkenuttjønne" />
		<tag k="natural" v="water" />
		<tag k="ssr:stedsnr" v="611584" />
	</node>
	<node id="-294752" lat="60.163249393" lon="7.94331814228">
		<tag k="name" v="Kalvungen" />
		<tag k="natural" v="water" />
		<tag k="ssr:stedsnr" v="611576" />
	</node>
	<node id="-294749" lat="60.2917888859" lon="9.09951943913">
		<tag k="loc_name" v="Skreddarsettjønne" />
		<tag k="name" v="Skreddersetertjørn" />
		<tag k="natural" v="water" />
		<tag k="ssr:stedsnr" v="605878" />
	</node>
	<node id="-294742" lat="60.2106722183" lon="8.89982499337">
		<tag k="name" v="Deleslitjønn" />
		<tag k="natural" v="water" />
		<tag k="ssr:stedsnr" v="603344" />
	</node>
	<node id="-294735" lat="60.3459694416" lon="8.94832777271">
		<tag k="name" v="Hestebekken" />
		<tag k="ssr:stedsnr" v="602167" />
		<tag k="waterway" v="stream" />
	</node>
	<node id="-294734" lat="60.1437083308" lon="9.02142777044">
		<tag k="name" v="Eidstryken" />
		<tag k="ssr:stedsnr" v="602036" />
		<tag k="waterway" v="rapids" />
	</node>
	<node id="-294730" lat="60.1980500034" lon="9.08583332945">
		<tag k="name" v="Svartetjørnbekken" />
		<tag k="ssr:stedsnr" v="586690" />
		<tag k="waterway" v="stream" />
	</node>
	<node id="-292833" lat="60.3751388877" lon="8.5351611186">
		<tag k="name" v="Sjugurdstjønne" />
		<tag k="natural" v="water" />
		<tag k="ssr:stedsnr" v="248385" />
	</node>
	<node id="-294716" lat="60.3265000044" lon="7.8844972164">
		<tag k="name" v="Breidostjønn" />
		<tag k="natural" v="water" />
		<tag k="ssr:stedsnr" v="566767" />
	</node>
	<node id="-294715" lat="60.1786111088" lon="7.7970444477">
		<tag k="name" v="Nordre Skjerhøltjønn" />
		<tag k="natural" v="water" />
		<tag k="ssr:stedsnr" v="566130" />
		<tag k="water" v="lake" />
	</node>
	<node id="-294714" lat="60.3076000011" lon="9.09152499727">
		<tag k="name" v="Fiskelaus" />
		<tag k="natural" v="water" />
		<tag k="ssr:stedsnr" v="552646" />
	</node>
	<node id="-294703" lat="60.2807472207" lon="9.04129999437">
		<tag k="name" v="Søre Liartjønne" />
		<tag k="natural" v="water" />
		<tag k="ssr:stedsnr" v="552561" />
	</node>
	<node id="-294690" lat="60.3207861098" lon="8.91908333232">
		<tag k="name" v="Sagodden" />
		<tag k="natural" v="cape" />
		<tag k="ssr:stedsnr" v="552489" />
	</node>
	<node id="-294689" lat="60.3092000035" lon="8.48078889621">
		<tag k="name" v="Skardbekken" />
		<tag k="ssr:stedsnr" v="552488" />
		<tag k="waterway" v="stream" />
	</node>
	<node id="-294688" lat="60.3323012036" lon="8.68890041467">
		<tag k="name" v="Krosstjønne" />
		<tag k="natural" v="water" />
		<tag k="ssr:stedsnr" v="552482" />
	</node>
	<node id="-294687" lat="60.326863889" lon="9.09377499454">
		<tag k="name" v="Fagerfettjønne" />
		<tag k="natural" v="water" />
		<tag k="ssr:stedsnr" v="552480" />
	</node>
	<node id="-294685" lat="60.343074996" lon="9.09802500213">
		<tag k="name" v="Skjerøkterbekken" />
		<tag k="ssr:stedsnr" v="552471" />
		<tag k="waterway" v="stream" />
	</node>
	<node id="-294684" lat="60.3403111142" lon="8.53500554979">
		<tag k="name" v="Vidarsjordtjønne" />
		<tag k="natural" v="water" />
		<tag k="ssr:stedsnr" v="552466" />
	</node>
	<node id="-294680" lat="60.326938886" lon="8.26970278251">
		<tag k="name" v="Tøddølvatnet" />
		<tag k="natural" v="water" />
		<tag k="ssr:stedsnr" v="552267" />
		<tag k="water" v="lake" />
	</node>
	<node id="-294677" lat="60.3023888872" lon="8.20541943764">
		<tag k="name" v="Skarvsvatnet" />
		<tag k="natural" v="water" />
		<tag k="ssr:stedsnr" v="552042" />
		<tag k="water" v="lake" />
	</node>
	<node id="-294675" lat="60.4333305563" lon="8.64222499753">
		<tag k="name" v="Lindevikje" />
		<tag k="natural" v="bay" />
		<tag k="ssr:stedsnr" v="552121" />
	</node>
	<node id="-294674" lat="60.4314749973" lon="8.603330553">
		<tag k="name" v="Godfarfossen" />
		<tag k="natural" v="waterfall" />
		<tag k="ssr:stedsnr" v="552109" />
	</node>
	<node id="-294670" lat="60.2324694425" lon="8.32273889143">
		<tag k="name" v="Smågåe" />
		<tag k="ssr:stedsnr" v="551946" />
		<tag k="waterway" v="river" />
	</node>
	<node id="-294669" lat="60.1655000013" lon="9.01282777792">
		<tag k="name" v="Norefjorden" />
		<tag k="natural" v="water" />
		<tag k="ssr:stedsnr" v="551938" />
		<tag k="water" v="lake" />
	</node>
	<node id="-294668" lat="60.2014504929" lon="9.1703572173">
		<tag k="name" v="Sollitjønnan" />
		<tag k="natural" v="water" />
		<tag k="ssr:stedsnr" v="551930" />
		<tag k="water" v="lake" />
	</node>
	<node id="-294664" lat="60.2897340294" lon="8.28779332361">
		<tag k="name" v="Høyertjønnan" />
		<tag k="natural" v="water" />
		<tag k="ssr:stedsnr" v="552016" />
		<tag k="water" v="lake" />
	</node>
	<node id="-294663" lat="60.2933861101" lon="8.28848889034">
		<tag k="name" v="Hestehalltjønne" />
		<tag k="natural" v="water" />
		<tag k="ssr:stedsnr" v="552014" />
	</node>
	<node id="-294661" lat="60.3621762674" lon="7.90443088481">
		<tag k="name" v="Heintjønne" />
		<tag k="natural" v="water" />
		<tag k="old_name" v="Heieren Kj." />
		<tag k="ssr:stedsnr" v="551827" />
	</node>
	<node id="-294659" lat="60.2058861129" lon="9.08097778201">
		<tag k="name" v="Metjønn" />
		<tag k="natural" v="water" />
		<tag k="ssr:stedsnr" v="551920" />
	</node>
	<node id="-294656" lat="60.1459638863" lon="9.19505833945">
		<tag k="name" v="Langetjønn" />
		<tag k="natural" v="water" />
		<tag k="ssr:stedsnr" v="551498" />
	</node>
	<node id="-294655" lat="60.1247055566" lon="9.0299805497">
		<tag k="alt_name" v="Nysetbekken" />
		<tag k="name" v="Hellekleivåe" />
		<tag k="ssr:stedsnr" v="551489" />
		<tag k="waterway" v="stream" />
	</node>
	<node id="-294643" lat="60.2498999958" lon="9.0358416749">
		<tag k="name" v="Vardåstjønne" />
		<tag k="natural" v="water" />
		<tag k="ssr:stedsnr" v="550980" />
		<tag k="water" v="lake" />
	</node>
	<node id="-294641" lat="60.2025750008" lon="8.89002778679">
		<tag k="name" v="Svartepytt" />
		<tag k="natural" v="water" />
		<tag k="ssr:stedsnr" v="550912" />
	</node>
	<node id="-294637" lat="60.2496111103" lon="8.73369165993">
		<tag k="alt_name" v="Gjuvbekken" />
		<tag k="name" v="Gjuvsbekken" />
		<tag k="ssr:stedsnr" v="550832" />
		<tag k="waterway" v="stream" />
	</node>
	<node id="-294630" lat="60.1582722196" lon="9.14851111064">
		<tag k="name" v="Gåsetjønne" />
		<tag k="natural" v="water" />
		<tag k="ssr:stedsnr" v="550593" />
	</node>
	<node id="-294625" lat="60.1367312972" lon="7.76626760695">
		<tag k="name" v="Sørtjønn" />
		<tag k="natural" v="water" />
		<tag k="ssr:stedsnr" v="550555" />
	</node>
	<node id="-294620" lat="60.3081277767" lon="7.98654722622">
		<tag k="name" v="Geitsjøen" />
		<tag k="natural" v="water" />
		<tag k="ssr:stedsnr" v="551776" />
		<tag k="water" v="lake" />
	</node>
	<node id="-294618" lat="60.2982805567" lon="8.92553611341">
		<tag k="name" v="Taklinattjørna" />
		<tag k="natural" v="water" />
		<tag k="ssr:stedsnr" v="544876" />
		<tag k="water" v="lake" />
	</node>
	<node id="-294612" lat="60.2202527777" lon="9.12366667555">
		<tag k="alt_name" v="Hektaelve" />
		<tag k="name" v="Hekta" />
		<tag k="ssr:stedsnr" v="542909" />
		<tag k="waterway" v="stream" />
	</node>
	<node id="-294936" lat="60.402238889" lon="8.93048888671">
		<tag k="name" v="Gauksettjønne" />
		<tag k="natural" v="water" />
		<tag k="ssr:stedsnr" v="795408" />
	</node>
	<node id="-294595" lat="60.227022218" lon="8.97452777685">
		<tag k="name" v="Grånåsetbekken" />
		<tag k="ssr:stedsnr" v="525652" />
		<tag k="waterway" v="stream" />
	</node>
	<node id="-294591" lat="60.1877222224" lon="9.05270278379">
		<tag k="name" v="Juva" />
		<tag k="ssr:stedsnr" v="525129" />
		<tag k="waterway" v="stream" />
	</node>
	<node id="-294589" lat="60.1963611093" lon="9.01871943557">
		<tag k="name" v="Juvodden" />
		<tag k="natural" v="cape" />
		<tag k="ssr:stedsnr" v="525116" />
	</node>
	<node id="-294581" lat="60.2956361116" lon="9.14305000217">
		<tag k="name" v="Fjelltjønne" />
		<tag k="natural" v="water" />
		<tag k="ssr:stedsnr" v="431515" />
	</node>
	<node id="-294575" lat="60.3061027792" lon="8.71032222204">
		<tag k="loc_name" v="Rausjødalsbekken" />
		<tag k="name" v="Raudsjødalselve" />
		<tag k="ssr:stedsnr" v="431487" />
		<tag k="waterway" v="river" />
	</node>
	<node id="-294573" lat="60.2997472242" lon="8.56927500341">
		<tag k="name" v="Sørgardsbekken" />
		<tag k="ssr:stedsnr" v="431483" />
		<tag k="waterway" v="stream" />
	</node>
	<node id="-294569" lat="60.3101027777" lon="9.11315556383">
		<tag k="name" v="Fiskelaus" />
		<tag k="natural" v="water" />
		<tag k="ssr:stedsnr" v="431466" />
	</node>
	<node id="-294566" lat="60.3198561478" lon="9.08135435121">
		<tag k="alt_name" v="Krosstjørnan" />
		<tag k="name" v="Kroktjønnan" />
		<tag k="natural" v="water" />
		<tag k="ssr:stedsnr" v="431453" />
		<tag k="water" v="lake" />
	</node>
	<node id="-294562" lat="60.2775833356" lon="9.03325556155">
		<tag k="name" v="Trytetjønne" />
		<tag k="natural" v="water" />
		<tag k="ssr:stedsnr" v="431283" />
	</node>
	<node id="-294559" lat="60.3244805533" lon="8.42359166226">
		<tag k="alt_name" v="Urhovdbekken" />
		<tag k="name" v="Urdhovdbekken" />
		<tag k="ssr:stedsnr" v="431253" />
		<tag k="waterway" v="stream" />
	</node>
	<node id="-294558" lat="60.3178083356" lon="8.26011389499">
		<tag k="name" v="Skarvsåe" />
		<tag k="ssr:stedsnr" v="431249" />
		<tag k="waterway" v="stream" />
	</node>
	<node id="-292805" lat="60.1852416694" lon="7.82913610571">
		<tag k="name" v="Melrakktjønne" />
		<tag k="natural" v="water" />
		<tag k="ssr:stedsnr" v="247566" />
	</node>
	<node id="-294555" lat="60.2045416646" lon="9.17760277726">
		<tag k="name" v="Øvstevatn" />
		<tag k="natural" v="water" />
		<tag k="ssr:stedsnr" v="430933" />
	</node>
	<node id="-294551" lat="60.2658416686" lon="8.34314444837">
		<tag k="name" v="Gryttjønnbekken" />
		<tag k="ssr:stedsnr" v="431069" />
		<tag k="waterway" v="stream" />
	</node>
	<node id="-294550" lat="60.3480027787" lon="7.9664999983">
		<tag k="name" v="Kristofferhølen" />
		<tag k="place" v="locality" />
		<tag k="ssr:stedsnr" v="430795" />
	</node>
	<node id="-294548" lat="60.3323944485" lon="7.89989166121">
		<tag k="name" v="Store Selstjønne" />
		<tag k="natural" v="water" />
		<tag k="ssr:stedsnr" v="430787" />
	</node>
	<node id="-294545" lat="60.2458657417" lon="8.35073800062">
		<tag k="name" v="Tyrhovdtjønne" />
		<tag k="natural" v="water" />
		<tag k="ssr:stedsnr" v="430530" />
	</node>
	<node id="-294544" lat="60.1346222218" lon="9.014849999">
		<tag k="name" v="Sagbekken" />
		<tag k="ssr:stedsnr" v="430493" />
		<tag k="waterway" v="stream" />
	</node>
	<node id="-294934" lat="60.4333444464" lon="8.73436943754">
		<tag k="name" v="Pålsbudammen" />
		<tag k="ssr:stedsnr" v="795147" />
		<tag k="waterway" v="dam" />
	</node>
	<node id="-294541" lat="60.3704972259" lon="7.83687777073">
		<tag k="name" v="Vesletunga" />
		<tag k="natural" v="cape" />
		<tag k="ssr:stedsnr" v="430772" />
	</node>
	<node id="-294538" lat="60.2637840413" lon="8.08219693325">
		<tag k="name" v="Skrykken" />
		<tag k="natural" v="water" />
		<tag k="ssr:stedsnr" v="430758" />
		<tag k="water" v="lake" />
	</node>
	<node id="-294533" lat="60.1855916646" lon="8.12690554878">
		<tag k="name" v="Mårtjønne" />
		<tag k="natural" v="water" />
		<tag k="ssr:stedsnr" v="429970" />
	</node>
	<node id="-294530" lat="60.2114111153" lon="8.21898888996">
		<tag k="name" v="Nordre Holstadtjønne" />
		<tag k="natural" v="water" />
		<tag k="ssr:stedsnr" v="429954" />
	</node>
	<node id="-294527" lat="60.2129833362" lon="9.08185000498">
		<tag k="name" v="Langelitjønne" />
		<tag k="natural" v="water" />
		<tag k="ssr:stedsnr" v="429901" />
	</node>
	<node id="-294525" lat="60.2436500021" lon="8.5140527775">
		<tag k="name" v="Flåtåtjønne" />
		<tag k="natural" v="water" />
		<tag k="ssr:stedsnr" v="429856" />
	</node>
	<node id="-294523" lat="60.184922221" lon="7.69070834146">
		<tag k="name" v="Kilebukte" />
		<tag k="natural" v="bay" />
		<tag k="ssr:stedsnr" v="429687" />
	</node>
	<node id="-294521" lat="60.1521869401" lon="8.86791013701">
		<tag k="name" v="Storetjønnan" />
		<tag k="natural" v="water" />
		<tag k="ssr:stedsnr" v="429593" />
		<tag k="water" v="lake" />
	</node>
	<node id="-294516" lat="60.1828833308" lon="9.08642499472">
		<tag k="alt_name" v="Langevatn" />
		<tag k="name" v="Langevatnet" />
		<tag k="natural" v="water" />
		<tag k="ssr:stedsnr" v="429559" />
		<tag k="water" v="lake" />
	</node>
	<node id="-294502" lat="60.3511777774" lon="8.99818888948">
		<tag k="name" v="Heslibekken" />
		<tag k="ssr:stedsnr" v="421148" />
		<tag k="waterway" v="stream" />
	</node>
	<node id="-294493" lat="60.1880833343" lon="9.00887221684">
		<tag k="name" v="Svendsrudviki" />
		<tag k="natural" v="bay" />
		<tag k="ssr:stedsnr" v="404100" />
	</node>
	<node id="-292794" lat="60.2322805525" lon="8.91687500553">
		<tag k="name" v="Nedre Heimtjønn" />
		<tag k="natural" v="water" />
		<tag k="ssr:stedsnr" v="247992" />
	</node>
	<node id="-294483" lat="60.2934444435" lon="9.09580833351">
		<tag k="name" v="Raudtjønne" />
		<tag k="natural" v="water" />
		<tag k="ssr:stedsnr" v="370535" />
	</node>
	<node id="-294481" lat="60.298550003" lon="9.12262500314">
		<tag k="alt_name" v="Slokovatn" />
		<tag k="name" v="Slokovatnet" />
		<tag k="natural" v="water" />
		<tag k="ssr:stedsnr" v="370532" />
		<tag k="water" v="lake" />
	</node>
	<node id="-294473" lat="60.299350003" lon="8.69841388728">
		<tag k="alt_name" v="Storebekk" />
		<tag k="name" v="Storebekken" />
		<tag k="ssr:stedsnr" v="370493" />
		<tag k="waterway" v="stream" />
	</node>
	<node id="-294472" lat="60.2908777803" lon="8.50711666316">
		<tag k="alt_name" v="Bjørnebekk" />
		<tag k="loc_name" v="Bjønnebekken" />
		<tag k="name" v="Bjønnebekk" />
		<tag k="ssr:stedsnr" v="370492" />
		<tag k="waterway" v="stream" />
	</node>
	<node id="-294470" lat="60.3104138845" lon="8.77174721931">
		<tag k="name" v="Grånåsettjønnan" />
		<tag k="natural" v="water" />
		<tag k="ssr:stedsnr" v="370485" />
		<tag k="water" v="lake" />
	</node>
	<node id="-294469" lat="60.3191499961" lon="8.93273055717">
		<tag k="name" v="Tunhovddammen" />
		<tag k="ssr:stedsnr" v="370476" />
		<tag k="waterway" v="dam" />
	</node>
	<node id="-294468" lat="60.3276000036" lon="8.66482499135">
		<tag k="name" v="Åndetjønn" />
		<tag k="natural" v="water" />
		<tag k="ssr:stedsnr" v="370472" />
	</node>
	<node id="-294465" lat="60.3865998004" lon="8.48002826615">
		<tag k="alt_name" v="Ånevatn" />
		<tag k="name" v="Ånevatnet" />
		<tag k="natural" v="water" />
		<tag k="ssr:stedsnr" v="370443" />
	</node>
	<node id="-294463" lat="60.3922888854" lon="8.82275555831">
		<tag k="name" v="Nutebekken" />
		<tag k="ssr:stedsnr" v="370433" />
		<tag k="waterway" v="stream" />
	</node>
	<node id="-294462" lat="60.3943222206" lon="8.53658333569">
		<tag k="name" v="Trolltjønn" />
		<tag k="natural" v="water" />
		<tag k="ssr:stedsnr" v="370431" />
	</node>
	<node id="-294461" lat="60.3792638929" lon="8.89764722988">
		<tag k="name" v="Søre Jernbutjønne" />
		<tag k="natural" v="water" />
		<tag k="ssr:stedsnr" v="370422" />
	</node>
	<node id="-294457" lat="60.2495006424" lon="9.03471861937">
		<tag k="name" v="Nordtjønne" />
		<tag k="natural" v="water" />
		<tag k="ssr:stedsnr" v="370362" />
	</node>
	<node id="-294455" lat="60.271075002" lon="9.16199999167">
		<tag k="alt_name" v="Hellevatn" />
		<tag k="name" v="Hellevatnet" />
		<tag k="natural" v="water" />
		<tag k="ssr:stedsnr" v="370335" />
	</node>
	<node id="-294453" lat="60.2780666674" lon="9.16532499346">
		<tag k="name" v="Kalvetjønnan" />
		<tag k="natural" v="water" />
		<tag k="ssr:stedsnr" v="370320" />
		<tag k="water" v="lake" />
	</node>
	<node id="-294449" lat="60.3311166622" lon="8.26513611245">
		<tag k="name" v="Tøddøltjønne" />
		<tag k="natural" v="water" />
		<tag k="ssr:stedsnr" v="370289" />
	</node>
	<node id="-294446" lat="60.3084638894" lon="8.17535556009">
		<tag k="name" v="Ryggbupollen" />
		<tag k="natural" v="bay" />
		<tag k="ssr:stedsnr" v="370269" />
	</node>
	<node id="-294444" lat="60.3577284639" lon="8.45245863163">
		<tag k="name" v="Fyritjønne" />
		<tag k="natural" v="water" />
		<tag k="ssr:stedsnr" v="370238" />
	</node>
	<node id="-294443" lat="60.4412361067" lon="8.6582249939">
		<tag k="name" v="Pålsbufjorden" />
		<tag k="natural" v="water" />
		<tag k="ssr:stedsnr" v="370148" />
		<tag k="water" v="lake" />
	</node>
	<node id="-294442" lat="60.4116611131" lon="8.79918055744">
		<tag k="alt_name" v="Veslebekk" />
		<tag k="name" v="Veslebekken" />
		<tag k="ssr:stedsnr" v="370125" />
		<tag k="waterway" v="stream" />
	</node>
	<node id="-294439" lat="60.4776250011" lon="8.66622499659">
		<tag k="name" v="Hallgrimstjønne" />
		<tag k="natural" v="water" />
		<tag k="ssr:stedsnr" v="370102" />
	</node>
	<node id="-294438" lat="60.457830557" lon="8.73833333175">
		<tag k="name" v="Rødungselve" />
		<tag k="ssr:stedsnr" v="370085" />
		<tag k="waterway" v="river" />
	</node>
	<node id="-294430" lat="60.3047527803" lon="8.18802499194">
		<tag k="name" v="Ulvelitangen" />
		<tag k="natural" v="cape" />
		<tag k="ssr:stedsnr" v="370033" />
	</node>
	<node id="-294429" lat="60.3011166636" lon="8.3513222142">
		<tag k="name" v="Solheimstøltjønne" />
		<tag k="natural" v="water" />
		<tag k="ssr:stedsnr" v="370030" />
	</node>
	<node id="-294424" lat="60.2885055594" lon="8.20210277953">
		<tag k="name" v="Bakketjønn" />
		<tag k="natural" v="water" />
		<tag k="ssr:stedsnr" v="370007" />
	</node>
	<node id="-294421" lat="60.2014361123" lon="9.06897777977">
		<tag k="name" v="Kvigetjønnan" />
		<tag k="natural" v="water" />
		<tag k="ssr:stedsnr" v="369923" />
		<tag k="water" v="lake" />
	</node>
	<node id="-294419" lat="60.1768416648" lon="8.68162778548">
		<tag k="alt_name" v="Løingardstjønn" />
		<tag k="name" v="Løyngardstjønne" />
		<tag k="natural" v="water" />
		<tag k="ssr:stedsnr" v="369852" />
	</node>
	<node id="-294409" lat="60.2475206131" lon="8.44288847933">
		<tag k="name" v="Styggetjønnan" />
		<tag k="natural" v="water" />
		<tag k="ssr:stedsnr" v="369474" />
		<tag k="water" v="lake" />
	</node>
	<node id="-292780" lat="60.2966833368" lon="9.10806388636">
		<tag k="name" v="Krosstjønne" />
		<tag k="natural" v="water" />
		<tag k="ssr:stedsnr" v="67514" />
	</node>
	<node id="-294406" lat="60.236980559" lon="8.88742776902">
		<tag k="name" v="Svartevassåe" />
		<tag k="ssr:stedsnr" v="368984" />
		<tag k="waterway" v="stream" />
	</node>
	<node id="-294405" lat="60.1900194418" lon="8.23709721475">
		<tag k="name" v="Vestre Søltjønne" />
		<tag k="natural" v="water" />
		<tag k="ssr:stedsnr" v="368962" />
	</node>
	<node id="-292778" lat="60.357497218" lon="8.38969722124">
		<tag k="name" v="Løytetjønne" />
		<tag k="natural" v="water" />
		<tag k="ssr:stedsnr" v="67233" />
	</node>
	<node id="-294390" lat="60.1899750009" lon="7.96073611904">
		<tag k="name" v="Eidsjøen" />
		<tag k="natural" v="water" />
		<tag k="ssr:stedsnr" v="368622" />
		<tag k="water" v="lake" />
	</node>
	<node id="-294379" lat="60.1543777773" lon="9.0944916628">
		<tag k="name" v="Bubekken" />
		<tag k="ssr:stedsnr" v="368556" />
		<tag k="waterway" v="stream" />
	</node>
	<node id="-294377" lat="59.496725003" lon="9.92621943883">
		<tag k="alt_name" v="Numedalslågen" />
		<tag k="name" v="Lågen" />
		<tag k="ssr:stedsnr" v="366578" />
		<tag k="waterway" v="river" />
	</node>
	<node id="-294376" lat="60.2940888865" lon="8.86898054934">
		<tag k="name" v="Vikbekken" />
		<tag k="ssr:stedsnr" v="362889" />
		<tag k="waterway" v="stream" />
	</node>
	<node id="-295133" lat="60.2382530715" lon="9.06236056751">
		<tag k="name" v="Åbukte" />
		<tag k="place" v="locality" />
		<tag k="ssr:stedsnr" v="1072022" />
	</node>
	<node id="-294368" lat="60.4979777753" lon="8.650127773">
		<tag k="name" v="Røungsdammen" />
		<tag k="ssr:stedsnr" v="360236" />
		<tag k="waterway" v="dam" />
	</node>
	<node id="-294361" lat="60.1858694459" lon="8.93666110841">
		<tag k="name" v="Helletjønn" />
		<tag k="natural" v="water" />
		<tag k="ssr:stedsnr" v="354420" />
	</node>
	<node id="-292770" lat="60.2713111067" lon="8.1066388961">
		<tag k="name" v="Grotbekken" />
		<tag k="ssr:stedsnr" v="67002" />
		<tag k="waterway" v="stream" />
	</node>
	<node id="-294345" lat="60.3217055561" lon="8.28050277">
		<tag k="name" v="Store Pedersentjønne" />
		<tag k="natural" v="water" />
		<tag k="ssr:stedsnr" v="323021" />
	</node>
	<node id="-294336" lat="60.4219277802" lon="8.7414277812">
		<tag k="name" v="Farhølbekken" />
		<tag k="ssr:stedsnr" v="310090" />
		<tag k="waterway" v="stream" />
	</node>
	<node id="-294335" lat="60.2950055571" lon="8.32818055419">
		<tag k="name" v="Beltetjønnbekken" />
		<tag k="ssr:stedsnr" v="310016" />
		<tag k="waterway" v="stream" />
	</node>
	<node id="-294332" lat="60.2828611155" lon="8.3368361192">
		<tag k="name" v="Krukeåe" />
		<tag k="ssr:stedsnr" v="310002" />
		<tag k="waterway" v="stream" />
	</node>
	<node id="-294331" lat="60.2831583314" lon="7.69371665795">
		<tag k="name" v="Holmetjønnan" />
		<tag k="natural" v="water" />
		<tag k="ssr:stedsnr" v="309977" />
		<tag k="water" v="lake" />
	</node>
	<node id="-294323" lat="60.2607944434" lon="8.54943888487">
		<tag k="name" v="Damtjønn" />
		<tag k="natural" v="water" />
		<tag k="ssr:stedsnr" v="309529" />
	</node>
	<node id="-294314" lat="60.3290499992" lon="8.83925000058">
		<tag k="name" v="Skållitjønne" />
		<tag k="natural" v="water" />
		<tag k="ssr:stedsnr" v="309471" />
	</node>
	<node id="-294313" lat="60.3262138916" lon="8.50406110645">
		<tag k="alt_name" v="Juvsbekken" />
		<tag k="name" v="Gjuvsbekken" />
		<tag k="ssr:stedsnr" v="309465" />
		<tag k="waterway" v="stream" />
	</node>
	<node id="-294312" lat="60.333245713" lon="8.61586198078">
		<tag k="alt_name" v="Prestdalsvatn" />
		<tag k="name" v="Prestdalsvatnet" />
		<tag k="natural" v="water" />
		<tag k="old_name" v="S. PræstKj" />
		<tag k="ssr:stedsnr" v="309458" />
		<tag k="water" v="lake" />
	</node>
	<node id="-294305" lat="60.3768999967" lon="8.5899972281">
		<tag k="alt_name" v="Bjørkebuvannet" />
		<tag k="name" v="Børkjevatnet" />
		<tag k="natural" v="water" />
		<tag k="ssr:stedsnr" v="309444" />
	</node>
	<node id="-294303" lat="60.3810777786" lon="8.63147500443">
		<tag k="name" v="Bekkesetbekken" />
		<tag k="ssr:stedsnr" v="309438" />
		<tag k="waterway" v="stream" />
	</node>
	<node id="-294302" lat="60.3866583375" lon="8.52045000861">
		<tag k="alt_name" v="Gudbrandsbekk" />
		<tag k="name" v="Gudbrandsbekken" />
		<tag k="ssr:stedsnr" v="309436" />
		<tag k="waterway" v="stream" />
	</node>
	<node id="-294301" lat="60.3620213646" lon="8.88438381861">
		<tag k="name" v="Ræpevike" />
		<tag k="natural" v="bay" />
		<tag k="ssr:stedsnr" v="309435" />
	</node>
	<node id="-294299" lat="60.3359638893" lon="8.96987499424">
		<tag k="alt_name" v="Vasetvatn" />
		<tag k="name" v="Vadsetvatnet" />
		<tag k="natural" v="water" />
		<tag k="ssr:stedsnr" v="309430" />
		<tag k="water" v="lake" />
	</node>
	<node id="-294298" lat="60.3968141668" lon="8.63864016782">
		<tag k="alt_name" v="Frygnevatn" />
		<tag k="name" v="Frygnevatnet" />
		<tag k="natural" v="water" />
		<tag k="ssr:stedsnr" v="309419" />
		<tag k="water" v="lake" />
	</node>
	<node id="-294297" lat="60.3635388918" lon="8.90022500017">
		<tag k="alt_name" v="Nattenbekken" />
		<tag k="name" v="Nattbekken" />
		<tag k="ssr:stedsnr" v="309418" />
		<tag k="waterway" v="stream" />
	</node>
	<node id="-294295" lat="60.3983438831" lon="8.58835610346">
		<tag k="name" v="Bergsjø" />
		<tag k="natural" v="water" />
		<tag k="ssr:stedsnr" v="309409" />
		<tag k="water" v="lake" />
	</node>
	<node id="-294293" lat="60.3998305563" lon="8.60537499521">
		<tag k="name" v="Smådøla" />
		<tag k="ssr:stedsnr" v="309405" />
		<tag k="waterway" v="river" />
	</node>
	<node id="-294292" lat="60.3791805567" lon="8.9988750079">
		<tag k="name" v="Bergarlitjønn" />
		<tag k="natural" v="water" />
		<tag k="ssr:stedsnr" v="309401" />
	</node>
	<node id="-294290" lat="60.4246500777" lon="9.0260377924">
		<tag k="name" v="Hundevatne" />
		<tag k="natural" v="water" />
		<tag k="ssr:stedsnr" v="309375" />
		<tag k="water" v="lake" />
	</node>
	<node id="-294285" lat="60.3264388883" lon="8.44262499236">
		<tag k="name" v="Gvonnetjønnbekken" />
		<tag k="ssr:stedsnr" v="309284" />
		<tag k="waterway" v="stream" />
	</node>
	<node id="-294284" lat="60.3250166678" lon="8.22522223068">
		<tag k="name" v="Ræpeholbekken" />
		<tag k="ssr:stedsnr" v="309279" />
		<tag k="waterway" v="stream" />
	</node>
	<node id="-294278" lat="60.4825777765" lon="8.75385277884">
		<tag k="alt_name" v="Tunnsevatn" />
		<tag k="loc_name" v="Tunsevatnet" />
		<tag k="name" v="Tunsennvatnet" />
		<tag k="natural" v="water" />
		<tag k="ssr:stedsnr" v="309096" />
		<tag k="water" v="lake" />
	</node>
	<node id="-294277" lat="60.4723944476" lon="8.81413334039">
		<tag k="name" v="Kråketjønne" />
		<tag k="natural" v="water" />
		<tag k="ssr:stedsnr" v="309080" />
	</node>
	<node id="-294274" lat="60.2758248826" lon="8.3706113392">
		<tag k="name" v="Rundenuttjønnan" />
		<tag k="natural" v="water" />
		<tag k="ssr:stedsnr" v="309056" />
		<tag k="water" v="lake" />
	</node>
	<node id="-294265" lat="60.2142333372" lon="9.11655278124">
		<tag k="name" v="Vergja" />
		<tag k="ssr:stedsnr" v="308878" />
		<tag k="waterway" v="river" />
	</node>
	<node id="-294261" lat="60.0803749995" lon="9.0414555635">
		<tag k="name" v="Dalsettjønne" />
		<tag k="natural" v="water" />
		<tag k="ssr:stedsnr" v="308668" />
	</node>
	<node id="-294259" lat="60.1558557222" lon="9.01660140609">
		<tag k="name" v="Frygnefjorden" />
		<tag k="natural" v="water" />
		<tag k="ssr:stedsnr" v="308586" />
	</node>
	<node id="-294254" lat="60.168249997" lon="8.98236944278">
		<tag k="name" v="Metjønn" />
		<tag k="natural" v="water" />
		<tag k="ssr:stedsnr" v="308537" />
	</node>
	<node id="-294253" lat="60.2391984161" lon="8.40814072334">
		<tag k="name" v="Gryvletjønnan" />
		<tag k="natural" v="water" />
		<tag k="ssr:stedsnr" v="308504" />
		<tag k="water" v="lake" />
	</node>
	<node id="-294251" lat="60.1469583358" lon="9.1313333292">
		<tag k="name" v="Gåsetjønnbekken" />
		<tag k="ssr:stedsnr" v="308494" />
		<tag k="waterway" v="stream" />
	</node>
	<node id="-294245" lat="60.218338893" lon="8.25304165798">
		<tag k="name" v="Smågefjorden" />
		<tag k="natural" v="water" />
		<tag k="ssr:stedsnr" v="307933" />
		<tag k="water" v="lake" />
	</node>
	<node id="-294243" lat="60.2090222263" lon="8.05029999239">
		<tag k="name" v="Grøntjønn" />
		<tag k="natural" v="water" />
		<tag k="ssr:stedsnr" v="307682" />
	</node>
	<node id="-294238" lat="60.1837833353" lon="9.17797500591">
		<tag k="alt_name" v="Svarttjønn" />
		<tag k="name" v="Svartetjønn" />
		<tag k="natural" v="water" />
		<tag k="ssr:stedsnr" v="307593" />
	</node>
	<node id="-294235" lat="60.1695333323" lon="8.92607499298">
		<tag k="alt_name" v="Røytjønne;Røytjønn" />
		<tag k="name" v="Røyetjønn" />
		<tag k="natural" v="water" />
		<tag k="ssr:stedsnr" v="307572" />
	</node>
	<node id="-294227" lat="60.5018749986" lon="8.56803334092">
		<tag k="name" v="Søre Rotetjønne" />
		<tag k="natural" v="water" />
		<tag k="ssr:stedsnr" v="189174" />
	</node>
	<node id="-294219" lat="60.2860972228" lon="9.03863888611">
		<tag k="name" v="Nordre Liartjønne" />
		<tag k="natural" v="water" />
		<tag k="ssr:stedsnr" v="188540" />
	</node>
	<node id="-294214" lat="60.2790249999" lon="8.70072500315">
		<tag k="alt_name" v="Gallakbekken" />
		<tag k="name" v="Gallåkbekken" />
		<tag k="ssr:stedsnr" v="188520" />
		<tag k="waterway" v="stream" />
	</node>
	<node id="-294208" lat="60.3204527768" lon="8.72635000677">
		<tag k="name" v="Vasstølbekken" />
		<tag k="ssr:stedsnr" v="188485" />
		<tag k="waterway" v="stream" />
	</node>
	<node id="-294198" lat="60.3432083303" lon="8.92649999212">
		<tag k="name" v="Strandesteintjønne" />
		<tag k="natural" v="water" />
		<tag k="ssr:stedsnr" v="188444" />
	</node>
	<node id="-294191" lat="60.3562583328" lon="9.10248054978">
		<tag k="name" v="Nordre Økteren" />
		<tag k="natural" v="water" />
		<tag k="ssr:stedsnr" v="188421" />
		<tag k="water" v="lake" />
	</node>
	<node id="-294190" lat="60.3542750013" lon="9.09580278577">
		<tag k="name" v="Vassimellom" />
		<tag k="natural" v="strait" />
		<tag k="ssr:stedsnr" v="188420" />
	</node>
	<node id="-294189" lat="60.3600388903" lon="8.99419999902">
		<tag k="name" v="Grønlundselve" />
		<tag k="ssr:stedsnr" v="188419" />
		<tag k="waterway" v="river" />
	</node>
	<node id="-294186" lat="60.2523849359" lon="9.13928408293">
		<tag k="alt_name" v="Nedre Veavatn" />
		<tag k="name" v="Nedre Veavatnet" />
		<tag k="natural" v="water" />
		<tag k="ssr:stedsnr" v="188334" />
	</node>
	<node id="-294185" lat="60.2585305514" lon="8.8864333331">
		<tag k="name" v="Fønnebøfjorden" />
		<tag k="natural" v="water" />
		<tag k="ssr:stedsnr" v="188308" />
		<tag k="water" v="lake" />
	</node>
	<node id="-294176" lat="60.3484657815" lon="8.28550498509">
		<tag k="name" v="Ormetjønnan" />
		<tag k="natural" v="water" />
		<tag k="ssr:stedsnr" v="188226" />
		<tag k="water" v="lake" />
	</node>
	<node id="-294173" lat="60.4539611067" lon="8.6769222288">
		<tag k="name" v="Urdebekktjønne" />
		<tag k="natural" v="water" />
		<tag k="ssr:stedsnr" v="188084" />
	</node>
	<node id="-294172" lat="60.275658333" lon="8.31494445081">
		<tag k="name" v="Fiskeløkbekken" />
		<tag k="ssr:stedsnr" v="188076" />
		<tag k="waterway" v="stream" />
	</node>
	<node id="-294169" lat="60.2570535605" lon="8.1825815911">
		<tag k="name" v="Øvre Halstjønnan" />
		<tag k="natural" v="water" />
		<tag k="ssr:stedsnr" v="188065" />
		<tag k="water" v="lake" />
	</node>
	<node id="-294167" lat="60.2584638912" lon="8.2471416662">
		<tag k="name" v="Falkenuttjønnan" />
		<tag k="natural" v="water" />
		<tag k="ssr:stedsnr" v="188054" />
		<tag k="water" v="lake" />
	</node>
	<node id="-294166" lat="60.2514305514" lon="8.39031667046">
		<tag k="name" v="Rognebutjønn" />
		<tag k="natural" v="water" />
		<tag k="ssr:stedsnr" v="188049" />
	</node>
	<node id="-294160" lat="60.2341000041" lon="8.41618610747">
		<tag k="name" v="Storrobekken" />
		<tag k="ssr:stedsnr" v="187926" />
		<tag k="waterway" v="stream" />
	</node>
	<node id="-294154" lat="60.2128749972" lon="8.93528610585">
		<tag k="name" v="Krosstjønne" />
		<tag k="natural" v="water" />
		<tag k="ssr:stedsnr" v="187882" />
	</node>
	<node id="-294151" lat="60.2132639965" lon="7.70292497437">
		<tag k="name" v="Lomavikan" />
		<tag k="natural" v="water" />
		<tag k="ssr:stedsnr" v="187685" />
		<tag k="water" v="lake" />
	</node>
	<node id="-294150" lat="60.2040767885" lon="7.72561396729">
		<tag k="name" v="Torjustjønnan" />
		<tag k="natural" v="water" />
		<tag k="ssr:stedsnr" v="187678" />
		<tag k="water" v="lake" />
	</node>
	<node id="-294148" lat="60.1492249975" lon="8.95453611532">
		<tag k="name" v="Eidsåe" />
		<tag k="ssr:stedsnr" v="187558" />
		<tag k="waterway" v="river" />
	</node>
	<node id="-294144" lat="60.1388361076" lon="9.09536667077">
		<tag k="name" v="Kverndalstjønne" />
		<tag k="natural" v="water" />
		<tag k="ssr:stedsnr" v="187484" />
	</node>
	<node id="-294141" lat="60.2392222238" lon="9.14373056118">
		<tag k="name" v="Hestehovtjønnan" />
		<tag k="natural" v="water" />
		<tag k="ssr:stedsnr" v="186982" />
		<tag k="water" v="lake" />
	</node>
	<node id="-294140" lat="60.1961638911" lon="8.43906389001">
		<tag k="name" v="Gryttjønnan" />
		<tag k="natural" v="water" />
		<tag k="ssr:stedsnr" v="186967" />
		<tag k="water" v="lake" />
	</node>
	<node id="-294139" lat="60.1876111124" lon="8.17735832565">
		<tag k="name" v="Skartåkerbekken" />
		<tag k="ssr:stedsnr" v="186966" />
		<tag k="waterway" v="stream" />
	</node>
	<node id="-294134" lat="60.2196694403" lon="8.94717223109">
		<tag k="name" v="Rosetåe" />
		<tag k="ssr:stedsnr" v="186895" />
		<tag k="waterway" v="stream" />
	</node>
	<node id="-294132" lat="60.2204916704" lon="8.93060000422">
		<tag k="alt_name" v="Rosetvatn" />
		<tag k="name" v="Rosetvatnet" />
		<tag k="natural" v="water" />
		<tag k="ssr:stedsnr" v="186875" />
	</node>
	<node id="-294131" lat="60.2234055517" lon="7.90361111463">
		<tag k="name" v="Tjuvhyttjønne" />
		<tag k="natural" v="water" />
		<tag k="ssr:stedsnr" v="186693" />
	</node>
	<node id="-294127" lat="60.1867805528" lon="8.90000556341">
		<tag k="name" v="Selabakksetertjønne" />
		<tag k="natural" v="water" />
		<tag k="ssr:stedsnr" v="186642" />
	</node>
	<node id="-294122" lat="60.169463887" lon="8.9931083253">
		<tag k="alt_name" v="Noretjønn" />
		<tag k="name" v="Noreåstjønn" />
		<tag k="natural" v="water" />
		<tag k="ssr:stedsnr" v="186614" />
	</node>
	<node id="-294109" lat="60.2276194489" lon="9.00882778457">
		<tag k="name" v="Øvrefjorden" />
		<tag k="natural" v="water" />
		<tag k="ssr:stedsnr" v="178443" />
	</node>
	<node id="-294098" lat="60.2381944461" lon="9.10045833428">
		<tag k="name" v="Gullbutjørn" />
		<tag k="natural" v="water" />
		<tag k="ssr:stedsnr" v="163492" />
	</node>
	<node id="-294084" lat="60.5018444414" lon="8.59908888423">
		<tag k="name" v="Rødungsvingen" />
		<tag k="natural" v="bay" />
		<tag k="ssr:stedsnr" v="128161" />
	</node>
	<node id="-294081" lat="60.3077500027" lon="8.02702500548">
		<tag k="name" v="Revhølan" />
		<tag k="place" v="locality" />
		<tag k="ssr:stedsnr" v="127779" />
	</node>
	<node id="-294076" lat="60.3100000012" lon="8.61323611887">
		<tag k="alt_name" v="Kvetavatn" />
		<tag k="name" v="Gvetavatn" />
		<tag k="natural" v="water" />
		<tag k="ssr:stedsnr" v="127478" />
		<tag k="water" v="lake" />
	</node>
	<node id="-294075" lat="60.3170499996" lon="8.65883333146">
		<tag k="fixme" v="multiple name tags, choose one and add the other to alt_name" />
		<tag k="name" v="Klypa;Klypetjønn" />
		<tag k="natural" v="water" />
		<tag k="ssr:stedsnr" v="127476" />
	</node>
	<node id="-294074" lat="60.3222305573" lon="8.67904999356">
		<tag k="name" v="Holmetjønn" />
		<tag k="natural" v="water" />
		<tag k="ssr:stedsnr" v="127473" />
	</node>
	<node id="-294067" lat="60.3353361116" lon="8.89906111961">
		<tag k="alt_name" v="Øygardsholmene" />
		<tag k="name" v="Øygardsholman" />
		<tag k="place" v="islet" />
		<tag k="ssr:stedsnr" v="127443" />
	</node>
	<node id="-294064" lat="60.3553638878" lon="8.62629999573">
		<tag k="alt_name" v="Steinsetdalvatn" />
		<tag k="name" v="Steinsetdalsvatnet" />
		<tag k="natural" v="water" />
		<tag k="old_name" v="Stensetdals Kjøn" />
		<tag k="ssr:stedsnr" v="127425" />
	</node>
	<node id="-294058" lat="60.3830611075" lon="8.93536389491">
		<tag k="name" v="Dusetjønne" />
		<tag k="natural" v="water" />
		<tag k="ssr:stedsnr" v="127392" />
	</node>
	<node id="-294057" lat="60.4282000026" lon="8.99038054655">
		<tag k="name" v="Raudsidtjønne" />
		<tag k="natural" v="water" />
		<tag k="ssr:stedsnr" v="127362" />
	</node>
	<node id="-294056" lat="60.4344222217" lon="8.8839499957">
		<tag k="alt_name" v="Langedragbekken" />
		<tag k="name" v="Langedragsbekken" />
		<tag k="ssr:stedsnr" v="127359" />
		<tag k="waterway" v="stream" />
	</node>
	<node id="-294047" lat="60.4865166643" lon="8.49136388554">
		<tag k="name" v="Halldalsåne" />
		<tag k="ssr:stedsnr" v="127044" />
		<tag k="waterway" v="stream" />
	</node>
	<node id="-294046" lat="60.3036999971" lon="8.27433055185">
		<tag k="name" v="Melrakktjønne" />
		<tag k="natural" v="water" />
		<tag k="ssr:stedsnr" v="127028" />
	</node>
	<node id="-294043" lat="60.2122249974" lon="9.07546111017">
		<tag k="name" v="Dakkesettjønne" />
		<tag k="natural" v="water" />
		<tag k="ssr:stedsnr" v="126893" />
	</node>
	<node id="-294042" lat="60.2161000043" lon="8.91718610774">
		<tag k="name" v="Skurvetjønne" />
		<tag k="natural" v="water" />
		<tag k="ssr:stedsnr" v="126883" />
	</node>
	<node id="-294039" lat="60.2392833341" lon="8.56255277145">
		<tag k="alt_name" v="Lortetjønn" />
		<tag k="name" v="Lortetjønne" />
		<tag k="natural" v="water" />
		<tag k="ssr:stedsnr" v="126854" />
	</node>
	<node id="-294031" lat="60.1383027818" lon="9.07615000076">
		<tag k="name" v="Vehustjønne" />
		<tag k="natural" v="water" />
		<tag k="ssr:stedsnr" v="126516" />
	</node>
	<node id="-294028" lat="60.2492111079" lon="7.64778332528">
		<tag k="name" v="Vestre Bakketjønne" />
		<tag k="natural" v="water" />
		<tag k="ssr:stedsnr" v="126250" />
	</node>
	<node id="-294025" lat="60.2191388924" lon="8.46040000384">
		<tag k="loc_name" v="Sjugurdstjønn" />
		<tag k="name" v="Sjugurdstjønne" />
		<tag k="natural" v="water" />
		<tag k="ssr:stedsnr" v="125960" />
	</node>
	<node id="-294022" lat="60.209583332" lon="8.39226111576">
		<tag k="name" v="Nutebekken" />
		<tag k="ssr:stedsnr" v="125954" />
		<tag k="waterway" v="stream" />
	</node>
	<node id="-294017" lat="60.2107504968" lon="7.92973133989">
		<tag k="name" v="Festningstjønnan" />
		<tag k="natural" v="water" />
		<tag k="ssr:stedsnr" v="125690" />
		<tag k="water" v="lake" />
	</node>
	<node id="-294016" lat="60.2422888894" lon="8.07942777252">
		<tag k="name" v="Skjortetjønnan" />
		<tag k="natural" v="water" />
		<tag k="ssr:stedsnr" v="125685" />
		<tag k="water" v="lake" />
	</node>
	<node id="-294014" lat="60.1762666649" lon="8.92374999662">
		<tag k="name" v="Hausttjønn" />
		<tag k="natural" v="water" />
		<tag k="ssr:stedsnr" v="125587" />
	</node>
	<node id="-293999" lat="60.3999833331" lon="8.89806388706">
		<tag k="name" v="Olapytt" />
		<tag k="natural" v="water" />
		<tag k="ssr:stedsnr" v="118349" />
		<tag k="water" v="pond" />
	</node>
	<node id="-293982" lat="60.1720250034" lon="7.80898610534">
		<tag k="name" v="Butjønn" />
		<tag k="natural" v="water" />
		<tag k="ssr:stedsnr" v="81611" />
	</node>
	<node id="-293981" lat="60.2242960502" lon="8.533419372">
		<tag k="name" v="Sønstevatn" />
		<tag k="natural" v="water" />
		<tag k="ssr:stedsnr" v="81115" />
		<tag k="water" v="lake" />
	</node>
	<node id="-293978" lat="60.5057861125" lon="8.68170277172">
		<tag k="name" v="Øvre Djupetjønn" />
		<tag k="natural" v="water" />
		<tag k="ssr:stedsnr" v="68200" />
	</node>
	<node id="-293977" lat="60.4014638867" lon="8.88908332488">
		<tag k="alt_name" v="Raubekken" />
		<tag k="name" v="Raudbekken" />
		<tag k="ssr:stedsnr" v="67376" />
		<tag k="waterway" v="stream" />
	</node>
	<node id="-293976" lat="60.301736114" lon="8.92363610529">
		<tag k="name" v="Taklitjønne" />
		<tag k="natural" v="water" />
		<tag k="ssr:stedsnr" v="67490" />
	</node>
	<node id="-293973" lat="60.3103333359" lon="9.00363889152">
		<tag k="name" v="Kolhustjønnan" />
		<tag k="natural" v="water" />
		<tag k="ssr:stedsnr" v="67477" />
		<tag k="water" v="lake" />
	</node>
	<node id="-293966" lat="60.3444984621" lon="8.44733530478">
		<tag k="name" v="Søre Kroktjønne" />
		<tag k="natural" v="water" />
		<tag k="ssr:stedsnr" v="67270" />
	</node>
	<node id="-293962" lat="60.488116667" lon="8.64934166718">
		<tag k="name" v="Bikkjetjønnan" />
		<tag k="natural" v="water" />
		<tag k="ssr:stedsnr" v="67050" />
		<tag k="water" v="lake" />
	</node>
	<node id="-293961" lat="60.4913232841" lon="8.69562872764">
		<tag k="name" v="Hakatjønne" />
		<tag k="natural" v="water" />
		<tag k="ssr:stedsnr" v="67046" />
	</node>
	<node id="-293960" lat="60.3054666688" lon="8.29895555842">
		<tag k="name" v="Beltetjønne" />
		<tag k="natural" v="water" />
		<tag k="ssr:stedsnr" v="67037" />
	</node>
	<node id="-293950" lat="60.3438000026" lon="7.97924721681">
		<tag k="name" v="Nedre Hein" />
		<tag k="natural" v="water" />
		<tag k="old_name" v="ned Hein;ned Heiern" />
		<tag k="ssr:stedsnr" v="66794" />
		<tag k="water" v="lake" />
	</node>
	<node id="-293947" lat="60.3494138873" lon="7.69040555762">
		<tag k="name" v="Smalsund" />
		<tag k="natural" v="strait" />
		<tag k="ssr:stedsnr" v="66874" />
	</node>
	<node id="-293946" lat="60.2217005925" lon="7.64879626371">
		<tag k="name" v="Brutjønnan" />
		<tag k="natural" v="water" />
		<tag k="ssr:stedsnr" v="66698" />
		<tag k="water" v="lake" />
	</node>
	<node id="-293940" lat="60.132005559" lon="8.92127777515">
		<tag k="alt_name" v="Kvannaelva" />
		<tag k="name" v="Kvanna" />
		<tag k="ssr:stedsnr" v="66478" />
		<tag k="waterway" v="stream" />
	</node>
	<node id="-293937" lat="60.3763916663" lon="8.49788888138">
		<tag k="name" v="Torsetbekken" />
		<tag k="ssr:stedsnr" v="66383" />
		<tag k="waterway" v="stream" />
	</node>
	<node id="-293934" lat="60.2766833313" lon="8.33314721726">
		<tag k="name" v="Kruketjønne" />
		<tag k="natural" v="water" />
		<tag k="ssr:stedsnr" v="66059" />
	</node>
	<node id="-293933" lat="60.2677888902" lon="8.43046388942">
		<tag k="name" v="Mjågesjøen" />
		<tag k="natural" v="water" />
		<tag k="ssr:stedsnr" v="66052" />
		<tag k="water" v="lake" />
	</node>
	<node id="-293929" lat="60.1944213651" lon="8.28363446811">
		<tag k="name" v="Austre Søltjønne" />
		<tag k="natural" v="water" />
		<tag k="ssr:stedsnr" v="65958" />
	</node>
	<node id="-293928" lat="60.213047221" lon="8.34595278104">
		<tag k="name" v="Nedre Afdalstjønne" />
		<tag k="natural" v="water" />
		<tag k="ssr:stedsnr" v="65953" />
	</node>
	<node id="-293925" lat="60.2392222231" lon="8.82789722817">
		<tag k="name" v="Deveggåe" />
		<tag k="ssr:stedsnr" v="65857" />
		<tag k="waterway" v="stream" />
	</node>
	<node id="-293919" lat="60.1780259486" lon="8.01282977384">
		<tag k="name" v="Hettefjorden" />
		<tag k="natural" v="water" />
		<tag k="ssr:stedsnr" v="65568" />
		<tag k="water" v="lake" />
	</node>
	<node id="-293917" lat="60.1497262408" lon="7.84402231985">
		<tag k="name" v="Vegarhovdtjønnan" />
		<tag k="natural" v="water" />
		<tag k="ssr:stedsnr" v="65558" />
		<tag k="water" v="lake" />
	</node>
	<node id="-293916" lat="60.1583555578" lon="7.96610000093">
		<tag k="name" v="Kalven" />
		<tag k="natural" v="water" />
		<tag k="ssr:stedsnr" v="65556" />
		<tag k="water" v="lake" />
	</node>
	<node id="-293904" lat="60.3849833308" lon="8.95454167027">
		<tag k="name" v="Kursettjørn" />
		<tag k="natural" v="water" />
		<tag k="ssr:stedsnr" v="57338" />
	</node>
	<node id="-293900" lat="60.2385666647" lon="8.92068611321">
		<tag k="name" v="Kalltjønn" />
		<tag k="natural" v="water" />
		<tag k="ssr:stedsnr" v="57292" />
	</node>
	<node id="-293899" lat="60.3274083308" lon="8.74968055694">
		<tag k="name" v="Svarttjørn" />
		<tag k="natural" v="water" />
		<tag k="ssr:stedsnr" v="57142" />
	</node>
	<node id="-293877" lat="60.2901249982" lon="7.91847222639">
		<tag k="name" v="Djupa" />
		<tag k="ssr:stedsnr" v="6768" />
		<tag k="waterway" v="river" />
	</node>
	<node id="-293873" lat="60.2957138916" lon="9.08495000295">
		<tag k="name" v="Langlitjønne" />
		<tag k="natural" v="water" />
		<tag k="ssr:stedsnr" v="6523" />
	</node>
	<node id="-293866" lat="60.2926777743" lon="8.59923332985">
		<tag k="name" v="Gvetaåe" />
		<tag k="ssr:stedsnr" v="6501" />
		<tag k="waterway" v="stream" />
	</node>
	<node id="-293863" lat="60.3140000033" lon="8.98359166772">
		<tag k="name" v="Beinbergtjønne" />
		<tag k="natural" v="water" />
		<tag k="ssr:stedsnr" v="6487" />
	</node>
	<node id="-293861" lat="60.3108305596" lon="8.78937221764">
		<tag k="alt_name" v="Granasetbekken" />
		<tag k="name" v="Grånåsetbekken" />
		<tag k="ssr:stedsnr" v="6476" />
		<tag k="waterway" v="stream" />
	</node>
	<node id="-293860" lat="60.3167296079" lon="9.11000539472">
		<tag k="name" v="Gymletjønne" />
		<tag k="natural" v="water" />
		<tag k="ssr:stedsnr" v="6472" />
	</node>
	<node id="-295078" lat="60.2055527766" lon="9.0899666689">
		<tag k="name" v="Langelibekken" />
		<tag k="ssr:stedsnr" v="950625" />
		<tag k="waterway" v="stream" />
	</node>
	<node id="-293858" lat="60.3198611095" lon="8.5397500081">
		<tag k="name" v="Bjørnebekken" />
		<tag k="ssr:stedsnr" v="6458" />
		<tag k="waterway" v="stream" />
	</node>
	<node id="-293856" lat="60.3466027816" lon="8.75346666264">
		<tag k="name" v="Risdøla" />
		<tag k="ssr:stedsnr" v="6450" />
		<tag k="waterway" v="river" />
	</node>
	<node id="-293847" lat="60.3911611139" lon="8.89979444917">
		<tag k="name" v="Nordre Jernbutjønne" />
		<tag k="natural" v="water" />
		<tag k="ssr:stedsnr" v="6378" />
	</node>
	<node id="-293846" lat="60.4220027812" lon="8.93764999152">
		<tag k="name" v="Langvatnet" />
		<tag k="natural" v="water" />
		<tag k="ssr:stedsnr" v="6351" />
		<tag k="water" v="lake" />
	</node>
	<node id="-293845" lat="60.2529000012" lon="9.10757499574">
		<tag k="alt_name" v="Nøstjønn;Nostjønne" />
		<tag k="name" v="Nostjønn" />
		<tag k="natural" v="water" />
		<tag k="old_name" v="Nostj" />
		<tag k="ssr:stedsnr" v="6332" />
	</node>
	<node id="-293827" lat="60.4537361093" lon="8.66234722738">
		<tag k="name" v="Storetjønn" />
		<tag k="natural" v="water" />
		<tag k="ssr:stedsnr" v="6083" />
	</node>
	<node id="-293825" lat="60.2666777738" lon="8.39633888173">
		<tag k="name" v="Hæratjønn" />
		<tag k="natural" v="water" />
		<tag k="ssr:stedsnr" v="6059" />
	</node>
	<node id="-293814" lat="60.1953173186" lon="8.73105488169">
		<tag k="name" v="Gråvårrandtjønnan" />
		<tag k="natural" v="water" />
		<tag k="ssr:stedsnr" v="5836" />
		<tag k="water" v="lake" />
	</node>
	<node id="-293810" lat="60.3497472199" lon="7.72742222945">
		<tag k="name" v="Lometjønne" />
		<tag k="natural" v="water" />
		<tag k="ssr:stedsnr" v="5780" />
	</node>
	<node id="-293807" lat="60.3251465737" lon="7.89948925099">
		<tag k="name" v="Smalostjønn" />
		<tag k="natural" v="water" />
		<tag k="ssr:stedsnr" v="5750" />
	</node>
	<node id="-293802" lat="60.2428222674" lon="8.29232853138">
		<tag k="name" v="Bustadtjønnan" />
		<tag k="natural" v="water" />
		<tag k="ssr:stedsnr" v="5519" />
		<tag k="water" v="lake" />
	</node>
	<node id="-293794" lat="60.2438750024" lon="8.86591111487">
		<tag k="name" v="Veavassåe" />
		<tag k="ssr:stedsnr" v="4979" />
		<tag k="waterway" v="stream" />
	</node>
	<node id="-293793" lat="60.1825083345" lon="8.10162222313">
		<tag k="name" v="Hetteåe" />
		<tag k="ssr:stedsnr" v="4968" />
		<tag k="waterway" v="stream" />
	</node>
	<node id="-293792" lat="60.1927617662" lon="8.36715080722">
		<tag k="name" v="Øvre Nutetjønnan" />
		<tag k="natural" v="water" />
		<tag k="ssr:stedsnr" v="4957" />
		<tag k="water" v="lake" />
	</node>
	<node id="-293789" lat="60.2229250028" lon="9.11870833876">
		<tag k="name" v="Hølbutjønne" />
		<tag k="natural" v="water" />
		<tag k="ssr:stedsnr" v="4910" />
	</node>
	<node id="-293785" lat="60.2309833341" lon="9.14936389524">
		<tag k="name" v="Kårsetbekken" />
		<tag k="ssr:stedsnr" v="4892" />
		<tag k="waterway" v="stream" />
	</node>
	<node id="-293783" lat="60.1997972217" lon="7.67667778245">
		<tag k="name" v="Veisetjønnan" />
		<tag k="natural" v="water" />
		<tag k="ssr:stedsnr" v="4697" />
		<tag k="water" v="lake" />
	</node>
	<node id="-293759" lat="60.4513916687" lon="8.90620833861">
		<tag k="name" v="Rovetjørn" />
		<tag k="natural" v="water" />
		<tag k="ssr:stedsnr" v="967204" />
	</node>
	<node id="-293756" lat="60.1920861069" lon="8.98063332508">
		<tag k="name" v="Svåa" />
		<tag k="ssr:stedsnr" v="950126" />
		<tag k="waterway" v="stream" />
	</node>
	<node id="-293753" lat="60.3119536371" lon="9.09704422873">
		<tag k="name" v="Kokken" />
		<tag k="natural" v="water" />
		<tag k="ssr:stedsnr" v="917405" />
	</node>
	<node id="-293750" lat="60.3829000037" lon="8.89887499775">
		<tag k="alt_name" v="Langetjørn" />
		<tag k="name" v="Langvatnet" />
		<tag k="natural" v="water" />
		<tag k="ssr:stedsnr" v="917324" />
	</node>
	<node id="-293749" lat="60.4142083309" lon="8.93553610842">
		<tag k="name" v="Søletjønne" />
		<tag k="natural" v="water" />
		<tag k="ssr:stedsnr" v="917307" />
	</node>
	<node id="-293747" lat="60.4120916696" lon="8.86385832425">
		<tag k="name" v="Storneset" />
		<tag k="natural" v="cape" />
		<tag k="ssr:stedsnr" v="917304" />
	</node>
	<node id="-293746" lat="60.2725194419" lon="7.67665277232">
		<tag k="name" v="Bakkatjønneidet" />
		<tag k="natural" v="strait" />
		<tag k="ssr:stedsnr" v="916970" />
	</node>
	<node id="-293737" lat="60.2901638868" lon="9.13097500689">
		<tag k="name" v="Krosstjønne" />
		<tag k="natural" v="water" />
		<tag k="ssr:stedsnr" v="916614" />
	</node>
	<node id="-293734" lat="60.4422333369" lon="8.86378611888">
		<tag k="name" v="Grasdokkbekken" />
		<tag k="ssr:stedsnr" v="916355" />
		<tag k="waterway" v="stream" />
	</node>
	<node id="-293733" lat="60.3531777818" lon="9.01825833053">
		<tag k="name" v="Store Bjørsjø" />
		<tag k="natural" v="water" />
		<tag k="old_name" v="Store Bjorsjoren" />
		<tag k="ssr:stedsnr" v="916429" />
		<tag k="water" v="lake" />
	</node>
	<node id="-293729" lat="60.3549222252" lon="9.07675278564">
		<tag k="name" v="Langholmen" />
		<tag k="place" v="islet" />
		<tag k="ssr:stedsnr" v="916405" />
	</node>
	<node id="-293727" lat="60.2758388922" lon="9.03933055139">
		<tag k="name" v="Lomtjønne" />
		<tag k="natural" v="water" />
		<tag k="ssr:stedsnr" v="916270" />
	</node>
	<node id="-293725" lat="60.4487555571" lon="8.74755278244">
		<tag k="name" v="Motjønn" />
		<tag k="natural" v="water" />
		<tag k="ssr:stedsnr" v="916127" />
	</node>
	<node id="-293724" lat="60.447745699" lon="8.69412154">
		<tag k="name" v="Naustevikje" />
		<tag k="natural" v="bay" />
		<tag k="ssr:stedsnr" v="916126" />
	</node>
	<node id="-293721" lat="60.2930888882" lon="8.36611388364">
		<tag k="loc_name" v="Breibubekken" />
		<tag k="name" v="Breidbubekken" />
		<tag k="ssr:stedsnr" v="916006" />
		<tag k="waterway" v="stream" />
	</node>
	<node id="-293719" lat="60.1774361133" lon="8.75646389455">
		<tag k="name" v="Grensebekken" />
		<tag k="ssr:stedsnr" v="915860" />
		<tag k="waterway" v="stream" />
	</node>
	<node id="-293716" lat="60.1592749974" lon="7.72725277676">
		<tag k="name" v="Storsundet" />
		<tag k="natural" v="strait" />
		<tag k="ssr:stedsnr" v="915558" />
	</node>
	<node id="-293710" lat="60.2287194422" lon="8.92598333647">
		<tag k="name" v="Øvre Heimtjønn" />
		<tag k="natural" v="water" />
		<tag k="ssr:stedsnr" v="914994" />
	</node>
	<node id="-293701" lat="60.1713361117" lon="8.94316110598">
		<tag k="name" v="Bortjønn" />
		<tag k="natural" v="water" />
		<tag k="ssr:stedsnr" v="900469" />
	</node>
	<node id="-293700" lat="60.2038833347" lon="9.16414166586">
		<tag k="name" v="Sollivatn" />
		<tag k="natural" v="water" />
		<tag k="ssr:stedsnr" v="900462" />
		<tag k="water" v="lake" />
	</node>
	<node id="-293699" lat="60.1713361117" lon="8.94316110598">
		<tag k="name" v="Grytetjønn" />
		<tag k="natural" v="water" />
		<tag k="ssr:stedsnr" v="900408" />
	</node>
	<node id="-293689" lat="60.3008166668" lon="8.54020277693">
		<tag k="alt_name" v="Uvdalselve" />
		<tag k="name" v="Uvdalsåe" />
		<tag k="ssr:stedsnr" v="856513" />
		<tag k="waterway" v="river" />
	</node>
	<node id="-293684" lat="60.3582111079" lon="8.89668055019">
		<tag k="name" v="Skardnattjønne" />
		<tag k="natural" v="water" />
		<tag k="ssr:stedsnr" v="856424" />
	</node>
	<node id="-293670" lat="60.2922250024" lon="7.73704722819">
		<tag k="name" v="Holmtjønnbekken" />
		<tag k="ssr:stedsnr" v="855771" />
		<tag k="waterway" v="stream" />
	</node>
	<node id="-293662" lat="60.2047111121" lon="8.32378332469">
		<tag k="name" v="Øvre Afdalstjønne" />
		<tag k="natural" v="water" />
		<tag k="ssr:stedsnr" v="854954" />
	</node>
	<node id="-293661" lat="60.3722777757" lon="8.34617221336">
		<tag k="name" v="Primtjønne" />
		<tag k="natural" v="water" />
		<tag k="ssr:stedsnr" v="855216" />
	</node>
	<node id="-293659" lat="60.1834222257" lon="8.98049443552">
		<tag k="name" v="Loppetjønn" />
		<tag k="natural" v="water" />
		<tag k="ssr:stedsnr" v="854562" />
	</node>
	<node id="-293652" lat="60.4512388853" lon="8.74681944927">
		<tag k="name" v="Rundetjønn" />
		<tag k="natural" v="water" />
		<tag k="ssr:stedsnr" v="840554" />
	</node>
	<node id="-293651" lat="60.197330557" lon="8.9469027709">
		<tag k="loc_name" v="Vardtjønn" />
		<tag k="name" v="Valtjønn" />
		<tag k="natural" v="water" />
		<tag k="ssr:stedsnr" v="840406" />
	</node>
	<node id="-293650" lat="60.3951833319" lon="8.96121388872">
		<tag k="name" v="Brennbutjønne" />
		<tag k="natural" v="water" />
		<tag k="ssr:stedsnr" v="795399" />
	</node>
	<node id="-293647" lat="60.2286305574" lon="8.34632777943">
		<tag k="name" v="Gvonneviertjønne" />
		<tag k="natural" v="water" />
		<tag k="ssr:stedsnr" v="794953" />
	</node>
	<node id="-293646" lat="60.303972223" lon="8.39518333962">
		<tag k="name" v="Jønndalsåe" />
		<tag k="ssr:stedsnr" v="795037" />
		<tag k="waterway" v="river" />
	</node>
	<node id="-293641" lat="60.366897222" lon="7.92572223018">
		<tag k="name" v="Grønenutbekken" />
		<tag k="ssr:stedsnr" v="794779" />
		<tag k="waterway" v="stream" />
	</node>
	<node id="-293640" lat="60.2810219689" lon="7.85449963264">
		<tag k="name" v="Tormodtjønnan" />
		<tag k="natural" v="water" />
		<tag k="ssr:stedsnr" v="794753" />
		<tag k="water" v="lake" />
	</node>
	<node id="-293636" lat="60.1966999987" lon="7.88864721986">
		<tag k="name" v="Geitvassbekken" />
		<tag k="ssr:stedsnr" v="793619" />
		<tag k="waterway" v="stream" />
	</node>
	<node id="-293632" lat="60.1886000036" lon="8.89013054933">
		<tag k="alt_name" v="Breisetvatn" />
		<tag k="name" v="Breidsetvatnet" />
		<tag k="natural" v="water" />
		<tag k="ssr:stedsnr" v="793614" />
	</node>
	<node id="-293618" lat="60.3516527788" lon="8.06620277445">
		<tag k="name" v="Heinelvi" />
		<tag k="ssr:stedsnr" v="916824" />
		<tag k="waterway" v="river" />
	</node>
	<node id="-293617" lat="60.34671111" lon="7.69281943627">
		<tag k="name" v="Skaupsjøen" />
		<tag k="natural" v="water" />
		<tag k="ssr:stedsnr" v="916891" />
		<tag k="water" v="lake" />
	</node>
	<node id="-293615" lat="60.2790500027" lon="8.02820277169">
		<tag k="name" v="Langevatnet" />
		<tag k="natural" v="water" />
		<tag k="ssr:stedsnr" v="916794" />
		<tag k="water" v="lake" />
	</node>
	<node id="-293614" lat="60.2555499958" lon="7.99897222335">
		<tag k="name" v="Fesbulonin" />
		<tag k="place" v="locality" />
		<tag k="ssr:stedsnr" v="916790" />
	</node>
	<node id="-293613" lat="60.266344156" lon="7.98583328785">
		<tag k="name" v="Dagfisketjønne" />
		<tag k="natural" v="water" />
		<tag k="ssr:stedsnr" v="916786" />
	</node>
	<node id="-293612" lat="60.3165472265" lon="7.97354721406">
		<tag k="name" v="Geitsjøvikje" />
		<tag k="natural" v="bay" />
		<tag k="ssr:stedsnr" v="916783" />
	</node>
	<node id="-293607" lat="60.3428750002" lon="8.51138055721">
		<tag k="name" v="Åndetjønn" />
		<tag k="natural" v="water" />
		<tag k="ssr:stedsnr" v="916444" />
	</node>
	<node id="-293595" lat="60.3452888928" lon="8.95976110247">
		<tag k="name" v="Duselve" />
		<tag k="ssr:stedsnr" v="916402" />
		<tag k="waterway" v="river" />
	</node>
	<node id="-293594" lat="60.3753333356" lon="8.89546389461">
		<tag k="alt_name" v="Holmetjørn" />
		<tag k="name" v="Holmevatnet" />
		<tag k="natural" v="water" />
		<tag k="ssr:stedsnr" v="916399" />
		<tag k="water" v="lake" />
	</node>
	<node id="-293589" lat="60.4952055533" lon="8.73692221319">
		<tag k="alt_name" v="Langevatn;Langetjørm" />
		<tag k="name" v="Langevatnet" />
		<tag k="natural" v="water" />
		<tag k="ssr:stedsnr" v="916037" />
		<tag k="water" v="lake" />
	</node>
	<node id="-293587" lat="60.455358329" lon="8.81786666333">
		<tag k="name" v="Tunhovdtjønne" />
		<tag k="natural" v="water" />
		<tag k="ssr:stedsnr" v="916064" />
	</node>
	<node id="-293581" lat="60.2268999997" lon="9.08632500379">
		<tag k="name" v="Olebakktjønne" />
		<tag k="natural" v="water" />
		<tag k="ssr:stedsnr" v="915885" />
	</node>
	<node id="-293580" lat="60.236116663" lon="7.70235556271">
		<tag k="name" v="Langesjøen" />
		<tag k="natural" v="water" />
		<tag k="ssr:stedsnr" v="915692" />
		<tag k="water" v="lake" />
	</node>
	<node id="-293568" lat="60.215188885" lon="7.88751666002">
		<tag k="name" v="Kristofferhølen" />
		<tag k="natural" v="water" />
		<tag k="ssr:stedsnr" v="914686" />
	</node>
	<node id="-293566" lat="60.2418500013" lon="7.8742222308">
		<tag k="name" v="Langesjøtjønne" />
		<tag k="natural" v="water" />
		<tag k="ssr:stedsnr" v="914682" />
		<tag k="water" v="lake" />
	</node>
	<node id="-295029" lat="60.358599997" lon="7.92577777193">
		<tag k="name" v="Klovsteinlone" />
		<tag k="natural" v="water" />
		<tag k="ssr:stedsnr" v="855818" />
		<tag k="water" v="lake" />
	</node>
	<node id="-293563" lat="60.1744194462" lon="8.93309722188">
		<tag k="name" v="Krosstjønn" />
		<tag k="natural" v="water" />
		<tag k="ssr:stedsnr" v="914596" />
	</node>
	<node id="-293558" lat="60.2454944403" lon="9.15450556285">
		<tag k="name" v="Kårsettjørnan" />
		<tag k="natural" v="water" />
		<tag k="ssr:stedsnr" v="912805" />
		<tag k="water" v="lake" />
	</node>
	<node id="-293550" lat="60.2726083346" lon="9.11518889405">
		<tag k="name" v="Gamlebekken" />
		<tag k="ssr:stedsnr" v="907551" />
		<tag k="waterway" v="stream" />
	</node>
	<node id="-293530" lat="60.1651500037" lon="9.12783332859">
		<tag k="name" v="Bogetjønne" />
		<tag k="natural" v="water" />
		<tag k="ssr:stedsnr" v="732644" />
	</node>
	<node id="-293529" lat="60.1709861152" lon="9.11233889589">
		<tag k="name" v="Gvålsløkdammen" />
		<tag k="ssr:stedsnr" v="732642" />
		<tag k="waterway" v="dam" />
	</node>
	<node id="-293528" lat="60.2009198894" lon="7.87133223729">
		<tag k="name" v="Geitvatnet" />
		<tag k="natural" v="water" />
		<tag k="ssr:stedsnr" v="732620" />
		<tag k="water" v="lake" />
	</node>
	<node id="-295022" lat="60.2666500006" lon="8.00850000526">
		<tag k="name" v="Dagfiskeputten" />
		<tag k="place" v="locality" />
		<tag k="ssr:stedsnr" v="855792" />
	</node>
	<node id="-293522" lat="60.4483931616" lon="8.7125531023">
		<tag k="name" v="Breivik" />
		<tag k="natural" v="bay" />
		<tag k="ssr:stedsnr" v="724357" />
	</node>
	<node id="-293513" lat="60.1392000022" lon="9.02680832436">
		<tag k="name" v="Vårviken" />
		<tag k="natural" v="bay" />
		<tag k="ssr:stedsnr" v="891034" />
	</node>
	<node id="-293505" lat="60.2485888911" lon="8.58411110874">
		<tag k="name" v="Hegnebekken" />
		<tag k="ssr:stedsnr" v="889573" />
		<tag k="waterway" v="stream" />
	</node>
	<node id="-293498" lat="60.3391222233" lon="7.92402499103">
		<tag k="name" v="Butjønn" />
		<tag k="natural" v="water" />
		<tag k="ssr:stedsnr" v="688810" />
	</node>
	<node id="-293491" lat="60.281363891" lon="8.40563610974">
		<tag k="name" v="Mjågsjotjønne" />
		<tag k="natural" v="water" />
		<tag k="ssr:stedsnr" v="674003" />
	</node>
	<node id="-293490" lat="60.2370777801" lon="8.21243332823">
		<tag k="name" v="Dragøytjønne" />
		<tag k="natural" v="water" />
		<tag k="ssr:stedsnr" v="672495" />
	</node>
	<node id="-293477" lat="60.2531854784" lon="7.64899171219">
		<tag k="name" v="Vestre Bakkatjønn" />
		<tag k="natural" v="water" />
		<tag k="ssr:stedsnr" v="734986" />
		<tag k="water" v="lake" />
	</node>
	<node id="-293473" lat="60.2913222239" lon="8.93875833297">
		<tag k="name" v="Taklitjønnbekken" />
		<tag k="ssr:stedsnr" v="734554" />
		<tag k="waterway" v="stream" />
	</node>
	<node id="-293470" lat="60.2578623836" lon="8.51489774842">
		<tag k="alt_name" v="Langetj" />
		<tag k="fixme" v="multiple name tags, choose one and add the other to alt_name" />
		<tag k="name" v="Langetjern;Langevatn" />
		<tag k="natural" v="water" />
		<tag k="ssr:stedsnr" v="734542" />
	</node>
	<node id="-293464" lat="60.3000225128" lon="9.03645259178">
		<tag k="name" v="Lemortjønne" />
		<tag k="natural" v="water" />
		<tag k="ssr:stedsnr" v="734509" />
		<tag k="water" v="lake" />
	</node>
	<node id="-293462" lat="60.2881166709" lon="8.67088333067">
		<tag k="name" v="Røyslandtjønne" />
		<tag k="natural" v="water" />
		<tag k="ssr:stedsnr" v="734503" />
	</node>
	<node id="-293456" lat="60.2989000002" lon="8.50724166301">
		<tag k="name" v="Hegnabekken" />
		<tag k="ssr:stedsnr" v="734479" />
		<tag k="waterway" v="stream" />
	</node>
	<node id="-293448" lat="60.3312188845" lon="9.1283545407">
		<tag k="name" v="Fagerfettjønnan" />
		<tag k="natural" v="water" />
		<tag k="ssr:stedsnr" v="734449" />
		<tag k="water" v="lake" />
	</node>
	<node id="-293446" lat="60.3415757152" lon="8.8588730375">
		<tag k="name" v="Gvåstjønne" />
		<tag k="natural" v="water" />
		<tag k="ssr:stedsnr" v="734445" />
	</node>
	<node id="-293441" lat="60.3582777755" lon="8.87917499273">
		<tag k="alt_name" v="Bustrøm" />
		<tag k="name" v="Bustraumen" />
		<tag k="natural" v="strait" />
		<tag k="ssr:stedsnr" v="734422" />
	</node>
	<node id="-293433" lat="60.3176583362" lon="8.12200832832">
		<tag k="name" v="Nordskarvet" />
		<tag k="natural" v="water" />
		<tag k="ssr:stedsnr" v="734277" />
		<tag k="water" v="lake" />
	</node>
	<node id="-293432" lat="60.3501305541" lon="8.35478889095">
		<tag k="name" v="Ormtjønnbekken" />
		<tag k="ssr:stedsnr" v="734264" />
		<tag k="waterway" v="stream" />
	</node>
	<node id="-293427" lat="60.3689249989" lon="8.41686111238">
		<tag k="name" v="Storåstjønne" />
		<tag k="natural" v="water" />
		<tag k="ssr:stedsnr" v="734217" />
	</node>
	<node id="-293424" lat="60.4500333363" lon="8.72863610801">
		<tag k="name" v="Stortjønn" />
		<tag k="natural" v="water" />
		<tag k="ssr:stedsnr" v="734129" />
	</node>
	<node id="-293421" lat="60.2829121984" lon="8.24700865505">
		<tag k="name" v="Bollatjønne" />
		<tag k="natural" v="water" />
		<tag k="ssr:stedsnr" v="734064" />
		<tag k="water" v="lake" />
	</node>
	<node id="-293420" lat="60.2709222188" lon="8.1302583343">
		<tag k="name" v="Grottjønn" />
		<tag k="natural" v="water" />
		<tag k="ssr:stedsnr" v="734061" />
	</node>
	<node id="-293419" lat="60.2541805591" lon="8.3639120273">
		<tag k="name" v="Gryttjønne" />
		<tag k="natural" v="water" />
		<tag k="ssr:stedsnr" v="734054" />
		<tag k="water" v="lake" />
	</node>
	<node id="-293418" lat="60.2525111071" lon="8.32229166191">
		<tag k="name" v="Sløtjønn" />
		<tag k="natural" v="water" />
		<tag k="ssr:stedsnr" v="734048" />
	</node>
	<node id="-293417" lat="60.2495738216" lon="8.29686503995">
		<tag k="name" v="Gråvårtjønne" />
		<tag k="natural" v="water" />
		<tag k="ssr:stedsnr" v="734047" />
	</node>
	<node id="-293416" lat="60.4977277817" lon="8.67885000292">
		<tag k="name" v="Nedre Djupetjønn" />
		<tag k="natural" v="water" />
		<tag k="ssr:stedsnr" v="734043" />
	</node>
	<node id="-293414" lat="60.3062111081" lon="8.37601388255">
		<tag k="loc_name" v="Hølmen" />
		<tag k="name" v="Holmen" />
		<tag k="place" v="islet" />
		<tag k="ssr:stedsnr" v="734025" />
	</node>
	<node id="-293412" lat="60.16158056" lon="9.14286944812">
		<tag k="name" v="Okseløkbekken" />
		<tag k="ssr:stedsnr" v="646094" />
		<tag k="waterway" v="stream" />
	</node>
	<node id="-293409" lat="60.3566927304" lon="7.67969666242">
		<tag k="name" v="Breisund" />
		<tag k="natural" v="strait" />
		<tag k="ssr:stedsnr" v="733871" />
	</node>
	<node id="-293406" lat="60.2454638846" lon="8.66676667156">
		<tag k="name" v="Løyngardåe" />
		<tag k="ssr:stedsnr" v="733850" />
		<tag k="waterway" v="stream" />
	</node>
	<node id="-293405" lat="60.3840249968" lon="7.92272500155">
		<tag k="name" v="Grønenuttjønnan" />
		<tag k="natural" v="water" />
		<tag k="ssr:stedsnr" v="733773" />
		<tag k="water" v="lake" />
	</node>
	<node id="-293400" lat="60.1499638906" lon="7.75470277164">
		<tag k="name" v="Meinsbusundet" />
		<tag k="natural" v="strait" />
		<tag k="ssr:stedsnr" v="733542" />
	</node>
	<node id="-293398" lat="60.1032833339" lon="9.05722499602">
		<tag k="name" v="Kravikfjorden" />
		<tag k="natural" v="water" />
		<tag k="ssr:stedsnr" v="733530" />
	</node>
	<node id="-293397" lat="60.2472602488" lon="8.32076899105">
		<tag k="name" v="Pyttetjønnan" />
		<tag k="natural" v="water" />
		<tag k="ssr:stedsnr" v="733503" />
		<tag k="water" v="lake" />
	</node>
	<node id="-293391" lat="60.1839694471" lon="8.11117500245">
		<tag k="name" v="Havfosstjønne" />
		<tag k="natural" v="water" />
		<tag k="ssr:stedsnr" v="732974" />
	</node>
	<node id="-293386" lat="60.2258305594" lon="9.04463889309">
		<tag k="alt_name" v="Øktaelva;Øktaelve" />
		<tag k="name" v="Økta" />
		<tag k="ssr:stedsnr" v="732876" />
		<tag k="waterway" v="river" />
	</node>
	<node id="-293385" lat="60.2311666692" lon="9.06869722631">
		<tag k="name" v="Åbuktdalsbekken" />
		<tag k="ssr:stedsnr" v="732870" />
		<tag k="waterway" v="stream" />
	</node>
	<node id="-293384" lat="60.1626638928" lon="7.61863056044">
		<tag k="name" v="Bjornestangen" />
		<tag k="natural" v="cape" />
		<tag k="ssr:stedsnr" v="732746" />
	</node>
	<node id="-293383" lat="60.1805055552" lon="7.68020833377">
		<tag k="name" v="Jomfruholmen" />
		<tag k="place" v="island" />
		<tag k="ssr:stedsnr" v="732710" />
	</node>
	<node id="-293382" lat="60.164316671" lon="8.98387500406">
		<tag k="alt_name" v="Matbutjønne" />
		<tag k="name" v="Matbutjønn" />
		<tag k="natural" v="water" />
		<tag k="ssr:stedsnr" v="732598" />
	</node>
	<node id="-293381" lat="60.1094749982" lon="8.98749167538">
		<tag k="name" v="Fallstjønn" />
		<tag k="natural" v="water" />
		<tag k="ssr:stedsnr" v="732584" />
	</node>
	<node id="-293366" lat="60.4237666657" lon="8.95558889381">
		<tag k="loc_name" v="Hølmevatn" />
		<tag k="name" v="Holmevatn" />
		<tag k="natural" v="water" />
		<tag k="ssr:stedsnr" v="724323" />
		<tag k="water" v="lake" />
	</node>
	<node id="-293361" lat="60.4028583325" lon="8.94887221761">
		<tag k="name" v="Butjønne" />
		<tag k="natural" v="water" />
		<tag k="ssr:stedsnr" v="613368" />
	</node>
	<node id="-293360" lat="60.264536108" lon="7.66672777689">
		<tag k="name" v="Austre Bakkatjønn" />
		<tag k="natural" v="water" />
		<tag k="ssr:stedsnr" v="612971" />
		<tag k="water" v="lake" />
	</node>
	<node id="-293358" lat="60.2936111114" lon="8.20159722945">
		<tag k="name" v="Bakkebubekken" />
		<tag k="ssr:stedsnr" v="613019" />
		<tag k="waterway" v="stream" />
	</node>
	<node id="-293356" lat="60.343950001" lon="7.76779999827">
		<tag k="name" v="Skaupa" />
		<tag k="ssr:stedsnr" v="612808" />
		<tag k="waterway" v="river" />
	</node>
	<node id="-293355" lat="60.2619722248" lon="7.80282221862">
		<tag k="name" v="Flotatjønne" />
		<tag k="natural" v="water" />
		<tag k="ssr:stedsnr" v="612779" />
	</node>
	<node id="-293354" lat="60.2831222242" lon="8.01037778281">
		<tag k="name" v="Hølen" />
		<tag k="natural" v="water" />
		<tag k="ssr:stedsnr" v="612773" />
	</node>
	<node id="-293352" lat="60.4944861086" lon="8.63288611903">
		<tag k="name" v="Ostjønn" />
		<tag k="natural" v="water" />
		<tag k="ssr:stedsnr" v="612046" />
	</node>
	<node id="-293347" lat="60.2109749961" lon="8.86703054661">
		<tag k="alt_name" v="Veavatn" />
		<tag k="name" v="Veavatnet" />
		<tag k="natural" v="water" />
		<tag k="ssr:stedsnr" v="611913" />
		<tag k="water" v="lake" />
	</node>
	<node id="-293346" lat="60.2097638888" lon="8.92087500681">
		<tag k="alt_name" v="Langevatn" />
		<tag k="name" v="Langevatnet" />
		<tag k="natural" v="water" />
		<tag k="ssr:stedsnr" v="611910" />
		<tag k="water" v="lake" />
	</node>
	<node id="-293343" lat="60.1622500014" lon="9.01536944793">
		<tag k="name" v="Langodden" />
		<tag k="natural" v="cape" />
		<tag k="ssr:stedsnr" v="611623" />
	</node>
	<node id="-293332" lat="60.2907249979" lon="8.50258055107">
		<tag k="name" v="Bjønnetjørn" />
		<tag k="natural" v="water" />
		<tag k="ssr:stedsnr" v="586894" />
	</node>
	<node id="-293331" lat="60.1216444465" lon="9.11237500037">
		<tag k="alt_name" v="Røytjønn" />
		<tag k="name" v="Røytjønne" />
		<tag k="natural" v="water" />
		<tag k="old_name" v="Rørtjønn" />
		<tag k="ssr:stedsnr" v="586862" />
	</node>
	<node id="-293306" lat="60.1169416682" lon="9.12528888823">
		<tag k="name" v="Nilshøl" />
		<tag k="place" v="locality" />
		<tag k="ssr:stedsnr" v="696500" />
	</node>
	<node id="-293289" lat="60.2873944486" lon="8.2268361141">
		<tag k="name" v="Bollatjønnbekken" />
		<tag k="ssr:stedsnr" v="492007" />
		<tag k="waterway" v="stream" />
	</node>
	<node id="-293284" lat="60.19899722" lon="9.08098611543">
		<tag k="name" v="Svartetjønn" />
		<tag k="natural" v="water" />
		<tag k="ssr:stedsnr" v="490926" />
	</node>
	<node id="-293283" lat="60.1989117691" lon="8.9292019142">
		<tag k="alt_name" v="Sprengtjønn" />
		<tag k="loc_name" v="Sprengtjønnan" />
		<tag k="name" v="Sprengtjønne" />
		<tag k="natural" v="water" />
		<tag k="ssr:stedsnr" v="490910" />
		<tag k="water" v="lake" />
	</node>
	<node id="-293280" lat="60.2816500007" lon="8.62738887994">
		<tag k="name" v="Damtjønn" />
		<tag k="natural" v="water" />
		<tag k="ssr:stedsnr" v="674446" />
	</node>
	<node id="-293276" lat="60.347025003" lon="7.78330000219">
		<tag k="name" v="Skaupungen" />
		<tag k="natural" v="water" />
		<tag k="ssr:stedsnr" v="673814" />
	</node>
	<node id="-293275" lat="60.3760750032" lon="7.75090000145">
		<tag k="name" v="Storholmen" />
		<tag k="place" v="island" />
		<tag k="ssr:stedsnr" v="673789" />
	</node>
	<node id="-293273" lat="60.3578222253" lon="7.85159999299">
		<tag k="name" v="Sleipa" />
		<tag k="ssr:stedsnr" v="673778" />
		<tag k="waterway" v="river" />
	</node>
	<node id="-293270" lat="60.3078478996" lon="7.76869118124">
		<tag k="name" v="Kolvetjønnan" />
		<tag k="natural" v="water" />
		<tag k="ssr:stedsnr" v="673749" />
		<tag k="water" v="lake" />
	</node>
	<node id="-293261" lat="60.3469083351" lon="9.0241277787">
		<tag k="name" v="Vesle Bjørsjø" />
		<tag k="natural" v="water" />
		<tag k="old_name" v="Vesle Bjorsjoren" />
		<tag k="ssr:stedsnr" v="673420" />
	</node>
	<node id="-293259" lat="60.3795166686" lon="8.79942777528">
		<tag k="name" v="Gampskardtjønnan" />
		<tag k="natural" v="water" />
		<tag k="ssr:stedsnr" v="673407" />
		<tag k="water" v="lake" />
	</node>
	<node id="-293258" lat="60.3704805536" lon="9.01791388337">
		<tag k="name" v="Høglielve" />
		<tag k="ssr:stedsnr" v="673399" />
		<tag k="waterway" v="stream" />
	</node>
	<node id="-293256" lat="60.3646111112" lon="8.91401944126">
		<tag k="name" v="Rimskeidtjønne" />
		<tag k="natural" v="water" />
		<tag k="ssr:stedsnr" v="673382" />
	</node>
	<node id="-293252" lat="60.2519749958" lon="8.61772222204">
		<tag k="alt_name" v="Olmosåe" />
		<tag k="name" v="Ølmøsåe" />
		<tag k="ssr:stedsnr" v="673285" />
		<tag k="waterway" v="river" />
	</node>
	<node id="-293248" lat="60.3397055532" lon="8.34887221553">
		<tag k="name" v="Tøddøla" />
		<tag k="ssr:stedsnr" v="673262" />
		<tag k="waterway" v="river" />
	</node>
	<node id="-293246" lat="60.3226638845" lon="8.39485556116">
		<tag k="name" v="Urhovdtjønne" />
		<tag k="natural" v="water" />
		<tag k="ssr:stedsnr" v="673248" />
	</node>
	<node id="-293231" lat="60.2039777814" lon="9.05022222831">
		<tag k="name" v="Teigsbekken" />
		<tag k="ssr:stedsnr" v="672935" />
		<tag k="waterway" v="stream" />
	</node>
	<node id="-293230" lat="60.1995756347" lon="8.85119085554">
		<tag k="alt_name" v="Holmevatn" />
		<tag k="name" v="Holmevatnet" />
		<tag k="natural" v="water" />
		<tag k="ssr:stedsnr" v="672930" />
		<tag k="water" v="lake" />
	</node>
	<node id="-293229" lat="60.1995194424" lon="8.96769444249">
		<tag k="name" v="Vindula" />
		<tag k="ssr:stedsnr" v="672926" />
		<tag k="waterway" v="stream" />
	</node>
	<node id="-293218" lat="60.2019545862" lon="8.63291718127">
		<tag k="name" v="Sedalstjønnan" />
		<tag k="natural" v="water" />
		<tag k="ssr:stedsnr" v="672870" />
		<tag k="water" v="lake" />
	</node>
	<node id="-293207" lat="60.1489472195" lon="9.12633611757">
		<tag k="name" v="Okseløkbekken" />
		<tag k="ssr:stedsnr" v="672573" />
		<tag k="waterway" v="stream" />
	</node>
	<node id="-293203" lat="60.2340916627" lon="8.96882777958">
		<tag k="alt_name" v="Grånåsettjønn" />
		<tag k="name" v="Grånåsettjønne" />
		<tag k="natural" v="water" />
		<tag k="ssr:stedsnr" v="671999" />
	</node>
	<node id="-293201" lat="60.2422722256" lon="9.0652694507">
		<tag k="name" v="Gryta" />
		<tag k="ssr:stedsnr" v="671984" />
		<tag k="waterway" v="river" />
	</node>
	<node id="-293198" lat="60.1963611071" lon="8.15800278655">
		<tag k="name" v="Skjorteåe" />
		<tag k="ssr:stedsnr" v="671958" />
		<tag k="waterway" v="river" />
	</node>
	<node id="-293197" lat="60.1933257479" lon="8.39950263903">
		<tag k="name" v="Nedre Nutetjønnan" />
		<tag k="natural" v="water" />
		<tag k="ssr:stedsnr" v="671957" />
		<tag k="water" v="lake" />
	</node>
	<node id="-293196" lat="60.2171966717" lon="8.39246835924">
		<tag k="name" v="Vikvatn" />
		<tag k="natural" v="water" />
		<tag k="ssr:stedsnr" v="671953" />
		<tag k="water" v="lake" />
	</node>
	<node id="-293190" lat="60.193875106" lon="8.07947373225">
		<tag k="name" v="Kosadalsvatnet" />
		<tag k="natural" v="water" />
		<tag k="ssr:stedsnr" v="671578" />
		<tag k="water" v="lake" />
	</node>
	<node id="-293178" lat="60.2978555529" lon="9.10313887993">
		<tag k="name" v="Butjørnbekken" />
		<tag k="ssr:stedsnr" v="665892" />
		<tag k="waterway" v="stream" />
	</node>
	<node id="-293169" lat="60.4725694437" lon="8.80389444">
		<tag k="name" v="Lovatn" />
		<tag k="natural" v="water" />
		<tag k="ssr:stedsnr" v="663296" />
	</node>
	<node id="-293162" lat="60.326081266" lon="9.12130231806">
		<tag k="name" v="Fiskelausen" />
		<tag k="natural" v="water" />
		<tag k="ssr:stedsnr" v="431451" />
	</node>
	<node id="-293157" lat="60.3431249971" lon="9.03593333472">
		<tag k="alt_name" v="Liseterbekken" />
		<tag k="name" v="Lisetbekken" />
		<tag k="ssr:stedsnr" v="431438" />
		<tag k="waterway" v="stream" />
	</node>
	<node id="-293155" lat="60.3641444465" lon="8.50706389154">
		<tag k="alt_name" v="Torsetvatn" />
		<tag k="name" v="Torsetvatnet" />
		<tag k="natural" v="water" />
		<tag k="ssr:stedsnr" v="431429" />
		<tag k="water" v="lake" />
	</node>
	<node id="-293151" lat="60.390038892" lon="8.6683583392">
		<tag k="name" v="Storelon" />
		<tag k="natural" v="water" />
		<tag k="ssr:stedsnr" v="431414" />
	</node>
	<node id="-293147" lat="60.4188249997" lon="8.74265277158">
		<tag k="name" v="Svartetjønn" />
		<tag k="natural" v="water" />
		<tag k="ssr:stedsnr" v="431116" />
	</node>
	<node id="-293143" lat="60.2828638894" lon="8.39548055574">
		<tag k="loc_name" v="Breibutjønne" />
		<tag k="name" v="Breidbutjønne" />
		<tag k="natural" v="water" />
		<tag k="ssr:stedsnr" v="431005" />
	</node>
	<node id="-293141" lat="60.2116944446" lon="9.14117499784">
		<tag k="alt_name" v="Tranebekken" />
		<tag k="name" v="Tranbekken" />
		<tag k="ssr:stedsnr" v="429915" />
		<tag k="waterway" v="stream" />
	</node>
	<node id="-293136" lat="60.2424805525" lon="7.93566666666">
		<tag k="name" v="Reinavatnet" />
		<tag k="natural" v="water" />
		<tag k="ssr:stedsnr" v="429632" />
		<tag k="water" v="lake" />
	</node>
	<node id="-294957" lat="60.2980277768" lon="8.77356944887">
		<tag k="loc_name" v="Løstøgtjønn" />
		<tag k="name" v="Loftstugtjønne" />
		<tag k="natural" v="water" />
		<tag k="ssr:stedsnr" v="795512" />
	</node>
	<node id="-295177" lat="60.483442721" lon="8.81781114415">
		<tag k="name" v="Buvatn" />
		<tag k="natural" v="water" />
		<tag k="ssr:stedsnr" v="188105" />
		<tag k="water" v="lake" />
	</node>
	<node id="-295174" lat="60.4279819788" lon="8.58241900773">
		<tag k="name" v="Nedre Svangtjønne" />
		<tag k="natural" v="water" />
		<tag k="ssr:stedsnr" v="431120" />
	</node>
	<node id="-295172" lat="60.3519499995" lon="8.21098888694">
		<tag k="name" v="Nedre Grottjønne" />
		<tag k="natural" v="water" />
		<tag k="old_name" v="Grottjørnane, nedre;Nedre Grottjørnan" />
		<tag k="ssr:stedsnr" v="664180" />
	</node>
	<node id="-294955" lat="60.3049388865" lon="8.73805000483">
		<tag k="name" v="Vasstulvatnet" />
		<tag k="natural" v="water" />
		<tag k="old_name" v="Vasstølvatnet" />
		<tag k="ssr:stedsnr" v="795510" />
		<tag k="water" v="lake" />
	</node>
	<node id="-293117" lat="60.1829805555" lon="7.91267500455">
		<tag k="name" v="Feitfisktjønnan" />
		<tag k="natural" v="water" />
		<tag k="ssr:stedsnr" v="384562" />
		<tag k="water" v="lake" />
	</node>
	<node id="-293106" lat="60.4425948242" lon="8.94787133379">
		<tag k="fixme" v="multiple name tags, choose one and add the other to alt_name" />
		<tag k="name" v="Ormetjerna;Ormevatnet" />
		<tag k="natural" v="water" />
		<tag k="ssr:stedsnr" v="360910" />
	</node>
	<node id="-294952" lat="60.3531111139" lon="8.70615555815">
		<tag k="name" v="Steinsetdalsåe" />
		<tag k="ssr:stedsnr" v="795482" />
		<tag k="waterway" v="stream" />
	</node>
	<node id="-293101" lat="60.3855638847" lon="9.00394999739">
		<tag k="name" v="Lauvhaugtjønne" />
		<tag k="natural" v="water" />
		<tag k="ssr:stedsnr" v="492353" />
	</node>
	<node id="-293100" lat="60.4065833297" lon="8.88005000582">
		<tag k="name" v="Turrsnippsundet" />
		<tag k="natural" v="strait" />
		<tag k="ssr:stedsnr" v="492334" />
	</node>
	<node id="-293099" lat="60.3903972258" lon="8.91516667473">
		<tag k="name" v="Krosstjønne" />
		<tag k="natural" v="water" />
		<tag k="ssr:stedsnr" v="492325" />
	</node>
	<node id="-293098" lat="60.2590555533" lon="9.11811110499">
		<tag k="alt_name" v="Holmevatn" />
		<tag k="name" v="Holmevatnet" />
		<tag k="natural" v="water" />
		<tag k="ssr:stedsnr" v="492279" />
	</node>
	<node id="-293093" lat="60.5000305517" lon="8.68063334133">
		<tag k="name" v="Midtre Djupetjønn" />
		<tag k="natural" v="water" />
		<tag k="ssr:stedsnr" v="492150" />
	</node>
	<node id="-293092" lat="60.3333000018" lon="7.81414999656">
		<tag k="name" v="Sevra" />
		<tag k="ssr:stedsnr" v="491782" />
		<tag k="waterway" v="river" />
	</node>
	<node id="-293091" lat="60.3462999964" lon="7.94582500578">
		<tag k="name" v="Selstjønnpytten" />
		<tag k="place" v="locality" />
		<tag k="ssr:stedsnr" v="491780" />
	</node>
	<node id="-293085" lat="60.2948388884" lon="9.12372500366">
		<tag k="name" v="Krosstjønnbekken" />
		<tag k="ssr:stedsnr" v="491508" />
		<tag k="waterway" v="stream" />
	</node>
	<node id="-293078" lat="60.3641305523" lon="8.68201666375">
		<tag k="name" v="Deilestjønnan" />
		<tag k="natural" v="water" />
		<tag k="ssr:stedsnr" v="491422" />
		<tag k="water" v="lake" />
	</node>
	<node id="-293076" lat="60.3984041995" lon="8.53166141624">
		<tag k="alt_name" v="Leiråvatn" />
		<tag k="name" v="Leiråvatnet" />
		<tag k="natural" v="water" />
		<tag k="ssr:stedsnr" v="491410" />
		<tag k="water" v="lake" />
	</node>
	<node id="-293074" lat="60.3748000036" lon="8.90837778371">
		<tag k="name" v="Broketjønne" />
		<tag k="natural" v="water" />
		<tag k="ssr:stedsnr" v="491390" />
	</node>
	<node id="-293073" lat="60.2522805557" lon="9.12496389684">
		<tag k="alt_name" v="Svartetjønn" />
		<tag k="name" v="Svartetjønne" />
		<tag k="natural" v="water" />
		<tag k="old_name" v="Svartetj" />
		<tag k="ssr:stedsnr" v="491331" />
	</node>
	<node id="-293072" lat="60.4421138857" lon="8.9172027812">
		<tag k="name" v="Sundbulivatnet" />
		<tag k="natural" v="water" />
		<tag k="ssr:stedsnr" v="491319" />
		<tag k="water" v="lake" />
	</node>
	<node id="-293071" lat="60.2660499964" lon="8.95625277449">
		<tag k="name" v="Rødbergdammen" />
		<tag k="place" v="locality" />
		<tag k="ssr:stedsnr" v="491293" />
	</node>
	<node id="-293069" lat="60.281827324" lon="9.15833142947">
		<tag k="alt_name" v="Rovatn" />
		<tag k="name" v="Rovatnet" />
		<tag k="natural" v="water" />
		<tag k="ssr:stedsnr" v="491274" />
	</node>
	<node id="-293061" lat="60.3539722244" lon="8.24670000565">
		<tag k="name" v="Grisletjønnan" />
		<tag k="natural" v="water" />
		<tag k="ssr:stedsnr" v="491196" />
		<tag k="water" v="lake" />
	</node>
	<node id="-293060" lat="60.4724494674" lon="8.55622056123">
		<tag k="name" v="Pollen" />
		<tag k="natural" v="water" />
		<tag k="ssr:stedsnr" v="491090" />
	</node>
	<node id="-293059" lat="60.4527083343" lon="8.64096110625">
		<tag k="name" v="Risvikje" />
		<tag k="natural" v="bay" />
		<tag k="ssr:stedsnr" v="491081" />
	</node>
	<node id="-293058" lat="60.454633335" lon="8.64766111946">
		<tag k="name" v="Stugutjønn" />
		<tag k="natural" v="water" />
		<tag k="ssr:stedsnr" v="491079" />
	</node>
	<node id="-293057" lat="60.4554111069" lon="8.67218055098">
		<tag k="name" v="Mellomtjønn" />
		<tag k="natural" v="water" />
		<tag k="ssr:stedsnr" v="491075" />
	</node>
	<node id="-293056" lat="60.2661707801" lon="8.32427189837">
		<tag k="name" v="Langetjønne" />
		<tag k="natural" v="water" />
		<tag k="ssr:stedsnr" v="491061" />
		<tag k="water" v="lake" />
	</node>
	<node id="-293047" lat="60.1780373564" lon="8.5007936969">
		<tag k="name" v="Knutsfisktjønnan" />
		<tag k="natural" v="water" />
		<tag k="ssr:stedsnr" v="490859" />
		<tag k="water" v="lake" />
	</node>
	<node id="-293046" lat="60.2359805537" lon="8.63249999914">
		<tag k="name" v="Sedalsbekken" />
		<tag k="ssr:stedsnr" v="490852" />
		<tag k="waterway" v="stream" />
	</node>
	<node id="-295088" lat="60.2315896247" lon="8.90825124743">
		<tag k="name" v="Tjønnsettjønn" />
		<tag k="natural" v="water" />
		<tag k="ssr:stedsnr" v="967284" />
	</node>
	<node id="-293039" lat="60.1140888903" lon="7.81743055626">
		<tag k="name" v="Storhellertjønne" />
		<tag k="natural" v="water" />
		<tag k="ssr:stedsnr" v="490610" />
	</node>
	<node id="-294941" lat="60.2548750012" lon="8.85032778461">
		<tag k="name" v="Deveggåe" />
		<tag k="ssr:stedsnr" v="795341" />
		<tag k="waterway" v="river" />
	</node>
	<node id="-293036" lat="60.1584000021" lon="9.20463889069">
		<tag k="alt_name" v="Lauvåstjønn" />
		<tag k="name" v="Lauvåstjønne" />
		<tag k="natural" v="water" />
		<tag k="ssr:stedsnr" v="490577" />
	</node>
	<node id="-293035" lat="60.1684110386" lon="7.79767860651">
		<tag k="name" v="Øvre Skjerhøltjønn" />
		<tag k="natural" v="water" />
		<tag k="ssr:stedsnr" v="490567" />
	</node>
	<node id="-293033" lat="60.1379916683" lon="9.11640833692">
		<tag k="name" v="Viketjønne" />
		<tag k="natural" v="water" />
		<tag k="ssr:stedsnr" v="490510" />
	</node>
	<node id="-293030" lat="60.3615817759" lon="8.33172082118">
		<tag k="name" v="Tjønngrøtjønnan" />
		<tag k="natural" v="water" />
		<tag k="ssr:stedsnr" v="490194" />
		<tag k="water" v="lake" />
	</node>
	<node id="-293028" lat="60.3687628599" lon="8.33456770604">
		<tag k="name" v="Sessetjønne" />
		<tag k="natural" v="water" />
		<tag k="ssr:stedsnr" v="490192" />
	</node>
	<node id="-295075" lat="60.2470861146" lon="8.76100556167">
		<tag k="name" v="Rundtholbekken" />
		<tag k="ssr:stedsnr" v="950597" />
		<tag k="waterway" v="stream" />
	</node>
	<node id="-293026" lat="60.2053305574" lon="8.24199166219">
		<tag k="name" v="Søre Holstadtjønne" />
		<tag k="natural" v="water" />
		<tag k="ssr:stedsnr" v="489963" />
	</node>
	<node id="-295072" lat="60.3184166701" lon="8.27824165773">
		<tag k="name" v="Vesle Pedersentjønne" />
		<tag k="natural" v="water" />
		<tag k="ssr:stedsnr" v="870032" />
	</node>
	<node id="-293023" lat="60.1711250015" lon="7.66775555295">
		<tag k="name" v="Bjornesfjorden" />
		<tag k="natural" v="water" />
		<tag k="ssr:stedsnr" v="489757" />
		<tag k="water" v="lake" />
	</node>
	<node id="-293022" lat="60.1798666702" lon="7.64965832606">
		<tag k="loc_name" v="Vikaholmen" />
		<tag k="name" v="Dronningholmen" />
		<tag k="place" v="island" />
		<tag k="ssr:stedsnr" v="489731" />
	</node>
	<node id="-293021" lat="60.181918746" lon="7.76073534299">
		<tag k="name" v="Nottartjønne" />
		<tag k="natural" v="water" />
		<tag k="ssr:stedsnr" v="489615" />
	</node>
	<node id="-295068" lat="60.5077200831" lon="8.69137164729">
		<tag k="name" v="Såtenattjønnan" />
		<tag k="natural" v="water" />
		<tag k="ssr:stedsnr" v="857213" />
		<tag k="water" v="lake" />
	</node>
	<node id="-295067" lat="60.3523249986" lon="9.12667777219">
		<tag k="name" v="Gropebekken" />
		<tag k="ssr:stedsnr" v="856444" />
		<tag k="waterway" v="stream" />
	</node>
	<node id="-293018" lat="60.1741527742" lon="9.03669444027">
		<tag k="name" v="Damtjønne" />
		<tag k="natural" v="water" />
		<tag k="ssr:stedsnr" v="489607" />
	</node>
	<node id="-295065" lat="60.3386138854" lon="9.01472500593">
		<tag k="name" v="Borgåe" />
		<tag k="ssr:stedsnr" v="856431" />
		<tag k="waterway" v="river" />
	</node>
	<node id="-295060" lat="60.3925055565" lon="8.89000278061">
		<tag k="alt_name" v="Nordre Jønnbubekken" />
		<tag k="name" v="Nordre Jernbubekken" />
		<tag k="ssr:stedsnr" v="856390" />
		<tag k="waterway" v="stream" />
	</node>
	<node id="-295059" lat="60.393780553" lon="8.99493887994">
		<tag k="name" v="Briskerudtjønne" />
		<tag k="natural" v="water" />
		<tag k="ssr:stedsnr" v="856385" />
	</node>
	<node id="-295056" lat="60.3032388903" lon="8.93032778582">
		<tag k="name" v="Stornattjønne" />
		<tag k="natural" v="water" />
		<tag k="ssr:stedsnr" v="856522" />
	</node>
	<node id="-295055" lat="60.2744361073" lon="8.76181944324">
		<tag k="alt_name" v="Rolvelve" />
		<tag k="name" v="Rolv" />
		<tag k="ssr:stedsnr" v="856521" />
		<tag k="waterway" v="river" />
	</node>
	<node id="-293005" lat="60.2366472239" lon="8.89707222401">
		<tag k="name" v="Kringletjønn" />
		<tag k="natural" v="water" />
		<tag k="ssr:stedsnr" v="482330" />
	</node>
	<node id="-293004" lat="60.3425444401" lon="8.89684722517">
		<tag k="name" v="Bergevikje" />
		<tag k="natural" v="bay" />
		<tag k="ssr:stedsnr" v="482178" />
	</node>
	<node id="-295051" lat="60.3216361095" lon="8.98886666406">
		<tag k="name" v="Tverråe" />
		<tag k="ssr:stedsnr" v="856490" />
		<tag k="waterway" v="river" />
	</node>
	<node id="-295050" lat="60.3319833344" lon="8.64436389328">
		<tag k="name" v="Gvilingshalltjønne" />
		<tag k="natural" v="water" />
		<tag k="ssr:stedsnr" v="856487" />
	</node>
	<node id="-295048" lat="60.4392542258" lon="8.95363937519">
		<tag k="name" v="Tverrfotvatn" />
		<tag k="natural" v="water" />
		<tag k="ssr:stedsnr" v="856341" />
	</node>
	<node id="-295047" lat="60.2610111094" lon="9.09577500176">
		<tag k="loc_name" v="Gymlebekken" />
		<tag k="name" v="Gimlebekken" />
		<tag k="ssr:stedsnr" v="856299" />
		<tag k="waterway" v="stream" />
	</node>
	<node id="-295046" lat="60.2723494274" lon="9.03859302949">
		<tag k="name" v="Svartetjønnan" />
		<tag k="natural" v="water" />
		<tag k="ssr:stedsnr" v="856296" />
		<tag k="water" v="lake" />
	</node>
	<node id="-292995" lat="60.1918916648" lon="8.86101945336">
		<tag k="name" v="Stortjønnbekken" />
		<tag k="ssr:stedsnr" v="308859" />
		<tag k="waterway" v="stream" />
	</node>
	<node id="-295042" lat="60.4269583365" lon="8.81223055264">
		<tag k="name" v="Tunhovdfjorden" />
		<tag k="natural" v="water" />
		<tag k="ssr:stedsnr" v="856098" />
		<tag k="water" v="lake" />
	</node>
	<node id="-292992" lat="60.2192638924" lon="8.81405278484">
		<tag k="name" v="Raudtjønne" />
		<tag k="natural" v="water" />
		<tag k="ssr:stedsnr" v="308842" />
	</node>
	<node id="-295039" lat="60.1941777759" lon="8.89946110361">
		<tag k="name" v="Dalstultjønne" />
		<tag k="natural" v="water" />
		<tag k="ssr:stedsnr" v="855932" />
	</node>
	<node id="-295037" lat="60.1839027757" lon="8.72973332634">
		<tag k="name" v="Gråvårrandtjønne" />
		<tag k="natural" v="water" />
		<tag k="ssr:stedsnr" v="855879" />
	</node>
	<node id="-295032" lat="60.3280759141" lon="7.75642975511">
		<tag k="name" v="Skaupsjøtjønnan" />
		<tag k="natural" v="water" />
		<tag k="ssr:stedsnr" v="855833" />
		<tag k="water" v="lake" />
	</node>
	<node id="-295030" lat="60.3417500012" lon="7.93852500125">
		<tag k="name" v="Selstjønnbekken" />
		<tag k="ssr:stedsnr" v="855826" />
		<tag k="waterway" v="stream" />
	</node>
	<node id="-292981" lat="60.1205583315" lon="8.97583333782">
		<tag k="alt_name" v="Røyetjønnan" />
		<tag k="name" v="Røytjønnan" />
		<tag k="natural" v="water" />
		<tag k="old_name" v="Røytj" />
		<tag k="ssr:stedsnr" v="465483" />
		<tag k="water" v="lake" />
	</node>
	<node id="-292979" lat="60.240194227" lon="9.0340183801">
		<tag k="alt_name" v="Søretjørn" />
		<tag k="name" v="Søretjønn" />
		<tag k="natural" v="water" />
		<tag k="ssr:stedsnr" v="464930" />
	</node>
	<node id="-295026" lat="60.2476133282" lon="7.97933125902">
		<tag k="alt_name" v="Krossvatnet" />
		<tag k="name" v="Krossvatn" />
		<tag k="natural" v="water" />
		<tag k="ssr:stedsnr" v="855800" />
		<tag k="water" v="lake" />
	</node>
	<node id="-295023" lat="60.2611000033" lon="7.96199721838">
		<tag k="name" v="Danemannstjønne" />
		<tag k="natural" v="water" />
		<tag k="ssr:stedsnr" v="855794" />
	</node>
	<node id="-292974" lat="60.257094448" lon="8.80984444666">
		<tag k="name" v="Ludderbukte" />
		<tag k="natural" v="water" />
		<tag k="ssr:stedsnr" v="464612" />
		<tag k="water" v="lake" />
	</node>
	<node id="-295019" lat="60.207007653" lon="7.59626712358">
		<tag k="name" v="Storfisketjønne" />
		<tag k="natural" v="water" />
		<tag k="ssr:stedsnr" v="855737" />
	</node>
	<node id="-292970" lat="60.1006055575" lon="8.94503332464">
		<tag k="name" v="Løkkroken" />
		<tag k="natural" v="water" />
		<tag k="ssr:stedsnr" v="461578" />
		<tag k="water" v="lake" />
	</node>
	<node id="-292969" lat="60.1016583374" lon="9.05465278215">
		<tag k="name" v="Sundsviki" />
		<tag k="natural" v="bay" />
		<tag k="ssr:stedsnr" v="283009" />
	</node>
	<node id="-295013" lat="60.2746861125" lon="8.28757499371">
		<tag k="name" v="Fiskeløktjønne" />
		<tag k="natural" v="water" />
		<tag k="ssr:stedsnr" v="855052" />
		<tag k="water" v="lake" />
	</node>
	<node id="-292962" lat="60.1889000016" lon="8.10463888052">
		<tag k="name" v="Kosadalsåe" />
		<tag k="ssr:stedsnr" v="247959" />
		<tag k="waterway" v="stream" />
	</node>
	<node id="-292961" lat="60.1947694487" lon="9.10481667245">
		<tag k="name" v="Kortetjønne" />
		<tag k="natural" v="water" />
		<tag k="ssr:stedsnr" v="247937" />
	</node>
	<node id="-295008" lat="60.1330587804" lon="7.7052513074">
		<tag k="name" v="Elsjåen" />
		<tag k="natural" v="water" />
		<tag k="ssr:stedsnr" v="854702" />
	</node>
	<node id="-295007" lat="60.0917055542" lon="9.06098056082">
		<tag k="name" v="Sundeelve" />
		<tag k="ssr:stedsnr" v="854696" />
		<tag k="waterway" v="stream" />
	</node>
	<node id="-295003" lat="60.1319499991" lon="7.83191110993">
		<tag k="name" v="Tangetjønnan" />
		<tag k="natural" v="water" />
		<tag k="ssr:stedsnr" v="854547" />
		<tag k="water" v="lake" />
	</node>
	<node id="-292954" lat="60.295930559" lon="9.07064166892">
		<tag k="name" v="Nordre Kråketjønn" />
		<tag k="natural" v="water" />
		<tag k="ssr:stedsnr" v="232364" />
	</node>
	<node id="-295000" lat="60.1113483016" lon="8.95746999169">
		<tag k="alt_name" v="Skjervsjøen" />
		<tag k="loc_name" v="Skjærsjøen" />
		<tag k="name" v="Skirvsjøen" />
		<tag k="natural" v="water" />
		<tag k="old_name" v="Skrivsjøen;Skirvsjaa" />
		<tag k="ssr:stedsnr" v="854533" />
		<tag k="water" v="lake" />
	</node>
	<node id="-294999" lat="60.1131959269" lon="8.94209031315">
		<tag k="name" v="Skirveggtjønnan" />
		<tag k="natural" v="water" />
		<tag k="ssr:stedsnr" v="854532" />
		<tag k="water" v="lake" />
	</node>
	<node id="-292949" lat="60.3884277743" lon="7.82201944846">
		<tag k="alt_name" v="Hein, øvre" />
		<tag k="name" v="Øvre Hein" />
		<tag k="natural" v="water" />
		<tag k="old_name" v="Heieren" />
		<tag k="ssr:stedsnr" v="295819" />
		<tag k="water" v="lake" />
	</node>
	<node id="-292945" lat="60.2008694467" lon="8.56011111008">
		<tag k="name" v="Sandbuåe" />
		<tag k="ssr:stedsnr" v="187859" />
		<tag k="waterway" v="river" />
	</node>
	<node id="-292944" lat="60.1842075101" lon="8.48149090586">
		<tag k="name" v="Nedre Gryttjønnan" />
		<tag k="natural" v="water" />
		<tag k="ssr:stedsnr" v="187852" />
		<tag k="water" v="lake" />
	</node>
	<node id="-292940" lat="60.2338416683" lon="9.09632777772">
		<tag k="name" v="Kolbjørnsdalbekken" />
		<tag k="ssr:stedsnr" v="285536" />
		<tag k="waterway" v="stream" />
	</node>
	<node id="-294983" lat="60.2341416634" lon="8.94182222103">
		<tag k="name" v="Holtevatn" />
		<tag k="natural" v="water" />
		<tag k="ssr:stedsnr" v="846296" />
	</node>
	<node id="-292931" lat="60.1243027754" lon="9.11263611152">
		<tag k="loc_name" v="Røyrtjønnan" />
		<tag k="name" v="Røytjønnan" />
		<tag k="natural" v="water" />
		<tag k="old_name" v="Røytjørnane" />
		<tag k="ssr:stedsnr" v="283512" />
		<tag k="water" v="lake" />
	</node>
	<node id="-294978" lat="60.224327774" lon="9.01087777962">
		<tag k="name" v="Norefjordan" />
		<tag k="natural" v="water" />
		<tag k="ssr:stedsnr" v="845542" />
		<tag k="water" v="lake" />
	</node>
	<node id="-294974" lat="60.1416805563" lon="8.98590277474">
		<tag k="name" v="Gråvårbekk" />
		<tag k="ssr:stedsnr" v="831035" />
		<tag k="waterway" v="stream" />
	</node>
	<node id="-294973" lat="60.3146333299" lon="8.79269444988">
		<tag k="name" v="Notsetelva" />
		<tag k="ssr:stedsnr" v="830895" />
		<tag k="waterway" v="stream" />
	</node>
	<node id="-294966" lat="60.1726277822" lon="9.1909277845">
		<tag k="name" v="Småtjønn" />
		<tag k="natural" v="water" />
		<tag k="ssr:stedsnr" v="829368" />
	</node>
	<node id="-294961" lat="60.2954277779" lon="9.0975222178">
		<tag k="name" v="Kloppetjønnan" />
		<tag k="natural" v="water" />
		<tag k="ssr:stedsnr" v="795542" />
		<tag k="water" v="lake" />
	</node>
	<node id="-294960" lat="60.2754999999" lon="8.6416666742">
		<tag k="alt_name" v="Røysgardbekken" />
		<tag k="name" v="Raudsgardsbekken" />
		<tag k="ssr:stedsnr" v="795529" />
		<tag k="waterway" v="stream" />
	</node>
	<node id="-292911" lat="60.2895999999" lon="9.1405583336">
		<tag k="name" v="Fuglenattjønne" />
		<tag k="natural" v="water" />
		<tag k="ssr:stedsnr" v="127519" />
	</node>
	<node id="-292910" lat="60.3089777811" lon="9.0263888837">
		<tag k="name" v="Åmottjønne" />
		<tag k="natural" v="water" />
		<tag k="ssr:stedsnr" v="127516" />
	</node>
	<node id="-292909" lat="60.3055055549" lon="9.06013054659">
		<tag k="name" v="Holotjønn" />
		<tag k="natural" v="water" />
		<tag k="ssr:stedsnr" v="127515" />
	</node>
	<node id="-292907" lat="60.2945617923" lon="8.6392219566">
		<tag k="name" v="Holmetjønnan" />
		<tag k="natural" v="water" />
		<tag k="ssr:stedsnr" v="127507" />
		<tag k="water" v="lake" />
	</node>
	<node id="-294919" lat="60.2240861081" lon="7.6727194394">
		<tag k="name" v="Lomavikelve" />
		<tag k="ssr:stedsnr" v="794709" />
		<tag k="waterway" v="river" />
	</node>
	<node id="-292904" lat="60.3708000011" lon="8.82833889541">
		<tag k="alt_name" v="Storebekk" />
		<tag k="name" v="Storebekken" />
		<tag k="ssr:stedsnr" v="127633" />
		<tag k="waterway" v="stream" />
	</node>
	<node id="-292903" lat="60.3509555574" lon="9.07195277929">
		<tag k="name" v="Søre Økteren" />
		<tag k="natural" v="water" />
		<tag k="old_name" v="Søndre Økteren" />
		<tag k="ssr:stedsnr" v="127420" />
		<tag k="water" v="lake" />
	</node>
	<node id="-292901" lat="60.3860638909" lon="8.50296666455">
		<tag k="alt_name" v="Hagesetbekken" />
		<tag k="name" v="Hagasetbekken" />
		<tag k="ssr:stedsnr" v="127415" />
		<tag k="waterway" v="stream" />
	</node>
	<node id="-292899" lat="60.3564388931" lon="8.93215277626">
		<tag k="name" v="Baustebøltjønne" />
		<tag k="natural" v="water" />
		<tag k="ssr:stedsnr" v="127407" />
	</node>
	<node id="-292894" lat="60.4614888845" lon="8.80954166871">
		<tag k="name" v="Tunhovdbekken" />
		<tag k="ssr:stedsnr" v="127121" />
		<tag k="waterway" v="stream" />
	</node>
	<node id="-292893" lat="60.4515555563" lon="8.6422277713">
		<tag k="name" v="Bergodden" />
		<tag k="natural" v="cape" />
		<tag k="ssr:stedsnr" v="127115" />
	</node>
	<node id="-292890" lat="60.3537833353" lon="8.40621944213">
		<tag k="name" v="Delesbekken" />
		<tag k="ssr:stedsnr" v="127221" />
		<tag k="waterway" v="stream" />
	</node>
	<node id="-294937" lat="60.352450002" lon="8.96355000481">
		<tag k="name" v="Ryggtjønne" />
		<tag k="natural" v="water" />
		<tag k="ssr:stedsnr" v="795431" />
	</node>
	<node id="-292888" lat="60.1589553522" lon="9.04249574366">
		<tag k="name" v="Heimsetertjønnan" />
		<tag k="natural" v="water" />
		<tag k="ssr:stedsnr" v="125625" />
		<tag k="water" v="lake" />
	</node>
	<node id="-294935" lat="60.4472250036" lon="8.69907222556">
		<tag k="alt_name" v="Breidvikodden" />
		<tag k="name" v="Breivikodden" />
		<tag k="natural" v="cape" />
		<tag k="ssr:stedsnr" v="795152" />
	</node>
	<node id="-292886" lat="60.2311037904" lon="8.92173557478">
		<tag k="name" v="Heimtjønnan" />
		<tag k="natural" v="water" />
		<tag k="ssr:stedsnr" v="118313" />
		<tag k="water" v="lake" />
	</node>
	<node id="-294933" lat="60.4128333323" lon="8.78764166547">
		<tag k="alt_name" v="Storebekk" />
		<tag k="name" v="Storebekken" />
		<tag k="ssr:stedsnr" v="795133" />
		<tag k="waterway" v="stream" />
	</node>
	<node id="-292880" lat="60.0992499986" lon="8.95331665999">
		<tag k="name" v="Skirveggbekken" />
		<tag k="ssr:stedsnr" v="97555" />
		<tag k="waterway" v="stream" />
	</node>
	<node id="-294923" lat="60.31243056" lon="8.34621111348">
		<tag k="alt_name" v="Kvonnestølbekken" />
		<tag k="name" v="Gvonnestulbekken" />
		<tag k="ssr:stedsnr" v="795269" />
		<tag k="waterway" v="stream" />
	</node>
	<node id="-294922" lat="60.2314750024" lon="8.39138888825">
		<tag k="name" v="Storebekken" />
		<tag k="ssr:stedsnr" v="794952" />
		<tag k="waterway" v="stream" />
	</node>
	<node id="-294921" lat="60.4889638913" lon="8.5596805637">
		<tag k="name" v="Bjørnsrudbekken" />
		<tag k="ssr:stedsnr" v="795059" />
		<tag k="waterway" v="stream" />
	</node>
	<node id="-292872" lat="60.3527888906" lon="8.53292500434">
		<tag k="alt_name" v="Løytebekk" />
		<tag k="name" v="Løytebekken" />
		<tag k="ssr:stedsnr" v="249418" />
		<tag k="waterway" v="stream" />
	</node>
	<node id="-292871" lat="60.3466888871" lon="8.55966388645">
		<tag k="name" v="Løytetjønn" />
		<tag k="natural" v="water" />
		<tag k="ssr:stedsnr" v="249412" />
	</node>
	<node id="-294918" lat="60.2040638928" lon="9.17799722816">
		<tag k="name" v="Flåvatna" />
		<tag k="natural" v="water" />
		<tag k="ssr:stedsnr" v="794583" />
		<tag k="water" v="lake" />
	</node>
	<node id="-292869" lat="60.3838500033" lon="8.88497499363">
		<tag k="alt_name" v="Søre Jønnbubekken" />
		<tag k="name" v="Søre Jernbubekken" />
		<tag k="ssr:stedsnr" v="249350" />
		<tag k="waterway" v="stream" />
	</node>
	<node id="-292868" lat="60.2630954411" lon="9.13373209899">
		<tag k="alt_name" v="Veavatnet" />
		<tag k="name" v="Veavatn" />
		<tag k="natural" v="water" />
		<tag k="ssr:stedsnr" v="249301" />
		<tag k="water" v="lake" />
	</node>
</osm>
