<?xml version="1.0" encoding="UTF-8"?>
<osm version="0.6" generator="osmapis">
	<node lat="60.10267500005231" lon="9.01988610499292" id="-21175">
		<tag k="historic" v="shieling" />
		<tag k="loc_name" v="Teigssetre" />
		<tag k="name" v="Teigsetre" />
		<tag k="place" v="isolated_dwelling" />
		<tag k="ssr:stedsnr" v="4535" />
	</node>
	<node lat="60.16929166857948" lon="9.012344451275037" id="-21176">
		<tag k="alt_name" v="Nore kirke;Nore" />
		<tag k="amenity" v="place_of_worship" />
		<tag k="denomination" v="lutheran" />
		<tag k="name" v="Nore kyrkje" />
		<tag k="religion" v="christian" />
		<tag k="ssr:stedsnr" v="4562" />
	</node>
	<node lat="60.15485833238144" lon="8.924925001373436" id="-21177">
		<tag k="alt_name" v="Tørrhaugseter" />
		<tag k="historic" v="shieling" />
		<tag k="loc_name" v="Turrhaug" />
		<tag k="name" v="Turrhaugen" />
		<tag k="place" v="isolated_dwelling" />
		<tag k="ssr:stedsnr" v="4601" />
	</node>
	<node lat="60.16223063054988" lon="9.092507891361755" id="-21178">
		<tag k="alt_name" v="Elgsdalseter" />
		<tag k="name" v="Elgsdalen" />
		<tag k="place" v="locality" />
		<tag k="ssr:stedsnr" v="4615" />
	</node>
	<node lat="60.20992222466011" lon="7.888758324652326" id="-21179">
		<tag k="name" v="Muran" />
		<tag k="place" v="isolated_dwelling" />
		<tag k="ssr:stedsnr" v="4673" />
	</node>
	<node lat="60.22253333492725" lon="9.1518638973065" id="-21180">
		<tag k="alt_name" v="Bjørneskarfjell" />
		<tag k="fixme" v="consider natural=peak for the most distinct mountains in the district" />
		<tag k="name" v="Bjørneskardsfjellet" />
		<tag k="natural" v="hill" />
		<tag k="place" v="locality" />
		<tag k="ssr:stedsnr" v="4905" />
	</node>
	<node lat="60.222925002814364" lon="9.11870833876494" id="-21181">
		<tag k="name" v="Hølbutjønne" />
		<tag k="natural" v="water" />
		<tag k="ssr:stedsnr" v="4910" />
	</node>
	<node lat="60.220050001207966" lon="9.111277773600634" id="-21182">
		<tag k="alt_name" v="Verjestølen" />
		<tag k="historic" v="shieling" />
		<tag k="name" v="Vergjestulen" />
		<tag k="place" v="isolated_dwelling" />
		<tag k="ssr:stedsnr" v="4912" />
	</node>
	<node lat="60.2188666691818" lon="9.137677774386944" id="-21183">
		<tag k="fixme" v="consider natural=peak for the most distinct mountains in the district" />
		<tag k="name" v="Myrsetåsen" />
		<tag k="natural" v="hill" />
		<tag k="place" v="locality" />
		<tag k="ssr:stedsnr" v="4913" />
	</node>
	<node lat="60.2470444451293" lon="8.350563893650707" id="-21184">
		<tag k="name" v="Tyrhovdbue" />
		<tag k="place" v="locality" />
		<tag k="ssr:stedsnr" v="5509" />
	</node>
	<node lat="60.24819167106596" lon="8.149872222995393" id="-21185">
		<tag k="name" v="Breidhovd" />
		<tag k="natural" v="hill" />
		<tag k="place" v="locality" />
		<tag k="ssr:stedsnr" v="5514" />
	</node>
	<node lat="60.24282226736947" lon="8.292328531383824" id="-21186">
		<tag k="name" v="Bustadtjønnan" />
		<tag k="natural" v="water" />
		<tag k="ssr:stedsnr" v="5519" />
		<tag k="water" v="lake" />
	</node>
	<node lat="60.23645555654001" lon="8.73036389259358" id="-21187">
		<tag k="historic" v="shieling" />
		<tag k="loc_name" v="Øygardssetre" />
		<tag k="name" v="Øygardsseter" />
		<tag k="place" v="isolated_dwelling" />
		<tag k="ssr:stedsnr" v="5816" />
	</node>
	<node lat="60.23781944431222" lon="8.638511102564259" id="-21188">
		<tag k="name" v="Sedalen" />
		<tag k="natural" v="valley" />
		<tag k="place" v="locality" />
		<tag k="ssr:stedsnr" v="5824" />
	</node>
	<node lat="60.37152222325342" lon="7.9723722257897744" id="-21189">
		<tag k="name" v="Syningen" />
		<tag k="natural" v="hill" />
		<tag k="place" v="locality" />
		<tag k="ssr:stedsnr" v="5766" />
	</node>
	<node lat="60.360955555432625" lon="7.864675002546857" id="-21190">
		<tag k="name" v="Sleiposlægret" />
		<tag k="place" v="locality" />
		<tag k="ssr:stedsnr" v="5771" />
	</node>
	<node lat="60.203811113156476" lon="9.077874997409818" id="-21191">
		<tag k="name" v="Langelihøgde" />
		<tag k="natural" v="hill" />
		<tag k="place" v="locality" />
		<tag k="ssr:stedsnr" v="5904" />
	</node>
	<node lat="60.27999444244982" lon="7.6648083373919" id="-21192">
		<tag k="fixme" v="consider natural=peak for the most distinct mountains in the district" />
		<tag k="name" v="Ribbehæ" />
		<tag k="natural" v="hill" />
		<tag k="place" v="locality" />
		<tag k="ssr:stedsnr" v="5965" />
	</node>
	<node lat="60.260258330789995" lon="8.904480562941888" id="-21193">
		<tag k="alt_name" v="Fønset" />
		<tag k="name" v="Fønnset" />
		<tag k="place" v="isolated_dwelling" />
		<tag k="ssr:stedsnr" v="6303" />
	</node>
	<node lat="60.2666777738141" lon="8.396338881727795" id="-21194">
		<tag k="name" v="Hæratjønn" />
		<tag k="natural" v="water" />
		<tag k="ssr:stedsnr" v="6059" />
	</node>
	<node lat="60.32822402041606" lon="8.438406028080216" id="-21195">
		<tag k="alt_name" v="Kvonnestølen" />
		<tag k="historic" v="shieling" />
		<tag k="name" v="Gvonnestulen" />
		<tag k="place" v="locality" />
		<tag k="ssr:stedsnr" v="6260" />
	</node>
	<node lat="60.261488893175326" lon="8.839961111653365" id="-21196">
		<tag k="name" v="Heggheim" />
		<tag k="place" v="farm" />
		<tag k="ssr:stedsnr" v="6266" />
	</node>
	<node lat="60.27462778008442" lon="9.074600008587286" id="-21197">
		<tag k="alt_name" v="Høgeliseter" />
		<tag k="historic" v="shieling" />
		<tag k="name" v="Høgeli" />
		<tag k="place" v="isolated_dwelling" />
		<tag k="ssr:stedsnr" v="6272" />
	</node>
	<node lat="60.258666664423124" lon="8.752338892145955" id="-21198">
		<tag k="name" v="Sjåheim" />
		<tag k="place" v="locality" />
		<tag k="ssr:stedsnr" v="6273" />
	</node>
	<node lat="60.274949995772886" lon="9.026300008820746" id="-21199">
		<tag k="name" v="Dakkeset" />
		<tag k="place" v="farm" />
		<tag k="ssr:stedsnr" v="6276" />
	</node>
	<node lat="60.312602777171534" lon="9.085038880924182" id="-21200">
		<tag k="fixme" v="consider natural=peak for the most distinct mountains in the district" />
		<tag k="name" v="Kråkenatten" />
		<tag k="natural" v="hill" />
		<tag k="place" v="locality" />
		<tag k="ssr:stedsnr" v="6470" />
	</node>
	<node lat="60.31672960792077" lon="9.110005394722085" id="-21201">
		<tag k="name" v="Gymletjønne" />
		<tag k="natural" v="water" />
		<tag k="ssr:stedsnr" v="6472" />
	</node>
	<node lat="60.31083055956509" lon="8.78937221763586" id="-21202">
		<tag k="alt_name" v="Granasetbekken" />
		<tag k="name" v="Grånåsetbekken" />
		<tag k="ssr:stedsnr" v="6476" />
		<tag k="waterway" v="stream" />
	</node>
	<node lat="60.31400000328863" lon="8.983591667715821" id="-21203">
		<tag k="name" v="Beinbergtjønne" />
		<tag k="natural" v="water" />
		<tag k="ssr:stedsnr" v="6487" />
	</node>
	<node lat="60.30372222041329" lon="9.072016671613142" id="-21204">
		<tag k="historic" v="shieling" />
		<tag k="name" v="Gamlesetre" />
		<tag k="place" v="isolated_dwelling" />
		<tag k="ssr:stedsnr" v="6493" />
	</node>
	<node lat="60.29267777434857" lon="8.599233329847333" id="-21205">
		<tag k="name" v="Gvetaåe" />
		<tag k="ssr:stedsnr" v="6501" />
		<tag k="waterway" v="stream" />
	</node>
	<node lat="60.28308333213724" lon="8.766438884339077" id="-21206">
		<tag k="fixme" v="multiple name tags, choose one and add the other to alt_name" />
		<tag k="historic" v="shieling" />
		<tag k="loc_name" v="Torsrudsetre" />
		<tag k="name" v="Torsrudseter;Koggestadsetre" />
		<tag k="place" v="isolated_dwelling" />
		<tag k="ssr:stedsnr" v="6503" />
	</node>
	<node lat="60.27870277587826" lon="8.575311106621696" id="-21207">
		<tag k="name" v="Øyan" />
		<tag k="place" v="farm" />
		<tag k="ssr:stedsnr" v="6506" />
	</node>
	<node lat="60.27862778182896" lon="8.75599999934169" id="-21208">
		<tag k="name" v="Øvre Gvammen" />
		<tag k="place" v="farm" />
		<tag k="ssr:stedsnr" v="6508" />
	</node>
	<node lat="60.50786111289915" lon="8.578297216608547" id="-21209">
		<tag k="fixme" v="consider natural=peak for the most distinct mountains in the district" />
		<tag k="name" v="Sundshovda" />
		<tag k="natural" v="hill" />
		<tag k="place" v="locality" />
		<tag k="ssr:stedsnr" v="7206" />
	</node>
	<node lat="60.26232978560237" lon="8.648296369058865" id="-21210">
		<tag k="alt_name" v="Rausgard;Rausgård" />
		<tag k="name" v="Raudsgard" />
		<tag k="old_name" v="Rausgaard" />
		<tag k="place" v="hamlet" />
		<tag k="ssr:stedsnr" v="8511" />
	</node>
	<node lat="60.29593055897577" lon="9.070641668915682" id="-21211">
		<tag k="name" v="Nordre Kråketjønn" />
		<tag k="natural" v="water" />
		<tag k="ssr:stedsnr" v="232364" />
	</node>
	<node lat="60.43390833696804" lon="8.66476944766666" id="-21212">
		<tag k="alt_name" v="Aastveit" />
		<tag k="name" v="Åstveit" />
		<tag k="place" v="locality" />
		<tag k="ssr:stedsnr" v="234487" />
	</node>
	<node lat="60.29530277679678" lon="8.560797218023419" id="-21213">
		<tag k="alt_name" v="Mellem Sønstebø" />
		<tag k="name" v="Mellom-Sønstebø" />
		<tag k="place" v="farm" />
		<tag k="ssr:stedsnr" v="40918" />
	</node>
	<node lat="60.206456915852606" lon="9.001996453828232" id="-21214">
		<tag k="fixme" v="consider place=hamlet" />
		<tag k="name" v="Loftsgarden" />
		<tag k="place" v="farm" />
		<tag k="ssr:stedsnr" v="41799" />
	</node>
	<node lat="60.34072499780004" lon="9.051047230755685" id="-21215">
		<tag k="name" v="Steinset seter" />
		<tag k="place" v="neighbourhood" />
		<tag k="ssr:stedsnr" v="237764" />
	</node>
	<node lat="60.26565000424831" lon="8.796005561045316" id="-21216">
		<tag k="name" v="Lund" />
		<tag k="place" v="farm" />
		<tag k="ssr:stedsnr" v="239142" />
	</node>
	<node lat="60.3526277756081" lon="8.858905550677338" id="-21218">
		<tag k="name" v="Blåur" />
		<tag k="natural" v="scree" />
		<tag k="ssr:stedsnr" v="239172" />
	</node>
	<node lat="60.465136113018396" lon="8.741402783834054" id="-21219">
		<tag k="name" v="Vintermyra" />
		<tag k="natural" v="wetland" />
		<tag k="ssr:stedsnr" v="239298" />
	</node>
	<node lat="60.20485555384909" lon="9.025327785196485" id="-21220">
		<tag k="name" v="Vonheim" />
		<tag k="place" v="isolated_dwelling" />
		<tag k="ssr:stedsnr" v="239356" />
	</node>
	<node lat="60.32021793413153" lon="8.493661716700831" id="-21221">
		<tag k="alt_name" v="Mellem Nørstebø;Nørdstebø, m" />
		<tag k="fixme" v="consider place=hamlet" />
		<tag k="name" v="Millom-Nørdstebø" />
		<tag k="place" v="farm" />
		<tag k="ssr:stedsnr" v="239419" />
	</node>
	<node lat="60.31873333154444" lon="8.43558889440865" id="-21222">
		<tag k="loc_name" v="Nysetre" />
		<tag k="name" v="Nyseter" />
		<tag k="place" v="locality" />
		<tag k="ssr:stedsnr" v="239553" />
	</node>
	<node lat="60.26672364202053" lon="8.971607531234254" id="-21223">
		<tag k="alt_name" v="Ørndalen" />
		<tag k="fixme" v="consider place=hamlet" />
		<tag k="name" v="Omdalen" />
		<tag k="place" v="farm" />
		<tag k="ssr:stedsnr" v="239653" />
	</node>
	<node lat="60.268413892972454" lon="8.77333888547022" id="-21224">
		<tag k="name" v="Tovrud" />
		<tag k="place" v="farm" />
		<tag k="ssr:stedsnr" v="57115" />
	</node>
	<node lat="60.38495041302542" lon="8.733100485085407" id="-21225">
		<tag k="alt_name" v="Buinseter" />
		<tag k="historic" v="shieling" />
		<tag k="name" v="Buin" />
		<tag k="place" v="isolated_dwelling" />
		<tag k="ssr:stedsnr" v="57335" />
	</node>
	<node lat="60.31947778143064" lon="8.94132777514705" id="-21226">
		<tag k="name" v="Fjellvang" />
		<tag k="place" v="isolated_dwelling" />
		<tag k="ssr:stedsnr" v="59002" />
	</node>
	<node lat="60.28245833080002" lon="8.829100000677709" id="-21227">
		<tag k="fixme" v="consider highway=path" />
		<tag k="highway" v="track" />
		<tag k="name" v="Baklivegen" />
		<tag k="ssr:stedsnr" v="59006" />
	</node>
	<node lat="60.16379444741878" lon="9.010180547170448" id="-21228">
		<tag k="name" v="Nore prestegard" />
		<tag k="place" v="farm" />
		<tag k="ssr:stedsnr" v="241059" />
	</node>
	<node lat="60.32165555426361" lon="8.99339165873642" id="-21229">
		<tag k="alt_name" v="Nedre Rykfosseter" />
		<tag k="historic" v="shieling" />
		<tag k="name" v="Nedre Rykfoss" />
		<tag k="place" v="isolated_dwelling" />
		<tag k="ssr:stedsnr" v="241216" />
	</node>
	<node lat="60.2457416711874" lon="7.9344444480821785" id="-21230">
		<tag k="name" v="Reinavasslægret" />
		<tag k="place" v="locality" />
		<tag k="ssr:stedsnr" v="65634" />
	</node>
	<node lat="60.24575555774222" lon="7.950191659085976" id="-21231">
		<tag k="name" v="Trønderbu" />
		<tag k="place" v="isolated_dwelling" />
		<tag k="ssr:stedsnr" v="65636" />
	</node>
	<node lat="60.227875001121745" lon="7.803474999202444" id="-21232">
		<tag k="fixme" v="consider natural=peak for the most distinct mountains in the district" />
		<tag k="name" v="Store Skrekken" />
		<tag k="natural" v="hill" />
		<tag k="place" v="locality" />
		<tag k="ssr:stedsnr" v="65640" />
	</node>
	<node lat="60.21873889102455" lon="7.813086102876648" id="-21233">
		<tag k="fixme" v="consider natural=peak for the most distinct mountains in the district" />
		<tag k="name" v="Vesle Skrekken" />
		<tag k="natural" v="hill" />
		<tag k="place" v="locality" />
		<tag k="ssr:stedsnr" v="65651" />
	</node>
	<node lat="60.144758332372284" lon="9.016261116219354" id="-21234">
		<tag k="name" v="Sanden" />
		<tag k="place" v="farm" />
		<tag k="ssr:stedsnr" v="65514" />
	</node>
	<node lat="60.108446439394214" lon="9.06150154653172" id="-21235">
		<tag k="alt_name" v="Haustveit" />
		<tag k="fixme" v="consider place=hamlet" />
		<tag k="name" v="Hausttveit" />
		<tag k="place" v="farm" />
		<tag k="ssr:stedsnr" v="65528" />
	</node>
	<node lat="60.11763611218554" lon="8.988316672527237" id="-21236">
		<tag k="alt_name" v="Eidsfjellet" />
		<tag k="fixme" v="consider natural=peak for the most distinct mountains in the district" />
		<tag k="name" v="Eidsfjell" />
		<tag k="natural" v="hill" />
		<tag k="place" v="locality" />
		<tag k="ssr:stedsnr" v="65539" />
	</node>
	<node lat="60.158069448036365" lon="9.030711106259755" id="-21237">
		<tag k="alt_name" v="Skøre" />
		<tag k="historic" v="shieling" />
		<tag k="name" v="Skori" />
		<tag k="place" v="isolated_dwelling" />
		<tag k="ssr:stedsnr" v="65600" />
	</node>
	<node lat="60.23387499713405" lon="8.585252784792404" id="-21238">
		<tag k="name" v="Imingfjell Turistheim" />
		<tag k="old_name" v="Imingfjell" />
		<tag k="ssr:stedsnr" v="65858" />
		<tag k="tourism" v="hotel" />
	</node>
	<node lat="60.24406944448678" lon="8.676841673215538" id="-21239">
		<tag k="historic" v="shieling" />
		<tag k="name" v="Løyngardsetre" />
		<tag k="place" v="isolated_dwelling" />
		<tag k="ssr:stedsnr" v="65861" />
	</node>
	<node lat="60.21624722636017" lon="8.962825001632345" id="-21240">
		<tag k="historic" v="shieling" />
		<tag k="loc_name" v="Hengjelie" />
		<tag k="name" v="Hengelie" />
		<tag k="place" v="isolated_dwelling" />
		<tag k="ssr:stedsnr" v="65903" />
	</node>
	<node lat="60.21177499575008" lon="9.043966663299171" id="-21241">
		<tag k="fixme" v="multiple name tags, choose one and add the other to alt_name" />
		<tag k="name" v="Vetterhuslie;Lie" />
		<tag k="place" v="farm" />
		<tag k="ssr:stedsnr" v="65920" />
	</node>
	<node lat="60.20351666840445" lon="8.970249991380177" id="-21242">
		<tag k="alt_name" v="Nysetseter" />
		<tag k="historic" v="shieling" />
		<tag k="name" v="Nyset" />
		<tag k="place" v="isolated_dwelling" />
		<tag k="ssr:stedsnr" v="65924" />
	</node>
	<node lat="60.213047221016126" lon="8.345952781040067" id="-21243">
		<tag k="name" v="Nedre Afdalstjønne" />
		<tag k="natural" v="water" />
		<tag k="ssr:stedsnr" v="65953" />
	</node>
	<node lat="60.19442136506629" lon="8.28363446811243" id="-21244">
		<tag k="name" v="Austre Søltjønne" />
		<tag k="natural" v="water" />
		<tag k="ssr:stedsnr" v="65958" />
	</node>
	<node lat="60.196383333131294" lon="8.38540555033137" id="-21245">
		<tag k="historic" v="shieling" />
		<tag k="loc_name" v="Nuten" />
		<tag k="name" v="Nutesetre" />
		<tag k="place" v="isolated_dwelling" />
		<tag k="ssr:stedsnr" v="65961" />
	</node>
	<node lat="60.23115833574657" lon="8.990461111327484" id="-21246">
		<tag k="name" v="Myrvoll" />
		<tag k="place" v="isolated_dwelling" />
		<tag k="ssr:stedsnr" v="65997" />
	</node>
	<node lat="60.229805552934174" lon="9.034788887075123" id="-21247">
		<tag k="name" v="Lisledal" />
		<tag k="place" v="isolated_dwelling" />
		<tag k="ssr:stedsnr" v="65999" />
	</node>
	<node lat="60.25500278221342" lon="8.978588896230212" id="-21248">
		<tag k="loc_name" v="Hallandsgrend;Hallandsgrende" />
		<tag k="name" v="Hallandsgrendi" />
		<tag k="place" v="hamlet" />
		<tag k="ssr:stedsnr" v="66301" />
	</node>
	<node lat="60.25327777558627" lon="8.946513886784391" id="-21249">
		<tag k="name" v="Skreidberget" />
		<tag k="natural" v="hill" />
		<tag k="place" v="locality" />
		<tag k="ssr:stedsnr" v="66302" />
	</node>
	<node lat="60.366933334617386" lon="8.853358325596608" id="-21250">
		<tag k="alt_name" v="Bekkenseter" />
		<tag k="historic" v="shieling" />
		<tag k="loc_name" v="Bekkene" />
		<tag k="name" v="Bekkeset" />
		<tag k="place" v="isolated_dwelling" />
		<tag k="ssr:stedsnr" v="66352" />
	</node>
	<node lat="60.4013055553855" lon="8.64424999751475" id="-21251">
		<tag k="historic" v="shieling" />
		<tag k="name" v="Nedre Ræpehol" />
		<tag k="place" v="isolated_dwelling" />
		<tag k="ssr:stedsnr" v="66362" />
	</node>
	<node lat="60.251924253843086" lon="8.186349041827903" id="-21252">
		<tag k="name" v="Halstjønn" />
		<tag k="natural" v="water" />
		<tag k="ssr:stedsnr" v="66048" />
		<tag k="water" v="lake" />
	</node>
	<node lat="60.26171666875804" lon="8.411594444499842" id="-21253">
		<tag k="fixme" v="consider natural=peak for the most distinct mountains in the district" />
		<tag k="name" v="Gamleseternuten" />
		<tag k="natural" v="hill" />
		<tag k="place" v="locality" />
		<tag k="ssr:stedsnr" v="66049" />
	</node>
	<node lat="60.23876666261288" lon="7.676402779686069" id="-21254">
		<tag k="fixme" v="consider natural=peak for the most distinct mountains in the district" />
		<tag k="name" v="Nilsbunuten" />
		<tag k="natural" v="hill" />
		<tag k="place" v="locality" />
		<tag k="ssr:stedsnr" v="66261" />
	</node>
	<node lat="60.2217005925131" lon="7.6487962637141305" id="-21255">
		<tag k="name" v="Brutjønnan" />
		<tag k="natural" v="water" />
		<tag k="ssr:stedsnr" v="66698" />
		<tag k="water" v="lake" />
	</node>
	<node lat="60.343800002614785" lon="7.9792472168101805" id="-21256">
		<tag k="name" v="Nedre Hein" />
		<tag k="natural" v="water" />
		<tag k="old_name" v="ned Hein;ned Heiern" />
		<tag k="ssr:stedsnr" v="66794" />
		<tag k="water" v="lake" />
	</node>
	<node lat="60.32073610734266" lon="8.517691670430466" id="-21257">
		<tag k="historic" v="shieling" />
		<tag k="loc_name" v="Viersjordsetre" />
		<tag k="name" v="Viersjordseter" />
		<tag k="place" v="isolated_dwelling" />
		<tag k="ssr:stedsnr" v="241852" />
	</node>
	<node lat="60.34941388728731" lon="7.6904055576161525" id="-21258">
		<tag k="name" v="Smalsund" />
		<tag k="natural" v="strait" />
		<tag k="ssr:stedsnr" v="66874" />
	</node>
	<node lat="60.49132328405798" lon="8.695628727643294" id="-21259">
		<tag k="name" v="Hakatjønne" />
		<tag k="natural" v="water" />
		<tag k="ssr:stedsnr" v="67046" />
	</node>
	<node lat="60.48811666697589" lon="8.649341667184947" id="-21260">
		<tag k="name" v="Bikkjetjønnan" />
		<tag k="natural" v="water" />
		<tag k="ssr:stedsnr" v="67050" />
		<tag k="water" v="lake" />
	</node>
	<node lat="60.27131110670247" lon="8.106638896102192" id="-21261">
		<tag k="name" v="Grotbekken" />
		<tag k="ssr:stedsnr" v="67002" />
		<tag k="waterway" v="stream" />
	</node>
	<node lat="60.28906389056082" lon="8.396400008242287" id="-21262">
		<tag k="fixme" v="consider natural=peak for the most distinct mountains in the district" />
		<tag k="loc_name" v="Grythøvd" />
		<tag k="name" v="Grytehovde" />
		<tag k="natural" v="hill" />
		<tag k="old_name" v="Grythovd" />
		<tag k="place" v="locality" />
		<tag k="ssr:stedsnr" v="67005" />
	</node>
	<node lat="60.27922636477561" lon="8.974413863892465" id="-21263">
		<tag k="alt_name" v="Murargarden" />
		<tag k="fixme" v="consider place=hamlet" />
		<tag k="name" v="Murugarden" />
		<tag k="place" v="farm" />
		<tag k="ssr:stedsnr" v="67290" />
	</node>
	<node lat="60.34125277392909" lon="9.087275002092843" id="-21264">
		<tag k="name" v="Skjerøkternatten" />
		<tag k="natural" v="hill" />
		<tag k="place" v="locality" />
		<tag k="ssr:stedsnr" v="67412" />
	</node>
	<node lat="60.360213889115236" lon="8.748958341016683" id="-21265">
		<tag k="fixme" v="consider natural=peak for the most distinct mountains in the district" />
		<tag k="name" v="Bjørnebergåsen" />
		<tag k="natural" v="hill" />
		<tag k="place" v="locality" />
		<tag k="ssr:stedsnr" v="67431" />
	</node>
	<node lat="60.305186107316224" lon="8.986844435555003" id="-21266">
		<tag k="historic" v="shieling" />
		<tag k="name" v="Nordre Ringputtåsen" />
		<tag k="place" v="isolated_dwelling" />
		<tag k="ssr:stedsnr" v="241870" />
	</node>
	<node lat="60.2625999985944" lon="8.990324992717806" id="-21267">
		<tag k="name" v="Nedre Sporan" />
		<tag k="place" v="farm" />
		<tag k="ssr:stedsnr" v="67315" />
	</node>
	<node lat="60.25672222053158" lon="9.159780553266962" id="-21268">
		<tag k="name" v="Dangeset" />
		<tag k="place" v="isolated_dwelling" />
		<tag k="ssr:stedsnr" v="67320" />
	</node>
	<node lat="60.43381666755017" lon="8.899863896124344" id="-21269">
		<tag k="fixme" v="multiple name tags, choose one and add the other to alt_name" />
		<tag k="historic" v="shieling" />
		<tag k="name" v="Liaset;Sundbulisetre" />
		<tag k="place" v="isolated_dwelling" />
		<tag k="ssr:stedsnr" v="67348" />
	</node>
	<node lat="60.42110277859976" lon="8.984049992373569" id="-21270">
		<tag k="name" v="Åsbrun" />
		<tag k="natural" v="ridge" />
		<tag k="old_name" v="Isbrunatten" />
		<tag k="place" v="locality" />
		<tag k="ssr:stedsnr" v="67350" />
	</node>
	<node lat="60.28800156674425" lon="8.881629110055384" id="-21271">
		<tag k="fixme" v="consider place=hamlet" />
		<tag k="name" v="Gryting" />
		<tag k="place" v="farm" />
		<tag k="ssr:stedsnr" v="67504" />
	</node>
	<node lat="60.29668333675636" lon="9.108063886361208" id="-21272">
		<tag k="name" v="Krosstjønne" />
		<tag k="natural" v="water" />
		<tag k="ssr:stedsnr" v="67514" />
	</node>
	<node lat="60.28676388761698" lon="9.003941674997117" id="-21273">
		<tag k="alt_name" v="Fløti" />
		<tag k="loc_name" v="Fløte" />
		<tag k="name" v="Flåte" />
		<tag k="place" v="farm" />
		<tag k="ssr:stedsnr" v="67519" />
	</node>
	<node lat="60.28128489882056" lon="8.5971041318901" id="-21274">
		<tag k="name" v="Rennå" />
		<tag k="old_name" v="Renna" />
		<tag k="place" v="locality" />
		<tag k="ssr:stedsnr" v="67601" />
	</node>
	<node lat="60.224394929113075" lon="8.550272375030666" id="-21275">
		<tag k="name" v="Sønstevatn" />
		<tag k="natural" v="water" />
		<tag k="ssr:stedsnr" v="81115" />
		<tag k="water" v="lake" />
	</node>
	<node lat="60.09894999981634" lon="7.487983339709965" id="-21276">
		<tag k="name" v="Hardangervidda" />
		<tag k="natural" v="plateau" />
		<tag k="ssr:stedsnr" v="85109" />
	</node>
	<node lat="60.37471111232297" lon="8.918072227795495" id="-21277">
		<tag k="historic" v="shieling" />
		<tag k="name" v="Slåttelihaugen" />
		<tag k="place" v="isolated_dwelling" />
		<tag k="ssr:stedsnr" v="248345" />
	</node>
	<node lat="60.121251075020744" lon="9.037675851648133" id="-21278">
		<tag k="fixme" v="consider place=hamlet" />
		<tag k="name" v="Hellekleiv" />
		<tag k="place" v="farm" />
		<tag k="ssr:stedsnr" v="247533" />
	</node>
	<node lat="60.14658889330646" lon="9.064880557307273" id="-21279">
		<tag k="loc_name" v="Skogan" />
		<tag k="name" v="Skogangrendi" />
		<tag k="place" v="hamlet" />
		<tag k="ssr:stedsnr" v="247495" />
	</node>
	<node lat="60.18086389306446" lon="9.071836104950915" id="-21280">
		<tag k="name" v="Elgtjønne" />
		<tag k="natural" v="water" />
		<tag k="ssr:stedsnr" v="247545" />
	</node>
	<node lat="60.17237499889159" lon="8.849675000921298" id="-21281">
		<tag k="fixme" v="consider natural=peak for the most distinct mountains in the district" />
		<tag k="name" v="Breidsethovda" />
		<tag k="natural" v="hill" />
		<tag k="place" v="locality" />
		<tag k="ssr:stedsnr" v="247549" />
	</node>
	<node lat="60.17256389092992" lon="7.97205000547117" id="-21282">
		<tag k="alt_name" v="Vestre Hettehove" />
		<tag k="fixme" v="consider natural=peak for the most distinct mountains in the district" />
		<tag k="name" v="Vestre Hettehovet" />
		<tag k="natural" v="hill" />
		<tag k="old_name" v="v Hettehove" />
		<tag k="place" v="locality" />
		<tag k="ssr:stedsnr" v="247553" />
	</node>
	<node lat="60.18848888834561" lon="9.062894442427023" id="-21283">
		<tag k="alt_name" v="Løkeset" />
		<tag k="historic" v="shieling" />
		<tag k="name" v="Løkjeset" />
		<tag k="old_name" v="Løkjeset sr" />
		<tag k="place" v="isolated_dwelling" />
		<tag k="ssr:stedsnr" v="247554" />
	</node>
	<node lat="60.155463884732626" lon="8.946586117926433" id="-21284">
		<tag k="alt_name" v="Byggingen;Byggingan" />
		<tag k="historic" v="shieling" />
		<tag k="name" v="Byggjingen" />
		<tag k="place" v="isolated_dwelling" />
		<tag k="ssr:stedsnr" v="247593" />
	</node>
	<node lat="60.172130554741734" lon="9.083266667141977" id="-21285">
		<tag k="alt_name" v="Elgdalen" />
		<tag k="name" v="Elgsdalen" />
		<tag k="natural" v="valley" />
		<tag k="place" v="locality" />
		<tag k="ssr:stedsnr" v="247598" />
	</node>
	<node lat="60.08347337064376" lon="9.085958023061332" id="-21286">
		<tag k="name" v="Fossebrekke" />
		<tag k="old_name" v="Nordre Fossebrekke" />
		<tag k="place" v="farm" />
		<tag k="ssr:stedsnr" v="247733" />
	</node>
	<node lat="60.22798332952996" lon="7.628650004466754" id="-21287">
		<tag k="name" v="Skrovstjønne" />
		<tag k="natural" v="water" />
		<tag k="ssr:stedsnr" v="247690" />
	</node>
	<node lat="60.13844722197262" lon="7.595666671722919" id="-21288">
		<tag k="name" v="Langebuåne" />
		<tag k="ssr:stedsnr" v="247739" />
		<tag k="waterway" v="river" />
	</node>
	<node lat="60.15844166724596" lon="7.581030551289853" id="-21289">
		<tag k="name" v="Kagelitjønne" />
		<tag k="natural" v="water" />
		<tag k="ssr:stedsnr" v="247745" />
	</node>
	<node lat="60.23903333709474" lon="8.7003305625494" id="-21290">
		<tag k="historic" v="shieling" />
		<tag k="name" v="Tjønnset" />
		<tag k="place" v="isolated_dwelling" />
		<tag k="ssr:stedsnr" v="247841" />
	</node>
	<node lat="60.23866388653679" lon="8.524749997056825" id="-21291">
		<tag k="name" v="Flåtåe" />
		<tag k="ssr:stedsnr" v="247848" />
		<tag k="waterway" v="stream" />
	</node>
	<node lat="60.237836106962355" lon="8.576969442368275" id="-21292">
		<tag k="fixme" v="consider natural=peak for the most distinct mountains in the district" />
		<tag k="name" v="Glopphovda" />
		<tag k="natural" v="hill" />
		<tag k="place" v="locality" />
		<tag k="ssr:stedsnr" v="247849" />
	</node>
	<node lat="60.23292500192633" lon="9.156605551706551" id="-21293">
		<tag k="name" v="Kårsetmyran" />
		<tag k="natural" v="wetland" />
		<tag k="ssr:stedsnr" v="247866" />
	</node>
	<node lat="60.225450003906666" lon="8.94888888614539" id="-21294">
		<tag k="name" v="Rosetnatten" />
		<tag k="natural" v="hill" />
		<tag k="place" v="locality" />
		<tag k="ssr:stedsnr" v="247878" />
	</node>
	<node lat="60.212594441281134" lon="8.976813888954075" id="-21295">
		<tag k="historic" v="shieling" />
		<tag k="name" v="Søre Liset" />
		<tag k="place" v="isolated_dwelling" />
		<tag k="ssr:stedsnr" v="247882" />
	</node>
	<node lat="60.23803610881744" lon="9.01194999616009" id="-21296">
		<tag k="alt_name" v="Hjalland" />
		<tag k="name" v="Hjallan" />
		<tag k="place" v="farm" />
		<tag k="ssr:stedsnr" v="247981" />
	</node>
	<node lat="60.23226111479695" lon="8.878861110926815" id="-21297">
		<tag k="alt_name" v="Skjenhovdkulten" />
		<tag k="fixme" v="consider natural=peak for the most distinct mountains in the district" />
		<tag k="loc_name" v="Skjenhøvdkulten" />
		<tag k="name" v="Skinhovdkulten" />
		<tag k="natural" v="hill" />
		<tag k="place" v="locality" />
		<tag k="ssr:stedsnr" v="247991" />
	</node>
	<node lat="60.23228055251327" lon="8.916875005534864" id="-21298">
		<tag k="name" v="Nedre Heimtjønn" />
		<tag k="natural" v="water" />
		<tag k="ssr:stedsnr" v="247992" />
	</node>
	<node lat="60.23608055837033" lon="8.918086115755491" id="-21299">
		<tag k="name" v="Hansetjønn" />
		<tag k="natural" v="water" />
		<tag k="ssr:stedsnr" v="247994" />
	</node>
	<node lat="60.191361115513175" lon="9.048958330187594" id="-21300">
		<tag k="fixme" v="consider natural=peak for the most distinct mountains in the district" />
		<tag k="name" v="Lauvbuåsen" />
		<tag k="natural" v="hill" />
		<tag k="place" v="locality" />
		<tag k="ssr:stedsnr" v="247932" />
	</node>
	<node lat="60.19476944873413" lon="9.10481667245082" id="-21301">
		<tag k="name" v="Kortetjønne" />
		<tag k="natural" v="water" />
		<tag k="ssr:stedsnr" v="247937" />
	</node>
	<node lat="60.498536109539565" lon="8.727258333116486" id="-21302">
		<tag k="fixme" v="multiple name tags, choose one and add the other to alt_name" />
		<tag k="name" v="Kløvtjørn;Klovsteintjønne" />
		<tag k="natural" v="water" />
		<tag k="ssr:stedsnr" v="248037" />
	</node>
	<node lat="60.254274725816686" lon="8.300135147795517" id="-21303">
		<tag k="historic" v="shieling" />
		<tag k="name" v="Gamle Langetjønnsetre" />
		<tag k="place" v="isolated_dwelling" />
		<tag k="ssr:stedsnr" v="248044" />
	</node>
	<node lat="60.23271389184427" lon="8.964919453144978" id="-21304">
		<tag k="alt_name" v="Grånåsetseter" />
		<tag k="historic" v="shieling" />
		<tag k="name" v="Grånåset" />
		<tag k="place" v="isolated_dwelling" />
		<tag k="ssr:stedsnr" v="247996" />
	</node>
	<node lat="60.244518465211456" lon="8.955112963340307" id="-21305">
		<tag k="name" v="Nybutjønne" />
		<tag k="natural" v="water" />
		<tag k="ssr:stedsnr" v="100563" />
	</node>
	<node lat="60.24647499930637" lon="8.931288891335344" id="-21306">
		<tag k="name" v="Bjørnhaug" />
		<tag k="natural" v="hill" />
		<tag k="place" v="locality" />
		<tag k="ssr:stedsnr" v="100566" />
	</node>
	<node lat="60.24280833679137" lon="8.910816666008419" id="-21307">
		<tag k="name" v="Langemyre" />
		<tag k="natural" v="wetland" />
		<tag k="ssr:stedsnr" v="100567" />
	</node>
	<node lat="60.35543611270736" lon="8.926744449794628" id="-21309">
		<tag k="alt_name" v="Baustebøle" />
		<tag k="historic" v="shieling" />
		<tag k="name" v="Baustebølet" />
		<tag k="old_name" v="Baustebølseter" />
		<tag k="place" v="isolated_dwelling" />
		<tag k="ssr:stedsnr" v="248369" />
	</node>
	<node lat="60.39337499729622" lon="8.697680555251914" id="-21310">
		<tag k="fixme" v="multiple name tags, choose one and add the other to alt_name" />
		<tag k="historic" v="shieling" />
		<tag k="loc_name" v="Joslistølen;Ljoslistulen" />
		<tag k="name" v="Ljoslistølen;Ljosliseter" />
		<tag k="place" v="isolated_dwelling" />
		<tag k="ssr:stedsnr" v="248372" />
	</node>
	<node lat="60.08426944013812" lon="9.064869445097811" id="-21311">
		<tag k="name" v="Skardkås" />
		<tag k="natural" v="hill" />
		<tag k="place" v="locality" />
		<tag k="ssr:stedsnr" v="101003" />
	</node>
	<node lat="60.37513888771001" lon="8.53516111859944" id="-21312">
		<tag k="name" v="Sjugurdstjønne" />
		<tag k="natural" v="water" />
		<tag k="ssr:stedsnr" v="248385" />
	</node>
	<node lat="60.26268909750564" lon="8.666017601847534" id="-21313">
		<tag k="name" v="Brandsgard" />
		<tag k="place" v="farm" />
		<tag k="ssr:stedsnr" v="248475" />
	</node>
	<node lat="60.27022279719166" lon="8.748795167017605" id="-21314">
		<tag k="alt_name" v="Grøneflåta;Grønneflåta" />
		<tag k="loc_name" v="Grønneflåtå" />
		<tag k="name" v="Øygarden" />
		<tag k="place" v="farm" />
		<tag k="ssr:stedsnr" v="248478" />
	</node>
	<node lat="60.27027222021171" lon="8.795072214007158" id="-21315">
		<tag k="alt_name" v="Bakke nedre" />
		<tag k="name" v="Nedre Bakke" />
		<tag k="place" v="farm" />
		<tag k="ssr:stedsnr" v="248486" />
	</node>
	<node lat="60.18600555564508" lon="9.14968333193965" id="-21316">
		<tag k="historic" v="shieling" />
		<tag k="name" v="Nybu" />
		<tag k="place" v="isolated_dwelling" />
		<tag k="ssr:stedsnr" v="101362" />
	</node>
	<node lat="60.22239999559173" lon="8.977563894022042" id="-21317">
		<tag k="name" v="Elgsmyre" />
		<tag k="natural" v="wetland" />
		<tag k="ssr:stedsnr" v="101665" />
	</node>
	<node lat="60.16874999948487" lon="8.486344448903607" id="-21318">
		<tag k="fixme" v="consider natural=peak for the most distinct mountains in the district" />
		<tag k="name" v="Salhovda" />
		<tag k="natural" v="hill" />
		<tag k="old_name" v="Sahovda" />
		<tag k="place" v="locality" />
		<tag k="ssr:stedsnr" v="102878" />
	</node>
	<node lat="60.28094722582896" lon="7.882897214454048" id="-21319">
		<tag k="name" v="Tormodbekken" />
		<tag k="ssr:stedsnr" v="248766" />
		<tag k="waterway" v="stream" />
	</node>
	<node lat="60.259774086957044" lon="7.9451311162840765" id="-21320">
		<tag k="name" v="Danemannslægret" />
		<tag k="place" v="locality" />
		<tag k="ssr:stedsnr" v="248780" />
	</node>
	<node lat="60.34734999558393" lon="7.9052750004478805" id="-21321">
		<tag k="fixme" v="consider natural=peak for the most distinct mountains in the district" />
		<tag k="name" v="Selstjønnutan" />
		<tag k="natural" v="hill" />
		<tag k="place" v="locality" />
		<tag k="ssr:stedsnr" v="248827" />
	</node>
	<node lat="60.26689444128331" lon="7.645299994945216" id="-21322">
		<tag k="name" v="Bakkatjønnmyran" />
		<tag k="natural" v="wetland" />
		<tag k="ssr:stedsnr" v="248976" />
	</node>
	<node lat="60.28404444314293" lon="8.268002784533929" id="-21323">
		<tag k="name" v="Torestjønne" />
		<tag k="natural" v="water" />
		<tag k="ssr:stedsnr" v="249006" />
	</node>
	<node lat="60.30158611500994" lon="8.359366673928072" id="-21324">
		<tag k="historic" v="shieling" />
		<tag k="name" v="Breibu" />
		<tag k="place" v="isolated_dwelling" />
		<tag k="ssr:stedsnr" v="249018" />
	</node>
	<node lat="60.49119444064933" lon="8.743361102239733" id="-21325">
		<tag k="alt_name" v="Ulerud" />
		<tag k="historic" v="shieling" />
		<tag k="name" v="Urderud" />
		<tag k="place" v="isolated_dwelling" />
		<tag k="ssr:stedsnr" v="249037" />
	</node>
	<node lat="60.48970277472024" lon="8.634783341440377" id="-21326">
		<tag k="name" v="Knippen" />
		<tag k="natural" v="hill" />
		<tag k="place" v="locality" />
		<tag k="ssr:stedsnr" v="249038" />
	</node>
	<node lat="60.454188309659315" lon="8.697481606961293" id="-21327">
		<tag k="alt_name" v="Breidvik" />
		<tag k="name" v="Breivik" />
		<tag k="place" v="hamlet" />
		<tag k="ssr:stedsnr" v="249059" />
	</node>
	<node lat="60.47037777919659" lon="8.706222230634333" id="-21328">
		<tag k="historic" v="shieling" />
		<tag k="name" v="Myrestølen" />
		<tag k="place" v="isolated_dwelling" />
		<tag k="ssr:stedsnr" v="249073" />
	</node>
	<node lat="60.46322597544091" lon="8.744910786430566" id="-21329">
		<tag k="alt_name" v="Hytten" />
		<tag k="fixme" v="consider place=hamlet" />
		<tag k="name" v="Hytta" />
		<tag k="place" v="farm" />
		<tag k="ssr:stedsnr" v="249075" />
	</node>
	<node lat="60.46185278089846" lon="8.673225003562939" id="-21330">
		<tag k="name" v="Nedre Lian" />
		<tag k="place" v="farm" />
		<tag k="ssr:stedsnr" v="249080" />
	</node>
	<node lat="60.42410000429624" lon="8.709747218740167" id="-21331">
		<tag k="fixme" v="consider natural=peak for the most distinct mountains in the district" />
		<tag k="name" v="Turrhaugnatten" />
		<tag k="natural" v="hill" />
		<tag k="place" v="locality" />
		<tag k="ssr:stedsnr" v="249092" />
	</node>
	<node lat="60.35301666372598" lon="8.10271944888705" id="-21332">
		<tag k="fixme" v="consider natural=peak for the most distinct mountains in the district" />
		<tag k="name" v="Halstjønntind" />
		<tag k="natural" v="hill" />
		<tag k="place" v="locality" />
		<tag k="ssr:stedsnr" v="249178" />
	</node>
	<node lat="60.27431086832578" lon="8.949263474880881" id="-21333">
		<tag k="alt_name" v="Toen" />
		<tag k="fixme" v="consider place=hamlet" />
		<tag k="name" v="Ton" />
		<tag k="place" v="farm" />
		<tag k="ssr:stedsnr" v="249235" />
	</node>
	<node lat="60.26178289998164" lon="8.84587553764914" id="-21334">
		<tag k="fixme" v="consider place=hamlet" />
		<tag k="name" v="Presterud" />
		<tag k="place" v="farm" />
		<tag k="ssr:stedsnr" v="249283" />
	</node>
	<node lat="60.25618332894817" lon="8.966438891309233" id="-21335">
		<tag k="fixme" v="consider natural=peak for the most distinct mountains in the district" />
		<tag k="name" v="Geitåsen" />
		<tag k="natural" v="hill" />
		<tag k="place" v="locality" />
		<tag k="ssr:stedsnr" v="249292" />
	</node>
	<node lat="60.26259722646063" lon="8.968013891169406" id="-21336">
		<tag k="name" v="Granhaug" />
		<tag k="old_name" v="Grønhaug" />
		<tag k="place" v="farm" />
		<tag k="ssr:stedsnr" v="249294" />
	</node>
	<node lat="60.263095441066284" lon="9.133732098985046" id="-21337">
		<tag k="alt_name" v="Veavatnet" />
		<tag k="name" v="Veavatn" />
		<tag k="natural" v="water" />
		<tag k="ssr:stedsnr" v="249301" />
		<tag k="water" v="lake" />
	</node>
	<node lat="60.38047222121962" lon="9.057094444006008" id="-21338">
		<tag k="fixme" v="consider natural=peak for the most distinct mountains in the district" />
		<tag k="loc_name" v="Styggramflæe" />
		<tag k="name" v="Styggegramsfjellet" />
		<tag k="natural" v="hill" />
		<tag k="old_name" v="Styggegram-Fj." />
		<tag k="place" v="locality" />
		<tag k="ssr:stedsnr" v="249370" />
	</node>
	<node lat="60.33653888889491" lon="8.981308329026422" id="-21339">
		<tag k="alt_name" v="Ryggeliseter" />
		<tag k="historic" v="shieling" />
		<tag k="name" v="Ryggelie" />
		<tag k="place" v="isolated_dwelling" />
		<tag k="ssr:stedsnr" v="249396" />
	</node>
	<node lat="60.343633335732356" lon="8.903302768911548" id="-21340">
		<tag k="name" v="Grøndalen" />
		<tag k="place" v="locality" />
		<tag k="ssr:stedsnr" v="249400" />
	</node>
	<node lat="60.350100000220905" lon="8.899369445831756" id="-21341">
		<tag k="alt_name" v="Skinholbekken" />
		<tag k="name" v="Skjenhølbekken" />
		<tag k="ssr:stedsnr" v="249380" />
		<tag k="waterway" v="stream" />
	</node>
	<node lat="60.35810833560563" lon="9.120311110542119" id="-21342">
		<tag k="historic" v="shieling" />
		<tag k="name" v="Sverig" />
		<tag k="old_name" v="Sverigessætri" />
		<tag k="place" v="isolated_dwelling" />
		<tag k="ssr:stedsnr" v="249388" />
	</node>
	<node lat="60.32304166287425" lon="8.757463894333153" id="-21343">
		<tag k="alt_name" v="Granasetfjellet;Grånåsetfjell" />
		<tag k="fixme" v="consider natural=peak for the most distinct mountains in the district" />
		<tag k="name" v="Grånåsetfjellet" />
		<tag k="natural" v="hill" />
		<tag k="place" v="locality" />
		<tag k="ssr:stedsnr" v="249450" />
	</node>
	<node lat="60.31383333389037" lon="8.664749995813585" id="-21344">
		<tag k="name" v="Raudsjødalen" />
		<tag k="natural" v="valley" />
		<tag k="place" v="locality" />
		<tag k="ssr:stedsnr" v="249460" />
	</node>
	<node lat="60.31470000343338" lon="8.963219437043236" id="-21345">
		<tag k="alt_name" v="Bjølldokka;Bjelldokken" />
		<tag k="loc_name" v="Bjelldøkkje" />
		<tag k="name" v="Bjølledokken" />
		<tag k="place" v="farm" />
		<tag k="ssr:stedsnr" v="249467" />
	</node>
	<node lat="60.28429834935863" lon="8.88508208819344" id="-21346">
		<tag k="fixme" v="consider place=hamlet" />
		<tag k="name" v="Kvernerud" />
		<tag k="place" v="farm" />
		<tag k="ssr:stedsnr" v="249502" />
	</node>
	<node lat="60.34881388497001" lon="9.008280546800561" id="-21347">
		<tag k="alt_name" v="Austhaugen" />
		<tag k="name" v="Austhaugan" />
		<tag k="natural" v="hill" />
		<tag k="place" v="locality" />
		<tag k="ssr:stedsnr" v="249407" />
	</node>
	<node lat="60.3466888871202" lon="8.559663886449593" id="-21348">
		<tag k="name" v="Løytetjønn" />
		<tag k="natural" v="water" />
		<tag k="ssr:stedsnr" v="249412" />
	</node>
	<node lat="60.352788890605886" lon="8.532925004336233" id="-21349">
		<tag k="alt_name" v="Løytebekk" />
		<tag k="name" v="Løytebekken" />
		<tag k="ssr:stedsnr" v="249418" />
		<tag k="waterway" v="stream" />
	</node>
	<node lat="60.332474997626804" lon="9.043563885265531" id="-21350">
		<tag k="alt_name" v="Steinsetseter" />
		<tag k="historic" v="shieling" />
		<tag k="name" v="Steinset" />
		<tag k="place" v="isolated_dwelling" />
		<tag k="ssr:stedsnr" v="249421" />
	</node>
	<node lat="60.33225000184068" lon="8.868527771645319" id="-21351">
		<tag k="historic" v="shieling" />
		<tag k="name" v="Sjåbu" />
		<tag k="place" v="isolated_dwelling" />
		<tag k="ssr:stedsnr" v="249426" />
	</node>
	<node lat="60.32662500398398" lon="8.642011115274489" id="-21352">
		<tag k="alt_name" v="Hvilinghallnuten" />
		<tag k="fixme" v="consider natural=peak for the most distinct mountains in the district" />
		<tag k="name" v="Gvilingshallnuten" />
		<tag k="natural" v="hill" />
		<tag k="place" v="locality" />
		<tag k="ssr:stedsnr" v="249443" />
	</node>
	<node lat="60.35204444226408" lon="8.836130563094203" id="-21353">
		<tag k="name" v="Brennhovdtjønne" />
		<tag k="natural" v="water" />
		<tag k="ssr:stedsnr" v="117202" />
	</node>
	<node lat="60.231103790357764" lon="8.921735574775553" id="-21354">
		<tag k="name" v="Heimtjønnan" />
		<tag k="natural" v="water" />
		<tag k="ssr:stedsnr" v="118313" />
		<tag k="water" v="lake" />
	</node>
	<node lat="60.264891667030554" lon="8.871788892182819" id="-21355">
		<tag k="name" v="Fønnebøjordet" />
		<tag k="place" v="farm" />
		<tag k="ssr:stedsnr" v="120005" />
	</node>
	<node lat="60.27403333639989" lon="8.800600005520009" id="-21356">
		<tag k="name" v="Nedre Åstveit" />
		<tag k="place" v="farm" />
		<tag k="ssr:stedsnr" v="120115" />
	</node>
	<node lat="60.19555691873041" lon="8.920755438839127" id="-21357">
		<tag k="name" v="Brennattjønnan" />
		<tag k="natural" v="water" />
		<tag k="ssr:stedsnr" v="120069" />
		<tag k="water" v="lake" />
	</node>
	<node lat="60.26445833389542" lon="8.986861108311428" id="-21358">
		<tag k="name" v="Søre Sporan" />
		<tag k="place" v="farm" />
		<tag k="ssr:stedsnr" v="120660" />
	</node>
	<node lat="60.26766388852351" lon="9.012977777025228" id="-21359">
		<tag k="name" v="Nedre Plassen" />
		<tag k="place" v="farm" />
		<tag k="ssr:stedsnr" v="120670" />
	</node>
	<node lat="60.15807367773156" lon="7.671552918190829" id="-21360">
		<tag k="name" v="Elsjåholet" />
		<tag k="place" v="locality" />
		<tag k="ssr:stedsnr" v="125759" />
	</node>
	<node lat="60.383750004194326" lon="8.459749990961594" id="-21361">
		<tag k="historic" v="shieling" />
		<tag k="name" v="Hovdesetre" />
		<tag k="place" v="isolated_dwelling" />
		<tag k="ssr:stedsnr" v="126209" />
	</node>
	<node lat="60.133211112777595" lon="9.124619451584493" id="-21362">
		<tag k="alt_name" v="Vergjedalssetre" />
		<tag k="historic" v="shieling" />
		<tag k="loc_name" v="Vergjedalen" />
		<tag k="name" v="Haustveitvergjedalen" />
		<tag k="old_name" v="Hausttveisætri" />
		<tag k="place" v="isolated_dwelling" />
		<tag k="ssr:stedsnr" v="126509" />
	</node>
	<node lat="60.13830278175265" lon="9.076150000762455" id="-21363">
		<tag k="name" v="Vehustjønne" />
		<tag k="natural" v="water" />
		<tag k="ssr:stedsnr" v="126516" />
	</node>
	<node lat="60.202649338410595" lon="9.000501946340679" id="-21364">
		<tag k="alt_name" v="Sælebakke" />
		<tag k="fixme" v="consider place=hamlet" />
		<tag k="name" v="Selabakke" />
		<tag k="place" v="farm" />
		<tag k="ssr:stedsnr" v="126912" />
	</node>
	<node lat="60.23928333412794" lon="8.562552771447109" id="-21365">
		<tag k="alt_name" v="Lortetjønn" />
		<tag k="name" v="Lortetjønne" />
		<tag k="natural" v="water" />
		<tag k="ssr:stedsnr" v="126854" />
	</node>
	<node lat="60.23544167100383" lon="8.611269444743222" id="-21366">
		<tag k="alt_name" v="Tverrlihovd" />
		<tag k="name" v="Tverrlihovda" />
		<tag k="natural" v="hill" />
		<tag k="place" v="locality" />
		<tag k="ssr:stedsnr" v="126856" />
	</node>
	<node lat="60.19286944432592" lon="8.616927781385908" id="-21367">
		<tag k="fixme" v="consider natural=peak for the most distinct mountains in the district" />
		<tag k="name" v="Borgsjånutan" />
		<tag k="natural" v="hill" />
		<tag k="place" v="locality" />
		<tag k="ssr:stedsnr" v="126860" />
	</node>
	<node lat="60.21222499737219" lon="9.075461110167327" id="-21368">
		<tag k="name" v="Dakkesettjønne" />
		<tag k="natural" v="water" />
		<tag k="ssr:stedsnr" v="126893" />
	</node>
	<node lat="60.2130916696004" lon="8.991736112279945" id="-21369">
		<tag k="name" v="Stakkhaug" />
		<tag k="place" v="farm" />
		<tag k="ssr:stedsnr" v="126897" />
	</node>
	<node lat="60.48651666430163" lon="8.49136388554383" id="-21370">
		<tag k="name" v="Halldalsåne" />
		<tag k="ssr:stedsnr" v="127044" />
		<tag k="waterway" v="stream" />
	</node>
	<node lat="60.27347777667088" lon="8.26019443857398" id="-21371">
		<tag k="fixme" v="consider natural=peak for the most distinct mountains in the district" />
		<tag k="name" v="Bollatjønnuten" />
		<tag k="natural" v="hill" />
		<tag k="place" v="locality" />
		<tag k="ssr:stedsnr" v="127060" />
	</node>
	<node lat="60.353783335272986" lon="8.406219442133406" id="-21372">
		<tag k="name" v="Delesbekken" />
		<tag k="ssr:stedsnr" v="127221" />
		<tag k="waterway" v="stream" />
	</node>
	<node lat="60.32179722641236" lon="8.44878888978958" id="-21373">
		<tag k="loc_name" v="Roe" />
		<tag k="name" v="Roi" />
		<tag k="place" v="isolated_dwelling" />
		<tag k="ssr:stedsnr" v="127248" />
	</node>
	<node lat="60.307366667315584" lon="8.385438889361136" id="-21374">
		<tag k="historic" v="shieling" />
		<tag k="name" v="Flåtåsetre" />
		<tag k="place" v="isolated_dwelling" />
		<tag k="ssr:stedsnr" v="127257" />
	</node>
	<node lat="60.45155555633953" lon="8.6422277712958" id="-21375">
		<tag k="name" v="Bergodden" />
		<tag k="natural" v="cape" />
		<tag k="ssr:stedsnr" v="127115" />
	</node>
	<node lat="60.46148888448857" lon="8.809541668712187" id="-21376">
		<tag k="name" v="Tunhovdbekken" />
		<tag k="ssr:stedsnr" v="127121" />
		<tag k="waterway" v="stream" />
	</node>
	<node lat="60.27188055415567" lon="8.96790276912477" id="-21377">
		<tag k="name" v="Rånatten" />
		<tag k="natural" v="hill" />
		<tag k="place" v="locality" />
		<tag k="ssr:stedsnr" v="127307" />
	</node>
	<node lat="60.26115833607103" lon="8.874461114837983" id="-21378">
		<tag k="name" v="Persgard" />
		<tag k="place" v="farm" />
		<tag k="ssr:stedsnr" v="127314" />
	</node>
	<node lat="60.2747574783896" lon="9.006191375269252" id="-21379">
		<tag k="fixme" v="consider place=hamlet" />
		<tag k="name" v="Bekkeset" />
		<tag k="place" v="farm" />
		<tag k="ssr:stedsnr" v="127292" />
	</node>
	<node lat="60.35643889306117" lon="8.932152776262635" id="-21380">
		<tag k="name" v="Baustebøltjønne" />
		<tag k="natural" v="water" />
		<tag k="ssr:stedsnr" v="127407" />
	</node>
	<node lat="60.33533611162227" lon="8.899061119610131" id="-21381">
		<tag k="alt_name" v="Øygardsholmene" />
		<tag k="name" v="Øygardsholman" />
		<tag k="place" v="islet" />
		<tag k="ssr:stedsnr" v="127443" />
	</node>
	<node lat="60.328061112159375" lon="8.877675008097077" id="-21382">
		<tag k="alt_name" v="Gaukesetseter" />
		<tag k="historic" v="shieling" />
		<tag k="name" v="Gaukset" />
		<tag k="place" v="isolated_dwelling" />
		<tag k="ssr:stedsnr" v="127444" />
	</node>
	<node lat="60.32761389274957" lon="8.489016674163794" id="-21383">
		<tag k="historic" v="shieling" />
		<tag k="name" v="Nørdstebøsetre" />
		<tag k="place" v="isolated_dwelling" />
		<tag k="ssr:stedsnr" v="127459" />
	</node>
	<node lat="60.30599166870605" lon="8.795247219054167" id="-21384">
		<tag k="alt_name" v="Baklistulen" />
		<tag k="historic" v="shieling" />
		<tag k="name" v="Baklistølen" />
		<tag k="place" v="isolated_dwelling" />
		<tag k="ssr:stedsnr" v="127495" />
	</node>
	<node lat="60.383061107479875" lon="8.935363894912678" id="-21385">
		<tag k="name" v="Dusetjønne" />
		<tag k="natural" v="water" />
		<tag k="ssr:stedsnr" v="127392" />
	</node>
	<node lat="60.38472777804184" lon="8.949508339916065" id="-21386">
		<tag k="alt_name" v="Kursetseter" />
		<tag k="historic" v="shieling" />
		<tag k="name" v="Kurset" />
		<tag k="place" v="isolated_dwelling" />
		<tag k="ssr:stedsnr" v="127393" />
	</node>
	<node lat="60.29456179233861" lon="8.63922195660454" id="-21388">
		<tag k="name" v="Holmetjønnan" />
		<tag k="natural" v="water" />
		<tag k="ssr:stedsnr" v="127507" />
		<tag k="water" v="lake" />
	</node>
	<node lat="60.3049555577341" lon="8.933880563977132" id="-21389">
		<tag k="name" v="Stornatten" />
		<tag k="natural" v="hill" />
		<tag k="place" v="locality" />
		<tag k="ssr:stedsnr" v="127511" />
	</node>
	<node lat="60.30550555485669" lon="9.060130546594541" id="-21390">
		<tag k="name" v="Holotjønn" />
		<tag k="natural" v="water" />
		<tag k="ssr:stedsnr" v="127515" />
	</node>
	<node lat="60.30897778111241" lon="9.026388883703333" id="-21391">
		<tag k="name" v="Åmottjønne" />
		<tag k="natural" v="water" />
		<tag k="ssr:stedsnr" v="127516" />
	</node>
	<node lat="60.28959999988739" lon="9.140558333597108" id="-21392">
		<tag k="name" v="Fuglenattjønne" />
		<tag k="natural" v="water" />
		<tag k="ssr:stedsnr" v="127519" />
	</node>
	<node lat="60.26221111343397" lon="8.630199994850175" id="-21393">
		<tag k="loc_name" v="Runningan" />
		<tag k="name" v="Rudningan" />
		<tag k="place" v="farm" />
		<tag k="ssr:stedsnr" v="127544" />
	</node>
	<node lat="60.290074996036694" lon="8.978113887943366" id="-21394">
		<tag k="loc_name" v="Raunefløte" />
		<tag k="name" v="Nordre Land" />
		<tag k="place" v="isolated_dwelling" />
		<tag k="ssr:stedsnr" v="127546" />
	</node>
	<node lat="60.28406635830391" lon="8.95375661828101" id="-21395">
		<tag k="fixme" v="multiple name tags, choose one and add the other to alt_name" />
		<tag k="historic" v="shieling" />
		<tag k="name" v="Nåmestølen;Løyteplass" />
		<tag k="place" v="isolated_dwelling" />
		<tag k="ssr:stedsnr" v="127547" />
	</node>
	<node lat="60.243825001131505" lon="8.588197216691443" id="-21396">
		<tag k="historic" v="shieling" />
		<tag k="name" v="Glopphovdstulen" />
		<tag k="place" v="isolated_dwelling" />
		<tag k="ssr:stedsnr" v="161574" />
	</node>
	<node lat="60.26113889262939" lon="8.591702770829349" id="-21397">
		<tag k="alt_name" v="Mellem Imingen" />
		<tag k="name" v="Mellom-Imingen" />
		<tag k="place" v="farm" />
		<tag k="ssr:stedsnr" v="161575" />
	</node>
	<node lat="60.25911944133266" lon="8.805713894975925" id="-21398">
		<tag k="name" v="Karlsnes" />
		<tag k="place" v="locality" />
		<tag k="ssr:stedsnr" v="161600" />
	</node>
	<node lat="60.25497500075442" lon="8.98243888765683" id="-21399">
		<tag k="name" v="Kallekåset" />
		<tag k="place" v="farm" />
		<tag k="ssr:stedsnr" v="161919" />
	</node>
	<node lat="60.30845833716913" lon="8.638563879907764" id="-21400">
		<tag k="fixme" v="consider natural=peak for the most distinct mountains in the district" />
		<tag k="name" v="Røyslandshøgde" />
		<tag k="natural" v="hill" />
		<tag k="place" v="locality" />
		<tag k="ssr:stedsnr" v="161899" />
	</node>
	<node lat="60.13886944699163" lon="9.000377774251875" id="-21401">
		<tag k="name" v="Storåsen" />
		<tag k="natural" v="ridge" />
		<tag k="place" v="locality" />
		<tag k="ssr:stedsnr" v="163024" />
	</node>
	<node lat="60.26875555520014" lon="8.76238333233854" id="-21402">
		<tag k="bridge" v="yes" />
		<tag k="layer" v="1" />
		<tag k="name" v="Grønneflåta Søndre" />
		<tag k="ssr:stedsnr" v="168574" />
	</node>
	<node lat="60.36506389124487" lon="8.946105557251599" id="-21403">
		<tag k="alt_name" v="Aliseter" />
		<tag k="historic" v="shieling" />
		<tag k="loc_name" v="Alislie" />
		<tag k="name" v="Alislien" />
		<tag k="old_name" v="Aslislien" />
		<tag k="place" v="isolated_dwelling" />
		<tag k="ssr:stedsnr" v="177368" />
	</node>
	<node lat="60.22761944894666" lon="9.008827784571826" id="-21404">
		<tag k="name" v="Øvrefjorden" />
		<tag k="natural" v="water" />
		<tag k="ssr:stedsnr" v="178443" />
	</node>
	<node lat="60.320033337207384" lon="8.939424992311618" id="-21405">
		<tag k="name" v="Brubakken" />
		<tag k="place" v="isolated_dwelling" />
		<tag k="ssr:stedsnr" v="180002" />
	</node>
	<node lat="60.306188891107155" lon="8.969780549181557" id="-21406">
		<tag k="name" v="Nordre Trondrud" />
		<tag k="place" v="farm" />
		<tag k="ssr:stedsnr" v="180004" />
	</node>
	<node lat="60.317038885385365" lon="8.50156389152" id="-21407">
		<tag k="name" v="Nordre Flåta" />
		<tag k="place" v="farm" />
		<tag k="ssr:stedsnr" v="180856" />
	</node>
	<node lat="60.29929444864983" lon="9.11108610809398" id="-21408">
		<tag k="historic" v="shieling" />
		<tag k="name" v="Krosstjørnhaugen" />
		<tag k="place" v="isolated_dwelling" />
		<tag k="ssr:stedsnr" v="180864" />
	</node>
	<node lat="60.124708329066145" lon="9.055841658357595" id="-21409">
		<tag k="alt_name" v="Søre Kåsin" />
		<tag k="loc_name" v="Søre Køsin" />
		<tag k="name" v="Søre Kosin" />
		<tag k="place" v="farm" />
		<tag k="ssr:stedsnr" v="186602" />
	</node>
	<node lat="60.16946388696641" lon="8.993108325297053" id="-21410">
		<tag k="alt_name" v="Noretjønn" />
		<tag k="loc_name" v="Noreåstjønne" />
		<tag k="name" v="Noreåstjønn" />
		<tag k="natural" v="water" />
		<tag k="ssr:stedsnr" v="186614" />
	</node>
	<node lat="60.17362777896707" lon="8.98284166139192" id="-21411">
		<tag k="name" v="Brenna" />
		<tag k="place" v="isolated_dwelling" />
		<tag k="ssr:stedsnr" v="186616" />
	</node>
	<node lat="60.15761388670119" lon="7.8529611107925055" id="-21412">
		<tag k="name" v="Vegarhovdlægret" />
		<tag k="place" v="locality" />
		<tag k="ssr:stedsnr" v="186628" />
	</node>
	<node lat="60.22416388713925" lon="7.92026943551171" id="-21413">
		<tag k="name" v="Geitvassdalen" />
		<tag k="natural" v="valley" />
		<tag k="place" v="locality" />
		<tag k="ssr:stedsnr" v="186692" />
	</node>
	<node lat="60.2234055517061" lon="7.903611114631319" id="-21414">
		<tag k="name" v="Tjuvhyttjønne" />
		<tag k="natural" v="water" />
		<tag k="ssr:stedsnr" v="186693" />
	</node>
	<node lat="60.099841666666435" lon="9.027324993144564" id="-21415">
		<tag k="historic" v="shieling" />
		<tag k="loc_name" v="Nord-Myransetre" />
		<tag k="name" v="Nørdre Myransetre" />
		<tag k="place" v="isolated_dwelling" />
		<tag k="ssr:stedsnr" v="186576" />
	</node>
	<node lat="60.115269447959555" lon="9.030997221500224" id="-21416">
		<tag k="historic" v="shieling" />
		<tag k="name" v="Bjørndalen" />
		<tag k="place" v="isolated_dwelling" />
		<tag k="ssr:stedsnr" v="186597" />
	</node>
	<node lat="60.23922222378877" lon="9.143730561178458" id="-21417">
		<tag k="name" v="Hestehovtjønnan" />
		<tag k="natural" v="water" />
		<tag k="ssr:stedsnr" v="186982" />
		<tag k="water" v="lake" />
	</node>
	<node lat="60.23697222284077" lon="9.047605564321056" id="-21418">
		<tag k="name" v="Nordre Øktedalen" />
		<tag k="place" v="farm" />
		<tag k="ssr:stedsnr" v="186999" />
	</node>
	<node lat="60.22049167044864" lon="8.930600004216032" id="-21419">
		<tag k="alt_name" v="Rosetvatn" />
		<tag k="name" v="Rosetvatnet" />
		<tag k="natural" v="water" />
		<tag k="ssr:stedsnr" v="186875" />
	</node>
	<node lat="60.22170832947514" lon="8.968586105889635" id="-21420">
		<tag k="historic" v="shieling" />
		<tag k="loc_name" v="Nysetre" />
		<tag k="name" v="Nyseter" />
		<tag k="place" v="isolated_dwelling" />
		<tag k="ssr:stedsnr" v="186893" />
	</node>
	<node lat="60.219669440316416" lon="8.947172231094326" id="-21421">
		<tag k="name" v="Rosetåe" />
		<tag k="ssr:stedsnr" v="186895" />
		<tag k="waterway" v="stream" />
	</node>
	<node lat="60.14718611052296" lon="9.117230551334604" id="-21422">
		<tag k="historic" v="shieling" />
		<tag k="name" v="Smettbak" />
		<tag k="place" v="isolated_dwelling" />
		<tag k="ssr:stedsnr" v="187483" />
	</node>
	<node lat="60.1388361075588" lon="9.09536667077223" id="-21423">
		<tag k="name" v="Kverndalstjønne" />
		<tag k="natural" v="water" />
		<tag k="ssr:stedsnr" v="187484" />
	</node>
	<node lat="60.204076788505844" lon="7.725613967290852" id="-21424">
		<tag k="name" v="Torjustjønnan" />
		<tag k="natural" v="water" />
		<tag k="ssr:stedsnr" v="187678" />
		<tag k="water" v="lake" />
	</node>
	<node lat="60.213263996536924" lon="7.702924974367136" id="-21425">
		<tag k="name" v="Lomavikan" />
		<tag k="natural" v="water" />
		<tag k="ssr:stedsnr" v="187685" />
		<tag k="water" v="lake" />
	</node>
	<node lat="60.37607500204176" lon="7.815097228182454" id="-21426">
		<tag k="fixme" v="consider natural=peak for the most distinct mountains in the district" />
		<tag k="name" v="Melrakkhovda" />
		<tag k="natural" v="hill" />
		<tag k="place" v="locality" />
		<tag k="ssr:stedsnr" v="187772" />
	</node>
	<node lat="60.20315277718077" lon="9.118786113085005" id="-21427">
		<tag k="name" v="Hektemogen" />
		<tag k="natural" v="valley" />
		<tag k="place" v="locality" />
		<tag k="ssr:stedsnr" v="187903" />
	</node>
	<node lat="60.20505075702089" lon="9.012847020272195" id="-21428">
		<tag k="alt_name" v="Midtstigen" />
		<tag k="fixme" v="consider place=hamlet" />
		<tag k="name" v="Midstigen" />
		<tag k="place" v="farm" />
		<tag k="ssr:stedsnr" v="187904" />
	</node>
	<node lat="60.19333333133942" lon="8.883694442545519" id="-21429">
		<tag k="alt_name" v="Breisetseter" />
		<tag k="loc_name" v="Breiset" />
		<tag k="name" v="Breidset" />
		<tag k="place" v="locality" />
		<tag k="ssr:stedsnr" v="187912" />
	</node>
	<node lat="60.23410000410028" lon="8.41618610746593" id="-21430">
		<tag k="name" v="Storrobekken" />
		<tag k="ssr:stedsnr" v="187926" />
		<tag k="waterway" v="stream" />
	</node>
	<node lat="60.29058333528739" lon="8.356650006755814" id="-21431">
		<tag k="name" v="Veneli" />
		<tag k="natural" v="slope" />
		<tag k="place" v="locality" />
		<tag k="ssr:stedsnr" v="188010" />
	</node>
	<node lat="60.275741663796374" lon="8.268675004664182" id="-21432">
		<tag k="name" v="Bollatjønnlægret" />
		<tag k="place" v="locality" />
		<tag k="ssr:stedsnr" v="188071" />
	</node>
	<node lat="60.27565833299788" lon="8.314944450809007" id="-21433">
		<tag k="name" v="Fiskeløkbekken" />
		<tag k="ssr:stedsnr" v="188076" />
		<tag k="waterway" v="stream" />
	</node>
	<node lat="60.45396110668037" lon="8.676922228799565" id="-21434">
		<tag k="name" v="Urdebekktjønne" />
		<tag k="natural" v="water" />
		<tag k="ssr:stedsnr" v="188084" />
	</node>
	<node lat="60.46239999747342" lon="8.749977777259657" id="-21435">
		<tag k="alt_name" v="Haga" />
		<tag k="name" v="Øvre Haga" />
		<tag k="place" v="farm" />
		<tag k="ssr:stedsnr" v="188093" />
	</node>
	<node lat="60.348465781480286" lon="8.285504985085662" id="-21436">
		<tag k="name" v="Ormetjønnan" />
		<tag k="natural" v="water" />
		<tag k="ssr:stedsnr" v="188226" />
		<tag k="water" v="lake" />
	</node>
	<node lat="60.27025833550161" lon="7.705286109605112" id="-21437">
		<tag k="fixme" v="consider natural=peak for the most distinct mountains in the district" />
		<tag k="name" v="Napparrjoet" />
		<tag k="natural" v="hill" />
		<tag k="place" v="locality" />
		<tag k="ssr:stedsnr" v="187977" />
	</node>
	<node lat="60.48344272099538" lon="8.81781114415492" id="-21438">
		<tag k="name" v="Buvatn" />
		<tag k="natural" v="water" />
		<tag k="ssr:stedsnr" v="188105" />
		<tag k="water" v="lake" />
	</node>
	<node lat="60.42622499731984" lon="8.73960000295236" id="-21439">
		<tag k="name" v="Slåttemyr" />
		<tag k="natural" v="wetland" />
		<tag k="ssr:stedsnr" v="188127" />
	</node>
	<node lat="60.259725001233505" lon="8.913480548273942" id="-21440">
		<tag k="alt_name" v="Rykansrud" />
		<tag k="loc_name" v="Rikansrud" />
		<tag k="name" v="Rykanrud" />
		<tag k="place" v="locality" />
		<tag k="ssr:stedsnr" v="188304" />
	</node>
	<node lat="60.25557500266464" lon="8.903688883278912" id="-21441">
		<tag k="name" v="Odden" />
		<tag k="place" v="farm" />
		<tag k="ssr:stedsnr" v="188305" />
	</node>
	<node lat="60.2585305513724" lon="8.886433333096976" id="-21442">
		<tag k="name" v="Fønnebøfjorden" />
		<tag k="natural" v="water" />
		<tag k="ssr:stedsnr" v="188308" />
		<tag k="water" v="lake" />
	</node>
	<node lat="60.33906389074684" lon="8.427955564552745" id="-21443">
		<tag k="alt_name" v="Langeløyteseter" />
		<tag k="historic" v="shieling" />
		<tag k="loc_name" v="Långeløyte" />
		<tag k="name" v="Langeløyte" />
		<tag k="place" v="isolated_dwelling" />
		<tag k="ssr:stedsnr" v="188269" />
	</node>
	<node lat="60.36003889025984" lon="8.994199999018251" id="-21444">
		<tag k="name" v="Grønlundselve" />
		<tag k="ssr:stedsnr" v="188419" />
		<tag k="waterway" v="river" />
	</node>
	<node lat="60.35427500126297" lon="9.0958027857703" id="-21445">
		<tag k="name" v="Vassimellom" />
		<tag k="natural" v="strait" />
		<tag k="ssr:stedsnr" v="188420" />
	</node>
	<node lat="60.356258332779845" lon="9.102480549778436" id="-21446">
		<tag k="name" v="Nordre Økteren" />
		<tag k="natural" v="water" />
		<tag k="ssr:stedsnr" v="188421" />
		<tag k="water" v="lake" />
	</node>
	<node lat="60.392197221282" lon="8.58409443576484" id="-21447">
		<tag k="alt_name" v="Bjørkebuseter" />
		<tag k="historic" v="shieling" />
		<tag k="loc_name" v="Bjørkebuin" />
		<tag k="name" v="Børkjebuin" />
		<tag k="place" v="isolated_dwelling" />
		<tag k="ssr:stedsnr" v="188426" />
	</node>
	<node lat="60.39435000219735" lon="8.76664999307561" id="-21448">
		<tag k="alt_name" v="Vaggehøvda" />
		<tag k="name" v="Vaggehovda" />
		<tag k="natural" v="hill" />
		<tag k="place" v="locality" />
		<tag k="ssr:stedsnr" v="188427" />
	</node>
	<node lat="60.359283332779086" lon="8.949874991220103" id="-21449">
		<tag k="historic" v="shieling" />
		<tag k="name" v="Langåsen" />
		<tag k="place" v="isolated_dwelling" />
		<tag k="ssr:stedsnr" v="188428" />
	</node>
	<node lat="60.33873888588385" lon="8.494902772703671" id="-21450">
		<tag k="name" v="Vasstulan Høyfjellsseter" />
		<tag k="old_name" v="Vasstulan" />
		<tag k="ssr:stedsnr" v="188469" />
		<tag k="tourism" v="hotel" />
	</node>
	<node lat="60.34614721993863" lon="8.785538895229179" id="-21451">
		<tag k="alt_name" v="Flødøkken" />
		<tag k="historic" v="shieling" />
		<tag k="name" v="Flødokki" />
		<tag k="place" v="isolated_dwelling" />
		<tag k="ssr:stedsnr" v="188470" />
	</node>
	<node lat="60.35236110780478" lon="8.745266665159974" id="-21452">
		<tag k="historic" v="shieling" />
		<tag k="name" v="Risdalen" />
		<tag k="place" v="isolated_dwelling" />
		<tag k="ssr:stedsnr" v="188471" />
	</node>
	<node lat="60.32078333557051" lon="9.002208327840636" id="-21453">
		<tag k="alt_name" v="Rykfosshaugen" />
		<tag k="loc_name" v="Rykkføsshaugan" />
		<tag k="name" v="Rykfosshaugan" />
		<tag k="natural" v="hill" />
		<tag k="place" v="locality" />
		<tag k="ssr:stedsnr" v="188480" />
	</node>
	<node lat="60.31318055897936" lon="8.47231944995493" id="-21454">
		<tag k="historic" v="shieling" />
		<tag k="name" v="Devegg" />
		<tag k="place" v="isolated_dwelling" />
		<tag k="ssr:stedsnr" v="188481" />
	</node>
	<node lat="60.32045277679479" lon="8.72635000677314" id="-21455">
		<tag k="name" v="Vasstølbekken" />
		<tag k="ssr:stedsnr" v="188485" />
		<tag k="waterway" v="stream" />
	</node>
	<node lat="60.31324166713168" lon="9.003077780575806" id="-21456">
		<tag k="name" v="Hølemyran" />
		<tag k="natural" v="wetland" />
		<tag k="ssr:stedsnr" v="188487" />
	</node>
	<node lat="60.281613890776164" lon="8.833225008737822" id="-21457">
		<tag k="name" v="Baklie" />
		<tag k="natural" v="slope" />
		<tag k="place" v="locality" />
		<tag k="ssr:stedsnr" v="188511" />
	</node>
	<node lat="60.277322220563846" lon="8.587433334561647" id="-21458">
		<tag k="alt_name" v="Søre Kveta" />
		<tag k="name" v="Søre Gveta" />
		<tag k="place" v="farm" />
		<tag k="ssr:stedsnr" v="188515" />
	</node>
	<node lat="60.279024999912004" lon="8.700725003148206" id="-21459">
		<tag k="alt_name" v="Gallakbekken" />
		<tag k="name" v="Gallåkbekken" />
		<tag k="ssr:stedsnr" v="188520" />
		<tag k="waterway" v="stream" />
	</node>
	<node lat="60.27863333264459" lon="8.801758334435366" id="-21460">
		<tag k="historic" v="shieling" />
		<tag k="name" v="Bakkesetre" />
		<tag k="place" v="isolated_dwelling" />
		<tag k="ssr:stedsnr" v="188524" />
	</node>
	<node lat="60.29657499819923" lon="9.010247225393575" id="-21461">
		<tag k="historic" v="shieling" />
		<tag k="name" v="Lauvåsen" />
		<tag k="place" v="isolated_dwelling" />
		<tag k="ssr:stedsnr" v="188528" />
	</node>
	<node lat="60.269547221537685" lon="8.026955555532265" id="-21462">
		<tag k="name" v="Slagsvollægret" />
		<tag k="place" v="locality" />
		<tag k="ssr:stedsnr" v="188809" />
	</node>
	<node lat="60.258361110864776" lon="7.696249998518517" id="-21463">
		<tag k="name" v="Midtstrandsdalen" />
		<tag k="natural" v="valley" />
		<tag k="place" v="locality" />
		<tag k="ssr:stedsnr" v="188986" />
	</node>
	<node lat="60.50187499863458" lon="8.568033340916646" id="-21464">
		<tag k="name" v="Søre Rotetjønne" />
		<tag k="natural" v="water" />
		<tag k="ssr:stedsnr" v="189174" />
	</node>
	<node lat="60.16457778188281" lon="9.010255563671132" id="-21465">
		<tag k="alt_name" v="Nore stavkirke" />
		<tag k="amenity" v="place_of_worship" />
		<tag k="denomination" v="lutheran" />
		<tag k="name" v="Nore stavkyrkje" />
		<tag k="religion" v="christian" />
		<tag k="ssr:stedsnr" v="267386" />
	</node>
	<node lat="60.08294961494196" lon="9.08143223092219" id="-21466">
		<tag k="alt_name" v="Nordre Koppargarden" />
		<tag k="name" v="Nordre Kopargarden" />
		<tag k="place" v="locality" />
		<tag k="ssr:stedsnr" v="222010" />
	</node>
	<node lat="60.08183055153556" lon="9.08880278464315" id="-21467">
		<tag k="alt_name" v="Søre Kobbergården" />
		<tag k="name" v="Søre Kopargarden" />
		<tag k="place" v="farm" />
		<tag k="ssr:stedsnr" v="222011" />
	</node>
	<node lat="60.192561109992596" lon="9.075000001148865" id="-21468">
		<tag k="name" v="Stevnemyran" />
		<tag k="natural" v="wetland" />
		<tag k="ssr:stedsnr" v="222107" />
	</node>
	<node lat="60.22298055653861" lon="8.827027786265548" id="-21469">
		<tag k="ford" v="yes" />
		<tag k="name" v="Deveggvadet" />
		<tag k="place" v="locality" />
		<tag k="ssr:stedsnr" v="222279" />
	</node>
	<node lat="60.26211666724933" lon="8.824994446291754" id="-21470">
		<tag k="name" v="Bjørkheim" />
		<tag k="place" v="farm" />
		<tag k="ssr:stedsnr" v="222524" />
	</node>
	<node lat="60.30043888775052" lon="8.76123056307228" id="-21471">
		<tag k="highway" v="path" />
		<tag k="name" v="Dagalisleppa" />
		<tag k="ssr:stedsnr" v="223906" />
	</node>
	<node lat="60.30218322732565" lon="8.550843745582108" id="-21472">
		<tag k="name" v="Rønnegvammen" />
		<tag k="place" v="hamlet" />
		<tag k="ssr:stedsnr" v="234383" />
	</node>
	<node lat="60.26918889185716" lon="8.803774998686725" id="-21473">
		<tag k="name" v="Nordre Grøtjorden" />
		<tag k="place" v="farm" />
		<tag k="ssr:stedsnr" v="239089" />
	</node>
	<node lat="60.268244440423345" lon="8.807738891818557" id="-21474">
		<tag k="name" v="Søre Grøtjorden" />
		<tag k="place" v="farm" />
		<tag k="ssr:stedsnr" v="239090" />
	</node>
	<node lat="60.27049444885364" lon="8.73713610368586" id="-21475">
		<tag k="name" v="Nordre Tufto" />
		<tag k="place" v="farm" />
		<tag k="ssr:stedsnr" v="239129" />
	</node>
	<node lat="60.27078888718966" lon="8.740966667175414" id="-21476">
		<tag k="name" v="Søre Tufto" />
		<tag k="place" v="farm" />
		<tag k="ssr:stedsnr" v="239130" />
	</node>
	<node lat="60.27361111110135" lon="8.743330550505584" id="-21477">
		<tag k="name" v="Beltesbrekke" />
		<tag k="place" v="farm" />
		<tag k="ssr:stedsnr" v="239131" />
	</node>
	<node lat="60.30935832926533" lon="8.969686102938159" id="-21478">
		<tag k="name" v="Søre Hørjusgard" />
		<tag k="place" v="farm" />
		<tag k="ssr:stedsnr" v="241036" />
	</node>
	<node lat="60.09429429929394" lon="9.026743600327071" id="-21479">
		<tag k="historic" v="shieling" />
		<tag k="name" v="Søre Myransetre" />
		<tag k="place" v="isolated_dwelling" />
		<tag k="ssr:stedsnr" v="247507" />
	</node>
	<node lat="60.23970000383158" lon="8.254450005709385" id="-21480">
		<tag k="name" v="Synhovd" />
		<tag k="natural" v="hill" />
		<tag k="place" v="locality" />
		<tag k="ssr:stedsnr" v="247513" />
	</node>
	<node lat="60.18524166940177" lon="7.829136105705957" id="-21481">
		<tag k="name" v="Melrakktjønne" />
		<tag k="natural" v="water" />
		<tag k="ssr:stedsnr" v="247566" />
	</node>
	<node lat="60.18518888866781" lon="8.972308340147896" id="-21482">
		<tag k="alt_name" v="Nedre Kurverud" />
		<tag k="historic" v="shieling" />
		<tag k="name" v="Nedre Kurverudseter" />
		<tag k="place" v="isolated_dwelling" />
		<tag k="ssr:stedsnr" v="247568" />
	</node>
	<node lat="60.14823055561944" lon="9.047566659065836" id="-21483">
		<tag k="alt_name" v="Pønteseter" />
		<tag k="historic" v="shieling" />
		<tag k="loc_name" v="Pynte;Pønte" />
		<tag k="name" v="Pyntestulen" />
		<tag k="place" v="isolated_dwelling" />
		<tag k="ssr:stedsnr" v="247575" />
	</node>
	<node lat="60.146621966471244" lon="9.024624386116523" id="-21484">
		<tag k="alt_name" v="Strømmen" />
		<tag k="fixme" v="consider place=hamlet" />
		<tag k="name" v="Straumen" />
		<tag k="place" v="farm" />
		<tag k="ssr:stedsnr" v="247577" />
	</node>
	<node lat="60.08770555361714" lon="9.094800004147393" id="-21485">
		<tag k="name" v="Søre Skaget" />
		<tag k="place" v="farm" />
		<tag k="ssr:stedsnr" v="247666" />
	</node>
	<node lat="60.24339444257752" lon="8.649249992828333" id="-21486">
		<tag k="alt_name" v="Sedalshøgda" />
		<tag k="fixme" v="consider natural=peak for the most distinct mountains in the district" />
		<tag k="name" v="Sedalshovda" />
		<tag k="natural" v="hill" />
		<tag k="place" v="locality" />
		<tag k="ssr:stedsnr" v="247813" />
	</node>
	<node lat="60.22321861829598" lon="8.505617685289065" id="-21487">
		<tag k="name" v="Mevatn" />
		<tag k="natural" v="water" />
		<tag k="ssr:stedsnr" v="247824" />
	</node>
	<node lat="60.20880000198343" lon="9.0338250068697" id="-21488">
		<tag k="name" v="Brekka" />
		<tag k="place" v="isolated_dwelling" />
		<tag k="ssr:stedsnr" v="247915" />
	</node>
	<node lat="60.188900001580095" lon="8.104638880516942" id="-21489">
		<tag k="name" v="Kosadalsåe" />
		<tag k="ssr:stedsnr" v="247959" />
		<tag k="waterway" v="stream" />
	</node>
	<node lat="60.173292048675016" lon="8.453437698955595" id="-21490">
		<tag k="name" v="Store Gryttjønne" />
		<tag k="natural" v="water" />
		<tag k="ssr:stedsnr" v="247970" />
	</node>
	<node lat="60.371011107655136" lon="8.395552776132192" id="-21491">
		<tag k="name" v="Syningtjønne" />
		<tag k="natural" v="water" />
		<tag k="ssr:stedsnr" v="248180" />
	</node>
	<node lat="60.403158336706014" lon="8.574761113246623" id="-21492">
		<tag k="alt_name" v="Rudaåsen" />
		<tag k="fixme" v="consider natural=peak for the most distinct mountains in the district" />
		<tag k="name" v="Ruaåsen" />
		<tag k="natural" v="hill" />
		<tag k="place" v="locality" />
		<tag k="ssr:stedsnr" v="248351" />
	</node>
	<node lat="60.368361112944775" lon="8.976666662071493" id="-21493">
		<tag k="alt_name" v="Ryggfjell" />
		<tag k="fixme" v="consider natural=peak for the most distinct mountains in the district" />
		<tag k="name" v="Ryggfjellet" />
		<tag k="natural" v="hill" />
		<tag k="place" v="locality" />
		<tag k="ssr:stedsnr" v="248358" />
	</node>
	<node lat="60.27542287409259" lon="8.796038010002853" id="-21494">
		<tag k="fixme" v="consider place=hamlet" />
		<tag k="name" v="Bringsrud" />
		<tag k="place" v="farm" />
		<tag k="ssr:stedsnr" v="248461" />
	</node>
	<node lat="60.27397790266622" lon="8.782458680241712" id="-21495">
		<tag k="fixme" v="consider place=hamlet" />
		<tag k="name" v="Guton" />
		<tag k="place" v="farm" />
		<tag k="ssr:stedsnr" v="248463" />
	</node>
	<node lat="60.29817500212329" lon="9.087680552079291" id="-21496">
		<tag k="name" v="Gauknatten" />
		<tag k="natural" v="hill" />
		<tag k="place" v="locality" />
		<tag k="ssr:stedsnr" v="248472" />
	</node>
	<node lat="60.33364999854604" lon="7.8876250068402" id="-21497">
		<tag k="name" v="Midtselstjønndalen" />
		<tag k="natural" v="valley" />
		<tag k="place" v="locality" />
		<tag k="ssr:stedsnr" v="248819" />
	</node>
	<node lat="60.3533472234108" lon="7.972474992139978" id="-21498">
		<tag k="name" v="Albrektsbekken" />
		<tag k="ssr:stedsnr" v="248824" />
		<tag k="waterway" v="stream" />
	</node>
	<node lat="60.25186666563389" lon="8.551277776883637" id="-21499">
		<tag k="name" v="Ræpeholberget" />
		<tag k="natural" v="hill" />
		<tag k="place" v="locality" />
		<tag k="ssr:stedsnr" v="249245" />
	</node>
	<node lat="60.261916666876" lon="8.765272228535139" id="-21500">
		<tag k="alt_name" v="Haugen" />
		<tag k="name" v="Ladehus" />
		<tag k="place" v="farm" />
		<tag k="ssr:stedsnr" v="249248" />
	</node>
	<node lat="60.272849997618074" lon="8.96093611597075" id="-21501">
		<tag k="loc_name" v="Rågrende" />
		<tag k="name" v="Rågrendi" />
		<tag k="old_name" v="Raagrend" />
		<tag k="place" v="hamlet" />
		<tag k="ssr:stedsnr" v="249249" />
	</node>
	<node lat="60.27524166274378" lon="8.991358326976272" id="-21502">
		<tag k="name" v="Øvre Ringputt" />
		<tag k="place" v="farm" />
		<tag k="ssr:stedsnr" v="249253" />
	</node>
	<node lat="60.26656489345073" lon="8.903168309870312" id="-21503">
		<tag k="fixme" v="consider place=hamlet" />
		<tag k="name" v="Hovda" />
		<tag k="place" v="farm" />
		<tag k="ssr:stedsnr" v="249258" />
	</node>
	<node lat="60.2683333375762" lon="9.12417499443333" id="-21504">
		<tag k="loc_name" v="Rovassbekken" />
		<tag k="name" v="Robekken" />
		<tag k="ssr:stedsnr" v="249260" />
		<tag k="waterway" v="stream" />
	</node>
	<node lat="60.32441133158482" lon="8.17793694182096" id="-21505">
		<tag k="name" v="Fagerskard" />
		<tag k="place" v="locality" />
		<tag k="ssr:stedsnr" v="249226" />
	</node>
	<node lat="60.269352781873735" lon="8.992969444470514" id="-21506">
		<tag k="historic" v="shieling" />
		<tag k="name" v="Lykkja" />
		<tag k="old_name" v="Borgstølen" />
		<tag k="place" v="isolated_dwelling" />
		<tag k="ssr:stedsnr" v="249266" />
	</node>
	<node lat="60.38385000329501" lon="8.884974993628076" id="-21507">
		<tag k="alt_name" v="Søre Jønnbubekken" />
		<tag k="name" v="Søre Jernbubekken" />
		<tag k="ssr:stedsnr" v="249350" />
		<tag k="waterway" v="stream" />
	</node>
	<node lat="60.118488888877025" lon="9.126813891748341" id="-21508">
		<tag k="historic" v="shieling" />
		<tag k="name" v="Øye" />
		<tag k="place" v="isolated_dwelling" />
		<tag k="ssr:stedsnr" v="282026" />
	</node>
	<node lat="60.14287499603145" lon="8.950338889283753" id="-21509">
		<tag k="name" v="Gløttbekken" />
		<tag k="ssr:stedsnr" v="282027" />
		<tag k="waterway" v="stream" />
	</node>
	<node lat="60.101658337360576" lon="9.05465278214584" id="-21510">
		<tag k="name" v="Sundsviki" />
		<tag k="natural" v="bay" />
		<tag k="ssr:stedsnr" v="283009" />
	</node>
	<node lat="60.12430277544113" lon="9.112636111515913" id="-21512">
		<tag k="name" v="Røytjønnan" />
		<tag k="natural" v="water" />
		<tag k="old_name" v="Røytjørnane" />
		<tag k="ssr:stedsnr" v="283512" />
		<tag k="water" v="lake" />
	</node>
	<node lat="60.30308645383247" lon="8.547709548337483" id="-21513">
		<tag k="fixme" v="consider place=hamlet" />
		<tag k="name" v="Nord-Rønnegvammen" />
		<tag k="place" v="farm" />
		<tag k="ssr:stedsnr" v="283907" />
	</node>
	<node lat="60.29429444049406" lon="8.562202784401988" id="-21514">
		<tag k="name" v="Søre Sønstebø" />
		<tag k="place" v="farm" />
		<tag k="ssr:stedsnr" v="283909" />
	</node>
	<node lat="60.295655553566114" lon="8.784438883974513" id="-21515">
		<tag k="name" v="Domstein" />
		<tag k="natural" v="stone" />
		<tag k="ssr:stedsnr" v="284904" />
	</node>
	<node lat="60.27136111493207" lon="8.760941665147161" id="-21516">
		<tag k="bridge" v="yes" />
		<tag k="layer" v="1" />
		<tag k="name" v="Rolfs øvre" />
		<tag k="ssr:stedsnr" v="289676" />
	</node>
	<node lat="60.38386666959258" lon="8.487086110969141" id="-21517">
		<tag k="bridge" v="yes" />
		<tag k="layer" v="1" />
		<tag k="name" v="Ånevass" />
		<tag k="ssr:stedsnr" v="289678" />
	</node>
	<node lat="60.447402774887124" lon="8.880613884767632" id="-21518">
		<tag k="name" v="Langedrag Naturpark" />
		<tag k="old_name" v="E.K.T. Langedrag Naturpark" />
		<tag k="ssr:stedsnr" v="294420" />
		<tag k="tourism" v="theme_park" />
	</node>
	<node lat="60.26888611196225" lon="8.805691666990123" id="-21519">
		<tag k="alt_name" v="Mellem Grøtjorden" />
		<tag k="name" v="Mellom-Grøtjorden" />
		<tag k="place" v="farm" />
		<tag k="ssr:stedsnr" v="300094" />
	</node>
	<node lat="60.3007222200198" lon="8.527811106709498" id="-21521">
		<tag k="name" v="Uvdal alpinsenter" />
		<tag k="place" v="neighbourhood" />
		<tag k="ssr:stedsnr" v="300882" />
	</node>
	<node lat="60.32344166763232" lon="8.99483889209501" id="-21522">
		<tag k="alt_name" v="Øvre Rykfosseter" />
		<tag k="historic" v="shieling" />
		<tag k="name" v="Øvre Rykfoss" />
		<tag k="place" v="isolated_dwelling" />
		<tag k="ssr:stedsnr" v="301205" />
	</node>
	<node lat="60.173225003549206" lon="9.000288884566844" id="-21523">
		<tag k="name" v="Bakkan" />
		<tag k="place" v="isolated_dwelling" />
		<tag k="ssr:stedsnr" v="302105" />
	</node>
	<node lat="60.26818611341163" lon="9.002313882779946" id="-21524">
		<tag k="name" v="Øvre Borge" />
		<tag k="place" v="farm" />
		<tag k="ssr:stedsnr" v="302692" />
	</node>
	<node lat="60.18198611465896" lon="8.988283330918996" id="-21525">
		<tag k="fixme" v="consider natural=peak for the most distinct mountains in the district" />
		<tag k="name" v="Tjuvenatten" />
		<tag k="natural" v="hill" />
		<tag k="place" v="locality" />
		<tag k="ssr:stedsnr" v="302698" />
	</node>
	<node lat="60.321783335393846" lon="8.507302781846219" id="-21526">
		<tag k="name" v="Nedre Flåtaplassen" />
		<tag k="place" v="locality" />
		<tag k="ssr:stedsnr" v="302835" />
	</node>
	<node lat="60.38960555582703" lon="8.503594447929835" id="-21527">
		<tag k="name" v="Hagaset" />
		<tag k="place" v="neighbourhood" />
		<tag k="ssr:stedsnr" v="464230" />
	</node>
	<node lat="60.25950277778887" lon="8.811241662218732" id="-21528">
		<tag k="name" v="Harangsdalen" />
		<tag k="place" v="locality" />
		<tag k="ssr:stedsnr" v="464615" />
	</node>
	<node lat="60.25989444642971" lon="8.94528333430464" id="-21529">
		<tag k="name" v="Ørneberget" />
		<tag k="natural" v="cliff" />
		<tag k="ssr:stedsnr" v="464589" />
	</node>
	<node lat="60.245287576111714" lon="8.969789773474657" id="-21530">
		<tag k="fixme" v="consider natural=peak for the most distinct mountains in the district" />
		<tag k="name" v="Nonsåsen" />
		<tag k="natural" v="hill" />
		<tag k="place" v="locality" />
		<tag k="ssr:stedsnr" v="464590" />
	</node>
	<node lat="60.243302777720004" lon="8.585116673257916" id="-21531">
		<tag k="junction" v="yes" />
		<tag k="name" v="Langlikrysset" />
		<tag k="place" v="locality" />
		<tag k="ssr:stedsnr" v="464599" />
	</node>
	<node lat="60.24019422699794" lon="9.034018380097965" id="-21532">
		<tag k="alt_name" v="Søretjørn" />
		<tag k="name" v="Søretjønn" />
		<tag k="natural" v="water" />
		<tag k="ssr:stedsnr" v="464930" />
	</node>
	<node lat="60.25342222025327" lon="8.976855563690565" id="-21533">
		<tag k="name" v="Sørli" />
		<tag k="place" v="farm" />
		<tag k="ssr:stedsnr" v="464932" />
	</node>
	<node lat="60.185944448494226" lon="8.970775008454874" id="-21534">
		<tag k="alt_name" v="Øvre Kurverud" />
		<tag k="historic" v="shieling" />
		<tag k="name" v="Øvre Kurverudseter" />
		<tag k="place" v="isolated_dwelling" />
		<tag k="ssr:stedsnr" v="307605" />
	</node>
	<node lat="60.19054942270617" lon="9.009193853891176" id="-21535">
		<tag k="fixme" v="consider place=hamlet" />
		<tag k="name" v="Svensrud" />
		<tag k="place" v="farm" />
		<tag k="ssr:stedsnr" v="307607" />
	</node>
	<node lat="60.178247219235516" lon="8.967805551367647" id="-21536">
		<tag k="historic" v="shieling" />
		<tag k="name" v="Fjosstulen" />
		<tag k="old_name" v="Ulbåsseter;Fjosstølen;Ulbåsstulen" />
		<tag k="place" v="isolated_dwelling" />
		<tag k="ssr:stedsnr" v="307597" />
	</node>
	<node lat="60.19177499735784" lon="8.04224999442681" id="-21537">
		<tag k="fixme" v="consider natural=peak for the most distinct mountains in the district" />
		<tag k="name" v="Falkenuten" />
		<tag k="natural" v="hill" />
		<tag k="place" v="locality" />
		<tag k="ssr:stedsnr" v="307600" />
	</node>
	<node lat="60.1904305529729" lon="7.680083329826292" id="-21538">
		<tag k="name" v="Kileurde" />
		<tag k="natural" v="scree" />
		<tag k="ssr:stedsnr" v="307702" />
	</node>
	<node lat="60.210294448478194" lon="8.147702781951159" id="-21539">
		<tag k="historic" v="shieling" />
		<tag k="name" v="Skjortesetre" />
		<tag k="place" v="locality" />
		<tag k="ssr:stedsnr" v="307945" />
	</node>
	<node lat="60.18248642030312" lon="8.462875416910371" id="-21540">
		<tag k="name" v="Gryttjønnleger" />
		<tag k="place" v="isolated_dwelling" />
		<tag k="ssr:stedsnr" v="307964" />
	</node>
	<node lat="60.21230473559589" lon="9.108646947766106" id="-21541">
		<tag k="fixme" v="consider natural=peak for the most distinct mountains in the district" />
		<tag k="name" v="Almeliåsen" />
		<tag k="natural" v="hill" />
		<tag k="place" v="locality" />
		<tag k="ssr:stedsnr" v="465631" />
	</node>
	<node lat="60.15526388701576" lon="9.116166670009443" id="-21542">
		<tag k="fixme" v="multiple name tags, choose one and add the other to alt_name" />
		<tag k="historic" v="shieling" />
		<tag k="loc_name" v="Smettbak" />
		<tag k="name" v="Øvre Smettbaken;Øvre Smettbakseter" />
		<tag k="place" v="isolated_dwelling" />
		<tag k="ssr:stedsnr" v="308493" />
	</node>
	<node lat="60.14695833575875" lon="9.131333329200157" id="-21543">
		<tag k="name" v="Gåsetjønnbekken" />
		<tag k="ssr:stedsnr" v="308494" />
		<tag k="waterway" v="stream" />
	</node>
	<node lat="60.09515278080758" lon="9.008911109218987" id="-21544">
		<tag k="name" v="Smylinatten" />
		<tag k="natural" v="hill" />
		<tag k="place" v="locality" />
		<tag k="ssr:stedsnr" v="308500" />
	</node>
	<node lat="60.21676666655652" lon="9.043774995685864" id="-21545">
		<tag k="name" v="Tusteberget" />
		<tag k="place" v="farm" />
		<tag k="ssr:stedsnr" v="308903" />
	</node>
	<node lat="60.21244444736068" lon="8.989569445581399" id="-21546">
		<tag k="name" v="Bakkemyre" />
		<tag k="natural" v="wetland" />
		<tag k="ssr:stedsnr" v="308907" />
	</node>
	<node lat="60.23380208741246" lon="8.984018333166718" id="-21547">
		<tag k="fixme" v="consider place=hamlet" />
		<tag k="name" v="Vedalen" />
		<tag k="place" v="farm" />
		<tag k="ssr:stedsnr" v="308993" />
	</node>
	<node lat="60.233837028608235" lon="9.027733775741325" id="-21548">
		<tag k="alt_name" v="Gravningsgard" />
		<tag k="fixme" v="consider place=hamlet" />
		<tag k="loc_name" v="Grammisgard" />
		<tag k="name" v="Gravningsgarden" />
		<tag k="place" v="farm" />
		<tag k="ssr:stedsnr" v="308996" />
	</node>
	<node lat="60.2192638924315" lon="8.81405278484172" id="-21549">
		<tag k="name" v="Raudtjønne" />
		<tag k="natural" v="water" />
		<tag k="ssr:stedsnr" v="308842" />
	</node>
	<node lat="60.22936388488257" lon="8.964255561484475" id="-21550">
		<tag k="alt_name" v="Myrsæt" />
		<tag k="historic" v="shieling" />
		<tag k="name" v="Myrset" />
		<tag k="place" v="isolated_dwelling" />
		<tag k="ssr:stedsnr" v="308887" />
	</node>
	<node lat="60.48257777652223" lon="8.753852778843314" id="-21551">
		<tag k="alt_name" v="Tunnsevatn" />
		<tag k="loc_name" v="Tunsevatnet" />
		<tag k="name" v="Tunsennvatnet" />
		<tag k="natural" v="water" />
		<tag k="ssr:stedsnr" v="309096" />
		<tag k="water" v="lake" />
	</node>
	<node lat="60.48711666889825" lon="8.733147222661097" id="-21552">
		<tag k="historic" v="shieling" />
		<tag k="name" v="Hyttestølen" />
		<tag k="place" v="isolated_dwelling" />
		<tag k="ssr:stedsnr" v="309097" />
	</node>
	<node lat="60.377744444758484" lon="9.019694438753916" id="-21553">
		<tag k="historic" v="shieling" />
		<tag k="loc_name" v="Børgegrammin" />
		<tag k="name" v="Borgelie" />
		<tag k="place" v="isolated_dwelling" />
		<tag k="ssr:stedsnr" v="309397" />
	</node>
	<node lat="60.3791805567279" lon="8.99887500790465" id="-21554">
		<tag k="name" v="Bergarlitjønn" />
		<tag k="natural" v="water" />
		<tag k="ssr:stedsnr" v="309401" />
	</node>
	<node lat="60.26820815611864" lon="8.596123660896748" id="-21555">
		<tag k="alt_name" v="Bjørkeflåta" />
		<tag k="fixme" v="consider place=hamlet" />
		<tag k="name" v="Børkjeflåta" />
		<tag k="place" v="farm" />
		<tag k="ssr:stedsnr" v="309513" />
	</node>
	<node lat="60.26154497614165" lon="8.594500909767874" id="-21556">
		<tag k="alt_name" v="Imingen" />
		<tag k="name" v="Imingan" />
		<tag k="place" v="hamlet" />
		<tag k="ssr:stedsnr" v="309533" />
	</node>
	<node lat="60.34262500204093" lon="8.991025006055235" id="-21557">
		<tag k="alt_name" v="Bjørstølfjell" />
		<tag k="fixme" v="consider natural=peak for the most distinct mountains in the district" />
		<tag k="loc_name" v="Bjorstulfjellet" />
		<tag k="name" v="Bjørstølfjellet" />
		<tag k="natural" v="hill" />
		<tag k="place" v="locality" />
		<tag k="ssr:stedsnr" v="309432" />
	</node>
	<node lat="60.362021364617085" lon="8.884383818607901" id="-21558">
		<tag k="name" v="Ræpevike" />
		<tag k="natural" v="bay" />
		<tag k="ssr:stedsnr" v="309435" />
	</node>
	<node lat="60.38665833753503" lon="8.520450008609227" id="-21559">
		<tag k="alt_name" v="Gudbrandsbekk" />
		<tag k="name" v="Gudbrandsbekken" />
		<tag k="ssr:stedsnr" v="309436" />
		<tag k="waterway" v="stream" />
	</node>
	<node lat="60.38107777857534" lon="8.631475004426257" id="-21560">
		<tag k="name" v="Bekkesetbekken" />
		<tag k="ssr:stedsnr" v="309438" />
		<tag k="waterway" v="stream" />
	</node>
	<node lat="60.343573383408774" lon="8.867210708148761" id="-21561">
		<tag k="historic" v="shieling" />
		<tag k="loc_name" v="Solheimsetre" />
		<tag k="name" v="Solemsetre" />
		<tag k="place" v="isolated_dwelling" />
		<tag k="ssr:stedsnr" v="309442" />
	</node>
	<node lat="60.37689999672777" lon="8.589997228096632" id="-21562">
		<tag k="alt_name" v="Bjørkebuvannet" />
		<tag k="name" v="Børkjevatnet" />
		<tag k="natural" v="water" />
		<tag k="ssr:stedsnr" v="309444" />
	</node>
	<node lat="60.32846944427153" lon="9.052277774049537" id="-21563">
		<tag k="name" v="Bruhaugen" />
		<tag k="natural" v="hill" />
		<tag k="place" v="locality" />
		<tag k="ssr:stedsnr" v="309449" />
	</node>
	<node lat="60.33140000086554" lon="9.07709445009546" id="-21564">
		<tag k="alt_name" v="Kupaseter" />
		<tag k="historic" v="shieling" />
		<tag k="name" v="Kupa" />
		<tag k="place" v="isolated_dwelling" />
		<tag k="ssr:stedsnr" v="309450" />
	</node>
	<node lat="60.32795555714802" lon="8.987766670377228" id="-21565">
		<tag k="historic" v="shieling" />
		<tag k="name" v="Margitstul" />
		<tag k="place" v="isolated_dwelling" />
		<tag k="ssr:stedsnr" v="309452" />
	</node>
	<node lat="60.331530555130854" lon="9.017022215185063" id="-21566">
		<tag k="name" v="Elvestrand" />
		<tag k="old_name" v="Elvastrand" />
		<tag k="place" v="isolated_dwelling" />
		<tag k="ssr:stedsnr" v="309453" />
	</node>
	<node lat="60.35277500365912" lon="8.719222215518819" id="-21567">
		<tag k="alt_name" v="Dauvedalen" />
		<tag k="historic" v="shieling" />
		<tag k="name" v="Daudedalen" />
		<tag k="place" v="isolated_dwelling" />
		<tag k="ssr:stedsnr" v="309456" />
	</node>
	<node lat="60.32846388940295" lon="8.964725001304405" id="-21568">
		<tag k="historic" v="shieling" />
		<tag k="name" v="Tjønnset" />
		<tag k="place" v="isolated_dwelling" />
		<tag k="ssr:stedsnr" v="309457" />
	</node>
	<node lat="60.33324571300543" lon="8.615861980777526" id="-21569">
		<tag k="alt_name" v="Prestdalsvatn" />
		<tag k="name" v="Prestdalsvatnet" />
		<tag k="natural" v="water" />
		<tag k="old_name" v="S. PræstKj" />
		<tag k="ssr:stedsnr" v="309458" />
		<tag k="water" v="lake" />
	</node>
	<node lat="60.32621389163497" lon="8.504061106449239" id="-21570">
		<tag k="alt_name" v="Juvsbekken" />
		<tag k="name" v="Gjuvsbekken" />
		<tag k="ssr:stedsnr" v="309465" />
		<tag k="waterway" v="stream" />
	</node>
	<node lat="60.329049999242045" lon="8.839250000582442" id="-21571">
		<tag k="name" v="Skållitjønne" />
		<tag k="natural" v="water" />
		<tag k="ssr:stedsnr" v="309471" />
	</node>
	<node lat="60.317005555918875" lon="9.040149995522397" id="-21572">
		<tag k="name" v="Endreskard" />
		<tag k="natural" v="valley" />
		<tag k="place" v="locality" />
		<tag k="ssr:stedsnr" v="309472" />
	</node>
	<node lat="60.31466254395206" lon="8.520866750361309" id="-21573">
		<tag k="fixme" v="consider place=hamlet" />
		<tag k="name" v="Sjugerud" />
		<tag k="place" v="farm" />
		<tag k="ssr:stedsnr" v="309475" />
	</node>
	<node lat="60.31914679885065" lon="8.95105567156309" id="-21574">
		<tag k="name" v="Loftsgarden" />
		<tag k="old_name" v="Loftsgaarden;Loftsgd" />
		<tag k="place" v="hamlet" />
		<tag k="ssr:stedsnr" v="309476" />
	</node>
	<node lat="60.310496250751676" lon="8.532560437519333" id="-21575">
		<tag k="fixme" v="consider place=hamlet" />
		<tag k="name" v="Gjermundrud" />
		<tag k="place" v="farm" />
		<tag k="ssr:stedsnr" v="309477" />
	</node>
	<node lat="60.371150003681485" lon="7.90759999160146" id="-21576">
		<tag k="fixme" v="consider natural=peak for the most distinct mountains in the district" />
		<tag k="name" v="Heinbunuten" />
		<tag k="natural" v="hill" />
		<tag k="place" v="locality" />
		<tag k="ssr:stedsnr" v="309782" />
	</node>
	<node lat="60.37947499913118" lon="7.972624998726253" id="-21577">
		<tag k="fixme" v="consider natural=peak for the most distinct mountains in the district" />
		<tag k="name" v="Grasnuten" />
		<tag k="natural" v="hill" />
		<tag k="place" v="locality" />
		<tag k="ssr:stedsnr" v="309791" />
	</node>
	<node lat="60.28286111552947" lon="8.3368361192027" id="-21578">
		<tag k="name" v="Krukeåe" />
		<tag k="ssr:stedsnr" v="310002" />
		<tag k="waterway" v="stream" />
	</node>
	<node lat="60.29451111516098" lon="8.158305553960407" id="-21579">
		<tag k="fixme" v="consider natural=peak for the most distinct mountains in the district" />
		<tag k="name" v="Ulvelinuten" />
		<tag k="natural" v="hill" />
		<tag k="place" v="locality" />
		<tag k="ssr:stedsnr" v="310012" />
	</node>
	<node lat="60.4219277802228" lon="8.741427781202276" id="-21580">
		<tag k="name" v="Farhølbekken" />
		<tag k="ssr:stedsnr" v="310090" />
		<tag k="waterway" v="stream" />
	</node>
	<node lat="60.50556110894504" lon="8.573444449332909" id="-21581">
		<tag k="historic" v="shieling" />
		<tag k="name" v="Sundshovda" />
		<tag k="place" v="isolated_dwelling" />
		<tag k="ssr:stedsnr" v="310178" />
	</node>
	<node lat="60.260733333634285" lon="8.882341666678848" id="-21582">
		<tag k="name" v="Persgardjordet" />
		<tag k="place" v="isolated_dwelling" />
		<tag k="ssr:stedsnr" v="310281" />
	</node>
	<node lat="60.30263610696179" lon="8.869733329608055" id="-21583">
		<tag k="historic" v="shieling" />
		<tag k="name" v="Nysetre" />
		<tag k="place" v="isolated_dwelling" />
		<tag k="ssr:stedsnr" v="310479" />
	</node>
	<node lat="60.28280833628422" lon="8.885536114713553" id="-21584">
		<tag k="name" v="Kvernerud" />
		<tag k="place" v="farm" />
		<tag k="ssr:stedsnr" v="466418" />
	</node>
	<node lat="60.284616667319774" lon="8.880700003513333" id="-21585">
		<tag k="name" v="Vikhaugen" />
		<tag k="place" v="farm" />
		<tag k="ssr:stedsnr" v="466898" />
	</node>
	<node lat="60.326055555448505" lon="8.386841658449669" id="-21586">
		<tag k="fixme" v="consider natural=peak for the most distinct mountains in the district" />
		<tag k="name" v="Falkeberget" />
		<tag k="natural" v="hill" />
		<tag k="place" v="locality" />
		<tag k="ssr:stedsnr" v="323024" />
	</node>
	<node lat="60.191325002068524" lon="9.010963892422224" id="-21587">
		<tag k="name" v="Dølen" />
		<tag k="place" v="isolated_dwelling" />
		<tag k="ssr:stedsnr" v="343106" />
	</node>
	<node lat="60.17936666811543" lon="9.004219450271151" id="-21588">
		<tag k="historic" v="shieling" />
		<tag k="name" v="Haugan" />
		<tag k="place" v="isolated_dwelling" />
		<tag k="ssr:stedsnr" v="343109" />
	</node>
	<node lat="60.268430552174465" lon="8.720236111590031" id="-21589">
		<tag k="name" v="Solstad" />
		<tag k="place" v="isolated_dwelling" />
		<tag k="ssr:stedsnr" v="345764" />
	</node>
	<node lat="60.16871666692029" lon="9.013563893451433" id="-21590">
		<tag k="bridge" v="yes" />
		<tag k="layer" v="1" />
		<tag k="name" v="Norefjord" />
		<tag k="ssr:stedsnr" v="349657" />
	</node>
	<node lat="60.26962221881921" lon="8.839163885270223" id="-21591">
		<tag k="name" v="Kjørren" />
		<tag k="place" v="farm" />
		<tag k="ssr:stedsnr" v="360052" />
	</node>
	<node lat="60.19780000202227" lon="9.00977500263154" id="-21592">
		<tag k="name" v="Rundberg" />
		<tag k="place" v="locality" />
		<tag k="ssr:stedsnr" v="360302" />
	</node>
	<node lat="60.370452775279226" lon="8.808858327949421" id="-21593">
		<tag k="name" v="Ryltestein" />
		<tag k="natural" v="stone" />
		<tag k="ssr:stedsnr" v="360327" />
	</node>
	<node lat="59.49672500301199" lon="9.926219438829566" id="-21595">
		<tag k="alt_name" v="Numedalslågen" />
		<tag k="name" v="Lågen" />
		<tag k="ssr:stedsnr" v="366578" />
		<tag k="waterway" v="river" />
	</node>
	<node lat="60.10578888665164" lon="9.022733330755258" id="-21596">
		<tag k="alt_name" v="Fallet seter" />
		<tag k="historic" v="shieling" />
		<tag k="loc_name" v="Falle" />
		<tag k="name" v="Fallet" />
		<tag k="place" v="isolated_dwelling" />
		<tag k="ssr:stedsnr" v="368569" />
	</node>
	<node lat="60.114727780605755" lon="9.115283335658614" id="-21597">
		<tag k="fixme" v="consider natural=peak for the most distinct mountains in the district" />
		<tag k="name" v="Piggtjønnåsen" />
		<tag k="natural" v="hill" />
		<tag k="place" v="locality" />
		<tag k="ssr:stedsnr" v="368578" />
	</node>
	<node lat="60.181163892207444" lon="8.96068334116975" id="-21598">
		<tag k="historic" v="shieling" />
		<tag k="name" v="Svåstulen" />
		<tag k="old_name" v="Svaastølen" />
		<tag k="place" v="isolated_dwelling" />
		<tag k="ssr:stedsnr" v="368618" />
	</node>
	<node lat="60.18997500090176" lon="7.960736119041088" id="-21599">
		<tag k="name" v="Eidsjøen" />
		<tag k="natural" v="water" />
		<tag k="ssr:stedsnr" v="368622" />
		<tag k="water" v="lake" />
	</node>
	<node lat="60.20083610743338" lon="7.731849991548986" id="-21600">
		<tag k="fixme" v="consider natural=peak for the most distinct mountains in the district" />
		<tag k="name" v="Torjusnuten" />
		<tag k="natural" v="hill" />
		<tag k="place" v="locality" />
		<tag k="ssr:stedsnr" v="368627" />
	</node>
	<node lat="60.230299996165215" lon="9.043305548081811" id="-21601">
		<tag k="name" v="Søre Øktedalen" />
		<tag k="place" v="farm" />
		<tag k="ssr:stedsnr" v="368893" />
	</node>
	<node lat="60.36938610674963" lon="8.330275000363105" id="-21602">
		<tag k="name" v="Sessebråten" />
		<tag k="natural" v="hill" />
		<tag k="place" v="locality" />
		<tag k="ssr:stedsnr" v="369180" />
	</node>
	<node lat="60.247520613109046" lon="8.442888479327896" id="-21603">
		<tag k="name" v="Styggetjønnan" />
		<tag k="natural" v="water" />
		<tag k="ssr:stedsnr" v="369474" />
		<tag k="water" v="lake" />
	</node>
	<node lat="60.23202609288856" lon="7.671120933012977" id="-21604">
		<tag k="name" v="Nilsbu" />
		<tag k="place" v="isolated_dwelling" />
		<tag k="ssr:stedsnr" v="369671" />
	</node>
	<node lat="60.24881389326377" lon="8.593174997913993" id="-21605">
		<tag k="alt_name" v="Hegnun" />
		<tag k="name" v="Fjellheim" />
		<tag k="place" v="farm" />
		<tag k="ssr:stedsnr" v="369809" />
	</node>
	<node lat="60.27749999627289" lon="7.977897215481944" id="-21606">
		<tag k="fixme" v="consider natural=peak for the most distinct mountains in the district" />
		<tag k="name" v="Dagfiskenutan" />
		<tag k="natural" v="hill" />
		<tag k="place" v="locality" />
		<tag k="ssr:stedsnr" v="369764" />
	</node>
	<node lat="60.27519999678083" lon="7.984130547350721" id="-21607">
		<tag k="name" v="Dagfiskehyttun" />
		<tag k="place" v="isolated_dwelling" />
		<tag k="ssr:stedsnr" v="369766" />
	</node>
	<node lat="60.28381111553063" lon="8.41264445035282" id="-21608">
		<tag k="fixme" v="consider natural=peak for the most distinct mountains in the district" />
		<tag k="name" v="Salhovde" />
		<tag k="natural" v="hill" />
		<tag k="place" v="locality" />
		<tag k="ssr:stedsnr" v="370001" />
	</node>
	<node lat="60.477625001149164" lon="8.666224996592213" id="-21609">
		<tag k="name" v="Hallgrimstjønne" />
		<tag k="natural" v="water" />
		<tag k="ssr:stedsnr" v="370102" />
	</node>
	<node lat="60.28850555944624" lon="8.202102779531959" id="-21610">
		<tag k="name" v="Bakketjønn" />
		<tag k="natural" v="water" />
		<tag k="ssr:stedsnr" v="370007" />
	</node>
	<node lat="60.29150832921126" lon="8.385588889443314" id="-21611">
		<tag k="fixme" v="consider natural=peak for the most distinct mountains in the district" />
		<tag k="loc_name" v="Snofonnskardkultan" />
		<tag k="name" v="Snøfonnskardnutan" />
		<tag k="natural" v="hill" />
		<tag k="place" v="locality" />
		<tag k="ssr:stedsnr" v="370010" />
	</node>
	<node lat="60.297594447917206" lon="8.199455547722394" id="-21612">
		<tag k="name" v="Bakkebu" />
		<tag k="place" v="isolated_dwelling" />
		<tag k="ssr:stedsnr" v="370017" />
	</node>
	<node lat="60.28826388585461" lon="8.272808342229476" id="-21613">
		<tag k="name" v="Hestehallene" />
		<tag k="natural" v="valley" />
		<tag k="place" v="locality" />
		<tag k="ssr:stedsnr" v="370019" />
	</node>
	<node lat="60.306955557547504" lon="8.409405553994771" id="-21614">
		<tag k="alt_name" v="Roi" />
		<tag k="name" v="Roe" />
		<tag k="place" v="isolated_dwelling" />
		<tag k="ssr:stedsnr" v="370026" />
	</node>
	<node lat="60.30111666361065" lon="8.35132221420011" id="-21615">
		<tag k="name" v="Solheimstøltjønne" />
		<tag k="natural" v="water" />
		<tag k="ssr:stedsnr" v="370030" />
	</node>
	<node lat="60.3047527802968" lon="8.188024991938383" id="-21616">
		<tag k="name" v="Ulvelitangen" />
		<tag k="natural" v="cape" />
		<tag k="ssr:stedsnr" v="370033" />
	</node>
	<node lat="60.31566944061692" lon="8.44876389630428" id="-21617">
		<tag k="name" v="Staupet" />
		<tag k="place" v="farm" />
		<tag k="ssr:stedsnr" v="370038" />
	</node>
	<node lat="60.249836107002935" lon="8.346013886281627" id="-21618">
		<tag k="name" v="Tyrhovdnuten" />
		<tag k="natural" v="hill" />
		<tag k="place" v="locality" />
		<tag k="ssr:stedsnr" v="370052" />
	</node>
	<node lat="60.269719443993615" lon="8.434352783835381" id="-21619">
		<tag k="loc_name" v="Roe" />
		<tag k="name" v="Roi" />
		<tag k="place" v="locality" />
		<tag k="ssr:stedsnr" v="370067" />
	</node>
	<node lat="60.25268888801703" lon="8.114788882765533" id="-21620">
		<tag k="fixme" v="consider natural=peak for the most distinct mountains in the district" />
		<tag k="name" v="Skrykkjevarden" />
		<tag k="natural" v="hill" />
		<tag k="place" v="locality" />
		<tag k="ssr:stedsnr" v="370070" />
	</node>
	<node lat="60.27603333176426" lon="8.39817499489467" id="-21621">
		<tag k="fixme" v="consider natural=peak for the most distinct mountains in the district" />
		<tag k="loc_name" v="Skjennuten" />
		<tag k="name" v="Skinnuten" />
		<tag k="natural" v="hill" />
		<tag k="place" v="locality" />
		<tag k="ssr:stedsnr" v="370071" />
	</node>
	<node lat="60.2630849326394" lon="8.309100588692381" id="-21622">
		<tag k="historic" v="shieling" />
		<tag k="name" v="Nye Langetjønnsetre" />
		<tag k="place" v="isolated_dwelling" />
		<tag k="ssr:stedsnr" v="370078" />
	</node>
	<node lat="60.4610872938827" lon="8.770037814338501" id="-21623">
		<tag k="fixme" v="consider place=hamlet" />
		<tag k="name" v="Megarden" />
		<tag k="place" v="farm" />
		<tag k="ssr:stedsnr" v="370084" />
	</node>
	<node lat="60.45783055702417" lon="8.73833333174568" id="-21624">
		<tag k="name" v="Rødungselve" />
		<tag k="ssr:stedsnr" v="370085" />
		<tag k="waterway" v="river" />
	</node>
	<node lat="60.27471355150551" lon="9.014839481323127" id="-21625">
		<tag k="fixme" v="consider place=hamlet" />
		<tag k="name" v="Øygarden" />
		<tag k="old_name" v="Øygd" />
		<tag k="place" v="farm" />
		<tag k="ssr:stedsnr" v="370308" />
	</node>
	<node lat="60.27974999562668" lon="9.005850005680589" id="-21626">
		<tag k="name" v="Ligarden" />
		<tag k="place" v="farm" />
		<tag k="ssr:stedsnr" v="370313" />
	</node>
	<node lat="60.27806666740823" lon="9.165324993458928" id="-21627">
		<tag k="name" v="Kalvetjønnan" />
		<tag k="natural" v="water" />
		<tag k="ssr:stedsnr" v="370320" />
		<tag k="water" v="lake" />
	</node>
	<node lat="60.26870000211778" lon="8.966650008222256" id="-21628">
		<tag k="alt_name" v="Midtjordet" />
		<tag k="fixme" v="consider place=hamlet" />
		<tag k="name" v="Mejordet" />
		<tag k="place" v="farm" />
		<tag k="ssr:stedsnr" v="370327" />
	</node>
	<node lat="60.24950064240908" lon="9.034718619367863" id="-21629">
		<tag k="name" v="Nordtjønne" />
		<tag k="natural" v="water" />
		<tag k="ssr:stedsnr" v="370362" />
	</node>
	<node lat="60.31908580217245" lon="8.447748654059815" id="-21630">
		<tag k="name" v="Hytta" />
		<tag k="place" v="locality" />
		<tag k="ssr:stedsnr" v="370264" />
	</node>
	<node lat="60.308463889445925" lon="8.175355560086347" id="-21631">
		<tag k="name" v="Ryggbupollen" />
		<tag k="natural" v="bay" />
		<tag k="ssr:stedsnr" v="370269" />
	</node>
	<node lat="60.339005552912" lon="8.322002782661757" id="-21632">
		<tag k="name" v="Hallene" />
		<tag k="place" v="locality" />
		<tag k="ssr:stedsnr" v="370281" />
	</node>
	<node lat="60.33429999632365" lon="8.094158329877557" id="-21633">
		<tag k="name" v="Jensebu" />
		<tag k="place" v="isolated_dwelling" />
		<tag k="ssr:stedsnr" v="370283" />
	</node>
	<node lat="60.331116662248164" lon="8.26513611244954" id="-21634">
		<tag k="name" v="Tøddøltjønne" />
		<tag k="natural" v="water" />
		<tag k="ssr:stedsnr" v="370289" />
	</node>
	<node lat="60.33055848857529" lon="8.212107722305921" id="-21635">
		<tag k="fixme" v="consider natural=peak for the most distinct mountains in the district" />
		<tag k="name" v="Ræpeholåsen" />
		<tag k="natural" v="hill" />
		<tag k="place" v="locality" />
		<tag k="ssr:stedsnr" v="370291" />
	</node>
	<node lat="60.363647224388686" lon="9.007886116938142" id="-21636">
		<tag k="historic" v="shieling" />
		<tag k="loc_name" v="Maritjønn" />
		<tag k="name" v="Maritjønnstølen" />
		<tag k="place" v="isolated_dwelling" />
		<tag k="ssr:stedsnr" v="370414" />
	</node>
	<node lat="60.3768749981545" lon="9.112083333274283" id="-21637">
		<tag k="name" v="Langelie" />
		<tag k="natural" v="slope" />
		<tag k="place" v="locality" />
		<tag k="ssr:stedsnr" v="370420" />
	</node>
	<node lat="60.37926389292454" lon="8.897647229881228" id="-21638">
		<tag k="name" v="Søre Jernbutjønne" />
		<tag k="natural" v="water" />
		<tag k="ssr:stedsnr" v="370422" />
	</node>
	<node lat="60.32760000360784" lon="8.664824991345418" id="-21639">
		<tag k="name" v="Åndetjønn" />
		<tag k="natural" v="water" />
		<tag k="ssr:stedsnr" v="370472" />
	</node>
	<node lat="60.31914999613386" lon="8.932730557169352" id="-21640">
		<tag k="name" v="Tunhovddammen" />
		<tag k="ssr:stedsnr" v="370476" />
		<tag k="waterway" v="dam" />
	</node>
	<node lat="60.310413884476894" lon="8.77174721931426" id="-21641">
		<tag k="name" v="Grånåsettjønnan" />
		<tag k="natural" v="water" />
		<tag k="ssr:stedsnr" v="370485" />
		<tag k="water" v="lake" />
	</node>
	<node lat="60.27837777533479" lon="8.586624999498692" id="-21643">
		<tag k="alt_name" v="Nordre Kveta" />
		<tag k="name" v="Nordre Gveta" />
		<tag k="place" v="farm" />
		<tag k="ssr:stedsnr" v="370513" />
	</node>
	<node lat="60.273761109608266" lon="8.617861117909698" id="-21644">
		<tag k="alt_name" v="Tandbergberget" />
		<tag k="loc_name" v="Tønnbergsberget" />
		<tag k="name" v="Tonnbergsberget" />
		<tag k="natural" v="hill" />
		<tag k="place" v="locality" />
		<tag k="ssr:stedsnr" v="370514" />
	</node>
	<node lat="60.5022416622902" lon="8.649480562890714" id="-21645">
		<tag k="name" v="Rødungen" />
		<tag k="place" v="neighbourhood" />
		<tag k="ssr:stedsnr" v="480813" />
	</node>
	<node lat="60.142213892958345" lon="8.957991659061992" id="-21646">
		<tag k="alt_name" v="Skirvdalen" />
		<tag k="name" v="Skriudalen" />
		<tag k="natural" v="valley" />
		<tag k="place" v="locality" />
		<tag k="ssr:stedsnr" v="378777" />
	</node>
	<node lat="60.25194166862374" lon="8.948169453113488" id="-21647">
		<tag k="alt_name" v="Kleivstull" />
		<tag k="historic" v="shieling" />
		<tag k="name" v="Nedre Kleivstul" />
		<tag k="place" v="isolated_dwelling" />
		<tag k="ssr:stedsnr" v="481587" />
	</node>
	<node lat="60.267232540256394" lon="8.858673946779687" id="-21648">
		<tag k="fixme" v="consider place=hamlet" />
		<tag k="name" v="Ljotegard" />
		<tag k="place" v="farm" />
		<tag k="ssr:stedsnr" v="481933" />
	</node>
	<node lat="60.265488888600736" lon="8.80357777258037" id="-21649">
		<tag k="name" v="Hagen" />
		<tag k="place" v="farm" />
		<tag k="ssr:stedsnr" v="482145" />
	</node>
	<node lat="60.3425444401157" lon="8.896847225165919" id="-21650">
		<tag k="name" v="Bergevikje" />
		<tag k="natural" v="bay" />
		<tag k="ssr:stedsnr" v="482178" />
	</node>
	<node lat="60.23664722386027" lon="8.897072224009879" id="-21651">
		<tag k="name" v="Kringletjønn" />
		<tag k="natural" v="water" />
		<tag k="ssr:stedsnr" v="482330" />
	</node>
	<node lat="60.23166388899084" lon="8.938850006321266" id="-21652">
		<tag k="landuse" v="quarry" />
		<tag k="name" v="Brynebrudd" />
		<tag k="ssr:stedsnr" v="482334" />
	</node>
	<node lat="60.27533333031859" lon="9.006744440752078" id="-21653">
		<tag k="name" v="Nordre Bekkeset" />
		<tag k="place" v="farm" />
		<tag k="ssr:stedsnr" v="482644" />
	</node>
	<node lat="60.320622226589656" lon="8.948930559966783" id="-21655">
		<tag k="alt_name" v="Nordre Loftsgard" />
		<tag k="name" v="Nørdre Loftsgarden" />
		<tag k="place" v="farm" />
		<tag k="ssr:stedsnr" v="483004" />
	</node>
	<node lat="60.31804722505595" lon="8.95670000221513" id="-21656">
		<tag k="name" v="Nordre Skarpås" />
		<tag k="place" v="farm" />
		<tag k="ssr:stedsnr" v="483042" />
	</node>
	<node lat="60.181949995659046" lon="8.72293611137658" id="-21657">
		<tag k="fixme" v="consider natural=peak for the most distinct mountains in the district" />
		<tag k="name" v="Gråvårantan" />
		<tag k="natural" v="hill" />
		<tag k="place" v="locality" />
		<tag k="ssr:stedsnr" v="392298" />
	</node>
	<node lat="60.30704166540303" lon="8.530108330279937" id="-21658">
		<tag k="name" v="Søre Myran" />
		<tag k="place" v="farm" />
		<tag k="ssr:stedsnr" v="484847" />
	</node>
	<node lat="60.14724077140905" lon="9.011377941315935" id="-21659">
		<tag k="fixme" v="consider place=hamlet" />
		<tag k="name" v="Frygne" />
		<tag k="place" v="farm" />
		<tag k="ssr:stedsnr" v="400277" />
	</node>
	<node lat="60.32730555298432" lon="8.921069453232882" id="-21660">
		<tag k="alt_name" v="Dyrbu;Dyrebusetre" />
		<tag k="historic" v="shieling" />
		<tag k="name" v="Dyrebu" />
		<tag k="place" v="isolated_dwelling" />
		<tag k="ssr:stedsnr" v="402012" />
	</node>
	<node lat="60.099622218283564" lon="9.067397216001114" id="-21661">
		<tag k="name" v="Åsly" />
		<tag k="place" v="isolated_dwelling" />
		<tag k="ssr:stedsnr" v="404015" />
	</node>
	<node lat="60.19418889195289" lon="9.071377774805102" id="-21663">
		<tag k="fixme" v="consider natural=peak for the most distinct mountains in the district" />
		<tag k="name" v="Stevnemyråsen" />
		<tag k="natural" v="hill" />
		<tag k="place" v="locality" />
		<tag k="ssr:stedsnr" v="404124" />
	</node>
	<node lat="60.21553611335872" lon="8.814111116631153" id="-21664">
		<tag k="name" v="Ålykkjemyrane" />
		<tag k="natural" v="wetland" />
		<tag k="ssr:stedsnr" v="404324" />
	</node>
	<node lat="60.258180555006824" lon="8.910086112553381" id="-21665">
		<tag k="name" v="Fønset" />
		<tag k="place" v="locality" />
		<tag k="ssr:stedsnr" v="404575" />
	</node>
	<node lat="60.245783336328884" lon="8.987355552186507" id="-21666">
		<tag k="name" v="Gampedalen" />
		<tag k="natural" v="valley" />
		<tag k="place" v="locality" />
		<tag k="ssr:stedsnr" v="404579" />
	</node>
	<node lat="60.30145947519951" lon="8.549506419696808" id="-21667">
		<tag k="fixme" v="consider place=hamlet" />
		<tag k="name" v="Søre Rønnegvammen" />
		<tag k="place" v="farm" />
		<tag k="ssr:stedsnr" v="404903" />
	</node>
	<node lat="60.31969903328755" lon="8.497597005057639" id="-21668">
		<tag k="alt_name" v="Søre Nørstebø" />
		<tag k="fixme" v="consider place=hamlet" />
		<tag k="name" v="Søre Nørdstebø" />
		<tag k="place" v="farm" />
		<tag k="ssr:stedsnr" v="412546" />
	</node>
	<node lat="60.17308888923918" lon="7.751849998025379" id="-21669">
		<tag k="fixme" v="consider natural=peak for the most distinct mountains in the district" />
		<tag k="name" v="Nottaren" />
		<tag k="natural" v="hill" />
		<tag k="place" v="locality" />
		<tag k="ssr:stedsnr" v="489612" />
	</node>
	<node lat="60.18191874598616" lon="7.760735342993148" id="-21670">
		<tag k="name" v="Nottartjønne" />
		<tag k="natural" v="water" />
		<tag k="ssr:stedsnr" v="489615" />
	</node>
	<node lat="60.26576388602405" lon="8.787997228742132" id="-21671">
		<tag k="name" v="Løvheim" />
		<tag k="place" v="farm" />
		<tag k="ssr:stedsnr" v="416106" />
	</node>
	<node lat="60.35117777743421" lon="8.998188889476523" id="-21673">
		<tag k="name" v="Heslibekken" />
		<tag k="ssr:stedsnr" v="421148" />
		<tag k="waterway" v="stream" />
	</node>
	<node lat="60.1531749986712" lon="8.847688881156168" id="-21674">
		<tag k="alt_name" v="Store Synhovd" />
		<tag k="fixme" v="consider natural=peak for the most distinct mountains in the district" />
		<tag k="loc_name" v="Storesynhovd" />
		<tag k="name" v="Store Synhovda" />
		<tag k="natural" v="hill" />
		<tag k="place" v="locality" />
		<tag k="ssr:stedsnr" v="421604" />
	</node>
	<node lat="60.26494444166428" lon="8.766369436281014" id="-21675">
		<tag k="name" v="Søre Bjørnsrudslåtta" />
		<tag k="place" v="farm" />
		<tag k="ssr:stedsnr" v="422114" />
	</node>
	<node lat="60.26609167055781" lon="8.815286119995173" id="-21676">
		<tag k="alt_name" v="Mellem Kyllesdal" />
		<tag k="name" v="Mellom-Kyllesdal" />
		<tag k="place" v="farm" />
		<tag k="ssr:stedsnr" v="422147" />
	</node>
	<node lat="60.31177499609069" lon="8.968163883483381" id="-21677">
		<tag k="name" v="Nord-Hørjusgard" />
		<tag k="place" v="farm" />
		<tag k="ssr:stedsnr" v="423048" />
	</node>
	<node lat="60.244526907556825" lon="9.002123829695831" id="-21678">
		<tag k="fixme" v="consider place=hamlet" />
		<tag k="name" v="Gvammen" />
		<tag k="place" v="farm" />
		<tag k="ssr:stedsnr" v="423150" />
	</node>
	<node lat="60.2683530928597" lon="8.850204462719438" id="-21679">
		<tag k="fixme" v="consider place=hamlet" />
		<tag k="loc_name" v="Vesleåsen" />
		<tag k="name" v="Lilleåsen" />
		<tag k="place" v="farm" />
		<tag k="ssr:stedsnr" v="423302" />
	</node>
	<node lat="60.17112500147109" lon="7.667755552950382" id="-21680">
		<tag k="name" v="Bjornesfjorden" />
		<tag k="natural" v="water" />
		<tag k="ssr:stedsnr" v="489757" />
		<tag k="water" v="lake" />
	</node>
	<node lat="60.17986667020894" lon="7.649658326062525" id="-21681">
		<tag k="loc_name" v="Vikaholmen" />
		<tag k="name" v="Dronningholmen" />
		<tag k="place" v="island" />
		<tag k="ssr:stedsnr" v="489731" />
	</node>
	<node lat="60.2229694426523" lon="8.341074999780519" id="-21682">
		<tag k="fixme" v="consider natural=peak for the most distinct mountains in the district" />
		<tag k="name" v="Søre Afdalsnuten" />
		<tag k="natural" v="hill" />
		<tag k="place" v="locality" />
		<tag k="ssr:stedsnr" v="489955" />
	</node>
	<node lat="60.20533055735282" lon="8.241991662186127" id="-21683">
		<tag k="name" v="Søre Holstadtjønne" />
		<tag k="natural" v="water" />
		<tag k="ssr:stedsnr" v="489963" />
	</node>
	<node lat="60.244266662476925" lon="7.6100833285752" id="-21684">
		<tag k="fixme" v="consider natural=peak for the most distinct mountains in the district" />
		<tag k="name" v="Kleivshovd" />
		<tag k="natural" v="hill" />
		<tag k="place" v="locality" />
		<tag k="ssr:stedsnr" v="490256" />
	</node>
	<node lat="60.15840000207657" lon="9.204638890685176" id="-21685">
		<tag k="alt_name" v="Lauvåstjønn" />
		<tag k="name" v="Lauvåstjønne" />
		<tag k="natural" v="water" />
		<tag k="ssr:stedsnr" v="490577" />
	</node>
	<node lat="60.491897225635114" lon="8.522341673611816" id="-21686">
		<tag k="name" v="Skogstad" />
		<tag k="place" v="farm" />
		<tag k="ssr:stedsnr" v="491040" />
	</node>
	<node lat="60.48816389264084" lon="8.512180549163082" id="-21687">
		<tag k="name" v="Grefsgarddokken" />
		<tag k="old_name" v="Grevskardokken" />
		<tag k="place" v="farm" />
		<tag k="ssr:stedsnr" v="491044" />
	</node>
	<node lat="60.116002780518265" lon="7.764549998513276" id="-21688">
		<tag k="fixme" v="consider natural=peak for the most distinct mountains in the district" />
		<tag k="name" v="Sørtjønnhovda" />
		<tag k="natural" v="hill" />
		<tag k="place" v="locality" />
		<tag k="ssr:stedsnr" v="490548" />
	</node>
	<node lat="60.16841103862232" lon="7.797678606510625" id="-21689">
		<tag k="name" v="Øvre Skjerhøltjønn" />
		<tag k="natural" v="water" />
		<tag k="ssr:stedsnr" v="490567" />
	</node>
	<node lat="60.08320832990777" lon="9.06126944816609" id="-21690">
		<tag k="historic" v="shieling" />
		<tag k="loc_name" v="Juverud" />
		<tag k="name" v="Gjuverud" />
		<tag k="place" v="isolated_dwelling" />
		<tag k="ssr:stedsnr" v="490699" />
	</node>
	<node lat="60.0733916648407" lon="9.092113891287944" id="-21691">
		<tag k="fixme" v="consider natural=peak for the most distinct mountains in the district" />
		<tag k="name" v="Skavlemåsen" />
		<tag k="natural" v="hill" />
		<tag k="place" v="locality" />
		<tag k="ssr:stedsnr" v="490701" />
	</node>
	<node lat="60.0993555530546" lon="9.067102769191347" id="-21692">
		<tag k="name" v="Åsly" />
		<tag k="place" v="isolated_dwelling" />
		<tag k="ssr:stedsnr" v="490705" />
	</node>
	<node lat="60.15172499810771" lon="7.585386112127087" id="-21693">
		<tag k="ford" v="yes" />
		<tag k="name" v="Riavad" />
		<tag k="place" v="locality" />
		<tag k="ssr:stedsnr" v="490761" />
	</node>
	<node lat="60.23900277428351" lon="8.634227783744057" id="-21694">
		<tag k="alt_name" v="Sedalsseter" />
		<tag k="historic" v="shieling" />
		<tag k="name" v="Sedalen" />
		<tag k="place" v="isolated_dwelling" />
		<tag k="ssr:stedsnr" v="490849" />
	</node>
	<node lat="60.23598055368302" lon="8.632499999142834" id="-21695">
		<tag k="name" v="Sedalsbekken" />
		<tag k="ssr:stedsnr" v="490852" />
		<tag k="waterway" v="stream" />
	</node>
	<node lat="60.154150000898106" lon="7.823291670962868" id="-21696">
		<tag k="fixme" v="consider natural=peak for the most distinct mountains in the district" />
		<tag k="name" v="Vegarhovda" />
		<tag k="natural" v="hill" />
		<tag k="place" v="locality" />
		<tag k="ssr:stedsnr" v="429554" />
	</node>
	<node lat="60.18288333083595" lon="9.086424994720483" id="-21697">
		<tag k="alt_name" v="Langevatn" />
		<tag k="name" v="Langevatnet" />
		<tag k="natural" v="water" />
		<tag k="ssr:stedsnr" v="429559" />
		<tag k="water" v="lake" />
	</node>
	<node lat="60.18523333045766" lon="9.11603611297469" id="-21698">
		<tag k="alt_name" v="Verjeset;Vergjestulen" />
		<tag k="historic" v="shieling" />
		<tag k="name" v="Vergjeset" />
		<tag k="place" v="isolated_dwelling" />
		<tag k="ssr:stedsnr" v="429560" />
	</node>
	<node lat="60.18170555749963" lon="8.925780563954854" id="-21699">
		<tag k="fixme" v="consider natural=peak for the most distinct mountains in the district" />
		<tag k="name" v="Krosstjønnhovdun" />
		<tag k="natural" v="hill" />
		<tag k="place" v="locality" />
		<tag k="ssr:stedsnr" v="429566" />
	</node>
	<node lat="60.1543583312326" lon="9.044516662470722" id="-21700">
		<tag k="historic" v="shieling" />
		<tag k="loc_name" v="Straumsheimsetre" />
		<tag k="name" v="Straumstulen" />
		<tag k="place" v="isolated_dwelling" />
		<tag k="ssr:stedsnr" v="429586" />
	</node>
	<node lat="60.14795555857726" lon="9.01256945175122" id="-21701">
		<tag k="alt_name" v="Mellem Frygne" />
		<tag k="name" v="Mellom-Frygne" />
		<tag k="place" v="farm" />
		<tag k="ssr:stedsnr" v="429590" />
	</node>
	<node lat="60.15218694007852" lon="8.867910137005348" id="-21702">
		<tag k="name" v="Storetjønnan" />
		<tag k="natural" v="water" />
		<tag k="ssr:stedsnr" v="429593" />
		<tag k="water" v="lake" />
	</node>
	<node lat="60.17302063264961" lon="8.99244811878802" id="-21703">
		<tag k="fixme" v="consider natural=peak for the most distinct mountains in the district" />
		<tag k="name" v="Noreåsen" />
		<tag k="natural" v="hill" />
		<tag k="old_name" v="Nordåsen" />
		<tag k="place" v="locality" />
		<tag k="ssr:stedsnr" v="429596" />
	</node>
	<node lat="60.212810348290574" lon="9.010891829596806" id="-21704">
		<tag k="fixme" v="consider place=hamlet" />
		<tag k="name" v="Kollandsrud" />
		<tag k="place" v="farm" />
		<tag k="ssr:stedsnr" v="490897" />
	</node>
	<node lat="60.20648674207136" lon="8.997375830692231" id="-21705">
		<tag k="fixme" v="consider place=hamlet" />
		<tag k="name" v="Bakke" />
		<tag k="place" v="farm" />
		<tag k="ssr:stedsnr" v="490899" />
	</node>
	<node lat="60.16250833307004" lon="8.905441669103727" id="-21706">
		<tag k="name" v="Feten" />
		<tag k="place" v="locality" />
		<tag k="ssr:stedsnr" v="429607" />
	</node>
	<node lat="60.178037356375704" lon="8.50079369690094" id="-21707">
		<tag k="name" v="Knutsfisktjønnan" />
		<tag k="natural" v="water" />
		<tag k="ssr:stedsnr" v="490859" />
		<tag k="water" v="lake" />
	</node>
	<node lat="60.2030777754989" lon="8.99146667467723" id="-21708">
		<tag k="name" v="Nedre Groven" />
		<tag k="place" v="farm" />
		<tag k="ssr:stedsnr" v="429909" />
	</node>
	<node lat="60.21169444455697" lon="9.141174997842505" id="-21709">
		<tag k="alt_name" v="Tranebekken" />
		<tag k="name" v="Tranbekken" />
		<tag k="ssr:stedsnr" v="429915" />
		<tag k="waterway" v="stream" />
	</node>
	<node lat="60.20716944141286" lon="9.00140277813798" id="-21710">
		<tag k="alt_name" v="Øvre Loftsgard" />
		<tag k="name" v="Øvre Loftsgarden" />
		<tag k="place" v="farm" />
		<tag k="ssr:stedsnr" v="429926" />
	</node>
	<node lat="60.2116277764293" lon="8.312233330250553" id="-21711">
		<tag k="fixme" v="consider natural=peak for the most distinct mountains in the district" />
		<tag k="name" v="Nordre Afdalsnuten" />
		<tag k="natural" v="hill" />
		<tag k="place" v="locality" />
		<tag k="ssr:stedsnr" v="429952" />
	</node>
	<node lat="60.21141111527547" lon="8.21898888996114" id="-21712">
		<tag k="name" v="Nordre Holstadtjønne" />
		<tag k="natural" v="water" />
		<tag k="ssr:stedsnr" v="429954" />
	</node>
	<node lat="60.19903055229233" lon="8.372255558202996" id="-21713">
		<tag k="name" v="Nutenuten" />
		<tag k="natural" v="hill" />
		<tag k="place" v="locality" />
		<tag k="ssr:stedsnr" v="429961" />
	</node>
	<node lat="60.204186107962144" lon="8.41790833375587" id="-21714">
		<tag k="name" v="Nuteflott" />
		<tag k="natural" v="hill" />
		<tag k="place" v="locality" />
		<tag k="ssr:stedsnr" v="429963" />
	</node>
	<node lat="60.18559166455577" lon="8.126905548779431" id="-21715">
		<tag k="name" v="Mårtjønne" />
		<tag k="natural" v="water" />
		<tag k="ssr:stedsnr" v="429970" />
	</node>
	<node lat="60.21298333615788" lon="9.081850004975907" id="-21716">
		<tag k="name" v="Langelitjønne" />
		<tag k="natural" v="water" />
		<tag k="ssr:stedsnr" v="429901" />
	</node>
	<node lat="60.23544665297262" lon="9.00271684053585" id="-21717">
		<tag k="fixme" v="consider place=hamlet" />
		<tag k="name" v="Vrenne" />
		<tag k="place" v="farm" />
		<tag k="ssr:stedsnr" v="490998" />
	</node>
	<node lat="60.44211388565151" lon="8.917202781196046" id="-21718">
		<tag k="name" v="Sundbulivatnet" />
		<tag k="natural" v="water" />
		<tag k="ssr:stedsnr" v="491319" />
		<tag k="water" v="lake" />
	</node>
	<node lat="60.27674721890389" lon="8.429133340657483" id="-21719">
		<tag k="fixme" v="consider natural=peak for the most distinct mountains in the district" />
		<tag k="name" v="Vardehovde" />
		<tag k="natural" v="hill" />
		<tag k="old_name" v="Vardehovd" />
		<tag k="place" v="locality" />
		<tag k="ssr:stedsnr" v="491060" />
	</node>
	<node lat="60.266170780142964" lon="8.324271898370009" id="-21720">
		<tag k="name" v="Langetjønne" />
		<tag k="natural" v="water" />
		<tag k="ssr:stedsnr" v="491061" />
		<tag k="water" v="lake" />
	</node>
	<node lat="60.179299998917315" lon="8.492977782769437" id="-21721">
		<tag k="loc_name" v="Knutsfisknuten" />
		<tag k="name" v="Knutfiskenuten" />
		<tag k="natural" v="hill" />
		<tag k="place" v="locality" />
		<tag k="ssr:stedsnr" v="430853" />
	</node>
	<node lat="60.31509444516682" lon="7.688758338646087" id="-21722">
		<tag k="fixme" v="consider natural=peak for the most distinct mountains in the district" />
		<tag k="name" v="Nibbenuten" />
		<tag k="natural" v="hill" />
		<tag k="place" v="locality" />
		<tag k="ssr:stedsnr" v="430896" />
	</node>
	<node lat="60.348002778654696" lon="7.966499998303293" id="-21723">
		<tag k="name" v="Kristofferhølen" />
		<tag k="place" v="locality" />
		<tag k="ssr:stedsnr" v="430795" />
	</node>
	<node lat="60.481855553331926" lon="8.687861117932975" id="-21724">
		<tag k="historic" v="shieling" />
		<tag k="name" v="Sørestøl" />
		<tag k="place" v="isolated_dwelling" />
		<tag k="ssr:stedsnr" v="431106" />
	</node>
	<node lat="60.418824999730475" lon="8.742652771576106" id="-21725">
		<tag k="name" v="Svartetjønn" />
		<tag k="natural" v="water" />
		<tag k="ssr:stedsnr" v="431116" />
	</node>
	<node lat="60.42798197880937" lon="8.582419007733947" id="-21726">
		<tag k="name" v="Nedre Svangtjønne" />
		<tag k="natural" v="water" />
		<tag k="ssr:stedsnr" v="431120" />
	</node>
	<node lat="60.25537222173849" lon="8.266166665637082" id="-21727">
		<tag k="fixme" v="consider natural=peak for the most distinct mountains in the district" />
		<tag k="name" v="Falkenuten" />
		<tag k="natural" v="hill" />
		<tag k="place" v="locality" />
		<tag k="ssr:stedsnr" v="431053" />
	</node>
	<node lat="60.355538892008354" lon="8.10915556369871" id="-21728">
		<tag k="fixme" v="consider natural=peak for the most distinct mountains in the district" />
		<tag k="name" v="Låglitunga" />
		<tag k="natural" v="hill" />
		<tag k="place" v="locality" />
		<tag k="ssr:stedsnr" v="431218" />
	</node>
	<node lat="60.35625000063462" lon="8.304047226928121" id="-21729">
		<tag k="name" v="Store Ormetjønne" />
		<tag k="natural" v="water" />
		<tag k="ssr:stedsnr" v="431223" />
		<tag k="water" v="lake" />
	</node>
	<node lat="60.31780833563944" lon="8.260113894989939" id="-21730">
		<tag k="name" v="Skarvsåe" />
		<tag k="ssr:stedsnr" v="431249" />
		<tag k="waterway" v="stream" />
	</node>
	<node lat="60.32448055331677" lon="8.423591662256664" id="-21731">
		<tag k="alt_name" v="Urhovdbekken" />
		<tag k="name" v="Urdhovdbekken" />
		<tag k="ssr:stedsnr" v="431253" />
		<tag k="waterway" v="stream" />
	</node>
	<node lat="60.31268888908805" lon="8.382894451532303" id="-21732">
		<tag k="name" v="Grønebakk" />
		<tag k="place" v="isolated_dwelling" />
		<tag k="ssr:stedsnr" v="431257" />
	</node>
	<node lat="60.263994448006734" lon="8.961072218301634" id="-21733">
		<tag k="alt_name" v="Søre Brugara" />
		<tag k="name" v="Søre Brugard" />
		<tag k="place" v="farm" />
		<tag k="ssr:stedsnr" v="431310" />
	</node>
	<node lat="60.36598611316161" lon="8.905330553365154" id="-21734">
		<tag k="fixme" v="consider natural=peak for the most distinct mountains in the district" />
		<tag k="name" v="Natten" />
		<tag k="natural" v="hill" />
		<tag k="place" v="locality" />
		<tag k="ssr:stedsnr" v="431398" />
	</node>
	<node lat="60.27676666745589" lon="8.523600002253694" id="-21735">
		<tag k="fixme" v="consider natural=peak for the most distinct mountains in the district" />
		<tag k="name" v="Nordnuten" />
		<tag k="natural" v="hill" />
		<tag k="place" v="locality" />
		<tag k="ssr:stedsnr" v="431510" />
	</node>
	<node lat="60.34618333457642" lon="8.387083340511417" id="-21736">
		<tag k="historic" v="shieling" />
		<tag k="name" v="Ormetjønnstølen" />
		<tag k="place" v="isolated_dwelling" />
		<tag k="ssr:stedsnr" v="491239" />
	</node>
	<node lat="60.337180557939675" lon="8.277155550831571" id="-21737">
		<tag k="historic" v="shieling" />
		<tag k="name" v="Rundhovda" />
		<tag k="place" v="isolated_dwelling" />
		<tag k="ssr:stedsnr" v="491240" />
	</node>
	<node lat="60.259622224915006" lon="8.783699995569807" id="-21738">
		<tag k="name" v="Grandokk" />
		<tag k="place" v="isolated_dwelling" />
		<tag k="ssr:stedsnr" v="431290" />
	</node>
	<node lat="60.26048611308715" lon="8.801222223426178" id="-21739">
		<tag k="name" v="Elvestad" />
		<tag k="place" v="farm" />
		<tag k="ssr:stedsnr" v="431292" />
	</node>
	<node lat="60.34504999944348" lon="8.866258330162474" id="-21740">
		<tag k="historic" v="shieling" />
		<tag k="name" v="Nordsetre" />
		<tag k="place" v="isolated_dwelling" />
		<tag k="ssr:stedsnr" v="431406" />
	</node>
	<node lat="60.39886388646709" lon="8.49895278494758" id="-21741">
		<tag k="fixme" v="consider natural=peak for the most distinct mountains in the district" />
		<tag k="name" v="Tallåsen" />
		<tag k="natural" v="hill" />
		<tag k="place" v="locality" />
		<tag k="ssr:stedsnr" v="431407" />
	</node>
	<node lat="60.41300833233667" lon="8.807636107194444" id="-21742">
		<tag k="alt_name" v="Fjølabuseter" />
		<tag k="historic" v="shieling" />
		<tag k="name" v="Fjølabu" />
		<tag k="place" v="isolated_dwelling" />
		<tag k="ssr:stedsnr" v="431408" />
	</node>
	<node lat="60.33440277660968" lon="8.911416661626964" id="-21743">
		<tag k="alt_name" v="Skigardstølen" />
		<tag k="historic" v="shieling" />
		<tag k="name" v="Skigardsetre" />
		<tag k="place" v="isolated_dwelling" />
		<tag k="ssr:stedsnr" v="431440" />
	</node>
	<node lat="60.35452500215315" lon="8.683575005645128" id="-21744">
		<tag k="alt_name" v="Søre Steinsetdalseter" />
		<tag k="historic" v="shieling" />
		<tag k="loc_name" v="Søre Steinsetdalen" />
		<tag k="name" v="Steinset" />
		<tag k="place" v="isolated_dwelling" />
		<tag k="ssr:stedsnr" v="431441" />
	</node>
	<node lat="60.335199999063796" lon="8.487077774808688" id="-21745">
		<tag k="fixme" v="consider natural=peak for the most distinct mountains in the district" />
		<tag k="name" v="Djupegrønuten" />
		<tag k="natural" v="hill" />
		<tag k="place" v="locality" />
		<tag k="ssr:stedsnr" v="431445" />
	</node>
	<node lat="60.3217504810833" lon="8.574333337019377" id="-21746">
		<tag k="fixme" v="consider natural=peak for the most distinct mountains in the district" />
		<tag k="name" v="Kringlehovda" />
		<tag k="natural" v="hill" />
		<tag k="place" v="locality" />
		<tag k="ssr:stedsnr" v="431450" />
	</node>
	<node lat="60.326081265986836" lon="9.12130231805639" id="-21747">
		<tag k="name" v="Fiskelausen" />
		<tag k="natural" v="water" />
		<tag k="ssr:stedsnr" v="431451" />
	</node>
	<node lat="60.31985614781644" lon="9.081354351208276" id="-21748">
		<tag k="alt_name" v="Krosstjørnan" />
		<tag k="name" v="Kroktjønnan" />
		<tag k="natural" v="water" />
		<tag k="ssr:stedsnr" v="431453" />
		<tag k="water" v="lake" />
	</node>
	<node lat="60.3195000026001" lon="9.103274991060223" id="-21749">
		<tag k="fixme" v="consider natural=peak for the most distinct mountains in the district" />
		<tag k="name" v="Stornatten" />
		<tag k="natural" v="hill" />
		<tag k="place" v="locality" />
		<tag k="ssr:stedsnr" v="431454" />
	</node>
	<node lat="60.30610277917008" lon="8.710322222037277" id="-21750">
		<tag k="loc_name" v="Rausjødalsbekken" />
		<tag k="name" v="Raudsjødalselve" />
		<tag k="ssr:stedsnr" v="431487" />
		<tag k="waterway" v="river" />
	</node>
	<node lat="60.29434999916411" lon="8.543999994849504" id="-21751">
		<tag k="name" v="Granheim" />
		<tag k="place" v="farm" />
		<tag k="ssr:stedsnr" v="431490" />
	</node>
	<node lat="60.30486388672167" lon="9.11867499711989" id="-21752">
		<tag k="fixme" v="consider natural=peak for the most distinct mountains in the district" />
		<tag k="name" v="Slokuåsen" />
		<tag k="natural" v="hill" />
		<tag k="place" v="locality" />
		<tag k="ssr:stedsnr" v="431491" />
	</node>
	<node lat="60.288302776918194" lon="8.533016667829317" id="-21753">
		<tag k="name" v="Uvdal" />
		<tag k="natural" v="valley" />
		<tag k="place" v="locality" />
		<tag k="ssr:stedsnr" v="431500" />
	</node>
	<node lat="60.28153055635032" lon="8.572111108224737" id="-21754">
		<tag k="fixme" v="multiple name tags, choose one and add the other to alt_name; consider place=hamlet" />
		<tag k="name" v="Øyen;Øylandet" />
		<tag k="place" v="farm" />
		<tag k="ssr:stedsnr" v="431501" />
	</node>
	<node lat="60.27628333165177" lon="8.901522218209886" id="-21755">
		<tag k="name" v="Vollan" />
		<tag k="place" v="farm" />
		<tag k="ssr:stedsnr" v="491254" />
	</node>
	<node lat="60.27707777523759" lon="9.135561104759145" id="-21756">
		<tag k="fixme" v="consider natural=peak for the most distinct mountains in the district" />
		<tag k="name" v="Haugefjellet" />
		<tag k="natural" v="hill" />
		<tag k="place" v="locality" />
		<tag k="ssr:stedsnr" v="491264" />
	</node>
	<node lat="60.26260681358539" lon="8.813582104260698" id="-21757">
		<tag k="name" v="Kyllesdal" />
		<tag k="place" v="hamlet" />
		<tag k="ssr:stedsnr" v="491269" />
	</node>
	<node lat="60.36413055227211" lon="8.682016663745822" id="-21758">
		<tag k="name" v="Deilestjønnan" />
		<tag k="natural" v="water" />
		<tag k="ssr:stedsnr" v="491422" />
		<tag k="water" v="lake" />
	</node>
	<node lat="60.366199996577876" lon="8.738822230807392" id="-21759">
		<tag k="alt_name" v="Veåsen" />
		<tag k="fixme" v="consider natural=peak for the most distinct mountains in the district" />
		<tag k="name" v="Vedåsen" />
		<tag k="natural" v="hill" />
		<tag k="place" v="locality" />
		<tag k="ssr:stedsnr" v="491424" />
	</node>
	<node lat="60.32860833230144" lon="8.848813880866839" id="-21760">
		<tag k="name" v="Skållie" />
		<tag k="natural" v="slope" />
		<tag k="place" v="locality" />
		<tag k="ssr:stedsnr" v="491432" />
	</node>
	<node lat="60.374800003585" lon="8.908377783709417" id="-21761">
		<tag k="name" v="Broketjønne" />
		<tag k="natural" v="water" />
		<tag k="ssr:stedsnr" v="491390" />
	</node>
	<node lat="60.39973611187495" lon="8.566458328545433" id="-21762">
		<tag k="name" v="Ruaåsen" />
		<tag k="place" v="isolated_dwelling" />
		<tag k="ssr:stedsnr" v="491401" />
	</node>
	<node lat="60.32226739182073" lon="8.936193077261134" id="-21763">
		<tag k="fixme" v="consider place=hamlet" />
		<tag k="name" v="Storli" />
		<tag k="old_name" v="Storlii" />
		<tag k="place" v="farm" />
		<tag k="ssr:stedsnr" v="491455" />
	</node>
	<node lat="60.29216944813741" lon="8.695522227070292" id="-21764">
		<tag k="fixme" v="consider natural=peak for the most distinct mountains in the district" />
		<tag k="name" v="Høghovda" />
		<tag k="natural" v="hill" />
		<tag k="place" v="locality" />
		<tag k="ssr:stedsnr" v="491473" />
	</node>
	<node lat="60.28164721882518" lon="8.529875007608368" id="-21765">
		<tag k="historic" v="shieling" />
		<tag k="name" v="Fjellsetre" />
		<tag k="place" v="isolated_dwelling" />
		<tag k="ssr:stedsnr" v="491474" />
	</node>
	<node lat="60.28246000500843" lon="9.13395587893525" id="-21766">
		<tag k="alt_name" v="Øktedalstølan" />
		<tag k="historic" v="shieling" />
		<tag k="name" v="Øktedalssetran" />
		<tag k="place" v="isolated_dwelling" />
		<tag k="ssr:stedsnr" v="491520" />
	</node>
	<node lat="60.2785249970703" lon="7.753724995760094" id="-21767">
		<tag k="name" v="Tormodfloti" />
		<tag k="natural" v="hill" />
		<tag k="place" v="locality" />
		<tag k="ssr:stedsnr" v="491741" />
	</node>
	<node lat="60.28212500160574" lon="8.017838894725214" id="-21768">
		<tag k="name" v="Høljabu" />
		<tag k="place" v="isolated_dwelling" />
		<tag k="ssr:stedsnr" v="491766" />
	</node>
	<node lat="60.27744722199344" lon="8.0759472235779" id="-21769">
		<tag k="name" v="Heigeitlen" />
		<tag k="place" v="isolated_dwelling" />
		<tag k="ssr:stedsnr" v="491769" />
	</node>
	<node lat="60.50003055168778" lon="8.680633341334136" id="-21770">
		<tag k="name" v="Midtre Djupetjønn" />
		<tag k="natural" v="water" />
		<tag k="ssr:stedsnr" v="492150" />
	</node>
	<node lat="60.27123889166992" lon="8.997180555270894" id="-21771">
		<tag k="alt_name" v="Åsen" />
		<tag k="fixme" v="consider natural=peak for the most distinct mountains in the district" />
		<tag k="name" v="Lykkjeåsen" />
		<tag k="natural" v="hill" />
		<tag k="place" v="locality" />
		<tag k="ssr:stedsnr" v="492252" />
	</node>
	<node lat="60.25582499933722" lon="8.88679445078229" id="-21772">
		<tag k="name" v="Neset" />
		<tag k="place" v="isolated_dwelling" />
		<tag k="ssr:stedsnr" v="492255" />
	</node>
	<node lat="60.26160555907226" lon="8.89405834108083" id="-21773">
		<tag k="alt_name" v="Strond" />
		<tag k="name" v="Strand" />
		<tag k="place" v="farm" />
		<tag k="ssr:stedsnr" v="492256" />
	</node>
	<node lat="60.25733475366146" lon="9.004020566988165" id="-21774">
		<tag k="fixme" v="consider place=hamlet" />
		<tag k="name" v="Skjønne" />
		<tag k="place" v="farm" />
		<tag k="ssr:stedsnr" v="492264" />
	</node>
	<node lat="60.4065833297229" lon="8.880050005818843" id="-21775">
		<tag k="name" v="Turrsnippsundet" />
		<tag k="natural" v="strait" />
		<tag k="ssr:stedsnr" v="492334" />
	</node>
	<node lat="60.385563884688814" lon="9.00394999739065" id="-21776">
		<tag k="name" v="Lauvhaugtjønne" />
		<tag k="natural" v="water" />
		<tag k="ssr:stedsnr" v="492353" />
	</node>
	<node lat="60.38373333235238" lon="8.982513880648193" id="-21777">
		<tag k="alt_name" v="Knutstølen" />
		<tag k="historic" v="shieling" />
		<tag k="name" v="Knutstul" />
		<tag k="place" v="isolated_dwelling" />
		<tag k="ssr:stedsnr" v="492355" />
	</node>
	<node lat="60.145388889025575" lon="7.791172219919725" id="-21778">
		<tag k="name" v="Råstugu" />
		<tag k="place" v="isolated_dwelling" />
		<tag k="ssr:stedsnr" v="445590" />
	</node>
	<node lat="60.40133889032079" lon="8.97965556417319" id="-21779">
		<tag k="fixme" v="consider tourism=alpine_hut or tourism=chalet" />
		<tag k="loc_name" v="Dalsvøllen" />
		<tag k="name" v="Dalabu" />
		<tag k="ssr:stedsnr" v="449236" />
		<tag k="tourism" v="wilderness_hut" />
	</node>
	<node lat="60.17498055879721" lon="8.898544442363171" id="-21780">
		<tag k="alt_name" v="Kurverudstulen" />
		<tag k="historic" v="shieling" />
		<tag k="name" v="Kurverudsetre" />
		<tag k="place" v="isolated_dwelling" />
		<tag k="ssr:stedsnr" v="671573" />
	</node>
	<node lat="60.193875105963414" lon="8.079473732252014" id="-21781">
		<tag k="name" v="Kosadalsvatnet" />
		<tag k="natural" v="water" />
		<tag k="ssr:stedsnr" v="671578" />
		<tag k="water" v="lake" />
	</node>
	<node lat="60.191586111128196" lon="8.994122228939899" id="-21782">
		<tag k="name" v="Kurverudkåsin" />
		<tag k="place" v="farm" />
		<tag k="ssr:stedsnr" v="671585" />
	</node>
	<node lat="60.217196671689145" lon="8.392468359242049" id="-21783">
		<tag k="name" v="Vikvatn" />
		<tag k="natural" v="water" />
		<tag k="ssr:stedsnr" v="671953" />
		<tag k="water" v="lake" />
	</node>
	<node lat="60.193325747927716" lon="8.399502639033111" id="-21784">
		<tag k="name" v="Nedre Nutetjønnan" />
		<tag k="natural" v="water" />
		<tag k="ssr:stedsnr" v="671957" />
		<tag k="water" v="lake" />
	</node>
	<node lat="60.196361107129256" lon="8.1580027865499" id="-21785">
		<tag k="name" v="Skjorteåe" />
		<tag k="ssr:stedsnr" v="671958" />
		<tag k="waterway" v="river" />
	</node>
	<node lat="60.24661388448733" lon="9.032105562141199" id="-21786">
		<tag k="alt_name" v="Ivarsgard" />
		<tag k="name" v="Ivarsgarden" />
		<tag k="place" v="isolated_dwelling" />
		<tag k="ssr:stedsnr" v="671973" />
	</node>
	<node lat="60.24227222555981" lon="9.065269450701619" id="-21787">
		<tag k="name" v="Gryta" />
		<tag k="ssr:stedsnr" v="671984" />
		<tag k="waterway" v="river" />
	</node>
	<node lat="60.236205552165835" lon="9.09504999969412" id="-21788">
		<tag k="name" v="Kolbjørnsdalen" />
		<tag k="natural" v="valley" />
		<tag k="place" v="locality" />
		<tag k="ssr:stedsnr" v="671987" />
	</node>
	<node lat="60.23409166267266" lon="8.968827779580677" id="-21789">
		<tag k="alt_name" v="Grånåsettjønn" />
		<tag k="name" v="Grånåsettjønne" />
		<tag k="natural" v="water" />
		<tag k="ssr:stedsnr" v="671999" />
	</node>
	<node lat="60.24065423696464" lon="7.6465453386776385" id="-21790">
		<tag k="name" v="Knutsbu" />
		<tag k="place" v="isolated_dwelling" />
		<tag k="ssr:stedsnr" v="672240" />
	</node>
	<node lat="60.09954528852137" lon="9.059604001820608" id="-21791">
		<tag k="name" v="Nedre Sunde" />
		<tag k="place" v="farm" />
		<tag k="ssr:stedsnr" v="672681" />
	</node>
	<node lat="60.09944593536466" lon="9.056783529536057" id="-21792">
		<tag k="name" v="Øvre Sunde" />
		<tag k="place" v="farm" />
		<tag k="ssr:stedsnr" v="672682" />
	</node>
	<node lat="60.09716944143054" lon="9.053744443031544" id="-21793">
		<tag k="name" v="Nordre Myran" />
		<tag k="place" v="farm" />
		<tag k="ssr:stedsnr" v="672683" />
	</node>
	<node lat="60.137975003768496" lon="9.104736110315699" id="-21794">
		<tag k="historic" v="shieling" />
		<tag k="name" v="Kulteplassen" />
		<tag k="place" v="isolated_dwelling" />
		<tag k="ssr:stedsnr" v="672462" />
	</node>
	<node lat="60.133522226610765" lon="9.039747220455238" id="-21795">
		<tag k="name" v="Evju" />
		<tag k="place" v="farm" />
		<tag k="ssr:stedsnr" v="672470" />
	</node>
	<node lat="60.13433561596622" lon="8.977020019232677" id="-21796">
		<tag k="fixme" v="consider natural=peak for the most distinct mountains in the district" />
		<tag k="name" v="Heggjesetnatten" />
		<tag k="natural" v="hill" />
		<tag k="place" v="locality" />
		<tag k="ssr:stedsnr" v="672472" />
	</node>
	<node lat="60.13770000164245" lon="9.030741664462731" id="-21797">
		<tag k="name" v="Vårviki" />
		<tag k="place" v="isolated_dwelling" />
		<tag k="ssr:stedsnr" v="672481" />
	</node>
	<node lat="60.14894721952922" lon="9.126336117565138" id="-21798">
		<tag k="name" v="Okseløkbekken" />
		<tag k="ssr:stedsnr" v="672573" />
		<tag k="waterway" v="stream" />
	</node>
	<node lat="60.168355551793105" lon="9.020577777116952" id="-21799">
		<tag k="name" v="Midtre Hvaale" />
		<tag k="place" v="farm" />
		<tag k="ssr:stedsnr" v="672530" />
	</node>
	<node lat="60.16326388801723" lon="8.944327783558506" id="-21800">
		<tag k="name" v="Gamlestulnatten" />
		<tag k="natural" v="hill" />
		<tag k="place" v="locality" />
		<tag k="ssr:stedsnr" v="672587" />
	</node>
	<node lat="60.16962777985342" lon="9.094077776403934" id="-21801">
		<tag k="alt_name" v="Elgsdalsåsen" />
		<tag k="fixme" v="consider natural=peak for the most distinct mountains in the district" />
		<tag k="name" v="Elgdalsåsen" />
		<tag k="natural" v="hill" />
		<tag k="place" v="locality" />
		<tag k="ssr:stedsnr" v="672595" />
	</node>
	<node lat="60.20985555175173" lon="7.667030559045682" id="-21802">
		<tag k="fixme" v="consider natural=peak for the most distinct mountains in the district" />
		<tag k="name" v="Veisenuten" />
		<tag k="natural" v="hill" />
		<tag k="place" v="locality" />
		<tag k="ssr:stedsnr" v="672691" />
	</node>
	<node lat="60.13450833562308" lon="7.617705551242503" id="-21803">
		<tag k="name" v="Langebuflatin" />
		<tag k="place" v="locality" />
		<tag k="ssr:stedsnr" v="672714" />
	</node>
	<node lat="60.2197388885334" lon="8.904211105135042" id="-21804">
		<tag k="name" v="Geithaugen" />
		<tag k="place" v="isolated_dwelling" />
		<tag k="ssr:stedsnr" v="672878" />
	</node>
	<node lat="60.23494166828702" lon="9.046138886912379" id="-21805">
		<tag k="alt_name" v="Mellem Øktedalen" />
		<tag k="loc_name" v="Myljom Øktdalen" />
		<tag k="name" v="Midtre Øktedalen" />
		<tag k="place" v="farm" />
		<tag k="ssr:stedsnr" v="672887" />
	</node>
	<node lat="60.221325002985196" lon="9.019016672254002" id="-21806">
		<tag k="name" v="Vasskleiv" />
		<tag k="place" v="isolated_dwelling" />
		<tag k="ssr:stedsnr" v="672892" />
	</node>
	<node lat="60.23121667079496" lon="8.600630557259954" id="-21807">
		<tag k="alt_name" v="Sønstevasshovd" />
		<tag k="fixme" v="consider natural=peak for the most distinct mountains in the district" />
		<tag k="name" v="Sønstevasshovda" />
		<tag k="natural" v="hill" />
		<tag k="place" v="locality" />
		<tag k="ssr:stedsnr" v="672852" />
	</node>
	<node lat="60.21809444728846" lon="9.162677779928707" id="-21808">
		<tag k="historic" v="shieling" />
		<tag k="name" v="Turrfurusetre" />
		<tag k="place" v="isolated_dwelling" />
		<tag k="ssr:stedsnr" v="672916" />
	</node>
	<node lat="60.22627500415197" lon="8.984361116974455" id="-21809">
		<tag k="historic" v="shieling" />
		<tag k="name" v="Svarterud" />
		<tag k="place" v="isolated_dwelling" />
		<tag k="ssr:stedsnr" v="672901" />
	</node>
	<node lat="60.263236108849576" lon="8.423911106208301" id="-21811">
		<tag k="historic" v="shieling" />
		<tag k="name" v="Gamlesetre" />
		<tag k="place" v="locality" />
		<tag k="ssr:stedsnr" v="673061" />
	</node>
	<node lat="60.45736944093117" lon="8.746336102892215" id="-21812">
		<tag k="alt_name" v="Tunhovd" />
		<tag k="amenity" v="place_of_worship" />
		<tag k="denomination" v="lutheran" />
		<tag k="name" v="Tunhovd kirke" />
		<tag k="old_name" v="Tunhovd kapell" />
		<tag k="religion" v="christian" />
		<tag k="ssr:stedsnr" v="673077" />
	</node>
	<node lat="60.20114999635081" lon="8.902541671369038" id="-21813">
		<tag k="historic" v="shieling" />
		<tag k="name" v="Bakkesetre" />
		<tag k="place" v="isolated_dwelling" />
		<tag k="ssr:stedsnr" v="672918" />
	</node>
	<node lat="60.203185152639264" lon="9.029480403563465" id="-21814">
		<tag k="name" v="Nordre Teigen" />
		<tag k="place" v="farm" />
		<tag k="ssr:stedsnr" v="672921" />
	</node>
	<node lat="60.21057222514536" lon="9.06221110944065" id="-21815">
		<tag k="loc_name" v="Kymyran" />
		<tag k="name" v="Kyrmyran" />
		<tag k="natural" v="wetland" />
		<tag k="ssr:stedsnr" v="672922" />
	</node>
	<node lat="60.199519442423416" lon="8.967694442493436" id="-21816">
		<tag k="name" v="Vindula" />
		<tag k="ssr:stedsnr" v="672926" />
		<tag k="waterway" v="stream" />
	</node>
	<node lat="60.199575634700444" lon="8.851190855539889" id="-21817">
		<tag k="alt_name" v="Holmevatn" />
		<tag k="name" v="Holmevatnet" />
		<tag k="natural" v="water" />
		<tag k="ssr:stedsnr" v="672930" />
		<tag k="water" v="lake" />
	</node>
	<node lat="60.203977781447485" lon="9.050222228309103" id="-21818">
		<tag k="name" v="Teigsbekken" />
		<tag k="ssr:stedsnr" v="672935" />
		<tag k="waterway" v="stream" />
	</node>
	<node lat="60.19762777882766" lon="9.021977782756835" id="-21819">
		<tag k="name" v="Nerås" />
		<tag k="place" v="farm" />
		<tag k="ssr:stedsnr" v="672945" />
	</node>
	<node lat="60.491122219340554" lon="8.526466674924963" id="-21820">
		<tag k="name" v="Fredheim" />
		<tag k="place" v="farm" />
		<tag k="ssr:stedsnr" v="673040" />
	</node>
	<node lat="60.49606110897187" lon="8.63487778022981" id="-21821">
		<tag k="fixme" v="multiple name tags, choose one and add the other to alt_name" />
		<tag k="historic" v="shieling" />
		<tag k="name" v="Bjørnalistølen;Bjørnalie" />
		<tag k="place" v="isolated_dwelling" />
		<tag k="ssr:stedsnr" v="673042" />
	</node>
	<node lat="60.25516111148459" lon="8.29173888962482" id="-21822">
		<tag k="fixme" v="consider natural=peak for the most distinct mountains in the district" />
		<tag k="name" v="Langetjønnfjellet" />
		<tag k="natural" v="hill" />
		<tag k="place" v="locality" />
		<tag k="ssr:stedsnr" v="673056" />
	</node>
	<node lat="60.32091389052715" lon="8.35275833897479" id="-21823">
		<tag k="fixme" v="consider natural=peak for the most distinct mountains in the district" />
		<tag k="name" v="Storhovde" />
		<tag k="natural" v="hill" />
		<tag k="place" v="locality" />
		<tag k="ssr:stedsnr" v="673247" />
	</node>
	<node lat="60.32266388452743" lon="8.39485556116111" id="-21824">
		<tag k="name" v="Urhovdtjønne" />
		<tag k="natural" v="water" />
		<tag k="ssr:stedsnr" v="673248" />
	</node>
	<node lat="60.30765277738478" lon="8.356730555287056" id="-21825">
		<tag k="alt_name" v="Smørhøl" />
		<tag k="name" v="Smørholet" />
		<tag k="natural" v="slope" />
		<tag k="place" v="locality" />
		<tag k="ssr:stedsnr" v="673252" />
	</node>
	<node lat="60.27794999570847" lon="8.910086106080177" id="-21826">
		<tag k="name" v="Nordre Flåta" />
		<tag k="place" v="farm" />
		<tag k="ssr:stedsnr" v="673281" />
	</node>
	<node lat="60.251974995755766" lon="8.617722222039873" id="-21827">
		<tag k="alt_name" v="Olmosåe" />
		<tag k="name" v="Ølmøsåe" />
		<tag k="ssr:stedsnr" v="673285" />
		<tag k="waterway" v="river" />
	</node>
	<node lat="60.37951666863936" lon="8.79942777527703" id="-21828">
		<tag k="name" v="Gampskardtjønnan" />
		<tag k="natural" v="water" />
		<tag k="ssr:stedsnr" v="673407" />
		<tag k="water" v="lake" />
	</node>
	<node lat="60.386647222641734" lon="8.53515000010283" id="-21829">
		<tag k="alt_name" v="Skulkehøgde" />
		<tag k="name" v="Skulkehovda" />
		<tag k="natural" v="hill" />
		<tag k="place" v="locality" />
		<tag k="ssr:stedsnr" v="673412" />
	</node>
	<node lat="60.346908335102654" lon="9.02412777870094" id="-21830">
		<tag k="name" v="Vesle Bjørsjø" />
		<tag k="natural" v="water" />
		<tag k="old_name" v="Vesle Bjorsjoren" />
		<tag k="ssr:stedsnr" v="673420" />
	</node>
	<node lat="60.36984444553282" lon="8.99586665980754" id="-21831">
		<tag k="historic" v="shieling" />
		<tag k="name" v="Fuglset" />
		<tag k="place" v="isolated_dwelling" />
		<tag k="ssr:stedsnr" v="673381" />
	</node>
	<node lat="60.364611111178505" lon="8.914019441259851" id="-21832">
		<tag k="name" v="Rimskeidtjønne" />
		<tag k="natural" v="water" />
		<tag k="ssr:stedsnr" v="673382" />
	</node>
	<node lat="60.404105554764136" lon="8.646136111096128" id="-21833">
		<tag k="historic" v="shieling" />
		<tag k="name" v="Øvre Ræpehol" />
		<tag k="place" v="isolated_dwelling" />
		<tag k="ssr:stedsnr" v="673387" />
	</node>
	<node lat="60.37048055359329" lon="9.017913883371538" id="-21834">
		<tag k="name" v="Høglielve" />
		<tag k="ssr:stedsnr" v="673399" />
		<tag k="waterway" v="stream" />
	</node>
	<node lat="60.30164791678163" lon="8.975723771560768" id="-21835">
		<tag k="fixme" v="consider place=hamlet" />
		<tag k="name" v="Sønsterud" />
		<tag k="place" v="farm" />
		<tag k="ssr:stedsnr" v="673479" />
	</node>
	<node lat="60.29193333257012" lon="9.055113881135673" id="-21836">
		<tag k="alt_name" v="Dansarfløtin" />
		<tag k="historic" v="shieling" />
		<tag k="name" v="Dansarflotin" />
		<tag k="place" v="isolated_dwelling" />
		<tag k="ssr:stedsnr" v="673497" />
	</node>
	<node lat="60.28424999645119" lon="9.000091666133459" id="-21837">
		<tag k="alt_name" v="Landgarden" />
		<tag k="name" v="Landsgard" />
		<tag k="place" v="farm" />
		<tag k="ssr:stedsnr" v="673501" />
	</node>
	<node lat="60.33152222176136" lon="8.994549996444473" id="-21838">
		<tag k="fixme" v="consider natural=peak for the most distinct mountains in the district" />
		<tag k="loc_name" v="Gonnarås" />
		<tag k="name" v="Gunnaråsen" />
		<tag k="natural" v="hill" />
		<tag k="place" v="locality" />
		<tag k="ssr:stedsnr" v="673428" />
	</node>
	<node lat="60.33842499900054" lon="8.832099999308115" id="-21839">
		<tag k="historic" v="shieling" />
		<tag k="name" v="Brennhovd" />
		<tag k="place" v="isolated_dwelling" />
		<tag k="ssr:stedsnr" v="673430" />
	</node>
	<node lat="60.31638333108149" lon="8.506886118257002" id="-21840">
		<tag k="name" v="Nedre Flåta" />
		<tag k="place" v="farm" />
		<tag k="ssr:stedsnr" v="673434" />
	</node>
	<node lat="60.30909323589347" lon="7.7608166069750775" id="-21841">
		<tag k="name" v="Kolvetjønnan" />
		<tag k="natural" v="water" />
		<tag k="ssr:stedsnr" v="673749" />
		<tag k="water" v="lake" />
	</node>
	<node lat="60.306400001626145" lon="7.953524990961292" id="-21842">
		<tag k="name" v="Geitsjølægret" />
		<tag k="place" v="locality" />
		<tag k="ssr:stedsnr" v="673750" />
	</node>
	<node lat="60.37157222372942" lon="7.735452769072928" id="-21843">
		<tag k="name" v="Storholmlægret" />
		<tag k="place" v="isolated_dwelling" />
		<tag k="ssr:stedsnr" v="673765" />
	</node>
	<node lat="60.100605557502575" lon="8.945033324640992" id="-21844">
		<tag k="name" v="Løkkroken" />
		<tag k="natural" v="water" />
		<tag k="ssr:stedsnr" v="461578" />
		<tag k="water" v="lake" />
	</node>
	<node lat="60.35782222530676" lon="7.85159999299337" id="-21845">
		<tag k="name" v="Sleipa" />
		<tag k="ssr:stedsnr" v="673778" />
		<tag k="waterway" v="river" />
	</node>
	<node lat="60.3895734535771" lon="7.961111884261909" id="-21846">
		<tag k="name" v="Grønenuten felæger" />
		<tag k="place" v="isolated_dwelling" />
		<tag k="ssr:stedsnr" v="673786" />
	</node>
	<node lat="60.376075003228706" lon="7.7509000014490015" id="-21847">
		<tag k="name" v="Storholmen" />
		<tag k="place" v="island" />
		<tag k="ssr:stedsnr" v="673789" />
	</node>
	<node lat="60.26138889093447" lon="8.958391668665874" id="-21848">
		<tag k="alt_name" v="Dokke" />
		<tag k="name" v="Dokki" />
		<tag k="place" v="farm" />
		<tag k="ssr:stedsnr" v="674283" />
	</node>
	<node lat="60.406522225273974" lon="8.932258324386066" id="-21850">
		<tag k="alt_name" v="Gaukeset;Gauksetseter" />
		<tag k="historic" v="shieling" />
		<tag k="name" v="Gaukset" />
		<tag k="place" v="isolated_dwelling" />
		<tag k="ssr:stedsnr" v="674337" />
	</node>
	<node lat="60.30100000239103" lon="8.908483325241269" id="-21851">
		<tag k="fixme" v="multiple name tags, choose one and add the other to alt_name; consider natural=peak for the most distinct mountains in the district" />
		<tag k="name" v="Solheimfjellet;Grytingfjellet" />
		<tag k="natural" v="hill" />
		<tag k="place" v="locality" />
		<tag k="ssr:stedsnr" v="674445" />
	</node>
	<node lat="60.28165000073012" lon="8.627388879943753" id="-21852">
		<tag k="name" v="Damtjønn" />
		<tag k="natural" v="water" />
		<tag k="ssr:stedsnr" v="674446" />
	</node>
	<node lat="60.30618333422216" lon="8.881733327523039" id="-21853">
		<tag k="name" v="Kynatten" />
		<tag k="natural" v="hill" />
		<tag k="place" v="locality" />
		<tag k="ssr:stedsnr" v="674448" />
	</node>
	<node lat="60.25709444795263" lon="8.809844446664384" id="-21854">
		<tag k="name" v="Ludderbukte" />
		<tag k="natural" v="water" />
		<tag k="ssr:stedsnr" v="464612" />
		<tag k="water" v="lake" />
	</node>
	<node lat="60.11929313431932" lon="8.976547782849616" id="-21855">
		<tag k="alt_name" v="Røyetjønnan" />
		<tag k="name" v="Røytjønnan" />
		<tag k="natural" v="water" />
		<tag k="old_name" v="Røytj" />
		<tag k="ssr:stedsnr" v="465483" />
		<tag k="water" v="lake" />
	</node>
	<node lat="60.20163908645794" lon="9.029527377164799" id="-21856">
		<tag k="fixme" v="consider place=hamlet" />
		<tag k="name" v="Teigen" />
		<tag k="place" v="farm" />
		<tag k="ssr:stedsnr" v="465660" />
	</node>
	<node lat="60.296733334496466" lon="8.55062777905999" id="-21857">
		<tag k="name" v="Myrhaug" />
		<tag k="place" v="farm" />
		<tag k="ssr:stedsnr" v="465908" />
	</node>
	<node lat="60.30433055904995" lon="8.528122216736532" id="-21858">
		<tag k="name" v="Myranslåtta" />
		<tag k="place" v="farm" />
		<tag k="ssr:stedsnr" v="465913" />
	</node>
	<node lat="60.13571944644967" lon="9.037866670307066" id="-21859">
		<tag k="bridge" v="yes" />
		<tag k="layer" v="1" />
		<tag k="name" v="Kjøntveit" />
		<tag k="ssr:stedsnr" v="471610" />
	</node>
	<node lat="60.261558334010374" lon="8.78744722879183" id="-21861">
		<tag k="name" v="Næringsparken" />
		<tag k="place" v="quarter" />
		<tag k="ssr:stedsnr" v="477111" />
	</node>
	<node lat="60.3152527793294" lon="9.009177778750566" id="-21862">
		<tag k="alt_name" v="Søre Åmot" />
		<tag k="historic" v="shieling" />
		<tag k="name" v="Sør-Åmot" />
		<tag k="place" v="isolated_dwelling" />
		<tag k="ssr:stedsnr" v="477978" />
	</node>
	<node lat="60.26724167002178" lon="8.845861113483737" id="-21863">
		<tag k="name" v="Nordre Fønstelien" />
		<tag k="place" v="farm" />
		<tag k="ssr:stedsnr" v="481069" />
	</node>
	<node lat="60.265533336813576" lon="8.851563886969405" id="-21864">
		<tag k="name" v="Høllarbakken" />
		<tag k="natural" v="slope" />
		<tag k="place" v="locality" />
		<tag k="ssr:stedsnr" v="481070" />
	</node>
	<node lat="60.40249228562586" lon="8.645375286548704" id="-21865">
		<tag k="historic" v="shieling" />
		<tag k="name" v="Ræpehol" />
		<tag k="place" v="isolated_dwelling" />
		<tag k="ssr:stedsnr" v="481369" />
	</node>
	<node lat="60.27523611493025" lon="8.751416666381726" id="-21866">
		<tag k="name" v="Søre Rui" />
		<tag k="place" v="farm" />
		<tag k="ssr:stedsnr" v="482125" />
	</node>
	<node lat="60.21772221912459" lon="8.983161109681552" id="-21867">
		<tag k="historic" v="shieling" />
		<tag k="name" v="Hollesrud" />
		<tag k="place" v="isolated_dwelling" />
		<tag k="ssr:stedsnr" v="482379" />
	</node>
	<node lat="60.09683888952302" lon="8.977102770675863" id="-21868">
		<tag k="loc_name" v="Slepeskaret" />
		<tag k="name" v="Slepeskardet" />
		<tag k="natural" v="valley" />
		<tag k="place" v="locality" />
		<tag k="ssr:stedsnr" v="483582" />
	</node>
	<node lat="60.26662967968911" lon="8.876731145595981" id="-21869">
		<tag k="fixme" v="consider place=hamlet" />
		<tag k="name" v="Søre Fønnebø" />
		<tag k="place" v="farm" />
		<tag k="ssr:stedsnr" v="484006" />
	</node>
	<node lat="60.267129762600874" lon="8.862094454359644" id="-21870">
		<tag k="fixme" v="consider place=hamlet" />
		<tag k="name" v="Haugen" />
		<tag k="place" v="farm" />
		<tag k="ssr:stedsnr" v="484007" />
	</node>
	<node lat="60.28167467689072" lon="8.922232496372912" id="-21871">
		<tag k="historic" v="shieling" />
		<tag k="loc_name" v="Pinslesetre" />
		<tag k="name" v="Pinslaseter" />
		<tag k="place" v="isolated_dwelling" />
		<tag k="ssr:stedsnr" v="484660" />
	</node>
	<node lat="60.17415277419836" lon="9.036694440265434" id="-21873">
		<tag k="name" v="Damtjønne" />
		<tag k="natural" v="water" />
		<tag k="ssr:stedsnr" v="489607" />
	</node>
	<node lat="60.19084883509457" lon="9.005488701043545" id="-21874">
		<tag k="fixme" v="consider place=hamlet" />
		<tag k="name" v="Ulbåsen" />
		<tag k="old_name" v="Ulebaasen" />
		<tag k="place" v="farm" />
		<tag k="ssr:stedsnr" v="489609" />
	</node>
	<node lat="60.167036108634754" lon="8.941088896247301" id="-21875">
		<tag k="alt_name" v="Byggingen;Byggingan" />
		<tag k="fixme" v="consider natural=peak for the most distinct mountains in the district" />
		<tag k="name" v="Byggjingen" />
		<tag k="natural" v="hill" />
		<tag k="place" v="locality" />
		<tag k="ssr:stedsnr" v="489594" />
	</node>
	<node lat="60.22669166946286" lon="8.447980547471918" id="-21876">
		<tag k="name" v="Sjugurdstjønnberget" />
		<tag k="natural" v="hill" />
		<tag k="place" v="locality" />
		<tag k="ssr:stedsnr" v="489933" />
	</node>
	<node lat="60.371719447133394" lon="8.41570555094563" id="-21877">
		<tag k="fixme" v="consider natural=peak for the most distinct mountains in the district" />
		<tag k="name" v="Storåsen" />
		<tag k="natural" v="hill" />
		<tag k="place" v="locality" />
		<tag k="ssr:stedsnr" v="490187" />
	</node>
	<node lat="60.368762859873634" lon="8.334567706037234" id="-21878">
		<tag k="name" v="Sessetjønne" />
		<tag k="natural" v="water" />
		<tag k="ssr:stedsnr" v="490192" />
	</node>
	<node lat="60.36379721979722" lon="8.390575008091691" id="-21879">
		<tag k="historic" v="shieling" />
		<tag k="name" v="Syningan" />
		<tag k="place" v="isolated_dwelling" />
		<tag k="ssr:stedsnr" v="490193" />
	</node>
	<node lat="60.36158177591866" lon="8.33172082117822" id="-21880">
		<tag k="name" v="Tjønngrøtjønnan" />
		<tag k="natural" v="water" />
		<tag k="ssr:stedsnr" v="490194" />
		<tag k="water" v="lake" />
	</node>
	<node lat="60.1271166700723" lon="9.004516664893776" id="-21881">
		<tag k="alt_name" v="Nonsnuten" />
		<tag k="loc_name" v="Nonsetnattin" />
		<tag k="name" v="Nonsetnatten" />
		<tag k="natural" v="hill" />
		<tag k="place" v="locality" />
		<tag k="ssr:stedsnr" v="490487" />
	</node>
	<node lat="60.11408889034332" lon="7.817430556260934" id="-21882">
		<tag k="name" v="Storhellertjønne" />
		<tag k="natural" v="water" />
		<tag k="ssr:stedsnr" v="490610" />
	</node>
	<node lat="60.13799166833411" lon="9.116408336923984" id="-21883">
		<tag k="name" v="Viketjønne" />
		<tag k="natural" v="water" />
		<tag k="ssr:stedsnr" v="490510" />
	</node>
	<node lat="60.16053333358878" lon="8.942891669673088" id="-21884">
		<tag k="historic" v="shieling" />
		<tag k="name" v="Gamlestulen" />
		<tag k="place" v="isolated_dwelling" />
		<tag k="ssr:stedsnr" v="490589" />
	</node>
	<node lat="60.16755000241822" lon="9.019538881037493" id="-21885">
		<tag k="fixme" v="multiple name tags, choose one and add the other to alt_name" />
		<tag k="name" v="Søndre Hvaale;Nedre Hvåle" />
		<tag k="old_name" v="Søndre Hvåle" />
		<tag k="place" v="farm" />
		<tag k="ssr:stedsnr" v="490598" />
	</node>
	<node lat="60.24619565884962" lon="8.555945166136137" id="-21886">
		<tag k="historic" v="shieling" />
		<tag k="name" v="Ræpehol" />
		<tag k="place" v="isolated_dwelling" />
		<tag k="ssr:stedsnr" v="490825" />
	</node>
	<node lat="60.29274722527151" lon="8.16033888193105" id="-21887">
		<tag k="fixme" v="consider tourism=alpine_hut or tourism=chalet" />
		<tag k="name" v="Ulvelilægeret" />
		<tag k="old_name" v="Ulvelilægret" />
		<tag k="ssr:stedsnr" v="491019" />
		<tag k="tourism" v="wilderness_hut" />
	</node>
	<node lat="60.30194722216634" lon="8.412500007118563" id="-21888">
		<tag k="name" v="Jønndalen" />
		<tag k="natural" v="valley" />
		<tag k="place" v="locality" />
		<tag k="ssr:stedsnr" v="491021" />
	</node>
	<node lat="60.20593332910294" lon="9.002272226033083" id="-21889">
		<tag k="alt_name" v="Nedre Loftsgard" />
		<tag k="name" v="Nedre Loftsgarden" />
		<tag k="place" v="farm" />
		<tag k="ssr:stedsnr" v="490905" />
	</node>
	<node lat="60.198911769082486" lon="8.929201914195461" id="-21890">
		<tag k="alt_name" v="Sprengtjønn" />
		<tag k="loc_name" v="Sprengtjønnan" />
		<tag k="name" v="Sprengtjønne" />
		<tag k="natural" v="water" />
		<tag k="ssr:stedsnr" v="490910" />
		<tag k="water" v="lake" />
	</node>
	<node lat="60.198997220029845" lon="9.080986115432397" id="-21891">
		<tag k="name" v="Svartetjønn" />
		<tag k="natural" v="water" />
		<tag k="ssr:stedsnr" v="490926" />
	</node>
	<node lat="60.19405833303758" lon="9.001291670009424" id="-21892">
		<tag k="alt_name" v="Øianhaugen;Haugen" />
		<tag k="name" v="Øyanhaugen" />
		<tag k="place" v="farm" />
		<tag k="ssr:stedsnr" v="490931" />
	</node>
	<node lat="60.23353610869084" lon="8.334799994062106" id="-21893">
		<tag k="name" v="Nedre Gvonnevieren" />
		<tag k="place" v="locality" />
		<tag k="ssr:stedsnr" v="490941" />
	</node>
	<node lat="60.22783889276682" lon="8.316713885694789" id="-21894">
		<tag k="name" v="Smågådalen" />
		<tag k="natural" v="valley" />
		<tag k="place" v="locality" />
		<tag k="ssr:stedsnr" v="490944" />
	</node>
	<node lat="60.22554166671895" lon="8.11320554693479" id="-21895">
		<tag k="name" v="Skjortedalen" />
		<tag k="natural" v="valley" />
		<tag k="place" v="locality" />
		<tag k="ssr:stedsnr" v="490947" />
	</node>
	<node lat="60.35397222441585" lon="8.246700005653562" id="-21896">
		<tag k="name" v="Grisletjønnan" />
		<tag k="natural" v="water" />
		<tag k="ssr:stedsnr" v="491196" />
		<tag k="water" v="lake" />
	</node>
	<node lat="60.25228055572533" lon="9.124963896839722" id="-21897">
		<tag k="alt_name" v="Svartetjønn" />
		<tag k="name" v="Svartetjønne" />
		<tag k="natural" v="water" />
		<tag k="old_name" v="Svartetj" />
		<tag k="ssr:stedsnr" v="491331" />
	</node>
	<node lat="60.455411106911754" lon="8.672180550982171" id="-21898">
		<tag k="name" v="Mellomtjønn" />
		<tag k="natural" v="water" />
		<tag k="ssr:stedsnr" v="491075" />
	</node>
	<node lat="60.45463333501152" lon="8.647661119462876" id="-21899">
		<tag k="name" v="Stugutjønn" />
		<tag k="natural" v="water" />
		<tag k="ssr:stedsnr" v="491079" />
	</node>
	<node lat="60.45270833432697" lon="8.640961106254226" id="-21900">
		<tag k="name" v="Risvikje" />
		<tag k="natural" v="bay" />
		<tag k="ssr:stedsnr" v="491081" />
	</node>
	<node lat="60.472449467399144" lon="8.556220561228002" id="-21901">
		<tag k="name" v="Pollen" />
		<tag k="natural" v="water" />
		<tag k="ssr:stedsnr" v="491090" />
	</node>
	<node lat="60.313791669712735" lon="8.291211116222334" id="-21902">
		<tag k="name" v="Skarvsfetjan" />
		<tag k="place" v="locality" />
		<tag k="ssr:stedsnr" v="491226" />
	</node>
	<node lat="60.31247222579108" lon="8.272705563042434" id="-21903">
		<tag k="name" v="Dyregravshallie" />
		<tag k="natural" v="slope" />
		<tag k="place" v="locality" />
		<tag k="ssr:stedsnr" v="491233" />
	</node>
	<node lat="60.281827323995955" lon="9.158331429466019" id="-21904">
		<tag k="alt_name" v="Rovatn" />
		<tag k="name" v="Rovatnet" />
		<tag k="natural" v="water" />
		<tag k="ssr:stedsnr" v="491274" />
	</node>
	<node lat="60.26717777436461" lon="8.947258332946522" id="-21905">
		<tag k="name" v="Rødberg" />
		<tag k="place" v="village" />
		<tag k="ssr:stedsnr" v="491289" />
	</node>
	<node lat="60.26604999637806" lon="8.956252774490196" id="-21906">
		<tag k="name" v="Rødbergdammen" />
		<tag k="place" v="locality" />
		<tag k="ssr:stedsnr" v="491293" />
	</node>
	<node lat="60.398404199527846" lon="8.53166141624444" id="-21907">
		<tag k="alt_name" v="Leiråvatn" />
		<tag k="name" v="Leiråvatnet" />
		<tag k="natural" v="water" />
		<tag k="ssr:stedsnr" v="491410" />
		<tag k="water" v="lake" />
	</node>
	<node lat="60.336338887709644" lon="9.089400006926507" id="-21908">
		<tag k="name" v="Kupanatten" />
		<tag k="natural" v="hill" />
		<tag k="place" v="locality" />
		<tag k="ssr:stedsnr" v="491415" />
	</node>
	<node lat="60.294838888377036" lon="9.123725003660715" id="-21909">
		<tag k="name" v="Krosstjønnbekken" />
		<tag k="ssr:stedsnr" v="491508" />
		<tag k="waterway" v="stream" />
	</node>
	<node lat="60.26630756733711" lon="8.824699320309264" id="-21910">
		<tag k="alt_name" v="Dokki" />
		<tag k="fixme" v="consider place=hamlet" />
		<tag k="loc_name" v="Døkken" />
		<tag k="name" v="Dokken" />
		<tag k="place" v="farm" />
		<tag k="ssr:stedsnr" v="491526" />
	</node>
	<node lat="60.30375833743288" lon="8.983697226570479" id="-21911">
		<tag k="historic" v="shieling" />
		<tag k="name" v="Sekkjesetre" />
		<tag k="old_name" v="Sønsterudsætri" />
		<tag k="place" v="isolated_dwelling" />
		<tag k="ssr:stedsnr" v="491481" />
	</node>
	<node lat="60.34629999635498" lon="7.9458250057779045" id="-21912">
		<tag k="name" v="Selstjønnpytten" />
		<tag k="place" v="locality" />
		<tag k="ssr:stedsnr" v="491780" />
	</node>
	<node lat="60.3333000017831" lon="7.814149996560009" id="-21913">
		<tag k="name" v="Sevra" />
		<tag k="ssr:stedsnr" v="491782" />
		<tag k="waterway" v="river" />
	</node>
</osm>
