<?xml version="1.0" encoding="UTF-8"?>
<osm generator="osmapis" version="0.6">
	<node id="-794750" lat="70.7051388908" lon="24.5767387613">
		<tag k="name" v="Lillefjord" />
		<tag k="ssr:date" v="2016-05-10" />
		<tag k="ssr:gruppe" v="navigasjon" />
		<tag k="ssr:hovedgruppe" v="infrastruktur" />
		<tag k="ssr:stedsnr" v="104253" />
		<tag k="ssr:type" v="lanterne" />
	</node>
	<node id="-795769" lat="70.9917916707" lon="24.1270721339">
		<tag k="name" v="Gunnarneset" />
		<tag k="ssr:date" v="2016-05-11" />
		<tag k="ssr:gruppe" v="navigasjon" />
		<tag k="ssr:hovedgruppe" v="infrastruktur" />
		<tag k="ssr:stedsnr" v="809243" />
		<tag k="ssr:type" v="fyrlykt" />
	</node>
	<node id="-794994" lat="71.0568666731" lon="24.9478081935">
		<tag k="name" v="Måsøykalven" />
		<tag k="ssr:date" v="2016-05-10" />
		<tag k="ssr:gruppe" v="navigasjon" />
		<tag k="ssr:hovedgruppe" v="infrastruktur" />
		<tag k="ssr:stedsnr" v="230011" />
		<tag k="ssr:type" v="fyrlykt" />
	</node>
	<node id="-795248" lat="71.1031083352" lon="24.8497554191">
		<tag k="name" v="Svartviknæringen" />
		<tag k="ssr:date" v="2016-05-10" />
		<tag k="ssr:gruppe" v="navigasjon" />
		<tag k="ssr:hovedgruppe" v="infrastruktur" />
		<tag k="ssr:stedsnr" v="505646" />
		<tag k="ssr:type" v="fyrlykt" />
	</node>
	<node id="-795629" lat="70.9620972299" lon="25.4311775888">
		<tag k="name" v="Risvikneset" />
		<tag k="ssr:date" v="2016-05-11" />
		<tag k="ssr:gruppe" v="navigasjon" />
		<tag k="ssr:hovedgruppe" v="infrastruktur" />
		<tag k="ssr:stedsnr" v="747445" />
		<tag k="ssr:type" v="fyrlykt" />
	</node>
	<node id="-795622" lat="70.866480562" lon="25.2329303894">
		<tag k="name" v="Smedberget" />
		<tag k="ssr:date" v="2016-05-11" />
		<tag k="ssr:gruppe" v="navigasjon" />
		<tag k="ssr:hovedgruppe" v="infrastruktur" />
		<tag k="ssr:stedsnr" v="715262" />
		<tag k="ssr:type" v="fyrlykt" />
	</node>
	<node id="-795109" lat="71.0936861144" lon="23.9836360286">
		<tag k="name" v="Fruholmen" />
		<tag k="old_name" v="Fruholmen fyr" />
		<tag k="ssr:date" v="2016-05-10" />
		<tag k="ssr:gruppe" v="navigasjon" />
		<tag k="ssr:hovedgruppe" v="infrastruktur" />
		<tag k="ssr:stedsnr" v="444482" />
		<tag k="ssr:type" v="fyrstasjon" />
	</node>
	<node id="-795257" lat="71.0078000047" lon="25.0336776199">
		<tag k="name" v="Måsøy" />
		<tag k="ssr:date" v="2016-05-10" />
		<tag k="ssr:gruppe" v="navigasjon" />
		<tag k="ssr:hovedgruppe" v="infrastruktur" />
		<tag k="ssr:stedsnr" v="505734" />
		<tag k="ssr:type" v="fyrlykt" />
	</node>
	<node id="-795852" lat="71.085491673" lon="24.1524332214">
		<tag k="name" v="Skrapleia" />
		<tag k="ssr:date" v="2016-05-11" />
		<tag k="ssr:gruppe" v="navigasjon" />
		<tag k="ssr:hovedgruppe" v="infrastruktur" />
		<tag k="ssr:stedsnr" v="847381" />
		<tag k="ssr:type" v="lanterne" />
	</node>
	<node id="-795847" lat="70.9193555586" lon="25.2710498233">
		<tag k="name" v="Stor-Kobbøya" />
		<tag k="ssr:date" v="2016-05-11" />
		<tag k="ssr:gruppe" v="navigasjon" />
		<tag k="ssr:hovedgruppe" v="infrastruktur" />
		<tag k="ssr:stedsnr" v="837181" />
		<tag k="ssr:type" v="fyrlykt" />
	</node>
	<node id="-795204" lat="70.9975166703" lon="24.2109359981">
		<tag k="name" v="Rolfsøykalven" />
		<tag k="ssr:date" v="2016-05-10" />
		<tag k="ssr:gruppe" v="navigasjon" />
		<tag k="ssr:hovedgruppe" v="infrastruktur" />
		<tag k="ssr:stedsnr" v="472816" />
		<tag k="ssr:type" v="lanterne" />
	</node>
	<node id="-795329" lat="71.0888277847" lon="24.0551471193">
		<tag k="name" v="Ingøy" />
		<tag k="ssr:date" v="2016-05-10" />
		<tag k="ssr:gruppe" v="navigasjon" />
		<tag k="ssr:hovedgruppe" v="infrastruktur" />
		<tag k="ssr:stedsnr" v="565605" />
		<tag k="ssr:type" v="fyrlykt" />
	</node>
	<node id="-795039" lat="70.9988527836" lon="23.8901804637">
		<tag k="name" v="Tufjord" />
		<tag k="ssr:date" v="2016-05-10" />
		<tag k="ssr:gruppe" v="navigasjon" />
		<tag k="ssr:hovedgruppe" v="infrastruktur" />
		<tag k="ssr:stedsnr" v="263211" />
		<tag k="ssr:type" v="fyrlykt" />
	</node>
	<node id="-795702" lat="71.0206638929" lon="24.5580109899">
		<tag k="name" v="Havøygavlen" />
		<tag k="ssr:date" v="2016-05-11" />
		<tag k="ssr:gruppe" v="navigasjon" />
		<tag k="ssr:hovedgruppe" v="infrastruktur" />
		<tag k="ssr:stedsnr" v="748617" />
		<tag k="ssr:type" v="fyrlykt" />
	</node>
	<node id="-794937" lat="71.072" lon="23.9904610101">
		<tag k="name" v="Finnes" />
		<tag k="ssr:date" v="2016-05-10" />
		<tag k="ssr:gruppe" v="navigasjon" />
		<tag k="ssr:hovedgruppe" v="infrastruktur" />
		<tag k="ssr:stedsnr" v="202588" />
		<tag k="ssr:type" v="fyrlykt" />
	</node>
	<node id="-795303" lat="71.0064305563" lon="25.0174498331">
		<tag k="name" v="Måsøy molo" />
		<tag k="ssr:date" v="2016-05-10" />
		<tag k="ssr:gruppe" v="navigasjon" />
		<tag k="ssr:hovedgruppe" v="infrastruktur" />
		<tag k="ssr:stedsnr" v="543197" />
		<tag k="ssr:type" v="lanterne" />
	</node>
	<node id="-794915" lat="70.9923500014" lon="24.6248081866">
		<tag k="name" v="Rotskjæringsneset" />
		<tag k="old_name" v="Rotskjeringsneset" />
		<tag k="ssr:date" v="2016-05-10" />
		<tag k="ssr:gruppe" v="navigasjon" />
		<tag k="ssr:hovedgruppe" v="infrastruktur" />
		<tag k="ssr:stedsnr" v="202339" />
		<tag k="ssr:type" v="fyrlykt" />
	</node>
	<node id="-796066" lat="68.4849327361" lon="16.2297866207">
		<tag k="fixme" v="multiple name tags, choose one and add the other to alt_name" />
		<tag k="name" v="Nord-Noreg;Nord-Norge" />
		<tag k="ssr:date" v="2017-05-18" />
		<tag k="ssr:gruppe" v="administrativeIndelinger" />
		<tag k="ssr:hovedgruppe" v="offentligAdministrasjon" />
		<tag k="ssr:stedsnr" v="976106" />
		<tag k="ssr:type" v="annenAdministrativInndeling" />
	</node>
	<node id="-795040" lat="70.9459111159" lon="24.2132415623">
		<tag k="name" v="Rolvsøyhamn" />
		<tag k="ssr:date" v="2016-05-10" />
		<tag k="ssr:gruppe" v="navigasjon" />
		<tag k="ssr:hovedgruppe" v="infrastruktur" />
		<tag k="ssr:stedsnr" v="263235" />
		<tag k="ssr:type" v="fyrlykt" />
	</node>
	<node id="-795760" lat="71.0905166698" lon="24.7335915266">
		<tag k="name" v="Akkarfjord" />
		<tag k="ssr:date" v="2016-05-11" />
		<tag k="ssr:gruppe" v="navigasjon" />
		<tag k="ssr:hovedgruppe" v="infrastruktur" />
		<tag k="ssr:stedsnr" v="808629" />
		<tag k="ssr:type" v="fyrlykt" />
	</node>
	<node id="-795932" lat="71.0042305581" lon="24.7187304305">
		<tag k="name" v="Garpholmen" />
		<tag k="ssr:date" v="2016-05-11" />
		<tag k="ssr:gruppe" v="navigasjon" />
		<tag k="ssr:hovedgruppe" v="infrastruktur" />
		<tag k="ssr:stedsnr" v="870720" />
		<tag k="ssr:type" v="fyrlykt" />
	</node>
	<node id="-794651" lat="71.0360416695" lon="25.0339915159">
		<tag k="name" v="Måsneset" />
		<tag k="ssr:date" v="2016-05-10" />
		<tag k="ssr:gruppe" v="navigasjon" />
		<tag k="ssr:hovedgruppe" v="infrastruktur" />
		<tag k="ssr:stedsnr" v="58188" />
		<tag k="ssr:type" v="lanterne" />
	</node>
	<node id="-796058" lat="70.7952694502" lon="24.5715887423">
		<tag k="name" v="Snefjordflua jernstang" />
		<tag k="ssr:date" v="2016-05-11" />
		<tag k="ssr:gruppe" v="navigasjon" />
		<tag k="ssr:hovedgruppe" v="infrastruktur" />
		<tag k="ssr:stedsnr" v="954239" />
		<tag k="ssr:type" v="jernstang" />
	</node>
	<node id="-796056" lat="70.9860527766" lon="23.99989156">
		<tag k="name" v="Valfjord" />
		<tag k="ssr:date" v="2016-05-11" />
		<tag k="ssr:gruppe" v="navigasjon" />
		<tag k="ssr:hovedgruppe" v="infrastruktur" />
		<tag k="ssr:stedsnr" v="942569" />
		<tag k="ssr:type" v="fyrlykt" />
	</node>
	<node id="-795287" lat="71.0434638963" lon="23.9852693441">
		<tag k="name" v="Trollsundet" />
		<tag k="ssr:date" v="2016-05-10" />
		<tag k="ssr:gruppe" v="navigasjon" />
		<tag k="ssr:hovedgruppe" v="infrastruktur" />
		<tag k="ssr:stedsnr" v="511935" />
		<tag k="ssr:type" v="fyrlykt" />
	</node>
	<node id="-794644" lat="70.6858722284" lon="24.5752387441">
		<tag k="name" v="Måsholmen" />
		<tag k="ssr:date" v="2016-05-10" />
		<tag k="ssr:gruppe" v="navigasjon" />
		<tag k="ssr:hovedgruppe" v="infrastruktur" />
		<tag k="ssr:stedsnr" v="48457" />
		<tag k="ssr:type" v="fyrlykt" />
	</node>
	<node id="-794770" lat="71.0865083398" lon="23.9834360201">
		<tag k="name" v="Sandholmen" />
		<tag k="ssr:date" v="2016-05-10" />
		<tag k="ssr:gruppe" v="navigasjon" />
		<tag k="ssr:hovedgruppe" v="infrastruktur" />
		<tag k="ssr:stedsnr" v="140547" />
		<tag k="ssr:type" v="fyrlykt" />
	</node>
	<node id="-795152" lat="70.7977138947" lon="24.5639471002">
		<tag k="name" v="Snefjord" />
		<tag k="ssr:date" v="2016-05-10" />
		<tag k="ssr:gruppe" v="navigasjon" />
		<tag k="ssr:hovedgruppe" v="infrastruktur" />
		<tag k="ssr:stedsnr" v="445378" />
		<tag k="ssr:type" v="fyrlykt" />
	</node>
	<node id="-794510" lat="70.7943333328" lon="24.5726943197">
		<tag k="name" v="Snefjord molo" />
		<tag k="ssr:date" v="2016-05-10" />
		<tag k="ssr:gruppe" v="navigasjon" />
		<tag k="ssr:hovedgruppe" v="infrastruktur" />
		<tag k="ssr:stedsnr" v="408571" />
		<tag k="ssr:type" v="lanterne" />
	</node>
	<node id="-795916" lat="70.9965666716" lon="24.9700498563">
		<tag k="name" v="Måsøysund" />
		<tag k="ssr:date" v="2016-05-11" />
		<tag k="ssr:gruppe" v="navigasjon" />
		<tag k="ssr:hovedgruppe" v="infrastruktur" />
		<tag k="ssr:stedsnr" v="870357" />
		<tag k="ssr:type" v="fyrlykt" />
	</node>
	<node id="-795144" lat="70.8594861154" lon="24.3038165376">
		<tag k="name" v="Reinøysundet" />
		<tag k="ssr:date" v="2016-05-10" />
		<tag k="ssr:gruppe" v="navigasjon" />
		<tag k="ssr:hovedgruppe" v="infrastruktur" />
		<tag k="ssr:stedsnr" v="445315" />
		<tag k="ssr:type" v="fyrlykt" />
	</node>
	<node id="-794502" lat="70.9965333391" lon="24.6614443175">
		<tag k="name" v="Måsøy kommune" />
		<tag k="ssr:date" v="2016-05-10" />
		<tag k="ssr:gruppe" v="administrativeIndelinger" />
		<tag k="ssr:hovedgruppe" v="offentligAdministrasjon" />
		<tag k="ssr:stedsnr" v="390321" />
		<tag k="ssr:type" v="kommune" />
	</node>
	<node id="-795457" lat="71.08560834" lon="24.1860443432">
		<tag k="name" v="Store Gåsøya" />
		<tag k="old_name" v="Gåsøy, store" />
		<tag k="ssr:date" v="2016-05-10" />
		<tag k="ssr:gruppe" v="navigasjon" />
		<tag k="ssr:hovedgruppe" v="infrastruktur" />
		<tag k="ssr:stedsnr" v="626602" />
		<tag k="ssr:type" v="fyrlykt" />
	</node>
	<node id="-795521" lat="70.7974388938" lon="24.1560332157">
		<tag k="name" v="Rypøyan" />
		<tag k="ssr:date" v="2016-05-10" />
		<tag k="ssr:gruppe" v="navigasjon" />
		<tag k="ssr:hovedgruppe" v="infrastruktur" />
		<tag k="ssr:stedsnr" v="663816" />
		<tag k="ssr:type" v="lanterne" />
	</node>
</osm>
