<?xml version="1.0" encoding="UTF-8"?>
<osm version="0.6" generator="osmapis">
	<node id="31872071" lat="59.4746282" lon="11.1614171" version="8" timestamp="2021-10-29T06:11:26Z" changeset="113107708" uid="3497659" user="NKA">
		<tag k="alt_name" v="Skiptvet" />
		<tag k="name" v="Meieribyen" />
		<tag k="place" v="village" />
		<tag k="population" v="1768" />
		<tag k="population:date" v="2021-01-01" />
		<tag k="ref:ssb_tettsted" v="0131" />
		<tag k="source:population" v="SSB - befolkning i tettstedet" />
		<tag k="ssr:stedsnr" v="609052" />
	</node>
	<node id="5798029117" lat="59.5269693" lon="11.1511187" version="2" timestamp="2022-02-01T07:28:18Z" changeset="116853439" uid="3497659" user="NKA">
		<tag k="junction" v="yes" />
		<tag k="name" v="Librusvingen" />
		<tag k="ssr:stedsnr" v="628829" />
	</node>
	<node id="5798039726" lat="59.4846474" lon="11.1051665" version="2" timestamp="2022-02-01T07:28:18Z" changeset="116853439" uid="3497659" user="NKA">
		<tag k="junction" v="yes" />
		<tag k="name" v="Dyrbekksvingen" />
		<tag k="ssr:stedsnr" v="507985" />
	</node>
	<node id="5798039926" lat="59.529478" lon="11.1460452" version="2" timestamp="2022-02-01T07:28:18Z" changeset="116853439" uid="3497659" user="NKA">
		<tag k="junction" v="yes" />
		<tag k="name" v="Langlikrysset" />
		<tag k="ssr:stedsnr" v="932839" />
	</node>
	<node id="5798042888" lat="59.487375" lon="11.0976075" version="2" timestamp="2022-02-01T07:28:18Z" changeset="116853439" uid="3497659" user="NKA">
		<tag k="junction" v="yes" />
		<tag k="name" v="Lundsvingen" />
		<tag k="ssr:stedsnr" v="143981" />
	</node>
	<node id="5798231270" lat="59.4533579" lon="11.1361489" version="2" timestamp="2022-02-01T07:28:18Z" changeset="116853439" uid="3497659" user="NKA">
		<tag k="junction" v="yes" />
		<tag k="name" v="Haugskrysset" />
		<tag k="ssr:stedsnr" v="326958" />
	</node>
	<node id="6258101291" lat="59.4720278" lon="11.1875222" version="1" timestamp="2019-02-04T15:38:06Z" changeset="66907124" uid="633013" user="Honning">
		<tag k="alt_name" v="Askim" />
		<tag k="name" v="Askjum" />
		<tag k="place" v="farm" />
		<tag k="ssr:stedsnr" v="305024" />
	</node>
	<node id="6258101292" lat="59.483675" lon="11.19945" version="1" timestamp="2019-02-04T15:38:06Z" changeset="66907124" uid="633013" user="Honning">
		<tag k="name" v="Frorudneset" />
		<tag k="place" v="farm" />
		<tag k="ssr:stedsnr" v="305040" />
	</node>
	<node id="6258101293" lat="59.4126028" lon="11.1833333" version="1" timestamp="2019-02-04T15:38:06Z" changeset="66907124" uid="633013" user="Honning">
		<tag k="name" v="Glennetangen" />
		<tag k="place" v="farm" />
		<tag k="ssr:stedsnr" v="305128" />
	</node>
	<node id="6258101294" lat="59.4601" lon="11.2035722" version="1" timestamp="2019-02-04T15:38:06Z" changeset="66907124" uid="633013" user="Honning">
		<tag k="alt_name" v="Liverud nordre" />
		<tag k="name" v="Nordre Liverud" />
		<tag k="place" v="farm" />
		<tag k="ssr:stedsnr" v="305216" />
	</node>
	<node id="6258101295" lat="59.4859472" lon="11.1588222" version="1" timestamp="2019-02-04T15:38:06Z" changeset="66907124" uid="633013" user="Honning">
		<tag k="alt_name" v="Skjelle nordre;Skjelle" />
		<tag k="name" v="Nordre Skjelle" />
		<tag k="place" v="farm" />
		<tag k="ssr:stedsnr" v="306059" />
	</node>
	<node id="6258101296" lat="59.4367306" lon="11.17695" version="1" timestamp="2019-02-04T15:38:06Z" changeset="66907124" uid="633013" user="Honning">
		<tag k="alt_name" v="Nordenga" />
		<tag k="name" v="Nordeng" />
		<tag k="place" v="farm" />
		<tag k="ssr:stedsnr" v="306203" />
	</node>
	<node id="6258101297" lat="59.49485" lon="11.10445" version="1" timestamp="2019-02-04T15:38:06Z" changeset="66907124" uid="633013" user="Honning">
		<tag k="name" v="Strand" />
		<tag k="place" v="farm" />
		<tag k="ssr:stedsnr" v="307094" />
	</node>
	<node id="6258101298" lat="59.4972028" lon="11.165825" version="1" timestamp="2019-02-04T15:38:06Z" changeset="66907124" uid="633013" user="Honning">
		<tag k="name" v="Karlstad" />
		<tag k="place" v="farm" />
		<tag k="ssr:stedsnr" v="307099" />
	</node>
	<node id="6258101299" lat="59.5080944" lon="11.2119417" version="1" timestamp="2019-02-04T15:38:06Z" changeset="66907124" uid="633013" user="Honning">
		<tag k="name" v="Sammerud" />
		<tag k="place" v="farm" />
		<tag k="ssr:stedsnr" v="307713" />
	</node>
	<node id="6258101300" lat="59.5255056" lon="11.1569056" version="1" timestamp="2019-02-04T15:38:06Z" changeset="66907124" uid="633013" user="Honning">
		<tag k="name" v="Skallerud" />
		<tag k="place" v="farm" />
		<tag k="ssr:stedsnr" v="307750" />
	</node>
	<node id="6258101301" lat="59.4896333" lon="11.2179889" version="1" timestamp="2019-02-04T15:38:06Z" changeset="66907124" uid="633013" user="Honning">
		<tag k="alt_name" v="Skipperud vestre" />
		<tag k="name" v="Vestre Skipperud" />
		<tag k="place" v="farm" />
		<tag k="ssr:stedsnr" v="325496" />
	</node>
	<node id="6258101302" lat="59.4668333" lon="11.1973083" version="1" timestamp="2019-02-04T15:38:06Z" changeset="66907124" uid="633013" user="Honning">
		<tag k="alt_name" v="Rueneplass" />
		<tag k="name" v="Ruene" />
		<tag k="place" v="farm" />
		<tag k="ssr:stedsnr" v="325523" />
	</node>
	<node id="6258101303" lat="59.4779389" lon="11.2053778" version="1" timestamp="2019-02-04T15:38:06Z" changeset="66907124" uid="633013" user="Honning">
		<tag k="alt_name" v="Eng nordre" />
		<tag k="name" v="Nordre Eng" />
		<tag k="place" v="farm" />
		<tag k="ssr:stedsnr" v="325549" />
	</node>
	<node id="6258101304" lat="59.4834" lon="11.2018444" version="1" timestamp="2019-02-04T15:38:06Z" changeset="66907124" uid="633013" user="Honning">
		<tag k="name" v="Vesterby" />
		<tag k="place" v="farm" />
		<tag k="ssr:stedsnr" v="325551" />
	</node>
	<node id="6258101305" lat="59.5141583" lon="11.1154972" version="1" timestamp="2019-02-04T15:38:06Z" changeset="66907124" uid="633013" user="Honning">
		<tag k="alt_name" v="Myrer øvre" />
		<tag k="name" v="Øvre Myrer" />
		<tag k="place" v="farm" />
		<tag k="ssr:stedsnr" v="325822" />
	</node>
	<node id="6258101306" lat="59.5196056" lon="11.1544667" version="1" timestamp="2019-02-04T15:38:06Z" changeset="66907124" uid="633013" user="Honning">
		<tag k="alt_name" v="Vister vestre" />
		<tag k="name" v="Vestre Vister" />
		<tag k="place" v="farm" />
		<tag k="ssr:stedsnr" v="325834" />
	</node>
	<node id="6258101307" lat="59.46425" lon="11.1350389" version="1" timestamp="2019-02-04T15:38:07Z" changeset="66907124" uid="633013" user="Honning">
		<tag k="name" v="Søllskauten" />
		<tag k="place" v="locality" />
		<tag k="ssr:stedsnr" v="325936" />
	</node>
	<node id="6258101308" lat="59.5026639" lon="11.1470111" version="1" timestamp="2019-02-04T15:38:07Z" changeset="66907124" uid="633013" user="Honning">
		<tag k="name" v="Holonemosen" />
		<tag k="place" v="farm" />
		<tag k="ssr:stedsnr" v="325971" />
	</node>
	<node id="6258101309" lat="59.4941" lon="11.1577" version="1" timestamp="2019-02-04T15:38:07Z" changeset="66907124" uid="633013" user="Honning">
		<tag k="name" v="Løstvet" />
		<tag k="place" v="farm" />
		<tag k="ssr:stedsnr" v="325980" />
	</node>
	<node id="6258101310" lat="59.45525" lon="11.1823056" version="1" timestamp="2019-02-04T15:38:07Z" changeset="66907124" uid="633013" user="Honning">
		<tag k="name" v="Hønstvet" />
		<tag k="place" v="farm" />
		<tag k="ssr:stedsnr" v="325996" />
	</node>
	<node id="6258101311" lat="59.4742889" lon="11.1592" version="1" timestamp="2019-02-04T15:38:07Z" changeset="66907124" uid="633013" user="Honning">
		<tag k="alt_name" v="Koffell søndre" />
		<tag k="name" v="Søndre Koffell" />
		<tag k="place" v="farm" />
		<tag k="ssr:stedsnr" v="325998" />
	</node>
	<node id="6258101312" lat="59.4189972" lon="11.1580778" version="1" timestamp="2019-02-04T15:38:07Z" changeset="66907124" uid="633013" user="Honning">
		<tag k="loc_name" v="Kjernsbekk" />
		<tag k="name" v="Tjernsbekk" />
		<tag k="place" v="farm" />
		<tag k="ssr:stedsnr" v="326718" />
	</node>
	<node id="6258101313" lat="59.4606306" lon="11.1026417" version="1" timestamp="2019-02-04T15:38:07Z" changeset="66907124" uid="633013" user="Honning">
		<tag k="historic" v="shieling" />
		<tag k="name" v="Holtet (nedl.)" />
		<tag k="place" v="locality" />
		<tag k="ssr:stedsnr" v="326963" />
	</node>
	<node id="6258101314" lat="59.5107167" lon="11.1973056" version="1" timestamp="2019-02-04T15:38:07Z" changeset="66907124" uid="633013" user="Honning">
		<tag k="name" v="Ødegården" />
		<tag k="place" v="farm" />
		<tag k="ssr:stedsnr" v="327098" />
	</node>
	<node id="6258101315" lat="59.47625" lon="11.1337472" version="1" timestamp="2019-02-04T15:38:07Z" changeset="66907124" uid="633013" user="Honning">
		<tag k="alt_name" v="Toenshytta" />
		<tag k="name" v="Tonshytta" />
		<tag k="place" v="farm" />
		<tag k="ssr:stedsnr" v="366043" />
	</node>
	<node id="6258101316" lat="59.4509278" lon="11.146825" version="1" timestamp="2019-02-04T15:38:07Z" changeset="66907124" uid="633013" user="Honning">
		<tag k="alt_name" v="Engen" />
		<tag k="name" v="Enga" />
		<tag k="place" v="farm" />
		<tag k="ssr:stedsnr" v="366226" />
	</node>
	<node id="6258101317" lat="59.45445" lon="11.14325" version="1" timestamp="2019-02-04T15:38:07Z" changeset="66907124" uid="633013" user="Honning">
		<tag k="name" v="Haga" />
		<tag k="place" v="farm" />
		<tag k="ssr:stedsnr" v="366228" />
	</node>
	<node id="6258101318" lat="59.497" lon="11.191925" version="1" timestamp="2019-02-04T15:38:07Z" changeset="66907124" uid="633013" user="Honning">
		<tag k="name" v="Vang" />
		<tag k="place" v="farm" />
		<tag k="ssr:stedsnr" v="367078" />
	</node>
	<node id="6258101319" lat="59.500425" lon="11.0851389" version="1" timestamp="2019-02-04T15:38:07Z" changeset="66907124" uid="633013" user="Honning">
		<tag k="name" v="Padal" />
		<tag k="place" v="farm" />
		<tag k="ssr:stedsnr" v="368042" />
	</node>
	<node id="6258101320" lat="59.5155528" lon="11.141125" version="1" timestamp="2019-02-04T15:38:07Z" changeset="66907124" uid="633013" user="Honning">
		<tag k="name" v="Stensrud" />
		<tag k="place" v="farm" />
		<tag k="ssr:stedsnr" v="368728" />
	</node>
	<node id="6258101321" lat="59.5308667" lon="11.1277833" version="1" timestamp="2019-02-04T15:38:07Z" changeset="66907124" uid="633013" user="Honning">
		<tag k="alt_name" v="Solberg søndre;Solberg" />
		<tag k="name" v="Søndre Solberg" />
		<tag k="place" v="farm" />
		<tag k="ssr:stedsnr" v="368766" />
	</node>
	<node id="6258101322" lat="59.5286556" lon="11.1457528" version="1" timestamp="2019-02-04T15:38:07Z" changeset="66907124" uid="633013" user="Honning">
		<tag k="name" v="Libru" />
		<tag k="place" v="farm" />
		<tag k="ssr:stedsnr" v="368768" />
	</node>
	<node id="6258101323" lat="59.5088778" lon="11.1690722" version="1" timestamp="2019-02-04T15:38:07Z" changeset="66907124" uid="633013" user="Honning">
		<tag k="alt_name" v="Aslaksrud søndre" />
		<tag k="name" v="Søndre Aslaksrud" />
		<tag k="place" v="farm" />
		<tag k="ssr:stedsnr" v="385844" />
	</node>
	<node id="6258101324" lat="59.4425889" lon="11.1726445" version="1" timestamp="2019-02-04T15:38:07Z" changeset="66907124" uid="633013" user="Honning">
		<tag k="name" v="Solbergdalen" />
		<tag k="place" v="farm" />
		<tag k="ssr:stedsnr" v="386494" />
	</node>
	<node id="6258101325" lat="59.4766361" lon="11.1895111" version="1" timestamp="2019-02-04T15:38:07Z" changeset="66907124" uid="633013" user="Honning">
		<tag k="name" v="Kleven" />
		<tag k="place" v="farm" />
		<tag k="ssr:stedsnr" v="386529" />
	</node>
	<node id="6258101326" lat="59.5251583" lon="11.1378639" version="1" timestamp="2019-02-04T15:38:08Z" changeset="66907124" uid="633013" user="Honning">
		<tag k="name" v="Hauger" />
		<tag k="place" v="farm" />
		<tag k="ssr:stedsnr" v="386845" />
	</node>
	<node id="6258101327" lat="59.5212889" lon="11.1569722" version="1" timestamp="2019-02-04T15:38:08Z" changeset="66907124" uid="633013" user="Honning">
		<tag k="name" v="Falkensten" />
		<tag k="place" v="farm" />
		<tag k="ssr:stedsnr" v="386848" />
	</node>
	<node id="6258101328" lat="59.5109111" lon="11.1931833" version="2" timestamp="2019-03-20T12:56:39Z" changeset="68334862" uid="1378395" user="Jon Harald Søby">
		<tag k="place" v="farm" />
		<tag k="ssr:stedsnr" v="387105" />
	</node>
	<node id="6258101329" lat="59.5356361" lon="11.1746972" version="1" timestamp="2019-02-04T15:38:08Z" changeset="66907124" uid="633013" user="Honning">
		<tag k="name" v="Trosvik" />
		<tag k="place" v="farm" />
		<tag k="ssr:stedsnr" v="387116" />
	</node>
	<node id="6258101330" lat="59.444375" lon="11.1573139" version="1" timestamp="2019-02-04T15:38:08Z" changeset="66907124" uid="633013" user="Honning">
		<tag k="alt_name" v="Berg nordre" />
		<tag k="name" v="Nordre Berg" />
		<tag k="place" v="farm" />
		<tag k="ssr:stedsnr" v="386943" />
	</node>
	<node id="6258101331" lat="59.456875" lon="11.0986111" version="1" timestamp="2019-02-04T15:38:08Z" changeset="66907124" uid="633013" user="Honning">
		<tag k="name" v="Bjørnland" />
		<tag k="place" v="locality" />
		<tag k="ssr:stedsnr" v="386946" />
	</node>
	<node id="6258101332" lat="59.4407167" lon="11.1400611" version="1" timestamp="2019-02-04T15:38:08Z" changeset="66907124" uid="633013" user="Honning">
		<tag k="name" v="Husengen" />
		<tag k="place" v="farm" />
		<tag k="ssr:stedsnr" v="386964" />
	</node>
	<node id="6258101333" lat="59.4956639" lon="11.1470528" version="1" timestamp="2019-02-04T15:38:08Z" changeset="66907124" uid="633013" user="Honning">
		<tag k="name" v="Åsen" />
		<tag k="place" v="farm" />
		<tag k="ssr:stedsnr" v="386979" />
	</node>
	<node id="6258101334" lat="59.4669528" lon="11.1546" version="1" timestamp="2019-02-04T15:38:08Z" changeset="66907124" uid="633013" user="Honning">
		<tag k="alt_name" v="Brekke" />
		<tag k="name" v="Brekka" />
		<tag k="place" v="farm" />
		<tag k="ssr:stedsnr" v="2030" />
	</node>
	<node id="6258101335" lat="59.4839083" lon="11.1111722" version="1" timestamp="2019-02-04T15:38:08Z" changeset="66907124" uid="633013" user="Honning">
		<tag k="alt_name" v="Haug nordre" />
		<tag k="name" v="Haug" />
		<tag k="place" v="farm" />
		<tag k="ssr:stedsnr" v="2052" />
	</node>
	<node id="6258101336" lat="59.4235167" lon="11.1559167" version="1" timestamp="2019-02-04T15:38:08Z" changeset="66907124" uid="633013" user="Honning">
		<tag k="loc_name" v="Kjernsbekk" />
		<tag k="name" v="Tjernsbekk" />
		<tag k="place" v="farm" />
		<tag k="ssr:stedsnr" v="2178" />
	</node>
	<node id="6258101337" lat="59.445775" lon="11.1677056" version="1" timestamp="2019-02-04T15:38:08Z" changeset="66907124" uid="633013" user="Honning">
		<tag k="name" v="Kransrud" />
		<tag k="place" v="farm" />
		<tag k="ssr:stedsnr" v="2196" />
	</node>
	<node id="6258101338" lat="59.46225" lon="11.16515" version="1" timestamp="2019-02-04T15:38:08Z" changeset="66907124" uid="633013" user="Honning">
		<tag k="name" v="Hol" />
		<tag k="place" v="farm" />
		<tag k="ssr:stedsnr" v="2219" />
	</node>
	<node id="6258101339" lat="59.4516" lon="11.1955306" version="1" timestamp="2019-02-04T15:38:08Z" changeset="66907124" uid="633013" user="Honning">
		<tag k="name" v="Borgen" />
		<tag k="place" v="farm" />
		<tag k="ssr:stedsnr" v="2252" />
	</node>
	<node id="6258101340" lat="59.395075" lon="11.154725" version="1" timestamp="2019-02-04T15:38:08Z" changeset="66907124" uid="633013" user="Honning">
		<tag k="alt_name" v="Åleskjær" />
		<tag k="name" v="Åleskjer" />
		<tag k="place" v="isolated_dwelling" />
		<tag k="ssr:stedsnr" v="2821" />
	</node>
	<node id="6258101341" lat="59.5121806" lon="11.209275" version="1" timestamp="2019-02-04T15:38:09Z" changeset="66907124" uid="633013" user="Honning">
		<tag k="name" v="Sundås" />
		<tag k="place" v="farm" />
		<tag k="ssr:stedsnr" v="4692" />
	</node>
	<node id="6258101342" lat="59.501825" lon="11.1916694" version="1" timestamp="2019-02-04T15:38:09Z" changeset="66907124" uid="633013" user="Honning">
		<tag k="name" v="Finsrud" />
		<tag k="place" v="farm" />
		<tag k="ssr:stedsnr" v="4712" />
	</node>
	<node id="6258101343" lat="59.5010778" lon="11.115325" version="1" timestamp="2019-02-04T15:38:09Z" changeset="66907124" uid="633013" user="Honning">
		<tag k="alt_name" v="Heistadengen" />
		<tag k="name" v="Heistadenga" />
		<tag k="place" v="farm" />
		<tag k="ssr:stedsnr" v="4722" />
	</node>
	<node id="6258101344" lat="59.5010389" lon="11.1038028" version="1" timestamp="2019-02-04T15:38:09Z" changeset="66907124" uid="633013" user="Honning">
		<tag k="name" v="Krok" />
		<tag k="place" v="farm" />
		<tag k="ssr:stedsnr" v="4724" />
	</node>
	<node id="6258101345" lat="59.5270139" lon="11.1744556" version="1" timestamp="2019-02-04T15:38:09Z" changeset="66907124" uid="633013" user="Honning">
		<tag k="name" v="Borger" />
		<tag k="place" v="farm" />
		<tag k="ssr:stedsnr" v="4744" />
	</node>
	<node id="6258101346" lat="59.5219556" lon="11.1646694" version="1" timestamp="2019-02-04T15:38:09Z" changeset="66907124" uid="633013" user="Honning">
		<tag k="name" v="Bakkerud" />
		<tag k="place" v="farm" />
		<tag k="ssr:stedsnr" v="4762" />
	</node>
	<node id="6258101347" lat="59.52355" lon="11.134325" version="1" timestamp="2019-02-04T15:38:09Z" changeset="66907124" uid="633013" user="Honning">
		<tag k="name" v="Hauger" />
		<tag k="place" v="farm" />
		<tag k="ssr:stedsnr" v="4768" />
	</node>
	<node id="6258101348" lat="59.4937" lon="11.23015" version="1" timestamp="2019-02-04T15:38:09Z" changeset="66907124" uid="633013" user="Honning">
		<tag k="name" v="Nes" />
		<tag k="place" v="farm" />
		<tag k="ssr:stedsnr" v="9814" />
	</node>
	<node id="6258101349" lat="59.504325" lon="11.2189917" version="1" timestamp="2019-02-04T15:38:09Z" changeset="66907124" uid="633013" user="Honning">
		<tag k="name" v="Haugen" />
		<tag k="place" v="farm" />
		<tag k="ssr:stedsnr" v="22487" />
	</node>
	<node id="6258101350" lat="59.4942333" lon="11.2206556" version="1" timestamp="2019-02-04T15:38:09Z" changeset="66907124" uid="633013" user="Honning">
		<tag k="name" v="Fosstangen" />
		<tag k="place" v="farm" />
		<tag k="ssr:stedsnr" v="22493" />
	</node>
	<node id="6258101351" lat="59.4427889" lon="11.18775" version="1" timestamp="2019-02-04T15:38:09Z" changeset="66907124" uid="633013" user="Honning">
		<tag k="name" v="Bråtenes" />
		<tag k="place" v="locality" />
		<tag k="ssr:stedsnr" v="22503" />
	</node>
	<node id="6258101352" lat="59.4290056" lon="11.1764694" version="1" timestamp="2019-02-04T15:38:09Z" changeset="66907124" uid="633013" user="Honning">
		<tag k="name" v="Gulliktangen" />
		<tag k="place" v="farm" />
		<tag k="ssr:stedsnr" v="22518" />
	</node>
	<node id="6258101353" lat="59.4757667" lon="11.2155222" version="1" timestamp="2019-02-04T15:38:09Z" changeset="66907124" uid="633013" user="Honning">
		<tag k="name" v="Skausbukta" />
		<tag k="place" v="farm" />
		<tag k="ssr:stedsnr" v="22564" />
	</node>
	<node id="6258101354" lat="59.4512528" lon="11.1291861" version="1" timestamp="2019-02-04T15:38:09Z" changeset="66907124" uid="633013" user="Honning">
		<tag k="name" v="Gjerstad" />
		<tag k="place" v="farm" />
		<tag k="ssr:stedsnr" v="22940" />
	</node>
	<node id="6258101355" lat="59.5044333" lon="11.0995417" version="1" timestamp="2019-02-04T15:38:09Z" changeset="66907124" uid="633013" user="Honning">
		<tag k="alt_name" v="Kvisler søndre" />
		<tag k="name" v="Søndre Kvisler" />
		<tag k="place" v="farm" />
		<tag k="ssr:stedsnr" v="22958" />
	</node>
	<node id="6258101356" lat="59.4857972" lon="11.0966083" version="1" timestamp="2019-02-04T15:38:09Z" changeset="66907124" uid="633013" user="Honning">
		<tag k="alt_name" v="Lund søndre" />
		<tag k="name" v="Søndre Lund" />
		<tag k="place" v="farm" />
		<tag k="ssr:stedsnr" v="22974" />
	</node>
	<node id="6258101357" lat="59.4961194" lon="11.1617056" version="1" timestamp="2019-02-04T15:38:09Z" changeset="66907124" uid="633013" user="Honning">
		<tag k="name" v="Hestengen" />
		<tag k="place" v="farm" />
		<tag k="ssr:stedsnr" v="22980" />
	</node>
	<node id="6258101358" lat="59.4889361" lon="11.0689139" version="1" timestamp="2019-02-04T15:38:09Z" changeset="66907124" uid="633013" user="Honning">
		<tag k="name" v="Hansemosen" />
		<tag k="place" v="locality" />
		<tag k="ssr:stedsnr" v="22985" />
	</node>
	<node id="6258101359" lat="59.4613028" lon="11.1997111" version="1" timestamp="2019-02-04T15:38:10Z" changeset="66907124" uid="633013" user="Honning">
		<tag k="name" v="Liverudhytta" />
		<tag k="place" v="farm" />
		<tag k="ssr:stedsnr" v="22992" />
	</node>
	<node id="6258101360" lat="59.4710417" lon="11.1490833" version="1" timestamp="2019-02-04T15:38:10Z" changeset="66907124" uid="633013" user="Honning">
		<tag k="alt_name" v="Toen østre" />
		<tag k="name" v="Østre Toen" />
		<tag k="place" v="farm" />
		<tag k="ssr:stedsnr" v="23000" />
	</node>
	<node id="6258101361" lat="59.5212778" lon="11.1938194" version="1" timestamp="2019-02-04T15:38:10Z" changeset="66907124" uid="633013" user="Honning">
		<tag k="name" v="Bua" />
		<tag k="place" v="farm" />
		<tag k="ssr:stedsnr" v="24073" />
	</node>
	<node id="6258101362" lat="59.4659" lon="11.1466" version="1" timestamp="2019-02-04T15:38:10Z" changeset="66907124" uid="633013" user="Honning">
		<tag k="name" v="Karterud" />
		<tag k="place" v="farm" />
		<tag k="ssr:stedsnr" v="63030" />
	</node>
	<node id="6258101363" lat="59.489125" lon="11.2242" version="1" timestamp="2019-02-04T15:38:10Z" changeset="66907124" uid="633013" user="Honning">
		<tag k="name" v="Gate" />
		<tag k="place" v="farm" />
		<tag k="ssr:stedsnr" v="63057" />
	</node>
	<node id="6258101364" lat="59.437275" lon="11.149075" version="1" timestamp="2019-02-04T15:38:10Z" changeset="66907124" uid="633013" user="Honning">
		<tag k="name" v="Berg" />
		<tag k="place" v="farm" />
		<tag k="ssr:stedsnr" v="63227" />
	</node>
	<node id="6258101365" lat="59.4514528" lon="11.1051167" version="1" timestamp="2019-02-04T15:38:10Z" changeset="66907124" uid="633013" user="Honning">
		<tag k="name" v="Kastdalen" />
		<tag k="place" v="isolated_dwelling" />
		<tag k="ssr:stedsnr" v="63254" />
	</node>
	<node id="6258101366" lat="59.450925" lon="11.19365" version="1" timestamp="2019-02-04T15:38:10Z" changeset="66907124" uid="633013" user="Honning">
		<tag k="name" v="Stuput" />
		<tag k="place" v="farm" />
		<tag k="ssr:stedsnr" v="63264" />
	</node>
	<node id="6258101367" lat="59.5135056" lon="11.1291111" version="1" timestamp="2019-02-04T15:38:10Z" changeset="66907124" uid="633013" user="Honning">
		<tag k="name" v="Jonsrud" />
		<tag k="place" v="farm" />
		<tag k="ssr:stedsnr" v="65709" />
	</node>
	<node id="6258101368" lat="59.5185444" lon="11.1673333" version="1" timestamp="2019-02-04T15:38:10Z" changeset="66907124" uid="633013" user="Honning">
		<tag k="name" v="Øst-Vister" />
		<tag k="place" v="farm" />
		<tag k="ssr:stedsnr" v="82856" />
	</node>
	<node id="6258101369" lat="59.5262194" lon="11.1360111" version="1" timestamp="2019-02-04T15:38:10Z" changeset="66907124" uid="633013" user="Honning">
		<tag k="alt_name" v="Jakobshaugen søndre" />
		<tag k="name" v="Søndre Jakobshaugen" />
		<tag k="place" v="farm" />
		<tag k="ssr:stedsnr" v="82872" />
	</node>
	<node id="6258101370" lat="59.5177083" lon="11.1352139" version="1" timestamp="2019-02-04T15:38:10Z" changeset="66907124" uid="633013" user="Honning">
		<tag k="alt_name" v="Taraldrud søndre" />
		<tag k="name" v="Søndre Taraldrud" />
		<tag k="place" v="farm" />
		<tag k="ssr:stedsnr" v="82873" />
	</node>
	<node id="6258101371" lat="59.5317167" lon="11.1634444" version="1" timestamp="2019-02-04T15:38:10Z" changeset="66907124" uid="633013" user="Honning">
		<tag k="name" v="Grønnlund" />
		<tag k="place" v="neighbourhood" />
		<tag k="ssr:stedsnr" v="82877" />
	</node>
	<node id="6258101372" lat="59.5260528" lon="11.1009306" version="1" timestamp="2019-02-04T15:38:10Z" changeset="66907124" uid="633013" user="Honning">
		<tag k="name" v="Leiken" />
		<tag k="place" v="locality" />
		<tag k="ssr:stedsnr" v="82882" />
	</node>
	<node id="6258101373" lat="59.5012611" lon="11.1807167" version="1" timestamp="2019-02-04T15:38:10Z" changeset="66907124" uid="633013" user="Honning">
		<tag k="name" v="Botner" />
		<tag k="place" v="farm" />
		<tag k="ssr:stedsnr" v="83491" />
	</node>
	<node id="6258101374" lat="59.4993833" lon="11.2107528" version="1" timestamp="2019-02-04T15:38:10Z" changeset="66907124" uid="633013" user="Honning">
		<tag k="name" v="Sørengen" />
		<tag k="place" v="farm" />
		<tag k="ssr:stedsnr" v="83494" />
	</node>
	<node id="6258101375" lat="59.4811667" lon="11.1973306" version="1" timestamp="2019-02-04T15:38:10Z" changeset="66907124" uid="633013" user="Honning">
		<tag k="name" v="Frorudtangen" />
		<tag k="place" v="farm" />
		<tag k="ssr:stedsnr" v="83531" />
	</node>
	<node id="6258101376" lat="59.5182139" lon="11.2098667" version="1" timestamp="2019-02-04T15:38:10Z" changeset="66907124" uid="633013" user="Honning">
		<tag k="name" v="Høgåstangen" />
		<tag k="place" v="farm" />
		<tag k="ssr:stedsnr" v="84111" />
	</node>
	<node id="6258101377" lat="59.4049278" lon="11.1748778" version="1" timestamp="2019-02-04T15:38:10Z" changeset="66907124" uid="633013" user="Honning">
		<tag k="name" v="Glenne" />
		<tag k="place" v="farm" />
		<tag k="ssr:stedsnr" v="83722" />
	</node>
	<node id="6258101378" lat="59.4510361" lon="11.128875" version="1" timestamp="2019-02-04T15:38:11Z" changeset="66907124" uid="633013" user="Honning">
		<tag k="name" v="Gjerstad" />
		<tag k="place" v="farm" />
		<tag k="ssr:stedsnr" v="83939" />
	</node>
	<node id="6258101379" lat="59.4620472" lon="11.1647083" version="1" timestamp="2019-02-04T15:38:11Z" changeset="66907124" uid="633013" user="Honning">
		<tag k="alt_name" v="Hol vestre" />
		<tag k="name" v="Vestre Hol" />
		<tag k="place" v="farm" />
		<tag k="ssr:stedsnr" v="83946" />
	</node>
	<node id="6258101380" lat="59.5074833" lon="11.0946944" version="1" timestamp="2019-02-04T15:38:11Z" changeset="66907124" uid="633013" user="Honning">
		<tag k="name" v="Kauterud" />
		<tag k="place" v="farm" />
		<tag k="ssr:stedsnr" v="83956" />
	</node>
	<node id="6258101381" lat="59.4816167" lon="11.0954417" version="1" timestamp="2019-02-04T15:38:11Z" changeset="66907124" uid="633013" user="Honning">
		<tag k="name" v="Lunder" />
		<tag k="place" v="farm" />
		<tag k="ssr:stedsnr" v="83974" />
	</node>
	<node id="6258101382" lat="59.4625556" lon="11.178675" version="1" timestamp="2019-02-04T15:38:11Z" changeset="66907124" uid="633013" user="Honning">
		<tag k="name" v="Lambruhagen" />
		<tag k="place" v="locality" />
		<tag k="ssr:stedsnr" v="83995" />
	</node>
	<node id="6258101383" lat="59.4530028" lon="11.130975" version="1" timestamp="2019-02-04T15:38:11Z" changeset="66907124" uid="633013" user="Honning">
		<tag k="name" v="Skauge" />
		<tag k="place" v="farm" />
		<tag k="ssr:stedsnr" v="123266" />
	</node>
	<node id="6258101384" lat="59.495475" lon="11.148775" version="1" timestamp="2019-02-04T15:38:11Z" changeset="66907124" uid="633013" user="Honning">
		<tag k="alt_name" v="Tveter vestre" />
		<tag k="name" v="Tveiter" />
		<tag k="place" v="farm" />
		<tag k="ssr:stedsnr" v="124088" />
	</node>
	<node id="6258101885" lat="59.491" lon="11.1608555" version="1" timestamp="2019-02-04T15:38:11Z" changeset="66907124" uid="633013" user="Honning">
		<tag k="alt_name" v="Løstvet" />
		<tag k="name" v="Lystvet" />
		<tag k="place" v="farm" />
		<tag k="ssr:stedsnr" v="124089" />
	</node>
	<node id="6258101886" lat="59.43165" lon="11.1780972" version="1" timestamp="2019-02-04T15:38:11Z" changeset="66907124" uid="633013" user="Honning">
		<tag k="alt_name" v="Gamlebru" />
		<tag k="name" v="Bru" />
		<tag k="place" v="farm" />
		<tag k="ssr:stedsnr" v="124174" />
	</node>
	<node id="6258101887" lat="59.5183778" lon="11.1643694" version="1" timestamp="2019-02-04T15:38:11Z" changeset="66907124" uid="633013" user="Honning">
		<tag k="name" v="Vister" />
		<tag k="place" v="farm" />
		<tag k="ssr:stedsnr" v="125757" />
	</node>
	<node id="6258101888" lat="59.5136194" lon="11.128575" version="1" timestamp="2019-02-04T15:38:11Z" changeset="66907124" uid="633013" user="Honning">
		<tag k="name" v="Myrer" />
		<tag k="place" v="farm" />
		<tag k="ssr:stedsnr" v="125712" />
	</node>
	<node id="6258101889" lat="59.5068556" lon="11.2124778" version="1" timestamp="2019-02-04T15:38:11Z" changeset="66907124" uid="633013" user="Honning">
		<tag k="alt_name" v="Kirkengen" />
		<tag k="name" v="Kirkeng" />
		<tag k="place" v="farm" />
		<tag k="ssr:stedsnr" v="125723" />
	</node>
	<node id="6258101890" lat="59.5355833" lon="11.1805278" version="1" timestamp="2019-02-04T15:38:11Z" changeset="66907124" uid="633013" user="Honning">
		<tag k="alt_name" v="Vamnes;Vammenes østre" />
		<tag k="name" v="Vammenes" />
		<tag k="place" v="farm" />
		<tag k="ssr:stedsnr" v="125741" />
	</node>
	<node id="6258101891" lat="59.5283361" lon="11.1871833" version="1" timestamp="2019-02-04T15:38:11Z" changeset="66907124" uid="633013" user="Honning">
		<tag k="name" v="Staås" />
		<tag k="place" v="farm" />
		<tag k="ssr:stedsnr" v="125742" />
	</node>
	<node id="6258101892" lat="59.5343417" lon="11.1391833" version="1" timestamp="2019-02-04T15:38:11Z" changeset="66907124" uid="633013" user="Honning">
		<tag k="name" v="Langli" />
		<tag k="place" v="farm" />
		<tag k="ssr:stedsnr" v="125746" />
	</node>
	<node id="6258101893" lat="59.5319528" lon="11.1544528" version="1" timestamp="2019-02-04T15:38:11Z" changeset="66907124" uid="633013" user="Honning">
		<tag k="name" v="Kjos" />
		<tag k="place" v="hamlet" />
		<tag k="ssr:stedsnr" v="125747" />
	</node>
	<node id="6258101894" lat="59.5144639" lon="11.1671611" version="1" timestamp="2019-02-04T15:38:11Z" changeset="66907124" uid="633013" user="Honning">
		<tag k="name" v="Sør Vister" />
		<tag k="place" v="farm" />
		<tag k="ssr:stedsnr" v="143827" />
	</node>
	<node id="6258101895" lat="59.5161472" lon="11.1572444" version="1" timestamp="2019-02-04T15:38:11Z" changeset="66907124" uid="633013" user="Honning">
		<tag k="alt_name" v="Vister vestre" />
		<tag k="name" v="Vestre Vister" />
		<tag k="place" v="farm" />
		<tag k="ssr:stedsnr" v="143826" />
	</node>
	<node id="6258101896" lat="59.5197944" lon="11.1316167" version="1" timestamp="2019-02-04T15:38:12Z" changeset="66907124" uid="633013" user="Honning">
		<tag k="alt_name" v="Taraldrud nordre" />
		<tag k="name" v="Nordre Taraldrud" />
		<tag k="place" v="farm" />
		<tag k="ssr:stedsnr" v="143834" />
	</node>
	<node id="6258101897" lat="59.4503417" lon="11.1089917" version="1" timestamp="2019-02-04T15:38:12Z" changeset="66907124" uid="633013" user="Honning">
		<tag k="name" v="Høybråten" />
		<tag k="place" v="locality" />
		<tag k="ssr:stedsnr" v="143937" />
	</node>
	<node id="6258101898" lat="59.4964806" lon="11.0845528" version="1" timestamp="2019-02-04T15:38:12Z" changeset="66907124" uid="633013" user="Honning">
		<tag k="name" v="Holm" />
		<tag k="place" v="farm" />
		<tag k="ssr:stedsnr" v="143943" />
	</node>
	<node id="6258101899" lat="59.4806917" lon="11.1124528" version="1" timestamp="2019-02-04T15:38:12Z" changeset="66907124" uid="633013" user="Honning">
		<tag k="alt_name" v="Målen vestre" />
		<tag k="name" v="Vestre Målen" />
		<tag k="place" v="farm" />
		<tag k="ssr:stedsnr" v="143970" />
	</node>
	<node id="6258101900" lat="59.4829833" lon="11.164" version="1" timestamp="2019-02-04T15:38:12Z" changeset="66907124" uid="633013" user="Honning">
		<tag k="name" v="Skjeltorp" />
		<tag k="place" v="farm" />
		<tag k="ssr:stedsnr" v="143973" />
	</node>
	<node id="6258101901" lat="59.4833944" lon="11.0961472" version="1" timestamp="2019-02-04T15:38:12Z" changeset="66907124" uid="633013" user="Honning">
		<tag k="name" v="Østli" />
		<tag k="place" v="farm" />
		<tag k="ssr:stedsnr" v="143976" />
	</node>
	<node id="6258101902" lat="59.48055" lon="11.1430611" version="1" timestamp="2019-02-04T15:38:12Z" changeset="66907124" uid="633013" user="Honning">
		<tag k="name" v="Fjellshagen" />
		<tag k="place" v="locality" />
		<tag k="ssr:stedsnr" v="143997" />
	</node>
	<node id="6258101903" lat="59.5164778" lon="11.2029667" version="1" timestamp="2019-02-04T15:38:12Z" changeset="66907124" uid="633013" user="Honning">
		<tag k="name" v="Kjellås" />
		<tag k="place" v="farm" />
		<tag k="ssr:stedsnr" v="145074" />
	</node>
	<node id="6258101904" lat="59.5089056" lon="11.2066778" version="1" timestamp="2019-02-04T15:38:12Z" changeset="66907124" uid="633013" user="Honning">
		<tag k="name" v="Lilleng" />
		<tag k="place" v="farm" />
		<tag k="ssr:stedsnr" v="145078" />
	</node>
	<node id="6258101905" lat="59.47185" lon="11.1418556" version="1" timestamp="2019-02-04T15:38:12Z" changeset="66907124" uid="633013" user="Honning">
		<tag k="name" v="Toen" />
		<tag k="place" v="farm" />
		<tag k="ssr:stedsnr" v="184019" />
	</node>
	<node id="6258101906" lat="59.4330806" lon="11.153375" version="1" timestamp="2019-02-04T15:38:12Z" changeset="66907124" uid="633013" user="Honning">
		<tag k="name" v="Bingen" />
		<tag k="place" v="farm" />
		<tag k="ssr:stedsnr" v="185192" />
	</node>
	<node id="6258101907" lat="59.4340306" lon="11.1879556" version="1" timestamp="2019-02-04T15:38:12Z" changeset="66907124" uid="633013" user="Honning">
		<tag k="alt_name" v="Glåmvik" />
		<tag k="name" v="Glomvik" />
		<tag k="place" v="farm" />
		<tag k="ssr:stedsnr" v="185194" />
	</node>
	<node id="6258101908" lat="59.4892167" lon="11.07735" version="1" timestamp="2019-02-04T15:38:12Z" changeset="66907124" uid="633013" user="Honning">
		<tag k="alt_name" v="Bjørnrud" />
		<tag k="name" v="Bjørnerud" />
		<tag k="place" v="locality" />
		<tag k="ssr:stedsnr" v="185652" />
	</node>
	<node id="6258101909" lat="59.495275" lon="11.0815528" version="1" timestamp="2019-02-04T15:38:12Z" changeset="66907124" uid="633013" user="Honning">
		<tag k="name" v="Holm" />
		<tag k="place" v="farm" />
		<tag k="ssr:stedsnr" v="185633" />
	</node>
	<node id="6258101910" lat="59.49885" lon="11.0875556" version="1" timestamp="2019-02-04T15:38:12Z" changeset="66907124" uid="633013" user="Honning">
		<tag k="name" v="Padal" />
		<tag k="place" v="farm" />
		<tag k="ssr:stedsnr" v="185638" />
	</node>
	<node id="6258101911" lat="59.5009083" lon="11.1428972" version="1" timestamp="2019-02-04T15:38:12Z" changeset="66907124" uid="633013" user="Honning">
		<tag k="name" v="Holone" />
		<tag k="place" v="farm" />
		<tag k="ssr:stedsnr" v="186737" />
	</node>
	<node id="6258101912" lat="59.4326333" lon="11.1859167" version="1" timestamp="2019-02-04T15:38:12Z" changeset="66907124" uid="633013" user="Honning">
		<tag k="name" v="Ulvetangen" />
		<tag k="place" v="farm" />
		<tag k="ssr:stedsnr" v="204463" />
	</node>
	<node id="6258101913" lat="59.4311833" lon="11.171825" version="1" timestamp="2019-02-04T15:38:12Z" changeset="66907124" uid="633013" user="Honning">
		<tag k="name" v="Tangen" />
		<tag k="place" v="farm" />
		<tag k="ssr:stedsnr" v="204465" />
	</node>
	<node id="6258101914" lat="59.5176194" lon="11.146225" version="1" timestamp="2019-02-04T15:38:12Z" changeset="66907124" uid="633013" user="Honning">
		<tag k="name" v="Burås" />
		<tag k="place" v="farm" />
		<tag k="ssr:stedsnr" v="204837" />
	</node>
	<node id="6258101915" lat="59.5310028" lon="11.13395" version="1" timestamp="2019-02-04T15:38:13Z" changeset="66907124" uid="633013" user="Honning">
		<tag k="name" v="Solberg" />
		<tag k="place" v="farm" />
		<tag k="ssr:stedsnr" v="204850" />
	</node>
	<node id="6258101916" lat="59.5232278" lon="11.1044167" version="1" timestamp="2019-02-04T15:38:13Z" changeset="66907124" uid="633013" user="Honning">
		<tag k="name" v="Jeriko" />
		<tag k="place" v="locality" />
		<tag k="ssr:stedsnr" v="204852" />
	</node>
	<node id="6258101917" lat="59.4490583" lon="11.1283667" version="1" timestamp="2019-02-04T15:38:13Z" changeset="66907124" uid="633013" user="Honning">
		<tag k="name" v="Gjerstad" />
		<tag k="place" v="farm" />
		<tag k="ssr:stedsnr" v="204945" />
	</node>
	<node id="6258101918" lat="59.4597361" lon="11.1398056" version="1" timestamp="2019-02-04T15:38:13Z" changeset="66907124" uid="633013" user="Honning">
		<tag k="alt_name" v="Sperstad nordre" />
		<tag k="name" v="Nordre Sperstad" />
		<tag k="place" v="farm" />
		<tag k="ssr:stedsnr" v="204952" />
	</node>
	<node id="6258101919" lat="59.4992917" lon="11.1092083" version="1" timestamp="2019-02-04T15:38:13Z" changeset="66907124" uid="633013" user="Honning">
		<tag k="alt_name" v="Heistad nordre" />
		<tag k="name" v="Nordre Heistad" />
		<tag k="place" v="farm" />
		<tag k="ssr:stedsnr" v="204957" />
	</node>
	<node id="6258101920" lat="59.4921944" lon="11.1047639" version="1" timestamp="2019-02-04T15:38:13Z" changeset="66907124" uid="633013" user="Honning">
		<tag k="name" v="Strand" />
		<tag k="place" v="farm" />
		<tag k="ssr:stedsnr" v="204959" />
	</node>
	<node id="6258101921" lat="59.423525" lon="11.1652806" version="1" timestamp="2019-02-04T15:38:13Z" changeset="66907124" uid="633013" user="Honning">
		<tag k="name" v="Bjørkedalen" />
		<tag k="place" v="isolated_dwelling" />
		<tag k="ssr:stedsnr" v="204965" />
	</node>
	<node id="6258101922" lat="59.4865" lon="11.0992583" version="1" timestamp="2019-02-04T15:38:13Z" changeset="66907124" uid="633013" user="Honning">
		<tag k="alt_name" v="Lund nordre" />
		<tag k="name" v="Nordre Lund" />
		<tag k="place" v="farm" />
		<tag k="ssr:stedsnr" v="204983" />
	</node>
	<node id="6258101923" lat="59.4671667" lon="11.1644806" version="1" timestamp="2019-02-04T15:38:13Z" changeset="66907124" uid="633013" user="Honning">
		<tag k="name" v="Voll" />
		<tag k="place" v="farm" />
		<tag k="ssr:stedsnr" v="204994" />
	</node>
	<node id="6258101924" lat="59.4761333" lon="11.1648611" version="1" timestamp="2019-02-04T15:38:13Z" changeset="66907124" uid="633013" user="Honning">
		<tag k="name" v="Vestgård" />
		<tag k="place" v="farm" />
		<tag k="ssr:stedsnr" v="204998" />
	</node>
	<node id="6258101925" lat="59.5015861" lon="11.170875" version="1" timestamp="2019-02-04T15:38:13Z" changeset="66907124" uid="633013" user="Honning">
		<tag k="name" v="Aslaksrud" />
		<tag k="place" v="farm" />
		<tag k="ssr:stedsnr" v="247691" />
	</node>
	<node id="6258101926" lat="59.5074" lon="11.1607694" version="1" timestamp="2019-02-04T15:38:13Z" changeset="66907124" uid="633013" user="Honning">
		<tag k="alt_name" v="Åserud" />
		<tag k="name" v="Åsrud" />
		<tag k="place" v="farm" />
		<tag k="ssr:stedsnr" v="247692" />
	</node>
	<node id="6258101927" lat="59.5014694" lon="11.16435" version="1" timestamp="2019-02-04T15:38:13Z" changeset="66907124" uid="633013" user="Honning">
		<tag k="name" v="Roås" />
		<tag k="place" v="farm" />
		<tag k="ssr:stedsnr" v="247694" />
	</node>
	<node id="6258101928" lat="59.5189333" lon="11.196775" version="1" timestamp="2019-02-04T15:38:13Z" changeset="66907124" uid="633013" user="Honning">
		<tag k="name" v="Børud" />
		<tag k="place" v="farm" />
		<tag k="ssr:stedsnr" v="247734" />
	</node>
	<node id="6258101929" lat="59.5169583" lon="11.1676056" version="1" timestamp="2019-02-04T15:38:13Z" changeset="66907124" uid="633013" user="Honning">
		<tag k="alt_name" v="Vister østre" />
		<tag k="name" v="Østre Vister" />
		<tag k="place" v="farm" />
		<tag k="ssr:stedsnr" v="264845" />
	</node>
	<node id="6258101930" lat="59.5200139" lon="11.0870833" version="1" timestamp="2019-02-04T15:38:13Z" changeset="66907124" uid="633013" user="Honning">
		<tag k="name" v="Jyllandhytta" />
		<tag k="place" v="isolated_dwelling" />
		<tag k="ssr:stedsnr" v="264860" />
	</node>
	<node id="6258101931" lat="59.5409694" lon="11.13355" version="1" timestamp="2019-02-04T15:38:13Z" changeset="66907124" uid="633013" user="Honning">
		<tag k="alt_name" v="Svae nordre" />
		<tag k="name" v="Nordre Svae" />
		<tag k="place" v="farm" />
		<tag k="ssr:stedsnr" v="264866" />
	</node>
	<node id="6258101932" lat="59.4988361" lon="11.2234583" version="1" timestamp="2019-02-04T15:38:13Z" changeset="66907124" uid="633013" user="Honning">
		<tag k="name" v="Langnes" />
		<tag k="place" v="farm" />
		<tag k="ssr:stedsnr" v="265523" />
	</node>
	<node id="6258101933" lat="59.4739361" lon="11.2015083" version="1" timestamp="2019-02-04T15:38:14Z" changeset="66907124" uid="633013" user="Honning">
		<tag k="name" v="Engsaga" />
		<tag k="place" v="farm" />
		<tag k="ssr:stedsnr" v="265572" />
	</node>
	<node id="6258101934" lat="59.4020333" lon="11.1670417" version="1" timestamp="2019-02-04T15:38:14Z" changeset="66907124" uid="633013" user="Honning">
		<tag k="name" v="Skår" />
		<tag k="place" v="farm" />
		<tag k="ssr:stedsnr" v="265742" />
	</node>
	<node id="6258101935" lat="59.4957833" lon="11.1090944" version="1" timestamp="2019-02-04T15:38:14Z" changeset="66907124" uid="633013" user="Honning">
		<tag k="alt_name" v="Heistad søndre" />
		<tag k="name" v="Søndre Heistad" />
		<tag k="place" v="farm" />
		<tag k="ssr:stedsnr" v="265962" />
	</node>
	<node id="6258101936" lat="59.4415194" lon="11.1649139" version="1" timestamp="2019-02-04T15:38:14Z" changeset="66907124" uid="633013" user="Honning">
		<tag k="name" v="Nord-Vidnes" />
		<tag k="place" v="farm" />
		<tag k="ssr:stedsnr" v="265968" />
	</node>
	<node id="6258101937" lat="59.4842306" lon="11.1165306" version="1" timestamp="2019-02-04T15:38:14Z" changeset="66907124" uid="633013" user="Honning">
		<tag k="alt_name" v="Målen østre" />
		<tag k="name" v="Østre Målen" />
		<tag k="place" v="farm" />
		<tag k="ssr:stedsnr" v="265973" />
	</node>
	<node id="6258101938" lat="59.5057444" lon="11.12645" version="1" timestamp="2019-02-04T15:38:14Z" changeset="66907124" uid="633013" user="Honning">
		<tag k="name" v="Runnemyr" />
		<tag k="place" v="locality" />
		<tag k="ssr:stedsnr" v="265980" />
	</node>
	<node id="6258101939" lat="59.4502556" lon="11.1851694" version="1" timestamp="2019-02-04T15:38:14Z" changeset="66907124" uid="633013" user="Honning">
		<tag k="name" v="Bråteneshytta" />
		<tag k="place" v="farm" />
		<tag k="ssr:stedsnr" v="265987" />
	</node>
	<node id="6258101940" lat="59.4608333" lon="11.1831667" version="1" timestamp="2019-02-04T15:38:14Z" changeset="66907124" uid="633013" user="Honning">
		<tag k="name" v="Hønstvet" />
		<tag k="place" v="farm" />
		<tag k="ssr:stedsnr" v="265994" />
	</node>
	<node id="6258101941" lat="59.4807972" lon="11.1525305" version="1" timestamp="2019-02-04T15:38:14Z" changeset="66907124" uid="633013" user="Honning">
		<tag k="alt_name" v="Skjelle søndre" />
		<tag k="name" v="Søndre Skjelle" />
		<tag k="place" v="farm" />
		<tag k="ssr:stedsnr" v="265996" />
	</node>
	<node id="6258101942" lat="59.5082111" lon="11.2111028" version="1" timestamp="2019-02-04T15:38:14Z" changeset="66907124" uid="633013" user="Honning">
		<tag k="name" v="Sommerrud" />
		<tag k="place" v="farm" />
		<tag k="ssr:stedsnr" v="266091" />
	</node>
	<node id="6258101943" lat="59.4726278" lon="11.1622972" version="1" timestamp="2019-02-04T15:38:14Z" changeset="66907124" uid="633013" user="Honning">
		<tag k="name" v="Finland" />
		<tag k="place" v="farm" />
		<tag k="ssr:stedsnr" v="427025" />
	</node>
	<node id="6258101944" lat="59.4753083" lon="11.1618833" version="1" timestamp="2019-02-04T15:38:14Z" changeset="66907124" uid="633013" user="Honning">
		<tag k="name" v="Holstad" />
		<tag k="place" v="farm" />
		<tag k="ssr:stedsnr" v="427027" />
	</node>
	<node id="6258101945" lat="59.491675" lon="11.119825" version="1" timestamp="2019-02-04T15:38:14Z" changeset="66907124" uid="633013" user="Honning">
		<tag k="name" v="Heistad" />
		<tag k="place" v="farm" />
		<tag k="ssr:stedsnr" v="427040" />
	</node>
	<node id="6258101946" lat="59.49015" lon="11.1961972" version="1" timestamp="2019-02-04T15:38:14Z" changeset="66907124" uid="633013" user="Honning">
		<tag k="name" v="Frorud" />
		<tag k="place" v="farm" />
		<tag k="ssr:stedsnr" v="427044" />
	</node>
	<node id="6258101947" lat="59.47545" lon="11.1821972" version="1" timestamp="2019-02-04T15:38:14Z" changeset="66907124" uid="633013" user="Honning">
		<tag k="alt_name" v="Kassem" />
		<tag k="name" v="Kassum" />
		<tag k="place" v="farm" />
		<tag k="ssr:stedsnr" v="427054" />
	</node>
	<node id="6258101948" lat="59.425625" lon="11.1363055" version="1" timestamp="2019-02-04T15:38:14Z" changeset="66907124" uid="633013" user="Honning">
		<tag k="name" v="Bråten" />
		<tag k="place" v="farm" />
		<tag k="ssr:stedsnr" v="427193" />
	</node>
	<node id="6258101949" lat="59.50245" lon="11.0864" version="1" timestamp="2019-02-04T15:38:14Z" changeset="66907124" uid="633013" user="Honning">
		<tag k="name" v="Hagen" />
		<tag k="place" v="farm" />
		<tag k="ssr:stedsnr" v="428076" />
	</node>
	<node id="6258101950" lat="59.49805" lon="11.2232472" version="1" timestamp="2019-02-04T15:38:14Z" changeset="66907124" uid="633013" user="Honning">
		<tag k="alt_name" v="Nordnes" />
		<tag k="name" v="Nes" />
		<tag k="place" v="farm" />
		<tag k="ssr:stedsnr" v="428085" />
	</node>
	<node id="6258101951" lat="59.4981361" lon="11.0841167" version="1" timestamp="2019-02-04T15:38:15Z" changeset="66907124" uid="633013" user="Honning">
		<tag k="name" v="Teppa" />
		<tag k="place" v="farm" />
		<tag k="ssr:stedsnr" v="428649" />
	</node>
	<node id="6258101952" lat="59.5060944" lon="11.1000361" version="1" timestamp="2019-02-04T15:38:15Z" changeset="66907124" uid="633013" user="Honning">
		<tag k="name" v="Kvisler" />
		<tag k="place" v="farm" />
		<tag k="ssr:stedsnr" v="429704" />
	</node>
	<node id="6258101953" lat="59.4974167" lon="11.1955528" version="1" timestamp="2019-02-04T15:38:15Z" changeset="66907124" uid="633013" user="Honning">
		<tag k="name" v="Solvang" />
		<tag k="place" v="farm" />
		<tag k="ssr:stedsnr" v="447482" />
	</node>
	<node id="6258101954" lat="59.4426944" lon="11.1951639" version="1" timestamp="2019-02-04T15:38:15Z" changeset="66907124" uid="633013" user="Honning">
		<tag k="name" v="Bråtenes" />
		<tag k="place" v="farm" />
		<tag k="ssr:stedsnr" v="447491" />
	</node>
	<node id="6258101955" lat="59.4733417" lon="11.2104667" version="1" timestamp="2019-02-04T15:38:15Z" changeset="66907124" uid="633013" user="Honning">
		<tag k="alt_name" v="Eng søndre" />
		<tag k="name" v="Søndre Eng" />
		<tag k="place" v="farm" />
		<tag k="ssr:stedsnr" v="447516" />
	</node>
	<node id="6258101956" lat="59.476875" lon="11.1731083" version="1" timestamp="2019-02-04T15:38:15Z" changeset="66907124" uid="633013" user="Honning">
		<tag k="alt_name" v="Kalsrud" />
		<tag k="name" v="Karlsrud" />
		<tag k="place" v="farm" />
		<tag k="ssr:stedsnr" v="447526" />
	</node>
	<node id="6258101957" lat="59.5133389" lon="11.1361556" version="1" timestamp="2019-02-04T15:38:15Z" changeset="66907124" uid="633013" user="Honning">
		<tag k="name" v="Bakke" />
		<tag k="place" v="farm" />
		<tag k="ssr:stedsnr" v="447832" />
	</node>
	<node id="6258101958" lat="59.5341" lon="11.1392806" version="1" timestamp="2019-02-04T15:38:15Z" changeset="66907124" uid="633013" user="Honning">
		<tag k="alt_name" v="Langli søndre" />
		<tag k="name" v="Søndre Langli" />
		<tag k="place" v="farm" />
		<tag k="ssr:stedsnr" v="447846" />
	</node>
	<node id="6258101959" lat="59.4588056" lon="11.1375111" version="1" timestamp="2019-02-04T15:38:15Z" changeset="66907124" uid="633013" user="Honning">
		<tag k="alt_name" v="Sperstad søndre" />
		<tag k="name" v="Søndre Sperstad" />
		<tag k="place" v="farm" />
		<tag k="ssr:stedsnr" v="447930" />
	</node>
	<node id="6258101960" lat="59.4517194" lon="11.1040167" version="1" timestamp="2019-02-04T15:38:15Z" changeset="66907124" uid="633013" user="Honning">
		<tag k="name" v="Hasledalen" />
		<tag k="place" v="locality" />
		<tag k="ssr:stedsnr" v="447940" />
	</node>
	<node id="6258101961" lat="59.5011194" lon="11.0979028" version="1" timestamp="2019-02-04T15:38:15Z" changeset="66907124" uid="633013" user="Honning">
		<tag k="name" v="Kolstad" />
		<tag k="place" v="farm" />
		<tag k="ssr:stedsnr" v="447943" />
	</node>
	<node id="6258101962" lat="59.446025" lon="11.1749417" version="1" timestamp="2019-02-04T15:38:15Z" changeset="66907124" uid="633013" user="Honning">
		<tag k="name" v="Lystadbråten" />
		<tag k="place" v="farm" />
		<tag k="ssr:stedsnr" v="447984" />
	</node>
	<node id="6258101963" lat="59.5396583" lon="11.1769361" version="1" timestamp="2019-02-04T15:38:15Z" changeset="66907124" uid="633013" user="Honning">
		<tag k="name" v="Kullebunn" />
		<tag k="place" v="farm" />
		<tag k="ssr:stedsnr" v="449085" />
	</node>
	<node id="6258101964" lat="59.4639972" lon="11.1223417" version="1" timestamp="2019-02-04T15:38:15Z" changeset="66907124" uid="633013" user="Honning">
		<tag k="name" v="Berg" />
		<tag k="place" v="farm" />
		<tag k="ssr:stedsnr" v="487005" />
	</node>
	<node id="6258101965" lat="59.471725" lon="11.1759833" version="1" timestamp="2019-02-04T15:38:15Z" changeset="66907124" uid="633013" user="Honning">
		<tag k="alt_name" v="Kartsrud;Kalsrud" />
		<tag k="name" v="Karlsrud" />
		<tag k="place" v="farm" />
		<tag k="ssr:stedsnr" v="487017" />
	</node>
	<node id="6258101966" lat="59.4868" lon="11.18275" version="1" timestamp="2019-02-04T15:38:15Z" changeset="66907124" uid="633013" user="Honning">
		<tag k="alt_name" v="Tveter" />
		<tag k="name" v="Tveiter" />
		<tag k="place" v="farm" />
		<tag k="ssr:stedsnr" v="487032" />
	</node>
	<node id="6258101967" lat="59.45725" lon="11.1532306" version="1" timestamp="2019-02-04T15:38:15Z" changeset="66907124" uid="633013" user="Honning">
		<tag k="alt_name" v="Åby (Bjunerhytta)" />
		<tag k="name" v="Åby" />
		<tag k="place" v="farm" />
		<tag k="ssr:stedsnr" v="487223" />
	</node>
	<node id="6258101968" lat="59.4831556" lon="11.104525" version="1" timestamp="2019-02-04T15:38:15Z" changeset="66907124" uid="633013" user="Honning">
		<tag k="name" v="Dyrbekk" />
		<tag k="place" v="farm" />
		<tag k="ssr:stedsnr" v="488055" />
	</node>
	<node id="6258101969" lat="59.483675" lon="11.129275" version="1" timestamp="2019-02-04T15:38:16Z" changeset="66907124" uid="633013" user="Honning">
		<tag k="alt_name" v="Haughytta" />
		<tag k="name" v="Haug" />
		<tag k="place" v="farm" />
		<tag k="ssr:stedsnr" v="488056" />
	</node>
	<node id="6258101970" lat="59.4764806" lon="11.2013667" version="1" timestamp="2019-02-04T15:38:16Z" changeset="66907124" uid="633013" user="Honning">
		<tag k="alt_name" v="Eng vestre" />
		<tag k="name" v="Vestereng" />
		<tag k="place" v="farm" />
		<tag k="ssr:stedsnr" v="488058" />
	</node>
	<node id="6258101971" lat="59.44595" lon="11.1222389" version="1" timestamp="2019-02-04T15:38:16Z" changeset="66907124" uid="633013" user="Honning">
		<tag k="name" v="Gjerstad" />
		<tag k="place" v="farm" />
		<tag k="ssr:stedsnr" v="488159" />
	</node>
	<node id="6258101972" lat="59.4447" lon="11.1569306" version="1" timestamp="2019-02-04T15:38:16Z" changeset="66907124" uid="633013" user="Honning">
		<tag k="name" v="Berg" />
		<tag k="place" v="farm" />
		<tag k="ssr:stedsnr" v="488170" />
	</node>
	<node id="6258101973" lat="59.5436111" lon="11.1308889" version="1" timestamp="2019-02-04T15:38:16Z" changeset="66907124" uid="633013" user="Honning">
		<tag k="name" v="Holm" />
		<tag k="place" v="farm" />
		<tag k="ssr:stedsnr" v="489534" />
	</node>
	<node id="6258101974" lat="59.5178" lon="11.135025" version="1" timestamp="2019-02-04T15:38:16Z" changeset="66907124" uid="633013" user="Honning">
		<tag k="name" v="Taraldsrud" />
		<tag k="place" v="farm" />
		<tag k="ssr:stedsnr" v="489727" />
	</node>
	<node id="6258101975" lat="59.5196556" lon="11.124675" version="1" timestamp="2019-02-04T15:38:16Z" changeset="66907124" uid="633013" user="Honning">
		<tag k="name" v="Duserud" />
		<tag k="place" v="farm" />
		<tag k="ssr:stedsnr" v="489761" />
	</node>
	<node id="6258101976" lat="59.499875" lon="11.2010722" version="1" timestamp="2019-02-04T15:38:16Z" changeset="66907124" uid="633013" user="Honning">
		<tag k="name" v="Rød" />
		<tag k="place" v="farm" />
		<tag k="ssr:stedsnr" v="507480" />
	</node>
	<node id="6258101977" lat="59.4877528" lon="11.1944139" version="1" timestamp="2019-02-04T15:38:16Z" changeset="66907124" uid="633013" user="Honning">
		<tag k="name" v="Bilit" />
		<tag k="place" v="farm" />
		<tag k="ssr:stedsnr" v="507487" />
	</node>
	<node id="6258101978" lat="59.4380139" lon="11.174875" version="1" timestamp="2019-02-04T15:38:16Z" changeset="66907124" uid="633013" user="Honning">
		<tag k="name" v="Iledalen" />
		<tag k="place" v="farm" />
		<tag k="ssr:stedsnr" v="507502" />
	</node>
	<node id="6258101979" lat="59.4718556" lon="11.2040583" version="1" timestamp="2019-02-04T15:38:16Z" changeset="66907124" uid="633013" user="Honning">
		<tag k="alt_name" v="Eng søndre" />
		<tag k="name" v="Søndre Eng" />
		<tag k="place" v="farm" />
		<tag k="ssr:stedsnr" v="507539" />
	</node>
	<node id="6258101980" lat="59.4818056" lon="11.2051167" version="1" timestamp="2019-02-04T15:38:16Z" changeset="66907124" uid="633013" user="Honning">
		<tag k="name" v="Sandaker" />
		<tag k="place" v="farm" />
		<tag k="ssr:stedsnr" v="507554" />
	</node>
	<node id="6258101981" lat="59.5243556" lon="11.1201806" version="1" timestamp="2019-02-04T15:38:16Z" changeset="66907124" uid="633013" user="Honning">
		<tag k="alt_name" v="Holmerud søndre" />
		<tag k="name" v="Søndre Holmerud" />
		<tag k="place" v="farm" />
		<tag k="ssr:stedsnr" v="507861" />
	</node>
	<node id="6258101982" lat="59.5295917" lon="11.1215194" version="1" timestamp="2019-02-04T15:38:16Z" changeset="66907124" uid="633013" user="Honning">
		<tag k="alt_name" v="Smertu søndre" />
		<tag k="name" v="Søndre Smertu" />
		<tag k="place" v="farm" />
		<tag k="ssr:stedsnr" v="507869" />
	</node>
	<node id="6258101983" lat="59.4573472" lon="11.1291472" version="1" timestamp="2019-02-04T15:38:16Z" changeset="66907124" uid="633013" user="Honning">
		<tag k="name" v="Nyland" />
		<tag k="place" v="farm" />
		<tag k="ssr:stedsnr" v="507944" />
	</node>
	<node id="6258101984" lat="59.4934806" lon="11.0858083" version="1" timestamp="2019-02-04T15:38:16Z" changeset="66907124" uid="633013" user="Honning">
		<tag k="name" v="Holm" />
		<tag k="place" v="farm" />
		<tag k="ssr:stedsnr" v="507955" />
	</node>
	<node id="6258102285" lat="59.5022083" lon="11.1536028" version="1" timestamp="2019-02-04T15:38:16Z" changeset="66907124" uid="633013" user="Honning">
		<tag k="name" v="Gluppe" />
		<tag k="place" v="farm" />
		<tag k="ssr:stedsnr" v="507991" />
	</node>
	<node id="6258102286" lat="59.4202056" lon="11.1343778" version="1" timestamp="2019-02-04T15:38:16Z" changeset="66907124" uid="633013" user="Honning">
		<tag k="name" v="Berga" />
		<tag k="place" v="hamlet" />
		<tag k="ssr:stedsnr" v="508712" />
	</node>
	<node id="6258102287" lat="59.4583944" lon="11.1314417" version="1" timestamp="2019-02-04T15:38:16Z" changeset="66907124" uid="633013" user="Honning">
		<tag k="name" v="Haugsbråten" />
		<tag k="place" v="farm" />
		<tag k="ssr:stedsnr" v="508950" />
	</node>
	<node id="6258102288" lat="59.5066667" lon="11.1011667" version="1" timestamp="2019-02-04T15:38:17Z" changeset="66907124" uid="633013" user="Honning">
		<tag k="alt_name" v="Kvisler nordre" />
		<tag k="name" v="Nordre Kvisler" />
		<tag k="place" v="farm" />
		<tag k="ssr:stedsnr" v="508969" />
	</node>
	<node id="6258102289" lat="59.4433056" lon="11.1540194" version="1" timestamp="2019-02-04T15:38:17Z" changeset="66907124" uid="633013" user="Honning">
		<tag k="name" v="Berg" />
		<tag k="place" v="farm" />
		<tag k="ssr:stedsnr" v="508977" />
	</node>
	<node id="6258102290" lat="59.5150472" lon="11.2068667" version="1" timestamp="2019-02-04T15:38:17Z" changeset="66907124" uid="633013" user="Honning">
		<tag k="name" v="Sundåshagen" />
		<tag k="place" v="farm" />
		<tag k="ssr:stedsnr" v="509074" />
	</node>
	<node id="6258102291" lat="59.5222694" lon="11.1795111" version="1" timestamp="2019-02-04T15:38:17Z" changeset="66907124" uid="633013" user="Honning">
		<tag k="name" v="Narvestad" />
		<tag k="place" v="farm" />
		<tag k="ssr:stedsnr" v="509079" />
	</node>
	<node id="6258102292" lat="59.47605" lon="11.1012806" version="1" timestamp="2019-02-04T15:38:17Z" changeset="66907124" uid="633013" user="Honning">
		<tag k="name" v="Unnestad" />
		<tag k="place" v="farm" />
		<tag k="ssr:stedsnr" v="548059" />
	</node>
	<node id="6258102293" lat="59.4410833" lon="11.1433722" version="1" timestamp="2019-02-04T15:38:17Z" changeset="66907124" uid="633013" user="Honning">
		<tag k="name" v="Rallås" />
		<tag k="place" v="farm" />
		<tag k="ssr:stedsnr" v="548207" />
	</node>
	<node id="6258102294" lat="59.439425" lon="11.1399805" version="1" timestamp="2019-02-04T15:38:17Z" changeset="66907124" uid="633013" user="Honning">
		<tag k="alt_name" v="Husengen" />
		<tag k="name" v="Husenga" />
		<tag k="place" v="farm" />
		<tag k="ssr:stedsnr" v="548208" />
	</node>
	<node id="6258102295" lat="59.43495" lon="11.1497222" version="1" timestamp="2019-02-04T15:38:17Z" changeset="66907124" uid="633013" user="Honning">
		<tag k="name" v="Helgerud" />
		<tag k="place" v="farm" />
		<tag k="ssr:stedsnr" v="548224" />
	</node>
	<node id="6258102296" lat="59.457375" lon="11.1632472" version="1" timestamp="2019-02-04T15:38:17Z" changeset="66907124" uid="633013" user="Honning">
		<tag k="name" v="Gullhaugen" />
		<tag k="place" v="farm" />
		<tag k="ssr:stedsnr" v="548228" />
	</node>
	<node id="6258102297" lat="59.4465306" lon="11.1872722" version="1" timestamp="2019-02-04T15:38:17Z" changeset="66907124" uid="633013" user="Honning">
		<tag k="name" v="Bråtenes" />
		<tag k="place" v="farm" />
		<tag k="ssr:stedsnr" v="548248" />
	</node>
	<node id="6258102298" lat="59.5027278" lon="11.0834444" version="1" timestamp="2019-02-04T15:38:17Z" changeset="66907124" uid="633013" user="Honning">
		<tag k="name" v="Utenga" />
		<tag k="place" v="farm" />
		<tag k="ssr:stedsnr" v="549088" />
	</node>
	<node id="6258102299" lat="59.53965" lon="11.1833" version="1" timestamp="2019-02-04T15:38:17Z" changeset="66907124" uid="633013" user="Honning">
		<tag k="name" v="Strømnes" />
		<tag k="place" v="farm" />
		<tag k="ssr:stedsnr" v="549479" />
	</node>
	<node id="6258102300" lat="59.5294778" lon="11.1200945" version="1" timestamp="2019-02-04T15:38:17Z" changeset="66907124" uid="633013" user="Honning">
		<tag k="name" v="Smertu" />
		<tag k="place" v="hamlet" />
		<tag k="ssr:stedsnr" v="549712" />
	</node>
	<node id="6258102301" lat="59.5267611" lon="11.1200833" version="1" timestamp="2019-02-04T15:38:17Z" changeset="66907124" uid="633013" user="Honning">
		<tag k="alt_name" v="Holmerud nordre" />
		<tag k="name" v="Nordre Holmerud" />
		<tag k="place" v="farm" />
		<tag k="ssr:stedsnr" v="567862" />
	</node>
	<node id="6258102302" lat="59.5280806" lon="11.1375139" version="1" timestamp="2019-02-04T15:38:17Z" changeset="66907124" uid="633013" user="Honning">
		<tag k="alt_name" v="Jakobshaugen nordre" />
		<tag k="name" v="Nordre Jakobshaugen" />
		<tag k="place" v="farm" />
		<tag k="ssr:stedsnr" v="567864" />
	</node>
	<node id="6258102303" lat="59.485325" lon="11.2271722" version="1" timestamp="2019-02-04T15:38:17Z" changeset="66907124" uid="633013" user="Honning">
		<tag k="alt_name" v="Skipperud østre" />
		<tag k="name" v="Østre Skipperud" />
		<tag k="place" v="farm" />
		<tag k="ssr:stedsnr" v="568501" />
	</node>
	<node id="6258102304" lat="59.4675833" lon="11.2111444" version="1" timestamp="2019-02-04T15:38:17Z" changeset="66907124" uid="633013" user="Honning">
		<tag k="name" v="Espenes" />
		<tag k="place" v="farm" />
		<tag k="ssr:stedsnr" v="568502" />
	</node>
	<node id="6258102305" lat="59.4570444" lon="11.1570417" version="1" timestamp="2019-02-04T15:38:17Z" changeset="66907124" uid="633013" user="Honning">
		<tag k="name" v="Åmotsvinger" />
		<tag k="place" v="locality" />
		<tag k="ssr:stedsnr" v="568946" />
	</node>
	<node id="6258102306" lat="59.4992944" lon="11.0853389" version="1" timestamp="2019-02-04T15:38:18Z" changeset="66907124" uid="633013" user="Honning">
		<tag k="name" v="Padal" />
		<tag k="place" v="farm" />
		<tag k="ssr:stedsnr" v="568961" />
	</node>
	<node id="6258102307" lat="59.4750917" lon="11.0825639" version="1" timestamp="2019-02-04T15:38:18Z" changeset="66907124" uid="633013" user="Honning">
		<tag k="name" v="Prestbystykket" />
		<tag k="place" v="locality" />
		<tag k="ssr:stedsnr" v="568973" />
	</node>
	<node id="6258102308" lat="59.4770333" lon="11.0895" version="1" timestamp="2019-02-04T15:38:18Z" changeset="66907124" uid="633013" user="Honning">
		<tag k="name" v="Skredderstykket" />
		<tag k="place" v="locality" />
		<tag k="ssr:stedsnr" v="568978" />
	</node>
	<node id="6258102309" lat="59.5045444" lon="11.1651722" version="1" timestamp="2019-02-04T15:38:18Z" changeset="66907124" uid="633013" user="Honning">
		<tag k="name" v="Vestereng" />
		<tag k="place" v="farm" />
		<tag k="ssr:stedsnr" v="568980" />
	</node>
	<node id="6258102310" lat="59.4572028" lon="11.1908417" version="1" timestamp="2019-02-04T15:38:18Z" changeset="66907124" uid="633013" user="Honning">
		<tag k="name" v="Østby" />
		<tag k="place" v="farm" />
		<tag k="ssr:stedsnr" v="568991" />
	</node>
	<node id="6258102311" lat="59.5159056" lon="11.2076472" version="1" timestamp="2019-02-04T15:38:18Z" changeset="66907124" uid="633013" user="Honning">
		<tag k="name" v="Høgås" />
		<tag k="place" v="farm" />
		<tag k="ssr:stedsnr" v="569094" />
	</node>
	<node id="6258102312" lat="59.5183806" lon="11.2067667" version="1" timestamp="2019-02-04T15:38:18Z" changeset="66907124" uid="633013" user="Honning">
		<tag k="name" v="Veiby Reirshullet" />
		<tag k="place" v="farm" />
		<tag k="ssr:stedsnr" v="569099" />
	</node>
	<node id="6258102313" lat="59.5214833" lon="11.2002694" version="1" timestamp="2019-02-04T15:38:18Z" changeset="66907124" uid="633013" user="Honning">
		<tag k="name" v="Frantshuset" />
		<tag k="place" v="farm" />
		<tag k="ssr:stedsnr" v="569100" />
	</node>
	<node id="6258102315" lat="59.4701528" lon="11.1125972" version="1" timestamp="2019-02-04T15:38:18Z" changeset="66907124" uid="633013" user="Honning">
		<tag k="alt_name" v="Berg østre" />
		<tag k="name" v="Berg" />
		<tag k="place" v="farm" />
		<tag k="ssr:stedsnr" v="608011" />
	</node>
	<node id="6258102316" lat="59.469125" lon="11.174175" version="1" timestamp="2019-02-04T15:38:18Z" changeset="66907124" uid="633013" user="Honning">
		<tag k="name" v="Prestegården" />
		<tag k="place" v="farm" />
		<tag k="ssr:stedsnr" v="608026" />
	</node>
	<node id="6258102317" lat="59.4277" lon="11.172175" version="1" timestamp="2019-02-04T15:38:18Z" changeset="66907124" uid="633013" user="Honning">
		<tag k="alt_name" v="Øvre Tangen" />
		<tag k="name" v="Tangen" />
		<tag k="place" v="farm" />
		<tag k="ssr:stedsnr" v="608164" />
	</node>
	<node id="6258102318" lat="59.4819972" lon="11.1014083" version="1" timestamp="2019-02-04T15:38:18Z" changeset="66907124" uid="633013" user="Honning">
		<tag k="name" v="Gudum" />
		<tag k="place" v="farm" />
		<tag k="ssr:stedsnr" v="609065" />
	</node>
	<node id="6258102319" lat="59.49605" lon="11.1996722" version="1" timestamp="2019-02-04T15:38:18Z" changeset="66907124" uid="633013" user="Honning">
		<tag k="alt_name" v="Ladim" />
		<tag k="name" v="Laum" />
		<tag k="place" v="hamlet" />
		<tag k="ssr:stedsnr" v="610094" />
	</node>
	<node id="6258102320" lat="59.5108556" lon="11.13835" version="1" timestamp="2019-02-04T15:38:18Z" changeset="66907124" uid="633013" user="Honning">
		<tag k="name" v="Ilebakke" />
		<tag k="place" v="farm" />
		<tag k="ssr:stedsnr" v="610715" />
	</node>
	<node id="6258102321" lat="59.4995861" lon="11.2161917" version="1" timestamp="2019-02-04T15:38:18Z" changeset="66907124" uid="633013" user="Honning">
		<tag k="name" v="Foss" />
		<tag k="place" v="hamlet" />
		<tag k="ssr:stedsnr" v="610727" />
	</node>
	<node id="6258102322" lat="59.4671611" lon="11.1939306" version="1" timestamp="2019-02-04T15:38:18Z" changeset="66907124" uid="633013" user="Honning">
		<tag k="name" v="Ekeberghytta" />
		<tag k="place" v="farm" />
		<tag k="ssr:stedsnr" v="628516" />
	</node>
	<node id="6258102323" lat="59.5168167" lon="11.1596111" version="1" timestamp="2019-02-04T15:38:18Z" changeset="66907124" uid="633013" user="Honning">
		<tag k="alt_name" v="Mellem Vister" />
		<tag k="name" v="Mellom-Vister" />
		<tag k="place" v="farm" />
		<tag k="ssr:stedsnr" v="628821" />
	</node>
	<node id="6258102324" lat="59.5099639" lon="11.1686306" version="1" timestamp="2019-02-04T15:38:18Z" changeset="66907124" uid="633013" user="Honning">
		<tag k="alt_name" v="Aslaksrud nordre" />
		<tag k="name" v="Nordre Aslaksrud" />
		<tag k="place" v="farm" />
		<tag k="ssr:stedsnr" v="628824" />
	</node>
	<node id="6258102325" lat="59.45125" lon="11.1765528" version="1" timestamp="2019-02-04T15:38:19Z" changeset="66907124" uid="633013" user="Honning">
		<tag k="name" v="Solberg" />
		<tag k="place" v="farm" />
		<tag k="ssr:stedsnr" v="628987" />
	</node>
	<node id="6258102326" lat="59.4922083" lon="11.2214" version="1" timestamp="2019-02-04T15:38:19Z" changeset="66907124" uid="633013" user="Honning">
		<tag k="name" v="Bleikebakke" />
		<tag k="place" v="locality" />
		<tag k="ssr:stedsnr" v="629521" />
	</node>
	<node id="6258102327" lat="59.459" lon="11.1492917" version="1" timestamp="2019-02-04T15:38:19Z" changeset="66907124" uid="633013" user="Honning">
		<tag k="name" v="Skavland" />
		<tag k="place" v="farm" />
		<tag k="ssr:stedsnr" v="629958" />
	</node>
	<node id="6258102328" lat="59.4626139" lon="11.1631889" version="1" timestamp="2019-02-04T15:38:19Z" changeset="66907124" uid="633013" user="Honning">
		<tag k="name" v="Holsvingen" />
		<tag k="place" v="locality" />
		<tag k="ssr:stedsnr" v="629961" />
	</node>
	<node id="6258102329" lat="59.5336611" lon="11.17685" version="1" timestamp="2019-02-04T15:38:19Z" changeset="66907124" uid="633013" user="Honning">
		<tag k="name" v="Vestgården" />
		<tag k="place" v="farm" />
		<tag k="ssr:stedsnr" v="630111" />
	</node>
	<node id="6258102330" lat="59.4895" lon="11.1419972" version="1" timestamp="2019-02-04T15:38:19Z" changeset="66907124" uid="633013" user="Honning">
		<tag k="alt_name" v="Tveter (Leina)" />
		<tag k="name" v="Leina" />
		<tag k="place" v="farm" />
		<tag k="ssr:stedsnr" v="669034" />
	</node>
	<node id="6258102331" lat="59.481075" lon="11.2167806" version="1" timestamp="2019-02-04T15:38:19Z" changeset="66907124" uid="633013" user="Honning">
		<tag k="alt_name" v="Skau" />
		<tag k="name" v="Skog" />
		<tag k="place" v="farm" />
		<tag k="ssr:stedsnr" v="670006" />
	</node>
	<node id="6258102332" lat="59.4382278" lon="11.1710111" version="1" timestamp="2019-02-04T15:38:19Z" changeset="66907124" uid="633013" user="Honning">
		<tag k="alt_name" v="Vidnes" />
		<tag k="name" v="Vines" />
		<tag k="place" v="hamlet" />
		<tag k="ssr:stedsnr" v="670206" />
	</node>
	<node id="6258102333" lat="59.4404056" lon="11.1860722" version="1" timestamp="2019-02-04T15:38:19Z" changeset="66907124" uid="633013" user="Honning">
		<tag k="name" v="Lystad" />
		<tag k="place" v="farm" />
		<tag k="ssr:stedsnr" v="670208" />
	</node>
	<node id="6258102334" lat="59.4474583" lon="11.1761889" version="1" timestamp="2019-02-04T15:38:19Z" changeset="66907124" uid="633013" user="Honning">
		<tag k="name" v="Solberg" />
		<tag k="place" v="farm" />
		<tag k="ssr:stedsnr" v="670240" />
	</node>
	<node id="6258102335" lat="59.5058083" lon="11.0602222" version="1" timestamp="2019-02-04T15:38:19Z" changeset="66907124" uid="633013" user="Honning">
		<tag k="name" v="Skakkebakke" />
		<tag k="place" v="hamlet" />
		<tag k="ssr:stedsnr" v="671081" />
	</node>
	<node id="6258102336" lat="59.49645" lon="11.1092972" version="1" timestamp="2019-02-04T15:38:19Z" changeset="66907124" uid="633013" user="Honning">
		<tag k="name" v="Heistad" />
		<tag k="place" v="farm" />
		<tag k="ssr:stedsnr" v="671096" />
	</node>
	<node id="6258102337" lat="59.4975278" lon="11.1362028" version="1" timestamp="2019-02-04T15:38:19Z" changeset="66907124" uid="633013" user="Honning">
		<tag k="alt_name" v="Tveterskogen" />
		<tag k="name" v="Tveiterskogen" />
		<tag k="place" v="farm" />
		<tag k="ssr:stedsnr" v="671097" />
	</node>
	<node id="6258102338" lat="59.51695" lon="11.1094611" version="1" timestamp="2019-02-04T15:38:19Z" changeset="66907124" uid="633013" user="Honning">
		<tag k="alt_name" v="Kongsten" />
		<tag k="name" v="Kongstein" />
		<tag k="place" v="farm" />
		<tag k="ssr:stedsnr" v="671698" />
	</node>
	<node id="6258102339" lat="59.5037889" lon="11.2115361" version="1" timestamp="2019-02-04T15:38:19Z" changeset="66907124" uid="633013" user="Honning">
		<tag k="name" v="Haugen" />
		<tag k="place" v="farm" />
		<tag k="ssr:stedsnr" v="671711" />
	</node>
	<node id="6258102340" lat="59.5083528" lon="11.1691528" version="1" timestamp="2019-02-04T15:38:19Z" changeset="66907124" uid="633013" user="Honning">
		<tag k="name" v="Aslaksrud" />
		<tag k="place" v="farm" />
		<tag k="ssr:stedsnr" v="671712" />
	</node>
	<node id="6258102341" lat="59.536125" lon="11.157425" version="1" timestamp="2019-02-04T15:38:19Z" changeset="66907124" uid="633013" user="Honning">
		<tag k="name" v="Torberrud" />
		<tag k="place" v="farm" />
		<tag k="ssr:stedsnr" v="671724" />
	</node>
	<node id="6258102342" lat="59.5339111" lon="11.1050083" version="1" timestamp="2019-02-04T15:38:19Z" changeset="66907124" uid="633013" user="Honning">
		<tag k="alt_name" v="Karterud øvre" />
		<tag k="name" v="Øvre Karterud" />
		<tag k="place" v="farm" />
		<tag k="ssr:stedsnr" v="689778" />
	</node>
	<node id="6258102343" lat="59.5255111" lon="11.1416583" version="1" timestamp="2019-02-04T15:38:20Z" changeset="66907124" uid="633013" user="Honning">
		<tag k="name" v="Øst-Hauger" />
		<tag k="place" v="farm" />
		<tag k="ssr:stedsnr" v="689823" />
	</node>
	<node id="6258102344" lat="59.5385972" lon="11.1370722" version="1" timestamp="2019-02-04T15:38:20Z" changeset="66907124" uid="633013" user="Honning">
		<tag k="name" v="Korsvall" />
		<tag k="place" v="farm" />
		<tag k="ssr:stedsnr" v="689847" />
	</node>
	<node id="6258102345" lat="59.4889111" lon="11.2319861" version="1" timestamp="2019-02-04T15:38:20Z" changeset="66907124" uid="633013" user="Honning">
		<tag k="name" v="Solnes" />
		<tag k="place" v="farm" />
		<tag k="ssr:stedsnr" v="690591" />
	</node>
	<node id="6258102346" lat="59.4799306" lon="11.1982556" version="1" timestamp="2019-02-04T15:38:20Z" changeset="66907124" uid="633013" user="Honning">
		<tag k="name" v="Fossum (Bekkhus)" />
		<tag k="place" v="farm" />
		<tag k="ssr:stedsnr" v="690598" />
	</node>
	<node id="6258102347" lat="59.4753" lon="11.2069972" version="1" timestamp="2019-02-04T15:38:20Z" changeset="66907124" uid="633013" user="Honning">
		<tag k="alt_name" v="Eng mellem;Mellem Eng" />
		<tag k="name" v="Mellom-Eng" />
		<tag k="place" v="farm" />
		<tag k="ssr:stedsnr" v="690602" />
	</node>
	<node id="6258102348" lat="59.4399861" lon="11.1476111" version="1" timestamp="2019-02-04T15:38:20Z" changeset="66907124" uid="633013" user="Honning">
		<tag k="name" v="Berg" />
		<tag k="place" v="farm" />
		<tag k="ssr:stedsnr" v="690968" />
	</node>
	<node id="6258102349" lat="59.4267806" lon="11.145075" version="1" timestamp="2019-02-04T15:38:20Z" changeset="66907124" uid="633013" user="Honning">
		<tag k="name" v="Nybråten" />
		<tag k="place" v="farm" />
		<tag k="ssr:stedsnr" v="690971" />
	</node>
	<node id="6258102350" lat="59.4588333" lon="11.1625056" version="1" timestamp="2019-02-04T15:38:20Z" changeset="66907124" uid="633013" user="Honning">
		<tag k="alt_name" v="Gullhaugen nordre" />
		<tag k="name" v="Nordre Gullhaugen" />
		<tag k="place" v="farm" />
		<tag k="ssr:stedsnr" v="690977" />
	</node>
	<node id="6258102351" lat="59.4930389" lon="11.1517361" version="1" timestamp="2019-02-04T15:38:20Z" changeset="66907124" uid="633013" user="Honning">
		<tag k="alt_name" v="Tveter vestre" />
		<tag k="name" v="Vestre Tveter" />
		<tag k="place" v="farm" />
		<tag k="ssr:stedsnr" v="690983" />
	</node>
	<node id="6258102352" lat="59.4903806" lon="11.1032028" version="1" timestamp="2019-02-04T15:38:20Z" changeset="66907124" uid="633013" user="Honning">
		<tag k="name" v="Strand" />
		<tag k="place" v="farm" />
		<tag k="ssr:stedsnr" v="690986" />
	</node>
	<node id="6258102353" lat="59.5197389" lon="11.2029306" version="1" timestamp="2019-02-04T15:38:20Z" changeset="66907124" uid="633013" user="Honning">
		<tag k="name" v="Smalshuset" />
		<tag k="place" v="farm" />
		<tag k="ssr:stedsnr" v="691108" />
	</node>
	<node id="6258102354" lat="59.5249639" lon="11.1968" version="1" timestamp="2019-02-04T15:38:20Z" changeset="66907124" uid="633013" user="Honning">
		<tag k="name" v="Holt" />
		<tag k="place" v="farm" />
		<tag k="ssr:stedsnr" v="691119" />
	</node>
	<node id="6258102355" lat="59.475075" lon="11.106575" version="1" timestamp="2019-02-04T15:38:20Z" changeset="66907124" uid="633013" user="Honning">
		<tag k="name" v="Neset" />
		<tag k="place" v="farm" />
		<tag k="ssr:stedsnr" v="730009" />
	</node>
	<node id="6258102356" lat="59.4846528" lon="11.1163528" version="1" timestamp="2019-02-04T15:38:20Z" changeset="66907124" uid="633013" user="Honning">
		<tag k="name" v="Målen" />
		<tag k="place" v="farm" />
		<tag k="ssr:stedsnr" v="730032" />
	</node>
	<node id="6258102357" lat="59.459725" lon="11.1859305" version="1" timestamp="2019-02-04T15:38:20Z" changeset="66907124" uid="633013" user="Honning">
		<tag k="name" v="Hønstvet" />
		<tag k="place" v="farm" />
		<tag k="ssr:stedsnr" v="730216" />
	</node>
	<node id="6258102358" lat="59.463025" lon="11.1244972" version="1" timestamp="2019-02-04T15:38:20Z" changeset="66907124" uid="633013" user="Honning">
		<tag k="name" v="Gjerskog" />
		<tag k="place" v="farm" />
		<tag k="ssr:stedsnr" v="730224" />
	</node>
	<node id="6258102359" lat="59.458225" lon="11.1760472" version="1" timestamp="2019-02-04T15:38:20Z" changeset="66907124" uid="633013" user="Honning">
		<tag k="name" v="Stafseng" />
		<tag k="place" v="farm" />
		<tag k="ssr:stedsnr" v="730223" />
	</node>
	<node id="6258102360" lat="59.449675" lon="11.138875" version="1" timestamp="2019-02-04T15:38:20Z" changeset="66907124" uid="633013" user="Honning">
		<tag k="alt_name" v="Haug (Opster)" />
		<tag k="name" v="Haug" />
		<tag k="place" v="farm" />
		<tag k="ssr:stedsnr" v="730236" />
	</node>
	<node id="6258102361" lat="59.482175" lon="11.1823972" version="1" timestamp="2019-02-04T15:38:21Z" changeset="66907124" uid="633013" user="Honning">
		<tag k="name" v="Dillerud" />
		<tag k="place" v="farm" />
		<tag k="ssr:stedsnr" v="731047" />
	</node>
	<node id="6258102362" lat="59.4993028" lon="11.09865" version="1" timestamp="2019-02-04T15:38:21Z" changeset="66907124" uid="633013" user="Honning">
		<tag k="name" v="Nordby" />
		<tag k="place" v="farm" />
		<tag k="ssr:stedsnr" v="731060" />
	</node>
	<node id="6258102363" lat="59.5129806" lon="11.0923306" version="1" timestamp="2019-02-04T15:38:21Z" changeset="66907124" uid="633013" user="Honning">
		<tag k="name" v="Nygård" />
		<tag k="place" v="farm" />
		<tag k="ssr:stedsnr" v="732034" />
	</node>
	<node id="6258102364" lat="59.5151806" lon="11.1858556" version="1" timestamp="2019-02-04T15:38:21Z" changeset="66907124" uid="633013" user="Honning">
		<tag k="name" v="Onstad" />
		<tag k="place" v="hamlet" />
		<tag k="ssr:stedsnr" v="732708" />
	</node>
	<node id="6258102365" lat="59.5297611" lon="11.1686" version="1" timestamp="2019-02-04T15:38:21Z" changeset="66907124" uid="633013" user="Honning">
		<tag k="name" v="Rjuk" />
		<tag k="place" v="farm" />
		<tag k="ssr:stedsnr" v="732737" />
	</node>
	<node id="6258102366" lat="59.4334722" lon="11.1727389" version="1" timestamp="2019-02-04T15:38:21Z" changeset="66907124" uid="633013" user="Honning">
		<tag k="name" v="Knutebråten" />
		<tag k="place" v="farm" />
		<tag k="ssr:stedsnr" v="750499" />
	</node>
	<node id="6258102367" lat="59.4672889" lon="11.1799722" version="1" timestamp="2019-02-04T15:38:21Z" changeset="66907124" uid="633013" user="Honning">
		<tag k="name" v="Mørk" />
		<tag k="place" v="farm" />
		<tag k="ssr:stedsnr" v="750514" />
	</node>
	<node id="6258102368" lat="59.4695611" lon="11.1968528" version="1" timestamp="2019-02-04T15:38:21Z" changeset="66907124" uid="633013" user="Honning">
		<tag k="name" v="Hagen" />
		<tag k="place" v="farm" />
		<tag k="ssr:stedsnr" v="750550" />
	</node>
	<node id="6258102369" lat="59.5163639" lon="11.1518111" version="1" timestamp="2019-02-04T15:38:21Z" changeset="66907124" uid="633013" user="Honning">
		<tag k="name" v="Finnestad" />
		<tag k="place" v="farm" />
		<tag k="ssr:stedsnr" v="750826" />
	</node>
	<node id="6258102370" lat="59.5045" lon="11.1057389" version="1" timestamp="2019-02-04T15:38:21Z" changeset="66907124" uid="633013" user="Honning">
		<tag k="name" v="Løkken" />
		<tag k="place" v="farm" />
		<tag k="ssr:stedsnr" v="750954" />
	</node>
	<node id="6258102371" lat="59.4950222" lon="11.1048333" version="1" timestamp="2019-02-04T15:38:21Z" changeset="66907124" uid="633013" user="Honning">
		<tag k="alt_name" v="Strand nordre" />
		<tag k="name" v="Nordre Strand" />
		<tag k="place" v="farm" />
		<tag k="ssr:stedsnr" v="750958" />
	</node>
	<node id="6258102372" lat="59.461" lon="11.1814417" version="1" timestamp="2019-02-04T15:38:21Z" changeset="66907124" uid="633013" user="Honning">
		<tag k="name" v="Skjønhaug" />
		<tag k="place" v="farm" />
		<tag k="ssr:stedsnr" v="750992" />
	</node>
	<node id="6258102373" lat="59.5247972" lon="11.1981167" version="1" timestamp="2019-02-04T15:38:21Z" changeset="66907124" uid="633013" user="Honning">
		<tag k="name" v="Hestehagen" />
		<tag k="place" v="farm" />
		<tag k="ssr:stedsnr" v="752073" />
	</node>
	<node id="6258102374" lat="59.5106889" lon="11.2032944" version="1" timestamp="2019-02-04T15:38:21Z" changeset="66907124" uid="633013" user="Honning">
		<tag k="name" v="Åsland" />
		<tag k="place" v="farm" />
		<tag k="ssr:stedsnr" v="752076" />
	</node>
	<node id="6258102375" lat="59.464025" lon="11.206675" version="1" timestamp="2019-02-04T15:38:21Z" changeset="66907124" uid="633013" user="Honning">
		<tag k="name" v="Ruene" />
		<tag k="place" v="farm" />
		<tag k="ssr:stedsnr" v="791025" />
	</node>
	<node id="6258102376" lat="59.4626" lon="11.1926222" version="1" timestamp="2019-02-04T15:38:21Z" changeset="66907124" uid="633013" user="Honning">
		<tag k="name" v="Ekeberg" />
		<tag k="place" v="farm" />
		<tag k="ssr:stedsnr" v="791024" />
	</node>
	<node id="6258102377" lat="59.4704" lon="11.2092722" version="1" timestamp="2019-02-04T15:38:21Z" changeset="66907124" uid="633013" user="Honning">
		<tag k="name" v="Espenes" />
		<tag k="place" v="farm" />
		<tag k="ssr:stedsnr" v="791027" />
	</node>
	<node id="6258102378" lat="59.48665" lon="11.097525" version="1" timestamp="2019-02-04T15:38:21Z" changeset="66907124" uid="633013" user="Honning">
		<tag k="name" v="Lund" />
		<tag k="place" v="hamlet" />
		<tag k="ssr:stedsnr" v="791039" />
	</node>
	<node id="6258102379" lat="59.4867556" lon="11.1905028" version="1" timestamp="2019-02-04T15:38:22Z" changeset="66907124" uid="633013" user="Honning">
		<tag k="alt_name" v="Bilit" />
		<tag k="name" v="Bilitt" />
		<tag k="place" v="farm" />
		<tag k="ssr:stedsnr" v="791043" />
	</node>
	<node id="6258102380" lat="59.4839056" lon="11.1336722" version="1" timestamp="2019-02-04T15:38:22Z" changeset="66907124" uid="633013" user="Honning">
		<tag k="name" v="Moseby" />
		<tag k="place" v="farm" />
		<tag k="ssr:stedsnr" v="791046" />
	</node>
	<node id="6258102381" lat="59.4795056" lon="11.133" version="1" timestamp="2019-02-04T15:38:22Z" changeset="66907124" uid="633013" user="Honning">
		<tag k="name" v="Skrikerud" />
		<tag k="place" v="farm" />
		<tag k="ssr:stedsnr" v="791047" />
	</node>
	<node id="6258102382" lat="59.4811278" lon="11.15765" version="1" timestamp="2019-02-04T15:38:22Z" changeset="66907124" uid="633013" user="Honning">
		<tag k="alt_name" v="Skjelle søndre;Skjelle" />
		<tag k="name" v="Søndre Skjelle" />
		<tag k="place" v="farm" />
		<tag k="ssr:stedsnr" v="791048" />
	</node>
	<node id="6258102383" lat="59.477625" lon="11.11215" version="1" timestamp="2019-02-04T15:38:22Z" changeset="66907124" uid="633013" user="Honning">
		<tag k="alt_name" v="Målhuset" />
		<tag k="name" v="Målehuset" />
		<tag k="place" v="farm" />
		<tag k="ssr:stedsnr" v="791050" />
	</node>
	<node id="6258102384" lat="59.4728303" lon="11.2106376" version="1" timestamp="2019-02-04T15:38:22Z" changeset="66907124" uid="633013" user="Honning">
		<tag k="name" v="Eng" />
		<tag k="place" v="hamlet" />
		<tag k="ssr:stedsnr" v="791052" />
	</node>
	<node id="6258102385" lat="59.4282861" lon="11.1345167" version="1" timestamp="2019-02-04T15:38:22Z" changeset="66907124" uid="633013" user="Honning">
		<tag k="alt_name" v="Lumpestad" />
		<tag k="name" v="Fjellstad" />
		<tag k="place" v="farm" />
		<tag k="ssr:stedsnr" v="791165" />
	</node>
	<node id="6258102386" lat="59.428275" lon="11.16135" version="1" timestamp="2019-02-04T15:38:22Z" changeset="66907124" uid="633013" user="Honning">
		<tag k="name" v="Holtet" />
		<tag k="place" v="farm" />
		<tag k="ssr:stedsnr" v="791173" />
	</node>
	<node id="6258102387" lat="59.4420361" lon="11.1626056" version="1" timestamp="2019-02-04T15:38:22Z" changeset="66907124" uid="633013" user="Honning">
		<tag k="alt_name" v="Sletner" />
		<tag k="name" v="Slettner" />
		<tag k="place" v="farm" />
		<tag k="ssr:stedsnr" v="791198" />
	</node>
	<node id="6258102388" lat="59.4600639" lon="11.1401528" version="1" timestamp="2019-02-04T15:38:22Z" changeset="66907124" uid="633013" user="Honning">
		<tag k="alt_name" v="Snerstad" />
		<tag k="name" v="Sperstad" />
		<tag k="place" v="farm" />
		<tag k="ssr:stedsnr" v="791219" />
	</node>
	<node id="6258102389" lat="59.534125" lon="11.1235" version="1" timestamp="2019-02-04T15:38:22Z" changeset="66907124" uid="633013" user="Honning">
		<tag k="alt_name" v="Solberg nordre;Solberg" />
		<tag k="name" v="Nordre Solberg" />
		<tag k="place" v="farm" />
		<tag k="ssr:stedsnr" v="792718" />
	</node>
	<node id="6258102390" lat="59.5114556" lon="11.18625" version="1" timestamp="2019-02-04T15:38:22Z" changeset="66907124" uid="633013" user="Honning">
		<tag k="name" v="Ski" />
		<tag k="place" v="farm" />
		<tag k="ssr:stedsnr" v="793715" />
	</node>
	<node id="6258102391" lat="59.5402444" lon="11.1353944" version="1" timestamp="2019-02-04T15:38:22Z" changeset="66907124" uid="633013" user="Honning">
		<tag k="alt_name" v="Svae søndre" />
		<tag k="name" v="Søndre Svae" />
		<tag k="place" v="farm" />
		<tag k="ssr:stedsnr" v="810879" />
	</node>
	<node id="6258102392" lat="59.5184944" lon="11.1645333" version="1" timestamp="2019-02-04T15:38:22Z" changeset="66907124" uid="633013" user="Honning">
		<tag k="name" v="Nord-Vister" />
		<tag k="place" v="farm" />
		<tag k="ssr:stedsnr" v="811836" />
	</node>
	<node id="6258102393" lat="59.4626028" lon="11.1459583" version="1" timestamp="2019-02-04T15:38:22Z" changeset="66907124" uid="633013" user="Honning">
		<tag k="name" v="Sølvberg (Mortenshytta)" />
		<tag k="place" v="farm" />
		<tag k="ssr:stedsnr" v="811934" />
	</node>
	<node id="6258102394" lat="59.465025" lon="11.1532055" version="1" timestamp="2019-02-04T15:38:22Z" changeset="66907124" uid="633013" user="Honning">
		<tag k="alt_name" v="Ringstad øvre;Ringstad" />
		<tag k="name" v="Øvre Ringstad" />
		<tag k="place" v="farm" />
		<tag k="ssr:stedsnr" v="811935" />
	</node>
	<node id="6258102395" lat="59.4573611" lon="11.1629528" version="1" timestamp="2019-02-04T15:38:22Z" changeset="66907124" uid="633013" user="Honning">
		<tag k="alt_name" v="Gullhaugen søndre" />
		<tag k="name" v="Søndre Gullhaugen" />
		<tag k="place" v="farm" />
		<tag k="ssr:stedsnr" v="811938" />
	</node>
	<node id="6258102396" lat="59.4641722" lon="11.1556417" version="1" timestamp="2019-02-04T15:38:23Z" changeset="66907124" uid="633013" user="Honning">
		<tag k="alt_name" v="Ringstad nedre" />
		<tag k="name" v="Nedre Ringstad" />
		<tag k="place" v="farm" />
		<tag k="ssr:stedsnr" v="811945" />
	</node>
	<node id="6258102397" lat="59.504" lon="11.0624917" version="1" timestamp="2019-02-04T15:38:23Z" changeset="66907124" uid="633013" user="Honning">
		<tag k="name" v="Hoppenstein" />
		<tag k="place" v="farm" />
		<tag k="ssr:stedsnr" v="811956" />
	</node>
	<node id="6258102398" lat="59.4717361" lon="11.1419972" version="1" timestamp="2019-02-04T15:38:23Z" changeset="66907124" uid="633013" user="Honning">
		<tag k="alt_name" v="Toen nordre" />
		<tag k="name" v="Nordre Toen" />
		<tag k="place" v="farm" />
		<tag k="ssr:stedsnr" v="811967" />
	</node>
	<node id="6258102399" lat="59.5230333" lon="11.1946583" version="1" timestamp="2019-02-04T15:38:23Z" changeset="66907124" uid="633013" user="Honning">
		<tag k="alt_name" v="Mattishuset" />
		<tag k="name" v="Mathishuset" />
		<tag k="place" v="farm" />
		<tag k="ssr:stedsnr" v="812081" />
	</node>
	<node id="6258102400" lat="59.4868611" lon="11.2237861" version="1" timestamp="2019-02-04T15:38:23Z" changeset="66907124" uid="633013" user="Honning">
		<tag k="name" v="Skipperud" />
		<tag k="place" v="farm" />
		<tag k="ssr:stedsnr" v="852053" />
	</node>
	<node id="6258102401" lat="59.480025" lon="11.2088028" version="1" timestamp="2019-02-04T15:38:23Z" changeset="66907124" uid="633013" user="Honning">
		<tag k="name" v="Veiby" />
		<tag k="place" v="farm" />
		<tag k="ssr:stedsnr" v="852066" />
	</node>
	<node id="6258102402" lat="59.4770667" lon="11.1591694" version="1" timestamp="2019-02-04T15:38:23Z" changeset="66907124" uid="633013" user="Honning">
		<tag k="alt_name" v="Koffell nordre" />
		<tag k="name" v="Kåfell" />
		<tag k="place" v="farm" />
		<tag k="ssr:stedsnr" v="852068" />
	</node>
	<node id="6258102403" lat="59.4064048" lon="11.1761308" version="2" timestamp="2019-06-06T13:08:28Z" changeset="70989568" uid="4198735" user="michalzz">
		<tag k="name" v="Glenne" />
		<tag k="place" v="hamlet" />
		<tag k="ssr:stedsnr" v="852149" />
	</node>
	<node id="6258102404" lat="59.435825" lon="11.1769222" version="1" timestamp="2019-02-04T15:38:23Z" changeset="66907124" uid="633013" user="Honning">
		<tag k="name" v="Storenga" />
		<tag k="place" v="farm" />
		<tag k="ssr:stedsnr" v="852220" />
	</node>
	<node id="6258102405" lat="59.4568" lon="11.2048083" version="1" timestamp="2019-02-04T15:38:23Z" changeset="66907124" uid="633013" user="Honning">
		<tag k="alt_name" v="Liverud søndre" />
		<tag k="name" v="Søndre Liverud" />
		<tag k="place" v="farm" />
		<tag k="ssr:stedsnr" v="852231" />
	</node>
	<node id="6258102406" lat="59.4575" lon="11.185275" version="1" timestamp="2019-02-04T15:38:23Z" changeset="66907124" uid="633013" user="Honning">
		<tag k="name" v="Hønstvet" />
		<tag k="place" v="farm" />
		<tag k="ssr:stedsnr" v="852234" />
	</node>
	<node id="6258102407" lat="59.5045583" lon="11.0892111" version="1" timestamp="2019-02-04T15:38:23Z" changeset="66907124" uid="633013" user="Honning">
		<tag k="alt_name" v="Bjørnemyra" />
		<tag k="name" v="Bjørnemyr" />
		<tag k="place" v="farm" />
		<tag k="ssr:stedsnr" v="853061" />
	</node>
	<node id="6258102408" lat="59.5068444" lon="11.1853333" version="1" timestamp="2019-02-04T15:38:23Z" changeset="66907124" uid="633013" user="Honning">
		<tag k="name" v="Dalby" />
		<tag k="place" v="farm" />
		<tag k="ssr:stedsnr" v="854684" />
	</node>
	<node id="6258102409" lat="59.5015167" lon="11.2110139" version="1" timestamp="2019-02-04T15:38:23Z" changeset="66907124" uid="633013" user="Honning">
		<tag k="name" v="Haugen" />
		<tag k="place" v="farm" />
		<tag k="ssr:stedsnr" v="872535" />
	</node>
	<node id="6258102410" lat="59.4332972" lon="11.1830389" version="1" timestamp="2019-02-04T15:38:23Z" changeset="66907124" uid="633013" user="Honning">
		<tag k="name" v="Nybru" />
		<tag k="place" v="farm" />
		<tag k="ssr:stedsnr" v="872553" />
	</node>
	<node id="6258102411" lat="59.4351722" lon="11.1820611" version="1" timestamp="2019-02-04T15:38:23Z" changeset="66907124" uid="633013" user="Honning">
		<tag k="name" v="Nordenga" />
		<tag k="place" v="farm" />
		<tag k="ssr:stedsnr" v="872555" />
	</node>
	<node id="6258102412" lat="59.4346389" lon="11.1866222" version="1" timestamp="2019-02-04T15:38:23Z" changeset="66907124" uid="633013" user="Honning">
		<tag k="name" v="Snekkerhyttlandet" />
		<tag k="place" v="locality" />
		<tag k="ssr:stedsnr" v="872557" />
	</node>
	<node id="6258102413" lat="59.4561333" lon="11.1430528" version="1" timestamp="2019-02-04T15:38:23Z" changeset="66907124" uid="633013" user="Honning">
		<tag k="name" v="Sperstadbakken" />
		<tag k="place" v="farm" />
		<tag k="ssr:stedsnr" v="872956" />
	</node>
	<node id="6258102414" lat="59.4623861" lon="11.1677861" version="1" timestamp="2019-02-04T15:38:24Z" changeset="66907124" uid="633013" user="Honning">
		<tag k="alt_name" v="Hol østre" />
		<tag k="name" v="Østre Hol" />
		<tag k="place" v="farm" />
		<tag k="ssr:stedsnr" v="872959" />
	</node>
	<node id="6258102415" lat="59.4824194" lon="11.1226389" version="1" timestamp="2019-02-04T15:38:24Z" changeset="66907124" uid="633013" user="Honning">
		<tag k="alt_name" v="Målen østre" />
		<tag k="name" v="Østre Målen" />
		<tag k="place" v="farm" />
		<tag k="ssr:stedsnr" v="872973" />
	</node>
	<node id="6258102416" lat="59.4694194" lon="11.1437028" version="1" timestamp="2019-02-04T15:38:24Z" changeset="66907124" uid="633013" user="Honning">
		<tag k="alt_name" v="Toen søndre" />
		<tag k="name" v="Søndre Toen" />
		<tag k="place" v="farm" />
		<tag k="ssr:stedsnr" v="873000" />
	</node>
	<node id="6258102417" lat="59.5389833" lon="11.1760972" version="1" timestamp="2019-02-04T15:38:24Z" changeset="66907124" uid="633013" user="Honning">
		<tag k="name" v="Fossbakk" />
		<tag k="place" v="farm" />
		<tag k="ssr:stedsnr" v="873113" />
	</node>
	<node id="6258102418" lat="59.4029944" lon="11.1706806" version="1" timestamp="2019-02-04T15:38:24Z" changeset="66907124" uid="633013" user="Honning">
		<tag k="name" v="Skår" />
		<tag k="place" v="farm" />
		<tag k="ssr:stedsnr" v="912147" />
	</node>
	<node id="6258102419" lat="59.4599" lon="11.1044" version="1" timestamp="2019-02-04T15:38:24Z" changeset="66907124" uid="633013" user="Honning">
		<tag k="name" v="Skomakerhytta" />
		<tag k="place" v="isolated_dwelling" />
		<tag k="ssr:stedsnr" v="912229" />
	</node>
	<node id="6258102420" lat="59.4803806" lon="11.180175" version="1" timestamp="2019-02-04T15:38:24Z" changeset="66907124" uid="633013" user="Honning">
		<tag k="name" v="Nordhaug" />
		<tag k="place" v="farm" />
		<tag k="ssr:stedsnr" v="913053" />
	</node>
	<node id="6258102421" lat="59.498075" lon="11.16045" version="1" timestamp="2019-02-04T15:38:24Z" changeset="66907124" uid="633013" user="Honning">
		<tag k="alt_name" v="Trandem" />
		<tag k="name" v="Trandum" />
		<tag k="place" v="farm" />
		<tag k="ssr:stedsnr" v="913093" />
	</node>
	<node id="6258102422" lat="59.4419444" lon="11.135375" version="1" timestamp="2019-02-04T15:38:24Z" changeset="66907124" uid="633013" user="Honning">
		<tag k="alt_name" v="Torsberg" />
		<tag k="name" v="Fossberg" />
		<tag k="place" v="farm" />
		<tag k="ssr:stedsnr" v="913186" />
	</node>
	<node id="6258102423" lat="59.5072583" lon="11.0645667" version="1" timestamp="2019-02-04T15:38:24Z" changeset="66907124" uid="633013" user="Honning">
		<tag k="name" v="Lia" />
		<tag k="place" v="farm" />
		<tag k="ssr:stedsnr" v="914086" />
	</node>
	<node id="6258102424" lat="59.493075" lon="11.2124722" version="1" timestamp="2019-02-04T15:38:24Z" changeset="66907124" uid="633013" user="Honning">
		<tag k="name" v="Heia" />
		<tag k="place" v="farm" />
		<tag k="ssr:stedsnr" v="914101" />
	</node>
	<node id="6258102425" lat="59.5399583" lon="11.1345333" version="1" timestamp="2019-02-04T15:38:24Z" changeset="66907124" uid="633013" user="Honning">
		<tag k="name" v="Svae" />
		<tag k="place" v="farm" />
		<tag k="ssr:stedsnr" v="914534" />
	</node>
	<node id="6258102426" lat="59.5267194" lon="11.1195306" version="1" timestamp="2019-02-04T15:38:24Z" changeset="66907124" uid="633013" user="Honning">
		<tag k="name" v="Holmerud" />
		<tag k="place" v="farm" />
		<tag k="ssr:stedsnr" v="914750" />
	</node>
	<node id="6258102427" lat="59.4518306" lon="11.1384722" version="1" timestamp="2019-02-04T15:38:24Z" changeset="66907124" uid="633013" user="Honning">
		<tag k="name" v="Haug" />
		<tag k="place" v="hamlet" />
		<tag k="ssr:stedsnr" v="920836" />
	</node>
	<node id="6258102428" lat="59.4783" lon="11.2196" version="1" timestamp="2019-02-04T15:38:24Z" changeset="66907124" uid="633013" user="Honning">
		<tag k="alt_name" v="Skau" />
		<tag k="name" v="Skog" />
		<tag k="place" v="farm" />
		<tag k="ssr:stedsnr" v="920839" />
	</node>
	<node id="6258102429" lat="59.4696" lon="11.2025694" version="1" timestamp="2019-02-04T15:38:24Z" changeset="66907124" uid="633013" user="Honning">
		<tag k="name" v="Åsnes" />
		<tag k="place" v="farm" />
		<tag k="ssr:stedsnr" v="932505" />
	</node>
	<node id="6258102430" lat="59.4752167" lon="11.1919806" version="1" timestamp="2019-02-04T15:38:24Z" changeset="66907124" uid="633013" user="Honning">
		<tag k="name" v="Høytorp" />
		<tag k="place" v="farm" />
		<tag k="ssr:stedsnr" v="932529" />
	</node>
	<node id="6258102431" lat="59.5352028" lon="11.1380361" version="1" timestamp="2019-02-04T15:38:24Z" changeset="66907124" uid="633013" user="Honning">
		<tag k="alt_name" v="Langli nordre" />
		<tag k="name" v="Nordre Langli" />
		<tag k="place" v="farm" />
		<tag k="ssr:stedsnr" v="932851" />
	</node>
	<node id="6258102432" lat="59.4898222" lon="11.105025" version="1" timestamp="2019-02-04T15:38:25Z" changeset="66907124" uid="633013" user="Honning">
		<tag k="alt_name" v="Strand søndre" />
		<tag k="name" v="Søndre Strand" />
		<tag k="place" v="farm" />
		<tag k="ssr:stedsnr" v="932977" />
	</node>
	<node id="6258102433" lat="59.4596444" lon="11.1866139" version="1" timestamp="2019-02-04T15:38:25Z" changeset="66907124" uid="633013" user="Honning">
		<tag k="name" v="Hønstvet" />
		<tag k="place" v="farm" />
		<tag k="ssr:stedsnr" v="932989" />
	</node>
	<node id="6258102434" lat="59.5216944" lon="11.1897639" version="1" timestamp="2019-02-04T15:38:25Z" changeset="66907124" uid="633013" user="Honning">
		<tag k="alt_name" v="Onstad østre" />
		<tag k="name" v="Østre Onstad" />
		<tag k="place" v="farm" />
		<tag k="ssr:stedsnr" v="934085" />
	</node>
	<node id="6258102435" lat="59.4533741" lon="11.1569155" version="1" timestamp="2019-02-04T15:38:25Z" changeset="66907124" uid="633013" user="Honning">
		<tag k="name" v="Åmot" />
		<tag k="place" v="hamlet" />
		<tag k="ssr:stedsnr" v="933957" />
	</node>
	<node id="6258102436" lat="59.5033861" lon="11.1067805" version="1" timestamp="2019-02-04T15:38:25Z" changeset="66907124" uid="633013" user="Honning">
		<tag k="name" v="Krokås" />
		<tag k="place" v="farm" />
		<tag k="ssr:stedsnr" v="933967" />
	</node>
	<node id="6258102437" lat="59.4373111" lon="11.1588667" version="1" timestamp="2019-02-04T15:38:25Z" changeset="66907124" uid="633013" user="Honning">
		<tag k="name" v="Suserud" />
		<tag k="place" v="farm" />
		<tag k="ssr:stedsnr" v="933980" />
	</node>
	<node id="6258102438" lat="59.4444778" lon="11.167575" version="1" timestamp="2019-02-04T15:38:25Z" changeset="66907124" uid="633013" user="Honning">
		<tag k="name" v="Solbergdalen" />
		<tag k="place" v="farm" />
		<tag k="ssr:stedsnr" v="933981" />
	</node>
	<node id="6258102439" lat="59.4866417" lon="11.15445" version="1" timestamp="2019-02-04T15:38:25Z" changeset="66907124" uid="633013" user="Honning">
		<tag k="name" v="Løstvet (Smehytta)" />
		<tag k="place" v="farm" />
		<tag k="ssr:stedsnr" v="933983" />
	</node>
	<node id="6258101165" lat="59.46639" lon="11.1148623" version="1" timestamp="2019-02-04T15:38:05Z" changeset="66907124" uid="633013" user="Honning" />
	<node id="6258101166" lat="59.466217" lon="11.114755" version="1" timestamp="2019-02-04T15:38:05Z" changeset="66907124" uid="633013" user="Honning" />
	<node id="6258101167" lat="59.4652031" lon="11.1089158" version="1" timestamp="2019-02-04T15:38:05Z" changeset="66907124" uid="633013" user="Honning" />
	<node id="6258101168" lat="59.4656351" lon="11.1101282" version="1" timestamp="2019-02-04T15:38:05Z" changeset="66907124" uid="633013" user="Honning" />
	<node id="6258101169" lat="59.4658272" lon="11.1103025" version="1" timestamp="2019-02-04T15:38:05Z" changeset="66907124" uid="633013" user="Honning" />
	<node id="6258101170" lat="59.4661502" lon="11.1098304" version="1" timestamp="2019-02-04T15:38:05Z" changeset="66907124" uid="633013" user="Honning" />
	<node id="6258101171" lat="59.4661679" lon="11.1091572" version="1" timestamp="2019-02-04T15:38:05Z" changeset="66907124" uid="633013" user="Honning" />
	<node id="6258101172" lat="59.4659267" lon="11.1088246" version="1" timestamp="2019-02-04T15:38:05Z" changeset="66907124" uid="633013" user="Honning" />
	<node id="6258101173" lat="59.4656848" lon="11.1086757" version="1" timestamp="2019-02-04T15:38:05Z" changeset="66907124" uid="633013" user="Honning" />
	<node id="6258101174" lat="59.4654828" lon="11.1132256" version="2" timestamp="2019-03-28T08:45:22Z" changeset="68616777" uid="1378395" user="Jon Harald Søby" />
	<node id="6258101175" lat="59.4653789" lon="11.1139208" version="1" timestamp="2019-02-04T15:38:05Z" changeset="66907124" uid="633013" user="Honning" />
	<node id="6258101176" lat="59.4652972" lon="11.1144894" version="1" timestamp="2019-02-04T15:38:05Z" changeset="66907124" uid="633013" user="Honning" />
	<node id="6258101177" lat="59.4649187" lon="11.1142454" version="2" timestamp="2019-03-28T08:45:22Z" changeset="68616777" uid="1378395" user="Jon Harald Søby" />
	<node id="6258101178" lat="59.4648069" lon="11.113559" version="2" timestamp="2019-03-28T08:45:22Z" changeset="68616777" uid="1378395" user="Jon Harald Søby" />
	<node id="6258101179" lat="59.4647441" lon="11.1136031" version="2" timestamp="2019-03-28T08:45:21Z" changeset="68616777" uid="1378395" user="Jon Harald Søby" />
	<node id="6258101180" lat="59.4645163" lon="11.1130223" version="1" timestamp="2019-02-04T15:38:05Z" changeset="66907124" uid="633013" user="Honning" />
	<node id="6258101181" lat="59.4644918" lon="11.1128587" version="1" timestamp="2019-02-04T15:38:05Z" changeset="66907124" uid="633013" user="Honning" />
	<node id="6258101182" lat="59.464624" lon="11.112738" version="1" timestamp="2019-02-04T15:38:05Z" changeset="66907124" uid="633013" user="Honning" />
	<node id="6258101183" lat="59.4647916" lon="11.1129686" version="1" timestamp="2019-02-04T15:38:05Z" changeset="66907124" uid="633013" user="Honning" />
	<node id="6258101184" lat="59.4650873" lon="11.1125421" version="1" timestamp="2019-02-04T15:38:05Z" changeset="66907124" uid="633013" user="Honning" />
	<node id="6258101285" lat="59.4651349" lon="11.1124505" version="2" timestamp="2019-03-28T08:45:22Z" changeset="68616777" uid="1378395" user="Jon Harald Søby" />
	<node id="6258101286" lat="59.465307" lon="11.1124521" version="2" timestamp="2019-03-28T08:45:22Z" changeset="68616777" uid="1378395" user="Jon Harald Søby" />
	<node id="6258101287" lat="59.4656923" lon="11.1128211" version="1" timestamp="2019-02-04T15:38:05Z" changeset="66907124" uid="633013" user="Honning" />
	<node id="6367084126" lat="59.4646094" lon="11.1132555" version="1" timestamp="2019-03-28T08:45:09Z" changeset="68616777" uid="1378395" user="Jon Harald Søby" />
	<node id="6367084144" lat="59.4648625" lon="11.1135625" version="1" timestamp="2019-03-28T08:45:09Z" changeset="68616777" uid="1378395" user="Jon Harald Søby" />
	<node id="6367084145" lat="59.4649046" lon="11.1136154" version="1" timestamp="2019-03-28T08:45:09Z" changeset="68616777" uid="1378395" user="Jon Harald Søby" />
	<node id="6367084146" lat="59.4649324" lon="11.1137443" version="1" timestamp="2019-03-28T08:45:09Z" changeset="68616777" uid="1378395" user="Jon Harald Søby" />
	<node id="6367084147" lat="59.4649369" lon="11.114136" version="1" timestamp="2019-03-28T08:45:09Z" changeset="68616777" uid="1378395" user="Jon Harald Søby" />
	<node id="6367084148" lat="59.4649459" lon="11.1139331" version="1" timestamp="2019-03-28T08:45:09Z" changeset="68616777" uid="1378395" user="Jon Harald Søby" />
	<node id="6367084149" lat="59.4655987" lon="11.1120817" version="1" timestamp="2019-03-28T08:45:09Z" changeset="68616777" uid="1378395" user="Jon Harald Søby" />
	<node id="6367084150" lat="59.4658102" lon="11.1118714" version="1" timestamp="2019-03-28T08:45:09Z" changeset="68616777" uid="1378395" user="Jon Harald Søby" />
	<node id="6367084151" lat="59.465953" lon="11.1117851" version="1" timestamp="2019-03-28T08:45:09Z" changeset="68616777" uid="1378395" user="Jon Harald Søby" />
	<node id="6367084152" lat="59.4659807" lon="11.1119695" version="1" timestamp="2019-03-28T08:45:09Z" changeset="68616777" uid="1378395" user="Jon Harald Søby" />
	<node id="6367084269" lat="59.4648607" lon="11.1128689" version="1" timestamp="2019-03-28T08:45:11Z" changeset="68616777" uid="1378395" user="Jon Harald Søby" />
	<node id="6367084270" lat="59.4648233" lon="11.1129229" version="1" timestamp="2019-03-28T08:45:11Z" changeset="68616777" uid="1378395" user="Jon Harald Søby" />
	<node id="6413045301" lat="59.4654372" lon="11.1122867" version="1" timestamp="2019-04-18T02:52:12Z" changeset="69328470" uid="1378395" user="Jon Harald Søby" />
	<node id="6258089459" lat="59.4182054" lon="11.1651456" version="1" timestamp="2019-02-04T15:38:04Z" changeset="66907124" uid="633013" user="Honning" />
	<node id="6258089460" lat="59.4179994" lon="11.1652073" version="1" timestamp="2019-02-04T15:38:04Z" changeset="66907124" uid="633013" user="Honning" />
	<node id="6258089461" lat="59.4179598" lon="11.1652905" version="1" timestamp="2019-02-04T15:38:04Z" changeset="66907124" uid="633013" user="Honning" />
	<node id="6258089462" lat="59.4177838" lon="11.166122" version="1" timestamp="2019-02-04T15:38:04Z" changeset="66907124" uid="633013" user="Honning" />
	<node id="6258089463" lat="59.4181181" lon="11.1664921" version="1" timestamp="2019-02-04T15:38:04Z" changeset="66907124" uid="633013" user="Honning" />
	<node id="6258089464" lat="59.4184279" lon="11.1673021" version="1" timestamp="2019-02-04T15:38:04Z" changeset="66907124" uid="633013" user="Honning" />
	<node id="6258089465" lat="59.4186926" lon="11.1668864" version="1" timestamp="2019-02-04T15:38:04Z" changeset="66907124" uid="633013" user="Honning" />
	<node id="6258089466" lat="59.4186626" lon="11.1659744" version="1" timestamp="2019-02-04T15:38:04Z" changeset="66907124" uid="633013" user="Honning" />
	<node id="6258089467" lat="59.4186967" lon="11.1654916" version="1" timestamp="2019-02-04T15:38:04Z" changeset="66907124" uid="633013" user="Honning" />
	<node id="6258089468" lat="59.4186462" lon="11.1651027" version="1" timestamp="2019-02-04T15:38:04Z" changeset="66907124" uid="633013" user="Honning" />
	<node id="6258089469" lat="59.4184497" lon="11.1649257" version="1" timestamp="2019-02-04T15:38:04Z" changeset="66907124" uid="633013" user="Honning" />
	<node id="6258101161" lat="59.4659036" lon="11.1156321" version="1" timestamp="2019-02-04T15:38:05Z" changeset="66907124" uid="633013" user="Honning" />
	<node id="6258101162" lat="59.4660698" lon="11.1159781" version="1" timestamp="2019-02-04T15:38:05Z" changeset="66907124" uid="633013" user="Honning" />
	<node id="6258101163" lat="59.4662006" lon="11.1159405" version="1" timestamp="2019-02-04T15:38:05Z" changeset="66907124" uid="633013" user="Honning" />
	<node id="6258101164" lat="59.4664582" lon="11.1153853" version="1" timestamp="2019-02-04T15:38:05Z" changeset="66907124" uid="633013" user="Honning" />
	<node id="6413045290" lat="59.4663712" lon="11.1155729" version="1" timestamp="2019-04-18T02:52:12Z" changeset="69328470" uid="1378395" user="Jon Harald Søby" />
	<node id="6413045300" lat="59.466025" lon="11.1152923" version="1" timestamp="2019-04-18T02:52:12Z" changeset="69328470" uid="1378395" user="Jon Harald Søby" />
	<node id="6258101111" lat="59.4498717" lon="11.1603337" version="2" timestamp="2019-04-18T22:04:00Z" changeset="69361092" uid="1378395" user="Jon Harald Søby" />
	<node id="6258101112" lat="59.449659" lon="11.1605322" version="1" timestamp="2019-02-04T15:38:04Z" changeset="66907124" uid="633013" user="Honning" />
	<node id="6258101117" lat="59.4489391" lon="11.1602157" version="2" timestamp="2019-04-18T22:04:00Z" changeset="69361092" uid="1378395" user="Jon Harald Søby" />
	<node id="6258101118" lat="59.4492036" lon="11.159867" version="2" timestamp="2019-04-18T22:04:00Z" changeset="69361092" uid="1378395" user="Jon Harald Søby" />
	<node id="6258101119" lat="59.4496426" lon="11.159969" version="2" timestamp="2019-04-18T22:04:00Z" changeset="69361092" uid="1378395" user="Jon Harald Søby" />
	<node id="6258101120" lat="59.4498553" lon="11.160264" version="2" timestamp="2019-04-18T22:04:00Z" changeset="69361092" uid="1378395" user="Jon Harald Søby" />
	<node id="6258101101" lat="59.4503161" lon="11.1659905" version="2" timestamp="2019-04-18T22:04:00Z" changeset="69361092" uid="1378395" user="Jon Harald Søby" />
	<node id="6258101102" lat="59.4501525" lon="11.1659691" version="2" timestamp="2019-04-18T22:04:00Z" changeset="69361092" uid="1378395" user="Jon Harald Søby" />
	<node id="6258101103" lat="59.4500448" lon="11.1664787" version="2" timestamp="2019-04-18T22:04:00Z" changeset="69361092" uid="1378395" user="Jon Harald Søby" />
	<node id="6258101104" lat="59.4498962" lon="11.1663929" version="1" timestamp="2019-02-04T15:38:04Z" changeset="66907124" uid="633013" user="Honning" />
	<node id="6258101105" lat="59.4499371" lon="11.1657411" version="2" timestamp="2019-04-18T22:04:00Z" changeset="69361092" uid="1378395" user="Jon Harald Søby" />
	<node id="6258101106" lat="59.4500271" lon="11.1656123" version="2" timestamp="2019-04-18T22:04:00Z" changeset="69361092" uid="1378395" user="Jon Harald Søby" />
	<node id="6258101107" lat="59.4501198" lon="11.1656311" version="2" timestamp="2019-04-18T22:04:00Z" changeset="69361092" uid="1378395" user="Jon Harald Søby" />
	<node id="6258101108" lat="59.4501975" lon="11.1654192" version="2" timestamp="2019-04-18T22:04:00Z" changeset="69361092" uid="1378395" user="Jon Harald Søby" />
	<node id="6258101109" lat="59.4502766" lon="11.1654273" version="2" timestamp="2019-04-18T22:04:00Z" changeset="69361092" uid="1378395" user="Jon Harald Søby" />
	<node id="6258101110" lat="59.4503475" lon="11.1656472" version="2" timestamp="2019-04-18T22:04:00Z" changeset="69361092" uid="1378395" user="Jon Harald Søby" />
	<node id="6258101113" lat="59.4497217" lon="11.1609185" version="1" timestamp="2019-02-04T15:38:05Z" changeset="66907124" uid="633013" user="Honning" />
	<node id="6258101114" lat="59.4495608" lon="11.1611116" version="1" timestamp="2019-02-04T15:38:05Z" changeset="66907124" uid="633013" user="Honning" />
	<node id="6258101115" lat="59.4492091" lon="11.1611545" version="1" timestamp="2019-02-04T15:38:05Z" changeset="66907124" uid="633013" user="Honning" />
	<node id="6258101116" lat="59.4489146" lon="11.1608702" version="2" timestamp="2019-04-18T22:04:00Z" changeset="69361092" uid="1378395" user="Jon Harald Søby" />
	<node id="6258101143" lat="59.4537052" lon="11.1589605" version="1" timestamp="2019-02-04T15:38:05Z" changeset="66907124" uid="633013" user="Honning" />
	<node id="6258101144" lat="59.4536098" lon="11.1590007" version="1" timestamp="2019-02-04T15:38:05Z" changeset="66907124" uid="633013" user="Honning" />
	<node id="6258101145" lat="59.4533986" lon="11.1593246" version="2" timestamp="2019-03-29T10:18:00Z" changeset="68659469" uid="1378395" user="Jon Harald Søby" />
	<node id="6258101146" lat="59.4532238" lon="11.1603433" version="2" timestamp="2019-03-29T10:18:00Z" changeset="68659469" uid="1378395" user="Jon Harald Søby" />
	<node id="6258101147" lat="59.4532715" lon="11.1605151" version="2" timestamp="2019-03-29T10:18:00Z" changeset="68659469" uid="1378395" user="Jon Harald Søby" />
	<node id="6258101148" lat="59.4538503" lon="11.1602269" version="2" timestamp="2019-03-29T10:18:00Z" changeset="68659469" uid="1378395" user="Jon Harald Søby" />
	<node id="6258101149" lat="59.4539206" lon="11.1598683" version="2" timestamp="2019-03-29T10:18:00Z" changeset="68659469" uid="1378395" user="Jon Harald Søby" />
	<node id="6258101150" lat="59.4540352" lon="11.1597552" version="2" timestamp="2019-03-29T10:18:00Z" changeset="68659469" uid="1378395" user="Jon Harald Søby" />
	<node id="6258101152" lat="59.453808" lon="11.1590326" version="2" timestamp="2019-03-29T10:18:00Z" changeset="68659469" uid="1378395" user="Jon Harald Søby" />
	<node id="6369907117" lat="59.4532375" lon="11.1595867" version="1" timestamp="2019-03-29T10:17:50Z" changeset="68659469" uid="1378395" user="Jon Harald Søby" />
	<node id="6369907118" lat="59.4531603" lon="11.1601004" version="1" timestamp="2019-03-29T10:17:50Z" changeset="68659469" uid="1378395" user="Jon Harald Søby" />
	<node id="6369907119" lat="59.4531751" lon="11.1596981" version="1" timestamp="2019-03-29T10:17:50Z" changeset="68659469" uid="1378395" user="Jon Harald Søby" />
	<node id="6369907120" lat="59.4531452" lon="11.1598664" version="1" timestamp="2019-03-29T10:17:50Z" changeset="68659469" uid="1378395" user="Jon Harald Søby" />
	<node id="6258101121" lat="59.4522857" lon="11.165161" version="2" timestamp="2019-03-29T10:17:59Z" changeset="68659469" uid="1378395" user="Jon Harald Søby" />
	<node id="6258101122" lat="59.4521573" lon="11.1658169" version="2" timestamp="2019-03-29T10:17:59Z" changeset="68659469" uid="1378395" user="Jon Harald Søby" />
	<node id="6258101123" lat="59.452244" lon="11.1659858" version="2" timestamp="2019-03-29T10:18:00Z" changeset="68659469" uid="1378395" user="Jon Harald Søby" />
	<node id="6258101124" lat="59.4522956" lon="11.1661809" version="2" timestamp="2019-03-29T10:18:00Z" changeset="68659469" uid="1378395" user="Jon Harald Søby" />
	<node id="6258101125" lat="59.452149" lon="11.1661449" version="2" timestamp="2019-03-29T10:18:00Z" changeset="68659469" uid="1378395" user="Jon Harald Søby" />
	<node id="6258101126" lat="59.4520911" lon="11.1662775" version="1" timestamp="2019-02-04T15:38:05Z" changeset="66907124" uid="633013" user="Honning" />
	<node id="6258101127" lat="59.4520339" lon="11.166771" version="1" timestamp="2019-02-04T15:38:05Z" changeset="66907124" uid="633013" user="Honning" />
	<node id="6258101128" lat="59.4522765" lon="11.1668032" version="1" timestamp="2019-02-04T15:38:05Z" changeset="66907124" uid="633013" user="Honning" />
	<node id="6258101135" lat="59.4526583" lon="11.1670715" version="1" timestamp="2019-02-04T15:38:05Z" changeset="66907124" uid="633013" user="Honning" />
	<node id="6258101136" lat="59.4530291" lon="11.1668891" version="1" timestamp="2019-02-04T15:38:05Z" changeset="66907124" uid="633013" user="Honning" />
	<node id="6258101137" lat="59.4530618" lon="11.1665726" version="1" timestamp="2019-02-04T15:38:05Z" changeset="66907124" uid="633013" user="Honning" />
	<node id="6258101138" lat="59.4528273" lon="11.1662453" version="1" timestamp="2019-02-04T15:38:05Z" changeset="66907124" uid="633013" user="Honning" />
	<node id="6258101139" lat="59.4526957" lon="11.1661454" version="2" timestamp="2019-03-29T10:18:00Z" changeset="68659469" uid="1378395" user="Jon Harald Søby" />
	<node id="6258101140" lat="59.4525411" lon="11.1659646" version="2" timestamp="2019-03-29T10:18:00Z" changeset="68659469" uid="1378395" user="Jon Harald Søby" />
	<node id="6258101141" lat="59.4525122" lon="11.1658259" version="2" timestamp="2019-03-29T10:18:00Z" changeset="68659469" uid="1378395" user="Jon Harald Søby" />
	<node id="6258101142" lat="59.4525138" lon="11.1652905" version="1" timestamp="2019-02-04T15:38:05Z" changeset="66907124" uid="633013" user="Honning" />
	<node id="6369907000" lat="59.4520753" lon="11.166414" version="1" timestamp="2019-03-29T10:17:49Z" changeset="68659469" uid="1378395" user="Jon Harald Søby" />
	<node id="6369907008" lat="59.4523286" lon="11.1661444" version="1" timestamp="2019-03-29T10:17:49Z" changeset="68659469" uid="1378395" user="Jon Harald Søby" />
	<node id="6369907009" lat="59.4523183" lon="11.1660343" version="1" timestamp="2019-03-29T10:17:49Z" changeset="68659469" uid="1378395" user="Jon Harald Søby" />
	<node id="6369907018" lat="59.4522248" lon="11.1655016" version="1" timestamp="2019-03-29T10:17:49Z" changeset="68659469" uid="1378395" user="Jon Harald Søby" />
	<node id="6369907051" lat="59.4521856" lon="11.1656694" version="1" timestamp="2019-03-29T10:17:49Z" changeset="68659469" uid="1378395" user="Jon Harald Søby" />
	<node id="6369907052" lat="59.4521715" lon="11.1659481" version="1" timestamp="2019-03-29T10:17:49Z" changeset="68659469" uid="1378395" user="Jon Harald Søby" />
	<node id="6369907053" lat="59.4522281" lon="11.1661842" version="1" timestamp="2019-03-29T10:17:49Z" changeset="68659469" uid="1378395" user="Jon Harald Søby" />
	<node id="6369907428" lat="59.4525803" lon="11.1653311" version="1" timestamp="2019-03-29T10:17:53Z" changeset="68659469" uid="1378395" user="Jon Harald Søby" />
	<node id="6258089484" lat="59.4224246" lon="11.1704001" version="1" timestamp="2019-02-04T15:38:04Z" changeset="66907124" uid="633013" user="Honning" />
	<node id="6258101085" lat="59.4223536" lon="11.1708319" version="1" timestamp="2019-02-04T15:38:04Z" changeset="66907124" uid="633013" user="Honning" />
	<node id="6258101086" lat="59.4224273" lon="11.1709553" version="1" timestamp="2019-02-04T15:38:04Z" changeset="66907124" uid="633013" user="Honning" />
	<node id="6258101087" lat="59.422516" lon="11.1709553" version="1" timestamp="2019-02-04T15:38:04Z" changeset="66907124" uid="633013" user="Honning" />
	<node id="6258101088" lat="59.4226866" lon="11.1708695" version="1" timestamp="2019-02-04T15:38:04Z" changeset="66907124" uid="633013" user="Honning" />
	<node id="6258101089" lat="59.4227152" lon="11.1703169" version="1" timestamp="2019-02-04T15:38:04Z" changeset="66907124" uid="633013" user="Honning" />
	<node id="6258101090" lat="59.4226593" lon="11.1702096" version="1" timestamp="2019-02-04T15:38:04Z" changeset="66907124" uid="633013" user="Honning" />
	<node id="6258101091" lat="59.4226252" lon="11.1699602" version="1" timestamp="2019-02-04T15:38:04Z" changeset="66907124" uid="633013" user="Honning" />
	<node id="6258101092" lat="59.4225856" lon="11.1700916" version="1" timestamp="2019-02-04T15:38:04Z" changeset="66907124" uid="633013" user="Honning" />
	<node id="6258101093" lat="59.4225092" lon="11.1701909" version="1" timestamp="2019-02-04T15:38:04Z" changeset="66907124" uid="633013" user="Honning" />
	<node id="6258089470" lat="59.4191651" lon="11.1750306" version="2" timestamp="2019-04-07T11:20:26Z" changeset="68973469" uid="1378395" user="Jon Harald Søby" />
	<node id="6258089471" lat="59.4191845" lon="11.1751047" version="1" timestamp="2019-02-04T15:38:04Z" changeset="66907124" uid="633013" user="Honning" />
	<node id="6258089472" lat="59.4192207" lon="11.1751704" version="1" timestamp="2019-02-04T15:38:04Z" changeset="66907124" uid="633013" user="Honning" />
	<node id="6258089473" lat="59.419306" lon="11.1752146" version="1" timestamp="2019-02-04T15:38:04Z" changeset="66907124" uid="633013" user="Honning" />
	<node id="6258089474" lat="59.4190993" lon="11.1754869" version="1" timestamp="2019-02-04T15:38:04Z" changeset="66907124" uid="633013" user="Honning" />
	<node id="6258089475" lat="59.4190535" lon="11.1758168" version="1" timestamp="2019-02-04T15:38:04Z" changeset="66907124" uid="633013" user="Honning" />
	<node id="6258089476" lat="59.4189451" lon="11.1759549" version="1" timestamp="2019-02-04T15:38:04Z" changeset="66907124" uid="633013" user="Honning" />
	<node id="6258089477" lat="59.4185957" lon="11.1762151" version="1" timestamp="2019-02-04T15:38:04Z" changeset="66907124" uid="633013" user="Honning" />
	<node id="6258089478" lat="59.4185589" lon="11.1761481" version="1" timestamp="2019-02-04T15:38:04Z" changeset="66907124" uid="633013" user="Honning" />
	<node id="6258089479" lat="59.4188263" lon="11.1756921" version="1" timestamp="2019-02-04T15:38:04Z" changeset="66907124" uid="633013" user="Honning" />
	<node id="6258089480" lat="59.4187486" lon="11.1751047" version="1" timestamp="2019-02-04T15:38:04Z" changeset="66907124" uid="633013" user="Honning" />
	<node id="6258089481" lat="59.418769" lon="11.1750135" version="1" timestamp="2019-02-04T15:38:04Z" changeset="66907124" uid="633013" user="Honning" />
	<node id="6258089482" lat="59.4189041" lon="11.1749813" version="1" timestamp="2019-02-04T15:38:04Z" changeset="66907124" uid="633013" user="Honning" />
	<node id="6258089483" lat="59.4191707" lon="11.1748453" version="2" timestamp="2019-04-07T11:20:26Z" changeset="68973469" uid="1378395" user="Jon Harald Søby" />
	<node id="6258101094" lat="59.4243498" lon="11.176191" version="1" timestamp="2019-02-04T15:38:04Z" changeset="66907124" uid="633013" user="Honning" />
	<node id="6258101095" lat="59.4244548" lon="11.1766174" version="1" timestamp="2019-02-04T15:38:04Z" changeset="66907124" uid="633013" user="Honning" />
	<node id="6258101096" lat="59.4246499" lon="11.1765665" version="1" timestamp="2019-02-04T15:38:04Z" changeset="66907124" uid="633013" user="Honning" />
	<node id="6258101097" lat="59.4247263" lon="11.1765316" version="1" timestamp="2019-02-04T15:38:04Z" changeset="66907124" uid="633013" user="Honning" />
	<node id="6258101098" lat="59.4247263" lon="11.1762178" version="1" timestamp="2019-02-04T15:38:04Z" changeset="66907124" uid="633013" user="Honning" />
	<node id="6258101099" lat="59.4245899" lon="11.1761695" version="1" timestamp="2019-02-04T15:38:04Z" changeset="66907124" uid="633013" user="Honning" />
	<node id="6258101100" lat="59.4244194" lon="11.1761293" version="1" timestamp="2019-02-04T15:38:04Z" changeset="66907124" uid="633013" user="Honning" />
	<node id="6258101129" lat="59.4520612" lon="11.1679083" version="1" timestamp="2019-02-04T15:38:05Z" changeset="66907124" uid="633013" user="Honning" />
	<node id="6258101130" lat="59.4517421" lon="11.1688685" version="1" timestamp="2019-02-04T15:38:05Z" changeset="66907124" uid="633013" user="Honning" />
	<node id="6258101131" lat="59.4518021" lon="11.168949" version="1" timestamp="2019-02-04T15:38:05Z" changeset="66907124" uid="633013" user="Honning" />
	<node id="6258101132" lat="59.4520012" lon="11.1687452" version="1" timestamp="2019-02-04T15:38:05Z" changeset="66907124" uid="633013" user="Honning" />
	<node id="6258101133" lat="59.4523556" lon="11.1678225" version="1" timestamp="2019-02-04T15:38:05Z" changeset="66907124" uid="633013" user="Honning" />
	<node id="6258101134" lat="59.452601" lon="11.167624" version="1" timestamp="2019-02-04T15:38:05Z" changeset="66907124" uid="633013" user="Honning" />
	<node id="6369906979" lat="59.4521352" lon="11.1675287" version="1" timestamp="2019-03-29T10:17:48Z" changeset="68659469" uid="1378395" user="Jon Harald Søby" />
	<way id="668277645" version="1" timestamp="2019-02-04T15:38:25Z" changeset="66907124" uid="633013" user="Honning">
		<tag k="landuse" v="farmyard" />
		<tag k="name" v="Bjørkebru" />
		<tag k="place" v="farm" />
		<tag k="ssr:stedsnr" v="204673" />
		<nd ref="6258089469" />
		<nd ref="6258089468" />
		<nd ref="6258089467" />
		<nd ref="6258089466" />
		<nd ref="6258089465" />
		<nd ref="6258089464" />
		<nd ref="6258089463" />
		<nd ref="6258089462" />
		<nd ref="6258089461" />
		<nd ref="6258089460" />
		<nd ref="6258089459" />
		<nd ref="6258089469" />
	</way>
	<way id="668277646" version="1" timestamp="2019-02-04T15:38:25Z" changeset="66907124" uid="633013" user="Honning">
		<tag k="landuse" v="farmyard" />
		<tag k="name" v="Svartedal" />
		<tag k="place" v="farm" />
		<tag k="ssr:stedsnr" v="427133" />
		<nd ref="6258089483" />
		<nd ref="6258089482" />
		<nd ref="6258089481" />
		<nd ref="6258089480" />
		<nd ref="6258089479" />
		<nd ref="6258089478" />
		<nd ref="6258089477" />
		<nd ref="6258089476" />
		<nd ref="6258089475" />
		<nd ref="6258089474" />
		<nd ref="6258089473" />
		<nd ref="6258089472" />
		<nd ref="6258089471" />
		<nd ref="6258089470" />
		<nd ref="6258089483" />
	</way>
	<way id="668277647" version="1" timestamp="2019-02-04T15:38:25Z" changeset="66907124" uid="633013" user="Honning">
		<tag k="landuse" v="farmyard" />
		<tag k="name" v="Holen" />
		<tag k="place" v="farm" />
		<tag k="ssr:stedsnr" v="507511" />
		<nd ref="6258101093" />
		<nd ref="6258101092" />
		<nd ref="6258101091" />
		<nd ref="6258101090" />
		<nd ref="6258101089" />
		<nd ref="6258101088" />
		<nd ref="6258101087" />
		<nd ref="6258101086" />
		<nd ref="6258101085" />
		<nd ref="6258089484" />
		<nd ref="6258101093" />
	</way>
	<way id="668277648" version="1" timestamp="2019-02-04T15:38:25Z" changeset="66907124" uid="633013" user="Honning">
		<tag k="landuse" v="farmyard" />
		<tag k="name" v="Kastet" />
		<tag k="place" v="farm" />
		<tag k="ssr:stedsnr" v="245165" />
		<nd ref="6258101100" />
		<nd ref="6258101099" />
		<nd ref="6258101098" />
		<nd ref="6258101097" />
		<nd ref="6258101096" />
		<nd ref="6258101095" />
		<nd ref="6258101094" />
		<nd ref="6258101100" />
	</way>
	<way id="668277649" version="1" timestamp="2019-02-04T15:38:25Z" changeset="66907124" uid="633013" user="Honning">
		<tag k="landuse" v="farmyard" />
		<tag k="name" v="Østereng" />
		<tag k="place" v="farm" />
		<tag k="ssr:stedsnr" v="690952" />
		<nd ref="6258101110" />
		<nd ref="6258101109" />
		<nd ref="6258101108" />
		<nd ref="6258101107" />
		<nd ref="6258101106" />
		<nd ref="6258101105" />
		<nd ref="6258101104" />
		<nd ref="6258101103" />
		<nd ref="6258101102" />
		<nd ref="6258101101" />
		<nd ref="6258101110" />
	</way>
	<way id="668277650" version="1" timestamp="2019-02-04T15:38:25Z" changeset="66907124" uid="633013" user="Honning">
		<tag k="alt_name" v="Åmot søndre" />
		<tag k="landuse" v="farmyard" />
		<tag k="name" v="Søndre Åmot" />
		<tag k="place" v="farm" />
		<tag k="ssr:stedsnr" v="852247" />
		<nd ref="6258101120" />
		<nd ref="6258101119" />
		<nd ref="6258101118" />
		<nd ref="6258101117" />
		<nd ref="6258101116" />
		<nd ref="6258101115" />
		<nd ref="6258101114" />
		<nd ref="6258101113" />
		<nd ref="6258101112" />
		<nd ref="6258101111" />
		<nd ref="6258101120" />
	</way>
	<way id="668277651" version="2" timestamp="2019-03-29T10:18:00Z" changeset="68659469" uid="1378395" user="Jon Harald Søby">
		<tag k="alt_name" v="Åmot østre" />
		<tag k="landuse" v="farmyard" />
		<tag k="name" v="Østre Åmot" />
		<tag k="place" v="farm" />
		<tag k="ssr:stedsnr" v="852248" />
		<nd ref="6258101142" />
		<nd ref="6369907428" />
		<nd ref="6258101141" />
		<nd ref="6258101140" />
		<nd ref="6258101139" />
		<nd ref="6258101138" />
		<nd ref="6258101137" />
		<nd ref="6258101136" />
		<nd ref="6258101135" />
		<nd ref="6258101134" />
		<nd ref="6258101133" />
		<nd ref="6258101132" />
		<nd ref="6258101131" />
		<nd ref="6258101130" />
		<nd ref="6258101129" />
		<nd ref="6369906979" />
		<nd ref="6258101128" />
		<nd ref="6258101127" />
		<nd ref="6369907000" />
		<nd ref="6258101126" />
		<nd ref="6258101125" />
		<nd ref="6369907053" />
		<nd ref="6258101124" />
		<nd ref="6369907008" />
		<nd ref="6369907009" />
		<nd ref="6258101123" />
		<nd ref="6369907052" />
		<nd ref="6258101122" />
		<nd ref="6369907051" />
		<nd ref="6369907018" />
		<nd ref="6258101121" />
		<nd ref="6258101142" />
	</way>
	<way id="668277652" version="2" timestamp="2019-03-29T10:18:00Z" changeset="68659469" uid="1378395" user="Jon Harald Søby">
		<tag k="alt_name" v="Åmot nordre" />
		<tag k="landuse" v="farmyard" />
		<tag k="name" v="Nordre Åmot" />
		<tag k="place" v="farm" />
		<tag k="ssr:stedsnr" v="123264" />
		<nd ref="6258101152" />
		<nd ref="6258101150" />
		<nd ref="6258101149" />
		<nd ref="6258101148" />
		<nd ref="6258101147" />
		<nd ref="6258101146" />
		<nd ref="6369907118" />
		<nd ref="6369907120" />
		<nd ref="6369907119" />
		<nd ref="6369907117" />
		<nd ref="6258101145" />
		<nd ref="6258101144" />
		<nd ref="6258101143" />
		<nd ref="6258101152" />
	</way>
	<way id="668277654" version="2" timestamp="2019-04-18T02:52:21Z" changeset="69328470" uid="1378395" user="Jon Harald Søby">
		<tag k="landuse" v="farmyard" />
		<tag k="name" v="Nordli (Bogen)" />
		<tag k="place" v="farm" />
		<tag k="ssr:stedsnr" v="83993" />
		<nd ref="6258101166" />
		<nd ref="6258101165" />
		<nd ref="6258101164" />
		<nd ref="6413045290" />
		<nd ref="6258101163" />
		<nd ref="6258101162" />
		<nd ref="6258101161" />
		<nd ref="6413045300" />
		<nd ref="6258101166" />
	</way>
	<way id="668277655" version="1" timestamp="2019-02-04T15:38:26Z" changeset="66907124" uid="633013" user="Honning">
		<tag k="alt_name" v="Bogen vestre" />
		<tag k="landuse" v="farmyard" />
		<tag k="name" v="Bogen" />
		<tag k="place" v="farm" />
		<tag k="ssr:stedsnr" v="63007" />
		<nd ref="6258101173" />
		<nd ref="6258101172" />
		<nd ref="6258101171" />
		<nd ref="6258101170" />
		<nd ref="6258101169" />
		<nd ref="6258101168" />
		<nd ref="6258101167" />
		<nd ref="6258101173" />
	</way>
	<way id="668277656" version="3" timestamp="2019-04-18T02:52:21Z" changeset="69328470" uid="1378395" user="Jon Harald Søby">
		<tag k="landuse" v="farmyard" />
		<tag k="name" v="Bogen" />
		<tag k="place" v="farm" />
		<tag k="ssr:stedsnr" v="22927" />
		<nd ref="6258101287" />
		<nd ref="6367084152" />
		<nd ref="6367084151" />
		<nd ref="6367084150" />
		<nd ref="6367084149" />
		<nd ref="6413045301" />
		<nd ref="6258101286" />
		<nd ref="6258101285" />
		<nd ref="6258101184" />
		<nd ref="6367084269" />
		<nd ref="6367084270" />
		<nd ref="6258101183" />
		<nd ref="6258101182" />
		<nd ref="6258101181" />
		<nd ref="6258101180" />
		<nd ref="6367084126" />
		<nd ref="6258101179" />
		<nd ref="6258101178" />
		<nd ref="6367084144" />
		<nd ref="6367084145" />
		<nd ref="6367084146" />
		<nd ref="6367084148" />
		<nd ref="6367084147" />
		<nd ref="6258101177" />
		<nd ref="6258101176" />
		<nd ref="6258101175" />
		<nd ref="6258101174" />
		<nd ref="6258101287" />
	</way>
</osm>
