<?xml version="1.0" encoding="UTF-8"?>
<osm version="0.6" generator="osmapis">
	<node lat="59.639752776500494" lon="9.172119448439977" id="-18392">
		<tag k="alt_name" v="Ljostjørn" />
		<tag k="name" v="Ljostjønn" />
		<tag k="natural" v="water" />
		<tag k="ssr:stedsnr" v="2302" />
	</node>
	<node lat="59.49495277765579" lon="8.899177770993917" id="-18396">
		<tag k="name" v="Småholman" />
		<tag k="natural" v="water" />
		<tag k="ssr:stedsnr" v="2603" />
	</node>
	<node lat="59.51033055936219" lon="8.820630551639152" id="-18398">
		<tag k="name" v="Urdevassåa" />
		<tag k="ssr:stedsnr" v="3038" />
		<tag k="waterway" v="stream" />
	</node>
	<node lat="59.74954489667999" lon="8.996393762364322" id="-18401">
		<tag k="name" v="Deilbekk" />
		<tag k="ssr:stedsnr" v="3106" />
		<tag k="waterway" v="stream" />
	</node>
	<node lat="59.721708334643864" lon="9.15680834004237" id="-18402">
		<tag k="name" v="Ongeløya" />
		<tag k="place" v="islet" />
		<tag k="ssr:stedsnr" v="3069" />
	</node>
	<node lat="59.71879444017629" lon="9.161436107060835" id="-18404">
		<tag k="name" v="Ongelvatn" />
		<tag k="natural" v="water" />
		<tag k="ssr:stedsnr" v="3073" />
	</node>
	<node lat="59.514741668802074" lon="9.445655562241502" id="-18410">
		<tag k="alt_name" v="Taklåstjørn" />
		<tag k="name" v="Taklåstjønn" />
		<tag k="natural" v="water" />
		<tag k="ssr:stedsnr" v="3683" />
	</node>
	<node lat="59.60290000271902" lon="9.346822224203303" id="-18412">
		<tag k="name" v="Vassenden" />
		<tag k="natural" v="water" />
		<tag k="ssr:stedsnr" v="3815" />
	</node>
	<node lat="59.55136110864408" lon="9.452000005069229" id="-18416">
		<tag k="alt_name" v="Primtjørn" />
		<tag k="name" v="Primtjønn" />
		<tag k="natural" v="water" />
		<tag k="ssr:stedsnr" v="3746" />
	</node>
	<node lat="59.771805552391506" lon="9.33065000101788" id="-18420">
		<tag k="alt_name" v="Nåttervatrn" />
		<tag k="name" v="Nåttern" />
		<tag k="natural" v="water" />
		<tag k="ssr:stedsnr" v="3883" />
	</node>
	<node lat="59.76949050866016" lon="9.114550397216732" id="-18422">
		<tag k="alt_name" v="Barlindtjørna" />
		<tag k="name" v="Barlindtjønna" />
		<tag k="natural" v="water" />
		<tag k="ssr:stedsnr" v="4424" />
	</node>
	<node lat="59.763411109281876" lon="9.113119442513234" id="-18423">
		<tag k="alt_name" v="Snipåstjørna" />
		<tag k="name" v="Snipåstjønn" />
		<tag k="natural" v="water" />
		<tag k="ssr:stedsnr" v="4426" />
	</node>
	<node lat="59.81055555534496" lon="8.879061108396836" id="-18424">
		<tag k="name" v="Boslibekken" />
		<tag k="ssr:stedsnr" v="4608" />
		<tag k="waterway" v="stream" />
	</node>
	<node lat="59.74260277458278" lon="9.17487777812758" id="-18430">
		<tag k="name" v="Gvammetjønn" />
		<tag k="natural" v="water" />
		<tag k="ssr:stedsnr" v="41520" />
	</node>
	<node lat="59.51383055898809" lon="9.481077782288423" id="-18442">
		<tag k="name" v="Kjellarfjelltjønn" />
		<tag k="natural" v="water" />
		<tag k="ssr:stedsnr" v="43728" />
	</node>
	<node lat="59.58336111123879" lon="9.007877771763685" id="-18448">
		<tag k="name" v="Løken" />
		<tag k="natural" v="water" />
		<tag k="ssr:stedsnr" v="44098" />
		<tag k="water" v="lake" />
	</node>
	<node lat="59.52526667034334" lon="9.216905563957397" id="-18453">
		<tag k="name" v="Velebekken" />
		<tag k="ssr:stedsnr" v="44484" />
		<tag k="waterway" v="stream" />
	</node>
	<node lat="59.57430555539594" lon="9.371800007339733" id="-18465">
		<tag k="name" v="Bjønndalsbekken" />
		<tag k="ssr:stedsnr" v="45121" />
		<tag k="waterway" v="stream" />
	</node>
	<node lat="59.5323722226951" lon="8.915927774076337" id="-18473">
		<tag k="name" v="Ljoslitjønn" />
		<tag k="natural" v="water" />
		<tag k="ssr:stedsnr" v="45993" />
	</node>
	<node lat="59.56055555416246" lon="9.419088882669085" id="-18474">
		<tag k="name" v="Skvakkhaugbekken" />
		<tag k="ssr:stedsnr" v="45880" />
		<tag k="waterway" v="stream" />
	</node>
	<node lat="59.710091669736364" lon="9.214877782018577" id="-18477">
		<tag k="name" v="Lauvvika" />
		<tag k="natural" v="bay" />
		<tag k="ssr:stedsnr" v="239269" />
	</node>
	<node lat="59.73935000191082" lon="9.085427786024955" id="-18484">
		<tag k="name" v="Tjågestulbukta" />
		<tag k="natural" v="bay" />
		<tag k="ssr:stedsnr" v="239743" />
	</node>
	<node lat="59.73153611497113" lon="9.157411106041154" id="-18485">
		<tag k="name" v="Kvigemyrtjønn" />
		<tag k="natural" v="water" />
		<tag k="ssr:stedsnr" v="55523" />
	</node>
	<node lat="59.71410555312848" lon="9.219897217745872" id="-18488">
		<tag k="name" v="Esperåtjønna" />
		<tag k="natural" v="water" />
		<tag k="ssr:stedsnr" v="57221" />
	</node>
	<node lat="59.7102055568425" lon="9.247099991151195" id="-18492">
		<tag k="name" v="Nauståa" />
		<tag k="ssr:stedsnr" v="57518" />
		<tag k="waterway" v="stream" />
	</node>
	<node lat="59.65435833017277" lon="9.369899992778445" id="-18494">
		<tag k="name" v="Buringstjønn" />
		<tag k="natural" v="water" />
		<tag k="ssr:stedsnr" v="57573" />
	</node>
	<node lat="59.65315555586237" lon="9.278724996331293" id="-18496">
		<tag k="name" v="Grautebekk" />
		<tag k="ssr:stedsnr" v="240830" />
		<tag k="waterway" v="stream" />
	</node>
	<node lat="59.50504722658912" lon="8.943930549221312" id="-18508">
		<tag k="alt_name" v="Skardtjørna" />
		<tag k="name" v="Skardtjønn" />
		<tag k="natural" v="water" />
		<tag k="ssr:stedsnr" v="63406" />
	</node>
	<node lat="59.74339999730685" lon="9.083419440400158" id="-18511">
		<tag k="name" v="Tjågevatn" />
		<tag k="natural" v="water" />
		<tag k="ssr:stedsnr" v="64107" />
		<tag k="water" v="lake" />
	</node>
	<node lat="59.69302777506249" lon="9.054727769601937" id="-18517">
		<tag k="name" v="Bøenøya" />
		<tag k="place" v="islet" />
		<tag k="ssr:stedsnr" v="64143" />
	</node>
	<node lat="59.65366667033099" lon="9.134311112036533" id="-18522">
		<tag k="name" v="Homvatn" />
		<tag k="natural" v="water" />
		<tag k="ssr:stedsnr" v="64206" />
	</node>
	<node lat="59.61784008164401" lon="9.16554328347291" id="-18524">
		<tag k="name" v="Bondo" />
		<tag k="natural" v="water" />
		<tag k="ssr:stedsnr" v="64304" />
	</node>
	<node lat="59.76759999726122" lon="9.022124995195565" id="-18526">
		<tag k="name" v="Fanteneset" />
		<tag k="natural" v="cape" />
		<tag k="ssr:stedsnr" v="64263" />
	</node>
	<node lat="59.77306608255439" lon="8.926731174779333" id="-18528">
		<tag k="alt_name" v="Blodtjørn" />
		<tag k="name" v="Blodtjønn" />
		<tag k="natural" v="water" />
		<tag k="ssr:stedsnr" v="64460" />
	</node>
	<node lat="59.508974996332086" lon="9.427300005973537" id="-18531">
		<tag k="name" v="Løynfisktjørnene" />
		<tag k="natural" v="water" />
		<tag k="ssr:stedsnr" v="64712" />
	</node>
	<node lat="59.508863891537715" lon="9.433019450388759" id="-18532">
		<tag k="alt_name" v="Kringletjørn" />
		<tag k="name" v="Kringletjønn" />
		<tag k="natural" v="water" />
		<tag k="ssr:stedsnr" v="64721" />
	</node>
	<node lat="59.50331111489712" lon="9.419869452197988" id="-18533">
		<tag k="alt_name" v="Bråtatjørn" />
		<tag k="name" v="Bråtåtjønn" />
		<tag k="natural" v="water" />
		<tag k="ssr:stedsnr" v="64722" />
	</node>
	<node lat="59.55391667035482" lon="9.416233333542218" id="-18536">
		<tag k="alt_name" v="Rakketjørn, nedre;Rakketjønn, nedre" />
		<tag k="name" v="Nedre Rakketjønn" />
		<tag k="natural" v="water" />
		<tag k="ssr:stedsnr" v="64771" />
	</node>
	<node lat="59.559175000894946" lon="9.457430549636502" id="-18537">
		<tag k="name" v="Drevdalstjørnene" />
		<tag k="natural" v="water" />
		<tag k="ssr:stedsnr" v="64772" />
	</node>
	<node lat="59.59670833484491" lon="9.292377775759368" id="-18541">
		<tag k="alt_name" v="Damtjørn" />
		<tag k="name" v="Damtjønn" />
		<tag k="natural" v="water" />
		<tag k="ssr:stedsnr" v="64860" />
	</node>
	<node lat="59.764263892664864" lon="9.148338881576363" id="-18545">
		<tag k="alt_name" v="Timreitjørn" />
		<tag k="name" v="Timreitjønn" />
		<tag k="natural" v="water" />
		<tag k="ssr:stedsnr" v="65406" />
	</node>
	<node lat="59.76796389122143" lon="9.188644451298059" id="-18546">
		<tag k="name" v="Hjåsåtjørna" />
		<tag k="natural" v="water" />
		<tag k="ssr:stedsnr" v="65408" />
	</node>
	<node lat="59.722108334649974" lon="9.068077772564868" id="-18548">
		<tag k="name" v="Tjønnenatt-tjønnan" />
		<tag k="natural" v="water" />
		<tag k="ssr:stedsnr" v="241963" />
	</node>
	<node lat="59.66954999958725" lon="9.076791671421597" id="-18551">
		<tag k="alt_name" v="Valemyrbekken" />
		<tag k="name" v="Valmyrbekken" />
		<tag k="ssr:stedsnr" v="245215" />
		<tag k="waterway" v="stream" />
	</node>
	<node lat="59.67421666782812" lon="9.021549995480376" id="-18553">
		<tag k="alt_name" v="Kvennhusbekken" />
		<tag k="name" v="Kvernhusbekken" />
		<tag k="ssr:stedsnr" v="245228" />
		<tag k="waterway" v="stream" />
	</node>
	<node lat="59.66810555388775" lon="8.958761108293343" id="-18554">
		<tag k="name" v="Dalsbekken" />
		<tag k="ssr:stedsnr" v="245232" />
		<tag k="waterway" v="stream" />
	</node>
	<node lat="59.608405552244044" lon="9.326827777291882" id="-18560">
		<tag k="alt_name" v="Kroktjørn" />
		<tag k="name" v="Kroktjønn" />
		<tag k="natural" v="water" />
		<tag k="ssr:stedsnr" v="245857" />
	</node>
	<node lat="59.699563889340446" lon="9.027766665241423" id="-18565">
		<tag k="name" v="Libekk" />
		<tag k="ssr:stedsnr" v="246178" />
		<tag k="waterway" v="stream" />
	</node>
	<node lat="59.61903055594413" lon="9.186449997202875" id="-18572">
		<tag k="alt_name" v="Listultjørn" />
		<tag k="name" v="Listultjønn" />
		<tag k="natural" v="water" />
		<tag k="ssr:stedsnr" v="246258" />
	</node>
	<node lat="59.80085833420022" lon="9.013683336059467" id="-18576">
		<tag k="name" v="Langøy" />
		<tag k="place" v="island" />
		<tag k="ssr:stedsnr" v="246455" />
	</node>
	<node lat="59.8080583365818" lon="9.17144723030523" id="-18578">
		<tag k="alt_name" v="Kongtjørna" />
		<tag k="name" v="Kongtjønn" />
		<tag k="natural" v="water" />
		<tag k="ssr:stedsnr" v="246594" />
	</node>
	<node lat="59.50537222025641" lon="9.46777499560995" id="-18580">
		<tag k="name" v="Perstjørn" />
		<tag k="natural" v="water" />
		<tag k="ssr:stedsnr" v="246685" />
	</node>
	<node lat="59.77928889017932" lon="9.340108335994817" id="-18585">
		<tag k="alt_name" v="Damtjørna" />
		<tag k="name" v="Damtjønn" />
		<tag k="natural" v="water" />
		<tag k="ssr:stedsnr" v="246886" />
	</node>
	<node lat="59.59414999597541" lon="9.232980561095388" id="-18589">
		<tag k="alt_name" v="Gjuvbekk" />
		<tag k="name" v="Gjuvbekken" />
		<tag k="ssr:stedsnr" v="246825" />
		<tag k="waterway" v="stream" />
	</node>
	<node lat="59.75569166715906" lon="9.336008336702" id="-18592">
		<tag k="name" v="Brudalsbekken" />
		<tag k="ssr:stedsnr" v="246981" />
		<tag k="waterway" v="stream" />
	</node>
	<node lat="59.522905555034654" lon="8.78707500072164" id="-18593">
		<tag k="name" v="Hytteskardtjørnan" />
		<tag k="natural" v="water" />
		<tag k="ssr:stedsnr" v="246990" />
	</node>
	<node lat="59.75643611239298" lon="9.137216666232073" id="-18595">
		<tag k="alt_name" v="Kofslibekken" />
		<tag k="name" v="Kovslibekken" />
		<tag k="ssr:stedsnr" v="247396" />
		<tag k="waterway" v="stream" />
	</node>
	<node lat="59.650172221460764" lon="9.34058055381452" id="-18602">
		<tag k="name" v="Øvre Sveivtjønn" />
		<tag k="natural" v="water" />
		<tag k="ssr:stedsnr" v="100919" />
	</node>
	<node lat="59.63806110883729" lon="9.339766671889322" id="-18603">
		<tag k="name" v="Geittjønn" />
		<tag k="natural" v="water" />
		<tag k="ssr:stedsnr" v="100860" />
		<tag k="water" v="pond" />
	</node>
	<node lat="59.6583111144337" lon="9.24677221988819" id="-18606">
		<tag k="name" v="Nedre Heatjønn" />
		<tag k="natural" v="water" />
		<tag k="ssr:stedsnr" v="101073" />
	</node>
	<node lat="59.78469444418378" lon="9.158844436200667" id="-18607">
		<tag k="name" v="Stolstjønna" />
		<tag k="natural" v="water" />
		<tag k="ssr:stedsnr" v="101261" />
	</node>
	<node lat="59.66761389247693" lon="9.29909723078388" id="-18608">
		<tag k="name" v="Ormetjønn" />
		<tag k="natural" v="water" />
		<tag k="ssr:stedsnr" v="101815" />
		<tag k="water" v="pond" />
	</node>
	<node lat="59.658638885562695" lon="9.293269446093275" id="-18609">
		<tag k="name" v="Elgsliputten" />
		<tag k="natural" v="water" />
		<tag k="ssr:stedsnr" v="101817" />
		<tag k="water" v="pond" />
	</node>
	<node lat="59.694408335705795" lon="9.283347218473073" id="-18611">
		<tag k="name" v="Fossan" />
		<tag k="ssr:stedsnr" v="102003" />
		<tag k="waterway" v="stream" />
	</node>
	<node lat="59.81356389228249" lon="9.001430562729382" id="-18617">
		<tag k="name" v="Harpetjønn" />
		<tag k="natural" v="water" />
		<tag k="ssr:stedsnr" v="103787" />
		<tag k="water" v="lake" />
	</node>
	<node lat="59.49253610966722" lon="9.447344452387817" id="-18622">
		<tag k="name" v="Kalvetjønnbekken" />
		<tag k="ssr:stedsnr" v="104430" />
		<tag k="waterway" v="stream" />
	</node>
	<node lat="59.50640555448627" lon="9.201202775729525" id="-18625">
		<tag k="name" v="Smørtjønn" />
		<tag k="natural" v="water" />
		<tag k="ssr:stedsnr" v="104787" />
	</node>
	<node lat="59.742469447321966" lon="9.022661111099568" id="-18626">
		<tag k="name" v="Kleivbukta" />
		<tag k="natural" v="bay" />
		<tag k="ssr:stedsnr" v="104976" />
	</node>
	<node lat="59.53633888897943" lon="9.014138881342237" id="-18627">
		<tag k="name" v="Trogatjønn" />
		<tag k="natural" v="water" />
		<tag k="ssr:stedsnr" v="105003" />
		<tag k="water" v="lake" />
	</node>
	<node lat="59.5603999999378" lon="9.104600001542215" id="-18628">
		<tag k="name" v="Grøkjærdipilen" />
		<tag k="natural" v="water" />
		<tag k="ssr:stedsnr" v="105077" />
	</node>
	<node lat="59.56998611206815" lon="9.042805555720818" id="-18634">
		<tag k="name" v="Pongerudmyran" />
		<tag k="natural" v="water" />
		<tag k="ssr:stedsnr" v="105129" />
	</node>
	<node lat="59.56225278129232" lon="9.043488891184937" id="-18635">
		<tag k="name" v="Lauvhytteberget" />
		<tag k="natural" v="cape" />
		<tag k="ssr:stedsnr" v="105131" />
	</node>
	<node lat="59.60206388590053" lon="9.273127779944094" id="-18649">
		<tag k="name" v="Svelgfossen" />
		<tag k="natural" v="waterfall" />
		<tag k="ssr:stedsnr" v="105543" />
	</node>
	<node lat="59.54668611074083" lon="9.282127779890002" id="-18652">
		<tag k="name" v="Sneibekk" />
		<tag k="ssr:stedsnr" v="105590" />
		<tag k="waterway" v="stream" />
	</node>
	<node lat="59.57757777781343" lon="9.359133333858457" id="-18659">
		<tag k="name" v="Øvre Veletjønn" />
		<tag k="natural" v="water" />
		<tag k="ssr:stedsnr" v="106125" />
	</node>
	<node lat="59.66449722430872" lon="8.879072224389295" id="-18669">
		<tag k="name" v="Skogsåi" />
		<tag k="ssr:stedsnr" v="106982" />
		<tag k="waterway" v="river" />
	</node>
	<node lat="59.79398889128009" lon="9.248188885769846" id="-18670">
		<tag k="name" v="Rindedalsbekken" />
		<tag k="ssr:stedsnr" v="117102" />
		<tag k="waterway" v="stream" />
	</node>
	<node lat="59.72011388665793" lon="9.263138897301179" id="-18673">
		<tag k="name" v="Langodde" />
		<tag k="natural" v="cape" />
		<tag k="ssr:stedsnr" v="118506" />
	</node>
	<node lat="59.65168055311643" lon="9.3955805497211" id="-18675">
		<tag k="name" v="Mjågesundsbekken" />
		<tag k="ssr:stedsnr" v="118659" />
		<tag k="waterway" v="stream" />
	</node>
	<node lat="59.76586944500494" lon="8.945691664148574" id="-18678">
		<tag k="name" v="Rånåbutjønna" />
		<tag k="natural" v="water" />
		<tag k="ssr:stedsnr" v="119779" />
	</node>
	<node lat="59.48973611519505" lon="9.389091660140611" id="-18680">
		<tag k="alt_name" v="Sæterdalstjørn" />
		<tag k="name" v="Sæterdalstjønn" />
		<tag k="natural" v="water" />
		<tag k="ssr:stedsnr" v="123067" />
	</node>
	<node lat="59.74251111512068" lon="8.937855552443379" id="-18685">
		<tag k="alt_name" v="Kåla" />
		<tag k="name" v="Kola" />
		<tag k="ssr:stedsnr" v="124005" />
		<tag k="waterway" v="stream" />
	</node>
	<node lat="59.74464722294" lon="9.023002774398792" id="-18687">
		<tag k="name" v="Tinnsjå" />
		<tag k="natural" v="water" />
		<tag k="ssr:stedsnr" v="124109" />
		<tag k="water" v="lake" />
	</node>
	<node lat="59.5181499993722" lon="9.334724993447912" id="-18700">
		<tag k="alt_name" v="Hjukseåa" />
		<tag k="name" v="Hjukseelva" />
		<tag k="ssr:stedsnr" v="124675" />
		<tag k="waterway" v="river" />
	</node>
	<node lat="59.589022225015285" lon="9.43817499286697" id="-18701">
		<tag k="alt_name" v="Løyndfisketjørn" />
		<tag k="name" v="Løyndfisketjønn" />
		<tag k="natural" v="water" />
		<tag k="ssr:stedsnr" v="124754" />
	</node>
	<node lat="59.67254999821809" lon="9.255700003392988" id="-18702">
		<tag k="name" v="Buøya" />
		<tag k="place" v="islet" />
		<tag k="ssr:stedsnr" v="124962" />
	</node>
	<node lat="59.70800277466854" lon="9.288030547867507" id="-18703">
		<tag k="alt_name" v="Skarptjørna" />
		<tag k="name" v="Skarpetjønn" />
		<tag k="natural" v="water" />
		<tag k="ssr:stedsnr" v="124969" />
	</node>
	<node lat="59.80631666597502" lon="9.175700001637875" id="-18705">
		<tag k="alt_name" v="Hitjørnan" />
		<tag k="name" v="Hitjønnan" />
		<tag k="natural" v="water" />
		<tag k="ssr:stedsnr" v="125420" />
		<tag k="water" v="lake" />
	</node>
	<node lat="59.760124999237796" lon="9.130486103376871" id="-18707">
		<tag k="name" v="Rotveltbekken" />
		<tag k="ssr:stedsnr" v="125433" />
		<tag k="waterway" v="stream" />
	</node>
	<node lat="59.76781110824811" lon="9.169005550676317" id="-18708">
		<tag k="alt_name" v="Breidvatn" />
		<tag k="name" v="Breivatn" />
		<tag k="natural" v="water" />
		<tag k="ssr:stedsnr" v="125440" />
	</node>
	<node lat="59.83939999557882" lon="8.827188897109611" id="-18712">
		<tag k="alt_name" v="Risbutjørni" />
		<tag k="name" v="Risbutjønn" />
		<tag k="natural" v="water" />
		<tag k="ssr:stedsnr" v="125831" />
	</node>
	<node lat="59.776861112355185" lon="9.190102772769407" id="-18716">
		<tag k="name" v="Vigiltangen" />
		<tag k="natural" v="cape" />
		<tag k="ssr:stedsnr" v="162155" />
	</node>
	<node lat="59.657708334479395" lon="9.382005550020322" id="-18719">
		<tag k="name" v="Breistulbekken" />
		<tag k="ssr:stedsnr" v="161998" />
		<tag k="waterway" v="stream" />
	</node>
	<node lat="59.67958055139569" lon="9.28485555833596" id="-18721">
		<tag k="name" v="Bjønneputten" />
		<tag k="natural" v="water" />
		<tag k="ssr:stedsnr" v="163008" />
		<tag k="water" v="pond" />
	</node>
	<node lat="59.76243055824339" lon="9.08514166490448" id="-18723">
		<tag k="name" v="Grivla" />
		<tag k="ssr:stedsnr" v="163509" />
		<tag k="waterway" v="stream" />
	</node>
	<node lat="59.690697220495245" lon="9.337761108847582" id="-18725">
		<tag k="name" v="Storfisktjønn" />
		<tag k="natural" v="water" />
		<tag k="ssr:stedsnr" v="163860" />
	</node>
	<node lat="59.82654722657071" lon="9.000777786113789" id="-18726">
		<tag k="name" v="Grasbergodden" />
		<tag k="natural" v="cape" />
		<tag k="ssr:stedsnr" v="163870" />
	</node>
	<node lat="59.75770555998766" lon="9.322933329321001" id="-18728">
		<tag k="name" v="Kvitråvatn" />
		<tag k="natural" v="water" />
		<tag k="ssr:stedsnr" v="163878" />
	</node>
	<node lat="59.76019166949145" lon="9.34433611933599" id="-18729">
		<tag k="name" v="Brudalstjønn" />
		<tag k="natural" v="water" />
		<tag k="ssr:stedsnr" v="163880" />
	</node>
	<node lat="59.55438611149578" lon="9.118938882465521" id="-18732">
		<tag k="name" v="Lauvstultjønn" />
		<tag k="natural" v="water" />
		<tag k="ssr:stedsnr" v="165068" />
	</node>
	<node lat="59.72213055494969" lon="9.063866668406478" id="-18739">
		<tag k="name" v="Tjønnenatt-tjønnan" />
		<tag k="natural" v="water" />
		<tag k="ssr:stedsnr" v="165123" />
	</node>
	<node lat="59.58683611180838" lon="9.170391664106647" id="-18741">
		<tag k="name" v="Leiulfsrudbekken" />
		<tag k="ssr:stedsnr" v="165167" />
		<tag k="waterway" v="stream" />
	</node>
	<node lat="59.52194167068167" lon="9.204349996764245" id="-18742">
		<tag k="name" v="Fiskebekk" />
		<tag k="ssr:stedsnr" v="165458" />
		<tag k="waterway" v="stream" />
	</node>
	<node lat="59.51916944101524" lon="9.226966658665093" id="-18743">
		<tag k="name" v="Velebekken" />
		<tag k="ssr:stedsnr" v="165474" />
		<tag k="waterway" v="stream" />
	</node>
	<node lat="59.580238891836615" lon="9.261336115862369" id="-18746">
		<tag k="name" v="Lienskuta" />
		<tag k="place" v="islet" />
		<tag k="ssr:stedsnr" v="165528" />
	</node>
	<node lat="59.48514722508378" lon="9.38565555827417" id="-18748">
		<tag k="name" v="Sæterdalsløken" />
		<tag k="natural" v="water" />
		<tag k="ssr:stedsnr" v="165588" />
		<tag k="water" v="lake" />
	</node>
	<node lat="59.61446111044354" lon="9.13423611755678" id="-18749">
		<tag k="name" v="Vesle-Igletjønn" />
		<tag k="natural" v="water" />
		<tag k="ssr:stedsnr" v="165595" />
	</node>
	<node lat="59.59822777670786" lon="9.024230559014182" id="-18759">
		<tag k="name" v="Nord-øyane" />
		<tag k="place" v="island" />
		<tag k="ssr:stedsnr" v="166168" />
	</node>
	<node lat="59.52885833163915" lon="8.875263889300133" id="-18760">
		<tag k="name" v="Vesle Måvatn" />
		<tag k="natural" v="water" />
		<tag k="ssr:stedsnr" v="166715" />
	</node>
	<node lat="59.71886666795177" lon="9.218969435814092" id="-18769">
		<tag k="name" v="Suluhølen" />
		<tag k="place" v="locality" />
		<tag k="ssr:stedsnr" v="178257" />
	</node>
	<node lat="59.781994441721395" lon="9.210416669661084" id="-18771">
		<tag k="name" v="Kaldgrauttjønna" />
		<tag k="natural" v="water" />
		<tag k="ssr:stedsnr" v="179210" />
	</node>
	<node lat="59.739908335951476" lon="9.108611116984676" id="-18772">
		<tag k="name" v="Blautemyr" />
		<tag k="place" v="island" />
		<tag k="ssr:stedsnr" v="179706" />
	</node>
	<node lat="59.74215833255246" lon="9.099447218783526" id="-18773">
		<tag k="name" v="Rismyrøya" />
		<tag k="place" v="island" />
		<tag k="ssr:stedsnr" v="179708" />
	</node>
	<node lat="59.7196083298092" lon="9.203986105478341" id="-18778">
		<tag k="name" v="Leifsodde" />
		<tag k="natural" v="cape" />
		<tag k="ssr:stedsnr" v="180807" />
	</node>
	<node lat="59.49767222506509" lon="9.376447217888149" id="-18781">
		<tag k="name" v="Ospetjernene" />
		<tag k="natural" v="water" />
		<tag k="ssr:stedsnr" v="184052" />
	</node>
	<node lat="59.73971190925704" lon="9.18384871600589" id="-18782">
		<tag k="alt_name" v="Smiutjørn, store;Smiutjønn" />
		<tag k="name" v="Store Smiutjørn" />
		<tag k="natural" v="water" />
		<tag k="ssr:stedsnr" v="185110" />
	</node>
	<node lat="59.66207193169905" lon="9.108674779190961" id="-18784">
		<tag k="name" v="Reksjå" />
		<tag k="natural" v="water" />
		<tag k="ssr:stedsnr" v="185193" />
	</node>
	<node lat="59.60595277944856" lon="9.179994445248708" id="-18791">
		<tag k="alt_name" v="Solbergtjørn" />
		<tag k="name" v="Solbergtjønn" />
		<tag k="natural" v="water" />
		<tag k="ssr:stedsnr" v="185244" />
	</node>
	<node lat="59.79345832896913" lon="9.001830557125976" id="-18792">
		<tag k="name" v="Breidgvamodden" />
		<tag k="natural" v="cape" />
		<tag k="ssr:stedsnr" v="185438" />
	</node>
	<node lat="59.53512778010494" lon="9.47464722196814" id="-18796">
		<tag k="name" v="Sveinsbubekken" />
		<tag k="ssr:stedsnr" v="185713" />
		<tag k="waterway" v="stream" />
	</node>
	<node lat="59.8161694419368" lon="8.93561388698082" id="-18801">
		<tag k="name" v="Tverrbekken" />
		<tag k="ssr:stedsnr" v="186482" />
		<tag k="waterway" v="stream" />
	</node>
	<node lat="59.758500000113735" lon="9.259213887494028" id="-18803">
		<tag k="name" v="Gjuva" />
		<tag k="ssr:stedsnr" v="186985" />
		<tag k="waterway" v="stream" />
	</node>
	<node lat="59.76841388910295" lon="9.281952776034272" id="-18805">
		<tag k="alt_name" v="Ljostjørna" />
		<tag k="name" v="Ljostjønn" />
		<tag k="natural" v="water" />
		<tag k="ssr:stedsnr" v="186994" />
		<tag k="water" v="lake" />
	</node>
	<node lat="59.675166668214764" lon="9.241391673612453" id="-18810">
		<tag k="name" v="Tollodden" />
		<tag k="place" v="island" />
		<tag k="ssr:stedsnr" v="222082" />
	</node>
	<node lat="59.523694445019245" lon="9.349669450179727" id="-18828">
		<tag k="name" v="Håpåldalsbekken" />
		<tag k="ssr:stedsnr" v="225588" />
		<tag k="waterway" v="stream" />
	</node>
	<node lat="59.52368055164702" lon="9.491502778658509" id="-18830">
		<tag k="name" v="Holmevassåa" />
		<tag k="ssr:stedsnr" v="225720" />
		<tag k="waterway" v="river" />
	</node>
	<node lat="59.5659777747854" lon="8.99699722079551" id="-18836">
		<tag k="name" v="Espelibekken" />
		<tag k="ssr:stedsnr" v="226107" />
		<tag k="waterway" v="stream" />
	</node>
	<node lat="59.57930833108071" lon="9.113744452418366" id="-18844">
		<tag k="name" v="Brubekk" />
		<tag k="ssr:stedsnr" v="226193" />
		<tag k="waterway" v="stream" />
	</node>
	<node lat="59.663038888067945" lon="9.217302780000619" id="-18849">
		<tag k="name" v="Makkhøl" />
		<tag k="place" v="locality" />
		<tag k="ssr:stedsnr" v="226834" />
	</node>
	<node lat="59.522647219412065" lon="8.886941659573067" id="-18853">
		<tag k="name" v="Kroktjønn" />
		<tag k="natural" v="water" />
		<tag k="ssr:stedsnr" v="226776" />
	</node>
	<node lat="59.73810555111356" lon="9.030277771967214" id="-18857">
		<tag k="name" v="Odderud" />
		<tag k="natural" v="cape" />
		<tag k="ssr:stedsnr" v="226987" />
	</node>
	<node lat="59.66242222649847" lon="9.19388332604879" id="-18860">
		<tag k="name" v="Grønvollfossfjorden" />
		<tag k="natural" v="water" />
		<tag k="ssr:stedsnr" v="226882" />
	</node>
	<node lat="59.66906944449114" lon="9.21349166842434" id="-18861">
		<tag k="name" v="Storrhøl" />
		<tag k="place" v="locality" />
		<tag k="ssr:stedsnr" v="226883" />
	</node>
	<node lat="59.54500833051119" lon="8.920933334923115" id="-18865">
		<tag k="name" v="Stulsbekken" />
		<tag k="ssr:stedsnr" v="227296" />
		<tag k="waterway" v="stream" />
	</node>
	<node lat="59.58513611067511" lon="9.417677776818286" id="-18868">
		<tag k="name" v="Fiskebekk" />
		<tag k="ssr:stedsnr" v="227902" />
		<tag k="waterway" v="stream" />
	</node>
	<node lat="59.625180552706745" lon="9.336916667855817" id="-18878">
		<tag k="name" v="Skavhoggbekken" />
		<tag k="ssr:stedsnr" v="228544" />
		<tag k="waterway" v="stream" />
	</node>
	<node lat="59.72726110839578" lon="8.98733611668432" id="-18884">
		<tag k="alt_name" v="Kåla" />
		<tag k="name" v="Kola" />
		<tag k="ssr:stedsnr" v="245082" />
		<tag k="waterway" v="river" />
	</node>
	<node lat="59.529786110528846" lon="8.946236116744513" id="-18885">
		<tag k="name" v="Aslakstulåa" />
		<tag k="ssr:stedsnr" v="245368" />
		<tag k="waterway" v="river" />
	</node>
	<node lat="59.639400002534416" lon="9.255972226573702" id="-18890">
		<tag k="alt_name" v="Damtjørn, store;Store Damtjønn" />
		<tag k="name" v="Store Damtjørn" />
		<tag k="natural" v="water" />
		<tag k="ssr:stedsnr" v="245888" />
	</node>
	<node lat="59.636541664617944" lon="9.412711102930029" id="-18891">
		<tag k="alt_name" v="Dalsvatn" />
		<tag k="name" v="Dalsvatnet" />
		<tag k="natural" v="water" />
		<tag k="ssr:stedsnr" v="245893" />
	</node>
	<node lat="59.7484111097322" lon="9.14203610404537" id="-18896">
		<tag k="alt_name" v="Deiltjørn" />
		<tag k="name" v="Deiltjønn" />
		<tag k="natural" v="water" />
		<tag k="ssr:stedsnr" v="246110" />
	</node>
	<node lat="59.73795000137343" lon="9.077711104012355" id="-18898">
		<tag k="name" v="Diplebekken" />
		<tag k="ssr:stedsnr" v="246118" />
		<tag k="waterway" v="stream" />
	</node>
	<node lat="59.65225555380701" lon="9.105688892204883" id="-18903">
		<tag k="name" v="Gullbekk" />
		<tag k="ssr:stedsnr" v="246217" />
		<tag k="waterway" v="stream" />
	</node>
	<node lat="59.65832499981453" lon="9.135049997253324" id="-18905">
		<tag k="alt_name" v="Kalktjørn" />
		<tag k="name" v="Kalktjønn" />
		<tag k="natural" v="water" />
		<tag k="ssr:stedsnr" v="246219" />
	</node>
	<node lat="59.533902779711575" lon="9.506650007211837" id="-18911">
		<tag k="alt_name" v="Bufinntjørn" />
		<tag k="name" v="Bufinntjønn" />
		<tag k="natural" v="water" />
		<tag k="ssr:stedsnr" v="246713" />
	</node>
	<node lat="59.53257778160157" lon="9.451422226369859" id="-18912">
		<tag k="alt_name" v="Monsvatn" />
		<tag k="name" v="Monsvatnet" />
		<tag k="natural" v="water" />
		<tag k="ssr:stedsnr" v="246714" />
		<tag k="water" v="lake" />
	</node>
	<node lat="59.82230174344655" lon="9.196920141266578" id="-18915">
		<tag k="fixme" v="multiple name tags, choose one and add the other to alt_name" />
		<tag k="name" v="Langevatnet;Storevatn" />
		<tag k="natural" v="water" />
		<tag k="ssr:stedsnr" v="246614" />
		<tag k="water" v="lake" />
	</node>
	<node lat="59.606625003733534" lon="9.232497225362613" id="-18916">
		<tag k="name" v="Dipilen" />
		<tag k="place" v="locality" />
		<tag k="ssr:stedsnr" v="246807" />
	</node>
	<node lat="59.777494444799004" lon="9.08132778489238" id="-18920">
		<tag k="alt_name" v="Holkåi" />
		<tag k="name" v="Holkåe" />
		<tag k="ssr:stedsnr" v="247369" />
		<tag k="waterway" v="river" />
	</node>
	<node lat="59.74148055191245" lon="9.007722227760508" id="-18922">
		<tag k="name" v="Deilbekk" />
		<tag k="ssr:stedsnr" v="247963" />
		<tag k="waterway" v="stream" />
	</node>
	<node lat="59.86609999613222" lon="8.862330550991631" id="-18923">
		<tag k="name" v="Deilbekk" />
		<tag k="ssr:stedsnr" v="458778" />
		<tag k="waterway" v="stream" />
	</node>
	<node lat="59.70113055468154" lon="9.337580554171819" id="-18930">
		<tag k="name" v="Saulauge" />
		<tag k="natural" v="water" />
		<tag k="ssr:stedsnr" v="283605" />
	</node>
	<node lat="59.65921111182638" lon="9.31387777890776" id="-18931">
		<tag k="name" v="Lislestulåa" />
		<tag k="ssr:stedsnr" v="283810" />
		<tag k="waterway" v="stream" />
	</node>
	<node lat="59.705524996696575" lon="9.206850000911839" id="-18932">
		<tag k="name" v="Deilodden" />
		<tag k="natural" v="cape" />
		<tag k="ssr:stedsnr" v="283822" />
	</node>
	<node lat="59.8481805576217" lon="8.935111103549936" id="-18936">
		<tag k="name" v="Hovdebekken" />
		<tag k="ssr:stedsnr" v="284085" />
		<tag k="waterway" v="stream" />
	</node>
	<node lat="59.747869441549426" lon="9.230616668534395" id="-18940">
		<tag k="name" v="Bjørkevollbekken" />
		<tag k="ssr:stedsnr" v="284193" />
		<tag k="waterway" v="stream" />
	</node>
	<node lat="59.76985277885793" lon="9.257233337665287" id="-18941">
		<tag k="name" v="Juvåa" />
		<tag k="ssr:stedsnr" v="284197" />
		<tag k="waterway" v="stream" />
	</node>
	<node lat="59.68808611144744" lon="8.940333333100998" id="-18943">
		<tag k="name" v="Ørvellea" />
		<tag k="ssr:stedsnr" v="284313" />
		<tag k="waterway" v="stream" />
	</node>
	<node lat="59.723891670494744" lon="9.199352786623669" id="-18945">
		<tag k="name" v="Kleivbekk" />
		<tag k="ssr:stedsnr" v="284425" />
		<tag k="waterway" v="stream" />
	</node>
	<node lat="59.735230552179004" lon="9.18259444986832" id="-18946">
		<tag k="name" v="Geitemyrtjønn" />
		<tag k="natural" v="water" />
		<tag k="ssr:stedsnr" v="284427" />
	</node>
	<node lat="59.756113886281405" lon="9.124205560872117" id="-18947">
		<tag k="name" v="Sandåa" />
		<tag k="ssr:stedsnr" v="284574" />
		<tag k="waterway" v="stream" />
	</node>
	<node lat="59.510605553607235" lon="9.328880563203995" id="-18952">
		<tag k="name" v="Haugsbekken" />
		<tag k="ssr:stedsnr" v="286080" />
		<tag k="waterway" v="stream" />
	</node>
	<node lat="59.511538889790806" lon="9.33261388156188" id="-18955">
		<tag k="name" v="Snippebekken" />
		<tag k="ssr:stedsnr" v="286134" />
		<tag k="waterway" v="stream" />
	</node>
	<node lat="59.49517500295492" lon="9.441830557087526" id="-18956">
		<tag k="name" v="Nordre Mjågesundvatn" />
		<tag k="natural" v="water" />
		<tag k="ssr:stedsnr" v="286442" />
		<tag k="water" v="lake" />
	</node>
	<node lat="59.503999997310935" lon="9.39624444468457" id="-18961">
		<tag k="name" v="Vesle Trytetjønn" />
		<tag k="natural" v="water" />
		<tag k="ssr:stedsnr" v="286604" />
	</node>
	<node lat="59.5588499976246" lon="9.036577784974206" id="-18971">
		<tag k="name" v="Løkjeliåa" />
		<tag k="ssr:stedsnr" v="287126" />
		<tag k="waterway" v="stream" />
	</node>
	<node lat="59.52822500232485" lon="9.224772228841008" id="-18976">
		<tag k="name" v="Igletjønn" />
		<tag k="natural" v="water" />
		<tag k="ssr:stedsnr" v="287579" />
	</node>
	<node lat="59.62249166773753" lon="9.127272216556193" id="-18985">
		<tag k="name" v="Rekå-åa" />
		<tag k="ssr:stedsnr" v="287882" />
		<tag k="waterway" v="stream" />
	</node>
	<node lat="59.62761666552077" lon="9.107766675081844" id="-18992">
		<tag k="name" v="Inkjevetta" />
		<tag k="natural" v="water" />
		<tag k="ssr:stedsnr" v="287931" />
	</node>
	<node lat="59.552650002329365" lon="8.942291671251297" id="-18994">
		<tag k="name" v="Pråmtjønn" />
		<tag k="natural" v="water" />
		<tag k="ssr:stedsnr" v="288381" />
	</node>
	<node lat="59.51341111370315" lon="8.900669436417804" id="-18996">
		<tag k="name" v="Dalanbekken" />
		<tag k="ssr:stedsnr" v="288690" />
		<tag k="waterway" v="stream" />
	</node>
	<node lat="59.71734722487586" lon="9.011150007471258" id="-18997">
		<tag k="name" v="Mosryggfossen" />
		<tag k="natural" v="waterfall" />
		<tag k="ssr:stedsnr" v="288880" />
	</node>
	<node lat="59.73870833663236" lon="9.134533340113038" id="-19000">
		<tag k="name" v="Raskjøltangen" />
		<tag k="natural" v="cape" />
		<tag k="ssr:stedsnr" v="298572" />
	</node>
	<node lat="59.73855278017664" lon="9.129658327970612" id="-19001">
		<tag k="name" v="Ertstjønntangen" />
		<tag k="natural" v="cape" />
		<tag k="ssr:stedsnr" v="298573" />
	</node>
	<node lat="59.8957972241713" lon="8.899644452668403" id="-19002">
		<tag k="name" v="Hallen" />
		<tag k="natural" v="cape" />
		<tag k="ssr:stedsnr" v="298595" />
	</node>
	<node lat="59.790808336808624" lon="8.957805564058983" id="-19009">
		<tag k="name" v="Mjaugetjønnbekken" />
		<tag k="ssr:stedsnr" v="300830" />
		<tag k="waterway" v="stream" />
	</node>
	<node lat="59.7746166627623" lon="9.122050002098497" id="-19010">
		<tag k="name" v="Kvennhusbekken" />
		<tag k="ssr:stedsnr" v="302425" />
		<tag k="waterway" v="stream" />
	</node>
	<node lat="59.68546944763966" lon="9.190724996253383" id="-19013">
		<tag k="name" v="Ramsodden" />
		<tag k="natural" v="bay" />
		<tag k="ssr:stedsnr" v="464399" />
	</node>
	<node lat="59.70396666877507" lon="8.933258336688969" id="-19018">
		<tag k="alt_name" v="Loppetjørn" />
		<tag k="name" v="Loppetjønn" />
		<tag k="natural" v="water" />
		<tag k="ssr:stedsnr" v="306079" />
	</node>
	<node lat="59.71561666772993" lon="8.913491671369083" id="-19019">
		<tag k="alt_name" v="Damtjørnan" />
		<tag k="name" v="Damtjønn" />
		<tag k="natural" v="water" />
		<tag k="ssr:stedsnr" v="306083" />
	</node>
	<node lat="59.65900555137796" lon="9.14636666817419" id="-19020">
		<tag k="alt_name" v="Igletjørn" />
		<tag k="name" v="Igletjønn" />
		<tag k="natural" v="water" />
		<tag k="ssr:stedsnr" v="306204" />
	</node>
	<node lat="59.657152779590405" lon="9.378591670239265" id="-19025">
		<tag k="name" v="Store Buringstjønn" />
		<tag k="natural" v="water" />
		<tag k="ssr:stedsnr" v="464991" />
	</node>
	<node lat="59.67444444012745" lon="9.24452777613074" id="-19027">
		<tag k="name" v="Elgsprang" />
		<tag k="natural" v="cape" />
		<tag k="ssr:stedsnr" v="465088" />
	</node>
	<node lat="59.56411666259721" lon="9.036897230932029" id="-19028">
		<tag k="alt_name" v="Nystulvatn" />
		<tag k="name" v="Nystulvatnet" />
		<tag k="natural" v="water" />
		<tag k="ssr:stedsnr" v="306404" />
		<tag k="water" v="lake" />
	</node>
	<node lat="59.5694555527676" lon="9.08826665890677" id="-19029">
		<tag k="alt_name" v="Damtjørna" />
		<tag k="name" v="Damtjønn" />
		<tag k="natural" v="water" />
		<tag k="ssr:stedsnr" v="306406" />
	</node>
	<node lat="59.83143055650701" lon="8.978411108580527" id="-19041">
		<tag k="alt_name" v="Sandbukta" />
		<tag k="name" v="Sandbukti" />
		<tag k="natural" v="bay" />
		<tag k="ssr:stedsnr" v="307450" />
	</node>
	<node lat="59.78452500063812" lon="8.956836118045187" id="-19045">
		<tag k="name" v="Holmevatn" />
		<tag k="natural" v="water" />
		<tag k="ssr:stedsnr" v="307497" />
	</node>
	<node lat="59.79598611401434" lon="9.273391668050525" id="-19049">
		<tag k="alt_name" v="Soløytjørna, store" />
		<tag k="name" v="Store Soløytjønn" />
		<tag k="natural" v="water" />
		<tag k="ssr:stedsnr" v="307904" />
	</node>
	<node lat="59.73420000124865" lon="9.328186110594519" id="-19057">
		<tag k="name" v="Mjaugetjønnåa" />
		<tag k="ssr:stedsnr" v="466930" />
		<tag k="waterway" v="stream" />
	</node>
	<node lat="59.58375833525371" lon="8.997691673779347" id="-19061">
		<tag k="name" v="Bråtabekk" />
		<tag k="ssr:stedsnr" v="468089" />
		<tag k="waterway" v="stream" />
	</node>
	<node lat="59.58590277768852" lon="9.00569444741738" id="-19062">
		<tag k="name" v="Damtjønn" />
		<tag k="natural" v="water" />
		<tag k="ssr:stedsnr" v="468090" />
	</node>
	<node lat="59.496108330967495" lon="9.365252782644744" id="-19069">
		<tag k="name" v="Åsbutjønnbekken" />
		<tag k="ssr:stedsnr" v="468557" />
		<tag k="waterway" v="stream" />
	</node>
	<node lat="59.72615000341348" lon="9.044730548516963" id="-19076">
		<tag k="name" v="Lislestultjønn" />
		<tag k="natural" v="water" />
		<tag k="ssr:stedsnr" v="468991" />
	</node>
	<node lat="59.716688890748465" lon="9.037580547375395" id="-19077">
		<tag k="name" v="Rynjusbekk" />
		<tag k="ssr:stedsnr" v="469151" />
		<tag k="waterway" v="stream" />
	</node>
	<node lat="59.614241667315966" lon="9.19267777154869" id="-19084">
		<tag k="name" v="Bergtjønn" />
		<tag k="natural" v="water" />
		<tag k="ssr:stedsnr" v="469549" />
	</node>
	<node lat="59.60107777339285" lon="9.160699999859172" id="-19085">
		<tag k="name" v="Kåsabekken" />
		<tag k="ssr:stedsnr" v="469640" />
		<tag k="waterway" v="stream" />
	</node>
	<node lat="59.533186111084945" lon="9.247233339911636" id="-19086">
		<tag k="name" v="Karlsdalsbekken" />
		<tag k="ssr:stedsnr" v="469644" />
		<tag k="waterway" v="stream" />
	</node>
	<node lat="59.51334444070351" lon="8.93080277132117" id="-19089">
		<tag k="name" v="Dyrdalsbekken" />
		<tag k="ssr:stedsnr" v="469760" />
		<tag k="waterway" v="stream" />
	</node>
	<node lat="59.62213333290552" lon="9.170450000602298" id="-19093">
		<tag k="name" v="Grautedalsdipilen" />
		<tag k="natural" v="water" />
		<tag k="ssr:stedsnr" v="469892" />
	</node>
	<node lat="59.61549166608394" lon="9.279861106663107" id="-19097">
		<tag k="name" v="Runningen" />
		<tag k="natural" v="cape" />
		<tag k="ssr:stedsnr" v="469954" />
	</node>
	<node lat="59.629944445097244" lon="9.04946666321485" id="-19102">
		<tag k="name" v="Bamletjønn" />
		<tag k="natural" v="water" />
		<tag k="ssr:stedsnr" v="470203" />
	</node>
	<node lat="59.501900003601655" lon="8.80783054932679" id="-19104">
		<tag k="name" v="Blomtjønn" />
		<tag k="natural" v="water" />
		<tag k="ssr:stedsnr" v="470454" />
	</node>
	<node lat="59.72061944654848" lon="9.00790555347436" id="-19110">
		<tag k="name" v="Kåla" />
		<tag k="ssr:stedsnr" v="470937" />
		<tag k="waterway" v="stream" />
	</node>
	<node lat="59.6714333300803" lon="9.2456249924386" id="-19113">
		<tag k="name" v="Stutdalstjønna" />
		<tag k="natural" v="water" />
		<tag k="ssr:stedsnr" v="343092" />
	</node>
	<node lat="59.64779167063181" lon="9.319694442877433" id="-19114">
		<tag k="name" v="Fiskeløysbekken" />
		<tag k="ssr:stedsnr" v="343915" />
		<tag k="waterway" v="stream" />
	</node>
	<node lat="59.705441666169314" lon="9.20164165865156" id="-19115">
		<tag k="name" v="Urdevika" />
		<tag k="natural" v="bay" />
		<tag k="ssr:stedsnr" v="343813" />
	</node>
	<node lat="59.67413333347191" lon="9.299369442274672" id="-19118">
		<tag k="name" v="Skåråbekk" />
		<tag k="ssr:stedsnr" v="343834" />
		<tag k="waterway" v="stream" />
	</node>
	<node lat="59.76745277769734" lon="9.240013893252751" id="-19121">
		<tag k="name" v="Dusanbekken" />
		<tag k="ssr:stedsnr" v="344180" />
		<tag k="waterway" v="stream" />
	</node>
	<node lat="59.52908611349739" lon="9.388719448033303" id="-19132">
		<tag k="name" v="Kollsetfossen" />
		<tag k="natural" v="waterfall" />
		<tag k="ssr:stedsnr" v="346675" />
	</node>
	<node lat="59.688783336714735" lon="9.160088880663409" id="-19135">
		<tag k="name" v="Tjåga" />
		<tag k="ssr:stedsnr" v="347010" />
		<tag k="waterway" v="stream" />
	</node>
	<node lat="59.494422225412414" lon="9.330883326692689" id="-19148">
		<tag k="name" v="Slettabekken" />
		<tag k="ssr:stedsnr" v="347805" />
		<tag k="waterway" v="stream" />
	</node>
	<node lat="59.65859444168619" lon="9.21160277361509" id="-19149">
		<tag k="name" v="Rohøl" />
		<tag k="place" v="locality" />
		<tag k="ssr:stedsnr" v="347807" />
	</node>
	<node lat="59.63909166612686" lon="9.231197227906229" id="-19150">
		<tag k="name" v="Skarpmotjønnbekken" />
		<tag k="ssr:stedsnr" v="347824" />
		<tag k="waterway" v="stream" />
	</node>
	<node lat="59.55927500404495" lon="9.07501944991029" id="-19160">
		<tag k="name" v="Høgelitjønn" />
		<tag k="natural" v="water" />
		<tag k="ssr:stedsnr" v="347919" />
	</node>
	<node lat="59.53027778169158" lon="8.847486110016849" id="-19166">
		<tag k="name" v="Uppdøla" />
		<tag k="ssr:stedsnr" v="348369" />
		<tag k="waterway" v="stream" />
	</node>
	<node lat="59.5227138871955" lon="8.84936110481786" id="-19168">
		<tag k="name" v="Surt" />
		<tag k="natural" v="water" />
		<tag k="ssr:stedsnr" v="348705" />
	</node>
	<node lat="59.52478055722015" lon="8.892344445487307" id="-19170">
		<tag k="name" v="Kroktjønnbekken" />
		<tag k="ssr:stedsnr" v="348709" />
		<tag k="waterway" v="stream" />
	</node>
	<node lat="59.71637778228446" lon="8.95917221596936" id="-19173">
		<tag k="name" v="Livsløytetjønn" />
		<tag k="natural" v="water" />
		<tag k="ssr:stedsnr" v="348857" />
	</node>
	<node lat="59.6988944450703" lon="9.170141662709517" id="-19182">
		<tag k="alt_name" v="Brannstjørn, store" />
		<tag k="name" v="Store Brannstjønn" />
		<tag k="natural" v="water" />
		<tag k="ssr:stedsnr" v="367123" />
	</node>
	<node lat="59.71972499554955" lon="9.036708342112016" id="-19186">
		<tag k="name" v="Væringen" />
		<tag k="natural" v="water" />
		<tag k="ssr:stedsnr" v="367071" />
	</node>
	<node lat="59.7683277816566" lon="8.970702774769457" id="-19191">
		<tag k="alt_name" v="Skinnattstjørn" />
		<tag k="name" v="Skinnatt-tjønn" />
		<tag k="natural" v="water" />
		<tag k="ssr:stedsnr" v="367217" />
	</node>
	<node lat="59.670358329211574" lon="9.187794443437872" id="-19194">
		<tag k="name" v="Åstjørn" />
		<tag k="natural" v="water" />
		<tag k="ssr:stedsnr" v="367185" />
	</node>
	<node lat="59.67239444577407" lon="8.920499996720109" id="-19196">
		<tag k="alt_name" v="Mannebeintjørna" />
		<tag k="name" v="Mannebeintjønna" />
		<tag k="natural" v="water" />
		<tag k="ssr:stedsnr" v="367189" />
	</node>
	<node lat="59.526752774351486" lon="9.199024993672447" id="-19197">
		<tag k="alt_name" v="Smedstultjørna" />
		<tag k="name" v="Smedstultjønn" />
		<tag k="natural" v="water" />
		<tag k="ssr:stedsnr" v="367321" />
	</node>
	<node lat="59.5998503799531" lon="9.364235000610787" id="-19207">
		<tag k="alt_name" v="Deiltjørn" />
		<tag k="name" v="Deiltjønn" />
		<tag k="natural" v="water" />
		<tag k="ssr:stedsnr" v="367795" />
	</node>
	<node lat="59.64329444167183" lon="9.230733342146085" id="-19209">
		<tag k="alt_name" v="Skarpmotjørnene" />
		<tag k="name" v="Skarpmotjønn" />
		<tag k="natural" v="water" />
		<tag k="ssr:stedsnr" v="367874" />
	</node>
	<node lat="59.666347222379216" lon="9.353472216648623" id="-19211">
		<tag k="alt_name" v="Åstjørn" />
		<tag k="name" v="Åstjønn" />
		<tag k="natural" v="water" />
		<tag k="ssr:stedsnr" v="367919" />
	</node>
	<node lat="59.778294440079094" lon="9.15114722014945" id="-19214">
		<tag k="alt_name" v="Stabekktjørna" />
		<tag k="name" v="Stabekktjønn" />
		<tag k="natural" v="water" />
		<tag k="ssr:stedsnr" v="368411" />
	</node>
	<node lat="59.86115833037887" lon="8.896052782442283" id="-19217">
		<tag k="name" v="Boslibekken" />
		<tag k="ssr:stedsnr" v="368504" />
		<tag k="waterway" v="stream" />
	</node>
	<node lat="59.791999998363494" lon="9.332186105751003" id="-19218">
		<tag k="name" v="Nåtterstrengen" />
		<tag k="natural" v="water" />
		<tag k="ssr:stedsnr" v="368919" />
	</node>
	<node lat="59.72957500388226" lon="9.160388882553221" id="-19219">
		<tag k="name" v="Mjelttjønnan" />
		<tag k="natural" v="water" />
		<tag k="ssr:stedsnr" v="479536" />
	</node>
	<node lat="59.73310277633214" lon="9.152313894884141" id="-19220">
		<tag k="name" v="Rånnaugtjønn" />
		<tag k="natural" v="water" />
		<tag k="ssr:stedsnr" v="479551" />
	</node>
	<node lat="59.78173610832936" lon="9.352961119720318" id="-19222">
		<tag k="name" v="Nordre Damtjønn" />
		<tag k="natural" v="water" />
		<tag k="ssr:stedsnr" v="481135" />
	</node>
	<node lat="59.77841944335443" lon="9.225016667331271" id="-19225">
		<tag k="name" v="Sudstulåa" />
		<tag k="ssr:stedsnr" v="482180" />
		<tag k="waterway" v="stream" />
	</node>
	<node lat="59.78077222248902" lon="9.2264666733912" id="-19226">
		<tag k="name" v="Frinåstjønna" />
		<tag k="natural" v="water" />
		<tag k="ssr:stedsnr" v="482181" />
	</node>
	<node lat="59.74233888576723" lon="9.121805546930137" id="-19229">
		<tag k="name" v="Eikeberg" />
		<tag k="natural" v="beach" />
		<tag k="ssr:stedsnr" v="482701" />
	</node>
	<node lat="59.82613888568663" lon="8.995919446185233" id="-19243">
		<tag k="name" v="Grasbergmyra" />
		<tag k="natural" v="cape" />
		<tag k="ssr:stedsnr" v="405801" />
	</node>
	<node lat="59.67072499937073" lon="9.263211108990093" id="-19244">
		<tag k="name" v="Vassbotnbukta" />
		<tag k="natural" v="bay" />
		<tag k="ssr:stedsnr" v="406242" />
	</node>
	<node lat="59.54091778424835" lon="9.50512377584139" id="-19247">
		<tag k="name" v="Elgstjønnene" />
		<tag k="natural" v="water" />
		<tag k="ssr:stedsnr" v="407694" />
	</node>
	<node lat="59.53094999804077" lon="9.505613890504641" id="-19249">
		<tag k="name" v="Bufinnbekken" />
		<tag k="ssr:stedsnr" v="407697" />
		<tag k="waterway" v="stream" />
	</node>
	<node lat="59.541797224895895" lon="9.407252770397296" id="-19251">
		<tag k="name" v="Astridåfossen" />
		<tag k="natural" v="waterfall" />
		<tag k="ssr:stedsnr" v="407709" />
	</node>
	<node lat="59.54386388905099" lon="9.449961112549527" id="-19253">
		<tag k="name" v="Høgstultjønn" />
		<tag k="natural" v="water" />
		<tag k="ssr:stedsnr" v="407716" />
	</node>
	<node lat="59.69969444033079" lon="8.954486118259451" id="-19264">
		<tag k="name" v="Damtjønn" />
		<tag k="natural" v="water" />
		<tag k="ssr:stedsnr" v="408447" />
	</node>
	<node lat="59.547536107877775" lon="9.210291658859697" id="-19270">
		<tag k="name" v="Lislebrubekk" />
		<tag k="ssr:stedsnr" v="408573" />
		<tag k="waterway" v="stream" />
	</node>
	<node lat="59.70039166843772" lon="9.087602771381365" id="-19271">
		<tag k="name" v="Hågåbekk" />
		<tag k="ssr:stedsnr" v="408489" />
		<tag k="waterway" v="stream" />
	</node>
	<node lat="59.72839166942427" lon="8.982949998952202" id="-19277">
		<tag k="name" v="Kvennhusfossen" />
		<tag k="natural" v="waterfall" />
		<tag k="ssr:stedsnr" v="408921" />
	</node>
	<node lat="59.7242166680842" lon="9.023702777701004" id="-19285">
		<tag k="name" v="Tinnosdammen" />
		<tag k="ssr:stedsnr" v="408998" />
		<tag k="waterway" v="dam" />
	</node>
	<node lat="59.577213886520774" lon="9.413969442840141" id="-19288">
		<tag k="name" v="Båntjønn" />
		<tag k="natural" v="water" />
		<tag k="ssr:stedsnr" v="409894" />
	</node>
	<node lat="59.55845833683646" lon="9.44557500639266" id="-19289">
		<tag k="name" v="Drevdalstjønn nedre" />
		<tag k="natural" v="water" />
		<tag k="ssr:stedsnr" v="409899" />
	</node>
	<node lat="59.49356111324175" lon="8.87023610346753" id="-19293">
		<tag k="alt_name" v="Hurumskardtjørna" />
		<tag k="name" v="Hurumskardtjønna" />
		<tag k="natural" v="water" />
		<tag k="ssr:stedsnr" v="487638" />
	</node>
	<node lat="59.694258328909655" lon="9.026980557481295" id="-19301">
		<tag k="name" v="Lihøl" />
		<tag k="place" v="locality" />
		<tag k="ssr:stedsnr" v="488133" />
	</node>
	<node lat="59.71281666422276" lon="9.160858333324208" id="-19302">
		<tag k="alt_name" v="Nøstetjørn" />
		<tag k="name" v="Nøstjønn" />
		<tag k="natural" v="water" />
		<tag k="ssr:stedsnr" v="488146" />
	</node>
	<node lat="59.67894722651843" lon="9.185211106990417" id="-19306">
		<tag k="alt_name" v="Follsæråstjørna" />
		<tag k="name" v="Follseråstjønna" />
		<tag k="natural" v="water" />
		<tag k="ssr:stedsnr" v="488194" />
	</node>
	<node lat="59.62958055557341" lon="9.200650000217445" id="-19307">
		<tag k="alt_name" v="Munkedalstjørna" />
		<tag k="name" v="Munkedalstjønn" />
		<tag k="natural" v="water" />
		<tag k="ssr:stedsnr" v="488249" />
	</node>
	<node lat="59.62026666754313" lon="9.061802769008041" id="-19310">
		<tag k="alt_name" v="Ormetjørn" />
		<tag k="name" v="Ormetjønn" />
		<tag k="natural" v="water" />
		<tag k="ssr:stedsnr" v="488279" />
	</node>
	<node lat="59.61861389147396" lon="9.203125001373097" id="-19312">
		<tag k="alt_name" v="Løyningen, vle" />
		<tag k="name" v="Løyningen, vesle" />
		<tag k="natural" v="water" />
		<tag k="ssr:stedsnr" v="488229" />
	</node>
	<node lat="59.520300000362475" lon="9.168905557721963" id="-19317">
		<tag k="alt_name" v="Sandtjørna" />
		<tag k="name" v="Sandtjønn" />
		<tag k="natural" v="water" />
		<tag k="ssr:stedsnr" v="488369" />
	</node>
	<node lat="59.530044446189756" lon="9.13926389129695" id="-19318">
		<tag k="alt_name" v="Lomtjørna" />
		<tag k="name" v="Lomtjønn" />
		<tag k="natural" v="water" />
		<tag k="ssr:stedsnr" v="488371" />
	</node>
	<node lat="59.62987222602977" lon="9.428249997717222" id="-19322">
		<tag k="alt_name" v="Deletjønn" />
		<tag k="name" v="Delestjern" />
		<tag k="natural" v="water" />
		<tag k="ssr:stedsnr" v="488851" />
	</node>
	<node lat="59.661077781318916" lon="9.36553888479377" id="-19325">
		<tag k="alt_name" v="Breidstultjørn" />
		<tag k="name" v="Breistultjønn" />
		<tag k="natural" v="water" />
		<tag k="ssr:stedsnr" v="488931" />
	</node>
	<node lat="59.636005555568275" lon="9.331925001364423" id="-19327">
		<tag k="name" v="Langetjørn" />
		<tag k="natural" v="water" />
		<tag k="ssr:stedsnr" v="488885" />
	</node>
	<node lat="59.681299998995904" lon="9.327599999404795" id="-19328">
		<tag k="name" v="Nordstulbekken" />
		<tag k="ssr:stedsnr" v="488962" />
		<tag k="waterway" v="stream" />
	</node>
	<node lat="59.65536944562215" lon="9.019869446283684" id="-19330">
		<tag k="name" v="Kvernhusbekken" />
		<tag k="ssr:stedsnr" v="489130" />
		<tag k="waterway" v="stream" />
	</node>
	<node lat="59.71469166892879" lon="9.212986107099978" id="-19331">
		<tag k="name" v="Løkjebukta" />
		<tag k="natural" v="bay" />
		<tag k="ssr:stedsnr" v="421250" />
	</node>
	<node lat="59.85879999627935" lon="8.908088883571342" id="-19335">
		<tag k="name" v="Boslibekken" />
		<tag k="ssr:stedsnr" v="422039" />
		<tag k="waterway" v="stream" />
	</node>
	<node lat="59.83815277696746" lon="8.956625002807291" id="-19342">
		<tag k="name" v="Skuggodden" />
		<tag k="natural" v="cape" />
		<tag k="ssr:stedsnr" v="489469" />
	</node>
	<node lat="59.74479000003347" lon="9.111061807325669" id="-19344">
		<tag k="name" v="Trytetor" />
		<tag k="natural" v="bay" />
		<tag k="ssr:stedsnr" v="423541" />
	</node>
	<node lat="59.4966611146022" lon="9.438088891485409" id="-19346">
		<tag k="name" v="Fjellvatna" />
		<tag k="natural" v="water" />
		<tag k="ssr:stedsnr" v="427083" />
		<tag k="water" v="lake" />
	</node>
	<node lat="59.52913333465305" lon="8.906800005047971" id="-19349">
		<tag k="name" v="Kruvla" />
		<tag k="natural" v="water" />
		<tag k="ssr:stedsnr" v="427402" />
	</node>
	<node lat="59.645722222972836" lon="9.135197217432546" id="-19355">
		<tag k="alt_name" v="Bråtetjørn, øvre" />
		<tag k="name" v="Øvre Bråtetjønn" />
		<tag k="natural" v="water" />
		<tag k="ssr:stedsnr" v="428272" />
	</node>
	<node lat="59.71707500417782" lon="9.260874995329182" id="-19356">
		<tag k="alt_name" v="Bolkesjå" />
		<tag k="name" v="Bolkesjø" />
		<tag k="natural" v="water" />
		<tag k="ssr:stedsnr" v="428419" />
		<tag k="water" v="lake" />
	</node>
	<node lat="59.56016110777621" lon="9.06829722845514" id="-19359">
		<tag k="alt_name" v="Høgelitjørna" />
		<tag k="name" v="Høgelitjønn" />
		<tag k="natural" v="water" />
		<tag k="ssr:stedsnr" v="428374" />
	</node>
	<node lat="59.54344999633754" lon="9.48114722943367" id="-19363">
		<tag k="alt_name" v="Neråsløken" />
		<tag k="name" v="Neråsløkan" />
		<tag k="natural" v="water" />
		<tag k="ssr:stedsnr" v="428762" />
		<tag k="water" v="lake" />
	</node>
	<node lat="59.586755552756884" lon="9.400077770153011" id="-19364">
		<tag k="alt_name" v="Tellerudtjørnene" />
		<tag k="name" v="Tellerudtjønn" />
		<tag k="natural" v="water" />
		<tag k="ssr:stedsnr" v="428779" />
	</node>
	<node lat="59.6344111153758" lon="9.25768888827493" id="-19365">
		<tag k="alt_name" v="Damtjørn, l" />
		<tag k="name" v="Vesle Damtjønn" />
		<tag k="natural" v="water" />
		<tag k="ssr:stedsnr" v="428902" />
	</node>
	<node lat="59.76491111288763" lon="9.193433334969326" id="-19369">
		<tag k="alt_name" v="Harvedalsvatnet, store;Harvedalsvatnet;Harvedalsvatn" />
		<tag k="name" v="Store Harvedalsvatnet" />
		<tag k="natural" v="water" />
		<tag k="ssr:stedsnr" v="429416" />
		<tag k="water" v="lake" />
	</node>
	<node lat="59.682249999276785" lon="9.108569451596372" id="-19378">
		<tag k="alt_name" v="Deilbekk" />
		<tag k="name" v="Deilbekken" />
		<tag k="ssr:stedsnr" v="671133" />
		<tag k="waterway" v="stream" />
	</node>
	<node lat="59.64173610968018" lon="9.151136117251772" id="-19380">
		<tag k="alt_name" v="Mjågetjørn" />
		<tag k="name" v="Mjågetjønn" />
		<tag k="natural" v="water" />
		<tag k="ssr:stedsnr" v="671295" />
	</node>
	<node lat="59.79191111316501" lon="9.163444436992238" id="-19383">
		<tag k="alt_name" v="Sigridstjørn" />
		<tag k="name" v="Sigridstjønn" />
		<tag k="natural" v="water" />
		<tag k="ssr:stedsnr" v="671386" />
	</node>
	<node lat="59.77154999769772" lon="8.947813889220306" id="-19385">
		<tag k="alt_name" v="Lauvstjørn" />
		<tag k="name" v="Lauvstjønn" />
		<tag k="natural" v="water" />
		<tag k="ssr:stedsnr" v="671472" />
	</node>
	<node lat="59.78560010060558" lon="8.937281779130933" id="-19387">
		<tag k="alt_name" v="Kråkåstjønnan" />
		<tag k="name" v="Kråkåstjørnan" />
		<tag k="natural" v="water" />
		<tag k="ssr:stedsnr" v="671480" />
	</node>
	<node lat="59.76660833050672" lon="9.319313897005275" id="-19393">
		<tag k="name" v="Kulpen" />
		<tag k="natural" v="water" />
		<tag k="ssr:stedsnr" v="671998" />
	</node>
	<node lat="59.76312777920115" lon="8.975647220666328" id="-19397">
		<tag k="name" v="Deiltjønn" />
		<tag k="natural" v="water" />
		<tag k="ssr:stedsnr" v="465459" />
	</node>
	<node lat="59.68044722171382" lon="9.265172227791313" id="-19400">
		<tag k="name" v="Skåråbekkbukta" />
		<tag k="natural" v="bay" />
		<tag k="ssr:stedsnr" v="466014" />
	</node>
	<node lat="59.68726944248104" lon="9.279716658051393" id="-19401">
		<tag k="name" v="Åmotbekken" />
		<tag k="ssr:stedsnr" v="466019" />
		<tag k="waterway" v="stream" />
	</node>
	<node lat="59.85874444138275" lon="8.918397228480307" id="-19403">
		<tag k="name" v="Digeråa" />
		<tag k="ssr:stedsnr" v="466080" />
		<tag k="waterway" v="river" />
	</node>
	<node lat="59.58336666621575" lon="9.025472228559773" id="-19413">
		<tag k="name" v="Skriutjønn" />
		<tag k="natural" v="water" />
		<tag k="ssr:stedsnr" v="468083" />
	</node>
	<node lat="59.60341111240271" lon="9.39138610525488" id="-19418">
		<tag k="name" v="Raubekk" />
		<tag k="ssr:stedsnr" v="469005" />
		<tag k="waterway" v="stream" />
	</node>
	<node lat="59.69926110976937" lon="9.173152778631225" id="-19422">
		<tag k="name" v="Brannstjønnbekken" />
		<tag k="ssr:stedsnr" v="469011" />
		<tag k="waterway" v="stream" />
	</node>
	<node lat="59.64804444048457" lon="9.055852783488161" id="-19423">
		<tag k="name" v="Elgstjønn" />
		<tag k="natural" v="water" />
		<tag k="ssr:stedsnr" v="469212" />
	</node>
	<node lat="59.63778888696078" lon="9.131880557485665" id="-19436">
		<tag k="name" v="Gjeitefoss" />
		<tag k="natural" v="waterfall" />
		<tag k="ssr:stedsnr" v="469866" />
	</node>
	<node lat="59.655224999402186" lon="9.145322214990573" id="-19437">
		<tag k="name" v="Kopardipilen" />
		<tag k="natural" v="water" />
		<tag k="ssr:stedsnr" v="469872" />
	</node>
	<node lat="59.7470249991548" lon="8.983527773645482" id="-19451">
		<tag k="name" v="Storebekk" />
		<tag k="ssr:stedsnr" v="480060" />
		<tag k="waterway" v="stream" />
	</node>
	<node lat="59.772186109306" lon="9.33947778160697" id="-19453">
		<tag k="name" v="Kulpen" />
		<tag k="natural" v="water" />
		<tag k="ssr:stedsnr" v="482164" />
		<tag k="water" v="pond" />
	</node>
	<node lat="59.76847499751081" lon="9.22891666342097" id="-19455">
		<tag k="name" v="Esperåa" />
		<tag k="ssr:stedsnr" v="482228" />
		<tag k="waterway" v="stream" />
	</node>
	<node lat="59.75111944237923" lon="9.123330559762971" id="-19458">
		<tag k="name" v="Sandaroløken" />
		<tag k="natural" v="water" />
		<tag k="ssr:stedsnr" v="482608" />
		<tag k="water" v="lake" />
	</node>
	<node lat="59.72676038079991" lon="9.215699606722222" id="-19461">
		<tag k="name" v="Østre Vettjønn" />
		<tag k="natural" v="water" />
		<tag k="ssr:stedsnr" v="483525" />
	</node>
	<node lat="59.76822778105606" lon="9.090336105273405" id="-19463">
		<tag k="name" v="Reisjåbekken" />
		<tag k="ssr:stedsnr" v="484361" />
		<tag k="waterway" v="stream" />
	</node>
	<node lat="59.752536112139474" lon="9.08228610292741" id="-19464">
		<tag k="name" v="Grivlosdammen" />
		<tag k="ssr:stedsnr" v="484364" />
		<tag k="waterway" v="dam" />
	</node>
	<node lat="59.756794444159326" lon="9.072872217411598" id="-19465">
		<tag k="name" v="Diplebekk" />
		<tag k="ssr:stedsnr" v="484372" />
		<tag k="waterway" v="stream" />
	</node>
	<node lat="59.55231944289901" lon="9.039197225309453" id="-19471">
		<tag k="name" v="Murtebua" />
		<tag k="natural" v="water" />
		<tag k="ssr:stedsnr" v="488408" />
	</node>
	<node lat="59.729455552497" lon="9.300183327582172" id="-19473">
		<tag k="alt_name" v="Mjaugetjørn" />
		<tag k="name" v="Mjaugetjønn" />
		<tag k="natural" v="water" />
		<tag k="ssr:stedsnr" v="488427" />
	</node>
	<node lat="59.66875000395682" lon="9.211325000078075" id="-19475">
		<tag k="name" v="Fulldøla" />
		<tag k="ssr:stedsnr" v="488192" />
		<tag k="waterway" v="river" />
	</node>
	<node lat="59.51121666348663" lon="8.86126667093587" id="-19479">
		<tag k="alt_name" v="Viartjørna" />
		<tag k="name" v="Viertjønn" />
		<tag k="natural" v="water" />
		<tag k="ssr:stedsnr" v="488357" />
	</node>
	<node lat="59.50869999655164" lon="8.888325008790543" id="-19480">
		<tag k="name" v="Hollanvollbekken" />
		<tag k="ssr:stedsnr" v="488363" />
		<tag k="waterway" v="stream" />
	</node>
	<node lat="59.52948333568184" lon="9.10291944762329" id="-19481">
		<tag k="name" v="Bloddalsbekken" />
		<tag k="ssr:stedsnr" v="488364" />
		<tag k="waterway" v="stream" />
	</node>
	<node lat="59.55790000241632" lon="9.028794437549895" id="-19482">
		<tag k="alt_name" v="Svartetjørna" />
		<tag k="name" v="Svarttjønn" />
		<tag k="natural" v="water" />
		<tag k="ssr:stedsnr" v="488396" />
	</node>
	<node lat="59.50719166422476" lon="9.437683337442925" id="-19484">
		<tag k="alt_name" v="Fjellvasselva" />
		<tag k="name" v="Fjellvassåa" />
		<tag k="ssr:stedsnr" v="488705" />
		<tag k="waterway" v="river" />
	</node>
	<node lat="59.68220555351233" lon="9.3700250002231" id="-19487">
		<tag k="name" v="Langevatn" />
		<tag k="natural" v="water" />
		<tag k="ssr:stedsnr" v="488953" />
	</node>
	<node lat="59.74386110991371" lon="9.17068334126414" id="-19488">
		<tag k="name" v="Gvammetjørn" />
		<tag k="natural" v="water" />
		<tag k="ssr:stedsnr" v="489121" />
	</node>
	<node lat="59.69398538597525" lon="9.17565228834508" id="-19491">
		<tag k="alt_name" v="Brannstjørn, vle;Brannstjørn, vesle" />
		<tag k="name" v="Vesle Brannstjønn" />
		<tag k="natural" v="water" />
		<tag k="ssr:stedsnr" v="489147" />
	</node>
	<node lat="59.79397222231057" lon="8.969063891990999" id="-19494">
		<tag k="alt_name" v="Lomtjørn" />
		<tag k="name" v="Lomtjønn" />
		<tag k="natural" v="water" />
		<tag k="ssr:stedsnr" v="489506" />
	</node>
	<node lat="59.765886111787" lon="9.125308334358431" id="-19496">
		<tag k="name" v="Sandåa" />
		<tag k="ssr:stedsnr" v="489441" />
		<tag k="waterway" v="stream" />
	</node>
	<node lat="59.54545555498201" lon="9.011791665071282" id="-19499">
		<tag k="alt_name" v="Libekk" />
		<tag k="name" v="Libekken" />
		<tag k="ssr:stedsnr" v="489449" />
		<tag k="waterway" v="stream" />
	</node>
	<node lat="59.789938885890855" lon="9.291219440277542" id="-19502">
		<tag k="alt_name" v="Soløytjørna, l" />
		<tag k="name" v="Vesle Soløytjønn" />
		<tag k="natural" v="water" />
		<tag k="ssr:stedsnr" v="489905" />
	</node>
	<node lat="59.76780278229651" lon="9.341902775288855" id="-19503">
		<tag k="alt_name" v="Nåttern, vestre;Vesle Nåtter;Vestre Nåttern" />
		<tag k="name" v="Vesle Nåttern" />
		<tag k="natural" v="water" />
		<tag k="ssr:stedsnr" v="489997" />
	</node>
	<node lat="59.85090277993446" lon="8.852138890143468" id="-19511">
		<tag k="name" v="Storebekk" />
		<tag k="ssr:stedsnr" v="525811" />
		<tag k="waterway" v="stream" />
	</node>
	<node lat="59.70657777740484" lon="9.094127776662907" id="-19514">
		<tag k="name" v="Gvevsbekken" />
		<tag k="ssr:stedsnr" v="525912" />
		<tag k="waterway" v="stream" />
	</node>
	<node lat="59.7779222219053" lon="9.194116665116134" id="-19515">
		<tag k="name" v="Håmmåren" />
		<tag k="natural" v="cape" />
		<tag k="ssr:stedsnr" v="526162" />
	</node>
	<node lat="59.777866663734635" lon="9.205741672302768" id="-19516">
		<tag k="name" v="Gampodden" />
		<tag k="natural" v="cape" />
		<tag k="ssr:stedsnr" v="526166" />
	</node>
	<node lat="59.7762861101262" lon="9.187080556344666" id="-19517">
		<tag k="name" v="Nørstevatn" />
		<tag k="natural" v="water" />
		<tag k="ssr:stedsnr" v="526171" />
	</node>
	<node lat="59.766208329228036" lon="9.251888888110061" id="-19518">
		<tag k="name" v="Snipetjønnbekken" />
		<tag k="ssr:stedsnr" v="526172" />
		<tag k="waterway" v="stream" />
	</node>
	<node lat="59.68698611216743" lon="9.26838333329721" id="-19520">
		<tag k="name" v="Jonrudåa" />
		<tag k="ssr:stedsnr" v="527016" />
		<tag k="waterway" v="stream" />
	</node>
	<node lat="59.83190833102913" lon="8.95397777078005" id="-19521">
		<tag k="name" v="Haukedalsåa" />
		<tag k="ssr:stedsnr" v="527091" />
		<tag k="waterway" v="stream" />
	</node>
	<node lat="59.76305833511894" lon="9.310791668295952" id="-19526">
		<tag k="name" v="Holmevassbekken" />
		<tag k="ssr:stedsnr" v="527874" />
		<tag k="waterway" v="stream" />
	</node>
	<node lat="59.50719166422476" lon="9.437683337442925" id="-19527">
		<tag k="name" v="Fjellvassåa" />
		<tag k="ssr:stedsnr" v="528376" />
		<tag k="waterway" v="river" />
	</node>
	<node lat="59.49307221973825" lon="9.434174999054791" id="-19529">
		<tag k="name" v="Søndre Damvatn" />
		<tag k="natural" v="water" />
		<tag k="ssr:stedsnr" v="528476" />
		<tag k="water" v="lake" />
	</node>
	<node lat="59.505738885320454" lon="9.375138889281326" id="-19531">
		<tag k="name" v="Høgelitjønn" />
		<tag k="natural" v="water" />
		<tag k="ssr:stedsnr" v="528575" />
	</node>
	<node lat="59.6853861115269" lon="9.141936115392165" id="-19532">
		<tag k="name" v="Årlifossdammen" />
		<tag k="ssr:stedsnr" v="529011" />
		<tag k="waterway" v="dam" />
	</node>
	<node lat="59.5919638850724" lon="9.12984445101035" id="-19537">
		<tag k="name" v="Raubekkåsa" />
		<tag k="place" v="island" />
		<tag k="ssr:stedsnr" v="529175" />
	</node>
	<node lat="59.648605557845755" lon="9.134763883474008" id="-19554">
		<tag k="name" v="Kalktjønn" />
		<tag k="natural" v="water" />
		<tag k="ssr:stedsnr" v="529889" />
	</node>
	<node lat="59.63701110718019" lon="9.174341673682786" id="-19555">
		<tag k="name" v="Ljostjønnløken" />
		<tag k="natural" v="water" />
		<tag k="ssr:stedsnr" v="529891" />
		<tag k="water" v="lake" />
	</node>
	<node lat="59.6001444468048" lon="9.036413896290622" id="-19557">
		<tag k="name" v="Sud-øyane" />
		<tag k="place" v="island" />
		<tag k="ssr:stedsnr" v="530184" />
	</node>
	<node lat="59.72424999856716" lon="9.221936108028393" id="-19567">
		<tag k="name" v="Eikvollfossen" />
		<tag k="natural" v="waterfall" />
		<tag k="ssr:stedsnr" v="542366" />
	</node>
	<node lat="59.636470558336974" lon="9.388735293584084" id="-19570">
		<tag k="name" v="Torvetjønn" />
		<tag k="natural" v="water" />
		<tag k="ssr:stedsnr" v="543284" />
	</node>
	<node lat="59.741416662866854" lon="9.093738884934059" id="-19574">
		<tag k="name" v="Simonsodde" />
		<tag k="natural" v="cape" />
		<tag k="ssr:stedsnr" v="543715" />
	</node>
	<node lat="59.74532777556993" lon="9.090727780445548" id="-19575">
		<tag k="name" v="Håvarodden" />
		<tag k="natural" v="cape" />
		<tag k="ssr:stedsnr" v="544504" />
	</node>
	<node lat="59.62316388613012" lon="9.058938887750939" id="-19579">
		<tag k="alt_name" v="Kringletjørn" />
		<tag k="name" v="Kringletjønn" />
		<tag k="natural" v="water" />
		<tag k="ssr:stedsnr" v="548329" />
	</node>
	<node lat="59.7028666690026" lon="9.193133333850023" id="-19586">
		<tag k="name" v="Kyrsbekk" />
		<tag k="ssr:stedsnr" v="549168" />
		<tag k="waterway" v="stream" />
	</node>
	<node lat="59.69651388663134" lon="8.914047216594271" id="-19587">
		<tag k="alt_name" v="Ljostjørn" />
		<tag k="name" v="Ljostjønn" />
		<tag k="natural" v="water" />
		<tag k="ssr:stedsnr" v="549169" />
	</node>
	<node lat="59.6825722266872" lon="8.921391658675295" id="-19588">
		<tag k="alt_name" v="Gvelvestultjørna" />
		<tag k="name" v="Gvelvestultjønn" />
		<tag k="natural" v="water" />
		<tag k="ssr:stedsnr" v="549170" />
	</node>
	<node lat="59.63236666365086" lon="9.00601111518982" id="-19589">
		<tag k="name" v="Ørvella" />
		<tag k="ssr:stedsnr" v="549205" />
		<tag k="waterway" v="river" />
	</node>
	<node lat="59.66354722414782" lon="9.134277781253202" id="-19591">
		<tag k="alt_name" v="Krosstjørn" />
		<tag k="name" v="Krosstjønn" />
		<tag k="natural" v="water" />
		<tag k="ssr:stedsnr" v="549214" />
	</node>
	<node lat="59.67027500258108" lon="9.131608333981827" id="-19592">
		<tag k="name" v="Heddersvatn" />
		<tag k="natural" v="water" />
		<tag k="ssr:stedsnr" v="549217" />
	</node>
	<node lat="59.5840611136832" lon="9.020038885420817" id="-19593">
		<tag k="alt_name" v="Skriu" />
		<tag k="name" v="Skridu" />
		<tag k="ssr:stedsnr" v="549401" />
		<tag k="waterway" v="stream" />
	</node>
	<node lat="59.583724996725856" lon="9.141100002076847" id="-19597">
		<tag k="name" v="Heddøla" />
		<tag k="ssr:stedsnr" v="549402" />
		<tag k="waterway" v="river" />
	</node>
	<node lat="59.537977778545326" lon="8.93365277281772" id="-19600">
		<tag k="name" v="Gavlesjå" />
		<tag k="natural" v="water" />
		<tag k="ssr:stedsnr" v="549412" />
		<tag k="water" v="lake" />
	</node>
	<node lat="59.79044999837524" lon="9.002952785910361" id="-19601">
		<tag k="name" v="Breidgvambukta" />
		<tag k="natural" v="bay" />
		<tag k="ssr:stedsnr" v="549448" />
	</node>
	<node lat="59.7444000005709" lon="9.338672221355527" id="-19603">
		<tag k="alt_name" v="Lauvfoss" />
		<tag k="name" v="Lauvfossen" />
		<tag k="natural" v="waterfall" />
		<tag k="ssr:stedsnr" v="549457" />
	</node>
	<node lat="59.80726111158887" lon="8.934133339494021" id="-19605">
		<tag k="name" v="Raunebekken" />
		<tag k="ssr:stedsnr" v="549460" />
		<tag k="waterway" v="stream" />
	</node>
	<node lat="59.61116111250682" lon="9.430291673663586" id="-19610">
		<tag k="alt_name" v="Kleivtjørn" />
		<tag k="name" v="Kleivtjønn" />
		<tag k="natural" v="water" />
		<tag k="ssr:stedsnr" v="549852" />
	</node>
	<node lat="59.56949166642175" lon="9.359733333041966" id="-19614">
		<tag k="name" v="Svarttjønn" />
		<tag k="natural" v="water" />
		<tag k="ssr:stedsnr" v="583189" />
	</node>
	<node lat="59.68417777767925" lon="9.292319443264164" id="-19621">
		<tag k="name" v="Diplan" />
		<tag k="natural" v="water" />
		<tag k="ssr:stedsnr" v="587018" />
	</node>
	<node lat="59.7409361151684" lon="9.158877775365495" id="-19625">
		<tag k="name" v="Skålrotjønn" />
		<tag k="natural" v="water" />
		<tag k="ssr:stedsnr" v="587547" />
	</node>
	<node lat="59.72158055554188" lon="9.28773889507091" id="-19628">
		<tag k="name" v="Replitjønn" />
		<tag k="natural" v="water" />
		<tag k="ssr:stedsnr" v="587922" />
	</node>
	<node lat="59.51262222252738" lon="9.42661944002716" id="-19630">
		<tag k="name" v="Taklåselva" />
		<tag k="ssr:stedsnr" v="589369" />
		<tag k="waterway" v="river" />
	</node>
	<node lat="59.50844999990431" lon="9.403213890643778" id="-19631">
		<tag k="name" v="Store Trytetjønn" />
		<tag k="natural" v="water" />
		<tag k="ssr:stedsnr" v="589370" />
	</node>
	<node lat="59.51262222252738" lon="9.42661944002716" id="-19632">
		<tag k="name" v="Trytetjønn" />
		<tag k="natural" v="water" />
		<tag k="ssr:stedsnr" v="589373" />
	</node>
	<node lat="59.49096389041821" lon="9.385649999004238" id="-19635">
		<tag k="name" v="Kloppetjønn" />
		<tag k="natural" v="water" />
		<tag k="ssr:stedsnr" v="589565" />
	</node>
	<node lat="59.49820833576131" lon="9.394022221355414" id="-19636">
		<tag k="name" v="Trytetjønnbekken" />
		<tag k="ssr:stedsnr" v="589571" />
		<tag k="waterway" v="stream" />
	</node>
	<node lat="59.69027499736342" lon="9.08064444521176" id="-19647">
		<tag k="name" v="Sponkåsbekken" />
		<tag k="ssr:stedsnr" v="590510" />
		<tag k="waterway" v="stream" />
	</node>
	<node lat="59.67587221779768" lon="9.23185277536618" id="-19655">
		<tag k="name" v="Svartvik" />
		<tag k="natural" v="bay" />
		<tag k="ssr:stedsnr" v="590776" />
	</node>
	<node lat="59.65403055328785" lon="9.140755554333973" id="-19661">
		<tag k="name" v="Luggen" />
		<tag k="natural" v="water" />
		<tag k="ssr:stedsnr" v="590860" />
	</node>
	<node lat="59.62843889243227" lon="9.146616668877373" id="-19662">
		<tag k="name" v="Sveinstjønn" />
		<tag k="natural" v="water" />
		<tag k="ssr:stedsnr" v="590878" />
	</node>
	<node lat="59.605658337226096" lon="9.057350002409116" id="-19666">
		<tag k="name" v="Kviteflogbekken" />
		<tag k="ssr:stedsnr" v="591115" />
		<tag k="waterway" v="stream" />
	</node>
	<node lat="59.55935000379109" lon="9.45851389219154" id="-19670">
		<tag k="name" v="Drevdalstjønn øvre" />
		<tag k="natural" v="water" />
		<tag k="ssr:stedsnr" v="591921" />
	</node>
	<node lat="59.71239444468201" lon="9.22349444970799" id="-19675">
		<tag k="name" v="Løken" />
		<tag k="natural" v="water" />
		<tag k="ssr:stedsnr" v="603260" />
		<tag k="water" v="lake" />
	</node>
	<node lat="59.70988611315871" lon="9.293077782064085" id="-19677">
		<tag k="name" v="Homtjønnbekken" />
		<tag k="ssr:stedsnr" v="603554" />
		<tag k="waterway" v="stream" />
	</node>
	<node lat="59.77297499830055" lon="9.12357777147181" id="-19682">
		<tag k="name" v="Surtetjønn" />
		<tag k="natural" v="water" />
		<tag k="ssr:stedsnr" v="605415" />
	</node>
	<node lat="59.65783055898131" lon="8.985569445625933" id="-19691">
		<tag k="name" v="Grasdalsbekken" />
		<tag k="ssr:stedsnr" v="609194" />
		<tag k="waterway" v="stream" />
	</node>
	<node lat="59.65180098103323" lon="9.052731695915966" id="-19692">
		<tag k="alt_name" v="Bjønndalsdipilen" />
		<tag k="name" v="Bjørndalsdipilen" />
		<tag k="natural" v="water" />
		<tag k="ssr:stedsnr" v="609200" />
	</node>
	<node lat="59.62389166799233" lon="9.068805548450147" id="-19693">
		<tag k="alt_name" v="Homtjørn" />
		<tag k="name" v="Homtjønn" />
		<tag k="natural" v="water" />
		<tag k="ssr:stedsnr" v="609302" />
	</node>
	<node lat="59.617230554657475" lon="9.100844449256398" id="-19695">
		<tag k="name" v="Liarbekk" />
		<tag k="ssr:stedsnr" v="609285" />
		<tag k="waterway" v="stream" />
	</node>
	<node lat="59.618602773483495" lon="9.059852777904485" id="-19696">
		<tag k="alt_name" v="Karuskulpen" />
		<tag k="name" v="Karusskulpen" />
		<tag k="place" v="locality" />
		<tag k="ssr:stedsnr" v="609299" />
	</node>
	<node lat="59.620074997961005" lon="9.043177775576744" id="-19697">
		<tag k="alt_name" v="Skavdalstjørna" />
		<tag k="name" v="Skavdalstjønn" />
		<tag k="natural" v="water" />
		<tag k="ssr:stedsnr" v="609300" />
	</node>
	<node lat="59.747200000235914" lon="9.334877780731874" id="-19700">
		<tag k="alt_name" v="Dusanfoss" />
		<tag k="name" v="Dusanfossen" />
		<tag k="natural" v="waterfall" />
		<tag k="ssr:stedsnr" v="609466" />
	</node>
	<node lat="59.6712583316656" lon="9.296005554980178" id="-19702">
		<tag k="alt_name" v="Ljostjørn" />
		<tag k="name" v="Ljostjønn" />
		<tag k="natural" v="water" />
		<tag k="ssr:stedsnr" v="609917" />
	</node>
	<node lat="59.697427776065446" lon="9.294441667330014" id="-19703">
		<tag k="alt_name" v="Ormetjørn" />
		<tag k="name" v="Ormetjønn" />
		<tag k="natural" v="water" />
		<tag k="ssr:stedsnr" v="609939" />
	</node>
	<node lat="59.58920832911453" lon="9.283980558091336" id="-19704">
		<tag k="alt_name" v="Ormetjørn" />
		<tag k="name" v="Ormetjønn" />
		<tag k="natural" v="water" />
		<tag k="ssr:stedsnr" v="609803" />
	</node>
	<node lat="59.59685555371064" lon="9.304547219206752" id="-19705">
		<tag k="alt_name" v="Kleivtjørn" />
		<tag k="name" v="Kleivtjønn" />
		<tag k="natural" v="water" />
		<tag k="ssr:stedsnr" v="609810" />
	</node>
	<node lat="59.598472221900884" lon="9.222619435883244" id="-19707">
		<tag k="alt_name" v="Gjuvbekktjørna" />
		<tag k="name" v="Gjuvbekktjønn" />
		<tag k="natural" v="water" />
		<tag k="ssr:stedsnr" v="609816" />
	</node>
	<node lat="59.712161111044544" lon="9.108850007344545" id="-19711">
		<tag k="alt_name" v="Åstjørn" />
		<tag k="name" v="Åstjønn" />
		<tag k="natural" v="water" />
		<tag k="ssr:stedsnr" v="610180" />
	</node>
	<node lat="59.77285000345911" lon="9.132708332644615" id="-19712">
		<tag k="name" v="Hestebekk" />
		<tag k="ssr:stedsnr" v="610411" />
		<tag k="waterway" v="stream" />
	</node>
	<node lat="59.730102778965914" lon="9.221530557450059" id="-19714">
		<tag k="name" v="Esperåa" />
		<tag k="ssr:stedsnr" v="610477" />
		<tag k="waterway" v="stream" />
	</node>
	<node lat="59.79828055632645" lon="8.946141665185149" id="-19715">
		<tag k="alt_name" v="Olastjørn" />
		<tag k="name" v="Olastjønn" />
		<tag k="natural" v="water" />
		<tag k="ssr:stedsnr" v="610526" />
	</node>
	<node lat="59.809113885362585" lon="8.99335000515519" id="-19717">
		<tag k="name" v="Luåa" />
		<tag k="ssr:stedsnr" v="610536" />
		<tag k="waterway" v="stream" />
	</node>
	<node lat="59.68553333011201" lon="9.280858336629803" id="-19725">
		<tag k="name" v="Langetjønn" />
		<tag k="natural" v="water" />
		<tag k="ssr:stedsnr" v="648016" />
	</node>
	<node lat="59.768249999829685" lon="9.187299994204421" id="-19728">
		<tag k="name" v="Jåsåtjønn" />
		<tag k="natural" v="water" />
		<tag k="ssr:stedsnr" v="648197" />
	</node>
	<node lat="59.5141611135669" lon="9.453974998137685" id="-19732">
		<tag k="name" v="Tjønnåsbekken" />
		<tag k="ssr:stedsnr" v="649336" />
		<tag k="waterway" v="stream" />
	</node>
	<node lat="59.506738892740074" lon="9.421369445004782" id="-19733">
		<tag k="name" v="Søndre Løynfisktjønn" />
		<tag k="natural" v="water" />
		<tag k="ssr:stedsnr" v="649351" />
	</node>
	<node lat="59.549308337609666" lon="8.965294446237762" id="-19737">
		<tag k="name" v="Breistulåa" />
		<tag k="ssr:stedsnr" v="650109" />
		<tag k="waterway" v="stream" />
	</node>
	<node lat="59.5565277811888" lon="9.268558332049407" id="-19742">
		<tag k="name" v="Tinnesandbukta" />
		<tag k="natural" v="bay" />
		<tag k="ssr:stedsnr" v="650197" />
	</node>
	<node lat="59.532102781139656" lon="9.133883341868659" id="-19748">
		<tag k="name" v="Ormtjønn" />
		<tag k="natural" v="water" />
		<tag k="ssr:stedsnr" v="650711" />
	</node>
	<node lat="59.5028222255634" lon="9.203077785072928" id="-19751">
		<tag k="name" v="Bjortjønn" />
		<tag k="natural" v="water" />
		<tag k="ssr:stedsnr" v="650806" />
	</node>
	<node lat="59.60484444370104" lon="9.356005560306963" id="-19758">
		<tag k="name" v="Tovestultjønn" />
		<tag k="natural" v="water" />
		<tag k="ssr:stedsnr" v="651006" />
	</node>
	<node lat="59.520091665650924" lon="8.89287499849268" id="-19770">
		<tag k="name" v="Gograne" />
		<tag k="natural" v="water" />
		<tag k="ssr:stedsnr" v="651717" />
	</node>
	<node lat="59.711822223087495" lon="9.017355550000156" id="-19774">
		<tag k="name" v="Rohøl" />
		<tag k="place" v="locality" />
		<tag k="ssr:stedsnr" v="651905" />
	</node>
	<node lat="59.75177222475774" lon="8.914324991114562" id="-19787">
		<tag k="name" v="Rusulbekken" />
		<tag k="ssr:stedsnr" v="709051" />
		<tag k="waterway" v="stream" />
	</node>
	<node lat="59.84965277831956" lon="8.904127777295221" id="-19788">
		<tag k="name" v="Øyan" />
		<tag k="place" v="island" />
		<tag k="ssr:stedsnr" v="709082" />
	</node>
	<node lat="59.84866388785756" lon="8.945841667591935" id="-19789">
		<tag k="name" v="Sandstå" />
		<tag k="natural" v="bay" />
		<tag k="ssr:stedsnr" v="709091" />
	</node>
	<node lat="59.77769166258179" lon="9.20682222677376" id="-19790">
		<tag k="name" v="Vigilen" />
		<tag k="natural" v="strait" />
		<tag k="ssr:stedsnr" v="709178" />
	</node>
	<node lat="59.86901666505562" lon="8.929972230750852" id="-19799">
		<tag k="name" v="Smørvik" />
		<tag k="natural" v="bay" />
		<tag k="ssr:stedsnr" v="665204" />
	</node>
	<node lat="59.730197217991964" lon="9.250536116615013" id="-19801">
		<tag k="name" v="Juvåa" />
		<tag k="ssr:stedsnr" v="709925" />
		<tag k="waterway" v="stream" />
	</node>
	<node lat="59.516480554083365" lon="9.331958331036407" id="-19804">
		<tag k="name" v="Klypa" />
		<tag k="place" v="locality" />
		<tag k="ssr:stedsnr" v="710073" />
	</node>
	<node lat="59.74839721902798" lon="8.916513889742609" id="-19805">
		<tag k="alt_name" v="Tjørnebottjørna" />
		<tag k="name" v="Tjønnebottjønna" />
		<tag k="natural" v="water" />
		<tag k="ssr:stedsnr" v="670013" />
	</node>
	<node lat="59.71810555545142" lon="9.197127771320003" id="-19807">
		<tag k="name" v="Teksjå" />
		<tag k="natural" v="water" />
		<tag k="ssr:stedsnr" v="670089" />
		<tag k="water" v="lake" />
	</node>
	<node lat="59.53565555443866" lon="9.206450000544109" id="-19816">
		<tag k="alt_name" v="Trytetjørna" />
		<tag k="name" v="Tryttjønn" />
		<tag k="natural" v="water" />
		<tag k="ssr:stedsnr" v="670390" />
	</node>
	<node lat="59.557483336125316" lon="9.091325001781518" id="-19818">
		<tag k="alt_name" v="Rosstjørn" />
		<tag k="name" v="Rosttjønn" />
		<tag k="natural" v="water" />
		<tag k="ssr:stedsnr" v="670421" />
	</node>
	<node lat="59.57984999878265" lon="9.292322219917535" id="-19826">
		<tag k="name" v="Tinnemyr" />
		<tag k="natural" v="water" />
		<tag k="ssr:stedsnr" v="670773" />
		<tag k="water" v="lake" />
	</node>
	<node lat="59.70935278154271" lon="9.246827772262618" id="-19830">
		<tag k="name" v="Nauståa" />
		<tag k="ssr:stedsnr" v="670978" />
		<tag k="waterway" v="stream" />
	</node>
	<node lat="59.76281111092335" lon="9.164819446514988" id="-19835">
		<tag k="alt_name" v="Elgstjørn" />
		<tag k="name" v="Elgstjønn" />
		<tag k="natural" v="water" />
		<tag k="ssr:stedsnr" v="671408" />
	</node>
	<node lat="59.763438890369606" lon="9.041049993375921" id="-19836">
		<tag k="alt_name" v="Rauda" />
		<tag k="name" v="Raua" />
		<tag k="ssr:stedsnr" v="671416" />
		<tag k="waterway" v="river" />
	</node>
	<node lat="59.723088892288075" lon="9.292480559963717" id="-19839">
		<tag k="alt_name" v="Replitjørn" />
		<tag k="name" v="Replitjønn" />
		<tag k="natural" v="water" />
		<tag k="ssr:stedsnr" v="671446" />
	</node>
	<node lat="59.71642500114574" lon="9.336936104125197" id="-19840">
		<tag k="alt_name" v="Svartetjørn" />
		<tag k="name" v="Svartetjønn" />
		<tag k="natural" v="water" />
		<tag k="ssr:stedsnr" v="671466" />
	</node>
	<node lat="59.67520555849353" lon="9.312427785694107" id="-19845">
		<tag k="name" v="Nordstulbekken" />
		<tag k="ssr:stedsnr" v="890828" />
		<tag k="waterway" v="stream" />
	</node>
	<node lat="59.662488891442756" lon="9.381099997647057" id="-19848">
		<tag k="name" v="Ringrøystjønn" />
		<tag k="natural" v="water" />
		<tag k="ssr:stedsnr" v="890995" />
	</node>
	<node lat="59.7683277816566" lon="8.970702774769457" id="-19854">
		<tag k="name" v="Skinnarnattstjønn" />
		<tag k="natural" v="water" />
		<tag k="ssr:stedsnr" v="891616" />
	</node>
	<node lat="59.756058329168525" lon="9.2508027725015" id="-19857">
		<tag k="name" v="Snipetjønnbekken" />
		<tag k="ssr:stedsnr" v="891879" />
		<tag k="waterway" v="stream" />
	</node>
	<node lat="59.49754268329959" lon="9.44029144649863" id="-19860">
		<tag k="name" v="Nordre Damvatn" />
		<tag k="natural" v="water" />
		<tag k="ssr:stedsnr" v="892439" />
		<tag k="water" v="lake" />
	</node>
	<node lat="59.51572222322487" lon="9.411469445880257" id="-19862">
		<tag k="name" v="Ølbekk" />
		<tag k="ssr:stedsnr" v="893370" />
		<tag k="waterway" v="stream" />
	</node>
	<node lat="59.691352317555186" lon="9.081806096755043" id="-19866">
		<tag k="name" v="Asketjønn" />
		<tag k="natural" v="water" />
		<tag k="ssr:stedsnr" v="893446" />
	</node>
	<node lat="59.52452499755716" lon="9.269825003044895" id="-19868">
		<tag k="name" v="Strandståbekken" />
		<tag k="ssr:stedsnr" v="893490" />
		<tag k="waterway" v="stream" />
	</node>
	<node lat="59.570961113632634" lon="9.19943054741246" id="-19872">
		<tag k="name" v="Skeiderudtjønna" />
		<tag k="natural" v="water" />
		<tag k="ssr:stedsnr" v="894032" />
	</node>
	<node lat="59.58298055509359" lon="9.33229721778888" id="-19878">
		<tag k="name" v="Dipilen" />
		<tag k="natural" v="water" />
		<tag k="ssr:stedsnr" v="894113" />
		<tag k="water" v="pond" />
	</node>
	<node lat="59.67354166974124" lon="9.138122214363282" id="-19879">
		<tag k="name" v="Brandstjønn" />
		<tag k="natural" v="water" />
		<tag k="ssr:stedsnr" v="894199" />
	</node>
	<node lat="59.5630805538393" lon="9.160325006167879" id="-19880">
		<tag k="name" v="Kyllingbekk" />
		<tag k="ssr:stedsnr" v="894124" />
		<tag k="waterway" v="stream" />
	</node>
	<node lat="59.6527249980491" lon="9.1942027713014" id="-19898">
		<tag k="name" v="Damtjønnbekken" />
		<tag k="ssr:stedsnr" v="894785" />
		<tag k="waterway" v="stream" />
	</node>
	<node lat="59.52783055679398" lon="9.302302779057605" id="-19899">
		<tag k="name" v="Båtstå" />
		<tag k="natural" v="bay" />
		<tag k="ssr:stedsnr" v="894929" />
	</node>
	<node lat="59.56858333670485" lon="9.38051389630799" id="-19912">
		<tag k="name" v="Øysteinstulbekken" />
		<tag k="ssr:stedsnr" v="895097" />
		<tag k="waterway" v="stream" />
	</node>
	<node lat="59.684322219861805" lon="9.195761112143746" id="-19921">
		<tag k="name" v="Folseråsvika" />
		<tag k="natural" v="bay" />
		<tag k="ssr:stedsnr" v="707406" />
	</node>
	<node lat="59.72625555411292" lon="9.341141666245264" id="-19938">
		<tag k="name" v="Nordre Rudstjønna" />
		<tag k="natural" v="water" />
		<tag k="ssr:stedsnr" v="709928" />
	</node>
	<node lat="59.538830551144905" lon="9.419169443642133" id="-19940">
		<tag k="name" v="Astridåa" />
		<tag k="ssr:stedsnr" v="710678" />
		<tag k="waterway" v="river" />
	</node>
	<node lat="59.533644441184364" lon="9.455877774426975" id="-19941">
		<tag k="name" v="Holmen" />
		<tag k="place" v="islet" />
		<tag k="ssr:stedsnr" v="710684" />
	</node>
	<node lat="59.518497218331525" lon="8.998211118626195" id="-19944">
		<tag k="name" v="Aslakstulåa" />
		<tag k="ssr:stedsnr" v="711138" />
		<tag k="waterway" v="stream" />
	</node>
	<node lat="59.59002777636517" lon="9.050366660411585" id="-19946">
		<tag k="name" v="Deilbekk" />
		<tag k="ssr:stedsnr" v="711086" />
		<tag k="waterway" v="stream" />
	</node>
	<node lat="59.55146944312758" lon="9.364272217808724" id="-19975">
		<tag k="name" v="Svarttjønnbekken" />
		<tag k="ssr:stedsnr" v="713086" />
		<tag k="waterway" v="stream" />
	</node>
	<node lat="59.76465555301952" lon="9.347913880823869" id="-19982">
		<tag k="name" v="Brudalsbekken" />
		<tag k="ssr:stedsnr" v="724106" />
		<tag k="waterway" v="stream" />
	</node>
	<node lat="59.798830558014664" lon="8.996188892089348" id="-19987">
		<tag k="name" v="Skvenarbekk" />
		<tag k="ssr:stedsnr" v="725610" />
		<tag k="waterway" v="stream" />
	</node>
	<node lat="59.76409722217462" lon="9.190763897497206" id="-19990">
		<tag k="name" v="Harvedalsvatn" />
		<tag k="natural" v="water" />
		<tag k="ssr:stedsnr" v="726089" />
	</node>
	<node lat="59.7542861090623" lon="9.020180554310892" id="-19992">
		<tag k="name" v="Skomakerodden" />
		<tag k="natural" v="cape" />
		<tag k="ssr:stedsnr" v="726318" />
	</node>
	<node lat="59.7478000028332" lon="9.03599444981285" id="-19993">
		<tag k="name" v="Tinndølbukta" />
		<tag k="natural" v="bay" />
		<tag k="ssr:stedsnr" v="726324" />
	</node>
	<node lat="59.808963892009245" lon="8.8776277713473" id="-19995">
		<tag k="name" v="Boslibekken" />
		<tag k="ssr:stedsnr" v="726893" />
		<tag k="waterway" v="stream" />
	</node>
	<node lat="59.609166665818634" lon="9.190325002008434" id="-20002">
		<tag k="alt_name" v="Steintjørn" />
		<tag k="name" v="Steintjønn" />
		<tag k="natural" v="water" />
		<tag k="ssr:stedsnr" v="731207" />
	</node>
	<node lat="59.589755557827836" lon="9.211408333894692" id="-20003">
		<tag k="alt_name" v="Åstjørn" />
		<tag k="name" v="Åstjønn" />
		<tag k="natural" v="water" />
		<tag k="ssr:stedsnr" v="731220" />
	</node>
	<node lat="59.66504722583032" lon="9.138799999298906" id="-20009">
		<tag k="alt_name" v="Metjørn" />
		<tag k="name" v="Metjønn" />
		<tag k="natural" v="water" />
		<tag k="ssr:stedsnr" v="731173" />
	</node>
	<node lat="59.575624997199064" lon="9.096313888830972" id="-20010">
		<tag k="alt_name" v="Homsåa" />
		<tag k="name" v="Homså" />
		<tag k="ssr:stedsnr" v="731387" />
		<tag k="waterway" v="stream" />
	</node>
	<node lat="59.55467222272284" lon="8.982275003491683" id="-20011">
		<tag k="alt_name" v="Breistulåa" />
		<tag k="name" v="Breidstulåa" />
		<tag k="ssr:stedsnr" v="731401" />
		<tag k="waterway" v="stream" />
	</node>
	<node lat="59.647016663953245" lon="9.301680559090538" id="-20016">
		<tag k="alt_name" v="Ramsåstjørnene" />
		<tag k="name" v="Ramsåstjønn" />
		<tag k="natural" v="water" />
		<tag k="ssr:stedsnr" v="731870" />
	</node>
	<node lat="59.683650004391275" lon="9.356822224299183" id="-20020">
		<tag k="name" v="Storevatnet" />
		<tag k="natural" v="water" />
		<tag k="ssr:stedsnr" v="731955" />
	</node>
	<node lat="59.6818305564271" lon="9.313947226114696" id="-20021">
		<tag k="alt_name" v="Håtjørn" />
		<tag k="name" v="Håtjønn" />
		<tag k="natural" v="water" />
		<tag k="ssr:stedsnr" v="731966" />
	</node>
	<node lat="59.77596944451441" lon="8.898577776664808" id="-20023">
		<tag k="alt_name" v="Viertjørn" />
		<tag k="name" v="Viertjønn" />
		<tag k="natural" v="water" />
		<tag k="ssr:stedsnr" v="732503" />
	</node>
	<node lat="59.77489999863012" lon="8.98966667238509" id="-20024">
		<tag k="name" v="Bergåa" />
		<tag k="ssr:stedsnr" v="732497" />
		<tag k="waterway" v="stream" />
	</node>
	<node lat="59.668636109321454" lon="9.270827786257067" id="-20030">
		<tag k="name" v="Vassbotntjønn" />
		<tag k="natural" v="water" />
		<tag k="ssr:stedsnr" v="768092" />
	</node>
	<node lat="59.76810278177328" lon="9.303766670860083" id="-20031">
		<tag k="name" v="Bikkjetjønn" />
		<tag k="natural" v="water" />
		<tag k="ssr:stedsnr" v="907184" />
	</node>
	<node lat="59.73125277482088" lon="9.242541673462984" id="-20032">
		<tag k="name" v="Klopptjønn" />
		<tag k="natural" v="water" />
		<tag k="ssr:stedsnr" v="768944" />
	</node>
	<node lat="59.78068888754823" lon="8.966233333323917" id="-20036">
		<tag k="name" v="Olavstjønn" />
		<tag k="natural" v="water" />
		<tag k="ssr:stedsnr" v="770562" />
	</node>
	<node lat="59.74411944173996" lon="9.17285000135736" id="-20042">
		<tag k="name" v="Gvammetjønn" />
		<tag k="natural" v="water" />
		<tag k="ssr:stedsnr" v="907696" />
	</node>
	<node lat="59.50079444551548" lon="9.194216660568888" id="-20046">
		<tag k="name" v="Murtebutjønn" />
		<tag k="natural" v="water" />
		<tag k="ssr:stedsnr" v="771807" />
	</node>
	<node lat="59.77322499831873" lon="8.92100000350811" id="-20050">
		<tag k="name" v="Deilbekk" />
		<tag k="ssr:stedsnr" v="907895" />
		<tag k="waterway" v="stream" />
	</node>
	<node lat="59.55001388736894" lon="9.029900005489251" id="-20055">
		<tag k="name" v="Listulløken" />
		<tag k="natural" v="water" />
		<tag k="ssr:stedsnr" v="772006" />
		<tag k="water" v="lake" />
	</node>
	<node lat="59.511802777237655" lon="8.855730558342078" id="-20056">
		<tag k="name" v="Sunnstulfossen" />
		<tag k="natural" v="waterfall" />
		<tag k="ssr:stedsnr" v="772011" />
	</node>
	<node lat="59.729422221496876" lon="9.145236109094567" id="-20064">
		<tag k="name" v="Tolløya" />
		<tag k="place" v="island" />
		<tag k="ssr:stedsnr" v="907993" />
	</node>
	<node lat="59.53043610820488" lon="9.365344450729816" id="-20076">
		<tag k="name" v="Lauvås-åmotet" />
		<tag k="place" v="locality" />
		<tag k="ssr:stedsnr" v="773086" />
	</node>
	<node lat="59.7207138864464" lon="9.197094436686946" id="-20090">
		<tag k="name" v="Kleivbekkodden" />
		<tag k="natural" v="cape" />
		<tag k="ssr:stedsnr" v="908837" />
	</node>
	<node lat="59.70998055980398" lon="9.232525004468934" id="-20095">
		<tag k="name" v="Sandviksøya" />
		<tag k="place" v="island" />
		<tag k="ssr:stedsnr" v="785258" />
	</node>
	<node lat="59.65528889098092" lon="9.392836102369781" id="-20097">
		<tag k="name" v="Mjågesund" />
		<tag k="natural" v="strait" />
		<tag k="ssr:stedsnr" v="785354" />
	</node>
	<node lat="59.70854999986827" lon="9.238822225246647" id="-20099">
		<tag k="name" v="Pråmhusodden" />
		<tag k="natural" v="cape" />
		<tag k="ssr:stedsnr" v="787553" />
	</node>
	<node lat="59.5302138847058" lon="8.859330549945478" id="-20103">
		<tag k="alt_name" v="Store Måvatn" />
		<tag k="name" v="Måvatnet" />
		<tag k="natural" v="water" />
		<tag k="ssr:stedsnr" v="791355" />
	</node>
	<node lat="59.50062500415771" lon="8.835694444992807" id="-20105">
		<tag k="alt_name" v="Goddalstjørna" />
		<tag k="name" v="Godalstjønn" />
		<tag k="natural" v="water" />
		<tag k="ssr:stedsnr" v="791042" />
	</node>
	<node lat="59.618336108608595" lon="9.017063896028196" id="-20107">
		<tag k="name" v="Libekk" />
		<tag k="ssr:stedsnr" v="791295" />
		<tag k="waterway" v="stream" />
	</node>
	<node lat="59.6417055543708" lon="9.32287221969626" id="-20108">
		<tag k="alt_name" v="Dårstulvatn" />
		<tag k="name" v="Dårstulvatnet" />
		<tag k="natural" v="water" />
		<tag k="ssr:stedsnr" v="791889" />
		<tag k="water" v="lake" />
	</node>
	<node lat="59.50635833709376" lon="8.789166660742788" id="-20111">
		<tag k="alt_name" v="Mørketjørn" />
		<tag k="name" v="Mørketjønn" />
		<tag k="natural" v="water" />
		<tag k="ssr:stedsnr" v="792035" />
	</node>
	<node lat="59.67381944073029" lon="9.3559666722849" id="-20112">
		<tag k="alt_name" v="Replitjørn" />
		<tag k="name" v="Ræplitjønn" />
		<tag k="natural" v="water" />
		<tag k="ssr:stedsnr" v="791903" />
	</node>
	<node lat="59.62155555702003" lon="9.179988891317796" id="-20117">
		<tag k="alt_name" v="Skåltjørn" />
		<tag k="name" v="Skåltjønn" />
		<tag k="natural" v="water" />
		<tag k="ssr:stedsnr" v="792284" />
	</node>
	<node lat="59.72514999856952" lon="9.2549805501211" id="-20119">
		<tag k="alt_name" v="Aurstjørna" />
		<tag k="name" v="Aurstjønn" />
		<tag k="natural" v="water" />
		<tag k="ssr:stedsnr" v="792436" />
	</node>
	<node lat="59.56704444604688" lon="9.126625006188" id="-20122">
		<tag k="alt_name" v="Trytetjørn" />
		<tag k="name" v="Trytetjønn" />
		<tag k="natural" v="water" />
		<tag k="ssr:stedsnr" v="792398" />
	</node>
	<node lat="59.80658610972846" lon="9.00158333957198" id="-20123">
		<tag k="name" v="Vesleøy" />
		<tag k="place" v="island" />
		<tag k="ssr:stedsnr" v="792481" />
	</node>
	<node lat="59.73819721969546" lon="9.297627769675548" id="-20124">
		<tag k="name" v="Gjuvbekk" />
		<tag k="ssr:stedsnr" v="792486" />
		<tag k="waterway" v="stream" />
	</node>
	<node lat="59.50740277998149" lon="9.247569438000824" id="-20127">
		<tag k="alt_name" v="Vihustjørnene" />
		<tag k="name" v="Vihustjønn" />
		<tag k="natural" v="water" />
		<tag k="ssr:stedsnr" v="792690" />
	</node>
	<node lat="59.603274998514365" lon="9.311227772286752" id="-20129">
		<tag k="name" v="Dipilen" />
		<tag k="place" v="locality" />
		<tag k="ssr:stedsnr" v="792803" />
	</node>
	<node lat="59.50728332909991" lon="8.816886109178025" id="-20137">
		<tag k="alt_name" v="Leirtjørn" />
		<tag k="name" v="Liertjønn" />
		<tag k="natural" v="water" />
		<tag k="ssr:stedsnr" v="913037" />
	</node>
	<node lat="59.63863055921986" lon="9.052974991792153" id="-20145">
		<tag k="name" v="Dipilen" />
		<tag k="natural" v="water" />
		<tag k="ssr:stedsnr" v="913182" />
	</node>
	<node lat="59.73572221920339" lon="9.249919445066451" id="-20154">
		<tag k="name" v="Gjuvåa" />
		<tag k="ssr:stedsnr" v="913468" />
		<tag k="waterway" v="stream" />
	</node>
	<node lat="59.76153611033341" lon="9.209047222812124" id="-20155">
		<tag k="alt_name" v="Stutetjørn" />
		<tag k="name" v="Stutetjønn" />
		<tag k="natural" v="water" />
		<tag k="ssr:stedsnr" v="914423" />
	</node>
	<node lat="59.50200277563364" lon="9.235972222397818" id="-20157">
		<tag k="alt_name" v="Persdalstjørnene" />
		<tag k="name" v="Perstjønn" />
		<tag k="natural" v="water" />
		<tag k="ssr:stedsnr" v="913675" />
	</node>
	<node lat="59.54297499932732" lon="9.35794722650987" id="-20158">
		<tag k="name" v="Einhøl" />
		<tag k="place" v="locality" />
		<tag k="ssr:stedsnr" v="913745" />
	</node>
	<node lat="59.53263333156914" lon="9.434213886226857" id="-20163">
		<tag k="alt_name" v="Morttjørn" />
		<tag k="name" v="Murtetjønn" />
		<tag k="natural" v="water" />
		<tag k="ssr:stedsnr" v="913725" />
	</node>
	<node lat="59.655583335745845" lon="9.264461113492848" id="-20165">
		<tag k="alt_name" v="Breidkvamtjørn" />
		<tag k="name" v="Breigvamtjønn" />
		<tag k="natural" v="water" />
		<tag k="ssr:stedsnr" v="913923" />
	</node>
	<node lat="59.77428610847652" lon="9.318958341548553" id="-20177">
		<tag k="alt_name" v="Sandvatn" />
		<tag k="name" v="Sandvatnet" />
		<tag k="natural" v="water" />
		<tag k="ssr:stedsnr" v="914883" />
	</node>
	<node lat="59.78515000211625" lon="9.240624998265433" id="-20178">
		<tag k="alt_name" v="Treskrepptjørna" />
		<tag k="name" v="Treskrepptjønn" />
		<tag k="natural" v="water" />
		<tag k="ssr:stedsnr" v="914899" />
	</node>
	<node lat="59.76560833730483" lon="9.290563892270681" id="-20188">
		<tag k="name" v="Bronstjønn" />
		<tag k="natural" v="water" />
		<tag k="ssr:stedsnr" v="830164" />
	</node>
	<node lat="59.68053055832092" lon="9.2684916719298" id="-20193">
		<tag k="name" v="Skåråbekk" />
		<tag k="ssr:stedsnr" v="831012" />
		<tag k="waterway" v="stream" />
	</node>
	<node lat="59.5810055599145" lon="9.153108329651817" id="-20211">
		<tag k="name" v="Roetjønna" />
		<tag k="natural" v="water" />
		<tag k="ssr:stedsnr" v="833196" />
	</node>
	<node lat="59.541063887432465" lon="9.284136115288195" id="-20215">
		<tag k="name" v="Nåråvika" />
		<tag k="natural" v="bay" />
		<tag k="ssr:stedsnr" v="833585" />
	</node>
	<node lat="59.49646388659907" lon="9.194591659214087" id="-20217">
		<tag k="name" v="Murtebubekken" />
		<tag k="ssr:stedsnr" v="833833" />
		<tag k="waterway" v="stream" />
	</node>
	<node lat="59.76240278170617" lon="8.970741660647668" id="-20222">
		<tag k="name" v="Langetjønn" />
		<tag k="natural" v="water" />
		<tag k="ssr:stedsnr" v="844076" />
		<tag k="water" v="lake" />
	</node>
	<node lat="59.765916667142925" lon="8.965872217969567" id="-20223">
		<tag k="name" v="Nårstjønn" />
		<tag k="natural" v="water" />
		<tag k="ssr:stedsnr" v="844078" />
	</node>
	<node lat="59.724897223716205" lon="9.150977782311868" id="-20229">
		<tag k="name" v="Kippetjønnbekken" />
		<tag k="ssr:stedsnr" v="847993" />
		<tag k="waterway" v="stream" />
	</node>
	<node lat="59.74722777919314" lon="9.0864277728955" id="-20232">
		<tag k="name" v="Erikstjønn" />
		<tag k="natural" v="water" />
		<tag k="ssr:stedsnr" v="848526" />
	</node>
	<node lat="59.74647221878791" lon="9.084686119761313" id="-20233">
		<tag k="name" v="Osmyrodden" />
		<tag k="natural" v="cape" />
		<tag k="ssr:stedsnr" v="848426" />
	</node>
	<node lat="59.67047500345992" lon="9.284352770888434" id="-20237">
		<tag k="alt_name" v="Åstjørn, nedre" />
		<tag k="name" v="Nedre Åstjørn" />
		<tag k="natural" v="water" />
		<tag k="ssr:stedsnr" v="852909" />
	</node>
	<node lat="59.65487500316399" lon="9.387950003542226" id="-20239">
		<tag k="alt_name" v="Tyssjøen" />
		<tag k="name" v="Tysjøvatn" />
		<tag k="natural" v="water" />
		<tag k="ssr:stedsnr" v="852922" />
	</node>
	<node lat="59.67143055714703" lon="9.224749998833737" id="-20240">
		<tag k="alt_name" v="Igletjørn" />
		<tag k="name" v="Igletjønn" />
		<tag k="natural" v="water" />
		<tag k="ssr:stedsnr" v="852960" />
	</node>
	<node lat="59.64981666747983" lon="9.278802775050575" id="-20241">
		<tag k="alt_name" v="Stavtjørn" />
		<tag k="name" v="Ståvåtjønn" />
		<tag k="natural" v="water" />
		<tag k="ssr:stedsnr" v="852865" />
	</node>
	<node lat="59.65140277874187" lon="9.318630559183235" id="-20242">
		<tag k="name" v="Fiskeløys" />
		<tag k="natural" v="water" />
		<tag k="ssr:stedsnr" v="852868" />
	</node>
	<node lat="59.647825000512455" lon="9.17471944879895" id="-20246">
		<tag k="alt_name" v="Damtjørn" />
		<tag k="name" v="Damtjønn" />
		<tag k="natural" v="water" />
		<tag k="ssr:stedsnr" v="853164" />
	</node>
	<node lat="59.63276666238951" lon="9.005066665110045" id="-20247">
		<tag k="name" v="Store Krok" />
		<tag k="place" v="locality" />
		<tag k="ssr:stedsnr" v="853174" />
	</node>
	<node lat="59.63567222084784" lon="9.14564444307803" id="-20253">
		<tag k="alt_name" v="Koppesettjørn" />
		<tag k="name" v="Koppesettjønn" />
		<tag k="natural" v="water" />
		<tag k="ssr:stedsnr" v="853280" />
	</node>
	<node lat="59.508227773382835" lon="9.403472216205085" id="-20256">
		<tag k="name" v="Tryttjørnene" />
		<tag k="natural" v="water" />
		<tag k="ssr:stedsnr" v="853705" />
	</node>
	<node lat="59.55152777578454" lon="9.466719436881709" id="-20262">
		<tag k="alt_name" v="Springkåttjørn" />
		<tag k="name" v="Springkåttjønna" />
		<tag k="natural" v="water" />
		<tag k="ssr:stedsnr" v="853755" />
	</node>
	<node lat="59.80971666256897" lon="8.840597220819522" id="-20263">
		<tag k="alt_name" v="Sjåvatnet" />
		<tag k="name" v="Sjåvatn" />
		<tag k="natural" v="water" />
		<tag k="ssr:stedsnr" v="853800" />
		<tag k="water" v="lake" />
	</node>
	<node lat="59.78350000440669" lon="9.311202781957581" id="-20264">
		<tag k="alt_name" v="Flistjørna" />
		<tag k="name" v="Flisetjønn" />
		<tag k="natural" v="water" />
		<tag k="ssr:stedsnr" v="853907" />
	</node>
	<node lat="59.6810000006348" lon="9.284299996422785" id="-20266">
		<tag k="alt_name" v="Deiltjørn" />
		<tag k="name" v="Deiltjønn" />
		<tag k="natural" v="water" />
		<tag k="ssr:stedsnr" v="853960" />
	</node>
	<node lat="59.69393055728702" lon="9.206991661099973" id="-20278">
		<tag k="name" v="Ørnehuset" />
		<tag k="place" v="island" />
		<tag k="ssr:stedsnr" v="891771" />
	</node>
	<node lat="59.69499721807636" lon="9.19717499236984" id="-20279">
		<tag k="name" v="Fantøya" />
		<tag k="place" v="island" />
		<tag k="ssr:stedsnr" v="891774" />
	</node>
	<node lat="59.68871389264457" lon="9.315288884064467" id="-20280">
		<tag k="name" v="Hafsteinbubekken" />
		<tag k="ssr:stedsnr" v="891807" />
		<tag k="waterway" v="stream" />
	</node>
	<node lat="59.49963055375811" lon="9.413152786109752" id="-20281">
		<tag k="name" v="Budalsbekken" />
		<tag k="ssr:stedsnr" v="892409" />
		<tag k="waterway" v="stream" />
	</node>
	<node lat="59.69390833425753" lon="9.136852780021956" id="-20286">
		<tag k="name" v="Dalsbekken" />
		<tag k="ssr:stedsnr" v="893032" />
		<tag k="waterway" v="stream" />
	</node>
	<node lat="59.517697225935464" lon="9.455216664752852" id="-20288">
		<tag k="name" v="Godliputten" />
		<tag k="natural" v="water" />
		<tag k="ssr:stedsnr" v="893322" />
		<tag k="water" v="pond" />
	</node>
	<node lat="59.49958888554105" lon="9.401041658741827" id="-20290">
		<tag k="name" v="Budalstjønn" />
		<tag k="natural" v="water" />
		<tag k="ssr:stedsnr" v="893575" />
	</node>
	<node lat="59.60217777521922" lon="9.322827773581746" id="-20296">
		<tag k="name" v="Lislestultjønn" />
		<tag k="natural" v="water" />
		<tag k="ssr:stedsnr" v="894062" />
	</node>
	<node lat="59.51508888917694" lon="8.864819449497125" id="-20301">
		<tag k="name" v="Hovetjønna" />
		<tag k="natural" v="water" />
		<tag k="ssr:stedsnr" v="894418" />
	</node>
	<node lat="59.54604166608037" lon="9.135730556460624" id="-20305">
		<tag k="name" v="Teinåa" />
		<tag k="ssr:stedsnr" v="894732" />
		<tag k="waterway" v="stream" />
	</node>
	<node lat="59.56546110695838" lon="9.294850001513845" id="-20313">
		<tag k="name" v="Surtetjønn" />
		<tag k="natural" v="water" />
		<tag k="ssr:stedsnr" v="895125" />
	</node>
	<node lat="59.54448055579691" lon="9.358819441516449" id="-20316">
		<tag k="name" v="Elgsmofossen" />
		<tag k="natural" v="waterfall" />
		<tag k="ssr:stedsnr" v="895060" />
	</node>
	<node lat="59.62530833492548" lon="9.403930562887231" id="-20318">
		<tag k="name" v="Båntjønn" />
		<tag k="natural" v="water" />
		<tag k="ssr:stedsnr" v="895470" />
	</node>
	<node lat="59.50934444537959" lon="8.918763897069292" id="-20319">
		<tag k="name" v="Mjeltebekken" />
		<tag k="ssr:stedsnr" v="895620" />
		<tag k="waterway" v="stream" />
	</node>
	<node lat="59.788202775657226" lon="9.190730547291139" id="-20329">
		<tag k="name" v="Nordstulåa" />
		<tag k="ssr:stedsnr" v="907021" />
		<tag k="waterway" v="stream" />
	</node>
	<node lat="59.78200555444585" lon="9.195747224994692" id="-20331">
		<tag k="name" v="Nordstulåa" />
		<tag k="ssr:stedsnr" v="907171" />
		<tag k="waterway" v="stream" />
	</node>
	<node lat="59.78520555187072" lon="9.191800002339134" id="-20332">
		<tag k="name" v="Krømla" />
		<tag k="natural" v="waterfall" />
		<tag k="ssr:stedsnr" v="907175" />
	</node>
	<node lat="59.76214167013975" lon="9.01949167089428" id="-20337">
		<tag k="name" v="Søya" />
		<tag k="natural" v="bay" />
		<tag k="ssr:stedsnr" v="908314" />
	</node>
	<node lat="59.74529999715311" lon="9.102750000123782" id="-20338">
		<tag k="name" v="Glosimot" />
		<tag k="natural" v="cape" />
		<tag k="ssr:stedsnr" v="908552" />
	</node>
	<node lat="59.6646111101394" lon="9.144397226405344" id="-20342">
		<tag k="alt_name" v="Vasstjørn" />
		<tag k="name" v="Vasstjønn" />
		<tag k="natural" v="water" />
		<tag k="ssr:stedsnr" v="913203" />
	</node>
	<node lat="59.61867499642205" lon="9.197627777674912" id="-20346">
		<tag k="alt_name" v="Løyningen, store" />
		<tag k="name" v="Store Løyningen" />
		<tag k="natural" v="water" />
		<tag k="ssr:stedsnr" v="913247" />
	</node>
	<node lat="59.61766389181353" lon="9.13482221978366" id="-20347">
		<tag k="alt_name" v="Igletjørn" />
		<tag k="name" v="Igletjønn" />
		<tag k="natural" v="water" />
		<tag k="ssr:stedsnr" v="913284" />
	</node>
	<node lat="59.52992777602728" lon="9.216719440709198" id="-20348">
		<tag k="alt_name" v="Stamtjørn;Stamstjørna" />
		<tag k="name" v="Stamstjønn" />
		<tag k="natural" v="water" />
		<tag k="ssr:stedsnr" v="913390" />
	</node>
	<node lat="59.607174996650045" lon="9.434808341982928" id="-20359">
		<tag k="alt_name" v="Jerpetjern, nedre" />
		<tag k="name" v="Nedre Jerpetjønn" />
		<tag k="natural" v="water" />
		<tag k="ssr:stedsnr" v="913809" />
	</node>
	<node lat="59.70613055415003" lon="9.255902785341643" id="-20363">
		<tag k="alt_name" v="Tjørnemyrstjørn" />
		<tag k="name" v="Tjønnemyrtjønna" />
		<tag k="natural" v="water" />
		<tag k="ssr:stedsnr" v="913990" />
	</node>
	<node lat="59.690041663477075" lon="8.936300003642682" id="-20365">
		<tag k="alt_name" v="Damtjørn" />
		<tag k="name" v="Damtjønn" />
		<tag k="natural" v="water" />
		<tag k="ssr:stedsnr" v="914126" />
	</node>
	<node lat="59.85763055664816" lon="8.861602772026682" id="-20372">
		<tag k="alt_name" v="Tverråi" />
		<tag k="name" v="Tverråa" />
		<tag k="ssr:stedsnr" v="914485" />
		<tag k="waterway" v="stream" />
	</node>
	<node lat="59.69881944513522" lon="9.287205547017463" id="-20387">
		<tag k="name" v="Fisketjønnbekken" />
		<tag k="ssr:stedsnr" v="952003" />
		<tag k="waterway" v="stream" />
	</node>
	<node lat="59.761619442071286" lon="9.234163884787812" id="-20389">
		<tag k="name" v="Dusanbekken" />
		<tag k="ssr:stedsnr" v="952090" />
		<tag k="waterway" v="stream" />
	</node>
	<node lat="59.670530552945706" lon="9.28400000779223" id="-20391">
		<tag k="name" v="Åstjønn" />
		<tag k="natural" v="water" />
		<tag k="ssr:stedsnr" v="952239" />
	</node>
	<node lat="59.52006110866767" lon="9.421191672522493" id="-20395">
		<tag k="name" v="Kjølbubekken" />
		<tag k="ssr:stedsnr" v="953407" />
		<tag k="waterway" v="stream" />
	</node>
	<node lat="59.55234444311984" lon="8.94612500793558" id="-20402">
		<tag k="name" v="Himingtjønn" />
		<tag k="natural" v="water" />
		<tag k="ssr:stedsnr" v="954389" />
	</node>
	<node lat="59.49278889212637" lon="9.195386118035643" id="-20406">
		<tag k="name" v="Myrenåi" />
		<tag k="ssr:stedsnr" v="954816" />
		<tag k="waterway" v="stream" />
	</node>
	<node lat="59.50012777482479" lon="8.828024993191605" id="-20424">
		<tag k="name" v="Godalsbekken" />
		<tag k="ssr:stedsnr" v="955450" />
		<tag k="waterway" v="stream" />
	</node>
	<node lat="59.78728333778921" lon="9.256491669751185" id="-20430">
		<tag k="name" v="Juvåa" />
		<tag k="ssr:stedsnr" v="967017" />
		<tag k="waterway" v="stream" />
	</node>
	<node lat="59.76859444834792" lon="9.329372222854248" id="-20431">
		<tag k="name" v="Nåtterbekken" />
		<tag k="ssr:stedsnr" v="967136" />
		<tag k="waterway" v="stream" />
	</node>
	<node lat="59.74068332981107" lon="9.072847219702613" id="-20432">
		<tag k="name" v="Skitnebubekken" />
		<tag k="ssr:stedsnr" v="967684" />
		<tag k="waterway" v="stream" />
	</node>
	<node lat="59.73045833379671" lon="9.140491664818947" id="-20433">
		<tag k="name" v="Midttangan" />
		<tag k="natural" v="cape" />
		<tag k="ssr:stedsnr" v="967995" />
	</node>
	<node lat="59.75460555603381" lon="9.184302786667788" id="-20436">
		<tag k="name" v="Tjønnrusttjønn" />
		<tag k="natural" v="water" />
		<tag k="ssr:stedsnr" v="969099" />
	</node>
	<node lat="59.72412221827164" lon="9.212547218019207" id="-20440">
		<tag k="name" v="Vestre Vettjønn" />
		<tag k="natural" v="water" />
		<tag k="ssr:stedsnr" v="969447" />
	</node>
	<node lat="59.73288888709423" lon="9.199619436930751" id="-20441">
		<tag k="name" v="Vesle Follsjå" />
		<tag k="natural" v="water" />
		<tag k="ssr:stedsnr" v="969500" />
	</node>
	<node lat="59.75536666401533" lon="8.939663891369005" id="-20442">
		<tag k="name" v="Rånåbubekken" />
		<tag k="ssr:stedsnr" v="969746" />
		<tag k="waterway" v="stream" />
	</node>
	<node lat="59.63846666932872" lon="9.148013893397616" id="-20456">
		<tag k="name" v="Svensken" />
		<tag k="natural" v="water" />
		<tag k="ssr:stedsnr" v="3270" />
	</node>
	<node lat="59.62210277698106" lon="9.152783341141715" id="-20458">
		<tag k="alt_name" v="Nufstjørn" />
		<tag k="name" v="Nufstjønn" />
		<tag k="natural" v="water" />
		<tag k="ssr:stedsnr" v="3281" />
	</node>
	<node lat="59.49509166791524" lon="8.81226666233192" id="-20459">
		<tag k="alt_name" v="Tritjørnan" />
		<tag k="name" v="Tritjønnan" />
		<tag k="natural" v="water" />
		<tag k="ssr:stedsnr" v="2048" />
	</node>
	<node lat="59.49431111125318" lon="9.306233331900662" id="-20460">
		<tag k="name" v="Heddalsvatnet" />
		<tag k="natural" v="water" />
		<tag k="ssr:stedsnr" v="2063" />
		<tag k="water" v="lake" />
	</node>
	<node lat="59.69979167033268" lon="8.952058328918032" id="-20462">
		<tag k="name" v="Damtjørn" />
		<tag k="natural" v="water" />
		<tag k="ssr:stedsnr" v="3060" />
	</node>
	<node lat="59.73110852425528" lon="9.205244959322663" id="-20463">
		<tag k="alt_name" v="Midttjørn" />
		<tag k="name" v="Midttjønn" />
		<tag k="natural" v="water" />
		<tag k="ssr:stedsnr" v="3065" />
	</node>
	<node lat="59.69221944802348" lon="8.974141662235551" id="-20464">
		<tag k="alt_name" v="Surtetjørn" />
		<tag k="name" v="Surtetjønn" />
		<tag k="natural" v="water" />
		<tag k="ssr:stedsnr" v="3130" />
	</node>
	<node lat="59.70569722456792" lon="9.152047220699044" id="-20468">
		<tag k="name" v="Tjåga" />
		<tag k="ssr:stedsnr" v="3145" />
		<tag k="waterway" v="stream" />
	</node>
	<node lat="59.726050555092165" lon="9.031995773675202" id="-20469">
		<tag k="name" v="Vigilen" />
		<tag k="natural" v="water" />
		<tag k="ssr:stedsnr" v="3081" />
	</node>
	<node lat="59.741327781312854" lon="9.127391660634695" id="-20471">
		<tag k="alt_name" v="Erstjørn" />
		<tag k="name" v="Ertstjønn" />
		<tag k="natural" v="water" />
		<tag k="ssr:stedsnr" v="3098" />
	</node>
	<node lat="59.700633330803754" lon="9.201877776933898" id="-20473">
		<tag k="name" v="Småøyan" />
		<tag k="place" v="islet" />
		<tag k="ssr:stedsnr" v="3149" />
	</node>
	<node lat="59.75347177565115" lon="8.968716960561183" id="-20482">
		<tag k="name" v="Klovartjørnan" />
		<tag k="natural" v="water" />
		<tag k="ssr:stedsnr" v="3241" />
	</node>
	<node lat="59.81575277492661" lon="8.974463880596184" id="-20488">
		<tag k="name" v="Lislandåa" />
		<tag k="ssr:stedsnr" v="3445" />
		<tag k="waterway" v="stream" />
	</node>
	<node lat="59.59538055197373" lon="9.439183328742187" id="-20490">
		<tag k="alt_name" v="Primtjørn" />
		<tag k="name" v="Primtjønn" />
		<tag k="natural" v="water" />
		<tag k="ssr:stedsnr" v="3832" />
	</node>
	<node lat="59.597794445151436" lon="9.335633336627087" id="-20491">
		<tag k="alt_name" v="Litjørn" />
		<tag k="name" v="Litjønn" />
		<tag k="natural" v="water" />
		<tag k="ssr:stedsnr" v="3835" />
	</node>
	<node lat="59.515177781907134" lon="9.19256944624571" id="-20495">
		<tag k="name" v="Vassbua" />
		<tag k="natural" v="water" />
		<tag k="ssr:stedsnr" v="3349" />
	</node>
	<node lat="59.64352500313661" lon="9.404750004773227" id="-20497">
		<tag k="alt_name" v="Kroktjørn" />
		<tag k="name" v="Kroktjønn" />
		<tag k="natural" v="water" />
		<tag k="ssr:stedsnr" v="3891" />
	</node>
	<node lat="59.782344441831945" lon="9.361272229525424" id="-20498">
		<tag k="name" v="Rundevatnet" />
		<tag k="natural" v="water" />
		<tag k="ssr:stedsnr" v="3892" />
	</node>
	<node lat="59.63086944048967" lon="9.28896943721257" id="-20500">
		<tag k="alt_name" v="Skitjørnene" />
		<tag k="name" v="Skitjønnan" />
		<tag k="natural" v="water" />
		<tag k="ssr:stedsnr" v="3902" />
		<tag k="water" v="lake" />
	</node>
	<node lat="59.63228055154964" lon="9.389144453099897" id="-20501">
		<tag k="alt_name" v="Holmetjørn" />
		<tag k="name" v="Holmetjønn" />
		<tag k="natural" v="water" />
		<tag k="ssr:stedsnr" v="3906" />
	</node>
	<node lat="59.69698055514482" lon="9.331055561630949" id="-20505">
		<tag k="name" v="Havsteinbutjørnene" />
		<tag k="natural" v="water" />
		<tag k="ssr:stedsnr" v="3944" />
	</node>
	<node lat="59.68397221954859" lon="9.38175277350544" id="-20506">
		<tag k="alt_name" v="Terjebuvatn" />
		<tag k="name" v="Torgeirbuvatnet" />
		<tag k="natural" v="water" />
		<tag k="ssr:stedsnr" v="3957" />
	</node>
	<node lat="59.6122499992221" lon="9.27618888258442" id="-20507">
		<tag k="name" v="Kloumannsjøen" />
		<tag k="natural" v="water" />
		<tag k="ssr:stedsnr" v="3850" />
		<tag k="water" v="lake" />
	</node>
	<node lat="59.77611111285366" lon="9.187391665501941" id="-20509">
		<tag k="name" v="Nørdstevatn" />
		<tag k="natural" v="water" />
		<tag k="ssr:stedsnr" v="4364" />
	</node>
	<node lat="59.79542777426879" lon="9.198155554612878" id="-20510">
		<tag k="alt_name" v="Kjøvetjørn" />
		<tag k="name" v="Kjøvetjønn" />
		<tag k="natural" v="water" />
		<tag k="ssr:stedsnr" v="4386" />
	</node>
	<node lat="59.83522499889649" lon="8.855675003903935" id="-20512">
		<tag k="alt_name" v="Aslaugbutjørni" />
		<tag k="name" v="Aslaugbutjønn" />
		<tag k="natural" v="water" />
		<tag k="ssr:stedsnr" v="4446" />
	</node>
	<node lat="59.84615555200111" lon="8.925350003684397" id="-20513">
		<tag k="alt_name" v="Rusåa" />
		<tag k="name" v="Rudsåi" />
		<tag k="ssr:stedsnr" v="4448" />
		<tag k="waterway" v="stream" />
	</node>
	<node lat="59.849305553290414" lon="8.839630557173212" id="-20514">
		<tag k="alt_name" v="Delitjørn" />
		<tag k="name" v="Deiltjønn" />
		<tag k="natural" v="water" />
		<tag k="ssr:stedsnr" v="4878" />
	</node>
	<node lat="59.758827778219626" lon="9.300427779501938" id="-20515">
		<tag k="alt_name" v="Grastjørn" />
		<tag k="name" v="Grastjønn" />
		<tag k="natural" v="water" />
		<tag k="ssr:stedsnr" v="4991" />
	</node>
	<node lat="59.75930555880757" lon="9.330919435615101" id="-20516">
		<tag k="name" v="Brudalstjørna" />
		<tag k="natural" v="water" />
		<tag k="ssr:stedsnr" v="4993" />
	</node>
	<node lat="59.76665000375112" lon="9.064266662090526" id="-20517">
		<tag k="name" v="Raudammen" />
		<tag k="ssr:stedsnr" v="36426" />
		<tag k="waterway" v="dam" />
	</node>
	<node lat="59.6883527760274" lon="9.268180556685484" id="-20518">
		<tag k="name" v="Jonrudbukta" />
		<tag k="natural" v="bay" />
		<tag k="ssr:stedsnr" v="40084" />
	</node>
	<node lat="59.717580555046155" lon="9.13249165895439" id="-20519">
		<tag k="name" v="Sønstevatn" />
		<tag k="natural" v="water" />
		<tag k="ssr:stedsnr" v="40194" />
	</node>
	<node lat="59.701458329015054" lon="9.333141662304124" id="-20524">
		<tag k="name" v="Pålsontjønn" />
		<tag k="natural" v="water" />
		<tag k="ssr:stedsnr" v="40645" />
	</node>
	<node lat="59.71420277834279" lon="9.2048055508565" id="-20526">
		<tag k="name" v="Slåssøya" />
		<tag k="place" v="island" />
		<tag k="ssr:stedsnr" v="40838" />
	</node>
	<node lat="59.676613886982295" lon="9.401983329633083" id="-20528">
		<tag k="name" v="Vierbekken" />
		<tag k="ssr:stedsnr" v="40942" />
		<tag k="waterway" v="stream" />
	</node>
	<node lat="59.66920555999534" lon="9.399177772787482" id="-20529">
		<tag k="name" v="Bjønndalsbekken" />
		<tag k="ssr:stedsnr" v="40950" />
		<tag k="waterway" v="stream" />
	</node>
	<node lat="59.77952777864308" lon="9.21582222662321" id="-20530">
		<tag k="name" v="Esperåa" />
		<tag k="ssr:stedsnr" v="41172" />
		<tag k="waterway" v="stream" />
	</node>
	<node lat="59.75167777839304" lon="9.334441665996604" id="-20535">
		<tag k="name" v="Kvitråa" />
		<tag k="ssr:stedsnr" v="41846" />
		<tag k="waterway" v="stream" />
	</node>
	<node lat="59.7608527785648" lon="9.313511119137171" id="-20537">
		<tag k="name" v="Draholk" />
		<tag k="natural" v="water" />
		<tag k="ssr:stedsnr" v="41867" />
	</node>
	<node lat="59.81102777908203" lon="8.991047227903804" id="-20542">
		<tag k="name" v="Luåa" />
		<tag k="ssr:stedsnr" v="42754" />
		<tag k="waterway" v="stream" />
	</node>
	<node lat="59.8120388919288" lon="9.005286112316274" id="-20543">
		<tag k="name" v="Harpetjønnbukta" />
		<tag k="natural" v="bay" />
		<tag k="ssr:stedsnr" v="42759" />
	</node>
	<node lat="59.74830833726029" lon="9.317469444691472" id="-20545">
		<tag k="name" v="Håndklebekk" />
		<tag k="ssr:stedsnr" v="42864" />
		<tag k="waterway" v="stream" />
	</node>
	<node lat="59.51181666299723" lon="9.440741672586215" id="-20549">
		<tag k="name" v="Kringleåa" />
		<tag k="ssr:stedsnr" v="43324" />
		<tag k="waterway" v="river" />
	</node>
	<node lat="59.50906111504068" lon="9.427302773240127" id="-20550">
		<tag k="name" v="Nordre Løynfisktjønn" />
		<tag k="natural" v="water" />
		<tag k="ssr:stedsnr" v="43326" />
	</node>
	<node lat="59.51635833724985" lon="9.43871111211255" id="-20552">
		<tag k="name" v="Taklåsdammen" />
		<tag k="ssr:stedsnr" v="43363" />
		<tag k="waterway" v="dam" />
	</node>
	<node lat="59.61242777400894" lon="9.215824998713646" id="-20559">
		<tag k="name" v="Vesle Gvålåstjønn" />
		<tag k="natural" v="water" />
		<tag k="ssr:stedsnr" v="44508" />
	</node>
	<node lat="59.735711110546944" lon="9.028205561899998" id="-20590">
		<tag k="name" v="Fagersand" />
		<tag k="natural" v="cape" />
		<tag k="ssr:stedsnr" v="44983" />
	</node>
	<node lat="59.60793611378596" lon="9.37127499449989" id="-20593">
		<tag k="name" v="Deildalsbekken" />
		<tag k="ssr:stedsnr" v="45021" />
		<tag k="waterway" v="stream" />
	</node>
	<node lat="59.62711389324962" lon="9.136713897157659" id="-20595">
		<tag k="name" v="Vestre Lauvåstjønn" />
		<tag k="natural" v="water" />
		<tag k="ssr:stedsnr" v="44923" />
	</node>
	<node lat="59.723022225263065" lon="9.00853611583226" id="-20609">
		<tag k="name" v="Klømstrefossen" />
		<tag k="natural" v="waterfall" />
		<tag k="ssr:stedsnr" v="45913" />
	</node>
	<node lat="59.61596666496425" lon="9.323758327173124" id="-20613">
		<tag k="name" v="Strøtåbakkmyra" />
		<tag k="natural" v="water" />
		<tag k="ssr:stedsnr" v="46520" />
	</node>
	<node lat="59.80983055793063" lon="9.210602772980986" id="-20617">
		<tag k="name" v="Storevassåa" />
		<tag k="ssr:stedsnr" v="57029" />
		<tag k="waterway" v="river" />
	</node>
	<node lat="59.727347224603015" lon="9.126430552217885" id="-20618">
		<tag k="name" v="Juvbekkøya" />
		<tag k="place" v="island" />
		<tag k="ssr:stedsnr" v="57986" />
	</node>
	<node lat="59.806713891734574" lon="8.942755553748995" id="-20623">
		<tag k="name" v="Torveliåa" />
		<tag k="ssr:stedsnr" v="58932" />
		<tag k="waterway" v="stream" />
	</node>
	<node lat="59.73149444387702" lon="9.181933327097484" id="-20629">
		<tag k="alt_name" v="Trytetjørn" />
		<tag k="name" v="Trytetjønn" />
		<tag k="natural" v="water" />
		<tag k="ssr:stedsnr" v="63088" />
		<tag k="water" v="lake" />
	</node>
	<node lat="59.6910861092589" lon="9.197608338598936" id="-20632">
		<tag k="name" v="Vikøya" />
		<tag k="place" v="islet" />
		<tag k="ssr:stedsnr" v="63147" />
	</node>
	<node lat="59.68634999916831" lon="9.206499997868056" id="-20633">
		<tag k="name" v="Skjerodden" />
		<tag k="natural" v="cape" />
		<tag k="ssr:stedsnr" v="63256" />
	</node>
	<node lat="59.551961115341776" lon="9.185719441198602" id="-20635">
		<tag k="name" v="Kleppåa" />
		<tag k="ssr:stedsnr" v="63458" />
		<tag k="waterway" v="stream" />
	</node>
	<node lat="59.531047218313304" lon="8.89657222463741" id="-20637">
		<tag k="alt_name" v="Tjørnstultjørnan" />
		<tag k="name" v="Tjønnstultjønn" />
		<tag k="natural" v="water" />
		<tag k="ssr:stedsnr" v="63398" />
	</node>
	<node lat="59.51972500325178" lon="8.85168610919146" id="-20638">
		<tag k="name" v="Sunnstulvatnet" />
		<tag k="natural" v="water" />
		<tag k="ssr:stedsnr" v="63399" />
	</node>
	<node lat="59.74117499930303" lon="9.180616660305994" id="-20643">
		<tag k="alt_name" v="Smiutjørn, vle;Smiutjørn, vesle;Smiutjønn" />
		<tag k="name" v="Vesle Smiutjørn" />
		<tag k="natural" v="water" />
		<tag k="ssr:stedsnr" v="64092" />
	</node>
	<node lat="59.7355694414533" lon="9.170769447011434" id="-20644">
		<tag k="alt_name" v="Djuptjørn" />
		<tag k="name" v="Djuptjønn" />
		<tag k="natural" v="water" />
		<tag k="ssr:stedsnr" v="64093" />
	</node>
	<node lat="59.64973055383255" lon="9.33080276936633" id="-20646">
		<tag k="name" v="Sveivtjørnene" />
		<tag k="natural" v="water" />
		<tag k="ssr:stedsnr" v="63875" />
	</node>
	<node lat="59.63360277893049" lon="9.366191669911462" id="-20647">
		<tag k="alt_name" v="Svarttjørn" />
		<tag k="name" v="Svarttjønn" />
		<tag k="natural" v="water" />
		<tag k="ssr:stedsnr" v="63899" />
	</node>
	<node lat="59.65905113261686" lon="9.306111307372035" id="-20648">
		<tag k="name" v="Øvre Muttjønn" />
		<tag k="natural" v="water" />
		<tag k="ssr:stedsnr" v="63928" />
	</node>
	<node lat="59.71289999917325" lon="9.331722229840157" id="-20649">
		<tag k="alt_name" v="Holmevatn" />
		<tag k="name" v="Holmevatnet" />
		<tag k="natural" v="water" />
		<tag k="ssr:stedsnr" v="63969" />
	</node>
	<node lat="59.53612777594436" lon="9.193858332322934" id="-20655">
		<tag k="alt_name" v="Svartetjørna" />
		<tag k="name" v="Svarttjønn" />
		<tag k="natural" v="water" />
		<tag k="ssr:stedsnr" v="64390" />
	</node>
	<node lat="59.525747225210004" lon="9.439624997154334" id="-20658">
		<tag k="name" v="Putten" />
		<tag k="natural" v="water" />
		<tag k="ssr:stedsnr" v="64732" />
	</node>
	<node lat="59.513380552607515" lon="9.260030553361434" id="-20659">
		<tag k="alt_name" v="Damtjørn" />
		<tag k="name" v="Damtjønn" />
		<tag k="natural" v="water" />
		<tag k="ssr:stedsnr" v="64738" />
	</node>
	<node lat="59.55032777780892" lon="9.448891668112024" id="-20662">
		<tag k="alt_name" v="Smørtjørn" />
		<tag k="name" v="Smørtjønn" />
		<tag k="natural" v="water" />
		<tag k="ssr:stedsnr" v="64784" />
	</node>
	<node lat="59.77496944085101" lon="9.177633327213881" id="-20665">
		<tag k="alt_name" v="Urdetjørn" />
		<tag k="name" v="Uletjønn" />
		<tag k="natural" v="water" />
		<tag k="ssr:stedsnr" v="65418" />
	</node>
	<node lat="59.702877776330986" lon="9.29829166056547" id="-20667">
		<tag k="name" v="Fisketjønnbekken" />
		<tag k="ssr:stedsnr" v="100589" />
		<tag k="waterway" v="stream" />
	</node>
	<node lat="59.81067777507776" lon="8.94385277516103" id="-20668">
		<tag k="name" v="Raunebekk" />
		<tag k="ssr:stedsnr" v="100984" />
		<tag k="waterway" v="stream" />
	</node>
	<node lat="59.81381666261686" lon="8.918011105888564" id="-20669">
		<tag k="name" v="Skarvsbekken" />
		<tag k="ssr:stedsnr" v="100987" />
		<tag k="waterway" v="stream" />
	</node>
	<node lat="59.72385555723543" lon="9.265444445235339" id="-20673">
		<tag k="name" v="Lauskarbekken" />
		<tag k="ssr:stedsnr" v="100999" />
		<tag k="waterway" v="stream" />
	</node>
	<node lat="59.703991666913225" lon="9.193283340466143" id="-20675">
		<tag k="name" v="Saurtjønnbekken" />
		<tag k="ssr:stedsnr" v="101793" />
		<tag k="waterway" v="stream" />
	</node>
	<node lat="59.6678111155853" lon="9.282858337558645" id="-20684">
		<tag k="name" v="Åstjønn" />
		<tag k="natural" v="water" />
		<tag k="ssr:stedsnr" v="102237" />
	</node>
	<node lat="59.695361113858084" lon="9.199627782901757" id="-20686">
		<tag k="name" v="Bukkøya" />
		<tag k="place" v="island" />
		<tag k="ssr:stedsnr" v="102783" />
	</node>
	<node lat="59.75140832939436" lon="9.334813881373327" id="-20688">
		<tag k="name" v="Vrangfoss" />
		<tag k="natural" v="waterfall" />
		<tag k="ssr:stedsnr" v="102865" />
	</node>
	<node lat="59.699674998720134" lon="9.09866943754475" id="-20694">
		<tag k="name" v="Folslandbekken" />
		<tag k="ssr:stedsnr" v="104439" />
		<tag k="waterway" v="stream" />
	</node>
	<node lat="59.585669440379355" lon="9.145902777903265" id="-20696">
		<tag k="name" v="Veltåa" />
		<tag k="ssr:stedsnr" v="105359" />
		<tag k="waterway" v="stream" />
	</node>
	<node lat="59.512805559452566" lon="9.461755551181426" id="-20697">
		<tag k="name" v="Tjønnåsbekken" />
		<tag k="ssr:stedsnr" v="104712" />
		<tag k="waterway" v="stream" />
	</node>
	<node lat="59.7394972214807" lon="9.021147224014499" id="-20705">
		<tag k="name" v="Kausebekk" />
		<tag k="ssr:stedsnr" v="104944" />
		<tag k="waterway" v="stream" />
	</node>
	<node lat="59.51103610752318" lon="8.964463880534641" id="-20708">
		<tag k="name" v="Dyrdalstjønn" />
		<tag k="natural" v="water" />
		<tag k="ssr:stedsnr" v="105135" />
	</node>
	<node lat="59.670213891202295" lon="9.188019440879152" id="-20722">
		<tag k="name" v="Åstjønn" />
		<tag k="natural" v="water" />
		<tag k="ssr:stedsnr" v="105866" />
	</node>
	<node lat="59.61842499796129" lon="9.269697217715484" id="-20724">
		<tag k="name" v="Hestøya" />
		<tag k="place" v="island" />
		<tag k="ssr:stedsnr" v="105945" />
	</node>
	<node lat="59.670013889411756" lon="9.191155557415225" id="-20725">
		<tag k="name" v="Åstjønnbekken" />
		<tag k="ssr:stedsnr" v="105795" />
		<tag k="waterway" v="stream" />
	</node>
	<node lat="59.62708333140508" lon="9.162288888281076" id="-20727">
		<tag k="name" v="Løkjin" />
		<tag k="ssr:stedsnr" v="105900" />
		<tag k="waterway" v="stream" />
	</node>
	<node lat="59.578616664114115" lon="9.449638883579896" id="-20746">
		<tag k="name" v="Øvre Ljostjønn" />
		<tag k="natural" v="water" />
		<tag k="ssr:stedsnr" v="106931" />
	</node>
	<node lat="59.64631944712484" lon="9.413222229881931" id="-20756">
		<tag k="name" v="Østvatn" />
		<tag k="natural" v="water" />
		<tag k="ssr:stedsnr" v="118391" />
	</node>
	<node lat="59.76373055209544" lon="9.036302769228586" id="-20757">
		<tag k="name" v="Rautangen" />
		<tag k="natural" v="cape" />
		<tag k="ssr:stedsnr" v="119265" />
	</node>
	<node lat="59.71163055562714" lon="9.307469449826405" id="-20758">
		<tag k="name" v="Gapetjønn" />
		<tag k="natural" v="water" />
		<tag k="ssr:stedsnr" v="118520" />
	</node>
	<node lat="59.77281944324358" lon="8.951163888131164" id="-20763">
		<tag k="name" v="Dalstjønn" />
		<tag k="natural" v="water" />
		<tag k="ssr:stedsnr" v="118926" />
	</node>
	<node lat="59.74597222134611" lon="9.034894445276489" id="-20764">
		<tag k="name" v="Brennemoodden" />
		<tag k="natural" v="cape" />
		<tag k="ssr:stedsnr" v="119293" />
	</node>
	<node lat="59.76464166735835" lon="9.0225305624542" id="-20765">
		<tag k="name" v="Fanteneset" />
		<tag k="natural" v="cape" />
		<tag k="ssr:stedsnr" v="119296" />
	</node>
	<node lat="59.51136944877538" lon="8.789530552906196" id="-20770">
		<tag k="name" v="Tjorbubekken" />
		<tag k="ssr:stedsnr" v="124039" />
		<tag k="waterway" v="stream" />
	</node>
	<node lat="59.73322500029237" lon="9.213352785130242" id="-20774">
		<tag k="alt_name" v="Harpetjørn" />
		<tag k="name" v="Harpetjønn" />
		<tag k="natural" v="water" />
		<tag k="ssr:stedsnr" v="124080" />
	</node>
	<node lat="59.7303444477204" lon="9.195763887817346" id="-20775">
		<tag k="alt_name" v="Nørdstetjørn" />
		<tag k="name" v="Nørstetjønn" />
		<tag k="natural" v="water" />
		<tag k="ssr:stedsnr" v="124081" />
	</node>
	<node lat="59.680819442759635" lon="8.996141658022289" id="-20779">
		<tag k="name" v="Storedokkbekken" />
		<tag k="ssr:stedsnr" v="124196" />
		<tag k="waterway" v="stream" />
	</node>
	<node lat="59.692233331720864" lon="9.078858333413585" id="-20782">
		<tag k="name" v="Tinne" />
		<tag k="ssr:stedsnr" v="124141" />
		<tag k="waterway" v="river" />
	</node>
	<node lat="59.629638888222956" lon="9.153413887435919" id="-20786">
		<tag k="alt_name" v="Trånåbutjørn" />
		<tag k="name" v="Trånåbutjønn" />
		<tag k="natural" v="water" />
		<tag k="ssr:stedsnr" v="124234" />
	</node>
	<node lat="59.62747221988618" lon="9.081425005870232" id="-20787">
		<tag k="alt_name" v="Båstjørn" />
		<tag k="name" v="Båstjønn" />
		<tag k="natural" v="water" />
		<tag k="ssr:stedsnr" v="124243" />
	</node>
	<node lat="59.63683611348624" lon="9.156963888848656" id="-20788">
		<tag k="alt_name" v="Holmetjørn" />
		<tag k="name" v="Holmetjønn" />
		<tag k="natural" v="water" />
		<tag k="ssr:stedsnr" v="124246" />
	</node>
	<node lat="59.54401388984643" lon="9.076847225351251" id="-20792">
		<tag k="alt_name" v="Damtjørn" />
		<tag k="name" v="Damtjønn" />
		<tag k="natural" v="water" />
		<tag k="ssr:stedsnr" v="124378" />
	</node>
	<node lat="59.50398055337622" lon="8.931127785189032" id="-20796">
		<tag k="alt_name" v="Mjeltetjørna" />
		<tag k="name" v="Mjeltetjønn" />
		<tag k="natural" v="water" />
		<tag k="ssr:stedsnr" v="124330" />
	</node>
	<node lat="59.57317499763906" lon="9.363058331288206" id="-20812">
		<tag k="alt_name" v="Veletjørnene" />
		<tag k="name" v="Veletjønn" />
		<tag k="natural" v="water" />
		<tag k="ssr:stedsnr" v="124749" />
	</node>
	<node lat="59.52219999573508" lon="9.219374992680716" id="-20814">
		<tag k="alt_name" v="Veletjørn;Veletjørna" />
		<tag k="name" v="Veletjønn" />
		<tag k="natural" v="water" />
		<tag k="ssr:stedsnr" v="124690" />
	</node>
	<node lat="59.627269441415514" lon="9.361930554946781" id="-20817">
		<tag k="alt_name" v="Vipetotjørna" />
		<tag k="name" v="Vipetotjønn" />
		<tag k="natural" v="water" />
		<tag k="ssr:stedsnr" v="124890" />
	</node>
	<node lat="59.70042221990035" lon="9.315647221497896" id="-20818">
		<tag k="alt_name" v="Stutetjørn" />
		<tag k="name" v="Stutetjønn" />
		<tag k="natural" v="water" />
		<tag k="ssr:stedsnr" v="124985" />
	</node>
	<node lat="59.70152499660438" lon="9.285222213859758" id="-20819">
		<tag k="name" v="Løkjin" />
		<tag k="place" v="locality" />
		<tag k="ssr:stedsnr" v="124990" />
	</node>
	<node lat="59.77144166487528" lon="9.127977778825263" id="-20821">
		<tag k="alt_name" v="Surtetjørn" />
		<tag k="name" v="Surtetjønn" />
		<tag k="natural" v="water" />
		<tag k="ssr:stedsnr" v="125399" />
	</node>
	<node lat="59.75190278115775" lon="9.304602781469054" id="-20822">
		<tag k="alt_name" v="Fisktjørna" />
		<tag k="name" v="Fisketjønn" />
		<tag k="natural" v="water" />
		<tag k="ssr:stedsnr" v="125993" />
	</node>
	<node lat="59.724869443850274" lon="9.318261109555259" id="-20825">
		<tag k="name" v="Storslitjønn" />
		<tag k="natural" v="water" />
		<tag k="ssr:stedsnr" v="163924" />
	</node>
	<node lat="59.762588891073364" lon="8.91853610497709" id="-20827">
		<tag k="name" v="Løytestjønn" />
		<tag k="natural" v="water" />
		<tag k="ssr:stedsnr" v="162035" />
	</node>
	<node lat="59.65924166619227" lon="9.357569444498607" id="-20828">
		<tag k="name" v="Breistulbekken" />
		<tag k="ssr:stedsnr" v="161986" />
		<tag k="waterway" v="stream" />
	</node>
	<node lat="59.699452774807305" lon="9.201552775402645" id="-20830">
		<tag k="name" v="Pollan" />
		<tag k="place" v="island" />
		<tag k="ssr:stedsnr" v="162777" />
	</node>
	<node lat="59.83239166935246" lon="8.912761117857212" id="-20831">
		<tag k="name" v="Løkjestul" />
		<tag k="place" v="island" />
		<tag k="ssr:stedsnr" v="163076" />
	</node>
	<node lat="59.677986110760685" lon="9.282338889486454" id="-20832">
		<tag k="name" v="Skåråbekk" />
		<tag k="ssr:stedsnr" v="163195" />
		<tag k="waterway" v="stream" />
	</node>
	<node lat="59.68159722188544" lon="9.32887777235629" id="-20836">
		<tag k="name" v="Nordstulbekken" />
		<tag k="ssr:stedsnr" v="163849" />
		<tag k="waterway" v="stream" />
	</node>
	<node lat="59.515672221427785" lon="9.417825006611789" id="-20843">
		<tag k="name" v="Trytetjønnbekken" />
		<tag k="ssr:stedsnr" v="164440" />
		<tag k="waterway" v="stream" />
	</node>
	<node lat="59.55068055426943" lon="9.416841667043242" id="-20844">
		<tag k="name" v="Rakketjønnfossen" />
		<tag k="natural" v="waterfall" />
		<tag k="ssr:stedsnr" v="164700" />
	</node>
	<node lat="59.520725001931794" lon="9.387713891137576" id="-20846">
		<tag k="name" v="Postmyr-bekken" />
		<tag k="ssr:stedsnr" v="164616" />
		<tag k="waterway" v="stream" />
	</node>
	<node lat="59.592536106762225" lon="9.117605555257674" id="-20853">
		<tag k="name" v="Skvisla" />
		<tag k="ssr:stedsnr" v="165154" />
		<tag k="waterway" v="river" />
	</node>
	<node lat="59.49723055556716" lon="9.37610832678817" id="-20863">
		<tag k="name" v="Store Åsbutjønn" />
		<tag k="natural" v="water" />
		<tag k="ssr:stedsnr" v="165557" />
	</node>
	<node lat="59.640324995791076" lon="9.224844436313457" id="-20870">
		<tag k="name" v="Kråmviken" />
		<tag k="natural" v="bay" />
		<tag k="ssr:stedsnr" v="165845" />
	</node>
	<node lat="59.626299998098226" lon="9.282413884052392" id="-20875">
		<tag k="name" v="Grautbekk" />
		<tag k="ssr:stedsnr" v="165987" />
		<tag k="waterway" v="stream" />
	</node>
	<node lat="59.58466111073294" lon="9.39925555172989" id="-20877">
		<tag k="name" v="Høymyrvassdammen" />
		<tag k="ssr:stedsnr" v="166087" />
		<tag k="waterway" v="dam" />
	</node>
	<node lat="59.56201110820688" lon="9.057563888541116" id="-20878">
		<tag k="name" v="Barlindholttjønn" />
		<tag k="natural" v="water" />
		<tag k="ssr:stedsnr" v="166118" />
	</node>
	<node lat="59.563105552720884" lon="9.031102786498323" id="-20879">
		<tag k="name" v="Breistulbukta" />
		<tag k="natural" v="bay" />
		<tag k="ssr:stedsnr" v="166122" />
	</node>
	<node lat="59.584811107733515" lon="9.39258611547843" id="-20880">
		<tag k="name" v="Høymyrvassbekken" />
		<tag k="ssr:stedsnr" v="166135" />
		<tag k="waterway" v="stream" />
	</node>
	<node lat="59.7007805574544" lon="9.012247223897793" id="-20888">
		<tag k="name" v="Mjella" />
		<tag k="ssr:stedsnr" v="166931" />
		<tag k="waterway" v="stream" />
	</node>
	<node lat="59.630338889235134" lon="9.33769999497222" id="-20892">
		<tag k="name" v="Vipetobekken" />
		<tag k="ssr:stedsnr" v="167541" />
		<tag k="waterway" v="stream" />
	</node>
	<node lat="59.791363889245375" lon="9.331136114808082" id="-20893">
		<tag k="name" v="Nåtterstrengen" />
		<tag k="natural" v="water" />
		<tag k="ssr:stedsnr" v="176117" />
	</node>
	<node lat="59.71119444563669" lon="9.226152771194464" id="-20895">
		<tag k="name" v="Stokkholm" />
		<tag k="natural" v="shoal" />
		<tag k="place" v="locality" />
		<tag k="ssr:stedsnr" v="178260" />
	</node>
	<node lat="59.7753555540898" lon="9.351388889521647" id="-20897">
		<tag k="name" v="Søndre Damtjønn" />
		<tag k="natural" v="water" />
		<tag k="ssr:stedsnr" v="178134" />
	</node>
	<node lat="59.745555557047666" lon="9.121466661285956" id="-20899">
		<tag k="name" v="Vesleøya" />
		<tag k="place" v="island" />
		<tag k="ssr:stedsnr" v="178596" />
	</node>
	<node lat="59.71672777889971" lon="9.263183329476973" id="-20900">
		<tag k="name" v="Halvfarodden" />
		<tag k="natural" v="cape" />
		<tag k="ssr:stedsnr" v="178548" />
	</node>
	<node lat="59.7721916689996" lon="9.230361109781118" id="-20902">
		<tag k="name" v="Nattetjønn" />
		<tag k="natural" v="water" />
		<tag k="ssr:stedsnr" v="179254" />
	</node>
	<node lat="59.75440833195607" lon="9.079708332383403" id="-20909">
		<tag k="name" v="Grivlostjønn" />
		<tag k="natural" v="water" />
		<tag k="ssr:stedsnr" v="180427" />
	</node>
	<node lat="59.744791669019776" lon="9.098541662015581" id="-20910">
		<tag k="name" v="Langetang" />
		<tag k="natural" v="cape" />
		<tag k="ssr:stedsnr" v="180501" />
	</node>
	<node lat="59.77129721822427" lon="9.11877221821028" id="-20911">
		<tag k="name" v="Vesle Surtetjønn" />
		<tag k="natural" v="water" />
		<tag k="ssr:stedsnr" v="180433" />
	</node>
	<node lat="59.70594444359693" lon="9.254283338859805" id="-20913">
		<tag k="name" v="Dalvikbekken" />
		<tag k="ssr:stedsnr" v="180525" />
		<tag k="waterway" v="stream" />
	</node>
	<node lat="59.70413889316596" lon="8.947844450915882" id="-20916">
		<tag k="alt_name" v="Sætertjørna" />
		<tag k="name" v="Sæterstultjønna" />
		<tag k="natural" v="water" />
		<tag k="ssr:stedsnr" v="185069" />
	</node>
	<node lat="59.6385722247257" lon="9.064616661402704" id="-20920">
		<tag k="alt_name" v="Køyvingtjørn" />
		<tag k="name" v="Køyvingtjønn" />
		<tag k="natural" v="water" />
		<tag k="ssr:stedsnr" v="185174" />
	</node>
	<node lat="59.6142416638463" lon="9.20727778006471" id="-20922">
		<tag k="alt_name" v="Gvålåstjørna" />
		<tag k="name" v="Gvålåstjønn" />
		<tag k="natural" v="water" />
		<tag k="ssr:stedsnr" v="185245" />
	</node>
	<node lat="59.61813333656943" lon="9.180033330030737" id="-20923">
		<tag k="alt_name" v="Hallvorstjørn" />
		<tag k="name" v="Halvorstjønn" />
		<tag k="natural" v="water" />
		<tag k="ssr:stedsnr" v="185247" />
	</node>
	<node lat="59.628833329350456" lon="9.130991664980204" id="-20928">
		<tag k="alt_name" v="Lauvåstjørn" />
		<tag k="name" v="Lauvåstjønn" />
		<tag k="natural" v="water" />
		<tag k="ssr:stedsnr" v="185278" />
	</node>
	<node lat="59.61312777897703" lon="9.162930551474988" id="-20930">
		<tag k="alt_name" v="Stiviåa" />
		<tag k="name" v="Stiviå" />
		<tag k="ssr:stedsnr" v="185291" />
		<tag k="waterway" v="stream" />
	</node>
	<node lat="59.61241111194986" lon="9.08607500318974" id="-20931">
		<tag k="alt_name" v="Svarttjørn" />
		<tag k="name" v="Svarttjønn" />
		<tag k="natural" v="water" />
		<tag k="ssr:stedsnr" v="185298" />
	</node>
	<node lat="59.508127775669465" lon="8.855127785794355" id="-20943">
		<tag k="name" v="Gurosrobekken" />
		<tag k="ssr:stedsnr" v="185365" />
		<tag k="waterway" v="stream" />
	</node>
	<node lat="59.52581111050447" lon="9.224516670664094" id="-20949">
		<tag k="alt_name" v="Svarttjørn" />
		<tag k="name" v="Svarttjønn" />
		<tag k="natural" v="water" />
		<tag k="ssr:stedsnr" v="185718" />
	</node>
	<node lat="59.59060000197479" lon="9.299224993053745" id="-20950">
		<tag k="alt_name" v="Blekkningstjørn" />
		<tag k="name" v="Blekningstjønn" />
		<tag k="natural" v="water" />
		<tag k="ssr:stedsnr" v="185827" />
	</node>
	<node lat="59.634147221750844" lon="9.286747214933648" id="-20953">
		<tag k="name" v="Dårstulåa" />
		<tag k="ssr:stedsnr" v="185894" />
		<tag k="waterway" v="stream" />
	</node>
	<node lat="59.66276818083597" lon="9.296098680413392" id="-20954">
		<tag k="name" v="Nedre Muttjønn" />
		<tag k="natural" v="water" />
		<tag k="ssr:stedsnr" v="185913" />
	</node>
	<node lat="59.65830277334053" lon="9.246700004504529" id="-20955">
		<tag k="name" v="Hetjørnene" />
		<tag k="natural" v="water" />
		<tag k="ssr:stedsnr" v="185917" />
	</node>
	<node lat="59.60668055114751" lon="9.42118888232895" id="-20956">
		<tag k="alt_name" v="Jerpetjørn, øvre" />
		<tag k="name" v="Øvre Jerpetjønn" />
		<tag k="natural" v="water" />
		<tag k="ssr:stedsnr" v="185858" />
	</node>
	<node lat="59.609708331354575" lon="9.315366662861244" id="-20958">
		<tag k="alt_name" v="Svarttjørn" />
		<tag k="name" v="Svarttjønn" />
		<tag k="natural" v="water" />
		<tag k="ssr:stedsnr" v="185862" />
	</node>
	<node lat="59.704599996959715" lon="9.292124993772651" id="-20962">
		<tag k="alt_name" v="Gampetjørn" />
		<tag k="name" v="Gampetjønn" />
		<tag k="natural" v="water" />
		<tag k="ssr:stedsnr" v="185986" />
	</node>
	<node lat="59.779038888780214" lon="9.210383338760668" id="-20965">
		<tag k="name" v="Sønstevatn" />
		<tag k="natural" v="water" />
		<tag k="ssr:stedsnr" v="186418" />
	</node>
	<node lat="59.84684444521218" lon="8.872416668382328" id="-20969">
		<tag k="alt_name" v="Digeråa" />
		<tag k="name" v="Digeråi" />
		<tag k="ssr:stedsnr" v="186508" />
		<tag k="waterway" v="river" />
	</node>
	<node lat="59.74538888934215" lon="8.898397226917222" id="-20981">
		<tag k="name" v="Tjønnmolibekken" />
		<tag k="ssr:stedsnr" v="223040" />
		<tag k="waterway" v="stream" />
	</node>
	<node lat="59.69274721883929" lon="9.20044722141261" id="-20983">
		<tag k="name" v="Småøyane" />
		<tag k="place" v="island" />
		<tag k="ssr:stedsnr" v="223777" />
	</node>
	<node lat="59.51584999572761" lon="9.451608337114044" id="-20985">
		<tag k="name" v="Godli-landet" />
		<tag k="natural" v="beach" />
		<tag k="ssr:stedsnr" v="225341" />
	</node>
	<node lat="59.57824999638655" lon="9.154724993994737" id="-20987">
		<tag k="name" v="Stiviåa" />
		<tag k="ssr:stedsnr" v="226220" />
		<tag k="waterway" v="stream" />
	</node>
	<node lat="59.68371388536476" lon="9.357047220555623" id="-20988">
		<tag k="name" v="Firkanttjønna" />
		<tag k="natural" v="water" />
		<tag k="ssr:stedsnr" v="224758" />
		<tag k="water" v="pond" />
	</node>
	<node lat="59.5271305593779" lon="8.974616671801984" id="-20997">
		<tag k="name" v="Geithølfossen" />
		<tag k="natural" v="waterfall" />
		<tag k="ssr:stedsnr" v="226143" />
	</node>
	<node lat="59.51495833526124" lon="8.846624992705943" id="-21022">
		<tag k="name" v="Skråttjønn" />
		<tag k="natural" v="water" />
		<tag k="old_name" v="Sktåttjønn" />
		<tag k="ssr:stedsnr" v="226770" />
	</node>
	<node lat="59.67468055352718" lon="9.234183328942597" id="-21023">
		<tag k="name" v="Stulsvik" />
		<tag k="natural" v="bay" />
		<tag k="ssr:stedsnr" v="226826" />
	</node>
	<node lat="59.5710527758542" lon="9.067811116322714" id="-21027">
		<tag k="name" v="Primtjønn" />
		<tag k="natural" v="water" />
		<tag k="ssr:stedsnr" v="226913" />
	</node>
	<node lat="59.61878333088149" lon="9.258986103554726" id="-21028">
		<tag k="name" v="Hestetangen" />
		<tag k="natural" v="cape" />
		<tag k="ssr:stedsnr" v="226920" />
	</node>
	<node lat="59.70662222561268" lon="9.015872214347372" id="-21029">
		<tag k="name" v="Bosshøl" />
		<tag k="place" v="locality" />
		<tag k="ssr:stedsnr" v="226922" />
	</node>
	<node lat="59.55748888504924" lon="8.920086118022246" id="-21032">
		<tag k="name" v="Ramdalsbekk" />
		<tag k="ssr:stedsnr" v="227405" />
		<tag k="waterway" v="stream" />
	</node>
	<node lat="59.533905556103555" lon="9.319261119095527" id="-21037">
		<tag k="name" v="Ikornbekken" />
		<tag k="ssr:stedsnr" v="227922" />
		<tag k="waterway" v="stream" />
	</node>
	<node lat="59.68278610740615" lon="9.212836108249734" id="-21039">
		<tag k="name" v="Smørklank" />
		<tag k="natural" v="cape" />
		<tag k="ssr:stedsnr" v="282359" />
	</node>
	<node lat="59.64967777984949" lon="9.330588893809379" id="-21040">
		<tag k="name" v="Nedre Sveivtjønn" />
		<tag k="natural" v="water" />
		<tag k="ssr:stedsnr" v="282939" />
	</node>
	<node lat="59.68427222490477" lon="9.28711666585179" id="-21044">
		<tag k="name" v="Svartetjønn" />
		<tag k="natural" v="water" />
		<tag k="ssr:stedsnr" v="284016" />
	</node>
	<node lat="59.714419440841716" lon="9.337963880136817" id="-21048">
		<tag k="name" v="Åstjønn" />
		<tag k="natural" v="water" />
		<tag k="ssr:stedsnr" v="284736" />
	</node>
	<node lat="59.73801110828955" lon="9.30073888829329" id="-21050">
		<tag k="name" v="Juvbekkdalen" />
		<tag k="ssr:stedsnr" v="284941" />
		<tag k="waterway" v="stream" />
	</node>
	<node lat="59.55081666797941" lon="9.42018889212725" id="-21054">
		<tag k="name" v="Drevdalsåa" />
		<tag k="ssr:stedsnr" v="286671" />
		<tag k="waterway" v="river" />
	</node>
	<node lat="59.5374083306394" lon="9.461141671746235" id="-21055">
		<tag k="name" v="Monsvasskilen" />
		<tag k="natural" v="strait" />
		<tag k="ssr:stedsnr" v="286676" />
	</node>
	<node lat="59.48766666436377" lon="9.352511105939671" id="-21056">
		<tag k="name" v="Spinndalsbekken" />
		<tag k="ssr:stedsnr" v="286592" />
		<tag k="waterway" v="stream" />
	</node>
	<node lat="59.49503610895789" lon="9.38859721607598" id="-21057">
		<tag k="name" v="Heimdalsbekken" />
		<tag k="ssr:stedsnr" v="286623" />
		<tag k="waterway" v="stream" />
	</node>
	<node lat="59.726019441704246" lon="9.036536107644576" id="-21058">
		<tag k="name" v="Vigilodden" />
		<tag k="natural" v="cape" />
		<tag k="ssr:stedsnr" v="286996" />
	</node>
	<node lat="59.557016665404845" lon="9.156649999852021" id="-21062">
		<tag k="name" v="Teinåa" />
		<tag k="ssr:stedsnr" v="287124" />
		<tag k="waterway" v="river" />
	</node>
	<node lat="59.53631667035818" lon="9.258291666040463" id="-21077">
		<tag k="name" v="Skulehusbekken" />
		<tag k="ssr:stedsnr" v="287664" />
		<tag k="waterway" v="stream" />
	</node>
	<node lat="59.638825000401035" lon="9.11359167528849" id="-21078">
		<tag k="name" v="Fiskelaus" />
		<tag k="natural" v="water" />
		<tag k="ssr:stedsnr" v="287841" />
	</node>
	<node lat="59.64025278073515" lon="9.1786916753815" id="-21081">
		<tag k="name" v="Sustuldipilen" />
		<tag k="natural" v="water" />
		<tag k="ssr:stedsnr" v="287862" />
	</node>
	<node lat="59.62443333590448" lon="9.06660000869097" id="-21084">
		<tag k="name" v="Homtjønnstandaren" />
		<tag k="natural" v="cape" />
		<tag k="ssr:stedsnr" v="287939" />
	</node>
	<node lat="59.51812778001245" lon="8.915511104823379" id="-21095">
		<tag k="name" v="Aslakstulåa" />
		<tag k="ssr:stedsnr" v="288617" />
		<tag k="waterway" v="stream" />
	</node>
	<node lat="59.77782500436285" lon="9.22240277710377" id="-21110">
		<tag k="name" v="Åmot" />
		<tag k="place" v="locality" />
		<tag k="ssr:stedsnr" v="300254" />
	</node>
	<node lat="59.71142499833095" lon="9.29579167351912" id="-21112">
		<tag k="name" v="Homtjønnbekken" />
		<tag k="ssr:stedsnr" v="300563" />
		<tag k="waterway" v="stream" />
	</node>
	<node lat="59.71659444159149" lon="9.201533334201564" id="-21115">
		<tag k="name" v="Hellodden" />
		<tag k="natural" v="cape" />
		<tag k="ssr:stedsnr" v="301814" />
	</node>
	<node lat="59.70549166543622" lon="9.277488890140202" id="-21121">
		<tag k="name" v="Trynåstjønna" />
		<tag k="natural" v="water" />
		<tag k="ssr:stedsnr" v="301548" />
	</node>
	<node lat="59.745416664114174" lon="8.928952779252581" id="-21128">
		<tag k="name" v="Grastjørn" />
		<tag k="natural" v="water" />
		<tag k="ssr:stedsnr" v="306001" />
	</node>
	<node lat="59.72098333303319" lon="9.105980551949377" id="-21131">
		<tag k="alt_name" v="Febottjørna" />
		<tag k="name" v="Febottjønna" />
		<tag k="natural" v="water" />
		<tag k="ssr:stedsnr" v="306090" />
	</node>
	<node lat="59.686225002349154" lon="9.18861110766502" id="-21136">
		<tag k="name" v="Deilvika" />
		<tag k="natural" v="bay" />
		<tag k="ssr:stedsnr" v="306131" />
	</node>
	<node lat="59.698902773598235" lon="8.995519452169745" id="-21140">
		<tag k="name" v="Mjella" />
		<tag k="ssr:stedsnr" v="306173" />
		<tag k="waterway" v="river" />
	</node>
	<node lat="59.65145555453051" lon="9.159072224504948" id="-21141">
		<tag k="alt_name" v="Skraptjørn" />
		<tag k="name" v="Skarptjønn" />
		<tag k="natural" v="water" />
		<tag k="ssr:stedsnr" v="306186" />
	</node>
	<node lat="59.65494999643012" lon="9.167613882111997" id="-21142">
		<tag k="alt_name" v="Urdetjørn" />
		<tag k="name" v="Urdetjønn" />
		<tag k="natural" v="water" />
		<tag k="ssr:stedsnr" v="306187" />
	</node>
	<node lat="59.62473889086296" lon="9.176058328527583" id="-21144">
		<tag k="alt_name" v="Østretjørn" />
		<tag k="name" v="Østretjønn" />
		<tag k="natural" v="water" />
		<tag k="ssr:stedsnr" v="306293" />
	</node>
	<node lat="59.51704166278476" lon="8.898686103684492" id="-21150">
		<tag k="name" v="Hollanvatnet" />
		<tag k="natural" v="water" />
		<tag k="ssr:stedsnr" v="306372" />
	</node>
</osm>
