<?xml version="1.0" encoding="UTF-8"?>
<<<<<<< HEAD
<osm version="0.6" generator="osmapis">
	<node lat="59.56619999596728" lon="9.3685277800054" id="-18418">
		<tag k="alt_name" v="Oksevaet" />
		<tag k="ford" v="yes" />
		<tag k="name" v="Oksevad" />
		<tag k="place" v="locality" />
		<tag k="ssr:stedsnr" v="3789" />
	</node>
	<node lat="59.64166944651165" lon="9.06320832999612" id="-18467">
		<tag k="man_made" v="cairn" />
		<tag k="name" v="Sauarvarden" />
		<tag k="place" v="locality" />
		<tag k="ssr:stedsnr" v="45204" />
	</node>
	<node lat="59.67229999920425" lon="8.91737777851967" id="-18471">
		<tag k="highway" v="path" />
		<tag k="name" v="Åsvegen" />
		<tag k="ssr:stedsnr" v="45980" />
	</node>
	<node lat="59.73921388952404" lon="9.292622229670139" id="-18479">
		<tag k="ford" v="yes" />
		<tag k="name" v="Juvbekk-kleiva" />
		<tag k="place" v="locality" />
		<tag k="ssr:stedsnr" v="239517" />
	</node>
	<node lat="59.56571944433382" lon="9.384588894356106" id="-18540">
		<tag k="name" v="Øysteinstul stasjon" />
		<tag k="railway" v="station" />
		<tag k="ssr:stedsnr" v="64809" />
		<tag k="train" v="yes" />
	</node>
	<node lat="59.66129722049949" lon="9.273627777663535" id="-18550">
		<tag k="ford" v="yes" />
		<tag k="name" v="Fossbuvada" />
		<tag k="place" v="locality" />
		<tag k="ssr:stedsnr" v="245924" />
	</node>
	<node lat="59.59433333239008" lon="9.09142776999825" id="-18570">
		<tag k="bridge" v="yes" />
		<tag k="layer" v="1" />
		<tag k="name" v="Melås bru" />
		<tag k="ssr:stedsnr" v="246251" />
	</node>
	<node lat="59.51773333280299" lon="9.316463892235841" id="-18583">
		<tag k="name" v="Tveitan" />
		<tag k="railway" v="station" />
		<tag k="ssr:stedsnr" v="246697" />
		<tag k="train" v="yes" />
	</node>
	<node lat="59.55592222086417" lon="9.361677782329302" id="-18601">
		<tag k="ford" v="yes" />
		<tag k="name" v="Vaet" />
		<tag k="place" v="locality" />
		<tag k="ssr:stedsnr" v="98179" />
	</node>
	<node lat="59.48810555663305" lon="9.317875005471373" id="-18623">
		<tag k="fixme" v="verify maritime location" />
		<tag k="mooring" v="yes" />
		<tag k="name" v="Jønsi-ståin" />
		<tag k="place" v="locality" />
		<tag k="ssr:stedsnr" v="104833" />
	</node>
	<node lat="59.548402778359915" lon="9.355361105355215" id="-18663">
		<tag k="name" v="Brontangvelta" />
		<tag k="place" v="locality" />
		<tag k="ssr:stedsnr" v="106082" />
	</node>
	<node lat="59.68698611239894" lon="9.113066666032225" id="-18688">
		<tag k="bridge" v="yes" />
		<tag k="layer" v="1" />
		<tag k="name" v="Gaupesprang" />
		<tag k="ssr:stedsnr" v="124115" />
	</node>
	<node lat="59.57665555911182" lon="9.034069452863358" id="-18733">
		<tag k="man_made" v="cairn" />
		<tag k="name" v="Ruken" />
		<tag k="place" v="locality" />
		<tag k="ssr:stedsnr" v="165074" />
	</node>
	<node lat="59.55960277831369" lon="9.223922229439246" id="-18738">
		<tag k="man_made" v="quay" />
		<tag k="name" v="Tangebrygga" />
		<tag k="place" v="locality" />
		<tag k="ssr:stedsnr" v="165115" />
	</node>
	<node lat="59.560730554213364" lon="9.265802775504218" id="-18767">
		<tag k="bridge" v="yes" />
		<tag k="layer" v="1" />
		<tag k="name" v="Stasjonsbakken" />
		<tag k="ssr:stedsnr" v="168361" />
	</node>
	<node lat="59.56169999842863" lon="9.267197216986785" id="-18768">
		<tag k="bridge" v="yes" />
		<tag k="layer" v="1" />
		<tag k="name" v="Bekkekulvert" />
		<tag k="ssr:stedsnr" v="168668" />
	</node>
	<node lat="59.76906389116969" lon="9.082058326215995" id="-18776">
		<tag k="name" v="Vetterstoa" />
		<tag k="place" v="locality" />
		<tag k="ssr:stedsnr" v="180406" />
	</node>
	<node lat="59.56576388830525" lon="9.215725002604676" id="-18787">
		<tag k="aeroway" v="aerodrome" />
		<tag k="name" v="Notodden lufthavn" />
		<tag k="old_name" v="Notodden flyplass, Tuven" />
		<tag k="ssr:stedsnr" v="185336" />
	</node>
	<node lat="59.49095000002719" lon="9.31698333542518" id="-18831">
		<tag k="fixme" v="verify maritime location" />
		<tag k="mooring" v="yes" />
		<tag k="name" v="Tyri-stå" />
		<tag k="place" v="locality" />
		<tag k="ssr:stedsnr" v="225834" />
	</node>
	<node lat="59.62011388993624" lon="9.250708341184673" id="-18856">
		<tag k="name" v="Nykåsvelta" />
		<tag k="place" v="locality" />
		<tag k="ssr:stedsnr" v="226984" />
	</node>
	<node lat="59.684344445365134" lon="9.145505548252544" id="-18876">
		<tag k="bridge" v="yes" />
		<tag k="layer" v="1" />
		<tag k="name" v="Årlifoss" />
		<tag k="ssr:stedsnr" v="228406" />
	</node>
	<node lat="59.61066944338234" lon="9.018811115897543" id="-18877">
		<tag k="bridge" v="yes" />
		<tag k="layer" v="1" />
		<tag k="name" v="Sauerkåsa" />
		<tag k="ssr:stedsnr" v="228400" />
	</node>
	<node lat="59.842258333412374" lon="8.852305551772687" id="-18933">
		<tag k="man_made" v="cairn" />
		<tag k="name" v="Fenta" />
		<tag k="place" v="locality" />
		<tag k="ssr:stedsnr" v="283827" />
	</node>
	<node lat="59.65704722116447" lon="9.206758339651001" id="-18979">
		<tag k="landuse" v="industrial" />
		<tag k="name" v="Grønvollfoss" />
		<tag k="power" v="plant" />
		<tag k="ssr:stedsnr" v="287803" />
	</node>
	<node lat="59.59239444365249" lon="9.354816666367933" id="-18988">
		<tag k="alt_name" v="Tovstul" />
		<tag k="bridge" v="yes" />
		<tag k="layer" v="1" />
		<tag k="name" v="Tovestulbrua" />
		<tag k="ssr:stedsnr" v="288029" />
	</node>
	<node lat="59.50399167018108" lon="9.31970834209132" id="-19075">
		<tag k="fixme" v="verify maritime location" />
		<tag k="mooring" v="yes" />
		<tag k="name" v="Røste-stå" />
		<tag k="place" v="locality" />
		<tag k="ssr:stedsnr" v="468825" />
	</node>
	<node lat="59.5305805579618" lon="9.302655548702345" id="-19361">
		<tag k="alt_name" v="Tinnegrend st." />
		<tag k="name" v="Tinnegrend" />
		<tag k="railway" v="station" />
		<tag k="ssr:stedsnr" v="428723" />
		<tag k="train" v="yes" />
	</node>
	<node lat="59.69452500323788" lon="9.087191668224504" id="-19565">
		<tag k="bridge" v="yes" />
		<tag k="layer" v="1" />
		<tag k="name" v="Evju" />
		<tag k="ssr:stedsnr" v="532678" />
	</node>
	<node lat="59.651472220655485" lon="9.213966661106321" id="-19654">
		<tag k="name" v="Grønvollfoss" />
		<tag k="railway" v="station" />
		<tag k="ssr:stedsnr" v="590772" />
		<tag k="train" v="yes" />
	</node>
	<node lat="59.81485555302189" lon="8.98822777215665" id="-19782">
		<tag k="bridge" v="yes" />
		<tag k="layer" v="1" />
		<tag k="name" v="Busnesbekken" />
		<tag k="ssr:stedsnr" v="653696" />
	</node>
	<node lat="59.6964749981032" lon="9.10266389561563" id="-19783">
		<tag k="bridge" v="yes" />
		<tag k="layer" v="1" />
		<tag k="name" v="Folsland" />
		<tag k="ssr:stedsnr" v="653701" />
	</node>
	<node lat="59.61786111284282" lon="9.281141675037" id="-19918">
		<tag k="bridge" v="yes" />
		<tag k="layer" v="1" />
		<tag k="name" v="Haave" />
		<tag k="ssr:stedsnr" v="896381" />
	</node>
	<node lat="59.689972225119135" lon="9.03551110522503" id="-19919">
		<tag k="bridge" v="yes" />
		<tag k="layer" v="1" />
		<tag k="name" v="Kirkevold" />
		<tag k="ssr:stedsnr" v="896385" />
	</node>
	<node lat="59.73623055116233" lon="9.22544443843708" id="-19920">
		<tag k="bridge" v="yes" />
		<tag k="layer" v="1" />
		<tag k="name" v="Esperå" />
		<tag k="ssr:stedsnr" v="896735" />
	</node>
	<node lat="59.694497220520105" lon="9.19530555528291" id="-19935">
		<tag k="name" v="Løytingsvelta" />
		<tag k="place" v="locality" />
		<tag k="ssr:stedsnr" v="709727" />
	</node>
	<node lat="59.619841669961176" lon="9.27127500674704" id="-19962">
		<tag k="name" v="Hovevelta" />
		<tag k="place" v="locality" />
		<tag k="ssr:stedsnr" v="711981" />
	</node>
	<node lat="59.66318333294628" lon="8.886486117381642" id="-19977">
		<tag k="name" v="Fantevelta" />
		<tag k="place" v="locality" />
		<tag k="ssr:stedsnr" v="713979" />
	</node>
	<node lat="59.71029166960772" lon="9.012422227063254" id="-19979">
=======
<osm generator="osmapis" version="0.6">
	<node id="-425984" lat="59.747697222" lon="9.12020833386">
		<tag k="bridge" v="yes" />
		<tag k="layer" v="1" />
		<tag k="name" v="Sandaroi" />
		<tag k="ssr:stedsnr" v="775325" />
	</node>
	<node id="-425983" lat="59.6313694442" lon="9.27796666988">
>>>>>>> e1d4bc35ff8a6074a6f2e91616a996b547c36f15
		<tag k="bridge" v="yes" />
		<tag k="layer" v="1" />
		<tag k="name" v="Kaala" />
		<tag k="ssr:stedsnr" v="714314" />
	</node>
<<<<<<< HEAD
	<node lat="59.85009444727659" lon="8.942155554747103" id="-19980">
=======
	<node id="-425982" lat="59.7360888885" lon="9.31396110851">
>>>>>>> e1d4bc35ff8a6074a6f2e91616a996b547c36f15
		<tag k="bridge" v="yes" />
		<tag k="layer" v="1" />
		<tag k="name" v="Svalestubekken" />
		<tag k="ssr:stedsnr" v="714316" />
	</node>
	<node lat="59.71840832992516" lon="9.296883339651064" id="-19986">
		<tag k="fixme" v="consider highway=path" />
		<tag k="highway" v="track" />
		<tag k="name" v="Gamle Kongsbergvegen" />
		<tag k="ssr:stedsnr" v="725512" />
	</node>
	<node lat="59.72573333440826" lon="8.998847217542163" id="-20000">
		<tag k="alt_name" v="Brekkevaet" />
		<tag k="ford" v="yes" />
		<tag k="name" v="Brekkevadet" />
		<tag k="place" v="locality" />
		<tag k="ssr:stedsnr" v="731079" />
	</node>
	<node lat="59.4896805576482" lon="9.317441667563106" id="-20054">
		<tag k="fixme" v="verify maritime location" />
		<tag k="mooring" v="yes" />
		<tag k="name" v="Sugards-stå" />
		<tag k="place" v="locality" />
		<tag k="ssr:stedsnr" v="771854" />
	</node>
<<<<<<< HEAD
	<node lat="59.83685277963004" lon="8.957308327393301" id="-20085">
=======
	<node id="-425981" lat="59.8368527796" lon="8.95730832739">
>>>>>>> e1d4bc35ff8a6074a6f2e91616a996b547c36f15
		<tag k="bridge" v="yes" />
		<tag k="layer" v="1" />
		<tag k="name" v="Haukedalsbekken" />
		<tag k="ssr:stedsnr" v="775317" />
	</node>
<<<<<<< HEAD
	<node lat="59.73608888845088" lon="9.313961108509382" id="-20086">
=======
	<node id="-424443" lat="59.5943333324" lon="9.09142777">
>>>>>>> e1d4bc35ff8a6074a6f2e91616a996b547c36f15
		<tag k="bridge" v="yes" />
		<tag k="layer" v="1" />
		<tag k="name" v="Juvbekk" />
		<tag k="ssr:stedsnr" v="775318" />
	</node>
<<<<<<< HEAD
	<node lat="59.63136944417263" lon="9.27796666988369" id="-20087">
		<tag k="bridge" v="yes" />
		<tag k="layer" v="1" />
		<tag k="name" v="Lonvadet" />
		<tag k="ssr:stedsnr" v="775322" />
	</node>
	<node lat="59.74769722195801" lon="9.120208333862012" id="-20088">
=======
	<node id="-426484" lat="59.5185444442" lon="9.34208610358">
		<tag k="bridge" v="yes" />
		<tag k="layer" v="1" />
		<tag k="name" v="Steinbrua" />
		<tag k="ssr:stedsnr" v="104080" />
	</node>
	<node id="-425472" lat="59.6631833329" lon="8.88648611738">
		<tag k="name" v="Fantevelta" />
		<tag k="place" v="locality" />
		<tag k="ssr:stedsnr" v="713979" />
	</node>
	<node id="-428005" lat="59.8312972179" lon="8.98278332848">
		<tag k="fixme" v="verify maritime location" />
		<tag k="mooring" v="yes" />
		<tag k="name" v="Flåtåstå" />
		<tag k="place" v="locality" />
		<tag k="ssr:stedsnr" v="831097" />
	</node>
	<node id="-425955" lat="59.4896805576" lon="9.31744166756">
		<tag k="fixme" v="verify maritime location" />
		<tag k="mooring" v="yes" />
		<tag k="name" v="Sugards-stå" />
		<tag k="place" v="locality" />
		<tag k="ssr:stedsnr" v="771854" />
	</node>
	<node id="-426465" lat="59.839644441" lon="8.87276110619">
		<tag k="ford" v="yes" />
		<tag k="name" v="Føkjåstavaet" />
		<tag k="place" v="locality" />
		<tag k="ssr:stedsnr" v="101837" />
	</node>
	<node id="-424928" lat="59.5193416667" lon="9.37742500069">
>>>>>>> e1d4bc35ff8a6074a6f2e91616a996b547c36f15
		<tag k="bridge" v="yes" />
		<tag k="layer" v="1" />
		<tag k="name" v="Sandaroi" />
		<tag k="ssr:stedsnr" v="775325" />
	</node>
<<<<<<< HEAD
	<node lat="59.712447226050244" lon="9.23389166917096" id="-20094">
		<tag k="name" v="Sandviksvelta" />
=======
	<node id="-425437" lat="59.6169777749" lon="9.27805555633">
		<tag k="name" v="Radalsvelta" />
>>>>>>> e1d4bc35ff8a6074a6f2e91616a996b547c36f15
		<tag k="place" v="locality" />
		<tag k="ssr:stedsnr" v="785254" />
	</node>
<<<<<<< HEAD
	<node lat="59.717969441228234" lon="9.195052771241965" id="-20101">
		<tag k="name" v="Småveltun" />
=======
	<node id="-425947" lat="59.5325944467" lon="9.37571110742">
		<tag k="junction" v="yes" />
		<tag k="name" v="Kollset-åmotet" />
>>>>>>> e1d4bc35ff8a6074a6f2e91616a996b547c36f15
		<tag k="place" v="locality" />
		<tag k="ssr:stedsnr" v="787783" />
	</node>
<<<<<<< HEAD
	<node lat="59.81332499629924" lon="8.94817499579001" id="-20185">
=======
	<node id="-425807" lat="59.6776888903" lon="8.87477500595">
		<tag k="name" v="Siljudalsvelta" />
		<tag k="place" v="locality" />
		<tag k="ssr:stedsnr" v="895968" />
	</node>
	<node id="-427992" lat="59.8133249963" lon="8.94817499579">
>>>>>>> e1d4bc35ff8a6074a6f2e91616a996b547c36f15
		<tag k="bridge" v="yes" />
		<tag k="layer" v="1" />
		<tag k="name" v="Sveigarbru" />
		<tag k="ssr:stedsnr" v="829987" />
	</node>
<<<<<<< HEAD
	<node lat="59.83129721786661" lon="8.98278332847727" id="-20194">
		<tag k="fixme" v="verify maritime location" />
		<tag k="mooring" v="yes" />
		<tag k="name" v="Flåtåstå" />
=======
	<node id="-425429" lat="59.6691472249" lon="9.07996111166">
		<tag k="highway" v="path" />
		<tag k="name" v="Gurosbakke" />
		<tag k="ssr:stedsnr" v="590408" />
	</node>
	<node id="-425427" lat="59.61984167" lon="9.27127500675">
		<tag k="name" v="Hovevelta" />
		<tag k="place" v="locality" />
		<tag k="ssr:stedsnr" v="711981" />
	</node>
	<node id="-426445" lat="59.5559222209" lon="9.36167778233">
		<tag k="ford" v="yes" />
		<tag k="name" v="Vaet" />
		<tag k="place" v="locality" />
		<tag k="ssr:stedsnr" v="98179" />
	</node>
	<node id="-424378" lat="59.7392138895" lon="9.29262222967">
		<tag k="ford" v="yes" />
		<tag k="name" v="Juvbekk-kleiva" />
>>>>>>> e1d4bc35ff8a6074a6f2e91616a996b547c36f15
		<tag k="place" v="locality" />
		<tag k="ssr:stedsnr" v="831097" />
	</node>
<<<<<<< HEAD
	<node lat="59.72228610852253" lon="9.198205555375829" id="-20230">
		<tag k="name" v="Kleivbekkvelta" />
		<tag k="place" v="locality" />
		<tag k="ssr:stedsnr" v="848513" />
	</node>
	<node lat="59.67768889029905" lon="8.8747750059488" id="-20327">
		<tag k="name" v="Siljudalsvelta" />
=======
	<node id="-425397" lat="59.4923638927" lon="9.34846389487">
		<tag k="ford" v="yes" />
		<tag k="name" v="Slettavadet" />
		<tag k="place" v="locality" />
		<tag k="ssr:stedsnr" v="711594" />
	</node>
	<node id="-427949" lat="59.6917055593" lon="9.04366111245">
		<tag k="name" v="Gransherad stasjon" />
		<tag k="railway" v="station" />
		<tag k="ssr:stedsnr" v="792150" />
		<tag k="train" v="yes" />
	</node>
	<node id="-425386" lat="59.5537916659" lon="8.99048333871">
		<tag k="ford" v="yes" />
		<tag k="name" v="Rognelivaet" />
>>>>>>> e1d4bc35ff8a6074a6f2e91616a996b547c36f15
		<tag k="place" v="locality" />
		<tag k="ssr:stedsnr" v="895968" />
	</node>
<<<<<<< HEAD
	<node lat="59.73176111227937" lon="9.341208337271363" id="-20374">
=======
	<node id="-424354" lat="59.7317611123" lon="9.34120833727">
>>>>>>> e1d4bc35ff8a6074a6f2e91616a996b547c36f15
		<tag k="bridge" v="yes" />
		<tag k="layer" v="1" />
		<tag k="name" v="Dale" />
		<tag k="ssr:stedsnr" v="228727" />
	</node>
<<<<<<< HEAD
	<node lat="59.565738889393415" lon="9.2064027719651" id="-20428">
		<tag k="bridge" v="yes" />
		<tag k="layer" v="1" />
		<tag k="name" v="Heddøla" />
		<tag k="ssr:stedsnr" v="957344" />
	</node>
	<node lat="59.64043888849447" lon="9.279558340671363" id="-20434">
=======
	<node id="-424352" lat="59.6106694434" lon="9.0188111159">
		<tag k="bridge" v="yes" />
		<tag k="layer" v="1" />
		<tag k="name" v="Sauerkåsa" />
		<tag k="ssr:stedsnr" v="228400" />
	</node>
	<node id="-427417" lat="59.6945250032" lon="9.08719166822">
		<tag k="bridge" v="yes" />
		<tag k="layer" v="1" />
		<tag k="name" v="Evju" />
		<tag k="ssr:stedsnr" v="532678" />
	</node>
	<node id="-427416" lat="59.8547138877" lon="8.94039999384">
		<tag k="bridge" v="yes" />
		<tag k="layer" v="1" />
		<tag k="name" v="Russå" />
		<tag k="ssr:stedsnr" v="532340" />
	</node>
	<node id="-427415" lat="59.8704749958" lon="8.92586389199">
		<tag k="bridge" v="yes" />
		<tag k="layer" v="1" />
		<tag k="name" v="Jønjiljo halvbru" />
		<tag k="ssr:stedsnr" v="532335" />
	</node>
	<node id="-424854" lat="59.7457833309" lon="9.07912222307">
		<tag k="name" v="Diplevelta" />
		<tag k="place" v="locality" />
		<tag k="ssr:stedsnr" v="302413" />
	</node>
	<node id="-424339" lat="59.6201138899" lon="9.25070834118">
		<tag k="name" v="Nykåsvelta" />
		<tag k="place" v="locality" />
		<tag k="ssr:stedsnr" v="226984" />
	</node>
	<node id="-425362" lat="59.6944972205" lon="9.19530555528">
		<tag k="name" v="Løytingsvelta" />
		<tag k="place" v="locality" />
		<tag k="ssr:stedsnr" v="709727" />
	</node>
	<node id="-427917" lat="59.7179694412" lon="9.19505277124">
		<tag k="name" v="Småveltun" />
		<tag k="place" v="locality" />
		<tag k="ssr:stedsnr" v="787783" />
	</node>
	<node id="-426390" lat="59.7256999986" lon="9.16886388506">
		<tag k="junction" v="yes" />
		<tag k="name" v="Ormemyr" />
		<tag k="place" v="locality" />
		<tag k="ssr:stedsnr" v="63095" />
	</node>
	<node id="-427905" lat="59.7124472261" lon="9.23389166917">
		<tag k="name" v="Sandviksvelta" />
		<tag k="place" v="locality" />
		<tag k="ssr:stedsnr" v="785254" />
	</node>
	<node id="-428111" lat="59.7222861085" lon="9.19820555538">
		<tag k="name" v="Kleivbekkvelta" />
		<tag k="place" v="locality" />
		<tag k="ssr:stedsnr" v="848513" />
	</node>
	<node id="-426362" lat="59.8689499989" lon="8.92927777605">
>>>>>>> e1d4bc35ff8a6074a6f2e91616a996b547c36f15
		<tag k="bridge" v="yes" />
		<tag k="layer" v="1" />
		<tag k="name" v="Hellevassbru" />
		<tag k="ssr:stedsnr" v="968836" />
	</node>
<<<<<<< HEAD
	<node lat="59.592155554211686" lon="9.363636117119809" id="-20612">
=======
	<node id="-426361" lat="59.5921555542" lon="9.36363611712">
>>>>>>> e1d4bc35ff8a6074a6f2e91616a996b547c36f15
		<tag k="bridge" v="yes" />
		<tag k="layer" v="1" />
		<tag k="name" v="Sløkedal" />
		<tag k="ssr:stedsnr" v="46383" />
	</node>
<<<<<<< HEAD
	<node lat="59.86894999885774" lon="8.929277776052412" id="-20614">
=======
	<node id="-426358" lat="59.6722999992" lon="8.91737777852">
		<tag k="highway" v="path" />
		<tag k="name" v="Åsvegen" />
		<tag k="ssr:stedsnr" v="45980" />
	</node>
	<node id="-427381" lat="59.6247388856" lon="9.23923610518">
>>>>>>> e1d4bc35ff8a6074a6f2e91616a996b547c36f15
		<tag k="bridge" v="yes" />
		<tag k="layer" v="1" />
		<tag k="name" v="Degeråi" />
		<tag k="ssr:stedsnr" v="46730" />
	</node>
<<<<<<< HEAD
	<node lat="59.72569999859667" lon="9.168863885057274" id="-20630">
		<tag k="junction" v="yes" />
		<tag k="name" v="Ormemyr" />
		<tag k="place" v="locality" />
		<tag k="ssr:stedsnr" v="63095" />
	</node>
	<node lat="59.83964444101295" lon="8.872761106187479" id="-20678">
		<tag k="ford" v="yes" />
		<tag k="name" v="Føkjåstavaet" />
		<tag k="place" v="locality" />
		<tag k="ssr:stedsnr" v="101837" />
	</node>
	<node lat="59.518544444242735" lon="9.342086103579566" id="-20690">
=======
	<node id="-424820" lat="59.5039916702" lon="9.31970834209">
		<tag k="fixme" v="verify maritime location" />
		<tag k="mooring" v="yes" />
		<tag k="name" v="Røste-stå" />
		<tag k="place" v="locality" />
		<tag k="ssr:stedsnr" v="468825" />
	</node>
	<node id="-426346" lat="59.6416694465" lon="9.06320833">
		<tag k="man_made" v="cairn" />
		<tag k="name" v="Sauarvarden" />
		<tag k="place" v="locality" />
		<tag k="ssr:stedsnr" v="45204" />
	</node>
	<node id="-427239" lat="59.5581611151" lon="9.2536833332">
		<tag k="bridge" v="yes" />
		<tag k="layer" v="1" />
		<tag k="name" v="Tinnåa" />
		<tag k="ssr:stedsnr" v="410378" />
	</node>
	<node id="-424278" lat="59.6820694455" lon="9.15231944772">
		<tag k="name" v="Årlifoss stasjon" />
		<tag k="railway" v="station" />
		<tag k="ssr:stedsnr" v="226061" />
		<tag k="train" v="yes" />
	</node>
	<node id="-425810" lat="59.7362305512" lon="9.22544443844">
>>>>>>> e1d4bc35ff8a6074a6f2e91616a996b547c36f15
		<tag k="bridge" v="yes" />
		<tag k="layer" v="1" />
		<tag k="name" v="Steinbrua" />
		<tag k="ssr:stedsnr" v="104080" />
	</node>
<<<<<<< HEAD
	<node lat="59.59970277972416" lon="9.12234444924921" id="-20748">
=======
	<node id="-425809" lat="59.6899722251" lon="9.03551110523">
>>>>>>> e1d4bc35ff8a6074a6f2e91616a996b547c36f15
		<tag k="bridge" v="yes" />
		<tag k="layer" v="1" />
		<tag k="name" v="Gruffihaug" />
		<tag k="ssr:stedsnr" v="107358" />
	</node>
<<<<<<< HEAD
	<node lat="59.68714722102843" lon="9.267519448515317" id="-20749">
		<tag k="bridge" v="yes" />
		<tag k="layer" v="1" />
		<tag k="name" v="Jonsrud" />
		<tag k="ssr:stedsnr" v="107359" />
	</node>
	<node lat="59.59618333539811" lon="9.376455555476118" id="-20750">
=======
	<node id="-425808" lat="59.6178611128" lon="9.28114167504">
		<tag k="bridge" v="yes" />
		<tag k="layer" v="1" />
		<tag k="name" v="Haave" />
		<tag k="ssr:stedsnr" v="896381" />
	</node>
	<node id="-428367" lat="58.9440068917" lon="9.63791772882">
		<tag k="name" v="Tonerhavn" />
		<tag k="place" v="locality" />
		<tag k="ssr:stedsnr" v="1074516" />
	</node>
	<node id="-424775" lat="59.700713889" lon="9.01266110697">
>>>>>>> e1d4bc35ff8a6074a6f2e91616a996b547c36f15
		<tag k="bridge" v="yes" />
		<tag k="layer" v="1" />
		<tag k="name" v="Mollskot" />
		<tag k="ssr:stedsnr" v="107368" />
	</node>
<<<<<<< HEAD
	<node lat="59.706844441171434" lon="9.150613884898679" id="-20751">
=======
	<node id="-424774" lat="59.6012305518" lon="9.26976944901">
>>>>>>> e1d4bc35ff8a6074a6f2e91616a996b547c36f15
		<tag k="bridge" v="yes" />
		<tag k="layer" v="1" />
		<tag k="name" v="Tjågeåsen" />
		<tag k="ssr:stedsnr" v="107370" />
	</node>
<<<<<<< HEAD
	<node lat="59.70837778183806" lon="9.244794436595651" id="-20766">
=======
	<node id="-424273" lat="59.49095" lon="9.31698333543">
>>>>>>> e1d4bc35ff8a6074a6f2e91616a996b547c36f15
		<tag k="fixme" v="verify maritime location" />
		<tag k="mooring" v="yes" />
		<tag k="name" v="Naustet" />
		<tag k="place" v="locality" />
		<tag k="ssr:stedsnr" v="119572" />
	</node>
<<<<<<< HEAD
	<node lat="59.66675833351344" lon="9.11852221923873" id="-20858">
		<tag k="name" v="Rullen" />
		<tag k="place" v="locality" />
		<tag k="ssr:stedsnr" v="165442" />
	</node>
	<node lat="59.68206944554624" lon="9.152319447723185" id="-20994">
		<tag k="name" v="Årlifoss stasjon" />
		<tag k="railway" v="station" />
		<tag k="ssr:stedsnr" v="226061" />
		<tag k="train" v="yes" />
	</node>
	<node lat="59.66422500113816" lon="8.881888890501978" id="-21035">
		<tag k="name" v="Brennevelta" />
=======
	<node id="-424761" lat="59.6570472212" lon="9.20675833965">
		<tag k="landuse" v="industrial" />
		<tag k="name" v="Grønvollfoss" />
		<tag k="power" v="plant" />
		<tag k="ssr:stedsnr" v="287803" />
	</node>
	<node id="-426807" lat="59.5657638883" lon="9.2157250026">
		<tag k="aeroway" v="aerodrome" />
		<tag k="name" v="Notodden flyplass, Tuven" />
		<tag k="ssr:stedsnr" v="185336" />
	</node>
	<node id="-427824" lat="59.8277722249" lon="8.99605554682">
		<tag k="name" v="Grasbergvelta" />
>>>>>>> e1d4bc35ff8a6074a6f2e91616a996b547c36f15
		<tag k="place" v="locality" />
		<tag k="ssr:stedsnr" v="227960" />
	</node>
<<<<<<< HEAD
	<node lat="59.621938890209655" lon="9.428480550696873" id="-21090">
		<tag k="man_made" v="cairn" />
		<tag k="name" v="Vipetovarden" />
		<tag k="place" v="locality" />
		<tag k="ssr:stedsnr" v="288116" />
	</node>
	<node lat="59.521094447357825" lon="9.308216658887233" id="-21097">
		<tag k="fixme" v="verify maritime location" />
		<tag k="mooring" v="yes" />
		<tag k="name" v="Sudstå" />
		<tag k="place" v="locality" />
		<tag k="ssr:stedsnr" v="288820" />
	</node>
	<node lat="59.60123055176517" lon="9.269769449006109" id="-21100">
=======
	<node id="-424411" lat="59.5657194443" lon="9.38458889436">
		<tag k="name" v="Øysteinstul stasjon" />
		<tag k="railway" v="station" />
		<tag k="ssr:stedsnr" v="64809" />
		<tag k="train" v="yes" />
	</node>
	<node id="-427802" lat="59.6964749981" lon="9.10266389562">
		<tag k="bridge" v="yes" />
		<tag k="layer" v="1" />
		<tag k="name" v="Folsland" />
		<tag k="ssr:stedsnr" v="653701" />
	</node>
	<node id="-427801" lat="59.5572166626" lon="9.25631110633">
		<tag k="bridge" v="yes" />
		<tag k="layer" v="1" />
		<tag k="name" v="Rallarparken" />
		<tag k="ssr:stedsnr" v="653355" />
	</node>
	<node id="-427800" lat="59.6980027748" lon="9.01462500325">
		<tag k="bridge" v="yes" />
		<tag k="layer" v="1" />
		<tag k="name" v="Oterbekk" />
		<tag k="ssr:stedsnr" v="653353" />
	</node>
	<node id="-427799" lat="59.8795722233" lon="8.91348611842">
		<tag k="bridge" v="yes" />
		<tag k="layer" v="1" />
		<tag k="name" v="Faane" />
		<tag k="ssr:stedsnr" v="653347" />
	</node>
	<node id="-426883" lat="59.4922722202" lon="9.33385000059">
		<tag k="name" v="Hjuksebø" />
		<tag k="railway" v="station" />
		<tag k="ssr:stedsnr" v="306085" />
		<tag k="train" v="yes" />
	</node>
	<node id="-424718" lat="59.6612972205" lon="9.27362777766">
		<tag k="ford" v="yes" />
		<tag k="name" v="Fossbuvada" />
		<tag k="place" v="locality" />
		<tag k="ssr:stedsnr" v="245924" />
	</node>
	<node id="-427276" lat="59.6565444426" lon="8.97474444421">
		<tag k="highway" v="path" />
		<tag k="name" v="Åsvegen" />
		<tag k="ssr:stedsnr" v="428182" />
	</node>
	<node id="-428294" lat="59.6404388885" lon="9.27955834067">
>>>>>>> e1d4bc35ff8a6074a6f2e91616a996b547c36f15
		<tag k="bridge" v="yes" />
		<tag k="layer" v="1" />
		<tag k="name" v="Høymyr" />
		<tag k="ssr:stedsnr" v="289360" />
	</node>
<<<<<<< HEAD
	<node lat="59.70071388902061" lon="9.012661106965128" id="-21101">
=======
	<node id="-424703" lat="59.6843444454" lon="9.14550554825">
>>>>>>> e1d4bc35ff8a6074a6f2e91616a996b547c36f15
		<tag k="bridge" v="yes" />
		<tag k="layer" v="1" />
		<tag k="name" v="Mjellekås" />
		<tag k="ssr:stedsnr" v="289364" />
	</node>
<<<<<<< HEAD
	<node lat="59.74578333090234" lon="9.07912222307308" id="-21125">
		<tag k="name" v="Diplevelta" />
		<tag k="place" v="locality" />
		<tag k="ssr:stedsnr" v="302413" />
	</node>
	<node lat="59.492272220208456" lon="9.333850000593875" id="-21130">
		<tag k="name" v="Hjuksebø" />
		<tag k="railway" v="station" />
		<tag k="ssr:stedsnr" v="306085" />
		<tag k="train" v="yes" />
=======
	<node id="-424701" lat="59.6642250011" lon="8.8818888905">
		<tag k="name" v="Brennevelta" />
		<tag k="place" v="locality" />
		<tag k="ssr:stedsnr" v="227960" />
	</node>
	<node id="-428278" lat="59.598191663" lon="9.1281333255">
		<tag k="bridge" v="yes" />
		<tag k="layer" v="1" />
		<tag k="name" v="Brukås" />
		<tag k="ssr:stedsnr" v="957673" />
	</node>
	<node id="-428277" lat="59.5369250042" lon="9.26101388511">
		<tag k="bridge" v="yes" />
		<tag k="layer" v="1" />
		<tag k="name" v="Strånd" />
		<tag k="ssr:stedsnr" v="957357" />
>>>>>>> e1d4bc35ff8a6074a6f2e91616a996b547c36f15
	</node>
	<node id="-426732" lat="59.6667583335" lon="9.11852221924">
		<tag k="name" v="Rullen" />
		<tag k="place" v="locality" />
		<tag k="ssr:stedsnr" v="165442" />
	</node>
	<node id="-427243" lat="59.7760166707" lon="9.00938054865">
		<tag k="bridge" v="yes" />
		<tag k="layer" v="1" />
		<tag k="name" v="Bergåa" />
		<tag k="ssr:stedsnr" v="410692" />
	</node>
	<node id="-424679" lat="59.5210944474" lon="9.30821665889">
		<tag k="fixme" v="verify maritime location" />
		<tag k="mooring" v="yes" />
		<tag k="name" v="Sudstå" />
		<tag k="place" v="locality" />
		<tag k="ssr:stedsnr" v="288820" />
	</node>
	<node id="-427238" lat="59.5121361085" lon="9.32213056058">
		<tag k="bridge" v="yes" />
		<tag k="layer" v="1" />
		<tag k="name" v="Hjukse" />
		<tag k="ssr:stedsnr" v="410279" />
	</node>
	<node id="-424675" lat="59.6219388902" lon="9.4284805507">
		<tag k="man_made" v="cairn" />
		<tag k="name" v="Vipetovarden" />
		<tag k="place" v="locality" />
		<tag k="ssr:stedsnr" v="288116" />
	</node>
	<node id="-424674" lat="59.5923944437" lon="9.35481666637">
		<tag k="alt_name" v="Tovstul" />
		<tag k="bridge" v="yes" />
		<tag k="layer" v="1" />
		<tag k="name" v="Tovestulbrua" />
		<tag k="ssr:stedsnr" v="288029" />
	</node>
	<node id="-426206" lat="59.566199996" lon="9.36852778001">
		<tag k="alt_name" v="Oksevaet" />
		<tag k="ford" v="yes" />
		<tag k="name" v="Oksevad" />
		<tag k="place" v="locality" />
		<tag k="ssr:stedsnr" v="3789" />
	</node>
	<node id="-425650" lat="59.814855553" lon="8.98822777216">
		<tag k="bridge" v="yes" />
		<tag k="layer" v="1" />
		<tag k="name" v="Busnesbekken" />
		<tag k="ssr:stedsnr" v="653696" />
	</node>
	<node id="-425131" lat="59.604349998" lon="9.27828333243">
		<tag k="name" v="Lisleherad" />
		<tag k="railway" v="station" />
		<tag k="ssr:stedsnr" v="428823" />
		<tag k="train" v="yes" />
	</node>
	<node id="-425123" lat="59.530580558" lon="9.3026555487">
		<tag k="alt_name" v="Tinnegrend st." />
		<tag k="name" v="Tinnegrend" />
		<tag k="railway" v="station" />
		<tag k="ssr:stedsnr" v="428723" />
		<tag k="train" v="yes" />
	</node>
	<node id="-424608" lat="59.7690638912" lon="9.08205832622">
		<tag k="name" v="Vetterstoa" />
		<tag k="place" v="locality" />
		<tag k="ssr:stedsnr" v="180406" />
	</node>
	<node id="-426631" lat="59.6869861124" lon="9.11306666603">
		<tag k="bridge" v="yes" />
		<tag k="layer" v="1" />
		<tag k="name" v="Gaupesprang" />
		<tag k="ssr:stedsnr" v="124115" />
	</node>
	<node id="-426116" lat="59.5657388894" lon="9.20640277197">
		<tag k="bridge" v="yes" />
		<tag k="layer" v="1" />
		<tag k="name" v="Heddøla" />
		<tag k="ssr:stedsnr" v="957344" />
	</node>
	<node id="-424576" lat="59.8422583334" lon="8.85230555177">
		<tag k="man_made" v="cairn" />
		<tag k="name" v="Fenta" />
		<tag k="place" v="locality" />
		<tag k="ssr:stedsnr" v="283827" />
	</node>
	<node id="-427882" lat="59.7234194448" lon="9.02501943608">
		<tag k="name" v="Tinnoset stasjon" />
		<tag k="railway" v="station" />
		<tag k="ssr:stedsnr" v="772997" />
		<tag k="train" v="yes" />
	</node>
	<node id="-424565" lat="59.5616999984" lon="9.26719721699">
		<tag k="bridge" v="yes" />
		<tag k="layer" v="1" />
		<tag k="name" v="Bekkekulvert" />
		<tag k="ssr:stedsnr" v="168668" />
	</node>
	<node id="-424564" lat="59.5607305542" lon="9.2658027755">
		<tag k="bridge" v="yes" />
		<tag k="layer" v="1" />
		<tag k="name" v="Stasjonsbakken" />
		<tag k="ssr:stedsnr" v="168361" />
	</node>
	<node id="-426611" lat="59.7083777818" lon="9.2447944366">
		<tag k="fixme" v="verify maritime location" />
		<tag k="mooring" v="yes" />
		<tag k="name" v="Naustet" />
		<tag k="place" v="locality" />
		<tag k="ssr:stedsnr" v="119572" />
	</node>
	<node id="-427106" lat="59.6161083295" lon="9.28123333665">
		<tag k="name" v="Håve" />
		<tag k="railway" v="station" />
		<tag k="ssr:stedsnr" v="367853" />
		<tag k="train" v="yes" />
	</node>
	<node id="-426593" lat="59.7068444412" lon="9.1506138849">
		<tag k="bridge" v="yes" />
		<tag k="layer" v="1" />
		<tag k="name" v="Tjågeåsen" />
		<tag k="ssr:stedsnr" v="107370" />
	</node>
	<node id="-426592" lat="59.5961833354" lon="9.37645555548">
		<tag k="bridge" v="yes" />
		<tag k="layer" v="1" />
		<tag k="name" v="Mollskot" />
		<tag k="ssr:stedsnr" v="107368" />
	</node>
	<node id="-426591" lat="59.687147221" lon="9.26751944852">
		<tag k="bridge" v="yes" />
		<tag k="layer" v="1" />
		<tag k="name" v="Jonsrud" />
		<tag k="ssr:stedsnr" v="107359" />
	</node>
	<node id="-426590" lat="59.5997027797" lon="9.12234444925">
		<tag k="bridge" v="yes" />
		<tag k="layer" v="1" />
		<tag k="name" v="Gruffihaug" />
		<tag k="ssr:stedsnr" v="107358" />
	</node>
	<node id="-424533" lat="59.5766555591" lon="9.03406945286">
		<tag k="man_made" v="cairn" />
		<tag k="name" v="Ruken" />
		<tag k="place" v="locality" />
		<tag k="ssr:stedsnr" v="165074" />
	</node>
	<node id="-424527" lat="59.5596027783" lon="9.22392222944">
		<tag k="man_made" v="quay" />
		<tag k="name" v="Tangebrygga" />
		<tag k="place" v="locality" />
		<tag k="ssr:stedsnr" v="165115" />
	</node>
	<node id="-428108" lat="59.7476749982" lon="9.02099999303">
		<tag k="fixme" v="verify maritime location" />
		<tag k="mooring" v="yes" />
		<tag k="name" v="Loftstå" />
		<tag k="place" v="locality" />
		<tag k="ssr:stedsnr" v="848302" />
	</node>
	<node id="-425545" lat="59.7257333344" lon="8.99884721754">
		<tag k="alt_name" v="Brekkevaet" />
		<tag k="ford" v="yes" />
		<tag k="name" v="Brekkevadet" />
		<tag k="place" v="locality" />
		<tag k="ssr:stedsnr" v="731079" />
	</node>
	<node id="-427590" lat="59.6514722207" lon="9.21396666111">
		<tag k="name" v="Grønvollfoss" />
		<tag k="railway" v="station" />
		<tag k="ssr:stedsnr" v="590772" />
		<tag k="train" v="yes" />
	</node>
	<node id="-426565" lat="59.5484027784" lon="9.35536110536">
		<tag k="name" v="Brontangvelta" />
		<tag k="place" v="locality" />
		<tag k="ssr:stedsnr" v="106082" />
	</node>
	<node id="-425527" lat="59.7184083299" lon="9.29688333965">
		<tag k="fixme" v="consider highway=path" />
		<tag k="highway" v="track" />
		<tag k="name" v="Gamle Kongsbergvegen" />
		<tag k="ssr:stedsnr" v="725512" />
	</node>
	<node id="-428086" lat="59.5612611093" lon="9.25659445202">
		<tag k="bridge" v="yes" />
		<tag k="layer" v="1" />
		<tag k="name" v="Undergang Tinnesgata" />
		<tag k="ssr:stedsnr" v="836318" />
	</node>
	<node id="-428084" lat="59.5591888902" lon="9.16765833509">
		<tag k="bridge" v="yes" />
		<tag k="layer" v="1" />
		<tag k="name" v="Roe" />
		<tag k="ssr:stedsnr" v="835378" />
	</node>
	<node id="-427049" lat="59.7027083338" lon="9.25568055091">
		<tag k="name" v="Dalvikvelta" />
		<tag k="place" v="locality" />
		<tag k="ssr:stedsnr" v="362541" />
	</node>
	<node id="-424999" lat="59.5870527751" lon="9.15864443869">
		<tag k="bridge" v="yes" />
		<tag k="layer" v="1" />
		<tag k="name" v="Smedsrud" />
		<tag k="ssr:stedsnr" v="350323" />
	</node>
	<node id="-424998" lat="59.5600916638" lon="9.24842222111">
		<tag k="bridge" v="yes" />
		<tag k="layer" v="1" />
		<tag k="name" v="Nesøya" />
		<tag k="ssr:stedsnr" v="350320" />
	</node>
	<node id="-428064" lat="59.6479638862" lon="9.12460555689">
		<tag k="ford" v="yes" />
		<tag k="name" v="Rekåvaet" />
		<tag k="place" v="locality" />
		<tag k="ssr:stedsnr" v="833897" />
	</node>
	<node id="-426012" lat="59.5612333314" lon="9.19449166652">
		<tag k="junction" v="yes" />
		<tag k="name" v="Ylisvingen" />
		<tag k="place" v="locality" />
		<tag k="ssr:stedsnr" v="833111" />
	</node>
	<node id="-427029" lat="59.5111638925" lon="9.32608333793">
		<tag k="bridge" v="yes" />
		<tag k="layer" v="1" />
		<tag k="name" v="Hjuksevelta" />
		<tag k="ssr:stedsnr" v="350240" />
	</node>
	<node id="-426499" lat="59.4881055566" lon="9.31787500547">
		<tag k="fixme" v="verify maritime location" />
		<tag k="mooring" v="yes" />
		<tag k="name" v="Jønsi-ståin" />
		<tag k="place" v="locality" />
		<tag k="ssr:stedsnr" v="104833" />
	</node>
	<node id="-427536" lat="59.7650388867" lon="9.08279443751">
		<tag k="name" v="Reisjåberget" />
		<tag k="place" v="locality" />
		<tag k="ssr:stedsnr" v="587589" />
	</node>
	<node id="-424462" lat="59.5177333328" lon="9.31646389224">
		<tag k="name" v="Tveitan" />
		<tag k="railway" v="station" />
		<tag k="ssr:stedsnr" v="246697" />
		<tag k="train" v="yes" />
	</node>
	<node id="-428036" lat="59.6104944481" lon="9.01946667409">
		<tag k="junction" v="yes" />
		<tag k="name" v="Ørvella" />
		<tag k="place" v="locality" />
		<tag k="ssr:stedsnr" v="833150" />
	</node>
	<node id="-425475" lat="59.8500944473" lon="8.94215555475">
		<tag k="bridge" v="yes" />
		<tag k="layer" v="1" />
		<tag k="name" v="Svalestubekken" />
		<tag k="ssr:stedsnr" v="714316" />
	</node>
	<node id="-425474" lat="59.7102916696" lon="9.01242222706">
		<tag k="bridge" v="yes" />
		<tag k="layer" v="1" />
		<tag k="name" v="Kaala" />
		<tag k="ssr:stedsnr" v="714314" />
	</node>
</osm>
