<?xml version="1.0" encoding="UTF-8"?>
<osm generator="osmapis" version="0.6">
	<node id="-425340" lat="59.6473361115" lon="9.3117611171">
		<tag k="fixme" v="consider boundary=protected_area and relevant protect_class if not nature reserve" />
		<tag k="leisure" v="nature_reserve" />
		<tag k="name" v="Elferdalen naturreservat" />
		<tag k="ssr:stedsnr" v="707465" />
	</node>
	<node id="-428059" lat="59.5958194409" lon="9.40391110364">
		<tag k="historic" v="boundary_stone" />
		<tag k="man_made" v="cairn" />
		<tag k="name" v="Mågrohella" />
		<tag k="place" v="locality" />
		<tag k="ssr:stedsnr" v="834010" />
	</node>
	<node id="-424823" lat="59.7375722226" lon="9.06142222904">
		<tag k="historic" v="boundary_stone" />
		<tag k="man_made" v="cairn" />
		<tag k="name" v="Store stein" />
		<tag k="place" v="locality" />
		<tag k="ssr:stedsnr" v="468987" />
	</node>
	<node id="-428361" lat="59.6219662725" lon="9.41049019003">
		<tag k="fixme" v="consider boundary=protected_area and relevant protect_class if not nature reserve" />
		<tag k="leisure" v="nature_reserve" />
		<tag k="name" v="Fjellstulfjellet naturreservat" />
		<tag k="ssr:stedsnr" v="982702" />
	</node>
	<node id="-426388" lat="59.7722749994" lon="9.1790944483">
		<tag k="fixme" v="consider boundary=protected_area and relevant protect_class if not nature reserve" />
		<tag k="leisure" v="nature_reserve" />
		<tag k="name" v="Omnflug naturreservat" />
		<tag k="ssr:stedsnr" v="60908" />
	</node>
	<node id="-427987" lat="59.6171527752" lon="9.32736111582">
		<tag k="fixme" v="consider boundary=protected_area and relevant protect_class if not nature reserve" />
		<tag k="leisure" v="nature_reserve" />
		<tag k="name" v="Flaaten naturreservat" />
		<tag k="ssr:stedsnr" v="829467" />
	</node>
	<node id="-428370" lat="59.479039738" lon="9.47562001218">
		<tag k="fixme" v="consider boundary=protected_area and relevant protect_class if not nature reserve" />
		<tag k="leisure" v="nature_reserve" />
		<tag k="name" v="Skrim og Sauheradfjella naturreservat" />
		<tag k="ssr:stedsnr" v="971505" />
	</node>
	<node id="-426754" lat="59.6331916681" lon="9.04995555181">
		<tag k="historic" v="boundary_stone" />
		<tag k="man_made" v="cairn" />
		<tag k="name" v="Nordigardsvarden" />
		<tag k="place" v="locality" />
		<tag k="ssr:stedsnr" v="166237" />
	</node>
	<node id="-426733" lat="59.665605559" lon="9.08801388597">
		<tag k="historic" v="boundary_stone" />
		<tag k="man_made" v="cairn" />
		<tag k="name" v="Bjønnegråna" />
		<tag k="place" v="locality" />
		<tag k="ssr:stedsnr" v="165445" />
	</node>
	<node id="-426946" lat="59.5665666702" lon="9.40005833445">
		<tag k="historic" v="boundary_stone" />
		<tag k="man_made" v="cairn" />
		<tag k="name" v="Kvitehelle" />
		<tag k="place" v="locality" />
		<tag k="ssr:stedsnr" v="340215" />
	</node>
	<node id="-426474" lat="59.6887861074" lon="8.91598611958">
		<tag k="historic" v="boundary_stone" />
		<tag k="man_made" v="cairn" />
		<tag k="name" v="Bodikbuven" />
		<tag k="place" v="locality" />
		<tag k="ssr:stedsnr" v="102358" />
	</node>
	<node id="-425961" lat="59.5978111116" lon="9.22791389026">
		<tag k="historic" v="boundary_stone" />
		<tag k="man_made" v="cairn" />
		<tag k="name" v="Femmannsdele" />
		<tag k="place" v="locality" />
		<tag k="ssr:stedsnr" v="772515" />
	</node>
	<node id="-425414" lat="59.5630750035" lon="9.01911111355">
		<tag k="historic" v="boundary_stone" />
		<tag k="man_made" v="cairn" />
		<tag k="name" v="Breistulruken" />
		<tag k="place" v="locality" />
		<tag k="ssr:stedsnr" v="590116" />
	</node>
	<node id="-425155" lat="59.5664250024" lon="9.26386667451">
		<tag k="fixme" v="consider boundary=protected_area and relevant protect_class if not nature reserve" />
		<tag k="leisure" v="nature_reserve" />
		<tag k="name" v="Tinfoss kulturmiljø" />
		<tag k="ssr:stedsnr" v="665340" />
	</node>
	<node id="-425346" lat="59.6512666703" lon="9.33801945274">
		<tag k="historic" v="boundary_stone" />
		<tag k="man_made" v="cairn" />
		<tag k="name" v="Sveivtjønnstein" />
		<tag k="place" v="locality" />
		<tag k="ssr:stedsnr" v="707929" />
	</node>
</osm>
