<?xml version="1.0" encoding="UTF-8"?>
<osm version="0.6" generator="osmapis">
	<node lat="59.71719722405469" lon="9.304552781606558" id="-18406">
		<tag k="name" v="Paulusmyra" />
		<tag k="natural" v="wetland" />
		<tag k="ssr:stedsnr" v="3407" />
	</node>
	<node lat="59.51488286890371" lon="9.455083732150051" id="-18409">
		<tag k="alt_name" v="Tjønnås" />
		<tag k="historic" v="shieling" />
		<tag k="name" v="Tjørnåssætra" />
		<tag k="place" v="locality" />
		<tag k="ssr:stedsnr" v="3681" />
	</node>
	<node lat="59.68211666902577" lon="8.914016662280432" id="-18429">
		<tag k="historic" v="shieling" />
		<tag k="name" v="Gvelvestul" />
		<tag k="place" v="locality" />
		<tag k="ssr:stedsnr" v="41303" />
	</node>
	<node lat="59.7278361108554" lon="9.218955560327128" id="-18431">
		<tag k="name" v="Geitekleivmyra" />
		<tag k="natural" v="wetland" />
		<tag k="ssr:stedsnr" v="41410" />
	</node>
	<node lat="59.801572219048914" lon="8.957402777011723" id="-18434">
		<tag k="name" v="Baksølåmyra" />
		<tag k="natural" v="wetland" />
		<tag k="ssr:stedsnr" v="41839" />
	</node>
	<node lat="59.47725278191381" lon="9.316694449509946" id="-18444">
		<tag k="name" v="Korpefloget" />
		<tag k="place" v="locality" />
		<tag k="ssr:stedsnr" v="43988" />
	</node>
	<node lat="59.53995833696222" lon="9.246822216487315" id="-18457">
		<tag k="name" v="Bjønnemyr" />
		<tag k="natural" v="wetland" />
		<tag k="ssr:stedsnr" v="44627" />
	</node>
	<node lat="59.660819444423446" lon="9.220386114013625" id="-18463">
		<tag k="name" v="Hestemyr" />
		<tag k="natural" v="wetland" />
		<tag k="ssr:stedsnr" v="44786" />
	</node>
	<node lat="59.67865000124069" lon="8.938563883708683" id="-18472">
		<tag k="name" v="Romyran" />
		<tag k="natural" v="wetland" />
		<tag k="ssr:stedsnr" v="45988" />
	</node>
	<node lat="59.7225361131811" lon="9.236897218064465" id="-18478">
		<tag k="name" v="Bergmyr" />
		<tag k="natural" v="wetland" />
		<tag k="ssr:stedsnr" v="239345" />
	</node>
	<node lat="59.71761944746991" lon="9.223794437743184" id="-18490">
		<tag k="historic" v="shieling" />
		<tag k="name" v="Kobolt" />
		<tag k="place" v="locality" />
		<tag k="ssr:stedsnr" v="57226" />
	</node>
	<node lat="59.739752776731656" lon="9.19094444503077" id="-18502">
		<tag k="name" v="Haugemyr" />
		<tag k="natural" v="wetland" />
		<tag k="ssr:stedsnr" v="59480" />
	</node>
	<node lat="59.86252222652977" lon="8.926708330910488" id="-18505">
		<tag k="historic" v="shieling" />
		<tag k="name" v="Jonsbråten" />
		<tag k="place" v="locality" />
		<tag k="ssr:stedsnr" v="241007" />
	</node>
	<node lat="59.62112777832474" lon="9.358649996141944" id="-18542">
		<tag k="alt_name" v="Deilmyr" />
		<tag k="name" v="Delemyra" />
		<tag k="natural" v="wetland" />
		<tag k="ssr:stedsnr" v="64862" />
	</node>
	<node lat="59.668850003094484" lon="9.380600006753406" id="-18549">
		<tag k="name" v="Venemyr" />
		<tag k="natural" v="wetland" />
		<tag k="ssr:stedsnr" v="245919" />
	</node>
	<node lat="59.661277777749994" lon="9.24553333508946" id="-18605">
		<tag k="name" v="Tiurleikmyra" />
		<tag k="natural" v="wetland" />
		<tag k="ssr:stedsnr" v="101072" />
	</node>
	<node lat="59.74133888834031" lon="9.221500006523023" id="-18613">
		<tag k="name" v="Ospåsmyra" />
		<tag k="natural" v="wetland" />
		<tag k="ssr:stedsnr" v="102476" />
	</node>
	<node lat="59.607280553187444" lon="9.076600001736095" id="-18643">
		<tag k="name" v="Saltgravmyra" />
		<tag k="natural" v="wetland" />
		<tag k="ssr:stedsnr" v="105612" />
	</node>
	<node lat="59.68040833234556" lon="9.118872219943952" id="-18646">
		<tag k="name" v="Rundemyr" />
		<tag k="natural" v="wetland" />
		<tag k="ssr:stedsnr" v="105509" />
	</node>
	<node lat="59.630905556337304" lon="9.168402776283195" id="-18655">
		<tag k="name" v="Tollemyran" />
		<tag k="natural" v="wetland" />
		<tag k="ssr:stedsnr" v="105889" />
	</node>
	<node lat="59.712275000301375" lon="9.011091673910462" id="-18657">
		<tag k="historic" v="shieling" />
		<tag k="name" v="Kåleholtet" />
		<tag k="place" v="locality" />
		<tag k="ssr:stedsnr" v="105904" />
	</node>
	<node lat="59.5571388874563" lon="9.325524993759341" id="-18660">
		<tag k="name" v="Kusemyr" />
		<tag k="natural" v="wetland" />
		<tag k="ssr:stedsnr" v="106107" />
	</node>
	<node lat="59.58240277604143" lon="9.331305554785201" id="-18664">
		<tag k="name" v="Goasholtmyr" />
		<tag k="natural" v="wetland" />
		<tag k="ssr:stedsnr" v="106095" />
	</node>
	<node lat="59.582250004026974" lon="9.342577783993702" id="-18665">
		<tag k="name" v="Vesle Goasholtmyra" />
		<tag k="natural" v="wetland" />
		<tag k="ssr:stedsnr" v="106096" />
	</node>
	<node lat="59.74907222665728" lon="9.073355551500384" id="-18679">
		<tag k="name" v="Diplemyr" />
		<tag k="natural" v="wetland" />
		<tag k="ssr:stedsnr" v="120385" />
	</node>
	<node lat="59.64430555921028" lon="9.120208335745527" id="-18692">
		<tag k="name" v="Slåttemyr" />
		<tag k="natural" v="wetland" />
		<tag k="ssr:stedsnr" v="124175" />
	</node>
	<node lat="59.60455555597518" lon="9.204222225246625" id="-18693">
		<tag k="alt_name" v="Bakkestulmyra, store" />
		<tag k="name" v="Store Bakkestulmyra" />
		<tag k="natural" v="wetland" />
		<tag k="ssr:stedsnr" v="124305" />
	</node>
	<node lat="59.82000277817141" lon="8.955099993424554" id="-18710">
		<tag k="alt_name" v="Gvamslimyr" />
		<tag k="name" v="Kvamslimyra" />
		<tag k="natural" v="wetland" />
		<tag k="ssr:stedsnr" v="125460" />
	</node>
	<node lat="59.820638891712115" lon="8.925052780777799" id="-18711">
		<tag k="name" v="Skarisetmyran" />
		<tag k="natural" v="wetland" />
		<tag k="ssr:stedsnr" v="125461" />
	</node>
	<node lat="59.573905553238966" lon="9.027063886070948" id="-18734">
		<tag k="name" v="Meisteinmyra" />
		<tag k="natural" v="wetland" />
		<tag k="ssr:stedsnr" v="165075" />
	</node>
	<node lat="59.63515277402084" lon="9.218175007106078" id="-18752">
		<tag k="name" v="Stutemyr" />
		<tag k="natural" v="wetland" />
		<tag k="ssr:stedsnr" v="165911" />
	</node>
	<node lat="59.571175002412936" lon="9.012802784881302" id="-18756">
		<tag k="name" v="Torvmyra" />
		<tag k="natural" v="wetland" />
		<tag k="ssr:stedsnr" v="166102" />
	</node>
	<node lat="59.64631944712484" lon="9.413222229881931" id="-18770">
		<tag k="historic" v="shieling" />
		<tag k="name" v="Finnvollen" />
		<tag k="place" v="locality" />
		<tag k="ssr:stedsnr" v="178408" />
	</node>
	<node lat="59.715180551107316" lon="9.105111117799911" id="-18779">
		<tag k="name" v="Småmyran" />
		<tag k="natural" v="wetland" />
		<tag k="ssr:stedsnr" v="180955" />
	</node>
	<node lat="59.718605553322405" lon="9.100758335403764" id="-18780">
		<tag k="name" v="Visemyr" />
		<tag k="natural" v="wetland" />
		<tag k="ssr:stedsnr" v="180956" />
	</node>
	<node lat="59.84126110763986" lon="8.87679166889253" id="-18800">
		<tag k="alt_name" v="Glahaugmyran" />
		<tag k="name" v="Gladhaugmyran" />
		<tag k="natural" v="wetland" />
		<tag k="ssr:stedsnr" v="186505" />
	</node>
	<node lat="59.724480559982" lon="9.261802773452823" id="-18813">
		<tag k="name" v="Holdgutumyra" />
		<tag k="natural" v="wetland" />
		<tag k="ssr:stedsnr" v="222930" />
	</node>
	<node lat="59.83269444647896" lon="8.9465749922864" id="-18819">
		<tag k="historic" v="shieling" />
		<tag k="name" v="Heggedokk" />
		<tag k="place" v="locality" />
		<tag k="ssr:stedsnr" v="224111" />
	</node>
	<node lat="59.55240277478951" lon="9.113944445085094" id="-18838">
		<tag k="name" v="Svevsmyran" />
		<tag k="natural" v="wetland" />
		<tag k="ssr:stedsnr" v="226082" />
	</node>
	<node lat="59.658341671178455" lon="9.223288889533329" id="-18848">
		<tag k="name" v="Slåttemyr" />
		<tag k="natural" v="wetland" />
		<tag k="ssr:stedsnr" v="226832" />
	</node>
	<node lat="59.743349999677406" lon="8.97798610574044" id="-18854">
		<tag k="name" v="Breimyr" />
		<tag k="natural" v="wetland" />
		<tag k="ssr:stedsnr" v="226972" />
	</node>
	<node lat="59.66301388480209" lon="9.05623888383913" id="-18866">
		<tag k="name" v="Tråeråsmyra" />
		<tag k="natural" v="wetland" />
		<tag k="ssr:stedsnr" v="227774" />
	</node>
	<node lat="59.66316666668542" lon="9.063480554477293" id="-18867">
		<tag k="name" v="Tverrmyr" />
		<tag k="natural" v="wetland" />
		<tag k="ssr:stedsnr" v="227776" />
	</node>
	<node lat="59.70358610844706" lon="8.95774722713889" id="-18869">
		<tag k="name" v="Vettermyr" />
		<tag k="natural" v="wetland" />
		<tag k="ssr:stedsnr" v="227905" />
	</node>
	<node lat="59.54591388697818" lon="9.335963894309817" id="-18871">
		<tag k="name" v="Høgemyr" />
		<tag k="natural" v="wetland" />
		<tag k="ssr:stedsnr" v="227913" />
	</node>
	<node lat="59.688508336065" lon="9.038297224029115" id="-18875">
		<tag k="name" v="Hågåskeiet" />
		<tag k="place" v="locality" />
		<tag k="ssr:stedsnr" v="227818" />
	</node>
	<node lat="59.779961114379894" lon="9.199880550223503" id="-18880">
		<tag k="name" v="Stulsmyr" />
		<tag k="natural" v="wetland" />
		<tag k="ssr:stedsnr" v="240223" />
	</node>
	<node lat="59.657641669040224" lon="9.098855561612245" id="-18906">
		<tag k="name" v="Gråbumyran" />
		<tag k="natural" v="wetland" />
		<tag k="ssr:stedsnr" v="246221" />
	</node>
	<node lat="59.63550832950136" lon="9.329669448790025" id="-18927">
		<tag k="name" v="Grokleivmyra" />
		<tag k="natural" v="wetland" />
		<tag k="ssr:stedsnr" v="282871" />
	</node>
	<node lat="59.750452775439896" lon="8.977630562827759" id="-18929">
		<tag k="name" v="Snaunattmyra" />
		<tag k="natural" v="wetland" />
		<tag k="ssr:stedsnr" v="283405" />
	</node>
	<node lat="59.83215277542847" lon="8.938719451086135" id="-18937">
		<tag k="name" v="Langemyr" />
		<tag k="natural" v="wetland" />
		<tag k="ssr:stedsnr" v="284092" />
	</node>
	<node lat="59.68643333643076" lon="8.940572220439662" id="-18942">
		<tag k="name" v="Holemyr" />
		<tag k="natural" v="wetland" />
		<tag k="ssr:stedsnr" v="284310" />
	</node>
	<node lat="59.748075003962" lon="9.245547223156054" id="-18949">
		<tag k="name" v="Storemyr" />
		<tag k="natural" v="wetland" />
		<tag k="ssr:stedsnr" v="284887" />
	</node>
	<node lat="59.497344446664535" lon="9.363611115959662" id="-18962">
		<tag k="name" v="Hovtrong" />
		<tag k="natural" v="wetland" />
		<tag k="ssr:stedsnr" v="286605" />
	</node>
	<node lat="59.53049722031428" lon="9.392013894286722" id="-18964">
		<tag k="name" v="Barlind-dekkene" />
		<tag k="natural" v="wetland" />
		<tag k="ssr:stedsnr" v="286684" />
	</node>
	<node lat="59.69934722171578" lon="8.994333332988123" id="-18967">
		<tag k="name" v="Veslejuv" />
		<tag k="natural" v="wetland" />
		<tag k="ssr:stedsnr" v="286906" />
	</node>
	<node lat="59.53835555989909" lon="9.164124995265468" id="-18982">
		<tag k="name" v="Slåttemyr" />
		<tag k="natural" v="wetland" />
		<tag k="ssr:stedsnr" v="287736" />
	</node>
	<node lat="59.5924972199939" lon="9.395877769115982" id="-18987">
		<tag k="name" v="Tellerudmyran" />
		<tag k="natural" v="wetland" />
		<tag k="ssr:stedsnr" v="288012" />
	</node>
	<node lat="59.54426388611734" lon="9.376900005427474" id="-18989">
		<tag k="name" v="Smalemyra" />
		<tag k="natural" v="wetland" />
		<tag k="ssr:stedsnr" v="288079" />
	</node>
	<node lat="59.583883329574206" lon="9.344961106039275" id="-18991">
		<tag k="name" v="Bjalkemyr" />
		<tag k="natural" v="wetland" />
		<tag k="ssr:stedsnr" v="288097" />
	</node>
	<node lat="59.72100833181792" lon="9.317655563835503" id="-19005">
		<tag k="name" v="Heia" />
		<tag k="place" v="locality" />
		<tag k="ssr:stedsnr" v="300573" />
	</node>
	<node lat="59.67726944460589" lon="9.070858337196864" id="-19021">
		<tag k="name" v="Orremyr" />
		<tag k="natural" v="wetland" />
		<tag k="ssr:stedsnr" v="306213" />
	</node>
	<node lat="59.85071944455544" lon="8.906708330138569" id="-19044">
		<tag k="alt_name" v="Nørebumyra" />
		<tag k="name" v="Nørdrebumyri" />
		<tag k="natural" v="wetland" />
		<tag k="ssr:stedsnr" v="307465" />
	</node>
	<node lat="59.71431944218144" lon="9.095052785617243" id="-19051">
		<tag k="name" v="Slåttemyr" />
		<tag k="natural" v="wetland" />
		<tag k="ssr:stedsnr" v="465652" />
	</node>
	<node lat="59.75594166949039" lon="8.926258332229763" id="-19052">
		<tag k="name" v="Tiurleikmyra" />
		<tag k="natural" v="wetland" />
		<tag k="ssr:stedsnr" v="466043" />
	</node>
	<node lat="59.696741663012844" lon="9.121625004727534" id="-19066">
		<tag k="name" v="Tråtåsmyra" />
		<tag k="natural" v="wetland" />
		<tag k="ssr:stedsnr" v="468403" />
	</node>
	<node lat="59.69620833026485" lon="9.114136102801007" id="-19067">
		<tag k="name" v="Joremyra" />
		<tag k="natural" v="wetland" />
		<tag k="ssr:stedsnr" v="468407" />
	</node>
	<node lat="59.54633611221847" lon="9.47033611610574" id="-19071">
		<tag k="name" v="Vealøysa" />
		<tag k="natural" v="wetland" />
		<tag k="ssr:stedsnr" v="468632" />
	</node>
	<node lat="59.67756389329328" lon="9.087802781804001" id="-19080">
		<tag k="name" v="Elgstjønnmyra" />
		<tag k="natural" v="wetland" />
		<tag k="ssr:stedsnr" v="469437" />
	</node>
	<node lat="59.60842500166685" lon="9.217322228234694" id="-19083">
		<tag k="name" v="Viermyr" />
		<tag k="natural" v="wetland" />
		<tag k="ssr:stedsnr" v="469545" />
	</node>
	<node lat="59.529161108473545" lon="9.099624995234384" id="-19096">
		<tag k="name" v="Løkjemyr" />
		<tag k="natural" v="wetland" />
		<tag k="ssr:stedsnr" v="469943" />
	</node>
	<node lat="59.61753610997719" lon="9.053119445679137" id="-19101">
		<tag k="name" v="Solbergmyra" />
		<tag k="natural" v="wetland" />
		<tag k="ssr:stedsnr" v="470200" />
	</node>
	<node lat="59.67790833286538" lon="9.012194452529197" id="-19105">
		<tag k="name" v="Storedokkmyra" />
		<tag k="natural" v="wetland" />
		<tag k="ssr:stedsnr" v="470791" />
	</node>
	<node lat="59.66975833092389" lon="9.01355278157861" id="-19106">
		<tag k="name" v="Køyun" />
		<tag k="natural" v="wetland" />
		<tag k="ssr:stedsnr" v="470799" />
	</node>
	<node lat="59.71064167048607" lon="8.963322221540894" id="-19109">
		<tag k="name" v="Bjønnemyr" />
		<tag k="natural" v="wetland" />
		<tag k="ssr:stedsnr" v="470934" />
	</node>
	<node lat="59.667141662289644" lon="9.305802778006539" id="-19116">
		<tag k="name" v="Springfire" />
		<tag k="natural" v="wetland" />
		<tag k="ssr:stedsnr" v="343827" />
	</node>
	<node lat="59.67337777900251" lon="9.326099997617545" id="-19117">
		<tag k="name" v="Svarttjønnmyra" />
		<tag k="natural" v="wetland" />
		<tag k="ssr:stedsnr" v="343832" />
	</node>
	<node lat="59.74741666915643" lon="8.936241671292146" id="-19120">
		<tag k="historic" v="shieling" />
		<tag k="name" v="Kåleflåta" />
		<tag k="place" v="locality" />
		<tag k="ssr:stedsnr" v="344055" />
	</node>
	<node lat="59.51535833611754" lon="9.34688889227195" id="-19131">
		<tag k="name" v="Vesle Hestemyr" />
		<tag k="natural" v="wetland" />
		<tag k="ssr:stedsnr" v="346606" />
	</node>
	<node lat="59.53478610860426" lon="9.403947229155085" id="-19133">
		<tag k="name" v="Lauvhyttemyrene" />
		<tag k="natural" v="wetland" />
		<tag k="ssr:stedsnr" v="346678" />
	</node>
	<node lat="59.535636110802095" lon="9.172972228594954" id="-19147">
		<tag k="name" v="Tinnemannmyra" />
		<tag k="natural" v="wetland" />
		<tag k="ssr:stedsnr" v="347702" />
	</node>
	<node lat="59.62893055802115" lon="9.221088886597666" id="-19157">
		<tag k="name" v="Bjotrudmyr" />
		<tag k="natural" v="wetland" />
		<tag k="ssr:stedsnr" v="347912" />
	</node>
	<node lat="59.62930000092919" lon="9.14837221838877" id="-19158">
		<tag k="name" v="Trånåbumyra" />
		<tag k="natural" v="wetland" />
		<tag k="ssr:stedsnr" v="347914" />
	</node>
	<node lat="59.74481389252734" lon="8.977880547034838" id="-19185">
		<tag k="name" v="Breidmyr" />
		<tag k="natural" v="wetland" />
		<tag k="ssr:stedsnr" v="367005" />
	</node>
	<node lat="59.719541668948985" lon="8.962252784269031" id="-19187">
		<tag k="name" v="Fuglefotmyra" />
		<tag k="natural" v="wetland" />
		<tag k="ssr:stedsnr" v="367075" />
	</node>
	<node lat="59.734252780613986" lon="9.295049996396154" id="-19203">
		<tag k="name" v="Storemyr" />
		<tag k="natural" v="wetland" />
		<tag k="ssr:stedsnr" v="367423" />
	</node>
	<node lat="59.50615000136528" lon="9.347927769979592" id="-19204">
		<tag k="alt_name" v="Rundemyr" />
		<tag k="name" v="Rundemyra" />
		<tag k="natural" v="wetland" />
		<tag k="ssr:stedsnr" v="367704" />
	</node>
	<node lat="59.64441111480999" lon="9.31409167405612" id="-19228">
		<tag k="name" v="Damåsmyra" />
		<tag k="natural" v="wetland" />
		<tag k="ssr:stedsnr" v="482588" />
	</node>
	<node lat="59.71494166576099" lon="8.938322215629439" id="-19231">
		<tag k="name" v="Fransdiplan" />
		<tag k="natural" v="wetland" />
		<tag k="ssr:stedsnr" v="482978" />
	</node>
	<node lat="59.75535833743566" lon="9.037458327745043" id="-19233">
		<tag k="historic" v="shieling" />
		<tag k="name" v="Mikkelsgard" />
		<tag k="place" v="locality" />
		<tag k="ssr:stedsnr" v="483289" />
	</node>
	<node lat="59.66069999977751" lon="9.237613884690258" id="-19238">
		<tag k="name" v="Åsemyr" />
		<tag k="natural" v="wetland" />
		<tag k="ssr:stedsnr" v="404081" />
	</node>
	<node lat="59.66336388685319" lon="9.34428333254812" id="-19240">
		<tag k="name" v="Brannsmyran" />
		<tag k="natural" v="wetland" />
		<tag k="ssr:stedsnr" v="404781" />
	</node>
	<node lat="59.52954444423322" lon="9.434508336786724" id="-19258">
		<tag k="name" v="Holmemyra" />
		<tag k="natural" v="wetland" />
		<tag k="ssr:stedsnr" v="407755" />
	</node>
	<node lat="59.61705277929062" lon="9.128694441835304" id="-19281">
		<tag k="name" v="Kleivsmyr" />
		<tag k="natural" v="wetland" />
		<tag k="ssr:stedsnr" v="408898" />
	</node>
	<node lat="59.72394166554519" lon="9.011416667465499" id="-19286">
		<tag k="name" v="Spangemyr" />
		<tag k="natural" v="wetland" />
		<tag k="ssr:stedsnr" v="408999" />
	</node>
	<node lat="59.632613884695246" lon="9.318319438502478" id="-19291">
		<tag k="name" v="Halvfarmyra" />
		<tag k="natural" v="wetland" />
		<tag k="ssr:stedsnr" v="410503" />
	</node>
	<node lat="59.72274166792982" lon="9.075224995967512" id="-19298">
		<tag k="name" v="Kopslandmyra" />
		<tag k="natural" v="wetland" />
		<tag k="ssr:stedsnr" v="488079" />
	</node>
	<node lat="59.65097500113965" lon="9.257824996516478" id="-19326">
		<tag k="name" v="Hemyrane" />
		<tag k="natural" v="wetland" />
		<tag k="ssr:stedsnr" v="488875" />
	</node>
	<node lat="59.6377694461832" lon="9.288883329691085" id="-19338">
		<tag k="name" v="Raumåsåmyra" />
		<tag k="natural" v="wetland" />
		<tag k="ssr:stedsnr" v="422836" />
	</node>
	<node lat="59.6216694450611" lon="9.299911113420036" id="-19367">
		<tag k="name" v="Hestemyra" />
		<tag k="natural" v="wetland" />
		<tag k="ssr:stedsnr" v="428856" />
	</node>
	<node lat="59.681399997648356" lon="9.310958330329886" id="-19375">
		<tag k="alt_name" v="Dipilmyr" />
		<tag k="name" v="Dipilmyra" />
		<tag k="natural" v="wetland" />
		<tag k="ssr:stedsnr" v="670963" />
	</node>
	<node lat="59.701766671117916" lon="9.3014444384779" id="-19394">
		<tag k="name" v="Hesjåmyr" />
		<tag k="natural" v="wetland" />
		<tag k="ssr:stedsnr" v="464606" />
	</node>
	<node lat="59.71820555697668" lon="9.168013890621916" id="-19396">
		<tag k="name" v="Ambjørgsmyr" />
		<tag k="natural" v="wetland" />
		<tag k="ssr:stedsnr" v="465171" />
	</node>
	<node lat="59.758830555696704" lon="9.226722217703252" id="-19402">
		<tag k="name" v="Blautemyr" />
		<tag k="natural" v="wetland" />
		<tag k="ssr:stedsnr" v="466072" />
	</node>
	<node lat="59.68799444131781" lon="8.923002770203214" id="-19407">
		<tag k="historic" v="shieling" />
		<tag k="name" v="Bodikstulen" />
		<tag k="place" v="locality" />
		<tag k="ssr:stedsnr" v="466328" />
	</node>
	<node lat="59.745011108403524" lon="9.242180557846291" id="-19410">
		<tag k="name" v="Storvollmyra" />
		<tag k="natural" v="wetland" />
		<tag k="ssr:stedsnr" v="466879" />
	</node>
	<node lat="59.51422499986517" lon="9.262491663429351" id="-19432">
		<tag k="name" v="Trandlemyr" />
		<tag k="natural" v="wetland" />
		<tag k="ssr:stedsnr" v="469512" />
	</node>
	<node lat="59.56245000141302" lon="9.116830555347022" id="-19440">
		<tag k="name" v="Øvre Bjørkemyr" />
		<tag k="natural" v="wetland" />
		<tag k="ssr:stedsnr" v="469882" />
	</node>
	<node lat="59.73917777548675" lon="8.965305551413193" id="-19442">
		<tag k="name" v="Springrosmyra" />
		<tag k="natural" v="wetland" />
		<tag k="ssr:stedsnr" v="469962" />
	</node>
	<node lat="59.59858889244559" lon="9.054677772313054" id="-19445">
		<tag k="name" v="Langemyr" />
		<tag k="natural" v="wetland" />
		<tag k="ssr:stedsnr" v="470114" />
	</node>
	<node lat="59.566130554677464" lon="9.414516673941831" id="-19449">
		<tag k="name" v="Rakketjønnmyran" />
		<tag k="natural" v="wetland" />
		<tag k="ssr:stedsnr" v="470912" />
	</node>
	<node lat="59.74521389263323" lon="8.95829443922455" id="-19450">
		<tag k="historic" v="shieling" />
		<tag k="name" v="Bråtekåsa" />
		<tag k="place" v="locality" />
		<tag k="ssr:stedsnr" v="480058" />
	</node>
	<node lat="59.73133888766953" lon="9.22923889303623" id="-19456">
		<tag k="landuse" v="meadow" />
		<tag k="name" v="Juvakåsa" />
		<tag k="ssr:stedsnr" v="482368" />
	</node>
	<node lat="59.76681666418924" lon="9.096088885499315" id="-19466">
		<tag k="name" v="Reisjåmyra" />
		<tag k="natural" v="wetland" />
		<tag k="ssr:stedsnr" v="484374" />
	</node>
	<node lat="59.667977773476785" lon="9.11731110984132" id="-19474">
		<tag k="name" v="Deilmyran" />
		<tag k="natural" v="wetland" />
		<tag k="ssr:stedsnr" v="488186" />
	</node>
	<node lat="59.674497222293205" lon="9.293299999897034" id="-19506">
		<tag k="name" v="Svarverudmyr" />
		<tag k="natural" v="wetland" />
		<tag k="ssr:stedsnr" v="525074" />
	</node>
	<node lat="59.671241668686434" lon="9.072566666734426" id="-19538">
		<tag k="name" v="Valemyr" />
		<tag k="natural" v="wetland" />
		<tag k="ssr:stedsnr" v="529424" />
	</node>
	<node lat="59.68985833298735" lon="9.091733325275337" id="-19542">
		<tag k="historic" v="shieling" />
		<tag k="name" v="Kasin" />
		<tag k="place" v="locality" />
		<tag k="ssr:stedsnr" v="529493" />
	</node>
	<node lat="59.65918889085267" lon="9.087347228658537" id="-19544">
		<tag k="name" v="Bjønndalsbekken" />
		<tag k="natural" v="wetland" />
		<tag k="ssr:stedsnr" v="529399" />
	</node>
	<node lat="59.502938886275366" lon="9.383338894429027" id="-19549">
		<tag k="name" v="Åsmundsteinen" />
		<tag k="natural" v="stone" />
		<tag k="ssr:stedsnr" v="529573" />
	</node>
	<node lat="59.64897222155179" lon="9.001461107649307" id="-19552">
		<tag k="name" v="Slåttemyr" />
		<tag k="natural" v="wetland" />
		<tag k="ssr:stedsnr" v="529802" />
	</node>
	<node lat="59.54177777794619" lon="8.944269439309727" id="-19559">
		<tag k="name" v="Blåur" />
		<tag k="natural" v="scree" />
		<tag k="ssr:stedsnr" v="530313" />
	</node>
	<node lat="59.608797219249304" lon="9.346961109845427" id="-19560">
		<tag k="name" v="Fuglemyr" />
		<tag k="natural" v="wetland" />
		<tag k="ssr:stedsnr" v="530075" />
	</node>
	<node lat="59.63797222056844" lon="9.36952500366367" id="-19573">
		<tag k="name" v="Sleppmyra" />
		<tag k="natural" v="wetland" />
		<tag k="ssr:stedsnr" v="543370" />
	</node>
	<node lat="59.719605551165" lon="9.083363882995537" id="-19576">
		<tag k="name" v="Olavsmyr" />
		<tag k="natural" v="wetland" />
		<tag k="ssr:stedsnr" v="544966" />
	</node>
	<node lat="59.65551388909063" lon="9.050000005217244" id="-19590">
		<tag k="name" v="Havsteinmyra" />
		<tag k="natural" v="wetland" />
		<tag k="ssr:stedsnr" v="549212" />
	</node>
	<node lat="59.693688888689245" lon="9.266644451276727" id="-19617">
		<tag k="name" v="Porsmyr" />
		<tag k="natural" v="wetland" />
		<tag k="ssr:stedsnr" v="586053" />
	</node>
	<node lat="59.741841668481186" lon="9.186047221644447" id="-19626">
		<tag k="name" v="Djupemyr" />
		<tag k="natural" v="wetland" />
		<tag k="ssr:stedsnr" v="587456" />
	</node>
	<node lat="59.699869441658635" lon="9.187572220078879" id="-19627">
		<tag k="name" v="Langemyr" />
		<tag k="natural" v="wetland" />
		<tag k="ssr:stedsnr" v="587774" />
	</node>
	<node lat="59.483627782032485" lon="9.381038895567617" id="-19634">
		<tag k="name" v="Krossmyr" />
		<tag k="natural" v="wetland" />
		<tag k="ssr:stedsnr" v="589561" />
	</node>
	<node lat="59.494261107307516" lon="9.189366665968706" id="-19637">
		<tag k="name" v="Breistulmyran" />
		<tag k="natural" v="wetland" />
		<tag k="ssr:stedsnr" v="589706" />
	</node>
	<node lat="59.54275833461051" lon="9.15729722445513" id="-19651">
		<tag k="name" v="Briskemyr" />
		<tag k="natural" v="wetland" />
		<tag k="ssr:stedsnr" v="590705" />
	</node>
	<node lat="59.64996388506497" lon="9.180461109291828" id="-19658">
		<tag k="name" v="Kringlemyr" />
		<tag k="natural" v="wetland" />
		<tag k="ssr:stedsnr" v="590808" />
	</node>
	<node lat="59.704311110876056" lon="8.97408332882276" id="-19671">
		<tag k="name" v="Hestemyra" />
		<tag k="natural" v="wetland" />
		<tag k="ssr:stedsnr" v="591926" />
	</node>
	<node lat="59.717236112166724" lon="9.287008330023095" id="-19676">
		<tag k="name" v="Grendalsmyra" />
		<tag k="natural" v="wetland" />
		<tag k="ssr:stedsnr" v="603552" />
	</node>
	<node lat="59.887105558693165" lon="8.895777778423524" id="-19683">
		<tag k="name" v="Presteurda" />
		<tag k="natural" v="scree" />
		<tag k="ssr:stedsnr" v="605817" />
	</node>
	<node lat="59.72715555566562" lon="9.213386113307902" id="-19726">
		<tag k="name" v="Vetmyran" />
		<tag k="natural" v="wetland" />
		<tag k="ssr:stedsnr" v="648405" />
	</node>
	<node lat="59.69827222612651" lon="8.971563885530065" id="-19756">
		<tag k="name" v="Diplemyr" />
		<tag k="natural" v="wetland" />
		<tag k="ssr:stedsnr" v="650894" />
	</node>
	<node lat="59.72369999759012" lon="8.97221945217705" id="-19763">
		<tag k="name" v="Rundemyr" />
		<tag k="natural" v="wetland" />
		<tag k="ssr:stedsnr" v="650915" />
	</node>
	<node lat="59.61946388474756" lon="9.263130558858963" id="-19764">
		<tag k="name" v="Stuthavna" />
		<tag k="place" v="locality" />
		<tag k="ssr:stedsnr" v="650947" />
	</node>
	<node lat="59.632383332248246" lon="9.301152769545203" id="-19779">
		<tag k="name" v="Lekkersmyr" />
		<tag k="natural" v="wetland" />
		<tag k="ssr:stedsnr" v="652439" />
	</node>
	<node lat="59.748577774585755" lon="8.904688881874211" id="-19786">
		<tag k="name" v="Holfetmyran" />
		<tag k="natural" v="wetland" />
		<tag k="ssr:stedsnr" v="709046" />
	</node>
	<node lat="59.81960832981334" lon="8.882755560075616" id="-19838">
		<tag k="name" v="Storefjellmyran" />
		<tag k="natural" v="wetland" />
		<tag k="ssr:stedsnr" v="671437" />
	</node>
	<node lat="59.741547222697676" lon="9.226088896543871" id="-19851">
		<tag k="name" v="Hellemmoen" />
		<tag k="place" v="locality" />
		<tag k="ssr:stedsnr" v="891438" />
	</node>
	<node lat="59.48347221859995" lon="9.405094447573997" id="-19863">
		<tag k="name" v="Geitungs-standarden" />
		<tag k="natural" v="wetland" />
		<tag k="ssr:stedsnr" v="893400" />
	</node>
	<node lat="59.51705833466186" lon="9.418522223898279" id="-19870">
		<tag k="name" v="Steinsmyrene" />
		<tag k="natural" v="wetland" />
		<tag k="ssr:stedsnr" v="893689" />
	</node>
	<node lat="59.68611110735506" lon="8.98722500027377" id="-19875">
		<tag k="name" v="Mjagetomyra" />
		<tag k="natural" v="wetland" />
		<tag k="ssr:stedsnr" v="893998" />
	</node>
	<node lat="59.591213893291446" lon="9.204875001652129" id="-19886">
		<tag k="landuse" v="quarry" />
		<tag k="name" v="Hollagruva" />
		<tag k="ssr:stedsnr" v="894402" />
	</node>
	<node lat="59.511947225378265" lon="9.238869447222614" id="-19889">
		<tag k="name" v="Løkjemyr" />
		<tag k="natural" v="wetland" />
		<tag k="ssr:stedsnr" v="894522" />
	</node>
	<node lat="59.628425002669616" lon="9.11749444883443" id="-19904">
		<tag k="name" v="Hestemyran" />
		<tag k="natural" v="wetland" />
		<tag k="ssr:stedsnr" v="894937" />
	</node>
	<node lat="59.55891110998667" lon="9.375030561920193" id="-19911">
		<tag k="name" v="Saumyr" />
		<tag k="natural" v="wetland" />
		<tag k="ssr:stedsnr" v="895095" />
	</node>
	<node lat="59.52868055505821" lon="8.900372215225994" id="-19916">
		<tag k="name" v="Finnvollen" />
		<tag k="natural" v="wetland" />
		<tag k="ssr:stedsnr" v="895638" />
	</node>
	<node lat="59.67374722572432" lon="9.318094444912683" id="-19924">
		<tag k="name" v="Djupemyr" />
		<tag k="natural" v="wetland" />
		<tag k="ssr:stedsnr" v="707813" />
	</node>
	<node lat="59.77304166801185" lon="9.137519435652067" id="-19928">
		<tag k="name" v="Hestemyr" />
		<tag k="natural" v="wetland" />
		<tag k="ssr:stedsnr" v="708282" />
	</node>
	<node lat="59.49313332906343" lon="9.32027222181802" id="-19942">
		<tag k="name" v="Humlegards-haugen" />
		<tag k="place" v="locality" />
		<tag k="ssr:stedsnr" v="710816" />
	</node>
	<node lat="59.52158055553853" lon="9.408236106652062" id="-19949">
		<tag k="name" v="Holkekleivdekkene" />
		<tag k="natural" v="wetland" />
		<tag k="ssr:stedsnr" v="711387" />
	</node>
	<node lat="59.57250277924497" lon="9.242113889139587" id="-19951">
		<tag k="name" v="Breskemyr" />
		<tag k="natural" v="wetland" />
		<tag k="ssr:stedsnr" v="711508" />
	</node>
	<node lat="59.67559444689679" lon="8.966449993329315" id="-19955">
		<tag k="name" v="Brennhaugmyra" />
		<tag k="natural" v="wetland" />
		<tag k="ssr:stedsnr" v="711790" />
	</node>
	<node lat="59.66971111428414" lon="8.975433336583272" id="-19956">
		<tag k="name" v="Surtemyr" />
		<tag k="natural" v="wetland" />
		<tag k="ssr:stedsnr" v="711793" />
	</node>
	<node lat="59.722300001420564" lon="8.967858335174828" id="-19973">
		<tag k="name" v="Tjønnfløy" />
		<tag k="natural" v="wetland" />
		<tag k="ssr:stedsnr" v="712877" />
	</node>
	<node lat="59.80386944053732" lon="9.22629443708093" id="-19984">
		<tag k="name" v="Storrløyta" />
		<tag k="natural" v="wetland" />
		<tag k="ssr:stedsnr" v="725025" />
	</node>
	<node lat="59.77645000331685" lon="8.899547228803156" id="-19989">
		<tag k="historic" v="shieling" />
		<tag k="name" v="Finnvollan" />
		<tag k="place" v="locality" />
		<tag k="ssr:stedsnr" v="725910" />
	</node>
	<node lat="59.61300000032466" lon="9.330475005793962" id="-20015">
		<tag k="name" v="Storemyr" />
		<tag k="natural" v="wetland" />
		<tag k="ssr:stedsnr" v="731855" />
	</node>
	<node lat="59.66381666235305" lon="9.245816669212651" id="-20018">
		<tag k="name" v="Tiurleikmyra" />
		<tag k="natural" v="wetland" />
		<tag k="ssr:stedsnr" v="731907" />
	</node>
	<node lat="59.644863885713384" lon="9.25914167085177" id="-20037">
		<tag k="name" v="Stillemyr" />
		<tag k="natural" v="wetland" />
		<tag k="ssr:stedsnr" v="770875" />
	</node>
	<node lat="59.72340833222961" lon="9.075213886561246" id="-20038">
		<tag k="name" v="Kopslandmyr" />
		<tag k="natural" v="wetland" />
		<tag k="ssr:stedsnr" v="907646" />
	</node>
	<node lat="59.69027778060534" lon="9.310613894609675" id="-20039">
		<tag k="name" v="Hafsteinbukrokan" />
		<tag k="natural" v="wetland" />
		<tag k="ssr:stedsnr" v="770766" />
	</node>
	<node lat="59.566113886556074" lon="9.135891672991905" id="-20049">
		<tag k="name" v="Leikmyran" />
		<tag k="natural" v="wetland" />
		<tag k="ssr:stedsnr" v="772123" />
	</node>
	<node lat="59.71608888546514" lon="8.949572229282262" id="-20051">
		<tag k="name" v="Tiurleikmyran" />
		<tag k="natural" v="wetland" />
		<tag k="ssr:stedsnr" v="907981" />
	</node>
	<node lat="59.710280551254414" lon="8.923802782670062" id="-20053">
		<tag k="name" v="Meheimyran" />
		<tag k="natural" v="wetland" />
		<tag k="ssr:stedsnr" v="907983" />
	</node>
	<node lat="59.67519722456528" lon="9.083669450537798" id="-20066">
		<tag k="name" v="Geiterudmyra" />
		<tag k="natural" v="wetland" />
		<tag k="ssr:stedsnr" v="772425" />
	</node>
	<node lat="59.64188610853284" lon="9.181850008610342" id="-20071">
		<tag k="name" v="Langkloppmyran" />
		<tag k="natural" v="wetland" />
		<tag k="ssr:stedsnr" v="772824" />
	</node>
	<node lat="59.70373611006446" lon="9.003580555121385" id="-20081">
		<tag k="name" v="Store Heggemyr" />
		<tag k="natural" v="wetland" />
		<tag k="ssr:stedsnr" v="773917" />
	</node>
	<node lat="59.704211111390634" lon="9.276305559777956" id="-20089">
		<tag k="name" v="Gampeskrottmyra" />
		<tag k="natural" v="wetland" />
		<tag k="ssr:stedsnr" v="908577" />
	</node>
	<node lat="59.77246388928833" lon="9.298705561203553" id="-20096">
		<tag k="historic" v="shieling" />
		<tag k="name" v="Gamlero" />
		<tag k="place" v="locality" />
		<tag k="ssr:stedsnr" v="785201" />
	</node>
	<node lat="59.65890277783901" lon="9.063402773130298" id="-20139">
		<tag k="name" v="Hovsmyra" />
		<tag k="natural" v="wetland" />
		<tag k="ssr:stedsnr" v="913202" />
	</node>
	<node lat="59.82836388481636" lon="8.864925004979428" id="-20172">
		<tag k="name" v="Digermyr" />
		<tag k="natural" v="wetland" />
		<tag k="ssr:stedsnr" v="914454" />
	</node>
	<node lat="59.7697527777565" lon="9.133422227856022" id="-20182">
		<tag k="name" v="Tverrmyr" />
		<tag k="natural" v="wetland" />
		<tag k="ssr:stedsnr" v="829265" />
	</node>
	<node lat="59.572122220436896" lon="9.163202777802953" id="-20213">
		<tag k="landuse" v="quarry" />
		<tag k="name" v="Glittenberg-gruva" />
		<tag k="ssr:stedsnr" v="833202" />
	</node>
	<node lat="59.62372777413429" lon="9.204777780937205" id="-20220">
		<tag k="name" v="Slåttemyr" />
		<tag k="natural" v="wetland" />
		<tag k="ssr:stedsnr" v="833904" />
	</node>
	<node lat="59.639322225398836" lon="9.364661113016776" id="-20268">
		<tag k="alt_name" v="Vipetomyran" />
		<tag k="name" v="Vipetomyrane" />
		<tag k="natural" v="wetland" />
		<tag k="ssr:stedsnr" v="853900" />
	</node>
	<node lat="59.749191664949336" lon="9.262583333690849" id="-20276">
		<tag k="name" v="Skjenholtmyra" />
		<tag k="natural" v="wetland" />
		<tag k="ssr:stedsnr" v="890808" />
	</node>
	<node lat="59.812233329668636" lon="8.990355558310648" id="-20282">
		<tag k="historic" v="shieling" />
		<tag k="name" v="Øyan" />
		<tag k="place" v="locality" />
		<tag k="ssr:stedsnr" v="892758" />
	</node>
	<node lat="59.82036389309432" lon="8.98834722782225" id="-20284">
		<tag k="name" v="Lauvskogmyra" />
		<tag k="natural" v="wetland" />
		<tag k="ssr:stedsnr" v="892766" />
	</node>
	<node lat="59.511305552495436" lon="9.344866662147584" id="-20289">
		<tag k="name" v="Store Hestemyr" />
		<tag k="natural" v="wetland" />
		<tag k="ssr:stedsnr" v="893544" />
	</node>
	<node lat="59.51638888447618" lon="9.35085833648486" id="-20291">
		<tag k="name" v="Askemyra" />
		<tag k="natural" v="wetland" />
		<tag k="ssr:stedsnr" v="893577" />
	</node>
	<node lat="59.540638885358284" lon="9.486116658592236" id="-20292">
		<tag k="name" v="Hestemyrdekkene" />
		<tag k="natural" v="wetland" />
		<tag k="ssr:stedsnr" v="893630" />
	</node>
	<node lat="59.68585278080816" lon="8.960641668022854" id="-20306">
		<tag k="name" v="Langkroka" />
		<tag k="natural" v="wetland" />
		<tag k="ssr:stedsnr" v="894758" />
	</node>
	<node lat="59.712805558190105" lon="9.01282500427962" id="-20307">
		<tag k="name" v="Jønnemyr" />
		<tag k="natural" v="wetland" />
		<tag k="ssr:stedsnr" v="894908" />
	</node>
	<node lat="59.629113888786094" lon="9.193105547972367" id="-20308">
		<tag k="name" v="Elgemyra" />
		<tag k="natural" v="wetland" />
		<tag k="ssr:stedsnr" v="894910" />
	</node>
	<node lat="59.62619166698399" lon="9.197074992915052" id="-20309">
		<tag k="name" v="Mosemyr" />
		<tag k="natural" v="wetland" />
		<tag k="ssr:stedsnr" v="894911" />
	</node>
	<node lat="59.62223610742113" lon="9.288597222422686" id="-20311">
		<tag k="name" v="Djupemyr" />
		<tag k="natural" v="wetland" />
		<tag k="ssr:stedsnr" v="894979" />
	</node>
	<node lat="59.58546666458047" lon="9.441622214821546" id="-20326">
		<tag k="name" v="Blakksmyran" />
		<tag k="natural" v="wetland" />
		<tag k="ssr:stedsnr" v="895918" />
	</node>
	<node lat="59.65872500150415" lon="9.286400002428048" id="-20356">
		<tag k="alt_name" v="Ramsåsmyran" />
		<tag k="name" v="Ramsåsmyra" />
		<tag k="natural" v="wetland" />
		<tag k="ssr:stedsnr" v="913933" />
	</node>
	<node lat="59.71325277348152" lon="9.140438885039494" id="-20375">
		<tag k="name" v="Dammyr" />
		<tag k="natural" v="wetland" />
		<tag k="ssr:stedsnr" v="950184" />
	</node>
	<node lat="59.73212500127851" lon="9.12156389501718" id="-20377">
		<tag k="name" v="Storemyr" />
		<tag k="natural" v="wetland" />
		<tag k="ssr:stedsnr" v="950616" />
	</node>
	<node lat="59.734088888878226" lon="9.266094444768932" id="-20378">
		<tag k="name" v="Slåttemyr" />
		<tag k="natural" v="wetland" />
		<tag k="ssr:stedsnr" v="950926" />
	</node>
	<node lat="59.7330500027197" lon="9.256711103636476" id="-20379">
		<tag k="name" v="Svarverud" />
		<tag k="natural" v="wetland" />
		<tag k="ssr:stedsnr" v="950927" />
	</node>
	<node lat="59.72803888612205" lon="9.241933337753405" id="-20380">
		<tag k="name" v="Tiurleikmyra" />
		<tag k="natural" v="wetland" />
		<tag k="ssr:stedsnr" v="950933" />
	</node>
	<node lat="59.83013888804578" lon="8.948116666566417" id="-20381">
		<tag k="historic" v="shieling" />
		<tag k="name" v="Gvamslikåsa" />
		<tag k="place" v="locality" />
		<tag k="ssr:stedsnr" v="950991" />
	</node>
	<node lat="59.775944447474" lon="9.27015555386941" id="-20384">
		<tag k="name" v="Skjønbuksmyr" />
		<tag k="natural" v="wetland" />
		<tag k="ssr:stedsnr" v="951181" />
	</node>
	<node lat="59.754930552411345" lon="9.233122229668796" id="-20390">
		<tag k="name" v="N Bjønnemyr" />
		<tag k="natural" v="wetland" />
		<tag k="ssr:stedsnr" v="952214" />
	</node>
	<node lat="59.53530833295609" lon="9.3977250053651" id="-20399">
		<tag k="name" v="Nybumyra" />
		<tag k="natural" v="wetland" />
		<tag k="ssr:stedsnr" v="953695" />
	</node>
	<node lat="59.740036115192034" lon="9.013349995393357" id="-20419">
		<tag k="name" v="Fivelimyr" />
		<tag k="natural" v="wetland" />
		<tag k="ssr:stedsnr" v="954950" />
	</node>
	<node lat="59.68493611171528" lon="8.964369444186424" id="-20474">
		<tag k="alt_name" v="Juvsmyr" />
		<tag k="name" v="Gjuvsmyr" />
		<tag k="natural" v="wetland" />
		<tag k="ssr:stedsnr" v="3153" />
	</node>
	<node lat="59.810708329050435" lon="8.903036113571241" id="-20487">
		<tag k="name" v="Skarvsmyran" />
		<tag k="natural" v="wetland" />
		<tag k="ssr:stedsnr" v="3443" />
	</node>
	<node lat="59.758424996265575" lon="8.915586119111687" id="-20520">
		<tag k="name" v="Gulstein" />
		<tag k="natural" v="stone" />
		<tag k="ssr:stedsnr" v="41033" />
	</node>
	<node lat="59.750063885437285" lon="8.910333338001717" id="-20521">
		<tag k="historic" v="shieling" />
		<tag k="name" v="Urdstul" />
		<tag k="place" v="locality" />
		<tag k="ssr:stedsnr" v="41036" />
	</node>
	<node lat="59.76278888834361" lon="9.227711104394897" id="-20533">
		<tag k="name" v="Ostebrekkmyra" />
		<tag k="natural" v="wetland" />
		<tag k="ssr:stedsnr" v="41079" />
	</node>
	<node lat="59.749022222089785" lon="9.333811119395143" id="-20536">
		<tag k="name" v="Dusanmyra" />
		<tag k="natural" v="wetland" />
		<tag k="ssr:stedsnr" v="41848" />
	</node>
	<node lat="59.562894440608986" lon="9.340066665043105" id="-20561">
		<tag k="name" v="Skarkemyr" />
		<tag k="natural" v="wetland" />
		<tag k="ssr:stedsnr" v="45134" />
	</node>
	<node lat="59.6958027767287" lon="8.957580549300944" id="-20583">
		<tag k="name" v="Almelidalsmyra" />
		<tag k="natural" v="wetland" />
		<tag k="ssr:stedsnr" v="44747" />
	</node>
	<node lat="59.65538332958103" lon="9.15804444861165" id="-20586">
		<tag k="name" v="Krossmyran" />
		<tag k="natural" v="wetland" />
		<tag k="ssr:stedsnr" v="44862" />
	</node>
	<node lat="59.53144444633052" lon="9.168419441731292" id="-20589">
		<tag k="name" v="Vollanmyran" />
		<tag k="natural" v="wetland" />
		<tag k="ssr:stedsnr" v="44710" />
	</node>
	<node lat="59.63294444300453" lon="9.267755547471035" id="-20597">
		<tag k="name" v="Uppigardsmyra" />
		<tag k="natural" v="wetland" />
		<tag k="ssr:stedsnr" v="44965" />
	</node>
	<node lat="59.595319448822174" lon="9.29311944096354" id="-20599">
		<tag k="name" v="Damtjønnmyra" />
		<tag k="natural" v="wetland" />
		<tag k="ssr:stedsnr" v="45060" />
	</node>
	<node lat="59.53125833419527" lon="9.358738889722929" id="-20602">
		<tag k="name" v="Skavreimyra" />
		<tag k="natural" v="wetland" />
		<tag k="ssr:stedsnr" v="45081" />
	</node>
	<node lat="59.60838055763502" lon="9.029594452634223" id="-20604">
		<tag k="name" v="Storemyr" />
		<tag k="natural" v="wetland" />
		<tag k="ssr:stedsnr" v="45157" />
	</node>
	<node lat="59.763322221238816" lon="9.135450000636212" id="-20619">
		<tag k="name" v="Blautmyra" />
		<tag k="natural" v="wetland" />
		<tag k="ssr:stedsnr" v="58736" />
	</node>
	<node lat="59.65272777846848" lon="9.251377782896494" id="-20622">
		<tag k="name" v="Runde Hemyr" />
		<tag k="natural" v="wetland" />
		<tag k="ssr:stedsnr" v="58842" />
	</node>
	<node lat="59.599516670737074" lon="9.200261107793246" id="-20636">
		<tag k="name" v="Hestemyr" />
		<tag k="natural" v="wetland" />
		<tag k="ssr:stedsnr" v="63293" />
	</node>
	<node lat="59.64710277362378" lon="9.151652776149993" id="-20641">
		<tag k="alt_name" v="Kristesmyr" />
		<tag k="name" v="Kristesmyra" />
		<tag k="natural" v="wetland" />
		<tag k="ssr:stedsnr" v="64181" />
	</node>
	<node lat="59.71360832956484" lon="9.101630549292317" id="-20677">
		<tag k="name" v="Folemyra" />
		<tag k="natural" v="wetland" />
		<tag k="ssr:stedsnr" v="101648" />
	</node>
	<node lat="59.746905552018724" lon="8.92767778658164" id="-20682">
		<tag k="name" v="Grastjønnmyra" />
		<tag k="natural" v="wetland" />
		<tag k="ssr:stedsnr" v="102042" />
	</node>
	<node lat="59.682002774944024" lon="9.320694436216705" id="-20687">
		<tag k="name" v="Nordstulmyran" />
		<tag k="natural" v="wetland" />
		<tag k="ssr:stedsnr" v="102862" />
	</node>
	<node lat="59.5333638918434" lon="9.417836114510413" id="-20703">
		<tag k="name" v="Kollsetmyra" />
		<tag k="natural" v="wetland" />
		<tag k="ssr:stedsnr" v="104658" />
	</node>
	<node lat="59.546263887837775" lon="9.154883337794544" id="-20704">
		<tag k="name" v="Hestemyra" />
		<tag k="natural" v="wetland" />
		<tag k="ssr:stedsnr" v="104743" />
	</node>
	<node lat="59.62444444841639" lon="9.135733337494852" id="-20723">
		<tag k="name" v="Vetterlagsmyra" />
		<tag k="natural" v="wetland" />
		<tag k="ssr:stedsnr" v="105928" />
	</node>
	<node lat="59.72691111462987" lon="8.958374999458357" id="-20728">
		<tag k="name" v="Høgelimyr" />
		<tag k="natural" v="wetland" />
		<tag k="ssr:stedsnr" v="105920" />
	</node>
	<node lat="59.672025000740696" lon="9.058636113805688" id="-20740">
		<tag k="name" v="Storsteinmyra" />
		<tag k="natural" v="wetland" />
		<tag k="ssr:stedsnr" v="106801" />
	</node>
	<node lat="59.7212638869431" lon="8.993183327802463" id="-20747">
		<tag k="name" v="Toreskåsa" />
		<tag k="place" v="locality" />
		<tag k="ssr:stedsnr" v="106934" />
	</node>
	<node lat="59.85978333555453" lon="8.90687221416211" id="-20755">
		<tag k="name" v="Bjønnlimyr" />
		<tag k="natural" v="wetland" />
		<tag k="ssr:stedsnr" v="118037" />
	</node>
	<node lat="59.70387222084202" lon="9.129169453109808" id="-20823">
		<tag k="name" v="Orremyr" />
		<tag k="natural" v="wetland" />
		<tag k="ssr:stedsnr" v="161173" />
	</node>
	<node lat="59.710399999156486" lon="9.130952785589033" id="-20824">
		<tag k="name" v="Juklemyr" />
		<tag k="natural" v="wetland" />
		<tag k="ssr:stedsnr" v="161182" />
	</node>
	<node lat="59.78303333766679" lon="9.16959721791478" id="-20826">
		<tag k="name" v="Stolsmyra" />
		<tag k="natural" v="wetland" />
		<tag k="ssr:stedsnr" v="161287" />
	</node>
	<node lat="59.774083334558945" lon="8.998391667205926" id="-20834">
		<tag k="name" v="Kloppmyr" />
		<tag k="natural" v="wetland" />
		<tag k="ssr:stedsnr" v="163555" />
	</node>
	<node lat="59.75366667024448" lon="9.32919445030374" id="-20835">
		<tag k="name" v="Kvislin" />
		<tag k="natural" v="wetland" />
		<tag k="ssr:stedsnr" v="163848" />
	</node>
	<node lat="59.68999166836468" lon="9.006258333278668" id="-20845">
		<tag k="historic" v="shieling" />
		<tag k="name" v="Øvrestul" />
		<tag k="place" v="locality" />
		<tag k="ssr:stedsnr" v="165796" />
	</node>
	<node lat="59.66871666383288" lon="9.108716660772254" id="-20857">
		<tag k="name" v="Søtemyrrenna" />
		<tag k="natural" v="wetland" />
		<tag k="ssr:stedsnr" v="165432" />
	</node>
	<node lat="59.533144445702746" lon="9.16160277285418" id="-20869">
		<tag k="name" v="Urdemyr" />
		<tag k="natural" v="wetland" />
		<tag k="ssr:stedsnr" v="165728" />
	</node>
	<node lat="59.549916670438634" lon="9.094191674509494" id="-20872">
		<tag k="name" v="Fuglemyr" />
		<tag k="natural" v="wetland" />
		<tag k="ssr:stedsnr" v="165950" />
	</node>
	<node lat="59.66820833025847" lon="8.949661117545979" id="-20887">
		<tag k="name" v="Tingelmyr" />
		<tag k="natural" v="wetland" />
		<tag k="ssr:stedsnr" v="166994" />
	</node>
	<node lat="59.74510277360542" lon="8.971649992827384" id="-20894">
		<tag k="name" v="Fjellsendmyran" />
		<tag k="natural" v="wetland" />
		<tag k="ssr:stedsnr" v="176084" />
	</node>
	<node lat="59.88614444253436" lon="8.900300006822645" id="-20896">
		<tag k="name" v="Presturda" />
		<tag k="natural" v="scree" />
		<tag k="ssr:stedsnr" v="176584" />
	</node>
	<node lat="59.71075277701362" lon="9.306644438955539" id="-20898">
		<tag k="name" v="Gapetjønnmyra" />
		<tag k="natural" v="wetland" />
		<tag k="ssr:stedsnr" v="178561" />
	</node>
	<node lat="59.80330000299233" lon="9.208483324872768" id="-20901">
		<tag k="name" v="Bonjomsmyra" />
		<tag k="natural" v="wetland" />
		<tag k="ssr:stedsnr" v="179029" />
	</node>
	<node lat="59.79099721798362" lon="8.999697216011075" id="-20903">
		<tag k="landuse" v="meadow" />
		<tag k="name" v="Breigvam" />
		<tag k="ssr:stedsnr" v="179652" />
	</node>
	<node lat="59.710941662447794" lon="9.16026389384787" id="-20904">
		<tag k="name" v="Nøstjønnmyran" />
		<tag k="natural" v="wetland" />
		<tag k="ssr:stedsnr" v="179996" />
	</node>
	<node lat="59.631883331976304" lon="9.056736109405701" id="-20919">
		<tag k="name" v="Storemyr" />
		<tag k="natural" v="wetland" />
		<tag k="ssr:stedsnr" v="185172" />
	</node>
	<node lat="59.535500003531475" lon="9.403536106266982" id="-20941">
		<tag k="name" v="Nybumyra" />
		<tag k="natural" v="wetland" />
		<tag k="ssr:stedsnr" v="185754" />
	</node>
	<node lat="59.61397222365776" lon="9.348572226418174" id="-20957">
		<tag k="alt_name" v="Tuemyr" />
		<tag k="name" v="Tumyr" />
		<tag k="natural" v="wetland" />
		<tag k="ssr:stedsnr" v="185861" />
	</node>
	<node lat="59.760175004098336" lon="9.062811117299027" id="-20968">
		<tag k="name" v="Storemyr" />
		<tag k="natural" v="wetland" />
		<tag k="ssr:stedsnr" v="186470" />
	</node>
	<node lat="59.66008889313584" lon="9.25216111839438" id="-20976">
		<tag k="name" v="Kjerrmyr" />
		<tag k="natural" v="wetland" />
		<tag k="ssr:stedsnr" v="222064" />
	</node>
	<node lat="59.720063892368806" lon="9.128180553203475" id="-20977">
		<tag k="name" v="Langemyr" />
		<tag k="natural" v="wetland" />
		<tag k="ssr:stedsnr" v="222144" />
	</node>
	<node lat="59.7456250009646" lon="8.93809722208225" id="-20982">
		<tag k="historic" v="shieling" />
		<tag k="name" v="Storero" />
		<tag k="place" v="locality" />
		<tag k="ssr:stedsnr" v="223065" />
	</node>
	<node lat="59.740883329383145" lon="9.313236115281178" id="-20990">
		<tag k="name" v="Heimstulmyra" />
		<tag k="natural" v="wetland" />
		<tag k="ssr:stedsnr" v="224931" />
	</node>
	<node lat="59.514174997112015" lon="9.444613889473427" id="-20991">
		<tag k="name" v="Kringleåsanden" />
		<tag k="natural" v="beach" />
		<tag k="ssr:stedsnr" v="225397" />
		<tag k="surface" v="sand" />
	</node>
	<node lat="59.61765833266808" lon="9.213438882933303" id="-21024">
		<tag k="name" v="Spiremyr" />
		<tag k="natural" v="wetland" />
		<tag k="ssr:stedsnr" v="226906" />
	</node>
	<node lat="59.623938891095335" lon="9.209763881369605" id="-21025">
		<tag k="name" v="Karhølen" />
		<tag k="natural" v="wetland" />
		<tag k="ssr:stedsnr" v="226909" />
	</node>
	<node lat="59.61766944591117" lon="9.069405551128513" id="-21030">
		<tag k="name" v="Krossmyr" />
		<tag k="natural" v="wetland" />
		<tag k="ssr:stedsnr" v="226930" />
	</node>
	<node lat="59.74278611225752" lon="9.185963891117098" id="-21047">
		<tag k="historic" v="shieling" />
		<tag k="name" v="Nystul" />
		<tag k="place" v="locality" />
		<tag k="ssr:stedsnr" v="284440" />
	</node>
	<node lat="59.764000002479854" lon="9.261597224432908" id="-21049">
		<tag k="name" v="Kvålimyra" />
		<tag k="natural" v="wetland" />
		<tag k="ssr:stedsnr" v="284856" />
	</node>
	<node lat="59.507880555844196" lon="9.252541674701394" id="-21064">
		<tag k="historic" v="shieling" />
		<tag k="name" v="Vihus" />
		<tag k="place" v="locality" />
		<tag k="ssr:stedsnr" v="287521" />
	</node>
	<node lat="59.56271666351541" lon="9.214394441093598" id="-21065">
		<tag k="name" v="Semsøyan" />
		<tag k="natural" v="wetland" />
		<tag k="ssr:stedsnr" v="287142" />
	</node>
	<node lat="59.58997499933991" lon="9.365049995077383" id="-21091">
		<tag k="historic" v="shieling" />
		<tag k="name" v="Setresletta" />
		<tag k="place" v="locality" />
		<tag k="ssr:stedsnr" v="288122" />
	</node>
	<node lat="59.60766388941076" lon="9.323616665460113" id="-21093">
		<tag k="name" v="Kroktjønnmyra" />
		<tag k="natural" v="wetland" />
		<tag k="ssr:stedsnr" v="288064" />
	</node>
	<node lat="59.67544722589681" lon="9.052791665778953" id="-21096">
		<tag k="name" v="Bleikemyr" />
		<tag k="natural" v="wetland" />
		<tag k="ssr:stedsnr" v="288756" />
	</node>
	<node lat="59.7436666625498" lon="8.955191663689968" id="-21099">
		<tag k="name" v="Høgebrennmyran" />
		<tag k="natural" v="wetland" />
		<tag k="ssr:stedsnr" v="288962" />
	</node>
	<node lat="59.64839444806665" lon="9.252747223823436" id="-21114">
		<tag k="name" v="Holtemyr" />
		<tag k="natural" v="wetland" />
		<tag k="ssr:stedsnr" v="300819" />
	</node>
	<node lat="59.75459999764346" lon="8.94689167153807" id="-21122">
		<tag k="name" v="Hestemyr" />
		<tag k="natural" v="wetland" />
		<tag k="ssr:stedsnr" v="301764" />
	</node>
</osm>
