<?xml version="1.0" encoding="UTF-8"?>
<osm version="0.6" generator="osmapis">
	<node lat="59.64301389259167" lon="9.216802776795838" id="-33115">
		<tag k="name" v="Morkkåsa" />
		<tag k="place" v="farm" />
		<tag k="ssr:stedsnr" v="2305" />
	</node>
	<node lat="59.61854444549355" lon="9.04572499181251" id="-33116">
		<tag k="name" v="Solberg" />
		<tag k="place" v="locality" />
		<tag k="ssr:stedsnr" v="2329" />
	</node>
	<node lat="59.68928333383227" lon="9.18985555200619" id="-33120">
		<tag k="fixme" v="consider place=hamlet" />
		<tag k="name" v="Vik" />
		<tag k="place" v="farm" />
		<tag k="ssr:stedsnr" v="3126" />
	</node>
	<node lat="59.55787778151172" lon="8.978580552332923" id="-33128">
		<tag k="name" v="Myregvarv" />
		<tag k="place" v="isolated_dwelling" />
		<tag k="ssr:stedsnr" v="3368" />
	</node>
	<node lat="59.50380000422266" lon="9.325900004706536" id="-33132">
		<tag k="fixme" v="consider place=hamlet" />
		<tag k="name" v="Hjukse" />
		<tag k="place" v="farm" />
		<tag k="ssr:stedsnr" v="3694" />
	</node>
	<node lat="59.5271555593299" lon="9.374399993974865" id="-33135">
		<tag k="name" v="Vårbumoen" />
		<tag k="place" v="isolated_dwelling" />
		<tag k="ssr:stedsnr" v="3708" />
	</node>
	<node lat="59.537372219899254" lon="9.321399992024183" id="-33138">
		<tag k="name" v="Dammyra" />
		<tag k="place" v="isolated_dwelling" />
		<tag k="ssr:stedsnr" v="3752" />
	</node>
	<node lat="59.56190278090764" lon="9.242066663944522" id="-33146">
		<tag k="name" v="Tinnes" />
		<tag k="place" v="quarter" />
		<tag k="ssr:stedsnr" v="24284" />
	</node>
	<node lat="59.67910278005983" lon="9.327291658388766" id="-33157">
		<tag k="name" v="Nordstulbrakka" />
		<tag k="place" v="locality" />
		<tag k="ssr:stedsnr" v="41844" />
	</node>
	<node lat="59.513588889905414" lon="9.328380550805578" id="-33160">
		<tag k="name" v="Nedre Slettemo" />
		<tag k="place" v="farm" />
		<tag k="ssr:stedsnr" v="43076" />
	</node>
	<node lat="59.68788333524358" lon="9.157491665178835" id="-33166">
		<tag k="name" v="Runningen" />
		<tag k="place" v="locality" />
		<tag k="ssr:stedsnr" v="44006" />
	</node>
	<node lat="59.582266662210834" lon="9.055344441376254" id="-33168">
		<tag k="name" v="Haugen" />
		<tag k="place" v="locality" />
		<tag k="ssr:stedsnr" v="44088" />
	</node>
	<node lat="59.607250000922384" lon="9.044308328775502" id="-33170">
		<tag k="alt_name" v="Nordre Sauer" />
		<tag k="fixme" v="consider place=hamlet" />
		<tag k="name" v="Sauar nordre" />
		<tag k="place" v="farm" />
		<tag k="ssr:stedsnr" v="44159" />
	</node>
	<node lat="59.513272222801085" lon="9.251797214213823" id="-33173">
		<tag k="historic" v="shieling" />
		<tag k="name" v="Øvrestul" />
		<tag k="place" v="isolated_dwelling" />
		<tag k="ssr:stedsnr" v="44477" />
	</node>
	<node lat="59.69637222322086" lon="9.103911112854211" id="-33175">
		<tag k="alt_name" v="Nedre Folseland" />
		<tag k="fixme" v="consider place=hamlet" />
		<tag k="name" v="Folsland nedre" />
		<tag k="place" v="farm" />
		<tag k="ssr:stedsnr" v="44485" />
	</node>
	<node lat="59.68570277964228" lon="9.0725972253993" id="-33176">
		<tag k="name" v="Bjønnekasin" />
		<tag k="place" v="farm" />
		<tag k="ssr:stedsnr" v="44496" />
	</node>
	<node lat="59.59894444191983" lon="9.099894452218793" id="-33177">
		<tag k="name" v="Lykkja" />
		<tag k="place" v="farm" />
		<tag k="ssr:stedsnr" v="44575" />
	</node>
	<node lat="59.629361110592754" lon="9.15502222177749" id="-33180">
		<tag k="historic" v="shieling" />
		<tag k="name" v="Trånåbu" />
		<tag k="place" v="isolated_dwelling" />
		<tag k="ssr:stedsnr" v="44873" />
	</node>
	<node lat="59.71548055371194" lon="9.012627773123679" id="-33183">
		<tag k="historic" v="shieling" />
		<tag k="name" v="Kålekåsa" />
		<tag k="place" v="isolated_dwelling" />
		<tag k="ssr:stedsnr" v="44896" />
	</node>
	<node lat="59.65091944278212" lon="9.378894448051474" id="-33212">
		<tag k="historic" v="shieling" />
		<tag k="name" v="Tysjøseter" />
		<tag k="place" v="isolated_dwelling" />
		<tag k="ssr:stedsnr" v="57324" />
	</node>
	<node lat="59.716836109774675" lon="9.268177785111405" id="-33214">
		<tag k="name" v="Pålskås" />
		<tag k="place" v="locality" />
		<tag k="ssr:stedsnr" v="57523" />
	</node>
	<node lat="59.77085277599674" lon="8.91921666931239" id="-33221">
		<tag k="historic" v="shieling" />
		<tag k="name" v="Nesbuset" />
		<tag k="place" v="isolated_dwelling" />
		<tag k="ssr:stedsnr" v="58923" />
	</node>
	<node lat="59.719519444150464" lon="9.0030749980364" id="-33228">
		<tag k="name" v="Mosrygg" />
		<tag k="place" v="farm" />
		<tag k="ssr:stedsnr" v="63101" />
	</node>
	<node lat="59.5763944478042" lon="9.187716664086725" id="-33230">
		<tag k="name" v="Heddal bygdetun" />
		<tag k="place" v="farm" />
		<tag k="ssr:stedsnr" v="63380" />
	</node>
	<node lat="59.74295833339831" lon="8.988858329791018" id="-33233">
		<tag k="name" v="Kolistulen" />
		<tag k="place" v="isolated_dwelling" />
		<tag k="ssr:stedsnr" v="64114" />
	</node>
	<node lat="59.686252776916604" lon="9.10008055209816" id="-33234">
		<tag k="name" v="Liangrenda" />
		<tag k="place" v="hamlet" />
		<tag k="ssr:stedsnr" v="64117" />
	</node>
	<node lat="59.69431388799674" lon="8.989638886995424" id="-33236">
		<tag k="alt_name" v="Juvslia" />
		<tag k="name" v="Gjuvslia" />
		<tag k="place" v="isolated_dwelling" />
		<tag k="ssr:stedsnr" v="64135" />
	</node>
	<node lat="59.68086110673787" lon="9.030841665653371" id="-33237">
		<tag k="alt_name" v="Jore" />
		<tag k="name" v="Jordet" />
		<tag k="place" v="farm" />
		<tag k="ssr:stedsnr" v="64139" />
	</node>
	<node lat="59.70451666961884" lon="8.991147223308568" id="-33239">
		<tag k="fixme" v="consider place=hamlet" />
		<tag k="name" v="Mjelland" />
		<tag k="place" v="farm" />
		<tag k="ssr:stedsnr" v="64156" />
	</node>
	<node lat="59.700525003494974" lon="8.973949992003156" id="-33240">
		<tag k="name" v="Meland" />
		<tag k="place" v="locality" />
		<tag k="ssr:stedsnr" v="64159" />
	</node>
	<node lat="59.710349999231234" lon="9.037230560965842" id="-33241">
		<tag k="name" v="Lia" />
		<tag k="place" v="farm" />
		<tag k="ssr:stedsnr" v="64160" />
	</node>
	<node lat="59.733052773701395" lon="8.982619453176378" id="-33242">
		<tag k="name" v="Bakken" />
		<tag k="place" v="farm" />
		<tag k="ssr:stedsnr" v="64008" />
	</node>
	<node lat="59.75537543435393" lon="8.999044224839345" id="-33248">
		<tag k="name" v="Haugero" />
		<tag k="place" v="locality" />
		<tag k="ssr:stedsnr" v="64274" />
	</node>
	<node lat="59.77679047321695" lon="8.926690352589013" id="-33250">
		<tag k="name" v="Kråkås" />
		<tag k="place" v="locality" />
		<tag k="ssr:stedsnr" v="64461" />
	</node>
	<node lat="59.551197224303564" lon="9.224813881459538" id="-33255">
		<tag k="name" v="Ståo" />
		<tag k="place" v="farm" />
		<tag k="ssr:stedsnr" v="64764" />
	</node>
	<node lat="59.54430000169016" lon="9.287605559672736" id="-33256">
		<tag k="fixme" v="consider place=hamlet" />
		<tag k="name" v="Gjestrud" />
		<tag k="place" v="farm" />
		<tag k="ssr:stedsnr" v="64766" />
	</node>
	<node lat="59.76264999780931" lon="9.121736104744837" id="-33268">
		<tag k="alt_name" v="Sandastul" />
		<tag k="historic" v="shieling" />
		<tag k="name" v="Sandåstulen" />
		<tag k="place" v="isolated_dwelling" />
		<tag k="ssr:stedsnr" v="65409" />
	</node>
	<node lat="59.52660277632865" lon="8.924430557534123" id="-33279">
		<tag k="name" v="Aslakstul" />
		<tag k="place" v="locality" />
		<tag k="ssr:stedsnr" v="245366" />
	</node>
	<node lat="59.60910277701486" lon="9.286402783894543" id="-33282">
		<tag k="name" v="Halvorsgard" />
		<tag k="place" v="farm" />
		<tag k="ssr:stedsnr" v="245860" />
	</node>
	<node lat="59.54159722591882" lon="9.300880548123638" id="-33283">
		<tag k="name" v="Hagen" />
		<tag k="place" v="farm" />
		<tag k="ssr:stedsnr" v="246733" />
	</node>
	<node lat="59.69887499931532" lon="9.010247213471704" id="-33288">
		<tag k="name" v="Oterbekk" />
		<tag k="place" v="isolated_dwelling" />
		<tag k="ssr:stedsnr" v="246182" />
	</node>
	<node lat="59.656286112152564" lon="9.208924995770106" id="-33289">
		<tag k="name" v="Grønvollfoss" />
		<tag k="place" v="hamlet" />
		<tag k="ssr:stedsnr" v="246191" />
	</node>
	<node lat="59.60565555239211" lon="9.062686112113708" id="-33290">
		<tag k="alt_name" v="Sud-Sauar" />
		<tag k="name" v="Sauar" />
		<tag k="place" v="farm" />
		<tag k="ssr:stedsnr" v="246248" />
	</node>
	<node lat="59.59353889177845" lon="9.077519449171772" id="-33292">
		<tag k="name" v="Øya" />
		<tag k="place" v="farm" />
		<tag k="ssr:stedsnr" v="246253" />
	</node>
	<node lat="59.58914810917316" lon="9.094652783035597" id="-33294">
		<tag k="fixme" v="consider place=hamlet" />
		<tag k="name" v="Melås" />
		<tag k="place" v="farm" />
		<tag k="ssr:stedsnr" v="246335" />
	</node>
	<node lat="59.5565750014561" lon="9.008100008692535" id="-33295">
		<tag k="alt_name" v="Breistul" />
		<tag k="name" v="Breidstul" />
		<tag k="place" v="isolated_dwelling" />
		<tag k="ssr:stedsnr" v="246393" />
	</node>
	<node lat="59.78601436460048" lon="8.995895755468386" id="-33296">
		<tag k="name" v="Dalen" />
		<tag k="place" v="locality" />
		<tag k="ssr:stedsnr" v="246440" />
	</node>
	<node lat="59.5183000020391" lon="9.348472219056767" id="-33300">
		<tag k="name" v="Askemyra" />
		<tag k="place" v="isolated_dwelling" />
		<tag k="ssr:stedsnr" v="246681" />
	</node>
	<node lat="59.60482221806835" lon="9.41365000770446" id="-33305">
		<tag k="name" v="Hovet" />
		<tag k="place" v="isolated_dwelling" />
		<tag k="ssr:stedsnr" v="246797" />
	</node>
	<node lat="59.54339999901859" lon="9.2301555549875" id="-33307">
		<tag k="fixme" v="consider place=hamlet" />
		<tag k="name" v="Haugerud" />
		<tag k="place" v="farm" />
		<tag k="ssr:stedsnr" v="246741" />
	</node>
	<node lat="59.53981389265428" lon="9.26043889624197" id="-33308">
		<tag k="fixme" v="consider place=hamlet" />
		<tag k="name" v="Nordre Strand" />
		<tag k="place" v="farm" />
		<tag k="ssr:stedsnr" v="246744" />
	</node>
	<node lat="59.5918694424795" lon="9.361622214369293" id="-33309">
		<tag k="alt_name" v="Sløkjedalen" />
		<tag k="name" v="Sløkedalen" />
		<tag k="place" v="isolated_dwelling" />
		<tag k="ssr:stedsnr" v="246823" />
	</node>
	<node lat="59.59664722224181" lon="9.270852777626953" id="-33311">
		<tag k="fixme" v="consider place=suburb, village or hamlet" />
		<tag k="name" v="Svelgfoss" />
		<tag k="place" v="quarter" />
		<tag k="ssr:stedsnr" v="246828" />
	</node>
	<node lat="59.850199999287895" lon="8.942172219822424" id="-33317">
		<tag k="alt_name" v="Rudsgrend" />
		<tag k="name" v="Rudsgrendi" />
		<tag k="place" v="hamlet" />
		<tag k="ssr:stedsnr" v="247433" />
	</node>
	<node lat="59.55446388794336" lon="9.281733333460176" id="-33320">
		<tag k="name" v="Tveiten" />
		<tag k="place" v="quarter" />
		<tag k="ssr:stedsnr" v="97205" />
	</node>
	<node lat="59.81943888813435" lon="8.982927780321754" id="-33337">
		<tag k="name" v="Dalen" />
		<tag k="place" v="isolated_dwelling" />
		<tag k="ssr:stedsnr" v="103782" />
	</node>
	<node lat="59.5128888907716" lon="9.337069443099942" id="-33341">
		<tag k="name" v="Øvre Slettemo" />
		<tag k="place" v="farm" />
		<tag k="ssr:stedsnr" v="104137" />
	</node>
	<node lat="59.55480555317179" lon="9.11788610800806" id="-33350">
		<tag k="name" v="Lauvstul" />
		<tag k="place" v="locality" />
		<tag k="ssr:stedsnr" v="105082" />
	</node>
	<node lat="59.58482500269799" lon="9.161530560539932" id="-33351">
		<tag k="name" v="Lillemoen" />
		<tag k="place" v="farm" />
		<tag k="ssr:stedsnr" v="105205" />
	</node>
	<node lat="59.5625249966435" lon="9.272877774022668" id="-33353">
		<tag k="name" v="Gvålatoppen" />
		<tag k="place" v="quarter" />
		<tag k="ssr:stedsnr" v="105216" />
	</node>
	<node lat="59.580888892470774" lon="9.168361115768967" id="-33357">
		<tag k="name" v="Gullbring" />
		<tag k="place" v="farm" />
		<tag k="ssr:stedsnr" v="105183" />
	</node>
	<node lat="59.607008335389395" lon="9.105730562811587" id="-33363">
		<tag k="name" v="Hellem" />
		<tag k="place" v="farm" />
		<tag k="ssr:stedsnr" v="105622" />
	</node>
	<node lat="59.68566110964438" lon="9.102494448319852" id="-33365">
		<tag k="name" v="Lien" />
		<tag k="place" v="farm" />
		<tag k="ssr:stedsnr" v="105504" />
	</node>
	<node lat="59.52696110800882" lon="9.266636114519166" id="-33368">
		<tag k="name" v="Søndre Strand" />
		<tag k="place" v="farm" />
		<tag k="ssr:stedsnr" v="105511" />
	</node>
	<node lat="59.60034166594185" lon="9.087066664563219" id="-33372">
		<tag k="name" v="Hagalia" />
		<tag k="place" v="farm" />
		<tag k="ssr:stedsnr" v="105587" />
	</node>
	<node lat="59.61983333328796" lon="9.046538883588584" id="-33388">
		<tag k="name" v="Skavdalen" />
		<tag k="place" v="locality" />
		<tag k="ssr:stedsnr" v="106231" />
	</node>
	<node lat="59.49338055986575" lon="9.393030559003623" id="-33403">
		<tag k="historic" v="shieling" />
		<tag k="name" v="Sæterdalen" />
		<tag k="place" v="isolated_dwelling" />
		<tag k="ssr:stedsnr" v="123087" />
	</node>
	<node lat="59.49691666995702" lon="9.173674997113205" id="-33404">
		<tag k="alt_name" v="Breistul" />
		<tag k="name" v="Breidstul" />
		<tag k="place" v="isolated_dwelling" />
		<tag k="ssr:stedsnr" v="123621" />
	</node>
	<node lat="59.73509444827692" lon="8.98114721625746" id="-33407">
		<tag k="name" v="Venås" />
		<tag k="place" v="hamlet" />
		<tag k="ssr:stedsnr" v="124011" />
	</node>
	<node lat="59.68545277649845" lon="9.159819449640617" id="-33410">
		<tag k="name" v="Kåsa" />
		<tag k="place" v="isolated_dwelling" />
		<tag k="ssr:stedsnr" v="124116" />
	</node>
	<node lat="59.57120833031978" lon="9.189772223196357" id="-33415">
		<tag k="name" v="Lysthus" />
		<tag k="place" v="farm" />
		<tag k="ssr:stedsnr" v="124309" />
	</node>
	<node lat="59.51122499935779" lon="8.941761102861825" id="-33417">
		<tag k="alt_name" v="Dyrdalsstulen" />
		<tag k="name" v="Dyrdalstulen" />
		<tag k="place" v="isolated_dwelling" />
		<tag k="ssr:stedsnr" v="124326" />
	</node>
	<node lat="59.53622222466753" lon="9.304527785159255" id="-33419">
		<tag k="name" v="Brattekås" />
		<tag k="place" v="farm" />
		<tag k="ssr:stedsnr" v="124716" />
	</node>
	<node lat="59.53792499601258" lon="9.379122225097852" id="-33420">
		<tag k="name" v="Nybu" />
		<tag k="place" v="isolated_dwelling" />
		<tag k="ssr:stedsnr" v="124725" />
	</node>
	<node lat="59.591711110586566" lon="9.035472230133422" id="-33456">
		<tag k="name" v="Øygarden" />
		<tag k="place" v="farm" />
		<tag k="ssr:stedsnr" v="165089" />
	</node>
	<node lat="59.55739999763446" lon="9.203350001026529" id="-33458">
		<tag k="name" v="Yli" />
		<tag k="place" v="farm" />
		<tag k="ssr:stedsnr" v="165109" />
	</node>
	<node lat="59.584161113632454" lon="9.179358332685466" id="-33461">
		<tag k="name" v="Rygi" />
		<tag k="place" v="farm" />
		<tag k="ssr:stedsnr" v="165166" />
	</node>
	<node lat="59.58328888907944" lon="9.182558328791842" id="-33465">
		<tag k="name" v="Gvålen" />
		<tag k="place" v="farm" />
		<tag k="ssr:stedsnr" v="165375" />
	</node>
	<node lat="59.612447222460936" lon="9.270675002730679" id="-33466">
		<tag k="name" v="Landsverk søndre" />
		<tag k="place" v="farm" />
		<tag k="ssr:stedsnr" v="165518" />
	</node>
	<node lat="59.671361114911996" lon="9.233958329671456" id="-33471">
		<tag k="name" v="Nystul" />
		<tag k="place" v="locality" />
		<tag k="ssr:stedsnr" v="165818" />
	</node>
	<node lat="59.72774166249631" lon="8.979738897172801" id="-33474">
		<tag k="historic" v="shieling" />
		<tag k="name" v="Veslestul" />
		<tag k="place" v="isolated_dwelling" />
		<tag k="ssr:stedsnr" v="165920" />
	</node>
	<node lat="59.550869447048896" lon="9.319727775121583" id="-33479">
		<tag k="historic" v="shieling" />
		<tag k="name" v="Kveldro" />
		<tag k="place" v="isolated_dwelling" />
		<tag k="ssr:stedsnr" v="166108" />
	</node>
	<node lat="59.680447225841036" lon="9.023797228439989" id="-33484">
		<tag k="name" v="Maurud" />
		<tag k="place" v="locality" />
		<tag k="ssr:stedsnr" v="166810" />
	</node>
	<node lat="59.65937295961004" lon="9.124466507162584" id="-33506">
		<tag k="alt_name" v="Grautebua" />
		<tag k="name" v="Grautebu" />
		<tag k="place" v="locality" />
		<tag k="ssr:stedsnr" v="185195" />
	</node>
	<node lat="59.588424998500386" lon="9.086699999092517" id="-33507">
		<tag k="fixme" v="consider place=hamlet" />
		<tag k="name" v="Baugerud" />
		<tag k="place" v="farm" />
		<tag k="ssr:stedsnr" v="185322" />
	</node>
	<node lat="59.73146111325907" lon="9.020572214063025" id="-33509">
		<tag k="name" v="Moen" />
		<tag k="place" v="farm" />
		<tag k="ssr:stedsnr" v="185081" />
	</node>
	<node lat="59.72916388728408" lon="9.008638884782311" id="-33510">
		<tag k="name" v="Bergsland" />
		<tag k="place" v="isolated_dwelling" />
		<tag k="ssr:stedsnr" v="185086" />
	</node>
	<node lat="59.59899444554095" lon="9.097105558027273" id="-33511">
		<tag k="name" v="Kasin" />
		<tag k="place" v="farm" />
		<tag k="ssr:stedsnr" v="185238" />
	</node>
	<node lat="59.56603333401761" lon="9.093258326457333" id="-33514">
		<tag k="name" v="Skjeggestul" />
		<tag k="place" v="isolated_dwelling" />
		<tag k="ssr:stedsnr" v="185386" />
	</node>
	<node lat="59.555580555384985" lon="9.038811109880795" id="-33515">
		<tag k="alt_name" v="Løkelia" />
		<tag k="name" v="Løkjelia" />
		<tag k="place" v="isolated_dwelling" />
		<tag k="ssr:stedsnr" v="185391" />
	</node>
	<node lat="59.54662615724039" lon="9.298842936729368" id="-33518">
		<tag k="name" v="Tunga" />
		<tag k="place" v="farm" />
		<tag k="ssr:stedsnr" v="185737" />
	</node>
	<node lat="59.84695000105235" lon="8.94638611213478" id="-33520">
		<tag k="alt_name" v="Sønstegård" />
		<tag k="fixme" v="consider place=hamlet" />
		<tag k="name" v="Sønstegard" />
		<tag k="place" v="farm" />
		<tag k="ssr:stedsnr" v="186503" />
	</node>
	<node lat="59.674805552220214" lon="9.237624993452577" id="-33530">
		<tag k="name" v="Nyheim" />
		<tag k="place" v="isolated_dwelling" />
		<tag k="ssr:stedsnr" v="222081" />
	</node>
	<node lat="59.834058332027816" lon="8.952749992618877" id="-33541">
		<tag k="historic" v="shieling" />
		<tag k="name" v="Almelie" />
		<tag k="place" v="isolated_dwelling" />
		<tag k="ssr:stedsnr" v="224112" />
	</node>
	<node lat="59.52159444516055" lon="9.376272220050945" id="-33547">
		<tag k="name" v="Vårbustul" />
		<tag k="place" v="locality" />
		<tag k="ssr:stedsnr" v="225581" />
	</node>
	<node lat="59.50314166541588" lon="9.326977784208538" id="-33554">
		<tag k="fixme" v="consider place=hamlet" />
		<tag k="name" v="Angard" />
		<tag k="place" v="farm" />
		<tag k="ssr:stedsnr" v="225910" />
	</node>
	<node lat="59.673536108788404" lon="9.088533341012894" id="-33561">
		<tag k="name" v="Bøenstulen" />
		<tag k="place" v="locality" />
		<tag k="ssr:stedsnr" v="226451" />
	</node>
	<node lat="59.5753527756379" lon="9.182974994053387" id="-33562">
		<tag k="name" v="Moen" />
		<tag k="place" v="farm" />
		<tag k="ssr:stedsnr" v="226411" />
	</node>
	<node lat="59.59020555287076" lon="9.113605546850286" id="-33564">
		<tag k="name" v="Tonnepall" />
		<tag k="place" v="farm" />
		<tag k="ssr:stedsnr" v="226189" />
	</node>
	<node lat="59.592363886774216" lon="9.154144453017505" id="-33566">
		<tag k="leisure" v="pitch" />
		<tag k="name" v="Vidarvold" />
		<tag k="ssr:stedsnr" v="226194" />
	</node>
	<node lat="59.60018888933393" lon="9.16524723060233" id="-33567">
		<tag k="fixme" v="consider place=hamlet" />
		<tag k="name" v="Enggrav" />
		<tag k="place" v="farm" />
		<tag k="ssr:stedsnr" v="226641" />
	</node>
	<node lat="59.543788887995156" lon="9.169608327897466" id="-33573">
		<tag k="historic" v="shieling" />
		<tag k="name" v="Siljustul" />
		<tag k="place" v="isolated_dwelling" />
		<tag k="ssr:stedsnr" v="226739" />
	</node>
	<node lat="59.6411972213552" lon="9.218424998807093" id="-33610">
		<tag k="name" v="Aursand" />
		<tag k="place" v="farm" />
		<tag k="ssr:stedsnr" v="245883" />
	</node>
	<node lat="59.7425333318812" lon="8.946999995725113" id="-33613">
		<tag k="name" v="Veslero" />
		<tag k="place" v="isolated_dwelling" />
		<tag k="ssr:stedsnr" v="246004" />
	</node>
	<node lat="59.73768055592444" lon="8.960525006270602" id="-33614">
		<tag k="name" v="Gvammen" />
		<tag k="place" v="isolated_dwelling" />
		<tag k="ssr:stedsnr" v="246009" />
	</node>
	<node lat="59.74890833385262" lon="9.122238884658612" id="-33618">
		<tag k="alt_name" v="Sandaroe" />
		<tag k="name" v="Sandaroi" />
		<tag k="place" v="isolated_dwelling" />
		<tag k="ssr:stedsnr" v="246115" />
	</node>
	<node lat="59.743905558305364" lon="9.035383340581715" id="-33620">
		<tag k="name" v="Brennemo" />
		<tag k="place" v="isolated_dwelling" />
		<tag k="ssr:stedsnr" v="246122" />
	</node>
	<node lat="59.73478611377188" lon="8.99868055207646" id="-33622">
		<tag k="fixme" v="consider place=hamlet" />
		<tag k="name" v="Bergan" />
		<tag k="place" v="farm" />
		<tag k="ssr:stedsnr" v="246125" />
	</node>
	<node lat="59.598216666343355" lon="9.1259249995672" id="-33628">
		<tag k="name" v="Viperud" />
		<tag k="place" v="farm" />
		<tag k="ssr:stedsnr" v="246273" />
	</node>
	<node lat="59.60216584525768" lon="9.136941643921046" id="-33629">
		<tag k="fixme" v="consider place=hamlet" />
		<tag k="name" v="Holte" />
		<tag k="place" v="farm" />
		<tag k="ssr:stedsnr" v="246276" />
	</node>
	<node lat="59.59479336893179" lon="9.15605189336282" id="-33630">
		<tag k="name" v="Løkja" />
		<tag k="place" v="farm" />
		<tag k="ssr:stedsnr" v="246280" />
	</node>
	<node lat="59.55038055262359" lon="9.217111109009824" id="-33631">
		<tag k="alt_name" v="Hefre" />
		<tag k="fixme" v="consider place=hamlet" />
		<tag k="name" v="Hevre" />
		<tag k="place" v="farm" />
		<tag k="ssr:stedsnr" v="246387" />
	</node>
	<node lat="59.56298333012936" lon="9.231138881352454" id="-33635">
		<tag k="alt_name" v="Mærde" />
		<tag k="name" v="Merde" />
		<tag k="place" v="quarter" />
		<tag k="ssr:stedsnr" v="246782" />
	</node>
	<node lat="59.81640555696937" lon="8.985986113385282" id="-33639">
		<tag k="alt_name" v="Busnesgrend" />
		<tag k="name" v="Busnesgrenda" />
		<tag k="place" v="hamlet" />
		<tag k="ssr:stedsnr" v="247412" />
	</node>
	<node lat="59.83633200971858" lon="8.94237616593554" id="-33640">
		<tag k="alt_name" v="Solemlie" />
		<tag k="name" v="Solemslii" />
		<tag k="place" v="locality" />
		<tag k="ssr:stedsnr" v="247425" />
	</node>
	<node lat="59.782444442801534" lon="9.204561119311546" id="-33642">
		<tag k="name" v="Nordstulhytta" />
		<tag k="place" v="isolated_dwelling" />
		<tag k="ssr:stedsnr" v="247375" />
	</node>
	<node lat="59.74946944190892" lon="9.257994435842514" id="-33655">
		<tag k="historic" v="shieling" />
		<tag k="name" v="Flatlistulen" />
		<tag k="place" v="isolated_dwelling" />
		<tag k="ssr:stedsnr" v="283788" />
	</node>
	<node lat="59.57970000181524" lon="9.03536667499119" id="-33674">
		<tag k="name" v="Amerika" />
		<tag k="place" v="locality" />
		<tag k="ssr:stedsnr" v="286081" />
	</node>
	<node lat="59.487347220297934" lon="9.328655561100526" id="-33675">
		<tag k="name" v="Kåsin" />
		<tag k="place" v="isolated_dwelling" />
		<tag k="ssr:stedsnr" v="286103" />
	</node>
	<node lat="59.69683610864549" lon="9.075877780635764" id="-33679">
		<tag k="name" v="Gvelven" />
		<tag k="place" v="locality" />
		<tag k="ssr:stedsnr" v="286453" />
	</node>
	<node lat="59.49830277805047" lon="9.335583331420953" id="-33686">
		<tag k="name" v="Høiset" />
		<tag k="place" v="farm" />
		<tag k="ssr:stedsnr" v="286804" />
	</node>
	<node lat="59.569444444971964" lon="9.210913882737195" id="-33690">
		<tag k="amenity" v="school" />
		<tag k="name" v="Sem skole" />
		<tag k="ssr:stedsnr" v="287015" />
	</node>
	<node lat="59.568791670682536" lon="9.213374997195814" id="-33691">
		<tag k="name" v="Buøya" />
		<tag k="place" v="locality" />
		<tag k="ssr:stedsnr" v="287034" />
	</node>
	<node lat="59.5990250012259" lon="9.09123611893948" id="-33695">
		<tag k="name" v="Nord-Kasin" />
		<tag k="place" v="farm" />
		<tag k="ssr:stedsnr" v="287608" />
	</node>
	<node lat="59.68813610995685" lon="9.099899994021365" id="-33696">
		<tag k="name" v="Moen" />
		<tag k="place" v="farm" />
		<tag k="ssr:stedsnr" v="287528" />
	</node>
	<node lat="59.572508332601736" lon="9.25878332595356" id="-33699">
		<tag k="name" v="Meaksmoen" />
		<tag k="place" v="quarter" />
		<tag k="ssr:stedsnr" v="287591" />
	</node>
	<node lat="59.53796753975384" lon="9.263349573466515" id="-33724">
		<tag k="name" v="Strand" />
		<tag k="place" v="hamlet" />
		<tag k="ssr:stedsnr" v="300003" />
	</node>
	<node lat="59.48610277940515" lon="9.326672230939675" id="-33736">
		<tag k="name" v="Kåsa" />
		<tag k="place" v="farm" />
		<tag k="ssr:stedsnr" v="306063" />
	</node>
	<node lat="59.70074065611509" lon="8.956698052408246" id="-33737">
		<tag k="name" v="Dammen" />
		<tag k="place" v="locality" />
		<tag k="ssr:stedsnr" v="306075" />
	</node>
	<node lat="59.49851111450973" lon="9.323980558844935" id="-33738">
		<tag k="alt_name" v="Røste" />
		<tag k="fixme" v="consider place=hamlet" />
		<tag k="name" v="Røstet" />
		<tag k="place" v="farm" />
		<tag k="ssr:stedsnr" v="306076" />
	</node>
	<node lat="59.830744445018944" lon="8.907527771070493" id="-33747">
		<tag k="historic" v="shieling" />
		<tag k="name" v="Lian" />
		<tag k="place" v="isolated_dwelling" />
		<tag k="ssr:stedsnr" v="464997" />
	</node>
	<node lat="59.56186944349744" lon="9.100700004823072" id="-33751">
		<tag k="alt_name" v="Grønkjær" />
		<tag k="historic" v="shieling" />
		<tag k="name" v="Grønkjerr" />
		<tag k="place" v="isolated_dwelling" />
		<tag k="ssr:stedsnr" v="306408" />
	</node>
	<node lat="59.54433333633146" lon="9.169583332906685" id="-33752">
		<tag k="name" v="Siljustul" />
		<tag k="place" v="isolated_dwelling" />
		<tag k="ssr:stedsnr" v="306420" />
	</node>
	<node lat="59.564372222718134" lon="9.330947214599487" id="-33754">
		<tag k="name" v="Slåttemyr" />
		<tag k="place" v="isolated_dwelling" />
		<tag k="ssr:stedsnr" v="306777" />
	</node>
	<node lat="59.67875000441121" lon="9.263097214110644" id="-33756">
		<tag k="name" v="Leirodden" />
		<tag k="place" v="isolated_dwelling" />
		<tag k="ssr:stedsnr" v="306964" />
	</node>
	<node lat="59.586377780408945" lon="9.26033055873075" id="-33759">
		<tag k="name" v="Kåfjell" />
		<tag k="place" v="farm" />
		<tag k="ssr:stedsnr" v="306814" />
	</node>
	<node lat="59.599825001364714" lon="9.174575008492091" id="-33761">
		<tag k="name" v="Kasin" />
		<tag k="place" v="isolated_dwelling" />
		<tag k="ssr:stedsnr" v="307308" />
	</node>
	<node lat="59.803499999909654" lon="8.98652499878837" id="-33767">
		<tag k="name" v="Bråten" />
		<tag k="place" v="farm" />
		<tag k="ssr:stedsnr" v="307503" />
	</node>
	<node lat="59.81003332962972" lon="8.986055547082351" id="-33768">
		<tag k="name" v="Skjesåsen" />
		<tag k="place" v="isolated_dwelling" />
		<tag k="ssr:stedsnr" v="307508" />
	</node>
	<node lat="59.80624444776326" lon="8.885158325478455" id="-33769">
		<tag k="name" v="Busnessjåen" />
		<tag k="place" v="isolated_dwelling" />
		<tag k="ssr:stedsnr" v="307516" />
	</node>
	<node lat="59.56995555484872" lon="9.271383339389597" id="-33784">
		<tag k="name" v="Setremoen" />
		<tag k="place" v="quarter" />
		<tag k="ssr:stedsnr" v="468199" />
	</node>
	<node lat="59.676627781666376" lon="9.074363892527069" id="-33785">
		<tag k="historic" v="shieling" />
		<tag k="name" v="Storemyr" />
		<tag k="place" v="isolated_dwelling" />
		<tag k="ssr:stedsnr" v="468392" />
	</node>
	<node lat="59.58931389053572" lon="9.070711110166691" id="-33799">
		<tag k="name" v="Flåta" />
		<tag k="place" v="farm" />
		<tag k="ssr:stedsnr" v="469155" />
	</node>
	<node lat="59.548263892077145" lon="9.249102771038224" id="-33802">
		<tag k="name" v="Kastbakken" />
		<tag k="place" v="locality" />
		<tag k="ssr:stedsnr" v="469600" />
	</node>
	<node lat="59.626205556097496" lon="9.21745833100878" id="-33809">
		<tag k="historic" v="shieling" />
		<tag k="name" v="Tverrdalen" />
		<tag k="place" v="isolated_dwelling" />
		<tag k="ssr:stedsnr" v="469888" />
	</node>
	<node lat="59.54803055336712" lon="9.096044441983983" id="-33815">
		<tag k="name" v="Runningen" />
		<tag k="place" v="locality" />
		<tag k="ssr:stedsnr" v="469938" />
	</node>
	<node lat="59.59395277690394" lon="9.039500006661234" id="-33820">
		<tag k="name" v="Øygarden" />
		<tag k="place" v="farm" />
		<tag k="ssr:stedsnr" v="470132" />
	</node>
	<node lat="59.59398410055018" lon="9.028360435548938" id="-33821">
		<tag k="name" v="Lia" />
		<tag k="place" v="farm" />
		<tag k="ssr:stedsnr" v="470133" />
	</node>
	<node lat="59.720847224106315" lon="9.015088881506063" id="-33828">
		<tag k="name" v="Torrud" />
		<tag k="place" v="farm" />
		<tag k="ssr:stedsnr" v="470884" />
	</node>
	<node lat="59.75286110920371" lon="9.01940556177263" id="-33846">
		<tag k="name" v="Sundvoll" />
		<tag k="place" v="farm" />
		<tag k="ssr:stedsnr" v="345282" />
	</node>
	<node lat="59.82479721838994" lon="8.98700000734841" id="-33848">
		<tag k="historic" v="shieling" />
		<tag k="name" v="Åvaldskås" />
		<tag k="place" v="isolated_dwelling" />
		<tag k="ssr:stedsnr" v="345772" />
	</node>
	<node lat="59.56858611139017" lon="9.255936116645621" id="-33857">
		<tag k="name" v="Meaksmoen" />
		<tag k="place" v="quarter" />
		<tag k="ssr:stedsnr" v="347227" />
	</node>
	<node lat="59.55067777517141" lon="9.136736112799975" id="-33858">
		<tag k="historic" v="shieling" />
		<tag k="name" v="Nystul" />
		<tag k="place" v="isolated_dwelling" />
		<tag k="ssr:stedsnr" v="347106" />
	</node>
	<node lat="59.608833333944055" lon="9.041861109043667" id="-33859">
		<tag k="name" v="Kallbekkdalen" />
		<tag k="place" v="farm" />
		<tag k="ssr:stedsnr" v="347154" />
	</node>
	<node lat="59.60930277852753" lon="9.037600008531046" id="-33860">
		<tag k="name" v="Bråbekk" />
		<tag k="place" v="farm" />
		<tag k="ssr:stedsnr" v="347155" />
	</node>
	<node lat="59.59127777567083" lon="9.182888885594648" id="-33862">
		<tag k="name" v="Holla" />
		<tag k="place" v="farm" />
		<tag k="ssr:stedsnr" v="347325" />
	</node>
	<node lat="59.600672220629676" lon="9.170200001240994" id="-33863">
		<tag k="name" v="Hagen" />
		<tag k="place" v="farm" />
		<tag k="ssr:stedsnr" v="347606" />
	</node>
	<node lat="59.57569444187529" lon="9.200583331933547" id="-33864">
		<tag k="name" v="Lauskås" />
		<tag k="place" v="quarter" />
		<tag k="ssr:stedsnr" v="347354" />
	</node>
	<node lat="59.590316666763975" lon="9.276522230681545" id="-33867">
		<tag k="name" v="Snøyrud" />
		<tag k="place" v="locality" />
		<tag k="ssr:stedsnr" v="347518" />
	</node>
	<node lat="59.50091944713535" lon="9.33134721500768" id="-33872">
		<tag k="name" v="Gåthaug østre" />
		<tag k="place" v="farm" />
		<tag k="ssr:stedsnr" v="347803" />
	</node>
	<node lat="59.69289444746366" lon="8.953730553074772" id="-33876">
		<tag k="name" v="Skardet" />
		<tag k="place" v="locality" />
		<tag k="ssr:stedsnr" v="347766" />
	</node>
	<node lat="59.616063889927084" lon="9.28418055549703" id="-33882">
		<tag k="name" v="Snippen" />
		<tag k="place" v="isolated_dwelling" />
		<tag k="ssr:stedsnr" v="347961" />
	</node>
	<node lat="59.68461666221081" lon="9.024622221579238" id="-33886">
		<tag k="name" v="Merde" />
		<tag k="place" v="locality" />
		<tag k="ssr:stedsnr" v="347979" />
	</node>
	<node lat="59.58374166750953" lon="9.30824444772468" id="-33888">
		<tag k="name" v="Leivstein" />
		<tag k="place" v="locality" />
		<tag k="ssr:stedsnr" v="348063" />
	</node>
	<node lat="59.621730556991686" lon="9.048052785851487" id="-33896">
		<tag k="alt_name" v="Hålåstul" />
		<tag k="name" v="Holastul" />
		<tag k="place" v="locality" />
		<tag k="ssr:stedsnr" v="366311" />
	</node>
	<node lat="59.60780555165594" lon="9.104377773543295" id="-33897">
		<tag k="name" v="Hellem" />
		<tag k="place" v="farm" />
		<tag k="ssr:stedsnr" v="366301" />
	</node>
	<node lat="59.737650003372195" lon="8.99019443830064" id="-33898">
		<tag k="name" v="Lislerud" />
		<tag k="place" v="isolated_dwelling" />
		<tag k="ssr:stedsnr" v="367105" />
	</node>
	<node lat="59.737749996964375" lon="8.999444435938466" id="-33899">
		<tag k="alt_name" v="Kåli" />
		<tag k="fixme" v="consider place=hamlet" />
		<tag k="name" v="Koli" />
		<tag k="place" v="farm" />
		<tag k="ssr:stedsnr" v="367107" />
	</node>
	<node lat="59.68990000225285" lon="9.097883338105943" id="-33900">
		<tag k="name" v="Moen" />
		<tag k="place" v="farm" />
		<tag k="ssr:stedsnr" v="367111" />
	</node>
	<node lat="59.69417778130905" lon="9.112091661580497" id="-33901">
		<tag k="alt_name" v="Jore" />
		<tag k="name" v="Jordet" />
		<tag k="place" v="farm" />
		<tag k="ssr:stedsnr" v="367112" />
	</node>
	<node lat="59.68132499972259" lon="9.042475006276689" id="-33904">
		<tag k="fixme" v="consider place=hamlet" />
		<tag k="name" v="Romme" />
		<tag k="place" v="farm" />
		<tag k="ssr:stedsnr" v="367130" />
	</node>
	<node lat="59.74473055887104" lon="8.964644449476857" id="-33905">
		<tag k="name" v="Steinbakken" />
		<tag k="place" v="isolated_dwelling" />
		<tag k="ssr:stedsnr" v="367002" />
	</node>
	<node lat="59.74729444145416" lon="9.200450001826926" id="-33909">
		<tag k="name" v="Berglia" />
		<tag k="place" v="farm" />
		<tag k="ssr:stedsnr" v="367089" />
	</node>
	<node lat="59.73964244166461" lon="9.15018399637178" id="-33910">
		<tag k="name" v="Svartebu" />
		<tag k="place" v="locality" />
		<tag k="ssr:stedsnr" v="367095" />
	</node>
	<node lat="59.620316663727536" lon="9.185194437529457" id="-33911">
		<tag k="name" v="Listul" />
		<tag k="place" v="isolated_dwelling" />
		<tag k="ssr:stedsnr" v="367208" />
	</node>
	<node lat="59.59143055183856" lon="9.131566664365122" id="-33913">
		<tag k="name" v="Moen" />
		<tag k="place" v="farm" />
		<tag k="ssr:stedsnr" v="367229" />
	</node>
	<node lat="59.676183330092364" lon="8.945541659682377" id="-33916">
		<tag k="name" v="Plassen" />
		<tag k="place" v="farm" />
		<tag k="ssr:stedsnr" v="367188" />
	</node>
	<node lat="59.722249999300985" lon="9.27272500463494" id="-33921">
		<tag k="name" v="Oppigard" />
		<tag k="place" v="farm" />
		<tag k="ssr:stedsnr" v="367387" />
	</node>
	<node lat="59.8135555536574" lon="8.987749991779575" id="-33923">
		<tag k="fixme" v="consider place=hamlet" />
		<tag k="name" v="Feten" />
		<tag k="place" v="farm" />
		<tag k="ssr:stedsnr" v="367421" />
	</node>
	<node lat="59.50009999718543" lon="9.330674996274965" id="-33926">
		<tag k="fixme" v="consider place=hamlet" />
		<tag k="name" v="Gåthaug" />
		<tag k="place" v="farm" />
		<tag k="ssr:stedsnr" v="367707" />
	</node>
	<node lat="59.77790555690924" lon="9.099566671671715" id="-33934">
		<tag k="name" v="Høymyr" />
		<tag k="place" v="isolated_dwelling" />
		<tag k="ssr:stedsnr" v="368403" />
	</node>
	<node lat="59.86673333110718" lon="8.91860556380422" id="-33937">
		<tag k="alt_name" v="Juvstul" />
		<tag k="name" v="Gjuvstulen" />
		<tag k="place" v="isolated_dwelling" />
		<tag k="ssr:stedsnr" v="368503" />
	</node>
	<node lat="59.777563887441694" lon="8.979033327598982" id="-33942">
		<tag k="alt_name" v="S. Fjellstul" />
		<tag k="historic" v="shieling" />
		<tag k="name" v="Søre Fjellstul" />
		<tag k="place" v="isolated_dwelling" />
		<tag k="ssr:stedsnr" v="479640" />
	</node>
	<node lat="59.810322219174154" lon="9.239075003560115" id="-33944">
		<tag k="historic" v="shieling" />
		<tag k="name" v="Grotburoe" />
		<tag k="place" v="isolated_dwelling" />
		<tag k="ssr:stedsnr" v="482031" />
	</node>
	<node lat="59.85446388636781" lon="8.941816658369971" id="-33945">
		<tag k="name" v="Sagflåta" />
		<tag k="place" v="farm" />
		<tag k="ssr:stedsnr" v="482034" />
	</node>
	<node lat="59.77808889118327" lon="9.099711115966628" id="-33956">
		<tag k="historic" v="shieling" />
		<tag k="name" v="Høymyr" />
		<tag k="place" v="isolated_dwelling" />
		<tag k="ssr:stedsnr" v="484357" />
	</node>
	<node lat="59.51319444848908" lon="9.34933611918615" id="-33967">
		<tag k="name" v="Øvre Moen" />
		<tag k="place" v="locality" />
		<tag k="ssr:stedsnr" v="407607" />
	</node>
	<node lat="59.49612952862002" lon="9.331205367741935" id="-33980">
		<tag k="alt_name" v="Kallejord" />
		<tag k="fixme" v="consider place=hamlet" />
		<tag k="name" v="Kaljord" />
		<tag k="place" v="farm" />
		<tag k="ssr:stedsnr" v="487064" />
	</node>
	<node lat="59.487819445083595" lon="9.339083332906117" id="-33981">
		<tag k="name" v="Vøllen" />
		<tag k="place" v="locality" />
		<tag k="ssr:stedsnr" v="407848" />
	</node>
	<node lat="59.56875000420055" lon="9.17015000860402" id="-33982">
		<tag k="name" v="Breidal" />
		<tag k="place" v="farm" />
		<tag k="ssr:stedsnr" v="408108" />
	</node>
	<node lat="59.578961107516044" lon="9.200580555615744" id="-33986">
		<tag k="name" v="Runningen" />
		<tag k="place" v="farm" />
		<tag k="ssr:stedsnr" v="408340" />
	</node>
	<node lat="59.57630555642821" lon="9.195824994806651" id="-33988">
		<tag k="name" v="Trolldalen" />
		<tag k="place" v="quarter" />
		<tag k="ssr:stedsnr" v="408400" />
	</node>
	<node lat="59.57939444321131" lon="9.270783328275893" id="-33990">
		<tag k="name" v="Skogen" />
		<tag k="place" v="quarter" />
		<tag k="ssr:stedsnr" v="408564" />
	</node>
	<node lat="59.644538886131535" lon="9.113944448203304" id="-33995">
		<tag k="name" v="Myrastul" />
		<tag k="place" v="locality" />
		<tag k="ssr:stedsnr" v="408845" />
	</node>
	<node lat="59.536605551137406" lon="8.948905562628187" id="-34008">
		<tag k="name" v="Brøløs" />
		<tag k="place" v="isolated_dwelling" />
		<tag k="ssr:stedsnr" v="409337" />
	</node>
	<node lat="59.49554722340656" lon="9.316836105236456" id="-34011">
		<tag k="fixme" v="consider place=hamlet" />
		<tag k="name" v="Haugholt" />
		<tag k="place" v="farm" />
		<tag k="ssr:stedsnr" v="487052" />
	</node>
	<node lat="59.70308610868487" lon="8.912677769022835" id="-34018">
		<tag k="name" v="Grønli" />
		<tag k="place" v="locality" />
		<tag k="ssr:stedsnr" v="488074" />
	</node>
	<node lat="59.65008055567074" lon="9.047205560461789" id="-34026">
		<tag k="name" v="Myrastul" />
		<tag k="place" v="isolated_dwelling" />
		<tag k="ssr:stedsnr" v="488182" />
	</node>
	<node lat="59.629841667689824" lon="9.126344435905436" id="-34029">
		<tag k="name" v="Vollan" />
		<tag k="place" v="isolated_dwelling" />
		<tag k="ssr:stedsnr" v="488257" />
	</node>
	<node lat="59.60705000206318" lon="9.020761118155653" id="-34030">
		<tag k="name" v="Ørvella" />
		<tag k="place" v="farm" />
		<tag k="ssr:stedsnr" v="488277" />
	</node>
	<node lat="59.60371110688564" lon="9.04242777443471" id="-34032">
		<tag k="name" v="Sauarkåsa" />
		<tag k="place" v="farm" />
		<tag k="ssr:stedsnr" v="488216" />
	</node>
	<node lat="59.58816111453413" lon="9.208408331290405" id="-34034">
		<tag k="name" v="Åsen" />
		<tag k="place" v="isolated_dwelling" />
		<tag k="ssr:stedsnr" v="488235" />
	</node>
	<node lat="59.594024996993376" lon="9.121213880093045" id="-34035">
		<tag k="name" v="Velta" />
		<tag k="place" v="farm" />
		<tag k="ssr:stedsnr" v="488240" />
	</node>
	<node lat="59.60334310411755" lon="9.144725761561642" id="-34036">
		<tag k="fixme" v="consider place=hamlet" />
		<tag k="name" v="Håberg" />
		<tag k="place" v="farm" />
		<tag k="ssr:stedsnr" v="488242" />
	</node>
	<node lat="59.530375002912706" lon="9.349300005611799" id="-34041">
		<tag k="name" v="Kloppa" />
		<tag k="place" v="isolated_dwelling" />
		<tag k="ssr:stedsnr" v="488734" />
	</node>
	<node lat="59.52680000075016" lon="9.271949999414055" id="-34042">
		<tag k="name" v="Kantebakke" />
		<tag k="place" v="farm" />
		<tag k="ssr:stedsnr" v="488740" />
	</node>
	<node lat="59.66417500201625" lon="9.232600005076282" id="-34045">
		<tag k="alt_name" v="Gamlestulen" />
		<tag k="historic" v="shieling" />
		<tag k="name" v="Gammelstulen" />
		<tag k="place" v="isolated_dwelling" />
		<tag k="ssr:stedsnr" v="488918" />
	</node>
	<node lat="59.671025000750255" lon="9.270425007338055" id="-34050">
		<tag k="name" v="Vassbotn" />
		<tag k="place" v="farm" />
		<tag k="ssr:stedsnr" v="488967" />
	</node>
	<node lat="59.824066669334975" lon="8.944374998772487" id="-34058">
		<tag k="alt_name" v="Gvamslistul" />
		<tag k="name" v="Kvamslistulen" />
		<tag k="place" v="isolated_dwelling" />
		<tag k="ssr:stedsnr" v="489459" />
	</node>
	<node lat="59.735655551558686" lon="9.020400001473613" id="-34072">
		<tag k="name" v="Finnekåsa" />
		<tag k="place" v="farm" />
		<tag k="ssr:stedsnr" v="428105" />
	</node>
	<node lat="59.69986389030421" lon="9.118044437101597" id="-34073">
		<tag k="name" v="Bakka" />
		<tag k="place" v="farm" />
		<tag k="ssr:stedsnr" v="428164" />
	</node>
	<node lat="59.69761388755052" lon="9.104783330336424" id="-34074">
		<tag k="alt_name" v="Folsland" />
		<tag k="name" v="Follseland" />
		<tag k="place" v="farm" />
		<tag k="ssr:stedsnr" v="428165" />
	</node>
	<node lat="59.560736107242455" lon="9.03726111349947" id="-34081">
		<tag k="name" v="Damstul" />
		<tag k="place" v="isolated_dwelling" />
		<tag k="ssr:stedsnr" v="428381" />
	</node>
	<node lat="59.629980555488125" lon="9.363694447383992" id="-34087">
		<tag k="alt_name" v="Vipeto-seter" />
		<tag k="historic" v="shieling" />
		<tag k="name" v="Vipeto" />
		<tag k="place" v="isolated_dwelling" />
		<tag k="ssr:stedsnr" v="428906" />
	</node>
	<node lat="59.833405558739095" lon="8.970936107518524" id="-34093">
		<tag k="alt_name" v="Håkedalen" />
		<tag k="fixme" v="consider place=hamlet" />
		<tag k="name" v="Haukedalen" />
		<tag k="place" v="farm" />
		<tag k="ssr:stedsnr" v="429434" />
	</node>
	<node lat="59.8633638854276" lon="8.93066666328431" id="-34094">
		<tag k="name" v="Dalen" />
		<tag k="place" v="isolated_dwelling" />
		<tag k="ssr:stedsnr" v="429448" />
	</node>
	<node lat="59.79066111048378" lon="9.309458330505405" id="-34095">
		<tag k="name" v="Flisebu" />
		<tag k="place" v="isolated_dwelling" />
		<tag k="ssr:stedsnr" v="429911" />
	</node>
	<node lat="59.684655555521864" lon="9.103908326119845" id="-34097">
		<tag k="name" v="Sigurdsrud" />
		<tag k="place" v="farm" />
		<tag k="ssr:stedsnr" v="671129" />
	</node>
	<node lat="59.69389999780206" lon="9.092405553237624" id="-34098">
		<tag k="name" v="Rugholt" />
		<tag k="place" v="farm" />
		<tag k="ssr:stedsnr" v="671130" />
	</node>
	<node lat="59.68250555649533" lon="9.020702770357177" id="-34100">
		<tag k="name" v="Nymoen" />
		<tag k="place" v="isolated_dwelling" />
		<tag k="ssr:stedsnr" v="671144" />
	</node>
	<node lat="59.78671944467738" lon="9.140724996831027" id="-34102">
		<tag k="historic" v="shieling" />
		<tag k="name" v="Pusup" />
		<tag k="place" v="isolated_dwelling" />
		<tag k="ssr:stedsnr" v="671377" />
	</node>
	<node lat="59.77755832939877" lon="8.979091673046657" id="-34107">
		<tag k="name" v="Fjellstul" />
		<tag k="place" v="isolated_dwelling" />
		<tag k="ssr:stedsnr" v="671476" />
	</node>
	<node lat="59.812674998050355" lon="8.98817500466071" id="-34109">
		<tag k="name" v="Haugetrå" />
		<tag k="place" v="farm" />
		<tag k="ssr:stedsnr" v="671494" />
	</node>
	<node lat="59.81571666953475" lon="8.968277780792636" id="-34110">
		<tag k="name" v="Storekås" />
		<tag k="place" v="isolated_dwelling" />
		<tag k="ssr:stedsnr" v="671502" />
	</node>
	<node lat="59.77351944886248" lon="9.290194440502555" id="-34111">
		<tag k="alt_name" v="Søtdalsstulen" />
		<tag k="historic" v="shieling" />
		<tag k="name" v="Søtdalen" />
		<tag k="place" v="isolated_dwelling" />
		<tag k="ssr:stedsnr" v="671884" />
	</node>
	<node lat="59.55651111146566" lon="9.193052784634231" id="-34132">
		<tag k="name" v="Skogen" />
		<tag k="place" v="farm" />
		<tag k="ssr:stedsnr" v="468068" />
	</node>
	<node lat="59.5130916632133" lon="9.331175004101746" id="-34135">
		<tag k="name" v="Kåsa" />
		<tag k="place" v="farm" />
		<tag k="ssr:stedsnr" v="468133" />
	</node>
	<node lat="59.48038055336208" lon="9.333775004718783" id="-34140">
		<tag k="name" v="Grovdal" />
		<tag k="place" v="locality" />
		<tag k="ssr:stedsnr" v="468977" />
	</node>
	<node lat="59.6071027811637" lon="9.04862778219513" id="-34146">
		<tag k="alt_name" v="Lille Sauer" />
		<tag k="fixme" v="consider place=hamlet" />
		<tag k="name" v="Sauar" />
		<tag k="place" v="farm" />
		<tag k="ssr:stedsnr" v="469164" />
	</node>
	<node lat="59.58495832975226" lon="9.178138895912781" id="-34147">
		<tag k="name" v="Rygi" />
		<tag k="place" v="farm" />
		<tag k="ssr:stedsnr" v="469174" />
	</node>
	<node lat="59.57225277716623" lon="9.165330550736467" id="-34148">
		<tag k="name" v="Haugen" />
		<tag k="place" v="isolated_dwelling" />
		<tag k="ssr:stedsnr" v="469176" />
	</node>
	<node lat="59.59393055682059" lon="9.132802772910765" id="-34150">
		<tag k="name" v="Heggekroken" />
		<tag k="place" v="quarter" />
		<tag k="ssr:stedsnr" v="469626" />
	</node>
	<node lat="59.60969722476879" lon="9.110058336362131" id="-34152">
		<tag k="name" v="Hellem" />
		<tag k="place" v="farm" />
		<tag k="ssr:stedsnr" v="469632" />
	</node>
	<node lat="59.68703055267695" lon="9.020691673080956" id="-34156">
		<tag k="name" v="Kaldebekk" />
		<tag k="place" v="isolated_dwelling" />
		<tag k="ssr:stedsnr" v="469817" />
	</node>
	<node lat="59.74720555197192" lon="8.960711113945548" id="-34173">
		<tag k="historic" v="shieling" />
		<tag k="name" v="Kåsa" />
		<tag k="place" v="isolated_dwelling" />
		<tag k="ssr:stedsnr" v="480061" />
	</node>
	<node lat="59.735644446534664" lon="9.034624995489006" id="-34188">
		<tag k="name" v="Breiddal" />
		<tag k="place" v="isolated_dwelling" />
		<tag k="ssr:stedsnr" v="488109" />
	</node>
	<node lat="59.74872499843951" lon="9.017930551122888" id="-34189">
		<tag k="fixme" v="consider place=hamlet" />
		<tag k="name" v="Lynnevik" />
		<tag k="place" v="farm" />
		<tag k="ssr:stedsnr" v="488114" />
	</node>
	<node lat="59.561938886857625" lon="9.177811107043516" id="-34190">
		<tag k="alt_name" v="Roe" />
		<tag k="name" v="Rui" />
		<tag k="place" v="farm" />
		<tag k="ssr:stedsnr" v="488297" />
	</node>
	<node lat="59.57861388527411" lon="9.144522219019843" id="-34191">
		<tag k="name" v="Kasin" />
		<tag k="place" v="farm" />
		<tag k="ssr:stedsnr" v="488298" />
	</node>
	<node lat="59.589202779571806" lon="9.055780556626786" id="-34197">
		<tag k="fixme" v="consider place=hamlet" />
		<tag k="name" v="Haugerud" />
		<tag k="place" v="farm" />
		<tag k="ssr:stedsnr" v="488308" />
	</node>
	<node lat="59.59518715902799" lon="9.02291969239452" id="-34198">
		<tag k="name" v="Lia" />
		<tag k="place" v="farm" />
		<tag k="ssr:stedsnr" v="488310" />
	</node>
	<node lat="59.54864721783252" lon="9.245825003600954" id="-34207">
		<tag k="alt_name" v="Kaste" />
		<tag k="name" v="Kastet" />
		<tag k="place" v="farm" />
		<tag k="ssr:stedsnr" v="488752" />
	</node>
	<node lat="59.62707500280471" lon="9.239555553537448" id="-34213">
		<tag k="name" v="Gravningen" />
		<tag k="place" v="farm" />
		<tag k="ssr:stedsnr" v="488895" />
	</node>
	<node lat="59.55095000260111" lon="9.025400007882556" id="-34221">
		<tag k="name" v="Listul" />
		<tag k="place" v="isolated_dwelling" />
		<tag k="ssr:stedsnr" v="489450" />
	</node>
	<node lat="59.76993888781808" lon="8.9318361064928" id="-34222">
		<tag k="name" v="Rusjølju" />
		<tag k="place" v="isolated_dwelling" />
		<tag k="ssr:stedsnr" v="489495" />
	</node>
	<node lat="59.73438055412984" lon="9.297577773269897" id="-34245">
		<tag k="aerialway" v="drag_lift" />
		<tag k="fixme" v="consider the other aerialway types" />
		<tag k="name" v="Bolkesjøheisen" />
		<tag k="ssr:stedsnr" v="527922" />
	</node>
	<node lat="59.48815000439265" lon="9.335475003605712" id="-34251">
		<tag k="name" v="Klevsås" />
		<tag k="place" v="locality" />
		<tag k="ssr:stedsnr" v="528826" />
	</node>
	<node lat="59.560469448638074" lon="9.200469437729902" id="-34254">
		<tag k="name" v="Undeland" />
		<tag k="place" v="farm" />
		<tag k="ssr:stedsnr" v="529110" />
	</node>
	<node lat="59.56402221890604" lon="9.19199445155387" id="-34256">
		<tag k="name" v="Brenna" />
		<tag k="place" v="farm" />
		<tag k="ssr:stedsnr" v="529130" />
	</node>
	<node lat="59.66230277427871" lon="9.1429083268476" id="-34257">
		<tag k="name" v="Nordstul" />
		<tag k="place" v="locality" />
		<tag k="ssr:stedsnr" v="529173" />
	</node>
	<node lat="59.59816944834191" lon="9.165113890020962" id="-34264">
		<tag k="fixme" v="consider place=hamlet" />
		<tag k="name" v="Tovsrud" />
		<tag k="place" v="farm" />
		<tag k="ssr:stedsnr" v="529604" />
	</node>
	<node lat="59.61159999997846" lon="9.282030560175192" id="-34269">
		<tag k="name" v="Graverkasin" />
		<tag k="place" v="quarter" />
		<tag k="ssr:stedsnr" v="529526" />
	</node>
	<node lat="59.655716670998416" lon="9.092313895074858" id="-34274">
		<tag k="name" v="Takhol" />
		<tag k="place" v="locality" />
		<tag k="ssr:stedsnr" v="529874" />
	</node>
	<node lat="59.60745833602164" lon="9.051222227189927" id="-34279">
		<tag k="alt_name" v="Sauer midgård" />
		<tag k="fixme" v="consider place=hamlet" />
		<tag k="name" v="Midt-Sauar" />
		<tag k="place" v="farm" />
		<tag k="ssr:stedsnr" v="530187" />
	</node>
	<node lat="59.8092694402138" lon="8.994366669319671" id="-34292">
		<tag k="fixme" v="consider place=hamlet" />
		<tag k="name" v="Østre Busnes" />
		<tag k="place" v="farm" />
		<tag k="ssr:stedsnr" v="543625" />
	</node>
	<node lat="59.58663333579073" lon="9.17981945094696" id="-34298">
		<tag k="name" v="Rinde" />
		<tag k="place" v="farm" />
		<tag k="ssr:stedsnr" v="548277" />
	</node>
	<node lat="59.61572145653098" lon="9.111771489693046" id="-34299">
		<tag k="name" v="Kleivkås" />
		<tag k="place" v="locality" />
		<tag k="ssr:stedsnr" v="548322" />
	</node>
	<node lat="59.572522682627195" lon="9.215483593417632" id="-34301">
		<tag k="name" v="Sem" />
		<tag k="place" v="farm" />
		<tag k="ssr:stedsnr" v="548376" />
	</node>
	<node lat="59.6855555595201" lon="9.032799994462644" id="-34304">
		<tag k="fixme" v="consider place=hamlet" />
		<tag k="name" v="Hesledalen" />
		<tag k="place" v="farm" />
		<tag k="ssr:stedsnr" v="549155" />
	</node>
	<node lat="59.687288889379325" lon="9.076919451741048" id="-34305">
		<tag k="name" v="Kåsa" />
		<tag k="place" v="isolated_dwelling" />
		<tag k="ssr:stedsnr" v="549160" />
	</node>
	<node lat="59.666144445155275" lon="8.983558337020996" id="-34315">
		<tag k="name" v="Vårstulen" />
		<tag k="place" v="farm" />
		<tag k="ssr:stedsnr" v="549249" />
	</node>
	<node lat="59.66882777873424" lon="8.971149995534875" id="-34316">
		<tag k="name" v="Dalen" />
		<tag k="place" v="isolated_dwelling" />
		<tag k="ssr:stedsnr" v="549250" />
	</node>
	<node lat="59.596341391802675" lon="9.059984247069647" id="-34317">
		<tag k="name" v="Flatland" />
		<tag k="place" v="farm" />
		<tag k="ssr:stedsnr" v="549252" />
	</node>
	<node lat="59.81208888804265" lon="8.98049167435283" id="-34325">
		<tag k="name" v="Kasin" />
		<tag k="place" v="farm" />
		<tag k="ssr:stedsnr" v="549459" />
	</node>
	<node lat="59.514499995680026" lon="9.251197220788137" id="-34329">
		<tag k="historic" v="shieling" />
		<tag k="name" v="Vihus" />
		<tag k="place" v="isolated_dwelling" />
		<tag k="ssr:stedsnr" v="549707" />
	</node>
	<node lat="59.688025004110045" lon="9.282902773843047" id="-34330">
		<tag k="name" v="Åmot" />
		<tag k="place" v="isolated_dwelling" />
		<tag k="ssr:stedsnr" v="549958" />
	</node>
	<node lat="59.8491916632078" lon="8.94208055687348" id="-34333">
		<tag k="alt_name" v="Svalestuen" />
		<tag k="fixme" v="consider place=hamlet" />
		<tag k="name" v="Svålåstugo" />
		<tag k="place" v="farm" />
		<tag k="ssr:stedsnr" v="550445" />
	</node>
	<node lat="59.864823775201316" lon="8.89057930058666" id="-34334">
		<tag k="alt_name" v="Boslie" />
		<tag k="name" v="Boslii" />
		<tag k="place" v="locality" />
		<tag k="ssr:stedsnr" v="550449" />
	</node>
	<node lat="59.72179999907908" lon="9.27748055666321" id="-34337">
		<tag k="name" v="Bolkesjø turisthotell" />
		<tag k="ssr:stedsnr" v="586000" />
		<tag k="tourism" v="hotel" />
	</node>
	<node lat="59.583527777542976" lon="9.13102221795897" id="-34364">
		<tag k="name" v="Grene nordre" />
		<tag k="place" v="farm" />
		<tag k="ssr:stedsnr" v="590205" />
	</node>
	<node lat="59.569113893324904" lon="9.279252785720267" id="-34365">
		<tag k="name" v="Setre" />
		<tag k="place" v="farm" />
		<tag k="ssr:stedsnr" v="590214" />
	</node>
	<node lat="59.51645277732394" lon="9.287563880894446" id="-34367">
		<tag k="name" v="Simones" />
		<tag k="place" v="farm" />
		<tag k="ssr:stedsnr" v="590503" />
	</node>
	<node lat="59.52078611377145" lon="9.198386114935923" id="-34370">
		<tag k="historic" v="shieling" />
		<tag k="name" v="Gullbekkseter" />
		<tag k="place" v="isolated_dwelling" />
		<tag k="ssr:stedsnr" v="590467" />
	</node>
	<node lat="59.65624444639632" lon="9.224247214449358" id="-34380">
		<tag k="name" v="Oddestul" />
		<tag k="place" v="locality" />
		<tag k="ssr:stedsnr" v="590810" />
	</node>
	<node lat="59.6411972206538" lon="9.176602776950833" id="-34381">
		<tag k="name" v="Diplestul" />
		<tag k="place" v="locality" />
		<tag k="ssr:stedsnr" v="590859" />
	</node>
	<node lat="59.530811109370816" lon="9.304841661668924" id="-34385">
		<tag k="name" v="Ramberg" />
		<tag k="place" v="farm" />
		<tag k="ssr:stedsnr" v="590953" />
	</node>
	<node lat="59.61911944535174" lon="9.054322227592595" id="-34388">
		<tag k="name" v="Solbergstulen" />
		<tag k="place" v="locality" />
		<tag k="ssr:stedsnr" v="591203" />
	</node>
	<node lat="59.744625003825284" lon="8.961913886421325" id="-34393">
		<tag k="name" v="Nystul" />
		<tag k="place" v="locality" />
		<tag k="ssr:stedsnr" v="591964" />
	</node>
	<node lat="59.866875000505274" lon="8.931347229237211" id="-34401">
		<tag k="historic" v="shieling" />
		<tag k="name" v="Perskås" />
		<tag k="place" v="isolated_dwelling" />
		<tag k="ssr:stedsnr" v="604011" />
	</node>
	<node lat="59.67343610867797" lon="9.07260833729666" id="-34410">
		<tag k="name" v="Åsen" />
		<tag k="place" v="isolated_dwelling" />
		<tag k="ssr:stedsnr" v="609209" />
	</node>
	<node lat="59.56810833369463" lon="9.212183335184903" id="-34415">
		<tag k="fixme" v="consider place=suburb, village or hamlet" />
		<tag k="name" v="Strupa" />
		<tag k="place" v="quarter" />
		<tag k="ssr:stedsnr" v="609345" />
	</node>
	<node lat="59.52635000296606" lon="9.19323332731812" id="-34419">
		<tag k="name" v="Smedstul" />
		<tag k="place" v="isolated_dwelling" />
		<tag k="ssr:stedsnr" v="609391" />
	</node>
	<node lat="59.60744721841465" lon="9.35384721778723" id="-34422">
		<tag k="historic" v="shieling" />
		<tag k="name" v="Tovestul" />
		<tag k="place" v="isolated_dwelling" />
		<tag k="ssr:stedsnr" v="609784" />
	</node>
	<node lat="59.746083336486265" lon="8.94996388656379" id="-34430">
		<tag k="alt_name" v="Høgebrenne" />
		<tag k="name" v="Høgbrenna" />
		<tag k="place" v="isolated_dwelling" />
		<tag k="ssr:stedsnr" v="610009" />
	</node>
	<node lat="59.804919441051936" lon="8.93394166769273" id="-34437">
		<tag k="name" v="Bekkestul" />
		<tag k="place" v="isolated_dwelling" />
		<tag k="ssr:stedsnr" v="610533" />
	</node>
	<node lat="59.50838055127709" lon="9.252872214002895" id="-34439">
		<tag k="historic" v="shieling" />
		<tag k="name" v="Simonesvihus" />
		<tag k="place" v="isolated_dwelling" />
		<tag k="ssr:stedsnr" v="610726" />
	</node>
	<node lat="59.66706944547031" lon="9.401797221839555" id="-34445">
		<tag k="historic" v="shieling" />
		<tag k="name" v="Bjønndalshytta" />
		<tag k="place" v="isolated_dwelling" />
		<tag k="ssr:stedsnr" v="646925" />
	</node>
	<node lat="59.77392777644406" lon="9.1657527814843" id="-34450">
		<tag k="name" v="Breivassdalen" />
		<tag k="place" v="isolated_dwelling" />
		<tag k="ssr:stedsnr" v="648349" />
	</node>
	<node lat="59.51654444359721" lon="9.439049991881248" id="-34456">
		<tag k="name" v="Damstugo" />
		<tag k="place" v="locality" />
		<tag k="ssr:stedsnr" v="649707" />
	</node>
	<node lat="59.56263611004132" lon="9.251733327634888" id="-34460">
		<tag k="fixme" v="consider place=hamlet" />
		<tag k="name" v="Tinnes søndre" />
		<tag k="place" v="farm" />
		<tag k="ssr:stedsnr" v="650136" />
	</node>
	<node lat="59.58314166401632" lon="9.177102781357599" id="-34461">
		<tag k="name" v="Rygi" />
		<tag k="place" v="farm" />
		<tag k="ssr:stedsnr" v="650153" />
	</node>
	<node lat="59.55921389093058" lon="9.269672227397914" id="-34462">
		<tag k="name" v="Kattekleiv" />
		<tag k="place" v="quarter" />
		<tag k="ssr:stedsnr" v="650185" />
	</node>
	<node lat="59.685777774855595" lon="9.159505558476447" id="-34480">
		<tag k="historic" v="shieling" />
		<tag k="name" v="Kåsa" />
		<tag k="place" v="isolated_dwelling" />
		<tag k="ssr:stedsnr" v="651016" />
	</node>
	<node lat="59.66164444686297" lon="8.958511117805427" id="-34489">
		<tag k="name" v="Krossfurudalen" />
		<tag k="place" v="locality" />
		<tag k="ssr:stedsnr" v="651235" />
	</node>
	<node lat="59.557291663121006" lon="9.420952771921007" id="-34501">
		<tag k="historic" v="shieling" />
		<tag k="name" v="Skvakkhaug" />
		<tag k="place" v="isolated_dwelling" />
		<tag k="ssr:stedsnr" v="652897" />
	</node>
	<node lat="59.798102778853476" lon="9.190916671920194" id="-34515">
		<tag k="historic" v="shieling" />
		<tag k="name" v="Grotbua" />
		<tag k="place" v="isolated_dwelling" />
		<tag k="ssr:stedsnr" v="664019" />
	</node>
	<node lat="59.64724444786347" lon="9.005263896634526" id="-34529">
		<tag k="name" v="Bakken" />
		<tag k="place" v="isolated_dwelling" />
		<tag k="ssr:stedsnr" v="670211" />
	</node>
	<node lat="59.609213885233686" lon="9.115405558477862" id="-34531">
		<tag k="fixme" v="consider place=hamlet" />
		<tag k="name" v="Seljord" />
		<tag k="place" v="farm" />
		<tag k="ssr:stedsnr" v="670294" />
	</node>
	<node lat="59.57782778096112" lon="9.146894451416161" id="-34534">
		<tag k="name" v="Knurrlia" />
		<tag k="place" v="farm" />
		<tag k="ssr:stedsnr" v="670332" />
	</node>
	<node lat="59.561319444193224" lon="9.193986114216282" id="-34538">
		<tag k="name" v="Yli" />
		<tag k="place" v="quarter" />
		<tag k="ssr:stedsnr" v="670401" />
	</node>
	<node lat="59.55198611223904" lon="9.069108326703642" id="-34540">
		<tag k="alt_name" v="Langetjønnstul" />
		<tag k="name" v="Langetjørnstulen" />
		<tag k="place" v="isolated_dwelling" />
		<tag k="ssr:stedsnr" v="670422" />
	</node>
	<node lat="59.520722219840515" lon="9.454452786039983" id="-34542">
		<tag k="alt_name" v="Godli" />
		<tag k="name" v="Godlia" />
		<tag k="place" v="isolated_dwelling" />
		<tag k="ssr:stedsnr" v="670710" />
	</node>
	<node lat="59.51897222440861" lon="9.378747218586494" id="-34543">
		<tag k="alt_name" v="Postmyr" />
		<tag k="historic" v="shieling" />
		<tag k="name" v="Porsmyr" />
		<tag k="place" v="isolated_dwelling" />
		<tag k="ssr:stedsnr" v="670714" />
	</node>
	<node lat="59.51495000219008" lon="9.290200008544225" id="-34544">
		<tag k="name" v="Plassen" />
		<tag k="place" v="farm" />
		<tag k="ssr:stedsnr" v="670716" />
	</node>
	<node lat="59.5310749979302" lon="9.42293055352208" id="-34545">
		<tag k="alt_name" v="Kollset" />
		<tag k="name" v="Kolsetsætra" />
		<tag k="place" v="isolated_dwelling" />
		<tag k="ssr:stedsnr" v="670723" />
	</node>
	<node lat="59.5584011413354" lon="9.275314038432871" id="-34546">
		<tag k="name" v="Tinne" />
		<tag k="place" v="farm" />
		<tag k="ssr:stedsnr" v="670742" />
	</node>
	<node lat="59.535438652174776" lon="9.266450934005107" id="-34549">
		<tag k="fixme" v="consider place=hamlet" />
		<tag k="name" v="Søndre Strand" />
		<tag k="place" v="farm" />
		<tag k="ssr:stedsnr" v="671003" />
	</node>
	<node lat="59.7606638886483" lon="8.944300008810353" id="-34553">
		<tag k="name" v="Rånebua" />
		<tag k="place" v="isolated_dwelling" />
		<tag k="ssr:stedsnr" v="671270" />
	</node>
	<node lat="59.7631083302763" lon="9.066038893638328" id="-34558">
		<tag k="name" v="Damstul" />
		<tag k="place" v="isolated_dwelling" />
		<tag k="ssr:stedsnr" v="671417" />
	</node>
	<node lat="59.680267178548846" lon="9.318809030019375" id="-34576">
		<tag k="historic" v="shieling" />
		<tag k="name" v="Nordstul" />
		<tag k="place" v="isolated_dwelling" />
		<tag k="ssr:stedsnr" v="891859" />
	</node>
	<node lat="59.73713333001538" lon="9.314661109976264" id="-34580">
		<tag k="historic" v="shieling" />
		<tag k="name" v="Dålåstul" />
		<tag k="place" v="isolated_dwelling" />
		<tag k="ssr:stedsnr" v="891937" />
	</node>
	<node lat="59.83083747037663" lon="8.981037968518041" id="-34582">
		<tag k="name" v="Sanden" />
		<tag k="place" v="farm" />
		<tag k="ssr:stedsnr" v="892799" />
	</node>
	<node lat="59.681838884502184" lon="9.105269447875823" id="-34586">
		<tag k="historic" v="shieling" />
		<tag k="name" v="Bergelia" />
		<tag k="place" v="isolated_dwelling" />
		<tag k="ssr:stedsnr" v="893443" />
	</node>
	<node lat="59.56127500365837" lon="9.192158341322564" id="-34602">
		<tag k="amenity" v="school" />
		<tag k="name" v="Yli skole" />
		<tag k="ssr:stedsnr" v="894134" />
	</node>
	<node lat="59.71335833501412" lon="9.026819443740305" id="-34603">
		<tag k="name" v="Nisi" />
		<tag k="place" v="farm" />
		<tag k="ssr:stedsnr" v="894151" />
	</node>
	<node lat="59.566300003065216" lon="9.255791662121812" id="-34605">
		<tag k="amenity" v="hospital" />
		<tag k="name" v="Notodden sjukehus" />
		<tag k="ssr:stedsnr" v="894285" />
	</node>
	<node lat="59.51749166828726" lon="9.209755549554432" id="-34606">
		<tag k="historic" v="shieling" />
		<tag k="name" v="Klokkjerstul" />
		<tag k="place" v="isolated_dwelling" />
		<tag k="ssr:stedsnr" v="894499" />
	</node>
	<node lat="59.608211108861084" lon="9.12547221774" id="-34608">
		<tag k="name" v="Rekå" />
		<tag k="place" v="farm" />
		<tag k="ssr:stedsnr" v="894628" />
	</node>
	<node lat="59.59911110864882" lon="9.150224992478286" id="-34609">
		<tag k="fixme" v="consider place=hamlet" />
		<tag k="name" v="Nyhus" />
		<tag k="place" v="farm" />
		<tag k="ssr:stedsnr" v="894637" />
	</node>
	<node lat="59.51884166610775" lon="9.283333339678249" id="-34611">
		<tag k="fixme" v="consider place=hamlet" />
		<tag k="name" v="Simones" />
		<tag k="place" v="farm" />
		<tag k="ssr:stedsnr" v="894536" />
	</node>
	<node lat="59.52205000089869" lon="9.271102776825835" id="-34612">
		<tag k="name" v="Simones" />
		<tag k="place" v="farm" />
		<tag k="ssr:stedsnr" v="894540" />
	</node>
	<node lat="59.60688888445589" lon="9.135433339451831" id="-34615">
		<tag k="name" v="Runningen" />
		<tag k="place" v="farm" />
		<tag k="ssr:stedsnr" v="894651" />
	</node>
	<node lat="59.60303332947121" lon="9.160991664252496" id="-34616">
		<tag k="name" v="Kvennestugo" />
		<tag k="place" v="farm" />
		<tag k="ssr:stedsnr" v="894656" />
	</node>
	<node lat="59.68943333521115" lon="9.046924998059291" id="-34618">
		<tag k="name" v="Åsluten" />
		<tag k="place" v="locality" />
		<tag k="ssr:stedsnr" v="894837" />
	</node>
	<node lat="59.83991944292753" lon="8.888569450775101" id="-34647">
		<tag k="historic" v="shieling" />
		<tag k="name" v="Mjelteflatin" />
		<tag k="place" v="isolated_dwelling" />
		<tag k="ssr:stedsnr" v="707878" />
	</node>
	<node lat="59.547063891356544" lon="9.407588892889752" id="-34660">
		<tag k="name" v="Astridheimen" />
		<tag k="place" v="isolated_dwelling" />
		<tag k="ssr:stedsnr" v="710705" />
	</node>
	<node lat="59.56474166378828" lon="9.1977611079152" id="-34666">
		<tag k="name" v="Juteskar" />
		<tag k="place" v="farm" />
		<tag k="ssr:stedsnr" v="711139" />
	</node>
	<node lat="59.58514721950347" lon="9.167486111571147" id="-34669">
		<tag k="name" v="Deila" />
		<tag k="place" v="farm" />
		<tag k="ssr:stedsnr" v="711383" />
	</node>
	<node lat="59.609274996994216" lon="9.289738886144004" id="-34673">
		<tag k="name" v="Jonsli" />
		<tag k="place" v="farm" />
		<tag k="ssr:stedsnr" v="711530" />
	</node>
	<node lat="59.594991538591856" lon="9.156644225469442" id="-34674">
		<tag k="alt_name" v="Løken" />
		<tag k="fixme" v="consider place=hamlet" />
		<tag k="name" v="Løkja" />
		<tag k="place" v="farm" />
		<tag k="ssr:stedsnr" v="711627" />
	</node>
	<node lat="59.67152777627948" lon="9.005899998610973" id="-34675">
		<tag k="name" v="Dalen" />
		<tag k="place" v="farm" />
		<tag k="ssr:stedsnr" v="711780" />
	</node>
	<node lat="59.689191663706" lon="9.028811117921311" id="-34682">
		<tag k="name" v="Køyta" />
		<tag k="place" v="farm" />
		<tag k="ssr:stedsnr" v="711976" />
	</node>
	<node lat="59.73861388961253" lon="9.040388894814532" id="-34684">
		<tag k="name" v="Lislestul" />
		<tag k="place" v="locality" />
		<tag k="ssr:stedsnr" v="711985" />
	</node>
	<node lat="59.798377777490956" lon="8.993172213937155" id="-34709">
		<tag k="historic" v="shieling" />
		<tag k="name" v="Berglia" />
		<tag k="place" v="isolated_dwelling" />
		<tag k="ssr:stedsnr" v="725612" />
	</node>
	<node lat="59.72723610804946" lon="9.043366667661436" id="-34720">
		<tag k="name" v="Lislestul" />
		<tag k="place" v="isolated_dwelling" />
		<tag k="ssr:stedsnr" v="731077" />
	</node>
	<node lat="59.71627778027278" lon="8.930900003438019" id="-34722">
		<tag k="name" v="Kaptein" />
		<tag k="place" v="isolated_dwelling" />
		<tag k="ssr:stedsnr" v="731080" />
	</node>
	<node lat="59.60711111415409" lon="9.161908333218484" id="-34725">
		<tag k="name" v="Murukleiv" />
		<tag k="place" v="isolated_dwelling" />
		<tag k="ssr:stedsnr" v="731225" />
	</node>
	<node lat="59.60313424868203" lon="9.155356144979335" id="-34726">
		<tag k="fixme" v="consider place=hamlet" />
		<tag k="name" v="Brekke" />
		<tag k="place" v="farm" />
		<tag k="ssr:stedsnr" v="731226" />
	</node>
	<node lat="59.56988889262225" lon="9.162724992960435" id="-34727">
		<tag k="name" v="Haugen" />
		<tag k="place" v="farm" />
		<tag k="ssr:stedsnr" v="731285" />
	</node>
	<node lat="59.64734444705593" lon="9.038758324892225" id="-34728">
		<tag k="name" v="Havsteinkåsa" />
		<tag k="place" v="locality" />
		<tag k="ssr:stedsnr" v="731170" />
	</node>
	<node lat="59.65966666923464" lon="9.089225008056895" id="-34729">
		<tag k="name" v="Gråbu" />
		<tag k="place" v="isolated_dwelling" />
		<tag k="ssr:stedsnr" v="731171" />
	</node>
	<node lat="59.5180500039958" lon="9.312522227691286" id="-34734">
		<tag k="name" v="Skogen" />
		<tag k="place" v="farm" />
		<tag k="ssr:stedsnr" v="731713" />
	</node>
	<node lat="59.53340277460098" lon="9.260097225137148" id="-34735">
		<tag k="name" v="Haugen" />
		<tag k="place" v="farm" />
		<tag k="ssr:stedsnr" v="731722" />
	</node>
	<node lat="59.79452499647779" lon="9.155675007986963" id="-34743">
		<tag k="fixme" v="consider tourism=alpine_hut or tourism=chalet" />
		<tag k="name" v="Sigridsbu" />
		<tag k="ssr:stedsnr" v="732409" />
		<tag k="tourism" v="wilderness_hut" />
	</node>
	<node lat="59.85302777569621" lon="8.926483335424608" id="-34749">
		<tag k="historic" v="shieling" />
		<tag k="name" v="Berglia" />
		<tag k="place" v="isolated_dwelling" />
		<tag k="ssr:stedsnr" v="907035" />
	</node>
	<node lat="59.56353889030175" lon="9.26456388730309" id="-34764">
		<tag k="name" v="Toreskås" />
		<tag k="place" v="locality" />
		<tag k="ssr:stedsnr" v="771257" />
	</node>
	<node lat="59.56337778023329" lon="9.196047224669229" id="-34769">
		<tag k="name" v="Gutukjær" />
		<tag k="place" v="farm" />
		<tag k="ssr:stedsnr" v="772114" />
	</node>
	<node lat="59.58426667041851" lon="9.046569447346185" id="-34778">
		<tag k="name" v="Kråkeberget" />
		<tag k="place" v="locality" />
		<tag k="ssr:stedsnr" v="772072" />
	</node>
	<node lat="59.57136666914021" lon="9.19615000237531" id="-34779">
		<tag k="name" v="Tjønnekåsa" />
		<tag k="place" v="farm" />
		<tag k="ssr:stedsnr" v="772362" />
	</node>
	<node lat="59.601383336604876" lon="9.209480560578196" id="-34781">
		<tag k="historic" v="shieling" />
		<tag k="name" v="Gamlestul" />
		<tag k="place" v="isolated_dwelling" />
		<tag k="ssr:stedsnr" v="772513" />
	</node>
	<node lat="59.678783329377254" lon="9.107991664817055" id="-34786">
		<tag k="name" v="Steinsrudstulen" />
		<tag k="place" v="locality" />
		<tag k="ssr:stedsnr" v="772421" />
	</node>
	<node lat="59.77213055856163" lon="9.105830552110094" id="-34813">
		<tag k="historic" v="shieling" />
		<tag k="name" v="Reisjåstulen" />
		<tag k="place" v="isolated_dwelling" />
		<tag k="ssr:stedsnr" v="909390" />
	</node>
	<node lat="59.70817500276698" lon="9.252594452629147" id="-34821">
		<tag k="historic" v="shieling" />
		<tag k="name" v="Dokka" />
		<tag k="place" v="isolated_dwelling" />
		<tag k="ssr:stedsnr" v="787555" />
	</node>
	<node lat="59.62672778129933" lon="9.30752778174406" id="-34830">
		<tag k="name" v="Bråtelia" />
		<tag k="place" v="isolated_dwelling" />
		<tag k="ssr:stedsnr" v="791897" />
	</node>
	<node lat="59.66197499655901" lon="9.322800004168405" id="-34834">
		<tag k="historic" v="shieling" />
		<tag k="name" v="Lislestul" />
		<tag k="place" v="isolated_dwelling" />
		<tag k="ssr:stedsnr" v="791915" />
	</node>
	<node lat="59.597619443646536" lon="9.069627786310265" id="-34836">
		<tag k="name" v="Langedokk" />
		<tag k="place" v="farm" />
		<tag k="ssr:stedsnr" v="792239" />
	</node>
	<node lat="59.59861267014935" lon="9.081023728605443" id="-34837">
		<tag k="alt_name" v="Ingolfsrud;Ingulsrud" />
		<tag k="fixme" v="consider place=hamlet" />
		<tag k="name" v="Ingulvsrud" />
		<tag k="place" v="farm" />
		<tag k="ssr:stedsnr" v="792245" />
	</node>
	<node lat="59.731597223399596" lon="9.335472215469409" id="-34839">
		<tag k="name" v="Dale" />
		<tag k="place" v="farm" />
		<tag k="ssr:stedsnr" v="792429" />
	</node>
	<node lat="59.731447219973724" lon="9.24640277141042" id="-34841">
		<tag k="name" v="Skogholtet" />
		<tag k="place" v="farm" />
		<tag k="ssr:stedsnr" v="792418" />
	</node>
	<node lat="59.55569999748463" lon="9.20136111400951" id="-34842">
		<tag k="name" v="Yli" />
		<tag k="place" v="farm" />
		<tag k="ssr:stedsnr" v="792388" />
	</node>
	<node lat="59.73529999763457" lon="9.330374997562718" id="-34846">
		<tag k="name" v="Dalen" />
		<tag k="place" v="farm" />
		<tag k="ssr:stedsnr" v="792488" />
	</node>
	<node lat="59.81921111091813" lon="8.983324995884407" id="-34847">
		<tag k="name" v="Veslefet" />
		<tag k="place" v="farm" />
		<tag k="ssr:stedsnr" v="792489" />
	</node>
	<node lat="59.50886513045998" lon="9.336890498992586" id="-34849">
		<tag k="alt_name" v="Ingolfsrud" />
		<tag k="name" v="Ingulsrud" />
		<tag k="place" v="farm" />
		<tag k="ssr:stedsnr" v="792697" />
	</node>
	<node lat="59.523800002249175" lon="9.306725005049056" id="-34853">
		<tag k="fixme" v="consider place=hamlet" />
		<tag k="name" v="Tveitan" />
		<tag k="place" v="farm" />
		<tag k="ssr:stedsnr" v="792735" />
	</node>
	<node lat="59.87545290633182" lon="8.892902580465542" id="-34854">
		<tag k="historic" v="shieling" />
		<tag k="name" v="Fåneøvrestul" />
		<tag k="place" v="isolated_dwelling" />
		<tag k="ssr:stedsnr" v="793504" />
	</node>
	<node lat="59.4807388926734" lon="9.327127775261651" id="-34856">
		<tag k="name" v="Innleggen" />
		<tag k="place" v="farm" />
		<tag k="ssr:stedsnr" v="913034" />
	</node>
	<node lat="59.69984166380818" lon="8.96788888654086" id="-34862">
		<tag k="fixme" v="consider place=hamlet" />
		<tag k="name" v="Sætre" />
		<tag k="place" v="farm" />
		<tag k="ssr:stedsnr" v="913068" />
	</node>
	<node lat="59.68446111365835" lon="9.195511104592017" id="-34864">
		<tag k="name" v="Odden" />
		<tag k="place" v="farm" />
		<tag k="ssr:stedsnr" v="913139" />
	</node>
	<node lat="59.591233329276314" lon="9.17607499811977" id="-34867">
		<tag k="name" v="Holla" />
		<tag k="place" v="farm" />
		<tag k="ssr:stedsnr" v="913250" />
	</node>
	<node lat="59.59641389021446" lon="9.163380562486031" id="-34868">
		<tag k="name" v="Tovsrud" />
		<tag k="place" v="farm" />
		<tag k="ssr:stedsnr" v="913252" />
	</node>
	<node lat="59.629469448863254" lon="9.154819441407023" id="-34869">
		<tag k="name" v="Trånåbu" />
		<tag k="place" v="locality" />
		<tag k="ssr:stedsnr" v="913271" />
	</node>
	<node lat="59.57871666613019" lon="9.176591664986029" id="-34871">
		<tag k="name" v="Holmen" />
		<tag k="place" v="farm" />
		<tag k="ssr:stedsnr" v="913349" />
	</node>
	<node lat="59.59006388616429" lon="9.078874992345575" id="-34872">
		<tag k="name" v="Dalen" />
		<tag k="place" v="farm" />
		<tag k="ssr:stedsnr" v="913330" />
	</node>
	<node lat="59.552052775434646" lon="9.03240278615029" id="-34874">
		<tag k="alt_name" v="Krokan" />
		<tag k="name" v="Kroken" />
		<tag k="place" v="isolated_dwelling" />
		<tag k="ssr:stedsnr" v="913414" />
	</node>
	<node lat="59.53867221998847" lon="9.356972221650674" id="-34880">
		<tag k="name" v="Vårbu" />
		<tag k="place" v="isolated_dwelling" />
		<tag k="ssr:stedsnr" v="913748" />
	</node>
	<node lat="59.57961944862779" lon="9.273830557651983" id="-34882">
		<tag k="name" v="Oppskogen" />
		<tag k="place" v="farm" />
		<tag k="ssr:stedsnr" v="913773" />
	</node>
	<node lat="59.65114999900316" lon="9.219172220110988" id="-34887">
		<tag k="name" v="Lauvøya" />
		<tag k="place" v="farm" />
		<tag k="ssr:stedsnr" v="913872" />
	</node>
	<node lat="59.74165000133156" lon="9.205611112882705" id="-34889">
		<tag k="name" v="Engevoll" />
		<tag k="place" v="isolated_dwelling" />
		<tag k="ssr:stedsnr" v="914120" />
	</node>
	<node lat="59.69721111404697" lon="9.038300000315207" id="-34890">
		<tag k="alt_name" v="Lirunningen" />
		<tag k="name" v="Lirudningen" />
		<tag k="place" v="isolated_dwelling" />
		<tag k="ssr:stedsnr" v="914152" />
	</node>
	<node lat="59.83102098870838" lon="8.980697525999533" id="-34891">
		<tag k="fixme" v="consider place=hamlet" />
		<tag k="name" v="Sanden" />
		<tag k="place" v="farm" />
		<tag k="ssr:stedsnr" v="914444" />
	</node>
	<node lat="59.83960278178085" lon="8.888644446209634" id="-34894">
		<tag k="alt_name" v="Glahaug" />
		<tag k="name" v="Gladhaug" />
		<tag k="place" v="isolated_dwelling" />
		<tag k="ssr:stedsnr" v="914463" />
	</node>
	<node lat="59.854444441806294" lon="8.941949995892816" id="-34895">
		<tag k="alt_name" v="Rue" />
		<tag k="name" v="Rui" />
		<tag k="place" v="isolated_dwelling" />
		<tag k="ssr:stedsnr" v="914472" />
	</node>
	<node lat="59.51677777893818" lon="8.84247500797729" id="-34900">
		<tag k="name" v="Urdevatnar" />
		<tag k="place" v="isolated_dwelling" />
		<tag k="ssr:stedsnr" v="914980" />
	</node>
	<node lat="59.749702104872306" lon="9.257825013723533" id="-34901">
		<tag k="name" v="Flatlisætra" />
		<tag k="place" v="locality" />
		<tag k="ssr:stedsnr" v="914990" />
	</node>
	<node lat="59.68598055170152" lon="9.186002784520362" id="-34913">
		<tag k="name" v="Deilviken" />
		<tag k="place" v="locality" />
		<tag k="ssr:stedsnr" v="831005" />
	</node>
	<node lat="59.838572224513314" lon="8.955197228670277" id="-34916">
		<tag k="historic" v="shieling" />
		<tag k="name" v="Skuggen" />
		<tag k="place" v="isolated_dwelling" />
		<tag k="ssr:stedsnr" v="831099" />
	</node>
	<node lat="59.72151388844863" lon="9.02729445030828" id="-34929">
		<tag k="historic" v="shieling" />
		<tag k="name" v="Oskasin" />
		<tag k="place" v="isolated_dwelling" />
		<tag k="ssr:stedsnr" v="833129" />
	</node>
	<node lat="59.57623333172734" lon="9.150980555530214" id="-34930">
		<tag k="name" v="Rønning" />
		<tag k="place" v="farm" />
		<tag k="ssr:stedsnr" v="833180" />
	</node>
	<node lat="59.581736107270416" lon="9.197408338048644" id="-34935">
		<tag k="name" v="Solhovd" />
		<tag k="place" v="farm" />
		<tag k="ssr:stedsnr" v="833333" />
	</node>
	<node lat="59.80240000067534" lon="8.942308340005845" id="-34949">
		<tag k="historic" v="shieling" />
		<tag k="name" v="Torvelistulan" />
		<tag k="place" v="isolated_dwelling" />
		<tag k="ssr:stedsnr" v="847927" />
	</node>
	<node lat="59.486588892778755" lon="9.318022231029854" id="-34956">
		<tag k="name" v="Teigen" />
		<tag k="place" v="farm" />
		<tag k="ssr:stedsnr" v="852064" />
	</node>
	<node lat="59.663050003849634" lon="9.36098055271634" id="-34959">
		<tag k="alt_name" v="Breistul" />
		<tag k="historic" v="shieling" />
		<tag k="name" v="Breidstul" />
		<tag k="place" v="isolated_dwelling" />
		<tag k="ssr:stedsnr" v="852912" />
	</node>
	<node lat="59.730583335728156" lon="8.981286104569971" id="-34964">
		<tag k="alt_name" v="Rue" />
		<tag k="name" v="Rui" />
		<tag k="place" v="farm" />
		<tag k="ssr:stedsnr" v="853005" />
	</node>
	<node lat="59.68162500428092" lon="8.987800006241985" id="-34966">
		<tag k="name" v="Dokka" />
		<tag k="place" v="isolated_dwelling" />
		<tag k="ssr:stedsnr" v="853113" />
	</node>
	<node lat="59.58339444358202" lon="9.132736102386643" id="-34969">
		<tag k="alt_name" v="Grini" />
		<tag k="name" v="Grene" />
		<tag k="place" v="farm" />
		<tag k="ssr:stedsnr" v="853326" />
	</node>
	<node lat="59.67309444869207" lon="8.87854444720369" id="-34970">
		<tag k="name" v="Nybustugo" />
		<tag k="place" v="isolated_dwelling" />
		<tag k="ssr:stedsnr" v="853212" />
	</node>
	<node lat="59.601332885424945" lon="9.058151813430403" id="-34971">
		<tag k="alt_name" v="Søndre Sauer" />
		<tag k="fixme" v="consider place=hamlet" />
		<tag k="name" v="Sauar" />
		<tag k="place" v="farm" />
		<tag k="ssr:stedsnr" v="853223" />
	</node>
	<node lat="59.75014166228959" lon="8.915741660300464" id="-34972">
		<tag k="alt_name" v="Tjørnebotn" />
		<tag k="name" v="Tjønnebotn" />
		<tag k="place" v="isolated_dwelling" />
		<tag k="ssr:stedsnr" v="853254" />
	</node>
	<node lat="59.5900055530104" lon="9.146436112706228" id="-34973">
		<tag k="name" v="Velta" />
		<tag k="place" v="farm" />
		<tag k="ssr:stedsnr" v="853268" />
	</node>
	<node lat="59.54462777802559" lon="8.925238889771045" id="-34976">
		<tag k="historic" v="shieling" />
		<tag k="name" v="Gavlesjå" />
		<tag k="place" v="isolated_dwelling" />
		<tag k="ssr:stedsnr" v="853423" />
	</node>
	<node lat="59.51947777763071" lon="9.312224995960845" id="-34978">
		<tag k="name" v="Kåsa" />
		<tag k="place" v="farm" />
		<tag k="ssr:stedsnr" v="853714" />
	</node>
	<node lat="59.520750003703576" lon="9.222205549314316" id="-34979">
		<tag k="name" v="Velebua" />
		<tag k="place" v="isolated_dwelling" />
		<tag k="ssr:stedsnr" v="853737" />
	</node>
	<node lat="59.60827777527934" lon="9.281505554850122" id="-34981">
		<tag k="alt_name" v="Graver" />
		<tag k="fixme" v="consider place=hamlet" />
		<tag k="name" v="Gravar" />
		<tag k="place" v="farm" />
		<tag k="ssr:stedsnr" v="853821" />
	</node>
	<node lat="59.78396389253761" lon="9.226180553116462" id="-34986">
		<tag k="alt_name" v="Sørstulsætra" />
		<tag k="historic" v="shieling" />
		<tag k="name" v="Sudstul" />
		<tag k="place" v="isolated_dwelling" />
		<tag k="ssr:stedsnr" v="853908" />
	</node>
	<node lat="59.62332778057993" lon="9.269049996700756" id="-34988">
		<tag k="name" v="Hove" />
		<tag k="place" v="farm" />
		<tag k="ssr:stedsnr" v="853855" />
	</node>
	<node lat="59.752619448305786" lon="9.02001666592816" id="-34992">
		<tag k="name" v="Lynnevik" />
		<tag k="place" v="farm" />
		<tag k="ssr:stedsnr" v="854595" />
	</node>
	<node lat="59.816230554727866" lon="8.987880556423283" id="-35004">
		<tag k="name" v="Bøen" />
		<tag k="place" v="farm" />
		<tag k="ssr:stedsnr" v="892761" />
	</node>
	<node lat="59.68084444039696" lon="9.153000006205946" id="-35006">
		<tag k="historic" v="shieling" />
		<tag k="name" v="Sud-Årlia" />
		<tag k="place" v="isolated_dwelling" />
		<tag k="ssr:stedsnr" v="893030" />
	</node>
	<node lat="59.56913611431374" lon="9.214099994031555" id="-35015">
		<tag k="name" v="Rognestå" />
		<tag k="place" v="quarter" />
		<tag k="ssr:stedsnr" v="894019" />
	</node>
	<node lat="59.563597218078506" lon="9.239516661337388" id="-35018">
		<tag k="fixme" v="consider place=hamlet" />
		<tag k="name" v="Tinnes nordre" />
		<tag k="place" v="farm" />
		<tag k="ssr:stedsnr" v="894161" />
	</node>
	<node lat="59.57891111310545" lon="9.171552783789176" id="-35019">
		<tag k="name" v="Deila" />
		<tag k="place" v="farm" />
		<tag k="ssr:stedsnr" v="894213" />
	</node>
	<node lat="59.57382221918209" lon="9.185186114699027" id="-35020">
		<tag k="name" v="Øya" />
		<tag k="place" v="farm" />
		<tag k="ssr:stedsnr" v="894407" />
	</node>
	<node lat="59.57240277379926" lon="9.19417499626931" id="-35021">
		<tag k="name" v="Tjønn" />
		<tag k="place" v="farm" />
		<tag k="ssr:stedsnr" v="894413" />
	</node>
	<node lat="59.59512778220624" lon="9.264608329764085" id="-35025">
		<tag k="name" v="Høymyrmoen" />
		<tag k="place" v="farm" />
		<tag k="ssr:stedsnr" v="894576" />
	</node>
	<node lat="59.67939721856713" lon="9.021736109832458" id="-35044">
		<tag k="name" v="Nautestret" />
		<tag k="place" v="farm" />
		<tag k="ssr:stedsnr" v="895774" />
	</node>
	<node lat="59.699127779555184" lon="9.136430552384441" id="-35060">
		<tag k="name" v="Dalen" />
		<tag k="place" v="isolated_dwelling" />
		<tag k="ssr:stedsnr" v="913157" />
	</node>
	<node lat="59.71782500310849" lon="8.952388895798629" id="-35062">
		<tag k="name" v="Nystul" />
		<tag k="place" v="locality" />
		<tag k="ssr:stedsnr" v="913094" />
	</node>
	<node lat="59.67544166366245" lon="9.063594437180702" id="-35064">
		<tag k="historic" v="shieling" />
		<tag k="name" v="Storemyr" />
		<tag k="place" v="isolated_dwelling" />
		<tag k="ssr:stedsnr" v="913210" />
	</node>
	<node lat="59.67968611434318" lon="9.189855548192089" id="-35065">
		<tag k="alt_name" v="Follsærås;Folserås" />
		<tag k="fixme" v="consider place=hamlet" />
		<tag k="name" v="Follserås" />
		<tag k="place" v="farm" />
		<tag k="ssr:stedsnr" v="913214" />
	</node>
	<node lat="59.54471111363572" lon="9.201138881499027" id="-35070">
		<tag k="name" v="Fåne" />
		<tag k="place" v="farm" />
		<tag k="ssr:stedsnr" v="913397" />
	</node>
	<node lat="59.577763622035725" lon="9.002142231199445" id="-35071">
		<tag k="name" v="Våtmyr" />
		<tag k="place" v="locality" />
		<tag k="ssr:stedsnr" v="913400" />
	</node>
	<node lat="59.50999722218294" lon="9.228772220557193" id="-35072">
		<tag k="name" v="Granin" />
		<tag k="place" v="isolated_dwelling" />
		<tag k="ssr:stedsnr" v="913707" />
	</node>
	<node lat="59.55082499879573" lon="9.292524999532777" id="-35073">
		<tag k="fixme" v="consider place=hamlet" />
		<tag k="name" v="Bentsrud" />
		<tag k="place" v="farm" />
		<tag k="ssr:stedsnr" v="913734" />
	</node>
	<node lat="59.60112777682353" lon="9.402852772229902" id="-35079">
		<tag k="name" v="Fjellstul" />
		<tag k="place" v="isolated_dwelling" />
		<tag k="ssr:stedsnr" v="913808" />
	</node>
	<node lat="59.59610555325475" lon="9.262241661733245" id="-35081">
		<tag k="name" v="Nymoen" />
		<tag k="place" v="farm" />
		<tag k="ssr:stedsnr" v="913835" />
	</node>
	<node lat="59.535030559042916" lon="9.29329721702121" id="-35083">
		<tag k="name" v="Ramberg" />
		<tag k="place" v="farm" />
		<tag k="ssr:stedsnr" v="914006" />
	</node>
	<node lat="59.74129999979642" lon="9.080299992846896" id="-35085">
		<tag k="name" v="Tjågestul" />
		<tag k="place" v="isolated_dwelling" />
		<tag k="ssr:stedsnr" v="914125" />
	</node>
	<node lat="59.774680558822205" lon="9.08563055775414" id="-35089">
		<tag k="name" v="Krosshøl" />
		<tag k="place" v="isolated_dwelling" />
		<tag k="ssr:stedsnr" v="914376" />
	</node>
	<node lat="59.81189444653632" lon="9.0082666746236" id="-35090">
		<tag k="name" v="Galten" />
		<tag k="place" v="isolated_dwelling" />
		<tag k="ssr:stedsnr" v="914513" />
	</node>
	<node lat="59.85690073957879" lon="8.879637565642357" id="-35092">
		<tag k="name" v="Skinholt" />
		<tag k="place" v="locality" />
		<tag k="ssr:stedsnr" v="914474" />
	</node>
	<node lat="59.72241944419835" lon="9.273486109785498" id="-35103">
		<tag k="alt_name" v="Nedre Bolkesjø" />
		<tag k="fixme" v="consider place=hamlet" />
		<tag k="name" v="Nerigard Bolkesjø" />
		<tag k="place" v="farm" />
		<tag k="ssr:stedsnr" v="951000" />
	</node>
	<node lat="59.55948333125887" lon="9.280655548507543" id="-35115">
		<tag k="name" v="Tinnekasin" />
		<tag k="place" v="quarter" />
		<tag k="ssr:stedsnr" v="953223" />
	</node>
	<node lat="59.51375278050423" lon="9.346577782435272" id="-35119">
		<tag k="name" v="Nedre Moen" />
		<tag k="place" v="locality" />
		<tag k="ssr:stedsnr" v="953601" />
	</node>
	<node lat="59.57116666779699" lon="9.252697220117588" id="-35124">
		<tag k="name" v="Bergstugo" />
		<tag k="place" v="locality" />
		<tag k="ssr:stedsnr" v="954510" />
	</node>
	<node lat="59.59892777404691" lon="9.17217778150025" id="-35125">
		<tag k="name" v="Bakkalia" />
		<tag k="place" v="farm" />
		<tag k="ssr:stedsnr" v="954604" />
	</node>
	<node lat="59.5939888928483" lon="9.146033325116283" id="-35129">
		<tag k="name" v="Stivimoen" />
		<tag k="place" v="quarter" />
		<tag k="ssr:stedsnr" v="954596" />
	</node>
	<node lat="59.601863889390266" lon="9.173574992113886" id="-35130">
		<tag k="name" v="Haukelia" />
		<tag k="place" v="farm" />
		<tag k="ssr:stedsnr" v="954602" />
	</node>
	<node lat="59.49870277742416" lon="9.32602499919495" id="-35132">
		<tag k="name" v="Røste" />
		<tag k="place" v="farm" />
		<tag k="ssr:stedsnr" v="954796" />
	</node>
	<node lat="59.497699996967334" lon="9.33328888683006" id="-35133">
		<tag k="name" v="Lidarende" />
		<tag k="place" v="isolated_dwelling" />
		<tag k="ssr:stedsnr" v="954797" />
	</node>
	<node lat="59.5812472179329" lon="9.343486117836171" id="-35142">
		<tag k="name" v="Goasholt" />
		<tag k="place" v="locality" />
		<tag k="ssr:stedsnr" v="955107" />
	</node>
	<node lat="59.53604999628045" lon="9.301608330823042" id="-35146">
		<tag k="name" v="Kåsa" />
		<tag k="place" v="farm" />
		<tag k="ssr:stedsnr" v="955941" />
	</node>
	<node lat="59.61847777347117" lon="9.320605553514577" id="-35148">
		<tag k="name" v="Jønnbua" />
		<tag k="place" v="locality" />
		<tag k="ssr:stedsnr" v="956521" />
	</node>
	<node lat="59.75180555125305" lon="9.001652782225268" id="-35150">
		<tag k="historic" v="shieling" />
		<tag k="name" v="Haugestøl" />
		<tag k="place" v="isolated_dwelling" />
		<tag k="ssr:stedsnr" v="965086" />
	</node>
	<node lat="59.60622619791713" lon="9.12615935563842" id="-35166">
		<tag k="name" v="Rekå" />
		<tag k="place" v="hamlet" />
		<tag k="ssr:stedsnr" v="980261" />
	</node>
	<node lat="59.729773445967396" lon="8.98280713443079" id="-35167">
		<tag k="fixme" v="consider place=hamlet" />
		<tag k="name" v="Vestre Rui" />
		<tag k="place" v="farm" />
		<tag k="ssr:stedsnr" v="980370" />
	</node>
	<node lat="59.72971957790977" lon="9.019980324550414" id="-35168">
		<tag k="fixme" v="consider place=hamlet" />
		<tag k="name" v="Tinnoset" />
		<tag k="place" v="farm" />
		<tag k="ssr:stedsnr" v="980371" />
	</node>
	<node lat="59.81033651933841" lon="8.992054835517525" id="-35169">
		<tag k="name" v="Busnes" />
		<tag k="place" v="hamlet" />
		<tag k="ssr:stedsnr" v="980372" />
	</node>
	<node lat="59.81502771872287" lon="8.979692952311645" id="-35170">
		<tag k="fixme" v="consider place=hamlet" />
		<tag k="name" v="Lilleland" />
		<tag k="place" v="farm" />
		<tag k="ssr:stedsnr" v="980374" />
	</node>
	<node lat="59.69840669314044" lon="9.105257091157368" id="-35171">
		<tag k="name" v="Folseland" />
		<tag k="place" v="hamlet" />
		<tag k="ssr:stedsnr" v="980376" />
	</node>
	<node lat="59.73515477603024" lon="9.214641538025147" id="-35172">
		<tag k="fixme" v="consider place=hamlet" />
		<tag k="name" v="Nordre Helleberg" />
		<tag k="place" v="farm" />
		<tag k="ssr:stedsnr" v="980377" />
	</node>
	<node lat="59.736675998228314" lon="9.223287018821319" id="-35173">
		<tag k="fixme" v="consider place=hamlet" />
		<tag k="name" v="Søndre Helleberg" />
		<tag k="place" v="farm" />
		<tag k="ssr:stedsnr" v="980378" />
	</node>
	<node lat="59.73497611967832" lon="9.220362873480898" id="-35174">
		<tag k="name" v="Helleberg" />
		<tag k="place" v="hamlet" />
		<tag k="ssr:stedsnr" v="980379" />
	</node>
	<node lat="59.7253471934558" lon="9.279518058893267" id="-35175">
		<tag k="fixme" v="consider place=hamlet" />
		<tag k="name" v="Øvre Bolkesjø" />
		<tag k="place" v="farm" />
		<tag k="ssr:stedsnr" v="980380" />
	</node>
	<node lat="59.85447812715993" lon="8.939366597606988" id="-35176">
		<tag k="fixme" v="consider place=hamlet" />
		<tag k="name" v="Rui" />
		<tag k="place" v="farm" />
		<tag k="ssr:stedsnr" v="980381" />
	</node>
	<node lat="59.610600001099634" lon="9.141600000680272" id="-35178">
		<tag k="name" v="Godli" />
		<tag k="place" v="farm" />
		<tag k="ssr:stedsnr" v="3276" />
	</node>
	<node lat="59.69688055735513" lon="8.984588894232687" id="-35186">
		<tag k="alt_name" v="Juvet" />
		<tag k="name" v="Gjuvet" />
		<tag k="place" v="isolated_dwelling" />
		<tag k="ssr:stedsnr" v="3131" />
	</node>
	<node lat="59.68670277378024" lon="9.05068889114382" id="-35187">
		<tag k="name" v="Bøengrenda" />
		<tag k="place" v="hamlet" />
		<tag k="ssr:stedsnr" v="3141" />
	</node>
	<node lat="59.6871583377417" lon="9.069216672882428" id="-35188">
		<tag k="name" v="Kasinhaugen" />
		<tag k="place" v="isolated_dwelling" />
		<tag k="ssr:stedsnr" v="3144" />
	</node>
	<node lat="59.736141667589806" lon="9.21356666665915" id="-35191">
		<tag k="name" v="Helleberg" />
		<tag k="place" v="farm" />
		<tag k="ssr:stedsnr" v="3094" />
	</node>
	<node lat="59.74675000315187" lon="9.151961117160578" id="-35193">
		<tag k="name" v="Dalstul" />
		<tag k="place" v="locality" />
		<tag k="ssr:stedsnr" v="3099" />
	</node>
	<node lat="59.705410746839895" lon="9.105689879296117" id="-35196">
		<tag k="alt_name" v="Runningen" />
		<tag k="name" v="Rudningen" />
		<tag k="place" v="locality" />
		<tag k="ssr:stedsnr" v="3162" />
	</node>
	<node lat="59.67486667034218" lon="9.15975000148458" id="-35198">
		<tag k="name" v="Kleivdal" />
		<tag k="place" v="isolated_dwelling" />
		<tag k="ssr:stedsnr" v="3193" />
	</node>
	<node lat="59.677402778188245" lon="9.111377773745081" id="-35199">
		<tag k="name" v="Listul" />
		<tag k="place" v="isolated_dwelling" />
		<tag k="ssr:stedsnr" v="3194" />
	</node>
	<node lat="59.58414166859746" lon="9.15287500621354" id="-35202">
		<tag k="alt_name" v="Roe" />
		<tag k="name" v="Rui" />
		<tag k="place" v="farm" />
		<tag k="ssr:stedsnr" v="3240" />
	</node>
	<node lat="59.5882290889849" lon="9.186375216788806" id="-35204">
		<tag k="name" v="Dalen" />
		<tag k="place" v="farm" />
		<tag k="ssr:stedsnr" v="3242" />
	</node>
	<node lat="59.74357499879765" lon="9.017894452891571" id="-35205">
		<tag k="name" v="Kleiva" />
		<tag k="place" v="farm" />
		<tag k="ssr:stedsnr" v="3111" />
	</node>
	<node lat="59.68596944073948" lon="9.05791111844173" id="-35206">
		<tag k="name" v="Bjørnekasin" />
		<tag k="place" v="farm" />
		<tag k="ssr:stedsnr" v="3115" />
	</node>
	<node lat="59.542777773967146" lon="9.255527771539532" id="-35210">
		<tag k="fixme" v="consider place=hamlet" />
		<tag k="name" v="Gyving" />
		<tag k="place" v="farm" />
		<tag k="ssr:stedsnr" v="3760" />
	</node>
	<node lat="59.5338638868551" lon="8.871108332045864" id="-35214">
		<tag k="alt_name" v="Lindeburoe" />
		<tag k="name" v="Lindeburoa" />
		<tag k="place" v="isolated_dwelling" />
		<tag k="ssr:stedsnr" v="3332" />
	</node>
	<node lat="59.587427776903354" lon="9.06487777267091" id="-35223">
		<tag k="name" v="Åse" />
		<tag k="place" v="farm" />
		<tag k="ssr:stedsnr" v="3303" />
	</node>
	<node lat="59.59285832998251" lon="9.048083337767885" id="-35224">
		<tag k="fixme" v="consider place=hamlet" />
		<tag k="name" v="Langerud" />
		<tag k="place" v="farm" />
		<tag k="ssr:stedsnr" v="3304" />
	</node>
	<node lat="59.828477781088544" lon="8.964922223427092" id="-35262">
		<tag k="historic" v="shieling" />
		<tag k="name" v="Bjønnåsen" />
		<tag k="place" v="isolated_dwelling" />
		<tag k="ssr:stedsnr" v="42745" />
	</node>
	<node lat="59.56399166503541" lon="9.266627776633836" id="-35268">
		<tag k="amenity" v="school" />
		<tag k="name" v="Notodden skole" />
		<tag k="ssr:stedsnr" v="43224" />
	</node>
	<node lat="59.507324997468935" lon="9.331791659570909" id="-35274">
		<tag k="name" v="Gåthaug-haugen" />
		<tag k="place" v="isolated_dwelling" />
		<tag k="ssr:stedsnr" v="43107" />
	</node>
	<node lat="59.535213891668405" lon="9.474505550895003" id="-35276">
		<tag k="name" v="Sveinsbu" />
		<tag k="place" v="locality" />
		<tag k="ssr:stedsnr" v="43646" />
	</node>
	<node lat="59.60931666677503" lon="9.209550006895022" id="-35278">
		<tag k="historic" v="shieling" />
		<tag k="name" v="Halfarlia" />
		<tag k="place" v="isolated_dwelling" />
		<tag k="ssr:stedsnr" v="44505" />
	</node>
	<node lat="59.68298055284676" lon="9.146763895944598" id="-35286">
		<tag k="name" v="Lia" />
		<tag k="place" v="isolated_dwelling" />
		<tag k="ssr:stedsnr" v="44060" />
	</node>
	<node lat="59.58723888739491" lon="9.160116674334098" id="-35289">
		<tag k="name" v="Smedsrud" />
		<tag k="place" v="farm" />
		<tag k="ssr:stedsnr" v="44187" />
	</node>
	<node lat="59.56752221984815" lon="9.283608340851288" id="-35291">
		<tag k="name" v="Heibøkåsa" />
		<tag k="place" v="quarter" />
		<tag k="ssr:stedsnr" v="44216" />
	</node>
	<node lat="59.603711107869046" lon="9.13851667075401" id="-35293">
		<tag k="name" v="Holte" />
		<tag k="place" v="farm" />
		<tag k="ssr:stedsnr" v="44602" />
	</node>
	<node lat="59.59530278227485" lon="9.1352527691256" id="-35294">
		<tag k="name" v="Viperudmoen" />
		<tag k="place" v="quarter" />
		<tag k="ssr:stedsnr" v="44604" />
	</node>
	<node lat="59.603216664203174" lon="9.089961109525659" id="-35295">
		<tag k="name" v="Nørsterud" />
		<tag k="place" v="farm" />
		<tag k="ssr:stedsnr" v="44609" />
	</node>
	<node lat="59.594877778280996" lon="9.07625833862918" id="-35296">
		<tag k="name" v="Øya" />
		<tag k="place" v="farm" />
		<tag k="ssr:stedsnr" v="44610" />
	</node>
	<node lat="59.576313890784064" lon="9.194552781670401" id="-35297">
		<tag k="name" v="Klokkarrud" />
		<tag k="place" v="farm" />
		<tag k="ssr:stedsnr" v="44364" />
	</node>
	<node lat="59.61095833638385" lon="9.279969448983971" id="-35298">
		<tag k="name" v="Revsmoen" />
		<tag k="place" v="farm" />
		<tag k="ssr:stedsnr" v="44536" />
	</node>
	<node lat="59.58284166754795" lon="9.273580546781774" id="-35300">
		<tag k="name" v="Midtskogen" />
		<tag k="place" v="quarter" />
		<tag k="ssr:stedsnr" v="44548" />
	</node>
	<node lat="59.5430666661714" lon="9.207263890711674" id="-35301">
		<tag k="name" v="Sollid" />
		<tag k="place" v="farm" />
		<tag k="ssr:stedsnr" v="44550" />
	</node>
	<node lat="59.54431389107601" lon="9.211361109610456" id="-35302">
		<tag k="name" v="Juvskås" />
		<tag k="place" v="farm" />
		<tag k="ssr:stedsnr" v="44555" />
	</node>
	<node lat="59.62601666358134" lon="9.231861108424084" id="-35309">
		<tag k="name" v="Dalen" />
		<tag k="place" v="farm" />
		<tag k="ssr:stedsnr" v="44868" />
	</node>
	<node lat="59.7273361077422" lon="9.04991110897793" id="-35313">
		<tag k="name" v="Bekkestul" />
		<tag k="place" v="locality" />
		<tag k="ssr:stedsnr" v="44993" />
	</node>
	<node lat="59.6774333366605" lon="9.021202769203155" id="-35326">
		<tag k="name" v="Sønstebø" />
		<tag k="place" v="farm" />
		<tag k="ssr:stedsnr" v="45784" />
	</node>
	<node lat="59.765858330678675" lon="8.99859999790283" id="-35336">
		<tag k="historic" v="shieling" />
		<tag k="name" v="Ormeroe" />
		<tag k="place" v="isolated_dwelling" />
		<tag k="ssr:stedsnr" v="55065" />
	</node>
	<node lat="59.77592499777796" lon="9.228336102927743" id="-35345">
		<tag k="name" v="Meheia" />
		<tag k="place" v="neighbourhood" />
		<tag k="ssr:stedsnr" v="59463" />
	</node>
	<node lat="59.76239722512257" lon="8.942911114371574" id="-35346">
		<tag k="historic" v="shieling" />
		<tag k="name" v="Rånåbu" />
		<tag k="place" v="isolated_dwelling" />
		<tag k="ssr:stedsnr" v="59737" />
	</node>
	<node lat="59.68253611168452" lon="9.2076333384034" id="-35352">
		<tag k="name" v="Myra" />
		<tag k="place" v="isolated_dwelling" />
		<tag k="ssr:stedsnr" v="63145" />
	</node>
	<node lat="59.673311112630024" lon="9.012530562272872" id="-35355">
		<tag k="name" v="Masteholtet" />
		<tag k="place" v="farm" />
		<tag k="ssr:stedsnr" v="63261" />
	</node>
	<node lat="59.621999998980584" lon="9.243275002514109" id="-35360">
		<tag k="alt_name" v="Rønningen" />
		<tag k="name" v="Rydningen" />
		<tag k="place" v="farm" />
		<tag k="ssr:stedsnr" v="63848" />
	</node>
	<node lat="59.654622223088445" lon="9.195816671904295" id="-35361">
		<tag k="name" v="Mork" />
		<tag k="place" v="farm" />
		<tag k="ssr:stedsnr" v="64176" />
	</node>
	<node lat="59.744919443561784" lon="9.208280556422169" id="-35363">
		<tag k="name" v="Midbøen" />
		<tag k="place" v="farm" />
		<tag k="ssr:stedsnr" v="64091" />
	</node>
	<node lat="59.60209166783378" lon="9.113580560040715" id="-35366">
		<tag k="alt_name" v="Sollid" />
		<tag k="name" v="Solli" />
		<tag k="place" v="farm" />
		<tag k="ssr:stedsnr" v="64249" />
	</node>
	<node lat="59.738733333886" lon="8.944727779785957" id="-35371">
		<tag k="name" v="Kasin" />
		<tag k="place" v="isolated_dwelling" />
		<tag k="ssr:stedsnr" v="64003" />
	</node>
	<node lat="59.59673883321315" lon="9.140345506995223" id="-35373">
		<tag k="name" v="Hegna" />
		<tag k="place" v="farm" />
		<tag k="ssr:stedsnr" v="64278" />
	</node>
	<node lat="59.66059444811738" lon="9.025427781461152" id="-35374">
		<tag k="alt_name" v="Hafsten" />
		<tag k="fixme" v="consider place=hamlet" />
		<tag k="name" v="Havstein" />
		<tag k="place" v="farm" />
		<tag k="ssr:stedsnr" v="64197" />
	</node>
	<node lat="59.563533333271366" lon="9.182455563698422" id="-35377">
		<tag k="name" v="Moen" />
		<tag k="place" v="farm" />
		<tag k="ssr:stedsnr" v="64397" />
	</node>
	<node lat="59.52109722227958" lon="9.438977779119954" id="-35378">
		<tag k="alt_name" v="Taklås" />
		<tag k="historic" v="shieling" />
		<tag k="name" v="Taklåssætra" />
		<tag k="place" v="isolated_dwelling" />
		<tag k="ssr:stedsnr" v="64730" />
	</node>
	<node lat="59.51284999807749" lon="9.337041667646774" id="-35381">
		<tag k="name" v="Trykkerud" />
		<tag k="place" v="farm" />
		<tag k="ssr:stedsnr" v="64742" />
	</node>
	<node lat="59.578525000996294" lon="9.23087499478399" id="-35384">
		<tag k="alt_name" v="Semsstulen" />
		<tag k="name" v="Seimstølen" />
		<tag k="place" v="isolated_dwelling" />
		<tag k="ssr:stedsnr" v="64795" />
	</node>
	<node lat="59.48555000120521" lon="9.3238250081714" id="-35412">
		<tag k="name" v="n-Hagen" />
		<tag k="place" v="farm" />
		<tag k="ssr:stedsnr" v="104088" />
	</node>
	<node lat="59.51051944888835" lon="9.324372216724793" id="-35428">
		<tag k="name" v="Svingen" />
		<tag k="place" v="isolated_dwelling" />
		<tag k="ssr:stedsnr" v="105132" />
	</node>
	<node lat="59.57932222031327" lon="9.271333328859855" id="-35433">
		<tag k="name" v="Oppskogen" />
		<tag k="place" v="quarter" />
		<tag k="ssr:stedsnr" v="105560" />
	</node>
	<node lat="59.638930553142806" lon="9.222558335683232" id="-35447">
		<tag k="name" v="Bråten" />
		<tag k="place" v="farm" />
		<tag k="ssr:stedsnr" v="105800" />
	</node>
	<node lat="59.533113893196514" lon="9.304391671749018" id="-35451">
		<tag k="name" v="Ramberg" />
		<tag k="place" v="farm" />
		<tag k="ssr:stedsnr" v="105954" />
	</node>
	<node lat="59.5954027797541" lon="9.035066658555472" id="-35455">
		<tag k="name" v="Moen" />
		<tag k="place" v="farm" />
		<tag k="ssr:stedsnr" v="106152" />
	</node>
	<node lat="59.595869446482205" lon="9.027533332752641" id="-35456">
		<tag k="name" v="Moen" />
		<tag k="place" v="farm" />
		<tag k="ssr:stedsnr" v="106153" />
	</node>
	<node lat="59.670022225194636" lon="8.914661119866624" id="-35460">
		<tag k="name" v="Nybustulen" />
		<tag k="place" v="locality" />
		<tag k="ssr:stedsnr" v="107000" />
	</node>
	<node lat="59.677905553213314" lon="9.023766661837323" id="-35463">
		<tag k="name" v="Stålen" />
		<tag k="place" v="farm" />
		<tag k="ssr:stedsnr" v="106815" />
	</node>
	<node lat="59.710930554032565" lon="8.997138894018779" id="-35466">
		<tag k="name" v="Tisrud" />
		<tag k="place" v="locality" />
		<tag k="ssr:stedsnr" v="106930" />
	</node>
	<node lat="59.75582500081669" lon="9.000391665919489" id="-35474">
		<tag k="historic" v="shieling" />
		<tag k="name" v="Bekkestul" />
		<tag k="place" v="isolated_dwelling" />
		<tag k="ssr:stedsnr" v="116088" />
	</node>
	<node lat="59.48347777636005" lon="9.327172230691025" id="-35490">
		<tag k="alt_name" v="Op-hagen" />
		<tag k="name" v="Hagen" />
		<tag k="place" v="farm" />
		<tag k="ssr:stedsnr" v="123060" />
	</node>
	<node lat="59.721569443403794" lon="9.04200833261508" id="-35497">
		<tag k="name" v="Olesrud" />
		<tag k="place" v="farm" />
		<tag k="ssr:stedsnr" v="124085" />
	</node>
	<node lat="59.71544444251302" lon="9.012669443975692" id="-35499">
		<tag k="name" v="Kolekåsa" />
		<tag k="place" v="farm" />
		<tag k="ssr:stedsnr" v="124155" />
	</node>
	<node lat="59.60045277907231" lon="9.05985555398411" id="-35501">
		<tag k="name" v="Sauar" />
		<tag k="place" v="farm" />
		<tag k="ssr:stedsnr" v="124201" />
	</node>
	<node lat="59.680525002989945" lon="9.038530556356596" id="-35502">
		<tag k="alt_name" v="Håve" />
		<tag k="fixme" v="consider place=hamlet" />
		<tag k="name" v="Hove" />
		<tag k="place" v="farm" />
		<tag k="ssr:stedsnr" v="124135" />
	</node>
	<node lat="59.58676110681072" lon="9.154636103698865" id="-35504">
		<tag k="name" v="Smedsrud" />
		<tag k="place" v="farm" />
		<tag k="ssr:stedsnr" v="124219" />
	</node>
	<node lat="59.58306111337231" lon="9.189608333675514" id="-35505">
		<tag k="alt_name" v="Hvålen" />
		<tag k="fixme" v="consider place=hamlet" />
		<tag k="name" v="Gvålen" />
		<tag k="place" v="farm" />
		<tag k="ssr:stedsnr" v="124221" />
	</node>
	<node lat="59.55076388564759" lon="9.203725007619108" id="-35510">
		<tag k="fixme" v="consider place=hamlet" />
		<tag k="name" v="Tveitan" />
		<tag k="place" v="farm" />
		<tag k="ssr:stedsnr" v="124355" />
	</node>
	<node lat="59.55181666805571" lon="9.210113882103435" id="-35511">
		<tag k="fixme" v="consider place=hamlet" />
		<tag k="name" v="Hovdejord" />
		<tag k="place" v="farm" />
		<tag k="ssr:stedsnr" v="124356" />
	</node>
	<node lat="59.72475000417551" lon="9.276924991648903" id="-35514">
		<tag k="name" v="Bolkesjø" />
		<tag k="place" v="hamlet" />
		<tag k="ssr:stedsnr" v="124388" />
	</node>
	<node lat="59.572677776911306" lon="9.16015555080226" id="-35515">
		<tag k="fixme" v="consider place=hamlet" />
		<tag k="name" v="Glittenberg" />
		<tag k="place" v="farm" />
		<tag k="ssr:stedsnr" v="124278" />
	</node>
	<node lat="59.51027777933306" lon="8.909819452655992" id="-35516">
		<tag k="historic" v="shieling" />
		<tag k="name" v="Hollan" />
		<tag k="place" v="isolated_dwelling" />
		<tag k="ssr:stedsnr" v="124327" />
	</node>
	<node lat="59.502294441510635" lon="9.185025001308883" id="-35518">
		<tag k="name" v="Nystul" />
		<tag k="place" v="isolated_dwelling" />
		<tag k="ssr:stedsnr" v="124347" />
	</node>
	<node lat="59.80698610745174" lon="9.001130560418023" id="-35520">
		<tag k="alt_name" v="Øye" />
		<tag k="name" v="Øya" />
		<tag k="place" v="isolated_dwelling" />
		<tag k="ssr:stedsnr" v="124427" />
	</node>
	<node lat="59.81511388455517" lon="8.978386110465088" id="-35521">
		<tag k="alt_name" v="Lisland, øvre" />
		<tag k="name" v="Øvre Lisland" />
		<tag k="place" v="isolated_dwelling" />
		<tag k="ssr:stedsnr" v="124431" />
	</node>
	<node lat="59.737024995833" lon="9.223480560428564" id="-35523">
		<tag k="name" v="Helleberg" />
		<tag k="place" v="farm" />
		<tag k="ssr:stedsnr" v="124436" />
	</node>
	<node lat="59.57292222213675" lon="9.396602786461177" id="-35524">
		<tag k="historic" v="shieling" />
		<tag k="name" v="Øysteinstul" />
		<tag k="place" v="isolated_dwelling" />
		<tag k="ssr:stedsnr" v="124771" />
	</node>
	<node lat="59.56925000090789" lon="9.274397224881282" id="-35525">
		<tag k="alt_name" v="Setre" />
		<tag k="fixme" v="consider place=hamlet" />
		<tag k="name" v="Sætre" />
		<tag k="place" v="farm" />
		<tag k="ssr:stedsnr" v="124773" />
	</node>
	<node lat="59.563149996092015" lon="9.23975000462448" id="-35526">
		<tag k="name" v="Tinnes" />
		<tag k="place" v="farm" />
		<tag k="ssr:stedsnr" v="124774" />
	</node>
	<node lat="59.60499722120666" lon="9.276305546959447" id="-35527">
		<tag k="alt_name" v="Flaaten" />
		<tag k="fixme" v="consider place=hamlet" />
		<tag k="name" v="Flåten" />
		<tag k="place" v="farm" />
		<tag k="ssr:stedsnr" v="124793" />
	</node>
	<node lat="59.83756944347607" lon="8.894002770576403" id="-35528">
		<tag k="name" v="Myklebu" />
		<tag k="place" v="isolated_dwelling" />
		<tag k="ssr:stedsnr" v="125473" />
	</node>
	<node lat="59.84518889108645" lon="8.861769446198352" id="-35529">
		<tag k="name" v="Øvrestul" />
		<tag k="place" v="isolated_dwelling" />
		<tag k="ssr:stedsnr" v="125487" />
	</node>
	<node lat="59.53787221792988" lon="9.27042222717835" id="-35532">
		<tag k="alt_name" v="Strandstå" />
		<tag k="name" v="Strandestå" />
		<tag k="place" v="farm" />
		<tag k="ssr:stedsnr" v="124739" />
	</node>
	<node lat="59.61810000148884" lon="9.251874994287297" id="-35534">
		<tag k="alt_name" v="Nykås" />
		<tag k="name" v="Nykåsa" />
		<tag k="place" v="farm" />
		<tag k="ssr:stedsnr" v="124848" />
	</node>
	<node lat="59.51987499707589" lon="9.28127499266357" id="-35536">
		<tag k="name" v="Simones" />
		<tag k="place" v="farm" />
		<tag k="ssr:stedsnr" v="124693" />
	</node>
	<node lat="59.80990833643178" lon="8.961749995860089" id="-35558">
		<tag k="historic" v="shieling" />
		<tag k="name" v="Listul" />
		<tag k="place" v="isolated_dwelling" />
		<tag k="ssr:stedsnr" v="163784" />
	</node>
	<node lat="59.510625000458816" lon="9.332272230060669" id="-35562">
		<tag k="name" v="Haugen" />
		<tag k="place" v="farm" />
		<tag k="ssr:stedsnr" v="164127" />
	</node>
	<node lat="59.56008055652086" lon="9.269691666696191" id="-35563">
		<tag k="name" v="Kattekleiv" />
		<tag k="place" v="quarter" />
		<tag k="ssr:stedsnr" v="164251" />
	</node>
	<node lat="59.69691110847717" lon="9.107155553720856" id="-35575">
		<tag k="alt_name" v="Øvre Folseland" />
		<tag k="fixme" v="consider place=hamlet" />
		<tag k="name" v="Folsland øvre" />
		<tag k="place" v="farm" />
		<tag k="ssr:stedsnr" v="165490" />
	</node>
	<node lat="59.60282222367584" lon="9.093227775587001" id="-35577">
		<tag k="name" v="Kåsa" />
		<tag k="place" v="farm" />
		<tag k="ssr:stedsnr" v="165562" />
	</node>
	<node lat="59.59940555384781" lon="9.092572229082531" id="-35583">
		<tag k="amenity" v="school" />
		<tag k="name" v="Nordbygda skule" />
		<tag k="ssr:stedsnr" v="165554" />
	</node>
	<node lat="59.5959250001732" lon="9.174463890105935" id="-35585">
		<tag k="name" v="Bakka" />
		<tag k="place" v="farm" />
		<tag k="ssr:stedsnr" v="165613" />
	</node>
	<node lat="59.595633335126756" lon="9.138352780644633" id="-35587">
		<tag k="name" v="Kolbjørnsrud" />
		<tag k="place" v="farm" />
		<tag k="ssr:stedsnr" v="165616" />
	</node>
	<node lat="59.602974997578556" lon="9.15530555591539" id="-35588">
		<tag k="name" v="Brekke" />
		<tag k="place" v="farm" />
		<tag k="ssr:stedsnr" v="165625" />
	</node>
	<node lat="59.52990000129941" lon="9.30686666419499" id="-35610">
		<tag k="name" v="Brudalen" />
		<tag k="place" v="farm" />
		<tag k="ssr:stedsnr" v="166952" />
	</node>
	<node lat="59.70272769653515" lon="9.118426692915207" id="-35639">
		<tag k="name" v="Kåsa" />
		<tag k="place" v="locality" />
		<tag k="ssr:stedsnr" v="185160" />
	</node>
	<node lat="59.58745000068143" lon="9.172102774474425" id="-35645">
		<tag k="fixme" v="consider place=hamlet" />
		<tag k="name" v="Heddal" />
		<tag k="place" v="village" />
		<tag k="ssr:stedsnr" v="185252" />
	</node>
	<node lat="59.76070916217757" lon="9.011926167831309" id="-35647">
		<tag k="historic" v="shieling" />
		<tag k="name" v="Lynnevikstulen" />
		<tag k="place" v="isolated_dwelling" />
		<tag k="ssr:stedsnr" v="185260" />
	</node>
	<node lat="59.60811388883649" lon="9.124261102493984" id="-35648">
		<tag k="name" v="Rekå" />
		<tag k="place" v="farm" />
		<tag k="ssr:stedsnr" v="185263" />
	</node>
	<node lat="59.69195555803169" lon="9.125405552333893" id="-35653">
		<tag k="alt_name" v="Runningen" />
		<tag k="name" v="Rudningen" />
		<tag k="place" v="farm" />
		<tag k="ssr:stedsnr" v="185123" />
	</node>
	<node lat="59.684252778677944" lon="9.14546666620799" id="-35654">
		<tag k="name" v="Årlifoss" />
		<tag k="place" v="hamlet" />
		<tag k="ssr:stedsnr" v="185127" />
	</node>
	<node lat="59.67978055140011" lon="9.104352785743353" id="-35655">
		<tag k="name" v="Høgeli" />
		<tag k="place" v="isolated_dwelling" />
		<tag k="ssr:stedsnr" v="185206" />
	</node>
	<node lat="59.67117499782068" lon="9.166566663181213" id="-35656">
		<tag k="name" v="Vårås" />
		<tag k="place" v="farm" />
		<tag k="ssr:stedsnr" v="185219" />
	</node>
	<node lat="59.72582222176852" lon="9.279613881255584" id="-35658">
		<tag k="name" v="Kåsa" />
		<tag k="place" v="farm" />
		<tag k="ssr:stedsnr" v="185409" />
	</node>
	<node lat="59.552775004072004" lon="9.284474992852438" id="-35660">
		<tag k="name" v="Tveiten" />
		<tag k="place" v="farm" />
		<tag k="ssr:stedsnr" v="185743" />
	</node>
	<node lat="59.53802777373667" lon="9.290574992793308" id="-35661">
		<tag k="name" v="Ramberg" />
		<tag k="place" v="farm" />
		<tag k="ssr:stedsnr" v="185751" />
	</node>
	<node lat="59.80945000008017" lon="8.995025003103736" id="-35666">
		<tag k="name" v="Busnes" />
		<tag k="place" v="farm" />
		<tag k="ssr:stedsnr" v="185447" />
	</node>
	<node lat="59.5084472207256" lon="9.32824999401695" id="-35667">
		<tag k="name" v="Flatland" />
		<tag k="place" v="farm" />
		<tag k="ssr:stedsnr" v="185687" />
	</node>
	<node lat="59.58429999818604" lon="9.329374992182938" id="-35672">
		<tag k="name" v="Ingerhøy" />
		<tag k="place" v="isolated_dwelling" />
		<tag k="ssr:stedsnr" v="185776" />
	</node>
	<node lat="59.641272218547854" lon="9.243436110274512" id="-35673">
		<tag k="alt_name" v="Vestgvammen" />
		<tag k="name" v="Vestkvammen" />
		<tag k="place" v="isolated_dwelling" />
		<tag k="ssr:stedsnr" v="185881" />
	</node>
	<node lat="59.70953888878638" lon="9.315163893939479" id="-35682">
		<tag k="alt_name" v="Fisketjørnstulen" />
		<tag k="historic" v="shieling" />
		<tag k="name" v="Fisketjønnstulen" />
		<tag k="place" v="isolated_dwelling" />
		<tag k="ssr:stedsnr" v="185980" />
	</node>
	<node lat="59.79255277673879" lon="9.188588890704189" id="-35687">
		<tag k="historic" v="shieling" />
		<tag k="name" v="Grotbua" />
		<tag k="place" v="isolated_dwelling" />
		<tag k="ssr:stedsnr" v="186427" />
	</node>
	<node lat="59.850419442749505" lon="8.940188893327502" id="-35691">
		<tag k="alt_name" v="Hovde" />
		<tag k="fixme" v="consider place=hamlet" />
		<tag k="name" v="Hovda" />
		<tag k="place" v="farm" />
		<tag k="ssr:stedsnr" v="186510" />
	</node>
	<node lat="59.85305555447191" lon="8.903275006611567" id="-35692">
		<tag k="alt_name" v="Nørebu" />
		<tag k="name" v="Nørdrebu" />
		<tag k="place" v="isolated_dwelling" />
		<tag k="ssr:stedsnr" v="186513" />
	</node>
	<node lat="59.880586111635054" lon="8.912836110885236" id="-35693">
		<tag k="alt_name" v="Fåne, n" />
		<tag k="name" v="Fåne" />
		<tag k="place" v="isolated_dwelling" />
		<tag k="ssr:stedsnr" v="186520" />
	</node>
	<node lat="59.614863891848266" lon="9.280391665058547" id="-35696">
		<tag k="name" v="Silva" />
		<tag k="place" v="quarter" />
		<tag k="ssr:stedsnr" v="207500" />
	</node>
	<node lat="59.817213887712164" lon="8.867786119438081" id="-35699">
		<tag k="historic" v="shieling" />
		<tag k="name" v="Vasslian" />
		<tag k="place" v="isolated_dwelling" />
		<tag k="ssr:stedsnr" v="222812" />
	</node>
	<node lat="59.67417222334898" lon="9.362077769272137" id="-35700">
		<tag k="historic" v="shieling" />
		<tag k="name" v="Ræpliseter" />
		<tag k="place" v="isolated_dwelling" />
		<tag k="ssr:stedsnr" v="222935" />
	</node>
	<node lat="59.58351110751319" lon="9.165216675199508" id="-35707">
		<tag k="name" v="Dikekåsa" />
		<tag k="place" v="farm" />
		<tag k="ssr:stedsnr" v="226216" />
	</node>
	<node lat="59.51370277388803" lon="9.316105559509651" id="-35717">
		<tag k="name" v="Haslekåsa øvre" />
		<tag k="place" v="isolated_dwelling" />
		<tag k="ssr:stedsnr" v="226139" />
	</node>
	<node lat="59.57023889203381" lon="9.219902784484278" id="-35719">
		<tag k="name" v="Kleiverud" />
		<tag k="place" v="locality" />
		<tag k="ssr:stedsnr" v="226023" />
	</node>
	<node lat="59.562763885982356" lon="9.174433337903983" id="-35723">
		<tag k="name" v="Hustveit" />
		<tag k="place" v="locality" />
		<tag k="ssr:stedsnr" v="226122" />
	</node>
	<node lat="59.608575001225184" lon="9.135663884432272" id="-35724">
		<tag k="name" v="Seland" />
		<tag k="place" v="farm" />
		<tag k="ssr:stedsnr" v="226653" />
	</node>
	<node lat="59.537377775917236" lon="9.252730553191531" id="-35726">
		<tag k="name" v="Øyan" />
		<tag k="place" v="farm" />
		<tag k="ssr:stedsnr" v="226655" />
	</node>
	<node lat="59.56550278173708" lon="9.25720555813077" id="-35727">
		<tag k="name" v="Tinnesmoen" />
		<tag k="place" v="quarter" />
		<tag k="ssr:stedsnr" v="226154" />
	</node>
	<node lat="59.59106389234544" lon="9.106261106879089" id="-35728">
		<tag k="fixme" v="consider place=hamlet" />
		<tag k="name" v="Tubås" />
		<tag k="place" v="farm" />
		<tag k="ssr:stedsnr" v="226155" />
	</node>
	<node lat="59.612499998989236" lon="9.012986111243967" id="-35731">
		<tag k="name" v="Myre" />
		<tag k="place" v="farm" />
		<tag k="ssr:stedsnr" v="226176" />
	</node>
	<node lat="59.59597500285538" lon="9.12088332760477" id="-35738">
		<tag k="name" v="Slettemoen" />
		<tag k="place" v="farm" />
		<tag k="ssr:stedsnr" v="226614" />
	</node>
	<node lat="59.560169448500986" lon="9.365283339075615" id="-35740">
		<tag k="name" v="Damstugo" />
		<tag k="place" v="locality" />
		<tag k="ssr:stedsnr" v="227131" />
	</node>
	<node lat="59.602736114208476" lon="9.07551667155432" id="-35741">
		<tag k="name" v="Hola" />
		<tag k="place" v="locality" />
		<tag k="ssr:stedsnr" v="226619" />
	</node>
	<node lat="59.62178055859044" lon="9.170583341786347" id="-35747">
		<tag k="historic" v="shieling" />
		<tag k="name" v="Grautedalen" />
		<tag k="place" v="isolated_dwelling" />
		<tag k="ssr:stedsnr" v="226912" />
	</node>
	<node lat="59.53278055473164" lon="9.298072223336222" id="-35757">
		<tag k="name" v="Ramberg" />
		<tag k="place" v="farm" />
		<tag k="ssr:stedsnr" v="227968" />
	</node>
	<node lat="59.58001666405283" lon="9.052822223543444" id="-35772">
		<tag k="name" v="Brekke" />
		<tag k="place" v="locality" />
		<tag k="ssr:stedsnr" v="286066" />
	</node>
	<node lat="59.48461111163787" lon="9.32443333086495" id="-35781">
		<tag k="name" v="Innleggen" />
		<tag k="place" v="farm" />
		<tag k="ssr:stedsnr" v="286863" />
	</node>
	<node lat="59.512136109649035" lon="9.315463885688906" id="-35787">
		<tag k="name" v="Haslekåsa nedre" />
		<tag k="place" v="farm" />
		<tag k="ssr:stedsnr" v="287144" />
	</node>
	<node lat="59.56135555469827" lon="9.184483337823245" id="-35789">
		<tag k="name" v="Roe" />
		<tag k="place" v="farm" />
		<tag k="ssr:stedsnr" v="287149" />
	</node>
	<node lat="59.586688893307446" lon="9.119975005737254" id="-35790">
		<tag k="name" v="Smylingsås" />
		<tag k="place" v="farm" />
		<tag k="ssr:stedsnr" v="287163" />
	</node>
	<node lat="59.58269444768163" lon="9.190227781470655" id="-35791">
		<tag k="name" v="Hagen" />
		<tag k="place" v="farm" />
		<tag k="ssr:stedsnr" v="287343" />
	</node>
	<node lat="59.58126666445259" lon="9.188883340085713" id="-35792">
		<tag k="name" v="Haugen" />
		<tag k="place" v="farm" />
		<tag k="ssr:stedsnr" v="287344" />
	</node>
	<node lat="59.59734444143432" lon="9.131166662246384" id="-35795">
		<tag k="name" v="Haugen" />
		<tag k="place" v="farm" />
		<tag k="ssr:stedsnr" v="287643" />
	</node>
	<node lat="59.60274444591396" lon="9.17042500406301" id="-35796">
		<tag k="name" v="Kåsa" />
		<tag k="place" v="farm" />
		<tag k="ssr:stedsnr" v="287649" />
	</node>
	<node lat="59.606180558260476" lon="9.133700007903714" id="-35797">
		<tag k="name" v="Runnan" />
		<tag k="place" v="farm" />
		<tag k="ssr:stedsnr" v="287662" />
	</node>
	<node lat="59.690080556046105" lon="9.02859722201936" id="-35807">
		<tag k="name" v="Tjønnås" />
		<tag k="place" v="isolated_dwelling" />
		<tag k="ssr:stedsnr" v="287943" />
	</node>
	<node lat="59.60884166761945" lon="9.313483339032706" id="-35813">
		<tag k="name" v="Svarttjønnkåsa" />
		<tag k="place" v="isolated_dwelling" />
		<tag k="ssr:stedsnr" v="288062" />
	</node>
	<node lat="59.85309166678923" lon="8.939455563566327" id="-35829">
		<tag k="name" v="Jore" />
		<tag k="place" v="farm" />
		<tag k="ssr:stedsnr" v="300039" />
	</node>
	<node lat="59.60881389203455" lon="9.178697218633696" id="-35847">
		<tag k="historic" v="shieling" />
		<tag k="name" v="Solberg" />
		<tag k="place" v="isolated_dwelling" />
		<tag k="ssr:stedsnr" v="306234" />
	</node>
	<node lat="59.60405555254768" lon="9.035749998864642" id="-35848">
		<tag k="name" v="Sauar" />
		<tag k="place" v="farm" />
		<tag k="ssr:stedsnr" v="306237" />
	</node>
	<node lat="59.74871389080151" lon="8.928774998303318" id="-35850">
		<tag k="alt_name" v="Grastjørn" />
		<tag k="name" v="Grastjønn" />
		<tag k="place" v="isolated_dwelling" />
		<tag k="ssr:stedsnr" v="306002" />
	</node>
	<node lat="59.72109166801927" lon="9.127775000841769" id="-35853">
		<tag k="name" v="Gjuvbekk" />
		<tag k="place" v="locality" />
		<tag k="ssr:stedsnr" v="306092" />
	</node>
	<node lat="59.72469444304796" lon="9.02711667286368" id="-35854">
		<tag k="fixme" v="consider place=hamlet" />
		<tag k="name" v="Tinnoset" />
		<tag k="place" v="village" />
		<tag k="ssr:stedsnr" v="306094" />
	</node>
	<node lat="59.721616666062985" lon="8.923599997400109" id="-35856">
		<tag k="name" v="Vindolen" />
		<tag k="place" v="isolated_dwelling" />
		<tag k="ssr:stedsnr" v="306099" />
	</node>
	<node lat="59.7138305544618" lon="9.128994436431233" id="-35858">
		<tag k="historic" v="shieling" />
		<tag k="name" v="Vassbotn" />
		<tag k="place" v="isolated_dwelling" />
		<tag k="ssr:stedsnr" v="306150" />
	</node>
	<node lat="59.71098055336545" lon="9.00900833118582" id="-35859">
		<tag k="name" v="Øygarden" />
		<tag k="place" v="farm" />
		<tag k="ssr:stedsnr" v="306163" />
	</node>
	<node lat="59.70683055150677" lon="8.972183333191934" id="-35860">
		<tag k="alt_name" v="Oddrud" />
		<tag k="name" v="Odderud" />
		<tag k="place" v="locality" />
		<tag k="ssr:stedsnr" v="306164" />
	</node>
	<node lat="59.69444444021302" lon="9.040855553268107" id="-35864">
		<tag k="name" v="To" />
		<tag k="place" v="farm" />
		<tag k="ssr:stedsnr" v="307160" />
	</node>
	<node lat="59.58752777668297" lon="9.10707778413372" id="-35866">
		<tag k="name" v="Gudmundsrud" />
		<tag k="place" v="farm" />
		<tag k="ssr:stedsnr" v="306321" />
	</node>
	<node lat="59.592255551545236" lon="9.031786115633738" id="-35867">
		<tag k="name" v="Kåsa" />
		<tag k="place" v="farm" />
		<tag k="ssr:stedsnr" v="306330" />
	</node>
	<node lat="59.59183055133389" lon="9.042641665652408" id="-35868">
		<tag k="name" v="Øygarden" />
		<tag k="place" v="farm" />
		<tag k="ssr:stedsnr" v="306331" />
	</node>
	<node lat="59.593111114985696" lon="9.021319446490642" id="-35869">
		<tag k="name" v="Bjørnhaug" />
		<tag k="place" v="farm" />
		<tag k="ssr:stedsnr" v="306332" />
	</node>
	<node lat="59.58250833430354" lon="9.199769446109865" id="-35870">
		<tag k="name" v="Åsen" />
		<tag k="place" v="farm" />
		<tag k="ssr:stedsnr" v="306252" />
	</node>
	<node lat="59.52783611161628" lon="8.979030558132607" id="-35873">
		<tag k="name" v="Grønbygil" />
		<tag k="place" v="isolated_dwelling" />
		<tag k="ssr:stedsnr" v="306382" />
	</node>
	<node lat="59.57325000408424" lon="9.014599996758271" id="-35876">
		<tag k="name" v="Gvammen" />
		<tag k="place" v="isolated_dwelling" />
		<tag k="ssr:stedsnr" v="306401" />
	</node>
	<node lat="59.727547223172216" lon="9.275725003822057" id="-35877">
		<tag k="name" v="Sigurdskås" />
		<tag k="place" v="farm" />
		<tag k="ssr:stedsnr" v="306431" />
	</node>
</osm>
