<?xml version="1.0" encoding="UTF-8"?>
<osm generator="osmapis" version="0.6">
	<node id="-7524" lat="62.2079470682" lon="5.41722534056">
		<tag k="name" v="Vonheim" />
		<tag k="place" v="farm" />
		<tag k="ssr:stedsnr" v="988098" />
	</node>
	<node id="-7522" lat="62.2187622683" lon="5.63427753254">
		<tag k="name" v="Langberg" />
		<tag k="place" v="farm" />
		<tag k="ssr:stedsnr" v="987303" />
	</node>
	<node id="-7521" lat="62.2623859975" lon="5.44695851583">
		<tag k="fixme" v="consider place=hamlet" />
		<tag k="name" v="Våge" />
		<tag k="place" v="farm" />
		<tag k="ssr:stedsnr" v="982639" />
	</node>
	<node id="-7520" lat="62.1724270359" lon="5.39579577847">
		<tag k="fixme" v="consider place=hamlet" />
		<tag k="name" v="Haugsholmen" />
		<tag k="place" v="farm" />
		<tag k="ssr:stedsnr" v="982631" />
	</node>
	<node id="-7519" lat="62.2256662789" lon="5.64170350537">
		<tag k="name" v="Sætre" />
		<tag k="place" v="hamlet" />
		<tag k="ssr:stedsnr" v="962930" />
	</node>
	<node id="-7518" lat="62.216513891" lon="5.64290277894">
		<tag k="name" v="Vågstrand" />
		<tag k="place" v="isolated_dwelling" />
		<tag k="ssr:stedsnr" v="962448" />
	</node>
	<node id="-7517" lat="62.2182166633" lon="5.41004165914">
		<tag k="name" v="Løefluda" />
		<tag k="natural" v="shoal" />
		<tag k="place" v="locality" />
		<tag k="ssr:stedsnr" v="962400" />
	</node>
	<node id="-7516" lat="62.2114138866" lon="5.42118333379">
		<tag k="name" v="Duskjernesboden" />
		<tag k="natural" v="shoal" />
		<tag k="place" v="locality" />
		<tag k="ssr:stedsnr" v="962396" />
	</node>
	<node id="-7515" lat="62.2412722181" lon="5.46759723047">
		<tag k="name" v="Sanden" />
		<tag k="natural" v="bay" />
		<tag k="ssr:stedsnr" v="961445" />
	</node>
	<node id="-7514" lat="62.2474777773" lon="5.40281944248">
		<tag k="name" v="Sandsendboden" />
		<tag k="natural" v="shoal" />
		<tag k="place" v="locality" />
		<tag k="ssr:stedsnr" v="961443" />
	</node>
	<node id="-7513" lat="62.2608861084" lon="5.57899721307">
		<tag k="name" v="Gjerde" />
		<tag k="place" v="hamlet" />
		<tag k="ssr:stedsnr" v="874894" />
	</node>
	<node id="-7512" lat="62.2079277739" lon="5.35371944773">
		<tag k="alt_name" v="Krokevika" />
		<tag k="name" v="Krokvika" />
		<tag k="natural" v="bay" />
		<tag k="ssr:stedsnr" v="861565" />
	</node>
	<node id="-7511" lat="62.2496111082" lon="5.55054167519">
		<tag k="fixme" v="consider natural=peak for the most distinct mountains in the district" />
		<tag k="name" v="Gjøna" />
		<tag k="natural" v="hill" />
		<tag k="place" v="locality" />
		<tag k="ssr:stedsnr" v="860533" />
	</node>
	<node id="-7510" lat="62.2385944441" lon="5.43922777723">
		<tag k="alt_name" v="Lambeneset" />
		<tag k="name" v="Lammeneset" />
		<tag k="natural" v="cape" />
		<tag k="ssr:stedsnr" v="860652" />
	</node>
	<node id="-7509" lat="62.22242188" lon="5.61596612329">
		<tag k="fixme" v="consider place=hamlet" />
		<tag k="name" v="Knotten" />
		<tag k="place" v="farm" />
		<tag k="ssr:stedsnr" v="860632" />
	</node>
	<node id="-7508" lat="62.21651662" lon="5.57021863842">
		<tag k="name" v="Legene" />
		<tag k="place" v="farm" />
		<tag k="ssr:stedsnr" v="860629" />
	</node>
	<node id="-7507" lat="62.1846222191" lon="5.36787777424">
		<tag k="alt_name" v="Rognholmane" />
		<tag k="name" v="Rognholmen" />
		<tag k="place" v="islet" />
		<tag k="ssr:stedsnr" v="860593" />
	</node>
	<node id="-7506" lat="62.2041055592" lon="5.67046666728">
		<tag k="name" v="Keipen" />
		<tag k="natural" v="hill" />
		<tag k="place" v="locality" />
		<tag k="ssr:stedsnr" v="860588" />
	</node>
	<node id="-7505" lat="62.2636500039" lon="5.37960278255">
		<tag k="name" v="Svarteskjerfluda" />
		<tag k="natural" v="shoal" />
		<tag k="place" v="locality" />
		<tag k="ssr:stedsnr" v="841590" />
	</node>
	<node id="-7504" lat="62.285605553" lon="5.54744166677">
		<tag k="name" v="Hidsneset" />
		<tag k="natural" v="cape" />
		<tag k="ssr:stedsnr" v="841673" />
	</node>
	<node id="-7503" lat="62.2104888927" lon="5.32943055899">
		<tag k="name" v="Gambafludene" />
		<tag k="natural" v="shoal" />
		<tag k="place" v="locality" />
		<tag k="ssr:stedsnr" v="841535" />
	</node>
	<node id="-7502" lat="62.2595277807" lon="5.2814861105">
		<tag k="name" v="Kyrnosfludene" />
		<tag k="natural" v="shoal" />
		<tag k="place" v="locality" />
		<tag k="ssr:stedsnr" v="841501" />
	</node>
	<node id="-7501" lat="62.2223277785" lon="5.41476945142">
		<tag k="name" v="Stabben" />
		<tag k="natural" v="shoal" />
		<tag k="place" v="locality" />
		<tag k="ssr:stedsnr" v="841416" />
	</node>
	<node id="-7498" lat="62.2072888909" lon="5.57880555043">
		<tag k="name" v="Kvernhusdalen" />
		<tag k="natural" v="valley" />
		<tag k="place" v="locality" />
		<tag k="ssr:stedsnr" v="827331" />
	</node>
	<node id="-7497" lat="62.2100805554" lon="5.34726944847">
		<tag k="name" v="Vestnes" />
		<tag k="place" v="farm" />
		<tag k="ssr:stedsnr" v="827317" />
	</node>
	<node id="-7496" lat="62.2179972236" lon="5.37663054947">
		<tag k="name" v="Dysa" />
		<tag k="place" v="farm" />
		<tag k="ssr:stedsnr" v="827316" />
	</node>
	<node id="-7495" lat="62.2317000032" lon="5.3686972196">
		<tag k="name" v="Høyvika" />
		<tag k="natural" v="bay" />
		<tag k="ssr:stedsnr" v="827313" />
	</node>
	<node id="-7494" lat="62.254948757" lon="5.47953931681">
		<tag k="alt_name" v="Sande" />
		<tag k="fixme" v="consider place=hamlet" />
		<tag k="name" v="Nørdre Sande" />
		<tag k="place" v="farm" />
		<tag k="ssr:stedsnr" v="827300" />
	</node>
	<node id="-7493" lat="62.2857222234" lon="5.54442222464">
		<tag k="name" v="Småvikane" />
		<tag k="natural" v="bay" />
		<tag k="ssr:stedsnr" v="827283" />
	</node>
	<node id="-7492" lat="62.2177222195" lon="5.65147777558">
		<tag k="name" v="Vågosen" />
		<tag k="natural" v="bay" />
		<tag k="ssr:stedsnr" v="827278" />
	</node>
	<node id="-7491" lat="62.2584333329" lon="5.48408333467">
		<tag k="name" v="Breivika" />
		<tag k="natural" v="bay" />
		<tag k="ssr:stedsnr" v="827272" />
	</node>
	<node id="-7490" lat="62.2169888905" lon="5.3657111024">
		<tag k="name" v="Nipa" />
		<tag k="natural" v="hill" />
		<tag k="place" v="locality" />
		<tag k="ssr:stedsnr" v="827262" />
	</node>
	<node id="-7489" lat="62.2190972184" lon="5.46763054817">
		<tag k="name" v="Myrane" />
		<tag k="natural" v="wetland" />
		<tag k="ssr:stedsnr" v="827261" />
	</node>
	<node id="-7488" lat="62.2472666693" lon="5.53283612022">
		<tag k="name" v="Tarevika" />
		<tag k="natural" v="bay" />
		<tag k="ssr:stedsnr" v="827248" />
	</node>
	<node id="-7487" lat="62.2591916706" lon="5.61063054736">
		<tag k="name" v="Båtneset" />
		<tag k="natural" v="cape" />
		<tag k="ssr:stedsnr" v="827242" />
	</node>
	<node id="-7486" lat="62.2647666652" lon="5.59348332543">
		<tag k="name" v="Nausane" />
		<tag k="natural" v="hill" />
		<tag k="place" v="locality" />
		<tag k="ssr:stedsnr" v="827241" />
	</node>
	<node id="-7485" lat="62.2612361099" lon="5.40541110698">
		<tag k="name" v="Grøtbuda" />
		<tag k="place" v="locality" />
		<tag k="ssr:stedsnr" v="827227" />
	</node>
	<node id="-7484" lat="62.2369444403" lon="5.48322499244">
		<tag k="name" v="Voravika" />
		<tag k="natural" v="bay" />
		<tag k="ssr:stedsnr" v="827223" />
	</node>
	<node id="-7483" lat="62.2622805527" lon="5.46614444359">
		<tag k="name" v="Grøntua" />
		<tag k="natural" v="hill" />
		<tag k="place" v="locality" />
		<tag k="ssr:stedsnr" v="827215" />
	</node>
	<node id="-7482" lat="62.2443638888" lon="5.43948889717">
		<tag k="name" v="Klivberget" />
		<tag k="natural" v="hill" />
		<tag k="place" v="locality" />
		<tag k="ssr:stedsnr" v="827199" />
	</node>
	<node id="-7481" lat="62.2482833341" lon="5.45358055722">
		<tag k="name" v="Kleivahaugane" />
		<tag k="natural" v="hill" />
		<tag k="place" v="locality" />
		<tag k="ssr:stedsnr" v="827192" />
	</node>
	<node id="-7480" lat="62.2600583329" lon="5.46173333236">
		<tag k="name" v="Hjellabrautene" />
		<tag k="natural" v="slope" />
		<tag k="place" v="locality" />
		<tag k="ssr:stedsnr" v="827185" />
	</node>
	<node id="-7479" lat="62.23710278" lon="5.45866110946">
		<tag k="name" v="Vardholmen" />
		<tag k="place" v="islet" />
		<tag k="ssr:stedsnr" v="827175" />
	</node>
	<node id="-7478" lat="62.2334916651" lon="5.35343332906">
		<tag k="name" v="Hellaren" />
		<tag k="place" v="locality" />
		<tag k="ssr:stedsnr" v="827159" />
	</node>
	<node id="-7477" lat="62.1988555553" lon="5.67342222449">
		<tag k="name" v="Litlesætra" />
		<tag k="place" v="locality" />
		<tag k="ssr:stedsnr" v="827149" />
	</node>
	<node id="-7476" lat="62.1977722253" lon="5.66147776991">
		<tag k="name" v="Torsethornet" />
		<tag k="natural" v="hill" />
		<tag k="place" v="locality" />
		<tag k="ssr:stedsnr" v="827148" />
	</node>
	<node id="-7475" lat="62.2016833293" lon="5.66824722301">
		<tag k="name" v="Torset-torvet" />
		<tag k="place" v="locality" />
		<tag k="ssr:stedsnr" v="827138" />
	</node>
	<node id="-7474" lat="62.2320472242" lon="5.65219444672">
		<tag k="name" v="Sæssheida" />
		<tag k="natural" v="slope" />
		<tag k="place" v="locality" />
		<tag k="ssr:stedsnr" v="827132" />
	</node>
	<node id="-7473" lat="62.2512388864" lon="5.63861666675">
		<tag k="name" v="Kalvegjerdmyrane" />
		<tag k="natural" v="wetland" />
		<tag k="ssr:stedsnr" v="827129" />
	</node>
	<node id="-7472" lat="62.2421027821" lon="5.47445555881">
		<tag k="name" v="Gløsen" />
		<tag k="natural" v="hill" />
		<tag k="place" v="locality" />
		<tag k="ssr:stedsnr" v="827124" />
	</node>
	<node id="-7471" lat="62.2672138854" lon="5.46211389294">
		<tag k="name" v="Holstødsvartebarden" />
		<tag k="place" v="islet" />
		<tag k="ssr:stedsnr" v="827109" />
	</node>
	<node id="-7470" lat="62.2690055601" lon="5.45160555657">
		<tag k="name" v="Tongaholmane" />
		<tag k="place" v="islet" />
		<tag k="ssr:stedsnr" v="827108" />
	</node>
	<node id="-7469" lat="62.204066668" lon="5.75859721898">
		<tag k="name" v="Laupskråa" />
		<tag k="natural" v="bay" />
		<tag k="ssr:stedsnr" v="827105" />
	</node>
	<node id="-7468" lat="62.2231222195" lon="5.71331388008">
		<tag k="name" v="Skogeelva" />
		<tag k="ssr:stedsnr" v="827091" />
		<tag k="waterway" v="stream" />
	</node>
	<node id="-7467" lat="62.2283972264" lon="5.72288611858">
		<tag k="name" v="Rauddalselva" />
		<tag k="ssr:stedsnr" v="827090" />
		<tag k="waterway" v="stream" />
	</node>
	<node id="-7466" lat="62.1716277787" lon="5.39808612026">
		<tag k="name" v="Søre-hamna" />
		<tag k="natural" v="bay" />
		<tag k="ssr:stedsnr" v="827063" />
	</node>
	<node id="-7465" lat="62.2647861113" lon="5.59893888632">
		<tag k="name" v="Vardhornet" />
		<tag k="natural" v="hill" />
		<tag k="place" v="locality" />
		<tag k="ssr:stedsnr" v="827027" />
	</node>
	<node id="-7464" lat="62.2504194458" lon="5.63583610718">
		<tag k="name" v="Kalvegjerdet" />
		<tag k="natural" v="valley" />
		<tag k="place" v="locality" />
		<tag k="ssr:stedsnr" v="827024" />
	</node>
	<node id="-7463" lat="62.2158999992" lon="5.55341944687">
		<tag k="name" v="Sjåholmen" />
		<tag k="place" v="islet" />
		<tag k="ssr:stedsnr" v="826980" />
	</node>
	<node id="-7462" lat="62.2179555596" lon="5.64638333729">
		<tag k="fixme" v="consider seamark:type=rock or natural=shoal" />
		<tag k="name" v="Kobbeskjeret" />
		<tag k="place" v="islet" />
		<tag k="ssr:stedsnr" v="826079" />
	</node>
	<node id="-7461" lat="62.2546972262" lon="5.57595000113">
		<tag k="name" v="Sandangersanden" />
		<tag k="natural" v="beach" />
		<tag k="place" v="locality" />
		<tag k="ssr:stedsnr" v="825335" />
	</node>
	<node id="-7460" lat="62.2184499983" lon="5.66692777086">
		<tag k="fixme" v="consider natural=peak for the most distinct mountains in the district" />
		<tag k="name" v="Litlefjellet" />
		<tag k="natural" v="hill" />
		<tag k="place" v="locality" />
		<tag k="ssr:stedsnr" v="825036" />
	</node>
	<node id="-7459" lat="62.2240444455" lon="5.53336665839">
		<tag k="name" v="Kattaberget" />
		<tag k="natural" v="hill" />
		<tag k="place" v="locality" />
		<tag k="ssr:stedsnr" v="825024" />
	</node>
	<node id="-7458" lat="62.2158111097" lon="5.65235555934">
		<tag k="bridge" v="yes" />
		<tag k="layer" v="1" />
		<tag k="name" v="Vågsbrua" />
		<tag k="ssr:stedsnr" v="816387" />
	</node>
	<node id="-7456" lat="62.2693166646" lon="5.27055833749">
		<tag k="name" v="Jynngrunnen" />
		<tag k="natural" v="shoal" />
		<tag k="place" v="locality" />
		<tag k="ssr:stedsnr" v="800531" />
	</node>
	<node id="-7455" lat="62.2104527748" lon="5.61790556476">
		<tag k="name" v="Knottahornet" />
		<tag k="natural" v="hill" />
		<tag k="place" v="locality" />
		<tag k="ssr:stedsnr" v="800524" />
	</node>
	<node id="-7454" lat="62.268058333" lon="5.45182500891">
		<tag k="alt_name" v="Tongane" />
		<tag k="name" v="Tangane" />
		<tag k="natural" v="cape" />
		<tag k="ssr:stedsnr" v="800511" />
	</node>
	<node id="-7453" lat="62.2728111154" lon="5.6032888879">
		<tag k="name" v="Gjerdseidet" />
		<tag k="natural" v="valley" />
		<tag k="place" v="locality" />
		<tag k="ssr:stedsnr" v="800506" />
	</node>
	<node id="-7452" lat="62.258363885" lon="5.40095834232">
		<tag k="alt_name" v="Dallsteinen" />
		<tag k="name" v="Dollsteinen" />
		<tag k="natural" v="hill" />
		<tag k="place" v="locality" />
		<tag k="ssr:stedsnr" v="800503" />
	</node>
	<node id="-7451" lat="62.2088555537" lon="5.46750000238">
		<tag k="name" v="Kyrholmen" />
		<tag k="place" v="islet" />
		<tag k="ssr:stedsnr" v="800592" />
	</node>
	<node id="-7450" lat="62.2308388857" lon="5.6583138837">
		<tag k="name" v="Årekinna" />
		<tag k="natural" v="hill" />
		<tag k="place" v="locality" />
		<tag k="ssr:stedsnr" v="800569" />
	</node>
	<node id="-7449" lat="62.2349666648" lon="5.64277500389">
		<tag k="alt_name" v="Sæsshornet" />
		<tag k="name" v="Sæshorn" />
		<tag k="natural" v="hill" />
		<tag k="place" v="locality" />
		<tag k="ssr:stedsnr" v="800568" />
	</node>
	<node id="-7448" lat="62.2632566929" lon="5.41748191717">
		<tag k="name" v="Helland" />
		<tag k="place" v="locality" />
		<tag k="ssr:stedsnr" v="800496" />
	</node>
	<node id="-7447" lat="62.2611860655" lon="5.57572483509">
		<tag k="fixme" v="consider place=hamlet" />
		<tag k="name" v="Gjerde" />
		<tag k="place" v="farm" />
		<tag k="ssr:stedsnr" v="800494" />
	</node>
	<node id="-7446" lat="62.2542638907" lon="5.50948055721">
		<tag k="bay" v="fjord" />
		<tag k="name" v="Sandsfjorden" />
		<tag k="natural" v="bay" />
		<tag k="ssr:stedsnr" v="800493" />
	</node>
	<node id="-7445" lat="62.2534888902" lon="5.40454722235">
		<tag k="alt_name" v="Breivikneset" />
		<tag k="name" v="Breidviknesa" />
		<tag k="natural" v="cape" />
		<tag k="ssr:stedsnr" v="800492" />
	</node>
	<node id="-7444" lat="62.2488527741" lon="5.2472249913">
		<tag k="name" v="Grunnskallen" />
		<tag k="natural" v="shoal" />
		<tag k="place" v="locality" />
		<tag k="ssr:stedsnr" v="799688" />
	</node>
	<node id="-7443" lat="62.239849651" lon="5.47740385664">
		<tag k="fixme" v="consider place=hamlet" />
		<tag k="name" v="Voren" />
		<tag k="place" v="farm" />
		<tag k="ssr:stedsnr" v="799675" />
	</node>
	<node id="-7442" lat="62.2414499961" lon="5.48743888346">
		<tag k="name" v="Vorakletten" />
		<tag k="natural" v="hill" />
		<tag k="place" v="locality" />
		<tag k="ssr:stedsnr" v="799674" />
	</node>
	<node id="-7441" lat="62.2452201937" lon="5.46303273325">
		<tag k="fixme" v="consider place=hamlet" />
		<tag k="name" v="Bringsvor" />
		<tag k="place" v="farm" />
		<tag k="ssr:stedsnr" v="799671" />
	</node>
	<node id="-7440" lat="62.1852055532" lon="5.35621112023">
		<tag k="alt_name" v="Svarteskjera" />
		<tag k="fixme" v="consider seamark:type=rock or natural=shoal" />
		<tag k="name" v="Svarteskjer" />
		<tag k="place" v="islet" />
		<tag k="ssr:stedsnr" v="799576" />
	</node>
	<node id="-7439" lat="62.2041111137" lon="5.76385276941">
		<tag k="name" v="Laupsneset" />
		<tag k="natural" v="cape" />
		<tag k="ssr:stedsnr" v="799087" />
	</node>
	<node id="-7438" lat="62.2296611072" lon="5.35381111917">
		<tag k="name" v="Hellafludene" />
		<tag k="natural" v="shoal" />
		<tag k="place" v="locality" />
		<tag k="ssr:stedsnr" v="780491" />
	</node>
	<node id="-7437" lat="62.1977361084" lon="5.39104165796">
		<tag k="name" v="Brekkefluda" />
		<tag k="natural" v="shoal" />
		<tag k="place" v="locality" />
		<tag k="ssr:stedsnr" v="780374" />
	</node>
	<node id="-7436" lat="62.2133666699" lon="5.41286945032">
		<tag k="name" v="Kvia" />
		<tag k="natural" v="cape" />
		<tag k="ssr:stedsnr" v="780367" />
	</node>
	<node id="-7435" lat="62.2052583341" lon="5.3145555532">
		<tag k="name" v="Barskallen" />
		<tag k="natural" v="shoal" />
		<tag k="place" v="locality" />
		<tag k="ssr:stedsnr" v="780365" />
	</node>
	<node id="-7434" lat="62.266819441" lon="5.55911944175">
		<tag k="name" v="Øvre Stokkset" />
		<tag k="place" v="farm" />
		<tag k="ssr:stedsnr" v="779598" />
	</node>
	<node id="-7433" lat="62.2358777762" lon="5.58476111693">
		<tag k="fixme" v="consider place=hamlet" />
		<tag k="name" v="Haugsbygda" />
		<tag k="place" v="village" />
		<tag k="ssr:stedsnr" v="779595" />
	</node>
	<node id="-7432" lat="62.2398638848" lon="5.42222222358">
		<tag k="name" v="Murvikfluda" />
		<tag k="natural" v="shoal" />
		<tag k="place" v="locality" />
		<tag k="ssr:stedsnr" v="779438" />
	</node>
	<node id="-7431" lat="62.2139527815" lon="5.41432222841">
		<tag k="fixme" v="consider seamark:type=rock or natural=shoal" />
		<tag k="name" v="Nibba" />
		<tag k="place" v="islet" />
		<tag k="ssr:stedsnr" v="766300" />
	</node>
	<node id="-7430" lat="62.207347223" lon="5.3994027823">
		<tag k="name" v="Høgenipa" />
		<tag k="natural" v="hill" />
		<tag k="place" v="locality" />
		<tag k="ssr:stedsnr" v="766299" />
	</node>
	<node id="-7429" lat="62.2259222236" lon="5.64455555079">
		<tag k="name" v="Rinden" />
		<tag k="natural" v="ridge" />
		<tag k="place" v="locality" />
		<tag k="ssr:stedsnr" v="766238" />
	</node>
	<node id="-7428" lat="62.2346916678" lon="5.72640556292">
		<tag k="name" v="Lemane" />
		<tag k="natural" v="slope" />
		<tag k="place" v="locality" />
		<tag k="ssr:stedsnr" v="766235" />
	</node>
	<node id="-7427" lat="62.2078305579" lon="5.3493694478">
		<tag k="fixme" v="consider seamark:type=rock or natural=shoal" />
		<tag k="name" v="Inste Rugskjeret" />
		<tag k="place" v="islet" />
		<tag k="ssr:stedsnr" v="766222" />
	</node>
	<node id="-7426" lat="62.2668250032" lon="5.42186389258">
		<tag k="name" v="Djuvika" />
		<tag k="natural" v="bay" />
		<tag k="ssr:stedsnr" v="766219" />
	</node>
	<node id="-7425" lat="62.2053694406" lon="5.57777222973">
		<tag k="name" v="Haugen" />
		<tag k="place" v="farm" />
		<tag k="ssr:stedsnr" v="766291" />
	</node>
	<node id="-7424" lat="62.174405553" lon="5.39585000044">
		<tag k="name" v="Garevika" />
		<tag k="natural" v="bay" />
		<tag k="ssr:stedsnr" v="766287" />
	</node>
	<node id="-7423" lat="62.2419194406" lon="5.43424723101">
		<tag k="name" v="Klubben" />
		<tag k="natural" v="cape" />
		<tag k="ssr:stedsnr" v="766284" />
	</node>
	<node id="-7422" lat="62.2169694446" lon="5.37255833076">
		<tag k="name" v="Nybakken" />
		<tag k="place" v="farm" />
		<tag k="ssr:stedsnr" v="766269" />
	</node>
	<node id="-7421" lat="62.170394441" lon="5.39546666419">
		<tag k="name" v="Tevassberga" />
		<tag k="natural" v="hill" />
		<tag k="place" v="locality" />
		<tag k="ssr:stedsnr" v="766051" />
	</node>
	<node id="-7420" lat="62.1705111084" lon="5.38782221548">
		<tag k="alt_name" v="Torreskjeret;Søre Torreskjeret" />
		<tag k="fixme" v="consider seamark:type=rock or natural=shoal" />
		<tag k="name" v="Søre Torrane" />
		<tag k="place" v="islet" />
		<tag k="ssr:stedsnr" v="766050" />
	</node>
	<node id="-7419" lat="62.2616361079" lon="5.59623888397">
		<tag k="name" v="Stellehornet" />
		<tag k="natural" v="hill" />
		<tag k="place" v="locality" />
		<tag k="ssr:stedsnr" v="766027" />
	</node>
	<node id="-7418" lat="62.2514166641" lon="5.57289166097">
		<tag k="name" v="Hane-elva" />
		<tag k="ssr:stedsnr" v="766017" />
		<tag k="waterway" v="stream" />
	</node>
	<node id="-7417" lat="62.2418833292" lon="5.61312222835">
		<tag k="name" v="Litlebødalen" />
		<tag k="natural" v="valley" />
		<tag k="place" v="locality" />
		<tag k="ssr:stedsnr" v="766007" />
	</node>
	<node id="-7416" lat="62.2377861147" lon="5.46711667241">
		<tag k="name" v="Kuholmen" />
		<tag k="place" v="islet" />
		<tag k="ssr:stedsnr" v="766192" />
	</node>
	<node id="-7415" lat="62.2129944409" lon="5.68571666684">
		<tag k="name" v="Holmen" />
		<tag k="place" v="locality" />
		<tag k="ssr:stedsnr" v="766183" />
	</node>
	<node id="-7414" lat="62.2421638861" lon="5.42344443833">
		<tag k="name" v="Mattistangen" />
		<tag k="natural" v="cape" />
		<tag k="ssr:stedsnr" v="766180" />
	</node>
	<node id="-7413" lat="62.2459638918" lon="5.47833888037">
		<tag k="name" v="Flødevikane" />
		<tag k="natural" v="bay" />
		<tag k="ssr:stedsnr" v="766176" />
	</node>
	<node id="-7412" lat="62.2511527744" lon="5.47057499988">
		<tag k="name" v="Kråkeholmen" />
		<tag k="place" v="islet" />
		<tag k="ssr:stedsnr" v="766174" />
	</node>
	<node id="-7411" lat="62.2427305527" lon="5.40385832561">
		<tag k="fixme" v="consider seamark:type=rock or natural=shoal" />
		<tag k="name" v="Litlerivskjeret" />
		<tag k="place" v="islet" />
		<tag k="ssr:stedsnr" v="766143" />
	</node>
	<node id="-7410" lat="62.2309055522" lon="5.67910277044">
		<tag k="name" v="Helleberget" />
		<tag k="natural" v="hill" />
		<tag k="place" v="locality" />
		<tag k="ssr:stedsnr" v="766131" />
	</node>
	<node id="-7409" lat="62.2300055592" lon="5.66218332343">
		<tag k="name" v="Raudklettane" />
		<tag k="natural" v="wetland" />
		<tag k="ssr:stedsnr" v="766130" />
	</node>
	<node id="-7408" lat="62.2464055584" lon="5.63858888631">
		<tag k="name" v="Kalvegjerdmyra" />
		<tag k="natural" v="wetland" />
		<tag k="ssr:stedsnr" v="766126" />
	</node>
	<node id="-7407" lat="62.2113194417" lon="5.5840138917">
		<tag k="name" v="Kvernhusdalen" />
		<tag k="natural" v="valley" />
		<tag k="place" v="locality" />
		<tag k="ssr:stedsnr" v="764052" />
	</node>
	<node id="-7406" lat="62.208486107" lon="5.56600555165">
		<tag k="name" v="Skitnevika" />
		<tag k="natural" v="bay" />
		<tag k="ssr:stedsnr" v="764050" />
	</node>
	<node id="-7405" lat="62.2120527785" lon="5.6701083337">
		<tag k="name" v="Almestadmyrane" />
		<tag k="natural" v="wetland" />
		<tag k="ssr:stedsnr" v="764049" />
	</node>
	<node id="-7404" lat="62.205538886" lon="5.58175000022">
		<tag k="name" v="Gardebruna" />
		<tag k="natural" v="ridge" />
		<tag k="place" v="locality" />
		<tag k="ssr:stedsnr" v="764006" />
	</node>
	<node id="-7403" lat="62.2430138881" lon="5.58542499476">
		<tag k="name" v="Nauthaugane" />
		<tag k="natural" v="hill" />
		<tag k="place" v="locality" />
		<tag k="ssr:stedsnr" v="764001" />
	</node>
	<node id="-7402" lat="62.2084833309" lon="5.65583610413">
		<tag k="name" v="Middagselva" />
		<tag k="ssr:stedsnr" v="764056" />
		<tag k="waterway" v="stream" />
	</node>
	<node id="-7401" lat="62.2094694408" lon="5.58085833287">
		<tag k="name" v="Larsneselva" />
		<tag k="ssr:stedsnr" v="764053" />
		<tag k="waterway" v="stream" />
	</node>
	<node id="-7400" lat="62.2088000009" lon="5.48936944089">
		<tag k="name" v="Langholmane" />
		<tag k="place" v="islet" />
		<tag k="ssr:stedsnr" v="739591" />
	</node>
	<node id="-7399" lat="62.2154455319" lon="5.65165766432">
		<tag k="fixme" v="consider place=hamlet" />
		<tag k="name" v="Vågen" />
		<tag k="place" v="farm" />
		<tag k="ssr:stedsnr" v="739588" />
	</node>
	<node id="-7398" lat="62.2238888843" lon="5.57785554703">
		<tag k="name" v="Strand" />
		<tag k="place" v="farm" />
		<tag k="ssr:stedsnr" v="739585" />
	</node>
	<node id="-7397" lat="62.2548638858" lon="5.40598332864">
		<tag k="name" v="Breidvika" />
		<tag k="natural" v="bay" />
		<tag k="ssr:stedsnr" v="739499" />
	</node>
	<node id="-7396" lat="62.232063893" lon="5.72575000423">
		<tag k="name" v="Leikongeidet" />
		<tag k="natural" v="strait" />
		<tag k="ssr:stedsnr" v="739166" />
	</node>
	<node id="-7395" lat="62.2459249998" lon="5.33835555881">
		<tag k="name" v="Nystøylfluda" />
		<tag k="natural" v="shoal" />
		<tag k="place" v="locality" />
		<tag k="ssr:stedsnr" v="738661" />
	</node>
	<node id="-7394" lat="62.2412611119" lon="5.49269999841">
		<tag k="name" v="Maltvikneset" />
		<tag k="natural" v="cape" />
		<tag k="ssr:stedsnr" v="738650" />
	</node>
	<node id="-7393" lat="62.2453138932" lon="5.60646388272">
		<tag k="alt_name" v="Store Telavatnet" />
		<tag k="name" v="Telebergvatna" />
		<tag k="natural" v="water" />
		<tag k="ssr:stedsnr" v="738587" />
	</node>
	<node id="-7392" lat="62.2475305593" lon="5.62295834115">
		<tag k="name" v="Nørdbergsheida" />
		<tag k="natural" v="hill" />
		<tag k="place" v="locality" />
		<tag k="ssr:stedsnr" v="738585" />
	</node>
	<node id="-7391" lat="62.2181305563" lon="5.36126110393">
		<tag k="name" v="Eldevika" />
		<tag k="natural" v="bay" />
		<tag k="ssr:stedsnr" v="644308" />
	</node>
	<node id="-7390" lat="62.2578555524" lon="5.53988332667">
		<tag k="name" v="Gjøbugen" />
		<tag k="natural" v="bay" />
		<tag k="ssr:stedsnr" v="644306" />
	</node>
	<node id="-7389" lat="62.2513361075" lon="5.47978889827">
		<tag k="name" v="Bautane" />
		<tag k="natural" v="bay" />
		<tag k="ssr:stedsnr" v="644301" />
	</node>
	<node id="-7388" lat="62.2277805525" lon="5.53049723071">
		<tag k="name" v="Klubben" />
		<tag k="natural" v="cape" />
		<tag k="ssr:stedsnr" v="644300" />
	</node>
	<node id="-7387" lat="62.2233861103" lon="5.72850278381">
		<tag k="name" v="Stikktua" />
		<tag k="natural" v="hill" />
		<tag k="place" v="locality" />
		<tag k="ssr:stedsnr" v="644249" />
	</node>
	<node id="-7386" lat="62.2206138846" lon="5.58957499908">
		<tag k="name" v="Skarelva" />
		<tag k="ssr:stedsnr" v="644246" />
		<tag k="waterway" v="stream" />
	</node>
	<node id="-7385" lat="62.2057361121" lon="5.75838333069">
		<tag k="name" v="Stigen" />
		<tag k="natural" v="slope" />
		<tag k="place" v="locality" />
		<tag k="ssr:stedsnr" v="644243" />
	</node>
	<node id="-7384" lat="62.2306722233" lon="5.62935555363">
		<tag k="name" v="Tua" />
		<tag k="natural" v="hill" />
		<tag k="place" v="locality" />
		<tag k="ssr:stedsnr" v="644242" />
	</node>
	<node id="-7383" lat="62.2220611138" lon="5.37861110542">
		<tag k="name" v="Seleberget" />
		<tag k="natural" v="hill" />
		<tag k="place" v="locality" />
		<tag k="ssr:stedsnr" v="644239" />
	</node>
	<node id="-7382" lat="62.2112166673" lon="5.68339445158">
		<tag k="name" v="Koppelva" />
		<tag k="ssr:stedsnr" v="644232" />
		<tag k="waterway" v="stream" />
	</node>
	<node id="-7381" lat="62.2563694446" lon="5.39995000637">
		<tag k="name" v="Kvia" />
		<tag k="natural" v="cape" />
		<tag k="ssr:stedsnr" v="644207" />
	</node>
	<node id="-7380" lat="62.220763892" lon="5.54713054619">
		<tag k="name" v="Storelva" />
		<tag k="ssr:stedsnr" v="644196" />
		<tag k="waterway" v="stream" />
	</node>
	<node id="-7379" lat="62.2254194482" lon="5.59746389477">
		<tag k="name" v="Storetua" />
		<tag k="natural" v="hill" />
		<tag k="place" v="locality" />
		<tag k="ssr:stedsnr" v="644186" />
	</node>
	<node id="-7378" lat="62.2544416708" lon="5.45369721974">
		<tag k="name" v="Leirvikneset" />
		<tag k="natural" v="cape" />
		<tag k="ssr:stedsnr" v="644183" />
	</node>
	<node id="-7377" lat="62.2561611153" lon="5.45563333469">
		<tag k="name" v="Djuvikneset" />
		<tag k="natural" v="cape" />
		<tag k="ssr:stedsnr" v="644180" />
	</node>
	<node id="-7376" lat="62.2462277757" lon="5.48576666601">
		<tag k="name" v="Toftesund" />
		<tag k="place" v="farm" />
		<tag k="ssr:stedsnr" v="644176" />
	</node>
	<node id="-7375" lat="62.251719442" lon="5.47990278554">
		<tag k="name" v="Budaneset" />
		<tag k="natural" v="cape" />
		<tag k="ssr:stedsnr" v="644165" />
	</node>
	<node id="-7374" lat="62.2388499994" lon="5.46382777619">
		<tag k="name" v="Jaktholmen" />
		<tag k="place" v="islet" />
		<tag k="ssr:stedsnr" v="644162" />
	</node>
	<node id="-7373" lat="62.239997224" lon="5.34799444597">
		<tag k="fixme" v="consider seamark:type=rock or natural=shoal" />
		<tag k="name" v="Langenesboden" />
		<tag k="place" v="islet" />
		<tag k="ssr:stedsnr" v="644155" />
	</node>
	<node id="-7372" lat="62.2097805513" lon="5.36999722238">
		<tag k="name" v="Bondeskorene" />
		<tag k="natural" v="valley" />
		<tag k="place" v="locality" />
		<tag k="ssr:stedsnr" v="644150" />
	</node>
	<node id="-7371" lat="62.2370055546" lon="5.36474166067">
		<tag k="fixme" v="consider seamark:type=rock or natural=shoal" />
		<tag k="name" v="Fleskeryggen" />
		<tag k="place" v="islet" />
		<tag k="ssr:stedsnr" v="644148" />
	</node>
	<node id="-7370" lat="62.2424611077" lon="5.40790554814">
		<tag k="fixme" v="consider seamark:type=rock or natural=shoal" />
		<tag k="name" v="Leidaholmskjeret" />
		<tag k="place" v="islet" />
		<tag k="ssr:stedsnr" v="644141" />
	</node>
	<node id="-7369" lat="62.2026944411" lon="5.65677777681">
		<tag k="name" v="Trollvatnet" />
		<tag k="natural" v="water" />
		<tag k="ssr:stedsnr" v="644131" />
	</node>
	<node id="-7368" lat="62.2358055554" lon="5.48666667228">
		<tag k="name" v="Legeneset" />
		<tag k="natural" v="cape" />
		<tag k="ssr:stedsnr" v="644127" />
	</node>
	<node id="-7367" lat="62.2133472198" lon="5.48682499338">
		<tag k="alt_name" v="Hesteholmsundet" />
		<tag k="name" v="Hestholmsundet" />
		<tag k="natural" v="strait" />
		<tag k="ssr:stedsnr" v="644114" />
	</node>
	<node id="-7366" lat="62.1927500003" lon="5.60257777975">
		<tag k="name" v="Saudedalen" />
		<tag k="natural" v="valley" />
		<tag k="place" v="locality" />
		<tag k="ssr:stedsnr" v="644107" />
	</node>
	<node id="-7365" lat="62.2660861114" lon="5.4138249984">
		<tag k="name" v="Hamnaholmen" />
		<tag k="place" v="islet" />
		<tag k="ssr:stedsnr" v="644105" />
	</node>
	<node id="-7364" lat="62.2664388884" lon="5.41838611612">
		<tag k="name" v="Småvikane" />
		<tag k="natural" v="bay" />
		<tag k="ssr:stedsnr" v="644103" />
	</node>
	<node id="-7363" lat="62.273847225" lon="5.60615833323">
		<tag k="name" v="Fjellenden" />
		<tag k="natural" v="slope" />
		<tag k="place" v="locality" />
		<tag k="ssr:stedsnr" v="644084" />
	</node>
	<node id="-7362" lat="62.180694441" lon="5.37276110333">
		<tag k="name" v="Sandholmane" />
		<tag k="place" v="islet" />
		<tag k="ssr:stedsnr" v="644073" />
	</node>
	<node id="-7361" lat="62.2191388887" lon="5.3863305489">
		<tag k="name" v="Rada" />
		<tag k="place" v="farm" />
		<tag k="ssr:stedsnr" v="644072" />
	</node>
	<node id="-7360" lat="62.1950916639" lon="5.40250833517">
		<tag k="name" v="Nesekleiva" />
		<tag k="natural" v="slope" />
		<tag k="place" v="locality" />
		<tag k="ssr:stedsnr" v="644066" />
	</node>
	<node id="-7359" lat="62.1755083329" lon="5.39766388904">
		<tag k="name" v="Nøre Kletten" />
		<tag k="natural" v="hill" />
		<tag k="place" v="locality" />
		<tag k="ssr:stedsnr" v="644061" />
	</node>
	<node id="-7358" lat="62.1699666705" lon="5.40092221418">
		<tag k="name" v="Bjørnholmsundet" />
		<tag k="natural" v="strait" />
		<tag k="ssr:stedsnr" v="644058" />
	</node>
	<node id="-7357" lat="62.2569027738" lon="5.39776945386">
		<tag k="name" v="Steinsvika" />
		<tag k="natural" v="bay" />
		<tag k="ssr:stedsnr" v="644050" />
	</node>
	<node id="-7356" lat="62.2126972229" lon="5.65876943529">
		<tag k="name" v="Vågsmyrane" />
		<tag k="natural" v="wetland" />
		<tag k="ssr:stedsnr" v="643086" />
	</node>
	<node id="-7355" lat="62.2115805568" lon="5.5656916645">
		<tag k="alt_name" v="Osen" />
		<tag k="name" v="Halleosen" />
		<tag k="natural" v="bay" />
		<tag k="ssr:stedsnr" v="643081" />
	</node>
	<node id="-7354" lat="62.2343249965" lon="5.54371944711">
		<tag k="name" v="Koparboden" />
		<tag k="natural" v="cape" />
		<tag k="ssr:stedsnr" v="643048" />
	</node>
	<node id="-7353" lat="62.2021046075" lon="5.41632302281">
		<tag k="fixme" v="consider place=hamlet" />
		<tag k="name" v="Hauge" />
		<tag k="place" v="farm" />
		<tag k="ssr:stedsnr" v="642382" />
	</node>
	<node id="-7352" lat="62.21539167" lon="5.47534166898">
		<tag k="amenity" v="ferry_terminal" />
		<tag k="name" v="Voksa ferjekai" />
		<tag k="ssr:stedsnr" v="641103" />
	</node>
	<node id="-7351" lat="62.2550499975" lon="5.42847499459">
		<tag k="name" v="Sandsøya" />
		<tag k="place" v="island" />
		<tag k="ssr:stedsnr" v="617666" />
	</node>
	<node id="-7350" lat="62.2432734501" lon="5.43884395078">
		<tag k="fixme" v="consider place=hamlet" />
		<tag k="name" v="Sande" />
		<tag k="place" v="farm" />
		<tag k="ssr:stedsnr" v="617657" />
	</node>
	<node id="-7349" lat="62.2646890126" lon="5.56500246286">
		<tag k="fixme" v="consider place=hamlet" />
		<tag k="name" v="Hageselle" />
		<tag k="place" v="farm" />
		<tag k="ssr:stedsnr" v="617536" />
	</node>
	<node id="-7348" lat="62.2504194472" lon="5.42944721829">
		<tag k="fixme" v="consider natural=peak for the most distinct mountains in the district" />
		<tag k="name" v="Rinden" />
		<tag k="natural" v="hill" />
		<tag k="place" v="locality" />
		<tag k="ssr:stedsnr" v="617524" />
	</node>
	<node id="-7347" lat="62.2233222202" lon="5.46648054997">
		<tag k="name" v="Kvernasundet" />
		<tag k="natural" v="strait" />
		<tag k="ssr:stedsnr" v="617631" />
	</node>
	<node id="-7346" lat="62.2394138866" lon="5.46532777302">
		<tag k="name" v="Storevika" />
		<tag k="natural" v="bay" />
		<tag k="ssr:stedsnr" v="617612" />
	</node>
	<node id="-7345" lat="62.2331611117" lon="5.54231111809">
		<tag k="name" v="Nupeneset" />
		<tag k="natural" v="cape" />
		<tag k="ssr:stedsnr" v="617609" />
	</node>
	<node id="-7344" lat="62.2355833361" lon="5.55187499684">
		<tag k="bay" v="fjord" />
		<tag k="name" v="Gursken" />
		<tag k="natural" v="bay" />
		<tag k="ssr:stedsnr" v="617607" />
	</node>
	<node id="-7343" lat="62.2335078904" lon="5.6079196726">
		<tag k="fixme" v="consider place=hamlet" />
		<tag k="name" v="Litlebøen" />
		<tag k="place" v="farm" />
		<tag k="ssr:stedsnr" v="617604" />
	</node>
	<node id="-7342" lat="62.2460805574" lon="5.36575833109">
		<tag k="name" v="Stolpeboden" />
		<tag k="natural" v="shoal" />
		<tag k="place" v="locality" />
		<tag k="ssr:stedsnr" v="598540" />
	</node>
	<node id="-7341" lat="62.224891669" lon="5.3871027838">
		<tag k="name" v="Skrukken" />
		<tag k="natural" v="shoal" />
		<tag k="place" v="locality" />
		<tag k="ssr:stedsnr" v="598395" />
	</node>
	<node id="-7340" lat="62.2168638929" lon="5.54739443945">
		<tag k="name" v="Stekkjaren" />
		<tag k="natural" v="shoal" />
		<tag k="place" v="locality" />
		<tag k="ssr:stedsnr" v="597605" />
	</node>
	<node id="-7339" lat="62.2535277787" lon="5.57141110672">
		<tag k="name" v="Sætra" />
		<tag k="place" v="isolated_dwelling" />
		<tag k="ssr:stedsnr" v="597596" />
	</node>
	<node id="-7338" lat="62.26220753" lon="5.32950308781">
		<tag k="name" v="Skjeggene" />
		<tag k="natural" v="shoal" />
		<tag k="place" v="locality" />
		<tag k="ssr:stedsnr" v="587042" />
	</node>
	<node id="-7337" lat="62.2542888927" lon="5.61166389734">
		<tag k="name" v="Vass-stranda" />
		<tag k="natural" v="beach" />
		<tag k="ssr:stedsnr" v="584025" />
	</node>
	<node id="-7336" lat="62.2380027804" lon="5.6095555515">
		<tag k="name" v="Litlebøelva" />
		<tag k="ssr:stedsnr" v="584017" />
		<tag k="waterway" v="stream" />
	</node>
	<node id="-7335" lat="62.2275944439" lon="5.58970277732">
		<tag k="name" v="Sandvikneset" />
		<tag k="natural" v="cape" />
		<tag k="ssr:stedsnr" v="584015" />
	</node>
	<node id="-7334" lat="62.2268472223" lon="5.62663333804">
		<tag k="name" v="Tjeldsvika" />
		<tag k="natural" v="bay" />
		<tag k="ssr:stedsnr" v="584011" />
	</node>
	<node id="-7333" lat="62.2260666655" lon="5.65697778144">
		<tag k="name" v="Hanehornet" />
		<tag k="natural" v="hill" />
		<tag k="place" v="locality" />
		<tag k="ssr:stedsnr" v="584007" />
	</node>
	<node id="-7332" lat="62.2872361131" lon="5.55428889561">
		<tag k="name" v="Mjeltehola" />
		<tag k="natural" v="bay" />
		<tag k="ssr:stedsnr" v="583973" />
	</node>
	<node id="-7331" lat="62.2546916687" lon="5.46615000924">
		<tag k="name" v="Myrane" />
		<tag k="place" v="farm" />
		<tag k="ssr:stedsnr" v="583241" />
	</node>
	<node id="-7330" lat="62.2115805586" lon="5.60143056286">
		<tag k="name" v="Fossane" />
		<tag k="natural" v="waterfall" />
		<tag k="ssr:stedsnr" v="583212" />
	</node>
	<node id="-7329" lat="62.2260249994" lon="5.59060556068">
		<tag k="name" v="Sandvika" />
		<tag k="natural" v="bay" />
		<tag k="ssr:stedsnr" v="583210" />
	</node>
	<node id="-7328" lat="62.212433336" lon="5.64056666654">
		<tag k="name" v="Nonselva" />
		<tag k="ssr:stedsnr" v="583208" />
		<tag k="waterway" v="stream" />
	</node>
	<node id="-7327" lat="62.2582583329" lon="5.53364444266">
		<tag k="name" v="Skytten" />
		<tag k="natural" v="beach" />
		<tag k="place" v="locality" />
		<tag k="ssr:stedsnr" v="583196" />
	</node>
	<node id="-7326" lat="62.2201083327" lon="5.35105000323">
		<tag k="name" v="Halsen" />
		<tag k="natural" v="valley" />
		<tag k="place" v="locality" />
		<tag k="ssr:stedsnr" v="583195" />
	</node>
	<node id="-7325" lat="62.1948613221" lon="5.40533986026">
		<tag k="fixme" v="consider place=hamlet" />
		<tag k="name" v="Simonnes" />
		<tag k="place" v="farm" />
		<tag k="ssr:stedsnr" v="583266" />
	</node>
	<node id="-7324" lat="62.232355559" lon="5.54180832944">
		<tag k="name" v="Langebruna" />
		<tag k="natural" v="ridge" />
		<tag k="place" v="locality" />
		<tag k="ssr:stedsnr" v="583041" />
	</node>
	<node id="-7323" lat="62.2477888895" lon="5.47555277282">
		<tag k="alt_name" v="Hauge" />
		<tag k="name" v="Haugen" />
		<tag k="place" v="farm" />
		<tag k="ssr:stedsnr" v="583183" />
	</node>
	<node id="-7322" lat="62.2399583379" lon="5.45355556199">
		<tag k="name" v="Tarevika" />
		<tag k="natural" v="bay" />
		<tag k="ssr:stedsnr" v="583181" />
	</node>
	<node id="-7321" lat="62.1968083325" lon="5.60461389496">
		<tag k="name" v="Nakken" />
		<tag k="natural" v="ridge" />
		<tag k="place" v="locality" />
		<tag k="ssr:stedsnr" v="583179" />
	</node>
	<node id="-7320" lat="62.2483888931" lon="5.43627777525">
		<tag k="name" v="Høgehornet" />
		<tag k="natural" v="hill" />
		<tag k="place" v="locality" />
		<tag k="ssr:stedsnr" v="583174" />
	</node>
	<node id="-7319" lat="62.2474416705" lon="5.46366666329">
		<tag k="name" v="Storhaugen" />
		<tag k="natural" v="hill" />
		<tag k="place" v="locality" />
		<tag k="ssr:stedsnr" v="583167" />
	</node>
	<node id="-7318" lat="62.2597694467" lon="5.48360555936">
		<tag k="name" v="Hornhammaren" />
		<tag k="place" v="locality" />
		<tag k="ssr:stedsnr" v="583166" />
	</node>
	<node id="-7317" lat="62.2624555574" lon="5.48303888027">
		<tag k="name" v="Gurskekroken" />
		<tag k="natural" v="cape" />
		<tag k="ssr:stedsnr" v="583163" />
	</node>
	<node id="-7316" lat="62.2389777769" lon="5.36021111388">
		<tag k="name" v="Ytstevikane" />
		<tag k="natural" v="bay" />
		<tag k="ssr:stedsnr" v="583157" />
	</node>
	<node id="-7315" lat="62.2183333305" lon="5.3735194501">
		<tag k="name" v="Elvaholmen" />
		<tag k="place" v="islet" />
		<tag k="ssr:stedsnr" v="583153" />
	</node>
	<node id="-7314" lat="62.2362416683" lon="5.47716110972">
		<tag k="name" v="Hundeberget" />
		<tag k="natural" v="cape" />
		<tag k="ssr:stedsnr" v="583134" />
	</node>
	<node id="-7313" lat="62.2245944411" lon="5.46977221385">
		<tag k="name" v="Skutholmane" />
		<tag k="place" v="islet" />
		<tag k="ssr:stedsnr" v="583131" />
	</node>
	<node id="-7312" lat="62.1982305523" lon="5.57500277753">
		<tag k="name" v="Langeneset" />
		<tag k="natural" v="cape" />
		<tag k="ssr:stedsnr" v="583129" />
	</node>
	<node id="-7311" lat="62.2820166651" lon="5.55520833204">
		<tag k="name" v="Blåfjellet" />
		<tag k="natural" v="cliff" />
		<tag k="ssr:stedsnr" v="582035" />
	</node>
	<node id="-7310" lat="62.2581833321" lon="5.54305000548">
		<tag k="name" v="Flatfjøra" />
		<tag k="natural" v="beach" />
		<tag k="place" v="locality" />
		<tag k="ssr:stedsnr" v="582029" />
	</node>
	<node id="-7309" lat="62.2072111152" lon="5.58789167107">
		<tag k="name" v="Haugeelva" />
		<tag k="ssr:stedsnr" v="582005" />
		<tag k="waterway" v="stream" />
	</node>
	<node id="-7308" lat="62.2328444468" lon="5.47375278181">
		<tag k="bridge" v="yes" />
		<tag k="layer" v="1" />
		<tag k="name" v="Hønebrua" />
		<tag k="ssr:stedsnr" v="573367" />
	</node>
	<node id="-7307" lat="62.2214555554" lon="5.64974445002">
		<tag k="bridge" v="yes" />
		<tag k="layer" v="1" />
		<tag k="name" v="Myklebustbrua" />
		<tag k="ssr:stedsnr" v="573357" />
	</node>
	<node id="-7306" lat="62.1996083378" lon="5.62789167174">
		<tag k="name" v="Nyksvatnet" />
		<tag k="natural" v="water" />
		<tag k="ssr:stedsnr" v="557527" />
	</node>
	<node id="-7305" lat="62.2240555545" lon="5.73295277214">
		<tag k="name" v="Klipevatnet" />
		<tag k="natural" v="water" />
		<tag k="ssr:stedsnr" v="557174" />
	</node>
	<node id="-7304" lat="62.2361277806" lon="5.68503610518">
		<tag k="name" v="Svinevatnet" />
		<tag k="natural" v="water" />
		<tag k="ssr:stedsnr" v="556644" />
	</node>
	<node id="-7303" lat="62.2319333346" lon="5.46094722857">
		<tag k="alt_name" v="Håskjer" />
		<tag k="fixme" v="consider seamark:type=rock or natural=shoal" />
		<tag k="name" v="Håskjeret" />
		<tag k="place" v="islet" />
		<tag k="ssr:stedsnr" v="556632" />
	</node>
	<node id="-7302" lat="62.2179333297" lon="5.4623194531">
		<tag k="name" v="Voksa" />
		<tag k="place" v="island" />
		<tag k="ssr:stedsnr" v="556601" />
	</node>
	<node id="-7301" lat="62.2302611087" lon="5.62335000285">
		<tag k="name" v="Urene" />
		<tag k="place" v="farm" />
		<tag k="ssr:stedsnr" v="556598" />
	</node>
	<node id="-7300" lat="62.2324694449" lon="5.70654443962">
		<tag k="alt_name" v="Rauddalen" />
		<tag k="name" v="Røddalen" />
		<tag k="natural" v="valley" />
		<tag k="place" v="locality" />
		<tag k="ssr:stedsnr" v="556592" />
	</node>
	<node id="-7299" lat="62.1910694465" lon="5.58238054698">
		<tag k="alt_name" v="Karnelsholmen;Karneliusholmen;Karnelesholmen" />
		<tag k="name" v="Kalnesholmen" />
		<tag k="place" v="islet" />
		<tag k="ssr:stedsnr" v="556589" />
	</node>
	<node id="-7298" lat="62.2451666684" lon="5.3532833252">
		<tag k="name" v="Steinboden" />
		<tag k="natural" v="shoal" />
		<tag k="place" v="locality" />
		<tag k="ssr:stedsnr" v="556677" />
	</node>
	<node id="-7296" lat="62.2539527749" lon="5.37240000183">
		<tag k="alt_name" v="Marøyfluene" />
		<tag k="name" v="Marøyfludene" />
		<tag k="natural" v="shoal" />
		<tag k="place" v="locality" />
		<tag k="ssr:stedsnr" v="556541" />
	</node>
	<node id="-7294" lat="62.1945437541" lon="5.6486574722">
		<tag k="fixme" v="consider place=hamlet" />
		<tag k="name" v="Liset" />
		<tag k="place" v="farm" />
		<tag k="ssr:stedsnr" v="556535" />
	</node>
	<node id="-7293" lat="62.2465083372" lon="5.37356666013">
		<tag k="name" v="Stolpefluda" />
		<tag k="natural" v="shoal" />
		<tag k="place" v="locality" />
		<tag k="ssr:stedsnr" v="538544" />
	</node>
	<node id="-7292" lat="62.2882638868" lon="5.4674694514">
		<tag k="name" v="Hella" />
		<tag k="natural" v="shoal" />
		<tag k="place" v="locality" />
		<tag k="ssr:stedsnr" v="537668" />
	</node>
	<node id="-7289" lat="62.2294444437" lon="5.3864666691">
		<tag k="fixme" v="consider seamark:type=rock or natural=shoal" />
		<tag k="name" v="Småskjera" />
		<tag k="place" v="islet" />
		<tag k="ssr:stedsnr" v="524751" />
	</node>
	<node id="-7288" lat="62.2154194458" lon="5.36901665718">
		<tag k="name" v="Nova" />
		<tag k="natural" v="hill" />
		<tag k="place" v="locality" />
		<tag k="ssr:stedsnr" v="523338" />
	</node>
	<node id="-7287" lat="62.2345638926" lon="5.35990278594">
		<tag k="name" v="Rinden" />
		<tag k="natural" v="ridge" />
		<tag k="place" v="locality" />
		<tag k="ssr:stedsnr" v="523299" />
	</node>
	<node id="-7286" lat="62.2415472208" lon="5.44164999134">
		<tag k="name" v="Sande" />
		<tag k="place" v="farm" />
		<tag k="ssr:stedsnr" v="523285" />
	</node>
	<node id="-7285" lat="62.2483249996" lon="5.61791111661">
		<tag k="name" v="Klovane" />
		<tag k="natural" v="hill" />
		<tag k="place" v="locality" />
		<tag k="ssr:stedsnr" v="523258" />
	</node>
	<node id="-7284" lat="62.2167944425" lon="5.65071944122">
		<tag k="name" v="Vågosen" />
		<tag k="natural" v="bay" />
		<tag k="ssr:stedsnr" v="523248" />
	</node>
	<node id="-7283" lat="62.2625500028" lon="5.58663055803">
		<tag k="name" v="Mjelteskjervet" />
		<tag k="natural" v="slope" />
		<tag k="place" v="locality" />
		<tag k="ssr:stedsnr" v="523240" />
	</node>
	<node id="-7282" lat="62.2585888895" lon="5.39446944874">
		<tag k="name" v="Kråa" />
		<tag k="natural" v="bay" />
		<tag k="ssr:stedsnr" v="523225" />
	</node>
	<node id="-7281" lat="62.2169055538" lon="5.45495832872">
		<tag k="fixme" v="consider seamark:type=rock or natural=shoal" />
		<tag k="name" v="Tjeldeskjeret" />
		<tag k="place" v="islet" />
		<tag k="ssr:stedsnr" v="523145" />
	</node>
	<node id="-7280" lat="62.1909472205" lon="5.6310222172">
		<tag k="name" v="Martinberget" />
		<tag k="natural" v="cape" />
		<tag k="ssr:stedsnr" v="523137" />
	</node>
	<node id="-7279" lat="62.2662500015" lon="5.46673056414">
		<tag k="name" v="Driv-vika" />
		<tag k="natural" v="bay" />
		<tag k="ssr:stedsnr" v="523131" />
	</node>
	<node id="-7278" lat="62.2284583317" lon="5.69680277002">
		<tag k="name" v="Dyrhaugane" />
		<tag k="natural" v="hill" />
		<tag k="place" v="locality" />
		<tag k="ssr:stedsnr" v="523109" />
	</node>
	<node id="-7277" lat="62.2201194488" lon="5.34500833084">
		<tag k="name" v="Luseholmen" />
		<tag k="place" v="islet" />
		<tag k="ssr:stedsnr" v="523099" />
	</node>
	<node id="-7276" lat="62.2056055535" lon="5.38627778488">
		<tag k="name" v="Støyledalen" />
		<tag k="natural" v="valley" />
		<tag k="place" v="locality" />
		<tag k="ssr:stedsnr" v="523093" />
	</node>
	<node id="-7275" lat="62.1990305559" lon="5.40811944426">
		<tag k="name" v="Skjervahaugen" />
		<tag k="natural" v="hill" />
		<tag k="place" v="locality" />
		<tag k="ssr:stedsnr" v="523088" />
	</node>
	<node id="-7274" lat="62.1867666713" lon="5.38447500807">
		<tag k="name" v="Midkletten" />
		<tag k="natural" v="hill" />
		<tag k="place" v="locality" />
		<tag k="ssr:stedsnr" v="523085" />
	</node>
	<node id="-7273" lat="62.2515305524" lon="5.60670833112">
		<tag k="name" v="Høgehornet" />
		<tag k="natural" v="hill" />
		<tag k="place" v="locality" />
		<tag k="ssr:stedsnr" v="523035" />
	</node>
	<node id="-7272" lat="62.2344194422" lon="5.67443055869">
		<tag k="name" v="Gutårslida" />
		<tag k="natural" v="slope" />
		<tag k="place" v="locality" />
		<tag k="ssr:stedsnr" v="523031" />
	</node>
	<node id="-7271" lat="62.2427999955" lon="5.60926388366">
		<tag k="name" v="Litle Telavatnet" />
		<tag k="natural" v="water" />
		<tag k="ssr:stedsnr" v="523021" />
	</node>
	<node id="-7270" lat="62.2296972264" lon="5.58373611727">
		<tag k="alt_name" v="Sandvikskjera" />
		<tag k="fixme" v="consider seamark:type=rock or natural=shoal" />
		<tag k="name" v="Sandvikskjeret" />
		<tag k="place" v="islet" />
		<tag k="ssr:stedsnr" v="523016" />
	</node>
	<node id="-7269" lat="62.2402944414" lon="5.61201388808">
		<tag k="name" v="Litlebøhornet" />
		<tag k="natural" v="hill" />
		<tag k="place" v="locality" />
		<tag k="ssr:stedsnr" v="523012" />
	</node>
	<node id="-7268" lat="62.213944446" lon="5.5583083312">
		<tag k="name" v="Storehaugen" />
		<tag k="natural" v="hill" />
		<tag k="place" v="locality" />
		<tag k="ssr:stedsnr" v="522965" />
	</node>
	<node id="-7267" lat="62.2190499974" lon="5.66401389491">
		<tag k="name" v="Breidemyra" />
		<tag k="natural" v="wetland" />
		<tag k="ssr:stedsnr" v="522073" />
	</node>
	<node id="-7266" lat="62.195416663" lon="5.63851389217">
		<tag k="name" v="Støyleberget" />
		<tag k="natural" v="hill" />
		<tag k="place" v="locality" />
		<tag k="ssr:stedsnr" v="522069" />
	</node>
	<node id="-7265" lat="62.1927249989" lon="5.61135554656">
		<tag k="name" v="Bjørkhornet" />
		<tag k="natural" v="hill" />
		<tag k="place" v="locality" />
		<tag k="ssr:stedsnr" v="522065" />
	</node>
	<node id="-7264" lat="62.2479861075" lon="5.5524138981">
		<tag k="name" v="Jøtulgylet" />
		<tag k="natural" v="valley" />
		<tag k="place" v="locality" />
		<tag k="ssr:stedsnr" v="522062" />
	</node>
	<node id="-7263" lat="62.2834861101" lon="5.54862500229">
		<tag k="name" v="Småvikane" />
		<tag k="natural" v="bay" />
		<tag k="ssr:stedsnr" v="522059" />
	</node>
	<node id="-7262" lat="62.2548305524" lon="5.53056110394">
		<tag k="name" v="Gjøhalstangen" />
		<tag k="natural" v="cape" />
		<tag k="ssr:stedsnr" v="522055" />
	</node>
	<node id="-7261" lat="62.2554305516" lon="5.53243610532">
		<tag k="name" v="Litlehesten" />
		<tag k="natural" v="ridge" />
		<tag k="place" v="locality" />
		<tag k="ssr:stedsnr" v="522039" />
	</node>
	<node id="-7260" lat="62.2038638853" lon="5.59126944554">
		<tag k="name" v="Hatlefjellet" />
		<tag k="natural" v="hill" />
		<tag k="place" v="locality" />
		<tag k="ssr:stedsnr" v="522008" />
	</node>
	<node id="-7259" lat="62.2023499997" lon="5.57354999084">
		<tag k="name" v="Halsen" />
		<tag k="natural" v="strait" />
		<tag k="ssr:stedsnr" v="522007" />
	</node>
	<node id="-7258" lat="62.2023416704" lon="5.59407499016">
		<tag k="name" v="Litlenakken" />
		<tag k="natural" v="hill" />
		<tag k="place" v="locality" />
		<tag k="ssr:stedsnr" v="522005" />
	</node>
	<node id="-7257" lat="62.2205888917" lon="5.48154999665">
		<tag k="alt_name" v="Flatøya" />
		<tag k="name" v="Flatøyna" />
		<tag k="place" v="islet" />
		<tag k="ssr:stedsnr" v="436545" />
	</node>
	<node id="-7256" lat="62.1992012244" lon="5.39471820897">
		<tag k="alt_name" v="Hatlebrekke" />
		<tag k="fixme" v="consider place=hamlet" />
		<tag k="name" v="Brekke" />
		<tag k="place" v="farm" />
		<tag k="ssr:stedsnr" v="436516" />
	</node>
	<node id="-7255" lat="62.256758622" lon="5.56000157524">
		<tag k="fixme" v="consider place=hamlet" />
		<tag k="name" v="Muren" />
		<tag k="place" v="farm" />
		<tag k="ssr:stedsnr" v="436480" />
	</node>
	<node id="-7254" lat="62.220830554" lon="5.67096944379">
		<tag k="name" v="Myklebustelva" />
		<tag k="ssr:stedsnr" v="436558" />
		<tag k="waterway" v="stream" />
	</node>
	<node id="-7253" lat="62.2370333291" lon="5.33694722531">
		<tag k="fixme" v="consider seamark:type=rock or natural=shoal" />
		<tag k="name" v="Svarteskjera" />
		<tag k="place" v="islet" />
		<tag k="ssr:stedsnr" v="435673" />
	</node>
	<node id="-7252" lat="62.1939916669" lon="5.61172778474">
		<tag k="name" v="Kyrkjehornet" />
		<tag k="natural" v="hill" />
		<tag k="place" v="locality" />
		<tag k="ssr:stedsnr" v="435585" />
	</node>
	<node id="-7251" lat="62.1849333363" lon="5.55590556109">
		<tag k="bay" v="fjord" />
		<tag k="name" v="Rovdefjorden" />
		<tag k="natural" v="bay" />
		<tag k="ssr:stedsnr" v="435537" />
	</node>
	<node id="-7250" lat="62.2619583327" lon="5.40961110782">
		<tag k="alt_name" v="Hellandsvågane" />
		<tag k="name" v="Hellandsvågen" />
		<tag k="natural" v="bay" />
		<tag k="ssr:stedsnr" v="416580" />
	</node>
	<node id="-7249" lat="62.2007138915" lon="5.71235555514">
		<tag k="name" v="Skredestranda" />
		<tag k="natural" v="beach" />
		<tag k="place" v="locality" />
		<tag k="ssr:stedsnr" v="416396" />
	</node>
	<node id="-7248" lat="62.2085583374" lon="5.49857778331">
		<tag k="name" v="Rædene" />
		<tag k="natural" v="shoal" />
		<tag k="place" v="locality" />
		<tag k="ssr:stedsnr" v="415458" />
	</node>
	<node id="-7247" lat="62.2200463289" lon="5.55116076986">
		<tag k="name" v="Halle" />
		<tag k="place" v="hamlet" />
		<tag k="ssr:stedsnr" v="412469" />
	</node>
	<node id="-7246" lat="62.2229638874" lon="5.38205832435">
		<tag k="name" v="Klauva" />
		<tag k="natural" v="bay" />
		<tag k="ssr:stedsnr" v="402303" />
	</node>
	<node id="-7245" lat="62.2428833334" lon="5.41701944785">
		<tag k="name" v="Kleiva" />
		<tag k="natural" v="bay" />
		<tag k="ssr:stedsnr" v="402298" />
	</node>
	<node id="-7244" lat="62.2839861077" lon="5.56391388701">
		<tag k="name" v="Slettene" />
		<tag k="natural" v="slope" />
		<tag k="place" v="locality" />
		<tag k="ssr:stedsnr" v="402263" />
	</node>
	<node id="-7243" lat="62.2137638855" lon="5.56159167059">
		<tag k="name" v="Storehaugen" />
		<tag k="natural" v="hill" />
		<tag k="place" v="locality" />
		<tag k="ssr:stedsnr" v="402248" />
	</node>
	<node id="-7242" lat="62.2593916712" lon="5.5479138903">
		<tag k="name" v="Holboden" />
		<tag k="natural" v="beach" />
		<tag k="place" v="locality" />
		<tag k="ssr:stedsnr" v="402228" />
	</node>
	<node id="-7241" lat="62.2714361114" lon="5.57309167088">
		<tag k="name" v="Trolltua" />
		<tag k="natural" v="hill" />
		<tag k="place" v="locality" />
		<tag k="ssr:stedsnr" v="402225" />
	</node>
	<node id="-7240" lat="62.1912249959" lon="5.6265111088">
		<tag k="name" v="Rognvika" />
		<tag k="natural" v="bay" />
		<tag k="ssr:stedsnr" v="402208" />
	</node>
	<node id="-7239" lat="62.2415722261" lon="5.49181667044">
		<tag k="name" v="Maltvika" />
		<tag k="natural" v="bay" />
		<tag k="ssr:stedsnr" v="402204" />
	</node>
	<node id="-7238" lat="62.2508833339" lon="5.46512777349">
		<tag k="name" v="Langeneset" />
		<tag k="natural" v="cape" />
		<tag k="ssr:stedsnr" v="402180" />
	</node>
	<node id="-7237" lat="62.2381444449" lon="5.46298333794">
		<tag k="name" v="Ringholmane" />
		<tag k="place" v="islet" />
		<tag k="ssr:stedsnr" v="402174" />
	</node>
	<node id="-7236" lat="62.1990194462" lon="5.64933333417">
		<tag k="name" v="Lisetsætra" />
		<tag k="place" v="locality" />
		<tag k="ssr:stedsnr" v="402145" />
	</node>
	<node id="-7235" lat="62.1947694444" lon="5.65554722704">
		<tag k="name" v="Lisetstranda" />
		<tag k="natural" v="beach" />
		<tag k="place" v="locality" />
		<tag k="ssr:stedsnr" v="402144" />
	</node>
	<node id="-7234" lat="62.222255559" lon="5.69999444699">
		<tag k="name" v="Seljesetnakken" />
		<tag k="natural" v="ridge" />
		<tag k="place" v="locality" />
		<tag k="ssr:stedsnr" v="402141" />
	</node>
	<node id="-7233" lat="62.2277527794" lon="5.6491583384">
		<tag k="historic" v="shieling" />
		<tag k="name" v="Grønestøylen" />
		<tag k="place" v="locality" />
		<tag k="ssr:stedsnr" v="402134" />
	</node>
	<node id="-7232" lat="62.2212944459" lon="5.4745694488">
		<tag k="fixme" v="consider seamark:type=rock or natural=shoal" />
		<tag k="name" v="Skinnbroka" />
		<tag k="place" v="islet" />
		<tag k="ssr:stedsnr" v="402120" />
	</node>
	<node id="-7231" lat="62.1910361093" lon="5.58879443982">
		<tag k="name" v="Naustneset" />
		<tag k="natural" v="cape" />
		<tag k="ssr:stedsnr" v="402114" />
	</node>
	<node id="-7230" lat="62.1997972207" lon="5.57392778544">
		<tag k="name" v="Rogneneset" />
		<tag k="natural" v="cape" />
		<tag k="ssr:stedsnr" v="402111" />
	</node>
	<node id="-7229" lat="62.1904361112" lon="5.6114611203">
		<tag k="name" v="Leitevika" />
		<tag k="natural" v="bay" />
		<tag k="ssr:stedsnr" v="402110" />
	</node>
	<node id="-7228" lat="62.199672224" lon="5.61104443559">
		<tag k="name" v="Dyrstigane" />
		<tag k="natural" v="valley" />
		<tag k="place" v="locality" />
		<tag k="ssr:stedsnr" v="402103" />
	</node>
	<node id="-7227" lat="62.2683861071" lon="5.40877221449">
		<tag k="name" v="Bjørnholmen" />
		<tag k="place" v="islet" />
		<tag k="ssr:stedsnr" v="402100" />
	</node>
	<node id="-7226" lat="62.2686666648" lon="5.41601666153">
		<tag k="fixme" v="consider seamark:type=rock or natural=shoal" />
		<tag k="name" v="Svartebarden" />
		<tag k="place" v="islet" />
		<tag k="ssr:stedsnr" v="402095" />
	</node>
	<node id="-7225" lat="62.2658222234" lon="5.44941667389">
		<tag k="name" v="Lendinga" />
		<tag k="natural" v="bay" />
		<tag k="ssr:stedsnr" v="402094" />
	</node>
	<node id="-7224" lat="62.2101944427" lon="5.69570278241">
		<tag k="name" v="Glenneskaret" />
		<tag k="natural" v="valley" />
		<tag k="place" v="locality" />
		<tag k="ssr:stedsnr" v="402089" />
	</node>
	<node id="-7223" lat="62.2100000035" lon="5.41766666645">
		<tag k="name" v="Dysjaneset" />
		<tag k="natural" v="cape" />
		<tag k="ssr:stedsnr" v="402081" />
	</node>
	<node id="-7222" lat="62.2037138861" lon="5.37555555569">
		<tag k="alt_name" v="Kleiva" />
		<tag k="name" v="Kleivahammaren" />
		<tag k="place" v="locality" />
		<tag k="ssr:stedsnr" v="402076" />
	</node>
	<node id="-7221" lat="62.2201888917" lon="5.35557223014">
		<tag k="name" v="Hamnaholmane" />
		<tag k="place" v="islet" />
		<tag k="ssr:stedsnr" v="402075" />
	</node>
	<node id="-7220" lat="62.1933694443" lon="5.40875833937">
		<tag k="name" v="Falkarvika" />
		<tag k="natural" v="bay" />
		<tag k="ssr:stedsnr" v="402066" />
	</node>
	<node id="-7219" lat="62.2465055573" lon="5.41030832689">
		<tag k="name" v="Sandsendevika" />
		<tag k="natural" v="bay" />
		<tag k="ssr:stedsnr" v="402049" />
	</node>
	<node id="-7218" lat="62.223852782" lon="5.66782777709">
		<tag k="name" v="Svartefjellet" />
		<tag k="place" v="locality" />
		<tag k="ssr:stedsnr" v="402017" />
	</node>
	<node id="-7217" lat="62.2628333322" lon="5.57945000964">
		<tag k="name" v="Hagesellelva" />
		<tag k="ssr:stedsnr" v="402015" />
		<tag k="waterway" v="stream" />
	</node>
	<node id="-7216" lat="62.2289027799" lon="5.61723888807">
		<tag k="name" v="Langetangen" />
		<tag k="natural" v="cape" />
		<tag k="ssr:stedsnr" v="402009" />
	</node>
	<node id="-7215" lat="62.2299750036" lon="5.61714165818">
		<tag k="name" v="Vikebukta" />
		<tag k="natural" v="bay" />
		<tag k="ssr:stedsnr" v="402008" />
	</node>
	<node id="-7214" lat="62.256988891" lon="5.53438888326">
		<tag k="name" v="Storehalsen" />
		<tag k="natural" v="ridge" />
		<tag k="place" v="locality" />
		<tag k="ssr:stedsnr" v="401979" />
	</node>
	<node id="-7213" lat="62.2179555555" lon="5.5508138868">
		<tag k="name" v="Notaberget" />
		<tag k="natural" v="hill" />
		<tag k="place" v="locality" />
		<tag k="ssr:stedsnr" v="401972" />
	</node>
	<node id="-7212" lat="62.2208111098" lon="5.55406110733">
		<tag k="name" v="Hammaren" />
		<tag k="natural" v="cliff" />
		<tag k="ssr:stedsnr" v="401277" />
	</node>
	<node id="-7211" lat="62.2476083329" lon="5.59420277426">
		<tag k="name" v="Hornet" />
		<tag k="natural" v="hill" />
		<tag k="place" v="locality" />
		<tag k="ssr:stedsnr" v="401276" />
	</node>
	<node id="-7210" lat="62.1908666709" lon="5.62290834228">
		<tag k="name" v="Gjerdet" />
		<tag k="place" v="farm" />
		<tag k="ssr:stedsnr" v="401271" />
	</node>
	<node id="-7209" lat="62.1959972211" lon="5.67310833425">
		<tag k="name" v="Torsethammaren" />
		<tag k="natural" v="hill" />
		<tag k="place" v="locality" />
		<tag k="ssr:stedsnr" v="401058" />
	</node>
	<node id="-7208" lat="62.1927999989" lon="5.64852500813">
		<tag k="name" v="Lisetneset" />
		<tag k="natural" v="cape" />
		<tag k="ssr:stedsnr" v="401055" />
	</node>
	<node id="-7207" lat="62.2173611139" lon="5.62902500509">
		<tag k="name" v="Langbergselva" />
		<tag k="ssr:stedsnr" v="401051" />
		<tag k="waterway" v="stream" />
	</node>
	<node id="-7206" lat="62.1884166635" lon="5.60769166419">
		<tag k="name" v="Storebåtvika" />
		<tag k="natural" v="bay" />
		<tag k="ssr:stedsnr" v="401047" />
	</node>
	<node id="-7205" lat="62.2544876246" lon="5.58063401631">
		<tag k="fixme" v="consider place=hamlet" />
		<tag k="name" v="Sandanger" />
		<tag k="place" v="farm" />
		<tag k="ssr:stedsnr" v="375958" />
	</node>
	<node id="-7204" lat="62.2113972253" lon="5.46179445231">
		<tag k="name" v="Sivertvika" />
		<tag k="natural" v="bay" />
		<tag k="ssr:stedsnr" v="375547" />
	</node>
	<node id="-7203" lat="62.2563805542" lon="5.35560833862">
		<tag k="name" v="Skjellaren" />
		<tag k="natural" v="shoal" />
		<tag k="place" v="locality" />
		<tag k="ssr:stedsnr" v="375466" />
	</node>
	<node id="-7202" lat="62.2406666662" lon="5.44293055865">
		<tag k="alt_name" v="Sande kyrkje" />
		<tag k="amenity" v="place_of_worship" />
		<tag k="denomination" v="lutheran" />
		<tag k="name" v="Sande" />
		<tag k="religion" v="christian" />
		<tag k="ssr:stedsnr" v="374646" />
	</node>
	<node id="-7201" lat="62.2449972252" lon="5.40802778246">
		<tag k="alt_name" v="Bårsneset;Båtsneset" />
		<tag k="name" v="Barsneset" />
		<tag k="natural" v="cape" />
		<tag k="ssr:stedsnr" v="374641" />
	</node>
	<node id="-7200" lat="62.2407277774" lon="5.65845000174">
		<tag k="name" v="Storetua" />
		<tag k="natural" v="hill" />
		<tag k="place" v="locality" />
		<tag k="ssr:stedsnr" v="374596" />
	</node>
	<node id="-7199" lat="62.2211583314" lon="5.33981667292">
		<tag k="alt_name" v="Barane" />
		<tag k="name" v="Baren" />
		<tag k="place" v="islet" />
		<tag k="ssr:stedsnr" v="374590" />
	</node>
	<node id="-7198" lat="62.220830553" lon="5.32060278538">
		<tag k="name" v="Skorpefluda" />
		<tag k="natural" v="shoal" />
		<tag k="place" v="locality" />
		<tag k="ssr:stedsnr" v="374589" />
	</node>
	<node id="-7197" lat="62.2474722231" lon="5.69473333325">
		<tag k="name" v="Sædalen" />
		<tag k="natural" v="valley" />
		<tag k="place" v="locality" />
		<tag k="ssr:stedsnr" v="374574" />
	</node>
	<node id="-7196" lat="62.1996857468" lon="5.70115773165">
		<tag k="fixme" v="consider place=hamlet" />
		<tag k="name" v="Tødenes" />
		<tag k="place" v="farm" />
		<tag k="ssr:stedsnr" v="374491" />
	</node>
	<node id="-7195" lat="62.2431555521" lon="5.31765000756">
		<tag k="name" v="Hidsgrunnen" />
		<tag k="natural" v="shoal" />
		<tag k="place" v="locality" />
		<tag k="ssr:stedsnr" v="355511" />
	</node>
	<node id="-7194" lat="62.2259777788" lon="5.33952223067">
		<tag k="name" v="Julaftegrunnen" />
		<tag k="natural" v="shoal" />
		<tag k="place" v="locality" />
		<tag k="ssr:stedsnr" v="355505" />
	</node>
	<node id="-7193" lat="62.2226999976" lon="5.32299445027">
		<tag k="name" v="Nabben" />
		<tag k="natural" v="shoal" />
		<tag k="place" v="locality" />
		<tag k="ssr:stedsnr" v="355503" />
	</node>
	<node id="-7192" lat="62.2160638863" lon="5.4143194367">
		<tag k="name" v="Litlefluda" />
		<tag k="natural" v="shoal" />
		<tag k="place" v="locality" />
		<tag k="ssr:stedsnr" v="355376" />
	</node>
	<node id="-7191" lat="62.2334416635" lon="5.54337777903">
		<tag k="name" v="Grønsvikneset" />
		<tag k="natural" v="cape" />
		<tag k="ssr:stedsnr" v="354617" />
	</node>
	<node id="-7190" lat="62.2689472262" lon="5.55442221241">
		<tag k="name" v="Nedre Stokkset" />
		<tag k="place" v="farm" />
		<tag k="ssr:stedsnr" v="354606" />
	</node>
	<node id="-7189" lat="62.2713638848" lon="5.43483333272">
		<tag k="name" v="Sandholmfluda" />
		<tag k="natural" v="shoal" />
		<tag k="place" v="locality" />
		<tag k="ssr:stedsnr" v="354429" />
	</node>
	<node id="-7188" lat="62.2504500004" lon="5.54725554921">
		<tag k="name" v="Nipa" />
		<tag k="natural" v="hill" />
		<tag k="place" v="locality" />
		<tag k="ssr:stedsnr" v="341328" />
	</node>
	<node id="-7187" lat="62.2135472202" lon="5.35650555092">
		<tag k="name" v="Høgenipa" />
		<tag k="natural" v="hill" />
		<tag k="place" v="locality" />
		<tag k="ssr:stedsnr" v="341320" />
	</node>
	<node id="-7186" lat="62.2245185108" lon="5.68049961784">
		<tag k="alt_name" v="Holte" />
		<tag k="fixme" v="consider place=hamlet" />
		<tag k="name" v="Holtane" />
		<tag k="place" v="farm" />
		<tag k="ssr:stedsnr" v="341308" />
	</node>
	<node id="-7185" lat="62.1919361117" lon="5.62458054588">
		<tag k="name" v="Mellagen" />
		<tag k="place" v="farm" />
		<tag k="ssr:stedsnr" v="341294" />
	</node>
	<node id="-7184" lat="62.2628361102" lon="5.43807777594">
		<tag k="name" v="Helland" />
		<tag k="place" v="farm" />
		<tag k="ssr:stedsnr" v="341290" />
	</node>
	<node id="-7183" lat="62.2501833288" lon="5.47758610288">
		<tag k="name" v="Leina" />
		<tag k="place" v="farm" />
		<tag k="ssr:stedsnr" v="341289" />
	</node>
	<node id="-7182" lat="62.2483861102" lon="5.47771388722">
		<tag k="name" v="Mikkelholmen" />
		<tag k="place" v="islet" />
		<tag k="ssr:stedsnr" v="341247" />
	</node>
	<node id="-7181" lat="62.2522388881" lon="5.42521667561">
		<tag k="name" v="Vassmyrane" />
		<tag k="natural" v="wetland" />
		<tag k="ssr:stedsnr" v="341235" />
	</node>
	<node id="-7180" lat="62.2087611102" lon="5.56733889806">
		<tag k="name" v="Varden" />
		<tag k="natural" v="hill" />
		<tag k="place" v="locality" />
		<tag k="ssr:stedsnr" v="341234" />
	</node>
	<node id="-7179" lat="62.2258916658" lon="5.53089445001">
		<tag k="name" v="Båtvika" />
		<tag k="natural" v="bay" />
		<tag k="ssr:stedsnr" v="341233" />
	</node>
	<node id="-7178" lat="62.2641249991" lon="5.4136666657">
		<tag k="name" v="Rålvika" />
		<tag k="natural" v="bay" />
		<tag k="ssr:stedsnr" v="341230" />
	</node>
	<node id="-7177" lat="62.2584527797" lon="5.5503138814">
		<tag k="name" v="Holane" />
		<tag k="place" v="farm" />
		<tag k="ssr:stedsnr" v="341228" />
	</node>
	<node id="-7176" lat="62.2413166652" lon="5.48059444518">
		<tag k="alt_name" v="Kula" />
		<tag k="name" v="Kulen" />
		<tag k="natural" v="hill" />
		<tag k="place" v="locality" />
		<tag k="ssr:stedsnr" v="341206" />
	</node>
	<node id="-7175" lat="62.236075004" lon="5.57003611308">
		<tag k="fixme" v="consider seamark:type=rock or natural=shoal" />
		<tag k="name" v="Tenderen" />
		<tag k="place" v="islet" />
		<tag k="ssr:stedsnr" v="341196" />
	</node>
	<node id="-7174" lat="62.2428194413" lon="5.40493333034">
		<tag k="name" v="Skarsleida" />
		<tag k="natural" v="strait" />
		<tag k="ssr:stedsnr" v="341150" />
	</node>
	<node id="-7173" lat="62.2421472245" lon="5.41139167259">
		<tag k="alt_name" v="Leiaholmen" />
		<tag k="name" v="Leidaholmen" />
		<tag k="place" v="islet" />
		<tag k="ssr:stedsnr" v="341142" />
	</node>
	<node id="-7172" lat="62.2235138885" lon="5.38974722406">
		<tag k="fixme" v="consider seamark:type=rock or natural=shoal" />
		<tag k="name" v="Instegardskjera" />
		<tag k="place" v="islet" />
		<tag k="ssr:stedsnr" v="341141" />
	</node>
	<node id="-7171" lat="62.2063916661" lon="5.73283055784">
		<tag k="name" v="Skredeberget" />
		<tag k="natural" v="slope" />
		<tag k="place" v="locality" />
		<tag k="ssr:stedsnr" v="341133" />
	</node>
	<node id="-7170" lat="62.2176527763" lon="5.59702499274">
		<tag k="name" v="Sandvikfjellet" />
		<tag k="natural" v="hill" />
		<tag k="place" v="locality" />
		<tag k="ssr:stedsnr" v="341130" />
	</node>
	<node id="-7169" lat="62.214819448" lon="5.44586110211">
		<tag k="name" v="Ringlausa" />
		<tag k="natural" v="shoal" />
		<tag k="place" v="locality" />
		<tag k="ssr:stedsnr" v="341113" />
	</node>
	<node id="-7168" lat="62.2076555539" lon="5.72866388039">
		<tag k="historic" v="shieling" />
		<tag k="name" v="Skredesætra" />
		<tag k="place" v="locality" />
		<tag k="ssr:stedsnr" v="341093" />
	</node>
	<node id="-7167" lat="62.2037527817" lon="5.71007500691">
		<tag k="name" v="Lidafjellet" />
		<tag k="natural" v="hill" />
		<tag k="place" v="locality" />
		<tag k="ssr:stedsnr" v="341088" />
	</node>
	<node id="-7166" lat="62.246230552" lon="5.66022222506">
		<tag k="name" v="Riksstallelva" />
		<tag k="ssr:stedsnr" v="341080" />
		<tag k="waterway" v="stream" />
	</node>
	<node id="-7165" lat="62.2028944463" lon="5.39731666279">
		<tag k="name" v="Myraelva" />
		<tag k="ssr:stedsnr" v="341077" />
		<tag k="waterway" v="stream" />
	</node>
	<node id="-7164" lat="62.2092027761" lon="5.41193055325">
		<tag k="name" v="Djupedalen" />
		<tag k="natural" v="valley" />
		<tag k="place" v="locality" />
		<tag k="ssr:stedsnr" v="341075" />
	</node>
	<node id="-7163" lat="62.1784833318" lon="5.37005277945">
		<tag k="name" v="Djupsundet" />
		<tag k="natural" v="strait" />
		<tag k="ssr:stedsnr" v="341069" />
	</node>
	<node id="-7162" lat="62.2517277767" lon="5.42304721696">
		<tag k="name" v="Vassmyrane" />
		<tag k="natural" v="wetland" />
		<tag k="ssr:stedsnr" v="341056" />
	</node>
	<node id="-7161" lat="62.2233138899" lon="5.67502223102">
		<tag k="name" v="Torvberget" />
		<tag k="natural" v="hill" />
		<tag k="place" v="locality" />
		<tag k="ssr:stedsnr" v="341023" />
	</node>
	<node id="-7160" lat="62.2508999974" lon="5.5971361095">
		<tag k="name" v="Reitane" />
		<tag k="natural" v="slope" />
		<tag k="place" v="locality" />
		<tag k="ssr:stedsnr" v="341018" />
	</node>
	<node id="-7159" lat="62.2867916645" lon="5.57204721939">
		<tag k="name" v="Store Løsethornet" />
		<tag k="natural" v="hill" />
		<tag k="place" v="locality" />
		<tag k="ssr:stedsnr" v="340982" />
	</node>
	<node id="-7158" lat="62.2211277732" lon="5.53963054802">
		<tag k="name" v="Kråberget" />
		<tag k="natural" v="hill" />
		<tag k="place" v="locality" />
		<tag k="ssr:stedsnr" v="340976" />
	</node>
	<node id="-7157" lat="62.1917166699" lon="5.63841666327">
		<tag k="name" v="Støyleneset" />
		<tag k="natural" v="cape" />
		<tag k="ssr:stedsnr" v="340062" />
	</node>
	<node id="-7156" lat="62.1956722261" lon="5.67898055382">
		<tag k="name" v="Langeneset" />
		<tag k="natural" v="cape" />
		<tag k="ssr:stedsnr" v="340055" />
	</node>
	<node id="-7155" lat="62.2775972249" lon="5.55049444176">
		<tag k="name" v="Køyla" />
		<tag k="natural" v="bay" />
		<tag k="ssr:stedsnr" v="340045" />
	</node>
	<node id="-7154" lat="62.2167750001" lon="5.65070833605">
		<tag k="bridge" v="yes" />
		<tag k="layer" v="1" />
		<tag k="name" v="Vågsosbrua" />
		<tag k="ssr:stedsnr" v="330400" />
	</node>
	<node id="-7153" lat="62.2564138869" lon="5.58379722473">
		<tag k="bridge" v="yes" />
		<tag k="layer" v="1" />
		<tag k="name" v="Storebrua" />
		<tag k="ssr:stedsnr" v="330389" />
	</node>
	<node id="-7152" lat="62.2764083289" lon="5.55164721816">
		<tag k="bridge" v="yes" />
		<tag k="layer" v="1" />
		<tag k="name" v="Hidsbrua" />
		<tag k="ssr:stedsnr" v="330385" />
	</node>
	<node id="-7151" lat="62.2110027777" lon="5.37569445361">
		<tag k="name" v="Nonshornet" />
		<tag k="natural" v="ridge" />
		<tag k="place" v="locality" />
		<tag k="ssr:stedsnr" v="314598" />
	</node>
	<node id="-7150" lat="62.2012916642" lon="5.64651667187">
		<tag k="alt_name" v="Litlevitevatnet" />
		<tag k="name" v="Litlevetevatnet" />
		<tag k="natural" v="water" />
		<tag k="ssr:stedsnr" v="314583" />
	</node>
	<node id="-7149" lat="62.2055944468" lon="5.65466111535">
		<tag k="alt_name" v="Myrkevatna" />
		<tag k="name" v="Middagsvatna" />
		<tag k="natural" v="water" />
		<tag k="ssr:stedsnr" v="314582" />
	</node>
	<node id="-7148" lat="62.1981616832" lon="5.59639526219">
		<tag k="fixme" v="consider place=hamlet" />
		<tag k="name" v="Dalen" />
		<tag k="place" v="farm" />
		<tag k="ssr:stedsnr" v="314579" />
	</node>
	<node id="-7147" lat="62.2225305563" lon="5.4886583316">
		<tag k="alt_name" v="Rognholmen;Rennholmen" />
		<tag k="name" v="Rognholmane" />
		<tag k="place" v="islet" />
		<tag k="ssr:stedsnr" v="314642" />
	</node>
	<node id="-7146" lat="62.2312500013" lon="5.38258332356">
		<tag k="fixme" v="consider seamark:type=rock or natural=shoal" />
		<tag k="name" v="Storereka" />
		<tag k="place" v="islet" />
		<tag k="ssr:stedsnr" v="314627" />
	</node>
	<node id="-7145" lat="62.2462666692" lon="5.62448610946">
		<tag k="alt_name" v="Klovevatnet" />
		<tag k="name" v="Klovvatnet" />
		<tag k="natural" v="water" />
		<tag k="ssr:stedsnr" v="314617" />
	</node>
	<node id="-7144" lat="62.232344443" lon="5.32782778612">
		<tag k="fixme" v="consider seamark:type=rock or natural=shoal" />
		<tag k="name" v="Skjerbodane" />
		<tag k="place" v="islet" />
		<tag k="ssr:stedsnr" v="314614" />
	</node>
	<node id="-7143" lat="62.3140833337" lon="5.27236389188">
		<tag k="name" v="Sørhammaren" />
		<tag k="natural" v="shoal" />
		<tag k="place" v="locality" />
		<tag k="ssr:stedsnr" v="314611" />
	</node>
	<node id="-7142" lat="62.2631055526" lon="5.44857499622">
		<tag k="fixme" v="consider place=hamlet" />
		<tag k="name" v="Våge" />
		<tag k="place" v="village" />
		<tag k="ssr:stedsnr" v="314551" />
	</node>
	<node id="-7141" lat="62.264366664" lon="5.48146944777">
		<tag k="name" v="Kleiveneset" />
		<tag k="natural" v="cape" />
		<tag k="ssr:stedsnr" v="314548" />
	</node>
	<node id="-7140" lat="62.1776638851" lon="5.37092221726">
		<tag k="alt_name" v="Frekøy Vestre;Frekøy, vestre" />
		<tag k="name" v="Vestre Frekøy" />
		<tag k="place" v="islet" />
		<tag k="ssr:stedsnr" v="314543" />
	</node>
	<node id="-7139" lat="62.2774545228" lon="5.55227316428">
		<tag k="fixme" v="consider place=hamlet" />
		<tag k="name" v="Hide" />
		<tag k="place" v="farm" />
		<tag k="ssr:stedsnr" v="314562" />
	</node>
	<node id="-7138" lat="62.2046055576" lon="5.73907499245">
		<tag k="name" v="Øydeskrede" />
		<tag k="natural" v="slope" />
		<tag k="place" v="locality" />
		<tag k="ssr:stedsnr" v="314085" />
	</node>
	<node id="-7137" lat="62.2550944455" lon="5.58250556022">
		<tag k="bridge" v="yes" />
		<tag k="layer" v="1" />
		<tag k="name" v="Sandangerbrua" />
		<tag k="ssr:stedsnr" v="209384" />
	</node>
	<node id="-7135" lat="62.2559333336" lon="5.62120555552">
		<tag k="fixme" v="multiple name tags, choose one and add the other to alt_name" />
		<tag k="name" v="Storevatnet;Sædalsvatnet" />
		<tag k="natural" v="water" />
		<tag k="ssr:stedsnr" v="193962" />
		<tag k="water" v="lake" />
	</node>
	<node id="-7134" lat="62.2287861107" lon="5.5419277739">
		<tag k="alt_name" v="Nupatinden;Hollenupen" />
		<tag k="name" v="Nupen" />
		<tag k="natural" v="hill" />
		<tag k="place" v="locality" />
		<tag k="ssr:stedsnr" v="193620" />
	</node>
	<node id="-7133" lat="62.220344446" lon="5.57800832849">
		<tag k="name" v="Storehornet" />
		<tag k="natural" v="hill" />
		<tag k="place" v="locality" />
		<tag k="ssr:stedsnr" v="193599" />
	</node>
	<node id="-7132" lat="62.2231665717" lon="5.70993421345">
		<tag k="fixme" v="consider place=hamlet" />
		<tag k="name" v="Seljeset" />
		<tag k="place" v="farm" />
		<tag k="ssr:stedsnr" v="193596" />
	</node>
	<node id="-7131" lat="62.2173333296" lon="5.38506110373">
		<tag k="alt_name" v="Oddeshornet" />
		<tag k="name" v="Oddelshornet" />
		<tag k="natural" v="hill" />
		<tag k="place" v="locality" />
		<tag k="ssr:stedsnr" v="193592" />
	</node>
	<node id="-7130" lat="62.2098944453" lon="5.39996111169">
		<tag k="alt_name" v="Storenausen" />
		<tag k="name" v="Skinhammaren" />
		<tag k="natural" v="hill" />
		<tag k="place" v="locality" />
		<tag k="ssr:stedsnr" v="193590" />
	</node>
	<node id="-7129" lat="62.2143944469" lon="5.55254444529">
		<tag k="alt_name" v="Simaholmen" />
		<tag k="name" v="Simahamnholmen" />
		<tag k="place" v="islet" />
		<tag k="ssr:stedsnr" v="193587" />
	</node>
	<node id="-7128" lat="62.2220916654" lon="5.54406110386">
		<tag k="alt_name" v="Halle, ytre" />
		<tag k="name" v="Ytre Halle" />
		<tag k="place" v="farm" />
		<tag k="ssr:stedsnr" v="193586" />
	</node>
	<node id="-7127" lat="62.2070972213" lon="5.57134999051">
		<tag k="fixme" v="consider place=hamlet" />
		<tag k="name" v="Larsnes" />
		<tag k="place" v="village" />
		<tag k="ssr:stedsnr" v="193559" />
	</node>
	<node id="-7126" lat="62.2074499994" lon="5.52383889398">
		<tag k="bay" v="fjord" />
		<tag k="name" v="Hallefjorden" />
		<tag k="natural" v="bay" />
		<tag k="ssr:stedsnr" v="193554" />
	</node>
	<node id="-7125" lat="62.1943583293" lon="5.35472222958">
		<tag k="name" v="Eggholmane" />
		<tag k="place" v="islet" />
		<tag k="ssr:stedsnr" v="193546" />
	</node>
	<node id="-7124" lat="62.2121777775" lon="5.56931111653">
		<tag k="name" v="Hallevatnet" />
		<tag k="natural" v="water" />
		<tag k="ssr:stedsnr" v="193545" />
	</node>
	<node id="-7123" lat="62.2766583308" lon="5.59749445166">
		<tag k="fixme" v="consider natural=peak for the most distinct mountains in the district" />
		<tag k="name" v="Hidsegga" />
		<tag k="natural" v="hill" />
		<tag k="place" v="locality" />
		<tag k="ssr:stedsnr" v="193544" />
	</node>
	<node id="-7122" lat="62.2422090371" lon="5.45100887752">
		<tag k="fixme" v="consider place=hamlet" />
		<tag k="name" v="Støyle" />
		<tag k="place" v="farm" />
		<tag k="ssr:stedsnr" v="192684" />
	</node>
	<node id="-7121" lat="62.2427472254" lon="5.40345833808">
		<tag k="fixme" v="consider seamark:type=rock or natural=shoal" />
		<tag k="name" v="Ulven" />
		<tag k="place" v="islet" />
		<tag k="ssr:stedsnr" v="192683" />
	</node>
	<node id="-7120" lat="62.2231749999" lon="5.44483888203">
		<tag k="fixme" v="consider seamark:type=rock or natural=shoal" />
		<tag k="name" v="Flødene" />
		<tag k="place" v="islet" />
		<tag k="ssr:stedsnr" v="192662" />
	</node>
	<node id="-7119" lat="62.3026805589" lon="5.43388334081">
		<tag k="name" v="Koparstadnabben" />
		<tag k="natural" v="shoal" />
		<tag k="place" v="locality" />
		<tag k="ssr:stedsnr" v="192592" />
	</node>
	<node id="-7118" lat="62.192283332" lon="5.56933611205">
		<tag k="fixme" v="consider seamark:type=rock or natural=shoal" />
		<tag k="name" v="Kroppen" />
		<tag k="place" v="islet" />
		<tag k="ssr:stedsnr" v="192584" />
	</node>
	<node id="-7117" lat="62.1913555568" lon="5.59311944047">
		<tag k="name" v="Breivika" />
		<tag k="place" v="farm" />
		<tag k="ssr:stedsnr" v="192580" />
	</node>
	<node id="-7116" lat="62.1871888848" lon="5.60831667403">
		<tag k="alt_name" v="Saudeneset" />
		<tag k="name" v="Storeneset" />
		<tag k="natural" v="cape" />
		<tag k="ssr:stedsnr" v="192543" />
	</node>
	<node id="-7115" lat="62.1922441139" lon="5.63855817577">
		<tag k="fixme" v="consider place=hamlet" />
		<tag k="name" v="Støylane" />
		<tag k="place" v="farm" />
		<tag k="ssr:stedsnr" v="192529" />
	</node>
	<node id="-7114" lat="62.2559305543" lon="5.23707221825">
		<tag k="name" v="Kleivgrunnskallen" />
		<tag k="natural" v="shoal" />
		<tag k="place" v="locality" />
		<tag k="ssr:stedsnr" v="175583" />
	</node>
	<node id="-7113" lat="62.2016527808" lon="5.33308055674">
		<tag k="name" v="Nordre Ristefluda" />
		<tag k="natural" v="shoal" />
		<tag k="place" v="locality" />
		<tag k="ssr:stedsnr" v="174450" />
	</node>
	<node id="-7112" lat="62.2899055526" lon="5.47904722991">
		<tag k="name" v="Leirboden" />
		<tag k="natural" v="shoal" />
		<tag k="place" v="locality" />
		<tag k="ssr:stedsnr" v="173653" />
	</node>
	<node id="-7111" lat="62.207577779" lon="5.55951944378">
		<tag k="name" v="Osfluda" />
		<tag k="natural" v="shoal" />
		<tag k="place" v="locality" />
		<tag k="ssr:stedsnr" v="173548" />
	</node>
	<node id="-7110" lat="62.2308499969" lon="5.58278610195">
		<tag k="name" v="Saltfluda" />
		<tag k="natural" v="shoal" />
		<tag k="place" v="locality" />
		<tag k="ssr:stedsnr" v="173542" />
	</node>
	<node id="-7109" lat="62.2345972207" lon="5.59738610801">
		<tag k="name" v="Grøthaug" />
		<tag k="place" v="isolated_dwelling" />
		<tag k="ssr:stedsnr" v="173539" />
	</node>
	<node id="-7108" lat="62.2249611154" lon="5.49089999816">
		<tag k="name" v="Rennholmboden" />
		<tag k="natural" v="shoal" />
		<tag k="place" v="locality" />
		<tag k="ssr:stedsnr" v="173384" />
	</node>
	<node id="-7107" lat="62.2104944443" lon="5.49308055324">
		<tag k="fixme" v="consider seamark:type=rock or natural=shoal" />
		<tag k="name" v="Skarveskjera" />
		<tag k="place" v="islet" />
		<tag k="ssr:stedsnr" v="173382" />
	</node>
	<node id="-7106" lat="62.2208166654" lon="5.6472583392">
		<tag k="name" v="Vågsneset" />
		<tag k="place" v="quarter" />
		<tag k="ssr:stedsnr" v="161126" />
	</node>
	<node id="-7105" lat="62.2572194404" lon="5.5885111169">
		<tag k="name" v="Rise" />
		<tag k="place" v="quarter" />
		<tag k="ssr:stedsnr" v="161125" />
	</node>
	<node id="-7103" lat="62.2180888906" lon="5.39359721894">
		<tag k="name" v="Bakkane" />
		<tag k="natural" v="slope" />
		<tag k="place" v="locality" />
		<tag k="ssr:stedsnr" v="159293" />
	</node>
	<node id="-7102" lat="62.2169527778" lon="5.47648610212">
		<tag k="name" v="Hesteneset" />
		<tag k="natural" v="cape" />
		<tag k="ssr:stedsnr" v="159134" />
	</node>
	<node id="-7101" lat="62.1985527787" lon="5.58570000224">
		<tag k="name" v="Vasstranda" />
		<tag k="place" v="farm" />
		<tag k="ssr:stedsnr" v="159130" />
	</node>
	<node id="-7100" lat="62.2391833292" lon="5.68580555421">
		<tag k="name" v="Rindehaugen" />
		<tag k="natural" v="hill" />
		<tag k="place" v="locality" />
		<tag k="ssr:stedsnr" v="159099" />
	</node>
	<node id="-7099" lat="62.2764361081" lon="5.5896499967">
		<tag k="name" v="Djupdekkene" />
		<tag k="natural" v="valley" />
		<tag k="place" v="locality" />
		<tag k="ssr:stedsnr" v="159095" />
	</node>
	<node id="-7098" lat="62.2152666627" lon="5.3789222214">
		<tag k="name" v="Nonsstigelva" />
		<tag k="ssr:stedsnr" v="159075" />
		<tag k="waterway" v="stream" />
	</node>
	<node id="-7097" lat="62.2346444425" lon="5.657852785">
		<tag k="name" v="Gullhaugen" />
		<tag k="natural" v="hill" />
		<tag k="place" v="locality" />
		<tag k="ssr:stedsnr" v="159020" />
	</node>
	<node id="-7096" lat="62.2612333289" lon="5.57010000151">
		<tag k="name" v="Skitnevika" />
		<tag k="natural" v="bay" />
		<tag k="ssr:stedsnr" v="159019" />
	</node>
	<node id="-7095" lat="62.2406250035" lon="5.57088888706">
		<tag k="name" v="Skinstødet" />
		<tag k="natural" v="slope" />
		<tag k="place" v="locality" />
		<tag k="ssr:stedsnr" v="159247" />
	</node>
	<node id="-7094" lat="62.2471166659" lon="5.48967500275">
		<tag k="name" v="Toftesundholmen" />
		<tag k="place" v="islet" />
		<tag k="ssr:stedsnr" v="159239" />
	</node>
	<node id="-7093" lat="62.2682722211" lon="5.43305832869">
		<tag k="name" v="Kvia" />
		<tag k="natural" v="cape" />
		<tag k="ssr:stedsnr" v="159231" />
	</node>
	<node id="-7092" lat="62.2435944453" lon="5.44457776824">
		<tag k="name" v="Sandslegene" />
		<tag k="natural" v="slope" />
		<tag k="place" v="locality" />
		<tag k="ssr:stedsnr" v="159201" />
	</node>
	<node id="-7091" lat="62.2490527799" lon="5.48020832799">
		<tag k="name" v="Leinatangen" />
		<tag k="natural" v="cape" />
		<tag k="ssr:stedsnr" v="159190" />
	</node>
	<node id="-7090" lat="62.253599999" lon="5.48614445007">
		<tag k="name" v="Korsneset" />
		<tag k="natural" v="cape" />
		<tag k="ssr:stedsnr" v="159185" />
	</node>
	<node id="-7089" lat="62.2293166641" lon="5.55139165867">
		<tag k="name" v="Mannegylet" />
		<tag k="natural" v="valley" />
		<tag k="place" v="locality" />
		<tag k="ssr:stedsnr" v="158053" />
	</node>
	<node id="-7088" lat="62.2099055538" lon="5.62021945381">
		<tag k="name" v="Svedevatnet" />
		<tag k="natural" v="water" />
		<tag k="ssr:stedsnr" v="158006" />
	</node>
	<node id="-7087" lat="62.2211083371" lon="5.68590832341">
		<tag k="bridge" v="yes" />
		<tag k="layer" v="1" />
		<tag k="name" v="Myrebrua" />
		<tag k="ssr:stedsnr" v="148388" />
	</node>
	<node id="-7086" lat="62.2103027807" lon="5.34255833799">
		<tag k="alt_name" v="Basteneset" />
		<tag k="name" v="Basseneset" />
		<tag k="natural" v="cape" />
		<tag k="ssr:stedsnr" v="132583" />
	</node>
	<node id="-7085" lat="62.2129694473" lon="5.34723889588">
		<tag k="alt_name" v="Ørnefjellet" />
		<tag k="name" v="Småvardane" />
		<tag k="natural" v="hill" />
		<tag k="place" v="locality" />
		<tag k="ssr:stedsnr" v="132582" />
	</node>
	<node id="-7084" lat="62.2167188673" lon="5.56014494324">
		<tag k="alt_name" v="Storegjerde" />
		<tag k="fixme" v="consider place=hamlet" />
		<tag k="name" v="Stauregjerde" />
		<tag k="place" v="farm" />
		<tag k="ssr:stedsnr" v="132576" />
	</node>
	<node id="-7083" lat="62.2243694439" lon="5.37068055086">
		<tag k="name" v="Kuholmen" />
		<tag k="place" v="islet" />
		<tag k="ssr:stedsnr" v="132619" />
	</node>
	<node id="-7082" lat="62.2355305574" lon="5.49313611285">
		<tag k="name" v="Voraholmen" />
		<tag k="place" v="islet" />
		<tag k="ssr:stedsnr" v="132617" />
	</node>
	<node id="-7081" lat="62.263791669" lon="5.41305554897">
		<tag k="name" v="Hamna" />
		<tag k="natural" v="cape" />
		<tag k="ssr:stedsnr" v="132500" />
	</node>
	<node id="-7080" lat="62.2653027739" lon="5.42845555853">
		<tag k="alt_name" v="Svadfjellet" />
		<tag k="fixme" v="consider natural=peak for the most distinct mountains in the district" />
		<tag k="name" v="Hellandsfjella" />
		<tag k="natural" v="hill" />
		<tag k="place" v="locality" />
		<tag k="ssr:stedsnr" v="132499" />
	</node>
	<node id="-7079" lat="62.1735499983" lon="5.38198889119">
		<tag k="name" v="Storesundet" />
		<tag k="natural" v="strait" />
		<tag k="ssr:stedsnr" v="132496" />
	</node>
	<node id="-7078" lat="62.2249111111" lon="5.64656388872">
		<tag k="alt_name" v="Sætre, in" />
		<tag k="name" v="Indre Sætre" />
		<tag k="place" v="farm" />
		<tag k="ssr:stedsnr" v="132570" />
	</node>
	<node id="-7077" lat="62.2315845908" lon="5.616990959">
		<tag k="fixme" v="consider place=hamlet" />
		<tag k="name" v="Vik" />
		<tag k="place" v="farm" />
		<tag k="ssr:stedsnr" v="132567" />
	</node>
	<node id="-7076" lat="62.2297249997" lon="5.70518889358">
		<tag k="alt_name" v="Aurvollegga" />
		<tag k="name" v="Egga" />
		<tag k="natural" v="hill" />
		<tag k="place" v="locality" />
		<tag k="ssr:stedsnr" v="132562" />
	</node>
	<node id="-7075" lat="62.2314694488" lon="5.67029722335">
		<tag k="alt_name" v="Brekkeelva;Sæssvasselva" />
		<tag k="name" v="Brekkelva" />
		<tag k="ssr:stedsnr" v="132559" />
		<tag k="waterway" v="stream" />
	</node>
	<node id="-7074" lat="62.2448073567" lon="5.54292595909">
		<tag k="fixme" v="consider place=hamlet" />
		<tag k="name" v="Røyset" />
		<tag k="place" v="farm" />
		<tag k="ssr:stedsnr" v="131593" />
	</node>
	<node id="-7073" lat="62.2443555516" lon="5.33613611835">
		<tag k="name" v="Voksafluda" />
		<tag k="natural" v="shoal" />
		<tag k="place" v="locality" />
		<tag k="ssr:stedsnr" v="113491" />
	</node>
	<node id="-7072" lat="62.2619361102" lon="5.35085000187">
		<tag k="name" v="Novene" />
		<tag k="natural" v="shoal" />
		<tag k="place" v="locality" />
		<tag k="ssr:stedsnr" v="113571" />
	</node>
	<node id="-7071" lat="62.2728944411" lon="5.38775000191">
		<tag k="name" v="Vågebodgrunnen" />
		<tag k="natural" v="shoal" />
		<tag k="place" v="locality" />
		<tag k="ssr:stedsnr" v="113566" />
	</node>
	<node id="-7070" lat="62.2320416653" lon="5.61775832546">
		<tag k="name" v="Teige" />
		<tag k="place" v="isolated_dwelling" />
		<tag k="ssr:stedsnr" v="112599" />
	</node>
	<node id="-7069" lat="62.2412805548" lon="5.55659999498">
		<tag k="name" v="Hagen" />
		<tag k="place" v="isolated_dwelling" />
		<tag k="ssr:stedsnr" v="112597" />
	</node>
	<node id="-7068" lat="62.261666666" lon="5.52658888721">
		<tag k="fixme" v="consider seamark:type=rock or natural=shoal" />
		<tag k="name" v="Rya" />
		<tag k="place" v="islet" />
		<tag k="ssr:stedsnr" v="112592" />
	</node>
	<node id="-7066" lat="62.2601833379" lon="5.59955834043">
		<tag k="name" v="Nyklane" />
		<tag k="place" v="locality" />
		<tag k="ssr:stedsnr" v="99020" />
	</node>
	<node id="-7065" lat="62.2554250007" lon="5.60044166542">
		<tag k="name" v="Vatthornet" />
		<tag k="natural" v="hill" />
		<tag k="place" v="locality" />
		<tag k="ssr:stedsnr" v="99015" />
	</node>
	<node id="-7064" lat="62.2279805527" lon="5.63919166461">
		<tag k="name" v="Svertelva" />
		<tag k="ssr:stedsnr" v="99005" />
		<tag k="waterway" v="stream" />
	</node>
	<node id="-7063" lat="62.246594444" lon="5.68746666422">
		<tag k="name" v="Raudsanden" />
		<tag k="natural" v="beach" />
		<tag k="ssr:stedsnr" v="99096" />
	</node>
	<node id="-7062" lat="62.2694527772" lon="5.60326944262">
		<tag k="name" v="Høgehornet" />
		<tag k="natural" v="hill" />
		<tag k="place" v="locality" />
		<tag k="ssr:stedsnr" v="99091" />
	</node>
	<node id="-7061" lat="62.2831888896" lon="5.58578333486">
		<tag k="name" v="Høgehonnet" />
		<tag k="natural" v="hill" />
		<tag k="place" v="locality" />
		<tag k="ssr:stedsnr" v="99088" />
	</node>
	<node id="-7060" lat="62.234463889" lon="5.34886666115">
		<tag k="name" v="Hanslida" />
		<tag k="natural" v="slope" />
		<tag k="place" v="locality" />
		<tag k="ssr:stedsnr" v="98279" />
	</node>
	<node id="-7059" lat="62.256522224" lon="5.55092777795">
		<tag k="name" v="Klombra" />
		<tag k="natural" v="slope" />
		<tag k="place" v="locality" />
		<tag k="ssr:stedsnr" v="98276" />
	</node>
	<node id="-7058" lat="62.200852778" lon="5.39798611031">
		<tag k="name" v="Myrdalen" />
		<tag k="natural" v="valley" />
		<tag k="place" v="locality" />
		<tag k="ssr:stedsnr" v="98269" />
	</node>
	<node id="-7057" lat="62.2418833338" lon="5.57569444421">
		<tag k="name" v="Slåttene" />
		<tag k="natural" v="slope" />
		<tag k="place" v="locality" />
		<tag k="ssr:stedsnr" v="98201" />
	</node>
	<node id="-7056" lat="62.2195805574" lon="5.71964721801">
		<tag k="name" v="Skogebotnen" />
		<tag k="natural" v="valley" />
		<tag k="place" v="locality" />
		<tag k="ssr:stedsnr" v="98194" />
	</node>
	<node id="-7055" lat="62.2279277762" lon="5.65648332864">
		<tag k="name" v="Holen" />
		<tag k="natural" v="hill" />
		<tag k="place" v="locality" />
		<tag k="ssr:stedsnr" v="98189" />
	</node>
	<node id="-7054" lat="62.2307611123" lon="5.36608055822">
		<tag k="name" v="Klettane" />
		<tag k="natural" v="hill" />
		<tag k="place" v="locality" />
		<tag k="ssr:stedsnr" v="98150" />
	</node>
	<node id="-7053" lat="62.223191665" lon="5.38404166615">
		<tag k="name" v="Klauvaholmen" />
		<tag k="place" v="islet" />
		<tag k="ssr:stedsnr" v="98142" />
	</node>
	<node id="-7052" lat="62.1990805603" lon="5.66095000899">
		<tag k="name" v="Blåhornet" />
		<tag k="natural" v="hill" />
		<tag k="place" v="locality" />
		<tag k="ssr:stedsnr" v="98140" />
	</node>
	<node id="-7051" lat="62.2055305554" lon="5.69943889629">
		<tag k="name" v="Grønnakken" />
		<tag k="natural" v="ridge" />
		<tag k="place" v="locality" />
		<tag k="ssr:stedsnr" v="98139" />
	</node>
	<node id="-7050" lat="62.2576527813" lon="5.60700276941">
		<tag k="name" v="Rindane" />
		<tag k="natural" v="ridge" />
		<tag k="place" v="locality" />
		<tag k="ssr:stedsnr" v="98185" />
	</node>
	<node id="-7049" lat="62.1982111129" lon="5.63965277842">
		<tag k="name" v="Remane" />
		<tag k="natural" v="slope" />
		<tag k="place" v="locality" />
		<tag k="ssr:stedsnr" v="98177" />
	</node>
	<node id="-7048" lat="62.2498361069" lon="5.45529167382">
		<tag k="name" v="Langedalen" />
		<tag k="natural" v="valley" />
		<tag k="place" v="locality" />
		<tag k="ssr:stedsnr" v="98168" />
	</node>
	<node id="-7047" lat="62.1865777781" lon="5.39287778105">
		<tag k="fixme" v="consider seamark:type=rock or natural=shoal" />
		<tag k="name" v="Grøneskjeret" />
		<tag k="place" v="islet" />
		<tag k="ssr:stedsnr" v="98080" />
	</node>
	<node id="-7046" lat="62.2413138912" lon="5.48401387968">
		<tag k="name" v="Klettaskaret" />
		<tag k="natural" v="valley" />
		<tag k="place" v="locality" />
		<tag k="ssr:stedsnr" v="98132" />
	</node>
	<node id="-7045" lat="62.280969445" lon="5.55455555776">
		<tag k="name" v="Storehaugen" />
		<tag k="natural" v="hill" />
		<tag k="place" v="locality" />
		<tag k="ssr:stedsnr" v="97045" />
	</node>
	<node id="-7044" lat="62.2259222202" lon="5.54968610439">
		<tag k="name" v="Litleskaret" />
		<tag k="natural" v="valley" />
		<tag k="place" v="locality" />
		<tag k="ssr:stedsnr" v="97034" />
	</node>
	<node id="-7043" lat="62.2013814242" lon="5.39046893901">
		<tag k="fixme" v="consider place=hamlet" />
		<tag k="name" v="Myra" />
		<tag k="place" v="farm" />
		<tag k="ssr:stedsnr" v="72570" />
	</node>
	<node id="-7042" lat="62.2081166674" lon="5.39694166553">
		<tag k="name" v="Myrvatnet" />
		<tag k="natural" v="water" />
		<tag k="ssr:stedsnr" v="72563" />
	</node>
	<node id="-7041" lat="62.2241423455" lon="5.70757744663">
		<tag k="fixme" v="consider place=hamlet" />
		<tag k="name" v="Aurvoll" />
		<tag k="place" v="farm" />
		<tag k="ssr:stedsnr" v="72553" />
	</node>
	<node id="-7040" lat="62.2017527797" lon="5.60391110844">
		<tag k="name" v="Kjellavatnet" />
		<tag k="natural" v="water" />
		<tag k="ssr:stedsnr" v="72528" />
	</node>
	<node id="-7039" lat="62.2201805516" lon="5.73160000641">
		<tag k="name" v="Aretuva" />
		<tag k="natural" v="hill" />
		<tag k="place" v="locality" />
		<tag k="ssr:stedsnr" v="72177" />
	</node>
	<node id="-7038" lat="62.2420055509" lon="5.67394999136">
		<tag k="name" v="Meldalsvatnet" />
		<tag k="natural" v="water" />
		<tag k="ssr:stedsnr" v="71671" />
	</node>
	<node id="-7037" lat="62.2238388927" lon="5.31642500424">
		<tag k="name" v="Steinfluda" />
		<tag k="natural" v="shoal" />
		<tag k="place" v="locality" />
		<tag k="ssr:stedsnr" v="71669" />
	</node>
	<node id="-7036" lat="62.2245277802" lon="5.37770833202">
		<tag k="name" v="Sandholmen" />
		<tag k="place" v="islet" />
		<tag k="ssr:stedsnr" v="71664" />
	</node>
	<node id="-7035" lat="62.2361916673" lon="5.46013889574">
		<tag k="name" v="Bjørnholmen" />
		<tag k="place" v="islet" />
		<tag k="ssr:stedsnr" v="71661" />
	</node>
	<node id="-7034" lat="62.2312666664" lon="5.36056666391">
		<tag k="name" v="Rekvika" />
		<tag k="natural" v="bay" />
		<tag k="ssr:stedsnr" v="71645" />
	</node>
	<node id="-7033" lat="62.2353333349" lon="5.35352777713">
		<tag k="alt_name" v="Ristøy" />
		<tag k="name" v="Riste" />
		<tag k="place" v="island" />
		<tag k="ssr:stedsnr" v="71644" />
	</node>
	<node id="-7032" lat="62.2038861148" lon="5.64239999607">
		<tag k="alt_name" v="Langevitevatnet" />
		<tag k="name" v="Langvetevatnet" />
		<tag k="natural" v="water" />
		<tag k="ssr:stedsnr" v="71589" />
	</node>
	<node id="-7031" lat="62.286155556" lon="5.51102777184">
		<tag k="alt_name" v="Hidsbåen" />
		<tag k="name" v="Hidsboden" />
		<tag k="natural" v="shoal" />
		<tag k="place" v="locality" />
		<tag k="ssr:stedsnr" v="71586" />
	</node>
	<node id="-7030" lat="62.2686557519" lon="5.55624709917">
		<tag k="name" v="Stokkset" />
		<tag k="place" v="hamlet" />
		<tag k="ssr:stedsnr" v="71558" />
	</node>
	<node id="-7029" lat="62.2261250022" lon="5.36009165768">
		<tag k="name" v="Otringsboden" />
		<tag k="natural" v="shoal" />
		<tag k="place" v="locality" />
		<tag k="ssr:stedsnr" v="52499" />
	</node>
	<node id="-7028" lat="62.1760305535" lon="5.36506389419">
		<tag k="name" v="Frekøyfluda" />
		<tag k="natural" v="shoal" />
		<tag k="place" v="locality" />
		<tag k="ssr:stedsnr" v="52378" />
	</node>
	<node id="-7027" lat="62.2222555522" lon="5.39388889455">
		<tag k="name" v="Rya" />
		<tag k="natural" v="shoal" />
		<tag k="place" v="locality" />
		<tag k="ssr:stedsnr" v="52375" />
	</node>
	<node id="-7026" lat="62.1984916625" lon="5.33763889092">
		<tag k="name" v="Søre Ristefluda" />
		<tag k="natural" v="shoal" />
		<tag k="place" v="locality" />
		<tag k="ssr:stedsnr" v="52371" />
	</node>
	<node id="-7025" lat="62.2459583303" lon="5.41388611335">
		<tag k="name" v="Sandsenden" />
		<tag k="place" v="farm" />
		<tag k="ssr:stedsnr" v="51477" />
	</node>
	<node id="-7024" lat="62.3500000038" lon="5.03333333981">
		<tag k="name" v="Nylandsbotnen" />
		<tag k="natural" v="shoal" />
		<tag k="place" v="locality" />
		<tag k="ssr:stedsnr" v="42634" />
	</node>
	<node id="-7023" lat="62.2331555512" lon="5.57636388112">
		<tag k="name" v="Stabben" />
		<tag k="natural" v="shoal" />
		<tag k="place" v="locality" />
		<tag k="ssr:stedsnr" v="39946" />
	</node>
	<node id="-7022" lat="62.2390388917" lon="5.35001944531">
		<tag k="name" v="Midneset" />
		<tag k="natural" v="cape" />
		<tag k="ssr:stedsnr" v="38327" />
	</node>
	<node id="-7021" lat="62.2606777782" lon="5.5274277707">
		<tag k="fixme" v="consider seamark:type=rock or natural=shoal" />
		<tag k="name" v="Lurva" />
		<tag k="place" v="islet" />
		<tag k="ssr:stedsnr" v="38241" />
	</node>
	<node id="-7020" lat="62.274038891" lon="5.57497223026">
		<tag k="name" v="Løkane" />
		<tag k="place" v="locality" />
		<tag k="ssr:stedsnr" v="38240" />
	</node>
	<node id="-7019" lat="62.2251694469" lon="5.57386389709">
		<tag k="name" v="Båtvika" />
		<tag k="natural" v="bay" />
		<tag k="ssr:stedsnr" v="38237" />
	</node>
	<node id="-7018" lat="62.2795416658" lon="5.5640111024">
		<tag k="name" v="Støylen" />
		<tag k="natural" v="slope" />
		<tag k="place" v="locality" />
		<tag k="ssr:stedsnr" v="38235" />
	</node>
	<node id="-7017" lat="62.2301805546" lon="5.45920000195">
		<tag k="fixme" v="consider seamark:type=rock or natural=shoal" />
		<tag k="name" v="Synste Håskjeret" />
		<tag k="place" v="islet" />
		<tag k="ssr:stedsnr" v="38131" />
	</node>
	<node id="-7016" lat="62.2233722246" lon="5.46146389173">
		<tag k="name" v="Sigholmane" />
		<tag k="place" v="islet" />
		<tag k="ssr:stedsnr" v="38130" />
	</node>
	<node id="-7015" lat="62.2678444449" lon="5.4143916594">
		<tag k="name" v="Knøsteskjeret" />
		<tag k="place" v="islet" />
		<tag k="ssr:stedsnr" v="38117" />
	</node>
	<node id="-7014" lat="62.2666194439" lon="5.43973888267">
		<tag k="name" v="Gjøttane" />
		<tag k="natural" v="beach" />
		<tag k="place" v="locality" />
		<tag k="ssr:stedsnr" v="38113" />
	</node>
	<node id="-7013" lat="62.263394445" lon="5.61333889602">
		<tag k="name" v="Sædalsmyrane" />
		<tag k="natural" v="wetland" />
		<tag k="ssr:stedsnr" v="38025" />
	</node>
	<node id="-7012" lat="62.1918166705" lon="5.6364999921">
		<tag k="name" v="Årvika" />
		<tag k="natural" v="bay" />
		<tag k="ssr:stedsnr" v="38290" />
	</node>
	<node id="-7011" lat="62.2538194444" lon="5.64476945169">
		<tag k="name" v="Jordene" />
		<tag k="natural" v="wetland" />
		<tag k="ssr:stedsnr" v="38278" />
	</node>
	<node id="-7010" lat="62.2520444451" lon="5.56201666872">
		<tag k="name" v="Svædane" />
		<tag k="natural" v="slope" />
		<tag k="place" v="locality" />
		<tag k="ssr:stedsnr" v="38198" />
	</node>
	<node id="-7009" lat="62.2498638923" lon="5.46922500778">
		<tag k="name" v="Storholmen" />
		<tag k="place" v="islet" />
		<tag k="ssr:stedsnr" v="38181" />
	</node>
	<node id="-7008" lat="62.2399972203" lon="5.44459444151">
		<tag k="name" v="Kyrkjesanden" />
		<tag k="natural" v="beach" />
		<tag k="place" v="locality" />
		<tag k="ssr:stedsnr" v="38179" />
	</node>
	<node id="-7007" lat="62.20837778" lon="5.6895805461">
		<tag k="name" v="Almestadbrauta" />
		<tag k="natural" v="slope" />
		<tag k="place" v="locality" />
		<tag k="ssr:stedsnr" v="38097" />
	</node>
	<node id="-7006" lat="62.2288888893" lon="5.73100555979">
		<tag k="name" v="Løkemyrane" />
		<tag k="natural" v="wetland" />
		<tag k="ssr:stedsnr" v="38094" />
	</node>
	<node id="-7005" lat="62.244052774" lon="5.69126667301">
		<tag k="name" v="Rindehola" />
		<tag k="natural" v="slope" />
		<tag k="place" v="locality" />
		<tag k="ssr:stedsnr" v="38089" />
	</node>
	<node id="-7004" lat="62.2668777809" lon="5.60236111415">
		<tag k="name" v="Brandhornet" />
		<tag k="natural" v="hill" />
		<tag k="place" v="locality" />
		<tag k="ssr:stedsnr" v="38084" />
	</node>
	<node id="-7003" lat="62.244752776" lon="5.67337777664">
		<tag k="name" v="Blåfjellet" />
		<tag k="place" v="locality" />
		<tag k="ssr:stedsnr" v="38082" />
	</node>
	<node id="-7002" lat="62.2078361114" lon="5.37912776868">
		<tag k="name" v="Fossadalen" />
		<tag k="natural" v="valley" />
		<tag k="place" v="locality" />
		<tag k="ssr:stedsnr" v="38078" />
	</node>
	<node id="-7001" lat="62.2195833298" lon="5.39376110915">
		<tag k="name" v="Skaremyra" />
		<tag k="place" v="farm" />
		<tag k="ssr:stedsnr" v="38067" />
	</node>
	<node id="-7000" lat="62.2192638868" lon="5.40373888486">
		<tag k="fixme" v="consider seamark:type=rock or natural=shoal" />
		<tag k="name" v="Bollane" />
		<tag k="place" v="islet" />
		<tag k="ssr:stedsnr" v="37287" />
	</node>
	<node id="-6999" lat="62.215427782" lon="5.40953055063">
		<tag k="name" v="Hamna" />
		<tag k="natural" v="bay" />
		<tag k="ssr:stedsnr" v="37284" />
	</node>
	<node id="-6998" lat="62.2164055557" lon="5.62584445034">
		<tag k="name" v="Raudåna" />
		<tag k="ssr:stedsnr" v="37076" />
		<tag k="waterway" v="stream" />
	</node>
	<node id="-6997" lat="62.2019527803" lon="5.6532750062">
		<tag k="name" v="Supafatet" />
		<tag k="natural" v="water" />
		<tag k="ssr:stedsnr" v="36054" />
	</node>
	<node id="-6996" lat="62.2461027781" lon="5.54054721815">
		<tag k="name" v="Langura" />
		<tag k="natural" v="scree" />
		<tag k="ssr:stedsnr" v="36043" />
	</node>
	<node id="-6995" lat="62.2488444474" lon="5.53136944995">
		<tag k="name" v="Vardevollvika" />
		<tag k="natural" v="bay" />
		<tag k="ssr:stedsnr" v="36041" />
	</node>
	<node id="-6994" lat="62.276025" lon="5.55626111782">
		<tag k="name" v="Kloven" />
		<tag k="natural" v="valley" />
		<tag k="place" v="locality" />
		<tag k="ssr:stedsnr" v="36040" />
	</node>
	<node id="-6993" lat="62.2690916632" lon="5.55045277538">
		<tag k="name" v="Holekøyla" />
		<tag k="natural" v="bay" />
		<tag k="ssr:stedsnr" v="36037" />
	</node>
	<node id="-6992" lat="62.2789361109" lon="5.55052222025">
		<tag k="name" v="Tarestålet" />
		<tag k="place" v="locality" />
		<tag k="ssr:stedsnr" v="36035" />
	</node>
	<node id="-6991" lat="62.1978333296" lon="5.42004166254">
		<tag k="amenity" v="ferry_terminal" />
		<tag k="name" v="Kvamsøya ferjekai" />
		<tag k="ssr:stedsnr" v="34133" />
	</node>
	<node id="-6989" lat="62.2221749998" lon="5.38919721651">
		<tag k="name" v="Instegardneset" />
		<tag k="natural" v="cape" />
		<tag k="ssr:stedsnr" v="11624" />
	</node>
	<node id="-6988" lat="62.2046027803" lon="5.47094165938">
		<tag k="name" v="Åramsundet" />
		<tag k="natural" v="strait" />
		<tag k="ssr:stedsnr" v="11591" />
	</node>
	<node id="-6987" lat="62.1984723441" lon="5.41783186948">
		<tag k="fixme" v="consider place=hamlet" />
		<tag k="name" v="Bringsinghaug" />
		<tag k="place" v="village" />
		<tag k="ssr:stedsnr" v="11585" />
	</node>
	<node id="-6986" lat="62.22267691" lon="5.65381504606">
		<tag k="fixme" v="consider place=hamlet" />
		<tag k="name" v="Myklebust" />
		<tag k="place" v="farm" />
		<tag k="ssr:stedsnr" v="11578" />
	</node>
	<node id="-6985" lat="62.2831222226" lon="5.37230278148">
		<tag k="bay" v="fjord" />
		<tag k="name" v="Flåværleia" />
		<tag k="natural" v="bay" />
		<tag k="ssr:stedsnr" v="11572" />
	</node>
	<node id="-6984" lat="62.2176388864" lon="5.48957499124">
		<tag k="alt_name" v="Hesteholmen" />
		<tag k="name" v="Hestholmen" />
		<tag k="place" v="islet" />
		<tag k="ssr:stedsnr" v="11569" />
	</node>
	<node id="-6983" lat="62.1979305598" lon="5.40096389537">
		<tag k="alt_name" v="Hestehammaren" />
		<tag k="name" v="Hesthamaren" />
		<tag k="natural" v="hill" />
		<tag k="place" v="locality" />
		<tag k="ssr:stedsnr" v="11545" />
	</node>
	<node id="-6982" lat="62.2118194485" lon="5.71168333788">
		<tag k="alt_name" v="Storevasshornet" />
		<tag k="name" v="Vasshornet" />
		<tag k="natural" v="hill" />
		<tag k="place" v="locality" />
		<tag k="ssr:stedsnr" v="11539" />
	</node>
	<node id="-6981" lat="62.207086107" lon="5.64953054863">
		<tag k="name" v="Bjørkavatnet" />
		<tag k="natural" v="water" />
		<tag k="ssr:stedsnr" v="11533" />
	</node>
	<node id="-6980" lat="62.2728388889" lon="5.54766944402">
		<tag k="name" v="Goteneset" />
		<tag k="natural" v="cape" />
		<tag k="ssr:stedsnr" v="11526" />
	</node>
	<node id="-6979" lat="62.2431388896" lon="5.40054166582">
		<tag k="alt_name" v="Revskjeret" />
		<tag k="fixme" v="consider seamark:type=rock or natural=shoal" />
		<tag k="name" v="Rivskjeret" />
		<tag k="place" v="islet" />
		<tag k="ssr:stedsnr" v="10663" />
	</node>
	<node id="-6978" lat="62.2363250033" lon="5.38078055816">
		<tag k="name" v="Tareboden" />
		<tag k="natural" v="shoal" />
		<tag k="place" v="locality" />
		<tag k="ssr:stedsnr" v="10662" />
	</node>
	<node id="-6977" lat="62.2202574958" lon="5.38222276091">
		<tag k="fixme" v="consider place=hamlet" />
		<tag k="name" v="Ristesundet" />
		<tag k="place" v="farm" />
		<tag k="ssr:stedsnr" v="10629" />
	</node>
	<node id="-6976" lat="62.1979402509" lon="5.68347661089">
		<tag k="alt_name" v="Oksavik" />
		<tag k="fixme" v="consider place=hamlet" />
		<tag k="name" v="Oksavika" />
		<tag k="place" v="farm" />
		<tag k="ssr:stedsnr" v="10486" />
	</node>
	<node id="-6975" lat="62.2036677494" lon="5.7250967399">
		<tag k="name" v="Skrede" />
		<tag k="place" v="hamlet" />
		<tag k="ssr:stedsnr" v="982646" />
	</node>
	<node id="-6974" lat="62.1932916632" lon="5.58418889255">
		<tag k="name" v="Breivikneset" />
		<tag k="place" v="quarter" />
		<tag k="ssr:stedsnr" v="950114" />
	</node>
	<node id="-6973" lat="62.2270583374" lon="5.67869166536">
		<tag k="name" v="Kleiva" />
		<tag k="natural" v="slope" />
		<tag k="place" v="locality" />
		<tag k="ssr:stedsnr" v="948256" />
	</node>
	<node id="-6972" lat="62.2091722243" lon="5.57042222058">
		<tag k="name" v="Varden" />
		<tag k="natural" v="hill" />
		<tag k="place" v="locality" />
		<tag k="ssr:stedsnr" v="948223" />
	</node>
	<node id="-6971" lat="62.2509000034" lon="5.41008333429">
		<tag k="name" v="Drogane" />
		<tag k="natural" v="beach" />
		<tag k="place" v="locality" />
		<tag k="ssr:stedsnr" v="948216" />
	</node>
	<node id="-6970" lat="62.2480166685" lon="5.62420556429">
		<tag k="name" v="Klovane" />
		<tag k="place" v="locality" />
		<tag k="ssr:stedsnr" v="948214" />
	</node>
	<node id="-6969" lat="62.213041663" lon="5.62915277203">
		<tag k="name" v="Paradis" />
		<tag k="place" v="locality" />
		<tag k="ssr:stedsnr" v="948208" />
	</node>
	<node id="-6968" lat="62.2521694489" lon="5.4729833424">
		<tag k="name" v="Evja" />
		<tag k="natural" v="bay" />
		<tag k="ssr:stedsnr" v="948207" />
	</node>
	<node id="-6967" lat="62.2564583343" lon="5.58935000324">
		<tag k="name" v="Rise" />
		<tag k="place" v="farm" />
		<tag k="ssr:stedsnr" v="948205" />
	</node>
	<node id="-6966" lat="62.2151749987" lon="5.47526667559">
		<tag k="name" v="Hesteneset" />
		<tag k="natural" v="cape" />
		<tag k="ssr:stedsnr" v="948322" />
	</node>
	<node id="-6965" lat="62.203022225" lon="5.42078054747">
		<tag k="name" v="Granden" />
		<tag k="natural" v="beach" />
		<tag k="place" v="locality" />
		<tag k="ssr:stedsnr" v="948321" />
	</node>
	<node id="-6964" lat="62.1988166707" lon="5.39902776834">
		<tag k="name" v="Leitet" />
		<tag k="natural" v="slope" />
		<tag k="place" v="locality" />
		<tag k="ssr:stedsnr" v="948319" />
	</node>
	<node id="-6963" lat="62.2375638855" lon="5.35980000119">
		<tag k="name" v="Raudhammaren" />
		<tag k="natural" v="hill" />
		<tag k="place" v="locality" />
		<tag k="ssr:stedsnr" v="948169" />
	</node>
	<node id="-6962" lat="62.2396944467" lon="5.41178332857">
		<tag k="fixme" v="consider seamark:type=rock or natural=shoal" />
		<tag k="name" v="Småskjera" />
		<tag k="place" v="islet" />
		<tag k="ssr:stedsnr" v="948165" />
	</node>
	<node id="-6961" lat="62.2026305582" lon="5.67997221984">
		<tag k="name" v="Almefjellet" />
		<tag k="natural" v="slope" />
		<tag k="place" v="locality" />
		<tag k="ssr:stedsnr" v="948160" />
	</node>
	<node id="-6960" lat="62.2196055527" lon="5.69246944037">
		<tag k="name" v="Løkane" />
		<tag k="natural" v="wetland" />
		<tag k="ssr:stedsnr" v="948159" />
	</node>
	<node id="-6959" lat="62.2133055585" lon="5.61861666572">
		<tag k="name" v="Djupedalen" />
		<tag k="natural" v="valley" />
		<tag k="place" v="locality" />
		<tag k="ssr:stedsnr" v="948156" />
	</node>
	<node id="-6958" lat="62.2231027778" lon="5.44524167208">
		<tag k="fixme" v="consider seamark:type=rock or natural=shoal" />
		<tag k="name" v="Flødeskjeret" />
		<tag k="place" v="islet" />
		<tag k="ssr:stedsnr" v="948153" />
	</node>
	<node id="-6957" lat="62.2722861139" lon="5.56875556478">
		<tag k="name" v="Storeheida" />
		<tag k="natural" v="hill" />
		<tag k="place" v="locality" />
		<tag k="ssr:stedsnr" v="948110" />
	</node>
	<node id="-6956" lat="62.2481333359" lon="5.66915000713">
		<tag k="name" v="Myrkestranda" />
		<tag k="natural" v="beach" />
		<tag k="ssr:stedsnr" v="948109" />
	</node>
	<node id="-6955" lat="62.1907333369" lon="5.63471389021">
		<tag k="name" v="Lånaneset" />
		<tag k="natural" v="cape" />
		<tag k="ssr:stedsnr" v="947068" />
	</node>
	<node id="-6954" lat="62.2728694475" lon="5.5533499988">
		<tag k="name" v="Gyljehamrane" />
		<tag k="natural" v="cliff" />
		<tag k="ssr:stedsnr" v="947053" />
	</node>
	<node id="-6953" lat="62.1788249985" lon="5.4026055505">
		<tag k="name" v="Terneskjerfluda" />
		<tag k="natural" v="shoal" />
		<tag k="place" v="locality" />
		<tag k="ssr:stedsnr" v="931310" />
	</node>
	<node id="-6952" lat="62.1954694485" lon="5.37134444704">
		<tag k="alt_name" v="Midfallskjera" />
		<tag k="fixme" v="consider seamark:type=rock or natural=shoal" />
		<tag k="name" v="Mefallskjeret" />
		<tag k="place" v="islet" />
		<tag k="ssr:stedsnr" v="921567" />
	</node>
	<node id="-6951" lat="62.2848166656" lon="5.57449999961">
		<tag k="alt_name" v="Hidsegga" />
		<tag k="fixme" v="consider natural=peak for the most distinct mountains in the district" />
		<tag k="name" v="Veten" />
		<tag k="natural" v="hill" />
		<tag k="place" v="locality" />
		<tag k="ssr:stedsnr" v="921560" />
	</node>
	<node id="-6950" lat="62.2082500019" lon="5.61087776884">
		<tag k="name" v="Svartevatnet" />
		<tag k="natural" v="water" />
		<tag k="ssr:stedsnr" v="921557" />
	</node>
	<node id="-6949" lat="62.2680361117" lon="5.40005277965">
		<tag k="fixme" v="consider seamark:type=rock or natural=shoal" />
		<tag k="name" v="Køyaskjeret" />
		<tag k="place" v="islet" />
		<tag k="ssr:stedsnr" v="921556" />
	</node>
	<node id="-6948" lat="62.2218888918" lon="5.35043333731">
		<tag k="name" v="Djupsundholmen" />
		<tag k="place" v="islet" />
		<tag k="ssr:stedsnr" v="921633" />
	</node>
	<node id="-6947" lat="62.2179527741" lon="5.70206388852">
		<tag k="name" v="Skogevatnet" />
		<tag k="natural" v="water" />
		<tag k="ssr:stedsnr" v="921621" />
		<tag k="water" v="lake" />
	</node>
	<node id="-6946" lat="62.2077432781" lon="5.77222426402">
		<tag k="fixme" v="consider place=hamlet" />
		<tag k="name" v="Laupen" />
		<tag k="place" v="farm" />
		<tag k="ssr:stedsnr" v="921072" />
	</node>
	<node id="-6945" lat="62.2629722208" lon="5.59918332494">
		<tag k="name" v="Brandhornet" />
		<tag k="natural" v="hill" />
		<tag k="place" v="locality" />
		<tag k="ssr:stedsnr" v="888023" />
	</node>
	<node id="-6944" lat="62.1992138868" lon="5.58231110535">
		<tag k="name" v="Gjerdet" />
		<tag k="place" v="farm" />
		<tag k="ssr:stedsnr" v="887264" />
	</node>
	<node id="-6943" lat="62.1952499958" lon="5.58910278457">
		<tag k="name" v="Breivikryggen" />
		<tag k="natural" v="ridge" />
		<tag k="place" v="locality" />
		<tag k="ssr:stedsnr" v="887055" />
	</node>
	<node id="-6942" lat="62.2351749989" lon="5.34176665884">
		<tag k="name" v="Kroktangen" />
		<tag k="natural" v="cape" />
		<tag k="ssr:stedsnr" v="887167" />
	</node>
	<node id="-6941" lat="62.2414249993" lon="5.68977500781">
		<tag k="name" v="Rindehola" />
		<tag k="natural" v="valley" />
		<tag k="place" v="locality" />
		<tag k="ssr:stedsnr" v="887153" />
	</node>
	<node id="-6940" lat="62.204116665" lon="5.68584721756">
		<tag k="fixme" v="consider natural=peak for the most distinct mountains in the district" />
		<tag k="name" v="Kringstadnakken" />
		<tag k="natural" v="hill" />
		<tag k="place" v="locality" />
		<tag k="ssr:stedsnr" v="887118" />
	</node>
	<node id="-6939" lat="62.2350222189" lon="5.70366944217">
		<tag k="name" v="Båtefjellet" />
		<tag k="natural" v="ridge" />
		<tag k="place" v="locality" />
		<tag k="ssr:stedsnr" v="887117" />
	</node>
	<node id="-6938" lat="62.2237888865" lon="5.72660834187">
		<tag k="name" v="Klipeelva" />
		<tag k="ssr:stedsnr" v="887116" />
		<tag k="waterway" v="stream" />
	</node>
	<node id="-6937" lat="62.2123750016" lon="5.33751111798">
		<tag k="alt_name" v="Gambaskjeret" />
		<tag k="fixme" v="consider seamark:type=rock or natural=shoal" />
		<tag k="name" v="Gavanskjeret" />
		<tag k="place" v="islet" />
		<tag k="ssr:stedsnr" v="948181" />
	</node>
	<node id="-6936" lat="62.2136944405" lon="5.54933333177">
		<tag k="alt_name" v="Simonskjeret" />
		<tag k="fixme" v="consider seamark:type=rock or natural=shoal" />
		<tag k="name" v="Simaskjeret" />
		<tag k="place" v="islet" />
		<tag k="ssr:stedsnr" v="948244" />
	</node>
	<node id="-6935" lat="62.2347195238" lon="5.58297806441">
		<tag k="name" v="Hauge" />
		<tag k="place" v="hamlet" />
		<tag k="ssr:stedsnr" v="948235" />
	</node>
	<node id="-6934" lat="62.211866666" lon="5.55589444511">
		<tag k="name" v="Okselæjet" />
		<tag k="natural" v="bay" />
		<tag k="ssr:stedsnr" v="948230" />
	</node>
	<node id="-6933" lat="62.2682972226" lon="5.42994445152">
		<tag k="name" v="Timbrevikane" />
		<tag k="natural" v="bay" />
		<tag k="ssr:stedsnr" v="948137" />
	</node>
	<node id="-6932" lat="62.2683138861" lon="5.44483610831">
		<tag k="fixme" v="consider seamark:type=rock or natural=shoal" />
		<tag k="name" v="Leidaskjeret" />
		<tag k="old_name" v="Ledskjeret" />
		<tag k="place" v="islet" />
		<tag k="ssr:stedsnr" v="948136" />
	</node>
	<node id="-6931" lat="62.2196888889" lon="5.39657500559">
		<tag k="name" v="Klungreneset" />
		<tag k="natural" v="cape" />
		<tag k="ssr:stedsnr" v="948130" />
	</node>
	<node id="-6930" lat="62.2211277766" lon="5.72150833647">
		<tag k="name" v="Fossakjerringa" />
		<tag k="natural" v="hill" />
		<tag k="place" v="locality" />
		<tag k="ssr:stedsnr" v="948128" />
	</node>
	<node id="-6929" lat="62.2605722191" lon="5.61566110541">
		<tag k="name" v="Sædalsholmen" />
		<tag k="place" v="islet" />
		<tag k="ssr:stedsnr" v="948038" />
	</node>
	<node id="-6928" lat="62.2507611156" lon="5.65197500471">
		<tag k="name" v="Sævtjønna" />
		<tag k="natural" v="water" />
		<tag k="ssr:stedsnr" v="948032" />
	</node>
	<node id="-6927" lat="62.2468861118" lon="5.66214722085">
		<tag k="name" v="Riks-stallane" />
		<tag k="natural" v="slope" />
		<tag k="place" v="locality" />
		<tag k="ssr:stedsnr" v="948031" />
	</node>
	<node id="-6926" lat="62.2455972204" lon="5.59566944619">
		<tag k="name" v="Langedalen" />
		<tag k="natural" v="valley" />
		<tag k="place" v="locality" />
		<tag k="ssr:stedsnr" v="948023" />
	</node>
	<node id="-6925" lat="62.2238583331" lon="5.58679999994">
		<tag k="name" v="Køyla" />
		<tag k="natural" v="bay" />
		<tag k="ssr:stedsnr" v="948021" />
	</node>
	<node id="-6924" lat="62.2316611108" lon="5.64112499669">
		<tag k="name" v="Kalvegylet" />
		<tag k="natural" v="valley" />
		<tag k="place" v="locality" />
		<tag k="ssr:stedsnr" v="948017" />
	</node>
	<node id="-6923" lat="62.2647750043" lon="5.41472500732">
		<tag k="name" v="Hellandsvågen" />
		<tag k="natural" v="bay" />
		<tag k="ssr:stedsnr" v="948078" />
	</node>
	<node id="-6922" lat="62.2527000032" lon="5.40581388665">
		<tag k="name" v="Flatmagevika" />
		<tag k="natural" v="bay" />
		<tag k="ssr:stedsnr" v="948074" />
	</node>
	<node id="-6921" lat="62.2241222195" lon="5.7150166621">
		<tag k="name" v="Litlevatnet" />
		<tag k="natural" v="water" />
		<tag k="ssr:stedsnr" v="947977" />
	</node>
	<node id="-6920" lat="62.2266611118" lon="5.53049166736">
		<tag k="name" v="Sjøbudneset" />
		<tag k="natural" v="cape" />
		<tag k="ssr:stedsnr" v="947048" />
	</node>
	<node id="-6919" lat="62.2296249998" lon="5.53241388618">
		<tag k="name" v="Hesthammarvika" />
		<tag k="natural" v="bay" />
		<tag k="ssr:stedsnr" v="947042" />
	</node>
	<node id="-6918" lat="62.230694441" lon="5.53442776885">
		<tag k="name" v="Storklubben" />
		<tag k="natural" v="hill" />
		<tag k="place" v="locality" />
		<tag k="ssr:stedsnr" v="947040" />
	</node>
	<node id="-6917" lat="62.2230777748" lon="5.55811388939">
		<tag k="name" v="Geitaskaret" />
		<tag k="natural" v="valley" />
		<tag k="place" v="locality" />
		<tag k="ssr:stedsnr" v="947036" />
	</node>
	<node id="-6916" lat="62.2295083377" lon="5.4588250065">
		<tag k="fixme" v="consider seamark:type=rock or natural=shoal" />
		<tag k="name" v="Småhåskjera" />
		<tag k="place" v="islet" />
		<tag k="ssr:stedsnr" v="860674" />
	</node>
	<node id="-6915" lat="62.1900416653" lon="5.2859611111">
		<tag k="bay" v="fjord" />
		<tag k="name" v="Vanylvsgapet" />
		<tag k="natural" v="bay" />
		<tag k="ssr:stedsnr" v="860662" />
	</node>
	<node id="-6914" lat="62.2357222232" lon="5.6978888918">
		<tag k="alt_name" v="Grøthornet;Rauddalshornet;Røddalshornet" />
		<tag k="name" v="Røddalshorn" />
		<tag k="natural" v="hill" />
		<tag k="place" v="locality" />
		<tag k="ssr:stedsnr" v="860659" />
	</node>
	<node id="-6913" lat="62.2280249961" lon="5.62186667534">
		<tag k="alt_name" v="Leirvika" />
		<tag k="name" v="Leirvik" />
		<tag k="place" v="farm" />
		<tag k="ssr:stedsnr" v="860611" />
	</node>
	<node id="-6912" lat="62.2023555574" lon="5.35639444481">
		<tag k="name" v="Kvamsboden" />
		<tag k="natural" v="shoal" />
		<tag k="place" v="locality" />
		<tag k="ssr:stedsnr" v="842420" />
	</node>
	<node id="-6911" lat="62.1905305589" lon="5.36253333526">
		<tag k="name" v="Råna" />
		<tag k="natural" v="shoal" />
		<tag k="place" v="locality" />
		<tag k="ssr:stedsnr" v="842404" />
	</node>
	<node id="-6910" lat="62.2329388856" lon="5.47208055384">
		<tag k="name" v="Høna" />
		<tag k="natural" v="shoal" />
		<tag k="place" v="locality" />
		<tag k="ssr:stedsnr" v="840414" />
	</node>
	<node id="-6909" lat="62.2060444435" lon="5.70948333105">
		<tag k="name" v="Slokevatnet" />
		<tag k="natural" v="water" />
		<tag k="ssr:stedsnr" v="799571" />
	</node>
	<node id="-6908" lat="62.2854388885" lon="5.49538889645">
		<tag k="name" v="Kjeggane" />
		<tag k="natural" v="shoal" />
		<tag k="place" v="locality" />
		<tag k="ssr:stedsnr" v="799564" />
	</node>
	<node id="-6907" lat="62.2267611148" lon="5.47794166392">
		<tag k="alt_name" v="Marøyna" />
		<tag k="name" v="Marøya" />
		<tag k="place" v="island" />
		<tag k="ssr:stedsnr" v="799642" />
	</node>
	<node id="-6906" lat="62.2511277779" lon="5.59480555643">
		<tag k="name" v="Botnen" />
		<tag k="natural" v="valley" />
		<tag k="place" v="locality" />
		<tag k="ssr:stedsnr" v="921960" />
	</node>
	<node id="-6905" lat="62.2575166707" lon="5.39180833301">
		<tag k="alt_name" v="Steintangen" />
		<tag k="name" v="Steinstangen" />
		<tag k="natural" v="cape" />
		<tag k="ssr:stedsnr" v="921539" />
	</node>
	<node id="-6904" lat="62.254094441" lon="5.3575611163">
		<tag k="name" v="Nabbane" />
		<tag k="natural" v="shoal" />
		<tag k="place" v="locality" />
		<tag k="ssr:stedsnr" v="921535" />
	</node>
	<node id="-6903" lat="62.2650805531" lon="5.59689166674">
		<tag k="fixme" v="consider natural=peak for the most distinct mountains in the district" />
		<tag k="name" v="Fjellsenden" />
		<tag k="natural" v="hill" />
		<tag k="place" v="locality" />
		<tag k="ssr:stedsnr" v="921532" />
	</node>
	<node id="-6902" lat="62.2505194401" lon="5.40966111224">
		<tag k="name" v="Kalvågane" />
		<tag k="natural" v="bay" />
		<tag k="ssr:stedsnr" v="921522" />
	</node>
	<node id="-6901" lat="62.2237785403" lon="5.53806469758">
		<tag k="fixme" v="consider place=hamlet" />
		<tag k="name" v="Nupen" />
		<tag k="place" v="farm" />
		<tag k="ssr:stedsnr" v="921639" />
	</node>
	<node id="-6900" lat="62.2335999996" lon="5.65686945287">
		<tag k="alt_name" v="Sæssvatnet" />
		<tag k="name" v="Sæsvatnet" />
		<tag k="natural" v="water" />
		<tag k="ssr:stedsnr" v="921636" />
	</node>
	<node id="-6899" lat="62.2260608782" lon="5.64094949044">
		<tag k="alt_name" v="Sætre, midtre" />
		<tag k="name" v="Midtre Sætre" />
		<tag k="place" v="farm" />
		<tag k="ssr:stedsnr" v="921600" />
	</node>
	<node id="-6898" lat="62.2422194408" lon="5.43244166574">
		<tag k="name" v="Sandsvika" />
		<tag k="natural" v="bay" />
		<tag k="ssr:stedsnr" v="920646" />
	</node>
	<node id="-6897" lat="62.2448944447" lon="5.57953888282">
		<tag k="name" v="Hanen" />
		<tag k="natural" v="hill" />
		<tag k="place" v="locality" />
		<tag k="ssr:stedsnr" v="920602" />
	</node>
	<node id="-6896" lat="62.2008305595" lon="5.64164444246">
		<tag k="fixme" v="multiple name tags, choose one and add the other to alt_name" />
		<tag k="name" v="Saudehornet;Veten" />
		<tag k="natural" v="hill" />
		<tag k="place" v="locality" />
		<tag k="ssr:stedsnr" v="920535" />
	</node>
	<node id="-6895" lat="62.2414166701" lon="5.58113888081">
		<tag k="name" v="Legene" />
		<tag k="natural" v="slope" />
		<tag k="place" v="locality" />
		<tag k="ssr:stedsnr" v="766311" />
	</node>
	<node id="-6894" lat="62.2226777823" lon="5.45468611314">
		<tag k="name" v="Kyrkjevika" />
		<tag k="natural" v="bay" />
		<tag k="ssr:stedsnr" v="766115" />
	</node>
	<node id="-6893" lat="62.2117694403" lon="5.46773888742">
		<tag k="name" v="Kviehaugen" />
		<tag k="natural" v="hill" />
		<tag k="place" v="locality" />
		<tag k="ssr:stedsnr" v="766112" />
	</node>
	<node id="-6892" lat="62.2674638846" lon="5.45556944585">
		<tag k="fixme" v="consider seamark:type=rock or natural=shoal" />
		<tag k="name" v="Kattaskjeret" />
		<tag k="place" v="islet" />
		<tag k="ssr:stedsnr" v="766097" />
	</node>
	<node id="-6891" lat="62.2027638877" lon="5.71436944536">
		<tag k="name" v="Slokeelva" />
		<tag k="ssr:stedsnr" v="766088" />
		<tag k="waterway" v="stream" />
	</node>
	<node id="-6890" lat="62.2095833326" lon="5.38200277262">
		<tag k="name" v="Inste Nonshornet" />
		<tag k="natural" v="hill" />
		<tag k="place" v="locality" />
		<tag k="ssr:stedsnr" v="766068" />
	</node>
	<node id="-6889" lat="62.2169888901" lon="5.40288889301">
		<tag k="name" v="Kalsnesstranda" />
		<tag k="natural" v="beach" />
		<tag k="place" v="locality" />
		<tag k="ssr:stedsnr" v="766060" />
	</node>
	<node id="-6888" lat="62.1959000001" lon="5.39840834169">
		<tag k="name" v="Ytste Klubben" />
		<tag k="natural" v="cape" />
		<tag k="ssr:stedsnr" v="766057" />
	</node>
	<node id="-6887" lat="62.1913194449" lon="5.63561110478">
		<tag k="amenity" v="ferry_terminal" />
		<tag k="name" v="Årvik ferjekai" />
		<tag k="ssr:stedsnr" v="762303" />
	</node>
	<node id="-6886" lat="62.2640027733" lon="5.47883332746">
		<tag k="name" v="Ulandsvika" />
		<tag k="natural" v="bay" />
		<tag k="ssr:stedsnr" v="739520" />
	</node>
	<node id="-6885" lat="62.1894268463" lon="5.60026606007">
		<tag k="fixme" v="consider place=hamlet" />
		<tag k="name" v="Saudane" />
		<tag k="place" v="farm" />
		<tag k="ssr:stedsnr" v="739517" />
	</node>
	<node id="-6884" lat="62.2645583379" lon="5.54958334102">
		<tag k="alt_name" v="Gjerdesvika" />
		<tag k="name" v="Gjerdsvika" />
		<tag k="natural" v="bay" />
		<tag k="ssr:stedsnr" v="739516" />
	</node>
	<node id="-6883" lat="62.2513499965" lon="5.47915555192">
		<tag k="fixme" v="consider place=hamlet" />
		<tag k="name" v="Sandshamn" />
		<tag k="place" v="village" />
		<tag k="ssr:stedsnr" v="739504" />
	</node>
	<node id="-6882" lat="62.2238555663" lon="5.59315936264">
		<tag k="fixme" v="consider place=hamlet" />
		<tag k="name" v="Sandvik" />
		<tag k="place" v="farm" />
		<tag k="ssr:stedsnr" v="739625" />
	</node>
	<node id="-6881" lat="62.230152782" lon="5.61985833075">
		<tag k="alt_name" v="Gursken kyrkje" />
		<tag k="amenity" v="place_of_worship" />
		<tag k="denomination" v="lutheran" />
		<tag k="name" v="Gursken" />
		<tag k="religion" v="christian" />
		<tag k="ssr:stedsnr" v="739624" />
	</node>
	<node id="-6880" lat="62.2192249967" lon="5.35062222825">
		<tag k="name" v="Kletten" />
		<tag k="natural" v="hill" />
		<tag k="place" v="locality" />
		<tag k="ssr:stedsnr" v="739616" />
	</node>
	<node id="-6879" lat="62.2344055545" lon="5.62344444736">
		<tag k="name" v="Vikelva" />
		<tag k="ssr:stedsnr" v="739605" />
		<tag k="waterway" v="stream" />
	</node>
	<node id="-6878" lat="62.2620361156" lon="5.47252777957">
		<tag k="fixme" v="consider natural=peak for the most distinct mountains in the district" />
		<tag k="name" v="Sjurfjellet" />
		<tag k="natural" v="hill" />
		<tag k="place" v="locality" />
		<tag k="ssr:stedsnr" v="901430" />
	</node>
	<node id="-6877" lat="62.2168694417" lon="5.32984723089">
		<tag k="name" v="Vågeboden" />
		<tag k="natural" v="shoal" />
		<tag k="place" v="locality" />
		<tag k="ssr:stedsnr" v="720558" />
	</node>
	<node id="-6876" lat="62.1997638908" lon="5.34152776934">
		<tag k="name" v="Kjeftfluda" />
		<tag k="natural" v="shoal" />
		<tag k="place" v="locality" />
		<tag k="ssr:stedsnr" v="720417" />
	</node>
	<node id="-6875" lat="62.3038611073" lon="5.39673334241">
		<tag k="name" v="Skagegrunnen" />
		<tag k="natural" v="shoal" />
		<tag k="place" v="locality" />
		<tag k="ssr:stedsnr" v="719759" />
	</node>
	<node id="-6874" lat="62.2032638876" lon="5.36654999115">
		<tag k="fixme" v="consider seamark:type=rock or natural=shoal" />
		<tag k="name" v="Røysane" />
		<tag k="place" v="islet" />
		<tag k="ssr:stedsnr" v="705342" />
	</node>
	<node id="-6873" lat="62.2183999961" lon="5.36668612119">
		<tag k="name" v="Støylen" />
		<tag k="place" v="farm" />
		<tag k="ssr:stedsnr" v="705339" />
	</node>
	<node id="-6872" lat="62.2389805517" lon="5.35368611617">
		<tag k="name" v="Søyla" />
		<tag k="natural" v="water" />
		<tag k="ssr:stedsnr" v="705337" />
	</node>
	<node id="-6871" lat="62.2327666632" lon="5.36457223199">
		<tag k="name" v="Kleivane" />
		<tag k="natural" v="slope" />
		<tag k="place" v="locality" />
		<tag k="ssr:stedsnr" v="705305" />
	</node>
	<node id="-6870" lat="62.2028235705" lon="5.58022231597">
		<tag k="fixme" v="consider place=hamlet" />
		<tag k="name" v="Ytre Saude" />
		<tag k="place" v="farm" />
		<tag k="ssr:stedsnr" v="887291" />
	</node>
	<node id="-6869" lat="62.2436444474" lon="5.43444443829">
		<tag k="name" v="Lund" />
		<tag k="place" v="farm" />
		<tag k="ssr:stedsnr" v="887289" />
	</node>
	<node id="-6868" lat="62.1724749985" lon="5.3896166594">
		<tag k="name" v="Torrane" />
		<tag k="natural" v="cape" />
		<tag k="ssr:stedsnr" v="887283" />
	</node>
	<node id="-6867" lat="62.2504222249" lon="5.52978333804">
		<tag k="fixme" v="consider seamark:type=rock or natural=shoal" />
		<tag k="name" v="Ausa" />
		<tag k="place" v="islet" />
		<tag k="ssr:stedsnr" v="887202" />
	</node>
	<node id="-6866" lat="62.249830558" lon="5.53602777514">
		<tag k="name" v="Trodene" />
		<tag k="natural" v="slope" />
		<tag k="place" v="locality" />
		<tag k="ssr:stedsnr" v="887200" />
	</node>
	<node id="-6865" lat="62.2117305527" lon="5.63369166491">
		<tag k="name" v="Nonstua" />
		<tag k="natural" v="hill" />
		<tag k="place" v="locality" />
		<tag k="ssr:stedsnr" v="887191" />
	</node>
	<node id="-6864" lat="62.228225" lon="5.59419999096">
		<tag k="name" v="Dueneset" />
		<tag k="natural" v="cape" />
		<tag k="ssr:stedsnr" v="887230" />
	</node>
	<node id="-6863" lat="62.2526250027" lon="5.64268332549">
		<tag k="name" v="Busundet" />
		<tag k="natural" v="strait" />
		<tag k="ssr:stedsnr" v="887228" />
	</node>
	<node id="-6862" lat="62.2203416694" lon="5.67485277532">
		<tag k="name" v="Risholen" />
		<tag k="place" v="locality" />
		<tag k="ssr:stedsnr" v="887226" />
	</node>
	<node id="-6861" lat="62.2256861137" lon="5.56925833557">
		<tag k="name" v="Todeberga" />
		<tag k="natural" v="hill" />
		<tag k="place" v="locality" />
		<tag k="ssr:stedsnr" v="887218" />
	</node>
	<node id="-6860" lat="62.203997223" lon="5.69234999542">
		<tag k="name" v="Skylet" />
		<tag k="natural" v="slope" />
		<tag k="place" v="locality" />
		<tag k="ssr:stedsnr" v="887215" />
	</node>
	<node id="-6859" lat="62.2257499993" lon="5.66870000833">
		<tag k="highway" v="path" />
		<tag k="name" v="Gotene" />
		<tag k="ssr:stedsnr" v="887214" />
	</node>
	<node id="-6858" lat="62.2053000003" lon="5.75474444014">
		<tag k="name" v="Litle-laupnes" />
		<tag k="natural" v="cape" />
		<tag k="ssr:stedsnr" v="887207" />
	</node>
	<node id="-6857" lat="62.2218222255" lon="5.44779166859">
		<tag k="name" v="Flødehaugen" />
		<tag k="natural" v="hill" />
		<tag k="place" v="locality" />
		<tag k="ssr:stedsnr" v="887143" />
	</node>
	<node id="-6856" lat="62.2646916704" lon="5.41011944213">
		<tag k="name" v="Gråholmen" />
		<tag k="place" v="islet" />
		<tag k="ssr:stedsnr" v="887132" />
	</node>
	<node id="-6855" lat="62.2524388892" lon="5.63486110264">
		<tag k="name" v="Kalvegjerdholmen" />
		<tag k="place" v="islet" />
		<tag k="ssr:stedsnr" v="887029" />
	</node>
	<node id="-6854" lat="62.2126500001" lon="5.40356667156">
		<tag k="name" v="Kalsneshornet" />
		<tag k="natural" v="hill" />
		<tag k="place" v="locality" />
		<tag k="ssr:stedsnr" v="887100" />
	</node>
	<node id="-6853" lat="62.1765555568" lon="5.39980000126">
		<tag k="name" v="Nøre Holmetangen" />
		<tag k="natural" v="cape" />
		<tag k="ssr:stedsnr" v="887086" />
	</node>
	<node id="-6852" lat="62.2499777772" lon="5.42186110878">
		<tag k="name" v="Fosselva" />
		<tag k="ssr:stedsnr" v="887080" />
		<tag k="waterway" v="stream" />
	</node>
	<node id="-6851" lat="62.2381944481" lon="5.60233333973">
		<tag k="name" v="Kråkereidhammaren" />
		<tag k="natural" v="cliff" />
		<tag k="ssr:stedsnr" v="887002" />
	</node>
	<node id="-6850" lat="62.2521722179" lon="5.53399999557">
		<tag k="name" v="Røysetdalen" />
		<tag k="natural" v="valley" />
		<tag k="place" v="locality" />
		<tag k="ssr:stedsnr" v="886041" />
	</node>
	<node id="-6849" lat="62.2270361083" lon="5.53638055941">
		<tag k="name" v="Hellegylet" />
		<tag k="natural" v="valley" />
		<tag k="place" v="locality" />
		<tag k="ssr:stedsnr" v="886035" />
	</node>
	<node id="-6848" lat="62.2262111146" lon="5.52693610286">
		<tag k="alt_name" v="Nupeholmen" />
		<tag k="name" v="Nupeholmene" />
		<tag k="place" v="islet" />
		<tag k="ssr:stedsnr" v="678617" />
	</node>
	<node id="-6847" lat="62.2230913345" lon="5.54165571972">
		<tag k="fixme" v="consider place=hamlet" />
		<tag k="name" v="Kråna" />
		<tag k="place" v="farm" />
		<tag k="ssr:stedsnr" v="678615" />
	</node>
	<node id="-6846" lat="62.2165499967" lon="5.40854444476">
		<tag k="alt_name" v="Kalsneset" />
		<tag k="name" v="Kalsnes" />
		<tag k="natural" v="cape" />
		<tag k="ssr:stedsnr" v="678568" />
	</node>
	<node id="-6845" lat="62.2160722222" lon="5.34291666337">
		<tag k="alt_name" v="Djuvika" />
		<tag k="name" v="Djupvika" />
		<tag k="natural" v="bay" />
		<tag k="ssr:stedsnr" v="678558" />
	</node>
	<node id="-6844" lat="62.1948944475" lon="5.57863889521">
		<tag k="name" v="Grønholmen" />
		<tag k="place" v="islet" />
		<tag k="ssr:stedsnr" v="678554" />
	</node>
	<node id="-6843" lat="62.1690722257" lon="5.40116944996">
		<tag k="name" v="Bjørnholmen" />
		<tag k="place" v="islet" />
		<tag k="ssr:stedsnr" v="678521" />
	</node>
	<node id="-6842" lat="62.2602527738" lon="5.36304445453">
		<tag k="alt_name" v="Hestholmbåen" />
		<tag k="name" v="Hestholmboden" />
		<tag k="natural" v="shoal" />
		<tag k="place" v="locality" />
		<tag k="ssr:stedsnr" v="678520" />
	</node>
	<node id="-6841" lat="62.2583583309" lon="5.52972500362">
		<tag k="alt_name" v="Gjøtangen" />
		<tag k="name" v="Gjøneset" />
		<tag k="natural" v="cape" />
		<tag k="ssr:stedsnr" v="678512" />
	</node>
	<node id="-6840" lat="62.17623611" lon="5.41785000433">
		<tag k="bay" v="fjord" />
		<tag k="name" v="Haugsfjorden" />
		<tag k="natural" v="bay" />
		<tag k="ssr:stedsnr" v="678511" />
	</node>
	<node id="-6839" lat="62.2553916628" lon="5.4197611197">
		<tag k="fixme" v="consider natural=peak for the most distinct mountains in the district" />
		<tag k="name" v="Øyna" />
		<tag k="natural" v="hill" />
		<tag k="place" v="locality" />
		<tag k="ssr:stedsnr" v="678504" />
	</node>
	<node id="-6838" lat="62.231169447" lon="5.61741387921">
		<tag k="bridge" v="yes" />
		<tag k="layer" v="1" />
		<tag k="name" v="Vikebrua" />
		<tag k="ssr:stedsnr" v="877383" />
	</node>
	<node id="-6837" lat="62.2007444463" lon="5.36270834047">
		<tag k="fixme" v="consider seamark:type=rock or natural=shoal" />
		<tag k="name" v="Agnskjeret" />
		<tag k="place" v="islet" />
		<tag k="ssr:stedsnr" v="659433" />
	</node>
	<node id="-6836" lat="62.1996638856" lon="5.38496389022">
		<tag k="name" v="Myrvika" />
		<tag k="natural" v="bay" />
		<tag k="ssr:stedsnr" v="659430" />
	</node>
	<node id="-6835" lat="62.1928805555" lon="5.35003611703">
		<tag k="name" v="Eggholmboden" />
		<tag k="natural" v="shoal" />
		<tag k="place" v="locality" />
		<tag k="ssr:stedsnr" v="659417" />
	</node>
	<node id="-6834" lat="62.2364944465" lon="5.67931110326">
		<tag k="name" v="Svinevassmyrane" />
		<tag k="natural" v="wetland" />
		<tag k="ssr:stedsnr" v="644021" />
	</node>
	<node id="-6833" lat="62.2406500025" lon="5.55633056116">
		<tag k="name" v="Hageberget" />
		<tag k="natural" v="hill" />
		<tag k="place" v="locality" />
		<tag k="ssr:stedsnr" v="643977" />
	</node>
	<node id="-6831" lat="62.2592611129" lon="5.64831944458">
		<tag k="name" v="Syrebakkane" />
		<tag k="natural" v="slope" />
		<tag k="place" v="locality" />
		<tag k="ssr:stedsnr" v="617973" />
	</node>
	<node id="-6830" lat="62.2168749984" lon="5.6787583413">
		<tag k="alt_name" v="Arehjellen" />
		<tag k="fixme" v="consider natural=peak for the most distinct mountains in the district" />
		<tag k="name" v="Aregjell" />
		<tag k="natural" v="hill" />
		<tag k="place" v="locality" />
		<tag k="ssr:stedsnr" v="617586" />
	</node>
	<node id="-6829" lat="62.1989000025" lon="5.57637777981">
		<tag k="alt_name" v="Vikane" />
		<tag k="name" v="Vika" />
		<tag k="place" v="farm" />
		<tag k="ssr:stedsnr" v="617555" />
	</node>
	<node id="-6828" lat="62.2147444467" lon="5.65747500169">
		<tag k="alt_name" v="Almestadelva" />
		<tag k="name" v="Vågselva" />
		<tag k="ssr:stedsnr" v="617554" />
		<tag k="waterway" v="stream" />
	</node>
	<node id="-6827" lat="62.2497694414" lon="5.34368888636">
		<tag k="name" v="Bastenesfluda" />
		<tag k="natural" v="shoal" />
		<tag k="place" v="locality" />
		<tag k="ssr:stedsnr" v="720621" />
	</node>
	<node id="-6826" lat="62.2711722226" lon="5.38718332463">
		<tag k="name" v="Vågeboden" />
		<tag k="natural" v="shoal" />
		<tag k="place" v="locality" />
		<tag k="ssr:stedsnr" v="720616" />
	</node>
	<node id="-6825" lat="62.2006027777" lon="5.39481666782">
		<tag k="name" v="Kvia" />
		<tag k="place" v="farm" />
		<tag k="ssr:stedsnr" v="719398" />
	</node>
	<node id="-6824" lat="62.2572638916" lon="5.58522777779">
		<tag k="name" v="Gjerde" />
		<tag k="place" v="quarter" />
		<tag k="ssr:stedsnr" v="585113" />
	</node>
	<node id="-6823" lat="62.1937138849" lon="5.6426666701">
		<tag k="name" v="Rustene" />
		<tag k="place" v="quarter" />
		<tag k="ssr:stedsnr" v="585104" />
	</node>
	<node id="-6822" lat="62.2638416705" lon="5.41056388468">
		<tag k="name" v="Kråkeneset" />
		<tag k="natural" v="cape" />
		<tag k="ssr:stedsnr" v="584052" />
	</node>
	<node id="-6821" lat="62.2036555599" lon="5.75512777188">
		<tag k="alt_name" v="Laupsneset" />
		<tag k="name" v="Litle-laupnes" />
		<tag k="natural" v="cape" />
		<tag k="ssr:stedsnr" v="584112" />
	</node>
	<node id="-6820" lat="62.2186833359" lon="5.722052781">
		<tag k="name" v="Botnaelva" />
		<tag k="ssr:stedsnr" v="584107" />
		<tag k="waterway" v="stream" />
	</node>
	<node id="-6819" lat="62.2280277739" lon="5.68422500414">
		<tag k="name" v="Høgestøylen" />
		<tag k="place" v="locality" />
		<tag k="ssr:stedsnr" v="584102" />
	</node>
	<node id="-6818" lat="62.2109222192" lon="5.37564999916">
		<tag k="name" v="Ytste Nonshornet" />
		<tag k="natural" v="hill" />
		<tag k="place" v="locality" />
		<tag k="ssr:stedsnr" v="583090" />
	</node>
	<node id="-6817" lat="62.1785999982" lon="5.36874444285">
		<tag k="name" v="Grunnsundholmen" />
		<tag k="place" v="islet" />
		<tag k="ssr:stedsnr" v="583086" />
	</node>
	<node id="-6816" lat="62.2182999984" lon="5.62966944722">
		<tag k="name" v="Fastinghola" />
		<tag k="natural" v="valley" />
		<tag k="place" v="locality" />
		<tag k="ssr:stedsnr" v="583052" />
	</node>
	<node id="-6815" lat="62.2065611124" lon="5.56941388427">
		<tag k="amenity" v="ferry_terminal" />
		<tag k="name" v="Larsnes ferjekai" />
		<tag k="ssr:stedsnr" v="580110" />
	</node>
	<node id="-6814" lat="62.1913805569" lon="5.3861277802">
		<tag k="name" v="Litlestabben" />
		<tag k="natural" v="shoal" />
		<tag k="place" v="locality" />
		<tag k="ssr:stedsnr" v="707751" />
	</node>
	<node id="-6813" lat="62.2167638862" lon="5.55367499632">
		<tag k="name" v="Storegjerdbukta" />
		<tag k="natural" v="bay" />
		<tag k="ssr:stedsnr" v="705972" />
	</node>
	<node id="-6812" lat="62.2648500005" lon="5.4614999993">
		<tag k="name" v="Grøte" />
		<tag k="natural" v="beach" />
		<tag k="place" v="locality" />
		<tag k="ssr:stedsnr" v="705267" />
	</node>
	<node id="-6811" lat="62.1939805577" lon="5.41258055693">
		<tag k="name" v="Røysane" />
		<tag k="natural" v="slope" />
		<tag k="place" v="locality" />
		<tag k="ssr:stedsnr" v="705259" />
	</node>
	<node id="-6810" lat="62.2717972218" lon="5.58199999414">
		<tag k="name" v="Rotemyrane" />
		<tag k="natural" v="wetland" />
		<tag k="ssr:stedsnr" v="705250" />
	</node>
	<node id="-6809" lat="62.2399527811" lon="5.703294444">
		<tag k="name" v="Koppane" />
		<tag k="natural" v="valley" />
		<tag k="place" v="locality" />
		<tag k="ssr:stedsnr" v="705248" />
	</node>
	<node id="-6808" lat="62.2586222178" lon="5.60106388506">
		<tag k="name" v="Skotet" />
		<tag k="natural" v="hill" />
		<tag k="place" v="locality" />
		<tag k="ssr:stedsnr" v="705233" />
	</node>
	<node id="-6807" lat="62.2078777744" lon="5.37420000763">
		<tag k="name" v="Storefjellet" />
		<tag k="natural" v="hill" />
		<tag k="place" v="locality" />
		<tag k="ssr:stedsnr" v="705188" />
	</node>
	<node id="-6806" lat="62.2046249976" lon="5.36428056348">
		<tag k="fixme" v="consider seamark:type=rock or natural=shoal" />
		<tag k="name" v="Olaskjeret" />
		<tag k="place" v="islet" />
		<tag k="ssr:stedsnr" v="705181" />
	</node>
	<node id="-6805" lat="62.218616666" lon="5.35895555229">
		<tag k="name" v="Eldevikholmen" />
		<tag k="place" v="islet" />
		<tag k="ssr:stedsnr" v="705175" />
	</node>
	<node id="-6804" lat="62.2159777763" lon="5.35524999921">
		<tag k="name" v="Vardane" />
		<tag k="natural" v="hill" />
		<tag k="place" v="locality" />
		<tag k="ssr:stedsnr" v="705171" />
	</node>
	<node id="-6803" lat="62.2380861123" lon="5.3467472281">
		<tag k="name" v="Langeneset" />
		<tag k="natural" v="cape" />
		<tag k="ssr:stedsnr" v="705164" />
	</node>
	<node id="-6802" lat="62.1934361125" lon="5.64967777748">
		<tag k="name" v="Djupekastet" />
		<tag k="natural" v="bay" />
		<tag k="ssr:stedsnr" v="705152" />
	</node>
	<node id="-6801" lat="62.2143138888" lon="5.63400832909">
		<tag k="name" v="Storhylla" />
		<tag k="place" v="locality" />
		<tag k="ssr:stedsnr" v="705149" />
	</node>
	<node id="-6800" lat="62.2319472206" lon="5.46117222603">
		<tag k="fixme" v="consider seamark:type=rock or natural=shoal" />
		<tag k="name" v="Nørdste Håskjeret" />
		<tag k="place" v="islet" />
		<tag k="ssr:stedsnr" v="705143" />
	</node>
	<node id="-6799" lat="62.1950138873" lon="5.60493889391">
		<tag k="name" v="Kleivahornet" />
		<tag k="natural" v="hill" />
		<tag k="place" v="locality" />
		<tag k="ssr:stedsnr" v="705136" />
	</node>
	<node id="-6798" lat="62.1973361083" lon="5.57997777574">
		<tag k="name" v="Grønevika" />
		<tag k="place" v="farm" />
		<tag k="ssr:stedsnr" v="705128" />
	</node>
	<node id="-6797" lat="62.2770388899" lon="5.59744166233">
		<tag k="fixme" v="consider natural=peak for the most distinct mountains in the district" />
		<tag k="name" v="Grøthornet" />
		<tag k="natural" v="hill" />
		<tag k="place" v="locality" />
		<tag k="ssr:stedsnr" v="705116" />
	</node>
	<node id="-6796" lat="62.2458000041" lon="5.68347499171">
		<tag k="name" v="Myrkestranda" />
		<tag k="natural" v="beach" />
		<tag k="ssr:stedsnr" v="705115" />
	</node>
	<node id="-6795" lat="62.2707333319" lon="5.56821667446">
		<tag k="name" v="Langedalen" />
		<tag k="natural" v="valley" />
		<tag k="place" v="locality" />
		<tag k="ssr:stedsnr" v="705113" />
	</node>
	<node id="-6794" lat="62.2153888878" lon="5.3854194372">
		<tag k="name" v="Oddesdalen" />
		<tag k="natural" v="valley" />
		<tag k="place" v="locality" />
		<tag k="ssr:stedsnr" v="705101" />
	</node>
	<node id="-6793" lat="62.1944722206" lon="5.4017388921">
		<tag k="name" v="Inste Klubben" />
		<tag k="natural" v="cape" />
		<tag k="ssr:stedsnr" v="705097" />
	</node>
	<node id="-6792" lat="62.1827583291" lon="5.37506111395">
		<tag k="name" v="Avløysinga" />
		<tag k="natural" v="cape" />
		<tag k="ssr:stedsnr" v="705095" />
	</node>
	<node id="-6791" lat="62.1737694482" lon="5.38653332922">
		<tag k="fixme" v="consider seamark:type=rock or natural=shoal" />
		<tag k="name" v="Nøre Torrane" />
		<tag k="place" v="islet" />
		<tag k="ssr:stedsnr" v="705090" />
	</node>
	<node id="-6790" lat="62.2572416629" lon="5.42329721993">
		<tag k="name" v="Hestejyljane" />
		<tag k="natural" v="slope" />
		<tag k="place" v="locality" />
		<tag k="ssr:stedsnr" v="705083" />
	</node>
	<node id="-6789" lat="62.1890722242" lon="5.61286945035">
		<tag k="name" v="Leiteneset" />
		<tag k="natural" v="cape" />
		<tag k="ssr:stedsnr" v="705062" />
	</node>
	<node id="-6788" lat="62.2551416684" lon="5.60605277724">
		<tag k="name" v="Vasstranddalen" />
		<tag k="natural" v="valley" />
		<tag k="place" v="locality" />
		<tag k="ssr:stedsnr" v="705032" />
	</node>
	<node id="-6787" lat="62.2524972231" lon="5.56840278014">
		<tag k="name" v="Lisbetelva" />
		<tag k="ssr:stedsnr" v="705020" />
		<tag k="waterway" v="stream" />
	</node>
	<node id="-6786" lat="62.2088111138" lon="5.66352222977">
		<tag k="name" v="Vågshammaren" />
		<tag k="natural" v="cliff" />
		<tag k="ssr:stedsnr" v="704055" />
	</node>
	<node id="-6785" lat="62.2061999971" lon="5.67901944913">
		<tag k="name" v="Ramsetunga" />
		<tag k="natural" v="ridge" />
		<tag k="place" v="locality" />
		<tag k="ssr:stedsnr" v="704051" />
	</node>
	<node id="-6784" lat="62.2525027752" lon="5.53052778322">
		<tag k="name" v="Bremmerstøda" />
		<tag k="natural" v="bay" />
		<tag k="ssr:stedsnr" v="704041" />
	</node>
	<node id="-6783" lat="62.2699944472" lon="5.42639443933">
		<tag k="name" v="Sandholmen" />
		<tag k="place" v="islet" />
		<tag k="ssr:stedsnr" v="556569" />
	</node>
	<node id="-6782" lat="62.2766638904" lon="5.56312221602">
		<tag k="name" v="Hidsdalen" />
		<tag k="natural" v="valley" />
		<tag k="place" v="locality" />
		<tag k="ssr:stedsnr" v="556563" />
	</node>
	<node id="-6781" lat="62.2664194419" lon="5.45415833087">
		<tag k="name" v="Dreivika" />
		<tag k="natural" v="bay" />
		<tag k="ssr:stedsnr" v="556562" />
	</node>
	<node id="-6780" lat="62.2572277737" lon="5.33663333782">
		<tag k="alt_name" v="Rimøyflua" />
		<tag k="name" v="Remøyfluda" />
		<tag k="natural" v="shoal" />
		<tag k="place" v="locality" />
		<tag k="ssr:stedsnr" v="556552" />
	</node>
	<node id="-6779" lat="62.2423361081" lon="5.59500832546">
		<tag k="name" v="Haugshornet" />
		<tag k="natural" v="hill" />
		<tag k="place" v="locality" />
		<tag k="ssr:stedsnr" v="556626" />
	</node>
	<node id="-6778" lat="62.2199694444" lon="5.55271665989">
		<tag k="alt_name" v="Halle, indre" />
		<tag k="name" v="Indre Halle" />
		<tag k="place" v="farm" />
		<tag k="ssr:stedsnr" v="556614" />
	</node>
	<node id="-6777" lat="62.2220456393" lon="5.70991206577">
		<tag k="fixme" v="consider place=hamlet" />
		<tag k="name" v="Skoge" />
		<tag k="place" v="farm" />
		<tag k="ssr:stedsnr" v="556613" />
	</node>
	<node id="-6776" lat="62.2241959186" lon="5.69343670415">
		<tag k="fixme" v="consider place=hamlet" />
		<tag k="name" v="Brekke" />
		<tag k="place" v="farm" />
		<tag k="ssr:stedsnr" v="556611" />
	</node>
	<node id="-6775" lat="62.2092027774" lon="5.76300000885">
		<tag k="alt_name" v="Laupen" />
		<tag k="name" v="Laupsnipa" />
		<tag k="natural" v="hill" />
		<tag k="place" v="locality" />
		<tag k="ssr:stedsnr" v="556074" />
	</node>
	<node id="-6774" lat="62.2368111114" lon="5.48015833094">
		<tag k="name" v="Kledevika" />
		<tag k="natural" v="bay" />
		<tag k="ssr:stedsnr" v="537420" />
	</node>
	<node id="-6773" lat="62.2049694416" lon="5.46836111093">
		<tag k="name" v="Kyrholmfluda" />
		<tag k="natural" v="shoal" />
		<tag k="place" v="locality" />
		<tag k="ssr:stedsnr" v="537413" />
	</node>
	<node id="-6772" lat="62.2351694476" lon="5.49236944608">
		<tag k="name" v="Voreholmane" />
		<tag k="place" v="islet" />
		<tag k="ssr:stedsnr" v="526807" />
	</node>
	<node id="-6771" lat="62.25831389" lon="5.44810278225">
		<tag k="name" v="Kvernaelva" />
		<tag k="ssr:stedsnr" v="523200" />
		<tag k="waterway" v="stream" />
	</node>
	<node id="-6770" lat="62.2464694403" lon="5.48100834091">
		<tag k="name" v="Straumsneset" />
		<tag k="natural" v="cape" />
		<tag k="ssr:stedsnr" v="523199" />
	</node>
	<node id="-6769" lat="62.258105555" lon="5.47854721658">
		<tag k="name" v="Omnfjellet" />
		<tag k="natural" v="hill" />
		<tag k="place" v="locality" />
		<tag k="ssr:stedsnr" v="523191" />
	</node>
	<node id="-6768" lat="62.2367194414" lon="5.46256111786">
		<tag k="name" v="Hamnaholmen" />
		<tag k="place" v="islet" />
		<tag k="ssr:stedsnr" v="523186" />
	</node>
	<node id="-6767" lat="62.205213892" lon="5.36130832535">
		<tag k="fixme" v="consider seamark:type=rock or natural=shoal" />
		<tag k="name" v="Krabbeskjeret" />
		<tag k="place" v="islet" />
		<tag k="ssr:stedsnr" v="523179" />
	</node>
	<node id="-6766" lat="62.2310000012" lon="5.6933750023">
		<tag k="name" v="Raudegrøtet" />
		<tag k="place" v="locality" />
		<tag k="ssr:stedsnr" v="523158" />
	</node>
	<node id="-6765" lat="62.227644447" lon="5.73436943923">
		<tag k="name" v="Hjellknollen" />
		<tag k="natural" v="hill" />
		<tag k="place" v="locality" />
		<tag k="ssr:stedsnr" v="523155" />
	</node>
	<node id="-6764" lat="62.2162861091" lon="5.68794721658">
		<tag k="name" v="Halsane" />
		<tag k="natural" v="ridge" />
		<tag k="place" v="locality" />
		<tag k="ssr:stedsnr" v="523216" />
	</node>
	<node id="-6763" lat="62.22832222" lon="5.47688611144">
		<tag k="name" v="Kalven" />
		<tag k="place" v="islet" />
		<tag k="ssr:stedsnr" v="523215" />
	</node>
	<node id="-6762" lat="62.2469111079" lon="5.44878888885">
		<tag k="name" v="Skora" />
		<tag k="natural" v="valley" />
		<tag k="place" v="locality" />
		<tag k="ssr:stedsnr" v="523214" />
	</node>
	<node id="-6761" lat="62.2621750036" lon="5.47268333335">
		<tag k="fixme" v="consider natural=peak for the most distinct mountains in the district" />
		<tag k="name" v="Hornet" />
		<tag k="natural" v="hill" />
		<tag k="place" v="locality" />
		<tag k="ssr:stedsnr" v="496531" />
	</node>
	<node id="-6760" lat="62.2600944461" lon="5.41399722748">
		<tag k="name" v="Vågane" />
		<tag k="place" v="farm" />
		<tag k="ssr:stedsnr" v="496529" />
	</node>
	<node id="-6759" lat="62.1778972229" lon="5.376758337">
		<tag k="alt_name" v="Frekøy austre;Frekøy, østre" />
		<tag k="name" v="Østre Frekøy" />
		<tag k="place" v="islet" />
		<tag k="ssr:stedsnr" v="496523" />
	</node>
	<node id="-6758" lat="62.2014559197" lon="5.5864909846">
		<tag k="fixme" v="consider place=hamlet" />
		<tag k="name" v="Kvalen" />
		<tag k="place" v="farm" />
		<tag k="ssr:stedsnr" v="678546" />
	</node>
	<node id="-6757" lat="62.2851694433" lon="5.44693611855">
		<tag k="name" v="Flesene" />
		<tag k="natural" v="shoal" />
		<tag k="place" v="locality" />
		<tag k="ssr:stedsnr" v="678545" />
	</node>
	<node id="-6756" lat="62.2080337355" lon="5.56819610638">
		<tag k="fixme" v="consider place=hamlet" />
		<tag k="name" v="Larsnes" />
		<tag k="place" v="farm" />
		<tag k="ssr:stedsnr" v="678542" />
	</node>
	<node id="-6755" lat="62.1935583314" lon="5.38207500248">
		<tag k="alt_name" v="Litleholmane" />
		<tag k="name" v="Litleholmen" />
		<tag k="place" v="islet" />
		<tag k="ssr:stedsnr" v="678539" />
	</node>
	<node id="-6754" lat="62.2136756605" lon="5.67978416645">
		<tag k="fixme" v="consider place=hamlet" />
		<tag k="name" v="Almestad" />
		<tag k="place" v="farm" />
		<tag k="ssr:stedsnr" v="678536" />
	</node>
	<node id="-6753" lat="62.2147194464" lon="5.6475083288">
		<tag k="name" v="Gamlesætra" />
		<tag k="place" v="farm" />
		<tag k="ssr:stedsnr" v="678529" />
	</node>
	<node id="-6752" lat="62.2233777778" lon="5.46193055432">
		<tag k="name" v="Sigholmen" />
		<tag k="place" v="islet" />
		<tag k="ssr:stedsnr" v="678622" />
	</node>
	<node id="-6751" lat="62.2348081081" lon="5.58533039005">
		<tag k="alt_name" v="Hauge, in;Hauge" />
		<tag k="name" v="Indre Hauge" />
		<tag k="place" v="farm" />
		<tag k="ssr:stedsnr" v="678594" />
	</node>
	<node id="-6750" lat="62.2291249956" lon="5.37448054978">
		<tag k="name" v="Risteholmen" />
		<tag k="place" v="islet" />
		<tag k="ssr:stedsnr" v="678585" />
	</node>
	<node id="-6749" lat="62.2024784834" lon="5.38252172747">
		<tag k="fixme" v="consider place=hamlet" />
		<tag k="name" v="Støylen" />
		<tag k="place" v="farm" />
		<tag k="ssr:stedsnr" v="678584" />
	</node>
	<node id="-6748" lat="62.2110861138" lon="5.47322500541">
		<tag k="alt_name" v="Bauteholmen" />
		<tag k="name" v="Bautholmen" />
		<tag k="place" v="islet" />
		<tag k="ssr:stedsnr" v="678580" />
	</node>
	<node id="-6747" lat="62.203218231" lon="5.72810141982">
		<tag k="alt_name" v="Skrede" />
		<tag k="name" v="Indre Skrede" />
		<tag k="place" v="farm" />
		<tag k="ssr:stedsnr" v="678089" />
	</node>
	<node id="-6746" lat="62.2686222261" lon="5.38585000086">
		<tag k="name" v="Kåsgrunnene" />
		<tag k="natural" v="shoal" />
		<tag k="place" v="locality" />
		<tag k="ssr:stedsnr" v="477617" />
	</node>
	<node id="-6745" lat="62.2578361135" lon="5.58431666439">
		<tag k="name" v="Gjerdsvika" />
		<tag k="place" v="hamlet" />
		<tag k="ssr:stedsnr" v="476574" />
	</node>
	<node id="-6744" lat="62.2267972197" lon="5.64004722427">
		<tag k="name" v="Sætre" />
		<tag k="place" v="quarter" />
		<tag k="ssr:stedsnr" v="464124" />
	</node>
	<node id="-6743" lat="62.2208166654" lon="5.6472583392">
		<tag k="name" v="Vågsneset" />
		<tag k="natural" v="cape" />
		<tag k="ssr:stedsnr" v="464113" />
	</node>
	<node id="-6742" lat="62.199072224" lon="5.36071944799">
		<tag k="fixme" v="consider seamark:type=rock or natural=shoal" />
		<tag k="name" v="Notaskjera" />
		<tag k="place" v="islet" />
		<tag k="ssr:stedsnr" v="463049" />
	</node>
	<node id="-6741" lat="62.2475555536" lon="5.41006666287">
		<tag k="name" v="Trødavika" />
		<tag k="natural" v="bay" />
		<tag k="ssr:stedsnr" v="463044" />
	</node>
	<node id="-6740" lat="62.2323777811" lon="5.67757222298">
		<tag k="name" v="Svinevasselva" />
		<tag k="ssr:stedsnr" v="463012" />
		<tag k="waterway" v="stream" />
	</node>
	<node id="-6739" lat="62.2279416626" lon="5.67318889284">
		<tag k="name" v="Furenakken" />
		<tag k="natural" v="hill" />
		<tag k="place" v="locality" />
		<tag k="ssr:stedsnr" v="463010" />
	</node>
	<node id="-6738" lat="62.2453194414" lon="5.5805166687">
		<tag k="name" v="Hanevatnet" />
		<tag k="natural" v="water" />
		<tag k="ssr:stedsnr" v="463009" />
	</node>
	<node id="-6737" lat="62.2278305541" lon="5.64551944145">
		<tag k="name" v="Sæsselva" />
		<tag k="ssr:stedsnr" v="463003" />
		<tag k="waterway" v="stream" />
	</node>
	<node id="-6736" lat="62.2397333319" lon="5.33022499282">
		<tag k="name" v="Svarteskjerfluda" />
		<tag k="natural" v="shoal" />
		<tag k="place" v="locality" />
		<tag k="ssr:stedsnr" v="659544" />
	</node>
	<node id="-6735" lat="62.1927888885" lon="5.55341388029">
		<tag k="name" v="Kropperevet" />
		<tag k="natural" v="shoal" />
		<tag k="place" v="locality" />
		<tag k="ssr:stedsnr" v="658438" />
	</node>
	<node id="-6734" lat="62.2631166658" lon="5.49168055344">
		<tag k="name" v="Kleiveboden" />
		<tag k="natural" v="shoal" />
		<tag k="place" v="locality" />
		<tag k="ssr:stedsnr" v="658421" />
	</node>
	<node id="-6733" lat="62.2057888882" lon="5.391080559">
		<tag k="name" v="Kvamsøya" />
		<tag k="place" v="island" />
		<tag k="ssr:stedsnr" v="436552" />
	</node>
	<node id="-6731" lat="62.2672777814" lon="5.55303889114">
		<tag k="fixme" v="consider seamark:type=rock or natural=shoal" />
		<tag k="name" v="Holeskjeret" />
		<tag k="place" v="islet" />
		<tag k="ssr:stedsnr" v="400053" />
	</node>
	<node id="-6730" lat="62.2057611118" lon="5.58780276942">
		<tag k="name" v="Sollihøgda" />
		<tag k="natural" v="hill" />
		<tag k="place" v="locality" />
		<tag k="ssr:stedsnr" v="400005" />
	</node>
	<node id="-6729" lat="62.2427916683" lon="5.5653916707">
		<tag k="name" v="Blåsvædet" />
		<tag k="natural" v="slope" />
		<tag k="place" v="locality" />
		<tag k="ssr:stedsnr" v="400004" />
	</node>
	<node id="-6728" lat="62.1999611098" lon="5.70718610969">
		<tag k="name" v="Slokevågen" />
		<tag k="natural" v="bay" />
		<tag k="ssr:stedsnr" v="394161" />
	</node>
	<node id="-6727" lat="62.2503694434" lon="5.39065833646">
		<tag k="alt_name" v="Djupeflua" />
		<tag k="name" v="Djupefluda" />
		<tag k="natural" v="shoal" />
		<tag k="place" v="locality" />
		<tag k="ssr:stedsnr" v="375659" />
	</node>
	<node id="-6726" lat="62.2158027819" lon="5.58989721912">
		<tag k="name" v="Drageskaret" />
		<tag k="natural" v="valley" />
		<tag k="place" v="locality" />
		<tag k="ssr:stedsnr" v="374561" />
	</node>
	<node id="-6725" lat="62.2243888859" lon="5.60073055085">
		<tag k="name" v="Kråkereidet" />
		<tag k="natural" v="hill" />
		<tag k="place" v="locality" />
		<tag k="ssr:stedsnr" v="374560" />
	</node>
	<node id="-6724" lat="62.2228333356" lon="5.41830833541">
		<tag k="fixme" v="consider seamark:type=rock or natural=shoal" />
		<tag k="name" v="Svarteskjera" />
		<tag k="place" v="islet" />
		<tag k="ssr:stedsnr" v="374606" />
	</node>
	<node id="-6723" lat="62.1730900581" lon="5.39550718922">
		<tag k="name" v="Haugsholmen" />
		<tag k="place" v="islet" />
		<tag k="ssr:stedsnr" v="374503" />
	</node>
	<node id="-6722" lat="62.2275416667" lon="5.38846110422">
		<tag k="name" v="Ristesundet" />
		<tag k="natural" v="strait" />
		<tag k="ssr:stedsnr" v="496621" />
	</node>
	<node id="-6721" lat="62.2346666637" lon="5.39712221301">
		<tag k="name" v="Midtfjordfludene" />
		<tag k="natural" v="shoal" />
		<tag k="place" v="locality" />
		<tag k="ssr:stedsnr" v="496619" />
	</node>
	<node id="-6720" lat="62.2368626819" lon="5.57847361473">
		<tag k="alt_name" v="Hauge, yt" />
		<tag k="fixme" v="consider place=hamlet" />
		<tag k="name" v="Ytre Hauge" />
		<tag k="place" v="farm" />
		<tag k="ssr:stedsnr" v="496616" />
	</node>
	<node id="-6719" lat="62.30357222" lon="5.32848054805">
		<tag k="name" v="Medhaugnabben" />
		<tag k="natural" v="shoal" />
		<tag k="place" v="locality" />
		<tag k="ssr:stedsnr" v="496590" />
	</node>
	<node id="-6718" lat="62.1979388915" lon="5.59023888037">
		<tag k="name" v="Dalevatnet" />
		<tag k="natural" v="water" />
		<tag k="ssr:stedsnr" v="496572" />
	</node>
	<node id="-6717" lat="62.2883777743" lon="5.41346388516">
		<tag k="name" v="Hoven" />
		<tag k="natural" v="shoal" />
		<tag k="place" v="locality" />
		<tag k="ssr:stedsnr" v="496569" />
	</node>
	<node id="-6716" lat="62.2670027781" lon="5.46467777483">
		<tag k="name" v="Kvitebergholmen" />
		<tag k="place" v="islet" />
		<tag k="ssr:stedsnr" v="496545" />
	</node>
	<node id="-6715" lat="62.216180557" lon="5.7346111041">
		<tag k="alt_name" v="Skogedalen" />
		<tag k="name" v="Skogadalen" />
		<tag k="natural" v="valley" />
		<tag k="place" v="locality" />
		<tag k="ssr:stedsnr" v="496066" />
	</node>
	<node id="-6714" lat="62.2443572538" lon="5.4309041274">
		<tag k="fixme" v="consider place=hamlet" />
		<tag k="name" v="Kinna" />
		<tag k="place" v="farm" />
		<tag k="ssr:stedsnr" v="495645" />
	</node>
	<node id="-6713" lat="62.1919616689" lon="5.63180952274">
		<tag k="fixme" v="consider place=hamlet" />
		<tag k="name" v="Årvika" />
		<tag k="place" v="farm" />
		<tag k="ssr:stedsnr" v="495488" />
	</node>
	<node id="-6712" lat="62.3279388922" lon="5.18479167549">
		<tag k="name" v="Alseggja" />
		<tag k="natural" v="shoal" />
		<tag k="place" v="locality" />
		<tag k="ssr:stedsnr" v="481822" />
	</node>
	<node id="-6711" lat="62.1874361086" lon="5.36721387994">
		<tag k="name" v="Stabben" />
		<tag k="natural" v="shoal" />
		<tag k="place" v="locality" />
		<tag k="ssr:stedsnr" v="477430" />
	</node>
	<node id="-6710" lat="62.1845444401" lon="5.60634444818">
		<tag k="name" v="Saudeholmen" />
		<tag k="place" v="islet" />
		<tag k="ssr:stedsnr" v="324311" />
	</node>
	<node id="-6709" lat="62.2046222246" lon="5.55810555689">
		<tag k="name" v="Litlefluda" />
		<tag k="natural" v="shoal" />
		<tag k="place" v="locality" />
		<tag k="ssr:stedsnr" v="476584" />
	</node>
	<node id="-6708" lat="62.2260277738" lon="5.6062277759">
		<tag k="name" v="Storskar" />
		<tag k="place" v="isolated_dwelling" />
		<tag k="ssr:stedsnr" v="476582" />
	</node>
	<node id="-6707" lat="62.190638889" lon="5.637430551">
		<tag k="name" v="Årvikskallen" />
		<tag k="natural" v="shoal" />
		<tag k="place" v="locality" />
		<tag k="ssr:stedsnr" v="476436" />
	</node>
	<node id="-6706" lat="62.2716916628" lon="5.42111944401">
		<tag k="alt_name" v="Djupeflua" />
		<tag k="name" v="Djupefluda" />
		<tag k="natural" v="shoal" />
		<tag k="place" v="locality" />
		<tag k="ssr:stedsnr" v="314555" />
	</node>
	<node id="-6705" lat="62.242500004" lon="5.44466110849">
		<tag k="name" v="Haukhammaren" />
		<tag k="place" v="locality" />
		<tag k="ssr:stedsnr" v="463149" />
	</node>
	<node id="-6704" lat="62.1879388933" lon="5.60084722879">
		<tag k="name" v="Klubbem" />
		<tag k="natural" v="cape" />
		<tag k="ssr:stedsnr" v="462255" />
	</node>
	<node id="-6703" lat="62.1978333302" lon="5.40831387998">
		<tag k="name" v="Myrdalen" />
		<tag k="natural" v="valley" />
		<tag k="place" v="locality" />
		<tag k="ssr:stedsnr" v="462251" />
	</node>
	<node id="-6702" lat="62.1710611099" lon="5.39245833426">
		<tag k="name" v="Fjøsvika" />
		<tag k="natural" v="bay" />
		<tag k="ssr:stedsnr" v="462235" />
	</node>
	<node id="-6701" lat="62.2554333362" lon="5.4192527847">
		<tag k="name" v="Signalen" />
		<tag k="natural" v="hill" />
		<tag k="place" v="locality" />
		<tag k="ssr:stedsnr" v="462233" />
	</node>
	<node id="-6700" lat="62.2222166652" lon="5.66538332599">
		<tag k="name" v="Bøen" />
		<tag k="place" v="farm" />
		<tag k="ssr:stedsnr" v="462194" />
	</node>
	<node id="-6699" lat="62.2584194471" lon="5.45745555336">
		<tag k="name" v="Arehaugen" />
		<tag k="natural" v="hill" />
		<tag k="place" v="locality" />
		<tag k="ssr:stedsnr" v="462187" />
	</node>
	<node id="-6698" lat="62.2664222211" lon="5.44608055865">
		<tag k="name" v="Nyhamna" />
		<tag k="natural" v="bay" />
		<tag k="ssr:stedsnr" v="462169" />
	</node>
	<node id="-6697" lat="62.2760305534" lon="5.55553889563">
		<tag k="name" v="Hidselva" />
		<tag k="ssr:stedsnr" v="462165" />
		<tag k="waterway" v="river" />
	</node>
	<node id="-6696" lat="62.2420555563" lon="5.45910278071">
		<tag k="name" v="Støylemyrane" />
		<tag k="natural" v="wetland" />
		<tag k="ssr:stedsnr" v="462147" />
	</node>
	<node id="-6695" lat="62.2294444437" lon="5.3864666691">
		<tag k="fixme" v="consider seamark:type=rock or natural=shoal" />
		<tag k="name" v="Litleskjeret" />
		<tag k="place" v="islet" />
		<tag k="ssr:stedsnr" v="462138" />
	</node>
	<node id="-6694" lat="62.2417305521" lon="5.4290194442">
		<tag k="fixme" v="consider seamark:type=rock or natural=shoal" />
		<tag k="name" v="Kinnaskjera" />
		<tag k="place" v="islet" />
		<tag k="ssr:stedsnr" v="462135" />
	</node>
	<node id="-6693" lat="62.2195583296" lon="5.44986667414">
		<tag k="name" v="Flødeberga" />
		<tag k="natural" v="ridge" />
		<tag k="place" v="locality" />
		<tag k="ssr:stedsnr" v="462118" />
	</node>
	<node id="-6692" lat="62.2126083334" lon="5.45686110948">
		<tag k="name" v="Tiggerberget" />
		<tag k="natural" v="cape" />
		<tag k="ssr:stedsnr" v="462109" />
	</node>
	<node id="-6691" lat="62.1934222191" lon="5.58225276995">
		<tag k="name" v="Breivikneset" />
		<tag k="natural" v="cape" />
		<tag k="ssr:stedsnr" v="462055" />
	</node>
	<node id="-6690" lat="62.2721944442" lon="5.55658610219">
		<tag k="name" v="Holenakken" />
		<tag k="natural" v="hill" />
		<tag k="place" v="locality" />
		<tag k="ssr:stedsnr" v="461037" />
	</node>
	<node id="-6689" lat="62.227075002" lon="5.53129165958">
		<tag k="name" v="Hammarvika" />
		<tag k="natural" v="bay" />
		<tag k="ssr:stedsnr" v="461034" />
	</node>
	<node id="-6688" lat="62.2031472177" lon="5.60748054801">
		<tag k="name" v="Sandmyrane" />
		<tag k="natural" v="wetland" />
		<tag k="ssr:stedsnr" v="461003" />
	</node>
	<node id="-6687" lat="62.22627778" lon="5.72626944809">
		<tag k="name" v="Leitet" />
		<tag k="place" v="locality" />
		<tag k="ssr:stedsnr" v="281249" />
	</node>
	<node id="-6686" lat="62.2005694456" lon="5.71432778582">
		<tag k="name" v="Slokevågen" />
		<tag k="natural" v="bay" />
		<tag k="ssr:stedsnr" v="281247" />
	</node>
	<node id="-6685" lat="62.2061138884" lon="5.56461388187">
		<tag k="name" v="Skitnevika" />
		<tag k="natural" v="bay" />
		<tag k="ssr:stedsnr" v="281244" />
	</node>
	<node id="-6684" lat="62.2311194454" lon="5.4611333386">
		<tag k="name" v="Kyrkjeleida" />
		<tag k="place" v="locality" />
		<tag k="ssr:stedsnr" v="281119" />
	</node>
	<node id="-6683" lat="62.2092055593" lon="5.46758889193">
		<tag k="name" v="Kyrholmsundet" />
		<tag k="natural" v="strait" />
		<tag k="ssr:stedsnr" v="281110" />
	</node>
	<node id="-6682" lat="62.2565083323" lon="5.53929444792">
		<tag k="name" v="Svartehammaren" />
		<tag k="natural" v="cliff" />
		<tag k="ssr:stedsnr" v="279027" />
	</node>
	<node id="-6681" lat="62.2568416637" lon="5.53064166537">
		<tag k="name" v="Saurskastet" />
		<tag k="natural" v="bay" />
		<tag k="ssr:stedsnr" v="279026" />
	</node>
	<node id="-6680" lat="62.2023361115" lon="5.61332223161">
		<tag k="name" v="Dale-elva" />
		<tag k="ssr:stedsnr" v="279006" />
		<tag k="waterway" v="stream" />
	</node>
	<node id="-6679" lat="62.234141663" lon="5.58128611758">
		<tag k="fixme" v="consider seamark:type=rock or natural=shoal" />
		<tag k="name" v="Storeskjeret" />
		<tag k="place" v="islet" />
		<tag k="ssr:stedsnr" v="279004" />
	</node>
	<node id="-6678" lat="62.2670277791" lon="5.47345833884">
		<tag k="name" v="Langedrogneset" />
		<tag k="natural" v="cape" />
		<tag k="ssr:stedsnr" v="463093" />
	</node>
	<node id="-6677" lat="62.2172027797" lon="5.69437500287">
		<tag k="name" v="Vassvikane" />
		<tag k="natural" v="bay" />
		<tag k="ssr:stedsnr" v="463076" />
	</node>
	<node id="-6676" lat="62.272394441" lon="5.5604249979">
		<tag k="name" v="Bjønndalen" />
		<tag k="natural" v="valley" />
		<tag k="place" v="locality" />
		<tag k="ssr:stedsnr" v="463066" />
	</node>
	<node id="-6675" lat="62.215230552" lon="5.38906666794">
		<tag k="name" v="Høgenausen" />
		<tag k="natural" v="hill" />
		<tag k="place" v="locality" />
		<tag k="ssr:stedsnr" v="463061" />
	</node>
	<node id="-6674" lat="62.2076805529" lon="5.39073332459">
		<tag k="name" v="Blautemyrane" />
		<tag k="natural" v="wetland" />
		<tag k="ssr:stedsnr" v="463060" />
	</node>
	<node id="-6673" lat="62.2443305559" lon="5.65332778381">
		<tag k="fixme" v="consider natural=peak for the most distinct mountains in the district" />
		<tag k="name" v="Slettebrunene" />
		<tag k="natural" v="hill" />
		<tag k="place" v="locality" />
		<tag k="ssr:stedsnr" v="220107" />
	</node>
	<node id="-6672" lat="62.2216444437" lon="5.64913333864">
		<tag k="name" v="Myklebustosen" />
		<tag k="natural" v="bay" />
		<tag k="ssr:stedsnr" v="219059" />
	</node>
	<node id="-6671" lat="62.2175062847" lon="5.37128569213">
		<tag k="landuse" v="harbour" />
		<tag k="name" v="Hamnene" />
		<tag k="seamark:type" v="harbour" />
		<tag k="ssr:stedsnr" v="295550" />
	</node>
	<node id="-6670" lat="62.291574999" lon="5.48280834161">
		<tag k="name" v="Leirbodgrunnen" />
		<tag k="natural" v="shoal" />
		<tag k="place" v="locality" />
		<tag k="ssr:stedsnr" v="294713" />
	</node>
	<node id="-6669" lat="62.2351694476" lon="5.49236944608">
		<tag k="name" v="Voreneset" />
		<tag k="natural" v="cape" />
		<tag k="ssr:stedsnr" v="294439" />
	</node>
	<node id="-6668" lat="62.2721555599" lon="5.44467222728">
		<tag k="name" v="Hella" />
		<tag k="natural" v="shoal" />
		<tag k="place" v="locality" />
		<tag k="ssr:stedsnr" v="294432" />
	</node>
	<node id="-6667" lat="62.17260556" lon="5.39081111277">
		<tag k="name" v="Kletten" />
		<tag k="natural" v="hill" />
		<tag k="place" v="locality" />
		<tag k="ssr:stedsnr" v="294431" />
	</node>
	<node id="-6666" lat="62.2061897757" lon="5.36815973564">
		<tag k="fixme" v="consider place=hamlet" />
		<tag k="name" v="Kvamme" />
		<tag k="place" v="farm" />
		<tag k="ssr:stedsnr" v="193602" />
	</node>
	<node id="-6665" lat="62.2627972199" lon="5.40420833101">
		<tag k="alt_name" v="Grøtbudskjera" />
		<tag k="fixme" v="consider seamark:type=rock or natural=shoal" />
		<tag k="name" v="Grøtbuskjera" />
		<tag k="place" v="islet" />
		<tag k="ssr:stedsnr" v="193528" />
	</node>
	<node id="-6664" lat="62.2562624847" lon="5.47395882558">
		<tag k="alt_name" v="Sandsbakk;Sandebakken" />
		<tag k="fixme" v="consider place=hamlet" />
		<tag k="name" v="Sandsbakken" />
		<tag k="place" v="farm" />
		<tag k="ssr:stedsnr" v="193523" />
	</node>
	<node id="-6663" lat="62.2557083356" lon="5.45341389152">
		<tag k="name" v="Vågen" />
		<tag k="natural" v="bay" />
		<tag k="ssr:stedsnr" v="193516" />
	</node>
	<node id="-6662" lat="62.2315944455" lon="5.47651110478">
		<tag k="alt_name" v="Tretteskjeret;Tretteskjera" />
		<tag k="name" v="Trettholmane" />
		<tag k="place" v="islet" />
		<tag k="ssr:stedsnr" v="192635" />
	</node>
	<node id="-6661" lat="62.2086444462" lon="5.63810278136">
		<tag k="name" v="Gurskøya" />
		<tag k="place" v="island" />
		<tag k="ssr:stedsnr" v="192633" />
	</node>
	<node id="-6660" lat="62.2482500011" lon="5.4904999904">
		<tag k="name" v="Gildrane" />
		<tag k="place" v="islet" />
		<tag k="ssr:stedsnr" v="192626" />
	</node>
	<node id="-6659" lat="62.2450305538" lon="5.56792500223">
		<tag k="alt_name" v="Egga" />
		<tag k="name" v="Saursegga" />
		<tag k="natural" v="hill" />
		<tag k="place" v="locality" />
		<tag k="ssr:stedsnr" v="192625" />
	</node>
	<node id="-6658" lat="62.2474861124" lon="5.65219166122">
		<tag k="name" v="Meldalen" />
		<tag k="natural" v="valley" />
		<tag k="place" v="locality" />
		<tag k="ssr:stedsnr" v="192621" />
	</node>
	<node id="-6657" lat="62.2206472216" lon="5.54380277375">
		<tag k="fixme" v="consider place=hamlet" />
		<tag k="name" v="Hallebygda" />
		<tag k="place" v="village" />
		<tag k="ssr:stedsnr" v="291528" />
	</node>
	<node id="-6655" lat="62.2626694428" lon="5.32178334235">
		<tag k="name" v="Skjeggefluda" />
		<tag k="natural" v="shoal" />
		<tag k="place" v="locality" />
		<tag k="ssr:stedsnr" v="174562" />
	</node>
	<node id="-6654" lat="62.1965055516" lon="5.68209445201">
		<tag k="name" v="Oksavikneset" />
		<tag k="natural" v="cape" />
		<tag k="ssr:stedsnr" v="173404" />
	</node>
	<node id="-6653" lat="62.2418416682" lon="5.43313332707">
		<tag k="fixme" v="consider seamark:type=rock or natural=shoal" />
		<tag k="name" v="Måseskjeret" />
		<tag k="place" v="islet" />
		<tag k="ssr:stedsnr" v="281191" />
	</node>
	<node id="-6652" lat="62.2126861132" lon="5.36894722344">
		<tag k="name" v="Nonshornmyrane" />
		<tag k="natural" v="wetland" />
		<tag k="ssr:stedsnr" v="281162" />
	</node>
	<node id="-6651" lat="62.2352111079" lon="5.34058332725">
		<tag k="fixme" v="consider seamark:type=rock or natural=shoal" />
		<tag k="name" v="Krokfluda" />
		<tag k="place" v="islet" />
		<tag k="ssr:stedsnr" v="281151" />
	</node>
	<node id="-6650" lat="62.1890361084" lon="5.59358332905">
		<tag k="name" v="Klasneset" />
		<tag k="natural" v="cape" />
		<tag k="ssr:stedsnr" v="281101" />
	</node>
	<node id="-6649" lat="62.2674333355" lon="5.42071945123">
		<tag k="name" v="Skipsberget" />
		<tag k="natural" v="cape" />
		<tag k="ssr:stedsnr" v="281098" />
	</node>
	<node id="-6648" lat="62.2103750021" lon="5.72156110686">
		<tag k="name" v="Litlevasshornet" />
		<tag k="natural" v="hill" />
		<tag k="place" v="locality" />
		<tag k="ssr:stedsnr" v="281085" />
	</node>
	<node id="-6647" lat="62.2077611142" lon="5.71201944089">
		<tag k="name" v="Litledjupdalen" />
		<tag k="natural" v="valley" />
		<tag k="place" v="locality" />
		<tag k="ssr:stedsnr" v="281083" />
	</node>
	<node id="-6646" lat="62.2441805554" lon="5.68391665929">
		<tag k="name" v="Litlerinden" />
		<tag k="natural" v="slope" />
		<tag k="place" v="locality" />
		<tag k="ssr:stedsnr" v="281076" />
	</node>
	<node id="-6645" lat="62.2592722249" lon="5.65170833124">
		<tag k="name" v="Litledalshornet" />
		<tag k="natural" v="hill" />
		<tag k="place" v="locality" />
		<tag k="ssr:stedsnr" v="281074" />
	</node>
	<node id="-6644" lat="62.203647223" lon="5.38772222464">
		<tag k="name" v="Lægdehola" />
		<tag k="natural" v="valley" />
		<tag k="place" v="locality" />
		<tag k="ssr:stedsnr" v="281071" />
	</node>
	<node id="-6643" lat="62.2061249987" lon="5.38338054989">
		<tag k="name" v="Ørnehaugane" />
		<tag k="natural" v="hill" />
		<tag k="place" v="locality" />
		<tag k="ssr:stedsnr" v="281065" />
	</node>
	<node id="-6642" lat="62.1881333357" lon="5.38438610822">
		<tag k="name" v="Brynevika" />
		<tag k="natural" v="bay" />
		<tag k="ssr:stedsnr" v="281058" />
	</node>
	<node id="-6641" lat="62.1774527765" lon="5.3999611169">
		<tag k="fixme" v="consider seamark:type=rock or natural=shoal" />
		<tag k="name" v="Terneskjeret" />
		<tag k="place" v="islet" />
		<tag k="ssr:stedsnr" v="281055" />
	</node>
	<node id="-6640" lat="62.2623833365" lon="5.62236943529">
		<tag k="name" v="Bogen" />
		<tag k="natural" v="bay" />
		<tag k="ssr:stedsnr" v="281017" />
	</node>
	<node id="-6639" lat="62.2269888864" lon="5.56531388477">
		<tag k="alt_name" v="Legehammaren" />
		<tag k="name" v="Legeklubben" />
		<tag k="natural" v="cape" />
		<tag k="ssr:stedsnr" v="281007" />
	</node>
	<node id="-6638" lat="62.2154666669" lon="5.70356111844">
		<tag k="name" v="Vasstranda" />
		<tag k="natural" v="beach" />
		<tag k="ssr:stedsnr" v="280982" />
	</node>
	<node id="-6637" lat="62.2656333332" lon="5.57127500744">
		<tag k="name" v="Bakketun" />
		<tag k="natural" v="slope" />
		<tag k="place" v="locality" />
		<tag k="ssr:stedsnr" v="280249" />
	</node>
	<node id="-6636" lat="62.231269441" lon="5.38259166295">
		<tag k="fixme" v="consider seamark:type=rock or natural=shoal" />
		<tag k="name" v="Rekene" />
		<tag k="place" v="islet" />
		<tag k="ssr:stedsnr" v="280245" />
	</node>
	<node id="-6635" lat="62.2270972205" lon="5.54649722616">
		<tag k="name" v="Myrane" />
		<tag k="natural" v="wetland" />
		<tag k="ssr:stedsnr" v="280240" />
	</node>
	<node id="-6634" lat="62.268355558" lon="5.39799167217">
		<tag k="fixme" v="consider seamark:type=rock or natural=shoal" />
		<tag k="name" v="Røydene" />
		<tag k="place" v="islet" />
		<tag k="ssr:stedsnr" v="280238" />
	</node>
	<node id="-6633" lat="62.2075111081" lon="5.35579999871">
		<tag k="name" v="Nesja" />
		<tag k="natural" v="bay" />
		<tag k="ssr:stedsnr" v="280233" />
	</node>
	<node id="-6632" lat="62.2168234903" lon="5.57131334438">
		<tag k="fixme" v="consider place=hamlet" />
		<tag k="name" v="Nygard" />
		<tag k="place" v="farm" />
		<tag k="ssr:stedsnr" v="280231" />
	</node>
	<node id="-6631" lat="62.2573499964" lon="5.55759999428">
		<tag k="name" v="Muren" />
		<tag k="place" v="farm" />
		<tag k="ssr:stedsnr" v="280228" />
	</node>
	<node id="-6630" lat="62.2349138884" lon="5.59164721775">
		<tag k="name" v="Garden" />
		<tag k="place" v="farm" />
		<tag k="ssr:stedsnr" v="280227" />
	</node>
	<node id="-6629" lat="62.2036916694" lon="5.57878332915">
		<tag k="name" v="Garden" />
		<tag k="place" v="farm" />
		<tag k="ssr:stedsnr" v="280226" />
	</node>
	<node id="-6628" lat="62.2624833321" lon="5.4278666744">
		<tag k="name" v="Plassen" />
		<tag k="place" v="farm" />
		<tag k="ssr:stedsnr" v="280225" />
	</node>
	<node id="-6627" lat="62.2123027768" lon="5.4098305552">
		<tag k="name" v="Stigen" />
		<tag k="natural" v="slope" />
		<tag k="place" v="locality" />
		<tag k="ssr:stedsnr" v="280215" />
	</node>
	<node id="-6626" lat="62.2211972234" lon="5.69005000689">
		<tag k="name" v="Løkane" />
		<tag k="natural" v="wetland" />
		<tag k="ssr:stedsnr" v="280176" />
	</node>
	<node id="-6625" lat="62.2086083298" lon="5.38192222981">
		<tag k="name" v="Skarpenausen" />
		<tag k="natural" v="hill" />
		<tag k="place" v="locality" />
		<tag k="ssr:stedsnr" v="280170" />
	</node>
	<node id="-6624" lat="62.2493944418" lon="5.65580278764">
		<tag k="name" v="Sævassbotnen" />
		<tag k="natural" v="valley" />
		<tag k="place" v="locality" />
		<tag k="ssr:stedsnr" v="280109" />
	</node>
	<node id="-6623" lat="62.2606138927" lon="5.60306943654">
		<tag k="name" v="Stellemyra" />
		<tag k="natural" v="wetland" />
		<tag k="ssr:stedsnr" v="280107" />
	</node>
	<node id="-6622" lat="62.2584361074" lon="5.57733889162">
		<tag k="fixme" v="consider seamark:type=rock or natural=shoal" />
		<tag k="name" v="Luseskjeret" />
		<tag k="place" v="islet" />
		<tag k="ssr:stedsnr" v="280106" />
	</node>
	<node id="-6621" lat="62.2126833358" lon="5.64925000465">
		<tag k="historic" v="shieling" />
		<tag k="name" v="Lågebulegene" />
		<tag k="place" v="locality" />
		<tag k="ssr:stedsnr" v="280060" />
	</node>
	<node id="-6620" lat="62.1999916694" lon="5.67305833539">
		<tag k="name" v="Storesætra" />
		<tag k="place" v="locality" />
		<tag k="ssr:stedsnr" v="280050" />
	</node>
	<node id="-6619" lat="62.2098361074" lon="5.40014443697">
		<tag k="name" v="Storenausen" />
		<tag k="natural" v="hill" />
		<tag k="place" v="locality" />
		<tag k="ssr:stedsnr" v="280004" />
	</node>
	<node id="-6618" lat="62.1961416631" lon="5.5925611129">
		<tag k="name" v="Årdalen" />
		<tag k="natural" v="valley" />
		<tag k="place" v="locality" />
		<tag k="ssr:stedsnr" v="159256" />
	</node>
	<node id="-6617" lat="62.2029777779" lon="5.57157500725">
		<tag k="alt_name" v="Kipeholmen" />
		<tag k="name" v="Holmen" />
		<tag k="place" v="islet" />
		<tag k="ssr:stedsnr" v="159222" />
	</node>
	<node id="-6616" lat="62.2301388882" lon="5.53981944383">
		<tag k="name" v="Skaret" />
		<tag k="natural" v="valley" />
		<tag k="place" v="locality" />
		<tag k="ssr:stedsnr" v="159220" />
	</node>
	<node id="-6615" lat="62.1785805546" lon="5.37796111699">
		<tag k="name" v="Frekøya" />
		<tag k="place" v="islet" />
		<tag k="ssr:stedsnr" v="159217" />
	</node>
	<node id="-6614" lat="62.2149555535" lon="5.45597500292">
		<tag k="name" v="Perneset" />
		<tag k="natural" v="cape" />
		<tag k="ssr:stedsnr" v="159203" />
	</node>
	<node id="-6613" lat="62.1862805534" lon="5.36940833907">
		<tag k="fixme" v="consider seamark:type=rock or natural=shoal" />
		<tag k="name" v="Rognholmboden" />
		<tag k="place" v="islet" />
		<tag k="ssr:stedsnr" v="159070" />
	</node>
	<node id="-6612" lat="62.2456611078" lon="5.4181000071">
		<tag k="name" v="Skinahaugen" />
		<tag k="natural" v="hill" />
		<tag k="place" v="locality" />
		<tag k="ssr:stedsnr" v="159060" />
	</node>
	<node id="-6611" lat="62.2601222201" lon="5.41665556189">
		<tag k="name" v="Hellandsmyrane" />
		<tag k="natural" v="wetland" />
		<tag k="ssr:stedsnr" v="159059" />
	</node>
	<node id="-6610" lat="62.2080388882" lon="5.75691944857">
		<tag k="name" v="Storfonna" />
		<tag k="place" v="locality" />
		<tag k="ssr:stedsnr" v="159117" />
	</node>
	<node id="-6609" lat="62.2151277764" lon="5.72523055349">
		<tag k="name" v="Stordyrhola" />
		<tag k="natural" v="valley" />
		<tag k="place" v="locality" />
		<tag k="ssr:stedsnr" v="159114" />
	</node>
	<node id="-6608" lat="62.2065138917" lon="5.71846111265">
		<tag k="name" v="Ristallekollen" />
		<tag k="natural" v="hill" />
		<tag k="place" v="locality" />
		<tag k="ssr:stedsnr" v="159110" />
	</node>
	<node id="-6607" lat="62.2312083331" lon="5.72955000424">
		<tag k="bridge" v="yes" />
		<tag k="layer" v="1" />
		<tag k="name" v="Rauddalsbrua" />
		<tag k="ssr:stedsnr" v="159103" />
	</node>
	<node id="-6606" lat="62.2849222184" lon="5.55350278749">
		<tag k="name" v="Riseaksla" />
		<tag k="natural" v="ridge" />
		<tag k="place" v="locality" />
		<tag k="ssr:stedsnr" v="279036" />
	</node>
	<node id="-6605" lat="62.2344916657" lon="5.63140834209">
		<tag k="name" v="Hornelva" />
		<tag k="ssr:stedsnr" v="132610" />
		<tag k="waterway" v="stream" />
	</node>
	<node id="-6604" lat="62.1936305584" lon="5.40696111131">
		<tag k="name" v="Simonnes" />
		<tag k="natural" v="cape" />
		<tag k="ssr:stedsnr" v="132531" />
	</node>
	<node id="-6603" lat="62.2075249979" lon="5.70149166566">
		<tag k="name" v="Tødenesvatnet" />
		<tag k="natural" v="water" />
		<tag k="ssr:stedsnr" v="132526" />
	</node>
	<node id="-6602" lat="62.2129888878" lon="5.55278055541">
		<tag k="fixme" v="consider seamark:type=rock or natural=shoal" />
		<tag k="name" v="Okslene" />
		<tag k="place" v="islet" />
		<tag k="ssr:stedsnr" v="132520" />
	</node>
	<node id="-6601" lat="62.2059722188" lon="5.60301389742">
		<tag k="name" v="Grøthornet" />
		<tag k="natural" v="hill" />
		<tag k="place" v="locality" />
		<tag k="ssr:stedsnr" v="132518" />
	</node>
	<node id="-6599" lat="62.2717148891" lon="5.55225018754">
		<tag k="fixme" v="consider place=hamlet" />
		<tag k="name" v="Gota" />
		<tag k="place" v="farm" />
		<tag k="ssr:stedsnr" v="132504" />
	</node>
	<node id="-6598" lat="62.1994333376" lon="5.66218888705">
		<tag k="name" v="Lisetsætra" />
		<tag k="place" v="locality" />
		<tag k="ssr:stedsnr" v="131530" />
	</node>
	<node id="-6597" lat="62.2439863557" lon="5.41823875364">
		<tag k="fixme" v="consider place=hamlet" />
		<tag k="name" v="Skare" />
		<tag k="place" v="farm" />
		<tag k="ssr:stedsnr" v="131652" />
	</node>
	<node id="-6596" lat="62.2187694428" lon="5.34496110452">
		<tag k="name" v="Vågane" />
		<tag k="natural" v="bay" />
		<tag k="ssr:stedsnr" v="113511" />
	</node>
	<node id="-6595" lat="62.2246333375" lon="5.52748333816">
		<tag k="name" v="Litleboden" />
		<tag k="natural" v="shoal" />
		<tag k="place" v="locality" />
		<tag k="ssr:stedsnr" v="112602" />
	</node>
	<node id="-6594" lat="62.2835416647" lon="5.47679999534">
		<tag k="name" v="Klovholmboden" />
		<tag k="natural" v="shoal" />
		<tag k="place" v="locality" />
		<tag k="ssr:stedsnr" v="112709" />
	</node>
	<node id="-6593" lat="62.2350694442" lon="5.41396666348">
		<tag k="name" v="Djupefluda" />
		<tag k="natural" v="shoal" />
		<tag k="place" v="locality" />
		<tag k="ssr:stedsnr" v="112444" />
	</node>
	<node id="-6592" lat="62.2089027743" lon="5.72470555688">
		<tag k="name" v="Tempelskaret" />
		<tag k="natural" v="valley" />
		<tag k="place" v="locality" />
		<tag k="ssr:stedsnr" v="99107" />
	</node>
	<node id="-6591" lat="62.1824222218" lon="5.38161111897">
		<tag k="name" v="Kobbehaugen" />
		<tag k="natural" v="hill" />
		<tag k="place" v="locality" />
		<tag k="ssr:stedsnr" v="99068" />
	</node>
	<node id="-6590" lat="62.2630388842" lon="5.42319443659">
		<tag k="fixme" v="consider natural=peak for the most distinct mountains in the district" />
		<tag k="name" v="Hellandsfjellet" />
		<tag k="natural" v="hill" />
		<tag k="place" v="locality" />
		<tag k="ssr:stedsnr" v="99055" />
	</node>
	<node id="-6589" lat="62.2548388854" lon="5.41258610629">
		<tag k="name" v="Raudehammaren" />
		<tag k="place" v="locality" />
		<tag k="ssr:stedsnr" v="99052" />
	</node>
	<node id="-6588" lat="62.2624747682" lon="5.43297201234">
		<tag k="fixme" v="consider place=hamlet" />
		<tag k="name" v="Helland" />
		<tag k="place" v="farm" />
		<tag k="ssr:stedsnr" v="98255" />
	</node>
	<node id="-6587" lat="62.2366305549" lon="5.46116387942">
		<tag k="name" v="Støylehamna" />
		<tag k="natural" v="bay" />
		<tag k="ssr:stedsnr" v="98157" />
	</node>
	<node id="-6586" lat="62.2157527818" lon="5.3511638843">
		<tag k="name" v="Vågekinna" />
		<tag k="natural" v="hill" />
		<tag k="place" v="locality" />
		<tag k="ssr:stedsnr" v="98155" />
	</node>
	<node id="-6585" lat="62.2172888929" lon="5.34626666322">
		<tag k="name" v="Sørevågen" />
		<tag k="natural" v="bay" />
		<tag k="ssr:stedsnr" v="98153" />
	</node>
	<node id="-6584" lat="62.2284749955" lon="5.58817777404">
		<tag k="fixme" v="consider seamark:type=rock or natural=shoal" />
		<tag k="name" v="Erkna" />
		<tag k="place" v="islet" />
		<tag k="ssr:stedsnr" v="98207" />
	</node>
	<node id="-6583" lat="62.2561749998" lon="5.63253056008">
		<tag k="name" v="Klubben" />
		<tag k="natural" v="slope" />
		<tag k="place" v="locality" />
		<tag k="ssr:stedsnr" v="254957" />
	</node>
	<node id="-6582" lat="62.236997223" lon="5.31890277876">
		<tag k="name" v="Nylendingen" />
		<tag k="natural" v="shoal" />
		<tag k="place" v="locality" />
		<tag k="ssr:stedsnr" v="253665" />
	</node>
	<node id="-6581" lat="62.2239833374" lon="5.55880277103">
		<tag k="name" v="Litlehornet" />
		<tag k="natural" v="hill" />
		<tag k="place" v="locality" />
		<tag k="ssr:stedsnr" v="253637" />
	</node>
	<node id="-6580" lat="62.249097225" lon="5.67131944327">
		<tag k="alt_name" v="Rausandvatnet" />
		<tag k="name" v="Raudsandvatnet" />
		<tag k="natural" v="water" />
		<tag k="ssr:stedsnr" v="253625" />
		<tag k="water" v="lake" />
	</node>
	<node id="-6579" lat="62.2136833372" lon="5.39121388312">
		<tag k="alt_name" v="Kalsneselva" />
		<tag k="name" v="Myrelva" />
		<tag k="ssr:stedsnr" v="253604" />
		<tag k="waterway" v="stream" />
	</node>
	<node id="-6578" lat="62.2263833338" lon="5.63783333383">
		<tag k="alt_name" v="Sætre, yt" />
		<tag k="name" v="Ytre Sætre" />
		<tag k="place" v="farm" />
		<tag k="ssr:stedsnr" v="253593" />
	</node>
	<node id="-6577" lat="62.1862666639" lon="5.38883333518">
		<tag k="alt_name" v="Storeholmen" />
		<tag k="name" v="Storholmen" />
		<tag k="place" v="islet" />
		<tag k="ssr:stedsnr" v="253582" />
	</node>
	<node id="-6576" lat="62.2049416646" lon="5.61736943723">
		<tag k="name" v="Morkavatnet" />
		<tag k="natural" v="water" />
		<tag k="ssr:stedsnr" v="253574" />
	</node>
	<node id="-6575" lat="62.287380553" lon="5.47202778617">
		<tag k="name" v="Klovholmane" />
		<tag k="place" v="islet" />
		<tag k="ssr:stedsnr" v="253572" />
	</node>
	<node id="-6574" lat="62.199155557" lon="5.35872223134">
		<tag k="fixme" v="consider seamark:type=rock or natural=shoal" />
		<tag k="name" v="Notaskjer" />
		<tag k="place" v="islet" />
		<tag k="ssr:stedsnr" v="253562" />
	</node>
	<node id="-6573" lat="62.2602972207" lon="5.37506943676">
		<tag k="alt_name" v="Svarteskjeret" />
		<tag k="fixme" v="consider seamark:type=rock or natural=shoal" />
		<tag k="name" v="Svarteskjer" />
		<tag k="place" v="islet" />
		<tag k="ssr:stedsnr" v="253545" />
	</node>
	<node id="-6571" lat="62.2644138849" lon="5.52218611141">
		<tag k="fixme" v="consider seamark:type=rock or natural=shoal" />
		<tag k="name" v="Gjøskjera" />
		<tag k="place" v="islet" />
		<tag k="ssr:stedsnr" v="253537" />
	</node>
	<node id="-6569" lat="62.2312527741" lon="5.74596110629">
		<tag k="alt_name" v="Gjørinakken" />
		<tag k="name" v="Gyrinakken" />
		<tag k="natural" v="hill" />
		<tag k="place" v="locality" />
		<tag k="ssr:stedsnr" v="253195" />
	</node>
	<node id="-6568" lat="62.1964361666" lon="5.66833744401">
		<tag k="fixme" v="consider place=hamlet" />
		<tag k="name" v="Torset" />
		<tag k="place" v="farm" />
		<tag k="ssr:stedsnr" v="71530" />
	</node>
	<node id="-6567" lat="62.2164138931" lon="5.45628056304">
		<tag k="name" v="Hansvika" />
		<tag k="natural" v="bay" />
		<tag k="ssr:stedsnr" v="71620" />
	</node>
	<node id="-6566" lat="62.2158470945" lon="5.46342070727">
		<tag k="fixme" v="consider place=hamlet" />
		<tag k="name" v="Voksa" />
		<tag k="place" v="farm" />
		<tag k="ssr:stedsnr" v="71618" />
	</node>
	<node id="-6565" lat="62.1904972202" lon="5.35753611678">
		<tag k="name" v="Hysefluda" />
		<tag k="natural" v="shoal" />
		<tag k="place" v="locality" />
		<tag k="ssr:stedsnr" v="238106" />
	</node>
	<node id="-6564" lat="62.2245222199" lon="5.64517223193">
		<tag k="name" v="Gurskebotn" />
		<tag k="place" v="hamlet" />
		<tag k="ssr:stedsnr" v="52411" />
	</node>
	<node id="-6563" lat="62.1897638868" lon="5.37514445134">
		<tag k="name" v="Rya" />
		<tag k="natural" v="shoal" />
		<tag k="place" v="locality" />
		<tag k="ssr:stedsnr" v="234404" />
	</node>
	<node id="-6562" lat="62.265191667" lon="5.48137499956">
		<tag k="fixme" v="consider seamark:type=rock or natural=shoal" />
		<tag k="name" v="Kleiveskjeret" />
		<tag k="place" v="islet" />
		<tag k="ssr:stedsnr" v="233444" />
	</node>
	<node id="-6561" lat="62.1922916653" lon="5.58872221609">
		<tag k="alt_name" v="Juvika" />
		<tag k="name" v="Djuvika" />
		<tag k="natural" v="bay" />
		<tag k="ssr:stedsnr" v="38272" />
	</node>
	<node id="-6560" lat="62.2743888869" lon="5.54712499886">
		<tag k="name" v="Gardsbodfjøra" />
		<tag k="natural" v="beach" />
		<tag k="place" v="locality" />
		<tag k="ssr:stedsnr" v="38262" />
	</node>
	<node id="-6559" lat="62.248705552" lon="5.5669750055">
		<tag k="name" v="Selhaugane" />
		<tag k="natural" v="hill" />
		<tag k="place" v="locality" />
		<tag k="ssr:stedsnr" v="38260" />
	</node>
	<node id="-6558" lat="62.2056833298" lon="5.63001944749">
		<tag k="name" v="Morkabakkane" />
		<tag k="natural" v="slope" />
		<tag k="place" v="locality" />
		<tag k="ssr:stedsnr" v="38253" />
	</node>
	<node id="-6557" lat="62.2458861143" lon="5.48744999017">
		<tag k="name" v="Toftesund" />
		<tag k="place" v="islet" />
		<tag k="ssr:stedsnr" v="38252" />
	</node>
	<node id="-6556" lat="62.1995527756" lon="5.38865556316">
		<tag k="name" v="Myrneset" />
		<tag k="natural" v="cape" />
		<tag k="ssr:stedsnr" v="38226" />
	</node>
	<node id="-6555" lat="62.1978250028" lon="5.58273610462">
		<tag k="name" v="Arenipa" />
		<tag k="natural" v="hill" />
		<tag k="place" v="locality" />
		<tag k="ssr:stedsnr" v="38207" />
	</node>
	<node id="-6554" lat="62.2201388933" lon="5.45269444727">
		<tag k="name" v="Flødene" />
		<tag k="natural" v="wetland" />
		<tag k="ssr:stedsnr" v="38205" />
	</node>
	<node id="-6553" lat="62.2238583351" lon="5.47189443721">
		<tag k="name" v="Småsunda" />
		<tag k="natural" v="strait" />
		<tag k="ssr:stedsnr" v="38204" />
	</node>
	<node id="-6552" lat="62.1846833361" lon="5.38194167458">
		<tag k="name" v="Sørekletten" />
		<tag k="natural" v="hill" />
		<tag k="place" v="locality" />
		<tag k="ssr:stedsnr" v="38062" />
	</node>
	<node id="-6551" lat="62.1852611109" lon="5.39212500799">
		<tag k="name" v="Andrineneset" />
		<tag k="natural" v="cape" />
		<tag k="ssr:stedsnr" v="38060" />
	</node>
	<node id="-6550" lat="62.2487055547" lon="5.40960277074">
		<tag k="name" v="Trødaneset" />
		<tag k="natural" v="cape" />
		<tag k="ssr:stedsnr" v="38056" />
	</node>
	<node id="-6549" lat="62.2161033146" lon="5.40800504463">
		<tag k="fixme" v="consider place=hamlet" />
		<tag k="name" v="Kalsnes" />
		<tag k="place" v="farm" />
		<tag k="ssr:stedsnr" v="38316" />
	</node>
	<node id="-6548" lat="62.2304444481" lon="5.37004444148">
		<tag k="name" v="Sandvika" />
		<tag k="natural" v="bay" />
		<tag k="ssr:stedsnr" v="38314" />
	</node>
	<node id="-6547" lat="62.2425194437" lon="5.4191250093">
		<tag k="fixme" v="consider seamark:type=rock or natural=shoal" />
		<tag k="name" v="Klubben" />
		<tag k="place" v="islet" />
		<tag k="ssr:stedsnr" v="38310" />
	</node>
	<node id="-6546" lat="62.2131611148" lon="5.34356943563">
		<tag k="name" v="Kålskotet" />
		<tag k="natural" v="hill" />
		<tag k="place" v="locality" />
		<tag k="ssr:stedsnr" v="38171" />
	</node>
	<node id="-6545" lat="62.233088891" lon="5.53907222353">
		<tag k="name" v="Grønevika" />
		<tag k="natural" v="bay" />
		<tag k="ssr:stedsnr" v="37975" />
	</node>
	<node id="-6544" lat="62.2129611081" lon="5.55154722891">
		<tag k="fixme" v="consider seamark:type=rock or natural=shoal" />
		<tag k="name" v="Småskjera" />
		<tag k="place" v="islet" />
		<tag k="ssr:stedsnr" v="37973" />
	</node>
	<node id="-6543" lat="62.2554138853" lon="5.58134443623">
		<tag k="name" v="Botnelva" />
		<tag k="ssr:stedsnr" v="38014" />
		<tag k="waterway" v="stream" />
	</node>
	<node id="-6542" lat="62.2362194429" lon="5.58342499714">
		<tag k="name" v="Haugselva" />
		<tag k="ssr:stedsnr" v="38002" />
		<tag k="waterway" v="stream" />
	</node>
	<node id="-6540" lat="62.2662833298" lon="5.45513888713">
		<tag k="alt_name" v="Vågsdriv-vika" />
		<tag k="name" v="Holstøa" />
		<tag k="natural" v="cape" />
		<tag k="ssr:stedsnr" v="11523" />
	</node>
	<node id="-6539" lat="62.2290694406" lon="5.53068610617">
		<tag k="name" v="Hesthammarneset" />
		<tag k="natural" v="cape" />
		<tag k="ssr:stedsnr" v="11620" />
	</node>
	<node id="-6538" lat="62.2395074095" lon="5.56552981211">
		<tag k="fixme" v="consider place=hamlet" />
		<tag k="name" v="Saure" />
		<tag k="place" v="farm" />
		<tag k="ssr:stedsnr" v="10615" />
	</node>
	<node id="-6537" lat="62.2041583345" lon="5.70085834232">
		<tag k="alt_name" v="Fyret" />
		<tag k="name" v="Fyre" />
		<tag k="natural" v="hill" />
		<tag k="place" v="locality" />
		<tag k="ssr:stedsnr" v="10546" />
	</node>
	<node id="-6536" lat="62.2859000012" lon="5.45026389528">
		<tag k="alt_name" v="Litlebåen" />
		<tag k="name" v="Litleboden" />
		<tag k="natural" v="shoal" />
		<tag k="place" v="locality" />
		<tag k="ssr:stedsnr" v="10541" />
	</node>
	<node id="-6535" lat="62.2287551798" lon="5.36880451542">
		<tag k="fixme" v="consider place=hamlet" />
		<tag k="name" v="Riste" />
		<tag k="place" v="farm" />
		<tag k="ssr:stedsnr" v="220336" />
	</node>
	<node id="-6534" lat="62.1999444457" lon="5.6590805562">
		<tag k="name" v="Egga" />
		<tag k="natural" v="ridge" />
		<tag k="place" v="locality" />
		<tag k="ssr:stedsnr" v="220297" />
	</node>
	<node id="-6533" lat="62.1911194454" lon="5.60819999757">
		<tag k="name" v="Leitet" />
		<tag k="place" v="farm" />
		<tag k="ssr:stedsnr" v="220292" />
	</node>
	<node id="-6532" lat="62.2085111073" lon="5.64770000642">
		<tag k="name" v="Måna" />
		<tag k="natural" v="hill" />
		<tag k="place" v="locality" />
		<tag k="ssr:stedsnr" v="220283" />
	</node>
	<node id="-6531" lat="62.2145166687" lon="5.58517499168">
		<tag k="name" v="Kvernhusdalen" />
		<tag k="natural" v="valley" />
		<tag k="place" v="locality" />
		<tag k="ssr:stedsnr" v="220278" />
	</node>
	<node id="-6530" lat="62.2302444459" lon="5.55451389231">
		<tag k="name" v="Stranda" />
		<tag k="natural" v="beach" />
		<tag k="place" v="locality" />
		<tag k="ssr:stedsnr" v="220257" />
	</node>
	<node id="-6529" lat="62.2460027747" lon="5.45873610576">
		<tag k="name" v="Nova" />
		<tag k="natural" v="hill" />
		<tag k="place" v="locality" />
		<tag k="ssr:stedsnr" v="220251" />
	</node>
	<node id="-6528" lat="62.2566638853" lon="5.45587222994">
		<tag k="name" v="Djuvika" />
		<tag k="natural" v="bay" />
		<tag k="ssr:stedsnr" v="220248" />
	</node>
	<node id="-6527" lat="62.2491333338" lon="5.47712221845">
		<tag k="name" v="Straumen" />
		<tag k="natural" v="strait" />
		<tag k="ssr:stedsnr" v="220236" />
	</node>
	<node id="-6526" lat="62.2258944403" lon="5.45595554864">
		<tag k="name" v="Røydene" />
		<tag k="place" v="locality" />
		<tag k="ssr:stedsnr" v="220230" />
	</node>
	<node id="-6525" lat="62.2380361138" lon="5.49489166906">
		<tag k="fixme" v="consider seamark:type=rock or natural=shoal" />
		<tag k="name" v="Eiriken" />
		<tag k="place" v="islet" />
		<tag k="ssr:stedsnr" v="220228" />
	</node>
	<node id="-6524" lat="62.2134277754" lon="5.36001111359">
		<tag k="name" v="Ellingfjellet" />
		<tag k="natural" v="hill" />
		<tag k="place" v="locality" />
		<tag k="ssr:stedsnr" v="220191" />
	</node>
	<node id="-6523" lat="62.2089749972" lon="5.36199999128">
		<tag k="name" v="Bakkehornet" />
		<tag k="natural" v="hill" />
		<tag k="place" v="locality" />
		<tag k="ssr:stedsnr" v="220189" />
	</node>
	<node id="-6522" lat="62.1998388845" lon="5.63021388586">
		<tag k="name" v="Nyksholmen" />
		<tag k="place" v="islet" />
		<tag k="ssr:stedsnr" v="220182" />
	</node>
	<node id="-6521" lat="62.1955861135" lon="5.61765555258">
		<tag k="name" v="Årvikdalen" />
		<tag k="natural" v="valley" />
		<tag k="place" v="locality" />
		<tag k="ssr:stedsnr" v="220163" />
	</node>
	<node id="-6520" lat="62.2203555554" lon="5.61042777499">
		<tag k="name" v="Løkmyrane" />
		<tag k="natural" v="wetland" />
		<tag k="ssr:stedsnr" v="220162" />
	</node>
	<node id="-6519" lat="62.2125777796" lon="5.47571665747">
		<tag k="name" v="Gangstødneset" />
		<tag k="natural" v="cape" />
		<tag k="ssr:stedsnr" v="220146" />
	</node>
	<node id="-6518" lat="62.1885527804" lon="5.59982777287">
		<tag k="name" v="Saudevika" />
		<tag k="natural" v="bay" />
		<tag k="ssr:stedsnr" v="220142" />
	</node>
	<node id="-6517" lat="62.173577776" lon="5.40164722302">
		<tag k="fixme" v="consider seamark:type=rock or natural=shoal" />
		<tag k="name" v="Skarveskjeret" />
		<tag k="place" v="islet" />
		<tag k="ssr:stedsnr" v="220092" />
	</node>
	<node id="-6516" lat="62.187180553" lon="5.38692500892">
		<tag k="name" v="Nørdrekletten" />
		<tag k="natural" v="hill" />
		<tag k="place" v="locality" />
		<tag k="ssr:stedsnr" v="220087" />
	</node>
	<node id="-6515" lat="62.2511611134" lon="5.40656665997">
		<tag k="name" v="Gjøttaholmen" />
		<tag k="place" v="islet" />
		<tag k="ssr:stedsnr" v="220081" />
	</node>
	<node id="-6514" lat="62.2484916638" lon="5.60782222088">
		<tag k="fixme" v="consider natural=peak for the most distinct mountains in the district" />
		<tag k="name" v="Melshornet" />
		<tag k="natural" v="hill" />
		<tag k="ssr:stedsnr" v="220032" />
	</node>
	<node id="-6513" lat="62.2469222217" lon="5.59086110547">
		<tag k="name" v="Grøthornet" />
		<tag k="natural" v="hill" />
		<tag k="place" v="locality" />
		<tag k="ssr:stedsnr" v="220019" />
	</node>
	<node id="-6512" lat="62.2258583294" lon="5.56468333545">
		<tag k="name" v="Legene" />
		<tag k="place" v="locality" />
		<tag k="ssr:stedsnr" v="220017" />
	</node>
	<node id="-6511" lat="62.240891671" lon="5.59678056013">
		<tag k="name" v="Svartehammarsgylet" />
		<tag k="natural" v="valley" />
		<tag k="place" v="locality" />
		<tag k="ssr:stedsnr" v="220001" />
	</node>
	<node id="-6510" lat="62.2598611086" lon="5.39651665869">
		<tag k="name" v="Svartekråa" />
		<tag k="natural" v="bay" />
		<tag k="ssr:stedsnr" v="220069" />
	</node>
	<node id="-6509" lat="62.1936305525" lon="5.66018611894">
		<tag k="fixme" v="consider seamark:type=rock or natural=shoal" />
		<tag k="name" v="Torsetskjeret" />
		<tag k="place" v="islet" />
		<tag k="ssr:stedsnr" v="219051" />
	</node>
	<node id="-6508" lat="62.2260388898" lon="5.52509722219">
		<tag k="alt_name" v="Nupeholmane" />
		<tag k="name" v="Nupaholmane" />
		<tag k="place" v="islet" />
		<tag k="ssr:stedsnr" v="219030" />
	</node>
</osm>
