<?xml version="1.0" encoding="UTF-8"?>
<osm generator="osmapis" version="0.6">
	<node id="-60442" lat="62.2312083331" lon="5.72955000424">
		<tag k="bridge" v="yes" />
		<tag k="layer" v="1" />
		<tag k="name" v="Rauddalsbrua" />
		<tag k="ssr:stedsnr" v="159103" />
	</node>
	<node id="-60989" lat="62.2167750001" lon="5.65070833605">
		<tag k="bridge" v="yes" />
		<tag k="layer" v="1" />
		<tag k="name" v="Vågsosbrua" />
		<tag k="ssr:stedsnr" v="330400" />
	</node>
	<node id="-60988" lat="62.2564138869" lon="5.58379722473">
		<tag k="bridge" v="yes" />
		<tag k="layer" v="1" />
		<tag k="name" v="Storebrua" />
		<tag k="ssr:stedsnr" v="330389" />
	</node>
	<node id="-60987" lat="62.2764083289" lon="5.55164721816">
		<tag k="bridge" v="yes" />
		<tag k="layer" v="1" />
		<tag k="name" v="Hidsbrua" />
		<tag k="ssr:stedsnr" v="330385" />
	</node>
	<node id="-60922" lat="62.2211083371" lon="5.68590832341">
		<tag k="bridge" v="yes" />
		<tag k="layer" v="1" />
		<tag k="name" v="Myrebrua" />
		<tag k="ssr:stedsnr" v="148388" />
	</node>
	<node id="-61143" lat="62.2328444468" lon="5.47375278181">
		<tag k="bridge" v="yes" />
		<tag k="layer" v="1" />
		<tag k="name" v="Hønebrua" />
		<tag k="ssr:stedsnr" v="573367" />
	</node>
	<node id="-61142" lat="62.2214555554" lon="5.64974445002">
		<tag k="bridge" v="yes" />
		<tag k="layer" v="1" />
		<tag k="name" v="Myklebustbrua" />
		<tag k="ssr:stedsnr" v="573357" />
	</node>
	<node id="-60826" lat="62.1978333296" lon="5.42004166254">
		<tag k="amenity" v="ferry_terminal" />
		<tag k="name" v="Kvamsøya ferjekai" />
		<tag k="ssr:stedsnr" v="34133" />
	</node>
	<node id="-60722" lat="62.1913194449" lon="5.63561110478">
		<tag k="amenity" v="ferry_terminal" />
		<tag k="name" v="Årvik ferjekai" />
		<tag k="ssr:stedsnr" v="762303" />
	</node>
	<node id="-60694" lat="62.2257499993" lon="5.66870000833">
		<tag k="highway" v="path" />
		<tag k="name" v="Gotene" />
		<tag k="ssr:stedsnr" v="887214" />
	</node>
	<node id="-61293" lat="62.2158111097" lon="5.65235555934">
		<tag k="bridge" v="yes" />
		<tag k="layer" v="1" />
		<tag k="name" v="Vågsbrua" />
		<tag k="ssr:stedsnr" v="816387" />
	</node>
	<node id="-60972" lat="62.2550944455" lon="5.58250556022">
		<tag k="bridge" v="yes" />
		<tag k="layer" v="1" />
		<tag k="name" v="Sandangerbrua" />
		<tag k="ssr:stedsnr" v="209384" />
	</node>
	<node id="-60650" lat="62.2065611124" lon="5.56941388427">
		<tag k="amenity" v="ferry_terminal" />
		<tag k="name" v="Larsnes ferjekai" />
		<tag k="ssr:stedsnr" v="580110" />
	</node>
	<node id="-60506" lat="62.2175062847" lon="5.37128569213">
		<tag k="landuse" v="harbour" />
		<tag k="name" v="Hamnene" />
		<tag k="seamark:type" v="harbour" />
		<tag k="ssr:stedsnr" v="295550" />
	</node>
	<node id="-60519" lat="62.2311194454" lon="5.4611333386">
		<tag k="name" v="Kyrkjeleida" />
		<tag k="place" v="locality" />
		<tag k="ssr:stedsnr" v="281119" />
	</node>
	<node id="-61187" lat="62.21539167" lon="5.47534166898">
		<tag k="amenity" v="ferry_terminal" />
		<tag k="name" v="Voksa ferjekai" />
		<tag k="ssr:stedsnr" v="641103" />
	</node>
	<node id="-60673" lat="62.231169447" lon="5.61741387921">
		<tag k="bridge" v="yes" />
		<tag k="layer" v="1" />
		<tag k="name" v="Vikebrua" />
		<tag k="ssr:stedsnr" v="877383" />
	</node>
</osm>
