<?xml version="1.0" encoding="UTF-8"?>
<<<<<<< HEAD
<osm version="0.6" generator="osmapis">
	<node lat="62.21640555565108" lon="5.62584445033831" id="-692">
		<tag k="name" v="Raudåna" />
		<tag k="ssr:stedsnr" v="37076" />
		<tag k="waterway" v="stream" />
	</node>
	<node lat="62.23621944293791" lon="5.583424997140795" id="-697">
		<tag k="name" v="Haugselva" />
		<tag k="ssr:stedsnr" v="38002" />
		<tag k="waterway" v="stream" />
	</node>
	<node lat="62.25541388527835" lon="5.581344436225233" id="-698">
		<tag k="name" v="Botnelva" />
		<tag k="ssr:stedsnr" v="38014" />
		<tag k="waterway" v="stream" />
	</node>
	<node lat="62.20388611478705" lon="5.642399996067663" id="-716">
		<tag k="alt_name" v="Langevitevatnet" />
		<tag k="name" v="Langvetevatnet" />
		<tag k="natural" v="water" />
		<tag k="ssr:stedsnr" v="71589" />
	</node>
	<node lat="62.24200555089358" lon="5.673949991355924" id="-720">
		<tag k="name" v="Meldalsvatnet" />
		<tag k="natural" v="water" />
		<tag k="ssr:stedsnr" v="71671" />
	</node>
	<node lat="62.20175277965902" lon="5.603911108438169" id="-722">
		<tag k="name" v="Kjellavatnet" />
		<tag k="natural" v="water" />
		<tag k="ssr:stedsnr" v="72528" />
	</node>
	<node lat="62.20811666738472" lon="5.39694166552681" id="-723">
		<tag k="name" v="Myrvatnet" />
		<tag k="natural" v="water" />
		<tag k="ssr:stedsnr" v="72563" />
	</node>
	<node lat="62.23146944875663" lon="5.670297223345345" id="-739">
		<tag k="alt_name" v="Brekkeelva;Sæssvasselva" />
		<tag k="name" v="Brekkelva" />
		<tag k="ssr:stedsnr" v="132559" />
		<tag k="waterway" v="stream" />
	</node>
	<node lat="62.23449166568519" lon="5.631408342092996" id="-741">
		<tag k="name" v="Hornelva" />
		<tag k="ssr:stedsnr" v="132610" />
		<tag k="waterway" v="stream" />
	</node>
	<node lat="62.20494166457931" lon="5.617369437231074" id="-754">
		<tag k="name" v="Morkavatnet" />
		<tag k="natural" v="water" />
		<tag k="ssr:stedsnr" v="253574" />
	</node>
	<node lat="62.20990555383672" lon="5.62021945380561" id="-757">
		<tag k="name" v="Svedevatnet" />
=======
<osm generator="osmapis" version="0.6">
	<node id="-60415" lat="62.249097225" lon="5.67131944327">
		<tag k="alt_name" v="Rausandvatnet" />
		<tag k="name" v="Raudsandvatnet" />
>>>>>>> e1d4bc35ff8a6074a6f2e91616a996b547c36f15
		<tag k="natural" v="water" />
		<tag k="ssr:stedsnr" v="158006" />
	</node>
<<<<<<< HEAD
	<node lat="62.21368333720313" lon="5.391213883124125" id="-784">
=======
	<node id="-60414" lat="62.2136833372" lon="5.39121388312">
>>>>>>> e1d4bc35ff8a6074a6f2e91616a996b547c36f15
		<tag k="alt_name" v="Kalsneselva" />
		<tag k="name" v="Myrelva" />
		<tag k="ssr:stedsnr" v="253604" />
		<tag k="waterway" v="stream" />
	</node>
<<<<<<< HEAD
	<node lat="62.249097225020634" lon="5.671319443265485" id="-785">
		<tag k="alt_name" v="Rausandvatnet" />
		<tag k="name" v="Raudsandvatnet" />
=======
	<node id="-60923" lat="62.2099055538" lon="5.62021945381">
		<tag k="name" v="Svedevatnet" />
>>>>>>> e1d4bc35ff8a6074a6f2e91616a996b547c36f15
		<tag k="natural" v="water" />
		<tag k="ssr:stedsnr" v="253625" />
		<tag k="water" v="lake" />
	</node>
<<<<<<< HEAD
	<node lat="62.202336111489714" lon="5.613322231614164" id="-788">
		<tag k="name" v="Dale-elva" />
		<tag k="ssr:stedsnr" v="279006" />
		<tag k="waterway" v="stream" />
	</node>
	<node lat="62.26238333653059" lon="5.622369435293187" id="-798">
		<tag k="name" v="Bogen" />
		<tag k="natural" v="bay" />
		<tag k="ssr:stedsnr" v="281017" />
	</node>
	<node lat="62.22783055410342" lon="5.6455194414498635" id="-822">
		<tag k="name" v="Sæsselva" />
		<tag k="ssr:stedsnr" v="463003" />
		<tag k="waterway" v="stream" />
	</node>
	<node lat="62.217202779746394" lon="5.694375002865859" id="-826">
		<tag k="name" v="Vassvikane" />
		<tag k="natural" v="bay" />
		<tag k="ssr:stedsnr" v="463076" />
	</node>
	<node lat="62.24626666921686" lon="5.6244861094591325" id="-834">
		<tag k="alt_name" v="Klovevatnet" />
		<tag k="name" v="Klovvatnet" />
		<tag k="natural" v="water" />
		<tag k="ssr:stedsnr" v="314617" />
	</node>
	<node lat="62.22083055403386" lon="5.670969443790033" id="-881">
		<tag k="name" v="Myklebustelva" />
		<tag k="ssr:stedsnr" v="436558" />
		<tag k="waterway" v="stream" />
	</node>
	<node lat="62.276030553403416" lon="5.55553889562757" id="-884">
		<tag k="name" v="Hidselva" />
		<tag k="ssr:stedsnr" v="462165" />
		<tag k="waterway" v="river" />
	</node>
	<node lat="62.24531944143417" lon="5.580516668702682" id="-886">
		<tag k="name" v="Hanevatnet" />
=======
	<node id="-60910" lat="62.2314694488" lon="5.67029722335">
		<tag k="alt_name" v="Brekkeelva;Sæssvasselva" />
		<tag k="name" v="Brekkelva" />
		<tag k="ssr:stedsnr" v="132559" />
		<tag k="waterway" v="stream" />
	</node>
	<node id="-60899" lat="62.2279805527" lon="5.63919166461">
		<tag k="name" v="Svertelva" />
		<tag k="ssr:stedsnr" v="99005" />
		<tag k="waterway" v="stream" />
	</node>
	<node id="-60898" lat="62.246594444" lon="5.68746666422">
		<tag k="name" v="Raudsanden" />
		<tag k="natural" v="beach" />
		<tag k="ssr:stedsnr" v="99096" />
	</node>
	<node id="-60411" lat="62.2049416646" lon="5.61736943723">
		<tag k="name" v="Morkavatnet" />
		<tag k="natural" v="water" />
		<tag k="ssr:stedsnr" v="253574" />
	</node>
	<node id="-60378" lat="62.2554138853" lon="5.58134443623">
		<tag k="name" v="Botnelva" />
		<tag k="ssr:stedsnr" v="38014" />
		<tag k="waterway" v="stream" />
	</node>
	<node id="-60377" lat="62.2362194429" lon="5.58342499714">
		<tag k="name" v="Haugselva" />
		<tag k="ssr:stedsnr" v="38002" />
		<tag k="waterway" v="stream" />
	</node>
	<node id="-60877" lat="62.2081166674" lon="5.39694166553">
		<tag k="name" v="Myrvatnet" />
>>>>>>> e1d4bc35ff8a6074a6f2e91616a996b547c36f15
		<tag k="natural" v="water" />
		<tag k="ssr:stedsnr" v="463009" />
	</node>
<<<<<<< HEAD
	<node lat="62.23237778105778" lon="5.677572222978993" id="-888">
		<tag k="name" v="Svinevasselva" />
		<tag k="ssr:stedsnr" v="463012" />
		<tag k="waterway" v="stream" />
	</node>
	<node lat="62.24279999554399" lon="5.60926388366331" id="-911">
		<tag k="name" v="Litle Telavatnet" />
=======
	<node id="-60875" lat="62.2017527797" lon="5.60391110844">
		<tag k="name" v="Kjellavatnet" />
		<tag k="natural" v="water" />
		<tag k="ssr:stedsnr" v="72528" />
	</node>
	<node id="-60873" lat="62.2420055509" lon="5.67394999136">
		<tag k="name" v="Meldalsvatnet" />
>>>>>>> e1d4bc35ff8a6074a6f2e91616a996b547c36f15
		<tag k="natural" v="water" />
		<tag k="ssr:stedsnr" v="523021" />
	</node>
<<<<<<< HEAD
	<node lat="62.20721111524891" lon="5.587891671073393" id="-933">
		<tag k="name" v="Haugeelva" />
		<tag k="ssr:stedsnr" v="582005" />
		<tag k="waterway" v="stream" />
	</node>
	<node lat="62.212433336029314" lon="5.640566666538553" id="-937">
		<tag k="name" v="Nonselva" />
		<tag k="ssr:stedsnr" v="583208" />
		<tag k="waterway" v="stream" />
	</node>
	<node lat="62.21158055860083" lon="5.6014305628638486" id="-939">
		<tag k="name" v="Fossane" />
		<tag k="natural" v="waterfall" />
		<tag k="ssr:stedsnr" v="583212" />
	</node>
	<node lat="62.2380027803631" lon="5.609555551498883" id="-946">
		<tag k="name" v="Litlebøelva" />
		<tag k="ssr:stedsnr" v="584017" />
		<tag k="waterway" v="stream" />
	</node>
	<node lat="62.218683335875994" lon="5.7220527810014055" id="-948">
		<tag k="name" v="Botnaelva" />
		<tag k="ssr:stedsnr" v="584107" />
		<tag k="waterway" v="stream" />
	</node>
	<node lat="62.238980551707726" lon="5.353686116170397" id="-982">
		<tag k="name" v="Søyla" />
=======
	<node id="-60357" lat="62.1998388845" lon="5.63021388586">
		<tag k="name" v="Nyksholmen" />
		<tag k="place" v="islet" />
		<tag k="ssr:stedsnr" v="220182" />
	</node>
	<node id="-60867" lat="62.2038861148" lon="5.64239999607">
		<tag k="alt_name" v="Langevitevatnet" />
		<tag k="name" v="Langvetevatnet" />
		<tag k="natural" v="water" />
		<tag k="ssr:stedsnr" v="71589" />
	</node>
	<node id="-60855" lat="62.274038891" lon="5.57497223026">
		<tag k="name" v="Løkane" />
		<tag k="place" v="locality" />
		<tag k="ssr:stedsnr" v="38240" />
	</node>
	<node id="-60833" lat="62.2164055557" lon="5.62584445034">
		<tag k="name" v="Raudåna" />
		<tag k="ssr:stedsnr" v="37076" />
		<tag k="waterway" v="stream" />
	</node>
	<node id="-60832" lat="62.2019527803" lon="5.6532750062">
		<tag k="name" v="Supafatet" />
		<tag k="natural" v="water" />
		<tag k="ssr:stedsnr" v="36054" />
	</node>
	<node id="-60816" lat="62.207086107" lon="5.64953054863">
		<tag k="name" v="Bjørkavatnet" />
>>>>>>> e1d4bc35ff8a6074a6f2e91616a996b547c36f15
		<tag k="natural" v="water" />
		<tag k="ssr:stedsnr" v="705337" />
	</node>
<<<<<<< HEAD
	<node lat="62.21158055680934" lon="5.565691664501595" id="-988">
		<tag k="alt_name" v="Osen" />
		<tag k="name" v="Halleosen" />
=======
	<node id="-61327" lat="62.2177222195" lon="5.65147777558">
		<tag k="name" v="Vågosen" />
>>>>>>> e1d4bc35ff8a6074a6f2e91616a996b547c36f15
		<tag k="natural" v="bay" />
		<tag k="ssr:stedsnr" v="643081" />
	</node>
<<<<<<< HEAD
	<node lat="62.211216667321274" lon="5.683394451575106" id="-993">
		<tag k="name" v="Koppelva" />
		<tag k="ssr:stedsnr" v="644232" />
		<tag k="waterway" v="stream" />
	</node>
	<node lat="62.20269444110697" lon="5.656777776814695" id="-997">
		<tag k="name" v="Trollvatnet" />
		<tag k="natural" v="water" />
		<tag k="ssr:stedsnr" v="644131" />
	</node>
	<node lat="62.220763892049" lon="5.547130546186556" id="-1002">
		<tag k="name" v="Storelva" />
		<tag k="ssr:stedsnr" v="644196" />
		<tag k="waterway" v="stream" />
	</node>
	<node lat="62.25249722308397" lon="5.568402780136365" id="-1020">
		<tag k="name" v="Lisbetelva" />
		<tag k="ssr:stedsnr" v="705020" />
		<tag k="waterway" v="stream" />
	</node>
	<node lat="62.24580000409072" lon="5.683474991708104" id="-1022">
		<tag k="name" v="Myrkestranda" />
		<tag k="natural" v="beach" />
		<tag k="ssr:stedsnr" v="705115" />
	</node>
	<node lat="62.23440555454594" lon="5.623444447363314" id="-1032">
		<tag k="name" v="Vikelva" />
		<tag k="ssr:stedsnr" v="739605" />
		<tag k="waterway" v="stream" />
	</node>
	<node lat="62.20276388767064" lon="5.714369445360863" id="-1042">
		<tag k="name" v="Slokeelva" />
		<tag k="ssr:stedsnr" v="766088" />
		<tag k="waterway" v="stream" />
	</node>
	<node lat="62.21795277410157" lon="5.702063888524265" id="-1061">
=======
	<node id="-61326" lat="62.2584333329" lon="5.48408333467">
		<tag k="name" v="Breivika" />
		<tag k="natural" v="bay" />
		<tag k="ssr:stedsnr" v="827272" />
	</node>
	<node id="-61322" lat="62.2591916706" lon="5.61063054736">
		<tag k="name" v="Båtneset" />
		<tag k="natural" v="cape" />
		<tag k="ssr:stedsnr" v="827242" />
	</node>
	<node id="-61303" lat="62.2231222195" lon="5.71331388008">
		<tag k="name" v="Skogeelva" />
		<tag k="ssr:stedsnr" v="827091" />
		<tag k="waterway" v="stream" />
	</node>
	<node id="-61302" lat="62.2283972264" lon="5.72288611858">
		<tag k="name" v="Rauddalselva" />
		<tag k="ssr:stedsnr" v="827090" />
		<tag k="waterway" v="stream" />
	</node>
	<node id="-60785" lat="62.2082500019" lon="5.61087776884">
		<tag k="name" v="Svartevatnet" />
		<tag k="natural" v="water" />
		<tag k="ssr:stedsnr" v="921557" />
	</node>
	<node id="-60782" lat="62.2179527741" lon="5.70206388852">
>>>>>>> e1d4bc35ff8a6074a6f2e91616a996b547c36f15
		<tag k="name" v="Skogevatnet" />
		<tag k="natural" v="water" />
		<tag k="ssr:stedsnr" v="921621" />
		<tag k="water" v="lake" />
	</node>
<<<<<<< HEAD
	<node lat="62.20825000186102" lon="5.610877768836768" id="-1063">
		<tag k="name" v="Svartevatnet" />
		<tag k="natural" v="water" />
		<tag k="ssr:stedsnr" v="921557" />
	</node>
	<node lat="62.258433332857855" lon="5.484083334674807" id="-1082">
		<tag k="name" v="Breivika" />
		<tag k="natural" v="bay" />
		<tag k="ssr:stedsnr" v="827272" />
	</node>
	<node lat="62.21772221950928" lon="5.651477775584242" id="-1083">
		<tag k="name" v="Vågosen" />
		<tag k="natural" v="bay" />
		<tag k="ssr:stedsnr" v="827278" />
	</node>
	<node lat="62.22378888649112" lon="5.7266083418712785" id="-1096">
=======
	<node id="-60773" lat="62.2237888865" lon="5.72660834187">
>>>>>>> e1d4bc35ff8a6074a6f2e91616a996b547c36f15
		<tag k="name" v="Klipeelva" />
		<tag k="ssr:stedsnr" v="887116" />
		<tag k="waterway" v="stream" />
	</node>
<<<<<<< HEAD
	<node lat="62.23359999956824" lon="5.656869452874497" id="-1117">
		<tag k="alt_name" v="Sæssvatnet" />
		<tag k="name" v="Sæsvatnet" />
=======
	<node id="-60764" lat="62.2605722191" lon="5.61566110541">
		<tag k="name" v="Sædalsholmen" />
		<tag k="place" v="islet" />
		<tag k="ssr:stedsnr" v="948038" />
	</node>
	<node id="-60763" lat="62.2507611156" lon="5.65197500471">
		<tag k="name" v="Sævtjønna" />
>>>>>>> e1d4bc35ff8a6074a6f2e91616a996b547c36f15
		<tag k="natural" v="water" />
		<tag k="ssr:stedsnr" v="921636" />
	</node>
<<<<<<< HEAD
	<node lat="62.224122219480904" lon="5.715016662097099" id="-1125">
=======
	<node id="-60473" lat="62.2154666669" lon="5.70356111844">
		<tag k="name" v="Vasstranda" />
		<tag k="natural" v="beach" />
		<tag k="ssr:stedsnr" v="280982" />
	</node>
	<node id="-60756" lat="62.2241222195" lon="5.7150166621">
>>>>>>> e1d4bc35ff8a6074a6f2e91616a996b547c36f15
		<tag k="name" v="Litlevatnet" />
		<tag k="natural" v="water" />
		<tag k="ssr:stedsnr" v="947977" />
	</node>
<<<<<<< HEAD
	<node lat="62.24813333585564" lon="5.6691500071319085" id="-1126">
		<tag k="name" v="Myrkestranda" />
		<tag k="natural" v="beach" />
		<tag k="ssr:stedsnr" v="948109" />
	</node>
	<node lat="62.25076111562137" lon="5.651975004709849" id="-1136">
		<tag k="name" v="Sævtjønna" />
		<tag k="natural" v="water" />
		<tag k="ssr:stedsnr" v="948032" />
	</node>
	<node lat="62.2070861069567" lon="5.649530548633839" id="-1158">
		<tag k="name" v="Bjørkavatnet" />
=======
	<node id="-60744" lat="62.2060444435" lon="5.70948333105">
		<tag k="name" v="Slokevatnet" />
		<tag k="natural" v="water" />
		<tag k="ssr:stedsnr" v="799571" />
	</node>
	<node id="-61253" lat="62.2514166641" lon="5.57289166097">
		<tag k="name" v="Hane-elva" />
		<tag k="ssr:stedsnr" v="766017" />
		<tag k="waterway" v="stream" />
	</node>
	<node id="-60735" lat="62.2335999996" lon="5.65686945287">
		<tag k="alt_name" v="Sæssvatnet" />
		<tag k="name" v="Sæsvatnet" />
>>>>>>> e1d4bc35ff8a6074a6f2e91616a996b547c36f15
		<tag k="natural" v="water" />
		<tag k="ssr:stedsnr" v="11533" />
	</node>
<<<<<<< HEAD
	<node lat="62.2019527803142" lon="5.6532750061967985" id="-1170">
		<tag k="name" v="Supafatet" />
		<tag k="natural" v="water" />
		<tag k="ssr:stedsnr" v="36054" />
	</node>
	<node lat="62.274038891029946" lon="5.5749722302628655" id="-1192">
		<tag k="name" v="Løkane" />
		<tag k="place" v="locality" />
		<tag k="ssr:stedsnr" v="38240" />
	</node>
	<node lat="62.22798055274852" lon="5.639191664611478" id="-1224">
		<tag k="name" v="Svertelva" />
		<tag k="ssr:stedsnr" v="99005" />
		<tag k="waterway" v="stream" />
	</node>
	<node lat="62.24659444398962" lon="5.687466664218055" id="-1227">
		<tag k="name" v="Raudsanden" />
		<tag k="natural" v="beach" />
		<tag k="ssr:stedsnr" v="99096" />
	</node>
	<node lat="62.207524997884725" lon="5.701491665655486" id="-1252">
		<tag k="name" v="Tødenesvatnet" />
=======
	<node id="-60726" lat="62.2027638877" lon="5.71436944536">
		<tag k="name" v="Slokeelva" />
		<tag k="ssr:stedsnr" v="766088" />
		<tag k="waterway" v="stream" />
	</node>
	<node id="-61237" lat="62.2084833309" lon="5.65583610413">
		<tag k="name" v="Middagselva" />
		<tag k="ssr:stedsnr" v="764056" />
		<tag k="waterway" v="stream" />
	</node>
	<node id="-61236" lat="62.2094694408" lon="5.58085833287">
		<tag k="name" v="Larsneselva" />
		<tag k="ssr:stedsnr" v="764053" />
		<tag k="waterway" v="stream" />
	</node>
	<node id="-61231" lat="62.232063893" lon="5.72575000423">
		<tag k="name" v="Leikongeidet" />
		<tag k="natural" v="strait" />
		<tag k="ssr:stedsnr" v="739166" />
	</node>
	<node id="-61228" lat="62.2453138932" lon="5.60646388272">
		<tag k="alt_name" v="Store Telavatnet" />
		<tag k="name" v="Telebergvatna" />
>>>>>>> e1d4bc35ff8a6074a6f2e91616a996b547c36f15
		<tag k="natural" v="water" />
		<tag k="ssr:stedsnr" v="132526" />
	</node>
<<<<<<< HEAD
	<node lat="62.21526666268351" lon="5.378922221395593" id="-1257">
		<tag k="name" v="Nonsstigelva" />
		<tag k="ssr:stedsnr" v="159075" />
		<tag k="waterway" v="stream" />
	</node>
	<node lat="62.21217777746413" lon="5.569311116529021" id="-1298">
		<tag k="name" v="Hallevatnet" />
		<tag k="natural" v="water" />
		<tag k="ssr:stedsnr" v="193545" />
	</node>
	<node lat="62.25593333360294" lon="5.621205555518989" id="-1310">
		<tag k="fixme" v="multiple name tags, choose one and add the other to alt_name" />
		<tag k="name" v="Sædalsvatnet;Storevatnet" />
=======
	<node id="-60714" lat="62.2344055545" lon="5.62344444736">
		<tag k="name" v="Vikelva" />
		<tag k="ssr:stedsnr" v="739605" />
		<tag k="waterway" v="stream" />
	</node>
	<node id="-61221" lat="62.2206138846" lon="5.58957499908">
		<tag k="name" v="Skarelva" />
		<tag k="ssr:stedsnr" v="644246" />
		<tag k="waterway" v="stream" />
	</node>
	<node id="-60707" lat="62.2389805517" lon="5.35368611617">
		<tag k="name" v="Søyla" />
>>>>>>> e1d4bc35ff8a6074a6f2e91616a996b547c36f15
		<tag k="natural" v="water" />
		<tag k="ssr:stedsnr" v="193962" />
		<tag k="water" v="lake" />
	</node>
<<<<<<< HEAD
	<node lat="62.221644443745426" lon="5.649133338641812" id="-1314">
		<tag k="name" v="Myklebustosen" />
		<tag k="natural" v="bay" />
		<tag k="ssr:stedsnr" v="219059" />
	</node>
	<node lat="62.19983888446092" lon="5.630213885860053" id="-1319">
		<tag k="name" v="Nyksholmen" />
		<tag k="place" v="islet" />
		<tag k="ssr:stedsnr" v="220182" />
	</node>
	<node lat="62.215466666909464" lon="5.703561118438827" id="-1348">
		<tag k="name" v="Vasstranda" />
		<tag k="natural" v="beach" />
		<tag k="ssr:stedsnr" v="280982" />
	</node>
	<node lat="62.2055944467798" lon="5.654661115348893" id="-1367">
		<tag k="alt_name" v="Myrkevatna" />
		<tag k="name" v="Middagsvatna" />
=======
	<node id="-61217" lat="62.2112166673" lon="5.68339445158">
		<tag k="name" v="Koppelva" />
		<tag k="ssr:stedsnr" v="644232" />
		<tag k="waterway" v="stream" />
	</node>
	<node id="-61215" lat="62.220763892" lon="5.54713054619">
		<tag k="name" v="Storelva" />
		<tag k="ssr:stedsnr" v="644196" />
		<tag k="waterway" v="stream" />
	</node>
	<node id="-60698" lat="62.2526250027" lon="5.64268332549">
		<tag k="name" v="Busundet" />
		<tag k="natural" v="strait" />
		<tag k="ssr:stedsnr" v="887228" />
	</node>
	<node id="-61204" lat="62.2026944411" lon="5.65677777681">
		<tag k="name" v="Trollvatnet" />
>>>>>>> e1d4bc35ff8a6074a6f2e91616a996b547c36f15
		<tag k="natural" v="water" />
		<tag k="ssr:stedsnr" v="314582" />
	</node>
<<<<<<< HEAD
	<node lat="62.20129166424161" lon="5.6465166718658395" id="-1368">
		<tag k="alt_name" v="Litlevitevatnet" />
		<tag k="name" v="Litlevetevatnet" />
		<tag k="natural" v="water" />
		<tag k="ssr:stedsnr" v="314583" />
	</node>
	<node lat="62.202894446266455" lon="5.397316662790427" id="-1381">
		<tag k="name" v="Myraelva" />
		<tag k="ssr:stedsnr" v="341077" />
		<tag k="waterway" v="stream" />
	</node>
	<node lat="62.24623055202043" lon="5.660222225060693" id="-1382">
		<tag k="name" v="Riksstallelva" />
		<tag k="ssr:stedsnr" v="341080" />
		<tag k="waterway" v="stream" />
	</node>
	<node lat="62.217361113945444" lon="5.629025005091553" id="-1422">
		<tag k="name" v="Langbergselva" />
		<tag k="ssr:stedsnr" v="401051" />
		<tag k="waterway" v="stream" />
	</node>
	<node lat="62.26283333223098" lon="5.579450009637918" id="-1433">
		<tag k="name" v="Hagesellelva" />
		<tag k="ssr:stedsnr" v="402015" />
		<tag k="waterway" v="stream" />
	</node>
	<node lat="62.197938891460026" lon="5.590238880374722" id="-1453">
		<tag k="name" v="Dalevatnet" />
		<tag k="natural" v="water" />
		<tag k="ssr:stedsnr" v="496572" />
	</node>
	<node lat="62.216794442495846" lon="5.650719441217309" id="-1478">
		<tag k="name" v="Vågosen" />
		<tag k="natural" v="bay" />
		<tag k="ssr:stedsnr" v="523248" />
	</node>
	<node lat="62.258313889970474" lon="5.448102782248039" id="-1485">
		<tag k="name" v="Kvernaelva" />
		<tag k="ssr:stedsnr" v="523200" />
		<tag k="waterway" v="stream" />
	</node>
	<node lat="62.236127780615874" lon="5.685036105181679" id="-1499">
		<tag k="name" v="Svinevatnet" />
=======
	<node id="-60690" lat="62.2524388892" lon="5.63486110264">
		<tag k="name" v="Kalvegjerdholmen" />
		<tag k="place" v="islet" />
		<tag k="ssr:stedsnr" v="887029" />
	</node>
	<node id="-60687" lat="62.2499777772" lon="5.42186110878">
		<tag k="name" v="Fosselva" />
		<tag k="ssr:stedsnr" v="887080" />
		<tag k="waterway" v="stream" />
	</node>
	<node id="-61190" lat="62.2115805568" lon="5.5656916645">
		<tag k="alt_name" v="Osen" />
		<tag k="name" v="Halleosen" />
		<tag k="natural" v="bay" />
		<tag k="ssr:stedsnr" v="643081" />
	</node>
	<node id="-60663" lat="62.2147444467" lon="5.65747500169">
		<tag k="alt_name" v="Almestadelva" />
		<tag k="name" v="Vågselva" />
		<tag k="ssr:stedsnr" v="617554" />
		<tag k="waterway" v="stream" />
	</node>
	<node id="-61172" lat="62.2542888927" lon="5.61166389734">
		<tag k="name" v="Vass-stranda" />
		<tag k="natural" v="beach" />
		<tag k="ssr:stedsnr" v="584025" />
	</node>
	<node id="-61171" lat="62.2380027804" lon="5.6095555515">
		<tag k="name" v="Litlebøelva" />
		<tag k="ssr:stedsnr" v="584017" />
		<tag k="waterway" v="stream" />
	</node>
	<node id="-60655" lat="62.2186833359" lon="5.722052781">
		<tag k="name" v="Botnaelva" />
		<tag k="ssr:stedsnr" v="584107" />
		<tag k="waterway" v="stream" />
	</node>
	<node id="-61165" lat="62.2115805586" lon="5.60143056286">
		<tag k="name" v="Fossane" />
		<tag k="natural" v="waterfall" />
		<tag k="ssr:stedsnr" v="583212" />
	</node>
	<node id="-61163" lat="62.212433336" lon="5.64056666654">
		<tag k="name" v="Nonselva" />
		<tag k="ssr:stedsnr" v="583208" />
		<tag k="waterway" v="stream" />
	</node>
	<node id="-61144" lat="62.2072111152" lon="5.58789167107">
		<tag k="name" v="Haugeelva" />
		<tag k="ssr:stedsnr" v="582005" />
		<tag k="waterway" v="stream" />
	</node>
	<node id="-60631" lat="62.2458000041" lon="5.68347499171">
		<tag k="name" v="Myrkestranda" />
		<tag k="natural" v="beach" />
		<tag k="ssr:stedsnr" v="705115" />
	</node>
	<node id="-61141" lat="62.1996083378" lon="5.62789167174">
		<tag k="name" v="Nyksvatnet" />
>>>>>>> e1d4bc35ff8a6074a6f2e91616a996b547c36f15
		<tag k="natural" v="water" />
		<tag k="ssr:stedsnr" v="556644" />
	</node>
<<<<<<< HEAD
	<node lat="62.22405555450577" lon="5.7329527721360005" id="-1504">
=======
	<node id="-61140" lat="62.2240555545" lon="5.73295277214">
>>>>>>> e1d4bc35ff8a6074a6f2e91616a996b547c36f15
		<tag k="name" v="Klipevatnet" />
		<tag k="natural" v="water" />
		<tag k="ssr:stedsnr" v="557174" />
	</node>
<<<<<<< HEAD
	<node lat="62.19960833783264" lon="5.627891671736984" id="-1505">
		<tag k="name" v="Nyksvatnet" />
=======
	<node id="-61139" lat="62.2361277806" lon="5.68503610518">
		<tag k="name" v="Svinevatnet" />
>>>>>>> e1d4bc35ff8a6074a6f2e91616a996b547c36f15
		<tag k="natural" v="water" />
		<tag k="ssr:stedsnr" v="557527" />
	</node>
<<<<<<< HEAD
	<node lat="62.254288892697645" lon="5.611663897339216" id="-1524">
		<tag k="name" v="Vass-stranda" />
		<tag k="natural" v="beach" />
		<tag k="ssr:stedsnr" v="584025" />
	</node>
	<node lat="62.21474444674354" lon="5.6574750016863895" id="-1531">
		<tag k="alt_name" v="Almestadelva" />
		<tag k="name" v="Vågselva" />
		<tag k="ssr:stedsnr" v="617554" />
		<tag k="waterway" v="stream" />
	</node>
	<node lat="62.220613884557004" lon="5.589574999084464" id="-1561">
		<tag k="name" v="Skarelva" />
		<tag k="ssr:stedsnr" v="644246" />
		<tag k="waterway" v="stream" />
	</node>
	<node lat="62.245313893212" lon="5.606463882715978" id="-1571">
		<tag k="alt_name" v="Store Telavatnet" />
		<tag k="name" v="Telebergvatna" />
=======
	<node id="-60622" lat="62.2524972231" lon="5.56840278014">
		<tag k="name" v="Lisbetelva" />
		<tag k="ssr:stedsnr" v="705020" />
		<tag k="waterway" v="stream" />
	</node>
	<node id="-60791" lat="62.2481333359" lon="5.66915000713">
		<tag k="name" v="Myrkestranda" />
		<tag k="natural" v="beach" />
		<tag k="ssr:stedsnr" v="948109" />
	</node>
	<node id="-61119" lat="62.2167944425" lon="5.65071944122">
		<tag k="name" v="Vågosen" />
		<tag k="natural" v="bay" />
		<tag k="ssr:stedsnr" v="523248" />
	</node>
	<node id="-60606" lat="62.25831389" lon="5.44810278225">
		<tag k="name" v="Kvernaelva" />
		<tag k="ssr:stedsnr" v="523200" />
		<tag k="waterway" v="stream" />
	</node>
	<node id="-61106" lat="62.2427999955" lon="5.60926388366">
		<tag k="name" v="Litle Telavatnet" />
>>>>>>> e1d4bc35ff8a6074a6f2e91616a996b547c36f15
		<tag k="natural" v="water" />
		<tag k="ssr:stedsnr" v="738587" />
	</node>
<<<<<<< HEAD
	<node lat="62.232063892997594" lon="5.725750004225389" id="-1574">
		<tag k="name" v="Leikongeidet" />
		<tag k="place" v="locality" />
		<tag k="ssr:stedsnr" v="739166" />
	</node>
	<node lat="62.20946944080891" lon="5.580858332867021" id="-1584">
		<tag k="name" v="Larsneselva" />
		<tag k="ssr:stedsnr" v="764053" />
		<tag k="waterway" v="stream" />
	</node>
	<node lat="62.208483330942315" lon="5.655836104127089" id="-1585">
		<tag k="name" v="Middagselva" />
		<tag k="ssr:stedsnr" v="764056" />
		<tag k="waterway" v="stream" />
	</node>
	<node lat="62.25141666406769" lon="5.572891660972738" id="-1587">
		<tag k="name" v="Hane-elva" />
		<tag k="ssr:stedsnr" v="766017" />
		<tag k="waterway" v="stream" />
	</node>
	<node lat="62.20604444347319" lon="5.709483331054128" id="-1614">
		<tag k="name" v="Slokevatnet" />
=======
	<node id="-61089" lat="62.220830554" lon="5.67096944379">
		<tag k="name" v="Myklebustelva" />
		<tag k="ssr:stedsnr" v="436558" />
		<tag k="waterway" v="stream" />
	</node>
	<node id="-60575" lat="62.2323777811" lon="5.67757222298">
		<tag k="name" v="Svinevasselva" />
		<tag k="ssr:stedsnr" v="463012" />
		<tag k="waterway" v="stream" />
	</node>
	<node id="-60573" lat="62.2453194414" lon="5.5805166687">
		<tag k="name" v="Hanevatnet" />
		<tag k="natural" v="water" />
		<tag k="ssr:stedsnr" v="463009" />
	</node>
	<node id="-60572" lat="62.2278305541" lon="5.64551944145">
		<tag k="name" v="Sæsselva" />
		<tag k="ssr:stedsnr" v="463003" />
		<tag k="waterway" v="stream" />
	</node>
	<node id="-60553" lat="62.1979388915" lon="5.59023888037">
		<tag k="name" v="Dalevatnet" />
>>>>>>> e1d4bc35ff8a6074a6f2e91616a996b547c36f15
		<tag k="natural" v="water" />
		<tag k="ssr:stedsnr" v="799571" />
	</node>
<<<<<<< HEAD
	<node lat="62.25919167064017" lon="5.610630547356542" id="-1642">
		<tag k="name" v="Båtneset" />
		<tag k="natural" v="cape" />
		<tag k="ssr:stedsnr" v="827242" />
	</node>
	<node lat="62.22839722636384" lon="5.722886118578402" id="-1646">
		<tag k="name" v="Rauddalselva" />
		<tag k="ssr:stedsnr" v="827090" />
		<tag k="waterway" v="stream" />
	</node>
	<node lat="62.223122219464244" lon="5.713313880077913" id="-1647">
		<tag k="name" v="Skogeelva" />
		<tag k="ssr:stedsnr" v="827091" />
		<tag k="waterway" v="stream" />
	</node>
	<node lat="62.25243888921905" lon="5.63486110263555" id="-1665">
		<tag k="name" v="Kalvegjerdholmen" />
		<tag k="place" v="islet" />
		<tag k="ssr:stedsnr" v="887029" />
	</node>
	<node lat="62.24997777723461" lon="5.421861108775505" id="-1666">
		<tag k="name" v="Fosselva" />
		<tag k="ssr:stedsnr" v="887080" />
		<tag k="waterway" v="stream" />
	</node>
	<node lat="62.252625002734064" lon="5.642683325494668" id="-1671">
		<tag k="name" v="Busundet" />
		<tag k="natural" v="strait" />
		<tag k="ssr:stedsnr" v="887228" />
	</node>
	<node lat="62.26057221906033" lon="5.615661105411786" id="-1683">
		<tag k="name" v="Sædalsholmen" />
		<tag k="place" v="islet" />
		<tag k="ssr:stedsnr" v="948038" />
=======
	<node id="-61052" lat="62.2628333322" lon="5.57945000964">
		<tag k="name" v="Hagesellelva" />
		<tag k="ssr:stedsnr" v="402015" />
		<tag k="waterway" v="stream" />
	</node>
	<node id="-60532" lat="62.2760305534" lon="5.55553889563">
		<tag k="name" v="Hidselva" />
		<tag k="ssr:stedsnr" v="462165" />
		<tag k="waterway" v="river" />
	</node>
	<node id="-61042" lat="62.2173611139" lon="5.62902500509">
		<tag k="name" v="Langbergselva" />
		<tag k="ssr:stedsnr" v="401051" />
		<tag k="waterway" v="stream" />
	</node>
	<node id="-60515" lat="62.2023361115" lon="5.61332223161">
		<tag k="name" v="Dale-elva" />
		<tag k="ssr:stedsnr" v="279006" />
		<tag k="waterway" v="stream" />
	</node>
	<node id="-60512" lat="62.2172027797" lon="5.69437500287">
		<tag k="name" v="Vassvikane" />
		<tag k="natural" v="bay" />
		<tag k="ssr:stedsnr" v="463076" />
	</node>
	<node id="-60507" lat="62.2216444437" lon="5.64913333864">
		<tag k="name" v="Myklebustosen" />
		<tag k="natural" v="bay" />
		<tag k="ssr:stedsnr" v="219059" />
>>>>>>> e1d4bc35ff8a6074a6f2e91616a996b547c36f15
	</node>
	<node id="-61001" lat="62.246230552" lon="5.66022222506">
		<tag k="name" v="Riksstallelva" />
		<tag k="ssr:stedsnr" v="341080" />
		<tag k="waterway" v="stream" />
	</node>
	<node id="-61000" lat="62.2028944463" lon="5.39731666279">
		<tag k="name" v="Myraelva" />
		<tag k="ssr:stedsnr" v="341077" />
		<tag k="waterway" v="stream" />
	</node>
	<node id="-60475" lat="62.2623833365" lon="5.62236943529">
		<tag k="name" v="Bogen" />
		<tag k="natural" v="bay" />
		<tag k="ssr:stedsnr" v="281017" />
	</node>
	<node id="-60985" lat="62.2012916642" lon="5.64651667187">
		<tag k="alt_name" v="Litlevitevatnet" />
		<tag k="name" v="Litlevetevatnet" />
		<tag k="natural" v="water" />
		<tag k="ssr:stedsnr" v="314583" />
	</node>
	<node id="-60984" lat="62.2055944468" lon="5.65466111535">
		<tag k="alt_name" v="Myrkevatna" />
		<tag k="name" v="Middagsvatna" />
		<tag k="natural" v="water" />
		<tag k="ssr:stedsnr" v="314582" />
	</node>
	<node id="-60980" lat="62.2462666692" lon="5.62448610946">
		<tag k="alt_name" v="Klovevatnet" />
		<tag k="name" v="Klovvatnet" />
		<tag k="natural" v="water" />
		<tag k="ssr:stedsnr" v="314617" />
	</node>
	<node id="-60970" lat="62.2559333336" lon="5.62120555552">
		<tag k="fixme" v="multiple name tags, choose one and add the other to alt_name" />
		<tag k="name" v="Storevatnet;Sædalsvatnet" />
		<tag k="natural" v="water" />
		<tag k="ssr:stedsnr" v="193962" />
		<tag k="water" v="lake" />
	</node>
	<node id="-60959" lat="62.2121777775" lon="5.56931111653">
		<tag k="name" v="Hallevatnet" />
		<tag k="natural" v="water" />
		<tag k="ssr:stedsnr" v="193545" />
	</node>
	<node id="-60440" lat="62.2344916657" lon="5.63140834209">
		<tag k="name" v="Hornelva" />
		<tag k="ssr:stedsnr" v="132610" />
		<tag k="waterway" v="stream" />
	</node>
	<node id="-60438" lat="62.2075249979" lon="5.70149166566">
		<tag k="name" v="Tødenesvatnet" />
		<tag k="natural" v="water" />
		<tag k="ssr:stedsnr" v="132526" />
	</node>
	<node id="-60933" lat="62.2152666627" lon="5.3789222214">
		<tag k="name" v="Nonsstigelva" />
		<tag k="ssr:stedsnr" v="159075" />
		<tag k="waterway" v="stream" />
	</node>
</osm>
