<?xml version="1.0" encoding="UTF-8"?>
<<<<<<< HEAD
<osm version="0.6" generator="osmapis">
	<node lat="62.19794025087854" lon="5.683476610890216" id="-680">
		<tag k="alt_name" v="Oksavik" />
		<tag k="fixme" v="consider place=hamlet" />
		<tag k="name" v="Oksavika" />
		<tag k="place" v="farm" />
		<tag k="ssr:stedsnr" v="10486" />
	</node>
	<node lat="62.239507409457744" lon="5.565529812107979" id="-681">
		<tag k="fixme" v="consider place=hamlet" />
		<tag k="name" v="Saure" />
		<tag k="place" v="farm" />
		<tag k="ssr:stedsnr" v="10615" />
	</node>
	<node lat="62.22267691000758" lon="5.6538150460640155" id="-685">
		<tag k="fixme" v="consider place=hamlet" />
		<tag k="name" v="Myklebust" />
		<tag k="place" v="farm" />
		<tag k="ssr:stedsnr" v="11578" />
	</node>
	<node lat="62.19847234410104" lon="5.417831869478361" id="-686">
		<tag k="fixme" v="consider place=hamlet" />
		<tag k="name" v="Bringsinghaug" />
		<tag k="place" v="village" />
		<tag k="ssr:stedsnr" v="11585" />
	</node>
	<node lat="62.21958332983327" lon="5.393761109153326" id="-701">
		<tag k="name" v="Skaremyra" />
		<tag k="place" v="farm" />
		<tag k="ssr:stedsnr" v="38067" />
	</node>
	<node lat="62.2161033146024" lon="5.408005044631357" id="-708">
		<tag k="fixme" v="consider place=hamlet" />
		<tag k="name" v="Kalsnes" />
		<tag k="place" v="farm" />
		<tag k="ssr:stedsnr" v="38316" />
	</node>
	<node lat="62.24595833026493" lon="5.413886113345244" id="-710">
		<tag k="name" v="Sandsenden" />
		<tag k="place" v="farm" />
		<tag k="ssr:stedsnr" v="51477" />
	</node>
	<node lat="62.22452221990885" lon="5.645172231933849" id="-713">
		<tag k="name" v="Gurskebotn" />
		<tag k="place" v="hamlet" />
		<tag k="ssr:stedsnr" v="52411" />
	</node>
	<node lat="62.1964361665814" lon="5.668337444008303" id="-714">
		<tag k="fixme" v="consider place=hamlet" />
		<tag k="name" v="Torset" />
		<tag k="place" v="farm" />
		<tag k="ssr:stedsnr" v="71530" />
	</node>
	<node lat="62.21584709445781" lon="5.46342070726834" id="-717">
		<tag k="fixme" v="consider place=hamlet" />
		<tag k="name" v="Voksa" />
		<tag k="place" v="farm" />
		<tag k="ssr:stedsnr" v="71618" />
	</node>
	<node lat="62.20138142415643" lon="5.390468939014732" id="-724">
		<tag k="fixme" v="consider place=hamlet" />
		<tag k="name" v="Myra" />
		<tag k="place" v="farm" />
		<tag k="ssr:stedsnr" v="72570" />
	</node>
	<node lat="62.244807356711114" lon="5.5429259590887" id="-737">
		<tag k="fixme" v="consider place=hamlet" />
		<tag k="name" v="Røyset" />
		<tag k="place" v="farm" />
		<tag k="ssr:stedsnr" v="131593" />
	</node>
	<node lat="62.27171488906118" lon="5.552250187537432" id="-738">
		<tag k="fixme" v="consider place=hamlet" />
		<tag k="name" v="Gota" />
		<tag k="place" v="farm" />
		<tag k="ssr:stedsnr" v="132504" />
	</node>
	<node lat="62.226383333817466" lon="5.637833333828252" id="-747">
		<tag k="alt_name" v="Sætre, yt" />
		<tag k="name" v="Ytre Sætre" />
		<tag k="place" v="farm" />
		<tag k="ssr:stedsnr" v="253593" />
	</node>
	<node lat="62.1911194453519" lon="5.608199997570221" id="-781">
		<tag k="name" v="Leitet" />
		<tag k="place" v="farm" />
		<tag k="ssr:stedsnr" v="220292" />
	</node>
	<node lat="62.22221666516932" lon="5.66538332598581" id="-806">
		<tag k="name" v="Bøen" />
		<tag k="place" v="farm" />
		<tag k="ssr:stedsnr" v="462194" />
	</node>
	<node lat="62.22064722161667" lon="5.54380277375463" id="-807">
		<tag k="fixme" v="consider place=hamlet" />
		<tag k="name" v="Hallebygda" />
		<tag k="place" v="village" />
		<tag k="ssr:stedsnr" v="291528" />
	</node>
	<node lat="62.22679721967651" lon="5.640047224265365" id="-831">
		<tag k="name" v="Sætre" />
		<tag k="place" v="quarter" />
		<tag k="ssr:stedsnr" v="464124" />
	</node>
	<node lat="62.27745452279877" lon="5.552273164275193" id="-836">
		<tag k="fixme" v="consider place=hamlet" />
		<tag k="name" v="Hide" />
		<tag k="place" v="farm" />
		<tag k="ssr:stedsnr" v="314562" />
	</node>
	<node lat="62.22451851078659" lon="5.68049961784473" id="-843">
		<tag k="alt_name" v="Holte" />
		<tag k="fixme" v="consider place=hamlet" />
		<tag k="name" v="Holtane" />
		<tag k="place" v="farm" />
		<tag k="ssr:stedsnr" v="341308" />
	</node>
	<node lat="62.25845277969579" lon="5.550313881396087" id="-847">
		<tag k="name" v="Holane" />
=======
<osm generator="osmapis" version="0.6">
	<node id="-60413" lat="62.2263833338" lon="5.63783333383">
		<tag k="alt_name" v="Sætre, yt" />
		<tag k="name" v="Ytre Sætre" />
>>>>>>> e1d4bc35ff8a6074a6f2e91616a996b547c36f15
		<tag k="place" v="farm" />
		<tag k="ssr:stedsnr" v="341228" />
	</node>
<<<<<<< HEAD
	<node lat="62.26894722615465" lon="5.55442221241204" id="-849">
		<tag k="name" v="Nedre Stokkset" />
=======
	<node id="-60919" lat="62.2167188673" lon="5.56014494324">
		<tag k="alt_name" v="Storegjerde" />
		<tag k="fixme" v="consider place=hamlet" />
		<tag k="name" v="Stauregjerde" />
>>>>>>> e1d4bc35ff8a6074a6f2e91616a996b547c36f15
		<tag k="place" v="farm" />
		<tag k="ssr:stedsnr" v="354606" />
	</node>
<<<<<<< HEAD
	<node lat="62.2260277738473" lon="5.606227775900162" id="-852">
		<tag k="name" v="Storskar" />
		<tag k="place" v="isolated_dwelling" />
		<tag k="ssr:stedsnr" v="476582" />
	</node>
	<node lat="62.19968574683753" lon="5.701157731651079" id="-856">
		<tag k="fixme" v="consider place=hamlet" />
		<tag k="name" v="Tødenes" />
=======
	<node id="-60403" lat="62.1964361666" lon="5.66833744401">
		<tag k="fixme" v="consider place=hamlet" />
		<tag k="name" v="Torset" />
		<tag k="place" v="farm" />
		<tag k="ssr:stedsnr" v="71530" />
	</node>
	<node id="-60913" lat="62.2249111111" lon="5.64656388872">
		<tag k="alt_name" v="Sætre, in" />
		<tag k="name" v="Indre Sætre" />
>>>>>>> e1d4bc35ff8a6074a6f2e91616a996b547c36f15
		<tag k="place" v="farm" />
		<tag k="ssr:stedsnr" v="374491" />
	</node>
<<<<<<< HEAD
	<node lat="62.19920122439257" lon="5.394718208969557" id="-880">
		<tag k="alt_name" v="Hatlebrekke" />
=======
	<node id="-60912" lat="62.2315845908" lon="5.616990959">
>>>>>>> e1d4bc35ff8a6074a6f2e91616a996b547c36f15
		<tag k="fixme" v="consider place=hamlet" />
		<tag k="name" v="Brekke" />
		<tag k="place" v="farm" />
		<tag k="ssr:stedsnr" v="436516" />
	</node>
<<<<<<< HEAD
	<node lat="62.25783611345203" lon="5.584316664386629" id="-889">
		<tag k="name" v="Gjerdsvika" />
=======
	<node id="-60399" lat="62.2245222199" lon="5.64517223193">
		<tag k="name" v="Gurskebotn" />
>>>>>>> e1d4bc35ff8a6074a6f2e91616a996b547c36f15
		<tag k="place" v="hamlet" />
		<tag k="ssr:stedsnr" v="476574" />
	</node>
<<<<<<< HEAD
	<node lat="62.213675660459394" lon="5.679784166448721" id="-894">
=======
	<node id="-60909" lat="62.2448073567" lon="5.54292595909">
>>>>>>> e1d4bc35ff8a6074a6f2e91616a996b547c36f15
		<tag k="fixme" v="consider place=hamlet" />
		<tag k="name" v="Almestad" />
		<tag k="place" v="farm" />
		<tag k="ssr:stedsnr" v="678536" />
	</node>
<<<<<<< HEAD
	<node lat="62.20803373547925" lon="5.568196106381844" id="-896">
		<tag k="fixme" v="consider place=hamlet" />
		<tag k="name" v="Larsnes" />
		<tag k="place" v="farm" />
		<tag k="ssr:stedsnr" v="678542" />
	</node>
	<node lat="62.20145591973719" lon="5.586490984595102" id="-898">
		<tag k="fixme" v="consider place=hamlet" />
		<tag k="name" v="Kvalen" />
		<tag k="place" v="farm" />
		<tag k="ssr:stedsnr" v="678546" />
	</node>
	<node lat="62.23686268185859" lon="5.578473614733465" id="-903">
		<tag k="alt_name" v="Hauge, yt" />
=======
	<node id="-60905" lat="62.2320416653" lon="5.61775832546">
		<tag k="name" v="Teige" />
		<tag k="place" v="isolated_dwelling" />
		<tag k="ssr:stedsnr" v="112599" />
	</node>
	<node id="-60904" lat="62.2412805548" lon="5.55659999498">
		<tag k="name" v="Hagen" />
		<tag k="place" v="isolated_dwelling" />
		<tag k="ssr:stedsnr" v="112597" />
	</node>
	<node id="-60384" lat="62.2161033146" lon="5.40800504463">
>>>>>>> e1d4bc35ff8a6074a6f2e91616a996b547c36f15
		<tag k="fixme" v="consider place=hamlet" />
		<tag k="name" v="Ytre Hauge" />
		<tag k="place" v="farm" />
		<tag k="ssr:stedsnr" v="496616" />
	</node>
<<<<<<< HEAD
	<node lat="62.22419591855924" lon="5.69343670414835" id="-923">
=======
	<node id="-61348" lat="62.2608861084" lon="5.57899721307">
		<tag k="name" v="Gjerde" />
		<tag k="place" v="hamlet" />
		<tag k="ssr:stedsnr" v="874894" />
	</node>
	<node id="-60373" lat="62.2395074095" lon="5.56552981211">
>>>>>>> e1d4bc35ff8a6074a6f2e91616a996b547c36f15
		<tag k="fixme" v="consider place=hamlet" />
		<tag k="name" v="Brekke" />
		<tag k="place" v="farm" />
		<tag k="ssr:stedsnr" v="556611" />
	</node>
<<<<<<< HEAD
	<node lat="62.22204563934623" lon="5.709912065765678" id="-924">
=======
	<node id="-60370" lat="62.2287551798" lon="5.36880451542">
>>>>>>> e1d4bc35ff8a6074a6f2e91616a996b547c36f15
		<tag k="fixme" v="consider place=hamlet" />
		<tag k="name" v="Skoge" />
		<tag k="place" v="farm" />
		<tag k="ssr:stedsnr" v="556613" />
	</node>
<<<<<<< HEAD
	<node lat="62.219969444367536" lon="5.55271665988645" id="-925">
		<tag k="alt_name" v="Halle, indre" />
		<tag k="name" v="Indre Halle" />
=======
	<node id="-60579" lat="62.2267972197" lon="5.64004722427">
		<tag k="name" v="Sætre" />
		<tag k="place" v="quarter" />
		<tag k="ssr:stedsnr" v="464124" />
	</node>
	<node id="-60368" lat="62.1911194454" lon="5.60819999757">
		<tag k="name" v="Leitet" />
>>>>>>> e1d4bc35ff8a6074a6f2e91616a996b547c36f15
		<tag k="place" v="farm" />
		<tag k="ssr:stedsnr" v="556614" />
	</node>
<<<<<<< HEAD
	<node lat="62.25469166870709" lon="5.466150009241099" id="-940">
		<tag k="name" v="Myrane" />
=======
	<node id="-60878" lat="62.2013814242" lon="5.39046893901">
		<tag k="fixme" v="consider place=hamlet" />
		<tag k="name" v="Myra" />
>>>>>>> e1d4bc35ff8a6074a6f2e91616a996b547c36f15
		<tag k="place" v="farm" />
		<tag k="ssr:stedsnr" v="583241" />
	</node>
<<<<<<< HEAD
	<node lat="62.22802777388998" lon="5.684225004139859" id="-947">
		<tag k="name" v="Høgestøylen" />
		<tag k="place" v="locality" />
		<tag k="ssr:stedsnr" v="584102" />
	</node>
	<node lat="62.193713884883174" lon="5.6426666700989445" id="-950">
		<tag k="name" v="Rustene" />
		<tag k="place" v="quarter" />
		<tag k="ssr:stedsnr" v="585104" />
	</node>
	<node lat="62.25726389155454" lon="5.585227777794204" id="-951">
		<tag k="name" v="Gjerde" />
		<tag k="place" v="quarter" />
		<tag k="ssr:stedsnr" v="585113" />
	</node>
	<node lat="62.23350789036058" lon="5.60791967260462" id="-953">
=======
	<node id="-60876" lat="62.2241423455" lon="5.70757744663">
>>>>>>> e1d4bc35ff8a6074a6f2e91616a996b547c36f15
		<tag k="fixme" v="consider place=hamlet" />
		<tag k="name" v="Litlebøen" />
		<tag k="place" v="farm" />
		<tag k="ssr:stedsnr" v="617604" />
	</node>
<<<<<<< HEAD
	<node lat="62.26468901262634" lon="5.565002462855215" id="-957">
		<tag k="fixme" v="consider place=hamlet" />
		<tag k="name" v="Hageselle" />
		<tag k="place" v="farm" />
		<tag k="ssr:stedsnr" v="617536" />
	</node>
	<node lat="62.2183999960835" lon="5.366686121188889" id="-983">
		<tag k="name" v="Støylen" />
=======
	<node id="-61260" lat="62.2053694406" lon="5.57777222973">
		<tag k="name" v="Haugen" />
		<tag k="place" v="farm" />
		<tag k="ssr:stedsnr" v="766291" />
	</node>
	<node id="-60865" lat="62.2686557519" lon="5.55624709917">
		<tag k="name" v="Stokkset" />
		<tag k="place" v="hamlet" />
		<tag k="ssr:stedsnr" v="71558" />
	</node>
	<node id="-60860" lat="62.2459583303" lon="5.41388611335">
		<tag k="name" v="Sandsenden" />
>>>>>>> e1d4bc35ff8a6074a6f2e91616a996b547c36f15
		<tag k="place" v="farm" />
		<tag k="ssr:stedsnr" v="705339" />
	</node>
<<<<<<< HEAD
	<node lat="62.20210460748868" lon="5.416323022808928" id="-987">
		<tag k="fixme" v="consider place=hamlet" />
		<tag k="name" v="Hauge" />
=======
	<node id="-61359" lat="62.2079470682" lon="5.41722534056">
		<tag k="name" v="Vonheim" />
>>>>>>> e1d4bc35ff8a6074a6f2e91616a996b547c36f15
		<tag k="place" v="farm" />
		<tag k="ssr:stedsnr" v="642382" />
	</node>
<<<<<<< HEAD
	<node lat="62.246227775699516" lon="5.485766666010459" id="-998">
		<tag k="name" v="Toftesund" />
		<tag k="place" v="farm" />
		<tag k="ssr:stedsnr" v="644176" />
	</node>
	<node lat="62.20321823104238" lon="5.728101419822318" id="-1008">
		<tag k="alt_name" v="Skrede" />
		<tag k="name" v="Indre Skrede" />
=======
	<node id="-61357" lat="62.2187622683" lon="5.63427753254">
		<tag k="name" v="Langberg" />
>>>>>>> e1d4bc35ff8a6074a6f2e91616a996b547c36f15
		<tag k="place" v="farm" />
		<tag k="ssr:stedsnr" v="678089" />
	</node>
<<<<<<< HEAD
	<node lat="62.22309133447164" lon="5.5416557197205965" id="-1009">
=======
	<node id="-61356" lat="62.2623859975" lon="5.44695851583">
>>>>>>> e1d4bc35ff8a6074a6f2e91616a996b547c36f15
		<tag k="fixme" v="consider place=hamlet" />
		<tag k="name" v="Kråna" />
		<tag k="place" v="farm" />
		<tag k="ssr:stedsnr" v="678615" />
	</node>
<<<<<<< HEAD
	<node lat="62.21471944639536" lon="5.647508328795513" id="-1015">
		<tag k="name" v="Gamlesætra" />
		<tag k="place" v="farm" />
		<tag k="ssr:stedsnr" v="678529" />
	</node>
	<node lat="62.20247848340227" lon="5.382521727465201" id="-1017">
=======
	<node id="-61355" lat="62.1724270359" lon="5.39579577847">
>>>>>>> e1d4bc35ff8a6074a6f2e91616a996b547c36f15
		<tag k="fixme" v="consider place=hamlet" />
		<tag k="name" v="Støylen" />
		<tag k="place" v="farm" />
		<tag k="ssr:stedsnr" v="678584" />
	</node>
<<<<<<< HEAD
	<node lat="62.23480810808487" lon="5.585330390054728" id="-1019">
		<tag k="alt_name" v="Hauge, in;Hauge" />
		<tag k="name" v="Indre Hauge" />
		<tag k="place" v="farm" />
		<tag k="ssr:stedsnr" v="678594" />
	</node>
	<node lat="62.19733610829479" lon="5.5799777757370395" id="-1024">
		<tag k="name" v="Grønevika" />
		<tag k="place" v="farm" />
		<tag k="ssr:stedsnr" v="705128" />
	</node>
	<node lat="62.25134999645165" lon="5.47915555192243" id="-1030">
		<tag k="fixme" v="consider place=hamlet" />
		<tag k="name" v="Sandshamn" />
		<tag k="place" v="village" />
		<tag k="ssr:stedsnr" v="739504" />
	</node>
	<node lat="62.2238555662938" lon="5.593159362640297" id="-1035">
=======
	<node id="-61354" lat="62.2256662789" lon="5.64170350537">
		<tag k="name" v="Sætre" />
		<tag k="place" v="hamlet" />
		<tag k="ssr:stedsnr" v="962930" />
	</node>
	<node id="-61353" lat="62.216513891" lon="5.64290277894">
		<tag k="name" v="Vågstrand" />
		<tag k="place" v="isolated_dwelling" />
		<tag k="ssr:stedsnr" v="962448" />
	</node>
	<node id="-60401" lat="62.2158470945" lon="5.46342070727">
		<tag k="fixme" v="consider place=hamlet" />
		<tag k="name" v="Voksa" />
		<tag k="place" v="farm" />
		<tag k="ssr:stedsnr" v="71618" />
	</node>
	<node id="-60836" lat="62.2195833298" lon="5.39376110915">
		<tag k="name" v="Skaremyra" />
		<tag k="place" v="farm" />
		<tag k="ssr:stedsnr" v="38067" />
	</node>
	<node id="-61344" lat="62.22242188" lon="5.61596612329">
>>>>>>> e1d4bc35ff8a6074a6f2e91616a996b547c36f15
		<tag k="fixme" v="consider place=hamlet" />
		<tag k="name" v="Sandvik" />
		<tag k="place" v="farm" />
		<tag k="ssr:stedsnr" v="739625" />
	</node>
<<<<<<< HEAD
	<node lat="62.20536944059346" lon="5.577772229728138" id="-1047">
		<tag k="name" v="Haugen" />
=======
	<node id="-61343" lat="62.21651662" lon="5.57021863842">
		<tag k="name" v="Legene" />
>>>>>>> e1d4bc35ff8a6074a6f2e91616a996b547c36f15
		<tag k="place" v="farm" />
		<tag k="ssr:stedsnr" v="766291" />
	</node>
<<<<<<< HEAD
	<node lat="62.207743278148264" lon="5.772224264018086" id="-1059">
=======
	<node id="-60822" lat="62.1984723441" lon="5.41783186948">
>>>>>>> e1d4bc35ff8a6074a6f2e91616a996b547c36f15
		<tag k="fixme" v="consider place=hamlet" />
		<tag k="name" v="Laupen" />
		<tag k="place" v="farm" />
		<tag k="ssr:stedsnr" v="921072" />
	</node>
<<<<<<< HEAD
	<node lat="62.21799722358553" lon="5.376630549466399" id="-1075">
		<tag k="name" v="Dysa" />
=======
	<node id="-60821" lat="62.22267691" lon="5.65381504606">
		<tag k="fixme" v="consider place=hamlet" />
		<tag k="name" v="Myklebust" />
>>>>>>> e1d4bc35ff8a6074a6f2e91616a996b547c36f15
		<tag k="place" v="farm" />
		<tag k="ssr:stedsnr" v="827316" />
	</node>
<<<<<<< HEAD
	<node lat="62.2100805553583" lon="5.347269448473103" id="-1076">
=======
	<node id="-61332" lat="62.2100805554" lon="5.34726944847">
>>>>>>> e1d4bc35ff8a6074a6f2e91616a996b547c36f15
		<tag k="name" v="Vestnes" />
		<tag k="place" v="farm" />
		<tag k="ssr:stedsnr" v="827317" />
	</node>
<<<<<<< HEAD
	<node lat="62.26123610994531" lon="5.405411106982211" id="-1080">
		<tag k="name" v="Grøtbuda" />
		<tag k="place" v="locality" />
		<tag k="ssr:stedsnr" v="827227" />
	</node>
	<node lat="62.22802499612381" lon="5.621866675339961" id="-1091">
		<tag k="alt_name" v="Leirvika" />
		<tag k="name" v="Leirvik" />
=======
	<node id="-60654" lat="62.2280277739" lon="5.68422500414">
		<tag k="name" v="Høgestøylen" />
		<tag k="place" v="locality" />
		<tag k="ssr:stedsnr" v="584102" />
	</node>
	<node id="-61329" lat="62.254948757" lon="5.47953931681">
		<tag k="alt_name" v="Sande" />
		<tag k="fixme" v="consider place=hamlet" />
		<tag k="name" v="Nørdre Sande" />
>>>>>>> e1d4bc35ff8a6074a6f2e91616a996b547c36f15
		<tag k="place" v="farm" />
		<tag k="ssr:stedsnr" v="860611" />
	</node>
<<<<<<< HEAD
	<node lat="62.22606087821656" lon="5.640949490439124" id="-1115">
		<tag k="alt_name" v="Sætre, midtre" />
		<tag k="name" v="Midtre Sætre" />
=======
	<node id="-60812" lat="62.2202574958" lon="5.38222276091">
		<tag k="fixme" v="consider place=hamlet" />
		<tag k="name" v="Ristesundet" />
>>>>>>> e1d4bc35ff8a6074a6f2e91616a996b547c36f15
		<tag k="place" v="farm" />
		<tag k="ssr:stedsnr" v="921600" />
	</node>
<<<<<<< HEAD
	<node lat="62.22377854033415" lon="5.538064697584129" id="-1118">
=======
	<node id="-60811" lat="62.1979402509" lon="5.68347661089">
		<tag k="alt_name" v="Oksavik" />
>>>>>>> e1d4bc35ff8a6074a6f2e91616a996b547c36f15
		<tag k="fixme" v="consider place=hamlet" />
		<tag k="name" v="Nupen" />
		<tag k="place" v="farm" />
<<<<<<< HEAD
		<tag k="ssr:stedsnr" v="921639" />
	</node>
	<node lat="62.2564583342608" lon="5.589350003238903" id="-1138">
=======
		<tag k="ssr:stedsnr" v="10486" />
	</node>
	<node id="-60810" lat="62.2036677494" lon="5.7250967399">
		<tag k="name" v="Skrede" />
		<tag k="place" v="hamlet" />
		<tag k="ssr:stedsnr" v="982646" />
	</node>
	<node id="-60809" lat="62.1932916632" lon="5.58418889255">
		<tag k="name" v="Breivikneset" />
		<tag k="place" v="quarter" />
		<tag k="ssr:stedsnr" v="950114" />
	</node>
	<node id="-61320" lat="62.2612361099" lon="5.40541110698">
		<tag k="name" v="Grøtbuda" />
		<tag k="place" v="locality" />
		<tag k="ssr:stedsnr" v="827227" />
	</node>
	<node id="-60802" lat="62.2564583343" lon="5.58935000324">
>>>>>>> e1d4bc35ff8a6074a6f2e91616a996b547c36f15
		<tag k="name" v="Rise" />
		<tag k="place" v="farm" />
		<tag k="ssr:stedsnr" v="948205" />
	</node>
<<<<<<< HEAD
	<node lat="62.234719523825646" lon="5.582978064410286" id="-1145">
		<tag k="name" v="Hauge" />
		<tag k="place" v="hamlet" />
		<tag k="ssr:stedsnr" v="948235" />
	</node>
	<node lat="62.218762268300424" lon="5.634277532537844" id="-1151">
		<tag k="name" v="Langberg" />
		<tag k="place" v="farm" />
		<tag k="ssr:stedsnr" v="987303" />
	</node>
	<node lat="62.22025749581804" lon="5.382222760909593" id="-1157">
		<tag k="fixme" v="consider place=hamlet" />
		<tag k="name" v="Ristesundet" />
		<tag k="place" v="farm" />
		<tag k="ssr:stedsnr" v="10629" />
	</node>
	<node lat="62.26865575192868" lon="5.5562470991671065" id="-1202">
		<tag k="name" v="Stokkset" />
		<tag k="place" v="hamlet" />
		<tag k="ssr:stedsnr" v="71558" />
	</node>
	<node lat="62.22414234549476" lon="5.707577446634216" id="-1207">
=======
	<node id="-61312" lat="62.1988555553" lon="5.67342222449">
		<tag k="name" v="Litlesætra" />
		<tag k="place" v="locality" />
		<tag k="ssr:stedsnr" v="827149" />
	</node>
	<node id="-61331" lat="62.2179972236" lon="5.37663054947">
		<tag k="name" v="Dysa" />
		<tag k="place" v="farm" />
		<tag k="ssr:stedsnr" v="827316" />
	</node>
	<node id="-60781" lat="62.2077432781" lon="5.77222426402">
>>>>>>> e1d4bc35ff8a6074a6f2e91616a996b547c36f15
		<tag k="fixme" v="consider place=hamlet" />
		<tag k="name" v="Aurvoll" />
		<tag k="place" v="farm" />
		<tag k="ssr:stedsnr" v="72553" />
	</node>
<<<<<<< HEAD
	<node lat="62.262474768208655" lon="5.432972012340956" id="-1223">
		<tag k="fixme" v="consider place=hamlet" />
		<tag k="name" v="Helland" />
=======
	<node id="-60779" lat="62.1992138868" lon="5.58231110535">
		<tag k="name" v="Gjerdet" />
>>>>>>> e1d4bc35ff8a6074a6f2e91616a996b547c36f15
		<tag k="place" v="farm" />
		<tag k="ssr:stedsnr" v="98255" />
	</node>
<<<<<<< HEAD
	<node lat="62.2412805547967" lon="5.55659999498438" id="-1235">
		<tag k="name" v="Hagen" />
		<tag k="place" v="isolated_dwelling" />
		<tag k="ssr:stedsnr" v="112597" />
	</node>
	<node lat="62.23204166529103" lon="5.617758325460356" id="-1236">
		<tag k="name" v="Teige" />
		<tag k="place" v="isolated_dwelling" />
		<tag k="ssr:stedsnr" v="112599" />
	</node>
	<node lat="62.19943333756117" lon="5.662188887045314" id="-1239">
		<tag k="name" v="Lisetsætra" />
		<tag k="place" v="locality" />
		<tag k="ssr:stedsnr" v="131530" />
	</node>
	<node lat="62.243986355691256" lon="5.418238753643305" id="-1240">
=======
	<node id="-61283" lat="62.2632566929" lon="5.41748191717">
		<tag k="name" v="Helland" />
		<tag k="place" v="locality" />
		<tag k="ssr:stedsnr" v="800496" />
	</node>
	<node id="-61282" lat="62.2611860655" lon="5.57572483509">
		<tag k="fixme" v="consider place=hamlet" />
		<tag k="name" v="Gjerde" />
		<tag k="place" v="farm" />
		<tag k="ssr:stedsnr" v="800494" />
	</node>
	<node id="-61278" lat="62.239849651" lon="5.47740385664">
>>>>>>> e1d4bc35ff8a6074a6f2e91616a996b547c36f15
		<tag k="fixme" v="consider place=hamlet" />
		<tag k="name" v="Skare" />
		<tag k="place" v="farm" />
		<tag k="ssr:stedsnr" v="131652" />
	</node>
<<<<<<< HEAD
	<node lat="62.231584590835816" lon="5.616990959002315" id="-1244">
=======
	<node id="-61276" lat="62.2452201937" lon="5.46303273325">
>>>>>>> e1d4bc35ff8a6074a6f2e91616a996b547c36f15
		<tag k="fixme" v="consider place=hamlet" />
		<tag k="name" v="Vik" />
		<tag k="place" v="farm" />
		<tag k="ssr:stedsnr" v="132567" />
	</node>
<<<<<<< HEAD
	<node lat="62.22491111110678" lon="5.646563888718339" id="-1245">
		<tag k="alt_name" v="Sætre, in" />
		<tag k="name" v="Indre Sætre" />
=======
	<node id="-61269" lat="62.266819441" lon="5.55911944175">
		<tag k="name" v="Øvre Stokkset" />
>>>>>>> e1d4bc35ff8a6074a6f2e91616a996b547c36f15
		<tag k="place" v="farm" />
		<tag k="ssr:stedsnr" v="132570" />
	</node>
<<<<<<< HEAD
	<node lat="62.21671886725207" lon="5.560144943236386" id="-1246">
		<tag k="alt_name" v="Storegjerde" />
		<tag k="fixme" v="consider place=hamlet" />
		<tag k="name" v="Stauregjerde" />
=======
	<node id="-61268" lat="62.2358777762" lon="5.58476111693">
		<tag k="fixme" v="consider place=hamlet" />
		<tag k="name" v="Haugsbygda" />
		<tag k="place" v="village" />
		<tag k="ssr:stedsnr" v="779595" />
	</node>
	<node id="-60748" lat="62.2280249961" lon="5.62186667534">
		<tag k="alt_name" v="Leirvika" />
		<tag k="name" v="Leirvik" />
>>>>>>> e1d4bc35ff8a6074a6f2e91616a996b547c36f15
		<tag k="place" v="farm" />
		<tag k="ssr:stedsnr" v="132576" />
	</node>
<<<<<<< HEAD
	<node lat="62.198552778667406" lon="5.585700002239834" id="-1259">
		<tag k="name" v="Vasstranda" />
=======
	<node id="-61257" lat="62.2169694446" lon="5.37255833076">
		<tag k="name" v="Nybakken" />
>>>>>>> e1d4bc35ff8a6074a6f2e91616a996b547c36f15
		<tag k="place" v="farm" />
		<tag k="ssr:stedsnr" v="159130" />
	</node>
<<<<<<< HEAD
	<node lat="62.25721944035647" lon="5.588511116897482" id="-1270">
		<tag k="name" v="Rise" />
		<tag k="place" v="quarter" />
		<tag k="ssr:stedsnr" v="161125" />
	</node>
	<node lat="62.220816665371764" lon="5.647258339203443" id="-1271">
		<tag k="name" v="Vågsneset" />
		<tag k="place" v="quarter" />
		<tag k="ssr:stedsnr" v="161126" />
	</node>
	<node lat="62.23459722074493" lon="5.597386108013142" id="-1274">
		<tag k="name" v="Grøthaug" />
		<tag k="place" v="isolated_dwelling" />
		<tag k="ssr:stedsnr" v="173539" />
	</node>
	<node lat="62.19135555678087" lon="5.5931194404737115" id="-1281">
		<tag k="name" v="Breivika" />
=======
	<node id="-60736" lat="62.2237785403" lon="5.53806469758">
		<tag k="fixme" v="consider place=hamlet" />
		<tag k="name" v="Nupen" />
		<tag k="place" v="farm" />
		<tag k="ssr:stedsnr" v="921639" />
	</node>
	<node id="-60734" lat="62.2260608782" lon="5.64094949044">
		<tag k="alt_name" v="Sætre, midtre" />
		<tag k="name" v="Midtre Sætre" />
>>>>>>> e1d4bc35ff8a6074a6f2e91616a996b547c36f15
		<tag k="place" v="farm" />
		<tag k="ssr:stedsnr" v="192580" />
	</node>
<<<<<<< HEAD
	<node lat="62.19224411386749" lon="5.638558175773584" id="-1283">
=======
	<node id="-61234" lat="62.2154455319" lon="5.65165766432">
>>>>>>> e1d4bc35ff8a6074a6f2e91616a996b547c36f15
		<tag k="fixme" v="consider place=hamlet" />
		<tag k="name" v="Støylane" />
		<tag k="place" v="farm" />
		<tag k="ssr:stedsnr" v="192529" />
	</node>
<<<<<<< HEAD
	<node lat="62.24220903708541" lon="5.451008877520372" id="-1292">
		<tag k="fixme" v="consider place=hamlet" />
		<tag k="name" v="Støyle" />
=======
	<node id="-61233" lat="62.2238888843" lon="5.57785554703">
		<tag k="name" v="Strand" />
>>>>>>> e1d4bc35ff8a6074a6f2e91616a996b547c36f15
		<tag k="place" v="farm" />
		<tag k="ssr:stedsnr" v="192684" />
	</node>
<<<<<<< HEAD
	<node lat="62.25626248470648" lon="5.473958825582881" id="-1295">
		<tag k="alt_name" v="Sandsbakk;Sandebakken" />
=======
	<node id="-60720" lat="62.1894268463" lon="5.60026606007">
>>>>>>> e1d4bc35ff8a6074a6f2e91616a996b547c36f15
		<tag k="fixme" v="consider place=hamlet" />
		<tag k="name" v="Sandsbakken" />
		<tag k="place" v="farm" />
		<tag k="ssr:stedsnr" v="193523" />
	</node>
<<<<<<< HEAD
	<node lat="62.207097221328674" lon="5.571349990508078" id="-1301">
=======
	<node id="-60718" lat="62.2513499965" lon="5.47915555192">
>>>>>>> e1d4bc35ff8a6074a6f2e91616a996b547c36f15
		<tag k="fixme" v="consider place=hamlet" />
		<tag k="name" v="Larsnes" />
		<tag k="place" v="village" />
		<tag k="ssr:stedsnr" v="193559" />
	</node>
<<<<<<< HEAD
	<node lat="62.22209166544748" lon="5.544061103857693" id="-1302">
		<tag k="alt_name" v="Halle, ytre" />
		<tag k="name" v="Ytre Halle" />
=======
	<node id="-60717" lat="62.2238555663" lon="5.59315936264">
		<tag k="fixme" v="consider place=hamlet" />
		<tag k="name" v="Sandvik" />
>>>>>>> e1d4bc35ff8a6074a6f2e91616a996b547c36f15
		<tag k="place" v="farm" />
		<tag k="ssr:stedsnr" v="193586" />
	</node>
<<<<<<< HEAD
	<node lat="62.22316657167274" lon="5.70993421345103" id="-1306">
		<tag k="fixme" v="consider place=hamlet" />
		<tag k="name" v="Seljeset" />
=======
	<node id="-60465" lat="62.2349138884" lon="5.59164721775">
		<tag k="name" v="Garden" />
		<tag k="place" v="farm" />
		<tag k="ssr:stedsnr" v="280227" />
	</node>
	<node id="-60708" lat="62.2183999961" lon="5.36668612119">
		<tag k="name" v="Støylen" />
>>>>>>> e1d4bc35ff8a6074a6f2e91616a996b547c36f15
		<tag k="place" v="farm" />
		<tag k="ssr:stedsnr" v="193596" />
	</node>
<<<<<<< HEAD
	<node lat="62.206189775683704" lon="5.3681597356414885" id="-1308">
=======
	<node id="-60705" lat="62.2028235705" lon="5.58022231597">
>>>>>>> e1d4bc35ff8a6074a6f2e91616a996b547c36f15
		<tag k="fixme" v="consider place=hamlet" />
		<tag k="name" v="Kvamme" />
		<tag k="place" v="farm" />
		<tag k="ssr:stedsnr" v="193602" />
	</node>
<<<<<<< HEAD
	<node lat="62.228755179774474" lon="5.368804515415911" id="-1332">
		<tag k="fixme" v="consider place=hamlet" />
		<tag k="name" v="Riste" />
=======
	<node id="-60704" lat="62.2436444474" lon="5.43444443829">
		<tag k="name" v="Lund" />
>>>>>>> e1d4bc35ff8a6074a6f2e91616a996b547c36f15
		<tag k="place" v="farm" />
		<tag k="ssr:stedsnr" v="220336" />
	</node>
<<<<<<< HEAD
	<node lat="62.199991669352464" lon="5.67305833539073" id="-1334">
		<tag k="name" v="Storesætra" />
		<tag k="place" v="locality" />
		<tag k="ssr:stedsnr" v="280050" />
	</node>
	<node lat="62.26248333214097" lon="5.427866674403794" id="-1338">
		<tag k="name" v="Plassen" />
=======
	<node id="-61211" lat="62.2462277757" lon="5.48576666601">
		<tag k="name" v="Toftesund" />
>>>>>>> e1d4bc35ff8a6074a6f2e91616a996b547c36f15
		<tag k="place" v="farm" />
		<tag k="ssr:stedsnr" v="280225" />
	</node>
<<<<<<< HEAD
	<node lat="62.203691669436864" lon="5.578783329154779" id="-1339">
		<tag k="name" v="Garden" />
=======
	<node id="-61196" lat="62.2191388887" lon="5.3863305489">
		<tag k="name" v="Rada" />
>>>>>>> e1d4bc35ff8a6074a6f2e91616a996b547c36f15
		<tag k="place" v="farm" />
		<tag k="ssr:stedsnr" v="280226" />
	</node>
<<<<<<< HEAD
	<node lat="62.23491388835028" lon="5.59164721774802" id="-1340">
		<tag k="name" v="Garden" />
=======
	<node id="-60682" lat="62.2230913345" lon="5.54165571972">
		<tag k="fixme" v="consider place=hamlet" />
		<tag k="name" v="Kråna" />
>>>>>>> e1d4bc35ff8a6074a6f2e91616a996b547c36f15
		<tag k="place" v="farm" />
		<tag k="ssr:stedsnr" v="280227" />
	</node>
<<<<<<< HEAD
	<node lat="62.25734999637375" lon="5.557599994279962" id="-1341">
		<tag k="name" v="Muren" />
=======
	<node id="-61188" lat="62.2021046075" lon="5.41632302281">
		<tag k="fixme" v="consider place=hamlet" />
		<tag k="name" v="Hauge" />
>>>>>>> e1d4bc35ff8a6074a6f2e91616a996b547c36f15
		<tag k="place" v="farm" />
		<tag k="ssr:stedsnr" v="280228" />
	</node>
<<<<<<< HEAD
	<node lat="62.21682349026607" lon="5.571313344383511" id="-1342">
=======
	<node id="-61185" lat="62.2432734501" lon="5.43884395078">
>>>>>>> e1d4bc35ff8a6074a6f2e91616a996b547c36f15
		<tag k="fixme" v="consider place=hamlet" />
		<tag k="name" v="Nygard" />
		<tag k="place" v="farm" />
		<tag k="ssr:stedsnr" v="280231" />
	</node>
<<<<<<< HEAD
	<node lat="62.19816168318246" lon="5.596395262191755" id="-1366">
=======
	<node id="-61184" lat="62.2646890126" lon="5.56500246286">
>>>>>>> e1d4bc35ff8a6074a6f2e91616a996b547c36f15
		<tag k="fixme" v="consider place=hamlet" />
		<tag k="name" v="Dalen" />
		<tag k="place" v="farm" />
		<tag k="ssr:stedsnr" v="314579" />
	</node>
<<<<<<< HEAD
	<node lat="62.2631055525763" lon="5.448574996219462" id="-1374">
=======
	<node id="-61178" lat="62.2335078904" lon="5.6079196726">
>>>>>>> e1d4bc35ff8a6074a6f2e91616a996b547c36f15
		<tag k="fixme" v="consider place=hamlet" />
		<tag k="name" v="Våge" />
		<tag k="place" v="village" />
		<tag k="ssr:stedsnr" v="314551" />
	</node>
	<node lat="62.191936111728694" lon="5.62458054588493" id="-1397">
		<tag k="name" v="Mellagen" />
		<tag k="place" v="farm" />
		<tag k="ssr:stedsnr" v="341294" />
	</node>
<<<<<<< HEAD
	<node lat="62.250183328778334" lon="5.4775861028766215" id="-1399">
		<tag k="name" v="Leina" />
=======
	<node id="-60664" lat="62.1989000025" lon="5.57637777981">
		<tag k="alt_name" v="Vikane" />
		<tag k="name" v="Vika" />
>>>>>>> e1d4bc35ff8a6074a6f2e91616a996b547c36f15
		<tag k="place" v="farm" />
		<tag k="ssr:stedsnr" v="341289" />
	</node>
<<<<<<< HEAD
	<node lat="62.262836110233714" lon="5.438077775937895" id="-1400">
		<tag k="name" v="Helland" />
		<tag k="place" v="farm" />
		<tag k="ssr:stedsnr" v="341290" />
	</node>
	<node lat="62.25448762456546" lon="5.580634016306075" id="-1405">
		<tag k="fixme" v="consider place=hamlet" />
		<tag k="name" v="Sandanger" />
=======
	<node id="-61174" lat="62.2535277787" lon="5.57141110672">
		<tag k="name" v="Sætra" />
		<tag k="place" v="isolated_dwelling" />
		<tag k="ssr:stedsnr" v="597596" />
	</node>
	<node id="-60660" lat="62.2006027777" lon="5.39481666782">
		<tag k="name" v="Kvia" />
>>>>>>> e1d4bc35ff8a6074a6f2e91616a996b547c36f15
		<tag k="place" v="farm" />
		<tag k="ssr:stedsnr" v="375958" />
	</node>
<<<<<<< HEAD
	<node lat="62.19086667088001" lon="5.622908342284858" id="-1425">
		<tag k="name" v="Gjerdet" />
		<tag k="place" v="farm" />
		<tag k="ssr:stedsnr" v="401271" />
	</node>
	<node lat="62.19901944621586" lon="5.6493333341708665" id="-1432">
		<tag k="name" v="Lisetsætra" />
		<tag k="place" v="locality" />
		<tag k="ssr:stedsnr" v="402145" />
	</node>
	<node lat="62.22004632886455" lon="5.551160769855015" id="-1441">
		<tag k="name" v="Halle" />
		<tag k="place" v="hamlet" />
		<tag k="ssr:stedsnr" v="412469" />
	</node>
	<node lat="62.25675862197081" lon="5.560001575237771" id="-1448">
		<tag k="fixme" v="consider place=hamlet" />
		<tag k="name" v="Muren" />
=======
	<node id="-60659" lat="62.2572638916" lon="5.58522777779">
		<tag k="name" v="Gjerde" />
		<tag k="place" v="quarter" />
		<tag k="ssr:stedsnr" v="585113" />
	</node>
	<node id="-60658" lat="62.1937138849" lon="5.6426666701">
		<tag k="name" v="Rustene" />
		<tag k="place" v="quarter" />
		<tag k="ssr:stedsnr" v="585104" />
	</node>
	<node id="-61166" lat="62.2546916687" lon="5.46615000924">
		<tag k="name" v="Myrane" />
>>>>>>> e1d4bc35ff8a6074a6f2e91616a996b547c36f15
		<tag k="place" v="farm" />
		<tag k="ssr:stedsnr" v="436480" />
	</node>
<<<<<<< HEAD
	<node lat="62.19196166891129" lon="5.631809522741603" id="-1451">
=======
	<node id="-60455" lat="62.1999916694" lon="5.67305833539">
		<tag k="name" v="Storesætra" />
		<tag k="place" v="locality" />
		<tag k="ssr:stedsnr" v="280050" />
	</node>
	<node id="-61160" lat="62.1948613221" lon="5.40533986026">
>>>>>>> e1d4bc35ff8a6074a6f2e91616a996b547c36f15
		<tag k="fixme" v="consider place=hamlet" />
		<tag k="name" v="Årvika" />
		<tag k="place" v="farm" />
		<tag k="ssr:stedsnr" v="495488" />
	</node>
<<<<<<< HEAD
	<node lat="62.24435725377755" lon="5.4309041273977" id="-1452">
		<tag k="fixme" v="consider place=hamlet" />
		<tag k="name" v="Kinna" />
=======
	<node id="-61158" lat="62.2477888895" lon="5.47555277282">
		<tag k="alt_name" v="Hauge" />
		<tag k="name" v="Haugen" />
>>>>>>> e1d4bc35ff8a6074a6f2e91616a996b547c36f15
		<tag k="place" v="farm" />
		<tag k="ssr:stedsnr" v="495645" />
	</node>
<<<<<<< HEAD
	<node lat="62.260094446086" lon="5.413997227478973" id="-1455">
		<tag k="name" v="Vågane" />
=======
	<node id="-60633" lat="62.1973361083" lon="5.57997777574">
		<tag k="name" v="Grønevika" />
>>>>>>> e1d4bc35ff8a6074a6f2e91616a996b547c36f15
		<tag k="place" v="farm" />
		<tag k="ssr:stedsnr" v="496529" />
	</node>
<<<<<<< HEAD
	<node lat="62.24154722076757" lon="5.441649991339766" id="-1486">
		<tag k="name" v="Sande" />
		<tag k="place" v="farm" />
		<tag k="ssr:stedsnr" v="523285" />
	</node>
	<node lat="62.230261108687785" lon="5.623350002847154" id="-1497">
=======
	<node id="-61136" lat="62.2302611087" lon="5.62335000285">
>>>>>>> e1d4bc35ff8a6074a6f2e91616a996b547c36f15
		<tag k="name" v="Urene" />
		<tag k="place" v="farm" />
		<tag k="ssr:stedsnr" v="556598" />
	</node>
<<<<<<< HEAD
	<node lat="62.194543754091384" lon="5.6486574722038565" id="-1500">
=======
	<node id="-61129" lat="62.1945437541" lon="5.6486574722">
>>>>>>> e1d4bc35ff8a6074a6f2e91616a996b547c36f15
		<tag k="fixme" v="consider place=hamlet" />
		<tag k="name" v="Liset" />
		<tag k="place" v="farm" />
		<tag k="ssr:stedsnr" v="556535" />
	</node>
<<<<<<< HEAD
	<node lat="62.24778888950998" lon="5.475552772816417" id="-1522">
		<tag k="alt_name" v="Hauge" />
		<tag k="name" v="Haugen" />
=======
	<node id="-60613" lat="62.2199694444" lon="5.55271665989">
		<tag k="alt_name" v="Halle, indre" />
		<tag k="name" v="Indre Halle" />
>>>>>>> e1d4bc35ff8a6074a6f2e91616a996b547c36f15
		<tag k="place" v="farm" />
		<tag k="ssr:stedsnr" v="583183" />
	</node>
<<<<<<< HEAD
	<node lat="62.19486132214086" lon="5.40533986026011" id="-1523">
=======
	<node id="-60612" lat="62.2220456393" lon="5.70991206577">
>>>>>>> e1d4bc35ff8a6074a6f2e91616a996b547c36f15
		<tag k="fixme" v="consider place=hamlet" />
		<tag k="name" v="Simonnes" />
		<tag k="place" v="farm" />
		<tag k="ssr:stedsnr" v="583266" />
	</node>
<<<<<<< HEAD
	<node lat="62.25352777866197" lon="5.5714111067154075" id="-1528">
		<tag k="name" v="Sætra" />
		<tag k="place" v="isolated_dwelling" />
		<tag k="ssr:stedsnr" v="597596" />
	</node>
	<node lat="62.19890000254541" lon="5.576377779808952" id="-1532">
		<tag k="alt_name" v="Vikane" />
		<tag k="name" v="Vika" />
=======
	<node id="-60611" lat="62.2241959186" lon="5.69343670415">
		<tag k="fixme" v="consider place=hamlet" />
		<tag k="name" v="Brekke" />
>>>>>>> e1d4bc35ff8a6074a6f2e91616a996b547c36f15
		<tag k="place" v="farm" />
		<tag k="ssr:stedsnr" v="617555" />
	</node>
<<<<<<< HEAD
	<node lat="62.24327345010175" lon="5.43884395078416" id="-1534">
		<tag k="fixme" v="consider place=hamlet" />
=======
	<node id="-61121" lat="62.2415472208" lon="5.44164999134">
>>>>>>> e1d4bc35ff8a6074a6f2e91616a996b547c36f15
		<tag k="name" v="Sande" />
		<tag k="place" v="farm" />
		<tag k="ssr:stedsnr" v="617657" />
	</node>
<<<<<<< HEAD
	<node lat="62.219138888710816" lon="5.386330548897969" id="-1545">
		<tag k="name" v="Rada" />
=======
	<node id="-60595" lat="62.2600944461" lon="5.41399722748">
		<tag k="name" v="Vågane" />
>>>>>>> e1d4bc35ff8a6074a6f2e91616a996b547c36f15
		<tag k="place" v="farm" />
		<tag k="ssr:stedsnr" v="644072" />
	</node>
<<<<<<< HEAD
	<node lat="62.20060277766173" lon="5.39481666781767" id="-1565">
		<tag k="name" v="Kvia" />
=======
	<node id="-60593" lat="62.2014559197" lon="5.5864909846">
		<tag k="fixme" v="consider place=hamlet" />
		<tag k="name" v="Kvalen" />
>>>>>>> e1d4bc35ff8a6074a6f2e91616a996b547c36f15
		<tag k="place" v="farm" />
		<tag k="ssr:stedsnr" v="719398" />
	</node>
<<<<<<< HEAD
	<node lat="62.18942684630991" lon="5.600266060073485" id="-1576">
=======
	<node id="-60591" lat="62.2080337355" lon="5.56819610638">
>>>>>>> e1d4bc35ff8a6074a6f2e91616a996b547c36f15
		<tag k="fixme" v="consider place=hamlet" />
		<tag k="name" v="Saudane" />
		<tag k="place" v="farm" />
		<tag k="ssr:stedsnr" v="739517" />
	</node>
<<<<<<< HEAD
	<node lat="62.22388888427543" lon="5.577855547034202" id="-1578">
		<tag k="name" v="Strand" />
=======
	<node id="-60589" lat="62.2136756605" lon="5.67978416645">
		<tag k="fixme" v="consider place=hamlet" />
		<tag k="name" v="Almestad" />
>>>>>>> e1d4bc35ff8a6074a6f2e91616a996b547c36f15
		<tag k="place" v="farm" />
		<tag k="ssr:stedsnr" v="739585" />
	</node>
<<<<<<< HEAD
	<node lat="62.21544553194114" lon="5.651657664319144" id="-1579">
		<tag k="fixme" v="consider place=hamlet" />
		<tag k="name" v="Vågen" />
=======
	<node id="-60588" lat="62.2147194464" lon="5.6475083288">
		<tag k="name" v="Gamlesætra" />
>>>>>>> e1d4bc35ff8a6074a6f2e91616a996b547c36f15
		<tag k="place" v="farm" />
		<tag k="ssr:stedsnr" v="739588" />
	</node>
<<<<<<< HEAD
	<node lat="62.216969444592344" lon="5.372558330763739" id="-1605">
		<tag k="name" v="Nybakken" />
=======
	<node id="-60586" lat="62.2348081081" lon="5.58533039005">
		<tag k="alt_name" v="Hauge, in;Hauge" />
		<tag k="name" v="Indre Hauge" />
>>>>>>> e1d4bc35ff8a6074a6f2e91616a996b547c36f15
		<tag k="place" v="farm" />
		<tag k="ssr:stedsnr" v="766269" />
	</node>
<<<<<<< HEAD
	<node lat="62.23587777624519" lon="5.584761116933203" id="-1609">
=======
	<node id="-60584" lat="62.2024784834" lon="5.38252172747">
>>>>>>> e1d4bc35ff8a6074a6f2e91616a996b547c36f15
		<tag k="fixme" v="consider place=hamlet" />
		<tag k="name" v="Haugsbygda" />
		<tag k="place" v="village" />
		<tag k="ssr:stedsnr" v="779595" />
	</node>
<<<<<<< HEAD
	<node lat="62.26681944103636" lon="5.559119441754334" id="-1610">
		<tag k="name" v="Øvre Stokkset" />
		<tag k="place" v="farm" />
		<tag k="ssr:stedsnr" v="779598" />
	</node>
	<node lat="62.24522019368152" lon="5.463032733252438" id="-1616">
=======
	<node id="-60582" lat="62.203218231" lon="5.72810141982">
		<tag k="alt_name" v="Skrede" />
		<tag k="name" v="Indre Skrede" />
		<tag k="place" v="farm" />
		<tag k="ssr:stedsnr" v="678089" />
	</node>
	<node id="-60580" lat="62.2578361135" lon="5.58431666439">
		<tag k="name" v="Gjerdsvika" />
		<tag k="place" v="hamlet" />
		<tag k="ssr:stedsnr" v="476574" />
	</node>
	<node id="-61091" lat="62.1992012244" lon="5.39471820897">
		<tag k="alt_name" v="Hatlebrekke" />
		<tag k="fixme" v="consider place=hamlet" />
		<tag k="name" v="Brekke" />
		<tag k="place" v="farm" />
		<tag k="ssr:stedsnr" v="436516" />
	</node>
	<node id="-61090" lat="62.256758622" lon="5.56000157524">
>>>>>>> e1d4bc35ff8a6074a6f2e91616a996b547c36f15
		<tag k="fixme" v="consider place=hamlet" />
		<tag k="name" v="Bringsvor" />
		<tag k="place" v="farm" />
<<<<<<< HEAD
		<tag k="ssr:stedsnr" v="799671" />
	</node>
	<node lat="62.23984965097335" lon="5.477403856636663" id="-1618">
=======
		<tag k="ssr:stedsnr" v="436480" />
	</node>
	<node id="-61082" lat="62.2200463289" lon="5.55116076986">
		<tag k="name" v="Halle" />
		<tag k="place" v="hamlet" />
		<tag k="ssr:stedsnr" v="412469" />
	</node>
	<node id="-61071" lat="62.1990194462" lon="5.64933333417">
		<tag k="name" v="Lisetsætra" />
		<tag k="place" v="locality" />
		<tag k="ssr:stedsnr" v="402145" />
	</node>
	<node id="-60555" lat="62.2368626819" lon="5.57847361473">
		<tag k="alt_name" v="Hauge, yt" />
>>>>>>> e1d4bc35ff8a6074a6f2e91616a996b547c36f15
		<tag k="fixme" v="consider place=hamlet" />
		<tag k="name" v="Voren" />
		<tag k="place" v="farm" />
		<tag k="ssr:stedsnr" v="799675" />
	</node>
<<<<<<< HEAD
	<node lat="62.26118606546699" lon="5.575724835087415" id="-1623">
		<tag k="fixme" v="consider place=hamlet" />
		<tag k="name" v="Gjerde" />
		<tag k="place" v="farm" />
		<tag k="ssr:stedsnr" v="800494" />
	</node>
	<node lat="62.26256186574058" lon="5.433981118078165" id="-1624">
		<tag k="name" v="Helland" />
=======
	<node id="-60549" lat="62.2443572538" lon="5.4309041274">
		<tag k="fixme" v="consider place=hamlet" />
		<tag k="name" v="Kinna" />
>>>>>>> e1d4bc35ff8a6074a6f2e91616a996b547c36f15
		<tag k="place" v="farm" />
		<tag k="ssr:stedsnr" v="800496" />
	</node>
<<<<<<< HEAD
	<node lat="62.25494875695931" lon="5.479539316814599" id="-1632">
		<tag k="alt_name" v="Sande" />
=======
	<node id="-60548" lat="62.1919616689" lon="5.63180952274">
>>>>>>> e1d4bc35ff8a6074a6f2e91616a996b547c36f15
		<tag k="fixme" v="consider place=hamlet" />
		<tag k="name" v="Nørdre Sande" />
		<tag k="place" v="farm" />
<<<<<<< HEAD
		<tag k="ssr:stedsnr" v="827300" />
	</node>
	<node lat="62.19885555528312" lon="5.673422224487666" id="-1639">
		<tag k="name" v="Litlesætra" />
		<tag k="place" v="locality" />
		<tag k="ssr:stedsnr" v="827149" />
	</node>
	<node lat="62.216516619999965" lon="5.570218638417028" id="-1654">
		<tag k="name" v="Legene" />
=======
		<tag k="ssr:stedsnr" v="495488" />
	</node>
	<node id="-60543" lat="62.2260277738" lon="5.6062277759">
		<tag k="name" v="Storskar" />
		<tag k="place" v="isolated_dwelling" />
		<tag k="ssr:stedsnr" v="476582" />
	</node>
	<node id="-60535" lat="62.2222166652" lon="5.66538332599">
		<tag k="name" v="Bøen" />
		<tag k="place" v="farm" />
		<tag k="ssr:stedsnr" v="462194" />
	</node>
	<node id="-61045" lat="62.1908666709" lon="5.62290834228">
		<tag k="name" v="Gjerdet" />
>>>>>>> e1d4bc35ff8a6074a6f2e91616a996b547c36f15
		<tag k="place" v="farm" />
		<tag k="ssr:stedsnr" v="860629" />
	</node>
<<<<<<< HEAD
	<node lat="62.22242188004162" lon="5.615966123294808" id="-1655">
=======
	<node id="-61040" lat="62.2544876246" lon="5.58063401631">
>>>>>>> e1d4bc35ff8a6074a6f2e91616a996b547c36f15
		<tag k="fixme" v="consider place=hamlet" />
		<tag k="name" v="Knotten" />
		<tag k="place" v="farm" />
		<tag k="ssr:stedsnr" v="860632" />
	</node>
<<<<<<< HEAD
	<node lat="62.2608861084205" lon="5.5789972130692576" id="-1661">
		<tag k="name" v="Gjerde" />
		<tag k="place" v="hamlet" />
		<tag k="ssr:stedsnr" v="874894" />
	</node>
	<node lat="62.199213886774665" lon="5.5823111053465615" id="-1674">
		<tag k="name" v="Gjerdet" />
=======
	<node id="-61031" lat="62.1996857468" lon="5.70115773165">
		<tag k="fixme" v="consider place=hamlet" />
		<tag k="name" v="Tødenes" />
		<tag k="place" v="farm" />
		<tag k="ssr:stedsnr" v="374491" />
	</node>
	<node id="-61025" lat="62.2689472262" lon="5.55442221241">
		<tag k="name" v="Nedre Stokkset" />
>>>>>>> e1d4bc35ff8a6074a6f2e91616a996b547c36f15
		<tag k="place" v="farm" />
		<tag k="ssr:stedsnr" v="887264" />
	</node>
<<<<<<< HEAD
	<node lat="62.24364444737391" lon="5.434444438286997" id="-1676">
		<tag k="name" v="Lund" />
		<tag k="place" v="farm" />
		<tag k="ssr:stedsnr" v="887289" />
	</node>
	<node lat="62.202823570499596" lon="5.580222315971316" id="-1677">
=======
	<node id="-60432" lat="62.2439863557" lon="5.41823875364">
		<tag k="fixme" v="consider place=hamlet" />
		<tag k="name" v="Skare" />
		<tag k="place" v="farm" />
		<tag k="ssr:stedsnr" v="131652" />
	</node>
	<node id="-61021" lat="62.2245185108" lon="5.68049961784">
		<tag k="alt_name" v="Holte" />
>>>>>>> e1d4bc35ff8a6074a6f2e91616a996b547c36f15
		<tag k="fixme" v="consider place=hamlet" />
		<tag k="name" v="Ytre Saude" />
		<tag k="place" v="farm" />
		<tag k="ssr:stedsnr" v="887291" />
	</node>
<<<<<<< HEAD
	<node lat="62.193291663178385" lon="5.5841888925519205" id="-1693">
		<tag k="name" v="Breivikneset" />
		<tag k="place" v="quarter" />
		<tag k="ssr:stedsnr" v="950114" />
	</node>
	<node lat="62.2165138909841" lon="5.642902778940551" id="-1694">
		<tag k="name" v="Vågstrand" />
		<tag k="place" v="isolated_dwelling" />
		<tag k="ssr:stedsnr" v="962448" />
	</node>
	<node lat="62.22566627888326" lon="5.641703505368562" id="-1695">
		<tag k="name" v="Sætre" />
		<tag k="place" v="hamlet" />
		<tag k="ssr:stedsnr" v="962930" />
	</node>
	<node lat="62.172427035907994" lon="5.395795778473305" id="-1696">
		<tag k="fixme" v="consider place=hamlet" />
		<tag k="name" v="Haugsholmen" />
=======
	<node id="-61020" lat="62.1919361117" lon="5.62458054588">
		<tag k="name" v="Mellagen" />
		<tag k="place" v="farm" />
		<tag k="ssr:stedsnr" v="341294" />
	</node>
	<node id="-61019" lat="62.2628361102" lon="5.43807777594">
		<tag k="name" v="Helland" />
		<tag k="place" v="farm" />
		<tag k="ssr:stedsnr" v="341290" />
	</node>
	<node id="-61018" lat="62.2501833288" lon="5.47758610288">
		<tag k="name" v="Leina" />
		<tag k="place" v="farm" />
		<tag k="ssr:stedsnr" v="341289" />
	</node>
	<node id="-60501" lat="62.2061897757" lon="5.36815973564">
		<tag k="fixme" v="consider place=hamlet" />
		<tag k="name" v="Kvamme" />
		<tag k="place" v="farm" />
		<tag k="ssr:stedsnr" v="193602" />
	</node>
	<node id="-61012" lat="62.2584527797" lon="5.5503138814">
		<tag k="name" v="Holane" />
>>>>>>> e1d4bc35ff8a6074a6f2e91616a996b547c36f15
		<tag k="place" v="farm" />
		<tag k="ssr:stedsnr" v="982631" />
	</node>
<<<<<<< HEAD
	<node lat="62.262385997488536" lon="5.446958515833796" id="-1697">
=======
	<node id="-60499" lat="62.2562624847" lon="5.47395882558">
		<tag k="alt_name" v="Sandsbakk;Sandebakken" />
>>>>>>> e1d4bc35ff8a6074a6f2e91616a996b547c36f15
		<tag k="fixme" v="consider place=hamlet" />
		<tag k="name" v="Våge" />
		<tag k="place" v="farm" />
		<tag k="ssr:stedsnr" v="982639" />
	</node>
<<<<<<< HEAD
	<node lat="62.20366774938697" lon="5.725096739898158" id="-1698">
		<tag k="name" v="Skrede" />
		<tag k="place" v="hamlet" />
		<tag k="ssr:stedsnr" v="982646" />
	</node>
	<node lat="62.207947068163584" lon="5.417225340564489" id="-1699">
		<tag k="name" v="Vonheim" />
		<tag k="place" v="farm" />
		<tag k="ssr:stedsnr" v="988098" />
=======
	<node id="-60492" lat="62.2206472216" lon="5.54380277375">
		<tag k="fixme" v="consider place=hamlet" />
		<tag k="name" v="Hallebygda" />
		<tag k="place" v="village" />
		<tag k="ssr:stedsnr" v="291528" />
>>>>>>> e1d4bc35ff8a6074a6f2e91616a996b547c36f15
	</node>
	<node id="-60770" lat="62.2347195238" lon="5.58297806441">
		<tag k="name" v="Hauge" />
		<tag k="place" v="hamlet" />
		<tag k="ssr:stedsnr" v="948235" />
	</node>
	<node id="-60983" lat="62.1981616832" lon="5.59639526219">
		<tag k="fixme" v="consider place=hamlet" />
		<tag k="name" v="Dalen" />
		<tag k="place" v="farm" />
		<tag k="ssr:stedsnr" v="314579" />
	</node>
	<node id="-60467" lat="62.2168234903" lon="5.57131334438">
		<tag k="fixme" v="consider place=hamlet" />
		<tag k="name" v="Nygard" />
		<tag k="place" v="farm" />
		<tag k="ssr:stedsnr" v="280231" />
	</node>
	<node id="-60466" lat="62.2573499964" lon="5.55759999428">
		<tag k="name" v="Muren" />
		<tag k="place" v="farm" />
		<tag k="ssr:stedsnr" v="280228" />
	</node>
	<node id="-60977" lat="62.2631055526" lon="5.44857499622">
		<tag k="fixme" v="consider place=hamlet" />
		<tag k="name" v="Våge" />
		<tag k="place" v="village" />
		<tag k="ssr:stedsnr" v="314551" />
	</node>
	<node id="-60464" lat="62.2036916694" lon="5.57878332915">
		<tag k="name" v="Garden" />
		<tag k="place" v="farm" />
		<tag k="ssr:stedsnr" v="280226" />
	</node>
	<node id="-60463" lat="62.2624833321" lon="5.4278666744">
		<tag k="name" v="Plassen" />
		<tag k="place" v="farm" />
		<tag k="ssr:stedsnr" v="280225" />
	</node>
	<node id="-60974" lat="62.2774545228" lon="5.55227316428">
		<tag k="fixme" v="consider place=hamlet" />
		<tag k="name" v="Hide" />
		<tag k="place" v="farm" />
		<tag k="ssr:stedsnr" v="314562" />
	</node>
	<node id="-60967" lat="62.2231665717" lon="5.70993421345">
		<tag k="fixme" v="consider place=hamlet" />
		<tag k="name" v="Seljeset" />
		<tag k="place" v="farm" />
		<tag k="ssr:stedsnr" v="193596" />
	</node>
	<node id="-60963" lat="62.2220916654" lon="5.54406110386">
		<tag k="alt_name" v="Halle, ytre" />
		<tag k="name" v="Ytre Halle" />
		<tag k="place" v="farm" />
		<tag k="ssr:stedsnr" v="193586" />
	</node>
	<node id="-60962" lat="62.2070972213" lon="5.57134999051">
		<tag k="fixme" v="consider place=hamlet" />
		<tag k="name" v="Larsnes" />
		<tag k="place" v="village" />
		<tag k="ssr:stedsnr" v="193559" />
	</node>
	<node id="-60957" lat="62.2422090371" lon="5.45100887752">
		<tag k="fixme" v="consider place=hamlet" />
		<tag k="name" v="Støyle" />
		<tag k="place" v="farm" />
		<tag k="ssr:stedsnr" v="192684" />
	</node>
	<node id="-60952" lat="62.1913555568" lon="5.59311944047">
		<tag k="name" v="Breivika" />
		<tag k="place" v="farm" />
		<tag k="ssr:stedsnr" v="192580" />
	</node>
	<node id="-60950" lat="62.1922441139" lon="5.63855817577">
		<tag k="fixme" v="consider place=hamlet" />
		<tag k="name" v="Støylane" />
		<tag k="place" v="farm" />
		<tag k="ssr:stedsnr" v="192529" />
	</node>
	<node id="-60434" lat="62.2717148891" lon="5.55225018754">
		<tag k="fixme" v="consider place=hamlet" />
		<tag k="name" v="Gota" />
		<tag k="place" v="farm" />
		<tag k="ssr:stedsnr" v="132504" />
	</node>
	<node id="-60433" lat="62.1994333376" lon="5.66218888705">
		<tag k="name" v="Lisetsætra" />
		<tag k="place" v="locality" />
		<tag k="ssr:stedsnr" v="131530" />
	</node>
	<node id="-60944" lat="62.2345972207" lon="5.59738610801">
		<tag k="name" v="Grøthaug" />
		<tag k="place" v="isolated_dwelling" />
		<tag k="ssr:stedsnr" v="173539" />
	</node>
	<node id="-60941" lat="62.2208166654" lon="5.6472583392">
		<tag k="name" v="Vågsneset" />
		<tag k="place" v="quarter" />
		<tag k="ssr:stedsnr" v="161126" />
	</node>
	<node id="-60940" lat="62.2572194404" lon="5.5885111169">
		<tag k="name" v="Rise" />
		<tag k="place" v="quarter" />
		<tag k="ssr:stedsnr" v="161125" />
	</node>
	<node id="-60936" lat="62.1985527787" lon="5.58570000224">
		<tag k="name" v="Vasstranda" />
		<tag k="place" v="farm" />
		<tag k="ssr:stedsnr" v="159130" />
	</node>
	<node id="-60423" lat="62.2624747682" lon="5.43297201234">
		<tag k="fixme" v="consider place=hamlet" />
		<tag k="name" v="Helland" />
		<tag k="place" v="farm" />
		<tag k="ssr:stedsnr" v="98255" />
	</node>
</osm>
