<?xml version="1.0" encoding="UTF-8"?>
<<<<<<< HEAD
<osm version="0.6" generator="osmapis">
	<node lat="62.285900001150424" lon="5.45026389527669" id="-682">
		<tag k="alt_name" v="Litlebåen" />
		<tag k="name" v="Litleboden" />
=======
<osm generator="osmapis" version="0.6">
	<node id="-61382" lat="62.2286806826" lon="5.32521847307">
		<tag k="name" v="Ristesundleia" />
		<tag k="natural" v="strait" />
		<tag k="ssr:stedsnr" v="1077336" />
	</node>
	<node id="-61381" lat="62.2585617227" lon="5.38292269821">
		<tag k="name" v="Sandøyleia" />
		<tag k="natural" v="strait" />
		<tag k="ssr:stedsnr" v="1077335" />
	</node>
	<node id="-61379" lat="62.2112861157" lon="5.48777940211">
		<tag k="name" v="Nordre Langholmen" />
		<tag k="place" v="islet" />
		<tag k="ssr:stedsnr" v="1077080" />
	</node>
	<node id="-61378" lat="62.248023543" lon="5.34132045427">
		<tag k="name" v="Stolpeleia" />
		<tag k="natural" v="strait" />
		<tag k="ssr:stedsnr" v="1077077" />
	</node>
	<node id="-61377" lat="62.2272734263" lon="5.36699906919">
		<tag k="name" v="Kobbefluda" />
		<tag k="natural" v="shoal" />
		<tag k="place" v="locality" />
		<tag k="ssr:stedsnr" v="1077074" />
	</node>
	<node id="-61376" lat="62.200538007" lon="5.33491659311">
		<tag k="name" v="Ristefludene" />
		<tag k="natural" v="shoal" />
		<tag k="place" v="locality" />
		<tag k="ssr:stedsnr" v="1077049" />
	</node>
	<node id="-61375" lat="62.2780689655" lon="5.46808769954">
		<tag k="bay" v="fjord" />
		<tag k="name" v="Søndre Flåværleia" />
		<tag k="natural" v="bay" />
		<tag k="ssr:stedsnr" v="1077022" />
	</node>
	<node id="-61352" lat="62.2182166633" lon="5.41004165914">
		<tag k="name" v="Løefluda" />
>>>>>>> e1d4bc35ff8a6074a6f2e91616a996b547c36f15
		<tag k="natural" v="shoal" />
		<tag k="place" v="locality" />
		<tag k="ssr:stedsnr" v="10541" />
	</node>
<<<<<<< HEAD
	<node lat="62.27283888885713" lon="5.54766944402283" id="-684">
		<tag k="name" v="Goteneset" />
		<tag k="natural" v="cape" />
		<tag k="ssr:stedsnr" v="11526" />
	</node>
	<node lat="62.20460278027893" lon="5.470941659381731" id="-687">
		<tag k="name" v="Åramsundet" />
		<tag k="natural" v="strait" />
		<tag k="ssr:stedsnr" v="11591" />
	</node>
	<node lat="62.265191666975966" lon="5.481374999560672" id="-688">
		<tag k="fixme" v="consider seamark:type=rock or natural=shoal" />
		<tag k="name" v="Kleiveskjeret" />
		<tag k="place" v="islet" />
		<tag k="ssr:stedsnr" v="233444" />
	</node>
	<node lat="62.269091663198694" lon="5.550452775380856" id="-691">
		<tag k="name" v="Holekøyla" />
=======
	<node id="-61351" lat="62.2114138866" lon="5.42118333379">
		<tag k="name" v="Duskjernesboden" />
		<tag k="natural" v="shoal" />
		<tag k="place" v="locality" />
		<tag k="ssr:stedsnr" v="962396" />
	</node>
	<node id="-61350" lat="62.2412722181" lon="5.46759723047">
		<tag k="name" v="Sanden" />
>>>>>>> e1d4bc35ff8a6074a6f2e91616a996b547c36f15
		<tag k="natural" v="bay" />
		<tag k="ssr:stedsnr" v="36037" />
	</node>
<<<<<<< HEAD
	<node lat="62.21296110808822" lon="5.551547228912955" id="-693">
		<tag k="fixme" v="consider seamark:type=rock or natural=shoal" />
		<tag k="name" v="Småskjera" />
		<tag k="place" v="islet" />
		<tag k="ssr:stedsnr" v="37973" />
	</node>
	<node lat="62.23308889100777" lon="5.539072223528828" id="-694">
		<tag k="name" v="Grønevika" />
=======
	<node id="-61349" lat="62.2474777773" lon="5.40281944248">
		<tag k="name" v="Sandsendboden" />
		<tag k="natural" v="shoal" />
		<tag k="place" v="locality" />
		<tag k="ssr:stedsnr" v="961443" />
	</node>
	<node id="-61347" lat="62.2079277739" lon="5.35371944773">
		<tag k="alt_name" v="Krokevika" />
		<tag k="name" v="Krokvika" />
>>>>>>> e1d4bc35ff8a6074a6f2e91616a996b547c36f15
		<tag k="natural" v="bay" />
		<tag k="ssr:stedsnr" v="37975" />
	</node>
<<<<<<< HEAD
	<node lat="62.26661944386797" lon="5.439738882669629" id="-695">
		<tag k="name" v="Gjøttane" />
		<tag k="natural" v="beach" />
		<tag k="ssr:stedsnr" v="38113" />
	</node>
	<node lat="62.26784444493518" lon="5.414391659404471" id="-696">
		<tag k="name" v="Knøsteskjeret" />
		<tag k="place" v="islet" />
		<tag k="ssr:stedsnr" v="38117" />
	</node>
	<node lat="62.18526111085447" lon="5.3921250079888" id="-699">
		<tag k="name" v="Andrineneset" />
=======
	<node id="-61345" lat="62.2385944441" lon="5.43922777723">
		<tag k="alt_name" v="Lambeneset" />
		<tag k="name" v="Lammeneset" />
		<tag k="natural" v="cape" />
		<tag k="ssr:stedsnr" v="860652" />
	</node>
	<node id="-61342" lat="62.1846222191" lon="5.36787777424">
		<tag k="alt_name" v="Rognholmane" />
		<tag k="name" v="Rognholmen" />
		<tag k="place" v="islet" />
		<tag k="ssr:stedsnr" v="860593" />
	</node>
	<node id="-61340" lat="62.2636500039" lon="5.37960278255">
		<tag k="name" v="Svarteskjerfluda" />
		<tag k="natural" v="shoal" />
		<tag k="place" v="locality" />
		<tag k="ssr:stedsnr" v="841590" />
	</node>
	<node id="-61339" lat="62.285605553" lon="5.54744166677">
		<tag k="name" v="Hidsneset" />
>>>>>>> e1d4bc35ff8a6074a6f2e91616a996b547c36f15
		<tag k="natural" v="cape" />
		<tag k="ssr:stedsnr" v="38060" />
	</node>
<<<<<<< HEAD
	<node lat="62.22385833506833" lon="5.471894437212906" id="-703">
		<tag k="name" v="Småsunda" />
		<tag k="natural" v="strait" />
		<tag k="ssr:stedsnr" v="38204" />
	</node>
	<node lat="62.24251944366764" lon="5.419125009303683" id="-706">
		<tag k="fixme" v="consider seamark:type=rock or natural=shoal" />
		<tag k="name" v="Klubben" />
		<tag k="place" v="islet" />
		<tag k="ssr:stedsnr" v="38310" />
	</node>
	<node lat="62.230444448068816" lon="5.370044441481998" id="-707">
		<tag k="name" v="Sandvika" />
		<tag k="natural" v="bay" />
		<tag k="ssr:stedsnr" v="38314" />
	</node>
	<node lat="62.198491662466814" lon="5.33763889091596" id="-711">
		<tag k="name" v="Søre Ristefluda" />
=======
	<node id="-61338" lat="62.2104888927" lon="5.32943055899">
		<tag k="name" v="Gambafludene" />
>>>>>>> e1d4bc35ff8a6074a6f2e91616a996b547c36f15
		<tag k="natural" v="shoal" />
		<tag k="place" v="locality" />
		<tag k="ssr:stedsnr" v="52371" />
	</node>
<<<<<<< HEAD
	<node lat="62.22225555221473" lon="5.393888894545724" id="-712">
		<tag k="name" v="Rya" />
=======
	<node id="-61337" lat="62.2595277807" lon="5.2814861105">
		<tag k="name" v="Kyrnosfludene" />
>>>>>>> e1d4bc35ff8a6074a6f2e91616a996b547c36f15
		<tag k="natural" v="shoal" />
		<tag k="place" v="locality" />
		<tag k="ssr:stedsnr" v="52375" />
	</node>
<<<<<<< HEAD
	<node lat="62.286155556004005" lon="5.511027771835535" id="-715">
		<tag k="alt_name" v="Hidsbåen" />
		<tag k="name" v="Hidsboden" />
		<tag k="natural" v="shoal" />
		<tag k="place" v="locality" />
		<tag k="ssr:stedsnr" v="71586" />
	</node>
	<node lat="62.2164138931188" lon="5.456280563038503" id="-718">
		<tag k="name" v="Hansvika" />
=======
	<node id="-61336" lat="62.2223277785" lon="5.41476945142">
		<tag k="name" v="Stabben" />
		<tag k="natural" v="shoal" />
		<tag k="place" v="locality" />
		<tag k="ssr:stedsnr" v="841416" />
	</node>
	<node id="-61330" lat="62.2317000032" lon="5.3686972196">
		<tag k="name" v="Høyvika" />
		<tag k="natural" v="bay" />
		<tag k="ssr:stedsnr" v="827313" />
	</node>
	<node id="-61328" lat="62.2857222234" lon="5.54442222464">
		<tag k="name" v="Småvikane" />
		<tag k="natural" v="bay" />
		<tag k="ssr:stedsnr" v="827283" />
	</node>
	<node id="-61323" lat="62.2472666693" lon="5.53283612022">
		<tag k="name" v="Tarevika" />
		<tag k="natural" v="bay" />
		<tag k="ssr:stedsnr" v="827248" />
	</node>
	<node id="-61319" lat="62.2369444403" lon="5.48322499244">
		<tag k="name" v="Voravika" />
		<tag k="natural" v="bay" />
		<tag k="ssr:stedsnr" v="827223" />
	</node>
	<node id="-61314" lat="62.23710278" lon="5.45866110946">
		<tag k="name" v="Vardholmen" />
		<tag k="place" v="islet" />
		<tag k="ssr:stedsnr" v="827175" />
	</node>
	<node id="-61306" lat="62.2672138854" lon="5.46211389294">
		<tag k="name" v="Holstødsvartebarden" />
		<tag k="place" v="islet" />
		<tag k="ssr:stedsnr" v="827109" />
	</node>
	<node id="-61305" lat="62.2690055601" lon="5.45160555657">
		<tag k="name" v="Tongaholmane" />
		<tag k="place" v="islet" />
		<tag k="ssr:stedsnr" v="827108" />
	</node>
	<node id="-61304" lat="62.204066668" lon="5.75859721898">
		<tag k="name" v="Laupskråa" />
>>>>>>> e1d4bc35ff8a6074a6f2e91616a996b547c36f15
		<tag k="natural" v="bay" />
		<tag k="ssr:stedsnr" v="71620" />
	</node>
<<<<<<< HEAD
	<node lat="62.22383889272526" lon="5.316425004244041" id="-719">
		<tag k="name" v="Steinfluda" />
		<tag k="natural" v="shoal" />
		<tag k="place" v="locality" />
		<tag k="ssr:stedsnr" v="71669" />
	</node>
	<node lat="62.18657777805908" lon="5.392877781051238" id="-725">
		<tag k="fixme" v="consider seamark:type=rock or natural=shoal" />
		<tag k="name" v="Grøneskjeret" />
=======
	<node id="-61301" lat="62.1716277787" lon="5.39808612026">
		<tag k="name" v="Søre-hamna" />
		<tag k="natural" v="bay" />
		<tag k="ssr:stedsnr" v="827063" />
	</node>
	<node id="-61298" lat="62.2158999992" lon="5.55341944687">
		<tag k="name" v="Sjåholmen" />
>>>>>>> e1d4bc35ff8a6074a6f2e91616a996b547c36f15
		<tag k="place" v="islet" />
		<tag k="ssr:stedsnr" v="98080" />
	</node>
<<<<<<< HEAD
	<node lat="62.22847499552994" lon="5.588177774041168" id="-726">
=======
	<node id="-61297" lat="62.2179555596" lon="5.64638333729">
>>>>>>> e1d4bc35ff8a6074a6f2e91616a996b547c36f15
		<tag k="fixme" v="consider seamark:type=rock or natural=shoal" />
		<tag k="name" v="Erkna" />
		<tag k="place" v="islet" />
		<tag k="ssr:stedsnr" v="98207" />
	</node>
<<<<<<< HEAD
	<node lat="62.224633337472206" lon="5.527483338157575" id="-733">
		<tag k="name" v="Litleboden" />
		<tag k="natural" v="shoal" />
=======
	<node id="-61296" lat="62.2546972262" lon="5.57595000113">
		<tag k="name" v="Sandangersanden" />
		<tag k="natural" v="beach" />
>>>>>>> e1d4bc35ff8a6074a6f2e91616a996b547c36f15
		<tag k="place" v="locality" />
		<tag k="ssr:stedsnr" v="112602" />
	</node>
<<<<<<< HEAD
	<node lat="62.28354166471697" lon="5.476799995340909" id="-734">
		<tag k="name" v="Klovholmboden" />
		<tag k="natural" v="shoal" />
		<tag k="place" v="locality" />
		<tag k="ssr:stedsnr" v="112709" />
	</node>
	<node lat="62.21876944281366" lon="5.34496110452352" id="-735">
		<tag k="name" v="Vågane" />
		<tag k="natural" v="bay" />
		<tag k="ssr:stedsnr" v="113511" />
	</node>
	<node lat="62.26193611016399" lon="5.350850001869672" id="-736">
		<tag k="name" v="Novene" />
=======
	<node id="-61291" lat="62.2693166646" lon="5.27055833749">
		<tag k="name" v="Jynngrunnen" />
		<tag k="natural" v="shoal" />
		<tag k="place" v="locality" />
		<tag k="ssr:stedsnr" v="800531" />
	</node>
	<node id="-61289" lat="62.268058333" lon="5.45182500891">
		<tag k="alt_name" v="Tongane" />
		<tag k="name" v="Tangane" />
		<tag k="natural" v="cape" />
		<tag k="ssr:stedsnr" v="800511" />
	</node>
	<node id="-61286" lat="62.2088555537" lon="5.46750000238">
		<tag k="name" v="Kyrholmen" />
		<tag k="place" v="islet" />
		<tag k="ssr:stedsnr" v="800592" />
	</node>
	<node id="-61281" lat="62.2542638907" lon="5.50948055721">
		<tag k="bay" v="fjord" />
		<tag k="name" v="Sandsfjorden" />
		<tag k="natural" v="bay" />
		<tag k="ssr:stedsnr" v="800493" />
	</node>
	<node id="-61280" lat="62.2534888902" lon="5.40454722235">
		<tag k="alt_name" v="Breivikneset" />
		<tag k="name" v="Breidviknesa" />
		<tag k="natural" v="cape" />
		<tag k="ssr:stedsnr" v="800492" />
	</node>
	<node id="-61279" lat="62.2488527741" lon="5.2472249913">
		<tag k="name" v="Grunnskallen" />
>>>>>>> e1d4bc35ff8a6074a6f2e91616a996b547c36f15
		<tag k="natural" v="shoal" />
		<tag k="place" v="locality" />
		<tag k="ssr:stedsnr" v="113571" />
	</node>
<<<<<<< HEAD
	<node lat="62.235530557374425" lon="5.493136112849955" id="-742">
		<tag k="name" v="Voraholmen" />
		<tag k="place" v="islet" />
		<tag k="ssr:stedsnr" v="132617" />
	</node>
	<node lat="62.22436944394612" lon="5.370680550862157" id="-743">
		<tag k="name" v="Kuholmen" />
		<tag k="place" v="islet" />
		<tag k="ssr:stedsnr" v="132619" />
	</node>
	<node lat="62.23699722295082" lon="5.3189027787610295" id="-745">
		<tag k="name" v="Nylendingen" />
		<tag k="natural" v="shoal" />
		<tag k="place" v="locality" />
		<tag k="ssr:stedsnr" v="253665" />
	</node>
	<node lat="62.18626666389226" lon="5.388833335183651" id="-746">
		<tag k="alt_name" v="Storeholmen" />
		<tag k="name" v="Storholmen" />
		<tag k="place" v="islet" />
		<tag k="ssr:stedsnr" v="253582" />
	</node>
	<node lat="62.26441388485881" lon="5.522186111407435" id="-749">
		<tag k="fixme" v="consider seamark:type=rock or natural=shoal" />
		<tag k="name" v="Gjøskjera" />
		<tag k="place" v="islet" />
		<tag k="ssr:stedsnr" v="253537" />
	</node>
	<node lat="62.26029722070706" lon="5.375069436756248" id="-751">
		<tag k="alt_name" v="Svarteskjeret" />
=======
	<node id="-61275" lat="62.1852055532" lon="5.35621112023">
		<tag k="alt_name" v="Svarteskjera" />
		<tag k="fixme" v="consider seamark:type=rock or natural=shoal" />
		<tag k="name" v="Svarteskjer" />
		<tag k="place" v="islet" />
		<tag k="ssr:stedsnr" v="799576" />
	</node>
	<node id="-61274" lat="62.2041111137" lon="5.76385276941">
		<tag k="name" v="Laupsneset" />
		<tag k="natural" v="cape" />
		<tag k="ssr:stedsnr" v="799087" />
	</node>
	<node id="-61273" lat="62.2296611072" lon="5.35381111917">
		<tag k="name" v="Hellafludene" />
		<tag k="natural" v="shoal" />
		<tag k="place" v="locality" />
		<tag k="ssr:stedsnr" v="780491" />
	</node>
	<node id="-61272" lat="62.1977361084" lon="5.39104165796">
		<tag k="name" v="Brekkefluda" />
		<tag k="natural" v="shoal" />
		<tag k="place" v="locality" />
		<tag k="ssr:stedsnr" v="780374" />
	</node>
	<node id="-61271" lat="62.2133666699" lon="5.41286945032">
		<tag k="name" v="Kvia" />
		<tag k="natural" v="cape" />
		<tag k="ssr:stedsnr" v="780367" />
	</node>
	<node id="-61270" lat="62.2052583341" lon="5.3145555532">
		<tag k="name" v="Barskallen" />
		<tag k="natural" v="shoal" />
		<tag k="place" v="locality" />
		<tag k="ssr:stedsnr" v="780365" />
	</node>
	<node id="-61267" lat="62.2398638848" lon="5.42222222358">
		<tag k="name" v="Murvikfluda" />
		<tag k="natural" v="shoal" />
		<tag k="place" v="locality" />
		<tag k="ssr:stedsnr" v="779438" />
	</node>
	<node id="-61266" lat="62.2139527815" lon="5.41432222841">
>>>>>>> e1d4bc35ff8a6074a6f2e91616a996b547c36f15
		<tag k="fixme" v="consider seamark:type=rock or natural=shoal" />
		<tag k="name" v="Svarteskjer" />
		<tag k="place" v="islet" />
		<tag k="ssr:stedsnr" v="253545" />
	</node>
<<<<<<< HEAD
	<node lat="62.19915555699548" lon="5.358722231337064" id="-752">
=======
	<node id="-61262" lat="62.2078305579" lon="5.3493694478">
>>>>>>> e1d4bc35ff8a6074a6f2e91616a996b547c36f15
		<tag k="fixme" v="consider seamark:type=rock or natural=shoal" />
		<tag k="name" v="Notaskjer" />
		<tag k="place" v="islet" />
		<tag k="ssr:stedsnr" v="253562" />
	</node>
<<<<<<< HEAD
	<node lat="62.2873805529683" lon="5.472027786166427" id="-753">
		<tag k="name" v="Klovholmane" />
		<tag k="place" v="islet" />
		<tag k="ssr:stedsnr" v="253572" />
	</node>
	<node lat="62.26123332894126" lon="5.570100001513133" id="-762">
		<tag k="name" v="Skitnevika" />
		<tag k="natural" v="bay" />
		<tag k="ssr:stedsnr" v="159019" />
	</node>
	<node lat="62.18628055343643" lon="5.369408339074675" id="-766">
=======
	<node id="-61261" lat="62.2668250032" lon="5.42186389258">
		<tag k="name" v="Djuvika" />
		<tag k="natural" v="bay" />
		<tag k="ssr:stedsnr" v="766219" />
	</node>
	<node id="-61259" lat="62.174405553" lon="5.39585000044">
		<tag k="name" v="Garevika" />
		<tag k="natural" v="bay" />
		<tag k="ssr:stedsnr" v="766287" />
	</node>
	<node id="-61258" lat="62.2419194406" lon="5.43424723101">
		<tag k="name" v="Klubben" />
		<tag k="natural" v="cape" />
		<tag k="ssr:stedsnr" v="766284" />
	</node>
	<node id="-61255" lat="62.1705111084" lon="5.38782221548">
		<tag k="alt_name" v="Torreskjeret;Søre Torreskjeret" />
>>>>>>> e1d4bc35ff8a6074a6f2e91616a996b547c36f15
		<tag k="fixme" v="consider seamark:type=rock or natural=shoal" />
		<tag k="name" v="Rognholmboden" />
		<tag k="place" v="islet" />
		<tag k="ssr:stedsnr" v="159070" />
	</node>
<<<<<<< HEAD
	<node lat="62.214955553501404" lon="5.455975002918937" id="-768">
		<tag k="name" v="Perneset" />
		<tag k="natural" v="cape" />
		<tag k="ssr:stedsnr" v="159203" />
	</node>
	<node lat="62.19650555160358" lon="5.682094452008533" id="-771">
		<tag k="name" v="Oksavikneset" />
=======
	<node id="-61251" lat="62.2377861147" lon="5.46711667241">
		<tag k="name" v="Kuholmen" />
		<tag k="place" v="islet" />
		<tag k="ssr:stedsnr" v="766192" />
	</node>
	<node id="-61249" lat="62.2421638861" lon="5.42344443833">
		<tag k="name" v="Mattistangen" />
>>>>>>> e1d4bc35ff8a6074a6f2e91616a996b547c36f15
		<tag k="natural" v="cape" />
		<tag k="ssr:stedsnr" v="173404" />
	</node>
<<<<<<< HEAD
	<node lat="62.22603888980236" lon="5.5250972221934855" id="-772">
		<tag k="alt_name" v="Nupeholmane" />
		<tag k="name" v="Nupaholmane" />
		<tag k="place" v="islet" />
		<tag k="ssr:stedsnr" v="219030" />
	</node>
	<node lat="62.251161113385585" lon="5.406566659970765" id="-776">
		<tag k="name" v="Gjøttaholmen" />
=======
	<node id="-61248" lat="62.2459638918" lon="5.47833888037">
		<tag k="name" v="Flødevikane" />
		<tag k="natural" v="bay" />
		<tag k="ssr:stedsnr" v="766176" />
	</node>
	<node id="-61247" lat="62.2511527744" lon="5.47057499988">
		<tag k="name" v="Kråkeholmen" />
>>>>>>> e1d4bc35ff8a6074a6f2e91616a996b547c36f15
		<tag k="place" v="islet" />
		<tag k="ssr:stedsnr" v="220081" />
	</node>
<<<<<<< HEAD
	<node lat="62.17357777602338" lon="5.401647223017246" id="-778">
		<tag k="fixme" v="consider seamark:type=rock or natural=shoal" />
		<tag k="name" v="Skarveskjeret" />
		<tag k="place" v="islet" />
		<tag k="ssr:stedsnr" v="220092" />
	</node>
	<node lat="62.189763886798175" lon="5.37514445134182" id="-782">
		<tag k="name" v="Rya" />
=======
	<node id="-61246" lat="62.2427305527" lon="5.40385832561">
		<tag k="fixme" v="consider seamark:type=rock or natural=shoal" />
		<tag k="name" v="Litlerivskjeret" />
		<tag k="place" v="islet" />
		<tag k="ssr:stedsnr" v="766143" />
	</node>
	<node id="-61241" lat="62.208486107" lon="5.56600555165">
		<tag k="name" v="Skitnevika" />
		<tag k="natural" v="bay" />
		<tag k="ssr:stedsnr" v="764050" />
	</node>
	<node id="-61235" lat="62.2088000009" lon="5.48936944089">
		<tag k="name" v="Langholmane" />
		<tag k="place" v="islet" />
		<tag k="ssr:stedsnr" v="739591" />
	</node>
	<node id="-61232" lat="62.2548638858" lon="5.40598332864">
		<tag k="name" v="Breidvika" />
		<tag k="natural" v="bay" />
		<tag k="ssr:stedsnr" v="739499" />
	</node>
	<node id="-61230" lat="62.2459249998" lon="5.33835555881">
		<tag k="name" v="Nystøylfluda" />
>>>>>>> e1d4bc35ff8a6074a6f2e91616a996b547c36f15
		<tag k="natural" v="shoal" />
		<tag k="place" v="locality" />
		<tag k="ssr:stedsnr" v="234404" />
	</node>
<<<<<<< HEAD
	<node lat="62.19049722022395" lon="5.357536116779326" id="-783">
		<tag k="name" v="Hysefluda" />
		<tag k="natural" v="shoal" />
		<tag k="place" v="locality" />
		<tag k="ssr:stedsnr" v="238106" />
	</node>
	<node lat="62.23414166296367" lon="5.581286117584633" id="-787">
		<tag k="fixme" v="consider seamark:type=rock or natural=shoal" />
		<tag k="name" v="Storeskjeret" />
		<tag k="place" v="islet" />
		<tag k="ssr:stedsnr" v="279004" />
	</node>
	<node lat="62.256841663655685" lon="5.530641665373849" id="-789">
		<tag k="name" v="Saurskastet" />
=======
	<node id="-61229" lat="62.2412611119" lon="5.49269999841">
		<tag k="name" v="Maltvikneset" />
		<tag k="natural" v="cape" />
		<tag k="ssr:stedsnr" v="738650" />
	</node>
	<node id="-61226" lat="62.2181305563" lon="5.36126110393">
		<tag k="name" v="Eldevika" />
		<tag k="natural" v="bay" />
		<tag k="ssr:stedsnr" v="644308" />
	</node>
	<node id="-61225" lat="62.2578555524" lon="5.53988332667">
		<tag k="name" v="Gjøbugen" />
>>>>>>> e1d4bc35ff8a6074a6f2e91616a996b547c36f15
		<tag k="natural" v="bay" />
		<tag k="ssr:stedsnr" v="279026" />
	</node>
<<<<<<< HEAD
	<node lat="62.25843610741591" lon="5.577338891624682" id="-794">
		<tag k="fixme" v="consider seamark:type=rock or natural=shoal" />
		<tag k="name" v="Luseskjeret" />
		<tag k="place" v="islet" />
		<tag k="ssr:stedsnr" v="280106" />
	</node>
	<node lat="62.22698888640267" lon="5.5653138847742" id="-797">
		<tag k="alt_name" v="Legehammaren" />
		<tag k="name" v="Legeklubben" />
=======
	<node id="-61224" lat="62.2513361075" lon="5.47978889827">
		<tag k="name" v="Bautane" />
		<tag k="natural" v="bay" />
		<tag k="ssr:stedsnr" v="644301" />
	</node>
	<node id="-61223" lat="62.2277805525" lon="5.53049723071">
		<tag k="name" v="Klubben" />
>>>>>>> e1d4bc35ff8a6074a6f2e91616a996b547c36f15
		<tag k="natural" v="cape" />
		<tag k="ssr:stedsnr" v="281007" />
	</node>
<<<<<<< HEAD
	<node lat="62.26743333545601" lon="5.420719451233521" id="-799">
		<tag k="name" v="Skipsberget" />
=======
	<node id="-61216" lat="62.2563694446" lon="5.39995000637">
		<tag k="name" v="Kvia" />
>>>>>>> e1d4bc35ff8a6074a6f2e91616a996b547c36f15
		<tag k="natural" v="cape" />
		<tag k="ssr:stedsnr" v="281098" />
	</node>
<<<<<<< HEAD
	<node lat="62.18903610843324" lon="5.593583329054539" id="-800">
		<tag k="name" v="Klasneset" />
=======
	<node id="-61213" lat="62.2544416708" lon="5.45369721974">
		<tag k="name" v="Leirvikneset" />
>>>>>>> e1d4bc35ff8a6074a6f2e91616a996b547c36f15
		<tag k="natural" v="cape" />
		<tag k="ssr:stedsnr" v="281101" />
	</node>
<<<<<<< HEAD
	<node lat="62.24184166817487" lon="5.433133327071091" id="-802">
		<tag k="fixme" v="consider seamark:type=rock or natural=shoal" />
		<tag k="name" v="Måseskjeret" />
		<tag k="place" v="islet" />
		<tag k="ssr:stedsnr" v="281191" />
	</node>
	<node lat="62.22707500204102" lon="5.531291659580702" id="-803">
		<tag k="name" v="Hammarvika" />
		<tag k="natural" v="bay" />
		<tag k="ssr:stedsnr" v="461034" />
	</node>
	<node lat="62.19342221912011" lon="5.582252769951152" id="-809">
		<tag k="name" v="Breivikneset" />
		<tag k="natural" v="cape" />
		<tag k="ssr:stedsnr" v="462055" />
	</node>
	<node lat="62.24173055206365" lon="5.429019444199056" id="-810">
=======
	<node id="-61212" lat="62.2561611153" lon="5.45563333469">
		<tag k="name" v="Djuvikneset" />
		<tag k="natural" v="cape" />
		<tag k="ssr:stedsnr" v="644180" />
	</node>
	<node id="-61210" lat="62.251719442" lon="5.47990278554">
		<tag k="name" v="Budaneset" />
		<tag k="natural" v="cape" />
		<tag k="ssr:stedsnr" v="644165" />
	</node>
	<node id="-61209" lat="62.2388499994" lon="5.46382777619">
		<tag k="name" v="Jaktholmen" />
		<tag k="place" v="islet" />
		<tag k="ssr:stedsnr" v="644162" />
	</node>
	<node id="-61208" lat="62.239997224" lon="5.34799444597">
>>>>>>> e1d4bc35ff8a6074a6f2e91616a996b547c36f15
		<tag k="fixme" v="consider seamark:type=rock or natural=shoal" />
		<tag k="name" v="Kinnaskjera" />
		<tag k="place" v="islet" />
		<tag k="ssr:stedsnr" v="462135" />
	</node>
<<<<<<< HEAD
	<node lat="62.2294444436642" lon="5.386466669101213" id="-811">
=======
	<node id="-61206" lat="62.2370055546" lon="5.36474166067">
>>>>>>> e1d4bc35ff8a6074a6f2e91616a996b547c36f15
		<tag k="fixme" v="consider seamark:type=rock or natural=shoal" />
		<tag k="name" v="Litleskjeret" />
		<tag k="place" v="islet" />
		<tag k="ssr:stedsnr" v="462138" />
	</node>
	<node lat="62.171061109920046" lon="5.392458334264622" id="-814">
		<tag k="name" v="Fjøsvika" />
		<tag k="natural" v="bay" />
		<tag k="ssr:stedsnr" v="462235" />
	</node>
	<node lat="62.18793889328342" lon="5.600847228791822" id="-816">
		<tag k="name" v="Klubbem" />
		<tag k="natural" v="cape" />
		<tag k="ssr:stedsnr" v="462255" />
	</node>
	<node lat="62.27215555991287" lon="5.444672227277313" id="-818">
		<tag k="name" v="Hella" />
		<tag k="natural" v="shoal" />
		<tag k="place" v="locality" />
		<tag k="ssr:stedsnr" v="294432" />
	</node>
	<node lat="62.23516944763136" lon="5.492369446076994" id="-819">
		<tag k="name" v="Voreneset" />
		<tag k="natural" v="cape" />
		<tag k="ssr:stedsnr" v="294439" />
	</node>
	<node lat="62.29157499898357" lon="5.4828083416058595" id="-820">
		<tag k="name" v="Leirbodgrunnen" />
		<tag k="natural" v="shoal" />
		<tag k="place" v="locality" />
		<tag k="ssr:stedsnr" v="294713" />
	</node>
	<node lat="62.2475555536006" lon="5.4100666628653284" id="-821">
		<tag k="name" v="Trødavika" />
		<tag k="natural" v="bay" />
		<tag k="ssr:stedsnr" v="463044" />
	</node>
<<<<<<< HEAD
	<node lat="62.19907222401609" lon="5.360719447987215" id="-827">
=======
	<node id="-61205" lat="62.2424611077" lon="5.40790554814">
>>>>>>> e1d4bc35ff8a6074a6f2e91616a996b547c36f15
		<tag k="fixme" v="consider seamark:type=rock or natural=shoal" />
		<tag k="name" v="Notaskjera" />
		<tag k="place" v="islet" />
		<tag k="ssr:stedsnr" v="463049" />
	</node>
<<<<<<< HEAD
	<node lat="62.26702777906664" lon="5.473458338844533" id="-828">
		<tag k="name" v="Langedrogneset" />
=======
	<node id="-61203" lat="62.2358055554" lon="5.48666667228">
		<tag k="name" v="Legeneset" />
>>>>>>> e1d4bc35ff8a6074a6f2e91616a996b547c36f15
		<tag k="natural" v="cape" />
		<tag k="ssr:stedsnr" v="463093" />
	</node>
<<<<<<< HEAD
	<node lat="62.220816665371764" lon="5.647258339203443" id="-830">
		<tag k="name" v="Vågsneset" />
		<tag k="natural" v="cape" />
		<tag k="ssr:stedsnr" v="464113" />
	</node>
	<node lat="62.31408333373624" lon="5.27236389187584" id="-832">
		<tag k="name" v="Sørhammaren" />
		<tag k="natural" v="shoal" />
		<tag k="place" v="locality" />
		<tag k="ssr:stedsnr" v="314611" />
	</node>
	<node lat="62.232344443036745" lon="5.327827786123984" id="-833">
		<tag k="fixme" v="consider seamark:type=rock or natural=shoal" />
		<tag k="name" v="Skjerbodane" />
=======
	<node id="-61202" lat="62.2133472198" lon="5.48682499338">
		<tag k="alt_name" v="Hesteholmsundet" />
		<tag k="name" v="Hestholmsundet" />
		<tag k="natural" v="strait" />
		<tag k="ssr:stedsnr" v="644114" />
	</node>
	<node id="-61200" lat="62.2660861114" lon="5.4138249984">
		<tag k="name" v="Hamnaholmen" />
>>>>>>> e1d4bc35ff8a6074a6f2e91616a996b547c36f15
		<tag k="place" v="islet" />
		<tag k="ssr:stedsnr" v="314614" />
	</node>
<<<<<<< HEAD
	<node lat="62.271691662822775" lon="5.421119444012988" id="-835">
		<tag k="alt_name" v="Djupeflua" />
		<tag k="name" v="Djupefluda" />
		<tag k="natural" v="shoal" />
		<tag k="place" v="locality" />
		<tag k="ssr:stedsnr" v="314555" />
	</node>
	<node lat="62.184544440088175" lon="5.606344448179443" id="-837">
		<tag k="name" v="Saudeholmen" />
		<tag k="place" v="islet" />
		<tag k="ssr:stedsnr" v="324311" />
	</node>
	<node lat="62.27759722486774" lon="5.550494441763418" id="-838">
		<tag k="name" v="Køyla" />
=======
	<node id="-61199" lat="62.2664388884" lon="5.41838611612">
		<tag k="name" v="Småvikane" />
		<tag k="natural" v="bay" />
		<tag k="ssr:stedsnr" v="644103" />
	</node>
	<node id="-61197" lat="62.180694441" lon="5.37276110333">
		<tag k="name" v="Sandholmane" />
		<tag k="place" v="islet" />
		<tag k="ssr:stedsnr" v="644073" />
	</node>
	<node id="-61193" lat="62.1699666705" lon="5.40092221418">
		<tag k="name" v="Bjørnholmsundet" />
		<tag k="natural" v="strait" />
		<tag k="ssr:stedsnr" v="644058" />
	</node>
	<node id="-61192" lat="62.2569027738" lon="5.39776945386">
		<tag k="name" v="Steinsvika" />
>>>>>>> e1d4bc35ff8a6074a6f2e91616a996b547c36f15
		<tag k="natural" v="bay" />
		<tag k="ssr:stedsnr" v="340045" />
	</node>
<<<<<<< HEAD
	<node lat="62.2148194480471" lon="5.445861102107442" id="-839">
		<tag k="name" v="Ringlausa" />
		<tag k="natural" v="shoal" />
		<tag k="place" v="locality" />
		<tag k="ssr:stedsnr" v="341113" />
	</node>
	<node lat="62.24214722446388" lon="5.411391672589396" id="-840">
		<tag k="alt_name" v="Leiaholmen" />
		<tag k="name" v="Leidaholmen" />
		<tag k="place" v="islet" />
		<tag k="ssr:stedsnr" v="341142" />
	</node>
	<node lat="62.24281944132986" lon="5.404933330342258" id="-841">
		<tag k="name" v="Skarsleida" />
=======
	<node id="-61189" lat="62.2343249965" lon="5.54371944711">
		<tag k="name" v="Koparboden" />
		<tag k="natural" v="cape" />
		<tag k="ssr:stedsnr" v="643048" />
	</node>
	<node id="-61186" lat="62.2550499975" lon="5.42847499459">
		<tag k="name" v="Sandsøya" />
		<tag k="place" v="island" />
		<tag k="ssr:stedsnr" v="617666" />
	</node>
	<node id="-61182" lat="62.2233222202" lon="5.46648054997">
		<tag k="name" v="Kvernasundet" />
>>>>>>> e1d4bc35ff8a6074a6f2e91616a996b547c36f15
		<tag k="natural" v="strait" />
		<tag k="ssr:stedsnr" v="341150" />
	</node>
<<<<<<< HEAD
	<node lat="62.23607500401442" lon="5.5700361130815566" id="-842">
		<tag k="fixme" v="consider seamark:type=rock or natural=shoal" />
		<tag k="name" v="Tenderen" />
		<tag k="place" v="islet" />
		<tag k="ssr:stedsnr" v="341196" />
	</node>
	<node lat="62.24838611017468" lon="5.477713887216887" id="-848">
		<tag k="name" v="Mikkelholmen" />
		<tag k="place" v="islet" />
		<tag k="ssr:stedsnr" v="341247" />
	</node>
	<node lat="62.233441663506454" lon="5.5433777790259136" id="-850">
		<tag k="name" v="Grønsvikneset" />
		<tag k="natural" v="cape" />
		<tag k="ssr:stedsnr" v="354617" />
	</node>
	<node lat="62.22269999757628" lon="5.322994450267667" id="-851">
		<tag k="name" v="Nabben" />
=======
	<node id="-61181" lat="62.2394138866" lon="5.46532777302">
		<tag k="name" v="Storevika" />
		<tag k="natural" v="bay" />
		<tag k="ssr:stedsnr" v="617612" />
	</node>
	<node id="-61180" lat="62.2331611117" lon="5.54231111809">
		<tag k="name" v="Nupeneset" />
		<tag k="natural" v="cape" />
		<tag k="ssr:stedsnr" v="617609" />
	</node>
	<node id="-61179" lat="62.2355833361" lon="5.55187499684">
		<tag k="bay" v="fjord" />
		<tag k="name" v="Gursken" />
		<tag k="natural" v="bay" />
		<tag k="ssr:stedsnr" v="617607" />
	</node>
	<node id="-61177" lat="62.246538449" lon="5.36533641641">
		<tag k="name" v="Stolpeboden" />
>>>>>>> e1d4bc35ff8a6074a6f2e91616a996b547c36f15
		<tag k="natural" v="shoal" />
		<tag k="place" v="locality" />
		<tag k="ssr:stedsnr" v="355503" />
	</node>
<<<<<<< HEAD
	<node lat="62.2046222246465" lon="5.558105556892023" id="-853">
		<tag k="name" v="Litlefluda" />
=======
	<node id="-61176" lat="62.224891669" lon="5.3871027838">
		<tag k="name" v="Skrukken" />
>>>>>>> e1d4bc35ff8a6074a6f2e91616a996b547c36f15
		<tag k="natural" v="shoal" />
		<tag k="place" v="locality" />
		<tag k="ssr:stedsnr" v="476584" />
	</node>
<<<<<<< HEAD
	<node lat="62.18743610860252" lon="5.36721387994457" id="-854">
		<tag k="name" v="Stabben" />
=======
	<node id="-61175" lat="62.2168638929" lon="5.54739443945">
		<tag k="name" v="Stekkjaren" />
>>>>>>> e1d4bc35ff8a6074a6f2e91616a996b547c36f15
		<tag k="natural" v="shoal" />
		<tag k="place" v="locality" />
		<tag k="ssr:stedsnr" v="477430" />
	</node>
<<<<<<< HEAD
	<node lat="62.1906388889887" lon="5.6374305510035185" id="-855">
		<tag k="name" v="Årvikskallen" />
=======
	<node id="-61173" lat="62.26220753" lon="5.32950308781">
		<tag k="name" v="Skjeggene" />
>>>>>>> e1d4bc35ff8a6074a6f2e91616a996b547c36f15
		<tag k="natural" v="shoal" />
		<tag k="place" v="locality" />
		<tag k="ssr:stedsnr" v="476436" />
	</node>
<<<<<<< HEAD
	<node lat="62.24499722518773" lon="5.408027782456797" id="-857">
		<tag k="alt_name" v="Bårsneset;Båtsneset" />
		<tag k="name" v="Barsneset" />
		<tag k="natural" v="cape" />
		<tag k="ssr:stedsnr" v="374641" />
	</node>
	<node lat="62.19043611117757" lon="5.61146112030415" id="-863">
		<tag k="name" v="Leitevika" />
=======
	<node id="-61170" lat="62.2275944439" lon="5.58970277732">
		<tag k="name" v="Sandvikneset" />
		<tag k="natural" v="cape" />
		<tag k="ssr:stedsnr" v="584015" />
	</node>
	<node id="-61169" lat="62.2268472223" lon="5.62663333804">
		<tag k="name" v="Tjeldsvika" />
		<tag k="natural" v="bay" />
		<tag k="ssr:stedsnr" v="584011" />
	</node>
	<node id="-61167" lat="62.2872361131" lon="5.55428889561">
		<tag k="name" v="Mjeltehola" />
>>>>>>> e1d4bc35ff8a6074a6f2e91616a996b547c36f15
		<tag k="natural" v="bay" />
		<tag k="ssr:stedsnr" v="402110" />
	</node>
<<<<<<< HEAD
	<node lat="62.1997972207347" lon="5.573927785436595" id="-864">
		<tag k="name" v="Rogneneset" />
		<tag k="natural" v="cape" />
		<tag k="ssr:stedsnr" v="402111" />
	</node>
	<node lat="62.19103610932744" lon="5.588794439824625" id="-865">
		<tag k="name" v="Naustneset" />
		<tag k="natural" v="cape" />
		<tag k="ssr:stedsnr" v="402114" />
	</node>
	<node lat="62.22997500362073" lon="5.617141658179202" id="-866">
		<tag k="name" v="Vikebukta" />
=======
	<node id="-61164" lat="62.2260249994" lon="5.59060556068">
		<tag k="name" v="Sandvika" />
		<tag k="natural" v="bay" />
		<tag k="ssr:stedsnr" v="583210" />
	</node>
	<node id="-61162" lat="62.2582583329" lon="5.53364444266">
		<tag k="name" v="Skytten" />
		<tag k="natural" v="beach" />
		<tag k="place" v="locality" />
		<tag k="ssr:stedsnr" v="583196" />
	</node>
	<node id="-61157" lat="62.2399583379" lon="5.45355556199">
		<tag k="name" v="Tarevika" />
>>>>>>> e1d4bc35ff8a6074a6f2e91616a996b547c36f15
		<tag k="natural" v="bay" />
		<tag k="ssr:stedsnr" v="402008" />
	</node>
<<<<<<< HEAD
	<node lat="62.22890277991793" lon="5.617238888066883" id="-867">
		<tag k="name" v="Langetangen" />
		<tag k="natural" v="cape" />
		<tag k="ssr:stedsnr" v="402009" />
	</node>
	<node lat="62.220188891664726" lon="5.355572230136108" id="-868">
		<tag k="name" v="Hamnaholmane" />
=======
	<node id="-61152" lat="62.2624555574" lon="5.48303888027">
		<tag k="name" v="Gurskekroken" />
		<tag k="natural" v="cape" />
		<tag k="ssr:stedsnr" v="583163" />
	</node>
	<node id="-61151" lat="62.2389777769" lon="5.36021111388">
		<tag k="name" v="Ytstevikane" />
		<tag k="natural" v="bay" />
		<tag k="ssr:stedsnr" v="583157" />
	</node>
	<node id="-61150" lat="62.2183333305" lon="5.3735194501">
		<tag k="name" v="Elvaholmen" />
>>>>>>> e1d4bc35ff8a6074a6f2e91616a996b547c36f15
		<tag k="place" v="islet" />
		<tag k="ssr:stedsnr" v="402075" />
	</node>
<<<<<<< HEAD
	<node lat="62.210000003501484" lon="5.41766666645025" id="-870">
		<tag k="name" v="Dysjaneset" />
=======
	<node id="-61149" lat="62.2362416683" lon="5.47716110972">
		<tag k="name" v="Hundeberget" />
>>>>>>> e1d4bc35ff8a6074a6f2e91616a996b547c36f15
		<tag k="natural" v="cape" />
		<tag k="ssr:stedsnr" v="402081" />
	</node>
<<<<<<< HEAD
	<node lat="62.26582222336548" lon="5.449416673888669" id="-872">
		<tag k="name" v="Lendinga" />
		<tag k="natural" v="bay" />
		<tag k="ssr:stedsnr" v="402094" />
	</node>
	<node lat="62.268666664839756" lon="5.416016661525409" id="-873">
		<tag k="fixme" v="consider seamark:type=rock or natural=shoal" />
		<tag k="name" v="Svartebarden" />
=======
	<node id="-61148" lat="62.2245944411" lon="5.46977221385">
		<tag k="name" v="Skutholmane" />
>>>>>>> e1d4bc35ff8a6074a6f2e91616a996b547c36f15
		<tag k="place" v="islet" />
		<tag k="ssr:stedsnr" v="402095" />
	</node>
	<node lat="62.241572226127545" lon="5.491816670438775" id="-874">
		<tag k="name" v="Maltvika" />
		<tag k="natural" v="bay" />
		<tag k="ssr:stedsnr" v="402204" />
	</node>
	<node lat="62.238144444909906" lon="5.4629833379398125" id="-875">
		<tag k="name" v="Ringholmane" />
		<tag k="place" v="islet" />
		<tag k="ssr:stedsnr" v="402174" />
	</node>
<<<<<<< HEAD
	<node lat="62.25088333390185" lon="5.465127773494064" id="-876">
=======
	<node id="-61147" lat="62.1982305523" lon="5.57500277753">
>>>>>>> e1d4bc35ff8a6074a6f2e91616a996b547c36f15
		<tag k="name" v="Langeneset" />
		<tag k="natural" v="cape" />
		<tag k="ssr:stedsnr" v="402180" />
	</node>
<<<<<<< HEAD
	<node lat="62.22296388735723" lon="5.382058324349045" id="-877">
		<tag k="name" v="Klauva" />
		<tag k="natural" v="bay" />
		<tag k="ssr:stedsnr" v="402303" />
	</node>
	<node lat="62.25939167121329" lon="5.547913890295141" id="-879">
		<tag k="name" v="Holboden" />
		<tag k="natural" v="beach" />
		<tag k="ssr:stedsnr" v="402228" />
	</node>
	<node lat="62.21260833340464" lon="5.456861109477035" id="-883">
		<tag k="name" v="Tiggerberget" />
		<tag k="natural" v="cape" />
		<tag k="ssr:stedsnr" v="462109" />
	</node>
	<node lat="62.26642222108441" lon="5.446080558647602" id="-885">
		<tag k="name" v="Nyhamna" />
		<tag k="natural" v="bay" />
		<tag k="ssr:stedsnr" v="462169" />
	</node>
	<node lat="62.26862222613449" lon="5.385850000858391" id="-890">
		<tag k="name" v="Kåsgrunnene" />
=======
	<node id="-61145" lat="62.2581833321" lon="5.54305000548">
		<tag k="name" v="Flatfjøra" />
		<tag k="natural" v="beach" />
		<tag k="place" v="locality" />
		<tag k="ssr:stedsnr" v="582029" />
	</node>
	<node id="-61138" lat="62.2319333346" lon="5.46094722857">
		<tag k="alt_name" v="Håskjer" />
		<tag k="fixme" v="consider seamark:type=rock or natural=shoal" />
		<tag k="name" v="Håskjeret" />
		<tag k="place" v="islet" />
		<tag k="ssr:stedsnr" v="556632" />
	</node>
	<node id="-61137" lat="62.2179333297" lon="5.4623194531">
		<tag k="name" v="Voksa" />
		<tag k="place" v="island" />
		<tag k="ssr:stedsnr" v="556601" />
	</node>
	<node id="-61134" lat="62.1910694465" lon="5.58238054698">
		<tag k="alt_name" v="Karnelsholmen;Karneliusholmen;Karnelesholmen" />
		<tag k="name" v="Kalnesholmen" />
		<tag k="place" v="islet" />
		<tag k="ssr:stedsnr" v="556589" />
	</node>
	<node id="-61133" lat="62.2451666684" lon="5.3532833252">
		<tag k="name" v="Steinboden" />
>>>>>>> e1d4bc35ff8a6074a6f2e91616a996b547c36f15
		<tag k="natural" v="shoal" />
		<tag k="place" v="locality" />
		<tag k="ssr:stedsnr" v="477617" />
	</node>
<<<<<<< HEAD
	<node lat="62.260252773791755" lon="5.363044454530101" id="-891">
		<tag k="alt_name" v="Hestholmbåen" />
		<tag k="name" v="Hestholmboden" />
=======
	<node id="-61131" lat="62.2539527749" lon="5.37240000183">
		<tag k="alt_name" v="Marøyfluene" />
		<tag k="name" v="Marøyfludene" />
>>>>>>> e1d4bc35ff8a6074a6f2e91616a996b547c36f15
		<tag k="natural" v="shoal" />
		<tag k="place" v="locality" />
		<tag k="ssr:stedsnr" v="678520" />
	</node>
<<<<<<< HEAD
	<node lat="62.16907222570865" lon="5.401169449964586" id="-892">
		<tag k="name" v="Bjørnholmen" />
		<tag k="place" v="islet" />
		<tag k="ssr:stedsnr" v="678521" />
	</node>
	<node lat="62.3279388922229" lon="5.1847916754877135" id="-893">
		<tag k="name" v="Alseggja" />
=======
	<node id="-61128" lat="62.2465083372" lon="5.37356666013">
		<tag k="name" v="Stolpefluda" />
>>>>>>> e1d4bc35ff8a6074a6f2e91616a996b547c36f15
		<tag k="natural" v="shoal" />
		<tag k="place" v="locality" />
		<tag k="ssr:stedsnr" v="481822" />
	</node>
<<<<<<< HEAD
	<node lat="62.19355833143574" lon="5.382075002483035" id="-895">
		<tag k="alt_name" v="Litleholmane" />
		<tag k="name" v="Litleholmen" />
		<tag k="place" v="islet" />
		<tag k="ssr:stedsnr" v="678539" />
	</node>
	<node lat="62.285169443279685" lon="5.446936118550035" id="-897">
		<tag k="name" v="Flesene" />
=======
	<node id="-61127" lat="62.2882638868" lon="5.4674694514">
		<tag k="name" v="Hella" />
>>>>>>> e1d4bc35ff8a6074a6f2e91616a996b547c36f15
		<tag k="natural" v="shoal" />
		<tag k="place" v="locality" />
		<tag k="ssr:stedsnr" v="678545" />
	</node>
<<<<<<< HEAD
	<node lat="62.194894447503124" lon="5.578638895212555" id="-899">
		<tag k="name" v="Grønholmen" />
=======
	<node id="-61124" lat="62.2294444437" lon="5.3864666691">
		<tag k="fixme" v="consider seamark:type=rock or natural=shoal" />
		<tag k="name" v="Småskjera" />
>>>>>>> e1d4bc35ff8a6074a6f2e91616a996b547c36f15
		<tag k="place" v="islet" />
		<tag k="ssr:stedsnr" v="678554" />
	</node>
<<<<<<< HEAD
	<node lat="62.21607222221598" lon="5.342916663367155" id="-900">
		<tag k="alt_name" v="Djuvika" />
		<tag k="name" v="Djupvika" />
		<tag k="natural" v="bay" />
		<tag k="ssr:stedsnr" v="678558" />
	</node>
	<node lat="62.21654999672985" lon="5.408544444759443" id="-901">
		<tag k="alt_name" v="Kalsneset" />
		<tag k="name" v="Kalsnes" />
=======
	<node id="-61117" lat="62.2585888895" lon="5.39446944874">
		<tag k="name" v="Kråa" />
		<tag k="natural" v="bay" />
		<tag k="ssr:stedsnr" v="523225" />
	</node>
	<node id="-61116" lat="62.2169055538" lon="5.45495832872">
		<tag k="fixme" v="consider seamark:type=rock or natural=shoal" />
		<tag k="name" v="Tjeldeskjeret" />
		<tag k="place" v="islet" />
		<tag k="ssr:stedsnr" v="523145" />
	</node>
	<node id="-61115" lat="62.1909472205" lon="5.6310222172">
		<tag k="name" v="Martinberget" />
>>>>>>> e1d4bc35ff8a6074a6f2e91616a996b547c36f15
		<tag k="natural" v="cape" />
		<tag k="ssr:stedsnr" v="678568" />
	</node>
<<<<<<< HEAD
	<node lat="62.23466666367226" lon="5.3971222130140095" id="-904">
		<tag k="name" v="Midtfjordfludene" />
		<tag k="natural" v="shoal" />
		<tag k="place" v="locality" />
		<tag k="ssr:stedsnr" v="496619" />
	</node>
	<node lat="62.22754166667806" lon="5.3884611042156045" id="-905">
		<tag k="name" v="Ristesundet" />
		<tag k="natural" v="strait" />
		<tag k="ssr:stedsnr" v="496621" />
	</node>
	<node lat="62.28837777431095" lon="5.413463885161489" id="-906">
		<tag k="name" v="Hoven" />
		<tag k="natural" v="shoal" />
		<tag k="place" v="locality" />
		<tag k="ssr:stedsnr" v="496569" />
	</node>
	<node lat="62.283486110091246" lon="5.548625002292692" id="-907">
=======
	<node id="-61114" lat="62.2662500015" lon="5.46673056414">
		<tag k="name" v="Driv-vika" />
		<tag k="natural" v="bay" />
		<tag k="ssr:stedsnr" v="523131" />
	</node>
	<node id="-61112" lat="62.2201194488" lon="5.34500833084">
		<tag k="name" v="Luseholmen" />
		<tag k="place" v="islet" />
		<tag k="ssr:stedsnr" v="523099" />
	</node>
	<node id="-61105" lat="62.2296972264" lon="5.58373611727">
		<tag k="alt_name" v="Sandvikskjera" />
		<tag k="fixme" v="consider seamark:type=rock or natural=shoal" />
		<tag k="name" v="Sandvikskjeret" />
		<tag k="place" v="islet" />
		<tag k="ssr:stedsnr" v="523016" />
	</node>
	<node id="-61098" lat="62.2834861101" lon="5.54862500229">
>>>>>>> e1d4bc35ff8a6074a6f2e91616a996b547c36f15
		<tag k="name" v="Småvikane" />
		<tag k="natural" v="bay" />
		<tag k="ssr:stedsnr" v="522059" />
	</node>
<<<<<<< HEAD
	<node lat="62.22969722635174" lon="5.583736117273139" id="-910">
		<tag k="alt_name" v="Sandvikskjera" />
		<tag k="fixme" v="consider seamark:type=rock or natural=shoal" />
		<tag k="name" v="Sandvikskjeret" />
=======
	<node id="-61097" lat="62.2548305524" lon="5.53056110394">
		<tag k="name" v="Gjøhalstangen" />
		<tag k="natural" v="cape" />
		<tag k="ssr:stedsnr" v="522055" />
	</node>
	<node id="-61094" lat="62.2023499997" lon="5.57354999084">
		<tag k="name" v="Halsen" />
		<tag k="natural" v="strait" />
		<tag k="ssr:stedsnr" v="522007" />
	</node>
	<node id="-61092" lat="62.2205888917" lon="5.48154999665">
		<tag k="alt_name" v="Flatøya" />
		<tag k="name" v="Flatøyna" />
>>>>>>> e1d4bc35ff8a6074a6f2e91616a996b547c36f15
		<tag k="place" v="islet" />
		<tag k="ssr:stedsnr" v="523016" />
	</node>
<<<<<<< HEAD
	<node lat="62.205213891975326" lon="5.361308325348537" id="-914">
=======
	<node id="-61088" lat="62.2370333291" lon="5.33694722531">
>>>>>>> e1d4bc35ff8a6074a6f2e91616a996b547c36f15
		<tag k="fixme" v="consider seamark:type=rock or natural=shoal" />
		<tag k="name" v="Krabbeskjeret" />
		<tag k="place" v="islet" />
		<tag k="ssr:stedsnr" v="523179" />
	</node>
<<<<<<< HEAD
	<node lat="62.22832222001103" lon="5.476886111444708" id="-916">
		<tag k="name" v="Kalven" />
		<tag k="place" v="islet" />
		<tag k="ssr:stedsnr" v="523215" />
	</node>
	<node lat="62.258588889488585" lon="5.39446944873511" id="-918">
		<tag k="name" v="Kråa" />
=======
	<node id="-61086" lat="62.1849333363" lon="5.55590556109">
		<tag k="bay" v="fjord" />
		<tag k="name" v="Rovdefjorden" />
		<tag k="natural" v="bay" />
		<tag k="ssr:stedsnr" v="435537" />
	</node>
	<node id="-61085" lat="62.2619583327" lon="5.40961110782">
		<tag k="alt_name" v="Hellandsvågane" />
		<tag k="name" v="Hellandsvågen" />
>>>>>>> e1d4bc35ff8a6074a6f2e91616a996b547c36f15
		<tag k="natural" v="bay" />
		<tag k="ssr:stedsnr" v="523225" />
	</node>
<<<<<<< HEAD
	<node lat="62.23516944763136" lon="5.492369446076994" id="-919">
		<tag k="name" v="Voreholmane" />
		<tag k="place" v="islet" />
		<tag k="ssr:stedsnr" v="526807" />
	</node>
	<node lat="62.20496944160488" lon="5.468361110925605" id="-920">
		<tag k="name" v="Kyrholmfluda" />
		<tag k="natural" v="shoal" />
		<tag k="place" v="locality" />
		<tag k="ssr:stedsnr" v="537413" />
	</node>
	<node lat="62.236811111411086" lon="5.480158330941333" id="-921">
		<tag k="name" v="Kledevika" />
=======
	<node id="-61084" lat="62.2007138915" lon="5.71235555514">
		<tag k="name" v="Skredestranda" />
		<tag k="natural" v="beach" />
		<tag k="place" v="locality" />
		<tag k="ssr:stedsnr" v="416396" />
	</node>
	<node id="-61083" lat="62.2078984188" lon="5.49845364766">
		<tag k="name" v="Rædene" />
		<tag k="natural" v="shoal" />
		<tag k="place" v="locality" />
		<tag k="ssr:stedsnr" v="415458" />
	</node>
	<node id="-61081" lat="62.2229638874" lon="5.38205832435">
		<tag k="name" v="Klauva" />
		<tag k="natural" v="bay" />
		<tag k="ssr:stedsnr" v="402303" />
	</node>
	<node id="-61080" lat="62.2428833334" lon="5.41701944785">
		<tag k="name" v="Kleiva" />
>>>>>>> e1d4bc35ff8a6074a6f2e91616a996b547c36f15
		<tag k="natural" v="bay" />
		<tag k="ssr:stedsnr" v="537420" />
	</node>
<<<<<<< HEAD
	<node lat="62.288263886768306" lon="5.467469451399244" id="-922">
		<tag k="name" v="Hella" />
		<tag k="natural" v="shoal" />
=======
	<node id="-61077" lat="62.2593916712" lon="5.5479138903">
		<tag k="name" v="Holboden" />
		<tag k="natural" v="beach" />
>>>>>>> e1d4bc35ff8a6074a6f2e91616a996b547c36f15
		<tag k="place" v="locality" />
		<tag k="ssr:stedsnr" v="537668" />
	</node>
<<<<<<< HEAD
	<node lat="62.2319333346218" lon="5.460947228568078" id="-927">
		<tag k="alt_name" v="Håskjer" />
		<tag k="fixme" v="consider seamark:type=rock or natural=shoal" />
		<tag k="name" v="Håskjeret" />
		<tag k="place" v="islet" />
		<tag k="ssr:stedsnr" v="556632" />
	</node>
	<node lat="62.26641944193575" lon="5.454158330867175" id="-928">
		<tag k="name" v="Dreivika" />
		<tag k="natural" v="bay" />
		<tag k="ssr:stedsnr" v="556562" />
	</node>
	<node lat="62.26999444722851" lon="5.426394439330158" id="-930">
		<tag k="name" v="Sandholmen" />
=======
	<node id="-61075" lat="62.1912249959" lon="5.6265111088">
		<tag k="name" v="Rognvika" />
		<tag k="natural" v="bay" />
		<tag k="ssr:stedsnr" v="402208" />
	</node>
	<node id="-61074" lat="62.2415722261" lon="5.49181667044">
		<tag k="name" v="Maltvika" />
		<tag k="natural" v="bay" />
		<tag k="ssr:stedsnr" v="402204" />
	</node>
	<node id="-61073" lat="62.2508833339" lon="5.46512777349">
		<tag k="name" v="Langeneset" />
		<tag k="natural" v="cape" />
		<tag k="ssr:stedsnr" v="402180" />
	</node>
	<node id="-61072" lat="62.2381444449" lon="5.46298333794">
		<tag k="name" v="Ringholmane" />
>>>>>>> e1d4bc35ff8a6074a6f2e91616a996b547c36f15
		<tag k="place" v="islet" />
		<tag k="ssr:stedsnr" v="556569" />
	</node>
<<<<<<< HEAD
	<node lat="62.2260249994194" lon="5.590605560677966" id="-938">
		<tag k="name" v="Sandvika" />
		<tag k="natural" v="bay" />
		<tag k="ssr:stedsnr" v="583210" />
	</node>
	<node lat="62.25825833285286" lon="5.533644442656316" id="-942">
		<tag k="name" v="Skytten" />
=======
	<node id="-61070" lat="62.1947694444" lon="5.65554722704">
		<tag k="name" v="Lisetstranda" />
>>>>>>> e1d4bc35ff8a6074a6f2e91616a996b547c36f15
		<tag k="natural" v="beach" />
		<tag k="ssr:stedsnr" v="583196" />
	</node>
<<<<<<< HEAD
	<node lat="62.22684722228133" lon="5.62663333804476" id="-944">
		<tag k="name" v="Tjeldsvika" />
		<tag k="natural" v="bay" />
		<tag k="ssr:stedsnr" v="584011" />
	</node>
	<node lat="62.22759444387844" lon="5.58970277731718" id="-945">
		<tag k="name" v="Sandvikneset" />
=======
	<node id="-61067" lat="62.2212944459" lon="5.4745694488">
		<tag k="fixme" v="consider seamark:type=rock or natural=shoal" />
		<tag k="name" v="Skinnbroka" />
		<tag k="place" v="islet" />
		<tag k="ssr:stedsnr" v="402120" />
	</node>
	<node id="-61066" lat="62.1910361093" lon="5.58879443982">
		<tag k="name" v="Naustneset" />
>>>>>>> e1d4bc35ff8a6074a6f2e91616a996b547c36f15
		<tag k="natural" v="cape" />
		<tag k="ssr:stedsnr" v="584015" />
	</node>
<<<<<<< HEAD
	<node lat="62.203655559871486" lon="5.7551277718797875" id="-949">
		<tag k="alt_name" v="Laupsneset" />
		<tag k="name" v="Litle-laupnes" />
=======
	<node id="-61065" lat="62.1997972207" lon="5.57392778544">
		<tag k="name" v="Rogneneset" />
>>>>>>> e1d4bc35ff8a6074a6f2e91616a996b547c36f15
		<tag k="natural" v="cape" />
		<tag k="ssr:stedsnr" v="584112" />
	</node>
<<<<<<< HEAD
	<node lat="62.21686389293045" lon="5.54739443944789" id="-952">
		<tag k="name" v="Stekkjaren" />
		<tag k="natural" v="shoal" />
		<tag k="place" v="locality" />
		<tag k="ssr:stedsnr" v="597605" />
	</node>
	<node lat="62.23558333614971" lon="5.551874996843792" id="-954">
		<tag k="bay" v="fjord" />
		<tag k="name" v="Gursken" />
=======
	<node id="-61064" lat="62.1904361112" lon="5.6114611203">
		<tag k="name" v="Leitevika" />
>>>>>>> e1d4bc35ff8a6074a6f2e91616a996b547c36f15
		<tag k="natural" v="bay" />
		<tag k="ssr:stedsnr" v="617607" />
	</node>
<<<<<<< HEAD
	<node lat="62.23316111168948" lon="5.542311118090324" id="-955">
		<tag k="name" v="Nupeneset" />
		<tag k="natural" v="cape" />
		<tag k="ssr:stedsnr" v="617609" />
	</node>
	<node lat="62.239413886632086" lon="5.465327773017026" id="-956">
		<tag k="name" v="Storevika" />
		<tag k="natural" v="bay" />
		<tag k="ssr:stedsnr" v="617612" />
	</node>
	<node lat="62.223322220223686" lon="5.466480549971507" id="-959">
		<tag k="name" v="Kvernasundet" />
		<tag k="natural" v="strait" />
		<tag k="ssr:stedsnr" v="617631" />
	</node>
	<node lat="62.25250277517176" lon="5.530527783223269" id="-960">
		<tag k="name" v="Bremmerstøda" />
=======
	<node id="-61062" lat="62.2683861071" lon="5.40877221449">
		<tag k="name" v="Bjørnholmen" />
		<tag k="place" v="islet" />
		<tag k="ssr:stedsnr" v="402100" />
	</node>
	<node id="-61061" lat="62.2686666648" lon="5.41601666153">
		<tag k="fixme" v="consider seamark:type=rock or natural=shoal" />
		<tag k="name" v="Svartebarden" />
		<tag k="place" v="islet" />
		<tag k="ssr:stedsnr" v="402095" />
	</node>
	<node id="-61060" lat="62.2658222234" lon="5.44941667389">
		<tag k="name" v="Lendinga" />
>>>>>>> e1d4bc35ff8a6074a6f2e91616a996b547c36f15
		<tag k="natural" v="bay" />
		<tag k="ssr:stedsnr" v="704041" />
	</node>
<<<<<<< HEAD
	<node lat="62.18907222424526" lon="5.61286945034938" id="-964">
		<tag k="name" v="Leiteneset" />
=======
	<node id="-61058" lat="62.2100000035" lon="5.41766666645">
		<tag k="name" v="Dysjaneset" />
>>>>>>> e1d4bc35ff8a6074a6f2e91616a996b547c36f15
		<tag k="natural" v="cape" />
		<tag k="ssr:stedsnr" v="705062" />
	</node>
<<<<<<< HEAD
	<node lat="62.173769448194214" lon="5.386533329219149" id="-966">
		<tag k="fixme" v="consider seamark:type=rock or natural=shoal" />
		<tag k="name" v="Nøre Torrane" />
		<tag k="place" v="islet" />
		<tag k="ssr:stedsnr" v="705090" />
	</node>
	<node lat="62.182758329094945" lon="5.375061113953506" id="-967">
		<tag k="name" v="Avløysinga" />
		<tag k="natural" v="cape" />
		<tag k="ssr:stedsnr" v="705095" />
	</node>
	<node lat="62.19447222060487" lon="5.40173889210166" id="-968">
		<tag k="name" v="Inste Klubben" />
=======
	<node id="-61056" lat="62.2201888917" lon="5.35557223014">
		<tag k="name" v="Hamnaholmane" />
		<tag k="place" v="islet" />
		<tag k="ssr:stedsnr" v="402075" />
	</node>
	<node id="-61055" lat="62.1933694443" lon="5.40875833937">
		<tag k="name" v="Falkarvika" />
		<tag k="natural" v="bay" />
		<tag k="ssr:stedsnr" v="402066" />
	</node>
	<node id="-61054" lat="62.2465055573" lon="5.41030832689">
		<tag k="name" v="Sandsendevika" />
		<tag k="natural" v="bay" />
		<tag k="ssr:stedsnr" v="402049" />
	</node>
	<node id="-61051" lat="62.2289027799" lon="5.61723888807">
		<tag k="name" v="Langetangen" />
>>>>>>> e1d4bc35ff8a6074a6f2e91616a996b547c36f15
		<tag k="natural" v="cape" />
		<tag k="ssr:stedsnr" v="705097" />
	</node>
<<<<<<< HEAD
	<node lat="62.21861666599854" lon="5.358955552285759" id="-970">
		<tag k="name" v="Eldevikholmen" />
		<tag k="place" v="islet" />
		<tag k="ssr:stedsnr" v="705175" />
	</node>
	<node lat="62.20462499759128" lon="5.364280563476238" id="-971">
		<tag k="fixme" v="consider seamark:type=rock or natural=shoal" />
		<tag k="name" v="Olaskjeret" />
		<tag k="place" v="islet" />
		<tag k="ssr:stedsnr" v="705181" />
	</node>
	<node lat="62.231947220633344" lon="5.4611722260331215" id="-973">
		<tag k="fixme" v="consider seamark:type=rock or natural=shoal" />
		<tag k="name" v="Nørdste Håskjeret" />
		<tag k="place" v="islet" />
		<tag k="ssr:stedsnr" v="705143" />
	</node>
	<node lat="62.19343611251796" lon="5.649677777477079" id="-975">
		<tag k="name" v="Djupekastet" />
=======
	<node id="-61050" lat="62.2299750036" lon="5.61714165818">
		<tag k="name" v="Vikebukta" />
		<tag k="natural" v="bay" />
		<tag k="ssr:stedsnr" v="402008" />
	</node>
	<node id="-61043" lat="62.1927999989" lon="5.64852500813">
		<tag k="name" v="Lisetneset" />
		<tag k="natural" v="cape" />
		<tag k="ssr:stedsnr" v="401055" />
	</node>
	<node id="-61041" lat="62.1884166635" lon="5.60769166419">
		<tag k="name" v="Storebåtvika" />
>>>>>>> e1d4bc35ff8a6074a6f2e91616a996b547c36f15
		<tag k="natural" v="bay" />
		<tag k="ssr:stedsnr" v="705152" />
	</node>
<<<<<<< HEAD
	<node lat="62.264850000493304" lon="5.461499999295786" id="-980">
		<tag k="name" v="Grøte" />
		<tag k="natural" v="beach" />
		<tag k="ssr:stedsnr" v="705267" />
	</node>
	<node lat="62.203263887649875" lon="5.366549991149662" id="-984">
		<tag k="fixme" v="consider seamark:type=rock or natural=shoal" />
		<tag k="name" v="Røysane" />
		<tag k="place" v="islet" />
		<tag k="ssr:stedsnr" v="705342" />
	</node>
	<node lat="62.21676388616923" lon="5.553674996315174" id="-986">
		<tag k="name" v="Storegjerdbukta" />
=======
	<node id="-61039" lat="62.2113972253" lon="5.46179445231">
		<tag k="name" v="Sivertvika" />
>>>>>>> e1d4bc35ff8a6074a6f2e91616a996b547c36f15
		<tag k="natural" v="bay" />
		<tag k="ssr:stedsnr" v="705972" />
	</node>
<<<<<<< HEAD
	<node lat="62.18069444100735" lon="5.372761103332722" id="-991">
		<tag k="name" v="Sandholmane" />
		<tag k="place" v="islet" />
		<tag k="ssr:stedsnr" v="644073" />
	</node>
	<node lat="62.26643888840151" lon="5.418386116115745" id="-994">
		<tag k="name" v="Småvikane" />
		<tag k="natural" v="bay" />
		<tag k="ssr:stedsnr" v="644103" />
	</node>
	<node lat="62.26608611138275" lon="5.413824998396847" id="-995">
		<tag k="name" v="Hamnaholmen" />
=======
	<node id="-61038" lat="62.2563805542" lon="5.35560833862">
		<tag k="name" v="Skjellaren" />
		<tag k="natural" v="shoal" />
		<tag k="place" v="locality" />
		<tag k="ssr:stedsnr" v="375466" />
	</node>
	<node id="-61036" lat="62.2449972252" lon="5.40802778246">
		<tag k="alt_name" v="Bårsneset;Båtsneset" />
		<tag k="name" v="Barsneset" />
		<tag k="natural" v="cape" />
		<tag k="ssr:stedsnr" v="374641" />
	</node>
	<node id="-61034" lat="62.2211583314" lon="5.33981667292">
		<tag k="alt_name" v="Barane" />
		<tag k="name" v="Baren" />
>>>>>>> e1d4bc35ff8a6074a6f2e91616a996b547c36f15
		<tag k="place" v="islet" />
		<tag k="ssr:stedsnr" v="644105" />
	</node>
<<<<<<< HEAD
	<node lat="62.25616111533041" lon="5.4556333346882795" id="-999">
		<tag k="name" v="Djuvikneset" />
		<tag k="natural" v="cape" />
		<tag k="ssr:stedsnr" v="644180" />
	</node>
	<node lat="62.25444167083875" lon="5.453697219736259" id="-1000">
		<tag k="name" v="Leirvikneset" />
		<tag k="natural" v="cape" />
		<tag k="ssr:stedsnr" v="644183" />
	</node>
	<node lat="62.19138055688808" lon="5.386127780203757" id="-1003">
		<tag k="name" v="Litlestabben" />
=======
	<node id="-61033" lat="62.220830553" lon="5.32060278538">
		<tag k="name" v="Skorpefluda" />
		<tag k="natural" v="shoal" />
		<tag k="place" v="locality" />
		<tag k="ssr:stedsnr" v="374589" />
	</node>
	<node id="-61030" lat="62.2431555521" lon="5.31765000756">
		<tag k="name" v="Hidsgrunnen" />
		<tag k="natural" v="shoal" />
		<tag k="place" v="locality" />
		<tag k="ssr:stedsnr" v="355511" />
	</node>
	<node id="-61029" lat="62.2259777788" lon="5.33952223067">
		<tag k="name" v="Julaftegrunnen" />
>>>>>>> e1d4bc35ff8a6074a6f2e91616a996b547c36f15
		<tag k="natural" v="shoal" />
		<tag k="place" v="locality" />
		<tag k="ssr:stedsnr" v="707751" />
	</node>
<<<<<<< HEAD
	<node lat="62.19278888845666" lon="5.553413880291245" id="-1004">
		<tag k="name" v="Kropperevet" />
=======
	<node id="-61028" lat="62.2226999976" lon="5.32299445027">
		<tag k="name" v="Nabben" />
>>>>>>> e1d4bc35ff8a6074a6f2e91616a996b547c36f15
		<tag k="natural" v="shoal" />
		<tag k="place" v="locality" />
		<tag k="ssr:stedsnr" v="658438" />
	</node>
<<<<<<< HEAD
	<node lat="62.1996638856112" lon="5.3849638902184145" id="-1005">
		<tag k="name" v="Myrvika" />
		<tag k="natural" v="bay" />
		<tag k="ssr:stedsnr" v="659430" />
	</node>
	<node lat="62.20074444633872" lon="5.362708340469715" id="-1006">
		<tag k="fixme" v="consider seamark:type=rock or natural=shoal" />
		<tag k="name" v="Agnskjeret" />
		<tag k="place" v="islet" />
		<tag k="ssr:stedsnr" v="659433" />
	</node>
	<node lat="62.239733331894946" lon="5.33022499281704" id="-1007">
		<tag k="name" v="Svarteskjerfluda" />
=======
	<node id="-61027" lat="62.2160638863" lon="5.4143194367">
		<tag k="name" v="Litlefluda" />
		<tag k="natural" v="shoal" />
		<tag k="place" v="locality" />
		<tag k="ssr:stedsnr" v="355376" />
	</node>
	<node id="-61026" lat="62.2334416635" lon="5.54337777903">
		<tag k="name" v="Grønsvikneset" />
		<tag k="natural" v="cape" />
		<tag k="ssr:stedsnr" v="354617" />
	</node>
	<node id="-61024" lat="62.2713638848" lon="5.43483333272">
		<tag k="name" v="Sandholmfluda" />
>>>>>>> e1d4bc35ff8a6074a6f2e91616a996b547c36f15
		<tag k="natural" v="shoal" />
		<tag k="place" v="locality" />
		<tag k="ssr:stedsnr" v="659544" />
	</node>
<<<<<<< HEAD
	<node lat="62.226211114599636" lon="5.5269361028596276" id="-1010">
		<tag k="alt_name" v="Nupeholmen" />
		<tag k="name" v="Nupeholmene" />
=======
	<node id="-61017" lat="62.2483861102" lon="5.47771388722">
		<tag k="name" v="Mikkelholmen" />
>>>>>>> e1d4bc35ff8a6074a6f2e91616a996b547c36f15
		<tag k="place" v="islet" />
		<tag k="ssr:stedsnr" v="678617" />
	</node>
<<<<<<< HEAD
	<node lat="62.22337777783293" lon="5.461930554317982" id="-1011">
		<tag k="name" v="Sigholmen" />
		<tag k="place" v="islet" />
		<tag k="ssr:stedsnr" v="678622" />
	</node>
	<node lat="62.17623610998314" lon="5.417850004330007" id="-1013">
		<tag k="bay" v="fjord" />
		<tag k="name" v="Haugsfjorden" />
		<tag k="natural" v="bay" />
		<tag k="ssr:stedsnr" v="678511" />
	</node>
	<node lat="62.25835833089958" lon="5.529725003618803" id="-1014">
		<tag k="alt_name" v="Gjøtangen" />
		<tag k="name" v="Gjøneset" />
		<tag k="natural" v="cape" />
		<tag k="ssr:stedsnr" v="678512" />
	</node>
	<node lat="62.21108611380866" lon="5.473225005407203" id="-1016">
		<tag k="alt_name" v="Bauteholmen" />
		<tag k="name" v="Bautholmen" />
=======
	<node id="-61014" lat="62.2258916658" lon="5.53089445001">
		<tag k="name" v="Båtvika" />
		<tag k="natural" v="bay" />
		<tag k="ssr:stedsnr" v="341233" />
	</node>
	<node id="-61013" lat="62.2641249991" lon="5.4136666657">
		<tag k="name" v="Rålvika" />
		<tag k="natural" v="bay" />
		<tag k="ssr:stedsnr" v="341230" />
	</node>
	<node id="-61010" lat="62.236075004" lon="5.57003611308">
		<tag k="fixme" v="consider seamark:type=rock or natural=shoal" />
		<tag k="name" v="Tenderen" />
		<tag k="place" v="islet" />
		<tag k="ssr:stedsnr" v="341196" />
	</node>
	<node id="-61009" lat="62.2428194413" lon="5.40493333034">
		<tag k="name" v="Skarsleida" />
		<tag k="natural" v="strait" />
		<tag k="ssr:stedsnr" v="341150" />
	</node>
	<node id="-61008" lat="62.2421472245" lon="5.41139167259">
		<tag k="alt_name" v="Leiaholmen" />
		<tag k="name" v="Leidaholmen" />
>>>>>>> e1d4bc35ff8a6074a6f2e91616a996b547c36f15
		<tag k="place" v="islet" />
		<tag k="ssr:stedsnr" v="678580" />
	</node>
<<<<<<< HEAD
	<node lat="62.2291249955911" lon="5.374480549777553" id="-1018">
		<tag k="name" v="Risteholmen" />
=======
	<node id="-61007" lat="62.2235138885" lon="5.38974722406">
		<tag k="fixme" v="consider seamark:type=rock or natural=shoal" />
		<tag k="name" v="Instegardskjera" />
>>>>>>> e1d4bc35ff8a6074a6f2e91616a996b547c36f15
		<tag k="place" v="islet" />
		<tag k="ssr:stedsnr" v="678585" />
	</node>
<<<<<<< HEAD
	<node lat="62.23808611231546" lon="5.3467472280990505" id="-1025">
		<tag k="name" v="Langeneset" />
		<tag k="natural" v="cape" />
		<tag k="ssr:stedsnr" v="705164" />
	</node>
	<node lat="62.199763890827846" lon="5.341527769338718" id="-1027">
		<tag k="name" v="Kjeftfluda" />
		<tag k="natural" v="shoal" />
		<tag k="place" v="locality" />
		<tag k="ssr:stedsnr" v="720417" />
	</node>
	<node lat="62.24964937604191" lon="5.344224490396" id="-1028">
		<tag k="name" v="Bastenesfluda" />
		<tag k="natural" v="shoal" />
		<tag k="place" v="locality" />
		<tag k="ssr:stedsnr" v="720621" />
	</node>
	<node lat="62.254863885790755" lon="5.405983328642288" id="-1031">
		<tag k="name" v="Breidvika" />
		<tag k="natural" v="bay" />
		<tag k="ssr:stedsnr" v="739499" />
	</node>
	<node lat="62.22267778226154" lon="5.454686113140805" id="-1040">
		<tag k="name" v="Kyrkjevika" />
=======
	<node id="-61004" lat="62.214819448" lon="5.44586110211">
		<tag k="name" v="Ringlausa" />
		<tag k="natural" v="shoal" />
		<tag k="place" v="locality" />
		<tag k="ssr:stedsnr" v="341113" />
	</node>
	<node id="-60998" lat="62.1784833318" lon="5.37005277945">
		<tag k="name" v="Djupsundet" />
		<tag k="natural" v="strait" />
		<tag k="ssr:stedsnr" v="341069" />
	</node>
	<node id="-60992" lat="62.1917166699" lon="5.63841666327">
		<tag k="name" v="Støyleneset" />
		<tag k="natural" v="cape" />
		<tag k="ssr:stedsnr" v="340062" />
	</node>
	<node id="-60991" lat="62.1956722261" lon="5.67898055382">
		<tag k="name" v="Langeneset" />
		<tag k="natural" v="cape" />
		<tag k="ssr:stedsnr" v="340055" />
	</node>
	<node id="-60990" lat="62.2775972249" lon="5.55049444176">
		<tag k="name" v="Køyla" />
>>>>>>> e1d4bc35ff8a6074a6f2e91616a996b547c36f15
		<tag k="natural" v="bay" />
		<tag k="ssr:stedsnr" v="766115" />
	</node>
<<<<<<< HEAD
	<node lat="62.267463884601774" lon="5.4555694458508786" id="-1043">
		<tag k="fixme" v="consider seamark:type=rock or natural=shoal" />
		<tag k="name" v="Kattaskjeret" />
=======
	<node id="-60982" lat="62.2225305563" lon="5.4886583316">
		<tag k="alt_name" v="Rognholmen;Rennholmen" />
		<tag k="name" v="Rognholmane" />
>>>>>>> e1d4bc35ff8a6074a6f2e91616a996b547c36f15
		<tag k="place" v="islet" />
		<tag k="ssr:stedsnr" v="766097" />
	</node>
	<node lat="62.26682500317873" lon="5.421863892576991" id="-1044">
		<tag k="name" v="Djuvika" />
		<tag k="natural" v="bay" />
		<tag k="ssr:stedsnr" v="766219" />
	</node>
<<<<<<< HEAD
	<node lat="62.20783055793716" lon="5.349369447798897" id="-1045">
=======
	<node id="-60981" lat="62.2312500013" lon="5.38258332356">
>>>>>>> e1d4bc35ff8a6074a6f2e91616a996b547c36f15
		<tag k="fixme" v="consider seamark:type=rock or natural=shoal" />
		<tag k="name" v="Inste Rugskjeret" />
		<tag k="place" v="islet" />
		<tag k="ssr:stedsnr" v="766222" />
	</node>
	<node lat="62.23778611471506" lon="5.467116672407688" id="-1046">
		<tag k="name" v="Kuholmen" />
		<tag k="place" v="islet" />
		<tag k="ssr:stedsnr" v="766192" />
	</node>
<<<<<<< HEAD
	<node lat="62.21395278145604" lon="5.414322228414204" id="-1049">
=======
	<node id="-60979" lat="62.232344443" lon="5.32782778612">
>>>>>>> e1d4bc35ff8a6074a6f2e91616a996b547c36f15
		<tag k="fixme" v="consider seamark:type=rock or natural=shoal" />
		<tag k="name" v="Nibba" />
		<tag k="place" v="islet" />
		<tag k="ssr:stedsnr" v="766300" />
	</node>
<<<<<<< HEAD
	<node lat="62.229661107190346" lon="5.353811119167332" id="-1050">
		<tag k="name" v="Hellafludene" />
=======
	<node id="-60978" lat="62.3140833337" lon="5.27236389188">
		<tag k="name" v="Sørhammaren" />
>>>>>>> e1d4bc35ff8a6074a6f2e91616a996b547c36f15
		<tag k="natural" v="shoal" />
		<tag k="place" v="locality" />
		<tag k="ssr:stedsnr" v="780491" />
	</node>
<<<<<<< HEAD
	<node lat="62.20525833408667" lon="5.31455555319524" id="-1051">
		<tag k="name" v="Barskallen" />
		<tag k="natural" v="shoal" />
		<tag k="place" v="locality" />
		<tag k="ssr:stedsnr" v="780365" />
	</node>
	<node lat="62.226761114796425" lon="5.47794166392066" id="-1052">
		<tag k="alt_name" v="Marøyna" />
		<tag k="name" v="Marøya" />
		<tag k="place" v="island" />
		<tag k="ssr:stedsnr" v="799642" />
	</node>
	<node lat="62.268058332976636" lon="5.451825008905939" id="-1055">
		<tag k="alt_name" v="Tongane" />
		<tag k="name" v="Tangane" />
		<tag k="natural" v="cape" />
		<tag k="ssr:stedsnr" v="800511" />
	</node>
	<node lat="62.20885555374145" lon="5.467500002381235" id="-1057">
		<tag k="name" v="Kyrholmen" />
=======
	<node id="-60976" lat="62.264366664" lon="5.48146944777">
		<tag k="name" v="Kleiveneset" />
		<tag k="natural" v="cape" />
		<tag k="ssr:stedsnr" v="314548" />
	</node>
	<node id="-60975" lat="62.1776638851" lon="5.37092221726">
		<tag k="alt_name" v="Frekøy Vestre;Frekøy, vestre" />
		<tag k="name" v="Vestre Frekøy" />
		<tag k="place" v="islet" />
		<tag k="ssr:stedsnr" v="314543" />
	</node>
	<node id="-60964" lat="62.2143944469" lon="5.55254444529">
		<tag k="alt_name" v="Simaholmen" />
		<tag k="name" v="Simahamnholmen" />
>>>>>>> e1d4bc35ff8a6074a6f2e91616a996b547c36f15
		<tag k="place" v="islet" />
		<tag k="ssr:stedsnr" v="800592" />
	</node>
<<<<<<< HEAD
	<node lat="62.250519440139556" lon="5.409661112241853" id="-1060">
		<tag k="name" v="Kalvågane" />
		<tag k="natural" v="bay" />
		<tag k="ssr:stedsnr" v="921522" />
	</node>
	<node lat="62.268036111705754" lon="5.400052779648975" id="-1062">
=======
	<node id="-60961" lat="62.2074499994" lon="5.52383889398">
		<tag k="bay" v="fjord" />
		<tag k="name" v="Hallefjorden" />
		<tag k="natural" v="bay" />
		<tag k="ssr:stedsnr" v="193554" />
	</node>
	<node id="-60960" lat="62.1943583293" lon="5.35472222958">
		<tag k="name" v="Eggholmane" />
		<tag k="place" v="islet" />
		<tag k="ssr:stedsnr" v="193546" />
	</node>
	<node id="-60956" lat="62.2427472254" lon="5.40345833808">
>>>>>>> e1d4bc35ff8a6074a6f2e91616a996b547c36f15
		<tag k="fixme" v="consider seamark:type=rock or natural=shoal" />
		<tag k="name" v="Køyaskjeret" />
		<tag k="place" v="islet" />
		<tag k="ssr:stedsnr" v="921556" />
	</node>
<<<<<<< HEAD
	<node lat="62.195469448546" lon="5.371344447043389" id="-1064">
		<tag k="alt_name" v="Midfallskjera" />
=======
	<node id="-60955" lat="62.2231749999" lon="5.44483888203">
>>>>>>> e1d4bc35ff8a6074a6f2e91616a996b547c36f15
		<tag k="fixme" v="consider seamark:type=rock or natural=shoal" />
		<tag k="name" v="Mefallskjeret" />
		<tag k="place" v="islet" />
<<<<<<< HEAD
		<tag k="ssr:stedsnr" v="921567" />
	</node>
	<node lat="62.21795555964108" lon="5.646383337288051" id="-1065">
=======
		<tag k="ssr:stedsnr" v="192662" />
	</node>
	<node id="-60954" lat="62.3026805589" lon="5.43388334081">
		<tag k="name" v="Koparstadnabben" />
		<tag k="natural" v="shoal" />
		<tag k="place" v="locality" />
		<tag k="ssr:stedsnr" v="192592" />
	</node>
	<node id="-60953" lat="62.192283332" lon="5.56933611205">
>>>>>>> e1d4bc35ff8a6074a6f2e91616a996b547c36f15
		<tag k="fixme" v="consider seamark:type=rock or natural=shoal" />
		<tag k="name" v="Kobbeskjeret" />
		<tag k="place" v="islet" />
		<tag k="ssr:stedsnr" v="826079" />
	</node>
<<<<<<< HEAD
	<node lat="62.20406666799537" lon="5.758597218975648" id="-1069">
		<tag k="name" v="Laupskråa" />
		<tag k="natural" v="bay" />
		<tag k="ssr:stedsnr" v="827105" />
	</node>
	<node lat="62.2690055600524" lon="5.451605556568806" id="-1070">
		<tag k="name" v="Tongaholmane" />
		<tag k="place" v="islet" />
		<tag k="ssr:stedsnr" v="827108" />
	</node>
	<node lat="62.26721388538914" lon="5.462113892943045" id="-1071">
		<tag k="name" v="Holstødsvartebarden" />
		<tag k="place" v="islet" />
		<tag k="ssr:stedsnr" v="827109" />
	</node>
	<node lat="62.237102779998935" lon="5.458661109461703" id="-1072">
		<tag k="name" v="Vardholmen" />
		<tag k="place" v="islet" />
		<tag k="ssr:stedsnr" v="827175" />
	</node>
	<node lat="62.23170000317781" lon="5.368697219599722" id="-1074">
		<tag k="name" v="Høyvika" />
		<tag k="natural" v="bay" />
		<tag k="ssr:stedsnr" v="827313" />
	</node>
	<node lat="62.171627778708114" lon="5.398086120258019" id="-1077">
		<tag k="name" v="Søre-hamna" />
		<tag k="natural" v="bay" />
		<tag k="ssr:stedsnr" v="827063" />
	</node>
	<node lat="62.23694444026502" lon="5.483224992439548" id="-1079">
		<tag k="name" v="Voravika" />
		<tag k="natural" v="bay" />
		<tag k="ssr:stedsnr" v="827223" />
	</node>
	<node lat="62.285722223417174" lon="5.544422224639453" id="-1084">
		<tag k="name" v="Småvikane" />
		<tag k="natural" v="bay" />
		<tag k="ssr:stedsnr" v="827283" />
	</node>
	<node lat="62.232938885602486" lon="5.472080553840478" id="-1087">
		<tag k="name" v="Høna" />
=======
	<node id="-60951" lat="62.1871888848" lon="5.60831667403">
		<tag k="alt_name" v="Saudeneset" />
		<tag k="name" v="Storeneset" />
		<tag k="natural" v="cape" />
		<tag k="ssr:stedsnr" v="192543" />
	</node>
	<node id="-60949" lat="62.2559305543" lon="5.23707221825">
		<tag k="name" v="Kleivgrunnskallen" />
		<tag k="natural" v="shoal" />
		<tag k="place" v="locality" />
		<tag k="ssr:stedsnr" v="175583" />
	</node>
	<node id="-60948" lat="62.2016527808" lon="5.33308055674">
		<tag k="name" v="Nordre Ristefluda" />
		<tag k="natural" v="shoal" />
		<tag k="place" v="locality" />
		<tag k="ssr:stedsnr" v="174450" />
	</node>
	<node id="-60947" lat="62.2899055526" lon="5.47904722991">
		<tag k="name" v="Leirboden" />
>>>>>>> e1d4bc35ff8a6074a6f2e91616a996b547c36f15
		<tag k="natural" v="shoal" />
		<tag k="place" v="locality" />
		<tag k="ssr:stedsnr" v="840414" />
	</node>
<<<<<<< HEAD
	<node lat="62.222327778457604" lon="5.414769451421186" id="-1088">
		<tag k="name" v="Stabben" />
=======
	<node id="-60946" lat="62.207577779" lon="5.55951944378">
		<tag k="name" v="Osfluda" />
>>>>>>> e1d4bc35ff8a6074a6f2e91616a996b547c36f15
		<tag k="natural" v="shoal" />
		<tag k="place" v="locality" />
		<tag k="ssr:stedsnr" v="841416" />
	</node>
<<<<<<< HEAD
	<node lat="62.25952778069362" lon="5.281486110501468" id="-1089">
		<tag k="name" v="Kyrnosfludene" />
=======
	<node id="-60945" lat="62.2308499969" lon="5.58278610195">
		<tag k="name" v="Saltfluda" />
>>>>>>> e1d4bc35ff8a6074a6f2e91616a996b547c36f15
		<tag k="natural" v="shoal" />
		<tag k="place" v="locality" />
		<tag k="ssr:stedsnr" v="841501" />
	</node>
<<<<<<< HEAD
	<node lat="62.190530558905536" lon="5.362533335257345" id="-1090">
		<tag k="name" v="Råna" />
		<tag k="natural" v="shoal" />
		<tag k="place" v="locality" />
		<tag k="ssr:stedsnr" v="842404" />
	</node>
	<node lat="62.190041665261596" lon="5.285961111103538" id="-1093">
		<tag k="bay" v="fjord" />
		<tag k="name" v="Vanylvsgapet" />
=======
	<node id="-60943" lat="62.2249611154" lon="5.49089999816">
		<tag k="name" v="Rennholmboden" />
		<tag k="natural" v="shoal" />
		<tag k="place" v="locality" />
		<tag k="ssr:stedsnr" v="173384" />
	</node>
	<node id="-60942" lat="62.2104944443" lon="5.49308055324">
		<tag k="fixme" v="consider seamark:type=rock or natural=shoal" />
		<tag k="name" v="Skarveskjera" />
		<tag k="place" v="islet" />
		<tag k="ssr:stedsnr" v="173382" />
	</node>
	<node id="-60937" lat="62.2169527778" lon="5.47648610212">
		<tag k="name" v="Hesteneset" />
		<tag k="natural" v="cape" />
		<tag k="ssr:stedsnr" v="159134" />
	</node>
	<node id="-60931" lat="62.2612333289" lon="5.57010000151">
		<tag k="name" v="Skitnevika" />
>>>>>>> e1d4bc35ff8a6074a6f2e91616a996b547c36f15
		<tag k="natural" v="bay" />
		<tag k="ssr:stedsnr" v="860662" />
	</node>
<<<<<<< HEAD
	<node lat="62.229508337711316" lon="5.458825006496491" id="-1094">
		<tag k="fixme" v="consider seamark:type=rock or natural=shoal" />
		<tag k="name" v="Småhåskjera" />
		<tag k="place" v="islet" />
		<tag k="ssr:stedsnr" v="860674" />
	</node>
	<node lat="62.235174998933616" lon="5.341766658836515" id="-1100">
		<tag k="name" v="Kroktangen" />
=======
	<node id="-60929" lat="62.2471166659" lon="5.48967500275">
		<tag k="name" v="Toftesundholmen" />
		<tag k="place" v="islet" />
		<tag k="ssr:stedsnr" v="159239" />
	</node>
	<node id="-60928" lat="62.2682722211" lon="5.43305832869">
		<tag k="name" v="Kvia" />
		<tag k="natural" v="cape" />
		<tag k="ssr:stedsnr" v="159231" />
	</node>
	<node id="-60926" lat="62.2490527799" lon="5.48020832799">
		<tag k="name" v="Leinatangen" />
		<tag k="natural" v="cape" />
		<tag k="ssr:stedsnr" v="159190" />
	</node>
	<node id="-60925" lat="62.253599999" lon="5.48614445007">
		<tag k="name" v="Korsneset" />
>>>>>>> e1d4bc35ff8a6074a6f2e91616a996b547c36f15
		<tag k="natural" v="cape" />
		<tag k="ssr:stedsnr" v="887167" />
	</node>
<<<<<<< HEAD
	<node lat="62.205300000324634" lon="5.754744440137783" id="-1103">
		<tag k="name" v="Litle-laupnes" />
		<tag k="natural" v="cape" />
		<tag k="ssr:stedsnr" v="887207" />
	</node>
	<node lat="62.250422224885774" lon="5.529783338043638" id="-1108">
		<tag k="fixme" v="consider seamark:type=rock or natural=shoal" />
		<tag k="name" v="Ausa" />
		<tag k="place" v="islet" />
		<tag k="ssr:stedsnr" v="887202" />
	</node>
	<node lat="62.24221944084067" lon="5.432441665740648" id="-1111">
		<tag k="name" v="Sandsvika" />
		<tag k="natural" v="bay" />
		<tag k="ssr:stedsnr" v="920646" />
	</node>
	<node lat="62.254094441024684" lon="5.3575611162965835" id="-1113">
		<tag k="name" v="Nabbane" />
=======
	<node id="-60921" lat="62.2103027807" lon="5.34255833799">
		<tag k="alt_name" v="Basteneset" />
		<tag k="name" v="Basseneset" />
		<tag k="natural" v="cape" />
		<tag k="ssr:stedsnr" v="132583" />
	</node>
	<node id="-60918" lat="62.2243694439" lon="5.37068055086">
		<tag k="name" v="Kuholmen" />
		<tag k="place" v="islet" />
		<tag k="ssr:stedsnr" v="132619" />
	</node>
	<node id="-60917" lat="62.2355305574" lon="5.49313611285">
		<tag k="name" v="Voraholmen" />
		<tag k="place" v="islet" />
		<tag k="ssr:stedsnr" v="132617" />
	</node>
	<node id="-60916" lat="62.263791669" lon="5.41305554897">
		<tag k="name" v="Hamna" />
		<tag k="natural" v="cape" />
		<tag k="ssr:stedsnr" v="132500" />
	</node>
	<node id="-60914" lat="62.1735499983" lon="5.38198889119">
		<tag k="name" v="Storesundet" />
		<tag k="natural" v="strait" />
		<tag k="ssr:stedsnr" v="132496" />
	</node>
	<node id="-60908" lat="62.2443555516" lon="5.33613611835">
		<tag k="name" v="Voksafluda" />
>>>>>>> e1d4bc35ff8a6074a6f2e91616a996b547c36f15
		<tag k="natural" v="shoal" />
		<tag k="place" v="locality" />
		<tag k="ssr:stedsnr" v="921535" />
	</node>
<<<<<<< HEAD
	<node lat="62.257516670729345" lon="5.391808333009306" id="-1114">
		<tag k="alt_name" v="Steintangen" />
		<tag k="name" v="Steinstangen" />
		<tag k="natural" v="cape" />
		<tag k="ssr:stedsnr" v="921539" />
	</node>
	<node lat="62.221888891849204" lon="5.350433337306071" id="-1116">
		<tag k="name" v="Djupsundholmen" />
		<tag k="place" v="islet" />
		<tag k="ssr:stedsnr" v="921633" />
	</node>
	<node lat="62.17882499847393" lon="5.402605550504779" id="-1119">
		<tag k="name" v="Terneskjerfluda" />
=======
	<node id="-60907" lat="62.2619361102" lon="5.35085000187">
		<tag k="name" v="Novene" />
		<tag k="natural" v="shoal" />
		<tag k="place" v="locality" />
		<tag k="ssr:stedsnr" v="113571" />
	</node>
	<node id="-60906" lat="62.2728944411" lon="5.38775000191">
		<tag k="name" v="Vågebodgrunnen" />
>>>>>>> e1d4bc35ff8a6074a6f2e91616a996b547c36f15
		<tag k="natural" v="shoal" />
		<tag k="place" v="locality" />
		<tag k="ssr:stedsnr" v="931310" />
	</node>
<<<<<<< HEAD
	<node lat="62.22962499979465" lon="5.532413886177967" id="-1122">
		<tag k="name" v="Hesthammarvika" />
		<tag k="natural" v="bay" />
		<tag k="ssr:stedsnr" v="947042" />
	</node>
	<node lat="62.22666111182913" lon="5.530491667356471" id="-1123">
		<tag k="name" v="Sjøbudneset" />
		<tag k="natural" v="cape" />
		<tag k="ssr:stedsnr" v="947048" />
	</node>
	<node lat="62.21968888892235" lon="5.396575005591801" id="-1129">
		<tag k="name" v="Klungreneset" />
		<tag k="natural" v="cape" />
		<tag k="ssr:stedsnr" v="948130" />
	</node>
	<node lat="62.26831388611456" lon="5.44483610831153" id="-1130">
=======
	<node id="-60903" lat="62.261666666" lon="5.52658888721">
		<tag k="fixme" v="consider seamark:type=rock or natural=shoal" />
		<tag k="name" v="Rya" />
		<tag k="place" v="islet" />
		<tag k="ssr:stedsnr" v="112592" />
	</node>
	<node id="-60888" lat="62.223191665" lon="5.38404166615">
		<tag k="name" v="Klauvaholmen" />
		<tag k="place" v="islet" />
		<tag k="ssr:stedsnr" v="98142" />
	</node>
	<node id="-60882" lat="62.1865777781" lon="5.39287778105">
>>>>>>> e1d4bc35ff8a6074a6f2e91616a996b547c36f15
		<tag k="fixme" v="consider seamark:type=rock or natural=shoal" />
		<tag k="name" v="Leidaskjeret" />
		<tag k="old_name" v="Ledskjeret" />
		<tag k="place" v="islet" />
		<tag k="ssr:stedsnr" v="948136" />
	</node>
<<<<<<< HEAD
	<node lat="62.26829722255435" lon="5.429944451521778" id="-1131">
		<tag k="name" v="Timbrevikane" />
		<tag k="natural" v="bay" />
		<tag k="ssr:stedsnr" v="948137" />
	</node>
	<node lat="62.22385833312409" lon="5.586799999941345" id="-1133">
		<tag k="name" v="Køyla" />
		<tag k="natural" v="bay" />
		<tag k="ssr:stedsnr" v="948021" />
	</node>
	<node lat="62.26477500431932" lon="5.414725007321645" id="-1137">
		<tag k="name" v="Hellandsvågen" />
		<tag k="natural" v="bay" />
		<tag k="ssr:stedsnr" v="948078" />
	</node>
	<node lat="62.25216944893394" lon="5.472983342401881" id="-1139">
		<tag k="name" v="Evja" />
=======
	<node id="-60872" lat="62.2238388927" lon="5.31642500424">
		<tag k="name" v="Steinfluda" />
		<tag k="natural" v="shoal" />
		<tag k="place" v="locality" />
		<tag k="ssr:stedsnr" v="71669" />
	</node>
	<node id="-60871" lat="62.2245277802" lon="5.37770833202">
		<tag k="name" v="Sandholmen" />
		<tag k="place" v="islet" />
		<tag k="ssr:stedsnr" v="71664" />
	</node>
	<node id="-60870" lat="62.2361916673" lon="5.46013889574">
		<tag k="name" v="Bjørnholmen" />
		<tag k="place" v="islet" />
		<tag k="ssr:stedsnr" v="71661" />
	</node>
	<node id="-60869" lat="62.2312666664" lon="5.36056666391">
		<tag k="name" v="Rekvika" />
>>>>>>> e1d4bc35ff8a6074a6f2e91616a996b547c36f15
		<tag k="natural" v="bay" />
		<tag k="ssr:stedsnr" v="948207" />
	</node>
<<<<<<< HEAD
	<node lat="62.25090000336185" lon="5.41008333428929" id="-1142">
		<tag k="name" v="Drogane" />
		<tag k="natural" v="beach" />
		<tag k="ssr:stedsnr" v="948216" />
	</node>
	<node lat="62.211866666042546" lon="5.555894445108692" id="-1144">
		<tag k="name" v="Okselæjet" />
		<tag k="natural" v="bay" />
		<tag k="ssr:stedsnr" v="948230" />
	</node>
	<node lat="62.21237500161963" lon="5.3375111179790045" id="-1146">
		<tag k="alt_name" v="Gambaskjeret" />
		<tag k="fixme" v="consider seamark:type=rock or natural=shoal" />
		<tag k="name" v="Gavanskjeret" />
		<tag k="place" v="islet" />
		<tag k="ssr:stedsnr" v="948181" />
	</node>
	<node lat="62.247477777321855" lon="5.402819442483041" id="-1147">
		<tag k="name" v="Sandsendboden" />
=======
	<node id="-60868" lat="62.2353333349" lon="5.35352777713">
		<tag k="alt_name" v="Ristøy" />
		<tag k="name" v="Riste" />
		<tag k="place" v="island" />
		<tag k="ssr:stedsnr" v="71644" />
	</node>
	<node id="-60866" lat="62.286155556" lon="5.51102777184">
		<tag k="alt_name" v="Hidsbåen" />
		<tag k="name" v="Hidsboden" />
		<tag k="natural" v="shoal" />
		<tag k="place" v="locality" />
		<tag k="ssr:stedsnr" v="71586" />
	</node>
	<node id="-60864" lat="62.2261250022" lon="5.36009165768">
		<tag k="name" v="Otringsboden" />
		<tag k="natural" v="shoal" />
		<tag k="place" v="locality" />
		<tag k="ssr:stedsnr" v="52499" />
	</node>
	<node id="-60863" lat="62.1760305535" lon="5.36506389419">
		<tag k="name" v="Frekøyfluda" />
>>>>>>> e1d4bc35ff8a6074a6f2e91616a996b547c36f15
		<tag k="natural" v="shoal" />
		<tag k="place" v="locality" />
		<tag k="ssr:stedsnr" v="961443" />
	</node>
<<<<<<< HEAD
	<node lat="62.24127221807883" lon="5.467597230469332" id="-1148">
		<tag k="name" v="Sanden" />
		<tag k="natural" v="bay" />
		<tag k="ssr:stedsnr" v="961445" />
	</node>
	<node lat="62.21141388655872" lon="5.4211833337923165" id="-1149">
		<tag k="name" v="Duskjernesboden" />
=======
	<node id="-60862" lat="62.2222555522" lon="5.39388889455">
		<tag k="name" v="Rya" />
		<tag k="natural" v="shoal" />
		<tag k="place" v="locality" />
		<tag k="ssr:stedsnr" v="52375" />
	</node>
	<node id="-60861" lat="62.1984916625" lon="5.33763889092">
		<tag k="name" v="Søre Ristefluda" />
>>>>>>> e1d4bc35ff8a6074a6f2e91616a996b547c36f15
		<tag k="natural" v="shoal" />
		<tag k="place" v="locality" />
		<tag k="ssr:stedsnr" v="962396" />
	</node>
<<<<<<< HEAD
	<node lat="62.21821666331826" lon="5.410041659142831" id="-1150">
		<tag k="name" v="Løefluda" />
=======
	<node id="-60859" lat="62.3500000038" lon="5.03333333981">
		<tag k="name" v="Nylandsbotnen" />
>>>>>>> e1d4bc35ff8a6074a6f2e91616a996b547c36f15
		<tag k="natural" v="shoal" />
		<tag k="place" v="locality" />
		<tag k="ssr:stedsnr" v="962400" />
	</node>
<<<<<<< HEAD
	<node lat="62.23632500327935" lon="5.380780558164676" id="-1155">
		<tag k="name" v="Tareboden" />
		<tag k="natural" v="shoal" />
		<tag k="place" v="locality" />
		<tag k="ssr:stedsnr" v="10662" />
	</node>
	<node lat="62.24313888960436" lon="5.400541665815802" id="-1156">
		<tag k="alt_name" v="Revskjeret" />
=======
	<node id="-60858" lat="62.2331555512" lon="5.57636388112">
		<tag k="name" v="Stabben" />
		<tag k="natural" v="shoal" />
		<tag k="place" v="locality" />
		<tag k="ssr:stedsnr" v="39946" />
	</node>
	<node id="-60857" lat="62.2390388917" lon="5.35001944531">
		<tag k="name" v="Midneset" />
		<tag k="natural" v="cape" />
		<tag k="ssr:stedsnr" v="38327" />
	</node>
	<node id="-60856" lat="62.2606777782" lon="5.5274277707">
>>>>>>> e1d4bc35ff8a6074a6f2e91616a996b547c36f15
		<tag k="fixme" v="consider seamark:type=rock or natural=shoal" />
		<tag k="name" v="Rivskjeret" />
		<tag k="place" v="islet" />
<<<<<<< HEAD
		<tag k="ssr:stedsnr" v="10663" />
	</node>
	<node lat="62.21763888639079" lon="5.4895749912424945" id="-1161">
		<tag k="alt_name" v="Hesteholmen" />
		<tag k="name" v="Hestholmen" />
=======
		<tag k="ssr:stedsnr" v="38241" />
	</node>
	<node id="-60854" lat="62.2251694469" lon="5.57386389709">
		<tag k="name" v="Båtvika" />
		<tag k="natural" v="bay" />
		<tag k="ssr:stedsnr" v="38237" />
	</node>
	<node id="-60852" lat="62.2301805546" lon="5.45920000195">
		<tag k="fixme" v="consider seamark:type=rock or natural=shoal" />
		<tag k="name" v="Synste Håskjeret" />
>>>>>>> e1d4bc35ff8a6074a6f2e91616a996b547c36f15
		<tag k="place" v="islet" />
		<tag k="ssr:stedsnr" v="11569" />
	</node>
<<<<<<< HEAD
	<node lat="62.283122222618" lon="5.372302781481421" id="-1162">
		<tag k="name" v="Flåværleia" />
		<tag k="place" v="sea" />
		<tag k="ssr:stedsnr" v="11572" />
	</node>
	<node lat="62.222174999811635" lon="5.389197216505317" id="-1163">
		<tag k="name" v="Instegardneset" />
		<tag k="natural" v="cape" />
		<tag k="ssr:stedsnr" v="11624" />
	</node>
	<node lat="62.26628332977887" lon="5.455138887126932" id="-1164">
		<tag k="alt_name" v="Vågsdriv-vika" />
		<tag k="name" v="Holstøa" />
		<tag k="natural" v="cape" />
		<tag k="ssr:stedsnr" v="11523" />
	</node>
	<node lat="62.22906944061036" lon="5.530686106168158" id="-1165">
		<tag k="name" v="Hesthammarneset" />
		<tag k="natural" v="cape" />
		<tag k="ssr:stedsnr" v="11620" />
	</node>
	<node lat="62.248844447429015" lon="5.531369449946773" id="-1168">
		<tag k="name" v="Vardevollvika" />
=======
	<node id="-60851" lat="62.2233722246" lon="5.46146389173">
		<tag k="name" v="Sigholmane" />
		<tag k="place" v="islet" />
		<tag k="ssr:stedsnr" v="38130" />
	</node>
	<node id="-60850" lat="62.2678444449" lon="5.4143916594">
		<tag k="name" v="Knøsteskjeret" />
		<tag k="place" v="islet" />
		<tag k="ssr:stedsnr" v="38117" />
	</node>
	<node id="-60849" lat="62.2666194439" lon="5.43973888267">
		<tag k="name" v="Gjøttane" />
		<tag k="natural" v="beach" />
		<tag k="place" v="locality" />
		<tag k="ssr:stedsnr" v="38113" />
	</node>
	<node id="-60847" lat="62.1918166705" lon="5.6364999921">
		<tag k="name" v="Årvika" />
>>>>>>> e1d4bc35ff8a6074a6f2e91616a996b547c36f15
		<tag k="natural" v="bay" />
		<tag k="ssr:stedsnr" v="36041" />
	</node>
<<<<<<< HEAD
	<node lat="62.21542778198594" lon="5.409530550627346" id="-1171">
		<tag k="name" v="Hamna" />
		<tag k="natural" v="bay" />
		<tag k="ssr:stedsnr" v="37284" />
	</node>
	<node lat="62.21926388679567" lon="5.403738884856584" id="-1172">
		<tag k="fixme" v="consider seamark:type=rock or natural=shoal" />
		<tag k="name" v="Bollane" />
=======
	<node id="-60844" lat="62.2498638923" lon="5.46922500778">
		<tag k="name" v="Storholmen" />
>>>>>>> e1d4bc35ff8a6074a6f2e91616a996b547c36f15
		<tag k="place" v="islet" />
		<tag k="ssr:stedsnr" v="37287" />
	</node>
<<<<<<< HEAD
	<node lat="62.23999722031294" lon="5.444594441506671" id="-1180">
=======
	<node id="-60843" lat="62.2399972203" lon="5.44459444151">
>>>>>>> e1d4bc35ff8a6074a6f2e91616a996b547c36f15
		<tag k="name" v="Kyrkjesanden" />
		<tag k="natural" v="beach" />
		<tag k="ssr:stedsnr" v="38179" />
	</node>
<<<<<<< HEAD
	<node lat="62.249863892276665" lon="5.46922500778114" id="-1181">
		<tag k="name" v="Storholmen" />
=======
	<node id="-60835" lat="62.2192638868" lon="5.40373888486">
		<tag k="fixme" v="consider seamark:type=rock or natural=shoal" />
		<tag k="name" v="Bollane" />
>>>>>>> e1d4bc35ff8a6074a6f2e91616a996b547c36f15
		<tag k="place" v="islet" />
		<tag k="ssr:stedsnr" v="38181" />
	</node>
<<<<<<< HEAD
	<node lat="62.27438888689389" lon="5.547124998864153" id="-1183">
		<tag k="name" v="Gardsbodfjøra" />
		<tag k="natural" v="beach" />
		<tag k="ssr:stedsnr" v="38262" />
	</node>
	<node lat="62.19229166525335" lon="5.588722216089468" id="-1184">
		<tag k="alt_name" v="Juvika" />
		<tag k="name" v="Djuvika" />
=======
	<node id="-60834" lat="62.215427782" lon="5.40953055063">
		<tag k="name" v="Hamna" />
		<tag k="natural" v="bay" />
		<tag k="ssr:stedsnr" v="37284" />
	</node>
	<node id="-60830" lat="62.2488444474" lon="5.53136944995">
		<tag k="name" v="Vardevollvika" />
>>>>>>> e1d4bc35ff8a6074a6f2e91616a996b547c36f15
		<tag k="natural" v="bay" />
		<tag k="ssr:stedsnr" v="38272" />
	</node>
<<<<<<< HEAD
	<node lat="62.24870555472005" lon="5.4096027707429375" id="-1186">
		<tag k="name" v="Trødaneset" />
		<tag k="natural" v="cape" />
		<tag k="ssr:stedsnr" v="38056" />
	</node>
	<node lat="62.22337222462484" lon="5.461463891727845" id="-1187">
		<tag k="name" v="Sigholmane" />
		<tag k="place" v="islet" />
		<tag k="ssr:stedsnr" v="38130" />
	</node>
	<node lat="62.23018055463816" lon="5.4592000019539775" id="-1188">
		<tag k="fixme" v="consider seamark:type=rock or natural=shoal" />
		<tag k="name" v="Synste Håskjeret" />
		<tag k="place" v="islet" />
		<tag k="ssr:stedsnr" v="38131" />
	</node>
	<node lat="62.19955277563239" lon="5.388655563157888" id="-1189">
		<tag k="name" v="Myrneset" />
		<tag k="natural" v="cape" />
		<tag k="ssr:stedsnr" v="38226" />
	</node>
	<node lat="62.22516944692889" lon="5.573863897093341" id="-1191">
		<tag k="name" v="Båtvika" />
=======
	<node id="-60828" lat="62.2690916632" lon="5.55045277538">
		<tag k="name" v="Holekøyla" />
		<tag k="natural" v="bay" />
		<tag k="ssr:stedsnr" v="36037" />
	</node>
	<node id="-60827" lat="62.2789361109" lon="5.55052222025">
		<tag k="name" v="Tarestålet" />
		<tag k="place" v="locality" />
		<tag k="ssr:stedsnr" v="36035" />
	</node>
	<node id="-60824" lat="62.2221749998" lon="5.38919721651">
		<tag k="name" v="Instegardneset" />
		<tag k="natural" v="cape" />
		<tag k="ssr:stedsnr" v="11624" />
	</node>
	<node id="-60823" lat="62.2046027803" lon="5.47094165938">
		<tag k="name" v="Åramsundet" />
		<tag k="natural" v="strait" />
		<tag k="ssr:stedsnr" v="11591" />
	</node>
	<node id="-60820" lat="62.2831222226" lon="5.37230278148">
		<tag k="bay" v="fjord" />
		<tag k="name" v="Flåværleia" />
>>>>>>> e1d4bc35ff8a6074a6f2e91616a996b547c36f15
		<tag k="natural" v="bay" />
		<tag k="ssr:stedsnr" v="38237" />
	</node>
<<<<<<< HEAD
	<node lat="62.26067777815168" lon="5.527427770695575" id="-1193">
		<tag k="fixme" v="consider seamark:type=rock or natural=shoal" />
		<tag k="name" v="Lurva" />
=======
	<node id="-60819" lat="62.2176388864" lon="5.48957499124">
		<tag k="alt_name" v="Hesteholmen" />
		<tag k="name" v="Hestholmen" />
>>>>>>> e1d4bc35ff8a6074a6f2e91616a996b547c36f15
		<tag k="place" v="islet" />
		<tag k="ssr:stedsnr" v="38241" />
	</node>
<<<<<<< HEAD
	<node lat="62.24588611427917" lon="5.48744999016882" id="-1194">
		<tag k="name" v="Toftesund" />
		<tag k="place" v="islet" />
		<tag k="ssr:stedsnr" v="38252" />
	</node>
	<node lat="62.23903889171322" lon="5.3500194453080665" id="-1196">
		<tag k="name" v="Midneset" />
=======
	<node id="-60815" lat="62.2728388889" lon="5.54766944402">
		<tag k="name" v="Goteneset" />
>>>>>>> e1d4bc35ff8a6074a6f2e91616a996b547c36f15
		<tag k="natural" v="cape" />
		<tag k="ssr:stedsnr" v="38327" />
	</node>
<<<<<<< HEAD
	<node lat="62.19181667049767" lon="5.6364999920960805" id="-1197">
		<tag k="name" v="Årvika" />
		<tag k="natural" v="bay" />
		<tag k="ssr:stedsnr" v="38290" />
	</node>
	<node lat="62.23315555118063" lon="5.5763638811152445" id="-1198">
		<tag k="name" v="Stabben" />
=======
	<node id="-60814" lat="62.2431388896" lon="5.40054166582">
		<tag k="alt_name" v="Revskjeret" />
		<tag k="fixme" v="consider seamark:type=rock or natural=shoal" />
		<tag k="name" v="Rivskjeret" />
		<tag k="place" v="islet" />
		<tag k="ssr:stedsnr" v="10663" />
	</node>
	<node id="-60813" lat="62.2363250033" lon="5.38078055816">
		<tag k="name" v="Tareboden" />
>>>>>>> e1d4bc35ff8a6074a6f2e91616a996b547c36f15
		<tag k="natural" v="shoal" />
		<tag k="place" v="locality" />
		<tag k="ssr:stedsnr" v="39946" />
	</node>
<<<<<<< HEAD
	<node lat="62.35000000375205" lon="5.033333339810417" id="-1199">
		<tag k="name" v="Nylandsbotnen" />
		<tag k="natural" v="shoal" />
		<tag k="place" v="locality" />
		<tag k="ssr:stedsnr" v="42634" />
	</node>
	<node lat="62.17603055350429" lon="5.365063894185998" id="-1200">
		<tag k="name" v="Frekøyfluda" />
		<tag k="natural" v="shoal" />
		<tag k="place" v="locality" />
		<tag k="ssr:stedsnr" v="52378" />
	</node>
	<node lat="62.22612500217315" lon="5.360091657682508" id="-1201">
		<tag k="name" v="Otringsboden" />
		<tag k="natural" v="shoal" />
=======
	<node id="-60806" lat="62.2509000034" lon="5.41008333429">
		<tag k="name" v="Drogane" />
		<tag k="natural" v="beach" />
		<tag k="place" v="locality" />
		<tag k="ssr:stedsnr" v="948216" />
	</node>
	<node id="-60803" lat="62.2521694489" lon="5.4729833424">
		<tag k="name" v="Evja" />
		<tag k="natural" v="bay" />
		<tag k="ssr:stedsnr" v="948207" />
	</node>
	<node id="-60801" lat="62.2151749987" lon="5.47526667559">
		<tag k="name" v="Hesteneset" />
		<tag k="natural" v="cape" />
		<tag k="ssr:stedsnr" v="948322" />
	</node>
	<node id="-60800" lat="62.203022225" lon="5.42078054747">
		<tag k="name" v="Granden" />
		<tag k="natural" v="beach" />
>>>>>>> e1d4bc35ff8a6074a6f2e91616a996b547c36f15
		<tag k="place" v="locality" />
		<tag k="ssr:stedsnr" v="52499" />
	</node>
<<<<<<< HEAD
	<node lat="62.2353333348867" lon="5.353527777131008" id="-1203">
		<tag k="alt_name" v="Ristøy" />
		<tag k="name" v="Riste" />
		<tag k="place" v="island" />
		<tag k="ssr:stedsnr" v="71644" />
	</node>
	<node lat="62.231266666430926" lon="5.360566663905788" id="-1204">
		<tag k="name" v="Rekvika" />
		<tag k="natural" v="bay" />
		<tag k="ssr:stedsnr" v="71645" />
	</node>
	<node lat="62.236191667255994" lon="5.460138895742162" id="-1205">
		<tag k="name" v="Bjørnholmen" />
=======
	<node id="-60797" lat="62.2396944467" lon="5.41178332857">
		<tag k="fixme" v="consider seamark:type=rock or natural=shoal" />
		<tag k="name" v="Småskjera" />
>>>>>>> e1d4bc35ff8a6074a6f2e91616a996b547c36f15
		<tag k="place" v="islet" />
		<tag k="ssr:stedsnr" v="71661" />
	</node>
<<<<<<< HEAD
	<node lat="62.22452778018075" lon="5.3777083320181465" id="-1206">
		<tag k="name" v="Sandholmen" />
=======
	<node id="-60793" lat="62.2231027778" lon="5.44524167208">
		<tag k="fixme" v="consider seamark:type=rock or natural=shoal" />
		<tag k="name" v="Flødeskjeret" />
>>>>>>> e1d4bc35ff8a6074a6f2e91616a996b547c36f15
		<tag k="place" v="islet" />
		<tag k="ssr:stedsnr" v="71664" />
	</node>
<<<<<<< HEAD
	<node lat="62.22319166503947" lon="5.384041666149275" id="-1214">
		<tag k="name" v="Klauvaholmen" />
		<tag k="place" v="islet" />
		<tag k="ssr:stedsnr" v="98142" />
	</node>
	<node lat="62.21728889289846" lon="5.3462666632151565" id="-1216">
		<tag k="name" v="Sørevågen" />
		<tag k="natural" v="bay" />
		<tag k="ssr:stedsnr" v="98153" />
	</node>
	<node lat="62.236630554876506" lon="5.46116387942018" id="-1218">
		<tag k="name" v="Støylehamna" />
		<tag k="natural" v="bay" />
		<tag k="ssr:stedsnr" v="98157" />
	</node>
	<node lat="62.23506944419671" lon="5.413966663476645" id="-1233">
		<tag k="name" v="Djupefluda" />
=======
	<node id="-60790" lat="62.1907333369" lon="5.63471389021">
		<tag k="name" v="Lånaneset" />
		<tag k="natural" v="cape" />
		<tag k="ssr:stedsnr" v="947068" />
	</node>
	<node id="-60788" lat="62.1788249985" lon="5.4026055505">
		<tag k="name" v="Terneskjerfluda" />
>>>>>>> e1d4bc35ff8a6074a6f2e91616a996b547c36f15
		<tag k="natural" v="shoal" />
		<tag k="place" v="locality" />
		<tag k="ssr:stedsnr" v="112444" />
	</node>
<<<<<<< HEAD
	<node lat="62.26166666603492" lon="5.5265888872118785" id="-1234">
=======
	<node id="-60787" lat="62.1954694485" lon="5.37134444704">
		<tag k="alt_name" v="Midfallskjera" />
>>>>>>> e1d4bc35ff8a6074a6f2e91616a996b547c36f15
		<tag k="fixme" v="consider seamark:type=rock or natural=shoal" />
		<tag k="name" v="Rya" />
		<tag k="place" v="islet" />
		<tag k="ssr:stedsnr" v="112592" />
	</node>
<<<<<<< HEAD
	<node lat="62.24435555164838" lon="5.336136118347152" id="-1237">
		<tag k="name" v="Voksafluda" />
		<tag k="natural" v="shoal" />
		<tag k="place" v="locality" />
		<tag k="ssr:stedsnr" v="113491" />
	</node>
	<node lat="62.27289444110384" lon="5.387750001913758" id="-1238">
		<tag k="name" v="Vågebodgrunnen" />
		<tag k="natural" v="shoal" />
		<tag k="place" v="locality" />
		<tag k="ssr:stedsnr" v="113566" />
	</node>
	<node lat="62.173549998325484" lon="5.381988891185304" id="-1241">
		<tag k="name" v="Storesundet" />
		<tag k="natural" v="strait" />
		<tag k="ssr:stedsnr" v="132496" />
	</node>
	<node lat="62.26379166899091" lon="5.413055548969018" id="-1243">
		<tag k="name" v="Hamna" />
=======
	<node id="-60784" lat="62.2680361117" lon="5.40005277965">
		<tag k="fixme" v="consider seamark:type=rock or natural=shoal" />
		<tag k="name" v="Køyaskjeret" />
		<tag k="place" v="islet" />
		<tag k="ssr:stedsnr" v="921556" />
	</node>
	<node id="-60783" lat="62.2218888918" lon="5.35043333731">
		<tag k="name" v="Djupsundholmen" />
		<tag k="place" v="islet" />
		<tag k="ssr:stedsnr" v="921633" />
	</node>
	<node id="-60777" lat="62.2351749989" lon="5.34176665884">
		<tag k="name" v="Kroktangen" />
>>>>>>> e1d4bc35ff8a6074a6f2e91616a996b547c36f15
		<tag k="natural" v="cape" />
		<tag k="ssr:stedsnr" v="132500" />
	</node>
<<<<<<< HEAD
	<node lat="62.21030278068449" lon="5.342558337985507" id="-1248">
		<tag k="alt_name" v="Basteneset" />
		<tag k="name" v="Basseneset" />
		<tag k="natural" v="cape" />
		<tag k="ssr:stedsnr" v="132583" />
	</node>
	<node lat="62.212988887837994" lon="5.552780555408261" id="-1251">
=======
	<node id="-60772" lat="62.2123750016" lon="5.33751111798">
		<tag k="alt_name" v="Gambaskjeret" />
		<tag k="fixme" v="consider seamark:type=rock or natural=shoal" />
		<tag k="name" v="Gavanskjeret" />
		<tag k="place" v="islet" />
		<tag k="ssr:stedsnr" v="948181" />
	</node>
	<node id="-60771" lat="62.2136944405" lon="5.54933333177">
		<tag k="alt_name" v="Simonskjeret" />
>>>>>>> e1d4bc35ff8a6074a6f2e91616a996b547c36f15
		<tag k="fixme" v="consider seamark:type=rock or natural=shoal" />
		<tag k="name" v="Okslene" />
		<tag k="place" v="islet" />
		<tag k="ssr:stedsnr" v="132520" />
	</node>
<<<<<<< HEAD
	<node lat="62.1936305584264" lon="5.406961111307545" id="-1253">
		<tag k="name" v="Simonnes" />
		<tag k="natural" v="cape" />
		<tag k="ssr:stedsnr" v="132531" />
	</node>
	<node lat="62.21695277781031" lon="5.476486102121386" id="-1260">
		<tag k="name" v="Hesteneset" />
		<tag k="natural" v="cape" />
		<tag k="ssr:stedsnr" v="159134" />
	</node>
	<node lat="62.177905503406" lon="5.372841728117479" id="-1261">
		<tag k="name" v="Frekøya" />
		<tag k="place" v="islet" />
		<tag k="ssr:stedsnr" v="159217" />
	</node>
	<node lat="62.202977777929185" lon="5.571575007248584" id="-1263">
		<tag k="alt_name" v="Kipeholmen" />
		<tag k="name" v="Holmen" />
		<tag k="place" v="islet" />
		<tag k="ssr:stedsnr" v="159222" />
	</node>
	<node lat="62.268272221077765" lon="5.43305832868751" id="-1264">
		<tag k="name" v="Kvia" />
		<tag k="natural" v="cape" />
		<tag k="ssr:stedsnr" v="159231" />
	</node>
	<node lat="62.25359999902952" lon="5.486144450066049" id="-1265">
		<tag k="name" v="Korsneset" />
		<tag k="natural" v="cape" />
		<tag k="ssr:stedsnr" v="159185" />
	</node>
	<node lat="62.24905277991017" lon="5.48020832799012" id="-1266">
		<tag k="name" v="Leinatangen" />
=======
	<node id="-60769" lat="62.211866666" lon="5.55589444511">
		<tag k="name" v="Okselæjet" />
		<tag k="natural" v="bay" />
		<tag k="ssr:stedsnr" v="948230" />
	</node>
	<node id="-60768" lat="62.2682972226" lon="5.42994445152">
		<tag k="name" v="Timbrevikane" />
		<tag k="natural" v="bay" />
		<tag k="ssr:stedsnr" v="948137" />
	</node>
	<node id="-60767" lat="62.2683138861" lon="5.44483610831">
		<tag k="fixme" v="consider seamark:type=rock or natural=shoal" />
		<tag k="name" v="Leidaskjeret" />
		<tag k="old_name" v="Ledskjeret" />
		<tag k="place" v="islet" />
		<tag k="ssr:stedsnr" v="948136" />
	</node>
	<node id="-60766" lat="62.2196888889" lon="5.39657500559">
		<tag k="name" v="Klungreneset" />
		<tag k="natural" v="cape" />
		<tag k="ssr:stedsnr" v="948130" />
	</node>
	<node id="-60760" lat="62.2238583331" lon="5.58679999994">
		<tag k="name" v="Køyla" />
		<tag k="natural" v="bay" />
		<tag k="ssr:stedsnr" v="948021" />
	</node>
	<node id="-60758" lat="62.2647750043" lon="5.41472500732">
		<tag k="name" v="Hellandsvågen" />
		<tag k="natural" v="bay" />
		<tag k="ssr:stedsnr" v="948078" />
	</node>
	<node id="-60757" lat="62.2527000032" lon="5.40581388665">
		<tag k="name" v="Flatmagevika" />
		<tag k="natural" v="bay" />
		<tag k="ssr:stedsnr" v="948074" />
	</node>
	<node id="-60755" lat="62.2266611118" lon="5.53049166736">
		<tag k="name" v="Sjøbudneset" />
>>>>>>> e1d4bc35ff8a6074a6f2e91616a996b547c36f15
		<tag k="natural" v="cape" />
		<tag k="ssr:stedsnr" v="159190" />
	</node>
<<<<<<< HEAD
	<node lat="62.2471166658941" lon="5.489675002749103" id="-1267">
		<tag k="name" v="Toftesundholmen" />
		<tag k="place" v="islet" />
		<tag k="ssr:stedsnr" v="159239" />
	</node>
	<node lat="62.21049444434501" lon="5.493080553243921" id="-1272">
=======
	<node id="-60754" lat="62.2296249998" lon="5.53241388618">
		<tag k="name" v="Hesthammarvika" />
		<tag k="natural" v="bay" />
		<tag k="ssr:stedsnr" v="947042" />
	</node>
	<node id="-60751" lat="62.2295083377" lon="5.4588250065">
>>>>>>> e1d4bc35ff8a6074a6f2e91616a996b547c36f15
		<tag k="fixme" v="consider seamark:type=rock or natural=shoal" />
		<tag k="name" v="Skarveskjera" />
		<tag k="place" v="islet" />
		<tag k="ssr:stedsnr" v="173382" />
	</node>
<<<<<<< HEAD
	<node lat="62.22496111535182" lon="5.490899998161408" id="-1273">
		<tag k="name" v="Rennholmboden" />
		<tag k="natural" v="shoal" />
		<tag k="place" v="locality" />
		<tag k="ssr:stedsnr" v="173384" />
	</node>
	<node lat="62.23084999692684" lon="5.582786101946527" id="-1275">
		<tag k="name" v="Saltfluda" />
=======
	<node id="-60750" lat="62.1900416653" lon="5.2859611111">
		<tag k="bay" v="fjord" />
		<tag k="name" v="Vanylvsgapet" />
		<tag k="natural" v="bay" />
		<tag k="ssr:stedsnr" v="860662" />
	</node>
	<node id="-60747" lat="62.2023555574" lon="5.35639444481">
		<tag k="name" v="Kvamsboden" />
>>>>>>> e1d4bc35ff8a6074a6f2e91616a996b547c36f15
		<tag k="natural" v="shoal" />
		<tag k="place" v="locality" />
		<tag k="ssr:stedsnr" v="173542" />
	</node>
<<<<<<< HEAD
	<node lat="62.20757777895429" lon="5.559519443781972" id="-1276">
		<tag k="name" v="Osfluda" />
=======
	<node id="-60746" lat="62.1905305589" lon="5.36253333526">
		<tag k="name" v="Råna" />
>>>>>>> e1d4bc35ff8a6074a6f2e91616a996b547c36f15
		<tag k="natural" v="shoal" />
		<tag k="place" v="locality" />
		<tag k="ssr:stedsnr" v="173548" />
	</node>
	<node lat="62.289905552569124" lon="5.479047229905848" id="-1277">
		<tag k="name" v="Leirboden" />
		<tag k="natural" v="shoal" />
		<tag k="place" v="locality" />
		<tag k="ssr:stedsnr" v="173653" />
	</node>
	<node lat="62.20165278076519" lon="5.333080556737745" id="-1278">
		<tag k="name" v="Nordre Ristefluda" />
		<tag k="natural" v="shoal" />
		<tag k="place" v="locality" />
		<tag k="ssr:stedsnr" v="174450" />
	</node>
<<<<<<< HEAD
	<node lat="62.26266944279287" lon="5.321783342348185" id="-1279">
		<tag k="name" v="Skjeggefluda" />
=======
	<node id="-60745" lat="62.2329388856" lon="5.47208055384">
		<tag k="name" v="Høna" />
>>>>>>> e1d4bc35ff8a6074a6f2e91616a996b547c36f15
		<tag k="natural" v="shoal" />
		<tag k="place" v="locality" />
		<tag k="ssr:stedsnr" v="174562" />
	</node>
<<<<<<< HEAD
	<node lat="62.25593055431446" lon="5.23707221825102" id="-1280">
		<tag k="name" v="Kleivgrunnskallen" />
=======
	<node id="-60743" lat="62.2854388885" lon="5.49538889645">
		<tag k="name" v="Kjeggane" />
>>>>>>> e1d4bc35ff8a6074a6f2e91616a996b547c36f15
		<tag k="natural" v="shoal" />
		<tag k="place" v="locality" />
		<tag k="ssr:stedsnr" v="175583" />
	</node>
<<<<<<< HEAD
	<node lat="62.192283331961455" lon="5.56933611204641" id="-1282">
		<tag k="fixme" v="consider seamark:type=rock or natural=shoal" />
		<tag k="name" v="Kroppen" />
		<tag k="place" v="islet" />
		<tag k="ssr:stedsnr" v="192584" />
	</node>
	<node lat="62.18718888484661" lon="5.608316674030701" id="-1284">
		<tag k="alt_name" v="Saudeneset" />
		<tag k="name" v="Storeneset" />
=======
	<node id="-60742" lat="62.2267611148" lon="5.47794166392">
		<tag k="alt_name" v="Marøyna" />
		<tag k="name" v="Marøya" />
		<tag k="place" v="island" />
		<tag k="ssr:stedsnr" v="799642" />
	</node>
	<node id="-60740" lat="62.2575166707" lon="5.39180833301">
		<tag k="alt_name" v="Steintangen" />
		<tag k="name" v="Steinstangen" />
>>>>>>> e1d4bc35ff8a6074a6f2e91616a996b547c36f15
		<tag k="natural" v="cape" />
		<tag k="ssr:stedsnr" v="192543" />
	</node>
<<<<<<< HEAD
	<node lat="62.248250001127666" lon="5.490499990399403" id="-1287">
		<tag k="name" v="Gildrane" />
		<tag k="place" v="islet" />
		<tag k="ssr:stedsnr" v="192626" />
	</node>
	<node lat="62.208644446199955" lon="5.638102781355257" id="-1288">
		<tag k="name" v="Gurskøya" />
		<tag k="place" v="island" />
		<tag k="ssr:stedsnr" v="192633" />
	</node>
	<node lat="62.231594445527854" lon="5.476511104783111" id="-1289">
		<tag k="alt_name" v="Tretteskjeret;Tretteskjera" />
		<tag k="name" v="Trettholmane" />
		<tag k="place" v="islet" />
		<tag k="ssr:stedsnr" v="192635" />
	</node>
	<node lat="62.223174999873955" lon="5.444838882030508" id="-1290">
		<tag k="fixme" v="consider seamark:type=rock or natural=shoal" />
		<tag k="name" v="Flødene" />
		<tag k="place" v="islet" />
		<tag k="ssr:stedsnr" v="192662" />
	</node>
	<node lat="62.24274722542485" lon="5.403458338079038" id="-1291">
		<tag k="fixme" v="consider seamark:type=rock or natural=shoal" />
		<tag k="name" v="Ulven" />
		<tag k="place" v="islet" />
		<tag k="ssr:stedsnr" v="192683" />
	</node>
	<node lat="62.302680558895624" lon="5.4338833408063545" id="-1293">
		<tag k="name" v="Koparstadnabben" />
=======
	<node id="-60739" lat="62.254094441" lon="5.3575611163">
		<tag k="name" v="Nabbane" />
>>>>>>> e1d4bc35ff8a6074a6f2e91616a996b547c36f15
		<tag k="natural" v="shoal" />
		<tag k="place" v="locality" />
		<tag k="ssr:stedsnr" v="192592" />
	</node>
<<<<<<< HEAD
	<node lat="62.25570833563777" lon="5.453413891520838" id="-1294">
		<tag k="name" v="Vågen" />
=======
	<node id="-60737" lat="62.2505194401" lon="5.40966111224">
		<tag k="name" v="Kalvågane" />
>>>>>>> e1d4bc35ff8a6074a6f2e91616a996b547c36f15
		<tag k="natural" v="bay" />
		<tag k="ssr:stedsnr" v="193516" />
	</node>
<<<<<<< HEAD
	<node lat="62.26279721991127" lon="5.404208331007672" id="-1296">
		<tag k="alt_name" v="Grøtbudskjera" />
		<tag k="fixme" v="consider seamark:type=rock or natural=shoal" />
		<tag k="name" v="Grøtbuskjera" />
		<tag k="place" v="islet" />
		<tag k="ssr:stedsnr" v="193528" />
	</node>
	<node lat="62.194358329309395" lon="5.354722229580716" id="-1299">
		<tag k="name" v="Eggholmane" />
		<tag k="place" v="islet" />
		<tag k="ssr:stedsnr" v="193546" />
	</node>
	<node lat="62.20744999943624" lon="5.52383889398436" id="-1300">
		<tag k="bay" v="fjord" />
		<tag k="name" v="Hallefjorden" />
=======
	<node id="-60733" lat="62.2422194408" lon="5.43244166574">
		<tag k="name" v="Sandsvika" />
		<tag k="natural" v="bay" />
		<tag k="ssr:stedsnr" v="920646" />
	</node>
	<node id="-60729" lat="62.2226777823" lon="5.45468611314">
		<tag k="name" v="Kyrkjevika" />
>>>>>>> e1d4bc35ff8a6074a6f2e91616a996b547c36f15
		<tag k="natural" v="bay" />
		<tag k="ssr:stedsnr" v="193554" />
	</node>
	<node lat="62.21439444689907" lon="5.552544445291975" id="-1303">
		<tag k="alt_name" v="Simaholmen" />
		<tag k="name" v="Simahamnholmen" />
		<tag k="place" v="islet" />
		<tag k="ssr:stedsnr" v="193587" />
	</node>
<<<<<<< HEAD
	<node lat="62.19363055252058" lon="5.6601861189364815" id="-1313">
=======
	<node id="-60727" lat="62.2674638846" lon="5.45556944585">
>>>>>>> e1d4bc35ff8a6074a6f2e91616a996b547c36f15
		<tag k="fixme" v="consider seamark:type=rock or natural=shoal" />
		<tag k="name" v="Torsetskjeret" />
		<tag k="place" v="islet" />
		<tag k="ssr:stedsnr" v="219051" />
	</node>
<<<<<<< HEAD
	<node lat="62.18855278041318" lon="5.599827772865886" id="-1317">
		<tag k="name" v="Saudevika" />
		<tag k="natural" v="bay" />
		<tag k="ssr:stedsnr" v="220142" />
	</node>
	<node lat="62.212577779550784" lon="5.475716657470271" id="-1318">
		<tag k="name" v="Gangstødneset" />
=======
	<node id="-60724" lat="62.2169888901" lon="5.40288889301">
		<tag k="name" v="Kalsnesstranda" />
		<tag k="natural" v="beach" />
		<tag k="place" v="locality" />
		<tag k="ssr:stedsnr" v="766060" />
	</node>
	<node id="-60723" lat="62.1959000001" lon="5.39840834169">
		<tag k="name" v="Ytste Klubben" />
>>>>>>> e1d4bc35ff8a6074a6f2e91616a996b547c36f15
		<tag k="natural" v="cape" />
		<tag k="ssr:stedsnr" v="220146" />
	</node>
<<<<<<< HEAD
	<node lat="62.25986110861629" lon="5.396516658688172" id="-1323">
		<tag k="name" v="Svartekråa" />
=======
	<node id="-60721" lat="62.2640027733" lon="5.47883332746">
		<tag k="name" v="Ulandsvika" />
>>>>>>> e1d4bc35ff8a6074a6f2e91616a996b547c36f15
		<tag k="natural" v="bay" />
		<tag k="ssr:stedsnr" v="220069" />
	</node>
<<<<<<< HEAD
	<node lat="62.238036113752315" lon="5.49489166905817" id="-1326">
		<tag k="fixme" v="consider seamark:type=rock or natural=shoal" />
		<tag k="name" v="Eiriken" />
		<tag k="place" v="islet" />
		<tag k="ssr:stedsnr" v="220228" />
	</node>
	<node lat="62.22589444031942" lon="5.45595554864265" id="-1327">
		<tag k="name" v="Røydene" />
=======
	<node id="-60719" lat="62.2645583379" lon="5.54958334102">
		<tag k="alt_name" v="Gjerdesvika" />
		<tag k="name" v="Gjerdsvika" />
>>>>>>> e1d4bc35ff8a6074a6f2e91616a996b547c36f15
		<tag k="natural" v="bay" />
		<tag k="ssr:stedsnr" v="220230" />
	</node>
<<<<<<< HEAD
	<node lat="62.24913333383449" lon="5.4771222184497175" id="-1328">
		<tag k="name" v="Straumen" />
		<tag k="natural" v="strait" />
		<tag k="ssr:stedsnr" v="220236" />
	</node>
	<node lat="62.25666388528103" lon="5.455872229940585" id="-1329">
		<tag k="name" v="Djuvika" />
		<tag k="natural" v="bay" />
		<tag k="ssr:stedsnr" v="220248" />
	</node>
	<node lat="62.23024444590166" lon="5.554513892306839" id="-1331">
		<tag k="name" v="Stranda" />
		<tag k="natural" v="beach" />
		<tag k="ssr:stedsnr" v="220257" />
	</node>
	<node lat="62.207511108081576" lon="5.355799998711965" id="-1343">
		<tag k="name" v="Nesja" />
		<tag k="natural" v="bay" />
		<tag k="ssr:stedsnr" v="280233" />
	</node>
	<node lat="62.268355558024645" lon="5.397991672168616" id="-1344">
=======
	<node id="-60712" lat="62.2168694417" lon="5.32984723089">
		<tag k="name" v="Vågeboden" />
		<tag k="natural" v="shoal" />
		<tag k="place" v="locality" />
		<tag k="ssr:stedsnr" v="720558" />
	</node>
	<node id="-60711" lat="62.1997638908" lon="5.34152776934">
		<tag k="name" v="Kjeftfluda" />
		<tag k="natural" v="shoal" />
		<tag k="place" v="locality" />
		<tag k="ssr:stedsnr" v="720417" />
	</node>
	<node id="-60710" lat="62.3038611073" lon="5.39673334241">
		<tag k="name" v="Skagegrunnen" />
		<tag k="natural" v="shoal" />
		<tag k="place" v="locality" />
		<tag k="ssr:stedsnr" v="719759" />
	</node>
	<node id="-60709" lat="62.2032638876" lon="5.36654999115">
>>>>>>> e1d4bc35ff8a6074a6f2e91616a996b547c36f15
		<tag k="fixme" v="consider seamark:type=rock or natural=shoal" />
		<tag k="name" v="Røydene" />
		<tag k="place" v="islet" />
<<<<<<< HEAD
		<tag k="ssr:stedsnr" v="280238" />
	</node>
	<node lat="62.231269440963594" lon="5.382591662951002" id="-1346">
=======
		<tag k="ssr:stedsnr" v="705342" />
	</node>
	<node id="-60703" lat="62.1724749985" lon="5.3896166594">
		<tag k="name" v="Torrane" />
		<tag k="natural" v="cape" />
		<tag k="ssr:stedsnr" v="887283" />
	</node>
	<node id="-60702" lat="62.2504222249" lon="5.52978333804">
>>>>>>> e1d4bc35ff8a6074a6f2e91616a996b547c36f15
		<tag k="fixme" v="consider seamark:type=rock or natural=shoal" />
		<tag k="name" v="Rekene" />
		<tag k="place" v="islet" />
<<<<<<< HEAD
		<tag k="ssr:stedsnr" v="280245" />
	</node>
	<node lat="62.20920555931872" lon="5.467588891933761" id="-1354">
		<tag k="name" v="Kyrholmsundet" />
		<tag k="natural" v="strait" />
		<tag k="ssr:stedsnr" v="281110" />
	</node>
	<node lat="62.177452776503" lon="5.399961116901255" id="-1355">
		<tag k="fixme" v="consider seamark:type=rock or natural=shoal" />
		<tag k="name" v="Terneskjeret" />
=======
		<tag k="ssr:stedsnr" v="887202" />
	</node>
	<node id="-60699" lat="62.228225" lon="5.59419999096">
		<tag k="name" v="Dueneset" />
		<tag k="natural" v="cape" />
		<tag k="ssr:stedsnr" v="887230" />
	</node>
	<node id="-60693" lat="62.2053000003" lon="5.75474444014">
		<tag k="name" v="Litle-laupnes" />
		<tag k="natural" v="cape" />
		<tag k="ssr:stedsnr" v="887207" />
	</node>
	<node id="-60691" lat="62.2646916704" lon="5.41011944213">
		<tag k="name" v="Gråholmen" />
>>>>>>> e1d4bc35ff8a6074a6f2e91616a996b547c36f15
		<tag k="place" v="islet" />
		<tag k="ssr:stedsnr" v="281055" />
	</node>
<<<<<<< HEAD
	<node lat="62.18813333570802" lon="5.384386108219694" id="-1356">
		<tag k="name" v="Brynevika" />
		<tag k="natural" v="bay" />
		<tag k="ssr:stedsnr" v="281058" />
	</node>
	<node lat="62.235211107884915" lon="5.340583327251937" id="-1358">
		<tag k="fixme" v="consider seamark:type=rock or natural=shoal" />
		<tag k="name" v="Krokfluda" />
=======
	<node id="-60688" lat="62.1765555568" lon="5.39980000126">
		<tag k="name" v="Nøre Holmetangen" />
		<tag k="natural" v="cape" />
		<tag k="ssr:stedsnr" v="887086" />
	</node>
	<node id="-60683" lat="62.2262111146" lon="5.52693610286">
		<tag k="alt_name" v="Nupeholmen" />
		<tag k="name" v="Nupeholmene" />
>>>>>>> e1d4bc35ff8a6074a6f2e91616a996b547c36f15
		<tag k="place" v="islet" />
		<tag k="ssr:stedsnr" v="281151" />
	</node>
<<<<<<< HEAD
	<node lat="62.20611388837981" lon="5.564613881872763" id="-1360">
		<tag k="name" v="Skitnevika" />
		<tag k="natural" v="bay" />
		<tag k="ssr:stedsnr" v="281244" />
	</node>
	<node lat="62.20056944564501" lon="5.71432778581941" id="-1361">
		<tag k="name" v="Slokevågen" />
=======
	<node id="-60681" lat="62.2165499967" lon="5.40854444476">
		<tag k="alt_name" v="Kalsneset" />
		<tag k="name" v="Kalsnes" />
		<tag k="natural" v="cape" />
		<tag k="ssr:stedsnr" v="678568" />
	</node>
	<node id="-60680" lat="62.2160722222" lon="5.34291666337">
		<tag k="alt_name" v="Djuvika" />
		<tag k="name" v="Djupvika" />
>>>>>>> e1d4bc35ff8a6074a6f2e91616a996b547c36f15
		<tag k="natural" v="bay" />
		<tag k="ssr:stedsnr" v="281247" />
	</node>
<<<<<<< HEAD
	<node lat="62.23125000134843" lon="5.38258332355587" id="-1370">
		<tag k="fixme" v="consider seamark:type=rock or natural=shoal" />
		<tag k="name" v="Storereka" />
=======
	<node id="-60679" lat="62.1948944475" lon="5.57863889521">
		<tag k="name" v="Grønholmen" />
>>>>>>> e1d4bc35ff8a6074a6f2e91616a996b547c36f15
		<tag k="place" v="islet" />
		<tag k="ssr:stedsnr" v="314627" />
	</node>
<<<<<<< HEAD
	<node lat="62.22253055626634" lon="5.488658331604187" id="-1371">
		<tag k="alt_name" v="Rognholmen;Rennholmen" />
		<tag k="name" v="Rognholmane" />
=======
	<node id="-60678" lat="62.1690722257" lon="5.40116944996">
		<tag k="name" v="Bjørnholmen" />
>>>>>>> e1d4bc35ff8a6074a6f2e91616a996b547c36f15
		<tag k="place" v="islet" />
		<tag k="ssr:stedsnr" v="314642" />
	</node>
<<<<<<< HEAD
	<node lat="62.17766388508259" lon="5.3709222172605156" id="-1372">
		<tag k="alt_name" v="Frekøy Vestre;Frekøy, vestre" />
		<tag k="name" v="Vestre Frekøy" />
		<tag k="place" v="islet" />
		<tag k="ssr:stedsnr" v="314543" />
	</node>
	<node lat="62.26436666399206" lon="5.4814694477662" id="-1373">
		<tag k="name" v="Kleiveneset" />
=======
	<node id="-60677" lat="62.2602527738" lon="5.36304445453">
		<tag k="alt_name" v="Hestholmbåen" />
		<tag k="name" v="Hestholmboden" />
		<tag k="natural" v="shoal" />
		<tag k="place" v="locality" />
		<tag k="ssr:stedsnr" v="678520" />
	</node>
	<node id="-60676" lat="62.2583583309" lon="5.52972500362">
		<tag k="alt_name" v="Gjøtangen" />
		<tag k="name" v="Gjøneset" />
>>>>>>> e1d4bc35ff8a6074a6f2e91616a996b547c36f15
		<tag k="natural" v="cape" />
		<tag k="ssr:stedsnr" v="314548" />
	</node>
<<<<<<< HEAD
	<node lat="62.19567222607828" lon="5.678980553815721" id="-1378">
		<tag k="name" v="Langeneset" />
		<tag k="natural" v="cape" />
		<tag k="ssr:stedsnr" v="340055" />
	</node>
	<node lat="62.178483331805175" lon="5.370052779453693" id="-1379">
		<tag k="name" v="Djupsundet" />
		<tag k="natural" v="strait" />
		<tag k="ssr:stedsnr" v="341069" />
	</node>
	<node lat="62.19171666988374" lon="5.638416663268387" id="-1384">
		<tag k="name" v="Støyleneset" />
		<tag k="natural" v="cape" />
		<tag k="ssr:stedsnr" v="340062" />
	</node>
	<node lat="62.22351388846597" lon="5.389747224061737" id="-1390">
=======
	<node id="-60675" lat="62.17623611" lon="5.41785000433">
		<tag k="bay" v="fjord" />
		<tag k="name" v="Haugsfjorden" />
		<tag k="natural" v="bay" />
		<tag k="ssr:stedsnr" v="678511" />
	</node>
	<node id="-60672" lat="62.2007444463" lon="5.36270834047">
>>>>>>> e1d4bc35ff8a6074a6f2e91616a996b547c36f15
		<tag k="fixme" v="consider seamark:type=rock or natural=shoal" />
		<tag k="name" v="Instegardskjera" />
		<tag k="place" v="islet" />
		<tag k="ssr:stedsnr" v="341141" />
	</node>
<<<<<<< HEAD
	<node lat="62.264124999050985" lon="5.413666665699366" id="-1391">
		<tag k="name" v="Rålvika" />
=======
	<node id="-60671" lat="62.1996638856" lon="5.38496389022">
		<tag k="name" v="Myrvika" />
>>>>>>> e1d4bc35ff8a6074a6f2e91616a996b547c36f15
		<tag k="natural" v="bay" />
		<tag k="ssr:stedsnr" v="341230" />
	</node>
<<<<<<< HEAD
	<node lat="62.22589166576189" lon="5.530894450006576" id="-1392">
		<tag k="name" v="Båtvika" />
		<tag k="natural" v="bay" />
		<tag k="ssr:stedsnr" v="341233" />
	</node>
	<node lat="62.27136388483136" lon="5.434833332724769" id="-1401">
		<tag k="name" v="Sandholmfluda" />
=======
	<node id="-60670" lat="62.1928805555" lon="5.35003611703">
		<tag k="name" v="Eggholmboden" />
>>>>>>> e1d4bc35ff8a6074a6f2e91616a996b547c36f15
		<tag k="natural" v="shoal" />
		<tag k="place" v="locality" />
		<tag k="ssr:stedsnr" v="354429" />
	</node>
<<<<<<< HEAD
	<node lat="62.21606388625975" lon="5.414319436698951" id="-1402">
		<tag k="name" v="Litlefluda" />
=======
	<node id="-60662" lat="62.249649376" lon="5.3442244904">
		<tag k="name" v="Bastenesfluda" />
>>>>>>> e1d4bc35ff8a6074a6f2e91616a996b547c36f15
		<tag k="natural" v="shoal" />
		<tag k="place" v="locality" />
		<tag k="ssr:stedsnr" v="355376" />
	</node>
<<<<<<< HEAD
	<node lat="62.22597777877733" lon="5.339522230672296" id="-1403">
		<tag k="name" v="Julaftegrunnen" />
		<tag k="natural" v="shoal" />
		<tag k="place" v="locality" />
		<tag k="ssr:stedsnr" v="355505" />
	</node>
	<node lat="62.24315555210124" lon="5.317650007563132" id="-1404">
		<tag k="name" v="Hidsgrunnen" />
		<tag k="natural" v="shoal" />
		<tag k="place" v="locality" />
		<tag k="ssr:stedsnr" v="355511" />
	</node>
	<node lat="62.17309005807884" lon="5.395507189223556" id="-1406">
		<tag k="name" v="Haugsholmen" />
		<tag k="place" v="islet" />
		<tag k="ssr:stedsnr" v="374503" />
	</node>
	<node lat="62.22083055295553" lon="5.320602785376249" id="-1407">
		<tag k="name" v="Skorpefluda" />
		<tag k="natural" v="shoal" />
		<tag k="place" v="locality" />
		<tag k="ssr:stedsnr" v="374589" />
	</node>
	<node lat="62.22115833137274" lon="5.339816672917832" id="-1408">
		<tag k="alt_name" v="Barane" />
		<tag k="name" v="Baren" />
		<tag k="place" v="islet" />
		<tag k="ssr:stedsnr" v="374590" />
	</node>
	<node lat="62.22283333557118" lon="5.4183083354112105" id="-1410">
		<tag k="fixme" v="consider seamark:type=rock or natural=shoal" />
		<tag k="name" v="Svarteskjera" />
=======
	<node id="-60661" lat="62.2711722226" lon="5.38718332463">
		<tag k="name" v="Vågeboden" />
		<tag k="natural" v="shoal" />
		<tag k="place" v="locality" />
		<tag k="ssr:stedsnr" v="720616" />
	</node>
	<node id="-60657" lat="62.2638416705" lon="5.41056388468">
		<tag k="name" v="Kråkeneset" />
		<tag k="natural" v="cape" />
		<tag k="ssr:stedsnr" v="584052" />
	</node>
	<node id="-60656" lat="62.2036555599" lon="5.75512777188">
		<tag k="alt_name" v="Laupsneset" />
		<tag k="name" v="Litle-laupnes" />
		<tag k="natural" v="cape" />
		<tag k="ssr:stedsnr" v="584112" />
	</node>
	<node id="-60652" lat="62.1785999982" lon="5.36874444285">
		<tag k="name" v="Grunnsundholmen" />
>>>>>>> e1d4bc35ff8a6074a6f2e91616a996b547c36f15
		<tag k="place" v="islet" />
		<tag k="ssr:stedsnr" v="374606" />
	</node>
<<<<<<< HEAD
	<node lat="62.256380554247166" lon="5.355608338620385" id="-1414">
		<tag k="name" v="Skjellaren" />
=======
	<node id="-60649" lat="62.1913805569" lon="5.3861277802">
		<tag k="name" v="Litlestabben" />
>>>>>>> e1d4bc35ff8a6074a6f2e91616a996b547c36f15
		<tag k="natural" v="shoal" />
		<tag k="place" v="locality" />
		<tag k="ssr:stedsnr" v="375466" />
	</node>
<<<<<<< HEAD
	<node lat="62.21139722527806" lon="5.461794452307545" id="-1415">
		<tag k="name" v="Sivertvika" />
=======
	<node id="-60648" lat="62.2167638862" lon="5.55367499632">
		<tag k="name" v="Storegjerdbukta" />
>>>>>>> e1d4bc35ff8a6074a6f2e91616a996b547c36f15
		<tag k="natural" v="bay" />
		<tag k="ssr:stedsnr" v="375547" />
	</node>
<<<<<<< HEAD
	<node lat="62.250369443372215" lon="5.390658336458756" id="-1416">
		<tag k="alt_name" v="Djupeflua" />
		<tag k="name" v="Djupefluda" />
		<tag k="natural" v="shoal" />
=======
	<node id="-60647" lat="62.2648500005" lon="5.4614999993">
		<tag k="name" v="Grøte" />
		<tag k="natural" v="beach" />
>>>>>>> e1d4bc35ff8a6074a6f2e91616a996b547c36f15
		<tag k="place" v="locality" />
		<tag k="ssr:stedsnr" v="375659" />
	</node>
	<node lat="62.19996110979732" lon="5.707186109685491" id="-1417">
		<tag k="name" v="Slokevågen" />
		<tag k="natural" v="bay" />
		<tag k="ssr:stedsnr" v="394161" />
	</node>
<<<<<<< HEAD
	<node lat="62.267277781372556" lon="5.553038891143161" id="-1420">
=======
	<node id="-60641" lat="62.2046249976" lon="5.36428056348">
>>>>>>> e1d4bc35ff8a6074a6f2e91616a996b547c36f15
		<tag k="fixme" v="consider seamark:type=rock or natural=shoal" />
		<tag k="name" v="Holeskjeret" />
		<tag k="place" v="islet" />
		<tag k="ssr:stedsnr" v="400053" />
	</node>
<<<<<<< HEAD
	<node lat="62.18841666350468" lon="5.607691664193366" id="-1421">
		<tag k="name" v="Storebåtvika" />
		<tag k="natural" v="bay" />
		<tag k="ssr:stedsnr" v="401047" />
	</node>
	<node lat="62.19279999887124" lon="5.648525008130767" id="-1423">
		<tag k="name" v="Lisetneset" />
=======
	<node id="-60640" lat="62.218616666" lon="5.35895555229">
		<tag k="name" v="Eldevikholmen" />
		<tag k="place" v="islet" />
		<tag k="ssr:stedsnr" v="705175" />
	</node>
	<node id="-60638" lat="62.2380861123" lon="5.3467472281">
		<tag k="name" v="Langeneset" />
>>>>>>> e1d4bc35ff8a6074a6f2e91616a996b547c36f15
		<tag k="natural" v="cape" />
		<tag k="ssr:stedsnr" v="401055" />
	</node>
<<<<<<< HEAD
	<node lat="62.24650555728615" lon="5.410308326892254" id="-1427">
		<tag k="name" v="Sandsendevika" />
		<tag k="natural" v="bay" />
		<tag k="ssr:stedsnr" v="402049" />
	</node>
	<node lat="62.19336944434037" lon="5.408758339372388" id="-1428">
		<tag k="name" v="Falkarvika" />
		<tag k="natural" v="bay" />
		<tag k="ssr:stedsnr" v="402066" />
	</node>
	<node lat="62.194769444396655" lon="5.655547227039541" id="-1431">
		<tag k="name" v="Lisetstranda" />
		<tag k="natural" v="beach" />
		<tag k="ssr:stedsnr" v="402144" />
	</node>
	<node lat="62.268386107090535" lon="5.408772214485313" id="-1435">
		<tag k="name" v="Bjørnholmen" />
		<tag k="place" v="islet" />
		<tag k="ssr:stedsnr" v="402100" />
	</node>
	<node lat="62.221294445855904" lon="5.47456944879588" id="-1436">
		<tag k="fixme" v="consider seamark:type=rock or natural=shoal" />
		<tag k="name" v="Skinnbroka" />
=======
	<node id="-60637" lat="62.1934361125" lon="5.64967777748">
		<tag k="name" v="Djupekastet" />
		<tag k="natural" v="bay" />
		<tag k="ssr:stedsnr" v="705152" />
	</node>
	<node id="-60635" lat="62.2319472206" lon="5.46117222603">
		<tag k="fixme" v="consider seamark:type=rock or natural=shoal" />
		<tag k="name" v="Nørdste Håskjeret" />
		<tag k="place" v="islet" />
		<tag k="ssr:stedsnr" v="705143" />
	</node>
	<node id="-60628" lat="62.1944722206" lon="5.4017388921">
		<tag k="name" v="Inste Klubben" />
		<tag k="natural" v="cape" />
		<tag k="ssr:stedsnr" v="705097" />
	</node>
	<node id="-60627" lat="62.1827583291" lon="5.37506111395">
		<tag k="name" v="Avløysinga" />
		<tag k="natural" v="cape" />
		<tag k="ssr:stedsnr" v="705095" />
	</node>
	<node id="-60626" lat="62.1737694482" lon="5.38653332922">
		<tag k="fixme" v="consider seamark:type=rock or natural=shoal" />
		<tag k="name" v="Nøre Torrane" />
		<tag k="place" v="islet" />
		<tag k="ssr:stedsnr" v="705090" />
	</node>
	<node id="-60624" lat="62.1890722242" lon="5.61286945035">
		<tag k="name" v="Leiteneset" />
		<tag k="natural" v="cape" />
		<tag k="ssr:stedsnr" v="705062" />
	</node>
	<node id="-60619" lat="62.2525027752" lon="5.53052778322">
		<tag k="name" v="Bremmerstøda" />
		<tag k="natural" v="bay" />
		<tag k="ssr:stedsnr" v="704041" />
	</node>
	<node id="-60618" lat="62.2699944472" lon="5.42639443933">
		<tag k="name" v="Sandholmen" />
>>>>>>> e1d4bc35ff8a6074a6f2e91616a996b547c36f15
		<tag k="place" v="islet" />
		<tag k="ssr:stedsnr" v="402120" />
	</node>
<<<<<<< HEAD
	<node lat="62.1912249958998" lon="5.626511108802745" id="-1437">
		<tag k="name" v="Rognvika" />
		<tag k="natural" v="bay" />
		<tag k="ssr:stedsnr" v="402208" />
	</node>
	<node lat="62.24288333338285" lon="5.417019447848333" id="-1438">
		<tag k="name" v="Kleiva" />
=======
	<node id="-60616" lat="62.2664194419" lon="5.45415833087">
		<tag k="name" v="Dreivika" />
		<tag k="natural" v="bay" />
		<tag k="ssr:stedsnr" v="556562" />
	</node>
	<node id="-60615" lat="62.2572277737" lon="5.33663333782">
		<tag k="alt_name" v="Rimøyflua" />
		<tag k="name" v="Remøyfluda" />
		<tag k="natural" v="shoal" />
		<tag k="place" v="locality" />
		<tag k="ssr:stedsnr" v="556552" />
	</node>
	<node id="-60609" lat="62.2368111114" lon="5.48015833094">
		<tag k="name" v="Kledevika" />
>>>>>>> e1d4bc35ff8a6074a6f2e91616a996b547c36f15
		<tag k="natural" v="bay" />
		<tag k="ssr:stedsnr" v="402298" />
	</node>
<<<<<<< HEAD
	<node lat="62.20789841882935" lon="5.498453647659783" id="-1442">
		<tag k="name" v="Rædene" />
=======
	<node id="-60608" lat="62.2049694416" lon="5.46836111093">
		<tag k="name" v="Kyrholmfluda" />
>>>>>>> e1d4bc35ff8a6074a6f2e91616a996b547c36f15
		<tag k="natural" v="shoal" />
		<tag k="place" v="locality" />
		<tag k="ssr:stedsnr" v="415458" />
	</node>
<<<<<<< HEAD
	<node lat="62.20071389152631" lon="5.712355555143702" id="-1443">
		<tag k="name" v="Skredestranda" />
		<tag k="natural" v="beach" />
		<tag k="ssr:stedsnr" v="416396" />
	</node>
	<node lat="62.26195833272582" lon="5.409611107819594" id="-1444">
		<tag k="alt_name" v="Hellandsvågane" />
		<tag k="name" v="Hellandsvågen" />
		<tag k="natural" v="bay" />
		<tag k="ssr:stedsnr" v="416580" />
	</node>
	<node lat="62.18493333625846" lon="5.555905561087185" id="-1445">
		<tag k="bay" v="fjord" />
		<tag k="name" v="Rovdefjorden" />
		<tag k="natural" v="bay" />
		<tag k="ssr:stedsnr" v="435537" />
	</node>
	<node lat="62.23703332905273" lon="5.336947225310282" id="-1447">
=======
	<node id="-60607" lat="62.2351694476" lon="5.49236944608">
		<tag k="name" v="Voreholmane" />
		<tag k="place" v="islet" />
		<tag k="ssr:stedsnr" v="526807" />
	</node>
	<node id="-60605" lat="62.2464694403" lon="5.48100834091">
		<tag k="name" v="Straumsneset" />
		<tag k="natural" v="cape" />
		<tag k="ssr:stedsnr" v="523199" />
	</node>
	<node id="-60603" lat="62.2367194414" lon="5.46256111786">
		<tag k="name" v="Hamnaholmen" />
		<tag k="place" v="islet" />
		<tag k="ssr:stedsnr" v="523186" />
	</node>
	<node id="-60602" lat="62.205213892" lon="5.36130832535">
>>>>>>> e1d4bc35ff8a6074a6f2e91616a996b547c36f15
		<tag k="fixme" v="consider seamark:type=rock or natural=shoal" />
		<tag k="name" v="Svarteskjera" />
		<tag k="place" v="islet" />
		<tag k="ssr:stedsnr" v="435673" />
	</node>
<<<<<<< HEAD
	<node lat="62.22058889166301" lon="5.4815499966513315" id="-1449">
		<tag k="alt_name" v="Flatøya" />
		<tag k="name" v="Flatøyna" />
=======
	<node id="-60598" lat="62.22832222" lon="5.47688611144">
		<tag k="name" v="Kalven" />
>>>>>>> e1d4bc35ff8a6074a6f2e91616a996b547c36f15
		<tag k="place" v="islet" />
		<tag k="ssr:stedsnr" v="436545" />
	</node>
	<node lat="62.20578888822197" lon="5.3910805590011215" id="-1450">
		<tag k="name" v="Kvamsøya" />
		<tag k="place" v="island" />
		<tag k="ssr:stedsnr" v="436552" />
	</node>
<<<<<<< HEAD
	<node lat="62.17789722290841" lon="5.376758336995888" id="-1454">
=======
	<node id="-60594" lat="62.1778972229" lon="5.376758337">
>>>>>>> e1d4bc35ff8a6074a6f2e91616a996b547c36f15
		<tag k="alt_name" v="Frekøy austre;Frekøy, østre" />
		<tag k="name" v="Østre Frekøy" />
		<tag k="place" v="islet" />
		<tag k="ssr:stedsnr" v="496523" />
	</node>
<<<<<<< HEAD
	<node lat="62.26700277807428" lon="5.464677774831671" id="-1457">
		<tag k="name" v="Kvitebergholmen" />
		<tag k="place" v="islet" />
		<tag k="ssr:stedsnr" v="496545" />
	</node>
	<node lat="62.30357222004789" lon="5.3284805480526805" id="-1458">
		<tag k="name" v="Medhaugnabben" />
=======
	<node id="-60592" lat="62.2851694433" lon="5.44693611855">
		<tag k="name" v="Flesene" />
>>>>>>> e1d4bc35ff8a6074a6f2e91616a996b547c36f15
		<tag k="natural" v="shoal" />
		<tag k="place" v="locality" />
		<tag k="ssr:stedsnr" v="496590" />
	</node>
<<<<<<< HEAD
	<node lat="62.20234999965453" lon="5.573549990838641" id="-1461">
		<tag k="name" v="Halsen" />
		<tag k="natural" v="strait" />
		<tag k="ssr:stedsnr" v="522007" />
	</node>
	<node lat="62.254830552407235" lon="5.530561103935496" id="-1467">
		<tag k="name" v="Gjøhalstangen" />
		<tag k="natural" v="cape" />
		<tag k="ssr:stedsnr" v="522055" />
	</node>
	<node lat="62.266250001472926" lon="5.466730564140616" id="-1472">
		<tag k="name" v="Driv-vika" />
		<tag k="natural" v="bay" />
		<tag k="ssr:stedsnr" v="523131" />
	</node>
	<node lat="62.190947220492326" lon="5.631022217203276" id="-1473">
		<tag k="name" v="Martinberget" />
		<tag k="natural" v="cape" />
		<tag k="ssr:stedsnr" v="523137" />
	</node>
	<node lat="62.21690555376855" lon="5.454958328717171" id="-1474">
		<tag k="fixme" v="consider seamark:type=rock or natural=shoal" />
		<tag k="name" v="Tjeldeskjeret" />
=======
	<node id="-60590" lat="62.1935583314" lon="5.38207500248">
		<tag k="alt_name" v="Litleholmane" />
		<tag k="name" v="Litleholmen" />
		<tag k="place" v="islet" />
		<tag k="ssr:stedsnr" v="678539" />
	</node>
	<node id="-60587" lat="62.2233777778" lon="5.46193055432">
		<tag k="name" v="Sigholmen" />
		<tag k="place" v="islet" />
		<tag k="ssr:stedsnr" v="678622" />
	</node>
	<node id="-60585" lat="62.2291249956" lon="5.37448054978">
		<tag k="name" v="Risteholmen" />
>>>>>>> e1d4bc35ff8a6074a6f2e91616a996b547c36f15
		<tag k="place" v="islet" />
		<tag k="ssr:stedsnr" v="523145" />
	</node>
<<<<<<< HEAD
	<node lat="62.22011944884356" lon="5.345008330840361" id="-1481">
		<tag k="name" v="Luseholmen" />
=======
	<node id="-60583" lat="62.2110861138" lon="5.47322500541">
		<tag k="alt_name" v="Bauteholmen" />
		<tag k="name" v="Bautholmen" />
>>>>>>> e1d4bc35ff8a6074a6f2e91616a996b547c36f15
		<tag k="place" v="islet" />
		<tag k="ssr:stedsnr" v="523099" />
	</node>
<<<<<<< HEAD
	<node lat="62.23671944139127" lon="5.462561117864782" id="-1482">
		<tag k="name" v="Hamnaholmen" />
		<tag k="place" v="islet" />
		<tag k="ssr:stedsnr" v="523186" />
	</node>
	<node lat="62.246469440257" lon="5.481008340914499" id="-1484">
		<tag k="name" v="Straumsneset" />
=======
	<node id="-60581" lat="62.2686222261" lon="5.38585000086">
		<tag k="name" v="Kåsgrunnene" />
		<tag k="natural" v="shoal" />
		<tag k="place" v="locality" />
		<tag k="ssr:stedsnr" v="477617" />
	</node>
	<node id="-60578" lat="62.2208166654" lon="5.6472583392">
		<tag k="name" v="Vågsneset" />
>>>>>>> e1d4bc35ff8a6074a6f2e91616a996b547c36f15
		<tag k="natural" v="cape" />
		<tag k="ssr:stedsnr" v="523199" />
	</node>
<<<<<<< HEAD
	<node lat="62.2294444436642" lon="5.386466669101213" id="-1489">
=======
	<node id="-60577" lat="62.199072224" lon="5.36071944799">
>>>>>>> e1d4bc35ff8a6074a6f2e91616a996b547c36f15
		<tag k="fixme" v="consider seamark:type=rock or natural=shoal" />
		<tag k="name" v="Småskjera" />
		<tag k="place" v="islet" />
<<<<<<< HEAD
		<tag k="ssr:stedsnr" v="524751" />
	</node>
	<node lat="62.24650833715039" lon="5.37356666013159" id="-1492">
		<tag k="name" v="Stolpefluda" />
=======
		<tag k="ssr:stedsnr" v="463049" />
	</node>
	<node id="-60576" lat="62.2475555536" lon="5.41006666287">
		<tag k="name" v="Trødavika" />
		<tag k="natural" v="bay" />
		<tag k="ssr:stedsnr" v="463044" />
	</node>
	<node id="-60571" lat="62.2397333319" lon="5.33022499282">
		<tag k="name" v="Svarteskjerfluda" />
>>>>>>> e1d4bc35ff8a6074a6f2e91616a996b547c36f15
		<tag k="natural" v="shoal" />
		<tag k="place" v="locality" />
		<tag k="ssr:stedsnr" v="538544" />
	</node>
<<<<<<< HEAD
	<node lat="62.24516666836578" lon="5.35328332520033" id="-1493">
		<tag k="name" v="Steinboden" />
=======
	<node id="-60570" lat="62.1927888885" lon="5.55341388029">
		<tag k="name" v="Kropperevet" />
>>>>>>> e1d4bc35ff8a6074a6f2e91616a996b547c36f15
		<tag k="natural" v="shoal" />
		<tag k="place" v="locality" />
		<tag k="ssr:stedsnr" v="556677" />
	</node>
<<<<<<< HEAD
	<node lat="62.19106944651927" lon="5.582380546981344" id="-1495">
		<tag k="alt_name" v="Karnelsholmen;Karneliusholmen;Karnelesholmen" />
		<tag k="name" v="Kalnesholmen" />
		<tag k="place" v="islet" />
		<tag k="ssr:stedsnr" v="556589" />
	</node>
	<node lat="62.21793332970975" lon="5.4623194531011325" id="-1498">
		<tag k="name" v="Voksa" />
		<tag k="place" v="island" />
		<tag k="ssr:stedsnr" v="556601" />
	</node>
	<node lat="62.253952774930035" lon="5.372400001831347" id="-1501">
		<tag k="alt_name" v="Marøyfluene" />
		<tag k="name" v="Marøyfludene" />
		<tag k="natural" v="shoal" />
		<tag k="place" v="locality" />
		<tag k="ssr:stedsnr" v="556541" />
	</node>
	<node lat="62.25722777373795" lon="5.336633337820573" id="-1503">
		<tag k="alt_name" v="Rimøyflua" />
		<tag k="name" v="Remøyfluda" />
=======
	<node id="-60569" lat="62.2631166658" lon="5.49168055344">
		<tag k="name" v="Kleiveboden" />
		<tag k="natural" v="shoal" />
		<tag k="place" v="locality" />
		<tag k="ssr:stedsnr" v="658421" />
	</node>
	<node id="-60568" lat="62.2057888882" lon="5.391080559">
		<tag k="name" v="Kvamsøya" />
		<tag k="place" v="island" />
		<tag k="ssr:stedsnr" v="436552" />
	</node>
	<node id="-60566" lat="62.2672777814" lon="5.55303889114">
		<tag k="fixme" v="consider seamark:type=rock or natural=shoal" />
		<tag k="name" v="Holeskjeret" />
		<tag k="place" v="islet" />
		<tag k="ssr:stedsnr" v="400053" />
	</node>
	<node id="-60563" lat="62.1999611098" lon="5.70718610969">
		<tag k="name" v="Slokevågen" />
		<tag k="natural" v="bay" />
		<tag k="ssr:stedsnr" v="394161" />
	</node>
	<node id="-60562" lat="62.2503694434" lon="5.39065833646">
		<tag k="alt_name" v="Djupeflua" />
		<tag k="name" v="Djupefluda" />
>>>>>>> e1d4bc35ff8a6074a6f2e91616a996b547c36f15
		<tag k="natural" v="shoal" />
		<tag k="place" v="locality" />
		<tag k="ssr:stedsnr" v="556552" />
	</node>
<<<<<<< HEAD
	<node lat="62.25818333209676" lon="5.54305000547553" id="-1508">
		<tag k="name" v="Flatfjøra" />
		<tag k="natural" v="beach" />
		<tag k="ssr:stedsnr" v="582029" />
	</node>
	<node lat="62.178599998246774" lon="5.368744442852787" id="-1510">
		<tag k="name" v="Grunnsundholmen" />
=======
	<node id="-60559" lat="62.2228333356" lon="5.41830833541">
		<tag k="fixme" v="consider seamark:type=rock or natural=shoal" />
		<tag k="name" v="Svarteskjera" />
		<tag k="place" v="islet" />
		<tag k="ssr:stedsnr" v="374606" />
	</node>
	<node id="-60558" lat="62.1730900581" lon="5.39550718922">
		<tag k="name" v="Haugsholmen" />
>>>>>>> e1d4bc35ff8a6074a6f2e91616a996b547c36f15
		<tag k="place" v="islet" />
		<tag k="ssr:stedsnr" v="583086" />
	</node>
<<<<<<< HEAD
	<node lat="62.21833333048052" lon="5.373519450099636" id="-1511">
		<tag k="name" v="Elvaholmen" />
		<tag k="place" v="islet" />
		<tag k="ssr:stedsnr" v="583153" />
	</node>
	<node lat="62.23897777688067" lon="5.36021111388292" id="-1512">
		<tag k="name" v="Ytstevikane" />
		<tag k="natural" v="bay" />
		<tag k="ssr:stedsnr" v="583157" />
	</node>
	<node lat="62.26245555736321" lon="5.483038880269399" id="-1513">
		<tag k="name" v="Gurskekroken" />
		<tag k="natural" v="cape" />
		<tag k="ssr:stedsnr" v="583163" />
	</node>
	<node lat="62.19823055230048" lon="5.575002777532664" id="-1518">
		<tag k="name" v="Langeneset" />
		<tag k="natural" v="cape" />
		<tag k="ssr:stedsnr" v="583129" />
	</node>
	<node lat="62.22459444110935" lon="5.4697722138455465" id="-1519">
		<tag k="name" v="Skutholmane" />
=======
	<node id="-60557" lat="62.2275416667" lon="5.38846110422">
		<tag k="name" v="Ristesundet" />
		<tag k="natural" v="strait" />
		<tag k="ssr:stedsnr" v="496621" />
	</node>
	<node id="-60556" lat="62.2346666637" lon="5.39712221301">
		<tag k="name" v="Midtfjordfludene" />
		<tag k="natural" v="shoal" />
		<tag k="place" v="locality" />
		<tag k="ssr:stedsnr" v="496619" />
	</node>
	<node id="-60554" lat="62.30357222" lon="5.32848054805">
		<tag k="name" v="Medhaugnabben" />
		<tag k="natural" v="shoal" />
		<tag k="place" v="locality" />
		<tag k="ssr:stedsnr" v="496590" />
	</node>
	<node id="-60552" lat="62.2883777743" lon="5.41346388516">
		<tag k="name" v="Hoven" />
		<tag k="natural" v="shoal" />
		<tag k="place" v="locality" />
		<tag k="ssr:stedsnr" v="496569" />
	</node>
	<node id="-60551" lat="62.2670027781" lon="5.46467777483">
		<tag k="name" v="Kvitebergholmen" />
>>>>>>> e1d4bc35ff8a6074a6f2e91616a996b547c36f15
		<tag k="place" v="islet" />
		<tag k="ssr:stedsnr" v="583131" />
	</node>
<<<<<<< HEAD
	<node lat="62.23624166827612" lon="5.477161109717332" id="-1520">
		<tag k="name" v="Hundeberget" />
		<tag k="natural" v="cape" />
		<tag k="ssr:stedsnr" v="583134" />
	</node>
	<node lat="62.23995833793935" lon="5.4535555619865494" id="-1521">
		<tag k="name" v="Tarevika" />
		<tag k="natural" v="bay" />
		<tag k="ssr:stedsnr" v="583181" />
	</node>
	<node lat="62.263841670462725" lon="5.410563884683092" id="-1525">
		<tag k="name" v="Kråkeneset" />
		<tag k="natural" v="cape" />
		<tag k="ssr:stedsnr" v="584052" />
	</node>
	<node lat="62.28723611313966" lon="5.554288895609272" id="-1526">
		<tag k="name" v="Mjeltehola" />
		<tag k="natural" v="bay" />
		<tag k="ssr:stedsnr" v="583973" />
	</node>
	<node lat="62.26220752995959" lon="5.329503087811553" id="-1527">
		<tag k="name" v="Skjeggene" />
=======
	<node id="-60547" lat="62.3279388922" lon="5.18479167549">
		<tag k="name" v="Alseggja" />
		<tag k="natural" v="shoal" />
		<tag k="place" v="locality" />
		<tag k="ssr:stedsnr" v="481822" />
	</node>
	<node id="-60546" lat="62.1874361086" lon="5.36721387994">
		<tag k="name" v="Stabben" />
		<tag k="natural" v="shoal" />
		<tag k="place" v="locality" />
		<tag k="ssr:stedsnr" v="477430" />
	</node>
	<node id="-60545" lat="62.1845444401" lon="5.60634444818">
		<tag k="name" v="Saudeholmen" />
		<tag k="place" v="islet" />
		<tag k="ssr:stedsnr" v="324311" />
	</node>
	<node id="-60544" lat="62.2046222246" lon="5.55810555689">
		<tag k="name" v="Litlefluda" />
>>>>>>> e1d4bc35ff8a6074a6f2e91616a996b547c36f15
		<tag k="natural" v="shoal" />
		<tag k="place" v="locality" />
		<tag k="ssr:stedsnr" v="587042" />
	</node>
<<<<<<< HEAD
	<node lat="62.24653844902534" lon="5.365336416413492" id="-1529">
		<tag k="name" v="Stolpeboden" />
=======
	<node id="-60542" lat="62.190638889" lon="5.637430551">
		<tag k="name" v="Årvikskallen" />
>>>>>>> e1d4bc35ff8a6074a6f2e91616a996b547c36f15
		<tag k="natural" v="shoal" />
		<tag k="place" v="locality" />
		<tag k="ssr:stedsnr" v="598540" />
	</node>
<<<<<<< HEAD
	<node lat="62.22489166897989" lon="5.3871027838034475" id="-1530">
		<tag k="name" v="Skrukken" />
=======
	<node id="-60541" lat="62.2716916628" lon="5.42111944401">
		<tag k="alt_name" v="Djupeflua" />
		<tag k="name" v="Djupefluda" />
>>>>>>> e1d4bc35ff8a6074a6f2e91616a996b547c36f15
		<tag k="natural" v="shoal" />
		<tag k="place" v="locality" />
		<tag k="ssr:stedsnr" v="598395" />
	</node>
<<<<<<< HEAD
	<node lat="62.25504999748646" lon="5.428474994587076" id="-1535">
		<tag k="name" v="Sandsøya" />
		<tag k="place" v="island" />
		<tag k="ssr:stedsnr" v="617666" />
	</node>
	<node lat="62.23432499646234" lon="5.543719447105988" id="-1538">
		<tag k="name" v="Koparboden" />
=======
	<node id="-60539" lat="62.1879388933" lon="5.60084722879">
		<tag k="name" v="Klubbem" />
>>>>>>> e1d4bc35ff8a6074a6f2e91616a996b547c36f15
		<tag k="natural" v="cape" />
		<tag k="ssr:stedsnr" v="643048" />
	</node>
<<<<<<< HEAD
	<node lat="62.2133472198033" lon="5.48682499338307" id="-1540">
		<tag k="alt_name" v="Hesteholmsundet" />
		<tag k="name" v="Hestholmsundet" />
		<tag k="natural" v="strait" />
		<tag k="ssr:stedsnr" v="644114" />
	</node>
	<node lat="62.256902773824535" lon="5.397769453864295" id="-1541">
		<tag k="name" v="Steinsvika" />
=======
	<node id="-60537" lat="62.1710611099" lon="5.39245833426">
		<tag k="name" v="Fjøsvika" />
		<tag k="natural" v="bay" />
		<tag k="ssr:stedsnr" v="462235" />
	</node>
	<node id="-60533" lat="62.2664222211" lon="5.44608055865">
		<tag k="name" v="Nyhamna" />
>>>>>>> e1d4bc35ff8a6074a6f2e91616a996b547c36f15
		<tag k="natural" v="bay" />
		<tag k="ssr:stedsnr" v="644050" />
	</node>
	<node lat="62.16996667047155" lon="5.400922214180322" id="-1542">
		<tag k="name" v="Bjørnholmsundet" />
		<tag k="natural" v="strait" />
		<tag k="ssr:stedsnr" v="644058" />
	</node>
	<node lat="62.23580555539651" lon="5.48666667227633" id="-1546">
		<tag k="name" v="Legeneset" />
		<tag k="natural" v="cape" />
		<tag k="ssr:stedsnr" v="644127" />
	</node>
<<<<<<< HEAD
	<node lat="62.24246110770585" lon="5.407905548142402" id="-1547">
=======
	<node id="-60530" lat="62.2294444437" lon="5.3864666691">
>>>>>>> e1d4bc35ff8a6074a6f2e91616a996b547c36f15
		<tag k="fixme" v="consider seamark:type=rock or natural=shoal" />
		<tag k="name" v="Leidaholmskjeret" />
		<tag k="place" v="islet" />
		<tag k="ssr:stedsnr" v="644141" />
	</node>
<<<<<<< HEAD
	<node lat="62.23700555460556" lon="5.364741660670877" id="-1548">
=======
	<node id="-60529" lat="62.2417305521" lon="5.4290194442">
>>>>>>> e1d4bc35ff8a6074a6f2e91616a996b547c36f15
		<tag k="fixme" v="consider seamark:type=rock or natural=shoal" />
		<tag k="name" v="Fleskeryggen" />
		<tag k="place" v="islet" />
		<tag k="ssr:stedsnr" v="644148" />
	</node>
<<<<<<< HEAD
	<node lat="62.239997223964366" lon="5.347994445971098" id="-1550">
		<tag k="fixme" v="consider seamark:type=rock or natural=shoal" />
		<tag k="name" v="Langenesboden" />
		<tag k="place" v="islet" />
		<tag k="ssr:stedsnr" v="644155" />
	</node>
	<node lat="62.256369444635716" lon="5.399950006374095" id="-1551">
		<tag k="name" v="Kvia" />
=======
	<node id="-60527" lat="62.2126083334" lon="5.45686110948">
		<tag k="name" v="Tiggerberget" />
		<tag k="natural" v="cape" />
		<tag k="ssr:stedsnr" v="462109" />
	</node>
	<node id="-60526" lat="62.1934222191" lon="5.58225276995">
		<tag k="name" v="Breivikneset" />
>>>>>>> e1d4bc35ff8a6074a6f2e91616a996b547c36f15
		<tag k="natural" v="cape" />
		<tag k="ssr:stedsnr" v="644207" />
	</node>
<<<<<<< HEAD
	<node lat="62.22778055254878" lon="5.530497230710407" id="-1552">
		<tag k="name" v="Klubben" />
		<tag k="natural" v="cape" />
		<tag k="ssr:stedsnr" v="644300" />
	</node>
	<node lat="62.251336107536794" lon="5.479788898265768" id="-1553">
		<tag k="name" v="Bautane" />
=======
	<node id="-60524" lat="62.227075002" lon="5.53129165958">
		<tag k="name" v="Hammarvika" />
		<tag k="natural" v="bay" />
		<tag k="ssr:stedsnr" v="461034" />
	</node>
	<node id="-60521" lat="62.2005694456" lon="5.71432778582">
		<tag k="name" v="Slokevågen" />
>>>>>>> e1d4bc35ff8a6074a6f2e91616a996b547c36f15
		<tag k="natural" v="bay" />
		<tag k="ssr:stedsnr" v="644301" />
	</node>
<<<<<<< HEAD
	<node lat="62.2578555523755" lon="5.539883326666988" id="-1554">
		<tag k="name" v="Gjøbugen" />
		<tag k="natural" v="bay" />
		<tag k="ssr:stedsnr" v="644306" />
	</node>
	<node lat="62.21813055629406" lon="5.361261103931355" id="-1555">
		<tag k="name" v="Eldevika" />
=======
	<node id="-60520" lat="62.2061138884" lon="5.56461388187">
		<tag k="name" v="Skitnevika" />
		<tag k="natural" v="bay" />
		<tag k="ssr:stedsnr" v="281244" />
	</node>
	<node id="-60518" lat="62.2092055593" lon="5.46758889193">
		<tag k="name" v="Kyrholmsundet" />
		<tag k="natural" v="strait" />
		<tag k="ssr:stedsnr" v="281110" />
	</node>
	<node id="-60516" lat="62.2568416637" lon="5.53064166537">
		<tag k="name" v="Saurskastet" />
>>>>>>> e1d4bc35ff8a6074a6f2e91616a996b547c36f15
		<tag k="natural" v="bay" />
		<tag k="ssr:stedsnr" v="644308" />
	</node>
<<<<<<< HEAD
	<node lat="62.2388499993566" lon="5.463827776188097" id="-1556">
		<tag k="name" v="Jaktholmen" />
=======
	<node id="-60514" lat="62.234141663" lon="5.58128611758">
		<tag k="fixme" v="consider seamark:type=rock or natural=shoal" />
		<tag k="name" v="Storeskjeret" />
>>>>>>> e1d4bc35ff8a6074a6f2e91616a996b547c36f15
		<tag k="place" v="islet" />
		<tag k="ssr:stedsnr" v="644162" />
	</node>
<<<<<<< HEAD
	<node lat="62.25171944204686" lon="5.47990278553774" id="-1557">
		<tag k="name" v="Budaneset" />
=======
	<node id="-60513" lat="62.2670277791" lon="5.47345833884">
		<tag k="name" v="Langedrogneset" />
>>>>>>> e1d4bc35ff8a6074a6f2e91616a996b547c36f15
		<tag k="natural" v="cape" />
		<tag k="ssr:stedsnr" v="644165" />
	</node>
<<<<<<< HEAD
	<node lat="62.26311666576201" lon="5.491680553436284" id="-1563">
		<tag k="name" v="Kleiveboden" />
		<tag k="natural" v="shoal" />
		<tag k="place" v="locality" />
		<tag k="ssr:stedsnr" v="658421" />
	</node>
	<node lat="62.19288055553103" lon="5.350036117028259" id="-1564">
		<tag k="name" v="Eggholmboden" />
		<tag k="natural" v="shoal" />
		<tag k="place" v="locality" />
		<tag k="ssr:stedsnr" v="659417" />
	</node>
	<node lat="62.303861107262115" lon="5.396733342408574" id="-1566">
		<tag k="name" v="Skagegrunnen" />
		<tag k="natural" v="shoal" />
		<tag k="place" v="locality" />
		<tag k="ssr:stedsnr" v="719759" />
	</node>
	<node lat="62.27117222260609" lon="5.387183324633619" id="-1567">
		<tag k="name" v="Vågeboden" />
		<tag k="natural" v="shoal" />
		<tag k="place" v="locality" />
		<tag k="ssr:stedsnr" v="720616" />
	</node>
	<node lat="62.2168694417379" lon="5.329847230894557" id="-1568">
		<tag k="name" v="Vågeboden" />
		<tag k="natural" v="shoal" />
		<tag k="place" v="locality" />
		<tag k="ssr:stedsnr" v="720558" />
	</node>
	<node lat="62.241261111897465" lon="5.4926999984083285" id="-1572">
		<tag k="name" v="Maltvikneset" />
=======
	<node id="-60505" lat="62.291574999" lon="5.48280834161">
		<tag k="name" v="Leirbodgrunnen" />
		<tag k="natural" v="shoal" />
		<tag k="place" v="locality" />
		<tag k="ssr:stedsnr" v="294713" />
	</node>
	<node id="-60504" lat="62.2351694476" lon="5.49236944608">
		<tag k="name" v="Voreneset" />
		<tag k="natural" v="cape" />
		<tag k="ssr:stedsnr" v="294439" />
	</node>
	<node id="-60503" lat="62.2721555599" lon="5.44467222728">
		<tag k="name" v="Hella" />
		<tag k="natural" v="shoal" />
		<tag k="place" v="locality" />
		<tag k="ssr:stedsnr" v="294432" />
	</node>
	<node id="-60500" lat="62.2627972199" lon="5.40420833101">
		<tag k="alt_name" v="Grøtbudskjera" />
		<tag k="fixme" v="consider seamark:type=rock or natural=shoal" />
		<tag k="name" v="Grøtbuskjera" />
		<tag k="place" v="islet" />
		<tag k="ssr:stedsnr" v="193528" />
	</node>
	<node id="-60498" lat="62.2557083356" lon="5.45341389152">
		<tag k="name" v="Vågen" />
		<tag k="natural" v="bay" />
		<tag k="ssr:stedsnr" v="193516" />
	</node>
	<node id="-60497" lat="62.2315944455" lon="5.47651110478">
		<tag k="alt_name" v="Tretteskjeret;Tretteskjera" />
		<tag k="name" v="Trettholmane" />
		<tag k="place" v="islet" />
		<tag k="ssr:stedsnr" v="192635" />
	</node>
	<node id="-60496" lat="62.2086444462" lon="5.63810278136">
		<tag k="name" v="Gurskøya" />
		<tag k="place" v="island" />
		<tag k="ssr:stedsnr" v="192633" />
	</node>
	<node id="-60495" lat="62.2482500011" lon="5.4904999904">
		<tag k="name" v="Gildrane" />
		<tag k="place" v="islet" />
		<tag k="ssr:stedsnr" v="192626" />
	</node>
	<node id="-60490" lat="62.2626694428" lon="5.32178334235">
		<tag k="name" v="Skjeggefluda" />
		<tag k="natural" v="shoal" />
		<tag k="place" v="locality" />
		<tag k="ssr:stedsnr" v="174562" />
	</node>
	<node id="-60489" lat="62.1965055516" lon="5.68209445201">
		<tag k="name" v="Oksavikneset" />
		<tag k="natural" v="cape" />
		<tag k="ssr:stedsnr" v="173404" />
	</node>
	<node id="-60488" lat="62.2418416682" lon="5.43313332707">
		<tag k="fixme" v="consider seamark:type=rock or natural=shoal" />
		<tag k="name" v="Måseskjeret" />
		<tag k="place" v="islet" />
		<tag k="ssr:stedsnr" v="281191" />
	</node>
	<node id="-60486" lat="62.2352111079" lon="5.34058332725">
		<tag k="fixme" v="consider seamark:type=rock or natural=shoal" />
		<tag k="name" v="Krokfluda" />
		<tag k="place" v="islet" />
		<tag k="ssr:stedsnr" v="281151" />
	</node>
	<node id="-60485" lat="62.1890361084" lon="5.59358332905">
		<tag k="name" v="Klasneset" />
>>>>>>> e1d4bc35ff8a6074a6f2e91616a996b547c36f15
		<tag k="natural" v="cape" />
		<tag k="ssr:stedsnr" v="738650" />
	</node>
<<<<<<< HEAD
	<node lat="62.245924999789054" lon="5.338355558808671" id="-1573">
		<tag k="name" v="Nystøylfluda" />
		<tag k="natural" v="shoal" />
		<tag k="place" v="locality" />
		<tag k="ssr:stedsnr" v="738661" />
	</node>
	<node lat="62.26455833790227" lon="5.549583341021249" id="-1575">
		<tag k="alt_name" v="Gjerdesvika" />
		<tag k="name" v="Gjerdsvika" />
		<tag k="natural" v="bay" />
		<tag k="ssr:stedsnr" v="739516" />
	</node>
	<node lat="62.2640027732696" lon="5.478833327456068" id="-1577">
		<tag k="name" v="Ulandsvika" />
		<tag k="natural" v="bay" />
		<tag k="ssr:stedsnr" v="739520" />
	</node>
	<node lat="62.20880000089706" lon="5.489369440894942" id="-1580">
		<tag k="name" v="Langholmane" />
=======
	<node id="-60484" lat="62.2674333355" lon="5.42071945123">
		<tag k="name" v="Skipsberget" />
		<tag k="natural" v="cape" />
		<tag k="ssr:stedsnr" v="281098" />
	</node>
	<node id="-60477" lat="62.1881333357" lon="5.38438610822">
		<tag k="name" v="Brynevika" />
		<tag k="natural" v="bay" />
		<tag k="ssr:stedsnr" v="281058" />
	</node>
	<node id="-60476" lat="62.1774527765" lon="5.3999611169">
		<tag k="fixme" v="consider seamark:type=rock or natural=shoal" />
		<tag k="name" v="Terneskjeret" />
		<tag k="place" v="islet" />
		<tag k="ssr:stedsnr" v="281055" />
	</node>
	<node id="-60474" lat="62.2269888864" lon="5.56531388477">
		<tag k="alt_name" v="Legehammaren" />
		<tag k="name" v="Legeklubben" />
		<tag k="natural" v="cape" />
		<tag k="ssr:stedsnr" v="281007" />
	</node>
	<node id="-60471" lat="62.231269441" lon="5.38259166295">
		<tag k="fixme" v="consider seamark:type=rock or natural=shoal" />
		<tag k="name" v="Rekene" />
		<tag k="place" v="islet" />
		<tag k="ssr:stedsnr" v="280245" />
	</node>
	<node id="-60469" lat="62.268355558" lon="5.39799167217">
		<tag k="fixme" v="consider seamark:type=rock or natural=shoal" />
		<tag k="name" v="Røydene" />
>>>>>>> e1d4bc35ff8a6074a6f2e91616a996b547c36f15
		<tag k="place" v="islet" />
		<tag k="ssr:stedsnr" v="739591" />
	</node>
<<<<<<< HEAD
	<node lat="62.20848610701764" lon="5.5660055516539035" id="-1582">
		<tag k="name" v="Skitnevika" />
=======
	<node id="-60468" lat="62.2075111081" lon="5.35579999871">
		<tag k="name" v="Nesja" />
>>>>>>> e1d4bc35ff8a6074a6f2e91616a996b547c36f15
		<tag k="natural" v="bay" />
		<tag k="ssr:stedsnr" v="764050" />
	</node>
<<<<<<< HEAD
	<node lat="62.170511108390144" lon="5.387822215480475" id="-1594">
		<tag k="alt_name" v="Torreskjeret;Søre Torreskjeret" />
		<tag k="fixme" v="consider seamark:type=rock or natural=shoal" />
		<tag k="name" v="Søre Torrane" />
=======
	<node id="-60457" lat="62.2584361074" lon="5.57733889162">
		<tag k="fixme" v="consider seamark:type=rock or natural=shoal" />
		<tag k="name" v="Luseskjeret" />
		<tag k="place" v="islet" />
		<tag k="ssr:stedsnr" v="280106" />
	</node>
	<node id="-60452" lat="62.2029777779" lon="5.57157500725">
		<tag k="alt_name" v="Kipeholmen" />
		<tag k="name" v="Holmen" />
		<tag k="place" v="islet" />
		<tag k="ssr:stedsnr" v="159222" />
	</node>
	<node id="-60450" lat="62.1779055034" lon="5.37284172812">
		<tag k="name" v="Frekøya" />
>>>>>>> e1d4bc35ff8a6074a6f2e91616a996b547c36f15
		<tag k="place" v="islet" />
		<tag k="ssr:stedsnr" v="766050" />
	</node>
<<<<<<< HEAD
	<node lat="62.19590000013631" lon="5.398408341690694" id="-1596">
		<tag k="name" v="Ytste Klubben" />
=======
	<node id="-60449" lat="62.2149555535" lon="5.45597500292">
		<tag k="name" v="Perneset" />
>>>>>>> e1d4bc35ff8a6074a6f2e91616a996b547c36f15
		<tag k="natural" v="cape" />
		<tag k="ssr:stedsnr" v="766057" />
	</node>
	<node lat="62.2169888901113" lon="5.402888893010631" id="-1597">
		<tag k="name" v="Kalsnesstranda" />
		<tag k="natural" v="beach" />
		<tag k="ssr:stedsnr" v="766060" />
	</node>
<<<<<<< HEAD
	<node lat="62.24273055268084" lon="5.403858325605949" id="-1599">
=======
	<node id="-60448" lat="62.1862805534" lon="5.36940833907">
>>>>>>> e1d4bc35ff8a6074a6f2e91616a996b547c36f15
		<tag k="fixme" v="consider seamark:type=rock or natural=shoal" />
		<tag k="name" v="Litlerivskjeret" />
		<tag k="place" v="islet" />
		<tag k="ssr:stedsnr" v="766143" />
	</node>
<<<<<<< HEAD
	<node lat="62.25115277435564" lon="5.470574999877019" id="-1600">
		<tag k="name" v="Kråkeholmen" />
		<tag k="place" v="islet" />
		<tag k="ssr:stedsnr" v="766174" />
	</node>
	<node lat="62.245963891775006" lon="5.478338880370276" id="-1601">
		<tag k="name" v="Flødevikane" />
		<tag k="natural" v="bay" />
		<tag k="ssr:stedsnr" v="766176" />
	</node>
	<node lat="62.24216388608972" lon="5.423444438334205" id="-1602">
		<tag k="name" v="Mattistangen" />
=======
	<node id="-60439" lat="62.1936305584" lon="5.40696111131">
		<tag k="name" v="Simonnes" />
>>>>>>> e1d4bc35ff8a6074a6f2e91616a996b547c36f15
		<tag k="natural" v="cape" />
		<tag k="ssr:stedsnr" v="766180" />
	</node>
<<<<<<< HEAD
	<node lat="62.241919440576915" lon="5.434247231012779" id="-1606">
		<tag k="name" v="Klubben" />
		<tag k="natural" v="cape" />
		<tag k="ssr:stedsnr" v="766284" />
	</node>
	<node lat="62.174405553028066" lon="5.395850000436743" id="-1607">
		<tag k="name" v="Garevika" />
=======
	<node id="-60437" lat="62.2129888878" lon="5.55278055541">
		<tag k="fixme" v="consider seamark:type=rock or natural=shoal" />
		<tag k="name" v="Okslene" />
		<tag k="place" v="islet" />
		<tag k="ssr:stedsnr" v="132520" />
	</node>
	<node id="-60431" lat="62.2187694428" lon="5.34496110452">
		<tag k="name" v="Vågane" />
>>>>>>> e1d4bc35ff8a6074a6f2e91616a996b547c36f15
		<tag k="natural" v="bay" />
		<tag k="ssr:stedsnr" v="766287" />
	</node>
<<<<<<< HEAD
	<node lat="62.239863884771054" lon="5.422222223578008" id="-1608">
		<tag k="name" v="Murvikfluda" />
=======
	<node id="-60430" lat="62.2246333375" lon="5.52748333816">
		<tag k="name" v="Litleboden" />
>>>>>>> e1d4bc35ff8a6074a6f2e91616a996b547c36f15
		<tag k="natural" v="shoal" />
		<tag k="place" v="locality" />
		<tag k="ssr:stedsnr" v="779438" />
	</node>
<<<<<<< HEAD
	<node lat="62.21336666993616" lon="5.412869450322612" id="-1611">
		<tag k="name" v="Kvia" />
		<tag k="natural" v="cape" />
		<tag k="ssr:stedsnr" v="780367" />
	</node>
	<node lat="62.197736108353716" lon="5.391041657955358" id="-1612">
		<tag k="name" v="Brekkefluda" />
=======
	<node id="-60429" lat="62.2835416647" lon="5.47679999534">
		<tag k="name" v="Klovholmboden" />
>>>>>>> e1d4bc35ff8a6074a6f2e91616a996b547c36f15
		<tag k="natural" v="shoal" />
		<tag k="place" v="locality" />
		<tag k="ssr:stedsnr" v="780374" />
	</node>
<<<<<<< HEAD
	<node lat="62.285438888506" lon="5.495388896454013" id="-1613">
		<tag k="name" v="Kjeggane" />
		<tag k="natural" v="shoal" />
		<tag k="place" v="locality" />
		<tag k="ssr:stedsnr" v="799564" />
	</node>
	<node lat="62.18520555316084" lon="5.356211120234407" id="-1615">
		<tag k="alt_name" v="Svarteskjera" />
=======
	<node id="-60428" lat="62.2350694442" lon="5.41396666348">
		<tag k="name" v="Djupefluda" />
		<tag k="natural" v="shoal" />
		<tag k="place" v="locality" />
		<tag k="ssr:stedsnr" v="112444" />
	</node>
	<node id="-60422" lat="62.2366305549" lon="5.46116387942">
		<tag k="name" v="Støylehamna" />
		<tag k="natural" v="bay" />
		<tag k="ssr:stedsnr" v="98157" />
	</node>
	<node id="-60420" lat="62.2172888929" lon="5.34626666322">
		<tag k="name" v="Sørevågen" />
		<tag k="natural" v="bay" />
		<tag k="ssr:stedsnr" v="98153" />
	</node>
	<node id="-60419" lat="62.2284749955" lon="5.58817777404">
>>>>>>> e1d4bc35ff8a6074a6f2e91616a996b547c36f15
		<tag k="fixme" v="consider seamark:type=rock or natural=shoal" />
		<tag k="name" v="Svarteskjer" />
		<tag k="place" v="islet" />
		<tag k="ssr:stedsnr" v="799576" />
	</node>
<<<<<<< HEAD
	<node lat="62.20411111373066" lon="5.763852769405854" id="-1619">
		<tag k="name" v="Laupsneset" />
		<tag k="natural" v="cape" />
		<tag k="ssr:stedsnr" v="799087" />
	</node>
	<node lat="62.24885277407702" lon="5.247224991297515" id="-1620">
		<tag k="name" v="Grunnskallen" />
=======
	<node id="-60417" lat="62.236997223" lon="5.31890277876">
		<tag k="name" v="Nylendingen" />
>>>>>>> e1d4bc35ff8a6074a6f2e91616a996b547c36f15
		<tag k="natural" v="shoal" />
		<tag k="place" v="locality" />
		<tag k="ssr:stedsnr" v="799688" />
	</node>
<<<<<<< HEAD
	<node lat="62.25348889015629" lon="5.404547222346315" id="-1621">
		<tag k="alt_name" v="Breivikneset" />
		<tag k="name" v="Breidviknesa" />
		<tag k="natural" v="cape" />
		<tag k="ssr:stedsnr" v="800492" />
	</node>
	<node lat="62.25426389073227" lon="5.509480557209915" id="-1622">
		<tag k="bay" v="fjord" />
		<tag k="name" v="Sandsfjorden" />
		<tag k="natural" v="bay" />
		<tag k="ssr:stedsnr" v="800493" />
	</node>
	<node lat="62.2693166645853" lon="5.270558337488258" id="-1625">
		<tag k="name" v="Jynngrunnen" />
		<tag k="natural" v="shoal" />
		<tag k="place" v="locality" />
		<tag k="ssr:stedsnr" v="800531" />
	</node>
	<node lat="62.25469722623622" lon="5.57595000113449" id="-1631">
		<tag k="name" v="Sandangersanden" />
		<tag k="natural" v="beach" />
		<tag k="ssr:stedsnr" v="825335" />
	</node>
	<node lat="62.215899999236115" lon="5.553419446871819" id="-1633">
		<tag k="name" v="Sjåholmen" />
=======
	<node id="-60412" lat="62.1862666639" lon="5.38883333518">
		<tag k="alt_name" v="Storeholmen" />
		<tag k="name" v="Storholmen" />
		<tag k="place" v="islet" />
		<tag k="ssr:stedsnr" v="253582" />
	</node>
	<node id="-60410" lat="62.287380553" lon="5.47202778617">
		<tag k="name" v="Klovholmane" />
		<tag k="place" v="islet" />
		<tag k="ssr:stedsnr" v="253572" />
	</node>
	<node id="-60409" lat="62.199155557" lon="5.35872223134">
		<tag k="fixme" v="consider seamark:type=rock or natural=shoal" />
		<tag k="name" v="Notaskjer" />
		<tag k="place" v="islet" />
		<tag k="ssr:stedsnr" v="253562" />
	</node>
	<node id="-60408" lat="62.2602972207" lon="5.37506943676">
		<tag k="alt_name" v="Svarteskjeret" />
		<tag k="fixme" v="consider seamark:type=rock or natural=shoal" />
		<tag k="name" v="Svarteskjer" />
		<tag k="place" v="islet" />
		<tag k="ssr:stedsnr" v="253545" />
	</node>
	<node id="-60406" lat="62.2644138849" lon="5.52218611141">
		<tag k="fixme" v="consider seamark:type=rock or natural=shoal" />
		<tag k="name" v="Gjøskjera" />
>>>>>>> e1d4bc35ff8a6074a6f2e91616a996b547c36f15
		<tag k="place" v="islet" />
		<tag k="ssr:stedsnr" v="826980" />
	</node>
<<<<<<< HEAD
	<node lat="62.247266669316105" lon="5.532836120222311" id="-1643">
		<tag k="name" v="Tarevika" />
=======
	<node id="-60402" lat="62.2164138931" lon="5.45628056304">
		<tag k="name" v="Hansvika" />
>>>>>>> e1d4bc35ff8a6074a6f2e91616a996b547c36f15
		<tag k="natural" v="bay" />
		<tag k="ssr:stedsnr" v="827248" />
	</node>
<<<<<<< HEAD
	<node lat="62.26365000393019" lon="5.379602782550901" id="-1650">
		<tag k="name" v="Svarteskjerfluda" />
=======
	<node id="-60400" lat="62.1904972202" lon="5.35753611678">
		<tag k="name" v="Hysefluda" />
>>>>>>> e1d4bc35ff8a6074a6f2e91616a996b547c36f15
		<tag k="natural" v="shoal" />
		<tag k="place" v="locality" />
		<tag k="ssr:stedsnr" v="841590" />
	</node>
<<<<<<< HEAD
	<node lat="62.21048889265483" lon="5.329430558987817" id="-1651">
		<tag k="name" v="Gambafludene" />
=======
	<node id="-60398" lat="62.1897638868" lon="5.37514445134">
		<tag k="name" v="Rya" />
>>>>>>> e1d4bc35ff8a6074a6f2e91616a996b547c36f15
		<tag k="natural" v="shoal" />
		<tag k="place" v="locality" />
		<tag k="ssr:stedsnr" v="841535" />
	</node>
<<<<<<< HEAD
	<node lat="62.285605553026826" lon="5.547441666772107" id="-1652">
		<tag k="name" v="Hidsneset" />
		<tag k="natural" v="cape" />
		<tag k="ssr:stedsnr" v="841673" />
	</node>
	<node lat="62.202355557397155" lon="5.356394444813439" id="-1653">
		<tag k="name" v="Kvamsboden" />
		<tag k="natural" v="shoal" />
		<tag k="place" v="locality" />
		<tag k="ssr:stedsnr" v="842420" />
	</node>
	<node lat="62.23859444405459" lon="5.439227777230535" id="-1656">
		<tag k="alt_name" v="Lambeneset" />
		<tag k="name" v="Lammeneset" />
		<tag k="natural" v="cape" />
		<tag k="ssr:stedsnr" v="860652" />
	</node>
	<node lat="62.18462221912754" lon="5.367877774238196" id="-1659">
		<tag k="alt_name" v="Rognholmane" />
		<tag k="name" v="Rognholmen" />
=======
	<node id="-60397" lat="62.265191667" lon="5.48137499956">
		<tag k="fixme" v="consider seamark:type=rock or natural=shoal" />
		<tag k="name" v="Kleiveskjeret" />
>>>>>>> e1d4bc35ff8a6074a6f2e91616a996b547c36f15
		<tag k="place" v="islet" />
		<tag k="ssr:stedsnr" v="860593" />
	</node>
<<<<<<< HEAD
	<node lat="62.20792777387725" lon="5.35371944773211" id="-1660">
		<tag k="alt_name" v="Krokevika" />
		<tag k="name" v="Krokvika" />
=======
	<node id="-60396" lat="62.1922916653" lon="5.58872221609">
		<tag k="alt_name" v="Juvika" />
		<tag k="name" v="Djuvika" />
>>>>>>> e1d4bc35ff8a6074a6f2e91616a996b547c36f15
		<tag k="natural" v="bay" />
		<tag k="ssr:stedsnr" v="861565" />
	</node>
<<<<<<< HEAD
	<node lat="62.176555556842665" lon="5.399800001264579" id="-1667">
		<tag k="name" v="Nøre Holmetangen" />
		<tag k="natural" v="cape" />
		<tag k="ssr:stedsnr" v="887086" />
	</node>
	<node lat="62.26469167044632" lon="5.410119442134638" id="-1668">
		<tag k="name" v="Gråholmen" />
=======
	<node id="-60395" lat="62.2743888869" lon="5.54712499886">
		<tag k="name" v="Gardsbodfjøra" />
		<tag k="natural" v="beach" />
		<tag k="place" v="locality" />
		<tag k="ssr:stedsnr" v="38262" />
	</node>
	<node id="-60392" lat="62.2458861143" lon="5.48744999017">
		<tag k="name" v="Toftesund" />
>>>>>>> e1d4bc35ff8a6074a6f2e91616a996b547c36f15
		<tag k="place" v="islet" />
		<tag k="ssr:stedsnr" v="887132" />
	</node>
<<<<<<< HEAD
	<node lat="62.22822500001727" lon="5.5941999909558175" id="-1672">
		<tag k="name" v="Dueneset" />
=======
	<node id="-60391" lat="62.1995527756" lon="5.38865556316">
		<tag k="name" v="Myrneset" />
>>>>>>> e1d4bc35ff8a6074a6f2e91616a996b547c36f15
		<tag k="natural" v="cape" />
		<tag k="ssr:stedsnr" v="887230" />
	</node>
<<<<<<< HEAD
	<node lat="62.1724749984777" lon="5.389616659397843" id="-1675">
		<tag k="name" v="Torrane" />
		<tag k="natural" v="cape" />
		<tag k="ssr:stedsnr" v="887283" />
	</node>
	<node lat="62.190733336877365" lon="5.634713890212531" id="-1679">
		<tag k="name" v="Lånaneset" />
=======
	<node id="-60388" lat="62.2238583351" lon="5.47189443721">
		<tag k="name" v="Småsunda" />
		<tag k="natural" v="strait" />
		<tag k="ssr:stedsnr" v="38204" />
	</node>
	<node id="-60386" lat="62.1852611109" lon="5.39212500799">
		<tag k="name" v="Andrineneset" />
>>>>>>> e1d4bc35ff8a6074a6f2e91616a996b547c36f15
		<tag k="natural" v="cape" />
		<tag k="ssr:stedsnr" v="947068" />
	</node>
<<<<<<< HEAD
	<node lat="62.20302222504142" lon="5.420780547468061" id="-1681">
		<tag k="name" v="Granden" />
		<tag k="natural" v="beach" />
		<tag k="ssr:stedsnr" v="948321" />
	</node>
	<node lat="62.21517499874722" lon="5.475266675593072" id="-1682">
		<tag k="name" v="Hesteneset" />
=======
	<node id="-60385" lat="62.2487055547" lon="5.40960277074">
		<tag k="name" v="Trødaneset" />
>>>>>>> e1d4bc35ff8a6074a6f2e91616a996b547c36f15
		<tag k="natural" v="cape" />
		<tag k="ssr:stedsnr" v="948322" />
	</node>
<<<<<<< HEAD
	<node lat="62.252700003210464" lon="5.405813886651963" id="-1684">
		<tag k="name" v="Flatmagevika" />
=======
	<node id="-60383" lat="62.2304444481" lon="5.37004444148">
		<tag k="name" v="Sandvika" />
>>>>>>> e1d4bc35ff8a6074a6f2e91616a996b547c36f15
		<tag k="natural" v="bay" />
		<tag k="ssr:stedsnr" v="948074" />
	</node>
<<<<<<< HEAD
	<node lat="62.22310277779368" lon="5.445241672076325" id="-1685">
=======
	<node id="-60382" lat="62.2425194437" lon="5.4191250093">
>>>>>>> e1d4bc35ff8a6074a6f2e91616a996b547c36f15
		<tag k="fixme" v="consider seamark:type=rock or natural=shoal" />
		<tag k="name" v="Flødeskjeret" />
		<tag k="place" v="islet" />
<<<<<<< HEAD
		<tag k="ssr:stedsnr" v="948153" />
	</node>
	<node lat="62.239694446727015" lon="5.411783328568466" id="-1689">
		<tag k="fixme" v="consider seamark:type=rock or natural=shoal" />
		<tag k="name" v="Småskjera" />
		<tag k="place" v="islet" />
		<tag k="ssr:stedsnr" v="948165" />
	</node>
	<node lat="62.21369444052013" lon="5.549333331774653" id="-1691">
		<tag k="alt_name" v="Simonskjeret" />
		<tag k="fixme" v="consider seamark:type=rock or natural=shoal" />
		<tag k="name" v="Simaskjeret" />
		<tag k="place" v="islet" />
		<tag k="ssr:stedsnr" v="948244" />
	</node>
	<node lat="62.22727342633588" lon="5.366999069191622" id="-1713">
		<tag k="name" v="Kobbefluda" />
		<tag k="natural" v="shoal" />
		<tag k="place" v="locality" />
		<tag k="ssr:stedsnr" v="1077074" />
	</node>
	<node lat="62.24802354298038" lon="5.341320454269315" id="-1714">
		<tag k="name" v="Stolpeleia" />
		<tag k="natural" v="strait" />
		<tag k="ssr:stedsnr" v="1077077" />
	</node>
	<node lat="62.21128611565715" lon="5.487779402106406" id="-1715">
		<tag k="name" v="Nordre Langholmen" />
		<tag k="place" v="islet" />
		<tag k="ssr:stedsnr" v="1077080" />
	</node>
	<node lat="62.27806896549661" lon="5.46808769954346" id="-1716">
		<tag k="bay" v="fjord" />
		<tag k="name" v="Søndre Flåværleia" />
		<tag k="natural" v="bay" />
		<tag k="ssr:stedsnr" v="1077022" />
	</node>
	<node lat="62.200538006995885" lon="5.334916593113452" id="-1717">
		<tag k="name" v="Ristefludene" />
		<tag k="natural" v="shoal" />
		<tag k="place" v="locality" />
		<tag k="ssr:stedsnr" v="1077049" />
	</node>
	<node lat="62.25856172271891" lon="5.3829226982097484" id="-1718">
		<tag k="name" v="Sandøyleia" />
		<tag k="natural" v="strait" />
		<tag k="ssr:stedsnr" v="1077335" />
	</node>
	<node lat="62.22868068262578" lon="5.325218473073597" id="-1719">
		<tag k="name" v="Ristesundleia" />
		<tag k="natural" v="strait" />
		<tag k="ssr:stedsnr" v="1077336" />
=======
		<tag k="ssr:stedsnr" v="38310" />
	</node>
	<node id="-60380" lat="62.233088891" lon="5.53907222353">
		<tag k="name" v="Grønevika" />
		<tag k="natural" v="bay" />
		<tag k="ssr:stedsnr" v="37975" />
	</node>
	<node id="-60379" lat="62.2129611081" lon="5.55154722891">
		<tag k="fixme" v="consider seamark:type=rock or natural=shoal" />
		<tag k="name" v="Småskjera" />
		<tag k="place" v="islet" />
		<tag k="ssr:stedsnr" v="37973" />
	</node>
	<node id="-60375" lat="62.2662833298" lon="5.45513888713">
		<tag k="alt_name" v="Vågsdriv-vika" />
		<tag k="name" v="Holstøa" />
		<tag k="natural" v="cape" />
		<tag k="ssr:stedsnr" v="11523" />
	</node>
	<node id="-60374" lat="62.2290694406" lon="5.53068610617">
		<tag k="name" v="Hesthammarneset" />
		<tag k="natural" v="cape" />
		<tag k="ssr:stedsnr" v="11620" />
	</node>
	<node id="-60371" lat="62.2859000012" lon="5.45026389528">
		<tag k="alt_name" v="Litlebåen" />
		<tag k="name" v="Litleboden" />
		<tag k="natural" v="shoal" />
		<tag k="place" v="locality" />
		<tag k="ssr:stedsnr" v="10541" />
	</node>
	<node id="-60365" lat="62.2302444459" lon="5.55451389231">
		<tag k="name" v="Stranda" />
		<tag k="natural" v="beach" />
		<tag k="place" v="locality" />
		<tag k="ssr:stedsnr" v="220257" />
	</node>
	<node id="-60363" lat="62.2566638853" lon="5.45587222994">
		<tag k="name" v="Djuvika" />
		<tag k="natural" v="bay" />
		<tag k="ssr:stedsnr" v="220248" />
	</node>
	<node id="-60362" lat="62.2491333338" lon="5.47712221845">
		<tag k="name" v="Straumen" />
		<tag k="natural" v="strait" />
		<tag k="ssr:stedsnr" v="220236" />
	</node>
	<node id="-60361" lat="62.2258944403" lon="5.45595554864">
		<tag k="name" v="Røydene" />
		<tag k="place" v="locality" />
		<tag k="ssr:stedsnr" v="220230" />
	</node>
	<node id="-60360" lat="62.2380361138" lon="5.49489166906">
		<tag k="fixme" v="consider seamark:type=rock or natural=shoal" />
		<tag k="name" v="Eiriken" />
		<tag k="place" v="islet" />
		<tag k="ssr:stedsnr" v="220228" />
	</node>
	<node id="-60354" lat="62.2125777796" lon="5.47571665747">
		<tag k="name" v="Gangstødneset" />
		<tag k="natural" v="cape" />
		<tag k="ssr:stedsnr" v="220146" />
	</node>
	<node id="-60353" lat="62.1885527804" lon="5.59982777287">
		<tag k="name" v="Saudevika" />
		<tag k="natural" v="bay" />
		<tag k="ssr:stedsnr" v="220142" />
	</node>
	<node id="-60352" lat="62.173577776" lon="5.40164722302">
		<tag k="fixme" v="consider seamark:type=rock or natural=shoal" />
		<tag k="name" v="Skarveskjeret" />
		<tag k="place" v="islet" />
		<tag k="ssr:stedsnr" v="220092" />
	</node>
	<node id="-60350" lat="62.2511611134" lon="5.40656665997">
		<tag k="name" v="Gjøttaholmen" />
		<tag k="place" v="islet" />
		<tag k="ssr:stedsnr" v="220081" />
	</node>
	<node id="-60345" lat="62.2598611086" lon="5.39651665869">
		<tag k="name" v="Svartekråa" />
		<tag k="natural" v="bay" />
		<tag k="ssr:stedsnr" v="220069" />
	</node>
	<node id="-60344" lat="62.1936305525" lon="5.66018611894">
		<tag k="fixme" v="consider seamark:type=rock or natural=shoal" />
		<tag k="name" v="Torsetskjeret" />
		<tag k="place" v="islet" />
		<tag k="ssr:stedsnr" v="219051" />
	</node>
	<node id="-60343" lat="62.2260388898" lon="5.52509722219">
		<tag k="alt_name" v="Nupeholmane" />
		<tag k="name" v="Nupaholmane" />
		<tag k="place" v="islet" />
		<tag k="ssr:stedsnr" v="219030" />
>>>>>>> e1d4bc35ff8a6074a6f2e91616a996b547c36f15
	</node>
</osm>
