<?xml version="1.0" encoding="UTF-8"?>
<<<<<<< HEAD
<osm version="0.6" generator="osmapis">
	<node lat="62.22013889333665" lon="5.452694447270485" id="-704">
=======
<osm generator="osmapis" version="0.6">
	<node id="-60669" lat="62.2364944465" lon="5.67931110326">
		<tag k="name" v="Svinevassmyrane" />
		<tag k="natural" v="wetland" />
		<tag k="ssr:stedsnr" v="644021" />
	</node>
	<node id="-61308" lat="62.2512388864" lon="5.63861666675">
		<tag k="name" v="Kalvegjerdmyrane" />
		<tag k="natural" v="wetland" />
		<tag k="ssr:stedsnr" v="827129" />
	</node>
	<node id="-60795" lat="62.2196055527" lon="5.69246944037">
		<tag k="name" v="Løkane" />
		<tag k="natural" v="wetland" />
		<tag k="ssr:stedsnr" v="948159" />
	</node>
	<node id="-60531" lat="62.2420555563" lon="5.45910278071">
		<tag k="name" v="Støylemyrane" />
		<tag k="natural" v="wetland" />
		<tag k="ssr:stedsnr" v="462147" />
	</node>
	<node id="-60523" lat="62.2031472177" lon="5.60748054801">
		<tag k="name" v="Sandmyrane" />
		<tag k="natural" v="wetland" />
		<tag k="ssr:stedsnr" v="461003" />
	</node>
	<node id="-60645" lat="62.2717972218" lon="5.58199999414">
		<tag k="name" v="Rotemyrane" />
		<tag k="natural" v="wetland" />
		<tag k="ssr:stedsnr" v="705250" />
	</node>
	<node id="-61324" lat="62.2190972184" lon="5.46763054817">
		<tag k="name" v="Myrane" />
		<tag k="natural" v="wetland" />
		<tag k="ssr:stedsnr" v="827261" />
	</node>
	<node id="-60509" lat="62.2076805529" lon="5.39073332459">
		<tag k="name" v="Blautemyrane" />
		<tag k="natural" v="wetland" />
		<tag k="ssr:stedsnr" v="463060" />
	</node>
	<node id="-61016" lat="62.2522388881" lon="5.42521667561">
		<tag k="name" v="Vassmyrane" />
		<tag k="natural" v="wetland" />
		<tag k="ssr:stedsnr" v="341235" />
	</node>
	<node id="-60389" lat="62.2201388933" lon="5.45269444727">
>>>>>>> e1d4bc35ff8a6074a6f2e91616a996b547c36f15
		<tag k="name" v="Flødene" />
		<tag k="natural" v="wetland" />
		<tag k="ssr:stedsnr" v="38205" />
	</node>
<<<<<<< HEAD
	<node lat="62.20803888818808" lon="5.756919448574035" id="-761">
		<tag k="name" v="Storfonna" />
=======
	<node id="-61003" lat="62.2076555539" lon="5.72866388039">
		<tag k="historic" v="shieling" />
		<tag k="name" v="Skredesætra" />
>>>>>>> e1d4bc35ff8a6074a6f2e91616a996b547c36f15
		<tag k="place" v="locality" />
		<tag k="ssr:stedsnr" v="159117" />
	</node>
<<<<<<< HEAD
	<node lat="62.260122220142875" lon="5.416655561888285" id="-764">
		<tag k="name" v="Hellandsmyrane" />
=======
	<node id="-60487" lat="62.2126861132" lon="5.36894722344">
		<tag k="name" v="Nonshornmyrane" />
>>>>>>> e1d4bc35ff8a6074a6f2e91616a996b547c36f15
		<tag k="natural" v="wetland" />
		<tag k="ssr:stedsnr" v="159059" />
	</node>
<<<<<<< HEAD
	<node lat="62.26061389272319" lon="5.603069436536449" id="-795">
		<tag k="name" v="Stellemyra" />
=======
	<node id="-60997" lat="62.2517277767" lon="5.42304721696">
		<tag k="name" v="Vassmyrane" />
>>>>>>> e1d4bc35ff8a6074a6f2e91616a996b547c36f15
		<tag k="natural" v="wetland" />
		<tag k="ssr:stedsnr" v="280107" />
	</node>
<<<<<<< HEAD
	<node lat="62.242055556260574" lon="5.459102780707732" id="-812">
		<tag k="name" v="Støylemyrane" />
=======
	<node id="-60355" lat="62.2203555554" lon="5.61042777499">
		<tag k="name" v="Løkmyrane" />
>>>>>>> e1d4bc35ff8a6074a6f2e91616a996b547c36f15
		<tag k="natural" v="wetland" />
		<tag k="ssr:stedsnr" v="462147" />
	</node>
<<<<<<< HEAD
	<node lat="62.20768055287316" lon="5.390733324587504" id="-823">
		<tag k="name" v="Blautemyrane" />
=======
	<node id="-61244" lat="62.2300055592" lon="5.66218332343">
		<tag k="name" v="Raudklettane" />
>>>>>>> e1d4bc35ff8a6074a6f2e91616a996b547c36f15
		<tag k="natural" v="wetland" />
		<tag k="ssr:stedsnr" v="463060" />
	</node>
<<<<<<< HEAD
	<node lat="62.251727776725716" lon="5.4230472169614155" id="-845">
		<tag k="name" v="Vassmyrane" />
=======
	<node id="-61243" lat="62.2464055584" lon="5.63858888631">
		<tag k="name" v="Kalvegjerdmyra" />
>>>>>>> e1d4bc35ff8a6074a6f2e91616a996b547c36f15
		<tag k="natural" v="wetland" />
		<tag k="ssr:stedsnr" v="341056" />
	</node>
<<<<<<< HEAD
	<node lat="62.203147217671464" lon="5.60748054800805" id="-882">
		<tag k="name" v="Sandmyrane" />
=======
	<node id="-61240" lat="62.2120527785" lon="5.6701083337">
		<tag k="name" v="Almestadmyrane" />
>>>>>>> e1d4bc35ff8a6074a6f2e91616a996b547c36f15
		<tag k="natural" v="wetland" />
		<tag k="ssr:stedsnr" v="461003" />
	</node>
<<<<<<< HEAD
	<node lat="62.271797221790436" lon="5.581999994135846" id="-978">
		<tag k="name" v="Rotemyrane" />
=======
	<node id="-60470" lat="62.2270972205" lon="5.54649722616">
		<tag k="name" v="Myrane" />
>>>>>>> e1d4bc35ff8a6074a6f2e91616a996b547c36f15
		<tag k="natural" v="wetland" />
		<tag k="ssr:stedsnr" v="705250" />
	</node>
<<<<<<< HEAD
	<node lat="62.21269722293603" lon="5.658769435290035" id="-989">
		<tag k="name" v="Vågsmyrane" />
=======
	<node id="-60848" lat="62.263394445" lon="5.61333889602">
		<tag k="name" v="Sædalsmyrane" />
>>>>>>> e1d4bc35ff8a6074a6f2e91616a996b547c36f15
		<tag k="natural" v="wetland" />
		<tag k="ssr:stedsnr" v="643086" />
	</node>
<<<<<<< HEAD
	<node lat="62.2461027781392" lon="5.540547218153935" id="-1169">
		<tag k="name" v="Langura" />
		<tag k="natural" v="scree" />
		<tag k="ssr:stedsnr" v="36043" />
	</node>
	<node lat="62.26339444500271" lon="5.61333889601776" id="-1173">
		<tag k="name" v="Sædalsmyrane" />
=======
	<node id="-60846" lat="62.2538194444" lon="5.64476945169">
		<tag k="name" v="Jordene" />
>>>>>>> e1d4bc35ff8a6074a6f2e91616a996b547c36f15
		<tag k="natural" v="wetland" />
		<tag k="ssr:stedsnr" v="38025" />
	</node>
<<<<<<< HEAD
	<node lat="62.22888888930958" lon="5.731005559794787" id="-1177">
		<tag k="name" v="Løkemyrane" />
=======
	<node id="-60461" lat="62.2211972234" lon="5.69005000689">
		<tag k="name" v="Løkane" />
>>>>>>> e1d4bc35ff8a6074a6f2e91616a996b547c36f15
		<tag k="natural" v="wetland" />
		<tag k="ssr:stedsnr" v="38094" />
	</node>
<<<<<<< HEAD
	<node lat="62.25381944437221" lon="5.644769451692995" id="-1185">
		<tag k="name" v="Jordene" />
=======
	<node id="-60458" lat="62.2606138927" lon="5.60306943654">
		<tag k="name" v="Stellemyra" />
>>>>>>> e1d4bc35ff8a6074a6f2e91616a996b547c36f15
		<tag k="natural" v="wetland" />
		<tag k="ssr:stedsnr" v="38278" />
	</node>
<<<<<<< HEAD
	<node lat="62.22035555540893" lon="5.610427774987896" id="-1324">
		<tag k="name" v="Løkmyrane" />
=======
	<node id="-60841" lat="62.2288888893" lon="5.73100555979">
		<tag k="name" v="Løkemyrane" />
>>>>>>> e1d4bc35ff8a6074a6f2e91616a996b547c36f15
		<tag k="natural" v="wetland" />
		<tag k="ssr:stedsnr" v="220162" />
	</node>
<<<<<<< HEAD
	<node lat="62.21268333579428" lon="5.649250004654985" id="-1335">
=======
	<node id="-60456" lat="62.2126833358" lon="5.64925000465">
>>>>>>> e1d4bc35ff8a6074a6f2e91616a996b547c36f15
		<tag k="historic" v="shieling" />
		<tag k="name" v="Lågebulegene" />
		<tag k="place" v="locality" />
		<tag k="ssr:stedsnr" v="280060" />
	</node>
<<<<<<< HEAD
	<node lat="62.221197223433286" lon="5.6900500068853" id="-1337">
		<tag k="name" v="Løkane" />
=======
	<node id="-60831" lat="62.2461027781" lon="5.54054721815">
		<tag k="name" v="Langura" />
		<tag k="natural" v="scree" />
		<tag k="ssr:stedsnr" v="36043" />
	</node>
	<node id="-60446" lat="62.2601222201" lon="5.41665556189">
		<tag k="name" v="Hellandsmyrane" />
>>>>>>> e1d4bc35ff8a6074a6f2e91616a996b547c36f15
		<tag k="natural" v="wetland" />
		<tag k="ssr:stedsnr" v="280176" />
	</node>
<<<<<<< HEAD
	<node lat="62.2270972205029" lon="5.546497226163964" id="-1345">
		<tag k="name" v="Myrane" />
		<tag k="natural" v="wetland" />
		<tag k="ssr:stedsnr" v="280240" />
	</node>
	<node lat="62.212686113170975" lon="5.368947223436278" id="-1359">
		<tag k="name" v="Nonshornmyrane" />
		<tag k="natural" v="wetland" />
		<tag k="ssr:stedsnr" v="281162" />
	</node>
	<node lat="62.20765555387526" lon="5.728663880390817" id="-1387">
		<tag k="historic" v="shieling" />
		<tag k="name" v="Skredesætra" />
=======
	<node id="-60445" lat="62.2080388882" lon="5.75691944857">
		<tag k="name" v="Storfonna" />
		<tag k="place" v="locality" />
		<tag k="ssr:stedsnr" v="159117" />
	</node>
	<node id="-60697" lat="62.2203416694" lon="5.67485277532">
		<tag k="name" v="Risholen" />
>>>>>>> e1d4bc35ff8a6074a6f2e91616a996b547c36f15
		<tag k="place" v="locality" />
		<tag k="ssr:stedsnr" v="341093" />
	</node>
	<node lat="62.25223888813069" lon="5.425216675611453" id="-1396">
		<tag k="name" v="Vassmyrane" />
		<tag k="natural" v="wetland" />
		<tag k="ssr:stedsnr" v="341235" />
	</node>
<<<<<<< HEAD
	<node lat="62.22775277939391" lon="5.649158338402437" id="-1429">
=======
	<node id="-61102" lat="62.2190499974" lon="5.66401389491">
		<tag k="name" v="Breidemyra" />
		<tag k="natural" v="wetland" />
		<tag k="ssr:stedsnr" v="522073" />
	</node>
	<node id="-61068" lat="62.2277527794" lon="5.6491583384">
>>>>>>> e1d4bc35ff8a6074a6f2e91616a996b547c36f15
		<tag k="historic" v="shieling" />
		<tag k="name" v="Grønestøylen" />
		<tag k="place" v="locality" />
		<tag k="ssr:stedsnr" v="402134" />
	</node>
<<<<<<< HEAD
	<node lat="62.21904999737762" lon="5.664013894913819" id="-1465">
		<tag k="name" v="Breidemyra" />
=======
	<node id="-61191" lat="62.2126972229" lon="5.65876943529">
		<tag k="name" v="Vågsmyrane" />
>>>>>>> e1d4bc35ff8a6074a6f2e91616a996b547c36f15
		<tag k="natural" v="wetland" />
		<tag k="ssr:stedsnr" v="522073" />
	</node>
<<<<<<< HEAD
	<node lat="62.236494446478225" lon="5.6793111032569525" id="-1539">
		<tag k="name" v="Svinevassmyrane" />
		<tag k="natural" v="wetland" />
		<tag k="ssr:stedsnr" v="644021" />
	</node>
	<node lat="62.21205277849516" lon="5.670108333695966" id="-1581">
		<tag k="name" v="Almestadmyrane" />
		<tag k="natural" v="wetland" />
		<tag k="ssr:stedsnr" v="764049" />
	</node>
	<node lat="62.246405558350816" lon="5.638588886310548" id="-1589">
		<tag k="name" v="Kalvegjerdmyra" />
		<tag k="natural" v="wetland" />
		<tag k="ssr:stedsnr" v="766126" />
	</node>
	<node lat="62.230005559173144" lon="5.662183323432738" id="-1590">
		<tag k="name" v="Raudklettane" />
		<tag k="natural" v="wetland" />
		<tag k="ssr:stedsnr" v="766130" />
	</node>
	<node lat="62.25123888639" lon="5.638616666747494" id="-1635">
		<tag k="name" v="Kalvegjerdmyrane" />
		<tag k="natural" v="wetland" />
		<tag k="ssr:stedsnr" v="827129" />
	</node>
	<node lat="62.21909721839121" lon="5.467630548173089" id="-1644">
		<tag k="name" v="Myrane" />
		<tag k="natural" v="wetland" />
		<tag k="ssr:stedsnr" v="827261" />
	</node>
	<node lat="62.22034166938858" lon="5.6748527753224725" id="-1670">
		<tag k="name" v="Risholen" />
		<tag k="place" v="locality" />
		<tag k="ssr:stedsnr" v="887226" />
	</node>
	<node lat="62.219605552736795" lon="5.692469440366196" id="-1687">
		<tag k="name" v="Løkane" />
		<tag k="natural" v="wetland" />
		<tag k="ssr:stedsnr" v="948159" />
	</node>
=======
>>>>>>> e1d4bc35ff8a6074a6f2e91616a996b547c36f15
</osm>
