<?xml version="1.0" encoding="UTF-8"?>
<<<<<<< HEAD
<osm version="0.6" generator="osmapis">
	<node lat="62.20415833447524" lon="5.700858342316464" id="-683">
		<tag k="alt_name" v="Fyret" />
		<tag k="name" v="Fyre" />
		<tag k="natural" v="hill" />
		<tag k="place" v="locality" />
		<tag k="ssr:stedsnr" v="10546" />
	</node>
	<node lat="62.184683336117345" lon="5.381941674583665" id="-700">
		<tag k="name" v="Sørekletten" />
		<tag k="natural" v="hill" />
		<tag k="place" v="locality" />
		<tag k="ssr:stedsnr" v="38062" />
	</node>
	<node lat="62.20783611137919" lon="5.379127768681528" id="-702">
		<tag k="name" v="Fossadalen" />
		<tag k="natural" v="valley" />
		<tag k="place" v="locality" />
		<tag k="ssr:stedsnr" v="38078" />
	</node>
	<node lat="62.19782500276676" lon="5.582736104620483" id="-705">
		<tag k="name" v="Arenipa" />
		<tag k="natural" v="hill" />
		<tag k="place" v="locality" />
		<tag k="ssr:stedsnr" v="38207" />
	</node>
	<node lat="62.24870555201393" lon="5.5669750054991525" id="-709">
		<tag k="name" v="Selhaugane" />
		<tag k="natural" v="hill" />
		<tag k="place" v="locality" />
		<tag k="ssr:stedsnr" v="38260" />
	</node>
	<node lat="62.22018055162375" lon="5.731600006409421" id="-721">
		<tag k="name" v="Aretuva" />
		<tag k="natural" v="hill" />
		<tag k="place" v="locality" />
		<tag k="ssr:stedsnr" v="72177" />
	</node>
	<node lat="62.24131389119657" lon="5.484013879678397" id="-727">
		<tag k="name" v="Klettaskaret" />
		<tag k="natural" v="valley" />
		<tag k="place" v="locality" />
		<tag k="ssr:stedsnr" v="98132" />
	</node>
	<node lat="62.249836106926324" lon="5.455291673821874" id="-728">
		<tag k="name" v="Langedalen" />
		<tag k="natural" v="valley" />
		<tag k="place" v="locality" />
		<tag k="ssr:stedsnr" v="98168" />
	</node>
	<node lat="62.198211112928355" lon="5.639652778418892" id="-729">
		<tag k="name" v="Remane" />
		<tag k="natural" v="slope" />
		<tag k="place" v="locality" />
		<tag k="ssr:stedsnr" v="98177" />
	</node>
	<node lat="62.20085277797947" lon="5.397986110308173" id="-730">
		<tag k="name" v="Myrdalen" />
		<tag k="natural" v="valley" />
		<tag k="place" v="locality" />
		<tag k="ssr:stedsnr" v="98269" />
	</node>
	<node lat="62.25542500068361" lon="5.60044166541798" id="-731">
		<tag k="name" v="Vatthornet" />
		<tag k="natural" v="hill" />
		<tag k="place" v="locality" />
		<tag k="ssr:stedsnr" v="99015" />
	</node>
	<node lat="62.182422221778346" lon="5.381611118965737" id="-732">
		<tag k="name" v="Kobbehaugen" />
		<tag k="natural" v="hill" />
		<tag k="place" v="locality" />
		<tag k="ssr:stedsnr" v="99068" />
	</node>
	<node lat="62.22972499972138" lon="5.705188893584526" id="-740">
		<tag k="alt_name" v="Aurvollegga" />
		<tag k="name" v="Egga" />
		<tag k="natural" v="hill" />
		<tag k="place" v="locality" />
		<tag k="ssr:stedsnr" v="132562" />
	</node>
	<node lat="62.23125277411501" lon="5.745961106294608" id="-744">
		<tag k="alt_name" v="Gjørinakken" />
		<tag k="name" v="Gyrinakken" />
		<tag k="natural" v="hill" />
		<tag k="place" v="locality" />
		<tag k="ssr:stedsnr" v="253195" />
	</node>
	<node lat="62.256174999769115" lon="5.632530560077904" id="-755">
		<tag k="name" v="Klubben" />
		<tag k="natural" v="slope" />
		<tag k="place" v="locality" />
		<tag k="ssr:stedsnr" v="254957" />
	</node>
	<node lat="62.206513891663036" lon="5.718461112651726" id="-759">
		<tag k="name" v="Ristallekollen" />
		<tag k="natural" v="hill" />
		<tag k="place" v="locality" />
		<tag k="ssr:stedsnr" v="159110" />
	</node>
	<node lat="62.215127776398084" lon="5.725230553487442" id="-760">
		<tag k="name" v="Stordyrhola" />
		<tag k="natural" v="valley" />
		<tag k="place" v="locality" />
		<tag k="ssr:stedsnr" v="159114" />
	</node>
	<node lat="62.2346444424601" lon="5.6578527849954146" id="-763">
		<tag k="name" v="Gullhaugen" />
		<tag k="natural" v="hill" />
		<tag k="place" v="locality" />
		<tag k="ssr:stedsnr" v="159020" />
	</node>
	<node lat="62.245661107835026" lon="5.418100007101793" id="-765">
		<tag k="name" v="Skinahaugen" />
		<tag k="natural" v="hill" />
		<tag k="place" v="locality" />
		<tag k="ssr:stedsnr" v="159060" />
	</node>
	<node lat="62.23918332921748" lon="5.685805554205226" id="-767">
		<tag k="name" v="Rindehaugen" />
		<tag k="natural" v="hill" />
		<tag k="place" v="locality" />
		<tag k="ssr:stedsnr" v="159099" />
	</node>
	<node lat="62.196141663078485" lon="5.592561112901862" id="-769">
		<tag k="name" v="Årdalen" />
		<tag k="natural" v="valley" />
		<tag k="place" v="locality" />
		<tag k="ssr:stedsnr" v="159256" />
	</node>
	<node lat="62.24359444534642" lon="5.444577768237285" id="-770">
		<tag k="name" v="Sandslegene" />
		<tag k="natural" v="slope" />
		<tag k="place" v="locality" />
		<tag k="ssr:stedsnr" v="159201" />
	</node>
	<node lat="62.24089167099311" lon="5.596780560134357" id="-773">
		<tag k="name" v="Svartehammarsgylet" />
		<tag k="natural" v="valley" />
		<tag k="place" v="locality" />
		<tag k="ssr:stedsnr" v="220001" />
	</node>
	<node lat="62.244330555872224" lon="5.653327783812776" id="-774">
		<tag k="fixme" v="consider natural=peak for the most distinct mountains in the district" />
		<tag k="name" v="Slettebrunene" />
		<tag k="natural" v="hill" />
		<tag k="place" v="locality" />
		<tag k="ssr:stedsnr" v="220107" />
	</node>
	<node lat="62.24849166377883" lon="5.607822220882869" id="-775">
		<tag k="fixme" v="consider natural=peak for the most distinct mountains in the district" />
		<tag k="name" v="Melshornet" />
		<tag k="natural" v="hill" />
		<tag k="place" v="locality" />
		<tag k="ssr:stedsnr" v="220032" />
	</node>
	<node lat="62.18718055301198" lon="5.386925008915389" id="-777">
		<tag k="name" v="Nørdrekletten" />
		<tag k="natural" v="hill" />
		<tag k="place" v="locality" />
		<tag k="ssr:stedsnr" v="220087" />
	</node>
	<node lat="62.214516668711475" lon="5.58517499168002" id="-779">
		<tag k="name" v="Kvernhusdalen" />
		<tag k="natural" v="valley" />
		<tag k="place" v="locality" />
		<tag k="ssr:stedsnr" v="220278" />
	</node>
	<node lat="62.20851110733956" lon="5.647700006418612" id="-780">
		<tag k="name" v="Måna" />
		<tag k="natural" v="hill" />
		<tag k="place" v="locality" />
		<tag k="ssr:stedsnr" v="220283" />
	</node>
	<node lat="62.22398333736079" lon="5.55880277103412" id="-786">
=======
<osm generator="osmapis" version="0.6">
	<node id="-60416" lat="62.2239833374" lon="5.55880277103">
>>>>>>> e1d4bc35ff8a6074a6f2e91616a996b547c36f15
		<tag k="name" v="Litlehornet" />
		<tag k="natural" v="hill" />
		<tag k="place" v="locality" />
		<tag k="ssr:stedsnr" v="253637" />
<<<<<<< HEAD
	</node>
	<node lat="62.256508332321815" lon="5.5392944479242905" id="-790">
		<tag k="name" v="Svartehammaren" />
		<tag k="natural" v="cliff" />
		<tag k="ssr:stedsnr" v="279027" />
	</node>
	<node lat="62.284922218411175" lon="5.55350278749103" id="-791">
		<tag k="name" v="Riseaksla" />
		<tag k="natural" v="ridge" />
		<tag k="place" v="locality" />
		<tag k="ssr:stedsnr" v="279036" />
	</node>
	<node lat="62.20983610739331" lon="5.4001444369719485" id="-792">
		<tag k="name" v="Storenausen" />
		<tag k="natural" v="hill" />
		<tag k="place" v="locality" />
		<tag k="ssr:stedsnr" v="280004" />
	</node>
	<node lat="62.212302776770144" lon="5.40983055519601" id="-793">
		<tag k="name" v="Stigen" />
=======
	</node>
	<node id="-60927" lat="62.2435944453" lon="5.44457776824">
		<tag k="name" v="Sandslegene" />
>>>>>>> e1d4bc35ff8a6074a6f2e91616a996b547c36f15
		<tag k="natural" v="slope" />
		<tag k="place" v="locality" />
		<tag k="ssr:stedsnr" v="280215" />
	</node>
<<<<<<< HEAD
	<node lat="62.24939444184017" lon="5.655802787639927" id="-796">
		<tag k="name" v="Sævassbotnen" />
=======
	<node id="-60924" lat="62.2293166641" lon="5.55139165867">
		<tag k="name" v="Mannegylet" />
>>>>>>> e1d4bc35ff8a6074a6f2e91616a996b547c36f15
		<tag k="natural" v="valley" />
		<tag k="place" v="locality" />
		<tag k="ssr:stedsnr" v="280109" />
	</node>
<<<<<<< HEAD
	<node lat="62.2721944441769" lon="5.55658610219064" id="-804">
		<tag k="name" v="Holenakken" />
=======
	<node id="-60920" lat="62.2129694473" lon="5.34723889588">
		<tag k="alt_name" v="Ørnefjellet" />
		<tag k="name" v="Småvardane" />
>>>>>>> e1d4bc35ff8a6074a6f2e91616a996b547c36f15
		<tag k="natural" v="hill" />
		<tag k="place" v="locality" />
		<tag k="ssr:stedsnr" v="461037" />
	</node>
<<<<<<< HEAD
	<node lat="62.25841944706499" lon="5.457455553362019" id="-805">
		<tag k="name" v="Arehaugen" />
=======
	<node id="-60404" lat="62.2312527741" lon="5.74596110629">
		<tag k="alt_name" v="Gjørinakken" />
		<tag k="name" v="Gyrinakken" />
>>>>>>> e1d4bc35ff8a6074a6f2e91616a996b547c36f15
		<tag k="natural" v="hill" />
		<tag k="place" v="locality" />
		<tag k="ssr:stedsnr" v="462187" />
	</node>
<<<<<<< HEAD
	<node lat="62.21955832961146" lon="5.449866674139218" id="-808">
		<tag k="name" v="Flødeberga" />
		<tag k="natural" v="ridge" />
=======
	<node id="-60915" lat="62.2653027739" lon="5.42845555853">
		<tag k="alt_name" v="Svadfjellet" />
		<tag k="fixme" v="consider natural=peak for the most distinct mountains in the district" />
		<tag k="name" v="Hellandsfjella" />
		<tag k="natural" v="hill" />
>>>>>>> e1d4bc35ff8a6074a6f2e91616a996b547c36f15
		<tag k="place" v="locality" />
		<tag k="ssr:stedsnr" v="462118" />
	</node>
<<<<<<< HEAD
	<node lat="62.255433336227725" lon="5.419252784695463" id="-813">
		<tag k="name" v="Signalen" />
=======
	<node id="-60911" lat="62.2297249997" lon="5.70518889358">
		<tag k="alt_name" v="Aurvollegga" />
		<tag k="name" v="Egga" />
>>>>>>> e1d4bc35ff8a6074a6f2e91616a996b547c36f15
		<tag k="natural" v="hill" />
		<tag k="place" v="locality" />
		<tag k="ssr:stedsnr" v="462233" />
	</node>
<<<<<<< HEAD
	<node lat="62.19783333019727" lon="5.408313879984851" id="-815">
		<tag k="name" v="Myrdalen" />
		<tag k="natural" v="valley" />
		<tag k="place" v="locality" />
		<tag k="ssr:stedsnr" v="462251" />
	</node>
	<node lat="62.17260555999509" lon="5.390811112771473" id="-817">
		<tag k="name" v="Kletten" />
		<tag k="natural" v="hill" />
		<tag k="place" v="locality" />
		<tag k="ssr:stedsnr" v="294431" />
	</node>
	<node lat="62.21523055199513" lon="5.389066667936189" id="-824">
		<tag k="name" v="Høgenausen" />
=======
	<node id="-60394" lat="62.248705552" lon="5.5669750055">
		<tag k="name" v="Selhaugane" />
		<tag k="natural" v="hill" />
		<tag k="place" v="locality" />
		<tag k="ssr:stedsnr" v="38260" />
	</node>
	<node id="-60393" lat="62.2056833298" lon="5.63001944749">
		<tag k="name" v="Morkabakkane" />
		<tag k="natural" v="slope" />
		<tag k="place" v="locality" />
		<tag k="ssr:stedsnr" v="38253" />
	</node>
	<node id="-60390" lat="62.1978250028" lon="5.58273610462">
		<tag k="name" v="Arenipa" />
>>>>>>> e1d4bc35ff8a6074a6f2e91616a996b547c36f15
		<tag k="natural" v="hill" />
		<tag k="place" v="locality" />
		<tag k="ssr:stedsnr" v="463061" />
	</node>
<<<<<<< HEAD
	<node lat="62.27239444102753" lon="5.560424997901922" id="-825">
		<tag k="name" v="Bjønndalen" />
		<tag k="natural" v="valley" />
=======
	<node id="-60901" lat="62.2601833379" lon="5.59955834043">
		<tag k="name" v="Nyklane" />
>>>>>>> e1d4bc35ff8a6074a6f2e91616a996b547c36f15
		<tag k="place" v="locality" />
		<tag k="ssr:stedsnr" v="463066" />
	</node>
<<<<<<< HEAD
	<node lat="62.24250000401261" lon="5.444661108488547" id="-829">
		<tag k="name" v="Haukhammaren" />
=======
	<node id="-60900" lat="62.2554250007" lon="5.60044166542">
		<tag k="name" v="Vatthornet" />
		<tag k="natural" v="hill" />
>>>>>>> e1d4bc35ff8a6074a6f2e91616a996b547c36f15
		<tag k="place" v="locality" />
		<tag k="ssr:stedsnr" v="463149" />
	</node>
<<<<<<< HEAD
	<node lat="62.213547220192105" lon="5.356505550918458" id="-844">
		<tag k="name" v="Høgenipa" />
=======
	<node id="-60387" lat="62.1846833361" lon="5.38194167458">
		<tag k="name" v="Sørekletten" />
>>>>>>> e1d4bc35ff8a6074a6f2e91616a996b547c36f15
		<tag k="natural" v="hill" />
		<tag k="place" v="locality" />
		<tag k="ssr:stedsnr" v="341320" />
	</node>
<<<<<<< HEAD
	<node lat="62.241316665162984" lon="5.4805944451774495" id="-846">
		<tag k="alt_name" v="Kula" />
		<tag k="name" v="Kulen" />
=======
	<node id="-60897" lat="62.2694527772" lon="5.60326944262">
		<tag k="name" v="Høgehornet" />
>>>>>>> e1d4bc35ff8a6074a6f2e91616a996b547c36f15
		<tag k="natural" v="hill" />
		<tag k="place" v="locality" />
		<tag k="ssr:stedsnr" v="341206" />
	</node>
<<<<<<< HEAD
	<node lat="62.24760833291459" lon="5.5942027742639935" id="-859">
		<tag k="name" v="Hornet" />
=======
	<node id="-60896" lat="62.2831888896" lon="5.58578333486">
		<tag k="name" v="Høgehonnet" />
>>>>>>> e1d4bc35ff8a6074a6f2e91616a996b547c36f15
		<tag k="natural" v="hill" />
		<tag k="place" v="locality" />
		<tag k="ssr:stedsnr" v="401276" />
	</node>
<<<<<<< HEAD
	<node lat="62.220811109839346" lon="5.554061107326183" id="-860">
		<tag k="name" v="Hammaren" />
		<tag k="natural" v="cliff" />
		<tag k="ssr:stedsnr" v="401277" />
	</node>
	<node lat="62.25698889097827" lon="5.534388883261417" id="-861">
		<tag k="name" v="Storehalsen" />
		<tag k="natural" v="ridge" />
=======
	<node id="-60895" lat="62.234463889" lon="5.34886666115">
		<tag k="name" v="Hanslida" />
		<tag k="natural" v="slope" />
		<tag k="place" v="locality" />
		<tag k="ssr:stedsnr" v="98279" />
	</node>
	<node id="-60894" lat="62.256522224" lon="5.55092777795">
		<tag k="name" v="Klombra" />
		<tag k="natural" v="slope" />
>>>>>>> e1d4bc35ff8a6074a6f2e91616a996b547c36f15
		<tag k="place" v="locality" />
		<tag k="ssr:stedsnr" v="401979" />
	</node>
<<<<<<< HEAD
	<node lat="62.19967222399691" lon="5.611044435585386" id="-862">
		<tag k="name" v="Dyrstigane" />
=======
	<node id="-60893" lat="62.200852778" lon="5.39798611031">
		<tag k="name" v="Myrdalen" />
>>>>>>> e1d4bc35ff8a6074a6f2e91616a996b547c36f15
		<tag k="natural" v="valley" />
		<tag k="place" v="locality" />
		<tag k="ssr:stedsnr" v="402103" />
	</node>
<<<<<<< HEAD
	<node lat="62.203713886071505" lon="5.375555555687434" id="-869">
		<tag k="alt_name" v="Kleiva" />
		<tag k="name" v="Kleivahammaren" />
=======
	<node id="-60892" lat="62.2418833338" lon="5.57569444421">
		<tag k="name" v="Slåttene" />
		<tag k="natural" v="slope" />
>>>>>>> e1d4bc35ff8a6074a6f2e91616a996b547c36f15
		<tag k="place" v="locality" />
		<tag k="ssr:stedsnr" v="402076" />
	</node>
<<<<<<< HEAD
	<node lat="62.21019444274185" lon="5.695702782411236" id="-871">
		<tag k="name" v="Glenneskaret" />
		<tag k="natural" v="valley" />
		<tag k="place" v="locality" />
		<tag k="ssr:stedsnr" v="402089" />
	</node>
	<node lat="62.27143611141599" lon="5.573091670877312" id="-878">
		<tag k="name" v="Trolltua" />
=======
	<node id="-60891" lat="62.2195805574" lon="5.71964721801">
		<tag k="name" v="Skogebotnen" />
		<tag k="natural" v="valley" />
		<tag k="place" v="locality" />
		<tag k="ssr:stedsnr" v="98194" />
	</node>
	<node id="-60890" lat="62.2279277762" lon="5.65648332864">
		<tag k="name" v="Holen" />
		<tag k="natural" v="hill" />
		<tag k="place" v="locality" />
		<tag k="ssr:stedsnr" v="98189" />
	</node>
	<node id="-60889" lat="62.2307611123" lon="5.36608055822">
		<tag k="name" v="Klettane" />
>>>>>>> e1d4bc35ff8a6074a6f2e91616a996b547c36f15
		<tag k="natural" v="hill" />
		<tag k="place" v="locality" />
		<tag k="ssr:stedsnr" v="402225" />
	</node>
<<<<<<< HEAD
	<node lat="62.22794166264597" lon="5.673188892839986" id="-887">
		<tag k="name" v="Furenakken" />
		<tag k="natural" v="hill" />
		<tag k="place" v="locality" />
		<tag k="ssr:stedsnr" v="463010" />
	</node>
	<node lat="62.21618055697481" lon="5.734611104099648" id="-902">
		<tag k="alt_name" v="Skogedalen" />
		<tag k="name" v="Skogadalen" />
		<tag k="natural" v="valley" />
=======
	<node id="-60887" lat="62.1990805603" lon="5.66095000899">
		<tag k="name" v="Blåhornet" />
		<tag k="natural" v="hill" />
		<tag k="place" v="locality" />
		<tag k="ssr:stedsnr" v="98140" />
	</node>
	<node id="-60886" lat="62.2055305554" lon="5.69943889629">
		<tag k="name" v="Grønnakken" />
		<tag k="natural" v="ridge" />
		<tag k="place" v="locality" />
		<tag k="ssr:stedsnr" v="98139" />
	</node>
	<node id="-60885" lat="62.2576527813" lon="5.60700276941">
		<tag k="name" v="Rindane" />
		<tag k="natural" v="ridge" />
		<tag k="place" v="locality" />
		<tag k="ssr:stedsnr" v="98185" />
	</node>
	<node id="-60884" lat="62.1982111129" lon="5.63965277842">
		<tag k="name" v="Remane" />
		<tag k="natural" v="slope" />
>>>>>>> e1d4bc35ff8a6074a6f2e91616a996b547c36f15
		<tag k="place" v="locality" />
		<tag k="ssr:stedsnr" v="496066" />
	</node>
<<<<<<< HEAD
	<node lat="62.24798610752847" lon="5.552413898104473" id="-908">
		<tag k="name" v="Jøtulgylet" />
=======
	<node id="-60883" lat="62.2498361069" lon="5.45529167382">
		<tag k="name" v="Langedalen" />
>>>>>>> e1d4bc35ff8a6074a6f2e91616a996b547c36f15
		<tag k="natural" v="valley" />
		<tag k="place" v="locality" />
		<tag k="ssr:stedsnr" v="522062" />
	</node>
<<<<<<< HEAD
	<node lat="62.24029444140285" lon="5.612013888077613" id="-909">
		<tag k="name" v="Litlebøhornet" />
		<tag k="natural" v="hill" />
=======
	<node id="-60881" lat="62.2413138912" lon="5.48401387968">
		<tag k="name" v="Klettaskaret" />
		<tag k="natural" v="valley" />
>>>>>>> e1d4bc35ff8a6074a6f2e91616a996b547c36f15
		<tag k="place" v="locality" />
		<tag k="ssr:stedsnr" v="523012" />
	</node>
<<<<<<< HEAD
	<node lat="62.21394444602727" lon="5.558308331198602" id="-912">
=======
	<node id="-60880" lat="62.280969445" lon="5.55455555776">
>>>>>>> e1d4bc35ff8a6074a6f2e91616a996b547c36f15
		<tag k="name" v="Storehaugen" />
		<tag k="natural" v="hill" />
		<tag k="place" v="locality" />
		<tag k="ssr:stedsnr" v="522965" />
	</node>
<<<<<<< HEAD
	<node lat="62.228458331686795" lon="5.696802770019761" id="-913">
		<tag k="name" v="Dyrhaugane" />
		<tag k="natural" v="hill" />
=======
	<node id="-60879" lat="62.2259222202" lon="5.54968610439">
		<tag k="name" v="Litleskaret" />
		<tag k="natural" v="valley" />
>>>>>>> e1d4bc35ff8a6074a6f2e91616a996b547c36f15
		<tag k="place" v="locality" />
		<tag k="ssr:stedsnr" v="523109" />
	</node>
<<<<<<< HEAD
	<node lat="62.24691110791946" lon="5.448788888848061" id="-915">
		<tag k="name" v="Skora" />
=======
	<node id="-60366" lat="62.2145166687" lon="5.58517499168">
		<tag k="name" v="Kvernhusdalen" />
>>>>>>> e1d4bc35ff8a6074a6f2e91616a996b547c36f15
		<tag k="natural" v="valley" />
		<tag k="place" v="locality" />
		<tag k="ssr:stedsnr" v="523214" />
	</node>
<<<<<<< HEAD
	<node lat="62.21628610913937" lon="5.6879472165841936" id="-917">
		<tag k="name" v="Halsane" />
		<tag k="natural" v="ridge" />
=======
	<node id="-60493" lat="62.2474861124" lon="5.65219166122">
		<tag k="name" v="Meldalen" />
		<tag k="natural" v="valley" />
		<tag k="place" v="locality" />
		<tag k="ssr:stedsnr" v="192621" />
	</node>
	<node id="-60364" lat="62.2460027747" lon="5.45873610576">
		<tag k="name" v="Nova" />
		<tag k="natural" v="hill" />
>>>>>>> e1d4bc35ff8a6074a6f2e91616a996b547c36f15
		<tag k="place" v="locality" />
		<tag k="ssr:stedsnr" v="523216" />
	</node>
<<<<<<< HEAD
	<node lat="62.242336108147505" lon="5.595008325457444" id="-926">
		<tag k="name" v="Haugshornet" />
=======
	<node id="-60874" lat="62.2201805516" lon="5.73160000641">
		<tag k="name" v="Aretuva" />
>>>>>>> e1d4bc35ff8a6074a6f2e91616a996b547c36f15
		<tag k="natural" v="hill" />
		<tag k="place" v="locality" />
		<tag k="ssr:stedsnr" v="556626" />
	</node>
<<<<<<< HEAD
	<node lat="62.27666389042813" lon="5.563122216023242" id="-929">
		<tag k="name" v="Hidsdalen" />
		<tag k="natural" v="valley" />
=======
	<node id="-60359" lat="62.2134277754" lon="5.36001111359">
		<tag k="name" v="Ellingfjellet" />
		<tag k="natural" v="hill" />
>>>>>>> e1d4bc35ff8a6074a6f2e91616a996b547c36f15
		<tag k="place" v="locality" />
		<tag k="ssr:stedsnr" v="556563" />
	</node>
<<<<<<< HEAD
	<node lat="62.23235555902042" lon="5.54180832944341" id="-934">
		<tag k="name" v="Langebruna" />
		<tag k="natural" v="ridge" />
=======
	<node id="-60358" lat="62.2089749972" lon="5.36199999128">
		<tag k="name" v="Bakkehornet" />
		<tag k="natural" v="hill" />
>>>>>>> e1d4bc35ff8a6074a6f2e91616a996b547c36f15
		<tag k="place" v="locality" />
		<tag k="ssr:stedsnr" v="583041" />
	</node>
<<<<<<< HEAD
	<node lat="62.2182999983665" lon="5.629669447215954" id="-935">
		<tag k="name" v="Fastinghola" />
=======
	<node id="-60356" lat="62.1955861135" lon="5.61765555258">
		<tag k="name" v="Årvikdalen" />
>>>>>>> e1d4bc35ff8a6074a6f2e91616a996b547c36f15
		<tag k="natural" v="valley" />
		<tag k="place" v="locality" />
		<tag k="ssr:stedsnr" v="583052" />
	</node>
<<<<<<< HEAD
	<node lat="62.21092221916246" lon="5.375649999163879" id="-936">
		<tag k="name" v="Ytste Nonshornet" />
		<tag k="natural" v="hill" />
		<tag k="place" v="locality" />
		<tag k="ssr:stedsnr" v="583090" />
	</node>
	<node lat="62.22010833270993" lon="5.351050003233794" id="-941">
		<tag k="name" v="Halsen" />
		<tag k="natural" v="valley" />
=======
	<node id="-60494" lat="62.2450305538" lon="5.56792500223">
		<tag k="alt_name" v="Egga" />
		<tag k="name" v="Saursegga" />
		<tag k="natural" v="hill" />
		<tag k="place" v="locality" />
		<tag k="ssr:stedsnr" v="192625" />
	</node>
	<node id="-60351" lat="62.187180553" lon="5.38692500892">
		<tag k="name" v="Nørdrekletten" />
		<tag k="natural" v="hill" />
>>>>>>> e1d4bc35ff8a6074a6f2e91616a996b547c36f15
		<tag k="place" v="locality" />
		<tag k="ssr:stedsnr" v="583195" />
	</node>
<<<<<<< HEAD
	<node lat="62.22606666553317" lon="5.656977781437539" id="-943">
		<tag k="name" v="Hanehornet" />
=======
	<node id="-60349" lat="62.2484916638" lon="5.60782222088">
		<tag k="fixme" v="consider natural=peak for the most distinct mountains in the district" />
		<tag k="name" v="Melshornet" />
>>>>>>> e1d4bc35ff8a6074a6f2e91616a996b547c36f15
		<tag k="natural" v="hill" />
		<tag k="place" v="locality" />
		<tag k="ssr:stedsnr" v="584007" />
	</node>
<<<<<<< HEAD
	<node lat="62.2168749984261" lon="5.67875834129586" id="-958">
		<tag k="alt_name" v="Arehjellen" />
		<tag k="fixme" v="consider natural=peak for the most distinct mountains in the district" />
		<tag k="name" v="Aregjell" />
=======
	<node id="-60348" lat="62.2469222217" lon="5.59086110547">
		<tag k="name" v="Grøthornet" />
>>>>>>> e1d4bc35ff8a6074a6f2e91616a996b547c36f15
		<tag k="natural" v="hill" />
		<tag k="place" v="locality" />
		<tag k="ssr:stedsnr" v="617586" />
	</node>
<<<<<<< HEAD
	<node lat="62.206199997073305" lon="5.679019449132303" id="-961">
		<tag k="name" v="Ramsetunga" />
		<tag k="natural" v="ridge" />
=======
	<node id="-60347" lat="62.2258583294" lon="5.56468333545">
		<tag k="name" v="Legene" />
>>>>>>> e1d4bc35ff8a6074a6f2e91616a996b547c36f15
		<tag k="place" v="locality" />
		<tag k="ssr:stedsnr" v="704051" />
	</node>
<<<<<<< HEAD
	<node lat="62.20881111381418" lon="5.663522229770273" id="-962">
		<tag k="name" v="Vågshammaren" />
		<tag k="natural" v="cliff" />
		<tag k="ssr:stedsnr" v="704055" />
	</node>
	<node lat="62.25514166844982" lon="5.606052777240168" id="-963">
		<tag k="name" v="Vasstranddalen" />
=======
	<node id="-60346" lat="62.240891671" lon="5.59678056013">
		<tag k="name" v="Svartehammarsgylet" />
>>>>>>> e1d4bc35ff8a6074a6f2e91616a996b547c36f15
		<tag k="natural" v="valley" />
		<tag k="place" v="locality" />
		<tag k="ssr:stedsnr" v="705032" />
	</node>
<<<<<<< HEAD
	<node lat="62.257241662923484" lon="5.4232972199333505" id="-965">
		<tag k="name" v="Hestejyljane" />
		<tag k="natural" v="slope" />
		<tag k="place" v="locality" />
		<tag k="ssr:stedsnr" v="705083" />
	</node>
	<node lat="62.215388887810825" lon="5.385419437200981" id="-969">
		<tag k="name" v="Oddesdalen" />
		<tag k="natural" v="valley" />
=======
	<node id="-60853" lat="62.2795416658" lon="5.5640111024">
		<tag k="name" v="Støylen" />
		<tag k="natural" v="slope" />
>>>>>>> e1d4bc35ff8a6074a6f2e91616a996b547c36f15
		<tag k="place" v="locality" />
		<tag k="ssr:stedsnr" v="705101" />
	</node>
	<node lat="62.19501388733776" lon="5.604938893907367" id="-972">
		<tag k="name" v="Kleivahornet" />
		<tag k="natural" v="hill" />
		<tag k="place" v="locality" />
		<tag k="ssr:stedsnr" v="705136" />
	</node>
<<<<<<< HEAD
	<node lat="62.214313888824314" lon="5.634008329086522" id="-974">
		<tag k="name" v="Storhylla" />
		<tag k="place" v="locality" />
		<tag k="ssr:stedsnr" v="705149" />
	</node>
	<node lat="62.25862221781718" lon="5.601063885057137" id="-976">
		<tag k="name" v="Skotet" />
		<tag k="natural" v="hill" />
		<tag k="place" v="locality" />
		<tag k="ssr:stedsnr" v="705233" />
	</node>
	<node lat="62.239952781053425" lon="5.703294444002734" id="-977">
		<tag k="name" v="Koppane" />
		<tag k="natural" v="valley" />
=======
	<node id="-60845" lat="62.2520444451" lon="5.56201666872">
		<tag k="name" v="Svædane" />
		<tag k="natural" v="slope" />
>>>>>>> e1d4bc35ff8a6074a6f2e91616a996b547c36f15
		<tag k="place" v="locality" />
		<tag k="ssr:stedsnr" v="705248" />
	</node>
<<<<<<< HEAD
	<node lat="62.193980557677705" lon="5.412580556926972" id="-979">
		<tag k="name" v="Røysane" />
=======
	<node id="-60842" lat="62.20837778" lon="5.6895805461">
		<tag k="name" v="Almestadbrauta" />
>>>>>>> e1d4bc35ff8a6074a6f2e91616a996b547c36f15
		<tag k="natural" v="slope" />
		<tag k="place" v="locality" />
		<tag k="ssr:stedsnr" v="705259" />
	</node>
<<<<<<< HEAD
	<node lat="62.23276666321498" lon="5.364572231990494" id="-981">
		<tag k="name" v="Kleivane" />
=======
	<node id="-60840" lat="62.244052774" lon="5.69126667301">
		<tag k="name" v="Rindehola" />
>>>>>>> e1d4bc35ff8a6074a6f2e91616a996b547c36f15
		<tag k="natural" v="slope" />
		<tag k="place" v="locality" />
		<tag k="ssr:stedsnr" v="705305" />
	</node>
<<<<<<< HEAD
	<node lat="62.20787777440906" lon="5.37420000762588" id="-985">
		<tag k="name" v="Storefjellet" />
=======
	<node id="-60839" lat="62.2668777809" lon="5.60236111415">
		<tag k="name" v="Brandhornet" />
>>>>>>> e1d4bc35ff8a6074a6f2e91616a996b547c36f15
		<tag k="natural" v="hill" />
		<tag k="place" v="locality" />
		<tag k="ssr:stedsnr" v="705188" />
	</node>
<<<<<<< HEAD
	<node lat="62.24065000248695" lon="5.556330561161889" id="-990">
		<tag k="name" v="Hageberget" />
		<tag k="natural" v="hill" />
=======
	<node id="-60838" lat="62.244752776" lon="5.67337777664">
		<tag k="name" v="Blåfjellet" />
>>>>>>> e1d4bc35ff8a6074a6f2e91616a996b547c36f15
		<tag k="place" v="locality" />
		<tag k="ssr:stedsnr" v="643977" />
	</node>
<<<<<<< HEAD
	<node lat="62.27384722503378" lon="5.60615833322898" id="-992">
		<tag k="name" v="Fjellenden" />
		<tag k="natural" v="slope" />
=======
	<node id="-60837" lat="62.2078361114" lon="5.37912776868">
		<tag k="name" v="Fossadalen" />
		<tag k="natural" v="valley" />
>>>>>>> e1d4bc35ff8a6074a6f2e91616a996b547c36f15
		<tag k="place" v="locality" />
		<tag k="ssr:stedsnr" v="644084" />
	</node>
<<<<<<< HEAD
	<node lat="62.19275000025433" lon="5.6025777797492085" id="-996">
		<tag k="name" v="Saudedalen" />
		<tag k="natural" v="valley" />
		<tag k="place" v="locality" />
		<tag k="ssr:stedsnr" v="644107" />
	</node>
	<node lat="62.225419448207376" lon="5.597463894772681" id="-1001">
		<tag k="name" v="Storetua" />
		<tag k="natural" v="hill" />
		<tag k="place" v="locality" />
		<tag k="ssr:stedsnr" v="644186" />
	</node>
	<node lat="62.25539166276105" lon="5.419761119698522" id="-1012">
		<tag k="fixme" v="consider natural=peak for the most distinct mountains in the district" />
		<tag k="name" v="Øyna" />
		<tag k="natural" v="hill" />
		<tag k="place" v="locality" />
		<tag k="ssr:stedsnr" v="678504" />
	</node>
	<node lat="62.27073333192862" lon="5.5682166744586254" id="-1021">
		<tag k="name" v="Langedalen" />
=======
	<node id="-60623" lat="62.2551416684" lon="5.60605277724">
		<tag k="name" v="Vasstranddalen" />
		<tag k="natural" v="valley" />
		<tag k="place" v="locality" />
		<tag k="ssr:stedsnr" v="705032" />
	</node>
	<node id="-61346" lat="62.2496111082" lon="5.55054167519">
		<tag k="fixme" v="consider natural=peak for the most distinct mountains in the district" />
		<tag k="name" v="Gjøna" />
		<tag k="natural" v="hill" />
		<tag k="place" v="locality" />
		<tag k="ssr:stedsnr" v="860533" />
	</node>
	<node id="-60829" lat="62.276025" lon="5.55626111782">
		<tag k="name" v="Kloven" />
		<tag k="natural" v="valley" />
		<tag k="place" v="locality" />
		<tag k="ssr:stedsnr" v="36040" />
	</node>
	<node id="-60418" lat="62.2561749998" lon="5.63253056008">
		<tag k="name" v="Klubben" />
		<tag k="natural" v="slope" />
		<tag k="place" v="locality" />
		<tag k="ssr:stedsnr" v="254957" />
	</node>
	<node id="-61333" lat="62.2072888909" lon="5.57880555043">
		<tag k="name" v="Kvernhusdalen" />
>>>>>>> e1d4bc35ff8a6074a6f2e91616a996b547c36f15
		<tag k="natural" v="valley" />
		<tag k="place" v="locality" />
		<tag k="ssr:stedsnr" v="705113" />
	</node>
<<<<<<< HEAD
	<node lat="62.27703888992711" lon="5.597441662332858" id="-1023">
		<tag k="fixme" v="consider natural=peak for the most distinct mountains in the district" />
		<tag k="name" v="Grøthornet" />
=======
	<node id="-60818" lat="62.1979305598" lon="5.40096389537">
		<tag k="alt_name" v="Hestehammaren" />
		<tag k="name" v="Hesthamaren" />
>>>>>>> e1d4bc35ff8a6074a6f2e91616a996b547c36f15
		<tag k="natural" v="hill" />
		<tag k="place" v="locality" />
		<tag k="ssr:stedsnr" v="705116" />
	</node>
<<<<<<< HEAD
	<node lat="62.2159777762551" lon="5.355249999210344" id="-1026">
		<tag k="name" v="Vardane" />
=======
	<node id="-60817" lat="62.2118194485" lon="5.71168333788">
		<tag k="alt_name" v="Storevasshornet" />
		<tag k="name" v="Vasshornet" />
>>>>>>> e1d4bc35ff8a6074a6f2e91616a996b547c36f15
		<tag k="natural" v="hill" />
		<tag k="place" v="locality" />
		<tag k="ssr:stedsnr" v="705171" />
	</node>
<<<<<<< HEAD
	<node lat="62.262036115638686" lon="5.472527779568964" id="-1029">
		<tag k="fixme" v="consider natural=peak for the most distinct mountains in the district" />
		<tag k="name" v="Sjurfjellet" />
=======
	<node id="-61325" lat="62.2169888905" lon="5.3657111024">
		<tag k="name" v="Nipa" />
>>>>>>> e1d4bc35ff8a6074a6f2e91616a996b547c36f15
		<tag k="natural" v="hill" />
		<tag k="place" v="locality" />
		<tag k="ssr:stedsnr" v="901430" />
	</node>
<<<<<<< HEAD
	<node lat="62.21922499669156" lon="5.350622228248225" id="-1033">
		<tag k="name" v="Kletten" />
=======
	<node id="-61341" lat="62.2041055592" lon="5.67046666728">
		<tag k="name" v="Keipen" />
>>>>>>> e1d4bc35ff8a6074a6f2e91616a996b547c36f15
		<tag k="natural" v="hill" />
		<tag k="place" v="locality" />
		<tag k="ssr:stedsnr" v="860588" />
	</node>
<<<<<<< HEAD
	<node lat="62.20553888602677" lon="5.581750000216006" id="-1037">
		<tag k="name" v="Gardebruna" />
		<tag k="natural" v="ridge" />
=======
	<node id="-60738" lat="62.2650805531" lon="5.59689166674">
		<tag k="fixme" v="consider natural=peak for the most distinct mountains in the district" />
		<tag k="name" v="Fjellsenden" />
		<tag k="natural" v="hill" />
		<tag k="place" v="locality" />
		<tag k="ssr:stedsnr" v="921532" />
	</node>
	<node id="-61321" lat="62.2647666652" lon="5.59348332543">
		<tag k="name" v="Nausane" />
		<tag k="natural" v="hill" />
		<tag k="place" v="locality" />
		<tag k="ssr:stedsnr" v="827241" />
	</node>
	<node id="-60808" lat="62.2270583374" lon="5.67869166536">
		<tag k="name" v="Kleiva" />
		<tag k="natural" v="slope" />
>>>>>>> e1d4bc35ff8a6074a6f2e91616a996b547c36f15
		<tag k="place" v="locality" />
		<tag k="ssr:stedsnr" v="764006" />
	</node>
<<<<<<< HEAD
	<node lat="62.24301388808695" lon="5.58542499476341" id="-1038">
		<tag k="name" v="Nauthaugane" />
=======
	<node id="-60807" lat="62.2091722243" lon="5.57042222058">
		<tag k="name" v="Varden" />
>>>>>>> e1d4bc35ff8a6074a6f2e91616a996b547c36f15
		<tag k="natural" v="hill" />
		<tag k="place" v="locality" />
		<tag k="ssr:stedsnr" v="764001" />
	</node>
<<<<<<< HEAD
	<node lat="62.211769440332056" lon="5.467738887419365" id="-1039">
		<tag k="name" v="Kviehaugen" />
=======
	<node id="-61318" lat="62.2622805527" lon="5.46614444359">
		<tag k="name" v="Grøntua" />
>>>>>>> e1d4bc35ff8a6074a6f2e91616a996b547c36f15
		<tag k="natural" v="hill" />
		<tag k="place" v="locality" />
		<tag k="ssr:stedsnr" v="766112" />
	</node>
<<<<<<< HEAD
	<node lat="62.241883329199545" lon="5.613122228350394" id="-1041">
		<tag k="name" v="Litlebødalen" />
		<tag k="natural" v="valley" />
		<tag k="place" v="locality" />
		<tag k="ssr:stedsnr" v="766007" />
	</node>
	<node lat="62.20734722302602" lon="5.39940278229727" id="-1048">
		<tag k="name" v="Høgenipa" />
=======
	<node id="-61317" lat="62.2443638888" lon="5.43948889717">
		<tag k="name" v="Klivberget" />
>>>>>>> e1d4bc35ff8a6074a6f2e91616a996b547c36f15
		<tag k="natural" v="hill" />
		<tag k="place" v="locality" />
		<tag k="ssr:stedsnr" v="766299" />
	</node>
<<<<<<< HEAD
	<node lat="62.258363885038165" lon="5.400958342315793" id="-1053">
		<tag k="alt_name" v="Dallsteinen" />
		<tag k="name" v="Dollsteinen" />
=======
	<node id="-61316" lat="62.2482833341" lon="5.45358055722">
		<tag k="name" v="Kleivahaugane" />
>>>>>>> e1d4bc35ff8a6074a6f2e91616a996b547c36f15
		<tag k="natural" v="hill" />
		<tag k="place" v="locality" />
		<tag k="ssr:stedsnr" v="800503" />
	</node>
	<node lat="62.27281111541843" lon="5.603288887904048" id="-1054">
		<tag k="name" v="Gjerdseidet" />
		<tag k="natural" v="valley" />
		<tag k="place" v="locality" />
		<tag k="ssr:stedsnr" v="800506" />
	</node>
	<node lat="62.21045277478582" lon="5.617905564763184" id="-1056">
		<tag k="name" v="Knottahornet" />
		<tag k="natural" v="hill" />
		<tag k="place" v="locality" />
		<tag k="ssr:stedsnr" v="800524" />
	</node>
	<node lat="62.25112777794269" lon="5.5948055564348325" id="-1066">
		<tag k="name" v="Botnen" />
		<tag k="natural" v="valley" />
		<tag k="place" v="locality" />
		<tag k="ssr:stedsnr" v="921960" />
	</node>
	<node lat="62.25041944579642" lon="5.63583610718404" id="-1067">
		<tag k="name" v="Kalvegjerdet" />
		<tag k="natural" v="valley" />
		<tag k="place" v="locality" />
		<tag k="ssr:stedsnr" v="827024" />
	</node>
<<<<<<< HEAD
	<node lat="62.26478611125881" lon="5.598938886320146" id="-1068">
		<tag k="name" v="Vardhornet" />
		<tag k="natural" v="hill" />
		<tag k="place" v="locality" />
		<tag k="ssr:stedsnr" v="827027" />
	</node>
	<node lat="62.26005833288159" lon="5.461733332355583" id="-1073">
=======
	<node id="-61315" lat="62.2600583329" lon="5.46173333236">
>>>>>>> e1d4bc35ff8a6074a6f2e91616a996b547c36f15
		<tag k="name" v="Hjellabrautene" />
		<tag k="natural" v="slope" />
		<tag k="place" v="locality" />
		<tag k="ssr:stedsnr" v="827185" />
	</node>
<<<<<<< HEAD
	<node lat="62.26228055270336" lon="5.466144443592233" id="-1078">
		<tag k="name" v="Grøntua" />
		<tag k="natural" v="hill" />
		<tag k="place" v="locality" />
		<tag k="ssr:stedsnr" v="827215" />
	</node>
	<node lat="62.21698889054028" lon="5.365711102402692" id="-1081">
		<tag k="name" v="Nipa" />
		<tag k="natural" v="hill" />
=======
	<node id="-61313" lat="62.2334916651" lon="5.35343332906">
		<tag k="name" v="Hellaren" />
>>>>>>> e1d4bc35ff8a6074a6f2e91616a996b547c36f15
		<tag k="place" v="locality" />
		<tag k="ssr:stedsnr" v="827262" />
	</node>
<<<<<<< HEAD
	<node lat="62.2357222231617" lon="5.697888891797282" id="-1092">
		<tag k="alt_name" v="Grøthornet;Rauddalshornet;Røddalshornet" />
		<tag k="name" v="Røddalshorn" />
		<tag k="natural" v="hill" />
		<tag k="place" v="locality" />
		<tag k="ssr:stedsnr" v="860659" />
	</node>
	<node lat="62.23819444808628" lon="5.602333339734007" id="-1095">
		<tag k="name" v="Kråkereidhammaren" />
		<tag k="natural" v="cliff" />
		<tag k="ssr:stedsnr" v="887002" />
	</node>
	<node lat="62.235022218885376" lon="5.703669442170045" id="-1097">
		<tag k="name" v="Båtefjellet" />
		<tag k="natural" v="ridge" />
		<tag k="place" v="locality" />
		<tag k="ssr:stedsnr" v="887117" />
	</node>
	<node lat="62.20411666496334" lon="5.685847217557959" id="-1098">
		<tag k="fixme" v="consider natural=peak for the most distinct mountains in the district" />
		<tag k="name" v="Kringstadnakken" />
=======
	<node id="-61311" lat="62.1977722253" lon="5.66147776991">
		<tag k="name" v="Torsethornet" />
>>>>>>> e1d4bc35ff8a6074a6f2e91616a996b547c36f15
		<tag k="natural" v="hill" />
		<tag k="place" v="locality" />
		<tag k="ssr:stedsnr" v="887118" />
	</node>
<<<<<<< HEAD
	<node lat="62.2414249992723" lon="5.6897750078078575" id="-1099">
		<tag k="name" v="Rindehola" />
		<tag k="natural" v="valley" />
=======
	<node id="-61310" lat="62.2016833293" lon="5.66824722301">
		<tag k="name" v="Torset-torvet" />
>>>>>>> e1d4bc35ff8a6074a6f2e91616a996b547c36f15
		<tag k="place" v="locality" />
		<tag k="ssr:stedsnr" v="887153" />
	</node>
<<<<<<< HEAD
	<node lat="62.19524999575516" lon="5.589102784571321" id="-1101">
		<tag k="name" v="Breivikryggen" />
		<tag k="natural" v="ridge" />
		<tag k="place" v="locality" />
		<tag k="ssr:stedsnr" v="887055" />
	</node>
	<node lat="62.212650000088004" lon="5.403566671561845" id="-1102">
		<tag k="name" v="Kalsneshornet" />
		<tag k="natural" v="hill" />
		<tag k="place" v="locality" />
		<tag k="ssr:stedsnr" v="887100" />
	</node>
	<node lat="62.203997223036275" lon="5.692349995415939" id="-1105">
		<tag k="name" v="Skylet" />
=======
	<node id="-61309" lat="62.2320472242" lon="5.65219444672">
		<tag k="name" v="Sæssheida" />
>>>>>>> e1d4bc35ff8a6074a6f2e91616a996b547c36f15
		<tag k="natural" v="slope" />
		<tag k="place" v="locality" />
		<tag k="ssr:stedsnr" v="887215" />
	</node>
<<<<<<< HEAD
	<node lat="62.2256861137425" lon="5.569258335574775" id="-1106">
		<tag k="name" v="Todeberga" />
		<tag k="natural" v="hill" />
		<tag k="place" v="locality" />
		<tag k="ssr:stedsnr" v="887218" />
	</node>
	<node lat="62.24983055804233" lon="5.536027775140881" id="-1107">
		<tag k="name" v="Trodene" />
		<tag k="natural" v="slope" />
		<tag k="place" v="locality" />
		<tag k="ssr:stedsnr" v="887200" />
	</node>
	<node lat="62.20083055951146" lon="5.641644442457293" id="-1109">
		<tag k="fixme" v="multiple name tags, choose one and add the other to alt_name" />
		<tag k="name" v="Veten;Saudehornet" />
=======
	<node id="-60796" lat="62.2026305582" lon="5.67997221984">
		<tag k="name" v="Almefjellet" />
		<tag k="natural" v="slope" />
		<tag k="place" v="locality" />
		<tag k="ssr:stedsnr" v="948160" />
	</node>
	<node id="-61307" lat="62.2421027821" lon="5.47445555881">
		<tag k="name" v="Gløsen" />
>>>>>>> e1d4bc35ff8a6074a6f2e91616a996b547c36f15
		<tag k="natural" v="hill" />
		<tag k="place" v="locality" />
		<tag k="ssr:stedsnr" v="920535" />
	</node>
<<<<<<< HEAD
	<node lat="62.24489444472614" lon="5.579538882815799" id="-1110">
		<tag k="name" v="Hanen" />
		<tag k="natural" v="hill" />
=======
	<node id="-60794" lat="62.2133055585" lon="5.61861666572">
		<tag k="name" v="Djupedalen" />
		<tag k="natural" v="valley" />
>>>>>>> e1d4bc35ff8a6074a6f2e91616a996b547c36f15
		<tag k="place" v="locality" />
		<tag k="ssr:stedsnr" v="920602" />
	</node>
<<<<<<< HEAD
	<node lat="62.265080553101356" lon="5.596891666736578" id="-1112">
		<tag k="fixme" v="consider natural=peak for the most distinct mountains in the district" />
		<tag k="name" v="Fjellsenden" />
=======
	<node id="-60792" lat="62.2722861139" lon="5.56875556478">
		<tag k="name" v="Storeheida" />
>>>>>>> e1d4bc35ff8a6074a6f2e91616a996b547c36f15
		<tag k="natural" v="hill" />
		<tag k="place" v="locality" />
		<tag k="ssr:stedsnr" v="921532" />
	</node>
<<<<<<< HEAD
	<node lat="62.22307777481274" lon="5.55811388938565" id="-1120">
		<tag k="name" v="Geitaskaret" />
		<tag k="natural" v="valley" />
		<tag k="place" v="locality" />
		<tag k="ssr:stedsnr" v="947036" />
	</node>
	<node lat="62.23069444100124" lon="5.53442776884957" id="-1121">
		<tag k="name" v="Storklubben" />
		<tag k="natural" v="hill" />
		<tag k="place" v="locality" />
		<tag k="ssr:stedsnr" v="947040" />
	</node>
	<node lat="62.27286944746699" lon="5.553349998798528" id="-1124">
=======
	<node id="-60564" lat="62.2427916683" lon="5.5653916707">
		<tag k="name" v="Blåsvædet" />
		<tag k="natural" v="slope" />
		<tag k="place" v="locality" />
		<tag k="ssr:stedsnr" v="400004" />
	</node>
	<node id="-60789" lat="62.2728694475" lon="5.5533499988">
>>>>>>> e1d4bc35ff8a6074a6f2e91616a996b547c36f15
		<tag k="name" v="Gyljehamrane" />
		<tag k="natural" v="cliff" />
		<tag k="ssr:stedsnr" v="947053" />
	</node>
<<<<<<< HEAD
	<node lat="62.27228611392229" lon="5.568755564782934" id="-1127">
		<tag k="name" v="Storeheida" />
=======
	<node id="-61300" lat="62.2647861113" lon="5.59893888632">
		<tag k="name" v="Vardhornet" />
>>>>>>> e1d4bc35ff8a6074a6f2e91616a996b547c36f15
		<tag k="natural" v="hill" />
		<tag k="place" v="locality" />
		<tag k="ssr:stedsnr" v="948110" />
	</node>
<<<<<<< HEAD
	<node lat="62.22112777655202" lon="5.721508336473147" id="-1128">
		<tag k="name" v="Fossakjerringa" />
		<tag k="natural" v="hill" />
		<tag k="place" v="locality" />
		<tag k="ssr:stedsnr" v="948128" />
	</node>
	<node lat="62.231661110825016" lon="5.641124996690702" id="-1132">
		<tag k="name" v="Kalvegylet" />
=======
	<node id="-61299" lat="62.2504194458" lon="5.63583610718">
		<tag k="name" v="Kalvegjerdet" />
>>>>>>> e1d4bc35ff8a6074a6f2e91616a996b547c36f15
		<tag k="natural" v="valley" />
		<tag k="place" v="locality" />
		<tag k="ssr:stedsnr" v="948017" />
	</node>
<<<<<<< HEAD
	<node lat="62.24559722041963" lon="5.595669446188395" id="-1134">
		<tag k="name" v="Langedalen" />
		<tag k="natural" v="valley" />
=======
	<node id="-60786" lat="62.2848166656" lon="5.57449999961">
		<tag k="alt_name" v="Hidsegga" />
		<tag k="fixme" v="consider natural=peak for the most distinct mountains in the district" />
		<tag k="name" v="Veten" />
		<tag k="natural" v="hill" />
>>>>>>> e1d4bc35ff8a6074a6f2e91616a996b547c36f15
		<tag k="place" v="locality" />
		<tag k="ssr:stedsnr" v="948023" />
	</node>
<<<<<<< HEAD
	<node lat="62.24688611176776" lon="5.6621472208547114" id="-1135">
		<tag k="name" v="Riks-stallane" />
		<tag k="natural" v="slope" />
		<tag k="place" v="locality" />
		<tag k="ssr:stedsnr" v="948031" />
	</node>
	<node lat="62.21304166300176" lon="5.629152772027923" id="-1140">
		<tag k="name" v="Paradis" />
=======
	<node id="-61295" lat="62.2184499983" lon="5.66692777086">
		<tag k="fixme" v="consider natural=peak for the most distinct mountains in the district" />
		<tag k="name" v="Litlefjellet" />
		<tag k="natural" v="hill" />
>>>>>>> e1d4bc35ff8a6074a6f2e91616a996b547c36f15
		<tag k="place" v="locality" />
		<tag k="ssr:stedsnr" v="948208" />
	</node>
<<<<<<< HEAD
	<node lat="62.2480166684654" lon="5.624205564293465" id="-1141">
		<tag k="name" v="Klovane" />
		<tag k="place" v="locality" />
		<tag k="ssr:stedsnr" v="948214" />
	</node>
	<node lat="62.20917222427121" lon="5.570422220575201" id="-1143">
		<tag k="name" v="Varden" />
=======
	<node id="-61294" lat="62.2240444455" lon="5.53336665839">
		<tag k="name" v="Kattaberget" />
>>>>>>> e1d4bc35ff8a6074a6f2e91616a996b547c36f15
		<tag k="natural" v="hill" />
		<tag k="place" v="locality" />
		<tag k="ssr:stedsnr" v="948223" />
	</node>
<<<<<<< HEAD
	<node lat="62.21181944852039" lon="5.711683337878416" id="-1159">
		<tag k="alt_name" v="Storevasshornet" />
		<tag k="name" v="Vasshornet" />
		<tag k="natural" v="hill" />
		<tag k="place" v="locality" />
		<tag k="ssr:stedsnr" v="11539" />
	</node>
	<node lat="62.197930559795495" lon="5.400963895372458" id="-1160">
		<tag k="alt_name" v="Hestehammaren" />
		<tag k="name" v="Hesthamaren" />
=======
	<node id="-60780" lat="62.2629722208" lon="5.59918332494">
		<tag k="name" v="Brandhornet" />
		<tag k="natural" v="hill" />
		<tag k="place" v="locality" />
		<tag k="ssr:stedsnr" v="888023" />
	</node>
	<node id="-61290" lat="62.2104527748" lon="5.61790556476">
		<tag k="name" v="Knottahornet" />
>>>>>>> e1d4bc35ff8a6074a6f2e91616a996b547c36f15
		<tag k="natural" v="hill" />
		<tag k="place" v="locality" />
		<tag k="ssr:stedsnr" v="11545" />
	</node>
<<<<<<< HEAD
	<node lat="62.276025000049195" lon="5.556261117823317" id="-1167">
		<tag k="name" v="Kloven" />
=======
	<node id="-61288" lat="62.2728111154" lon="5.6032888879">
		<tag k="name" v="Gjerdseidet" />
>>>>>>> e1d4bc35ff8a6074a6f2e91616a996b547c36f15
		<tag k="natural" v="valley" />
		<tag k="place" v="locality" />
		<tag k="ssr:stedsnr" v="36040" />
	</node>
<<<<<<< HEAD
	<node lat="62.24475277599844" lon="5.673377776644609" id="-1174">
		<tag k="name" v="Blåfjellet" />
		<tag k="place" v="locality" />
		<tag k="ssr:stedsnr" v="38082" />
	</node>
	<node lat="62.266877780869414" lon="5.602361114153556" id="-1175">
		<tag k="name" v="Brandhornet" />
=======
	<node id="-61287" lat="62.258363885" lon="5.40095834232">
		<tag k="alt_name" v="Dallsteinen" />
		<tag k="name" v="Dollsteinen" />
>>>>>>> e1d4bc35ff8a6074a6f2e91616a996b547c36f15
		<tag k="natural" v="hill" />
		<tag k="place" v="locality" />
		<tag k="ssr:stedsnr" v="38084" />
	</node>
<<<<<<< HEAD
	<node lat="62.2440527739588" lon="5.691266673010316" id="-1176">
		<tag k="name" v="Rindehola" />
		<tag k="natural" v="slope" />
=======
	<node id="-60774" lat="62.2350222189" lon="5.70366944217">
		<tag k="name" v="Båtefjellet" />
		<tag k="natural" v="ridge" />
>>>>>>> e1d4bc35ff8a6074a6f2e91616a996b547c36f15
		<tag k="place" v="locality" />
		<tag k="ssr:stedsnr" v="38089" />
	</node>
<<<<<<< HEAD
	<node lat="62.208377780028535" lon="5.689580546098787" id="-1178">
		<tag k="name" v="Almestadbrauta" />
		<tag k="natural" v="slope" />
=======
	<node id="-61285" lat="62.2308388857" lon="5.6583138837">
		<tag k="name" v="Årekinna" />
		<tag k="natural" v="hill" />
>>>>>>> e1d4bc35ff8a6074a6f2e91616a996b547c36f15
		<tag k="place" v="locality" />
		<tag k="ssr:stedsnr" v="38097" />
	</node>
<<<<<<< HEAD
	<node lat="62.213161114767544" lon="5.343569435631373" id="-1179">
		<tag k="name" v="Kålskotet" />
=======
	<node id="-61284" lat="62.2349666648" lon="5.64277500389">
		<tag k="alt_name" v="Sæsshornet" />
		<tag k="name" v="Sæshorn" />
>>>>>>> e1d4bc35ff8a6074a6f2e91616a996b547c36f15
		<tag k="natural" v="hill" />
		<tag k="place" v="locality" />
		<tag k="ssr:stedsnr" v="38171" />
	</node>
<<<<<<< HEAD
	<node lat="62.25204444509452" lon="5.562016668724785" id="-1182">
		<tag k="name" v="Svædane" />
		<tag k="natural" v="slope" />
		<tag k="place" v="locality" />
		<tag k="ssr:stedsnr" v="38198" />
	</node>
	<node lat="62.27954166577075" lon="5.564011102400513" id="-1190">
		<tag k="name" v="Støylen" />
		<tag k="natural" v="slope" />
=======
	<node id="-60536" lat="62.2554333362" lon="5.4192527847">
		<tag k="name" v="Signalen" />
		<tag k="natural" v="hill" />
		<tag k="place" v="locality" />
		<tag k="ssr:stedsnr" v="462233" />
	</node>
	<node id="-61277" lat="62.2414499961" lon="5.48743888346">
		<tag k="name" v="Vorakletten" />
		<tag k="natural" v="hill" />
>>>>>>> e1d4bc35ff8a6074a6f2e91616a996b547c36f15
		<tag k="place" v="locality" />
		<tag k="ssr:stedsnr" v="38235" />
	</node>
<<<<<<< HEAD
	<node lat="62.20568332976332" lon="5.630019447488683" id="-1195">
		<tag k="name" v="Morkabakkane" />
=======
	<node id="-60730" lat="62.2414166701" lon="5.58113888081">
		<tag k="name" v="Legene" />
		<tag k="natural" v="slope" />
		<tag k="place" v="locality" />
		<tag k="ssr:stedsnr" v="766311" />
	</node>
	<node id="-60762" lat="62.2468861118" lon="5.66214722085">
		<tag k="name" v="Riks-stallane" />
>>>>>>> e1d4bc35ff8a6074a6f2e91616a996b547c36f15
		<tag k="natural" v="slope" />
		<tag k="place" v="locality" />
		<tag k="ssr:stedsnr" v="38253" />
	</node>
<<<<<<< HEAD
	<node lat="62.22592222022031" lon="5.549686104389843" id="-1208">
		<tag k="name" v="Litleskaret" />
=======
	<node id="-60761" lat="62.2455972204" lon="5.59566944619">
		<tag k="name" v="Langedalen" />
>>>>>>> e1d4bc35ff8a6074a6f2e91616a996b547c36f15
		<tag k="natural" v="valley" />
		<tag k="place" v="locality" />
		<tag k="ssr:stedsnr" v="97034" />
	</node>
<<<<<<< HEAD
	<node lat="62.280969444977536" lon="5.554555557764506" id="-1209">
		<tag k="name" v="Storehaugen" />
		<tag k="natural" v="hill" />
		<tag k="place" v="locality" />
		<tag k="ssr:stedsnr" v="97045" />
	</node>
	<node lat="62.25765278132484" lon="5.607002769412556" id="-1210">
		<tag k="name" v="Rindane" />
		<tag k="natural" v="ridge" />
=======
	<node id="-60759" lat="62.2316611108" lon="5.64112499669">
		<tag k="name" v="Kalvegylet" />
		<tag k="natural" v="valley" />
>>>>>>> e1d4bc35ff8a6074a6f2e91616a996b547c36f15
		<tag k="place" v="locality" />
		<tag k="ssr:stedsnr" v="98185" />
	</node>
<<<<<<< HEAD
	<node lat="62.22792777621602" lon="5.656483328637239" id="-1211">
		<tag k="name" v="Holen" />
		<tag k="natural" v="hill" />
		<tag k="place" v="locality" />
		<tag k="ssr:stedsnr" v="98189" />
	</node>
	<node lat="62.205530555379866" lon="5.699438896287039" id="-1212">
		<tag k="name" v="Grønnakken" />
		<tag k="natural" v="ridge" />
		<tag k="place" v="locality" />
		<tag k="ssr:stedsnr" v="98139" />
	</node>
	<node lat="62.199080560261756" lon="5.660950008992923" id="-1213">
		<tag k="name" v="Blåhornet" />
=======
	<node id="-61265" lat="62.207347223" lon="5.3994027823">
		<tag k="name" v="Høgenipa" />
>>>>>>> e1d4bc35ff8a6074a6f2e91616a996b547c36f15
		<tag k="natural" v="hill" />
		<tag k="place" v="locality" />
		<tag k="ssr:stedsnr" v="98140" />
	</node>
<<<<<<< HEAD
	<node lat="62.23076111231128" lon="5.366080558222863" id="-1215">
		<tag k="name" v="Klettane" />
		<tag k="natural" v="hill" />
		<tag k="place" v="locality" />
		<tag k="ssr:stedsnr" v="98150" />
	</node>
	<node lat="62.21575278179325" lon="5.351163884295093" id="-1217">
		<tag k="name" v="Vågekinna" />
		<tag k="natural" v="hill" />
		<tag k="place" v="locality" />
		<tag k="ssr:stedsnr" v="98155" />
	</node>
	<node lat="62.21958055736833" lon="5.719647218009493" id="-1219">
		<tag k="name" v="Skogebotnen" />
		<tag k="natural" v="valley" />
		<tag k="place" v="locality" />
		<tag k="ssr:stedsnr" v="98194" />
	</node>
	<node lat="62.24188333379219" lon="5.575694444205741" id="-1220">
		<tag k="name" v="Slåttene" />
=======
	<node id="-61264" lat="62.2259222236" lon="5.64455555079">
		<tag k="name" v="Rinden" />
		<tag k="natural" v="ridge" />
		<tag k="place" v="locality" />
		<tag k="ssr:stedsnr" v="766238" />
	</node>
	<node id="-61263" lat="62.2346916678" lon="5.72640556292">
		<tag k="name" v="Lemane" />
>>>>>>> e1d4bc35ff8a6074a6f2e91616a996b547c36f15
		<tag k="natural" v="slope" />
		<tag k="place" v="locality" />
		<tag k="ssr:stedsnr" v="98201" />
	</node>
<<<<<<< HEAD
	<node lat="62.2565222240193" lon="5.550927777949928" id="-1221">
		<tag k="name" v="Klombra" />
		<tag k="natural" v="slope" />
=======
	<node id="-60749" lat="62.2357222232" lon="5.6978888918">
		<tag k="alt_name" v="Grøthornet;Rauddalshornet;Røddalshornet" />
		<tag k="name" v="Røddalshorn" />
		<tag k="natural" v="hill" />
>>>>>>> e1d4bc35ff8a6074a6f2e91616a996b547c36f15
		<tag k="place" v="locality" />
		<tag k="ssr:stedsnr" v="98276" />
	</node>
<<<<<<< HEAD
	<node lat="62.234463888969735" lon="5.348866661150784" id="-1222">
		<tag k="name" v="Hanslida" />
		<tag k="natural" v="slope" />
		<tag k="place" v="locality" />
		<tag k="ssr:stedsnr" v="98279" />
	</node>
	<node lat="62.2831888896429" lon="5.585783334857409" id="-1225">
		<tag k="name" v="Høgehonnet" />
=======
	<node id="-60642" lat="62.2078777744" lon="5.37420000763">
		<tag k="name" v="Storefjellet" />
		<tag k="natural" v="hill" />
		<tag k="place" v="locality" />
		<tag k="ssr:stedsnr" v="705188" />
	</node>
	<node id="-61256" lat="62.170394441" lon="5.39546666419">
		<tag k="name" v="Tevassberga" />
>>>>>>> e1d4bc35ff8a6074a6f2e91616a996b547c36f15
		<tag k="natural" v="hill" />
		<tag k="place" v="locality" />
		<tag k="ssr:stedsnr" v="99088" />
	</node>
<<<<<<< HEAD
	<node lat="62.26945277717322" lon="5.603269442616308" id="-1226">
		<tag k="name" v="Høgehornet" />
=======
	<node id="-61254" lat="62.2616361079" lon="5.59623888397">
		<tag k="name" v="Stellehornet" />
>>>>>>> e1d4bc35ff8a6074a6f2e91616a996b547c36f15
		<tag k="natural" v="hill" />
		<tag k="place" v="locality" />
		<tag k="ssr:stedsnr" v="99091" />
	</node>
<<<<<<< HEAD
	<node lat="62.208902774257346" lon="5.724705556882838" id="-1228">
		<tag k="name" v="Tempelskaret" />
=======
	<node id="-60741" lat="62.2511277779" lon="5.59480555643">
		<tag k="name" v="Botnen" />
>>>>>>> e1d4bc35ff8a6074a6f2e91616a996b547c36f15
		<tag k="natural" v="valley" />
		<tag k="place" v="locality" />
		<tag k="ssr:stedsnr" v="99107" />
	</node>
<<<<<<< HEAD
	<node lat="62.26018333793472" lon="5.599558340432054" id="-1229">
		<tag k="name" v="Nyklane" />
=======
	<node id="-61252" lat="62.2418833292" lon="5.61312222835">
		<tag k="name" v="Litlebødalen" />
		<tag k="natural" v="valley" />
>>>>>>> e1d4bc35ff8a6074a6f2e91616a996b547c36f15
		<tag k="place" v="locality" />
		<tag k="ssr:stedsnr" v="99020" />
	</node>
<<<<<<< HEAD
	<node lat="62.254838885411196" lon="5.412586106288504" id="-1230">
		<tag k="name" v="Raudehammaren" />
=======
	<node id="-61250" lat="62.2129944409" lon="5.68571666684">
		<tag k="name" v="Holmen" />
>>>>>>> e1d4bc35ff8a6074a6f2e91616a996b547c36f15
		<tag k="place" v="locality" />
		<tag k="ssr:stedsnr" v="99052" />
	</node>
<<<<<<< HEAD
	<node lat="62.263038884247834" lon="5.423194436587681" id="-1231">
		<tag k="fixme" v="consider natural=peak for the most distinct mountains in the district" />
		<tag k="name" v="Hellandsfjellet" />
=======
	<node id="-61245" lat="62.2309055522" lon="5.67910277044">
		<tag k="name" v="Helleberget" />
>>>>>>> e1d4bc35ff8a6074a6f2e91616a996b547c36f15
		<tag k="natural" v="hill" />
		<tag k="place" v="locality" />
		<tag k="ssr:stedsnr" v="99055" />
	</node>
<<<<<<< HEAD
	<node lat="62.26530277389018" lon="5.428455558526574" id="-1242">
		<tag k="alt_name" v="Svadfjellet" />
		<tag k="fixme" v="consider natural=peak for the most distinct mountains in the district" />
		<tag k="name" v="Hellandsfjella" />
=======
	<node id="-60732" lat="62.2448944447" lon="5.57953888282">
		<tag k="name" v="Hanen" />
>>>>>>> e1d4bc35ff8a6074a6f2e91616a996b547c36f15
		<tag k="natural" v="hill" />
		<tag k="place" v="locality" />
		<tag k="ssr:stedsnr" v="132499" />
	</node>
<<<<<<< HEAD
	<node lat="62.21296944732398" lon="5.3472388958763" id="-1247">
		<tag k="alt_name" v="Ørnefjellet" />
		<tag k="name" v="Småvardane" />
=======
	<node id="-60731" lat="62.2008305595" lon="5.64164444246">
		<tag k="fixme" v="multiple name tags, choose one and add the other to alt_name" />
		<tag k="name" v="Saudehornet;Veten" />
>>>>>>> e1d4bc35ff8a6074a6f2e91616a996b547c36f15
		<tag k="natural" v="hill" />
		<tag k="place" v="locality" />
		<tag k="ssr:stedsnr" v="132582" />
	</node>
<<<<<<< HEAD
	<node lat="62.20597221879294" lon="5.603013897420194" id="-1250">
		<tag k="name" v="Grøthornet" />
		<tag k="natural" v="hill" />
		<tag k="place" v="locality" />
		<tag k="ssr:stedsnr" v="132518" />
	</node>
	<node lat="62.22931666412225" lon="5.551391658666613" id="-1255">
		<tag k="name" v="Mannegylet" />
=======
	<node id="-61242" lat="62.2113194417" lon="5.5840138917">
		<tag k="name" v="Kvernhusdalen" />
>>>>>>> e1d4bc35ff8a6074a6f2e91616a996b547c36f15
		<tag k="natural" v="valley" />
		<tag k="place" v="locality" />
		<tag k="ssr:stedsnr" v="158053" />
	</node>
<<<<<<< HEAD
	<node lat="62.21808889062217" lon="5.393597218935723" id="-1256">
		<tag k="name" v="Bakkane" />
		<tag k="natural" v="slope" />
=======
	<node id="-60728" lat="62.2117694403" lon="5.46773888742">
		<tag k="name" v="Kviehaugen" />
		<tag k="natural" v="hill" />
>>>>>>> e1d4bc35ff8a6074a6f2e91616a996b547c36f15
		<tag k="place" v="locality" />
		<tag k="ssr:stedsnr" v="159293" />
	</node>
<<<<<<< HEAD
	<node lat="62.276436108055" lon="5.589649996698382" id="-1258">
		<tag k="name" v="Djupdekkene" />
		<tag k="natural" v="valley" />
=======
	<node id="-61239" lat="62.205538886" lon="5.58175000022">
		<tag k="name" v="Gardebruna" />
		<tag k="natural" v="ridge" />
>>>>>>> e1d4bc35ff8a6074a6f2e91616a996b547c36f15
		<tag k="place" v="locality" />
		<tag k="ssr:stedsnr" v="159095" />
	</node>
<<<<<<< HEAD
	<node lat="62.230138888233604" lon="5.539819443828047" id="-1262">
		<tag k="name" v="Skaret" />
		<tag k="natural" v="valley" />
=======
	<node id="-61238" lat="62.2430138881" lon="5.58542499476">
		<tag k="name" v="Nauthaugane" />
		<tag k="natural" v="hill" />
>>>>>>> e1d4bc35ff8a6074a6f2e91616a996b547c36f15
		<tag k="place" v="locality" />
		<tag k="ssr:stedsnr" v="159220" />
	</node>
<<<<<<< HEAD
	<node lat="62.240625003531775" lon="5.570888887061677" id="-1268">
		<tag k="name" v="Skinstødet" />
		<tag k="natural" v="slope" />
=======
	<node id="-60725" lat="62.2095833326" lon="5.38200277262">
		<tag k="name" v="Inste Nonshornet" />
		<tag k="natural" v="hill" />
>>>>>>> e1d4bc35ff8a6074a6f2e91616a996b547c36f15
		<tag k="place" v="locality" />
		<tag k="ssr:stedsnr" v="159247" />
	</node>
<<<<<<< HEAD
	<node lat="62.24748611240995" lon="5.652191661224837" id="-1285">
		<tag k="name" v="Meldalen" />
		<tag k="natural" v="valley" />
=======
	<node id="-60534" lat="62.2584194471" lon="5.45745555336">
		<tag k="name" v="Arehaugen" />
		<tag k="natural" v="hill" />
		<tag k="place" v="locality" />
		<tag k="ssr:stedsnr" v="462187" />
	</node>
	<node id="-60381" lat="62.2131611148" lon="5.34356943563">
		<tag k="name" v="Kålskotet" />
		<tag k="natural" v="hill" />
		<tag k="place" v="locality" />
		<tag k="ssr:stedsnr" v="38171" />
	</node>
	<node id="-61227" lat="62.2475305593" lon="5.62295834115">
		<tag k="name" v="Nørdbergsheida" />
		<tag k="natural" v="hill" />
>>>>>>> e1d4bc35ff8a6074a6f2e91616a996b547c36f15
		<tag k="place" v="locality" />
		<tag k="ssr:stedsnr" v="192621" />
	</node>
<<<<<<< HEAD
	<node lat="62.245030553815866" lon="5.567925002226772" id="-1286">
		<tag k="alt_name" v="Egga" />
		<tag k="name" v="Saursegga" />
=======
	<node id="-60713" lat="62.2620361156" lon="5.47252777957">
		<tag k="fixme" v="consider natural=peak for the most distinct mountains in the district" />
		<tag k="name" v="Sjurfjellet" />
>>>>>>> e1d4bc35ff8a6074a6f2e91616a996b547c36f15
		<tag k="natural" v="hill" />
		<tag k="place" v="locality" />
		<tag k="ssr:stedsnr" v="192625" />
	</node>
<<<<<<< HEAD
	<node lat="62.28474225408774" lon="5.574595587923688" id="-1297">
		<tag k="fixme" v="consider natural=peak for the most distinct mountains in the district" />
		<tag k="name" v="Hidsegga" />
		<tag k="natural" v="hill" />
		<tag k="place" v="locality" />
		<tag k="ssr:stedsnr" v="193544" />
	</node>
	<node lat="62.209894445319904" lon="5.399961111692059" id="-1304">
		<tag k="alt_name" v="Storenausen" />
		<tag k="name" v="Skinhammaren" />
=======
	<node id="-61222" lat="62.2233861103" lon="5.72850278381">
		<tag k="name" v="Stikktua" />
>>>>>>> e1d4bc35ff8a6074a6f2e91616a996b547c36f15
		<tag k="natural" v="hill" />
		<tag k="place" v="locality" />
		<tag k="ssr:stedsnr" v="193590" />
	</node>
<<<<<<< HEAD
	<node lat="62.21733332962373" lon="5.385061103731432" id="-1305">
		<tag k="alt_name" v="Oddeshornet" />
		<tag k="name" v="Oddelshornet" />
		<tag k="natural" v="hill" />
=======
	<node id="-61220" lat="62.2057361121" lon="5.75838333069">
		<tag k="name" v="Stigen" />
		<tag k="natural" v="slope" />
>>>>>>> e1d4bc35ff8a6074a6f2e91616a996b547c36f15
		<tag k="place" v="locality" />
		<tag k="ssr:stedsnr" v="193592" />
	</node>
<<<<<<< HEAD
	<node lat="62.22028063569098" lon="5.577945892908813" id="-1307">
		<tag k="alt_name" v="Sandviktua" />
		<tag k="fixme" v="consider natural=peak for the most distinct mountains in the district" />
		<tag k="name" v="Storehornet" />
=======
	<node id="-61219" lat="62.2306722233" lon="5.62935555363">
		<tag k="name" v="Tua" />
>>>>>>> e1d4bc35ff8a6074a6f2e91616a996b547c36f15
		<tag k="natural" v="hill" />
		<tag k="place" v="locality" />
		<tag k="ssr:stedsnr" v="193599" />
	</node>
<<<<<<< HEAD
	<node lat="62.22878611068219" lon="5.54192777390103" id="-1309">
		<tag k="alt_name" v="Nupatinden;Hollenupen" />
		<tag k="name" v="Nupen" />
=======
	<node id="-61218" lat="62.2220611138" lon="5.37861110542">
		<tag k="name" v="Seleberget" />
>>>>>>> e1d4bc35ff8a6074a6f2e91616a996b547c36f15
		<tag k="natural" v="hill" />
		<tag k="place" v="locality" />
		<tag k="ssr:stedsnr" v="193620" />
	</node>
<<<<<<< HEAD
	<node lat="62.22585832937998" lon="5.564683335452246" id="-1315">
		<tag k="name" v="Legene" />
		<tag k="place" v="locality" />
		<tag k="ssr:stedsnr" v="220017" />
	</node>
	<node lat="62.24692222166102" lon="5.590861105473249" id="-1316">
		<tag k="name" v="Grøthornet" />
=======
	<node id="-61214" lat="62.2254194482" lon="5.59746389477">
		<tag k="name" v="Storetua" />
>>>>>>> e1d4bc35ff8a6074a6f2e91616a996b547c36f15
		<tag k="natural" v="hill" />
		<tag k="place" v="locality" />
		<tag k="ssr:stedsnr" v="220019" />
	</node>
<<<<<<< HEAD
	<node lat="62.2089749971862" lon="5.3619999912777585" id="-1320">
		<tag k="name" v="Bakkehornet" />
		<tag k="natural" v="hill" />
		<tag k="place" v="locality" />
		<tag k="ssr:stedsnr" v="220189" />
	</node>
	<node lat="62.21342777536516" lon="5.3600111135860775" id="-1321">
		<tag k="name" v="Ellingfjellet" />
=======
	<node id="-60805" lat="62.2480166685" lon="5.62420556429">
		<tag k="name" v="Klovane" />
		<tag k="place" v="locality" />
		<tag k="ssr:stedsnr" v="948214" />
	</node>
	<node id="-60700" lat="62.2117305527" lon="5.63369166491">
		<tag k="name" v="Nonstua" />
>>>>>>> e1d4bc35ff8a6074a6f2e91616a996b547c36f15
		<tag k="natural" v="hill" />
		<tag k="place" v="locality" />
		<tag k="ssr:stedsnr" v="220191" />
	</node>
<<<<<<< HEAD
	<node lat="62.199944445709654" lon="5.659080556200572" id="-1322">
		<tag k="name" v="Egga" />
		<tag k="natural" v="ridge" />
=======
	<node id="-60634" lat="62.1950138873" lon="5.60493889391">
		<tag k="name" v="Kleivahornet" />
		<tag k="natural" v="hill" />
		<tag k="place" v="locality" />
		<tag k="ssr:stedsnr" v="705136" />
	</node>
	<node id="-60696" lat="62.2256861137" lon="5.56925833557">
		<tag k="name" v="Todeberga" />
		<tag k="natural" v="hill" />
>>>>>>> e1d4bc35ff8a6074a6f2e91616a996b547c36f15
		<tag k="place" v="locality" />
		<tag k="ssr:stedsnr" v="220297" />
	</node>
<<<<<<< HEAD
	<node lat="62.195586113470235" lon="5.617655552580209" id="-1325">
		<tag k="name" v="Årvikdalen" />
=======
	<node id="-61207" lat="62.2097805513" lon="5.36999722238">
		<tag k="name" v="Bondeskorene" />
>>>>>>> e1d4bc35ff8a6074a6f2e91616a996b547c36f15
		<tag k="natural" v="valley" />
		<tag k="place" v="locality" />
		<tag k="ssr:stedsnr" v="220163" />
	</node>
<<<<<<< HEAD
	<node lat="62.24600277466258" lon="5.458736105757733" id="-1330">
		<tag k="name" v="Nova" />
=======
	<node id="-60692" lat="62.2218222255" lon="5.44779166859">
		<tag k="name" v="Flødehaugen" />
>>>>>>> e1d4bc35ff8a6074a6f2e91616a996b547c36f15
		<tag k="natural" v="hill" />
		<tag k="place" v="locality" />
		<tag k="ssr:stedsnr" v="220251" />
	</node>
<<<<<<< HEAD
	<node lat="62.20860832981613" lon="5.381922229814129" id="-1336">
		<tag k="name" v="Skarpenausen" />
		<tag k="natural" v="hill" />
		<tag k="place" v="locality" />
		<tag k="ssr:stedsnr" v="280170" />
	</node>
	<node lat="62.2656333331563" lon="5.5712750074440045" id="-1347">
		<tag k="name" v="Bakketun" />
		<tag k="natural" v="slope" />
		<tag k="place" v="locality" />
		<tag k="ssr:stedsnr" v="280249" />
	</node>
	<node lat="62.20364722300712" lon="5.387722224637542" id="-1349">
		<tag k="name" v="Lægdehola" />
=======
	<node id="-61201" lat="62.1927500003" lon="5.60257777975">
		<tag k="name" v="Saudedalen" />
>>>>>>> e1d4bc35ff8a6074a6f2e91616a996b547c36f15
		<tag k="natural" v="valley" />
		<tag k="place" v="locality" />
		<tag k="ssr:stedsnr" v="281071" />
	</node>
<<<<<<< HEAD
	<node lat="62.2592722249254" lon="5.651708331235901" id="-1350">
		<tag k="name" v="Litledalshornet" />
		<tag k="natural" v="hill" />
		<tag k="place" v="locality" />
		<tag k="ssr:stedsnr" v="281074" />
	</node>
	<node lat="62.24418055542142" lon="5.683916659292751" id="-1351">
		<tag k="name" v="Litlerinden" />
		<tag k="natural" v="slope" />
=======
	<node id="-61198" lat="62.273847225" lon="5.60615833323">
		<tag k="name" v="Fjellenden" />
		<tag k="natural" v="slope" />
		<tag k="place" v="locality" />
		<tag k="ssr:stedsnr" v="644084" />
	</node>
	<node id="-60685" lat="62.2521722179" lon="5.53399999557">
		<tag k="name" v="Røysetdalen" />
		<tag k="natural" v="valley" />
>>>>>>> e1d4bc35ff8a6074a6f2e91616a996b547c36f15
		<tag k="place" v="locality" />
		<tag k="ssr:stedsnr" v="281076" />
	</node>
<<<<<<< HEAD
	<node lat="62.207761114223906" lon="5.712019440894731" id="-1352">
		<tag k="name" v="Litledjupdalen" />
=======
	<node id="-60684" lat="62.2270361083" lon="5.53638055941">
		<tag k="name" v="Hellegylet" />
>>>>>>> e1d4bc35ff8a6074a6f2e91616a996b547c36f15
		<tag k="natural" v="valley" />
		<tag k="place" v="locality" />
		<tag k="ssr:stedsnr" v="281083" />
	</node>
<<<<<<< HEAD
	<node lat="62.21037500210576" lon="5.721561106860809" id="-1353">
		<tag k="name" v="Litlevasshornet" />
		<tag k="natural" v="hill" />
=======
	<node id="-61195" lat="62.1950916639" lon="5.40250833517">
		<tag k="name" v="Nesekleiva" />
		<tag k="natural" v="slope" />
>>>>>>> e1d4bc35ff8a6074a6f2e91616a996b547c36f15
		<tag k="place" v="locality" />
		<tag k="ssr:stedsnr" v="281085" />
	</node>
<<<<<<< HEAD
	<node lat="62.20612499867368" lon="5.383380549891422" id="-1357">
		<tag k="name" v="Ørnehaugane" />
=======
	<node id="-61194" lat="62.1755083329" lon="5.39766388904">
		<tag k="name" v="Nøre Kletten" />
>>>>>>> e1d4bc35ff8a6074a6f2e91616a996b547c36f15
		<tag k="natural" v="hill" />
		<tag k="place" v="locality" />
		<tag k="ssr:stedsnr" v="281065" />
	</node>
	<node lat="62.22627778001319" lon="5.726269448093681" id="-1362">
		<tag k="name" v="Leitet" />
		<tag k="place" v="locality" />
		<tag k="ssr:stedsnr" v="281249" />
	</node>
<<<<<<< HEAD
	<node lat="62.2046055575722" lon="5.739074992453353" id="-1365">
		<tag k="name" v="Øydeskrede" />
		<tag k="natural" v="slope" />
		<tag k="place" v="locality" />
		<tag k="ssr:stedsnr" v="314085" />
	</node>
	<node lat="62.211002777743396" lon="5.3756944536057345" id="-1369">
		<tag k="name" v="Nonshornet" />
		<tag k="natural" v="ridge" />
		<tag k="place" v="locality" />
		<tag k="ssr:stedsnr" v="314598" />
	</node>
	<node lat="62.20920277614395" lon="5.411930553246349" id="-1380">
		<tag k="name" v="Djupedalen" />
		<tag k="natural" v="valley" />
=======
	<node id="-60686" lat="62.2381944481" lon="5.60233333973">
		<tag k="name" v="Kråkereidhammaren" />
		<tag k="natural" v="cliff" />
		<tag k="ssr:stedsnr" v="887002" />
	</node>
	<node id="-60674" lat="62.2553916628" lon="5.4197611197">
		<tag k="fixme" v="consider natural=peak for the most distinct mountains in the district" />
		<tag k="name" v="Øyna" />
		<tag k="natural" v="hill" />
>>>>>>> e1d4bc35ff8a6074a6f2e91616a996b547c36f15
		<tag k="place" v="locality" />
		<tag k="ssr:stedsnr" v="341075" />
	</node>
<<<<<<< HEAD
	<node lat="62.20375278168224" lon="5.710075006912928" id="-1383">
		<tag k="name" v="Lidafjellet" />
		<tag k="natural" v="hill" />
		<tag k="place" v="locality" />
		<tag k="ssr:stedsnr" v="341088" />
	</node>
	<node lat="62.25089999739077" lon="5.59713610950374" id="-1385">
		<tag k="name" v="Reitane" />
		<tag k="natural" v="slope" />
=======
	<node id="-60715" lat="62.2192249967" lon="5.35062222825">
		<tag k="name" v="Kletten" />
		<tag k="natural" v="hill" />
		<tag k="place" v="locality" />
		<tag k="ssr:stedsnr" v="739616" />
	</node>
	<node id="-61183" lat="62.2504194472" lon="5.42944721829">
		<tag k="fixme" v="consider natural=peak for the most distinct mountains in the district" />
		<tag k="name" v="Rinden" />
		<tag k="natural" v="hill" />
>>>>>>> e1d4bc35ff8a6074a6f2e91616a996b547c36f15
		<tag k="place" v="locality" />
		<tag k="ssr:stedsnr" v="341018" />
	</node>
<<<<<<< HEAD
	<node lat="62.223313889861906" lon="5.675022231022752" id="-1386">
		<tag k="name" v="Torvberget" />
		<tag k="natural" v="hill" />
		<tag k="place" v="locality" />
		<tag k="ssr:stedsnr" v="341023" />
	</node>
	<node lat="62.21765277632399" lon="5.5970249927410665" id="-1388">
		<tag k="name" v="Sandvikfjellet" />
=======
	<node id="-60668" lat="62.2406500025" lon="5.55633056116">
		<tag k="name" v="Hageberget" />
>>>>>>> e1d4bc35ff8a6074a6f2e91616a996b547c36f15
		<tag k="natural" v="hill" />
		<tag k="place" v="locality" />
		<tag k="ssr:stedsnr" v="341130" />
	</node>
<<<<<<< HEAD
	<node lat="62.20639166614904" lon="5.732830557842793" id="-1389">
		<tag k="name" v="Skredeberget" />
=======
	<node id="-60666" lat="62.2592611129" lon="5.64831944458">
		<tag k="name" v="Syrebakkane" />
>>>>>>> e1d4bc35ff8a6074a6f2e91616a996b547c36f15
		<tag k="natural" v="slope" />
		<tag k="place" v="locality" />
		<tag k="ssr:stedsnr" v="341133" />
	</node>
<<<<<<< HEAD
	<node lat="62.208761110237816" lon="5.567338898061289" id="-1393">
		<tag k="name" v="Varden" />
		<tag k="natural" v="hill" />
		<tag k="place" v="locality" />
		<tag k="ssr:stedsnr" v="341234" />
	</node>
	<node lat="62.22112777321362" lon="5.539630548018433" id="-1394">
		<tag k="name" v="Kråberget" />
		<tag k="natural" v="hill" />
		<tag k="place" v="locality" />
		<tag k="ssr:stedsnr" v="340976" />
	</node>
	<node lat="62.286791664529716" lon="5.572047219387596" id="-1395">
		<tag k="name" v="Store Løsethornet" />
		<tag k="natural" v="hill" />
		<tag k="place" v="locality" />
		<tag k="ssr:stedsnr" v="340982" />
	</node>
	<node lat="62.25045000041258" lon="5.547255549211031" id="-1398">
		<tag k="name" v="Nipa" />
=======
	<node id="-60799" lat="62.1988166707" lon="5.39902776834">
		<tag k="name" v="Leitet" />
		<tag k="natural" v="slope" />
		<tag k="place" v="locality" />
		<tag k="ssr:stedsnr" v="948319" />
	</node>
	<node id="-60372" lat="62.2041583345" lon="5.70085834232">
		<tag k="alt_name" v="Fyret" />
		<tag k="name" v="Fyre" />
		<tag k="natural" v="hill" />
		<tag k="place" v="locality" />
		<tag k="ssr:stedsnr" v="10546" />
	</node>
	<node id="-60798" lat="62.2375638855" lon="5.35980000119">
		<tag k="name" v="Raudhammaren" />
		<tag k="natural" v="hill" />
		<tag k="place" v="locality" />
		<tag k="ssr:stedsnr" v="948169" />
	</node>
	<node id="-61168" lat="62.2260666655" lon="5.65697778144">
		<tag k="name" v="Hanehornet" />
>>>>>>> e1d4bc35ff8a6074a6f2e91616a996b547c36f15
		<tag k="natural" v="hill" />
		<tag k="place" v="locality" />
		<tag k="ssr:stedsnr" v="341328" />
	</node>
<<<<<<< HEAD
	<node lat="62.24072777742982" lon="5.658450001735534" id="-1409">
		<tag k="name" v="Storetua" />
		<tag k="natural" v="hill" />
		<tag k="place" v="locality" />
		<tag k="ssr:stedsnr" v="374596" />
	</node>
	<node lat="62.2243888859246" lon="5.600730550852595" id="-1411">
		<tag k="name" v="Kråkereidet" />
=======
	<node id="-60804" lat="62.213041663" lon="5.62915277203">
		<tag k="name" v="Paradis" />
		<tag k="place" v="locality" />
		<tag k="ssr:stedsnr" v="948208" />
	</node>
	<node id="-60653" lat="62.2109222192" lon="5.37564999916">
		<tag k="name" v="Ytste Nonshornet" />
>>>>>>> e1d4bc35ff8a6074a6f2e91616a996b547c36f15
		<tag k="natural" v="hill" />
		<tag k="place" v="locality" />
		<tag k="ssr:stedsnr" v="374560" />
	</node>
<<<<<<< HEAD
	<node lat="62.21580278186403" lon="5.5898972191231895" id="-1412">
		<tag k="name" v="Drageskaret" />
=======
	<node id="-60651" lat="62.2182999984" lon="5.62966944722">
		<tag k="name" v="Fastinghola" />
>>>>>>> e1d4bc35ff8a6074a6f2e91616a996b547c36f15
		<tag k="natural" v="valley" />
		<tag k="place" v="locality" />
		<tag k="ssr:stedsnr" v="374561" />
	</node>
<<<<<<< HEAD
	<node lat="62.24747222312992" lon="5.694733333249317" id="-1413">
		<tag k="name" v="Sædalen" />
		<tag k="natural" v="valley" />
		<tag k="place" v="locality" />
		<tag k="ssr:stedsnr" v="374574" />
	</node>
	<node lat="62.242791668283736" lon="5.565391670700544" id="-1418">
		<tag k="name" v="Blåsvædet" />
=======
	<node id="-61161" lat="62.2201083327" lon="5.35105000323">
		<tag k="name" v="Halsen" />
		<tag k="natural" v="valley" />
		<tag k="place" v="locality" />
		<tag k="ssr:stedsnr" v="583195" />
	</node>
	<node id="-61159" lat="62.232355559" lon="5.54180832944">
		<tag k="name" v="Langebruna" />
		<tag k="natural" v="ridge" />
		<tag k="place" v="locality" />
		<tag k="ssr:stedsnr" v="583041" />
	</node>
	<node id="-60646" lat="62.1939805577" lon="5.41258055693">
		<tag k="name" v="Røysane" />
>>>>>>> e1d4bc35ff8a6074a6f2e91616a996b547c36f15
		<tag k="natural" v="slope" />
		<tag k="place" v="locality" />
		<tag k="ssr:stedsnr" v="400004" />
	</node>
<<<<<<< HEAD
	<node lat="62.20576111184239" lon="5.587802769424636" id="-1419">
		<tag k="name" v="Sollihøgda" />
		<tag k="natural" v="hill" />
		<tag k="place" v="locality" />
		<tag k="ssr:stedsnr" v="400005" />
	</node>
	<node lat="62.19599722105116" lon="5.673108334248897" id="-1424">
		<tag k="name" v="Torsethammaren" />
		<tag k="natural" v="hill" />
		<tag k="place" v="locality" />
		<tag k="ssr:stedsnr" v="401058" />
	</node>
	<node lat="62.21795555553175" lon="5.550813886802165" id="-1426">
		<tag k="name" v="Notaberget" />
		<tag k="natural" v="hill" />
		<tag k="place" v="locality" />
		<tag k="ssr:stedsnr" v="401972" />
	</node>
	<node lat="62.22225555899784" lon="5.699994446989999" id="-1430">
		<tag k="name" v="Seljesetnakken" />
		<tag k="natural" v="ridge" />
=======
	<node id="-60369" lat="62.1999444457" lon="5.6590805562">
		<tag k="name" v="Egga" />
		<tag k="natural" v="ridge" />
		<tag k="place" v="locality" />
		<tag k="ssr:stedsnr" v="220297" />
	</node>
	<node id="-61156" lat="62.1968083325" lon="5.60461389496">
		<tag k="name" v="Nakken" />
		<tag k="natural" v="ridge" />
		<tag k="place" v="locality" />
		<tag k="ssr:stedsnr" v="583179" />
	</node>
	<node id="-61155" lat="62.2483888931" lon="5.43627777525">
		<tag k="name" v="Høgehornet" />
		<tag k="natural" v="hill" />
		<tag k="place" v="locality" />
		<tag k="ssr:stedsnr" v="583174" />
	</node>
	<node id="-61154" lat="62.2474416705" lon="5.46366666329">
		<tag k="name" v="Storhaugen" />
		<tag k="natural" v="hill" />
		<tag k="place" v="locality" />
		<tag k="ssr:stedsnr" v="583167" />
	</node>
	<node id="-61153" lat="62.2597694467" lon="5.48360555936">
		<tag k="name" v="Hornhammaren" />
>>>>>>> e1d4bc35ff8a6074a6f2e91616a996b547c36f15
		<tag k="place" v="locality" />
		<tag k="ssr:stedsnr" v="402141" />
	</node>
<<<<<<< HEAD
	<node lat="62.22385278201827" lon="5.667827777093983" id="-1434">
		<tag k="name" v="Svartefjellet" />
=======
	<node id="-60639" lat="62.2159777763" lon="5.35524999921">
		<tag k="name" v="Vardane" />
		<tag k="natural" v="hill" />
>>>>>>> e1d4bc35ff8a6074a6f2e91616a996b547c36f15
		<tag k="place" v="locality" />
		<tag k="ssr:stedsnr" v="402017" />
	</node>
<<<<<<< HEAD
	<node lat="62.21376388551948" lon="5.5615916705901345" id="-1439">
		<tag k="name" v="Storehaugen" />
		<tag k="natural" v="hill" />
		<tag k="place" v="locality" />
		<tag k="ssr:stedsnr" v="402248" />
	</node>
	<node lat="62.283986107657164" lon="5.563913887014233" id="-1440">
		<tag k="name" v="Slettene" />
		<tag k="natural" v="slope" />
		<tag k="place" v="locality" />
		<tag k="ssr:stedsnr" v="402263" />
	</node>
	<node lat="62.193991666901624" lon="5.611727784740901" id="-1446">
		<tag k="name" v="Kyrkjehornet" />
		<tag k="natural" v="hill" />
		<tag k="place" v="locality" />
		<tag k="ssr:stedsnr" v="435585" />
	</node>
	<node lat="62.26217500363574" lon="5.472683333352418" id="-1456">
=======
	<node id="-60453" lat="62.1961416631" lon="5.5925611129">
		<tag k="name" v="Årdalen" />
		<tag k="natural" v="valley" />
		<tag k="place" v="locality" />
		<tag k="ssr:stedsnr" v="159256" />
	</node>
	<node id="-60636" lat="62.2143138888" lon="5.63400832909">
		<tag k="name" v="Storhylla" />
		<tag k="place" v="locality" />
		<tag k="ssr:stedsnr" v="705149" />
	</node>
	<node id="-61146" lat="62.2820166651" lon="5.55520833204">
		<tag k="name" v="Blåfjellet" />
		<tag k="natural" v="cliff" />
		<tag k="ssr:stedsnr" v="582035" />
	</node>
	<node id="-60367" lat="62.2085111073" lon="5.64770000642">
		<tag k="name" v="Måna" />
		<tag k="natural" v="hill" />
		<tag k="place" v="locality" />
		<tag k="ssr:stedsnr" v="220283" />
	</node>
	<node id="-60632" lat="62.2770388899" lon="5.59744166233">
>>>>>>> e1d4bc35ff8a6074a6f2e91616a996b547c36f15
		<tag k="fixme" v="consider natural=peak for the most distinct mountains in the district" />
		<tag k="name" v="Hornet" />
		<tag k="natural" v="hill" />
		<tag k="place" v="locality" />
		<tag k="ssr:stedsnr" v="496531" />
	</node>
<<<<<<< HEAD
	<node lat="62.20234167038529" lon="5.59407499015817" id="-1460">
		<tag k="name" v="Litlenakken" />
		<tag k="natural" v="hill" />
=======
	<node id="-60630" lat="62.2707333319" lon="5.56821667446">
		<tag k="name" v="Langedalen" />
		<tag k="natural" v="valley" />
>>>>>>> e1d4bc35ff8a6074a6f2e91616a996b547c36f15
		<tag k="place" v="locality" />
		<tag k="ssr:stedsnr" v="522005" />
	</node>
<<<<<<< HEAD
	<node lat="62.20386388529592" lon="5.591269445537421" id="-1462">
		<tag k="name" v="Hatlefjellet" />
		<tag k="natural" v="hill" />
=======
	<node id="-60629" lat="62.2153888878" lon="5.3854194372">
		<tag k="name" v="Oddesdalen" />
		<tag k="natural" v="valley" />
>>>>>>> e1d4bc35ff8a6074a6f2e91616a996b547c36f15
		<tag k="place" v="locality" />
		<tag k="ssr:stedsnr" v="522008" />
	</node>
<<<<<<< HEAD
	<node lat="62.192724998868584" lon="5.6113555465566" id="-1463">
		<tag k="name" v="Bjørkhornet" />
		<tag k="natural" v="hill" />
		<tag k="place" v="locality" />
		<tag k="ssr:stedsnr" v="522065" />
	</node>
	<node lat="62.19541666297962" lon="5.6385138921735205" id="-1464">
		<tag k="name" v="Støyleberget" />
		<tag k="natural" v="hill" />
=======
	<node id="-60625" lat="62.2572416629" lon="5.42329721993">
		<tag k="name" v="Hestejyljane" />
		<tag k="natural" v="slope" />
>>>>>>> e1d4bc35ff8a6074a6f2e91616a996b547c36f15
		<tag k="place" v="locality" />
		<tag k="ssr:stedsnr" v="522069" />
	</node>
<<<<<<< HEAD
	<node lat="62.25543055159874" lon="5.532436105315252" id="-1466">
		<tag k="name" v="Litlehesten" />
		<tag k="natural" v="ridge" />
=======
	<node id="-61135" lat="62.2324694449" lon="5.70654443962">
		<tag k="alt_name" v="Rauddalen" />
		<tag k="name" v="Røddalen" />
		<tag k="natural" v="valley" />
>>>>>>> e1d4bc35ff8a6074a6f2e91616a996b547c36f15
		<tag k="place" v="locality" />
		<tag k="ssr:stedsnr" v="522039" />
	</node>
<<<<<<< HEAD
	<node lat="62.18676667126648" lon="5.3844750080651425" id="-1468">
		<tag k="name" v="Midkletten" />
		<tag k="natural" v="hill" />
		<tag k="place" v="locality" />
		<tag k="ssr:stedsnr" v="523085" />
	</node>
	<node lat="62.19903055593593" lon="5.40811944425668" id="-1469">
		<tag k="name" v="Skjervahaugen" />
		<tag k="natural" v="hill" />
=======
	<node id="-60621" lat="62.2088111138" lon="5.66352222977">
		<tag k="name" v="Vågshammaren" />
		<tag k="natural" v="cliff" />
		<tag k="ssr:stedsnr" v="704055" />
	</node>
	<node id="-60620" lat="62.2061999971" lon="5.67901944913">
		<tag k="name" v="Ramsetunga" />
		<tag k="natural" v="ridge" />
>>>>>>> e1d4bc35ff8a6074a6f2e91616a996b547c36f15
		<tag k="place" v="locality" />
		<tag k="ssr:stedsnr" v="523088" />
	</node>
<<<<<<< HEAD
	<node lat="62.23441944217409" lon="5.674430558690249" id="-1470">
		<tag k="name" v="Gutårslida" />
		<tag k="natural" v="slope" />
=======
	<node id="-60706" lat="62.2327666632" lon="5.36457223199">
		<tag k="name" v="Kleivane" />
		<tag k="natural" v="slope" />
		<tag k="place" v="locality" />
		<tag k="ssr:stedsnr" v="705305" />
	</node>
	<node id="-60617" lat="62.2766638904" lon="5.56312221602">
		<tag k="name" v="Hidsdalen" />
		<tag k="natural" v="valley" />
>>>>>>> e1d4bc35ff8a6074a6f2e91616a996b547c36f15
		<tag k="place" v="locality" />
		<tag k="ssr:stedsnr" v="523031" />
	</node>
<<<<<<< HEAD
	<node lat="62.25153055238278" lon="5.606708331122095" id="-1471">
		<tag k="name" v="Høgehornet" />
=======
	<node id="-60614" lat="62.2423361081" lon="5.59500832546">
		<tag k="name" v="Haugshornet" />
>>>>>>> e1d4bc35ff8a6074a6f2e91616a996b547c36f15
		<tag k="natural" v="hill" />
		<tag k="place" v="locality" />
		<tag k="ssr:stedsnr" v="523035" />
	</node>
<<<<<<< HEAD
	<node lat="62.22764444698136" lon="5.7343694392312585" id="-1475">
		<tag k="name" v="Hjellknollen" />
		<tag k="natural" v="hill" />
		<tag k="place" v="locality" />
		<tag k="ssr:stedsnr" v="523155" />
	</node>
	<node lat="62.23100000122784" lon="5.693375002297993" id="-1476">
		<tag k="name" v="Raudegrøtet" />
=======
	<node id="-60752" lat="62.2230777748" lon="5.55811388939">
		<tag k="name" v="Geitaskaret" />
		<tag k="natural" v="valley" />
		<tag k="place" v="locality" />
		<tag k="ssr:stedsnr" v="947036" />
	</node>
	<node id="-61123" lat="62.2154194458" lon="5.36901665718">
		<tag k="name" v="Nova" />
		<tag k="natural" v="hill" />
>>>>>>> e1d4bc35ff8a6074a6f2e91616a996b547c36f15
		<tag k="place" v="locality" />
		<tag k="ssr:stedsnr" v="523158" />
	</node>
<<<<<<< HEAD
	<node lat="62.262550002765686" lon="5.586630558030101" id="-1477">
		<tag k="name" v="Mjelteskjervet" />
		<tag k="natural" v="slope" />
=======
	<node id="-61122" lat="62.2345638926" lon="5.35990278594">
		<tag k="name" v="Rinden" />
		<tag k="natural" v="ridge" />
>>>>>>> e1d4bc35ff8a6074a6f2e91616a996b547c36f15
		<tag k="place" v="locality" />
		<tag k="ssr:stedsnr" v="523240" />
	</node>
<<<<<<< HEAD
	<node lat="62.248324999562485" lon="5.6179111166057405" id="-1479">
=======
	<node id="-61120" lat="62.2483249996" lon="5.61791111661">
>>>>>>> e1d4bc35ff8a6074a6f2e91616a996b547c36f15
		<tag k="name" v="Klovane" />
		<tag k="natural" v="hill" />
		<tag k="place" v="locality" />
		<tag k="ssr:stedsnr" v="523258" />
	</node>
<<<<<<< HEAD
	<node lat="62.20560555353702" lon="5.386277784877222" id="-1480">
		<tag k="name" v="Støyledalen" />
		<tag k="natural" v="valley" />
=======
	<node id="-61118" lat="62.2625500028" lon="5.58663055803">
		<tag k="name" v="Mjelteskjervet" />
		<tag k="natural" v="slope" />
>>>>>>> e1d4bc35ff8a6074a6f2e91616a996b547c36f15
		<tag k="place" v="locality" />
		<tag k="ssr:stedsnr" v="523093" />
	</node>
<<<<<<< HEAD
	<node lat="62.25810555495446" lon="5.478547216577999" id="-1483">
=======
	<node id="-60604" lat="62.258105555" lon="5.47854721658">
>>>>>>> e1d4bc35ff8a6074a6f2e91616a996b547c36f15
		<tag k="name" v="Omnfjellet" />
		<tag k="natural" v="hill" />
		<tag k="place" v="locality" />
		<tag k="ssr:stedsnr" v="523191" />
	</node>
<<<<<<< HEAD
	<node lat="62.23456389256186" lon="5.3599027859393855" id="-1487">
		<tag k="name" v="Rinden" />
		<tag k="natural" v="ridge" />
		<tag k="place" v="locality" />
		<tag k="ssr:stedsnr" v="523299" />
	</node>
	<node lat="62.215419445842855" lon="5.3690166571787135" id="-1488">
		<tag k="name" v="Nova" />
=======
	<node id="-61113" lat="62.2284583317" lon="5.69680277002">
		<tag k="name" v="Dyrhaugane" />
>>>>>>> e1d4bc35ff8a6074a6f2e91616a996b547c36f15
		<tag k="natural" v="hill" />
		<tag k="place" v="locality" />
		<tag k="ssr:stedsnr" v="523338" />
	</node>
<<<<<<< HEAD
	<node lat="62.20920277741112" lon="5.763000008849445" id="-1494">
		<tag k="alt_name" v="Laupen" />
		<tag k="name" v="Laupsnipa" />
=======
	<node id="-60600" lat="62.227644447" lon="5.73436943923">
		<tag k="name" v="Hjellknollen" />
>>>>>>> e1d4bc35ff8a6074a6f2e91616a996b547c36f15
		<tag k="natural" v="hill" />
		<tag k="place" v="locality" />
		<tag k="ssr:stedsnr" v="556074" />
	</node>
<<<<<<< HEAD
	<node lat="62.232469444905405" lon="5.706544439621477" id="-1496">
		<tag k="alt_name" v="Rauddalen" />
		<tag k="name" v="Røddalen" />
=======
	<node id="-61111" lat="62.2056055535" lon="5.38627778488">
		<tag k="name" v="Støyledalen" />
>>>>>>> e1d4bc35ff8a6074a6f2e91616a996b547c36f15
		<tag k="natural" v="valley" />
		<tag k="place" v="locality" />
		<tag k="ssr:stedsnr" v="556592" />
	</node>
<<<<<<< HEAD
	<node lat="62.28201666509443" lon="5.555208332043083" id="-1509">
		<tag k="name" v="Blåfjellet" />
		<tag k="natural" v="cliff" />
		<tag k="ssr:stedsnr" v="582035" />
	</node>
	<node lat="62.25976944674648" lon="5.483605559357214" id="-1514">
		<tag k="name" v="Hornhammaren" />
=======
	<node id="-61110" lat="62.1990305559" lon="5.40811944426">
		<tag k="name" v="Skjervahaugen" />
		<tag k="natural" v="hill" />
		<tag k="place" v="locality" />
		<tag k="ssr:stedsnr" v="523088" />
	</node>
	<node id="-61109" lat="62.1867666713" lon="5.38447500807">
		<tag k="name" v="Midkletten" />
		<tag k="natural" v="hill" />
>>>>>>> e1d4bc35ff8a6074a6f2e91616a996b547c36f15
		<tag k="place" v="locality" />
		<tag k="ssr:stedsnr" v="583166" />
	</node>
<<<<<<< HEAD
	<node lat="62.24744167050589" lon="5.463666663291632" id="-1515">
		<tag k="name" v="Storhaugen" />
		<tag k="natural" v="hill" />
		<tag k="place" v="locality" />
		<tag k="ssr:stedsnr" v="583167" />
	</node>
	<node lat="62.24838889305536" lon="5.436277775246446" id="-1516">
		<tag k="name" v="Høgehornet" />
		<tag k="natural" v="hill" />
=======
	<node id="-61108" lat="62.2515305524" lon="5.60670833112">
		<tag k="name" v="Høgehornet" />
		<tag k="natural" v="hill" />
		<tag k="place" v="locality" />
		<tag k="ssr:stedsnr" v="523035" />
	</node>
	<node id="-61107" lat="62.2344194422" lon="5.67443055869">
		<tag k="name" v="Gutårslida" />
		<tag k="natural" v="slope" />
>>>>>>> e1d4bc35ff8a6074a6f2e91616a996b547c36f15
		<tag k="place" v="locality" />
		<tag k="ssr:stedsnr" v="583174" />
	</node>
<<<<<<< HEAD
	<node lat="62.19680833251719" lon="5.60461389496465" id="-1517">
		<tag k="name" v="Nakken" />
		<tag k="natural" v="ridge" />
=======
	<node id="-61104" lat="62.2402944414" lon="5.61201388808">
		<tag k="name" v="Litlebøhornet" />
		<tag k="natural" v="hill" />
>>>>>>> e1d4bc35ff8a6074a6f2e91616a996b547c36f15
		<tag k="place" v="locality" />
		<tag k="ssr:stedsnr" v="583179" />
	</node>
<<<<<<< HEAD
	<node lat="62.250419447227344" lon="5.4294472182924105" id="-1533">
		<tag k="fixme" v="consider natural=peak for the most distinct mountains in the district" />
		<tag k="name" v="Rinden" />
=======
	<node id="-61103" lat="62.213944446" lon="5.5583083312">
		<tag k="name" v="Storehaugen" />
>>>>>>> e1d4bc35ff8a6074a6f2e91616a996b547c36f15
		<tag k="natural" v="hill" />
		<tag k="place" v="locality" />
		<tag k="ssr:stedsnr" v="617524" />
	</node>
<<<<<<< HEAD
	<node lat="62.25926111286661" lon="5.648319444582209" id="-1536">
		<tag k="name" v="Syrebakkane" />
		<tag k="natural" v="slope" />
		<tag k="place" v="locality" />
		<tag k="ssr:stedsnr" v="617973" />
	</node>
	<node lat="62.17550833294148" lon="5.3976638890369175" id="-1543">
		<tag k="name" v="Nøre Kletten" />
=======
	<node id="-60701" lat="62.249830558" lon="5.53602777514">
		<tag k="name" v="Trodene" />
		<tag k="natural" v="slope" />
		<tag k="place" v="locality" />
		<tag k="ssr:stedsnr" v="887200" />
	</node>
	<node id="-61100" lat="62.1927249989" lon="5.61135554656">
		<tag k="name" v="Bjørkhornet" />
>>>>>>> e1d4bc35ff8a6074a6f2e91616a996b547c36f15
		<tag k="natural" v="hill" />
		<tag k="place" v="locality" />
		<tag k="ssr:stedsnr" v="644061" />
	</node>
<<<<<<< HEAD
	<node lat="62.195091663931606" lon="5.4025083351654795" id="-1544">
		<tag k="name" v="Nesekleiva" />
		<tag k="natural" v="slope" />
=======
	<node id="-61099" lat="62.2479861075" lon="5.5524138981">
		<tag k="name" v="Jøtulgylet" />
		<tag k="natural" v="valley" />
>>>>>>> e1d4bc35ff8a6074a6f2e91616a996b547c36f15
		<tag k="place" v="locality" />
		<tag k="ssr:stedsnr" v="644066" />
	</node>
<<<<<<< HEAD
	<node lat="62.209780551346256" lon="5.369997222375966" id="-1549">
		<tag k="name" v="Bondeskorene" />
		<tag k="natural" v="valley" />
=======
	<node id="-60753" lat="62.230694441" lon="5.53442776885">
		<tag k="name" v="Storklubben" />
		<tag k="natural" v="hill" />
		<tag k="place" v="locality" />
		<tag k="ssr:stedsnr" v="947040" />
	</node>
	<node id="-61096" lat="62.2554305516" lon="5.53243610532">
		<tag k="name" v="Litlehesten" />
		<tag k="natural" v="ridge" />
>>>>>>> e1d4bc35ff8a6074a6f2e91616a996b547c36f15
		<tag k="place" v="locality" />
		<tag k="ssr:stedsnr" v="644150" />
	</node>
<<<<<<< HEAD
	<node lat="62.22206111376612" lon="5.378611105417893" id="-1558">
		<tag k="name" v="Seleberget" />
=======
	<node id="-61095" lat="62.2038638853" lon="5.59126944554">
		<tag k="name" v="Hatlefjellet" />
>>>>>>> e1d4bc35ff8a6074a6f2e91616a996b547c36f15
		<tag k="natural" v="hill" />
		<tag k="place" v="locality" />
		<tag k="ssr:stedsnr" v="644239" />
	</node>
<<<<<<< HEAD
	<node lat="62.23067222330626" lon="5.629355553629905" id="-1559">
		<tag k="name" v="Tua" />
=======
	<node id="-61093" lat="62.2023416704" lon="5.59407499016">
		<tag k="name" v="Litlenakken" />
>>>>>>> e1d4bc35ff8a6074a6f2e91616a996b547c36f15
		<tag k="natural" v="hill" />
		<tag k="place" v="locality" />
		<tag k="ssr:stedsnr" v="644242" />
	</node>
<<<<<<< HEAD
	<node lat="62.205736112059945" lon="5.758383330693952" id="-1560">
		<tag k="name" v="Stigen" />
		<tag k="natural" v="slope" />
		<tag k="place" v="locality" />
		<tag k="ssr:stedsnr" v="644243" />
	</node>
	<node lat="62.223386110288054" lon="5.728502783812432" id="-1562">
		<tag k="name" v="Stikktua" />
=======
	<node id="-61087" lat="62.1939916669" lon="5.61172778474">
		<tag k="name" v="Kyrkjehornet" />
>>>>>>> e1d4bc35ff8a6074a6f2e91616a996b547c36f15
		<tag k="natural" v="hill" />
		<tag k="place" v="locality" />
		<tag k="ssr:stedsnr" v="644249" />
	</node>
<<<<<<< HEAD
	<node lat="62.247530559322115" lon="5.622958341148946" id="-1570">
		<tag k="name" v="Nørdbergsheida" />
=======
	<node id="-60574" lat="62.2279416626" lon="5.67318889284">
		<tag k="name" v="Furenakken" />
>>>>>>> e1d4bc35ff8a6074a6f2e91616a996b547c36f15
		<tag k="natural" v="hill" />
		<tag k="place" v="locality" />
		<tag k="ssr:stedsnr" v="738585" />
	</node>
<<<<<<< HEAD
	<node lat="62.211319441746916" lon="5.584013891703905" id="-1583">
		<tag k="name" v="Kvernhusdalen" />
		<tag k="natural" v="valley" />
=======
	<node id="-61079" lat="62.2839861077" lon="5.56391388701">
		<tag k="name" v="Slettene" />
		<tag k="natural" v="slope" />
>>>>>>> e1d4bc35ff8a6074a6f2e91616a996b547c36f15
		<tag k="place" v="locality" />
		<tag k="ssr:stedsnr" v="764052" />
	</node>
<<<<<<< HEAD
	<node lat="62.28766111436086" lon="5.568516671561193" id="-1586">
		<tag k="name" v="Litle Løsethornet" />
=======
	<node id="-61078" lat="62.2137638855" lon="5.56159167059">
		<tag k="name" v="Storehaugen" />
>>>>>>> e1d4bc35ff8a6074a6f2e91616a996b547c36f15
		<tag k="natural" v="hill" />
		<tag k="place" v="locality" />
		<tag k="ssr:stedsnr" v="765680" />
	</node>
<<<<<<< HEAD
	<node lat="62.26163610792369" lon="5.596238883972958" id="-1588">
		<tag k="name" v="Stellehornet" />
=======
	<node id="-60565" lat="62.2057611118" lon="5.58780276942">
		<tag k="name" v="Sollihøgda" />
>>>>>>> e1d4bc35ff8a6074a6f2e91616a996b547c36f15
		<tag k="natural" v="hill" />
		<tag k="place" v="locality" />
		<tag k="ssr:stedsnr" v="766027" />
	</node>
<<<<<<< HEAD
	<node lat="62.23090555218512" lon="5.6791027704421975" id="-1591">
		<tag k="name" v="Helleberget" />
=======
	<node id="-61076" lat="62.2714361114" lon="5.57309167088">
		<tag k="name" v="Trolltua" />
>>>>>>> e1d4bc35ff8a6074a6f2e91616a996b547c36f15
		<tag k="natural" v="hill" />
		<tag k="place" v="locality" />
		<tag k="ssr:stedsnr" v="766131" />
	</node>
<<<<<<< HEAD
	<node lat="62.23469166780244" lon="5.72640556291549" id="-1592">
		<tag k="name" v="Lemane" />
		<tag k="natural" v="slope" />
=======
	<node id="-60561" lat="62.2158027819" lon="5.58989721912">
		<tag k="name" v="Drageskaret" />
		<tag k="natural" v="valley" />
>>>>>>> e1d4bc35ff8a6074a6f2e91616a996b547c36f15
		<tag k="place" v="locality" />
		<tag k="ssr:stedsnr" v="766235" />
	</node>
<<<<<<< HEAD
	<node lat="62.24141667014319" lon="5.58113888081287" id="-1593">
		<tag k="name" v="Legene" />
		<tag k="natural" v="slope" />
=======
	<node id="-60560" lat="62.2243888859" lon="5.60073055085">
		<tag k="name" v="Kråkereidet" />
		<tag k="natural" v="hill" />
>>>>>>> e1d4bc35ff8a6074a6f2e91616a996b547c36f15
		<tag k="place" v="locality" />
		<tag k="ssr:stedsnr" v="766311" />
	</node>
<<<<<<< HEAD
	<node lat="62.17039444095366" lon="5.395466664185021" id="-1595">
		<tag k="name" v="Tevassberga" />
		<tag k="natural" v="hill" />
=======
	<node id="-61069" lat="62.222255559" lon="5.69999444699">
		<tag k="name" v="Seljesetnakken" />
		<tag k="natural" v="ridge" />
>>>>>>> e1d4bc35ff8a6074a6f2e91616a996b547c36f15
		<tag k="place" v="locality" />
		<tag k="ssr:stedsnr" v="766051" />
	</node>
<<<<<<< HEAD
	<node lat="62.2095833326249" lon="5.382002772620919" id="-1598">
		<tag k="name" v="Inste Nonshornet" />
		<tag k="natural" v="hill" />
		<tag k="place" v="locality" />
		<tag k="ssr:stedsnr" v="766068" />
	</node>
	<node lat="62.21299444089131" lon="5.685716666841618" id="-1603">
		<tag k="name" v="Holmen" />
		<tag k="place" v="locality" />
		<tag k="ssr:stedsnr" v="766183" />
	</node>
	<node lat="62.22592222357986" lon="5.644555550794692" id="-1604">
		<tag k="name" v="Rinden" />
		<tag k="natural" v="ridge" />
=======
	<node id="-60610" lat="62.2092027774" lon="5.76300000885">
		<tag k="alt_name" v="Laupen" />
		<tag k="name" v="Laupsnipa" />
		<tag k="natural" v="hill" />
		<tag k="place" v="locality" />
		<tag k="ssr:stedsnr" v="556074" />
	</node>
	<node id="-60695" lat="62.203997223" lon="5.69234999542">
		<tag k="name" v="Skylet" />
		<tag k="natural" v="slope" />
		<tag k="place" v="locality" />
		<tag k="ssr:stedsnr" v="887215" />
	</node>
	<node id="-61063" lat="62.199672224" lon="5.61104443559">
		<tag k="name" v="Dyrstigane" />
		<tag k="natural" v="valley" />
>>>>>>> e1d4bc35ff8a6074a6f2e91616a996b547c36f15
		<tag k="place" v="locality" />
		<tag k="ssr:stedsnr" v="766238" />
	</node>
<<<<<<< HEAD
	<node lat="62.24144999608583" lon="5.487438883461583" id="-1617">
		<tag k="name" v="Vorakletten" />
		<tag k="natural" v="hill" />
=======
	<node id="-60550" lat="62.216180557" lon="5.7346111041">
		<tag k="alt_name" v="Skogedalen" />
		<tag k="name" v="Skogadalen" />
		<tag k="natural" v="valley" />
>>>>>>> e1d4bc35ff8a6074a6f2e91616a996b547c36f15
		<tag k="place" v="locality" />
		<tag k="ssr:stedsnr" v="799674" />
	</node>
<<<<<<< HEAD
	<node lat="62.23496666481401" lon="5.642775003891337" id="-1626">
		<tag k="alt_name" v="Sæsshornet" />
		<tag k="name" v="Sæshorn" />
		<tag k="natural" v="hill" />
		<tag k="place" v="locality" />
		<tag k="ssr:stedsnr" v="800568" />
	</node>
	<node lat="62.23083888566203" lon="5.658313883702051" id="-1627">
		<tag k="name" v="Årekinna" />
		<tag k="natural" v="hill" />
=======
	<node id="-61059" lat="62.2101944427" lon="5.69570278241">
		<tag k="name" v="Glenneskaret" />
		<tag k="natural" v="valley" />
>>>>>>> e1d4bc35ff8a6074a6f2e91616a996b547c36f15
		<tag k="place" v="locality" />
		<tag k="ssr:stedsnr" v="800569" />
	</node>
<<<<<<< HEAD
	<node lat="62.22404444545982" lon="5.533366658387314" id="-1629">
		<tag k="name" v="Kattaberget" />
		<tag k="natural" v="hill" />
=======
	<node id="-61057" lat="62.2037138861" lon="5.37555555569">
		<tag k="alt_name" v="Kleiva" />
		<tag k="name" v="Kleivahammaren" />
>>>>>>> e1d4bc35ff8a6074a6f2e91616a996b547c36f15
		<tag k="place" v="locality" />
		<tag k="ssr:stedsnr" v="825024" />
	</node>
<<<<<<< HEAD
	<node lat="62.21844999825445" lon="5.666927770863658" id="-1630">
		<tag k="fixme" v="consider natural=peak for the most distinct mountains in the district" />
		<tag k="name" v="Litlefjellet" />
		<tag k="natural" v="hill" />
=======
	<node id="-61053" lat="62.223852782" lon="5.66782777709">
		<tag k="name" v="Svartefjellet" />
>>>>>>> e1d4bc35ff8a6074a6f2e91616a996b547c36f15
		<tag k="place" v="locality" />
		<tag k="ssr:stedsnr" v="825036" />
	</node>
<<<<<<< HEAD
	<node lat="62.242102782053564" lon="5.474455558805863" id="-1634">
		<tag k="name" v="Gløsen" />
		<tag k="natural" v="hill" />
=======
	<node id="-60540" lat="62.242500004" lon="5.44466110849">
		<tag k="name" v="Haukhammaren" />
>>>>>>> e1d4bc35ff8a6074a6f2e91616a996b547c36f15
		<tag k="place" v="locality" />
		<tag k="ssr:stedsnr" v="827124" />
	</node>
<<<<<<< HEAD
	<node lat="62.232047224208046" lon="5.65219444671579" id="-1636">
		<tag k="name" v="Sæssheida" />
		<tag k="natural" v="slope" />
=======
	<node id="-60778" lat="62.1952499958" lon="5.58910278457">
		<tag k="name" v="Breivikryggen" />
		<tag k="natural" v="ridge" />
		<tag k="place" v="locality" />
		<tag k="ssr:stedsnr" v="887055" />
	</node>
	<node id="-60538" lat="62.1978333302" lon="5.40831387998">
		<tag k="name" v="Myrdalen" />
		<tag k="natural" v="valley" />
>>>>>>> e1d4bc35ff8a6074a6f2e91616a996b547c36f15
		<tag k="place" v="locality" />
		<tag k="ssr:stedsnr" v="827132" />
	</node>
<<<<<<< HEAD
	<node lat="62.20168332929925" lon="5.668247223008895" id="-1637">
		<tag k="name" v="Torset-torvet" />
=======
	<node id="-61049" lat="62.256988891" lon="5.53438888326">
		<tag k="name" v="Storehalsen" />
		<tag k="natural" v="ridge" />
>>>>>>> e1d4bc35ff8a6074a6f2e91616a996b547c36f15
		<tag k="place" v="locality" />
		<tag k="ssr:stedsnr" v="827138" />
	</node>
<<<<<<< HEAD
	<node lat="62.19777222531208" lon="5.661477769912085" id="-1638">
		<tag k="name" v="Torsethornet" />
		<tag k="natural" v="hill" />
		<tag k="place" v="locality" />
		<tag k="ssr:stedsnr" v="827148" />
	</node>
	<node lat="62.23349166508899" lon="5.353433329061026" id="-1640">
		<tag k="name" v="Hellaren" />
=======
	<node id="-61048" lat="62.2179555555" lon="5.5508138868">
		<tag k="name" v="Notaberget" />
		<tag k="natural" v="hill" />
		<tag k="place" v="locality" />
		<tag k="ssr:stedsnr" v="401972" />
	</node>
	<node id="-61047" lat="62.2208111098" lon="5.55406110733">
		<tag k="name" v="Hammaren" />
		<tag k="natural" v="cliff" />
		<tag k="ssr:stedsnr" v="401277" />
	</node>
	<node id="-61046" lat="62.2476083329" lon="5.59420277426">
		<tag k="name" v="Hornet" />
		<tag k="natural" v="hill" />
>>>>>>> e1d4bc35ff8a6074a6f2e91616a996b547c36f15
		<tag k="place" v="locality" />
		<tag k="ssr:stedsnr" v="827159" />
	</node>
<<<<<<< HEAD
	<node lat="62.26476666523195" lon="5.593483325429014" id="-1641">
		<tag k="name" v="Nausane" />
=======
	<node id="-61044" lat="62.1959972211" lon="5.67310833425">
		<tag k="name" v="Torsethammaren" />
>>>>>>> e1d4bc35ff8a6074a6f2e91616a996b547c36f15
		<tag k="natural" v="hill" />
		<tag k="place" v="locality" />
		<tag k="ssr:stedsnr" v="827241" />
	</node>
<<<<<<< HEAD
	<node lat="62.20728889094397" lon="5.578805550434415" id="-1645">
		<tag k="name" v="Kvernhusdalen" />
		<tag k="natural" v="valley" />
		<tag k="place" v="locality" />
		<tag k="ssr:stedsnr" v="827331" />
	</node>
	<node lat="62.24828333413846" lon="5.453580557217058" id="-1648">
		<tag k="name" v="Kleivahaugane" />
		<tag k="natural" v="hill" />
		<tag k="place" v="locality" />
		<tag k="ssr:stedsnr" v="827192" />
	</node>
	<node lat="62.24436388877286" lon="5.439488897166891" id="-1649">
		<tag k="name" v="Klivberget" />
		<tag k="natural" v="hill" />
		<tag k="place" v="locality" />
		<tag k="ssr:stedsnr" v="827199" />
	</node>
	<node lat="62.249611108176566" lon="5.550541675189821" id="-1657">
		<tag k="fixme" v="consider natural=peak for the most distinct mountains in the district" />
		<tag k="name" v="Gjøna" />
=======
	<node id="-60528" lat="62.2195583296" lon="5.44986667414">
		<tag k="name" v="Flødeberga" />
		<tag k="natural" v="ridge" />
		<tag k="place" v="locality" />
		<tag k="ssr:stedsnr" v="462118" />
	</node>
	<node id="-60776" lat="62.2414249993" lon="5.68977500781">
		<tag k="name" v="Rindehola" />
		<tag k="natural" v="valley" />
		<tag k="place" v="locality" />
		<tag k="ssr:stedsnr" v="887153" />
	</node>
	<node id="-60525" lat="62.2721944442" lon="5.55658610219">
		<tag k="name" v="Holenakken" />
		<tag k="natural" v="hill" />
		<tag k="place" v="locality" />
		<tag k="ssr:stedsnr" v="461037" />
	</node>
	<node id="-61035" lat="62.2407277774" lon="5.65845000174">
		<tag k="name" v="Storetua" />
>>>>>>> e1d4bc35ff8a6074a6f2e91616a996b547c36f15
		<tag k="natural" v="hill" />
		<tag k="place" v="locality" />
		<tag k="ssr:stedsnr" v="860533" />
	</node>
<<<<<<< HEAD
	<node lat="62.20410555924184" lon="5.670466667276296" id="-1658">
		<tag k="name" v="Keipen" />
		<tag k="natural" v="hill" />
=======
	<node id="-60522" lat="62.22627778" lon="5.72626944809">
		<tag k="name" v="Leitet" />
>>>>>>> e1d4bc35ff8a6074a6f2e91616a996b547c36f15
		<tag k="place" v="locality" />
		<tag k="ssr:stedsnr" v="860588" />
	</node>
<<<<<<< HEAD
	<node lat="62.22703610833987" lon="5.536380559412648" id="-1663">
		<tag k="name" v="Hellegylet" />
		<tag k="natural" v="valley" />
		<tag k="place" v="locality" />
		<tag k="ssr:stedsnr" v="886035" />
	</node>
	<node lat="62.252172217913625" lon="5.533999995568899" id="-1664">
		<tag k="name" v="Røysetdalen" />
		<tag k="natural" v="valley" />
		<tag k="place" v="locality" />
		<tag k="ssr:stedsnr" v="886041" />
	</node>
	<node lat="62.22182222552004" lon="5.447791668593266" id="-1669">
		<tag k="name" v="Flødehaugen" />
=======
	<node id="-60775" lat="62.204116665" lon="5.68584721756">
		<tag k="fixme" v="consider natural=peak for the most distinct mountains in the district" />
		<tag k="name" v="Kringstadnakken" />
		<tag k="natural" v="hill" />
		<tag k="place" v="locality" />
		<tag k="ssr:stedsnr" v="887118" />
	</node>
	<node id="-61032" lat="62.2474722231" lon="5.69473333325">
		<tag k="name" v="Sædalen" />
		<tag k="natural" v="valley" />
		<tag k="place" v="locality" />
		<tag k="ssr:stedsnr" v="374574" />
	</node>
	<node id="-60689" lat="62.2126500001" lon="5.40356667156">
		<tag k="name" v="Kalsneshornet" />
		<tag k="natural" v="hill" />
		<tag k="place" v="locality" />
		<tag k="ssr:stedsnr" v="887100" />
	</node>
	<node id="-61023" lat="62.2504500004" lon="5.54725554921">
		<tag k="name" v="Nipa" />
		<tag k="natural" v="hill" />
		<tag k="place" v="locality" />
		<tag k="ssr:stedsnr" v="341328" />
	</node>
	<node id="-61022" lat="62.2135472202" lon="5.35650555092">
		<tag k="name" v="Høgenipa" />
>>>>>>> e1d4bc35ff8a6074a6f2e91616a996b547c36f15
		<tag k="natural" v="hill" />
		<tag k="place" v="locality" />
		<tag k="ssr:stedsnr" v="887143" />
	</node>
<<<<<<< HEAD
	<node lat="62.21173055270195" lon="5.633691664909392" id="-1673">
		<tag k="name" v="Nonstua" />
=======
	<node id="-60517" lat="62.2565083323" lon="5.53929444792">
		<tag k="name" v="Svartehammaren" />
		<tag k="natural" v="cliff" />
		<tag k="ssr:stedsnr" v="279027" />
	</node>
	<node id="-60508" lat="62.2443305559" lon="5.65332778381">
		<tag k="fixme" v="consider natural=peak for the most distinct mountains in the district" />
		<tag k="name" v="Slettebrunene" />
>>>>>>> e1d4bc35ff8a6074a6f2e91616a996b547c36f15
		<tag k="natural" v="hill" />
		<tag k="place" v="locality" />
		<tag k="ssr:stedsnr" v="887191" />
	</node>
<<<<<<< HEAD
	<node lat="62.262972220814795" lon="5.5991833249424" id="-1678">
		<tag k="name" v="Brandhornet" />
=======
	<node id="-60454" lat="62.2098361074" lon="5.40014443697">
		<tag k="name" v="Storenausen" />
		<tag k="natural" v="hill" />
		<tag k="place" v="locality" />
		<tag k="ssr:stedsnr" v="280004" />
	</node>
	<node id="-61015" lat="62.2087611102" lon="5.56733889806">
		<tag k="name" v="Varden" />
>>>>>>> e1d4bc35ff8a6074a6f2e91616a996b547c36f15
		<tag k="natural" v="hill" />
		<tag k="place" v="locality" />
		<tag k="ssr:stedsnr" v="888023" />
	</node>
<<<<<<< HEAD
	<node lat="62.19881667065565" lon="5.399027768338358" id="-1680">
		<tag k="name" v="Leitet" />
		<tag k="natural" v="slope" />
=======
	<node id="-60502" lat="62.17260556" lon="5.39081111277">
		<tag k="name" v="Kletten" />
		<tag k="natural" v="hill" />
>>>>>>> e1d4bc35ff8a6074a6f2e91616a996b547c36f15
		<tag k="place" v="locality" />
		<tag k="ssr:stedsnr" v="948319" />
	</node>
<<<<<<< HEAD
	<node lat="62.21330555847236" lon="5.618616665723934" id="-1686">
		<tag k="name" v="Djupedalen" />
		<tag k="natural" v="valley" />
=======
	<node id="-60601" lat="62.2310000012" lon="5.6933750023">
		<tag k="name" v="Raudegrøtet" />
		<tag k="place" v="locality" />
		<tag k="ssr:stedsnr" v="523158" />
	</node>
	<node id="-61011" lat="62.2413166652" lon="5.48059444518">
		<tag k="alt_name" v="Kula" />
		<tag k="name" v="Kulen" />
		<tag k="natural" v="hill" />
>>>>>>> e1d4bc35ff8a6074a6f2e91616a996b547c36f15
		<tag k="place" v="locality" />
		<tag k="ssr:stedsnr" v="948156" />
	</node>
<<<<<<< HEAD
	<node lat="62.202630558210934" lon="5.67997221984293" id="-1688">
		<tag k="name" v="Almefjellet" />
		<tag k="natural" v="slope" />
=======
	<node id="-61006" lat="62.2063916661" lon="5.73283055784">
		<tag k="name" v="Skredeberget" />
		<tag k="natural" v="slope" />
		<tag k="place" v="locality" />
		<tag k="ssr:stedsnr" v="341133" />
	</node>
	<node id="-61005" lat="62.2176527763" lon="5.59702499274">
		<tag k="name" v="Sandvikfjellet" />
		<tag k="natural" v="hill" />
		<tag k="place" v="locality" />
		<tag k="ssr:stedsnr" v="341130" />
	</node>
	<node id="-60765" lat="62.2211277766" lon="5.72150833647">
		<tag k="name" v="Fossakjerringa" />
		<tag k="natural" v="hill" />
		<tag k="place" v="locality" />
		<tag k="ssr:stedsnr" v="948128" />
	</node>
	<node id="-61002" lat="62.2037527817" lon="5.71007500691">
		<tag k="name" v="Lidafjellet" />
		<tag k="natural" v="hill" />
		<tag k="place" v="locality" />
		<tag k="ssr:stedsnr" v="341088" />
	</node>
	<node id="-60599" lat="62.2162861091" lon="5.68794721658">
		<tag k="name" v="Halsane" />
		<tag k="natural" v="ridge" />
		<tag k="place" v="locality" />
		<tag k="ssr:stedsnr" v="523216" />
	</node>
	<node id="-60999" lat="62.2092027761" lon="5.41193055325">
		<tag k="name" v="Djupedalen" />
		<tag k="natural" v="valley" />
		<tag k="place" v="locality" />
		<tag k="ssr:stedsnr" v="341075" />
	</node>
	<node id="-60996" lat="62.2233138899" lon="5.67502223102">
		<tag k="name" v="Torvberget" />
		<tag k="natural" v="hill" />
		<tag k="place" v="locality" />
		<tag k="ssr:stedsnr" v="341023" />
	</node>
	<node id="-60995" lat="62.2508999974" lon="5.5971361095">
		<tag k="name" v="Reitane" />
		<tag k="natural" v="slope" />
		<tag k="place" v="locality" />
		<tag k="ssr:stedsnr" v="341018" />
	</node>
	<node id="-60482" lat="62.2077611142" lon="5.71201944089">
		<tag k="name" v="Litledjupdalen" />
		<tag k="natural" v="valley" />
		<tag k="place" v="locality" />
		<tag k="ssr:stedsnr" v="281083" />
	</node>
	<node id="-60481" lat="62.2441805554" lon="5.68391665929">
		<tag k="name" v="Litlerinden" />
		<tag k="natural" v="slope" />
		<tag k="place" v="locality" />
		<tag k="ssr:stedsnr" v="281076" />
	</node>
	<node id="-60480" lat="62.2592722249" lon="5.65170833124">
		<tag k="name" v="Litledalshornet" />
		<tag k="natural" v="hill" />
		<tag k="place" v="locality" />
		<tag k="ssr:stedsnr" v="281074" />
	</node>
	<node id="-60479" lat="62.203647223" lon="5.38772222464">
		<tag k="name" v="Lægdehola" />
		<tag k="natural" v="valley" />
		<tag k="place" v="locality" />
		<tag k="ssr:stedsnr" v="281071" />
	</node>
	<node id="-60478" lat="62.2061249987" lon="5.38338054989">
		<tag k="name" v="Ørnehaugane" />
		<tag k="natural" v="hill" />
		<tag k="place" v="locality" />
		<tag k="ssr:stedsnr" v="281065" />
	</node>
	<node id="-60597" lat="62.2469111079" lon="5.44878888885">
		<tag k="name" v="Skora" />
		<tag k="natural" v="valley" />
		<tag k="place" v="locality" />
		<tag k="ssr:stedsnr" v="523214" />
	</node>
	<node id="-60426" lat="62.1824222218" lon="5.38161111897">
		<tag k="name" v="Kobbehaugen" />
		<tag k="natural" v="hill" />
		<tag k="place" v="locality" />
		<tag k="ssr:stedsnr" v="99068" />
	</node>
	<node id="-60986" lat="62.2110027777" lon="5.37569445361">
		<tag k="name" v="Nonshornet" />
		<tag k="natural" v="ridge" />
		<tag k="place" v="locality" />
		<tag k="ssr:stedsnr" v="314598" />
	</node>
	<node id="-60511" lat="62.272394441" lon="5.5604249979">
		<tag k="name" v="Bjønndalen" />
		<tag k="natural" v="valley" />
		<tag k="place" v="locality" />
		<tag k="ssr:stedsnr" v="463066" />
	</node>
	<node id="-60472" lat="62.2656333332" lon="5.57127500744">
		<tag k="name" v="Bakketun" />
		<tag k="natural" v="slope" />
		<tag k="place" v="locality" />
		<tag k="ssr:stedsnr" v="280249" />
	</node>
	<node id="-60596" lat="62.2621750036" lon="5.47268333335">
		<tag k="fixme" v="consider natural=peak for the most distinct mountains in the district" />
		<tag k="name" v="Hornet" />
		<tag k="natural" v="hill" />
		<tag k="place" v="locality" />
		<tag k="ssr:stedsnr" v="496531" />
	</node>
	<node id="-60510" lat="62.215230552" lon="5.38906666794">
		<tag k="name" v="Høgenausen" />
		<tag k="natural" v="hill" />
>>>>>>> e1d4bc35ff8a6074a6f2e91616a996b547c36f15
		<tag k="place" v="locality" />
		<tag k="ssr:stedsnr" v="948160" />
	</node>
<<<<<<< HEAD
	<node lat="62.23756388550276" lon="5.359800001190406" id="-1690">
		<tag k="name" v="Raudhammaren" />
		<tag k="natural" v="hill" />
		<tag k="place" v="locality" />
		<tag k="ssr:stedsnr" v="948169" />
	</node>
	<node lat="62.22705833744846" lon="5.6786916653597626" id="-1692">
		<tag k="name" v="Kleiva" />
		<tag k="natural" v="slope" />
		<tag k="place" v="locality" />
		<tag k="ssr:stedsnr" v="948256" />
	</node>
	<node lat="62.28467143546252" lon="5.5615020351134055" id="-1721">
		<tag k="name" v="Rogneskolten" />
		<tag k="natural" v="hill" />
		<tag k="place" v="locality" />
		<tag k="ssr:stedsnr" v="1081827" />
	</node>
	<node lat="62.28534319263185" lon="5.558708973130877" id="-1722">
		<tag k="name" v="Flåtinden" />
		<tag k="natural" v="hill" />
		<tag k="place" v="locality" />
		<tag k="ssr:stedsnr" v="1081828" />
=======
	<node id="-60483" lat="62.2103750021" lon="5.72156110686">
		<tag k="name" v="Litlevasshornet" />
		<tag k="natural" v="hill" />
		<tag k="place" v="locality" />
		<tag k="ssr:stedsnr" v="281085" />
	</node>
	<node id="-60462" lat="62.2123027768" lon="5.4098305552">
		<tag k="name" v="Stigen" />
		<tag k="natural" v="slope" />
		<tag k="place" v="locality" />
		<tag k="ssr:stedsnr" v="280215" />
	</node>
	<node id="-60973" lat="62.2046055576" lon="5.73907499245">
		<tag k="name" v="Øydeskrede" />
		<tag k="natural" v="slope" />
		<tag k="place" v="locality" />
		<tag k="ssr:stedsnr" v="314085" />
	</node>
	<node id="-60460" lat="62.2086083298" lon="5.38192222981">
		<tag k="name" v="Skarpenausen" />
		<tag k="natural" v="hill" />
		<tag k="place" v="locality" />
		<tag k="ssr:stedsnr" v="280170" />
	</node>
	<node id="-60459" lat="62.2493944418" lon="5.65580278764">
		<tag k="name" v="Sævassbotnen" />
		<tag k="natural" v="valley" />
		<tag k="place" v="locality" />
		<tag k="ssr:stedsnr" v="280109" />
	</node>
	<node id="-60969" lat="62.2287861107" lon="5.5419277739">
		<tag k="alt_name" v="Nupatinden;Hollenupen" />
		<tag k="name" v="Nupen" />
		<tag k="natural" v="hill" />
		<tag k="place" v="locality" />
		<tag k="ssr:stedsnr" v="193620" />
	</node>
	<node id="-60968" lat="62.220344446" lon="5.57800832849">
		<tag k="name" v="Storehornet" />
		<tag k="natural" v="hill" />
		<tag k="place" v="locality" />
		<tag k="ssr:stedsnr" v="193599" />
	</node>
	<node id="-60643" lat="62.2586222178" lon="5.60106388506">
		<tag k="name" v="Skotet" />
		<tag k="natural" v="hill" />
		<tag k="place" v="locality" />
		<tag k="ssr:stedsnr" v="705233" />
	</node>
	<node id="-60966" lat="62.2173333296" lon="5.38506110373">
		<tag k="alt_name" v="Oddeshornet" />
		<tag k="name" v="Oddelshornet" />
		<tag k="natural" v="hill" />
		<tag k="place" v="locality" />
		<tag k="ssr:stedsnr" v="193592" />
	</node>
	<node id="-60965" lat="62.2098944453" lon="5.39996111169">
		<tag k="alt_name" v="Storenausen" />
		<tag k="name" v="Skinhammaren" />
		<tag k="natural" v="hill" />
		<tag k="place" v="locality" />
		<tag k="ssr:stedsnr" v="193590" />
	</node>
	<node id="-60451" lat="62.2301388882" lon="5.53981944383">
		<tag k="name" v="Skaret" />
		<tag k="natural" v="valley" />
		<tag k="place" v="locality" />
		<tag k="ssr:stedsnr" v="159220" />
	</node>
	<node id="-60447" lat="62.2456611078" lon="5.4181000071">
		<tag k="name" v="Skinahaugen" />
		<tag k="natural" v="hill" />
		<tag k="place" v="locality" />
		<tag k="ssr:stedsnr" v="159060" />
	</node>
	<node id="-60958" lat="62.2766583308" lon="5.59749445166">
		<tag k="fixme" v="consider natural=peak for the most distinct mountains in the district" />
		<tag k="name" v="Hidsegga" />
		<tag k="natural" v="hill" />
		<tag k="place" v="locality" />
		<tag k="ssr:stedsnr" v="193544" />
	</node>
	<node id="-60444" lat="62.2151277764" lon="5.72523055349">
		<tag k="name" v="Stordyrhola" />
		<tag k="natural" v="valley" />
		<tag k="place" v="locality" />
		<tag k="ssr:stedsnr" v="159114" />
	</node>
	<node id="-60443" lat="62.2065138917" lon="5.71846111265">
		<tag k="name" v="Ristallekollen" />
		<tag k="natural" v="hill" />
		<tag k="place" v="locality" />
		<tag k="ssr:stedsnr" v="159110" />
	</node>
	<node id="-60644" lat="62.2399527811" lon="5.703294444">
		<tag k="name" v="Koppane" />
		<tag k="natural" v="valley" />
		<tag k="place" v="locality" />
		<tag k="ssr:stedsnr" v="705248" />
	</node>
	<node id="-60441" lat="62.2849222184" lon="5.55350278749">
		<tag k="name" v="Riseaksla" />
		<tag k="natural" v="ridge" />
		<tag k="place" v="locality" />
		<tag k="ssr:stedsnr" v="279036" />
	</node>
	<node id="-60665" lat="62.2168749984" lon="5.6787583413">
		<tag k="alt_name" v="Arehjellen" />
		<tag k="fixme" v="consider natural=peak for the most distinct mountains in the district" />
		<tag k="name" v="Aregjell" />
		<tag k="natural" v="hill" />
		<tag k="place" v="locality" />
		<tag k="ssr:stedsnr" v="617586" />
	</node>
	<node id="-60436" lat="62.2059722188" lon="5.60301389742">
		<tag k="name" v="Grøthornet" />
		<tag k="natural" v="hill" />
		<tag k="place" v="locality" />
		<tag k="ssr:stedsnr" v="132518" />
	</node>
	<node id="-60993" lat="62.2211277732" lon="5.53963054802">
		<tag k="name" v="Kråberget" />
		<tag k="natural" v="hill" />
		<tag k="place" v="locality" />
		<tag k="ssr:stedsnr" v="340976" />
	</node>
	<node id="-61101" lat="62.195416663" lon="5.63851389217">
		<tag k="name" v="Støyleberget" />
		<tag k="natural" v="hill" />
		<tag k="place" v="locality" />
		<tag k="ssr:stedsnr" v="522069" />
	</node>
	<node id="-60427" lat="62.2089027743" lon="5.72470555688">
		<tag k="name" v="Tempelskaret" />
		<tag k="natural" v="valley" />
		<tag k="place" v="locality" />
		<tag k="ssr:stedsnr" v="99107" />
	</node>
	<node id="-60938" lat="62.2180888906" lon="5.39359721894">
		<tag k="name" v="Bakkane" />
		<tag k="natural" v="slope" />
		<tag k="place" v="locality" />
		<tag k="ssr:stedsnr" v="159293" />
	</node>
	<node id="-60425" lat="62.2630388842" lon="5.42319443659">
		<tag k="fixme" v="consider natural=peak for the most distinct mountains in the district" />
		<tag k="name" v="Hellandsfjellet" />
		<tag k="natural" v="hill" />
		<tag k="place" v="locality" />
		<tag k="ssr:stedsnr" v="99055" />
	</node>
	<node id="-60424" lat="62.2548388854" lon="5.41258610629">
		<tag k="name" v="Raudehammaren" />
		<tag k="place" v="locality" />
		<tag k="ssr:stedsnr" v="99052" />
	</node>
	<node id="-60935" lat="62.2391833292" lon="5.68580555421">
		<tag k="name" v="Rindehaugen" />
		<tag k="natural" v="hill" />
		<tag k="place" v="locality" />
		<tag k="ssr:stedsnr" v="159099" />
	</node>
	<node id="-60934" lat="62.2764361081" lon="5.5896499967">
		<tag k="name" v="Djupdekkene" />
		<tag k="natural" v="valley" />
		<tag k="place" v="locality" />
		<tag k="ssr:stedsnr" v="159095" />
	</node>
	<node id="-60421" lat="62.2157527818" lon="5.3511638843">
		<tag k="name" v="Vågekinna" />
		<tag k="natural" v="hill" />
		<tag k="place" v="locality" />
		<tag k="ssr:stedsnr" v="98155" />
	</node>
	<node id="-60932" lat="62.2346444425" lon="5.657852785">
		<tag k="name" v="Gullhaugen" />
		<tag k="natural" v="hill" />
		<tag k="place" v="locality" />
		<tag k="ssr:stedsnr" v="159020" />
	</node>
	<node id="-60930" lat="62.2406250035" lon="5.57088888706">
		<tag k="name" v="Skinstødet" />
		<tag k="natural" v="slope" />
		<tag k="place" v="locality" />
		<tag k="ssr:stedsnr" v="159247" />
	</node>
	<node id="-60994" lat="62.2867916645" lon="5.57204721939">
		<tag k="name" v="Store Løsethornet" />
		<tag k="natural" v="hill" />
		<tag k="place" v="locality" />
		<tag k="ssr:stedsnr" v="340982" />
>>>>>>> e1d4bc35ff8a6074a6f2e91616a996b547c36f15
	</node>
</osm>
