<?xml version="1.0" encoding="UTF-8"?>
<osm generator="osmapis" version="0.6">
	<node id="-354299" lat="58.1044972211" lon="7.66133334148">
		<tag k="bridge" v="yes" />
		<tag k="layer" v="1" />
		<tag k="name" v="Trybekken" />
		<tag k="ssr:stedsnr" v="350048" />
	</node>
	<node id="-354298" lat="58.0979361135" lon="7.67806388677">
		<tag k="bridge" v="yes" />
		<tag k="layer" v="1" />
		<tag k="name" v="Holmenfoss" />
		<tag k="ssr:stedsnr" v="350037" />
	</node>
	<node id="-354537" lat="58.0714055541" lon="7.69508332653">
		<tag k="alt_name" v="Skarpeid" />
		<tag k="bridge" v="yes" />
		<tag k="layer" v="1" />
		<tag k="name" v="Skarpeid bro" />
		<tag k="ssr:stedsnr" v="21124" />
	</node>
	<node id="-355183" lat="58.0766055577" lon="7.87357221638">
		<tag k="name" v="Indre Rona" />
		<tag k="ssr:stedsnr" v="627375" />
		<tag k="waterway" v="canal" />
	</node>
	<node id="-354665" lat="58.1280361092" lon="7.61073055377">
		<tag k="bridge" v="yes" />
		<tag k="layer" v="1" />
		<tag k="name" v="Brunvatn" />
		<tag k="ssr:stedsnr" v="107039" />
	</node>
	<node id="-354408" lat="58.0531242802" lon="7.84049688126">
		<tag k="man_made" v="quay" />
		<tag k="name" v="Wilhelm Krags brygge" />
		<tag k="place" v="locality" />
		<tag k="ssr:stedsnr" v="984144" />
	</node>
	<node id="-354663" lat="58.0775111119" lon="7.78731944704">
		<tag k="landuse" v="harbour" />
		<tag k="name" v="Vaglen" />
		<tag k="seamark:type" v="harbour" />
		<tag k="ssr:stedsnr" v="89446" />
	</node>
	<node id="-355429" lat="58.073855556" lon="7.87514722795">
		<tag k="name" v="Rona" />
		<tag k="ssr:stedsnr" v="810346" />
		<tag k="waterway" v="canal" />
	</node>
	<node id="-354388" lat="58.0957166659" lon="7.7542611081">
		<tag k="bridge" v="yes" />
		<tag k="layer" v="1" />
		<tag k="name" v="Tverråna" />
		<tag k="ssr:stedsnr" v="896041" />
	</node>
	<node id="-354387" lat="58.0938499966" lon="7.77193610516">
		<tag k="bridge" v="yes" />
		<tag k="layer" v="1" />
		<tag k="name" v="Mjåland bru" />
		<tag k="ssr:stedsnr" v="896038" />
	</node>
	<node id="-354386" lat="58.0951083359" lon="7.79740278058">
		<tag k="bridge" v="yes" />
		<tag k="layer" v="1" />
		<tag k="name" v="Føssa" />
		<tag k="ssr:stedsnr" v="896033" />
	</node>
	<node id="-354385" lat="58.0943944483" lon="7.79404166109">
		<tag k="bridge" v="yes" />
		<tag k="layer" v="1" />
		<tag k="name" v="Grøvan bru" />
		<tag k="ssr:stedsnr" v="896031" />
	</node>
	<node id="-354384" lat="58.0951388906" lon="7.79855277648">
		<tag k="bridge" v="yes" />
		<tag k="layer" v="1" />
		<tag k="name" v="Føssa bru" />
		<tag k="ssr:stedsnr" v="896032" />
	</node>
	<node id="-354383" lat="58.1040027822" lon="7.66153888872">
		<tag k="bridge" v="yes" />
		<tag k="layer" v="1" />
		<tag k="name" v="Trybekk" />
		<tag k="ssr:stedsnr" v="410043" />
	</node>
	<node id="-355137" lat="58.0932277796" lon="7.782208333">
		<tag k="bridge" v="yes" />
		<tag k="layer" v="1" />
		<tag k="name" v="Lunde bru" />
		<tag k="ssr:stedsnr" v="592046" />
	</node>
	<node id="-355135" lat="58.0839944482" lon="7.83637500098">
		<tag k="bridge" v="yes" />
		<tag k="layer" v="1" />
		<tag k="name" v="Stokkeland" />
		<tag k="ssr:stedsnr" v="592045" />
	</node>
	<node id="-355134" lat="58.0739777755" lon="7.8748472268">
		<tag k="bridge" v="yes" />
		<tag k="layer" v="1" />
		<tag k="name" v="Langenesrona bru" />
		<tag k="ssr:stedsnr" v="592042" />
	</node>
	<node id="-355379" lat="58.0980111113" lon="7.67419999191">
		<tag k="bridge" v="yes" />
		<tag k="layer" v="1" />
		<tag k="name" v="Holmenfoss viadukt" />
		<tag k="ssr:stedsnr" v="775045" />
	</node>
	<node id="-355378" lat="58.0960083309" lon="7.7129861175">
		<tag k="bridge" v="yes" />
		<tag k="layer" v="1" />
		<tag k="name" v="Knibe" />
		<tag k="ssr:stedsnr" v="775043" />
	</node>
	<node id="-354988" lat="58.1342777789" lon="7.75363333134">
		<tag k="bridge" v="yes" />
		<tag k="layer" v="1" />
		<tag k="name" v="Trondstadstemmen" />
		<tag k="ssr:stedsnr" v="471046" />
	</node>
	<node id="-354987" lat="58.0790611089" lon="7.81749722087">
		<tag k="bridge" v="yes" />
		<tag k="layer" v="1" />
		<tag k="name" v="Åros bru" />
		<tag k="ssr:stedsnr" v="471045" />
	</node>
	<node id="-354986" lat="58.093572222" lon="7.77638611795">
		<tag k="bridge" v="yes" />
		<tag k="layer" v="1" />
		<tag k="name" v="Leire bru" />
		<tag k="ssr:stedsnr" v="471041" />
	</node>
	<node id="-355490" lat="58.0767111111" lon="7.78625833903">
		<tag k="man_made" v="quay" />
		<tag k="name" v="Vaglebrygga" />
		<tag k="place" v="locality" />
		<tag k="ssr:stedsnr" v="871178" />
	</node>
	<node id="-354331" lat="58.1441194448" lon="7.63820555578">
		<tag k="highway" v="path" />
		<tag k="name" v="Eiksåkleivane" />
		<tag k="ssr:stedsnr" v="385035" />
	</node>
	<node id="-355311" lat="58.0488611126" lon="7.68788611835">
		<tag k="bridge" v="yes" />
		<tag k="layer" v="1" />
		<tag k="name" v="Verven undergang" />
		<tag k="ssr:stedsnr" v="714049" />
	</node>
	<node id="-354712" lat="58.0842972249" lon="7.67743333069">
		<tag k="highway" v="path" />
		<tag k="name" v="Geidestien" />
		<tag k="ssr:stedsnr" v="142935" />
	</node>
	<node id="-354833" lat="58.0991111096" lon="7.82444167344">
		<tag k="bridge" v="yes" />
		<tag k="layer" v="1" />
		<tag k="name" v="Tofteland" />
		<tag k="ssr:stedsnr" v="228054" />
	</node>
	<node id="-355215" lat="58.0973027774" lon="7.72343054999">
		<tag k="bridge" v="yes" />
		<tag k="layer" v="1" />
		<tag k="name" v="Dåsåna" />
		<tag k="ssr:stedsnr" v="653044" />
	</node>
	<node id="-355595" lat="58.0774027779" lon="7.76695833995">
		<tag k="bridge" v="yes" />
		<tag k="layer" v="1" />
		<tag k="name" v="Utfortjønnbekk" />
		<tag k="ssr:stedsnr" v="957050" />
	</node>
	<node id="-355594" lat="58.1238249973" lon="7.62141945284">
		<tag k="bridge" v="yes" />
		<tag k="layer" v="1" />
		<tag k="name" v="Teland" />
		<tag k="ssr:stedsnr" v="957047" />
	</node>
	<node id="-355593" lat="58.0893055598" lon="7.84039444224">
		<tag k="bridge" v="yes" />
		<tag k="layer" v="1" />
		<tag k="name" v="Søgne" />
		<tag k="ssr:stedsnr" v="957046" />
	</node>
</osm>
