<?xml version="1.0" encoding="UTF-8"?>
<osm generator="osmapis" version="0.6">
	<node id="-354302" lat="58.1200722182" lon="7.62599445007">
		<tag k="name" v="Åsen" />
		<tag k="place" v="farm" />
		<tag k="ssr:stedsnr" v="364872" />
	</node>
	<node id="-355325" lat="58.0845333308" lon="7.66222500532">
		<tag k="fixme" v="consider place=hamlet" />
		<tag k="name" v="Frøysland" />
		<tag k="place" v="farm" />
		<tag k="ssr:stedsnr" v="728907" />
	</node>
	<node id="-355324" lat="58.120247224" lon="7.64442222457">
		<tag k="alt_name" v="Solbjørg;Solbjør" />
		<tag k="fixme" v="consider place=hamlet" />
		<tag k="name" v="Solberg" />
		<tag k="place" v="farm" />
		<tag k="ssr:stedsnr" v="728855" />
	</node>
	<node id="-355322" lat="58.0954694404" lon="7.70379166514">
		<tag k="name" v="Lindelia" />
		<tag k="old_name" v="Lindlia" />
		<tag k="place" v="farm" />
		<tag k="ssr:stedsnr" v="728799" />
	</node>
	<node id="-354297" lat="58.0761638911" lon="7.85743056247">
		<tag k="name" v="Kossevigheia" />
		<tag k="place" v="quarter" />
		<tag k="ssr:stedsnr" v="343445" />
	</node>
	<node id="-354296" lat="58.0732055574" lon="7.76005555847">
		<tag k="name" v="Oftenesheia" />
		<tag k="place" v="quarter" />
		<tag k="ssr:stedsnr" v="343375" />
	</node>
	<node id="-354295" lat="58.0864972179" lon="7.82731667508">
		<tag k="name" v="Kalsneset" />
		<tag k="place" v="neighbourhood" />
		<tag k="ssr:stedsnr" v="343005" />
	</node>
	<node id="-354294" lat="58.057522221" lon="7.64991944577">
		<tag k="alt_name" v="Hævåker;Hævaker" />
		<tag k="fixme" v="consider place=hamlet" />
		<tag k="name" v="Hævager" />
		<tag k="place" v="farm" />
		<tag k="ssr:stedsnr" v="121888" />
	</node>
	<node id="-354293" lat="58.07180556" lon="7.74433333993">
		<tag k="name" v="Hallandvik" />
		<tag k="place" v="farm" />
		<tag k="ssr:stedsnr" v="331104" />
	</node>
	<node id="-354292" lat="58.105091671" lon="7.70651944536">
		<tag k="name" v="Dal skoletomt" />
		<tag k="place" v="farm" />
		<tag k="ssr:stedsnr" v="331070" />
	</node>
	<node id="-355313" lat="58.090677774" lon="7.78721666822">
		<tag k="fixme" v="multiple name tags, choose one and add the other to alt_name; consider place=hamlet" />
		<tag k="name" v="Eig;Eik" />
		<tag k="place" v="farm" />
		<tag k="ssr:stedsnr" v="724521" />
	</node>
	<node id="-355312" lat="58.0684333345" lon="7.83703055739">
		<tag k="name" v="Krossneset" />
		<tag k="place" v="neighbourhood" />
		<tag k="ssr:stedsnr" v="722056" />
	</node>
	<node id="-355310" lat="58.0882444459" lon="7.82001666468">
		<tag k="name" v="Nygårdsheia" />
		<tag k="place" v="quarter" />
		<tag k="ssr:stedsnr" v="707418" />
	</node>
	<node id="-354301" lat="58.0864972179" lon="7.82731667508">
		<tag k="name" v="Torvmoen" />
		<tag k="place" v="quarter" />
		<tag k="ssr:stedsnr" v="362522" />
	</node>
	<node id="-355285" lat="58.0931194416" lon="7.79666666003">
		<tag k="name" v="Eikeheia" />
		<tag k="place" v="quarter" />
		<tag k="ssr:stedsnr" v="689358" />
	</node>
	<node id="-355283" lat="58.0734272692" lon="7.87335301307">
		<tag k="alt_name" v="Langenesbygda" />
		<tag k="fixme" v="consider place=suburb, village or hamlet" />
		<tag k="name" v="Langenes" />
		<tag k="old_name" v="Langnesbygda" />
		<tag k="place" v="quarter" />
		<tag k="ssr:stedsnr" v="689341" />
	</node>
	<node id="-354762" lat="58.0628027813" lon="7.67354165839">
		<tag k="name" v="Øygarden" />
		<tag k="place" v="locality" />
		<tag k="ssr:stedsnr" v="203134" />
	</node>
	<node id="-354757" lat="58.0511083291" lon="7.65068610981">
		<tag k="fixme" v="consider place=hamlet" />
		<tag k="name" v="Tånevig" />
		<tag k="place" v="farm" />
		<tag k="ssr:stedsnr" v="182999" />
	</node>
	<node id="-354755" lat="58.0732999971" lon="7.65653888998">
		<tag k="name" v="Stubstad" />
		<tag k="place" v="farm" />
		<tag k="ssr:stedsnr" v="182896" />
	</node>
	<node id="-354754" lat="58.0644555523" lon="7.70910000133">
		<tag k="alt_name" v="Myran" />
		<tag k="name" v="Myrane" />
		<tag k="place" v="farm" />
		<tag k="ssr:stedsnr" v="182887" />
	</node>
	<node id="-354752" lat="58.0565722202" lon="7.71077500392">
		<tag k="fixme" v="consider place=suburb, village or hamlet" />
		<tag k="name" v="Trysnes" />
		<tag k="place" v="quarter" />
		<tag k="ssr:stedsnr" v="182879" />
	</node>
	<node id="-354751" lat="58.1195999994" lon="7.6187055581">
		<tag k="alt_name" v="Høgsås" />
		<tag k="name" v="Høgåsen" />
		<tag k="place" v="farm" />
		<tag k="ssr:stedsnr" v="182863" />
	</node>
	<node id="-354744" lat="58.0606083316" lon="7.72718888812">
		<tag k="alt_name" v="Solvig" />
		<tag k="name" v="Solvik" />
		<tag k="place" v="farm" />
		<tag k="ssr:stedsnr" v="182175" />
	</node>
	<node id="-354743" lat="58.0705666651" lon="7.76507777375">
		<tag k="alt_name" v="Ofternes" />
		<tag k="fixme" v="consider place=hamlet" />
		<tag k="name" v="Oftenes" />
		<tag k="place" v="farm" />
		<tag k="ssr:stedsnr" v="182164" />
	</node>
	<node id="-354739" lat="58.0855861155" lon="7.83871111917">
		<tag k="fixme" v="consider place=hamlet" />
		<tag k="name" v="Stokkeland" />
		<tag k="place" v="farm" />
		<tag k="ssr:stedsnr" v="182147" />
	</node>
	<node id="-354738" lat="58.0786444488" lon="7.85663888649">
		<tag k="alt_name" v="Øygard;Ødegård;Stokkeland ødegården" />
		<tag k="fixme" v="consider place=hamlet" />
		<tag k="name" v="Øygarden" />
		<tag k="place" v="farm" />
		<tag k="ssr:stedsnr" v="182146" />
	</node>
	<node id="-354737" lat="58.0956777814" lon="7.78238056054">
		<tag k="name" v="Lunde" />
		<tag k="place" v="village" />
		<tag k="ssr:stedsnr" v="182131" />
	</node>
	<node id="-354224" lat="58.1477222231" lon="7.73136943932">
		<tag k="alt_name" v="Myrene" />
		<tag k="fixme" v="consider place=hamlet" />
		<tag k="name" v="Myran" />
		<tag k="place" v="farm" />
		<tag k="ssr:stedsnr" v="303192" />
	</node>
	<node id="-354221" lat="58.0844055546" lon="7.92116944407">
		<tag k="alt_name" v="Lyngmyra" />
		<tag k="name" v="Lyngmyr" />
		<tag k="place" v="farm" />
		<tag k="ssr:stedsnr" v="303174" />
	</node>
	<node id="-354220" lat="58.0822916636" lon="7.82070000754">
		<tag k="alt_name" v="Føreid" />
		<tag k="fixme" v="consider place=hamlet" />
		<tag k="name" v="Føre" />
		<tag k="place" v="farm" />
		<tag k="ssr:stedsnr" v="303163" />
	</node>
	<node id="-355242" lat="58.1141805522" lon="7.6317277708">
		<tag k="name" v="Stubbelia" />
		<tag k="place" v="locality" />
		<tag k="ssr:stedsnr" v="688043" />
	</node>
	<node id="-354216" lat="58.0740111148" lon="7.8903555531">
		<tag k="name" v="Vragevigheia" />
		<tag k="place" v="neighbourhood" />
		<tag k="ssr:stedsnr" v="298049" />
	</node>
	<node id="-355237" lat="58.0982944423" lon="7.70592778614">
		<tag k="alt_name" v="Djupmyr" />
		<tag k="name" v="Djupmyra" />
		<tag k="place" v="farm" />
		<tag k="ssr:stedsnr" v="668821" />
	</node>
	<node id="-355236" lat="58.0925138886" lon="7.70759166065">
		<tag k="alt_name" v="Knibe, øvre" />
		<tag k="fixme" v="consider place=hamlet" />
		<tag k="name" v="Øvre Knibe" />
		<tag k="place" v="farm" />
		<tag k="ssr:stedsnr" v="667919" />
	</node>
	<node id="-355235" lat="58.0651666678" lon="7.65744444391">
		<tag k="fixme" v="consider place=hamlet" />
		<tag k="name" v="Tråne" />
		<tag k="place" v="farm" />
		<tag k="ssr:stedsnr" v="667872" />
	</node>
	<node id="-355233" lat="58.1320805597" lon="7.71400833768">
		<tag k="fixme" v="consider place=hamlet" />
		<tag k="name" v="Lia" />
		<tag k="place" v="farm" />
		<tag k="ssr:stedsnr" v="667830" />
	</node>
	<node id="-355231" lat="58.1057305533" lon="7.70833888766">
		<tag k="fixme" v="consider place=hamlet" />
		<tag k="name" v="Dal" />
		<tag k="place" v="farm" />
		<tag k="ssr:stedsnr" v="667800" />
	</node>
	<node id="-355226" lat="58.0716500031" lon="7.74558888489">
		<tag k="fixme" v="consider place=hamlet" />
		<tag k="name" v="Hallandvik" />
		<tag k="place" v="farm" />
		<tag k="ssr:stedsnr" v="667192" />
	</node>
	<node id="-355225" lat="58.0661805521" lon="7.72959722667">
		<tag k="fixme" v="consider place=hamlet" />
		<tag k="name" v="Vige" />
		<tag k="place" v="farm" />
		<tag k="ssr:stedsnr" v="667191" />
	</node>
	<node id="-355219" lat="58.1617944434" lon="7.73224167189">
		<tag k="name" v="Skuggedal" />
		<tag k="place" v="farm" />
		<tag k="ssr:stedsnr" v="667078" />
	</node>
	<node id="-355218" lat="58.1062666663" lon="7.75055833296">
		<tag k="name" v="Grønnvoll" />
		<tag k="place" v="farm" />
		<tag k="ssr:stedsnr" v="666254" />
	</node>
	<node id="-354703" lat="58.0940388916" lon="7.77991110791">
		<tag k="name" v="Leire" />
		<tag k="place" v="hamlet" />
		<tag k="ssr:stedsnr" v="142178" />
	</node>
	<node id="-355214" lat="58.0962972194" lon="7.7515861057">
		<tag k="name" v="Ormelia" />
		<tag k="place" v="quarter" />
		<tag k="ssr:stedsnr" v="644437" />
	</node>
	<node id="-355213" lat="58.0716055596" lon="7.74709721791">
		<tag k="name" v="Hallandvik" />
		<tag k="place" v="farm" />
		<tag k="ssr:stedsnr" v="634093" />
	</node>
	<node id="-355212" lat="58.1098138923" lon="7.68968611415">
		<tag k="name" v="Eikestøl" />
		<tag k="place" v="farm" />
		<tag k="ssr:stedsnr" v="634075" />
	</node>
	<node id="-354696" lat="58.0607166707" lon="7.65377221833">
		<tag k="name" v="Bjølle" />
		<tag k="place" v="farm" />
		<tag k="ssr:stedsnr" v="142135" />
	</node>
	<node id="-355207" lat="58.083491671" lon="7.81018611553">
		<tag k="fixme" v="consider place=suburb, village or hamlet" />
		<tag k="name" v="Hølledale" />
		<tag k="place" v="quarter" />
		<tag k="ssr:stedsnr" v="628198" />
	</node>
	<node id="-355200" lat="58.1217222264" lon="7.59636667281">
		<tag k="name" v="Gl. Teland" />
		<tag k="place" v="locality" />
		<tag k="ssr:stedsnr" v="627972" />
	</node>
	<node id="-355192" lat="58.0820833323" lon="7.70553611083">
		<tag k="name" v="Røyrkjerr" />
		<tag k="place" v="locality" />
		<tag k="ssr:stedsnr" v="627933" />
	</node>
	<node id="-354677" lat="58.0405027745" lon="7.67350833562">
		<tag k="alt_name" v="Vikebu" />
		<tag k="name" v="Vigebo" />
		<tag k="place" v="hamlet" />
		<tag k="ssr:stedsnr" v="121981" />
	</node>
	<node id="-354671" lat="58.0729444423" lon="7.75187499199">
		<tag k="name" v="Stølen" />
		<tag k="place" v="hamlet" />
		<tag k="ssr:stedsnr" v="121176" />
	</node>
	<node id="-354669" lat="58.1054416626" lon="7.82326667076">
		<tag k="alt_name" v="Kleppeland;Kleppland" />
		<tag k="fixme" v="consider place=hamlet" />
		<tag k="name" v="Klepland" />
		<tag k="place" v="farm" />
		<tag k="ssr:stedsnr" v="121139" />
	</node>
	<node id="-354668" lat="58.0515583355" lon="7.83849167506">
		<tag k="name" v="Kapelløya" />
		<tag k="place" v="farm" />
		<tag k="ssr:stedsnr" v="120160" />
	</node>
	<node id="-355172" lat="58.0632499997" lon="7.73600834045">
		<tag k="name" v="Heftenes" />
		<tag k="place" v="farm" />
		<tag k="ssr:stedsnr" v="627182" />
	</node>
	<node id="-354619" lat="58.1132944417" lon="7.63688055942">
		<tag k="name" v="Ulshus" />
		<tag k="place" v="hamlet" />
		<tag k="ssr:stedsnr" v="82042" />
	</node>
	<node id="-355167" lat="58.0608972253" lon="7.65881667011">
		<tag k="name" v="Myra" />
		<tag k="place" v="farm" />
		<tag k="ssr:stedsnr" v="627119" />
	</node>
	<node id="-355157" lat="58.100727777" lon="7.70314166828">
		<tag k="name" v="Svartefjellet" />
		<tag k="place" v="farm" />
		<tag k="ssr:stedsnr" v="607805" />
	</node>
	<node id="-355155" lat="58.0551166648" lon="7.70184722762">
		<tag k="name" v="Lastad" />
		<tag k="place" v="hamlet" />
		<tag k="ssr:stedsnr" v="606994" />
	</node>
	<node id="-355154" lat="58.0437972246" lon="7.65525277769">
		<tag k="name" v="Eid" />
		<tag k="place" v="hamlet" />
		<tag k="ssr:stedsnr" v="606981" />
	</node>
	<node id="-355152" lat="58.1292111095" lon="7.61546388882">
		<tag k="alt_name" v="Brunnvatn;Brunvand" />
		<tag k="fixme" v="consider place=hamlet" />
		<tag k="name" v="Brunvatne" />
		<tag k="place" v="farm" />
		<tag k="ssr:stedsnr" v="606748" />
	</node>
	<node id="-355141" lat="58.0958166682" lon="7.7420166738">
		<tag k="alt_name" v="Lohne" />
		<tag k="fixme" v="consider place=hamlet" />
		<tag k="name" v="Lone" />
		<tag k="place" v="farm" />
		<tag k="ssr:stedsnr" v="606139" />
	</node>
	<node id="-355139" lat="58.0854444418" lon="7.80779722552">
		<tag k="name" v="Austrus" />
		<tag k="old_name" v="Østerhus" />
		<tag k="place" v="hamlet" />
		<tag k="ssr:stedsnr" v="602551" />
	</node>
	<node id="-355138" lat="58.0826500036" lon="7.92032500743">
		<tag k="name" v="Lyngmyr" />
		<tag k="place" v="neighbourhood" />
		<tag k="ssr:stedsnr" v="600037" />
	</node>
	<node id="-355133" lat="58.0928499995" lon="7.81769443761">
		<tag k="name" v="Linnegrøvan industriområde" />
		<tag k="place" v="quarter" />
		<tag k="ssr:stedsnr" v="586460" />
	</node>
	<node id="-355132" lat="58.0904277794" lon="7.7989277816">
		<tag k="name" v="Fåmyråsen" />
		<tag k="place" v="quarter" />
		<tag k="ssr:stedsnr" v="586419" />
	</node>
	<node id="-355131" lat="58.0710527819" lon="7.75317499654">
		<tag k="name" v="Hallandvik" />
		<tag k="place" v="farm" />
		<tag k="ssr:stedsnr" v="573093" />
	</node>
	<node id="-354618" lat="58.1301638869" lon="7.73065277013">
		<tag k="name" v="Øygarden" />
		<tag k="place" v="locality" />
		<tag k="ssr:stedsnr" v="82240" />
	</node>
	<node id="-354605" lat="58.1053750043" lon="7.6616611173">
		<tag k="name" v="Østre Try" />
		<tag k="place" v="farm" />
		<tag k="ssr:stedsnr" v="82008" />
	</node>
	<node id="-355628" lat="58.1195384807" lon="7.62541841968">
		<tag k="name" v="Høksås" />
		<tag k="place" v="isolated_dwelling" />
		<tag k="ssr:stedsnr" v="978856" />
	</node>
	<node id="-355627" lat="58.130531867" lon="7.61848701845">
		<tag k="fixme" v="consider place=hamlet" />
		<tag k="name" v="Storemyr" />
		<tag k="place" v="farm" />
		<tag k="ssr:stedsnr" v="978855" />
	</node>
	<node id="-355626" lat="58.1010421988" lon="7.82591478259">
		<tag k="fixme" v="consider place=hamlet" />
		<tag k="name" v="Tufteland" />
		<tag k="place" v="farm" />
		<tag k="ssr:stedsnr" v="978854" />
	</node>
	<node id="-355625" lat="58.0957551566" lon="7.80427134226">
		<tag k="fixme" v="consider place=hamlet" />
		<tag k="name" v="Tangvall" />
		<tag k="place" v="farm" />
		<tag k="ssr:stedsnr" v="978853" />
	</node>
	<node id="-355624" lat="58.0961739832" lon="7.77465587199">
		<tag k="fixme" v="consider place=hamlet" />
		<tag k="name" v="Lunde" />
		<tag k="place" v="farm" />
		<tag k="ssr:stedsnr" v="978852" />
	</node>
	<node id="-355623" lat="58.1216904336" lon="7.68135006532">
		<tag k="fixme" v="consider place=hamlet" />
		<tag k="name" v="Myren" />
		<tag k="place" v="farm" />
		<tag k="ssr:stedsnr" v="978833" />
	</node>
	<node id="-355622" lat="58.096535728" lon="7.67621680132">
		<tag k="fixme" v="consider place=hamlet" />
		<tag k="name" v="Holmen" />
		<tag k="place" v="farm" />
		<tag k="ssr:stedsnr" v="978832" />
	</node>
	<node id="-355621" lat="58.1051416576" lon="7.66064384225">
		<tag k="fixme" v="consider place=hamlet" />
		<tag k="name" v="Try" />
		<tag k="place" v="farm" />
		<tag k="ssr:stedsnr" v="978831" />
	</node>
	<node id="-355620" lat="58.0445261789" lon="7.65339684498">
		<tag k="fixme" v="consider place=hamlet" />
		<tag k="name" v="Østre Eid" />
		<tag k="place" v="farm" />
		<tag k="ssr:stedsnr" v="978778" />
	</node>
	<node id="-355619" lat="58.0401991983" lon="7.67440937758">
		<tag k="fixme" v="consider place=hamlet" />
		<tag k="name" v="Vikebu" />
		<tag k="place" v="farm" />
		<tag k="ssr:stedsnr" v="978777" />
	</node>
	<node id="-355618" lat="58.0339494623" lon="7.67365146974">
		<tag k="fixme" v="consider place=hamlet" />
		<tag k="name" v="Salthaug" />
		<tag k="place" v="farm" />
		<tag k="ssr:stedsnr" v="978775" />
	</node>
	<node id="-355617" lat="58.0491702812" lon="7.69469504127">
		<tag k="fixme" v="consider place=hamlet" />
		<tag k="name" v="Ålo" />
		<tag k="place" v="farm" />
		<tag k="ssr:stedsnr" v="978774" />
	</node>
	<node id="-355616" lat="58.0590716372" lon="7.709471516">
		<tag k="fixme" v="consider place=hamlet" />
		<tag k="name" v="Trysnes" />
		<tag k="place" v="farm" />
		<tag k="ssr:stedsnr" v="978773" />
	</node>
	<node id="-355615" lat="58.0946862257" lon="7.77941727755">
		<tag k="fixme" v="consider place=hamlet" />
		<tag k="name" v="Leire" />
		<tag k="place" v="farm" />
		<tag k="ssr:stedsnr" v="978768" />
	</node>
	<node id="-355614" lat="58.0615316436" lon="7.77823858201">
		<tag k="fixme" v="consider place=hamlet" />
		<tag k="name" v="Risøya" />
		<tag k="place" v="farm" />
		<tag k="ssr:stedsnr" v="978726" />
	</node>
	<node id="-355613" lat="58.0601526225" lon="7.76784998881">
		<tag k="fixme" v="consider place=hamlet" />
		<tag k="name" v="Okse" />
		<tag k="place" v="farm" />
		<tag k="ssr:stedsnr" v="978725" />
	</node>
	<node id="-355612" lat="58.053470688" lon="7.77207001731">
		<tag k="fixme" v="consider place=hamlet" />
		<tag k="name" v="Borøya" />
		<tag k="place" v="farm" />
		<tag k="ssr:stedsnr" v="978724" />
	</node>
	<node id="-355611" lat="58.070198219" lon="7.79295060923">
		<tag k="fixme" v="consider place=hamlet" />
		<tag k="name" v="Amfenes" />
		<tag k="place" v="farm" />
		<tag k="ssr:stedsnr" v="978723" />
	</node>
	<node id="-355610" lat="58.0531391359" lon="7.81789850301">
		<tag k="fixme" v="consider place=hamlet" />
		<tag k="name" v="Skarpøya" />
		<tag k="place" v="farm" />
		<tag k="ssr:stedsnr" v="978722" />
	</node>
	<node id="-355609" lat="58.0537884533" lon="7.83977037643">
		<tag k="fixme" v="consider place=hamlet" />
		<tag k="name" v="Monsøya" />
		<tag k="place" v="farm" />
		<tag k="ssr:stedsnr" v="978721" />
	</node>
	<node id="-355608" lat="58.0882552385" lon="7.83695389743">
		<tag k="fixme" v="consider place=hamlet" />
		<tag k="name" v="Stausland" />
		<tag k="place" v="farm" />
		<tag k="ssr:stedsnr" v="978719" />
	</node>
	<node id="-355607" lat="58.074629255" lon="7.86391545873">
		<tag k="fixme" v="consider place=hamlet" />
		<tag k="name" v="Søviga" />
		<tag k="place" v="farm" />
		<tag k="ssr:stedsnr" v="978718" />
	</node>
	<node id="-355606" lat="58.067421055" lon="7.86820030376">
		<tag k="fixme" v="consider place=hamlet" />
		<tag k="name" v="Herøen" />
		<tag k="place" v="farm" />
		<tag k="ssr:stedsnr" v="978717" />
	</node>
	<node id="-355605" lat="58.0736150183" lon="7.87101835249">
		<tag k="fixme" v="consider place=hamlet" />
		<tag k="name" v="Langenes" />
		<tag k="place" v="farm" />
		<tag k="ssr:stedsnr" v="978716" />
	</node>
	<node id="-355604" lat="58.0775824201" lon="7.88683219512">
		<tag k="fixme" v="consider place=hamlet" />
		<tag k="name" v="Kilen" />
		<tag k="place" v="farm" />
		<tag k="ssr:stedsnr" v="978715" />
	</node>
	<node id="-355603" lat="58.0806754946" lon="7.91573634388">
		<tag k="fixme" v="consider place=hamlet" />
		<tag k="name" v="Søndre Svensvigen" />
		<tag k="place" v="farm" />
		<tag k="ssr:stedsnr" v="978714" />
	</node>
	<node id="-355602" lat="58.0817086981" lon="7.91504424817">
		<tag k="fixme" v="consider place=hamlet" />
		<tag k="name" v="Nordre Svensviken" />
		<tag k="place" v="farm" />
		<tag k="ssr:stedsnr" v="978713" />
	</node>
	<node id="-355601" lat="58.0840337893" lon="7.92074927957">
		<tag k="fixme" v="consider place=hamlet" />
		<tag k="name" v="Lyngmyren" />
		<tag k="place" v="farm" />
		<tag k="ssr:stedsnr" v="978705" />
	</node>
	<node id="-355600" lat="58.0884406604" lon="7.92590343308">
		<tag k="fixme" v="consider place=hamlet" />
		<tag k="name" v="Stranden" />
		<tag k="place" v="farm" />
		<tag k="ssr:stedsnr" v="978703" />
	</node>
	<node id="-355599" lat="58.089965444" lon="7.85136255393">
		<tag k="fixme" v="consider place=hamlet" />
		<tag k="name" v="Berge" />
		<tag k="place" v="farm" />
		<tag k="ssr:stedsnr" v="978702" />
	</node>
	<node id="-355598" lat="58.0909772907" lon="7.84101141927">
		<tag k="fixme" v="consider place=hamlet" />
		<tag k="name" v="Søgne Prestegård" />
		<tag k="place" v="farm" />
		<tag k="ssr:stedsnr" v="978701" />
	</node>
	<node id="-355085" lat="58.0486027781" lon="7.67965000249">
		<tag k="name" v="Vaglemyra" />
		<tag k="place" v="farm" />
		<tag k="ssr:stedsnr" v="546996" />
	</node>
	<node id="-355596" lat="58.0867638848" lon="7.92260833564">
		<tag k="name" v="Tjuviga" />
		<tag k="place" v="neighbourhood" />
		<tag k="ssr:stedsnr" v="965053" />
	</node>
	<node id="-355082" lat="58.1305277785" lon="7.70538610571">
		<tag k="fixme" v="consider place=hamlet" />
		<tag k="name" v="Sjustøl" />
		<tag k="place" v="farm" />
		<tag k="ssr:stedsnr" v="546847" />
	</node>
	<node id="-355081" lat="58.1047805587" lon="7.65901110604">
		<tag k="name" v="Try" />
		<tag k="place" v="hamlet" />
		<tag k="ssr:stedsnr" v="546811" />
	</node>
	<node id="-355592" lat="58.0794666622" lon="7.85930833402">
		<tag k="name" v="Øygardsheia" />
		<tag k="place" v="quarter" />
		<tag k="ssr:stedsnr" v="950448" />
	</node>
	<node id="-355591" lat="58.1046694433" lon="7.76257777122">
		<tag k="name" v="Vedderheia" />
		<tag k="place" v="quarter" />
		<tag k="ssr:stedsnr" v="950156" />
	</node>
	<node id="-355590" lat="58.07226944" lon="7.74542500056">
		<tag k="name" v="Hallandvik" />
		<tag k="place" v="farm" />
		<tag k="ssr:stedsnr" v="938098" />
	</node>
	<node id="-355071" lat="58.1389861139" lon="7.74951110342">
		<tag k="fixme" v="consider place=hamlet" />
		<tag k="name" v="Ravneheia" />
		<tag k="place" v="farm" />
		<tag k="ssr:stedsnr" v="546205" />
	</node>
	<node id="-355069" lat="58.077608331" lon="7.77458332956">
		<tag k="fixme" v="consider place=hamlet" />
		<tag k="name" v="Ausviga" />
		<tag k="place" v="farm" />
		<tag k="ssr:stedsnr" v="546160" />
	</node>
	<node id="-355068" lat="58.0790083372" lon="7.82554444937">
		<tag k="fixme" v="consider place=hamlet" />
		<tag k="name" v="Åros" />
		<tag k="place" v="farm" />
		<tag k="ssr:stedsnr" v="546157" />
	</node>
	<node id="-355066" lat="58.0945972193" lon="7.76611666781">
		<tag k="fixme" v="consider place=hamlet" />
		<tag k="name" v="Kjelland" />
		<tag k="place" v="farm" />
		<tag k="ssr:stedsnr" v="546142" />
	</node>
	<node id="-355065" lat="58.0978138932" lon="7.81529167251">
		<tag k="name" v="Tangvall" />
		<tag k="place" v="village" />
		<tag k="ssr:stedsnr" v="546141" />
	</node>
	<node id="-355062" lat="58.076241666" lon="7.77049721999">
		<tag k="name" v="Ausvigheia" />
		<tag k="place" v="quarter" />
		<tag k="ssr:stedsnr" v="543362" />
	</node>
	<node id="-355573" lat="58.07216667" lon="7.66511388491">
		<tag k="alt_name" v="Svalemyren" />
		<tag k="fixme" v="consider place=hamlet" />
		<tag k="name" v="Svalemyr" />
		<tag k="place" v="farm" />
		<tag k="ssr:stedsnr" v="931922" />
	</node>
	<node id="-355059" lat="58.0904000018" lon="7.82664721941">
		<tag k="name" v="Linneflaten industriområde" />
		<tag k="place" v="quarter" />
		<tag k="ssr:stedsnr" v="525453" />
	</node>
	<node id="-355058" lat="58.0962916647" lon="7.76008611795">
		<tag k="name" v="Krogan" />
		<tag k="place" v="quarter" />
		<tag k="ssr:stedsnr" v="525416" />
	</node>
	<node id="-354545" lat="58.0961083326" lon="7.77222778158">
		<tag k="name" v="Masta" />
		<tag k="place" v="farm" />
		<tag k="ssr:stedsnr" v="21195" />
	</node>
	<node id="-355056" lat="58.1104027804" lon="7.68733332513">
		<tag k="name" v="Eikestøl" />
		<tag k="place" v="farm" />
		<tag k="ssr:stedsnr" v="513089" />
	</node>
	<node id="-354600" lat="58.1104027804" lon="7.68733332513">
		<tag k="fixme" v="consider place=hamlet" />
		<tag k="name" v="Eikestøl" />
		<tag k="place" v="farm" />
		<tag k="ssr:stedsnr" v="61835" />
	</node>
	<node id="-355053" lat="58.0487833321" lon="7.69399445267">
		<tag k="fixme" v="consider place=suburb, village or hamlet" />
		<tag k="name" v="Ålo" />
		<tag k="place" v="quarter" />
		<tag k="ssr:stedsnr" v="509109" />
	</node>
	<node id="-355309" lat="58.0561000035" lon="7.72011389403">
		<tag k="name" v="Vaktheia" />
		<tag k="place" v="quarter" />
		<tag k="ssr:stedsnr" v="707417" />
	</node>
	<node id="-354536" lat="58.0449083329" lon="7.65330555815">
		<tag k="name" v="Østre Eid" />
		<tag k="place" v="farm" />
		<tag k="ssr:stedsnr" v="21125" />
	</node>
	<node id="-354528" lat="58.1334999981" lon="7.64363611426">
		<tag k="name" v="Øygarden" />
		<tag k="place" v="locality" />
		<tag k="ssr:stedsnr" v="21021" />
	</node>
	<node id="-354524" lat="58.0694499957" lon="7.67136388136">
		<tag k="historic" v="shieling" />
		<tag k="name" v="Sto" />
		<tag k="place" v="locality" />
		<tag k="ssr:stedsnr" v="907" />
	</node>
	<node id="-354523" lat="58.0712361084" lon="7.70049999694">
		<tag k="fixme" v="consider place=hamlet" />
		<tag k="name" v="Skarpeid" />
		<tag k="place" v="farm" />
		<tag k="ssr:stedsnr" v="905" />
	</node>
	<node id="-354522" lat="58.0964250029" lon="7.66994444366">
		<tag k="fixme" v="consider place=hamlet" />
		<tag k="name" v="Ospedalen" />
		<tag k="place" v="farm" />
		<tag k="ssr:stedsnr" v="817" />
	</node>
	<node id="-355540" lat="58.1178638926" lon="7.59691388649">
		<tag k="fixme" v="consider place=hamlet" />
		<tag k="name" v="Teland" />
		<tag k="place" v="farm" />
		<tag k="ssr:stedsnr" v="910879" />
	</node>
	<node id="-354510" lat="58.0951277786" lon="7.91115833021">
		<tag k="alt_name" v="Vennemyr" />
		<tag k="fixme" v="consider place=hamlet" />
		<tag k="name" v="Vennemyra" />
		<tag k="place" v="farm" />
		<tag k="ssr:stedsnr" v="162" />
	</node>
	<node id="-354511" lat="58.0835750036" lon="7.78121388304">
		<tag k="alt_name" v="Båråker" />
		<tag k="loc_name" v="Borrågeren" />
		<tag k="name" v="Bårågeren" />
		<tag k="place" v="farm" />
		<tag k="ssr:stedsnr" v="171" />
	</node>
	<node id="-355534" lat="58.1515305551" lon="7.73680554788">
		<tag k="alt_name" v="Kimmestad" />
		<tag k="fixme" v="consider place=hamlet" />
		<tag k="name" v="Kimestad" />
		<tag k="place" v="farm" />
		<tag k="ssr:stedsnr" v="910193" />
	</node>
	<node id="-355532" lat="58.0904944407" lon="7.909333326">
		<tag k="alt_name" v="Øygard;Berge-ødegården" />
		<tag k="name" v="Øygarden" />
		<tag k="place" v="locality" />
		<tag k="ssr:stedsnr" v="910154" />
	</node>
	<node id="-354850" lat="58.12966389" lon="7.60089443717">
		<tag k="alt_name" v="Kjerr;Østre Kjær" />
		<tag k="fixme" v="consider place=hamlet" />
		<tag k="name" v="Kjær" />
		<tag k="place" v="farm" />
		<tag k="ssr:stedsnr" v="243767" />
	</node>
	<node id="-355530" lat="58.0937444408" lon="7.83009999715">
		<tag k="alt_name" v="Tjomsemonen;Moen" />
		<tag k="name" v="Tjomsemoen" />
		<tag k="place" v="farm" />
		<tag k="ssr:stedsnr" v="910141" />
	</node>
	<node id="-355016" lat="58.1145416687" lon="7.8379888815">
		<tag k="name" v="Tofteland lier" />
		<tag k="place" v="hamlet" />
		<tag k="ssr:stedsnr" v="506151" />
	</node>
	<node id="-354592" lat="58.0728722182" lon="7.64547221739">
		<tag k="name" v="Stybstad" />
		<tag k="place" v="farm" />
		<tag k="ssr:stedsnr" v="56540" />
	</node>
	<node id="-355001" lat="58.0646499977" lon="7.6862055583">
		<tag k="fixme" v="consider place=hamlet" />
		<tag k="name" v="Hellesvig" />
		<tag k="place" v="farm" />
		<tag k="ssr:stedsnr" v="485882" />
	</node>
	<node id="-354998" lat="58.1075027737" lon="7.69987500545">
		<tag k="alt_name" v="Tufte" />
		<tag k="fixme" v="consider place=hamlet" />
		<tag k="name" v="Tofte" />
		<tag k="place" v="farm" />
		<tag k="ssr:stedsnr" v="485809" />
	</node>
	<node id="-354996" lat="58.0971166655" lon="7.67882500729">
		<tag k="name" v="Holmen" />
		<tag k="place" v="hamlet" />
		<tag k="ssr:stedsnr" v="485791" />
	</node>
	<node id="-354590" lat="58.0711111142" lon="7.75424166019">
		<tag k="name" v="Hallandvik" />
		<tag k="place" v="farm" />
		<tag k="ssr:stedsnr" v="28120" />
	</node>
	<node id="-354990" lat="58.0787166673" lon="7.80858055566">
		<tag k="name" v="Høllen" />
		<tag k="place" v="village" />
		<tag k="ssr:stedsnr" v="485141" />
	</node>
	<node id="-354985" lat="58.0775083301" lon="7.79563332812">
		<tag k="name" v="Høllen Vest industriområde" />
		<tag k="place" v="quarter" />
		<tag k="ssr:stedsnr" v="465442" />
	</node>
	<node id="-355494" lat="58.0792194433" lon="7.8124638912">
		<tag k="name" v="Hølleheia" />
		<tag k="place" v="quarter" />
		<tag k="ssr:stedsnr" v="871190" />
	</node>
	<node id="-355493" lat="58.0775527779" lon="7.83249444682">
		<tag k="name" v="Årosskogen" />
		<tag k="place" v="quarter" />
		<tag k="ssr:stedsnr" v="871191" />
	</node>
	<node id="-354962" lat="58.0764666654" lon="7.91801666344">
		<tag k="fixme" v="consider place=hamlet" />
		<tag k="loc_name" v="Vognsneset" />
		<tag k="name" v="Vognsnes" />
		<tag k="place" v="farm" />
		<tag k="ssr:stedsnr" v="446892" />
	</node>
	<node id="-355473" lat="58.0557750001" lon="7.71090555347">
		<tag k="alt_name" v="Selskjer;Ytre Trysnes" />
		<tag k="name" v="Selskjær" />
		<tag k="place" v="hamlet" />
		<tag k="ssr:stedsnr" v="850880" />
	</node>
	<node id="-355472" lat="58.1393388889" lon="7.6344833359">
		<tag k="fixme" v="consider place=hamlet" />
		<tag k="name" v="Ramsland" />
		<tag k="place" v="farm" />
		<tag k="ssr:stedsnr" v="850740" />
	</node>
	<node id="-354956" lat="58.089275001" lon="7.81548610447">
		<tag k="name" v="Nygård" />
		<tag k="place" v="farm" />
		<tag k="ssr:stedsnr" v="446390" />
	</node>
	<node id="-354955" lat="58.0743861106" lon="7.86375833464">
		<tag k="alt_name" v="Søvik" />
		<tag k="name" v="Søvig" />
		<tag k="place" v="village" />
		<tag k="ssr:stedsnr" v="446374" />
	</node>
	<node id="-355464" lat="58.1186499982" lon="7.75206111134">
		<tag k="fixme" v="consider place=hamlet" />
		<tag k="name" v="Repstad" />
		<tag k="place" v="farm" />
		<tag k="ssr:stedsnr" v="850241" />
	</node>
	<node id="-355462" lat="58.1034916654" lon="7.74505555688">
		<tag k="name" v="Tag" />
		<tag k="place" v="farm" />
		<tag k="ssr:stedsnr" v="850135" />
	</node>
	<node id="-355458" lat="58.1104027804" lon="7.68733332513">
		<tag k="name" v="Eikestøl" />
		<tag k="place" v="hamlet" />
		<tag k="ssr:stedsnr" v="848876" />
	</node>
	<node id="-355457" lat="58.0770222262" lon="7.8905666716">
		<tag k="name" v="Kileheia" />
		<tag k="place" v="neighbourhood" />
		<tag k="ssr:stedsnr" v="844051" />
	</node>
	<node id="-354925" lat="58.1425500004" lon="7.67316110744">
		<tag k="fixme" v="consider place=hamlet" />
		<tag k="name" v="Heståsen" />
		<tag k="place" v="farm" />
		<tag k="ssr:stedsnr" v="425764" />
	</node>
	<node id="-354604" lat="58.0540500008" lon="7.67355000552">
		<tag k="fixme" v="consider place=hamlet" />
		<tag k="name" v="Dvalås" />
		<tag k="place" v="farm" />
		<tag k="ssr:stedsnr" v="61999" />
	</node>
	<node id="-354915" lat="58.0756222224" lon="7.73562222862">
		<tag k="fixme" v="consider place=hamlet" />
		<tag k="name" v="Ormestad" />
		<tag k="place" v="farm" />
		<tag k="ssr:stedsnr" v="425163" />
	</node>
	<node id="-355426" lat="58.0820194414" lon="7.8424888879">
		<tag k="name" v="Stokkelandsskogen" />
		<tag k="place" v="quarter" />
		<tag k="ssr:stedsnr" v="810337" />
	</node>
	<node id="-354913" lat="58.1033777733" lon="7.75831110613">
		<tag k="name" v="Vassbotn" />
		<tag k="place" v="farm" />
		<tag k="ssr:stedsnr" v="425129" />
	</node>
	<node id="-355422" lat="58.0947499995" lon="7.89393332556">
		<tag k="name" v="Skogen" />
		<tag k="place" v="locality" />
		<tag k="ssr:stedsnr" v="810328" />
	</node>
	<node id="-354909" lat="58.0500055544" lon="7.67561666694">
		<tag k="name" v="Hunskilen" />
		<tag k="place" v="farm" />
		<tag k="ssr:stedsnr" v="419517" />
	</node>
	<node id="-355086" lat="58.1026166675" lon="7.66290277656">
		<tag k="name" v="Vestre Try" />
		<tag k="place" v="farm" />
		<tag k="ssr:stedsnr" v="567011" />
	</node>
	<node id="-355407" lat="58.1139777781" lon="7.64739445109">
		<tag k="name" v="Øygarden" />
		<tag k="place" v="locality" />
		<tag k="ssr:stedsnr" v="810109" />
	</node>
	<node id="-354960" lat="58.0820416711" lon="7.9185083403">
		<tag k="fixme" v="consider place=hamlet" />
		<tag k="loc_name" v="Dalebrotet" />
		<tag k="name" v="Dalebrådet" />
		<tag k="place" v="farm" />
		<tag k="ssr:stedsnr" v="446887" />
	</node>
	<node id="-355395" lat="58.0739916705" lon="7.68529166074">
		<tag k="fixme" v="consider place=hamlet" />
		<tag k="name" v="Røsstad" />
		<tag k="place" v="farm" />
		<tag k="ssr:stedsnr" v="789902" />
	</node>
	<node id="-355389" lat="58.1157055532" lon="7.73645556231">
		<tag k="fixme" v="consider place=hamlet" />
		<tag k="name" v="Heia" />
		<tag k="place" v="farm" />
		<tag k="ssr:stedsnr" v="789241" />
	</node>
	<node id="-355388" lat="58.1381166682" lon="7.7275333404">
		<tag k="alt_name" v="Årstol;Åstøl" />
		<tag k="fixme" v="consider place=hamlet" />
		<tag k="name" v="Årstøl" />
		<tag k="place" v="farm" />
		<tag k="ssr:stedsnr" v="789209" />
	</node>
	<node id="-355376" lat="58.0704638883" lon="7.74335555323">
		<tag k="name" v="Hallandvik" />
		<tag k="place" v="farm" />
		<tag k="ssr:stedsnr" v="756094" />
	</node>
	<node id="-355375" lat="58.0731249976" lon="7.7532555594">
		<tag k="name" v="Hallandvik" />
		<tag k="place" v="farm" />
		<tag k="ssr:stedsnr" v="756092" />
	</node>
	<node id="-355374" lat="58.0716500031" lon="7.74558888489">
		<tag k="name" v="Hallandvik" />
		<tag k="place" v="farm" />
		<tag k="ssr:stedsnr" v="756086" />
	</node>
	<node id="-355373" lat="58.1094194481" lon="7.68991388607">
		<tag k="name" v="Eikestølveien" />
		<tag k="place" v="farm" />
		<tag k="ssr:stedsnr" v="756067" />
	</node>
	<node id="-354857" lat="58.044844448" lon="7.67697777907">
		<tag k="alt_name" v="Ålones" />
		<tag k="name" v="Åloneset" />
		<tag k="place" v="farm" />
		<tag k="ssr:stedsnr" v="243984" />
	</node>
	<node id="-354855" lat="58.0336633387" lon="7.67299942122">
		<tag k="name" v="Salthaug" />
		<tag k="place" v="farm" />
		<tag k="ssr:stedsnr" v="243973" />
	</node>
	<node id="-354854" lat="58.0863750007" lon="7.69641666607">
		<tag k="alt_name" v="Knibe, nedre" />
		<tag k="fixme" v="consider place=hamlet" />
		<tag k="name" v="Nedre Knibe" />
		<tag k="place" v="farm" />
		<tag k="ssr:stedsnr" v="243928" />
	</node>
	<node id="-355364" lat="58.0835666625" lon="7.80175000168">
		<tag k="alt_name" v="Sangvik" />
		<tag k="fixme" v="consider place=hamlet" />
		<tag k="name" v="Sangvig" />
		<tag k="place" v="farm" />
		<tag k="ssr:stedsnr" v="750166" />
	</node>
	<node id="-354310" lat="58.122388885" lon="7.66853610426">
		<tag k="fixme" v="consider place=hamlet" />
		<tag k="name" v="Kleivset" />
		<tag k="place" v="farm" />
		<tag k="ssr:stedsnr" v="364886" />
	</node>
	<node id="-355362" lat="58.1533194439" lon="7.73254166986">
		<tag k="name" v="Hasseldalen" />
		<tag k="place" v="farm" />
		<tag k="ssr:stedsnr" v="749999" />
	</node>
	<node id="-354846" lat="58.0557749989" lon="7.72794999597">
		<tag k="name" v="Solskjer" />
		<tag k="place" v="isolated_dwelling" />
		<tag k="ssr:stedsnr" v="243327" />
	</node>
	<node id="-354840" lat="58.0718916658" lon="7.90945833289">
		<tag k="alt_name" v="Hellevika" />
		<tag k="name" v="Helleviga" />
		<tag k="place" v="farm" />
		<tag k="ssr:stedsnr" v="243176" />
	</node>
	<node id="-354839" lat="58.0758611113" lon="7.91437500215">
		<tag k="fixme" v="consider place=hamlet" />
		<tag k="name" v="Romsvika" />
		<tag k="place" v="farm" />
		<tag k="ssr:stedsnr" v="243175" />
	</node>
	<node id="-354837" lat="58.0881250039" lon="7.85402777803">
		<tag k="name" v="Berge" />
		<tag k="place" v="hamlet" />
		<tag k="ssr:stedsnr" v="242142" />
	</node>
	<node id="-354601" lat="58.1353583366" lon="7.68318333478">
		<tag k="alt_name" v="Svemmeland" />
		<tag k="fixme" v="consider place=hamlet" />
		<tag k="name" v="Svemland" />
		<tag k="place" v="farm" />
		<tag k="ssr:stedsnr" v="61848" />
	</node>
	<node id="-354831" lat="58.0995638925" lon="7.71967499689">
		<tag k="name" v="Lohnelier industriområde" />
		<tag k="place" v="quarter" />
		<tag k="ssr:stedsnr" v="222425" />
	</node>
	<node id="-354830" lat="58.1062055554" lon="7.71090277937">
		<tag k="name" v="Dal" />
		<tag k="place" v="farm" />
		<tag k="ssr:stedsnr" v="210082" />
	</node>
	<node id="-354829" lat="58.1059583363" lon="7.70688888777">
		<tag k="name" v="Dal" />
		<tag k="place" v="farm" />
		<tag k="ssr:stedsnr" v="210081" />
	</node>
	<node id="-354311" lat="58.071424998" lon="7.70611666588">
		<tag k="alt_name" v="Åsan;Åsene" />
		<tag k="fixme" v="consider place=hamlet" />
		<tag k="name" v="Åsane" />
		<tag k="place" v="farm" />
		<tag k="ssr:stedsnr" v="364911" />
	</node>
	<node id="-354822" lat="58.0932777773" lon="7.78293888236">
		<tag k="name" v="Søgne" />
		<tag k="place" v="village" />
		<tag k="ssr:stedsnr" v="206124" />
	</node>
	<node id="-354821" lat="58.0882166631" lon="7.82975278403">
		<tag k="fixme" v="consider place=suburb, village or hamlet" />
		<tag k="name" v="Stausland" />
		<tag k="place" v="quarter" />
		<tag k="ssr:stedsnr" v="206123" />
	</node>
	<node id="-354306" lat="58.0534277805" lon="7.84041388202">
		<tag k="alt_name" v="Ny Hellesund" />
		<tag k="name" v="Ny-Hellesund" />
		<tag k="place" v="hamlet" />
		<tag k="ssr:stedsnr" v="364330" />
	</node>
</osm>
