<?xml version="1.0" encoding="UTF-8"?>
<osm generator="osmapis" version="0.6">
	<node id="-354300" lat="58.0217972224" lon="7.80832499455">
		<tag k="name" v="Songvår" />
		<tag k="place" v="island" />
		<tag k="ssr:stedsnr" v="182364" />
	</node>
	<node id="-354299" lat="58.0526916641" lon="7.81713889262">
		<tag k="name" v="Skarpøya" />
		<tag k="place" v="island" />
		<tag k="ssr:stedsnr" v="182314" />
	</node>
	<node id="-354298" lat="58.0419944453" lon="7.75381388152">
		<tag k="name" v="Lamholmen" />
		<tag k="place" v="islet" />
		<tag k="ssr:stedsnr" v="182307" />
	</node>
	<node id="-354294" lat="58.0778611075" lon="7.92982777934">
		<tag k="alt_name" v="Langøya, store;Langøya store" />
		<tag k="name" v="Store Langøya" />
		<tag k="place" v="islet" />
		<tag k="ssr:stedsnr" v="182158" />
	</node>
	<node id="-354293" lat="58.0874361067" lon="7.92988054993">
		<tag k="alt_name" v="Sandvikdalsfjord;Sandvikdalsfjorden;Sandviksdalsfjorden" />
		<tag k="bay" v="fjord" />
		<tag k="name" v="Sandvigdalsfjorden" />
		<tag k="natural" v="bay" />
		<tag k="ssr:stedsnr" v="182156" />
	</node>
	<node id="-354289" lat="58.0412694415" lon="7.80781111372">
		<tag k="name" v="Hunsøya" />
		<tag k="place" v="island" />
		<tag k="ssr:stedsnr" v="178570" />
	</node>
	<node id="-354288" lat="58.0473111078" lon="7.68537499436">
		<tag k="name" v="Hunskilen" />
		<tag k="natural" v="bay" />
		<tag k="ssr:stedsnr" v="176477" />
	</node>
	<node id="-354287" lat="58.0415333378" lon="7.69563055326">
		<tag k="name" v="Åloøya" />
		<tag k="place" v="island" />
		<tag k="ssr:stedsnr" v="176461" />
	</node>
	<node id="-354286" lat="58.0450999981" lon="7.85127222092">
		<tag k="name" v="Helleboen" />
		<tag k="place" v="locality" />
		<tag k="seamark:type" v="rock" />
		<tag k="ssr:stedsnr" v="146458" />
	</node>
	<node id="-354285" lat="58.0329638912" lon="7.69289444845">
		<tag k="name" v="Skinnholman" />
		<tag k="place" v="islet" />
		<tag k="ssr:stedsnr" v="145997" />
	</node>
	<node id="-354284" lat="58.0562500024" lon="7.80943054968">
		<tag k="name" v="Fruberholmen" />
		<tag k="place" v="islet" />
		<tag k="ssr:stedsnr" v="145610" />
	</node>
	<node id="-354283" lat="58.029922223" lon="7.78392222042">
		<tag k="name" v="Midtre Grønningboen" />
		<tag k="place" v="locality" />
		<tag k="seamark:type" v="rock" />
		<tag k="ssr:stedsnr" v="145579" />
	</node>
	<node id="-354282" lat="58.0385972259" lon="7.75412221499">
		<tag k="fixme" v="consider seamark:type=rock or natural=shoal" />
		<tag k="name" v="Guleskjeret" />
		<tag k="place" v="islet" />
		<tag k="ssr:stedsnr" v="145571" />
	</node>
	<node id="-354281" lat="58.0439888852" lon="7.81832500015">
		<tag k="name" v="Lille Hunsøya" />
		<tag k="place" v="islet" />
		<tag k="ssr:stedsnr" v="145542" />
	</node>
	<node id="-354280" lat="58.0541361153" lon="7.86636944245">
		<tag k="name" v="Krågeholmen" />
		<tag k="place" v="islet" />
		<tag k="ssr:stedsnr" v="145521" />
	</node>
	<node id="-354279" lat="58.0132416709" lon="7.73940554697">
		<tag k="name" v="Fiskeodden" />
		<tag k="natural" v="cape" />
		<tag k="ssr:stedsnr" v="143215" />
	</node>
	<node id="-354277" lat="58.078694442" lon="7.78720000636">
		<tag k="name" v="Torvesanden" />
		<tag k="natural" v="beach" />
		<tag k="place" v="locality" />
		<tag k="ssr:stedsnr" v="143157" />
	</node>
	<node id="-354276" lat="58.073027775" lon="7.78004999477">
		<tag k="alt_name" v="Vester Niglus" />
		<tag k="name" v="Vestre Niglus" />
		<tag k="place" v="islet" />
		<tag k="ssr:stedsnr" v="143156" />
	</node>
	<node id="-354275" lat="58.0725805581" lon="7.76952222147">
		<tag k="name" v="Bekkevika" />
		<tag k="natural" v="bay" />
		<tag k="ssr:stedsnr" v="143151" />
	</node>
	<node id="-354274" lat="58.0487388875" lon="7.78994722674">
		<tag k="name" v="Brennøyholmen" />
		<tag k="place" v="islet" />
		<tag k="ssr:stedsnr" v="142987" />
	</node>
	<node id="-354268" lat="58.068761113" lon="7.93858610348">
		<tag k="name" v="Lille Ryvingen" />
		<tag k="place" v="island" />
		<tag k="ssr:stedsnr" v="142893" />
	</node>
	<node id="-354266" lat="58.0417583332" lon="7.71121665934">
		<tag k="name" v="Stangholmen" />
		<tag k="place" v="islet" />
		<tag k="ssr:stedsnr" v="142876" />
	</node>
	<node id="-354263" lat="58.0177638877" lon="7.72711944835">
		<tag k="name" v="Brennevinsodden" />
		<tag k="natural" v="cape" />
		<tag k="ssr:stedsnr" v="142929" />
	</node>
	<node id="-354262" lat="58.0084722199" lon="7.72707777478">
		<tag k="alt_name" v="Makrellskjær" />
		<tag k="fixme" v="consider seamark:type=rock or natural=shoal" />
		<tag k="name" v="Makrellskjeran" />
		<tag k="place" v="islet" />
		<tag k="ssr:stedsnr" v="142925" />
	</node>
	<node id="-354258" lat="58.0706444454" lon="7.82028611476">
		<tag k="name" v="Grunnholmen" />
		<tag k="place" v="island" />
		<tag k="ssr:stedsnr" v="142188" />
	</node>
	<node id="-354251" lat="58.0566083298" lon="7.78256666232">
		<tag k="name" v="Knutsholmene" />
		<tag k="place" v="island" />
		<tag k="ssr:stedsnr" v="142208" />
	</node>
	<node id="-354250" lat="58.0518888881" lon="7.78611388069">
		<tag k="name" v="Østre Bastholmen" />
		<tag k="place" v="islet" />
		<tag k="ssr:stedsnr" v="142207" />
	</node>
	<node id="-354239" lat="58.0440777735" lon="7.71248332847">
		<tag k="bay" v="fjord" />
		<tag k="name" v="Trysfjordgapet" />
		<tag k="natural" v="bay" />
		<tag k="ssr:stedsnr" v="142100" />
	</node>
	<node id="-354236" lat="58.0533333347" lon="7.71935555897">
		<tag k="name" v="Tømmervigodden" />
		<tag k="natural" v="cape" />
		<tag k="ssr:stedsnr" v="142090" />
	</node>
	<node id="-354229" lat="58.0226527794" lon="7.68993333741">
		<tag k="alt_name" v="Lauvholmen" />
		<tag k="name" v="Lauholmen" />
		<tag k="place" v="islet" />
		<tag k="ssr:stedsnr" v="121954" />
	</node>
	<node id="-354226" lat="58.058219447" lon="7.90928333423">
		<tag k="alt_name" v="Lyngholmen, l;Lyngholmen, lille" />
		<tag k="name" v="Lille Lyngholmen" />
		<tag k="place" v="islet" />
		<tag k="ssr:stedsnr" v="121320" />
	</node>
	<node id="-354219" lat="58.0513722211" lon="7.73424444678">
		<tag k="name" v="Kallholmen" />
		<tag k="place" v="islet" />
		<tag k="ssr:stedsnr" v="117627" />
	</node>
	<node id="-354215" lat="58.0578944433" lon="7.76987221833">
		<tag k="name" v="Lauholmen" />
		<tag k="place" v="islet" />
		<tag k="ssr:stedsnr" v="85764" />
	</node>
	<node id="-354214" lat="58.0506027756" lon="7.76456666753">
		<tag k="name" v="Røseraua" />
		<tag k="place" v="islet" />
		<tag k="ssr:stedsnr" v="85743" />
	</node>
	<node id="-354213" lat="58.056883336" lon="7.74913056015">
		<tag k="name" v="Prestholmsboen" />
		<tag k="place" v="locality" />
		<tag k="seamark:type" v="rock" />
		<tag k="ssr:stedsnr" v="85498" />
	</node>
	<node id="-354212" lat="58.0393555589" lon="7.69091666479">
		<tag k="name" v="Nettholmboen" />
		<tag k="place" v="locality" />
		<tag k="seamark:type" v="rock" />
		<tag k="ssr:stedsnr" v="85404" />
	</node>
	<node id="-354211" lat="58.0422944426" lon="7.90411111149">
		<tag k="name" v="Ydder Mågeskjerboen" />
		<tag k="place" v="locality" />
		<tag k="seamark:type" v="rock" />
		<tag k="ssr:stedsnr" v="85394" />
	</node>
	<node id="-354210" lat="58.0453722201" lon="7.90147499599">
		<tag k="name" v="Sønner Mågeskjerboen" />
		<tag k="place" v="locality" />
		<tag k="seamark:type" v="rock" />
		<tag k="ssr:stedsnr" v="85392" />
	</node>
	<node id="-354204" lat="58.0624611124" lon="7.82306667175">
		<tag k="alt_name" v="Brattholmen øst" />
		<tag k="name" v="Auster Brattholmen" />
		<tag k="place" v="islet" />
		<tag k="ssr:stedsnr" v="82972" />
	</node>
	<node id="-354202" lat="58.0620111079" lon="7.83798332961">
		<tag k="alt_name" v="Springedansen" />
		<tag k="name" v="Springdansen" />
		<tag k="natural" v="strait" />
		<tag k="ssr:stedsnr" v="82964" />
	</node>
	<node id="-354201" lat="58.0213305552" lon="7.72813610846">
		<tag k="name" v="Hovdesund" />
		<tag k="natural" v="strait" />
		<tag k="ssr:stedsnr" v="82899" />
	</node>
	<node id="-354200" lat="58.0213972198" lon="7.69840555575">
		<tag k="name" v="Lille Langøy" />
		<tag k="place" v="islet" />
		<tag k="ssr:stedsnr" v="82895" />
	</node>
	<node id="-354199" lat="58.0250277752" lon="7.72945833364">
		<tag k="fixme" v="multiple name tags, choose one and add the other to alt_name" />
		<tag k="name" v="Klosterholmen;Lille Klosterholmen" />
		<tag k="place" v="islet" />
		<tag k="ssr:stedsnr" v="82894" />
	</node>
	<node id="-354197" lat="58.0703111068" lon="7.69137777657">
		<tag k="name" v="Urholmen" />
		<tag k="place" v="island" />
		<tag k="ssr:stedsnr" v="82920" />
	</node>
	<node id="-354195" lat="58.0732305386" lon="7.90141382748">
		<tag k="name" v="Paradisbukta" />
		<tag k="place" v="island" />
		<tag k="ssr:stedsnr" v="82906" />
	</node>
	<node id="-354186" lat="58.0556250039" lon="7.70581110427">
		<tag k="fixme" v="consider seamark:type=rock or natural=shoal" />
		<tag k="name" v="Selskjer" />
		<tag k="place" v="islet" />
		<tag k="ssr:stedsnr" v="82131" />
	</node>
	<node id="-354184" lat="58.0485111125" lon="7.71386667107">
		<tag k="name" v="Einerholmen" />
		<tag k="place" v="island" />
		<tag k="ssr:stedsnr" v="82122" />
	</node>
	<node id="-354183" lat="58.0471027792" lon="7.69659721922">
		<tag k="alt_name" v="Sandholmene" />
		<tag k="name" v="Sandholman" />
		<tag k="place" v="island" />
		<tag k="ssr:stedsnr" v="82118" />
	</node>
	<node id="-354181" lat="58.0449055551" lon="7.68663056322">
		<tag k="name" v="Ålones" />
		<tag k="natural" v="cape" />
		<tag k="ssr:stedsnr" v="82117" />
	</node>
	<node id="-354156" lat="58.041352774" lon="7.69524166613">
		<tag k="name" v="Åløya" />
		<tag k="place" v="island" />
		<tag k="ssr:stedsnr" v="61960" />
	</node>
	<node id="-354151" lat="58.0679694458" lon="7.80648056251">
		<tag k="bay" v="fjord" />
		<tag k="name" v="Høllefjorden" />
		<tag k="natural" v="bay" />
		<tag k="ssr:stedsnr" v="61328" />
	</node>
	<node id="-354150" lat="58.0688194463" lon="7.78888888045">
		<tag k="alt_name" v="Amfeneset" />
		<tag k="name" v="Amfenes" />
		<tag k="natural" v="cape" />
		<tag k="ssr:stedsnr" v="61165" />
	</node>
	<node id="-354149" lat="58.0765305544" lon="7.9317833307">
		<tag k="alt_name" v="Langøya, l;Langøya lille;Langøya, lille" />
		<tag k="name" v="Lille Langøya" />
		<tag k="place" v="islet" />
		<tag k="ssr:stedsnr" v="61161" />
	</node>
	<node id="-354144" lat="58.0131583297" lon="7.78767499751">
		<tag k="fixme" v="consider seamark:type=rock or natural=shoal" />
		<tag k="name" v="Store Ulveskjeret" />
		<tag k="place" v="islet" />
		<tag k="ssr:stedsnr" v="40641" />
	</node>
	<node id="-354142" lat="58.0289805546" lon="7.79091389386">
		<tag k="alt_name" v="Vester Grønningen" />
		<tag k="name" v="Vestre Grønningen" />
		<tag k="place" v="island" />
		<tag k="ssr:stedsnr" v="24583" />
	</node>
	<node id="-354141" lat="58.0240305512" lon="7.75894722444">
		<tag k="alt_name" v="Gjevekalven" />
		<tag k="name" v="Gjævekalven" />
		<tag k="place" v="locality" />
		<tag k="seamark:type" v="rock" />
		<tag k="ssr:stedsnr" v="24575" />
	</node>
	<node id="-354140" lat="58.0116638914" lon="7.78928055504">
		<tag k="alt_name" v="Østre Ulvøyskjæret;Auster Ulveskjeret" />
		<tag k="fixme" v="consider seamark:type=rock or natural=shoal" />
		<tag k="name" v="Østre Ulvøyskjeran" />
		<tag k="place" v="islet" />
		<tag k="ssr:stedsnr" v="22226" />
	</node>
	<node id="-354137" lat="58.0694083308" lon="7.77871666467">
		<tag k="fixme" v="consider seamark:type=rock or natural=shoal" />
		<tag k="name" v="Gulemannskjærene" />
		<tag k="place" v="islet" />
		<tag k="ssr:stedsnr" v="22176" />
	</node>
	<node id="-354136" lat="58.0762833358" lon="7.78110277737">
		<tag k="fixme" v="consider seamark:type=rock or natural=shoal" />
		<tag k="name" v="Blyskjæret" />
		<tag k="place" v="islet" />
		<tag k="ssr:stedsnr" v="22174" />
	</node>
	<node id="-354135" lat="58.0706277737" lon="7.77788610414">
		<tag k="fixme" v="consider seamark:type=rock or natural=shoal" />
		<tag k="name" v="Kniven" />
		<tag k="place" v="islet" />
		<tag k="ssr:stedsnr" v="22171" />
	</node>
	<node id="-354134" lat="58.0692472215" lon="7.76218056065">
		<tag k="name" v="Brønnvika" />
		<tag k="natural" v="bay" />
		<tag k="ssr:stedsnr" v="22164" />
	</node>
	<node id="-354132" lat="58.0474333308" lon="7.80288333701">
		<tag k="alt_name" v="Galgeholmen" />
		<tag k="name" v="Galjeholmen" />
		<tag k="place" v="islet" />
		<tag k="ssr:stedsnr" v="21983" />
	</node>
	<node id="-354122" lat="58.0820722226" lon="7.68143611091">
		<tag k="name" v="Frøyslandsstranda" />
		<tag k="natural" v="beach" />
		<tag k="place" v="locality" />
		<tag k="ssr:stedsnr" v="21901" />
	</node>
	<node id="-354120" lat="58.0223416649" lon="7.72740833312">
		<tag k="name" v="Hummersundet" />
		<tag k="natural" v="strait" />
		<tag k="ssr:stedsnr" v="21885" />
	</node>
	<node id="-354119" lat="58.0208638886" lon="7.69523054795">
		<tag k="name" v="Bukkholmen" />
		<tag k="place" v="islet" />
		<tag k="ssr:stedsnr" v="21883" />
	</node>
	<node id="-354118" lat="58.0274388897" lon="7.69681666185">
		<tag k="name" v="Lårholmen" />
		<tag k="place" v="islet" />
		<tag k="ssr:stedsnr" v="21875" />
	</node>
	<node id="-354111" lat="58.0660666677" lon="7.84753055071">
		<tag k="name" v="Skiftingsholmen" />
		<tag k="place" v="islet" />
		<tag k="ssr:stedsnr" v="21352" />
	</node>
	<node id="-354105" lat="58.0733833344" lon="7.83856666124">
		<tag k="name" v="Kjølpevika" />
		<tag k="natural" v="bay" />
		<tag k="ssr:stedsnr" v="21254" />
	</node>
	<node id="-354104" lat="58.0740111084" lon="7.82050278572">
		<tag k="alt_name" v="Årosstranda" />
		<tag k="name" v="Årossanden" />
		<tag k="natural" v="beach" />
		<tag k="place" v="locality" />
		<tag k="ssr:stedsnr" v="21250" />
	</node>
	<node id="-354101" lat="58.0513499977" lon="7.76802222238">
		<tag k="name" v="Torkelsholmen" />
		<tag k="place" v="island" />
		<tag k="ssr:stedsnr" v="21214" />
	</node>
	<node id="-354100" lat="58.0631777794" lon="7.74069444725">
		<tag k="name" v="Ureholmen" />
		<tag k="place" v="island" />
		<tag k="ssr:stedsnr" v="21210" />
	</node>
	<node id="-354074" lat="58.0354472178" lon="7.7880333364">
		<tag k="bay" v="fjord" />
		<tag k="name" v="Songvårfjorden" />
		<tag k="natural" v="bay" />
		<tag k="old_name" v="Hundsøyfjorden" />
		<tag k="ssr:stedsnr" v="378" />
	</node>
	<node id="-354073" lat="58.0298555589" lon="7.79311944201">
		<tag k="alt_name" v="Grønningan" />
		<tag k="name" v="Grønningene" />
		<tag k="place" v="islet" />
		<tag k="ssr:stedsnr" v="370" />
	</node>
	<node id="-354072" lat="58.0370333292" lon="7.75748055429">
		<tag k="alt_name" v="Fiske;Vester Fiske" />
		<tag k="name" v="Vestre Fiske" />
		<tag k="place" v="islet" />
		<tag k="ssr:stedsnr" v="369" />
	</node>
	<node id="-354071" lat="58.0604111121" lon="7.91950277979">
		<tag k="alt_name" v="Guleskjera;Guleskjærene" />
		<tag k="fixme" v="consider seamark:type=rock or natural=shoal" />
		<tag k="name" v="Guleskjeran" />
		<tag k="place" v="islet" />
		<tag k="ssr:stedsnr" v="346" />
	</node>
	<node id="-354070" lat="58.0499583373" lon="7.7474916678">
		<tag k="alt_name" v="Lindholmen" />
		<tag k="name" v="Linnholmen" />
		<tag k="place" v="islet" />
		<tag k="ssr:stedsnr" v="340" />
	</node>
	<node id="-354069" lat="58.050088885" lon="7.83796388702">
		<tag k="name" v="Kapelløya" />
		<tag k="place" v="islet" />
		<tag k="ssr:stedsnr" v="324" />
	</node>
	<node id="-354068" lat="58.0534638931" lon="7.77248333099">
		<tag k="name" v="Borøya" />
		<tag k="place" v="island" />
		<tag k="ssr:stedsnr" v="321" />
	</node>
	<node id="-354061" lat="58.0206249974" lon="7.69964165858">
		<tag k="alt_name" v="Langøya" />
		<tag k="name" v="Store Langøy" />
		<tag k="place" v="islet" />
		<tag k="ssr:stedsnr" v="76" />
	</node>
	<node id="-353976" lat="58.0199467448" lon="7.73529764881">
		<tag k="name" v="Hovde" />
		<tag k="place" v="island" />
		<tag k="ssr:stedsnr" v="984348" />
	</node>
	<node id="-353965" lat="58.0528129395" lon="7.77652343356">
		<tag k="name" v="Svanevågen" />
		<tag k="natural" v="bay" />
		<tag k="ssr:stedsnr" v="984232" />
	</node>
	<node id="-353962" lat="58.0546762717" lon="7.84595790437">
		<tag k="name" v="Havbukta" />
		<tag k="natural" v="bay" />
		<tag k="ssr:stedsnr" v="984145" />
	</node>
	<node id="-353960" lat="58.0521639267" lon="7.83477158481">
		<tag k="name" v="Ramsholet" />
		<tag k="natural" v="strait" />
		<tag k="ssr:stedsnr" v="984130" />
	</node>
	<node id="-353939" lat="58.0295194418" lon="7.77936389465">
		<tag k="name" v="Vester Grønningboen" />
		<tag k="place" v="locality" />
		<tag k="seamark:type" v="rock" />
		<tag k="ssr:stedsnr" v="388561" />
	</node>
	<node id="-353938" lat="58.0254333317" lon="7.76106667341">
		<tag k="name" v="Goboen" />
		<tag k="place" v="locality" />
		<tag k="seamark:type" v="rock" />
		<tag k="ssr:stedsnr" v="388553" />
	</node>
	<node id="-353937" lat="58.0496972246" lon="7.8003805493">
		<tag k="name" v="Galjeholmsboen" />
		<tag k="place" v="locality" />
		<tag k="seamark:type" v="rock" />
		<tag k="ssr:stedsnr" v="388519" />
	</node>
	<node id="-353936" lat="58.0607472222" lon="7.8858361066">
		<tag k="name" v="Ikkjevetta" />
		<tag k="place" v="islet" />
		<tag k="ssr:stedsnr" v="388504" />
	</node>
	<node id="-353935" lat="58.0588151922" lon="7.8756662082">
		<tag k="fixme" v="consider seamark:type=rock or natural=shoal" />
		<tag k="name" v="Svarten" />
		<tag k="place" v="islet" />
		<tag k="ssr:stedsnr" v="388495" />
	</node>
	<node id="-353934" lat="58.0687212233" lon="7.90198159173">
		<tag k="name" v="Paradisboen" />
		<tag k="place" v="locality" />
		<tag k="seamark:type" v="rock" />
		<tag k="ssr:stedsnr" v="387569" />
	</node>
	<node id="-353928" lat="58.0609944426" lon="7.83500833013">
		<tag k="alt_name" v="Kvitebjørnsholmen" />
		<tag k="name" v="Kvidbjørnsholmen" />
		<tag k="place" v="islet" />
		<tag k="ssr:stedsnr" v="385975" />
	</node>
	<node id="-353923" lat="58.0147222193" lon="7.70219443728">
		<tag k="alt_name" v="Flatskjær" />
		<tag k="fixme" v="consider seamark:type=rock or natural=shoal" />
		<tag k="name" v="Fladeskjeret" />
		<tag k="place" v="islet" />
		<tag k="ssr:stedsnr" v="385926" />
	</node>
	<node id="-353920" lat="58.0606805563" lon="7.88608611366">
		<tag k="name" v="Inkjevetta" />
		<tag k="place" v="island" />
		<tag k="ssr:stedsnr" v="385901" />
	</node>
	<node id="-353919" lat="58.0714055543" lon="7.91154999239">
		<tag k="alt_name" v="Hellevika" />
		<tag k="name" v="Helleviga" />
		<tag k="natural" v="bay" />
		<tag k="ssr:stedsnr" v="385893" />
	</node>
	<node id="-353918" lat="58.0810111137" lon="7.92451110491">
		<tag k="name" v="Teistholmen" />
		<tag k="place" v="island" />
		<tag k="ssr:stedsnr" v="385892" />
	</node>
	<node id="-353916" lat="58.0866055512" lon="7.92423332541">
		<tag k="name" v="Tjuvika" />
		<tag k="natural" v="bay" />
		<tag k="ssr:stedsnr" v="385875" />
	</node>
	<node id="-353903" lat="58.046061115" lon="7.7874111129">
		<tag k="fixme" v="consider seamark:type=rock or natural=shoal" />
		<tag k="name" v="Bentsholmskjerene" />
		<tag k="place" v="islet" />
		<tag k="ssr:stedsnr" v="385197" />
	</node>
	<node id="-353902" lat="58.0620833364" lon="7.77035000218">
		<tag k="name" v="Ormehola" />
		<tag k="natural" v="bay" />
		<tag k="ssr:stedsnr" v="385190" />
	</node>
	<node id="-353901" lat="58.0527611076" lon="7.7292111109">
		<tag k="name" v="Kompassholmen" />
		<tag k="place" v="island" />
		<tag k="ssr:stedsnr" v="385089" />
	</node>
	<node id="-353882" lat="58.0612777758" lon="7.75175556297">
		<tag k="name" v="Rivenesholmen" />
		<tag k="place" v="island" />
		<tag k="ssr:stedsnr" v="385188" />
	</node>
	<node id="-353881" lat="58.0543555513" lon="7.76605554754">
		<tag k="name" v="Urholmen" />
		<tag k="place" v="islet" />
		<tag k="ssr:stedsnr" v="385185" />
	</node>
	<node id="-353880" lat="58.0677388918" lon="7.81280277893">
		<tag k="alt_name" v="Rauskjæret" />
		<tag k="fixme" v="consider seamark:type=rock or natural=shoal" />
		<tag k="name" v="Rauskjeret" />
		<tag k="place" v="islet" />
		<tag k="ssr:stedsnr" v="385182" />
	</node>
	<node id="-353875" lat="58.0510555534" lon="7.71164443741">
		<tag k="name" v="Lille Lamholmen" />
		<tag k="place" v="island" />
		<tag k="ssr:stedsnr" v="385135" />
	</node>
	<node id="-353870" lat="58.0476750023" lon="7.68411665812">
		<tag k="name" v="Hundskilen" />
		<tag k="natural" v="strait" />
		<tag k="ssr:stedsnr" v="364974" />
	</node>
	<node id="-353865" lat="58.0133166666" lon="7.72648055026">
		<tag k="fixme" v="multiple name tags, choose one and add the other to alt_name" />
		<tag k="name" v="Indre Uvår;Nordre Uvår;Uvår" />
		<tag k="place" v="island" />
		<tag k="ssr:stedsnr" v="364373" />
	</node>
	<node id="-353864" lat="58.0621694449" lon="7.75523333429">
		<tag k="alt_name" v="Rivenes" />
		<tag k="name" v="Riveneset" />
		<tag k="natural" v="cape" />
		<tag k="ssr:stedsnr" v="364348" />
	</node>
	<node id="-353862" lat="58.0479444415" lon="7.82013889042">
		<tag k="name" v="Langøya" />
		<tag k="place" v="islet" />
		<tag k="ssr:stedsnr" v="364324" />
	</node>
	<node id="-353861" lat="58.0424222241" lon="7.76947221664">
		<tag k="name" v="Østre Fiske" />
		<tag k="place" v="islet" />
		<tag k="ssr:stedsnr" v="364314" />
	</node>
	<node id="-353857" lat="58.0684055578" lon="7.7635777745">
		<tag k="name" v="Skiftodden" />
		<tag k="natural" v="cape" />
		<tag k="ssr:stedsnr" v="359581" />
	</node>
	<node id="-353848" lat="58.0267833378" lon="7.8024527835">
		<tag k="fixme" v="consider seamark:type=rock or natural=shoal" />
		<tag k="name" v="Vester Prestvigskjeret" />
		<tag k="place" v="islet" />
		<tag k="ssr:stedsnr" v="328722" />
	</node>
	<node id="-353847" lat="58.0360333301" lon="7.76483055123">
		<tag k="name" v="Midboen" />
		<tag k="place" v="locality" />
		<tag k="seamark:type" v="rock" />
		<tag k="ssr:stedsnr" v="328570" />
	</node>
	<node id="-353846" lat="58.0447250036" lon="7.80491665914">
		<tag k="name" v="Verholmen" />
		<tag k="place" v="islet" />
		<tag k="ssr:stedsnr" v="328529" />
	</node>
	<node id="-353845" lat="58.0486888923" lon="7.89029444657">
		<tag k="fixme" v="multiple name tags, choose one and add the other to alt_name" />
		<tag k="name" v="Brydeskjer;Nore Brydeskjer" />
		<tag k="place" v="locality" />
		<tag k="seamark:type" v="rock" />
		<tag k="ssr:stedsnr" v="328462" />
	</node>
	<node id="-353844" lat="58.0426305572" lon="7.76799165941">
		<tag k="name" v="Store Auster Fiske" />
		<tag k="place" v="islet" />
		<tag k="ssr:stedsnr" v="327740" />
	</node>
	<node id="-353843" lat="58.0596083311" lon="7.86358611913">
		<tag k="name" v="Guleholmen" />
		<tag k="place" v="islet" />
		<tag k="ssr:stedsnr" v="327522" />
	</node>
	<node id="-353833" lat="58.0199527771" lon="7.7277916601">
		<tag k="name" v="Seiviga" />
		<tag k="natural" v="bay" />
		<tag k="ssr:stedsnr" v="324924" />
	</node>
	<node id="-353832" lat="58.017941666" lon="7.69138333145">
		<tag k="alt_name" v="Svarteskjær" />
		<tag k="fixme" v="consider seamark:type=rock or natural=shoal" />
		<tag k="name" v="Svarteskjeret" />
		<tag k="place" v="islet" />
		<tag k="ssr:stedsnr" v="324922" />
	</node>
	<node id="-353831" lat="58.0727611081" lon="7.70293333469">
		<tag k="name" v="Nordstranda" />
		<tag k="natural" v="beach" />
		<tag k="place" v="locality" />
		<tag k="ssr:stedsnr" v="324915" />
	</node>
	<node id="-353829" lat="58.0278222215" lon="7.69489722494">
		<tag k="fixme" v="consider seamark:type=rock or natural=shoal" />
		<tag k="name" v="Skarveskjær" />
		<tag k="place" v="islet" />
		<tag k="ssr:stedsnr" v="324883" />
	</node>
	<node id="-353828" lat="58.028488891" lon="7.70025834099">
		<tag k="name" v="Byttingholmen" />
		<tag k="place" v="islet" />
		<tag k="ssr:stedsnr" v="324876" />
	</node>
	<node id="-353827" lat="58.0246027805" lon="7.69563333795">
		<tag k="alt_name" v="Karensholmen" />
		<tag k="name" v="Karisholmen" />
		<tag k="place" v="islet" />
		<tag k="ssr:stedsnr" v="324875" />
	</node>
	<node id="-353826" lat="58.0651111071" lon="7.73698888117">
		<tag k="name" v="Nodeholmen" />
		<tag k="place" v="island" />
		<tag k="ssr:stedsnr" v="325210" />
	</node>
	<node id="-353825" lat="58.0672472256" lon="7.75329444114">
		<tag k="name" v="Furuholmen" />
		<tag k="place" v="island" />
		<tag k="ssr:stedsnr" v="325205" />
	</node>
	<node id="-353814" lat="58.0700083335" lon="7.84020277401">
		<tag k="name" v="Sjursholmen" />
		<tag k="place" v="island" />
		<tag k="ssr:stedsnr" v="324229" />
	</node>
	<node id="-353813" lat="58.0654277779" lon="7.8378611125">
		<tag k="name" v="Krossneset" />
		<tag k="natural" v="cape" />
		<tag k="ssr:stedsnr" v="324227" />
	</node>
	<node id="-353811" lat="58.0608444425" lon="7.74338333727">
		<tag k="name" v="Greleholmen" />
		<tag k="place" v="island" />
		<tag k="ssr:stedsnr" v="324178" />
	</node>
	<node id="-353806" lat="58.0459888892" lon="7.71854166953">
		<tag k="name" v="Høgholmen" />
		<tag k="place" v="islet" />
		<tag k="ssr:stedsnr" v="324125" />
	</node>
	<node id="-353804" lat="58.0497694426" lon="7.71627778522">
		<tag k="name" v="Salvesholmen" />
		<tag k="place" v="island" />
		<tag k="ssr:stedsnr" v="324124" />
	</node>
	<node id="-353803" lat="58.050405554" lon="7.70732500084">
		<tag k="name" v="Breiviga" />
		<tag k="natural" v="bay" />
		<tag k="ssr:stedsnr" v="324118" />
	</node>
	<node id="-353797" lat="58.0497138877" lon="7.72441111519">
		<tag k="alt_name" v="Brendøy" />
		<tag k="name" v="Brendøya" />
		<tag k="place" v="island" />
		<tag k="ssr:stedsnr" v="324068" />
	</node>
	<node id="-353796" lat="58.0525194417" lon="7.72599722257">
		<tag k="name" v="Tydille indre" />
		<tag k="place" v="island" />
		<tag k="ssr:stedsnr" v="324066" />
	</node>
	<node id="-353786" lat="58.0292444458" lon="7.82422500749">
		<tag k="name" v="Kniven" />
		<tag k="place" v="islet" />
		<tag k="ssr:stedsnr" v="303371" />
	</node>
	<node id="-353785" lat="58.0236721248" lon="7.76582012869">
		<tag k="alt_name" v="Gjeve" />
		<tag k="name" v="Gjæve" />
		<tag k="place" v="islet" />
		<tag k="ssr:stedsnr" v="303368" />
	</node>
	<node id="-353783" lat="58.0554722224" lon="7.87337500693">
		<tag k="alt_name" v="Hellersøyane, yt;Ytre Hellerøya;Hellersøyane, ytre" />
		<tag k="name" v="Ydre Hellersøya" />
		<tag k="place" v="island" />
		<tag k="ssr:stedsnr" v="303319" />
	</node>
	<node id="-353782" lat="58.0397222185" lon="7.76521110647">
		<tag k="alt_name" v="Torsholman" />
		<tag k="name" v="Torsholmen" />
		<tag k="place" v="islet" />
		<tag k="ssr:stedsnr" v="303308" />
	</node>
	<node id="-353780" lat="58.0754083369" lon="7.85338333714">
		<tag k="name" v="Kosseviga" />
		<tag k="natural" v="bay" />
		<tag k="ssr:stedsnr" v="303182" />
	</node>
	<node id="-353774" lat="58.0544111136" lon="7.84411110596">
		<tag k="fixme" v="consider seamark:type=rock or natural=shoal" />
		<tag k="name" v="Greteskjeret" />
		<tag k="place" v="islet" />
		<tag k="ssr:stedsnr" v="302566" />
	</node>
	<node id="-355142" lat="58.0333611096" lon="7.73869166884">
		<tag k="name" v="Ulsboen" />
		<tag k="natural" v="shoal" />
		<tag k="place" v="locality" />
		<tag k="ssr:stedsnr" v="935586" />
	</node>
	<node id="-355141" lat="58.0376694448" lon="7.72023055818">
		<tag k="fixme" v="consider seamark:type=rock or natural=shoal" />
		<tag k="name" v="Klauskjeret" />
		<tag k="place" v="islet" />
		<tag k="ssr:stedsnr" v="935511" />
	</node>
	<node id="-355140" lat="58.0133027777" lon="7.77373889689">
		<tag k="alt_name" v="Vestre Ulvøyskjærene;Vester Ulvøyskjeran;Vester Ulvøyskjæret" />
		<tag k="fixme" v="consider seamark:type=rock or natural=shoal" />
		<tag k="name" v="Vestre Ulvøyskjeran" />
		<tag k="place" v="islet" />
		<tag k="ssr:stedsnr" v="935328" />
	</node>
	<node id="-355139" lat="58.0622722232" lon="7.88119443957">
		<tag k="name" v="Leieboen" />
		<tag k="place" v="locality" />
		<tag k="seamark:type" v="rock" />
		<tag k="ssr:stedsnr" v="934505" />
	</node>
	<node id="-355138" lat="58.0546583358" lon="7.88161943874">
		<tag k="name" v="Tydingen" />
		<tag k="place" v="islet" />
		<tag k="ssr:stedsnr" v="934500" />
	</node>
	<node id="-355137" lat="58.0720638897" lon="7.88334721516">
		<tag k="name" v="Guleholmen" />
		<tag k="place" v="islet" />
		<tag k="ssr:stedsnr" v="934477" />
	</node>
	<node id="-355135" lat="58.0761444446" lon="7.81109723008">
		<tag k="name" v="Høllesanden" />
		<tag k="natural" v="beach" />
		<tag k="place" v="locality" />
		<tag k="ssr:stedsnr" v="932211" />
	</node>
	<node id="-355132" lat="58.0534194489" lon="7.82974166955">
		<tag k="name" v="Drengeholmen" />
		<tag k="place" v="islet" />
		<tag k="ssr:stedsnr" v="931989" />
	</node>
	<node id="-355127" lat="58.0050749986" lon="7.73018611922">
		<tag k="name" v="Steinodden" />
		<tag k="natural" v="cape" />
		<tag k="ssr:stedsnr" v="931939" />
	</node>
	<node id="-355124" lat="58.0582555536" lon="7.84618054716">
		<tag k="alt_name" v="Netholmen" />
		<tag k="name" v="Nettholmen" />
		<tag k="place" v="islet" />
		<tag k="ssr:stedsnr" v="931909" />
	</node>
	<node id="-355123" lat="58.0249666698" lon="7.68854721984">
		<tag k="alt_name" v="Sønner Vassøy" />
		<tag k="name" v="Søndre Vassøy" />
		<tag k="place" v="island" />
		<tag k="ssr:stedsnr" v="931898" />
	</node>
	<node id="-355119" lat="58.0664694441" lon="7.84527778479">
		<tag k="name" v="Åros ende" />
		<tag k="place" v="island" />
		<tag k="ssr:stedsnr" v="931352" />
	</node>
	<node id="-355116" lat="58.0578000025" lon="7.74200000411">
		<tag k="alt_name" v="Vester Kuholmen" />
		<tag k="name" v="Vestre Kuholmen" />
		<tag k="place" v="island" />
		<tag k="ssr:stedsnr" v="931181" />
	</node>
	<node id="-355111" lat="58.0524722237" lon="7.7109361137">
		<tag k="name" v="Lamholmen" />
		<tag k="place" v="island" />
		<tag k="ssr:stedsnr" v="931119" />
	</node>
	<node id="-355094" lat="58.0695194432" lon="7.83356944959">
		<tag k="name" v="Leirkilen" />
		<tag k="natural" v="bay" />
		<tag k="ssr:stedsnr" v="931233" />
	</node>
	<node id="-355092" lat="58.0637239007" lon="7.84046354509">
		<tag k="name" v="Slåttholmen" />
		<tag k="place" v="islet" />
		<tag k="ssr:stedsnr" v="910342" />
	</node>
	<node id="-355091" lat="58.0605861113" lon="7.76498334008">
		<tag k="name" v="Okse" />
		<tag k="place" v="island" />
		<tag k="ssr:stedsnr" v="910335" />
	</node>
	<node id="-355090" lat="58.058629666" lon="7.7446484304">
		<tag k="alt_name" v="Auster Kuholmen;Austre Kuholmen" />
		<tag k="fixme" v="multiple name tags, choose one and add the other to alt_name" />
		<tag k="name" v="Kuholmen;Østre Kuholmen" />
		<tag k="place" v="islet" />
		<tag k="ssr:stedsnr" v="910333" />
	</node>
	<node id="-355089" lat="58.0388555525" lon="7.7223694503">
		<tag k="alt_name" v="Store Geidøy" />
		<tag k="fixme" v="multiple name tags, choose one and add the other to alt_name" />
		<tag k="name" v="Geiderøya;Store Geiderøy" />
		<tag k="place" v="islet" />
		<tag k="ssr:stedsnr" v="910314" />
	</node>
	<node id="-355088" lat="58.0467861155" lon="7.87031110438">
		<tag k="alt_name" v="Svarteskjera;Store Svartskjer" />
		<tag k="fixme" v="consider seamark:type=rock or natural=shoal" />
		<tag k="name" v="Svarteskjer" />
		<tag k="place" v="islet" />
		<tag k="ssr:stedsnr" v="910315" />
	</node>
	<node id="-355082" lat="58.0630277777" lon="7.79768055254">
		<tag k="name" v="Indre Sanketeinholmen" />
		<tag k="place" v="islet" />
		<tag k="ssr:stedsnr" v="909112" />
	</node>
	<node id="-355081" lat="58.0519333301" lon="7.92743611663">
		<tag k="name" v="Lyngholmsboen" />
		<tag k="place" v="locality" />
		<tag k="seamark:type" v="rock" />
		<tag k="ssr:stedsnr" v="907135" />
	</node>
	<node id="-355080" lat="58.0637638869" lon="7.80046945008">
		<tag k="alt_name" v="Indre Kjeøy" />
		<tag k="name" v="Indre Kjeøya" />
		<tag k="place" v="islet" />
		<tag k="ssr:stedsnr" v="906573" />
	</node>
	<node id="-355079" lat="58.0305305529" lon="7.78652778338">
		<tag k="name" v="Nore Grønningboen" />
		<tag k="place" v="locality" />
		<tag k="seamark:type" v="rock" />
		<tag k="ssr:stedsnr" v="874590" />
	</node>
	<node id="-355078" lat="58.0477361111" lon="7.90387778467">
		<tag k="name" v="Nore Mågeskjerboen" />
		<tag k="natural" v="shoal" />
		<tag k="place" v="locality" />
		<tag k="ssr:stedsnr" v="874500" />
	</node>
	<node id="-355077" lat="58.0714916632" lon="7.84050833317">
		<tag k="name" v="Lange Foreholmen" />
		<tag k="place" v="islet" />
		<tag k="ssr:stedsnr" v="873853" />
	</node>
	<node id="-355076" lat="58.0533166656" lon="7.78250278051">
		<tag k="name" v="Bastholman" />
		<tag k="place" v="island" />
		<tag k="ssr:stedsnr" v="873772" />
	</node>
	<node id="-355072" lat="58.0621361092" lon="7.79821111819">
		<tag k="name" v="Sanketeinholmen" />
		<tag k="place" v="islet" />
		<tag k="ssr:stedsnr" v="871970" />
	</node>
	<node id="-355069" lat="58.0158999999" lon="7.72242221584">
		<tag k="name" v="Spiskammeret" />
		<tag k="natural" v="bay" />
		<tag k="ssr:stedsnr" v="871915" />
	</node>
	<node id="-355068" lat="58.0160527737" lon="7.72919721647">
		<tag k="name" v="Uvårkilen" />
		<tag k="natural" v="bay" />
		<tag k="ssr:stedsnr" v="871913" />
	</node>
	<node id="-355066" lat="58.078538888" lon="7.7063722177">
		<tag k="name" v="Blørkilholmen" />
		<tag k="place" v="island" />
		<tag k="ssr:stedsnr" v="871899" />
	</node>
	<node id="-355064" lat="58.0559000031" lon="7.85890278177">
		<tag k="name" v="Torskeholmen" />
		<tag k="place" v="islet" />
		<tag k="ssr:stedsnr" v="871889" />
	</node>
	<node id="-355063" lat="58.0542416643" lon="7.8555666661">
		<tag k="fixme" v="multiple name tags, choose one and add the other to alt_name" />
		<tag k="name" v="Store Kallholmen;Store Kattholmen" />
		<tag k="place" v="islet" />
		<tag k="ssr:stedsnr" v="871890" />
	</node>
	<node id="-355062" lat="58.0498083343" lon="7.86926943715">
		<tag k="fixme" v="consider seamark:type=rock or natural=shoal" />
		<tag k="name" v="Rasvella" />
		<tag k="place" v="islet" />
		<tag k="ssr:stedsnr" v="871886" />
	</node>
	<node id="-355061" lat="58.0795305548" lon="7.92233333684">
		<tag k="name" v="Sauneset" />
		<tag k="natural" v="cape" />
		<tag k="ssr:stedsnr" v="871885" />
	</node>
	<node id="-355060" lat="58.0334250016" lon="7.68112777172">
		<tag k="fixme" v="consider seamark:type=rock or natural=shoal" />
		<tag k="name" v="Makrellskjær" />
		<tag k="place" v="islet" />
		<tag k="ssr:stedsnr" v="871866" />
	</node>
	<node id="-355053" lat="58.041358337" lon="7.75965555735">
		<tag k="name" v="Maurholmen" />
		<tag k="place" v="islet" />
		<tag k="ssr:stedsnr" v="871227" />
	</node>
	<node id="-355048" lat="58.0657861075" lon="7.82126111239">
		<tag k="name" v="Storkilen" />
		<tag k="natural" v="bay" />
		<tag k="ssr:stedsnr" v="871196" />
	</node>
	<node id="-355045" lat="58.0653305537" lon="7.76321110496">
		<tag k="alt_name" v="Ballerholmene" />
		<tag k="name" v="Ballerholman" />
		<tag k="place" v="islet" />
		<tag k="ssr:stedsnr" v="871185" />
	</node>
	<node id="-355044" lat="58.0661111088" lon="7.75610833109">
		<tag k="name" v="Brattholmen" />
		<tag k="place" v="islet" />
		<tag k="ssr:stedsnr" v="871182" />
	</node>
	<node id="-355042" lat="58.0713444422" lon="7.77909443961">
		<tag k="name" v="Lohneholmen" />
		<tag k="place" v="island" />
		<tag k="ssr:stedsnr" v="871176" />
	</node>
	<node id="-355040" lat="58.0545638922" lon="7.78090833084">
		<tag k="name" v="Nordre Bastholmen" />
		<tag k="place" v="islet" />
		<tag k="ssr:stedsnr" v="871157" />
	</node>
	<node id="-355039" lat="58.0516722234" lon="7.78084722741">
		<tag k="name" v="Søndre Bastholmen" />
		<tag k="place" v="islet" />
		<tag k="ssr:stedsnr" v="871155" />
	</node>
	<node id="-355038" lat="58.0529805515" lon="7.76922777356">
		<tag k="name" v="Grasholmen" />
		<tag k="place" v="island" />
		<tag k="ssr:stedsnr" v="871148" />
	</node>
	<node id="-355037" lat="58.0601611086" lon="7.73989166308">
		<tag k="name" v="Massesholmen" />
		<tag k="place" v="island" />
		<tag k="ssr:stedsnr" v="871146" />
	</node>
	<node id="-355036" lat="58.0668777783" lon="7.80278332572">
		<tag k="name" v="Ospeholmen" />
		<tag k="place" v="island" />
		<tag k="ssr:stedsnr" v="871135" />
	</node>
	<node id="-355024" lat="58.0424083315" lon="7.73249445166">
		<tag k="alt_name" v="Langøy" />
		<tag k="name" v="Langøya" />
		<tag k="place" v="islet" />
		<tag k="ssr:stedsnr" v="850721" />
	</node>
	<node id="-355023" lat="58.0257861128" lon="7.73766667477">
		<tag k="alt_name" v="Drengeholmene;Drengene" />
		<tag k="name" v="Drengeholman" />
		<tag k="place" v="islet" />
		<tag k="ssr:stedsnr" v="850385" />
	</node>
	<node id="-355022" lat="58.0156861115" lon="7.79787500525">
		<tag k="name" v="Kubbøya" />
		<tag k="place" v="islet" />
		<tag k="ssr:stedsnr" v="850368" />
	</node>
	<node id="-355021" lat="58.0165944439" lon="7.80717499754">
		<tag k="alt_name" v="Hellersøy" />
		<tag k="name" v="Hellersøya" />
		<tag k="place" v="islet" />
		<tag k="ssr:stedsnr" v="850366" />
	</node>
	<node id="-355020" lat="58.0616166658" lon="7.86614721861">
		<tag k="bay" v="fjord" />
		<tag k="name" v="Herøyfjorden" />
		<tag k="natural" v="bay" />
		<tag k="ssr:stedsnr" v="850344" />
	</node>
	<node id="-355019" lat="58.0677777799" lon="7.77342777475">
		<tag k="bay" v="fjord" />
		<tag k="name" v="Torvefjorden" />
		<tag k="natural" v="bay" />
		<tag k="ssr:stedsnr" v="850339" />
	</node>
	<node id="-355018" lat="58.0432819723" lon="7.89424301286">
		<tag k="alt_name" v="Måkeskjer" />
		<tag k="fixme" v="consider seamark:type=rock or natural=shoal" />
		<tag k="name" v="Mågeskjer" />
		<tag k="place" v="islet" />
		<tag k="ssr:stedsnr" v="850310" />
	</node>
	<node id="-355006" lat="57.9912222179" lon="7.76436111315">
		<tag k="name" v="Trysnesgrunnen" />
		<tag k="natural" v="shoal" />
		<tag k="place" v="locality" />
		<tag k="ssr:stedsnr" v="813980" />
	</node>
	<node id="-355005" lat="58.041163892" lon="7.79487221877">
		<tag k="fixme" v="consider seamark:type=rock or natural=shoal" />
		<tag k="name" v="Store Hogganskjeret" />
		<tag k="place" v="islet" />
		<tag k="ssr:stedsnr" v="813563" />
	</node>
	<node id="-355004" lat="58.0165583336" lon="7.78893054995">
		<tag k="name" v="Vester Kubbøyboen" />
		<tag k="place" v="locality" />
		<tag k="seamark:type" v="rock" />
		<tag k="ssr:stedsnr" v="813561" />
	</node>
	<node id="-355003" lat="58.0297777813" lon="7.79708611923">
		<tag k="alt_name" v="Auster Grønningen" />
		<tag k="name" v="Østre Grønningen" />
		<tag k="place" v="island" />
		<tag k="ssr:stedsnr" v="813553" />
	</node>
	<node id="-355002" lat="58.0353694452" lon="7.7656166628">
		<tag k="name" v="Knuden" />
		<tag k="place" v="locality" />
		<tag k="seamark:type" v="rock" />
		<tag k="ssr:stedsnr" v="813552" />
	</node>
	<node id="-355001" lat="58.0591583358" lon="7.92142222983">
		<tag k="name" v="Gulholmen" />
		<tag k="place" v="islet" />
		<tag k="ssr:stedsnr" v="813490" />
	</node>
	<node id="-355000" lat="58.0559388907" lon="7.85888888335">
		<tag k="name" v="Toskeholmen" />
		<tag k="place" v="islet" />
		<tag k="ssr:stedsnr" v="813484" />
	</node>
	<node id="-354999" lat="58.0447527819" lon="7.92590555362">
		<tag k="name" v="Midgrunden" />
		<tag k="natural" v="shoal" />
		<tag k="place" v="locality" />
		<tag k="ssr:stedsnr" v="813431" />
	</node>
	<node id="-354996" lat="58.064586114" lon="7.74094722922">
		<tag k="name" v="Bremerholmen" />
		<tag k="place" v="island" />
		<tag k="ssr:stedsnr" v="811187" />
	</node>
	<node id="-354995" lat="58.0663944474" lon="7.74360833973">
		<tag k="name" v="Hummervika" />
		<tag k="natural" v="bay" />
		<tag k="ssr:stedsnr" v="811186" />
	</node>
	<node id="-354994" lat="58.0673138867" lon="7.76482222744">
		<tag k="name" v="Ballersundet" />
		<tag k="natural" v="strait" />
		<tag k="ssr:stedsnr" v="811183" />
	</node>
	<node id="-354991" lat="58.0324555541" lon="7.67738332526">
		<tag k="fixme" v="consider seamark:type=rock or natural=shoal" />
		<tag k="name" v="Lindholmskjær" />
		<tag k="place" v="islet" />
		<tag k="ssr:stedsnr" v="810985" />
	</node>
	<node id="-354990" lat="58.0542361152" lon="7.8030472301">
		<tag k="alt_name" v="Mikkelskjerene" />
		<tag k="name" v="Mikkelskjeran" />
		<tag k="place" v="island" />
		<tag k="ssr:stedsnr" v="810982" />
	</node>
	<node id="-354989" lat="58.0577222236" lon="7.80189167133">
		<tag k="name" v="Ydre Kjeøya" />
		<tag k="place" v="islet" />
		<tag k="ssr:stedsnr" v="810979" />
	</node>
	<node id="-354985" lat="58.067819445" lon="7.9175194434">
		<tag k="name" v="Vestre Tjamsøya" />
		<tag k="place" v="island" />
		<tag k="ssr:stedsnr" v="810906" />
	</node>
	<node id="-354980" lat="58.0719972258" lon="7.86867778134">
		<tag k="alt_name" v="Nodenes" />
		<tag k="name" v="Nodeneset" />
		<tag k="natural" v="cape" />
		<tag k="ssr:stedsnr" v="810344" />
	</node>
	<node id="-354977" lat="58.0683388875" lon="7.88001667317">
		<tag k="alt_name" v="Fisket" />
		<tag k="name" v="Fiske" />
		<tag k="place" v="islet" />
		<tag k="ssr:stedsnr" v="810333" />
	</node>
	<node id="-354971" lat="58.0623222199" lon="7.74386666858">
		<tag k="name" v="Kjerkeholmen" />
		<tag k="place" v="island" />
		<tag k="ssr:stedsnr" v="810195" />
	</node>
	<node id="-354970" lat="58.0552694479" lon="7.76984443933">
		<tag k="name" v="Rauna" />
		<tag k="place" v="island" />
		<tag k="ssr:stedsnr" v="810194" />
	</node>
	<node id="-354969" lat="58.0648527738" lon="7.79429722817">
		<tag k="name" v="Høgholmen" />
		<tag k="place" v="island" />
		<tag k="ssr:stedsnr" v="810182" />
	</node>
	<node id="-354955" lat="58.0855444437" lon="7.6779555563">
		<tag k="alt_name" v="Helvetsbukta" />
		<tag k="name" v="Helvetesbukta" />
		<tag k="natural" v="bay" />
		<tag k="ssr:stedsnr" v="810048" />
	</node>
	<node id="-354945" lat="58.0060583311" lon="7.73812778572">
		<tag k="alt_name" v="Klauskjærene;Klauskjeran" />
		<tag k="fixme" v="consider seamark:type=rock or natural=shoal" />
		<tag k="name" v="Klausskjera" />
		<tag k="place" v="islet" />
		<tag k="ssr:stedsnr" v="789384" />
	</node>
	<node id="-354944" lat="58.0599888927" lon="7.85341666874">
		<tag k="bay" v="fjord" />
		<tag k="name" v="Hellesundfjorden" />
		<tag k="natural" v="bay" />
		<tag k="ssr:stedsnr" v="789365" />
	</node>
	<node id="-354943" lat="58.0565472211" lon="7.83304443815">
		<tag k="name" v="Monsøya" />
		<tag k="place" v="island" />
		<tag k="ssr:stedsnr" v="789355" />
	</node>
	<node id="-354940" lat="58.0843749993" lon="7.68787777632">
		<tag k="alt_name" v="Trolleneset" />
		<tag k="name" v="Trollneset" />
		<tag k="natural" v="cape" />
		<tag k="ssr:stedsnr" v="788931" />
	</node>
	<node id="-354935" lat="58.023599004" lon="7.78706671057">
		<tag k="alt_name" v="Ramnøy" />
		<tag k="name" v="Ravnøya" />
		<tag k="place" v="islet" />
		<tag k="ssr:stedsnr" v="782471" />
	</node>
	<node id="-354934" lat="58.0231222267" lon="7.72604722596">
		<tag k="alt_name" v="Vestre Skudeholmen" />
		<tag k="name" v="Vester Skudeholmen" />
		<tag k="place" v="islet" />
		<tag k="ssr:stedsnr" v="779527" />
	</node>
	<node id="-354933" lat="58.0306222222" lon="7.6959277725">
		<tag k="alt_name" v="Nord Vassøy" />
		<tag k="name" v="Nordre Vassøy" />
		<tag k="place" v="island" />
		<tag k="ssr:stedsnr" v="775111" />
	</node>
	<node id="-354925" lat="58.0060416646" lon="7.76576389553">
		<tag k="name" v="Vester Viboen" />
		<tag k="place" v="locality" />
		<tag k="seamark:type" v="rock" />
		<tag k="ssr:stedsnr" v="752995" />
	</node>
	<node id="-354924" lat="58.06587222" lon="7.8154833377">
		<tag k="fixme" v="consider seamark:type=rock or natural=shoal" />
		<tag k="name" v="Stolen" />
		<tag k="place" v="islet" />
		<tag k="ssr:stedsnr" v="752561" />
	</node>
	<node id="-354923" lat="58.0419805595" lon="7.74628055067">
		<tag k="name" v="Torøyboen" />
		<tag k="place" v="locality" />
		<tag k="seamark:type" v="rock" />
		<tag k="ssr:stedsnr" v="752551" />
	</node>
	<node id="-354922" lat="58.0514805527" lon="7.87268888185">
		<tag k="name" v="Lille Rassvella" />
		<tag k="natural" v="shoal" />
		<tag k="place" v="locality" />
		<tag k="ssr:stedsnr" v="752432" />
	</node>
	<node id="-354916" lat="58.0675499972" lon="7.7571638903">
		<tag k="name" v="Flatholmen" />
		<tag k="place" v="island" />
		<tag k="ssr:stedsnr" v="750153" />
	</node>
	<node id="-354912" lat="58.0619999975" lon="7.81371666931">
		<tag k="alt_name" v="Brattholmen vest" />
		<tag k="name" v="Vester Brattholmen" />
		<tag k="place" v="islet" />
		<tag k="ssr:stedsnr" v="749986" />
	</node>
	<node id="-354910" lat="58.0714555514" lon="7.68945832737">
		<tag k="name" v="Storholmen" />
		<tag k="place" v="islet" />
		<tag k="ssr:stedsnr" v="749940" />
	</node>
	<node id="-354907" lat="58.0486777821" lon="7.89061111935">
		<tag k="fixme" v="consider seamark:type=rock or natural=shoal" />
		<tag k="name" v="Brydeskjer" />
		<tag k="place" v="islet" />
		<tag k="ssr:stedsnr" v="749914" />
	</node>
	<node id="-354895" lat="58.0754361148" lon="7.84189443956">
		<tag k="name" v="Kvernhusvika" />
		<tag k="natural" v="bay" />
		<tag k="ssr:stedsnr" v="749233" />
	</node>
	<node id="-354893" lat="58.052833333" lon="7.7769388933">
		<tag k="name" v="Borøybukta" />
		<tag k="natural" v="bay" />
		<tag k="ssr:stedsnr" v="749193" />
	</node>
	<node id="-354892" lat="58.0592083375" lon="7.76237499252">
		<tag k="name" v="Søndre Oksebukta" />
		<tag k="natural" v="bay" />
		<tag k="ssr:stedsnr" v="749175" />
	</node>
	<node id="-354891" lat="58.0485111068" lon="7.78604722494">
		<tag k="alt_name" v="Østre Brennøy" />
		<tag k="name" v="Auster Brendøya" />
		<tag k="place" v="island" />
		<tag k="ssr:stedsnr" v="749169" />
	</node>
	<node id="-354886" lat="58.0475249971" lon="7.68869722207">
		<tag k="name" v="Gulholmen" />
		<tag k="place" v="island" />
		<tag k="ssr:stedsnr" v="749108" />
	</node>
	<node id="-354879" lat="58.0438499963" lon="7.66882777159">
		<tag k="alt_name" v="Komlefjorden" />
		<tag k="bay" v="fjord" />
		<tag k="name" v="Kumlefjorden" />
		<tag k="natural" v="bay" />
		<tag k="ssr:stedsnr" v="728980" />
	</node>
	<node id="-354873" lat="58.0272999976" lon="7.7308444498">
		<tag k="alt_name" v="Bødelen" />
		<tag k="name" v="Bøddelen" />
		<tag k="place" v="islet" />
		<tag k="ssr:stedsnr" v="728334" />
	</node>
	<node id="-354871" lat="58.0435583362" lon="7.72079722182">
		<tag k="alt_name" v="Høgholmen" />
		<tag k="name" v="Hellersøya" />
		<tag k="place" v="islet" />
		<tag k="ssr:stedsnr" v="728277" />
	</node>
	<node id="-354868" lat="58.0543638861" lon="7.84277222758">
		<tag k="alt_name" v="Signeskjeret" />
		<tag k="fixme" v="consider seamark:type=rock or natural=shoal" />
		<tag k="name" v="Signalskjæret" />
		<tag k="place" v="islet" />
		<tag k="ssr:stedsnr" v="727557" />
	</node>
	<node id="-354867" lat="58.045744444" lon="7.74013611258">
		<tag k="name" v="Torø" />
		<tag k="place" v="islet" />
		<tag k="ssr:stedsnr" v="724576" />
	</node>
	<node id="-354861" lat="58.0721472207" lon="7.84448611545">
		<tag k="bay" v="fjord" />
		<tag k="name" v="Kossevigfjorden" />
		<tag k="natural" v="bay" />
		<tag k="ssr:stedsnr" v="707216" />
	</node>
	<node id="-354860" lat="58.0511944421" lon="7.74246666129">
		<tag k="name" v="Slangeholmen" />
		<tag k="place" v="islet" />
		<tag k="ssr:stedsnr" v="692594" />
	</node>
	<node id="-354859" lat="58.0596444434" lon="7.80182778318">
		<tag k="name" v="Mellom-Kjeøya" />
		<tag k="place" v="islet" />
		<tag k="ssr:stedsnr" v="692568" />
	</node>
	<node id="-354858" lat="58.051347222" lon="7.79734444033">
		<tag k="fixme" v="consider seamark:type=rock or natural=shoal" />
		<tag k="name" v="Fladskjeret" />
		<tag k="place" v="islet" />
		<tag k="ssr:stedsnr" v="692565" />
	</node>
	<node id="-354857" lat="58.0252083311" lon="7.75265833711">
		<tag k="name" v="Seiboen" />
		<tag k="place" v="locality" />
		<tag k="seamark:type" v="rock" />
		<tag k="ssr:stedsnr" v="692545" />
	</node>
	<node id="-354856" lat="58.0428833306" lon="7.82320555443">
		<tag k="name" v="Hummerboen" />
		<tag k="place" v="locality" />
		<tag k="seamark:type" v="rock" />
		<tag k="ssr:stedsnr" v="692508" />
	</node>
	<node id="-354854" lat="58.0422222193" lon="7.77015833004">
		<tag k="name" v="Lille Auster Fiske" />
		<tag k="place" v="islet" />
		<tag k="ssr:stedsnr" v="691770" />
	</node>
	<node id="-354848" lat="58.0634361073" lon="7.79233056078">
		<tag k="name" v="Simonsholmen" />
		<tag k="place" v="islet" />
		<tag k="ssr:stedsnr" v="689974" />
	</node>
	<node id="-354844" lat="58.0600805559" lon="7.845224993">
		<tag k="name" v="Urholmen" />
		<tag k="place" v="islet" />
		<tag k="ssr:stedsnr" v="689888" />
	</node>
	<node id="-354843" lat="58.0629111105" lon="7.84677499998">
		<tag k="name" v="Risholmen" />
		<tag k="place" v="islet" />
		<tag k="ssr:stedsnr" v="689886" />
	</node>
	<node id="-354842" lat="58.0757388913" lon="7.91580834022">
		<tag k="alt_name" v="Romsvika" />
		<tag k="name" v="Romsviga" />
		<tag k="natural" v="bay" />
		<tag k="ssr:stedsnr" v="689883" />
	</node>
	<node id="-354841" lat="58.0842749988" lon="7.92812500236">
		<tag k="name" v="Tjuholmen" />
		<tag k="place" v="island" />
		<tag k="ssr:stedsnr" v="689873" />
	</node>
	<node id="-354839" lat="58.040069442" lon="7.7191777757">
		<tag k="alt_name" v="Lille Geidøy" />
		<tag k="name" v="Lille Geiderøy" />
		<tag k="place" v="islet" />
		<tag k="ssr:stedsnr" v="689859" />
	</node>
	<node id="-354831" lat="58.0647277805" lon="7.82808056028">
		<tag k="name" v="Geitetangen" />
		<tag k="natural" v="cape" />
		<tag k="ssr:stedsnr" v="689235" />
	</node>
	<node id="-354830" lat="58.0665833366" lon="7.84202222721">
		<tag k="alt_name" v="Lille Furuholmen" />
		<tag k="name" v="Lille Foreholmen" />
		<tag k="place" v="islet" />
		<tag k="ssr:stedsnr" v="689236" />
	</node>
	<node id="-354829" lat="58.0795000026" lon="7.80503055699">
		<tag k="name" v="Solta" />
		<tag k="natural" v="bay" />
		<tag k="ssr:stedsnr" v="689230" />
	</node>
	<node id="-354827" lat="58.0738055538" lon="7.78288611463">
		<tag k="name" v="Østre Niglus" />
		<tag k="place" v="island" />
		<tag k="ssr:stedsnr" v="689222" />
	</node>
	<node id="-354826" lat="58.0740361126" lon="7.76865277574">
		<tag k="name" v="Oftenesstranda" />
		<tag k="natural" v="beach" />
		<tag k="place" v="locality" />
		<tag k="ssr:stedsnr" v="689221" />
	</node>
	<node id="-354825" lat="58.0700916686" lon="7.74953055218">
		<tag k="name" v="Hallandvikkilen" />
		<tag k="natural" v="strait" />
		<tag k="ssr:stedsnr" v="689215" />
	</node>
	<node id="-354821" lat="58.0456222251" lon="7.76983610664">
		<tag k="alt_name" v="Vrakeholmene" />
		<tag k="name" v="Vrageholman" />
		<tag k="place" v="island" />
		<tag k="ssr:stedsnr" v="689192" />
	</node>
	<node id="-354815" lat="58.0201361135" lon="7.7228944473">
		<tag k="name" v="Kileholmen" />
		<tag k="place" v="islet" />
		<tag k="ssr:stedsnr" v="688932" />
	</node>
	<node id="-354810" lat="58.0468083356" lon="7.70103056374">
		<tag k="alt_name" v="Trosholmen" />
		<tag k="name" v="Trossholmen" />
		<tag k="place" v="island" />
		<tag k="ssr:stedsnr" v="688125" />
	</node>
	<node id="-354800" lat="58.0572888867" lon="7.72874445043">
		<tag k="name" v="Solvigfjorden" />
		<tag k="natural" v="bay" />
		<tag k="ssr:stedsnr" v="688072" />
	</node>
	<node id="-354791" lat="58.0883583344" lon="7.67748611835">
		<tag k="name" v="Katten" />
		<tag k="place" v="island" />
		<tag k="ssr:stedsnr" v="688001" />
	</node>
	<node id="-354782" lat="58.0078166653" lon="7.73358055862">
		<tag k="fixme" v="multiple name tags, choose one and add the other to alt_name" />
		<tag k="name" v="Søndre Uvår;Ydre Uvår" />
		<tag k="place" v="island" />
		<tag k="ssr:stedsnr" v="667354" />
	</node>
	<node id="-354773" lat="58.0161805512" lon="7.7031388914">
		<tag k="name" v="Stangholmen" />
		<tag k="place" v="islet" />
		<tag k="ssr:stedsnr" v="667098" />
	</node>
	<node id="-354770" lat="58.0420055523" lon="7.87301945199">
		<tag k="fixme" v="consider seamark:type=rock or natural=shoal" />
		<tag k="name" v="Lille Svartskjer" />
		<tag k="place" v="islet" />
		<tag k="ssr:stedsnr" v="664161" />
	</node>
	<node id="-354769" lat="58.0364638871" lon="7.92383332542">
		<tag k="name" v="Hanegalsboen" />
		<tag k="place" v="locality" />
		<tag k="seamark:type" v="rock" />
		<tag k="ssr:stedsnr" v="664121" />
	</node>
	<node id="-354764" lat="58.0474944471" lon="7.74158055574">
		<tag k="name" v="Gullholmen" />
		<tag k="place" v="islet" />
		<tag k="ssr:stedsnr" v="631619" />
	</node>
	<node id="-354763" lat="58.0131944459" lon="7.7625027858">
		<tag k="alt_name" v="Sønner Gjeveboen" />
		<tag k="name" v="Sønner Gjæveboen" />
		<tag k="place" v="locality" />
		<tag k="seamark:type" v="rock" />
		<tag k="ssr:stedsnr" v="631573" />
	</node>
	<node id="-354762" lat="58.0589194479" lon="7.86092777121">
		<tag k="name" v="Brageholmen" />
		<tag k="place" v="islet" />
		<tag k="ssr:stedsnr" v="630488" />
	</node>
	<node id="-354759" lat="58.0643694449" lon="7.7385166724">
		<tag k="name" v="Selholmen" />
		<tag k="place" v="island" />
		<tag k="ssr:stedsnr" v="628196" />
	</node>
	<node id="-354758" lat="58.0681500022" lon="7.77758054922">
		<tag k="fixme" v="consider seamark:type=rock or natural=shoal" />
		<tag k="name" v="Gulemann" />
		<tag k="place" v="islet" />
		<tag k="ssr:stedsnr" v="628192" />
	</node>
	<node id="-354743" lat="58.0724888878" lon="7.89912500143">
		<tag k="name" v="Vestre Paradisholmen" />
		<tag k="place" v="island" />
		<tag k="ssr:stedsnr" v="627923" />
	</node>
	<node id="-354742" lat="58.0701832932" lon="7.9441708745">
		<tag k="alt_name" v="Ryvingen" />
		<tag k="name" v="Store Ryvingen" />
		<tag k="place" v="island" />
		<tag k="ssr:stedsnr" v="627915" />
	</node>
	<node id="-354741" lat="58.0306805571" lon="7.68898888555">
		<tag k="name" v="Krabbesund" />
		<tag k="natural" v="strait" />
		<tag k="ssr:stedsnr" v="627903" />
	</node>
	<node id="-354740" lat="58.0233583317" lon="7.7302361196">
		<tag k="name" v="Vrakholmen" />
		<tag k="place" v="islet" />
		<tag k="ssr:stedsnr" v="627897" />
	</node>
	<node id="-354739" lat="58.0308555523" lon="7.68796667373">
		<tag k="name" v="Gulholmen" />
		<tag k="place" v="islet" />
		<tag k="ssr:stedsnr" v="627894" />
	</node>
	<node id="-354719" lat="58.0432250019" lon="7.66282777694">
		<tag k="name" v="Eidsbukta" />
		<tag k="natural" v="bay" />
		<tag k="ssr:stedsnr" v="627111" />
	</node>
	<node id="-354703" lat="58.0415333376" lon="7.8077638926">
		<tag k="name" v="Hundsøya" />
		<tag k="place" v="islet" />
		<tag k="ssr:stedsnr" v="606347" />
	</node>
	<node id="-354702" lat="58.0355027804" lon="7.730858334">
		<tag k="alt_name" v="Havnøyane;Havnøy" />
		<tag k="name" v="Havnøyan" />
		<tag k="place" v="islet" />
		<tag k="ssr:stedsnr" v="606345" />
	</node>
	<node id="-354700" lat="58.0685169772" lon="7.92465743193">
		<tag k="name" v="Tjamsøya" />
		<tag k="place" v="island" />
		<tag k="ssr:stedsnr" v="606317" />
	</node>
	<node id="-354699" lat="58.0561083365" lon="7.78779443904">
		<tag k="name" v="Sådøya" />
		<tag k="place" v="islet" />
		<tag k="ssr:stedsnr" v="606304" />
	</node>
	<node id="-354696" lat="58.0810555595" lon="7.91783054993">
		<tag k="name" v="Svensvika" />
		<tag k="natural" v="bay" />
		<tag k="ssr:stedsnr" v="606166" />
	</node>
	<node id="-354683" lat="58.0040944428" lon="7.78843610709">
		<tag k="name" v="Auster Viboen" />
		<tag k="place" v="locality" />
		<tag k="seamark:type" v="rock" />
		<tag k="ssr:stedsnr" v="570993" />
	</node>
	<node id="-354682" lat="58.0224833347" lon="7.71252777878">
		<tag k="name" v="Uvårboen" />
		<tag k="place" v="locality" />
		<tag k="seamark:type" v="rock" />
		<tag k="ssr:stedsnr" v="570518" />
	</node>
	<node id="-354681" lat="58.0065111085" lon="7.70115277837">
		<tag k="name" v="Tungeboan" />
		<tag k="place" v="locality" />
		<tag k="seamark:type" v="rock" />
		<tag k="ssr:stedsnr" v="570517" />
	</node>
	<node id="-354680" lat="58.0415194488" lon="7.82614722066">
		<tag k="name" v="Skarvøyboen" />
		<tag k="place" v="locality" />
		<tag k="seamark:type" v="rock" />
		<tag k="ssr:stedsnr" v="570479" />
	</node>
	<node id="-354677" lat="58.0443361149" lon="7.7909194405">
		<tag k="alt_name" v="Madsholmen" />
		<tag k="name" v="Massholmen" />
		<tag k="place" v="islet" />
		<tag k="ssr:stedsnr" v="567995" />
	</node>
	<node id="-354675" lat="58.0575166686" lon="7.7996277703">
		<tag k="name" v="Tyddeberholmen" />
		<tag k="place" v="islet" />
		<tag k="ssr:stedsnr" v="567988" />
	</node>
	<node id="-354671" lat="58.017352775" lon="7.72238888092">
		<tag k="name" v="Ramsdalsodden" />
		<tag k="natural" v="cape" />
		<tag k="ssr:stedsnr" v="567936" />
	</node>
	<node id="-354669" lat="58.076269444" lon="7.69283611604">
		<tag k="name" v="Lusodden" />
		<tag k="natural" v="cape" />
		<tag k="ssr:stedsnr" v="567925" />
	</node>
	<node id="-354668" lat="58.0269944427" lon="7.68683610742">
		<tag k="fixme" v="consider seamark:type=rock or natural=shoal" />
		<tag k="name" v="Masteskjær" />
		<tag k="place" v="islet" />
		<tag k="ssr:stedsnr" v="567891" />
	</node>
	<node id="-354664" lat="58.0704611087" lon="7.85193611717">
		<tag k="name" v="Rauskjæret" />
		<tag k="place" v="island" />
		<tag k="ssr:stedsnr" v="567320" />
	</node>
	<node id="-354662" lat="58.0162333359" lon="7.74043056363">
		<tag k="alt_name" v="Skotteskjæret" />
		<tag k="fixme" v="consider seamark:type=rock or natural=shoal" />
		<tag k="name" v="Skotteskjeran" />
		<tag k="place" v="islet" />
		<tag k="ssr:stedsnr" v="567244" />
	</node>
	<node id="-354653" lat="58.0499027762" lon="7.71380555266">
		<tag k="name" v="Stompeholmen" />
		<tag k="place" v="island" />
		<tag k="ssr:stedsnr" v="567121" />
	</node>
	<node id="-354652" lat="58.0435444433" lon="7.69922778089">
		<tag k="alt_name" v="Bukkmannsholmen" />
		<tag k="name" v="Bukkmannholmen" />
		<tag k="place" v="island" />
		<tag k="ssr:stedsnr" v="567118" />
	</node>
	<node id="-354632" lat="58.0676611086" lon="7.87000832559">
		<tag k="name" v="Herøya" />
		<tag k="place" v="island" />
		<tag k="ssr:stedsnr" v="546320" />
	</node>
	<node id="-354631" lat="58.0516655589" lon="7.73457071786">
		<tag k="alt_name" v="Kalkholmen;Kalholmen" />
		<tag k="name" v="Kallholmen" />
		<tag k="place" v="islet" />
		<tag k="ssr:stedsnr" v="546310" />
	</node>
	<node id="-354630" lat="58.0559833319" lon="7.92195833679">
		<tag k="alt_name" v="Lyngholmen, store" />
		<tag k="name" v="Store Lyngholmen" />
		<tag k="place" v="islet" />
		<tag k="ssr:stedsnr" v="546305" />
	</node>
	<node id="-354629" lat="58.0551777805" lon="7.90012500167">
		<tag k="alt_name" v="Flateskjer;Flateskjæret" />
		<tag k="fixme" v="consider seamark:type=rock or natural=shoal" />
		<tag k="name" v="Fladeskjer" />
		<tag k="place" v="islet" />
		<tag k="ssr:stedsnr" v="546297" />
	</node>
	<node id="-354628" lat="58.0426666658" lon="7.83638611659">
		<tag k="name" v="Skarvøya" />
		<tag k="place" v="islet" />
		<tag k="ssr:stedsnr" v="546296" />
	</node>
	<node id="-354627" lat="58.045674998" lon="7.74128888161">
		<tag k="alt_name" v="Torsøya" />
		<tag k="name" v="Torøya" />
		<tag k="place" v="islet" />
		<tag k="ssr:stedsnr" v="546294" />
	</node>
	<node id="-354616" lat="58.0205555567" lon="7.69089166221">
		<tag k="fixme" v="multiple name tags, choose one and add the other to alt_name" />
		<tag k="name" v="Ellingsholmen;Ellingsøya" />
		<tag k="place" v="islet" />
		<tag k="ssr:stedsnr" v="546081" />
	</node>
	<node id="-354614" lat="58.0461916672" lon="7.70572777743">
		<tag k="name" v="Nodevigholman" />
		<tag k="place" v="islet" />
		<tag k="ssr:stedsnr" v="542512" />
	</node>
	<node id="-354613" lat="58.0421055546" lon="7.672605562">
		<tag k="bay" v="fjord" />
		<tag k="name" v="Kummelsfjorden" />
		<tag k="natural" v="bay" />
		<tag k="ssr:stedsnr" v="540524" />
	</node>
	<node id="-354608" lat="58.0251416628" lon="7.80939722769">
		<tag k="fixme" v="consider seamark:type=rock or natural=shoal" />
		<tag k="name" v="Auster Prestvigskjeran" />
		<tag k="place" v="islet" />
		<tag k="ssr:stedsnr" v="510766" />
	</node>
	<node id="-354607" lat="58.0129416669" lon="7.81423888097">
		<tag k="fixme" v="consider seamark:type=rock or natural=shoal" />
		<tag k="name" v="Hellersøyskjeret" />
		<tag k="place" v="islet" />
		<tag k="ssr:stedsnr" v="510612" />
	</node>
	<node id="-354605" lat="58.0680527782" lon="7.88788054757">
		<tag k="fixme" v="consider seamark:type=rock or natural=shoal" />
		<tag k="name" v="Skinka" />
		<tag k="place" v="islet" />
		<tag k="ssr:stedsnr" v="508585" />
	</node>
	<node id="-354604" lat="58.0203972198" lon="7.76375277602">
		<tag k="alt_name" v="Lille Gjeve" />
		<tag k="name" v="Lille Gjæve" />
		<tag k="place" v="islet" />
		<tag k="ssr:stedsnr" v="507230" />
	</node>
	<node id="-354602" lat="58.06480833" lon="7.78521667478">
		<tag k="alt_name" v="Ospholmen" />
		<tag k="name" v="Ospeholmen" />
		<tag k="place" v="island" />
		<tag k="ssr:stedsnr" v="507188" />
	</node>
	<node id="-354601" lat="58.0781027741" lon="7.78207777725">
		<tag k="fixme" v="consider seamark:type=rock or natural=shoal" />
		<tag k="name" v="Rauskjæret" />
		<tag k="place" v="islet" />
		<tag k="ssr:stedsnr" v="507182" />
	</node>
	<node id="-354600" lat="58.0707694447" lon="7.75218888151">
		<tag k="name" v="Støleholmen" />
		<tag k="place" v="island" />
		<tag k="ssr:stedsnr" v="507177" />
	</node>
	<node id="-354596" lat="58.04630556" lon="7.78936943899">
		<tag k="name" v="Bentsholmen" />
		<tag k="place" v="islet" />
		<tag k="ssr:stedsnr" v="506976" />
	</node>
	<node id="-354593" lat="58.0597722211" lon="7.83657222361">
		<tag k="name" v="Kjelkevika" />
		<tag k="natural" v="bay" />
		<tag k="ssr:stedsnr" v="506968" />
	</node>
	<node id="-354590" lat="58.012597219" lon="7.72722778439">
		<tag k="name" v="Djupviga" />
		<tag k="natural" v="bay" />
		<tag k="ssr:stedsnr" v="506921" />
	</node>
	<node id="-354589" lat="58.009805559" lon="7.73424444307">
		<tag k="name" v="Hesteviga" />
		<tag k="natural" v="bay" />
		<tag k="ssr:stedsnr" v="506922" />
	</node>
	<node id="-354588" lat="58.0743305565" lon="7.70659722786">
		<tag k="name" v="Salbustø" />
		<tag k="natural" v="bay" />
		<tag k="ssr:stedsnr" v="506915" />
	</node>
	<node id="-354587" lat="58.0504527775" lon="7.85802221773">
		<tag k="fixme" v="multiple name tags, choose one and add the other to alt_name" />
		<tag k="name" v="Lille Kallholmen;Lille Kattholmen" />
		<tag k="place" v="islet" />
		<tag k="ssr:stedsnr" v="506905" />
	</node>
	<node id="-354579" lat="58.0709638871" lon="7.85812222233">
		<tag k="name" v="Pålsnes" />
		<tag k="natural" v="cape" />
		<tag k="ssr:stedsnr" v="506346" />
	</node>
	<node id="-354576" lat="58.0627916629" lon="7.76438055851">
		<tag k="name" v="Nordre Oksebukta" />
		<tag k="natural" v="bay" />
		<tag k="ssr:stedsnr" v="506188" />
	</node>
	<node id="-354575" lat="58.0572083346" lon="7.76630554943">
		<tag k="name" v="Langholmen" />
		<tag k="place" v="islet" />
		<tag k="ssr:stedsnr" v="506182" />
	</node>
	<node id="-354574" lat="58.0583250017" lon="7.75913055988">
		<tag k="name" v="Sydvestodden" />
		<tag k="natural" v="cape" />
		<tag k="ssr:stedsnr" v="506180" />
	</node>
	<node id="-354572" lat="58.073538891" lon="7.80277499689">
		<tag k="fixme" v="multiple name tags, choose one and add the other to alt_name" />
		<tag k="name" v="Auster Nodeholmen;Nodeholmen" />
		<tag k="place" v="island" />
		<tag k="ssr:stedsnr" v="506178" />
	</node>
	<node id="-354571" lat="58.0458611092" lon="7.77848055067">
		<tag k="alt_name" v="Vestre Brennøy" />
		<tag k="name" v="Vester Brendøya" />
		<tag k="place" v="island" />
		<tag k="ssr:stedsnr" v="506175" />
	</node>
	<node id="-354564" lat="58.052027775" lon="7.7285361136">
		<tag k="name" v="Tydille ytre" />
		<tag k="place" v="island" />
		<tag k="ssr:stedsnr" v="506087" />
	</node>
	<node id="-354555" lat="58.050427774" lon="7.71872221964">
		<tag k="name" v="Kjeholmen" />
		<tag k="place" v="islet" />
		<tag k="ssr:stedsnr" v="485999" />
	</node>
	<node id="-354548" lat="58.0500111148" lon="7.84826943929">
		<tag k="alt_name" v="Helleøya" />
		<tag k="name" v="Helgøya" />
		<tag k="place" v="island" />
		<tag k="ssr:stedsnr" v="485254" />
	</node>
	<node id="-354546" lat="58.0885388862" lon="7.68128888379">
		<tag k="bay" v="fjord" />
		<tag k="name" v="Trysfjorden" />
		<tag k="natural" v="bay" />
		<tag k="ssr:stedsnr" v="485941" />
	</node>
	<node id="-354545" lat="58.0828861102" lon="7.69547500289">
		<tag k="alt_name" v="Søylekilen" />
		<tag k="name" v="Neverkilen" />
		<tag k="natural" v="strait" />
		<tag k="ssr:stedsnr" v="485939" />
	</node>
	<node id="-354542" lat="58.0636972234" lon="7.84081111114">
		<tag k="name" v="Slottholmen" />
		<tag k="place" v="islet" />
		<tag k="ssr:stedsnr" v="481597" />
	</node>
	<node id="-354537" lat="58.0414749982" lon="7.73330556116">
		<tag k="name" v="Langøyan" />
		<tag k="place" v="islet" />
		<tag k="ssr:stedsnr" v="449572" />
	</node>
	<node id="-354536" lat="58.0370666642" lon="7.73991388172">
		<tag k="name" v="Henriksboen" />
		<tag k="natural" v="shoal" />
		<tag k="place" v="locality" />
		<tag k="ssr:stedsnr" v="449571" />
	</node>
	<node id="-354535" lat="58.0096416712" lon="7.7227527822">
		<tag k="name" v="Sønner Brydeboan" />
		<tag k="place" v="locality" />
		<tag k="seamark:type" v="rock" />
		<tag k="ssr:stedsnr" v="449561" />
	</node>
	<node id="-354534" lat="58.0437055528" lon="7.8089666584">
		<tag k="name" v="Paltoskholmen" />
		<tag k="place" v="islet" />
		<tag k="ssr:stedsnr" v="449534" />
	</node>
	<node id="-354533" lat="58.042391666" lon="7.81278889684">
		<tag k="name" v="Store Hummerholmen" />
		<tag k="place" v="islet" />
		<tag k="ssr:stedsnr" v="449532" />
	</node>
	<node id="-354532" lat="58.0558694436" lon="7.80732499608">
		<tag k="name" v="Rypa" />
		<tag k="place" v="locality" />
		<tag k="seamark:type" v="rock" />
		<tag k="ssr:stedsnr" v="449521" />
	</node>
	<node id="-354531" lat="58.0628166654" lon="7.89753333306">
		<tag k="name" v="Prinseboen" />
		<tag k="place" v="locality" />
		<tag k="seamark:type" v="rock" />
		<tag k="ssr:stedsnr" v="448569" />
	</node>
	<node id="-354530" lat="58.021108333" lon="7.73919722208">
		<tag k="name" v="Hovdeodden" />
		<tag k="natural" v="cape" />
		<tag k="ssr:stedsnr" v="447217" />
	</node>
	<node id="-354525" lat="58.0598972201" lon="7.790583341">
		<tag k="fixme" v="consider seamark:type=rock or natural=shoal" />
		<tag k="name" v="Trillingan" />
		<tag k="place" v="islet" />
		<tag k="ssr:stedsnr" v="446981" />
	</node>
	<node id="-354520" lat="58.0107805543" lon="7.73169999512">
		<tag k="name" v="Uvårsundet" />
		<tag k="natural" v="strait" />
		<tag k="ssr:stedsnr" v="446934" />
	</node>
	<node id="-354519" lat="58.0730444434" lon="7.68825554819">
		<tag k="name" v="Røstadneset" />
		<tag k="natural" v="cape" />
		<tag k="ssr:stedsnr" v="446931" />
	</node>
	<node id="-354514" lat="58.081075" lon="7.92083333973">
		<tag k="name" v="Flyndreholmen" />
		<tag k="place" v="island" />
		<tag k="ssr:stedsnr" v="446889" />
	</node>
	<node id="-354512" lat="58.0368666688" lon="7.68155277348">
		<tag k="name" v="Eidsneset" />
		<tag k="natural" v="cape" />
		<tag k="ssr:stedsnr" v="446882" />
	</node>
	<node id="-354507" lat="58.0728277735" lon="7.86821111866">
		<tag k="alt_name" v="Søvika" />
		<tag k="name" v="Søviga" />
		<tag k="natural" v="bay" />
		<tag k="ssr:stedsnr" v="446373" />
	</node>
	<node id="-354503" lat="58.0507194442" lon="7.77704445265">
		<tag k="name" v="Regevika" />
		<tag k="natural" v="bay" />
		<tag k="ssr:stedsnr" v="446223" />
	</node>
	<node id="-354501" lat="58.0649027743" lon="7.80393889189">
		<tag k="name" v="Risholmen" />
		<tag k="place" v="island" />
		<tag k="ssr:stedsnr" v="446196" />
	</node>
	<node id="-354495" lat="58.0572861109" lon="7.70693611844">
		<tag k="name" v="Skottebergholmen" />
		<tag k="place" v="island" />
		<tag k="ssr:stedsnr" v="446152" />
	</node>
	<node id="-354494" lat="58.0446166683" lon="7.66681389055">
		<tag k="name" v="Kiltangen" />
		<tag k="natural" v="cape" />
		<tag k="ssr:stedsnr" v="446114" />
	</node>
	<node id="-354490" lat="58.0541888869" lon="7.73195277368">
		<tag k="name" v="Kalsneset" />
		<tag k="natural" v="cape" />
		<tag k="ssr:stedsnr" v="446087" />
	</node>
	<node id="-354483" lat="58.0597416668" lon="7.77178889234">
		<tag k="fixme" v="consider seamark:type=rock or natural=shoal" />
		<tag k="name" v="Oksekalven" />
		<tag k="place" v="islet" />
		<tag k="ssr:stedsnr" v="446217" />
	</node>
	<node id="-354482" lat="58.0691305519" lon="7.79663888225">
		<tag k="name" v="Labberholmen" />
		<tag k="place" v="island" />
		<tag k="ssr:stedsnr" v="446208" />
	</node>
	<node id="-354481" lat="58.0712027778" lon="7.8121888887">
		<tag k="name" v="Saltholmen" />
		<tag k="place" v="island" />
		<tag k="ssr:stedsnr" v="446207" />
	</node>
	<node id="-354480" lat="58.0407694452" lon="7.68866388182">
		<tag k="alt_name" v="Netholmen" />
		<tag k="name" v="Nettholmen" />
		<tag k="place" v="islet" />
		<tag k="ssr:stedsnr" v="425979" />
	</node>
	<node id="-354477" lat="58.0623055552" lon="7.80311110441">
		<tag k="alt_name" v="Kjeholmane;Kjeøyene" />
		<tag k="name" v="Kjeøyan" />
		<tag k="place" v="island" />
		<tag k="ssr:stedsnr" v="425344" />
	</node>
	<node id="-354476" lat="58.0476416645" lon="7.78216665999">
		<tag k="name" v="Brennøyane" />
		<tag k="place" v="islet" />
		<tag k="ssr:stedsnr" v="425323" />
	</node>
	<node id="-354475" lat="58.0440555555" lon="7.75840556299">
		<tag k="alt_name" v="Bodøy" />
		<tag k="name" v="Boda" />
		<tag k="place" v="islet" />
		<tag k="ssr:stedsnr" v="425318" />
	</node>
	<node id="-354469" lat="58.0714888887" lon="7.90001389215">
		<tag k="loc_name" v="Paradisholman" />
		<tag k="name" v="Paradisholmane" />
		<tag k="place" v="islet" />
		<tag k="ssr:stedsnr" v="425183" />
	</node>
	<node id="-354463" lat="58.0523916637" lon="7.71318054868">
		<tag k="name" v="Bringeberholmen" />
		<tag k="place" v="islet" />
		<tag k="ssr:stedsnr" v="424122" />
	</node>
	<node id="-354461" lat="58.0242249997" lon="7.73232499331">
		<tag k="alt_name" v="Østre Skudeholmen" />
		<tag k="name" v="Auster Skudeholmen" />
		<tag k="place" v="islet" />
		<tag k="ssr:stedsnr" v="415561" />
	</node>
	<node id="-354460" lat="58.0270666709" lon="7.68738610506">
		<tag k="name" v="Masteskjeran" />
		<tag k="place" v="islet" />
		<tag k="ssr:stedsnr" v="267978" />
	</node>
	<node id="-354459" lat="58.0445416631" lon="7.73014722874">
		<tag k="name" v="Lille Langøyan" />
		<tag k="place" v="islet" />
		<tag k="ssr:stedsnr" v="267694" />
	</node>
	<node id="-354458" lat="58.0675055594" lon="7.88108054902">
		<tag k="fixme" v="consider seamark:type=rock or natural=shoal" />
		<tag k="name" v="Salen" />
		<tag k="place" v="islet" />
		<tag k="ssr:stedsnr" v="266525" />
	</node>
	<node id="-354455" lat="58.0594638931" lon="7.84090000642">
		<tag k="name" v="Vragevika" />
		<tag k="natural" v="bay" />
		<tag k="ssr:stedsnr" v="264979" />
	</node>
	<node id="-354454" lat="58.0572000012" lon="7.79722222758">
		<tag k="name" v="Gulemannen" />
		<tag k="place" v="island" />
		<tag k="ssr:stedsnr" v="264977" />
	</node>
	<node id="-354444" lat="58.0725944473" lon="7.68939166953">
		<tag k="name" v="Notholmen" />
		<tag k="place" v="island" />
		<tag k="ssr:stedsnr" v="264915" />
	</node>
	<node id="-354442" lat="58.0567416675" lon="7.84552222904">
		<tag k="name" v="Renneholmen" />
		<tag k="place" v="islet" />
		<tag k="ssr:stedsnr" v="264901" />
	</node>
	<node id="-354441" lat="58.0715722234" lon="7.90221666635">
		<tag k="alt_name" v="Austre Paradisholmen" />
		<tag k="name" v="Østre Paradisholmen" />
		<tag k="place" v="island" />
		<tag k="ssr:stedsnr" v="264896" />
	</node>
	<node id="-354440" lat="58.0217944432" lon="7.72727221463">
		<tag k="name" v="Smedholmen" />
		<tag k="place" v="islet" />
		<tag k="ssr:stedsnr" v="264883" />
	</node>
	<node id="-354436" lat="58.0735277786" lon="7.88547221501">
		<tag k="alt_name" v="Langvika" />
		<tag k="name" v="Langviga" />
		<tag k="natural" v="bay" />
		<tag k="ssr:stedsnr" v="264340" />
	</node>
	<node id="-354433" lat="58.0720916674" lon="7.85920278341">
		<tag k="name" v="Pålskilen" />
		<tag k="natural" v="bay" />
		<tag k="ssr:stedsnr" v="264325" />
	</node>
	<node id="-354430" lat="58.0516222242" lon="7.83342499219">
		<tag k="name" v="Ny Hellesund" />
		<tag k="natural" v="strait" />
		<tag k="ssr:stedsnr" v="264310" />
	</node>
	<node id="-354423" lat="58.0656722238" lon="7.73685555133">
		<tag k="name" v="Vigekilen" />
		<tag k="natural" v="strait" />
		<tag k="ssr:stedsnr" v="264202" />
	</node>
	<node id="-354421" lat="58.0512527817" lon="7.74249167093">
		<tag k="name" v="Slangeholmen" />
		<tag k="old_name" v="Lauholmen" />
		<tag k="place" v="islet" />
		<tag k="ssr:stedsnr" v="264178" />
	</node>
	<node id="-354418" lat="58.0602111139" lon="7.69908889715">
		<tag k="name" v="Skarvedalsbukta" />
		<tag k="natural" v="bay" />
		<tag k="ssr:stedsnr" v="264128" />
	</node>
	<node id="-354417" lat="58.0471222237" lon="7.71905833827">
		<tag k="name" v="Josundholmen" />
		<tag k="place" v="island" />
		<tag k="ssr:stedsnr" v="264121" />
	</node>
	<node id="-354409" lat="58.0462888853" lon="7.70531110778">
		<tag k="alt_name" v="Nodevigholmene" />
		<tag k="name" v="Notevikholman" />
		<tag k="place" v="islet" />
		<tag k="ssr:stedsnr" v="243978" />
	</node>
	<node id="-354402" lat="58.0272611085" lon="7.69295833957">
		<tag k="name" v="Vassøyan" />
		<tag k="place" v="island" />
		<tag k="ssr:stedsnr" v="243953" />
	</node>
	<node id="-354401" lat="58.0250916648" lon="7.72548611902">
		<tag k="alt_name" v="Seilholmen" />
		<tag k="name" v="Seilholman" />
		<tag k="place" v="islet" />
		<tag k="ssr:stedsnr" v="243368" />
	</node>
	<node id="-354400" lat="58.0611583369" lon="7.77864166881">
		<tag k="name" v="Risøya" />
		<tag k="place" v="islet" />
		<tag k="ssr:stedsnr" v="243331" />
	</node>
	<node id="-354398" lat="58.0530083295" lon="7.75538333411">
		<tag k="bay" v="fjord" />
		<tag k="name" v="Rivenesfjorden" />
		<tag k="natural" v="bay" />
		<tag k="old_name" v="Oksefjorden" />
		<tag k="ssr:stedsnr" v="243324" />
	</node>
	<node id="-354397" lat="58.0555166643" lon="7.74456944803">
		<tag k="name" v="Prestholmen" />
		<tag k="place" v="islet" />
		<tag k="ssr:stedsnr" v="243323" />
	</node>
	<node id="-354396" lat="58.057630555" lon="7.86556110665">
		<tag k="alt_name" v="Hellersøyane, in;Indre Hellerøya;Hellersøyane, indre" />
		<tag k="loc_name" v="Hellersøyane" />
		<tag k="name" v="Indre Hellersøya" />
		<tag k="place" v="island" />
		<tag k="ssr:stedsnr" v="243316" />
	</node>
	<node id="-354391" lat="58.0531805574" lon="7.8520305514">
		<tag k="name" v="Kilen" />
		<tag k="natural" v="bay" />
		<tag k="ssr:stedsnr" v="242159" />
	</node>
	<node id="-354389" lat="58.0471222188" lon="7.89108889302">
		<tag k="fixme" v="consider seamark:type=rock or natural=shoal" />
		<tag k="name" v="Sønner" />
		<tag k="place" v="islet" />
		<tag k="ssr:stedsnr" v="240221" />
	</node>
	<node id="-354387" lat="58.0500444404" lon="7.65619721578">
		<tag k="alt_name" v="Tånevikkilen" />
		<tag k="name" v="Tånevigkilen" />
		<tag k="natural" v="bay" />
		<tag k="ssr:stedsnr" v="236498" />
	</node>
	<node id="-354385" lat="58.0124722236" lon="7.78380277213">
		<tag k="alt_name" v="Ulveskjæra" />
		<tag k="fixme" v="consider seamark:type=rock or natural=shoal" />
		<tag k="name" v="Ulveskjera" />
		<tag k="place" v="islet" />
		<tag k="ssr:stedsnr" v="222590" />
	</node>
	<node id="-354381" lat="58.0498333362" lon="7.86923333853">
		<tag k="fixme" v="multiple name tags, choose one and add the other to alt_name" />
		<tag k="name" v="Rassvella;Store Rassvella" />
		<tag k="place" v="islet" />
		<tag k="ssr:stedsnr" v="207470" />
	</node>
	<node id="-354380" lat="58.021741664" lon="7.73368333454">
		<tag k="fixme" v="consider seamark:type=rock or natural=shoal" />
		<tag k="name" v="Store Dyreskjeret" />
		<tag k="place" v="islet" />
		<tag k="ssr:stedsnr" v="206998" />
	</node>
	<node id="-354379" lat="58.020247219" lon="7.78589444702">
		<tag k="name" v="Nore Ravnøyboen" />
		<tag k="place" v="locality" />
		<tag k="seamark:type" v="rock" />
		<tag k="ssr:stedsnr" v="206555" />
	</node>
	<node id="-354378" lat="58.0233166672" lon="7.74764444656">
		<tag k="name" v="Hummerboen" />
		<tag k="place" v="locality" />
		<tag k="seamark:type" v="rock" />
		<tag k="ssr:stedsnr" v="206544" />
	</node>
	<node id="-354377" lat="58.0321638887" lon="7.73387222609">
		<tag k="name" v="Uvårflakket" />
		<tag k="natural" v="shoal" />
		<tag k="place" v="locality" />
		<tag k="ssr:stedsnr" v="206545" />
	</node>
	<node id="-354371" lat="58.064149998" lon="7.74368333377">
		<tag k="name" v="Hummervikholmen" />
		<tag k="place" v="island" />
		<tag k="ssr:stedsnr" v="204154" />
	</node>
	<node id="-354370" lat="58.0727805596" lon="7.75714444027">
		<tag k="name" v="Stølekilen" />
		<tag k="natural" v="bay" />
		<tag k="ssr:stedsnr" v="204139" />
	</node>
	<node id="-354369" lat="58.0325749966" lon="7.67638888295">
		<tag k="name" v="Lindholmen" />
		<tag k="place" v="islet" />
		<tag k="ssr:stedsnr" v="203986" />
	</node>
	<node id="-354358" lat="58.0130916654" lon="7.73398611431">
		<tag k="name" v="Gunnarshavn" />
		<tag k="natural" v="bay" />
		<tag k="ssr:stedsnr" v="203939" />
	</node>
	<node id="-354354" lat="58.0507083337" lon="7.8427555614">
		<tag k="alt_name" v="Olavsund;Olavssund" />
		<tag k="name" v="Olavssundet" />
		<tag k="natural" v="strait" />
		<tag k="ssr:stedsnr" v="203909" />
	</node>
	<node id="-354352" lat="58.0220000006" lon="7.73252221781">
		<tag k="fixme" v="consider seamark:type=rock or natural=shoal" />
		<tag k="name" v="Dyreskjæran" />
		<tag k="place" v="islet" />
		<tag k="ssr:stedsnr" v="203893" />
	</node>
	<node id="-354351" lat="58.0228055551" lon="7.69283333698">
		<tag k="name" v="Inkjevetta" />
		<tag k="place" v="islet" />
		<tag k="ssr:stedsnr" v="203891" />
	</node>
	<node id="-354350" lat="58.0325861098" lon="7.68251665993">
		<tag k="fixme" v="multiple name tags, choose one and add the other to alt_name" />
		<tag k="name" v="Terneholmen;Tinnholmen" />
		<tag k="place" v="islet" />
		<tag k="ssr:stedsnr" v="203885" />
	</node>
	<node id="-354349" lat="58.0289666668" lon="7.69520278541">
		<tag k="name" v="Lauvholmen" />
		<tag k="place" v="islet" />
		<tag k="ssr:stedsnr" v="203883" />
	</node>
	<node id="-354342" lat="58.0721250009" lon="7.82333332888">
		<tag k="name" v="Trosevika" />
		<tag k="natural" v="bay" />
		<tag k="ssr:stedsnr" v="203255" />
	</node>
	<node id="-354340" lat="58.0517555599" lon="7.76481389223">
		<tag k="name" v="Joseholmen" />
		<tag k="place" v="islet" />
		<tag k="ssr:stedsnr" v="203215" />
	</node>
	<node id="-354339" lat="58.065111114" lon="7.7918222233">
		<tag k="name" v="Engeholmen" />
		<tag k="place" v="island" />
		<tag k="ssr:stedsnr" v="203197" />
	</node>
	<node id="-354334" lat="58.0546944444" lon="7.72267777779">
		<tag k="name" v="Leirkilen" />
		<tag k="natural" v="bay" />
		<tag k="ssr:stedsnr" v="203096" />
	</node>
	<node id="-354317" lat="58.048055556" lon="7.7181916625">
		<tag k="name" v="Skovigholmen" />
		<tag k="place" v="island" />
		<tag k="ssr:stedsnr" v="203147" />
	</node>
	<node id="-354316" lat="58.0467111105" lon="7.68962500377">
		<tag k="name" v="Engerholmen" />
		<tag k="place" v="island" />
		<tag k="ssr:stedsnr" v="203139" />
	</node>
</osm>
