<?xml version="1.0" encoding="UTF-8"?>
<osm generator="osmapis" version="0.6">
	<node id="-355328" lat="58.1247138919" lon="7.67035277281">
		<tag k="name" v="Skrubbeheia" />
		<tag k="natural" v="hill" />
		<tag k="place" v="locality" />
		<tag k="ssr:stedsnr" v="749024" />
	</node>
	<node id="-355327" lat="58.1400222261" lon="7.6315777719">
		<tag k="fixme" v="consider natural=peak for the most distinct mountains in the district" />
		<tag k="name" v="Huseheia" />
		<tag k="natural" v="hill" />
		<tag k="place" v="locality" />
		<tag k="ssr:stedsnr" v="749016" />
	</node>
	<node id="-354814" lat="58.1201111079" lon="7.61380833302">
		<tag k="name" v="Skindringsheia" />
		<tag k="natural" v="hill" />
		<tag k="place" v="locality" />
		<tag k="ssr:stedsnr" v="203973" />
	</node>
	<node id="-354813" lat="58.1214277762" lon="7.61399722809">
		<tag k="name" v="Stufasslia" />
		<tag k="natural" v="slope" />
		<tag k="place" v="locality" />
		<tag k="ssr:stedsnr" v="203971" />
	</node>
	<node id="-355323" lat="58.1016166631" lon="7.68706666861">
		<tag k="fixme" v="consider natural=peak for the most distinct mountains in the district" />
		<tag k="name" v="Haugåsen" />
		<tag k="natural" v="hill" />
		<tag k="place" v="locality" />
		<tag k="ssr:stedsnr" v="728818" />
	</node>
	<node id="-354810" lat="58.1380055525" lon="7.61314721732">
		<tag k="name" v="Tereåsen" />
		<tag k="natural" v="ridge" />
		<tag k="place" v="locality" />
		<tag k="ssr:stedsnr" v="203954" />
	</node>
	<node id="-354815" lat="58.1619749956" lon="7.73890278165">
		<tag k="name" v="Båsen" />
		<tag k="natural" v="valley" />
		<tag k="place" v="locality" />
		<tag k="ssr:stedsnr" v="203982" />
	</node>
	<node id="-354808" lat="58.0707250033" lon="7.65010000549">
		<tag k="name" v="Skrubbebakkane" />
		<tag k="natural" v="hill" />
		<tag k="place" v="locality" />
		<tag k="ssr:stedsnr" v="203948" />
	</node>
	<node id="-354804" lat="58.0717694485" lon="7.70851111644">
		<tag k="name" v="Ospedalen" />
		<tag k="natural" v="valley" />
		<tag k="place" v="locality" />
		<tag k="ssr:stedsnr" v="203926" />
	</node>
	<node id="-354803" lat="58.077911107" lon="7.719283327">
		<tag k="name" v="Liane" />
		<tag k="natural" v="valley" />
		<tag k="place" v="locality" />
		<tag k="ssr:stedsnr" v="203921" />
	</node>
	<node id="-354800" lat="58.0788666671" lon="7.9171083401">
		<tag k="name" v="Vognsnesvardehei" />
		<tag k="natural" v="hill" />
		<tag k="place" v="locality" />
		<tag k="ssr:stedsnr" v="203906" />
	</node>
	<node id="-355009" lat="58.1144166686" lon="7.69591943871">
		<tag k="name" v="Trommeheia" />
		<tag k="natural" v="hill" />
		<tag k="place" v="locality" />
		<tag k="ssr:stedsnr" v="506060" />
	</node>
	<node id="-354284" lat="58.0753944417" lon="7.74196388224">
		<tag k="name" v="Hallandvikhaugen" />
		<tag k="natural" v="hill" />
		<tag k="place" v="locality" />
		<tag k="ssr:stedsnr" v="325197" />
	</node>
	<node id="-354283" lat="58.163688885" lon="7.71849443684">
		<tag k="name" v="Styggedalen" />
		<tag k="natural" v="valley" />
		<tag k="place" v="locality" />
		<tag k="ssr:stedsnr" v="325000" />
	</node>
	<node id="-354794" lat="58.1388555593" lon="7.73653333414">
		<tag k="name" v="Skrompehei" />
		<tag k="natural" v="hill" />
		<tag k="place" v="locality" />
		<tag k="ssr:stedsnr" v="203386" />
	</node>
	<node id="-354793" lat="58.0842305524" lon="7.87495277782">
		<tag k="name" v="Nome" />
		<tag k="natural" v="valley" />
		<tag k="place" v="locality" />
		<tag k="ssr:stedsnr" v="203374" />
	</node>
	<node id="-354279" lat="58.1483250007" lon="7.61937777067">
		<tag k="name" v="Gjerbudalen" />
		<tag k="natural" v="valley" />
		<tag k="place" v="locality" />
		<tag k="ssr:stedsnr" v="324951" />
	</node>
	<node id="-354277" lat="58.0756916698" lon="7.65323888158">
		<tag k="name" v="Fløyheia" />
		<tag k="natural" v="hill" />
		<tag k="place" v="locality" />
		<tag k="ssr:stedsnr" v="324933" />
	</node>
	<node id="-354788" lat="58.123986114" lon="7.76725277026">
		<tag k="name" v="Småstakkheia" />
		<tag k="natural" v="hill" />
		<tag k="place" v="locality" />
		<tag k="ssr:stedsnr" v="203228" />
	</node>
	<node id="-355299" lat="58.1565194423" lon="7.72935833437">
		<tag k="name" v="Langedalen" />
		<tag k="natural" v="valley" />
		<tag k="place" v="locality" />
		<tag k="ssr:stedsnr" v="689993" />
	</node>
	<node id="-355298" lat="58.0938277819" lon="7.70661111227">
		<tag k="name" v="Knibeheia" />
		<tag k="natural" v="hill" />
		<tag k="place" v="locality" />
		<tag k="ssr:stedsnr" v="689987" />
	</node>
	<node id="-354273" lat="58.0734472219" lon="7.91452499511">
		<tag k="name" v="Romsvikvardehei" />
		<tag k="natural" v="hill" />
		<tag k="place" v="locality" />
		<tag k="ssr:stedsnr" v="324897" />
	</node>
	<node id="-355296" lat="58.1500249981" lon="7.71167222788">
		<tag k="name" v="Liheia" />
		<tag k="natural" v="slope" />
		<tag k="place" v="locality" />
		<tag k="ssr:stedsnr" v="689976" />
	</node>
	<node id="-355294" lat="58.1227638927" lon="7.60080833163">
		<tag k="name" v="Ekredalen" />
		<tag k="natural" v="valley" />
		<tag k="place" v="locality" />
		<tag k="ssr:stedsnr" v="689962" />
	</node>
	<node id="-355293" lat="58.1418750035" lon="7.62053889585">
		<tag k="name" v="Gangsmyrheia" />
		<tag k="natural" v="slope" />
		<tag k="place" v="locality" />
		<tag k="ssr:stedsnr" v="689945" />
	</node>
	<node id="-355292" lat="58.1308194446" lon="7.58938888111">
		<tag k="name" v="Kjærs lier" />
		<tag k="natural" v="slope" />
		<tag k="place" v="locality" />
		<tag k="ssr:stedsnr" v="689939" />
	</node>
	<node id="-354779" lat="58.1196694426" lon="7.6341694402">
		<tag k="name" v="Brakallbakken" />
		<tag k="natural" v="slope" />
		<tag k="place" v="locality" />
		<tag k="ssr:stedsnr" v="203091" />
	</node>
	<node id="-354778" lat="58.1246694431" lon="7.62855277171">
		<tag k="name" v="Bruliåsane" />
		<tag k="natural" v="hill" />
		<tag k="place" v="locality" />
		<tag k="ssr:stedsnr" v="203090" />
	</node>
	<node id="-354264" lat="58.1377972245" lon="7.76566388726">
		<tag k="name" v="Nepstadheia" />
		<tag k="natural" v="hill" />
		<tag k="place" v="locality" />
		<tag k="ssr:stedsnr" v="324359" />
	</node>
	<node id="-354263" lat="58.1078166649" lon="7.87700000402">
		<tag k="name" v="Olavsdalen" />
		<tag k="natural" v="valley" />
		<tag k="place" v="locality" />
		<tag k="ssr:stedsnr" v="324351" />
	</node>
	<node id="-354774" lat="58.1112444478" lon="7.62728332765">
		<tag k="name" v="Telandsheia" />
		<tag k="natural" v="hill" />
		<tag k="place" v="locality" />
		<tag k="ssr:stedsnr" v="203064" />
	</node>
	<node id="-354809" lat="58.1198333379" lon="7.58945000288">
		<tag k="name" v="Ålgårdsdalen" />
		<tag k="natural" v="valley" />
		<tag k="place" v="locality" />
		<tag k="ssr:stedsnr" v="203950" />
	</node>
	<node id="-354260" lat="58.1418861067" lon="7.72515833573">
		<tag k="name" v="Bjørkedalen" />
		<tag k="natural" v="valley" />
		<tag k="place" v="locality" />
		<tag k="ssr:stedsnr" v="324238" />
	</node>
	<node id="-354259" lat="58.1392722199" lon="7.667838884">
		<tag k="name" v="Stemstykket" />
		<tag k="natural" v="slope" />
		<tag k="place" v="locality" />
		<tag k="ssr:stedsnr" v="324234" />
	</node>
	<node id="-354258" lat="58.1343916705" lon="7.65040834154">
		<tag k="name" v="Øygardsheia" />
		<tag k="natural" v="hill" />
		<tag k="place" v="locality" />
		<tag k="ssr:stedsnr" v="324232" />
	</node>
	<node id="-354769" lat="58.1355166662" lon="7.6333305574">
		<tag k="fixme" v="consider natural=peak for the most distinct mountains in the district" />
		<tag k="name" v="Skuggedalsheia" />
		<tag k="natural" v="hill" />
		<tag k="place" v="locality" />
		<tag k="ssr:stedsnr" v="203031" />
	</node>
	<node id="-354768" lat="58.1296055599" lon="7.64218333861">
		<tag k="name" v="Kannemyråsen" />
		<tag k="natural" v="hill" />
		<tag k="place" v="locality" />
		<tag k="ssr:stedsnr" v="203028" />
	</node>
	<node id="-354255" lat="58.1173888932" lon="7.73390833002">
		<tag k="name" v="Rokkåsen" />
		<tag k="natural" v="hill" />
		<tag k="place" v="locality" />
		<tag k="ssr:stedsnr" v="324186" />
	</node>
	<node id="-354766" lat="58.1045083351" lon="7.65916110296">
		<tag k="name" v="Haugen" />
		<tag k="natural" v="hill" />
		<tag k="place" v="locality" />
		<tag k="ssr:stedsnr" v="203023" />
	</node>
	<node id="-354253" lat="58.0715305528" lon="7.82945833426">
		<tag k="fixme" v="consider natural=peak for the most distinct mountains in the district" />
		<tag k="name" v="Indre Røynåsen" />
		<tag k="natural" v="hill" />
		<tag k="place" v="locality" />
		<tag k="ssr:stedsnr" v="324168" />
	</node>
	<node id="-354360" lat="58.0988666692" lon="7.90664166387">
		<tag k="name" v="Olavsheia" />
		<tag k="natural" v="hill" />
		<tag k="place" v="locality" />
		<tag k="ssr:stedsnr" v="385878" />
	</node>
	<node id="-355275" lat="58.079991666" lon="7.83137500812">
		<tag k="fixme" v="consider natural=peak for the most distinct mountains in the district" />
		<tag k="name" v="Skjeggåsen" />
		<tag k="natural" v="hill" />
		<tag k="place" v="locality" />
		<tag k="ssr:stedsnr" v="689231" />
	</node>
	<node id="-354761" lat="58.0571333323" lon="7.65696667233">
		<tag k="name" v="Vareheia" />
		<tag k="natural" v="hill" />
		<tag k="place" v="locality" />
		<tag k="ssr:stedsnr" v="203127" />
	</node>
	<node id="-354248" lat="58.0605361107" lon="7.68900277504">
		<tag k="name" v="Molbrokknuten" />
		<tag k="natural" v="hill" />
		<tag k="place" v="locality" />
		<tag k="ssr:stedsnr" v="324126" />
	</node>
	<node id="-355271" lat="58.12777778" lon="7.74521111014">
		<tag k="name" v="Mevannsheia" />
		<tag k="natural" v="hill" />
		<tag k="place" v="locality" />
		<tag k="ssr:stedsnr" v="689203" />
	</node>
	<node id="-354758" lat="58.1218583351" lon="7.64144999903">
		<tag k="name" v="Knausane" />
		<tag k="natural" v="hill" />
		<tag k="place" v="locality" />
		<tag k="ssr:stedsnr" v="203110" />
	</node>
	<node id="-355269" lat="58.1128361104" lon="7.7380222196">
		<tag k="name" v="Tvitjønnheia" />
		<tag k="natural" v="hill" />
		<tag k="place" v="locality" />
		<tag k="ssr:stedsnr" v="689200" />
	</node>
	<node id="-354756" lat="58.0870722193" lon="7.65797777455">
		<tag k="alt_name" v="Stigheia" />
		<tag k="name" v="Stiheia" />
		<tag k="natural" v="hill" />
		<tag k="place" v="locality" />
		<tag k="ssr:stedsnr" v="182926" />
	</node>
	<node id="-354820" lat="58.0806527803" lon="7.79550000118">
		<tag k="name" v="Udjusheia" />
		<tag k="natural" v="hill" />
		<tag k="place" v="locality" />
		<tag k="ssr:stedsnr" v="204165" />
	</node>
	<node id="-354242" lat="58.1264888902" lon="7.62812778434">
		<tag k="name" v="Svartekollhei" />
		<tag k="natural" v="hill" />
		<tag k="place" v="locality" />
		<tag k="ssr:stedsnr" v="324071" />
	</node>
	<node id="-354241" lat="58.1274722256" lon="7.62807777289">
		<tag k="name" v="Pråmdalen" />
		<tag k="natural" v="valley" />
		<tag k="place" v="locality" />
		<tag k="ssr:stedsnr" v="324070" />
	</node>
	<node id="-355264" lat="58.1091555571" lon="7.82795555164">
		<tag k="fixme" v="consider natural=peak for the most distinct mountains in the district" />
		<tag k="name" v="Fløybakken" />
		<tag k="natural" v="hill" />
		<tag k="place" v="locality" />
		<tag k="ssr:stedsnr" v="689146" />
	</node>
	<node id="-354976" lat="58.1301916678" lon="7.71445277245">
		<tag k="fixme" v="consider natural=peak for the most distinct mountains in the district" />
		<tag k="name" v="Vardeheia" />
		<tag k="natural" v="hill" />
		<tag k="place" v="locality" />
		<tag k="ssr:stedsnr" v="447211" />
	</node>
	<node id="-354237" lat="58.120913886" lon="7.68767777325">
		<tag k="name" v="Engenes" />
		<tag k="natural" v="hill" />
		<tag k="place" v="locality" />
		<tag k="ssr:stedsnr" v="324053" />
	</node>
	<node id="-354236" lat="58.1105361149" lon="7.6966138858">
		<tag k="name" v="Skrubbeheia" />
		<tag k="natural" v="hill" />
		<tag k="place" v="locality" />
		<tag k="ssr:stedsnr" v="324038" />
	</node>
	<node id="-355280" lat="58.0819444414" lon="7.76754444045">
		<tag k="name" v="Leire dale" />
		<tag k="natural" v="valley" />
		<tag k="place" v="locality" />
		<tag k="ssr:stedsnr" v="689265" />
	</node>
	<node id="-354232" lat="58.0860472187" lon="7.6500027827">
		<tag k="name" v="Haustdalen" />
		<tag k="natural" v="valley" />
		<tag k="place" v="locality" />
		<tag k="ssr:stedsnr" v="324002" />
	</node>
	<node id="-355255" lat="58.0612500012" lon="7.63752777906">
		<tag k="name" v="Røyeheia" />
		<tag k="natural" v="hill" />
		<tag k="place" v="locality" />
		<tag k="ssr:stedsnr" v="688107" />
	</node>
	<node id="-355254" lat="58.0487250008" lon="7.67014999408">
		<tag k="name" v="Bjørndalsheia" />
		<tag k="natural" v="hill" />
		<tag k="place" v="locality" />
		<tag k="ssr:stedsnr" v="688098" />
	</node>
	<node id="-355253" lat="58.0468111125" lon="7.66810832877">
		<tag k="fixme" v="consider natural=peak for the most distinct mountains in the district" />
		<tag k="name" v="Strandeheia" />
		<tag k="natural" v="hill" />
		<tag k="place" v="locality" />
		<tag k="ssr:stedsnr" v="688095" />
	</node>
	<node id="-355252" lat="58.1084000017" lon="7.65446667382">
		<tag k="name" v="Masteskotet" />
		<tag k="natural" v="valley" />
		<tag k="place" v="locality" />
		<tag k="ssr:stedsnr" v="688087" />
	</node>
	<node id="-355250" lat="58.1218611076" lon="7.62921666386">
		<tag k="name" v="Gilderdalen" />
		<tag k="natural" v="valley" />
		<tag k="place" v="locality" />
		<tag k="ssr:stedsnr" v="688081" />
	</node>
	<node id="-355249" lat="58.1145972207" lon="7.62601667353">
		<tag k="name" v="Urskotet" />
		<tag k="natural" v="valley" />
		<tag k="place" v="locality" />
		<tag k="ssr:stedsnr" v="688079" />
	</node>
	<node id="-355246" lat="58.1279250033" lon="7.66408888335">
		<tag k="name" v="Bastedalen" />
		<tag k="natural" v="valley" />
		<tag k="place" v="locality" />
		<tag k="ssr:stedsnr" v="688069" />
	</node>
	<node id="-355245" lat="58.123219442" lon="7.65628055224">
		<tag k="name" v="Brattebrådan" />
		<tag k="natural" v="slope" />
		<tag k="place" v="locality" />
		<tag k="ssr:stedsnr" v="688068" />
	</node>
	<node id="-355244" lat="58.1253555517" lon="7.63299166966">
		<tag k="name" v="Sperreheia" />
		<tag k="natural" v="hill" />
		<tag k="place" v="locality" />
		<tag k="ssr:stedsnr" v="688064" />
	</node>
	<node id="-355241" lat="58.1304361155" lon="7.62594444378">
		<tag k="name" v="Hepteheia" />
		<tag k="natural" v="hill" />
		<tag k="place" v="locality" />
		<tag k="ssr:stedsnr" v="688021" />
	</node>
	<node id="-355240" lat="58.0997777805" lon="7.66619721593">
		<tag k="name" v="Hestekjerret" />
		<tag k="natural" v="valley" />
		<tag k="place" v="locality" />
		<tag k="ssr:stedsnr" v="688011" />
	</node>
	<node id="-354725" lat="58.081058336" lon="7.816125008">
		<tag k="name" v="Giskedalen" />
		<tag k="natural" v="valley" />
		<tag k="place" v="locality" />
		<tag k="ssr:stedsnr" v="143167" />
	</node>
	<node id="-354374" lat="58.1651166652" lon="7.71290834186">
		<tag k="name" v="Spjotheia" />
		<tag k="natural" v="hill" />
		<tag k="place" v="locality" />
		<tag k="ssr:stedsnr" v="385997" />
	</node>
	<node id="-355234" lat="58.0623750021" lon="7.63401665841">
		<tag k="name" v="Kleiva" />
		<tag k="natural" v="hill" />
		<tag k="place" v="locality" />
		<tag k="ssr:stedsnr" v="667868" />
	</node>
	<node id="-355232" lat="58.1155249961" lon="7.68472499959">
		<tag k="name" v="Eikestølheia" />
		<tag k="natural" v="hill" />
		<tag k="place" v="locality" />
		<tag k="ssr:stedsnr" v="667815" />
	</node>
	<node id="-354719" lat="58.1184388902" lon="7.61699722841">
		<tag k="name" v="Dabbeheia" />
		<tag k="natural" v="hill" />
		<tag k="place" v="locality" />
		<tag k="ssr:stedsnr" v="142971" />
	</node>
	<node id="-354853" lat="58.0840611072" lon="7.71892499683">
		<tag k="alt_name" v="Voreheia" />
		<tag k="name" v="Vareheia" />
		<tag k="natural" v="hill" />
		<tag k="place" v="locality" />
		<tag k="ssr:stedsnr" v="243914" />
	</node>
	<node id="-354717" lat="58.1397555532" lon="7.61235277383">
		<tag k="name" v="Oksekniben" />
		<tag k="natural" v="hill" />
		<tag k="place" v="locality" />
		<tag k="ssr:stedsnr" v="142952" />
	</node>
	<node id="-354716" lat="58.1351833337" lon="7.61252500381">
		<tag k="name" v="Kresjersdalen" />
		<tag k="natural" v="valley" />
		<tag k="place" v="locality" />
		<tag k="ssr:stedsnr" v="142953" />
	</node>
	<node id="-354714" lat="58.02077222" lon="7.73821943719">
		<tag k="alt_name" v="Hobde" />
		<tag k="name" v="Hovde" />
		<tag k="natural" v="hill" />
		<tag k="place" v="locality" />
		<tag k="ssr:stedsnr" v="142886" />
	</node>
	<node id="-355224" lat="58.0845333327" lon="7.90836111661">
		<tag k="fixme" v="consider natural=peak for the most distinct mountains in the district" />
		<tag k="name" v="Svensheia" />
		<tag k="natural" v="hill" />
		<tag k="place" v="locality" />
		<tag k="ssr:stedsnr" v="667189" />
	</node>
	<node id="-355223" lat="58.098930558" lon="7.78622777972">
		<tag k="fixme" v="consider natural=peak for the most distinct mountains in the district" />
		<tag k="name" v="Lundeheia" />
		<tag k="natural" v="hill" />
		<tag k="place" v="locality" />
		<tag k="ssr:stedsnr" v="667156" />
	</node>
	<node id="-355222" lat="58.1088055553" lon="7.84088611256">
		<tag k="fixme" v="consider natural=peak for the most distinct mountains in the district" />
		<tag k="name" v="Bringeheia" />
		<tag k="natural" v="hill" />
		<tag k="place" v="locality" />
		<tag k="ssr:stedsnr" v="667153" />
	</node>
	<node id="-355221" lat="58.109252778" lon="7.87187778447">
		<tag k="alt_name" v="Kopperheia" />
		<tag k="fixme" v="consider natural=peak for the most distinct mountains in the district" />
		<tag k="name" v="Kobberheia" />
		<tag k="natural" v="hill" />
		<tag k="place" v="locality" />
		<tag k="ssr:stedsnr" v="667152" />
	</node>
	<node id="-354708" lat="58.1394888886" lon="7.74603611741">
		<tag k="name" v="Sletta" />
		<tag k="place" v="locality" />
		<tag k="ssr:stedsnr" v="142361" />
	</node>
	<node id="-354707" lat="58.1422638895" lon="7.75056388964">
		<tag k="name" v="Naudeheia" />
		<tag k="natural" v="hill" />
		<tag k="place" v="locality" />
		<tag k="ssr:stedsnr" v="142354" />
	</node>
	<node id="-354706" lat="58.0609027821" lon="7.76541111754">
		<tag k="name" v="Okseheia" />
		<tag k="natural" v="hill" />
		<tag k="place" v="locality" />
		<tag k="ssr:stedsnr" v="142196" />
	</node>
	<node id="-354375" lat="58.1593250038" lon="7.72618889231">
		<tag k="name" v="Hjorteheia" />
		<tag k="natural" v="hill" />
		<tag k="place" v="locality" />
		<tag k="ssr:stedsnr" v="386000" />
	</node>
	<node id="-354702" lat="58.1115583366" lon="7.79711665906">
		<tag k="fixme" v="consider natural=peak for the most distinct mountains in the district" />
		<tag k="name" v="Lillås-varde" />
		<tag k="natural" v="hill" />
		<tag k="place" v="locality" />
		<tag k="ssr:stedsnr" v="142174" />
	</node>
	<node id="-354882" lat="58.083399999" lon="7.85507777396">
		<tag k="name" v="Kjellevikheia" />
		<tag k="natural" v="hill" />
		<tag k="place" v="locality" />
		<tag k="ssr:stedsnr" v="264332" />
	</node>
	<node id="-354711" lat="58.0671472267" lon="7.6664555622">
		<tag k="name" v="Stoheia" />
		<tag k="natural" v="hill" />
		<tag k="place" v="locality" />
		<tag k="ssr:stedsnr" v="142933" />
	</node>
	<node id="-354695" lat="58.0537777779" lon="7.65656944635">
		<tag k="fixme" v="consider natural=peak for the most distinct mountains in the district" />
		<tag k="name" v="Knibben" />
		<tag k="natural" v="hill" />
		<tag k="place" v="locality" />
		<tag k="ssr:stedsnr" v="142127" />
	</node>
	<node id="-354694" lat="58.1074861102" lon="7.65970554922">
		<tag k="name" v="Urdalen" />
		<tag k="natural" v="valley" />
		<tag k="place" v="locality" />
		<tag k="ssr:stedsnr" v="142124" />
	</node>
	<node id="-354369" lat="58.1185472236" lon="7.58506389274">
		<tag k="name" v="Høgesteinheia" />
		<tag k="natural" v="hill" />
		<tag k="place" v="locality" />
		<tag k="ssr:stedsnr" v="385945" />
	</node>
	<node id="-354692" lat="58.1170555565" lon="7.65631111587">
		<tag k="name" v="Dalane" />
		<tag k="natural" v="valley" />
		<tag k="place" v="locality" />
		<tag k="ssr:stedsnr" v="142115" />
	</node>
	<node id="-355203" lat="58.090819449" lon="7.71268056373">
		<tag k="name" v="Persheia" />
		<tag k="natural" v="hill" />
		<tag k="place" v="locality" />
		<tag k="ssr:stedsnr" v="627991" />
	</node>
	<node id="-355202" lat="58.163677776" lon="7.73743888811">
		<tag k="fixme" v="consider natural=peak for the most distinct mountains in the district" />
		<tag k="name" v="Båseheia" />
		<tag k="natural" v="hill" />
		<tag k="place" v="locality" />
		<tag k="ssr:stedsnr" v="627987" />
	</node>
	<node id="-355201" lat="58.1570944436" lon="7.74380555255">
		<tag k="name" v="Austre Linddalsheia" />
		<tag k="natural" v="hill" />
		<tag k="place" v="locality" />
		<tag k="ssr:stedsnr" v="627983" />
	</node>
	<node id="-354688" lat="58.1057083313" lon="7.66591944359">
		<tag k="name" v="Halvorshaugen" />
		<tag k="natural" v="slope" />
		<tag k="place" v="locality" />
		<tag k="ssr:stedsnr" v="142023" />
	</node>
	<node id="-355199" lat="58.1479194466" lon="7.62323332704">
		<tag k="name" v="Nordlia" />
		<tag k="natural" v="slope" />
		<tag k="place" v="locality" />
		<tag k="ssr:stedsnr" v="627964" />
	</node>
	<node id="-355198" lat="58.1405666667" lon="7.62152777049">
		<tag k="alt_name" v="Vilviåsane" />
		<tag k="name" v="Villviåsane" />
		<tag k="natural" v="hill" />
		<tag k="place" v="locality" />
		<tag k="ssr:stedsnr" v="627960" />
	</node>
	<node id="-355197" lat="58.1324222229" lon="7.59337777105">
		<tag k="name" v="Ørnefjell" />
		<tag k="natural" v="hill" />
		<tag k="place" v="locality" />
		<tag k="ssr:stedsnr" v="627958" />
	</node>
	<node id="-355196" lat="58.137550004" lon="7.59576110448">
		<tag k="name" v="Ognesheia" />
		<tag k="natural" v="hill" />
		<tag k="place" v="locality" />
		<tag k="ssr:stedsnr" v="627956" />
	</node>
	<node id="-354682" lat="58.1243027748" lon="7.65569722579">
		<tag k="name" v="Helvetesknuden" />
		<tag k="natural" v="hill" />
		<tag k="place" v="locality" />
		<tag k="ssr:stedsnr" v="142084" />
	</node>
	<node id="-354680" lat="58.1134499971" lon="7.63613611332">
		<tag k="name" v="Kjerran" />
		<tag k="place" v="locality" />
		<tag k="ssr:stedsnr" v="142064" />
	</node>
	<node id="-355191" lat="58.0681416702" lon="7.65743055986">
		<tag k="name" v="Tråneheia" />
		<tag k="natural" v="hill" />
		<tag k="place" v="locality" />
		<tag k="ssr:stedsnr" v="627929" />
	</node>
	<node id="-354674" lat="58.117508337" lon="7.70030278331">
		<tag k="name" v="Smørheia" />
		<tag k="natural" v="hill" />
		<tag k="place" v="locality" />
		<tag k="ssr:stedsnr" v="121847" />
	</node>
	<node id="-355185" lat="58.1005722191" lon="7.82190276964">
		<tag k="fixme" v="consider natural=peak for the most distinct mountains in the district" />
		<tag k="name" v="Solåsen" />
		<tag k="natural" v="hill" />
		<tag k="place" v="locality" />
		<tag k="ssr:stedsnr" v="627391" />
	</node>
	<node id="-355090" lat="58.1121666712" lon="7.63097777686">
		<tag k="name" v="Trappeskotet" />
		<tag k="natural" v="valley" />
		<tag k="place" v="locality" />
		<tag k="ssr:stedsnr" v="567046" />
	</node>
	<node id="-355182" lat="58.1342861114" lon="7.77316388103">
		<tag k="name" v="Hesteheia" />
		<tag k="natural" v="hill" />
		<tag k="place" v="locality" />
		<tag k="ssr:stedsnr" v="627372" />
	</node>
	<node id="-354529" lat="58.1468444427" lon="7.63154166389">
		<tag k="fixme" v="consider natural=peak for the most distinct mountains in the district" />
		<tag k="name" v="Kviansheia" />
		<tag k="natural" v="hill" />
		<tag k="place" v="locality" />
		<tag k="ssr:stedsnr" v="21035" />
	</node>
	<node id="-355179" lat="58.1147388866" lon="7.860255555">
		<tag k="fixme" v="consider natural=peak for the most distinct mountains in the district" />
		<tag k="name" v="Meåsen" />
		<tag k="natural" v="hill" />
		<tag k="place" v="locality" />
		<tag k="ssr:stedsnr" v="627361" />
	</node>
	<node id="-355178" lat="58.1114027814" lon="7.85609444291">
		<tag k="name" v="Drangedalen" />
		<tag k="natural" v="valley" />
		<tag k="place" v="locality" />
		<tag k="ssr:stedsnr" v="627350" />
	</node>
	<node id="-354791" lat="58.1330305578" lon="7.68328332848">
		<tag k="fixme" v="consider natural=peak for the most distinct mountains in the district" />
		<tag k="name" v="Ljomåsen" />
		<tag k="natural" v="hill" />
		<tag k="place" v="locality" />
		<tag k="ssr:stedsnr" v="203267" />
	</node>
	<node id="-355176" lat="58.1357694441" lon="7.65623055787">
		<tag k="name" v="Galeiren" />
		<tag k="natural" v="hill" />
		<tag k="place" v="locality" />
		<tag k="ssr:stedsnr" v="627240" />
	</node>
	<node id="-355175" lat="58.1244833336" lon="7.73904444564">
		<tag k="name" v="Dredalen" />
		<tag k="natural" v="valley" />
		<tag k="place" v="locality" />
		<tag k="ssr:stedsnr" v="627207" />
	</node>
	<node id="-355174" lat="58.1151583347" lon="7.73868610383">
		<tag k="name" v="Torkelsheia" />
		<tag k="natural" v="hill" />
		<tag k="place" v="locality" />
		<tag k="ssr:stedsnr" v="627204" />
	</node>
	<node id="-355170" lat="58.1188388922" lon="7.75110277177">
		<tag k="fixme" v="consider natural=peak for the most distinct mountains in the district" />
		<tag k="name" v="Husebakken" />
		<tag k="natural" v="hill" />
		<tag k="place" v="locality" />
		<tag k="ssr:stedsnr" v="627146" />
	</node>
	<node id="-355503" lat="58.0741694426" lon="7.86159444817">
		<tag k="name" v="Søvikheia" />
		<tag k="natural" v="hill" />
		<tag k="place" v="locality" />
		<tag k="ssr:stedsnr" v="871313" />
	</node>
	<node id="-355168" lat="58.0527361074" lon="7.70607500129">
		<tag k="alt_name" v="Vardeheia" />
		<tag k="name" v="Vareheia" />
		<tag k="natural" v="hill" />
		<tag k="place" v="locality" />
		<tag k="ssr:stedsnr" v="627125" />
	</node>
	<node id="-355165" lat="58.1218500045" lon="7.65188611141">
		<tag k="name" v="Lauvstakkheia" />
		<tag k="natural" v="hill" />
		<tag k="place" v="locality" />
		<tag k="ssr:stedsnr" v="627097" />
	</node>
	<node id="-355163" lat="58.1211805584" lon="7.72173333114">
		<tag k="name" v="Årdalen" />
		<tag k="natural" v="valley" />
		<tag k="place" v="locality" />
		<tag k="ssr:stedsnr" v="627067" />
	</node>
	<node id="-354650" lat="58.0559944408" lon="7.84023332966">
		<tag k="name" v="Signalheia" />
		<tag k="natural" v="hill" />
		<tag k="place" v="locality" />
		<tag k="ssr:stedsnr" v="82967" />
	</node>
	<node id="-355161" lat="58.1081944415" lon="7.6886555524">
		<tag k="fixme" v="consider natural=peak for the most distinct mountains in the district" />
		<tag k="name" v="Midtheia" />
		<tag k="natural" v="hill" />
		<tag k="place" v="locality" />
		<tag k="ssr:stedsnr" v="627051" />
	</node>
	<node id="-355159" lat="58.1036333369" lon="7.67394166531">
		<tag k="name" v="Ravnereirsknuden" />
		<tag k="natural" v="hill" />
		<tag k="place" v="locality" />
		<tag k="ssr:stedsnr" v="627014" />
	</node>
	<node id="-354645" lat="58.0662138872" lon="7.68372777509">
		<tag k="name" v="Hellesvigheia" />
		<tag k="natural" v="hill" />
		<tag k="place" v="locality" />
		<tag k="ssr:stedsnr" v="82919" />
	</node>
	<node id="-354641" lat="58.14945556" lon="7.73840555531">
		<tag k="name" v="Storåkerheia" />
		<tag k="natural" v="hill" />
		<tag k="place" v="locality" />
		<tag k="ssr:stedsnr" v="82347" />
	</node>
	<node id="-354872" lat="58.0746944459" lon="7.82007777577">
		<tag k="name" v="Sandefjellet" />
		<tag k="natural" v="hill" />
		<tag k="place" v="locality" />
		<tag k="ssr:stedsnr" v="264218" />
	</node>
	<node id="-354638" lat="58.0934083364" lon="7.84561388782">
		<tag k="name" v="Kjønndalen" />
		<tag k="natural" v="valley" />
		<tag k="place" v="locality" />
		<tag k="ssr:stedsnr" v="82302" />
	</node>
	<node id="-354636" lat="58.1192583361" lon="7.80405277706">
		<tag k="name" v="Fleskåsen" />
		<tag k="natural" v="hill" />
		<tag k="place" v="locality" />
		<tag k="ssr:stedsnr" v="82148" />
	</node>
	<node id="-355145" lat="58.1177999967" lon="7.82857777089">
		<tag k="fixme" v="consider natural=peak for the most distinct mountains in the district" />
		<tag k="name" v="Moneheia" />
		<tag k="natural" v="hill" />
		<tag k="place" v="locality" />
		<tag k="ssr:stedsnr" v="606236" />
	</node>
	<node id="-354632" lat="58.0605583368" lon="7.68578055871">
		<tag k="name" v="Krogvannsheia" />
		<tag k="natural" v="hill" />
		<tag k="place" v="locality" />
		<tag k="ssr:stedsnr" v="82125" />
	</node>
	<node id="-355297" lat="58.1529999978" lon="7.7370277707">
		<tag k="name" v="Åsen" />
		<tag k="natural" v="hill" />
		<tag k="place" v="locality" />
		<tag k="ssr:stedsnr" v="689982" />
	</node>
	<node id="-354614" lat="58.1239388907" lon="7.73602222867">
		<tag k="name" v="Svartebørheia" />
		<tag k="natural" v="hill" />
		<tag k="place" v="locality" />
		<tag k="ssr:stedsnr" v="82196" />
	</node>
	<node id="-354625" lat="58.115316669" lon="7.64939166923">
		<tag k="name" v="Bjønneheia" />
		<tag k="natural" v="hill" />
		<tag k="place" v="locality" />
		<tag k="ssr:stedsnr" v="82089" />
	</node>
	<node id="-354624" lat="58.1110499986" lon="7.65085000428">
		<tag k="name" v="Skottjønndalen" />
		<tag k="natural" v="valley" />
		<tag k="place" v="locality" />
		<tag k="ssr:stedsnr" v="82087" />
	</node>
	<node id="-354613" lat="58.1042388872" lon="7.75237777949">
		<tag k="name" v="Vassbotheia" />
		<tag k="natural" v="hill" />
		<tag k="place" v="locality" />
		<tag k="ssr:stedsnr" v="82154" />
	</node>
	<node id="-354620" lat="58.1049444437" lon="7.65662500584">
		<tag k="name" v="Nova" />
		<tag k="natural" v="valley" />
		<tag k="place" v="locality" />
		<tag k="ssr:stedsnr" v="82046" />
	</node>
	<node id="-354615" lat="58.1432194426" lon="7.70881945288">
		<tag k="name" v="Folåsheia" />
		<tag k="natural" v="hill" />
		<tag k="place" v="locality" />
		<tag k="ssr:stedsnr" v="82221" />
	</node>
	<node id="-355126" lat="58.0152194437" lon="7.7255666693">
		<tag k="name" v="Ramsdalsheia" />
		<tag k="natural" v="hill" />
		<tag k="place" v="locality" />
		<tag k="ssr:stedsnr" v="570439" />
	</node>
	<node id="-355125" lat="58.1298111131" lon="7.61760833217">
		<tag k="name" v="Huseheia" />
		<tag k="natural" v="hill" />
		<tag k="place" v="locality" />
		<tag k="ssr:stedsnr" v="568000" />
	</node>
	<node id="-354612" lat="58.100227782" lon="7.76170832632">
		<tag k="name" v="Haheia" />
		<tag k="natural" v="hill" />
		<tag k="place" v="locality" />
		<tag k="ssr:stedsnr" v="82153" />
	</node>
	<node id="-354782" lat="58.0629611132" lon="7.73170554768">
		<tag k="name" v="Svinåsen" />
		<tag k="natural" v="hill" />
		<tag k="place" v="locality" />
		<tag k="ssr:stedsnr" v="203097" />
	</node>
	<node id="-354611" lat="58.1244527797" lon="7.67741389368">
		<tag k="name" v="Giskedalsåsen" />
		<tag k="natural" v="hill" />
		<tag k="place" v="locality" />
		<tag k="ssr:stedsnr" v="82035" />
	</node>
	<node id="-355120" lat="58.1204833297" lon="7.58758888171">
		<tag k="name" v="Vapseheia" />
		<tag k="natural" v="hill" />
		<tag k="place" v="locality" />
		<tag k="ssr:stedsnr" v="567955" />
	</node>
	<node id="-354606" lat="58.1001805573" lon="7.67608333663">
		<tag k="name" v="Holmensheia" />
		<tag k="natural" v="hill" />
		<tag k="place" v="locality" />
		<tag k="ssr:stedsnr" v="82010" />
	</node>
	<node id="-355117" lat="58.0660750014" lon="7.70736388969">
		<tag k="name" v="Kallåsen" />
		<tag k="natural" v="hill" />
		<tag k="place" v="locality" />
		<tag k="ssr:stedsnr" v="567929" />
	</node>
	<node id="-354354" lat="58.1370416677" lon="7.75219722981">
		<tag k="alt_name" v="Ravnehei" />
		<tag k="name" v="Ramnehei" />
		<tag k="natural" v="hill" />
		<tag k="place" v="locality" />
		<tag k="ssr:stedsnr" v="385354" />
	</node>
	<node id="-355113" lat="58.1318027757" lon="7.76647499305">
		<tag k="name" v="Ramsdalen" />
		<tag k="natural" v="valley" />
		<tag k="place" v="locality" />
		<tag k="ssr:stedsnr" v="567345" />
	</node>
	<node id="-355112" lat="58.0775138889" lon="7.87366666844">
		<tag k="name" v="Roneheia" />
		<tag k="natural" v="hill" />
		<tag k="place" v="locality" />
		<tag k="ssr:stedsnr" v="567323" />
	</node>
	<node id="-354609" lat="58.0864694468" lon="7.67844722733">
		<tag k="fixme" v="consider natural=peak for the most distinct mountains in the district" />
		<tag k="name" v="Skjølfjellet" />
		<tag k="natural" v="hill" />
		<tag k="place" v="locality" />
		<tag k="ssr:stedsnr" v="82030" />
	</node>
	<node id="-355108" lat="58.0805388929" lon="7.80682222972">
		<tag k="name" v="Solteheia" />
		<tag k="natural" v="hill" />
		<tag k="place" v="locality" />
		<tag k="ssr:stedsnr" v="567218" />
	</node>
	<node id="-354595" lat="58.0984250043" lon="7.88825833423">
		<tag k="fixme" v="consider natural=peak for the most distinct mountains in the district" />
		<tag k="name" v="Luseheia" />
		<tag k="natural" v="hill" />
		<tag k="place" v="locality" />
		<tag k="ssr:stedsnr" v="61137" />
	</node>
	<node id="-355104" lat="58.1260972227" lon="7.81857500322">
		<tag k="fixme" v="consider natural=peak for the most distinct mountains in the district" />
		<tag k="name" v="Risåsen" />
		<tag k="natural" v="hill" />
		<tag k="place" v="locality" />
		<tag k="ssr:stedsnr" v="567149" />
	</node>
	<node id="-354608" lat="58.129113888" lon="7.63665832555">
		<tag k="name" v="Hosleheia" />
		<tag k="natural" v="hill" />
		<tag k="place" v="locality" />
		<tag k="ssr:stedsnr" v="82023" />
	</node>
	<node id="-354949" lat="58.069150003" lon="7.82853333734">
		<tag k="fixme" v="consider natural=peak for the most distinct mountains in the district" />
		<tag k="name" v="Ytre Røynåsen" />
		<tag k="natural" v="hill" />
		<tag k="place" v="locality" />
		<tag k="ssr:stedsnr" v="446200" />
	</node>
	<node id="-355098" lat="58.1079666674" lon="7.66184165882">
		<tag k="name" v="Huseheia" />
		<tag k="natural" v="hill" />
		<tag k="place" v="locality" />
		<tag k="ssr:stedsnr" v="567096" />
	</node>
	<node id="-355097" lat="58.1158500004" lon="7.63207500477">
		<tag k="name" v="Løynsåsen" />
		<tag k="natural" v="hill" />
		<tag k="place" v="locality" />
		<tag k="ssr:stedsnr" v="567081" />
	</node>
	<node id="-355093" lat="58.1194166699" lon="7.68625554978">
		<tag k="name" v="Lunden" />
		<tag k="natural" v="slope" />
		<tag k="place" v="locality" />
		<tag k="ssr:stedsnr" v="567056" />
	</node>
	<node id="-355092" lat="58.1185194475" lon="7.69272777273">
		<tag k="name" v="Vestre Smørheikniben" />
		<tag k="natural" v="hill" />
		<tag k="place" v="locality" />
		<tag k="ssr:stedsnr" v="567055" />
	</node>
	<node id="-354350" lat="58.1389638884" lon="7.70009722823">
		<tag k="name" v="Gunnarsheia" />
		<tag k="natural" v="hill" />
		<tag k="place" v="locality" />
		<tag k="ssr:stedsnr" v="385244" />
	</node>
	<node id="-354578" lat="58.1223555569" lon="7.62045556187">
		<tag k="fixme" v="consider natural=peak for the most distinct mountains in the district" />
		<tag k="name" v="Små-åsane" />
		<tag k="natural" v="hill" />
		<tag k="place" v="locality" />
		<tag k="ssr:stedsnr" v="21963" />
	</node>
	<node id="-354691" lat="58.1469972244" lon="7.62775555021">
		<tag k="name" v="Trolldalen" />
		<tag k="natural" v="valley" />
		<tag k="place" v="locality" />
		<tag k="ssr:stedsnr" v="142043" />
	</node>
	<node id="-354576" lat="58.1198972265" lon="7.59571666509">
		<tag k="name" v="Kløva" />
		<tag k="natural" v="slope" />
		<tag k="place" v="locality" />
		<tag k="ssr:stedsnr" v="21954" />
	</node>
	<node id="-354776" lat="58.1132666632" lon="7.70289165955">
		<tag k="name" v="Dalan" />
		<tag k="natural" v="valley" />
		<tag k="place" v="locality" />
		<tag k="ssr:stedsnr" v="203083" />
	</node>
	<node id="-354574" lat="58.139652778" lon="7.6224944421">
		<tag k="name" v="Støyden" />
		<tag k="natural" v="valley" />
		<tag k="place" v="locality" />
		<tag k="ssr:stedsnr" v="21939" />
	</node>
	<node id="-354573" lat="58.128141663" lon="7.58621110564">
		<tag k="name" v="Trolldalsreet" />
		<tag k="natural" v="valley" />
		<tag k="place" v="locality" />
		<tag k="ssr:stedsnr" v="21936" />
	</node>
	<node id="-354571" lat="58.0690638878" lon="7.67606945138">
		<tag k="name" v="Stodalen" />
		<tag k="natural" v="valley" />
		<tag k="place" v="locality" />
		<tag k="ssr:stedsnr" v="21923" />
	</node>
	<node id="-354570" lat="58.0679611108" lon="7.71951667059">
		<tag k="name" v="Joransheia" />
		<tag k="natural" v="hill" />
		<tag k="place" v="locality" />
		<tag k="ssr:stedsnr" v="21908" />
	</node>
	<node id="-354775" lat="58.1118111104" lon="7.63576945065">
		<tag k="name" v="Kitelskotet" />
		<tag k="natural" v="valley" />
		<tag k="place" v="locality" />
		<tag k="ssr:stedsnr" v="203067" />
	</node>
	<node id="-355080" lat="58.0929083378" lon="7.7161666674">
		<tag k="name" v="Loneheia" />
		<tag k="natural" v="hill" />
		<tag k="place" v="locality" />
		<tag k="ssr:stedsnr" v="546793" />
	</node>
	<node id="-354689" lat="58.1059055551" lon="7.66040554845">
		<tag k="name" v="Smedbakken" />
		<tag k="natural" v="slope" />
		<tag k="place" v="locality" />
		<tag k="ssr:stedsnr" v="142027" />
	</node>
	<node id="-354564" lat="58.1007416649" lon="7.83348610368">
		<tag k="name" v="Ha-holet" />
		<tag k="natural" v="valley" />
		<tag k="place" v="locality" />
		<tag k="ssr:stedsnr" v="21392" />
	</node>
	<node id="-355030" lat="58.1322111131" lon="7.76438334012">
		<tag k="name" v="Håvannsheia" />
		<tag k="natural" v="hill" />
		<tag k="place" v="locality" />
		<tag k="ssr:stedsnr" v="506369" />
	</node>
	<node id="-355073" lat="58.1127416627" lon="7.7792666696">
		<tag k="name" v="Hellersdalen" />
		<tag k="natural" v="valley" />
		<tag k="place" v="locality" />
		<tag k="ssr:stedsnr" v="546235" />
	</node>
	<node id="-355072" lat="58.1166833357" lon="7.80940277451">
		<tag k="alt_name" v="Vardeheia" />
		<tag k="fixme" v="consider natural=peak for the most distinct mountains in the district" />
		<tag k="name" v="Vareheia" />
		<tag k="natural" v="hill" />
		<tag k="place" v="locality" />
		<tag k="ssr:stedsnr" v="546233" />
	</node>
	<node id="-355581" lat="58.0831361151" lon="7.838144445">
		<tag k="name" v="Stokkelandsveten" />
		<tag k="natural" v="hill" />
		<tag k="place" v="locality" />
		<tag k="ssr:stedsnr" v="932207" />
	</node>
	<node id="-355580" lat="58.0728277814" lon="7.79021667362">
		<tag k="name" v="Amfenesheia" />
		<tag k="natural" v="hill" />
		<tag k="place" v="locality" />
		<tag k="ssr:stedsnr" v="932205" />
	</node>
	<node id="-354555" lat="58.1401027801" lon="7.73016667101">
		<tag k="name" v="Liane" />
		<tag k="natural" v="slope" />
		<tag k="place" v="locality" />
		<tag k="ssr:stedsnr" v="21269" />
	</node>
	<node id="-355578" lat="58.1254138907" lon="7.58919999845">
		<tag k="name" v="Pramfjellheia" />
		<tag k="natural" v="hill" />
		<tag k="place" v="locality" />
		<tag k="ssr:stedsnr" v="931963" />
	</node>
	<node id="-354553" lat="58.1494361106" lon="7.71836388191">
		<tag k="name" v="Bånetjønnheia" />
		<tag k="natural" v="hill" />
		<tag k="place" v="locality" />
		<tag k="ssr:stedsnr" v="21257" />
	</node>
	<node id="-355064" lat="58.1053888868" lon="7.87911388931">
		<tag k="fixme" v="consider natural=peak for the most distinct mountains in the district" />
		<tag k="name" v="Låveheia" />
		<tag k="natural" v="hill" />
		<tag k="place" v="locality" />
		<tag k="ssr:stedsnr" v="546135" />
	</node>
	<node id="-355284" lat="58.0827166661" lon="7.87172777038">
		<tag k="name" v="Storheia" />
		<tag k="natural" v="hill" />
		<tag k="place" v="locality" />
		<tag k="ssr:stedsnr" v="689342" />
	</node>
	<node id="-354550" lat="58.1258777811" lon="7.74665000676">
		<tag k="name" v="Anfinnskotet" />
		<tag k="natural" v="valley" />
		<tag k="place" v="locality" />
		<tag k="ssr:stedsnr" v="21228" />
	</node>
	<node id="-355572" lat="58.0660944442" lon="7.67865000645">
		<tag k="name" v="Sandheia" />
		<tag k="natural" v="hill" />
		<tag k="place" v="locality" />
		<tag k="ssr:stedsnr" v="931916" />
	</node>
	<node id="-354546" lat="58.0744666686" lon="7.82614444905">
		<tag k="name" v="Stifjellet" />
		<tag k="natural" v="hill" />
		<tag k="place" v="locality" />
		<tag k="ssr:stedsnr" v="21204" />
	</node>
	<node id="-355569" lat="58.1465944437" lon="7.74486389088">
		<tag k="name" v="Steindalsheia" />
		<tag k="natural" v="hill" />
		<tag k="place" v="locality" />
		<tag k="ssr:stedsnr" v="931377" />
	</node>
	<node id="-354544" lat="58.091330555" lon="7.75418056272">
		<tag k="name" v="Rombersheia" />
		<tag k="natural" v="hill" />
		<tag k="place" v="locality" />
		<tag k="ssr:stedsnr" v="21192" />
	</node>
	<node id="-354542" lat="58.1128916709" lon="7.8071972277">
		<tag k="name" v="Åseheia" />
		<tag k="natural" v="hill" />
		<tag k="place" v="locality" />
		<tag k="ssr:stedsnr" v="21184" />
	</node>
	<node id="-355565" lat="58.109724997" lon="7.74233332742">
		<tag k="name" v="Kriskjerrheia" />
		<tag k="natural" v="hill" />
		<tag k="place" v="locality" />
		<tag k="ssr:stedsnr" v="931190" />
	</node>
	<node id="-355564" lat="58.1281944479" lon="7.73947499227">
		<tag k="name" v="Bjønneskoltren" />
		<tag k="natural" v="hill" />
		<tag k="place" v="locality" />
		<tag k="ssr:stedsnr" v="931184" />
	</node>
	<node id="-354539" lat="58.1129277794" lon="7.75443333732">
		<tag k="name" v="Moneheia" />
		<tag k="natural" v="hill" />
		<tag k="place" v="locality" />
		<tag k="ssr:stedsnr" v="21155" />
	</node>
	<node id="-354540" lat="58.1180944458" lon="7.77016389636">
		<tag k="name" v="Bjønneheia" />
		<tag k="natural" v="hill" />
		<tag k="place" v="locality" />
		<tag k="ssr:stedsnr" v="21165" />
	</node>
	<node id="-355561" lat="58.1249611129" lon="7.79053332883">
		<tag k="fixme" v="consider natural=peak for the most distinct mountains in the district" />
		<tag k="name" v="Heste-Lindåsen" />
		<tag k="natural" v="hill" />
		<tag k="place" v="locality" />
		<tag k="ssr:stedsnr" v="931158" />
	</node>
	<node id="-354684" lat="58.1265444445" lon="7.63402778277">
		<tag k="name" v="Stembakken" />
		<tag k="natural" v="hill" />
		<tag k="place" v="locality" />
		<tag k="ssr:stedsnr" v="142094" />
	</node>
	<node id="-355046" lat="58.162941666" lon="7.7202027851">
		<tag k="name" v="Lødalen" />
		<tag k="natural" v="valley" />
		<tag k="place" v="locality" />
		<tag k="ssr:stedsnr" v="506998" />
	</node>
	<node id="-354532" lat="58.1027805571" lon="7.64561943869">
		<tag k="name" v="Hesteheia" />
		<tag k="natural" v="hill" />
		<tag k="place" v="locality" />
		<tag k="ssr:stedsnr" v="21062" />
	</node>
	<node id="-354530" lat="58.0890722243" lon="7.67142778606">
		<tag k="name" v="Heggdalen" />
		<tag k="natural" v="valley" />
		<tag k="place" v="locality" />
		<tag k="ssr:stedsnr" v="21044" />
	</node>
	<node id="-355041" lat="58.1578611068" lon="7.74071666851">
		<tag k="name" v="Linddalsheia" />
		<tag k="natural" v="hill" />
		<tag k="place" v="locality" />
		<tag k="ssr:stedsnr" v="506973" />
	</node>
	<node id="-355552" lat="58.119330554" lon="7.63652222282">
		<tag k="name" v="Brakallheia" />
		<tag k="natural" v="hill" />
		<tag k="place" v="locality" />
		<tag k="ssr:stedsnr" v="931068" />
	</node>
	<node id="-355551" lat="58.1165388929" lon="7.67282778421">
		<tag k="name" v="Breivigdalen" />
		<tag k="natural" v="valley" />
		<tag k="place" v="locality" />
		<tag k="ssr:stedsnr" v="931050" />
	</node>
	<node id="-354526" lat="58.1040250037" lon="7.66683055053">
		<tag k="fixme" v="consider natural=peak for the most distinct mountains in the district" />
		<tag k="name" v="Strandfjellan" />
		<tag k="natural" v="hill" />
		<tag k="place" v="locality" />
		<tag k="ssr:stedsnr" v="21015" />
	</node>
	<node id="-354753" lat="58.0573138885" lon="7.6875305505">
		<tag k="name" v="Fluheia" />
		<tag k="natural" v="hill" />
		<tag k="place" v="locality" />
		<tag k="ssr:stedsnr" v="182886" />
	</node>
	<node id="-355548" lat="58.1245972264" lon="7.71398889085">
		<tag k="name" v="Rølland" />
		<tag k="natural" v="valley" />
		<tag k="place" v="locality" />
		<tag k="ssr:stedsnr" v="931040" />
	</node>
	<node id="-355547" lat="58.1248027795" lon="7.71000833334">
		<tag k="fixme" v="consider natural=peak for the most distinct mountains in the district" />
		<tag k="name" v="Sillåsen" />
		<tag k="natural" v="hill" />
		<tag k="place" v="locality" />
		<tag k="ssr:stedsnr" v="931039" />
	</node>
	<node id="-355545" lat="58.1341555582" lon="7.63434722718">
		<tag k="name" v="Skuggedalen" />
		<tag k="natural" v="valley" />
		<tag k="place" v="locality" />
		<tag k="ssr:stedsnr" v="931021" />
	</node>
	<node id="-355542" lat="58.147675004" lon="7.72458056277">
		<tag k="name" v="Djupedalen" />
		<tag k="natural" v="valley" />
		<tag k="place" v="locality" />
		<tag k="ssr:stedsnr" v="931238" />
	</node>
	<node id="-355029" lat="58.1357305594" lon="7.76356111528">
		<tag k="name" v="Buktebrådan" />
		<tag k="natural" v="slope" />
		<tag k="place" v="locality" />
		<tag k="ssr:stedsnr" v="506368" />
	</node>
	<node id="-355028" lat="58.1347666679" lon="7.78378055652">
		<tag k="fixme" v="consider natural=peak for the most distinct mountains in the district" />
		<tag k="name" v="Lindåsvarden" />
		<tag k="natural" v="hill" />
		<tag k="place" v="locality" />
		<tag k="ssr:stedsnr" v="506365" />
	</node>
	<node id="-354770" lat="58.1432583307" lon="7.64752777739">
		<tag k="name" v="Kvennhusdalen" />
		<tag k="natural" v="valley" />
		<tag k="place" v="locality" />
		<tag k="ssr:stedsnr" v="203038" />
	</node>
	<node id="-354339" lat="58.1147305559" lon="7.70855278108">
		<tag k="name" v="Birkeheia" />
		<tag k="natural" v="hill" />
		<tag k="place" v="locality" />
		<tag k="ssr:stedsnr" v="385066" />
	</node>
	<node id="-354765" lat="58.0577305569" lon="7.69762778118">
		<tag k="name" v="Skarvedalen" />
		<tag k="natural" v="valley" />
		<tag k="place" v="locality" />
		<tag k="ssr:stedsnr" v="203153" />
	</node>
	<node id="-355020" lat="58.0597333326" lon="7.76911666556">
		<tag k="name" v="Austerheia" />
		<tag k="natural" v="hill" />
		<tag k="place" v="locality" />
		<tag k="ssr:stedsnr" v="506179" />
	</node>
	<node id="-354338" lat="58.1051000007" lon="7.65326666592">
		<tag k="name" v="Hundebakken" />
		<tag k="natural" v="slope" />
		<tag k="place" v="locality" />
		<tag k="ssr:stedsnr" v="385065" />
	</node>
	<node id="-354556" lat="58.1085694425" lon="7.86371944497">
		<tag k="name" v="Kasperheia" />
		<tag k="natural" v="hill" />
		<tag k="place" v="locality" />
		<tag k="ssr:stedsnr" v="21343" />
	</node>
	<node id="-354679" lat="58.1087249993" lon="7.62651666637">
		<tag k="name" v="Storedalen" />
		<tag k="natural" v="valley" />
		<tag k="place" v="locality" />
		<tag k="ssr:stedsnr" v="142061" />
	</node>
	<node id="-355015" lat="58.0584472194" lon="7.68201111675">
		<tag k="name" v="Stemheia" />
		<tag k="natural" v="hill" />
		<tag k="place" v="locality" />
		<tag k="ssr:stedsnr" v="506138" />
	</node>
	<node id="-355361" lat="58.1355861114" lon="7.61842499359">
		<tag k="name" v="Kresjersheia" />
		<tag k="natural" v="hill" />
		<tag k="place" v="locality" />
		<tag k="ssr:stedsnr" v="749996" />
	</node>
	<node id="-355012" lat="58.1153388895" lon="7.64540278038">
		<tag k="name" v="Vindheia" />
		<tag k="natural" v="hill" />
		<tag k="place" v="locality" />
		<tag k="ssr:stedsnr" v="506092" />
	</node>
	<node id="-355521" lat="58.1586194413" lon="7.71623055956">
		<tag k="name" v="Nilsesmyrknatten" />
		<tag k="natural" v="hill" />
		<tag k="place" v="locality" />
		<tag k="ssr:stedsnr" v="871992" />
	</node>
	<node id="-355008" lat="58.1099833358" lon="7.70328888585">
		<tag k="name" v="Flauheia" />
		<tag k="natural" v="hill" />
		<tag k="place" v="locality" />
		<tag k="ssr:stedsnr" v="506058" />
	</node>
	<node id="-355033" lat="58.1043472188" lon="7.83427778205">
		<tag k="alt_name" v="Vardeheia" />
		<tag k="name" v="Vareheia" />
		<tag k="natural" v="hill" />
		<tag k="place" v="locality" />
		<tag k="ssr:stedsnr" v="506390" />
	</node>
	<node id="-355005" lat="58.1411111111" lon="7.64913610967">
		<tag k="name" v="Raunelia" />
		<tag k="natural" v="slope" />
		<tag k="place" v="locality" />
		<tag k="ssr:stedsnr" v="506026" />
	</node>
	<node id="-355004" lat="58.1028861155" lon="7.66889167021">
		<tag k="name" v="Salveshola" />
		<tag k="natural" v="valley" />
		<tag k="place" v="locality" />
		<tag k="ssr:stedsnr" v="506015" />
	</node>
	<node id="-355514" lat="58.0745527807" lon="7.69704443865">
		<tag k="name" v="Gunnarsåsen" />
		<tag k="natural" v="hill" />
		<tag k="place" v="locality" />
		<tag k="ssr:stedsnr" v="871901" />
	</node>
	<node id="-354999" lat="58.111458331" lon="7.65950555522">
		<tag k="name" v="Midtheia" />
		<tag k="natural" v="hill" />
		<tag k="place" v="locality" />
		<tag k="ssr:stedsnr" v="485832" />
	</node>
	<node id="-355017" lat="58.0971277765" lon="7.75941110505">
		<tag k="name" v="Krogan" />
		<tag k="natural" v="valley" />
		<tag k="place" v="locality" />
		<tag k="ssr:stedsnr" v="506157" />
	</node>
	<node id="-354811" lat="58.1308722228" lon="7.61355555758">
		<tag k="name" v="Askedalen" />
		<tag k="natural" v="valley" />
		<tag k="place" v="locality" />
		<tag k="ssr:stedsnr" v="203957" />
	</node>
	<node id="-355506" lat="58.0973222247" lon="7.82481111827">
		<tag k="name" v="Skjærelia" />
		<tag k="natural" v="slope" />
		<tag k="place" v="locality" />
		<tag k="ssr:stedsnr" v="871346" />
	</node>
	<node id="-354760" lat="58.0498999973" lon="7.66737499249">
		<tag k="fixme" v="consider natural=peak for the most distinct mountains in the district" />
		<tag k="name" v="Stemsheia" />
		<tag k="natural" v="hill" />
		<tag k="place" v="locality" />
		<tag k="ssr:stedsnr" v="203126" />
	</node>
	<node id="-355346" lat="58.1108138921" lon="7.85495555889">
		<tag k="fixme" v="consider natural=peak for the most distinct mountains in the district" />
		<tag k="name" v="Gjerdeåsen" />
		<tag k="natural" v="hill" />
		<tag k="place" v="locality" />
		<tag k="ssr:stedsnr" v="749359" />
	</node>
	<node id="-355499" lat="58.1471972212" lon="7.70853889568">
		<tag k="name" v="Stusmyrheia" />
		<tag k="natural" v="hill" />
		<tag k="place" v="locality" />
		<tag k="ssr:stedsnr" v="871224" />
	</node>
	<node id="-355498" lat="58.1315583333" lon="7.69185555509">
		<tag k="name" v="Løkkeheia" />
		<tag k="natural" v="hill" />
		<tag k="place" v="locality" />
		<tag k="ssr:stedsnr" v="871211" />
	</node>
	<node id="-355497" lat="58.1380111082" lon="7.68369166174">
		<tag k="name" v="Svemlandsvarden" />
		<tag k="natural" v="hill" />
		<tag k="place" v="locality" />
		<tag k="ssr:stedsnr" v="871205" />
	</node>
	<node id="-354332" lat="58.0883777779" lon="7.67396943738">
		<tag k="name" v="Heggedalsåsen" />
		<tag k="natural" v="hill" />
		<tag k="place" v="locality" />
		<tag k="ssr:stedsnr" v="385045" />
	</node>
	<node id="-355488" lat="58.0544805581" lon="7.77834167353">
		<tag k="name" v="Knibben" />
		<tag k="natural" v="hill" />
		<tag k="place" v="locality" />
		<tag k="ssr:stedsnr" v="871163" />
	</node>
	<node id="-354975" lat="58.1334694456" lon="7.72938888916">
		<tag k="fixme" v="consider natural=peak for the most distinct mountains in the district" />
		<tag k="name" v="Goåsen" />
		<tag k="natural" v="hill" />
		<tag k="place" v="locality" />
		<tag k="ssr:stedsnr" v="447209" />
	</node>
	<node id="-355481" lat="58.1189222233" lon="7.7639416593">
		<tag k="name" v="Kraneheia" />
		<tag k="natural" v="hill" />
		<tag k="place" v="locality" />
		<tag k="ssr:stedsnr" v="871114" />
	</node>
	<node id="-354968" lat="58.1354055591" lon="7.60260833397">
		<tag k="name" v="Fagrevannsheia" />
		<tag k="natural" v="hill" />
		<tag k="place" v="locality" />
		<tag k="ssr:stedsnr" v="446942" />
	</node>
	<node id="-355478" lat="58.1091472213" lon="7.68773333173">
		<tag k="fixme" v="consider natural=peak for the most distinct mountains in the district" />
		<tag k="name" v="Husebakkheia" />
		<tag k="natural" v="hill" />
		<tag k="place" v="locality" />
		<tag k="ssr:stedsnr" v="871046" />
	</node>
	<node id="-354965" lat="58.0682944477" lon="7.6817861086">
		<tag k="fixme" v="consider natural=peak for the most distinct mountains in the district" />
		<tag k="name" v="Repåsen" />
		<tag k="natural" v="hill" />
		<tag k="place" v="locality" />
		<tag k="ssr:stedsnr" v="446929" />
	</node>
	<node id="-354964" lat="58.0642083304" lon="7.70509444718">
		<tag k="name" v="Olavsheia" />
		<tag k="natural" v="hill" />
		<tag k="place" v="locality" />
		<tag k="ssr:stedsnr" v="446927" />
	</node>
	<node id="-354963" lat="58.0744222229" lon="7.70095000412">
		<tag k="fixme" v="consider natural=peak for the most distinct mountains in the district" />
		<tag k="name" v="Kasettknibben" />
		<tag k="natural" v="hill" />
		<tag k="place" v="locality" />
		<tag k="ssr:stedsnr" v="446922" />
	</node>
	<node id="-355474" lat="58.1003194478" lon="7.67895277327">
		<tag k="name" v="Kleven" />
		<tag k="natural" v="valley" />
		<tag k="place" v="locality" />
		<tag k="ssr:stedsnr" v="871012" />
	</node>
	<node id="-354958" lat="58.0906138921" lon="7.92161944486">
		<tag k="name" v="Strandeheia" />
		<tag k="natural" v="hill" />
		<tag k="place" v="locality" />
		<tag k="ssr:stedsnr" v="446875" />
	</node>
	<node id="-354957" lat="58.1068111155" lon="7.84017222545">
		<tag k="name" v="Kjellingtjønnfjellet" />
		<tag k="natural" v="hill" />
		<tag k="place" v="locality" />
		<tag k="ssr:stedsnr" v="446392" />
	</node>
	<node id="-355266" lat="58.1142722258" lon="7.79716110564">
		<tag k="fixme" v="consider natural=peak for the most distinct mountains in the district" />
		<tag k="name" v="Svalås-varde" />
		<tag k="natural" v="hill" />
		<tag k="place" v="locality" />
		<tag k="ssr:stedsnr" v="689158" />
	</node>
	<node id="-354953" lat="58.0816055516" lon="7.88190277526">
		<tag k="name" v="Nomeheia" />
		<tag k="natural" v="hill" />
		<tag k="place" v="locality" />
		<tag k="ssr:stedsnr" v="446369" />
	</node>
	<node id="-355463" lat="58.1232611135" lon="7.77645000455">
		<tag k="fixme" v="consider natural=peak for the most distinct mountains in the district" />
		<tag k="name" v="Torjusheia" />
		<tag k="natural" v="hill" />
		<tag k="place" v="locality" />
		<tag k="ssr:stedsnr" v="850228" />
	</node>
	<node id="-354997" lat="58.1002972247" lon="7.65900834006">
		<tag k="alt_name" v="Høgås" />
		<tag k="fixme" v="consider natural=peak for the most distinct mountains in the district" />
		<tag k="name" v="Høgåsen" />
		<tag k="natural" v="hill" />
		<tag k="place" v="locality" />
		<tag k="ssr:stedsnr" v="485792" />
	</node>
	<node id="-355461" lat="58.1644555596" lon="7.72618055922">
		<tag k="fixme" v="consider natural=peak for the most distinct mountains in the district" />
		<tag k="name" v="Eikåsen" />
		<tag k="natural" v="hill" />
		<tag k="place" v="locality" />
		<tag k="ssr:stedsnr" v="850030" />
	</node>
	<node id="-354349" lat="58.1408250027" lon="7.70721665809">
		<tag k="name" v="Loftsheia" />
		<tag k="natural" v="hill" />
		<tag k="place" v="locality" />
		<tag k="ssr:stedsnr" v="385243" />
	</node>
	<node id="-355455" lat="58.1148226439" lon="7.87056937658">
		<tag k="name" v="Bjordalen" />
		<tag k="natural" v="valley" />
		<tag k="place" v="locality" />
		<tag k="ssr:stedsnr" v="817455" />
	</node>
	<node id="-355038" lat="58.0670777791" lon="7.63703610488">
		<tag k="name" v="Rabbeheia" />
		<tag k="natural" v="hill" />
		<tag k="place" v="locality" />
		<tag k="ssr:stedsnr" v="506932" />
	</node>
	<node id="-354940" lat="58.0545805586" lon="7.64638611364">
		<tag k="name" v="Byttingshaugen" />
		<tag k="natural" v="hill" />
		<tag k="place" v="locality" />
		<tag k="ssr:stedsnr" v="446112" />
	</node>
	<node id="-354939" lat="58.0533499959" lon="7.66496111822">
		<tag k="fixme" v="consider natural=peak for the most distinct mountains in the district" />
		<tag k="name" v="Lyngvikkollen" />
		<tag k="natural" v="hill" />
		<tag k="place" v="locality" />
		<tag k="ssr:stedsnr" v="446108" />
	</node>
	<node id="-354938" lat="58.0541805583" lon="7.66683888827">
		<tag k="name" v="Manneskaret" />
		<tag k="natural" v="valley" />
		<tag k="place" v="locality" />
		<tag k="ssr:stedsnr" v="446109" />
	</node>
	<node id="-354580" lat="58.1641305528" lon="7.72586388648">
		<tag k="name" v="Skuggedalskniben" />
		<tag k="natural" v="hill" />
		<tag k="place" v="locality" />
		<tag k="ssr:stedsnr" v="22000" />
	</node>
	<node id="-354934" lat="58.112130559" lon="7.73290554998">
		<tag k="name" v="Manneheia" />
		<tag k="natural" v="hill" />
		<tag k="place" v="locality" />
		<tag k="ssr:stedsnr" v="446068" />
	</node>
	<node id="-355444" lat="58.081774999" lon="7.8182333337">
		<tag k="name" v="Kroksheia" />
		<tag k="natural" v="hill" />
		<tag k="place" v="locality" />
		<tag k="ssr:stedsnr" v="811191" />
	</node>
	<node id="-355440" lat="58.1635805518" lon="7.71204166792">
		<tag k="name" v="Sandvannsdalen" />
		<tag k="natural" v="valley" />
		<tag k="place" v="locality" />
		<tag k="ssr:stedsnr" v="810996" />
	</node>
	<node id="-355261" lat="58.1401666636" lon="7.7207111135">
		<tag k="name" v="Blautmyrheia" />
		<tag k="natural" v="hill" />
		<tag k="place" v="locality" />
		<tag k="ssr:stedsnr" v="688258" />
	</node>
	<node id="-355435" lat="58.1225861127" lon="7.59341943611">
		<tag k="name" v="Telandsfidja" />
		<tag k="place" v="locality" />
		<tag k="ssr:stedsnr" v="810967" />
	</node>
	<node id="-355434" lat="58.1349583318" lon="7.5936972138">
		<tag k="name" v="Oladalen" />
		<tag k="natural" v="valley" />
		<tag k="place" v="locality" />
		<tag k="ssr:stedsnr" v="810942" />
	</node>
	<node id="-355433" lat="58.0827055532" lon="7.66552777205">
		<tag k="name" v="Husebakken" />
		<tag k="natural" v="hill" />
		<tag k="place" v="locality" />
		<tag k="ssr:stedsnr" v="810934" />
	</node>
	<node id="-355431" lat="58.0959638863" lon="7.84179722801">
		<tag k="name" v="Vardeheia" />
		<tag k="natural" v="hill" />
		<tag k="place" v="locality" />
		<tag k="ssr:stedsnr" v="810363" />
	</node>
	<node id="-355430" lat="58.1002305575" lon="7.80833332988">
		<tag k="name" v="Rannesheia" />
		<tag k="natural" v="hill" />
		<tag k="place" v="locality" />
		<tag k="ssr:stedsnr" v="810360" />
	</node>
	<node id="-354577" lat="58.1201972204" lon="7.60746944173">
		<tag k="name" v="Ålgårdsheia" />
		<tag k="natural" v="hill" />
		<tag k="place" v="locality" />
		<tag k="ssr:stedsnr" v="21957" />
	</node>
	<node id="-355425" lat="58.1111361087" lon="7.85126110889">
		<tag k="name" v="Gåbestø" />
		<tag k="natural" v="valley" />
		<tag k="place" v="locality" />
		<tag k="ssr:stedsnr" v="810335" />
	</node>
	<node id="-354912" lat="58.1036833303" lon="7.79943332695">
		<tag k="alt_name" v="Fidjane" />
		<tag k="name" v="Fidjan" />
		<tag k="place" v="locality" />
		<tag k="ssr:stedsnr" v="425127" />
	</node>
	<node id="-355420" lat="58.1406472187" lon="7.65715555588">
		<tag k="name" v="Svartevannsheia" />
		<tag k="natural" v="hill" />
		<tag k="place" v="locality" />
		<tag k="ssr:stedsnr" v="810232" />
	</node>
	<node id="-354568" lat="58.0832555547" lon="7.9136388893">
		<tag k="name" v="Bergebrådet" />
		<tag k="natural" v="slope" />
		<tag k="place" v="locality" />
		<tag k="ssr:stedsnr" v="21889" />
	</node>
	<node id="-355415" lat="58.1009638848" lon="7.79155833156">
		<tag k="name" v="Haugedalen" />
		<tag k="natural" v="valley" />
		<tag k="place" v="locality" />
		<tag k="ssr:stedsnr" v="810177" />
	</node>
	<node id="-355414" lat="58.1083777737" lon="7.7994638963">
		<tag k="name" v="Kjellandsheia" />
		<tag k="natural" v="hill" />
		<tag k="place" v="locality" />
		<tag k="ssr:stedsnr" v="810173" />
	</node>
	<node id="-355412" lat="58.1114805585" lon="7.76458611179">
		<tag k="name" v="Storemyrheia" />
		<tag k="natural" v="hill" />
		<tag k="place" v="locality" />
		<tag k="ssr:stedsnr" v="810157" />
	</node>
	<node id="-355410" lat="58.0505555598" lon="7.68724444528">
		<tag k="name" v="Groheia" />
		<tag k="natural" v="hill" />
		<tag k="place" v="locality" />
		<tag k="ssr:stedsnr" v="810150" />
	</node>
	<node id="-355409" lat="58.0554388865" lon="7.6770666638">
		<tag k="name" v="Dvalåsheia" />
		<tag k="natural" v="hill" />
		<tag k="place" v="locality" />
		<tag k="ssr:stedsnr" v="810132" />
	</node>
	<node id="-355408" lat="58.0606749986" lon="7.67985833798">
		<tag k="fixme" v="consider natural=peak for the most distinct mountains in the district" />
		<tag k="name" v="Åenknuten" />
		<tag k="natural" v="hill" />
		<tag k="place" v="locality" />
		<tag k="ssr:stedsnr" v="810129" />
	</node>
	<node id="-354895" lat="58.1383222203" lon="7.62325278108">
		<tag k="name" v="Åsane" />
		<tag k="natural" v="hill" />
		<tag k="place" v="locality" />
		<tag k="ssr:stedsnr" v="264943" />
	</node>
	<node id="-355406" lat="58.1267833369" lon="7.6435166598">
		<tag k="name" v="Heia" />
		<tag k="natural" v="hill" />
		<tag k="place" v="locality" />
		<tag k="ssr:stedsnr" v="810085" />
	</node>
	<node id="-355405" lat="58.1187388907" lon="7.68308889599">
		<tag k="name" v="Ingridsheia" />
		<tag k="natural" v="hill" />
		<tag k="place" v="locality" />
		<tag k="ssr:stedsnr" v="810082" />
	</node>
	<node id="-355403" lat="58.103947218" lon="7.63742222572">
		<tag k="name" v="Rollsdalen" />
		<tag k="natural" v="valley" />
		<tag k="place" v="locality" />
		<tag k="ssr:stedsnr" v="810068" />
	</node>
	<node id="-354890" lat="58.0797555553" lon="7.6839722195">
		<tag k="name" v="Sjøbudalen" />
		<tag k="natural" v="valley" />
		<tag k="place" v="locality" />
		<tag k="ssr:stedsnr" v="264905" />
	</node>
	<node id="-355400" lat="58.1470055565" lon="7.62525000016">
		<tag k="name" v="Brannslia" />
		<tag k="natural" v="slope" />
		<tag k="place" v="locality" />
		<tag k="ssr:stedsnr" v="810040" />
	</node>
	<node id="-355399" lat="58.1438638871" lon="7.64059445195">
		<tag k="name" v="Brenneheia" />
		<tag k="natural" v="hill" />
		<tag k="place" v="locality" />
		<tag k="ssr:stedsnr" v="810037" />
	</node>
	<node id="-354886" lat="58.0917222267" lon="7.83732499945">
		<tag k="name" v="Fossheia" />
		<tag k="natural" v="hill" />
		<tag k="place" v="locality" />
		<tag k="ssr:stedsnr" v="264363" />
	</node>
	<node id="-355397" lat="58.0980722211" lon="7.66304444101">
		<tag k="name" v="Likjerret" />
		<tag k="natural" v="valley" />
		<tag k="place" v="locality" />
		<tag k="ssr:stedsnr" v="810015" />
	</node>
	<node id="-355396" lat="58.0980583371" lon="7.64403888237">
		<tag k="name" v="Dalane" />
		<tag k="natural" v="valley" />
		<tag k="place" v="locality" />
		<tag k="ssr:stedsnr" v="810012" />
	</node>
	<node id="-354742" lat="58.0672666659" lon="7.8292361092">
		<tag k="alt_name" v="Årosveten" />
		<tag k="name" v="Årosveden" />
		<tag k="natural" v="hill" />
		<tag k="place" v="locality" />
		<tag k="ssr:stedsnr" v="182161" />
	</node>
	<node id="-355394" lat="58.1123805592" lon="7.644586106">
		<tag k="name" v="Øygardsheia" />
		<tag k="natural" v="hill" />
		<tag k="place" v="locality" />
		<tag k="ssr:stedsnr" v="789849" />
	</node>
	<node id="-354881" lat="58.1149361145" lon="7.8512944521">
		<tag k="fixme" v="consider natural=peak for the most distinct mountains in the district" />
		<tag k="name" v="Nordåsen" />
		<tag k="natural" v="hill" />
		<tag k="place" v="locality" />
		<tag k="ssr:stedsnr" v="264328" />
	</node>
	<node id="-354367" lat="58.1365638895" lon="7.57940555894">
		<tag k="name" v="Skifteberget" />
		<tag k="natural" v="hill" />
		<tag k="place" v="locality" />
		<tag k="ssr:stedsnr" v="385942" />
	</node>
	<node id="-354365" lat="58.074708332" lon="7.68277223024">
		<tag k="name" v="Bruheia" />
		<tag k="natural" v="hill" />
		<tag k="place" v="locality" />
		<tag k="ssr:stedsnr" v="385922" />
	</node>
	<node id="-354876" lat="58.0817583348" lon="7.76642499912">
		<tag k="name" v="Linneroda" />
		<tag k="natural" v="valley" />
		<tag k="place" v="locality" />
		<tag k="ssr:stedsnr" v="264242" />
	</node>
	<node id="-354875" lat="58.1304722218" lon="7.70833611936">
		<tag k="name" v="Gl. Sjustøl" />
		<tag k="natural" v="slope" />
		<tag k="place" v="locality" />
		<tag k="ssr:stedsnr" v="264237" />
	</node>
	<node id="-355386" lat="58.0777666701" lon="7.67402499172">
		<tag k="alt_name" v="Åsane" />
		<tag k="fixme" v="consider natural=peak for the most distinct mountains in the district" />
		<tag k="name" v="Åsan" />
		<tag k="natural" v="hill" />
		<tag k="place" v="locality" />
		<tag k="ssr:stedsnr" v="788904" />
	</node>
	<node id="-355385" lat="58.0792500017" lon="7.65940277976">
		<tag k="alt_name" v="Dalan" />
		<tag k="name" v="Dalane" />
		<tag k="natural" v="valley" />
		<tag k="place" v="locality" />
		<tag k="ssr:stedsnr" v="788902" />
	</node>
	<node id="-355384" lat="58.0932638884" lon="7.86816389601">
		<tag k="fixme" v="consider natural=peak for the most distinct mountains in the district" />
		<tag k="name" v="Bruheia" />
		<tag k="natural" v="hill" />
		<tag k="place" v="locality" />
		<tag k="ssr:stedsnr" v="788162" />
	</node>
	<node id="-354871" lat="58.0840333357" lon="7.8086722181">
		<tag k="name" v="Austrusheia" />
		<tag k="natural" v="hill" />
		<tag k="place" v="locality" />
		<tag k="ssr:stedsnr" v="264209" />
	</node>
	<node id="-354358" lat="58.0993499968" lon="7.8303222291">
		<tag k="name" v="Heimerheia" />
		<tag k="natural" v="hill" />
		<tag k="place" v="locality" />
		<tag k="ssr:stedsnr" v="385375" />
	</node>
	<node id="-354869" lat="58.0560750026" lon="7.7759777707">
		<tag k="name" v="Kastellheia" />
		<tag k="natural" v="hill" />
		<tag k="place" v="locality" />
		<tag k="ssr:stedsnr" v="264184" />
	</node>
	<node id="-354355" lat="58.1398805562" lon="7.74038055709">
		<tag k="name" v="Barlønndalen" />
		<tag k="natural" v="valley" />
		<tag k="place" v="locality" />
		<tag k="ssr:stedsnr" v="385356" />
	</node>
	<node id="-354866" lat="58.1195666712" lon="7.75365555881">
		<tag k="name" v="Kallåsheia" />
		<tag k="natural" v="hill" />
		<tag k="place" v="locality" />
		<tag k="ssr:stedsnr" v="264140" />
	</node>
	<node id="-354585" lat="58.1355999963" lon="7.72615000495">
		<tag k="fixme" v="consider natural=peak for the most distinct mountains in the district" />
		<tag k="name" v="Årstølvarden" />
		<tag k="natural" v="hill" />
		<tag k="place" v="locality" />
		<tag k="ssr:stedsnr" v="22221" />
	</node>
	<node id="-354352" lat="58.1095972199" lon="7.880322224">
		<tag k="name" v="Jonskniben" />
		<tag k="natural" v="hill" />
		<tag k="place" v="locality" />
		<tag k="ssr:stedsnr" v="385332" />
	</node>
	<node id="-354863" lat="58.0563222222" lon="7.66865832651">
		<tag k="fixme" v="consider natural=peak for the most distinct mountains in the district" />
		<tag k="name" v="Lauvåsen" />
		<tag k="natural" v="hill" />
		<tag k="place" v="locality" />
		<tag k="ssr:stedsnr" v="264096" />
	</node>
	<node id="-354862" lat="58.1090361137" lon="7.65870277634">
		<tag k="name" v="Urdalsheia" />
		<tag k="natural" v="hill" />
		<tag k="place" v="locality" />
		<tag k="ssr:stedsnr" v="264089" />
	</node>
	<node id="-354861" lat="58.107588892" lon="7.68961110909">
		<tag k="fixme" v="consider natural=peak for the most distinct mountains in the district" />
		<tag k="name" v="Stredeheia" />
		<tag k="natural" v="hill" />
		<tag k="place" v="locality" />
		<tag k="ssr:stedsnr" v="264054" />
	</node>
	<node id="-354348" lat="58.1360749999" lon="7.64887221402">
		<tag k="name" v="Linddalen" />
		<tag k="natural" v="valley" />
		<tag k="place" v="locality" />
		<tag k="ssr:stedsnr" v="385235" />
	</node>
	<node id="-354312" lat="58.0367944461" lon="7.65108888256">
		<tag k="alt_name" v="Eidsveten" />
		<tag k="name" v="Eidsveden" />
		<tag k="natural" v="hill" />
		<tag k="place" v="locality" />
		<tag k="ssr:stedsnr" v="364970" />
	</node>
	<node id="-355368" lat="58.132869446" lon="7.72640555311">
		<tag k="name" v="Langedalen" />
		<tag k="natural" v="valley" />
		<tag k="place" v="locality" />
		<tag k="ssr:stedsnr" v="750200" />
	</node>
	<node id="-354343" lat="58.1210666657" lon="7.71354443915">
		<tag k="name" v="Hunden" />
		<tag k="natural" v="hill" />
		<tag k="place" v="locality" />
		<tag k="ssr:stedsnr" v="385079" />
	</node>
	<node id="-355366" lat="58.1394555513" lon="7.72495556382">
		<tag k="name" v="Bjønnelia" />
		<tag k="natural" v="slope" />
		<tag k="place" v="locality" />
		<tag k="ssr:stedsnr" v="750197" />
	</node>
	<node id="-355365" lat="58.0750305562" lon="7.79402499488">
		<tag k="name" v="Birkedalen" />
		<tag k="natural" v="valley" />
		<tag k="place" v="locality" />
		<tag k="ssr:stedsnr" v="750174" />
	</node>
	<node id="-354340" lat="58.1163500021" lon="7.71870000397">
		<tag k="name" v="Tvordalen" />
		<tag k="natural" v="valley" />
		<tag k="place" v="locality" />
		<tag k="ssr:stedsnr" v="385069" />
	</node>
	<node id="-354851" lat="58.1111472217" lon="7.61839444825">
		<tag k="alt_name" v="Vardeheia" />
		<tag k="name" v="Vardehei" />
		<tag k="natural" v="hill" />
		<tag k="place" v="locality" />
		<tag k="ssr:stedsnr" v="243843" />
	</node>
	<node id="-354687" lat="58.0961499958" lon="7.66192499305">
		<tag k="name" v="Livollen" />
		<tag k="natural" v="hill" />
		<tag k="place" v="locality" />
		<tag k="ssr:stedsnr" v="142010" />
	</node>
	<node id="-354629" lat="58.0574416647" lon="7.67301389517">
		<tag k="name" v="Byttingsheia" />
		<tag k="natural" v="hill" />
		<tag k="place" v="locality" />
		<tag k="ssr:stedsnr" v="82116" />
	</node>
	<node id="-354336" lat="58.1155249998" lon="7.67395556215">
		<tag k="name" v="Åsane" />
		<tag k="natural" v="slope" />
		<tag k="place" v="locality" />
		<tag k="ssr:stedsnr" v="385054" />
	</node>
	<node id="-355356" lat="58.0674277781" lon="7.70380278203">
		<tag k="name" v="Ufordalen" />
		<tag k="natural" v="valley" />
		<tag k="place" v="locality" />
		<tag k="ssr:stedsnr" v="749939" />
	</node>
	<node id="-355355" lat="58.0715138932" lon="7.71654167091">
		<tag k="name" v="Hellersheia" />
		<tag k="natural" v="hill" />
		<tag k="place" v="locality" />
		<tag k="ssr:stedsnr" v="749930" />
	</node>
	<node id="-354841" lat="58.1124972232" lon="7.80156388306">
		<tag k="fixme" v="consider natural=peak for the most distinct mountains in the district" />
		<tag k="name" v="Sjåsæheia" />
		<tag k="natural" v="hill" />
		<tag k="place" v="locality" />
		<tag k="ssr:stedsnr" v="243224" />
	</node>
	<node id="-355351" lat="58.0878388923" lon="7.81086666054">
		<tag k="fixme" v="consider natural=peak for the most distinct mountains in the district" />
		<tag k="name" v="Anderåsen" />
		<tag k="natural" v="hill" />
		<tag k="place" v="locality" />
		<tag k="ssr:stedsnr" v="749395" />
	</node>
	<node id="-355350" lat="58.1012777777" lon="7.8030722195">
		<tag k="name" v="Buheia" />
		<tag k="natural" v="hill" />
		<tag k="place" v="locality" />
		<tag k="ssr:stedsnr" v="749394" />
	</node>
	<node id="-355347" lat="58.0775527747" lon="7.89374999334">
		<tag k="name" v="Kileheia" />
		<tag k="natural" v="hill" />
		<tag k="place" v="locality" />
		<tag k="ssr:stedsnr" v="749368" />
	</node>
	<node id="-354322" lat="58.0864111095" lon="7.77573611742">
		<tag k="name" v="Leireheia" />
		<tag k="natural" v="hill" />
		<tag k="place" v="locality" />
		<tag k="ssr:stedsnr" v="385171" />
	</node>
	<node id="-354819" lat="58.0777861089" lon="7.80715554736">
		<tag k="name" v="Høllebakken" />
		<tag k="natural" v="slope" />
		<tag k="place" v="locality" />
		<tag k="ssr:stedsnr" v="204164" />
	</node>
	<node id="-354319" lat="58.0598416631" lon="7.69743055793">
		<tag k="name" v="Askedalen" />
		<tag k="natural" v="valley" />
		<tag k="place" v="locality" />
		<tag k="ssr:stedsnr" v="385137" />
	</node>
	<node id="-354317" lat="58.0607888864" lon="7.67189444924">
		<tag k="fixme" v="consider natural=peak for the most distinct mountains in the district" />
		<tag k="name" v="Store Heståsen" />
		<tag k="natural" v="hill" />
		<tag k="place" v="locality" />
		<tag k="ssr:stedsnr" v="385127" />
	</node>
	<node id="-354315" lat="58.1217083363" lon="7.62735000085">
		<tag k="name" v="Folåsen" />
		<tag k="natural" v="hill" />
		<tag k="place" v="locality" />
		<tag k="ssr:stedsnr" v="385110" />
	</node>
	<node id="-355337" lat="58.0983777765" lon="7.79302222666">
		<tag k="fixme" v="consider natural=peak for the most distinct mountains in the district" />
		<tag k="name" v="Austervarden" />
		<tag k="natural" v="hill" />
		<tag k="place" v="locality" />
		<tag k="ssr:stedsnr" v="749160" />
	</node>
	<node id="-355336" lat="58.115863892" lon="7.76274166466">
		<tag k="name" v="Stidalsheia" />
		<tag k="natural" v="hill" />
		<tag k="place" v="locality" />
		<tag k="ssr:stedsnr" v="749133" />
	</node>
	<node id="-355335" lat="58.1120305536" lon="7.78504999237">
		<tag k="name" v="Kongens stue" />
		<tag k="place" v="locality" />
		<tag k="ssr:stedsnr" v="749131" />
	</node>
	<node id="-355334" lat="58.1174888898" lon="7.75878055513">
		<tag k="name" v="Stidalen" />
		<tag k="natural" v="valley" />
		<tag k="place" v="locality" />
		<tag k="ssr:stedsnr" v="749126" />
	</node>
	<node id="-355332" lat="58.1185555537" lon="7.65342500448">
		<tag k="name" v="Daleheia" />
		<tag k="natural" v="hill" />
		<tag k="place" v="locality" />
		<tag k="ssr:stedsnr" v="749077" />
	</node>
	<node id="-354771" lat="58.1204666693" lon="7.67044721838">
		<tag k="name" v="Dalen" />
		<tag k="natural" v="valley" />
		<tag k="place" v="locality" />
		<tag k="ssr:stedsnr" v="203051" />
	</node>
	<node id="-355330" lat="58.1211305513" lon="7.67031943856">
		<tag k="fixme" v="consider natural=peak for the most distinct mountains in the district" />
		<tag k="name" v="Åsen" />
		<tag k="natural" v="hill" />
		<tag k="place" v="locality" />
		<tag k="ssr:stedsnr" v="749034" />
	</node>
	<node id="-355329" lat="58.11121111" lon="7.64609444902">
		<tag k="name" v="Stordalen" />
		<tag k="natural" v="valley" />
		<tag k="place" v="locality" />
		<tag k="ssr:stedsnr" v="749031" />
	</node>
</osm>
