<?xml version="1.0" encoding="UTF-8"?>
<osm generator="osmapis" version="0.6">
	<node id="-353792" lat="58.1310583357" lon="7.63329722136">
		<tag k="name" v="Døblemyr" />
		<tag k="natural" v="wetland" />
		<tag k="ssr:stedsnr" v="324018" />
	</node>
	<node id="-354811" lat="58.0555694403" lon="7.69649721426">
		<tag k="name" v="Skarvemyra" />
		<tag k="natural" v="wetland" />
		<tag k="ssr:stedsnr" v="688134" />
	</node>
	<node id="-354809" lat="58.0578694484" lon="7.67835555853">
		<tag k="name" v="Krogvannsmyra" />
		<tag k="natural" v="wetland" />
		<tag k="ssr:stedsnr" v="688120" />
	</node>
	<node id="-354796" lat="58.1249333346" lon="7.64134999455">
		<tag k="name" v="Kartmyr" />
		<tag k="natural" v="wetland" />
		<tag k="ssr:stedsnr" v="688063" />
	</node>
	<node id="-354792" lat="58.0986999982" lon="7.65814166291">
		<tag k="name" v="Larsesmyr" />
		<tag k="natural" v="wetland" />
		<tag k="ssr:stedsnr" v="688010" />
	</node>
	<node id="-354273" lat="58.0569888845" lon="7.84115555032">
		<tag k="name" v="Døbla" />
		<tag k="natural" v="wetland" />
		<tag k="ssr:stedsnr" v="142975" />
	</node>
	<node id="-354254" lat="58.141344446" lon="7.71468610301">
		<tag k="name" v="Hanseslåta" />
		<tag k="natural" v="wetland" />
		<tag k="ssr:stedsnr" v="142247" />
	</node>
	<node id="-354253" lat="58.1417388894" lon="7.72001666011">
		<tag k="name" v="Breiungen" />
		<tag k="natural" v="wetland" />
		<tag k="ssr:stedsnr" v="142248" />
	</node>
	<node id="-354747" lat="58.0192138929" lon="7.73029999782">
		<tag k="name" v="Andersurene" />
		<tag k="natural" v="scree" />
		<tag k="ssr:stedsnr" v="627946" />
	</node>
	<node id="-354231" lat="58.1266055537" lon="7.71608888561">
		<tag k="name" v="Kartemyra" />
		<tag k="natural" v="wetland" />
		<tag k="ssr:stedsnr" v="142052" />
	</node>
	<node id="-354737" lat="58.0951611103" lon="7.81911944166">
		<tag k="name" v="Rohavneset" />
		<tag k="place" v="locality" />
		<tag k="ssr:stedsnr" v="627390" />
	</node>
	<node id="-354205" lat="58.1660611151" lon="7.7350416693">
		<tag k="name" v="Fossmyra" />
		<tag k="natural" v="wetland" />
		<tag k="ssr:stedsnr" v="82982" />
	</node>
	<node id="-354730" lat="58.1394305527" lon="7.70478332711">
		<tag k="name" v="Gunnarsmyra" />
		<tag k="natural" v="wetland" />
		<tag k="ssr:stedsnr" v="627249" />
	</node>
	<node id="-354726" lat="58.1203749967" lon="7.73468610626">
		<tag k="alt_name" v="Langemyra" />
		<tag k="name" v="Langemyr" />
		<tag k="natural" v="wetland" />
		<tag k="ssr:stedsnr" v="627196" />
	</node>
	<node id="-354724" lat="58.0943083298" lon="7.77054443974">
		<tag k="name" v="Mjåland" />
		<tag k="place" v="locality" />
		<tag k="ssr:stedsnr" v="627174" />
	</node>
	<node id="-354722" lat="58.1132333303" lon="7.74521388676">
		<tag k="name" v="Bjønnekjerret" />
		<tag k="natural" v="wetland" />
		<tag k="ssr:stedsnr" v="627143" />
	</node>
	<node id="-354208" lat="58.1542888905" lon="7.71979721863">
		<tag k="name" v="Knudsmyr" />
		<tag k="natural" v="wetland" />
		<tag k="ssr:stedsnr" v="82996" />
	</node>
	<node id="-354206" lat="58.1328277784" lon="7.61436667038">
		<tag k="name" v="Blømyr" />
		<tag k="natural" v="wetland" />
		<tag k="ssr:stedsnr" v="82990" />
	</node>
	<node id="-354717" lat="58.1197055598" lon="7.63195555853">
		<tag k="name" v="Storestedjan" />
		<tag k="natural" v="wetland" />
		<tag k="ssr:stedsnr" v="627095" />
	</node>
	<node id="-354713" lat="58.1128444402" lon="7.65359166249">
		<tag k="name" v="Øygardsmyra" />
		<tag k="natural" v="wetland" />
		<tag k="ssr:stedsnr" v="627045" />
	</node>
	<node id="-354190" lat="58.0953500023" lon="7.8495194368">
		<tag k="name" v="Byttingseng" />
		<tag k="place" v="locality" />
		<tag k="ssr:stedsnr" v="82301" />
	</node>
	<node id="-354693" lat="58.1059083302" lon="7.6637611106">
		<tag k="alt_name" v="Fidja" />
		<tag k="name" v="Fidje" />
		<tag k="place" v="locality" />
		<tag k="ssr:stedsnr" v="606821" />
	</node>
	<node id="-354180" lat="58.057227777" lon="7.66343888391">
		<tag k="name" v="Store Myrer" />
		<tag k="natural" v="wetland" />
		<tag k="ssr:stedsnr" v="82113" />
	</node>
	<node id="-354176" lat="58.1188305545" lon="7.64562777185">
		<tag k="name" v="Godemyra" />
		<tag k="natural" v="wetland" />
		<tag k="ssr:stedsnr" v="82086" />
	</node>
	<node id="-354175" lat="58.1235583334" lon="7.63136666372">
		<tag k="name" v="Trollmyr" />
		<tag k="natural" v="wetland" />
		<tag k="ssr:stedsnr" v="82077" />
	</node>
	<node id="-354170" lat="58.1343916637" lon="7.72882499248">
		<tag k="name" v="Raumyra" />
		<tag k="natural" v="wetland" />
		<tag k="ssr:stedsnr" v="82236" />
	</node>
	<node id="-354674" lat="58.1161277816" lon="7.61501667265">
		<tag k="name" v="Holsteinmyra" />
		<tag k="natural" v="wetland" />
		<tag k="ssr:stedsnr" v="567975" />
	</node>
	<node id="-354160" lat="58.1023388903" lon="7.6747499995">
		<tag k="name" v="Holmensmyra" />
		<tag k="natural" v="wetland" />
		<tag k="ssr:stedsnr" v="82013" />
	</node>
	<node id="-353930" lat="58.1049638926" lon="7.72612499834">
		<tag k="name" v="Eigeflåmyra" />
		<tag k="natural" v="wetland" />
		<tag k="ssr:stedsnr" v="385984" />
	</node>
	<node id="-354644" lat="58.1178861125" lon="7.68798611309">
		<tag k="name" v="Paulane" />
		<tag k="natural" v="wetland" />
		<tag k="ssr:stedsnr" v="567053" />
	</node>
	<node id="-354116" lat="58.146383336" lon="7.73633332954">
		<tag k="name" v="Svinsokskjerran" />
		<tag k="natural" v="wetland" />
		<tag k="ssr:stedsnr" v="21376" />
	</node>
	<node id="-354115" lat="58.1327055513" lon="7.73995832545">
		<tag k="name" v="Kringlemyra" />
		<tag k="natural" v="wetland" />
		<tag k="ssr:stedsnr" v="21377" />
	</node>
	<node id="-354114" lat="58.1421444476" lon="7.74476388986">
		<tag k="name" v="Røyrmyra" />
		<tag k="natural" v="wetland" />
		<tag k="ssr:stedsnr" v="21374" />
	</node>
	<node id="-354107" lat="58.132205555" lon="7.67935833973">
		<tag k="name" v="Trollmyra" />
		<tag k="natural" v="wetland" />
		<tag k="ssr:stedsnr" v="21264" />
	</node>
	<node id="-355129" lat="58.1367111125" lon="7.59101944123">
		<tag k="name" v="Ørknemyr" />
		<tag k="natural" v="wetland" />
		<tag k="ssr:stedsnr" v="931958" />
	</node>
	<node id="-354088" lat="58.1075277817" lon="7.65146111653">
		<tag k="name" v="Trymyra" />
		<tag k="natural" v="wetland" />
		<tag k="ssr:stedsnr" v="21111" />
	</node>
	<node id="-354598" lat="58.1671138906" lon="7.71916111358">
		<tag k="name" v="Ånesmyr" />
		<tag k="natural" v="wetland" />
		<tag k="ssr:stedsnr" v="506995" />
	</node>
	<node id="-355108" lat="58.0563916634" lon="7.67114167485">
		<tag k="name" v="Foltjønnmyra" />
		<tag k="natural" v="wetland" />
		<tag k="ssr:stedsnr" v="931099" />
	</node>
	<node id="-355107" lat="58.1136999975" lon="7.66750833185">
		<tag k="name" v="Helvetesmyra" />
		<tag k="natural" v="wetland" />
		<tag k="ssr:stedsnr" v="931088" />
	</node>
	<node id="-354080" lat="58.1061861148" lon="7.66782500793">
		<tag k="name" v="Jordet" />
		<tag k="place" v="locality" />
		<tag k="ssr:stedsnr" v="21016" />
	</node>
	<node id="-355102" lat="58.1170694424" lon="7.67898055813">
		<tag k="name" v="Breivigmyra" />
		<tag k="natural" v="wetland" />
		<tag k="ssr:stedsnr" v="931049" />
	</node>
	<node id="-354585" lat="58.1329222259" lon="7.73409445013">
		<tag k="name" v="Sirismyra" />
		<tag k="natural" v="wetland" />
		<tag k="ssr:stedsnr" v="506379" />
	</node>
	<node id="-354559" lat="58.1289250006" lon="7.65292777683">
		<tag k="name" v="Buhaven" />
		<tag k="natural" v="wetland" />
		<tag k="ssr:stedsnr" v="506031" />
	</node>
	<node id="-355070" lat="58.0738527774" lon="7.64074722981">
		<tag k="name" v="Stubstadmyra" />
		<tag k="natural" v="wetland" />
		<tag k="ssr:stedsnr" v="871925" />
	</node>
	<node id="-354556" lat="58.0937944454" lon="7.64892499347">
		<tag k="name" v="Røyremyr" />
		<tag k="natural" v="wetland" />
		<tag k="ssr:stedsnr" v="506006" />
	</node>
	<node id="-355065" lat="58.0658944488" lon="7.63639167276">
		<tag k="name" v="Persteinen" />
		<tag k="natural" v="stone" />
		<tag k="ssr:stedsnr" v="871894" />
	</node>
	<node id="-355049" lat="58.1432222196" lon="7.71751388168">
		<tag k="name" v="Bronemyra" />
		<tag k="natural" v="wetland" />
		<tag k="ssr:stedsnr" v="871201" />
	</node>
	<node id="-355032" lat="58.108244448" lon="7.67183055644">
		<tag k="name" v="Flormyr" />
		<tag k="natural" v="wetland" />
		<tag k="ssr:stedsnr" v="871081" />
	</node>
	<node id="-354489" lat="58.1172027781" lon="7.68546389543">
		<tag k="name" v="Djupmyra" />
		<tag k="natural" v="wetland" />
		<tag k="ssr:stedsnr" v="446072" />
	</node>
	<node id="-354484" lat="58.0933944412" lon="7.65276111108">
		<tag k="name" v="Hvermannsrau" />
		<tag k="place" v="locality" />
		<tag k="ssr:stedsnr" v="446012" />
	</node>
	<node id="-354981" lat="58.1310444422" lon="7.74979999959">
		<tag k="name" v="Tjådeland" />
		<tag k="place" v="locality" />
		<tag k="ssr:stedsnr" v="810345" />
	</node>
	<node id="-354672" lat="58.116674999" lon="7.58897500415">
		<tag k="name" v="Hellerdalsmyr" />
		<tag k="natural" v="wetland" />
		<tag k="ssr:stedsnr" v="567954" />
	</node>
	<node id="-354453" lat="58.1230861071" lon="7.61273332907">
		<tag k="name" v="Hepte" />
		<tag k="natural" v="wetland" />
		<tag k="ssr:stedsnr" v="264974" />
	</node>
	<node id="-354451" lat="58.113366668" lon="7.61385278611">
		<tag k="name" v="Fjordingsmyr" />
		<tag k="natural" v="wetland" />
		<tag k="ssr:stedsnr" v="264969" />
	</node>
	<node id="-354450" lat="58.144994445" lon="7.61568056214">
		<tag k="name" v="Gangsmyr" />
		<tag k="natural" v="wetland" />
		<tag k="ssr:stedsnr" v="264950" />
	</node>
	<node id="-354957" lat="58.1265499961" lon="7.64928610342">
		<tag k="name" v="Storemyr" />
		<tag k="natural" v="wetland" />
		<tag k="ssr:stedsnr" v="810083" />
	</node>
	<node id="-354954" lat="58.1485055526" lon="7.63327221444">
		<tag k="name" v="Stimyra" />
		<tag k="natural" v="wetland" />
		<tag k="ssr:stedsnr" v="810047" />
	</node>
	<node id="-353929" lat="58.1557333337" lon="7.73620000614">
		<tag k="name" v="Lonemyr" />
		<tag k="natural" v="wetland" />
		<tag k="ssr:stedsnr" v="385979" />
	</node>
	<node id="-353927" lat="58.1179972249" lon="7.61597777387">
		<tag k="name" v="Surtemyr" />
		<tag k="natural" v="wetland" />
		<tag k="ssr:stedsnr" v="385972" />
	</node>
	<node id="-354437" lat="58.1324361128" lon="7.77907221983">
		<tag k="name" v="Lindåskjerran" />
		<tag k="natural" v="wetland" />
		<tag k="ssr:stedsnr" v="264342" />
	</node>
	<node id="-354427" lat="58.1304277771" lon="7.72819166626">
		<tag k="name" v="Ormesland" />
		<tag k="natural" v="wetland" />
		<tag k="ssr:stedsnr" v="264232" />
	</node>
	<node id="-354426" lat="58.1429388855" lon="7.71299721621">
		<tag k="name" v="Kjellingen" />
		<tag k="natural" v="wetland" />
		<tag k="ssr:stedsnr" v="264225" />
	</node>
	<node id="-353913" lat="58.1352916709" lon="7.74021111146">
		<tag k="name" v="Hestemyra" />
		<tag k="natural" v="wetland" />
		<tag k="ssr:stedsnr" v="385357" />
	</node>
	<node id="-354420" lat="58.0970638869" lon="7.73451389428">
		<tag k="name" v="Stølen" />
		<tag k="natural" v="wetland" />
		<tag k="ssr:stedsnr" v="264154" />
	</node>
	<node id="-354412" lat="58.0923166709" lon="7.66818054857">
		<tag k="name" v="Ospedalsmyra" />
		<tag k="natural" v="wetland" />
		<tag k="ssr:stedsnr" v="264005" />
	</node>
	<node id="-353899" lat="58.1131499961" lon="7.68613610485">
		<tag k="name" v="Langemyra" />
		<tag k="natural" v="wetland" />
		<tag k="ssr:stedsnr" v="385077" />
	</node>
	<node id="-353892" lat="58.120899999" lon="7.67444166399">
		<tag k="name" v="Flormyra" />
		<tag k="natural" v="wetland" />
		<tag k="ssr:stedsnr" v="385051" />
	</node>
	<node id="-353887" lat="58.1401750035" lon="7.6432805583">
		<tag k="name" v="Nilsesmyr" />
		<tag k="natural" v="wetland" />
		<tag k="ssr:stedsnr" v="385031" />
	</node>
	<node id="-353886" lat="58.1334694433" lon="7.6279416592">
		<tag k="name" v="Byttingsmyr" />
		<tag k="natural" v="wetland" />
		<tag k="ssr:stedsnr" v="385029" />
	</node>
	<node id="-353885" lat="58.1304888866" lon="7.64307222479">
		<tag k="name" v="Skoddemyr" />
		<tag k="natural" v="wetland" />
		<tag k="ssr:stedsnr" v="385022" />
	</node>
	<node id="-353884" lat="58.101847225" lon="7.65501111216">
		<tag k="name" v="Stea" />
		<tag k="natural" v="wetland" />
		<tag k="ssr:stedsnr" v="385012" />
	</node>
	<node id="-354906" lat="58.0854583301" lon="7.91936110411">
		<tag k="name" v="Langemyr" />
		<tag k="natural" v="wetland" />
		<tag k="ssr:stedsnr" v="749904" />
	</node>
	<node id="-354901" lat="58.1318916639" lon="7.73647777666">
		<tag k="name" v="Hellersmyra" />
		<tag k="natural" v="wetland" />
		<tag k="ssr:stedsnr" v="749384" />
	</node>
	<node id="-354897" lat="58.114230555" lon="7.86518333879">
		<tag k="name" v="Kringlemyr" />
		<tag k="natural" v="wetland" />
		<tag k="ssr:stedsnr" v="749339" />
	</node>
	<node id="-354896" lat="58.142925004" lon="7.73069445122">
		<tag k="name" v="Knudsmyra" />
		<tag k="natural" v="wetland" />
		<tag k="ssr:stedsnr" v="749247" />
	</node>
	<node id="-354894" lat="58.1239083338" lon="7.78460833116">
		<tag k="name" v="Paulen" />
		<tag k="natural" v="wetland" />
		<tag k="ssr:stedsnr" v="749197" />
	</node>
	<node id="-355097" lat="58.0891388894" lon="7.65176667131">
		<tag k="name" v="Hestemyr" />
		<tag k="natural" v="wetland" />
		<tag k="ssr:stedsnr" v="931002" />
	</node>
	<node id="-354360" lat="58.069744447" lon="7.6379722246">
		<tag k="name" v="Røremyr" />
		<tag k="natural" v="wetland" />
		<tag k="ssr:stedsnr" v="203949" />
	</node>
	<node id="-354359" lat="58.0812055558" lon="7.66826944397">
		<tag k="name" v="Skredderkjerret" />
		<tag k="natural" v="wetland" />
		<tag k="ssr:stedsnr" v="203943" />
	</node>
	<node id="-353839" lat="58.1543194442" lon="7.70930832946">
		<tag k="name" v="Storemyr" />
		<tag k="natural" v="wetland" />
		<tag k="ssr:stedsnr" v="324996" />
	</node>
	<node id="-353838" lat="58.1307250027" lon="7.61724722851">
		<tag k="name" v="Storemyr" />
		<tag k="natural" v="wetland" />
		<tag k="ssr:stedsnr" v="324995" />
	</node>
	<node id="-354348" lat="58.0910833354" lon="7.80747499695">
		<tag k="name" v="Austermonen" />
		<tag k="place" v="locality" />
		<tag k="ssr:stedsnr" v="203393" />
	</node>
	<node id="-353835" lat="58.0699388901" lon="7.64583889372">
		<tag k="name" v="Kristiansmyra" />
		<tag k="natural" v="wetland" />
		<tag k="ssr:stedsnr" v="324935" />
	</node>
	<node id="-354345" lat="58.1351555573" lon="7.70159165883">
		<tag k="name" v="Ranestean" />
		<tag k="natural" v="wetland" />
		<tag k="ssr:stedsnr" v="203270" />
	</node>
	<node id="-353824" lat="58.0866749976" lon="7.79496388209">
		<tag k="name" v="Monen" />
		<tag k="place" v="locality" />
		<tag k="ssr:stedsnr" v="324374" />
	</node>
	<node id="-353823" lat="58.1488277784" lon="7.74223054764">
		<tag k="name" v="Kimestadmyra" />
		<tag k="natural" v="wetland" />
		<tag k="ssr:stedsnr" v="324372" />
	</node>
	<node id="-354330" lat="58.116669447" lon="7.70773055137">
		<tag k="name" v="Birkemyra" />
		<tag k="natural" v="wetland" />
		<tag k="ssr:stedsnr" v="203084" />
	</node>
	<node id="-354325" lat="58.1250694419" lon="7.69123333162">
		<tag k="name" v="Storemyra" />
		<tag k="natural" v="wetland" />
		<tag k="ssr:stedsnr" v="203053" />
	</node>
	<node id="-354835" lat="58.0873333323" lon="7.86274723066">
		<tag k="name" v="Bergemyr" />
		<tag k="natural" v="wetland" />
		<tag k="ssr:stedsnr" v="689333" />
	</node>
	<node id="-354312" lat="58.0481194489" lon="7.66784722334">
		<tag k="name" v="Storemyra" />
		<tag k="natural" v="wetland" />
		<tag k="ssr:stedsnr" v="203123" />
	</node>
	<node id="-354820" lat="58.0958194475" lon="7.74947778567">
		<tag k="name" v="Ormelia" />
		<tag k="place" v="locality" />
		<tag k="ssr:stedsnr" v="689166" />
	</node>
	<node id="-354818" lat="58.0970111092" lon="7.76452222576">
		<tag k="name" v="Halia" />
		<tag k="place" v="locality" />
		<tag k="ssr:stedsnr" v="689155" />
	</node>
</osm>
