<?xml version="1.0" encoding="UTF-8"?>
<osm generator="osmapis" version="0.6">
	<node id="-354303" lat="58.1070721449" lon="7.80621449023">
		<tag k="alt_name" v="Graskjerrvatnet;Graskjærvannet" />
		<tag k="name" v="Graskjærvann" />
		<tag k="natural" v="water" />
		<tag k="ssr:stedsnr" v="364149" />
	</node>
	<node id="-354639" lat="58.0765444444" lon="7.8444083375">
		<tag k="name" v="Eid" />
		<tag k="natural" v="strait" />
		<tag k="ssr:stedsnr" v="82331" />
	</node>
	<node id="-354812" lat="58.1311916712" lon="7.60889722477">
		<tag k="name" v="Pråmstø" />
		<tag k="natural" v="beach" />
		<tag k="ssr:stedsnr" v="203961" />
	</node>
	<node id="-355321" lat="58.1485499994" lon="7.64090000558">
		<tag k="alt_name" v="Tvitjørnene" />
		<tag k="name" v="Tvitjønn" />
		<tag k="natural" v="water" />
		<tag k="ssr:stedsnr" v="728753" />
	</node>
	<node id="-355317" lat="58.0794611071" lon="7.90680555235">
		<tag k="alt_name" v="Donevatnet" />
		<tag k="name" v="Donevannet" />
		<tag k="natural" v="water" />
		<tag k="ssr:stedsnr" v="728146" />
		<tag k="water" v="lake" />
	</node>
	<node id="-355316" lat="58.0954472194" lon="7.87454167088">
		<tag k="alt_name" v="Tretjerna;Tretjønnene" />
		<tag k="name" v="Tritjønnan" />
		<tag k="natural" v="water" />
		<tag k="ssr:stedsnr" v="728119" />
	</node>
	<node id="-354802" lat="58.0725277769" lon="7.67683332929">
		<tag k="name" v="Røsstadtjønna" />
		<tag k="natural" v="water" />
		<tag k="ssr:stedsnr" v="203920" />
	</node>
	<node id="-354899" lat="58.1189111104" lon="7.60857221469">
		<tag k="name" v="Stemtjønna" />
		<tag k="natural" v="water" />
		<tag k="ssr:stedsnr" v="264972" />
	</node>
	<node id="-354285" lat="58.0761527749" lon="7.74378333322">
		<tag k="name" v="Oftenestjønna" />
		<tag k="natural" v="water" />
		<tag k="ssr:stedsnr" v="325259" />
	</node>
	<node id="-354280" lat="58.1147250025" lon="7.60805277028">
		<tag k="name" v="Bervannstjønna" />
		<tag k="natural" v="water" />
		<tag k="ssr:stedsnr" v="324963" />
	</node>
	<node id="-354790" lat="58.13598056" lon="7.69423610715">
		<tag k="name" v="Igletjønna" />
		<tag k="natural" v="water" />
		<tag k="ssr:stedsnr" v="203266" />
	</node>
	<node id="-355300" lat="58.1516004759" lon="7.72643482932">
		<tag k="name" v="Kimestadvannet" />
		<tag k="natural" v="water" />
		<tag k="ssr:stedsnr" v="689995" />
		<tag k="water" v="lake" />
	</node>
	<node id="-354785" lat="58.0841083373" lon="7.78426943768">
		<tag k="name" v="Lundeelva" />
		<tag k="ssr:stedsnr" v="203187" />
		<tag k="waterway" v="river" />
	</node>
	<node id="-354784" lat="58.0996865321" lon="7.76739196252">
		<tag k="name" v="Tinntjønn" />
		<tag k="natural" v="water" />
		<tag k="ssr:stedsnr" v="203183" />
	</node>
	<node id="-354783" lat="58.1126361136" lon="7.81924444807">
		<tag k="name" v="Ytre Tingtjønn" />
		<tag k="natural" v="water" />
		<tag k="ssr:stedsnr" v="203170" />
	</node>
	<node id="-354780" lat="58.1258500024" lon="7.66295833142">
		<tag k="name" v="Buhavtangen" />
		<tag k="natural" v="cape" />
		<tag k="ssr:stedsnr" v="203094" />
	</node>
	<node id="-354265" lat="58.1441305545" lon="7.74258054903">
		<tag k="name" v="Repstadtjønna" />
		<tag k="natural" v="water" />
		<tag k="ssr:stedsnr" v="324365" />
	</node>
	<node id="-355287" lat="58.0791250013" lon="7.90448888892">
		<tag k="name" v="Donevannsholmen" />
		<tag k="place" v="islet" />
		<tag k="ssr:stedsnr" v="689871" />
	</node>
	<node id="-354262" lat="58.0948194424" lon="7.86828055122">
		<tag k="name" v="Stemtjønn" />
		<tag k="natural" v="water" />
		<tag k="ssr:stedsnr" v="324344" />
	</node>
	<node id="-354261" lat="58.1411388866" lon="7.68267221607">
		<tag k="name" v="Munningslaustjønna" />
		<tag k="natural" v="water" />
		<tag k="ssr:stedsnr" v="324244" />
	</node>
	<node id="-355279" lat="58.1303638925" lon="7.71066389053">
		<tag k="name" v="Aseltjønna" />
		<tag k="natural" v="water" />
		<tag k="ssr:stedsnr" v="689260" />
	</node>
	<node id="-354252" lat="58.1267083344" lon="7.7974250032">
		<tag k="name" v="Bladtjønna" />
		<tag k="natural" v="water" />
		<tag k="ssr:stedsnr" v="324145" />
	</node>
	<node id="-354251" lat="58.1201833344" lon="7.79383333483">
		<tag k="name" v="Igletjønna" />
		<tag k="natural" v="water" />
		<tag k="ssr:stedsnr" v="324143" />
	</node>
	<node id="-354250" lat="58.119500003" lon="7.75750000641">
		<tag k="name" v="Hestetjønna" />
		<tag k="natural" v="water" />
		<tag k="ssr:stedsnr" v="324138" />
	</node>
	<node id="-355270" lat="58.1264611154" lon="7.73994167011">
		<tag k="name" v="Bjønneskolttjønna" />
		<tag k="natural" v="water" />
		<tag k="ssr:stedsnr" v="689201" />
	</node>
	<node id="-354245" lat="58.0571194486" lon="7.6698111146">
		<tag k="name" v="Foltjønna" />
		<tag k="natural" v="water" />
		<tag k="ssr:stedsnr" v="324107" />
	</node>
	<node id="-354244" lat="58.0497138895" lon="7.65922500272">
		<tag k="name" v="Lunden" />
		<tag k="natural" v="cape" />
		<tag k="ssr:stedsnr" v="324098" />
	</node>
	<node id="-354243" lat="58.1128222179" lon="7.64940277068">
		<tag k="name" v="Skottjønn" />
		<tag k="natural" v="water" />
		<tag k="ssr:stedsnr" v="324076" />
	</node>
	<node id="-355263" lat="58.0841638903" lon="7.64907221788">
		<tag k="name" v="Neset" />
		<tag k="natural" v="cape" />
		<tag k="ssr:stedsnr" v="688945" />
	</node>
	<node id="-354238" lat="58.1249805569" lon="7.65771110571">
		<tag k="name" v="Regeviga" />
		<tag k="natural" v="bay" />
		<tag k="ssr:stedsnr" v="324063" />
	</node>
	<node id="-354749" lat="58.1330805569" lon="7.60546389353">
		<tag k="alt_name" v="Fagrevatnet" />
		<tag k="name" v="Fagrevann" />
		<tag k="natural" v="water" />
		<tag k="ssr:stedsnr" v="182738" />
	</node>
	<node id="-354748" lat="58.1383388873" lon="7.67479999872">
		<tag k="alt_name" v="Litlevatnet" />
		<tag k="name" v="Lillevannet" />
		<tag k="natural" v="water" />
		<tag k="ssr:stedsnr" v="182730" />
	</node>
	<node id="-355259" lat="58.0585388905" lon="7.68515278356">
		<tag k="name" v="Stemkilen" />
		<tag k="natural" v="bay" />
		<tag k="ssr:stedsnr" v="688139" />
	</node>
	<node id="-354234" lat="58.0994472205" lon="7.65350555777">
		<tag k="name" v="Småtjønnan" />
		<tag k="natural" v="water" />
		<tag k="ssr:stedsnr" v="324005" />
	</node>
	<node id="-354233" lat="58.0953333332" lon="7.66027222555">
		<tag k="name" v="Tvitjønnan" />
		<tag k="natural" v="water" />
		<tag k="ssr:stedsnr" v="324004" />
	</node>
	<node id="-354231" lat="58.122197218" lon="7.69428055447">
		<tag k="alt_name" v="Svartetjørna" />
		<tag k="name" v="Svartetjønna" />
		<tag k="natural" v="water" />
		<tag k="ssr:stedsnr" v="303863" />
	</node>
	<node id="-354230" lat="58.1294861091" lon="7.67171388958">
		<tag k="alt_name" v="Bastedalstjørnene" />
		<tag k="name" v="Bastedalstjønnene" />
		<tag k="natural" v="water" />
		<tag k="ssr:stedsnr" v="303854" />
	</node>
	<node id="-355251" lat="58.1184833348" lon="7.66479166319">
		<tag k="name" v="Midtvannsodden" />
		<tag k="natural" v="cape" />
		<tag k="ssr:stedsnr" v="688085" />
	</node>
	<node id="-354222" lat="58.0766749977" lon="7.83964443896">
		<tag k="alt_name" v="Kvernhusvatnet" />
		<tag k="name" v="Kvernhusvannet" />
		<tag k="natural" v="water" />
		<tag k="ssr:stedsnr" v="303178" />
	</node>
	<node id="-354219" lat="58.0835305557" lon="7.7570000023">
		<tag k="alt_name" v="Uffortjørn" />
		<tag k="name" v="Uffortjønna" />
		<tag k="natural" v="water" />
		<tag k="ssr:stedsnr" v="303149" />
	</node>
	<node id="-354218" lat="58.0847333339" lon="7.73845555315">
		<tag k="alt_name" v="Børåsvatna" />
		<tag k="name" v="Børåsvannet" />
		<tag k="natural" v="water" />
		<tag k="ssr:stedsnr" v="303147" />
	</node>
	<node id="-354512" lat="58.1269805513" lon="7.74969721526">
		<tag k="alt_name" v="Mevatnet" />
		<tag k="name" v="Mevann" />
		<tag k="natural" v="water" />
		<tag k="ssr:stedsnr" v="232" />
	</node>
	<node id="-355230" lat="58.143799998" lon="7.66476388817">
		<tag k="alt_name" v="Svartvatnet" />
		<tag k="name" v="Svartevannet" />
		<tag k="natural" v="water" />
		<tag k="ssr:stedsnr" v="667696" />
		<tag k="water" v="lake" />
	</node>
	<node id="-355227" lat="58.1152027813" lon="7.84767499956">
		<tag k="alt_name" v="Hatjørna;Øvre Lians-hatjønn" />
		<tag k="name" v="Øvre Lians Hatjønn" />
		<tag k="natural" v="water" />
		<tag k="ssr:stedsnr" v="667246" />
	</node>
	<node id="-354543" lat="58.0874611117" lon="7.75134444991">
		<tag k="name" v="Tvitjønn" />
		<tag k="natural" v="water" />
		<tag k="ssr:stedsnr" v="21190" />
	</node>
	<node id="-354704" lat="58.0953444484" lon="7.73524166008">
		<tag k="name" v="Lonetjønn" />
		<tag k="natural" v="water" />
		<tag k="ssr:stedsnr" v="142180" />
	</node>
	<node id="-354699" lat="58.1375527816" lon="7.66322222086">
		<tag k="name" v="Fjelltjønnane" />
		<tag k="natural" v="water" />
		<tag k="ssr:stedsnr" v="142237" />
	</node>
	<node id="-355208" lat="58.1292861104" lon="7.71674444195">
		<tag k="name" v="Mannemyrtjønna" />
		<tag k="natural" v="water" />
		<tag k="ssr:stedsnr" v="628229" />
	</node>
	<node id="-354693" lat="58.1097638871" lon="7.65141389436">
		<tag k="name" v="Øygardsbekken" />
		<tag k="ssr:stedsnr" v="142121" />
		<tag k="waterway" v="stream" />
	</node>
	<node id="-355204" lat="58.0981194445" lon="7.71554721964">
		<tag k="name" v="Dåsåna" />
		<tag k="ssr:stedsnr" v="627992" />
		<tag k="waterway" v="stream" />
	</node>
	<node id="-354690" lat="58.1406249968" lon="7.63759166971">
		<tag k="name" v="Dørvannet" />
		<tag k="natural" v="water" />
		<tag k="ssr:stedsnr" v="142036" />
	</node>
	<node id="-354685" lat="58.1274555585" lon="7.63161110835">
		<tag k="name" v="Rånsetjønnane" />
		<tag k="natural" v="water" />
		<tag k="ssr:stedsnr" v="142095" />
	</node>
	<node id="-355195" lat="58.0764111072" lon="7.64175278491">
		<tag k="name" v="Volletjønna" />
		<tag k="natural" v="water" />
		<tag k="ssr:stedsnr" v="627955" />
	</node>
	<node id="-355193" lat="58.0709166669" lon="7.71045278024">
		<tag k="name" v="Ospedalsbekken" />
		<tag k="ssr:stedsnr" v="627939" />
		<tag k="waterway" v="stream" />
	</node>
	<node id="-354675" lat="58.1284750006" lon="7.70035000834">
		<tag k="alt_name" v="Sjustøltjørna" />
		<tag k="name" v="Askedalstjønna" />
		<tag k="natural" v="water" />
		<tag k="ssr:stedsnr" v="121864" />
	</node>
	<node id="-354672" lat="58.1279166656" lon="7.73251388385">
		<tag k="alt_name" v="Homstjørn" />
		<tag k="name" v="Homstjønna" />
		<tag k="natural" v="water" />
		<tag k="ssr:stedsnr" v="121218" />
	</node>
	<node id="-355181" lat="58.075741667" lon="7.84454721823">
		<tag k="name" v="Kosvikstranda" />
		<tag k="natural" v="beach" />
		<tag k="ssr:stedsnr" v="627364" />
	</node>
	<node id="-355180" lat="58.0831472239" lon="7.86112777723">
		<tag k="name" v="Kjellevika" />
		<tag k="natural" v="bay" />
		<tag k="ssr:stedsnr" v="627362" />
	</node>
	<node id="-354656" lat="58.1427000012" lon="7.70061111541">
		<tag k="alt_name" v="Folåstjønn" />
		<tag k="name" v="Folåstjønna" />
		<tag k="natural" v="water" />
		<tag k="ssr:stedsnr" v="83062" />
	</node>
	<node id="-354654" lat="58.1320916636" lon="7.61722500188">
		<tag k="name" v="Sauetjønn" />
		<tag k="natural" v="water" />
		<tag k="ssr:stedsnr" v="82991" />
	</node>
	<node id="-354533" lat="58.1143777787" lon="7.6698194419">
		<tag k="name" v="Byttingsholmen" />
		<tag k="place" v="islet" />
		<tag k="ssr:stedsnr" v="21104" />
	</node>
	<node id="-354970" lat="58.1264249986" lon="7.6143916583">
		<tag k="name" v="Storebekken" />
		<tag k="ssr:stedsnr" v="446966" />
		<tag k="waterway" v="stream" />
	</node>
	<node id="-355162" lat="58.1240138858" lon="7.72718611393">
		<tag k="name" v="Åltjønna" />
		<tag k="natural" v="water" />
		<tag k="ssr:stedsnr" v="627065" />
	</node>
	<node id="-355044" lat="58.094630555" lon="7.70048610659">
		<tag k="name" v="Lindelitjønna" />
		<tag k="natural" v="water" />
		<tag k="ssr:stedsnr" v="506981" />
	</node>
	<node id="-355158" lat="58.1018666633" lon="7.66699721623">
		<tag k="name" v="Skottetangen" />
		<tag k="natural" v="cape" />
		<tag k="ssr:stedsnr" v="627011" />
	</node>
	<node id="-355156" lat="58.0887166711" lon="7.66661110753">
		<tag k="alt_name" v="Tvitjørna" />
		<tag k="name" v="Tvitjønna" />
		<tag k="natural" v="water" />
		<tag k="ssr:stedsnr" v="607799" />
	</node>
	<node id="-354643" lat="58.0643694406" lon="7.65652777314">
		<tag k="name" v="Trånetjønna" />
		<tag k="natural" v="water" />
		<tag k="ssr:stedsnr" v="82912" />
	</node>
	<node id="-355153" lat="58.062205558" lon="7.664725005">
		<tag k="alt_name" v="Trånevatnet;Trånevann" />
		<tag k="name" v="Trånevannet" />
		<tag k="natural" v="water" />
		<tag k="ssr:stedsnr" v="606881" />
		<tag k="water" v="lake" />
	</node>
	<node id="-354640" lat="58.147741671" lon="7.74948056319">
		<tag k="name" v="Byttingstjønna" />
		<tag k="natural" v="water" />
		<tag k="ssr:stedsnr" v="82342" />
	</node>
	<node id="-355151" lat="58.1380083317" lon="7.60824444939">
		<tag k="alt_name" v="Homevatnet" />
		<tag k="name" v="Homevann" />
		<tag k="natural" v="water" />
		<tag k="ssr:stedsnr" v="606739" />
	</node>
	<node id="-354635" lat="58.1182638932" lon="7.81247222228">
		<tag k="name" v="Lille Kabbertjønn" />
		<tag k="natural" v="water" />
		<tag k="ssr:stedsnr" v="82146" />
	</node>
	<node id="-354634" lat="58.108122219" lon="7.81088889493">
		<tag k="name" v="Kroktjønna" />
		<tag k="natural" v="water" />
		<tag k="ssr:stedsnr" v="82144" />
	</node>
	<node id="-355144" lat="58.1229856265" lon="7.80666802742">
		<tag k="alt_name" v="Vranglevatnet" />
		<tag k="name" v="Vranglevannet" />
		<tag k="natural" v="water" />
		<tag k="ssr:stedsnr" v="606224" />
	</node>
	<node id="-354626" lat="58.1158416627" lon="7.66273332864">
		<tag k="name" v="Lillebekken" />
		<tag k="ssr:stedsnr" v="82093" />
		<tag k="waterway" v="stream" />
	</node>
	<node id="-354621" lat="58.1168861151" lon="7.7148166618">
		<tag k="name" v="Paddetjønna" />
		<tag k="natural" v="water" />
		<tag k="ssr:stedsnr" v="82047" />
	</node>
	<node id="-354321" lat="58.1216722236" lon="7.82658332692">
		<tag k="name" v="Tretjønnan" />
		<tag k="natural" v="water" />
		<tag k="ssr:stedsnr" v="385158" />
	</node>
	<node id="-354616" lat="58.1396277767" lon="7.71036667082">
		<tag k="name" v="Kyraue" />
		<tag k="natural" v="water" />
		<tag k="ssr:stedsnr" v="82231" />
	</node>
	<node id="-355123" lat="58.1531894145" lon="7.74915862184">
		<tag k="name" v="Kimestadstøa" />
		<tag k="natural" v="bay" />
		<tag k="ssr:stedsnr" v="567989" />
	</node>
	<node id="-354610" lat="58.1257388881" lon="7.69983333373">
		<tag k="name" v="Kattåstjønna" />
		<tag k="natural" v="water" />
		<tag k="ssr:stedsnr" v="82033" />
	</node>
	<node id="-354919" lat="58.111541669" lon="7.74984721506">
		<tag k="alt_name" v="Repstadvatnet;Repstadvann" />
		<tag k="name" v="Repstadvannet" />
		<tag k="natural" v="water" />
		<tag k="ssr:stedsnr" v="425236" />
		<tag k="water" v="lake" />
	</node>
	<node id="-355114" lat="58.128933333" lon="7.78213056144">
		<tag k="alt_name" v="Lindåstjønna" />
		<tag k="name" v="Lindåstjønn" />
		<tag k="natural" v="water" />
		<tag k="ssr:stedsnr" v="567346" />
	</node>
	<node id="-354599" lat="58.1029472195" lon="7.80631389606">
		<tag k="alt_name" v="Stemvatnet;Stemmevann" />
		<tag k="name" v="Stemvann" />
		<tag k="natural" v="water" />
		<tag k="ssr:stedsnr" v="61730" />
	</node>
	<node id="-355110" lat="58.1032444467" lon="7.86765833089">
		<tag k="name" v="Hermannstjønn" />
		<tag k="natural" v="water" />
		<tag k="ssr:stedsnr" v="567314" />
	</node>
	<node id="-355107" lat="58.1260361101" lon="7.76478888526">
		<tag k="name" v="Fossetjønna" />
		<tag k="natural" v="water" />
		<tag k="ssr:stedsnr" v="567198" />
	</node>
	<node id="-354594" lat="58.1026722211" lon="7.87360000848">
		<tag k="alt_name" v="Kjosetjørn" />
		<tag k="name" v="Kjosetjønn" />
		<tag k="natural" v="water" />
		<tag k="ssr:stedsnr" v="61122" />
	</node>
	<node id="-355105" lat="58.1131750013" lon="7.80382222849">
		<tag k="name" v="Åsebekken" />
		<tag k="ssr:stedsnr" v="567154" />
		<tag k="waterway" v="stream" />
	</node>
	<node id="-355103" lat="58.1145805559" lon="7.81723888406">
		<tag k="name" v="Tingtjønna" />
		<tag k="natural" v="water" />
		<tag k="ssr:stedsnr" v="567145" />
	</node>
	<node id="-355102" lat="58.1106749999" lon="7.83385555143">
		<tag k="name" v="Songdalselva" />
		<tag k="ssr:stedsnr" v="567138" />
		<tag k="waterway" v="river" />
	</node>
	<node id="-355101" lat="58.1083305513" lon="7.77160834139">
		<tag k="name" v="Surtetjønna" />
		<tag k="natural" v="water" />
		<tag k="ssr:stedsnr" v="567129" />
	</node>
	<node id="-354586" lat="58.1342694418" lon="7.73268056359">
		<tag k="name" v="Svartetjønna" />
		<tag k="natural" v="water" />
		<tag k="ssr:stedsnr" v="22223" />
	</node>
	<node id="-355096" lat="58.1252388881" lon="7.66062222097">
		<tag k="name" v="Bessesodde" />
		<tag k="natural" v="cape" />
		<tag k="ssr:stedsnr" v="567066" />
	</node>
	<node id="-355095" lat="58.1219999982" lon="7.6591000003">
		<tag k="name" v="Solbergsstøa" />
		<tag k="natural" v="beach" />
		<tag k="ssr:stedsnr" v="567061" />
	</node>
	<node id="-355094" lat="58.1243638887" lon="7.64639166984">
		<tag k="name" v="Lillevann" />
		<tag k="natural" v="water" />
		<tag k="ssr:stedsnr" v="567057" />
		<tag k="water" v="lake" />
	</node>
	<node id="-355089" lat="58.1263083365" lon="7.7069166589">
		<tag k="name" v="Hestetjønna" />
		<tag k="natural" v="water" />
		<tag k="ssr:stedsnr" v="567036" />
	</node>
	<node id="-355088" lat="58.1367472253" lon="7.64324999704">
		<tag k="name" v="Stemtjønn" />
		<tag k="natural" v="water" />
		<tag k="ssr:stedsnr" v="567021" />
	</node>
	<node id="-355087" lat="58.1006944482" lon="7.66821667041">
		<tag k="name" v="Skotteholmen" />
		<tag k="place" v="islet" />
		<tag k="ssr:stedsnr" v="567012" />
	</node>
	<node id="-355084" lat="58.0328141216" lon="7.66486568008">
		<tag k="name" v="Ronevannet" />
		<tag k="natural" v="water" />
		<tag k="ssr:stedsnr" v="546948" />
		<tag k="water" v="lake" />
	</node>
	<node id="-355083" lat="58.0845750024" lon="7.64945556104">
		<tag k="alt_name" v="Frøyslandsvatnet;Vestre Frøyslandsvann" />
		<tag k="name" v="Vestre Frøyslandsvannet" />
		<tag k="natural" v="water" />
		<tag k="ssr:stedsnr" v="546922" />
	</node>
	<node id="-355031" lat="58.1343527755" lon="7.75349722288">
		<tag k="name" v="Fossen" />
		<tag k="ssr:stedsnr" v="506376" />
		<tag k="waterway" v="dam" />
	</node>
	<node id="-354560" lat="58.0847499999" lon="7.85355277472">
		<tag k="name" v="Rona" />
		<tag k="natural" v="water" />
		<tag k="ssr:stedsnr" v="21360" />
		<tag k="water" v="lake" />
	</node>
	<node id="-354559" lat="58.1133111123" lon="7.84807221434">
		<tag k="alt_name" v="Nedre Lians-hatjønn" />
		<tag k="name" v="Nedre Lians Hatjønn" />
		<tag k="natural" v="water" />
		<tag k="ssr:stedsnr" v="21356" />
	</node>
	<node id="-355070" lat="58.0805583291" lon="7.86985276971">
		<tag k="alt_name" v="Feivatnet" />
		<tag k="name" v="Feievann" />
		<tag k="natural" v="water" />
		<tag k="ssr:stedsnr" v="546170" />
	</node>
	<node id="-354557" lat="58.1125972207" lon="7.88430277904">
		<tag k="name" v="Danmarksholmen" />
		<tag k="place" v="islet" />
		<tag k="ssr:stedsnr" v="21345" />
	</node>
	<node id="-355577" lat="58.1390805552" lon="7.60232777891">
		<tag k="name" v="Brulineset" />
		<tag k="natural" v="cape" />
		<tag k="ssr:stedsnr" v="931957" />
	</node>
	<node id="-355575" lat="58.1392250032" lon="7.60587500354">
		<tag k="name" v="Kjeholmen" />
		<tag k="place" v="islet" />
		<tag k="ssr:stedsnr" v="931956" />
	</node>
	<node id="-354549" lat="58.1227499963" lon="7.75993056312">
		<tag k="alt_name" v="Håvann nedre" />
		<tag k="name" v="Nedre Håvann" />
		<tag k="natural" v="water" />
		<tag k="ssr:stedsnr" v="21226" />
		<tag k="water" v="lake" />
	</node>
	<node id="-354773" lat="58.1078750038" lon="7.64435277565">
		<tag k="name" v="Moskelbekken" />
		<tag k="ssr:stedsnr" v="203056" />
		<tag k="waterway" v="stream" />
	</node>
	<node id="-355568" lat="58.0766500021" lon="7.88841388645">
		<tag k="name" v="Kilen" />
		<tag k="natural" v="bay" />
		<tag k="ssr:stedsnr" v="931361" />
	</node>
	<node id="-355567" lat="58.081452779" lon="7.85448333843">
		<tag k="name" v="Østre Tjønna" />
		<tag k="natural" v="water" />
		<tag k="ssr:stedsnr" v="931359" />
	</node>
	<node id="-354541" lat="58.1180138872" lon="7.74664999796">
		<tag k="name" v="Sandvika" />
		<tag k="natural" v="bay" />
		<tag k="ssr:stedsnr" v="21166" />
	</node>
	<node id="-355050" lat="58.1310722225" lon="7.73316666899">
		<tag k="name" v="Øygardstjønna" />
		<tag k="natural" v="water" />
		<tag k="ssr:stedsnr" v="507225" />
	</node>
	<node id="-355560" lat="58.1275888864" lon="7.81651388095">
		<tag k="name" v="Løåstjønna" />
		<tag k="natural" v="water" />
		<tag k="ssr:stedsnr" v="931137" />
	</node>
	<node id="-355559" lat="58.0540611082" lon="7.68383610658">
		<tag k="name" v="Stemtjønna" />
		<tag k="natural" v="water" />
		<tag k="ssr:stedsnr" v="931133" />
	</node>
	<node id="-354534" lat="58.1125472179" lon="7.67286665918">
		<tag k="name" v="Sundet" />
		<tag k="natural" v="strait" />
		<tag k="ssr:stedsnr" v="21108" />
	</node>
	<node id="-355557" lat="58.0606305578" lon="7.661600005">
		<tag k="name" v="Lauvdaltjønna" />
		<tag k="natural" v="water" />
		<tag k="ssr:stedsnr" v="931112" />
	</node>
	<node id="-355556" lat="58.0519361152" lon="7.66624166539">
		<tag k="name" v="Vestre Dvalåsvann" />
		<tag k="natural" v="water" />
		<tag k="ssr:stedsnr" v="931102" />
	</node>
	<node id="-354531" lat="58.1229861097" lon="7.7096472161">
		<tag k="name" v="Austre Sjustøltjønn" />
		<tag k="natural" v="water" />
		<tag k="ssr:stedsnr" v="21047" />
	</node>
	<node id="-355042" lat="58.1552305568" lon="7.74533056291">
		<tag k="name" v="Knudslone" />
		<tag k="natural" v="water" />
		<tag k="ssr:stedsnr" v="506974" />
	</node>
	<node id="-355553" lat="58.1161916633" lon="7.63459999639">
		<tag k="name" v="Østre Løynstjønn" />
		<tag k="natural" v="water" />
		<tag k="ssr:stedsnr" v="931079" />
	</node>
	<node id="-355039" lat="58.1472694456" lon="7.61975554872">
		<tag k="name" v="Igletjønn" />
		<tag k="natural" v="water" />
		<tag k="ssr:stedsnr" v="506948" />
	</node>
	<node id="-355550" lat="58.1258944484" lon="7.67060000374">
		<tag k="name" v="Spreglebekken" />
		<tag k="ssr:stedsnr" v="931048" />
		<tag k="waterway" v="stream" />
	</node>
	<node id="-354525" lat="58.0911083299" lon="7.67139444747">
		<tag k="name" v="Skiftebekken" />
		<tag k="ssr:stedsnr" v="21003" />
		<tag k="waterway" v="stream" />
	</node>
	<node id="-355546" lat="58.0872944407" lon="7.67261944421">
		<tag k="name" v="Kinnringstjønna" />
		<tag k="natural" v="water" />
		<tag k="ssr:stedsnr" v="931028" />
	</node>
	<node id="-354767" lat="58.1312722256" lon="7.63857222673">
		<tag k="name" v="Skråvannet" />
		<tag k="natural" v="water" />
		<tag k="ssr:stedsnr" v="203025" />
	</node>
	<node id="-355543" lat="58.1445972196" lon="7.72337500054">
		<tag k="name" v="Fisketjønna" />
		<tag k="natural" v="water" />
		<tag k="ssr:stedsnr" v="931240" />
	</node>
	<node id="-354681" lat="58.1210138889" lon="7.72577777261">
		<tag k="name" v="Årdalstjønna" />
		<tag k="natural" v="water" />
		<tag k="ssr:stedsnr" v="142071" />
	</node>
	<node id="-355027" lat="58.0817361082" lon="7.84928611485">
		<tag k="name" v="Vestre Tjønna" />
		<tag k="natural" v="water" />
		<tag k="ssr:stedsnr" v="506357" />
	</node>
	<node id="-354514" lat="58.1185361079" lon="7.81064722162">
		<tag k="alt_name" v="Kobbartjørn" />
		<tag k="name" v="Kabbertjønna" />
		<tag k="natural" v="water" />
		<tag k="ssr:stedsnr" v="247" />
	</node>
	<node id="-354513" lat="58.1293305555" lon="7.80825000279">
		<tag k="alt_name" v="Lyngristjørn" />
		<tag k="name" v="Lyngristjønn" />
		<tag k="natural" v="water" />
		<tag k="ssr:stedsnr" v="236" />
	</node>
	<node id="-355024" lat="58.1370166701" lon="7.7058500024">
		<tag k="name" v="Kyrauebekken" />
		<tag k="ssr:stedsnr" v="506248" />
		<tag k="waterway" v="stream" />
	</node>
	<node id="-355562" lat="58.1168111112" lon="7.80054166896">
		<tag k="name" v="Turntjønna" />
		<tag k="natural" v="water" />
		<tag k="ssr:stedsnr" v="931166" />
	</node>
	<node id="-355533" lat="58.0935388853" lon="7.9031166693">
		<tag k="alt_name" v="Terjevatnet" />
		<tag k="name" v="Terjevann" />
		<tag k="natural" v="water" />
		<tag k="ssr:stedsnr" v="910165" />
	</node>
	<node id="-355106" lat="58.1105972183" lon="7.73973333641">
		<tag k="name" v="Tvitjønnan" />
		<tag k="natural" v="water" />
		<tag k="ssr:stedsnr" v="567192" />
	</node>
	<node id="-355014" lat="58.0592722207" lon="7.68491110723">
		<tag k="name" v="Krogvannet" />
		<tag k="natural" v="water" />
		<tag k="ssr:stedsnr" v="506137" />
		<tag k="water" v="lake" />
	</node>
	<node id="-354593" lat="58.1105694427" lon="7.83384167027">
		<tag k="name" v="Søgneelva" />
		<tag k="ssr:stedsnr" v="61115" />
		<tag k="waterway" v="river" />
	</node>
	<node id="-355522" lat="58.085257545" lon="7.8572701988">
		<tag k="alt_name" v="Bergsvatnet" />
		<tag k="name" v="Bersvannet" />
		<tag k="natural" v="water" />
		<tag k="ssr:stedsnr" v="873168" />
	</node>
	<node id="-355531" lat="58.0994055511" lon="7.83804166138">
		<tag k="alt_name" v="Tjomsevatnet" />
		<tag k="name" v="Tjomsevannet" />
		<tag k="natural" v="water" />
		<tag k="ssr:stedsnr" v="910143" />
	</node>
	<node id="-355520" lat="58.0986638852" lon="7.67987500829">
		<tag k="name" v="Holmenfossen" />
		<tag k="natural" v="waterfall" />
		<tag k="ssr:stedsnr" v="871985" />
	</node>
	<node id="-355007" lat="58.1094722189" lon="7.64308889614">
		<tag k="name" v="Trybekken" />
		<tag k="ssr:stedsnr" v="506048" />
		<tag k="waterway" v="stream" />
	</node>
	<node id="-355518" lat="58.1248611144" lon="7.59883610309">
		<tag k="name" v="Varmetjønn" />
		<tag k="natural" v="water" />
		<tag k="ssr:stedsnr" v="871947" />
	</node>
	<node id="-354933" lat="58.12740556" lon="7.68203889027">
		<tag k="name" v="Lometjønna" />
		<tag k="natural" v="water" />
		<tag k="ssr:stedsnr" v="446055" />
	</node>
	<node id="-355000" lat="58.1160972246" lon="7.69350277305">
		<tag k="alt_name" v="Ospelundstjørna" />
		<tag k="name" v="Ospelundstjønna" />
		<tag k="natural" v="water" />
		<tag k="ssr:stedsnr" v="485837" />
	</node>
	<node id="-354334" lat="58.1229305515" lon="7.67138332538">
		<tag k="name" v="Kvernhusbekken" />
		<tag k="ssr:stedsnr" v="385050" />
		<tag k="waterway" v="stream" />
	</node>
	<node id="-354994" lat="58.1307972257" lon="7.79534443859">
		<tag k="alt_name" v="Lindåsvatnet;Lindåsvann" />
		<tag k="name" v="Lindåsvannet" />
		<tag k="natural" v="water" />
		<tag k="ssr:stedsnr" v="485170" />
	</node>
	<node id="-355505" lat="58.0761000044" lon="7.86963332503">
		<tag k="name" v="Ytre Kilen" />
		<tag k="natural" v="water" />
		<tag k="ssr:stedsnr" v="871327" />
		<tag k="water" v="lake" />
	</node>
	<node id="-355504" lat="58.1138805515" lon="7.85634721478">
		<tag k="name" v="Igletjønna" />
		<tag k="natural" v="water" />
		<tag k="ssr:stedsnr" v="871319" />
	</node>
	<node id="-354991" lat="58.0792388901" lon="7.64131111186">
		<tag k="alt_name" v="Gåsvatna" />
		<tag k="name" v="Gåsevann" />
		<tag k="natural" v="water" />
		<tag k="ssr:stedsnr" v="485921" />
	</node>
	<node id="-354538" lat="58.0559194484" lon="7.66114167071">
		<tag k="name" v="Stemmen" />
		<tag k="natural" v="water" />
		<tag k="ssr:stedsnr" v="21129" />
	</node>
	<node id="-355501" lat="58.1021166679" lon="7.89393889033">
		<tag k="name" v="Bukkeholmen" />
		<tag k="place" v="island" />
		<tag k="ssr:stedsnr" v="871305" />
	</node>
	<node id="-354947" lat="58.094219444" lon="7.78638054817">
		<tag k="name" v="Føssa" />
		<tag k="ssr:stedsnr" v="446193" />
		<tag k="waterway" v="stream" />
	</node>
	<node id="-354974" lat="58.1514166691" lon="7.7106750026">
		<tag k="name" v="Bollen" />
		<tag k="natural" v="water" />
		<tag k="ssr:stedsnr" v="446999" />
	</node>
	<node id="-354973" lat="58.1519166626" lon="7.70678888186">
		<tag k="name" v="Hestelona" />
		<tag k="natural" v="water" />
		<tag k="ssr:stedsnr" v="446985" />
	</node>
	<node id="-354971" lat="58.1245416711" lon="7.60734722026">
		<tag k="name" v="Trolltjønn" />
		<tag k="natural" v="water" />
		<tag k="ssr:stedsnr" v="446968" />
	</node>
	<node id="-355482" lat="58.1230277764" lon="7.79959167197">
		<tag k="name" v="Kringletjønna" />
		<tag k="natural" v="water" />
		<tag k="ssr:stedsnr" v="871121" />
	</node>
	<node id="-354969" lat="58.1151638901" lon="7.60264999712">
		<tag k="name" v="Omberen" />
		<tag k="natural" v="water" />
		<tag k="ssr:stedsnr" v="446949" />
	</node>
	<node id="-355480" lat="58.0547638932" lon="7.69575000412">
		<tag k="name" v="Ålotjønna" />
		<tag k="natural" v="water" />
		<tag k="ssr:stedsnr" v="871105" />
	</node>
	<node id="-355477" lat="58.12359444" lon="7.70496110284">
		<tag k="name" v="Vestre Sjustøltjønn" />
		<tag k="natural" v="water" />
		<tag k="ssr:stedsnr" v="871034" />
	</node>
	<node id="-355476" lat="58.1450444403" lon="7.62706110484">
		<tag k="name" v="Poddetjønna" />
		<tag k="natural" v="water" />
		<tag k="ssr:stedsnr" v="871031" />
	</node>
	<node id="-355475" lat="58.1490472218" lon="7.64113332923">
		<tag k="name" v="Tvitjønn" />
		<tag k="natural" v="water" />
		<tag k="ssr:stedsnr" v="871029" />
	</node>
	<node id="-355010" lat="58.1227944417" lon="7.66097777342">
		<tag k="name" v="Kreglingholmen" />
		<tag k="place" v="islet" />
		<tag k="ssr:stedsnr" v="506073" />
	</node>
	<node id="-354952" lat="58.098619443" lon="7.84742777718">
		<tag k="name" v="Maurtjønn" />
		<tag k="natural" v="water" />
		<tag k="ssr:stedsnr" v="446340" />
	</node>
	<node id="-354951" lat="58.1317805599" lon="7.6956833337">
		<tag k="name" v="Spregla" />
		<tag k="ssr:stedsnr" v="446271" />
		<tag k="waterway" v="stream" />
	</node>
	<node id="-355459" lat="58.0876972237" lon="7.88507777926">
		<tag k="alt_name" v="Mjåvatnet" />
		<tag k="name" v="Mjåvann" />
		<tag k="natural" v="water" />
		<tag k="ssr:stedsnr" v="849178" />
	</node>
	<node id="-354946" lat="58.1170222222" lon="7.80411388351">
		<tag k="name" v="Kloppetjønna" />
		<tag k="natural" v="water" />
		<tag k="ssr:stedsnr" v="446184" />
	</node>
	<node id="-354945" lat="58.1136222251" lon="7.7986750045">
		<tag k="name" v="Svalås-tjønna" />
		<tag k="natural" v="water" />
		<tag k="ssr:stedsnr" v="446183" />
	</node>
	<node id="-354944" lat="58.0985333371" lon="7.75514722699">
		<tag k="name" v="Tverråna" />
		<tag k="ssr:stedsnr" v="446178" />
		<tag k="waterway" v="river" />
	</node>
	<node id="-354943" lat="58.1243333339" lon="7.79728055558">
		<tag k="name" v="Rotetjønna" />
		<tag k="natural" v="water" />
		<tag k="ssr:stedsnr" v="446170" />
	</node>
	<node id="-355349" lat="58.1292833294" lon="7.7656916661">
		<tag k="alt_name" v="Ramsdalstjønna" />
		<tag k="name" v="Ramsdalstjønn" />
		<tag k="natural" v="water" />
		<tag k="ssr:stedsnr" v="749388" />
	</node>
	<node id="-354935" lat="58.1132583363" lon="7.68350278087">
		<tag k="name" v="Kyrøye" />
		<tag k="natural" v="water" />
		<tag k="ssr:stedsnr" v="446073" />
	</node>
	<node id="-355445" lat="58.1364138888" lon="7.72106389092">
		<tag k="name" v="Årstølvannet" />
		<tag k="natural" v="water" />
		<tag k="ssr:stedsnr" v="811223" />
		<tag k="water" v="lake" />
	</node>
	<node id="-354932" lat="58.0932527808" lon="7.65410277594">
		<tag k="name" v="Holbekstjønn" />
		<tag k="natural" v="water" />
		<tag k="ssr:stedsnr" v="446014" />
	</node>
	<node id="-354750" lat="58.1029888871" lon="7.68111943842">
		<tag k="alt_name" v="Kleivsetelva" />
		<tag k="name" v="Holmensbekken" />
		<tag k="ssr:stedsnr" v="182815" />
		<tag k="waterway" v="stream" />
	</node>
	<node id="-355439" lat="58.1518055516" lon="7.63546944168">
		<tag k="name" v="Lille Glomsvann" />
		<tag k="natural" v="water" />
		<tag k="ssr:stedsnr" v="810995" />
		<tag k="water" v="lake" />
	</node>
	<node id="-354926" lat="58.0636305544" lon="7.63960276992">
		<tag k="alt_name" v="Stetjørna" />
		<tag k="name" v="Stetjønn" />
		<tag k="natural" v="water" />
		<tag k="ssr:stedsnr" v="425886" />
	</node>
	<node id="-354921" lat="58.1177888918" lon="7.81812221478">
		<tag k="alt_name" v="Stemvatnet" />
		<tag k="name" v="Stemvannet" />
		<tag k="natural" v="water" />
		<tag k="ssr:stedsnr" v="425243" />
	</node>
	<node id="-354920" lat="58.1162190244" lon="7.76592766242">
		<tag k="alt_name" v="Hellerstjørn" />
		<tag k="name" v="Stitjønna" />
		<tag k="natural" v="water" />
		<tag k="ssr:stedsnr" v="425238" />
	</node>
	<node id="-355013" lat="58.1172666679" lon="7.62959166326">
		<tag k="name" v="Vestre Løynstjønn" />
		<tag k="natural" v="water" />
		<tag k="ssr:stedsnr" v="506095" />
	</node>
	<node id="-354918" lat="58.1271416693" lon="7.76017500268">
		<tag k="alt_name" v="Håvatnet;Håvann øvre" />
		<tag k="name" v="Øvre Håvann" />
		<tag k="natural" v="water" />
		<tag k="ssr:stedsnr" v="425225" />
		<tag k="water" v="lake" />
	</node>
	<node id="-355025" lat="58.1111138866" lon="7.86046110333">
		<tag k="name" v="Hundetjønna" />
		<tag k="natural" v="water" />
		<tag k="ssr:stedsnr" v="506337" />
	</node>
	<node id="-354914" lat="58.0898222202" lon="7.76198888557">
		<tag k="alt_name" v="Kjellandsvatnet" />
		<tag k="name" v="Kjellandsvannet" />
		<tag k="natural" v="water" />
		<tag k="ssr:stedsnr" v="425136" />
	</node>
	<node id="-355423" lat="58.0957861076" lon="7.86670277815">
		<tag k="name" v="Kopptjønn" />
		<tag k="natural" v="water" />
		<tag k="ssr:stedsnr" v="810329" />
	</node>
	<node id="-354917" lat="58.1222833319" lon="7.81763333012">
		<tag k="alt_name" v="Mjunevatnet" />
		<tag k="name" v="Mjunevannet" />
		<tag k="natural" v="water" />
		<tag k="ssr:stedsnr" v="425224" />
	</node>
	<node id="-355419" lat="58.1228305576" lon="7.75397500029">
		<tag k="name" v="Gåsetjønna" />
		<tag k="natural" v="water" />
		<tag k="ssr:stedsnr" v="810205" />
	</node>
	<node id="-354575" lat="58.1398499965" lon="7.61576389035">
		<tag k="name" v="Oksetjønn" />
		<tag k="natural" v="water" />
		<tag k="ssr:stedsnr" v="21942" />
	</node>
	<node id="-354904" lat="58.1622555532" lon="7.71839722366">
		<tag k="name" v="Sandvann" />
		<tag k="natural" v="water" />
		<tag k="ssr:stedsnr" v="264999" />
		<tag k="water" v="lake" />
	</node>
	<node id="-354903" lat="58.1599250006" lon="7.7362277743">
		<tag k="name" v="Skuggedalsbekken" />
		<tag k="ssr:stedsnr" v="264985" />
		<tag k="waterway" v="stream" />
	</node>
	<node id="-355413" lat="58.1285277749" lon="7.79950832768">
		<tag k="name" v="Lomstjønnan" />
		<tag k="natural" v="water" />
		<tag k="ssr:stedsnr" v="810167" />
	</node>
	<node id="-355411" lat="58.1192000046" lon="7.78850833811">
		<tag k="name" v="Surtevannet" />
		<tag k="natural" v="water" />
		<tag k="ssr:stedsnr" v="810154" />
		<tag k="water" v="lake" />
	</node>
	<node id="-354718" lat="58.1173499993" lon="7.60813611731">
		<tag k="name" v="Mellomtjønna" />
		<tag k="natural" v="water" />
		<tag k="ssr:stedsnr" v="142968" />
	</node>
	<node id="-354896" lat="58.1428944458" lon="7.61510833645">
		<tag k="name" v="Gangsmyrtjønnan" />
		<tag k="natural" v="water" />
		<tag k="ssr:stedsnr" v="264949" />
	</node>
	<node id="-354894" lat="58.0823222185" lon="7.65265000568">
		<tag k="name" v="Yddervannet" />
		<tag k="natural" v="water" />
		<tag k="ssr:stedsnr" v="264926" />
		<tag k="water" v="lake" />
	</node>
	<node id="-354893" lat="58.0844055592" lon="7.66856389432">
		<tag k="alt_name" v="Østre Frøyslandsvann" />
		<tag k="name" v="Østre Frøyslandsvannet" />
		<tag k="natural" v="water" />
		<tag k="ssr:stedsnr" v="264922" />
		<tag k="water" v="lake" />
	</node>
	<node id="-354892" lat="58.0845722217" lon="7.66759721591">
		<tag k="name" v="Holmen" />
		<tag k="place" v="islet" />
		<tag k="ssr:stedsnr" v="264923" />
	</node>
	<node id="-354376" lat="58.1382222252" lon="7.72408611667">
		<tag k="name" v="Årstøltjønna" />
		<tag k="natural" v="water" />
		<tag k="ssr:stedsnr" v="386233" />
	</node>
	<node id="-354572" lat="58.0719027771" lon="7.63779443968">
		<tag k="name" v="Fugleheitjønn" />
		<tag k="natural" v="water" />
		<tag k="ssr:stedsnr" v="21932" />
	</node>
	<node id="-355398" lat="58.1476722255" lon="7.64800000147">
		<tag k="name" v="Godåstjønn" />
		<tag k="natural" v="water" />
		<tag k="ssr:stedsnr" v="810036" />
	</node>
	<node id="-354885" lat="58.0769083315" lon="7.87860277675">
		<tag k="name" v="Indre Kilen" />
		<tag k="natural" v="water" />
		<tag k="ssr:stedsnr" v="264349" />
		<tag k="water" v="lake" />
	</node>
	<node id="-355393" lat="58.1194250008" lon="7.66520000144">
		<tag k="alt_name" v="Kleivsetvatnet" />
		<tag k="name" v="Kleivsetvannet" />
		<tag k="natural" v="water" />
		<tag k="ssr:stedsnr" v="789848" />
	</node>
	<node id="-354368" lat="58.1154305539" lon="7.5946888841">
		<tag k="name" v="Krogevannet" />
		<tag k="natural" v="water" />
		<tag k="ssr:stedsnr" v="385944" />
		<tag k="water" v="lake" />
	</node>
	<node id="-354879" lat="58.1083055545" lon="7.89518889125">
		<tag k="name" v="Blåbærholmen" />
		<tag k="place" v="islet" />
		<tag k="ssr:stedsnr" v="264321" />
	</node>
	<node id="-354878" lat="58.1116500018" lon="7.87400554705">
		<tag k="name" v="Gillertjønn" />
		<tag k="natural" v="water" />
		<tag k="ssr:stedsnr" v="264320" />
	</node>
	<node id="-354364" lat="58.076461111" lon="7.71525000066">
		<tag k="name" v="Liantjønna" />
		<tag k="natural" v="water" />
		<tag k="ssr:stedsnr" v="385918" />
	</node>
	<node id="-355260" lat="58.0523194459" lon="7.68555832851">
		<tag k="name" v="Groheitjønn" />
		<tag k="natural" v="water" />
		<tag k="ssr:stedsnr" v="688141" />
	</node>
	<node id="-354911" lat="58.1099333318" lon="7.8894944472">
		<tag k="alt_name" v="Rossevatnet;Rossevann" />
		<tag k="name" v="Rossevannet" />
		<tag k="natural" v="water" />
		<tag k="ssr:stedsnr" v="425121" />
		<tag k="water" v="lake" />
	</node>
	<node id="-355383" lat="58.0890361146" lon="7.89551943933">
		<tag k="alt_name" v="Tabuvatnet;Tolbuvann" />
		<tag k="name" v="Talbuvannet" />
		<tag k="natural" v="water" />
		<tag k="ssr:stedsnr" v="788163" />
	</node>
	<node id="-354357" lat="58.0914416628" lon="7.79596111969">
		<tag k="name" v="Eiketjønna" />
		<tag k="natural" v="water" />
		<tag k="ssr:stedsnr" v="385361" />
	</node>
	<node id="-354353" lat="58.0736416648" lon="7.88340555888">
		<tag k="name" v="Kileneset" />
		<tag k="natural" v="cape" />
		<tag k="ssr:stedsnr" v="385341" />
	</node>
	<node id="-354351" lat="58.1334833346" lon="7.69752499913">
		<tag k="name" v="Lillevannet" />
		<tag k="natural" v="water" />
		<tag k="ssr:stedsnr" v="385249" />
		<tag k="water" v="lake" />
	</node>
	<node id="-355421" lat="58.1294666633" lon="7.68416110963">
		<tag k="name" v="Tjæretjønna" />
		<tag k="natural" v="water" />
		<tag k="ssr:stedsnr" v="810241" />
	</node>
	<node id="-354860" lat="58.134774997" lon="7.62847778171">
		<tag k="name" v="Svartetjønn" />
		<tag k="natural" v="water" />
		<tag k="ssr:stedsnr" v="264025" />
	</node>
	<node id="-354347" lat="58.1245527815" lon="7.76070833227">
		<tag k="name" v="Trollneset" />
		<tag k="natural" v="cape" />
		<tag k="ssr:stedsnr" v="385207" />
	</node>
	<node id="-354858" lat="58.09249444" lon="7.67588055715">
		<tag k="name" v="Gildertangen" />
		<tag k="natural" v="cape" />
		<tag k="ssr:stedsnr" v="264002" />
	</node>
	<node id="-355367" lat="58.1475499972" lon="7.71929444194">
		<tag k="name" v="Bånetjønna" />
		<tag k="natural" v="water" />
		<tag k="ssr:stedsnr" v="750198" />
	</node>
	<node id="-354341" lat="58.1123111125" lon="7.71010832528">
		<tag k="name" v="Eintjønna" />
		<tag k="natural" v="water" />
		<tag k="ssr:stedsnr" v="385071" />
	</node>
	<node id="-354852" lat="58.1348055538" lon="7.68844999732">
		<tag k="alt_name" v="Svemmelandsvatnet" />
		<tag k="name" v="Svemlandsvannet" />
		<tag k="natural" v="water" />
		<tag k="ssr:stedsnr" v="243853" />
	</node>
	<node id="-354337" lat="58.1168166639" lon="7.67052499621">
		<tag k="name" v="Breiviga" />
		<tag k="natural" v="bay" />
		<tag k="ssr:stedsnr" v="385056" />
	</node>
	<node id="-355360" lat="58.1344222199" lon="7.62386111678">
		<tag k="name" v="Gulltjønna" />
		<tag k="natural" v="water" />
		<tag k="ssr:stedsnr" v="749997" />
	</node>
	<node id="-355358" lat="58.1292083305" lon="7.60594165969">
		<tag k="name" v="Tjønnan" />
		<tag k="natural" v="water" />
		<tag k="ssr:stedsnr" v="749971" />
	</node>
	<node id="-354333" lat="58.1255194426" lon="7.73034444803">
		<tag k="name" v="Midt-tjønna" />
		<tag k="natural" v="water" />
		<tag k="ssr:stedsnr" v="385048" />
	</node>
	<node id="-354842" lat="58.1144305536" lon="7.81436388869">
		<tag k="alt_name" v="Langvatnet" />
		<tag k="name" v="Langevannet" />
		<tag k="natural" v="water" />
		<tag k="ssr:stedsnr" v="243225" />
	</node>
	<node id="-355352" lat="58.0881999988" lon="7.91937777486">
		<tag k="name" v="Tjuviktjønna" />
		<tag k="natural" v="water" />
		<tag k="ssr:stedsnr" v="749892" />
	</node>
	<node id="-354326" lat="58.0885000022" lon="7.64750833052">
		<tag k="name" v="Nøkkheitjønn" />
		<tag k="natural" v="water" />
		<tag k="ssr:stedsnr" v="385006" />
	</node>
	<node id="-354393" lat="58.1376854158" lon="7.77288456732">
		<tag k="name" v="Bjortjønn" />
		<tag k="natural" v="water" />
		<tag k="ssr:stedsnr" v="766727" />
	</node>
	<node id="-355502" lat="58.0892083352" lon="7.86500278179">
		<tag k="name" v="Timtjønn" />
		<tag k="natural" v="water" />
		<tag k="ssr:stedsnr" v="871307" />
	</node>
	<node id="-355345" lat="58.09645278" lon="7.89488610678">
		<tag k="name" v="Bjortjønn" />
		<tag k="natural" v="water" />
		<tag k="ssr:stedsnr" v="749351" />
	</node>
	<node id="-354320" lat="58.1163416699" lon="7.78036388662">
		<tag k="name" v="Sisseltjønna" />
		<tag k="natural" v="water" />
		<tag k="ssr:stedsnr" v="385153" />
	</node>
	<node id="-354316" lat="58.0528027743" lon="7.67203610735">
		<tag k="name" v="Dvalåsvannet" />
		<tag k="natural" v="water" />
		<tag k="ssr:stedsnr" v="385121" />
		<tag k="water" v="lake" />
	</node>
	<node id="-354314" lat="58.1165722221" lon="7.63775833611">
		<tag k="name" v="Skiftingstjønn" />
		<tag k="natural" v="water" />
		<tag k="ssr:stedsnr" v="385107" />
	</node>
	<node id="-354823" lat="58.1065833375" lon="7.64227500795">
		<tag k="name" v="Moskeltjønna" />
		<tag k="natural" v="water" />
		<tag k="ssr:stedsnr" v="205954" />
	</node>
	<node id="-354309" lat="58.1331111107" lon="7.66064443852">
		<tag k="alt_name" v="Bivatnet" />
		<tag k="name" v="Bivannet" />
		<tag k="natural" v="water" />
		<tag k="ssr:stedsnr" v="364779" />
	</node>
	<node id="-355331" lat="58.1107555563" lon="7.71198055371">
		<tag k="name" v="Tvitjønn" />
		<tag k="natural" v="water" />
		<tag k="ssr:stedsnr" v="749047" />
	</node>
</osm>
