<?xml version="1.0" encoding="UTF-8"?>
<osm version="0.6" generator="osmapis">
	<node lat="64.73514722017639" lon="12.828194442228032" id="-87278">
		<tag k="name" v="Vestmoen" />
		<tag k="ssr:date" v="2018-01-09" />
		<tag k="ssr:gruppe" v="veg" />
		<tag k="ssr:hovedgruppe" v="infrastruktur" />
		<tag k="ssr:stedsnr" v="970087" />
		<tag k="ssr:type" v="adressetilleggsnavn" />
	</node>
	<node lat="64.92597500378133" lon="13.159319439016691" id="-87387">
		<tag k="name" v="Namsskogan kommune" />
		<tag k="ssr:date" v="2018-01-09" />
		<tag k="ssr:gruppe" v="administrativeIndelinger" />
		<tag k="ssr:hovedgruppe" v="offentligAdministrasjon" />
		<tag k="ssr:stedsnr" v="86302" />
		<tag k="ssr:type" v="kommune" />
	</node>
	<node lat="65.07009166570573" lon="13.32779166909615" id="-87546">
		<tag k="name" v="Kulverten" />
		<tag k="ssr:date" v="2018-01-09" />
		<tag k="ssr:gruppe" v="bane" />
		<tag k="ssr:hovedgruppe" v="infrastruktur" />
		<tag k="ssr:stedsnr" v="227367" />
		<tag k="ssr:type" v="banestrekning" />
	</node>
	<node lat="64.69569926303768" lon="12.801700459116628" id="-87800">
		<tag k="name" v="Bekkadalsveien" />
		<tag k="ssr:date" v="2019-05-31" />
		<tag k="ssr:gruppe" v="veg" />
		<tag k="ssr:hovedgruppe" v="infrastruktur" />
		<tag k="ssr:stedsnr" v="525489" />
		<tag k="ssr:type" v="adressenavn" />
	</node>
	<node lat="64.69365009196143" lon="12.759456740641152" id="-87942">
		<tag k="name" v="GrÃ¸nndalsbruveien" />
		<tag k="ssr:date" v="2019-05-31" />
		<tag k="ssr:gruppe" v="veg" />
		<tag k="ssr:hovedgruppe" v="infrastruktur" />
		<tag k="ssr:stedsnr" v="646495" />
		<tag k="ssr:type" v="adressenavn" />
	</node>
	<node lat="64.86728055537799" lon="13.228197216872791" id="-88082">
		<tag k="name" v="Gammelvegen" />
		<tag k="ssr:date" v="2018-01-09" />
		<tag k="ssr:gruppe" v="veg" />
		<tag k="ssr:hovedgruppe" v="infrastruktur" />
		<tag k="ssr:stedsnr" v="776398" />
		<tag k="ssr:type" v="vegstrekning" />
	</node>
</osm>
