<?xml version="1.0" encoding="UTF-8"?>
<osm version="0.6" generator="osmapis">
	<node lat="59.005138887380895" lon="6.071377783627179" id="-39">
		<tag k="bridge" v="yes" />
		<tag k="layer" v="1" />
		<tag k="name" v="Notavika" />
		<tag k="ssr:stedsnr" v="46714" />
	</node>
	<node lat="59.06317777559703" lon="5.945547230987596" id="-277">
		<tag k="bridge" v="yes" />
		<tag k="layer" v="1" />
		<tag k="name" v="Kvam" />
		<tag k="ssr:stedsnr" v="411641" />
	</node>
	<node lat="58.937138889196554" lon="6.038150008462051" id="-317">
		<tag k="bridge" v="yes" />
		<tag k="layer" v="1" />
		<tag k="name" v="Lerang" />
		<tag k="ssr:stedsnr" v="471676" />
	</node>
	<node lat="59.01774999962584" lon="6.047641674982203" id="-342">
		<tag k="bridge" v="yes" />
		<tag k="layer" v="1" />
		<tag k="name" v="Tungland" />
		<tag k="ssr:stedsnr" v="532681" />
	</node>
	<node lat="59.02598888717711" lon="6.037933327881513" id="-368">
		<tag k="bridge" v="yes" />
		<tag k="layer" v="1" />
		<tag k="name" v="Fiskåna" />
		<tag k="ssr:stedsnr" v="592708" />
	</node>
	<node lat="58.99746111538591" lon="6.081325000323369" id="-420">
		<tag k="bridge" v="yes" />
		<tag k="layer" v="1" />
		<tag k="name" v="Prekestolvegen" />
		<tag k="ssr:stedsnr" v="896720" />
	</node>
	<node lat="59.02381111284458" lon="6.007897218914344" id="-421">
		<tag k="bridge" v="yes" />
		<tag k="layer" v="1" />
		<tag k="name" v="Barka" />
		<tag k="ssr:stedsnr" v="896722" />
	</node>
	<node lat="58.980880559788005" lon="6.14166666265611" id="-448">
		<tag k="highway" v="path" />
		<tag k="name" v="Litlalivegen" />
		<tag k="ssr:stedsnr" v="903735" />
	</node>
	<node lat="58.905927601930856" lon="6.075366313163969" id="-613">
		<tag k="amenity" v="ferry_terminal" />
		<tag k="name" v="Oanes ferjekai" />
		<tag k="ssr:stedsnr" v="978590" />
	</node>
	<node lat="58.97331944356054" lon="5.997036112775234" id="-800">
		<tag k="bridge" v="yes" />
		<tag k="layer" v="1" />
		<tag k="name" v="Idsal" />
		<tag k="ssr:stedsnr" v="289719" />
	</node>
	<node lat="59.114777779195144" lon="5.974430563610671" id="-801">
		<tag k="bridge" v="yes" />
		<tag k="layer" v="1" />
		<tag k="name" v="Vervik" />
		<tag k="ssr:stedsnr" v="289747" />
	</node>
	<node lat="58.98445277950387" lon="6.090755556907469" id="-958">
		<tag k="bridge" v="yes" />
		<tag k="layer" v="1" />
		<tag k="name" v="Botne" />
		<tag k="ssr:stedsnr" v="532659" />
	</node>
	<node lat="59.06774721811655" lon="6.0197555636787845" id="-1013">
		<tag k="bridge" v="yes" />
		<tag k="layer" v="1" />
		<tag k="loc_name" v="Vaulabrua" />
		<tag k="name" v="Vauleli" />
		<tag k="ssr:stedsnr" v="592735" />
	</node>
	<node lat="58.97823888941049" lon="5.969827785944613" id="-1119">
		<tag k="bridge" v="yes" />
		<tag k="layer" v="1" />
		<tag k="name" v="Idsø" />
		<tag k="ssr:stedsnr" v="714638" />
	</node>
	<node lat="59.024380551385406" lon="6.070486107711982" id="-1120">
		<tag k="bridge" v="yes" />
		<tag k="layer" v="1" />
		<tag k="name" v="Nedre" />
		<tag k="ssr:stedsnr" v="714640" />
	</node>
	<node lat="59.06510833259476" lon="5.90826388741215" id="-1121">
		<tag k="amenity" v="ferry_terminal" />
		<tag k="name" v="Tau ferjekai" />
		<tag k="ssr:stedsnr" v="714641" />
	</node>
	<node lat="59.031041668608644" lon="6.092294439684828" id="-1122">
		<tag k="bridge" v="yes" />
		<tag k="layer" v="1" />
		<tag k="name" v="Dalen" />
		<tag k="ssr:stedsnr" v="714642" />
	</node>
	<node lat="59.001152775145556" lon="6.106502778396216" id="-1123">
		<tag k="bridge" v="yes" />
		<tag k="layer" v="1" />
		<tag k="name" v="Haugen" />
		<tag k="ssr:stedsnr" v="714645" />
	</node>
	<node lat="58.99821389262164" lon="6.098744444734238" id="-1129">
		<tag k="junction" v="yes" />
		<tag k="name" v="Skjeringen" />
		<tag k="place" v="locality" />
		<tag k="ssr:stedsnr" v="721346" />
	</node>
	<node lat="59.01421666419906" lon="6.044655550642471" id="-1133">
		<tag k="fixme" v="verify maritime location" />
		<tag k="mooring" v="yes" />
		<tag k="name" v="Madlinstøa" />
		<tag k="place" v="locality" />
		<tag k="ssr:stedsnr" v="722055" />
	</node>
	<node lat="59.12969444602811" lon="6.097644448224251" id="-1172">
		<tag k="bridge" v="yes" />
		<tag k="layer" v="1" />
		<tag k="name" v="Døvik" />
		<tag k="ssr:stedsnr" v="775646" />
	</node>
	<node lat="59.06099444050459" lon="5.924955548116732" id="-1268">
		<tag k="bridge" v="yes" />
		<tag k="layer" v="1" />
		<tag k="name" v="Tau" />
		<tag k="ssr:stedsnr" v="957648" />
	</node>
	<node lat="59.07421388466993" lon="6.03282499828774" id="-1269">
		<tag k="bridge" v="yes" />
		<tag k="layer" v="1" />
		<tag k="name" v="Holtåna" />
		<tag k="ssr:stedsnr" v="957653" />
	</node>
	<node lat="58.96912530699212" lon="6.157557997240537" id="-1284">
		<tag k="man_made" v="quay" />
		<tag k="name" v="Revså kai" />
		<tag k="place" v="locality" />
		<tag k="ssr:stedsnr" v="973943" />
	</node>
</osm>
