<?xml version="1.0" encoding="UTF-8"?>
<osm generator="osmapis" version="0.6">
	<node id="-410110" lat="58.9849777762" lon="5.93490834176">
		<tag k="name" v="Gulltjørna" />
		<tag k="natural" v="water" />
		<tag k="ssr:stedsnr" v="447088" />
	</node>
	<node id="-409685" lat="59.0517694428" lon="6.08078055301">
		<tag k="alt_name" v="Regnavatnet" />
		<tag k="name" v="Regnarvatnet" />
		<tag k="natural" v="water" />
		<tag k="ssr:stedsnr" v="365648" />
		<tag k="water" v="lake" />
	</node>
	<node id="-410616" lat="59.0771527815" lon="5.93200278256">
		<tag k="name" v="Rongetjørna" />
		<tag k="natural" v="water" />
		<tag k="ssr:stedsnr" v="912693" />
	</node>
	<node id="-409590" lat="59.073291664" lon="6.01055000891">
		<tag k="name" v="Kattatjørna" />
		<tag k="natural" v="water" />
		<tag k="ssr:stedsnr" v="297896" />
	</node>
	<node id="-409589" lat="59.0649138931" lon="6.02647777591">
		<tag k="name" v="Trommebekken" />
		<tag k="ssr:stedsnr" v="297894" />
		<tag k="waterway" v="stream" />
	</node>
	<node id="-409585" lat="59.0576638858" lon="6.0581055514">
		<tag k="name" v="Turre Bekken" />
		<tag k="ssr:stedsnr" v="297869" />
		<tag k="waterway" v="stream" />
	</node>
	<node id="-409768" lat="59.0383694466" lon="6.08139444533">
		<tag k="alt_name" v="Skartjørna" />
		<tag k="name" v="Skardtjørna" />
		<tag k="natural" v="water" />
		<tag k="ssr:stedsnr" v="1334" />
	</node>
	<node id="-409580" lat="59.1090055524" lon="6.02903333495">
		<tag k="name" v="Gjeidaskjeråna" />
		<tag k="ssr:stedsnr" v="297776" />
		<tag k="waterway" v="stream" />
	</node>
	<node id="-409682" lat="59.0267027755" lon="6.12566110485">
		<tag k="alt_name" v="Tintursvatnet" />
		<tag k="name" v="Tintusvatnet" />
		<tag k="natural" v="water" />
		<tag k="ssr:stedsnr" v="365380" />
		<tag k="water" v="lake" />
	</node>
	<node id="-409767" lat="59.0512194408" lon="6.1354583343">
		<tag k="alt_name" v="Småsillbekken" />
		<tag k="name" v="Småsilbekken" />
		<tag k="ssr:stedsnr" v="1323" />
		<tag k="waterway" v="stream" />
	</node>
	<node id="-410594" lat="59.1016749983" lon="6.06119999471">
		<tag k="alt_name" v="Buå" />
		<tag k="name" v="Buåstjørna" />
		<tag k="natural" v="water" />
		<tag k="ssr:stedsnr" v="911743" />
	</node>
	<node id="-410593" lat="59.09593889" lon="5.97843333962">
		<tag k="name" v="Vostervatnet" />
		<tag k="natural" v="water" />
		<tag k="ssr:stedsnr" v="911736" />
		<tag k="water" v="lake" />
	</node>
	<node id="-410591" lat="59.0418694482" lon="5.95980832911">
		<tag k="name" v="Nordlandsvatnet" />
		<tag k="natural" v="water" />
		<tag k="ssr:stedsnr" v="911644" />
		<tag k="water" v="lake" />
	</node>
	<node id="-410590" lat="59.0528500016" lon="6.05820277372">
		<tag k="name" v="Regnåna" />
		<tag k="ssr:stedsnr" v="911642" />
		<tag k="waterway" v="stream" />
	</node>
	<node id="-410073" lat="59.1144789091" lon="6.15062642987">
		<tag k="name" v="Paddetjørnene" />
		<tag k="natural" v="water" />
		<tag k="ssr:stedsnr" v="419647" />
		<tag k="water" v="lake" />
	</node>
	<node id="-410063" lat="59.1282000733" lon="6.12743838412">
		<tag k="name" v="Vestra Sjuratjørn" />
		<tag k="natural" v="water" />
		<tag k="ssr:stedsnr" v="418556" />
	</node>
	<node id="-410061" lat="58.9695777818" lon="6.02411944798">
		<tag k="name" v="Stemmen" />
		<tag k="natural" v="water" />
		<tag k="ssr:stedsnr" v="418277" />
	</node>
	<node id="-410566" lat="59.0143333292" lon="6.15167778046">
		<tag k="name" v="Åstøltjørna" />
		<tag k="natural" v="water" />
		<tag k="ssr:stedsnr" v="904230" />
		<tag k="water" v="lake" />
	</node>
	<node id="-410017" lat="59.0356055572" lon="6.20844999552">
		<tag k="alt_name" v="Grydeholtjørna" />
		<tag k="name" v="Gryteholstjørna" />
		<tag k="natural" v="water" />
		<tag k="ssr:stedsnr" v="244345" />
	</node>
	<node id="-410563" lat="58.9976472186" lon="6.09593611888">
		<tag k="name" v="Jøssongåna" />
		<tag k="ssr:stedsnr" v="903352" />
		<tag k="waterway" v="river" />
	</node>
	<node id="-410048" lat="59.0621972258" lon="5.93908610749">
		<tag k="name" v="Åa" />
		<tag k="natural" v="water" />
		<tag k="ssr:stedsnr" v="268851" />
		<tag k="water" v="lake" />
	</node>
	<node id="-410551" lat="59.0685416687" lon="6.18365833903">
		<tag k="name" v="Grimsliåna" />
		<tag k="ssr:stedsnr" v="852630" />
		<tag k="waterway" v="river" />
	</node>
	<node id="-410550" lat="59.056836107" lon="6.1350583415">
		<tag k="name" v="Tunglandsneset" />
		<tag k="natural" v="cape" />
		<tag k="ssr:stedsnr" v="852615" />
	</node>
	<node id="-410036" lat="58.9695750015" lon="6.12011943571">
		<tag k="name" v="Ulvaskogvatna" />
		<tag k="natural" v="water" />
		<tag k="ssr:stedsnr" v="244814" />
		<tag k="water" v="lake" />
	</node>
	<node id="-410029" lat="59.0748138893" lon="5.94479999638">
		<tag k="alt_name" v="Jubatjørna" />
		<tag k="name" v="Djubatjørna" />
		<tag k="natural" v="water" />
		<tag k="ssr:stedsnr" v="244706" />
	</node>
	<node id="-410538" lat="59.0989305518" lon="6.13760555682">
		<tag k="name" v="Melkeråna" />
		<tag k="ssr:stedsnr" v="851714" />
		<tag k="waterway" v="stream" />
	</node>
	<node id="-410025" lat="59.0615750016" lon="5.98190277202">
		<tag k="name" v="Bjørkeneset" />
		<tag k="natural" v="cape" />
		<tag k="ssr:stedsnr" v="244687" />
	</node>
	<node id="-410024" lat="59.0713027761" lon="6.0469194481">
		<tag k="alt_name" v="Flonen" />
		<tag k="name" v="Floen" />
		<tag k="place" v="locality" />
		<tag k="ssr:stedsnr" v="244686" />
	</node>
	<node id="-410531" lat="59.0789694453" lon="6.09962777398">
		<tag k="alt_name" v="Strannå" />
		<tag k="name" v="Stranda" />
		<tag k="natural" v="beach" />
		<tag k="ssr:stedsnr" v="851660" />
	</node>
	<node id="-410530" lat="59.0780804046" lon="6.04334455752">
		<tag k="alt_name" v="Eretjere" />
		<tag k="name" v="Erekjeret" />
		<tag k="natural" v="water" />
		<tag k="ssr:stedsnr" v="851656" />
		<tag k="water" v="pond" />
	</node>
	<node id="-410529" lat="59.0620916682" lon="5.91917777944">
		<tag k="name" v="Krossvatnet" />
		<tag k="natural" v="water" />
		<tag k="ssr:stedsnr" v="851652" />
		<tag k="water" v="lake" />
	</node>
	<node id="-410016" lat="59.0347166639" lon="6.15081388159">
		<tag k="name" v="Rovaneset" />
		<tag k="natural" v="cape" />
		<tag k="ssr:stedsnr" v="244344" />
	</node>
	<node id="-410015" lat="59.0357527817" lon="6.01005834152">
		<tag k="name" v="Fjellsåna" />
		<tag k="ssr:stedsnr" v="244321" />
		<tag k="waterway" v="stream" />
	</node>
	<node id="-410524" lat="59.1255694453" lon="6.09584166326">
		<tag k="alt_name" v="Døvigåna" />
		<tag k="name" v="Døvikåna" />
		<tag k="ssr:stedsnr" v="851479" />
		<tag k="waterway" v="river" />
	</node>
	<node id="-410523" lat="59.1210166647" lon="6.11777777089">
		<tag k="name" v="Paddevatnet" />
		<tag k="natural" v="water" />
		<tag k="ssr:stedsnr" v="851478" />
		<tag k="water" v="lake" />
	</node>
	<node id="-410520" lat="59.0335337333" lon="6.16101277831">
		<tag k="name" v="Svortingsvatnet" />
		<tag k="natural" v="water" />
		<tag k="ssr:stedsnr" v="851327" />
		<tag k="water" v="lake" />
	</node>
	<node id="-410005" lat="59.0991583303" lon="6.00096111839">
		<tag k="name" v="Sauaneset" />
		<tag k="natural" v="cape" />
		<tag k="ssr:stedsnr" v="237684" />
	</node>
	<node id="-410002" lat="59.0982166683" lon="6.04926944313">
		<tag k="name" v="Krotjørna" />
		<tag k="natural" v="water" />
		<tag k="ssr:stedsnr" v="237672" />
	</node>
	<node id="-410513" lat="58.9949194455" lon="6.13132499674">
		<tag k="name" v="Rindatjørna" />
		<tag k="natural" v="water" />
		<tag k="ssr:stedsnr" v="850846" />
	</node>
	<node id="-410512" lat="58.9879744696" lon="6.05046467469">
		<tag k="name" v="Svinesvatnet" />
		<tag k="natural" v="water" />
		<tag k="ssr:stedsnr" v="848248" />
		<tag k="water" v="lake" />
	</node>
	<node id="-409994" lat="59.0898861152" lon="6.1140000017">
		<tag k="name" v="Dyrsvika" />
		<tag k="natural" v="bay" />
		<tag k="ssr:stedsnr" v="236505" />
	</node>
	<node id="-409991" lat="58.9801222247" lon="6.10345277953">
		<tag k="name" v="Kustitjørna" />
		<tag k="natural" v="water" />
		<tag k="ssr:stedsnr" v="236330" />
	</node>
	<node id="-409990" lat="58.9816444417" lon="6.09322777266">
		<tag k="name" v="Botneelva" />
		<tag k="ssr:stedsnr" v="236325" />
		<tag k="waterway" v="river" />
	</node>
	<node id="-409987" lat="59.0209916684" lon="6.08115833202">
		<tag k="name" v="Dalbekk" />
		<tag k="ssr:stedsnr" v="236248" />
		<tag k="waterway" v="stream" />
	</node>
	<node id="-410495" lat="58.9710361084" lon="6.10703334174">
		<tag k="name" v="Sandvika" />
		<tag k="natural" v="bay" />
		<tag k="ssr:stedsnr" v="843324" />
	</node>
	<node id="-409974" lat="58.9914722222" lon="5.92534999589">
		<tag k="name" v="Nordletjørna" />
		<tag k="natural" v="water" />
		<tag k="ssr:stedsnr" v="205106" />
	</node>
	<node id="-410485" lat="59.0627527759" lon="5.92617500036">
		<tag k="name" v="Tauåna" />
		<tag k="ssr:stedsnr" v="793951" />
		<tag k="waterway" v="river" />
	</node>
	<node id="-409971" lat="59.0528250002" lon="6.01308055541">
		<tag k="name" v="Vaulabekken" />
		<tag k="ssr:stedsnr" v="184650" />
		<tag k="waterway" v="stream" />
	</node>
	<node id="-409962" lat="58.9955333368" lon="6.16265277529">
		<tag k="alt_name" v="Måslidalstjørna" />
		<tag k="name" v="Moslidalstjørna" />
		<tag k="natural" v="water" />
		<tag k="ssr:stedsnr" v="183864" />
	</node>
	<node id="-409960" lat="58.9832444423" lon="6.14404722801">
		<tag k="alt_name" v="Refsvatnet" />
		<tag k="name" v="Revsvatnet" />
		<tag k="natural" v="water" />
		<tag k="ssr:stedsnr" v="183792" />
		<tag k="water" v="lake" />
	</node>
	<node id="-410471" lat="59.086327936" lon="6.11165420576">
		<tag k="alt_name" v="Tyssdalsvatnet" />
		<tag k="name" v="Tysdalsvatnet" />
		<tag k="natural" v="water" />
		<tag k="ssr:stedsnr" v="790705" />
		<tag k="water" v="lake" />
	</node>
	<node id="-410470" lat="59.0678250951" lon="6.03033675211">
		<tag k="alt_name" v="Østerhusvatnet" />
		<tag k="name" v="Østrehusvatnet" />
		<tag k="natural" v="water" />
		<tag k="ssr:stedsnr" v="790693" />
		<tag k="water" v="lake" />
	</node>
	<node id="-409957" lat="58.9727839255" lon="6.09808056937">
		<tag k="alt_name" v="Botnevatn" />
		<tag k="name" v="Botnevatnet" />
		<tag k="natural" v="water" />
		<tag k="ssr:stedsnr" v="183762" />
		<tag k="water" v="lake" />
	</node>
	<node id="-410465" lat="59.125586112" lon="6.09865832746">
		<tag k="name" v="Paddevassåna" />
		<tag k="ssr:stedsnr" v="790525" />
		<tag k="waterway" v="river" />
	</node>
	<node id="-410463" lat="59.0338055577" lon="6.11936666747">
		<tag k="name" v="Homstjørna" />
		<tag k="natural" v="water" />
		<tag k="ssr:stedsnr" v="790337" />
	</node>
	<node id="-410461" lat="59.0599472242" lon="6.13719166394">
		<tag k="name" v="Neset" />
		<tag k="natural" v="cape" />
		<tag k="ssr:stedsnr" v="790328" />
	</node>
	<node id="-409946" lat="59.0478399743" lon="6.1675222272">
		<tag k="name" v="Botnatjørna" />
		<tag k="natural" v="water" />
		<tag k="ssr:stedsnr" v="183308" />
	</node>
	<node id="-409940" lat="58.994339228" lon="6.14815652561">
		<tag k="name" v="Åreskogtjørna" />
		<tag k="natural" v="water" />
		<tag k="ssr:stedsnr" v="176945" />
	</node>
	<node id="-409827" lat="59.0456694422" lon="6.20567777973">
		<tag k="alt_name" v="Øyavatnet" />
		<tag k="name" v="Øyevatnet" />
		<tag k="natural" v="water" />
		<tag k="ssr:stedsnr" v="62320" />
		<tag k="water" v="lake" />
	</node>
	<node id="-410082" lat="59.056850004" lon="6.19369167179">
		<tag k="name" v="Holmavatnet" />
		<tag k="natural" v="water" />
		<tag k="ssr:stedsnr" v="426308" />
		<tag k="water" v="lake" />
	</node>
	<node id="-410442" lat="59.1192805537" lon="6.06077500551">
		<tag k="name" v="Uraåna" />
		<tag k="ssr:stedsnr" v="783639" />
		<tag k="waterway" v="stream" />
	</node>
	<node id="-409928" lat="59.1216861078" lon="6.1456166684">
		<tag k="name" v="Paddetjørn" />
		<tag k="natural" v="water" />
		<tag k="ssr:stedsnr" v="175560" />
	</node>
	<node id="-409569" lat="58.9766250025" lon="6.07541111758">
		<tag k="name" v="Hestatjørnene" />
		<tag k="natural" v="water" />
		<tag k="ssr:stedsnr" v="296235" />
		<tag k="water" v="lake" />
	</node>
	<node id="-410436" lat="59.0988722201" lon="6.06196388913">
		<tag k="name" v="Buåsbekken" />
		<tag k="ssr:stedsnr" v="782663" />
		<tag k="waterway" v="stream" />
	</node>
	<node id="-410435" lat="59.1280333362" lon="6.13106666248">
		<tag k="name" v="Austra Sjuratjørn" />
		<tag k="natural" v="water" />
		<tag k="ssr:stedsnr" v="782549" />
	</node>
	<node id="-410434" lat="59.1294083346" lon="6.07508055523">
		<tag k="name" v="Tjødnå" />
		<tag k="natural" v="water" />
		<tag k="ssr:stedsnr" v="782473" />
	</node>
	<node id="-410431" lat="58.9817250038" lon="6.06768610851">
		<tag k="name" v="Stølsbekken" />
		<tag k="ssr:stedsnr" v="782258" />
		<tag k="waterway" v="stream" />
	</node>
	<node id="-409908" lat="59.1150083332" lon="6.15131388988">
		<tag k="name" v="Helletjørna" />
		<tag k="natural" v="water" />
		<tag k="ssr:stedsnr" v="123759" />
	</node>
	<node id="-410078" lat="59.0323388883" lon="5.97416944493">
		<tag k="name" v="Brekkebekken" />
		<tag k="ssr:stedsnr" v="419959" />
		<tag k="waterway" v="stream" />
	</node>
	<node id="-409906" lat="59.0688999982" lon="6.00448888105">
		<tag k="alt_name" v="Vongsnes" />
		<tag k="name" v="Vangsnes" />
		<tag k="natural" v="cape" />
		<tag k="ssr:stedsnr" v="123697" />
	</node>
	<node id="-410411" lat="59.0843111128" lon="6.0682555576">
		<tag k="name" v="Tindadalsstigtjørna" />
		<tag k="natural" v="water" />
		<tag k="ssr:stedsnr" v="730726" />
	</node>
	<node id="-409898" lat="59.0353611128" lon="6.07645278546">
		<tag k="alt_name" v="Ådlatjørna" />
		<tag k="name" v="Ålatjørna" />
		<tag k="natural" v="water" />
		<tag k="ssr:stedsnr" v="123378" />
	</node>
	<node id="-410406" lat="59.0140638897" lon="6.11727222617">
		<tag k="name" v="Moslitjørnene" />
		<tag k="natural" v="water" />
		<tag k="ssr:stedsnr" v="730377" />
	</node>
	<node id="-410399" lat="59.0034611082" lon="6.17644165888">
		<tag k="name" v="Troppevatnet" />
		<tag k="natural" v="water" />
		<tag k="ssr:stedsnr" v="730263" />
		<tag k="water" v="lake" />
	</node>
	<node id="-410394" lat="58.9877337429" lon="6.05367477978">
		<tag k="alt_name" v="Svidnesvatna" />
		<tag k="name" v="Svinesvatna" />
		<tag k="natural" v="water" />
		<tag k="ssr:stedsnr" v="729784" />
		<tag k="water" v="lake" />
	</node>
	<node id="-410391" lat="59.036988867" lon="5.99551552223">
		<tag k="alt_name" v="Åsvatn" />
		<tag k="name" v="Åsvatnet" />
		<tag k="natural" v="water" />
		<tag k="ssr:stedsnr" v="729345" />
		<tag k="water" v="lake" />
	</node>
	<node id="-410389" lat="59.0485694448" lon="6.15753333359">
		<tag k="name" v="Midttjørna" />
		<tag k="natural" v="water" />
		<tag k="ssr:stedsnr" v="729338" />
	</node>
	<node id="-410388" lat="59.0292083348" lon="6.04284444813">
		<tag k="name" v="Klovsteinsbekken" />
		<tag k="ssr:stedsnr" v="722981" />
		<tag k="waterway" v="stream" />
	</node>
	<node id="-409731" lat="59.083452775" lon="6.11528611795">
		<tag k="name" v="Skiftesneset" />
		<tag k="natural" v="cape" />
		<tag k="ssr:stedsnr" v="547383" />
	</node>
	<node id="-410384" lat="59.0734111138" lon="6.05935832854">
		<tag k="name" v="Bleiåna" />
		<tag k="ssr:stedsnr" v="722901" />
		<tag k="waterway" v="river" />
	</node>
	<node id="-410378" lat="59.0159249991" lon="6.0835055569">
		<tag k="name" v="Dalpytten" />
		<tag k="natural" v="water" />
		<tag k="ssr:stedsnr" v="722254" />
	</node>
	<node id="-410374" lat="58.9868249967" lon="6.05960833961">
		<tag k="name" v="Svinesvatnet" />
		<tag k="natural" v="water" />
		<tag k="ssr:stedsnr" v="721248" />
		<tag k="water" v="lake" />
	</node>
	<node id="-409860" lat="59.0639249956" lon="6.103913882">
		<tag k="alt_name" v="Longabergvatnet" />
		<tag k="name" v="Langabergvatnet" />
		<tag k="natural" v="water" />
		<tag k="ssr:stedsnr" v="63641" />
		<tag k="water" v="lake" />
	</node>
	<node id="-410370" lat="58.9706361103" lon="6.06535554874">
		<tag k="name" v="Boderitjørna" />
		<tag k="natural" v="water" />
		<tag k="ssr:stedsnr" v="721334" />
	</node>
	<node id="-410369" lat="58.9783888078" lon="6.05721320216">
		<tag k="name" v="Mauralitjørnene" />
		<tag k="natural" v="water" />
		<tag k="ssr:stedsnr" v="721330" />
		<tag k="water" v="lake" />
	</node>
	<node id="-409848" lat="59.0646888891" lon="6.15632500291">
		<tag k="name" v="Klampen" />
		<tag k="natural" v="cape" />
		<tag k="ssr:stedsnr" v="62650" />
	</node>
	<node id="-409846" lat="59.0486999992" lon="6.11869999338">
		<tag k="name" v="Liaråna" />
		<tag k="ssr:stedsnr" v="62635" />
		<tag k="waterway" v="stream" />
	</node>
	<node id="-409844" lat="59.1281964573" lon="6.13630969654">
		<tag k="alt_name" v="Stora Dyragråvatn;Dyragravvatnet, store" />
		<tag k="name" v="Stora Dyragravvatnet" />
		<tag k="natural" v="water" />
		<tag k="ssr:stedsnr" v="62517" />
		<tag k="water" v="lake" />
	</node>
	<node id="-410354" lat="59.1150500004" lon="6.13273611928">
		<tag k="name" v="Pøydl" />
		<tag k="natural" v="water" />
		<tag k="ssr:stedsnr" v="669730" />
	</node>
	<node id="-410353" lat="59.0963000034" lon="6.09133333309">
		<tag k="name" v="Lauvåsvatnet" />
		<tag k="natural" v="water" />
		<tag k="ssr:stedsnr" v="669699" />
		<tag k="water" v="lake" />
	</node>
	<node id="-410350" lat="59.0958212506" lon="6.02803933992">
		<tag k="name" v="Holtavatnet" />
		<tag k="natural" v="water" />
		<tag k="ssr:stedsnr" v="669695" />
		<tag k="water" v="lake" />
	</node>
	<node id="-410349" lat="59.0901166693" lon="6.0373749925">
		<tag k="name" v="Holtåna" />
		<tag k="ssr:stedsnr" v="669693" />
		<tag k="waterway" v="stream" />
	</node>
	<node id="-410348" lat="59.1001694451" lon="6.12877500285">
		<tag k="alt_name" v="Svartatjødnå" />
		<tag k="name" v="Svartatjørna" />
		<tag k="natural" v="water" />
		<tag k="ssr:stedsnr" v="669691" />
	</node>
	<node id="-410345" lat="59.0721555533" lon="6.05203054769">
		<tag k="name" v="Bleiåna" />
		<tag k="ssr:stedsnr" v="669668" />
		<tag k="waterway" v="river" />
	</node>
	<node id="-410341" lat="59.1285078699" lon="6.1292462413">
		<tag k="name" v="Sjurdatjørnane" />
		<tag k="natural" v="water" />
		<tag k="ssr:stedsnr" v="669532" />
		<tag k="water" v="lake" />
	</node>
	<node id="-410339" lat="59.018444752" lon="6.16537437885">
		<tag k="alt_name" v="Buksetjørna, nedre" />
		<tag k="name" v="Ytre Buksetjørna" />
		<tag k="natural" v="water" />
		<tag k="ssr:stedsnr" v="669360" />
	</node>
	<node id="-409823" lat="58.9973777763" lon="6.12013055884">
		<tag k="name" v="Tverrdalsbekken" />
		<tag k="ssr:stedsnr" v="55941" />
		<tag k="waterway" v="stream" />
	</node>
	<node id="-409822" lat="59.0745000038" lon="6.00215277522">
		<tag k="name" v="Skredalsbekken" />
		<tag k="ssr:stedsnr" v="55896" />
		<tag k="waterway" v="stream" />
	</node>
	<node id="-410330" lat="59.0615861085" lon="6.18571111426">
		<tag k="name" v="Tverråna" />
		<tag k="ssr:stedsnr" v="669326" />
		<tag k="waterway" v="stream" />
	</node>
	<node id="-410326" lat="58.9756495388" lon="5.98905403429">
		<tag k="fixme" v="multiple name tags, choose one and add the other to alt_name" />
		<tag k="name" v="Issalvatnet;Søravatnet" />
		<tag k="natural" v="water" />
		<tag k="ssr:stedsnr" v="668796" />
	</node>
	<node id="-409809" lat="58.9780944402" lon="6.12614444096">
		<tag k="name" v="Jydalstjørna" />
		<tag k="natural" v="water" />
		<tag k="ssr:stedsnr" v="54740" />
	</node>
	<node id="-409803" lat="58.9802388923" lon="6.10111110475">
		<tag k="name" v="Kustifossen" />
		<tag k="natural" v="waterfall" />
		<tag k="ssr:stedsnr" v="54350" />
	</node>
	<node id="-410313" lat="59.0243861144" lon="5.96878333705">
		<tag k="name" v="Fossabekken" />
		<tag k="ssr:stedsnr" v="661979" />
		<tag k="waterway" v="stream" />
	</node>
	<node id="-410298" lat="59.0824194468" lon="6.10916389092">
		<tag k="name" v="Gåsaneset" />
		<tag k="natural" v="cape" />
		<tag k="ssr:stedsnr" v="661506" />
	</node>
	<node id="-410296" lat="59.02460556" lon="6.13672778593">
		<tag k="name" v="Rovatjørna" />
		<tag k="natural" v="water" />
		<tag k="ssr:stedsnr" v="661278" />
	</node>
	<node id="-409779" lat="59.1009777798" lon="6.11899165926">
		<tag k="name" v="Stølstjørna" />
		<tag k="natural" v="water" />
		<tag k="ssr:stedsnr" v="1722" />
	</node>
	<node id="-410282" lat="59.1179060256" lon="6.13848718831">
		<tag k="name" v="Almåsvatnet" />
		<tag k="natural" v="water" />
		<tag k="ssr:stedsnr" v="608769" />
		<tag k="water" v="lake" />
	</node>
	<node id="-410280" lat="59.0972388895" lon="6.06405832839">
		<tag k="alt_name" v="Krogavatnet" />
		<tag k="name" v="Krokavatnet" />
		<tag k="natural" v="water" />
		<tag k="ssr:stedsnr" v="608734" />
		<tag k="water" v="lake" />
	</node>
	<node id="-410279" lat="59.0930083368" lon="6.08642500367">
		<tag k="name" v="Lauvåstjørna" />
		<tag k="natural" v="water" />
		<tag k="ssr:stedsnr" v="608733" />
	</node>
	<node id="-410278" lat="59.0941166705" lon="6.10346666992">
		<tag k="name" v="Svotjørna" />
		<tag k="natural" v="water" />
		<tag k="ssr:stedsnr" v="608730" />
	</node>
	<node id="-410277" lat="59.0822000013" lon="5.93635277178">
		<tag k="name" v="Amdalstjørna" />
		<tag k="natural" v="water" />
		<tag k="ssr:stedsnr" v="608725" />
	</node>
	<node id="-410270" lat="59.1228999986" lon="6.14064443944">
		<tag k="alt_name" v="Skalkatjørn" />
		<tag k="name" v="Skalkatjørna" />
		<tag k="natural" v="water" />
		<tag k="ssr:stedsnr" v="608544" />
	</node>
	<node id="-410268" lat="59.0226194486" lon="6.18977499245">
		<tag k="alt_name" v="Hengjanevatnet" />
		<tag k="name" v="Hengjandevatnet" />
		<tag k="natural" v="water" />
		<tag k="ssr:stedsnr" v="608375" />
		<tag k="water" v="lake" />
	</node>
	<node id="-410267" lat="59.020674996" lon="6.15533888171">
		<tag k="name" v="Sauafjelltjørnane" />
		<tag k="natural" v="water" />
		<tag k="ssr:stedsnr" v="608373" />
	</node>
	<node id="-410264" lat="59.0653805577" lon="5.96568055761">
		<tag k="name" v="Klubben" />
		<tag k="natural" v="cape" />
		<tag k="ssr:stedsnr" v="608360" />
	</node>
	<node id="-410263" lat="59.0387111078" lon="6.10261944615">
		<tag k="alt_name" v="Tunglandsåna" />
		<tag k="name" v="Jørpelandsåna" />
		<tag k="ssr:stedsnr" v="608359" />
		<tag k="waterway" v="river" />
	</node>
	<node id="-410261" lat="59.0431361113" lon="6.19158610724">
		<tag k="alt_name" v="Nagatjørna, store;Stora Nagatjørna" />
		<tag k="name" v="Store Nagatjørna" />
		<tag k="natural" v="water" />
		<tag k="ssr:stedsnr" v="608338" />
		<tag k="water" v="lake" />
	</node>
	<node id="-410259" lat="58.9847472257" lon="5.99447778287">
		<tag k="alt_name" v="Nordvatnet" />
		<tag k="name" v="Nordavatnet" />
		<tag k="natural" v="water" />
		<tag k="ssr:stedsnr" v="607841" />
	</node>
	<node id="-409879" lat="59.1114305544" lon="6.00126945013">
		<tag k="name" v="Fiskåna" />
		<tag k="ssr:stedsnr" v="115738" />
		<tag k="waterway" v="river" />
	</node>
	<node id="-410243" lat="59.0973638919" lon="6.07748055424">
		<tag k="name" v="Blokkelitjørnene" />
		<tag k="natural" v="water" />
		<tag k="ssr:stedsnr" v="600671" />
		<tag k="water" v="lake" />
	</node>
	<node id="-409729" lat="58.9661666677" lon="6.12729444901">
		<tag k="name" v="Stora Ulvaskogvatn" />
		<tag k="natural" v="water" />
		<tag k="ssr:stedsnr" v="600890" />
		<tag k="water" v="lake" />
	</node>
	<node id="-410237" lat="59.0269972236" lon="6.03811944545">
		<tag k="name" v="Fiskåna" />
		<tag k="ssr:stedsnr" v="600040" />
		<tag k="waterway" v="river" />
	</node>
	<node id="-409721" lat="59.0181833297" lon="6.09284444552">
		<tag k="name" v="Kaldalsbekken" />
		<tag k="ssr:stedsnr" v="479241" />
		<tag k="waterway" v="stream" />
	</node>
	<node id="-409720" lat="59.0300277763" lon="6.09574999871">
		<tag k="name" v="Storåsfoss" />
		<tag k="natural" v="waterfall" />
		<tag k="ssr:stedsnr" v="479242" />
	</node>
	<node id="-409876" lat="59.0829916633" lon="6.0361388851">
		<tag k="name" v="Holtaåna" />
		<tag k="ssr:stedsnr" v="115872" />
		<tag k="waterway" v="river" />
	</node>
	<node id="-410228" lat="59.0407250045" lon="6.18299444425">
		<tag k="alt_name" v="Litla Nagatjørna;Nagatjørna, l" />
		<tag k="name" v="Litle Nagatjørna" />
		<tag k="natural" v="water" />
		<tag k="ssr:stedsnr" v="586350" />
	</node>
	<node id="-410216" lat="59.0488222265" lon="5.92918333682">
		<tag k="name" v="Strandåna" />
		<tag k="ssr:stedsnr" v="548654" />
		<tag k="waterway" v="stream" />
	</node>
	<node id="-409701" lat="59.0653333296" lon="5.95094443966">
		<tag k="alt_name" v="Kvammaneset" />
		<tag k="name" v="Kvamaneset" />
		<tag k="natural" v="cape" />
		<tag k="ssr:stedsnr" v="366662" />
	</node>
	<node id="-410212" lat="59.0196622687" lon="6.10720943321">
		<tag k="name" v="Timmervatnet" />
		<tag k="natural" v="water" />
		<tag k="ssr:stedsnr" v="548394" />
		<tag k="water" v="lake" />
	</node>
	<node id="-410210" lat="59.0025166702" lon="6.10766666491">
		<tag k="name" v="Solheimsåna" />
		<tag k="ssr:stedsnr" v="548265" />
		<tag k="waterway" v="stream" />
	</node>
	<node id="-409696" lat="59.0136805521" lon="6.17564166007">
		<tag k="alt_name" v="Buksetjørna, øvre" />
		<tag k="name" v="Indre Buksetjørna" />
		<tag k="natural" v="water" />
		<tag k="ssr:stedsnr" v="366252" />
	</node>
	<node id="-409872" lat="59.0278055559" lon="6.1040416617">
		<tag k="name" v="Kjellbrekk" />
		<tag k="ssr:stedsnr" v="115260" />
		<tag k="waterway" v="stream" />
	</node>
	<node id="-409694" lat="58.9900749982" lon="6.12417500358">
		<tag k="alt_name" v="Stemstjørna" />
		<tag k="name" v="Stemmetjørna" />
		<tag k="natural" v="water" />
		<tag k="ssr:stedsnr" v="365791" />
	</node>
	<node id="-410204" lat="59.099438891" lon="5.97134166222">
		<tag k="name" v="Lindneset" />
		<tag k="natural" v="cape" />
		<tag k="ssr:stedsnr" v="547770" />
	</node>
	<node id="-410202" lat="59.1046944463" lon="5.98710833942">
		<tag k="name" v="Meigevika" />
		<tag k="natural" v="bay" />
		<tag k="ssr:stedsnr" v="547756" />
	</node>
	<node id="-409689" lat="59.1027489866" lon="6.11259868615">
		<tag k="alt_name" v="Leidevatnet" />
		<tag k="name" v="Leitevatnet" />
		<tag k="natural" v="water" />
		<tag k="ssr:stedsnr" v="365743" />
		<tag k="water" v="lake" />
	</node>
	<node id="-410197" lat="59.0908583335" lon="6.12528611594">
		<tag k="name" v="Skreppeneset" />
		<tag k="natural" v="cape" />
		<tag k="ssr:stedsnr" v="547714" />
	</node>
	<node id="-410196" lat="59.0748421567" lon="5.92114660341">
		<tag k="name" v="Nordvatnet" />
		<tag k="natural" v="water" />
		<tag k="ssr:stedsnr" v="547704" />
		<tag k="water" v="lake" />
	</node>
	<node id="-410194" lat="59.0999611074" lon="6.00085278482">
		<tag k="name" v="Høylandsneset" />
		<tag k="natural" v="cape" />
		<tag k="ssr:stedsnr" v="547402" />
	</node>
	<node id="-409680" lat="59.0354638885" lon="6.19520554961">
		<tag k="alt_name" v="Krogavatnet" />
		<tag k="name" v="Krokavatnet" />
		<tag k="natural" v="water" />
		<tag k="ssr:stedsnr" v="365360" />
		<tag k="water" v="lake" />
	</node>
	<node id="-410191" lat="59.0446805582" lon="6.11456943856">
		<tag k="name" v="Dalavatnet" />
		<tag k="natural" v="water" />
		<tag k="ssr:stedsnr" v="547366" />
		<tag k="water" v="lake" />
	</node>
	<node id="-410190" lat="59.0442111078" lon="6.13093055321">
		<tag k="name" v="Lågaliåna" />
		<tag k="ssr:stedsnr" v="547362" />
		<tag k="waterway" v="stream" />
	</node>
	<node id="-410189" lat="59.0445138917" lon="6.14063610517">
		<tag k="alt_name" v="Håltjørna" />
		<tag k="name" v="Holtjørna" />
		<tag k="natural" v="water" />
		<tag k="ssr:stedsnr" v="547363" />
	</node>
	<node id="-410182" lat="59.066966668" lon="6.04860278353">
		<tag k="name" v="Regnåna" />
		<tag k="ssr:stedsnr" v="540881" />
		<tag k="waterway" v="river" />
	</node>
	<node id="-409953" lat="59.0816655132" lon="5.9796373496">
		<tag k="alt_name" v="Varlandstjørna" />
		<tag k="name" v="Vardlandstjørna" />
		<tag k="natural" v="water" />
		<tag k="ssr:stedsnr" v="183688" />
	</node>
	<node id="-410038" lat="59.0607752606" lon="6.14279498611">
		<tag k="name" v="Liarvatnet" />
		<tag k="natural" v="water" />
		<tag k="ssr:stedsnr" v="245616" />
		<tag k="water" v="lake" />
	</node>
	<node id="-409666" lat="59.099061114" lon="6.09539444176">
		<tag k="name" v="Lauvåsåna" />
		<tag k="ssr:stedsnr" v="358711" />
		<tag k="waterway" v="river" />
	</node>
	<node id="-410177" lat="59.0294060951" lon="6.02003739414">
		<tag k="name" v="Tuåna" />
		<tag k="ssr:stedsnr" v="540061" />
		<tag k="waterway" v="river" />
	</node>
	<node id="-409661" lat="59.0537286665" lon="5.92781169782">
		<tag k="name" v="Prestatjørna" />
		<tag k="natural" v="water" />
		<tag k="ssr:stedsnr" v="357892" />
	</node>
	<node id="-409655" lat="59.1036055596" lon="6.00214445182">
		<tag k="name" v="Kallavika" />
		<tag k="natural" v="bay" />
		<tag k="ssr:stedsnr" v="357754" />
	</node>
	<node id="-409650" lat="59.0215888928" lon="6.09325556307">
		<tag k="name" v="Fossabekken" />
		<tag k="ssr:stedsnr" v="357245" />
		<tag k="waterway" v="stream" />
	</node>
	<node id="-409649" lat="59.0195250031" lon="6.0571472284">
		<tag k="name" v="Skjedehavn" />
		<tag k="natural" v="bay" />
		<tag k="ssr:stedsnr" v="357186" />
	</node>
	<node id="-410152" lat="59.1146861128" lon="6.10515554973">
		<tag k="alt_name" v="Tadrå" />
		<tag k="name" v="Tadra" />
		<tag k="natural" v="water" />
		<tag k="ssr:stedsnr" v="487761" />
	</node>
	<node id="-410147" lat="59.0646149084" lon="5.98435323202">
		<tag k="alt_name" v="Bjøreimsvatnet;Bjoreimsvatn" />
		<tag k="name" v="Bjørheimsvatnet" />
		<tag k="natural" v="water" />
		<tag k="ssr:stedsnr" v="487705" />
		<tag k="water" v="lake" />
	</node>
	<node id="-409625" lat="59.0729224779" lon="6.04273995709">
		<tag k="name" v="Høletjørna" />
		<tag k="natural" v="water" />
		<tag k="ssr:stedsnr" v="305694" />
	</node>
	<node id="-409622" lat="59.0608972242" lon="6.09056110839">
		<tag k="name" v="Tverråna" />
		<tag k="ssr:stedsnr" v="305676" />
		<tag k="waterway" v="stream" />
	</node>
	<node id="-410132" lat="59.0137333342" lon="6.19393054779">
		<tag k="name" v="Bikkjetjørna" />
		<tag k="natural" v="water" />
		<tag k="ssr:stedsnr" v="487252" />
	</node>
	<node id="-410127" lat="58.9725527781" lon="6.03978610725">
		<tag k="name" v="Erlandsdalsvatnet" />
		<tag k="natural" v="water" />
		<tag k="ssr:stedsnr" v="486776" />
		<tag k="water" v="lake" />
	</node>
	<node id="-409613" lat="59.0369694465" lon="6.0644249918">
		<tag k="alt_name" v="Skarbekken" />
		<tag k="name" v="Skardbekken" />
		<tag k="ssr:stedsnr" v="305334" />
		<tag k="waterway" v="stream" />
	</node>
	<node id="-410124" lat="59.104700004" lon="5.99303055352">
		<tag k="name" v="Ekkarvika" />
		<tag k="natural" v="bay" />
		<tag k="ssr:stedsnr" v="486737" />
	</node>
	<node id="-409858" lat="59.0118100251" lon="6.13522609805">
		<tag k="alt_name" v="Måslivatnet" />
		<tag k="name" v="Moslivatnet" />
		<tag k="natural" v="water" />
		<tag k="ssr:stedsnr" v="63389" />
		<tag k="water" v="lake" />
	</node>
	<node id="-409857" lat="59.0123638874" lon="6.10520000718">
		<tag k="alt_name" v="Kaldalstjørna" />
		<tag k="name" v="Kalddalstjørna" />
		<tag k="natural" v="water" />
		<tag k="ssr:stedsnr" v="63387" />
	</node>
	<node id="-410081" lat="59.0124972254" lon="6.1753833373">
		<tag k="name" v="Buksetjørna" />
		<tag k="natural" v="water" />
		<tag k="ssr:stedsnr" v="424205" />
	</node>
	<node id="-409603" lat="59.1084361122" lon="6.13650277968">
		<tag k="name" v="Tjelmavatnet" />
		<tag k="natural" v="water" />
		<tag k="ssr:stedsnr" v="304731" />
		<tag k="water" v="lake" />
	</node>
	<node id="-409602" lat="59.0542583316" lon="6.09994999971">
		<tag k="alt_name" v="Tiberghola" />
		<tag k="name" v="Tibergfjelltjørna" />
		<tag k="natural" v="water" />
		<tag k="ssr:stedsnr" v="304639" />
	</node>
</osm>
