<?xml version="1.0" encoding="UTF-8"?>
<<<<<<< HEAD
<osm version="0.6" generator="osmapis">
	<node lat="58.99012222237299" lon="5.91905278035245" id="-10">
		<tag k="name" v="Storemyr" />
		<tag k="natural" v="wetland" />
		<tag k="ssr:stedsnr" v="23112" />
	</node>
	<node lat="58.951086112684436" lon="6.122672215389051" id="-41">
		<tag k="name" v="Lyngtuna" />
		<tag k="natural" v="scree" />
		<tag k="ssr:stedsnr" v="54385" />
	</node>
	<node lat="58.95408333123638" lon="6.068469446275002" id="-42">
		<tag k="name" v="Lerangstølen" />
		<tag k="place" v="locality" />
		<tag k="ssr:stedsnr" v="54568" />
	</node>
	<node lat="59.07926389081827" lon="5.961341661629906" id="-44">
		<tag k="name" v="Kvamamyra" />
		<tag k="natural" v="wetland" />
		<tag k="ssr:stedsnr" v="54882" />
	</node>
	<node lat="59.0060777737734" lon="6.11492777160172" id="-72">
		<tag k="alt_name" v="Røydegrovene" />
		<tag k="name" v="Røytegrovene" />
		<tag k="natural" v="wetland" />
		<tag k="ssr:stedsnr" v="244260" />
	</node>
	<node lat="58.951086112684436" lon="6.122672215389051" id="-96">
		<tag k="name" v="Skjerå" />
=======
<osm generator="osmapis" version="0.6">
	<node id="-26112" lat="58.9831249975" lon="6.03527499603">
		<tag k="name" v="Sjoarleitet" />
		<tag k="place" v="locality" />
		<tag k="ssr:stedsnr" v="357873" />
	</node>
	<node id="-25855" lat="58.9510861127" lon="6.12267221539">
		<tag k="name" v="Lyngtuna" />
>>>>>>> e1d4bc35ff8a6074a6f2e91616a996b547c36f15
		<tag k="natural" v="scree" />
		<tag k="ssr:stedsnr" v="115881" />
	</node>
<<<<<<< HEAD
	<node lat="59.02492499675484" lon="6.119969439984883" id="-112">
		<tag k="historic" v="shieling" />
		<tag k="name" v="Stølen" />
		<tag k="place" v="locality" />
		<tag k="ssr:stedsnr" v="175304" />
	</node>
	<node lat="59.08590277912479" lon="6.015824998093024" id="-119">
		<tag k="name" v="Høgemyr" />
		<tag k="natural" v="wetland" />
		<tag k="ssr:stedsnr" v="176653" />
	</node>
	<node lat="59.02576666947486" lon="5.957891666061531" id="-122">
		<tag k="name" v="Klemmå" />
		<tag k="place" v="locality" />
		<tag k="ssr:stedsnr" v="176958" />
	</node>
	<node lat="58.99323611477415" lon="5.922347223029452" id="-137">
		<tag k="alt_name" v="Nordletjødnmyra" />
		<tag k="name" v="Nordletjørnmyra" />
=======
	<node id="-25941" lat="58.9995027764" lon="6.12315833348">
		<tag k="name" v="Måslileitet" />
		<tag k="place" v="locality" />
		<tag k="ssr:stedsnr" v="115943" />
	</node>
	<node id="-25980" lat="58.9792777745" lon="6.01254166729">
		<tag k="name" v="Langevollen" />
		<tag k="place" v="locality" />
		<tag k="ssr:stedsnr" v="144822" />
	</node>
	<node id="-25978" lat="58.9882111148" lon="5.91139721905">
		<tag k="name" v="Langemyr" />
>>>>>>> e1d4bc35ff8a6074a6f2e91616a996b547c36f15
		<tag k="natural" v="wetland" />
		<tag k="ssr:stedsnr" v="265060" />
	</node>
<<<<<<< HEAD
	<node lat="58.98895555488789" lon="5.939144445034212" id="-139">
		<tag k="name" v="Halsamyra" />
		<tag k="natural" v="wetland" />
		<tag k="ssr:stedsnr" v="205108" />
	</node>
	<node lat="59.11714722137633" lon="6.041663896473829" id="-145">
		<tag k="name" v="Ådnasteinen" />
		<tag k="natural" v="stone" />
		<tag k="ssr:stedsnr" v="449930" />
	</node>
	<node lat="59.11519444672414" lon="6.034841664594594" id="-146">
		<tag k="name" v="Kammasteinen" />
		<tag k="natural" v="stone" />
		<tag k="ssr:stedsnr" v="449934" />
	</node>
	<node lat="58.980883334257975" lon="5.927352782025881" id="-178">
		<tag k="name" v="Kalvhaga" />
		<tag k="place" v="locality" />
		<tag k="ssr:stedsnr" v="265095" />
	</node>
	<node lat="59.10506389203181" lon="5.976369450843013" id="-187">
		<tag k="name" v="Øygarden" />
		<tag k="place" v="locality" />
		<tag k="ssr:stedsnr" v="297784" />
	</node>
	<node lat="59.042941671210855" lon="6.0587194517315135" id="-193">
		<tag k="name" v="Velandsmyra" />
=======
	<node id="-25593" lat="58.9509000033" lon="6.08672221551">
		<tag k="name" v="Gråur" />
		<tag k="natural" v="scree" />
		<tag k="ssr:stedsnr" v="600959" />
	</node>
	<node id="-25748" lat="58.9508166697" lon="6.06199721364">
		<tag k="name" v="Maramyra" />
		<tag k="natural" v="wetland" />
		<tag k="ssr:stedsnr" v="782529" />
	</node>
	<node id="-25705" lat="59.0679750012" lon="5.97549999701">
		<tag k="name" v="Måkasteinen" />
		<tag k="natural" v="stone" />
		<tag k="ssr:stedsnr" v="904923" />
	</node>
	<node id="-25843" lat="58.9901222224" lon="5.91905278035">
		<tag k="name" v="Storemyr" />
		<tag k="natural" v="wetland" />
		<tag k="ssr:stedsnr" v="23112" />
	</node>
	<node id="-26223" lat="58.9856916697" lon="6.03904165961">
		<tag k="name" v="Prestagjotra" />
		<tag k="place" v="locality" />
		<tag k="ssr:stedsnr" v="539864" />
	</node>
	<node id="-25708" lat="58.9474611081" lon="6.04252778145">
		<tag k="name" v="Kringlemyr" />
>>>>>>> e1d4bc35ff8a6074a6f2e91616a996b547c36f15
		<tag k="natural" v="wetland" />
		<tag k="ssr:stedsnr" v="297971" />
	</node>
<<<<<<< HEAD
	<node lat="58.941969445110495" lon="6.049172226039171" id="-195">
		<tag k="name" v="Steinbergskogen" />
		<tag k="place" v="locality" />
		<tag k="ssr:stedsnr" v="302872" />
	</node>
	<node lat="59.11133888481407" lon="6.134419445421369" id="-241">
		<tag k="historic" v="shieling" />
		<tag k="name" v="Søre Stølen" />
		<tag k="place" v="locality" />
		<tag k="ssr:stedsnr" v="479657" />
	</node>
	<node lat="59.038844439972564" lon="6.2057222138895565" id="-247">
		<tag k="historic" v="shieling" />
		<tag k="name" v="Svinastølen" />
		<tag k="place" v="locality" />
		<tag k="ssr:stedsnr" v="479800" />
	</node>
	<node lat="59.026225003968875" lon="6.169919437854656" id="-250">
		<tag k="name" v="Hemingsteinen" />
		<tag k="natural" v="stone" />
		<tag k="ssr:stedsnr" v="480000" />
	</node>
	<node lat="58.97975000363811" lon="5.936361102980205" id="-252">
		<tag k="name" v="Kalhagmyra" />
=======
	<node id="-26347" lat="58.9751888844" lon="5.94594165921">
		<tag k="name" v="Storeur" />
		<tag k="natural" v="scree" />
		<tag k="ssr:stedsnr" v="751847" />
	</node>
	<node id="-26345" lat="58.9837972261" lon="5.92486667169">
		<tag k="name" v="Jupedalsmyra" />
>>>>>>> e1d4bc35ff8a6074a6f2e91616a996b547c36f15
		<tag k="natural" v="wetland" />
		<tag k="ssr:stedsnr" v="386100" />
	</node>
<<<<<<< HEAD
	<node lat="59.10925833204461" lon="6.0103166591596695" id="-285">
		<tag k="name" v="Eiemyra" />
=======
	<node id="-25704" lat="59.0506916646" lon="5.9846583384">
		<tag k="name" v="Torvmyra" />
>>>>>>> e1d4bc35ff8a6074a6f2e91616a996b547c36f15
		<tag k="natural" v="wetland" />
		<tag k="ssr:stedsnr" v="418737" />
	</node>
<<<<<<< HEAD
	<node lat="58.97806388483953" lon="5.956847215098877" id="-314">
		<tag k="name" v="Hagane" />
=======
	<node id="-25703" lat="58.9684055543" lon="6.1244972289">
		<tag k="name" v="Ulvaskog" />
>>>>>>> e1d4bc35ff8a6074a6f2e91616a996b547c36f15
		<tag k="place" v="locality" />
		<tag k="ssr:stedsnr" v="447008" />
	</node>
<<<<<<< HEAD
	<node lat="59.00044166640172" lon="6.12832499331795" id="-330">
		<tag k="alt_name" v="Måslimyra" />
		<tag k="name" v="Moslimyra" />
		<tag k="natural" v="wetland" />
		<tag k="ssr:stedsnr" v="487260" />
	</node>
	<node lat="58.985691669745755" lon="6.039041659610728" id="-346">
		<tag k="name" v="Prestagjotra" />
		<tag k="place" v="locality" />
		<tag k="ssr:stedsnr" v="539864" />
	</node>
	<node lat="59.00256666852616" lon="6.092558331302664" id="-358">
		<tag k="alt_name" v="Jøssongurda" />
		<tag k="name" v="Jøssangurda" />
		<tag k="natural" v="scree" />
		<tag k="ssr:stedsnr" v="548269" />
	</node>
	<node lat="59.06916666970233" lon="5.960769452471243" id="-360">
		<tag k="alt_name" v="Kvammaurda;Kvamsura" />
		<tag k="name" v="Kvamaura" />
		<tag k="natural" v="scree" />
		<tag k="ssr:stedsnr" v="548668" />
	</node>
	<node lat="58.98051389234464" lon="5.992447222712226" id="-362">
		<tag k="name" v="Småga" />
=======
	<node id="-25609" lat="58.9981416655" lon="6.08993889735">
		<tag k="historic" v="shieling" />
		<tag k="name" v="Lunnarstøl" />
		<tag k="place" v="locality" />
		<tag k="ssr:stedsnr" v="721347" />
	</node>
	<node id="-25349" lat="59.0454750045" lon="6.06706667348">
		<tag k="name" v="Litlemyr" />
		<tag k="natural" v="wetland" />
		<tag k="ssr:stedsnr" v="297970" />
	</node>
	<node id="-25694" lat="59.1143638877" lon="6.02802778598">
		<tag k="name" v="Hala" />
>>>>>>> e1d4bc35ff8a6074a6f2e91616a996b547c36f15
		<tag k="place" v="locality" />
		<tag k="ssr:stedsnr" v="904738" />
	</node>
<<<<<<< HEAD
	<node lat="59.08397500425134" lon="5.959563888786431" id="-378">
		<tag k="name" v="Tormyra" />
		<tag k="natural" v="wetland" />
		<tag k="ssr:stedsnr" v="600861" />
	</node>
	<node lat="58.950900003332194" lon="6.0867222155149685" id="-379">
		<tag k="name" v="Gråur" />
		<tag k="natural" v="scree" />
		<tag k="ssr:stedsnr" v="600959" />
	</node>
	<node lat="59.04198611380654" lon="6.066455558551145" id="-405">
		<tag k="name" v="Øygjasteinen" />
		<tag k="natural" v="stone" />
		<tag k="ssr:stedsnr" v="661980" />
	</node>
	<node lat="59.11701666515199" lon="6.041463889387507" id="-457">
=======
	<node id="-25693" lat="59.1170166652" lon="6.04146388939">
>>>>>>> e1d4bc35ff8a6074a6f2e91616a996b547c36f15
		<tag k="name" v="Ånesteinen" />
		<tag k="natural" v="stone" />
		<tag k="ssr:stedsnr" v="904735" />
	</node>
<<<<<<< HEAD
	<node lat="59.11436388774805" lon="6.028027785981635" id="-458">
		<tag k="name" v="Hala" />
		<tag k="place" v="locality" />
		<tag k="ssr:stedsnr" v="904738" />
	</node>
	<node lat="58.968405554272124" lon="6.12449722889682" id="-467">
		<tag k="name" v="Ulvaskog" />
		<tag k="place" v="locality" />
		<tag k="ssr:stedsnr" v="904895" />
	</node>
	<node lat="58.94746110806952" lon="6.0425277814496585" id="-476">
		<tag k="name" v="Kringlemyr" />
		<tag k="natural" v="wetland" />
		<tag k="ssr:stedsnr" v="909898" />
	</node>
	<node lat="59.055991669951936" lon="6.001988890824015" id="-485">
		<tag k="name" v="Longemyr" />
=======
	<node id="-25337" lat="59.105063892" lon="5.97636945084">
		<tag k="name" v="Øygarden" />
		<tag k="place" v="locality" />
		<tag k="ssr:stedsnr" v="297784" />
	</node>
	<node id="-25940" lat="58.9510861127" lon="6.12267221539">
		<tag k="name" v="Skjerå" />
		<tag k="natural" v="scree" />
		<tag k="ssr:stedsnr" v="115881" />
	</node>
	<node id="-25299" lat="58.9932361148" lon="5.92234722303">
		<tag k="alt_name" v="Nordletjødnmyra" />
		<tag k="name" v="Nordletjørnmyra" />
>>>>>>> e1d4bc35ff8a6074a6f2e91616a996b547c36f15
		<tag k="natural" v="wetland" />
		<tag k="ssr:stedsnr" v="783864" />
	</node>
<<<<<<< HEAD
	<node lat="59.0602749992406" lon="6.007633338481491" id="-512">
		<tag k="name" v="Vassbø" />
		<tag k="place" v="locality" />
		<tag k="ssr:stedsnr" v="791633" />
	</node>
	<node lat="58.96366944190535" lon="6.054936118831241" id="-543">
		<tag k="name" v="Kroga" />
		<tag k="place" v="locality" />
		<tag k="ssr:stedsnr" v="843506" />
	</node>
	<node lat="59.05892500187402" lon="6.05892221900338" id="-552">
=======
	<node id="-25425" lat="59.0004416664" lon="6.12832499332">
		<tag k="alt_name" v="Måslimyra" />
		<tag k="name" v="Moslimyra" />
		<tag k="natural" v="wetland" />
		<tag k="ssr:stedsnr" v="487260" />
	</node>
	<node id="-26448" lat="59.0589250019" lon="6.058922219">
>>>>>>> e1d4bc35ff8a6074a6f2e91616a996b547c36f15
		<tag k="name" v="Klovsteinane" />
		<tag k="natural" v="stone" />
		<tag k="ssr:stedsnr" v="844882" />
	</node>
<<<<<<< HEAD
	<node lat="59.10331388811834" lon="6.046700001438809" id="-562">
		<tag k="alt_name" v="Grødeimsmyrane;Grødeimstorvmyrane" />
		<tag k="name" v="Grødheimsmyrane" />
		<tag k="natural" v="wetland" />
		<tag k="ssr:stedsnr" v="851709" />
	</node>
	<node lat="59.085088891650855" lon="6.084758334745587" id="-568">
		<tag k="alt_name" v="Gjeidura" />
		<tag k="name" v="Geiturda" />
=======
	<node id="-25551" lat="59.1113388848" lon="6.13441944542">
		<tag k="historic" v="shieling" />
		<tag k="name" v="Søre Stølen" />
		<tag k="place" v="locality" />
		<tag k="ssr:stedsnr" v="479657" />
	</node>
	<node id="-25934" lat="59.1035138897" lon="6.03103056185">
		<tag k="name" v="Byttekleivmyra" />
		<tag k="natural" v="wetland" />
		<tag k="ssr:stedsnr" v="115744" />
	</node>
	<node id="-26501" lat="59.1033388906" lon="6.02454721523">
		<tag k="alt_name" v="Grødeimshagane" />
		<tag k="name" v="Grødheimshagane" />
		<tag k="place" v="locality" />
		<tag k="ssr:stedsnr" v="964747" />
	</node>
	<node id="-25932" lat="58.9573083362" lon="6.06170555724">
		<tag k="name" v="Melingstølen" />
		<tag k="place" v="locality" />
		<tag k="ssr:stedsnr" v="115484" />
	</node>
	<node id="-25546" lat="59.1144111087" lon="6.0379333363">
		<tag k="alt_name" v="Urå" />
		<tag k="name" v="Urda" />
>>>>>>> e1d4bc35ff8a6074a6f2e91616a996b547c36f15
		<tag k="natural" v="scree" />
		<tag k="ssr:stedsnr" v="851680" />
	</node>
<<<<<<< HEAD
	<node lat="59.006116662117115" lon="6.06670832515548" id="-580">
		<tag k="name" v="Svinaflota" />
=======
	<node id="-25333" lat="59.1144666654" lon="6.14453888247">
		<tag k="historic" v="shieling" />
		<tag k="name" v="Nore Stølen" />
		<tag k="place" v="locality" />
		<tag k="ssr:stedsnr" v="297638" />
	</node>
	<node id="-25798" lat="59.0016888882" lon="6.07908333661">
		<tag k="name" v="Leide" />
>>>>>>> e1d4bc35ff8a6074a6f2e91616a996b547c36f15
		<tag k="place" v="locality" />
		<tag k="ssr:stedsnr" v="903367" />
	</node>
<<<<<<< HEAD
	<node lat="59.067975001208964" lon="5.975499997012111" id="-587">
		<tag k="name" v="Måkasteinen" />
		<tag k="natural" v="stone" />
		<tag k="ssr:stedsnr" v="904923" />
	</node>
	<node lat="59.05069166458503" lon="5.984658338398758" id="-588">
		<tag k="name" v="Torvmyra" />
		<tag k="natural" v="wetland" />
		<tag k="ssr:stedsnr" v="904902" />
	</node>
	<node lat="59.00168888817855" lon="6.07908333660639" id="-604">
		<tag k="name" v="Leide" />
=======
	<node id="-25249" lat="58.9540833312" lon="6.06846944628">
		<tag k="name" v="Lerangstølen" />
		<tag k="place" v="locality" />
		<tag k="ssr:stedsnr" v="54568" />
	</node>
	<node id="-25412" lat="59.026225004" lon="6.16991943785">
		<tag k="name" v="Hemingsteinen" />
		<tag k="natural" v="stone" />
		<tag k="ssr:stedsnr" v="480000" />
	</node>
	<node id="-26179" lat="59.0969638894" lon="6.01151111333">
		<tag k="name" v="Gjere" />
>>>>>>> e1d4bc35ff8a6074a6f2e91616a996b547c36f15
		<tag k="place" v="locality" />
		<tag k="ssr:stedsnr" v="963405" />
	</node>
<<<<<<< HEAD
	<node lat="59.10333889064389" lon="6.024547215225495" id="-607">
		<tag k="alt_name" v="Grødeimshagane" />
		<tag k="name" v="Grødheimshagane" />
		<tag k="place" v="locality" />
		<tag k="ssr:stedsnr" v="964747" />
	</node>
	<node lat="59.06219999596477" lon="6.035838893929516" id="-609">
		<tag k="name" v="Treå" />
=======
	<node id="-26497" lat="59.0199638883" lon="6.13932777703">
		<tag k="name" v="Trongevegen" />
		<tag k="place" v="locality" />
		<tag k="ssr:stedsnr" v="964247" />
	</node>
	<node id="-25408" lat="59.03884444" lon="6.20572221389">
		<tag k="historic" v="shieling" />
		<tag k="name" v="Svinastølen" />
		<tag k="place" v="locality" />
		<tag k="ssr:stedsnr" v="479800" />
	</node>
	<node id="-25535" lat="59.0661583312" lon="6.16433333911">
		<tag k="name" v="Grimsli" />
>>>>>>> e1d4bc35ff8a6074a6f2e91616a996b547c36f15
		<tag k="place" v="locality" />
		<tag k="ssr:stedsnr" v="965896" />
	</node>
<<<<<<< HEAD
	<node lat="59.08106111376249" lon="5.994911117298616" id="-653">
		<tag k="name" v="Grønamyra" />
=======
	<node id="-26045" lat="58.9889555549" lon="5.93914444503">
		<tag k="name" v="Halsamyra" />
>>>>>>> e1d4bc35ff8a6074a6f2e91616a996b547c36f15
		<tag k="natural" v="wetland" />
		<tag k="ssr:stedsnr" v="54861" />
	</node>
<<<<<<< HEAD
	<node lat="59.08113611464895" lon="5.999216659201568" id="-657">
		<tag k="name" v="Svartamyra" />
=======
	<node id="-26299" lat="59.0517444465" lon="5.98046666888">
		<tag k="name" v="Varamyra" />
>>>>>>> e1d4bc35ff8a6074a6f2e91616a996b547c36f15
		<tag k="natural" v="wetland" />
		<tag k="ssr:stedsnr" v="55632" />
	</node>
<<<<<<< HEAD
	<node lat="59.03682777512969" lon="6.106038887793665" id="-662">
		<tag k="name" v="Guromyr" />
=======
	<node id="-26170" lat="59.109258332" lon="6.01031665916">
		<tag k="name" v="Eiemyra" />
>>>>>>> e1d4bc35ff8a6074a6f2e91616a996b547c36f15
		<tag k="natural" v="wetland" />
		<tag k="ssr:stedsnr" v="55964" />
	</node>
<<<<<<< HEAD
	<node lat="59.0341833305908" lon="6.045886104173961" id="-665">
		<tag k="name" v="Klovsteinen" />
		<tag k="natural" v="stone" />
		<tag k="ssr:stedsnr" v="55974" />
	</node>
	<node lat="58.99557499594751" lon="6.105008330628181" id="-672">
		<tag k="alt_name" v="Jøssongmyrane" />
		<tag k="name" v="Jøssangmyrane" />
		<tag k="natural" v="wetland" />
		<tag k="ssr:stedsnr" v="61831" />
	</node>
	<node lat="59.10351388967287" lon="6.03103056185067" id="-705">
		<tag k="name" v="Byttekleivmyra" />
		<tag k="natural" v="wetland" />
		<tag k="ssr:stedsnr" v="115744" />
	</node>
	<node lat="58.957308336201464" lon="6.061705557235106" id="-707">
		<tag k="name" v="Melingstølen" />
		<tag k="place" v="locality" />
		<tag k="ssr:stedsnr" v="115484" />
	</node>
	<node lat="58.999502776350695" lon="6.123158333476244" id="-711">
		<tag k="name" v="Måslileitet" />
		<tag k="place" v="locality" />
		<tag k="ssr:stedsnr" v="115943" />
	</node>
	<node lat="58.98821111484661" lon="5.911397219048224" id="-743">
		<tag k="name" v="Langemyr" />
		<tag k="natural" v="wetland" />
		<tag k="ssr:stedsnr" v="144119" />
	</node>
	<node lat="58.9792777744529" lon="6.012541667288341" id="-746">
		<tag k="name" v="Langevollen" />
		<tag k="place" v="locality" />
		<tag k="ssr:stedsnr" v="144822" />
	</node>
	<node lat="59.04323055691086" lon="6.208172224147998" id="-762">
=======
	<node id="-26169" lat="58.9897388851" lon="6.15580000491">
		<tag k="name" v="Krogabekkmyra" />
		<tag k="natural" v="wetland" />
		<tag k="ssr:stedsnr" v="418671" />
	</node>
	<node id="-25782" lat="59.0061166621" lon="6.06670832516">
		<tag k="name" v="Svinaflota" />
		<tag k="place" v="locality" />
		<tag k="ssr:stedsnr" v="903367" />
	</node>
	<node id="-25503" lat="58.9986694409" lon="6.13905833925">
		<tag k="name" v="Gjeldasteinen" />
		<tag k="natural" v="stone" />
		<tag k="ssr:stedsnr" v="661955" />
	</node>
	<node id="-25566" lat="58.9805138923" lon="5.99244722271">
		<tag k="name" v="Småga" />
		<tag k="place" v="locality" />
		<tag k="ssr:stedsnr" v="690041" />
	</node>
	<node id="-26119" lat="58.9380944405" lon="6.06447222064">
		<tag k="name" v="Tjørtomyr" />
		<tag k="natural" v="wetland" />
		<tag k="ssr:stedsnr" v="362649" />
	</node>
	<node id="-26288" lat="59.0094972232" lon="6.06871944363">
>>>>>>> e1d4bc35ff8a6074a6f2e91616a996b547c36f15
		<tag k="historic" v="shieling" />
		<tag k="name" v="Liastølen" />
		<tag k="place" v="locality" />
		<tag k="ssr:stedsnr" v="176790" />
	</node>
<<<<<<< HEAD
	<node lat="59.01241388584242" lon="6.0772333279672655" id="-807">
		<tag k="historic" v="shieling" />
		<tag k="name" v="Nyestølen" />
=======
	<node id="-25362" lat="59.0060777738" lon="6.1149277716">
		<tag k="alt_name" v="Røydegrovene" />
		<tag k="name" v="Røytegrovene" />
		<tag k="natural" v="wetland" />
		<tag k="ssr:stedsnr" v="244260" />
	</node>
	<node id="-26414" lat="59.0602749992" lon="6.00763333848">
		<tag k="name" v="Vassbø" />
>>>>>>> e1d4bc35ff8a6074a6f2e91616a996b547c36f15
		<tag k="place" v="locality" />
		<tag k="ssr:stedsnr" v="296326" />
	</node>
<<<<<<< HEAD
	<node lat="59.11446666540866" lon="6.144538882466763" id="-813">
		<tag k="alt_name" v="Nore Stølen" />
		<tag k="historic" v="shieling" />
		<tag k="name" v="Nordre Stølen" />
		<tag k="place" v="locality" />
		<tag k="ssr:stedsnr" v="297638" />
	</node>
	<node lat="59.04547500450619" lon="6.067066673480504" id="-818">
		<tag k="name" v="Litlemyr" />
		<tag k="natural" v="wetland" />
		<tag k="ssr:stedsnr" v="297970" />
	</node>
	<node lat="58.98312499753022" lon="6.035274996034055" id="-872">
		<tag k="name" v="Sjoarleitet" />
		<tag k="place" v="locality" />
		<tag k="ssr:stedsnr" v="357873" />
	</node>
	<node lat="58.938094440455174" lon="6.064472220643346" id="-884">
		<tag k="name" v="Tjørtomyr" />
=======
	<node id="-26297" lat="59.0839750043" lon="5.95956388879">
		<tag k="name" v="Tormyra" />
		<tag k="natural" v="wetland" />
		<tag k="ssr:stedsnr" v="600861" />
	</node>
	<node id="-25770" lat="59.1033138881" lon="6.04670000144">
		<tag k="alt_name" v="Grødeimsmyrane;Grødeimstorvmyrane" />
		<tag k="name" v="Grødheimsmyrane" />
>>>>>>> e1d4bc35ff8a6074a6f2e91616a996b547c36f15
		<tag k="natural" v="wetland" />
		<tag k="ssr:stedsnr" v="362649" />
	</node>
<<<<<<< HEAD
	<node lat="58.98973888507107" lon="6.155800004906331" id="-925">
		<tag k="name" v="Krogabekkmyra" />
=======
	<node id="-25485" lat="58.9780638848" lon="5.9568472151">
		<tag k="name" v="Hagane" />
		<tag k="place" v="locality" />
		<tag k="ssr:stedsnr" v="447008" />
	</node>
	<node id="-26155" lat="58.9797500036" lon="5.93636110298">
		<tag k="name" v="Kalhagmyra" />
>>>>>>> e1d4bc35ff8a6074a6f2e91616a996b547c36f15
		<tag k="natural" v="wetland" />
		<tag k="ssr:stedsnr" v="418671" />
	</node>
<<<<<<< HEAD
	<node lat="59.09696388943502" lon="6.011511113332994" id="-929">
		<tag k="name" v="Gjere" />
=======
	<node id="-25766" lat="58.9636694419" lon="6.05493611883">
		<tag k="name" v="Kroga" />
>>>>>>> e1d4bc35ff8a6074a6f2e91616a996b547c36f15
		<tag k="place" v="locality" />
		<tag k="ssr:stedsnr" v="419664" />
	</node>
<<<<<<< HEAD
	<node lat="59.083680551124694" lon="5.910247220464755" id="-985">
		<tag k="name" v="Snøregardsmyra" />
		<tag k="natural" v="wetland" />
		<tag k="ssr:stedsnr" v="547730" />
	</node>
	<node lat="59.08908333729642" lon="5.923872223642446" id="-988">
		<tag k="name" v="Nordmarka" />
		<tag k="place" v="locality" />
		<tag k="ssr:stedsnr" v="547754" />
	</node>
	<node lat="59.01223055778233" lon="6.083922225231267" id="-1000">
		<tag k="name" v="Rundamyra" />
		<tag k="natural" v="wetland" />
		<tag k="ssr:stedsnr" v="548400" />
	</node>
	<node lat="59.00949722324395" lon="6.068719443625985" id="-1018">
		<tag k="historic" v="shieling" />
		<tag k="name" v="Gamlestølen" />
		<tag k="place" v="locality" />
		<tag k="ssr:stedsnr" v="599346" />
	</node>
	<node lat="59.05174444654105" lon="5.980466668883539" id="-1023">
		<tag k="name" v="Varamyra" />
		<tag k="natural" v="wetland" />
		<tag k="ssr:stedsnr" v="600893" />
	</node>
	<node lat="58.9986694409347" lon="6.13905833924873" id="-1071">
		<tag k="name" v="Gjeldasteinen" />
=======
	<node id="-25381" lat="58.9419694451" lon="6.04917222604">
		<tag k="name" v="Steinbergskogen" />
		<tag k="place" v="locality" />
		<tag k="ssr:stedsnr" v="302872" />
	</node>
	<node id="-25250" lat="59.0810611138" lon="5.9949111173">
		<tag k="name" v="Grønamyra" />
		<tag k="natural" v="wetland" />
		<tag k="ssr:stedsnr" v="54861" />
	</node>
	<node id="-25505" lat="59.0419861138" lon="6.06645555855">
		<tag k="name" v="Øygjasteinen" />
		<tag k="natural" v="stone" />
		<tag k="ssr:stedsnr" v="661980" />
	</node>
	<node id="-25376" lat="59.1151944467" lon="6.03484166459">
		<tag k="name" v="Kammasteinen" />
		<tag k="natural" v="stone" />
		<tag k="ssr:stedsnr" v="449934" />
	</node>
	<node id="-25375" lat="59.1171472214" lon="6.04166389647">
		<tag k="name" v="Ådnasteinen" />
>>>>>>> e1d4bc35ff8a6074a6f2e91616a996b547c36f15
		<tag k="natural" v="stone" />
		<tag k="ssr:stedsnr" v="449930" />
	</node>
<<<<<<< HEAD
	<node lat="59.066158331232124" lon="6.164333339114055" id="-1096">
		<tag k="name" v="Grimsli" />
=======
	<node id="-26270" lat="59.0691666697" lon="5.96076945247">
		<tag k="alt_name" v="Kvammaurda;Kvamsura" />
		<tag k="name" v="Kvamaura" />
		<tag k="natural" v="scree" />
		<tag k="ssr:stedsnr" v="548668" />
	</node>
	<node id="-25885" lat="58.9955749959" lon="6.10500833063">
		<tag k="alt_name" v="Jøssongmyrane" />
		<tag k="name" v="Jøssangmyrane" />
		<tag k="natural" v="wetland" />
		<tag k="ssr:stedsnr" v="61831" />
	</node>
	<node id="-26012" lat="59.0257666695" lon="5.95789166606">
		<tag k="name" v="Klemmå" />
>>>>>>> e1d4bc35ff8a6074a6f2e91616a996b547c36f15
		<tag k="place" v="locality" />
		<tag k="ssr:stedsnr" v="669651" />
	</node>
	<node lat="59.114411108702875" lon="6.037933336301678" id="-1099">
		<tag k="alt_name" v="Urå" />
		<tag k="name" v="Urda" />
		<tag k="natural" v="scree" />
		<tag k="ssr:stedsnr" v="669746" />
	</node>
<<<<<<< HEAD
	<node lat="58.99814166548119" lon="6.0899388973542985" id="-1130">
=======
	<node id="-25327" lat="59.0124138858" lon="6.07723332797">
>>>>>>> e1d4bc35ff8a6074a6f2e91616a996b547c36f15
		<tag k="historic" v="shieling" />
		<tag k="name" v="Nyestølen" />
		<tag k="place" v="locality" />
		<tag k="ssr:stedsnr" v="296326" />
	</node>
	<node id="-26008" lat="59.0432305569" lon="6.20817222415">
		<tag k="historic" v="shieling" />
		<tag k="name" v="Liastølen" />
		<tag k="place" v="locality" />
		<tag k="ssr:stedsnr" v="176790" />
	</node>
<<<<<<< HEAD
	<node lat="59.04783610960391" lon="6.042361103709407" id="-1140">
=======
	<node id="-26263" lat="59.0025666685" lon="6.0925583313">
		<tag k="alt_name" v="Jøssongurda" />
		<tag k="name" v="Jøssangurda" />
		<tag k="natural" v="scree" />
		<tag k="ssr:stedsnr" v="548269" />
	</node>
	<node id="-26265" lat="59.0122305578" lon="6.08392222523">
		<tag k="name" v="Rundamyra" />
		<tag k="natural" v="wetland" />
		<tag k="ssr:stedsnr" v="548400" />
	</node>
	<node id="-26004" lat="59.0859027791" lon="6.01582499809">
		<tag k="name" v="Høgemyr" />
		<tag k="natural" v="wetland" />
		<tag k="ssr:stedsnr" v="176653" />
	</node>
	<node id="-25875" lat="59.0341833306" lon="6.04588610417">
		<tag k="name" v="Klovsteinen" />
		<tag k="natural" v="stone" />
		<tag k="ssr:stedsnr" v="55974" />
	</node>
	<node id="-25874" lat="59.0368277751" lon="6.10603888779">
		<tag k="name" v="Guromyr" />
		<tag k="natural" v="wetland" />
		<tag k="ssr:stedsnr" v="55964" />
	</node>
	<node id="-25624" lat="59.0478361096" lon="6.04236110371">
>>>>>>> e1d4bc35ff8a6074a6f2e91616a996b547c36f15
		<tag k="name" v="Rogasteinen" />
		<tag k="natural" v="stone" />
		<tag k="ssr:stedsnr" v="722885" />
	</node>
<<<<<<< HEAD
	<node lat="58.98379722605165" lon="5.924866671687237" id="-1163">
		<tag k="name" v="Jupedalsmyra" />
		<tag k="natural" v="wetland" />
		<tag k="ssr:stedsnr" v="751097" />
	</node>
	<node lat="58.97518888441318" lon="5.945941659209774" id="-1166">
		<tag k="name" v="Storeur" />
=======
	<node id="-26381" lat="59.05599167" lon="6.00198889082">
		<tag k="name" v="Longemyr" />
		<tag k="natural" v="wetland" />
		<tag k="ssr:stedsnr" v="783864" />
	</node>
	<node id="-26509" lat="58.9948777769" lon="6.12448333442">
		<tag k="name" v="Klimpamyra" />
		<tag k="natural" v="wetland" />
		<tag k="ssr:stedsnr" v="965951" />
	</node>
	<node id="-26508" lat="59.062199996" lon="6.03583889393">
		<tag k="name" v="Treå" />
		<tag k="place" v="locality" />
		<tag k="ssr:stedsnr" v="965896" />
	</node>
	<node id="-25301" lat="58.9808833343" lon="5.92735278203">
		<tag k="name" v="Kalvhaga" />
		<tag k="place" v="locality" />
		<tag k="ssr:stedsnr" v="265095" />
	</node>
	<node id="-26250" lat="59.0890833373" lon="5.92387222364">
		<tag k="name" v="Nordmarka" />
		<tag k="place" v="locality" />
		<tag k="ssr:stedsnr" v="547754" />
	</node>
	<node id="-25993" lat="59.0249249968" lon="6.11996943998">
		<tag k="historic" v="shieling" />
		<tag k="name" v="Stølen" />
		<tag k="place" v="locality" />
		<tag k="ssr:stedsnr" v="175304" />
	</node>
	<node id="-25864" lat="59.0811361146" lon="5.9992166592">
		<tag k="name" v="Svartamyra" />
		<tag k="natural" v="wetland" />
		<tag k="ssr:stedsnr" v="55632" />
	</node>
	<node id="-26247" lat="59.0836805511" lon="5.91024722046">
		<tag k="name" v="Snøregardsmyra" />
		<tag k="natural" v="wetland" />
		<tag k="ssr:stedsnr" v="547730" />
	</node>
	<node id="-25350" lat="59.0429416712" lon="6.05871945173">
		<tag k="name" v="Velandsmyra" />
		<tag k="natural" v="wetland" />
		<tag k="ssr:stedsnr" v="297971" />
	</node>
	<node id="-25861" lat="59.0792638908" lon="5.96134166163">
		<tag k="name" v="Kvamamyra" />
		<tag k="natural" v="wetland" />
		<tag k="ssr:stedsnr" v="54882" />
	</node>
	<node id="-26475" lat="59.0850888917" lon="6.08475833475">
		<tag k="alt_name" v="Gjeidura" />
		<tag k="name" v="Geiturda" />
>>>>>>> e1d4bc35ff8a6074a6f2e91616a996b547c36f15
		<tag k="natural" v="scree" />
		<tag k="ssr:stedsnr" v="851680" />
	</node>
	<node lat="58.95081666969569" lon="6.06199721364049" id="-1181">
		<tag k="name" v="Maramyra" />
		<tag k="natural" v="wetland" />
		<tag k="ssr:stedsnr" v="782529" />
	</node>
	<node lat="59.01996388827483" lon="6.139327777030223" id="-1273">
		<tag k="name" v="Trongevegen" />
		<tag k="place" v="locality" />
		<tag k="ssr:stedsnr" v="964247" />
	</node>
	<node lat="58.994877776872606" lon="6.124483334418237" id="-1281">
		<tag k="name" v="Klimpamyra" />
		<tag k="natural" v="wetland" />
		<tag k="ssr:stedsnr" v="965951" />
	</node>
</osm>
