<?xml version="1.0" encoding="UTF-8"?>
<osm version="0.6" generator="osmapis">
	<node lat="58.99414444130632" lon="5.9124305570396265" id="-2923">
		<tag k="name" v="Leirvåg" />
		<tag k="natural" v="bay" />
		<tag k="ssr:stedsnr" v="23138" />
	</node>
	<node lat="59.051666668327805" lon="5.8176194408800415" id="-2926">
		<tag k="name" v="Rudlenesvika" />
		<tag k="natural" v="bay" />
		<tag k="ssr:stedsnr" v="235355" />
	</node>
	<node lat="59.130844440593336" lon="6.077788896797675" id="-2934">
		<tag k="name" v="Altersvika" />
		<tag k="natural" v="bay" />
		<tag k="ssr:stedsnr" v="236495" />
	</node>
	<node lat="59.13418611412652" lon="6.087330560015873" id="-2935">
		<tag k="name" v="Grønavigneset" />
		<tag k="natural" v="cape" />
		<tag k="ssr:stedsnr" v="236497" />
	</node>
	<node lat="59.124177781749786" lon="6.030411114026052" id="-2936">
		<tag k="fixme" v="consider seamark:type=rock or natural=shoal" />
		<tag k="name" v="Austra Kværaskjeret" />
		<tag k="place" v="islet" />
		<tag k="ssr:stedsnr" v="236531" />
	</node>
	<node lat="58.95553611259103" lon="6.134544443056331" id="-2938">
		<tag k="name" v="Lyngtonå" />
		<tag k="natural" v="cape" />
		<tag k="ssr:stedsnr" v="236878" />
	</node>
	<node lat="59.11929166846311" lon="5.975305549042914" id="-2971">
		<tag k="name" v="Brattsteinsvika" />
		<tag k="natural" v="bay" />
		<tag k="ssr:stedsnr" v="62524" />
	</node>
	<node lat="58.97332222464091" lon="5.980136110980364" id="-2997">
		<tag k="name" v="Oderstokkvik" />
		<tag k="natural" v="bay" />
		<tag k="ssr:stedsnr" v="83048" />
	</node>
	<node lat="58.983902773544514" lon="5.972758328586019" id="-2998">
		<tag k="name" v="Skarvoddavik" />
		<tag k="natural" v="bay" />
		<tag k="ssr:stedsnr" v="83053" />
	</node>
	<node lat="58.97461944278626" lon="5.949911110374289" id="-2999">
		<tag k="name" v="Skånhidler" />
		<tag k="natural" v="cape" />
		<tag k="ssr:stedsnr" v="83054" />
	</node>
	<node lat="58.93231944407901" lon="6.098422230090545" id="-3003">
		<tag k="alt_name" v="Linnevig" />
		<tag k="name" v="Linnevik" />
		<tag k="natural" v="bay" />
		<tag k="ssr:stedsnr" v="115383" />
	</node>
	<node lat="58.958127774012176" lon="6.139497223535024" id="-3004">
		<tag k="name" v="Rekeneset" />
		<tag k="natural" v="cape" />
		<tag k="ssr:stedsnr" v="115386" />
	</node>
	<node lat="58.98426110661621" lon="5.998844437940744" id="-3007">
		<tag k="name" v="Straumen" />
		<tag k="natural" v="strait" />
		<tag k="ssr:stedsnr" v="115808" />
	</node>
	<node lat="59.04178888761677" lon="5.834088881364183" id="-3023">
		<tag k="name" v="Bersuggehammaren" />
		<tag k="natural" v="cape" />
		<tag k="ssr:stedsnr" v="174370" />
	</node>
	<node lat="59.04338888926266" lon="5.819080557724837" id="-3024">
		<tag k="alt_name" v="Vestre Vågjen" />
		<tag k="name" v="Vestre Vågen" />
		<tag k="natural" v="bay" />
		<tag k="ssr:stedsnr" v="174373" />
	</node>
	<node lat="58.963341666503226" lon="6.149416675308277" id="-3026">
		<tag k="name" v="Fantajuvneset" />
		<tag k="natural" v="cape" />
		<tag k="ssr:stedsnr" v="175880" />
	</node>
	<node lat="59.02327222308877" lon="6.021777780668447" id="-3027">
		<tag k="name" v="Norlys" />
		<tag k="natural" v="beach" />
		<tag k="ssr:stedsnr" v="176058" />
	</node>
	<node lat="59.1297749974989" lon="6.062758331112571" id="-3029">
		<tag k="name" v="Hildradn" />
		<tag k="natural" v="cape" />
		<tag k="ssr:stedsnr" v="176456" />
	</node>
	<node lat="58.971838888087724" lon="5.990574991857912" id="-3038">
		<tag k="name" v="Nodavik" />
		<tag k="natural" v="bay" />
		<tag k="ssr:stedsnr" v="326046" />
	</node>
	<node lat="58.981158336398266" lon="5.974013893131612" id="-3039">
		<tag k="name" v="Norste" />
		<tag k="natural" v="bay" />
		<tag k="ssr:stedsnr" v="326047" />
	</node>
	<node lat="58.98618889272717" lon="5.9742138868564965" id="-3049">
		<tag k="name" v="Treoddavik" />
		<tag k="natural" v="bay" />
		<tag k="ssr:stedsnr" v="265052" />
	</node>
	<node lat="58.98993610710717" lon="5.9033666670012925" id="-3053">
		<tag k="name" v="Tangavika" />
		<tag k="natural" v="bay" />
		<tag k="ssr:stedsnr" v="205116" />
	</node>
	<node lat="58.91757222212067" lon="6.056622221230462" id="-3067">
		<tag k="name" v="Krågetona" />
		<tag k="natural" v="cape" />
		<tag k="ssr:stedsnr" v="239706" />
	</node>
	<node lat="58.905269446195966" lon="6.071294441732085" id="-3069">
		<tag k="name" v="Strandteigen" />
		<tag k="natural" v="beach" />
		<tag k="ssr:stedsnr" v="241032" />
	</node>
	<node lat="59.06441388999539" lon="5.900488893318744" id="-3079">
		<tag k="name" v="Grimshammar" />
		<tag k="natural" v="cape" />
		<tag k="ssr:stedsnr" v="244692" />
	</node>
	<node lat="58.98814444536951" lon="5.906591674690844" id="-3089">
		<tag k="name" v="Skrubbavik" />
		<tag k="natural" v="bay" />
		<tag k="ssr:stedsnr" v="265111" />
	</node>
	<node lat="58.93911388859617" lon="6.02260555554655" id="-3095">
		<tag k="alt_name" v="Nonsteviga" />
		<tag k="name" v="Nonstevika" />
		<tag k="natural" v="bay" />
		<tag k="ssr:stedsnr" v="283302" />
	</node>
	<node lat="59.12161849578286" lon="5.9846805625101425" id="-3096">
		<tag k="name" v="Skibevik" />
		<tag k="natural" v="bay" />
		<tag k="ssr:stedsnr" v="295287" />
	</node>
	<node lat="59.11658888531139" lon="5.962663884326767" id="-3111">
		<tag k="name" v="Håneset" />
		<tag k="natural" v="cape" />
		<tag k="ssr:stedsnr" v="304522" />
	</node>
	<node lat="59.100296085100204" lon="5.9179709036367925" id="-3124">
		<tag k="alt_name" v="Ådnaskjeret" />
		<tag k="fixme" v="consider seamark:type=rock or natural=shoal" />
		<tag k="name" v="Ådnaskjera" />
		<tag k="place" v="islet" />
		<tag k="ssr:stedsnr" v="327920" />
	</node>
	<node lat="58.94048888716197" lon="6.120224992599225" id="-3135">
		<tag k="bay" v="fjord" />
		<tag k="name" v="Lysefjorden" />
		<tag k="natural" v="bay" />
		<tag k="ssr:stedsnr" v="364713" />
	</node>
	<node lat="59.10038888629046" lon="5.982774998316371" id="-3206">
		<tag k="name" v="Hestholmen" />
		<tag k="place" v="islet" />
		<tag k="ssr:stedsnr" v="419789" />
	</node>
	<node lat="59.00288888804532" lon="6.236699991884952" id="-3223">
		<tag k="name" v="Hengjandeviga" />
		<tag k="natural" v="bay" />
		<tag k="ssr:stedsnr" v="427211" />
	</node>
	<node lat="58.96538333345122" lon="6.1539972142947805" id="-3238">
		<tag k="name" v="Gloppeneset" />
		<tag k="natural" v="cape" />
		<tag k="ssr:stedsnr" v="479373" />
	</node>
	<node lat="59.05207777497429" lon="5.804391668139435" id="-3259">
		<tag k="name" v="Prestholmane" />
		<tag k="place" v="islet" />
		<tag k="ssr:stedsnr" v="538369" />
	</node>
	<node lat="59.02011389051878" lon="5.964402770090946" id="-3265">
		<tag k="name" v="Søre Nagaklubben" />
		<tag k="natural" v="cape" />
		<tag k="ssr:stedsnr" v="540965" />
	</node>
	<node lat="58.993597222463244" lon="5.932924998765399" id="-3280">
		<tag k="name" v="Snigjen" />
		<tag k="natural" v="cape" />
		<tag k="ssr:stedsnr" v="568063" />
	</node>
	<node lat="58.936663892509515" lon="6.034483339268473" id="-3281">
		<tag k="name" v="Lerangsvågen" />
		<tag k="natural" v="bay" />
		<tag k="ssr:stedsnr" v="693268" />
	</node>
	<node lat="58.99614722493161" lon="6.076366673107167" id="-3308">
		<tag k="alt_name" v="Tågrunnen" />
		<tag k="name" v="Toagrunnen" />
		<tag k="natural" v="shoal" />
		<tag k="place" v="locality" />
		<tag k="ssr:stedsnr" v="632234" />
	</node>
	<node lat="59.006133335652166" lon="5.908233330383978" id="-3310">
		<tag k="name" v="Knibringen" />
		<tag k="place" v="islet" />
		<tag k="ssr:stedsnr" v="647385" />
	</node>
	<node lat="58.947625002220796" lon="6.014463885283764" id="-3313">
		<tag k="alt_name" v="Uraviga" />
		<tag k="name" v="Uravik" />
		<tag k="natural" v="bay" />
		<tag k="ssr:stedsnr" v="708353" />
	</node>
	<node lat="59.12531388724639" lon="6.02865277831016" id="-3317">
		<tag k="fixme" v="consider seamark:type=rock or natural=shoal" />
		<tag k="name" v="Nora Kværaskjeret" />
		<tag k="place" v="islet" />
		<tag k="ssr:stedsnr" v="661531" />
	</node>
	<node lat="59.068350001396304" lon="5.890700005646479" id="-3320">
		<tag k="name" v="Harholmsundet" />
		<tag k="natural" v="beach" />
		<tag k="ssr:stedsnr" v="662208" />
	</node>
	<node lat="59.000069445377015" lon="5.893022215725566" id="-3336">
		<tag k="name" v="Kobbholmen" />
		<tag k="place" v="islet" />
		<tag k="ssr:stedsnr" v="690110" />
	</node>
	<node lat="59.12811944158599" lon="6.0574111133446875" id="-3346">
		<tag k="name" v="Flyndrevika" />
		<tag k="natural" v="bay" />
		<tag k="ssr:stedsnr" v="722516" />
	</node>
	<node lat="59.140927774358374" lon="6.089991660530183" id="-3359">
		<tag k="name" v="Bjørnholmen" />
		<tag k="place" v="islet" />
		<tag k="ssr:stedsnr" v="730570" />
	</node>
	<node lat="58.96473611554956" lon="6.150344446551245" id="-3370">
		<tag k="name" v="Fantahola" />
		<tag k="natural" v="bay" />
		<tag k="ssr:stedsnr" v="904375" />
	</node>
	<node lat="58.98616944714478" lon="5.996988886314719" id="-3377">
		<tag k="name" v="Makrellvika" />
		<tag k="natural" v="bay" />
		<tag k="ssr:stedsnr" v="904836" />
	</node>
	<node lat="59.10261666614684" lon="5.984691671158129" id="-3381">
		<tag k="name" v="Eigjarvika" />
		<tag k="natural" v="bay" />
		<tag k="ssr:stedsnr" v="904790" />
	</node>
	<node lat="58.964722225396564" lon="6.149666669846597" id="-3384">
		<tag k="name" v="Tungå" />
		<tag k="natural" v="cape" />
		<tag k="ssr:stedsnr" v="904890" />
	</node>
	<node lat="59.052905557426904" lon="5.82270277599625" id="-3389">
		<tag k="name" v="Mangela" />
		<tag k="natural" v="cape" />
		<tag k="ssr:stedsnr" v="781323" />
	</node>
	<node lat="58.99229722446185" lon="6.071922225103483" id="-3390">
		<tag k="name" v="Storaneset" />
		<tag k="natural" v="cape" />
		<tag k="ssr:stedsnr" v="781352" />
	</node>
	<node lat="58.93381355081359" lon="6.04029460449651" id="-3391">
		<tag k="alt_name" v="Nordre Skjeivika" />
		<tag k="name" v="Ytra Skeivika" />
		<tag k="natural" v="bay" />
		<tag k="ssr:stedsnr" v="909886" />
	</node>
	<node lat="58.94865277876588" lon="6.009852779451433" id="-3392">
		<tag k="name" v="Trellskår" />
		<tag k="natural" v="cape" />
		<tag k="ssr:stedsnr" v="909894" />
	</node>
	<node lat="58.90866118311589" lon="6.064505784379346" id="-3402">
		<tag k="name" v="Skottilja" />
		<tag k="natural" v="bay" />
		<tag k="ssr:stedsnr" v="783519" />
	</node>
	<node lat="59.100588888872785" lon="5.932755563569435" id="-3422">
		<tag k="name" v="Naustervika" />
		<tag k="natural" v="bay" />
		<tag k="ssr:stedsnr" v="790761" />
	</node>
	<node lat="59.04843889057596" lon="5.815636110592603" id="-3427">
		<tag k="name" v="Novaneset" />
		<tag k="natural" v="cape" />
		<tag k="ssr:stedsnr" v="911793" />
	</node>
	<node lat="59.03964166817945" lon="5.834480556069541" id="-3441">
		<tag k="name" v="Gotun" />
		<tag k="natural" v="cape" />
		<tag k="ssr:stedsnr" v="912761" />
	</node>
	<node lat="59.0502305547997" lon="5.824258333673873" id="-3456">
		<tag k="alt_name" v="Seivika" />
		<tag k="name" v="Seiavika" />
		<tag k="natural" v="bay" />
		<tag k="ssr:stedsnr" v="842311" />
	</node>
	<node lat="59.13858888915835" lon="6.094599992686245" id="-3462">
		<tag k="name" v="Svettarvika" />
		<tag k="natural" v="bay" />
		<tag k="ssr:stedsnr" v="843525" />
	</node>
	<node lat="58.95796388544701" lon="6.139841670040643" id="-3464">
		<tag k="name" v="Rekneneset" />
		<tag k="natural" v="cape" />
		<tag k="ssr:stedsnr" v="843879" />
	</node>
	<node lat="59.102311107872154" lon="5.931850007084097" id="-3482">
		<tag k="alt_name" v="Allsvikklubben" />
		<tag k="name" v="Alsvikklubben" />
		<tag k="natural" v="cape" />
		<tag k="ssr:stedsnr" v="851722" />
	</node>
	<node lat="59.02389166234928" lon="5.975241662427074" id="-3492">
		<tag k="loc_name" v="Tveitavik" />
		<tag k="name" v="Tveidevik" />
		<tag k="natural" v="bay" />
		<tag k="ssr:stedsnr" v="854965" />
	</node>
	<node lat="58.925825004101725" lon="6.051680548391046" id="-3493">
		<tag k="name" v="Kløvodden" />
		<tag k="natural" v="cape" />
		<tag k="ssr:stedsnr" v="889909" />
	</node>
	<node lat="59.06105555990373" lon="6.009905560387308" id="-3504">
		<tag k="name" v="Bekkaneset" />
		<tag k="natural" v="cape" />
		<tag k="ssr:stedsnr" v="904914" />
	</node>
	<node lat="58.99863055648721" lon="6.223324997786933" id="-3532">
		<tag k="name" v="Geitatørne" />
		<tag k="natural" v="beach" />
		<tag k="ssr:stedsnr" v="614" />
	</node>
	<node lat="58.99345277996976" lon="5.908344448139908" id="-3542">
		<tag k="alt_name" v="Slirå" />
		<tag k="name" v="Slira" />
		<tag k="natural" v="cape" />
		<tag k="ssr:stedsnr" v="866" />
	</node>
	<node lat="59.020449999563795" lon="5.901500004763411" id="-3545">
		<tag k="name" v="Hagavika" />
		<tag k="natural" v="bay" />
		<tag k="ssr:stedsnr" v="1353" />
	</node>
	<node lat="59.00801897018602" lon="6.054345553249706" id="-3552">
		<tag k="name" v="Storevik" />
		<tag k="natural" v="bay" />
		<tag k="ssr:stedsnr" v="2259" />
	</node>
	<node lat="58.946266665158625" lon="6.108499998753622" id="-3561">
		<tag k="name" v="Foreklubben" />
		<tag k="natural" v="cape" />
		<tag k="ssr:stedsnr" v="41618" />
	</node>
	<node lat="59.03976666868349" lon="5.791741663469734" id="-3562">
		<tag k="name" v="Lyrasteinen" />
		<tag k="natural" v="shoal" />
		<tag k="place" v="locality" />
		<tag k="ssr:stedsnr" v="53349" />
	</node>
	<node lat="58.99549722479201" lon="6.045808340923295" id="-3564">
		<tag k="name" v="Slottsvika" />
		<tag k="natural" v="bay" />
		<tag k="ssr:stedsnr" v="54151" />
	</node>
	<node lat="59.12963055473099" lon="6.082947227755191" id="-3566">
		<tag k="name" v="Skiftesvika" />
		<tag k="natural" v="bay" />
		<tag k="ssr:stedsnr" v="54531" />
	</node>
	<node lat="59.02241667070273" lon="5.951894451019291" id="-3584">
		<tag k="name" v="Litlevik" />
		<tag k="natural" v="bay" />
		<tag k="ssr:stedsnr" v="55979" />
	</node>
	<node lat="58.987651740292634" lon="6.200550461370575" id="-3598">
		<tag k="alt_name" v="Skiddvik" />
		<tag k="name" v="Skitvika" />
		<tag k="natural" v="bay" />
		<tag k="ssr:stedsnr" v="62781" />
	</node>
	<node lat="58.98432221945822" lon="6.088425008162232" id="-3618">
		<tag k="name" v="Notvoll" />
		<tag k="natural" v="cape" />
		<tag k="ssr:stedsnr" v="115352" />
	</node>
	<node lat="58.94965909566987" lon="6.011450337038225" id="-3622">
		<tag k="alt_name" v="Trellskårviga" />
		<tag k="name" v="Trellskårvika" />
		<tag k="natural" v="bay" />
		<tag k="ssr:stedsnr" v="115396" />
	</node>
	<node lat="59.02593055455151" lon="5.89706943633233" id="-3649">
		<tag k="name" v="Neset" />
		<tag k="natural" v="cape" />
		<tag k="ssr:stedsnr" v="123376" />
	</node>
	<node lat="59.01835555799682" lon="5.902280561207824" id="-3652">
		<tag k="alt_name" v="Gosteodden" />
		<tag k="name" v="Gusteodden" />
		<tag k="natural" v="cape" />
		<tag k="ssr:stedsnr" v="123383" />
	</node>
	<node lat="58.97625833571974" lon="5.966227779182126" id="-3660">
		<tag k="alt_name" v="Tangjen" />
		<tag k="name" v="Tangen" />
		<tag k="natural" v="cape" />
		<tag k="ssr:stedsnr" v="144068" />
	</node>
	<node lat="58.992638887193664" lon="5.904113881016324" id="-3663">
		<tag k="name" v="Seiavik" />
		<tag k="natural" v="bay" />
		<tag k="ssr:stedsnr" v="144131" />
	</node>
	<node lat="59.1221277749932" lon="6.026813881088546" id="-3676">
		<tag k="name" v="Litle Kværa" />
		<tag k="place" v="islet" />
		<tag k="ssr:stedsnr" v="176520" />
	</node>
	<node lat="59.01751944208342" lon="6.039402769606618" id="-3701">
		<tag k="name" v="Vågen" />
		<tag k="natural" v="bay" />
		<tag k="ssr:stedsnr" v="184377" />
	</node>
	<node lat="59.135666662774234" lon="6.067780557997335" id="-3702">
		<tag k="fixme" v="consider seamark:type=rock or natural=shoal" />
		<tag k="name" v="Notaskjeret" />
		<tag k="place" v="islet" />
		<tag k="ssr:stedsnr" v="184540" />
	</node>
	<node lat="59.063191667568404" lon="5.905719444415152" id="-3708">
		<tag k="name" v="Kvednaneset" />
		<tag k="natural" v="cape" />
		<tag k="ssr:stedsnr" v="186930" />
	</node>
	<node lat="58.99645555862819" lon="5.914422214573491" id="-3709">
		<tag k="name" v="Oksafoten" />
		<tag k="natural" v="cape" />
		<tag k="ssr:stedsnr" v="205073" />
	</node>
	<node lat="58.97669999808028" lon="6.0060111166675485" id="-3721">
		<tag k="loc_name" v="Kobbholmen" />
		<tag k="name" v="Koppholmen" />
		<tag k="place" v="islet" />
		<tag k="ssr:stedsnr" v="297851" />
	</node>
	<node lat="59.03979722581814" lon="5.818072213553861" id="-3744">
		<tag k="name" v="Neset" />
		<tag k="natural" v="cape" />
		<tag k="ssr:stedsnr" v="304365" />
	</node>
	<node lat="59.051824998404236" lon="5.8147111047130835" id="-3757">
		<tag k="alt_name" v="Rudleneset" />
		<tag k="name" v="Rullenes" />
		<tag k="natural" v="cape" />
		<tag k="ssr:stedsnr" v="304794" />
	</node>
	<node lat="58.985844440915535" lon="5.95770277492806" id="-3773">
		<tag k="name" v="Sjøhusgrunnen" />
		<tag k="natural" v="beach" />
		<tag k="ssr:stedsnr" v="326002" />
	</node>
	<node lat="58.98733333724762" lon="5.909227779926976" id="-3774">
		<tag k="name" v="Snerkevik" />
		<tag k="natural" v="bay" />
		<tag k="ssr:stedsnr" v="326089" />
	</node>
	<node lat="59.02411110704555" lon="5.899858329492846" id="-3780">
		<tag k="name" v="Naustrå" />
		<tag k="natural" v="beach" />
		<tag k="ssr:stedsnr" v="357095" />
	</node>
	<node lat="58.98870277531918" lon="6.080638890211421" id="-3783">
		<tag k="name" v="Haganeset" />
		<tag k="natural" v="cape" />
		<tag k="ssr:stedsnr" v="357323" />
	</node>
	<node lat="58.94283332951834" lon="6.019380555148336" id="-3785">
		<tag k="name" v="Melingviga" />
		<tag k="natural" v="bay" />
		<tag k="ssr:stedsnr" v="357358" />
	</node>
	<node lat="59.02506110809313" lon="5.894791674446825" id="-3809">
		<tag k="alt_name" v="Hengvika;Vigjå" />
		<tag k="name" v="Vika" />
		<tag k="natural" v="bay" />
		<tag k="ssr:stedsnr" v="365350" />
	</node>
	<node lat="59.064266668635646" lon="5.901800001010868" id="-3813">
		<tag k="name" v="Sandvika" />
		<tag k="natural" v="bay" />
		<tag k="ssr:stedsnr" v="365364" />
	</node>
	<node lat="59.116133330199034" lon="6.014244438146562" id="-3815">
		<tag k="name" v="Kuneset" />
		<tag k="natural" v="cape" />
		<tag k="ssr:stedsnr" v="365383" />
	</node>
	<node lat="58.971013885384664" lon="5.984752772305145" id="-3817">
		<tag k="alt_name" v="Rekavika, vestre;Regarvik" />
		<tag k="name" v="Vestra Rekavika" />
		<tag k="natural" v="bay" />
		<tag k="ssr:stedsnr" v="365781" />
	</node>
	<node lat="59.00662143107852" lon="6.05945654715451" id="-3830">
		<tag k="alt_name" v="Skjersviga" />
		<tag k="name" v="Skjersvika" />
		<tag k="natural" v="bay" />
		<tag k="ssr:stedsnr" v="390227" />
	</node>
	<node lat="58.948766664607554" lon="6.01059166914784" id="-3831">
		<tag k="name" v="Trellskår" />
		<tag k="natural" v="cape" />
		<tag k="ssr:stedsnr" v="390240" />
	</node>
	<node lat="59.126843167223434" lon="6.01803240724658" id="-3833">
		<tag k="bay" v="fjord" />
		<tag k="name" v="Ytre Årdalsfjorden" />
		<tag k="natural" v="bay" />
		<tag k="ssr:stedsnr" v="403455" />
	</node>
	<node lat="59.02038333540593" lon="5.961277780318637" id="-3850">
		<tag k="name" v="Valvik" />
		<tag k="natural" v="bay" />
		<tag k="ssr:stedsnr" v="419963" />
	</node>
	<node lat="58.97133611257767" lon="6.167933330830763" id="-3853">
		<tag k="alt_name" v="Torshamn" />
		<tag k="name" v="Torshamnen" />
		<tag k="natural" v="bay" />
		<tag k="ssr:stedsnr" v="426798" />
	</node>
	<node lat="59.001488890755454" lon="6.045902783168189" id="-3863">
		<tag k="alt_name" v="Botnsfjorden;Botnefjord" />
		<tag k="bay" v="fjord" />
		<tag k="name" v="Botnefjorden" />
		<tag k="natural" v="bay" />
		<tag k="ssr:stedsnr" v="427284" />
	</node>
	<node lat="58.97909444013867" lon="5.9728944484444035" id="-3869">
		<tag k="name" v="Sjubevik" />
		<tag k="natural" v="bay" />
		<tag k="ssr:stedsnr" v="508056" />
	</node>
	<node lat="58.943458332517764" lon="6.104197214478904" id="-3882">
		<tag k="name" v="Klubben" />
		<tag k="natural" v="cape" />
		<tag k="ssr:stedsnr" v="539300" />
	</node>
	<node lat="59.019091663921856" lon="5.899561117661097" id="-3894">
		<tag k="name" v="Søre Heng" />
		<tag k="natural" v="cape" />
		<tag k="ssr:stedsnr" v="541245" />
	</node>
	<node lat="58.90388888970278" lon="6.073747222351598" id="-3895">
		<tag k="name" v="Oaneset" />
		<tag k="natural" v="cape" />
		<tag k="ssr:stedsnr" v="544035" />
	</node>
	<node lat="59.02450277541315" lon="5.903786119303653" id="-3900">
		<tag k="name" v="Tørregrunnen" />
		<tag k="natural" v="shoal" />
		<tag k="place" v="locality" />
		<tag k="ssr:stedsnr" v="547393" />
	</node>
	<node lat="58.985027777628" lon="6.194611108281521" id="-3912">
		<tag k="alt_name" v="Skarvasete" />
		<tag k="name" v="Skarvasetet" />
		<tag k="natural" v="cape" />
		<tag k="ssr:stedsnr" v="547787" />
	</node>
	<node lat="59.12346389143269" lon="5.934736117646023" id="-3922">
		<tag k="bay" v="fjord" />
		<tag k="name" v="Fognafjorden" />
		<tag k="natural" v="bay" />
		<tag k="ssr:stedsnr" v="548729" />
	</node>
	<node lat="59.109805556271766" lon="5.944727774448359" id="-3923">
		<tag k="name" v="Rubbaberget" />
		<tag k="natural" v="cape" />
		<tag k="ssr:stedsnr" v="548730" />
	</node>
	<node lat="58.98559722399781" lon="5.912227776755274" id="-3926">
		<tag k="name" v="Stokkaviksberget" />
		<tag k="natural" v="cape" />
		<tag k="ssr:stedsnr" v="568092" />
	</node>
	<node lat="58.978372220575295" lon="6.011872214795711" id="-3939">
		<tag k="alt_name" v="Longevollsvågen" />
		<tag k="name" v="Langevollsvågen" />
		<tag k="natural" v="bay" />
		<tag k="ssr:stedsnr" v="600845" />
	</node>
	<node lat="59.11699721907627" lon="5.966299999139528" id="-3946">
		<tag k="name" v="England" />
		<tag k="place" v="islet" />
		<tag k="ssr:stedsnr" v="600774" />
	</node>
	<node lat="58.99466666264484" lon="5.926869437247799" id="-3981">
		<tag k="name" v="Sandvika" />
		<tag k="natural" v="bay" />
		<tag k="ssr:stedsnr" v="629077" />
	</node>
	<node lat="58.99632222438358" lon="5.922625006048061" id="-3982">
		<tag k="name" v="Varavika" />
		<tag k="natural" v="bay" />
		<tag k="ssr:stedsnr" v="629079" />
	</node>
	<node lat="58.968160392285654" lon="6.156064274864113" id="-3984">
		<tag k="name" v="Stølahavn" />
		<tag k="natural" v="bay" />
		<tag k="ssr:stedsnr" v="631546" />
	</node>
	<node lat="58.987799996067345" lon="6.006824996374536" id="-4001">
		<tag k="name" v="Litle Foreholmen" />
		<tag k="place" v="islet" />
		<tag k="ssr:stedsnr" v="661817" />
	</node>
	<node lat="59.09978333487299" lon="5.960677782592032" id="-4002">
		<tag k="name" v="Eigjanes" />
		<tag k="natural" v="cape" />
		<tag k="ssr:stedsnr" v="661770" />
	</node>
	<node lat="59.021149998555785" lon="5.825111117402451" id="-4006">
		<tag k="name" v="Horgegrunnen" />
		<tag k="natural" v="shoal" />
		<tag k="place" v="locality" />
		<tag k="ssr:stedsnr" v="662222" />
	</node>
	<node lat="59.097789890830214" lon="5.919475029684047" id="-4008">
		<tag k="alt_name" v="Ådnahovud;Ådnahove" />
		<tag k="name" v="Ådnahovet" />
		<tag k="natural" v="cape" />
		<tag k="ssr:stedsnr" v="668751" />
	</node>
	<node lat="59.00732222077953" lon="5.913963895603618" id="-4026">
		<tag k="name" v="Svertingane" />
		<tag k="place" v="islet" />
		<tag k="ssr:stedsnr" v="669346" />
	</node>
	<node lat="59.1358638860931" lon="6.088500007198033" id="-4037">
		<tag k="name" v="Viervigane" />
		<tag k="natural" v="bay" />
		<tag k="ssr:stedsnr" v="889437" />
	</node>
	<node lat="59.07665000160509" lon="5.921075008480305" id="-4055">
		<tag k="name" v="Longaneset" />
		<tag k="natural" v="cape" />
		<tag k="ssr:stedsnr" v="722937" />
	</node>
	<node lat="59.022300002886496" lon="5.880783340989003" id="-4073">
		<tag k="name" v="Øykjatogrunnen" />
		<tag k="natural" v="shoal" />
		<tag k="place" v="locality" />
		<tag k="ssr:stedsnr" v="730351" />
	</node>
	<node lat="58.93816389201237" lon="5.964616669794343" id="-4081">
		<tag k="name" v="Erevik" />
		<tag k="natural" v="bay" />
		<tag k="ssr:stedsnr" v="751094" />
	</node>
	<node lat="58.95209722385982" lon="6.125786102940949" id="-4098">
		<tag k="alt_name" v="Skjeravig" />
		<tag k="name" v="Skjeravik" />
		<tag k="natural" v="bay" />
		<tag k="ssr:stedsnr" v="782342" />
	</node>
	<node lat="58.94941629409909" lon="6.119172328140634" id="-4099">
		<tag k="alt_name" v="Seiavig" />
		<tag k="name" v="Seiavik" />
		<tag k="natural" v="bay" />
		<tag k="ssr:stedsnr" v="782345" />
	</node>
	<node lat="59.07579444288984" lon="6.086574992541872" id="-4106">
		<tag k="name" v="Strannå" />
		<tag k="natural" v="beach" />
		<tag k="ssr:stedsnr" v="783876" />
	</node>
	<node lat="59.0553694428585" lon="5.915322223791734" id="-4124">
		<tag k="alt_name" v="Eriksanden" />
		<tag k="name" v="Erikssanden" />
		<tag k="natural" v="beach" />
		<tag k="ssr:stedsnr" v="790687" />
	</node>
	<node lat="58.945069444124044" lon="6.107591660126697" id="-4141">
		<tag k="name" v="Slettaberghola" />
		<tag k="natural" v="bay" />
		<tag k="ssr:stedsnr" v="843355" />
	</node>
	<node lat="59.021094440567566" lon="6.001386110201788" id="-4149">
		<tag k="name" v="Snapnes" />
		<tag k="natural" v="cape" />
		<tag k="ssr:stedsnr" v="844049" />
	</node>
	<node lat="59.02973610988481" lon="5.811680556231388" id="-4150">
		<tag k="name" v="Søre Hidlefjorden" />
		<tag k="natural" v="bay" />
		<tag k="ssr:stedsnr" v="845248" />
	</node>
	<node lat="58.93005277685562" lon="6.047147226811651" id="-4153">
		<tag k="alt_name" v="Indre Skjeivika" />
		<tag k="name" v="Indra Skeivika" />
		<tag k="natural" v="bay" />
		<tag k="ssr:stedsnr" v="848867" />
	</node>
	<node lat="59.04083332983328" lon="5.834980555082839" id="-4174">
		<tag k="name" v="Grønevik" />
		<tag k="natural" v="bay" />
		<tag k="ssr:stedsnr" v="851802" />
	</node>
	<node lat="59.0637981272145" lon="5.910040148948201" id="-4177">
		<tag k="name" v="Tauvågen" />
		<tag k="natural" v="bay" />
		<tag k="ssr:stedsnr" v="854934" />
	</node>
	<node lat="59.00248611493215" lon="6.236572216393262" id="-4181">
		<tag k="name" v="Lauvvik" />
		<tag k="natural" v="bay" />
		<tag k="ssr:stedsnr" v="874946" />
	</node>
	<node lat="59.13037777593634" lon="6.062322220821393" id="-4185">
		<tag k="name" v="Hidlegrunnen" />
		<tag k="natural" v="shoal" />
		<tag k="place" v="locality" />
		<tag k="ssr:stedsnr" v="889468" />
	</node>
	<node lat="58.99525709510349" lon="6.065079980524258" id="-4186">
		<tag k="alt_name" v="Skogaviga;Skogviki" />
		<tag k="name" v="Skogavik" />
		<tag k="natural" v="bay" />
		<tag k="ssr:stedsnr" v="936182" />
	</node>
	<node lat="59.049180559465185" lon="5.815249993671447" id="-4189">
		<tag k="name" v="Dalstøvika" />
		<tag k="natural" v="bay" />
		<tag k="ssr:stedsnr" v="963364" />
	</node>
	<node lat="58.938491667336486" lon="6.097902775972998" id="-4190">
		<tag k="alt_name" v="Timmervig" />
		<tag k="name" v="Timmervik" />
		<tag k="natural" v="bay" />
		<tag k="ssr:stedsnr" v="964391" />
	</node>
	<node lat="59.02246111432264" lon="6.026416666836239" id="-4198">
		<tag k="name" v="Strandvik" />
		<tag k="natural" v="bay" />
		<tag k="ssr:stedsnr" v="965055" />
	</node>
</osm>
