<?xml version="1.0" encoding="UTF-8"?>
<osm generator="osmapis" version="0.6">
	<node id="-26512" lat="59.0878958095" lon="6.10586047674">
		<tag k="alt_name" v="Bjøreimskjeften" />
		<tag k="name" v="Bjørheimskjeften" />
		<tag k="natural" v="valley" />
		<tag k="place" v="locality" />
		<tag k="ssr:stedsnr" v="972978" />
	</node>
	<node id="-26511" lat="58.9444416637" lon="6.0488027823">
		<tag k="name" v="Lunnarskar" />
		<tag k="natural" v="valley" />
		<tag k="place" v="locality" />
		<tag k="ssr:stedsnr" v="969886" />
	</node>
	<node id="-26510" lat="59.04665" lon="6.09919443871">
		<tag k="name" v="Regnaskaret" />
		<tag k="natural" v="valley" />
		<tag k="place" v="locality" />
		<tag k="ssr:stedsnr" v="965987" />
	</node>
	<node id="-26507" lat="59.0662638876" lon="6.04032221662">
		<tag k="name" v="Faraldshaugen" />
		<tag k="natural" v="hill" />
		<tag k="place" v="locality" />
		<tag k="ssr:stedsnr" v="965887" />
	</node>
	<node id="-26506" lat="59.0450944483" lon="6.07522500081">
		<tag k="name" v="Søra Småskaret" />
		<tag k="natural" v="valley" />
		<tag k="place" v="locality" />
		<tag k="ssr:stedsnr" v="965977" />
	</node>
	<node id="-26505" lat="58.9125583331" lon="6.06928055808">
		<tag k="fixme" v="consider natural=peak for the most distinct mountains in the district" />
		<tag k="name" v="Kjyllingvollen" />
		<tag k="natural" v="hill" />
		<tag k="place" v="locality" />
		<tag k="ssr:stedsnr" v="965532" />
	</node>
	<node id="-26504" lat="59.0696666645" lon="5.98018332782">
		<tag k="name" v="Bjønnshi" />
		<tag k="place" v="locality" />
		<tag k="ssr:stedsnr" v="964867" />
	</node>
	<node id="-26503" lat="58.9538527792" lon="6.12308333158">
		<tag k="name" v="Skjerajuvet" />
		<tag k="natural" v="gorge" />
		<tag k="ssr:stedsnr" v="964863" />
	</node>
	<node id="-26502" lat="58.9612833347" lon="6.14041943947">
		<tag k="name" v="Lausefjell" />
		<tag k="place" v="locality" />
		<tag k="ssr:stedsnr" v="964855" />
	</node>
	<node id="-26500" lat="58.980347222" lon="6.07788055546">
		<tag k="name" v="Kammadalen" />
		<tag k="natural" v="valley" />
		<tag k="place" v="locality" />
		<tag k="ssr:stedsnr" v="964291" />
	</node>
	<node id="-26498" lat="59.0074333371" lon="6.21581111379">
		<tag k="name" v="Skogavannskleiva" />
		<tag k="place" v="locality" />
		<tag k="ssr:stedsnr" v="964379" />
	</node>
	<node id="-26494" lat="58.9316972255" lon="6.08036388021">
		<tag k="name" v="Krånå" />
		<tag k="natural" v="valley" />
		<tag k="place" v="locality" />
		<tag k="ssr:stedsnr" v="950602" />
	</node>
	<node id="-26493" lat="58.9477444403" lon="6.10138610951">
		<tag k="name" v="Habnaskaret" />
		<tag k="natural" v="valley" />
		<tag k="place" v="locality" />
		<tag k="ssr:stedsnr" v="950589" />
	</node>
	<node id="-26490" lat="58.9888583377" lon="5.98485277967">
		<tag k="fixme" v="consider natural=peak for the most distinct mountains in the district" />
		<tag k="name" v="Hesthaug" />
		<tag k="natural" v="hill" />
		<tag k="place" v="locality" />
		<tag k="ssr:stedsnr" v="872049" />
	</node>
	<node id="-26488" lat="59.1117388913" lon="6.12941111803">
		<tag k="name" v="Snauåsen" />
		<tag k="natural" v="ridge" />
		<tag k="place" v="locality" />
		<tag k="ssr:stedsnr" v="852700" />
	</node>
	<node id="-26483" lat="58.9835027786" lon="5.93369722795">
		<tag k="alt_name" v="Storevare" />
		<tag k="fixme" v="consider natural=peak for the most distinct mountains in the district" />
		<tag k="name" v="Storvarden" />
		<tag k="natural" v="hill" />
		<tag k="place" v="locality" />
		<tag k="ssr:stedsnr" v="851852" />
	</node>
	<node id="-26476" lat="59.0865750036" lon="6.05742778218">
		<tag k="name" v="Holtaheia" />
		<tag k="natural" v="hill" />
		<tag k="place" v="locality" />
		<tag k="ssr:stedsnr" v="851682" />
	</node>
	<node id="-26474" lat="59.1240083365" lon="6.14451388827">
		<tag k="fixme" v="consider natural=peak for the most distinct mountains in the district" />
		<tag k="name" v="Almeknuten" />
		<tag k="natural" v="hill" />
		<tag k="place" v="locality" />
		<tag k="ssr:stedsnr" v="851486" />
	</node>
	<node id="-26470" lat="59.0358027809" lon="6.17908888817">
		<tag k="alt_name" v="Naganibba" />
		<tag k="fixme" v="consider natural=peak for the most distinct mountains in the district" />
		<tag k="name" v="Nibba" />
		<tag k="natural" v="hill" />
		<tag k="place" v="locality" />
		<tag k="ssr:stedsnr" v="851329" />
	</node>
	<node id="-26467" lat="59.0409222211" lon="6.1735222175">
		<tag k="name" v="Nagaheia" />
		<tag k="natural" v="hill" />
		<tag k="place" v="locality" />
		<tag k="ssr:stedsnr" v="851310" />
	</node>
	<node id="-26466" lat="59.04228056" lon="6.07521945217">
		<tag k="alt_name" v="Krokarfjellet, l;Litla Krogarfjellet" />
		<tag k="fixme" v="consider natural=peak for the most distinct mountains in the district" />
		<tag k="name" v="Litle Krokarfjellet" />
		<tag k="natural" v="hill" />
		<tag k="place" v="locality" />
		<tag k="ssr:stedsnr" v="851305" />
	</node>
	<node id="-26465" lat="59.0549166663" lon="6.18198888213">
		<tag k="alt_name" v="Gudbrandsdal" />
		<tag k="name" v="Gudbrandsdalen" />
		<tag k="natural" v="valley" />
		<tag k="place" v="locality" />
		<tag k="ssr:stedsnr" v="851300" />
	</node>
	<node id="-26461" lat="58.9592499988" lon="6.12585278059">
		<tag k="fixme" v="consider natural=peak for the most distinct mountains in the district" />
		<tag k="name" v="Hatten" />
		<tag k="natural" v="hill" />
		<tag k="place" v="locality" />
		<tag k="ssr:stedsnr" v="850781" />
	</node>
	<node id="-26460" lat="58.9682277792" lon="6.14102499789">
		<tag k="name" v="Gydalen" />
		<tag k="natural" v="valley" />
		<tag k="place" v="locality" />
		<tag k="ssr:stedsnr" v="850239" />
	</node>
	<node id="-26459" lat="58.9335972265" lon="6.03311111384">
		<tag k="fixme" v="consider natural=peak for the most distinct mountains in the district" />
		<tag k="name" v="Lerangshammaren" />
		<tag k="natural" v="hill" />
		<tag k="place" v="locality" />
		<tag k="ssr:stedsnr" v="848869" />
	</node>
	<node id="-26450" lat="59.0493611111" lon="6.00090555426">
		<tag k="alt_name" v="Hedlandshei" />
		<tag k="name" v="Hellandsheia" />
		<tag k="natural" v="hill" />
		<tag k="place" v="locality" />
		<tag k="ssr:stedsnr" v="851629" />
	</node>
	<node id="-26447" lat="59.0840694457" lon="6.04802221946">
		<tag k="fixme" v="consider natural=peak for the most distinct mountains in the district" />
		<tag k="name" v="Kobbefjellet" />
		<tag k="natural" v="hill" />
		<tag k="place" v="locality" />
		<tag k="ssr:stedsnr" v="844690" />
	</node>
	<node id="-26446" lat="58.9248972204" lon="6.0916083253">
		<tag k="name" v="Pinehola" />
		<tag k="natural" v="valley" />
		<tag k="place" v="locality" />
		<tag k="ssr:stedsnr" v="844528" />
	</node>
	<node id="-26445" lat="58.9213055586" lon="6.06391666985">
		<tag k="name" v="Revadalen" />
		<tag k="natural" v="valley" />
		<tag k="place" v="locality" />
		<tag k="ssr:stedsnr" v="844514" />
	</node>
	<node id="-26444" lat="59.0191666687" lon="6.04576389252">
		<tag k="name" v="Jonsokberget" />
		<tag k="natural" v="hill" />
		<tag k="place" v="locality" />
		<tag k="ssr:stedsnr" v="844052" />
	</node>
	<node id="-26442" lat="59.1045194414" lon="6.03639443678">
		<tag k="name" v="Hestadal" />
		<tag k="natural" v="valley" />
		<tag k="place" v="locality" />
		<tag k="ssr:stedsnr" v="843788" />
	</node>
	<node id="-26441" lat="58.9901083336" lon="6.12775555166">
		<tag k="name" v="Vatnerindane" />
		<tag k="natural" v="ridge" />
		<tag k="place" v="locality" />
		<tag k="ssr:stedsnr" v="843754" />
	</node>
	<node id="-26440" lat="59.0899527766" lon="6.08995000088">
		<tag k="name" v="Svoskaret" />
		<tag k="natural" v="valley" />
		<tag k="place" v="locality" />
		<tag k="ssr:stedsnr" v="843722" />
	</node>
	<node id="-26439" lat="58.9823888857" lon="6.04284165869">
		<tag k="name" v="Kastadalen" />
		<tag k="natural" v="valley" />
		<tag k="place" v="locality" />
		<tag k="ssr:stedsnr" v="843884" />
	</node>
	<node id="-26437" lat="59.0927527752" lon="5.95634167453">
		<tag k="name" v="Vassbotn" />
		<tag k="natural" v="slope" />
		<tag k="place" v="locality" />
		<tag k="ssr:stedsnr" v="843874" />
	</node>
	<node id="-26435" lat="58.9786027753" lon="6.02069444255">
		<tag k="name" v="Mørkeli" />
		<tag k="natural" v="slope" />
		<tag k="place" v="locality" />
		<tag k="ssr:stedsnr" v="843864" />
	</node>
	<node id="-26433" lat="59.1275083293" lon="6.08052221928">
		<tag k="name" v="Fanthaug" />
		<tag k="natural" v="hill" />
		<tag k="place" v="locality" />
		<tag k="ssr:stedsnr" v="843521" />
	</node>
	<node id="-26432" lat="59.1293277764" lon="6.09195833572">
		<tag k="name" v="Nausthammar" />
		<tag k="natural" v="hill" />
		<tag k="place" v="locality" />
		<tag k="ssr:stedsnr" v="843520" />
	</node>
	<node id="-26431" lat="59.0147888868" lon="6.12473889575">
		<tag k="fixme" v="consider natural=peak for the most distinct mountains in the district" />
		<tag k="name" v="Måsliholmane" />
		<tag k="natural" v="hill" />
		<tag k="place" v="locality" />
		<tag k="ssr:stedsnr" v="843294" />
	</node>
	<node id="-26430" lat="58.9560388856" lon="6.03405278467">
		<tag k="name" v="Røynlia" />
		<tag k="natural" v="slope" />
		<tag k="place" v="locality" />
		<tag k="ssr:stedsnr" v="843293" />
	</node>
	<node id="-26429" lat="58.9510166677" lon="6.01423888789">
		<tag k="fixme" v="consider natural=peak for the most distinct mountains in the district" />
		<tag k="name" v="Slettaberg" />
		<tag k="natural" v="hill" />
		<tag k="place" v="locality" />
		<tag k="ssr:stedsnr" v="843291" />
	</node>
	<node id="-26427" lat="58.9624583298" lon="6.04639166248">
		<tag k="name" v="Nedra Kroga" />
		<tag k="natural" v="valley" />
		<tag k="place" v="locality" />
		<tag k="ssr:stedsnr" v="843254" />
	</node>
	<node id="-26425" lat="59.0036194488" lon="6.21726944246">
		<tag k="name" v="Lammadalen" />
		<tag k="natural" v="valley" />
		<tag k="place" v="locality" />
		<tag k="ssr:stedsnr" v="843352" />
	</node>
	<node id="-26420" lat="58.9757194464" lon="6.02000277839">
		<tag k="name" v="Torskaberget" />
		<tag k="natural" v="hill" />
		<tag k="place" v="locality" />
		<tag k="ssr:stedsnr" v="812827" />
	</node>
	<node id="-26417" lat="58.9838805568" lon="5.97908611257">
		<tag k="fixme" v="consider natural=peak for the most distinct mountains in the district" />
		<tag k="name" v="Grydehammaren" />
		<tag k="natural" v="hill" />
		<tag k="place" v="locality" />
		<tag k="ssr:stedsnr" v="811064" />
	</node>
	<node id="-26413" lat="59.0569777756" lon="5.99371943781">
		<tag k="alt_name" v="Tjøsseimslia;Tjøsseimlia" />
		<tag k="name" v="Tjøssheimslia" />
		<tag k="natural" v="slope" />
		<tag k="place" v="locality" />
		<tag k="ssr:stedsnr" v="791632" />
	</node>
	<node id="-26412" lat="59.0546277799" lon="5.98542500064">
		<tag k="alt_name" v="Brynane" />
		<tag k="name" v="Brynene" />
		<tag k="natural" v="slope" />
		<tag k="place" v="locality" />
		<tag k="ssr:stedsnr" v="791631" />
	</node>
	<node id="-26409" lat="59.0812916674" lon="5.953916664">
		<tag k="alt_name" v="Kvammaheia" />
		<tag k="fixme" v="consider natural=peak for the most distinct mountains in the district" />
		<tag k="name" v="Kvamaheia" />
		<tag k="natural" v="hill" />
		<tag k="place" v="locality" />
		<tag k="ssr:stedsnr" v="790725" />
	</node>
	<node id="-26407" lat="59.0735555576" lon="5.97468889496">
		<tag k="alt_name" v="Heggeimsfjellet;Heggjeimsfjellet" />
		<tag k="fixme" v="consider natural=peak for the most distinct mountains in the district" />
		<tag k="name" v="Heggheimsfjellet" />
		<tag k="natural" v="hill" />
		<tag k="place" v="locality" />
		<tag k="ssr:stedsnr" v="790709" />
	</node>
	<node id="-26401" lat="59.1269611091" lon="6.10780277936">
		<tag k="alt_name" v="Knuden" />
		<tag k="fixme" v="consider natural=peak for the most distinct mountains in the district" />
		<tag k="name" v="Knuten" />
		<tag k="natural" v="hill" />
		<tag k="place" v="locality" />
		<tag k="ssr:stedsnr" v="790520" />
	</node>
	<node id="-26397" lat="59.0358361153" lon="6.08908611303">
		<tag k="fixme" v="consider natural=peak for the most distinct mountains in the district" />
		<tag k="name" v="Heståsen" />
		<tag k="natural" v="hill" />
		<tag k="place" v="locality" />
		<tag k="ssr:stedsnr" v="790331" />
	</node>
	<node id="-26394" lat="59.0302666672" lon="5.98510554913">
		<tag k="fixme" v="consider natural=peak for the most distinct mountains in the district" />
		<tag k="name" v="Åsfjellet" />
		<tag k="natural" v="hill" />
		<tag k="place" v="locality" />
		<tag k="ssr:stedsnr" v="790321" />
	</node>
	<node id="-26392" lat="59.0410444455" lon="6.12800278504">
		<tag k="fixme" v="consider natural=peak for the most distinct mountains in the district" />
		<tag k="name" v="Haråsen" />
		<tag k="natural" v="hill" />
		<tag k="place" v="locality" />
		<tag k="ssr:stedsnr" v="790313" />
	</node>
	<node id="-26388" lat="58.9816083371" lon="5.98905277356">
		<tag k="alt_name" v="Varafjellet" />
		<tag k="name" v="Vardafjellet" />
		<tag k="natural" v="hill" />
		<tag k="place" v="locality" />
		<tag k="ssr:stedsnr" v="789850" />
	</node>
	<node id="-26384" lat="59.0412027806" lon="6.14120555158">
		<tag k="name" v="Svortingslia" />
		<tag k="natural" v="slope" />
		<tag k="place" v="locality" />
		<tag k="ssr:stedsnr" v="783967" />
	</node>
	<node id="-26383" lat="59.0419916661" lon="6.12443611055">
		<tag k="name" v="Jonslia" />
		<tag k="natural" v="slope" />
		<tag k="place" v="locality" />
		<tag k="ssr:stedsnr" v="783966" />
	</node>
	<node id="-26380" lat="59.0788444409" lon="6.0183583358">
		<tag k="alt_name" v="Bjøreimslia" />
		<tag k="name" v="Bjørheimslia" />
		<tag k="natural" v="slope" />
		<tag k="place" v="locality" />
		<tag k="ssr:stedsnr" v="783663" />
	</node>
	<node id="-26379" lat="59.1161055584" lon="6.11389165998">
		<tag k="name" v="Orreleikshøgda" />
		<tag k="natural" v="hill" />
		<tag k="place" v="locality" />
		<tag k="ssr:stedsnr" v="783642" />
	</node>
	<node id="-26375" lat="58.992683332" lon="6.13128332636">
		<tag k="name" v="Vatnarindane" />
		<tag k="natural" v="slope" />
		<tag k="place" v="locality" />
		<tag k="ssr:stedsnr" v="782921" />
	</node>
	<node id="-26374" lat="59.0523722185" lon="5.92569166908">
		<tag k="name" v="Varhaug" />
		<tag k="natural" v="hill" />
		<tag k="place" v="locality" />
		<tag k="ssr:stedsnr" v="782876" />
	</node>
	<node id="-26373" lat="58.956588891" lon="6.13292778306">
		<tag k="name" v="Tonå" />
		<tag k="place" v="locality" />
		<tag k="ssr:stedsnr" v="782854" />
	</node>
	<node id="-26372" lat="59.0864083353" lon="5.99137221912">
		<tag k="name" v="Liarhaugen" />
		<tag k="natural" v="hill" />
		<tag k="place" v="locality" />
		<tag k="ssr:stedsnr" v="782816" />
	</node>
	<node id="-26367" lat="59.1307527791" lon="6.0729722232">
		<tag k="fixme" v="consider natural=peak for the most distinct mountains in the district" />
		<tag k="name" v="Skåralaksaberget" />
		<tag k="natural" v="hill" />
		<tag k="place" v="locality" />
		<tag k="ssr:stedsnr" v="782470" />
	</node>
	<node id="-26364" lat="58.9604055512" lon="6.01408888721">
		<tag k="name" v="Stemmedalen" />
		<tag k="natural" v="valley" />
		<tag k="place" v="locality" />
		<tag k="ssr:stedsnr" v="782280" />
	</node>
	<node id="-26362" lat="58.9672166627" lon="6.01523888761">
		<tag k="fixme" v="consider natural=peak for the most distinct mountains in the district" />
		<tag k="name" v="Høghaugen" />
		<tag k="natural" v="hill" />
		<tag k="place" v="locality" />
		<tag k="ssr:stedsnr" v="782265" />
	</node>
	<node id="-26360" lat="58.9839638885" lon="6.07573055557">
		<tag k="name" v="Bjønndalsvarden" />
		<tag k="natural" v="hill" />
		<tag k="place" v="locality" />
		<tag k="ssr:stedsnr" v="782250" />
	</node>
	<node id="-26354" lat="58.9299333334" lon="6.07941666527">
		<tag k="name" v="Sokkaheiå" />
		<tag k="natural" v="slope" />
		<tag k="place" v="locality" />
		<tag k="ssr:stedsnr" v="767592" />
	</node>
	<node id="-26352" lat="59.0227999973" lon="5.95478888684">
		<tag k="name" v="Storhaugen" />
		<tag k="natural" v="hill" />
		<tag k="place" v="locality" />
		<tag k="ssr:stedsnr" v="753843" />
	</node>
	<node id="-26340" lat="58.9827555601" lon="6.08667777857">
		<tag k="name" v="Botne" />
		<tag k="natural" v="valley" />
		<tag k="place" v="locality" />
		<tag k="ssr:stedsnr" v="632831" />
	</node>
	<node id="-26331" lat="59.0832777758" lon="5.96844166834">
		<tag k="alt_name" v="Varlandsåsen" />
		<tag k="fixme" v="consider natural=peak for the most distinct mountains in the district" />
		<tag k="name" v="Vardlandsåsen" />
		<tag k="natural" v="hill" />
		<tag k="place" v="locality" />
		<tag k="ssr:stedsnr" v="608719" />
	</node>
	<node id="-26330" lat="59.0673249996" lon="5.90153333663">
		<tag k="alt_name" v="Taurafjellet" />
		<tag k="fixme" v="consider natural=peak for the most distinct mountains in the district" />
		<tag k="name" v="Taurafjell" />
		<tag k="natural" v="hill" />
		<tag k="place" v="locality" />
		<tag k="ssr:stedsnr" v="608708" />
	</node>
	<node id="-26328" lat="59.1086305582" lon="6.06037777229">
		<tag k="alt_name" v="Ormakammen" />
		<tag k="fixme" v="consider natural=peak for the most distinct mountains in the district" />
		<tag k="name" v="Ormakam" />
		<tag k="natural" v="hill" />
		<tag k="place" v="locality" />
		<tag k="ssr:stedsnr" v="608763" />
	</node>
	<node id="-26325" lat="59.069794446" lon="6.01593332447">
		<tag k="name" v="Monen" />
		<tag k="place" v="locality" />
		<tag k="ssr:stedsnr" v="608691" />
	</node>
	<node id="-26324" lat="59.0684305563" lon="6.08763611413">
		<tag k="alt_name" v="Strannabryna" />
		<tag k="name" v="Strandabrynene" />
		<tag k="natural" v="ridge" />
		<tag k="place" v="locality" />
		<tag k="ssr:stedsnr" v="608684" />
	</node>
	<node id="-26323" lat="59.0534499976" lon="6.09398055357">
		<tag k="alt_name" v="Tibergfjellet, litla" />
		<tag k="fixme" v="consider natural=peak for the most distinct mountains in the district" />
		<tag k="name" v="Litla Tibergfjellet" />
		<tag k="natural" v="hill" />
		<tag k="place" v="locality" />
		<tag k="ssr:stedsnr" v="608673" />
	</node>
	<node id="-26320" lat="59.0106972194" lon="6.07372221447">
		<tag k="fixme" v="consider natural=peak for the most distinct mountains in the district" />
		<tag k="name" v="Åstølsfjellet" />
		<tag k="natural" v="hill" />
		<tag k="place" v="locality" />
		<tag k="ssr:stedsnr" v="608386" />
	</node>
	<node id="-26317" lat="59.0233555576" lon="6.10197778506">
		<tag k="alt_name" v="Husafjell" />
		<tag k="fixme" v="consider natural=peak for the most distinct mountains in the district" />
		<tag k="name" v="Husafjellet" />
		<tag k="natural" v="hill" />
		<tag k="place" v="locality" />
		<tag k="ssr:stedsnr" v="608366" />
	</node>
	<node id="-26314" lat="59.0258666692" lon="6.21983889302">
		<tag k="name" v="Godliskardet" />
		<tag k="natural" v="valley" />
		<tag k="place" v="locality" />
		<tag k="ssr:stedsnr" v="608053" />
	</node>
	<node id="-26313" lat="58.9333333363" lon="6.08526111228">
		<tag k="alt_name" v="Varen" />
		<tag k="name" v="Varden" />
		<tag k="natural" v="hill" />
		<tag k="place" v="locality" />
		<tag k="ssr:stedsnr" v="607730" />
	</node>
	<node id="-26312" lat="58.9282388894" lon="6.08702500858">
		<tag k="alt_name" v="Sokkanuten" />
		<tag k="name" v="Sokkaknuten" />
		<tag k="natural" v="hill" />
		<tag k="place" v="locality" />
		<tag k="ssr:stedsnr" v="607729" />
	</node>
	<node id="-26307" lat="59.0450944436" lon="5.98476111868">
		<tag k="fixme" v="consider natural=peak for the most distinct mountains in the district" />
		<tag k="name" v="Kjortåsen" />
		<tag k="natural" v="hill" />
		<tag k="place" v="locality" />
		<tag k="ssr:stedsnr" v="607631" />
	</node>
	<node id="-26306" lat="58.9446348494" lon="6.04097011658">
		<tag k="alt_name" v="Foråsen" />
		<tag k="fixme" v="consider natural=peak for the most distinct mountains in the district" />
		<tag k="name" v="Foreåsen" />
		<tag k="natural" v="hill" />
		<tag k="place" v="locality" />
		<tag k="ssr:stedsnr" v="607247" />
	</node>
	<node id="-26305" lat="58.9468805587" lon="6.02738056094">
		<tag k="fixme" v="consider natural=peak for the most distinct mountains in the district" />
		<tag k="name" v="Krohammar" />
		<tag k="natural" v="hill" />
		<tag k="place" v="locality" />
		<tag k="ssr:stedsnr" v="605892" />
	</node>
	<node id="-26304" lat="58.9982833333" lon="6.1989805487">
		<tag k="name" v="Indra Neverdalsskaret" />
		<tag k="natural" v="valley" />
		<tag k="place" v="locality" />
		<tag k="ssr:stedsnr" v="600934" />
	</node>
	<node id="-26303" lat="59.0529916683" lon="5.91515278529">
		<tag k="name" v="Håbakk" />
		<tag k="natural" v="hill" />
		<tag k="place" v="locality" />
		<tag k="ssr:stedsnr" v="600906" />
	</node>
	<node id="-26300" lat="59.0032166711" lon="6.21613611073">
		<tag k="name" v="Lammadalen" />
		<tag k="natural" v="valley" />
		<tag k="place" v="locality" />
		<tag k="ssr:stedsnr" v="600894" />
	</node>
	<node id="-26296" lat="59.0019638932" lon="6.21506944868">
		<tag k="name" v="Moltedalen" />
		<tag k="natural" v="valley" />
		<tag k="place" v="locality" />
		<tag k="ssr:stedsnr" v="600351" />
	</node>
	<node id="-26295" lat="59.0313388914" lon="6.1008694399">
		<tag k="name" v="Ruven" />
		<tag k="natural" v="hill" />
		<tag k="place" v="locality" />
		<tag k="ssr:stedsnr" v="600255" />
	</node>
	<node id="-26294" lat="59.0137249998" lon="6.0872472204">
		<tag k="fixme" v="consider natural=peak for the most distinct mountains in the district" />
		<tag k="name" v="Rundemyrfjellet" />
		<tag k="natural" v="hill" />
		<tag k="place" v="locality" />
		<tag k="ssr:stedsnr" v="600253" />
	</node>
	<node id="-26291" lat="58.9889694419" lon="6.15232777552">
		<tag k="name" v="Urskar" />
		<tag k="natural" v="valley" />
		<tag k="place" v="locality" />
		<tag k="ssr:stedsnr" v="599709" />
	</node>
	<node id="-26290" lat="58.9809722233" lon="6.15960277279">
		<tag k="fixme" v="consider natural=peak for the most distinct mountains in the district" />
		<tag k="name" v="Skåbet" />
		<tag k="natural" v="hill" />
		<tag k="place" v="locality" />
		<tag k="ssr:stedsnr" v="599699" />
	</node>
	<node id="-26286" lat="58.9713194443" lon="6.06301944618">
		<tag k="alt_name" v="Longafjellet" />
		<tag k="fixme" v="consider natural=peak for the most distinct mountains in the district" />
		<tag k="name" v="Longarfjellet" />
		<tag k="natural" v="hill" />
		<tag k="place" v="locality" />
		<tag k="ssr:stedsnr" v="599327" />
	</node>
	<node id="-26285" lat="58.9848805579" lon="6.05476110333">
		<tag k="name" v="Hatleli" />
		<tag k="natural" v="slope" />
		<tag k="place" v="locality" />
		<tag k="ssr:stedsnr" v="599244" />
	</node>
	<node id="-26275" lat="58.9857222186" lon="5.92981388437">
		<tag k="fixme" v="consider natural=peak for the most distinct mountains in the district" />
		<tag k="name" v="Litlevare" />
		<tag k="natural" v="hill" />
		<tag k="place" v="locality" />
		<tag k="ssr:stedsnr" v="568085" />
	</node>
	<node id="-26273" lat="58.9770222241" lon="5.97325832908">
		<tag k="fixme" v="consider natural=peak for the most distinct mountains in the district" />
		<tag k="name" v="Plassaknubbane" />
		<tag k="natural" v="hill" />
		<tag k="place" v="locality" />
		<tag k="ssr:stedsnr" v="568048" />
	</node>
	<node id="-26267" lat="59.0555611099" lon="6.03834444093">
		<tag k="fixme" v="consider natural=peak for the most distinct mountains in the district" />
		<tag k="name" v="Midtknuten" />
		<tag k="natural" v="hill" />
		<tag k="place" v="locality" />
		<tag k="ssr:stedsnr" v="548649" />
	</node>
	<node id="-26261" lat="59.013786115" lon="6.20173054913">
		<tag k="alt_name" v="Husafjell" />
		<tag k="fixme" v="consider natural=peak for the most distinct mountains in the district" />
		<tag k="name" v="Husafjellet" />
		<tag k="natural" v="hill" />
		<tag k="place" v="locality" />
		<tag k="ssr:stedsnr" v="548252" />
	</node>
	<node id="-26258" lat="58.973900004" lon="6.14001388106">
		<tag k="name" v="Gråknuten" />
		<tag k="natural" v="hill" />
		<tag k="place" v="locality" />
		<tag k="ssr:stedsnr" v="547824" />
	</node>
	<node id="-26256" lat="58.9877638887" lon="6.15263611071">
		<tag k="fixme" v="consider natural=peak for the most distinct mountains in the district" />
		<tag k="name" v="Husafjellet" />
		<tag k="natural" v="hill" />
		<tag k="place" v="locality" />
		<tag k="ssr:stedsnr" v="547802" />
	</node>
	<node id="-26252" lat="59.1014777817" lon="6.1155583384">
		<tag k="alt_name" v="Leidedalen" />
		<tag k="name" v="Leitedalen" />
		<tag k="natural" v="valley" />
		<tag k="place" v="locality" />
		<tag k="ssr:stedsnr" v="547760" />
	</node>
	<node id="-26248" lat="59.0924222223" lon="6.06239166458">
		<tag k="alt_name" v="Stemtidal" />
		<tag k="name" v="Stemtidalen" />
		<tag k="natural" v="valley" />
		<tag k="place" v="locality" />
		<tag k="ssr:stedsnr" v="547744" />
	</node>
	<node id="-26241" lat="59.0305372079" lon="5.99288545283">
		<tag k="alt_name" v="Barkvefjellet" />
		<tag k="fixme" v="consider natural=peak for the most distinct mountains in the district" />
		<tag k="name" v="Barkafjellet" />
		<tag k="natural" v="hill" />
		<tag k="place" v="locality" />
		<tag k="ssr:stedsnr" v="547371" />
	</node>
	<node id="-26237" lat="59.04215833" lon="6.09015833916">
		<tag k="alt_name" v="Øygjafjellet" />
		<tag k="fixme" v="consider natural=peak for the most distinct mountains in the district" />
		<tag k="name" v="Øykjafjellet" />
		<tag k="natural" v="hill" />
		<tag k="place" v="locality" />
		<tag k="ssr:stedsnr" v="547352" />
	</node>
	<node id="-26235" lat="58.9376555552" lon="6.02514722515">
		<tag k="fixme" v="consider natural=peak for the most distinct mountains in the district" />
		<tag k="name" v="Hengeknuten" />
		<tag k="natural" v="hill" />
		<tag k="place" v="locality" />
		<tag k="ssr:stedsnr" v="544895" />
	</node>
	<node id="-26234" lat="58.9403916698" lon="6.07535000151">
		<tag k="name" v="Klåmrå" />
		<tag k="natural" v="valley" />
		<tag k="place" v="locality" />
		<tag k="ssr:stedsnr" v="544619" />
	</node>
	<node id="-26233" lat="59.1106444441" lon="6.00114444121">
		<tag k="name" v="Bjørnåsdalen" />
		<tag k="natural" v="valley" />
		<tag k="place" v="locality" />
		<tag k="ssr:stedsnr" v="544157" />
	</node>
	<node id="-26232" lat="58.9931916709" lon="6.15922500202">
		<tag k="fixme" v="consider natural=peak for the most distinct mountains in the district" />
		<tag k="name" v="Lammatona" />
		<tag k="natural" v="hill" />
		<tag k="place" v="locality" />
		<tag k="ssr:stedsnr" v="540945" />
	</node>
	<node id="-26229" lat="59.1025166679" lon="5.96036666025">
		<tag k="fixme" v="consider natural=peak for the most distinct mountains in the district" />
		<tag k="name" v="Ravnås" />
		<tag k="natural" v="hill" />
		<tag k="place" v="locality" />
		<tag k="ssr:stedsnr" v="540783" />
	</node>
	<node id="-26228" lat="59.1122083299" lon="5.9878861084">
		<tag k="fixme" v="consider natural=peak for the most distinct mountains in the district" />
		<tag k="name" v="Eineråsen" />
		<tag k="natural" v="hill" />
		<tag k="place" v="locality" />
		<tag k="ssr:stedsnr" v="540776" />
	</node>
	<node id="-26227" lat="59.1180416685" lon="6.14943056101">
		<tag k="name" v="Bjønnslihalsen" />
		<tag k="natural" v="valley" />
		<tag k="place" v="locality" />
		<tag k="ssr:stedsnr" v="540644" />
	</node>
	<node id="-26225" lat="58.9581722211" lon="6.09955555878">
		<tag k="name" v="Bossheia" />
		<tag k="natural" v="hill" />
		<tag k="place" v="locality" />
		<tag k="ssr:stedsnr" v="539949" />
	</node>
	<node id="-26222" lat="59.0646888891" lon="6.15632500291">
		<tag k="name" v="Uførsberget" />
		<tag k="place" v="locality" />
		<tag k="ssr:stedsnr" v="539991" />
	</node>
	<node id="-26221" lat="58.9819444426" lon="6.12629444982">
		<tag k="name" v="Kjemskaret" />
		<tag k="natural" v="valley" />
		<tag k="place" v="locality" />
		<tag k="ssr:stedsnr" v="539722" />
	</node>
	<node id="-26216" lat="58.9848000008" lon="6.10452222293">
		<tag k="fixme" v="consider natural=peak for the most distinct mountains in the district" />
		<tag k="name" v="Raudafjellet" />
		<tag k="natural" v="hill" />
		<tag k="place" v="locality" />
		<tag k="ssr:stedsnr" v="539289" />
	</node>
	<node id="-26215" lat="58.9877138929" lon="6.07140833985">
		<tag k="name" v="Hageløypet" />
		<tag k="natural" v="slope" />
		<tag k="place" v="locality" />
		<tag k="ssr:stedsnr" v="539230" />
	</node>
	<node id="-26214" lat="59.0214777775" lon="5.89535278621">
		<tag k="name" v="Høgabakka" />
		<tag k="natural" v="hill" />
		<tag k="place" v="locality" />
		<tag k="ssr:stedsnr" v="539080" />
	</node>
	<node id="-26213" lat="59.0241416657" lon="5.89018054737">
		<tag k="fixme" v="consider natural=peak for the most distinct mountains in the district" />
		<tag k="name" v="Mågaberget" />
		<tag k="natural" v="hill" />
		<tag k="place" v="locality" />
		<tag k="ssr:stedsnr" v="539071" />
	</node>
	<node id="-26210" lat="59.0587944405" lon="5.93692777989">
		<tag k="fixme" v="consider natural=peak for the most distinct mountains in the district" />
		<tag k="name" v="Osabakkane" />
		<tag k="natural" v="hill" />
		<tag k="place" v="locality" />
		<tag k="ssr:stedsnr" v="429943" />
	</node>
	<node id="-26209" lat="59.0173027758" lon="6.09298888689">
		<tag k="alt_name" v="Kaldal" />
		<tag k="name" v="Kalddalen" />
		<tag k="natural" v="valley" />
		<tag k="place" v="locality" />
		<tag k="ssr:stedsnr" v="427395" />
	</node>
	<node id="-26208" lat="59.0005500042" lon="6.16781389304">
		<tag k="fixme" v="consider natural=peak for the most distinct mountains in the district" />
		<tag k="name" v="Løknuten" />
		<tag k="natural" v="hill" />
		<tag k="place" v="locality" />
		<tag k="ssr:stedsnr" v="427288" />
	</node>
	<node id="-26199" lat="58.9711333363" lon="6.03081666898">
		<tag k="alt_name" v="Skjiptåsen" />
		<tag k="fixme" v="consider natural=peak for the most distinct mountains in the district" />
		<tag k="name" v="Skifteåsen" />
		<tag k="natural" v="hill" />
		<tag k="place" v="locality" />
		<tag k="ssr:stedsnr" v="426775" />
	</node>
	<node id="-26198" lat="58.9787527805" lon="6.13002500319">
		<tag k="alt_name" v="Grydeknuten" />
		<tag k="fixme" v="consider natural=peak for the most distinct mountains in the district" />
		<tag k="name" v="Gryteknuten" />
		<tag k="natural" v="hill" />
		<tag k="place" v="locality" />
		<tag k="ssr:stedsnr" v="426765" />
	</node>
	<node id="-26196" lat="59.0718750014" lon="5.89550555105">
		<tag k="fixme" v="consider natural=peak for the most distinct mountains in the district" />
		<tag k="name" v="Borgåsen" />
		<tag k="natural" v="hill" />
		<tag k="place" v="locality" />
		<tag k="ssr:stedsnr" v="426677" />
	</node>
	<node id="-26195" lat="59.0478499995" lon="5.97683334068">
		<tag k="name" v="Kjortåsdalen" />
		<tag k="natural" v="valley" />
		<tag k="place" v="locality" />
		<tag k="ssr:stedsnr" v="426633" />
	</node>
	<node id="-26194" lat="59.0512500023" lon="6.06259444362">
		<tag k="name" v="Lusabergknuten" />
		<tag k="natural" v="hill" />
		<tag k="place" v="locality" />
		<tag k="ssr:stedsnr" v="426632" />
	</node>
	<node id="-26193" lat="59.0235999967" lon="6.14456944985">
		<tag k="fixme" v="consider natural=peak for the most distinct mountains in the district" />
		<tag k="name" v="Tårnfjellet" />
		<tag k="natural" v="hill" />
		<tag k="place" v="locality" />
		<tag k="ssr:stedsnr" v="426347" />
	</node>
	<node id="-26192" lat="59.0122277791" lon="6.09341666901">
		<tag k="fixme" v="consider natural=peak for the most distinct mountains in the district" />
		<tag k="name" v="Middagsåsen" />
		<tag k="natural" v="hill" />
		<tag k="place" v="locality" />
		<tag k="ssr:stedsnr" v="426341" />
	</node>
	<node id="-26190" lat="59.0374250031" lon="5.94655556269">
		<tag k="alt_name" v="Heiå" />
		<tag k="name" v="Heia" />
		<tag k="natural" v="hill" />
		<tag k="place" v="locality" />
		<tag k="ssr:stedsnr" v="426319" />
	</node>
	<node id="-26186" lat="58.9353166663" lon="6.07708332858">
		<tag k="name" v="Snelldalen" />
		<tag k="natural" v="valley" />
		<tag k="place" v="locality" />
		<tag k="ssr:stedsnr" v="423646" />
	</node>
	<node id="-26182" lat="59.1144888856" lon="5.95355555454">
		<tag k="name" v="Svarte Berga" />
		<tag k="natural" v="hill" />
		<tag k="place" v="locality" />
		<tag k="ssr:stedsnr" v="419790" />
	</node>
	<node id="-26180" lat="59.0801861139" lon="5.99980833743">
		<tag k="name" v="Leda" />
		<tag k="natural" v="valley" />
		<tag k="place" v="locality" />
		<tag k="ssr:stedsnr" v="419670" />
	</node>
	<node id="-26177" lat="59.0694194466" lon="5.97341666013">
		<tag k="name" v="Kalvatørne" />
		<tag k="natural" v="slope" />
		<tag k="place" v="locality" />
		<tag k="ssr:stedsnr" v="418894" />
	</node>
	<node id="-26176" lat="59.054827781" lon="5.92315000124">
		<tag k="name" v="Presta-Varhaug" />
		<tag k="natural" v="hill" />
		<tag k="place" v="locality" />
		<tag k="ssr:stedsnr" v="418892" />
	</node>
	<node id="-26175" lat="59.0074916646" lon="6.21558056027">
		<tag k="name" v="Skogvannskleiva" />
		<tag k="place" v="locality" />
		<tag k="ssr:stedsnr" v="418884" />
	</node>
	<node id="-26174" lat="58.9773472231" lon="6.04711943857">
		<tag k="fixme" v="consider natural=peak for the most distinct mountains in the district" />
		<tag k="name" v="Husafjellet" />
		<tag k="natural" v="hill" />
		<tag k="place" v="locality" />
		<tag k="ssr:stedsnr" v="418855" />
	</node>
	<node id="-26172" lat="59.0859999979" lon="5.95961111185">
		<tag k="fixme" v="consider natural=peak for the most distinct mountains in the district" />
		<tag k="name" v="Brynene" />
		<tag k="natural" v="hill" />
		<tag k="place" v="locality" />
		<tag k="ssr:stedsnr" v="418849" />
	</node>
	<node id="-26167" lat="58.994475002" lon="6.20860555823">
		<tag k="name" v="Roligheta" />
		<tag k="natural" v="slope" />
		<tag k="place" v="locality" />
		<tag k="ssr:stedsnr" v="418349" />
	</node>
	<node id="-26165" lat="58.9807527736" lon="6.0711638899">
		<tag k="name" v="Gaupelemmen" />
		<tag k="natural" v="ridge" />
		<tag k="place" v="locality" />
		<tag k="ssr:stedsnr" v="418254" />
	</node>
	<node id="-26162" lat="58.9342027809" lon="6.08625277217">
		<tag k="fixme" v="consider natural=peak for the most distinct mountains in the district" />
		<tag k="name" v="Kumleknuten" />
		<tag k="natural" v="hill" />
		<tag k="place" v="locality" />
		<tag k="ssr:stedsnr" v="403580" />
	</node>
	<node id="-26157" lat="58.9898638902" lon="6.19694721603">
		<tag k="name" v="Ångjuvet" />
		<tag k="natural" v="gorge" />
		<tag k="ssr:stedsnr" v="388458" />
	</node>
	<node id="-26154" lat="58.9657138866" lon="6.14977777615">
		<tag k="name" v="Gloppejuvet" />
		<tag k="natural" v="gorge" />
		<tag k="ssr:stedsnr" v="369884" />
	</node>
	<node id="-26149" lat="59.1346777803" lon="6.09135000542">
		<tag k="alt_name" v="Døvighammaren" />
		<tag k="name" v="Døvikhammaren" />
		<tag k="natural" v="ridge" />
		<tag k="place" v="locality" />
		<tag k="ssr:stedsnr" v="366551" />
	</node>
	<node id="-26148" lat="59.0159027743" lon="6.06597499647">
		<tag k="fixme" v="consider natural=peak for the most distinct mountains in the district" />
		<tag k="name" v="Tunglandsfjellet" />
		<tag k="natural" v="hill" />
		<tag k="place" v="locality" />
		<tag k="ssr:stedsnr" v="366388" />
	</node>
	<node id="-26142" lat="58.9782749965" lon="6.07726944457">
		<tag k="fixme" v="consider natural=peak for the most distinct mountains in the district" />
		<tag k="name" v="Storafjellet" />
		<tag k="natural" v="hill" />
		<tag k="place" v="locality" />
		<tag k="ssr:stedsnr" v="365771" />
	</node>
	<node id="-26140" lat="59.1044138904" lon="6.1248527849">
		<tag k="alt_name" v="Skorpehei" />
		<tag k="name" v="Skorpeheia" />
		<tag k="natural" v="hill" />
		<tag k="place" v="locality" />
		<tag k="ssr:stedsnr" v="365741" />
	</node>
	<node id="-26139" lat="59.0868944433" lon="6.00579999377">
		<tag k="name" v="Raunelia" />
		<tag k="natural" v="slope" />
		<tag k="place" v="locality" />
		<tag k="ssr:stedsnr" v="365697" />
	</node>
	<node id="-26137" lat="59.0509916647" lon="6.0315000085">
		<tag k="alt_name" v="Longaberg" />
		<tag k="fixme" v="consider natural=peak for the most distinct mountains in the district" />
		<tag k="name" v="Langaberg" />
		<tag k="natural" v="hill" />
		<tag k="place" v="locality" />
		<tag k="ssr:stedsnr" v="365649" />
	</node>
	<node id="-26131" lat="59.0297388855" lon="5.95249444566">
		<tag k="fixme" v="consider natural=peak for the most distinct mountains in the district" />
		<tag k="name" v="Heståsen" />
		<tag k="natural" v="hill" />
		<tag k="place" v="locality" />
		<tag k="ssr:stedsnr" v="365359" />
	</node>
	<node id="-26128" lat="59.0445861115" lon="6.0882944419">
		<tag k="alt_name" v="Fladafjellet" />
		<tag k="fixme" v="consider natural=peak for the most distinct mountains in the district" />
		<tag k="name" v="Flatafjellet" />
		<tag k="natural" v="hill" />
		<tag k="place" v="locality" />
		<tag k="ssr:stedsnr" v="365337" />
	</node>
	<node id="-26126" lat="59.0517305518" lon="6.15917499527">
		<tag k="alt_name" v="Småsillhornet" />
		<tag k="name" v="Småsilhornet" />
		<tag k="natural" v="hill" />
		<tag k="place" v="locality" />
		<tag k="ssr:stedsnr" v="365330" />
	</node>
	<node id="-26125" lat="59.0478777763" lon="6.18853055711">
		<tag k="fixme" v="consider natural=peak for the most distinct mountains in the district" />
		<tag k="name" v="Krossfjellet" />
		<tag k="natural" v="hill" />
		<tag k="place" v="locality" />
		<tag k="ssr:stedsnr" v="365327" />
	</node>
	<node id="-26120" lat="58.9424638886" lon="6.03148056235">
		<tag k="name" v="Brekkedalen" />
		<tag k="natural" v="valley" />
		<tag k="place" v="locality" />
		<tag k="ssr:stedsnr" v="362888" />
	</node>
	<node id="-26118" lat="58.9939722207" lon="6.11602777266">
		<tag k="name" v="Tverrdal" />
		<tag k="natural" v="valley" />
		<tag k="place" v="locality" />
		<tag k="ssr:stedsnr" v="358934" />
	</node>
	<node id="-26117" lat="58.9972194465" lon="6.1093138813">
		<tag k="name" v="Svudlene" />
		<tag k="natural" v="slope" />
		<tag k="place" v="locality" />
		<tag k="ssr:stedsnr" v="358931" />
	</node>
	<node id="-26116" lat="59.0891472262" lon="6.0507277745">
		<tag k="fixme" v="consider natural=peak for the most distinct mountains in the district" />
		<tag k="name" v="Grø" />
		<tag k="natural" v="hill" />
		<tag k="place" v="locality" />
		<tag k="ssr:stedsnr" v="358686" />
	</node>
	<node id="-26115" lat="59.0823249987" lon="6.02861944326">
		<tag k="name" v="Tendalen" />
		<tag k="natural" v="valley" />
		<tag k="place" v="locality" />
		<tag k="ssr:stedsnr" v="358684" />
	</node>
	<node id="-26111" lat="59.0344666709" lon="6.00297500628">
		<tag k="name" v="Ranibba" />
		<tag k="natural" v="hill" />
		<tag k="place" v="locality" />
		<tag k="ssr:stedsnr" v="358049" />
	</node>
	<node id="-26110" lat="59.1071638891" lon="5.98888888053">
		<tag k="fixme" v="consider natural=peak for the most distinct mountains in the district" />
		<tag k="name" v="Meigevikåsen" />
		<tag k="natural" v="hill" />
		<tag k="place" v="locality" />
		<tag k="ssr:stedsnr" v="357771" />
	</node>
	<node id="-26103" lat="58.9794472212" lon="6.05526110625">
		<tag k="fixme" v="consider natural=peak for the most distinct mountains in the district" />
		<tag k="name" v="Tjødnaråsen" />
		<tag k="natural" v="hill" />
		<tag k="place" v="locality" />
		<tag k="ssr:stedsnr" v="357319" />
	</node>
	<node id="-26099" lat="59.0225055548" lon="5.88790555722">
		<tag k="alt_name" v="Øygjatona" />
		<tag k="fixme" v="consider natural=peak for the most distinct mountains in the district" />
		<tag k="name" v="Øykjatona" />
		<tag k="natural" v="hill" />
		<tag k="place" v="locality" />
		<tag k="ssr:stedsnr" v="357092" />
	</node>
	<node id="-26095" lat="58.9804444464" lon="6.17870554958">
		<tag k="alt_name" v="Neverdalsjuvet" />
		<tag k="name" v="Næverdalsgjuvet" />
		<tag k="natural" v="gorge" />
		<tag k="ssr:stedsnr" v="327485" />
	</node>
	<node id="-26083" lat="59.1297083336" lon="6.11218611169">
		<tag k="name" v="Hinnaskardet" />
		<tag k="natural" v="valley" />
		<tag k="place" v="locality" />
		<tag k="ssr:stedsnr" v="305578" />
	</node>
	<node id="-26081" lat="59.028649999" lon="6.20253888484">
		<tag k="alt_name" v="Jubedalen" />
		<tag k="name" v="Djupedalen" />
		<tag k="natural" v="valley" />
		<tag k="place" v="locality" />
		<tag k="ssr:stedsnr" v="305375" />
	</node>
	<node id="-26079" lat="59.0972170924" lon="6.11080599918">
		<tag k="fixme" v="consider natural=peak for the most distinct mountains in the district" />
		<tag k="name" v="Lauvåsen" />
		<tag k="natural" v="hill" />
		<tag k="place" v="locality" />
		<tag k="ssr:stedsnr" v="305363" />
	</node>
	<node id="-26076" lat="59.0376111115" lon="6.11657221386">
		<tag k="fixme" v="consider natural=peak for the most distinct mountains in the district" />
		<tag k="name" v="Guromyrfjellet" />
		<tag k="natural" v="hill" />
		<tag k="place" v="locality" />
		<tag k="ssr:stedsnr" v="305344" />
	</node>
	<node id="-26074" lat="59.0969777795" lon="6.12007499944">
		<tag k="fixme" v="consider natural=peak for the most distinct mountains in the district" />
		<tag k="name" v="Klauvåsen" />
		<tag k="natural" v="hill" />
		<tag k="place" v="locality" />
		<tag k="ssr:stedsnr" v="305721" />
	</node>
	<node id="-26073" lat="59.0981722196" lon="6.08392500432">
		<tag k="alt_name" v="Blokkelihumpane" />
		<tag k="fixme" v="consider natural=peak for the most distinct mountains in the district" />
		<tag k="name" v="Bakkalihumpane" />
		<tag k="natural" v="hill" />
		<tag k="place" v="locality" />
		<tag k="ssr:stedsnr" v="305718" />
	</node>
	<node id="-26072" lat="58.9652955662" lon="6.14679888352">
		<tag k="alt_name" v="Fantajuvet" />
		<tag k="name" v="Fantagjuvet" />
		<tag k="natural" v="gorge" />
		<tag k="ssr:stedsnr" v="304800" />
	</node>
	<node id="-26068" lat="58.9923194481" lon="6.05708056063">
		<tag k="alt_name" v="Ådnanesknuten" />
		<tag k="fixme" v="consider natural=peak for the most distinct mountains in the district" />
		<tag k="name" v="Ådnanesnuten" />
		<tag k="natural" v="hill" />
		<tag k="place" v="locality" />
		<tag k="ssr:stedsnr" v="304779" />
	</node>
	<node id="-26063" lat="58.9519333322" lon="6.01610555921">
		<tag k="name" v="Treskoodden" />
		<tag k="natural" v="hill" />
		<tag k="place" v="locality" />
		<tag k="ssr:stedsnr" v="304717" />
	</node>
	<node id="-26048" lat="58.9896416637" lon="6.08804444346">
		<tag k="name" v="Kleivane" />
		<tag k="place" v="locality" />
		<tag k="ssr:stedsnr" v="207195" />
	</node>
	<node id="-26041" lat="58.9746675215" lon="6.14312835036">
		<tag k="name" v="Litlafjell" />
		<tag k="natural" v="hill" />
		<tag k="place" v="locality" />
		<tag k="ssr:stedsnr" v="186716" />
	</node>
	<node id="-26039" lat="59.0677888846" lon="6.07715000628">
		<tag k="alt_name" v="Sjørbu" />
		<tag k="fixme" v="consider natural=peak for the most distinct mountains in the district" />
		<tag k="name" v="Skjørbu" />
		<tag k="natural" v="hill" />
		<tag k="place" v="locality" />
		<tag k="ssr:stedsnr" v="184660" />
	</node>
	<node id="-26027" lat="58.9925250005" lon="6.11506945176">
		<tag k="fixme" v="consider natural=peak for the most distinct mountains in the district" />
		<tag k="name" v="Rindane" />
		<tag k="natural" v="hill" />
		<tag k="place" v="locality" />
		<tag k="ssr:stedsnr" v="183787" />
	</node>
	<node id="-26024" lat="59.1003222259" lon="6.01919999719">
		<tag k="alt_name" v="Velandsåsen" />
		<tag k="fixme" v="consider natural=peak for the most distinct mountains in the district" />
		<tag k="name" v="Vedlandsåsen" />
		<tag k="natural" v="hill" />
		<tag k="place" v="locality" />
		<tag k="ssr:stedsnr" v="183729" />
	</node>
	<node id="-26023" lat="58.9490749997" lon="6.10754999162">
		<tag k="fixme" v="consider natural=peak for the most distinct mountains in the district" />
		<tag k="name" v="Skjerafjell" />
		<tag k="natural" v="hill" />
		<tag k="place" v="locality" />
		<tag k="ssr:stedsnr" v="183702" />
	</node>
	<node id="-26020" lat="59.1260777761" lon="6.07569721562">
		<tag k="alt_name" v="Grydå" />
		<tag k="fixme" v="consider natural=peak for the most distinct mountains in the district" />
		<tag k="name" v="Gryta" />
		<tag k="natural" v="hill" />
		<tag k="place" v="locality" />
		<tag k="ssr:stedsnr" v="183467" />
	</node>
	<node id="-26019" lat="58.9587666685" lon="6.05042499594">
		<tag k="alt_name" v="Jitlandsåsen" />
		<tag k="fixme" v="consider natural=peak for the most distinct mountains in the district" />
		<tag k="name" v="Gitlandsåsen" />
		<tag k="natural" v="hill" />
		<tag k="place" v="locality" />
		<tag k="ssr:stedsnr" v="182769" />
	</node>
	<node id="-26018" lat="59.0507361158" lon="6.14282223046">
		<tag k="alt_name" v="Småsilldalen" />
		<tag k="name" v="Småsildalen" />
		<tag k="natural" v="valley" />
		<tag k="place" v="locality" />
		<tag k="ssr:stedsnr" v="183296" />
	</node>
	<node id="-26017" lat="58.9507055584" lon="6.03550000835">
		<tag k="alt_name" v="Varen" />
		<tag k="fixme" v="consider natural=peak for the most distinct mountains in the district" />
		<tag k="name" v="Vardatoppen" />
		<tag k="natural" v="hill" />
		<tag k="place" v="locality" />
		<tag k="ssr:stedsnr" v="182691" />
	</node>
	<node id="-26016" lat="58.9460305543" lon="6.04633610398">
		<tag k="name" v="Uldarskaret" />
		<tag k="natural" v="valley" />
		<tag k="place" v="locality" />
		<tag k="ssr:stedsnr" v="180883" />
	</node>
	<node id="-26015" lat="58.9481694466" lon="6.0601194513">
		<tag k="fixme" v="consider natural=peak for the most distinct mountains in the district" />
		<tag k="name" v="Sauafjellet" />
		<tag k="natural" v="hill" />
		<tag k="place" v="locality" />
		<tag k="ssr:stedsnr" v="180598" />
	</node>
	<node id="-26013" lat="59.0335527791" lon="6.02413333399">
		<tag k="name" v="Fjidlebakkane" />
		<tag k="natural" v="slope" />
		<tag k="place" v="locality" />
		<tag k="ssr:stedsnr" v="176967" />
	</node>
	<node id="-26010" lat="59.0481472207" lon="5.96383054733">
		<tag k="fixme" v="consider natural=peak for the most distinct mountains in the district" />
		<tag k="name" v="Risdalsåsen" />
		<tag k="natural" v="hill" />
		<tag k="place" v="locality" />
		<tag k="ssr:stedsnr" v="176867" />
	</node>
	<node id="-26009" lat="59.0700555567" lon="6.06161666358">
		<tag k="fixme" v="consider natural=peak for the most distinct mountains in the district" />
		<tag k="name" v="Stodl" />
		<tag k="natural" v="hill" />
		<tag k="place" v="locality" />
		<tag k="ssr:stedsnr" v="176855" />
	</node>
	<node id="-26007" lat="59.1120222239" lon="6.03759723017">
		<tag k="fixme" v="consider natural=peak for the most distinct mountains in the district" />
		<tag k="name" v="Bustihaugen" />
		<tag k="natural" v="hill" />
		<tag k="place" v="locality" />
		<tag k="ssr:stedsnr" v="176749" />
	</node>
	<node id="-26006" lat="59.0896472252" lon="6.07682778264">
		<tag k="name" v="Sletta Heiå" />
		<tag k="natural" v="valley" />
		<tag k="place" v="locality" />
		<tag k="ssr:stedsnr" v="176702" />
	</node>
	<node id="-26005" lat="59.0805882571" lon="6.05626920381">
		<tag k="name" v="Padl" />
		<tag k="natural" v="slope" />
		<tag k="place" v="locality" />
		<tag k="ssr:stedsnr" v="176657" />
	</node>
	<node id="-26002" lat="58.9101444485" lon="6.07029999831">
		<tag k="fixme" v="consider natural=peak for the most distinct mountains in the district" />
		<tag k="name" v="Ørnakollen" />
		<tag k="natural" v="hill" />
		<tag k="place" v="locality" />
		<tag k="ssr:stedsnr" v="176491" />
	</node>
	<node id="-26001" lat="58.9226055599" lon="6.0772222152">
		<tag k="fixme" v="consider natural=peak for the most distinct mountains in the district" />
		<tag k="name" v="Levikåsen" />
		<tag k="natural" v="hill" />
		<tag k="place" v="locality" />
		<tag k="ssr:stedsnr" v="176483" />
	</node>
	<node id="-26000" lat="59.1259777736" lon="6.06969166659">
		<tag k="name" v="Skåradalen" />
		<tag k="natural" v="valley" />
		<tag k="place" v="locality" />
		<tag k="ssr:stedsnr" v="176465" />
	</node>
	<node id="-25994" lat="58.974427778" lon="6.05701111359">
		<tag k="fixme" v="consider natural=peak for the most distinct mountains in the district" />
		<tag k="name" v="Maritvarden" />
		<tag k="natural" v="hill" />
		<tag k="place" v="locality" />
		<tag k="ssr:stedsnr" v="175340" />
	</node>
	<node id="-25992" lat="58.9592444401" lon="6.02732221497">
		<tag k="name" v="Einerdalen" />
		<tag k="natural" v="valley" />
		<tag k="place" v="locality" />
		<tag k="ssr:stedsnr" v="175301" />
	</node>
	<node id="-25990" lat="58.9662916637" lon="6.00124443659">
		<tag k="fixme" v="consider natural=peak for the most distinct mountains in the district" />
		<tag k="name" v="Sjydningshammaren" />
		<tag k="natural" v="hill" />
		<tag k="place" v="locality" />
		<tag k="ssr:stedsnr" v="175276" />
	</node>
	<node id="-25989" lat="58.9653666661" lon="6.04617777393">
		<tag k="name" v="Øvra Kroga" />
		<tag k="natural" v="valley" />
		<tag k="place" v="locality" />
		<tag k="ssr:stedsnr" v="175249" />
	</node>
	<node id="-25985" lat="58.9375333368" lon="6.08929166376">
		<tag k="fixme" v="consider natural=peak for the most distinct mountains in the district" />
		<tag k="name" v="Jodreknuten" />
		<tag k="natural" v="hill" />
		<tag k="place" v="locality" />
		<tag k="ssr:stedsnr" v="161591" />
	</node>
	<node id="-25984" lat="58.9283138859" lon="6.0901194422">
		<tag k="name" v="Himmelsleitet" />
		<tag k="place" v="locality" />
		<tag k="ssr:stedsnr" v="161588" />
	</node>
	<node id="-25975" lat="59.0568055592" lon="5.93956666846">
		<tag k="name" v="Århaug" />
		<tag k="natural" v="hill" />
		<tag k="place" v="locality" />
		<tag k="ssr:stedsnr" v="125929" />
	</node>
	<node id="-25973" lat="59.1090055571" lon="6.05071666658">
		<tag k="alt_name" v="Mollhesten" />
		<tag k="fixme" v="consider natural=peak for the most distinct mountains in the district" />
		<tag k="name" v="Moldhesten" />
		<tag k="natural" v="hill" />
		<tag k="place" v="locality" />
		<tag k="ssr:stedsnr" v="123767" />
	</node>
	<node id="-25969" lat="59.063794446" lon="6.0757444526">
		<tag k="alt_name" v="Rolighedå" />
		<tag k="name" v="Roligheta" />
		<tag k="natural" v="valley" />
		<tag k="place" v="locality" />
		<tag k="ssr:stedsnr" v="123691" />
	</node>
	<node id="-25968" lat="59.0590194412" lon="6.12243611746">
		<tag k="name" v="Jørpelandslia" />
		<tag k="natural" v="slope" />
		<tag k="place" v="locality" />
		<tag k="ssr:stedsnr" v="123686" />
	</node>
	<node id="-25967" lat="59.0155527809" lon="6.08137499676">
		<tag k="name" v="Hamradekkene" />
		<tag k="natural" v="valley" />
		<tag k="place" v="locality" />
		<tag k="ssr:stedsnr" v="123399" />
	</node>
	<node id="-25960" lat="59.0416111089" lon="6.15970832686">
		<tag k="fixme" v="consider natural=peak for the most distinct mountains in the district" />
		<tag k="name" v="Revafjellet" />
		<tag k="natural" v="hill" />
		<tag k="place" v="locality" />
		<tag k="ssr:stedsnr" v="123362" />
	</node>
	<node id="-25958" lat="59.0374388921" lon="6.07280833045">
		<tag k="alt_name" v="Skaret" />
		<tag k="name" v="Skardet" />
		<tag k="natural" v="valley" />
		<tag k="place" v="locality" />
		<tag k="ssr:stedsnr" v="123348" />
	</node>
	<node id="-25957" lat="59.0058388885" lon="6.1423138908">
		<tag k="alt_name" v="Pighammar" />
		<tag k="fixme" v="consider natural=peak for the most distinct mountains in the district" />
		<tag k="name" v="Pikhammaren" />
		<tag k="natural" v="hill" />
		<tag k="place" v="locality" />
		<tag k="ssr:stedsnr" v="123289" />
	</node>
	<node id="-25955" lat="59.0077027797" lon="6.08526110455">
		<tag k="fixme" v="consider natural=peak for the most distinct mountains in the district" />
		<tag k="name" v="Husafjellet" />
		<tag k="natural" v="hill" />
		<tag k="place" v="locality" />
		<tag k="ssr:stedsnr" v="123280" />
	</node>
	<node id="-25952" lat="58.9765249963" lon="6.03162500324">
		<tag k="alt_name" v="Foråsen" />
		<tag k="fixme" v="consider natural=peak for the most distinct mountains in the district" />
		<tag k="name" v="Furåsen" />
		<tag k="natural" v="hill" />
		<tag k="place" v="locality" />
		<tag k="ssr:stedsnr" v="122750" />
	</node>
	<node id="-25947" lat="59.0481194457" lon="6.02536111178">
		<tag k="alt_name" v="Breiaskar" />
		<tag k="name" v="Breidaskard" />
		<tag k="natural" v="valley" />
		<tag k="place" v="locality" />
		<tag k="ssr:stedsnr" v="122627" />
	</node>
	<node id="-25945" lat="58.9305833333" lon="6.05664444139">
		<tag k="fixme" v="consider natural=peak for the most distinct mountains in the district" />
		<tag k="name" v="Kvednhusnuten" />
		<tag k="natural" v="hill" />
		<tag k="place" v="locality" />
		<tag k="ssr:stedsnr" v="120602" />
	</node>
	<node id="-25943" lat="59.0516472194" lon="6.06741111819">
		<tag k="name" v="Lusaberghamrane" />
		<tag k="natural" v="hill" />
		<tag k="place" v="locality" />
		<tag k="ssr:stedsnr" v="115962" />
	</node>
	<node id="-25942" lat="59.0435861121" lon="6.13228889548">
		<tag k="name" v="Lågalia" />
		<tag k="natural" v="slope" />
		<tag k="place" v="locality" />
		<tag k="ssr:stedsnr" v="115959" />
	</node>
	<node id="-25939" lat="58.954141666" lon="6.12883610968">
		<tag k="name" v="Høgefjell" />
		<tag k="place" v="locality" />
		<tag k="ssr:stedsnr" v="115879" />
	</node>
	<node id="-25937" lat="58.9759388854" lon="6.04093888249">
		<tag k="fixme" v="consider natural=peak for the most distinct mountains in the district" />
		<tag k="name" v="Hammaren" />
		<tag k="natural" v="hill" />
		<tag k="place" v="locality" />
		<tag k="ssr:stedsnr" v="115847" />
	</node>
	<node id="-25936" lat="58.9667222202" lon="6.07064722009">
		<tag k="fixme" v="consider natural=peak for the most distinct mountains in the district" />
		<tag k="name" v="Store Teren" />
		<tag k="natural" v="hill" />
		<tag k="place" v="locality" />
		<tag k="ssr:stedsnr" v="115690" />
	</node>
	<node id="-25935" lat="59.108191671" lon="6.00340277803">
		<tag k="fixme" v="consider natural=peak for the most distinct mountains in the district" />
		<tag k="name" v="Bjørnåsen" />
		<tag k="natural" v="hill" />
		<tag k="place" v="locality" />
		<tag k="ssr:stedsnr" v="115748" />
	</node>
	<node id="-25925" lat="58.961344442" lon="6.02994445089">
		<tag k="fixme" v="consider natural=peak for the most distinct mountains in the district" />
		<tag k="name" v="Røynlihalsen" />
		<tag k="natural" v="hill" />
		<tag k="place" v="locality" />
		<tag k="ssr:stedsnr" v="115305" />
	</node>
	<node id="-25919" lat="59.1111500028" lon="6.14387777048">
		<tag k="fixme" v="consider natural=peak for the most distinct mountains in the district" />
		<tag k="name" v="Almåsen" />
		<tag k="natural" v="hill" />
		<tag k="place" v="locality" />
		<tag k="ssr:stedsnr" v="63731" />
	</node>
	<node id="-25914" lat="59.1052749975" lon="6.07729444365">
		<tag k="fixme" v="consider natural=peak for the most distinct mountains in the district" />
		<tag k="name" v="Grimsåsen" />
		<tag k="natural" v="hill" />
		<tag k="place" v="locality" />
		<tag k="ssr:stedsnr" v="62732" />
	</node>
	<node id="-25912" lat="59.0964999994" lon="6.04854167367">
		<tag k="alt_name" v="Litle Hodnåsen" />
		<tag k="fixme" v="consider natural=peak for the most distinct mountains in the district" />
		<tag k="name" v="Litlehornåsen" />
		<tag k="natural" v="hill" />
		<tag k="place" v="locality" />
		<tag k="ssr:stedsnr" v="62707" />
	</node>
	<node id="-25910" lat="59.0884861097" lon="6.0828111039">
		<tag k="alt_name" v="Mikknuten" />
		<tag k="fixme" v="consider natural=peak for the most distinct mountains in the district" />
		<tag k="name" v="Midknuten" />
		<tag k="natural" v="hill" />
		<tag k="place" v="locality" />
		<tag k="ssr:stedsnr" v="62697" />
	</node>
	<node id="-25909" lat="59.0845500044" lon="5.95336111618">
		<tag k="fixme" v="consider natural=peak for the most distinct mountains in the district" />
		<tag k="name" v="Sneisåsen" />
		<tag k="natural" v="hill" />
		<tag k="place" v="locality" />
		<tag k="ssr:stedsnr" v="62691" />
	</node>
	<node id="-25906" lat="59.051300001" lon="5.96825555634">
		<tag k="fixme" v="consider natural=peak for the most distinct mountains in the district" />
		<tag k="name" v="Middagsåsen" />
		<tag k="natural" v="hill" />
		<tag k="place" v="locality" />
		<tag k="ssr:stedsnr" v="62643" />
	</node>
	<node id="-25902" lat="59.1195361116" lon="6.10301389044">
		<tag k="alt_name" v="Buarås" />
		<tag k="name" v="Buaråsen" />
		<tag k="natural" v="hill" />
		<tag k="place" v="locality" />
		<tag k="ssr:stedsnr" v="62501" />
	</node>
	<node id="-25901" lat="59.0220361128" lon="6.15424722014">
		<tag k="fixme" v="consider natural=peak for the most distinct mountains in the district" />
		<tag k="name" v="Sauafjellet" />
		<tag k="natural" v="hill" />
		<tag k="place" v="locality" />
		<tag k="ssr:stedsnr" v="62368" />
	</node>
	<node id="-25900" lat="59.0182916707" lon="6.08808054807">
		<tag k="fixme" v="consider natural=peak for the most distinct mountains in the district" />
		<tag k="name" v="Nonsknuten" />
		<tag k="natural" v="hill" />
		<tag k="place" v="locality" />
		<tag k="ssr:stedsnr" v="62352" />
	</node>
	<node id="-25898" lat="59.0304027808" lon="6.13569166051">
		<tag k="fixme" v="consider natural=peak for the most distinct mountains in the district" />
		<tag k="name" v="Kjeatofjellet" />
		<tag k="natural" v="hill" />
		<tag k="place" v="locality" />
		<tag k="ssr:stedsnr" v="62345" />
	</node>
	<node id="-25895" lat="59.0459805515" lon="6.17525555035">
		<tag k="fixme" v="consider natural=peak for the most distinct mountains in the district" />
		<tag k="name" v="Botnafjellet" />
		<tag k="natural" v="hill" />
		<tag k="place" v="locality" />
		<tag k="ssr:stedsnr" v="62322" />
	</node>
	<node id="-25892" lat="59.0404250038" lon="6.0730055621">
		<tag k="alt_name" v="Krokarfjellet, store;Stora Krogarfjellet" />
		<tag k="fixme" v="consider natural=peak for the most distinct mountains in the district" />
		<tag k="name" v="Store Krokarfjellet" />
		<tag k="natural" v="hill" />
		<tag k="place" v="locality" />
		<tag k="ssr:stedsnr" v="62304" />
	</node>
	<node id="-25891" lat="59.0541472229" lon="6.15781665948">
		<tag k="fixme" v="consider natural=peak for the most distinct mountains in the district" />
		<tag k="name" v="Heiahornet" />
		<tag k="natural" v="hill" />
		<tag k="place" v="locality" />
		<tag k="ssr:stedsnr" v="62303" />
	</node>
	<node id="-25888" lat="59.0036444464" lon="6.15271943896">
		<tag k="alt_name" v="Måslifjellet" />
		<tag k="fixme" v="consider natural=peak for the most distinct mountains in the district" />
		<tag k="name" v="Moslifjellet" />
		<tag k="natural" v="hill" />
		<tag k="place" v="locality" />
		<tag k="ssr:stedsnr" v="61847" />
	</node>
	<node id="-25887" lat="58.9991138886" lon="6.16570554943">
		<tag k="name" v="Løknuten" />
		<tag k="natural" v="hill" />
		<tag k="place" v="locality" />
		<tag k="ssr:stedsnr" v="61844" />
	</node>
	<node id="-25882" lat="58.9827055581" lon="6.02329999753">
		<tag k="fixme" v="consider natural=peak for the most distinct mountains in the district" />
		<tag k="name" v="Hausvikkammen" />
		<tag k="natural" v="hill" />
		<tag k="place" v="locality" />
		<tag k="ssr:stedsnr" v="61756" />
	</node>
	<node id="-25881" lat="58.9915333321" lon="6.18481665828">
		<tag k="name" v="Neverdalen" />
		<tag k="natural" v="valley" />
		<tag k="place" v="locality" />
		<tag k="ssr:stedsnr" v="60047" />
	</node>
	<node id="-25880" lat="58.9905722185" lon="6.16469722905">
		<tag k="name" v="Neverdalsskaret" />
		<tag k="natural" v="valley" />
		<tag k="place" v="locality" />
		<tag k="ssr:stedsnr" v="60045" />
	</node>
	<node id="-25879" lat="58.935802776" lon="6.0407444478">
		<tag k="fixme" v="consider natural=peak for the most distinct mountains in the district" />
		<tag k="name" v="Trellskår" />
		<tag k="natural" v="hill" />
		<tag k="place" v="locality" />
		<tag k="ssr:stedsnr" v="59869" />
	</node>
	<node id="-25878" lat="58.9444000015" lon="6.06468333513">
		<tag k="name" v="Kjistitødne" />
		<tag k="natural" v="slope" />
		<tag k="place" v="locality" />
		<tag k="ssr:stedsnr" v="59612" />
	</node>
	<node id="-25873" lat="59.0053666633" lon="6.12658889144">
		<tag k="name" v="Høgsethkrona" />
		<tag k="natural" v="valley" />
		<tag k="place" v="locality" />
		<tag k="ssr:stedsnr" v="55943" />
	</node>
	<node id="-25870" lat="59.0639666633" lon="6.04955834132">
		<tag k="name" v="Danseberga" />
		<tag k="natural" v="hill" />
		<tag k="place" v="locality" />
		<tag k="ssr:stedsnr" v="55879" />
	</node>
	<node id="-25867" lat="58.926019441" lon="6.05664999274">
		<tag k="fixme" v="consider natural=peak for the most distinct mountains in the district" />
		<tag k="name" v="Auklendsberget" />
		<tag k="natural" v="hill" />
		<tag k="place" v="locality" />
		<tag k="ssr:stedsnr" v="55485" />
	</node>
	<node id="-25866" lat="59.0811444415" lon="6.01166388074">
		<tag k="fixme" v="consider natural=peak for the most distinct mountains in the district" />
		<tag k="name" v="Varafjellet" />
		<tag k="natural" v="hill" />
		<tag k="place" v="locality" />
		<tag k="ssr:stedsnr" v="55640" />
	</node>
	<node id="-25865" lat="59.0924333364" lon="6.01096111765">
		<tag k="name" v="Sandåsen" />
		<tag k="natural" v="hill" />
		<tag k="place" v="locality" />
		<tag k="ssr:stedsnr" v="55636" />
	</node>
	<node id="-25863" lat="59.096261114" lon="6.02037500033">
		<tag k="fixme" v="consider natural=peak for the most distinct mountains in the district" />
		<tag k="name" v="Litle Velandsåsen" />
		<tag k="natural" v="hill" />
		<tag k="place" v="locality" />
		<tag k="ssr:stedsnr" v="55621" />
	</node>
	<node id="-25862" lat="59.1096361111" lon="6.14516944318">
		<tag k="name" v="Tjelmaskaret" />
		<tag k="natural" v="valley" />
		<tag k="place" v="locality" />
		<tag k="ssr:stedsnr" v="55617" />
	</node>
	<node id="-25858" lat="58.9898333337" lon="6.11506666262">
		<tag k="name" v="Røsejuvet" />
		<tag k="natural" v="gorge" />
		<tag k="ssr:stedsnr" v="54737" />
	</node>
	<node id="-25857" lat="59.1279361065" lon="6.14214166005">
		<tag k="name" v="Langeribbene" />
		<tag k="natural" v="ridge" />
		<tag k="place" v="locality" />
		<tag k="ssr:stedsnr" v="54577" />
	</node>
	<node id="-25854" lat="58.9542250041" lon="6.03024165866">
		<tag k="name" v="Eikjeskar" />
		<tag k="natural" v="valley" />
		<tag k="place" v="locality" />
		<tag k="ssr:stedsnr" v="54300" />
	</node>
	<node id="-25852" lat="59.007174997" lon="6.08962778636">
		<tag k="name" v="Dyragjotrene" />
		<tag k="natural" v="valley" />
		<tag k="place" v="locality" />
		<tag k="ssr:stedsnr" v="53388" />
	</node>
	<node id="-25848" lat="58.9390611131" lon="6.09125000653">
		<tag k="fixme" v="consider natural=peak for the most distinct mountains in the district" />
		<tag k="name" v="Ørnås" />
		<tag k="natural" v="hill" />
		<tag k="place" v="locality" />
		<tag k="ssr:stedsnr" v="39541" />
	</node>
	<node id="-25846" lat="58.9263472226" lon="6.09374443754">
		<tag k="alt_name" v="Nipo" />
		<tag k="fixme" v="consider natural=peak for the most distinct mountains in the district" />
		<tag k="name" v="Nibå" />
		<tag k="natural" v="hill" />
		<tag k="place" v="locality" />
		<tag k="ssr:stedsnr" v="24974" />
	</node>
	<node id="-25841" lat="59.1094916691" lon="5.98661945062">
		<tag k="fixme" v="consider natural=peak for the most distinct mountains in the district" />
		<tag k="name" v="Storemosen" />
		<tag k="natural" v="hill" />
		<tag k="place" v="locality" />
		<tag k="ssr:stedsnr" v="2739" />
	</node>
	<node id="-25840" lat="59.1105083353" lon="6.11266667418">
		<tag k="name" v="Skorpeheidalen" />
		<tag k="natural" v="valley" />
		<tag k="place" v="locality" />
		<tag k="ssr:stedsnr" v="2728" />
	</node>
	<node id="-25826" lat="59.093883334" lon="6.07133055243">
		<tag k="name" v="Danseberga" />
		<tag k="natural" v="ridge" />
		<tag k="place" v="locality" />
		<tag k="ssr:stedsnr" v="1704" />
	</node>
	<node id="-25825" lat="59.0705333363" lon="5.94317777583">
		<tag k="alt_name" v="Kvammafjellet" />
		<tag k="fixme" v="consider natural=peak for the most distinct mountains in the district" />
		<tag k="name" v="Kvamafjellet" />
		<tag k="natural" v="hill" />
		<tag k="place" v="locality" />
		<tag k="ssr:stedsnr" v="1674" />
	</node>
	<node id="-25824" lat="59.0457459564" lon="5.93550654638">
		<tag k="alt_name" v="Midbakken" />
		<tag k="fixme" v="consider natural=peak for the most distinct mountains in the district" />
		<tag k="name" v="Midtbakken" />
		<tag k="natural" v="hill" />
		<tag k="place" v="locality" />
		<tag k="ssr:stedsnr" v="1647" />
	</node>
	<node id="-25814" lat="58.9558999993" lon="6.02090833512">
		<tag k="fixme" v="consider natural=peak for the most distinct mountains in the district" />
		<tag k="name" v="Eldridåsen" />
		<tag k="natural" v="hill" />
		<tag k="place" v="locality" />
		<tag k="ssr:stedsnr" v="788" />
	</node>
	<node id="-25799" lat="59.0006638869" lon="6.07871944595">
		<tag k="name" v="Bergjå" />
		<tag k="natural" v="hill" />
		<tag k="place" v="locality" />
		<tag k="ssr:stedsnr" v="963406" />
	</node>
	<node id="-25794" lat="59.0761166663" lon="6.00719722356">
		<tag k="fixme" v="consider natural=peak for the most distinct mountains in the district" />
		<tag k="name" v="Litlegrimsåsen" />
		<tag k="natural" v="hill" />
		<tag k="place" v="locality" />
		<tag k="ssr:stedsnr" v="904913" />
	</node>
	<node id="-25793" lat="59.059258334" lon="6.01105555882">
		<tag k="fixme" v="consider natural=peak for the most distinct mountains in the district" />
		<tag k="name" v="Kjørkjesponen" />
		<tag k="natural" v="hill" />
		<tag k="place" v="locality" />
		<tag k="ssr:stedsnr" v="904908" />
	</node>
	<node id="-25792" lat="59.0836361148" lon="5.9177250024">
		<tag k="name" v="Fognaskarshaugane" />
		<tag k="natural" v="hill" />
		<tag k="place" v="locality" />
		<tag k="ssr:stedsnr" v="904773" />
	</node>
	<node id="-25791" lat="59.1050416681" lon="6.04597500216">
		<tag k="fixme" v="consider natural=peak for the most distinct mountains in the district" />
		<tag k="name" v="Varadn" />
		<tag k="natural" v="hill" />
		<tag k="place" v="locality" />
		<tag k="ssr:stedsnr" v="904768" />
	</node>
	<node id="-25789" lat="59.0340638859" lon="6.08252499393">
		<tag k="name" v="Sjoaliskaret" />
		<tag k="natural" v="valley" />
		<tag k="place" v="locality" />
		<tag k="ssr:stedsnr" v="904263" />
	</node>
	<node id="-25788" lat="59.0272472184" lon="6.09631666592">
		<tag k="fixme" v="consider natural=peak for the most distinct mountains in the district" />
		<tag k="name" v="Sandhaug" />
		<tag k="natural" v="hill" />
		<tag k="place" v="locality" />
		<tag k="ssr:stedsnr" v="904262" />
	</node>
	<node id="-25786" lat="58.9952472213" lon="6.20027222829">
		<tag k="fixme" v="consider natural=peak for the most distinct mountains in the district" />
		<tag k="name" v="Lepsafjellet" />
		<tag k="natural" v="hill" />
		<tag k="place" v="locality" />
		<tag k="ssr:stedsnr" v="904363" />
	</node>
	<node id="-25785" lat="58.9715277786" lon="6.15100278478">
		<tag k="alt_name" v="Refsbakkane" />
		<tag k="name" v="Revsbakkane" />
		<tag k="natural" v="slope" />
		<tag k="place" v="locality" />
		<tag k="ssr:stedsnr" v="903677" />
	</node>
	<node id="-25784" lat="58.9630361139" lon="6.06301111554">
		<tag k="name" v="Forelidalen" />
		<tag k="natural" v="valley" />
		<tag k="place" v="locality" />
		<tag k="ssr:stedsnr" v="903722" />
	</node>
	<node id="-25783" lat="58.9758472242" lon="6.08203889054">
		<tag k="name" v="Lomarfjellet" />
		<tag k="place" v="locality" />
		<tag k="ssr:stedsnr" v="903266" />
	</node>
	<node id="-25781" lat="59.0477527816" lon="5.81885277236">
		<tag k="name" v="Niben" />
		<tag k="natural" v="hill" />
		<tag k="place" v="locality" />
		<tag k="ssr:stedsnr" v="902358" />
	</node>
	<node id="-25773" lat="58.9732083358" lon="5.98896666118">
		<tag k="fixme" v="consider natural=peak for the most distinct mountains in the district" />
		<tag k="name" v="Vassåsen" />
		<tag k="natural" v="hill" />
		<tag k="place" v="locality" />
		<tag k="ssr:stedsnr" v="851771" />
	</node>
	<node id="-25772" lat="58.9866616992" lon="6.187476091">
		<tag k="alt_name" v="Prekestolen" />
		<tag k="fixme" v="consider natural=peak for the most distinct mountains in the district" />
		<tag k="name" v="Preikestolen" />
		<tag k="natural" v="hill" />
		<tag k="place" v="locality" />
		<tag k="ssr:stedsnr" v="851765" />
	</node>
	<node id="-25767" lat="59.016861107" lon="6.05580832604">
		<tag k="name" v="Bjønnskarshammaren" />
		<tag k="natural" v="hill" />
		<tag k="place" v="locality" />
		<tag k="ssr:stedsnr" v="964230" />
	</node>
	<node id="-25762" lat="58.9475666639" lon="6.11390556185">
		<tag k="fixme" v="consider natural=peak for the most distinct mountains in the district" />
		<tag k="name" v="Slettaberget" />
		<tag k="natural" v="hill" />
		<tag k="place" v="locality" />
		<tag k="ssr:stedsnr" v="831566" />
	</node>
	<node id="-25754" lat="59.0405583337" lon="5.82640556413">
		<tag k="alt_name" v="Krågeberg" />
		<tag k="name" v="Kråkeberg" />
		<tag k="natural" v="hill" />
		<tag k="place" v="locality" />
		<tag k="ssr:stedsnr" v="790822" />
	</node>
	<node id="-25752" lat="59.0220777763" lon="6.17230278629">
		<tag k="alt_name" v="Krunå" />
		<tag k="fixme" v="consider natural=peak for the most distinct mountains in the district" />
		<tag k="name" v="Kruna" />
		<tag k="natural" v="hill" />
		<tag k="place" v="locality" />
		<tag k="ssr:stedsnr" v="790224" />
	</node>
	<node id="-25751" lat="59.0110194422" lon="6.19136667542">
		<tag k="fixme" v="consider natural=peak for the most distinct mountains in the district" />
		<tag k="name" v="Urhaugane" />
		<tag k="natural" v="hill" />
		<tag k="place" v="locality" />
		<tag k="ssr:stedsnr" v="790222" />
	</node>
	<node id="-25750" lat="58.948172226" lon="6.07136943613">
		<tag k="name" v="Foredalen" />
		<tag k="natural" v="valley" />
		<tag k="place" v="locality" />
		<tag k="ssr:stedsnr" v="787632" />
	</node>
	<node id="-25749" lat="59.0573722247" lon="6.04085833294">
		<tag k="name" v="Gaupedalen" />
		<tag k="natural" v="valley" />
		<tag k="place" v="locality" />
		<tag k="ssr:stedsnr" v="786846" />
	</node>
	<node id="-25747" lat="59.0398166657" lon="5.932463895">
		<tag k="name" v="Strandalia" />
		<tag k="natural" v="slope" />
		<tag k="place" v="locality" />
		<tag k="ssr:stedsnr" v="914924" />
	</node>
	<node id="-25745" lat="59.0812055582" lon="5.89794443756">
		<tag k="fixme" v="consider natural=peak for the most distinct mountains in the district" />
		<tag k="name" v="Rossåsen" />
		<tag k="natural" v="hill" />
		<tag k="place" v="locality" />
		<tag k="ssr:stedsnr" v="912707" />
	</node>
	<node id="-25743" lat="59.0861000032" lon="5.95357499703">
		<tag k="fixme" v="consider natural=peak for the most distinct mountains in the district" />
		<tag k="name" v="Eidsåsen" />
		<tag k="natural" v="hill" />
		<tag k="place" v="locality" />
		<tag k="ssr:stedsnr" v="912702" />
	</node>
	<node id="-25740" lat="59.078366669" lon="6.11840555046">
		<tag k="alt_name" v="Skomagargjuvet" />
		<tag k="name" v="Skomakargjuvet" />
		<tag k="natural" v="valley" />
		<tag k="place" v="locality" />
		<tag k="ssr:stedsnr" v="912681" />
	</node>
	<node id="-25737" lat="59.0646944407" lon="6.12676111886">
		<tag k="alt_name" v="Tedneskaret" />
		<tag k="name" v="Terneskard" />
		<tag k="natural" v="valley" />
		<tag k="place" v="locality" />
		<tag k="ssr:stedsnr" v="912670" />
	</node>
	<node id="-25734" lat="59.0599916703" lon="6.11333610813">
		<tag k="alt_name" v="Tibergfjellet, stora" />
		<tag k="fixme" v="consider natural=peak for the most distinct mountains in the district" />
		<tag k="name" v="Stora Tibergfjellet" />
		<tag k="natural" v="hill" />
		<tag k="place" v="locality" />
		<tag k="ssr:stedsnr" v="912652" />
	</node>
	<node id="-25732" lat="59.1003055551" lon="6.00598610523">
		<tag k="fixme" v="consider natural=peak for the most distinct mountains in the district" />
		<tag k="name" v="Medåsen" />
		<tag k="natural" v="hill" />
		<tag k="place" v="locality" />
		<tag k="ssr:stedsnr" v="912385" />
	</node>
	<node id="-25723" lat="58.9755166648" lon="6.16130832888">
		<tag k="alt_name" v="Skåbafjellet" />
		<tag k="fixme" v="consider natural=peak for the most distinct mountains in the district" />
		<tag k="name" v="Skåpet" />
		<tag k="natural" v="hill" />
		<tag k="place" v="locality" />
		<tag k="ssr:stedsnr" v="911803" />
	</node>
	<node id="-25721" lat="58.9871888929" lon="6.10390000249">
		<tag k="fixme" v="consider natural=peak for the most distinct mountains in the district" />
		<tag k="name" v="Dormålsfjellet" />
		<tag k="natural" v="hill" />
		<tag k="place" v="locality" />
		<tag k="ssr:stedsnr" v="911781" />
	</node>
	<node id="-25718" lat="59.1026749969" lon="5.96981943979">
		<tag k="fixme" v="consider natural=peak for the most distinct mountains in the district" />
		<tag k="name" v="Langåsen" />
		<tag k="natural" v="hill" />
		<tag k="place" v="locality" />
		<tag k="ssr:stedsnr" v="911751" />
	</node>
	<node id="-25714" lat="59.0595166691" lon="6.17245278045">
		<tag k="fixme" v="consider natural=peak for the most distinct mountains in the district" />
		<tag k="name" v="Liarknuten" />
		<tag k="natural" v="hill" />
		<tag k="place" v="locality" />
		<tag k="ssr:stedsnr" v="911649" />
	</node>
	<node id="-25711" lat="59.0484194426" lon="6.10328333188">
		<tag k="fixme" v="consider natural=peak for the most distinct mountains in the district" />
		<tag k="name" v="Krossfjellet" />
		<tag k="natural" v="hill" />
		<tag k="place" v="locality" />
		<tag k="ssr:stedsnr" v="911639" />
	</node>
	<node id="-25709" lat="58.9419974443" lon="6.03877016367">
		<tag k="fixme" v="consider natural=peak for the most distinct mountains in the district" />
		<tag k="name" v="Grimsåsen" />
		<tag k="natural" v="hill" />
		<tag k="place" v="locality" />
		<tag k="ssr:stedsnr" v="909899" />
	</node>
	<node id="-25701" lat="58.9700583324" lon="6.1484083271">
		<tag k="name" v="Stølaknuten" />
		<tag k="natural" v="hill" />
		<tag k="place" v="locality" />
		<tag k="ssr:stedsnr" v="904886" />
	</node>
	<node id="-25700" lat="58.9821166645" lon="6.03088889644">
		<tag k="name" v="Tommeskrona" />
		<tag k="natural" v="valley" />
		<tag k="place" v="locality" />
		<tag k="ssr:stedsnr" v="904884" />
	</node>
	<node id="-25699" lat="59.0457749994" lon="6.0747138945">
		<tag k="name" v="Nordra Småskaret" />
		<tag k="natural" v="valley" />
		<tag k="place" v="locality" />
		<tag k="ssr:stedsnr" v="904981" />
	</node>
	<node id="-25696" lat="59.1166749968" lon="5.97945277332">
		<tag k="fixme" v="consider natural=peak for the most distinct mountains in the district" />
		<tag k="name" v="Brattsteinen" />
		<tag k="natural" v="hill" />
		<tag k="place" v="locality" />
		<tag k="ssr:stedsnr" v="904786" />
	</node>
	<node id="-25695" lat="59.0941694457" lon="6.03960833821">
		<tag k="name" v="Hammaren" />
		<tag k="natural" v="hill" />
		<tag k="place" v="locality" />
		<tag k="ssr:stedsnr" v="904633" />
	</node>
	<node id="-25692" lat="59.1098944488" lon="6.03886388705">
		<tag k="fixme" v="consider natural=peak for the most distinct mountains in the district" />
		<tag k="name" v="Hamrane" />
		<tag k="natural" v="hill" />
		<tag k="place" v="locality" />
		<tag k="ssr:stedsnr" v="904728" />
	</node>
	<node id="-25691" lat="59.0942333304" lon="6.06099722855">
		<tag k="name" v="Blåsteingruva" />
		<tag k="natural" v="hill" />
		<tag k="place" v="locality" />
		<tag k="ssr:stedsnr" v="904676" />
	</node>
	<node id="-25686" lat="59.1158500006" lon="6.06695833079">
		<tag k="alt_name" v="Rognkleiva" />
		<tag k="name" v="Rongkleiva" />
		<tag k="natural" v="slope" />
		<tag k="place" v="locality" />
		<tag k="ssr:stedsnr" v="730773" />
	</node>
	<node id="-25682" lat="59.0258749971" lon="6.13810555082">
		<tag k="name" v="Rovadalen" />
		<tag k="natural" v="valley" />
		<tag k="place" v="locality" />
		<tag k="ssr:stedsnr" v="730373" />
	</node>
	<node id="-25680" lat="59.0569138931" lon="6.03824444453">
		<tag k="alt_name" v="Almås" />
		<tag k="fixme" v="consider natural=peak for the most distinct mountains in the district" />
		<tag k="name" v="Almåsen" />
		<tag k="natural" v="hill" />
		<tag k="place" v="locality" />
		<tag k="ssr:stedsnr" v="730361" />
	</node>
	<node id="-25679" lat="59.0329749999" lon="6.07287499188">
		<tag k="fixme" v="consider natural=peak for the most distinct mountains in the district" />
		<tag k="name" v="Førlandsnuten" />
		<tag k="natural" v="hill" />
		<tag k="place" v="locality" />
		<tag k="ssr:stedsnr" v="730359" />
	</node>
	<node id="-25678" lat="58.9377638843" lon="6.0554249932">
		<tag k="fixme" v="consider natural=peak for the most distinct mountains in the district" />
		<tag k="name" v="Hestås" />
		<tag k="natural" v="hill" />
		<tag k="place" v="locality" />
		<tag k="ssr:stedsnr" v="727616" />
	</node>
	<node id="-25676" lat="59.0022527796" lon="6.12393889367">
		<tag k="name" v="Måslia" />
		<tag k="natural" v="slope" />
		<tag k="place" v="locality" />
		<tag k="ssr:stedsnr" v="722960" />
	</node>
	<node id="-25674" lat="58.9505777745" lon="6.05104444581">
		<tag k="name" v="Vedrabushaugen" />
		<tag k="natural" v="hill" />
		<tag k="place" v="locality" />
		<tag k="ssr:stedsnr" v="721227" />
	</node>
	<node id="-25670" lat="58.9313194473" lon="6.07238056138">
		<tag k="name" v="Breiaskar" />
		<tag k="natural" v="valley" />
		<tag k="place" v="locality" />
		<tag k="ssr:stedsnr" v="889581" />
	</node>
	<node id="-25664" lat="59.0407277801" lon="6.03257499964">
		<tag k="name" v="Fjellsbakkane" />
		<tag k="natural" v="slope" />
		<tag k="place" v="locality" />
		<tag k="ssr:stedsnr" v="669303" />
	</node>
	<node id="-25661" lat="59.0876388878" lon="5.96548888134">
		<tag k="name" v="Seldal" />
		<tag k="natural" v="valley" />
		<tag k="place" v="locality" />
		<tag k="ssr:stedsnr" v="661867" />
	</node>
	<node id="-25658" lat="59.086686109" lon="6.0829444419">
		<tag k="name" v="Bjødnatona" />
		<tag k="natural" v="slope" />
		<tag k="place" v="locality" />
		<tag k="ssr:stedsnr" v="661671" />
	</node>
	<node id="-25657" lat="59.0856166701" lon="6.06704444414">
		<tag k="name" v="Tinnadalen" />
		<tag k="natural" v="valley" />
		<tag k="place" v="locality" />
		<tag k="ssr:stedsnr" v="661666" />
	</node>
	<node id="-25655" lat="58.9527916706" lon="6.03038332949">
		<tag k="name" v="Nordlandsdalen" />
		<tag k="natural" v="valley" />
		<tag k="place" v="locality" />
		<tag k="ssr:stedsnr" v="660309" />
	</node>
	<node id="-25652" lat="59.0654916687" lon="6.09641944167">
		<tag k="fixme" v="consider natural=peak for the most distinct mountains in the district" />
		<tag k="name" v="Litlekrossen" />
		<tag k="natural" v="hill" />
		<tag k="place" v="locality" />
		<tag k="ssr:stedsnr" v="730696" />
	</node>
	<node id="-25651" lat="59.1117749999" lon="5.99243055662">
		<tag k="fixme" v="consider natural=peak for the most distinct mountains in the district" />
		<tag k="name" v="Fiskåsen" />
		<tag k="natural" v="hill" />
		<tag k="place" v="locality" />
		<tag k="ssr:stedsnr" v="730789" />
	</node>
	<node id="-25643" lat="59.1008444446" lon="6.08085278284">
		<tag k="alt_name" v="Ulvaskaret" />
		<tag k="name" v="Ulvaskardet" />
		<tag k="natural" v="valley" />
		<tag k="place" v="locality" />
		<tag k="ssr:stedsnr" v="729739" />
	</node>
	<node id="-25637" lat="58.9250194438" lon="6.05344444502">
		<tag k="alt_name" v="Erevigshammaren" />
		<tag k="fixme" v="consider natural=peak for the most distinct mountains in the district" />
		<tag k="name" v="Erevighorn" />
		<tag k="natural" v="hill" />
		<tag k="place" v="locality" />
		<tag k="ssr:stedsnr" v="729771" />
	</node>
	<node id="-25636" lat="58.933247734" lon="6.04658691009">
		<tag k="name" v="Våmulen" />
		<tag k="natural" v="hill" />
		<tag k="place" v="locality" />
		<tag k="ssr:stedsnr" v="729754" />
	</node>
	<node id="-25634" lat="59.0426972182" lon="6.02083055933">
		<tag k="fixme" v="consider natural=peak for the most distinct mountains in the district" />
		<tag k="name" v="Hamrane" />
		<tag k="natural" v="hill" />
		<tag k="place" v="locality" />
		<tag k="ssr:stedsnr" v="729344" />
	</node>
	<node id="-25629" lat="58.9856777764" lon="5.98788888561">
		<tag k="fixme" v="consider natural=peak for the most distinct mountains in the district" />
		<tag k="name" v="Meåsen" />
		<tag k="natural" v="hill" />
		<tag k="place" v="locality" />
		<tag k="ssr:stedsnr" v="629067" />
	</node>
	<node id="-25627" lat="58.9422583368" lon="6.06893332917">
		<tag k="fixme" v="consider natural=peak for the most distinct mountains in the district" />
		<tag k="name" v="Snyden" />
		<tag k="natural" v="hill" />
		<tag k="place" v="locality" />
		<tag k="ssr:stedsnr" v="726632" />
	</node>
	<node id="-25626" lat="58.9998722225" lon="6.14627221378">
		<tag k="name" v="Måslitona" />
		<tag k="place" v="locality" />
		<tag k="ssr:stedsnr" v="722947" />
	</node>
	<node id="-25623" lat="59.0515222236" lon="5.99793055841">
		<tag k="name" v="Nonsknuten" />
		<tag k="natural" v="hill" />
		<tag k="place" v="locality" />
		<tag k="ssr:stedsnr" v="722884" />
	</node>
	<node id="-25621" lat="59.0837083299" lon="5.99199166534">
		<tag k="fixme" v="consider natural=peak for the most distinct mountains in the district" />
		<tag k="name" v="Fuglahammar" />
		<tag k="natural" v="hill" />
		<tag k="place" v="locality" />
		<tag k="ssr:stedsnr" v="722858" />
	</node>
	<node id="-25620" lat="59.0379444426" lon="6.1814916643">
		<tag k="name" v="Smittebakken" />
		<tag k="natural" v="slope" />
		<tag k="place" v="locality" />
		<tag k="ssr:stedsnr" v="722820" />
	</node>
	<node id="-25615" lat="58.9541999966" lon="6.08046110892">
		<tag k="fixme" v="consider natural=peak for the most distinct mountains in the district" />
		<tag k="name" v="Vidasfjellet" />
		<tag k="natural" v="hill" />
		<tag k="place" v="locality" />
		<tag k="ssr:stedsnr" v="721944" />
	</node>
	<node id="-25614" lat="58.9672638852" lon="6.14387221834">
		<tag k="name" v="Gloppedalen" />
		<tag k="natural" v="valley" />
		<tag k="place" v="locality" />
		<tag k="ssr:stedsnr" v="721870" />
	</node>
	<node id="-25613" lat="58.9877555528" lon="6.11128889631">
		<tag k="name" v="Jydalshaugen" />
		<tag k="natural" v="hill" />
		<tag k="place" v="locality" />
		<tag k="ssr:stedsnr" v="721710" />
	</node>
	<node id="-25612" lat="58.9730416711" lon="6.14638611501">
		<tag k="name" v="Litlalia" />
		<tag k="natural" v="slope" />
		<tag k="place" v="locality" />
		<tag k="ssr:stedsnr" v="721668" />
	</node>
	<node id="-25611" lat="58.9593194461" lon="6.07310278154">
		<tag k="name" v="Litla Vidasfjellet" />
		<tag k="natural" v="hill" />
		<tag k="place" v="locality" />
		<tag k="ssr:stedsnr" v="721493" />
	</node>
	<node id="-25610" lat="58.9552527734" lon="6.07094443894">
		<tag k="name" v="Husafjellet" />
		<tag k="natural" v="hill" />
		<tag k="place" v="locality" />
		<tag k="ssr:stedsnr" v="721489" />
	</node>
	<node id="-25603" lat="59.0189888871" lon="5.89760000367">
		<tag k="name" v="Lågabakka" />
		<tag k="natural" v="hill" />
		<tag k="place" v="locality" />
		<tag k="ssr:stedsnr" v="721073" />
	</node>
	<node id="-25594" lat="59.0540833353" lon="6.14955555918">
		<tag k="name" v="Råså" />
		<tag k="natural" v="slope" />
		<tag k="place" v="locality" />
		<tag k="ssr:stedsnr" v="600966" />
	</node>
	<node id="-25591" lat="59.1008472178" lon="6.05471944153">
		<tag k="fixme" v="consider natural=peak for the most distinct mountains in the district" />
		<tag k="name" v="Sneisaråsen" />
		<tag k="natural" v="hill" />
		<tag k="place" v="locality" />
		<tag k="ssr:stedsnr" v="600768" />
	</node>
	<node id="-25590" lat="59.1109166677" lon="5.99844721763">
		<tag k="fixme" v="consider natural=peak for the most distinct mountains in the district" />
		<tag k="name" v="Lysåsen" />
		<tag k="natural" v="hill" />
		<tag k="place" v="locality" />
		<tag k="ssr:stedsnr" v="600759" />
	</node>
	<node id="-25587" lat="59.1219777748" lon="6.1257555555">
		<tag k="name" v="Tverrdalen" />
		<tag k="natural" v="valley" />
		<tag k="place" v="locality" />
		<tag k="ssr:stedsnr" v="600555" />
	</node>
	<node id="-25586" lat="58.9753055594" lon="6.17378333626">
		<tag k="name" v="Skrubbatona" />
		<tag k="place" v="locality" />
		<tag k="ssr:stedsnr" v="600362" />
	</node>
	<node id="-25572" lat="59.1073999976" lon="6.03469443993">
		<tag k="name" v="Støladal" />
		<tag k="natural" v="valley" />
		<tag k="place" v="locality" />
		<tag k="ssr:stedsnr" v="540764" />
	</node>
	<node id="-25571" lat="59.0161444437" lon="6.05356944989">
		<tag k="name" v="Kalvops" />
		<tag k="place" v="locality" />
		<tag k="ssr:stedsnr" v="539153" />
	</node>
	<node id="-25569" lat="59.0392833321" lon="5.82749999308">
		<tag k="name" v="Hettulhaugen" />
		<tag k="natural" v="hill" />
		<tag k="place" v="locality" />
		<tag k="ssr:stedsnr" v="538355" />
	</node>
	<node id="-25565" lat="58.9849777739" lon="5.97687778012">
		<tag k="name" v="Jubedal" />
		<tag k="natural" v="valley" />
		<tag k="place" v="locality" />
		<tag k="ssr:stedsnr" v="508058" />
	</node>
	<node id="-25563" lat="61.2177777797" lon="6.59979722139">
		<tag k="alt_name" v="Alskori" />
		<tag k="name" v="Almskori" />
		<tag k="place" v="locality" />
		<tag k="ssr:stedsnr" v="677966" />
	</node>
	<node id="-25562" lat="59.0983694433" lon="6.03552499651">
		<tag k="fixme" v="consider natural=peak for the most distinct mountains in the district" />
		<tag k="name" v="Krofjellet" />
		<tag k="natural" v="hill" />
		<tag k="place" v="locality" />
		<tag k="ssr:stedsnr" v="486740" />
	</node>
	<node id="-25560" lat="58.9395916679" lon="6.0350777763">
		<tag k="name" v="Husafjellet" />
		<tag k="natural" v="hill" />
		<tag k="old_name" v="Husafjt" />
		<tag k="place" v="locality" />
		<tag k="ssr:stedsnr" v="486733" />
	</node>
	<node id="-25559" lat="58.9416527778" lon="6.08643610465">
		<tag k="alt_name" v="Vidasfjell;Vidasfjellet" />
		<tag k="fixme" v="consider natural=peak for the most distinct mountains in the district" />
		<tag k="name" v="Viddasfjellet" />
		<tag k="natural" v="hill" />
		<tag k="place" v="locality" />
		<tag k="ssr:stedsnr" v="486729" />
	</node>
	<node id="-25557" lat="58.9344111086" lon="6.03333333249">
		<tag k="name" v="Lerangshammaren" />
		<tag k="natural" v="hill" />
		<tag k="place" v="locality" />
		<tag k="ssr:stedsnr" v="486722" />
	</node>
	<node id="-25555" lat="59.047275003" lon="6.07268332932">
		<tag k="alt_name" v="Småkrogane" />
		<tag k="name" v="Småkrokane" />
		<tag k="natural" v="hill" />
		<tag k="place" v="locality" />
		<tag k="ssr:stedsnr" v="486646" />
	</node>
	<node id="-25554" lat="59.0498638853" lon="6.09438888138">
		<tag k="alt_name" v="Regnabotn" />
		<tag k="name" v="Regnabotnen" />
		<tag k="natural" v="valley" />
		<tag k="place" v="locality" />
		<tag k="ssr:stedsnr" v="486644" />
	</node>
	<node id="-25553" lat="58.9328095085" lon="6.0519050398">
		<tag k="fixme" v="consider natural=peak for the most distinct mountains in the district" />
		<tag k="name" v="Vassfjellet" />
		<tag k="natural" v="hill" />
		<tag k="place" v="locality" />
		<tag k="ssr:stedsnr" v="484870" />
	</node>
	<node id="-25552" lat="59.0912499972" lon="6.04717777045">
		<tag k="name" v="Takli" />
		<tag k="natural" v="slope" />
		<tag k="place" v="locality" />
		<tag k="ssr:stedsnr" v="479658" />
	</node>
	<node id="-25549" lat="58.9932305525" lon="6.187725003">
		<tag k="name" v="Næverdalen" />
		<tag k="natural" v="valley" />
		<tag k="place" v="locality" />
		<tag k="ssr:stedsnr" v="479370" />
	</node>
	<node id="-25548" lat="59.0110249956" lon="6.09860554954">
		<tag k="alt_name" v="Soleim" />
		<tag k="name" v="Solheim" />
		<tag k="natural" v="valley" />
		<tag k="place" v="locality" />
		<tag k="ssr:stedsnr" v="478364" />
	</node>
	<node id="-25547" lat="58.9845388872" lon="6.07211111279">
		<tag k="name" v="Bjønndalen" />
		<tag k="natural" v="valley" />
		<tag k="place" v="locality" />
		<tag k="ssr:stedsnr" v="478261" />
	</node>
	<node id="-25538" lat="59.0826583317" lon="6.0594388944">
		<tag k="fixme" v="consider natural=peak for the most distinct mountains in the district" />
		<tag k="name" v="Topphøna" />
		<tag k="natural" v="hill" />
		<tag k="place" v="locality" />
		<tag k="ssr:stedsnr" v="669683" />
	</node>
	<node id="-25536" lat="59.0671361083" lon="6.13547222332">
		<tag k="alt_name" v="Tednebrekka" />
		<tag k="name" v="Ternebrekka" />
		<tag k="natural" v="slope" />
		<tag k="place" v="locality" />
		<tag k="ssr:stedsnr" v="669652" />
	</node>
	<node id="-25526" lat="59.0281388865" lon="6.20918889483">
		<tag k="fixme" v="consider natural=peak for the most distinct mountains in the district" />
		<tag k="name" v="Godlifjellet" />
		<tag k="natural" v="hill" />
		<tag k="place" v="locality" />
		<tag k="ssr:stedsnr" v="669344" />
	</node>
	<node id="-25525" lat="59.0080999993" lon="6.09244166272">
		<tag k="alt_name" v="Øygjafjellet" />
		<tag k="fixme" v="consider natural=peak for the most distinct mountains in the district" />
		<tag k="name" v="Øykjafjellet" />
		<tag k="natural" v="hill" />
		<tag k="place" v="locality" />
		<tag k="ssr:stedsnr" v="669342" />
	</node>
	<node id="-25521" lat="59.0767083314" lon="5.99593611409">
		<tag k="fixme" v="consider natural=peak for the most distinct mountains in the district" />
		<tag k="name" v="Heståsen" />
		<tag k="natural" v="hill" />
		<tag k="place" v="locality" />
		<tag k="ssr:stedsnr" v="669332" />
	</node>
	<node id="-25519" lat="59.0385388877" lon="6.16852499247">
		<tag k="alt_name" v="Kodlåsen" />
		<tag k="name" v="Kollåsen" />
		<tag k="natural" v="hill" />
		<tag k="place" v="locality" />
		<tag k="ssr:stedsnr" v="669324" />
	</node>
	<node id="-25516" lat="59.007055557" lon="6.13186389175">
		<tag k="name" v="Høgsethammaren" />
		<tag k="natural" v="hill" />
		<tag k="place" v="locality" />
		<tag k="ssr:stedsnr" v="669242" />
	</node>
	<node id="-25513" lat="58.9794277771" lon="6.12269165918">
		<tag k="alt_name" v="Jydalen" />
		<tag k="name" v="Gydalen" />
		<tag k="natural" v="valley" />
		<tag k="place" v="locality" />
		<tag k="ssr:stedsnr" v="668793" />
	</node>
	<node id="-25512" lat="58.9665555561" lon="6.00918888205">
		<tag k="alt_name" v="Nerafjellet" />
		<tag k="fixme" v="consider natural=peak for the most distinct mountains in the district" />
		<tag k="name" v="Nedrafjellet" />
		<tag k="natural" v="hill" />
		<tag k="place" v="locality" />
		<tag k="ssr:stedsnr" v="668790" />
	</node>
	<node id="-25511" lat="58.9243250038" lon="6.07738332573">
		<tag k="fixme" v="consider natural=peak for the most distinct mountains in the district" />
		<tag k="name" v="Åsen" />
		<tag k="natural" v="hill" />
		<tag k="place" v="locality" />
		<tag k="ssr:stedsnr" v="668772" />
	</node>
	<node id="-25508" lat="59.0481638875" lon="5.94843888294">
		<tag k="fixme" v="consider natural=peak for the most distinct mountains in the district" />
		<tag k="name" v="Stokksåsen" />
		<tag k="natural" v="hill" />
		<tag k="place" v="locality" />
		<tag k="ssr:stedsnr" v="668658" />
	</node>
	<node id="-25502" lat="58.9991111158" lon="6.1582305636">
		<tag k="name" v="Grønskollingen" />
		<tag k="natural" v="hill" />
		<tag k="place" v="locality" />
		<tag k="ssr:stedsnr" v="661941" />
	</node>
	<node id="-25501" lat="58.9928694454" lon="6.1883972275">
		<tag k="name" v="Neverdalen" />
		<tag k="natural" v="valley" />
		<tag k="place" v="locality" />
		<tag k="ssr:stedsnr" v="661934" />
	</node>
	<node id="-25498" lat="59.1097083342" lon="6.01310833057">
		<tag k="fixme" v="consider natural=peak for the most distinct mountains in the district" />
		<tag k="name" v="Kamsåsen" />
		<tag k="natural" v="hill" />
		<tag k="place" v="locality" />
		<tag k="ssr:stedsnr" v="661737" />
	</node>
	<node id="-25497" lat="59.0924694479" lon="6.04083889351">
		<tag k="name" v="Garbrekk" />
		<tag k="natural" v="valley" />
		<tag k="place" v="locality" />
		<tag k="ssr:stedsnr" v="661628" />
	</node>
	<node id="-25496" lat="59.0890444424" lon="6.03833888898">
		<tag k="name" v="Skorphei" />
		<tag k="natural" v="hill" />
		<tag k="place" v="locality" />
		<tag k="ssr:stedsnr" v="661627" />
	</node>
	<node id="-25495" lat="59.1249305569" lon="6.12970278311">
		<tag k="name" v="Sliredalen" />
		<tag k="natural" v="valley" />
		<tag k="place" v="locality" />
		<tag k="ssr:stedsnr" v="661550" />
	</node>
	<node id="-25494" lat="59.1260055588" lon="6.10971944478">
		<tag k="fixme" v="consider natural=peak for the most distinct mountains in the district" />
		<tag k="name" v="Åsen" />
		<tag k="natural" v="hill" />
		<tag k="place" v="locality" />
		<tag k="ssr:stedsnr" v="661547" />
	</node>
	<node id="-25491" lat="58.9137222258" lon="6.06358611036">
		<tag k="name" v="Hetledalen" />
		<tag k="natural" v="valley" />
		<tag k="place" v="locality" />
		<tag k="ssr:stedsnr" v="661501" />
	</node>
	<node id="-25490" lat="58.9230972208" lon="6.08355554929">
		<tag k="name" v="Jevedalen" />
		<tag k="natural" v="valley" />
		<tag k="place" v="locality" />
		<tag k="ssr:stedsnr" v="661493" />
	</node>
	<node id="-25489" lat="59.1374666647" lon="6.10107777618">
		<tag k="name" v="Stokkarvikdalen" />
		<tag k="natural" v="valley" />
		<tag k="place" v="locality" />
		<tag k="ssr:stedsnr" v="661490" />
	</node>
	<node id="-25488" lat="58.9739222226" lon="6.12725832775">
		<tag k="fixme" v="consider natural=peak for the most distinct mountains in the district" />
		<tag k="name" v="Ulvaskogfjellet" />
		<tag k="natural" v="hill" />
		<tag k="place" v="locality" />
		<tag k="ssr:stedsnr" v="660729" />
	</node>
	<node id="-25486" lat="58.9652555575" lon="6.03078889384">
		<tag k="fixme" v="consider natural=peak for the most distinct mountains in the district" />
		<tag k="name" v="Iglåsen" />
		<tag k="natural" v="hill" />
		<tag k="place" v="locality" />
		<tag k="ssr:stedsnr" v="660301" />
	</node>
	<node id="-25477" lat="59.098755553" lon="6.0568027772">
		<tag k="alt_name" v="Store hodnåsen" />
		<tag k="name" v="Storehornåsen" />
		<tag k="natural" v="ridge" />
		<tag k="place" v="locality" />
		<tag k="ssr:stedsnr" v="426706" />
	</node>
	<node id="-25476" lat="58.9479416643" lon="6.06815000507">
		<tag k="alt_name" v="Tverrfjella" />
		<tag k="fixme" v="consider natural=peak for the most distinct mountains in the district" />
		<tag k="name" v="Tverrfjellet" />
		<tag k="natural" v="hill" />
		<tag k="place" v="locality" />
		<tag k="ssr:stedsnr" v="425711" />
	</node>
	<node id="-25474" lat="58.9450222265" lon="6.02037500217">
		<tag k="fixme" v="consider natural=peak for the most distinct mountains in the district" />
		<tag k="name" v="Bosteberget" />
		<tag k="natural" v="hill" />
		<tag k="place" v="locality" />
		<tag k="ssr:stedsnr" v="423903" />
	</node>
	<node id="-25473" lat="59.1144027816" lon="6.11695278183">
		<tag k="name" v="Sletteflotene" />
		<tag k="natural" v="valley" />
		<tag k="place" v="locality" />
		<tag k="ssr:stedsnr" v="419641" />
	</node>
	<node id="-25472" lat="58.9882138916" lon="6.09645277064">
		<tag k="fixme" v="consider natural=peak for the most distinct mountains in the district" />
		<tag k="name" v="Kvednanuten" />
		<tag k="natural" v="hill" />
		<tag k="place" v="locality" />
		<tag k="ssr:stedsnr" v="418327" />
	</node>
	<node id="-25470" lat="58.9700222251" lon="5.99632500106">
		<tag k="name" v="Grønedalen" />
		<tag k="natural" v="valley" />
		<tag k="place" v="locality" />
		<tag k="ssr:stedsnr" v="511852" />
	</node>
	<node id="-25463" lat="58.976536115" lon="5.99366666337">
		<tag k="fixme" v="consider natural=peak for the most distinct mountains in the district" />
		<tag k="name" v="Trodlahaugane" />
		<tag k="natural" v="hill" />
		<tag k="place" v="locality" />
		<tag k="ssr:stedsnr" v="508010" />
	</node>
	<node id="-25462" lat="58.9781444481" lon="5.94127499997">
		<tag k="fixme" v="consider natural=peak for the most distinct mountains in the district" />
		<tag k="name" v="Storefjellet" />
		<tag k="natural" v="hill" />
		<tag k="place" v="locality" />
		<tag k="ssr:stedsnr" v="508004" />
	</node>
	<node id="-25457" lat="58.9287583301" lon="6.06439445214">
		<tag k="fixme" v="consider natural=peak for the most distinct mountains in the district" />
		<tag k="name" v="Vassbakken" />
		<tag k="natural" v="hill" />
		<tag k="place" v="locality" />
		<tag k="ssr:stedsnr" v="362618" />
	</node>
	<node id="-25456" lat="58.9342111132" lon="6.05723888954">
		<tag k="fixme" v="consider natural=peak for the most distinct mountains in the district" />
		<tag k="name" v="Hamrane" />
		<tag k="natural" v="hill" />
		<tag k="place" v="locality" />
		<tag k="ssr:stedsnr" v="362617" />
	</node>
	<node id="-25455" lat="58.9947333337" lon="6.13981943937">
		<tag k="name" v="Djupedalskaret" />
		<tag k="natural" v="valley" />
		<tag k="place" v="locality" />
		<tag k="ssr:stedsnr" v="358952" />
	</node>
	<node id="-25454" lat="59.0618416696" lon="6.04778610302">
		<tag k="name" v="Ostakleiva" />
		<tag k="natural" v="slope" />
		<tag k="place" v="locality" />
		<tag k="ssr:stedsnr" v="358877" />
	</node>
	<node id="-25449" lat="58.9722611142" lon="6.04675556313">
		<tag k="fixme" v="consider natural=peak for the most distinct mountains in the district" />
		<tag k="name" v="Bjørkåsen" />
		<tag k="natural" v="hill" />
		<tag k="place" v="locality" />
		<tag k="ssr:stedsnr" v="357863" />
	</node>
	<node id="-25448" lat="59.099397225" lon="5.95227499439">
		<tag k="fixme" v="consider natural=peak for the most distinct mountains in the district" />
		<tag k="name" v="Eisåsen" />
		<tag k="natural" v="hill" />
		<tag k="place" v="locality" />
		<tag k="ssr:stedsnr" v="357855" />
	</node>
	<node id="-25447" lat="58.9628472236" lon="6.08653056192">
		<tag k="name" v="Jubavassheia" />
		<tag k="natural" v="hill" />
		<tag k="place" v="locality" />
		<tag k="ssr:stedsnr" v="357707" />
	</node>
	<node id="-25446" lat="59.1230527812" lon="6.13129167447">
		<tag k="name" v="Vondedalen" />
		<tag k="natural" v="valley" />
		<tag k="place" v="locality" />
		<tag k="ssr:stedsnr" v="357559" />
	</node>
	<node id="-25445" lat="59.0491719013" lon="5.93763799858">
		<tag k="fixme" v="consider natural=peak for the most distinct mountains in the district" />
		<tag k="name" v="Smalabakken" />
		<tag k="natural" v="hill" />
		<tag k="place" v="locality" />
		<tag k="ssr:stedsnr" v="489899" />
	</node>
	<node id="-25443" lat="59.1120666705" lon="6.07720833944">
		<tag k="fixme" v="consider natural=peak for the most distinct mountains in the district" />
		<tag k="name" v="Lågehei" />
		<tag k="natural" v="hill" />
		<tag k="place" v="locality" />
		<tag k="ssr:stedsnr" v="487759" />
	</node>
	<node id="-25440" lat="59.0682111098" lon="5.93733888721">
		<tag k="fixme" v="consider natural=peak for the most distinct mountains in the district" />
		<tag k="name" v="Ugeliåsen" />
		<tag k="natural" v="hill" />
		<tag k="place" v="locality" />
		<tag k="ssr:stedsnr" v="487717" />
	</node>
	<node id="-25438" lat="59.060225003" lon="6.06952500423">
		<tag k="fixme" v="consider natural=peak for the most distinct mountains in the district" />
		<tag k="name" v="Gramsfjellet" />
		<tag k="natural" v="hill" />
		<tag k="place" v="locality" />
		<tag k="ssr:stedsnr" v="487683" />
	</node>
	<node id="-25437" lat="59.1327361109" lon="6.12312499649">
		<tag k="alt_name" v="Krossneshei" />
		<tag k="name" v="Krossnesheia" />
		<tag k="natural" v="hill" />
		<tag k="place" v="locality" />
		<tag k="ssr:stedsnr" v="487561" />
	</node>
	<node id="-25436" lat="59.0108222236" lon="6.1149472134">
		<tag k="fixme" v="consider natural=peak for the most distinct mountains in the district" />
		<tag k="name" v="Ytrehammaren" />
		<tag k="natural" v="hill" />
		<tag k="place" v="locality" />
		<tag k="ssr:stedsnr" v="487397" />
	</node>
	<node id="-25434" lat="59.0215666626" lon="6.12319721645">
		<tag k="fixme" v="consider natural=peak for the most distinct mountains in the district" />
		<tag k="name" v="Lomafjellet" />
		<tag k="natural" v="hill" />
		<tag k="place" v="locality" />
		<tag k="ssr:stedsnr" v="487389" />
	</node>
	<node id="-25433" lat="59.0185111109" lon="6.07873889093">
		<tag k="fixme" v="consider natural=peak for the most distinct mountains in the district" />
		<tag k="name" v="Dalsskardhammaren" />
		<tag k="natural" v="hill" />
		<tag k="place" v="locality" />
		<tag k="ssr:stedsnr" v="487387" />
	</node>
	<node id="-25430" lat="59.0302861104" lon="6.11497500764">
		<tag k="alt_name" v="Homknuten" />
		<tag k="fixme" v="consider natural=peak for the most distinct mountains in the district" />
		<tag k="name" v="Homsknuten" />
		<tag k="natural" v="hill" />
		<tag k="place" v="locality" />
		<tag k="ssr:stedsnr" v="487368" />
	</node>
	<node id="-25429" lat="59.0241999981" lon="6.0603527835">
		<tag k="alt_name" v="Fulshammaren" />
		<tag k="fixme" v="consider natural=peak for the most distinct mountains in the district" />
		<tag k="name" v="Fullshammar" />
		<tag k="natural" v="hill" />
		<tag k="place" v="locality" />
		<tag k="ssr:stedsnr" v="487365" />
	</node>
	<node id="-25428" lat="59.0393166638" lon="6.2110416603">
		<tag k="alt_name" v="Svartavannsknuten" />
		<tag k="fixme" v="consider natural=peak for the most distinct mountains in the district" />
		<tag k="name" v="Svartavassknuten" />
		<tag k="natural" v="hill" />
		<tag k="place" v="locality" />
		<tag k="ssr:stedsnr" v="487341" />
	</node>
	<node id="-25426" lat="59.0095083352" lon="6.12613611852">
		<tag k="fixme" v="consider natural=peak for the most distinct mountains in the district" />
		<tag k="name" v="Midthammaren" />
		<tag k="natural" v="hill" />
		<tag k="place" v="locality" />
		<tag k="ssr:stedsnr" v="487265" />
	</node>
	<node id="-25415" lat="59.1187388855" lon="6.12728332789">
		<tag k="fixme" v="consider natural=peak for the most distinct mountains in the district" />
		<tag k="name" v="Tirafjellet" />
		<tag k="natural" v="hill" />
		<tag k="place" v="locality" />
		<tag k="ssr:stedsnr" v="486509" />
	</node>
	<node id="-25411" lat="58.9997277732" lon="6.15725554895">
		<tag k="name" v="Slåtteskaret" />
		<tag k="natural" v="valley" />
		<tag k="place" v="locality" />
		<tag k="ssr:stedsnr" v="479945" />
	</node>
	<node id="-25410" lat="59.0658805559" lon="5.92312221714">
		<tag k="name" v="Eigjehaugen" />
		<tag k="natural" v="hill" />
		<tag k="place" v="locality" />
		<tag k="ssr:stedsnr" v="479937" />
	</node>
	<node id="-25409" lat="59.047202777" lon="6.01710832517">
		<tag k="name" v="Bjønndalane" />
		<tag k="natural" v="valley" />
		<tag k="place" v="locality" />
		<tag k="ssr:stedsnr" v="479882" />
	</node>
	<node id="-25407" lat="59.1102916662" lon="5.98550277203">
		<tag k="fixme" v="consider natural=peak for the most distinct mountains in the district" />
		<tag k="name" v="Rubbåsen" />
		<tag k="natural" v="hill" />
		<tag k="place" v="locality" />
		<tag k="ssr:stedsnr" v="479787" />
	</node>
	<node id="-25406" lat="59.1039222184" lon="6.13911110702">
		<tag k="name" v="Tverrfjellet" />
		<tag k="natural" v="hill" />
		<tag k="place" v="locality" />
		<tag k="ssr:stedsnr" v="479639" />
	</node>
	<node id="-25405" lat="59.1081861081" lon="6.11453889276">
		<tag k="fixme" v="consider natural=peak for the most distinct mountains in the district" />
		<tag k="name" v="Litla Skorpehei" />
		<tag k="natural" v="hill" />
		<tag k="place" v="locality" />
		<tag k="ssr:stedsnr" v="479636" />
	</node>
	<node id="-25404" lat="59.0009888903" lon="6.07869166567">
		<tag k="alt_name" v="Toaberget" />
		<tag k="loc_name" v="Toa" />
		<tag k="name" v="Tono" />
		<tag k="natural" v="hill" />
		<tag k="place" v="locality" />
		<tag k="ssr:stedsnr" v="329222" />
	</node>
	<node id="-25403" lat="58.9219555527" lon="6.06639722856">
		<tag k="fixme" v="consider natural=peak for the most distinct mountains in the district" />
		<tag k="name" v="Merrå" />
		<tag k="natural" v="hill" />
		<tag k="place" v="locality" />
		<tag k="ssr:stedsnr" v="479512" />
	</node>
	<node id="-25400" lat="59.0196666641" lon="6.07095555168">
		<tag k="name" v="Longeto" />
		<tag k="place" v="locality" />
		<tag k="ssr:stedsnr" v="479236" />
	</node>
	<node id="-25399" lat="59.0325555523" lon="6.11431111629">
		<tag k="name" v="Homskaret" />
		<tag k="natural" v="valley" />
		<tag k="place" v="locality" />
		<tag k="ssr:stedsnr" v="479285" />
	</node>
	<node id="-25398" lat="58.9921444448" lon="6.04143055681">
		<tag k="fixme" v="consider natural=peak for the most distinct mountains in the district" />
		<tag k="name" v="Åsen" />
		<tag k="natural" v="hill" />
		<tag k="place" v="locality" />
		<tag k="ssr:stedsnr" v="479148" />
	</node>
	<node id="-25390" lat="59.0815055546" lon="6.00828055404">
		<tag k="fixme" v="consider natural=peak for the most distinct mountains in the district" />
		<tag k="name" v="Lekvamsåsen" />
		<tag k="natural" v="hill" />
		<tag k="place" v="locality" />
		<tag k="ssr:stedsnr" v="305713" />
	</node>
	<node id="-25388" lat="59.0903805587" lon="6.09758055276">
		<tag k="fixme" v="consider natural=peak for the most distinct mountains in the district" />
		<tag k="name" v="Svoa" />
		<tag k="natural" v="hill" />
		<tag k="place" v="locality" />
		<tag k="ssr:stedsnr" v="305706" />
	</node>
	<node id="-25383" lat="59.040050003" lon="5.97875000741">
		<tag k="fixme" v="consider natural=peak for the most distinct mountains in the district" />
		<tag k="name" v="Hatthammaren" />
		<tag k="natural" v="hill" />
		<tag k="place" v="locality" />
		<tag k="ssr:stedsnr" v="304321" />
	</node>
	<node id="-25374" lat="59.0421583335" lon="5.93729444885">
		<tag k="fixme" v="consider natural=peak for the most distinct mountains in the district" />
		<tag k="name" v="Solbjør" />
		<tag k="natural" v="hill" />
		<tag k="place" v="locality" />
		<tag k="ssr:stedsnr" v="247902" />
	</node>
	<node id="-25372" lat="59.0569194444" lon="6.02155277622">
		<tag k="name" v="Vaulalia" />
		<tag k="natural" v="slope" />
		<tag k="place" v="locality" />
		<tag k="ssr:stedsnr" v="245623" />
	</node>
	<node id="-25368" lat="59.1116388877" lon="5.98586943854">
		<tag k="fixme" v="consider natural=peak for the most distinct mountains in the district" />
		<tag k="name" v="Litlemosen" />
		<tag k="natural" v="hill" />
		<tag k="place" v="locality" />
		<tag k="ssr:stedsnr" v="244757" />
	</node>
	<node id="-25367" lat="59.1082666678" lon="5.96340000715">
		<tag k="alt_name" v="Ravnåsfjellet" />
		<tag k="fixme" v="consider natural=peak for the most distinct mountains in the district" />
		<tag k="name" v="Ramnåsfjellet" />
		<tag k="natural" v="hill" />
		<tag k="place" v="locality" />
		<tag k="ssr:stedsnr" v="244756" />
	</node>
	<node id="-25357" lat="58.9360027798" lon="6.06803888453">
		<tag k="fixme" v="consider natural=peak for the most distinct mountains in the district" />
		<tag k="name" v="Eigjeliholen" />
		<tag k="natural" v="hill" />
		<tag k="place" v="locality" />
		<tag k="ssr:stedsnr" v="241616" />
	</node>
	<node id="-25348" lat="58.9964111114" lon="6.12992777371">
		<tag k="name" v="Øygjabrekka" />
		<tag k="natural" v="hill" />
		<tag k="place" v="locality" />
		<tag k="ssr:stedsnr" v="297955" />
	</node>
	<node id="-25344" lat="59.0704500019" lon="6.0046888808">
		<tag k="name" v="Fangeflota" />
		<tag k="place" v="locality" />
		<tag k="ssr:stedsnr" v="297891" />
	</node>
	<node id="-25343" lat="59.0479611117" lon="5.9585277785">
		<tag k="fixme" v="consider natural=peak for the most distinct mountains in the district" />
		<tag k="name" v="Revsåsen" />
		<tag k="natural" v="hill" />
		<tag k="place" v="locality" />
		<tag k="ssr:stedsnr" v="297886" />
	</node>
	<node id="-25342" lat="58.9874666648" lon="6.0341527784">
		<tag k="fixme" v="consider natural=peak for the most distinct mountains in the district" />
		<tag k="name" v="Sandvikhaugen" />
		<tag k="natural" v="hill" />
		<tag k="place" v="locality" />
		<tag k="ssr:stedsnr" v="297870" />
	</node>
	<node id="-25340" lat="59.0588861155" lon="6.10158055786">
		<tag k="fixme" v="consider natural=peak for the most distinct mountains in the district" />
		<tag k="name" v="Tibergfjellet" />
		<tag k="natural" v="hill" />
		<tag k="place" v="locality" />
		<tag k="ssr:stedsnr" v="297866" />
	</node>
	<node id="-25335" lat="59.1112361154" lon="6.03146110868">
		<tag k="name" v="Storli" />
		<tag k="natural" v="slope" />
		<tag k="place" v="locality" />
		<tag k="ssr:stedsnr" v="297743" />
	</node>
	<node id="-25334" lat="59.0795888896" lon="6.00856945253">
		<tag k="name" v="Nerhusåsen" />
		<tag k="natural" v="hill" />
		<tag k="place" v="locality" />
		<tag k="ssr:stedsnr" v="297659" />
	</node>
	<node id="-25332" lat="58.9195972178" lon="6.05716388243">
		<tag k="name" v="Sjøtørne" />
		<tag k="natural" v="slope" />
		<tag k="place" v="locality" />
		<tag k="ssr:stedsnr" v="297501" />
	</node>
	<node id="-25331" lat="58.9762861142" lon="6.11715833687">
		<tag k="fixme" v="consider natural=peak for the most distinct mountains in the district" />
		<tag k="name" v="Dommelsfjellet" />
		<tag k="natural" v="hill" />
		<tag k="place" v="locality" />
		<tag k="ssr:stedsnr" v="296729" />
	</node>
	<node id="-25330" lat="58.9680972232" lon="6.05563610922">
		<tag k="fixme" v="consider natural=peak for the most distinct mountains in the district" />
		<tag k="name" v="Selebergfjellet" />
		<tag k="natural" v="hill" />
		<tag k="place" v="locality" />
		<tag k="ssr:stedsnr" v="296715" />
	</node>
	<node id="-25329" lat="58.9650416698" lon="6.06952221525">
		<tag k="name" v="Braselhedleren" />
		<tag k="place" v="locality" />
		<tag k="ssr:stedsnr" v="296713" />
	</node>
	<node id="-25328" lat="58.9494083352" lon="6.06761389195">
		<tag k="name" v="Foredalen" />
		<tag k="natural" v="valley" />
		<tag k="place" v="locality" />
		<tag k="ssr:stedsnr" v="296530" />
	</node>
	<node id="-25326" lat="58.9757083331" lon="6.05363056094">
		<tag k="name" v="Tippatørne" />
		<tag k="natural" v="hill" />
		<tag k="place" v="locality" />
		<tag k="ssr:stedsnr" v="296305" />
	</node>
	<node id="-25322" lat="58.9762999997" lon="6.12592500685">
		<tag k="name" v="Rishaugen" />
		<tag k="natural" v="hill" />
		<tag k="place" v="locality" />
		<tag k="ssr:stedsnr" v="183766" />
	</node>
	<node id="-25321" lat="58.9887361095" lon="6.18992778388">
		<tag k="alt_name" v="Hengjanfjell" />
		<tag k="name" v="Hengjane" />
		<tag k="natural" v="hill" />
		<tag k="place" v="locality" />
		<tag k="ssr:stedsnr" v="183764" />
	</node>
	<node id="-25318" lat="59.0530694449" lon="6.13896388853">
		<tag k="fixme" v="consider natural=peak for the most distinct mountains in the district" />
		<tag k="name" v="Åsen" />
		<tag k="natural" v="hill" />
		<tag k="place" v="locality" />
		<tag k="ssr:stedsnr" v="183315" />
	</node>
	<node id="-25314" lat="59.0408111101" lon="5.97170833607">
		<tag k="fixme" v="consider natural=peak for the most distinct mountains in the district" />
		<tag k="name" v="Vindåsen" />
		<tag k="natural" v="hill" />
		<tag k="place" v="locality" />
		<tag k="ssr:stedsnr" v="183304" />
	</node>
	<node id="-25311" lat="58.9279722217" lon="6.07059721395">
		<tag k="fixme" v="consider natural=peak for the most distinct mountains in the district" />
		<tag k="name" v="Lyngpiken" />
		<tag k="natural" v="hill" />
		<tag k="place" v="locality" />
		<tag k="ssr:stedsnr" v="282584" />
	</node>
	<node id="-25309" lat="58.9751277816" lon="5.97556945091">
		<tag k="name" v="Kalhaga" />
		<tag k="natural" v="valley" />
		<tag k="place" v="locality" />
		<tag k="ssr:stedsnr" v="144059" />
	</node>
	<node id="-25308" lat="58.9763527757" lon="5.97946110907">
		<tag k="fixme" v="consider natural=peak for the most distinct mountains in the district" />
		<tag k="name" v="Orreberga" />
		<tag k="natural" v="hill" />
		<tag k="place" v="locality" />
		<tag k="ssr:stedsnr" v="144058" />
	</node>
	<node id="-25305" lat="58.9906805571" lon="5.94028333656">
		<tag k="fixme" v="consider natural=peak for the most distinct mountains in the district" />
		<tag k="name" v="Øksnaberget" />
		<tag k="natural" v="hill" />
		<tag k="place" v="locality" />
		<tag k="ssr:stedsnr" v="144002" />
	</node>
	<node id="-25300" lat="58.9845166672" lon="5.93091388771">
		<tag k="name" v="Jupedal" />
		<tag k="natural" v="valley" />
		<tag k="place" v="locality" />
		<tag k="ssr:stedsnr" v="265094" />
	</node>
	<node id="-25295" lat="59.1090722232" lon="6.0774444452">
		<tag k="name" v="Smågedal" />
		<tag k="natural" v="valley" />
		<tag k="place" v="locality" />
		<tag k="ssr:stedsnr" v="115602" />
	</node>
	<node id="-25294" lat="58.9534166644" lon="6.05887221754">
		<tag k="name" v="Maurabakken" />
		<tag k="natural" v="slope" />
		<tag k="place" v="locality" />
		<tag k="ssr:stedsnr" v="115537" />
	</node>
	<node id="-25288" lat="58.9933583356" lon="6.16345832953">
		<tag k="fixme" v="consider natural=peak for the most distinct mountains in the district" />
		<tag k="name" v="Lammatoknuten" />
		<tag k="natural" v="hill" />
		<tag k="place" v="locality" />
		<tag k="ssr:stedsnr" v="244794" />
	</node>
	<node id="-25287" lat="58.9874416668" lon="6.027466664">
		<tag k="fixme" v="consider natural=peak for the most distinct mountains in the district" />
		<tag k="name" v="Kalvberg" />
		<tag k="natural" v="hill" />
		<tag k="place" v="locality" />
		<tag k="ssr:stedsnr" v="244787" />
	</node>
	<node id="-25286" lat="58.9672777802" lon="6.0757527838">
		<tag k="fixme" v="consider natural=peak for the most distinct mountains in the district" />
		<tag k="name" v="Hesten" />
		<tag k="natural" v="hill" />
		<tag k="place" v="locality" />
		<tag k="ssr:stedsnr" v="244783" />
	</node>
	<node id="-25285" lat="59.077683331" lon="5.9587416611">
		<tag k="name" v="Seldal" />
		<tag k="natural" v="valley" />
		<tag k="place" v="locality" />
		<tag k="ssr:stedsnr" v="244701" />
	</node>
	<node id="-25280" lat="59.0722916634" lon="6.11067777368">
		<tag k="fixme" v="consider natural=peak for the most distinct mountains in the district" />
		<tag k="name" v="Krossen" />
		<tag k="natural" v="hill" />
		<tag k="place" v="locality" />
		<tag k="ssr:stedsnr" v="244682" />
	</node>
	<node id="-25278" lat="58.916191669" lon="6.0664499915">
		<tag k="fixme" v="consider natural=peak for the most distinct mountains in the district" />
		<tag k="name" v="Høgås" />
		<tag k="natural" v="hill" />
		<tag k="place" v="locality" />
		<tag k="ssr:stedsnr" v="244748" />
	</node>
	<node id="-25277" lat="59.0674861125" lon="6.12010556349">
		<tag k="name" v="Langabergdalen" />
		<tag k="natural" v="valley" />
		<tag k="place" v="locality" />
		<tag k="ssr:stedsnr" v="244680" />
	</node>
	<node id="-25276" lat="59.047708331" lon="6.06200833228">
		<tag k="alt_name" v="Krogarheia" />
		<tag k="name" v="Krokarheia" />
		<tag k="natural" v="hill" />
		<tag k="place" v="locality" />
		<tag k="ssr:stedsnr" v="244666" />
	</node>
	<node id="-25272" lat="58.998541669" lon="6.18814444841">
		<tag k="fixme" v="consider natural=peak for the most distinct mountains in the district" />
		<tag k="name" v="Troppeknuten" />
		<tag k="natural" v="hill" />
		<tag k="place" v="locality" />
		<tag k="ssr:stedsnr" v="243851" />
	</node>
	<node id="-25267" lat="58.9917138931" lon="6.21016944283">
		<tag k="name" v="Brattelia" />
		<tag k="natural" v="slope" />
		<tag k="place" v="locality" />
		<tag k="ssr:stedsnr" v="241034" />
	</node>
	<node id="-25264" lat="59.0002166708" lon="6.11075000092">
		<tag k="name" v="Ommundsbakken" />
		<tag k="natural" v="slope" />
		<tag k="place" v="locality" />
		<tag k="ssr:stedsnr" v="237947" />
	</node>
	<node id="-25263" lat="59.0631027782" lon="6.03213056173">
		<tag k="name" v="Bjødnabrota" />
		<tag k="natural" v="hill" />
		<tag k="place" v="locality" />
		<tag k="ssr:stedsnr" v="237889" />
	</node>
	<node id="-25262" lat="59.0520972185" lon="5.97856944491">
		<tag k="fixme" v="consider natural=peak for the most distinct mountains in the district" />
		<tag k="name" v="Seljåsen" />
		<tag k="natural" v="hill" />
		<tag k="place" v="locality" />
		<tag k="ssr:stedsnr" v="237879" />
	</node>
	<node id="-25261" lat="59.057544443" lon="6.07659166916">
		<tag k="name" v="Øygjaknuten" />
		<tag k="natural" v="hill" />
		<tag k="place" v="locality" />
		<tag k="ssr:stedsnr" v="237862" />
	</node>
	<node id="-25260" lat="59.0909555515" lon="6.02808056147">
		<tag k="name" v="Kalvabakken" />
		<tag k="natural" v="hill" />
		<tag k="place" v="locality" />
		<tag k="ssr:stedsnr" v="237707" />
	</node>
	<node id="-25259" lat="59.0894944454" lon="6.02195555755">
		<tag k="name" v="Fuglahammaren" />
		<tag k="natural" v="hill" />
		<tag k="place" v="locality" />
		<tag k="ssr:stedsnr" v="237706" />
	</node>
	<node id="-25257" lat="59.0833527743" lon="6.00694999747">
		<tag k="name" v="Vatnaklubben" />
		<tag k="natural" v="hill" />
		<tag k="place" v="locality" />
		<tag k="ssr:stedsnr" v="237680" />
	</node>
	<node id="-25256" lat="59.0909555595" lon="6.01046110615">
		<tag k="fixme" v="consider natural=peak for the most distinct mountains in the district" />
		<tag k="name" v="Kjortåsen" />
		<tag k="natural" v="hill" />
		<tag k="place" v="locality" />
		<tag k="ssr:stedsnr" v="237678" />
	</node>
	<node id="-25254" lat="59.1211055517" lon="6.11284166968">
		<tag k="name" v="Vasshammar" />
		<tag k="natural" v="hill" />
		<tag k="place" v="locality" />
		<tag k="ssr:stedsnr" v="237652" />
	</node>
	<node id="-25252" lat="59.017852775" lon="6.05166110805">
		<tag k="fixme" v="consider natural=peak for the most distinct mountains in the district" />
		<tag k="name" v="Glytte" />
		<tag k="natural" v="hill" />
		<tag k="place" v="locality" />
		<tag k="ssr:stedsnr" v="55051" />
	</node>
	<node id="-25246" lat="59.0892722203" lon="5.9684722155">
		<tag k="name" v="Varlandslia" />
		<tag k="natural" v="slope" />
		<tag k="place" v="locality" />
		<tag k="ssr:stedsnr" v="236872" />
	</node>
	<node id="-25245" lat="59.0908611126" lon="5.98425832932">
		<tag k="name" v="Vasstykket" />
		<tag k="natural" v="slope" />
		<tag k="place" v="locality" />
		<tag k="ssr:stedsnr" v="236867" />
	</node>
	<node id="-25244" lat="58.9749694446" lon="6.02335833539">
		<tag k="fixme" v="consider natural=peak for the most distinct mountains in the district" />
		<tag k="name" v="Sveivane" />
		<tag k="natural" v="hill" />
		<tag k="place" v="locality" />
		<tag k="ssr:stedsnr" v="236855" />
	</node>
	<node id="-25243" lat="59.1035388908" lon="5.94733056382">
		<tag k="fixme" v="consider natural=peak for the most distinct mountains in the district" />
		<tag k="name" v="Mørkaskotfjellet" />
		<tag k="natural" v="hill" />
		<tag k="place" v="locality" />
		<tag k="ssr:stedsnr" v="236772" />
	</node>
	<node id="-25242" lat="59.0907305546" lon="6.05598889431">
		<tag k="fixme" v="consider natural=peak for the most distinct mountains in the district" />
		<tag k="name" v="Minnesmerke" />
		<tag k="natural" v="hill" />
		<tag k="place" v="locality" />
		<tag k="ssr:stedsnr" v="236663" />
	</node>
	<node id="-25237" lat="58.9541750036" lon="6.12985833359">
		<tag k="name" v="Lyngtona" />
		<tag k="place" v="locality" />
		<tag k="ssr:stedsnr" v="236358" />
	</node>
	<node id="-25233" lat="58.9648194416" lon="6.02511943681">
		<tag k="fixme" v="consider natural=peak for the most distinct mountains in the district" />
		<tag k="name" v="Askjeliåsen" />
		<tag k="natural" v="hill" />
		<tag k="place" v="locality" />
		<tag k="ssr:stedsnr" v="236288" />
	</node>
	<node id="-25232" lat="58.9813027815" lon="6.08406666089">
		<tag k="name" v="Sveinastykket" />
		<tag k="natural" v="slope" />
		<tag k="place" v="locality" />
		<tag k="ssr:stedsnr" v="236281" />
	</node>
	<node id="-25231" lat="58.9851916696" lon="6.06605000701">
		<tag k="fixme" v="consider natural=peak for the most distinct mountains in the district" />
		<tag k="name" v="Haråsen" />
		<tag k="natural" v="hill" />
		<tag k="place" v="locality" />
		<tag k="ssr:stedsnr" v="236274" />
	</node>
	<node id="-25225" lat="58.9876249957" lon="5.9481555623">
		<tag k="fixme" v="consider natural=peak for the most distinct mountains in the district" />
		<tag k="name" v="Skjeraberget" />
		<tag k="natural" v="hill" />
		<tag k="place" v="locality" />
		<tag k="ssr:stedsnr" v="23002" />
	</node>
</osm>
