<?xml version="1.0" encoding="UTF-8"?>
<osm generator="osmapis" version="0.6">
	<node id="-409600" lat="59.1153989311" lon="5.99950422918">
		<tag k="alt_name" v="Ytra Fiskå" />
		<tag k="fixme" v="consider place=hamlet" />
		<tag k="name" v="Ytrafiskåna" />
		<tag k="place" v="farm" />
		<tag k="ssr:stedsnr" v="304520" />
	</node>
	<node id="-409599" lat="59.1207341459" lon="6.06185305194">
		<tag k="alt_name" v="Urd" />
		<tag k="fixme" v="consider place=hamlet" />
		<tag k="name" v="Ur" />
		<tag k="place" v="farm" />
		<tag k="ssr:stedsnr" v="304492" />
	</node>
	<node id="-409597" lat="59.1221027759" lon="6.09687500542">
		<tag k="name" v="Åsen" />
		<tag k="place" v="isolated_dwelling" />
		<tag k="ssr:stedsnr" v="304490" />
	</node>
	<node id="-410107" lat="58.9836722193" lon="5.95533610704">
		<tag k="name" v="Løvollen" />
		<tag k="place" v="farm" />
		<tag k="ssr:stedsnr" v="447003" />
	</node>
	<node id="-409594" lat="59.0397191164" lon="5.95107067386">
		<tag k="fixme" v="consider place=hamlet" />
		<tag k="name" v="Nordland" />
		<tag k="place" v="farm" />
		<tag k="ssr:stedsnr" v="304303" />
	</node>
	<node id="-409593" lat="59.0369371442" lon="5.95383253007">
		<tag k="fixme" v="consider place=hamlet" />
		<tag k="name" v="Nes" />
		<tag k="place" v="farm" />
		<tag k="ssr:stedsnr" v="304301" />
	</node>
	<node id="-410104" lat="59.1095627139" lon="6.09834916847">
		<tag k="fixme" v="consider place=hamlet" />
		<tag k="name" v="Jarven" />
		<tag k="place" v="farm" />
		<tag k="ssr:stedsnr" v="427707" />
	</node>
	<node id="-409591" lat="59.0568388895" lon="5.97611111611">
		<tag k="name" v="Stølen" />
		<tag k="place" v="farm" />
		<tag k="ssr:stedsnr" v="297901" />
	</node>
	<node id="-410613" lat="59.0665176737" lon="5.92516253272">
		<tag k="fixme" v="consider place=hamlet" />
		<tag k="name" v="Tau" />
		<tag k="place" v="farm" />
		<tag k="ssr:stedsnr" v="912677" />
	</node>
	<node id="-410612" lat="59.0648055543" lon="5.9225027707">
		<tag k="name" v="Tau" />
		<tag k="place" v="village" />
		<tag k="ssr:stedsnr" v="912676" />
	</node>
	<node id="-410099" lat="58.9870500035" lon="5.94329443892">
		<tag k="name" v="Slettabø" />
		<tag k="place" v="farm" />
		<tag k="ssr:stedsnr" v="426867" />
	</node>
	<node id="-410610" lat="59.0589666638" lon="5.94347223062">
		<tag k="name" v="Monane" />
		<tag k="place" v="farm" />
		<tag k="ssr:stedsnr" v="912663" />
	</node>
	<node id="-410609" lat="59.0593944482" lon="5.9605444381">
		<tag k="alt_name" v="Haugane" />
		<tag k="name" v="Haugen" />
		<tag k="place" v="farm" />
		<tag k="ssr:stedsnr" v="912659" />
	</node>
	<node id="-410095" lat="58.9874750029" lon="6.07972499777">
		<tag k="name" v="Botnehagen" />
		<tag k="place" v="farm" />
		<tag k="ssr:stedsnr" v="426782" />
	</node>
	<node id="-409582" lat="59.0843498003" lon="5.97981426208">
		<tag k="fixme" v="consider place=hamlet" />
		<tag k="name" v="Varland" />
		<tag k="place" v="farm" />
		<tag k="ssr:stedsnr" v="297841" />
	</node>
	<node id="-410091" lat="59.0843579874" lon="5.97760912477">
		<tag k="name" v="Varland" />
		<tag k="place" v="farm" />
		<tag k="ssr:stedsnr" v="426691" />
	</node>
	<node id="-410601" lat="59.0271166687" lon="6.02801666798">
		<tag k="name" v="Nedrafjelle" />
		<tag k="place" v="farm" />
		<tag k="ssr:stedsnr" v="912348" />
	</node>
	<node id="-409576" lat="59.0249805524" lon="6.02344443634">
		<tag k="name" v="Nedre Fjidle" />
		<tag k="place" v="farm" />
		<tag k="ssr:stedsnr" v="297979" />
	</node>
	<node id="-410596" lat="58.9746430241" lon="6.04430235864">
		<tag k="fixme" v="consider place=hamlet" />
		<tag k="name" v="Erlandsdalen" />
		<tag k="place" v="farm" />
		<tag k="ssr:stedsnr" v="911765" />
	</node>
	<node id="-410080" lat="59.0632750042" lon="5.91370555048">
		<tag k="building" v="industrial" />
		<tag k="industrial" v="factory" />
		<tag k="name" v="Tau Mølle" />
		<tag k="ssr:stedsnr" v="420197" />
	</node>
	<node id="-410618" lat="59.0877453035" lon="6.02779214463">
		<tag k="fixme" v="consider place=hamlet" />
		<tag k="name" v="Holta" />
		<tag k="place" v="farm" />
		<tag k="ssr:stedsnr" v="912703" />
	</node>
	<node id="-410069" lat="59.0974083332" lon="5.9510722174">
		<tag k="name" v="Østabøstølen" />
		<tag k="place" v="farm" />
		<tag k="ssr:stedsnr" v="418854" />
	</node>
	<node id="-410066" lat="59.1144583337" lon="6.00668333463">
		<tag k="name" v="Bakkjen" />
		<tag k="place" v="farm" />
		<tag k="ssr:stedsnr" v="418746" />
	</node>
	<node id="-410059" lat="59.0451049087" lon="5.82262071575">
		<tag k="fixme" v="consider place=hamlet" />
		<tag k="name" v="Hidle" />
		<tag k="place" v="farm" />
		<tag k="ssr:stedsnr" v="417356" />
	</node>
	<node id="-410615" lat="59.073269268" lon="6.01741303623">
		<tag k="alt_name" v="Nerhus;Nedre Bjøreim" />
		<tag k="fixme" v="consider place=hamlet" />
		<tag k="name" v="Nedrehus" />
		<tag k="place" v="farm" />
		<tag k="ssr:stedsnr" v="912686" />
	</node>
	<node id="-410552" lat="59.0639532841" lon="6.05523290231">
		<tag k="fixme" v="consider place=hamlet" />
		<tag k="name" v="Rotabakken" />
		<tag k="place" v="farm" />
		<tag k="ssr:stedsnr" v="852633" />
	</node>
	<node id="-410549" lat="58.9997666628" lon="6.08479999878">
		<tag k="name" v="Bakkane" />
		<tag k="place" v="farm" />
		<tag k="ssr:stedsnr" v="852266" />
	</node>
	<node id="-410542" lat="58.9902443841" lon="6.13816373555">
		<tag k="fixme" v="consider place=hamlet" />
		<tag k="name" v="Vatne" />
		<tag k="place" v="farm" />
		<tag k="ssr:stedsnr" v="851762" />
	</node>
	<node id="-410540" lat="59.104699455" lon="5.9520217897">
		<tag k="fixme" v="consider place=hamlet" />
		<tag k="name" v="Vatland" />
		<tag k="place" v="farm" />
		<tag k="ssr:stedsnr" v="851723" />
	</node>
	<node id="-410098" lat="58.9887222219" lon="5.98797778293">
		<tag k="alt_name" v="Loddervik" />
		<tag k="name" v="Lådervik" />
		<tag k="place" v="locality" />
		<tag k="ssr:stedsnr" v="426865" />
	</node>
	<node id="-410026" lat="59.0632863364" lon="6.01763580223">
		<tag k="fixme" v="consider place=hamlet" />
		<tag k="name" v="Vaula" />
		<tag k="place" v="farm" />
		<tag k="ssr:stedsnr" v="244690" />
	</node>
	<node id="-410537" lat="59.1054888844" lon="6.01172777256">
		<tag k="alt_name" v="Myrå" />
		<tag k="name" v="Myra" />
		<tag k="place" v="farm" />
		<tag k="ssr:stedsnr" v="851711" />
	</node>
	<node id="-410019" lat="59.1308647473" lon="6.10122786698">
		<tag k="alt_name" v="Litladøvika" />
		<tag k="fixme" v="consider place=hamlet" />
		<tag k="name" v="Litla Døvika" />
		<tag k="old_name" v="Litla Døviga" />
		<tag k="place" v="farm" />
		<tag k="ssr:stedsnr" v="244558" />
	</node>
	<node id="-410018" lat="59.1161805523" lon="6.00179721789">
		<tag k="name" v="Indrafiskåna" />
		<tag k="place" v="farm" />
		<tag k="ssr:stedsnr" v="244538" />
	</node>
	<node id="-410504" lat="59.0915249994" lon="5.97415833486">
		<tag k="name" v="Bertaplasset" />
		<tag k="place" v="locality" />
		<tag k="ssr:stedsnr" v="843872" />
	</node>
	<node id="-410496" lat="59.127316665" lon="6.06123888828">
		<tag k="name" v="Erevika" />
		<tag k="place" v="farm" />
		<tag k="ssr:stedsnr" v="843504" />
	</node>
	<node id="-409983" lat="59.040522218" lon="5.94736389274">
		<tag k="name" v="Nordland" />
		<tag k="place" v="farm" />
		<tag k="ssr:stedsnr" v="216234" />
	</node>
	<node id="-409982" lat="59.1285138881" lon="6.06931389025">
		<tag k="name" v="Sørskår" />
		<tag k="place" v="farm" />
		<tag k="ssr:stedsnr" v="216227" />
	</node>
	<node id="-409981" lat="59.0912666669" lon="5.98088889217">
		<tag k="name" v="Varland" />
		<tag k="place" v="farm" />
		<tag k="ssr:stedsnr" v="216225" />
	</node>
	<node id="-409663" lat="59.1276322418" lon="6.06436625346">
		<tag k="fixme" v="consider place=hamlet" />
		<tag k="name" v="Sørskår" />
		<tag k="place" v="farm" />
		<tag k="ssr:stedsnr" v="358518" />
	</node>
	<node id="-409970" lat="59.0742436896" lon="6.02541698535">
		<tag k="alt_name" v="Østerhus" />
		<tag k="fixme" v="consider place=hamlet" />
		<tag k="name" v="Østrehus" />
		<tag k="place" v="farm" />
		<tag k="ssr:stedsnr" v="184674" />
	</node>
	<node id="-409968" lat="59.0551660847" lon="5.92706945013">
		<tag k="fixme" v="consider place=hamlet" />
		<tag k="name" v="Prestagarden" />
		<tag k="place" v="farm" />
		<tag k="ssr:stedsnr" v="184655" />
	</node>
	<node id="-410479" lat="59.1130514445" lon="6.01986606038">
		<tag k="fixme" v="consider place=hamlet" />
		<tag k="name" v="Geidaskjer" />
		<tag k="place" v="farm" />
		<tag k="ssr:stedsnr" v="790768" />
	</node>
	<node id="-410476" lat="59.0960916693" lon="6.00403888534">
		<tag k="name" v="Haugen" />
		<tag k="place" v="farm" />
		<tag k="ssr:stedsnr" v="790742" />
	</node>
	<node id="-409961" lat="58.9856083334" lon="5.94375277735">
		<tag k="name" v="Øvrabø" />
		<tag k="place" v="farm" />
		<tag k="ssr:stedsnr" v="183861" />
	</node>
	<node id="-409956" lat="58.9979556" lon="6.05466264787">
		<tag k="fixme" v="consider place=hamlet" />
		<tag k="name" v="Ådnanes" />
		<tag k="place" v="farm" />
		<tag k="ssr:stedsnr" v="183851" />
	</node>
	<node id="-409955" lat="59.0991349394" lon="5.93801499976">
		<tag k="alt_name" v="Allsvik;Alsvika" />
		<tag k="fixme" v="consider place=hamlet" />
		<tag k="name" v="Alsvik" />
		<tag k="old_name" v="Alsviga" />
		<tag k="place" v="farm" />
		<tag k="ssr:stedsnr" v="183736" />
	</node>
	<node id="-410466" lat="59.119844447" lon="6.07299443967">
		<tag k="alt_name" v="Skåraslåtta" />
		<tag k="name" v="Skoraslåtta" />
		<tag k="place" v="locality" />
		<tag k="ssr:stedsnr" v="790528" />
	</node>
	<node id="-410460" lat="59.0327091506" lon="5.9590369451">
		<tag k="alt_name" v="Sedberg" />
		<tag k="fixme" v="consider place=hamlet" />
		<tag k="name" v="Setberg" />
		<tag k="place" v="farm" />
		<tag k="ssr:stedsnr" v="790323" />
	</node>
	<node id="-409947" lat="59.0437337165" lon="6.10495159975">
		<tag k="fixme" v="consider place=hamlet" />
		<tag k="name" v="Dalen" />
		<tag k="place" v="farm" />
		<tag k="ssr:stedsnr" v="183309" />
	</node>
	<node id="-410458" lat="59.0327941462" lon="5.9789077212">
		<tag k="fixme" v="consider place=hamlet" />
		<tag k="name" v="Tveit" />
		<tag k="place" v="farm" />
		<tag k="ssr:stedsnr" v="790320" />
	</node>
	<node id="-409943" lat="59.0219916688" lon="6.04914721792">
		<tag k="leisure" v="park" />
		<tag k="name" v="Stølale" />
		<tag k="ssr:stedsnr" v="176971" />
	</node>
	<node id="-410106" lat="58.9851972244" lon="5.94884444014">
		<tag k="name" v="Risvoll" />
		<tag k="place" v="farm" />
		<tag k="ssr:stedsnr" v="447001" />
	</node>
	<node id="-409913" lat="58.9823527791" lon="5.95203611851">
		<tag k="name" v="Tingvoll" />
		<tag k="place" v="farm" />
		<tag k="ssr:stedsnr" v="144005" />
	</node>
	<node id="-410452" lat="58.9894666704" lon="5.94490833345">
		<tag k="name" v="Nordheim" />
		<tag k="place" v="farm" />
		<tag k="ssr:stedsnr" v="789853" />
	</node>
	<node id="-409930" lat="59.0206638913" lon="6.04089722507">
		<tag k="name" v="Svenskebyen" />
		<tag k="place" v="suburb" />
		<tag k="ssr:stedsnr" v="176061" />
	</node>
	<node id="-410429" lat="59.0244670613" lon="6.09142854142">
		<tag k="fixme" v="consider place=hamlet" />
		<tag k="name" v="Selemork" />
		<tag k="place" v="farm" />
		<tag k="ssr:stedsnr" v="782170" />
	</node>
	<node id="-410425" lat="59.1270333352" lon="6.06500000168">
		<tag k="name" v="Sørskår" />
		<tag k="place" v="farm" />
		<tag k="ssr:stedsnr" v="762243" />
	</node>
	<node id="-410415" lat="58.9795972243" lon="5.99303055424">
		<tag k="name" v="Ryggle" />
		<tag k="place" v="farm" />
		<tag k="ssr:stedsnr" v="751061" />
	</node>
	<node id="-410413" lat="59.1137250328" lon="5.97045521314">
		<tag k="alt_name" v="Vervik" />
		<tag k="fixme" v="consider place=hamlet" />
		<tag k="name" v="Vervika" />
		<tag k="place" v="farm" />
		<tag k="ssr:stedsnr" v="730785" />
	</node>
	<node id="-409899" lat="59.0233004601" lon="5.9954837713">
		<tag k="fixme" v="consider place=hamlet" />
		<tag k="name" v="Barka" />
		<tag k="place" v="farm" />
		<tag k="ssr:stedsnr" v="123382" />
	</node>
	<node id="-410410" lat="59.0710821427" lon="5.9905421633">
		<tag k="fixme" v="consider place=hamlet" />
		<tag k="name" v="Vasstveit" />
		<tag k="place" v="farm" />
		<tag k="ssr:stedsnr" v="730715" />
	</node>
	<node id="-409895" lat="59.0384690398" lon="6.04908384446">
		<tag k="alt_name" v="Heiå" />
		<tag k="fixme" v="consider place=hamlet" />
		<tag k="name" v="Heia" />
		<tag k="place" v="farm" />
		<tag k="ssr:stedsnr" v="123349" />
	</node>
	<node id="-409892" lat="59.0025725097" lon="6.07269973963">
		<tag k="alt_name" v="Notavik" />
		<tag k="fixme" v="consider place=hamlet" />
		<tag k="name" v="Notavika" />
		<tag k="place" v="farm" />
		<tag k="ssr:stedsnr" v="123284" />
	</node>
	<node id="-409563" lat="59.0416333377" lon="5.94560000549">
		<tag k="name" v="Nordland" />
		<tag k="place" v="farm" />
		<tag k="ssr:stedsnr" v="277226" />
	</node>
	<node id="-410400" lat="59.0225027778" lon="6.0408250014">
		<tag k="name" v="Jørpeland" />
		<tag k="place" v="town" />
		<tag k="ssr:stedsnr" v="730338" />
	</node>
	<node id="-409887" lat="59.0904055528" lon="5.94439443807">
		<tag k="alt_name" v="Stokkalé" />
		<tag k="name" v="Stokkaled" />
		<tag k="place" v="farm" />
		<tag k="ssr:stedsnr" v="122710" />
	</node>
	<node id="-410397" lat="58.9835029335" lon="5.9481527225">
		<tag k="alt_name" v="Isse" />
		<tag k="fixme" v="consider place=hamlet" />
		<tag k="name" v="Idse" />
		<tag k="place" v="farm" />
		<tag k="ssr:stedsnr" v="729854" />
	</node>
	<node id="-410396" lat="58.9936333301" lon="6.09644999736">
		<tag k="name" v="Haugen" />
		<tag k="place" v="farm" />
		<tag k="ssr:stedsnr" v="729846" />
	</node>
	<node id="-410395" lat="58.9838928864" lon="6.09102673539">
		<tag k="fixme" v="consider place=hamlet" />
		<tag k="name" v="Botne" />
		<tag k="place" v="farm" />
		<tag k="ssr:stedsnr" v="729785" />
	</node>
	<node id="-409874" lat="58.9725305547" lon="6.02510000694">
		<tag k="name" v="Botn" />
		<tag k="place" v="farm" />
		<tag k="ssr:stedsnr" v="115834" />
	</node>
	<node id="-409782" lat="58.9848388879" lon="6.1499027725">
		<tag k="name" v="Torsnes" />
		<tag k="place" v="isolated_dwelling" />
		<tag k="ssr:stedsnr" v="1772" />
	</node>
	<node id="-409871" lat="59.0251145955" lon="6.0270462375">
		<tag k="fixme" v="consider place=hamlet" />
		<tag k="name" v="Nedre Fjidle" />
		<tag k="place" v="farm" />
		<tag k="ssr:stedsnr" v="115046" />
	</node>
	<node id="-410381" lat="59.0321527811" lon="6.02390556319">
		<tag k="fixme" v="consider place=hamlet" />
		<tag k="name" v="Ovrafjelle" />
		<tag k="place" v="farm" />
		<tag k="ssr:stedsnr" v="722859" />
	</node>
	<node id="-409867" lat="59.0235749983" lon="6.02717222669">
		<tag k="name" v="Fjelle" />
		<tag k="place" v="hamlet" />
		<tag k="ssr:stedsnr" v="86247" />
	</node>
	<node id="-409862" lat="59.113089491" lon="6.01391242607">
		<tag k="fixme" v="consider place=hamlet" />
		<tag k="name" v="Kråkevoll" />
		<tag k="place" v="farm" />
		<tag k="ssr:stedsnr" v="63739" />
	</node>
	<node id="-409859" lat="59.1272277765" lon="6.06495278172">
		<tag k="name" v="Sørskår" />
		<tag k="place" v="farm" />
		<tag k="ssr:stedsnr" v="63540" />
	</node>
	<node id="-409984" lat="59.1296444475" lon="6.06671389682">
		<tag k="name" v="Sørskår" />
		<tag k="place" v="farm" />
		<tag k="ssr:stedsnr" v="216239" />
	</node>
	<node id="-409854" lat="59.1039805597" lon="6.01571943863">
		<tag k="alt_name" v="Veland" />
		<tag k="fixme" v="consider place=hamlet" />
		<tag k="name" v="Vedland" />
		<tag k="place" v="farm" />
		<tag k="ssr:stedsnr" v="62728" />
	</node>
	<node id="-409852" lat="59.0840611121" lon="6.0244527705">
		<tag k="alt_name" v="Heiå" />
		<tag k="name" v="Heia" />
		<tag k="place" v="farm" />
		<tag k="ssr:stedsnr" v="62700" />
	</node>
	<node id="-410362" lat="59.1283436669" lon="6.09873466701">
		<tag k="alt_name" v="Døvig" />
		<tag k="name" v="Døvika" />
		<tag k="place" v="hamlet" />
		<tag k="ssr:stedsnr" v="707457" />
	</node>
	<node id="-409849" lat="59.0717107626" lon="5.92772821384">
		<tag k="alt_name" v="Ugeli" />
		<tag k="fixme" v="consider place=hamlet" />
		<tag k="name" v="Ugelia" />
		<tag k="place" v="farm" />
		<tag k="ssr:stedsnr" v="62682" />
	</node>
	<node id="-410356" lat="59.1147444444" lon="6.00234166515">
		<tag k="fixme" v="consider place=hamlet" />
		<tag k="name" v="Fiskå" />
		<tag k="place" v="village" />
		<tag k="ssr:stedsnr" v="676826" />
	</node>
	<node id="-410352" lat="59.095047221" lon="5.99766944748">
		<tag k="alt_name" v="Kjelvå" />
		<tag k="name" v="Kjelva" />
		<tag k="place" v="farm" />
		<tag k="ssr:stedsnr" v="669697" />
	</node>
	<node id="-410351" lat="59.0926500026" lon="6.00205277383">
		<tag k="alt_name" v="Fladen" />
		<tag k="name" v="Flaten" />
		<tag k="place" v="farm" />
		<tag k="ssr:stedsnr" v="669696" />
	</node>
	<node id="-409837" lat="59.0273831357" lon="6.01759361408">
		<tag k="fixme" v="consider place=hamlet" />
		<tag k="name" v="Barkve" />
		<tag k="place" v="farm" />
		<tag k="ssr:stedsnr" v="62333" />
	</node>
	<node id="-409835" lat="59.0361004485" lon="5.97196622405">
		<tag k="alt_name" v="Hedland;Hetland" />
		<tag k="fixme" v="consider place=hamlet" />
		<tag k="name" v="Helland" />
		<tag k="place" v="farm" />
		<tag k="ssr:stedsnr" v="62317" />
	</node>
	<node id="-410346" lat="59.0755980903" lon="5.9837112511">
		<tag k="alt_name" v="Heggeim;Heggjeim" />
		<tag k="fixme" v="consider place=hamlet" />
		<tag k="name" v="Heggheim" />
		<tag k="place" v="farm" />
		<tag k="ssr:stedsnr" v="669670" />
	</node>
	<node id="-410342" lat="59.1266145832" lon="6.09151159911">
		<tag k="alt_name" v="Stora Døvika" />
		<tag k="fixme" v="consider place=hamlet" />
		<tag k="name" v="Storadøvika" />
		<tag k="place" v="farm" />
		<tag k="ssr:stedsnr" v="669535" />
	</node>
	<node id="-409826" lat="58.9909138848" lon="6.13753333603">
		<tag k="alt_name" v="Preikestolen fjellstue" />
		<tag k="fixme" v="consider tourism=alpine_hut or tourism=chalet" />
		<tag k="name" v="Preikestolhytta" />
		<tag k="ssr:stedsnr" v="61762" />
		<tag k="tourism" v="wilderness_hut" />
	</node>
	<node id="-410332" lat="59.026408675" lon="6.05584376495">
		<tag k="name" v="Førland" />
		<tag k="place" v="quarter" />
		<tag k="ssr:stedsnr" v="669335" />
	</node>
	<node id="-410328" lat="59.0250415098" lon="5.96429848527">
		<tag k="fixme" v="consider place=hamlet" />
		<tag k="name" v="Nag" />
		<tag k="place" v="farm" />
		<tag k="ssr:stedsnr" v="669322" />
	</node>
	<node id="-409810" lat="59.1136666686" lon="6.02307499517">
		<tag k="name" v="Haugard" />
		<tag k="place" v="farm" />
		<tag k="ssr:stedsnr" v="54750" />
	</node>
	<node id="-410320" lat="59.1175722222" lon="6.04613611212">
		<tag k="alt_name" v="Dige" />
		<tag k="name" v="Diket" />
		<tag k="place" v="farm" />
		<tag k="ssr:stedsnr" v="668514" />
	</node>
	<node id="-409806" lat="59.1121638908" lon="6.02213888104">
		<tag k="name" v="Tveit" />
		<tag k="place" v="farm" />
		<tag k="ssr:stedsnr" v="54752" />
	</node>
	<node id="-409798" lat="59.128927781" lon="6.06374443996">
		<tag k="name" v="Sørskår" />
		<tag k="place" v="farm" />
		<tag k="ssr:stedsnr" v="34240" />
	</node>
	<node id="-410309" lat="58.9777499999" lon="6.03956666127">
		<tag k="name" v="Håle" />
		<tag k="place" v="locality" />
		<tag k="ssr:stedsnr" v="661863" />
	</node>
	<node id="-410308" lat="59.0986444419" lon="5.94629721421">
		<tag k="name" v="Nyland" />
		<tag k="place" v="farm" />
		<tag k="ssr:stedsnr" v="661861" />
	</node>
	<node id="-409793" lat="58.9794083342" lon="5.94916389736">
		<tag k="name" v="Molkebakken" />
		<tag k="place" v="farm" />
		<tag k="ssr:stedsnr" v="23006" />
	</node>
	<node id="-409788" lat="59.0603555581" lon="5.9517694526">
		<tag k="name" v="Lendingane" />
		<tag k="place" v="farm" />
		<tag k="ssr:stedsnr" v="2669" />
	</node>
	<node id="-409787" lat="59.0554037647" lon="5.96727284296">
		<tag k="alt_name" v="Tjøsseim;Tjøsheim;Tjøstheim" />
		<tag k="fixme" v="consider place=hamlet" />
		<tag k="name" v="Tjøssheim" />
		<tag k="place" v="farm" />
		<tag k="ssr:stedsnr" v="2656" />
	</node>
	<node id="-410294" lat="59.0206750028" lon="5.88995276898">
		<tag k="name" v="Kjellå" />
		<tag k="place" v="farm" />
		<tag k="ssr:stedsnr" v="660084" />
	</node>
	<node id="-410569" lat="59.1181944416" lon="6.06834721851">
		<tag k="name" v="Uraslåtta" />
		<tag k="place" v="locality" />
		<tag k="ssr:stedsnr" v="904604" />
	</node>
	<node id="-409780" lat="59.1055370064" lon="5.96549027386">
		<tag k="alt_name" v="Ravnås" />
		<tag k="fixme" v="consider place=hamlet" />
		<tag k="name" v="Ramnås" />
		<tag k="place" v="farm" />
		<tag k="ssr:stedsnr" v="1733" />
	</node>
	<node id="-409778" lat="59.1003027809" lon="6.07195555077">
		<tag k="name" v="Holtastølen" />
		<tag k="place" v="isolated_dwelling" />
		<tag k="ssr:stedsnr" v="1718" />
	</node>
	<node id="-409777" lat="59.093441667" lon="5.94710555194">
		<tag k="name" v="Bygdaled" />
		<tag k="place" v="farm" />
		<tag k="ssr:stedsnr" v="1712" />
	</node>
	<node id="-409776" lat="59.0913679088" lon="5.94271465962">
		<tag k="fixme" v="consider place=hamlet" />
		<tag k="name" v="Amdal" />
		<tag k="place" v="farm" />
		<tag k="ssr:stedsnr" v="1713" />
	</node>
	<node id="-409885" lat="59.0331083363" lon="5.94219722768">
		<tag k="fixme" v="consider place=suburb, village or hamlet" />
		<tag k="name" v="Solbakk" />
		<tag k="place" v="quarter" />
		<tag k="ssr:stedsnr" v="122330" />
	</node>
	<node id="-409769" lat="59.0318982957" lon="5.98863328696">
		<tag k="fixme" v="consider place=hamlet" />
		<tag k="name" v="Åsen" />
		<tag k="place" v="farm" />
		<tag k="ssr:stedsnr" v="1335" />
	</node>
	<node id="-409766" lat="59.0372582934" lon="5.9366235457">
		<tag k="fixme" v="consider place=hamlet" />
		<tag k="name" v="Tuftene" />
		<tag k="place" v="farm" />
		<tag k="ssr:stedsnr" v="1319" />
	</node>
	<node id="-410274" lat="59.0752722226" lon="6.06296944512">
		<tag k="name" v="Vatne" />
		<tag k="place" v="farm" />
		<tag k="ssr:stedsnr" v="608704" />
	</node>
	<node id="-410262" lat="59.0361611109" lon="6.17225832515">
		<tag k="historic" v="shieling" />
		<tag k="name" v="Nagastølen" />
		<tag k="place" v="locality" />
		<tag k="ssr:stedsnr" v="608350" />
	</node>
	<node id="-410258" lat="58.9618249995" lon="6.107075007">
		<tag k="name" v="Botnsheia" />
		<tag k="place" v="locality" />
		<tag k="ssr:stedsnr" v="607786" />
	</node>
	<node id="-410257" lat="58.9787903722" lon="5.98156427212">
		<tag k="alt_name" v="Issal" />
		<tag k="fixme" v="consider place=hamlet" />
		<tag k="name" v="Idsal" />
		<tag k="place" v="farm" />
		<tag k="ssr:stedsnr" v="607780" />
	</node>
	<node id="-410253" lat="59.0290305532" lon="6.03353610467">
		<tag k="leisure" v="pitch" />
		<tag k="name" v="Reset" />
		<tag k="ssr:stedsnr" v="600983" />
	</node>
	<node id="-409623" lat="59.0648866414" lon="6.0247814452">
		<tag k="name" v="Vaulali" />
		<tag k="place" v="farm" />
		<tag k="ssr:stedsnr" v="305682" />
	</node>
	<node id="-409734" lat="59.0524746237" lon="5.8228440947">
		<tag k="leisure" v="park" />
		<tag k="name" v="Flor &amp; Fjære" />
		<tag k="ssr:stedsnr" v="985801" />
	</node>
	<node id="-410238" lat="59.0259694464" lon="6.04305277236">
		<tag k="name" v="Longaland" />
		<tag k="place" v="quarter" />
		<tag k="ssr:stedsnr" v="600094" />
	</node>
	<node id="-410234" lat="58.9819333318" lon="6.09605832841">
		<tag k="name" v="Fredly" />
		<tag k="place" v="farm" />
		<tag k="ssr:stedsnr" v="599328" />
	</node>
	<node id="-409718" lat="59.0224972221" lon="6.05590000109">
		<tag k="name" v="Brautene" />
		<tag k="place" v="quarter" />
		<tag k="ssr:stedsnr" v="479197" />
	</node>
	<node id="-410227" lat="59.1287305528" lon="6.06550832972">
		<tag k="name" v="Sørskår" />
		<tag k="place" v="farm" />
		<tag k="ssr:stedsnr" v="580216" />
	</node>
	<node id="-409714" lat="59.0231091846" lon="5.8986892703">
		<tag k="fixme" v="consider place=hamlet" />
		<tag k="name" v="Heng" />
		<tag k="place" v="farm" />
		<tag k="ssr:stedsnr" v="478081" />
	</node>
	<node id="-409703" lat="59.1102777746" lon="6.01826944407">
		<tag k="name" v="Bygdevoll" />
		<tag k="place" v="farm" />
		<tag k="ssr:stedsnr" v="366735" />
	</node>
	<node id="-410215" lat="59.0546305529" lon="5.93803333736">
		<tag k="name" v="Klokkargarden" />
		<tag k="place" v="farm" />
		<tag k="ssr:stedsnr" v="548652" />
	</node>
	<node id="-410207" lat="58.9775249991" lon="5.96470000335">
		<tag k="name" v="Tangen" />
		<tag k="place" v="farm" />
		<tag k="ssr:stedsnr" v="547806" />
	</node>
	<node id="-410205" lat="58.9823083324" lon="6.09618055913">
		<tag k="name" v="Botnebakken" />
		<tag k="place" v="farm" />
		<tag k="ssr:stedsnr" v="547785" />
	</node>
	<node id="-410200" lat="59.0884888865" lon="5.97425000402">
		<tag k="name" v="Vårli" />
		<tag k="place" v="farm" />
		<tag k="ssr:stedsnr" v="547752" />
	</node>
	<node id="-409675" lat="59.0496316771" lon="6.12343544891">
		<tag k="alt_name" v="Foreneset" />
		<tag k="fixme" v="consider place=hamlet" />
		<tag k="name" v="Fureneset" />
		<tag k="place" v="farm" />
		<tag k="ssr:stedsnr" v="365334" />
	</node>
	<node id="-409672" lat="59.0345951295" lon="5.96133678252">
		<tag k="fixme" v="consider place=hamlet" />
		<tag k="name" v="Melberg" />
		<tag k="place" v="farm" />
		<tag k="ssr:stedsnr" v="365325" />
	</node>
	<node id="-409667" lat="59.0600499996" lon="6.04755556382">
		<tag k="historic" v="shieling" />
		<tag k="name" v="Stølen" />
		<tag k="place" v="locality" />
		<tag k="ssr:stedsnr" v="358873" />
	</node>
	<node id="-409611" lat="58.9976532957" lon="6.08013544656">
		<tag k="fixme" v="consider place=hamlet" />
		<tag k="name" v="Jøssang" />
		<tag k="place" v="farm" />
		<tag k="ssr:stedsnr" v="304868" />
	</node>
	<node id="-410175" lat="59.0485331385" lon="5.92468071259">
		<tag k="fixme" v="consider place=hamlet" />
		<tag k="name" v="Strand" />
		<tag k="place" v="farm" />
		<tag k="ssr:stedsnr" v="539889" />
	</node>
	<node id="-409656" lat="59.0982805528" lon="5.92814722679">
		<tag k="name" v="Buene" />
		<tag k="place" v="hamlet" />
		<tag k="ssr:stedsnr" v="357759" />
	</node>
	<node id="-409652" lat="58.9817972259" lon="6.09521667075">
		<tag k="name" v="Skogly" />
		<tag k="place" v="farm" />
		<tag k="ssr:stedsnr" v="357321" />
	</node>
	<node id="-410162" lat="59.1299416661" lon="6.07151666209">
		<tag k="name" v="Sørskår" />
		<tag k="place" v="farm" />
		<tag k="ssr:stedsnr" v="519278" />
	</node>
	<node id="-409646" lat="59.0040055558" lon="6.06864722781">
		<tag k="name" v="Nybu" />
		<tag k="place" v="quarter" />
		<tag k="ssr:stedsnr" v="356383" />
	</node>
	<node id="-409644" lat="59.0844335467" lon="5.97653244157">
		<tag k="name" v="Varland" />
		<tag k="place" v="farm" />
		<tag k="ssr:stedsnr" v="337273" />
	</node>
	<node id="-409643" lat="59.1079066773" lon="5.95351148679">
		<tag k="alt_name" v="Kjølevika" />
		<tag k="fixme" v="consider place=hamlet" />
		<tag k="name" v="Kjølevik" />
		<tag k="place" v="farm" />
		<tag k="ssr:stedsnr" v="427714" />
	</node>
	<node id="-410150" lat="59.0856333292" lon="6.03499999774">
		<tag k="name" v="Neset" />
		<tag k="place" v="farm" />
		<tag k="ssr:stedsnr" v="487731" />
	</node>
	<node id="-409634" lat="59.1077806635" lon="6.02407356656">
		<tag k="alt_name" v="Grødeim" />
		<tag k="fixme" v="consider place=hamlet" />
		<tag k="name" v="Grødheim" />
		<tag k="place" v="farm" />
		<tag k="ssr:stedsnr" v="305748" />
	</node>
	<node id="-410143" lat="59.1136558422" lon="6.001827616">
		<tag k="alt_name" v="Indra Fiskå" />
		<tag k="fixme" v="consider place=hamlet" />
		<tag k="name" v="Indrafiskåna" />
		<tag k="place" v="farm" />
		<tag k="ssr:stedsnr" v="487394" />
	</node>
	<node id="-409630" lat="59.0846084253" lon="5.99815442624">
		<tag k="alt_name" v="Lekvom" />
		<tag k="fixme" v="consider place=hamlet" />
		<tag k="name" v="Lekvam" />
		<tag k="place" v="farm" />
		<tag k="ssr:stedsnr" v="305709" />
	</node>
	<node id="-409628" lat="59.0774249827" lon="6.0212024023">
		<tag k="alt_name" v="Øvrebjøreim;Øvre Bjøreim" />
		<tag k="fixme" v="consider place=hamlet" />
		<tag k="name" v="Øvre Bjørheim" />
		<tag k="place" v="farm" />
		<tag k="ssr:stedsnr" v="305700" />
	</node>
	<node id="-409627" lat="59.0749764502" lon="5.99366948005">
		<tag k="fixme" v="consider place=hamlet" />
		<tag k="name" v="Meltveit" />
		<tag k="place" v="farm" />
		<tag k="ssr:stedsnr" v="305699" />
	</node>
	<node id="-409626" lat="59.0783611073" lon="6.03065555988">
		<tag k="alt_name" v="Bjøreimsbygda" />
		<tag k="fixme" v="consider place=hamlet" />
		<tag k="name" v="Bjørheimsbygda" />
		<tag k="place" v="village" />
		<tag k="ssr:stedsnr" v="305696" />
	</node>
	<node id="-409624" lat="59.0690822912" lon="5.94862434338">
		<tag k="fixme" v="consider place=hamlet" />
		<tag k="name" v="Kvam" />
		<tag k="place" v="farm" />
		<tag k="ssr:stedsnr" v="305688" />
	</node>
	<node id="-410135" lat="59.0405166669" lon="6.05319166489">
		<tag k="alt_name" v="Leide" />
		<tag k="name" v="Leitet" />
		<tag k="place" v="farm" />
		<tag k="ssr:stedsnr" v="487339" />
	</node>
	<node id="-409620" lat="59.0149458359" lon="6.05205232538">
		<tag k="fixme" v="consider place=hamlet" />
		<tag k="name" v="Tungland" />
		<tag k="place" v="farm" />
		<tag k="ssr:stedsnr" v="305389" />
	</node>
	<node id="-410129" lat="58.9950251476" lon="6.03889170764">
		<tag k="alt_name" v="Svidnes" />
		<tag k="fixme" v="consider place=hamlet" />
		<tag k="name" v="Svines" />
		<tag k="old_name" v="Svinnes" />
		<tag k="place" v="farm" />
		<tag k="ssr:stedsnr" v="486847" />
	</node>
	<node id="-409615" lat="59.0305222213" lon="6.02362777557">
		<tag k="alt_name" v="Øvre Fjidle" />
		<tag k="name" v="Øvrafjelle" />
		<tag k="place" v="quarter" />
		<tag k="ssr:stedsnr" v="305346" />
	</node>
	<node id="-410126" lat="58.9742708961" lon="6.01008305902">
		<tag k="alt_name" v="Kvellvåg" />
		<tag k="fixme" v="consider place=hamlet" />
		<tag k="name" v="Kvalvåg" />
		<tag k="place" v="farm" />
		<tag k="ssr:stedsnr" v="486762" />
	</node>
	<node id="-410123" lat="59.0932412501" lon="6.00145279886">
		<tag k="fixme" v="consider place=hamlet" />
		<tag k="name" v="Voster" />
		<tag k="place" v="farm" />
		<tag k="ssr:stedsnr" v="486724" />
	</node>
	<node id="-410120" lat="59.1186512264" lon="5.98524437785">
		<tag k="fixme" v="consider place=hamlet" />
		<tag k="name" v="Høyland" />
		<tag k="place" v="farm" />
		<tag k="ssr:stedsnr" v="486537" />
	</node>
	<node id="-409605" lat="59.1014194442" lon="5.96413334084">
		<tag k="name" v="Rag" />
		<tag k="place" v="farm" />
		<tag k="ssr:stedsnr" v="304753" />
	</node>
	<node id="-409604" lat="59.0955305565" lon="5.93547776906">
		<tag k="name" v="Sørbø" />
		<tag k="place" v="isolated_dwelling" />
		<tag k="ssr:stedsnr" v="304736" />
	</node>
</osm>
