<?xml version="1.0" encoding="UTF-8"?>
<osm generator="osmapis" version="0.6">
	<node id="-59391" lat="60.5872694489" lon="11.6086527695">
		<tag k="name" v="Kjøltjennet" />
		<tag k="natural" v="water" />
		<tag k="ssr:stedsnr" v="952764" />
	</node>
	<node id="-57854" lat="60.4825194424" lon="11.3231416607">
		<tag k="name" v="Haugertjennet" />
		<tag k="natural" v="water" />
		<tag k="ssr:stedsnr" v="162970" />
	</node>
	<node id="-57341" lat="60.5836027736" lon="11.3959888897">
		<tag k="name" v="Gaukildammen" />
		<tag k="ssr:stedsnr" v="405141" />
		<tag k="waterway" v="dam" />
	</node>
	<node id="-58875" lat="60.5431444479" lon="11.4695999953">
		<tag k="name" v="Bjørnstaddammen" />
		<tag k="ssr:stedsnr" v="709617" />
		<tag k="waterway" v="dam" />
	</node>
	<node id="-57337" lat="60.7007888871" lon="11.4408805538">
		<tag k="name" v="Vesle Bjørktjennet" />
		<tag k="natural" v="water" />
		<tag k="ssr:stedsnr" v="404820" />
	</node>
	<node id="-58360" lat="60.538736108" lon="11.4099944478">
		<tag k="name" v="Remmenbekken" />
		<tag k="ssr:stedsnr" v="525015" />
		<tag k="waterway" v="stream" />
	</node>
	<node id="-57940" lat="60.542341667" lon="11.3991111083">
		<tag k="name" v="Svarttjennet" />
		<tag k="natural" v="water" />
		<tag k="ssr:stedsnr" v="189445" />
	</node>
	<node id="-57859" lat="60.6610416637" lon="11.496688886">
		<tag k="name" v="Holmtjennsbekken" />
		<tag k="ssr:stedsnr" v="163626" />
		<tag k="waterway" v="stream" />
	</node>
	<node id="-57333" lat="60.5701194453" lon="11.4718638806">
		<tag k="name" v="Svartkulpen" />
		<tag k="natural" v="water" />
		<tag k="ssr:stedsnr" v="404692" />
	</node>
	<node id="-59379" lat="60.6200027766" lon="11.2504499973">
		<tag k="name" v="Mosebekken" />
		<tag k="ssr:stedsnr" v="951442" />
		<tag k="waterway" v="stream" />
	</node>
	<node id="-57330" lat="60.6242055513" lon="11.2588111062">
		<tag k="name" v="Viksbekken" />
		<tag k="ssr:stedsnr" v="404402" />
		<tag k="waterway" v="stream" />
	</node>
	<node id="-59377" lat="60.5873611115" lon="11.3872166592">
		<tag k="name" v="Tretjennet" />
		<tag k="natural" v="water" />
		<tag k="ssr:stedsnr" v="951341" />
	</node>
	<node id="-58877" lat="60.6397805555" lon="11.5118055572">
		<tag k="name" v="Haratjennsbekken" />
		<tag k="ssr:stedsnr" v="709643" />
		<tag k="waterway" v="stream" />
	</node>
	<node id="-57321" lat="60.7090944402" lon="11.15359444">
		<tag k="name" v="Osvollåa" />
		<tag k="ssr:stedsnr" v="404085" />
		<tag k="waterway" v="stream" />
	</node>
	<node id="-59092" lat="60.5485055566" lon="11.4416472196">
		<tag k="name" v="Eltunfløyta" />
		<tag k="place" v="locality" />
		<tag k="ssr:stedsnr" v="796409" />
	</node>
	<node id="-58853" lat="60.6927972236" lon="11.4212083279">
		<tag k="name" v="Rørpiptjennet" />
		<tag k="natural" v="water" />
		<tag k="ssr:stedsnr" v="707836" />
	</node>
	<node id="-58339" lat="60.6669416678" lon="11.3903694479">
		<tag k="name" v="Nedre Mælumstjennet" />
		<tag k="natural" v="water" />
		<tag k="ssr:stedsnr" v="492546" />
	</node>
	<node id="-57826" lat="60.6565333306" lon="11.3223027688">
		<tag k="name" v="Åklyfta" />
		<tag k="place" v="locality" />
		<tag k="ssr:stedsnr" v="161279" />
	</node>
	<node id="-57313" lat="60.7270888847" lon="11.0938972176">
		<tag k="name" v="Nordre Staurodden" />
		<tag k="natural" v="cape" />
		<tag k="ssr:stedsnr" v="403165" />
	</node>
	<node id="-57312" lat="60.6175861072" lon="11.5409166745">
		<tag k="name" v="Målåvassdammen" />
		<tag k="ssr:stedsnr" v="402300" />
		<tag k="waterway" v="dam" />
	</node>
	<node id="-57376" lat="60.7249999955" lon="11.0961805643">
		<tag k="name" v="Søndre Staurodden" />
		<tag k="natural" v="cape" />
		<tag k="ssr:stedsnr" v="889201" />
	</node>
	<node id="-58845" lat="60.6978027785" lon="11.4166277806">
		<tag k="name" v="Yksenkanalen" />
		<tag k="ssr:stedsnr" v="707302" />
		<tag k="waterway" v="stream" />
	</node>
	<node id="-57815" lat="60.6659055522" lon="11.1370861093">
		<tag k="name" v="Gjøvikodden" />
		<tag k="natural" v="cape" />
		<tag k="ssr:stedsnr" v="161041" />
	</node>
	<node id="-57302" lat="60.6195291796" lon="11.2134907081">
		<tag k="name" v="Refsaltjennet" />
		<tag k="natural" v="water" />
		<tag k="ssr:stedsnr" v="371592" />
	</node>
	<node id="-58834" lat="60.6491138879" lon="11.1545499948">
		<tag k="name" v="Rotlibekken" />
		<tag k="ssr:stedsnr" v="707046" />
		<tag k="waterway" v="stream" />
	</node>
	<node id="-58833" lat="60.6661999972" lon="11.1353000088">
		<tag k="name" v="Nebbvika" />
		<tag k="natural" v="bay" />
		<tag k="ssr:stedsnr" v="707044" />
	</node>
	<node id="-58319" lat="60.5841361126" lon="11.4218777715">
		<tag k="alt_name" v="Vesleputten" />
		<tag k="name" v="Veltputten" />
		<tag k="place" v="locality" />
		<tag k="ssr:stedsnr" v="492364" />
	</node>
	<node id="-58830" lat="60.5294694407" lon="11.3615499951">
		<tag k="name" v="Bergsjødammen" />
		<tag k="ssr:stedsnr" v="707003" />
		<tag k="waterway" v="dam" />
	</node>
	<node id="-58957" lat="60.6785944488" lon="11.2719222201">
		<tag k="name" v="Kolobekken" />
		<tag k="ssr:stedsnr" v="735575" />
		<tag k="waterway" v="stream" />
	</node>
	<node id="-57802" lat="60.6818416638" lon="11.3029861088">
		<tag k="alt_name" v="Starelva;Søndre Starrelva" />
		<tag k="name" v="Starrelva" />
		<tag k="ssr:stedsnr" v="129965" />
		<tag k="waterway" v="stream" />
	</node>
	<node id="-57289" lat="60.7104499988" lon="11.4601055552">
		<tag k="name" v="Lorttjennsmyra" />
		<tag k="natural" v="water" />
		<tag k="ssr:stedsnr" v="371498" />
	</node>
	<node id="-57087" lat="60.5379222245" lon="11.2989916687">
		<tag k="name" v="Tømmermyrbekken" />
		<tag k="ssr:stedsnr" v="300339" />
		<tag k="waterway" v="stream" />
	</node>
	<node id="-59335" lat="60.7371361081" lon="11.2759916619">
		<tag k="alt_name" v="Nordre Starrelva" />
		<tag k="name" v="Starrelva" />
		<tag k="ssr:stedsnr" v="917732" />
		<tag k="waterway" v="stream" />
	</node>
	<node id="-58309" lat="60.5574750044" lon="11.5300999946">
		<tag k="name" v="Ormtjennet" />
		<tag k="natural" v="water" />
		<tag k="ssr:stedsnr" v="492100" />
	</node>
	<node id="-57283" lat="60.5532166686" lon="11.3199638807">
		<tag k="name" v="Gransjøen" />
		<tag k="natural" v="water" />
		<tag k="ssr:stedsnr" v="371379" />
	</node>
	<node id="-57280" lat="60.6413361114" lon="11.5526250083">
		<tag k="alt_name" v="Sverkjen" />
		<tag k="name" v="Sverkja" />
		<tag k="natural" v="water" />
		<tag k="ssr:stedsnr" v="371326" />
	</node>
	<node id="-57278" lat="60.5388777769" lon="11.5048194441">
		<tag k="name" v="Rasasjøen" />
		<tag k="natural" v="water" />
		<tag k="ssr:stedsnr" v="371227" />
		<tag k="water" v="lake" />
	</node>
	<node id="-58298" lat="60.5962083341" lon="11.4416222174">
		<tag k="name" v="Opptjennet" />
		<tag k="natural" v="water" />
		<tag k="ssr:stedsnr" v="483728" />
	</node>
	<node id="-57782" lat="60.6012305591" lon="11.3258944371">
		<tag k="name" v="Nykjua" />
		<tag k="ssr:stedsnr" v="128412" />
		<tag k="waterway" v="stream" />
	</node>
	<node id="-57781" lat="60.5991333352" lon="11.1960444411">
		<tag k="name" v="Geitholmen" />
		<tag k="place" v="islet" />
		<tag k="ssr:stedsnr" v="128409" />
	</node>
	<node id="-57268" lat="60.493249999" lon="11.3110083287">
		<tag k="alt_name" v="Spitalsjøen" />
		<tag k="name" v="Spetalsjøen" />
		<tag k="natural" v="water" />
		<tag k="ssr:stedsnr" v="370428" />
		<tag k="water" v="lake" />
	</node>
	<node id="-58291" lat="60.6061555566" lon="11.2031388849">
		<tag k="name" v="Refsalbekken" />
		<tag k="ssr:stedsnr" v="483401" />
		<tag k="waterway" v="stream" />
	</node>
	<node id="-59055" lat="60.469888891" lon="11.303563888">
		<tag k="name" v="Pinnfallvika" />
		<tag k="natural" v="bay" />
		<tag k="ssr:stedsnr" v="786914" />
	</node>
	<node id="-57777" lat="60.6269944453" lon="11.5566638933">
		<tag k="name" v="Kråkhorntjennet" />
		<tag k="natural" v="water" />
		<tag k="ssr:stedsnr" v="128299" />
	</node>
	<node id="-57911" lat="60.4689027776" lon="11.3275611026">
		<tag k="name" v="Vesleauget" />
		<tag k="natural" v="water" />
		<tag k="ssr:stedsnr" v="180891" />
	</node>
	<node id="-57259" lat="60.59051111" lon="11.4326083246">
		<tag k="name" v="Lauvtjennet" />
		<tag k="natural" v="water" />
		<tag k="ssr:stedsnr" v="362720" />
	</node>
	<node id="-59303" lat="60.6645500024" lon="11.5538777771">
		<tag k="name" v="Kutjennet" />
		<tag k="natural" v="water" />
		<tag k="ssr:stedsnr" v="917343" />
	</node>
	<node id="-59301" lat="60.6549527799" lon="11.5830944509">
		<tag k="name" v="Svartkulpen" />
		<tag k="natural" v="water" />
		<tag k="ssr:stedsnr" v="917299" />
	</node>
	<node id="-58786" lat="60.6315333342" lon="11.5946250009">
		<tag k="name" v="Avlangtjennet" />
		<tag k="natural" v="water" />
		<tag k="ssr:stedsnr" v="674312" />
	</node>
	<node id="-58273" lat="60.485694444" lon="11.3430083397">
		<tag k="name" v="Gullitjennet" />
		<tag k="natural" v="water" />
		<tag k="ssr:stedsnr" v="466971" />
	</node>
	<node id="-57248" lat="60.5966970912" lon="11.2016230035">
		<tag k="name" v="Tuvika" />
		<tag k="natural" v="bay" />
		<tag k="ssr:stedsnr" v="362391" />
	</node>
	<node id="-58783" lat="60.5816083342" lon="11.5779583299">
		<tag k="name" v="Helvetestjennet" />
		<tag k="natural" v="water" />
		<tag k="ssr:stedsnr" v="674168" />
	</node>
	<node id="-58781" lat="60.5619472189" lon="11.4727861134">
		<tag k="name" v="Kvernbekken" />
		<tag k="ssr:stedsnr" v="674125" />
		<tag k="waterway" v="stream" />
	</node>
	<node id="-57755" lat="60.6154890644" lon="11.5529686979">
		<tag k="name" v="Målåvatna" />
		<tag k="natural" v="water" />
		<tag k="ssr:stedsnr" v="128144" />
		<tag k="water" v="lake" />
	</node>
	<node id="-57752" lat="60.6039055549" lon="11.5431861201">
		<tag k="name" v="Kerstitjennet" />
		<tag k="natural" v="water" />
		<tag k="ssr:stedsnr" v="128126" />
	</node>
	<node id="-57751" lat="60.608536108" lon="11.6096472167">
		<tag k="name" v="Rottjenna" />
		<tag k="natural" v="water" />
		<tag k="ssr:stedsnr" v="128125" />
	</node>
	<node id="-59286" lat="60.6589055567" lon="11.4858861074">
		<tag k="name" v="Stormyrbekken" />
		<tag k="ssr:stedsnr" v="908922" />
		<tag k="waterway" v="stream" />
	</node>
	<node id="-58009" lat="60.650888891" lon="11.4098611072">
		<tag k="name" v="Helgåsvika" />
		<tag k="natural" v="bay" />
		<tag k="ssr:stedsnr" v="223265" />
	</node>
	<node id="-59284" lat="60.6012833329" lon="11.4814388804">
		<tag k="name" v="Hemtjennet" />
		<tag k="natural" v="water" />
		<tag k="ssr:stedsnr" v="908756" />
	</node>
	<node id="-57771" lat="60.6830833312" lon="11.4063638914">
		<tag k="name" v="Yksenåa" />
		<tag k="ssr:stedsnr" v="128521" />
		<tag k="waterway" v="stream" />
	</node>
	<node id="-58179" lat="60.5621555588" lon="11.4132083309">
		<tag k="name" v="Storfløyta" />
		<tag k="place" v="locality" />
		<tag k="ssr:stedsnr" v="432363" />
	</node>
	<node id="-57744" lat="60.5301083377" lon="11.2960305607">
		<tag k="name" v="Østre Tømmerholbekken" />
		<tag k="ssr:stedsnr" v="120320" />
		<tag k="waterway" v="stream" />
	</node>
	<node id="-58767" lat="60.7134527824" lon="11.2266861043">
		<tag k="name" v="Våletjennsbekken" />
		<tag k="ssr:stedsnr" v="665573" />
		<tag k="waterway" v="stream" />
	</node>
	<node id="-57898" lat="60.5877416686" lon="11.2291055501">
		<tag k="name" v="Nordre Engvika" />
		<tag k="natural" v="bay" />
		<tag k="ssr:stedsnr" v="180371" />
	</node>
	<node id="-57740" lat="60.6016027742" lon="11.2734583419">
		<tag k="name" v="Viksvika" />
		<tag k="natural" v="bay" />
		<tag k="ssr:stedsnr" v="119458" />
	</node>
	<node id="-57739" lat="60.5956444427" lon="11.2686472217">
		<tag k="name" v="Nordre Oddenvika" />
		<tag k="natural" v="bay" />
		<tag k="ssr:stedsnr" v="119456" />
	</node>
	<node id="-59287" lat="60.4642722199" lon="11.3353472201">
		<tag k="name" v="Kjeldvika" />
		<tag k="natural" v="bay" />
		<tag k="ssr:stedsnr" v="908928" />
	</node>
	<node id="-58760" lat="60.6422888908" lon="11.3649722258">
		<tag k="name" v="Muggerudsbekken" />
		<tag k="ssr:stedsnr" v="665324" />
		<tag k="waterway" v="stream" />
	</node>
	<node id="-57735" lat="60.5864583327" lon="11.2118972191">
		<tag k="name" v="Storsand" />
		<tag k="natural" v="beach" />
		<tag k="ssr:stedsnr" v="119380" />
	</node>
	<node id="-58177" lat="60.5879083368" lon="11.4453166633">
		<tag k="name" v="Gransjøen" />
		<tag k="natural" v="water" />
		<tag k="ssr:stedsnr" v="432345" />
	</node>
	<node id="-59268" lat="60.6863333292" lon="11.5553305472">
		<tag k="name" v="Nedre Starrtjennet" />
		<tag k="natural" v="water" />
		<tag k="ssr:stedsnr" v="907397" />
	</node>
	<node id="-57219" lat="60.6701055577" lon="11.5083472183">
		<tag k="name" v="Kalvtjennet" />
		<tag k="natural" v="water" />
		<tag k="ssr:stedsnr" v="345858" />
	</node>
	<node id="-58242" lat="60.7338027775" lon="11.166774999">
		<tag k="name" v="Brenneribekken" />
		<tag k="ssr:stedsnr" v="466245" />
		<tag k="waterway" v="stream" />
	</node>
	<node id="-58750" lat="60.5326083378" lon="11.2492805535">
		<tag k="name" v="Frangsæterbekken" />
		<tag k="ssr:stedsnr" v="664300" />
		<tag k="waterway" v="stream" />
	</node>
	<node id="-57724" lat="60.6821500024" lon="11.1346805491">
		<tag k="name" v="Markbekken" />
		<tag k="ssr:stedsnr" v="117074" />
		<tag k="waterway" v="stream" />
	</node>
	<node id="-58231" lat="60.6824277764" lon="11.2308666749">
		<tag k="name" v="Rotbekken" />
		<tag k="ssr:stedsnr" v="465528" />
		<tag k="waterway" v="stream" />
	</node>
	<node id="-57206" lat="60.5948111096" lon="11.3945055595">
		<tag k="name" v="Tjennbekken" />
		<tag k="ssr:stedsnr" v="344360" />
		<tag k="waterway" v="stream" />
	</node>
	<node id="-58741" lat="60.685172225" lon="11.1846249984">
		<tag k="name" v="Nøsletjennet" />
		<tag k="natural" v="water" />
		<tag k="ssr:stedsnr" v="662064" />
		<tag k="water" v="pond" />
	</node>
	<node id="-58740" lat="60.5306027785" lon="11.4605111113">
		<tag k="name" v="Stenbekken" />
		<tag k="ssr:stedsnr" v="661569" />
		<tag k="waterway" v="stream" />
	</node>
	<node id="-57714" lat="60.5316138849" lon="11.494122222">
		<tag k="name" v="Kvernfossen" />
		<tag k="natural" v="waterfall" />
		<tag k="ssr:stedsnr" v="116587" />
	</node>
	<node id="-58220" lat="60.6397666706" lon="11.5425805635">
		<tag k="name" v="Nordre Mjøvatnet" />
		<tag k="natural" v="water" />
		<tag k="ssr:stedsnr" v="464937" />
	</node>
	<node id="-57707" lat="60.6082958913" lon="11.6095797854">
		<tag k="name" v="Nordre Rottjennet" />
		<tag k="natural" v="water" />
		<tag k="ssr:stedsnr" v="103750" />
	</node>
	<node id="-57706" lat="60.6219972264" lon="11.6043083343">
		<tag k="name" v="Kroktjennet" />
		<tag k="natural" v="water" />
		<tag k="ssr:stedsnr" v="103747" />
	</node>
	<node id="-59239" lat="60.6950500035" lon="11.2493805613">
		<tag k="name" v="Skjærbekken" />
		<tag k="ssr:stedsnr" v="857582" />
		<tag k="waterway" v="stream" />
	</node>
	<node id="-58726" lat="60.6612277736" lon="11.4705416588">
		<tag k="name" v="Kroktjennet" />
		<tag k="natural" v="water" />
		<tag k="ssr:stedsnr" v="648876" />
	</node>
	<node id="-59025" lat="60.5814833368" lon="11.5093972262">
		<tag k="name" v="Fallåa" />
		<tag k="ssr:stedsnr" v="783598" />
		<tag k="waterway" v="stream" />
	</node>
	<node id="-57186" lat="60.6623472228" lon="11.1384694533">
		<tag k="name" v="Vethammerodden" />
		<tag k="natural" v="cape" />
		<tag k="ssr:stedsnr" v="343043" />
	</node>
	<node id="-59232" lat="60.5810749976" lon="11.2220249918">
		<tag k="alt_name" v="Hamnesodden" />
		<tag k="name" v="Hamnnesodden" />
		<tag k="natural" v="cape" />
		<tag k="ssr:stedsnr" v="857411" />
	</node>
	<node id="-57183" lat="60.7225777776" lon="11.1173694427">
		<tag k="name" v="Kjemstadåa" />
		<tag k="ssr:stedsnr" v="342175" />
		<tag k="waterway" v="stream" />
	</node>
	<node id="-57694" lat="60.5478305564" lon="11.4451222276">
		<tag k="name" v="Eltondammen" />
		<tag k="ssr:stedsnr" v="102678" />
		<tag k="waterway" v="dam" />
	</node>
	<node id="-57181" lat="60.6349333351" lon="11.5107527748">
		<tag k="name" v="Haratjennet" />
		<tag k="natural" v="water" />
		<tag k="ssr:stedsnr" v="102705" />
	</node>
	<node id="-57692" lat="60.6769722202" lon="11.3569888939">
		<tag k="name" v="Katthølsbekken" />
		<tag k="ssr:stedsnr" v="102530" />
		<tag k="waterway" v="stream" />
	</node>
	<node id="-59227" lat="60.627227776" lon="11.3096666576">
		<tag k="name" v="Linderudsjøen" />
		<tag k="natural" v="water" />
		<tag k="ssr:stedsnr" v="856626" />
	</node>
	<node id="-57487" lat="60.4710249991" lon="11.2965555517">
		<tag k="name" v="Tangfallodden" />
		<tag k="natural" v="cape" />
		<tag k="ssr:stedsnr" v="39216" />
	</node>
	<node id="-59224" lat="60.6616416632" lon="11.3268416726">
		<tag k="name" v="Fosselva" />
		<tag k="ssr:stedsnr" v="856620" />
		<tag k="waterway" v="stream" />
	</node>
	<node id="-59137" lat="60.6055222239" lon="11.4162333401">
		<tag k="name" v="Lauvtjennet" />
		<tag k="natural" v="water" />
		<tag k="ssr:stedsnr" v="830320" />
	</node>
	<node id="-57167" lat="60.6293277766" lon="11.4080972141">
		<tag k="name" v="Sundåa" />
		<tag k="ssr:stedsnr" v="310611" />
		<tag k="waterway" v="stream" />
	</node>
	<node id="-57164" lat="60.6653499977" lon="11.1394027712">
		<tag k="name" v="Gjøvika" />
		<tag k="natural" v="bay" />
		<tag k="ssr:stedsnr" v="310584" />
	</node>
	<node id="-58697" lat="60.5610361081" lon="11.457433325">
		<tag k="name" v="Søndre Huldertjennet" />
		<tag k="natural" v="water" />
		<tag k="ssr:stedsnr" v="647641" />
	</node>
	<node id="-58696" lat="60.6744916633" lon="11.2174944381">
		<tag k="name" v="Mosebekken" />
		<tag k="ssr:stedsnr" v="647566" />
		<tag k="waterway" v="stream" />
	</node>
	<node id="-57157" lat="60.6813750014" lon="11.1162055542">
		<tag k="name" v="Strand" />
		<tag k="natural" v="beach" />
		<tag k="ssr:stedsnr" v="310546" />
	</node>
	<node id="-58692" lat="60.6187972263" lon="11.2606194356">
		<tag k="name" v="Viksfossen" />
		<tag k="natural" v="waterfall" />
		<tag k="ssr:stedsnr" v="647407" />
	</node>
	<node id="-57155" lat="60.7162999964" lon="11.2741861078">
		<tag k="name" v="Brynitjennet" />
		<tag k="natural" v="water" />
		<tag k="ssr:stedsnr" v="310534" />
	</node>
	<node id="-57666" lat="60.6450722259" lon="11.5851055638">
		<tag k="name" v="Vesle Gransjøbekken" />
		<tag k="ssr:stedsnr" v="100926" />
		<tag k="waterway" v="stream" />
	</node>
	<node id="-59201" lat="60.5750222215" lon="11.2791166601">
		<tag k="name" v="Labbelva" />
		<tag k="ssr:stedsnr" v="848402" />
		<tag k="waterway" v="stream" />
	</node>
	<node id="-58176" lat="60.6051277792" lon="11.4951694378">
		<tag k="name" v="Gørrtjenna" />
		<tag k="natural" v="water" />
		<tag k="ssr:stedsnr" v="432170" />
	</node>
	<node id="-57663" lat="60.7075555538" lon="11.4723694492">
		<tag k="name" v="Barkliselva" />
		<tag k="ssr:stedsnr" v="100803" />
		<tag k="waterway" v="stream" />
	</node>
	<node id="-57141" lat="60.588502777" lon="11.4010944373">
		<tag k="name" v="Gaukilsjøen" />
		<tag k="natural" v="water" />
		<tag k="ssr:stedsnr" v="310384" />
	</node>
	<node id="-57658" lat="60.6399166684" lon="11.346666671">
		<tag k="name" v="Harildstadbekken" />
		<tag k="ssr:stedsnr" v="100330" />
		<tag k="waterway" v="stream" />
	</node>
	<node id="-58169" lat="60.6698861144" lon="11.4652277712">
		<tag k="name" v="Jutsjøen" />
		<tag k="natural" v="water" />
		<tag k="ssr:stedsnr" v="431610" />
	</node>
	<node id="-58679" lat="60.4978388905" lon="11.2867249987">
		<tag k="name" v="Lomtjennsbekken" />
		<tag k="ssr:stedsnr" v="646271" />
		<tag k="waterway" v="stream" />
	</node>
	<node id="-58166" lat="60.4805999974" lon="11.3086527697">
		<tag k="name" v="Granerudsjøen" />
		<tag k="natural" v="water" />
		<tag k="ssr:stedsnr" v="431411" />
		<tag k="water" v="lake" />
	</node>
	<node id="-59189" lat="60.7564527803" lon="11.1189777796">
		<tag k="name" v="Fjetrebekken" />
		<tag k="ssr:stedsnr" v="848267" />
		<tag k="waterway" v="stream" />
	</node>
	<node id="-58164" lat="60.5814694422" lon="11.588316664">
		<tag k="name" v="Skredderbekken" />
		<tag k="ssr:stedsnr" v="423808" />
		<tag k="waterway" v="stream" />
	</node>
	<node id="-59187" lat="60.643372223" lon="11.4399861057">
		<tag k="name" v="Kumyrbekken" />
		<tag k="ssr:stedsnr" v="846671" />
		<tag k="waterway" v="stream" />
	</node>
	<node id="-57138" lat="60.6565111113" lon="11.4917166729">
		<tag k="name" v="Pottsæteråa" />
		<tag k="ssr:stedsnr" v="310334" />
		<tag k="waterway" v="stream" />
	</node>
	<node id="-57137" lat="60.6559361109" lon="11.5587444522">
		<tag k="name" v="Stentjennet" />
		<tag k="natural" v="water" />
		<tag k="ssr:stedsnr" v="310331" />
	</node>
	<node id="-57736" lat="60.5842749997" lon="11.2271333359">
		<tag k="name" v="Søndre Engvika" />
		<tag k="natural" v="bay" />
		<tag k="ssr:stedsnr" v="119384" />
	</node>
	<node id="-57821" lat="60.7321083341" lon="11.0926888812">
		<tag k="name" v="Fagerlivika" />
		<tag k="natural" v="bay" />
		<tag k="ssr:stedsnr" v="161202" />
	</node>
	<node id="-57130" lat="60.5312027757" lon="11.5138027865">
		<tag k="name" v="Rønningsbekken" />
		<tag k="ssr:stedsnr" v="419580" />
		<tag k="waterway" v="stream" />
	</node>
	<node id="-57640" lat="60.7691611108" lon="11.0744555539">
		<tag k="name" v="Nordsveodden" />
		<tag k="natural" v="cape" />
		<tag k="ssr:stedsnr" v="70478" />
	</node>
	<node id="-57125" lat="60.5337611132" lon="11.2920861078">
		<tag k="name" v="Vestre Tømmerholbekken" />
		<tag k="ssr:stedsnr" v="302303" />
		<tag k="waterway" v="stream" />
	</node>
	<node id="-57908" lat="60.724027778" lon="11.2115333252">
		<tag k="name" v="Søndre Finstad" />
		<tag k="ssr:stedsnr" v="180647" />
		<tag k="waterway" v="stream" />
	</node>
	<node id="-57122" lat="60.6041277801" lon="11.5905111139">
		<tag k="name" v="Hemtjennsbekken" />
		<tag k="ssr:stedsnr" v="301783" />
		<tag k="waterway" v="stream" />
	</node>
	<node id="-58145" lat="60.6382972219" lon="11.4256388903">
		<tag k="name" v="Varpholmen" />
		<tag k="natural" v="cape" />
		<tag k="ssr:stedsnr" v="421684" />
	</node>
	<node id="-57120" lat="60.6008138859" lon="11.4295694492">
		<tag k="name" v="Sløbekken" />
		<tag k="ssr:stedsnr" v="301704" />
		<tag k="waterway" v="stream" />
	</node>
	<node id="-57119" lat="60.5921611071" lon="11.4595999963">
		<tag k="name" v="Kvernhusbekken" />
		<tag k="ssr:stedsnr" v="301697" />
		<tag k="waterway" v="stream" />
	</node>
	<node id="-57630" lat="60.5419222239" lon="11.4668388926">
		<tag k="name" v="Bjørnstadfløyta" />
		<tag k="natural" v="water" />
		<tag k="ssr:stedsnr" v="68486" />
		<tag k="water" v="lake" />
	</node>
	<node id="-58652" lat="60.7245055548" lon="11.4553527859">
		<tag k="name" v="Skåltjennet" />
		<tag k="natural" v="water" />
		<tag k="ssr:stedsnr" v="613719" />
	</node>
	<node id="-58883" lat="60.6833333348" lon="11.5756055546">
		<tag k="name" v="Stortjennsbekken" />
		<tag k="ssr:stedsnr" v="709904" />
		<tag k="waterway" v="stream" />
	</node>
	<node id="-59162" lat="60.6722944451" lon="11.4956972272">
		<tag k="name" v="Brenntjennet" />
		<tag k="natural" v="water" />
		<tag k="ssr:stedsnr" v="831832" />
	</node>
	<node id="-59161" lat="60.6731999973" lon="11.4591638935">
		<tag k="name" v="Helgåstjennet" />
		<tag k="natural" v="water" />
		<tag k="ssr:stedsnr" v="831824" />
	</node>
	<node id="-57624" lat="60.5765388877" lon="11.3689000019">
		<tag k="name" v="Svartputten" />
		<tag k="natural" v="water" />
		<tag k="ssr:stedsnr" v="68405" />
	</node>
	<node id="-57623" lat="60.665430556" lon="11.5064250059">
		<tag k="name" v="Holmtjennet" />
		<tag k="natural" v="water" />
		<tag k="ssr:stedsnr" v="68387" />
	</node>
	<node id="-57622" lat="60.66757778" lon="11.6187666755">
		<tag k="name" v="Sorten" />
		<tag k="natural" v="water" />
		<tag k="ssr:stedsnr" v="68382" />
		<tag k="water" v="lake" />
	</node>
	<node id="-57621" lat="60.6661861129" lon="11.5341666654">
		<tag k="name" v="Lauvlistortjennet" />
		<tag k="natural" v="water" />
		<tag k="ssr:stedsnr" v="68379" />
	</node>
	<node id="-58132" lat="60.5057694401" lon="11.2977833408">
		<tag k="name" v="Hølbekken" />
		<tag k="ssr:stedsnr" v="419267" />
		<tag k="waterway" v="stream" />
	</node>
	<node id="-57106" lat="60.5928777817" lon="11.2468499971">
		<tag k="name" v="Trosvika" />
		<tag k="natural" v="bay" />
		<tag k="ssr:stedsnr" v="301352" />
	</node>
	<node id="-58180" lat="60.551216668" lon="11.323305555">
		<tag k="name" v="Gransjøbekken" />
		<tag k="ssr:stedsnr" v="432377" />
		<tag k="waterway" v="stream" />
	</node>
	<node id="-57098" lat="60.7366444442" lon="11.0882500012">
		<tag k="name" v="Ringnesvika" />
		<tag k="natural" v="bay" />
		<tag k="ssr:stedsnr" v="301216" />
	</node>
	<node id="-58633" lat="60.6070611081" lon="11.4279444505">
		<tag k="name" v="Vestertjennet" />
		<tag k="natural" v="water" />
		<tag k="ssr:stedsnr" v="613431" />
	</node>
	<node id="-57096" lat="60.6035194419" lon="11.6124555645">
		<tag k="name" v="Søndre Rottjennet" />
		<tag k="natural" v="water" />
		<tag k="ssr:stedsnr" v="300448" />
	</node>
	<node id="-58630" lat="60.6728611101" lon="11.5909777825">
		<tag k="name" v="Sortsæterstortjennet" />
		<tag k="natural" v="water" />
		<tag k="ssr:stedsnr" v="613347" />
	</node>
	<node id="-58628" lat="60.6285194456" lon="11.5646305639">
		<tag k="name" v="Grastjennet" />
		<tag k="natural" v="water" />
		<tag k="ssr:stedsnr" v="613330" />
	</node>
	<node id="-57603" lat="60.6734388857" lon="11.5204500046">
		<tag k="name" v="Bjørnøyet" />
		<tag k="natural" v="water" />
		<tag k="ssr:stedsnr" v="67369" />
	</node>
	<node id="-58626" lat="60.5172166627" lon="11.5486277822">
		<tag k="alt_name" v="Skiren, vesle" />
		<tag k="name" v="Vesle Skiren" />
		<tag k="natural" v="water" />
		<tag k="ssr:stedsnr" v="613222" />
	</node>
	<node id="-57601" lat="60.5857361143" lon="11.4752361083">
		<tag k="name" v="Båntjennet" />
		<tag k="natural" v="water" />
		<tag k="ssr:stedsnr" v="67195" />
	</node>
	<node id="-57600" lat="60.5889583377" lon="11.5173888825">
		<tag k="name" v="Villbekken" />
		<tag k="ssr:stedsnr" v="67192" />
		<tag k="waterway" v="stream" />
	</node>
	<node id="-58623" lat="60.5620638895" lon="11.5105111021">
		<tag k="name" v="Fjæstadsætertjennet" />
		<tag k="natural" v="water" />
		<tag k="ssr:stedsnr" v="613125" />
	</node>
	<node id="-58622" lat="60.7009833292" lon="11.2128861151">
		<tag k="name" v="Grytbekken" />
		<tag k="ssr:stedsnr" v="605565" />
		<tag k="waterway" v="stream" />
	</node>
	<node id="-57595" lat="60.4632555537" lon="11.3416694363">
		<tag k="name" v="Alisholmen" />
		<tag k="place" v="islet" />
		<tag k="ssr:stedsnr" v="59891" />
	</node>
	<node id="-58104" lat="60.6971749986" lon="11.4251416702">
		<tag k="alt_name" v="Yksen, vesle;Veltyksna" />
		<tag k="name" v="Vesle Yksen" />
		<tag k="natural" v="water" />
		<tag k="ssr:stedsnr" v="250542" />
	</node>
	<node id="-57079" lat="60.5731888932" lon="11.5218694527">
		<tag k="name" v="Vakkermyrbekken" />
		<tag k="ssr:stedsnr" v="298580" />
		<tag k="waterway" v="stream" />
	</node>
	<node id="-58101" lat="60.6893499962" lon="11.4195833338">
		<tag k="name" v="Lomtjennet" />
		<tag k="natural" v="water" />
		<tag k="ssr:stedsnr" v="250524" />
	</node>
	<node id="-58612" lat="60.6530194415" lon="11.2971166728">
		<tag k="name" v="Kvernhusbekken" />
		<tag k="ssr:stedsnr" v="604511" />
		<tag k="waterway" v="stream" />
	</node>
	<node id="-58238" lat="60.5518666688" lon="11.4026555591">
		<tag k="name" v="Remmentjennet" />
		<tag k="natural" v="water" />
		<tag k="ssr:stedsnr" v="466141" />
	</node>
	<node id="-57584" lat="60.5927166696" lon="11.2688194362">
		<tag k="name" v="Søndre Oddenvika" />
		<tag k="natural" v="bay" />
		<tag k="ssr:stedsnr" v="59434" />
	</node>
	<node id="-57583" lat="60.6014527807" lon="11.2895916622">
		<tag k="name" v="Bogvika" />
		<tag k="natural" v="bay" />
		<tag k="ssr:stedsnr" v="59431" />
	</node>
	<node id="-58605" lat="60.548194445" lon="11.2748083374">
		<tag k="name" v="Filipbekken" />
		<tag k="ssr:stedsnr" v="604335" />
		<tag k="waterway" v="stream" />
	</node>
	<node id="-59116" lat="60.6281944409" lon="11.5591694453">
		<tag k="name" v="Grastjennsbekken" />
		<tag k="ssr:stedsnr" v="828922" />
		<tag k="waterway" v="stream" />
	</node>
	<node id="-58322" lat="60.5595777752" lon="11.3541916653">
		<tag k="name" v="Knuksjøen" />
		<tag k="natural" v="water" />
		<tag k="ssr:stedsnr" v="492380" />
	</node>
	<node id="-57578" lat="60.5242000027" lon="11.2514194455">
		<tag k="name" v="Ekebekken" />
		<tag k="ssr:stedsnr" v="59273" />
		<tag k="waterway" v="stream" />
	</node>
	<node id="-57065" lat="60.5958333361" lon="11.506441673">
		<tag k="name" v="Fløtdammen" />
		<tag k="ssr:stedsnr" v="285691" />
		<tag k="waterway" v="dam" />
	</node>
	<node id="-57064" lat="60.5956194476" lon="11.5073499954">
		<tag k="name" v="Fløtdammen" />
		<tag k="ssr:stedsnr" v="285186" />
		<tag k="waterway" v="dam" />
	</node>
	<node id="-58096" lat="60.6294888911" lon="11.6297555496">
		<tag k="name" v="Solungtjennet" />
		<tag k="natural" v="water" />
		<tag k="ssr:stedsnr" v="250337" />
	</node>
	<node id="-57062" lat="60.661399999" lon="11.5597361105">
		<tag k="name" v="Samlingskulpen" />
		<tag k="natural" v="water" />
		<tag k="ssr:stedsnr" v="284920" />
	</node>
	<node id="-58597" lat="60.6369888862" lon="11.4318944487">
		<tag k="name" v="Bjørkvarpvika" />
		<tag k="natural" v="bay" />
		<tag k="ssr:stedsnr" v="602670" />
	</node>
	<node id="-58084" lat="60.7072611144" lon="11.288063891">
		<tag k="name" v="Melstjennet" />
		<tag k="natural" v="water" />
		<tag k="ssr:stedsnr" v="249516" />
	</node>
	<node id="-58594" lat="60.6873472245" lon="11.1454722263">
		<tag k="name" v="Iletjennet" />
		<tag k="natural" v="water" />
		<tag k="ssr:stedsnr" v="602075" />
	</node>
	<node id="-57566" lat="60.6672333368" lon="11.1431611038">
		<tag k="name" v="Hvitbergsåa" />
		<tag k="ssr:stedsnr" v="55919" />
		<tag k="waterway" v="stream" />
	</node>
	<node id="-57565" lat="60.530661114" lon="11.4532833274">
		<tag k="name" v="Stentjennet" />
		<tag k="natural" v="water" />
		<tag k="ssr:stedsnr" v="55575" />
		<tag k="water" v="pond" />
	</node>
	<node id="-57051" lat="60.7007055547" lon="11.4312472274">
		<tag k="name" v="Kroktjennet" />
		<tag k="natural" v="water" />
		<tag k="ssr:stedsnr" v="283842" />
	</node>
	<node id="-57373" lat="60.6118749999" lon="11.1709777804">
		<tag k="name" v="Svartnesodden" />
		<tag k="natural" v="cape" />
		<tag k="ssr:stedsnr" v="889023" />
	</node>
	<node id="-58073" lat="60.6173000042" lon="11.6290694519">
		<tag k="name" v="Oppsangtjennet" />
		<tag k="natural" v="water" />
		<tag k="ssr:stedsnr" v="249165" />
	</node>
	<node id="-58583" lat="60.5668888852" lon="11.5383111066">
		<tag k="name" v="Storgryttjennet" />
		<tag k="natural" v="water" />
		<tag k="ssr:stedsnr" v="597323" />
	</node>
	<node id="-59093" lat="60.6029321388" lon="11.1960714049">
		<tag k="name" v="Refsalvika" />
		<tag k="natural" v="bay" />
		<tag k="ssr:stedsnr" v="796424" />
	</node>
	<node id="-57556" lat="60.6863277747" lon="11.5296194436">
		<tag k="name" v="Granhaugbekken" />
		<tag k="ssr:stedsnr" v="42830" />
		<tag k="waterway" v="stream" />
	</node>
	<node id="-57554" lat="60.6773638931" lon="11.4755083371">
		<tag k="name" v="Åmyrkulpen" />
		<tag k="natural" v="water" />
		<tag k="ssr:stedsnr" v="42821" />
		<tag k="water" v="lake" />
	</node>
	<node id="-58577" lat="60.5909083332" lon="11.5045361054">
		<tag k="name" v="Langfossen" />
		<tag k="natural" v="waterfall" />
		<tag k="ssr:stedsnr" v="588712" />
	</node>
	<node id="-57464" lat="60.7048527756" lon="11.4408361024">
		<tag k="name" v="Bjørktjennet" />
		<tag k="natural" v="water" />
		<tag k="ssr:stedsnr" v="7489" />
	</node>
	<node id="-58146" lat="60.5404611117" lon="11.2698666643">
		<tag k="name" v="Nordre Markbekken" />
		<tag k="ssr:stedsnr" v="422308" />
		<tag k="waterway" v="stream" />
	</node>
	<node id="-59081" lat="60.6691916692" lon="11.3928444459">
		<tag k="name" v="Øvre Mælumstjennet" />
		<tag k="natural" v="water" />
		<tag k="ssr:stedsnr" v="795625" />
	</node>
	<node id="-58568" lat="60.6651138865" lon="11.4572972292">
		<tag k="name" v="Jutsjøbekken" />
		<tag k="ssr:stedsnr" v="587877" />
		<tag k="waterway" v="stream" />
	</node>
	<node id="-58055" lat="60.5131000027" lon="11.2417166706">
		<tag k="name" v="Meise" />
		<tag k="natural" v="beach" />
		<tag k="ssr:stedsnr" v="240328" />
	</node>
	<node id="-57598" lat="60.5049027819" lon="11.3411194476">
		<tag k="name" v="Skjerdenbekken" />
		<tag k="ssr:stedsnr" v="59943" />
		<tag k="waterway" v="stream" />
	</node>
	<node id="-59077" lat="60.5236944441" lon="11.3734027706">
		<tag k="name" v="Hersjøen" />
		<tag k="natural" v="water" />
		<tag k="ssr:stedsnr" v="795557" />
	</node>
	<node id="-58052" lat="60.6314416692" lon="11.4370166739">
		<tag k="name" v="Opptjennstøvika" />
		<tag k="natural" v="bay" />
		<tag k="ssr:stedsnr" v="239665" />
	</node>
	<node id="-57632" lat="60.5472444444" lon="11.3725361144">
		<tag k="alt_name" v="Lalumsåa" />
		<tag k="name" v="Lalumselva" />
		<tag k="ssr:stedsnr" v="68489" />
		<tag k="waterway" v="stream" />
	</node>
	<node id="-57035" lat="60.5318916653" lon="11.3393388972">
		<tag k="name" v="Fjellsbekken" />
		<tag k="ssr:stedsnr" v="283181" />
		<tag k="waterway" v="stream" />
	</node>
	<node id="-58912" lat="60.6357638914" lon="11.4222749963">
		<tag k="name" v="Kongstensvika" />
		<tag k="natural" v="bay" />
		<tag k="ssr:stedsnr" v="724648" />
	</node>
	<node id="-58229" lat="60.7561638858" lon="11.4053611069">
		<tag k="name" v="Boiebekken" />
		<tag k="ssr:stedsnr" v="465416" />
		<tag k="waterway" v="stream" />
	</node>
	<node id="-57020" lat="60.6936305583" lon="11.4808833412">
		<tag k="name" v="Sildtjennbekken" />
		<tag k="ssr:stedsnr" v="281113" />
		<tag k="waterway" v="stream" />
	</node>
	<node id="-58075" lat="60.6877027782" lon="11.5680472187">
		<tag k="name" v="Starrtjenna" />
		<tag k="natural" v="water" />
		<tag k="ssr:stedsnr" v="249359" />
	</node>
	<node id="-57529" lat="60.6438249983" lon="11.5337472148">
		<tag k="name" v="Mjøvassbekken" />
		<tag k="ssr:stedsnr" v="41661" />
		<tag k="waterway" v="stream" />
	</node>
	<node id="-58228" lat="60.6199361141" lon="11.2741555586">
		<tag k="name" v="Dammen" />
		<tag k="natural" v="water" />
		<tag k="ssr:stedsnr" v="465412" />
	</node>
	<node id="-58037" lat="60.6253666636" lon="11.358605561">
		<tag k="alt_name" v="Sjølibekken" />
		<tag k="name" v="Sørlibekken" />
		<tag k="ssr:stedsnr" v="239359" />
		<tag k="waterway" v="stream" />
	</node>
	<node id="-57523" lat="60.5584694464" lon="11.4192000065">
		<tag k="name" v="Storfløtdammen" />
		<tag k="ssr:stedsnr" v="41636" />
		<tag k="waterway" v="dam" />
	</node>
	<node id="-57522" lat="60.5416388901" lon="11.47384723">
		<tag k="name" v="Skomakerfløta" />
		<tag k="natural" v="water" />
		<tag k="ssr:stedsnr" v="41629" />
		<tag k="water" v="lake" />
	</node>
	<node id="-58545" lat="60.5657777803" lon="11.4151083366">
		<tag k="name" v="Tjuvhullet" />
		<tag k="place" v="locality" />
		<tag k="ssr:stedsnr" v="587137" />
	</node>
	<node id="-57032" lat="60.6355472256" lon="11.5515388909">
		<tag k="name" v="Søndre Mjøvatnet" />
		<tag k="natural" v="water" />
		<tag k="ssr:stedsnr" v="282945" />
	</node>
	<node id="-58030" lat="60.5158472256" lon="11.2939555625">
		<tag k="name" v="Vestre Klingerhaugbekken" />
		<tag k="ssr:stedsnr" v="237245" />
		<tag k="waterway" v="stream" />
	</node>
	<node id="-57463" lat="60.703944444" lon="11.4150916645">
		<tag k="name" v="Djupdalstjennet" />
		<tag k="natural" v="water" />
		<tag k="ssr:stedsnr" v="7487" />
	</node>
	<node id="-57516" lat="60.5678305512" lon="11.4491805532">
		<tag k="name" v="Nordre Huldertjennet" />
		<tag k="natural" v="water" />
		<tag k="ssr:stedsnr" v="40778" />
	</node>
	<node id="-57513" lat="60.6103833342" lon="11.2500000008">
		<tag k="name" v="Brenntjennet" />
		<tag k="natural" v="water" />
		<tag k="ssr:stedsnr" v="40390" />
	</node>
	<node id="-58022" lat="60.6222638865" lon="11.5771722273">
		<tag k="name" v="Hestskotjennet" />
		<tag k="natural" v="water" />
		<tag k="ssr:stedsnr" v="224759" />
	</node>
	<node id="-57631" lat="60.538641669" lon="11.3445027808">
		<tag k="name" v="Bergsjøen" />
		<tag k="natural" v="water" />
		<tag k="ssr:stedsnr" v="68488" />
	</node>
	<node id="-57507" lat="60.6204861152" lon="11.3007944392">
		<tag k="name" v="Nykjua" />
		<tag k="ssr:stedsnr" v="40438" />
		<tag k="waterway" v="stream" />
	</node>
	<node id="-58540" lat="60.5644750002" lon="11.4507083318">
		<tag k="name" v="Midtre Huldertjennet" />
		<tag k="natural" v="water" />
		<tag k="ssr:stedsnr" v="586750" />
	</node>
	<node id="-57502" lat="60.5216277762" lon="11.3400166721">
		<tag k="name" v="Vangstjennet" />
		<tag k="natural" v="water" />
		<tag k="ssr:stedsnr" v="40229" />
	</node>
	<node id="-57541" lat="60.5489527811" lon="11.3715388913">
		<tag k="name" v="Rønningsdammen" />
		<tag k="ssr:stedsnr" v="42252" />
		<tag k="waterway" v="dam" />
	</node>
	<node id="-58012" lat="60.6748611068" lon="11.361266661">
		<tag k="name" v="Katthølet" />
		<tag k="natural" v="water" />
		<tag k="ssr:stedsnr" v="223476" />
	</node>
	<node id="-57750" lat="60.5769194409" lon="11.4955111176">
		<tag k="name" v="Malungtjennet" />
		<tag k="natural" v="water" />
		<tag k="ssr:stedsnr" v="128114" />
	</node>
	<node id="-59034" lat="60.6171805563" lon="11.3992083309">
		<tag k="name" v="Søndre Bjørnbekken" />
		<tag k="ssr:stedsnr" v="785335" />
		<tag k="waterway" v="stream" />
	</node>
	<node id="-59033" lat="60.6725361106" lon="11.1172138889">
		<tag k="name" v="Sotodden" />
		<tag k="natural" v="cape" />
		<tag k="ssr:stedsnr" v="784069" />
	</node>
	<node id="-59076" lat="60.4724611142" lon="11.3336750034">
		<tag k="name" v="Svartputten" />
		<tag k="natural" v="water" />
		<tag k="ssr:stedsnr" v="795499" />
	</node>
	<node id="-58892" lat="60.5168083335" lon="11.5103750055">
		<tag k="name" v="Mattisdammen" />
		<tag k="ssr:stedsnr" v="722589" />
		<tag k="waterway" v="dam" />
	</node>
	<node id="-58002" lat="60.7094833346" lon="11.4399222136">
		<tag k="name" v="Bjørktjennsbekken" />
		<tag k="ssr:stedsnr" v="222822" />
		<tag k="waterway" v="stream" />
	</node>
	<node id="-57489" lat="60.6429972178" lon="11.3249944519">
		<tag k="name" v="Kringlehullet" />
		<tag k="place" v="locality" />
		<tag k="ssr:stedsnr" v="39288" />
	</node>
	<node id="-58608" lat="60.6048142056" lon="11.192069969">
		<tag k="name" v="Brynsvika" />
		<tag k="natural" v="bay" />
		<tag k="ssr:stedsnr" v="604384" />
	</node>
	<node id="-59160" lat="60.6853833362" lon="11.4437944436">
		<tag k="name" v="Gaustadsæterbekken" />
		<tag k="ssr:stedsnr" v="831817" />
		<tag k="waterway" v="stream" />
	</node>
	<node id="-58505" lat="60.7640500009" lon="11.23380555">
		<tag k="alt_name" v="Nordre Starelva" />
		<tag k="name" v="Starelva" />
		<tag k="ssr:stedsnr" v="555919" />
		<tag k="waterway" v="river" />
	</node>
	<node id="-59016" lat="60.7166722257" lon="11.4448444525">
		<tag k="name" v="Gråbekken" />
		<tag k="ssr:stedsnr" v="770774" />
		<tag k="waterway" v="stream" />
	</node>
	<node id="-57025" lat="60.497608331" lon="11.2437805569">
		<tag k="name" v="Budalsbekken" />
		<tag k="ssr:stedsnr" v="282214" />
		<tag k="waterway" v="stream" />
	</node>
	<node id="-59011" lat="60.6255472187" lon="11.4963138932">
		<tag k="name" v="Frysutbekken" />
		<tag k="ssr:stedsnr" v="770691" />
		<tag k="waterway" v="stream" />
	</node>
	<node id="-57698" lat="60.6908361135" lon="11.5544055491">
		<tag k="name" v="Kutjennet" />
		<tag k="natural" v="water" />
		<tag k="ssr:stedsnr" v="102907" />
	</node>
	<node id="-58495" lat="60.7030500023" lon="11.3815027694">
		<tag k="name" v="Lundstjennet" />
		<tag k="natural" v="water" />
		<tag k="ssr:stedsnr" v="553499" />
	</node>
	<node id="-58625" lat="60.6151444422" lon="11.5999416697">
		<tag k="name" v="Langtjennet" />
		<tag k="natural" v="water" />
		<tag k="ssr:stedsnr" v="613175" />
	</node>
	<node id="-57467" lat="60.7068750005" lon="11.2192166708">
		<tag k="name" v="Våletjennet" />
		<tag k="natural" v="water" />
		<tag k="ssr:stedsnr" v="7504" />
	</node>
	<node id="-59071" lat="60.7225944444" lon="11.2371249975">
		<tag k="name" v="Vestre Starelva" />
		<tag k="ssr:stedsnr" v="787672" />
		<tag k="waterway" v="stream" />
	</node>
	<node id="-58488" lat="60.5543722211" lon="11.4279527784">
		<tag k="name" v="Gaukåa" />
		<tag k="ssr:stedsnr" v="553397" />
		<tag k="waterway" v="river" />
	</node>
	<node id="-57620" lat="60.6510583371" lon="11.5856000071">
		<tag k="alt_name" v="Gransjøen, l" />
		<tag k="name" v="Vesle Gransjøen" />
		<tag k="natural" v="water" />
		<tag k="ssr:stedsnr" v="68331" />
	</node>
	<node id="-58533" lat="60.7050916666" lon="11.1034583346">
		<tag k="name" v="Hestnebben" />
		<tag k="natural" v="cape" />
		<tag k="ssr:stedsnr" v="586187" />
	</node>
	<node id="-58484" lat="60.5674333288" lon="11.3848750057">
		<tag k="name" v="Gåsauge" />
		<tag k="place" v="locality" />
		<tag k="ssr:stedsnr" v="553376" />
	</node>
	<node id="-58480" lat="60.6363852192" lon="11.4274918749">
		<tag k="name" v="Harasjøen" />
		<tag k="natural" v="water" />
		<tag k="ssr:stedsnr" v="552662" />
		<tag k="water" v="lake" />
	</node>
	<node id="-57448" lat="60.5920999971" lon="11.6163888914">
		<tag k="alt_name" v="Speltjennet" />
		<tag k="name" v="Fjellsjøen" />
		<tag k="natural" v="water" />
		<tag k="ssr:stedsnr" v="7173" />
	</node>
	<node id="-58642" lat="60.6758777781" lon="11.4666944492">
		<tag k="name" v="Hemtjennet" />
		<tag k="natural" v="water" />
		<tag k="ssr:stedsnr" v="613581" />
	</node>
	<node id="-58985" lat="60.6962749995" lon="11.1080777725">
		<tag k="name" v="Lønnvika" />
		<tag k="natural" v="bay" />
		<tag k="ssr:stedsnr" v="768186" />
	</node>
	<node id="-58472" lat="60.6204750041" lon="11.2898444396">
		<tag k="name" v="Vikselva" />
		<tag k="ssr:stedsnr" v="552448" />
		<tag k="waterway" v="stream" />
	</node>
	<node id="-58983" lat="60.5250638906" lon="11.367344439">
		<tag k="name" v="Sagfallet" />
		<tag k="natural" v="waterfall" />
		<tag k="ssr:stedsnr" v="768001" />
	</node>
	<node id="-58021" lat="60.5973111131" lon="11.63592222">
		<tag k="name" v="Langtjennsbekken" />
		<tag k="ssr:stedsnr" v="224754" />
		<tag k="waterway" v="stream" />
	</node>
	<node id="-58469" lat="60.6840388922" lon="11.5193055625">
		<tag k="name" v="Lauvlibekken" />
		<tag k="ssr:stedsnr" v="552398" />
		<tag k="waterway" v="stream" />
	</node>
	<node id="-58466" lat="60.601574997" lon="11.5091250033">
		<tag k="name" v="Fallåa" />
		<tag k="ssr:stedsnr" v="552201" />
		<tag k="waterway" v="stream" />
	</node>
	<node id="-58977" lat="60.7215305593" lon="11.1014166729">
		<tag k="name" v="Syljuoset" />
		<tag k="natural" v="bay" />
		<tag k="ssr:stedsnr" v="767166" />
	</node>
	<node id="-58975" lat="60.645441668" lon="11.3516000065">
		<tag k="name" v="Bjertungstadbekken" />
		<tag k="ssr:stedsnr" v="767346" />
		<tag k="waterway" v="stream" />
	</node>
	<node id="-57786" lat="60.5174500006" lon="11.3955583393">
		<tag k="alt_name" v="Hersjøåa" />
		<tag k="name" v="Hersjøelva" />
		<tag k="ssr:stedsnr" v="128481" />
		<tag k="waterway" v="stream" />
	</node>
	<node id="-57434" lat="60.7232880216" lon="11.4663606984">
		<tag k="name" v="Gjetholmsjøen" />
		<tag k="natural" v="water" />
		<tag k="ssr:stedsnr" v="674739" />
		<tag k="water" v="lake" />
	</node>
	<node id="-58455" lat="60.5761333295" lon="11.553919446">
		<tag k="name" v="Slåttmyrbekken" />
		<tag k="ssr:stedsnr" v="544784" />
		<tag k="waterway" v="stream" />
	</node>
	<node id="-58453" lat="60.5926194443" lon="11.5799833372">
		<tag k="name" v="Øvre Lauvtjennet" />
		<tag k="natural" v="water" />
		<tag k="ssr:stedsnr" v="544776" />
	</node>
	<node id="-58452" lat="60.6023555541" lon="11.5101055637">
		<tag k="name" v="Olderstensfløta" />
		<tag k="natural" v="water" />
		<tag k="ssr:stedsnr" v="544731" />
		<tag k="water" v="lake" />
	</node>
	<node id="-57427" lat="60.6899194474" lon="11.5097944523">
		<tag k="name" v="Bjørkbekken" />
		<tag k="ssr:stedsnr" v="892846" />
		<tag k="waterway" v="stream" />
	</node>
	<node id="-57426" lat="60.5937611114" lon="11.6256750087">
		<tag k="name" v="Fjellsjøbekken" />
		<tag k="ssr:stedsnr" v="892734" />
		<tag k="waterway" v="stream" />
	</node>
	<node id="-57425" lat="60.5958888914" lon="11.6299333263">
		<tag k="name" v="Rottjennsbekken" />
		<tag k="ssr:stedsnr" v="892731" />
		<tag k="waterway" v="stream" />
	</node>
	<node id="-58960" lat="60.6485083289" lon="11.4392416651">
		<tag k="name" v="Rådelsbekken" />
		<tag k="ssr:stedsnr" v="735607" />
		<tag k="waterway" v="stream" />
	</node>
	<node id="-58446" lat="60.5738805566" lon="11.3006361125">
		<tag k="name" v="Svedammen" />
		<tag k="natural" v="water" />
		<tag k="ssr:stedsnr" v="544390" />
	</node>
	<node id="-58125" lat="60.5427694428" lon="11.5100777754">
		<tag k="name" v="Brattskjærvika" />
		<tag k="natural" v="bay" />
		<tag k="ssr:stedsnr" v="479581" />
	</node>
	<node id="-58103" lat="60.6964805528" lon="11.4073333277">
		<tag k="alt_name" v="Yksen, store;Storyksna" />
		<tag k="name" v="Store Yksen" />
		<tag k="natural" v="water" />
		<tag k="ssr:stedsnr" v="250543" />
	</node>
	<node id="-57931" lat="60.5791805524" lon="11.4341583299">
		<tag k="name" v="Storputten" />
		<tag k="natural" v="water" />
		<tag k="old_name" v="Storputtjernet" />
		<tag k="ssr:stedsnr" v="189356" />
	</node>
	<node id="-58951" lat="60.5288388855" lon="11.3619111185">
		<tag k="name" v="Bergsjøåa" />
		<tag k="ssr:stedsnr" v="735473" />
		<tag k="waterway" v="stream" />
	</node>
	<node id="-57926" lat="60.6398805597" lon="11.5974166698">
		<tag k="alt_name" v="Store Gransjøen" />
		<tag k="name" v="Gransjøen" />
		<tag k="natural" v="water" />
		<tag k="ssr:stedsnr" v="189321" />
	</node>
	<node id="-57925" lat="60.6574916657" lon="11.5325444497">
		<tag k="name" v="Flesktjennet" />
		<tag k="natural" v="water" />
		<tag k="ssr:stedsnr" v="189303" />
	</node>
	<node id="-58436" lat="60.6294999992" lon="11.4440999918">
		<tag k="name" v="Killingholmen" />
		<tag k="place" v="islet" />
		<tag k="ssr:stedsnr" v="542655" />
	</node>
	<node id="-58071" lat="60.7097555559" lon="11.1891361029">
		<tag k="name" v="Fagerhaugen" />
		<tag k="ssr:stedsnr" v="241561" />
		<tag k="waterway" v="stream" />
	</node>
	<node id="-57349" lat="60.6616999973" lon="11.5313805594">
		<tag k="name" v="Flesktjennsbekken" />
		<tag k="ssr:stedsnr" v="405679" />
		<tag k="waterway" v="stream" />
	</node>
	<node id="-58945" lat="60.6096638869" lon="11.5870194435">
		<tag k="name" v="Hemtjennet" />
		<tag k="natural" v="water" />
		<tag k="ssr:stedsnr" v="735178" />
	</node>
	<node id="-58804" lat="60.6204583295" lon="11.4239666732">
		<tag k="name" v="Øytjennet" />
		<tag k="natural" v="water" />
		<tag k="ssr:stedsnr" v="674588" />
	</node>
	<node id="-57406" lat="60.6544333333" lon="11.4133916657">
		<tag k="name" v="Helgåsbekken" />
		<tag k="ssr:stedsnr" v="891309" />
		<tag k="waterway" v="stream" />
	</node>
	<node id="-57917" lat="60.5235055593" lon="11.2613694438">
		<tag k="name" v="Busterudbekken" />
		<tag k="ssr:stedsnr" v="181269" />
		<tag k="waterway" v="stream" />
	</node>
	<node id="-57610" lat="60.7181416692" lon="11.4552333388">
		<tag k="name" v="Gråbergstjenna" />
		<tag k="natural" v="water" />
		<tag k="ssr:stedsnr" v="67561" />
	</node>
	<node id="-58531" lat="60.6445611143" lon="11.54213611">
		<tag k="name" v="Sverkjedammen" />
		<tag k="ssr:stedsnr" v="585926" />
		<tag k="waterway" v="dam" />
	</node>
	<node id="-58935" lat="60.5862222239" lon="11.5837916682">
		<tag k="name" v="Lauvtjennsbekken" />
		<tag k="ssr:stedsnr" v="726800" />
		<tag k="waterway" v="stream" />
	</node>
	<node id="-59446" lat="60.5124027781" lon="11.3238944381">
		<tag k="name" v="Romsæterbekken" />
		<tag k="ssr:stedsnr" v="968964" />
		<tag k="waterway" v="stream" />
	</node>
	<node id="-57097" lat="60.6180111104" lon="11.3926138883">
		<tag k="name" v="Nordre Bjørnbekken" />
		<tag k="ssr:stedsnr" v="57326" />
		<tag k="waterway" v="stream" />
	</node>
	<node id="-58420" lat="60.5011055586" lon="11.2948055586">
		<tag k="name" v="Lomtjennet" />
		<tag k="natural" v="water" />
		<tag k="ssr:stedsnr" v="540262" />
	</node>
	<node id="-58795" lat="60.7052888891" lon="11.3006638895">
		<tag k="name" v="Musettjennet" />
		<tag k="natural" v="water" />
		<tag k="ssr:stedsnr" v="674515" />
	</node>
	<node id="-59442" lat="60.4706749994" lon="11.3023055548">
		<tag k="name" v="Pinnfallodden" />
		<tag k="natural" v="cape" />
		<tag k="ssr:stedsnr" v="968909" />
	</node>
	<node id="-59441" lat="60.585919441" lon="11.452030564">
		<tag k="name" v="Gransjøbekken" />
		<tag k="ssr:stedsnr" v="968736" />
		<tag k="waterway" v="stream" />
	</node>
	<node id="-59440" lat="60.561049996" lon="11.2887749952">
		<tag k="name" v="Kølhusbekken" />
		<tag k="ssr:stedsnr" v="968419" />
		<tag k="waterway" v="stream" />
	</node>
	<node id="-59437" lat="60.5396750022" lon="11.2639888819">
		<tag k="name" v="Søndre Markbekken" />
		<tag k="ssr:stedsnr" v="968335" />
		<tag k="waterway" v="stream" />
	</node>
	<node id="-58412" lat="60.5619472189" lon="11.4727861134">
		<tag k="name" v="Huldertjennsbekken" />
		<tag k="ssr:stedsnr" v="528106" />
		<tag k="waterway" v="stream" />
	</node>
	<node id="-58321" lat="60.5720499982" lon="11.3372666588">
		<tag k="alt_name" v="Lillereesjøen" />
		<tag k="name" v="Litleresjøen" />
		<tag k="natural" v="water" />
		<tag k="ssr:stedsnr" v="492368" />
	</node>
	<node id="-59059" lat="60.5899999966" lon="11.2300527822">
		<tag k="name" v="Silvika" />
		<tag k="natural" v="bay" />
		<tag k="ssr:stedsnr" v="787380" />
	</node>
	<node id="-57385" lat="60.6432750041" lon="11.57295834">
		<tag k="name" v="Gransjøbekken" />
		<tag k="ssr:stedsnr" v="889933" />
		<tag k="waterway" v="stream" />
	</node>
	<node id="-59378" lat="60.6274166686" lon="11.2078583359">
		<tag k="name" v="Østbybekken" />
		<tag k="ssr:stedsnr" v="951399" />
		<tag k="waterway" v="stream" />
	</node>
	<node id="-58411" lat="60.6875555531" lon="11.567958335">
		<tag k="name" v="Øvre Starrtjennet" />
		<tag k="natural" v="water" />
		<tag k="ssr:stedsnr" v="527898" />
	</node>
	<node id="-58405" lat="60.6962972254" lon="11.3196944526">
		<tag k="name" v="Tomtbekken" />
		<tag k="ssr:stedsnr" v="527446" />
		<tag k="waterway" v="stream" />
	</node>
	<node id="-57606" lat="60.6114333311" lon="11.4324777725">
		<tag k="name" v="Butjennet" />
		<tag k="natural" v="water" />
		<tag k="ssr:stedsnr" v="67433" />
	</node>
	<node id="-57378" lat="60.5574027794" lon="11.3573444491">
		<tag k="name" v="Knukdammen" />
		<tag k="ssr:stedsnr" v="889221" />
		<tag k="waterway" v="dam" />
	</node>
	<node id="-58913" lat="60.6256472216" lon="11.4561249917">
		<tag k="name" v="Nordre Hvitsandbekken" />
		<tag k="ssr:stedsnr" v="724649" />
		<tag k="waterway" v="stream" />
	</node>
	<node id="-57780" lat="60.6700444443" lon="11.5172583421">
		<tag k="name" v="Sildtjenna" />
		<tag k="natural" v="water" />
		<tag k="ssr:stedsnr" v="128343" />
	</node>
	<node id="-58205" lat="60.5216555559" lon="11.3814611057">
		<tag k="name" v="Hersjødammen" />
		<tag k="ssr:stedsnr" v="464001" />
		<tag k="waterway" v="dam" />
	</node>
	<node id="-59397" lat="60.6100000001" lon="11.4949083326">
		<tag k="name" v="Gørrtjennsbekken" />
		<tag k="ssr:stedsnr" v="953283" />
		<tag k="waterway" v="stream" />
	</node>
	<node id="-58395" lat="60.5426027764" lon="11.4619333359">
		<tag k="name" v="Bjørnstadtjennet" />
		<tag k="natural" v="water" />
		<tag k="ssr:stedsnr" v="526645" />
	</node>
	<node id="-57882" lat="60.7372416623" lon="11.3371527821">
		<tag k="name" v="Bjørkholsbekken" />
		<tag k="ssr:stedsnr" v="178400" />
		<tag k="waterway" v="stream" />
	</node>
	<node id="-58564" lat="60.6292722187" lon="11.5312055521">
		<tag k="name" v="Korpkulpen" />
		<tag k="natural" v="water" />
		<tag k="ssr:stedsnr" v="587681" />
	</node>
	<node id="-57604" lat="60.4916527812" lon="11.2977333422">
		<tag k="name" v="Jutsætertjennet" />
		<tag k="natural" v="water" />
		<tag k="ssr:stedsnr" v="67398" />
	</node>
	<node id="-58899" lat="60.6719833296" lon="11.1455999997">
		<tag k="name" v="Hvitbergtjennet" />
		<tag k="natural" v="water" />
		<tag k="ssr:stedsnr" v="723047" />
	</node>
	<node id="-57609" lat="60.7107166644" lon="11.1047000021">
		<tag k="name" v="Gillundstranda" />
		<tag k="natural" v="beach" />
		<tag k="ssr:stedsnr" v="67556" />
	</node>
	<node id="-58384" lat="60.702708329" lon="11.1048583376">
		<tag k="name" v="Støvika" />
		<tag k="natural" v="bay" />
		<tag k="ssr:stedsnr" v="526195" />
	</node>
	<node id="-58712" lat="60.7362805542" lon="11.0865972231">
		<tag k="name" v="Ringnesodden" />
		<tag k="natural" v="cape" />
		<tag k="ssr:stedsnr" v="648244" />
	</node>
	<node id="-57870" lat="60.5109638913" lon="11.2986750069">
		<tag k="name" v="Østre Klingerhaugbekken" />
		<tag k="ssr:stedsnr" v="176251" />
		<tag k="waterway" v="stream" />
	</node>
	<node id="-58893" lat="60.5271333334" lon="11.4992083411">
		<tag k="name" v="Svartvika" />
		<tag k="natural" v="bay" />
		<tag k="ssr:stedsnr" v="722601" />
	</node>
	<node id="-57872" lat="60.5397416676" lon="11.4995083384">
		<tag k="name" v="Grønvika" />
		<tag k="natural" v="bay" />
		<tag k="ssr:stedsnr" v="176553" />
	</node>
	<node id="-57354" lat="60.4876000011" lon="11.3268000011">
		<tag k="name" v="Raskerudelva" />
		<tag k="ssr:stedsnr" v="405970" />
		<tag k="waterway" v="stream" />
	</node>
	<node id="-57865" lat="60.583147219" lon="11.4793722139">
		<tag k="name" v="Båntjennsdammen" />
		<tag k="ssr:stedsnr" v="164116" />
		<tag k="waterway" v="dam" />
	</node>
	<node id="-58887" lat="60.5579916663" lon="11.5052888827">
		<tag k="name" v="Fjæstaddammen" />
		<tag k="ssr:stedsnr" v="710083" />
		<tag k="waterway" v="dam" />
	</node>
	<node id="-58785" lat="60.6324888856" lon="11.5345888936">
		<tag k="name" v="Skorokulpen" />
		<tag k="natural" v="water" />
		<tag k="ssr:stedsnr" v="674311" />
	</node>
	<node id="-58885" lat="60.6614305563" lon="11.5461305508">
		<tag k="name" v="Stentjennsbekken" />
		<tag k="ssr:stedsnr" v="709914" />
		<tag k="waterway" v="stream" />
	</node>
	<node id="-59396" lat="60.6748972214" lon="11.6059194419">
		<tag k="name" v="Huskotjennsbekken" />
		<tag k="ssr:stedsnr" v="952902" />
		<tag k="waterway" v="stream" />
	</node>
	<node id="-59395" lat="60.6845250032" lon="11.5644916721">
		<tag k="name" v="Langsetbekken" />
		<tag k="ssr:stedsnr" v="952892" />
		<tag k="waterway" v="stream" />
	</node>
	<node id="-59394" lat="60.6644749957" lon="11.4446805585">
		<tag k="name" v="Svartkulpen" />
		<tag k="natural" v="water" />
		<tag k="ssr:stedsnr" v="952855" />
		<tag k="water" v="pond" />
	</node>
	<node id="-58881" lat="60.6744194459" lon="11.4895444421">
		<tag k="name" v="Brenntjennsbekken" />
		<tag k="ssr:stedsnr" v="709855" />
		<tag k="waterway" v="stream" />
	</node>
</osm>
