<?xml version="1.0" encoding="UTF-8"?>
<osm generator="osmapis" version="0.6">
	<node id="-57344" lat="60.59594722" lon="11.3429888815">
		<tag k="name" v="Haugsvangmyra" />
		<tag k="natural" v="wetland" />
		<tag k="ssr:stedsnr" v="405191" />
	</node>
	<node id="-57343" lat="60.600291669" lon="11.3412638961">
		<tag k="name" v="Damholen" />
		<tag k="place" v="locality" />
		<tag k="ssr:stedsnr" v="405185" />
	</node>
	<node id="-59390" lat="60.6179638893" lon="11.4868722132">
		<tag k="name" v="Gunnhildberget" />
		<tag k="place" v="locality" />
		<tag k="ssr:stedsnr" v="952685" />
	</node>
	<node id="-57340" lat="60.5726138854" lon="11.3767916721">
		<tag k="name" v="Gåsaugholen" />
		<tag k="place" v="locality" />
		<tag k="ssr:stedsnr" v="405130" />
	</node>
	<node id="-57338" lat="60.7067500002" lon="11.4392750072">
		<tag k="name" v="Nordre Bjørktjennsmyra" />
		<tag k="natural" v="wetland" />
		<tag k="ssr:stedsnr" v="404819" />
	</node>
	<node id="-57335" lat="60.7397249991" lon="11.3037638826">
		<tag k="name" v="Brattvollsberget" />
		<tag k="place" v="locality" />
		<tag k="ssr:stedsnr" v="404749" />
	</node>
	<node id="-57327" lat="60.6962666667" lon="11.3886583422">
		<tag k="name" v="Slaggerudsberget" />
		<tag k="place" v="locality" />
		<tag k="ssr:stedsnr" v="404280" />
	</node>
	<node id="-59373" lat="60.5940027782" lon="11.3801250085">
		<tag k="name" v="Vakkermyra" />
		<tag k="natural" v="wetland" />
		<tag k="ssr:stedsnr" v="951184" />
	</node>
	<node id="-57318" lat="60.5340472183" lon="11.369327785">
		<tag k="name" v="Hersjøvanglia" />
		<tag k="place" v="locality" />
		<tag k="ssr:stedsnr" v="404009" />
	</node>
	<node id="-57317" lat="60.5205444447" lon="11.3863916673">
		<tag k="name" v="Hersjøstykket" />
		<tag k="place" v="locality" />
		<tag k="ssr:stedsnr" v="404002" />
	</node>
	<node id="-59361" lat="60.7117333359" lon="11.3989416644">
		<tag k="name" v="Haukåsmyra" />
		<tag k="natural" v="wetland" />
		<tag k="ssr:stedsnr" v="950297" />
	</node>
	<node id="-59358" lat="60.6959305556" lon="11.3747555573">
		<tag k="name" v="Skjelsethagen" />
		<tag k="place" v="locality" />
		<tag k="ssr:stedsnr" v="950290" />
	</node>
	<node id="-59355" lat="60.5828805595" lon="11.3543222223">
		<tag k="name" v="Gjertrudsvangmyra" />
		<tag k="natural" v="wetland" />
		<tag k="ssr:stedsnr" v="950188" />
	</node>
	<node id="-59354" lat="60.5922361145" lon="11.3063833262">
		<tag k="name" v="Smittstukollen" />
		<tag k="place" v="locality" />
		<tag k="ssr:stedsnr" v="950186" />
	</node>
	<node id="-59353" lat="60.5722777735" lon="11.3473138924">
		<tag k="name" v="Lillereemyra" />
		<tag k="natural" v="wetland" />
		<tag k="ssr:stedsnr" v="950185" />
	</node>
	<node id="-59352" lat="60.5279916656" lon="11.3667472181">
		<tag k="name" v="Hersjølia" />
		<tag k="place" v="locality" />
		<tag k="ssr:stedsnr" v="950144" />
	</node>
	<node id="-59349" lat="60.5268527762" lon="11.3886527739">
		<tag k="name" v="Mathisrud" />
		<tag k="place" v="locality" />
		<tag k="ssr:stedsnr" v="950011" />
	</node>
	<node id="-57263" lat="60.4756916633" lon="11.3102138799">
		<tag k="name" v="Ottskogen" />
		<tag k="place" v="locality" />
		<tag k="ssr:stedsnr" v="362891" />
	</node>
	<node id="-57260" lat="60.583313893" lon="11.4639583297">
		<tag k="name" v="Blekjemyra" />
		<tag k="natural" v="wetland" />
		<tag k="ssr:stedsnr" v="362721" />
	</node>
	<node id="-59290" lat="60.5087777813" lon="11.3138888957">
		<tag k="name" v="Halvorstumyra" />
		<tag k="natural" v="wetland" />
		<tag k="ssr:stedsnr" v="908971" />
	</node>
	<node id="-57241" lat="60.6948166666" lon="11.4619527701">
		<tag k="name" v="Østre Knavleberget" />
		<tag k="place" v="locality" />
		<tag k="ssr:stedsnr" v="362132" />
	</node>
	<node id="-57240" lat="60.6263861138" lon="11.4224194488">
		<tag k="name" v="Slåttmyra" />
		<tag k="natural" v="wetland" />
		<tag k="ssr:stedsnr" v="360637" />
	</node>
	<node id="-57236" lat="60.6263777773" lon="11.366811117">
		<tag k="name" v="Mosemyra" />
		<tag k="natural" v="wetland" />
		<tag k="ssr:stedsnr" v="360337" />
	</node>
	<node id="-57235" lat="60.6270361093" lon="11.3883083352">
		<tag k="name" v="Kvinkhulsmarka" />
		<tag k="place" v="locality" />
		<tag k="ssr:stedsnr" v="360332" />
	</node>
	<node id="-57233" lat="60.6238749985" lon="11.3866722187">
		<tag k="name" v="Gauksjømyra" />
		<tag k="natural" v="wetland" />
		<tag k="ssr:stedsnr" v="360320" />
	</node>
	<node id="-57229" lat="60.5187194482" lon="11.4622249947">
		<tag k="name" v="Rønevanghøgda" />
		<tag k="place" v="locality" />
		<tag k="ssr:stedsnr" v="358616" />
	</node>
	<node id="-57227" lat="60.520066663" lon="11.2548833327">
		<tag k="name" v="Langholtet" />
		<tag k="place" v="locality" />
		<tag k="ssr:stedsnr" v="358238" />
	</node>
	<node id="-57226" lat="60.519233337" lon="11.2829277739">
		<tag k="name" v="Froskhølmyrene" />
		<tag k="natural" v="wetland" />
		<tag k="ssr:stedsnr" v="358235" />
	</node>
	<node id="-57218" lat="60.666630559" lon="11.4861055519">
		<tag k="name" v="Høgbergsmyra" />
		<tag k="natural" v="wetland" />
		<tag k="ssr:stedsnr" v="345857" />
	</node>
	<node id="-57217" lat="60.6757611154" lon="11.437177782">
		<tag k="name" v="Gaustadsæterstormyra" />
		<tag k="natural" v="wetland" />
		<tag k="ssr:stedsnr" v="345844" />
	</node>
	<node id="-59259" lat="60.7254722208" lon="11.4114916691">
		<tag k="name" v="Blekkmyra" />
		<tag k="natural" v="wetland" />
		<tag k="ssr:stedsnr" v="906409" />
	</node>
	<node id="-57210" lat="60.5624833358" lon="11.3759305636">
		<tag k="name" v="Østre Knukberget" />
		<tag k="place" v="locality" />
		<tag k="ssr:stedsnr" v="345160" />
	</node>
	<node id="-59257" lat="60.7195000012" lon="11.4017444423">
		<tag k="name" v="Fuglelekmyra" />
		<tag k="natural" v="wetland" />
		<tag k="ssr:stedsnr" v="906398" />
	</node>
	<node id="-57207" lat="60.6013638888" lon="11.3870305529">
		<tag k="name" v="Saudalsmyra" />
		<tag k="natural" v="wetland" />
		<tag k="ssr:stedsnr" v="344364" />
	</node>
	<node id="-59254" lat="60.5396611117" lon="11.484111107">
		<tag k="name" v="Helvetesmyra" />
		<tag k="natural" v="wetland" />
		<tag k="ssr:stedsnr" v="905596" />
	</node>
	<node id="-59252" lat="60.5219055597" lon="11.445527771">
		<tag k="name" v="Hestkampmyra" />
		<tag k="natural" v="wetland" />
		<tag k="ssr:stedsnr" v="904570" />
	</node>
	<node id="-59251" lat="60.5160055571" lon="11.4263527709">
		<tag k="name" v="Kjølmyra" />
		<tag k="natural" v="wetland" />
		<tag k="ssr:stedsnr" v="904567" />
	</node>
	<node id="-57202" lat="60.7101111105" lon="11.449899997">
		<tag k="name" v="Luttansmyra" />
		<tag k="natural" v="wetland" />
		<tag k="ssr:stedsnr" v="343865" />
	</node>
	<node id="-57197" lat="60.6843472179" lon="11.2656305613">
		<tag k="name" v="Sætermyra" />
		<tag k="natural" v="wetland" />
		<tag k="ssr:stedsnr" v="343561" />
	</node>
	<node id="-57189" lat="60.570783334" lon="11.306852776">
		<tag k="name" v="Nordre Torsfalla" />
		<tag k="place" v="locality" />
		<tag k="ssr:stedsnr" v="343161" />
	</node>
	<node id="-57188" lat="60.4958888906" lon="11.3297944534">
		<tag k="name" v="Finnstumyra" />
		<tag k="natural" v="wetland" />
		<tag k="ssr:stedsnr" v="344976" />
	</node>
	<node id="-57182" lat="60.6306472204" lon="11.5174999988">
		<tag k="name" v="Høgbrenna" />
		<tag k="place" v="locality" />
		<tag k="ssr:stedsnr" v="102706" />
	</node>
	<node id="-57163" lat="60.6600750039" lon="11.2378805595">
		<tag k="name" v="Kvitmyra" />
		<tag k="natural" v="wetland" />
		<tag k="ssr:stedsnr" v="310576" />
	</node>
	<node id="-59210" lat="60.6983333348" lon="11.5210583376">
		<tag k="alt_name" v="Skarbergskjølen" />
		<tag k="name" v="Skallbergskjølen" />
		<tag k="natural" v="wetland" />
		<tag k="ssr:stedsnr" v="848879" />
	</node>
	<node id="-59209" lat="60.596583332" lon="11.4680972162">
		<tag k="name" v="Skansberget" />
		<tag k="place" v="locality" />
		<tag k="ssr:stedsnr" v="848701" />
	</node>
	<node id="-59194" lat="60.5839444432" lon="11.2980055551">
		<tag k="name" v="Harahølet" />
		<tag k="place" v="locality" />
		<tag k="ssr:stedsnr" v="848405" />
	</node>
	<node id="-59186" lat="60.6398833346" lon="11.4459222265">
		<tag k="name" v="Harasjøstranda" />
		<tag k="place" v="locality" />
		<tag k="ssr:stedsnr" v="846642" />
	</node>
	<node id="-59181" lat="60.6074527798" lon="11.3787027778">
		<tag k="name" v="Nordre Saudalsmyra" />
		<tag k="natural" v="wetland" />
		<tag k="ssr:stedsnr" v="846343" />
	</node>
	<node id="-59179" lat="60.5251694416" lon="11.4722083244">
		<tag k="name" v="Møkkadalsholen" />
		<tag k="place" v="locality" />
		<tag k="ssr:stedsnr" v="844626" />
	</node>
	<node id="-59177" lat="60.5211194407" lon="11.4348388823">
		<tag k="name" v="Moroskyldmyra" />
		<tag k="natural" v="wetland" />
		<tag k="ssr:stedsnr" v="844619" />
	</node>
	<node id="-57127" lat="60.5262666712" lon="11.2835222138">
		<tag k="name" v="Ryggfurumyra" />
		<tag k="natural" v="wetland" />
		<tag k="ssr:stedsnr" v="302305" />
	</node>
	<node id="-59173" lat="60.5040583372" lon="11.2992083284">
		<tag k="name" v="Vangsmyra" />
		<tag k="natural" v="wetland" />
		<tag k="ssr:stedsnr" v="844253" />
	</node>
	<node id="-59163" lat="60.6624361107" lon="11.4929722219">
		<tag k="name" v="Snushukebrenna" />
		<tag k="place" v="locality" />
		<tag k="ssr:stedsnr" v="831846" />
	</node>
	<node id="-57114" lat="60.5982305581" lon="11.2984250042">
		<tag k="name" v="Furuberget" />
		<tag k="place" v="locality" />
		<tag k="ssr:stedsnr" v="301421" />
	</node>
	<node id="-57113" lat="60.5601166635" lon="11.2827416755">
		<tag k="name" v="Driterbakken" />
		<tag k="place" v="locality" />
		<tag k="ssr:stedsnr" v="301397" />
	</node>
	<node id="-59159" lat="60.7229861131" lon="11.4488527846">
		<tag k="name" v="Sagmyra" />
		<tag k="natural" v="wetland" />
		<tag k="ssr:stedsnr" v="831742" />
	</node>
	<node id="-59158" lat="60.617669446" lon="11.5755166696">
		<tag k="name" v="Plogmyra" />
		<tag k="natural" v="wetland" />
		<tag k="ssr:stedsnr" v="831728" />
	</node>
	<node id="-57105" lat="60.5918527811" lon="11.2142611177">
		<tag k="name" v="Husebymarka" />
		<tag k="place" v="locality" />
		<tag k="ssr:stedsnr" v="301349" />
	</node>
	<node id="-57103" lat="60.6395666647" lon="11.3861361145">
		<tag k="name" v="Gullmosemyra" />
		<tag k="natural" v="wetland" />
		<tag k="ssr:stedsnr" v="301268" />
	</node>
	<node id="-57102" lat="60.6336972189" lon="11.3748500056">
		<tag k="name" v="Slåttmyra" />
		<tag k="natural" v="wetland" />
		<tag k="ssr:stedsnr" v="301264" />
	</node>
	<node id="-59149" lat="60.5623694443" lon="11.3935944524">
		<tag k="name" v="Remmenbrenna" />
		<tag k="place" v="locality" />
		<tag k="ssr:stedsnr" v="831154" />
	</node>
	<node id="-59148" lat="60.482886114" lon="11.3195111137">
		<tag k="name" v="Haugermyra" />
		<tag k="natural" v="wetland" />
		<tag k="ssr:stedsnr" v="830955" />
	</node>
	<node id="-57092" lat="60.6158472196" lon="11.3088749928">
		<tag k="name" v="Bakstadmarka" />
		<tag k="place" v="locality" />
		<tag k="ssr:stedsnr" v="300398" />
	</node>
	<node id="-57089" lat="60.5378305536" lon="11.2589111125">
		<tag k="name" v="Gullhaugen" />
		<tag k="place" v="locality" />
		<tag k="ssr:stedsnr" v="300343" />
	</node>
	<node id="-59136" lat="60.6688583376" lon="11.4081388817">
		<tag k="name" v="Yksenstaren" />
		<tag k="natural" v="wetland" />
		<tag k="ssr:stedsnr" v="830240" />
	</node>
	<node id="-57086" lat="60.712430552" lon="11.254327785">
		<tag k="name" v="Langmyra" />
		<tag k="natural" v="wetland" />
		<tag k="ssr:stedsnr" v="299531" />
	</node>
	<node id="-59133" lat="60.5916083366" lon="11.3743666723">
		<tag k="name" v="Nykjudalshøgda" />
		<tag k="place" v="locality" />
		<tag k="ssr:stedsnr" v="830168" />
	</node>
	<node id="-59132" lat="60.574930557" lon="11.38528333">
		<tag k="name" v="Atlungstadberget" />
		<tag k="place" v="locality" />
		<tag k="ssr:stedsnr" v="830118" />
	</node>
	<node id="-59130" lat="60.6454999959" lon="11.5356722287">
		<tag k="name" v="Brennholen" />
		<tag k="place" v="locality" />
		<tag k="ssr:stedsnr" v="831604" />
	</node>
	<node id="-57080" lat="60.5276888925" lon="11.4617944416">
		<tag k="name" v="Rognlimyrene" />
		<tag k="natural" v="wetland" />
		<tag k="ssr:stedsnr" v="298590" />
	</node>
	<node id="-59127" lat="60.6791861104" lon="11.4117638899">
		<tag k="name" v="Rundmyra" />
		<tag k="natural" v="wetland" />
		<tag k="ssr:stedsnr" v="829311" />
	</node>
	<node id="-59125" lat="60.52783056" lon="11.3380777768">
		<tag k="name" v="Tempelmyra" />
		<tag k="natural" v="wetland" />
		<tag k="ssr:stedsnr" v="829202" />
	</node>
	<node id="-59123" lat="60.5741666633" lon="11.336661111">
		<tag k="name" v="Lillereevanglia" />
		<tag k="place" v="locality" />
		<tag k="ssr:stedsnr" v="829156" />
	</node>
	<node id="-57074" lat="60.5176472265" lon="11.2716861123">
		<tag k="name" v="Stenmyra" />
		<tag k="natural" v="wetland" />
		<tag k="ssr:stedsnr" v="297254" />
	</node>
	<node id="-59119" lat="60.5492638932" lon="11.3204250049">
		<tag k="name" v="Vintermyra" />
		<tag k="natural" v="wetland" />
		<tag k="ssr:stedsnr" v="828187" />
	</node>
	<node id="-59118" lat="60.5501722257" lon="11.3338916723">
		<tag k="name" v="Fotbydalsmyra" />
		<tag k="natural" v="wetland" />
		<tag k="ssr:stedsnr" v="828184" />
	</node>
	<node id="-59117" lat="60.5627972233" lon="11.3061805598">
		<tag k="name" v="Søndre Torsfalla" />
		<tag k="place" v="locality" />
		<tag k="ssr:stedsnr" v="828180" />
	</node>
	<node id="-57068" lat="60.7114277751" lon="11.4825888913">
		<tag k="name" v="Villumstadmyra" />
		<tag k="natural" v="wetland" />
		<tag k="ssr:stedsnr" v="285847" />
	</node>
	<node id="-59114" lat="60.5255361119" lon="11.3567361128">
		<tag k="name" v="Nordre Grasmyra" />
		<tag k="natural" v="wetland" />
		<tag k="ssr:stedsnr" v="829203" />
	</node>
	<node id="-57061" lat="60.6810666709" lon="11.5664694536">
		<tag k="name" v="Langsetkjølen" />
		<tag k="natural" v="wetland" />
		<tag k="ssr:stedsnr" v="284912" />
	</node>
	<node id="-57055" lat="60.5940583354" lon="11.4101305491">
		<tag k="name" v="Sørbråtemyra" />
		<tag k="natural" v="wetland" />
		<tag k="ssr:stedsnr" v="284353" />
	</node>
	<node id="-57054" lat="60.5978611066" lon="11.3484472242">
		<tag k="name" v="Sønsterudmyra" />
		<tag k="natural" v="wetland" />
		<tag k="ssr:stedsnr" v="284199" />
	</node>
	<node id="-57052" lat="60.5652722224" lon="11.4119972278">
		<tag k="name" v="Storfløtmyra" />
		<tag k="natural" v="wetland" />
		<tag k="ssr:stedsnr" v="284137" />
	</node>
	<node id="-57045" lat="60.5777472202" lon="11.4514277854">
		<tag k="name" v="Galgumsæterstormyra" />
		<tag k="natural" v="wetland" />
		<tag k="ssr:stedsnr" v="283698" />
	</node>
	<node id="-57038" lat="60.5459222252" lon="11.3087361105">
		<tag k="name" v="Tjennsmyra" />
		<tag k="natural" v="wetland" />
		<tag k="ssr:stedsnr" v="283207" />
	</node>
	<node id="-57037" lat="60.521658336" lon="11.3373055536">
		<tag k="name" v="Vangsmyra" />
		<tag k="natural" v="wetland" />
		<tag k="ssr:stedsnr" v="283187" />
	</node>
	<node id="-57026" lat="60.4841361072" lon="11.2774277759">
		<tag k="name" v="Brennhaugmyra" />
		<tag k="natural" v="wetland" />
		<tag k="ssr:stedsnr" v="282244" />
	</node>
	<node id="-57022" lat="60.6219666686" lon="11.1702583322">
		<tag k="name" v="Nøttestadmarka" />
		<tag k="place" v="locality" />
		<tag k="ssr:stedsnr" v="282021" />
	</node>
	<node id="-59061" lat="60.5779777754" lon="11.2847861182">
		<tag k="name" v="Labbenskogen" />
		<tag k="place" v="locality" />
		<tag k="ssr:stedsnr" v="787390" />
	</node>
	<node id="-59057" lat="60.5137333314" lon="11.335608338">
		<tag k="name" v="Øvre Dangelbu" />
		<tag k="place" v="locality" />
		<tag k="ssr:stedsnr" v="786972" />
	</node>
	<node id="-59056" lat="60.4683666644" lon="11.3307138956">
		<tag k="name" v="Vesleaugholen" />
		<tag k="place" v="locality" />
		<tag k="ssr:stedsnr" v="786919" />
	</node>
	<node id="-59053" lat="60.58742778" lon="11.4919694524">
		<tag k="historic" v="shieling" />
		<tag k="name" v="Pervalsæter" />
		<tag k="place" v="locality" />
		<tag k="ssr:stedsnr" v="786726" />
	</node>
	<node id="-59051" lat="60.5941805543" lon="11.4563611152">
		<tag k="name" v="Barbumyra" />
		<tag k="natural" v="wetland" />
		<tag k="ssr:stedsnr" v="786721" />
	</node>
	<node id="-59050" lat="60.5997944425" lon="11.4636444356">
		<tag k="name" v="Suttermyra" />
		<tag k="natural" v="wetland" />
		<tag k="ssr:stedsnr" v="786722" />
	</node>
	<node id="-59048" lat="60.6415583315" lon="11.4263861116">
		<tag k="name" v="Frosktjennsmyra" />
		<tag k="natural" v="wetland" />
		<tag k="ssr:stedsnr" v="785673" />
	</node>
	<node id="-59047" lat="60.6212694403" lon="11.4460361024">
		<tag k="name" v="Tomropmyra" />
		<tag k="natural" v="wetland" />
		<tag k="ssr:stedsnr" v="785643" />
	</node>
	<node id="-59046" lat="60.6318499958" lon="11.4707361195">
		<tag k="name" v="Jørnsmyra" />
		<tag k="natural" v="wetland" />
		<tag k="ssr:stedsnr" v="785637" />
	</node>
	<node id="-59045" lat="60.7081722231" lon="11.2600611066">
		<tag k="name" v="Rismyra" />
		<tag k="natural" v="wetland" />
		<tag k="ssr:stedsnr" v="785493" />
	</node>
	<node id="-59035" lat="60.6266777765" lon="11.3769361191">
		<tag k="name" v="Multmyra" />
		<tag k="natural" v="wetland" />
		<tag k="ssr:stedsnr" v="785340" />
	</node>
	<node id="-59029" lat="60.5357916626" lon="11.4487333409">
		<tag k="name" v="Hvitmosen" />
		<tag k="natural" v="wetland" />
		<tag k="ssr:stedsnr" v="783621" />
	</node>
	<node id="-59027" lat="60.5327555542" lon="11.4490861145">
		<tag k="name" v="Stenbekkmyrene" />
		<tag k="natural" v="wetland" />
		<tag k="ssr:stedsnr" v="783609" />
	</node>
	<node id="-59024" lat="60.5457055532" lon="11.4804277729">
		<tag k="name" v="Sætermyra" />
		<tag k="natural" v="wetland" />
		<tag k="ssr:stedsnr" v="783583" />
	</node>
	<node id="-59023" lat="60.5106805533" lon="11.2781916606">
		<tag k="name" v="Kumyrholen" />
		<tag k="place" v="locality" />
		<tag k="ssr:stedsnr" v="783232" />
	</node>
	<node id="-59014" lat="60.6143583362" lon="11.5826222303">
		<tag k="name" v="Tretjennsmyra" />
		<tag k="natural" v="wetland" />
		<tag k="ssr:stedsnr" v="770757" />
	</node>
	<node id="-59013" lat="60.6239555584" lon="11.6069000059">
		<tag k="name" v="Kjerringholen" />
		<tag k="place" v="locality" />
		<tag k="ssr:stedsnr" v="770750" />
	</node>
	<node id="-59003" lat="60.5569583336" lon="11.3932277848">
		<tag k="name" v="Østre Refsalsæterlia" />
		<tag k="place" v="locality" />
		<tag k="ssr:stedsnr" v="770130" />
	</node>
	<node id="-59000" lat="60.6603638892" lon="11.5264638959">
		<tag k="name" v="Bingmyra" />
		<tag k="natural" v="wetland" />
		<tag k="ssr:stedsnr" v="769658" />
	</node>
	<node id="-58992" lat="60.5761361101" lon="11.399461116">
		<tag k="name" v="Torvmyra" />
		<tag k="natural" v="wetland" />
		<tag k="ssr:stedsnr" v="769127" />
	</node>
	<node id="-58978" lat="60.4858694479" lon="11.2816222212">
		<tag k="name" v="Elgemyra" />
		<tag k="natural" v="wetland" />
		<tag k="ssr:stedsnr" v="767259" />
	</node>
	<node id="-58958" lat="60.6749388931" lon="11.4097666683">
		<tag k="name" v="Mælumstarren" />
		<tag k="natural" v="wetland" />
		<tag k="ssr:stedsnr" v="735581" />
	</node>
	<node id="-58938" lat="60.4709305533" lon="11.3316722219">
		<tag k="name" v="Svartputtholen" />
		<tag k="place" v="locality" />
		<tag k="ssr:stedsnr" v="726911" />
	</node>
	<node id="-58937" lat="60.462672219" lon="11.327955561">
		<tag k="name" v="Fiskemyra" />
		<tag k="natural" v="wetland" />
		<tag k="ssr:stedsnr" v="726909" />
	</node>
	<node id="-58934" lat="60.5949361123" lon="11.4815444534">
		<tag k="name" v="Rundmyra" />
		<tag k="natural" v="wetland" />
		<tag k="ssr:stedsnr" v="726733" />
	</node>
	<node id="-58933" lat="60.5996444432" lon="11.5225250002">
		<tag k="name" v="Vollmyra" />
		<tag k="natural" v="wetland" />
		<tag k="ssr:stedsnr" v="726730" />
	</node>
	<node id="-58927" lat="60.6005611116" lon="11.2513166723">
		<tag k="name" v="Hovsødegården" />
		<tag k="place" v="locality" />
		<tag k="ssr:stedsnr" v="726445" />
	</node>
	<node id="-58924" lat="60.7609861079" lon="11.1812944381">
		<tag k="name" v="Nordvimarka" />
		<tag k="place" v="locality" />
		<tag k="ssr:stedsnr" v="726290" />
	</node>
	<node id="-58907" lat="60.7281000039" lon="11.4047805508">
		<tag k="name" v="Olderbekkmyra" />
		<tag k="natural" v="wetland" />
		<tag k="ssr:stedsnr" v="724374" />
	</node>
	<node id="-58905" lat="60.7327666626" lon="11.4137722191">
		<tag k="name" v="Dølhusberget" />
		<tag k="place" v="locality" />
		<tag k="ssr:stedsnr" v="724361" />
	</node>
	<node id="-58900" lat="60.6755611111" lon="11.1315944451">
		<tag k="name" v="Såstadmarka" />
		<tag k="place" v="locality" />
		<tag k="ssr:stedsnr" v="723049" />
	</node>
	<node id="-58897" lat="60.5263638875" lon="11.431386114">
		<tag k="name" v="Nøttestadvangmyra" />
		<tag k="natural" v="wetland" />
		<tag k="ssr:stedsnr" v="722617" />
	</node>
	<node id="-58895" lat="60.5510111136" lon="11.533333339">
		<tag k="name" v="Kløvstensmyra" />
		<tag k="natural" v="wetland" />
		<tag k="ssr:stedsnr" v="722604" />
	</node>
	<node id="-58882" lat="60.693577775" lon="11.5028722299">
		<tag k="name" v="Killbakkmyra" />
		<tag k="natural" v="wetland" />
		<tag k="ssr:stedsnr" v="709860" />
	</node>
	<node id="-58880" lat="60.6191138872" lon="11.5799361023">
		<tag k="name" v="Fattigmannsholtet" />
		<tag k="place" v="locality" />
		<tag k="ssr:stedsnr" v="709759" />
	</node>
	<node id="-58876" lat="60.5492361138" lon="11.4203500012">
		<tag k="name" v="Nysæterhøgdmyra" />
		<tag k="natural" v="wetland" />
		<tag k="ssr:stedsnr" v="709621" />
	</node>
	<node id="-58871" lat="60.6740611069" lon="11.3267083365">
		<tag k="name" v="Stormåsån" />
		<tag k="natural" v="wetland" />
		<tag k="ssr:stedsnr" v="709472" />
	</node>
	<node id="-58868" lat="60.6619999958" lon="11.3121638846">
		<tag k="name" v="Brenningsberget" />
		<tag k="place" v="locality" />
		<tag k="ssr:stedsnr" v="709312" />
	</node>
	<node id="-58866" lat="60.5462888866" lon="11.3912388883">
		<tag k="name" v="Grautmyra" />
		<tag k="natural" v="wetland" />
		<tag k="ssr:stedsnr" v="709274" />
	</node>
	<node id="-58864" lat="60.595911108" lon="11.3312722149">
		<tag k="name" v="Hemmyra" />
		<tag k="natural" v="wetland" />
		<tag k="ssr:stedsnr" v="709205" />
	</node>
	<node id="-58860" lat="60.5772249986" lon="11.3732916623">
		<tag k="name" v="Svartputtmyra" />
		<tag k="natural" v="wetland" />
		<tag k="ssr:stedsnr" v="709144" />
	</node>
	<node id="-58854" lat="60.634908336" lon="11.6171055603">
		<tag k="name" v="Opptrekkmyra" />
		<tag k="natural" v="wetland" />
		<tag k="ssr:stedsnr" v="707938" />
	</node>
	<node id="-58846" lat="60.6781833293" lon="11.3864361146">
		<tag k="name" v="Kroken" />
		<tag k="place" v="locality" />
		<tag k="ssr:stedsnr" v="707315" />
	</node>
	<node id="-58844" lat="60.5252388879" lon="11.3053944415">
		<tag k="name" v="Romsæterholen" />
		<tag k="place" v="locality" />
		<tag k="ssr:stedsnr" v="707233" />
	</node>
	<node id="-58837" lat="60.5765444453" lon="11.3541083251">
		<tag k="name" v="Svartputthøgda" />
		<tag k="place" v="locality" />
		<tag k="ssr:stedsnr" v="707170" />
	</node>
	<node id="-58836" lat="60.5177722257" lon="11.3877388917">
		<tag k="name" v="Badstuholen" />
		<tag k="place" v="locality" />
		<tag k="ssr:stedsnr" v="707132" />
	</node>
	<node id="-58832" lat="60.5406166686" lon="11.3672722134">
		<tag k="name" v="Pålshaugen" />
		<tag k="place" v="locality" />
		<tag k="ssr:stedsnr" v="707017" />
	</node>
	<node id="-58774" lat="60.5198888875" lon="11.3453749964">
		<tag k="name" v="Kampmyra" />
		<tag k="natural" v="wetland" />
		<tag k="ssr:stedsnr" v="665973" />
	</node>
	<node id="-58770" lat="60.5956666684" lon="11.489027778">
		<tag k="name" v="Maribrumyra" />
		<tag k="natural" v="wetland" />
		<tag k="ssr:stedsnr" v="665749" />
	</node>
	<node id="-59288" lat="60.4625999978" lon="11.3378416603">
		<tag k="name" v="Kjeldholen" />
		<tag k="place" v="locality" />
		<tag k="ssr:stedsnr" v="908927" />
	</node>
	<node id="-58761" lat="60.5454777789" lon="11.2826888897">
		<tag k="name" v="Nilsbergmyra" />
		<tag k="natural" v="wetland" />
		<tag k="ssr:stedsnr" v="665380" />
	</node>
	<node id="-58754" lat="60.6246999967" lon="11.3199944411">
		<tag k="name" v="Holmarka" />
		<tag k="place" v="locality" />
		<tag k="ssr:stedsnr" v="664359" />
	</node>
	<node id="-58752" lat="60.6161749983" lon="11.4163361162">
		<tag k="name" v="Svartoldermyra" />
		<tag k="natural" v="wetland" />
		<tag k="ssr:stedsnr" v="664344" />
	</node>
	<node id="-58749" lat="60.535225001" lon="11.2789611188">
		<tag k="historic" v="shieling" />
		<tag k="name" v="Prestvangen" />
		<tag k="place" v="locality" />
		<tag k="ssr:stedsnr" v="664291" />
	</node>
	<node id="-58748" lat="60.6383583302" lon="11.4375722307">
		<tag k="name" v="Varpmyra" />
		<tag k="natural" v="wetland" />
		<tag k="ssr:stedsnr" v="663687" />
	</node>
	<node id="-58746" lat="60.7016694417" lon="11.2678444372">
		<tag k="name" v="Slåttmyra" />
		<tag k="natural" v="wetland" />
		<tag k="ssr:stedsnr" v="663501" />
	</node>
	<node id="-58735" lat="60.512436113" lon="11.2918027865">
		<tag k="name" v="Søndre Trangmyra" />
		<tag k="natural" v="wetland" />
		<tag k="ssr:stedsnr" v="661245" />
	</node>
	<node id="-58733" lat="60.5165499991" lon="11.265477778">
		<tag k="name" v="Nordre Stabbursmyra" />
		<tag k="natural" v="wetland" />
		<tag k="ssr:stedsnr" v="661236" />
	</node>
	<node id="-58732" lat="60.5150333331" lon="11.2781777688">
		<tag k="name" v="Busemyrene" />
		<tag k="natural" v="wetland" />
		<tag k="ssr:stedsnr" v="661234" />
	</node>
	<node id="-58731" lat="60.5182138854" lon="11.288663892">
		<tag k="name" v="Ryggfuruholen" />
		<tag k="place" v="locality" />
		<tag k="ssr:stedsnr" v="661232" />
	</node>
	<node id="-59281" lat="60.6646555592" lon="11.274663886">
		<tag k="name" v="Trettmarka" />
		<tag k="place" v="locality" />
		<tag k="ssr:stedsnr" v="908540" />
	</node>
	<node id="-58724" lat="60.6222666676" lon="11.527633342">
		<tag k="name" v="Nordrumsberget" />
		<tag k="place" v="locality" />
		<tag k="ssr:stedsnr" v="648701" />
	</node>
	<node id="-58718" lat="60.5882138854" lon="11.3946416708">
		<tag k="name" v="Sjøberget" />
		<tag k="place" v="locality" />
		<tag k="ssr:stedsnr" v="648362" />
	</node>
	<node id="-58710" lat="60.5992055537" lon="11.3372833361">
		<tag k="name" v="Hemmyrholen" />
		<tag k="place" v="locality" />
		<tag k="ssr:stedsnr" v="648217" />
	</node>
	<node id="-58707" lat="60.5806444438" lon="11.3676333339">
		<tag k="name" v="Svartputtholen" />
		<tag k="place" v="locality" />
		<tag k="ssr:stedsnr" v="648162" />
	</node>
	<node id="-58706" lat="60.5790388852" lon="11.3915138827">
		<tag k="historic" v="shieling" />
		<tag k="name" v="Atlungstadvangen" />
		<tag k="place" v="locality" />
		<tag k="ssr:stedsnr" v="648160" />
	</node>
	<node id="-58705" lat="60.5723833309" lon="11.4045999948">
		<tag k="name" v="Langmyra" />
		<tag k="natural" v="wetland" />
		<tag k="ssr:stedsnr" v="648159" />
	</node>
	<node id="-58704" lat="60.5668916638" lon="11.4011833407">
		<tag k="name" v="Sagberget" />
		<tag k="place" v="locality" />
		<tag k="ssr:stedsnr" v="648155" />
	</node>
	<node id="-58703" lat="60.4901222185" lon="11.3132222286">
		<tag k="name" v="Sjømyra" />
		<tag k="natural" v="wetland" />
		<tag k="ssr:stedsnr" v="647971" />
	</node>
	<node id="-58698" lat="60.7494222226" lon="11.2795666727">
		<tag k="name" v="Husenga" />
		<tag k="place" v="locality" />
		<tag k="ssr:stedsnr" v="647791" />
	</node>
	<node id="-58688" lat="60.6978888855" lon="11.4413833408">
		<tag k="name" v="Søndre Bjørktjennsmyra" />
		<tag k="natural" v="wetland" />
		<tag k="ssr:stedsnr" v="646818" />
	</node>
	<node id="-58686" lat="60.716350003" lon="11.3045861074">
		<tag k="name" v="Opplandsmyra" />
		<tag k="natural" v="wetland" />
		<tag k="ssr:stedsnr" v="646517" />
	</node>
	<node id="-58682" lat="60.6791861104" lon="11.4117638899">
		<tag k="name" v="Bekjemyra" />
		<tag k="natural" v="wetland" />
		<tag k="ssr:stedsnr" v="646305" />
	</node>
	<node id="-58677" lat="60.5523249994" lon="11.3551666578">
		<tag k="name" v="Fugleleikmyrene" />
		<tag k="natural" v="wetland" />
		<tag k="ssr:stedsnr" v="646228" />
	</node>
	<node id="-58675" lat="60.5395388925" lon="11.32556666">
		<tag k="name" v="Sørlimyra" />
		<tag k="natural" v="wetland" />
		<tag k="ssr:stedsnr" v="646198" />
	</node>
	<node id="-58666" lat="60.5400583342" lon="11.3951722148">
		<tag k="name" v="Høgfallet" />
		<tag k="place" v="locality" />
		<tag k="ssr:stedsnr" v="646013" />
	</node>
	<node id="-58624" lat="60.5811388882" lon="11.5488111157">
		<tag k="name" v="Femtjennsmyren" />
		<tag k="natural" v="wetland" />
		<tag k="ssr:stedsnr" v="613159" />
	</node>
	<node id="-58601" lat="60.7462249964" lon="11.3935083268">
		<tag k="name" v="Husemarka" />
		<tag k="place" v="locality" />
		<tag k="ssr:stedsnr" v="603381" />
	</node>
	<node id="-58591" lat="60.5346027736" lon="11.4562138825">
		<tag k="name" v="Bjørnstadleiken" />
		<tag k="place" v="locality" />
		<tag k="ssr:stedsnr" v="600577" />
	</node>
	<node id="-58590" lat="60.5297166653" lon="11.446686118">
		<tag k="name" v="Gruvebergsmyra" />
		<tag k="natural" v="wetland" />
		<tag k="ssr:stedsnr" v="600572" />
	</node>
	<node id="-58589" lat="60.5174805565" lon="11.5000861137">
		<tag k="name" v="Lauvhaugen" />
		<tag k="place" v="locality" />
		<tag k="ssr:stedsnr" v="600541" />
	</node>
	<node id="-58588" lat="60.5044361098" lon="11.2735527809">
		<tag k="name" v="Gullfallet" />
		<tag k="place" v="locality" />
		<tag k="ssr:stedsnr" v="600276" />
	</node>
	<node id="-58587" lat="60.512941664" lon="11.2698944435">
		<tag k="name" v="Søndre Stabbursmyra" />
		<tag k="natural" v="wetland" />
		<tag k="ssr:stedsnr" v="600270" />
	</node>
	<node id="-58585" lat="60.590505559" lon="11.2953500017">
		<tag k="name" v="Brattli skog" />
		<tag k="place" v="locality" />
		<tag k="ssr:stedsnr" v="604436" />
	</node>
	<node id="-58575" lat="60.6252277758" lon="11.4925416631">
		<tag k="name" v="Kvitbergsmyra" />
		<tag k="natural" v="wetland" />
		<tag k="ssr:stedsnr" v="588702" />
	</node>
	<node id="-58574" lat="60.6039888926" lon="11.4940972198">
		<tag k="name" v="Gørrtjennsmyra" />
		<tag k="natural" v="wetland" />
		<tag k="ssr:stedsnr" v="588251" />
	</node>
	<node id="-58570" lat="60.489019442" lon="11.3265361134">
		<tag k="name" v="Damsmyra" />
		<tag k="natural" v="wetland" />
		<tag k="ssr:stedsnr" v="587970" />
	</node>
	<node id="-58553" lat="60.6823611078" lon="11.3327027801">
		<tag k="name" v="Veltmåsån" />
		<tag k="natural" v="wetland" />
		<tag k="ssr:stedsnr" v="587470" />
	</node>
	<node id="-58552" lat="60.6011194488" lon="11.3943805579">
		<tag k="name" v="Tullerudmyra" />
		<tag k="natural" v="wetland" />
		<tag k="ssr:stedsnr" v="587368" />
	</node>
	<node id="-58550" lat="60.5461694442" lon="11.382963895">
		<tag k="name" v="Kumyra" />
		<tag k="natural" v="wetland" />
		<tag k="ssr:stedsnr" v="587276" />
	</node>
	<node id="-59250" lat="60.5126305575" lon="11.4673472291">
		<tag k="name" v="Kryssmyra" />
		<tag k="natural" v="wetland" />
		<tag k="ssr:stedsnr" v="904565" />
	</node>
	<node id="-58532" lat="60.5648555583" lon="11.3510361142">
		<tag k="name" v="Knuksjøstykket" />
		<tag k="place" v="locality" />
		<tag k="ssr:stedsnr" v="586155" />
	</node>
	<node id="-58526" lat="60.4971138858" lon="11.2964999909">
		<tag k="name" v="Lomtjennsholene" />
		<tag k="place" v="locality" />
		<tag k="ssr:stedsnr" v="585238" />
	</node>
	<node id="-58523" lat="60.5248611069" lon="11.318136115">
		<tag k="name" v="Vakkermyra" />
		<tag k="natural" v="wetland" />
		<tag k="ssr:stedsnr" v="585192" />
	</node>
	<node id="-58518" lat="60.6621722219" lon="11.162258327">
		<tag k="name" v="Måsån" />
		<tag k="natural" v="wetland" />
		<tag k="ssr:stedsnr" v="585054" />
	</node>
	<node id="-58515" lat="60.6255499998" lon="11.1824388903">
		<tag k="name" v="Vardebergsmarka" />
		<tag k="place" v="locality" />
		<tag k="ssr:stedsnr" v="585024" />
	</node>
	<node id="-58514" lat="60.687894448" lon="11.5010138836">
		<tag k="name" v="Stensbymyra" />
		<tag k="natural" v="wetland" />
		<tag k="ssr:stedsnr" v="584717" />
	</node>
	<node id="-58513" lat="60.6765611119" lon="11.5484416695">
		<tag k="name" v="Lauvlimyra" />
		<tag k="natural" v="wetland" />
		<tag k="ssr:stedsnr" v="584268" />
	</node>
	<node id="-58471" lat="60.4959500034" lon="11.2943777823">
		<tag k="name" v="Lomtjennsmyrene" />
		<tag k="natural" v="wetland" />
		<tag k="ssr:stedsnr" v="552428" />
	</node>
	<node id="-57390" lat="60.6736611087" lon="11.3793361157">
		<tag k="name" v="Gråberget" />
		<tag k="place" v="locality" />
		<tag k="ssr:stedsnr" v="890319" />
	</node>
	<node id="-58451" lat="60.5748444422" lon="11.4215416747">
		<tag k="name" v="Høgmyrtranget" />
		<tag k="natural" v="wetland" />
		<tag k="ssr:stedsnr" v="544722" />
	</node>
	<node id="-58450" lat="60.5924055545" lon="11.4864861176">
		<tag k="name" v="Fugllyttmyra" />
		<tag k="natural" v="wetland" />
		<tag k="ssr:stedsnr" v="544704" />
	</node>
	<node id="-58445" lat="60.634397226" lon="11.3673722238">
		<tag k="name" v="Blakkmyra" />
		<tag k="natural" v="wetland" />
		<tag k="ssr:stedsnr" v="544376" />
	</node>
	<node id="-58444" lat="60.5452277751" lon="11.2712611091">
		<tag k="name" v="Langmyra" />
		<tag k="natural" v="wetland" />
		<tag k="ssr:stedsnr" v="544329" />
	</node>
	<node id="-58443" lat="60.631486109" lon="11.4025583283">
		<tag k="name" v="Sundåeftasmyra" />
		<tag k="natural" v="wetland" />
		<tag k="ssr:stedsnr" v="544289" />
	</node>
	<node id="-58442" lat="60.5229916666" lon="11.2981611102">
		<tag k="name" v="Fuglehyllmyrene" />
		<tag k="natural" v="wetland" />
		<tag k="ssr:stedsnr" v="544274" />
	</node>
	<node id="-58424" lat="60.5341222229" lon="11.472925005">
		<tag k="name" v="Stenbekkstykket" />
		<tag k="place" v="locality" />
		<tag k="ssr:stedsnr" v="540616" />
	</node>
	<node id="-58423" lat="60.539058332" lon="11.4187638931">
		<tag k="name" v="Sørliholene" />
		<tag k="place" v="locality" />
		<tag k="ssr:stedsnr" v="540609" />
	</node>
	<node id="-58404" lat="60.5678138868" lon="11.3819472301">
		<tag k="historic" v="shieling" />
		<tag k="name" v="Gåsaugsætra" />
		<tag k="place" v="locality" />
		<tag k="ssr:stedsnr" v="527436" />
	</node>
	<node id="-58400" lat="60.551730557" lon="11.3834222242">
		<tag k="name" v="Vestre Refsalsæterlia" />
		<tag k="place" v="locality" />
		<tag k="ssr:stedsnr" v="527164" />
	</node>
	<node id="-58398" lat="60.4807361091" lon="11.336602773">
		<tag k="name" v="Skimyra" />
		<tag k="natural" v="wetland" />
		<tag k="ssr:stedsnr" v="526969" />
	</node>
	<node id="-58394" lat="60.5477972224" lon="11.4308888928">
		<tag k="name" v="Nysæterlia" />
		<tag k="place" v="locality" />
		<tag k="ssr:stedsnr" v="526642" />
	</node>
	<node id="-58391" lat="60.6735000043" lon="11.2349333353">
		<tag k="name" v="Vangsmyra" />
		<tag k="natural" v="wetland" />
		<tag k="ssr:stedsnr" v="526568" />
	</node>
	<node id="-58382" lat="60.5917527745" lon="11.3456444351">
		<tag k="name" v="Haugsvanglia" />
		<tag k="place" v="locality" />
		<tag k="ssr:stedsnr" v="526187" />
	</node>
	<node id="-58381" lat="60.6059027748" lon="11.3026500023">
		<tag k="name" v="Styggmyra" />
		<tag k="natural" v="wetland" />
		<tag k="ssr:stedsnr" v="526183" />
	</node>
	<node id="-58376" lat="60.7018388903" lon="11.4328111158">
		<tag k="name" v="Kroktjennsmyra" />
		<tag k="natural" v="wetland" />
		<tag k="ssr:stedsnr" v="525831" />
	</node>
	<node id="-58375" lat="60.7060638917" lon="11.4265138922">
		<tag k="name" v="Haugmyra" />
		<tag k="natural" v="wetland" />
		<tag k="ssr:stedsnr" v="525832" />
	</node>
	<node id="-58368" lat="60.546077776" lon="11.3239194427">
		<tag k="name" v="Søthølet" />
		<tag k="place" v="locality" />
		<tag k="ssr:stedsnr" v="525251" />
	</node>
	<node id="-58366" lat="60.5364749968" lon="11.3301166577">
		<tag k="name" v="Grasbergsmyra" />
		<tag k="natural" v="wetland" />
		<tag k="ssr:stedsnr" v="525215" />
	</node>
	<node id="-58308" lat="60.4891750043" lon="11.2729972223">
		<tag k="name" v="Djupdalsmyra" />
		<tag k="natural" v="wetland" />
		<tag k="ssr:stedsnr" v="491396" />
	</node>
	<node id="-58304" lat="60.5018166666" lon="11.3464277805">
		<tag k="name" v="Skjerdenvanglia" />
		<tag k="place" v="locality" />
		<tag k="ssr:stedsnr" v="483961" />
	</node>
	<node id="-58301" lat="60.4769722199" lon="11.3445138875">
		<tag k="name" v="Nesekongmyra" />
		<tag k="natural" v="wetland" />
		<tag k="ssr:stedsnr" v="483925" />
	</node>
	<node id="-58299" lat="60.5968250031" lon="11.4933972228">
		<tag k="name" v="Hestmyra" />
		<tag k="natural" v="wetland" />
		<tag k="ssr:stedsnr" v="483753" />
	</node>
	<node id="-58294" lat="60.6566333358" lon="11.2632805513">
		<tag k="name" v="Stenåsen" />
		<tag k="place" v="locality" />
		<tag k="ssr:stedsnr" v="483535" />
	</node>
	<node id="-58290" lat="60.5483666684" lon="11.265555562">
		<tag k="name" v="Ringnesmarka" />
		<tag k="place" v="locality" />
		<tag k="ssr:stedsnr" v="483355" />
	</node>
	<node id="-58289" lat="60.7463500013" lon="11.3717444431">
		<tag k="name" v="Haugli" />
		<tag k="place" v="locality" />
		<tag k="ssr:stedsnr" v="482442" />
	</node>
	<node id="-58288" lat="60.743877774" lon="11.4188527772">
		<tag k="name" v="Gillermyra" />
		<tag k="natural" v="wetland" />
		<tag k="ssr:stedsnr" v="482398" />
	</node>
	<node id="-58286" lat="60.535663886" lon="11.2460333308">
		<tag k="name" v="Frangsæterberget" />
		<tag k="place" v="locality" />
		<tag k="ssr:stedsnr" v="482327" />
	</node>
	<node id="-58285" lat="60.5331499994" lon="11.2461361061">
		<tag k="historic" v="shieling" />
		<tag k="name" v="Frangsætra" />
		<tag k="place" v="locality" />
		<tag k="ssr:stedsnr" v="482328" />
	</node>
	<node id="-58272" lat="60.4863861141" lon="11.3117722314">
		<tag k="name" v="Granerudholen" />
		<tag k="place" v="locality" />
		<tag k="ssr:stedsnr" v="466962" />
	</node>
	<node id="-58270" lat="60.4845638898" lon="11.3155944511">
		<tag k="name" v="Søndre Haugen skog" />
		<tag k="place" v="locality" />
		<tag k="ssr:stedsnr" v="466956" />
	</node>
	<node id="-58268" lat="60.661494445" lon="11.4512888828">
		<tag k="name" v="Prestmyra" />
		<tag k="natural" v="wetland" />
		<tag k="ssr:stedsnr" v="466882" />
	</node>
	<node id="-58266" lat="60.6794499985" lon="11.4731416731">
		<tag k="name" v="Åmyra" />
		<tag k="natural" v="wetland" />
		<tag k="ssr:stedsnr" v="466867" />
	</node>
	<node id="-58260" lat="60.6245388924" lon="11.5198888919">
		<tag k="name" v="Tuppmyra" />
		<tag k="natural" v="wetland" />
		<tag k="ssr:stedsnr" v="466743" />
	</node>
	<node id="-58259" lat="60.6380861115" lon="11.4883527845">
		<tag k="name" v="Eftasmyra" />
		<tag k="natural" v="wetland" />
		<tag k="ssr:stedsnr" v="466685" />
	</node>
	<node id="-58258" lat="60.650366664" lon="11.5082055607">
		<tag k="name" v="Finnburmyra" />
		<tag k="natural" v="wetland" />
		<tag k="ssr:stedsnr" v="466675" />
	</node>
	<node id="-58257" lat="60.6514722204" lon="11.4986722223">
		<tag k="landuse" v="quarry" />
		<tag k="name" v="Finnburgruva" />
		<tag k="ssr:stedsnr" v="466672" />
	</node>
	<node id="-58256" lat="60.5499333371" lon="11.4346722249">
		<tag k="historic" v="shieling" />
		<tag k="name" v="Eltonvangen" />
		<tag k="place" v="locality" />
		<tag k="ssr:stedsnr" v="466644" />
	</node>
	<node id="-58245" lat="60.6541944408" lon="11.3811333363">
		<tag k="name" v="Kjeldalsmyra" />
		<tag k="natural" v="wetland" />
		<tag k="ssr:stedsnr" v="466298" />
	</node>
	<node id="-58239" lat="60.5857444417" lon="11.3720833307">
		<tag k="name" v="Endelausmyrene" />
		<tag k="natural" v="wetland" />
		<tag k="ssr:stedsnr" v="466163" />
	</node>
	<node id="-58232" lat="60.6792916667" lon="11.2415944422">
		<tag k="historic" v="shieling" />
		<tag k="name" v="Nedre Rønevangen" />
		<tag k="place" v="locality" />
		<tag k="ssr:stedsnr" v="465529" />
	</node>
	<node id="-58223" lat="60.6896638899" lon="11.4208388922">
		<tag k="name" v="Lomtjennsmyra" />
		<tag k="natural" v="wetland" />
		<tag k="ssr:stedsnr" v="465274" />
	</node>
	<node id="-58222" lat="60.5745750008" lon="11.3257805589">
		<tag k="historic" v="shieling" />
		<tag k="name" v="Hemstadvangen" />
		<tag k="place" v="locality" />
		<tag k="ssr:stedsnr" v="465165" />
	</node>
	<node id="-58215" lat="60.4876027743" lon="11.2679194367">
		<tag k="name" v="Sistmyra" />
		<tag k="natural" v="wetland" />
		<tag k="ssr:stedsnr" v="464274" />
	</node>
	<node id="-58212" lat="60.5259750007" lon="11.3277888865">
		<tag k="name" v="Tjennsmyra" />
		<tag k="natural" v="wetland" />
		<tag k="ssr:stedsnr" v="464218" />
	</node>
	<node id="-58210" lat="60.5373472184" lon="11.3197305477">
		<tag k="name" v="Multmyra" />
		<tag k="natural" v="wetland" />
		<tag k="ssr:stedsnr" v="464209" />
	</node>
	<node id="-58207" lat="60.5380111086" lon="11.3621916627">
		<tag k="name" v="Bergsjølia" />
		<tag k="place" v="locality" />
		<tag k="ssr:stedsnr" v="464006" />
	</node>
	<node id="-58206" lat="60.531225" lon="11.3627333314">
		<tag k="name" v="Kvernhushaugen" />
		<tag k="place" v="locality" />
		<tag k="ssr:stedsnr" v="464005" />
	</node>
	<node id="-58160" lat="60.6042250001" lon="11.2966333346">
		<tag k="name" v="Korsødegårdsmarka" />
		<tag k="place" v="locality" />
		<tag k="ssr:stedsnr" v="423464" />
	</node>
	<node id="-58159" lat="60.5881361131" lon="11.2900333416">
		<tag k="historic" v="shieling" />
		<tag k="name" v="Halstenrud" />
		<tag k="place" v="locality" />
		<tag k="ssr:stedsnr" v="423465" />
	</node>
	<node id="-58156" lat="60.5721083344" lon="11.2994722287">
		<tag k="name" v="Knasaberget" />
		<tag k="place" v="locality" />
		<tag k="ssr:stedsnr" v="423435" />
	</node>
	<node id="-58153" lat="60.6317305584" lon="11.3899944446">
		<tag k="loc_name" v="Brennhaugeftasmyra" />
		<tag k="name" v="Brenhaugeftasmyra" />
		<tag k="natural" v="wetland" />
		<tag k="ssr:stedsnr" v="423301" />
	</node>
	<node id="-58152" lat="60.6825527758" lon="11.4170861169">
		<tag k="name" v="Blekemyra" />
		<tag k="natural" v="wetland" />
		<tag k="ssr:stedsnr" v="423300" />
	</node>
	<node id="-58149" lat="60.7719694402" lon="11.1402555552">
		<tag k="name" v="Prestegårdshagan" />
		<tag k="place" v="locality" />
		<tag k="ssr:stedsnr" v="423254" />
	</node>
	<node id="-58147" lat="60.5281194417" lon="11.2609722286">
		<tag k="name" v="Busterud" />
		<tag k="place" v="locality" />
		<tag k="ssr:stedsnr" v="422320" />
	</node>
	<node id="-58136" lat="60.5343" lon="11.4689027836">
		<tag k="name" v="Favnemyra" />
		<tag k="natural" v="wetland" />
		<tag k="ssr:stedsnr" v="419614" />
	</node>
	<node id="-58135" lat="60.5323416658" lon="11.4397305608">
		<tag k="name" v="Høgbergsmyra" />
		<tag k="natural" v="wetland" />
		<tag k="ssr:stedsnr" v="419610" />
	</node>
	<node id="-58133" lat="60.5120250008" lon="11.4619999945">
		<tag k="name" v="Klypmyra" />
		<tag k="natural" v="wetland" />
		<tag k="ssr:stedsnr" v="419600" />
	</node>
	<node id="-58130" lat="60.6869416636" lon="11.134758341">
		<tag k="name" v="Ilemarka" />
		<tag k="place" v="locality" />
		<tag k="ssr:stedsnr" v="480072" />
	</node>
	<node id="-58126" lat="60.5610000006" lon="11.488041658">
		<tag k="name" v="Kjelkmyra" />
		<tag k="natural" v="wetland" />
		<tag k="ssr:stedsnr" v="479585" />
	</node>
	<node id="-59175" lat="60.5734527774" lon="11.5299027812">
		<tag k="name" v="Stenkoiemyra" />
		<tag k="natural" v="wetland" />
		<tag k="ssr:stedsnr" v="844597" />
	</node>
	<node id="-58081" lat="60.5251805588" lon="11.4285527712">
		<tag k="historic" v="shieling" />
		<tag k="name" v="Nøttestadvangen" />
		<tag k="place" v="locality" />
		<tag k="ssr:stedsnr" v="249499" />
	</node>
	<node id="-58078" lat="60.6078166675" lon="11.4081583415">
		<tag k="alt_name" v="Nysæter" />
		<tag k="historic" v="shieling" />
		<tag k="name" v="Nysætra" />
		<tag k="place" v="locality" />
		<tag k="ssr:stedsnr" v="249437" />
	</node>
	<node id="-58070" lat="60.7085999966" lon="11.2161138964">
		<tag k="name" v="Vålemyra" />
		<tag k="natural" v="wetland" />
		<tag k="ssr:stedsnr" v="241504" />
	</node>
	<node id="-58067" lat="60.5678527739" lon="11.2972083241">
		<tag k="name" v="Størhusberget" />
		<tag k="place" v="locality" />
		<tag k="ssr:stedsnr" v="241381" />
	</node>
	<node id="-58058" lat="60.5036861124" lon="11.3105388932">
		<tag k="name" v="Hagalimyra" />
		<tag k="natural" v="wetland" />
		<tag k="ssr:stedsnr" v="240954" />
	</node>
	<node id="-58057" lat="60.4728277766" lon="11.3267444534">
		<tag k="name" v="Ottvangholen" />
		<tag k="place" v="locality" />
		<tag k="ssr:stedsnr" v="240916" />
	</node>
	<node id="-58056" lat="60.5364555562" lon="11.2680694469">
		<tag k="name" v="Markstykket" />
		<tag k="place" v="locality" />
		<tag k="ssr:stedsnr" v="240339" />
	</node>
	<node id="-58054" lat="60.7715750037" lon="11.1460472245">
		<tag k="name" v="Petlundshagan" />
		<tag k="place" v="locality" />
		<tag k="ssr:stedsnr" v="240258" />
	</node>
	<node id="-58051" lat="60.6384722213" lon="11.4615333403">
		<tag k="name" v="Kumyra" />
		<tag k="natural" v="wetland" />
		<tag k="ssr:stedsnr" v="239658" />
	</node>
	<node id="-58035" lat="60.6185000005" lon="11.3735583282">
		<tag k="name" v="Gullfotholtet" />
		<tag k="place" v="locality" />
		<tag k="ssr:stedsnr" v="239341" />
	</node>
	<node id="-58034" lat="60.5407222214" lon="11.4513416751">
		<tag k="name" v="Kringlemyra" />
		<tag k="natural" v="wetland" />
		<tag k="ssr:stedsnr" v="237633" />
	</node>
	<node id="-58033" lat="60.5110666635" lon="11.4745583301">
		<tag k="name" v="Lurhølet" />
		<tag k="natural" v="wetland" />
		<tag k="ssr:stedsnr" v="237623" />
	</node>
	<node id="-58031" lat="60.5076388913" lon="11.2949583309">
		<tag k="name" v="Merramyra" />
		<tag k="natural" v="wetland" />
		<tag k="ssr:stedsnr" v="237263" />
	</node>
	<node id="-58029" lat="60.5152166638" lon="11.4511305554">
		<tag k="name" v="Østre Kjølen" />
		<tag k="place" v="locality" />
		<tag k="ssr:stedsnr" v="237406" />
	</node>
	<node id="-58026" lat="60.6668555528" lon="11.4524166638">
		<tag k="name" v="Tvelsmålstykket" />
		<tag k="place" v="locality" />
		<tag k="ssr:stedsnr" v="224868" />
	</node>
	<node id="-58025" lat="60.7061944456" lon="11.4830499975">
		<tag k="name" v="Storholtet" />
		<tag k="place" v="locality" />
		<tag k="ssr:stedsnr" v="224858" />
	</node>
	<node id="-58024" lat="60.6790944438" lon="11.44295833">
		<tag k="name" v="Slettmyra" />
		<tag k="natural" v="wetland" />
		<tag k="ssr:stedsnr" v="224843" />
	</node>
	<node id="-58015" lat="60.5510444401" lon="11.4108388867">
		<tag k="name" v="Remmenvangmyra" />
		<tag k="natural" v="wetland" />
		<tag k="ssr:stedsnr" v="224168" />
	</node>
	<node id="-58011" lat="60.600572222" lon="11.3728861131">
		<tag k="name" v="Fjelabumyra" />
		<tag k="natural" v="wetland" />
		<tag k="ssr:stedsnr" v="223368" />
	</node>
	<node id="-58010" lat="60.5917861141" lon="11.3873805617">
		<tag k="name" v="Tretjennsmyra" />
		<tag k="natural" v="wetland" />
		<tag k="ssr:stedsnr" v="223363" />
	</node>
	<node id="-58008" lat="60.5850361143" lon="11.3613722306">
		<tag k="historic" v="shieling" />
		<tag k="name" v="Gjertrudsvangen" />
		<tag k="place" v="locality" />
		<tag k="ssr:stedsnr" v="223190" />
	</node>
	<node id="-58003" lat="60.7036138901" lon="11.4529749989">
		<tag k="name" v="Slaggmyra" />
		<tag k="natural" v="wetland" />
		<tag k="ssr:stedsnr" v="222823" />
	</node>
	<node id="-57999" lat="60.574525002" lon="11.4629194355">
		<tag k="name" v="Syljusetmyra" />
		<tag k="natural" v="wetland" />
		<tag k="ssr:stedsnr" v="222700" />
	</node>
	<node id="-57998" lat="60.5792722215" lon="11.4724027838">
		<tag k="name" v="Bøverfallsmyra" />
		<tag k="natural" v="wetland" />
		<tag k="ssr:stedsnr" v="222695" />
	</node>
	<node id="-57991" lat="60.6868166701" lon="11.3941722207">
		<tag k="name" v="Langmyra" />
		<tag k="natural" v="wetland" />
		<tag k="ssr:stedsnr" v="222269" />
	</node>
	<node id="-57990" lat="60.6883111143" lon="11.3856194392">
		<tag k="name" v="Brynsmyra" />
		<tag k="natural" v="wetland" />
		<tag k="ssr:stedsnr" v="222270" />
	</node>
	<node id="-57986" lat="60.5339305577" lon="11.3857750025">
		<tag k="name" v="Lalumsvangryggen" />
		<tag k="place" v="locality" />
		<tag k="ssr:stedsnr" v="222014" />
	</node>
	<node id="-57979" lat="60.5628472214" lon="11.3332749939">
		<tag k="name" v="Knukstormyra" />
		<tag k="natural" v="wetland" />
		<tag k="ssr:stedsnr" v="221180" />
	</node>
	<node id="-57959" lat="60.7256916671" lon="11.2855611137">
		<tag k="name" v="Bjørnmyra" />
		<tag k="natural" v="wetland" />
		<tag k="ssr:stedsnr" v="189692" />
	</node>
	<node id="-57948" lat="60.6689166653" lon="11.2479055538">
		<tag k="name" v="Bjørnmyra" />
		<tag k="natural" v="wetland" />
		<tag k="ssr:stedsnr" v="189542" />
	</node>
	<node id="-57946" lat="60.6524361144" lon="11.2637361189">
		<tag k="name" v="Prestmarka" />
		<tag k="place" v="locality" />
		<tag k="ssr:stedsnr" v="189531" />
	</node>
	<node id="-57101" lat="60.6467999962" lon="11.3750250056">
		<tag k="name" v="Fossbergstormyra" />
		<tag k="natural" v="wetland" />
		<tag k="ssr:stedsnr" v="301260" />
	</node>
	<node id="-57916" lat="60.527538886" lon="11.2946722278">
		<tag k="name" v="Tiermyra" />
		<tag k="natural" v="wetland" />
		<tag k="ssr:stedsnr" v="181267" />
	</node>
	<node id="-57915" lat="60.5341222233" lon="11.2956277813">
		<tag k="name" v="Tømmerholen" />
		<tag k="place" v="locality" />
		<tag k="ssr:stedsnr" v="181266" />
	</node>
	<node id="-57914" lat="60.5067166649" lon="11.3387694355">
		<tag k="name" v="Nedre Dangelbu" />
		<tag k="place" v="locality" />
		<tag k="ssr:stedsnr" v="180948" />
	</node>
	<node id="-57913" lat="60.5144194447" lon="11.3127361197">
		<tag k="name" v="Postmyra" />
		<tag k="natural" v="wetland" />
		<tag k="ssr:stedsnr" v="180943" />
	</node>
	<node id="-57910" lat="60.5911027822" lon="11.4479333312">
		<tag k="name" v="Stormyra" />
		<tag k="natural" v="wetland" />
		<tag k="ssr:stedsnr" v="180701" />
	</node>
	<node id="-57906" lat="60.6501083368" lon="11.2870472158">
		<tag k="name" v="Kostvedholen" />
		<tag k="place" v="locality" />
		<tag k="ssr:stedsnr" v="180493" />
	</node>
	<node id="-57905" lat="60.5853083369" lon="11.2851138935">
		<tag k="historic" v="shieling" />
		<tag k="name" v="Jemlivangen" />
		<tag k="place" v="locality" />
		<tag k="ssr:stedsnr" v="180435" />
	</node>
	<node id="-57902" lat="60.5824361156" lon="11.2893333312">
		<tag k="name" v="Jemliskogen" />
		<tag k="place" v="locality" />
		<tag k="ssr:stedsnr" v="180397" />
	</node>
	<node id="-57899" lat="60.601522219" lon="11.2280611044">
		<tag k="name" v="Dillerudmarka" />
		<tag k="place" v="locality" />
		<tag k="ssr:stedsnr" v="180379" />
	</node>
	<node id="-57897" lat="60.54378333" lon="11.2967999994">
		<tag k="name" v="Filipmyra" />
		<tag k="natural" v="wetland" />
		<tag k="ssr:stedsnr" v="180331" />
	</node>
	<node id="-57893" lat="60.5370388873" lon="11.2788083384">
		<tag k="name" v="Prestsæterhøgda" />
		<tag k="place" v="locality" />
		<tag k="ssr:stedsnr" v="179321" />
	</node>
	<node id="-57892" lat="60.5413027787" lon="11.247652786">
		<tag k="name" v="Kleverudberget" />
		<tag k="place" v="locality" />
		<tag k="ssr:stedsnr" v="179317" />
	</node>
	<node id="-57878" lat="60.6146944437" lon="11.3512749937">
		<tag k="name" v="Tjennsmyra" />
		<tag k="natural" v="wetland" />
		<tag k="ssr:stedsnr" v="178363" />
	</node>
	<node id="-57877" lat="60.6105361096" lon="11.4173111133">
		<tag k="name" v="Tørrhalamyra" />
		<tag k="natural" v="wetland" />
		<tag k="ssr:stedsnr" v="178355" />
	</node>
	<node id="-57876" lat="60.6788388845" lon="11.1759888914">
		<tag k="name" v="Stor-Remarka" />
		<tag k="place" v="locality" />
		<tag k="ssr:stedsnr" v="177057" />
	</node>
	<node id="-57873" lat="60.5711805529" lon="11.5032916668">
		<tag k="name" v="Mosemyra" />
		<tag k="natural" v="wetland" />
		<tag k="ssr:stedsnr" v="176558" />
	</node>
	<node id="-57871" lat="60.5318777786" lon="11.5316888873">
		<tag k="name" v="Orreleikmyra" />
		<tag k="natural" v="wetland" />
		<tag k="ssr:stedsnr" v="176546" />
	</node>
	<node id="-57862" lat="60.6216638883" lon="11.4929694468">
		<tag k="name" v="Granbergsmyra" />
		<tag k="natural" v="wetland" />
		<tag k="ssr:stedsnr" v="163693" />
	</node>
	<node id="-57861" lat="60.6202277768" lon="11.5174444371">
		<tag k="name" v="Gråbendalsmyra" />
		<tag k="natural" v="wetland" />
		<tag k="ssr:stedsnr" v="163689" />
	</node>
	<node id="-57860" lat="60.6383138916" lon="11.5036000006">
		<tag k="name" v="Fuglesangmyra" />
		<tag k="natural" v="wetland" />
		<tag k="ssr:stedsnr" v="163639" />
	</node>
	<node id="-57857" lat="60.5506166663" lon="11.3783527693">
		<tag k="name" v="Folleknivberget" />
		<tag k="place" v="locality" />
		<tag k="ssr:stedsnr" v="163239" />
	</node>
	<node id="-57844" lat="60.5623694434" lon="11.4301138966">
		<tag k="name" v="Langbrennmyra" />
		<tag k="natural" v="wetland" />
		<tag k="ssr:stedsnr" v="162656" />
	</node>
	<node id="-57835" lat="60.5876388896" lon="11.3329388918">
		<tag k="name" v="Rugbråtelia" />
		<tag k="place" v="locality" />
		<tag k="ssr:stedsnr" v="162159" />
	</node>
	<node id="-57833" lat="60.5664416655" lon="11.4405416746">
		<tag k="name" v="Gråskallmyra" />
		<tag k="natural" v="wetland" />
		<tag k="ssr:stedsnr" v="161709" />
	</node>
	<node id="-57831" lat="60.7282138877" lon="11.2856499971">
		<tag k="name" v="Busvolmyrene" />
		<tag k="natural" v="wetland" />
		<tag k="ssr:stedsnr" v="161497" />
	</node>
	<node id="-57825" lat="60.5479444423" lon="11.3436916588">
		<tag k="name" v="Bergsjøholen" />
		<tag k="place" v="locality" />
		<tag k="ssr:stedsnr" v="161235" />
	</node>
	<node id="-57823" lat="60.5524111136" lon="11.3386">
		<tag k="name" v="Søndre Knukmyra" />
		<tag k="natural" v="wetland" />
		<tag k="ssr:stedsnr" v="161226" />
	</node>
	<node id="-57822" lat="60.5383500026" lon="11.3057944422">
		<tag k="name" v="Korpbergsmyra" />
		<tag k="natural" v="wetland" />
		<tag k="ssr:stedsnr" v="161209" />
	</node>
	<node id="-57819" lat="60.5769333306" lon="11.3185472217">
		<tag k="name" v="Hemstadvanghøgda" />
		<tag k="place" v="locality" />
		<tag k="ssr:stedsnr" v="161176" />
	</node>
	<node id="-57816" lat="60.6339388922" lon="11.1671722204">
		<tag k="historic" v="shieling" />
		<tag k="name" v="Ilevangen" />
		<tag k="place" v="locality" />
		<tag k="ssr:stedsnr" v="161043" />
	</node>
	<node id="-57814" lat="60.666466666" lon="11.1801499977">
		<tag k="name" v="Brattbakken" />
		<tag k="place" v="locality" />
		<tag k="ssr:stedsnr" v="161035" />
	</node>
	<node id="-57813" lat="60.5381111105" lon="11.4075388866">
		<tag k="name" v="Høgfallmyra" />
		<tag k="natural" v="wetland" />
		<tag k="ssr:stedsnr" v="161011" />
	</node>
	<node id="-57812" lat="60.5250499957" lon="11.4111777765">
		<tag k="name" v="Nøttestadfalla" />
		<tag k="place" v="locality" />
		<tag k="ssr:stedsnr" v="161007" />
	</node>
	<node id="-57811" lat="60.520788891" lon="11.3950472191">
		<tag k="name" v="Brentholen" />
		<tag k="place" v="locality" />
		<tag k="ssr:stedsnr" v="161004" />
	</node>
	<node id="-57770" lat="60.6898083371" lon="11.4386777745">
		<tag k="historic" v="shieling" />
		<tag k="name" v="Gaustadsætra" />
		<tag k="place" v="locality" />
		<tag k="ssr:stedsnr" v="128520" />
	</node>
	<node id="-57761" lat="60.5547500014" lon="11.3851250048">
		<tag k="historic" v="shieling" />
		<tag k="name" v="Refsalsætra" />
		<tag k="place" v="locality" />
		<tag k="ssr:stedsnr" v="128384" />
	</node>
	<node id="-57746" lat="60.6456472195" lon="11.1870388919">
		<tag k="name" v="Bytterud" />
		<tag k="place" v="locality" />
		<tag k="ssr:stedsnr" v="120459" />
	</node>
	<node id="-57741" lat="60.629483337" lon="11.2632111115">
		<tag k="name" v="Gjeldbergsmyra" />
		<tag k="natural" v="wetland" />
		<tag k="ssr:stedsnr" v="119508" />
	</node>
	<node id="-57734" lat="60.5570666688" lon="11.2952305591">
		<tag k="name" v="Langfalla" />
		<tag k="place" v="locality" />
		<tag k="ssr:stedsnr" v="119348" />
	</node>
	<node id="-57728" lat="60.5424888862" lon="11.26379167">
		<tag k="name" v="Sakslundmarka" />
		<tag k="place" v="locality" />
		<tag k="ssr:stedsnr" v="118300" />
	</node>
	<node id="-57726" lat="60.7099916674" lon="11.275677781">
		<tag k="name" v="Bjørnmyra" />
		<tag k="natural" v="wetland" />
		<tag k="ssr:stedsnr" v="117527" />
	</node>
	<node id="-57723" lat="60.6840861129" lon="11.1848472229">
		<tag k="name" v="Nøslemyra" />
		<tag k="natural" v="wetland" />
		<tag k="ssr:stedsnr" v="117068" />
	</node>
	<node id="-57719" lat="60.5343833366" lon="11.4320888868">
		<tag k="name" v="Høgbergsmyra" />
		<tag k="natural" v="wetland" />
		<tag k="ssr:stedsnr" v="116623" />
	</node>
	<node id="-57713" lat="60.5277583326" lon="11.4763833282">
		<tag k="name" v="Møkkadalsmyra" />
		<tag k="natural" v="wetland" />
		<tag k="ssr:stedsnr" v="116580" />
	</node>
	<node id="-57712" lat="60.5138999967" lon="11.4341722267">
		<tag k="name" v="Vestre Kjølen" />
		<tag k="place" v="locality" />
		<tag k="ssr:stedsnr" v="116396" />
	</node>
	<node id="-57710" lat="60.6016611085" lon="11.5578416727">
		<tag k="name" v="Busvolsætermyra" />
		<tag k="natural" v="wetland" />
		<tag k="ssr:stedsnr" v="103939" />
	</node>
	<node id="-57708" lat="60.6097277736" lon="11.5581972269">
		<tag k="name" v="Storholen" />
		<tag k="place" v="locality" />
		<tag k="ssr:stedsnr" v="103751" />
	</node>
	<node id="-57704" lat="60.5912111134" lon="11.5293777781">
		<tag k="name" v="Elgmyra" />
		<tag k="natural" v="wetland" />
		<tag k="ssr:stedsnr" v="103699" />
	</node>
	<node id="-57702" lat="60.6092222223" lon="11.5114777826">
		<tag k="name" v="Sørbråtemyra" />
		<tag k="natural" v="wetland" />
		<tag k="ssr:stedsnr" v="103695" />
	</node>
	<node id="-57693" lat="60.6748055552" lon="11.3575138835">
		<tag k="name" v="Sætersberget" />
		<tag k="place" v="locality" />
		<tag k="ssr:stedsnr" v="102529" />
	</node>
	<node id="-57688" lat="60.544022222" lon="11.368288881">
		<tag k="name" v="Pålshaugmyrene" />
		<tag k="natural" v="wetland" />
		<tag k="ssr:stedsnr" v="102300" />
	</node>
	<node id="-57681" lat="60.5694722206" lon="11.4071083277">
		<tag k="name" v="Fløtbakkholene" />
		<tag k="place" v="locality" />
		<tag k="ssr:stedsnr" v="102139" />
	</node>
	<node id="-57676" lat="60.6756249977" lon="11.209205564">
		<tag k="name" v="Sandholen" />
		<tag k="place" v="locality" />
		<tag k="ssr:stedsnr" v="101553" />
	</node>
	<node id="-57674" lat="60.7588444415" lon="11.3894972213">
		<tag k="name" v="Sagbrenna" />
		<tag k="place" v="locality" />
		<tag k="ssr:stedsnr" v="101436" />
	</node>
	<node id="-57673" lat="60.7513916684" lon="11.3831444514">
		<tag k="name" v="Svenbymyra" />
		<tag k="natural" v="wetland" />
		<tag k="ssr:stedsnr" v="101433" />
	</node>
	<node id="-57665" lat="60.6291083335" lon="11.5904527869">
		<tag k="name" v="Toerholen" />
		<tag k="place" v="locality" />
		<tag k="ssr:stedsnr" v="100927" />
	</node>
	<node id="-57656" lat="60.4855027754" lon="11.3018972139">
		<tag k="name" v="Jutsæterholen" />
		<tag k="place" v="locality" />
		<tag k="ssr:stedsnr" v="100249" />
	</node>
	<node id="-57653" lat="60.5520638865" lon="11.3120194474">
		<tag k="name" v="Gransjøstykket" />
		<tag k="place" v="locality" />
		<tag k="ssr:stedsnr" v="100195" />
	</node>
	<node id="-57651" lat="60.5307638907" lon="11.4049083254">
		<tag k="name" v="Kløftleiken" />
		<tag k="place" v="locality" />
		<tag k="ssr:stedsnr" v="100002" />
	</node>
	<node id="-57395" lat="60.754602776" lon="11.3853555569">
		<tag k="name" v="Sagmarka" />
		<tag k="place" v="locality" />
		<tag k="ssr:stedsnr" v="890448" />
	</node>
	<node id="-57619" lat="60.6520361096" lon="11.4792388832">
		<tag k="alt_name" v="Kjernlistormyra" />
		<tag k="name" v="Tjernlistormyra" />
		<tag k="natural" v="wetland" />
		<tag k="ssr:stedsnr" v="68327" />
	</node>
	<node id="-57599" lat="60.576577775" lon="11.5416527796">
		<tag k="name" v="Vakkermyra" />
		<tag k="natural" v="wetland" />
		<tag k="ssr:stedsnr" v="67165" />
	</node>
	<node id="-57592" lat="60.5737361068" lon="11.4428750034">
		<tag k="name" v="Tretjennsmyra" />
		<tag k="natural" v="wetland" />
		<tag k="ssr:stedsnr" v="59681" />
	</node>
	<node id="-57581" lat="60.5704249956" lon="11.2919472282">
		<tag k="name" v="Labbsvestykket" />
		<tag k="place" v="locality" />
		<tag k="ssr:stedsnr" v="59392" />
	</node>
	<node id="-57580" lat="60.5650527751" lon="11.2786361179">
		<tag k="name" v="Tørmatrudholen" />
		<tag k="place" v="locality" />
		<tag k="ssr:stedsnr" v="59386" />
	</node>
	<node id="-57572" lat="60.7305361075" lon="11.3337444396">
		<tag k="name" v="Flagstadmyra" />
		<tag k="natural" v="wetland" />
		<tag k="ssr:stedsnr" v="57384" />
	</node>
	<node id="-57564" lat="60.5261638928" lon="11.4484277818">
		<tag k="name" v="Kulpmyra" />
		<tag k="natural" v="wetland" />
		<tag k="ssr:stedsnr" v="55569" />
	</node>
	<node id="-57562" lat="60.513052781" lon="11.4848333298">
		<tag k="name" v="Krafshølmyra" />
		<tag k="natural" v="wetland" />
		<tag k="ssr:stedsnr" v="55543" />
	</node>
	<node id="-57561" lat="60.508533334" lon="11.285655547">
		<tag k="name" v="Høyensal" />
		<tag k="place" v="locality" />
		<tag k="ssr:stedsnr" v="55259" />
	</node>
	<node id="-59386" lat="60.565872223" lon="11.3825277807">
		<tag k="name" v="Gåsaugmyra" />
		<tag k="natural" v="wetland" />
		<tag k="ssr:stedsnr" v="952175" />
	</node>
	<node id="-57557" lat="60.679113888" lon="11.523583326">
		<tag k="name" v="Bjørnryggkjølen" />
		<tag k="natural" v="wetland" />
		<tag k="ssr:stedsnr" v="42832" />
	</node>
	<node id="-57555" lat="60.6855166706" lon="11.455219443">
		<tag k="name" v="Knavlebergsmyra" />
		<tag k="natural" v="wetland" />
		<tag k="ssr:stedsnr" v="42826" />
	</node>
	<node id="-57553" lat="60.6799166636" lon="11.4550555595">
		<tag k="name" v="Kvimosemyra" />
		<tag k="natural" v="wetland" />
		<tag k="ssr:stedsnr" v="42819" />
	</node>
	<node id="-57551" lat="60.7337388897" lon="11.4353305541">
		<tag k="name" v="Sollimyra" />
		<tag k="natural" v="wetland" />
		<tag k="ssr:stedsnr" v="42744" />
	</node>
	<node id="-57540" lat="60.556866671" lon="11.36453333">
		<tag k="name" v="Søndre Knukberget" />
		<tag k="place" v="locality" />
		<tag k="ssr:stedsnr" v="42158" />
	</node>
	<node id="-57539" lat="60.4934250027" lon="11.3312222226">
		<tag k="name" v="Raskerudstykket" />
		<tag k="place" v="locality" />
		<tag k="ssr:stedsnr" v="41975" />
	</node>
	<node id="-57537" lat="60.4928194448" lon="11.3278999952">
		<tag k="name" v="Agnetmyrene" />
		<tag k="natural" v="wetland" />
		<tag k="ssr:stedsnr" v="41965" />
	</node>
	<node id="-57533" lat="60.6674861127" lon="11.5918888856">
		<tag k="name" v="Storkjølen" />
		<tag k="natural" v="wetland" />
		<tag k="ssr:stedsnr" v="41894" />
	</node>
	<node id="-57528" lat="60.6516055523" lon="11.5245444522">
		<tag k="name" v="Sjutjennsmyra" />
		<tag k="natural" v="wetland" />
		<tag k="ssr:stedsnr" v="41657" />
	</node>
	<node id="-57520" lat="60.5737833315" lon="11.3813194375">
		<tag k="name" v="Gåsholsmyra" />
		<tag k="natural" v="wetland" />
		<tag k="ssr:stedsnr" v="41141" />
	</node>
	<node id="-57519" lat="60.582791669" lon="11.3857555549">
		<tag k="name" v="Tretjennskampen" />
		<tag k="place" v="locality" />
		<tag k="ssr:stedsnr" v="41155" />
	</node>
	<node id="-57512" lat="60.6835194484" lon="11.4033833281">
		<tag k="name" v="Bålåsmyra" />
		<tag k="natural" v="wetland" />
		<tag k="ssr:stedsnr" v="40321" />
	</node>
	<node id="-57501" lat="60.5441500025" lon="11.3034027855">
		<tag k="name" v="Stakamyra" />
		<tag k="natural" v="wetland" />
		<tag k="ssr:stedsnr" v="40222" />
	</node>
	<node id="-57370" lat="60.5090305519" lon="11.271302778">
		<tag k="name" v="Kumyrfalla" />
		<tag k="place" v="locality" />
		<tag k="ssr:stedsnr" v="479258" />
	</node>
	<node id="-57497" lat="60.652119448" lon="11.1604027742">
		<tag k="name" v="Slåmot" />
		<tag k="place" v="locality" />
		<tag k="ssr:stedsnr" v="40047" />
	</node>
	<node id="-57495" lat="60.5381777749" lon="11.4152833289">
		<tag k="name" v="Sørliholen" />
		<tag k="place" v="locality" />
		<tag k="ssr:stedsnr" v="40018" />
	</node>
	<node id="-57494" lat="60.5410472209" lon="11.4139611151">
		<tag k="name" v="Sørliholmyra" />
		<tag k="natural" v="wetland" />
		<tag k="ssr:stedsnr" v="40019" />
	</node>
	<node id="-57493" lat="60.5367499971" lon="11.3836472161">
		<tag k="name" v="Lalumsvangmyra" />
		<tag k="natural" v="wetland" />
		<tag k="ssr:stedsnr" v="40012" />
	</node>
	<node id="-57483" lat="60.5170638873" lon="11.4018333274">
		<tag k="name" v="Festningen" />
		<tag k="place" v="locality" />
		<tag k="ssr:stedsnr" v="40126" />
	</node>
	<node id="-57471" lat="60.6576250021" lon="11.4288611203">
		<tag k="name" v="Prestmarka" />
		<tag k="place" v="locality" />
		<tag k="ssr:stedsnr" v="7552" />
	</node>
	<node id="-57456" lat="60.5932916711" lon="11.402119447">
		<tag k="historic" v="shieling" />
		<tag k="name" v="Gaukilsætra" />
		<tag k="place" v="locality" />
		<tag k="ssr:stedsnr" v="7429" />
	</node>
	<node id="-57449" lat="60.523124999" lon="11.5319555586">
		<tag k="name" v="Hansmyra" />
		<tag k="natural" v="wetland" />
		<tag k="ssr:stedsnr" v="7260" />
	</node>
	<node id="-58725" lat="60.5797083359" lon="11.6267777706">
		<tag k="name" v="Gardmyra" />
		<tag k="natural" v="wetland" />
		<tag k="ssr:stedsnr" v="648746" />
	</node>
	<node id="-57428" lat="60.6901916681" lon="11.503375007">
		<tag k="name" v="Nilsbrannen" />
		<tag k="place" v="locality" />
		<tag k="ssr:stedsnr" v="892847" />
	</node>
	<node id="-57419" lat="60.6545222247" lon="11.5785388828">
		<tag k="name" v="Gransjøkjølen" />
		<tag k="natural" v="wetland" />
		<tag k="ssr:stedsnr" v="891909" />
	</node>
	<node id="-57418" lat="60.6689527736" lon="11.5643611162">
		<tag k="name" v="Høgfallsmyra" />
		<tag k="natural" v="wetland" />
		<tag k="ssr:stedsnr" v="891903" />
	</node>
	<node id="-57417" lat="60.6505999976" lon="11.4461638945">
		<tag k="name" v="Mollibakkberget" />
		<tag k="place" v="locality" />
		<tag k="ssr:stedsnr" v="891876" />
	</node>
	<node id="-57416" lat="60.6526833374" lon="11.4575277867">
		<tag k="historic" v="shieling" />
		<tag k="name" v="Gammelsætra" />
		<tag k="place" v="locality" />
		<tag k="ssr:stedsnr" v="891871" />
	</node>
	<node id="-57413" lat="60.6380333359" lon="11.5278083383">
		<tag k="name" v="Skoromyra" />
		<tag k="natural" v="wetland" />
		<tag k="ssr:stedsnr" v="891678" />
	</node>
	<node id="-57412" lat="60.5567444406" lon="11.4676694422">
		<tag k="name" v="Tronshattstormyra" />
		<tag k="natural" v="wetland" />
		<tag k="ssr:stedsnr" v="891657" />
	</node>
	<node id="-59458" lat="60.5213214076" lon="11.3667176909">
		<tag k="name" v="Vålbråten" />
		<tag k="place" v="locality" />
		<tag k="ssr:stedsnr" v="978606" />
	</node>
	<node id="-57409" lat="60.6009555514" lon="11.3370444394">
		<tag k="name" v="Haramyra" />
		<tag k="natural" v="wetland" />
		<tag k="ssr:stedsnr" v="891459" />
	</node>
	<node id="-57408" lat="60.5895999974" lon="11.4114416747">
		<tag k="name" v="Sørbråteberget" />
		<tag k="place" v="locality" />
		<tag k="ssr:stedsnr" v="891386" />
	</node>
	<node id="-57404" lat="60.5950999961" lon="11.3163083251">
		<tag k="name" v="Rønningsberget" />
		<tag k="place" v="locality" />
		<tag k="ssr:stedsnr" v="891233" />
	</node>
	<node id="-59445" lat="60.5039583295" lon="11.3452333278">
		<tag k="historic" v="shieling" />
		<tag k="name" v="Skjerdenvangen" />
		<tag k="place" v="locality" />
		<tag k="ssr:stedsnr" v="968955" />
	</node>
	<node id="-59444" lat="60.5031972227" lon="11.3273833258">
		<tag k="name" v="Store Spitalsmyra" />
		<tag k="natural" v="wetland" />
		<tag k="ssr:stedsnr" v="968952" />
	</node>
	<node id="-59443" lat="60.4766083354" lon="11.3264499946">
		<tag k="historic" v="shieling" />
		<tag k="name" v="Ottvangen" />
		<tag k="place" v="locality" />
		<tag k="ssr:stedsnr" v="968912" />
	</node>
	<node id="-59438" lat="60.5376833365" lon="11.2812611101">
		<tag k="name" v="Badstubergsmyra" />
		<tag k="natural" v="wetland" />
		<tag k="ssr:stedsnr" v="968340" />
	</node>
	<node id="-57386" lat="60.63379167" lon="11.6123416746">
		<tag k="name" v="Oppsangskjæra" />
		<tag k="place" v="locality" />
		<tag k="ssr:stedsnr" v="889935" />
	</node>
	<node id="-57384" lat="60.6948888926" lon="11.4494277751">
		<tag k="name" v="Vestre Knavleberget" />
		<tag k="place" v="locality" />
		<tag k="ssr:stedsnr" v="889838" />
	</node>
	<node id="-57372" lat="60.5381583336" lon="11.3766416648">
		<tag k="name" v="Åberget" />
		<tag k="place" v="locality" />
		<tag k="ssr:stedsnr" v="889008" />
	</node>
	<node id="-59418" lat="60.6135222229" lon="11.3692750057">
		<tag k="name" v="Krokmyra" />
		<tag k="natural" v="wetland" />
		<tag k="ssr:stedsnr" v="967349" />
	</node>
	<node id="-59415" lat="60.6102083334" lon="11.3878333298">
		<tag k="name" v="Bjørnmyra" />
		<tag k="natural" v="wetland" />
		<tag k="ssr:stedsnr" v="967322" />
	</node>
	<node id="-59414" lat="60.6863277787" lon="11.1265527855">
		<tag k="name" v="Hagen" />
		<tag k="place" v="locality" />
		<tag k="ssr:stedsnr" v="966052" />
	</node>
	<node id="-59410" lat="60.5363472204" lon="11.4620638826">
		<tag k="name" v="Bjørnstadvangmyra" />
		<tag k="natural" v="wetland" />
		<tag k="ssr:stedsnr" v="965633" />
	</node>
	<node id="-59409" lat="60.5412111111" lon="11.4370638928">
		<tag k="name" v="Eltonvangmyra" />
		<tag k="natural" v="wetland" />
		<tag k="ssr:stedsnr" v="965627" />
	</node>
	<node id="-59408" lat="60.5395388913" lon="11.459238886">
		<tag k="name" v="Bjørnstadvanghøgda" />
		<tag k="place" v="locality" />
		<tag k="ssr:stedsnr" v="965626" />
	</node>
	<node id="-59407" lat="60.529108332" lon="11.4597861027">
		<tag k="name" v="Stentjennsholene" />
		<tag k="place" v="locality" />
		<tag k="ssr:stedsnr" v="965620" />
	</node>
	<node id="-59406" lat="60.5305472201" lon="11.4973944461">
		<tag k="name" v="Kvernholen" />
		<tag k="place" v="locality" />
		<tag k="ssr:stedsnr" v="965590" />
	</node>
	<node id="-59405" lat="60.5075333347" lon="11.4544000076">
		<tag k="name" v="Finsemyra" />
		<tag k="natural" v="wetland" />
		<tag k="ssr:stedsnr" v="965416" />
	</node>
	<node id="-57356" lat="60.5584527748" lon="11.3908527792">
		<tag k="name" v="Refsalmyrene" />
		<tag k="natural" v="wetland" />
		<tag k="ssr:stedsnr" v="406156" />
	</node>
	<node id="-57355" lat="60.4883388893" lon="11.320594447">
		<tag k="name" v="Haugerholen" />
		<tag k="place" v="locality" />
		<tag k="ssr:stedsnr" v="405977" />
	</node>
	<node id="-57353" lat="60.4773611099" lon="11.3364472274">
		<tag k="name" v="Ottvangmyra" />
		<tag k="natural" v="wetland" />
		<tag k="ssr:stedsnr" v="405969" />
	</node>
	<node id="-57352" lat="60.668300002" lon="11.4893083336">
		<tag k="name" v="Høgberget" />
		<tag k="place" v="locality" />
		<tag k="ssr:stedsnr" v="405877" />
	</node>
</osm>
