<?xml version="1.0" encoding="UTF-8"?>
<osm generator="osmapis" version="0.6">
	<node id="-58879" lat="60.6042111146" lon="11.5985277708">
		<tag k="name" v="Rottjennsdalen" />
		<tag k="natural" v="valley" />
		<tag k="place" v="locality" />
		<tag k="ssr:stedsnr" v="709743" />
	</node>
	<node id="-58878" lat="60.6302416687" lon="11.5327472292">
		<tag k="name" v="Vestre Skoroberget" />
		<tag k="natural" v="hill" />
		<tag k="place" v="locality" />
		<tag k="ssr:stedsnr" v="709645" />
	</node>
	<node id="-59389" lat="60.6415694461" lon="11.5325083334">
		<tag k="name" v="Østre Skoroberget" />
		<tag k="natural" v="hill" />
		<tag k="place" v="locality" />
		<tag k="ssr:stedsnr" v="952621" />
	</node>
	<node id="-59385" lat="60.557208335" lon="11.4041694481">
		<tag k="fixme" v="consider natural=peak for the most distinct mountains in the district" />
		<tag k="name" v="Remmenvanghøgda" />
		<tag k="natural" v="hill" />
		<tag k="place" v="locality" />
		<tag k="ssr:stedsnr" v="952165" />
	</node>
	<node id="-57848" lat="60.7809222182" lon="11.3013555603">
		<tag k="name" v="Brynsåsen" />
		<tag k="natural" v="hill" />
		<tag k="place" v="locality" />
		<tag k="ssr:stedsnr" v="162840" />
	</node>
	<node id="-59383" lat="60.6825527736" lon="11.2607694383">
		<tag k="name" v="Sætermyrberget" />
		<tag k="natural" v="hill" />
		<tag k="place" v="locality" />
		<tag k="ssr:stedsnr" v="951597" />
	</node>
	<node id="-58357" lat="60.5257444431" lon="11.4413888962">
		<tag k="fixme" v="consider natural=peak for the most distinct mountains in the district" />
		<tag k="name" v="Gruveberget" />
		<tag k="natural" v="hill" />
		<tag k="place" v="locality" />
		<tag k="ssr:stedsnr" v="506991" />
	</node>
	<node id="-57332" lat="60.5809666656" lon="11.4632472136">
		<tag k="name" v="Bøverfallslia" />
		<tag k="natural" v="slope" />
		<tag k="place" v="locality" />
		<tag k="ssr:stedsnr" v="404690" />
	</node>
	<node id="-57329" lat="60.7062444445" lon="11.4225055581">
		<tag k="name" v="Purkryggen" />
		<tag k="natural" v="hill" />
		<tag k="place" v="locality" />
		<tag k="ssr:stedsnr" v="404289" />
	</node>
	<node id="-59376" lat="60.5992277741" lon="11.419083339">
		<tag k="name" v="Styggberget" />
		<tag k="place" v="locality" />
		<tag k="ssr:stedsnr" v="951337" />
	</node>
	<node id="-58862" lat="60.5956916657" lon="11.3650499918">
		<tag k="name" v="Nykjudalen" />
		<tag k="natural" v="valley" />
		<tag k="place" v="locality" />
		<tag k="ssr:stedsnr" v="709194" />
	</node>
	<node id="-58861" lat="60.6047416687" lon="11.3237166654">
		<tag k="name" v="Sagberget" />
		<tag k="natural" v="slope" />
		<tag k="place" v="locality" />
		<tag k="ssr:stedsnr" v="709193" />
	</node>
	<node id="-59372" lat="60.5734500017" lon="11.4155638878">
		<tag k="name" v="Puttskjæra" />
		<tag k="natural" v="slope" />
		<tag k="place" v="locality" />
		<tag k="ssr:stedsnr" v="951134" />
	</node>
	<node id="-59370" lat="60.5246555573" lon="11.5386833414">
		<tag k="name" v="Hansmyrdalen" />
		<tag k="natural" v="valley" />
		<tag k="place" v="locality" />
		<tag k="ssr:stedsnr" v="950747" />
	</node>
	<node id="-58857" lat="60.6789111096" lon="11.2218388879">
		<tag k="name" v="Korpberget" />
		<tag k="natural" v="slope" />
		<tag k="place" v="locality" />
		<tag k="ssr:stedsnr" v="708548" />
	</node>
	<node id="-58852" lat="60.568780552" lon="11.4280111027">
		<tag k="name" v="Bjertingstadmota" />
		<tag k="natural" v="hill" />
		<tag k="place" v="locality" />
		<tag k="ssr:stedsnr" v="707733" />
	</node>
	<node id="-58619" lat="60.5051777759" lon="11.3138416658">
		<tag k="name" v="Hagalia" />
		<tag k="natural" v="slope" />
		<tag k="place" v="locality" />
		<tag k="ssr:stedsnr" v="604959" />
	</node>
	<node id="-57310" lat="60.6376055532" lon="11.2793499959">
		<tag k="name" v="Linnberget" />
		<tag k="natural" v="hill" />
		<tag k="place" v="locality" />
		<tag k="ssr:stedsnr" v="384967" />
	</node>
	<node id="-58843" lat="60.5238305532" lon="11.3413333291">
		<tag k="name" v="Vangshøgda" />
		<tag k="natural" v="hill" />
		<tag k="place" v="locality" />
		<tag k="ssr:stedsnr" v="707228" />
	</node>
	<node id="-58842" lat="60.5239638856" lon="11.3318861151">
		<tag k="name" v="Knappen" />
		<tag k="natural" v="hill" />
		<tag k="place" v="locality" />
		<tag k="ssr:stedsnr" v="707227" />
	</node>
	<node id="-58841" lat="60.5345972192" lon="11.3403750014">
		<tag k="name" v="Fjellsbekklia" />
		<tag k="natural" v="slope" />
		<tag k="place" v="locality" />
		<tag k="ssr:stedsnr" v="707217" />
	</node>
	<node id="-58840" lat="60.540988893" lon="11.351391663">
		<tag k="name" v="Nordre Bergsjølia" />
		<tag k="natural" v="slope" />
		<tag k="place" v="locality" />
		<tag k="ssr:stedsnr" v="707214" />
	</node>
	<node id="-59351" lat="60.5151527754" lon="11.4092222194">
		<tag k="name" v="Muslivanglia" />
		<tag k="natural" v="slope" />
		<tag k="place" v="locality" />
		<tag k="ssr:stedsnr" v="950142" />
	</node>
	<node id="-58838" lat="60.5695222227" lon="11.3339666726">
		<tag k="name" v="Nordre Knuklia" />
		<tag k="natural" v="slope" />
		<tag k="place" v="locality" />
		<tag k="ssr:stedsnr" v="707173" />
	</node>
	<node id="-58361" lat="60.6433805523" lon="11.1645972131">
		<tag k="fixme" v="consider natural=peak for the most distinct mountains in the district" />
		<tag k="name" v="Port Arthur" />
		<tag k="natural" v="hill" />
		<tag k="place" v="locality" />
		<tag k="ssr:stedsnr" v="525045" />
	</node>
	<node id="-59347" lat="60.5168416663" lon="11.4914527692">
		<tag k="name" v="Søndre Rasaberget" />
		<tag k="natural" v="slope" />
		<tag k="place" v="locality" />
		<tag k="ssr:stedsnr" v="949162" />
	</node>
	<node id="-57296" lat="60.6994999963" lon="11.3848805595">
		<tag k="name" v="Tjennsåsberget" />
		<tag k="natural" v="hill" />
		<tag k="place" v="locality" />
		<tag k="ssr:stedsnr" v="371533" />
	</node>
	<node id="-58318" lat="60.6821750029" lon="11.4950749993">
		<tag k="fixme" v="consider natural=peak for the most distinct mountains in the district" />
		<tag k="name" v="Sildtjennsberget" />
		<tag k="natural" v="hill" />
		<tag k="place" v="locality" />
		<tag k="ssr:stedsnr" v="492341" />
	</node>
	<node id="-58828" lat="60.5442777778" lon="11.5194805576">
		<tag k="name" v="Østre Rasalia" />
		<tag k="natural" v="slope" />
		<tag k="place" v="locality" />
		<tag k="ssr:stedsnr" v="706150" />
	</node>
	<node id="-58826" lat="60.524333331" lon="11.479325">
		<tag k="name" v="Vestre Rasaberget" />
		<tag k="natural" v="slope" />
		<tag k="place" v="locality" />
		<tag k="ssr:stedsnr" v="706147" />
	</node>
	<node id="-58359" lat="60.5215333295" lon="11.4849777707">
		<tag k="alt_name" v="Rasaberget" />
		<tag k="fixme" v="consider natural=peak for the most distinct mountains in the district" />
		<tag k="name" v="Svartåsen" />
		<tag k="natural" v="hill" />
		<tag k="place" v="locality" />
		<tag k="ssr:stedsnr" v="524142" />
	</node>
	<node id="-58824" lat="60.6203222186" lon="11.5594861179">
		<tag k="name" v="Målåvassberget" />
		<tag k="natural" v="hill" />
		<tag k="place" v="locality" />
		<tag k="ssr:stedsnr" v="705304" />
	</node>
	<node id="-57798" lat="60.7203500034" lon="11.427602787">
		<tag k="alt_name" v="Godhavnsberget" />
		<tag k="name" v="Godhamnsberget" />
		<tag k="natural" v="hill" />
		<tag k="place" v="locality" />
		<tag k="ssr:stedsnr" v="128723" />
	</node>
	<node id="-57284" lat="60.5549500033" lon="11.3488583357">
		<tag k="name" v="Fugleleikhøgda" />
		<tag k="natural" v="hill" />
		<tag k="place" v="locality" />
		<tag k="ssr:stedsnr" v="371380" />
	</node>
	<node id="-58307" lat="60.4961805585" lon="11.2597583333">
		<tag k="name" v="Fallhøgda" />
		<tag k="natural" v="hill" />
		<tag k="place" v="locality" />
		<tag k="ssr:stedsnr" v="491425" />
	</node>
	<node id="-57281" lat="60.5911749979" lon="11.3198861052">
		<tag k="name" v="Rundhaugen" />
		<tag k="natural" v="hill" />
		<tag k="place" v="locality" />
		<tag k="ssr:stedsnr" v="371363" />
	</node>
	<node id="-58303" lat="60.5196083334" lon="11.3168000053">
		<tag k="fixme" v="consider natural=peak for the most distinct mountains in the district" />
		<tag k="name" v="Søndre Romsæterberget" />
		<tag k="natural" v="hill" />
		<tag k="place" v="locality" />
		<tag k="ssr:stedsnr" v="483959" />
	</node>
	<node id="-58578" lat="60.6239388863" lon="11.5636611046">
		<tag k="name" v="Kråkhornberget" />
		<tag k="natural" v="hill" />
		<tag k="place" v="locality" />
		<tag k="ssr:stedsnr" v="588774" />
	</node>
	<node id="-58810" lat="60.6807861067" lon="11.4420527835">
		<tag k="name" v="Gaustadsæterberget" />
		<tag k="natural" v="hill" />
		<tag k="place" v="locality" />
		<tag k="ssr:stedsnr" v="675613" />
	</node>
	<node id="-57362" lat="60.6119944476" lon="11.6022083415">
		<tag k="name" v="Midtberget" />
		<tag k="natural" v="hill" />
		<tag k="place" v="locality" />
		<tag k="ssr:stedsnr" v="406764" />
	</node>
	<node id="-58356" lat="60.5080083318" lon="11.4530166577">
		<tag k="name" v="Svartkjølen" />
		<tag k="natural" v="hill" />
		<tag k="place" v="locality" />
		<tag k="ssr:stedsnr" v="506990" />
	</node>
	<node id="-57929" lat="60.5820833332" lon="11.3294305645">
		<tag k="name" v="Svenskerudhøgda" />
		<tag k="natural" v="hill" />
		<tag k="place" v="locality" />
		<tag k="ssr:stedsnr" v="189353" />
	</node>
	<node id="-57981" lat="60.490286109" lon="11.2856666585">
		<tag k="name" v="Jutsæterlia" />
		<tag k="natural" v="slope" />
		<tag k="place" v="locality" />
		<tag k="ssr:stedsnr" v="221243" />
	</node>
	<node id="-57266" lat="60.5061305536" lon="11.3176083331">
		<tag k="name" v="Halvorstudalen" />
		<tag k="natural" v="valley" />
		<tag k="place" v="locality" />
		<tag k="ssr:stedsnr" v="362942" />
	</node>
	<node id="-57264" lat="60.468144446" lon="11.3144944373">
		<tag k="name" v="Lågfalldalen" />
		<tag k="natural" v="valley" />
		<tag k="place" v="locality" />
		<tag k="ssr:stedsnr" v="362893" />
	</node>
	<node id="-58287" lat="60.6104055515" lon="11.396947223">
		<tag k="name" v="Hagaberget" />
		<tag k="natural" v="hill" />
		<tag k="place" v="locality" />
		<tag k="ssr:stedsnr" v="482360" />
	</node>
	<node id="-58284" lat="60.5181722178" lon="11.3630944478">
		<tag k="name" v="Søndre Tempellia" />
		<tag k="natural" v="slope" />
		<tag k="place" v="locality" />
		<tag k="ssr:stedsnr" v="482108" />
	</node>
	<node id="-59307" lat="60.6066250028" lon="11.4436444469">
		<tag k="name" v="Skjesæterberget" />
		<tag k="natural" v="hill" />
		<tag k="place" v="locality" />
		<tag k="ssr:stedsnr" v="917380" />
	</node>
	<node id="-57258" lat="60.5989361116" lon="11.4264416737">
		<tag k="name" v="Sløbekklia" />
		<tag k="natural" v="slope" />
		<tag k="place" v="locality" />
		<tag k="ssr:stedsnr" v="362717" />
	</node>
	<node id="-58865" lat="60.5959027821" lon="11.305263898">
		<tag k="name" v="Krokbakkberget" />
		<tag k="natural" v="hill" />
		<tag k="place" v="locality" />
		<tag k="ssr:stedsnr" v="709213" />
	</node>
	<node id="-58788" lat="60.5889527737" lon="11.3599638874">
		<tag k="fixme" v="consider natural=peak for the most distinct mountains in the district" />
		<tag k="name" v="Gjertrudkampen" />
		<tag k="natural" v="hill" />
		<tag k="place" v="locality" />
		<tag k="ssr:stedsnr" v="674363" />
	</node>
	<node id="-59299" lat="60.5901388874" lon="11.5886222163">
		<tag k="name" v="Torthaugen" />
		<tag k="natural" v="hill" />
		<tag k="place" v="locality" />
		<tag k="ssr:stedsnr" v="917129" />
	</node>
	<node id="-59297" lat="60.4782083365" lon="11.2938138892">
		<tag k="name" v="Lysjøsæterhøgda" />
		<tag k="natural" v="hill" />
		<tag k="place" v="locality" />
		<tag k="ssr:stedsnr" v="916409" />
	</node>
	<node id="-58269" lat="60.6578333297" lon="11.5951555598">
		<tag k="name" v="Maurberget" />
		<tag k="natural" v="hill" />
		<tag k="place" v="locality" />
		<tag k="ssr:stedsnr" v="466919" />
	</node>
	<node id="-59291" lat="60.5130527817" lon="11.3049027766">
		<tag k="name" v="Hagalia" />
		<tag k="natural" v="slope" />
		<tag k="place" v="locality" />
		<tag k="ssr:stedsnr" v="908972" />
	</node>
	<node id="-57753" lat="60.5923222205" lon="11.5265416668">
		<tag k="fixme" v="consider natural=peak for the most distinct mountains in the district" />
		<tag k="name" v="Villberget" />
		<tag k="natural" v="hill" />
		<tag k="place" v="locality" />
		<tag k="ssr:stedsnr" v="128131" />
	</node>
	<node id="-58775" lat="60.5254083299" lon="11.2910472218">
		<tag k="name" v="Ørbekkdalen" />
		<tag k="natural" v="valley" />
		<tag k="place" v="locality" />
		<tag k="ssr:stedsnr" v="666273" />
	</node>
	<node id="-58773" lat="60.4637416641" lon="11.3294833258">
		<tag k="name" v="Ottlia" />
		<tag k="natural" v="slope" />
		<tag k="place" v="locality" />
		<tag k="ssr:stedsnr" v="665916" />
	</node>
	<node id="-58772" lat="60.4650194483" lon="11.310602783">
		<tag k="name" v="Finnberget" />
		<tag k="natural" v="hill" />
		<tag k="place" v="locality" />
		<tag k="ssr:stedsnr" v="665915" />
	</node>
	<node id="-57234" lat="60.6063472208" lon="11.3971194383">
		<tag k="name" v="Bjørnryggen" />
		<tag k="natural" v="hill" />
		<tag k="place" v="locality" />
		<tag k="ssr:stedsnr" v="360325" />
	</node>
	<node id="-58389" lat="60.6171277743" lon="11.2761527837">
		<tag k="name" v="Moberget" />
		<tag k="natural" v="hill" />
		<tag k="place" v="locality" />
		<tag k="ssr:stedsnr" v="526428" />
	</node>
	<node id="-59280" lat="60.6460277774" lon="11.297011111">
		<tag k="name" v="Solvangsberget" />
		<tag k="natural" v="hill" />
		<tag k="place" v="locality" />
		<tag k="ssr:stedsnr" v="908533" />
	</node>
	<node id="-57743" lat="60.5761666696" lon="11.4442111037">
		<tag k="name" v="Spillmannsberget" />
		<tag k="natural" v="hill" />
		<tag k="place" v="locality" />
		<tag k="ssr:stedsnr" v="119718" />
	</node>
	<node id="-57742" lat="60.6044027739" lon="11.4529583334">
		<tag k="name" v="Sutterberget" />
		<tag k="natural" v="hill" />
		<tag k="place" v="locality" />
		<tag k="ssr:stedsnr" v="119710" />
	</node>
	<node id="-58434" lat="60.6857388929" lon="11.4614888891">
		<tag k="alt_name" v="Knavleberget" />
		<tag k="name" v="Knavlberget" />
		<tag k="natural" v="hill" />
		<tag k="place" v="locality" />
		<tag k="ssr:stedsnr" v="542538" />
	</node>
	<node id="-58762" lat="60.5460305563" lon="11.2771055583">
		<tag k="name" v="Rundtomhaugen" />
		<tag k="natural" v="hill" />
		<tag k="place" v="locality" />
		<tag k="ssr:stedsnr" v="665388" />
	</node>
	<node id="-58007" lat="60.5947694411" lon="11.3699583305">
		<tag k="name" v="Koieberget" />
		<tag k="natural" v="hill" />
		<tag k="place" v="locality" />
		<tag k="ssr:stedsnr" v="223188" />
	</node>
	<node id="-59272" lat="60.6370611115" lon="11.3669722145">
		<tag k="name" v="Grasberget" />
		<tag k="natural" v="hill" />
		<tag k="place" v="locality" />
		<tag k="ssr:stedsnr" v="908300" />
	</node>
	<node id="-58247" lat="60.6630583359" lon="11.3594611063">
		<tag k="name" v="Kongsrudberget" />
		<tag k="natural" v="slope" />
		<tag k="place" v="locality" />
		<tag k="ssr:stedsnr" v="466322" />
	</node>
	<node id="-57222" lat="60.6031972178" lon="11.5389888976">
		<tag k="name" v="Kerstitjennberget" />
		<tag k="natural" v="hill" />
		<tag k="place" v="locality" />
		<tag k="ssr:stedsnr" v="345965" />
	</node>
	<node id="-57215" lat="60.5888722246" lon="11.5316361061">
		<tag k="name" v="Grevlingberget" />
		<tag k="natural" v="hill" />
		<tag k="place" v="locality" />
		<tag k="ssr:stedsnr" v="345696" />
	</node>
	<node id="-57214" lat="60.6615749995" lon="11.4997222164">
		<tag k="name" v="Vestre Holmtjennsberget" />
		<tag k="natural" v="hill" />
		<tag k="place" v="locality" />
		<tag k="ssr:stedsnr" v="345623" />
	</node>
	<node id="-58237" lat="60.5760222203" lon="11.3640749998">
		<tag k="name" v="Svartputtlia" />
		<tag k="natural" v="slope" />
		<tag k="place" v="locality" />
		<tag k="ssr:stedsnr" v="466139" />
	</node>
	<node id="-58747" lat="60.6343416629" lon="11.4729138965">
		<tag k="name" v="Jørnsmyrberget" />
		<tag k="natural" v="slope" />
		<tag k="place" v="locality" />
		<tag k="ssr:stedsnr" v="663659" />
	</node>
	<node id="-59258" lat="60.7167055533" lon="11.4111388929">
		<tag k="name" v="Styggberget" />
		<tag k="natural" v="hill" />
		<tag k="place" v="locality" />
		<tag k="ssr:stedsnr" v="906403" />
	</node>
	<node id="-57721" lat="60.6791638914" lon="11.124797216">
		<tag k="name" v="Ilesveberget" />
		<tag k="natural" v="hill" />
		<tag k="place" v="locality" />
		<tag k="ssr:stedsnr" v="117059" />
	</node>
	<node id="-57720" lat="60.5393777749" lon="11.4278083246">
		<tag k="name" v="Eltonhøgberget" />
		<tag k="natural" v="hill" />
		<tag k="place" v="locality" />
		<tag k="ssr:stedsnr" v="116625" />
	</node>
	<node id="-58743" lat="60.7389138869" lon="11.3083138965">
		<tag k="name" v="Brattvollsberget" />
		<tag k="natural" v="hill" />
		<tag k="place" v="locality" />
		<tag k="ssr:stedsnr" v="663402" />
	</node>
	<node id="-57716" lat="60.5827027761" lon="11.5002305636">
		<tag k="name" v="Malungslia" />
		<tag k="natural" v="slope" />
		<tag k="place" v="locality" />
		<tag k="ssr:stedsnr" v="116595" />
	</node>
	<node id="-58739" lat="60.5200277742" lon="11.4738361064">
		<tag k="name" v="Møkkadalslia" />
		<tag k="natural" v="slope" />
		<tag k="place" v="locality" />
		<tag k="ssr:stedsnr" v="661565" />
	</node>
	<node id="-58738" lat="60.5671361089" lon="11.4795250064">
		<tag k="fixme" v="consider natural=peak for the most distinct mountains in the district" />
		<tag k="name" v="Kjelkberget" />
		<tag k="natural" v="hill" />
		<tag k="place" v="locality" />
		<tag k="ssr:stedsnr" v="661551" />
	</node>
	<node id="-58737" lat="60.5018166671" lon="11.2690861135">
		<tag k="name" v="Lihøgda" />
		<tag k="natural" v="hill" />
		<tag k="place" v="locality" />
		<tag k="ssr:stedsnr" v="661251" />
	</node>
	<node id="-58218" lat="60.6373055577" lon="11.3504166657">
		<tag k="name" v="Kuruddalen" />
		<tag k="natural" v="valley" />
		<tag k="place" v="locality" />
		<tag k="ssr:stedsnr" v="464360" />
	</node>
	<node id="-58217" lat="60.4987555551" lon="11.2502444461">
		<tag k="name" v="Nedre Fallhøgda" />
		<tag k="natural" v="hill" />
		<tag k="place" v="locality" />
		<tag k="ssr:stedsnr" v="464279" />
	</node>
	<node id="-57192" lat="60.5397888933" lon="11.3014111121">
		<tag k="name" v="Filiphaugen" />
		<tag k="natural" v="hill" />
		<tag k="place" v="locality" />
		<tag k="ssr:stedsnr" v="343198" />
	</node>
	<node id="-57703" lat="60.6177888929" lon="11.5331277847">
		<tag k="name" v="Nordrumsdalen" />
		<tag k="natural" v="valley" />
		<tag k="place" v="locality" />
		<tag k="ssr:stedsnr" v="103696" />
	</node>
	<node id="-59238" lat="60.6758916682" lon="11.2473777748">
		<tag k="name" v="Kolomoen" />
		<tag k="place" v="locality" />
		<tag k="ssr:stedsnr" v="857581" />
	</node>
	<node id="-57701" lat="60.6570194458" lon="11.5701777787">
		<tag k="fixme" v="consider natural=peak for the most distinct mountains in the district" />
		<tag k="name" v="Østre Stentjennsberget" />
		<tag k="natural" v="hill" />
		<tag k="place" v="locality" />
		<tag k="ssr:stedsnr" v="103282" />
	</node>
	<node id="-59236" lat="60.68609167" lon="11.388399999">
		<tag k="alt_name" v="Josvaberget" />
		<tag k="name" v="Josveberget" />
		<tag k="natural" v="hill" />
		<tag k="place" v="locality" />
		<tag k="ssr:stedsnr" v="857560" />
	</node>
	<node id="-59235" lat="60.6834833349" lon="11.3965583415">
		<tag k="alt_name" v="Bålåsberget" />
		<tag k="name" v="Bolåsberget" />
		<tag k="natural" v="hill" />
		<tag k="place" v="locality" />
		<tag k="ssr:stedsnr" v="857551" />
	</node>
	<node id="-57185" lat="60.4991777793" lon="11.2460222167">
		<tag k="name" v="Solheimsberget" />
		<tag k="natural" v="hill" />
		<tag k="place" v="locality" />
		<tag k="ssr:stedsnr" v="342219" />
	</node>
	<node id="-58208" lat="60.6580111111" lon="11.1724249911">
		<tag k="name" v="Ingvaldhaugen" />
		<tag k="natural" v="hill" />
		<tag k="place" v="locality" />
		<tag k="ssr:stedsnr" v="464046" />
	</node>
	<node id="-58000" lat="60.5740722254" lon="11.4602444433">
		<tag k="name" v="Syljusetberget" />
		<tag k="natural" v="hill" />
		<tag k="place" v="locality" />
		<tag k="ssr:stedsnr" v="222699" />
	</node>
	<node id="-57699" lat="60.4967861126" lon="11.3140166709">
		<tag k="name" v="Spitalslia" />
		<tag k="natural" v="slope" />
		<tag k="place" v="locality" />
		<tag k="ssr:stedsnr" v="102972" />
	</node>
	<node id="-58711" lat="60.593038887" lon="11.3192833326">
		<tag k="name" v="Rundhauglia" />
		<tag k="natural" v="slope" />
		<tag k="place" v="locality" />
		<tag k="ssr:stedsnr" v="648223" />
	</node>
	<node id="-58709" lat="60.583099999" lon="11.4135638883">
		<tag k="name" v="Kniperuddalen" />
		<tag k="natural" v="valley" />
		<tag k="place" v="locality" />
		<tag k="ssr:stedsnr" v="648185" />
	</node>
	<node id="-58708" lat="60.5692249979" lon="11.3629000032">
		<tag k="name" v="Svartdalen" />
		<tag k="natural" v="valley" />
		<tag k="place" v="locality" />
		<tag k="ssr:stedsnr" v="648176" />
	</node>
	<node id="-57924" lat="60.64413056" lon="11.6105916631">
		<tag k="fixme" v="multiple name tags, choose one and add the other to alt_name" />
		<tag k="name" v="Gransjøberget;Hølsjøberget" />
		<tag k="natural" v="hill" />
		<tag k="place" v="locality" />
		<tag k="ssr:stedsnr" v="189290" />
	</node>
	<node id="-57485" lat="60.5618388916" lon="11.3439027828">
		<tag k="name" v="Søndre Knuklia" />
		<tag k="natural" v="slope" />
		<tag k="place" v="locality" />
		<tag k="ssr:stedsnr" v="39166" />
	</node>
	<node id="-59211" lat="60.4689638867" lon="11.321838894">
		<tag k="name" v="Vesleaugberget" />
		<tag k="natural" v="hill" />
		<tag k="place" v="locality" />
		<tag k="ssr:stedsnr" v="848887" />
	</node>
	<node id="-57671" lat="60.6073638903" lon="11.2882916584">
		<tag k="fixme" v="consider natural=peak for the most distinct mountains in the district" />
		<tag k="name" v="Korsødegårdsberget" />
		<tag k="natural" v="hill" />
		<tag k="place" v="locality" />
		<tag k="ssr:stedsnr" v="101418" />
	</node>
	<node id="-57669" lat="60.6934194459" lon="11.3743749921">
		<tag k="fixme" v="consider natural=peak for the most distinct mountains in the district" />
		<tag k="name" v="Ormåsen" />
		<tag k="natural" v="hill" />
		<tag k="place" v="locality" />
		<tag k="ssr:stedsnr" v="101269" />
	</node>
	<node id="-57654" lat="60.5597916637" lon="11.3384416683">
		<tag k="name" v="Knukhøgda" />
		<tag k="natural" v="hill" />
		<tag k="place" v="locality" />
		<tag k="ssr:stedsnr" v="100196" />
	</node>
	<node id="-59202" lat="60.6331611115" lon="11.2075055517">
		<tag k="name" v="Kvernhusberget" />
		<tag k="natural" v="hill" />
		<tag k="place" v="locality" />
		<tag k="ssr:stedsnr" v="848486" />
	</node>
	<node id="-58267" lat="60.6893694468" lon="11.5270027782">
		<tag k="name" v="Granhaugen" />
		<tag k="natural" v="hill" />
		<tag k="place" v="locality" />
		<tag k="ssr:stedsnr" v="466876" />
	</node>
	<node id="-57150" lat="60.5182583312" lon="11.3509055563">
		<tag k="alt_name" v="Kjernlikampen" />
		<tag k="name" v="Tjernlikampen" />
		<tag k="natural" v="hill" />
		<tag k="place" v="locality" />
		<tag k="ssr:stedsnr" v="310495" />
	</node>
	<node id="-59197" lat="60.642949996" lon="11.4159416676">
		<tag k="name" v="Sundberget" />
		<tag k="natural" v="hill" />
		<tag k="place" v="locality" />
		<tag k="ssr:stedsnr" v="848317" />
	</node>
	<node id="-59196" lat="60.6423944402" lon="11.3933222145">
		<tag k="name" v="Haraberget" />
		<tag k="natural" v="hill" />
		<tag k="place" v="locality" />
		<tag k="ssr:stedsnr" v="848311" />
	</node>
	<node id="-58171" lat="60.7226833296" lon="11.3964805461">
		<tag k="name" v="Bygdeberget" />
		<tag k="natural" v="hill" />
		<tag k="place" v="locality" />
		<tag k="ssr:stedsnr" v="431746" />
	</node>
	<node id="-58681" lat="60.6745249987" lon="11.4020027774">
		<tag k="name" v="Festningsberget" />
		<tag k="natural" v="hill" />
		<tag k="place" v="locality" />
		<tag k="ssr:stedsnr" v="646303" />
	</node>
	<node id="-58680" lat="60.4963083328" lon="11.2725416749">
		<tag k="name" v="Djupdalen" />
		<tag k="natural" v="valley" />
		<tag k="place" v="locality" />
		<tag k="ssr:stedsnr" v="646278" />
	</node>
	<node id="-57655" lat="60.5535833344" lon="11.3319138969">
		<tag k="name" v="Fotbydalslia" />
		<tag k="natural" v="slope" />
		<tag k="place" v="locality" />
		<tag k="ssr:stedsnr" v="100197" />
	</node>
	<node id="-58678" lat="60.5477055531" lon="11.3351749931">
		<tag k="name" v="Gullhaugen" />
		<tag k="natural" v="hill" />
		<tag k="place" v="locality" />
		<tag k="ssr:stedsnr" v="646232" />
	</node>
	<node id="-58512" lat="60.6161583343" lon="11.5057111189">
		<tag k="name" v="Veltsæterbrenna" />
		<tag k="natural" v="slope" />
		<tag k="place" v="locality" />
		<tag k="ssr:stedsnr" v="588162" />
	</node>
	<node id="-58676" lat="60.5406138904" lon="11.3095333386">
		<tag k="name" v="Korpberget" />
		<tag k="natural" v="hill" />
		<tag k="place" v="locality" />
		<tag k="ssr:stedsnr" v="646209" />
	</node>
	<node id="-57139" lat="60.6286944429" lon="11.5070111175">
		<tag k="name" v="Kvitberget" />
		<tag k="natural" v="hill" />
		<tag k="place" v="locality" />
		<tag k="ssr:stedsnr" v="310342" />
	</node>
	<node id="-57650" lat="60.5859666637" lon="11.569130552">
		<tag k="name" v="Styggdalen" />
		<tag k="natural" v="valley" />
		<tag k="place" v="locality" />
		<tag k="ssr:stedsnr" v="99724" />
	</node>
	<node id="-59184" lat="60.7162611134" lon="11.3521944379">
		<tag k="name" v="Jølstadberget" />
		<tag k="natural" v="hill" />
		<tag k="place" v="locality" />
		<tag k="ssr:stedsnr" v="846469" />
	</node>
	<node id="-58671" lat="60.5798277808" lon="11.3178166641">
		<tag k="name" v="Hemstadvangdalen" />
		<tag k="natural" v="valley" />
		<tag k="place" v="locality" />
		<tag k="ssr:stedsnr" v="646153" />
	</node>
	<node id="-59182" lat="60.6106777783" lon="11.3558166741">
		<tag k="name" v="Tjennsmyrdalen" />
		<tag k="natural" v="valley" />
		<tag k="place" v="locality" />
		<tag k="ssr:stedsnr" v="846360" />
	</node>
	<node id="-58668" lat="60.6337972236" lon="11.1560249925">
		<tag k="name" v="Sutterhella" />
		<tag k="place" v="locality" />
		<tag k="ssr:stedsnr" v="646044" />
	</node>
	<node id="-58154" lat="60.5822972252" lon="11.2233805638">
		<tag k="name" v="Brattvelta" />
		<tag k="natural" v="slope" />
		<tag k="place" v="locality" />
		<tag k="ssr:stedsnr" v="423420" />
	</node>
	<node id="-57393" lat="60.6231805538" lon="11.2636527857">
		<tag k="name" v="Gjellberget" />
		<tag k="natural" v="hill" />
		<tag k="place" v="locality" />
		<tag k="ssr:stedsnr" v="890442" />
	</node>
	<node id="-59171" lat="60.512397226" lon="11.2602722217">
		<tag k="name" v="Slåttvanglia" />
		<tag k="natural" v="slope" />
		<tag k="place" v="locality" />
		<tag k="ssr:stedsnr" v="844248" />
	</node>
	<node id="-57121" lat="60.5776222225" lon="11.4225861169">
		<tag k="name" v="Skollknappen" />
		<tag k="natural" v="hill" />
		<tag k="place" v="locality" />
		<tag k="ssr:stedsnr" v="301709" />
	</node>
	<node id="-57648" lat="60.5476388882" lon="11.397652775">
		<tag k="fixme" v="consider natural=peak for the most distinct mountains in the district" />
		<tag k="name" v="Grautmyrhøgda" />
		<tag k="natural" v="hill" />
		<tag k="place" v="locality" />
		<tag k="ssr:stedsnr" v="81977" />
	</node>
	<node id="-59166" lat="60.6617166636" lon="11.5503805482">
		<tag k="name" v="Kutjennsberget" />
		<tag k="natural" v="hill" />
		<tag k="place" v="locality" />
		<tag k="ssr:stedsnr" v="831899" />
	</node>
	<node id="-59165" lat="60.6819416693" lon="11.5954722167">
		<tag k="name" v="Sortknappen" />
		<tag k="natural" v="hill" />
		<tag k="place" v="locality" />
		<tag k="ssr:stedsnr" v="831895" />
	</node>
	<node id="-58137" lat="60.6723972218" lon="11.1215472228">
		<tag k="name" v="Sotberget" />
		<tag k="natural" v="hill" />
		<tag k="place" v="locality" />
		<tag k="ssr:stedsnr" v="420058" />
	</node>
	<node id="-58648" lat="60.7383750009" lon="11.3213638896">
		<tag k="fixme" v="consider natural=peak for the most distinct mountains in the district" />
		<tag k="name" v="Brynsåsen" />
		<tag k="natural" v="hill" />
		<tag k="old_name" v="Brynåsen" />
		<tag k="place" v="locality" />
		<tag k="ssr:stedsnr" v="613681" />
	</node>
	<node id="-57988" lat="60.5412555542" lon="11.3307722273">
		<tag k="name" v="Søthølslia" />
		<tag k="natural" v="slope" />
		<tag k="place" v="locality" />
		<tag k="ssr:stedsnr" v="222176" />
	</node>
	<node id="-58134" lat="60.5194333315" lon="11.4519055509">
		<tag k="name" v="Vestre Rønevanglia" />
		<tag k="natural" v="slope" />
		<tag k="place" v="locality" />
		<tag k="ssr:stedsnr" v="419602" />
	</node>
	<node id="-59157" lat="60.5916944414" lon="11.6101972146">
		<tag k="name" v="Søndre Fjellsjøhøgda" />
		<tag k="natural" v="hill" />
		<tag k="place" v="locality" />
		<tag k="ssr:stedsnr" v="831716" />
	</node>
	<node id="-57107" lat="60.5796527824" lon="11.2768805475">
		<tag k="name" v="Labbdalen" />
		<tag k="natural" v="valley" />
		<tag k="place" v="locality" />
		<tag k="ssr:stedsnr" v="301364" />
	</node>
	<node id="-58638" lat="60.6584749963" lon="11.4633000074">
		<tag k="name" v="Gammelsæterberget" />
		<tag k="natural" v="hill" />
		<tag k="place" v="locality" />
		<tag k="ssr:stedsnr" v="613557" />
	</node>
	<node id="-58124" lat="60.5262527769" lon="11.4916472195">
		<tag k="name" v="Brattberget" />
		<tag k="place" v="locality" />
		<tag k="ssr:stedsnr" v="479579" />
	</node>
	<node id="-58248" lat="60.6062583316" lon="11.3720055502">
		<tag k="name" v="Nordre Saudalshøgda" />
		<tag k="natural" v="hill" />
		<tag k="place" v="locality" />
		<tag k="ssr:stedsnr" v="466374" />
	</node>
	<node id="-57093" lat="60.6087305543" lon="11.3539138877">
		<tag k="name" v="Storsveberget" />
		<tag k="natural" v="hill" />
		<tag k="place" v="locality" />
		<tag k="ssr:stedsnr" v="300400" />
	</node>
	<node id="-57597" lat="60.5006499981" lon="11.3248972248">
		<tag k="name" v="Gutubakken" />
		<tag k="natural" v="hill" />
		<tag k="place" v="locality" />
		<tag k="ssr:stedsnr" v="59939" />
	</node>
	<node id="-58367" lat="60.5208277804" lon="11.3164944491">
		<tag k="name" v="Søndre Romsæterberget" />
		<tag k="natural" v="hill" />
		<tag k="place" v="locality" />
		<tag k="ssr:stedsnr" v="525234" />
	</node>
	<node id="-59131" lat="60.5689555573" lon="11.4219249989">
		<tag k="name" v="Linnerudsberget" />
		<tag k="natural" v="hill" />
		<tag k="place" v="locality" />
		<tag k="ssr:stedsnr" v="829737" />
	</node>
	<node id="-58617" lat="60.4778777754" lon="11.3289027706">
		<tag k="name" v="Ottvanghøgda" />
		<tag k="natural" v="hill" />
		<tag k="place" v="locality" />
		<tag k="ssr:stedsnr" v="604904" />
	</node>
	<node id="-58616" lat="60.4675194421" lon="11.3037194431">
		<tag k="name" v="Storvasaberget" />
		<tag k="natural" v="slope" />
		<tag k="place" v="locality" />
		<tag k="ssr:stedsnr" v="604899" />
	</node>
	<node id="-57077" lat="60.5580361124" lon="11.5250694526">
		<tag k="fixme" v="consider natural=peak for the most distinct mountains in the district" />
		<tag k="name" v="Ormtjennsberget" />
		<tag k="natural" v="hill" />
		<tag k="place" v="locality" />
		<tag k="ssr:stedsnr" v="298574" />
	</node>
	<node id="-59124" lat="60.567938891" lon="11.3211944529">
		<tag k="name" v="Torsfallhøgda" />
		<tag k="natural" v="hill" />
		<tag k="place" v="locality" />
		<tag k="ssr:stedsnr" v="829164" />
	</node>
	<node id="-58610" lat="60.5971222207" lon="11.4283555497">
		<tag k="loc_name" v="Badstuberget" />
		<tag k="name" v="Bastuberget" />
		<tag k="natural" v="hill" />
		<tag k="place" v="locality" />
		<tag k="ssr:stedsnr" v="604726" />
	</node>
	<node id="-58609" lat="60.6313861129" lon="11.3667277785">
		<tag k="name" v="Blakkmyrshøgda" />
		<tag k="natural" v="hill" />
		<tag k="place" v="locality" />
		<tag k="ssr:stedsnr" v="604387" />
	</node>
	<node id="-57069" lat="60.5983166705" lon="11.5474972259">
		<tag k="fixme" v="consider natural=peak for the most distinct mountains in the district" />
		<tag k="name" v="Kerstiberget" />
		<tag k="natural" v="hill" />
		<tag k="place" v="locality" />
		<tag k="ssr:stedsnr" v="285977" />
	</node>
	<node id="-57067" lat="60.6317861111" lon="11.5704249971">
		<tag k="name" v="Grasberget" />
		<tag k="natural" v="hill" />
		<tag k="place" v="locality" />
		<tag k="ssr:stedsnr" v="285754" />
	</node>
	<node id="-57063" lat="60.5622166683" lon="11.4007749943">
		<tag k="name" v="Sæterskoiedalen" />
		<tag k="natural" v="valley" />
		<tag k="place" v="locality" />
		<tag k="ssr:stedsnr" v="285159" />
	</node>
	<node id="-58598" lat="60.6451111095" lon="11.4536444367">
		<tag k="name" v="Kjernliberget" />
		<tag k="natural" v="slope" />
		<tag k="place" v="locality" />
		<tag k="ssr:stedsnr" v="602669" />
	</node>
	<node id="-57060" lat="60.662852776" lon="11.4406944461">
		<tag k="name" v="Svartkulplia" />
		<tag k="natural" v="slope" />
		<tag k="place" v="locality" />
		<tag k="ssr:stedsnr" v="284889" />
	</node>
	<node id="-57059" lat="60.6617999973" lon="11.5082833269">
		<tag k="name" v="Østre Holmtjennsberget" />
		<tag k="natural" v="hill" />
		<tag k="place" v="locality" />
		<tag k="ssr:stedsnr" v="284667" />
	</node>
	<node id="-57552" lat="60.7212861114" lon="11.4380055588">
		<tag k="name" v="Stutberget" />
		<tag k="natural" v="hill" />
		<tag k="place" v="locality" />
		<tag k="ssr:stedsnr" v="42749" />
	</node>
	<node id="-57705" lat="60.5948611132" lon="11.616908342">
		<tag k="name" v="Nordre Fjellsjøhøgda" />
		<tag k="natural" v="hill" />
		<tag k="place" v="locality" />
		<tag k="ssr:stedsnr" v="103737" />
	</node>
	<node id="-57563" lat="60.5785027774" lon="11.5124250044">
		<tag k="name" v="Bjønnåtlia" />
		<tag k="natural" v="slope" />
		<tag k="place" v="locality" />
		<tag k="ssr:stedsnr" v="55562" />
	</node>
	<node id="-57046" lat="60.5670444445" lon="11.4455888818">
		<tag k="name" v="Huldertjennsberget" />
		<tag k="natural" v="hill" />
		<tag k="place" v="locality" />
		<tag k="ssr:stedsnr" v="283738" />
	</node>
	<node id="-58579" lat="60.684377778" lon="11.5104083323">
		<tag k="name" v="Bjørnryggen" />
		<tag k="natural" v="slope" />
		<tag k="place" v="locality" />
		<tag k="ssr:stedsnr" v="588877" />
	</node>
	<node id="-59090" lat="60.5636055543" lon="11.3669055482">
		<tag k="name" v="Knukberget" />
		<tag k="natural" v="hill" />
		<tag k="place" v="locality" />
		<tag k="ssr:stedsnr" v="796394" />
	</node>
	<node id="-57123" lat="60.5813000009" lon="11.5671500028">
		<tag k="name" v="Helveteslia" />
		<tag k="natural" v="slope" />
		<tag k="place" v="locality" />
		<tag k="ssr:stedsnr" v="301787" />
	</node>
	<node id="-59088" lat="60.5848166674" lon="11.6326388901">
		<tag k="alt_name" v="Bringebærhaugen" />
		<tag k="name" v="Bringebærberget" />
		<tag k="natural" v="hill" />
		<tag k="place" v="locality" />
		<tag k="ssr:stedsnr" v="796171" />
	</node>
	<node id="-58062" lat="60.639941668" lon="11.3739166732">
		<tag k="name" v="Muggerudsberget" />
		<tag k="natural" v="hill" />
		<tag k="place" v="locality" />
		<tag k="ssr:stedsnr" v="241282" />
	</node>
	<node id="-57549" lat="60.575097221" lon="11.6395805613">
		<tag k="name" v="Myrerhaugen" />
		<tag k="natural" v="hill" />
		<tag k="place" v="locality" />
		<tag k="ssr:stedsnr" v="42716" />
	</node>
	<node id="-58572" lat="60.5664999985" lon="11.522141665">
		<tag k="name" v="Fjæstadsæterlia" />
		<tag k="natural" v="slope" />
		<tag k="place" v="locality" />
		<tag k="ssr:stedsnr" v="588099" />
	</node>
	<node id="-58059" lat="60.504747226" lon="11.3037527813">
		<tag k="name" v="Nedre Hagalia" />
		<tag k="natural" v="slope" />
		<tag k="place" v="locality" />
		<tag k="ssr:stedsnr" v="240956" />
	</node>
	<node id="-59080" lat="60.6666555555" lon="11.1875416733">
		<tag k="fixme" v="consider natural=peak for the most distinct mountains in the district" />
		<tag k="name" v="Bjørsrudåsen" />
		<tag k="natural" v="hill" />
		<tag k="place" v="locality" />
		<tag k="ssr:stedsnr" v="795618" />
	</node>
	<node id="-57031" lat="60.6325472251" lon="11.5432750064">
		<tag k="name" v="Østre Skoroberget" />
		<tag k="natural" v="hill" />
		<tag k="place" v="locality" />
		<tag k="ssr:stedsnr" v="282944" />
	</node>
	<node id="-58571" lat="60.652824996" lon="11.5410944397">
		<tag k="fixme" v="consider natural=peak for the most distinct mountains in the district" />
		<tag k="name" v="Vestre Stentjennsberget" />
		<tag k="natural" v="hill" />
		<tag k="place" v="locality" />
		<tag k="ssr:stedsnr" v="588092" />
	</node>
	<node id="-59072" lat="60.6060138862" lon="11.5476944445">
		<tag k="name" v="Buberget" />
		<tag k="natural" v="hill" />
		<tag k="place" v="locality" />
		<tag k="ssr:stedsnr" v="787764" />
	</node>
	<node id="-57534" lat="60.6594916689" lon="11.5815972279">
		<tag k="name" v="Svartknappen" />
		<tag k="natural" v="hill" />
		<tag k="place" v="locality" />
		<tag k="ssr:stedsnr" v="41897" />
	</node>
	<node id="-57021" lat="60.5282194401" lon="11.4886277726">
		<tag k="name" v="Nordre Rasaberget" />
		<tag k="natural" v="slope" />
		<tag k="place" v="locality" />
		<tag k="ssr:stedsnr" v="281188" />
	</node>
	<node id="-58555" lat="60.6840999979" lon="11.3254694513">
		<tag k="name" v="Slindvedberget" />
		<tag k="natural" v="hill" />
		<tag k="place" v="locality" />
		<tag k="ssr:stedsnr" v="587471" />
	</node>
	<node id="-57527" lat="60.655922225" lon="11.5247972301">
		<tag k="name" v="Østre Kampåsen" />
		<tag k="natural" v="hill" />
		<tag k="place" v="locality" />
		<tag k="ssr:stedsnr" v="41652" />
	</node>
	<node id="-57461" lat="60.5129861117" lon="11.3106194453">
		<tag k="name" v="Fuglehøgda" />
		<tag k="natural" v="hill" />
		<tag k="place" v="locality" />
		<tag k="ssr:stedsnr" v="7477" />
	</node>
	<node id="-57659" lat="60.6347138902" lon="11.3421805491">
		<tag k="name" v="Lillehovsberget" />
		<tag k="natural" v="slope" />
		<tag k="place" v="locality" />
		<tag k="ssr:stedsnr" v="100332" />
	</node>
	<node id="-59058" lat="60.529697221" lon="11.2898305468">
		<tag k="name" v="Kølbotndalen" />
		<tag k="natural" v="valley" />
		<tag k="place" v="locality" />
		<tag k="ssr:stedsnr" v="787336" />
	</node>
	<node id="-58032" lat="60.5148888929" lon="11.4854972302">
		<tag k="name" v="Krafshølslia" />
		<tag k="natural" v="slope" />
		<tag k="place" v="locality" />
		<tag k="ssr:stedsnr" v="237595" />
	</node>
	<node id="-58312" lat="60.5227638889" lon="11.5417138934">
		<tag k="name" v="Øktberget" />
		<tag k="natural" v="hill" />
		<tag k="place" v="locality" />
		<tag k="ssr:stedsnr" v="492202" />
	</node>
	<node id="-57518" lat="60.527736111" lon="11.5381416595">
		<tag k="fixme" v="consider natural=peak for the most distinct mountains in the district" />
		<tag k="name" v="Kirkeberget" />
		<tag k="natural" v="hill" />
		<tag k="place" v="locality" />
		<tag k="ssr:stedsnr" v="40799" />
	</node>
	<node id="-59285" lat="60.5949138916" lon="11.5843499959">
		<tag k="name" v="Østre Lauvhaugen" />
		<tag k="natural" v="hill" />
		<tag k="place" v="locality" />
		<tag k="ssr:stedsnr" v="908825" />
	</node>
	<node id="-59052" lat="60.592808334" lon="11.4511833283">
		<tag k="name" v="Kvernhusberget" />
		<tag k="natural" v="hill" />
		<tag k="place" v="locality" />
		<tag k="ssr:stedsnr" v="786723" />
	</node>
	<node id="-58538" lat="60.6134027762" lon="11.2040694449">
		<tag k="name" v="Offenåsen" />
		<tag k="natural" v="hill" />
		<tag k="place" v="locality" />
		<tag k="ssr:stedsnr" v="586381" />
	</node>
	<node id="-58537" lat="60.7099222217" lon="11.4163583395">
		<tag k="fixme" v="consider natural=peak for the most distinct mountains in the district" />
		<tag k="name" v="Djupdalsberget" />
		<tag k="natural" v="hill" />
		<tag k="place" v="locality" />
		<tag k="ssr:stedsnr" v="586315" />
	</node>
	<node id="-57509" lat="60.6120833373" lon="11.297083325">
		<tag k="name" v="Dønnumsberget" />
		<tag k="natural" v="hill" />
		<tag k="place" v="locality" />
		<tag k="ssr:stedsnr" v="40444" />
	</node>
	<node id="-57508" lat="60.6157027808" lon="11.2926916642">
		<tag k="name" v="Korpberget" />
		<tag k="natural" v="hill" />
		<tag k="place" v="locality" />
		<tag k="ssr:stedsnr" v="40441" />
	</node>
	<node id="-58019" lat="60.5435138904" lon="11.4109166757">
		<tag k="name" v="Dopskytterberget" />
		<tag k="natural" v="hill" />
		<tag k="place" v="locality" />
		<tag k="ssr:stedsnr" v="224248" />
	</node>
	<node id="-58016" lat="60.6892944487" lon="11.5453416691">
		<tag k="name" v="Skallberget" />
		<tag k="natural" v="slope" />
		<tag k="place" v="locality" />
		<tag k="ssr:stedsnr" v="224202" />
	</node>
	<node id="-59037" lat="60.7412277768" lon="11.3710194372">
		<tag k="name" v="Bottenfjellet" />
		<tag k="natural" v="hill" />
		<tag k="place" v="locality" />
		<tag k="ssr:stedsnr" v="785355" />
	</node>
	<node id="-58524" lat="60.5276138919" lon="11.3143055636">
		<tag k="name" v="Nordre Romsæterlia" />
		<tag k="natural" v="slope" />
		<tag k="place" v="locality" />
		<tag k="ssr:stedsnr" v="585193" />
	</node>
	<node id="-58522" lat="60.5266805597" lon="11.3479083336">
		<tag k="name" v="Tempellia" />
		<tag k="natural" v="slope" />
		<tag k="place" v="locality" />
		<tag k="ssr:stedsnr" v="585188" />
	</node>
	<node id="-58519" lat="60.6430250017" lon="11.1845527734">
		<tag k="name" v="Nordløkken" />
		<tag k="place" v="locality" />
		<tag k="ssr:stedsnr" v="585058" />
	</node>
	<node id="-57369" lat="60.5184888877" lon="11.245316666">
		<tag k="name" v="Strandlykkjeberget" />
		<tag k="natural" v="slope" />
		<tag k="place" v="locality" />
		<tag k="ssr:stedsnr" v="479252" />
	</node>
	<node id="-59028" lat="60.5319055527" lon="11.4234027708">
		<tag k="name" v="Høgbergsdalen" />
		<tag k="natural" v="valley" />
		<tag k="place" v="locality" />
		<tag k="ssr:stedsnr" v="783612" />
	</node>
	<node id="-57488" lat="60.4921805555" lon="11.2766027781">
		<tag k="name" v="Djupdalshøgda" />
		<tag k="natural" v="hill" />
		<tag k="place" v="locality" />
		<tag k="ssr:stedsnr" v="39224" />
	</node>
	<node id="-58392" lat="60.6792888871" lon="11.2376222157">
		<tag k="name" v="Sagberget" />
		<tag k="natural" v="hill" />
		<tag k="place" v="locality" />
		<tag k="ssr:stedsnr" v="526570" />
	</node>
	<node id="-58510" lat="60.5583083349" lon="11.45317777">
		<tag k="fixme" v="consider natural=peak for the most distinct mountains in the district" />
		<tag k="name" v="Sørensberget" />
		<tag k="natural" v="hill" />
		<tag k="place" v="locality" />
		<tag k="ssr:stedsnr" v="566991" />
	</node>
	<node id="-58509" lat="60.5204555538" lon="11.2692527788">
		<tag k="fixme" v="consider natural=peak for the most distinct mountains in the district" />
		<tag k="name" v="Busterudkampen" />
		<tag k="natural" v="hill" />
		<tag k="place" v="locality" />
		<tag k="ssr:stedsnr" v="566988" />
	</node>
	<node id="-59073" lat="60.6716277784" lon="11.5692361037">
		<tag k="name" v="Høgfallet" />
		<tag k="natural" v="hill" />
		<tag k="place" v="locality" />
		<tag k="ssr:stedsnr" v="795398" />
	</node>
	<node id="-59012" lat="60.5878888927" lon="11.6315333315">
		<tag k="name" v="Merradalen" />
		<tag k="natural" v="valley" />
		<tag k="place" v="locality" />
		<tag k="ssr:stedsnr" v="770746" />
	</node>
	<node id="-57451" lat="60.5787222219" lon="11.3012722144">
		<tag k="name" v="Vardehøgda" />
		<tag k="natural" v="hill" />
		<tag k="place" v="locality" />
		<tag k="ssr:stedsnr" v="7373" />
	</node>
	<node id="-57749" lat="60.5494527797" lon="11.4759194513">
		<tag k="fixme" v="multiple name tags, choose one and add the other to alt_name" />
		<tag k="name" v="Trauberget;Tronshatten" />
		<tag k="natural" v="hill" />
		<tag k="place" v="locality" />
		<tag k="ssr:stedsnr" v="128100" />
	</node>
	<node id="-58487" lat="60.5533972218" lon="11.2916833317">
		<tag k="alt_name" v="Nordre Høgberget;Søndre Høgberget" />
		<tag k="name" v="Høgberget" />
		<tag k="natural" v="ridge" />
		<tag k="place" v="locality" />
		<tag k="ssr:stedsnr" v="553394" />
	</node>
	<node id="-58997" lat="60.6836555544" lon="11.3518694397">
		<tag k="name" v="Hvalslia" />
		<tag k="natural" v="slope" />
		<tag k="place" v="locality" />
		<tag k="ssr:stedsnr" v="769457" />
	</node>
	<node id="-58996" lat="60.6002361123" lon="11.3809638946">
		<tag k="name" v="Søndre Saudalshøgda" />
		<tag k="natural" v="hill" />
		<tag k="place" v="locality" />
		<tag k="ssr:stedsnr" v="769346" />
	</node>
	<node id="-57459" lat="60.5374444421" lon="11.288733334">
		<tag k="name" v="Badstuberget" />
		<tag k="natural" v="hill" />
		<tag k="place" v="locality" />
		<tag k="ssr:stedsnr" v="7470" />
	</node>
	<node id="-58993" lat="60.5959138922" lon="11.3803305555">
		<tag k="loc_name" v="Myssmørbakklia" />
		<tag k="name" v="Møsmørbakklia" />
		<tag k="natural" v="slope" />
		<tag k="place" v="locality" />
		<tag k="ssr:stedsnr" v="769172" />
	</node>
	<node id="-58216" lat="60.480563893" lon="11.301049994">
		<tag k="name" v="Styggberget" />
		<tag k="natural" v="hill" />
		<tag k="place" v="locality" />
		<tag k="ssr:stedsnr" v="464277" />
	</node>
	<node id="-57452" lat="60.5653027739" lon="11.4366361027">
		<tag k="name" v="Gråskallen" />
		<tag k="natural" v="hill" />
		<tag k="place" v="locality" />
		<tag k="ssr:stedsnr" v="7378" />
	</node>
	<node id="-58475" lat="60.4714749981" lon="11.3168500008">
		<tag k="fixme" v="multiple name tags, choose one and add the other to alt_name" />
		<tag k="name" v="Finnhøgda;Lågfalldalshøgda" />
		<tag k="natural" v="hill" />
		<tag k="place" v="locality" />
		<tag k="ssr:stedsnr" v="552494" />
	</node>
	<node id="-58986" lat="60.6274722213" lon="11.2021055544">
		<tag k="name" v="Vardebergshaugen" />
		<tag k="natural" v="hill" />
		<tag k="place" v="locality" />
		<tag k="ssr:stedsnr" v="768347" />
	</node>
	<node id="-58464" lat="60.5874027772" lon="11.4836333286">
		<tag k="name" v="Pinnerudkampen" />
		<tag k="natural" v="hill" />
		<tag k="place" v="locality" />
		<tag k="ssr:stedsnr" v="552172" />
	</node>
	<node id="-57951" lat="60.6731944477" lon="11.4013777862">
		<tag k="alt_name" v="Starberget" />
		<tag k="name" v="Starrberget" />
		<tag k="natural" v="hill" />
		<tag k="place" v="locality" />
		<tag k="ssr:stedsnr" v="189558" />
	</node>
	<node id="-58456" lat="60.5082694422" lon="11.3465888864">
		<tag k="name" v="Pershaugen" />
		<tag k="natural" v="hill" />
		<tag k="place" v="locality" />
		<tag k="ssr:stedsnr" v="544954" />
	</node>
	<node id="-57700" lat="60.4917972195" lon="11.3414861148">
		<tag k="name" v="Raskerudlia" />
		<tag k="natural" v="slope" />
		<tag k="place" v="locality" />
		<tag k="ssr:stedsnr" v="102980" />
	</node>
	<node id="-58454" lat="60.5950416643" lon="11.5787499934">
		<tag k="name" v="Vestre Lauvhaugen" />
		<tag k="natural" v="hill" />
		<tag k="place" v="locality" />
		<tag k="ssr:stedsnr" v="544780" />
	</node>
	<node id="-58723" lat="60.6772194412" lon="11.3247000012">
		<tag k="name" v="Gråskallen" />
		<tag k="natural" v="hill" />
		<tag k="place" v="locality" />
		<tag k="ssr:stedsnr" v="648462" />
	</node>
	<node id="-57936" lat="60.6115666632" lon="11.4199111072">
		<tag k="name" v="Skoberget" />
		<tag k="natural" v="hill" />
		<tag k="place" v="locality" />
		<tag k="ssr:stedsnr" v="189395" />
	</node>
	<node id="-57422" lat="60.6234305593" lon="11.4880972232">
		<tag k="name" v="Granbergsmyrdalen" />
		<tag k="natural" v="valley" />
		<tag k="place" v="locality" />
		<tag k="ssr:stedsnr" v="892692" />
	</node>
	<node id="-57421" lat="60.585741669" lon="11.4664944377">
		<tag k="name" v="Vestre Båntjennslia" />
		<tag k="natural" v="slope" />
		<tag k="place" v="locality" />
		<tag k="ssr:stedsnr" v="892106" />
	</node>
	<node id="-57420" lat="60.4882277804" lon="11.3444944506">
		<tag k="name" v="Gullihøgda" />
		<tag k="natural" v="hill" />
		<tag k="place" v="locality" />
		<tag k="ssr:stedsnr" v="891978" />
	</node>
	<node id="-58295" lat="60.6637111069" lon="11.2643499955">
		<tag k="fixme" v="consider natural=peak for the most distinct mountains in the district" />
		<tag k="name" v="Halvorstuberget" />
		<tag k="natural" v="hill" />
		<tag k="place" v="locality" />
		<tag k="ssr:stedsnr" v="483538" />
	</node>
	<node id="-58950" lat="60.5169888887" lon="11.2994944452">
		<tag k="name" v="Klingerhaugen" />
		<tag k="natural" v="hill" />
		<tag k="place" v="locality" />
		<tag k="ssr:stedsnr" v="735470" />
	</node>
	<node id="-58949" lat="60.5322250011" lon="11.3271027756">
		<tag k="name" v="Grasberget" />
		<tag k="natural" v="hill" />
		<tag k="place" v="locality" />
		<tag k="ssr:stedsnr" v="735466" />
	</node>
	<node id="-58948" lat="60.5280833299" lon="11.3215388801">
		<tag k="alt_name" v="Nordre Romsæterberget" />
		<tag k="name" v="Romsæterberget" />
		<tag k="natural" v="hill" />
		<tag k="place" v="locality" />
		<tag k="ssr:stedsnr" v="735462" />
	</node>
	<node id="-58435" lat="60.6393194445" lon="11.4640583312">
		<tag k="name" v="Kumyrberget" />
		<tag k="natural" v="slope" />
		<tag k="place" v="locality" />
		<tag k="ssr:stedsnr" v="542650" />
	</node>
	<node id="-58946" lat="60.5375638912" lon="11.5372666733">
		<tag k="name" v="Rasaaksla" />
		<tag k="natural" v="hill" />
		<tag k="place" v="locality" />
		<tag k="ssr:stedsnr" v="735231" />
	</node>
	<node id="-58943" lat="60.5732805552" lon="11.473266664">
		<tag k="name" v="Svartkampen" />
		<tag k="natural" v="hill" />
		<tag k="place" v="locality" />
		<tag k="ssr:stedsnr" v="735140" />
	</node>
	<node id="-57403" lat="60.6028277783" lon="11.3599250025">
		<tag k="fixme" v="consider natural=peak for the most distinct mountains in the district" />
		<tag k="name" v="Sønsterudberget" />
		<tag k="natural" v="hill" />
		<tag k="place" v="locality" />
		<tag k="ssr:stedsnr" v="891215" />
	</node>
	<node id="-59231" lat="60.5639250033" lon="11.4971333245">
		<tag k="name" v="Middagsberget" />
		<tag k="natural" v="hill" />
		<tag k="place" v="locality" />
		<tag k="ssr:stedsnr" v="857168" />
	</node>
	<node id="-57398" lat="60.5785333363" lon="11.459983333">
		<tag k="name" v="Galgumsæterberget" />
		<tag k="natural" v="hill" />
		<tag k="place" v="locality" />
		<tag k="ssr:stedsnr" v="890738" />
	</node>
	<node id="-58377" lat="60.6419694426" lon="11.6026416716">
		<tag k="name" v="Gransjølia" />
		<tag k="natural" v="slope" />
		<tag k="place" v="locality" />
		<tag k="ssr:stedsnr" v="525933" />
	</node>
	<node id="-58932" lat="60.5746083294" lon="11.430636105">
		<tag k="name" v="Bjertingstadberget" />
		<tag k="natural" v="hill" />
		<tag k="place" v="locality" />
		<tag k="ssr:stedsnr" v="726727" />
	</node>
	<node id="-57934" lat="60.5599500005" lon="11.3263805504">
		<tag k="fixme" v="consider natural=peak for the most distinct mountains in the district" />
		<tag k="name" v="Gransjøhøgda" />
		<tag k="natural" v="hill" />
		<tag k="place" v="locality" />
		<tag k="ssr:stedsnr" v="189364" />
	</node>
	<node id="-57593" lat="60.5931750024" lon="11.5658166732">
		<tag k="name" v="Fjøsberget" />
		<tag k="natural" v="hill" />
		<tag k="place" v="locality" />
		<tag k="ssr:stedsnr" v="59765" />
	</node>
	<node id="-58413" lat="60.590777775" lon="11.4726166719">
		<tag k="name" v="Østre Båntjennslia" />
		<tag k="natural" v="slope" />
		<tag k="place" v="locality" />
		<tag k="ssr:stedsnr" v="528109" />
	</node>
	<node id="-59436" lat="60.5396138883" lon="11.3003694529">
		<tag k="fixme" v="consider natural=peak for the most distinct mountains in the district" />
		<tag k="name" v="Filiphaugen" />
		<tag k="natural" v="hill" />
		<tag k="place" v="locality" />
		<tag k="ssr:stedsnr" v="968329" />
	</node>
	<node id="-58410" lat="60.5977305574" lon="11.6079166587">
		<tag k="name" v="Karihaugen" />
		<tag k="natural" v="hill" />
		<tag k="place" v="locality" />
		<tag k="ssr:stedsnr" v="527766" />
	</node>
	<node id="-59431" lat="60.6477444478" lon="11.4756027814">
		<tag k="name" v="Sponholsberget" />
		<tag k="natural" v="hill" />
		<tag k="place" v="locality" />
		<tag k="ssr:stedsnr" v="967643" />
	</node>
	<node id="-58915" lat="60.6124694454" lon="11.4535972201">
		<tag k="name" v="Styggdalen" />
		<tag k="natural" v="valley" />
		<tag k="place" v="locality" />
		<tag k="ssr:stedsnr" v="724650" />
	</node>
	<node id="-58402" lat="60.6673944463" lon="11.4009027787">
		<tag k="fixme" v="consider natural=peak for the most distinct mountains in the district" />
		<tag k="name" v="Starberget" />
		<tag k="natural" v="hill" />
		<tag k="place" v="locality" />
		<tag k="ssr:stedsnr" v="527272" />
	</node>
	<node id="-57377" lat="60.5575583328" lon="11.3337027835">
		<tag k="name" v="Fotbydalen" />
		<tag k="natural" v="valley" />
		<tag k="place" v="locality" />
		<tag k="ssr:stedsnr" v="889220" />
	</node>
	<node id="-59178" lat="60.5252888889" lon="11.4558388955">
		<tag k="name" v="Nordre Rønevanglia" />
		<tag k="natural" v="slope" />
		<tag k="place" v="locality" />
		<tag k="ssr:stedsnr" v="844623" />
	</node>
	<node id="-57374" lat="60.6479333316" lon="11.1612972273">
		<tag k="name" v="Dalsruddalen" />
		<tag k="natural" v="valley" />
		<tag k="place" v="locality" />
		<tag k="ssr:stedsnr" v="889053" />
	</node>
	<node id="-59054" lat="60.5792555529" lon="11.4258694358">
		<tag k="name" v="Puttberget" />
		<tag k="natural" v="hill" />
		<tag k="place" v="locality" />
		<tag k="ssr:stedsnr" v="786736" />
	</node>
	<node id="-59420" lat="60.7385249956" lon="11.3711833399">
		<tag k="name" v="Nordsveberget" />
		<tag k="natural" v="hill" />
		<tag k="place" v="locality" />
		<tag k="ssr:stedsnr" v="967362" />
	</node>
	<node id="-57371" lat="60.6205361123" lon="11.5383527752">
		<tag k="name" v="Målåvassknappen" />
		<tag k="natural" v="hill" />
		<tag k="place" v="locality" />
		<tag k="ssr:stedsnr" v="888718" />
	</node>
	<node id="-59417" lat="60.6221111099" lon="11.3695749998">
		<tag k="name" v="Veslehøgda" />
		<tag k="natural" v="hill" />
		<tag k="place" v="locality" />
		<tag k="ssr:stedsnr" v="967330" />
	</node>
	<node id="-59416" lat="60.6167583343" lon="11.3771916697">
		<tag k="name" v="Nygardshøgda" />
		<tag k="natural" v="hill" />
		<tag k="place" v="locality" />
		<tag k="ssr:stedsnr" v="967326" />
	</node>
	<node id="-59413" lat="60.677091671" lon="11.1502027721">
		<tag k="name" v="Rådalen" />
		<tag k="natural" v="valley" />
		<tag k="place" v="locality" />
		<tag k="ssr:stedsnr" v="966040" />
	</node>
	<node id="-57364" lat="60.6955055523" lon="11.4873555635">
		<tag k="name" v="Fagerlia" />
		<tag k="natural" v="slope" />
		<tag k="place" v="locality" />
		<tag k="ssr:stedsnr" v="406872" />
	</node>
	<node id="-58387" lat="60.6130194421" lon="11.2301749916">
		<tag k="name" v="Topphøgda" />
		<tag k="natural" v="hill" />
		<tag k="place" v="locality" />
		<tag k="ssr:stedsnr" v="526385" />
	</node>
	<node id="-57874" lat="60.5190888877" lon="11.440694442">
		<tag k="name" v="Hestkampen" />
		<tag k="natural" v="hill" />
		<tag k="place" v="locality" />
		<tag k="ssr:stedsnr" v="176578" />
	</node>
	<node id="-58896" lat="60.5798111087" lon="11.5067472171">
		<tag k="name" v="Stygghølet" />
		<tag k="natural" v="valley" />
		<tag k="place" v="locality" />
		<tag k="ssr:stedsnr" v="722610" />
	</node>
	<node id="-58894" lat="60.5522111131" lon="11.4787583369">
		<tag k="fixme" v="consider natural=peak for the most distinct mountains in the district" />
		<tag k="name" v="Vardeberget" />
		<tag k="natural" v="hill" />
		<tag k="place" v="locality" />
		<tag k="ssr:stedsnr" v="722602" />
	</node>
	<node id="-59401" lat="60.5464805565" lon="11.364783329">
		<tag k="name" v="Navarhaugen" />
		<tag k="natural" v="hill" />
		<tag k="place" v="locality" />
		<tag k="ssr:stedsnr" v="965236" />
	</node>
	<node id="-58751" lat="60.6119166633" lon="11.3653166694">
		<tag k="name" v="Krokmyrberget" />
		<tag k="natural" v="hill" />
		<tag k="place" v="locality" />
		<tag k="ssr:stedsnr" v="664340" />
	</node>
	<node id="-58886" lat="60.6625805585" lon="11.571819445">
		<tag k="name" v="Engekoiedalen" />
		<tag k="natural" v="valley" />
		<tag k="place" v="locality" />
		<tag k="ssr:stedsnr" v="709916" />
	</node>
	<node id="-57348" lat="60.6586111089" lon="11.5223416684">
		<tag k="name" v="Vestre Kampåsen" />
		<tag k="natural" v="hill" />
		<tag k="place" v="locality" />
		<tag k="ssr:stedsnr" v="405677" />
	</node>
	<node id="-57347" lat="60.549733336" lon="11.4247166591">
		<tag k="fixme" v="consider natural=peak for the most distinct mountains in the district" />
		<tag k="name" v="Nysæterhøgda" />
		<tag k="natural" v="hill" />
		<tag k="place" v="locality" />
		<tag k="ssr:stedsnr" v="405654" />
	</node>
	<node id="-58370" lat="60.4983861145" lon="11.2780722282">
		<tag k="name" v="Brurhaugen" />
		<tag k="natural" v="hill" />
		<tag k="place" v="locality" />
		<tag k="ssr:stedsnr" v="525300" />
	</node>
	<node id="-57345" lat="60.5984916666" lon="11.4103166632">
		<tag k="fixme" v="consider natural=peak for the most distinct mountains in the district" />
		<tag k="name" v="Granåsen" />
		<tag k="natural" v="hill" />
		<tag k="place" v="locality" />
		<tag k="ssr:stedsnr" v="405348" />
	</node>
</osm>
