<?xml version="1.0" encoding="UTF-8"?>
<<<<<<< HEAD
<osm version="0.6" generator="osmapis">
	<node lat="58.65347394715985" lon="5.94744374017945" id="-2">
		<tag k="fixme" v="consider place=hamlet" />
		<tag k="name" v="Røysland" />
		<tag k="place" v="farm" />
		<tag k="ssr:stedsnr" v="60" />
	</node>
	<node lat="58.689277756963506" lon="6.160478346739739" id="-5">
		<tag k="fixme" v="consider place=hamlet" />
		<tag k="name" v="Ivesdal" />
		<tag k="place" v="farm" />
		<tag k="ssr:stedsnr" v="454" />
	</node>
	<node lat="58.64509999663373" lon="5.996625003107888" id="-25">
		<tag k="name" v="Store Svela" />
		<tag k="place" v="locality" />
		<tag k="ssr:stedsnr" v="23303" />
	</node>
	<node lat="58.671487931168706" lon="6.379686491813676" id="-41">
		<tag k="name" v="Høyland" />
		<tag k="place" v="farm" />
		<tag k="ssr:stedsnr" v="39303" />
	</node>
	<node lat="58.748688889985544" lon="6.208322224935674" id="-46">
		<tag k="name" v="Garvollen" />
		<tag k="place" v="farm" />
		<tag k="ssr:stedsnr" v="40724" />
	</node>
	<node lat="58.6395777797285" lon="6.097752773367272" id="-54">
		<tag k="name" v="Tjødnaråsen" />
		<tag k="place" v="quarter" />
		<tag k="ssr:stedsnr" v="42102" />
	</node>
	<node lat="58.63848888833502" lon="6.09139722680518" id="-78">
		<tag k="leisure" v="pitch" />
		<tag k="name" v="Lossvollen" />
		<tag k="ssr:stedsnr" v="58888" />
	</node>
	<node lat="58.711158329176214" lon="6.350163886896735" id="-86">
		<tag k="name" v="Plasset" />
		<tag k="place" v="farm" />
		<tag k="ssr:stedsnr" v="59270" />
	</node>
	<node lat="58.54703465921086" lon="6.026764848817345" id="-89">
		<tag k="fixme" v="consider place=hamlet" />
		<tag k="name" v="Helland" />
		<tag k="place" v="farm" />
		<tag k="ssr:stedsnr" v="60089" />
	</node>
	<node lat="58.65571340874169" lon="6.29467349728182" id="-94">
		<tag k="alt_name" v="Indre Kalveskog" />
		<tag k="name" v="Kalveskog" />
		<tag k="place" v="hamlet" />
		<tag k="ssr:stedsnr" v="60790" />
	</node>
	<node lat="58.59495555652873" lon="6.185880556642568" id="-102">
		<tag k="name" v="Rånetangen" />
		<tag k="place" v="isolated_dwelling" />
		<tag k="ssr:stedsnr" v="61113" />
	</node>
	<node lat="58.70015278124429" lon="6.06772500243614" id="-105">
		<tag k="name" v="Nygard" />
		<tag k="place" v="farm" />
		<tag k="ssr:stedsnr" v="61469" />
	</node>
	<node lat="58.742648783239055" lon="6.475093025694452" id="-110">
		<tag k="alt_name" v="Homma" />
		<tag k="name" v="Hommi" />
		<tag k="place" v="isolated_dwelling" />
		<tag k="ssr:stedsnr" v="62120" />
	</node>
	<node lat="58.6710879304181" lon="6.376064208313653" id="-125">
		<tag k="name" v="Vassbø" />
		<tag k="place" v="farm" />
		<tag k="ssr:stedsnr" v="242743" />
	</node>
	<node lat="58.6565567352301" lon="5.90598442967059" id="-128">
		<tag k="fixme" v="consider place=hamlet" />
		<tag k="name" v="Osland" />
		<tag k="place" v="farm" />
		<tag k="ssr:stedsnr" v="243037" />
	</node>
	<node lat="58.565486330628694" lon="6.113343249182253" id="-130">
		<tag k="fixme" v="consider place=hamlet" />
		<tag k="name" v="Litle Efteland" />
		<tag k="place" v="farm" />
		<tag k="ssr:stedsnr" v="243078" />
	</node>
	<node lat="58.57283279980099" lon="6.058286590269952" id="-131">
		<tag k="fixme" v="consider place=hamlet" />
		<tag k="name" v="Hustoft" />
		<tag k="place" v="farm" />
		<tag k="ssr:stedsnr" v="243091" />
	</node>
	<node lat="58.71856944386039" lon="6.37967499665251" id="-135">
		<tag k="historic" v="shieling" />
		<tag k="name" v="Langebu" />
		<tag k="place" v="isolated_dwelling" />
		<tag k="ssr:stedsnr" v="243209" />
	</node>
	<node lat="58.72775278070749" lon="6.356125005191718" id="-136">
		<tag k="name" v="Åkroken" />
		<tag k="place" v="farm" />
		<tag k="ssr:stedsnr" v="243222" />
	</node>
	<node lat="58.722684575742676" lon="6.206704611056646" id="-140">
		<tag k="fixme" v="consider place=hamlet" />
		<tag k="name" v="Espeland" />
		<tag k="place" v="farm" />
		<tag k="ssr:stedsnr" v="243470" />
	</node>
	<node lat="58.70159151740356" lon="6.074190680221396" id="-141">
		<tag k="alt_name" v="Store Byrkjeland;Store Birkeland;Birkjeland" />
		<tag k="fixme" v="consider place=hamlet" />
		<tag k="name" v="Birkeland" />
		<tag k="old_name" v="Byrkjeland" />
		<tag k="place" v="farm" />
		<tag k="ssr:stedsnr" v="243483" />
	</node>
	<node lat="58.583841663056816" lon="6.063255558970821" id="-182">
		<tag k="name" v="Røyslandsfeltet" />
		<tag k="place" v="quarter" />
		<tag k="ssr:stedsnr" v="116104" />
	</node>
	<node lat="58.726230552909094" lon="6.076247225424445" id="-184">
		<tag k="name" v="Listøl" />
		<tag k="place" v="farm" />
		<tag k="ssr:stedsnr" v="117403" />
	</node>
	<node lat="58.58213332989333" lon="5.932041661875994" id="-222">
		<tag k="name" v="Eikeland" />
		<tag k="place" v="locality" />
		<tag k="ssr:stedsnr" v="144390" />
	</node>
	<node lat="58.722733333300546" lon="6.490213895860196" id="-245">
		<tag k="fixme" v="consider tourism=alpine_hut or tourism=chalet" />
		<tag k="name" v="Kvitlen" />
		<tag k="ssr:stedsnr" v="181275" />
		<tag k="tourism" v="wilderness_hut" />
	</node>
	<node lat="58.591269779410354" lon="5.994782142195131" id="-247">
=======
<osm generator="osmapis" version="0.6">
	<node id="-17920" lat="58.6754674479" lon="6.37713265451">
		<tag k="fixme" v="consider place=hamlet" />
		<tag k="name" v="Eik" />
		<tag k="place" v="farm" />
		<tag k="ssr:stedsnr" v="485700" />
	</node>
	<node id="-19452" lat="58.5775717269" lon="5.99478645125">
		<tag k="fixme" v="consider place=hamlet" />
		<tag k="name" v="Gåsland" />
		<tag k="place" v="farm" />
		<tag k="ssr:stedsnr" v="546129" />
	</node>
	<node id="-19451" lat="58.5788893628" lon="6.0598566689">
		<tag k="fixme" v="consider place=hamlet" />
		<tag k="name" v="Fjermedal" />
		<tag k="place" v="farm" />
		<tag k="ssr:stedsnr" v="546120" />
	</node>
	<node id="-17912" lat="58.586366427" lon="6.13035632202">
		<tag k="fixme" v="consider place=hamlet" />
		<tag k="name" v="Netland" />
		<tag k="place" v="farm" />
		<tag k="ssr:stedsnr" v="485089" />
	</node>
	<node id="-17915" lat="58.6601980441" lon="6.17102173684">
		<tag k="fixme" v="consider place=hamlet" />
		<tag k="name" v="Hegelstad" />
		<tag k="place" v="farm" />
		<tag k="ssr:stedsnr" v="485033" />
	</node>
	<node id="-19441" lat="58.6211166702" lon="6.10577777918">
		<tag k="name" v="Øygard" />
		<tag k="place" v="farm" />
		<tag k="ssr:stedsnr" v="546038" />
	</node>
	<node id="-19437" lat="58.6067805558" lon="5.99716388058">
		<tag k="name" v="Holen" />
		<tag k="place" v="farm" />
		<tag k="ssr:stedsnr" v="546007" />
	</node>
	<node id="-18922" lat="58.6725000033" lon="6.38553054749">
		<tag k="name" v="Bjørkheim" />
		<tag k="place" v="farm" />
		<tag k="ssr:stedsnr" v="101297" />
	</node>
	<node id="-17575" lat="58.6038722182" lon="5.908977776">
		<tag k="name" v="Steinsland" />
		<tag k="place" v="locality" />
		<tag k="ssr:stedsnr" v="23424" />
	</node>
	<node id="-18920" lat="58.6811027812" lon="6.41071666615">
		<tag k="name" v="Solbakken" />
		<tag k="place" v="farm" />
		<tag k="ssr:stedsnr" v="101282" />
	</node>
	<node id="-18919" lat="58.6824305529" lon="6.42126389583">
		<tag k="name" v="Steigjahagen" />
		<tag k="place" v="farm" />
		<tag k="ssr:stedsnr" v="101267" />
	</node>
	<node id="-18406" lat="58.7453972246" lon="6.20701388663">
		<tag k="name" v="Rusten" />
		<tag k="place" v="farm" />
		<tag k="ssr:stedsnr" v="646654" />
	</node>
	<node id="-18086" lat="58.6062044534" lon="6.08812207986">
		<tag k="fixme" v="consider place=hamlet" />
		<tag k="name" v="Gjedrem" />
		<tag k="place" v="farm" />
		<tag k="ssr:stedsnr" v="667010" />
	</node>
	<node id="-18402" lat="58.7542731648" lon="6.18976596752">
		<tag k="alt_name" v="Vargastøl" />
		<tag k="historic" v="shieling" />
		<tag k="name" v="Vargastølen" />
		<tag k="place" v="locality" />
		<tag k="ssr:stedsnr" v="729632" />
	</node>
	<node id="-18401" lat="58.6564888887" lon="6.08696110566">
		<tag k="name" v="Skjæveland" />
		<tag k="place" v="farm" />
		<tag k="ssr:stedsnr" v="638732" />
	</node>
	<node id="-18389" lat="58.7086995768" lon="6.32611594698">
		<tag k="fixme" v="consider place=hamlet" />
		<tag k="name" v="Austrumdal" />
		<tag k="place" v="farm" />
		<tag k="ssr:stedsnr" v="729232" />
	</node>
	<node id="-18897" lat="58.7205262387" lon="6.48267178763">
		<tag k="alt_name" v="Kvitlene;Kvisla" />
		<tag k="fixme" v="consider place=hamlet" />
		<tag k="name" v="Kvitlen" />
		<tag k="place" v="farm" />
		<tag k="ssr:stedsnr" v="85949" />
	</node>
	<node id="-17870" lat="58.58600752" lon="6.09380324971">
		<tag k="fixme" v="consider place=hamlet" />
		<tag k="name" v="Odland" />
		<tag k="place" v="farm" />
		<tag k="ssr:stedsnr" v="303124" />
	</node>
	<node id="-17869" lat="58.5970305933" lon="6.14316686732">
		<tag k="fixme" v="consider place=hamlet" />
		<tag k="name" v="Hytland" />
		<tag k="place" v="farm" />
		<tag k="ssr:stedsnr" v="303111" />
	</node>
	<node id="-18380" lat="58.6973751264" lon="6.04564020535">
		<tag k="fixme" v="consider place=hamlet" />
		<tag k="name" v="Fuglestad" />
		<tag k="place" v="farm" />
		<tag k="ssr:stedsnr" v="728474" />
	</node>
	<node id="-18379" lat="58.7150477068" lon="6.17570817457">
>>>>>>> e1d4bc35ff8a6074a6f2e91616a996b547c36f15
		<tag k="fixme" v="consider place=hamlet" />
		<tag k="name" v="Sundvor" />
		<tag k="place" v="farm" />
<<<<<<< HEAD
		<tag k="ssr:stedsnr" v="182105" />
	</node>
	<node lat="58.601208329096536" lon="6.188644442200282" id="-260">
		<tag k="name" v="Larsastølen" />
		<tag k="place" v="locality" />
		<tag k="ssr:stedsnr" v="265072" />
	</node>
	<node lat="58.558413889249124" lon="5.937566663023944" id="-277">
		<tag k="name" v="Lyngbakken" />
		<tag k="place" v="farm" />
		<tag k="ssr:stedsnr" v="205144" />
	</node>
	<node lat="58.716274997879566" lon="6.190950005628231" id="-301">
		<tag k="name" v="Heimstadnes" />
		<tag k="place" v="neighbourhood" />
		<tag k="ssr:stedsnr" v="237102" />
	</node>
	<node lat="58.5403111136348" lon="6.03329721924489" id="-303">
		<tag k="name" v="Kleivane" />
		<tag k="place" v="quarter" />
		<tag k="ssr:stedsnr" v="237096" />
	</node>
	<node lat="58.638588887711606" lon="6.1483861087793565" id="-366">
		<tag k="historic" v="shieling" />
		<tag k="name" v="Kobberstølen" />
		<tag k="place" v="isolated_dwelling" />
		<tag k="ssr:stedsnr" v="301828" />
	</node>
	<node lat="58.58090790540174" lon="6.078017568925749" id="-371">
		<tag k="fixme" v="consider place=hamlet" />
		<tag k="name" v="Bjerkreim" />
		<tag k="place" v="farm" />
		<tag k="ssr:stedsnr" v="303109" />
	</node>
	<node lat="58.597030593259404" lon="6.143166867323035" id="-372">
		<tag k="fixme" v="consider place=hamlet" />
		<tag k="name" v="Hytland" />
		<tag k="place" v="farm" />
		<tag k="ssr:stedsnr" v="303111" />
	</node>
	<node lat="58.56248333641106" lon="6.004783327970265" id="-373">
		<tag k="name" v="Skiftingsholen" />
		<tag k="place" v="farm" />
		<tag k="ssr:stedsnr" v="303080" />
	</node>
	<node lat="58.63765555951965" lon="6.092225006535127" id="-396">
		<tag k="name" v="Lossvollen" />
		<tag k="place" v="quarter" />
		<tag k="ssr:stedsnr" v="467085" />
	</node>
	<node lat="58.63639722630441" lon="6.094191657974782" id="-397">
		<tag k="name" v="Risbakken" />
		<tag k="place" v="quarter" />
		<tag k="ssr:stedsnr" v="467087" />
	</node>
	<node lat="58.64457777565486" lon="6.089252777606051" id="-441">
		<tag k="name" v="Hompen" />
		<tag k="place" v="quarter" />
		<tag k="ssr:stedsnr" v="358106" />
	</node>
	<node lat="58.584844445255506" lon="6.0737555562862475" id="-442">
		<tag k="name" v="Røyslandstunet" />
		<tag k="place" v="quarter" />
		<tag k="ssr:stedsnr" v="358107" />
	</node>
	<node lat="58.59890322345672" lon="5.996035820206273" id="-445">
		<tag k="fixme" v="consider place=hamlet" />
		<tag k="name" v="Tysland" />
		<tag k="place" v="farm" />
		<tag k="ssr:stedsnr" v="364009" />
	</node>
	<node lat="58.60936353910156" lon="6.0046510522753005" id="-449">
		<tag k="fixme" v="consider place=hamlet" />
		<tag k="name" v="Laksesvela" />
		<tag k="old_name" v="Lakssvela" />
		<tag k="place" v="farm" />
		<tag k="ssr:stedsnr" v="364025" />
	</node>
	<node lat="58.71113611299539" lon="6.247886115699459" id="-456">
		<tag k="name" v="Legå" />
		<tag k="place" v="isolated_dwelling" />
		<tag k="ssr:stedsnr" v="364250" />
	</node>
	<node lat="58.703100003958916" lon="6.585080555166406" id="-459">
		<tag k="name" v="Bjordalsstølane" />
		<tag k="place" v="locality" />
		<tag k="ssr:stedsnr" v="364216" />
	</node>
	<node lat="58.653538892075154" lon="6.291277780258352" id="-461">
		<tag k="alt_name" v="Ytre Kalveskog" />
		<tag k="name" v="Klampen" />
		<tag k="place" v="locality" />
		<tag k="ssr:stedsnr" v="364796" />
	</node>
	<node lat="58.736436110285126" lon="6.266711114444829" id="-462">
		<tag k="alt_name" v="Stykkjet" />
		<tag k="name" v="Stykket" />
		<tag k="place" v="farm" />
		<tag k="ssr:stedsnr" v="365141" />
	</node>
	<node lat="58.660198044133296" lon="6.171021736837533" id="-501">
		<tag k="fixme" v="consider place=hamlet" />
		<tag k="name" v="Hegelstad" />
		<tag k="place" v="farm" />
		<tag k="ssr:stedsnr" v="485033" />
	</node>
	<node lat="58.586366426993834" lon="6.130356322016923" id="-503">
		<tag k="fixme" v="consider place=hamlet" />
		<tag k="name" v="Netland" />
		<tag k="place" v="farm" />
		<tag k="ssr:stedsnr" v="485089" />
	</node>
	<node lat="58.675467447886746" lon="6.3771326545106986" id="-525">
		<tag k="fixme" v="consider place=hamlet" />
		<tag k="name" v="Eik" />
		<tag k="place" v="farm" />
		<tag k="ssr:stedsnr" v="485700" />
	</node>
	<node lat="58.74503332898711" lon="6.556177777757174" id="-533">
		<tag k="alt_name" v="Kvislastølen" />
		<tag k="name" v="Kvitlastølen" />
		<tag k="place" v="locality" />
		<tag k="ssr:stedsnr" v="486100" />
	</node>
	<node lat="58.613780960175376" lon="6.166464645673599" id="-550">
=======
		<tag k="ssr:stedsnr" v="728458" />
	</node>
	<node id="-18378" lat="58.579105086" lon="5.98282495478">
		<tag k="alt_name" v="Eikeland (på heia);Eikeland på Heia" />
		<tag k="fixme" v="consider place=hamlet" />
		<tag k="name" v="Eikeland" />
		<tag k="place" v="farm" />
		<tag k="ssr:stedsnr" v="728108" />
	</node>
	<node id="-18377" lat="58.5897347982" lon="5.98742893308">
		<tag k="alt_name" v="Bærland;Berland (på heia);Berland på Heia" />
		<tag k="fixme" v="consider place=hamlet" />
		<tag k="name" v="Berland" />
		<tag k="place" v="farm" />
		<tag k="ssr:stedsnr" v="728098" />
	</node>
	<node id="-18376" lat="58.5549146951" lon="6.06982248629">
		<tag k="fixme" v="consider place=hamlet" />
		<tag k="name" v="Sagland" />
		<tag k="place" v="farm" />
		<tag k="ssr:stedsnr" v="728069" />
	</node>
	<node id="-18375" lat="58.6484153098" lon="5.92243503723">
		<tag k="fixme" v="consider place=hamlet" />
		<tag k="name" v="Moi" />
		<tag k="place" v="farm" />
		<tag k="ssr:stedsnr" v="728056" />
	</node>
	<node id="-18369" lat="58.5601749972" lon="5.99980555847">
		<tag k="name" v="Intredalen" />
		<tag k="place" v="locality" />
		<tag k="ssr:stedsnr" v="629810" />
	</node>
	<node id="-17854" lat="58.6363972263" lon="6.09419165797">
		<tag k="name" v="Risbakken" />
		<tag k="place" v="quarter" />
		<tag k="ssr:stedsnr" v="467087" />
	</node>
	<node id="-17853" lat="58.6376555595" lon="6.09222500654">
		<tag k="name" v="Lossvollen" />
		<tag k="place" v="quarter" />
		<tag k="ssr:stedsnr" v="467085" />
	</node>
	<node id="-19359" lat="58.7413583374" lon="6.26585725115">
		<tag k="fixme" v="consider place=hamlet" />
		<tag k="name" v="Lanes" />
		<tag k="place" v="farm" />
		<tag k="ssr:stedsnr" v="423694" />
	</node>
	<node id="-18870" lat="58.7426487832" lon="6.47509302569">
		<tag k="alt_name" v="Homma" />
		<tag k="name" v="Hommi" />
		<tag k="place" v="isolated_dwelling" />
		<tag k="ssr:stedsnr" v="62120" />
	</node>
	<node id="-19379" lat="58.6623638846" lon="6.38772222129">
		<tag k="alt_name" v="Forestølen" />
		<tag k="name" v="Furestølen" />
		<tag k="place" v="locality" />
		<tag k="ssr:stedsnr" v="425788" />
	</node>
	<node id="-18866" lat="58.7001527812" lon="6.06772500244">
		<tag k="name" v="Nygard" />
		<tag k="place" v="farm" />
		<tag k="ssr:stedsnr" v="61469" />
	</node>
	<node id="-19377" lat="58.6908461841" lon="6.51286731376">
		<tag k="fixme" v="consider place=hamlet" />
		<tag k="name" v="Bjordal" />
		<tag k="place" v="farm" />
		<tag k="ssr:stedsnr" v="425767" />
	</node>
	<node id="-19376" lat="58.6990416666" lon="6.05352499628">
		<tag k="name" v="Høgevoll" />
		<tag k="old_name" v="Høgvoll" />
		<tag k="place" v="farm" />
		<tag k="ssr:stedsnr" v="425473" />
	</node>
	<node id="-18863" lat="58.6720147322" lon="6.15390466138">
		<tag k="alt_name" v="Eigjeland" />
		<tag k="fixme" v="consider place=hamlet" />
		<tag k="name" v="Eikeland" />
		<tag k="place" v="farm" />
		<tag k="ssr:stedsnr" v="61448" />
	</node>
	<node id="-18857" lat="58.5949555565" lon="6.18588055664">
		<tag k="name" v="Rånetangen" />
		<tag k="place" v="isolated_dwelling" />
		<tag k="ssr:stedsnr" v="61113" />
	</node>
	<node id="-18853" lat="58.6312486759" lon="6.0688082431">
		<tag k="alt_name" v="Store Svela" />
		<tag k="fixme" v="consider place=hamlet" />
		<tag k="name" v="Stora Svela" />
		<tag k="place" v="farm" />
		<tag k="ssr:stedsnr" v="61016" />
	</node>
	<node id="-17828" lat="58.6589138932" lon="6.1735777778">
		<tag k="name" v="Tveide" />
		<tag k="place" v="farm" />
		<tag k="ssr:stedsnr" v="282031" />
	</node>
	<node id="-18339" lat="58.6997138879" lon="6.35774999599">
		<tag k="historic" v="shieling" />
		<tag k="name" v="Mollbakken" />
		<tag k="place" v="locality" />
		<tag k="ssr:stedsnr" v="726295" />
	</node>
	<node id="-18847" lat="58.5414384103" lon="6.01422003232">
>>>>>>> e1d4bc35ff8a6074a6f2e91616a996b547c36f15
		<tag k="fixme" v="consider place=hamlet" />
		<tag k="name" v="Varp" />
		<tag k="place" v="farm" />
		<tag k="ssr:stedsnr" v="60097" />
	</node>
<<<<<<< HEAD
	<node lat="58.66353961275807" lon="6.142443411768293" id="-553">
		<tag k="fixme" v="consider place=hamlet" />
		<tag k="name" v="Øygard" />
		<tag k="place" v="farm" />
		<tag k="ssr:stedsnr" v="425047" />
	</node>
	<node lat="58.74491944861073" lon="6.216422223575715" id="-581">
		<tag k="name" v="Sørbø" />
		<tag k="place" v="farm" />
		<tag k="ssr:stedsnr" v="464656" />
	</node>
	<node lat="58.71593333407152" lon="6.251277771757639" id="-586">
		<tag k="historic" v="shieling" />
		<tag k="name" v="Indrestøl" />
		<tag k="place" v="isolated_dwelling" />
		<tag k="ssr:stedsnr" v="465073" />
	</node>
	<node lat="58.624258334241425" lon="6.094663884605721" id="-601">
		<tag k="name" v="Holmen" />
		<tag k="place" v="neighbourhood" />
		<tag k="ssr:stedsnr" v="479364" />
	</node>
	<node lat="58.60678055580007" lon="5.997163880580199" id="-675">
		<tag k="name" v="Holen" />
		<tag k="place" v="farm" />
		<tag k="ssr:stedsnr" v="546007" />
	</node>
	<node lat="58.57757172689455" lon="5.994786451248936" id="-681">
		<tag k="fixme" v="consider place=hamlet" />
		<tag k="name" v="Gåsland" />
		<tag k="place" v="farm" />
		<tag k="ssr:stedsnr" v="546129" />
	</node>
	<node lat="58.69585856834667" lon="6.203203440786488" id="-685">
		<tag k="alt_name" v="Malmei" />
		<tag k="fixme" v="consider place=hamlet" />
		<tag k="name" v="Malmeim" />
		<tag k="place" v="farm" />
		<tag k="ssr:stedsnr" v="546415" />
	</node>
	<node lat="58.56934444290869" lon="6.064961106280728" id="-715">
		<tag k="name" v="Soksemona" />
		<tag k="place" v="farm" />
		<tag k="ssr:stedsnr" v="568015" />
	</node>
	<node lat="58.67362777555215" lon="6.372163883749407" id="-731">
		<tag k="name" v="Kjempå" />
		<tag k="place" v="locality" />
		<tag k="ssr:stedsnr" v="585317" />
	</node>
	<node lat="58.68241110832707" lon="6.410430551527731" id="-746">
		<tag k="name" v="Bakken" />
		<tag k="place" v="farm" />
		<tag k="ssr:stedsnr" v="586317" />
	</node>
	<node lat="58.75143889229544" lon="6.212113896729629" id="-751">
		<tag k="name" v="Plasset" />
		<tag k="place" v="farm" />
		<tag k="ssr:stedsnr" v="602698" />
	</node>
	<node lat="58.66227499912254" lon="6.096477776291288" id="-763">
		<tag k="name" v="Skjæveland" />
		<tag k="place" v="farm" />
		<tag k="ssr:stedsnr" v="699723" />
	</node>
	<node lat="58.5563090438169" lon="6.042461765217547" id="-764">
		<tag k="fixme" v="consider place=hamlet" />
		<tag k="name" v="Vinningland" />
		<tag k="place" v="farm" />
		<tag k="ssr:stedsnr" v="606090" />
	</node>
	<node lat="58.560174997189215" lon="5.999805558473205" id="-790">
		<tag k="name" v="Intredalen" />
		<tag k="place" v="locality" />
		<tag k="ssr:stedsnr" v="629810" />
	</node>
	<node lat="58.6564888887148" lon="6.086961105663094" id="-799">
		<tag k="name" v="Skjæveland" />
		<tag k="place" v="farm" />
		<tag k="ssr:stedsnr" v="638732" />
	</node>
	<node lat="58.71386944325539" lon="6.2434277853902875" id="-831">
		<tag k="historic" v="shieling" />
		<tag k="name" v="Espelandstølen" />
		<tag k="place" v="isolated_dwelling" />
		<tag k="ssr:stedsnr" v="708099" />
	</node>
	<node lat="58.54698610933223" lon="6.042152784946698" id="-835">
		<tag k="name" v="Langeli" />
		<tag k="place" v="quarter" />
		<tag k="ssr:stedsnr" v="661093" />
	</node>
	<node lat="58.64187222186342" lon="6.085994448309469" id="-836">
		<tag k="name" v="Buberget" />
		<tag k="place" v="quarter" />
		<tag k="ssr:stedsnr" v="709100" />
	</node>
	<node lat="58.63179444843608" lon="6.080338884309469" id="-837">
		<tag k="name" v="Nesjane" />
		<tag k="place" v="quarter" />
		<tag k="ssr:stedsnr" v="709105" />
	</node>
	<node lat="58.606204453383576" lon="6.088122079862278" id="-863">
		<tag k="fixme" v="consider place=hamlet" />
		<tag k="name" v="Gjedrem" />
		<tag k="place" v="farm" />
		<tag k="ssr:stedsnr" v="667010" />
	</node>
	<node lat="58.59819999821145" lon="6.096563886768791" id="-864">
		<tag k="name" v="Ore" />
		<tag k="place" v="farm" />
		<tag k="ssr:stedsnr" v="667017" />
	</node>
	<node lat="58.56695234880771" lon="6.059811884256669" id="-869">
		<tag k="fixme" v="consider place=hamlet" />
		<tag k="name" v="Apeland" />
		<tag k="place" v="farm" />
		<tag k="ssr:stedsnr" v="667107" />
	</node>
	<node lat="58.56671567410186" lon="6.041398276002275" id="-870">
		<tag k="fixme" v="consider place=hamlet" />
		<tag k="name" v="Versland" />
		<tag k="old_name" v="Værsland" />
		<tag k="place" v="farm" />
		<tag k="ssr:stedsnr" v="667123" />
	</node>
	<node lat="58.57593055603034" lon="6.120602785535447" id="-871">
		<tag k="name" v="Røssedalen" />
		<tag k="place" v="locality" />
		<tag k="ssr:stedsnr" v="667135" />
	</node>
	<node lat="58.59072671508182" lon="6.167056851235026" id="-872">
		<tag k="fixme" v="consider place=hamlet" />
		<tag k="name" v="Kjørren" />
		<tag k="old_name" v="Tjørn" />
		<tag k="place" v="farm" />
		<tag k="ssr:stedsnr" v="667150" />
	</node>
	<node lat="58.525789164551085" lon="6.0190003199973034" id="-882">
		<tag k="alt_name" v="Tengesdal, nordre;n Tengsedal" />
		<tag k="fixme" v="consider place=hamlet" />
		<tag k="name" v="Nordre Tengesdal" />
		<tag k="place" v="farm" />
		<tag k="ssr:stedsnr" v="668202" />
	</node>
	<node lat="58.64315277645413" lon="6.106850000413055" id="-940">
		<tag k="name" v="Vikesdalslia" />
		<tag k="place" v="quarter" />
		<tag k="ssr:stedsnr" v="720805" />
	</node>
	<node lat="58.595313884490984" lon="6.143305556371479" id="-941">
		<tag k="name" v="Hytland" />
		<tag k="place" v="neighbourhood" />
		<tag k="ssr:stedsnr" v="722380" />
	</node>
	<node lat="58.579105085994" lon="5.982824954779731" id="-952">
		<tag k="alt_name" v="Eikeland (på heia);Eikeland på Heia" />
		<tag k="fixme" v="consider place=hamlet" />
		<tag k="name" v="Eikeland" />
		<tag k="place" v="farm" />
		<tag k="ssr:stedsnr" v="728108" />
	</node>
	<node lat="58.554914695127806" lon="6.069822486294101" id="-953">
		<tag k="fixme" v="consider place=hamlet" />
		<tag k="name" v="Sagland" />
		<tag k="place" v="farm" />
		<tag k="ssr:stedsnr" v="728069" />
	</node>
	<node lat="58.69737512644393" lon="6.045640205354407" id="-954">
		<tag k="fixme" v="consider place=hamlet" />
		<tag k="name" v="Fuglestad" />
		<tag k="place" v="farm" />
		<tag k="ssr:stedsnr" v="728474" />
	</node>
	<node lat="58.52847669659515" lon="6.032860614129873" id="-962">
		<tag k="alt_name" v="Tengesdal;s Tengesdal" />
		<tag k="fixme" v="consider place=hamlet" />
		<tag k="name" v="Søre Tengesdal" />
		<tag k="place" v="farm" />
		<tag k="ssr:stedsnr" v="729182" />
	</node>
	<node lat="58.576755552554026" lon="5.983430560824012" id="-979">
		<tag k="name" v="Elvenes" />
		<tag k="place" v="farm" />
		<tag k="ssr:stedsnr" v="751274" />
	</node>
	<node lat="58.58696944225615" lon="6.069241668645938" id="-988">
		<tag k="name" v="Røyslandsdalen" />
		<tag k="place" v="quarter" />
		<tag k="ssr:stedsnr" v="905090" />
	</node>
	<node lat="58.7190083296953" lon="6.374130553150924" id="-989">
		<tag k="name" v="Langebu" />
		<tag k="place" v="neighbourhood" />
		<tag k="ssr:stedsnr" v="905095" />
	</node>
	<node lat="58.70002777643892" lon="6.239100002492202" id="-1003">
		<tag k="historic" v="shieling" />
		<tag k="name" v="Joanstølen" />
		<tag k="place" v="isolated_dwelling" />
		<tag k="ssr:stedsnr" v="769120" />
	</node>
	<node lat="58.64971056973067" lon="6.16511499749109" id="-1023">
		<tag k="fixme" v="consider place=hamlet" />
		<tag k="name" v="Spødavoll" />
		<tag k="place" v="farm" />
		<tag k="ssr:stedsnr" v="910044" />
	</node>
	<node lat="58.55982777447567" lon="6.054000006920433" id="-1027">
		<tag k="name" v="Vinningland" />
		<tag k="place" v="farm" />
		<tag k="ssr:stedsnr" v="910103" />
	</node>
	<node lat="58.59410632760605" lon="6.05025857089556" id="-1031">
		<tag k="fixme" v="consider place=hamlet" />
		<tag k="name" v="Solberg" />
		<tag k="place" v="farm" />
		<tag k="ssr:stedsnr" v="910121" />
	</node>
	<node lat="58.590100003311726" lon="5.967505554393559" id="-1032">
		<tag k="alt_name" v="Goabakkane (nedl.)" />
		<tag k="name" v="Goabakken" />
		<tag k="place" v="farm" />
		<tag k="ssr:stedsnr" v="910123" />
	</node>
	<node lat="58.62231297550445" lon="6.236646885542824" id="-1042">
		<tag k="alt_name" v="Lauberak" />
		<tag k="fixme" v="consider place=hamlet" />
		<tag k="loc_name" v="Lauperåk" />
		<tag k="name" v="Lauperak" />
		<tag k="place" v="farm" />
		<tag k="ssr:stedsnr" v="910813" />
	</node>
	<node lat="58.712352076713415" lon="6.34635322869949" id="-1055">
		<tag k="fixme" v="consider place=hamlet" />
		<tag k="name" v="Grøtteland" />
		<tag k="place" v="farm" />
		<tag k="ssr:stedsnr" v="911233" />
	</node>
	<node lat="58.59060142340194" lon="6.079314963027386" id="-1059">
		<tag k="name" v="Byrkjemo" />
		<tag k="place" v="farm" />
		<tag k="ssr:stedsnr" v="789108" />
	</node>
	<node lat="58.58127222032303" lon="6.077016672129869" id="-1060">
		<tag k="name" v="Bjerkreim" />
		<tag k="place" v="farm" />
		<tag k="ssr:stedsnr" v="789113" />
	</node>
	<node lat="58.61778333734066" lon="6.09673055106916" id="-1063">
		<tag k="name" v="Holmen" />
		<tag k="place" v="farm" />
		<tag k="ssr:stedsnr" v="789022" />
	</node>
	<node lat="58.75035561368913" lon="6.218601246800859" id="-1073">
		<tag k="fixme" v="consider place=hamlet" />
		<tag k="name" v="Veen" />
		<tag k="place" v="farm" />
		<tag k="ssr:stedsnr" v="911788" />
	</node>
	<node lat="58.56237777798045" lon="6.000052781217514" id="-1084">
		<tag k="name" v="Tangen" />
		<tag k="place" v="farm" />
		<tag k="ssr:stedsnr" v="811682" />
	</node>
	<node lat="58.54461388713191" lon="6.042672214011403" id="-1088">
		<tag k="name" v="Langeli" />
		<tag k="place" v="farm" />
		<tag k="ssr:stedsnr" v="811806" />
	</node>
	<node lat="58.63773888655401" lon="6.096008328599649" id="-1108">
		<tag k="name" v="Storemyr" />
		<tag k="place" v="quarter" />
		<tag k="ssr:stedsnr" v="831108" />
	</node>
	<node lat="58.7089361132222" lon="6.374180559522138" id="-1113">
		<tag k="name" v="Flodene" />
		<tag k="place" v="neighbourhood" />
		<tag k="ssr:stedsnr" v="844112" />
	</node>
	<node lat="58.70832777618886" lon="6.370775002487025" id="-1114">
		<tag k="name" v="Eikemyrane" />
		<tag k="place" v="neighbourhood" />
		<tag k="ssr:stedsnr" v="844115" />
	</node>
	<node lat="58.66391666410892" lon="6.394780561199713" id="-1130">
		<tag k="alt_name" v="Klompen" />
		<tag k="name" v="Klumpen" />
		<tag k="place" v="isolated_dwelling" />
		<tag k="ssr:stedsnr" v="849805" />
	</node>
	<node lat="58.59519999890527" lon="6.090755558147499" id="-1140">
		<tag k="name" v="Martastykket" />
		<tag k="place" v="locality" />
		<tag k="ssr:stedsnr" v="872006" />
	</node>
	<node lat="58.637880558005804" lon="6.074866672009274" id="-1184">
		<tag k="name" v="Foretangen" />
		<tag k="place" v="farm" />
		<tag k="ssr:stedsnr" v="908853" />
	</node>
	<node lat="58.64046835320765" lon="6.090645247447828" id="-1185">
		<tag k="fixme" v="consider place=hamlet" />
		<tag k="name" v="Vigjeså" />
		<tag k="place" v="farm" />
		<tag k="ssr:stedsnr" v="908854" />
	</node>
	<node lat="58.71395885471162" lon="6.46855953184304" id="-1197">
		<tag k="alt_name" v="Brattabø" />
		<tag k="fixme" v="consider place=hamlet" />
		<tag k="name" v="Brattebø" />
		<tag k="place" v="farm" />
		<tag k="ssr:stedsnr" v="910222" />
	</node>
	<node lat="58.69625633452004" lon="6.058357196835294" id="-1202">
		<tag k="alt_name" v="Nerabø" />
		<tag k="fixme" v="consider place=hamlet" />
		<tag k="name" v="Nedrebø" />
		<tag k="place" v="farm" />
		<tag k="ssr:stedsnr" v="910496" />
	</node>
	<node lat="58.608821419571406" lon="6.011713895001757" id="-1246">
		<tag k="alt_name" v="Slettebø" />
		<tag k="fixme" v="consider place=hamlet" />
		<tag k="name" v="Slettabø" />
		<tag k="place" v="farm" />
		<tag k="ssr:stedsnr" v="5" />
	</node>
	<node lat="58.59847861274617" lon="6.00559162816686" id="-1248">
		<tag k="alt_name" v="Ognadal" />
		<tag k="fixme" v="consider place=hamlet" />
		<tag k="name" v="Ognedal" />
		<tag k="place" v="farm" />
		<tag k="ssr:stedsnr" v="10" />
	</node>
	<node lat="58.56426360319708" lon="5.938124787937134" id="-1257">
		<tag k="fixme" v="consider place=hamlet" />
		<tag k="name" v="Gravdal" />
		<tag k="place" v="farm" />
		<tag k="ssr:stedsnr" v="105" />
	</node>
	<node lat="58.68189592623065" lon="6.414621577194671" id="-1269">
		<tag k="fixme" v="consider place=hamlet" />
		<tag k="name" v="Hovland" />
		<tag k="place" v="farm" />
		<tag k="ssr:stedsnr" v="768" />
	</node>
	<node lat="58.60387221822942" lon="5.9089777760031" id="-1281">
		<tag k="name" v="Steinsland" />
		<tag k="place" v="locality" />
		<tag k="ssr:stedsnr" v="23424" />
	</node>
	<node lat="58.66351111060823" lon="6.075250002634186" id="-1301">
		<tag k="name" v="Skjæveland" />
		<tag k="place" v="farm" />
		<tag k="ssr:stedsnr" v="31748" />
	</node>
	<node lat="58.76582778194402" lon="6.198108338275038" id="-1340">
		<tag k="historic" v="shieling" />
		<tag k="name" v="Legå" />
		<tag k="place" v="isolated_dwelling" />
		<tag k="ssr:stedsnr" v="59395" />
	</node>
	<node lat="58.54143841030104" lon="6.01422003231613" id="-1349">
		<tag k="fixme" v="consider place=hamlet" />
		<tag k="name" v="Varp" />
		<tag k="place" v="farm" />
		<tag k="ssr:stedsnr" v="60097" />
	</node>
	<node lat="58.6430805280432" lon="6.11410039098101" id="-1351">
		<tag k="name" v="Vikesdal" />
		<tag k="place" v="farm" />
		<tag k="ssr:stedsnr" v="60051" />
	</node>
	<node lat="58.631248675886994" lon="6.0688082430987045" id="-1352">
		<tag k="alt_name" v="Store Svela" />
		<tag k="fixme" v="consider place=hamlet" />
		<tag k="name" v="Stora Svela" />
		<tag k="place" v="farm" />
		<tag k="ssr:stedsnr" v="61016" />
	</node>
	<node lat="58.672014732221335" lon="6.153904661379802" id="-1353">
		<tag k="alt_name" v="Eigjeland" />
=======
	<node id="-18846" lat="58.5470346592" lon="6.02676484882">
		<tag k="fixme" v="consider place=hamlet" />
		<tag k="name" v="Helland" />
		<tag k="place" v="farm" />
		<tag k="ssr:stedsnr" v="60089" />
	</node>
	<node id="-18845" lat="58.643080528" lon="6.11410039098">
		<tag k="name" v="Vikesdal" />
		<tag k="place" v="farm" />
		<tag k="ssr:stedsnr" v="60051" />
	</node>
	<node id="-18843" lat="58.7658277819" lon="6.19810833828">
		<tag k="historic" v="shieling" />
		<tag k="name" v="Legå" />
		<tag k="place" v="locality" />
		<tag k="ssr:stedsnr" v="59395" />
	</node>
	<node id="-19353" lat="58.7326305531" lon="6.40562500577">
		<tag k="historic" v="shieling" />
		<tag k="name" v="Barbustølen" />
		<tag k="place" v="locality" />
		<tag k="ssr:stedsnr" v="423266" />
	</node>
	<node id="-18840" lat="58.7111583292" lon="6.3501638869">
		<tag k="name" v="Plasset" />
		<tag k="place" v="farm" />
		<tag k="ssr:stedsnr" v="59270" />
	</node>
	<node id="-19296" lat="58.7364361103" lon="6.26671111444">
		<tag k="alt_name" v="Stykkjet" />
		<tag k="name" v="Stykket" />
		<tag k="place" v="farm" />
		<tag k="ssr:stedsnr" v="365141" />
	</node>
	<node id="-19348" lat="58.6498027784" lon="6.07941944465">
		<tag k="name" v="Hadland" />
		<tag k="place" v="locality" />
		<tag k="ssr:stedsnr" v="422482" />
	</node>
	<node id="-19858" lat="58.7231888868" lon="6.17940000338">
		<tag k="alt_name" v="Skjellbrei" />
		<tag k="name" v="Skjelbreid" />
		<tag k="place" v="farm" />
		<tag k="ssr:stedsnr" v="850489" />
	</node>
	<node id="-17808" lat="58.7226845757" lon="6.20670461106">
		<tag k="fixme" v="consider place=hamlet" />
		<tag k="name" v="Espeland" />
		<tag k="place" v="farm" />
		<tag k="ssr:stedsnr" v="243470" />
	</node>
	<node id="-19852" lat="58.5936832727" lon="6.02259309155">
		<tag k="alt_name" v="Kløytfed;Kløgtvedt" />
		<tag k="fixme" v="consider place=hamlet" />
		<tag k="name" v="Kløgtveit" />
		<tag k="place" v="farm" />
		<tag k="ssr:stedsnr" v="850121" />
	</node>
	<node id="-17803" lat="58.7185694439" lon="6.37967499665">
		<tag k="historic" v="shieling" />
		<tag k="name" v="Langebu" />
		<tag k="place" v="locality" />
		<tag k="ssr:stedsnr" v="243209" />
	</node>
	<node id="-18825" lat="58.6384888883" lon="6.09139722681">
		<tag k="leisure" v="pitch" />
		<tag k="name" v="Lossvollen" />
		<tag k="ssr:stedsnr" v="58888" />
	</node>
	<node id="-18310" lat="58.6590097751" lon="6.00440536194">
		<tag k="fixme" v="consider place=hamlet" />
		<tag k="name" v="Vaule" />
		<tag k="place" v="farm" />
		<tag k="ssr:stedsnr" v="606053" />
	</node>
	<node id="-19319" lat="58.6633972184" lon="6.09887500422">
		<tag k="name" v="Skjæveland" />
		<tag k="place" v="farm" />
		<tag k="ssr:stedsnr" v="395769" />
	</node>
	<node id="-17782" lat="58.7227333333" lon="6.49021389586">
		<tag k="fixme" v="consider tourism=alpine_hut or tourism=chalet" />
		<tag k="name" v="Kvitlen" />
		<tag k="ssr:stedsnr" v="181275" />
		<tag k="tourism" v="wilderness_hut" />
	</node>
	<node id="-18801" lat="58.74868889" lon="6.20832222494">
		<tag k="name" v="Garvollen" />
		<tag k="place" v="farm" />
		<tag k="ssr:stedsnr" v="40724" />
	</node>
	<node id="-18288" lat="58.6824111083" lon="6.41043055153">
		<tag k="name" v="Bakken" />
		<tag k="place" v="farm" />
		<tag k="ssr:stedsnr" v="586317" />
	</node>
	<node id="-19772" lat="58.6431833339" lon="6.11278054786">
		<tag k="name" v="Vikesdal" />
		<tag k="place" v="farm" />
		<tag k="ssr:stedsnr" v="825694" />
	</node>
	<node id="-19812" lat="58.7083277762" lon="6.37077500249">
		<tag k="name" v="Eikemyrane" />
		<tag k="place" v="neighbourhood" />
		<tag k="ssr:stedsnr" v="844115" />
	</node>
	<node id="-19811" lat="58.7089361132" lon="6.37418055952">
		<tag k="name" v="Flodene" />
		<tag k="place" v="neighbourhood" />
		<tag k="ssr:stedsnr" v="844112" />
	</node>
	<node id="-18785" lat="58.6635111106" lon="6.07525000263">
		<tag k="name" v="Skjæveland" />
		<tag k="place" v="farm" />
		<tag k="ssr:stedsnr" v="31748" />
	</node>
	<node id="-18272" lat="58.6736277756" lon="6.37216388375">
		<tag k="name" v="Kjempå" />
		<tag k="place" v="locality" />
		<tag k="ssr:stedsnr" v="585317" />
	</node>
	<node id="-18576" lat="58.7000277764" lon="6.23910000249">
		<tag k="historic" v="shieling" />
		<tag k="name" v="Joanstølen" />
		<tag k="place" v="locality" />
		<tag k="ssr:stedsnr" v="769120" />
	</node>
	<node id="-19806" lat="58.6377388866" lon="6.0960083286">
		<tag k="name" v="Storemyr" />
		<tag k="place" v="quarter" />
		<tag k="ssr:stedsnr" v="831108" />
	</node>
	<node id="-19293" lat="58.7488970126" lon="6.48857637832">
		<tag k="name" v="Hovlandstølen" />
		<tag k="place" v="isolated_dwelling" />
		<tag k="ssr:stedsnr" v="365133" />
	</node>
	<node id="-19290" lat="58.6335258161" lon="6.22807425836">
		<tag k="fixme" v="consider place=hamlet" />
		<tag k="name" v="Dyrskog" />
		<tag k="place" v="farm" />
		<tag k="ssr:stedsnr" v="364842" />
	</node>
	<node id="-18265" lat="58.6418722219" lon="6.08599444831">
		<tag k="name" v="Buberget" />
		<tag k="place" v="quarter" />
		<tag k="ssr:stedsnr" v="709100" />
	</node>
	<node id="-18261" lat="58.7138694433" lon="6.24342778539">
		<tag k="historic" v="shieling" />
		<tag k="name" v="Espelandstølen" />
		<tag k="place" v="locality" />
		<tag k="ssr:stedsnr" v="708099" />
	</node>
	<node id="-19281" lat="58.5537617204" lon="6.08439149408">
		<tag k="fixme" v="consider place=hamlet" />
		<tag k="name" v="Åsen" />
		<tag k="place" v="farm" />
		<tag k="ssr:stedsnr" v="364095" />
	</node>
	<node id="-19275" lat="58.6093635391" lon="6.00465105228">
		<tag k="fixme" v="consider place=hamlet" />
		<tag k="name" v="Laksesvela" />
		<tag k="old_name" v="Lakssvela" />
		<tag k="place" v="farm" />
		<tag k="ssr:stedsnr" v="364025" />
	</node>
	<node id="-19271" lat="58.5989032235" lon="5.99603582021">
		<tag k="fixme" v="consider place=hamlet" />
		<tag k="name" v="Tysland" />
		<tag k="place" v="farm" />
		<tag k="ssr:stedsnr" v="364009" />
	</node>
	<node id="-19781" lat="58.6857277737" lon="6.33226667111">
		<tag k="name" v="Kjeringbu" />
		<tag k="place" v="isolated_dwelling" />
		<tag k="ssr:stedsnr" v="828341" />
	</node>
	<node id="-19268" lat="58.711136113" lon="6.2478861157">
		<tag k="name" v="Legå" />
		<tag k="place" v="isolated_dwelling" />
		<tag k="ssr:stedsnr" v="364250" />
	</node>
	<node id="-19779" lat="58.7269000041" lon="6.08824999824">
		<tag k="name" v="Vindheia" />
		<tag k="place" v="locality" />
		<tag k="ssr:stedsnr" v="828292" />
	</node>
	<node id="-19851" lat="58.6639166641" lon="6.3947805612">
		<tag k="alt_name" v="Klompen" />
		<tag k="name" v="Klumpen" />
		<tag k="place" v="isolated_dwelling" />
		<tag k="ssr:stedsnr" v="849805" />
	</node>
	<node id="-19509" lat="58.6590999963" lon="6.09363055946">
		<tag k="name" v="Skjæveland" />
		<tag k="place" v="farm" />
		<tag k="ssr:stedsnr" v="577770" />
	</node>
	<node id="-19260" lat="58.703100004" lon="6.58508055517">
		<tag k="name" v="Bjordalsstølane" />
		<tag k="place" v="locality" />
		<tag k="ssr:stedsnr" v="364216" />
	</node>
	<node id="-18740" lat="58.6818959262" lon="6.41462157719">
		<tag k="fixme" v="consider place=hamlet" />
		<tag k="name" v="Hovland" />
		<tag k="place" v="farm" />
		<tag k="ssr:stedsnr" v="768" />
	</node>
	<node id="-19253" lat="58.6349555577" lon="6.23593333947">
		<tag k="name" v="Øygarden" />
		<tag k="place" v="locality" />
		<tag k="ssr:stedsnr" v="361898" />
	</node>
	<node id="-19252" lat="58.6290999992" lon="6.07920277824">
		<tag k="name" v="Langekrå" />
		<tag k="place" v="locality" />
		<tag k="ssr:stedsnr" v="361894" />
	</node>
	<node id="-18568" lat="58.7503556137" lon="6.2186012468">
		<tag k="fixme" v="consider place=hamlet" />
		<tag k="name" v="Veen" />
		<tag k="place" v="farm" />
		<tag k="ssr:stedsnr" v="911788" />
	</node>
	<node id="-18727" lat="58.5642636032" lon="5.93812478794">
		<tag k="fixme" v="consider place=hamlet" />
		<tag k="name" v="Gravdal" />
		<tag k="place" v="farm" />
		<tag k="ssr:stedsnr" v="105" />
	</node>
	<node id="-19748" lat="58.5446138871" lon="6.04267221401">
		<tag k="name" v="Langeli" />
		<tag k="place" v="farm" />
		<tag k="ssr:stedsnr" v="811806" />
	</node>
	<node id="-17697" lat="58.6012083291" lon="6.1886444422">
		<tag k="name" v="Larsastølen" />
		<tag k="place" v="locality" />
		<tag k="ssr:stedsnr" v="265072" />
	</node>
	<node id="-18719" lat="58.5984786127" lon="6.00559162817">
		<tag k="alt_name" v="Ognadal" />
		<tag k="fixme" v="consider place=hamlet" />
		<tag k="name" v="Ognedal" />
		<tag k="place" v="farm" />
		<tag k="ssr:stedsnr" v="10" />
	</node>
	<node id="-19741" lat="58.562377778" lon="6.00005278122">
		<tag k="name" v="Tangen" />
		<tag k="place" v="farm" />
		<tag k="ssr:stedsnr" v="811682" />
	</node>
	<node id="-17801" lat="58.5654863306" lon="6.11334324918">
		<tag k="fixme" v="consider place=hamlet" />
		<tag k="name" v="Litle Efteland" />
		<tag k="place" v="farm" />
		<tag k="ssr:stedsnr" v="243078" />
	</node>
	<node id="-17687" lat="58.7262305529" lon="6.07624722542">
		<tag k="name" v="Listøl" />
		<tag k="place" v="farm" />
		<tag k="ssr:stedsnr" v="117403" />
	</node>
	<node id="-17686" lat="58.5838416631" lon="6.06325555897">
		<tag k="name" v="Røyslandsfeltet" />
		<tag k="place" v="quarter" />
		<tag k="ssr:stedsnr" v="116104" />
	</node>
	<node id="-17684" lat="58.5390916642" lon="5.98908332942">
		<tag k="name" v="Hetlandshytta" />
		<tag k="place" v="isolated_dwelling" />
		<tag k="ssr:stedsnr" v="116011" />
	</node>
	<node id="-19727" lat="58.6866755471" lon="6.16077617013">
		<tag k="fixme" v="consider place=hamlet" />
		<tag k="name" v="Øvrebygd" />
		<tag k="place" v="village" />
		<tag k="ssr:stedsnr" v="789471" />
	</node>
	<node id="-19649" lat="58.5340749963" lon="6.04420278491">
		<tag k="name" v="Ferja" />
		<tag k="place" v="locality" />
		<tag k="ssr:stedsnr" v="751939" />
	</node>
	<node id="-19723" lat="58.5812722203" lon="6.07701667213">
		<tag k="name" v="Bjerkreim" />
		<tag k="place" v="farm" />
		<tag k="ssr:stedsnr" v="789113" />
	</node>
	<node id="-19722" lat="58.5906014234" lon="6.07931496303">
		<tag k="name" v="Byrkjemo" />
		<tag k="place" v="farm" />
		<tag k="ssr:stedsnr" v="789108" />
	</node>
	<node id="-18695" lat="58.6051" lon="6.22471111721">
		<tag k="name" v="Glovrestøl" />
		<tag k="place" v="locality" />
		<tag k="ssr:stedsnr" v="937421" />
	</node>
	<node id="-19718" lat="58.6177833373" lon="6.09673055107">
		<tag k="name" v="Holmen" />
		<tag k="place" v="farm" />
		<tag k="ssr:stedsnr" v="789022" />
	</node>
	<node id="-18561" lat="58.6962563345" lon="6.05835719684">
		<tag k="alt_name" v="Nerabø" />
		<tag k="fixme" v="consider place=hamlet" />
		<tag k="name" v="Nedrebø" />
		<tag k="place" v="farm" />
		<tag k="ssr:stedsnr" v="910496" />
	</node>
	<node id="-19715" lat="58.7348567515" lon="6.20316443222">
		<tag k="fixme" v="consider place=hamlet" />
		<tag k="name" v="Hovland" />
		<tag k="place" v="farm" />
		<tag k="ssr:stedsnr" v="788389" />
	</node>
	<node id="-19199" lat="58.5507333314" lon="6.03813056122">
		<tag k="name" v="Laksheim" />
		<tag k="place" v="farm" />
		<tag k="ssr:stedsnr" v="326835" />
	</node>
	<node id="-19709" lat="58.633333331" lon="6.08303610446">
		<tag k="alt_name" v="Vigjeså" />
		<tag k="fixme" v="consider place=suburb, village or hamlet" />
		<tag k="name" v="Vikeså" />
		<tag k="place" v="quarter" />
		<tag k="ssr:stedsnr" v="788036" />
	</node>
	<node id="-17659" lat="58.7015915174" lon="6.07419068022">
		<tag k="alt_name" v="Store Byrkjeland;Store Birkeland;Birkjeland" />
		<tag k="fixme" v="consider place=hamlet" />
		<tag k="name" v="Birkeland" />
		<tag k="old_name" v="Byrkjeland" />
		<tag k="place" v="farm" />
		<tag k="ssr:stedsnr" v="243483" />
	</node>
	<node id="-17655" lat="58.5728327998" lon="6.05828659027">
		<tag k="fixme" v="consider place=hamlet" />
		<tag k="name" v="Hustoft" />
		<tag k="place" v="farm" />
		<tag k="ssr:stedsnr" v="243091" />
	</node>
	<node id="-17654" lat="58.6565567352" lon="5.90598442967">
		<tag k="fixme" v="consider place=hamlet" />
		<tag k="name" v="Osland" />
		<tag k="place" v="farm" />
		<tag k="ssr:stedsnr" v="243037" />
	</node>
	<node id="-17653" lat="58.6710879304" lon="6.37606420831">
		<tag k="name" v="Vassbø" />
		<tag k="place" v="farm" />
		<tag k="ssr:stedsnr" v="242743" />
	</node>
	<node id="-18131" lat="58.5257891646" lon="6.01900032">
		<tag k="alt_name" v="Tengesdal, nordre;n Tengsedal" />
		<tag k="fixme" v="consider place=hamlet" />
		<tag k="name" v="Nordre Tengesdal" />
		<tag k="place" v="farm" />
		<tag k="ssr:stedsnr" v="668202" />
	</node>
	<node id="-18668" lat="58.655402774" lon="6.08639166426">
		<tag k="name" v="Skjæveland" />
		<tag k="place" v="farm" />
		<tag k="ssr:stedsnr" v="881731" />
	</node>
	<node id="-17873" lat="58.681246112" lon="6.12931354452">
		<tag k="alt_name" v="Asseim" />
		<tag k="fixme" v="consider place=hamlet" />
		<tag k="name" v="Asheim" />
		<tag k="place" v="farm" />
		<tag k="ssr:stedsnr" v="303468" />
	</node>
	<node id="-19683" lat="58.7141138881" lon="6.36104444189">
		<tag k="name" v="Rinnane" />
		<tag k="place" v="neighbourhood" />
		<tag k="ssr:stedsnr" v="783093" />
	</node>
	<node id="-18140" lat="58.6242583342" lon="6.09466388461">
		<tag k="name" v="Holmen" />
		<tag k="place" v="neighbourhood" />
		<tag k="ssr:stedsnr" v="479364" />
	</node>
	<node id="-18646" lat="58.5951999989" lon="6.09075555815">
		<tag k="name" v="Martastykket" />
		<tag k="place" v="locality" />
		<tag k="ssr:stedsnr" v="872006" />
	</node>
	<node id="-17620" lat="58.6557134087" lon="6.29467349728">
		<tag k="alt_name" v="Indre Kalveskog" />
		<tag k="name" v="Kalveskog" />
		<tag k="place" v="hamlet" />
		<tag k="ssr:stedsnr" v="60790" />
	</node>
	<node id="-19155" lat="58.5624833364" lon="6.00478332797">
		<tag k="name" v="Skiftingsholen" />
		<tag k="place" v="farm" />
		<tag k="ssr:stedsnr" v="303080" />
	</node>
	<node id="-18633" lat="58.6180608342" lon="6.04147914341">
		<tag k="alt_name" v="Litle Svela" />
>>>>>>> e1d4bc35ff8a6074a6f2e91616a996b547c36f15
		<tag k="fixme" v="consider place=hamlet" />
		<tag k="name" v="Litla Svela" />
		<tag k="place" v="farm" />
<<<<<<< HEAD
		<tag k="ssr:stedsnr" v="61448" />
	</node>
	<node lat="58.7205262386919" lon="6.482671787634017" id="-1377">
		<tag k="alt_name" v="Kvitlene;Kvisla" />
		<tag k="fixme" v="consider place=hamlet" />
		<tag k="name" v="Kvitlen" />
		<tag k="place" v="farm" />
		<tag k="ssr:stedsnr" v="85949" />
	</node>
	<node lat="58.68243055289962" lon="6.421263895827413" id="-1395">
		<tag k="name" v="Steigjahagen" />
		<tag k="place" v="farm" />
		<tag k="ssr:stedsnr" v="101267" />
	</node>
	<node lat="58.681102781184975" lon="6.4107166661450155" id="-1396">
		<tag k="name" v="Solbakken" />
		<tag k="place" v="farm" />
		<tag k="ssr:stedsnr" v="101282" />
	</node>
	<node lat="58.672500003288185" lon="6.385530547493856" id="-1398">
		<tag k="name" v="Bjørkheim" />
		<tag k="place" v="farm" />
		<tag k="ssr:stedsnr" v="101297" />
	</node>
	<node lat="58.539091664243635" lon="5.9890833294221935" id="-1403">
		<tag k="name" v="Hetlandshytta" />
		<tag k="place" v="isolated_dwelling" />
		<tag k="ssr:stedsnr" v="116011" />
	</node>
	<node lat="58.66766667066332" lon="6.150974997197601" id="-1432">
		<tag k="name" v="Solvang" />
		<tag k="place" v="farm" />
		<tag k="ssr:stedsnr" v="121069" />
	</node>
	<node lat="58.544164566515995" lon="5.98788554730665" id="-1434">
		<tag k="fixme" v="consider place=hamlet" />
		<tag k="name" v="Hetland" />
		<tag k="place" v="farm" />
		<tag k="ssr:stedsnr" v="121081" />
	</node>
	<node lat="58.697891667915144" lon="6.083491663742974" id="-1443">
		<tag k="name" v="Auglend" />
		<tag k="place" v="farm" />
		<tag k="ssr:stedsnr" v="121485" />
	</node>
	<node lat="58.667943180704945" lon="6.355675965598507" id="-1444">
		<tag k="fixme" v="consider place=hamlet" />
		<tag k="name" v="Vassbø" />
		<tag k="place" v="farm" />
		<tag k="ssr:stedsnr" v="121764" />
	</node>
	<node lat="58.75086110988957" lon="6.550375001075419" id="-1454">
		<tag k="name" v="Hellersstølen" />
		<tag k="place" v="locality" />
		<tag k="ssr:stedsnr" v="122774" />
	</node>
	<node lat="58.64232393128541" lon="6.112012614811937" id="-1477">
		<tag k="fixme" v="consider place=hamlet" />
		<tag k="name" v="Vikesdal" />
		<tag k="place" v="farm" />
		<tag k="ssr:stedsnr" v="157691" />
	</node>
	<node lat="58.61357499672519" lon="6.259272214890289" id="-1496">
		<tag k="name" v="Lauperak" />
		<tag k="place" v="neighbourhood" />
		<tag k="ssr:stedsnr" v="176123" />
	</node>
	<node lat="58.705155558466906" lon="6.354022227783308" id="-1497">
		<tag k="name" v="Stavtjørnknuten" />
		<tag k="place" v="neighbourhood" />
		<tag k="ssr:stedsnr" v="176126" />
	</node>
	<node lat="58.73355277426821" lon="6.091169437699172" id="-1510">
		<tag k="name" v="Støladalen" />
		<tag k="place" v="farm" />
		<tag k="ssr:stedsnr" v="180343" />
	</node>
	<node lat="58.61062161434219" lon="6.1508260142982145" id="-1514">
		<tag k="fixme" v="consider place=hamlet" />
		<tag k="name" v="Kleppali" />
		<tag k="old_name" v="Kleppeli" />
		<tag k="place" v="farm" />
		<tag k="ssr:stedsnr" v="182010" />
	</node>
	<node lat="58.65528623462883" lon="6.163235648473778" id="-1518">
		<tag k="fixme" v="consider place=hamlet" />
		<tag k="name" v="Brådli" />
		<tag k="place" v="farm" />
		<tag k="ssr:stedsnr" v="182031" />
	</node>
	<node lat="58.66649274328825" lon="5.983226410925024" id="-1520">
		<tag k="fixme" v="consider place=hamlet" />
		<tag k="name" v="Bue" />
		<tag k="place" v="farm" />
		<tag k="ssr:stedsnr" v="182043" />
	</node>
	<node lat="58.59739722472847" lon="6.09491666400368" id="-1523">
		<tag k="alt_name" v="Oremo" />
		<tag k="name" v="Oremoen" />
		<tag k="place" v="farm" />
		<tag k="ssr:stedsnr" v="182100" />
	</node>
	<node lat="58.725063892262334" lon="6.077880560953165" id="-1527">
		<tag k="name" v="Stølen" />
		<tag k="place" v="farm" />
		<tag k="ssr:stedsnr" v="182387" />
	</node>
	<node lat="58.73181944602748" lon="6.091641672217009" id="-1537">
		<tag k="fixme" v="consider place=hamlet" />
		<tag k="name" v="Foss" />
		<tag k="place" v="farm" />
		<tag k="ssr:stedsnr" v="183173" />
	</node>
	<node lat="58.597213889390645" lon="6.131494443560821" id="-1542">
		<tag k="name" v="Sagje" />
		<tag k="place" v="farm" />
		<tag k="ssr:stedsnr" v="205018" />
	</node>
	<node lat="58.65891389320001" lon="6.173577777796964" id="-1583">
		<tag k="name" v="Tveide" />
		<tag k="place" v="farm" />
		<tag k="ssr:stedsnr" v="282031" />
	</node>
	<node lat="58.604824354916666" lon="6.10022578210271" id="-1617">
		<tag k="fixme" v="consider place=hamlet" />
		<tag k="name" v="Holmen" />
		<tag k="place" v="farm" />
		<tag k="ssr:stedsnr" v="303004" />
	</node>
	<node lat="58.586007519999995" lon="6.093803249706184" id="-1618">
		<tag k="fixme" v="consider place=hamlet" />
		<tag k="name" v="Odland" />
		<tag k="place" v="farm" />
		<tag k="ssr:stedsnr" v="303124" />
	</node>
	<node lat="58.681246112047674" lon="6.12931354452383" id="-1625">
		<tag k="alt_name" v="Asseim" />
		<tag k="fixme" v="consider place=hamlet" />
		<tag k="name" v="Asheim" />
		<tag k="place" v="farm" />
		<tag k="ssr:stedsnr" v="303468" />
	</node>
	<node lat="58.55073333144019" lon="6.038130561222413" id="-1651">
		<tag k="name" v="Laksheim" />
		<tag k="place" v="farm" />
		<tag k="ssr:stedsnr" v="326835" />
	</node>
	<node lat="58.750330556075745" lon="6.209436116312654" id="-1679">
		<tag k="name" v="Åkjel" />
		<tag k="place" v="farm" />
		<tag k="ssr:stedsnr" v="360663" />
	</node>
	<node lat="58.62909999922815" lon="6.079202778238811" id="-1699">
		<tag k="name" v="Langekrå" />
		<tag k="place" v="locality" />
		<tag k="ssr:stedsnr" v="361894" />
	</node>
	<node lat="58.634955557694354" lon="6.235933339473306" id="-1700">
		<tag k="name" v="Øygarden" />
		<tag k="place" v="locality" />
		<tag k="ssr:stedsnr" v="361898" />
	</node>
	<node lat="58.55376172037523" lon="6.08439149408202" id="-1721">
=======
		<tag k="ssr:stedsnr" v="850021" />
	</node>
	<node id="-17608" lat="58.7162749979" lon="6.19095000563">
		<tag k="name" v="Heimstadnes" />
		<tag k="place" v="neighbourhood" />
		<tag k="ssr:stedsnr" v="237102" />
	</node>
	<node id="-17868" lat="58.5809079054" lon="6.07801756893">
		<tag k="fixme" v="consider place=hamlet" />
		<tag k="name" v="Bjerkreim" />
		<tag k="place" v="farm" />
		<tag k="ssr:stedsnr" v="303109" />
	</node>
	<node id="-17605" lat="58.6395777797" lon="6.09775277337">
		<tag k="name" v="Tjødnaråsen" />
		<tag k="place" v="quarter" />
		<tag k="ssr:stedsnr" v="42102" />
	</node>
	<node id="-17867" lat="58.6048243549" lon="6.1002257821">
		<tag k="fixme" v="consider place=hamlet" />
		<tag k="name" v="Holmen" />
		<tag k="place" v="farm" />
		<tag k="ssr:stedsnr" v="303004" />
	</node>
	<node id="-18107" lat="58.7159333341" lon="6.25127777176">
		<tag k="historic" v="shieling" />
		<tag k="name" v="Indrestøl" />
		<tag k="place" v="locality" />
		<tag k="ssr:stedsnr" v="465073" />
	</node>
	<node id="-17592" lat="58.6714879312" lon="6.37968649181">
		<tag k="name" v="Høyland" />
		<tag k="place" v="farm" />
		<tag k="ssr:stedsnr" v="39303" />
	</node>
	<node id="-18102" lat="58.7449194486" lon="6.21642222358">
		<tag k="name" v="Sørbø" />
		<tag k="place" v="farm" />
		<tag k="ssr:stedsnr" v="464656" />
	</node>
	<node id="-19122" lat="58.5584138892" lon="5.93756666302">
		<tag k="name" v="Lyngbakken" />
		<tag k="place" v="farm" />
		<tag k="ssr:stedsnr" v="205144" />
	</node>
	<node id="-18096" lat="58.5907267151" lon="6.16705685124">
		<tag k="fixme" v="consider place=hamlet" />
		<tag k="name" v="Kjørren" />
		<tag k="old_name" v="Tjørn" />
		<tag k="place" v="farm" />
		<tag k="ssr:stedsnr" v="667150" />
	</node>
	<node id="-18095" lat="58.575930556" lon="6.12060278554">
		<tag k="name" v="Røssedalen" />
		<tag k="place" v="locality" />
		<tag k="ssr:stedsnr" v="667135" />
	</node>
	<node id="-18094" lat="58.5667156741" lon="6.041398276">
		<tag k="fixme" v="consider place=hamlet" />
		<tag k="name" v="Versland" />
		<tag k="old_name" v="Værsland" />
		<tag k="place" v="farm" />
		<tag k="ssr:stedsnr" v="667123" />
	</node>
	<node id="-18717" lat="58.6088214196" lon="6.011713895">
		<tag k="alt_name" v="Slettebø" />
		<tag k="fixme" v="consider place=hamlet" />
		<tag k="name" v="Slettabø" />
		<tag k="place" v="farm" />
		<tag k="ssr:stedsnr" v="5" />
	</node>
	<node id="-18092" lat="58.6370115701" lon="6.15447162842">
		<tag k="fixme" v="consider place=hamlet" />
		<tag k="name" v="Berland" />
		<tag k="place" v="farm" />
		<tag k="ssr:stedsnr" v="667062" />
	</node>
	<node id="-19626" lat="58.5767555526" lon="5.98343056082">
		<tag k="name" v="Elvenes" />
		<tag k="place" v="farm" />
		<tag k="ssr:stedsnr" v="751274" />
	</node>
	<node id="-17607" lat="58.5403111136" lon="6.03329721924">
		<tag k="name" v="Kleivane" />
		<tag k="place" v="quarter" />
		<tag k="ssr:stedsnr" v="237096" />
	</node>
	<node id="-17576" lat="58.6450999966" lon="5.99662500311">
		<tag k="name" v="Store Svela" />
		<tag k="place" v="locality" />
		<tag k="ssr:stedsnr" v="23303" />
	</node>
	<node id="-18087" lat="58.5981999982" lon="6.09656388677">
		<tag k="name" v="Ore" />
		<tag k="place" v="farm" />
		<tag k="ssr:stedsnr" v="667017" />
	</node>
	<node id="-19110" lat="58.5972138894" lon="6.13149444356">
		<tag k="name" v="Sagje" />
		<tag k="place" v="farm" />
		<tag k="ssr:stedsnr" v="205018" />
	</node>
	<node id="-19620" lat="58.6041694452" lon="5.92480000099">
		<tag k="name" v="Stølstuftene" />
		<tag k="place" v="locality" />
		<tag k="ssr:stedsnr" v="751202" />
	</node>
	<node id="-19102" lat="58.731819446" lon="6.09164167222">
		<tag k="fixme" v="consider place=hamlet" />
		<tag k="name" v="Foss" />
		<tag k="place" v="farm" />
		<tag k="ssr:stedsnr" v="183173" />
	</node>
	<node id="-19607" lat="58.6991055536" lon="6.23677500276">
		<tag k="historic" v="shieling" />
		<tag k="name" v="Olastølen" />
		<tag k="place" v="locality" />
		<tag k="ssr:stedsnr" v="648153" />
	</node>
	<node id="-19601" lat="58.7267166691" lon="6.35428611781">
		<tag k="historic" v="shieling" />
		<tag k="name" v="Grøttelandstølen" />
		<tag k="place" v="locality" />
		<tag k="ssr:stedsnr" v="646200" />
	</node>
	<node id="-19088" lat="58.7250638923" lon="6.07788056095">
		<tag k="name" v="Stølen" />
		<tag k="place" v="farm" />
		<tag k="ssr:stedsnr" v="182387" />
	</node>
	<node id="-17804" lat="58.7277527807" lon="6.35612500519">
		<tag k="name" v="Åkroken" />
		<tag k="place" v="farm" />
		<tag k="ssr:stedsnr" v="243222" />
	</node>
	<node id="-19594" lat="58.5285999965" lon="6.02502778542">
		<tag k="fixme" v="consider place=hamlet" />
		<tag k="name" v="Tengesdal" />
		<tag k="place" v="village" />
		<tag k="ssr:stedsnr" v="631516" />
	</node>
	<node id="-18057" lat="58.5469861093" lon="6.04215278495">
		<tag k="name" v="Langeli" />
		<tag k="place" v="quarter" />
		<tag k="ssr:stedsnr" v="661093" />
	</node>
	<node id="-19080" lat="58.5912697794" lon="5.9947821422">
		<tag k="fixme" v="consider place=hamlet" />
		<tag k="name" v="Steinsland" />
		<tag k="place" v="farm" />
		<tag k="ssr:stedsnr" v="182105" />
	</node>
	<node id="-19079" lat="58.6664927433" lon="5.98322641093">
		<tag k="fixme" v="consider place=hamlet" />
		<tag k="name" v="Bue" />
		<tag k="place" v="farm" />
		<tag k="ssr:stedsnr" v="182043" />
	</node>
	<node id="-19077" lat="58.6552862346" lon="6.16323564847">
		<tag k="fixme" v="consider place=hamlet" />
		<tag k="name" v="Brådli" />
		<tag k="place" v="farm" />
		<tag k="ssr:stedsnr" v="182031" />
	</node>
	<node id="-18564" lat="58.6223129755" lon="6.23664688554">
		<tag k="alt_name" v="Lauberak" />
		<tag k="fixme" v="consider place=hamlet" />
		<tag k="loc_name" v="Lauperåk" />
		<tag k="name" v="Lauperak" />
		<tag k="place" v="farm" />
		<tag k="ssr:stedsnr" v="910813" />
	</node>
	<node id="-17942" lat="58.7503305561" lon="6.20943611631">
		<tag k="name" v="Åkjel" />
		<tag k="place" v="farm" />
		<tag k="ssr:stedsnr" v="360663" />
	</node>
	<node id="-18997" lat="58.7508611099" lon="6.55037500108">
		<tag k="name" v="Hellersstølen" />
		<tag k="place" v="locality" />
		<tag k="ssr:stedsnr" v="122774" />
	</node>
	<node id="-19073" lat="58.6106216143" lon="6.1508260143">
>>>>>>> e1d4bc35ff8a6074a6f2e91616a996b547c36f15
		<tag k="fixme" v="consider place=hamlet" />
		<tag k="name" v="Kleppali" />
		<tag k="old_name" v="Kleppeli" />
		<tag k="place" v="farm" />
		<tag k="ssr:stedsnr" v="182010" />
	</node>
<<<<<<< HEAD
	<node lat="58.63352581613813" lon="6.2280742583617945" id="-1733">
		<tag k="fixme" v="consider place=hamlet" />
		<tag k="name" v="Dyrskog" />
		<tag k="place" v="farm" />
		<tag k="ssr:stedsnr" v="364842" />
	</node>
	<node lat="58.74889701258164" lon="6.488576378322235" id="-1737">
		<tag k="name" v="Hovlandstølen" />
		<tag k="place" v="isolated_dwelling" />
		<tag k="ssr:stedsnr" v="365133" />
	</node>
	<node lat="58.590438891212855" lon="6.123827779714251" id="-1742">
		<tag k="name" v="Tussen" />
		<tag k="place" v="farm" />
		<tag k="ssr:stedsnr" v="386012" />
	</node>
	<node lat="58.66339721835588" lon="6.098875004220585" id="-1765">
		<tag k="name" v="Skjæveland" />
		<tag k="place" v="farm" />
		<tag k="ssr:stedsnr" v="395769" />
	</node>
	<node lat="58.64980277844699" lon="6.079419444651347" id="-1787">
		<tag k="name" v="Hadland" />
		<tag k="place" v="locality" />
		<tag k="ssr:stedsnr" v="422482" />
	</node>
	<node lat="58.73263055305243" lon="6.4056250057714" id="-1792">
		<tag k="historic" v="shieling" />
		<tag k="name" v="Barbustølen" />
		<tag k="place" v="isolated_dwelling" />
		<tag k="ssr:stedsnr" v="423266" />
	</node>
	<node lat="58.74135833740901" lon="6.2658572511509645" id="-1800">
		<tag k="fixme" v="consider place=hamlet" />
		<tag k="name" v="Lanes" />
		<tag k="place" v="farm" />
		<tag k="ssr:stedsnr" v="423694" />
	</node>
	<node lat="58.69904166662642" lon="6.053524996281628" id="-1817">
		<tag k="name" v="Høgevoll" />
		<tag k="old_name" v="Høgvoll" />
		<tag k="place" v="farm" />
		<tag k="ssr:stedsnr" v="425473" />
	</node>
	<node lat="58.69084618414409" lon="6.512867313764432" id="-1819">
		<tag k="fixme" v="consider place=hamlet" />
		<tag k="name" v="Bjordal" />
		<tag k="place" v="farm" />
		<tag k="ssr:stedsnr" v="425767" />
	</node>
	<node lat="58.66236388457119" lon="6.387722221287444" id="-1821">
		<tag k="alt_name" v="Forestølen" />
		<tag k="name" v="Furestølen" />
		<tag k="place" v="locality" />
		<tag k="ssr:stedsnr" v="425788" />
	</node>
	<node lat="58.599227777923936" lon="5.909930556429237" id="-1846">
		<tag k="name" v="Knubben" />
		<tag k="place" v="locality" />
		<tag k="ssr:stedsnr" v="508143" />
	</node>
	<node lat="58.658830552454305" lon="6.087013881197088" id="-1860">
		<tag k="name" v="Skjæveland" />
		<tag k="place" v="farm" />
		<tag k="ssr:stedsnr" v="517752" />
	</node>
	<node lat="58.62111667020758" lon="6.10577777917685" id="-1901">
		<tag k="name" v="Øygard" />
		<tag k="place" v="farm" />
		<tag k="ssr:stedsnr" v="546038" />
	</node>
	<node lat="58.57888936282528" lon="6.0598566689003395" id="-1910">
		<tag k="fixme" v="consider place=hamlet" />
		<tag k="name" v="Fjermedal" />
		<tag k="place" v="farm" />
		<tag k="ssr:stedsnr" v="546120" />
	</node>
	<node lat="58.65909999628194" lon="6.093630559463503" id="-1945">
		<tag k="name" v="Skjæveland" />
		<tag k="place" v="farm" />
		<tag k="ssr:stedsnr" v="577770" />
	</node>
	<node lat="58.659744445464895" lon="6.0942000006124815" id="-1946">
		<tag k="name" v="Skjæveland" />
		<tag k="place" v="farm" />
		<tag k="ssr:stedsnr" v="577772" />
	</node>
	<node lat="58.65900977512357" lon="6.004405361939025" id="-1990">
		<tag k="fixme" v="consider place=hamlet" />
		<tag k="name" v="Vaule" />
		<tag k="place" v="farm" />
		<tag k="ssr:stedsnr" v="606053" />
	</node>
	<node lat="58.658826269076535" lon="6.090560157999714" id="-1991">
		<tag k="fixme" v="consider place=hamlet" />
		<tag k="name" v="Skjæveland" />
		<tag k="place" v="farm" />
		<tag k="ssr:stedsnr" v="606059" />
	</node>
	<node lat="58.583630692286185" lon="6.069741337127284" id="-1994">
		<tag k="fixme" v="consider place=hamlet" />
		<tag k="name" v="Røysland" />
		<tag k="place" v="farm" />
		<tag k="ssr:stedsnr" v="606120" />
	</node>
	<node lat="58.528599996522274" lon="6.025027785420978" id="-2033">
		<tag k="fixme" v="consider place=hamlet" />
		<tag k="name" v="Tengesdal" />
		<tag k="place" v="village" />
		<tag k="ssr:stedsnr" v="631516" />
	</node>
	<node lat="58.72671666911899" lon="6.354286117814419" id="-2039">
		<tag k="historic" v="shieling" />
		<tag k="name" v="Grøttelandstølen" />
		<tag k="place" v="isolated_dwelling" />
		<tag k="ssr:stedsnr" v="646200" />
	</node>
	<node lat="58.74539722455047" lon="6.207013886629717" id="-2043">
		<tag k="name" v="Rusten" />
		<tag k="place" v="farm" />
		<tag k="ssr:stedsnr" v="646654" />
	</node>
	<node lat="58.69910555358971" lon="6.236775002757393" id="-2047">
		<tag k="historic" v="shieling" />
		<tag k="name" v="Olastølen" />
		<tag k="place" v="isolated_dwelling" />
		<tag k="ssr:stedsnr" v="648153" />
	</node>
	<node lat="58.63701157008015" lon="6.154471628415724" id="-2079">
		<tag k="fixme" v="consider place=hamlet" />
		<tag k="name" v="Berland" />
		<tag k="place" v="farm" />
		<tag k="ssr:stedsnr" v="667062" />
	</node>
	<node lat="58.6330888884077" lon="6.075113886623619" id="-2097">
		<tag k="name" v="Svelabakken" />
		<tag k="place" v="quarter" />
		<tag k="ssr:stedsnr" v="719754" />
	</node>
	<node lat="58.69971388788466" lon="6.357749995986233" id="-2103">
		<tag k="historic" v="shieling" />
		<tag k="name" v="Mollbakken" />
		<tag k="place" v="isolated_dwelling" />
		<tag k="ssr:stedsnr" v="726295" />
	</node>
	<node lat="58.64841530979747" lon="5.922435037229814" id="-2125">
		<tag k="fixme" v="consider place=hamlet" />
		<tag k="name" v="Moi" />
		<tag k="place" v="farm" />
		<tag k="ssr:stedsnr" v="728056" />
	</node>
	<node lat="58.69006759701099" lon="6.3847760923181465" id="-2126">
		<tag k="name" v="Ausdal" />
		<tag k="place" v="locality" />
		<tag k="ssr:stedsnr" v="728157" />
	</node>
	<node lat="58.58973479824937" lon="5.987428933081168" id="-2129">
		<tag k="alt_name" v="Bærland;Berland (på heia);Berland på Heia" />
		<tag k="fixme" v="consider place=hamlet" />
		<tag k="name" v="Berland" />
		<tag k="place" v="farm" />
		<tag k="ssr:stedsnr" v="728098" />
	</node>
	<node lat="58.73099166640614" lon="6.090466669913794" id="-2131">
		<tag k="alt_name" v="Dalen" />
		<tag k="name" v="Foss" />
		<tag k="place" v="locality" />
		<tag k="ssr:stedsnr" v="728364" />
	</node>
	<node lat="58.71504770676425" lon="6.175708174572456" id="-2135">
		<tag k="fixme" v="consider place=hamlet" />
		<tag k="name" v="Sundvor" />
		<tag k="place" v="farm" />
		<tag k="ssr:stedsnr" v="728458" />
	</node>
	<node lat="58.70869957676679" lon="6.326115946984098" id="-2138">
		<tag k="fixme" v="consider place=hamlet" />
		<tag k="name" v="Austrumdal" />
		<tag k="place" v="farm" />
		<tag k="ssr:stedsnr" v="729232" />
	</node>
	<node lat="58.754273164808644" lon="6.189765967524842" id="-2147">
		<tag k="alt_name" v="Vargastøl" />
		<tag k="historic" v="shieling" />
		<tag k="name" v="Vargastølen" />
		<tag k="place" v="isolated_dwelling" />
		<tag k="ssr:stedsnr" v="729632" />
	</node>
	<node lat="58.60416944522729" lon="5.924800000992286" id="-2155">
		<tag k="name" v="Stølstuftene" />
		<tag k="place" v="locality" />
		<tag k="ssr:stedsnr" v="751202" />
	</node>
	<node lat="58.53407499626168" lon="6.044202784908604" id="-2166">
		<tag k="name" v="Ferja" />
		<tag k="place" v="locality" />
		<tag k="ssr:stedsnr" v="751939" />
	</node>
	<node lat="58.71411388811495" lon="6.361044441886032" id="-2196">
		<tag k="name" v="Rinnane" />
		<tag k="place" v="neighbourhood" />
		<tag k="ssr:stedsnr" v="783093" />
	</node>
	<node lat="58.63333333097692" lon="6.083036104455654" id="-2224">
		<tag k="alt_name" v="Vigjeså" />
		<tag k="fixme" v="consider place=suburb, village or hamlet" />
		<tag k="name" v="Vikeså" />
=======
	<node id="-19071" lat="58.5973972247" lon="6.094916664">
		<tag k="alt_name" v="Oremo" />
		<tag k="name" v="Oremoen" />
		<tag k="place" v="farm" />
		<tag k="ssr:stedsnr" v="182100" />
	</node>
	<node id="-18046" lat="58.6588305525" lon="6.0870138812">
		<tag k="name" v="Skjæveland" />
		<tag k="place" v="farm" />
		<tag k="ssr:stedsnr" v="517752" />
	</node>
	<node id="-18556" lat="58.7139588547" lon="6.46855953184">
		<tag k="alt_name" v="Brattabø" />
		<tag k="fixme" v="consider place=hamlet" />
		<tag k="name" v="Brattebø" />
		<tag k="place" v="farm" />
		<tag k="ssr:stedsnr" v="910222" />
	</node>
	<node id="-19067" lat="58.7335527743" lon="6.0911694377">
		<tag k="name" v="Støladalen" />
		<tag k="place" v="farm" />
		<tag k="ssr:stedsnr" v="180343" />
	</node>
	<node id="-17529" lat="58.689277757" lon="6.16047834674">
		<tag k="fixme" v="consider place=hamlet" />
		<tag k="name" v="Ivesdal" />
		<tag k="place" v="farm" />
		<tag k="ssr:stedsnr" v="454" />
	</node>
	<node id="-17940" lat="58.6445777757" lon="6.08925277761">
		<tag k="name" v="Hompen" />
		<tag k="place" v="quarter" />
		<tag k="ssr:stedsnr" v="358106" />
	</node>
	<node id="-18037" lat="58.6635396128" lon="6.14244341177">
		<tag k="fixme" v="consider place=hamlet" />
		<tag k="name" v="Øygard" />
		<tag k="place" v="farm" />
		<tag k="ssr:stedsnr" v="425047" />
	</node>
	<node id="-18548" lat="58.5901000033" lon="5.96750555439">
		<tag k="alt_name" v="Goabakkane (nedl.)" />
		<tag k="name" v="Goabakken" />
		<tag k="place" v="farm" />
		<tag k="ssr:stedsnr" v="910123" />
	</node>
	<node id="-18547" lat="58.5941063276" lon="6.0502585709">
		<tag k="fixme" v="consider place=hamlet" />
		<tag k="name" v="Solberg" />
		<tag k="place" v="farm" />
		<tag k="ssr:stedsnr" v="910121" />
	</node>
	<node id="-18544" lat="58.5598277745" lon="6.05400000692">
		<tag k="name" v="Vinningland" />
		<tag k="place" v="farm" />
		<tag k="ssr:stedsnr" v="910103" />
	</node>
	<node id="-18030" lat="58.6137809602" lon="6.16646464567">
		<tag k="fixme" v="consider place=hamlet" />
		<tag k="name" v="Landsdal" />
		<tag k="place" v="farm" />
		<tag k="ssr:stedsnr" v="425006" />
	</node>
	<node id="-18540" lat="58.6497105697" lon="6.16511499749">
		<tag k="fixme" v="consider place=hamlet" />
		<tag k="name" v="Spødavoll" />
		<tag k="place" v="farm" />
		<tag k="ssr:stedsnr" v="910044" />
	</node>
	<node id="-19050" lat="58.7051555585" lon="6.35402222778">
		<tag k="name" v="Stavtjørnknuten" />
		<tag k="place" v="neighbourhood" />
		<tag k="ssr:stedsnr" v="176126" />
	</node>
	<node id="-19049" lat="58.6135749967" lon="6.25927221489">
		<tag k="name" v="Lauperak" />
		<tag k="place" v="neighbourhood" />
		<tag k="ssr:stedsnr" v="176123" />
	</node>
	<node id="-19557" lat="58.5836306923" lon="6.06974133713">
		<tag k="fixme" v="consider place=hamlet" />
		<tag k="name" v="Røysland" />
		<tag k="place" v="farm" />
		<tag k="ssr:stedsnr" v="606120" />
	</node>
	<node id="-19555" lat="58.5563090438" lon="6.04246176522">
		<tag k="fixme" v="consider place=hamlet" />
		<tag k="name" v="Vinningland" />
		<tag k="place" v="farm" />
		<tag k="ssr:stedsnr" v="606090" />
	</node>
	<node id="-19553" lat="58.6588262691" lon="6.090560158">
		<tag k="fixme" v="consider place=hamlet" />
		<tag k="name" v="Skjæveland" />
		<tag k="place" v="farm" />
		<tag k="ssr:stedsnr" v="606059" />
	</node>
	<node id="-18527" lat="58.6404683532" lon="6.09064524745">
		<tag k="fixme" v="consider place=hamlet" />
		<tag k="name" v="Vigjeså" />
		<tag k="place" v="farm" />
		<tag k="ssr:stedsnr" v="908854" />
	</node>
	<node id="-18526" lat="58.637880558" lon="6.07486667201">
		<tag k="name" v="Foretangen" />
		<tag k="place" v="farm" />
		<tag k="ssr:stedsnr" v="908853" />
	</node>
	<node id="-19037" lat="58.6423239313" lon="6.11201261481">
		<tag k="fixme" v="consider place=hamlet" />
		<tag k="name" v="Vikesdal" />
		<tag k="place" v="farm" />
		<tag k="ssr:stedsnr" v="157691" />
	</node>
	<node id="-19536" lat="58.7514388923" lon="6.21211389673">
		<tag k="name" v="Plasset" />
		<tag k="place" v="farm" />
		<tag k="ssr:stedsnr" v="602698" />
	</node>
	<node id="-19021" lat="58.5821333299" lon="5.93204166188">
		<tag k="name" v="Eikeland" />
		<tag k="place" v="locality" />
		<tag k="ssr:stedsnr" v="144390" />
	</node>
	<node id="-18505" lat="58.7190083297" lon="6.37413055315">
		<tag k="name" v="Langebu" />
		<tag k="place" v="neighbourhood" />
		<tag k="ssr:stedsnr" v="905095" />
	</node>
	<node id="-18504" lat="58.5869694423" lon="6.06924166865">
		<tag k="name" v="Røyslandsdalen" />
		<tag k="place" v="quarter" />
		<tag k="ssr:stedsnr" v="905090" />
	</node>
	<node id="-18503" lat="58.5284766966" lon="6.03286061413">
		<tag k="alt_name" v="Tengesdal;s Tengesdal" />
		<tag k="fixme" v="consider place=hamlet" />
		<tag k="name" v="Søre Tengesdal" />
		<tag k="place" v="farm" />
		<tag k="ssr:stedsnr" v="729182" />
	</node>
	<node id="-17989" lat="58.5992277779" lon="5.90993055643">
		<tag k="name" v="Knubben" />
		<tag k="place" v="locality" />
		<tag k="ssr:stedsnr" v="508143" />
	</node>
	<node id="-18497" lat="58.7309916664" lon="6.09046666991">
		<tag k="alt_name" v="Dalen" />
		<tag k="name" v="Foss" />
		<tag k="place" v="locality" />
		<tag k="ssr:stedsnr" v="728364" />
	</node>
	<node id="-18495" lat="58.6903916665" lon="6.38554721691">
		<tag k="name" v="Ausdal" />
		<tag k="place" v="locality" />
		<tag k="ssr:stedsnr" v="728157" />
	</node>
	<node id="-19510" lat="58.6597444455" lon="6.09420000061">
		<tag k="name" v="Skjæveland" />
		<tag k="place" v="farm" />
		<tag k="ssr:stedsnr" v="577772" />
	</node>
	<node id="-18485" lat="58.5953138845" lon="6.14330555637">
		<tag k="name" v="Hytland" />
		<tag k="place" v="neighbourhood" />
		<tag k="ssr:stedsnr" v="722380" />
	</node>
	<node id="-18483" lat="58.6431527765" lon="6.10685000041">
		<tag k="name" v="Vikesdalslia" />
		<tag k="place" v="quarter" />
		<tag k="ssr:stedsnr" v="720805" />
	</node>
	<node id="-18482" lat="58.6330888884" lon="6.07511388662">
		<tag k="name" v="Svelabakken" />
		<tag k="place" v="quarter" />
		<tag k="ssr:stedsnr" v="719754" />
	</node>
	<node id="-18987" lat="58.6679431807" lon="6.3556759656">
		<tag k="fixme" v="consider place=hamlet" />
		<tag k="name" v="Vassbø" />
		<tag k="place" v="farm" />
		<tag k="ssr:stedsnr" v="121764" />
	</node>
	<node id="-18985" lat="58.6978916679" lon="6.08349166374">
		<tag k="name" v="Auglend" />
		<tag k="place" v="farm" />
		<tag k="ssr:stedsnr" v="121485" />
	</node>
	<node id="-17960" lat="58.5904388912" lon="6.12382777971">
		<tag k="name" v="Tussen" />
		<tag k="place" v="farm" />
		<tag k="ssr:stedsnr" v="386012" />
	</node>
	<node id="-18679" lat="58.7123520767" lon="6.3463532287">
		<tag k="fixme" v="consider place=hamlet" />
		<tag k="name" v="Grøtteland" />
		<tag k="place" v="farm" />
		<tag k="ssr:stedsnr" v="911233" />
	</node>
	<node id="-17954" lat="58.6535388921" lon="6.29127778026">
		<tag k="alt_name" v="Ytre Kalveskog" />
		<tag k="name" v="Klampen" />
		<tag k="place" v="locality" />
		<tag k="ssr:stedsnr" v="364796" />
	</node>
	<node id="-19719" lat="58.5685944451" lon="6.0069333302">
		<tag k="alt_name" v="Hattaskaret" />
		<tag k="name" v="Hattaskardet" />
		<tag k="place" v="farm" />
		<tag k="ssr:stedsnr" v="789089" />
	</node>
	<node id="-18266" lat="58.6317944484" lon="6.08033888431">
		<tag k="name" v="Nesjane" />
		<tag k="place" v="quarter" />
		<tag k="ssr:stedsnr" v="709105" />
	</node>
	<node id="-18968" lat="58.5441645665" lon="5.98788554731">
		<tag k="fixme" v="consider place=hamlet" />
		<tag k="name" v="Hetland" />
		<tag k="place" v="farm" />
		<tag k="ssr:stedsnr" v="121081" />
	</node>
	<node id="-18966" lat="58.6676666707" lon="6.1509749972">
		<tag k="name" v="Solvang" />
		<tag k="place" v="farm" />
		<tag k="ssr:stedsnr" v="121069" />
	</node>
	<node id="-17941" lat="58.5848444453" lon="6.07375555629">
		<tag k="name" v="Røyslandstunet" />
>>>>>>> e1d4bc35ff8a6074a6f2e91616a996b547c36f15
		<tag k="place" v="quarter" />
		<tag k="ssr:stedsnr" v="358107" />
	</node>
<<<<<<< HEAD
	<node lat="58.73485675145739" lon="6.203164432220546" id="-2226">
		<tag k="fixme" v="consider place=hamlet" />
		<tag k="name" v="Hovland" />
		<tag k="place" v="farm" />
		<tag k="ssr:stedsnr" v="788389" />
	</node>
	<node lat="58.568594445074595" lon="6.006933330196833" id="-2231">
		<tag k="alt_name" v="Hattaskaret" />
		<tag k="name" v="Hattaskardet" />
		<tag k="place" v="farm" />
		<tag k="ssr:stedsnr" v="789089" />
	</node>
	<node lat="58.68667554709676" lon="6.160776170126405" id="-2237">
		<tag k="fixme" v="consider place=hamlet" />
		<tag k="name" v="Øvrebygd" />
		<tag k="place" v="village" />
		<tag k="ssr:stedsnr" v="789471" />
	</node>
	<node lat="58.64318333385987" lon="6.112780547859296" id="-2259">
		<tag k="name" v="Vikesdal" />
		<tag k="place" v="farm" />
		<tag k="ssr:stedsnr" v="825694" />
	</node>
	<node lat="58.68572777369803" lon="6.332266671108319" id="-2264">
		<tag k="name" v="Kjeringbu" />
		<tag k="place" v="isolated_dwelling" />
		<tag k="ssr:stedsnr" v="828341" />
	</node>
	<node lat="58.72690000414493" lon="6.0882499982424365" id="-2270">
		<tag k="name" v="Vindheia" />
		<tag k="place" v="locality" />
		<tag k="ssr:stedsnr" v="828292" />
	</node>
	<node lat="58.6180608342391" lon="6.041479143409607" id="-2311">
		<tag k="alt_name" v="Litle Svela" />
		<tag k="fixme" v="consider place=hamlet" />
		<tag k="name" v="Litla Svela" />
		<tag k="place" v="farm" />
		<tag k="ssr:stedsnr" v="850021" />
	</node>
	<node lat="58.593683272665025" lon="6.022593091545094" id="-2313">
		<tag k="alt_name" v="Kløytfed;Kløgtvedt" />
		<tag k="fixme" v="consider place=hamlet" />
		<tag k="name" v="Kløgtveit" />
		<tag k="place" v="farm" />
		<tag k="ssr:stedsnr" v="850121" />
	</node>
	<node lat="58.723188886756645" lon="6.1794000033777" id="-2314">
		<tag k="alt_name" v="Skjellbrei" />
		<tag k="name" v="Skjelbreid" />
		<tag k="place" v="farm" />
		<tag k="ssr:stedsnr" v="850489" />
	</node>
	<node lat="58.655402773957654" lon="6.08639166425668" id="-2359">
		<tag k="name" v="Skjæveland" />
		<tag k="place" v="farm" />
		<tag k="ssr:stedsnr" v="881731" />
	</node>
	<node lat="58.60510000004819" lon="6.2247111172107745" id="-2365">
		<tag k="name" v="Glovrestøl" />
		<tag k="place" v="locality" />
		<tag k="ssr:stedsnr" v="937421" />
=======
	<node id="-19476" lat="58.5693444429" lon="6.06496110628">
		<tag k="name" v="Soksemona" />
		<tag k="place" v="farm" />
		<tag k="ssr:stedsnr" v="568015" />
	</node>
	<node id="-18451" lat="58.6622749991" lon="6.09647777629">
		<tag k="name" v="Skjæveland" />
		<tag k="place" v="farm" />
		<tag k="ssr:stedsnr" v="699723" />
	</node>
	<node id="-17527" lat="58.6534739472" lon="5.94744374018">
		<tag k="fixme" v="consider place=hamlet" />
		<tag k="name" v="Røysland" />
		<tag k="place" v="farm" />
		<tag k="ssr:stedsnr" v="60" />
	</node>
	<node id="-17864" lat="58.6385888877" lon="6.14838610878">
		<tag k="historic" v="shieling" />
		<tag k="name" v="Kobberstølen" />
		<tag k="place" v="locality" />
		<tag k="ssr:stedsnr" v="301828" />
	</node>
	<node id="-18093" lat="58.5669523488" lon="6.05981188426">
		<tag k="fixme" v="consider place=hamlet" />
		<tag k="name" v="Apeland" />
		<tag k="place" v="farm" />
		<tag k="ssr:stedsnr" v="667107" />
	</node>
	<node id="-17926" lat="58.745033329" lon="6.55617777776">
		<tag k="alt_name" v="Kvislastølen" />
		<tag k="name" v="Kvitlastølen" />
		<tag k="place" v="locality" />
		<tag k="ssr:stedsnr" v="486100" />
	</node>
	<node id="-19458" lat="58.6958585683" lon="6.20320344079">
		<tag k="alt_name" v="Malmei" />
		<tag k="fixme" v="consider place=hamlet" />
		<tag k="name" v="Malmeim" />
		<tag k="place" v="farm" />
		<tag k="ssr:stedsnr" v="546415" />
>>>>>>> e1d4bc35ff8a6074a6f2e91616a996b547c36f15
	</node>
</osm>
