<?xml version="1.0" encoding="UTF-8"?>
<osm version="0.6" generator="osmapis">
	<node lat="58.59619722394556" lon="6.12428056103945" id="-146">
		<tag k="man_made" v="quay" />
		<tag k="name" v="Odlandstø" />
		<tag k="place" v="locality" />
		<tag k="ssr:stedsnr" v="83009" />
	</node>
	<node lat="58.656988886669325" lon="6.02400000036892" id="-181">
		<tag k="bridge" v="yes" />
		<tag k="layer" v="1" />
		<tag k="name" v="Longelid" />
		<tag k="ssr:stedsnr" v="107712" />
	</node>
	<node lat="58.688644448464" lon="6.166633337879425" id="-234">
		<tag k="bridge" v="yes" />
		<tag k="layer" v="1" />
		<tag k="name" v="Ivesdal" />
		<tag k="ssr:stedsnr" v="168706" />
	</node>
	<node lat="58.613577779879144" lon="6.170613888467221" id="-276">
		<tag k="man_made" v="quay" />
		<tag k="name" v="Landsdalsbrygga" />
		<tag k="place" v="locality" />
		<tag k="ssr:stedsnr" v="205115" />
	</node>
	<node lat="58.567997226063284" lon="6.066486119149143" id="-300">
		<tag k="bridge" v="yes" />
		<tag k="layer" v="1" />
		<tag k="name" v="Saksåna" />
		<tag k="ssr:stedsnr" v="229693" />
	</node>
	<node lat="58.60108055683883" lon="6.08286666609784" id="-423">
		<tag k="bridge" v="yes" />
		<tag k="layer" v="1" />
		<tag k="name" v="Gjedrem Søndre" />
		<tag k="ssr:stedsnr" v="471706" />
	</node>
	<node lat="58.582888888603534" lon="6.0746111063543475" id="-440">
		<tag k="bridge" v="yes" />
		<tag k="layer" v="1" />
		<tag k="name" v="Bjerkreim" />
		<tag k="ssr:stedsnr" v="350754" />
	</node>
	<node lat="58.61842777738742" lon="6.170991663929375" id="-468">
		<tag k="highway" v="path" />
		<tag k="name" v="Stølsveien" />
		<tag k="ssr:stedsnr" v="386113" />
	</node>
	<node lat="58.731613887004414" lon="6.306980562959472" id="-561">
		<tag k="man_made" v="cairn" />
		<tag k="name" v="Piggsteinen" />
		<tag k="place" v="locality" />
		<tag k="ssr:stedsnr" v="426241" />
	</node>
	<node lat="58.76431388956479" lon="6.552449991761604" id="-661">
		<tag k="ford" v="yes" />
		<tag k="name" v="Bergavad" />
		<tag k="place" v="locality" />
		<tag k="ssr:stedsnr" v="529224" />
	</node>
	<node lat="58.652341669762066" lon="5.917275001843817" id="-662">
		<tag k="bridge" v="yes" />
		<tag k="layer" v="1" />
		<tag k="name" v="Kvesbekken" />
		<tag k="ssr:stedsnr" v="532687" />
	</node>
	<node lat="58.57774722246475" lon="6.106727776704933" id="-926">
		<tag k="bridge" v="yes" />
		<tag k="layer" v="1" />
		<tag k="name" v="Årdalen" />
		<tag k="ssr:stedsnr" v="896748" />
	</node>
	<node lat="58.75820277444264" lon="6.21068888805458" id="-927">
		<tag k="highway" v="path" />
		<tag k="name" v="Nera Leide" />
		<tag k="ssr:stedsnr" v="705382" />
	</node>
	<node lat="58.65889999809807" lon="6.095422222445409" id="-937">
		<tag k="bridge" v="yes" />
		<tag k="layer" v="1" />
		<tag k="name" v="Skjæveland" />
		<tag k="ssr:stedsnr" v="714676" />
	</node>
	<node lat="58.57082777838307" lon="6.065897217095617" id="-938">
		<tag k="bridge" v="yes" />
		<tag k="layer" v="1" />
		<tag k="name" v="Soksemona" />
		<tag k="ssr:stedsnr" v="714677" />
	</node>
	<node lat="58.58669444596174" lon="6.075433327528887" id="-939">
		<tag k="bridge" v="yes" />
		<tag k="layer" v="1" />
		<tag k="name" v="Bjerkreim" />
		<tag k="ssr:stedsnr" v="714680" />
	</node>
	<node lat="58.657111112246476" lon="6.2927250077177455" id="-996">
		<tag k="highway" v="path" />
		<tag k="name" v="Kalveskogbrekka" />
		<tag k="ssr:stedsnr" v="767805" />
	</node>
	<node lat="58.632827780939735" lon="6.077344435633065" id="-1112">
		<tag k="bridge" v="yes" />
		<tag k="layer" v="1" />
		<tag k="name" v="Vikeså" />
		<tag k="ssr:stedsnr" v="836676" />
	</node>
	<node lat="58.67711388785381" lon="6.375252772402628" id="-1230">
		<tag k="bridge" v="yes" />
		<tag k="layer" v="1" />
		<tag k="name" v="Eik" />
		<tag k="ssr:stedsnr" v="957705" />
	</node>
	<node lat="58.57996666555496" lon="6.056338892820617" id="-1231">
		<tag k="bridge" v="yes" />
		<tag k="layer" v="1" />
		<tag k="name" v="Fjermedalsklev (Øvre)" />
		<tag k="ssr:stedsnr" v="957707" />
	</node>
	<node lat="58.63559999809861" lon="6.082105550744946" id="-1232">
		<tag k="bridge" v="yes" />
		<tag k="layer" v="1" />
		<tag k="name" v="Vikesåbakken" />
		<tag k="ssr:stedsnr" v="957688" />
	</node>
	<node lat="58.56718611137628" lon="6.067038892074536" id="-1326">
		<tag k="bridge" v="yes" />
		<tag k="layer" v="1" />
		<tag k="name" v="Saglandsbakken" />
		<tag k="ssr:stedsnr" v="46734" />
	</node>
	<node lat="58.64648611348425" lon="6.0459000059952706" id="-1327">
		<tag k="bridge" v="yes" />
		<tag k="layer" v="1" />
		<tag k="name" v="Syltrebekken" />
		<tag k="ssr:stedsnr" v="46739" />
	</node>
	<node lat="58.668061110079805" lon="6.384258339563843" id="-1392">
		<tag k="highway" v="path" />
		<tag k="name" v="Brekkå" />
		<tag k="ssr:stedsnr" v="101203" />
	</node>
	<node lat="58.70709444718185" lon="6.34954167452514" id="-1406">
		<tag k="highway" v="path" />
		<tag k="name" v="Gjegnestien" />
		<tag k="ssr:stedsnr" v="119237" />
	</node>
	<node lat="58.69443889062819" lon="6.053247226620569" id="-1494">
		<tag k="bridge" v="yes" />
		<tag k="layer" v="1" />
		<tag k="name" v="Nedrebø" />
		<tag k="ssr:stedsnr" v="168685" />
	</node>
	<node lat="58.6301805593694" lon="6.079011107076589" id="-1495">
		<tag k="bridge" v="yes" />
		<tag k="layer" v="1" />
		<tag k="name" v="Langerå" />
		<tag k="ssr:stedsnr" v="168688" />
	</node>
	<node lat="58.77273055586538" lon="6.258330550002536" id="-1579">
		<tag k="highway" v="path" />
		<tag k="name" v="Øygveien" />
		<tag k="ssr:stedsnr" v="224332" />
	</node>
	<node lat="58.695702776178976" lon="6.195611112288006" id="-1600">
		<tag k="bridge" v="yes" />
		<tag k="layer" v="1" />
		<tag k="name" v="Malmin" />
		<tag k="ssr:stedsnr" v="289753" />
	</node>
	<node lat="58.707977774327325" lon="6.329513895601462" id="-1601">
		<tag k="bridge" v="yes" />
		<tag k="layer" v="1" />
		<tag k="name" v="Austrumsdal" />
		<tag k="ssr:stedsnr" v="289758" />
	</node>
	<node lat="58.76012222634524" lon="6.20811388123132" id="-1657">
		<tag k="highway" v="path" />
		<tag k="name" v="Øvra Leide" />
		<tag k="ssr:stedsnr" v="341370" />
	</node>
	<node lat="58.58717221962278" lon="5.998561117540234" id="-1677">
		<tag k="bridge" v="yes" />
		<tag k="layer" v="1" />
		<tag k="name" v="Steinsland" />
		<tag k="ssr:stedsnr" v="350681" />
	</node>
	<node lat="58.651116667152856" lon="5.8996055552697015" id="-1780">
		<tag k="bridge" v="yes" />
		<tag k="layer" v="1" />
		<tag k="name" v="Tangen" />
		<tag k="ssr:stedsnr" v="411673" />
	</node>
	<node lat="58.57302222040176" lon="6.065888895229738" id="-1781">
		<tag k="bridge" v="yes" />
		<tag k="layer" v="1" />
		<tag k="name" v="Gjedlakleiv" />
		<tag k="ssr:stedsnr" v="411677" />
	</node>
	<node lat="58.60778610793348" lon="6.086286104673915" id="-1885">
		<tag k="bridge" v="yes" />
		<tag k="layer" v="1" />
		<tag k="name" v="Gjedrem Nordre" />
		<tag k="ssr:stedsnr" v="532699" />
	</node>
	<node lat="58.57922500353147" lon="6.063430560673545" id="-1886">
		<tag k="bridge" v="yes" />
		<tag k="layer" v="1" />
		<tag k="name" v="Fjermedal (Nedre)" />
		<tag k="ssr:stedsnr" v="532701" />
	</node>
	<node lat="58.551191669122716" lon="6.066911104182985" id="-2096">
		<tag k="bridge" v="yes" />
		<tag k="layer" v="1" />
		<tag k="name" v="Sagland" />
		<tag k="ssr:stedsnr" v="714672" />
	</node>
	<node lat="58.579297221905826" lon="6.06147499794732" id="-2194">
		<tag k="bridge" v="yes" />
		<tag k="layer" v="1" />
		<tag k="name" v="Fjermeland" />
		<tag k="ssr:stedsnr" v="775694" />
	</node>
	<node lat="58.70436110921756" lon="6.3304277732011" id="-2211">
		<tag k="highway" v="path" />
		<tag k="name" v="Nedfaret" />
		<tag k="ssr:stedsnr" v="787266" />
	</node>
	<node lat="58.65242500039067" lon="6.132152770604846" id="-2369">
		<tag k="highway" v="path" />
		<tag k="name" v="Eisbrekka" />
		<tag k="ssr:stedsnr" v="949323" />
	</node>
</osm>
