<?xml version="1.0" encoding="UTF-8"?>
<<<<<<< HEAD
<osm version="0.6" generator="osmapis">
	<node lat="58.59391388746086" lon="6.173713881663051" id="-22">
		<tag k="name" v="Krutlet" />
		<tag k="place" v="locality" />
		<tag k="ssr:stedsnr" v="23100" />
	</node>
	<node lat="58.53514166400212" lon="6.042041664434035" id="-33">
		<tag k="name" v="Stolpemyra" />
		<tag k="natural" v="wetland" />
		<tag k="ssr:stedsnr" v="23932" />
	</node>
	<node lat="58.60967777441064" lon="6.2469611137817544" id="-38">
		<tag k="name" v="Handøksa" />
		<tag k="natural" v="stone" />
		<tag k="ssr:stedsnr" v="27412" />
	</node>
	<node lat="58.68389444203685" lon="6.457877776311746" id="-51">
		<tag k="name" v="Slåtte" />
		<tag k="place" v="locality" />
		<tag k="ssr:stedsnr" v="41266" />
	</node>
	<node lat="58.736236111781345" lon="6.5389944397828925" id="-55">
		<tag k="name" v="Lassestølsmyra" />
		<tag k="natural" v="wetland" />
		<tag k="ssr:stedsnr" v="42326" />
	</node>
	<node lat="58.67123889142579" lon="6.21834722201149" id="-67">
		<tag k="landuse" v="meadow" />
		<tag k="name" v="Midtløa" />
		<tag k="ssr:stedsnr" v="240069" />
	</node>
	<node lat="58.70085832996444" lon="6.108261116322862" id="-112">
		<tag k="name" v="Ytre Hisura" />
		<tag k="natural" v="scree" />
		<tag k="ssr:stedsnr" v="241020" />
	</node>
	<node lat="58.72001110883551" lon="6.474555549098128" id="-114">
		<tag k="name" v="Klovsteinane" />
		<tag k="natural" v="stone" />
		<tag k="ssr:stedsnr" v="241155" />
	</node>
	<node lat="58.725700001547075" lon="6.389850004680562" id="-118">
		<tag k="name" v="Barbumyrane" />
		<tag k="natural" v="wetland" />
		<tag k="ssr:stedsnr" v="241120" />
	</node>
	<node lat="58.6977666690525" lon="6.555327773158554" id="-134">
		<tag k="name" v="Gråur" />
		<tag k="natural" v="scree" />
		<tag k="ssr:stedsnr" v="243187" />
	</node>
	<node lat="58.642866667513914" lon="5.988161110234939" id="-154">
		<tag k="name" v="Skåramyrane" />
		<tag k="natural" v="wetland" />
		<tag k="ssr:stedsnr" v="83305" />
	</node>
	<node lat="58.64440000418269" lon="5.962580549040392" id="-155">
		<tag k="name" v="Kutjønnsmyra" />
		<tag k="natural" v="wetland" />
		<tag k="ssr:stedsnr" v="83306" />
	</node>
	<node lat="58.709352778555" lon="6.040408331496109" id="-170">
		<tag k="name" v="Hommæ" />
		<tag k="place" v="locality" />
		<tag k="ssr:stedsnr" v="100270" />
	</node>
	<node lat="58.70448889243775" lon="6.32221666205238" id="-183">
		<tag k="name" v="Legå" />
		<tag k="place" v="locality" />
		<tag k="ssr:stedsnr" v="116227" />
	</node>
	<node lat="58.741533331933795" lon="6.172749993744326" id="-196">
		<tag k="historic" v="shieling" />
		<tag k="name" v="Mikkelsete" />
		<tag k="place" v="locality" />
		<tag k="ssr:stedsnr" v="120646" />
	</node>
	<node lat="58.654244448018176" lon="5.932511113423" id="-211">
		<tag k="name" v="Kvitura" />
		<tag k="natural" v="scree" />
		<tag k="ssr:stedsnr" v="144242" />
	</node>
	<node lat="58.628733335285695" lon="5.999658336351531" id="-217">
		<tag k="name" v="Engjamyra" />
		<tag k="natural" v="wetland" />
		<tag k="ssr:stedsnr" v="144320" />
	</node>
	<node lat="58.64476111115583" lon="5.99225555890447" id="-218">
		<tag k="name" v="Roligheta" />
		<tag k="natural" v="wetland" />
		<tag k="ssr:stedsnr" v="144322" />
	</node>
	<node lat="58.605391669481364" lon="5.984313891926449" id="-268">
		<tag k="landuse" v="meadow" />
		<tag k="name" v="Gryholane" />
		<tag k="ssr:stedsnr" v="265353" />
	</node>
	<node lat="58.6220583326747" lon="6.174711111241908" id="-275">
		<tag k="historic" v="shieling" />
		<tag k="name" v="Landsdalsstølen" />
		<tag k="place" v="locality" />
		<tag k="ssr:stedsnr" v="205114" />
	</node>
	<node lat="58.665322226178255" lon="6.273530560048578" id="-285">
		<tag k="historic" v="shieling" />
		<tag k="name" v="Kalveskogstølen" />
		<tag k="place" v="locality" />
		<tag k="ssr:stedsnr" v="221779" />
	</node>
	<node lat="58.703275003602485" lon="6.150558340576115" id="-311">
		<tag k="name" v="Linneskogen" />
		<tag k="place" v="locality" />
		<tag k="ssr:stedsnr" v="241033" />
	</node>
	<node lat="58.747091667439214" lon="6.45220832998524" id="-315">
		<tag k="historic" v="shieling" />
		<tag k="name" v="Hommastøl" />
		<tag k="place" v="locality" />
		<tag k="ssr:stedsnr" v="241435" />
	</node>
	<node lat="58.58383332910101" lon="5.9707499987187305" id="-333">
		<tag k="name" v="Sutremyr" />
		<tag k="natural" v="wetland" />
		<tag k="ssr:stedsnr" v="265303" />
	</node>
	<node lat="58.60941388448641" lon="6.1460666648295" id="-336">
		<tag k="name" v="Storemyr" />
		<tag k="natural" v="wetland" />
		<tag k="ssr:stedsnr" v="265805" />
	</node>
	<node lat="58.72091944225819" lon="6.3630000009365135" id="-353">
		<tag k="name" v="Helvtarsteinen" />
		<tag k="natural" v="stone" />
		<tag k="ssr:stedsnr" v="283204" />
	</node>
	<node lat="58.74801389328473" lon="6.216622230185543" id="-360">
		<tag k="name" v="Myra" />
		<tag k="natural" v="wetland" />
		<tag k="ssr:stedsnr" v="299703" />
	</node>
	<node lat="58.67060832984903" lon="6.125086111970807" id="-362">
		<tag k="alt_name" v="Olmarka" />
		<tag k="name" v="Olmorkja" />
		<tag k="place" v="locality" />
		<tag k="ssr:stedsnr" v="301003" />
	</node>
	<node lat="58.694283335813246" lon="6.156780556515111" id="-363">
		<tag k="historic" v="shieling" />
		<tag k="name" v="Skjiljingstad" />
		<tag k="place" v="locality" />
		<tag k="ssr:stedsnr" v="301027" />
	</node>
	<node lat="58.66803888681661" lon="6.175375004469188" id="-367">
		<tag k="name" v="Ribelsteinane" />
		<tag k="natural" v="stone" />
		<tag k="ssr:stedsnr" v="464030" />
	</node>
	<node lat="58.70917222493801" lon="6.04855833712514" id="-379">
		<tag k="name" v="Kjeksemyr" />
		<tag k="natural" v="wetland" />
		<tag k="ssr:stedsnr" v="464284" />
	</node>
	<node lat="58.676886113580814" lon="6.381666669505628" id="-386">
		<tag k="name" v="Resen" />
		<tag k="place" v="locality" />
		<tag k="ssr:stedsnr" v="464381" />
	</node>
	<node lat="58.69355832873934" lon="6.199202770403537" id="-395">
		<tag k="name" v="Lågemon" />
		<tag k="place" v="locality" />
		<tag k="ssr:stedsnr" v="466128" />
	</node>
	<node lat="58.674791670210986" lon="5.909791666022182" id="-403">
		<tag k="name" v="Forane" />
		<tag k="natural" v="wetland" />
		<tag k="ssr:stedsnr" v="326209" />
	</node>
	<node lat="58.62856666992149" lon="5.903933329414156" id="-410">
		<tag k="name" v="Søraskådamyra" />
		<tag k="natural" v="wetland" />
		<tag k="ssr:stedsnr" v="326178" />
	</node>
	<node lat="58.60589722564056" lon="6.269680556836788" id="-422">
		<tag k="historic" v="shieling" />
		<tag k="name" v="Reinestøl" />
		<tag k="place" v="locality" />
		<tag k="ssr:stedsnr" v="330406" />
	</node>
	<node lat="58.655961108383885" lon="6.226599999415326" id="-424">
		<tag k="name" v="Deblamyrane" />
		<tag k="natural" v="wetland" />
		<tag k="ssr:stedsnr" v="342042" />
	</node>
	<node lat="58.7491611067075" lon="6.2613638811571555" id="-425">
		<tag k="historic" v="shieling" />
		<tag k="name" v="Lanesstølen" />
		<tag k="place" v="locality" />
		<tag k="ssr:stedsnr" v="342443" />
	</node>
	<node lat="58.69322334016691" lon="6.526243901163418" id="-434">
		<tag k="name" v="Brumyra" />
		<tag k="natural" v="wetland" />
		<tag k="ssr:stedsnr" v="345218" />
	</node>
	<node lat="58.73898888897164" lon="6.246625008309453" id="-467">
		<tag k="name" v="Linnur" />
		<tag k="natural" v="scree" />
		<tag k="ssr:stedsnr" v="482729" />
	</node>
	<node lat="58.67850277756712" lon="6.144969450725415" id="-490">
		<tag k="name" v="Idlemyr" />
		<tag k="natural" v="wetland" />
		<tag k="ssr:stedsnr" v="483136" />
	</node>
	<node lat="58.663961111086664" lon="6.115905556408696" id="-510">
		<tag k="name" v="Litlhaga" />
		<tag k="place" v="locality" />
		<tag k="ssr:stedsnr" v="403324" />
	</node>
	<node lat="58.6916666635465" lon="6.028288895184228" id="-512">
		<tag k="name" v="Urå" />
		<tag k="natural" v="scree" />
		<tag k="ssr:stedsnr" v="403274" />
	</node>
	<node lat="58.717794447430784" lon="6.233755555439" id="-517">
		<tag k="name" v="Gyro" />
		<tag k="natural" v="stone" />
		<tag k="ssr:stedsnr" v="404083" />
	</node>
	<node lat="58.7820749973559" lon="6.1973527715002055" id="-532">
		<tag k="historic" v="shieling" />
		<tag k="name" v="Norestølen" />
		<tag k="place" v="locality" />
		<tag k="ssr:stedsnr" v="406344" />
	</node>
	<node lat="58.65757222242411" lon="6.0980166740685" id="-543">
		<tag k="name" v="Langeskogen" />
		<tag k="place" v="locality" />
		<tag k="ssr:stedsnr" v="422491" />
	</node>
	<node lat="58.72665000277254" lon="6.425472220336397" id="-548">
		<tag k="name" v="Simonshedleren" />
=======
<osm generator="osmapis" version="0.6">
	<node id="-18939" lat="58.7008861123" lon="6.1151666735">
		<tag k="name" v="Indre Hisura" />
		<tag k="natural" v="scree" />
		<tag k="ssr:stedsnr" v="119035" />
	</node>
	<node id="-18425" lat="58.6351361092" lon="6.22599443661">
		<tag k="name" v="Øvra Legå" />
		<tag k="place" v="locality" />
		<tag k="ssr:stedsnr" v="665904" />
	</node>
	<node id="-18424" lat="58.6616777796" lon="6.05754167292">
		<tag k="name" v="Vimyr" />
		<tag k="natural" v="wetland" />
		<tag k="ssr:stedsnr" v="665528" />
	</node>
	<node id="-17832" lat="58.6680388868" lon="6.17537500447">
		<tag k="name" v="Ribelsteinane" />
		<tag k="natural" v="stone" />
		<tag k="ssr:stedsnr" v="464030" />
	</node>
	<node id="-18411" lat="58.6796055588" lon="6.41933332461">
		<tag k="name" v="Træe" />
		<tag k="place" v="locality" />
		<tag k="ssr:stedsnr" v="647306" />
	</node>
	<node id="-18921" lat="58.6756972262" lon="6.40682221911">
		<tag k="name" v="Revura" />
		<tag k="natural" v="scree" />
		<tag k="ssr:stedsnr" v="101294" />
	</node>
	<node id="-17894" lat="58.6785027776" lon="6.14496945073">
		<tag k="name" v="Idlemyr" />
		<tag k="natural" v="wetland" />
		<tag k="ssr:stedsnr" v="483136" />
	</node>
	<node id="-18916" lat="58.7031027756" lon="6.29499167453">
		<tag k="name" v="Tangasvåene" />
		<tag k="place" v="locality" />
		<tag k="ssr:stedsnr" v="101204" />
	</node>
	<node id="-17891" lat="58.738988889" lon="6.24662500831">
		<tag k="name" v="Linnur" />
		<tag k="natural" v="scree" />
		<tag k="ssr:stedsnr" v="482729" />
	</node>
	<node id="-17890" lat="58.6058972256" lon="6.26968055684">
		<tag k="historic" v="shieling" />
		<tag k="name" v="Reinestøl" />
		<tag k="place" v="locality" />
		<tag k="ssr:stedsnr" v="330406" />
	</node>
	<node id="-18904" lat="58.7093527786" lon="6.0404083315">
		<tag k="name" v="Hommæ" />
		<tag k="place" v="locality" />
		<tag k="ssr:stedsnr" v="100270" />
	</node>
	<node id="-18902" lat="58.6654277773" lon="6.23511111111">
		<tag k="historic" v="shieling" />
		<tag k="name" v="Stølen" />
		<tag k="place" v="locality" />
		<tag k="ssr:stedsnr" v="100051" />
	</node>
	<node id="-17998" lat="58.6352805597" lon="5.93833610468">
		<tag k="name" v="Nilså" />
		<tag k="natural" v="wetland" />
		<tag k="ssr:stedsnr" v="508172" />
	</node>
	<node id="-19398" lat="58.7037388855" lon="6.18721111663">
		<tag k="name" v="Tersmyra" />
		<tag k="natural" v="wetland" />
		<tag k="ssr:stedsnr" v="525107" />
	</node>
	<node id="-17860" lat="58.7480138933" lon="6.21662223019">
		<tag k="name" v="Myra" />
		<tag k="natural" v="wetland" />
		<tag k="ssr:stedsnr" v="299703" />
	</node>
	<node id="-19395" lat="58.67183889" lon="6.27874722171">
		<tag k="name" v="Jonsokslåttene" />
		<tag k="place" v="locality" />
		<tag k="ssr:stedsnr" v="524925" />
	</node>
	<node id="-18165" lat="58.5975055561" lon="6.18131111544">
		<tag k="name" v="Hedlermyrane" />
		<tag k="natural" v="wetland" />
		<tag k="ssr:stedsnr" v="508079" />
	</node>
	<node id="-17852" lat="58.6935583287" lon="6.1992027704">
		<tag k="name" v="Lågemon" />
		<tag k="place" v="locality" />
		<tag k="ssr:stedsnr" v="466128" />
	</node>
	<node id="-19899" lat="58.5185638933" lon="6.02266666434">
		<tag k="name" v="Borestadsteinen" />
		<tag k="natural" v="stone" />
		<tag k="ssr:stedsnr" v="872951" />
	</node>
	<node id="-19380" lat="58.7299249981" lon="6.43352499922">
		<tag k="alt_name" v="Myrstøl" />
		<tag k="historic" v="shieling" />
		<tag k="name" v="Myrstølen" />
		<tag k="place" v="locality" />
		<tag k="ssr:stedsnr" v="426237" />
	</node>
	<node id="-19887" lat="58.6407055571" lon="5.98195833628">
		<tag k="name" v="Liane" />
		<tag k="natural" v="wetland" />
		<tag k="ssr:stedsnr" v="872324" />
	</node>
	<node id="-19886" lat="58.6074722257" lon="5.98305278336">
		<tag k="name" v="Vidlingmyra" />
		<tag k="natural" v="wetland" />
		<tag k="ssr:stedsnr" v="872317" />
	</node>
	<node id="-19884" lat="58.6100083376" lon="5.97611110791">
		<tag k="name" v="Bruamyra" />
		<tag k="natural" v="wetland" />
		<tag k="ssr:stedsnr" v="872299" />
	</node>
	<node id="-18344" lat="58.6386583368" lon="6.0973277788">
		<tag k="name" v="Storemyr" />
		<tag k="natural" v="wetland" />
		<tag k="ssr:stedsnr" v="726884" />
	</node>
	<node id="-19879" lat="58.5533305518" lon="5.92284722561">
		<tag k="name" v="Venslemyra" />
		<tag k="natural" v="wetland" />
		<tag k="ssr:stedsnr" v="872133" />
	</node>
	<node id="-19877" lat="58.6454833319" lon="5.93735833698">
		<tag k="name" v="Kvamsmyra" />
		<tag k="natural" v="wetland" />
		<tag k="ssr:stedsnr" v="872192" />
	</node>
	<node id="-19876" lat="58.6344444478" lon="5.92613611598">
		<tag k="name" v="Trollhaugmyra" />
		<tag k="natural" v="wetland" />
		<tag k="ssr:stedsnr" v="872188" />
	</node>
	<node id="-17827" lat="58.6588277795" lon="6.18231110312">
		<tag k="name" v="Kjørkjesteinen" />
		<tag k="natural" v="stone" />
		<tag k="ssr:stedsnr" v="282030" />
	</node>
	<node id="-19361" lat="58.7645944481" lon="6.19467777799">
		<tag k="name" v="Grønemyr" />
		<tag k="natural" v="wetland" />
		<tag k="ssr:stedsnr" v="423432" />
	</node>
	<node id="-19872" lat="58.5883305543" lon="6.17335277066">
		<tag k="name" v="Syltremonane" />
		<tag k="place" v="locality" />
		<tag k="ssr:stedsnr" v="872084" />
	</node>
	<node id="-17823" lat="58.6098472194" lon="6.12156666361">
		<tag k="name" v="Myrane" />
		<tag k="natural" v="wetland" />
		<tag k="ssr:stedsnr" v="448768" />
	</node>
	<node id="-19358" lat="58.7588138896" lon="6.5403722241">
		<tag k="historic" v="shieling" />
		<tag k="name" v="Hedlerstølen" />
		<tag k="place" v="locality" />
		<tag k="ssr:stedsnr" v="423381" />
	</node>
	<node id="-18842" lat="58.7602666682" lon="6.1894750022">
		<tag k="historic" v="shieling" />
		<tag k="name" v="Søre Halvestølen" />
		<tag k="place" v="locality" />
		<tag k="ssr:stedsnr" v="59393" />
	</node>
	<node id="-17816" lat="58.6320888909" lon="5.90799722243">
		<tag k="name" v="Nordaskådamyra" />
		<tag k="natural" v="wetland" />
		<tag k="ssr:stedsnr" v="448192" />
	</node>
	<node id="-19349" lat="58.6575722224" lon="6.09801667407">
		<tag k="name" v="Langeskogen" />
		<tag k="place" v="locality" />
		<tag k="ssr:stedsnr" v="422491" />
	</node>
	<node id="-17812" lat="58.5513305561" lon="6.09220832472">
		<tag k="name" v="Forane" />
		<tag k="natural" v="wetland" />
		<tag k="ssr:stedsnr" v="447989" />
	</node>
	<node id="-19855" lat="58.6874916638" lon="6.40356389717">
		<tag k="name" v="Høgaslåtta" />
		<tag k="place" v="locality" />
		<tag k="ssr:stedsnr" v="850190" />
	</node>
	<node id="-19342" lat="58.753280554" lon="6.2311944408">
		<tag k="name" v="Vindsteinen" />
>>>>>>> e1d4bc35ff8a6074a6f2e91616a996b547c36f15
		<tag k="natural" v="stone" />
		<tag k="ssr:stedsnr" v="421737" />
	</node>
<<<<<<< HEAD
	<node lat="58.63208889093675" lon="5.90799722243396" id="-571">
		<tag k="name" v="Nordaskådamyra" />
		<tag k="natural" v="wetland" />
		<tag k="ssr:stedsnr" v="448192" />
	</node>
	<node lat="58.66346110966281" lon="6.320102778617379" id="-582">
		<tag k="name" v="Hedlå" />
		<tag k="natural" v="stone" />
		<tag k="ssr:stedsnr" v="464809" />
	</node>
	<node lat="58.64684444620941" lon="6.1176111101874735" id="-612">
		<tag k="name" v="Kjædlane" />
		<tag k="place" v="locality" />
		<tag k="ssr:stedsnr" v="483860" />
	</node>
	<node lat="58.76812500264273" lon="6.278847221224858" id="-627">
		<tag k="name" v="Gloppedalsura" />
		<tag k="natural" v="scree" />
		<tag k="ssr:stedsnr" v="486860" />
	</node>
	<node lat="58.67183888996465" lon="6.278747221710394" id="-646">
		<tag k="name" v="Jonsokslåttene" />
		<tag k="place" v="locality" />
		<tag k="ssr:stedsnr" v="524925" />
	</node>
	<node lat="58.703738885538286" lon="6.187211116631922" id="-647">
		<tag k="name" v="Tersmyra" />
		<tag k="natural" v="wetland" />
		<tag k="ssr:stedsnr" v="525107" />
	</node>
	<node lat="58.67241667014902" lon="6.506805548473425" id="-653">
		<tag k="name" v="Svartevasslegå" />
		<tag k="place" v="locality" />
		<tag k="ssr:stedsnr" v="526167" />
	</node>
	<node lat="58.564405558399216" lon="5.973116673832298" id="-696">
		<tag k="name" v="Doblamyra" />
		<tag k="natural" v="wetland" />
		<tag k="ssr:stedsnr" v="690301" />
	</node>
	<node lat="58.58690277403348" lon="5.994461112743107" id="-698">
		<tag k="name" v="Berlandsneset" />
		<tag k="natural" v="wetland" />
		<tag k="ssr:stedsnr" v="690317" />
	</node>
	<node lat="58.58989444567475" lon="5.94834999511078" id="-699">
		<tag k="name" v="Dybingnesjane" />
		<tag k="natural" v="wetland" />
		<tag k="ssr:stedsnr" v="690320" />
	</node>
	<node lat="58.65208332975956" lon="5.927380553623538" id="-701">
		<tag k="name" v="Stora myra" />
		<tag k="natural" v="wetland" />
		<tag k="ssr:stedsnr" v="690256" />
	</node>
	<node lat="58.5797777741469" lon="6.126527780899546" id="-708">
		<tag k="name" v="Bukkura" />
		<tag k="natural" v="scree" />
		<tag k="ssr:stedsnr" v="690789" />
	</node>
	<node lat="58.612425000358435" lon="6.0832027833846105" id="-711">
		<tag k="landuse" v="meadow" />
		<tag k="name" v="Støæ" />
		<tag k="ssr:stedsnr" v="691052" />
	</node>
	<node lat="58.59830833241379" lon="6.186922224752234" id="-716">
		<tag k="historic" v="shieling" />
		<tag k="name" v="Nerestøl" />
		<tag k="place" v="locality" />
		<tag k="ssr:stedsnr" v="568077" />
	</node>
	<node lat="58.68084722535267" lon="6.527494439228217" id="-743">
		<tag k="name" v="Kalvatolegå" />
		<tag k="place" v="locality" />
		<tag k="ssr:stedsnr" v="586156" />
	</node>
	<node lat="58.680397221227594" lon="6.435113893100277" id="-745">
		<tag k="name" v="Løbura" />
		<tag k="natural" v="scree" />
		<tag k="ssr:stedsnr" v="586308" />
	</node>
	<node lat="58.74367777585129" lon="6.569427770992517" id="-748">
		<tag k="landuse" v="meadow" />
		<tag k="name" v="Kvitleslåtta" />
		<tag k="ssr:stedsnr" v="588324" />
	</node>
	<node lat="58.70775688949333" lon="6.372639802588529" id="-765">
		<tag k="name" v="Eikemyrane" />
		<tag k="natural" v="wetland" />
		<tag k="ssr:stedsnr" v="606206" />
	</node>
	<node lat="58.59235000322993" lon="6.172138890759409" id="-779">
		<tag k="name" v="Orresteinen" />
		<tag k="natural" v="stone" />
		<tag k="ssr:stedsnr" v="629093" />
	</node>
	<node lat="58.66741944160358" lon="6.22956944867756" id="-803">
		<tag k="name" v="Kalvedå" />
		<tag k="place" v="locality" />
		<tag k="ssr:stedsnr" v="706051" />
	</node>
	<node lat="58.6527166627339" lon="6.1226111168528226" id="-811">
		<tag k="name" v="Foreslåtta" />
		<tag k="place" v="locality" />
		<tag k="ssr:stedsnr" v="706347" />
	</node>
	<node lat="58.67960555882192" lon="6.41933332461418" id="-820">
		<tag k="name" v="Træe" />
		<tag k="place" v="locality" />
		<tag k="ssr:stedsnr" v="647306" />
	</node>
	<node lat="58.733583336396535" lon="6.5252888866802925" id="-841">
		<tag k="name" v="Flæe" />
=======
	<node id="-18829" lat="58.6994833315" lon="6.15060832809">
		<tag k="historic" v="shieling" />
		<tag k="name" v="Gamlestøl" />
		<tag k="place" v="locality" />
		<tag k="ssr:stedsnr" v="59031" />
	</node>
	<node id="-18242" lat="58.6674194416" lon="6.22956944868">
		<tag k="name" v="Kalvedå" />
		<tag k="place" v="locality" />
		<tag k="ssr:stedsnr" v="706051" />
	</node>
	<node id="-18311" lat="58.7077568895" lon="6.37263980259">
		<tag k="name" v="Eikemyrane" />
		<tag k="natural" v="wetland" />
		<tag k="ssr:stedsnr" v="606206" />
	</node>
	<node id="-19334" lat="58.7820749974" lon="6.1973527715">
		<tag k="historic" v="shieling" />
		<tag k="name" v="Norestølen" />
		<tag k="place" v="locality" />
		<tag k="ssr:stedsnr" v="406344" />
	</node>
	<node id="-19009" lat="58.654244448" lon="5.93251111342">
		<tag k="name" v="Kvitura" />
		<tag k="natural" v="scree" />
		<tag k="ssr:stedsnr" v="144242" />
	</node>
	<node id="-17795" lat="58.7200111088" lon="6.4745555491">
		<tag k="name" v="Klovsteinane" />
		<tag k="natural" v="stone" />
		<tag k="ssr:stedsnr" v="241155" />
	</node>
	<node id="-19839" lat="58.7661694483" lon="6.19029443566">
		<tag k="historic" v="shieling" />
		<tag k="name" v="Nore Halvestølen" />
		<tag k="place" v="locality" />
		<tag k="ssr:stedsnr" v="848413" />
	</node>
	<node id="-17790" lat="58.70085833" lon="6.10826111632">
		<tag k="name" v="Ytre Hisura" />
		<tag k="natural" v="scree" />
		<tag k="ssr:stedsnr" v="241020" />
	</node>
	<node id="-17983" lat="58.6916666635" lon="6.02828889518">
		<tag k="name" v="Urå" />
		<tag k="natural" v="scree" />
		<tag k="ssr:stedsnr" v="403274" />
	</node>
	<node id="-19317" lat="58.6180361133" lon="6.08916666564">
		<tag k="name" v="Oddasteinen" />
		<tag k="natural" v="stone" />
		<tag k="ssr:stedsnr" v="387049" />
	</node>
	<node id="-19827" lat="58.636786115" lon="6.20213334075">
		<tag k="name" v="Viemyrane" />
		<tag k="natural" v="wetland" />
		<tag k="ssr:stedsnr" v="847918" />
	</node>
	<node id="-19825" lat="58.6351222235" lon="6.08719445033">
		<tag k="name" v="Lunden" />
		<tag k="place" v="locality" />
		<tag k="ssr:stedsnr" v="847881" />
	</node>
	<node id="-18287" lat="58.6803972212" lon="6.4351138931">
		<tag k="name" v="Løbura" />
		<tag k="natural" v="scree" />
		<tag k="ssr:stedsnr" v="586308" />
	</node>
	<node id="-18016" lat="58.5196472244" lon="6.02654166366">
		<tag k="name" v="Kregamyra" />
		<tag k="natural" v="wetland" />
		<tag k="ssr:stedsnr" v="508945" />
	</node>
	<node id="-19307" lat="58.5486166629" lon="5.90647777985">
		<tag k="name" v="Mushola" />
		<tag k="natural" v="wetland" />
		<tag k="ssr:stedsnr" v="386139" />
	</node>
	<node id="-18279" lat="58.7237638857" lon="6.24096944441">
		<tag k="name" v="Gråura" />
		<tag k="natural" v="scree" />
		<tag k="ssr:stedsnr" v="586070" />
	</node>
	<node id="-17766" lat="58.7209194423" lon="6.36300000094">
		<tag k="name" v="Helvtarsteinen" />
		<tag k="natural" v="stone" />
		<tag k="ssr:stedsnr" v="283204" />
	</node>
	<node id="-19300" lat="58.6411083291" lon="5.92649722104">
		<tag k="name" v="Hanskjinsgropa" />
		<tag k="natural" v="wetland" />
		<tag k="ssr:stedsnr" v="386187" />
	</node>
	<node id="-18150" lat="58.6468444462" lon="6.11761111019">
		<tag k="name" v="Kjædlane" />
		<tag k="place" v="locality" />
		<tag k="ssr:stedsnr" v="483860" />
	</node>
	<node id="-17979" lat="58.6639611111" lon="6.11590555641">
		<tag k="name" v="Litlhaga" />
		<tag k="place" v="locality" />
		<tag k="ssr:stedsnr" v="403324" />
	</node>
	<node id="-18186" lat="58.6724166701" lon="6.50680554847">
		<tag k="name" v="Svartevasslegå" />
>>>>>>> e1d4bc35ff8a6074a6f2e91616a996b547c36f15
		<tag k="place" v="locality" />
		<tag k="ssr:stedsnr" v="526167" />
	</node>
<<<<<<< HEAD
	<node lat="58.735619440549826" lon="6.090408334747529" id="-854">
		<tag k="name" v="Løesteinen" />
		<tag k="natural" v="stone" />
		<tag k="ssr:stedsnr" v="665411" />
	</node>
	<node lat="58.67346111071961" lon="5.9217305536265945" id="-910">
		<tag k="landuse" v="peat_cutting" />
		<tag k="name" v="Gjeidatona" />
		<tag k="ssr:stedsnr" v="690231" />
	</node>
	<node lat="58.63063888736464" lon="5.933911110572132" id="-912">
		<tag k="name" v="Gudmonsmyra" />
		<tag k="natural" v="wetland" />
		<tag k="ssr:stedsnr" v="690197" />
	</node>
	<node lat="58.6487722247536" lon="6.184827773477915" id="-928">
		<tag k="name" v="Viemyrane" />
		<tag k="natural" v="wetland" />
		<tag k="ssr:stedsnr" v="706015" />
	</node>
	<node lat="58.67117500202969" lon="6.35325277419869" id="-929">
		<tag k="name" v="Kyrkjesteinen" />
		<tag k="natural" v="stone" />
		<tag k="ssr:stedsnr" v="706306" />
	</node>
	<node lat="58.63865833681965" lon="6.097327778795204" id="-948">
		<tag k="name" v="Storemyr" />
		<tag k="natural" v="wetland" />
		<tag k="ssr:stedsnr" v="726884" />
	</node>
	<node lat="58.71139166238343" lon="6.465319447471337" id="-1012">
		<tag k="name" v="Legå" />
		<tag k="place" v="locality" />
		<tag k="ssr:stedsnr" v="908172" />
	</node>
	<node lat="58.67739166516827" lon="6.111794445698276" id="-1040">
		<tag k="name" v="Torvmyra" />
		<tag k="natural" v="wetland" />
		<tag k="ssr:stedsnr" v="786003" />
	</node>
	<node lat="58.65651666810763" lon="5.98530833490384" id="-1083">
		<tag k="name" v="Dilpemyr" />
		<tag k="natural" v="wetland" />
		<tag k="ssr:stedsnr" v="811309" />
	</node>
	<node lat="58.72109444446554" lon="6.190252782420805" id="-1104">
		<tag k="name" v="Åsmyra" />
		<tag k="natural" v="wetland" />
		<tag k="ssr:stedsnr" v="829064" />
	</node>
	<node lat="58.63512222352651" lon="6.087194450326112" id="-1119">
		<tag k="name" v="Lunden" />
		<tag k="place" v="locality" />
		<tag k="ssr:stedsnr" v="847881" />
	</node>
	<node lat="58.7661694483332" lon="6.190294435656593" id="-1125">
		<tag k="alt_name" v="Nore Halvestølen" />
		<tag k="historic" v="shieling" />
		<tag k="name" v="Nordre Halvestølen" />
		<tag k="place" v="locality" />
		<tag k="ssr:stedsnr" v="848413" />
	</node>
	<node lat="58.596858337535906" lon="6.183625006915316" id="-1133">
		<tag k="alt_name" v="Sjursmyrane" />
		<tag k="name" v="Sjursmyr" />
		<tag k="natural" v="wetland" />
		<tag k="ssr:stedsnr" v="850130" />
	</node>
	<node lat="58.68749166378868" lon="6.403563897166288" id="-1134">
		<tag k="name" v="Høgaslåtta" />
		<tag k="place" v="locality" />
		<tag k="ssr:stedsnr" v="850190" />
	</node>
	<node lat="58.607472225650504" lon="5.983052783356607" id="-1143">
		<tag k="name" v="Vidlingmyra" />
		<tag k="natural" v="wetland" />
		<tag k="ssr:stedsnr" v="872317" />
	</node>
	<node lat="58.64070555713766" lon="5.981958336284764" id="-1144">
		<tag k="name" v="Liane" />
		<tag k="natural" v="wetland" />
		<tag k="ssr:stedsnr" v="872324" />
	</node>
	<node lat="58.647869442592324" lon="6.1220805581078235" id="-1167">
		<tag k="name" v="Krogemyr" />
		<tag k="natural" v="wetland" />
		<tag k="ssr:stedsnr" v="889347" />
	</node>
	<node lat="58.6731249988151" lon="6.230291674334483" id="-1183">
		<tag k="name" v="Karifenet" />
		<tag k="natural" v="wetland" />
		<tag k="ssr:stedsnr" v="908069" />
	</node>
	<node lat="58.74471388680229" lon="6.211113882199126" id="-1188">
		<tag k="name" v="Myrane" />
		<tag k="place" v="locality" />
		<tag k="ssr:stedsnr" v="909655" />
	</node>
	<node lat="58.62082499685001" lon="6.1687055532521295" id="-1203">
		<tag k="name" v="Tinnarsteinen" />
		<tag k="natural" v="stone" />
		<tag k="ssr:stedsnr" v="933113" />
	</node>
	<node lat="58.60990277972914" lon="6.039375008096562" id="-1211">
		<tag k="name" v="Nipura" />
		<tag k="natural" v="scree" />
		<tag k="ssr:stedsnr" v="933917" />
	</node>
	<node lat="58.61943055384912" lon="6.081502782815609" id="-1214">
		<tag k="landuse" v="meadow" />
		<tag k="name" v="Auglend" />
		<tag k="ssr:stedsnr" v="934029" />
	</node>
	<node lat="58.652824998756074" lon="6.174933337075632" id="-1218">
		<tag k="name" v="Støsteinane" />
		<tag k="natural" v="stone" />
		<tag k="ssr:stedsnr" v="949011" />
	</node>
	<node lat="58.74106944691423" lon="6.252216670011113" id="-1234">
		<tag k="historic" v="shieling" />
		<tag k="name" v="Brattestøl" />
		<tag k="place" v="locality" />
		<tag k="ssr:stedsnr" v="967604" />
	</node>
	<node lat="58.71651944710104" lon="6.365699992372479" id="-1314">
		<tag k="name" v="Saltbekkmyra" />
		<tag k="natural" v="wetland" />
		<tag k="ssr:stedsnr" v="40219" />
	</node>
	<node lat="58.661674996538004" lon="6.4271416737953695" id="-1323">
		<tag k="historic" v="shieling" />
		<tag k="name" v="Juvasstølen" />
		<tag k="place" v="locality" />
		<tag k="ssr:stedsnr" v="41248" />
	</node>
	<node lat="58.76026666822241" lon="6.189475002202697" id="-1339">
		<tag k="historic" v="shieling" />
		<tag k="name" v="Søre Halvestølen" />
		<tag k="place" v="locality" />
		<tag k="ssr:stedsnr" v="59393" />
	</node>
	<node lat="58.69948333145409" lon="6.150608328094262" id="-1341">
		<tag k="historic" v="shieling" />
		<tag k="name" v="Gamlestøl" />
		<tag k="place" v="locality" />
		<tag k="ssr:stedsnr" v="59031" />
	</node>
	<node lat="58.63474166417382" lon="6.068027771466857" id="-1378">
		<tag k="landuse" v="meadow" />
		<tag k="name" v="Auglend" />
		<tag k="ssr:stedsnr" v="86860" />
	</node>
	<node lat="58.66542777727573" lon="6.235111111111813" id="-1381">
		<tag k="historic" v="shieling" />
		<tag k="name" v="Stølen" />
		<tag k="place" v="locality" />
		<tag k="ssr:stedsnr" v="100051" />
	</node>
	<node lat="58.715777774089545" lon="6.050538892224891" id="-1382">
		<tag k="name" v="Bårdshola" />
		<tag k="place" v="locality" />
		<tag k="ssr:stedsnr" v="100076" />
	</node>
	<node lat="58.703102775644744" lon="6.294991674529207" id="-1393">
		<tag k="name" v="Tangasvåene" />
		<tag k="place" v="locality" />
		<tag k="ssr:stedsnr" v="101204" />
	</node>
	<node lat="58.67569722622032" lon="6.406822219112981" id="-1397">
		<tag k="name" v="Revura" />
		<tag k="natural" v="scree" />
		<tag k="ssr:stedsnr" v="101294" />
	</node>
	<node lat="58.70088611225707" lon="6.115166673497549" id="-1410">
		<tag k="name" v="Indre Hisura" />
		<tag k="natural" v="scree" />
		<tag k="ssr:stedsnr" v="119035" />
	</node>
	<node lat="58.66181666722776" lon="6.091299999356412" id="-1419">
		<tag k="name" v="Plassæ" />
		<tag k="place" v="locality" />
		<tag k="ssr:stedsnr" v="119519" />
	</node>
	<node lat="58.637608336368196" lon="6.192086111741186" id="-1421">
		<tag k="name" v="Doltamyra" />
		<tag k="natural" v="wetland" />
		<tag k="ssr:stedsnr" v="119951" />
	</node>
	<node lat="58.688738891704304" lon="6.20359444243731" id="-1446">
		<tag k="name" v="Mjelkesteinen" />
		<tag k="natural" v="stone" />
		<tag k="ssr:stedsnr" v="121449" />
	</node>
	<node lat="58.52753611396361" lon="6.005761115153015" id="-1472">
		<tag k="name" v="Klovsteinane" />
		<tag k="natural" v="stone" />
		<tag k="ssr:stedsnr" v="144915" />
	</node>
	<node lat="58.70143333639932" lon="6.037922225962673" id="-1485">
		<tag k="name" v="Øvre Longemyr" />
		<tag k="natural" v="wetland" />
		<tag k="ssr:stedsnr" v="160270" />
	</node>
	<node lat="58.70822777987941" lon="6.498322223684529" id="-1486">
		<tag k="name" v="Storavasslegå" />
		<tag k="place" v="locality" />
		<tag k="ssr:stedsnr" v="161230" />
	</node>
	<node lat="58.599969443245065" lon="6.157941661055147" id="-1541">
		<tag k="name" v="Myrane" />
		<tag k="natural" v="wetland" />
		<tag k="ssr:stedsnr" v="205017" />
	</node>
	<node lat="58.61582221892331" lon="6.097227777860229" id="-1544">
		<tag k="name" v="Elisteinen" />
		<tag k="natural" v="stone" />
		<tag k="ssr:stedsnr" v="205024" />
	</node>
	<node lat="58.61354444437117" lon="6.098375007474215" id="-1545">
		<tag k="name" v="Nesjasteinen" />
		<tag k="natural" v="stone" />
		<tag k="ssr:stedsnr" v="205026" />
	</node>
	<node lat="58.534316662867454" lon="5.9707972284548125" id="-1558">
		<tag k="name" v="Hetlandsskogen" />
		<tag k="place" v="locality" />
		<tag k="ssr:stedsnr" v="205827" />
	</node>
	<node lat="58.65882777950777" lon="6.182311103115083" id="-1582">
		<tag k="name" v="Kjørkjesteinen" />
		<tag k="natural" v="stone" />
		<tag k="ssr:stedsnr" v="282030" />
	</node>
	<node lat="58.67599722099826" lon="6.2739888813377815" id="-1592">
		<tag k="landuse" v="meadow" />
		<tag k="name" v="Steian" />
		<tag k="ssr:stedsnr" v="282946" />
	</node>
	<node lat="58.659538889151385" lon="6.092783332283286" id="-1611">
		<tag k="name" v="Vittase" />
		<tag k="place" v="locality" />
		<tag k="ssr:stedsnr" v="301490" />
	</node>
	<node lat="58.605561113317705" lon="5.967997225834576" id="-1647">
		<tag k="landuse" v="meadow" />
		<tag k="name" v="Kviteshei" />
		<tag k="ssr:stedsnr" v="326294" />
	</node>
	<node lat="58.70128889270887" lon="6.0242388888076945" id="-1660">
		<tag k="name" v="Siglebergmyra" />
		<tag k="natural" v="wetland" />
		<tag k="ssr:stedsnr" v="342274" />
	</node>
	<node lat="58.72320833154046" lon="6.200188897269704" id="-1667">
		<tag k="name" v="Krosstødnane" />
		<tag k="place" v="locality" />
		<tag k="ssr:stedsnr" v="343078" />
	</node>
	<node lat="58.69260555228844" lon="6.192530555994016" id="-1673">
		<tag k="name" v="Monen" />
		<tag k="place" v="locality" />
		<tag k="ssr:stedsnr" v="345141" />
	</node>
	<node lat="58.675697222608534" lon="6.135641673102646" id="-1680">
		<tag k="name" v="Heiane" />
		<tag k="place" v="locality" />
		<tag k="ssr:stedsnr" v="361001" />
	</node>
	<node lat="58.68685277867736" lon="6.1177083311099505" id="-1685">
		<tag k="name" v="Tjokkelilega" />
		<tag k="place" v="locality" />
		<tag k="ssr:stedsnr" v="361026" />
	</node>
	<node lat="58.680322221581626" lon="6.073983328204717" id="-1686">
		<tag k="name" v="Doblamyra" />
		<tag k="natural" v="wetland" />
		<tag k="ssr:stedsnr" v="361280" />
	</node>
	<node lat="58.64658610659876" lon="6.091411106398172" id="-1696">
		<tag k="name" v="Monæ" />
		<tag k="place" v="locality" />
		<tag k="ssr:stedsnr" v="361834" />
	</node>
	<node lat="58.64366111529109" lon="6.146127781678437" id="-1697">
		<tag k="name" v="Riblane" />
		<tag k="place" v="locality" />
		<tag k="ssr:stedsnr" v="361838" />
	</node>
	<node lat="58.64115555197987" lon="6.25271388709633" id="-1701">
		<tag k="name" v="Raksteinen" />
		<tag k="natural" v="stone" />
		<tag k="ssr:stedsnr" v="361901" />
	</node>
	<node lat="58.632472224436576" lon="6.175819449358085" id="-1703">
		<tag k="name" v="Fossmyra" />
		<tag k="natural" v="wetland" />
		<tag k="ssr:stedsnr" v="361943" />
	</node>
	<node lat="58.74449722171074" lon="6.168638881145945" id="-1711">
		<tag k="name" v="Lange Myrane" />
		<tag k="natural" v="wetland" />
		<tag k="ssr:stedsnr" v="362714" />
	</node>
	<node lat="58.63974444858051" lon="6.406416660813826" id="-1732">
		<tag k="historic" v="shieling" />
		<tag k="name" v="Nystøl" />
		<tag k="place" v="locality" />
		<tag k="ssr:stedsnr" v="364833" />
	</node>
	<node lat="58.64110832906026" lon="5.926497221042349" id="-1748">
		<tag k="name" v="Hanskjinsgropa" />
		<tag k="natural" v="wetland" />
		<tag k="ssr:stedsnr" v="386187" />
	</node>
	<node lat="58.54861666286702" lon="5.906477779850152" id="-1752">
		<tag k="name" v="Mushola" />
		<tag k="natural" v="wetland" />
		<tag k="ssr:stedsnr" v="386139" />
	</node>
	<node lat="58.61803611325894" lon="6.089166665640054" id="-1759">
		<tag k="name" v="Oddasteinen" />
		<tag k="natural" v="stone" />
		<tag k="ssr:stedsnr" v="387049" />
	</node>
	<node lat="58.724480553629235" lon="6.212025001560697" id="-1772">
		<tag k="name" v="Viemyr" />
		<tag k="natural" v="wetland" />
		<tag k="ssr:stedsnr" v="404056" />
	</node>
	<node lat="58.70368888891584" lon="6.220905552686763" id="-1776">
		<tag k="historic" v="shieling" />
		<tag k="name" v="Heimrestølen" />
		<tag k="place" v="locality" />
		<tag k="ssr:stedsnr" v="405111" />
	</node>
	<node lat="58.75328055403227" lon="6.231194440796589" id="-1783">
		<tag k="name" v="Vindsteinen" />
		<tag k="natural" v="stone" />
		<tag k="ssr:stedsnr" v="421737" />
	</node>
	<node lat="58.75881388955983" lon="6.540372224096119" id="-1796">
=======
	<node id="-17755" lat="58.675997221" lon="6.27398888134">
		<tag k="landuse" v="meadow" />
		<tag k="name" v="Steian" />
		<tag k="ssr:stedsnr" v="282946" />
	</node>
	<node id="-18775" lat="58.535141664" lon="6.04204166443">
		<tag k="name" v="Stolpemyra" />
		<tag k="natural" v="wetland" />
		<tag k="ssr:stedsnr" v="23932" />
	</node>
	<node id="-19854" lat="58.5968583375" lon="6.18362500692">
		<tag k="alt_name" v="Sjursmyrane" />
		<tag k="name" v="Sjursmyr" />
		<tag k="natural" v="wetland" />
		<tag k="ssr:stedsnr" v="850130" />
	</node>
	<node id="-18253" lat="58.6527166627" lon="6.12261111685">
		<tag k="name" v="Foreslåtta" />
		<tag k="place" v="locality" />
		<tag k="ssr:stedsnr" v="706347" />
	</node>
	<node id="-19788" lat="58.7210944445" lon="6.19025278242">
		<tag k="name" v="Åsmyra" />
		<tag k="natural" v="wetland" />
		<tag k="ssr:stedsnr" v="829064" />
	</node>
	<node id="-17736" lat="58.7014333364" lon="6.03792222596">
		<tag k="name" v="Øvre Longemyr" />
		<tag k="natural" v="wetland" />
		<tag k="ssr:stedsnr" v="160270" />
	</node>
	<node id="-18246" lat="58.671175002" lon="6.3532527742">
		<tag k="name" v="Kyrkjesteinen" />
		<tag k="natural" v="stone" />
		<tag k="ssr:stedsnr" v="706306" />
	</node>
	<node id="-19780" lat="58.6771805562" lon="6.32998889179">
		<tag k="name" v="Todnaslåtten" />
		<tag k="place" v="locality" />
		<tag k="ssr:stedsnr" v="828317" />
	</node>
	<node id="-18755" lat="58.5939138875" lon="6.17371388166">
		<tag k="name" v="Krutlet" />
		<tag k="place" v="locality" />
		<tag k="ssr:stedsnr" v="23100" />
	</node>
	<node id="-19778" lat="58.7011361148" lon="6.04966945208">
		<tag k="name" v="Nedre Longemyr" />
		<tag k="natural" v="wetland" />
		<tag k="ssr:stedsnr" v="828290" />
	</node>
	<node id="-18238" lat="58.6487722248" lon="6.18482777348">
		<tag k="name" v="Viemyrane" />
		<tag k="natural" v="wetland" />
		<tag k="ssr:stedsnr" v="706015" />
	</node>
	<node id="-19254" lat="58.641155552" lon="6.2527138871">
		<tag k="name" v="Raksteinen" />
		<tag k="natural" v="stone" />
		<tag k="ssr:stedsnr" v="361901" />
	</node>
	<node id="-17712" lat="58.6053916695" lon="5.98431389193">
		<tag k="landuse" v="meadow" />
		<tag k="name" v="Gryholane" />
		<tag k="ssr:stedsnr" v="265353" />
	</node>
	<node id="-19247" lat="58.6324722244" lon="6.17581944936">
		<tag k="name" v="Fossmyra" />
		<tag k="natural" v="wetland" />
		<tag k="ssr:stedsnr" v="361943" />
	</node>
	<node id="-19757" lat="58.6081749971" lon="6.17842499595">
		<tag k="name" v="Bukkahagen" />
		<tag k="place" v="locality" />
		<tag k="ssr:stedsnr" v="812102" />
	</node>
	<node id="-19244" lat="58.6465861066" lon="6.0914111064">
		<tag k="name" v="Monæ" />
		<tag k="place" v="locality" />
		<tag k="ssr:stedsnr" v="361834" />
	</node>
	<node id="-17955" lat="58.6397444486" lon="6.40641666081">
		<tag k="historic" v="shieling" />
		<tag k="name" v="Nystøl" />
		<tag k="place" v="locality" />
		<tag k="ssr:stedsnr" v="364833" />
	</node>
	<node id="-19754" lat="58.6232138914" lon="6.09742777776">
		<tag k="name" v="Fossamyra" />
		<tag k="natural" v="wetland" />
		<tag k="ssr:stedsnr" v="812034" />
	</node>
	<node id="-19237" lat="58.6803222216" lon="6.0739833282">
		<tag k="name" v="Doblamyra" />
		<tag k="natural" v="wetland" />
		<tag k="ssr:stedsnr" v="361280" />
	</node>
	<node id="-19236" lat="58.6756972226" lon="6.1356416731">
		<tag k="name" v="Heiane" />
		<tag k="place" v="locality" />
		<tag k="ssr:stedsnr" v="361001" />
	</node>
	<node id="-19235" lat="58.6868527787" lon="6.11770833111">
		<tag k="name" v="Tjokkelilega" />
		<tag k="place" v="locality" />
		<tag k="ssr:stedsnr" v="361026" />
	</node>
	<node id="-18210" lat="58.586902774" lon="5.99446111274">
		<tag k="name" v="Berlandsneset" />
		<tag k="natural" v="wetland" />
		<tag k="ssr:stedsnr" v="690317" />
	</node>
	<node id="-18208" lat="58.5644055584" lon="5.97311667383">
		<tag k="name" v="Doblamyra" />
		<tag k="natural" v="wetland" />
		<tag k="ssr:stedsnr" v="690301" />
	</node>
	<node id="-19740" lat="58.6565166681" lon="5.9853083349">
		<tag k="name" v="Dilpemyr" />
		<tag k="natural" v="wetland" />
		<tag k="ssr:stedsnr" v="811309" />
	</node>
	<node id="-18715" lat="58.773233337" lon="6.18574444403">
		<tag k="name" v="Syngjarsteinen" />
		<tag k="natural" v="stone" />
		<tag k="ssr:stedsnr" v="969419" />
	</node>
	<node id="-18202" lat="58.6734611107" lon="5.92173055363">
		<tag k="landuse" v="peat_cutting" />
		<tag k="name" v="Gjeidatona" />
		<tag k="ssr:stedsnr" v="690231" />
	</node>
	<node id="-18223" lat="58.5797777741" lon="6.1265277809">
		<tag k="name" v="Bukkura" />
		<tag k="natural" v="scree" />
		<tag k="ssr:stedsnr" v="690789" />
	</node>
	<node id="-19224" lat="58.6926055523" lon="6.19253055599">
		<tag k="name" v="Monen" />
		<tag k="place" v="locality" />
		<tag k="ssr:stedsnr" v="345141" />
	</node>
	<node id="-17685" lat="58.7044888924" lon="6.32221666205">
		<tag k="name" v="Legå" />
		<tag k="place" v="locality" />
		<tag k="ssr:stedsnr" v="116227" />
	</node>
	<node id="-18705" lat="58.6813444459" lon="6.23773055365">
		<tag k="name" v="Fantasteinen" />
		<tag k="natural" v="stone" />
		<tag k="ssr:stedsnr" v="968076" />
	</node>
	<node id="-17680" lat="58.7157777741" lon="6.05053889222">
		<tag k="name" v="Bårdshola" />
		<tag k="place" v="locality" />
		<tag k="ssr:stedsnr" v="100076" />
	</node>
	<node id="-19215" lat="58.7232083315" lon="6.20018889727">
		<tag k="name" v="Krosstødnane" />
		<tag k="place" v="locality" />
		<tag k="ssr:stedsnr" v="343078" />
	</node>
	<node id="-19245" lat="58.6436611153" lon="6.14612778168">
		<tag k="name" v="Riblane" />
		<tag k="place" v="locality" />
		<tag k="ssr:stedsnr" v="361838" />
	</node>
	<node id="-19210" lat="58.7491611067" lon="6.26136388116">
		<tag k="historic" v="shieling" />
		<tag k="name" v="Lanesstølen" />
		<tag k="place" v="locality" />
		<tag k="ssr:stedsnr" v="342443" />
	</node>
	<node id="-18696" lat="58.6528249988" lon="6.17493333708">
		<tag k="name" v="Støsteinane" />
		<tag k="natural" v="stone" />
		<tag k="ssr:stedsnr" v="949011" />
	</node>
	<node id="-17708" lat="58.5838333291" lon="5.97074999872">
		<tag k="name" v="Sutremyr" />
		<tag k="natural" v="wetland" />
		<tag k="ssr:stedsnr" v="265303" />
	</node>
	<node id="-19206" lat="58.7012888927" lon="6.02423888881">
		<tag k="name" v="Siglebergmyra" />
		<tag k="natural" v="wetland" />
		<tag k="ssr:stedsnr" v="342274" />
	</node>
	<node id="-19204" lat="58.6559611084" lon="6.22659999942">
		<tag k="name" v="Deblamyrane" />
		<tag k="natural" v="wetland" />
		<tag k="ssr:stedsnr" v="342042" />
	</node>
	<node id="-18686" lat="58.6099027797" lon="6.0393750081">
		<tag k="name" v="Nipura" />
		<tag k="natural" v="scree" />
		<tag k="ssr:stedsnr" v="933917" />
	</node>
	<node id="-18685" lat="58.6208249969" lon="6.16870555325">
		<tag k="name" v="Tinnarsteinen" />
		<tag k="natural" v="stone" />
		<tag k="ssr:stedsnr" v="933113" />
	</node>
	<node id="-19327" lat="58.7177944474" lon="6.23375555544">
		<tag k="name" v="Gyro" />
		<tag k="natural" v="stone" />
		<tag k="ssr:stedsnr" v="404083" />
	</node>
	<node id="-17656" lat="58.6977666691" lon="6.55532777316">
		<tag k="name" v="Gråur" />
		<tag k="natural" v="scree" />
		<tag k="ssr:stedsnr" v="243187" />
	</node>
	<node id="-19189" lat="58.6055611133" lon="5.96799722583">
		<tag k="landuse" v="meadow" />
		<tag k="name" v="Kviteshei" />
		<tag k="ssr:stedsnr" v="326294" />
	</node>
	<node id="-18676" lat="58.7447138868" lon="6.2111138822">
		<tag k="name" v="Myrane" />
		<tag k="place" v="locality" />
		<tag k="ssr:stedsnr" v="909655" />
	</node>
	<node id="-17647" lat="58.7470916674" lon="6.45220832999">
		<tag k="historic" v="shieling" />
		<tag k="name" v="Hommastøl" />
		<tag k="place" v="locality" />
		<tag k="ssr:stedsnr" v="241435" />
	</node>
	<node id="-17643" lat="58.7257000015" lon="6.38985000468">
		<tag k="name" v="Barbumyrane" />
		<tag k="natural" v="wetland" />
		<tag k="ssr:stedsnr" v="241120" />
	</node>
	<node id="-19689" lat="58.6773916652" lon="6.1117944457">
		<tag k="name" v="Torvmyra" />
		<tag k="natural" v="wetland" />
		<tag k="ssr:stedsnr" v="786003" />
	</node>
	<node id="-19176" lat="58.6285666699" lon="5.90393332941">
		<tag k="name" v="Søraskådamyra" />
		<tag k="natural" v="wetland" />
		<tag k="ssr:stedsnr" v="326178" />
	</node>
	<node id="-19174" lat="58.6747916702" lon="5.90979166602">
		<tag k="name" v="Forane" />
		<tag k="natural" v="wetland" />
		<tag k="ssr:stedsnr" v="326209" />
	</node>
	<node id="-17637" lat="58.7032750036" lon="6.15055834058">
		<tag k="name" v="Linneskogen" />
		<tag k="place" v="locality" />
		<tag k="ssr:stedsnr" v="241033" />
	</node>
	<node id="-18658" lat="58.6705250034" lon="5.99515277822">
		<tag k="name" v="Varemyra" />
		<tag k="natural" v="wetland" />
		<tag k="ssr:stedsnr" v="872355" />
	</node>
	<node id="-18655" lat="58.7149583318" lon="6.2552416714">
		<tag k="name" v="Skvagrau" />
		<tag k="place" v="locality" />
		<tag k="ssr:stedsnr" v="950086" />
	</node>
	<node id="-19678" lat="58.7596861076" lon="6.21956389354">
		<tag k="name" v="Stokklimyra" />
		<tag k="natural" v="wetland" />
		<tag k="ssr:stedsnr" v="770338" />
	</node>
	<node id="-17629" lat="58.6712388914" lon="6.21834722201">
		<tag k="landuse" v="meadow" />
		<tag k="name" v="Midtløa" />
		<tag k="ssr:stedsnr" v="240069" />
	</node>
	<node id="-18211" lat="58.5898944457" lon="5.94834999511">
		<tag k="name" v="Dybingnesjane" />
		<tag k="natural" v="wetland" />
		<tag k="ssr:stedsnr" v="690320" />
	</node>
	<node id="-19149" lat="58.6595388892" lon="6.09278333228">
		<tag k="name" v="Vittase" />
		<tag k="place" v="locality" />
		<tag k="ssr:stedsnr" v="301490" />
	</node>
	<node id="-19141" lat="58.6942833358" lon="6.15678055652">
		<tag k="historic" v="shieling" />
		<tag k="name" v="Skjiljingstad" />
		<tag k="place" v="locality" />
		<tag k="ssr:stedsnr" v="301027" />
	</node>
	<node id="-19140" lat="58.6706083298" lon="6.12508611197">
		<tag k="alt_name" v="Olmarka" />
		<tag k="name" v="Olmorkja" />
		<tag k="place" v="locality" />
		<tag k="ssr:stedsnr" v="301003" />
	</node>
	<node id="-18627" lat="58.6194305538" lon="6.08150278282">
		<tag k="landuse" v="meadow" />
		<tag k="name" v="Auglend" />
		<tag k="ssr:stedsnr" v="934029" />
	</node>
	<node id="-19650" lat="58.5470861076" lon="6.05855832523">
		<tag k="name" v="Sempermyra" />
		<tag k="natural" v="wetland" />
		<tag k="ssr:stedsnr" v="751992" />
	</node>
	<node id="-19136" lat="58.5343166629" lon="5.97079722845">
		<tag k="name" v="Hetlandsskogen" />
		<tag k="place" v="locality" />
		<tag k="ssr:stedsnr" v="205827" />
	</node>
	<node id="-18805" lat="58.6616749965" lon="6.4271416738">
>>>>>>> e1d4bc35ff8a6074a6f2e91616a996b547c36f15
		<tag k="historic" v="shieling" />
		<tag k="name" v="Hedlerstølen" />
		<tag k="place" v="locality" />
		<tag k="ssr:stedsnr" v="423381" />
	</node>
<<<<<<< HEAD
	<node lat="58.76459444813301" lon="6.194677777986329" id="-1798">
		<tag k="name" v="Grønemyr" />
		<tag k="natural" v="wetland" />
		<tag k="ssr:stedsnr" v="423432" />
	</node>
	<node lat="58.69988055180495" lon="6.574749993480464" id="-1808">
		<tag k="alt_name" v="Finnlømyrane" />
		<tag k="name" v="Finnløemyrane" />
		<tag k="natural" v="wetland" />
		<tag k="ssr:stedsnr" v="425188" />
	</node>
	<node lat="58.729924998098326" lon="6.433524999217622" id="-1822">
		<tag k="alt_name" v="Myrstøl" />
=======
	<node id="-19643" lat="58.5446944444" lon="6.03790556336">
		<tag k="name" v="Hellandsmoen" />
		<tag k="place" v="locality" />
		<tag k="ssr:stedsnr" v="751865" />
	</node>
	<node id="-18103" lat="58.6634611097" lon="6.32010277862">
		<tag k="name" v="Hedlå" />
		<tag k="natural" v="stone" />
		<tag k="ssr:stedsnr" v="464809" />
	</node>
	<node id="-19637" lat="58.6113555527" lon="5.95732222065">
		<tag k="name" v="Litleskog" />
		<tag k="place" v="locality" />
		<tag k="ssr:stedsnr" v="751351" />
	</node>
	<node id="-17587" lat="58.6096777744" lon="6.24696111378">
		<tag k="name" v="Handøksa" />
		<tag k="natural" v="stone" />
		<tag k="ssr:stedsnr" v="27412" />
	</node>
	<node id="-19119" lat="58.6220583327" lon="6.17471111124">
>>>>>>> e1d4bc35ff8a6074a6f2e91616a996b547c36f15
		<tag k="historic" v="shieling" />
		<tag k="name" v="Myrstølen" />
		<tag k="place" v="locality" />
		<tag k="ssr:stedsnr" v="426237" />
	</node>
<<<<<<< HEAD
	<node lat="58.551330556082384" lon="6.092208324720789" id="-1828">
		<tag k="name" v="Forane" />
		<tag k="natural" v="wetland" />
		<tag k="ssr:stedsnr" v="447989" />
	</node>
	<node lat="58.66556388489923" lon="5.9610416604161935" id="-1833">
		<tag k="name" v="Buddalsmyra" />
		<tag k="natural" v="wetland" />
		<tag k="ssr:stedsnr" v="448341" />
	</node>
	<node lat="58.60984721940788" lon="6.121566663605774" id="-1835">
		<tag k="name" v="Myrane" />
		<tag k="natural" v="wetland" />
		<tag k="ssr:stedsnr" v="448768" />
	</node>
	<node lat="58.59750555612365" lon="6.1813111154409865" id="-1836">
		<tag k="name" v="Hedlermyrane" />
		<tag k="natural" v="wetland" />
		<tag k="ssr:stedsnr" v="508079" />
	</node>
	<node lat="58.63528055973486" lon="5.938336104676247" id="-1839">
		<tag k="name" v="Nilså" />
		<tag k="natural" v="wetland" />
		<tag k="ssr:stedsnr" v="508172" />
	</node>
	<node lat="58.63455000340954" lon="5.918175007368782" id="-1840">
		<tag k="name" v="Botnen" />
		<tag k="natural" v="wetland" />
		<tag k="ssr:stedsnr" v="508174" />
	</node>
	<node lat="58.5452777768361" lon="5.915480553622081" id="-1845">
		<tag k="name" v="Storamyra" />
		<tag k="natural" v="wetland" />
		<tag k="ssr:stedsnr" v="508128" />
	</node>
	<node lat="58.61080277407903" lon="5.987113882294586" id="-1851">
		<tag k="name" v="Urane" />
		<tag k="natural" v="scree" />
		<tag k="ssr:stedsnr" v="508294" />
	</node>
	<node lat="58.59148332950718" lon="6.047511112784038" id="-1854">
		<tag k="landuse" v="meadow" />
		<tag k="name" v="Gåslandsstykket" />
		<tag k="ssr:stedsnr" v="508932" />
	</node>
	<node lat="58.519647224396266" lon="6.026541663664277" id="-1855">
		<tag k="name" v="Kregamyra" />
		<tag k="natural" v="wetland" />
		<tag k="ssr:stedsnr" v="508945" />
	</node>
	<node lat="58.61183333218814" lon="5.948349996039797" id="-1931">
		<tag k="name" v="Skrubbamyra" />
		<tag k="natural" v="wetland" />
		<tag k="ssr:stedsnr" v="568282" />
	</node>
	<node lat="58.6700888922253" lon="6.19432221831963" id="-1948">
		<tag k="name" v="Viemyrane" />
		<tag k="natural" v="wetland" />
		<tag k="ssr:stedsnr" v="585215" />
	</node>
	<node lat="58.723763885659274" lon="6.240969444405198" id="-1953">
		<tag k="name" v="Gråura" />
		<tag k="natural" v="scree" />
		<tag k="ssr:stedsnr" v="586070" />
	</node>
	<node lat="58.69156944761119" lon="6.516447224586119" id="-1960">
		<tag k="landuse" v="meadow" />
		<tag k="name" v="Træe" />
		<tag k="ssr:stedsnr" v="586232" />
	</node>
	<node lat="58.68067500446875" lon="6.510080560638163" id="-1964">
		<tag k="name" v="Ytralegå" />
		<tag k="place" v="locality" />
		<tag k="ssr:stedsnr" v="586179" />
	</node>
	<node lat="58.69573611019833" lon="6.404194449625807" id="-1972">
		<tag k="name" v="Kleivamyrane" />
		<tag k="natural" v="wetland" />
		<tag k="ssr:stedsnr" v="604190" />
	</node>
	<node lat="58.58670277646745" lon="5.894108327396308" id="-2007">
		<tag k="name" v="Hagen" />
		<tag k="place" v="locality" />
		<tag k="ssr:stedsnr" v="629137" />
	</node>
	<node lat="58.61974722162855" lon="5.909352781958551" id="-2008">
		<tag k="name" v="Ognedalstølen" />
		<tag k="place" v="locality" />
		<tag k="ssr:stedsnr" v="629196" />
	</node>
	<node lat="58.606175000071175" lon="5.973588881381218" id="-2019">
		<tag k="landuse" v="meadow" />
		<tag k="name" v="Lyngbrotet" />
		<tag k="ssr:stedsnr" v="629279" />
	</node>
	<node lat="58.71248888937996" lon="6.371702773687551" id="-2040">
		<tag k="name" v="Grøttelandsmyrane" />
		<tag k="natural" v="wetland" />
		<tag k="ssr:stedsnr" v="646207" />
	</node>
	<node lat="58.655211114008885" lon="6.346013884995726" id="-2044">
		<tag k="name" v="Store Steinen" />
		<tag k="natural" v="stone" />
		<tag k="ssr:stedsnr" v="647353" />
	</node>
	<node lat="58.68840555165799" lon="6.1207555534998415" id="-2054">
		<tag k="name" v="Stølslega" />
		<tag k="place" v="locality" />
		<tag k="ssr:stedsnr" v="665028" />
	</node>
	<node lat="58.66167777959211" lon="6.0575416729227225" id="-2065">
		<tag k="name" v="Vimyr" />
		<tag k="natural" v="wetland" />
		<tag k="ssr:stedsnr" v="665528" />
	</node>
	<node lat="58.6351361092158" lon="6.225994436614297" id="-2066">
		<tag k="name" v="Øvra Legå" />
		<tag k="place" v="locality" />
		<tag k="ssr:stedsnr" v="665904" />
	</node>
	<node lat="58.641266667509726" lon="6.1475138859168235" id="-2117">
		<tag k="historic" v="shieling" />
		<tag k="name" v="Kjosen" />
		<tag k="place" v="locality" />
		<tag k="ssr:stedsnr" v="726843" />
	</node>
	<node lat="58.63827222209592" lon="5.891377771971403" id="-2154">
		<tag k="name" v="Svartaholet" />
		<tag k="natural" v="wetland" />
		<tag k="ssr:stedsnr" v="751193" />
	</node>
	<node lat="58.60660833614276" lon="5.961725001141588" id="-2157">
		<tag k="name" v="Deblamyra" />
		<tag k="natural" v="wetland" />
		<tag k="ssr:stedsnr" v="751301" />
	</node>
	<node lat="58.6113555527353" lon="5.957322220649934" id="-2160">
		<tag k="name" v="Litleskog" />
		<tag k="place" v="locality" />
		<tag k="ssr:stedsnr" v="751351" />
	</node>
	<node lat="58.544694444360815" lon="6.037905563357672" id="-2167">
		<tag k="name" v="Hellandsmoen" />
		<tag k="place" v="locality" />
		<tag k="ssr:stedsnr" v="751865" />
	</node>
	<node lat="58.54708610757619" lon="6.058558325227057" id="-2168">
		<tag k="name" v="Sempermyra" />
		<tag k="natural" v="wetland" />
		<tag k="ssr:stedsnr" v="751992" />
	</node>
	<node lat="58.69281111214836" lon="6.015175007273598" id="-2191">
		<tag k="name" v="Skrubbamyra" />
		<tag k="natural" v="wetland" />
		<tag k="ssr:stedsnr" v="769463" />
	</node>
	<node lat="58.75968610760276" lon="6.219563893543897" id="-2193">
		<tag k="name" v="Stokklimyra" />
		<tag k="natural" v="wetland" />
		<tag k="ssr:stedsnr" v="770338" />
	</node>
	<node lat="58.6081749970678" lon="6.178424995954617" id="-2249">
		<tag k="name" v="Bukkahagen" />
		<tag k="place" v="locality" />
		<tag k="ssr:stedsnr" v="812102" />
	</node>
	<node lat="58.623213891442866" lon="6.097427777756612" id="-2255">
		<tag k="name" v="Fossamyra" />
		<tag k="natural" v="wetland" />
		<tag k="ssr:stedsnr" v="812034" />
	</node>
	<node lat="58.677180556160415" lon="6.329988891785414" id="-2263">
		<tag k="name" v="Todnaslåtten" />
		<tag k="place" v="locality" />
		<tag k="ssr:stedsnr" v="828317" />
	</node>
	<node lat="58.70113611482782" lon="6.049669452083985" id="-2269">
		<tag k="name" v="Nedre Longemyr" />
		<tag k="natural" v="wetland" />
		<tag k="ssr:stedsnr" v="828290" />
	</node>
	<node lat="58.63678611500601" lon="6.202133340751583" id="-2298">
		<tag k="name" v="Viemyrane" />
		<tag k="natural" v="wetland" />
		<tag k="ssr:stedsnr" v="847918" />
	</node>
	<node lat="58.58833055433565" lon="6.1733527706599896" id="-2327">
		<tag k="name" v="Syltremonane" />
		<tag k="place" v="locality" />
		<tag k="ssr:stedsnr" v="872084" />
	</node>
	<node lat="58.61000833759601" lon="5.9761111079053295" id="-2337">
		<tag k="name" v="Bruamyra" />
		<tag k="natural" v="wetland" />
		<tag k="ssr:stedsnr" v="872299" />
	</node>
	<node lat="58.67052500343605" lon="5.995152778215224" id="-2338">
		<tag k="name" v="Varemyra" />
		<tag k="natural" v="wetland" />
		<tag k="ssr:stedsnr" v="872355" />
	</node>
	<node lat="58.55333055175963" lon="5.922847225614803" id="-2341">
		<tag k="name" v="Venslemyra" />
		<tag k="natural" v="wetland" />
		<tag k="ssr:stedsnr" v="872133" />
	</node>
	<node lat="58.63444444775367" lon="5.926136115984755" id="-2344">
		<tag k="name" v="Trollhaugmyra" />
		<tag k="natural" v="wetland" />
		<tag k="ssr:stedsnr" v="872188" />
	</node>
	<node lat="58.64548333188638" lon="5.937358336978262" id="-2345">
		<tag k="name" v="Kvamsmyra" />
		<tag k="natural" v="wetland" />
		<tag k="ssr:stedsnr" v="872192" />
	</node>
	<node lat="58.51856389332191" lon="6.022666664341877" id="-2357">
		<tag k="name" v="Borestadsteinen" />
		<tag k="natural" v="stone" />
		<tag k="ssr:stedsnr" v="872951" />
	</node>
	<node lat="58.71495833176331" lon="6.255241671402129" id="-2375">
		<tag k="name" v="Skvagrau" />
		<tag k="place" v="locality" />
		<tag k="ssr:stedsnr" v="950086" />
	</node>
	<node lat="58.68134444588712" lon="6.2377305536451075" id="-2395">
		<tag k="name" v="Fantasteinen" />
		<tag k="natural" v="stone" />
		<tag k="ssr:stedsnr" v="968076" />
	</node>
	<node lat="58.77323333700442" lon="6.185744444031165" id="-2410">
		<tag k="name" v="Syngjarsteinen" />
		<tag k="natural" v="stone" />
		<tag k="ssr:stedsnr" v="969419" />
=======
	<node id="-17839" lat="58.6768861136" lon="6.38166666951">
		<tag k="name" v="Resen" />
		<tag k="place" v="locality" />
		<tag k="ssr:stedsnr" v="464381" />
	</node>
	<node id="-19113" lat="58.6135444444" lon="6.09837500747">
		<tag k="name" v="Nesjasteinen" />
		<tag k="natural" v="stone" />
		<tag k="ssr:stedsnr" v="205026" />
	</node>
	<node id="-19112" lat="58.6158222189" lon="6.09722777786">
		<tag k="name" v="Elisteinen" />
		<tag k="natural" v="stone" />
		<tag k="ssr:stedsnr" v="205024" />
	</node>
	<node id="-18204" lat="58.6520833298" lon="5.92738055362">
		<tag k="name" v="Stora myra" />
		<tag k="natural" v="wetland" />
		<tag k="ssr:stedsnr" v="690256" />
	</node>
	<node id="-19109" lat="58.5999694432" lon="6.15794166106">
		<tag k="name" v="Myrane" />
		<tag k="natural" v="wetland" />
		<tag k="ssr:stedsnr" v="205017" />
	</node>
	<node id="-19619" lat="58.6382722221" lon="5.89137777197">
		<tag k="name" v="Svartaholet" />
		<tag k="natural" v="wetland" />
		<tag k="ssr:stedsnr" v="751193" />
	</node>
	<node id="-18076" lat="58.7356194405" lon="6.09040833475">
		<tag k="name" v="Løesteinen" />
		<tag k="natural" v="stone" />
		<tag k="ssr:stedsnr" v="665411" />
	</node>
	<node id="-19604" lat="58.655211114" lon="6.346013885">
		<tag k="name" v="Store Steinen" />
		<tag k="natural" v="stone" />
		<tag k="ssr:stedsnr" v="647353" />
	</node>
	<node id="-18579" lat="58.6928111121" lon="6.01517500727">
		<tag k="name" v="Skrubbamyra" />
		<tag k="natural" v="wetland" />
		<tag k="ssr:stedsnr" v="769463" />
	</node>
	<node id="-19602" lat="58.7124888894" lon="6.37170277369">
		<tag k="name" v="Grøttelandsmyrane" />
		<tag k="natural" v="wetland" />
		<tag k="ssr:stedsnr" v="646207" />
	</node>
	<node id="-17603" lat="58.7362361118" lon="6.53899443978">
		<tag k="name" v="Lassestølsmyra" />
		<tag k="natural" v="wetland" />
		<tag k="ssr:stedsnr" v="42326" />
	</node>
	<node id="-18200" lat="58.6306388874" lon="5.93391111057">
		<tag k="name" v="Gudmonsmyra" />
		<tag k="natural" v="wetland" />
		<tag k="ssr:stedsnr" v="690197" />
	</node>
	<node id="-18061" lat="58.6884055517" lon="6.1207555535">
		<tag k="name" v="Stølslega" />
		<tag k="place" v="locality" />
		<tag k="ssr:stedsnr" v="665028" />
	</node>
	<node id="-18230" lat="58.6124250004" lon="6.08320278338">
		<tag k="landuse" v="meadow" />
		<tag k="name" v="Støæ" />
		<tag k="ssr:stedsnr" v="691052" />
	</node>
	<node id="-18054" lat="58.6655638849" lon="5.96104166042">
		<tag k="name" v="Buddalsmyra" />
		<tag k="natural" v="wetland" />
		<tag k="ssr:stedsnr" v="448341" />
	</node>
	<node id="-17540" lat="58.6653222262" lon="6.27353056005">
		<tag k="historic" v="shieling" />
		<tag k="name" v="Kalveskogstølen" />
		<tag k="place" v="locality" />
		<tag k="ssr:stedsnr" v="221779" />
	</node>
	<node id="-17600" lat="58.683894442" lon="6.45787777631">
		<tag k="name" v="Slåtte" />
		<tag k="place" v="locality" />
		<tag k="ssr:stedsnr" v="41266" />
	</node>
	<node id="-19578" lat="58.6061750001" lon="5.97358888138">
		<tag k="landuse" v="meadow" />
		<tag k="name" v="Lyngbrotet" />
		<tag k="ssr:stedsnr" v="629279" />
	</node>
	<node id="-17718" lat="58.6094138845" lon="6.14606666483">
		<tag k="name" v="Storemyr" />
		<tag k="natural" v="wetland" />
		<tag k="ssr:stedsnr" v="265805" />
	</node>
	<node id="-19491" lat="58.6118333322" lon="5.94834999604">
		<tag k="name" v="Skrubbamyra" />
		<tag k="natural" v="wetland" />
		<tag k="ssr:stedsnr" v="568282" />
	</node>
	<node id="-19573" lat="58.6197472216" lon="5.90935278196">
		<tag k="name" v="Ognedalstølen" />
		<tag k="place" v="locality" />
		<tag k="ssr:stedsnr" v="629196" />
	</node>
	<node id="-19570" lat="58.5867027765" lon="5.8941083274">
		<tag k="name" v="Hagen" />
		<tag k="place" v="locality" />
		<tag k="ssr:stedsnr" v="629137" />
	</node>
	<node id="-19569" lat="58.5923500032" lon="6.17213889076">
		<tag k="name" v="Orresteinen" />
		<tag k="natural" v="stone" />
		<tag k="ssr:stedsnr" v="629093" />
	</node>
	<node id="-18027" lat="58.7266500028" lon="6.42547222034">
		<tag k="name" v="Simonshedleren" />
		<tag k="natural" v="stone" />
		<tag k="ssr:stedsnr" v="423142" />
	</node>
	<node id="-18449" lat="58.6478694426" lon="6.12208055811">
		<tag k="name" v="Krogemyr" />
		<tag k="natural" v="wetland" />
		<tag k="ssr:stedsnr" v="889347" />
	</node>
	<node id="-17595" lat="58.7165194471" lon="6.36569999237">
		<tag k="name" v="Saltbekkmyra" />
		<tag k="natural" v="wetland" />
		<tag k="ssr:stedsnr" v="40219" />
	</node>
	<node id="-19040" lat="58.7082277799" lon="6.49832222368">
		<tag k="name" v="Storavasslegå" />
		<tag k="place" v="locality" />
		<tag k="ssr:stedsnr" v="161230" />
	</node>
	<node id="-18015" lat="58.5914833295" lon="6.04751111278">
		<tag k="landuse" v="meadow" />
		<tag k="name" v="Gåslandsstykket" />
		<tag k="ssr:stedsnr" v="508932" />
	</node>
	<node id="-18522" lat="58.7113916624" lon="6.46531944747">
		<tag k="name" v="Legå" />
		<tag k="place" v="locality" />
		<tag k="ssr:stedsnr" v="908172" />
	</node>
	<node id="-18703" lat="58.7410694469" lon="6.25221667001">
		<tag k="historic" v="shieling" />
		<tag k="name" v="Brattestøl" />
		<tag k="place" v="locality" />
		<tag k="ssr:stedsnr" v="967604" />
	</node>
	<node id="-19543" lat="58.6957361102" lon="6.40419444963">
		<tag k="name" v="Kleivamyrane" />
		<tag k="natural" v="wetland" />
		<tag k="ssr:stedsnr" v="604190" />
	</node>
	<node id="-18517" lat="58.6731249988" lon="6.23029167433">
		<tag k="name" v="Karifenet" />
		<tag k="natural" v="wetland" />
		<tag k="ssr:stedsnr" v="908069" />
	</node>
	<node id="-18003" lat="58.7036888889" lon="6.22090555269">
		<tag k="historic" v="shieling" />
		<tag k="name" v="Heimrestølen" />
		<tag k="place" v="locality" />
		<tag k="ssr:stedsnr" v="405111" />
	</node>
	<node id="-17836" lat="58.7091722249" lon="6.04855833713">
		<tag k="name" v="Kjeksemyr" />
		<tag k="natural" v="wetland" />
		<tag k="ssr:stedsnr" v="464284" />
	</node>
	<node id="-17999" lat="58.6345500034" lon="5.91817500737">
		<tag k="name" v="Botnen" />
		<tag k="natural" v="wetland" />
		<tag k="ssr:stedsnr" v="508174" />
	</node>
	<node id="-19534" lat="58.7436777759" lon="6.56942777099">
		<tag k="landuse" v="meadow" />
		<tag k="name" v="Kvitleslåtta" />
		<tag k="ssr:stedsnr" v="588324" />
	</node>
	<node id="-17677" lat="58.6347416642" lon="6.06802777147">
		<tag k="landuse" v="meadow" />
		<tag k="name" v="Auglend" />
		<tag k="ssr:stedsnr" v="86860" />
	</node>
	<node id="-19017" lat="58.6447611112" lon="5.9922555589">
		<tag k="name" v="Roligheta" />
		<tag k="natural" v="wetland" />
		<tag k="ssr:stedsnr" v="144322" />
	</node>
	<node id="-19016" lat="58.6287333353" lon="5.99965833635">
		<tag k="name" v="Engjamyra" />
		<tag k="natural" v="wetland" />
		<tag k="ssr:stedsnr" v="144320" />
	</node>
	<node id="-19527" lat="58.6915694476" lon="6.51644722459">
		<tag k="landuse" v="meadow" />
		<tag k="name" v="Træe" />
		<tag k="ssr:stedsnr" v="586232" />
	</node>
	<node id="-17990" lat="58.7244805536" lon="6.21202500156">
		<tag k="name" v="Viemyr" />
		<tag k="natural" v="wetland" />
		<tag k="ssr:stedsnr" v="404056" />
	</node>
	<node id="-17988" lat="58.5452777768" lon="5.91548055362">
		<tag k="name" v="Storamyra" />
		<tag k="natural" v="wetland" />
		<tag k="ssr:stedsnr" v="508128" />
	</node>
	<node id="-19521" lat="58.6806750045" lon="6.51008056064">
		<tag k="name" v="Ytralegå" />
		<tag k="place" v="locality" />
		<tag k="ssr:stedsnr" v="586179" />
	</node>
	<node id="-19519" lat="58.6808472254" lon="6.52749443923">
		<tag k="name" v="Kalvatolegå" />
		<tag k="place" v="locality" />
		<tag k="ssr:stedsnr" v="586156" />
	</node>
	<node id="-19516" lat="58.6700888922" lon="6.19432221832">
		<tag k="name" v="Viemyrane" />
		<tag k="natural" v="wetland" />
		<tag k="ssr:stedsnr" v="585215" />
	</node>
	<node id="-18491" lat="58.6412666675" lon="6.14751388592">
		<tag k="historic" v="shieling" />
		<tag k="name" v="Kjosen" />
		<tag k="place" v="locality" />
		<tag k="ssr:stedsnr" v="726843" />
	</node>
	<node id="-18479" lat="58.7335833364" lon="6.52528888668">
		<tag k="name" v="Flæe" />
		<tag k="place" v="locality" />
		<tag k="ssr:stedsnr" v="709350" />
	</node>
	<node id="-17671" lat="58.6444000042" lon="5.96258054904">
		<tag k="name" v="Kutjønnsmyra" />
		<tag k="natural" v="wetland" />
		<tag k="ssr:stedsnr" v="83306" />
	</node>
	<node id="-18984" lat="58.6887388917" lon="6.20359444244">
		<tag k="name" v="Mjelkesteinen" />
		<tag k="natural" v="stone" />
		<tag k="ssr:stedsnr" v="121449" />
	</node>
	<node id="-17670" lat="58.6428666675" lon="5.98816111023">
		<tag k="name" v="Skåramyrane" />
		<tag k="natural" v="wetland" />
		<tag k="ssr:stedsnr" v="83305" />
	</node>
	<node id="-18010" lat="58.6108027741" lon="5.98711388229">
		<tag k="name" v="Urane" />
		<tag k="natural" v="scree" />
		<tag k="ssr:stedsnr" v="508294" />
	</node>
	<node id="-17946" lat="58.7444972217" lon="6.16863888115">
		<tag k="name" v="Lange Myrane" />
		<tag k="natural" v="wetland" />
		<tag k="ssr:stedsnr" v="362714" />
	</node>
	<node id="-19631" lat="58.6066083361" lon="5.96172500114">
		<tag k="name" v="Deblamyra" />
		<tag k="natural" v="wetland" />
		<tag k="ssr:stedsnr" v="751301" />
	</node>
	<node id="-19477" lat="58.5983083324" lon="6.18692222475">
		<tag k="historic" v="shieling" />
		<tag k="name" v="Nerestøl" />
		<tag k="place" v="locality" />
		<tag k="ssr:stedsnr" v="568077" />
	</node>
	<node id="-18961" lat="58.7415333319" lon="6.17274999374">
		<tag k="historic" v="shieling" />
		<tag k="name" v="Mikkelsete" />
		<tag k="place" v="locality" />
		<tag k="ssr:stedsnr" v="120646" />
	</node>
	<node id="-17935" lat="58.6932233402" lon="6.52624390116">
		<tag k="name" v="Brumyra" />
		<tag k="natural" v="wetland" />
		<tag k="ssr:stedsnr" v="345218" />
	</node>
	<node id="-18958" lat="58.6376083364" lon="6.19208611174">
		<tag k="name" v="Doltamyra" />
		<tag k="natural" v="wetland" />
		<tag k="ssr:stedsnr" v="119951" />
	</node>
	<node id="-17930" lat="58.7681250026" lon="6.27884722122">
		<tag k="name" v="Gloppedalsura" />
		<tag k="natural" v="scree" />
		<tag k="ssr:stedsnr" v="486860" />
	</node>
	<node id="-19031" lat="58.527536114" lon="6.00576111515">
		<tag k="name" v="Klovsteinane" />
		<tag k="natural" v="stone" />
		<tag k="ssr:stedsnr" v="144915" />
	</node>
	<node id="-18952" lat="58.6618166672" lon="6.09129999936">
		<tag k="name" v="Plassæ" />
		<tag k="place" v="locality" />
		<tag k="ssr:stedsnr" v="119519" />
	</node>
	<node id="-19372" lat="58.6998805518" lon="6.57474999348">
		<tag k="alt_name" v="Finnlømyrane" />
		<tag k="name" v="Finnløemyrane" />
		<tag k="natural" v="wetland" />
		<tag k="ssr:stedsnr" v="425188" />
>>>>>>> e1d4bc35ff8a6074a6f2e91616a996b547c36f15
	</node>
</osm>
