<?xml version="1.0" encoding="UTF-8"?>
<osm generator="osmapis" version="0.6">
	<node id="-401404" lat="58.6882444467" lon="6.22304999617">
		<tag k="name" v="Kvelvatjørn" />
		<tag k="natural" v="water" />
		<tag k="ssr:stedsnr" v="483087" />
	</node>
	<node id="-401397" lat="58.6712999961" lon="6.12979166304">
		<tag k="name" v="Olmorktjørna" />
		<tag k="natural" v="water" />
		<tag k="ssr:stedsnr" v="483006" />
		<tag k="water" v="lake" />
	</node>
	<node id="-401381" lat="58.7314611069" lon="6.12134444317">
		<tag k="name" v="Romsstranda" />
		<tag k="natural" v="beach" />
		<tag k="ssr:stedsnr" v="465408" />
	</node>
	<node id="-401379" lat="58.6582805532" lon="6.42060000006">
		<tag k="name" v="Krogevassbekken" />
		<tag k="ssr:stedsnr" v="465236" />
		<tag k="waterway" v="stream" />
	</node>
	<node id="-401376" lat="58.6901500009" lon="6.50061944718">
		<tag k="name" v="Ånes" />
		<tag k="natural" v="cape" />
		<tag k="ssr:stedsnr" v="465226" />
	</node>
	<node id="-402426" lat="58.6225861144" lon="6.01672778049">
		<tag k="alt_name" v="Vaet" />
		<tag k="name" v="Vadet" />
		<tag k="place" v="locality" />
		<tag k="ssr:stedsnr" v="872908" />
	</node>
	<node id="-401370" lat="58.6861634868" lon="6.54204264297">
		<tag k="name" v="Odredalsvatnet" />
		<tag k="natural" v="water" />
		<tag k="ssr:stedsnr" v="465161" />
		<tag k="water" v="lake" />
	</node>
	<node id="-401368" lat="58.7250027742" lon="6.23843333822">
		<tag k="name" v="Holmen" />
		<tag k="place" v="islet" />
		<tag k="ssr:stedsnr" v="465077" />
	</node>
	<node id="-401363" lat="58.6918444482" lon="6.59953056215">
		<tag k="name" v="Langevasstranda" />
		<tag k="natural" v="beach" />
		<tag k="ssr:stedsnr" v="465027" />
	</node>
	<node id="-401357" lat="58.6698138897" lon="6.36927499729">
		<tag k="name" v="Mona" />
		<tag k="place" v="locality" />
		<tag k="ssr:stedsnr" v="464370" />
	</node>
	<node id="-401354" lat="58.6781805565" lon="6.25994722227">
		<tag k="name" v="Mjelkeå" />
		<tag k="ssr:stedsnr" v="464291" />
		<tag k="waterway" v="stream" />
	</node>
	<node id="-401343" lat="58.6317111153" lon="5.97454721935">
		<tag k="name" v="Stovedalstjørn" />
		<tag k="natural" v="water" />
		<tag k="ssr:stedsnr" v="448312" />
	</node>
	<node id="-400373" lat="58.7441861119" lon="6.55504443864">
		<tag k="name" v="Serelibekk" />
		<tag k="ssr:stedsnr" v="345323" />
		<tag k="waterway" v="stream" />
	</node>
	<node id="-401338" lat="58.5792416631" lon="5.95199721429">
		<tag k="name" v="Graudåtjørn" />
		<tag k="natural" v="water" />
		<tag k="ssr:stedsnr" v="448261" />
	</node>
	<node id="-401337" lat="58.6511111126" lon="5.91866666048">
		<tag k="name" v="Litlavatn" />
		<tag k="natural" v="bay" />
		<tag k="ssr:stedsnr" v="448245" />
	</node>
	<node id="-402420" lat="58.6501388852" lon="5.98399166406">
		<tag k="name" v="Hedlerbekken" />
		<tag k="ssr:stedsnr" v="872350" />
		<tag k="waterway" v="stream" />
	</node>
	<node id="-401324" lat="58.5682916681" lon="6.12576944622">
		<tag k="name" v="Hidalsbekken" />
		<tag k="ssr:stedsnr" v="447747" />
		<tag k="waterway" v="stream" />
	</node>
	<node id="-401320" lat="58.7673111094" lon="6.18066389298">
		<tag k="name" v="Holmavatnet" />
		<tag k="natural" v="water" />
		<tag k="ssr:stedsnr" v="426611" />
		<tag k="water" v="lake" />
	</node>
	<node id="-401318" lat="58.7358833368" lon="6.33698055954">
		<tag k="name" v="Ulltjørna" />
		<tag k="natural" v="water" />
		<tag k="ssr:stedsnr" v="426243" />
	</node>
	<node id="-401306" lat="58.7278418038" lon="6.26656725476">
		<tag k="alt_name" v="Krogevatn" />
		<tag k="name" v="Krokavatnet" />
		<tag k="natural" v="water" />
		<tag k="ssr:stedsnr" v="425234" />
	</node>
	<node id="-401304" lat="58.7255641383" lon="6.37578132195">
		<tag k="name" v="Håvardtjørna" />
		<tag k="natural" v="water" />
		<tag k="ssr:stedsnr" v="425229" />
	</node>
	<node id="-401302" lat="58.6926972248" lon="6.22298610567">
		<tag k="name" v="Vardatjørna" />
		<tag k="natural" v="water" />
		<tag k="ssr:stedsnr" v="425208" />
	</node>
	<node id="-401301" lat="58.7068023622" lon="6.54299792279">
		<tag k="alt_name" v="Fiskeløys, yt;Ytra Fiskeløysvatnet" />
		<tag k="name" v="Ytra Fiskeløys" />
		<tag k="natural" v="water" />
		<tag k="ssr:stedsnr" v="425203" />
		<tag k="water" v="lake" />
	</node>
	<node id="-401300" lat="58.6972972737" lon="6.33238514273">
		<tag k="name" v="Skarkatjørna" />
		<tag k="natural" v="water" />
		<tag k="ssr:stedsnr" v="425198" />
	</node>
	<node id="-401296" lat="58.5750777773" lon="5.89134445036">
		<tag k="alt_name" v="Kinnetjørna" />
		<tag k="name" v="Kinnetjørni" />
		<tag k="natural" v="water" />
		<tag k="ssr:stedsnr" v="425113" />
	</node>
	<node id="-401295" lat="58.5808250029" lon="6.015447217">
		<tag k="alt_name" v="Brønnesvatn" />
		<tag k="name" v="Brynnesvatnet" />
		<tag k="natural" v="water" />
		<tag k="ssr:stedsnr" v="425106" />
	</node>
	<node id="-401294" lat="58.5907166694" lon="5.93089722832">
		<tag k="name" v="Kvivatnet" />
		<tag k="natural" v="water" />
		<tag k="ssr:stedsnr" v="425103" />
	</node>
	<node id="-401291" lat="58.6398027804" lon="6.15207777912">
		<tag k="alt_name" v="Noetjørn" />
		<tag k="name" v="Nordratjørni" />
		<tag k="natural" v="water" />
		<tag k="old_name" v="Nordatjørni" />
		<tag k="ssr:stedsnr" v="425038" />
	</node>
	<node id="-401290" lat="58.6362412272" lon="6.17100641475">
		<tag k="name" v="Fossvatnet" />
		<tag k="natural" v="water" />
		<tag k="ssr:stedsnr" v="425035" />
		<tag k="water" v="lake" />
	</node>
	<node id="-401289" lat="58.6414166658" lon="6.13010832737">
		<tag k="alt_name" v="Hofreistæåna" />
		<tag k="name" v="Hofreistæåni" />
		<tag k="ssr:stedsnr" v="425030" />
		<tag k="waterway" v="river" />
	</node>
	<node id="-401287" lat="58.6466277785" lon="6.03222499457">
		<tag k="alt_name" v="Syltretjørna" />
		<tag k="name" v="Syltretjørni" />
		<tag k="natural" v="water" />
		<tag k="ssr:stedsnr" v="425024" />
	</node>
	<node id="-401268" lat="58.6379583291" lon="6.17803055972">
		<tag k="name" v="Daben" />
		<tag k="natural" v="water" />
		<tag k="ssr:stedsnr" v="422938" />
	</node>
	<node id="-401258" lat="58.6856972201" lon="6.26266943847">
		<tag k="name" v="Lasseneset" />
		<tag k="natural" v="cape" />
		<tag k="ssr:stedsnr" v="422083" />
	</node>
	<node id="-401252" lat="58.719883333" lon="6.05910556025">
		<tag k="name" v="Makkadalstjørna" />
		<tag k="natural" v="water" />
		<tag k="ssr:stedsnr" v="421380" />
	</node>
	<node id="-401249" lat="58.5357777756" lon="6.0349416691">
		<tag k="name" v="Kampøya" />
		<tag k="natural" v="cape" />
		<tag k="ssr:stedsnr" v="265926" />
	</node>
	<node id="-401248" lat="58.5362222247" lon="5.97710555229">
		<tag k="name" v="Vindskartjørna" />
		<tag k="natural" v="water" />
		<tag k="ssr:stedsnr" v="265841" />
	</node>
	<node id="-401245" lat="58.6230527757" lon="6.14485833227">
		<tag k="name" v="Lonæ" />
		<tag k="natural" v="water" />
		<tag k="ssr:stedsnr" v="265803" />
	</node>
	<node id="-401228" lat="58.61188889" lon="6.16692222439">
		<tag k="name" v="Odden" />
		<tag k="natural" v="cape" />
		<tag k="ssr:stedsnr" v="265104" />
	</node>
	<node id="-401221" lat="58.7395277466" lon="6.44782593966">
		<tag k="name" v="Hadvardhomtjørna" />
		<tag k="natural" v="water" />
		<tag k="ssr:stedsnr" v="244150" />
	</node>
	<node id="-401218" lat="58.7067242922" lon="6.14290734305">
		<tag k="alt_name" v="Byrkjelandsvatnet" />
		<tag k="fixme" v="multiple name tags, choose one and add the other to alt_name" />
		<tag k="name" v="Storavatnet;Birkelandsvatnet" />
		<tag k="natural" v="water" />
		<tag k="ssr:stedsnr" v="243491" />
		<tag k="water" v="lake" />
	</node>
	<node id="-401214" lat="58.6998833312" lon="6.16676943969">
		<tag k="alt_name" v="Indretjørna" />
		<tag k="name" v="Indratjørni" />
		<tag k="natural" v="water" />
		<tag k="old_name" v="Innertjørni" />
		<tag k="ssr:stedsnr" v="243451" />
	</node>
	<node id="-401209" lat="58.5796499999" lon="5.89835276987">
		<tag k="alt_name" v="Kjøtlandsvatnet" />
		<tag k="name" v="Kjøllandsvatnet" />
		<tag k="natural" v="water" />
		<tag k="ssr:stedsnr" v="243117" />
		<tag k="water" v="lake" />
	</node>
	<node id="-401208" lat="58.5894277764" lon="6.02193888926">
		<tag k="name" v="Kubekken" />
		<tag k="ssr:stedsnr" v="243108" />
		<tag k="waterway" v="stream" />
	</node>
	<node id="-401204" lat="58.6155166699" lon="5.90916388007">
		<tag k="alt_name" v="Butjørn" />
		<tag k="name" v="Butjørnane" />
		<tag k="natural" v="water" />
		<tag k="ssr:stedsnr" v="243020" />
	</node>
	<node id="-401202" lat="58.657008334" lon="6.23777499215">
		<tag k="alt_name" v="Lindevatnet, nordre" />
		<tag k="name" v="Indra Linnevatnet" />
		<tag k="natural" v="water" />
		<tag k="ssr:stedsnr" v="242754" />
		<tag k="water" v="lake" />
	</node>
	<node id="-401199" lat="58.7090716164" lon="6.55874871447">
		<tag k="alt_name" v="Fiskeløys, in;Indra Fiskeløysvatnet" />
		<tag k="name" v="Indra Fiskeløys" />
		<tag k="natural" v="water" />
		<tag k="ssr:stedsnr" v="242193" />
		<tag k="water" v="lake" />
	</node>
	<node id="-401198" lat="58.7528722234" lon="6.17808888533">
		<tag k="name" v="Kråtjørna" />
		<tag k="natural" v="water" />
		<tag k="ssr:stedsnr" v="241642" />
	</node>
	<node id="-401196" lat="58.6638822734" lon="6.10634792207">
		<tag k="name" v="Skjævelandsvatnet" />
		<tag k="natural" v="water" />
		<tag k="ssr:stedsnr" v="242052" />
		<tag k="water" v="lake" />
	</node>
	<node id="-401195" lat="58.6637268822" lon="6.19606666858">
		<tag k="name" v="Hegelstadtjørna" />
		<tag k="natural" v="water" />
		<tag k="ssr:stedsnr" v="242035" />
		<tag k="water" v="lake" />
	</node>
	<node id="-401191" lat="58.7191638899" lon="6.45390554924">
		<tag k="name" v="Kvednabekken" />
		<tag k="ssr:stedsnr" v="241117" />
		<tag k="waterway" v="stream" />
	</node>
	<node id="-401187" lat="58.7076388906" lon="6.12781944005">
		<tag k="name" v="Bertesetet" />
		<tag k="natural" v="cape" />
		<tag k="ssr:stedsnr" v="241027" />
	</node>
	<node id="-401186" lat="58.7088249961" lon="6.13340278336">
		<tag k="name" v="Vigsteinsetet" />
		<tag k="natural" v="cape" />
		<tag k="ssr:stedsnr" v="241028" />
	</node>
	<node id="-401181" lat="58.6418166633" lon="6.24495832556">
		<tag k="name" v="Linnåna" />
		<tag k="ssr:stedsnr" v="240901" />
		<tag k="waterway" v="stream" />
	</node>
	<node id="-401180" lat="58.6298249967" lon="6.07080278445">
		<tag k="name" v="Svelabekken" />
		<tag k="ssr:stedsnr" v="240886" />
		<tag k="waterway" v="stream" />
	</node>
	<node id="-401154" lat="58.7584388848" lon="6.25222777311">
		<tag k="name" v="Mortehola" />
		<tag k="natural" v="bay" />
		<tag k="ssr:stedsnr" v="224335" />
	</node>
	<node id="-401151" lat="58.6995499973" lon="6.53523333273">
		<tag k="name" v="Tverrå" />
		<tag k="ssr:stedsnr" v="224208" />
		<tag k="waterway" v="stream" />
	</node>
	<node id="-401149" lat="58.6648888879" lon="5.99741666295">
		<tag k="alt_name" v="Runatjørni" />
		<tag k="name" v="Runatjørna" />
		<tag k="natural" v="water" />
		<tag k="ssr:stedsnr" v="223486" />
	</node>
	<node id="-401145" lat="58.6979805549" lon="6.23372222224">
		<tag k="name" v="Stølsvatn" />
		<tag k="natural" v="water" />
		<tag k="ssr:stedsnr" v="223126" />
		<tag k="water" v="lake" />
	</node>
	<node id="-401139" lat="58.701588985" lon="6.58779876893">
		<tag k="name" v="Stølstjørna" />
		<tag k="natural" v="water" />
		<tag k="ssr:stedsnr" v="222195" />
	</node>
	<node id="-400337" lat="58.557247225" lon="6.07545554979">
		<tag k="name" v="Saglandsbekken" />
		<tag k="ssr:stedsnr" v="326993" />
		<tag k="waterway" v="stream" />
	</node>
	<node id="-401120" lat="58.6643305521" lon="6.22384721703">
		<tag k="name" v="Bjønnskjeggtjørna" />
		<tag k="natural" v="water" />
		<tag k="ssr:stedsnr" v="221054" />
	</node>
	<node id="-401114" lat="58.6552916677" lon="5.97583889122">
		<tag k="name" v="Tangjen" />
		<tag k="natural" v="cape" />
		<tag k="ssr:stedsnr" v="205361" />
	</node>
	<node id="-401110" lat="58.54644167" lon="5.95369444319">
		<tag k="name" v="Grastjørna" />
		<tag k="natural" v="water" />
		<tag k="ssr:stedsnr" v="205297" />
	</node>
	<node id="-401108" lat="58.5722888899" lon="5.95884167183">
		<tag k="name" v="Sølvsteintjørna" />
		<tag k="natural" v="water" />
		<tag k="ssr:stedsnr" v="205273" />
	</node>
	<node id="-401107" lat="58.6586118665" lon="5.87447598607">
		<tag k="name" v="Steveltjørna" />
		<tag k="natural" v="water" />
		<tag k="ssr:stedsnr" v="205233" />
		<tag k="water" v="lake" />
	</node>
	<node id="-401105" lat="58.5935444473" lon="5.91148054853">
		<tag k="name" v="Hågavika" />
		<tag k="natural" v="bay" />
		<tag k="ssr:stedsnr" v="205159" />
	</node>
	<node id="-401104" lat="58.584694441" lon="5.93823888434">
		<tag k="name" v="Rangabekken" />
		<tag k="ssr:stedsnr" v="205158" />
		<tag k="waterway" v="stream" />
	</node>
	<node id="-401103" lat="58.5467694477" lon="5.92776388462">
		<tag k="name" v="Svartehølen" />
		<tag k="place" v="locality" />
		<tag k="ssr:stedsnr" v="205145" />
	</node>
	<node id="-401096" lat="58.5980216339" lon="6.17236955901">
		<tag k="name" v="Vassbåvatnet" />
		<tag k="natural" v="water" />
		<tag k="ssr:stedsnr" v="205089" />
		<tag k="water" v="lake" />
	</node>
	<node id="-401085" lat="58.760280558" lon="6.22271110889">
		<tag k="alt_name" v="Helgåna" />
		<tag k="name" v="Helgåni" />
		<tag k="ssr:stedsnr" v="183790" />
		<tag k="waterway" v="stream" />
	</node>
	<node id="-401083" lat="58.7332361098" lon="6.35440556409">
		<tag k="alt_name" v="Oksevabekken" />
		<tag k="name" v="Oksevadbekken" />
		<tag k="ssr:stedsnr" v="183226" />
		<tag k="waterway" v="stream" />
	</node>
	<node id="-401081" lat="58.7301000039" lon="6.22492499263">
		<tag k="name" v="Syltrebekken" />
		<tag k="ssr:stedsnr" v="183115" />
		<tag k="waterway" v="stream" />
	</node>
	<node id="-401078" lat="58.6875861135" lon="6.50481944758">
		<tag k="alt_name" v="Lone" />
		<tag k="name" v="Loni" />
		<tag k="natural" v="water" />
		<tag k="ssr:stedsnr" v="182746" />
		<tag k="water" v="lake" />
	</node>
	<node id="-401077" lat="58.6845305579" lon="6.50310278533">
		<tag k="name" v="Slokebekken" />
		<tag k="ssr:stedsnr" v="182741" />
		<tag k="waterway" v="stream" />
	</node>
	<node id="-401076" lat="58.6660250008" lon="6.28078889407">
		<tag k="alt_name" v="Kalveskogvatnet" />
		<tag k="name" v="Stølsvatnet" />
		<tag k="natural" v="water" />
		<tag k="ssr:stedsnr" v="182740" />
	</node>
	<node id="-401074" lat="58.7527542661" lon="6.18759959759">
		<tag k="alt_name" v="Kvernatjørn, øvre;Øvra Kvednatjørn" />
		<tag k="name" v="Øvre Kvernatjørn" />
		<tag k="natural" v="water" />
		<tag k="ssr:stedsnr" v="182626" />
	</node>
	<node id="-401073" lat="58.7560812018" lon="6.16140638023">
		<tag k="name" v="Vinjavotna" />
		<tag k="natural" v="water" />
		<tag k="ssr:stedsnr" v="182623" />
		<tag k="water" v="lake" />
	</node>
	<node id="-401072" lat="58.6908600925" lon="6.59901788607">
		<tag k="alt_name" v="Langevatn;Langavatn" />
		<tag k="name" v="Langavatnet" />
		<tag k="natural" v="water" />
		<tag k="ssr:stedsnr" v="182591" />
	</node>
	<node id="-401071" lat="58.6856611125" lon="6.14115833448">
		<tag k="alt_name" v="Hagatjørna" />
		<tag k="name" v="Hagatjørni" />
		<tag k="natural" v="water" />
		<tag k="ssr:stedsnr" v="182462" />
	</node>
	<node id="-401070" lat="58.6671361982" lon="5.91102690552">
		<tag k="alt_name" v="Djuplivatnet, litla;litle Djuplivatnet" />
		<tag k="name" v="Litla Djuplivatnet" />
		<tag k="natural" v="water" />
		<tag k="ssr:stedsnr" v="182460" />
		<tag k="water" v="lake" />
	</node>
	<node id="-401069" lat="58.6790333374" lon="6.13329721502">
		<tag k="alt_name" v="Asseivatnet" />
		<tag k="name" v="Asheimsvatnet" />
		<tag k="natural" v="water" />
		<tag k="ssr:stedsnr" v="182451" />
		<tag k="water" v="lake" />
	</node>
	<node id="-401066" lat="58.7135472268" lon="6.22158056345">
		<tag k="name" v="Espelandsfossen" />
		<tag k="natural" v="waterfall" />
		<tag k="ssr:stedsnr" v="182216" />
	</node>
	<node id="-401065" lat="58.7080527814" lon="6.29505278264">
		<tag k="name" v="Furelivotna" />
		<tag k="natural" v="water" />
		<tag k="ssr:stedsnr" v="182199" />
	</node>
	<node id="-401062" lat="58.6908334911" lon="6.3056520969">
		<tag k="name" v="Langatjørna" />
		<tag k="natural" v="water" />
		<tag k="ssr:stedsnr" v="182189" />
	</node>
	<node id="-401061" lat="58.6906844176" lon="6.26977554147">
		<tag k="name" v="Austrumdalsvatnet" />
		<tag k="natural" v="water" />
		<tag k="ssr:stedsnr" v="182187" />
		<tag k="water" v="lake" />
	</node>
	<node id="-401056" lat="58.5563583301" lon="6.08691945037">
		<tag k="alt_name" v="Rangåna;Rangåa" />
		<tag k="name" v="Rangåni" />
		<tag k="ssr:stedsnr" v="182079" />
		<tag k="waterway" v="stream" />
	</node>
	<node id="-401048" lat="58.6065194426" lon="5.90588055311">
		<tag k="name" v="Krokavatnet" />
		<tag k="natural" v="water" />
		<tag k="ssr:stedsnr" v="182002" />
		<tag k="water" v="lake" />
	</node>
	<node id="-401046" lat="58.7348027817" lon="6.21653888408">
		<tag k="name" v="Svianes" />
		<tag k="natural" v="cape" />
		<tag k="ssr:stedsnr" v="180635" />
	</node>
	<node id="-401044" lat="58.7376194446" lon="6.09903888729">
		<tag k="name" v="Margushølen" />
		<tag k="place" v="locality" />
		<tag k="ssr:stedsnr" v="180367" />
	</node>
	<node id="-401038" lat="58.6971694068" lon="6.43896227158">
		<tag k="name" v="Noretjørna" />
		<tag k="natural" v="water" />
		<tag k="ssr:stedsnr" v="180178" />
	</node>
	<node id="-401032" lat="58.6301194426" lon="6.01937500758">
		<tag k="name" v="Ognaelva" />
		<tag k="ssr:stedsnr" v="179750" />
		<tag k="waterway" v="river" />
	</node>
	<node id="-401029" lat="58.6810111157" lon="6.03698055987">
		<tag k="name" v="Pyttartjørna" />
		<tag k="natural" v="water" />
		<tag k="ssr:stedsnr" v="179338" />
	</node>
	<node id="-401028" lat="58.6778361141" lon="6.00582777342">
		<tag k="name" v="Litla Holmavatnet" />
		<tag k="natural" v="water" />
		<tag k="ssr:stedsnr" v="179334" />
		<tag k="water" v="lake" />
	</node>
	<node id="-401027" lat="58.6892861127" lon="6.02788888296">
		<tag k="name" v="Vidjehaugen" />
		<tag k="natural" v="cape" />
		<tag k="ssr:stedsnr" v="179330" />
	</node>
	<node id="-401015" lat="58.7807777776" lon="6.20418888485">
		<tag k="name" v="Store Rauåpollen" />
		<tag k="natural" v="bay" />
		<tag k="ssr:stedsnr" v="163294" />
	</node>
	<node id="-401005" lat="58.6670972229" lon="6.42553610881">
		<tag k="name" v="Grastjørna" />
		<tag k="natural" v="water" />
		<tag k="ssr:stedsnr" v="162222" />
	</node>
	<node id="-401001" lat="58.670213886" lon="6.36124165875">
		<tag k="name" v="Neset" />
		<tag k="place" v="locality" />
		<tag k="ssr:stedsnr" v="160323" />
	</node>
	<node id="-400994" lat="58.607874996" lon="6.29738333337">
		<tag k="name" v="Viddabekken" />
		<tag k="ssr:stedsnr" v="148583" />
		<tag k="waterway" v="stream" />
	</node>
	<node id="-400988" lat="58.5193083378" lon="6.02150555407">
		<tag k="name" v="Øyavika" />
		<tag k="ssr:stedsnr" v="144935" />
		<tag k="waterway" v="river" />
	</node>
	<node id="-400982" lat="58.5571250019" lon="6.00991110969">
		<tag k="name" v="Fisketjørna" />
		<tag k="natural" v="water" />
		<tag k="ssr:stedsnr" v="144806" />
	</node>
	<node id="-400981" lat="58.612727776" lon="6.13221388709">
		<tag k="name" v="Kallevik" />
		<tag k="natural" v="bay" />
		<tag k="ssr:stedsnr" v="144764" />
	</node>
	<node id="-400970" lat="58.5513916685" lon="5.94598055248">
		<tag k="name" v="Krågevatn" />
		<tag k="natural" v="water" />
		<tag k="ssr:stedsnr" v="144290" />
		<tag k="water" v="lake" />
	</node>
	<node id="-400969" lat="58.5526138905" lon="5.95561944164">
		<tag k="name" v="Espetjørna" />
		<tag k="natural" v="water" />
		<tag k="ssr:stedsnr" v="144288" />
	</node>
	<node id="-400964" lat="58.6133444431" lon="5.9046111091">
		<tag k="name" v="Grimeåna" />
		<tag k="ssr:stedsnr" v="144222" />
		<tag k="waterway" v="river" />
	</node>
	<node id="-400959" lat="58.5730583296" lon="5.91122500861">
		<tag k="name" v="Øvre Risvatn" />
		<tag k="natural" v="water" />
		<tag k="ssr:stedsnr" v="144179" />
		<tag k="water" v="lake" />
	</node>
	<node id="-400957" lat="58.5484777813" lon="5.91259721719">
		<tag k="name" v="Stølstjørna" />
		<tag k="natural" v="water" />
		<tag k="ssr:stedsnr" v="144142" />
	</node>
	<node id="-400952" lat="58.5885277767" lon="6.07919721414">
		<tag k="name" v="Kalveneset" />
		<tag k="natural" v="cape" />
		<tag k="ssr:stedsnr" v="144008" />
	</node>
	<node id="-400951" lat="58.5992749991" lon="6.08283333417">
		<tag k="name" v="Risholmen" />
		<tag k="place" v="islet" />
		<tag k="ssr:stedsnr" v="144007" />
	</node>
	<node id="-400945" lat="58.7866096613" lon="6.18464578727">
		<tag k="alt_name" v="Vådlandsvatnet, store;Stora Vådlandsvatnet" />
		<tag k="name" v="Store Vådlandsvatnet" />
		<tag k="natural" v="water" />
		<tag k="ssr:stedsnr" v="122570" />
		<tag k="water" v="lake" />
	</node>
	<node id="-400943" lat="58.7324666635" lon="6.40850000881">
		<tag k="name" v="Vommi" />
		<tag k="natural" v="bay" />
		<tag k="ssr:stedsnr" v="122259" />
	</node>
	<node id="-400941" lat="58.7072055634" lon="6.50941841259">
		<tag k="name" v="Storavatnet" />
		<tag k="natural" v="water" />
		<tag k="ssr:stedsnr" v="122170" />
		<tag k="water" v="lake" />
	</node>
	<node id="-400925" lat="58.7117721126" lon="6.49836265381">
		<tag k="alt_name" v="Kvislatjørna" />
		<tag k="name" v="Kvitlatjørna" />
		<tag k="natural" v="water" />
		<tag k="ssr:stedsnr" v="121205" />
	</node>
	<node id="-400923" lat="58.6963916643" lon="6.49994167466">
		<tag k="alt_name" v="Fossabekken" />
		<tag k="name" v="Fossbekken" />
		<tag k="ssr:stedsnr" v="121197" />
		<tag k="waterway" v="stream" />
	</node>
	<node id="-400921" lat="58.5819439496" lon="6.12556726512">
		<tag k="name" v="Netlandsvatnet" />
		<tag k="natural" v="water" />
		<tag k="ssr:stedsnr" v="121114" />
	</node>
	<node id="-400920" lat="58.5713138922" lon="5.97733055789">
		<tag k="name" v="Rongvatnet" />
		<tag k="natural" v="water" />
		<tag k="old_name" v="Rungevatnet" />
		<tag k="ssr:stedsnr" v="121105" />
		<tag k="water" v="lake" />
	</node>
	<node id="-400917" lat="58.6530222226" lon="6.03824999193">
		<tag k="alt_name" v="Uadalsvatn" />
		<tag k="name" v="Uadalsvatnet" />
		<tag k="natural" v="water" />
		<tag k="ssr:stedsnr" v="121071" />
		<tag k="water" v="lake" />
	</node>
	<node id="-400915" lat="58.6613694478" lon="5.89249166843">
		<tag k="name" v="Rånavatnet" />
		<tag k="natural" v="water" />
		<tag k="ssr:stedsnr" v="121061" />
		<tag k="water" v="lake" />
	</node>
	<node id="-400914" lat="58.6408432455" lon="6.19570277831">
		<tag k="alt_name" v="Kvennsteinvatnet" />
		<tag k="name" v="Kvernsteinvatnet" />
		<tag k="natural" v="water" />
		<tag k="ssr:stedsnr" v="121054" />
		<tag k="water" v="lake" />
	</node>
	<node id="-400913" lat="58.6128138853" lon="6.12628611674">
		<tag k="alt_name" v="Nordvatn" />
		<tag k="name" v="Nordavatnet" />
		<tag k="natural" v="water" />
		<tag k="ssr:stedsnr" v="121032" />
		<tag k="water" v="lake" />
	</node>
	<node id="-400906" lat="58.6287694442" lon="6.10392222016">
		<tag k="name" v="Alvastranda" />
		<tag k="natural" v="beach" />
		<tag k="ssr:stedsnr" v="119899" />
	</node>
	<node id="-400898" lat="58.6837388916" lon="6.04061389059">
		<tag k="name" v="Knudabekken" />
		<tag k="ssr:stedsnr" v="119349" />
		<tag k="waterway" v="stream" />
	</node>
	<node id="-400891" lat="58.722702776" lon="6.59255278196">
		<tag k="name" v="Krogavatnet" />
		<tag k="natural" v="water" />
		<tag k="ssr:stedsnr" v="119194" />
		<tag k="water" v="lake" />
	</node>
	<node id="-400889" lat="58.7247580813" lon="6.46269069593">
		<tag k="name" v="Grastjørna" />
		<tag k="natural" v="water" />
		<tag k="ssr:stedsnr" v="119137" />
	</node>
	<node id="-400888" lat="58.7325444453" lon="6.46177499709">
		<tag k="name" v="Grastjørna" />
		<tag k="natural" v="water" />
		<tag k="ssr:stedsnr" v="119136" />
	</node>
	<node id="-400886" lat="58.683072219" lon="6.22244443719">
		<tag k="name" v="Store Hølen" />
		<tag k="place" v="locality" />
		<tag k="ssr:stedsnr" v="119075" />
	</node>
	<node id="-400885" lat="58.6901027749" lon="6.23755555317">
		<tag k="name" v="Tarmavatn" />
		<tag k="natural" v="water" />
		<tag k="ssr:stedsnr" v="119073" />
		<tag k="water" v="lake" />
	</node>
	<node id="-400878" lat="58.7073500024" lon="6.44943333642">
		<tag k="name" v="Lauarbekken" />
		<tag k="ssr:stedsnr" v="116156" />
		<tag k="waterway" v="stream" />
	</node>
	<node id="-400868" lat="58.7082527737" lon="6.16964723087">
		<tag k="name" v="Dalnebben" />
		<tag k="natural" v="cape" />
		<tag k="ssr:stedsnr" v="102120" />
	</node>
	<node id="-400864" lat="58.6677666691" lon="6.34883610541">
		<tag k="name" v="Storåna" />
		<tag k="ssr:stedsnr" v="101322" />
		<tag k="waterway" v="river" />
	</node>
	<node id="-402341" lat="58.6856750018" lon="6.02096389009">
		<tag k="name" v="Smådalstjørna" />
		<tag k="natural" v="water" />
		<tag k="ssr:stedsnr" v="847356" />
	</node>
	<node id="-400859" lat="58.7045413824" lon="6.28759371955">
		<tag k="name" v="Forelivatnet" />
		<tag k="natural" v="water" />
		<tag k="ssr:stedsnr" v="101213" />
		<tag k="water" v="lake" />
	</node>
	<node id="-400853" lat="58.6877944464" lon="6.60106944577">
		<tag k="name" v="Gitlebekken" />
		<tag k="ssr:stedsnr" v="101129" />
		<tag k="waterway" v="stream" />
	</node>
	<node id="-400845" lat="58.689430555" lon="6.16534165844">
		<tag k="name" v="Kvednabekken" />
		<tag k="ssr:stedsnr" v="100234" />
		<tag k="waterway" v="stream" />
	</node>
	<node id="-400842" lat="58.7235138927" lon="6.0500722146">
		<tag k="name" v="Torvtjørna" />
		<tag k="natural" v="water" />
		<tag k="ssr:stedsnr" v="100081" />
	</node>
	<node id="-400834" lat="58.6014152834" lon="6.27191762626">
		<tag k="name" v="Nedra Heiingsvatnet" />
		<tag k="natural" v="water" />
		<tag k="ssr:stedsnr" v="87413" />
		<tag k="water" v="lake" />
	</node>
	<node id="-400829" lat="58.5398874633" lon="6.02302021305">
		<tag k="name" v="Dybingen" />
		<tag k="natural" v="water" />
		<tag k="ssr:stedsnr" v="83933" />
	</node>
	<node id="-400827" lat="58.6243500013" lon="6.00552221642">
		<tag k="name" v="Holbekken" />
		<tag k="ssr:stedsnr" v="83911" />
		<tag k="waterway" v="stream" />
	</node>
	<node id="-400821" lat="58.6584694424" lon="5.98355000562">
		<tag k="name" v="Søra Beresvatn" />
		<tag k="natural" v="water" />
		<tag k="ssr:stedsnr" v="83329" />
	</node>
	<node id="-402334" lat="58.7396583306" lon="6.21582222333">
		<tag k="name" v="Vinjaåna" />
		<tag k="ssr:stedsnr" v="846675" />
		<tag k="waterway" v="river" />
	</node>
	<node id="-400815" lat="58.6082833321" lon="5.94613056016">
		<tag k="name" v="Stemmetjørn" />
		<tag k="natural" v="water" />
		<tag k="ssr:stedsnr" v="83289" />
	</node>
	<node id="-400813" lat="58.5757222181" lon="5.95771389575">
		<tag k="name" v="Kvednåa" />
		<tag k="ssr:stedsnr" v="83251" />
		<tag k="waterway" v="river" />
	</node>
	<node id="-400812" lat="58.6588111149" lon="5.89592777948">
		<tag k="name" v="Kvednatjørn" />
		<tag k="natural" v="water" />
		<tag k="ssr:stedsnr" v="83220" />
		<tag k="water" v="lake" />
	</node>
	<node id="-400811" lat="58.6655555574" lon="5.88698055816">
		<tag k="name" v="Ålatjørn" />
		<tag k="natural" v="water" />
		<tag k="ssr:stedsnr" v="83221" />
	</node>
	<node id="-400808" lat="58.5722083292" lon="5.92688888631">
		<tag k="name" v="Brekkeitjørna" />
		<tag k="natural" v="water" />
		<tag k="ssr:stedsnr" v="83146" />
	</node>
	<node id="-400807" lat="58.5740166645" lon="5.91947777411">
		<tag k="name" v="Harantjørna" />
		<tag k="natural" v="water" />
		<tag k="ssr:stedsnr" v="83144" />
	</node>
	<node id="-400805" lat="58.5842222204" lon="5.89839723066">
		<tag k="name" v="Stemmetjørna" />
		<tag k="natural" v="water" />
		<tag k="ssr:stedsnr" v="83131" />
	</node>
	<node id="-400803" lat="58.6202972253" lon="6.17960833571">
		<tag k="name" v="Olstibekken" />
		<tag k="ssr:stedsnr" v="83101" />
		<tag k="waterway" v="stream" />
	</node>
	<node id="-400801" lat="58.5962111151" lon="6.17079444239">
		<tag k="name" v="Råna" />
		<tag k="natural" v="strait" />
		<tag k="ssr:stedsnr" v="83076" />
	</node>
	<node id="-400799" lat="58.5944567026" lon="6.16188667753">
		<tag k="name" v="Kjørrvatnet" />
		<tag k="natural" v="water" />
		<tag k="ssr:stedsnr" v="83014" />
		<tag k="water" v="lake" />
	</node>
	<node id="-400796" lat="58.5891805576" lon="6.05878333258">
		<tag k="name" v="Kaletjørna" />
		<tag k="natural" v="water" />
		<tag k="ssr:stedsnr" v="83001" />
	</node>
	<node id="-400793" lat="58.7862027763" lon="6.20655554816">
		<tag k="alt_name" v="Vådlandsvatnet, litle;Litla Vådlandsvatnet" />
		<tag k="name" v="Litle Vådlandsvatnet" />
		<tag k="natural" v="water" />
		<tag k="ssr:stedsnr" v="62577" />
		<tag k="water" v="lake" />
	</node>
	<node id="-400792" lat="58.7455333363" lon="6.24914167398">
		<tag k="alt_name" v="Kvednabekken" />
		<tag k="name" v="Kvernbekken" />
		<tag k="ssr:stedsnr" v="62143" />
		<tag k="waterway" v="stream" />
	</node>
	<node id="-400789" lat="58.6432944434" lon="6.26369999694">
		<tag k="alt_name" v="Linnes" />
		<tag k="name" v="Lindnes" />
		<tag k="natural" v="cape" />
		<tag k="ssr:stedsnr" v="61790" />
	</node>
	<node id="-400788" lat="58.6389916645" lon="6.29684999196">
		<tag k="name" v="Navarstøltjørna" />
		<tag k="natural" v="water" />
		<tag k="ssr:stedsnr" v="61788" />
	</node>
	<node id="-400783" lat="58.7291517964" lon="6.08935300886">
		<tag k="name" v="Dalavatnet" />
		<tag k="natural" v="water" />
		<tag k="ssr:stedsnr" v="61382" />
	</node>
	<node id="-400782" lat="58.738894442" lon="6.54183055083">
		<tag k="alt_name" v="Kvislaåna" />
		<tag k="name" v="Kvitlaåna" />
		<tag k="ssr:stedsnr" v="61223" />
		<tag k="waterway" v="stream" />
	</node>
	<node id="-400777" lat="58.5705361129" lon="5.89667499334">
		<tag k="alt_name" v="Risvatn" />
		<tag k="name" v="Risvatni" />
		<tag k="natural" v="water" />
		<tag k="ssr:stedsnr" v="61085" />
		<tag k="water" v="lake" />
	</node>
	<node id="-400772" lat="58.6101622024" lon="6.13537980591">
		<tag k="alt_name" v="Øyarvatn" />
		<tag k="name" v="Øyarvatnet" />
		<tag k="natural" v="water" />
		<tag k="old_name" v="Øyavatnet" />
		<tag k="ssr:stedsnr" v="61006" />
		<tag k="water" v="lake" />
	</node>
	<node id="-400769" lat="58.6714305548" lon="6.39559443708">
		<tag k="name" v="Gardsbekken" />
		<tag k="ssr:stedsnr" v="60784" />
		<tag k="waterway" v="stream" />
	</node>
	<node id="-400768" lat="58.6714194428" lon="6.34864444072">
		<tag k="name" v="Fossbekken" />
		<tag k="place" v="locality" />
		<tag k="ssr:stedsnr" v="60779" />
	</node>
	<node id="-400767" lat="58.6738876287" lon="6.48044051309">
		<tag k="name" v="Galthomtjørna" />
		<tag k="natural" v="water" />
		<tag k="ssr:stedsnr" v="60776" />
		<tag k="water" v="lake" />
	</node>
	<node id="-400766" lat="58.7328472641" lon="6.20951058794">
		<tag k="name" v="Ytra Vinjavatnet" />
		<tag k="natural" v="water" />
		<tag k="ssr:stedsnr" v="60393" />
		<tag k="water" v="lake" />
	</node>
	<node id="-400752" lat="58.6926166686" lon="6.43421667333">
		<tag k="name" v="Skittjørna" />
		<tag k="natural" v="water" />
		<tag k="ssr:stedsnr" v="59158" />
	</node>
	<node id="-400747" lat="58.7297888898" lon="6.46048889687">
		<tag k="name" v="Grastjørna" />
		<tag k="natural" v="water" />
		<tag k="ssr:stedsnr" v="59102" />
	</node>
	<node id="-400742" lat="58.646269447" lon="6.29596111552">
		<tag k="name" v="Veren" />
		<tag k="natural" v="cape" />
		<tag k="ssr:stedsnr" v="58909" />
	</node>
	<node id="-400739" lat="58.6456750036" lon="6.13325833652">
		<tag k="name" v="Foreholmane" />
		<tag k="place" v="islet" />
		<tag k="ssr:stedsnr" v="58840" />
	</node>
	<node id="-400735" lat="58.6864836101" lon="6.06162318257">
		<tag k="name" v="Litla Krogarvatnet" />
		<tag k="natural" v="water" />
		<tag k="ssr:stedsnr" v="58295" />
		<tag k="water" v="lake" />
	</node>
	<node id="-400729" lat="58.7198000008" lon="6.07238054868">
		<tag k="name" v="Ytretjørn" />
		<tag k="natural" v="water" />
		<tag k="ssr:stedsnr" v="57377" />
	</node>
	<node id="-400726" lat="58.6920750041" lon="6.56354722167">
		<tag k="name" v="Urlibekken" />
		<tag k="ssr:stedsnr" v="57007" />
		<tag k="waterway" v="stream" />
	</node>
	<node id="-400720" lat="58.7540697337" lon="6.48522677727">
		<tag k="name" v="Bakketjørna" />
		<tag k="natural" v="water" />
		<tag k="ssr:stedsnr" v="41487" />
	</node>
	<node id="-400719" lat="58.7784638882" lon="6.23064167294">
		<tag k="name" v="Posen" />
		<tag k="natural" v="water" />
		<tag k="ssr:stedsnr" v="41339" />
	</node>
	<node id="-400713" lat="58.6842222243" lon="6.47812777091">
		<tag k="name" v="Stronna" />
		<tag k="natural" v="beach" />
		<tag k="ssr:stedsnr" v="41276" />
	</node>
	<node id="-400690" lat="58.6911694406" lon="6.04495555663">
		<tag k="name" v="Tangjen" />
		<tag k="natural" v="cape" />
		<tag k="ssr:stedsnr" v="39246" />
	</node>
	<node id="-400686" lat="58.6522388845" lon="6.26299722021">
		<tag k="name" v="Brigetjørnane" />
		<tag k="natural" v="water" />
		<tag k="ssr:stedsnr" v="39038" />
	</node>
	<node id="-400676" lat="58.5217361119" lon="6.02268332554">
		<tag k="name" v="Øyna" />
		<tag k="place" v="island" />
		<tag k="ssr:stedsnr" v="23946" />
	</node>
	<node id="-400671" lat="58.5349249982" lon="6.03821110424">
		<tag k="name" v="Låvøya" />
		<tag k="natural" v="cape" />
		<tag k="ssr:stedsnr" v="23934" />
	</node>
	<node id="-400669" lat="58.5244194431" lon="6.02042222211">
		<tag k="name" v="Kalneset" />
		<tag k="natural" v="cape" />
		<tag k="ssr:stedsnr" v="23930" />
	</node>
	<node id="-400658" lat="58.6190027802" lon="6.12018889027">
		<tag k="name" v="Svartevatn" />
		<tag k="natural" v="water" />
		<tag k="ssr:stedsnr" v="23761" />
		<tag k="water" v="lake" />
	</node>
	<node id="-400649" lat="58.5937083349" lon="5.94659443708">
		<tag k="name" v="Dybingstjørna" />
		<tag k="natural" v="water" />
		<tag k="ssr:stedsnr" v="23314" />
	</node>
	<node id="-400642" lat="58.6353252355" lon="5.90576971665">
		<tag k="name" v="Legetjørn" />
		<tag k="natural" v="water" />
		<tag k="ssr:stedsnr" v="23211" />
	</node>
	<node id="-400641" lat="58.5629722188" lon="5.91911389503">
		<tag k="name" v="Stemmetjørna" />
		<tag k="natural" v="water" />
		<tag k="ssr:stedsnr" v="23189" />
	</node>
	<node id="-400639" lat="58.5542888879" lon="5.93966943849">
		<tag k="name" v="Kvernabekken" />
		<tag k="ssr:stedsnr" v="23150" />
		<tag k="waterway" v="stream" />
	</node>
	<node id="-400631" lat="58.61228521" lon="6.05690461785">
		<tag k="alt_name" v="Møssingtjørna" />
		<tag k="name" v="Myssingtjørna" />
		<tag k="natural" v="water" />
		<tag k="ssr:stedsnr" v="23045" />
	</node>
	<node id="-400629" lat="58.5961222261" lon="6.13421111223">
		<tag k="name" v="Hytlandsfossen" />
		<tag k="natural" v="waterfall" />
		<tag k="ssr:stedsnr" v="23027" />
	</node>
	<node id="-400628" lat="58.5933444425" lon="6.08943611176">
		<tag k="name" v="Oretjørna" />
		<tag k="natural" v="water" />
		<tag k="ssr:stedsnr" v="23010" />
	</node>
	<node id="-400625" lat="58.7383972183" lon="6.35593055274">
		<tag k="alt_name" v="Oksevatjørn" />
		<tag k="name" v="Oksevadtjørna" />
		<tag k="natural" v="water" />
		<tag k="ssr:stedsnr" v="1156" />
	</node>
	<node id="-400623" lat="58.7275583349" lon="6.24176667186">
		<tag k="alt_name" v="Søltre" />
		<tag k="name" v="Syltre" />
		<tag k="natural" v="cape" />
		<tag k="ssr:stedsnr" v="1140" />
	</node>
	<node id="-400621" lat="58.6096546782" lon="6.27280608315">
		<tag k="alt_name" v="Skinnellvatnet" />
		<tag k="name" v="Skineldvatnet" />
		<tag k="natural" v="water" />
		<tag k="ssr:stedsnr" v="831" />
		<tag k="water" v="lake" />
	</node>
	<node id="-400619" lat="58.6606333363" lon="6.26611665886">
		<tag k="name" v="Skogafjelltjørna" />
		<tag k="natural" v="water" />
		<tag k="ssr:stedsnr" v="784" />
	</node>
	<node id="-400613" lat="58.7279494746" lon="6.14673882423">
		<tag k="alt_name" v="Romsvatni, indra;Indra Romsvatni" />
		<tag k="name" v="Indre Romsvatnet" />
		<tag k="natural" v="water" />
		<tag k="ssr:stedsnr" v="484" />
		<tag k="water" v="lake" />
	</node>
	<node id="-400612" lat="58.6758807883" lon="5.98487373733">
		<tag k="alt_name" v="Kydlandsvatnet, ytra;ytre Kydlandsvatnet" />
		<tag k="fixme" v="multiple name tags, choose one and add the other to alt_name" />
		<tag k="name" v="Buevatnet;Ytra Kydlandsvatnet" />
		<tag k="natural" v="water" />
		<tag k="ssr:stedsnr" v="470" />
		<tag k="water" v="lake" />
	</node>
	<node id="-400610" lat="58.6770499968" lon="6.08302499565">
		<tag k="alt_name" v="Lomstjørna" />
		<tag k="name" v="Lomstjørni" />
		<tag k="natural" v="water" />
		<tag k="ssr:stedsnr" v="463" />
		<tag k="water" v="lake" />
	</node>
	<node id="-400603" lat="58.5885527758" lon="6.05375278238">
		<tag k="name" v="Liabekken" />
		<tag k="ssr:stedsnr" v="118" />
		<tag k="waterway" v="stream" />
	</node>
	<node id="-400602" lat="58.596956161" lon="6.15994449008">
		<tag k="name" v="Svartavatnet" />
		<tag k="natural" v="water" />
		<tag k="ssr:stedsnr" v="114" />
	</node>
	<node id="-400599" lat="58.5504847133" lon="5.97866545589">
		<tag k="alt_name" v="søre Forevatn" />
		<tag k="name" v="Søra Furevatnet" />
		<tag k="natural" v="water" />
		<tag k="old_name" v="Forevatni, s" />
		<tag k="ssr:stedsnr" v="81" />
		<tag k="water" v="lake" />
	</node>
	<node id="-400595" lat="58.6366944483" lon="5.92998888148">
		<tag k="alt_name" v="Trollhaugtjørn" />
		<tag k="name" v="Trollhaugstjørni" />
		<tag k="natural" v="water" />
		<tag k="ssr:stedsnr" v="44" />
	</node>
	<node id="-400593" lat="58.6240972253" lon="6.20301667374">
		<tag k="name" v="Brunes" />
		<tag k="natural" v="cape" />
		<tag k="ssr:stedsnr" v="30" />
	</node>
	<node id="-400592" lat="58.6287999997" lon="6.16960000424">
		<tag k="name" v="Mjåvatnet" />
		<tag k="natural" v="water" />
		<tag k="ssr:stedsnr" v="24" />
		<tag k="water" v="lake" />
	</node>
	<node id="-400591" lat="58.6281166404" lon="6.09520058317">
		<tag k="alt_name" v="Svelavatn" />
		<tag k="name" v="Svelavatnet" />
		<tag k="natural" v="water" />
		<tag k="ssr:stedsnr" v="20" />
		<tag k="water" v="lake" />
	</node>
	<node id="-400586" lat="58.5623778635" lon="5.86730322192">
		<tag k="name" v="Homsevatnet" />
		<tag k="natural" v="water" />
		<tag k="ssr:stedsnr" v="364105" />
		<tag k="water" v="lake" />
	</node>
	<node id="-400584" lat="58.6755305543" lon="5.9738805517">
		<tag k="name" v="Kyrtjørna" />
		<tag k="natural" v="water" />
		<tag k="ssr:stedsnr" v="61450" />
	</node>
	<node id="-400583" lat="58.7364385691" lon="6.28597716811">
		<tag k="name" v="Dauremålstjørna" />
		<tag k="natural" v="water" />
		<tag k="ssr:stedsnr" v="668131" />
	</node>
	<node id="-400582" lat="58.7935461937" lon="6.19850843673">
		<tag k="name" v="Langavatn" />
		<tag k="natural" v="water" />
		<tag k="ssr:stedsnr" v="304571" />
		<tag k="water" v="lake" />
	</node>
	<node id="-400581" lat="58.5913623631" lon="5.88701313762">
		<tag k="name" v="Hagavatnet" />
		<tag k="natural" v="water" />
		<tag k="ssr:stedsnr" v="364006" />
		<tag k="water" v="lake" />
	</node>
	<node id="-400580" lat="58.7452833292" lon="6.42778611408">
		<tag k="name" v="Storavatnet" />
		<tag k="natural" v="water" />
		<tag k="ssr:stedsnr" v="729143" />
		<tag k="water" v="lake" />
	</node>
	<node id="-400575" lat="58.703719446" lon="6.12653610246">
		<tag k="name" v="Sandlivika" />
		<tag k="natural" v="bay" />
		<tag k="ssr:stedsnr" v="892010" />
	</node>
	<node id="-400574" lat="58.7559444417" lon="6.23100000458">
		<tag k="name" v="Gjeidastronda" />
		<tag k="natural" v="beach" />
		<tag k="ssr:stedsnr" v="891405" />
	</node>
	<node id="-400572" lat="58.6937149479" lon="6.22155506377">
		<tag k="name" v="Fisketjørn" />
		<tag k="natural" v="water" />
		<tag k="ssr:stedsnr" v="891147" />
	</node>
	<node id="-400571" lat="58.7265277815" lon="6.12539722582">
		<tag k="name" v="Tangane" />
		<tag k="natural" v="cape" />
		<tag k="ssr:stedsnr" v="890437" />
	</node>
	<node id="-400569" lat="58.6692583341" lon="6.40792221848">
		<tag k="name" v="Sigletjørna" />
		<tag k="natural" v="water" />
		<tag k="ssr:stedsnr" v="890320" />
	</node>
	<node id="-400566" lat="58.650472219" lon="6.41700277412">
		<tag k="name" v="Bringjen" />
		<tag k="natural" v="cape" />
		<tag k="ssr:stedsnr" v="890245" />
	</node>
	<node id="-402610" lat="58.7491972261" lon="6.1775916628">
		<tag k="name" v="Litla Nauatjørn" />
		<tag k="natural" v="water" />
		<tag k="ssr:stedsnr" v="969689" />
	</node>
	<node id="-402606" lat="58.7761116888" lon="6.183790352">
		<tag k="name" v="Fossantjørn" />
		<tag k="natural" v="water" />
		<tag k="ssr:stedsnr" v="969400" />
	</node>
	<node id="-402604" lat="58.775902774" lon="6.19618889407">
		<tag k="name" v="Litle Rauåpollen" />
		<tag k="natural" v="water" />
		<tag k="ssr:stedsnr" v="969399" />
		<tag k="water" v="lake" />
	</node>
	<node id="-402602" lat="58.7648611107" lon="6.55597778431">
		<tag k="name" v="Åtjørn" />
		<tag k="natural" v="water" />
		<tag k="ssr:stedsnr" v="969349" />
	</node>
	<node id="-402598" lat="58.7173805581" lon="6.47835554788">
		<tag k="name" v="Kvitlalona" />
		<tag k="natural" v="water" />
		<tag k="ssr:stedsnr" v="969132" />
		<tag k="water" v="lake" />
	</node>
	<node id="-400548" lat="58.6731611143" lon="6.17411667131">
		<tag k="name" v="Rebbevika" />
		<tag k="natural" v="bay" />
		<tag k="ssr:stedsnr" v="889250" />
	</node>
	<node id="-400547" lat="58.6595694488" lon="6.25776944138">
		<tag k="name" v="Kjeringtjørna" />
		<tag k="natural" v="water" />
		<tag k="ssr:stedsnr" v="889071" />
	</node>
	<node id="-400546" lat="58.6664944452" lon="6.20582221787">
		<tag k="name" v="Dalamoen" />
		<tag k="place" v="locality" />
		<tag k="ssr:stedsnr" v="889068" />
	</node>
	<node id="-402593" lat="58.6435194483" lon="6.21264167192">
		<tag k="name" v="Kampeltortjørna" />
		<tag k="natural" v="water" />
		<tag k="ssr:stedsnr" v="968926" />
	</node>
	<node id="-402589" lat="58.6364250041" lon="6.26725277943">
		<tag k="name" v="Trælen" />
		<tag k="natural" v="cape" />
		<tag k="ssr:stedsnr" v="968903" />
	</node>
	<node id="-402588" lat="58.6326333321" lon="6.008544447">
		<tag k="name" v="Musatjønnbekk" />
		<tag k="ssr:stedsnr" v="968822" />
		<tag k="waterway" v="stream" />
	</node>
	<node id="-400535" lat="58.6768722186" lon="6.4286444394">
		<tag k="name" v="Daumolbekken" />
		<tag k="ssr:stedsnr" v="405302" />
		<tag k="waterway" v="stream" />
	</node>
	<node id="-402579" lat="58.7460573953" lon="6.21811763969">
		<tag k="name" v="Tjødna" />
		<tag k="natural" v="water" />
		<tag k="ssr:stedsnr" v="967633" />
	</node>
	<node id="-402577" lat="58.7523222232" lon="6.2388777836">
		<tag k="name" v="Migaren" />
		<tag k="natural" v="waterfall" />
		<tag k="ssr:stedsnr" v="967603" />
	</node>
	<node id="-402576" lat="58.7015722241" lon="6.47129723061">
		<tag k="name" v="Flæsebekken" />
		<tag k="ssr:stedsnr" v="965171" />
		<tag k="waterway" v="stream" />
	</node>
	<node id="-400524" lat="58.7311583371" lon="6.24548056044">
		<tag k="name" v="Hølen" />
		<tag k="place" v="locality" />
		<tag k="ssr:stedsnr" v="404077" />
	</node>
	<node id="-400522" lat="58.7127861152" lon="6.22981666198">
		<tag k="name" v="Brekketjørn" />
		<tag k="natural" v="water" />
		<tag k="ssr:stedsnr" v="404076" />
	</node>
	<node id="-402560" lat="58.6869527743" lon="6.49933056181">
		<tag k="name" v="Ropenes" />
		<tag k="natural" v="cape" />
		<tag k="ssr:stedsnr" v="951200" />
	</node>
	<node id="-402557" lat="58.7171694433" lon="6.37333611719">
		<tag k="name" v="Langebulona" />
		<tag k="natural" v="water" />
		<tag k="ssr:stedsnr" v="950220" />
		<tag k="water" v="lake" />
	</node>
	<node id="-402553" lat="58.726763892" lon="6.24759167459">
		<tag k="name" v="Bjorhus" />
		<tag k="natural" v="cape" />
		<tag k="ssr:stedsnr" v="950092" />
	</node>
	<node id="-402550" lat="58.7219833296" lon="6.20211666769">
		<tag k="name" v="Grunnåna" />
		<tag k="ssr:stedsnr" v="950061" />
		<tag k="waterway" v="river" />
	</node>
	<node id="-402547" lat="58.6550000025" lon="6.11023054684">
		<tag k="name" v="Storatjørna" />
		<tag k="natural" v="water" />
		<tag k="ssr:stedsnr" v="949324" />
	</node>
	<node id="-400496" lat="58.556136113" lon="6.10650278184">
		<tag k="name" v="Søltre" />
		<tag k="natural" v="water" />
		<tag k="ssr:stedsnr" v="386987" />
	</node>
	<node id="-400495" lat="58.5358472193" lon="6.0365861042">
		<tag k="name" v="Fossmoen" />
		<tag k="natural" v="beach" />
		<tag k="ssr:stedsnr" v="386921" />
	</node>
	<node id="-402538" lat="58.6476333347" lon="6.21258889575">
		<tag k="name" v="Bjønndalsbekken" />
		<tag k="ssr:stedsnr" v="949039" />
		<tag k="waterway" v="stream" />
	</node>
	<node id="-400489" lat="58.5730000033" lon="6.12624721448">
		<tag k="name" v="Blanketjørna" />
		<tag k="natural" v="water" />
		<tag k="ssr:stedsnr" v="386766" />
	</node>
	<node id="-400488" lat="58.5298916649" lon="6.03413332864">
		<tag k="name" v="Garnes" />
		<tag k="place" v="island" />
		<tag k="ssr:stedsnr" v="386916" />
	</node>
	<node id="-400485" lat="58.58472778" lon="6.02386111524">
		<tag k="name" v="Brønnesbekken" />
		<tag k="ssr:stedsnr" v="386906" />
		<tag k="waterway" v="stream" />
	</node>
	<node id="-400483" lat="58.6523638875" lon="5.90957499178">
		<tag k="name" v="Odden" />
		<tag k="natural" v="cape" />
		<tag k="ssr:stedsnr" v="386226" />
	</node>
	<node id="-400479" lat="58.5650194463" lon="5.92385000488">
		<tag k="name" v="Djupetjørna" />
		<tag k="natural" v="water" />
		<tag k="ssr:stedsnr" v="386172" />
	</node>
	<node id="-402523" lat="58.5797115893" lon="6.11411657126">
		<tag k="name" v="Stølstjørna" />
		<tag k="natural" v="water" />
		<tag k="ssr:stedsnr" v="933786" />
	</node>
	<node id="-400474" lat="58.6723083312" lon="5.99069999269">
		<tag k="name" v="Kvednaåna" />
		<tag k="ssr:stedsnr" v="386331" />
		<tag k="waterway" v="stream" />
	</node>
	<node id="-402519" lat="58.6247888881" lon="5.95776944785">
		<tag k="name" v="Syltretjørn" />
		<tag k="natural" v="water" />
		<tag k="ssr:stedsnr" v="933290" />
	</node>
	<node id="-402518" lat="58.6105083361" lon="5.96175555078">
		<tag k="name" v="Floen" />
		<tag k="natural" v="water" />
		<tag k="ssr:stedsnr" v="933282" />
	</node>
	<node id="-400468" lat="58.5999194458" lon="6.10208611042">
		<tag k="name" v="Oreåna" />
		<tag k="ssr:stedsnr" v="386007" />
		<tag k="waterway" v="river" />
	</node>
	<node id="-400464" lat="58.7708815461" lon="6.17295941939">
		<tag k="name" v="Venavatnet" />
		<tag k="natural" v="water" />
		<tag k="ssr:stedsnr" v="365607" />
		<tag k="water" v="lake" />
	</node>
	<node id="-402509" lat="58.589933332" lon="5.91681945151">
		<tag k="name" v="Holmatjørna" />
		<tag k="natural" v="water" />
		<tag k="ssr:stedsnr" v="933145" />
	</node>
	<node id="-402508" lat="58.5997249966" lon="5.93901110475">
		<tag k="name" v="Tjovatjørna" />
		<tag k="natural" v="water" />
		<tag k="ssr:stedsnr" v="933144" />
	</node>
	<node id="-400456" lat="58.6862277782" lon="6.57578888107">
		<tag k="alt_name" v="Stertevatn" />
		<tag k="name" v="Stertevatnet" />
		<tag k="natural" v="water" />
		<tag k="ssr:stedsnr" v="364781" />
		<tag k="water" v="lake" />
	</node>
	<node id="-400455" lat="58.6703388855" lon="6.28181944813">
		<tag k="name" v="Mørkevatnet" />
		<tag k="natural" v="water" />
		<tag k="ssr:stedsnr" v="364776" />
		<tag k="water" v="lake" />
	</node>
	<node id="-402502" lat="58.7621997726" lon="6.57525269454">
		<tag k="alt_name" v="Øyestøllona" />
		<tag k="name" v="Loni" />
		<tag k="natural" v="water" />
		<tag k="ssr:stedsnr" v="911787" />
		<tag k="water" v="lake" />
	</node>
	<node id="-400453" lat="58.6943250041" lon="6.49035554783">
		<tag k="alt_name" v="Store Hølen" />
		<tag k="name" v="Storehølen" />
		<tag k="natural" v="water" />
		<tag k="ssr:stedsnr" v="364773" />
	</node>
	<node id="-400452" lat="58.6830611126" lon="6.37340000364">
		<tag k="name" v="Litlaåna" />
		<tag k="ssr:stedsnr" v="364769" />
		<tag k="waterway" v="stream" />
	</node>
	<node id="-400449" lat="58.6828699057" lon="6.17383304681">
		<tag k="name" v="Hofreistæ" />
		<tag k="natural" v="water" />
		<tag k="old_name" v="Hofreistævatnet" />
		<tag k="ssr:stedsnr" v="364458" />
		<tag k="water" v="lake" />
	</node>
	<node id="-402496" lat="58.606394449" lon="6.21952500047">
		<tag k="alt_name" v="Mærstadåna" />
		<tag k="name" v="Merrstadåna" />
		<tag k="ssr:stedsnr" v="910839" />
		<tag k="waterway" v="stream" />
	</node>
	<node id="-402493" lat="58.7072138865" lon="6.1765833272">
		<tag k="alt_name" v="Ryssevik" />
		<tag k="name" v="Røssevik" />
		<tag k="natural" v="bay" />
		<tag k="ssr:stedsnr" v="910511" />
	</node>
	<node id="-402492" lat="58.7127166626" lon="6.18411666718">
		<tag k="name" v="Klubben" />
		<tag k="natural" v="cape" />
		<tag k="ssr:stedsnr" v="910508" />
	</node>
	<node id="-400443" lat="58.7019638905" lon="6.30013056251">
		<tag k="alt_name" v="Tangjen" />
		<tag k="name" v="Tangen" />
		<tag k="natural" v="cape" />
		<tag k="ssr:stedsnr" v="364237" />
	</node>
	<node id="-402490" lat="58.7253083326" lon="6.1865055632">
		<tag k="name" v="Skjelbreidtjørna" />
		<tag k="natural" v="water" />
		<tag k="ssr:stedsnr" v="910493" />
	</node>
	<node id="-402489" lat="58.6683553014" lon="6.0417458667">
		<tag k="name" v="Snøsvatnet" />
		<tag k="natural" v="water" />
		<tag k="ssr:stedsnr" v="910465" />
		<tag k="water" v="lake" />
	</node>
	<node id="-402485" lat="58.7199507742" lon="6.42879772451">
		<tag k="alt_name" v="Kvednevatn" />
		<tag k="name" v="Kvernavatnet" />
		<tag k="natural" v="water" />
		<tag k="ssr:stedsnr" v="910224" />
		<tag k="water" v="lake" />
	</node>
	<node id="-400436" lat="58.5909431822" lon="6.10481095337">
		<tag k="name" v="Odlandshølen" />
		<tag k="natural" v="water" />
		<tag k="ssr:stedsnr" v="364125" />
	</node>
	<node id="-400434" lat="58.5589222209" lon="5.95766388503">
		<tag k="alt_name" v="Ognavatn" />
		<tag k="name" v="Ognavatnet" />
		<tag k="natural" v="water" />
		<tag k="ssr:stedsnr" v="364114" />
		<tag k="water" v="lake" />
	</node>
	<node id="-400433" lat="58.5866500001" lon="6.17861944799">
		<tag k="alt_name" v="Syltretjørna" />
		<tag k="name" v="Syltretjørni" />
		<tag k="natural" v="water" />
		<tag k="ssr:stedsnr" v="364110" />
	</node>
	<node id="-402480" lat="58.6991277757" lon="6.32009999246">
		<tag k="alt_name" v="Røynelibekken" />
		<tag k="name" v="Røynlibekken" />
		<tag k="ssr:stedsnr" v="910204" />
		<tag k="waterway" v="stream" />
	</node>
	<node id="-400429" lat="58.6665416645" lon="6.08648889028">
		<tag k="alt_name" v="Nordra Skjævelandsvatn" />
		<tag k="name" v="Nordravatnet" />
		<tag k="natural" v="water" />
		<tag k="old_name" v="Nordavatnet" />
		<tag k="ssr:stedsnr" v="364048" />
		<tag k="water" v="lake" />
	</node>
	<node id="-400428" lat="58.6599666644" lon="6.01294721731">
		<tag k="alt_name" v="Ausetjørna" />
		<tag k="name" v="Ausetjørni" />
		<tag k="natural" v="water" />
		<tag k="ssr:stedsnr" v="364049" />
	</node>
	<node id="-402474" lat="58.5698888887" lon="6.08281667067">
		<tag k="name" v="Berse" />
		<tag k="natural" v="water" />
		<tag k="old_name" v="Bersevatnet" />
		<tag k="ssr:stedsnr" v="910114" />
		<tag k="water" v="lake" />
	</node>
	<node id="-400424" lat="58.6147944474" lon="5.9466166681">
		<tag k="alt_name" v="Opsalandsvatn" />
		<tag k="name" v="Oppsalandsvatnet" />
		<tag k="natural" v="water" />
		<tag k="ssr:stedsnr" v="364021" />
		<tag k="water" v="lake" />
	</node>
	<node id="-402471" lat="58.539743606" lon="5.99553573983">
		<tag k="name" v="Hetlandsvatnet" />
		<tag k="natural" v="water" />
		<tag k="old_name" v="Hetlandsvatni" />
		<tag k="ssr:stedsnr" v="910087" />
		<tag k="water" v="lake" />
	</node>
	<node id="-402470" lat="58.6412749956" lon="6.16972500106">
		<tag k="alt_name" v="Vålandstjørna" />
		<tag k="name" v="Vålandstjørni" />
		<tag k="natural" v="water" />
		<tag k="ssr:stedsnr" v="910056" />
	</node>
	<node id="-402469" lat="58.6507735156" lon="6.20448362412">
		<tag k="name" v="Holmavatnet" />
		<tag k="natural" v="water" />
		<tag k="ssr:stedsnr" v="910047" />
		<tag k="water" v="lake" />
	</node>
	<node id="-400420" lat="58.6037338187" lon="5.94554579824">
		<tag k="alt_name" v="Leksavatnet" />
		<tag k="name" v="Leksarvatnet" />
		<tag k="natural" v="water" />
		<tag k="ssr:stedsnr" v="364002" />
		<tag k="water" v="lake" />
	</node>
	<node id="-402467" lat="58.6471750029" lon="6.01705277904">
		<tag k="alt_name" v="Fisketjørna" />
		<tag k="name" v="Fisketjørni" />
		<tag k="natural" v="water" />
		<tag k="ssr:stedsnr" v="910040" />
	</node>
	<node id="-402463" lat="58.7556722191" lon="6.1684888845">
		<tag k="alt_name" v="Indra Vinjatjørn" />
		<tag k="name" v="Indra Vinjatjørna" />
		<tag k="natural" v="water" />
		<tag k="ssr:stedsnr" v="909380" />
	</node>
	<node id="-400411" lat="58.7231750018" lon="6.47372222338">
		<tag k="name" v="Smihusbekken" />
		<tag k="ssr:stedsnr" v="362133" />
		<tag k="waterway" v="stream" />
	</node>
	<node id="-400406" lat="58.634700001" lon="6.20912221541">
		<tag k="name" v="Rondeknuttjørna" />
		<tag k="natural" v="water" />
		<tag k="ssr:stedsnr" v="361928" />
	</node>
	<node id="-402265" lat="58.5330583293" lon="5.99422222496">
		<tag k="name" v="Fossåna" />
		<tag k="ssr:stedsnr" v="811918" />
		<tag k="waterway" v="stream" />
	</node>
	<node id="-402452" lat="58.7265777812" lon="6.41827499551">
		<tag k="name" v="Skodtjørn" />
		<tag k="natural" v="water" />
		<tag k="ssr:stedsnr" v="908272" />
	</node>
	<node id="-400402" lat="58.6359750036" lon="6.08467778279">
		<tag k="name" v="Storå" />
		<tag k="ssr:stedsnr" v="361892" />
		<tag k="waterway" v="river" />
	</node>
	<node id="-402446" lat="58.6820138889" lon="6.22751389584">
		<tag k="name" v="Spranget" />
		<tag k="place" v="locality" />
		<tag k="ssr:stedsnr" v="908087" />
	</node>
	<node id="-402444" lat="58.7058388906" lon="6.11560277534">
		<tag k="name" v="Hestnestangen" />
		<tag k="natural" v="cape" />
		<tag k="ssr:stedsnr" v="908027" />
	</node>
	<node id="-400395" lat="58.6803527784" lon="6.02821665977">
		<tag k="name" v="Store Svartetjørn" />
		<tag k="natural" v="water" />
		<tag k="ssr:stedsnr" v="361379" />
		<tag k="water" v="lake" />
	</node>
	<node id="-402441" lat="58.7436916637" lon="6.24543888326">
		<tag k="name" v="Mjørdalstjørn" />
		<tag k="natural" v="water" />
		<tag k="ssr:stedsnr" v="907601" />
	</node>
	<node id="-402439" lat="58.7503416708" lon="6.21121665964">
		<tag k="name" v="Teinabekken" />
		<tag k="ssr:stedsnr" v="906709" />
		<tag k="waterway" v="stream" />
	</node>
	<node id="-402437" lat="58.6959805566" lon="6.55771667076">
		<tag k="name" v="Urtjørna" />
		<tag k="natural" v="water" />
		<tag k="ssr:stedsnr" v="906003" />
	</node>
	<node id="-400388" lat="58.6549499956" lon="6.1657416641">
		<tag k="name" v="Storåna" />
		<tag k="ssr:stedsnr" v="361014" />
		<tag k="waterway" v="river" />
	</node>
	<node id="-400386" lat="58.7063083353" lon="6.08772500808">
		<tag k="name" v="Syltretjørna" />
		<tag k="natural" v="water" />
		<tag k="ssr:stedsnr" v="361006" />
	</node>
	<node id="-400385" lat="58.6760861068" lon="6.12121943865">
		<tag k="name" v="Heknebekken" />
		<tag k="ssr:stedsnr" v="361004" />
		<tag k="waterway" v="stream" />
	</node>
	<node id="-402432" lat="58.5897472218" lon="6.09538333395">
		<tag k="name" v="Timrevik" />
		<tag k="natural" v="bay" />
		<tag k="ssr:stedsnr" v="872953" />
	</node>
	<node id="-400554" lat="58.7095027805" lon="6.57486666678">
		<tag k="name" v="Stakkevassholmen" />
		<tag k="place" v="islet" />
		<tag k="ssr:stedsnr" v="890035" />
	</node>
	<node id="-400378" lat="58.7081527806" lon="6.31913611219">
		<tag k="name" v="Kvednastronda" />
		<tag k="natural" v="beach" />
		<tag k="ssr:stedsnr" v="349271" />
	</node>
	<node id="-402425" lat="58.5325416648" lon="5.97830832743">
		<tag k="name" v="Villsbekken" />
		<tag k="ssr:stedsnr" v="872830" />
		<tag k="waterway" v="stream" />
	</node>
	<node id="-402423" lat="58.5768901768" lon="6.10692976943">
		<tag k="name" v="Årdalstjørna" />
		<tag k="natural" v="water" />
		<tag k="ssr:stedsnr" v="872789" />
	</node>
	<node id="-402421" lat="58.6723555577" lon="5.97642499805">
		<tag k="name" v="Skittjørna" />
		<tag k="natural" v="water" />
		<tag k="ssr:stedsnr" v="872356" />
	</node>
	<node id="-400372" lat="58.7495638921" lon="6.54628333056">
		<tag k="name" v="Hollebekk" />
		<tag k="ssr:stedsnr" v="345314" />
		<tag k="waterway" v="stream" />
	</node>
	<node id="-400369" lat="58.7019527752" lon="6.21993888484">
		<tag k="name" v="Brekketjørn" />
		<tag k="natural" v="water" />
		<tag k="ssr:stedsnr" v="345146" />
	</node>
	<node id="-400365" lat="58.6719722219" lon="6.43083333411">
		<tag k="name" v="Glubetjørna" />
		<tag k="natural" v="water" />
		<tag k="ssr:stedsnr" v="344299" />
	</node>
	<node id="-402409" lat="58.5544694402" lon="5.97435556352">
		<tag k="name" v="Rånåstjørna" />
		<tag k="natural" v="water" />
		<tag k="ssr:stedsnr" v="872279" />
	</node>
	<node id="-402406" lat="58.6557519101" lon="5.88462522384">
		<tag k="alt_name" v="Kappatjørn" />
		<tag k="name" v="Kappatjørna" />
		<tag k="natural" v="water" />
		<tag k="ssr:stedsnr" v="872238" />
		<tag k="water" v="lake" />
	</node>
	<node id="-400550" lat="58.668286109" lon="6.16044999222">
		<tag k="name" v="Liknes" />
		<tag k="natural" v="cape" />
		<tag k="ssr:stedsnr" v="889267" />
	</node>
	<node id="-402400" lat="58.5677666668" lon="5.93586110493">
		<tag k="name" v="Hanatjørna" />
		<tag k="natural" v="water" />
		<tag k="ssr:stedsnr" v="872165" />
	</node>
	<node id="-402397" lat="58.5484083312" lon="5.93523333169">
		<tag k="name" v="Aurepollen" />
		<tag k="place" v="locality" />
		<tag k="ssr:stedsnr" v="872131" />
	</node>
	<node id="-400347" lat="58.7041999998" lon="6.0445416585">
		<tag k="name" v="Perstjørna" />
		<tag k="natural" v="water" />
		<tag k="ssr:stedsnr" v="342286" />
	</node>
	<node id="-402390" lat="58.7728916648" lon="6.19216944818">
		<tag k="name" v="Fossankrå" />
		<tag k="place" v="locality" />
		<tag k="ssr:stedsnr" v="851582" />
	</node>
	<node id="-402388" lat="58.5971999997" lon="6.25832778147">
		<tag k="name" v="Skrivarstjørna" />
		<tag k="natural" v="water" />
		<tag k="ssr:stedsnr" v="850861" />
	</node>
	<node id="-402387" lat="58.5995111157" lon="6.28546389571">
		<tag k="name" v="Lussitjørna" />
		<tag k="natural" v="water" />
		<tag k="ssr:stedsnr" v="850859" />
	</node>
	<node id="-402386" lat="58.6036096455" lon="6.26390717304">
		<tag k="alt_name" v="Fiskelitjørna" />
		<tag k="name" v="Fiskelivatnet" />
		<tag k="natural" v="water" />
		<tag k="ssr:stedsnr" v="850849" />
	</node>
	<node id="-402385" lat="58.6253762035" lon="6.28184514138">
		<tag k="alt_name" v="Bjønnvatnet" />
		<tag k="name" v="Bjørnvatnet" />
		<tag k="natural" v="water" />
		<tag k="ssr:stedsnr" v="850827" />
		<tag k="water" v="lake" />
	</node>
	<node id="-402384" lat="58.6354694463" lon="6.28411110533">
		<tag k="name" v="Bjørnåna" />
		<tag k="ssr:stedsnr" v="850809" />
		<tag k="waterway" v="stream" />
	</node>
	<node id="-402381" lat="58.7131166623" lon="6.19544999366">
		<tag k="name" v="Espelandsflæet" />
		<tag k="natural" v="water" />
		<tag k="ssr:stedsnr" v="850508" />
		<tag k="water" v="lake" />
	</node>
	<node id="-402380" lat="58.7088944438" lon="6.19221388863">
		<tag k="alt_name" v="Hauganesnebben" />
		<tag k="name" v="Hauganeset" />
		<tag k="natural" v="cape" />
		<tag k="ssr:stedsnr" v="850506" />
	</node>
	<node id="-400331" lat="58.5345916665" lon="5.95040556198">
		<tag k="name" v="Auravatnet" />
		<tag k="natural" v="water" />
		<tag k="ssr:stedsnr" v="326822" />
	</node>
	<node id="-400330" lat="58.5314416708" lon="5.97162500375">
		<tag k="name" v="Fiskelaustjørna" />
		<tag k="natural" v="water" />
		<tag k="ssr:stedsnr" v="326818" />
	</node>
	<node id="-402377" lat="58.7279333293" lon="6.44801111969">
		<tag k="name" v="Ratevatnet" />
		<tag k="natural" v="water" />
		<tag k="ssr:stedsnr" v="850231" />
		<tag k="water" v="lake" />
	</node>
	<node id="-400327" lat="58.5802499986" lon="6.12533889706">
		<tag k="name" v="Tangen" />
		<tag k="natural" v="cape" />
		<tag k="ssr:stedsnr" v="326771" />
	</node>
	<node id="-402371" lat="58.6154249958" lon="6.02915000414">
		<tag k="alt_name" v="Sandtjørn" />
		<tag k="name" v="Sandtjørni" />
		<tag k="natural" v="water" />
		<tag k="ssr:stedsnr" v="850022" />
	</node>
	<node id="-402366" lat="58.6612638885" lon="5.98443333189">
		<tag k="alt_name" v="Beresvatna" />
		<tag k="name" v="Beresvatni" />
		<tag k="natural" v="water" />
		<tag k="ssr:stedsnr" v="849079" />
	</node>
	<node id="-400315" lat="58.6684055549" lon="5.90028888968">
		<tag k="name" v="Ryggjatjørn" />
		<tag k="natural" v="water" />
		<tag k="ssr:stedsnr" v="326230" />
	</node>
	<node id="-402356" lat="58.7425083332" lon="6.09429166583">
		<tag k="name" v="Kartabekken" />
		<tag k="ssr:stedsnr" v="848386" />
		<tag k="waterway" v="stream" />
	</node>
	<node id="-402353" lat="58.7479027804" lon="6.15684445265">
		<tag k="name" v="Indra Vedravatnet" />
		<tag k="natural" v="water" />
		<tag k="ssr:stedsnr" v="848353" />
		<tag k="water" v="lake" />
	</node>
	<node id="-402352" lat="58.7743111098" lon="6.17761111022">
		<tag k="name" v="Glibatjørn" />
		<tag k="natural" v="water" />
		<tag k="ssr:stedsnr" v="848408" />
	</node>
	<node id="-402351" lat="58.6944611087" lon="6.44562778621">
		<tag k="name" v="Heptetjørna" />
		<tag k="natural" v="water" />
		<tag k="ssr:stedsnr" v="848201" />
	</node>
	<node id="-400301" lat="58.5911111144" lon="6.12543610728">
		<tag k="name" v="Tussatjørna" />
		<tag k="natural" v="water" />
		<tag k="ssr:stedsnr" v="326015" />
	</node>
	<node id="-400300" lat="58.58941726" lon="6.14656199309">
		<tag k="name" v="Svartavatnet" />
		<tag k="natural" v="water" />
		<tag k="ssr:stedsnr" v="326016" />
		<tag k="water" v="lake" />
	</node>
	<node id="-400295" lat="58.7353583366" lon="6.50772222419">
		<tag k="alt_name" v="Rompetjørna" />
		<tag k="name" v="Rumpetjørnane" />
		<tag k="natural" v="water" />
		<tag k="ssr:stedsnr" v="304227" />
	</node>
	<node id="-400294" lat="58.72716008" lon="6.3986624336">
		<tag k="name" v="Barbuvatnet" />
		<tag k="natural" v="water" />
		<tag k="ssr:stedsnr" v="304217" />
		<tag k="water" v="lake" />
	</node>
	<node id="-400293" lat="58.7111638864" lon="6.37175000159">
		<tag k="alt_name" v="Åna" />
		<tag k="name" v="Åni" />
		<tag k="ssr:stedsnr" v="304201" />
		<tag k="waterway" v="stream" />
	</node>
	<node id="-400292" lat="58.7182999184" lon="6.39708954732">
		<tag k="name" v="Lomstjørn" />
		<tag k="natural" v="water" />
		<tag k="ssr:stedsnr" v="304200" />
	</node>
	<node id="-400291" lat="58.5237485657" lon="6.00015013776">
		<tag k="name" v="Eikesvatnet" />
		<tag k="natural" v="water" />
		<tag k="old_name" v="Eikjevatnet;Eigevatnet" />
		<tag k="ssr:stedsnr" v="304166" />
		<tag k="water" v="lake" />
	</node>
	<node id="-400290" lat="58.7410242616" lon="6.27401702425">
		<tag k="name" v="Maudalsvatnet" />
		<tag k="natural" v="water" />
		<tag k="ssr:stedsnr" v="304136" />
		<tag k="water" v="lake" />
	</node>
	<node id="-400288" lat="58.7464999984" lon="6.45591110568">
		<tag k="name" v="Stølsvatnet" />
		<tag k="natural" v="water" />
		<tag k="ssr:stedsnr" v="304110" />
	</node>
	<node id="-400287" lat="58.6408279682" lon="6.35770823499">
		<tag k="alt_name" v="Tverrslått-tjørnane" />
		<tag k="name" v="Tverrslåtttjørnin" />
		<tag k="natural" v="water" />
		<tag k="ssr:stedsnr" v="303801" />
	</node>
	<node id="-400286" lat="58.658266664" lon="6.39381389033">
		<tag k="name" v="Rindabekken" />
		<tag k="ssr:stedsnr" v="303786" />
		<tag k="waterway" v="stream" />
	</node>
	<node id="-402333" lat="58.7438583356" lon="6.20312500329">
		<tag k="name" v="Rustebekken" />
		<tag k="ssr:stedsnr" v="846669" />
		<tag k="waterway" v="stream" />
	</node>
	<node id="-400284" lat="58.6781944464" lon="6.10320000205">
		<tag k="name" v="Heknebekken" />
		<tag k="ssr:stedsnr" v="303469" />
		<tag k="waterway" v="stream" />
	</node>
	<node id="-402331" lat="58.7258277744" lon="6.3027972224">
		<tag k="name" v="Skiptetjørn" />
		<tag k="natural" v="water" />
		<tag k="ssr:stedsnr" v="846161" />
	</node>
	<node id="-400282" lat="58.6707638919" lon="5.89638888361">
		<tag k="name" v="Fyllemyrvatnet" />
		<tag k="natural" v="water" />
		<tag k="ssr:stedsnr" v="303461" />
	</node>
	<node id="-400281" lat="58.6696799561" lon="5.92500128859">
		<tag k="alt_name" v="Djuplivatnet, stora" />
		<tag k="name" v="Stora Djuplivatnet" />
		<tag k="natural" v="water" />
		<tag k="ssr:stedsnr" v="303457" />
		<tag k="water" v="lake" />
	</node>
	<node id="-400277" lat="58.7081821683" lon="6.39978625853">
		<tag k="alt_name" v="Grytevatnet, store;Stora Grytevatnet" />
		<tag k="name" v="Store Grytevatnet" />
		<tag k="natural" v="water" />
		<tag k="ssr:stedsnr" v="303212" />
		<tag k="water" v="lake" />
	</node>
	<node id="-400276" lat="58.7122538441" lon="6.57450327813">
		<tag k="name" v="Stakkavatnet" />
		<tag k="natural" v="water" />
		<tag k="ssr:stedsnr" v="303206" />
		<tag k="water" v="lake" />
	</node>
	<node id="-402319" lat="58.667313887" lon="6.43190277179">
		<tag k="name" v="Mjåvatnet" />
		<tag k="natural" v="water" />
		<tag k="ssr:stedsnr" v="830200" />
		<tag k="water" v="lake" />
	</node>
	<node id="-402318" lat="58.6834000041" lon="6.50702222561">
		<tag k="name" v="Mylandsbekken" />
		<tag k="ssr:stedsnr" v="830178" />
		<tag k="waterway" v="stream" />
	</node>
	<node id="-400269" lat="58.6557065552" lon="5.92225546808">
		<tag k="alt_name" v="Kvesvatn" />
		<tag k="name" v="Kvesvatnet" />
		<tag k="natural" v="water" />
		<tag k="ssr:stedsnr" v="303043" />
		<tag k="water" v="lake" />
	</node>
	<node id="-400268" lat="58.6502138892" lon="6.08888611918">
		<tag k="name" v="Skjævelandsåna" />
		<tag k="ssr:stedsnr" v="303033" />
		<tag k="waterway" v="stream" />
	</node>
	<node id="-402312" lat="58.6990221024" lon="6.20541862518">
		<tag k="name" v="Brekkebekken" />
		<tag k="ssr:stedsnr" v="829103" />
		<tag k="waterway" v="stream" />
	</node>
	<node id="-402311" lat="58.6979194401" lon="6.16276943652">
		<tag k="name" v="Foren" />
		<tag k="natural" v="water" />
		<tag k="ssr:stedsnr" v="829104" />
	</node>
	<node id="-402308" lat="58.7173777814" lon="6.19744444848">
		<tag k="name" v="Heimstadnes" />
		<tag k="natural" v="cape" />
		<tag k="ssr:stedsnr" v="829087" />
	</node>
	<node id="-402307" lat="58.7142944418" lon="6.16699721694">
		<tag k="name" v="Holmen" />
		<tag k="place" v="islet" />
		<tag k="ssr:stedsnr" v="829083" />
	</node>
	<node id="-400251" lat="58.7177777809" lon="6.43476666499">
		<tag k="name" v="Urtangen" />
		<tag k="natural" v="strait" />
		<tag k="ssr:stedsnr" v="301128" />
	</node>
	<node id="-400244" lat="58.7495462753" lon="6.20383835343">
		<tag k="name" v="Kvednabekken" />
		<tag k="ssr:stedsnr" v="299702" />
		<tag k="waterway" v="stream" />
	</node>
	<node id="-400243" lat="58.7140638881" lon="6.082605547">
		<tag k="name" v="Stølsåna" />
		<tag k="ssr:stedsnr" v="299409" />
		<tag k="waterway" v="river" />
	</node>
	<node id="-400237" lat="58.6948055566" lon="6.11926110503">
		<tag k="name" v="Trodlatjørna" />
		<tag k="natural" v="water" />
		<tag k="ssr:stedsnr" v="285013" />
	</node>
	<node id="-402280" lat="58.6456833348" lon="5.91258055651">
		<tag k="name" v="Klomretjørn" />
		<tag k="natural" v="water" />
		<tag k="ssr:stedsnr" v="812202" />
	</node>
	<node id="-400230" lat="58.7142055561" lon="6.38050277242">
		<tag k="name" v="Longsfossen" />
		<tag k="natural" v="waterfall" />
		<tag k="ssr:stedsnr" v="283203" />
	</node>
	<node id="-400225" lat="58.7279972184" lon="6.24695833627">
		<tag k="name" v="Tangen" />
		<tag k="natural" v="cape" />
		<tag k="ssr:stedsnr" v="283073" />
	</node>
	<node id="-400223" lat="58.7219722194" lon="6.21405555566">
		<tag k="name" v="Storåna" />
		<tag k="ssr:stedsnr" v="283066" />
		<tag k="waterway" v="river" />
	</node>
	<node id="-400221" lat="58.7142749965" lon="6.18745000245">
		<tag k="name" v="Klubbavika" />
		<tag k="natural" v="bay" />
		<tag k="ssr:stedsnr" v="283050" />
	</node>
	<node id="-402267" lat="58.5494944416" lon="6.10112499945">
		<tag k="name" v="Langevatnet" />
		<tag k="natural" v="water" />
		<tag k="ssr:stedsnr" v="811992" />
		<tag k="water" v="lake" />
	</node>
	<node id="-400217" lat="58.6538750018" lon="6.28419999625">
		<tag k="name" v="Klampåna" />
		<tag k="ssr:stedsnr" v="282788" />
		<tag k="waterway" v="river" />
	</node>
	<node id="-400215" lat="58.6730583341" lon="6.33044167303">
		<tag k="name" v="Indra Stegatjørn" />
		<tag k="natural" v="water" />
		<tag k="ssr:stedsnr" v="282283" />
	</node>
	<node id="-400209" lat="58.6573055584" lon="6.19114166615">
		<tag k="name" v="Holmabekken" />
		<tag k="ssr:stedsnr" v="282039" />
		<tag k="waterway" v="stream" />
	</node>
	<node id="-400205" lat="58.6074500018" lon="6.24188333781">
		<tag k="name" v="Ståbeltjørna" />
		<tag k="natural" v="water" />
		<tag k="ssr:stedsnr" v="269395" />
	</node>
	<node id="-400203" lat="58.6225944434" lon="6.21940834115">
		<tag k="name" v="Bukkodden" />
		<tag k="natural" v="cape" />
		<tag k="ssr:stedsnr" v="269390" />
	</node>
	<node id="-402249" lat="58.6229861147" lon="5.97904721428">
		<tag k="name" v="Nordre Bakkanuttjørn" />
		<tag k="natural" v="water" />
		<tag k="ssr:stedsnr" v="811267" />
	</node>
	<node id="-402248" lat="58.5529833335" lon="5.96712499606">
		<tag k="name" v="Sveinstølstjørna" />
		<tag k="natural" v="water" />
		<tag k="ssr:stedsnr" v="811255" />
	</node>
	<node id="-402245" lat="58.5674527769" lon="6.0689055484">
		<tag k="name" v="Soksåa" />
		<tag k="ssr:stedsnr" v="811026" />
		<tag k="waterway" v="river" />
	</node>
	<node id="-402244" lat="58.590038893" lon="6.12800277473">
		<tag k="name" v="Skogatjørna" />
		<tag k="natural" v="water" />
		<tag k="ssr:stedsnr" v="811019" />
	</node>
	<node id="-402239" lat="58.7300083288" lon="6.33753332677">
		<tag k="name" v="Leitetjørna" />
		<tag k="natural" v="water" />
		<tag k="ssr:stedsnr" v="790216" />
	</node>
	<node id="-402238" lat="58.7254213399" lon="6.24141366642">
		<tag k="alt_name" v="Roalstjørna" />
		<tag k="name" v="Roaldsvatnet" />
		<tag k="natural" v="water" />
		<tag k="ssr:stedsnr" v="790107" />
		<tag k="water" v="lake" />
	</node>
	<node id="-402237" lat="58.7677836876" lon="6.2299671875">
		<tag k="alt_name" v="Ramsvatnet" />
		<tag k="name" v="Ramsvatn" />
		<tag k="natural" v="water" />
		<tag k="ssr:stedsnr" v="789860" />
		<tag k="water" v="lake" />
	</node>
	<node id="-402236" lat="58.6489305594" lon="6.40465278516">
		<tag k="name" v="Fiskeløysvatnet" />
		<tag k="natural" v="water" />
		<tag k="ssr:stedsnr" v="789805" />
		<tag k="water" v="lake" />
	</node>
	<node id="-402233" lat="58.721186114" lon="6.0828555512">
		<tag k="name" v="Stølsvatnet" />
		<tag k="natural" v="water" />
		<tag k="ssr:stedsnr" v="789483" />
		<tag k="water" v="lake" />
	</node>
	<node id="-402230" lat="58.7000849977" lon="6.20080884451">
		<tag k="name" v="Lona" />
		<tag k="natural" v="bay" />
		<tag k="ssr:stedsnr" v="789464" />
	</node>
	<node id="-402228" lat="58.6908722182" lon="6.05352499618">
		<tag k="alt_name" v="Berestjørna" />
		<tag k="name" v="Berestjørni" />
		<tag k="natural" v="water" />
		<tag k="ssr:stedsnr" v="789455" />
	</node>
	<node id="-402227" lat="58.741608331" lon="6.57026389587">
		<tag k="alt_name" v="Kvislatjørna" />
		<tag k="name" v="Kvitletjørna" />
		<tag k="natural" v="water" />
		<tag k="ssr:stedsnr" v="789245" />
	</node>
	<node id="-402226" lat="58.6853527806" lon="6.26370832959">
		<tag k="name" v="Lassenes" />
		<tag k="natural" v="cape" />
		<tag k="ssr:stedsnr" v="789205" />
	</node>
	<node id="-402222" lat="58.5764777811" lon="5.99958611392">
		<tag k="name" v="Gåslandsvatnet" />
		<tag k="natural" v="water" />
		<tag k="ssr:stedsnr" v="789091" />
	</node>
	<node id="-402219" lat="58.6154277771" lon="5.96003054724">
		<tag k="name" v="Tyssa" />
		<tag k="ssr:stedsnr" v="789018" />
		<tag k="waterway" v="stream" />
	</node>
	<node id="-402217" lat="58.6024546448" lon="5.92459896679">
		<tag k="name" v="Sandvatnet" />
		<tag k="natural" v="water" />
		<tag k="ssr:stedsnr" v="789003" />
	</node>
	<node id="-402210" lat="58.705394446" lon="6.23173333214">
		<tag k="name" v="Krokatjørna" />
		<tag k="natural" v="water" />
		<tag k="ssr:stedsnr" v="788221" />
	</node>
	<node id="-402209" lat="58.7179694416" lon="6.53247777047">
		<tag k="name" v="Urdalstjørna" />
		<tag k="natural" v="water" />
		<tag k="ssr:stedsnr" v="788219" />
	</node>
	<node id="-402208" lat="58.6905821875" lon="6.23739341891">
		<tag k="alt_name" v="Podlane" />
		<tag k="name" v="Pollane" />
		<tag k="natural" v="water" />
		<tag k="ssr:stedsnr" v="788212" />
	</node>
	<node id="-402207" lat="58.7020335882" lon="6.43086204169">
		<tag k="alt_name" v="Lauarvatnet;Lauarvatn" />
		<tag k="name" v="Laugarvatnet" />
		<tag k="natural" v="water" />
		<tag k="ssr:stedsnr" v="788213" />
		<tag k="water" v="lake" />
	</node>
	<node id="-402201" lat="58.6233583341" lon="6.12898610403">
		<tag k="alt_name" v="Hedlevatn" />
		<tag k="name" v="Hellevatnet" />
		<tag k="natural" v="water" />
		<tag k="ssr:stedsnr" v="788014" />
	</node>
	<node id="-402198" lat="58.7758361092" lon="6.20015555964">
		<tag k="name" v="Løyndalstjørna" />
		<tag k="natural" v="water" />
		<tag k="ssr:stedsnr" v="787399" />
	</node>
	<node id="-402197" lat="58.7396722202" lon="6.10472777396">
		<tag k="name" v="Kråketjørnbekken" />
		<tag k="ssr:stedsnr" v="787375" />
		<tag k="waterway" v="stream" />
	</node>
	<node id="-402195" lat="58.7435360631" lon="6.14571049758">
		<tag k="name" v="Ytre Vedravatnet" />
		<tag k="natural" v="water" />
		<tag k="ssr:stedsnr" v="787352" />
		<tag k="water" v="lake" />
	</node>
	<node id="-402194" lat="58.6975527763" lon="6.34477778287">
		<tag k="name" v="Bergtjørn" />
		<tag k="natural" v="water" />
		<tag k="ssr:stedsnr" v="787275" />
	</node>
	<node id="-402186" lat="58.6420722217" lon="6.09880277789">
		<tag k="name" v="Lauvtjørna" />
		<tag k="natural" v="water" />
		<tag k="ssr:stedsnr" v="786887" />
	</node>
	<node id="-402185" lat="58.6339277815" lon="6.08872500222">
		<tag k="name" v="Litlå" />
		<tag k="ssr:stedsnr" v="786885" />
		<tag k="waterway" v="stream" />
	</node>
	<node id="-402184" lat="58.6323249993" lon="6.03548888858">
		<tag k="name" v="Tvitjørn" />
		<tag k="natural" v="water" />
		<tag k="ssr:stedsnr" v="786774" />
	</node>
	<node id="-402176" lat="58.7429638863" lon="6.2286444451">
		<tag k="name" v="Forekamtjørna" />
		<tag k="natural" v="water" />
		<tag k="ssr:stedsnr" v="785621" />
	</node>
	<node id="-402175" lat="58.7222583292" lon="6.06116945024">
		<tag k="name" v="Erlomstjørna" />
		<tag k="natural" v="water" />
		<tag k="ssr:stedsnr" v="785361" />
	</node>
	<node id="-402158" lat="58.6804138897" lon="6.50171388268">
		<tag k="name" v="Skogabekken" />
		<tag k="ssr:stedsnr" v="769192" />
		<tag k="waterway" v="stream" />
	</node>
	<node id="-402154" lat="58.7159555554" lon="6.12429999561">
		<tag k="name" v="Joruntjørna" />
		<tag k="natural" v="water" />
		<tag k="ssr:stedsnr" v="768406" />
	</node>
	<node id="-402137" lat="58.6565749959" lon="6.21710000033">
		<tag k="name" v="Ronna Tjødnå" />
		<tag k="natural" v="water" />
		<tag k="ssr:stedsnr" v="767046" />
	</node>
	<node id="-402134" lat="58.6811694419" lon="6.02671667233">
		<tag k="name" v="Litle Svartetjørn" />
		<tag k="natural" v="water" />
		<tag k="ssr:stedsnr" v="758373" />
	</node>
	<node id="-402131" lat="58.6203638923" lon="6.21892499469">
		<tag k="name" v="Dyråsvika" />
		<tag k="natural" v="bay" />
		<tag k="ssr:stedsnr" v="755400" />
	</node>
	<node id="-402126" lat="58.5255388875" lon="6.02279166731">
		<tag k="name" v="Livarshølen" />
		<tag k="place" v="locality" />
		<tag k="ssr:stedsnr" v="751938" />
	</node>
	<node id="-402120" lat="58.5497555531" lon="6.01849999401">
		<tag k="name" v="Grunnetjørn" />
		<tag k="natural" v="water" />
		<tag k="ssr:stedsnr" v="751842" />
	</node>
	<node id="-402118" lat="58.5777249971" lon="6.00248888288">
		<tag k="name" v="Sælåa" />
		<tag k="ssr:stedsnr" v="751716" />
		<tag k="waterway" v="river" />
	</node>
	<node id="-400502" lat="58.612124996" lon="6.26558889676">
		<tag k="name" v="Strangebærtjørna" />
		<tag k="natural" v="water" />
		<tag k="ssr:stedsnr" v="390366" />
	</node>
	<node id="-402113" lat="58.6542555525" lon="5.99021666061">
		<tag k="name" v="Ytratjørn" />
		<tag k="natural" v="water" />
		<tag k="ssr:stedsnr" v="751338" />
	</node>
	<node id="-402110" lat="58.6223777811" lon="5.97583611633">
		<tag k="name" v="Langetjørn" />
		<tag k="natural" v="water" />
		<tag k="ssr:stedsnr" v="751305" />
	</node>
	<node id="-402103" lat="58.5744388894" lon="5.98895833218">
		<tag k="name" v="Geitatjørna" />
		<tag k="natural" v="water" />
		<tag k="ssr:stedsnr" v="751268" />
	</node>
	<node id="-402102" lat="58.6625910801" lon="5.93004764525">
		<tag k="name" v="Kålivatn" />
		<tag k="natural" v="water" />
		<tag k="ssr:stedsnr" v="751247" />
		<tag k="water" v="lake" />
	</node>
	<node id="-402096" lat="58.5714555562" lon="5.93705277185">
		<tag k="name" v="Kupollen" />
		<tag k="natural" v="water" />
		<tag k="ssr:stedsnr" v="751165" />
	</node>
	<node id="-402095" lat="58.6190472244" lon="6.18360278359">
		<tag k="name" v="Olstivika" />
		<tag k="natural" v="bay" />
		<tag k="ssr:stedsnr" v="751112" />
	</node>
	<node id="-402094" lat="58.6082194428" lon="6.18607222878">
		<tag k="name" v="Flæsebekken" />
		<tag k="ssr:stedsnr" v="751103" />
		<tag k="waterway" v="stream" />
	</node>
	<node id="-402093" lat="58.616452776" lon="6.20928055255">
		<tag k="name" v="Mærstadvika" />
		<tag k="natural" v="bay" />
		<tag k="ssr:stedsnr" v="751101" />
	</node>
	<node id="-402089" lat="58.5788777771" lon="6.09480832592">
		<tag k="name" v="Tvitjørnene" />
		<tag k="natural" v="water" />
		<tag k="ssr:stedsnr" v="751027" />
	</node>
	<node id="-402080" lat="58.7299077274" lon="6.5753203756">
		<tag k="alt_name" v="Holmavatnet, store;Stora Holmevatnet;Stora Holmavatnet" />
		<tag k="name" v="Store Holmavatnet" />
		<tag k="natural" v="water" />
		<tag k="ssr:stedsnr" v="729263" />
		<tag k="water" v="lake" />
	</node>
	<node id="-402079" lat="58.7286722247" lon="6.28480833975">
		<tag k="alt_name" v="Stora Øykjahomvatnet;Øykjavatnet, store" />
		<tag k="name" v="Store Øykjavatnet" />
		<tag k="natural" v="water" />
		<tag k="ssr:stedsnr" v="729259" />
	</node>
	<node id="-402077" lat="58.7280166705" lon="6.5561944404">
		<tag k="name" v="Bergetjørna" />
		<tag k="natural" v="water" />
		<tag k="ssr:stedsnr" v="729244" />
	</node>
	<node id="-402075" lat="58.7095670161" lon="6.22708837674">
		<tag k="name" v="Ytstebekktjørna" />
		<tag k="natural" v="water" />
		<tag k="ssr:stedsnr" v="729241" />
	</node>
	<node id="-402074" lat="58.715043325" lon="6.31308273029">
		<tag k="alt_name" v="Kvednavatnet" />
		<tag k="name" v="Kvernavatnet" />
		<tag k="natural" v="water" />
		<tag k="ssr:stedsnr" v="729238" />
		<tag k="water" v="lake" />
	</node>
	<node id="-402071" lat="58.7411583303" lon="6.26430277416">
		<tag k="name" v="Lanes" />
		<tag k="natural" v="cape" />
		<tag k="ssr:stedsnr" v="729131" />
	</node>
	<node id="-402070" lat="58.6449816849" lon="6.351665934">
		<tag k="alt_name" v="Bjødnetovatnet" />
		<tag k="name" v="Bjørnetovatnet" />
		<tag k="natural" v="water" />
		<tag k="ssr:stedsnr" v="728793" />
		<tag k="water" v="lake" />
	</node>
	<node id="-402069" lat="58.6420750018" lon="6.40157777516">
		<tag k="name" v="Berssetjørna" />
		<tag k="natural" v="water" />
		<tag k="ssr:stedsnr" v="728786" />
		<tag k="water" v="lake" />
	</node>
	<node id="-402068" lat="58.6537361097" lon="6.41630834048">
		<tag k="alt_name" v="Krogevatnet" />
		<tag k="name" v="Krokevatnet" />
		<tag k="natural" v="water" />
		<tag k="ssr:stedsnr" v="728771" />
		<tag k="water" v="lake" />
	</node>
	<node id="-402067" lat="58.6444861195" lon="6.23007937984">
		<tag k="name" v="Svartetjernet" />
		<tag k="natural" v="water" />
		<tag k="ssr:stedsnr" v="728756" />
	</node>
	<node id="-402066" lat="58.6652245669" lon="6.43979699075">
		<tag k="name" v="Holmevatnet" />
		<tag k="natural" v="water" />
		<tag k="ssr:stedsnr" v="728748" />
		<tag k="water" v="lake" />
	</node>
	<node id="-402065" lat="58.6739444415" lon="6.31431111519">
		<tag k="name" v="Stigatjørna" />
		<tag k="natural" v="water" />
		<tag k="ssr:stedsnr" v="728732" />
	</node>
	<node id="-402057" lat="58.6858888884" lon="6.06847499598">
		<tag k="alt_name" v="Krogarvatnet" />
		<tag k="name" v="Krokavatnet" />
		<tag k="natural" v="water" />
		<tag k="ssr:stedsnr" v="728444" />
		<tag k="water" v="lake" />
	</node>
	<node id="-402056" lat="58.6706249958" lon="5.94602222277">
		<tag k="name" v="Ellivatnet" />
		<tag k="natural" v="water" />
		<tag k="ssr:stedsnr" v="728436" />
		<tag k="water" v="lake" />
	</node>
	<node id="-402054" lat="58.6869499972" lon="6.32877499616">
		<tag k="alt_name" v="Hedlevatn" />
		<tag k="name" v="Hellervatnet" />
		<tag k="natural" v="water" />
		<tag k="ssr:stedsnr" v="728165" />
	</node>
	<node id="-402048" lat="58.6544444418" lon="5.96254999253">
		<tag k="alt_name" v="Røyslandsvatn" />
		<tag k="name" v="Røyslandsvatnet" />
		<tag k="natural" v="water" />
		<tag k="ssr:stedsnr" v="728054" />
		<tag k="water" v="lake" />
	</node>
	<node id="-400490" lat="58.608130558" lon="6.14256388896">
		<tag k="name" v="Ålabekken" />
		<tag k="ssr:stedsnr" v="386773" />
		<tag k="waterway" v="stream" />
	</node>
	<node id="-402040" lat="58.7346583322" lon="6.49583611107">
		<tag k="name" v="Oretjørna" />
		<tag k="natural" v="water" />
		<tag k="ssr:stedsnr" v="727351" />
	</node>
	<node id="-402037" lat="58.6436022237" lon="6.23068018518">
		<tag k="name" v="Svartetjørnane" />
		<tag k="natural" v="water" />
		<tag k="ssr:stedsnr" v="726901" />
		<tag k="water" v="lake" />
	</node>
	<node id="-402032" lat="58.6459416628" lon="6.00499167295">
		<tag k="name" v="Grastjørn" />
		<tag k="natural" v="water" />
		<tag k="ssr:stedsnr" v="726833" />
	</node>
	<node id="-402027" lat="58.7711194485" lon="6.17918611653">
		<tag k="name" v="Langatjørna" />
		<tag k="natural" v="water" />
		<tag k="ssr:stedsnr" v="726410" />
	</node>
	<node id="-402026" lat="58.6670944402" lon="6.01923611541">
		<tag k="name" v="Gamstjørna" />
		<tag k="natural" v="water" />
		<tag k="ssr:stedsnr" v="726409" />
		<tag k="water" v="lake" />
	</node>
	<node id="-402021" lat="58.7026055529" lon="6.62023333166">
		<tag k="name" v="Svartatjørna" />
		<tag k="natural" v="water" />
		<tag k="ssr:stedsnr" v="726223" />
	</node>
	<node id="-402017" lat="58.6983362601" lon="6.46833217749">
		<tag k="name" v="Ytrebekk" />
		<tag k="ssr:stedsnr" v="726197" />
		<tag k="waterway" v="stream" />
	</node>
	<node id="-402012" lat="58.7270638858" lon="6.31077222733">
		<tag k="name" v="Tangjen" />
		<tag k="natural" v="cape" />
		<tag k="ssr:stedsnr" v="724168" />
	</node>
	<node id="-402000" lat="58.691941665" lon="6.52917777803">
		<tag k="name" v="Odredalsbekken" />
		<tag k="ssr:stedsnr" v="709221" />
		<tag k="waterway" v="stream" />
	</node>
	<node id="-401993" lat="58.6831361098" lon="6.5207250071">
		<tag k="name" v="Bjørnestadbekken" />
		<tag k="ssr:stedsnr" v="708178" />
		<tag k="waterway" v="stream" />
	</node>
	<node id="-401989" lat="58.7147277736" lon="6.19169722282">
		<tag k="name" v="Kjøreneset" />
		<tag k="natural" v="cape" />
		<tag k="ssr:stedsnr" v="708098" />
	</node>
	<node id="-401986" lat="58.7039722224" lon="6.27995277772">
		<tag k="name" v="Ytra Forelivatnet" />
		<tag k="natural" v="water" />
		<tag k="ssr:stedsnr" v="707251" />
		<tag k="water" v="lake" />
	</node>
	<node id="-401984" lat="58.6923138891" lon="6.21508055845">
		<tag k="name" v="Flesebekken" />
		<tag k="ssr:stedsnr" v="707108" />
		<tag k="waterway" v="stream" />
	</node>
	<node id="-401983" lat="58.693286114" lon="6.19206110972">
		<tag k="name" v="Malmeisåna" />
		<tag k="ssr:stedsnr" v="707106" />
		<tag k="waterway" v="river" />
	</node>
	<node id="-401982" lat="58.7133944462" lon="6.04227499582">
		<tag k="name" v="Øvre Tvitjørna" />
		<tag k="natural" v="water" />
		<tag k="ssr:stedsnr" v="707093" />
	</node>
	<node id="-401976" lat="58.6697166705" lon="6.35619166334">
		<tag k="name" v="Risøyna" />
		<tag k="place" v="locality" />
		<tag k="ssr:stedsnr" v="706342" />
	</node>
	<node id="-401975" lat="58.6889444489" lon="6.33445555439">
		<tag k="name" v="Hedletjørn" />
		<tag k="natural" v="water" />
		<tag k="ssr:stedsnr" v="706326" />
	</node>
	<node id="-401974" lat="58.6752666658" lon="6.34164167021">
		<tag k="name" v="Trikanta tjørna" />
		<tag k="natural" v="water" />
		<tag k="ssr:stedsnr" v="706308" />
	</node>
	<node id="-401972" lat="58.6813388879" lon="6.2492416724">
		<tag k="name" v="Strennene" />
		<tag k="natural" v="beach" />
		<tag k="ssr:stedsnr" v="706292" />
	</node>
	<node id="-401971" lat="58.6785972225" lon="6.19460556032">
		<tag k="name" v="Kvidelitjørna" />
		<tag k="natural" v="water" />
		<tag k="ssr:stedsnr" v="706260" />
	</node>
	<node id="-401957" lat="58.5376972187" lon="6.03249445103">
		<tag k="name" v="Holmen" />
		<tag k="natural" v="cape" />
		<tag k="ssr:stedsnr" v="690934" />
	</node>
	<node id="-401949" lat="58.5748861141" lon="6.13746945246">
		<tag k="name" v="Hansatjørna" />
		<tag k="natural" v="water" />
		<tag k="ssr:stedsnr" v="690791" />
	</node>
	<node id="-401946" lat="58.5676555556" lon="6.03383056085">
		<tag k="name" v="Verslandsvatnet" />
		<tag k="natural" v="water" />
		<tag k="ssr:stedsnr" v="690743" />
		<tag k="water" v="lake" />
	</node>
	<node id="-401943" lat="58.6640611129" lon="5.95074443675">
		<tag k="name" v="Kråketjørna" />
		<tag k="natural" v="water" />
		<tag k="ssr:stedsnr" v="690359" />
	</node>
	<node id="-401931" lat="58.5714833378" lon="5.98515277731">
		<tag k="name" v="Uvatjørn" />
		<tag k="natural" v="water" />
		<tag k="ssr:stedsnr" v="690287" />
	</node>
	<node id="-401930" lat="58.6500194435" lon="5.89257221827">
		<tag k="name" v="Ryggjen" />
		<tag k="natural" v="cape" />
		<tag k="ssr:stedsnr" v="690257" />
	</node>
	<node id="-401928" lat="58.6719805586" lon="5.93849721554">
		<tag k="name" v="Kjydlingtjørna" />
		<tag k="natural" v="water" />
		<tag k="ssr:stedsnr" v="690254" />
	</node>
	<node id="-401926" lat="58.6358944434" lon="5.91351665849">
		<tag k="name" v="Guritjørn" />
		<tag k="natural" v="water" />
		<tag k="ssr:stedsnr" v="690205" />
	</node>
	<node id="-401923" lat="58.6235388859" lon="6.18961944066">
		<tag k="name" v="Skoredalsvika" />
		<tag k="natural" v="bay" />
		<tag k="ssr:stedsnr" v="690102" />
	</node>
	<node id="-401918" lat="58.6081397834" lon="6.21498857285">
		<tag k="name" v="Lona" />
		<tag k="natural" v="water" />
		<tag k="ssr:stedsnr" v="690087" />
	</node>
	<node id="-401917" lat="58.594544449" lon="6.14955000277">
		<tag k="name" v="Lona" />
		<tag k="place" v="locality" />
		<tag k="ssr:stedsnr" v="690025" />
	</node>
	<node id="-401914" lat="58.7184694444" lon="6.10655833233">
		<tag k="name" v="Øvre Viksteintjørna" />
		<tag k="natural" v="water" />
		<tag k="ssr:stedsnr" v="673283" />
		<tag k="water" v="lake" />
	</node>
	<node id="-401913" lat="58.7586451283" lon="6.24790636877">
		<tag k="name" v="Indra Vinjavatnet" />
		<tag k="natural" v="water" />
		<tag k="ssr:stedsnr" v="668851" />
		<tag k="water" v="lake" />
	</node>
	<node id="-401912" lat="58.7739750042" lon="6.2257194378">
		<tag k="alt_name" v="Låretjørn" />
		<tag k="name" v="Låvetjørni" />
		<tag k="natural" v="water" />
		<tag k="ssr:stedsnr" v="668847" />
	</node>
	<node id="-401911" lat="58.776245648" lon="6.16794287537">
		<tag k="name" v="Tverromdalstjørna" />
		<tag k="natural" v="water" />
		<tag k="ssr:stedsnr" v="668610" />
	</node>
	<node id="-401909" lat="58.7316055565" lon="6.32220278026">
		<tag k="name" v="Småtjørna" />
		<tag k="natural" v="water" />
		<tag k="ssr:stedsnr" v="668275" />
	</node>
	<node id="-401908" lat="58.7362750015" lon="6.43331388882">
		<tag k="name" v="Rundatjørna" />
		<tag k="natural" v="water" />
		<tag k="ssr:stedsnr" v="668273" />
	</node>
	<node id="-401907" lat="58.7273204872" lon="6.27456723185">
		<tag k="alt_name" v="Øykjavatnet, l" />
		<tag k="name" v="Litle Øykjavatnet" />
		<tag k="natural" v="water" />
		<tag k="ssr:stedsnr" v="668258" />
		<tag k="water" v="lake" />
	</node>
	<node id="-401905" lat="58.7171263064" lon="6.35554592687">
		<tag k="name" v="Kollhomtjørna" />
		<tag k="natural" v="water" />
		<tag k="ssr:stedsnr" v="668244" />
	</node>
	<node id="-401757" lat="58.5754888932" lon="5.90467500441">
		<tag k="name" v="Mossatjørna" />
		<tag k="natural" v="water" />
		<tag k="ssr:stedsnr" v="629157" />
	</node>
	<node id="-401895" lat="58.6641055593" lon="6.39714444634">
		<tag k="name" v="Hellersbekken" />
		<tag k="ssr:stedsnr" v="667726" />
		<tag k="waterway" v="stream" />
	</node>
	<node id="-401891" lat="58.6742666636" lon="6.0153111048">
		<tag k="name" v="Holmavatnet" />
		<tag k="natural" v="water" />
		<tag k="ssr:stedsnr" v="667421" />
		<tag k="water" v="lake" />
	</node>
	<node id="-401890" lat="58.704186108" lon="6.26743055731">
		<tag k="alt_name" v="Vedravatnet" />
		<tag k="name" v="Vedravatn" />
		<tag k="natural" v="water" />
		<tag k="ssr:stedsnr" v="667219" />
	</node>
	<node id="-401888" lat="58.7070361123" lon="6.52363332653">
		<tag k="name" v="Øyartjørna" />
		<tag k="natural" v="water" />
		<tag k="ssr:stedsnr" v="667211" />
	</node>
	<node id="-401879" lat="58.6179111119" lon="6.19538333078">
		<tag k="alt_name" v="Ørdalsvatnet" />
		<tag k="name" v="Ørsdalsvatnet" />
		<tag k="natural" v="water" />
		<tag k="ssr:stedsnr" v="667039" />
		<tag k="water" v="lake" />
	</node>
	<node id="-401878" lat="58.6285749998" lon="6.03058055572">
		<tag k="alt_name" v="Krøysatjørn" />
		<tag k="name" v="Krøysatjørni" />
		<tag k="natural" v="water" />
		<tag k="ssr:stedsnr" v="667023" />
	</node>
	<node id="-401870" lat="58.6286499962" lon="6.26381111366">
		<tag k="name" v="Glipsbekken" />
		<tag k="ssr:stedsnr" v="665948" />
		<tag k="waterway" v="stream" />
	</node>
	<node id="-401867" lat="58.6522436552" lon="6.2410247146">
		<tag k="name" v="Linnevatna" />
		<tag k="natural" v="water" />
		<tag k="ssr:stedsnr" v="665906" />
		<tag k="water" v="lake" />
	</node>
	<node id="-401865" lat="58.6378361093" lon="6.13028334017">
		<tag k="name" v="Lurabekken" />
		<tag k="ssr:stedsnr" v="665853" />
		<tag k="waterway" v="stream" />
	</node>
	<node id="-401862" lat="58.6380722231" lon="6.00900832764">
		<tag k="name" v="Høybutjørn" />
		<tag k="natural" v="water" />
		<tag k="ssr:stedsnr" v="665832" />
	</node>
	<node id="-401856" lat="58.6535194428" lon="6.08173055124">
		<tag k="name" v="Hanabekken" />
		<tag k="ssr:stedsnr" v="665523" />
		<tag k="waterway" v="stream" />
	</node>
	<node id="-400528" lat="58.7200972246" lon="6.32923888208">
		<tag k="name" v="Steindokktjørn" />
		<tag k="natural" v="water" />
		<tag k="ssr:stedsnr" v="404205" />
	</node>
	<node id="-401851" lat="58.735288893" lon="6.07942499568">
		<tag k="name" v="Dalatjørna" />
		<tag k="natural" v="water" />
		<tag k="ssr:stedsnr" v="665387" />
	</node>
	<node id="-401848" lat="58.7049249992" lon="6.37004721696">
		<tag k="name" v="Sjebbustronda" />
		<tag k="natural" v="beach" />
		<tag k="ssr:stedsnr" v="665281" />
	</node>
	<node id="-401843" lat="58.6960250043" lon="6.45295278278">
		<tag k="name" v="Ytrebekktjørna" />
		<tag k="natural" v="water" />
		<tag k="ssr:stedsnr" v="665184" />
	</node>
	<node id="-401842" lat="58.6956055546" lon="6.47445833882">
		<tag k="name" v="Bulegbekken" />
		<tag k="ssr:stedsnr" v="665181" />
		<tag k="waterway" v="stream" />
	</node>
	<node id="-401829" lat="58.7233944413" lon="6.06214444316">
		<tag k="name" v="Litlatjørna" />
		<tag k="natural" v="water" />
		<tag k="ssr:stedsnr" v="663371" />
	</node>
	<node id="-401828" lat="58.7223444434" lon="6.07052500513">
		<tag k="name" v="Erlomsbekken" />
		<tag k="ssr:stedsnr" v="663368" />
		<tag k="waterway" v="stream" />
	</node>
	<node id="-401825" lat="58.7807972254" lon="6.1721027707">
		<tag k="name" v="Tverromdalsåna" />
		<tag k="ssr:stedsnr" v="648345" />
		<tag k="waterway" v="river" />
	</node>
	<node id="-401821" lat="58.7039166646" lon="6.22566944872">
		<tag k="name" v="Lomtjørn" />
		<tag k="natural" v="water" />
		<tag k="ssr:stedsnr" v="648147" />
	</node>
	<node id="-401817" lat="58.6833222222" lon="6.46342223021">
		<tag k="name" v="Langelona" />
		<tag k="place" v="locality" />
		<tag k="ssr:stedsnr" v="647267" />
	</node>
	<node id="-401816" lat="58.6821773743" lon="6.54529730651">
		<tag k="name" v="Kalvatovatnet" />
		<tag k="natural" v="water" />
		<tag k="ssr:stedsnr" v="647190" />
	</node>
	<node id="-402500" lat="58.726286111" lon="6.31391667218">
		<tag k="alt_name" v="Bleiavatnet, øvre;Øvra Bleievatnet" />
		<tag k="name" v="Øvre Bleiavatnet" />
		<tag k="natural" v="water" />
		<tag k="ssr:stedsnr" v="911245" />
		<tag k="water" v="lake" />
	</node>
	<node id="-401810" lat="58.7185333332" lon="6.15096666661">
		<tag k="name" v="Myrbekktjørna" />
		<tag k="natural" v="water" />
		<tag k="ssr:stedsnr" v="646413" />
	</node>
	<node id="-401805" lat="58.7034611102" lon="6.20087500134">
		<tag k="name" v="Vika" />
		<tag k="natural" v="bay" />
		<tag k="ssr:stedsnr" v="646082" />
	</node>
	<node id="-401802" lat="58.6718805595" lon="6.18712221957">
		<tag k="name" v="Venjetjørn" />
		<tag k="natural" v="water" />
		<tag k="ssr:stedsnr" v="645221" />
	</node>
	<node id="-401801" lat="58.6658361135" lon="6.25924165809">
		<tag k="name" v="Nauabakktjørna" />
		<tag k="natural" v="water" />
		<tag k="ssr:stedsnr" v="645046" />
	</node>
	<node id="-401800" lat="58.6633583306" lon="6.26443888388">
		<tag k="name" v="Kjematjørnane" />
		<tag k="natural" v="water" />
		<tag k="ssr:stedsnr" v="645044" />
	</node>
	<node id="-401797" lat="58.606477723" lon="6.25358837293">
		<tag k="name" v="Indra Mærstadvatnet" />
		<tag k="natural" v="water" />
		<tag k="ssr:stedsnr" v="633428" />
		<tag k="water" v="lake" />
	</node>
	<node id="-401790" lat="58.5295055539" lon="6.03904166387">
		<tag k="name" v="Krossnes" />
		<tag k="natural" v="cape" />
		<tag k="ssr:stedsnr" v="629942" />
	</node>
	<node id="-401788" lat="58.5293583366" lon="6.02968611466">
		<tag k="name" v="Tangane" />
		<tag k="place" v="island" />
		<tag k="ssr:stedsnr" v="629936" />
	</node>
	<node id="-401783" lat="58.5566416648" lon="6.02404166693">
		<tag k="name" v="Tvitjørnene" />
		<tag k="natural" v="water" />
		<tag k="ssr:stedsnr" v="629843" />
	</node>
	<node id="-401780" lat="58.5698305548" lon="6.12417221515">
		<tag k="name" v="Tvitjørnene" />
		<tag k="natural" v="water" />
		<tag k="ssr:stedsnr" v="629762" />
	</node>
	<node id="-401778" lat="58.6514527794" lon="5.9513916695">
		<tag k="name" v="Tangjen" />
		<tag k="natural" v="cape" />
		<tag k="ssr:stedsnr" v="629325" />
	</node>
	<node id="-401776" lat="58.6342361127" lon="5.98819166414">
		<tag k="name" v="Musatjørn" />
		<tag k="natural" v="water" />
		<tag k="ssr:stedsnr" v="629291" />
	</node>
	<node id="-401772" lat="58.6207638928" lon="5.98552777995">
		<tag k="name" v="Heimre Bakkanuttjørn" />
		<tag k="natural" v="water" />
		<tag k="ssr:stedsnr" v="629274" />
	</node>
	<node id="-401771" lat="58.6131638913" lon="5.98251944126">
		<tag k="name" v="Steinskarbekken" />
		<tag k="ssr:stedsnr" v="629271" />
		<tag k="waterway" v="stream" />
	</node>
	<node id="-401769" lat="58.546802779" lon="5.96255555647">
		<tag k="name" v="Raubartjørna" />
		<tag k="natural" v="water" />
		<tag k="ssr:stedsnr" v="629256" />
	</node>
	<node id="-401768" lat="58.5439666673" lon="5.96412778134">
		<tag k="name" v="Børildstjørna" />
		<tag k="natural" v="water" />
		<tag k="ssr:stedsnr" v="629251" />
	</node>
	<node id="-401766" lat="58.5656277803" lon="5.98092777107">
		<tag k="name" v="Dybingen" />
		<tag k="natural" v="water" />
		<tag k="ssr:stedsnr" v="629238" />
		<tag k="water" v="lake" />
	</node>
	<node id="-401765" lat="58.6642555887" lon="5.90437805988">
		<tag k="name" v="Stiatjørn" />
		<tag k="natural" v="water" />
		<tag k="ssr:stedsnr" v="629222" />
		<tag k="water" v="lake" />
	</node>
	<node id="-401758" lat="58.5624916628" lon="5.89569722305">
		<tag k="name" v="Fisketjørna" />
		<tag k="natural" v="water" />
		<tag k="ssr:stedsnr" v="629162" />
	</node>
	<node id="-401125" lat="58.6608027773" lon="6.30940833706">
		<tag k="name" v="Kvednabekken" />
		<tag k="ssr:stedsnr" v="221756" />
		<tag k="waterway" v="stream" />
	</node>
	<node id="-401750" lat="58.7584721103" lon="6.49398417027">
		<tag k="name" v="Orelo" />
		<tag k="natural" v="water" />
		<tag k="ssr:stedsnr" v="627100" />
		<tag k="water" v="lake" />
	</node>
	<node id="-400441" lat="58.6967421572" lon="6.25423341487">
		<tag k="name" v="Grasdalstjørna" />
		<tag k="natural" v="water" />
		<tag k="ssr:stedsnr" v="364231" />
	</node>
	<node id="-401748" lat="58.6740555575" lon="6.35046389313">
		<tag k="name" v="Steinalibekken" />
		<tag k="ssr:stedsnr" v="607761" />
		<tag k="waterway" v="stream" />
	</node>
	<node id="-401747" lat="58.6806194406" lon="6.29925278669">
		<tag k="alt_name" v="Mjelkevatn" />
		<tag k="name" v="Mjelkevatnet" />
		<tag k="natural" v="water" />
		<tag k="ssr:stedsnr" v="607758" />
		<tag k="water" v="lake" />
	</node>
	<node id="-401746" lat="58.7543675843" lon="6.19775512207">
		<tag k="alt_name" v="Kvernatjørn, nedre;Nedra Kvernhustjørn" />
		<tag k="name" v="Nedre Kvernatjørn" />
		<tag k="natural" v="water" />
		<tag k="ssr:stedsnr" v="607623" />
	</node>
	<node id="-401745" lat="58.7160907864" lon="6.60644607514">
		<tag k="alt_name" v="Longavatnet" />
		<tag k="name" v="Langevatnet" />
		<tag k="natural" v="water" />
		<tag k="ssr:stedsnr" v="607550" />
		<tag k="water" v="lake" />
	</node>
	<node id="-401743" lat="58.7269703837" lon="6.05563933362">
		<tag k="name" v="Langavatnet" />
		<tag k="natural" v="water" />
		<tag k="ssr:stedsnr" v="607190" />
		<tag k="water" v="lake" />
	</node>
	<node id="-401742" lat="58.5206083323" lon="6.03446388373">
		<tag k="alt_name" v="Kvamstjørna" />
		<tag k="name" v="Kvamstjørni" />
		<tag k="natural" v="water" />
		<tag k="old_name" v="Kvammatjørni" />
		<tag k="ssr:stedsnr" v="607175" />
	</node>
	<node id="-401740" lat="58.7387750009" lon="6.34211111738">
		<tag k="name" v="Teinebekken" />
		<tag k="ssr:stedsnr" v="607143" />
		<tag k="waterway" v="stream" />
	</node>
	<node id="-401738" lat="58.6688138902" lon="6.38109722738">
		<tag k="name" v="Høylandsåna" />
		<tag k="ssr:stedsnr" v="606761" />
		<tag k="waterway" v="stream" />
	</node>
	<node id="-401736" lat="58.6974555591" lon="6.15864166161">
		<tag k="alt_name" v="Heimra Tjødnæ" />
		<tag k="name" v="Heimretjørni" />
		<tag k="natural" v="water" />
		<tag k="ssr:stedsnr" v="606473" />
	</node>
	<node id="-401732" lat="58.7396975686" lon="6.06251476787">
		<tag k="name" v="Langavatnet" />
		<tag k="natural" v="water" />
		<tag k="ssr:stedsnr" v="606383" />
		<tag k="water" v="lake" />
	</node>
	<node id="-401730" lat="58.7296411545" lon="6.11858627598">
		<tag k="alt_name" v="Romsvatni, ytra;Ytra Romsvatni" />
		<tag k="name" v="Ytre Romsvatnet" />
		<tag k="natural" v="water" />
		<tag k="ssr:stedsnr" v="606367" />
		<tag k="water" v="lake" />
	</node>
	<node id="-401729" lat="58.7457885896" lon="6.14976529706">
		<tag k="name" v="Vedravatnet" />
		<tag k="natural" v="water" />
		<tag k="ssr:stedsnr" v="606358" />
		<tag k="water" v="lake" />
	</node>
	<node id="-401722" lat="58.5477999992" lon="6.06921943743">
		<tag k="name" v="Saglandsvatnet" />
		<tag k="natural" v="water" />
		<tag k="ssr:stedsnr" v="606067" />
		<tag k="water" v="lake" />
	</node>
	<node id="-401718" lat="58.6393815323" lon="5.99869688823">
		<tag k="alt_name" v="Langevatn" />
		<tag k="name" v="Langavatnet" />
		<tag k="natural" v="water" />
		<tag k="ssr:stedsnr" v="606032" />
	</node>
	<node id="-401716" lat="58.7376833327" lon="6.20972222123">
		<tag k="name" v="Holmen" />
		<tag k="place" v="islet" />
		<tag k="ssr:stedsnr" v="605636" />
	</node>
	<node id="-401715" lat="58.7421583312" lon="6.47775277398">
		<tag k="name" v="Åkrog" />
		<tag k="place" v="locality" />
		<tag k="ssr:stedsnr" v="605448" />
	</node>
	<node id="-401713" lat="58.7161722232" lon="6.54557777493">
		<tag k="name" v="Fiskeløystjørna" />
		<tag k="natural" v="water" />
		<tag k="ssr:stedsnr" v="605234" />
	</node>
	<node id="-401708" lat="58.6447999994" lon="6.06571944848">
		<tag k="name" v="Storrsheiåna" />
		<tag k="ssr:stedsnr" v="604841" />
		<tag k="waterway" v="river" />
	</node>
	<node id="-401705" lat="58.6008611069" lon="6.24472500659">
		<tag k="name" v="Merrstadvatnet" />
		<tag k="natural" v="water" />
		<tag k="ssr:stedsnr" v="606844" />
	</node>
	<node id="-400432" lat="58.5854750035" lon="6.1490833357">
		<tag k="alt_name" v="Kvednabekken" />
		<tag k="name" v="Kvernabekken" />
		<tag k="old_name" v="Kvernbekken" />
		<tag k="ssr:stedsnr" v="364111" />
		<tag k="waterway" v="stream" />
	</node>
	<node id="-401341" lat="58.6220333342" lon="5.9702833339">
		<tag k="name" v="Kvitronstjørn" />
		<tag k="natural" v="water" />
		<tag k="ssr:stedsnr" v="448302" />
	</node>
	<node id="-401691" lat="58.7063611112" lon="6.10359167109">
		<tag k="name" v="Skogatjørna" />
		<tag k="natural" v="water" />
		<tag k="ssr:stedsnr" v="604006" />
	</node>
	<node id="-401688" lat="58.7503944436" lon="6.2253888964">
		<tag k="name" v="Mjørsund" />
		<tag k="natural" v="strait" />
		<tag k="ssr:stedsnr" v="603621" />
	</node>
	<node id="-401681" lat="58.7098611108" lon="6.18932778527">
		<tag k="name" v="Plassodden" />
		<tag k="natural" v="cape" />
		<tag k="ssr:stedsnr" v="587124" />
	</node>
	<node id="-401680" lat="58.7306583362" lon="6.15799445082">
		<tag k="name" v="Hedlertjørna" />
		<tag k="natural" v="water" />
		<tag k="ssr:stedsnr" v="586433" />
	</node>
	<node id="-402477" lat="58.5877388894" lon="5.91211389611">
		<tag k="name" v="Holmavatnet" />
		<tag k="natural" v="water" />
		<tag k="ssr:stedsnr" v="910124" />
		<tag k="water" v="lake" />
	</node>
	<node id="-401675" lat="58.6880333322" lon="6.43049721515">
		<tag k="name" v="Kyrkjebekken" />
		<tag k="ssr:stedsnr" v="586295" />
		<tag k="waterway" v="stream" />
	</node>
	<node id="-401661" lat="58.7039833357" lon="6.25051111537">
		<tag k="name" v="Marsteindalstjørn" />
		<tag k="natural" v="water" />
		<tag k="ssr:stedsnr" v="586122" />
	</node>
	<node id="-400426" lat="58.6389861109" lon="6.02551389256">
		<tag k="alt_name" v="Ognavatn" />
		<tag k="name" v="Ognavatnet" />
		<tag k="natural" v="water" />
		<tag k="ssr:stedsnr" v="364040" />
		<tag k="water" v="lake" />
	</node>
	<node id="-401655" lat="58.7293361111" lon="6.17348056417">
		<tag k="name" v="Kvelvatjørna" />
		<tag k="natural" v="water" />
		<tag k="ssr:stedsnr" v="586042" />
	</node>
	<node id="-401654" lat="58.6688051222" lon="6.30573295811">
		<tag k="name" v="Stemtjørnene" />
		<tag k="natural" v="water" />
		<tag k="ssr:stedsnr" v="585919" />
	</node>
	<node id="-401449" lat="58.7376888861" lon="6.25056389288">
		<tag k="name" v="Lanesstronda" />
		<tag k="natural" v="beach" />
		<tag k="ssr:stedsnr" v="486110" />
	</node>
	<node id="-401652" lat="58.6840861074" lon="6.37301388091">
		<tag k="name" v="Årdalsfossen" />
		<tag k="natural" v="waterfall" />
		<tag k="ssr:stedsnr" v="585321" />
	</node>
	<node id="-401645" lat="58.6852444467" lon="6.21861111792">
		<tag k="name" v="Austrumdalsåna" />
		<tag k="ssr:stedsnr" v="585220" />
		<tag k="waterway" v="river" />
	</node>
	<node id="-401639" lat="58.6073083328" lon="6.270816664">
		<tag k="name" v="Reinestølsvika" />
		<tag k="natural" v="bay" />
		<tag k="ssr:stedsnr" v="572411" />
	</node>
	<node id="-401638" lat="58.7288038874" lon="6.13332012372">
		<tag k="name" v="Romsvatna" />
		<tag k="natural" v="water" />
		<tag k="ssr:stedsnr" v="570533" />
		<tag k="water" v="lake" />
	</node>
	<node id="-400421" lat="58.599447224" lon="5.97209999827">
		<tag k="alt_name" v="Tverråni, ytra;Tverråa" />
		<tag k="name" v="Ytra Tverråni" />
		<tag k="ssr:stedsnr" v="364010" />
		<tag k="waterway" v="stream" />
	</node>
	<node id="-401620" lat="58.5864444479" lon="5.9559388952">
		<tag k="name" v="Veisetjørna" />
		<tag k="natural" v="water" />
		<tag k="ssr:stedsnr" v="568280" />
	</node>
	<node id="-401619" lat="58.5558444433" lon="5.98611666719">
		<tag k="name" v="Råna" />
		<tag k="ssr:stedsnr" v="568271" />
		<tag k="waterway" v="stream" />
	</node>
	<node id="-401618" lat="58.6643277753" lon="5.91018332548">
		<tag k="name" v="Liatjørn" />
		<tag k="natural" v="water" />
		<tag k="ssr:stedsnr" v="568231" />
	</node>
	<node id="-401613" lat="58.5703166659" lon="5.88234166204">
		<tag k="name" v="Homseelva" />
		<tag k="ssr:stedsnr" v="568168" />
		<tag k="waterway" v="river" />
	</node>
	<node id="-401611" lat="58.5919305519" lon="5.93998888575">
		<tag k="name" v="Grastjørna" />
		<tag k="natural" v="water" />
		<tag k="ssr:stedsnr" v="568145" />
	</node>
	<node id="-401602" lat="58.760624997" lon="6.20962499933">
		<tag k="alt_name" v="Rauåna" />
		<tag k="name" v="Raudåna" />
		<tag k="ssr:stedsnr" v="547245" />
		<tag k="waterway" v="stream" />
	</node>
	<node id="-401601" lat="58.7483000033" lon="6.25208610976">
		<tag k="alt_name" v="Stemtjørna" />
		<tag k="name" v="Stemmatjørn" />
		<tag k="natural" v="water" />
		<tag k="ssr:stedsnr" v="547155" />
	</node>
	<node id="-401595" lat="58.6687694466" lon="6.41414695768">
		<tag k="alt_name" v="Stoblevatnet" />
		<tag k="name" v="Stopulvatnet" />
		<tag k="natural" v="water" />
		<tag k="ssr:stedsnr" v="546739" />
		<tag k="water" v="lake" />
	</node>
	<node id="-401594" lat="58.6711425038" lon="6.46801494367">
		<tag k="alt_name" v="Fannafjell" />
		<tag k="name" v="Fannafjellvatnet" />
		<tag k="natural" v="water" />
		<tag k="ssr:stedsnr" v="546735" />
		<tag k="water" v="lake" />
	</node>
	<node id="-401593" lat="58.6893611098" lon="6.48089723086">
		<tag k="name" v="Gjotetjørna" />
		<tag k="natural" v="water" />
		<tag k="ssr:stedsnr" v="546714" />
	</node>
	<node id="-401591" lat="58.6752611084" lon="6.26617499817">
		<tag k="alt_name" v="Mjelkevatnet, yt" />
		<tag k="name" v="Ytra Mjelkevatnet" />
		<tag k="natural" v="water" />
		<tag k="ssr:stedsnr" v="546713" />
		<tag k="water" v="lake" />
	</node>
	<node id="-401590" lat="58.7197527821" lon="6.11249999635">
		<tag k="alt_name" v="Nedre Viksteintjørna" />
		<tag k="name" v="Viksteinstjørnane" />
		<tag k="natural" v="water" />
		<tag k="ssr:stedsnr" v="546439" />
		<tag k="water" v="lake" />
	</node>
	<node id="-401589" lat="58.6907135724" lon="6.03630021274">
		<tag k="name" v="Fuglestadvatnet" />
		<tag k="natural" v="water" />
		<tag k="ssr:stedsnr" v="546418" />
		<tag k="water" v="lake" />
	</node>
	<node id="-401587" lat="58.6761526143" lon="5.93234971181">
		<tag k="alt_name" v="Longavatnet" />
		<tag k="name" v="Langavatnet" />
		<tag k="natural" v="water" />
		<tag k="ssr:stedsnr" v="546411" />
		<tag k="water" v="lake" />
	</node>
	<node id="-401586" lat="58.7196447831" lon="6.2802912018">
		<tag k="alt_name" v="Langavatn" />
		<tag k="name" v="Langavatnet" />
		<tag k="natural" v="water" />
		<tag k="ssr:stedsnr" v="546231" />
		<tag k="water" v="lake" />
	</node>
	<node id="-401585" lat="58.7230932877" lon="6.46877913654">
		<tag k="name" v="Langatjørna" />
		<tag k="natural" v="water" />
		<tag k="ssr:stedsnr" v="546221" />
	</node>
	<node id="-401580" lat="58.5602406361" lon="5.98835219679">
		<tag k="alt_name" v="nordre Forevatn" />
		<tag k="name" v="Nordra Furevatnet" />
		<tag k="natural" v="water" />
		<tag k="old_name" v="Forevatni, nordre" />
		<tag k="ssr:stedsnr" v="546090" />
		<tag k="water" v="lake" />
	</node>
	<node id="-401578" lat="58.5480570557" lon="6.00897687759">
		<tag k="name" v="Holmavatnet" />
		<tag k="natural" v="water" />
		<tag k="ssr:stedsnr" v="546071" />
		<tag k="water" v="lake" />
	</node>
	<node id="-401577" lat="58.6575943813" lon="5.99904568902">
		<tag k="alt_name" v="Vaulavatn" />
		<tag k="name" v="Vaulavatnet" />
		<tag k="natural" v="water" />
		<tag k="ssr:stedsnr" v="546066" />
		<tag k="water" v="lake" />
	</node>
	<node id="-401575" lat="58.646427623" lon="5.89103465586">
		<tag k="fixme" v="multiple name tags, choose one and add the other to alt_name" />
		<tag k="name" v="Mellomstrandsvatnet;Oslandsvatnet" />
		<tag k="natural" v="water" />
		<tag k="ssr:stedsnr" v="546056" />
		<tag k="water" v="lake" />
	</node>
	<node id="-401573" lat="58.6462105742" lon="6.05194085947">
		<tag k="alt_name" v="Storrsheivatn" />
		<tag k="name" v="Storrsheivatnet" />
		<tag k="natural" v="water" />
		<tag k="old_name" v="Starrsheivatnet" />
		<tag k="ssr:stedsnr" v="546045" />
		<tag k="water" v="lake" />
	</node>
	<node id="-401568" lat="58.5907000033" lon="6.08101665781">
		<tag k="alt_name" v="Bjerkreimsåni" />
		<tag k="name" v="Bjerkreimselva" />
		<tag k="old_name" v="Bjerkreimselvi" />
		<tag k="ssr:stedsnr" v="546020" />
		<tag k="waterway" v="river" />
	</node>
	<node id="-401565" lat="58.7463138861" lon="6.1740222157">
		<tag k="name" v="Stora Nauatjørn" />
		<tag k="natural" v="water" />
		<tag k="ssr:stedsnr" v="544694" />
	</node>
	<node id="-401559" lat="58.6913833358" lon="6.28431666925">
		<tag k="name" v="Sniglanes" />
		<tag k="natural" v="cape" />
		<tag k="ssr:stedsnr" v="544261" />
	</node>
	<node id="-401558" lat="58.7296361111" lon="6.41844445236">
		<tag k="name" v="Myrstølåna" />
		<tag k="ssr:stedsnr" v="544254" />
		<tag k="waterway" v="river" />
	</node>
	<node id="-401555" lat="58.7129999978" lon="6.40534166138">
		<tag k="name" v="Holmevatn" />
		<tag k="natural" v="water" />
		<tag k="ssr:stedsnr" v="544118" />
		<tag k="water" v="lake" />
	</node>
	<node id="-401553" lat="58.6385527736" lon="6.1904083369">
		<tag k="name" v="Doltatjørna" />
		<tag k="natural" v="water" />
		<tag k="ssr:stedsnr" v="543940" />
	</node>
	<node id="-401536" lat="58.7025333297" lon="6.12041666113">
		<tag k="name" v="Hisurvika" />
		<tag k="natural" v="bay" />
		<tag k="ssr:stedsnr" v="528016" />
	</node>
	<node id="-401534" lat="58.7510944464" lon="6.53747778543">
		<tag k="name" v="Feletjørna" />
		<tag k="natural" v="water" />
		<tag k="ssr:stedsnr" v="527323" />
	</node>
	<node id="-401531" lat="58.7084583336" lon="6.20375555825">
		<tag k="name" v="Luthersnebben" />
		<tag k="natural" v="cape" />
		<tag k="ssr:stedsnr" v="527148" />
	</node>
	<node id="-401529" lat="58.6661111095" lon="6.34956389038">
		<tag k="name" v="Litlåna" />
		<tag k="ssr:stedsnr" v="526325" />
		<tag k="waterway" v="river" />
	</node>
	<node id="-401527" lat="58.68325833" lon="6.44613888153">
		<tag k="name" v="Hestalilona" />
		<tag k="place" v="locality" />
		<tag k="ssr:stedsnr" v="526243" />
	</node>
	<node id="-401520" lat="58.7390916627" lon="6.35270554781">
		<tag k="name" v="Holmen" />
		<tag k="natural" v="cape" />
		<tag k="ssr:stedsnr" v="525753" />
	</node>
	<node id="-401518" lat="58.7211888922" lon="6.1446694477">
		<tag k="name" v="Langa Tjørna" />
		<tag k="natural" v="water" />
		<tag k="ssr:stedsnr" v="525430" />
	</node>
	<node id="-401514" lat="58.7078901681" lon="6.27938419944">
		<tag k="name" v="Bukkatjørn" />
		<tag k="natural" v="water" />
		<tag k="ssr:stedsnr" v="525241" />
	</node>
	<node id="-401512" lat="58.7302027747" lon="6.37584445209">
		<tag k="name" v="Sandvasslona" />
		<tag k="natural" v="water" />
		<tag k="ssr:stedsnr" v="525219" />
		<tag k="water" v="lake" />
	</node>
	<node id="-401509" lat="58.7123694468" lon="6.18199167387">
		<tag k="name" v="Svartevika" />
		<tag k="natural" v="bay" />
		<tag k="ssr:stedsnr" v="525058" />
	</node>
	<node id="-401494" lat="58.5812138907" lon="6.05336389008">
		<tag k="name" v="Fjermedalstjørna" />
		<tag k="natural" v="water" />
		<tag k="ssr:stedsnr" v="509021" />
	</node>
	<node id="-401487" lat="58.5662000028" lon="6.01742777812">
		<tag k="name" v="Langevatn" />
		<tag k="natural" v="water" />
		<tag k="ssr:stedsnr" v="508714" />
		<tag k="water" v="lake" />
	</node>
	<node id="-401479" lat="58.6357944469" lon="5.95002777232">
		<tag k="name" v="Ulvatjørn" />
		<tag k="natural" v="water" />
		<tag k="ssr:stedsnr" v="508304" />
	</node>
	<node id="-401478" lat="58.6391944481" lon="5.94720277274">
		<tag k="name" v="Store Fisketjørn" />
		<tag k="natural" v="water" />
		<tag k="ssr:stedsnr" v="508302" />
	</node>
	<node id="-401475" lat="58.6179944482" lon="5.97514166781">
		<tag k="name" v="Steinskarstjørn" />
		<tag k="natural" v="water" />
		<tag k="ssr:stedsnr" v="508285" />
	</node>
	<node id="-401473" lat="58.5870277761" lon="5.943180551">
		<tag k="name" v="Steinstjørna" />
		<tag k="natural" v="water" />
		<tag k="ssr:stedsnr" v="508271" />
	</node>
	<node id="-401467" lat="58.5615111145" lon="5.93901667084">
		<tag k="name" v="Gravdalsvatnet" />
		<tag k="natural" v="water" />
		<tag k="ssr:stedsnr" v="508159" />
		<tag k="water" v="lake" />
	</node>
	<node id="-401455" lat="58.766177774" lon="6.53778889139">
		<tag k="name" v="Bergavatnet" />
		<tag k="natural" v="water" />
		<tag k="ssr:stedsnr" v="486785" />
	</node>
	<node id="-401454" lat="58.756331495" lon="6.52610761529">
		<tag k="alt_name" v="Austdalstjørna" />
		<tag k="name" v="Austdalstjørni" />
		<tag k="natural" v="water" />
		<tag k="ssr:stedsnr" v="486784" />
	</node>
	<node id="-401453" lat="58.7133555565" lon="6.24869722043">
		<tag k="name" v="Stølsvatnet" />
		<tag k="natural" v="water" />
		<tag k="ssr:stedsnr" v="486227" />
	</node>
	<node id="-401452" lat="58.7164055528" lon="6.26509444001">
		<tag k="name" v="Tjørnslitjørna" />
		<tag k="natural" v="water" />
		<tag k="ssr:stedsnr" v="486226" />
	</node>
	<node id="-400391" lat="58.6807138875" lon="6.08924166482">
		<tag k="name" v="Flæetjørna" />
		<tag k="natural" v="water" />
		<tag k="ssr:stedsnr" v="361284" />
	</node>
	<node id="-401444" lat="58.6498027736" lon="6.24289444207">
		<tag k="alt_name" v="Lindevatnet, s" />
		<tag k="name" v="Ytra Linnevatnet" />
		<tag k="natural" v="water" />
		<tag k="ssr:stedsnr" v="485742" />
		<tag k="water" v="lake" />
	</node>
	<node id="-401443" lat="58.660136112" lon="6.43208333434">
		<tag k="name" v="Juvvatnet" />
		<tag k="natural" v="water" />
		<tag k="ssr:stedsnr" v="485733" />
		<tag k="water" v="lake" />
	</node>
	<node id="-401441" lat="58.6767305518" lon="6.47142500549">
		<tag k="name" v="Holatjørna" />
		<tag k="natural" v="water" />
		<tag k="ssr:stedsnr" v="485713" />
	</node>
	<node id="-401439" lat="58.732780329" lon="6.17785477964">
		<tag k="name" v="Litlestøltjørna" />
		<tag k="natural" v="water" />
		<tag k="ssr:stedsnr" v="485423" />
	</node>
	<node id="-401438" lat="58.6977488173" lon="6.33329429146">
		<tag k="alt_name" v="Skiftingstjørna" />
		<tag k="name" v="Skiftingstjørni" />
		<tag k="natural" v="water" />
		<tag k="ssr:stedsnr" v="485412" />
	</node>
	<node id="-401437" lat="58.7405305543" lon="6.1678138956">
		<tag k="alt_name" v="Krogavatn;Krokarvatnet" />
		<tag k="name" v="Krokavatnet" />
		<tag k="natural" v="water" />
		<tag k="ssr:stedsnr" v="485339" />
		<tag k="water" v="lake" />
	</node>
	<node id="-401436" lat="58.7424847121" lon="6.1391296835">
		<tag k="name" v="Bukkatjørni" />
		<tag k="natural" v="water" />
		<tag k="old_name" v="Bukkatjørna" />
		<tag k="ssr:stedsnr" v="485316" />
	</node>
	<node id="-401433" lat="58.7061833367" lon="6.36573610533">
		<tag k="name" v="Stavtjørna" />
		<tag k="natural" v="water" />
		<tag k="ssr:stedsnr" v="485167" />
	</node>
	<node id="-401431" lat="58.5907361132" lon="6.00406944595">
		<tag k="name" v="Revsvatnet" />
		<tag k="natural" v="water" />
		<tag k="ssr:stedsnr" v="485100" />
		<tag k="water" v="lake" />
	</node>
	<node id="-401430" lat="58.5645895788" lon="5.95200501061">
		<tag k="alt_name" v="Baglitjørn nedra;øvre Baglitjørn" />
		<tag k="name" v="Baklitjørna" />
		<tag k="natural" v="water" />
		<tag k="ssr:stedsnr" v="485092" />
	</node>
	<node id="-401428" lat="58.5736166646" lon="5.94776389048">
		<tag k="name" v="Steinsvatnet" />
		<tag k="natural" v="water" />
		<tag k="ssr:stedsnr" v="485084" />
	</node>
	<node id="-401423" lat="58.7401638899" lon="6.18741666974">
		<tag k="name" v="Fjellsendetjørna" />
		<tag k="natural" v="water" />
		<tag k="ssr:stedsnr" v="484675" />
	</node>
	<node id="-401422" lat="58.7412083348" lon="6.4545416585">
		<tag k="name" v="Stølsbekk" />
		<tag k="ssr:stedsnr" v="484428" />
		<tag k="waterway" v="stream" />
	</node>
	<node id="-401412" lat="58.699499999" lon="6.60932777822">
		<tag k="name" v="Skogafjellbekken" />
		<tag k="ssr:stedsnr" v="483236" />
		<tag k="waterway" v="stream" />
	</node>
	<node id="-401410" lat="58.7022027771" lon="6.39880832591">
		<tag k="name" v="Litla Grytevatn" />
		<tag k="natural" v="water" />
		<tag k="ssr:stedsnr" v="483201" />
		<tag k="water" v="lake" />
	</node>
</osm>
