<?xml version="1.0" encoding="UTF-8"?>
<<<<<<< HEAD
<osm version="0.6" generator="osmapis">
	<node lat="69.32533333375122" lon="19.446705535315516" id="-38620">
		<tag k="name" v="Radiosteinen" />
=======
<osm generator="osmapis" version="0.6">
	<node id="-877567" lat="69.2724305591" lon="18.7319944476">
		<tag k="name" v="Finnmyra" />
		<tag k="natural" v="wetland" />
		<tag k="ssr:stedsnr" v="414590" />
	</node>
	<node id="-875518" lat="69.3169111146" lon="19.3015472203">
		<tag k="name" v="Halsskjærmyra" />
		<tag k="natural" v="wetland" />
		<tag k="ssr:stedsnr" v="474750" />
	</node>
	<node id="-875515" lat="69.2661472197" lon="18.8368333205">
		<tag k="name" v="Tøllevmyra" />
		<tag k="natural" v="wetland" />
		<tag k="ssr:stedsnr" v="474644" />
	</node>
	<node id="-875514" lat="69.2483861134" lon="18.8359194373">
		<tag k="name" v="Holmyra" />
		<tag k="natural" v="wetland" />
		<tag k="ssr:stedsnr" v="474636" />
	</node>
	<node id="-875513" lat="69.3959527767" lon="19.2725999972">
		<tag k="name" v="Storleirmelen" />
		<tag k="place" v="locality" />
		<tag k="ssr:stedsnr" v="474600" />
	</node>
	<node id="-875512" lat="69.4019416684" lon="19.2867944434">
		<tag k="name" v="Gråsteinan" />
>>>>>>> e1d4bc35ff8a6074a6f2e91616a996b547c36f15
		<tag k="natural" v="stone" />
		<tag k="ssr:stedsnr" v="231162" />
	</node>
<<<<<<< HEAD
	<node lat="69.21190555415752" lon="19.62127220008847" id="-38624">
		<tag k="name" v="Forrmyra" />
		<tag k="natural" v="wetland" />
		<tag k="ssr:stedsnr" v="231261" />
	</node>
	<node lat="69.18596389023952" lon="19.155355543909874" id="-38632">
		<tag k="name" v="Stordalsmyra" />
=======
	<node id="-877558" lat="69.3076000029" lon="19.0299749821">
		<tag k="name" v="Godmyra" />
		<tag k="natural" v="wetland" />
		<tag k="ssr:stedsnr" v="414389" />
	</node>
	<node id="-877043" lat="69.2028388895" lon="19.1369111099">
		<tag k="name" v="Seljemomyra" />
		<tag k="natural" v="wetland" />
		<tag k="ssr:stedsnr" v="171323" />
	</node>
	<node id="-876581" lat="69.3905166689" lon="19.3833444477">
		<tag k="name" v="Fossbakkmyra" />
		<tag k="natural" v="wetland" />
		<tag k="ssr:stedsnr" v="48359" />
	</node>
	<node id="-875058" lat="69.3207666646" lon="18.8470888701">
		<tag k="name" v="Stasamyra" />
		<tag k="natural" v="wetland" />
		<tag k="ssr:stedsnr" v="111540" />
	</node>
	<node id="-877551" lat="69.5028444445" lon="18.4656416709">
		<tag k="name" v="Blåura" />
		<tag k="natural" v="scree" />
		<tag k="ssr:stedsnr" v="414340" />
	</node>
	<node id="-874990" lat="69.2226083332" lon="19.8098222221">
		<tag k="name" v="Vollasteinen" />
		<tag k="natural" v="stone" />
		<tag k="ssr:stedsnr" v="109231" />
	</node>
	<node id="-875501" lat="69.4093527774" lon="19.275016661">
		<tag k="name" v="Joabslåtten" />
		<tag k="place" v="locality" />
		<tag k="ssr:stedsnr" v="474477" />
	</node>
	<node id="-877036" lat="69.2910249977" lon="19.0598749797">
		<tag k="name" v="Storåsmyra" />
		<tag k="natural" v="wetland" />
		<tag k="ssr:stedsnr" v="171285" />
	</node>
	<node id="-878059" lat="69.2664944479" lon="19.2221416612">
		<tag k="name" v="Langmyra" />
		<tag k="natural" v="wetland" />
		<tag k="ssr:stedsnr" v="655407" />
	</node>
	<node id="-878057" lat="69.3739250021" lon="19.3867499834">
		<tag k="name" v="Ulvesteinen - Návdegállu" />
		<tag k="name:no" v="Ulvesteinen" />
		<tag k="name:se" v="Návdegállu" />
		<tag k="natural" v="stone" />
		<tag k="ssr:stedsnr" v="655400" />
	</node>
	<node id="-875495" lat="69.0725527817" lon="19.2723110958">
		<tag k="name" v="Holmboemyra" />
		<tag k="natural" v="wetland" />
		<tag k="ssr:stedsnr" v="474452" />
	</node>
	<node id="-875494" lat="69.0787638911" lon="19.2337416496">
		<tag k="name" v="Tjærradalsmyra" />
		<tag k="natural" v="wetland" />
		<tag k="ssr:stedsnr" v="474451" />
	</node>
	<node id="-878053" lat="69.0513999981" lon="19.29558887">
		<tag k="name" v="Våtmyra" />
		<tag k="natural" v="wetland" />
		<tag k="ssr:stedsnr" v="643951" />
	</node>
	<node id="-876004" lat="69.3869777781" lon="19.1441805399">
		<tag k="name" v="Stormyra" />
		<tag k="natural" v="wetland" />
		<tag k="ssr:stedsnr" v="716738" />
	</node>
	<node id="-876710" lat="69.2576388894" lon="19.5121750018">
		<tag k="name" v="Steinhoggarmyra" />
		<tag k="natural" v="wetland" />
		<tag k="ssr:stedsnr" v="79280" />
	</node>
	<node id="-876002" lat="69.3884972262" lon="19.1377860936">
		<tag k="name" v="Uran" />
		<tag k="natural" v="scree" />
		<tag k="ssr:stedsnr" v="716731" />
	</node>
	<node id="-876001" lat="69.3939055516" lon="19.2598249964">
		<tag k="name" v="Mellaskredene" />
		<tag k="natural" v="scree" />
		<tag k="place" v="locality" />
		<tag k="ssr:stedsnr" v="716682" />
	</node>
	<node id="-878560" lat="69.1110694451" lon="19.7217610922">
		<tag k="name" v="Tverrelvmyra" />
		<tag k="natural" v="wetland" />
		<tag k="ssr:stedsnr" v="868488" />
	</node>
	<node id="-878047" lat="69.3590861093" lon="19.3809416567">
		<tag k="name" v="Skavsteinen" />
		<tag k="natural" v="stone" />
		<tag k="ssr:stedsnr" v="643612" />
	</node>
	<node id="-874974" lat="69.3367861125" lon="19.4036722196">
		<tag k="alt_name" v="Stelle" />
		<tag k="name" v="Stellet" />
		<tag k="place" v="locality" />
		<tag k="ssr:stedsnr" v="79171" />
	</node>
	<node id="-876453" lat="69.312036113" lon="19.3066722103">
		<tag k="name" v="Vassmyra" />
		<tag k="natural" v="wetland" />
		<tag k="ssr:stedsnr" v="899756" />
	</node>
	<node id="-878555" lat="69.2898749959" lon="19.4796833278">
		<tag k="name" v="Holmmyra" />
		<tag k="natural" v="wetland" />
		<tag k="ssr:stedsnr" v="868349" />
	</node>
	<node id="-877530" lat="69.1511444497" lon="19.3187555375">
		<tag k="name" v="Sennavassmyra" />
		<tag k="natural" v="wetland" />
		<tag k="ssr:stedsnr" v="413789" />
	</node>
	<node id="-875993" lat="69.3160583345" lon="19.5269222212">
		<tag k="name" v="Borterslåtta" />
		<tag k="place" v="locality" />
		<tag k="ssr:stedsnr" v="716365" />
	</node>
	<node id="-877528" lat="69.4460222218" lon="19.0303666546">
		<tag k="name" v="Lysvedremsa" />
		<tag k="place" v="locality" />
		<tag k="ssr:stedsnr" v="413776" />
	</node>
	<node id="-874967" lat="69.2682194491" lon="18.8176194366">
		<tag k="name" v="Stormyra" />
		<tag k="natural" v="wetland" />
		<tag k="ssr:stedsnr" v="50656" />
	</node>
	<node id="-874966" lat="69.2867055522" lon="18.7037222042">
		<tag k="name" v="Sandbakkmyra" />
		<tag k="natural" v="wetland" />
		<tag k="ssr:stedsnr" v="50719" />
	</node>
	<node id="-877561" lat="69.2851972259" lon="18.8965222252">
		<tag k="name" v="Gultorhola" />
		<tag k="natural" v="wetland" />
		<tag k="ssr:stedsnr" v="414424" />
	</node>
	<node id="-875171" lat="69.2124194491" lon="19.1668027708">
		<tag k="name" v="Stormyra" />
		<tag k="natural" v="wetland" />
		<tag k="ssr:stedsnr" v="292283" />
	</node>
	<node id="-877560" lat="69.2970194426" lon="19.0297972177">
		<tag k="name" v="Høgholtan" />
		<tag k="place" v="locality" />
		<tag k="ssr:stedsnr" v="414402" />
	</node>
	<node id="-877518" lat="69.3452638858" lon="19.2831555568">
		<tag k="name" v="Sandøyra" />
		<tag k="place" v="locality" />
		<tag k="ssr:stedsnr" v="413579" />
	</node>
	<node id="-874956" lat="69.2832222221" lon="18.9823444385">
		<tag k="name" v="Bekkmyra" />
		<tag k="natural" v="wetland" />
		<tag k="ssr:stedsnr" v="50363" />
	</node>
	<node id="-875977" lat="69.3792749969" lon="19.2625833359">
		<tag k="name" v="Imarohtu" />
		<tag k="name:se" v="Imarohtu" />
		<tag k="place" v="locality" />
		<tag k="ssr:stedsnr" v="595905" />
	</node>
	<node id="-877512" lat="69.334144441" lon="19.2998888706">
		<tag k="name" v="Merramyra" />
>>>>>>> e1d4bc35ff8a6074a6f2e91616a996b547c36f15
		<tag k="natural" v="wetland" />
		<tag k="ssr:stedsnr" v="231562" />
	</node>
<<<<<<< HEAD
	<node lat="69.39052500266408" lon="19.264399984670533" id="-38639">
		<tag k="name" v="Nerskredene" />
		<tag k="natural" v="scree" />
		<tag k="place" v="locality" />
		<tag k="ssr:stedsnr" v="231714" />
	</node>
	<node lat="69.19280000377279" lon="19.317383334951018" id="-38651">
		<tag k="name" v="Fjellmyra" />
=======
	<node id="-876487" lat="69.2840916625" lon="18.8699666693">
		<tag k="name" v="Langmyra" />
>>>>>>> e1d4bc35ff8a6074a6f2e91616a996b547c36f15
		<tag k="natural" v="wetland" />
		<tag k="ssr:stedsnr" v="231865" />
	</node>
<<<<<<< HEAD
	<node lat="69.24027777857182" lon="18.97821388567611" id="-38656">
		<tag k="name" v="Østerlimyra" />
=======
	<node id="-874950" lat="69.3747138903" lon="18.9804083383">
		<tag k="name" v="Stormyra" />
>>>>>>> e1d4bc35ff8a6074a6f2e91616a996b547c36f15
		<tag k="natural" v="wetland" />
		<tag k="ssr:stedsnr" v="232000" />
	</node>
	<node lat="69.31052222061886" lon="19.01712499624722" id="-38668">
		<tag k="name" v="Marenholtet" />
		<tag k="place" v="locality" />
		<tag k="ssr:stedsnr" v="232361" />
	</node>
<<<<<<< HEAD
	<node lat="69.26575833736018" lon="18.810213872264494" id="-38682">
=======
	<node id="-874949" lat="69.2657583374" lon="18.8102138723">
>>>>>>> e1d4bc35ff8a6074a6f2e91616a996b547c36f15
		<tag k="name" v="Fosshaugmyra" />
		<tag k="natural" v="wetland" />
		<tag k="ssr:stedsnr" v="232668" />
	</node>
<<<<<<< HEAD
	<node lat="69.37471389030055" lon="18.980408338299522" id="-38683">
		<tag k="name" v="Stormyra" />
		<tag k="natural" v="wetland" />
		<tag k="ssr:stedsnr" v="232671" />
	</node>
	<node lat="69.37380555480996" lon="18.94206666161998" id="-38684">
		<tag k="name" v="Myrslett" />
		<tag k="place" v="locality" />
		<tag k="ssr:stedsnr" v="232677" />
	</node>
	<node lat="69.04798055373175" lon="19.30906388851887" id="-38710">
		<tag k="name" v="Melkelvliskogen" />
		<tag k="place" v="locality" />
		<tag k="ssr:stedsnr" v="37959" />
	</node>
	<node lat="69.04509999581227" lon="19.32369722144415" id="-38711">
		<tag k="name" v="Fjerdekjosmyra" />
		<tag k="natural" v="wetland" />
		<tag k="ssr:stedsnr" v="37960" />
	</node>
	<node lat="69.1797277806135" lon="19.209624992009857" id="-38722">
		<tag k="name" v="Langmyra" />
		<tag k="natural" v="wetland" />
		<tag k="ssr:stedsnr" v="49521" />
	</node>
	<node lat="69.28022221883712" lon="18.845186092293325" id="-38740">
		<tag k="name" v="Langmyra" />
		<tag k="natural" v="wetland" />
		<tag k="ssr:stedsnr" v="50483" />
	</node>
	<node lat="69.28670555215201" lon="18.703722204153852" id="-38743">
		<tag k="name" v="Sandbakkmyra" />
		<tag k="natural" v="wetland" />
		<tag k="ssr:stedsnr" v="50719" />
	</node>
	<node lat="69.36668055538422" lon="19.03699722212072" id="-38746">
		<tag k="name" v="Heimen" />
		<tag k="place" v="locality" />
		<tag k="ssr:stedsnr" v="50672" />
	</node>
	<node lat="69.08163611386418" lon="19.593047200375935" id="-38766">
		<tag k="name" v="Langmyra" />
		<tag k="natural" v="wetland" />
		<tag k="ssr:stedsnr" v="79445" />
	</node>
	<node lat="69.29398333422924" lon="19.47029721453283" id="-38785">
		<tag k="name" v="Bjørnjernmyra" />
		<tag k="natural" v="wetland" />
		<tag k="ssr:stedsnr" v="110125" />
	</node>
	<node lat="69.21060833319194" lon="19.628602775125536" id="-38791">
		<tag k="name" v="Revsandmelen" />
		<tag k="place" v="locality" />
		<tag k="ssr:stedsnr" v="110206" />
	</node>
	<node lat="69.20780555947175" lon="19.219791650331604" id="-38796">
		<tag k="name" v="Langmyra" />
=======
	<node id="-875972" lat="69.0422833338" lon="19.3117333361">
		<tag k="name" v="Tøløvromskogen" />
		<tag k="place" v="locality" />
		<tag k="ssr:stedsnr" v="704942" />
	</node>
	<node id="-875970" lat="69.0588805576" lon="19.3046861074">
		<tag k="name" v="Øvermyra" />
		<tag k="natural" v="wetland" />
		<tag k="ssr:stedsnr" v="704932" />
	</node>
	<node id="-875457" lat="69.3239888883" lon="19.5269666575">
		<tag k="name" v="Fjellmyra" />
		<tag k="natural" v="wetland" />
		<tag k="ssr:stedsnr" v="474156" />
	</node>
	<node id="-875456" lat="69.3256194486" lon="19.4377499895">
		<tag k="name" v="Akselsteinen" />
		<tag k="natural" v="stone" />
		<tag k="ssr:stedsnr" v="474151" />
	</node>
	<node id="-876625" lat="69.3835944472" lon="19.1951833387">
		<tag k="name" v="Huldersteinen" />
		<tag k="natural" v="stone" />
		<tag k="ssr:stedsnr" v="49697" />
	</node>
	<node id="-876618" lat="69.322924999" lon="19.2955138922">
		<tag k="name" v="Skremmarmyra" />
		<tag k="natural" v="wetland" />
		<tag k="ssr:stedsnr" v="49543" />
	</node>
	<node id="-876468" lat="69.2088000046" lon="19.3122999859">
		<tag k="alt_name" v="Tverrelvmyran" />
		<tag k="name" v="Tverrelvmyra" />
>>>>>>> e1d4bc35ff8a6074a6f2e91616a996b547c36f15
		<tag k="natural" v="wetland" />
		<tag k="ssr:stedsnr" v="110372" />
	</node>
<<<<<<< HEAD
	<node lat="69.38541111053662" lon="19.23846388791058" id="-38804">
		<tag k="name" v="Steinlægda" />
		<tag k="natural" v="scree" />
		<tag k="ssr:stedsnr" v="110687" />
	</node>
	<node lat="69.24997221803467" lon="18.819702774888047" id="-38828">
		<tag k="name" v="Storskreda" />
		<tag k="natural" v="scree" />
		<tag k="place" v="locality" />
		<tag k="ssr:stedsnr" v="111687" />
	</node>
	<node lat="69.26091667149475" lon="19.476391650963073" id="-38842">
		<tag k="name" v="Finnsteinmyra" />
=======
	<node id="-876467" lat="69.3179305548" lon="18.8739222191">
		<tag k="alt_name" v="Straumsåsmyra" />
		<tag k="name" v="Strømsåsmyra" />
>>>>>>> e1d4bc35ff8a6074a6f2e91616a996b547c36f15
		<tag k="natural" v="wetland" />
		<tag k="ssr:stedsnr" v="139342" />
	</node>
	<node lat="69.2630083369409" lon="19.448863872337242" id="-38843">
		<tag k="name" v="Storsteinmyra" />
		<tag k="natural" v="wetland" />
		<tag k="ssr:stedsnr" v="139344" />
	</node>
<<<<<<< HEAD
	<node lat="69.3362222264266" lon="19.409222208406664" id="-38868">
=======
	<node id="-876857" lat="69.2739249983" lon="18.9312555541">
		<tag k="name" v="Bærmyra" />
		<tag k="natural" v="wetland" />
		<tag k="ssr:stedsnr" v="111400" />
	</node>
	<node id="-876975" lat="69.3362222264" lon="19.4092222084">
>>>>>>> e1d4bc35ff8a6074a6f2e91616a996b547c36f15
		<tag k="name" v="Davidsteinen" />
		<tag k="natural" v="stone" />
		<tag k="ssr:stedsnr" v="158554" />
	</node>
<<<<<<< HEAD
	<node lat="69.31587499959608" lon="19.50777775913531" id="-38880">
		<tag k="name" v="Olderskogen" />
=======
	<node id="-875950" lat="69.4906250017" lon="19.0045972254">
		<tag k="name" v="Allmenning" />
>>>>>>> e1d4bc35ff8a6074a6f2e91616a996b547c36f15
		<tag k="place" v="locality" />
		<tag k="ssr:stedsnr" v="170364" />
	</node>
<<<<<<< HEAD
	<node lat="69.29873611443237" lon="19.29627776473416" id="-38888">
		<tag k="name" v="Steinkirka" />
		<tag k="natural" v="stone" />
		<tag k="ssr:stedsnr" v="170761" />
	</node>
	<node lat="69.22619166675109" lon="19.32950832433591" id="-38889">
		<tag k="name" v="Litjemyra" />
=======
	<node id="-878508" lat="69.460186115" lon="18.4642916675">
		<tag k="name" v="Brursteinen" />
		<tag k="natural" v="stone" />
		<tag k="ssr:stedsnr" v="846060" />
	</node>
	<node id="-875435" lat="69.3843555582" lon="19.223861117">
		<tag k="name" v="Steinskreda" />
		<tag k="natural" v="scree" />
		<tag k="ssr:stedsnr" v="473657" />
	</node>
	<node id="-876458" lat="69.4383972211" lon="19.0543416556">
		<tag k="name" v="Blåsteinmyra" />
>>>>>>> e1d4bc35ff8a6074a6f2e91616a996b547c36f15
		<tag k="natural" v="wetland" />
		<tag k="ssr:stedsnr" v="170765" />
	</node>
<<<<<<< HEAD
	<node lat="69.27170555651618" lon="18.72743332657437" id="-38901">
		<tag k="name" v="Banmyra" />
=======
	<node id="-874920" lat="69.2402777786" lon="18.9782138857">
		<tag k="name" v="Østerlimyra" />
>>>>>>> e1d4bc35ff8a6074a6f2e91616a996b547c36f15
		<tag k="natural" v="wetland" />
		<tag k="ssr:stedsnr" v="171606" />
	</node>
<<<<<<< HEAD
	<node lat="69.19209167018951" lon="19.439580548335655" id="-38927">
		<tag k="name" v="Russetindbreen" />
		<tag k="natural" v="glacier" />
		<tag k="ssr:stedsnr" v="261089" />
	</node>
	<node lat="69.45372778129507" lon="18.46980277697149" id="-38963">
		<tag k="name" v="Spildermyra" />
=======
	<node id="-877477" lat="69.0487638902" lon="19.2977222036">
		<tag k="name" v="Grushaugmyra" />
>>>>>>> e1d4bc35ff8a6074a6f2e91616a996b547c36f15
		<tag k="natural" v="wetland" />
		<tag k="ssr:stedsnr" v="261662" />
	</node>
<<<<<<< HEAD
	<node lat="69.20819167027868" lon="19.570583332604933" id="-39014">
		<tag k="name" v="Tvillingan" />
		<tag k="natural" v="stone" />
		<tag k="ssr:stedsnr" v="219182" />
	</node>
	<node lat="69.44159444591706" lon="18.485963883144393" id="-39034">
		<tag k="name" v="Leira" />
		<tag k="place" v="locality" />
		<tag k="ssr:stedsnr" v="231392" />
	</node>
	<node lat="69.07006922021672" lon="19.235305169724953" id="-39037">
		<tag k="name" v="Langmyra" />
		<tag k="natural" v="wetland" />
		<tag k="ssr:stedsnr" v="231522" />
	</node>
	<node lat="69.06025555432022" lon="19.345186099362103" id="-39089">
		<tag k="name" v="Mårstokkmyra" />
=======
	<node id="-876452" lat="69.4130805593" lon="18.9644694268">
		<tag k="name" v="Galperodni" />
		<tag k="name:se" v="Galperodni" />
		<tag k="natural" v="wetland" />
		<tag k="ssr:stedsnr" v="899660" />
	</node>
	<node id="-878498" lat="69.3774416671" lon="18.9696916718">
		<tag k="name" v="Smalmyra" />
		<tag k="natural" v="wetland" />
		<tag k="ssr:stedsnr" v="839721" />
	</node>
	<node id="-878101" lat="69.0577388892" lon="19.4538944378">
		<tag k="name" v="Stormyra" />
		<tag k="natural" v="wetland" />
		<tag k="ssr:stedsnr" v="746439" />
	</node>
	<node id="-878496" lat="69.2642416638" lon="18.755649996">
		<tag k="name" v="Rundmyra" />
>>>>>>> e1d4bc35ff8a6074a6f2e91616a996b547c36f15
		<tag k="natural" v="wetland" />
		<tag k="ssr:stedsnr" v="280942" />
	</node>
<<<<<<< HEAD
	<node lat="69.30345833315522" lon="18.98573609545702" id="-39133">
		<tag k="name" v="Olderskogen" />
		<tag k="place" v="locality" />
		<tag k="ssr:stedsnr" v="293687" />
	</node>
	<node lat="69.2150500015629" lon="19.312936097099524" id="-39145">
		<tag k="alt_name" v="Foremyra" />
		<tag k="name" v="Forrmyra" />
=======
	<node id="-877808" lat="69.3609361145" lon="19.3993416694">
		<tag k="name" v="Uran" />
		<tag k="natural" v="scree" />
		<tag k="ssr:stedsnr" v="582633" />
	</node>
	<node id="-875422" lat="69.3011722194" lon="18.9929472249">
		<tag k="name" v="Trolldalsmyra" />
		<tag k="natural" v="wetland" />
		<tag k="ssr:stedsnr" v="293668" />
	</node>
	<node id="-875933" lat="69.2840361107" lon="18.9929388814">
		<tag k="name" v="Nils-Nilsamyra" />
>>>>>>> e1d4bc35ff8a6074a6f2e91616a996b547c36f15
		<tag k="natural" v="wetland" />
		<tag k="ssr:stedsnr" v="321137" />
	</node>
<<<<<<< HEAD
	<node lat="69.35020000064448" lon="19.387097202219888" id="-39164">
		<tag k="name" v="Revhisteinen" />
		<tag k="natural" v="stone" />
		<tag k="ssr:stedsnr" v="340612" />
	</node>
	<node lat="69.34388333558503" lon="19.409116661282347" id="-39165">
		<tag k="name" v="Kalvesteinen" />
		<tag k="natural" v="stone" />
		<tag k="ssr:stedsnr" v="340619" />
	</node>
	<node lat="69.38435555821583" lon="19.22386111696776" id="-39177">
		<tag k="name" v="Steinskreda" />
		<tag k="natural" v="scree" />
		<tag k="ssr:stedsnr" v="473657" />
	</node>
	<node lat="69.3256194485507" lon="19.437749989455444" id="-39188">
		<tag k="name" v="Akselsteinen" />
		<tag k="natural" v="stone" />
		<tag k="ssr:stedsnr" v="474151" />
	</node>
	<node lat="69.32398888830939" lon="19.526966657496644" id="-39189">
		<tag k="name" v="Fjellmyra" />
=======
	<node id="-876955" lat="69.3072166653" lon="19.3295499935">
		<tag k="name" v="Stormyra" />
		<tag k="natural" v="wetland" />
		<tag k="ssr:stedsnr" v="140114" />
	</node>
	<node id="-878488" lat="69.2682166714" lon="18.8323222099">
		<tag k="name" v="Høgdamyra" />
		<tag k="natural" v="wetland" />
		<tag k="ssr:stedsnr" v="839613" />
	</node>
	<node id="-876439" lat="69.4549527776" lon="18.4794694442">
		<tag k="name" v="Skjevelmyra" />
		<tag k="natural" v="wetland" />
		<tag k="ssr:stedsnr" v="899357" />
	</node>
	<node id="-876438" lat="69.4628416703" lon="18.4843972198">
		<tag k="name" v="Saumyra" />
		<tag k="natural" v="wetland" />
		<tag k="ssr:stedsnr" v="899356" />
	</node>
	<node id="-875411" lat="69.2478916666" lon="19.1735749799">
		<tag k="name" v="Forselvmyra" />
>>>>>>> e1d4bc35ff8a6074a6f2e91616a996b547c36f15
		<tag k="natural" v="wetland" />
		<tag k="ssr:stedsnr" v="474156" />
	</node>
<<<<<<< HEAD
	<node lat="69.24125833358568" lon="19.199827779914713" id="-39191">
		<tag k="name" v="Sæterjorda" />
		<tag k="place" v="locality" />
		<tag k="ssr:stedsnr" v="352002" />
	</node>
	<node lat="69.15661944675733" lon="19.330147225578262" id="-39227">
		<tag k="name" v="Mellemslåtta" />
		<tag k="place" v="locality" />
		<tag k="ssr:stedsnr" v="352763" />
	</node>
	<node lat="69.07876389107312" lon="19.23374164958111" id="-39248">
		<tag k="name" v="Tjærradalsmyra" />
		<tag k="natural" v="wetland" />
		<tag k="ssr:stedsnr" v="474451" />
	</node>
	<node lat="69.07255278165857" lon="19.272311095804127" id="-39249">
		<tag k="name" v="Holmboemyra" />
=======
	<node id="-874897" lat="69.0700692202" lon="19.2353051697">
		<tag k="name" v="Langmyra" />
		<tag k="natural" v="wetland" />
		<tag k="ssr:stedsnr" v="231522" />
	</node>
	<node id="-878646" lat="69.2706944437" lon="19.0813972094">
		<tag k="name" v="Biskemerramyra" />
		<tag k="natural" v="wetland" />
		<tag k="ssr:stedsnr" v="959896" />
	</node>
	<node id="-874989" lat="69.208691668" lon="19.7807388881">
		<tag k="name" v="Stormyra" />
		<tag k="natural" v="wetland" />
		<tag k="ssr:stedsnr" v="109005" />
	</node>
	<node id="-878476" lat="69.3156888909" lon="18.8378972296">
		<tag k="name" v="Åsmyra" />
		<tag k="natural" v="wetland" />
		<tag k="ssr:stedsnr" v="839590" />
	</node>
	<node id="-876426" lat="69.3677666661" lon="18.7733222227">
		<tag k="name" v="Tjønnmyra" />
		<tag k="natural" v="wetland" />
		<tag k="ssr:stedsnr" v="899009" />
	</node>
	<node id="-875913" lat="69.3320861164" lon="19.4158499816">
		<tag k="name" v="Ráidagasgállu" />
		<tag k="name:se" v="Ráidagasgállu" />
		<tag k="natural" v="stone" />
		<tag k="ssr:stedsnr" v="534602" />
	</node>
	<node id="-878471" lat="69.3397916694" lon="18.8837138756">
		<tag k="name" v="Vedmyra" />
>>>>>>> e1d4bc35ff8a6074a6f2e91616a996b547c36f15
		<tag k="natural" v="wetland" />
		<tag k="ssr:stedsnr" v="474452" />
	</node>
<<<<<<< HEAD
	<node lat="69.40935277744886" lon="19.27501666101194" id="-39255">
		<tag k="name" v="Joabslåtten" />
		<tag k="place" v="locality" />
		<tag k="ssr:stedsnr" v="474477" />
	</node>
	<node lat="69.24838611340546" lon="18.8359194372632" id="-39263">
		<tag k="name" v="Holmyra" />
		<tag k="natural" v="wetland" />
		<tag k="ssr:stedsnr" v="474636" />
	</node>
	<node lat="69.40194166842221" lon="19.28679444343998" id="-39267">
		<tag k="name" v="Gråsteinan" />
		<tag k="natural" v="stone" />
		<tag k="ssr:stedsnr" v="474599" />
	</node>
	<node lat="69.39595277668926" lon="19.27259999722871" id="-39268">
		<tag k="name" v="Storleirmelen" />
		<tag k="place" v="locality" />
		<tag k="ssr:stedsnr" v="474600" />
	</node>
	<node lat="69.26614721973107" lon="18.836833320527848" id="-39269">
		<tag k="name" v="Tøllevmyra" />
		<tag k="natural" v="wetland" />
		<tag k="ssr:stedsnr" v="474644" />
	</node>
	<node lat="69.31691111462098" lon="19.301547220287258" id="-39272">
		<tag k="name" v="Halsskjærmyra" />
=======
	<node id="-875329" lat="69.3253333338" lon="19.4467055353">
		<tag k="name" v="Radiosteinen" />
		<tag k="natural" v="stone" />
		<tag k="ssr:stedsnr" v="231162" />
	</node>
	<node id="-875906" lat="69.1990944412" lon="19.6656166599">
		<tag k="name" v="Piggsteinen" />
		<tag k="natural" v="stone" />
		<tag k="ssr:stedsnr" v="534220" />
	</node>
	<node id="-876928" lat="69.1197500016" lon="19.7046083187">
		<tag k="name" v="Stormyra" />
		<tag k="natural" v="wetland" />
		<tag k="ssr:stedsnr" v="139516" />
	</node>
	<node id="-878460" lat="69.310875003" lon="19.0569027686">
		<tag k="name" v="Langmyrene" />
		<tag k="natural" v="wetland" />
		<tag k="ssr:stedsnr" v="839404" />
	</node>
	<node id="-877941" lat="69.3214166686" lon="18.8618749987">
		<tag k="name" v="Kobbenesmyra" />
>>>>>>> e1d4bc35ff8a6074a6f2e91616a996b547c36f15
		<tag k="natural" v="wetland" />
		<tag k="ssr:stedsnr" v="474750" />
	</node>
<<<<<<< HEAD
	<node lat="69.29582500300839" lon="18.90284444979786" id="-39292">
		<tag k="name" v="Storelvmyra" />
=======
	<node id="-876915" lat="69.2630083369" lon="19.4488638723">
		<tag k="name" v="Storsteinmyra" />
>>>>>>> e1d4bc35ff8a6074a6f2e91616a996b547c36f15
		<tag k="natural" v="wetland" />
		<tag k="ssr:stedsnr" v="475436" />
	</node>
<<<<<<< HEAD
	<node lat="69.07581389046085" lon="19.24522499879063" id="-39346">
		<tag k="name" v="Lokkertmyra" />
		<tag k="natural" v="wetland" />
		<tag k="ssr:stedsnr" v="413494" />
	</node>
	<node lat="69.15114444967085" lon="19.31875553753135" id="-39356">
		<tag k="name" v="Sennavassmyra" />
=======
	<node id="-876402" lat="69.4401305603" lon="18.9322972164">
		<tag k="name" v="Boikamyra" />
		<tag k="natural" v="wetland" />
		<tag k="ssr:stedsnr" v="947799" />
	</node>
	<node id="-876913" lat="69.3670833302" lon="18.9485833155">
		<tag k="alt_name" v="Malangseidmyrene" />
		<tag k="name" v="Malangseidmyran" />
>>>>>>> e1d4bc35ff8a6074a6f2e91616a996b547c36f15
		<tag k="natural" v="wetland" />
		<tag k="ssr:stedsnr" v="413789" />
	</node>
<<<<<<< HEAD
	<node lat="69.29701944262452" lon="19.029797217726287" id="-39362">
		<tag k="name" v="Høgholtan" />
		<tag k="place" v="locality" />
		<tag k="ssr:stedsnr" v="414402" />
	</node>
	<node lat="69.50284444453288" lon="18.46564167087997" id="-39363">
		<tag k="name" v="Blåura" />
		<tag k="natural" v="scree" />
		<tag k="ssr:stedsnr" v="414340" />
	</node>
	<node lat="69.30760000294222" lon="19.029974982066705" id="-39365">
		<tag k="name" v="Godmyra" />
=======
	<node id="-877936" lat="69.1715833361" lon="18.9847110976">
		<tag k="name" v="Skjellmyra" />
		<tag k="natural" v="wetland" />
		<tag k="ssr:stedsnr" v="596807" />
	</node>
	<node id="-874863" lat="69.2933638933" lon="19.4714083217">
		<tag k="name" v="Bjørnelvmyra" />
		<tag k="natural" v="wetland" />
		<tag k="ssr:stedsnr" v="18316" />
	</node>
	<node id="-874861" lat="69.3002000003" lon="19.50386111">
		<tag k="name" v="Mattismyra" />
		<tag k="natural" v="wetland" />
		<tag k="ssr:stedsnr" v="18303" />
	</node>
	<node id="-876907" lat="69.2194805581" lon="19.7959222164">
		<tag k="loc_name:se" v="Čáhceriđđu" />
		<tag k="name" v="Vasskreda" />
		<tag k="name:no" v="Vasskreda" />
		<tag k="natural" v="scree" />
		<tag k="ssr:stedsnr" v="139123" />
	</node>
	<node id="-878441" lat="69.392850001" lon="18.6332472187">
		<tag k="name" v="Rambergmyra" />
		<tag k="natural" v="wetland" />
		<tag k="ssr:stedsnr" v="839198" />
	</node>
	<node id="-874945" lat="69.0479805537" lon="19.3090638885">
		<tag k="name" v="Melkelvliskogen" />
		<tag k="place" v="locality" />
		<tag k="ssr:stedsnr" v="37959" />
	</node>
	<node id="-877059" lat="69.3476027774" lon="18.8485583144">
		<tag k="name" v="Forsmyra" />
		<tag k="natural" v="wetland" />
		<tag k="ssr:stedsnr" v="171594" />
	</node>
	<node id="-877924" lat="69.2519777816" lon="18.8699805492">
		<tag k="name" v="Stormyra" />
		<tag k="natural" v="wetland" />
		<tag k="ssr:stedsnr" v="596545" />
	</node>
	<node id="-876387" lat="69.1007388897" lon="19.1741749976">
		<tag k="name" v="Råttmyra" />
		<tag k="natural" v="wetland" />
		<tag k="ssr:stedsnr" v="838317" />
	</node>
	<node id="-875874" lat="69.0757333309" lon="19.5456444269">
		<tag k="alt_name" v="Tyvhaugmyra" />
		<tag k="name" v="Tjuvhaugmyra" />
		<tag k="natural" v="wetland" />
		<tag k="ssr:stedsnr" v="686467" />
	</node>
	<node id="-876385" lat="69.3097305523" lon="19.4535333196">
		<tag k="name" v="Storsteinmyra" />
		<tag k="natural" v="wetland" />
		<tag k="ssr:stedsnr" v="838313" />
	</node>
	<node id="-876384" lat="69.2874472261" lon="19.5199972245">
		<tag k="name" v="Allmenningen" />
		<tag k="place" v="locality" />
		<tag k="ssr:stedsnr" v="838163" />
	</node>
	<node id="-874844" lat="69.2081916703" lon="19.5705833326">
		<tag k="name" v="Tvillingan" />
		<tag k="natural" v="stone" />
		<tag k="ssr:stedsnr" v="219182" />
	</node>
	<node id="-877626" lat="69.209377779" lon="19.3119860941">
		<tag k="name" v="Tverrelvmyra" />
		<tag k="natural" v="wetland" />
		<tag k="ssr:stedsnr" v="534835" />
	</node>
	<node id="-876378" lat="69.3394333356" lon="19.5706222232">
		<tag k="name" v="Storjorda" />
		<tag k="place" v="locality" />
		<tag k="ssr:stedsnr" v="838210" />
	</node>
	<node id="-878424" lat="69.4123916684" lon="19.0812166646">
		<tag k="name" v="Kløyversteinen" />
		<tag k="natural" v="stone" />
		<tag k="ssr:stedsnr" v="838777" />
	</node>
	<node id="-876375" lat="69.2357111077" lon="19.2340916511">
		<tag k="name" v="Brattmelen" />
		<tag k="place" v="locality" />
		<tag k="ssr:stedsnr" v="838010" />
	</node>
	<node id="-876886" lat="69.1882638884" lon="18.9973472119">
		<tag k="name" v="Vargemyra" />
		<tag k="natural" v="wetland" />
		<tag k="ssr:stedsnr" v="138976" />
	</node>
	<node id="-876373" lat="69.3412944449" lon="19.4104999972">
		<tag k="name" v="Kirkesteinura" />
		<tag k="natural" v="scree" />
		<tag k="ssr:stedsnr" v="825509" />
	</node>
	<node id="-875346" lat="69.1928000038" lon="19.317383335">
		<tag k="name" v="Fjellmyra" />
		<tag k="natural" v="wetland" />
		<tag k="ssr:stedsnr" v="231865" />
	</node>
	<node id="-875342" lat="69.3905250027" lon="19.2643999847">
		<tag k="name" v="Nerskredene" />
		<tag k="natural" v="scree" />
		<tag k="place" v="locality" />
		<tag k="ssr:stedsnr" v="231714" />
	</node>
	<node id="-875341" lat="69.1859638902" lon="19.1553555439">
		<tag k="name" v="Stordalsmyra" />
		<tag k="natural" v="wetland" />
		<tag k="ssr:stedsnr" v="231562" />
	</node>
	<node id="-877898" lat="69.3215555523" lon="18.7691416565">
		<tag k="name" v="Stormyra" />
		<tag k="natural" v="wetland" />
		<tag k="ssr:stedsnr" v="595884" />
	</node>
	<node id="-875337" lat="69.2119055542" lon="19.6212722001">
		<tag k="name" v="Forrmyra" />
>>>>>>> e1d4bc35ff8a6074a6f2e91616a996b547c36f15
		<tag k="natural" v="wetland" />
		<tag k="ssr:stedsnr" v="414389" />
	</node>
<<<<<<< HEAD
	<node lat="69.26156389125231" lon="18.787424998553604" id="-39371">
		<tag k="name" v="Langmyra" />
		<tag k="natural" v="wetland" />
		<tag k="ssr:stedsnr" v="414700" />
	</node>
	<node lat="69.27243055914667" lon="18.731994447644983" id="-39372">
		<tag k="name" v="Finnmyra" />
		<tag k="natural" v="wetland" />
		<tag k="ssr:stedsnr" v="414590" />
	</node>
	<node lat="69.18140555713873" lon="19.025722218107084" id="-39439">
		<tag k="name" v="Bjørnmyra" />
=======
	<node id="-876867" lat="69.249972218" lon="18.8197027749">
		<tag k="name" v="Storskreda" />
		<tag k="natural" v="scree" />
		<tag k="place" v="locality" />
		<tag k="ssr:stedsnr" v="111687" />
	</node>
	<node id="-877889" lat="69.1278694413" lon="19.0539333308">
		<tag k="name" v="Furuholtet" />
		<tag k="place" v="locality" />
		<tag k="ssr:stedsnr" v="595759" />
	</node>
	<node id="-875573" lat="69.312125001" lon="19.5275694336">
		<tag k="name" v="Trollmyra" />
		<tag k="natural" v="wetland" />
		<tag k="ssr:stedsnr" v="322113" />
	</node>
	<node id="-876860" lat="69.2698277827" lon="18.7360388766">
		<tag k="name" v="Rundhaugmyra" />
>>>>>>> e1d4bc35ff8a6074a6f2e91616a996b547c36f15
		<tag k="natural" v="wetland" />
		<tag k="ssr:stedsnr" v="475813" />
	</node>
<<<<<<< HEAD
	<node lat="69.21232222573187" lon="19.223111097785022" id="-39474">
		<tag k="name" v="Langmyra" />
=======
	<node id="-874890" lat="69.4415944459" lon="18.4859638831">
		<tag k="name" v="Leira" />
		<tag k="place" v="locality" />
		<tag k="ssr:stedsnr" v="231392" />
	</node>
	<node id="-877881" lat="69.3825972207" lon="19.1550194429">
		<tag k="name" v="Fjellfinnmyrene" />
>>>>>>> e1d4bc35ff8a6074a6f2e91616a996b547c36f15
		<tag k="natural" v="wetland" />
		<tag k="ssr:stedsnr" v="685139" />
	</node>
<<<<<<< HEAD
	<node lat="69.25864722136176" lon="19.463827777699503" id="-39521">
		<tag k="name" v="Undbuksmyra" />
=======
	<node id="-876856" lat="69.2516388903" lon="18.9217138743">
		<tag k="name" v="Klubbemyra" />
>>>>>>> e1d4bc35ff8a6074a6f2e91616a996b547c36f15
		<tag k="natural" v="wetland" />
		<tag k="ssr:stedsnr" v="686308" />
	</node>
<<<<<<< HEAD
	<node lat="69.1547805599654" lon="19.295352775634484" id="-39542">
		<tag k="name" v="Sennamyra" />
		<tag k="natural" v="wetland" />
		<tag k="ssr:stedsnr" v="534772" />
	</node>
	<node lat="69.17181666856995" lon="19.31821944588063" id="-39545">
		<tag k="name" v="Langnesmyra" />
=======
	<node id="-875572" lat="69.2092305529" lon="19.2849777581">
		<tag k="name" v="Brennmomyra" />
		<tag k="natural" v="wetland" />
		<tag k="ssr:stedsnr" v="322109" />
	</node>
	<node id="-878046" lat="69.3578194436" lon="19.3932666491">
		<tag k="name" v="Blanksteinen" />
		<tag k="natural" v="stone" />
		<tag k="ssr:stedsnr" v="643610" />
	</node>
	<node id="-877874" lat="69.3850277773" lon="19.2826638861">
		<tag k="name" v="Rødmyra" />
>>>>>>> e1d4bc35ff8a6074a6f2e91616a996b547c36f15
		<tag k="natural" v="wetland" />
		<tag k="ssr:stedsnr" v="534779" />
	</node>
<<<<<<< HEAD
	<node lat="69.07124444872288" lon="19.248474984874058" id="-39546">
		<tag k="name" v="Reinmyra" />
=======
	<node id="-878387" lat="69.2959722189" lon="19.447847207">
		<tag k="name" v="Syrasdalmyra" />
		<tag k="natural" v="wetland" />
		<tag k="ssr:stedsnr" v="838176" />
	</node>
	<node id="-878384" lat="69.1221250043" lon="19.3885166481">
		<tag k="name" v="Finnjordene" />
>>>>>>> e1d4bc35ff8a6074a6f2e91616a996b547c36f15
		<tag k="natural" v="wetland" />
		<tag k="ssr:stedsnr" v="534470" />
	</node>
<<<<<<< HEAD
	<node lat="69.06455277816703" lon="19.26729721577193" id="-39548">
		<tag k="name" v="Blautmyra" />
=======
	<node id="-878382" lat="69.043038886" lon="19.3075138745">
		<tag k="name" v="Tredjekjosmyrene" />
>>>>>>> e1d4bc35ff8a6074a6f2e91616a996b547c36f15
		<tag k="natural" v="wetland" />
		<tag k="ssr:stedsnr" v="534472" />
	</node>
<<<<<<< HEAD
	<node lat="69.33208611636343" lon="19.415849981637802" id="-39549">
		<tag k="name" v="Ráidagasgállu" />
		<tag k="name:se" v="Ráidagasgállu" />
		<tag k="natural" v="stone" />
		<tag k="ssr:stedsnr" v="534602" />
	</node>
	<node lat="69.38736388956583" lon="19.251594429534503" id="-39550">
		<tag k="name" v="Innersteinlægda" />
		<tag k="natural" v="scree" />
		<tag k="ssr:stedsnr" v="534676" />
	</node>
	<node lat="69.07573333092391" lon="19.545644426922156" id="-39558">
		<tag k="alt_name" v="Tyvhaugmyra" />
		<tag k="name" v="Tjuvhaugmyra" />
		<tag k="natural" v="wetland" />
		<tag k="ssr:stedsnr" v="686467" />
	</node>
	<node lat="69.28403611074822" lon="18.99293888138262" id="-39562">
		<tag k="name" v="Nils-Nilsamyra" />
=======
	<node id="-875309" lat="69.2892611135" lon="19.4520833182">
		<tag k="alt_name" v="Stormyra" />
		<tag k="name" v="Stormyran" />
		<tag k="natural" v="wetland" />
		<tag k="ssr:stedsnr" v="443374" />
	</node>
	<node id="-877867" lat="69.084294448" lon="19.2099194309">
		<tag k="name" v="Strømslimyrene" />
		<tag k="natural" v="wetland" />
		<tag k="ssr:stedsnr" v="595446" />
	</node>
	<node id="-875306" lat="69.2628749965" lon="19.4655055354">
		<tag k="name" v="Arnemyra" />
		<tag k="natural" v="wetland" />
		<tag k="ssr:stedsnr" v="443344" />
	</node>
	<node id="-876167" lat="69.214536113" lon="19.1490694415">
		<tag k="name" v="Åsmyra" />
		<tag k="natural" v="wetland" />
		<tag k="ssr:stedsnr" v="899277" />
	</node>
	<node id="-877864" lat="69.0800027817" lon="19.2174499957">
		<tag k="name" v="Vassmomyra" />
>>>>>>> e1d4bc35ff8a6074a6f2e91616a996b547c36f15
		<tag k="natural" v="wetland" />
		<tag k="ssr:stedsnr" v="535373" />
	</node>
<<<<<<< HEAD
	<node lat="69.38202222184641" lon="18.932702771630495" id="-39566">
		<tag k="name" v="Kvitsteinskogen" />
		<tag k="place" v="locality" />
		<tag k="ssr:stedsnr" v="535272" />
	</node>
	<node lat="69.31976110858601" lon="19.296905548542156" id="-39569">
		<tag k="name" v="Torvskjåmyra" />
=======
	<node id="-875303" lat="69.2760805574" lon="19.4699472067">
		<tag k="name" v="Lavvassmyra" />
		<tag k="natural" v="wetland" />
		<tag k="ssr:stedsnr" v="443323" />
	</node>
	<node id="-877617" lat="69.3874611108" lon="19.2820111007">
		<tag k="name" v="Antaslåtten" />
		<tag k="place" v="locality" />
		<tag k="ssr:stedsnr" v="534548" />
	</node>
	<node id="-877858" lat="69.2725722205" lon="19.1450305441">
		<tag k="name" v="Hestemyra" />
>>>>>>> e1d4bc35ff8a6074a6f2e91616a996b547c36f15
		<tag k="natural" v="wetland" />
		<tag k="ssr:stedsnr" v="535708" />
	</node>
<<<<<<< HEAD
	<node lat="69.26368055196049" lon="18.89734166161675" id="-39581">
		<tag k="name" v="Grøtsteinmyra" />
		<tag k="natural" v="wetland" />
		<tag k="ssr:stedsnr" v="536475" />
	</node>
	<node lat="69.26168889228427" lon="18.773508341685282" id="-39582">
		<tag k="name" v="Frostmyra" />
		<tag k="natural" v="wetland" />
		<tag k="ssr:stedsnr" v="536704" />
	</node>
	<node lat="69.49062500174388" lon="19.004597225421232" id="-39586">
		<tag k="name" v="Allmenning" />
		<tag k="place" v="locality" />
		<tag k="ssr:stedsnr" v="537187" />
	</node>
	<node lat="69.33848055597902" lon="19.57286942304449" id="-39634">
		<tag k="name" v="Høgmelen" />
		<tag k="place" v="locality" />
		<tag k="ssr:stedsnr" v="595151" />
	</node>
	<node lat="69.37927499692965" lon="19.262583335862566" id="-39655">
		<tag k="name" v="Imarohtu" />
		<tag k="name:se" v="Imarohtu" />
=======
	<node id="-875809" lat="69.2123222257" lon="19.2231110978">
		<tag k="name" v="Langmyra" />
		<tag k="natural" v="wetland" />
		<tag k="ssr:stedsnr" v="685139" />
	</node>
	<node id="-876165" lat="69.2766222252" lon="19.1427333376">
		<tag k="name" v="Stormyra" />
		<tag k="natural" v="wetland" />
		<tag k="ssr:stedsnr" v="899147" />
	</node>
	<node id="-875147" lat="69.4129888901" lon="19.264552765">
		<tag k="name" v="Tornakselskreda" />
		<tag k="natural" v="scree" />
		<tag k="place" v="locality" />
		<tag k="ssr:stedsnr" v="292448" />
	</node>
	<node id="-876823" lat="69.3854111105" lon="19.2384638879">
		<tag k="name" v="Steinlægda" />
		<tag k="natural" v="scree" />
		<tag k="ssr:stedsnr" v="110687" />
	</node>
	<node id="-877845" lat="69.2220333329" lon="19.5664638708">
		<tag k="name" v="Litjevollskogen" />
>>>>>>> e1d4bc35ff8a6074a6f2e91616a996b547c36f15
		<tag k="place" v="locality" />
		<tag k="ssr:stedsnr" v="595905" />
	</node>
<<<<<<< HEAD
	<node lat="69.17158333612262" lon="18.984711097554474" id="-39666">
		<tag k="name" v="Skjellmyra" />
=======
	<node id="-876308" lat="69.105183337" lon="19.5866333207">
		<tag k="alt_name" v="Bjørnmyra" />
		<tag k="name" v="Bjørnemyra" />
>>>>>>> e1d4bc35ff8a6074a6f2e91616a996b547c36f15
		<tag k="natural" v="wetland" />
		<tag k="ssr:stedsnr" v="596807" />
	</node>
<<<<<<< HEAD
	<node lat="69.05888055756823" lon="19.304686107429685" id="-39697">
		<tag k="name" v="Øvermyra" />
		<tag k="natural" v="wetland" />
		<tag k="ssr:stedsnr" v="704932" />
	</node>
	<node lat="69.04228333381768" lon="19.31173333605602" id="-39699">
		<tag k="name" v="Tøløvromskogen" />
		<tag k="place" v="locality" />
		<tag k="ssr:stedsnr" v="704942" />
	</node>
	<node lat="69.26649444791462" lon="19.222141661244116" id="-39708">
		<tag k="name" v="Langmyra" />
		<tag k="natural" v="wetland" />
		<tag k="ssr:stedsnr" v="655407" />
	</node>
	<node lat="69.37392500214666" lon="19.38674998343541" id="-39710">
		<tag k="name" v="Ulvesteinen - Návdegállu" />
		<tag k="name:no" v="Ulvesteinen" />
		<tag k="name:se" v="Návdegállu" />
		<tag k="natural" v="stone" />
		<tag k="ssr:stedsnr" v="655400" />
	</node>
	<node lat="69.18828888626956" lon="19.01803332947596" id="-39714">
		<tag k="name" v="Froskeholmyrene" />
		<tag k="natural" v="wetland" />
		<tag k="ssr:stedsnr" v="655910" />
	</node>
	<node lat="69.0785444439801" lon="19.271186106296675" id="-39730">
		<tag k="name" v="Kvenstakkmyra" />
=======
	<node id="-877614" lat="69.0645527782" lon="19.2672972158">
		<tag k="name" v="Blautmyra" />
		<tag k="natural" v="wetland" />
		<tag k="ssr:stedsnr" v="534472" />
	</node>
	<node id="-878211" lat="69.2542722261" lon="19.0965638934">
		<tag k="name" v="Stormyra" />
		<tag k="natural" v="wetland" />
		<tag k="ssr:stedsnr" v="777971" />
	</node>
	<node id="-876051" lat="69.0962583293" lon="19.6952972192">
		<tag k="name" v="Tvillingan" />
		<tag k="natural" v="stone" />
		<tag k="ssr:stedsnr" v="717997" />
	</node>
	<node id="-877016" lat="69.2987361144" lon="19.2962777647">
		<tag k="name" v="Steinkirka" />
		<tag k="natural" v="stone" />
		<tag k="ssr:stedsnr" v="170761" />
	</node>
	<node id="-876814" lat="69.2078055595" lon="19.2197916503">
		<tag k="name" v="Langmyra" />
		<tag k="natural" v="wetland" />
		<tag k="ssr:stedsnr" v="110372" />
	</node>
	<node id="-877836" lat="69.338480556" lon="19.572869423">
		<tag k="name" v="Høgmelen" />
		<tag k="place" v="locality" />
		<tag k="ssr:stedsnr" v="595151" />
	</node>
	<node id="-877832" lat="69.2915388905" lon="19.484030536">
		<tag k="name" v="Allmenningen" />
		<tag k="place" v="locality" />
		<tag k="ssr:stedsnr" v="595124" />
	</node>
	<node id="-876807" lat="69.0732861132" lon="19.2229638819">
		<tag k="name" v="Kirkegårdsmyra" />
>>>>>>> e1d4bc35ff8a6074a6f2e91616a996b547c36f15
		<tag k="natural" v="wetland" />
		<tag k="ssr:stedsnr" v="656481" />
	</node>
<<<<<<< HEAD
	<node lat="69.4122916686775" lon="19.280975002426334" id="-39731">
		<tag k="name" v="Midtjorda - Gaskagieddi" />
		<tag k="name:no" v="Midtjorda" />
		<tag k="name:se" v="Gaskagieddi" />
=======
	<node id="-877315" lat="69.1566194468" lon="19.3301472256">
		<tag k="name" v="Mellemslåtta" />
>>>>>>> e1d4bc35ff8a6074a6f2e91616a996b547c36f15
		<tag k="place" v="locality" />
		<tag k="ssr:stedsnr" v="656482" />
	</node>
<<<<<<< HEAD
	<node lat="69.41791666405615" lon="19.276369425110545" id="-39732">
		<tag k="name" v="Stormyra" />
		<tag k="natural" v="wetland" />
		<tag k="ssr:stedsnr" v="656484" />
	</node>
	<node lat="69.39617222123215" lon="19.293747206548634" id="-39734">
		<tag k="name" v="Sukkertoppen" />
		<tag k="natural" v="stone" />
		<tag k="ssr:stedsnr" v="656608" />
	</node>
	<node lat="69.3099305568901" lon="18.852427781408156" id="-39735">
		<tag k="name" v="Bjørnmyra" />
=======
	<node id="-877310" lat="69.1511555543" lon="19.2692666657">
		<tag k="name" v="Kvenhesjene" />
		<tag k="natural" v="wetland" />
		<tag k="ssr:stedsnr" v="352752" />
	</node>
	<node id="-876285" lat="69.3643861112" lon="18.828797209">
		<tag k="name" v="Ibertmyra" />
>>>>>>> e1d4bc35ff8a6074a6f2e91616a996b547c36f15
		<tag k="natural" v="wetland" />
		<tag k="ssr:stedsnr" v="656639" />
	</node>
<<<<<<< HEAD
	<node lat="69.16279722450386" lon="19.07712775995895" id="-39753">
		<tag k="name" v="Gorrmyra" />
		<tag k="natural" v="wetland" />
		<tag k="ssr:stedsnr" v="657888" />
	</node>
	<node lat="69.43839722113589" lon="19.054341655600588" id="-39789">
		<tag k="name" v="Blåsteinmyra" />
		<tag k="natural" v="wetland" />
		<tag k="ssr:stedsnr" v="899780" />
	</node>
	<node lat="69.36776666608874" lon="18.773322222657214" id="-39799">
		<tag k="name" v="Tjønnmyra" />
=======
	<node id="-877354" lat="69.2710111078" lon="18.7735583339">
		<tag k="name" v="Stormyra" />
		<tag k="natural" v="wetland" />
		<tag k="ssr:stedsnr" v="353694" />
	</node>
	<node id="-877818" lat="69.1715166646" lon="19.7977138733">
		<tag k="name" v="Alexsteinen" />
		<tag k="natural" v="stone" />
		<tag k="ssr:stedsnr" v="594247" />
	</node>
	<node id="-875768" lat="69.2043583347" lon="19.2608472061">
		<tag k="name" v="Stormyra" />
		<tag k="natural" v="wetland" />
		<tag k="ssr:stedsnr" v="443126" />
	</node>
	<node id="-877301" lat="69.3873694475" lon="19.1049083279">
		<tag k="name" v="Kvitkua" />
		<tag k="natural" v="stone" />
		<tag k="ssr:stedsnr" v="352694" />
	</node>
	<node id="-876787" lat="69.2939833342" lon="19.4702972145">
		<tag k="name" v="Bjørnjernmyra" />
>>>>>>> e1d4bc35ff8a6074a6f2e91616a996b547c36f15
		<tag k="natural" v="wetland" />
		<tag k="ssr:stedsnr" v="899009" />
	</node>
<<<<<<< HEAD
	<node lat="69.39390555162718" lon="19.259824996382264" id="-39802">
		<tag k="name" v="Mellaskredene" />
		<tag k="natural" v="scree" />
		<tag k="place" v="locality" />
		<tag k="ssr:stedsnr" v="716682" />
	</node>
	<node lat="69.29373333504252" lon="19.483472223523528" id="-39815">
		<tag k="name" v="Langmyra" />
		<tag k="natural" v="wetland" />
		<tag k="ssr:stedsnr" v="899140" />
	</node>
	<node lat="69.2766222251647" lon="19.14273333759339" id="-39817">
		<tag k="name" v="Stormyra" />
=======
	<node id="-877810" lat="69.2130527747" lon="19.517533313">
		<tag k="name" v="Jørnjordene" />
		<tag k="place" v="locality" />
		<tag k="ssr:stedsnr" v="583182" />
	</node>
	<node id="-877296" lat="69.3854027788" lon="19.2833222127">
		<tag k="name" v="Rødmyrsteinen" />
		<tag k="natural" v="stone" />
		<tag k="ssr:stedsnr" v="352540" />
	</node>
	<node id="-874946" lat="69.0450999958" lon="19.3236972214">
		<tag k="name" v="Fjerdekjosmyra" />
		<tag k="natural" v="wetland" />
		<tag k="ssr:stedsnr" v="37960" />
	</node>
	<node id="-877181" lat="69.2150500016" lon="19.3129360971">
		<tag k="alt_name" v="Foremyra" />
		<tag k="name" v="Forrmyra" />
		<tag k="natural" v="wetland" />
		<tag k="ssr:stedsnr" v="321137" />
	</node>
	<node id="-876776" lat="69.0558611111" lon="19.2832805485">
		<tag k="name" v="Melkelvmyrene" />
>>>>>>> e1d4bc35ff8a6074a6f2e91616a996b547c36f15
		<tag k="natural" v="wetland" />
		<tag k="ssr:stedsnr" v="899147" />
	</node>
<<<<<<< HEAD
	<node lat="69.09625832925956" lon="19.69529721923305" id="-39828">
		<tag k="name" v="Tvillingan" />
		<tag k="natural" v="stone" />
		<tag k="ssr:stedsnr" v="717997" />
	</node>
	<node lat="69.21453611302759" lon="19.149069441461087" id="-39831">
		<tag k="name" v="Åsmyra" />
		<tag k="natural" v="wetland" />
		<tag k="ssr:stedsnr" v="899277" />
	</node>
	<node lat="69.29356944165887" lon="19.33765000190756" id="-39858">
		<tag k="name" v="Langnesøyra" />
=======
	<node id="-876771" lat="69.2036027755" lon="19.5484666532">
		<tag k="name" v="Ytterskreda" />
		<tag k="natural" v="scree" />
		<tag k="place" v="locality" />
		<tag k="ssr:stedsnr" v="97199" />
	</node>
	<node id="-877279" lat="69.2412583336" lon="19.1998277799">
		<tag k="name" v="Sæterjorda" />
>>>>>>> e1d4bc35ff8a6074a6f2e91616a996b547c36f15
		<tag k="place" v="locality" />
		<tag k="ssr:stedsnr" v="899579" />
	</node>
<<<<<<< HEAD
	<node lat="69.39615000080026" lon="19.25987220656764" id="-39860">
		<tag k="name" v="Øverskredene" />
		<tag k="natural" v="scree" />
		<tag k="place" v="locality" />
		<tag k="ssr:stedsnr" v="899601" />
	</node>
	<node lat="69.41308055927587" lon="18.964469426810055" id="-39861">
		<tag k="name" v="Galperodni" />
		<tag k="name:se" v="Galperodni" />
=======
	<node id="-876253" lat="69.0795444487" lon="19.6231361096">
		<tag k="name" v="Dápmotvuohorda" />
		<tag k="name:se" v="Dápmotvuohorda" />
		<tag k="place" v="locality" />
		<tag k="ssr:stedsnr" v="746462" />
	</node>
	<node id="-877787" lat="69.3498833377" lon="18.7380249971">
		<tag k="name" v="Stormyra" />
		<tag k="natural" v="wetland" />
		<tag k="ssr:stedsnr" v="564953" />
	</node>
	<node id="-876249" lat="69.2825805514" lon="19.0231277709">
		<tag k="alt_name" v="Urdmyra" />
		<tag k="name" v="Urmyra" />
>>>>>>> e1d4bc35ff8a6074a6f2e91616a996b547c36f15
		<tag k="natural" v="wetland" />
		<tag k="ssr:stedsnr" v="899660" />
	</node>
<<<<<<< HEAD
	<node lat="69.26792777772187" lon="19.408786104620397" id="-39862">
		<tag k="name" v="Seljelvøyra" />
		<tag k="place" v="locality" />
		<tag k="ssr:stedsnr" v="899634" />
	</node>
	<node lat="69.31724722576718" lon="18.847033340607968" id="-39874">
		<tag k="name" v="Tjønnmyra" />
=======
	<node id="-877268" lat="69.461569448" lon="19.0011138886">
		<tag k="name" v="Rypsnarmyra" />
		<tag k="natural" v="wetland" />
		<tag k="ssr:stedsnr" v="340683" />
	</node>
	<node id="-876755" lat="69.3436166663" lon="18.82072221">
		<tag k="name" v="Stormyra" />
		<tag k="natural" v="wetland" />
		<tag k="ssr:stedsnr" v="79981" />
	</node>
	<node id="-877266" lat="69.3438833356" lon="19.4091166613">
		<tag k="name" v="Kalvesteinen" />
		<tag k="natural" v="stone" />
		<tag k="ssr:stedsnr" v="340619" />
	</node>
	<node id="-877265" lat="69.3502000006" lon="19.3870972022">
		<tag k="name" v="Revhisteinen" />
		<tag k="natural" v="stone" />
		<tag k="ssr:stedsnr" v="340612" />
	</node>
	<node id="-877776" lat="69.2453749972" lon="18.8569416644">
		<tag k="name" v="Vesterlimyra" />
>>>>>>> e1d4bc35ff8a6074a6f2e91616a996b547c36f15
		<tag k="natural" v="wetland" />
		<tag k="ssr:stedsnr" v="900577" />
	</node>
<<<<<<< HEAD
	<node lat="69.20470833617566" lon="19.305049996570116" id="-39875">
		<tag k="name" v="Stormelmyra" />
=======
	<node id="-875727" lat="69.3099305569" lon="18.8524277814">
		<tag k="name" v="Bjørnmyra" />
>>>>>>> e1d4bc35ff8a6074a6f2e91616a996b547c36f15
		<tag k="natural" v="wetland" />
		<tag k="ssr:stedsnr" v="899850" />
	</node>
<<<<<<< HEAD
	<node lat="69.2050249984387" lon="19.302527769641785" id="-39877">
		<tag k="name" v="Stormelen" />
		<tag k="place" v="locality" />
		<tag k="ssr:stedsnr" v="899852" />
	</node>
	<node lat="69.31180833548481" lon="18.967194428960795" id="-39896">
=======
	<node id="-877054" lat="69.259652773" lon="18.9264138924">
		<tag k="name" v="Aspenesmyra" />
		<tag k="natural" v="wetland" />
		<tag k="ssr:stedsnr" v="171485" />
	</node>
	<node id="-878469" lat="69.2535611129" lon="18.9353972195">
		<tag k="name" v="Smalmyra" />
		<tag k="natural" v="wetland" />
		<tag k="ssr:stedsnr" v="839485" />
	</node>
	<node id="-875724" lat="69.3961722212" lon="19.2937472065">
		<tag k="name" v="Sukkertoppen" />
		<tag k="natural" v="stone" />
		<tag k="ssr:stedsnr" v="656608" />
	</node>
	<node id="-877346" lat="69.2629305592" lon="18.8551305615">
		<tag k="name" v="Gjøsmyra" />
		<tag k="natural" v="wetland" />
		<tag k="ssr:stedsnr" v="353596" />
	</node>
	<node id="-876663" lat="69.3666805554" lon="19.0369972221">
		<tag k="name" v="Heimen" />
		<tag k="place" v="locality" />
		<tag k="ssr:stedsnr" v="50672" />
	</node>
	<node id="-876230" lat="69.3118083355" lon="18.967194429">
>>>>>>> e1d4bc35ff8a6074a6f2e91616a996b547c36f15
		<tag k="name" v="Storengmyra" />
		<tag k="natural" v="wetland" />
		<tag k="ssr:stedsnr" v="900598" />
	</node>
<<<<<<< HEAD
	<node lat="69.35266944286023" lon="19.382363868380683" id="-39927">
		<tag k="name" v="Trennsteinen" />
		<tag k="natural" v="stone" />
		<tag k="ssr:stedsnr" v="764605" />
	</node>
	<node lat="69.27164722068527" lon="19.113249998773778" id="-39940">
		<tag k="name" v="Skjellmyra" />
=======
	<node id="-875717" lat="69.3409222266" lon="18.8949361049">
		<tag k="name" v="Stormyra" />
		<tag k="natural" v="wetland" />
		<tag k="ssr:stedsnr" v="656980" />
	</node>
	<node id="-876228" lat="69.3172472258" lon="18.8470333406">
		<tag k="name" v="Tjønnmyra" />
>>>>>>> e1d4bc35ff8a6074a6f2e91616a996b547c36f15
		<tag k="natural" v="wetland" />
		<tag k="ssr:stedsnr" v="777404" />
	</node>
<<<<<<< HEAD
	<node lat="69.25427222605947" lon="19.09656389340348" id="-39959">
		<tag k="name" v="Stormyra" />
		<tag k="natural" v="wetland" />
		<tag k="ssr:stedsnr" v="777971" />
	</node>
	<node lat="69.27353611386069" lon="18.89311944575554" id="-39968">
		<tag k="name" v="Aspenesmyra" />
		<tag k="natural" v="wetland" />
		<tag k="ssr:stedsnr" v="778420" />
	</node>
	<node lat="69.34129444493054" lon="19.410499997239203" id="-39976">
		<tag k="name" v="Kirkesteinura" />
		<tag k="natural" v="scree" />
		<tag k="ssr:stedsnr" v="825509" />
	</node>
	<node lat="69.33943333557649" lon="19.570622223189936" id="-39983">
		<tag k="name" v="Storjorda" />
		<tag k="place" v="locality" />
		<tag k="ssr:stedsnr" v="838210" />
	</node>
	<node lat="69.1221250042548" lon="19.388516648060406" id="-39985">
		<tag k="name" v="Finnjordene" />
		<tag k="natural" v="wetland" />
		<tag k="ssr:stedsnr" v="838130" />
	</node>
	<node lat="69.2959722188962" lon="19.447847206950435" id="-39986">
		<tag k="name" v="Syrasdalmyra" />
=======
	<node id="-878052" lat="69.0472138917" lon="19.3400277576">
		<tag k="name" v="Storskogen" />
		<tag k="place" v="locality" />
		<tag k="ssr:stedsnr" v="643934" />
	</node>
	<node id="-875178" lat="69.4370472184" lon="18.479399991">
		<tag k="name" v="Piksteinøyra" />
		<tag k="place" v="locality" />
		<tag k="ssr:stedsnr" v="292345" />
	</node>
	<node id="-875707" lat="69.1580416652" lon="19.2051305499">
		<tag k="name" v="Lasttaš" />
		<tag k="name:se" v="Lasttaš" />
		<tag k="natural" v="wetland" />
		<tag k="ssr:stedsnr" v="656429" />
	</node>
	<node id="-878266" lat="69.4580277773" lon="18.8829777835">
		<tag k="name" v="Diggmyrene" />
		<tag k="natural" v="wetland" />
		<tag k="ssr:stedsnr" v="778976" />
	</node>
	<node id="-876216" lat="69.3379861119" lon="18.8865583238">
		<tag k="name" v="Saumyra" />
>>>>>>> e1d4bc35ff8a6074a6f2e91616a996b547c36f15
		<tag k="natural" v="wetland" />
		<tag k="ssr:stedsnr" v="838176" />
	</node>
<<<<<<< HEAD
	<node lat="69.41239166837177" lon="19.081216664648036" id="-40000">
		<tag k="name" v="Kløyversteinen" />
		<tag k="natural" v="stone" />
		<tag k="ssr:stedsnr" v="838777" />
	</node>
	<node lat="69.39285000096082" lon="18.633247218673155" id="-40008">
		<tag k="name" v="Rambergmyra" />
		<tag k="natural" v="wetland" />
		<tag k="ssr:stedsnr" v="839198" />
	</node>
	<node lat="69.21026666555456" lon="19.139155558758354" id="-40011">
		<tag k="name" v="Snaråsmyra" />
=======
	<node id="-875190" lat="69.3071722213" lon="19.3222472114">
		<tag k="name" v="Rødmyra" />
		<tag k="natural" v="wetland" />
		<tag k="ssr:stedsnr" v="292736" />
	</node>
	<node id="-876489" lat="69.3125583298" lon="18.8522694409">
		<tag k="name" v="Stålvikmyra" />
		<tag k="natural" v="wetland" />
		<tag k="ssr:stedsnr" v="960614" />
	</node>
	<node id="-875697" lat="69.3932499984" lon="19.2777305404">
		<tag k="name" v="Bakkemyra" />
>>>>>>> e1d4bc35ff8a6074a6f2e91616a996b547c36f15
		<tag k="natural" v="wetland" />
		<tag k="ssr:stedsnr" v="839290" />
	</node>
<<<<<<< HEAD
	<node lat="69.31087500295526" lon="19.056902768569646" id="-40012">
		<tag k="name" v="Langmyrene" />
		<tag k="natural" v="wetland" />
		<tag k="ssr:stedsnr" v="839404" />
	</node>
	<node lat="69.31568889086476" lon="18.837897229580403" id="-40024">
		<tag k="name" v="Åsmyra" />
=======
	<node id="-875696" lat="69.4179166641" lon="19.2763694251">
		<tag k="name" v="Stormyra" />
		<tag k="natural" v="wetland" />
		<tag k="ssr:stedsnr" v="656484" />
	</node>
	<node id="-875695" lat="69.4122916687" lon="19.2809750024">
		<tag k="name" v="Midtjorda - Gaskagieddi" />
		<tag k="name:no" v="Midtjorda" />
		<tag k="name:se" v="Gaskagieddi" />
		<tag k="place" v="locality" />
		<tag k="ssr:stedsnr" v="656482" />
	</node>
	<node id="-875694" lat="69.078544444" lon="19.2711861063">
		<tag k="name" v="Kvenstakkmyra" />
>>>>>>> e1d4bc35ff8a6074a6f2e91616a996b547c36f15
		<tag k="natural" v="wetland" />
		<tag k="ssr:stedsnr" v="839590" />
	</node>
<<<<<<< HEAD
	<node lat="69.25356111293188" lon="18.935397219512353" id="-40028">
		<tag k="name" v="Smalmyra" />
		<tag k="natural" v="wetland" />
		<tag k="ssr:stedsnr" v="839485" />
	</node>
	<node lat="69.26821667143766" lon="18.83232220992182" id="-40031">
		<tag k="name" v="Høgdamyra" />
=======
	<node id="-875293" lat="69.2480972208" lon="19.5088916524">
		<tag k="name" v="Lomvassmyra" />
		<tag k="natural" v="wetland" />
		<tag k="ssr:stedsnr" v="443161" />
	</node>
	<node id="-876716" lat="69.0816361139" lon="19.5930472004">
		<tag k="name" v="Langmyra" />
>>>>>>> e1d4bc35ff8a6074a6f2e91616a996b547c36f15
		<tag k="natural" v="wetland" />
		<tag k="ssr:stedsnr" v="839613" />
	</node>
<<<<<<< HEAD
	<node lat="69.26424166384436" lon="18.75564999598554" id="-40034">
		<tag k="name" v="Rundmyra" />
		<tag k="natural" v="wetland" />
		<tag k="ssr:stedsnr" v="839696" />
	</node>
	<node lat="69.21243611029861" lon="19.175969435304317" id="-40131">
		<tag k="alt_name" v="Bukkemyra" />
		<tag k="name" v="Bukkemomyra" />
		<tag k="natural" v="wetland" />
		<tag k="ssr:stedsnr" v="868982" />
	</node>
	<node lat="69.46284167027407" lon="18.48439721982935" id="-40161">
		<tag k="name" v="Saumyra" />
=======
	<node id="-876914" lat="69.2609166715" lon="19.476391651">
		<tag k="name" v="Finnsteinmyra" />
		<tag k="natural" v="wetland" />
		<tag k="ssr:stedsnr" v="139342" />
	</node>
	<node id="-875690" lat="69.21579722" lon="19.5247694365">
		<tag k="name" v="Storleira" />
		<tag k="place" v="locality" />
		<tag k="ssr:stedsnr" v="656235" />
	</node>
	<node id="-874951" lat="69.3738055548" lon="18.9420666616">
		<tag k="name" v="Myrslett" />
		<tag k="place" v="locality" />
		<tag k="ssr:stedsnr" v="232677" />
	</node>
	<node id="-878248" lat="69.2514249985" lon="18.930008319">
		<tag k="name" v="Hestemyra" />
>>>>>>> e1d4bc35ff8a6074a6f2e91616a996b547c36f15
		<tag k="natural" v="wetland" />
		<tag k="ssr:stedsnr" v="899356" />
	</node>
<<<<<<< HEAD
	<node lat="69.45495277756524" lon="18.479469444187313" id="-40162">
		<tag k="name" v="Skjevelmyra" />
		<tag k="natural" v="wetland" />
		<tag k="ssr:stedsnr" v="899357" />
	</node>
	<node lat="69.31203611303532" lon="19.306672210252575" id="-40170">
		<tag k="name" v="Vassmyra" />
		<tag k="natural" v="wetland" />
		<tag k="ssr:stedsnr" v="899756" />
	</node>
	<node lat="69.33798611193222" lon="18.88655832380831" id="-40175">
		<tag k="name" v="Saumyra" />
		<tag k="natural" v="wetland" />
		<tag k="ssr:stedsnr" v="900417" />
	</node>
	<node lat="69.10518333697709" lon="19.586633320683692" id="-40185">
		<tag k="alt_name" v="Bjørnmyra" />
		<tag k="name" v="Bjørnemyra" />
=======
	<node id="-875174" lat="69.5038388863" lon="18.4593277799">
		<tag k="name" v="Jurafinnura" />
		<tag k="natural" v="scree" />
		<tag k="ssr:stedsnr" v="292321" />
	</node>
	<node id="-876197" lat="69.2050249984" lon="19.3025277696">
		<tag k="name" v="Stormelen" />
		<tag k="place" v="locality" />
		<tag k="ssr:stedsnr" v="899852" />
	</node>
	<node id="-878587" lat="69.2124361103" lon="19.1759694353">
		<tag k="alt_name" v="Bukkemyra" />
		<tag k="name" v="Bukkemomyra" />
		<tag k="natural" v="wetland" />
		<tag k="ssr:stedsnr" v="868982" />
	</node>
	<node id="-876195" lat="69.2047083362" lon="19.3050499966">
		<tag k="name" v="Stormelmyra" />
>>>>>>> e1d4bc35ff8a6074a6f2e91616a996b547c36f15
		<tag k="natural" v="wetland" />
		<tag k="ssr:stedsnr" v="928452" />
	</node>
<<<<<<< HEAD
	<node lat="69.3179305547503" lon="18.873922219081614" id="-40191">
		<tag k="alt_name" v="Straumsåsmyra" />
		<tag k="name" v="Strømsåsmyra" />
		<tag k="natural" v="wetland" />
		<tag k="ssr:stedsnr" v="929109" />
	</node>
	<node lat="69.20880000463993" lon="19.31229998587434" id="-40192">
		<tag k="alt_name" v="Tverrelvmyran" />
		<tag k="name" v="Tverrelvmyra" />
=======
	<node id="-877476" lat="69.0454777764" lon="19.3375277802">
		<tag k="name" v="Elvekrokmyrene" />
		<tag k="natural" v="wetland" />
		<tag k="ssr:stedsnr" v="401946" />
	</node>
	<node id="-876193" lat="69.2679277777" lon="19.4087861046">
		<tag k="name" v="Seljelvøyra" />
		<tag k="place" v="locality" />
		<tag k="ssr:stedsnr" v="899634" />
	</node>
	<node id="-877728" lat="69.2146055556" lon="19.2878361143">
		<tag k="alt_name" v="Raudmyra" />
		<tag k="name" v="Rødmyra" />
>>>>>>> e1d4bc35ff8a6074a6f2e91616a996b547c36f15
		<tag k="natural" v="wetland" />
		<tag k="ssr:stedsnr" v="929111" />
	</node>
<<<<<<< HEAD
	<node lat="69.27334444878069" lon="19.173736099630332" id="-40224">
		<tag k="name" v="Trollskogen" />
=======
	<node id="-876190" lat="69.3961500008" lon="19.2598722066">
		<tag k="name" v="Øverskredene" />
		<tag k="natural" v="scree" />
>>>>>>> e1d4bc35ff8a6074a6f2e91616a996b547c36f15
		<tag k="place" v="locality" />
		<tag k="ssr:stedsnr" v="959374" />
	</node>
<<<<<<< HEAD
	<node lat="69.38114722069983" lon="19.359077768609268" id="-40226">
		<tag k="name" v="Skjåsteinen" />
		<tag k="natural" v="stone" />
		<tag k="ssr:stedsnr" v="959391" />
	</node>
	<node lat="69.29697500070907" lon="19.32242777224877" id="-40230">
		<tag k="name" v="Furuholtet" />
=======
	<node id="-876741" lat="69.4214500049" lon="18.827716657">
		<tag k="name" v="Vassurda" />
		<tag k="natural" v="scree" />
		<tag k="ssr:stedsnr" v="79882" />
	</node>
	<node id="-876188" lat="69.2935694417" lon="19.3376500019">
		<tag k="name" v="Langnesøyra" />
>>>>>>> e1d4bc35ff8a6074a6f2e91616a996b547c36f15
		<tag k="place" v="locality" />
		<tag k="ssr:stedsnr" v="959538" />
	</node>
<<<<<<< HEAD
	<node lat="69.27069444367787" lon="19.081397209356727" id="-40232">
		<tag k="name" v="Biskemerramyra" />
=======
	<node id="-878235" lat="69.2710055522" lon="18.8800166666">
		<tag k="name" v="Aspenesmyra" />
>>>>>>> e1d4bc35ff8a6074a6f2e91616a996b547c36f15
		<tag k="natural" v="wetland" />
		<tag k="ssr:stedsnr" v="959896" />
	</node>
<<<<<<< HEAD
	<node lat="69.06908889076243" lon="19.438855558109207" id="-40237">
		<tag k="name" v="Skarjorda" />
=======
	<node id="-878234" lat="69.2689416704" lon="18.7314722163">
		<tag k="name" v="Larsmyra" />
>>>>>>> e1d4bc35ff8a6074a6f2e91616a996b547c36f15
		<tag k="natural" v="wetland" />
		<tag k="ssr:stedsnr" v="959924" />
	</node>
<<<<<<< HEAD
	<node lat="69.28029166822719" lon="19.08209166833371" id="-40241">
		<tag k="name" v="Kjellermyra" />
=======
	<node id="-878447" lat="69.2102666656" lon="19.1391555588">
		<tag k="name" v="Snaråsmyra" />
		<tag k="natural" v="wetland" />
		<tag k="ssr:stedsnr" v="839290" />
	</node>
	<node id="-875672" lat="69.1882888863" lon="19.0180333295">
		<tag k="name" v="Froskeholmyrene" />
>>>>>>> e1d4bc35ff8a6074a6f2e91616a996b547c36f15
		<tag k="natural" v="wetland" />
		<tag k="ssr:stedsnr" v="960350" />
	</node>
<<<<<<< HEAD
	<node lat="69.2673111064261" lon="18.894711114031782" id="-40252">
		<tag k="name" v="Langmyra" />
		<tag k="natural" v="wetland" />
		<tag k="ssr:stedsnr" v="960488" />
	</node>
	<node lat="69.30020000033835" lon="19.503861110046632" id="-40276">
		<tag k="name" v="Mattismyra" />
		<tag k="natural" v="wetland" />
		<tag k="ssr:stedsnr" v="18303" />
	</node>
	<node lat="69.29336389325668" lon="19.471408321743382" id="-40278">
		<tag k="name" v="Bjørnelvmyra" />
		<tag k="natural" v="wetland" />
		<tag k="ssr:stedsnr" v="18316" />
	</node>
	<node lat="69.05145833830314" lon="19.31807220457707" id="-40338">
		<tag k="name" v="Brattbakkmyrene" />
		<tag k="natural" v="wetland" />
		<tag k="ssr:stedsnr" v="36938" />
	</node>
	<node lat="69.39051666894771" lon="19.383344447720372" id="-40348">
		<tag k="name" v="Fossbakkmyra" />
		<tag k="natural" v="wetland" />
		<tag k="ssr:stedsnr" v="48359" />
	</node>
	<node lat="69.31198611402394" lon="19.52083053441977" id="-40352">
		<tag k="name" v="Russemyra" />
		<tag k="natural" v="wetland" />
		<tag k="ssr:stedsnr" v="49392" />
	</node>
	<node lat="69.32292499899708" lon="19.295513892244376" id="-40371">
		<tag k="name" v="Skremmarmyra" />
		<tag k="natural" v="wetland" />
		<tag k="ssr:stedsnr" v="49543" />
	</node>
	<node lat="69.38359444724729" lon="19.195183338743874" id="-40373">
		<tag k="name" v="Huldersteinen" />
		<tag k="natural" v="stone" />
		<tag k="ssr:stedsnr" v="49697" />
	</node>
	<node lat="69.28322222205787" lon="18.982344438539084" id="-40398">
		<tag k="name" v="Bekkmyra" />
		<tag k="natural" v="wetland" />
		<tag k="ssr:stedsnr" v="50363" />
	</node>
	<node lat="69.3104472195289" lon="18.827766660254426" id="-40402">
		<tag k="name" v="Stormyra" />
		<tag k="natural" v="wetland" />
		<tag k="ssr:stedsnr" v="50597" />
	</node>
	<node lat="69.300400001616" lon="18.966591650197117" id="-40407">
		<tag k="name" v="Sollsteinøyra" />
		<tag k="place" v="locality" />
		<tag k="ssr:stedsnr" v="50542" />
	</node>
	<node lat="69.26821944914677" lon="18.8176194365556" id="-40413">
		<tag k="name" v="Stormyra" />
		<tag k="natural" v="wetland" />
		<tag k="ssr:stedsnr" v="50656" />
	</node>
	<node lat="69.33678611245833" lon="19.403672219615373" id="-40439">
		<tag k="alt_name" v="Stelle" />
		<tag k="name" v="Stellet" />
=======
	<node id="-877508" lat="69.0758138905" lon="19.2452249988">
		<tag k="name" v="Lokkertmyra" />
		<tag k="natural" v="wetland" />
		<tag k="ssr:stedsnr" v="413494" />
	</node>
	<node id="-876792" lat="69.2701222267" lon="19.4430388818">
		<tag k="name" v="Rennerskogen" />
		<tag k="place" v="locality" />
		<tag k="ssr:stedsnr" v="110247" />
	</node>
	<node id="-878616" lat="69.3811472207" lon="19.3590777686">
		<tag k="name" v="Skjåsteinen" />
		<tag k="natural" v="stone" />
		<tag k="ssr:stedsnr" v="959391" />
	</node>
	<node id="-875659" lat="69.0862638858" lon="19.1942638884">
		<tag k="name" v="Fiskebuktmyra" />
		<tag k="natural" v="wetland" />
		<tag k="ssr:stedsnr" v="413317" />
	</node>
	<node id="-877529" lat="69.182738892" lon="19.3086249905">
		<tag k="name" v="Urmyra" />
		<tag k="natural" v="wetland" />
		<tag k="ssr:stedsnr" v="413781" />
	</node>
	<node id="-876481" lat="69.4140972194" lon="18.5724638711">
		<tag k="name" v="Sommersethøyra" />
		<tag k="place" v="locality" />
		<tag k="ssr:stedsnr" v="960254" />
	</node>
	<node id="-876163" lat="69.293733335" lon="19.4834722235">
		<tag k="name" v="Langmyra" />
		<tag k="natural" v="wetland" />
		<tag k="ssr:stedsnr" v="899140" />
	</node>
	<node id="-877506" lat="69.0938861099" lon="19.2421166591">
		<tag k="name" v="Stormyra" />
		<tag k="natural" v="wetland" />
		<tag k="ssr:stedsnr" v="413482" />
	</node>
	<node id="-877504" lat="69.0987111137" lon="19.2324333315">
		<tag k="name" v="Sennavassmyra" />
		<tag k="natural" v="wetland" />
		<tag k="ssr:stedsnr" v="413477" />
	</node>
	<node id="-878205" lat="69.1529527749" lon="19.3324194464">
		<tag k="name" v="Innerslåtta" />
>>>>>>> e1d4bc35ff8a6074a6f2e91616a996b547c36f15
		<tag k="place" v="locality" />
		<tag k="ssr:stedsnr" v="79171" />
	</node>
<<<<<<< HEAD
	<node lat="69.25763888941759" lon="19.51217500184487" id="-40452">
		<tag k="name" v="Steinhoggarmyra" />
=======
	<node id="-875132" lat="69.2740249985" lon="19.2183833192">
		<tag k="name" v="Tjønnmyra" />
>>>>>>> e1d4bc35ff8a6074a6f2e91616a996b547c36f15
		<tag k="natural" v="wetland" />
		<tag k="ssr:stedsnr" v="79280" />
	</node>
<<<<<<< HEAD
	<node lat="69.42145000487804" lon="18.827716657013408" id="-40471">
		<tag k="name" v="Vassurda" />
		<tag k="natural" v="scree" />
		<tag k="ssr:stedsnr" v="79882" />
	</node>
	<node lat="69.34361666630907" lon="18.82072221000556" id="-40478">
		<tag k="name" v="Stormyra" />
=======
	<node id="-876667" lat="69.3004000016" lon="18.9665916502">
		<tag k="name" v="Sollsteinøyra" />
		<tag k="place" v="locality" />
		<tag k="ssr:stedsnr" v="50542" />
	</node>
	<node id="-877000" lat="69.3158749996" lon="19.5077777591">
		<tag k="name" v="Olderskogen" />
		<tag k="place" v="locality" />
		<tag k="ssr:stedsnr" v="170364" />
	</node>
	<node id="-875128" lat="69.0602555543" lon="19.3451860994">
		<tag k="name" v="Mårstokkmyra" />
>>>>>>> e1d4bc35ff8a6074a6f2e91616a996b547c36f15
		<tag k="natural" v="wetland" />
		<tag k="ssr:stedsnr" v="79981" />
	</node>
<<<<<<< HEAD
	<node lat="69.20360277549698" lon="19.548466653191333" id="-40498">
		<tag k="name" v="Ytterskreda" />
		<tag k="natural" v="scree" />
		<tag k="place" v="locality" />
		<tag k="ssr:stedsnr" v="97199" />
	</node>
	<node lat="69.05586111114701" lon="19.283280548510447" id="-40502">
		<tag k="name" v="Melkelvmyrene" />
		<tag k="natural" v="wetland" />
		<tag k="ssr:stedsnr" v="97951" />
	</node>
	<node lat="69.20869166797081" lon="19.780738888119558" id="-40510">
		<tag k="name" v="Stormyra" />
		<tag k="natural" v="wetland" />
		<tag k="ssr:stedsnr" v="109005" />
	</node>
	<node lat="69.22260833315535" lon="19.809822222103257" id="-40511">
		<tag k="name" v="Vollasteinen" />
		<tag k="natural" v="stone" />
		<tag k="ssr:stedsnr" v="109231" />
	</node>
	<node lat="69.27012222671914" lon="19.443038881823057" id="-40539">
		<tag k="name" v="Rennerskogen" />
		<tag k="place" v="locality" />
		<tag k="ssr:stedsnr" v="110247" />
	</node>
	<node lat="69.07328611321437" lon="19.222963881940867" id="-40542">
		<tag k="name" v="Kirkegårdsmyra" />
=======
	<node id="-877687" lat="69.2616888923" lon="18.7735083417">
		<tag k="name" v="Frostmyra" />
		<tag k="natural" v="wetland" />
		<tag k="ssr:stedsnr" v="536704" />
	</node>
	<node id="-875126" lat="69.4545111144" lon="19.0193972169">
		<tag k="name" v="Bakkemyrene" />
		<tag k="natural" v="wetland" />
		<tag k="ssr:stedsnr" v="280720" />
	</node>
	<node id="-875125" lat="69.4479277801" lon="19.0666805496">
		<tag k="name" v="Stokkholkista" />
		<tag k="natural" v="stone" />
		<tag k="ssr:stedsnr" v="280713" />
	</node>
	<node id="-876660" lat="69.3104472195" lon="18.8277666603">
		<tag k="name" v="Stormyra" />
		<tag k="natural" v="wetland" />
		<tag k="ssr:stedsnr" v="50597" />
	</node>
	<node id="-876659" lat="69.2802222188" lon="18.8451860923">
		<tag k="name" v="Langmyra" />
		<tag k="natural" v="wetland" />
		<tag k="ssr:stedsnr" v="50483" />
	</node>
	<node id="-877017" lat="69.2261916668" lon="19.3295083243">
		<tag k="name" v="Litjemyra" />
		<tag k="natural" v="wetland" />
		<tag k="ssr:stedsnr" v="170765" />
	</node>
	<node id="-875631" lat="69.2794138921" lon="19.2504000054">
		<tag k="name" v="Langmyra" />
		<tag k="natural" v="wetland" />
		<tag k="ssr:stedsnr" v="504298" />
	</node>
	<node id="-877678" lat="69.2699472189" lon="18.9138555481">
		<tag k="name" v="Langvassjorda" />
>>>>>>> e1d4bc35ff8a6074a6f2e91616a996b547c36f15
		<tag k="natural" v="wetland" />
		<tag k="ssr:stedsnr" v="110466" />
	</node>
<<<<<<< HEAD
	<node lat="69.32991667048468" lon="19.29595277964663" id="-40543">
		<tag k="name" v="Geitmyra" />
		<tag k="natural" v="wetland" />
		<tag k="ssr:stedsnr" v="110534" />
	</node>
	<node lat="69.39998333596199" lon="19.27813610880603" id="-40546">
		<tag k="name" v="Fávrojeaggi" />
		<tag k="name:se" v="Fávrojeaggi" />
		<tag k="natural" v="wetland" />
		<tag k="ssr:stedsnr" v="110611" />
	</node>
	<node lat="69.27392499828322" lon="18.93125555412675" id="-40555">
		<tag k="name" v="Bærmyra" />
=======
	<node id="-877074" lat="69.4118249953" lon="18.9515111136">
		<tag k="name" v="Skavskogen" />
		<tag k="place" v="locality" />
		<tag k="ssr:stedsnr" v="171680" />
	</node>
	<node id="-878244" lat="69.2735361139" lon="18.8931194458">
		<tag k="name" v="Aspenesmyra" />
		<tag k="natural" v="wetland" />
		<tag k="ssr:stedsnr" v="778420" />
	</node>
	<node id="-875623" lat="69.3129666662" lon="18.826333322">
		<tag k="name" v="Marimyra" />
>>>>>>> e1d4bc35ff8a6074a6f2e91616a996b547c36f15
		<tag k="natural" v="wetland" />
		<tag k="ssr:stedsnr" v="111400" />
	</node>
<<<<<<< HEAD
	<node lat="69.25163889026815" lon="18.921713874255005" id="-40567">
		<tag k="name" v="Klubbemyra" />
=======
	<node id="-878178" lat="69.2716472207" lon="19.1132499988">
		<tag k="name" v="Skjellmyra" />
>>>>>>> e1d4bc35ff8a6074a6f2e91616a996b547c36f15
		<tag k="natural" v="wetland" />
		<tag k="ssr:stedsnr" v="111456" />
	</node>
<<<<<<< HEAD
	<node lat="69.32076666461069" lon="18.84708887006806" id="-40568">
		<tag k="name" v="Stasamyra" />
		<tag k="natural" v="wetland" />
		<tag k="ssr:stedsnr" v="111540" />
	</node>
	<node lat="69.26982778265481" lon="18.736038876561896" id="-40571">
		<tag k="name" v="Rundhaugmyra" />
		<tag k="natural" v="wetland" />
		<tag k="ssr:stedsnr" v="111557" />
	</node>
	<node lat="69.32477778023924" lon="18.87124166876431" id="-40576">
		<tag k="name" v="Kobbeholtan" />
		<tag k="place" v="locality" />
		<tag k="ssr:stedsnr" v="111935" />
	</node>
	<node lat="69.1882638884277" lon="18.997347211947847" id="-40597">
		<tag k="name" v="Vargemyra" />
=======
	<node id="-876126" lat="69.2324361086" lon="19.4007416672">
		<tag k="name" v="Skredøyra" />
		<tag k="place" v="locality" />
		<tag k="ssr:stedsnr" v="887179" />
	</node>
	<node id="-878169" lat="69.2012472249" lon="19.1200333386">
		<tag k="name" v="Uran" />
		<tag k="natural" v="scree" />
		<tag k="ssr:stedsnr" v="777334" />
	</node>
	<node id="-876120" lat="69.2586472214" lon="19.4638277777">
		<tag k="name" v="Undbuksmyra" />
>>>>>>> e1d4bc35ff8a6074a6f2e91616a996b547c36f15
		<tag k="natural" v="wetland" />
		<tag k="ssr:stedsnr" v="138976" />
	</node>
	<node lat="69.2194805581344" lon="19.7959222163637" id="-40607">
		<tag k="loc_name:se" v="Čáhceriđđu" />
		<tag k="name" v="Vasskreda" />
		<tag k="name:no" v="Vasskreda" />
		<tag k="natural" v="scree" />
		<tag k="ssr:stedsnr" v="139123" />
	</node>
<<<<<<< HEAD
	<node lat="69.11975000162514" lon="19.704608318725196" id="-40624">
=======
	<node id="-877655" lat="69.3345138923" lon="18.8741972295">
>>>>>>> e1d4bc35ff8a6074a6f2e91616a996b547c36f15
		<tag k="name" v="Stormyra" />
		<tag k="natural" v="wetland" />
		<tag k="ssr:stedsnr" v="139516" />
	</node>
<<<<<<< HEAD
	<node lat="69.36708333015315" lon="18.94858331545442" id="-40636">
		<tag k="alt_name" v="Malangseidmyrene" />
		<tag k="name" v="Malangseidmyran" />
		<tag k="natural" v="wetland" />
		<tag k="ssr:stedsnr" v="139966" />
	</node>
	<node lat="69.30721666534299" lon="19.329549993506397" id="-40642">
		<tag k="name" v="Stormyra" />
=======
	<node id="-878677" lat="69.2673111064" lon="18.894711114">
		<tag k="name" v="Langmyra" />
		<tag k="natural" v="wetland" />
		<tag k="ssr:stedsnr" v="960488" />
	</node>
	<node id="-878674" lat="69.2802916682" lon="19.0820916683">
		<tag k="name" v="Kjellermyra" />
>>>>>>> e1d4bc35ff8a6074a6f2e91616a996b547c36f15
		<tag k="natural" v="wetland" />
		<tag k="ssr:stedsnr" v="140114" />
	</node>
<<<<<<< HEAD
	<node lat="69.2104055528118" lon="19.459961091952245" id="-40653">
		<tag k="name" v="Storura" />
		<tag k="natural" v="scree" />
		<tag k="ssr:stedsnr" v="158187" />
	</node>
	<node lat="69.27402499845202" lon="19.21838331921045" id="-40673">
		<tag k="name" v="Tjønnmyra" />
		<tag k="natural" v="wetland" />
		<tag k="ssr:stedsnr" v="170448" />
	</node>
	<node lat="69.20283888951147" lon="19.13691110992683" id="-40697">
		<tag k="name" v="Seljemomyra" />
=======
	<node id="-876113" lat="69.1627972245" lon="19.07712776">
		<tag k="name" v="Gorrmyra" />
		<tag k="natural" v="wetland" />
		<tag k="ssr:stedsnr" v="657888" />
	</node>
	<node id="-877648" lat="69.3820222218" lon="18.9327027716">
		<tag k="name" v="Kvitsteinskogen" />
		<tag k="place" v="locality" />
		<tag k="ssr:stedsnr" v="535272" />
	</node>
	<node id="-877645" lat="69.3074694476" lon="19.0240749994">
		<tag k="name" v="Stormyra" />
>>>>>>> e1d4bc35ff8a6074a6f2e91616a996b547c36f15
		<tag k="natural" v="wetland" />
		<tag k="ssr:stedsnr" v="171323" />
	</node>
<<<<<<< HEAD
	<node lat="69.29102499772173" lon="19.059874979721304" id="-40707">
		<tag k="name" v="Storåsmyra" />
=======
	<node id="-878667" lat="69.3797805585" lon="18.9846666611">
		<tag k="name" v="Stelkemyra" />
>>>>>>> e1d4bc35ff8a6074a6f2e91616a996b547c36f15
		<tag k="natural" v="wetland" />
		<tag k="ssr:stedsnr" v="171285" />
	</node>
<<<<<<< HEAD
	<node lat="69.25965277295802" lon="18.926413892421287" id="-40714">
		<tag k="name" v="Aspenesmyra" />
		<tag k="natural" v="wetland" />
		<tag k="ssr:stedsnr" v="171485" />
	</node>
	<node lat="69.34039999886424" lon="18.875547207510056" id="-40722">
		<tag k="name" v="Høgåsmyrene" />
=======
	<node id="-875082" lat="69.4537277813" lon="18.469802777">
		<tag k="name" v="Spildermyra" />
		<tag k="natural" v="wetland" />
		<tag k="ssr:stedsnr" v="261662" />
	</node>
	<node id="-876616" lat="69.1797277806" lon="19.209624992">
		<tag k="name" v="Langmyra" />
>>>>>>> e1d4bc35ff8a6074a6f2e91616a996b547c36f15
		<tag k="natural" v="wetland" />
		<tag k="ssr:stedsnr" v="171592" />
	</node>
<<<<<<< HEAD
	<node lat="69.34760277735799" lon="18.848558314355838" id="-40723">
		<tag k="name" v="Forsmyra" />
		<tag k="natural" v="wetland" />
		<tag k="ssr:stedsnr" v="171594" />
	</node>
	<node lat="69.4118249953226" lon="18.951511113569847" id="-40729">
		<tag k="name" v="Skavskogen" />
		<tag k="place" v="locality" />
		<tag k="ssr:stedsnr" v="171680" />
	</node>
	<node lat="69.3423902079798" lon="19.404041915829772" id="-40810">
		<tag k="loc_name:se" v="Girkogállu" />
		<tag k="name" v="Kirkesteinen" />
		<tag k="name:no" v="Kirkesteinen" />
		<tag k="natural" v="stone" />
		<tag k="ssr:stedsnr" v="219631" />
	</node>
	<node lat="69.3417750046848" lon="19.40439442751048" id="-40811">
		<tag k="name" v="Kaggesteinen" />
		<tag k="natural" v="stone" />
		<tag k="ssr:stedsnr" v="219632" />
	</node>
	<node lat="69.33899722668042" lon="19.40350554424242" id="-40813">
		<tag k="name" v="Vuoigŋasgállu" />
		<tag k="name:se" v="Vuoigŋasgállu" />
		<tag k="natural" v="stone" />
		<tag k="ssr:stedsnr" v="279557" />
	</node>
	<node lat="69.4479277801379" lon="19.066680549592768" id="-40815">
		<tag k="name" v="Stokkholkista" />
		<tag k="natural" v="stone" />
		<tag k="ssr:stedsnr" v="280713" />
	</node>
	<node lat="69.45451111438311" lon="19.019397216853772" id="-40816">
		<tag k="name" v="Bakkemyrene" />
=======
	<node id="-878061" lat="69.3754555562" lon="19.3406305591">
		<tag k="name" v="Torasteinen" />
		<tag k="natural" v="stone" />
		<tag k="ssr:stedsnr" v="655416" />
	</node>
	<node id="-874849" lat="69.3417750047" lon="19.4043944275">
		<tag k="name" v="Kaggesteinen" />
		<tag k="natural" v="stone" />
		<tag k="ssr:stedsnr" v="219632" />
	</node>
	<node id="-877345" lat="69.3134194404" lon="19.0327444407">
		<tag k="name" v="Lokkmyra" />
		<tag k="natural" v="wetland" />
		<tag k="ssr:stedsnr" v="353590" />
	</node>
	<node id="-875360" lat="69.3105222206" lon="19.0171249962">
		<tag k="name" v="Marenholtet" />
		<tag k="place" v="locality" />
		<tag k="ssr:stedsnr" v="232361" />
	</node>
	<node id="-876605" lat="69.311986114" lon="19.5208305344">
		<tag k="name" v="Russemyra" />
>>>>>>> e1d4bc35ff8a6074a6f2e91616a996b547c36f15
		<tag k="natural" v="wetland" />
		<tag k="ssr:stedsnr" v="280720" />
	</node>
<<<<<<< HEAD
	<node lat="69.43704721835114" lon="18.479399990986202" id="-40839">
		<tag k="name" v="Piksteinøyra" />
		<tag k="place" v="locality" />
		<tag k="ssr:stedsnr" v="292345" />
	</node>
	<node lat="69.21241944910257" lon="19.1668027707627" id="-40846">
		<tag k="name" v="Stormyra" />
		<tag k="natural" v="wetland" />
		<tag k="ssr:stedsnr" v="292283" />
	</node>
	<node lat="69.50383888628346" lon="18.459327779906424" id="-40848">
		<tag k="name" v="Jurafinnura" />
=======
	<node id="-875068" lat="69.3247777802" lon="18.8712416688">
		<tag k="name" v="Kobbeholtan" />
		<tag k="place" v="locality" />
		<tag k="ssr:stedsnr" v="111935" />
	</node>
	<node id="-877627" lat="69.3873638896" lon="19.2515944295">
		<tag k="name" v="Innersteinlægda" />
>>>>>>> e1d4bc35ff8a6074a6f2e91616a996b547c36f15
		<tag k="natural" v="scree" />
		<tag k="ssr:stedsnr" v="292321" />
	</node>
<<<<<<< HEAD
	<node lat="69.24789166657139" lon="19.173574979877877" id="-40852">
		<tag k="name" v="Forselvmyra" />
=======
	<node id="-878650" lat="69.0690888908" lon="19.4388555581">
		<tag k="name" v="Skarjorda" />
>>>>>>> e1d4bc35ff8a6074a6f2e91616a996b547c36f15
		<tag k="natural" v="wetland" />
		<tag k="ssr:stedsnr" v="292419" />
	</node>
<<<<<<< HEAD
	<node lat="69.41298889014854" lon="19.264552764981797" id="-40858">
		<tag k="name" v="Tornakselskreda" />
		<tag k="natural" v="scree" />
		<tag k="place" v="locality" />
		<tag k="ssr:stedsnr" v="292448" />
	</node>
	<node lat="69.30717222126864" lon="19.322247211368445" id="-40863">
		<tag k="name" v="Rødmyra" />
=======
	<node id="-877624" lat="69.1718166686" lon="19.3182194459">
		<tag k="name" v="Langnesmyra" />
>>>>>>> e1d4bc35ff8a6074a6f2e91616a996b547c36f15
		<tag k="natural" v="wetland" />
		<tag k="ssr:stedsnr" v="292736" />
	</node>
<<<<<<< HEAD
	<node lat="69.301172219422" lon="18.99294722487714" id="-40894">
		<tag k="name" v="Trolldalsmyra" />
		<tag k="natural" v="wetland" />
		<tag k="ssr:stedsnr" v="293668" />
	</node>
	<node lat="69.20923055287419" lon="19.284977758093078" id="-40942">
		<tag k="name" v="Brennmomyra" />
		<tag k="natural" v="wetland" />
		<tag k="ssr:stedsnr" v="322109" />
	</node>
	<node lat="69.3121250010376" lon="19.527569433614243" id="-40943">
		<tag k="name" v="Trollmyra" />
		<tag k="natural" v="wetland" />
		<tag k="ssr:stedsnr" v="322113" />
	</node>
	<node lat="69.32256389234439" lon="19.295452779030246" id="-40944">
		<tag k="name" v="Raudmyran" />
		<tag k="natural" v="wetland" />
		<tag k="ssr:stedsnr" v="322120" />
	</node>
	<node lat="69.46156944795429" lon="19.00111388856772" id="-40996">
		<tag k="name" v="Rypsnarmyra" />
		<tag k="natural" v="wetland" />
		<tag k="ssr:stedsnr" v="340683" />
	</node>
	<node lat="69.38540277879298" lon="19.283322212654255" id="-41016">
		<tag k="name" v="Rødmyrsteinen" />
		<tag k="natural" v="stone" />
		<tag k="ssr:stedsnr" v="352540" />
	</node>
	<node lat="69.38736944747794" lon="19.104908327886864" id="-41019">
		<tag k="name" v="Kvitkua" />
		<tag k="natural" v="stone" />
		<tag k="ssr:stedsnr" v="352694" />
	</node>
	<node lat="69.31658056013272" lon="19.31283888443146" id="-41020">
		<tag k="name" v="Prestegårdskogen" />
		<tag k="place" v="locality" />
		<tag k="ssr:stedsnr" v="352726" />
	</node>
	<node lat="69.1511555542738" lon="19.269266665683595" id="-41029">
		<tag k="name" v="Kvenhesjene" />
		<tag k="natural" v="wetland" />
		<tag k="ssr:stedsnr" v="352752" />
	</node>
	<node lat="69.31341944039535" lon="19.0327444407243" id="-41060">
		<tag k="name" v="Lokkmyra" />
		<tag k="natural" v="wetland" />
		<tag k="ssr:stedsnr" v="353590" />
	</node>
	<node lat="69.26293055917318" lon="18.855130561456605" id="-41061">
		<tag k="name" v="Gjøsmyra" />
		<tag k="natural" v="wetland" />
		<tag k="ssr:stedsnr" v="353596" />
	</node>
	<node lat="69.27101110779033" lon="18.773558333929028" id="-41065">
=======
	<node id="-875574" lat="69.3225638923" lon="19.295452779">
		<tag k="name" v="Raudmyran" />
		<tag k="natural" v="wetland" />
		<tag k="ssr:stedsnr" v="322120" />
	</node>
	<node id="-878133" lat="69.3526694429" lon="19.3823638684">
		<tag k="name" v="Trennsteinen" />
		<tag k="natural" v="stone" />
		<tag k="ssr:stedsnr" v="764605" />
	</node>
	<node id="-878140" lat="69.4595499977" lon="18.990852781">
		<tag k="name" v="Langmyra" />
		<tag k="natural" v="wetland" />
		<tag k="ssr:stedsnr" v="765678" />
	</node>
	<node id="-877662" lat="69.3197611086" lon="19.2969055485">
		<tag k="name" v="Torvskjåmyra" />
		<tag k="natural" v="wetland" />
		<tag k="ssr:stedsnr" v="535708" />
	</node>
	<node id="-877618" lat="69.4311750003" lon="19.0688749952">
>>>>>>> e1d4bc35ff8a6074a6f2e91616a996b547c36f15
		<tag k="name" v="Stormyra" />
		<tag k="natural" v="wetland" />
		<tag k="ssr:stedsnr" v="353694" />
	</node>
<<<<<<< HEAD
	<node lat="69.0454777764302" lon="19.337527780230662" id="-41150">
		<tag k="name" v="Elvekrokmyrene" />
		<tag k="natural" v="wetland" />
		<tag k="ssr:stedsnr" v="401946" />
	</node>
	<node lat="69.04876389015766" lon="19.297722203589565" id="-41151">
		<tag k="name" v="Grushaugmyra" />
=======
	<node id="-877621" lat="69.15478056" lon="19.2953527756">
		<tag k="name" v="Sennamyra" />
		<tag k="natural" v="wetland" />
		<tag k="ssr:stedsnr" v="534772" />
	</node>
	<node id="-878640" lat="69.2217722215" lon="19.3178722246">
		<tag k="name" v="Hesjemyra" />
>>>>>>> e1d4bc35ff8a6074a6f2e91616a996b547c36f15
		<tag k="natural" v="wetland" />
		<tag k="ssr:stedsnr" v="401948" />
	</node>
<<<<<<< HEAD
	<node lat="69.08626388581759" lon="19.194263888414838" id="-41156">
		<tag k="name" v="Fiskebuktmyra" />
=======
	<node id="-876078" lat="69.3858361148" lon="19.1290277713">
		<tag k="name" v="Myran" />
>>>>>>> e1d4bc35ff8a6074a6f2e91616a996b547c36f15
		<tag k="natural" v="wetland" />
		<tag k="ssr:stedsnr" v="413317" />
	</node>
<<<<<<< HEAD
	<node lat="69.0987111136749" lon="19.2324333314578" id="-41173">
		<tag k="name" v="Sennavassmyra" />
=======
	<node id="-877612" lat="69.0712444487" lon="19.2484749849">
		<tag k="name" v="Reinmyra" />
>>>>>>> e1d4bc35ff8a6074a6f2e91616a996b547c36f15
		<tag k="natural" v="wetland" />
		<tag k="ssr:stedsnr" v="413477" />
	</node>
<<<<<<< HEAD
	<node lat="69.09388610985921" lon="19.242116659147808" id="-41175">
		<tag k="name" v="Stormyra" />
=======
	<node id="-877577" lat="69.1702222211" lon="19.0889777583">
		<tag k="name" v="Litjevassmyra" />
		<tag k="natural" v="wetland" />
		<tag k="ssr:stedsnr" v="414829" />
	</node>
	<node id="-875560" lat="69.1814055571" lon="19.0257222181">
		<tag k="name" v="Bjørnmyra" />
>>>>>>> e1d4bc35ff8a6074a6f2e91616a996b547c36f15
		<tag k="natural" v="wetland" />
		<tag k="ssr:stedsnr" v="413482" />
	</node>
<<<<<<< HEAD
	<node lat="69.34526388582529" lon="19.28315555677274" id="-41180">
		<tag k="name" v="Sandøyra" />
=======
	<node id="-877607" lat="69.405516666" lon="19.2727250003">
		<tag k="name" v="Luhppogieddi" />
		<tag k="name:se" v="Luhppogieddi" />
>>>>>>> e1d4bc35ff8a6074a6f2e91616a996b547c36f15
		<tag k="place" v="locality" />
		<tag k="ssr:stedsnr" v="413579" />
	</node>
<<<<<<< HEAD
	<node lat="69.33414444099894" lon="19.299888870577877" id="-41190">
		<tag k="name" v="Merramyra" />
		<tag k="natural" v="wetland" />
		<tag k="ssr:stedsnr" v="413532" />
	</node>
	<node lat="69.44602222181244" lon="19.030366654632402" id="-41200">
		<tag k="name" v="Lysvedremsa" />
=======
	<node id="-878629" lat="69.3948250034" lon="19.2657111006">
		<tag k="name" v="Huldersteinen" />
		<tag k="natural" v="stone" />
		<tag k="ssr:stedsnr" v="959565" />
	</node>
	<node id="-878628" lat="69.2969750007" lon="19.3224277722">
		<tag k="name" v="Furuholtet" />
>>>>>>> e1d4bc35ff8a6074a6f2e91616a996b547c36f15
		<tag k="place" v="locality" />
		<tag k="ssr:stedsnr" v="413776" />
	</node>
<<<<<<< HEAD
	<node lat="69.18273889200744" lon="19.30862499050512" id="-41201">
		<tag k="name" v="Urmyra" />
		<tag k="natural" v="wetland" />
		<tag k="ssr:stedsnr" v="413781" />
	</node>
	<node lat="69.28519722589623" lon="18.896522225248365" id="-41217">
		<tag k="name" v="Gultorhola" />
		<tag k="natural" v="wetland" />
		<tag k="ssr:stedsnr" v="414424" />
	</node>
	<node lat="69.17022222111304" lon="19.0889777582569" id="-41225">
		<tag k="name" v="Litjevassmyra" />
=======
	<node id="-877304" lat="69.3165805601" lon="19.3128388844">
		<tag k="name" v="Prestegårdskogen" />
		<tag k="place" v="locality" />
		<tag k="ssr:stedsnr" v="352726" />
	</node>
	<node id="-877679" lat="69.263680552" lon="18.8973416616">
		<tag k="name" v="Grøtsteinmyra" />
		<tag k="natural" v="wetland" />
		<tag k="ssr:stedsnr" v="536475" />
	</node>
	<node id="-875214" lat="69.3034583332" lon="18.9857360955">
		<tag k="name" v="Olderskogen" />
		<tag k="place" v="locality" />
		<tag k="ssr:stedsnr" v="293687" />
	</node>
	<node id="-878622" lat="69.4212861086" lon="19.2915277739">
		<tag k="name" v="Storskreda" />
		<tag k="natural" v="scree" />
		<tag k="place" v="locality" />
		<tag k="ssr:stedsnr" v="959434" />
	</node>
	<node id="-876573" lat="69.0514583383" lon="19.3180722046">
		<tag k="name" v="Brattbakkmyrene" />
>>>>>>> e1d4bc35ff8a6074a6f2e91616a996b547c36f15
		<tag k="natural" v="wetland" />
		<tag k="ssr:stedsnr" v="414829" />
	</node>
<<<<<<< HEAD
	<node lat="69.20435833469988" lon="19.26084720605641" id="-41247">
		<tag k="name" v="Stormyra" />
=======
	<node id="-877914" lat="69.3229527768" lon="18.901788891">
		<tag k="name" v="Mellaøyra" />
		<tag k="place" v="locality" />
		<tag k="ssr:stedsnr" v="596376" />
	</node>
	<node id="-875033" lat="69.399983336" lon="19.2781361088">
		<tag k="name" v="Fávrojeaggi" />
		<tag k="name:se" v="Fávrojeaggi" />
>>>>>>> e1d4bc35ff8a6074a6f2e91616a996b547c36f15
		<tag k="natural" v="wetland" />
		<tag k="ssr:stedsnr" v="443126" />
	</node>
<<<<<<< HEAD
	<node lat="69.24809722081676" lon="19.508891652419656" id="-41261">
		<tag k="name" v="Lomvassmyra" />
		<tag k="natural" v="wetland" />
		<tag k="ssr:stedsnr" v="443161" />
	</node>
	<node lat="69.2760805574272" lon="19.469947206748476" id="-41266">
		<tag k="name" v="Lavvassmyra" />
		<tag k="natural" v="wetland" />
		<tag k="ssr:stedsnr" v="443323" />
	</node>
	<node lat="69.2628749965122" lon="19.465505535364976" id="-41268">
		<tag k="name" v="Arnemyra" />
		<tag k="natural" v="wetland" />
		<tag k="ssr:stedsnr" v="443344" />
	</node>
	<node lat="69.2892611134551" lon="19.452083318212548" id="-41271">
		<tag k="alt_name" v="Stormyra" />
		<tag k="name" v="Stormyran" />
=======
	<node id="-875544" lat="69.295825003" lon="18.9028444498">
		<tag k="name" v="Storelvmyra" />
		<tag k="natural" v="wetland" />
		<tag k="ssr:stedsnr" v="475436" />
	</node>
	<node id="-878613" lat="69.2733444488" lon="19.1737360996">
		<tag k="name" v="Trollskogen" />
		<tag k="place" v="locality" />
		<tag k="ssr:stedsnr" v="959374" />
	</node>
	<node id="-878100" lat="69.1211555608" lon="19.7407360899">
		<tag k="name" v="Langmyra" />
>>>>>>> e1d4bc35ff8a6074a6f2e91616a996b547c36f15
		<tag k="natural" v="wetland" />
		<tag k="ssr:stedsnr" v="443374" />
	</node>
<<<<<<< HEAD
	<node lat="69.31296666619814" lon="18.826333321997655" id="-41336">
		<tag k="name" v="Marimyra" />
		<tag k="natural" v="wetland" />
		<tag k="ssr:stedsnr" v="504085" />
	</node>
	<node lat="69.27941389212137" lon="19.250400005410686" id="-41349">
		<tag k="name" v="Langmyra" />
		<tag k="natural" v="wetland" />
		<tag k="ssr:stedsnr" v="504298" />
	</node>
	<node lat="69.20418889089531" lon="19.55118054569734" id="-41368">
=======
	<node id="-877587" lat="69.4479444446" lon="19.0457666702">
		<tag k="name" v="Kollsteinen" />
		<tag k="natural" v="stone" />
		<tag k="ssr:stedsnr" v="522683" />
	</node>
	<node id="-875026" lat="69.3299166705" lon="19.2959527796">
		<tag k="name" v="Geitmyra" />
		<tag k="natural" v="wetland" />
		<tag k="ssr:stedsnr" v="110534" />
	</node>
	<node id="-877585" lat="69.2041888909" lon="19.5511805457">
>>>>>>> e1d4bc35ff8a6074a6f2e91616a996b547c36f15
		<tag k="name" v="Innerskreda" />
		<tag k="natural" v="scree" />
		<tag k="place" v="locality" />
		<tag k="ssr:stedsnr" v="522199" />
	</node>
<<<<<<< HEAD
	<node lat="69.44794444456588" lon="19.04576667018825" id="-41369">
		<tag k="name" v="Kollsteinen" />
		<tag k="natural" v="stone" />
		<tag k="ssr:stedsnr" v="522683" />
	</node>
	<node lat="69.19909444115106" lon="19.665616659868302" id="-41380">
		<tag k="name" v="Piggsteinen" />
		<tag k="natural" v="stone" />
		<tag k="ssr:stedsnr" v="534220" />
	</node>
	<node lat="69.3874611107804" lon="19.28201110067322" id="-41393">
		<tag k="name" v="Antaslåtten" />
		<tag k="place" v="locality" />
		<tag k="ssr:stedsnr" v="534548" />
	</node>
	<node lat="69.40551666596289" lon="19.272725000261623" id="-41396">
		<tag k="name" v="Luhppogieddi" />
		<tag k="name:se" v="Luhppogieddi" />
=======
	<node id="-875022" lat="69.2106083332" lon="19.6286027751">
		<tag k="name" v="Revsandmelen" />
>>>>>>> e1d4bc35ff8a6074a6f2e91616a996b547c36f15
		<tag k="place" v="locality" />
		<tag k="ssr:stedsnr" v="534590" />
	</node>
<<<<<<< HEAD
	<node lat="69.209377779" lon="19.311986094106214" id="-41397">
		<tag k="name" v="Tverrelvmyra" />
=======
	<node id="-878093" lat="69.2804638919" lon="19.4547000016">
		<tag k="name" v="Ostesjaumyra" />
>>>>>>> e1d4bc35ff8a6074a6f2e91616a996b547c36f15
		<tag k="natural" v="wetland" />
		<tag k="ssr:stedsnr" v="534835" />
	</node>
<<<<<<< HEAD
	<node lat="69.43117500034333" lon="19.06887499523279" id="-41405">
		<tag k="name" v="Stormyra" />
=======
	<node id="-875121" lat="69.3389972267" lon="19.4035055442">
		<tag k="name" v="Vuoigŋasgállu" />
		<tag k="name:se" v="Vuoigŋasgállu" />
		<tag k="natural" v="stone" />
		<tag k="ssr:stedsnr" v="279557" />
	</node>
	<node id="-877066" lat="69.2717055565" lon="18.7274333266">
		<tag k="name" v="Banmyra" />
>>>>>>> e1d4bc35ff8a6074a6f2e91616a996b547c36f15
		<tag k="natural" v="wetland" />
		<tag k="ssr:stedsnr" v="534763" />
	</node>
<<<<<<< HEAD
	<node lat="69.30746944763763" lon="19.024074999426297" id="-41418">
		<tag k="name" v="Stormyra" />
		<tag k="natural" v="wetland" />
		<tag k="ssr:stedsnr" v="535401" />
	</node>
	<node lat="69.33451389230927" lon="18.87419722946487" id="-41430">
		<tag k="name" v="Stormyra" />
		<tag k="natural" v="wetland" />
		<tag k="ssr:stedsnr" v="535564" />
	</node>
	<node lat="69.26994721886783" lon="18.91385554813626" id="-41453">
		<tag k="name" v="Langvassjorda" />
=======
	<node id="-878601" lat="69.3355055543" lon="19.5613055559">
		<tag k="name" v="Skjellmyra" />
		<tag k="natural" v="wetland" />
		<tag k="ssr:stedsnr" v="959154" />
	</node>
	<node id="-875016" lat="69.1920916702" lon="19.4395805483">
		<tag k="name" v="Russetindbreen" />
		<tag k="natural" v="glacier" />
		<tag k="ssr:stedsnr" v="261089" />
	</node>
	<node id="-878598" lat="69.3088222269" lon="18.6550749889">
		<tag k="name" v="Veimyra" />
>>>>>>> e1d4bc35ff8a6074a6f2e91616a996b547c36f15
		<tag k="natural" v="wetland" />
		<tag k="ssr:stedsnr" v="536464" />
	</node>
<<<<<<< HEAD
	<node lat="69.21460555560971" lon="19.28783611430819" id="-41481">
		<tag k="alt_name" v="Raudmyra" />
		<tag k="name" v="Rødmyra" />
		<tag k="natural" v="wetland" />
		<tag k="ssr:stedsnr" v="564135" />
	</node>
	<node lat="69.34988333768108" lon="18.738024997116757" id="-41546">
		<tag k="name" v="Stormyra" />
=======
	<node id="-874848" lat="69.342390208" lon="19.4040419158">
		<tag k="loc_name:se" v="Girkogállu" />
		<tag k="name" v="Kirkesteinen" />
		<tag k="name:no" v="Kirkesteinen" />
		<tag k="natural" v="stone" />
		<tag k="ssr:stedsnr" v="219631" />
	</node>
	<node id="-877571" lat="69.2615638913" lon="18.7874249986">
		<tag k="name" v="Langmyra" />
>>>>>>> e1d4bc35ff8a6074a6f2e91616a996b547c36f15
		<tag k="natural" v="wetland" />
		<tag k="ssr:stedsnr" v="564953" />
	</node>
<<<<<<< HEAD
	<node lat="69.24537499722918" lon="18.856941664384994" id="-41557">
		<tag k="name" v="Vesterlimyra" />
=======
	<node id="-877058" lat="69.3403999989" lon="18.8755472075">
		<tag k="name" v="Høgåsmyrene" />
>>>>>>> e1d4bc35ff8a6074a6f2e91616a996b547c36f15
		<tag k="natural" v="wetland" />
		<tag k="ssr:stedsnr" v="564906" />
	</node>
<<<<<<< HEAD
	<node lat="69.36093611450589" lon="19.399341669363686" id="-41567">
		<tag k="name" v="Uran" />
		<tag k="natural" v="scree" />
		<tag k="ssr:stedsnr" v="582633" />
	</node>
	<node lat="69.21305277470255" lon="19.51753331295368" id="-41569">
		<tag k="name" v="Jørnjordene" />
		<tag k="place" v="locality" />
		<tag k="ssr:stedsnr" v="583182" />
	</node>
	<node lat="69.08000278170177" lon="19.2174499956947" id="-41571">
		<tag k="name" v="Vassmomyra" />
		<tag k="natural" v="wetland" />
		<tag k="ssr:stedsnr" v="595437" />
	</node>
	<node lat="69.1715166645549" lon="19.797713873314706" id="-41574">
		<tag k="name" v="Alexsteinen" />
		<tag k="natural" v="stone" />
		<tag k="ssr:stedsnr" v="594247" />
	</node>
	<node lat="69.29153889046499" lon="19.48403053597119" id="-41589">
		<tag k="name" v="Allmenningen" />
		<tag k="place" v="locality" />
		<tag k="ssr:stedsnr" v="595124" />
	</node>
	<node lat="69.2220333328937" lon="19.566463870750308" id="-41594">
		<tag k="name" v="Litjevollskogen" />
		<tag k="place" v="locality" />
		<tag k="ssr:stedsnr" v="595236" />
	</node>
	<node lat="69.27257222048841" lon="19.1450305441258" id="-41597">
		<tag k="name" v="Hestemyra" />
		<tag k="natural" v="wetland" />
		<tag k="ssr:stedsnr" v="595397" />
	</node>
	<node lat="69.38502777725108" lon="19.282663886130806" id="-41602">
		<tag k="name" v="Rødmyra" />
		<tag k="natural" v="wetland" />
		<tag k="ssr:stedsnr" v="595524" />
	</node>
	<node lat="69.08429444800696" lon="19.209919430911906" id="-41611">
		<tag k="name" v="Strømslimyrene" />
		<tag k="natural" v="wetland" />
		<tag k="ssr:stedsnr" v="595446" />
	</node>
	<node lat="69.38259722068786" lon="19.155019442873563" id="-41613">
		<tag k="name" v="Fjellfinnmyrene" />
		<tag k="natural" v="wetland" />
		<tag k="ssr:stedsnr" v="595685" />
	</node>
	<node lat="69.12786944126002" lon="19.053933330760895" id="-41615">
		<tag k="name" v="Furuholtet" />
		<tag k="place" v="locality" />
		<tag k="ssr:stedsnr" v="595759" />
	</node>
	<node lat="69.32295277678284" lon="18.901788890955935" id="-41622">
		<tag k="name" v="Mellaøyra" />
		<tag k="place" v="locality" />
		<tag k="ssr:stedsnr" v="596376" />
	</node>
	<node lat="69.32155555232039" lon="18.7691416565129" id="-41635">
		<tag k="name" v="Stormyra" />
		<tag k="natural" v="wetland" />
		<tag k="ssr:stedsnr" v="595884" />
	</node>
	<node lat="69.25197778159738" lon="18.869980549227513" id="-41648">
		<tag k="name" v="Stormyra" />
		<tag k="natural" v="wetland" />
		<tag k="ssr:stedsnr" v="596545" />
	</node>
	<node lat="69.32141666857149" lon="18.86187499869278" id="-41662">
		<tag k="name" v="Kobbenesmyra" />
		<tag k="natural" v="wetland" />
		<tag k="ssr:stedsnr" v="596939" />
	</node>
	<node lat="69.35781944356101" lon="19.393266649104014" id="-41746">
		<tag k="name" v="Blanksteinen" />
		<tag k="natural" v="stone" />
		<tag k="ssr:stedsnr" v="643610" />
	</node>
	<node lat="69.35908610925699" lon="19.380941656702692" id="-41747">
		<tag k="name" v="Skavsteinen" />
		<tag k="natural" v="stone" />
		<tag k="ssr:stedsnr" v="643612" />
	</node>
	<node lat="69.0513999980871" lon="19.29558887004346" id="-41750">
		<tag k="name" v="Våtmyra" />
		<tag k="natural" v="wetland" />
		<tag k="ssr:stedsnr" v="643951" />
	</node>
	<node lat="69.2157972200367" lon="19.524769436510173" id="-41753">
		<tag k="name" v="Storleira" />
		<tag k="place" v="locality" />
		<tag k="ssr:stedsnr" v="656235" />
	</node>
	<node lat="69.37545555622106" lon="19.34063055910194" id="-41756">
		<tag k="name" v="Torasteinen" />
		<tag k="natural" v="stone" />
		<tag k="ssr:stedsnr" v="655416" />
	</node>
	<node lat="69.38583611481707" lon="19.129027771252765" id="-41765">
		<tag k="name" v="Myran" />
		<tag k="natural" v="wetland" />
		<tag k="ssr:stedsnr" v="655712" />
	</node>
	<node lat="69.15804166522955" lon="19.205130549873072" id="-41794">
		<tag k="name" v="Lasttaš" />
		<tag k="name:se" v="Lasttaš" />
		<tag k="natural" v="wetland" />
		<tag k="ssr:stedsnr" v="656429" />
	</node>
	<node lat="69.39324999844337" lon="19.277730540368548" id="-41801">
		<tag k="name" v="Bakkemyra" />
		<tag k="natural" v="wetland" />
		<tag k="ssr:stedsnr" v="656552" />
	</node>
	<node lat="69.34092222664381" lon="18.894936104933812" id="-41829">
		<tag k="name" v="Stormyra" />
		<tag k="natural" v="wetland" />
		<tag k="ssr:stedsnr" v="656980" />
	</node>
	<node lat="69.31605833447179" lon="19.526922221166803" id="-41857">
		<tag k="name" v="Borterslåtta" />
		<tag k="place" v="locality" />
		<tag k="ssr:stedsnr" v="716365" />
	</node>
	<node lat="69.38849722616332" lon="19.137786093570753" id="-41868">
		<tag k="name" v="Uran" />
		<tag k="natural" v="scree" />
		<tag k="ssr:stedsnr" v="716731" />
	</node>
	<node lat="69.38697777812979" lon="19.144180539940077" id="-41870">
		<tag k="name" v="Stormyra" />
		<tag k="natural" v="wetland" />
		<tag k="ssr:stedsnr" v="716738" />
	</node>
	<node lat="69.28258055135764" lon="19.02312777089858" id="-41940">
		<tag k="alt_name" v="Urdmyra" />
		<tag k="name" v="Urmyra" />
		<tag k="natural" v="wetland" />
		<tag k="ssr:stedsnr" v="746077" />
	</node>
	<node lat="69.28046389187132" lon="19.454700001566035" id="-41961">
		<tag k="name" v="Ostesjaumyra" />
		<tag k="natural" v="wetland" />
		<tag k="ssr:stedsnr" v="746301" />
	</node>
	<node lat="69.12115556077543" lon="19.740736089868907" id="-41969">
		<tag k="name" v="Langmyra" />
		<tag k="natural" v="wetland" />
		<tag k="ssr:stedsnr" v="746502" />
	</node>
	<node lat="69.05773888918422" lon="19.453894437811332" id="-41970">
		<tag k="name" v="Stormyra" />
		<tag k="natural" v="wetland" />
		<tag k="ssr:stedsnr" v="746439" />
	</node>
	<node lat="69.07954444869904" lon="19.62313610959449" id="-41973">
		<tag k="name" v="Dápmotvuohorda" />
		<tag k="name:se" v="Dápmotvuohorda" />
		<tag k="place" v="locality" />
		<tag k="ssr:stedsnr" v="746462" />
	</node>
	<node lat="69.45954999766047" lon="18.990852781016503" id="-42012">
		<tag k="name" v="Langmyra" />
		<tag k="natural" v="wetland" />
		<tag k="ssr:stedsnr" v="765678" />
	</node>
	<node lat="69.2012472249003" lon="19.12003333856655" id="-42029">
		<tag k="name" v="Uran" />
		<tag k="natural" v="scree" />
		<tag k="ssr:stedsnr" v="777334" />
	</node>
	<node lat="69.15295277491822" lon="19.332419446379518" id="-42056">
		<tag k="name" v="Innerslåtta" />
		<tag k="place" v="locality" />
		<tag k="ssr:stedsnr" v="777766" />
	</node>
	<node lat="69.25142499853465" lon="18.930008318996002" id="-42089">
		<tag k="name" v="Hestemyra" />
		<tag k="natural" v="wetland" />
		<tag k="ssr:stedsnr" v="778477" />
	</node>
	<node lat="69.26894167038503" lon="18.731472216337384" id="-42095">
		<tag k="name" v="Larsmyra" />
		<tag k="natural" v="wetland" />
		<tag k="ssr:stedsnr" v="778568" />
	</node>
	<node lat="69.27100555216917" lon="18.880016666612395" id="-42096">
		<tag k="name" v="Aspenesmyra" />
		<tag k="natural" v="wetland" />
		<tag k="ssr:stedsnr" v="778569" />
	</node>
	<node lat="69.45802777729038" lon="18.88297778351354" id="-42107">
		<tag k="name" v="Diggmyrene" />
		<tag k="natural" v="wetland" />
		<tag k="ssr:stedsnr" v="778976" />
	</node>
	<node lat="69.36438611119351" lon="18.8287972090168" id="-42108">
		<tag k="name" v="Ibertmyra" />
		<tag k="natural" v="wetland" />
		<tag k="ssr:stedsnr" v="778945" />
	</node>
	<node lat="69.04303888595234" lon="19.30751387453999" id="-42221">
		<tag k="name" v="Tredjekjosmyrene" />
		<tag k="natural" v="wetland" />
		<tag k="ssr:stedsnr" v="826962" />
	</node>
	<node lat="69.23571110771887" lon="19.234091651051845" id="-42230">
		<tag k="name" v="Brattmelen" />
		<tag k="place" v="locality" />
		<tag k="ssr:stedsnr" v="838010" />
	</node>
	<node lat="69.30973055226879" lon="19.453533319564563" id="-42233">
		<tag k="name" v="Storsteinmyra" />
		<tag k="natural" v="wetland" />
		<tag k="ssr:stedsnr" v="838313" />
	</node>
	<node lat="69.10073888969185" lon="19.17417499759382" id="-42235">
		<tag k="name" v="Råttmyra" />
		<tag k="natural" v="wetland" />
		<tag k="ssr:stedsnr" v="838317" />
	</node>
	<node lat="69.28744722611324" lon="19.519997224526442" id="-42237">
		<tag k="name" v="Allmenningen" />
		<tag k="place" v="locality" />
		<tag k="ssr:stedsnr" v="838163" />
	</node>
	<node lat="69.33979166937763" lon="18.883713875589322" id="-42291">
		<tag k="name" v="Vedmyra" />
		<tag k="natural" v="wetland" />
		<tag k="ssr:stedsnr" v="839418" />
	</node>
	<node lat="69.37744166706355" lon="18.96969167175509" id="-42299">
		<tag k="name" v="Smalmyra" />
		<tag k="natural" v="wetland" />
		<tag k="ssr:stedsnr" v="839721" />
	</node>
	<node lat="69.46018611495919" lon="18.464291667501623" id="-42313">
		<tag k="name" v="Brursteinen" />
		<tag k="natural" v="stone" />
		<tag k="ssr:stedsnr" v="846060" />
	</node>
	<node lat="69.28987499586773" lon="19.479683327822578" id="-42351">
		<tag k="name" v="Holmmyra" />
		<tag k="natural" v="wetland" />
		<tag k="ssr:stedsnr" v="868349" />
	</node>
	<node lat="69.11106944512076" lon="19.7217610921547" id="-42359">
		<tag k="name" v="Tverrelvmyra" />
		<tag k="natural" v="wetland" />
		<tag k="ssr:stedsnr" v="868488" />
=======
	<node id="-876971" lat="69.2104055528" lon="19.459961092">
		<tag k="name" v="Storura" />
		<tag k="natural" v="scree" />
		<tag k="ssr:stedsnr" v="158187" />
>>>>>>> e1d4bc35ff8a6074a6f2e91616a996b547c36f15
	</node>
</osm>
