<?xml version="1.0" encoding="UTF-8"?>
<osm generator="osmapis" version="0.6">
	<node id="-773247" lat="69.3011583346" lon="19.4349499812">
		<tag k="highway" v="path" />
		<tag k="name" v="Fjellbuveien" />
		<tag k="ssr:stedsnr" v="412256" />
	</node>
	<node id="-773115" lat="69.216369445" lon="19.3230888688">
		<tag k="junction" v="yes" />
		<tag k="name" v="Veikroken" />
		<tag k="place" v="locality" />
		<tag k="ssr:stedsnr" v="474856" />
	</node>
	<node id="-774394" lat="69.1941861111" lon="19.6368777665">
		<tag k="highway" v="path" />
		<tag k="name" v="Kjusakveien" />
		<tag k="ssr:stedsnr" v="110199" />
	</node>
	<node id="-772601" lat="69.2559333336" lon="19.4653888811">
		<tag k="ford" v="yes" />
		<tag k="name" v="Brattvaet" />
		<tag k="place" v="locality" />
		<tag k="ssr:stedsnr" v="110303" />
	</node>
	<node id="-776056" lat="69.254911109" lon="19.4313249959">
		<tag k="highway" v="path" />
		<tag k="name" v="Stakkeveien" />
		<tag k="ssr:stedsnr" v="839318" />
	</node>
	<node id="-773751" lat="69.069033337" lon="19.4364277727">
		<tag k="highway" v="path" />
		<tag k="name" v="Rognmoveien" />
		<tag k="ssr:stedsnr" v="899097" />
	</node>
	<node id="-775411" lat="69.3806583362" lon="19.4027638729">
		<tag k="highway" v="path" />
		<tag k="name" v="Russeveien" />
		<tag k="ssr:stedsnr" v="594405" />
	</node>
	<node id="-773616" lat="69.1307805555" lon="19.1395083177">
		<tag k="highway" v="path" />
		<tag k="name" v="Liaveien" />
		<tag k="ssr:stedsnr" v="717495" />
	</node>
	<node id="-775080" lat="69.3273861097" lon="19.4495555572">
		<tag k="highway" v="path" />
		<tag k="name" v="Mellaveien" />
		<tag k="ssr:stedsnr" v="413154" />
	</node>
	<node id="-773994" lat="69.0509944472" lon="19.2863944303">
		<tag k="highway" v="path" />
		<tag k="name" v="Vassmoveien" />
		<tag k="ssr:stedsnr" v="947946" />
	</node>
	<node id="-775529" lat="69.1605027762" lon="18.9726055563">
		<tag k="highway" v="path" />
		<tag k="name" v="Sæterveien" />
		<tag k="ssr:stedsnr" v="596824" />
	</node>
	<node id="-773478" lat="69.1312722257" lon="19.1787444339">
		<tag k="highway" v="path" />
		<tag k="name" v="Strupvegen" />
		<tag k="ssr:stedsnr" v="686822" />
	</node>
	<node id="-774373" lat="69.0897500016" lon="19.3582777812">
		<tag k="fixme" v="verify maritime location" />
		<tag k="mooring" v="yes" />
		<tag k="name" v="Nordstøa" />
		<tag k="place" v="locality" />
		<tag k="ssr:stedsnr" v="98918" />
	</node>
	<node id="-775523" lat="69.2591499976" lon="18.7847999879">
		<tag k="ford" v="yes" />
		<tag k="name" v="Øvervaet" />
		<tag k="place" v="locality" />
		<tag k="ssr:stedsnr" v="596670" />
	</node>
	<node id="-774626" lat="69.2823416686" lon="19.4611361026">
		<tag k="highway" v="path" />
		<tag k="name" v="Skavhalsveien" />
		<tag k="ssr:stedsnr" v="171280" />
	</node>
	<node id="-775647" lat="69.4424416686" lon="18.4645694325">
		<tag k="highway" v="path" />
		<tag k="name" v="Tømmerveien" />
		<tag k="ssr:stedsnr" v="655354" />
	</node>
	<node id="-772957" lat="69.2641000046" lon="18.7810499877">
		<tag k="ford" v="yes" />
		<tag k="name" v="Nervaet" />
		<tag k="place" v="locality" />
		<tag k="ssr:stedsnr" v="232639" />
	</node>
	<node id="-773980" lat="69.3808944461" lon="19.1316972246">
		<tag k="highway" v="path" />
		<tag k="name" v="Torvskjåveian" />
		<tag k="ssr:stedsnr" v="838693" />
	</node>
	<node id="-773977" lat="69.310402775" lon="19.459422204">
		<tag k="highway" v="path" />
		<tag k="name" v="Sløkjeveien" />
		<tag k="ssr:stedsnr" v="838314" />
	</node>
	<node id="-773974" lat="69.0976055566" lon="19.5942333226">
		<tag k="ford" v="yes" />
		<tag k="name" v="Jordbrua" />
		<tag k="place" v="locality" />
		<tag k="ssr:stedsnr" v="838161" />
	</node>
	<node id="-773077" lat="69.2735361065" lon="18.927416666">
		<tag k="highway" v="path" />
		<tag k="name" v="Langvassveien" />
		<tag k="ssr:stedsnr" v="474372" />
	</node>
	<node id="-772515" lat="69.2749499967" lon="19.4533805442">
		<tag k="highway" v="path" />
		<tag k="name" v="Nikolaiveien" />
		<tag k="ssr:stedsnr" v="232291" />
	</node>
	<node id="-772472" lat="69.2963388871" lon="19.4871944314">
		<tag k="highway" v="path" />
		<tag k="name" v="Gjermundveien" />
		<tag k="ssr:stedsnr" v="231146" />
	</node>
	<node id="-775499" lat="69.4288555567" lon="18.5716166548">
		<tag k="highway" v="path" />
		<tag k="name" v="Rødsandveien" />
		<tag k="ssr:stedsnr" v="596296" />
	</node>
	<node id="-772804" lat="69.0626805523" lon="19.4523555537">
		<tag k="highway" v="path" />
		<tag k="name" v="Skarveien" />
		<tag k="ssr:stedsnr" v="292931" />
	</node>
	<node id="-775100" lat="69.0628388858" lon="19.2564972115">
		<tag k="highway" v="path" />
		<tag k="name" v="Fjelloddveien" />
		<tag k="ssr:stedsnr" v="413496" />
	</node>
	<node id="-775988" lat="69.0747916683" lon="19.2192027623">
		<tag k="highway" v="path" />
		<tag k="name" v="Vassmoveien" />
		<tag k="ssr:stedsnr" v="838481" />
	</node>
	<node id="-774964" lat="69.3513972229" lon="18.7737888742">
		<tag k="highway" v="path" />
		<tag k="name" v="Tømmerveien" />
		<tag k="ssr:stedsnr" v="353978" />
	</node>
	<node id="-773808" lat="69.342780559" lon="18.9240055554">
		<tag k="highway" v="path" />
		<tag k="name" v="Larsveien" />
		<tag k="ssr:stedsnr" v="900421" />
	</node>
	<node id="-773676" lat="69.39088333" lon="18.9535777718">
		<tag k="highway" v="path" />
		<tag k="name" v="Breiveien" />
		<tag k="ssr:stedsnr" v="656264" />
	</node>
	<node id="-775979" lat="69.3244305593" lon="19.4422027687">
		<tag k="highway" v="path" />
		<tag k="name" v="Nerveien" />
		<tag k="ssr:stedsnr" v="838190" />
	</node>
	<node id="-774184" lat="69.3295972264" lon="19.4492194412">
		<tag k="highway" v="path" />
		<tag k="name" v="Fjellveien" />
		<tag k="ssr:stedsnr" v="49171" />
	</node>
	<node id="-773724" lat="69.2474333375" lon="19.4475999973">
		<tag k="highway" v="path" />
		<tag k="name" v="Mosesveien" />
		<tag k="ssr:stedsnr" v="716323" />
	</node>
	<node id="-774564" lat="69.221794442" lon="19.3557194402">
		<tag k="highway" v="path" />
		<tag k="name" v="Skogsveien" />
		<tag k="ssr:stedsnr" v="158201" />
	</node>
	<node id="-775843" lat="69.2677916711" lon="18.8680722111">
		<tag k="highway" v="path" />
		<tag k="name" v="Aspenesveien" />
		<tag k="ssr:stedsnr" v="778581" />
	</node>
	<node id="-773766" lat="69.2009277789" lon="19.1361138887">
		<tag k="highway" v="path" />
		<tag k="name" v="Malmveien" />
		<tag k="ssr:stedsnr" v="899348" />
	</node>
	<node id="-775073" lat="69.2505805519" lon="19.2267611076">
		<tag k="highway" v="path" />
		<tag k="name" v="Reinveien" />
		<tag k="ssr:stedsnr" v="413006" />
	</node>
	<node id="-774176" lat="69.2406444477" lon="19.1917361003">
		<tag k="highway" v="path" />
		<tag k="name" v="Seljestien" />
		<tag k="ssr:stedsnr" v="49004" />
	</node>
	<node id="-772720" lat="69.0578638917" lon="19.3199111001">
		<tag k="highway" v="path" />
		<tag k="name" v="Lombolveien" />
		<tag k="ssr:stedsnr" v="280947" />
	</node>
	<node id="-774170" lat="69.2908138876" lon="18.9391000017">
		<tag k="highway" v="path" />
		<tag k="name" v="Djupdalsveien" />
		<tag k="ssr:stedsnr" v="50341" />
	</node>
	<node id="-773272" lat="69.2494527798" lon="19.464050004">
		<tag k="highway" v="path" />
		<tag k="name" v="Veisula" />
		<tag k="ssr:stedsnr" v="656301" />
	</node>
	<node id="-776004" lat="69.3836916636" lon="19.2709333236">
		<tag k="ford" v="yes" />
		<tag k="name" v="Gálajorbmi" />
		<tag k="name:se" v="Gálajorbmi" />
		<tag k="place" v="locality" />
		<tag k="ssr:stedsnr" v="838587" />
	</node>
	<node id="-772493" lat="69.2682861128" lon="19.4138499827">
		<tag k="junction" v="yes" />
		<tag k="name" v="Lakselvdalkrysset" />
		<tag k="place" v="locality" />
		<tag k="ssr:stedsnr" v="231693" />
	</node>
	<node id="-775180" lat="69.0515416692" lon="19.3092388726">
		<tag k="highway" v="path" />
		<tag k="name" v="Fjellfrøsvassveien" />
		<tag k="ssr:stedsnr" v="522936" />
	</node>
	<node id="-772744" lat="69.2932666715" lon="19.447205542">
		<tag k="highway" v="path" />
		<tag k="name" v="Fjellveien" />
		<tag k="ssr:stedsnr" v="292119" />
	</node>
	<node id="-772487" lat="69.4198416645" lon="19.281569443">
		<tag k="highway" v="path" />
		<tag k="name" v="Sideveien" />
		<tag k="ssr:stedsnr" v="231521" />
	</node>
	<node id="-775814" lat="69.4343972256" lon="18.5597083391">
		<tag k="highway" v="path" />
		<tag k="name" v="Jørnfeveien" />
		<tag k="ssr:stedsnr" v="778283" />
	</node>
	<node id="-773507" lat="69.2197555529" lon="19.2979916567">
		<tag k="highway" v="path" />
		<tag k="name" v="Lallavollveien" />
		<tag k="ssr:stedsnr" v="534755" />
	</node>
	<node id="-774596" lat="69.3847222236" lon="19.2654527665">
		<tag k="highway" v="path" />
		<tag k="name" v="Skilleveien" />
		<tag k="ssr:stedsnr" v="170550" />
	</node>
</osm>
