<?xml version="1.0" encoding="UTF-8"?>
<osm generator="osmapis" version="0.6">
	<node id="-88062" lat="69.2821638866" lon="19.0657360971">
		<tag k="name" v="Urelva" />
		<tag k="ssr:stedsnr" v="474286" />
		<tag k="waterway" v="stream" />
	</node>
	<node id="-88061" lat="69.0916416698" lon="19.1607916535">
		<tag k="name" v="Strømstadkjosen" />
		<tag k="natural" v="bay" />
		<tag k="ssr:stedsnr" v="474285" />
	</node>
	<node id="-90108" lat="69.2899305533" lon="19.279352762">
		<tag k="name" v="Indre Berghaugelv" />
		<tag k="ssr:stedsnr" v="413573" />
		<tag k="waterway" v="stream" />
	</node>
	<node id="-90107" lat="69.3932111149" lon="19.2711111114">
		<tag k="name" v="Storneset" />
		<tag k="natural" v="cape" />
		<tag k="ssr:stedsnr" v="413565" />
	</node>
	<node id="-90105" lat="69.3892861068" lon="19.2786583332">
		<tag k="name" v="Leirmelelva" />
		<tag k="ssr:stedsnr" v="413559" />
		<tag k="waterway" v="stream" />
	</node>
	<node id="-90104" lat="69.3263944455" lon="19.2745999944">
		<tag k="name" v="Innerskredelva" />
		<tag k="ssr:stedsnr" v="413540" />
		<tag k="waterway" v="stream" />
	</node>
	<node id="-88055" lat="69.322075" lon="19.0837194449">
		<tag k="name" v="Andersvatnet" />
		<tag k="natural" v="water" />
		<tag k="ssr:stedsnr" v="474250" />
	</node>
	<node id="-90102" lat="69.1205472215" lon="19.1142444339">
		<tag k="name" v="Skjellodden" />
		<tag k="natural" v="cape" />
		<tag k="ssr:stedsnr" v="413526" />
	</node>
	<node id="-88053" lat="69.341761107" lon="19.2202972213">
		<tag k="name" v="Litjebergelva" />
		<tag k="ssr:stedsnr" v="474241" />
		<tag k="waterway" v="stream" />
	</node>
	<node id="-88051" lat="69.2844777748" lon="19.2483388724">
		<tag k="name" v="Båtmolielva" />
		<tag k="ssr:stedsnr" v="474210" />
		<tag k="waterway" v="stream" />
	</node>
	<node id="-88049" lat="69.3378472187" lon="19.1172527673">
		<tag k="name" v="Renvasselva" />
		<tag k="ssr:stedsnr" v="474189" />
		<tag k="waterway" v="stream" />
	</node>
	<node id="-90094" lat="69.2500694431" lon="19.1792610992">
		<tag k="name" v="Forselva" />
		<tag k="ssr:stedsnr" v="413472" />
		<tag k="waterway" v="stream" />
	</node>
	<node id="-90093" lat="69.2610944414" lon="19.2196999894">
		<tag k="name" v="Hundbergvatnet" />
		<tag k="natural" v="water" />
		<tag k="ssr:stedsnr" v="413460" />
		<tag k="water" v="pond" />
	</node>
	<node id="-88040" lat="69.3853694431" lon="18.7022416694">
		<tag k="name" v="Rundvatnet" />
		<tag k="natural" v="water" />
		<tag k="ssr:stedsnr" v="474035" />
	</node>
	<node id="-90085" lat="69.3197027811" lon="19.5221833307">
		<tag k="name" v="Skjellelva" />
		<tag k="ssr:stedsnr" v="413359" />
		<tag k="waterway" v="stream" />
	</node>
	<node id="-90084" lat="69.2858444422" lon="19.254691668">
		<tag k="name" v="Olderlielva" />
		<tag k="ssr:stedsnr" v="413233" />
		<tag k="waterway" v="stream" />
	</node>
	<node id="-88035" lat="69.2442833378" lon="19.1964666651">
		<tag k="name" v="Lemmetvatnet" />
		<tag k="natural" v="water" />
		<tag k="ssr:stedsnr" v="474010" />
	</node>
	<node id="-90081" lat="69.282122219" lon="19.16970277">
		<tag k="name" v="Nedre Litjeelva" />
		<tag k="ssr:stedsnr" v="413155" />
		<tag k="waterway" v="stream" />
	</node>
	<node id="-88029" lat="69.4660750041" lon="18.9927472143">
		<tag k="name" v="Aspebergelva" />
		<tag k="ssr:stedsnr" v="473741" />
		<tag k="waterway" v="stream" />
	</node>
	<node id="-90075" lat="69.2814972211" lon="19.1215138877">
		<tag k="name" v="Larselva" />
		<tag k="ssr:stedsnr" v="413108" />
		<tag k="waterway" v="stream" />
	</node>
	<node id="-88024" lat="69.3155944409" lon="19.4143916495">
		<tag k="name" v="Melen" />
		<tag k="natural" v="bay" />
		<tag k="ssr:stedsnr" v="473600" />
	</node>
	<node id="-88022" lat="69.373547223" lon="19.3877194377">
		<tag k="name" v="Tverrelva" />
		<tag k="ssr:stedsnr" v="473449" />
		<tag k="waterway" v="stream" />
	</node>
	<node id="-90066" lat="69.0428750005" lon="19.3017388781">
		<tag k="name" v="Tredjekjosbekken" />
		<tag k="ssr:stedsnr" v="401937" />
		<tag k="waterway" v="stream" />
	</node>
	<node id="-88015" lat="69.0591833326" lon="19.3271833228">
		<tag k="name" v="Litjelombola" />
		<tag k="natural" v="water" />
		<tag k="ssr:stedsnr" v="468761" />
	</node>
	<node id="-90062" lat="69.3640611098" lon="19.3660722152">
		<tag k="name" v="Naustneselva" />
		<tag k="ssr:stedsnr" v="400594" />
		<tag k="waterway" v="stream" />
	</node>
	<node id="-88011" lat="69.2871194483" lon="19.0276555476">
		<tag k="name" v="Kuelva" />
		<tag k="ssr:stedsnr" v="293385" />
		<tag k="waterway" v="stream" />
	</node>
	<node id="-90056" lat="69.2168333377" lon="19.0593361059">
		<tag k="name" v="Storfjellvatnet" />
		<tag k="natural" v="water" />
		<tag k="ssr:stedsnr" v="382988" />
		<tag k="water" v="lake" />
	</node>
	<node id="-88003" lat="69.2185222208" lon="19.4399361097">
		<tag k="name" v="Mølnelva" />
		<tag k="ssr:stedsnr" v="292422" />
		<tag k="waterway" v="stream" />
	</node>
	<node id="-87999" lat="69.0878194449" lon="19.2453916605">
		<tag k="name" v="Båtbukta" />
		<tag k="natural" v="bay" />
		<tag k="ssr:stedsnr" v="292409" />
	</node>
	<node id="-87998" lat="69.2664083307" lon="19.1863722141">
		<tag k="name" v="Litjeholmen" />
		<tag k="place" v="islet" />
		<tag k="ssr:stedsnr" v="292402" />
	</node>
	<node id="-90783" lat="69.0821638864" lon="19.2232999962">
		<tag k="name" v="Lomtjønna" />
		<tag k="natural" v="water" />
		<tag k="ssr:stedsnr" v="777452" />
	</node>
	<node id="-87991" lat="69.0582638865" lon="19.3113305336">
		<tag k="name" v="Takelvfossan" />
		<tag k="natural" v="waterfall" />
		<tag k="ssr:stedsnr" v="461942" />
	</node>
	<node id="-87989" lat="69.3583472242" lon="19.3727861106">
		<tag k="name" v="Larsenelva" />
		<tag k="ssr:stedsnr" v="279611" />
		<tag k="waterway" v="stream" />
	</node>
	<node id="-90036" lat="69.1411416703" lon="19.0457333308">
		<tag k="name" v="Fjellvatnet" />
		<tag k="natural" v="water" />
		<tag k="ssr:stedsnr" v="382775" />
	</node>
	<node id="-90035" lat="69.1395277786" lon="19.1135944365">
		<tag k="name" v="Reinvegvatnan" />
		<tag k="natural" v="water" />
		<tag k="ssr:stedsnr" v="382774" />
		<tag k="water" v="lake" />
	</node>
	<node id="-90030" lat="69.0788499993" lon="19.3163944349">
		<tag k="name" v="Myrvangholmen" />
		<tag k="place" v="islet" />
		<tag k="ssr:stedsnr" v="382465" />
	</node>
	<node id="-90029" lat="69.0535722212" lon="19.3865166494">
		<tag k="name" v="Reingjerdtjørnan" />
		<tag k="natural" v="water" />
		<tag k="ssr:stedsnr" v="382443" />
	</node>
	<node id="-90027" lat="69.2845027812" lon="19.4264222242">
		<tag k="name" v="Moseselva" />
		<tag k="ssr:stedsnr" v="382353" />
		<tag k="waterway" v="stream" />
	</node>
	<node id="-90780" lat="69.2432861078" lon="19.1462166459">
		<tag k="name" v="Rotvatnet" />
		<tag k="natural" v="water" />
		<tag k="ssr:stedsnr" v="777446" />
	</node>
	<node id="-87973" lat="69.2323111122" lon="18.9328638911">
		<tag k="name" v="Klubbeneset" />
		<tag k="natural" v="cape" />
		<tag k="ssr:stedsnr" v="443975" />
	</node>
	<node id="-87967" lat="69.396747221" lon="18.668591673">
		<tag k="name" v="Sandsvatnet" />
		<tag k="natural" v="water" />
		<tag k="ssr:stedsnr" v="443919" />
		<tag k="water" v="lake" />
	</node>
	<node id="-87962" lat="69.1263305525" lon="19.0984749969">
		<tag k="name" v="Liabekken" />
		<tag k="ssr:stedsnr" v="232723" />
		<tag k="waterway" v="stream" />
	</node>
	<node id="-87959" lat="69.100127777" lon="19.1538972105">
		<tag k="name" v="Sørbøneset" />
		<tag k="natural" v="cape" />
		<tag k="ssr:stedsnr" v="443838" />
	</node>
	<node id="-87958" lat="69.2674416691" lon="18.7675610944">
		<tag k="name" v="Råttkjosen" />
		<tag k="natural" v="water" />
		<tag k="ssr:stedsnr" v="232644" />
	</node>
	<node id="-87953" lat="69.3515333366" lon="18.8544444364">
		<tag k="name" v="Nordbyelvfossen" />
		<tag k="natural" v="waterfall" />
		<tag k="ssr:stedsnr" v="232511" />
	</node>
	<node id="-89998" lat="69.3108888893" lon="19.1558222113">
		<tag k="name" v="Småvatnan" />
		<tag k="natural" v="water" />
		<tag k="ssr:stedsnr" v="382116" />
		<tag k="water" v="lake" />
	</node>
	<node id="-87944" lat="69.3908305565" lon="18.6516833338">
		<tag k="name" v="Grønnlivatnet" />
		<tag k="natural" v="water" />
		<tag k="ssr:stedsnr" v="232203" />
	</node>
	<node id="-89988" lat="69.06297222" lon="19.581008317">
		<tag k="alt_name" v="Skilelva" />
		<tag k="name" v="Skjellelva" />
		<tag k="ssr:stedsnr" v="382075" />
		<tag k="waterway" v="stream" />
	</node>
	<node id="-89982" lat="69.260802776" lon="18.9563277641">
		<tag k="name" v="Kalvevatnet" />
		<tag k="natural" v="water" />
		<tag k="ssr:stedsnr" v="382050" />
	</node>
	<node id="-89980" lat="69.2526083299" lon="19.0487055583">
		<tag k="name" v="Hallarvatnet" />
		<tag k="natural" v="water" />
		<tag k="ssr:stedsnr" v="382037" />
	</node>
	<node id="-89979" lat="69.1259083334" lon="19.7816360926">
		<tag k="name" v="Lemmetelva" />
		<tag k="ssr:stedsnr" v="382029" />
		<tag k="waterway" v="river" />
	</node>
	<node id="-89978" lat="69.1257888916" lon="19.3297888712">
		<tag k="alt_name" v="Litleelva" />
		<tag k="name" v="Litjeelva" />
		<tag k="ssr:stedsnr" v="382023" />
		<tag k="waterway" v="stream" />
	</node>
	<node id="-89977" lat="69.1322416689" lon="19.4504833244">
		<tag k="name" v="Finntverrelva - Skávhliriehpijohka" />
		<tag k="name:no" v="Finntverrelva" />
		<tag k="name:se" v="Skávhliriehpijohka" />
		<tag k="ssr:stedsnr" v="382017" />
		<tag k="waterway" v="stream" />
	</node>
	<node id="-89976" lat="69.1393722191" lon="19.3222527707">
		<tag k="name" v="Vargevatnet" />
		<tag k="natural" v="water" />
		<tag k="ssr:stedsnr" v="382016" />
	</node>
	<node id="-89974" lat="69.1429555541" lon="19.3193194408">
		<tag k="alt_name" v="Bjørnvatnet" />
		<tag k="name" v="Bjørnevatnet" />
		<tag k="natural" v="water" />
		<tag k="ssr:stedsnr" v="382005" />
	</node>
	<node id="-87923" lat="69.2242444406" lon="19.1534499936">
		<tag k="name" v="Eineelva" />
		<tag k="ssr:stedsnr" v="231322" />
		<tag k="waterway" v="stream" />
	</node>
	<node id="-89969" lat="69.1732944487" lon="19.3301055376">
		<tag k="alt_name" v="Ladelva" />
		<tag k="name" v="Laelva" />
		<tag k="ssr:stedsnr" v="381072" />
		<tag k="waterway" v="stream" />
	</node>
	<node id="-87919" lat="69.081475" lon="19.3699166692">
		<tag k="name" v="Blåneset" />
		<tag k="natural" v="cape" />
		<tag k="ssr:stedsnr" v="231107" />
	</node>
	<node id="-87916" lat="69.3823555584" lon="19.4128472252">
		<tag k="name" v="Gođđojohka" />
		<tag k="name:se" v="Gođđojohka" />
		<tag k="ssr:stedsnr" v="230407" />
		<tag k="waterway" v="stream" />
	</node>
	<node id="-89963" lat="69.352977777" lon="18.7140527752">
		<tag k="name" v="Ålelva" />
		<tag k="ssr:stedsnr" v="353971" />
		<tag k="waterway" v="stream" />
	</node>
	<node id="-89959" lat="69.3829166656" lon="19.2707166574">
		<tag k="name" v="Olderneset" />
		<tag k="natural" v="cape" />
		<tag k="ssr:stedsnr" v="353918" />
	</node>
	<node id="-87909" lat="69.1102305601" lon="19.3101611069">
		<tag k="name" v="Andorelva" />
		<tag k="ssr:stedsnr" v="443499" />
		<tag k="waterway" v="stream" />
	</node>
	<node id="-89956" lat="69.382341671" lon="19.2968777634">
		<tag k="name" v="Moskeelva - Moskojohka" />
		<tag k="name:no" v="Moskeelva" />
		<tag k="name:se" v="Moskojohka" />
		<tag k="ssr:stedsnr" v="353893" />
		<tag k="waterway" v="stream" />
	</node>
	<node id="-89955" lat="69.3802111094" lon="19.3101805547">
		<tag k="loc_name:se" v="Doaresjohka" />
		<tag k="name" v="Tverrelva" />
		<tag k="name:no" v="Tverrelva" />
		<tag k="ssr:stedsnr" v="353891" />
		<tag k="waterway" v="stream" />
	</node>
	<node id="-87906" lat="69.081936108" lon="19.3766999963">
		<tag k="name" v="Gambekken" />
		<tag k="ssr:stedsnr" v="443476" />
		<tag k="waterway" v="stream" />
	</node>
	<node id="-87905" lat="69.0771055545" lon="19.3964722053">
		<tag k="alt_name" v="Skardelva" />
		<tag k="name" v="Skarbekken" />
		<tag k="ssr:stedsnr" v="443475" />
		<tag k="waterway" v="stream" />
	</node>
	<node id="-89952" lat="69.2912305533" lon="18.7768805444">
		<tag k="name" v="Nedre Tverrelvvatnet" />
		<tag k="natural" v="water" />
		<tag k="ssr:stedsnr" v="353784" />
	</node>
	<node id="-90768" lat="69.4323361085" lon="19.256919433">
		<tag k="name" v="Fielbmá" />
		<tag k="name:se" v="Fielbmá" />
		<tag k="natural" v="water" />
		<tag k="ssr:stedsnr" v="777402" />
		<tag k="water" v="lake" />
	</node>
	<node id="-89944" lat="69.268116663" lon="18.7867444297">
		<tag k="name" v="Anderselva" />
		<tag k="ssr:stedsnr" v="353689" />
		<tag k="waterway" v="stream" />
	</node>
	<node id="-89943" lat="69.2640916647" lon="18.8022666544">
		<tag k="name" v="Mellafossen" />
		<tag k="natural" v="waterfall" />
		<tag k="ssr:stedsnr" v="353683" />
	</node>
	<node id="-89939" lat="69.2568027809" lon="18.8720388794">
		<tag k="name" v="Nedre Damvatn" />
		<tag k="natural" v="water" />
		<tag k="ssr:stedsnr" v="353642" />
		<tag k="water" v="lake" />
	</node>
	<node id="-89938" lat="69.3118722248" lon="18.7528944317">
		<tag k="name" v="Tverrelva" />
		<tag k="ssr:stedsnr" v="353640" />
		<tag k="waterway" v="stream" />
	</node>
	<node id="-87889" lat="69.3868777752" lon="19.3618888678">
		<tag k="loc_name:se" v="Ruollajohka" />
		<tag k="name" v="Trollelva" />
		<tag k="name:no" v="Trollelva" />
		<tag k="ssr:stedsnr" v="443208" />
		<tag k="waterway" v="stream" />
	</node>
	<node id="-89933" lat="69.2451972203" lon="18.939683315">
		<tag k="name" v="Indre Snaunes" />
		<tag k="natural" v="cape" />
		<tag k="ssr:stedsnr" v="353492" />
	</node>
	<node id="-87881" lat="69.3267166651" lon="19.4753666602">
		<tag k="loc_name:se" v="Miellajohka" />
		<tag k="name" v="Melelva" />
		<tag k="name:no" v="Melelva" />
		<tag k="ssr:stedsnr" v="443152" />
		<tag k="waterway" v="river" />
	</node>
	<node id="-89928" lat="69.2844194409" lon="19.0144944355">
		<tag k="name" v="Kuelva" />
		<tag k="ssr:stedsnr" v="353383" />
		<tag k="waterway" v="stream" />
	</node>
	<node id="-87875" lat="69.1682666699" lon="19.2039888745">
		<tag k="name" v="Tverrelva" />
		<tag k="ssr:stedsnr" v="443087" />
		<tag k="waterway" v="river" />
	</node>
	<node id="-87873" lat="69.2902277738" lon="19.0646361006">
		<tag k="alt_name" v="Ingebriktvatnet" />
		<tag k="name" v="Ingebrigtvatnet" />
		<tag k="natural" v="water" />
		<tag k="ssr:stedsnr" v="443080" />
	</node>
	<node id="-89919" lat="69.3937833327" lon="18.9629055442">
		<tag k="name" v="Tømmerelv" />
		<tag k="ssr:stedsnr" v="353300" />
		<tag k="waterway" v="stream" />
	</node>
	<node id="-89918" lat="69.3839222238" lon="18.9499861089">
		<tag k="name" v="Larselva" />
		<tag k="ssr:stedsnr" v="353299" />
		<tag k="waterway" v="stream" />
	</node>
	<node id="-87868" lat="69.2888861157" lon="19.1558166616">
		<tag k="name" v="Langvatnet" />
		<tag k="natural" v="water" />
		<tag k="ssr:stedsnr" v="443062" />
		<tag k="water" v="lake" />
	</node>
	<node id="-89911" lat="69.2691666703" lon="19.071452768">
		<tag k="name" v="Halvøya" />
		<tag k="natural" v="cape" />
		<tag k="ssr:stedsnr" v="352880" />
	</node>
	<node id="-87862" lat="69.1847361118" lon="18.8951611153">
		<tag k="name" v="Tømmerelvvatnet" />
		<tag k="natural" v="water" />
		<tag k="ssr:stedsnr" v="442980" />
		<tag k="water" v="lake" />
	</node>
	<node id="-87861" lat="69.1957861148" lon="19.1384722096">
		<tag k="alt_name" v="Sagelvvatnet, l" />
		<tag k="name" v="Litje Sagelvvatnet" />
		<tag k="natural" v="water" />
		<tag k="ssr:stedsnr" v="442966" />
		<tag k="water" v="lake" />
	</node>
	<node id="-89905" lat="69.1233333339" lon="19.0679722129">
		<tag k="name" v="Sandvikneset" />
		<tag k="natural" v="cape" />
		<tag k="ssr:stedsnr" v="352759" />
	</node>
	<node id="-89904" lat="69.1245249973" lon="19.066105552">
		<tag k="name" v="Sandvika" />
		<tag k="natural" v="bay" />
		<tag k="ssr:stedsnr" v="352758" />
	</node>
	<node id="-87688" lat="69.3826916632" lon="18.6535611048">
		<tag k="name" v="Sjukavatnet" />
		<tag k="natural" v="water" />
		<tag k="ssr:stedsnr" v="261927" />
	</node>
	<node id="-87854" lat="69.3581861077" lon="18.7972083134">
		<tag k="name" v="Reinvatnet" />
		<tag k="natural" v="water" />
		<tag k="ssr:stedsnr" v="200961" />
	</node>
	<node id="-87853" lat="69.3616583367" lon="18.9268527748">
		<tag k="alt_name" v="Eidet" />
		<tag k="name" v="Malangseidet" />
		<tag k="natural" v="strait" />
		<tag k="ssr:stedsnr" v="200954" />
	</node>
	<node id="-89900" lat="69.1580999964" lon="19.307361101">
		<tag k="name" v="Vesterbukta" />
		<tag k="natural" v="bay" />
		<tag k="ssr:stedsnr" v="352747" />
	</node>
	<node id="-89899" lat="69.2154861094" lon="19.3180527771">
		<tag k="name" v="Forrmyrveita" />
		<tag k="ssr:stedsnr" v="352741" />
		<tag k="waterway" v="stream" />
	</node>
	<node id="-90625" lat="69.1658999984" lon="19.3162860916">
		<tag k="name" v="Storvatnet - Stuorajávri" />
		<tag k="name:no" v="Storvatnet" />
		<tag k="name:se" v="Stuorajávri" />
		<tag k="natural" v="water" />
		<tag k="ssr:stedsnr" v="631049" />
		<tag k="water" v="lake" />
	</node>
	<node id="-87847" lat="69.2653388857" lon="18.7589583356">
		<tag k="name" v="Lefseelva" />
		<tag k="ssr:stedsnr" v="293695" />
		<tag k="waterway" v="stream" />
	</node>
	<node id="-87843" lat="69.3401416698" lon="19.2785833312">
		<tag k="name" v="Oppkomelva" />
		<tag k="ssr:stedsnr" v="200129" />
		<tag k="waterway" v="stream" />
	</node>
	<node id="-88027" lat="69.4078722184" lon="19.0757583189">
		<tag k="name" v="Krøkelva" />
		<tag k="ssr:stedsnr" v="473722" />
		<tag k="waterway" v="stream" />
	</node>
	<node id="-89886" lat="69.0535861078" lon="19.264127765">
		<tag k="name" v="Melkevassbekken" />
		<tag k="ssr:stedsnr" v="352516" />
		<tag k="waterway" v="stream" />
	</node>
	<node id="-89879" lat="69.2543416684" lon="19.1770055567">
		<tag k="name" v="Tømmerbukta" />
		<tag k="natural" v="bay" />
		<tag k="ssr:stedsnr" v="352418" />
	</node>
	<node id="-87827" lat="69.2949472236" lon="18.9418749921">
		<tag k="name" v="Gårdselva" />
		<tag k="ssr:stedsnr" v="293587" />
		<tag k="waterway" v="stream" />
	</node>
	<node id="-87825" lat="69.2605250039" lon="18.8645583376">
		<tag k="name" v="Garnneset" />
		<tag k="natural" v="cape" />
		<tag k="ssr:stedsnr" v="293580" />
	</node>
	<node id="-87824" lat="69.2585055556" lon="18.8703527595">
		<tag k="name" v="Damvassbekken" />
		<tag k="ssr:stedsnr" v="293577" />
		<tag k="waterway" v="stream" />
	</node>
	<node id="-89869" lat="69.3778222243" lon="18.6953055391">
		<tag k="name" v="Femtevatnet" />
		<tag k="natural" v="water" />
		<tag k="ssr:stedsnr" v="353058" />
	</node>
	<node id="-89868" lat="69.3676527793" lon="18.7278166532">
		<tag k="name" v="Forsåvatnet" />
		<tag k="natural" v="water" />
		<tag k="ssr:stedsnr" v="353050" />
	</node>
	<node id="-89866" lat="69.1300833342" lon="19.3036444406">
		<tag k="name" v="Andorvassneset" />
		<tag k="natural" v="cape" />
		<tag k="ssr:stedsnr" v="352960" />
	</node>
	<node id="-89864" lat="69.0475083341" lon="19.3306055489">
		<tag k="name" v="Geitbekken" />
		<tag k="ssr:stedsnr" v="340950" />
		<tag k="waterway" v="stream" />
	</node>
	<node id="-89863" lat="69.085738887" lon="19.3645027593">
		<tag k="name" v="Bukta" />
		<tag k="natural" v="bay" />
		<tag k="ssr:stedsnr" v="340942" />
	</node>
	<node id="-87814" lat="69.295294444" lon="19.0927583144">
		<tag k="name" v="Lomvatnet" />
		<tag k="natural" v="water" />
		<tag k="ssr:stedsnr" v="293362" />
	</node>
	<node id="-90753" lat="69.0698555522" lon="19.2619111021">
		<tag k="name" v="Langmyrbekken" />
		<tag k="ssr:stedsnr" v="777471" />
		<tag k="waterway" v="stream" />
	</node>
	<node id="-87811" lat="69.3267972213" lon="18.946997211">
		<tag k="name" v="Vargelva" />
		<tag k="ssr:stedsnr" v="293314" />
		<tag k="waterway" v="stream" />
	</node>
	<node id="-87809" lat="69.3227416658" lon="19.0873916473">
		<tag k="name" v="Anderselva" />
		<tag k="ssr:stedsnr" v="293306" />
		<tag k="waterway" v="stream" />
	</node>
	<node id="-88305" lat="69.1531611098" lon="19.3297833137">
		<tag k="name" v="Innerelva" />
		<tag k="ssr:stedsnr" v="656960" />
		<tag k="waterway" v="stream" />
	</node>
	<node id="-89855" lat="69.3504388928" lon="19.4177333175">
		<tag k="name" v="Forsen" />
		<tag k="natural" v="waterfall" />
		<tag k="ssr:stedsnr" v="340611" />
	</node>
	<node id="-89854" lat="69.3467361085" lon="19.4151833132">
		<tag k="name" v="Benkelva" />
		<tag k="ssr:stedsnr" v="340610" />
		<tag k="waterway" v="stream" />
	</node>
	<node id="-91093" lat="69.3816722205" lon="19.269874993">
		<tag k="name" v="Huossu" />
		<tag k="name:se" v="Huossu" />
		<tag k="ssr:stedsnr" v="839901" />
		<tag k="waterway" v="rapids" />
	</node>
	<node id="-87803" lat="69.0692333346" lon="19.3431527815">
		<tag k="name" v="Sæterodden" />
		<tag k="natural" v="cape" />
		<tag k="ssr:stedsnr" v="292930" />
	</node>
	<node id="-87679" lat="69.4429777792" lon="18.8848694279">
		<tag k="name" v="Tindelva" />
		<tag k="ssr:stedsnr" v="261867" />
		<tag k="waterway" v="river" />
	</node>
	<node id="-87800" lat="69.2643361134" lon="19.0800083148">
		<tag k="name" v="Litjeholmen" />
		<tag k="place" v="islet" />
		<tag k="ssr:stedsnr" v="292904" />
	</node>
	<node id="-88734" lat="69.3333750019" lon="19.2390444389">
		<tag k="name" v="Innermølnelva" />
		<tag k="ssr:stedsnr" v="717003" />
		<tag k="waterway" v="stream" />
	</node>
	<node id="-89844" lat="69.3053527792" lon="18.7784222268">
		<tag k="name" v="Lomtjønna" />
		<tag k="natural" v="water" />
		<tag k="ssr:stedsnr" v="324200" />
	</node>
	<node id="-87785" lat="69.2187416632" lon="19.303427758">
		<tag k="name" v="Olderneset" />
		<tag k="natural" v="cape" />
		<tag k="ssr:stedsnr" v="292748" />
	</node>
	<node id="-87784" lat="69.1348249965" lon="19.0606388822">
		<tag k="name" v="Markusbekken" />
		<tag k="ssr:stedsnr" v="292746" />
		<tag k="waterway" v="stream" />
	</node>
	<node id="-87783" lat="69.1391166666" lon="19.099452781">
		<tag k="name" v="Reinveivatnet" />
		<tag k="natural" v="water" />
		<tag k="ssr:stedsnr" v="292744" />
	</node>
	<node id="-89827" lat="69.4179222185" lon="18.7055249859">
		<tag k="name" v="Fjellelva" />
		<tag k="ssr:stedsnr" v="322924" />
		<tag k="waterway" v="river" />
	</node>
	<node id="-87777" lat="69.3750999975" lon="19.0152888735">
		<tag k="name" v="Andrebekken" />
		<tag k="ssr:stedsnr" v="292722" />
		<tag k="waterway" v="stream" />
	</node>
	<node id="-89817" lat="69.4415055524" lon="18.5349249934">
		<tag k="name" v="Oterelva" />
		<tag k="ssr:stedsnr" v="322661" />
		<tag k="waterway" v="stream" />
	</node>
	<node id="-89815" lat="69.0825500029" lon="19.7678555441">
		<tag k="name" v="Čáhceváhskáidi" />
		<tag k="name:se" v="Čáhceváhskáidi" />
		<tag k="natural" v="cape" />
		<tag k="ssr:stedsnr" v="322459" />
	</node>
	<node id="-89813" lat="69.2691250016" lon="19.4559916635">
		<tag k="name" v="Ragnaelva" />
		<tag k="ssr:stedsnr" v="322317" />
		<tag k="waterway" v="stream" />
	</node>
	<node id="-88014" lat="69.0780888923" lon="19.6563222215">
		<tag k="name" v="Melkarskarelva" />
		<tag k="ssr:stedsnr" v="468081" />
		<tag k="waterway" v="stream" />
	</node>
	<node id="-87761" lat="69.2319250039" lon="19.1695333178">
		<tag k="name" v="Langvatnet" />
		<tag k="natural" v="water" />
		<tag k="ssr:stedsnr" v="292281" />
	</node>
	<node id="-87760" lat="69.2212499984" lon="19.1172416467">
		<tag k="name" v="Reinelva" />
		<tag k="ssr:stedsnr" v="292258" />
		<tag k="waterway" v="stream" />
	</node>
	<node id="-87759" lat="69.2264611146" lon="19.1276833295">
		<tag k="name" v="Brunelva" />
		<tag k="ssr:stedsnr" v="292257" />
		<tag k="waterway" v="stream" />
	</node>
	<node id="-87756" lat="69.2139916688" lon="19.5403749955">
		<tag k="name" v="Halvorelva" />
		<tag k="ssr:stedsnr" v="292233" />
		<tag k="waterway" v="stream" />
	</node>
	<node id="-87755" lat="69.2271333311" lon="19.5203388843">
		<tag k="name" v="Honkelva" />
		<tag k="ssr:stedsnr" v="292228" />
		<tag k="waterway" v="stream" />
	</node>
	<node id="-89800" lat="69.3443111156" lon="19.4094138824">
		<tag k="loc_name:se" v="Stoakčejohka" />
		<tag k="name" v="Tomasjordelva" />
		<tag k="name:no" v="Tomasjordelva" />
		<tag k="ssr:stedsnr" v="322141" />
		<tag k="waterway" v="river" />
	</node>
	<node id="-87749" lat="69.3683333293" lon="18.6601611085">
		<tag k="name" v="Ølkonelva" />
		<tag k="ssr:stedsnr" v="292181" />
		<tag k="waterway" v="stream" />
	</node>
	<node id="-87748" lat="69.3750277817" lon="18.6701527656">
		<tag k="name" v="Ølkonvatnet" />
		<tag k="natural" v="water" />
		<tag k="ssr:stedsnr" v="292180" />
	</node>
	<node id="-89793" lat="69.1892194409" lon="19.1279694398">
		<tag k="name" v="Storbukta" />
		<tag k="natural" v="bay" />
		<tag k="ssr:stedsnr" v="321969" />
	</node>
	<node id="-89785" lat="69.1797361129" lon="19.157099991">
		<tag k="name" v="Litlvatnet" />
		<tag k="natural" v="water" />
		<tag k="ssr:stedsnr" v="321744" />
	</node>
	<node id="-87735" lat="69.3773191574" lon="19.3760279293">
		<tag k="name" v="Buktelva" />
		<tag k="ssr:stedsnr" v="291440" />
		<tag k="waterway" v="stream" />
	</node>
	<node id="-89781" lat="69.4873777751" lon="18.5357499903">
		<tag k="name" v="Grønvatnet" />
		<tag k="natural" v="water" />
		<tag k="ssr:stedsnr" v="321605" />
	</node>
	<node id="-87732" lat="69.2002361086" lon="19.7449722054">
		<tag k="name" v="Skjellbekken" />
		<tag k="ssr:stedsnr" v="291254" />
		<tag k="waterway" v="stream" />
	</node>
	<node id="-89778" lat="69.1031805597" lon="19.3211138853">
		<tag k="name" v="Lombola - Luoppal" />
		<tag k="name:no" v="Lombola" />
		<tag k="name:se" v="Luoppal" />
		<tag k="natural" v="water" />
		<tag k="ssr:stedsnr" v="321456" />
		<tag k="water" v="lake" />
	</node>
	<node id="-88008" lat="69.3008055516" lon="19.0234916645">
		<tag k="name" v="Sennesdalelva" />
		<tag k="ssr:stedsnr" v="292383" />
		<tag k="waterway" v="stream" />
	</node>
	<node id="-87725" lat="69.3321388874" lon="19.2470194453">
		<tag k="name" v="Litjetverrelva" />
		<tag k="ssr:stedsnr" v="170502" />
		<tag k="waterway" v="stream" />
	</node>
	<node id="-90738" lat="69.4513249977" lon="19.0192805415">
		<tag k="name" v="Høgfossen" />
		<tag k="natural" v="waterfall" />
		<tag k="ssr:stedsnr" v="765690" />
	</node>
	<node id="-89762" lat="69.3007666634" lon="19.1558499902">
		<tag k="name" v="Jardalsvatnet" />
		<tag k="natural" v="water" />
		<tag k="ssr:stedsnr" v="321075" />
	</node>
	<node id="-89761" lat="69.1732055562" lon="19.0756305421">
		<tag k="name" v="Langvasselva" />
		<tag k="ssr:stedsnr" v="321074" />
		<tag k="waterway" v="river" />
	</node>
	<node id="-89759" lat="69.279550002" lon="18.8737805532">
		<tag k="name" v="Sandbergvatnan" />
		<tag k="natural" v="water" />
		<tag k="ssr:stedsnr" v="321065" />
		<tag k="water" v="lake" />
	</node>
	<node id="-89755" lat="69.1189777793" lon="19.3329472102">
		<tag k="alt_name" v="Litlevatnet" />
		<tag k="name" v="Litjevatnet" />
		<tag k="natural" v="water" />
		<tag k="ssr:stedsnr" v="321020" />
	</node>
	<node id="-87663" lat="69.2824611155" lon="19.254849982">
		<tag k="name" v="Rennerelva" />
		<tag k="ssr:stedsnr" v="261376" />
		<tag k="waterway" v="stream" />
	</node>
	<node id="-87703" lat="69.2707333363" lon="19.228836114">
		<tag k="alt_name" v="Holmeelva" />
		<tag k="name" v="Holmelva" />
		<tag k="ssr:stedsnr" v="139319" />
		<tag k="waterway" v="stream" />
	</node>
	<node id="-87702" lat="69.1579916662" lon="19.8886944395">
		<tag k="name" v="Postdalselva - Allaváhjohka" />
		<tag k="name:no" v="Postdalselva" />
		<tag k="name:se" v="Allaváhjohka" />
		<tag k="ssr:stedsnr" v="139305" />
		<tag k="waterway" v="river" />
	</node>
	<node id="-89747" lat="69.3867722239" lon="19.3908805512">
		<tag k="name" v="Jávregáddi" />
		<tag k="name:se" v="Jávregáddi" />
		<tag k="natural" v="beach" />
		<tag k="ssr:stedsnr" v="202543" />
	</node>
	<node id="-89746" lat="69.2145305544" lon="19.0345250012">
		<tag k="name" v="Fjellelva" />
		<tag k="ssr:stedsnr" v="201993" />
		<tag k="waterway" v="stream" />
	</node>
	<node id="-87697" lat="69.3233305584" lon="18.8728055602">
		<tag k="alt_name" v="Kobbnesleira" />
		<tag k="name" v="Kobbenesleira" />
		<tag k="natural" v="shoal" />
		<tag k="place" v="locality" />
		<tag k="ssr:stedsnr" v="261994" />
	</node>
	<node id="-89744" lat="69.3964555535" lon="19.103063878">
		<tag k="name" v="Hestneselva" />
		<tag k="ssr:stedsnr" v="201952" />
		<tag k="waterway" v="stream" />
	</node>
	<node id="-90733" lat="69.3803361117" lon="19.2167833258">
		<tag k="name" v="Kjoselva" />
		<tag k="ssr:stedsnr" v="765973" />
		<tag k="waterway" v="stream" />
	</node>
	<node id="-87690" lat="69.356458332" lon="18.7243249904">
		<tag k="name" v="Nikkavatnet" />
		<tag k="natural" v="water" />
		<tag k="ssr:stedsnr" v="261944" />
	</node>
	<node id="-89736" lat="69.272608332" lon="19.0858111064">
		<tag k="name" v="Storelva" />
		<tag k="ssr:stedsnr" v="201074" />
		<tag k="waterway" v="river" />
	</node>
	<node id="-87660" lat="69.3089333329" lon="19.4647777663">
		<tag k="alt_name" v="Skilvatnet" />
		<tag k="name" v="Skjellvatnet" />
		<tag k="natural" v="water" />
		<tag k="ssr:stedsnr" v="261367" />
	</node>
	<node id="-87686" lat="69.3836583346" lon="19.1704333168">
		<tag k="name" v="Mølnelva" />
		<tag k="ssr:stedsnr" v="261920" />
		<tag k="waterway" v="stream" />
	</node>
	<node id="-89729" lat="69.4191944408" lon="18.6755305511">
		<tag k="fixme" v="multiple name tags, choose one and add the other to alt_name" />
		<tag k="name" v="Kjelbotnelva;Reinelva" />
		<tag k="ssr:stedsnr" v="200915" />
		<tag k="waterway" v="river" />
	</node>
	<node id="-89727" lat="69.4300527752" lon="18.8433166521">
		<tag k="name" v="Tindvatnet" />
		<tag k="natural" v="water" />
		<tag k="ssr:stedsnr" v="200899" />
	</node>
	<node id="-89726" lat="69.4486277797" lon="19.0250972176">
		<tag k="name" v="Kvannelva" />
		<tag k="ssr:stedsnr" v="200894" />
		<tag k="waterway" v="stream" />
	</node>
	<node id="-87675" lat="69.1371944456" lon="19.0539027648">
		<tag k="name" v="Takvassenden" />
		<tag k="natural" v="bay" />
		<tag k="ssr:stedsnr" v="261754" />
	</node>
	<node id="-89719" lat="69.333602779" lon="19.1048472141">
		<tag k="name" v="Anderselva" />
		<tag k="ssr:stedsnr" v="200996" />
		<tag k="waterway" v="stream" />
	</node>
	<node id="-87670" lat="69.1014333309" lon="19.657880554">
		<tag k="alt_name" v="Skilbekken" />
		<tag k="name" v="Skjellbekken" />
		<tag k="ssr:stedsnr" v="261500" />
		<tag k="waterway" v="stream" />
	</node>
	<node id="-90729" lat="69.2092388855" lon="19.5434972214">
		<tag k="name" v="Fosselva" />
		<tag k="ssr:stedsnr" v="765183" />
		<tag k="waterway" v="stream" />
	</node>
	<node id="-89715" lat="69.1724166665" lon="19.1120555543">
		<tag k="name" v="Storbuktvatnet" />
		<tag k="natural" v="water" />
		<tag k="ssr:stedsnr" v="200730" />
	</node>
	<node id="-89711" lat="69.298761112" lon="19.4889333209">
		<tag k="name" v="Hestelva" />
		<tag k="ssr:stedsnr" v="200362" />
		<tag k="waterway" v="stream" />
	</node>
	<node id="-87661" lat="69.3028777786" lon="19.4807055561">
		<tag k="name" v="Finnkjerringvatnet" />
		<tag k="natural" v="water" />
		<tag k="ssr:stedsnr" v="261368" />
	</node>
	<node id="-89708" lat="69.0570388895" lon="19.3332305383">
		<tag k="alt_name" v="Lombola, øvre" />
		<tag k="fixme" v="multiple name tags, choose one and add the other to alt_name" />
		<tag k="name" v="Widdinglombola;Øvre Lombola" />
		<tag k="natural" v="water" />
		<tag k="ssr:stedsnr" v="200453" />
	</node>
	<node id="-89706" lat="69.4365499977" lon="19.3648416481">
		<tag k="loc_name:se" v="Smálatjávri" />
		<tag k="name" v="Smalakvatnet" />
		<tag k="name:no" v="Smalakvatnet" />
		<tag k="natural" v="water" />
		<tag k="ssr:stedsnr" v="200228" />
	</node>
	<node id="-89705" lat="69.2966055546" lon="18.7403222149">
		<tag k="alt_name" v="Jordvatnet, l" />
		<tag k="name" v="Litjejordvatnet" />
		<tag k="natural" v="water" />
		<tag k="ssr:stedsnr" v="200096" />
	</node>
	<node id="-89703" lat="69.2821138852" lon="18.9332861055">
		<tag k="name" v="Olderelva" />
		<tag k="ssr:stedsnr" v="200084" />
		<tag k="waterway" v="stream" />
	</node>
	<node id="-89702" lat="69.3310555546" lon="19.2563499811">
		<tag k="name" v="Stortverrelva" />
		<tag k="ssr:stedsnr" v="200154" />
		<tag k="waterway" v="stream" />
	</node>
	<node id="-89698" lat="69.2284333314" lon="19.6053110973">
		<tag k="fixme" v="multiple name tags, choose one and add the other to alt_name" />
		<tag k="name" v="Bomstadelva;Bruelva - Virránjohka" />
		<tag k="name:no" v="Bomstadelva;Bruelva" />
		<tag k="name:se" v="Virránjohka" />
		<tag k="ssr:stedsnr" v="200141" />
		<tag k="waterway" v="river" />
	</node>
	<node id="-87647" lat="69.3784277802" lon="18.7698555536">
		<tag k="name" v="Skardalselva" />
		<tag k="ssr:stedsnr" v="110807" />
		<tag k="waterway" v="river" />
	</node>
	<node id="-87646" lat="69.1066527758" lon="19.3507000011">
		<tag k="name" v="Ol-Lallabekken" />
		<tag k="ssr:stedsnr" v="110804" />
		<tag k="waterway" v="stream" />
	</node>
	<node id="-89693" lat="69.0954777762" lon="19.2254305362">
		<tag k="fixme" v="multiple name tags, choose one and add the other to alt_name" />
		<tag k="name" v="Sennavasselva;Tverrelva" />
		<tag k="ssr:stedsnr" v="200075" />
		<tag k="waterway" v="stream" />
	</node>
	<node id="-89692" lat="69.0808999998" lon="19.6225027545">
		<tag k="name" v="Tverrelva - Mielkejohka" />
		<tag k="name:no" v="Tverrelva" />
		<tag k="name:se" v="Mielkejohka" />
		<tag k="ssr:stedsnr" v="200074" />
		<tag k="waterway" v="river" />
	</node>
	<node id="-89691" lat="69.2708000012" lon="18.8134583224">
		<tag k="alt_name" v="Litjevatnet" />
		<tag k="name" v="Litlvatnet" />
		<tag k="natural" v="water" />
		<tag k="ssr:stedsnr" v="200071" />
	</node>
	<node id="-89688" lat="69.2601194438" lon="19.0488749941">
		<tag k="name" v="Rundvatnet" />
		<tag k="natural" v="water" />
		<tag k="ssr:stedsnr" v="200041" />
	</node>
	<node id="-87637" lat="69.1896694448" lon="19.0101888934">
		<tag k="name" v="Tverrelva" />
		<tag k="ssr:stedsnr" v="110923" />
		<tag k="waterway" v="stream" />
	</node>
	<node id="-89684" lat="69.188513887" lon="19.1941861099">
		<tag k="name" v="Kjosvatnet" />
		<tag k="natural" v="water" />
		<tag k="ssr:stedsnr" v="199788" />
	</node>
	<node id="-89682" lat="69.1666083319" lon="19.6701388661">
		<tag k="name" v="Vuoksariehpijohka" />
		<tag k="name:se" v="Vuoksariehpijohka" />
		<tag k="ssr:stedsnr" v="199085" />
		<tag k="waterway" v="river" />
	</node>
	<node id="-89678" lat="69.4240555573" lon="18.554400002">
		<tag k="name" v="Hemmingelva" />
		<tag k="ssr:stedsnr" v="172289" />
		<tag k="waterway" v="stream" />
	</node>
	<node id="-89676" lat="69.4126888856" lon="18.5865972219">
		<tag k="name" v="Kvigelva" />
		<tag k="ssr:stedsnr" v="172279" />
		<tag k="waterway" v="stream" />
	</node>
	<node id="-89673" lat="69.3784305582" lon="18.8803555541">
		<tag k="name" v="Reinskarelvvatnan" />
		<tag k="natural" v="water" />
		<tag k="ssr:stedsnr" v="171948" />
		<tag k="water" v="lake" />
	</node>
	<node id="-89664" lat="69.3657111109" lon="19.0324305458">
		<tag k="name" v="Stuelva" />
		<tag k="ssr:stedsnr" v="171675" />
		<tag k="waterway" v="stream" />
	</node>
	<node id="-91061" lat="69.2624694431" lon="18.8841416571">
		<tag k="name" v="Stråket" />
		<tag k="natural" v="bay" />
		<tag k="ssr:stedsnr" v="839500" />
	</node>
	<node id="-89659" lat="69.2615555522" lon="18.8760777639">
		<tag k="name" v="Innerelva" />
		<tag k="ssr:stedsnr" v="171610" />
		<tag k="waterway" v="river" />
	</node>
	<node id="-89658" lat="69.3078666706" lon="18.9945333205">
		<tag k="name" v="Litjevatnet" />
		<tag k="natural" v="water" />
		<tag k="ssr:stedsnr" v="171608" />
	</node>
	<node id="-87609" lat="69.2710194485" lon="18.9200916671">
		<tag k="name" v="Langvatnet" />
		<tag k="natural" v="water" />
		<tag k="ssr:stedsnr" v="261093" />
		<tag k="water" v="lake" />
	</node>
	<node id="-89656" lat="69.2521666703" lon="18.8772499963">
		<tag k="name" v="Gammellaneset" />
		<tag k="natural" v="cape" />
		<tag k="ssr:stedsnr" v="171603" />
	</node>
	<node id="-87606" lat="69.1873333353" lon="18.9684194365">
		<tag k="name" v="Tømmerelva" />
		<tag k="ssr:stedsnr" v="261087" />
		<tag k="waterway" v="river" />
	</node>
	<node id="-89652" lat="69.3550972198" lon="18.8444555612">
		<tag k="name" v="Langneset" />
		<tag k="natural" v="cape" />
		<tag k="ssr:stedsnr" v="171597" />
	</node>
	<node id="-87603" lat="69.2526277789" lon="19.4408499783">
		<tag k="name" v="Mellajordelva" />
		<tag k="ssr:stedsnr" v="110305" />
		<tag k="waterway" v="stream" />
	</node>
	<node id="-87602" lat="69.2476194453" lon="19.4465722201">
		<tag k="name" v="Moseselva" />
		<tag k="ssr:stedsnr" v="110304" />
		<tag k="waterway" v="stream" />
	</node>
	<node id="-89648" lat="69.296177775" lon="19.2627583244">
		<tag k="name" v="Brillevatnan" />
		<tag k="natural" v="water" />
		<tag k="ssr:stedsnr" v="171588" />
		<tag k="water" v="lake" />
	</node>
	<node id="-89642" lat="69.1534388903" lon="19.2223861005">
		<tag k="name" v="Langneset" />
		<tag k="natural" v="cape" />
		<tag k="ssr:stedsnr" v="171421" />
	</node>
	<node id="-89638" lat="69.2791527769" lon="18.9887527587">
		<tag k="name" v="Reinmoelva" />
		<tag k="ssr:stedsnr" v="171357" />
		<tag k="waterway" v="stream" />
	</node>
	<node id="-87587" lat="69.1322944406" lon="19.785813876">
		<tag k="name" v="Veslebekken" />
		<tag k="ssr:stedsnr" v="261032" />
		<tag k="waterway" v="stream" />
	</node>
	<node id="-87586" lat="69.1347833359" lon="19.687149997">
		<tag k="name" v="Oksetindelva" />
		<tag k="ssr:stedsnr" v="261018" />
		<tag k="waterway" v="stream" />
	</node>
	<node id="-89632" lat="69.2109916704" lon="19.1905888716">
		<tag k="name" v="Kuvatnet" />
		<tag k="natural" v="water" />
		<tag k="ssr:stedsnr" v="171317" />
	</node>
	<node id="-87582" lat="69.143630555" lon="19.7889777657">
		<tag k="name" v="Storskredelva" />
		<tag k="ssr:stedsnr" v="109235" />
		<tag k="waterway" v="stream" />
	</node>
	<node id="-89622" lat="69.2214499973" lon="19.5611222177">
		<tag k="name" v="Kutorgbekken" />
		<tag k="ssr:stedsnr" v="171239" />
		<tag k="waterway" v="stream" />
	</node>
	<node id="-89620" lat="69.2149166699" lon="19.5635416633">
		<tag k="name" v="Roffabekken" />
		<tag k="old_name" v="Koffabekken" />
		<tag k="ssr:stedsnr" v="171233" />
		<tag k="waterway" v="stream" />
	</node>
	<node id="-89619" lat="69.2223666645" lon="19.5514611082">
		<tag k="name" v="Nils-Olsaelva" />
		<tag k="ssr:stedsnr" v="171224" />
		<tag k="waterway" v="stream" />
	</node>
	<node id="-89613" lat="69.1198111074" lon="19.2972972216">
		<tag k="name" v="Langtjønna" />
		<tag k="natural" v="water" />
		<tag k="ssr:stedsnr" v="170945" />
	</node>
	<node id="-89611" lat="69.1237472208" lon="19.2780777784">
		<tag k="name" v="Svartvasselva" />
		<tag k="ssr:stedsnr" v="170807" />
		<tag k="waterway" v="stream" />
	</node>
	<node id="-89609" lat="69.4439194438" lon="19.0340305413">
		<tag k="name" v="Fingerbølelva" />
		<tag k="ssr:stedsnr" v="170786" />
		<tag k="waterway" v="stream" />
	</node>
	<node id="-87560" lat="69.3636638883" lon="18.8775583327">
		<tag k="name" v="Fjellelva" />
		<tag k="ssr:stedsnr" v="50951" />
		<tag k="waterway" v="stream" />
	</node>
	<node id="-87559" lat="69.3827277754" lon="19.2868694271">
		<tag k="name" v="Skaidielva" />
		<tag k="ssr:stedsnr" v="50908" />
		<tag k="waterway" v="stream" />
	</node>
	<node id="-89605" lat="69.4089083368" lon="19.0746444489">
		<tag k="name" v="Helleelva" />
		<tag k="ssr:stedsnr" v="170737" />
		<tag k="waterway" v="stream" />
	</node>
	<node id="-87556" lat="69.123630559" lon="19.0815805553">
		<tag k="name" v="Vassbekken" />
		<tag k="ssr:stedsnr" v="50708" />
		<tag k="waterway" v="stream" />
	</node>
	<node id="-87555" lat="69.2666166634" lon="18.8313166658">
		<tag k="name" v="Litjeelva" />
		<tag k="ssr:stedsnr" v="50556" />
		<tag k="waterway" v="stream" />
	</node>
	<node id="-87553" lat="69.2611083343" lon="18.8682222151">
		<tag k="name" v="Merraneset" />
		<tag k="natural" v="cape" />
		<tag k="ssr:stedsnr" v="50551" />
	</node>
	<node id="-89598" lat="69.3940416635" lon="19.2715805434">
		<tag k="name" v="Senneset" />
		<tag k="natural" v="cape" />
		<tag k="ssr:stedsnr" v="170584" />
	</node>
	<node id="-89597" lat="69.4004833307" lon="19.2698666637">
		<tag k="name" v="Sirineset" />
		<tag k="natural" v="cape" />
		<tag k="ssr:stedsnr" v="170583" />
	</node>
	<node id="-87636" lat="69.267311114" lon="19.0740472088">
		<tag k="name" v="Storholmen" />
		<tag k="place" v="islet" />
		<tag k="ssr:stedsnr" v="110913" />
	</node>
	<node id="-89585" lat="69.284700001" lon="19.2505777628">
		<tag k="name" v="Smallielva" />
		<tag k="ssr:stedsnr" v="170234" />
		<tag k="waterway" v="stream" />
	</node>
	<node id="-89582" lat="69.3375944476" lon="19.1707750058">
		<tag k="name" v="Leirelva" />
		<tag k="ssr:stedsnr" v="170209" />
		<tag k="waterway" v="stream" />
	</node>
	<node id="-89581" lat="69.338288889" lon="19.5787999886">
		<tag k="name" v="Gammelheimneset" />
		<tag k="natural" v="cape" />
		<tag k="ssr:stedsnr" v="170175" />
	</node>
	<node id="-87530" lat="69.2871083368" lon="18.8391277644">
		<tag k="name" v="Nyvatnet" />
		<tag k="natural" v="water" />
		<tag k="ssr:stedsnr" v="232462" />
	</node>
	<node id="-89577" lat="69.0552722204" lon="19.4763972044">
		<tag k="name" v="Storholmen" />
		<tag k="place" v="islet" />
		<tag k="ssr:stedsnr" v="170106" />
	</node>
	<node id="-89576" lat="69.2373555564" lon="19.1996694419">
		<tag k="name" v="Tverrelva" />
		<tag k="ssr:stedsnr" v="170001" />
		<tag k="waterway" v="stream" />
	</node>
	<node id="-87524" lat="69.2618444451" lon="18.9048611099">
		<tag k="name" v="Brattbakkbukta" />
		<tag k="natural" v="bay" />
		<tag k="ssr:stedsnr" v="232452" />
	</node>
	<node id="-91046" lat="69.2748027819" lon="19.0059249837">
		<tag k="name" v="Reinskarelva" />
		<tag k="ssr:stedsnr" v="839381" />
		<tag k="waterway" v="stream" />
	</node>
	<node id="-89569" lat="69.0424416701" lon="19.3297388909">
		<tag k="name" v="Fjerdekjosen" />
		<tag k="natural" v="bay" />
		<tag k="ssr:stedsnr" v="158933" />
	</node>
	<node id="-87517" lat="69.2226027804" lon="19.5735000018">
		<tag k="name" v="Litjevollelva" />
		<tag k="ssr:stedsnr" v="232250" />
		<tag k="waterway" v="stream" />
	</node>
	<node id="-87516" lat="69.3194944494" lon="19.0906749842">
		<tag k="name" v="Stikkvatnet" />
		<tag k="natural" v="water" />
		<tag k="ssr:stedsnr" v="232248" />
	</node>
	<node id="-89563" lat="69.2305472245" lon="19.37798055">
		<tag k="name" v="Loddbuktelva" />
		<tag k="ssr:stedsnr" v="158194" />
		<tag k="waterway" v="stream" />
	</node>
	<node id="-87514" lat="69.3688333293" lon="18.8227527734">
		<tag k="name" v="Øverelva" />
		<tag k="ssr:stedsnr" v="232042" />
		<tag k="waterway" v="stream" />
	</node>
	<node id="-87513" lat="69.3982472262" lon="18.7036694422">
		<tag k="name" v="Sløkjemarkelva" />
		<tag k="ssr:stedsnr" v="232033" />
		<tag k="waterway" v="stream" />
	</node>
	<node id="-87510" lat="69.2421333361" lon="18.9896777764">
		<tag k="name" v="Østerlibukta" />
		<tag k="natural" v="bay" />
		<tag k="ssr:stedsnr" v="231995" />
	</node>
	<node id="-90361" lat="69.4474000015" lon="18.7528916577">
		<tag k="alt_name" v="Slettskardelva" />
		<tag k="name" v="Sletteskarelva" />
		<tag k="ssr:stedsnr" v="564880" />
		<tag k="waterway" v="stream" />
	</node>
	<node id="-87507" lat="69.4289333299" lon="19.0729805486">
		<tag k="name" v="Mølnelva" />
		<tag k="ssr:stedsnr" v="231794" />
		<tag k="waterway" v="stream" />
	</node>
	<node id="-89554" lat="69.2822694468" lon="18.8159083273">
		<tag k="name" v="Svartvatnet" />
		<tag k="natural" v="water" />
		<tag k="ssr:stedsnr" v="141187" />
	</node>
	<node id="-87502" lat="69.2005888857" lon="19.0869944368">
		<tag k="name" v="Holmebukta" />
		<tag k="natural" v="bay" />
		<tag k="ssr:stedsnr" v="231924" />
	</node>
	<node id="-89545" lat="69.3104500012" lon="19.2923361023">
		<tag k="name" v="Skavåselva" />
		<tag k="ssr:stedsnr" v="140113" />
		<tag k="waterway" v="stream" />
	</node>
	<node id="-87496" lat="69.4788694443" lon="18.9943638941">
		<tag k="name" v="Merraelva" />
		<tag k="ssr:stedsnr" v="231772" />
		<tag k="waterway" v="stream" />
	</node>
	<node id="-89540" lat="69.3598249953" lon="18.9118361117">
		<tag k="name" v="Storbjelma" />
		<tag k="ssr:stedsnr" v="139989" />
		<tag k="waterway" v="stream" />
	</node>
	<node id="-90699" lat="69.2431888868" lon="18.875094432">
		<tag k="name" v="Storelvneset" />
		<tag k="natural" v="cape" />
		<tag k="ssr:stedsnr" v="746896" />
	</node>
	<node id="-89536" lat="69.2366611152" lon="19.0973222072">
		<tag k="name" v="Småvatnan" />
		<tag k="natural" v="water" />
		<tag k="ssr:stedsnr" v="139944" />
		<tag k="water" v="lake" />
	</node>
	<node id="-87486" lat="69.1109611124" lon="19.1459694402">
		<tag k="name" v="Lauvnesgrunnen" />
		<tag k="natural" v="shoal" />
		<tag k="place" v="locality" />
		<tag k="ssr:stedsnr" v="231575" />
	</node>
	<node id="-87485" lat="69.0935416667" lon="19.2166249811">
		<tag k="name" v="Litjerundvatnet" />
		<tag k="natural" v="water" />
		<tag k="ssr:stedsnr" v="231501" />
	</node>
	<node id="-87479" lat="69.0898333294" lon="19.1636305542">
		<tag k="name" v="Olavsvatnet" />
		<tag k="natural" v="water" />
		<tag k="ssr:stedsnr" v="231343" />
	</node>
	<node id="-87478" lat="69.3420888927" lon="19.1990555382">
		<tag k="name" v="Klubbelva" />
		<tag k="ssr:stedsnr" v="231210" />
		<tag k="waterway" v="stream" />
	</node>
	<node id="-89525" lat="69.1176249649" lon="19.0832102928">
		<tag k="name" v="Kongsbergholman" />
		<tag k="place" v="islet" />
		<tag k="ssr:stedsnr" v="139800" />
	</node>
	<node id="-89524" lat="69.1127916649" lon="19.0658083194">
		<tag k="loc_name:se" v="Dávkajávri" />
		<tag k="name" v="Takvatnet" />
		<tag k="name:no" v="Takvatnet" />
		<tag k="natural" v="water" />
		<tag k="ssr:stedsnr" v="139799" />
		<tag k="water" v="lake" />
	</node>
	<node id="-87474" lat="69.2073166641" lon="19.1170833124">
		<tag k="name" v="Måsskjæret" />
		<tag k="place" v="islet" />
		<tag k="ssr:stedsnr" v="231373" />
	</node>
	<node id="-89521" lat="69.4514027753" lon="18.5905805483">
		<tag k="name" v="Stortindvatnet" />
		<tag k="natural" v="water" />
		<tag k="ssr:stedsnr" v="139652" />
	</node>
	<node id="-89520" lat="69.1227555554" lon="19.7005111013">
		<tag k="name" v="Tverrelva - Dápmotvádjájohka" />
		<tag k="name:no" v="Tverrelva" />
		<tag k="name:se" v="Dápmotvádjájohka" />
		<tag k="ssr:stedsnr" v="139517" />
		<tag k="waterway" v="stream" />
	</node>
	<node id="-87471" lat="69.0434166646" lon="19.4438888824">
		<tag k="name" v="Erikbrufossen" />
		<tag k="natural" v="waterfall" />
		<tag k="ssr:stedsnr" v="231117" />
	</node>
	<node id="-89518" lat="69.1198749976" lon="19.5889805432">
		<tag k="name" v="Finnskarelva - Čoarddajohka" />
		<tag k="name:no" v="Finnskarelva" />
		<tag k="name:se" v="Čoarddajohka" />
		<tag k="ssr:stedsnr" v="139513" />
		<tag k="waterway" v="stream" />
	</node>
	<node id="-89517" lat="69.1074611088" lon="19.3668527583">
		<tag k="name" v="Tverrelva - Gievdnevákkijohka" />
		<tag k="name:no" v="Tverrelva" />
		<tag k="name:se" v="Gievdnevákkijohka" />
		<tag k="ssr:stedsnr" v="139512" />
		<tag k="waterway" v="stream" />
	</node>
	<node id="-87466" lat="69.2099500025" lon="19.778574996">
		<tag k="name" v="Kilaelva" />
		<tag k="ssr:stedsnr" v="230001" />
		<tag k="waterway" v="stream" />
	</node>
	<node id="-89510" lat="69.2891749999" lon="19.515936094">
		<tag k="name" v="Bjørnelva" />
		<tag k="ssr:stedsnr" v="139371" />
		<tag k="waterway" v="stream" />
	</node>
	<node id="-89509" lat="69.2948777817" lon="19.2933111056">
		<tag k="name" v="Vollelva" />
		<tag k="ssr:stedsnr" v="139366" />
		<tag k="waterway" v="stream" />
	</node>
	<node id="-87458" lat="69.1304388909" lon="19.0719361063">
		<tag k="alt_name" v="Reinvegelva" />
		<tag k="name" v="Reinveielva" />
		<tag k="ssr:stedsnr" v="18807" />
		<tag k="waterway" v="stream" />
	</node>
	<node id="-87453" lat="69.2968361151" lon="19.3008638786">
		<tag k="alt_name" v="Gardselva" />
		<tag k="name" v="Gårdselva" />
		<tag k="ssr:stedsnr" v="18310" />
		<tag k="waterway" v="stream" />
	</node>
	<node id="-87450" lat="69.3989972237" lon="19.2700361122">
		<tag k="loc_name:se" v="Lávaggeatnu;Lávákeatnu" />
		<tag k="name" v="Lavangselva" />
		<tag k="name:no" v="Lavangselva" />
		<tag k="ssr:stedsnr" v="18201" />
		<tag k="waterway" v="river" />
	</node>
	<node id="-89495" lat="69.2998777759" lon="18.7864388772">
		<tag k="name" v="Heivatnet" />
		<tag k="natural" v="water" />
		<tag k="ssr:stedsnr" v="139107" />
	</node>
	<node id="-89493" lat="69.304088892" lon="18.9914861151">
		<tag k="name" v="Storbuktelva" />
		<tag k="ssr:stedsnr" v="139104" />
		<tag k="waterway" v="river" />
	</node>
	<node id="-89492" lat="69.2877719843" lon="18.6988010353">
		<tag k="name" v="Jordelva" />
		<tag k="ssr:stedsnr" v="139100" />
		<tag k="waterway" v="stream" />
	</node>
	<node id="-89488" lat="69.2215277792" lon="19.1539111099">
		<tag k="name" v="Sagelva" />
		<tag k="ssr:stedsnr" v="139095" />
		<tag k="waterway" v="river" />
	</node>
	<node id="-89487" lat="69.2134805582" lon="19.7891027726">
		<tag k="alt_name:no" v="Ballsfjordelva" />
		<tag k="name" v="Balsfjordelva - Báhccavuonjohka - Paatsivuononjoki" />
		<tag k="name:fkv" v="Paatsivuononjoki" />
		<tag k="name:no" v="Balsfjordelva" />
		<tag k="name:se" v="Báhccavuonjohka" />
		<tag k="ssr:stedsnr" v="139075" />
		<tag k="waterway" v="river" />
	</node>
	<node id="-89482" lat="69.266780552" lon="19.0568555449">
		<tag k="alt_name" v="Råtvatnet" />
		<tag k="name" v="Råttvatnet" />
		<tag k="natural" v="water" />
		<tag k="ssr:stedsnr" v="139041" />
	</node>
	<node id="-90728" lat="69.1897055581" lon="19.6306222252">
		<tag k="name" v="Nerelva" />
		<tag k="ssr:stedsnr" v="765180" />
		<tag k="waterway" v="stream" />
	</node>
	<node id="-87815" lat="69.3054250036" lon="19.024922228">
		<tag k="name" v="Åsvatnet" />
		<tag k="natural" v="water" />
		<tag k="ssr:stedsnr" v="293433" />
	</node>
	<node id="-91030" lat="69.3601527763" lon="18.7575499848">
		<tag k="name" v="Annavatnet" />
		<tag k="natural" v="water" />
		<tag k="ssr:stedsnr" v="839039" />
	</node>
	<node id="-89474" lat="69.16608889" lon="19.5860638714">
		<tag k="name" v="Havellvatnet" />
		<tag k="natural" v="water" />
		<tag k="ssr:stedsnr" v="138074" />
	</node>
	<node id="-89472" lat="69.1608499998" lon="19.223263876">
		<tag k="alt_name" v="Dalsvatnet" />
		<tag k="name" v="Dalvatnet" />
		<tag k="natural" v="water" />
		<tag k="ssr:stedsnr" v="138067" />
	</node>
	<node id="-89471" lat="69.1840694435" lon="19.7307472017">
		<tag k="name" v="Storbekken" />
		<tag k="ssr:stedsnr" v="138060" />
		<tag k="waterway" v="stream" />
	</node>
	<node id="-89468" lat="69.1924111087" lon="19.7154833176">
		<tag k="alt_name:no" v="Ballsfjordeidet" />
		<tag k="name" v="Balsfjordeidet - Báhccavuonmuotki" />
		<tag k="name:no" v="Balsfjordeidet" />
		<tag k="name:se" v="Báhccavuonmuotki" />
		<tag k="natural" v="strait" />
		<tag k="ssr:stedsnr" v="138050" />
	</node>
	<node id="-90687" lat="69.3073055595" lon="19.4623055483">
		<tag k="name" v="Langvatnet" />
		<tag k="natural" v="water" />
		<tag k="ssr:stedsnr" v="746349" />
	</node>
	<node id="-89463" lat="69.1155916666" lon="19.0919916526">
		<tag k="name" v="Lemmetholmen" />
		<tag k="place" v="islet" />
		<tag k="ssr:stedsnr" v="111825" />
	</node>
	<node id="-89462" lat="69.1182361115" lon="19.0845944401">
		<tag k="name" v="Rostasundet" />
		<tag k="natural" v="strait" />
		<tag k="ssr:stedsnr" v="111824" />
	</node>
	<node id="-91027" lat="69.3853611128" lon="18.6846444518">
		<tag k="name" v="Trollvatnet" />
		<tag k="natural" v="water" />
		<tag k="ssr:stedsnr" v="839023" />
	</node>
	<node id="-89456" lat="69.2656583307" lon="18.7730583241">
		<tag k="name" v="Gammelbruneset" />
		<tag k="natural" v="cape" />
		<tag k="ssr:stedsnr" v="111667" />
	</node>
	<node id="-89443" lat="69.2891666714" lon="18.9334249895">
		<tag k="name" v="Litjeelva" />
		<tag k="ssr:stedsnr" v="111382" />
		<tag k="waterway" v="stream" />
	</node>
	<node id="-87611" lat="69.2976611104" lon="18.8133166574">
		<tag k="alt_name" v="Skardvatnet" />
		<tag k="name" v="Skarvatnet" />
		<tag k="natural" v="water" />
		<tag k="ssr:stedsnr" v="261102" />
	</node>
	<node id="-89438" lat="69.3847722231" lon="18.9695861075">
		<tag k="name" v="Jonelva" />
		<tag k="ssr:stedsnr" v="111262" />
		<tag k="waterway" v="stream" />
	</node>
	<node id="-89435" lat="69.3759416717" lon="18.7024805416">
		<tag k="name" v="Kuvatnet" />
		<tag k="natural" v="water" />
		<tag k="ssr:stedsnr" v="111052" />
	</node>
	<node id="-89434" lat="69.3699194455" lon="18.7943472234">
		<tag k="name" v="Rundvasselva" />
		<tag k="ssr:stedsnr" v="111047" />
		<tag k="waterway" v="stream" />
	</node>
	<node id="-89431" lat="69.3884527786" lon="18.681027777">
		<tag k="name" v="Trollvasselva" />
		<tag k="ssr:stedsnr" v="111022" />
		<tag k="waterway" v="stream" />
	</node>
	<node id="-87950" lat="69.3068888889" lon="19.0486610915">
		<tag k="name" v="Djupdalselva" />
		<tag k="ssr:stedsnr" v="232359" />
		<tag k="waterway" v="river" />
	</node>
	<node id="-89426" lat="69.1776027737" lon="19.2981555502">
		<tag k="name" v="Litjestorvatnet" />
		<tag k="natural" v="water" />
		<tag k="ssr:stedsnr" v="110787" />
	</node>
	<node id="-89415" lat="69.379986111" lon="19.1107749885">
		<tag k="name" v="Hellelvene" />
		<tag k="ssr:stedsnr" v="110731" />
		<tag k="waterway" v="stream" />
	</node>
	<node id="-89408" lat="69.3886166651" lon="19.2717110976">
		<tag k="name" v="Langneset" />
		<tag k="natural" v="cape" />
		<tag k="ssr:stedsnr" v="110578" />
	</node>
	<node id="-87604" lat="69.0894555547" lon="19.1931472082">
		<tag k="name" v="Holmensundet" />
		<tag k="natural" v="strait" />
		<tag k="ssr:stedsnr" v="110307" />
	</node>
	<node id="-91016" lat="69.1355777794" lon="19.0359055468">
		<tag k="name" v="Gambuktholmen" />
		<tag k="place" v="islet" />
		<tag k="ssr:stedsnr" v="838781" />
	</node>
	<node id="-90333" lat="69.2677658179" lon="19.4638876046">
		<tag k="name" v="Seljelva" />
		<tag k="ssr:stedsnr" v="564329" />
		<tag k="waterway" v="stream" />
	</node>
	<node id="-89384" lat="69.096325003" lon="19.1548222121">
		<tag k="name" v="Svartbukta" />
		<tag k="natural" v="bay" />
		<tag k="ssr:stedsnr" v="110273" />
	</node>
	<node id="-89381" lat="69.2284083373" lon="19.5171916516">
		<tag k="name" v="Heggebergelva" />
		<tag k="ssr:stedsnr" v="110234" />
		<tag k="waterway" v="stream" />
	</node>
	<node id="-89377" lat="69.3743833306" lon="19.3704305519">
		<tag k="name" v="Lanes" />
		<tag k="natural" v="cape" />
		<tag k="ssr:stedsnr" v="109406" />
	</node>
	<node id="-89376" lat="69.3073694417" lon="19.4333860937">
		<tag k="name" v="Mortenelva" />
		<tag k="ssr:stedsnr" v="109278" />
		<tag k="waterway" v="stream" />
	</node>
	<node id="-89368" lat="69.3853861065" lon="19.2079138888">
		<tag k="name" v="Skjellelva" />
		<tag k="ssr:stedsnr" v="97975" />
		<tag k="waterway" v="stream" />
	</node>
	<node id="-89366" lat="69.447813893" lon="18.9993055415">
		<tag k="name" v="Finnbekken" />
		<tag k="ssr:stedsnr" v="97698" />
		<tag k="waterway" v="stream" />
	</node>
	<node id="-89364" lat="69.3545805601" lon="19.3747222092">
		<tag k="name" v="Sirielva" />
		<tag k="ssr:stedsnr" v="97588" />
		<tag k="waterway" v="stream" />
	</node>
	<node id="-90422" lat="69.2801305595" lon="19.1105333203">
		<tag k="name" v="Lavatnet" />
		<tag k="natural" v="water" />
		<tag k="ssr:stedsnr" v="595091" />
	</node>
	<node id="-89359" lat="69.3885472233" lon="18.6417694387">
		<tag k="name" v="Sjukabekken" />
		<tag k="ssr:stedsnr" v="87808" />
		<tag k="waterway" v="stream" />
	</node>
	<node id="-90669" lat="69.1507305525" lon="19.4441333137">
		<tag k="name" v="Johkalahkit" />
		<tag k="name:se" v="Johkalahkit" />
		<tag k="ssr:stedsnr" v="746003" />
		<tag k="waterway" v="stream" />
	</node>
	<node id="-89351" lat="69.3387111145" lon="18.9070416659">
		<tag k="name" v="Leirbogelva" />
		<tag k="ssr:stedsnr" v="81201" />
		<tag k="waterway" v="stream" />
	</node>
	<node id="-89343" lat="69.2346722257" lon="19.1007305462">
		<tag k="name" v="Holmevatnet" />
		<tag k="natural" v="water" />
		<tag k="ssr:stedsnr" v="79964" />
	</node>
	<node id="-87594" lat="69.2131194487" lon="19.2972499873">
		<tag k="name" v="Tømmerelva" />
		<tag k="ssr:stedsnr" v="261060" />
		<tag k="waterway" v="river" />
	</node>
	<node id="-89338" lat="69.2229694421" lon="19.0532833125">
		<tag k="alt_name" v="Litlfjellvatnet" />
		<tag k="name" v="Litje-Fjellvatnet" />
		<tag k="natural" v="water" />
		<tag k="ssr:stedsnr" v="79932" />
	</node>
	<node id="-89337" lat="69.3766916648" lon="18.7212138775">
		<tag k="name" v="Skutvikvatnet" />
		<tag k="natural" v="water" />
		<tag k="ssr:stedsnr" v="79928" />
		<tag k="water" v="lake" />
	</node>
	<node id="-89336" lat="69.2384083326" lon="18.8923777643">
		<tag k="name" v="Rabbeneset" />
		<tag k="natural" v="cape" />
		<tag k="ssr:stedsnr" v="79913" />
	</node>
	<node id="-90665" lat="69.2914499999" lon="19.5288333258">
		<tag k="name" v="Storelva" />
		<tag k="ssr:stedsnr" v="746084" />
		<tag k="waterway" v="river" />
	</node>
	<node id="-89329" lat="69.0832111073" lon="19.1999388877">
		<tag k="name" v="Nils-Nilsavatnet" />
		<tag k="natural" v="water" />
		<tag k="ssr:stedsnr" v="79835" />
	</node>
	<node id="-89327" lat="69.1175527814" lon="19.1416638725">
		<tag k="name" v="Vargaselva" />
		<tag k="ssr:stedsnr" v="79809" />
		<tag k="waterway" v="stream" />
	</node>
	<node id="-89326" lat="69.1125083325" lon="19.1505388755">
		<tag k="name" v="Lauvneset" />
		<tag k="natural" v="cape" />
		<tag k="ssr:stedsnr" v="79793" />
	</node>
	<node id="-89323" lat="69.1671777775" lon="19.0140305449">
		<tag k="name" v="Rundvatnet" />
		<tag k="natural" v="water" />
		<tag k="ssr:stedsnr" v="79743" />
		<tag k="water" v="lake" />
	</node>
	<node id="-89322" lat="69.1687638866" lon="19.0337749813">
		<tag k="name" v="Råttvatnet" />
		<tag k="natural" v="water" />
		<tag k="ssr:stedsnr" v="79741" />
	</node>
	<node id="-89321" lat="69.1647666691" lon="19.13479166">
		<tag k="name" v="Synnelvvatnet" />
		<tag k="natural" v="water" />
		<tag k="ssr:stedsnr" v="79731" />
	</node>
	<node id="-89315" lat="69.1155000049" lon="19.5667499826">
		<tag k="name" v="Botnskarelva" />
		<tag k="ssr:stedsnr" v="79476" />
		<tag k="waterway" v="stream" />
	</node>
	<node id="-87931" lat="69.2712027787" lon="19.2039527681">
		<tag k="name" v="Råttvatnet" />
		<tag k="natural" v="water" />
		<tag k="ssr:stedsnr" v="231473" />
	</node>
	<node id="-87930" lat="69.1665722197" lon="19.1826277695">
		<tag k="name" v="Jordbekken" />
		<tag k="ssr:stedsnr" v="231419" />
		<tag k="waterway" v="stream" />
	</node>
	<node id="-89305" lat="69.0630259465" lon="19.3410933664">
		<tag k="fixme" v="multiple name tags, choose one and add the other to alt_name" />
		<tag k="name" v="Fisktjørna;Sætervatnet" />
		<tag k="natural" v="water" />
		<tag k="ssr:stedsnr" v="79431" />
	</node>
	<node id="-89299" lat="69.3700555525" lon="19.3786944292">
		<tag k="name" v="Froskevatnet" />
		<tag k="natural" v="water" />
		<tag k="ssr:stedsnr" v="79195" />
	</node>
	<node id="-89295" lat="69.308286112" lon="19.3132361155">
		<tag k="name" v="Perelva" />
		<tag k="ssr:stedsnr" v="79143" />
		<tag k="waterway" v="stream" />
	</node>
	<node id="-89294" lat="69.3205250041" lon="19.4532166678">
		<tag k="fixme" v="multiple name tags, choose one and add the other to alt_name" />
		<tag k="name" v="Allmenningselva;Skilbekken" />
		<tag k="ssr:stedsnr" v="79140" />
		<tag k="waterway" v="stream" />
	</node>
	<node id="-89293" lat="69.2098111137" lon="19.4860888911">
		<tag k="alt_name:no" v="Russeneselva" />
		<tag k="name" v="Russedalselva - Gárjelváhjohka" />
		<tag k="name:no" v="Russedalselva" />
		<tag k="name:se" v="Gárjelváhjohka" />
		<tag k="ssr:stedsnr" v="79128" />
		<tag k="waterway" v="river" />
	</node>
	<node id="-89291" lat="69.2150916637" lon="19.4383305473">
		<tag k="name" v="Mølnelva" />
		<tag k="ssr:stedsnr" v="79113" />
		<tag k="waterway" v="stream" />
	</node>
	<node id="-89287" lat="69.1901888934" lon="19.5110694266">
		<tag k="name" v="Skardelva" />
		<tag k="ssr:stedsnr" v="79103" />
		<tag k="waterway" v="stream" />
	</node>
	<node id="-89286" lat="69.4585000041" lon="18.6319583301">
		<tag k="name" v="Lakselva" />
		<tag k="ssr:stedsnr" v="79099" />
		<tag k="waterway" v="river" />
	</node>
	<node id="-89283" lat="69.0606861154" lon="19.3060305411">
		<tag k="name" v="Takelva - Davkkajohka" />
		<tag k="name:no" v="Takelva" />
		<tag k="name:se" v="Davkkajohka" />
		<tag k="ssr:stedsnr" v="79075" />
		<tag k="waterway" v="river" />
	</node>
	<node id="-89282" lat="69.1214027822" lon="19.7567583205">
		<tag k="name" v="Skredbekken" />
		<tag k="ssr:stedsnr" v="79073" />
		<tag k="waterway" v="stream" />
	</node>
	<node id="-90315" lat="69.235700003" lon="19.61867777">
		<tag k="name" v="Storvatnet - Virránjávri" />
		<tag k="name:no" v="Storvatnet" />
		<tag k="name:se" v="Virránjávri" />
		<tag k="natural" v="water" />
		<tag k="ssr:stedsnr" v="564121" />
	</node>
	<node id="-89278" lat="69.2612055599" lon="18.8429611089">
		<tag k="alt_name" v="Brynjulvvatnet" />
		<tag k="name" v="Brynjulvsvatnet" />
		<tag k="natural" v="water" />
		<tag k="ssr:stedsnr" v="79059" />
		<tag k="water" v="lake" />
	</node>
	<node id="-90997" lat="69.0914805535" lon="19.2350027639">
		<tag k="name" v="Badebukta" />
		<tag k="natural" v="bay" />
		<tag k="ssr:stedsnr" v="838487" />
	</node>
	<node id="-89275" lat="69.2529111154" lon="18.8430305475">
		<tag k="name" v="Damvatnan" />
		<tag k="natural" v="water" />
		<tag k="ssr:stedsnr" v="79037" />
		<tag k="water" v="lake" />
	</node>
	<node id="-89271" lat="69.1719777799" lon="19.580175003">
		<tag k="name" v="Isfjellelva" />
		<tag k="ssr:stedsnr" v="78052" />
		<tag k="waterway" v="stream" />
	</node>
	<node id="-89270" lat="69.185147221" lon="19.6168610973">
		<tag k="alt_name:no" v="Kjusakelva" />
		<tag k="name" v="Kjusakdalelva - Givssatjohka" />
		<tag k="name:no" v="Kjusakdalelva" />
		<tag k="name:se" v="Givssatjohka" />
		<tag k="ssr:stedsnr" v="78041" />
		<tag k="waterway" v="river" />
	</node>
	<node id="-89268" lat="69.3554472255" lon="18.7846638774">
		<tag k="name" v="Småvatnan" />
		<tag k="natural" v="water" />
		<tag k="ssr:stedsnr" v="50976" />
		<tag k="water" v="lake" />
	</node>
	<node id="-91311" lat="69.0506944456" lon="19.3505305445">
		<tag k="alt_name" v="Lombola, nedre" />
		<tag k="fixme" v="multiple name tags, choose one and add the other to alt_name" />
		<tag k="name" v="Fjellfrøslombola;Nedre Lombola" />
		<tag k="natural" v="water" />
		<tag k="ssr:stedsnr" v="929425" />
	</node>
	<node id="-89260" lat="69.255833336" lon="18.8386472085">
		<tag k="name" v="Brynjulvvasstjønna" />
		<tag k="natural" v="water" />
		<tag k="ssr:stedsnr" v="50548" />
	</node>
	<node id="-89259" lat="69.4529583294" lon="18.8954055497">
		<tag k="name" v="Holmelva" />
		<tag k="ssr:stedsnr" v="50544" />
		<tag k="waterway" v="stream" />
	</node>
	<node id="-90993" lat="69.3841194407" lon="19.385147213">
		<tag k="name" v="Laberget" />
		<tag k="natural" v="cape" />
		<tag k="ssr:stedsnr" v="838417" />
	</node>
	<node id="-89252" lat="69.3767000015" lon="18.939397206">
		<tag k="name" v="Trollelva" />
		<tag k="ssr:stedsnr" v="50661" />
		<tag k="waterway" v="stream" />
	</node>
	<node id="-89245" lat="69.3847499959" lon="18.9940055479">
		<tag k="name" v="Lilleelva" />
		<tag k="ssr:stedsnr" v="50269" />
		<tag k="waterway" v="stream" />
	</node>
	<node id="-89242" lat="69.3732250007" lon="18.7108638731">
		<tag k="name" v="Hundvatnet" />
		<tag k="natural" v="water" />
		<tag k="ssr:stedsnr" v="50047" />
	</node>
	<node id="-89240" lat="69.3641416689" lon="18.8155694421">
		<tag k="name" v="Nerelva" />
		<tag k="ssr:stedsnr" v="50038" />
		<tag k="waterway" v="stream" />
	</node>
	<node id="-89239" lat="69.3690361069" lon="18.6919694407">
		<tag k="name" v="Gammelgårdsvatnet" />
		<tag k="natural" v="water" />
		<tag k="ssr:stedsnr" v="50035" />
	</node>
	<node id="-89238" lat="69.3689027758" lon="18.7417305551">
		<tag k="name" v="Skutvikfossen" />
		<tag k="natural" v="waterfall" />
		<tag k="ssr:stedsnr" v="50031" />
	</node>
	<node id="-91285" lat="69.2846611082" lon="18.7373694259">
		<tag k="alt_name" v="Nedre Tverrelva" />
		<tag k="name" v="Nertverrelva" />
		<tag k="ssr:stedsnr" v="960730" />
		<tag k="waterway" v="stream" />
	</node>
	<node id="-89235" lat="69.1084833312" lon="19.7071833302">
		<tag k="name" v="Vargeholbekken" />
		<tag k="ssr:stedsnr" v="49986" />
		<tag k="waterway" v="stream" />
	</node>
	<node id="-89234" lat="69.0793111096" lon="19.5722638723">
		<tag k="name" v="Randulfneset" />
		<tag k="natural" v="cape" />
		<tag k="ssr:stedsnr" v="49934" />
	</node>
	<node id="-91281" lat="69.3151944447" lon="18.7318249864">
		<tag k="name" v="Bukkeelva" />
		<tag k="ssr:stedsnr" v="960633" />
		<tag k="waterway" v="stream" />
	</node>
	<node id="-89232" lat="69.2105111094" lon="19.0838749944">
		<tag k="name" v="Sløkjeelva" />
		<tag k="ssr:stedsnr" v="49929" />
		<tag k="waterway" v="stream" />
	</node>
	<node id="-91277" lat="69.2626750012" lon="18.8665249965">
		<tag k="name" v="Sæterdalbekken" />
		<tag k="ssr:stedsnr" v="960588" />
		<tag k="waterway" v="stream" />
	</node>
	<node id="-89227" lat="69.1213472216" lon="19.3386777795">
		<tag k="name" v="Rotbekken" />
		<tag k="ssr:stedsnr" v="49796" />
		<tag k="waterway" v="stream" />
	</node>
	<node id="-89226" lat="69.126591667" lon="19.0591805375">
		<tag k="name" v="Råttbekken" />
		<tag k="ssr:stedsnr" v="49784" />
		<tag k="waterway" v="stream" />
	</node>
	<node id="-89224" lat="69.1256638901" lon="19.0828360966">
		<tag k="name" v="Sandvikbekken" />
		<tag k="ssr:stedsnr" v="49774" />
		<tag k="waterway" v="stream" />
	</node>
	<node id="-91271" lat="69.2804833299" lon="18.8888694347">
		<tag k="name" v="Tjønna" />
		<tag k="natural" v="water" />
		<tag k="ssr:stedsnr" v="960419" />
	</node>
	<node id="-91269" lat="69.2689527768" lon="18.7529416674">
		<tag k="name" v="Prestfossen" />
		<tag k="natural" v="waterfall" />
		<tag k="ssr:stedsnr" v="960679" />
	</node>
	<node id="-91267" lat="69.2456138883" lon="18.8984583395">
		<tag k="name" v="Måssteinen" />
		<tag k="place" v="islet" />
		<tag k="ssr:stedsnr" v="960485" />
	</node>
	<node id="-89218" lat="69.301680552" lon="19.3019277644">
		<tag k="name" v="Lielva" />
		<tag k="ssr:stedsnr" v="49744" />
		<tag k="waterway" v="stream" />
	</node>
	<node id="-87915" lat="69.4272805546" lon="18.7238666617">
		<tag k="name" v="Sandselva" />
		<tag k="ssr:stedsnr" v="443673" />
		<tag k="waterway" v="river" />
	</node>
	<node id="-89214" lat="69.396538892" lon="19.2711249809">
		<tag k="name" v="Øverskredneset" />
		<tag k="natural" v="cape" />
		<tag k="ssr:stedsnr" v="49625" />
	</node>
	<node id="-89213" lat="69.3938888932" lon="19.2760499973">
		<tag k="name" v="Storneselva" />
		<tag k="ssr:stedsnr" v="49623" />
		<tag k="waterway" v="stream" />
	</node>
	<node id="-89211" lat="69.3844611099" lon="19.2779749946">
		<tag k="name" v="Rødmyrelva" />
		<tag k="ssr:stedsnr" v="49573" />
		<tag k="waterway" v="stream" />
	</node>
	<node id="-89210" lat="69.3282000037" lon="19.2666860928">
		<tag k="name" v="Ytterskredelva" />
		<tag k="ssr:stedsnr" v="49548" />
		<tag k="waterway" v="stream" />
	</node>
	<node id="-87572" lat="69.3785361127" lon="19.2126055452">
		<tag k="name" v="Råttkjosen" />
		<tag k="natural" v="bay" />
		<tag k="ssr:stedsnr" v="97973" />
	</node>
	<node id="-91254" lat="69.3857277815" lon="18.667747227">
		<tag k="alt_name" v="Hompebakkvatnet" />
		<tag k="name" v="Humpebakkvatnet" />
		<tag k="natural" v="water" />
		<tag k="ssr:stedsnr" v="960183" />
	</node>
	<node id="-91253" lat="69.4570722232" lon="18.4671611135">
		<tag k="name" v="Slåttvikelva indre" />
		<tag k="ssr:stedsnr" v="960342" />
		<tag k="waterway" v="stream" />
	</node>
	<node id="-90302" lat="69.1878638865" lon="19.2844888811">
		<tag k="name" v="Hølvatnet" />
		<tag k="natural" v="water" />
		<tag k="ssr:stedsnr" v="564070" />
	</node>
	<node id="-89202" lat="69.4262250018" lon="19.2658833335">
		<tag k="name" v="Steinneset" />
		<tag k="natural" v="cape" />
		<tag k="ssr:stedsnr" v="49451" />
	</node>
	<node id="-87533" lat="69.3094694413" lon="18.9757361041">
		<tag k="name" v="Kottelva" />
		<tag k="ssr:stedsnr" v="232530" />
		<tag k="waterway" v="stream" />
	</node>
	<node id="-91247" lat="69.2291111078" lon="19.1487888686">
		<tag k="name" v="Holelva" />
		<tag k="ssr:stedsnr" v="960275" />
		<tag k="waterway" v="stream" />
	</node>
	<node id="-91244" lat="69.3886472219" lon="18.7412916661">
		<tag k="name" v="Steinstabbevatnet" />
		<tag k="natural" v="water" />
		<tag k="ssr:stedsnr" v="960035" />
	</node>
	<node id="-91242" lat="69.1356055571" lon="19.306963879">
		<tag k="name" v="Hølbukta" />
		<tag k="natural" v="bay" />
		<tag k="ssr:stedsnr" v="959966" />
	</node>
	<node id="-91240" lat="69.0658111132" lon="19.4442333369">
		<tag k="name" v="Skarbekken" />
		<tag k="ssr:stedsnr" v="959922" />
		<tag k="waterway" v="stream" />
	</node>
	<node id="-89191" lat="69.3392416707" lon="19.075186099">
		<tag k="name" v="Andersvatnan" />
		<tag k="natural" v="water" />
		<tag k="ssr:stedsnr" v="49281" />
		<tag k="water" v="lake" />
	</node>
	<node id="-89189" lat="69.2044555595" lon="19.6017777806">
		<tag k="name" v="Skogbergelva" />
		<tag k="ssr:stedsnr" v="49267" />
		<tag k="waterway" v="stream" />
	</node>
	<node id="-91234" lat="69.2075972228" lon="19.3151027689">
		<tag k="name" v="Nedre Tjærragravveita" />
		<tag k="ssr:stedsnr" v="959831" />
		<tag k="waterway" v="stream" />
	</node>
	<node id="-89185" lat="69.3240277763" lon="19.460305545">
		<tag k="name" v="Dypdalselva" />
		<tag k="ssr:stedsnr" v="49173" />
		<tag k="waterway" v="stream" />
	</node>
	<node id="-89182" lat="69.2814972248" lon="19.1010916706">
		<tag k="name" v="Grønåselva" />
		<tag k="ssr:stedsnr" v="49131" />
		<tag k="waterway" v="stream" />
	</node>
	<node id="-89180" lat="69.0741222231" lon="19.4143305345">
		<tag k="name" v="Skartjønna" />
		<tag k="natural" v="water" />
		<tag k="ssr:stedsnr" v="49108" />
	</node>
	<node id="-89179" lat="69.3420027755" lon="19.2378860901">
		<tag k="name" v="Bergelva" />
		<tag k="ssr:stedsnr" v="49073" />
		<tag k="waterway" v="stream" />
	</node>
	<node id="-89178" lat="69.2436250009" lon="19.2048166536">
		<tag k="name" v="Gårdselva" />
		<tag k="ssr:stedsnr" v="49015" />
		<tag k="waterway" v="stream" />
	</node>
	<node id="-91283" lat="69.1208722245" lon="19.0851916698">
		<tag k="name" v="Finnteltodden" />
		<tag k="natural" v="cape" />
		<tag k="ssr:stedsnr" v="960824" />
	</node>
	<node id="-91224" lat="69.4398555594" lon="19.2383416695">
		<tag k="name" v="Fielbmá" />
		<tag k="name:se" v="Fielbmá" />
		<tag k="ssr:stedsnr" v="959663" />
		<tag k="waterway" v="stream" />
	</node>
	<node id="-87908" lat="69.099488886" lon="19.2399583313">
		<tag k="name" v="Sennavatnet" />
		<tag k="natural" v="water" />
		<tag k="ssr:stedsnr" v="443490" />
	</node>
	<node id="-89173" lat="69.3778500002" lon="19.3768361019">
		<tag k="name" v="Luoppal" />
		<tag k="name:se" v="Luoppal" />
		<tag k="natural" v="bay" />
		<tag k="ssr:stedsnr" v="48384" />
	</node>
	<node id="-89171" lat="69.2164527831" lon="19.7924777575">
		<tag k="loc_name:se" v="Giillariehpijohka" />
		<tag k="name" v="Kilaelva" />
		<tag k="name:no" v="Kilaelva" />
		<tag k="ssr:stedsnr" v="48214" />
		<tag k="waterway" v="stream" />
	</node>
	<node id="-87907" lat="69.0839416699" lon="19.3368916564">
		<tag k="loc_name:no" v="Fjellfroskvatnet" />
		<tag k="name" v="Fjellfrøsvatnet - Geatkejávri" />
		<tag k="name:no" v="Fjellfrøsvatnet" />
		<tag k="name:se" v="Geatkejávri" />
		<tag k="natural" v="water" />
		<tag k="ssr:stedsnr" v="443477" />
		<tag k="water" v="lake" />
	</node>
	<node id="-89168" lat="69.0981527785" lon="19.3457638781">
		<tag k="name" v="Litjegrunna" />
		<tag k="natural" v="shoal" />
		<tag k="place" v="locality" />
		<tag k="ssr:stedsnr" v="37936" />
	</node>
	<node id="-91215" lat="69.3862166671" lon="19.2730722147">
		<tag k="name" v="Omajávri" />
		<tag k="name:se" v="Omajávri" />
		<tag k="natural" v="water" />
		<tag k="ssr:stedsnr" v="959509" />
		<tag k="water" v="lake" />
	</node>
	<node id="-89166" lat="69.2185388929" lon="19.3689749849">
		<tag k="name" v="Blombakkvatnet" />
		<tag k="natural" v="water" />
		<tag k="ssr:stedsnr" v="37195" />
	</node>
	<node id="-89163" lat="69.2072388855" lon="19.5758194274">
		<tag k="name" v="Moendelva" />
		<tag k="ssr:stedsnr" v="36157" />
		<tag k="waterway" v="stream" />
	</node>
	<node id="-89160" lat="69.1318194429" lon="19.2897388749">
		<tag k="name" v="Andorvatnet - Ándorjávri" />
		<tag k="name:no" v="Andorvatnet" />
		<tag k="name:se" v="Ándorjávri" />
		<tag k="natural" v="water" />
		<tag k="ssr:stedsnr" v="24013" />
		<tag k="water" v="lake" />
	</node>
	<node id="-89159" lat="69.3025361085" lon="18.768566656">
		<tag k="name" v="Kalvevatnet" />
		<tag k="natural" v="water" />
		<tag k="ssr:stedsnr" v="21237" />
	</node>
	<node id="-88443" lat="69.2098361147" lon="19.4636138728">
		<tag k="loc_name:se" v="Muotkeluovttajohka" />
		<tag k="name" v="Buktelva" />
		<tag k="name:no" v="Buktelva" />
		<tag k="ssr:stedsnr" v="686104" />
		<tag k="waterway" v="stream" />
	</node>
	<node id="-89155" lat="69.3284833381" lon="18.9394972148">
		<tag k="name" v="Sagelva" />
		<tag k="ssr:stedsnr" v="19981" />
		<tag k="waterway" v="stream" />
	</node>
	<node id="-89152" lat="69.0909388881" lon="19.1902583149">
		<tag k="alt_name" v="Lombola" />
		<tag k="name" v="Strømslilombola" />
		<tag k="natural" v="water" />
		<tag k="ssr:stedsnr" v="19855" />
		<tag k="water" v="lake" />
	</node>
	<node id="-89151" lat="69.0861555534" lon="19.1730472123">
		<tag k="name" v="Geitauget" />
		<tag k="natural" v="water" />
		<tag k="ssr:stedsnr" v="19852" />
	</node>
	<node id="-89145" lat="69.0476083375" lon="19.3535833264">
		<tag k="name" v="Fjellfrøselva - Geatkeeatnu" />
		<tag k="name:no" v="Fjellfrøselva" />
		<tag k="name:se" v="Geatkeeatnu" />
		<tag k="ssr:stedsnr" v="19431" />
		<tag k="waterway" v="river" />
	</node>
	<node id="-89144" lat="69.2172305596" lon="19.8180972079">
		<tag k="name" v="Skredelva" />
		<tag k="ssr:stedsnr" v="19339" />
		<tag k="waterway" v="stream" />
	</node>
	<node id="-89142" lat="69.204058331" lon="19.918199977">
		<tag k="name" v="Sennvatnet" />
		<tag k="natural" v="water" />
		<tag k="ssr:stedsnr" v="19327" />
	</node>
	<node id="-88585" lat="69.307430557" lon="19.520913879">
		<tag k="name" v="Evennesan" />
		<tag k="natural" v="cape" />
		<tag k="ssr:stedsnr" v="716368" />
	</node>
	<node id="-89140" lat="69.2613277817" lon="19.6757305352">
		<tag k="name" v="Lysvatnet" />
		<tag k="natural" v="water" />
		<tag k="ssr:stedsnr" v="19319" />
		<tag k="water" v="lake" />
	</node>
	<node id="-91184" lat="69.3359027803" lon="19.147675">
		<tag k="alt_name" v="Josefelva" />
		<tag k="name" v="Jusopelva" />
		<tag k="ssr:stedsnr" v="868997" />
		<tag k="waterway" v="stream" />
	</node>
	<node id="-89135" lat="69.3567138871" lon="19.0278083162">
		<tag k="alt_name" v="Mølnbekken" />
		<tag k="name" v="Mølnelva" />
		<tag k="ssr:stedsnr" v="19078" />
		<tag k="waterway" v="stream" />
	</node>
	<node id="-89129" lat="69.2240999996" lon="18.9554222091">
		<tag k="name" v="Skredfarelva" />
		<tag k="ssr:stedsnr" v="18971" />
		<tag k="waterway" v="stream" />
	</node>
	<node id="-89127" lat="69.2248749992" lon="18.9129055518">
		<tag k="name" v="Fjellborgelva" />
		<tag k="ssr:stedsnr" v="18967" />
		<tag k="waterway" v="stream" />
	</node>
	<node id="-91173" lat="69.2416583324" lon="18.9150194422">
		<tag k="name" v="Storøya" />
		<tag k="place" v="island" />
		<tag k="ssr:stedsnr" v="868941" />
	</node>
	<node id="-91172" lat="69.3893444458" lon="18.7536666511">
		<tag k="name" v="Langvatnet" />
		<tag k="natural" v="water" />
		<tag k="ssr:stedsnr" v="868933" />
	</node>
	<node id="-91169" lat="69.407102778" lon="19.1984277609">
		<tag k="name" v="Loppovatnet" />
		<tag k="natural" v="water" />
		<tag k="ssr:stedsnr" v="868917" />
	</node>
	<node id="-91167" lat="69.4036777747" lon="19.0779166453">
		<tag k="name" v="Storelva" />
		<tag k="ssr:stedsnr" v="868909" />
		<tag k="waterway" v="stream" />
	</node>
	<node id="-89118" lat="69.2442416638" lon="18.9072916512">
		<tag k="alt_name" v="Fiskelausvatnet, yt;Ytre Fiskelausvatn" />
		<tag k="name" v="Ytre Fiskelausvatnet" />
		<tag k="natural" v="water" />
		<tag k="ssr:stedsnr" v="18895" />
		<tag k="water" v="lake" />
	</node>
	<node id="-89117" lat="69.4614555554" lon="18.9827277736">
		<tag k="name" v="Storneselva" />
		<tag k="ssr:stedsnr" v="18861" />
		<tag k="waterway" v="stream" />
	</node>
	<node id="-87462" lat="69.3816722216" lon="19.3865527686">
		<tag k="loc_name:se" v="Muotkejávri" />
		<tag k="name" v="Laksvatnet" />
		<tag k="name:no" v="Laksvatnet" />
		<tag k="natural" v="water" />
		<tag k="ssr:stedsnr" v="19201" />
		<tag k="water" v="lake" />
	</node>
	<node id="-91008" lat="69.3366749991" lon="19.4116527789">
		<tag k="name" v="Gorsa" />
		<tag k="name:se" v="Gorsa" />
		<tag k="ssr:stedsnr" v="838625" />
		<tag k="waterway" v="stream" />
	</node>
	<node id="-89105" lat="69.509930558" lon="18.4746388944">
		<tag k="name" v="Bjørnbekken" />
		<tag k="ssr:stedsnr" v="18422" />
		<tag k="waterway" v="stream" />
	</node>
	<node id="-91150" lat="69.0808999972" lon="19.2560444299">
		<tag k="name" v="Langvatnet - Guhkesluoppal" />
		<tag k="name:no" v="Langvatnet" />
		<tag k="name:se" v="Guhkesluoppal" />
		<tag k="natural" v="water" />
		<tag k="ssr:stedsnr" v="868467" />
	</node>
	<node id="-91147" lat="69.2869583362" lon="19.4709722228">
		<tag k="alt_name" v="Litlevatnet" />
		<tag k="name" v="Litjevatnet" />
		<tag k="natural" v="water" />
		<tag k="ssr:stedsnr" v="868351" />
	</node>
	<node id="-91145" lat="69.3091750043" lon="19.4366027652">
		<tag k="alt_name" v="Skilelva" />
		<tag k="name" v="Skjellelva" />
		<tag k="ssr:stedsnr" v="868342" />
		<tag k="waterway" v="stream" />
	</node>
	<node id="-90284" lat="69.1824583351" lon="19.8013472183">
		<tag k="name" v="Stordalselva - Vádjájohka" />
		<tag k="name:no" v="Stordalselva" />
		<tag k="name:se" v="Vádjájohka" />
		<tag k="ssr:stedsnr" v="563053" />
		<tag k="waterway" v="stream" />
	</node>
	<node id="-91141" lat="69.2519888862" lon="19.5434333202">
		<tag k="name" v="Lomvatna" />
		<tag k="natural" v="water" />
		<tag k="ssr:stedsnr" v="868280" />
	</node>
	<node id="-89092" lat="69.2226222247" lon="19.7879277548">
		<tag k="loc_name:se" v="Čáhceriđujohka" />
		<tag k="name" v="Vasskredelva" />
		<tag k="name:no" v="Vasskredelva" />
		<tag k="ssr:stedsnr" v="18148" />
		<tag k="waterway" v="stream" />
	</node>
	<node id="-91139" lat="69.400486112" lon="19.2451027814">
		<tag k="loc_name:se" v="Luhppojohka" />
		<tag k="name" v="Luppoelva" />
		<tag k="name:no" v="Luppoelva" />
		<tag k="ssr:stedsnr" v="868200" />
		<tag k="waterway" v="stream" />
	</node>
	<node id="-89090" lat="69.1596500034" lon="19.3279833334">
		<tag k="name" v="Skredbekken" />
		<tag k="ssr:stedsnr" v="17073" />
		<tag k="waterway" v="stream" />
	</node>
	<node id="-89089" lat="69.1777861158" lon="19.6049999821">
		<tag k="alt_name" v="Laksevatnet" />
		<tag k="name" v="Laksvatnet" />
		<tag k="natural" v="water" />
		<tag k="ssr:stedsnr" v="17064" />
	</node>
	<node id="-89085" lat="69.0360500005" lon="19.3220055445">
		<tag k="name" v="Langneset" />
		<tag k="natural" v="cape" />
		<tag k="ssr:stedsnr" v="961270" />
	</node>
	<node id="-91131" lat="69.2237138877" lon="19.608255532">
		<tag k="name" v="Bomstadfossen - Virrángorži" />
		<tag k="name:no" v="Bomstadfossen" />
		<tag k="name:se" v="Virrángorži" />
		<tag k="natural" v="waterfall" />
		<tag k="ssr:stedsnr" v="868139" />
	</node>
	<node id="-89081" lat="69.2912305572" lon="18.9280833282">
		<tag k="name" v="Lysbakkelva" />
		<tag k="ssr:stedsnr" v="960664" />
		<tag k="waterway" v="stream" />
	</node>
	<node id="-89076" lat="69.2320805561" lon="19.2178527826">
		<tag k="name" v="Forrmonasen" />
		<tag k="natural" v="cape" />
		<tag k="ssr:stedsnr" v="960316" />
	</node>
	<node id="-89074" lat="69.214977775" lon="19.2089222061">
		<tag k="name" v="Krokelva" />
		<tag k="ssr:stedsnr" v="960311" />
		<tag k="waterway" v="stream" />
	</node>
	<node id="-87891" lat="69.4136837933" lon="19.2958480267">
		<tag k="alt_name" v="Skjellelva" />
		<tag k="fixme" v="multiple name tags, choose one and add the other to alt_name" />
		<tag k="name" v="Midtjordelva;Skjelelva" />
		<tag k="ssr:stedsnr" v="443235" />
		<tag k="waterway" v="stream" />
	</node>
	<node id="-89071" lat="69.3785361119" lon="18.6822472215">
		<tag k="name" v="Fjerdevatnet" />
		<tag k="natural" v="water" />
		<tag k="ssr:stedsnr" v="960061" />
	</node>
	<node id="-89065" lat="69.4487555548" lon="19.011013891">
		<tag k="name" v="Kjelelva" />
		<tag k="ssr:stedsnr" v="929905" />
		<tag k="waterway" v="stream" />
	</node>
	<node id="-89062" lat="69.2148277773" lon="19.2519777596">
		<tag k="alt_name" v="Sørkjoselva" />
		<tag k="name" v="Kjoselva" />
		<tag k="ssr:stedsnr" v="929115" />
		<tag k="waterway" v="river" />
	</node>
	<node id="-91107" lat="69.1313444424" lon="19.6549166651">
		<tag k="name" v="Tverrelva" />
		<tag k="ssr:stedsnr" v="868022" />
		<tag k="waterway" v="stream" />
	</node>
	<node id="-90619" lat="69.242572223" lon="19.0097194435">
		<tag k="alt_name" v="Fiskelausvatnet, in;Indre Fiskelausvatn" />
		<tag k="name" v="Indre Fiskelausvatnet" />
		<tag k="natural" v="water" />
		<tag k="ssr:stedsnr" v="625960" />
		<tag k="water" v="lake" />
	</node>
	<node id="-89055" lat="69.3092861091" lon="19.4844361121">
		<tag k="name" v="Evenelva" />
		<tag k="ssr:stedsnr" v="928329" />
		<tag k="waterway" v="stream" />
	</node>
	<node id="-91102" lat="69.1625555537" lon="18.9624861092">
		<tag k="name" v="Sæterelva" />
		<tag k="ssr:stedsnr" v="867783" />
		<tag k="waterway" v="stream" />
	</node>
	<node id="-91100" lat="69.1581777741" lon="19.3269749859">
		<tag k="name" v="Innerslåttelva" />
		<tag k="ssr:stedsnr" v="867073" />
		<tag k="waterway" v="stream" />
	</node>
	<node id="-89051" lat="69.1222722223" lon="19.1015194496">
		<tag k="name" v="Sløkjelva" />
		<tag k="ssr:stedsnr" v="900763" />
		<tag k="waterway" v="stream" />
	</node>
	<node id="-89050" lat="69.2669666676" lon="18.8234083193">
		<tag k="name" v="Gårdselva" />
		<tag k="ssr:stedsnr" v="900714" />
		<tag k="waterway" v="stream" />
	</node>
	<node id="-91096" lat="69.1689138893" lon="19.0858138801">
		<tag k="name" v="Litjevatnet" />
		<tag k="natural" v="water" />
		<tag k="ssr:stedsnr" v="839827" />
	</node>
	<node id="-89047" lat="69.1363194489" lon="19.0373999883">
		<tag k="name" v="Gambukta" />
		<tag k="natural" v="bay" />
		<tag k="ssr:stedsnr" v="899769" />
	</node>
	<node id="-91094" lat="69.070961113" lon="19.3214694363">
		<tag k="name" v="Sandvika" />
		<tag k="natural" v="bay" />
		<tag k="ssr:stedsnr" v="839927" />
	</node>
	<node id="-89045" lat="69.1403638911" lon="19.0962972249">
		<tag k="name" v="Vargevatnet" />
		<tag k="natural" v="water" />
		<tag k="ssr:stedsnr" v="899763" />
	</node>
	<node id="-91090" lat="69.3723861075" lon="19.0205749883">
		<tag k="name" v="Tredjebekken" />
		<tag k="ssr:stedsnr" v="839727" />
		<tag k="waterway" v="stream" />
	</node>
	<node id="-89040" lat="69.2864222193" lon="19.2675694443">
		<tag k="name" v="Breilielva" />
		<tag k="ssr:stedsnr" v="899561" />
		<tag k="waterway" v="stream" />
	</node>
	<node id="-91083" lat="69.2985333348" lon="18.7582999903">
		<tag k="name" v="Finkjelvatnet" />
		<tag k="natural" v="water" />
		<tag k="ssr:stedsnr" v="839647" />
	</node>
	<node id="-89034" lat="69.2807666693" lon="19.0182249924">
		<tag k="name" v="Vasshalsen" />
		<tag k="natural" v="bay" />
		<tag k="ssr:stedsnr" v="899371" />
	</node>
	<node id="-87543" lat="69.3761916659" lon="19.0142194406">
		<tag k="name" v="Førstebekken" />
		<tag k="ssr:stedsnr" v="232678" />
		<tag k="waterway" v="stream" />
	</node>
	<node id="-91078" lat="69.2619694444" lon="18.8797861155">
		<tag k="name" v="Mølnfossen" />
		<tag k="natural" v="waterfall" />
		<tag k="ssr:stedsnr" v="839606" />
	</node>
	<node id="-89024" lat="69.3781194442" lon="18.6712166521">
		<tag k="name" v="Henrikvatnet" />
		<tag k="natural" v="water" />
		<tag k="ssr:stedsnr" v="899212" />
	</node>
	<node id="-89021" lat="69.3713250027" lon="18.6972972211">
		<tag k="name" v="Stordalsvatnet" />
		<tag k="natural" v="water" />
		<tag k="ssr:stedsnr" v="899071" />
	</node>
	<node id="-89020" lat="69.3694833351" lon="18.7210583219">
		<tag k="name" v="Lomvatnet" />
		<tag k="natural" v="water" />
		<tag k="ssr:stedsnr" v="899058" />
	</node>
	<node id="-90732" lat="69.3536611112" lon="19.3773083215">
		<tag k="name" v="Jupelva" />
		<tag k="ssr:stedsnr" v="765565" />
		<tag k="waterway" v="stream" />
	</node>
	<node id="-89013" lat="69.3793666664" lon="19.4047444381">
		<tag k="name" v="Samuelelva" />
		<tag k="ssr:stedsnr" v="898415" />
		<tag k="waterway" v="stream" />
	</node>
	<node id="-89011" lat="69.3810333365" lon="19.3929388838">
		<tag k="loc_name:se" v="Stuoranjárga" />
		<tag k="name" v="Storneset" />
		<tag k="name:no" v="Storneset" />
		<tag k="natural" v="cape" />
		<tag k="ssr:stedsnr" v="898406" />
	</node>
	<node id="-90611" lat="69.4017694402" lon="18.6212333372">
		<tag k="name" v="Sandselvfossen" />
		<tag k="natural" v="waterfall" />
		<tag k="ssr:stedsnr" v="625914" />
	</node>
	<node id="-88998" lat="69.2950916667" lon="18.7765333262">
		<tag k="name" v="Storåsvatnet" />
		<tag k="natural" v="water" />
		<tag k="ssr:stedsnr" v="870209" />
		<tag k="water" v="lake" />
	</node>
	<node id="-91044" lat="69.2823111115" lon="19.0138000049">
		<tag k="name" v="Nordfjordelva" />
		<tag k="ssr:stedsnr" v="839376" />
		<tag k="waterway" v="river" />
	</node>
	<node id="-88991" lat="69.4468555542" lon="19.0114194338">
		<tag k="name" v="Bjørnebekken" />
		<tag k="ssr:stedsnr" v="947674" />
		<tag k="waterway" v="stream" />
	</node>
	<node id="-90663" lat="69.3362027746" lon="19.2330249808">
		<tag k="alt_name" v="Mølnelva" />
		<tag k="name" v="Yttermølnelva" />
		<tag k="ssr:stedsnr" v="746078" />
		<tag k="waterway" v="stream" />
	</node>
	<node id="-88986" lat="69.3580777794" lon="18.8279305573">
		<tag k="name" v="Lomvatnet" />
		<tag k="natural" v="water" />
		<tag k="ssr:stedsnr" v="839970" />
	</node>
	<node id="-88982" lat="69.3936472212" lon="19.11558889">
		<tag k="name" v="Akselvatnet" />
		<tag k="natural" v="water" />
		<tag k="ssr:stedsnr" v="838732" />
	</node>
	<node id="-91029" lat="69.3938666702" lon="18.739699998">
		<tag k="name" v="Hånkevatnan" />
		<tag k="natural" v="water" />
		<tag k="ssr:stedsnr" v="839035" />
		<tag k="water" v="lake" />
	</node>
	<node id="-91028" lat="69.0787194477" lon="19.5797833253">
		<tag k="name" v="Fiskekjosen" />
		<tag k="natural" v="water" />
		<tag k="ssr:stedsnr" v="838943" />
	</node>
	<node id="-87534" lat="69.2624888908" lon="18.8385388779">
		<tag k="name" v="Storholmen" />
		<tag k="place" v="islet" />
		<tag k="ssr:stedsnr" v="232534" />
	</node>
	<node id="-91024" lat="69.2552472207" lon="18.9593583185">
		<tag k="name" v="Tjønna" />
		<tag k="natural" v="water" />
		<tag k="ssr:stedsnr" v="838901" />
	</node>
	<node id="-90264" lat="69.0856583336" lon="19.7475444361">
		<tag k="name" v="Vassdalsneset" />
		<tag k="natural" v="cape" />
		<tag k="ssr:stedsnr" v="535918" />
	</node>
	<node id="-88973" lat="69.1578222219" lon="19.1799805449">
		<tag k="name" v="Strupelva" />
		<tag k="ssr:stedsnr" v="838412" />
		<tag k="waterway" v="stream" />
	</node>
	<node id="-91020" lat="69.1088305566" lon="19.2800555389">
		<tag k="name" v="Storbekken" />
		<tag k="ssr:stedsnr" v="838824" />
		<tag k="waterway" v="stream" />
	</node>
	<node id="-88971" lat="69.3451250035" lon="19.0847777689">
		<tag k="name" v="Storelva" />
		<tag k="ssr:stedsnr" v="838272" />
		<tag k="waterway" v="stream" />
	</node>
	<node id="-88968" lat="69.2802194451" lon="19.2012805381">
		<tag k="name" v="Hanslielva" />
		<tag k="ssr:stedsnr" v="838209" />
		<tag k="waterway" v="stream" />
	</node>
	<node id="-88967" lat="69.2840388918" lon="19.1518555604">
		<tag k="name" v="Mellaelva" />
		<tag k="ssr:stedsnr" v="838118" />
		<tag k="waterway" v="stream" />
	</node>
	<node id="-91010" lat="69.3088222269" lon="19.287491655">
		<tag k="name" v="Fjelldalselva" />
		<tag k="ssr:stedsnr" v="838753" />
		<tag k="waterway" v="stream" />
	</node>
	<node id="-88960" lat="69.3573249963" lon="18.8677027674">
		<tag k="name" v="Nordbyvatnet" />
		<tag k="natural" v="water" />
		<tag k="ssr:stedsnr" v="929984" />
		<tag k="water" v="lake" />
	</node>
	<node id="-88275" lat="69.3150500027" lon="19.5097361076">
		<tag k="name" v="Svartelva" />
		<tag k="ssr:stedsnr" v="656343" />
		<tag k="waterway" v="stream" />
	</node>
	<node id="-91005" lat="69.2912138909" lon="19.2803666523">
		<tag k="name" v="Berghaugelva" />
		<tag k="ssr:stedsnr" v="838591" />
		<tag k="waterway" v="stream" />
	</node>
	<node id="-88955" lat="69.2213666672" lon="19.2035027643">
		<tag k="name" v="Per-Gunnersavatnet" />
		<tag k="natural" v="water" />
		<tag k="ssr:stedsnr" v="929955" />
	</node>
	<node id="-88949" lat="69.4534944492" lon="18.9995194285">
		<tag k="name" v="Labuktelva" />
		<tag k="ssr:stedsnr" v="929885" />
		<tag k="waterway" v="stream" />
	</node>
	<node id="-88948" lat="69.4699749991" lon="18.9877555391">
		<tag k="name" v="Blåsteinelva" />
		<tag k="ssr:stedsnr" v="929872" />
		<tag k="waterway" v="stream" />
	</node>
	<node id="-87870" lat="69.2784138876" lon="18.8341916666">
		<tag k="name" v="Storvatnet" />
		<tag k="natural" v="water" />
		<tag k="ssr:stedsnr" v="443074" />
		<tag k="water" v="lake" />
	</node>
	<node id="-88945" lat="69.454791664" lon="18.4961999954">
		<tag k="name" v="Spilderelva" />
		<tag k="ssr:stedsnr" v="929663" />
		<tag k="waterway" v="river" />
	</node>
	<node id="-88941" lat="69.0922138882" lon="19.2270666497">
		<tag k="name" v="Rundvatnet" />
		<tag k="natural" v="water" />
		<tag k="ssr:stedsnr" v="929458" />
	</node>
	<node id="-88940" lat="69.087458335" lon="19.3115416705">
		<tag k="name" v="Nordholmen" />
		<tag k="place" v="islet" />
		<tag k="ssr:stedsnr" v="929454" />
	</node>
	<node id="-90987" lat="69.2630250009" lon="19.2302500044">
		<tag k="name" v="Lomvatnet" />
		<tag k="natural" v="water" />
		<tag k="ssr:stedsnr" v="838476" />
	</node>
	<node id="-90986" lat="69.2554749963" lon="19.2289166511">
		<tag k="name" v="Furuhaugbekken" />
		<tag k="ssr:stedsnr" v="838472" />
		<tag k="waterway" v="stream" />
	</node>
	<node id="-88937" lat="69.0693499969" lon="19.7810694322">
		<tag k="name" v="Sottoelva - Sohtunjohka" />
		<tag k="name:no" v="Sottoelva" />
		<tag k="name:se" v="Sohtunjohka" />
		<tag k="ssr:stedsnr" v="929429" />
		<tag k="waterway" v="stream" />
	</node>
	<node id="-90984" lat="69.3753694451" lon="19.3448360958">
		<tag k="name" v="Rid-elva" />
		<tag k="ssr:stedsnr" v="838461" />
		<tag k="waterway" v="stream" />
	</node>
	<node id="-90597" lat="69.0848500044" lon="19.7546972133">
		<tag k="name" v="Finndalselva - Dohpparjohka" />
		<tag k="name:no" v="Finndalselva" />
		<tag k="name:se" v="Dohpparjohka" />
		<tag k="ssr:stedsnr" v="625458" />
		<tag k="waterway" v="river" />
	</node>
	<node id="-90972" lat="69.0384444453" lon="19.3155111044">
		<tag k="name" v="Tredjekjosen" />
		<tag k="natural" v="bay" />
		<tag k="ssr:stedsnr" v="826957" />
	</node>
	<node id="-90971" lat="69.0956000026" lon="19.3010138894">
		<tag k="name" v="Storbekken" />
		<tag k="ssr:stedsnr" v="826936" />
		<tag k="waterway" v="stream" />
	</node>
	<node id="-90969" lat="69.4339916702" lon="18.9375833346">
		<tag k="name" v="Hestneselva" />
		<tag k="ssr:stedsnr" v="826794" />
		<tag k="waterway" v="stream" />
	</node>
	<node id="-88917" lat="69.2826333301" lon="18.7579499839">
		<tag k="alt_name" v="Tverrelva" />
		<tag k="name" v="Mellatverrelva" />
		<tag k="ssr:stedsnr" v="929077" />
		<tag k="waterway" v="stream" />
	</node>
	<node id="-88916" lat="69.2854694421" lon="18.8221555441">
		<tag k="name" v="Langvatnet" />
		<tag k="natural" v="water" />
		<tag k="ssr:stedsnr" v="929069" />
		<tag k="water" v="lake" />
	</node>
	<node id="-90254" lat="69.3079444442" lon="19.291036107">
		<tag k="name" v="Lielva" />
		<tag k="ssr:stedsnr" v="535712" />
		<tag k="waterway" v="stream" />
	</node>
	<node id="-90595" lat="69.0360527737" lon="19.3472083255">
		<tag k="name" v="Elvekrokneset" />
		<tag k="natural" v="cape" />
		<tag k="ssr:stedsnr" v="625427" />
	</node>
	<node id="-90960" lat="69.2959361088" lon="18.8526499933">
		<tag k="name" v="Brillan" />
		<tag k="natural" v="water" />
		<tag k="ssr:stedsnr" v="809202" />
	</node>
	<node id="-90419" lat="69.2786555543" lon="19.1291583256">
		<tag k="name" v="Kuvatnet" />
		<tag k="natural" v="water" />
		<tag k="ssr:stedsnr" v="595086" />
	</node>
	<node id="-88907" lat="69.3592944408" lon="18.7753166584">
		<tag k="name" v="Fiskevatnet" />
		<tag k="natural" v="water" />
		<tag k="ssr:stedsnr" v="928965" />
	</node>
	<node id="-88906" lat="69.3621888927" lon="18.7293361111">
		<tag k="name" v="Skutvikelva" />
		<tag k="ssr:stedsnr" v="928962" />
		<tag k="waterway" v="river" />
	</node>
	<node id="-87863" lat="69.1192972202" lon="19.2748249833">
		<tag k="alt_name" v="Svartevatnet" />
		<tag k="name" v="Svartvatnet" />
		<tag k="natural" v="water" />
		<tag k="ssr:stedsnr" v="443028" />
	</node>
	<node id="-90952" lat="69.3564944438" lon="18.7611000022">
		<tag k="name" v="Perkelvatnet" />
		<tag k="natural" v="water" />
		<tag k="ssr:stedsnr" v="807989" />
	</node>
	<node id="-88902" lat="69.4723611088" lon="18.6787888936">
		<tag k="name" v="Kvitfjellelva" />
		<tag k="ssr:stedsnr" v="928865" />
		<tag k="waterway" v="stream" />
	</node>
	<node id="-90949" lat="69.4230000006" lon="18.8140500073">
		<tag k="name" v="Stortindvatnet" />
		<tag k="natural" v="water" />
		<tag k="ssr:stedsnr" v="807891" />
	</node>
	<node id="-90947" lat="69.116908338" lon="19.0863194365">
		<tag k="name" v="Flatholmen" />
		<tag k="place" v="islet" />
		<tag k="ssr:stedsnr" v="807800" />
	</node>
	<node id="-90945" lat="69.1544611101" lon="19.2196055595">
		<tag k="alt_name:no" v="Stora Joksavatnet" />
		<tag k="name" v="Juksavatnet - Njukčajávri" />
		<tag k="name:no" v="Juksavatnet" />
		<tag k="name:se" v="Njukčajávri" />
		<tag k="natural" v="water" />
		<tag k="ssr:stedsnr" v="807779" />
		<tag k="water" v="lake" />
	</node>
	<node id="-88896" lat="69.2620111109" lon="18.7837527663">
		<tag k="name" v="Tverrelva" />
		<tag k="ssr:stedsnr" v="807910" />
		<tag k="waterway" v="stream" />
	</node>
	<node id="-91069" lat="69.1191833306" lon="19.1297805504">
		<tag k="name" v="Klubben" />
		<tag k="natural" v="cape" />
		<tag k="ssr:stedsnr" v="839506" />
	</node>
	<node id="-90940" lat="69.1580805524" lon="19.1038805491">
		<tag k="name" v="Omasvvarrivatnet - Omasvárrijávri" />
		<tag k="name:no" v="Omasvvarrivatnet" />
		<tag k="name:se" v="Omasvárrijávri" />
		<tag k="natural" v="water" />
		<tag k="old_name:se" v="Åmasvarrijavri" />
		<tag k="ssr:stedsnr" v="807726" />
	</node>
	<node id="-90938" lat="69.1601555598" lon="19.01433611">
		<tag k="name" v="Langvatnet" />
		<tag k="natural" v="water" />
		<tag k="ssr:stedsnr" v="807722" />
		<tag k="water" v="lake" />
	</node>
	<node id="-88886" lat="69.1946583339" lon="19.0479916604">
		<tag k="name" v="Vesterelva" />
		<tag k="ssr:stedsnr" v="928082" />
		<tag k="waterway" v="river" />
	</node>
	<node id="-88885" lat="69.2022888907" lon="19.0317555475">
		<tag k="name" v="Tverrelva" />
		<tag k="old_name" v="Skredelva" />
		<tag k="ssr:stedsnr" v="928080" />
		<tag k="waterway" v="river" />
	</node>
	<node id="-88884" lat="69.1640249984" lon="19.600691662">
		<tag k="name" v="Tverrelva" />
		<tag k="ssr:stedsnr" v="928063" />
		<tag k="waterway" v="river" />
	</node>
	<node id="-88883" lat="69.2078166627" lon="19.3490333293">
		<tag k="name" v="Tverrelva - Guvggosvákkijohka" />
		<tag k="name:no" v="Tverrelva" />
		<tag k="name:se" v="Guvggosvákkijohka" />
		<tag k="ssr:stedsnr" v="928061" />
		<tag k="waterway" v="river" />
	</node>
	<node id="-90929" lat="69.2359555555" lon="18.9784388887">
		<tag k="name" v="Vasshalsen" />
		<tag k="natural" v="strait" />
		<tag k="ssr:stedsnr" v="807967" />
	</node>
	<node id="-90928" lat="69.2362111121" lon="18.9338555514">
		<tag k="name" v="Flatøya" />
		<tag k="place" v="island" />
		<tag k="ssr:stedsnr" v="807964" />
	</node>
	<node id="-91272" lat="69.284250004" lon="18.9088027683">
		<tag k="name" v="Knivbakkvatnet" />
		<tag k="natural" v="water" />
		<tag k="ssr:stedsnr" v="960428" />
	</node>
	<node id="-88873" lat="69.3231527778" lon="18.9537138793">
		<tag k="name" v="Litjeelva" />
		<tag k="ssr:stedsnr" v="778244" />
		<tag k="waterway" v="stream" />
	</node>
	<node id="-90919" lat="69.3020138902" lon="19.5175666513">
		<tag k="name" v="Krokelva" />
		<tag k="ssr:stedsnr" v="807334" />
		<tag k="waterway" v="stream" />
	</node>
	<node id="-90915" lat="69.254766663" lon="19.4684805479">
		<tag k="name" v="Kvitbergelva" />
		<tag k="ssr:stedsnr" v="807313" />
		<tag k="waterway" v="river" />
	</node>
	<node id="-88866" lat="69.1972166683" lon="19.039283334">
		<tag k="name" v="Tjuvmoelva" />
		<tag k="ssr:stedsnr" v="777910" />
		<tag k="waterway" v="stream" />
	</node>
	<node id="-91068" lat="69.3479333374" lon="18.8907694411">
		<tag k="name" v="Laelva" />
		<tag k="ssr:stedsnr" v="839596" />
		<tag k="waterway" v="stream" />
	</node>
	<node id="-88863" lat="69.3326944457" lon="19.3231888903">
		<tag k="name" v="Merraskvetta" />
		<tag k="ssr:stedsnr" v="777517" />
		<tag k="waterway" v="stream" />
	</node>
	<node id="-88861" lat="69.2842500008" lon="19.1777083354">
		<tag k="name" v="Øvre Litjeelva" />
		<tag k="ssr:stedsnr" v="777140" />
		<tag k="waterway" v="stream" />
	</node>
	<node id="-88855" lat="69.0592499998" lon="19.2929972134">
		<tag k="name" v="Melkelvfossan" />
		<tag k="natural" v="waterfall" />
		<tag k="ssr:stedsnr" v="764949" />
	</node>
	<node id="-88854" lat="69.0729499999" lon="19.3251055365">
		<tag k="name" v="Tua" />
		<tag k="place" v="islet" />
		<tag k="ssr:stedsnr" v="764943" />
	</node>
	<node id="-88847" lat="69.3588805532" lon="18.8460277684">
		<tag k="name" v="Saraelva" />
		<tag k="ssr:stedsnr" v="746959" />
		<tag k="waterway" v="stream" />
	</node>
	<node id="-88842" lat="69.0887000038" lon="19.9409360932">
		<tag k="name" v="Finndalsvatnet" />
		<tag k="natural" v="water" />
		<tag k="ssr:stedsnr" v="746261" />
	</node>
	<node id="-90887" lat="69.3226277799" lon="18.9939277702">
		<tag k="name" v="Brynelva" />
		<tag k="ssr:stedsnr" v="807127" />
		<tag k="waterway" v="stream" />
	</node>
	<node id="-88838" lat="69.273758334" lon="18.9829249911">
		<tag k="name" v="Øksevatnet" />
		<tag k="natural" v="water" />
		<tag k="ssr:stedsnr" v="746066" />
	</node>
	<node id="-88836" lat="69.1832944454" lon="19.6836083202">
		<tag k="fixme" v="multiple name tags, choose one and add the other to alt_name" />
		<tag k="name" v="Dalelva;Kjempedalselva" />
		<tag k="ssr:stedsnr" v="746062" />
		<tag k="waterway" v="river" />
	</node>
	<node id="-90881" lat="69.2902027768" lon="19.0326610989">
		<tag k="name" v="Tortenskoltvatnet" />
		<tag k="natural" v="water" />
		<tag k="ssr:stedsnr" v="807093" />
	</node>
	<node id="-90879" lat="69.0959777757" lon="19.5949666668">
		<tag k="name" v="Sagelva" />
		<tag k="ssr:stedsnr" v="807079" />
		<tag k="waterway" v="river" />
	</node>
	<node id="-88827" lat="69.3730166696" lon="18.8451083291">
		<tag k="name" v="Liaelva" />
		<tag k="ssr:stedsnr" v="900948" />
		<tag k="waterway" v="stream" />
	</node>
	<node id="-87904" lat="69.0824638846" lon="19.507391664">
		<tag k="name" v="Skredbekken" />
		<tag k="ssr:stedsnr" v="443474" />
		<tag k="waterway" v="stream" />
	</node>
	<node id="-88823" lat="69.3104722221" lon="18.8432138882">
		<tag k="name" v="Storelva" />
		<tag k="ssr:stedsnr" v="900621" />
		<tag k="waterway" v="stream" />
	</node>
	<node id="-88820" lat="69.2715972253" lon="18.7417833353">
		<tag k="name" v="Trollfossen" />
		<tag k="natural" v="waterfall" />
		<tag k="ssr:stedsnr" v="900592" />
	</node>
	<node id="-88817" lat="69.1175750005" lon="19.081608336">
		<tag k="name" v="Nøkkelholmen" />
		<tag k="place" v="islet" />
		<tag k="ssr:stedsnr" v="900856" />
	</node>
	<node id="-88816" lat="69.26965556" lon="18.7454583278">
		<tag k="name" v="Øya" />
		<tag k="place" v="islet" />
		<tag k="ssr:stedsnr" v="900701" />
	</node>
	<node id="-88815" lat="69.2621111098" lon="18.7762916574">
		<tag k="name" v="Frostbekken" />
		<tag k="ssr:stedsnr" v="900699" />
		<tag k="waterway" v="stream" />
	</node>
	<node id="-90860" lat="69.1756944411" lon="19.2625916594">
		<tag k="name" v="Bergelva" />
		<tag k="ssr:stedsnr" v="806051" />
		<tag k="waterway" v="stream" />
	</node>
	<node id="-88810" lat="69.2967916671" lon="18.8990722098">
		<tag k="name" v="Storelva" />
		<tag k="ssr:stedsnr" v="900433" />
		<tag k="waterway" v="stream" />
	</node>
	<node id="-88809" lat="69.3555833361" lon="18.9015166584">
		<tag k="name" v="Litjebjelma" />
		<tag k="ssr:stedsnr" v="900426" />
		<tag k="waterway" v="stream" />
	</node>
	<node id="-90856" lat="69.4362222251" lon="18.8981666594">
		<tag k="name" v="Leirelva" />
		<tag k="ssr:stedsnr" v="778964" />
		<tag k="waterway" v="stream" />
	</node>
	<node id="-90855" lat="69.2832611088" lon="18.8032166495">
		<tag k="name" v="Sagelva" />
		<tag k="ssr:stedsnr" v="875787" />
		<tag k="waterway" v="stream" />
	</node>
	<node id="-88806" lat="69.2461694418" lon="18.9363277807">
		<tag k="name" v="Småholman" />
		<tag k="place" v="islet" />
		<tag k="ssr:stedsnr" v="900485" />
	</node>
	<node id="-90850" lat="69.2795222206" lon="18.7199194476">
		<tag k="name" v="Andhalsen" />
		<tag k="natural" v="bay" />
		<tag k="ssr:stedsnr" v="778735" />
	</node>
	<node id="-88799" lat="69.3644749989" lon="18.8480972192">
		<tag k="name" v="Sarafossen" />
		<tag k="natural" v="waterfall" />
		<tag k="ssr:stedsnr" v="899950" />
	</node>
	<node id="-88794" lat="69.3025472186" lon="19.3125638749">
		<tag k="name" v="Froskelva" />
		<tag k="ssr:stedsnr" v="899748" />
		<tag k="waterway" v="stream" />
	</node>
	<node id="-90841" lat="69.2666944441" lon="18.9141416558">
		<tag k="name" v="Froskevatnet" />
		<tag k="natural" v="water" />
		<tag k="ssr:stedsnr" v="778488" />
	</node>
	<node id="-90840" lat="69.2615361148" lon="18.8892444382">
		<tag k="name" v="Breineset" />
		<tag k="natural" v="cape" />
		<tag k="ssr:stedsnr" v="778480" />
	</node>
	<node id="-88791" lat="69.3161583343" lon="19.2961499936">
		<tag k="name" v="Oppkommelva" />
		<tag k="natural" v="spring" />
		<tag k="ssr:stedsnr" v="899735" />
	</node>
	<node id="-90838" lat="69.2603333289" lon="18.9104500025">
		<tag k="name" v="Brattbakkneset" />
		<tag k="natural" v="cape" />
		<tag k="ssr:stedsnr" v="778473" />
	</node>
	<node id="-88782" lat="69.233886114" lon="19.3413305595">
		<tag k="name" v="Kalvegjerdbekken" />
		<tag k="ssr:stedsnr" v="899632" />
		<tag k="waterway" v="stream" />
	</node>
	<node id="-90824" lat="69.2649250005" lon="18.8597194489">
		<tag k="name" v="Djupdalbekken" />
		<tag k="ssr:stedsnr" v="778566" />
		<tag k="waterway" v="stream" />
	</node>
	<node id="-88772" lat="69.2599499998" lon="19.1103416607">
		<tag k="name" v="Petersborgelva" />
		<tag k="ssr:stedsnr" v="899431" />
		<tag k="waterway" v="stream" />
	</node>
	<node id="-88771" lat="69.267472224" lon="19.1479472256">
		<tag k="name" v="Gårdselva" />
		<tag k="ssr:stedsnr" v="899430" />
		<tag k="waterway" v="stream" />
	</node>
	<node id="-90813" lat="69.4035861092" lon="18.9741083323">
		<tag k="name" v="Supelva" />
		<tag k="ssr:stedsnr" v="778272" />
		<tag k="waterway" v="stream" />
	</node>
	<node id="-90811" lat="69.3757055518" lon="18.9584527722">
		<tag k="name" v="Storelva" />
		<tag k="ssr:stedsnr" v="778266" />
		<tag k="waterway" v="river" />
	</node>
	<node id="-90911" lat="69.2701888919" lon="19.2215250037">
		<tag k="name" v="Vasskjosen" />
		<tag k="natural" v="water" />
		<tag k="ssr:stedsnr" v="807296" />
	</node>
	<node id="-88760" lat="69.345150001" lon="19.2087111032">
		<tag k="name" v="Eggelva" />
		<tag k="ssr:stedsnr" v="899199" />
		<tag k="waterway" v="stream" />
	</node>
	<node id="-88759" lat="69.3446805605" lon="19.1784333184">
		<tag k="name" v="Veita" />
		<tag k="ssr:stedsnr" v="899197" />
		<tag k="waterway" v="stream" />
	</node>
	<node id="-90803" lat="69.2036555564" lon="19.0170388697">
		<tag k="name" v="Skredelva" />
		<tag k="ssr:stedsnr" v="777983" />
		<tag k="waterway" v="stream" />
	</node>
	<node id="-88748" lat="69.3232027779" lon="18.7477472093">
		<tag k="name" v="Kjerkevikelva" />
		<tag k="ssr:stedsnr" v="718641" />
		<tag k="waterway" v="stream" />
	</node>
	<node id="-90795" lat="69.2224166714" lon="19.283280544">
		<tag k="name" v="Råttkjosen" />
		<tag k="natural" v="bay" />
		<tag k="ssr:stedsnr" v="777765" />
	</node>
	<node id="-90794" lat="69.1682888903" lon="19.30168055">
		<tag k="name" v="Gambukta" />
		<tag k="natural" v="bay" />
		<tag k="ssr:stedsnr" v="777759" />
	</node>
	<node id="-88744" lat="69.1626111128" lon="19.0063555421">
		<tag k="name" v="Tjønna" />
		<tag k="natural" v="water" />
		<tag k="ssr:stedsnr" v="717834" />
	</node>
	<node id="-90791" lat="69.2734888886" lon="19.0608861051">
		<tag k="name" v="Sennavatnet" />
		<tag k="natural" v="water" />
		<tag k="ssr:stedsnr" v="777875" />
	</node>
	<node id="-88742" lat="69.1660833341" lon="19.3237777757">
		<tag k="name" v="Klubbeneset" />
		<tag k="natural" v="cape" />
		<tag k="ssr:stedsnr" v="717760" />
	</node>
	<node id="-90784" lat="69.3786194409" lon="19.1479527602">
		<tag k="name" v="Simelvene" />
		<tag k="ssr:stedsnr" v="777717" />
		<tag k="waterway" v="stream" />
	</node>
	<node id="-88735" lat="69.385433331" lon="18.6981333308">
		<tag k="name" v="Småstabbevatnan" />
		<tag k="natural" v="water" />
		<tag k="ssr:stedsnr" v="717019" />
		<tag k="water" v="lake" />
	</node>
	<node id="-90782" lat="69.2514861149" lon="19.109130547">
		<tag k="name" v="Rundvatnet" />
		<tag k="natural" v="water" />
		<tag k="ssr:stedsnr" v="777450" />
	</node>
	<node id="-88732" lat="69.2651805538" lon="19.1837666605">
		<tag k="name" v="Stornesodden" />
		<tag k="natural" v="cape" />
		<tag k="ssr:stedsnr" v="716451" />
	</node>
	<node id="-88731" lat="69.268361109" lon="19.2032249995">
		<tag k="name" v="Storholmen" />
		<tag k="place" v="islet" />
		<tag k="ssr:stedsnr" v="716450" />
	</node>
	<node id="-88729" lat="69.3797472267" lon="19.3667694277">
		<tag k="name" v="Fiskeelva" />
		<tag k="ssr:stedsnr" v="716442" />
		<tag k="waterway" v="stream" />
	</node>
	<node id="-88727" lat="69.2780083311" lon="19.1550277741">
		<tag k="name" v="Furumoelva" />
		<tag k="ssr:stedsnr" v="716435" />
		<tag k="waterway" v="river" />
	</node>
	<node id="-90772" lat="69.25470278" lon="19.171963871">
		<tag k="name" v="Bergenesbukta" />
		<tag k="natural" v="bay" />
		<tag k="ssr:stedsnr" v="777413" />
	</node>
	<node id="-90771" lat="69.3661916622" lon="19.3551027747">
		<tag k="name" v="Halvelva" />
		<tag k="ssr:stedsnr" v="777411" />
		<tag k="waterway" v="stream" />
	</node>
	<node id="-88720" lat="69.0405722201" lon="19.3211860924">
		<tag k="name" v="Tøløvromkjosen" />
		<tag k="natural" v="bay" />
		<tag k="ssr:stedsnr" v="887952" />
	</node>
	<node id="-90767" lat="69.1492722265" lon="19.1952499971">
		<tag k="name" v="Juksavasselva" />
		<tag k="ssr:stedsnr" v="777382" />
		<tag k="waterway" v="stream" />
	</node>
	<node id="-90766" lat="69.161411114" lon="19.1629749856">
		<tag k="name" v="Tverrelva" />
		<tag k="ssr:stedsnr" v="777378" />
		<tag k="waterway" v="stream" />
	</node>
	<node id="-90221" lat="69.4838138856" lon="19.0075861087">
		<tag k="name" v="Hans-Henrikelva" />
		<tag k="ssr:stedsnr" v="534738" />
		<tag k="waterway" v="stream" />
	</node>
	<node id="-87831" lat="69.1516500022" lon="19.5731416586">
		<tag k="name" v="Finnskarbekken" />
		<tag k="ssr:stedsnr" v="200004" />
		<tag k="waterway" v="stream" />
	</node>
	<node id="-88710" lat="69.2644166701" lon="19.4841972098">
		<tag k="name" v="Marielva" />
		<tag k="ssr:stedsnr" v="686305" />
		<tag k="waterway" v="stream" />
	</node>
	<node id="-88709" lat="69.2562000031" lon="19.5360916459">
		<tag k="name" v="Lomvasselva" />
		<tag k="ssr:stedsnr" v="686303" />
		<tag k="waterway" v="stream" />
	</node>
	<node id="-88708" lat="69.1615083309" lon="19.1113860962">
		<tag k="alt_name" v="Skjelelva" />
		<tag k="name" v="Skjellelva" />
		<tag k="ssr:stedsnr" v="685732" />
		<tag k="waterway" v="stream" />
	</node>
	<node id="-88705" lat="69.1452638902" lon="19.0576722108">
		<tag k="name" v="Fjellvatnet" />
		<tag k="natural" v="water" />
		<tag k="ssr:stedsnr" v="657890" />
	</node>
	<node id="-88701" lat="69.2653388927" lon="18.7880861197">
		<tag k="name" v="Flatfossen" />
		<tag k="natural" v="waterfall" />
		<tag k="ssr:stedsnr" v="657663" />
	</node>
	<node id="-88699" lat="69.2572861113" lon="18.8946694309">
		<tag k="name" v="Langneset" />
		<tag k="natural" v="cape" />
		<tag k="ssr:stedsnr" v="657493" />
	</node>
	<node id="-88698" lat="69.2634444436" lon="18.914783324">
		<tag k="name" v="Milelva" />
		<tag k="ssr:stedsnr" v="657490" />
		<tag k="waterway" v="stream" />
	</node>
	<node id="-90744" lat="69.3226000033" lon="19.4572583378">
		<tag k="name" v="Skjellelva" />
		<tag k="ssr:stedsnr" v="777141" />
		<tag k="waterway" v="stream" />
	</node>
	<node id="-90743" lat="69.0719833369" lon="19.3679638696">
		<tag k="name" v="Langsanden" />
		<tag k="natural" v="beach" />
		<tag k="ssr:stedsnr" v="777095" />
	</node>
	<node id="-90741" lat="69.385366671" lon="19.3873194288">
		<tag k="loc_name:se" v="Čáhppesmohkki" />
		<tag k="name" v="Svartehavet" />
		<tag k="name:no" v="Svartehavet" />
		<tag k="natural" v="water" />
		<tag k="ssr:stedsnr" v="776364" />
	</node>
	<node id="-88691" lat="69.1006916663" lon="19.70862499">
		<tag k="name" v="Lombolen" />
		<tag k="natural" v="water" />
		<tag k="ssr:stedsnr" v="656921" />
		<tag k="water" v="lake" />
	</node>
	<node id="-88690" lat="69.0885944451" lon="19.2354361095">
		<tag k="name" v="Rundvasselva" />
		<tag k="ssr:stedsnr" v="656462" />
		<tag k="waterway" v="stream" />
	</node>
	<node id="-90736" lat="69.3803861131" lon="19.2119944304">
		<tag k="name" v="Kaldvasselva" />
		<tag k="ssr:stedsnr" v="765977" />
		<tag k="waterway" v="stream" />
	</node>
	<node id="-90735" lat="69.3810500033" lon="19.2285610936">
		<tag k="name" v="Skredelva" />
		<tag k="ssr:stedsnr" v="765976" />
		<tag k="waterway" v="stream" />
	</node>
	<node id="-88685" lat="69.3002111142" lon="18.8762944341">
		<tag k="name" v="Lyngkjoselva" />
		<tag k="ssr:stedsnr" v="656528" />
		<tag k="waterway" v="stream" />
	</node>
	<node id="-88684" lat="69.1072555573" lon="19.1584249864">
		<tag k="name" v="Takvassbukt" />
		<tag k="natural" v="bay" />
		<tag k="ssr:stedsnr" v="656527" />
	</node>
	<node id="-90730" lat="69.2087611115" lon="19.5264333202">
		<tag k="name" v="Fosselva" />
		<tag k="ssr:stedsnr" v="765186" />
		<tag k="waterway" v="stream" />
	</node>
	<node id="-88681" lat="69.2675305514" lon="19.4500611075">
		<tag k="name" v="Marielvene" />
		<tag k="ssr:stedsnr" v="656290" />
		<tag k="waterway" v="stream" />
	</node>
	<node id="-88680" lat="69.0934861105" lon="19.1746277669">
		<tag k="name" v="Sagfossen" />
		<tag k="natural" v="waterfall" />
		<tag k="ssr:stedsnr" v="656286" />
	</node>
	<node id="-88679" lat="69.0922138932" lon="19.1581055504">
		<tag k="name" v="Hestneset" />
		<tag k="natural" v="cape" />
		<tag k="ssr:stedsnr" v="656280" />
	</node>
	<node id="-88672" lat="69.3841361096" lon="19.2285888847">
		<tag k="name" v="Telgeneselva" />
		<tag k="ssr:stedsnr" v="655655" />
		<tag k="waterway" v="stream" />
	</node>
	<node id="-90718" lat="69.3820888909" lon="19.3563083162">
		<tag k="loc_name:se" v="Gorsajohka" />
		<tag k="name" v="Korselva" />
		<tag k="name:no" v="Korselva" />
		<tag k="ssr:stedsnr" v="748535" />
		<tag k="waterway" v="stream" />
	</node>
	<node id="-90716" lat="69.2070805523" lon="19.0740888789">
		<tag k="name" v="Dagrosvatnet" />
		<tag k="natural" v="water" />
		<tag k="ssr:stedsnr" v="747998" />
	</node>
	<node id="-88666" lat="69.0477222234" lon="19.299483327">
		<tag k="name" v="Tøløvrombekken" />
		<tag k="ssr:stedsnr" v="643956" />
		<tag k="waterway" v="stream" />
	</node>
	<node id="-90713" lat="69.0840638881" lon="19.1602222127">
		<tag k="name" v="Bergelva" />
		<tag k="ssr:stedsnr" v="747857" />
		<tag k="waterway" v="river" />
	</node>
	<node id="-88661" lat="69.4715527754" lon="18.61423055">
		<tag k="alt_name" v="Brokskardvatnet, øvre" />
		<tag k="name" v="Øvre Brokskarvatnet" />
		<tag k="natural" v="water" />
		<tag k="ssr:stedsnr" v="625622" />
	</node>
	<node id="-90707" lat="69.3787499967" lon="18.6595083323">
		<tag k="name" v="Per Jonsavatnet" />
		<tag k="natural" v="water" />
		<tag k="ssr:stedsnr" v="746939" />
	</node>
	<node id="-88656" lat="69.2766638921" lon="18.7507527849">
		<tag k="name" v="Øvre Tverrelva" />
		<tag k="ssr:stedsnr" v="718741" />
		<tag k="waterway" v="stream" />
	</node>
	<node id="-88654" lat="69.2639888877" lon="18.8110194349">
		<tag k="name" v="Kvernfossen" />
		<tag k="natural" v="waterfall" />
		<tag k="ssr:stedsnr" v="718702" />
	</node>
	<node id="-88651" lat="69.2917805528" lon="18.9179138714">
		<tag k="name" v="Gårdselva" />
		<tag k="ssr:stedsnr" v="718444" />
		<tag k="waterway" v="stream" />
	</node>
	<node id="-88648" lat="69.2752027756" lon="18.8952610921">
		<tag k="name" v="Grønnåsvatnet" />
		<tag k="natural" v="water" />
		<tag k="ssr:stedsnr" v="718430" />
		<tag k="water" v="pond" />
	</node>
	<node id="-90693" lat="69.0636166643" lon="19.6572000001">
		<tag k="name" v="Mielkeváhjávri" />
		<tag k="name:se" v="Mielkeváhjávri" />
		<tag k="natural" v="water" />
		<tag k="ssr:stedsnr" v="746451" />
	</node>
	<node id="-88639" lat="69.0885750033" lon="19.6023694378">
		<tag k="name" v="Storholmen" />
		<tag k="place" v="islet" />
		<tag k="ssr:stedsnr" v="717924" />
	</node>
	<node id="-88638" lat="69.0999416669" lon="19.7116833303">
		<tag k="name" v="Storbekken" />
		<tag k="ssr:stedsnr" v="717923" />
		<tag k="waterway" v="stream" />
	</node>
	<node id="-87477" lat="69.337625" lon="19.1234694363">
		<tag k="name" v="Bukkelva" />
		<tag k="ssr:stedsnr" v="231208" />
		<tag k="waterway" v="stream" />
	</node>
	<node id="-88633" lat="69.036527777" lon="19.3113972186">
		<tag k="name" v="Andrekjosen" />
		<tag k="natural" v="bay" />
		<tag k="ssr:stedsnr" v="718259" />
	</node>
	<node id="-88631" lat="69.2195083319" lon="19.3101638807">
		<tag k="name" v="Kjærrneset" />
		<tag k="natural" v="cape" />
		<tag k="ssr:stedsnr" v="717751" />
	</node>
	<node id="-90678" lat="69.3985888852" lon="19.3776944413">
		<tag k="fixme" v="multiple name tags, choose one and add the other to alt_name" />
		<tag k="loc_name:se" v="Juopmojohka" />
		<tag k="name" v="Gjømmerdalselva;Storelva" />
		<tag k="name:no" v="Gjømmerdalselva;Storelva" />
		<tag k="ssr:stedsnr" v="746203" />
		<tag k="waterway" v="stream" />
	</node>
	<node id="-90308" lat="69.3064583353" lon="18.9992555583">
		<tag k="name" v="Storvatnet" />
		<tag k="natural" v="water" />
		<tag k="ssr:stedsnr" v="564088" />
	</node>
	<node id="-90676" lat="69.2531944465" lon="18.9712277685">
		<tag k="alt_name" v="Henriksvatnet" />
		<tag k="name" v="Henrikvatnet" />
		<tag k="natural" v="water" />
		<tag k="ssr:stedsnr" v="746049" />
	</node>
	<node id="-90206" lat="69.0707333378" lon="19.215544443">
		<tag k="name" v="Bergvasselva" />
		<tag k="ssr:stedsnr" v="534474" />
		<tag k="waterway" v="stream" />
	</node>
	<node id="-90674" lat="69.263122222" lon="19.1631805353">
		<tag k="name" v="Josefvatnet" />
		<tag k="natural" v="water" />
		<tag k="ssr:stedsnr" v="746041" />
		<tag k="water" v="lake" />
	</node>
	<node id="-88625" lat="69.2339194418" lon="19.3448666637">
		<tag k="name" v="Sandbuktelva" />
		<tag k="ssr:stedsnr" v="717625" />
		<tag k="waterway" v="stream" />
	</node>
	<node id="-88624" lat="69.3151361126" lon="18.9631027774">
		<tag k="name" v="Gårdselva" />
		<tag k="ssr:stedsnr" v="717586" />
		<tag k="waterway" v="stream" />
	</node>
	<node id="-90671" lat="69.1325250041" lon="19.7669083297">
		<tag k="name" v="Styggebekken" />
		<tag k="ssr:stedsnr" v="746022" />
		<tag k="waterway" v="stream" />
	</node>
	<node id="-88622" lat="69.1188111084" lon="19.0863027785">
		<tag k="name" v="Rostaneset" />
		<tag k="natural" v="cape" />
		<tag k="ssr:stedsnr" v="717858" />
	</node>
	<node id="-88621" lat="69.3265222265" lon="19.2909666496">
		<tag k="name" v="Elvekroken" />
		<tag k="natural" v="bay" />
		<tag k="ssr:stedsnr" v="717545" />
	</node>
	<node id="-90666" lat="69.2770694418" lon="18.7368083347">
		<tag k="name" v="Lakselva" />
		<tag k="ssr:stedsnr" v="746096" />
		<tag k="waterway" v="river" />
	</node>
	<node id="-88617" lat="69.1173138857" lon="19.1493805399">
		<tag k="name" v="Narelva" />
		<tag k="ssr:stedsnr" v="717533" />
		<tag k="waterway" v="stream" />
	</node>
	<node id="-88615" lat="69.2547083318" lon="18.880419446">
		<tag k="name" v="Gammellabukta" />
		<tag k="natural" v="bay" />
		<tag k="ssr:stedsnr" v="717580" />
	</node>
	<node id="-90662" lat="69.1943083355" lon="19.1000388886">
		<tag k="name" v="Sagelvvatnet" />
		<tag k="natural" v="water" />
		<tag k="ssr:stedsnr" v="745971" />
		<tag k="water" v="lake" />
	</node>
	<node id="-88612" lat="69.3566305551" lon="18.8682305567">
		<tag k="name" v="Holmen" />
		<tag k="place" v="islet" />
		<tag k="ssr:stedsnr" v="717574" />
	</node>
	<node id="-88611" lat="69.2260777764" lon="19.2545860935">
		<tag k="name" v="Gulbrandkjosen" />
		<tag k="natural" v="bay" />
		<tag k="ssr:stedsnr" v="717337" />
	</node>
	<node id="-88605" lat="69.2242999987" lon="19.5714944272">
		<tag k="name" v="Djupdalselva" />
		<tag k="ssr:stedsnr" v="717249" />
		<tag k="waterway" v="stream" />
	</node>
	<node id="-88604" lat="69.3417333294" lon="19.2370194418">
		<tag k="name" v="Bjørelva" />
		<tag k="ssr:stedsnr" v="717230" />
		<tag k="waterway" v="stream" />
	</node>
	<node id="-91226" lat="69.3059972242" lon="19.2631888724">
		<tag k="name" v="Tverrelva" />
		<tag k="ssr:stedsnr" v="959729" />
		<tag k="waterway" v="stream" />
	</node>
	<node id="-90649" lat="69.256852777" lon="19.146499994">
		<tag k="name" v="Senneset" />
		<tag k="natural" v="cape" />
		<tag k="ssr:stedsnr" v="655404" />
	</node>
	<node id="-88755" lat="69.279999998" lon="19.1423944457">
		<tag k="name" v="Jarelva" />
		<tag k="ssr:stedsnr" v="899146" />
		<tag k="waterway" v="stream" />
	</node>
	<node id="-88590" lat="69.4196444443" lon="19.0717972163">
		<tag k="name" v="Buskestøelva" />
		<tag k="ssr:stedsnr" v="716762" />
		<tag k="waterway" v="stream" />
	</node>
	<node id="-88589" lat="69.4143388898" lon="19.0731916589">
		<tag k="name" v="Brattneselva" />
		<tag k="ssr:stedsnr" v="716761" />
		<tag k="waterway" v="stream" />
	</node>
	<node id="-88587" lat="69.2504666647" lon="19.1251083248">
		<tag k="name" v="Langvatnet" />
		<tag k="natural" v="water" />
		<tag k="ssr:stedsnr" v="716467" />
	</node>
	<node id="-89175" lat="69.4108500039" lon="18.7451333328">
		<tag k="name" v="Oksedalselva" />
		<tag k="ssr:stedsnr" v="49001" />
		<tag k="waterway" v="stream" />
	</node>
	<node id="-88581" lat="69.1949583341" lon="19.7369249888">
		<tag k="name" v="Elvekroken" />
		<tag k="natural" v="cape" />
		<tag k="ssr:stedsnr" v="716264" />
	</node>
	<node id="-88577" lat="69.2346666657" lon="19.3564138716">
		<tag k="name" v="Bergeveita" />
		<tag k="ssr:stedsnr" v="716664" />
		<tag k="waterway" v="stream" />
	</node>
	<node id="-90622" lat="69.3446416702" lon="18.8478611053">
		<tag k="name" v="Nordbyelva" />
		<tag k="ssr:stedsnr" v="625980" />
		<tag k="waterway" v="river" />
	</node>
	<node id="-88573" lat="69.2874361133" lon="19.2604416587">
		<tag k="name" v="Aspelielva" />
		<tag k="ssr:stedsnr" v="716196" />
		<tag k="waterway" v="stream" />
	</node>
	<node id="-90620" lat="69.2317499995" lon="19.030925004">
		<tag k="name" v="Austerbotnelva" />
		<tag k="ssr:stedsnr" v="625964" />
		<tag k="waterway" v="stream" />
	</node>
	<node id="-88571" lat="69.0682749986" lon="19.3303555401">
		<tag k="name" v="Brennarodden" />
		<tag k="natural" v="cape" />
		<tag k="ssr:stedsnr" v="595926" />
	</node>
	<node id="-88569" lat="69.2048583296" lon="19.0918694452">
		<tag k="name" v="Sandvika" />
		<tag k="natural" v="bay" />
		<tag k="ssr:stedsnr" v="595913" />
	</node>
	<node id="-88566" lat="69.2015666642" lon="19.3011555548">
		<tag k="name" v="Tjærragravveita" />
		<tag k="ssr:stedsnr" v="595821" />
		<tag k="waterway" v="stream" />
	</node>
	<node id="-90612" lat="69.4160722263" lon="18.919258318">
		<tag k="name" v="Skaidielva" />
		<tag k="ssr:stedsnr" v="625917" />
		<tag k="waterway" v="stream" />
	</node>
	<node id="-87806" lat="69.0951138869" lon="19.7076972212">
		<tag k="name" v="Øverneset" />
		<tag k="natural" v="cape" />
		<tag k="ssr:stedsnr" v="292994" />
	</node>
	<node id="-90603" lat="69.4374388912" lon="18.555302769">
		<tag k="name" v="Perfinnelva" />
		<tag k="ssr:stedsnr" v="625644" />
		<tag k="waterway" v="stream" />
	</node>
	<node id="-88554" lat="69.3431694464" lon="19.4037555458">
		<tag k="name" v="Hesteforsen" />
		<tag k="natural" v="waterfall" />
		<tag k="ssr:stedsnr" v="704578" />
	</node>
	<node id="-90600" lat="69.0918305538" lon="19.5360249892">
		<tag k="alt_name:no" v="Skjellelva" />
		<tag k="name" v="Skilelva - Gurjoriehpijohka" />
		<tag k="name:no" v="Skilelva" />
		<tag k="name:se" v="Gurjoriehpijohka" />
		<tag k="ssr:stedsnr" v="625465" />
		<tag k="waterway" v="stream" />
	</node>
	<node id="-88549" lat="69.2547500014" lon="19.0454416529">
		<tag k="alt_name" v="Hallarvatnet, øvre" />
		<tag k="name" v="Øvre Hallarvatn" />
		<tag k="natural" v="water" />
		<tag k="ssr:stedsnr" v="564033" />
	</node>
	<node id="-90596" lat="69.5136694431" lon="18.4916972262">
		<tag k="name" v="Skjellelva" />
		<tag k="ssr:stedsnr" v="625449" />
		<tag k="waterway" v="stream" />
	</node>
	<node id="-88547" lat="69.1176694429" lon="19.3740027801">
		<tag k="alt_name" v="Svendborgelva" />
		<tag k="name" v="Svensborgelva" />
		<tag k="ssr:stedsnr" v="564025" />
		<tag k="waterway" v="river" />
	</node>
	<node id="-90594" lat="69.2887805569" lon="19.4873638839">
		<tag k="name" v="Lavvasselva" />
		<tag k="ssr:stedsnr" v="625360" />
		<tag k="waterway" v="stream" />
	</node>
	<node id="-88544" lat="69.4389111082" lon="19.2877527657">
		<tag k="loc_name:se" v="Smálatjohka" />
		<tag k="name" v="Smalakelva" />
		<tag k="name:no" v="Smalakelva" />
		<tag k="ssr:stedsnr" v="564011" />
		<tag k="waterway" v="river" />
	</node>
	<node id="-91003" lat="69.3890527817" lon="19.2668888826">
		<tag k="name" v="Vaskarelva" />
		<tag k="ssr:stedsnr" v="838580" />
		<tag k="waterway" v="stream" />
	</node>
	<node id="-90580" lat="69.2401027805" lon="19.7381916499">
		<tag k="name" v="Čazajávri" />
		<tag k="name:se" v="Čazajávri" />
		<tag k="natural" v="water" />
		<tag k="ssr:stedsnr" v="625180" />
	</node>
	<node id="-91214" lat="69.2086777821" lon="19.5072499967">
		<tag k="name" v="Skjellelva" />
		<tag k="ssr:stedsnr" v="959467" />
		<tag k="waterway" v="stream" />
	</node>
	<node id="-88530" lat="69.1266555567" lon="19.049111113">
		<tag k="name" v="Hestholmen" />
		<tag k="place" v="islet" />
		<tag k="ssr:stedsnr" v="535753" />
	</node>
	<node id="-88527" lat="69.4143083319" lon="18.917950002">
		<tag k="name" v="Skáidi" />
		<tag k="name:se" v="Skáidi" />
		<tag k="natural" v="cape" />
		<tag k="ssr:stedsnr" v="535631" />
	</node>
	<node id="-88525" lat="69.1525416681" lon="19.172488881">
		<tag k="name" v="Skarelva" />
		<tag k="ssr:stedsnr" v="535390" />
		<tag k="waterway" v="stream" />
	</node>
	<node id="-88521" lat="69.4591527752" lon="18.4659194432">
		<tag k="name" v="Slåttvikelva ytre" />
		<tag k="ssr:stedsnr" v="535359" />
		<tag k="waterway" v="stream" />
	</node>
	<node id="-90564" lat="69.2823361069" lon="18.8913277815">
		<tag k="name" v="Tjørna" />
		<tag k="natural" v="water" />
		<tag k="ssr:stedsnr" v="625083" />
	</node>
	<node id="-90563" lat="69.2077055522" lon="19.8037444271">
		<tag k="name" v="Forelva" />
		<tag k="ssr:stedsnr" v="625080" />
		<tag k="waterway" v="stream" />
	</node>
	<node id="-91211" lat="69.2258833366" lon="19.4325861063">
		<tag k="name" v="Slettneselva" />
		<tag k="ssr:stedsnr" v="959414" />
		<tag k="waterway" v="stream" />
	</node>
	<node id="-90559" lat="69.2770416689" lon="19.0260388724">
		<tag k="name" v="Nordfjordvatnet" />
		<tag k="natural" v="water" />
		<tag k="ssr:stedsnr" v="625061" />
		<tag k="water" v="lake" />
	</node>
	<node id="-90557" lat="69.2604166709" lon="18.8662222088">
		<tag k="name" v="Sagvatnet" />
		<tag k="natural" v="water" />
		<tag k="ssr:stedsnr" v="625033" />
	</node>
	<node id="-90556" lat="69.253944443" lon="18.8261277669">
		<tag k="name" v="Smalvatnet" />
		<tag k="natural" v="water" />
		<tag k="ssr:stedsnr" v="625032" />
	</node>
	<node id="-90555" lat="69.1881138931" lon="19.6346833122">
		<tag k="name" v="Tranvatnet" />
		<tag k="natural" v="water" />
		<tag k="ssr:stedsnr" v="625024" />
	</node>
	<node id="-87796" lat="69.3787416633" lon="19.3196361066">
		<tag k="name" v="Jarnelva" />
		<tag k="ssr:stedsnr" v="292880" />
		<tag k="waterway" v="stream" />
	</node>
	<node id="-88498" lat="69.2240888908" lon="19.5346444256">
		<tag k="name" v="Sarasidielva" />
		<tag k="ssr:stedsnr" v="534245" />
		<tag k="waterway" v="stream" />
	</node>
	<node id="-88495" lat="69.0542222272" lon="19.3409527601">
		<tag k="name" v="Sagfossen" />
		<tag k="natural" v="waterfall" />
		<tag k="ssr:stedsnr" v="529774" />
	</node>
	<node id="-90541" lat="69.1380999981" lon="19.7379444379">
		<tag k="name" v="Kjempeelva - Stállováhjohka" />
		<tag k="name:no" v="Kjempeelva" />
		<tag k="name:se" v="Stállováhjohka" />
		<tag k="ssr:stedsnr" v="624022" />
		<tag k="waterway" v="stream" />
	</node>
	<node id="-88491" lat="69.3729222197" lon="18.7952722247">
		<tag k="name" v="Rundvatnet" />
		<tag k="natural" v="water" />
		<tag k="ssr:stedsnr" v="686966" />
	</node>
	<node id="-90240" lat="69.2783777798" lon="19.0857083383">
		<tag k="name" v="Grønnåselva" />
		<tag k="ssr:stedsnr" v="535300" />
		<tag k="waterway" v="stream" />
	</node>
	<node id="-88482" lat="69.4175999964" lon="18.8252472209">
		<tag k="name" v="Vassurdvatnan" />
		<tag k="natural" v="water" />
		<tag k="ssr:stedsnr" v="686910" />
		<tag k="water" v="lake" />
	</node>
	<node id="-90305" lat="69.2923611093" lon="18.745477773">
		<tag k="name" v="Jordvatnet" />
		<tag k="natural" v="water" />
		<tag k="ssr:stedsnr" v="564075" />
	</node>
	<node id="-90526" lat="69.2783222189" lon="18.8084166617">
		<tag k="name" v="Holmevatnet" />
		<tag k="natural" v="water" />
		<tag k="ssr:stedsnr" v="596775" />
	</node>
	<node id="-88477" lat="69.1278944441" lon="19.0386694442">
		<tag k="name" v="Langneset" />
		<tag k="natural" v="cape" />
		<tag k="ssr:stedsnr" v="686771" />
	</node>
	<node id="-90522" lat="69.2645944447" lon="18.7942166537">
		<tag k="name" v="Storfossen" />
		<tag k="natural" v="waterfall" />
		<tag k="ssr:stedsnr" v="596664" />
	</node>
	<node id="-88467" lat="69.0917083305" lon="19.7172472164">
		<tag k="alt_name:se" v="Dápmotjohka" />
		<tag k="name" v="Tamokelva - Dápmotvuovddijohka" />
		<tag k="name:no" v="Tamokelva" />
		<tag k="name:se" v="Dápmotvuovddijohka" />
		<tag k="ssr:stedsnr" v="686489" />
		<tag k="waterway" v="river" />
	</node>
	<node id="-88462" lat="69.2932527792" lon="19.4960749938">
		<tag k="name" v="Litlevasselva" />
		<tag k="ssr:stedsnr" v="686331" />
		<tag k="waterway" v="stream" />
	</node>
	<node id="-90508" lat="69.2486972239" lon="18.9315583164">
		<tag k="name" v="Hestebukta" />
		<tag k="natural" v="bay" />
		<tag k="ssr:stedsnr" v="596441" />
	</node>
	<node id="-90503" lat="69.3642861145" lon="18.8911555571">
		<tag k="name" v="Reinskarelva" />
		<tag k="ssr:stedsnr" v="596363" />
		<tag k="waterway" v="stream" />
	</node>
	<node id="-90177" lat="69.2086138929" lon="19.5860833285">
		<tag k="name" v="Svartfosselva" />
		<tag k="ssr:stedsnr" v="522203" />
		<tag k="waterway" v="stream" />
	</node>
	<node id="-90494" lat="69.0975055515" lon="19.6906999887">
		<tag k="name" v="Verselbekken" />
		<tag k="ssr:stedsnr" v="595998" />
		<tag k="waterway" v="stream" />
	</node>
	<node id="-87445" lat="69.3069388867" lon="18.6731555466">
		<tag k="name" v="Aurselva" />
		<tag k="ssr:stedsnr" v="18105" />
		<tag k="waterway" v="stream" />
	</node>
	<node id="-90492" lat="69.1268611107" lon="19.7479527599">
		<tag k="name" v="Kjempeelva" />
		<tag k="ssr:stedsnr" v="595995" />
		<tag k="waterway" v="stream" />
	</node>
	<node id="-89052" lat="69.2304000005" lon="18.9275111128">
		<tag k="name" v="Fiskelaustindbukta" />
		<tag k="natural" v="bay" />
		<tag k="ssr:stedsnr" v="900472" />
	</node>
	<node id="-88442" lat="69.2186111092" lon="19.6391111001">
		<tag k="name" v="Olderelva" />
		<tag k="ssr:stedsnr" v="686098" />
		<tag k="waterway" v="stream" />
	</node>
	<node id="-91199" lat="69.4462222176" lon="18.4988583381">
		<tag k="name" v="Krokbekken" />
		<tag k="ssr:stedsnr" v="959329" />
		<tag k="waterway" v="stream" />
	</node>
	<node id="-90484" lat="69.0973055545" lon="19.6961638831">
		<tag k="name" v="Fiskebekken" />
		<tag k="ssr:stedsnr" v="595866" />
		<tag k="waterway" v="stream" />
	</node>
	<node id="-90481" lat="69.3795194492" lon="18.7647777654">
		<tag k="name" v="Fjellelva" />
		<tag k="ssr:stedsnr" v="595772" />
		<tag k="waterway" v="stream" />
	</node>
	<node id="-88431" lat="69.1846944435" lon="19.2978555499">
		<tag k="alt_name" v="Litlehølen" />
		<tag k="name" v="Litjehølen" />
		<tag k="place" v="locality" />
		<tag k="ssr:stedsnr" v="686079" />
	</node>
	<node id="-88426" lat="69.2784555564" lon="19.0233500037">
		<tag k="name" v="Senneset" />
		<tag k="natural" v="cape" />
		<tag k="ssr:stedsnr" v="686066" />
	</node>
	<node id="-90473" lat="69.389119446" lon="19.1042694375">
		<tag k="name" v="Røstedalelva" />
		<tag k="ssr:stedsnr" v="595689" />
		<tag k="waterway" v="stream" />
	</node>
	<node id="-88422" lat="69.2731305585" lon="18.8492583309">
		<tag k="alt_name" v="Sløykevatnet" />
		<tag k="name" v="Sløkjevatnet" />
		<tag k="natural" v="water" />
		<tag k="ssr:stedsnr" v="686062" />
	</node>
	<node id="-88421" lat="69.2108972229" lon="19.6549444212">
		<tag k="loc_name:se" v="Gaikumajohka" />
		<tag k="name" v="Revaelva" />
		<tag k="name:no" v="Revaelva" />
		<tag k="ssr:stedsnr" v="686060" />
		<tag k="waterway" v="river" />
	</node>
	<node id="-90466" lat="69.2868277757" lon="19.2695138732">
		<tag k="name" v="Blåbærlielva" />
		<tag k="ssr:stedsnr" v="595536" />
		<tag k="waterway" v="stream" />
	</node>
	<node id="-90463" lat="69.124352778" lon="19.1209611034">
		<tag k="name" v="Brattelva" />
		<tag k="ssr:stedsnr" v="595466" />
		<tag k="waterway" v="stream" />
	</node>
	<node id="-88412" lat="69.153844446" lon="19.0382916697">
		<tag k="name" v="Kvilarvatnet" />
		<tag k="natural" v="water" />
		<tag k="ssr:stedsnr" v="685805" />
	</node>
	<node id="-90459" lat="69.0863111085" lon="19.199586101">
		<tag k="name" v="Båtelva" />
		<tag k="ssr:stedsnr" v="595447" />
		<tag k="waterway" v="stream" />
	</node>
	<node id="-91121" lat="69.2951888859" lon="18.8206999901">
		<tag k="name" v="Muntervatnet" />
		<tag k="natural" v="water" />
		<tag k="ssr:stedsnr" v="868077" />
		<tag k="water" v="lake" />
	</node>
	<node id="-90454" lat="69.2545166622" lon="19.1419166657">
		<tag k="name" v="Skjellelva" />
		<tag k="ssr:stedsnr" v="595411" />
		<tag k="waterway" v="stream" />
	</node>
	<node id="-91193" lat="69.3421333328" lon="19.2017194269">
		<tag k="name" v="Hammarbekken" />
		<tag k="ssr:stedsnr" v="959173" />
		<tag k="waterway" v="stream" />
	</node>
	<node id="-88404" lat="69.131058331" lon="19.6775833275">
		<tag k="name" v="Kilden" />
		<tag k="ssr:stedsnr" v="685029" />
		<tag k="waterway" v="stream" />
	</node>
	<node id="-90451" lat="69.2578666658" lon="19.1415805378">
		<tag k="name" v="Petersborgbukta" />
		<tag k="natural" v="bay" />
		<tag k="ssr:stedsnr" v="595399" />
	</node>
	<node id="-88402" lat="69.1223472243" lon="19.3121611069">
		<tag k="alt_name" v="Tjørna" />
		<tag k="name" v="Tjønna" />
		<tag k="natural" v="water" />
		<tag k="ssr:stedsnr" v="685024" />
	</node>
	<node id="-88401" lat="69.1348055527" lon="19.7700083202">
		<tag k="name" v="Skredbekken" />
		<tag k="ssr:stedsnr" v="685021" />
		<tag k="waterway" v="stream" />
	</node>
	<node id="-90448" lat="69.2636833356" lon="19.1335110965">
		<tag k="name" v="Olsborgbukta" />
		<tag k="natural" v="bay" />
		<tag k="ssr:stedsnr" v="595389" />
	</node>
	<node id="-90575" lat="69.3101444452" lon="19.3114388782">
		<tag k="alt_name" v="Ternesvatnet" />
		<tag k="name" v="Tennesvatnet" />
		<tag k="natural" v="water" />
		<tag k="ssr:stedsnr" v="625151" />
	</node>
	<node id="-90167" lat="69.4417444474" lon="18.7389555397">
		<tag k="name" v="Holman" />
		<tag k="place" v="islet" />
		<tag k="ssr:stedsnr" v="414784" />
	</node>
	<node id="-88392" lat="69.069433334" lon="19.2904472109">
		<tag k="name" v="Bulombola" />
		<tag k="natural" v="water" />
		<tag k="ssr:stedsnr" v="504458" />
		<tag k="water" v="lake" />
	</node>
	<node id="-90438" lat="69.227719445" lon="19.1370805534">
		<tag k="name" v="Hammarelva" />
		<tag k="ssr:stedsnr" v="595251" />
		<tag k="waterway" v="stream" />
	</node>
	<node id="-90435" lat="69.2232361087" lon="19.5872277704">
		<tag k="name" v="Bomstadelva" />
		<tag k="ssr:stedsnr" v="595229" />
		<tag k="waterway" v="stream" />
	</node>
	<node id="-90432" lat="69.2858111114" lon="19.2594083198">
		<tag k="name" v="Skredlielva" />
		<tag k="ssr:stedsnr" v="595192" />
		<tag k="waterway" v="stream" />
	</node>
	<node id="-88383" lat="69.3484166667" lon="19.5657583209">
		<tag k="name" v="Tverrelva" />
		<tag k="ssr:stedsnr" v="504122" />
		<tag k="waterway" v="stream" />
	</node>
	<node id="-90428" lat="69.3410000048" lon="19.1840527696">
		<tag k="name" v="Laelva" />
		<tag k="ssr:stedsnr" v="595172" />
		<tag k="waterway" v="stream" />
	</node>
	<node id="-88378" lat="69.1173749969" lon="19.7372527657">
		<tag k="name" v="Holmeslettbekken" />
		<tag k="ssr:stedsnr" v="503468" />
		<tag k="waterway" v="stream" />
	</node>
	<node id="-90847" lat="69.2978777799" lon="18.9958888811">
		<tag k="name" v="Vasskildene" />
		<tag k="natural" v="spring" />
		<tag k="ssr:stedsnr" v="778675" />
	</node>
	<node id="-88376" lat="69.1067166689" lon="19.2436555369">
		<tag k="name" v="Gommovatnet" />
		<tag k="natural" v="water" />
		<tag k="ssr:stedsnr" v="503462" />
	</node>
	<node id="-88374" lat="69.0865166681" lon="19.7507110908">
		<tag k="name" v="Vassdalselva - Čáhceváhjohka" />
		<tag k="name:no" v="Vassdalselva" />
		<tag k="name:se" v="Čáhceváhjohka" />
		<tag k="ssr:stedsnr" v="503070" />
		<tag k="waterway" v="river" />
	</node>
	<node id="-88371" lat="69.2185472252" lon="19.3247138943">
		<tag k="name" v="Bjørnveita" />
		<tag k="ssr:stedsnr" v="503134" />
		<tag k="waterway" v="stream" />
	</node>
	<node id="-90418" lat="69.0440555544" lon="19.3973305407">
		<tag k="name" v="Hyttetjønna" />
		<tag k="natural" v="water" />
		<tag k="ssr:stedsnr" v="595076" />
	</node>
	<node id="-88369" lat="69.3053444431" lon="18.7139055599">
		<tag k="name" v="Kjerkevikvatnet" />
		<tag k="natural" v="water" />
		<tag k="ssr:stedsnr" v="503103" />
		<tag k="water" v="lake" />
	</node>
	<node id="-90416" lat="69.3316833324" lon="19.2304472175">
		<tag k="name" v="Mølnelvvatnan" />
		<tag k="natural" v="water" />
		<tag k="ssr:stedsnr" v="595055" />
		<tag k="water" v="lake" />
	</node>
	<node id="-90414" lat="69.3866861083" lon="18.7121860943">
		<tag k="name" v="Stabbevatnet" />
		<tag k="natural" v="water" />
		<tag k="ssr:stedsnr" v="595026" />
		<tag k="water" v="lake" />
	</node>
	<node id="-88361" lat="69.3182666655" lon="19.4460222065">
		<tag k="name" v="Svartelva" />
		<tag k="ssr:stedsnr" v="443132" />
		<tag k="waterway" v="stream" />
	</node>
	<node id="-90407" lat="69.1777666693" lon="19.7950499803">
		<tag k="name" v="Stordalsfossen" />
		<tag k="natural" v="waterfall" />
		<tag k="ssr:stedsnr" v="594245" />
	</node>
	<node id="-90406" lat="69.0995916684" lon="19.3210305437">
		<tag k="name" v="Hundstranda" />
		<tag k="natural" v="beach" />
		<tag k="ssr:stedsnr" v="583926" />
	</node>
	<node id="-88354" lat="69.2152111137" lon="19.3546499981">
		<tag k="name" v="Olderelva" />
		<tag k="ssr:stedsnr" v="443102" />
		<tag k="waterway" v="river" />
	</node>
	<node id="-90398" lat="69.3562166692" lon="19.3713444488">
		<tag k="name" v="Skjellelva" />
		<tag k="ssr:stedsnr" v="582589" />
		<tag k="waterway" v="stream" />
	</node>
	<node id="-90397" lat="69.3304777758" lon="19.431355534">
		<tag k="name" v="Mordelva" />
		<tag k="ssr:stedsnr" v="582585" />
		<tag k="waterway" v="stream" />
	</node>
	<node id="-90396" lat="69.1934611087" lon="19.6435833223">
		<tag k="name" v="Skáidi" />
		<tag k="name:se" v="Skáidi" />
		<tag k="natural" v="cape" />
		<tag k="ssr:stedsnr" v="582206" />
	</node>
	<node id="-90395" lat="69.1882111079" lon="19.6310444319">
		<tag k="name" v="Øverelva" />
		<tag k="ssr:stedsnr" v="582202" />
		<tag k="waterway" v="stream" />
	</node>
	<node id="-90394" lat="69.1877583335" lon="19.7024083302">
		<tag k="name" v="Smørpundfossen" />
		<tag k="natural" v="waterfall" />
		<tag k="ssr:stedsnr" v="582194" />
	</node>
	<node id="-91183" lat="69.2060166691" lon="19.2030694274">
		<tag k="name" v="Krokelvvatnet" />
		<tag k="natural" v="water" />
		<tag k="ssr:stedsnr" v="868993" />
		<tag k="water" v="lake" />
	</node>
	<node id="-88341" lat="69.3198638928" lon="18.7769527647">
		<tag k="name" v="Hamnvågelva" />
		<tag k="ssr:stedsnr" v="657614" />
		<tag k="waterway" v="stream" />
	</node>
	<node id="-90384" lat="69.3310805575" lon="19.0878500026">
		<tag k="name" v="Hestvatnet" />
		<tag k="natural" v="water" />
		<tag k="ssr:stedsnr" v="564986" />
	</node>
	<node id="-90383" lat="69.3546666642" lon="18.8045138718">
		<tag k="name" v="Storhaugvatnet" />
		<tag k="natural" v="water" />
		<tag k="ssr:stedsnr" v="564984" />
	</node>
	<node id="-88332" lat="69.1865444417" lon="19.3243500016">
		<tag k="name" v="Frillarbergbekken" />
		<tag k="ssr:stedsnr" v="656792" />
		<tag k="waterway" v="stream" />
	</node>
	<node id="-88330" lat="69.1202138877" lon="19.0906083144">
		<tag k="name" v="Holmelva" />
		<tag k="ssr:stedsnr" v="656787" />
		<tag k="waterway" v="stream" />
	</node>
	<node id="-87767" lat="69.4719833359" lon="18.4916611142">
		<tag k="name" v="Vollelva" />
		<tag k="ssr:stedsnr" v="292337" />
		<tag k="waterway" v="stream" />
	</node>
	<node id="-88328" lat="69.1360666666" lon="19.054588875">
		<tag k="name" v="Markusneset" />
		<tag k="natural" v="cape" />
		<tag k="ssr:stedsnr" v="656779" />
	</node>
	<node id="-90369" lat="69.4202972243" lon="18.9381055528">
		<tag k="name" v="Potraselva" />
		<tag k="ssr:stedsnr" v="564908" />
		<tag k="waterway" v="river" />
	</node>
	<node id="-90368" lat="69.2414583375" lon="18.873363888">
		<tag k="name" v="Storelva" />
		<tag k="ssr:stedsnr" v="564907" />
		<tag k="waterway" v="stream" />
	</node>
	<node id="-88319" lat="69.2535222223" lon="18.8426972238">
		<tag k="name" v="Øvre Damvatn" />
		<tag k="natural" v="water" />
		<tag k="ssr:stedsnr" v="656649" />
		<tag k="water" v="lake" />
	</node>
	<node id="-88314" lat="69.2621222242" lon="18.8558694385">
		<tag k="name" v="Mellaelvfossen" />
		<tag k="natural" v="waterfall" />
		<tag k="ssr:stedsnr" v="656605" />
	</node>
	<node id="-88313" lat="69.25619444" lon="18.8787027771">
		<tag k="name" v="Damvasshalsen" />
		<tag k="natural" v="strait" />
		<tag k="ssr:stedsnr" v="656596" />
	</node>
	<node id="-88311" lat="69.356475" lon="18.8526333357">
		<tag k="name" v="Saraneset" />
		<tag k="natural" v="cape" />
		<tag k="ssr:stedsnr" v="656585" />
	</node>
	<node id="-90354" lat="69.1107694451" lon="19.6953249941">
		<tag k="name" v="Vargebekken" />
		<tag k="ssr:stedsnr" v="564509" />
		<tag k="waterway" v="stream" />
	</node>
	<node id="-87763" lat="69.5007499981" lon="18.4524222096">
		<tag k="name" v="Krokelva" />
		<tag k="ssr:stedsnr" v="292315" />
		<tag k="waterway" v="stream" />
	</node>
	<node id="-90352" lat="69.1047" lon="19.7156249928">
		<tag k="name" v="Tamokvatnet - Dápmotjávri" />
		<tag k="name:no" v="Tamokvatnet" />
		<tag k="name:se" v="Dápmotjávri" />
		<tag k="natural" v="water" />
		<tag k="ssr:stedsnr" v="564500" />
	</node>
	<node id="-88302" lat="69.3626000016" lon="18.8734916646">
		<tag k="name" v="Litjeelva" />
		<tag k="ssr:stedsnr" v="656945" />
		<tag k="waterway" v="stream" />
	</node>
	<node id="-88301" lat="69.4001805536" lon="19.1024833373">
		<tag k="name" v="Gårdselva" />
		<tag k="ssr:stedsnr" v="656896" />
		<tag k="waterway" v="stream" />
	</node>
	<node id="-88299" lat="69.0921666674" lon="19.2646361075">
		<tag k="name" v="Bergevatnet" />
		<tag k="natural" v="water" />
		<tag k="ssr:stedsnr" v="656450" />
	</node>
	<node id="-90346" lat="69.070863893" lon="19.7371110935">
		<tag k="alt_name:se" v="Mierojohka" />
		<tag k="name" v="Neroelva - Njirrujohka" />
		<tag k="name:no" v="Neroelva" />
		<tag k="name:se" v="Njirrujohka" />
		<tag k="ssr:stedsnr" v="564469" />
		<tag k="waterway" v="river" />
	</node>
	<node id="-90344" lat="69.0509694472" lon="19.2520499869">
		<tag k="name" v="Melkelva" />
		<tag k="ssr:stedsnr" v="564466" />
		<tag k="waterway" v="river" />
	</node>
	<node id="-90343" lat="69.0535500004" lon="19.343061098">
		<tag k="alt_name" v="Fjellfrøsfossane" />
		<tag k="name" v="Fjellfrøsfossan" />
		<tag k="natural" v="waterfall" />
		<tag k="ssr:stedsnr" v="564464" />
	</node>
	<node id="-90338" lat="69.2807083379" lon="19.2402583173">
		<tag k="name" v="Tverrelva" />
		<tag k="ssr:stedsnr" v="564370" />
		<tag k="waterway" v="stream" />
	</node>
	<node id="-90337" lat="69.2896166639" lon="19.4592527745">
		<tag k="name" v="Storvatnet" />
		<tag k="natural" v="water" />
		<tag k="ssr:stedsnr" v="564358" />
	</node>
	<node id="-90336" lat="69.3016305526" lon="19.4483611021">
		<tag k="name" v="Fjellvatnet" />
		<tag k="natural" v="water" />
		<tag k="ssr:stedsnr" v="564350" />
	</node>
	<node id="-91165" lat="69.4417999961" lon="18.9106333342">
		<tag k="name" v="Leirelva" />
		<tag k="ssr:stedsnr" v="868880" />
		<tag k="waterway" v="stream" />
	</node>
	<node id="-89125" lat="69.2362722255" lon="19.1202861111">
		<tag k="name" v="Fiskevatnet" />
		<tag k="natural" v="water" />
		<tag k="ssr:stedsnr" v="18963" />
	</node>
	<node id="-90330" lat="69.2835194447" lon="19.4394666564">
		<tag k="name" v="Rennerelva" />
		<tag k="ssr:stedsnr" v="564305" />
		<tag k="waterway" v="stream" />
	</node>
	<node id="-90329" lat="69.1498111155" lon="19.8568999834">
		<tag k="name" v="Jiekŋariehpijohka" />
		<tag k="name:se" v="Jiekŋariehpijohka" />
		<tag k="ssr:stedsnr" v="564288" />
		<tag k="waterway" v="river" />
	</node>
	<node id="-90148" lat="69.2846916679" lon="18.9798249844">
		<tag k="name" v="Bekken" />
		<tag k="ssr:stedsnr" v="414366" />
		<tag k="waterway" v="stream" />
	</node>
	<node id="-88441" lat="69.2156805523" lon="19.7620027622">
		<tag k="name" v="Hansjordelva" />
		<tag k="ssr:stedsnr" v="686097" />
		<tag k="waterway" v="stream" />
	</node>
	<node id="-90323" lat="69.3168027813" lon="19.2787916691">
		<tag k="name" v="Storelva" />
		<tag k="ssr:stedsnr" v="564147" />
		<tag k="waterway" v="stream" />
	</node>
	<node id="-91124" lat="69.217397222" lon="19.6512611019">
		<tag k="name" v="Brennmoelva" />
		<tag k="ssr:stedsnr" v="868099" />
		<tag k="waterway" v="stream" />
	</node>
	<node id="-88270" lat="69.2943444416" lon="19.0872388724">
		<tag k="name" v="Småvatnan" />
		<tag k="natural" v="water" />
		<tag k="ssr:stedsnr" v="656295" />
		<tag k="water" v="lake" />
	</node>
	<node id="-88269" lat="69.091080555" lon="19.150994441">
		<tag k="name" v="Skjæret" />
		<tag k="place" v="islet" />
		<tag k="ssr:stedsnr" v="656294" />
	</node>
	<node id="-88267" lat="69.4048777775" lon="18.6659277655">
		<tag k="name" v="Krokelva" />
		<tag k="ssr:stedsnr" v="656030" />
		<tag k="waterway" v="stream" />
	</node>
	<node id="-90314" lat="69.2395638876" lon="19.6473999815">
		<tag k="loc_name:se" v="Rássejohka" />
		<tag k="name" v="Lysvasselva" />
		<tag k="name:no" v="Lysvasselva" />
		<tag k="ssr:stedsnr" v="564120" />
		<tag k="waterway" v="river" />
	</node>
	<node id="-90313" lat="69.3141305546" lon="18.6827277718">
		<tag k="fixme" v="multiple name tags, choose one and add the other to alt_name" />
		<tag k="name" v="Småslettelva;Vikaelva" />
		<tag k="ssr:stedsnr" v="564109" />
		<tag k="waterway" v="stream" />
	</node>
	<node id="-88264" lat="69.2334972186" lon="18.9775305454">
		<tag k="name" v="Storelva" />
		<tag k="ssr:stedsnr" v="655936" />
		<tag k="waterway" v="river" />
	</node>
	<node id="-90309" lat="69.2065277757" lon="19.2278972138">
		<tag k="alt_name" v="Middagsvatnet" />
		<tag k="name" v="Middagshaugvatnet" />
		<tag k="natural" v="water" />
		<tag k="ssr:stedsnr" v="564097" />
	</node>
	<node id="-88260" lat="69.4374888919" lon="19.0533777635">
		<tag k="name" v="Blåsteinelva" />
		<tag k="ssr:stedsnr" v="655757" />
		<tag k="waterway" v="stream" />
	</node>
	<node id="-88257" lat="69.2554583329" lon="18.8612360959">
		<tag k="name" v="Melladamvatnet" />
		<tag k="natural" v="water" />
		<tag k="ssr:stedsnr" v="414634" />
		<tag k="water" v="lake" />
	</node>
	<node id="-88256" lat="69.3014138911" lon="18.8190583197">
		<tag k="name" v="Nøkkvatnet" />
		<tag k="natural" v="water" />
		<tag k="ssr:stedsnr" v="414632" />
	</node>
	<node id="-88255" lat="69.3021055567" lon="18.8452666676">
		<tag k="name" v="Fjellelva" />
		<tag k="ssr:stedsnr" v="414620" />
		<tag k="waterway" v="stream" />
	</node>
	<node id="-88254" lat="69.277561114" lon="18.8291583317">
		<tag k="name" v="Holmen" />
		<tag k="place" v="islet" />
		<tag k="ssr:stedsnr" v="414503" />
	</node>
	<node id="-90301" lat="69.4408777799" lon="18.7657166602">
		<tag k="alt_name" v="Reinelva" />
		<tag k="name" v="Reindalselva" />
		<tag k="ssr:stedsnr" v="564069" />
		<tag k="waterway" v="river" />
	</node>
	<node id="-88252" lat="69.3310500034" lon="19.1527388945">
		<tag k="name" v="Tverrelvene" />
		<tag k="ssr:stedsnr" v="413261" />
		<tag k="waterway" v="stream" />
	</node>
	<node id="-90299" lat="69.1979694467" lon="19.2894722151">
		<tag k="name" v="Hølelva" />
		<tag k="ssr:stedsnr" v="564067" />
		<tag k="waterway" v="river" />
	</node>
	<node id="-90298" lat="69.3189249969" lon="19.577938877">
		<tag k="name" v="Trollelva" />
		<tag k="ssr:stedsnr" v="564064" />
		<tag k="waterway" v="river" />
	</node>
	<node id="-89119" lat="69.2470388868" lon="18.92427777">
		<tag k="alt_name" v="Snauneset" />
		<tag k="name" v="Ytre Snaunes" />
		<tag k="natural" v="cape" />
		<tag k="ssr:stedsnr" v="18896" />
	</node>
	<node id="-90296" lat="69.2858694431" lon="19.0640361147">
		<tag k="alt_name" v="Hestvatnet" />
		<tag k="name" v="Hestevatnet" />
		<tag k="natural" v="water" />
		<tag k="ssr:stedsnr" v="564062" />
	</node>
	<node id="-90291" lat="69.1844527763" lon="19.0874222083">
		<tag k="name" v="Klubbenes" />
		<tag k="natural" v="cape" />
		<tag k="ssr:stedsnr" v="563979" />
	</node>
	<node id="-90287" lat="69.1624972235" lon="18.9897583259">
		<tag k="name" v="Bergelva" />
		<tag k="ssr:stedsnr" v="563794" />
		<tag k="waterway" v="stream" />
	</node>
	<node id="-90286" lat="69.1575472238" lon="19.2116333285">
		<tag k="alt_name" v="Juksavatnet, l" />
		<tag k="name" v="Litje Juksavatnet" />
		<tag k="natural" v="water" />
		<tag k="ssr:stedsnr" v="563787" />
	</node>
	<node id="-88237" lat="69.2421555535" lon="19.1703583272">
		<tag k="alt_name" v="Balsakkvatnet" />
		<tag k="name" v="Balsaakkvatnet" />
		<tag k="natural" v="water" />
		<tag k="ssr:stedsnr" v="504964" />
	</node>
	<node id="-88236" lat="69.2452833357" lon="19.1355777801">
		<tag k="name" v="Lomvatnan" />
		<tag k="natural" v="water" />
		<tag k="ssr:stedsnr" v="504961" />
		<tag k="water" v="lake" />
	</node>
	<node id="-90283" lat="69.1841611104" lon="19.3036972103">
		<tag k="alt_name" v="Fiskerelva" />
		<tag k="name" v="Fiskebekken" />
		<tag k="ssr:stedsnr" v="563043" />
		<tag k="waterway" v="stream" />
	</node>
	<node id="-90282" lat="69.1423777823" lon="19.2680666483">
		<tag k="fixme" v="multiple name tags, choose one and add the other to alt_name" />
		<tag k="name" v="Bjørnevatnet;Stortjønna" />
		<tag k="natural" v="water" />
		<tag k="ssr:stedsnr" v="563003" />
	</node>
	<node id="-88233" lat="69.4093166715" lon="19.0750916564">
		<tag k="alt_name" v="Bergeelva" />
		<tag k="name" v="Bergelva" />
		<tag k="ssr:stedsnr" v="504938" />
		<tag k="waterway" v="stream" />
	</node>
	<node id="-90277" lat="69.2647388926" lon="18.780680562">
		<tag k="name" v="Tverrelvfossen" />
		<tag k="natural" v="waterfall" />
		<tag k="ssr:stedsnr" v="536700" />
	</node>
	<node id="-90276" lat="69.2711722214" lon="18.7826388936">
		<tag k="name" v="Krokelva" />
		<tag k="ssr:stedsnr" v="536699" />
		<tag k="waterway" v="stream" />
	</node>
	<node id="-90273" lat="69.3109944448" lon="18.8245361063">
		<tag k="name" v="Storelva" />
		<tag k="ssr:stedsnr" v="536630" />
		<tag k="waterway" v="stream" />
	</node>
	<node id="-90272" lat="69.2816361134" lon="18.7769305482">
		<tag k="name" v="Øvre Tverrelvvatnet" />
		<tag k="natural" v="water" />
		<tag k="ssr:stedsnr" v="536801" />
	</node>
	<node id="-91110" lat="69.2661194487" lon="19.0840027796">
		<tag k="alt_name" v="Litlvatnet" />
		<tag k="name" v="Litjevatnet" />
		<tag k="natural" v="water" />
		<tag k="ssr:stedsnr" v="868038" />
		<tag k="water" v="lake" />
	</node>
	<node id="-90138" lat="69.3258694446" lon="18.9765388851">
		<tag k="name" v="Ørnreirelva" />
		<tag k="ssr:stedsnr" v="414262" />
		<tag k="waterway" v="stream" />
	</node>
	<node id="-90266" lat="69.0906222237" lon="19.6114805455">
		<tag k="name" v="Ytterneset" />
		<tag k="place" v="island" />
		<tag k="ssr:stedsnr" v="535922" />
	</node>
	<node id="-90479" lat="69.222369449" lon="19.2784583234">
		<tag k="name" v="Djupkjosen" />
		<tag k="natural" v="bay" />
		<tag k="ssr:stedsnr" v="595758" />
	</node>
	<node id="-88216" lat="69.3121333316" lon="19.4412361017">
		<tag k="name" v="Mølnelva" />
		<tag k="ssr:stedsnr" v="504094" />
		<tag k="waterway" v="stream" />
	</node>
	<node id="-90820" lat="69.3990694458" lon="18.6590666538">
		<tag k="name" v="Skrivarholmbukta" />
		<tag k="natural" v="bay" />
		<tag k="ssr:stedsnr" v="778194" />
	</node>
	<node id="-90259" lat="69.1218222199" lon="19.0747194323">
		<tag k="name" v="Ausa" />
		<tag k="place" v="islet" />
		<tag k="ssr:stedsnr" v="535853" />
	</node>
	<node id="-90256" lat="69.312922224" lon="19.3001333294">
		<tag k="name" v="Veita" />
		<tag k="ssr:stedsnr" v="535716" />
		<tag k="waterway" v="stream" />
	</node>
	<node id="-88206" lat="69.2696277742" lon="19.0370583265">
		<tag k="name" v="Hundstrupelva" />
		<tag k="ssr:stedsnr" v="504033" />
		<tag k="waterway" v="river" />
	</node>
	<node id="-87745" lat="69.2986527732" lon="19.4728583331">
		<tag k="name" v="Finnkjerringvatnan" />
		<tag k="natural" v="water" />
		<tag k="ssr:stedsnr" v="292122" />
		<tag k="water" v="lake" />
	</node>
	<node id="-88195" lat="69.4947388904" lon="18.4753305393">
		<tag k="name" v="Skredelva" />
		<tag k="ssr:stedsnr" v="503608" />
		<tag k="waterway" v="stream" />
	</node>
	<node id="-90242" lat="69.2195722192" lon="19.2448249968">
		<tag k="name" v="Falkemoveita" />
		<tag k="ssr:stedsnr" v="535334" />
		<tag k="waterway" v="stream" />
	</node>
	<node id="-88192" lat="69.300458332" lon="19.450949995">
		<tag k="alt_name" v="Holmvatnet" />
		<tag k="name" v="Holmevatnet" />
		<tag k="natural" v="water" />
		<tag k="ssr:stedsnr" v="503322" />
	</node>
	<node id="-88191" lat="69.0644111102" lon="19.2167110927">
		<tag k="name" v="Bergvatnet" />
		<tag k="natural" v="water" />
		<tag k="ssr:stedsnr" v="503199" />
	</node>
	<node id="-88190" lat="69.2243583297" lon="19.7930999948">
		<tag k="name" v="Steinelva" />
		<tag k="ssr:stedsnr" v="503144" />
		<tag k="waterway" v="stream" />
	</node>
	<node id="-90237" lat="69.2731750019" lon="18.9353555433">
		<tag k="name" v="Sagelva" />
		<tag k="ssr:stedsnr" v="535406" />
		<tag k="waterway" v="stream" />
	</node>
	<node id="-88188" lat="69.1210222204" lon="19.8247805306">
		<tag k="name" v="Lemmetjohka" />
		<tag k="name:se" v="Lemmetjohka" />
		<tag k="ssr:stedsnr" v="503262" />
		<tag k="waterway" v="river" />
	</node>
	<node id="-88182" lat="69.2866555547" lon="18.778213883">
		<tag k="alt_name" v="Tverrelvvatnet" />
		<tag k="name" v="Mellatverrelvvatnet" />
		<tag k="natural" v="water" />
		<tag k="ssr:stedsnr" v="503091" />
	</node>
	<node id="-88180" lat="69.0663249978" lon="19.4958222051">
		<tag k="name" v="Storbekken" />
		<tag k="ssr:stedsnr" v="352930" />
		<tag k="waterway" v="stream" />
	</node>
	<node id="-90227" lat="69.2364249984" lon="19.0251249887">
		<tag k="name" v="Austerbotn" />
		<tag k="natural" v="bay" />
		<tag k="ssr:stedsnr" v="534941" />
	</node>
	<node id="-88178" lat="69.2183722209" lon="19.0637527759">
		<tag k="name" v="Nordelva" />
		<tag k="ssr:stedsnr" v="352918" />
		<tag k="waterway" v="stream" />
	</node>
	<node id="-88249" lat="69.0872555566" lon="19.1920499811">
		<tag k="name" v="Fiskebukta" />
		<tag k="natural" v="bay" />
		<tag k="ssr:stedsnr" v="413309" />
	</node>
	<node id="-88765" lat="69.2137222255" lon="19.2010944284">
		<tag k="name" v="Lysvatnet" />
		<tag k="natural" v="water" />
		<tag k="ssr:stedsnr" v="899334" />
	</node>
	<node id="-88170" lat="69.2852638856" lon="19.1506083324">
		<tag k="name" v="Mellaelvfossen" />
		<tag k="natural" v="waterfall" />
		<tag k="ssr:stedsnr" v="352105" />
	</node>
	<node id="-90214" lat="69.170430556" lon="19.3141944258">
		<tag k="name" v="Langneset" />
		<tag k="natural" v="cape" />
		<tag k="ssr:stedsnr" v="534776" />
	</node>
	<node id="-90213" lat="69.4414555587" lon="19.0382388948">
		<tag k="name" v="Kvitbergelva" />
		<tag k="ssr:stedsnr" v="534774" />
		<tag k="waterway" v="stream" />
	</node>
	<node id="-90211" lat="69.4421444481" lon="19.0191833344">
		<tag k="name" v="Leirelva" />
		<tag k="ssr:stedsnr" v="534771" />
		<tag k="waterway" v="stream" />
	</node>
	<node id="-88159" lat="69.2089138854" lon="19.6197444327">
		<tag k="name" v="Nordkjoselva - Dápmotjohka" />
		<tag k="name:no" v="Nordkjoselva" />
		<tag k="name:se" v="Dápmotjohka" />
		<tag k="ssr:stedsnr" v="322068" />
		<tag k="waterway" v="river" />
	</node>
	<node id="-88158" lat="69.209900003" lon="19.6937499887">
		<tag k="name" v="Revavatnet" />
		<tag k="natural" v="water" />
		<tag k="ssr:stedsnr" v="322067" />
	</node>
	<node id="-88157" lat="69.2125555588" lon="19.748933312">
		<tag k="name" v="Kilaelva" />
		<tag k="ssr:stedsnr" v="322065" />
		<tag k="waterway" v="stream" />
	</node>
	<node id="-90204" lat="69.0751222249" lon="19.2585555476">
		<tag k="name" v="Lokkertåsbekken" />
		<tag k="ssr:stedsnr" v="534471" />
		<tag k="waterway" v="stream" />
	</node>
	<node id="-88153" lat="69.1854305568" lon="18.9683194288">
		<tag k="name" v="Kalvfosselva" />
		<tag k="ssr:stedsnr" v="475870" />
		<tag k="waterway" v="stream" />
	</node>
	<node id="-88152" lat="69.1775055601" lon="19.0661472074">
		<tag k="name" v="Finntjønna" />
		<tag k="natural" v="water" />
		<tag k="ssr:stedsnr" v="475838" />
	</node>
	<node id="-88150" lat="69.4395500041" lon="18.740747225">
		<tag k="name" v="Sandelvstilla" />
		<tag k="natural" v="water" />
		<tag k="ssr:stedsnr" v="475805" />
		<tag k="water" v="lake" />
	</node>
	<node id="-87737" lat="69.4067944409" lon="19.2776166568">
		<tag k="name" v="Lupponeset" />
		<tag k="natural" v="cape" />
		<tag k="ssr:stedsnr" v="292446" />
	</node>
	<node id="-88148" lat="69.2781916639" lon="18.7340999955">
		<tag k="name" v="Per-Nilsafossen" />
		<tag k="natural" v="waterfall" />
		<tag k="ssr:stedsnr" v="475743" />
	</node>
	<node id="-90194" lat="69.3799055604" lon="19.3797361019">
		<tag k="name" v="Vassenden" />
		<tag k="natural" v="bay" />
		<tag k="ssr:stedsnr" v="534429" />
	</node>
	<node id="-90193" lat="69.2733694482" lon="19.1905277783">
		<tag k="name" v="Trollelva" />
		<tag k="ssr:stedsnr" v="534424" />
		<tag k="waterway" v="stream" />
	</node>
	<node id="-88144" lat="69.2541499989" lon="18.7719666669">
		<tag k="name" v="Litjetverrelva" />
		<tag k="ssr:stedsnr" v="475699" />
		<tag k="waterway" v="stream" />
	</node>
	<node id="-90190" lat="69.2719277819" lon="19.1260916512">
		<tag k="name" v="Senndalelva" />
		<tag k="ssr:stedsnr" v="534416" />
		<tag k="waterway" v="stream" />
	</node>
	<node id="-88139" lat="69.2811777762" lon="18.8456722163">
		<tag k="name" v="Storvasstjønna" />
		<tag k="natural" v="water" />
		<tag k="ssr:stedsnr" v="475522" />
	</node>
	<node id="-90807" lat="69.3619611107" lon="18.7552499936">
		<tag k="name" v="Tverrelva" />
		<tag k="ssr:stedsnr" v="778044" />
		<tag k="waterway" v="stream" />
	</node>
	<node id="-88136" lat="69.2798611121" lon="18.8727138812">
		<tag k="name" v="Sandbergvatnet" />
		<tag k="natural" v="water" />
		<tag k="ssr:stedsnr" v="475516" />
	</node>
	<node id="-90182" lat="69.3792416667" lon="19.1907361135">
		<tag k="name" v="Storsteinelva" />
		<tag k="ssr:stedsnr" v="522959" />
		<tag k="waterway" v="stream" />
	</node>
	<node id="-88129" lat="69.2533111115" lon="19.0947249923">
		<tag k="name" v="Storbekken" />
		<tag k="ssr:stedsnr" v="474978" />
		<tag k="waterway" v="stream" />
	</node>
	<node id="-88124" lat="69.1955611127" lon="19.0923583393">
		<tag k="name" v="Skarvesteinen" />
		<tag k="place" v="islet" />
		<tag k="ssr:stedsnr" v="474933" />
	</node>
	<node id="-90169" lat="69.1229666655" lon="19.0671249858">
		<tag k="name" v="Brynillan" />
		<tag k="place" v="islet" />
		<tag k="ssr:stedsnr" v="414847" />
	</node>
	<node id="-87838" lat="69.3176666637" lon="19.0104027809">
		<tag k="name" v="Kvesteinelva" />
		<tag k="ssr:stedsnr" v="200106" />
		<tag k="waterway" v="river" />
	</node>
	<node id="-88113" lat="69.3194083363" lon="18.7334666686">
		<tag k="name" v="Bukkelva" />
		<tag k="ssr:stedsnr" v="474787" />
		<tag k="waterway" v="stream" />
	</node>
	<node id="-90156" lat="69.2811194458" lon="18.8838166699">
		<tag k="name" v="Sandbergvatnet" />
		<tag k="natural" v="water" />
		<tag k="ssr:stedsnr" v="414499" />
	</node>
	<node id="-87730" lat="69.2547527801" lon="18.8083055602">
		<tag k="name" v="Eilertelva" />
		<tag k="ssr:stedsnr" v="171732" />
		<tag k="waterway" v="stream" />
	</node>
	<node id="-90154" lat="69.2609888927" lon="18.9039833229">
		<tag k="name" v="Gustavsenneset" />
		<tag k="natural" v="cape" />
		<tag k="ssr:stedsnr" v="414478" />
	</node>
	<node id="-88101" lat="69.2588277773" lon="18.8405999998">
		<tag k="name" v="Brynjulvvassbukta" />
		<tag k="natural" v="bay" />
		<tag k="ssr:stedsnr" v="474591" />
	</node>
	<node id="-88100" lat="69.2604583312" lon="18.8405388873">
		<tag k="name" v="Risholmen" />
		<tag k="place" v="islet" />
		<tag k="ssr:stedsnr" v="474589" />
	</node>
	<node id="-90145" lat="69.4514833365" lon="18.4952055618">
		<tag k="name" v="Steinbakkelva" />
		<tag k="ssr:stedsnr" v="414348" />
		<tag k="waterway" v="stream" />
	</node>
	<node id="-88096" lat="69.386500003" lon="19.2719555585">
		<tag k="name" v="Gjerdneset" />
		<tag k="natural" v="cape" />
		<tag k="ssr:stedsnr" v="474559" />
	</node>
	<node id="-88094" lat="69.17163889" lon="19.2526916633">
		<tag k="name" v="Vasslivatnet" />
		<tag k="natural" v="water" />
		<tag k="ssr:stedsnr" v="474506" />
	</node>
	<node id="-88090" lat="69.0868111082" lon="19.2129027646">
		<tag k="name" v="Ryelombola" />
		<tag k="natural" v="water" />
		<tag k="ssr:stedsnr" v="474465" />
	</node>
	<node id="-90137" lat="69.2194555567" lon="19.5586250003">
		<tag k="name" v="Steinneset" />
		<tag k="natural" v="cape" />
		<tag k="ssr:stedsnr" v="414261" />
	</node>
	<node id="-88087" lat="69.1059027755" lon="19.2391166595">
		<tag k="name" v="Gommovasselva" />
		<tag k="ssr:stedsnr" v="474453" />
		<tag k="waterway" v="stream" />
	</node>
	<node id="-90131" lat="69.2365611153" lon="18.9733749828">
		<tag k="name" v="Stranden" />
		<tag k="natural" v="beach" />
		<tag k="ssr:stedsnr" v="413998" />
	</node>
	<node id="-90130" lat="69.1113500044" lon="19.7269472091">
		<tag k="name" v="Smalelva" />
		<tag k="ssr:stedsnr" v="413995" />
		<tag k="waterway" v="stream" />
	</node>
	<node id="-88081" lat="69.2550944419" lon="19.1684638835">
		<tag k="name" v="Bergeneset" />
		<tag k="natural" v="cape" />
		<tag k="ssr:stedsnr" v="474435" />
	</node>
	<node id="-90809" lat="69.4141055529" lon="18.5847055613">
		<tag k="name" v="Sommersethelva" />
		<tag k="ssr:stedsnr" v="778254" />
		<tag k="waterway" v="stream" />
	</node>
	<node id="-90125" lat="69.1003027746" lon="19.681163876">
		<tag k="name" v="Finnjordbekkan" />
		<tag k="ssr:stedsnr" v="413887" />
		<tag k="waterway" v="stream" />
	</node>
	<node id="-88076" lat="69.2821499976" lon="18.9468166478">
		<tag k="name" v="Skredderbekken" />
		<tag k="ssr:stedsnr" v="474370" />
		<tag k="waterway" v="stream" />
	</node>
	<node id="-90123" lat="69.210925004" lon="19.3234055489">
		<tag k="name" v="Melnasen" />
		<tag k="natural" v="cape" />
		<tag k="ssr:stedsnr" v="413848" />
	</node>
</osm>
