<?xml version="1.0" encoding="UTF-8"?>
<osm version="0.6" generator="osmapis">
	<node lat="69.37553888627055" lon="18.624038874885475" id="-97867">
		<tag k="name" v="Løvberg" />
		<tag k="place" v="farm" />
		<tag k="ssr:stedsnr" v="232215" />
	</node>
	<node lat="69.38346389090383" lon="19.001355554775493" id="-97872">
		<tag k="name" v="Lunheim" />
		<tag k="place" v="farm" />
		<tag k="ssr:stedsnr" v="232254" />
	</node>
	<node lat="69.12218611582685" lon="19.080022210590805" id="-97895">
		<tag k="name" v="Rollhaugen" />
		<tag k="place" v="isolated_dwelling" />
		<tag k="ssr:stedsnr" v="232846" />
	</node>
	<node lat="69.15298333301763" lon="19.22983609964165" id="-97899">
		<tag k="name" v="Steinhaug" />
		<tag k="place" v="farm" />
		<tag k="ssr:stedsnr" v="18007" />
	</node>
	<node lat="69.22272134545696" lon="19.59177559995407" id="-97900">
		<tag k="fixme" v="consider place=hamlet" />
		<tag k="name" v="Bomstad" />
		<tag k="place" v="farm" />
		<tag k="ssr:stedsnr" v="18102" />
	</node>
	<node lat="69.22130555614612" lon="19.810549993111383" id="-97902">
		<tag k="name" v="Myran" />
		<tag k="place" v="farm" />
		<tag k="ssr:stedsnr" v="18109" />
	</node>
	<node lat="69.21997500430756" lon="19.462977759663858" id="-97904">
		<tag k="name" v="Strand" />
		<tag k="place" v="farm" />
		<tag k="ssr:stedsnr" v="18098" />
	</node>
	<node lat="69.23930555907201" lon="19.457691664424047" id="-97908">
		<tag k="name" v="Bjørkan" />
		<tag k="place" v="farm" />
		<tag k="ssr:stedsnr" v="19149" />
	</node>
	<node lat="69.06575000373985" lon="19.312661109375124" id="-97912">
		<tag k="name" v="Fagerli" />
		<tag k="place" v="farm" />
		<tag k="ssr:stedsnr" v="19443" />
	</node>
	<node lat="69.41306389192233" lon="18.58132778666869" id="-97913">
		<tag k="alt_name" v="Sommarset" />
		<tag k="name" v="Sommerseth" />
		<tag k="place" v="farm" />
		<tag k="ssr:stedsnr" v="19700" />
	</node>
	<node lat="69.40684341781585" lon="18.624736572026478" id="-97914">
		<tag k="name" v="Bakkeli" />
		<tag k="place" v="locality" />
		<tag k="ssr:stedsnr" v="19910" />
	</node>
	<node lat="69.24165833227732" lon="19.241119441584924" id="-97928">
		<tag k="building" v="industrial" />
		<tag k="name" v="Balsfjord ysteri" />
		<tag k="ssr:stedsnr" v="49008" />
	</node>
	<node lat="69.09699166431048" lon="19.672672218914045" id="-97941">
		<tag k="name" v="Skogli" />
		<tag k="place" v="farm" />
		<tag k="ssr:stedsnr" v="49924" />
	</node>
	<node lat="69.15451388890084" lon="19.170699988846295" id="-97961">
		<tag k="name" v="Strupen" />
		<tag k="place" v="farm" />
		<tag k="ssr:stedsnr" v="78810" />
	</node>
	<node lat="69.26454868062007" lon="19.12263613578005" id="-97962">
		<tag k="fixme" v="consider place=hamlet" />
		<tag k="name" v="Olsborg" />
		<tag k="place" v="farm" />
		<tag k="ssr:stedsnr" v="79044" />
	</node>
	<node lat="69.27535834805879" lon="19.159547437198214" id="-97963">
		<tag k="fixme" v="consider place=hamlet" />
		<tag k="name" v="Furumoen" />
		<tag k="place" v="farm" />
		<tag k="ssr:stedsnr" v="79055" />
	</node>
	<node lat="69.19178055454728" lon="19.23029442619827" id="-97964">
		<tag k="name" v="Nordhaug" />
		<tag k="place" v="farm" />
		<tag k="ssr:stedsnr" v="79092" />
	</node>
	<node lat="69.21470555948743" lon="19.266255542348595" id="-97969">
		<tag k="name" v="Elstad" />
		<tag k="place" v="farm" />
		<tag k="ssr:stedsnr" v="79151" />
	</node>
	<node lat="69.28230277936794" lon="19.410636107759615" id="-97972">
		<tag k="alt_name" v="Seljelv, yt;Seljelv" />
		<tag k="name" v="Seljelvnes" />
		<tag k="place" v="hamlet" />
		<tag k="ssr:stedsnr" v="79307" />
	</node>
	<node lat="69.27458888958023" lon="19.276902778354582" id="-97973">
		<tag k="name" v="Bergholt" />
		<tag k="place" v="farm" />
		<tag k="ssr:stedsnr" v="79310" />
	</node>
	<node lat="69.29172500072752" lon="19.4586749870241" id="-97974">
		<tag k="name" v="Dollarhaugen" />
		<tag k="place" v="isolated_dwelling" />
		<tag k="ssr:stedsnr" v="79351" />
	</node>
	<node lat="69.09258888601161" lon="19.6487027566052" id="-97977">
		<tag k="name" v="Fossmo" />
		<tag k="place" v="farm" />
		<tag k="ssr:stedsnr" v="79450" />
	</node>
	<node lat="69.30356110766715" lon="19.339158335155783" id="-97985">
		<tag k="fixme" v="consider place=hamlet" />
		<tag k="name" v="Tennes" />
		<tag k="place" v="village" />
		<tag k="ssr:stedsnr" v="81532" />
	</node>
	<node lat="69.50050715027578" lon="18.448731942826324" id="-97986">
		<tag k="fixme" v="consider place=hamlet" />
		<tag k="name" v="Ansnes" />
		<tag k="place" v="farm" />
		<tag k="ssr:stedsnr" v="86584" />
	</node>
	<node lat="69.38122500425898" lon="19.268911100985" id="-97991">
		<tag k="loc_name:se" v="Lávák" />
		<tag k="name" v="Lavangen" />
		<tag k="name:no" v="Lavangen" />
		<tag k="place" v="hamlet" />
		<tag k="ssr:stedsnr" v="108215" />
	</node>
	<node lat="69.38931903244364" lon="18.708904250032376" id="-98028">
		<tag k="name" v="Solhaug" />
		<tag k="place" v="farm" />
		<tag k="ssr:stedsnr" v="111023" />
	</node>
	<node lat="69.37985555257615" lon="19.009811104400782" id="-98037">
		<tag k="name" v="Rabben" />
		<tag k="place" v="farm" />
		<tag k="ssr:stedsnr" v="111685" />
	</node>
	<node lat="69.26617777359535" lon="19.134027777657987" id="-98040">
		<tag k="name" v="Vassli" />
		<tag k="place" v="farm" />
		<tag k="ssr:stedsnr" v="121915" />
	</node>
	<node lat="69.15271110964069" lon="19.812119422433025" id="-98041">
		<tag k="name" v="Várregaska" />
		<tag k="name:se" v="Várregaska" />
		<tag k="place" v="isolated_dwelling" />
		<tag k="ssr:stedsnr" v="139008" />
	</node>
	<node lat="69.27757499820288" lon="19.214074999120285" id="-98045">
		<tag k="name" v="Bjørkmoen" />
		<tag k="place" v="farm" />
		<tag k="ssr:stedsnr" v="139050" />
	</node>
	<node lat="69.21895000336181" lon="19.4657527792984" id="-98047">
		<tag k="name" v="Reinnes" />
		<tag k="place" v="farm" />
		<tag k="ssr:stedsnr" v="139106" />
	</node>
	<node lat="69.20380555754636" lon="19.27301666731525" id="-98049">
		<tag k="name" v="Dale" />
		<tag k="place" v="farm" />
		<tag k="ssr:stedsnr" v="139141" />
	</node>
	<node lat="69.26076944145643" lon="19.256555548619726" id="-98054">
		<tag k="name" v="Fredriksberg" />
		<tag k="place" v="farm" />
		<tag k="ssr:stedsnr" v="139345" />
	</node>
	<node lat="69.07811110843413" lon="19.537566659102136" id="-98059">
		<tag k="name" v="Nyvoll" />
		<tag k="place" v="farm" />
		<tag k="ssr:stedsnr" v="139492" />
	</node>
	<node lat="69.32865873391539" lon="18.930480989370103" id="-98063">
		<tag k="fixme" v="consider place=hamlet" />
		<tag k="name" v="Mestervik" />
		<tag k="place" v="farm" />
		<tag k="ssr:stedsnr" v="139992" />
	</node>
	<node lat="69.3351222186892" lon="18.857316647836893" id="-98064">
		<tag k="name" v="Berg" />
		<tag k="place" v="farm" />
		<tag k="ssr:stedsnr" v="140000" />
	</node>
	<node lat="69.31698413065205" lon="19.41874742942052" id="-98065">
		<tag k="alt_name" v="Slettmo, in" />
		<tag k="fixme" v="multiple name tags, choose one and add the other to alt_name" />
		<tag k="name" v="Slettmo;Indre Slettmo" />
		<tag k="place" v="hamlet" />
		<tag k="ssr:stedsnr" v="140105" />
	</node>
	<node lat="69.41553611031446" lon="19.06568609995003" id="-98066">
		<tag k="name" v="Skogli" />
		<tag k="place" v="farm" />
		<tag k="ssr:stedsnr" v="139890" />
	</node>
	<node lat="69.41580000140648" lon="18.994158325982884" id="-98067">
		<tag k="alt_name" v="Rosanes" />
		<tag k="name" v="Resanes" />
		<tag k="place" v="farm" />
		<tag k="ssr:stedsnr" v="139892" />
	</node>
	<node lat="69.42298333075455" lon="18.988044426647477" id="-98068">
		<tag k="name" v="Myre" />
		<tag k="place" v="isolated_dwelling" />
		<tag k="ssr:stedsnr" v="139900" />
	</node>
	<node lat="69.21187500521341" lon="19.11552776143364" id="-98069">
		<tag k="name" v="Nymoen" />
		<tag k="place" v="isolated_dwelling" />
		<tag k="ssr:stedsnr" v="140989" />
	</node>
	<node lat="69.25489329003925" lon="19.419310883227855" id="-98074">
		<tag k="alt_name" v="Kvitebergbakken" />
		<tag k="fixme" v="consider place=hamlet" />
		<tag k="name" v="Kvitbergbakken" />
		<tag k="place" v="farm" />
		<tag k="ssr:stedsnr" v="146941" />
	</node>
	<node lat="69.49944876017786" lon="18.44821736490529" id="-98075">
		<tag k="name" v="Ansnes" />
		<tag k="place" v="farm" />
		<tag k="ssr:stedsnr" v="147965" />
	</node>
	<node lat="69.18479444489081" lon="19.687474977338407" id="-98079">
		<tag k="name" v="Ryan" />
		<tag k="place" v="farm" />
		<tag k="ssr:stedsnr" v="260081" />
	</node>
	<node lat="69.08798055435192" lon="19.241888890456508" id="-98093">
		<tag k="name" v="Sagstua" />
		<tag k="place" v="isolated_dwelling" />
		<tag k="ssr:stedsnr" v="170466" />
	</node>
	<node lat="69.21069999923229" lon="19.125352777984315" id="-98102">
		<tag k="name" v="Nyland" />
		<tag k="place" v="farm" />
		<tag k="ssr:stedsnr" v="171267" />
	</node>
	<node lat="69.26722603586416" lon="19.13942838544631" id="-98105">
		<tag k="name" v="Mellomjorda" />
		<tag k="place" v="farm" />
		<tag k="ssr:stedsnr" v="261053" />
	</node>
	<node lat="69.12193889134566" lon="19.1134722146527" id="-98108">
		<tag k="name" v="Rognmo" />
		<tag k="place" v="farm" />
		<tag k="ssr:stedsnr" v="171520" />
	</node>
	<node lat="69.11503888587853" lon="19.347755553871234" id="-98118">
		<tag k="alt_name" v="Svensborg" />
		<tag k="name" v="Svendborg" />
		<tag k="place" v="farm" />
		<tag k="ssr:stedsnr" v="261034" />
	</node>
	<node lat="69.1150916685103" lon="19.349536099248343" id="-98119">
		<tag k="alt_name" v="Svendli" />
		<tag k="name" v="Svensli" />
		<tag k="place" v="farm" />
		<tag k="ssr:stedsnr" v="261037" />
	</node>
	<node lat="69.3004430102724" lon="18.97551601819378" id="-98120">
		<tag k="alt_name" v="Sjåvikøren" />
		<tag k="fixme" v="consider place=hamlet" />
		<tag k="name" v="Skjåvikøyra" />
		<tag k="place" v="farm" />
		<tag k="ssr:stedsnr" v="171707" />
	</node>
	<node lat="69.2770377133627" lon="19.07801783888552" id="-98127">
		<tag k="name" v="Vrangen" />
		<tag k="old_name" v="Bekkevoll" />
		<tag k="place" v="farm" />
		<tag k="ssr:stedsnr" v="261058" />
	</node>
	<node lat="69.21325000113045" lon="19.635786093744397" id="-98130">
		<tag k="name" v="Lund" />
		<tag k="place" v="farm" />
		<tag k="ssr:stedsnr" v="261063" />
	</node>
	<node lat="69.1957444439153" lon="19.285863873069694" id="-98131">
		<tag k="name" v="Elvevoll" />
		<tag k="place" v="farm" />
		<tag k="ssr:stedsnr" v="261068" />
	</node>
	<node lat="69.41666085003179" lon="18.98935121435801" id="-98135">
		<tag k="fixme" v="consider place=hamlet" />
		<tag k="name" v="Middagsnes" />
		<tag k="place" v="farm" />
		<tag k="ssr:stedsnr" v="261085" />
	</node>
	<node lat="69.2871749961304" lon="18.69109722042942" id="-98138">
		<tag k="name" v="Skoglund" />
		<tag k="place" v="farm" />
		<tag k="ssr:stedsnr" v="261091" />
	</node>
	<node lat="69.31456388674205" lon="19.33611388253997" id="-98140">
		<tag k="alt_name" v="Slåttbakken" />
		<tag k="name" v="Slåttbakk" />
		<tag k="place" v="farm" />
		<tag k="ssr:stedsnr" v="261148" />
	</node>
	<node lat="69.31322221992113" lon="18.653038893721135" id="-98142">
		<tag k="name" v="Holmen" />
		<tag k="place" v="farm" />
		<tag k="ssr:stedsnr" v="261126" />
	</node>
	<node lat="69.22678611521951" lon="19.317761099527537" id="-98143">
		<tag k="name" v="Sørum" />
		<tag k="place" v="farm" />
		<tag k="ssr:stedsnr" v="261127" />
	</node>
	<node lat="69.22825555884177" lon="19.420108319609525" id="-98144">
		<tag k="name" v="Sørli" />
		<tag k="place" v="farm" />
		<tag k="ssr:stedsnr" v="261129" />
	</node>
	<node lat="69.22677777978036" lon="19.238463878365845" id="-98145">
		<tag k="name" v="Dalberg" />
		<tag k="place" v="farm" />
		<tag k="ssr:stedsnr" v="261135" />
	</node>
	<node lat="69.30991110971239" lon="19.41932498184104" id="-98146">
		<tag k="name" v="Solvang" />
		<tag k="place" v="farm" />
		<tag k="ssr:stedsnr" v="261136" />
	</node>
	<node lat="69.21780277752022" lon="19.24219998357341" id="-98147">
		<tag k="name" v="Brorstad" />
		<tag k="place" v="farm" />
		<tag k="ssr:stedsnr" v="261139" />
	</node>
	<node lat="69.32032407719714" lon="19.420224576939006" id="-98148">
		<tag k="name" v="Engstad" />
		<tag k="place" v="farm" />
		<tag k="ssr:stedsnr" v="261142" />
	</node>
	<node lat="69.22285855552143" lon="19.514965630287318" id="-98150">
		<tag k="alt_name" v="Jernberg" />
		<tag k="name" v="Jernberget" />
		<tag k="place" v="farm" />
		<tag k="ssr:stedsnr" v="261145" />
	</node>
	<node lat="69.24073611173274" lon="19.23444443996168" id="-98151">
		<tag k="name" v="Storsteinnes" />
		<tag k="place" v="village" />
		<tag k="ssr:stedsnr" v="261150" />
	</node>
	<node lat="69.24712500237669" lon="19.228216654430206" id="-98152">
		<tag k="name" v="Bukta" />
		<tag k="place" v="farm" />
		<tag k="ssr:stedsnr" v="261153" />
	</node>
	<node lat="69.22772500166184" lon="19.22838053867114" id="-98154">
		<tag k="name" v="Lauvli" />
		<tag k="place" v="farm" />
		<tag k="ssr:stedsnr" v="261168" />
	</node>
	<node lat="69.3954749997619" lon="19.278652758263966" id="-98156">
		<tag k="name" v="Bakkevoll" />
		<tag k="place" v="farm" />
		<tag k="ssr:stedsnr" v="261209" />
	</node>
	<node lat="69.3401333287055" lon="19.25917777974976" id="-98157">
		<tag k="name" v="Skogly" />
		<tag k="place" v="farm" />
		<tag k="ssr:stedsnr" v="261176" />
	</node>
	<node lat="69.37627072266602" lon="19.12137098435248" id="-98158">
		<tag k="alt_name" v="Svartnes, yt" />
		<tag k="fixme" v="consider place=hamlet" />
		<tag k="name" v="Svartnes ytre" />
		<tag k="place" v="farm" />
		<tag k="ssr:stedsnr" v="261217" />
	</node>
	<node lat="69.29416111334582" lon="19.480499980885245" id="-98159">
		<tag k="name" v="Vakkerhaugen" />
		<tag k="place" v="isolated_dwelling" />
		<tag k="ssr:stedsnr" v="261359" />
	</node>
	<node lat="69.27688610791608" lon="19.41297776887751" id="-98162">
		<tag k="name" v="Nyheim" />
		<tag k="place" v="isolated_dwelling" />
		<tag k="ssr:stedsnr" v="261327" />
	</node>
	<node lat="69.27692068022279" lon="19.275084374220423" id="-98163">
		<tag k="alt_name" v="Skjeret" />
		<tag k="fixme" v="consider place=hamlet" />
		<tag k="name" v="Skjæret" />
		<tag k="place" v="farm" />
		<tag k="ssr:stedsnr" v="261330" />
	</node>
	<node lat="69.27542500200421" lon="19.27276386976337" id="-98164">
		<tag k="name" v="Melbu" />
		<tag k="place" v="farm" />
		<tag k="ssr:stedsnr" v="261336" />
	</node>
	<node lat="69.27812777958052" lon="19.271522205522945" id="-98165">
		<tag k="name" v="Bakkland" />
		<tag k="place" v="farm" />
		<tag k="ssr:stedsnr" v="261338" />
	</node>
	<node lat="69.04937834417423" lon="19.290424625395506" id="-98168">
		<tag k="name" v="Engen" />
		<tag k="place" v="farm" />
		<tag k="ssr:stedsnr" v="261461" />
	</node>
	<node lat="69.07648333358276" lon="19.53060554480944" id="-98169">
		<tag k="name" v="Nyrud" />
		<tag k="place" v="farm" />
		<tag k="ssr:stedsnr" v="261472" />
	</node>
	<node lat="69.08238610825421" lon="19.565486102663648" id="-98170">
		<tag k="name" v="Brattli" />
		<tag k="place" v="farm" />
		<tag k="ssr:stedsnr" v="261479" />
	</node>
	<node lat="69.09456670072116" lon="19.651975933449414" id="-98171">
		<tag k="name" v="Bjørklund" />
		<tag k="place" v="farm" />
		<tag k="ssr:stedsnr" v="261484" />
	</node>
	<node lat="69.39974869690701" lon="18.594680531588992" id="-98174">
		<tag k="alt_name" v="Martinhals" />
		<tag k="fixme" v="consider place=hamlet" />
		<tag k="name" v="Mortenhals" />
		<tag k="place" v="farm" />
		<tag k="ssr:stedsnr" v="261675" />
	</node>
	<node lat="69.42698611042894" lon="18.952486095025108" id="-98176">
		<tag k="name" v="Potrasbukta" />
		<tag k="place" v="farm" />
		<tag k="ssr:stedsnr" v="261866" />
	</node>
	<node lat="69.44586513093556" lon="19.0017355057453" id="-98178">
		<tag k="fixme" v="consider place=hamlet" />
		<tag k="name" v="Selnes" />
		<tag k="place" v="farm" />
		<tag k="ssr:stedsnr" v="261871" />
	</node>
	<node lat="69.42688018679127" lon="18.964417360532163" id="-98180">
		<tag k="alt_name" v="Rosmålsberg" />
		<tag k="fixme" v="consider place=hamlet" />
		<tag k="name" v="Rosmålsberget" />
		<tag k="place" v="farm" />
		<tag k="ssr:stedsnr" v="261890" />
	</node>
	<node lat="69.49407222000475" lon="18.99725832167102" id="-98182">
		<tag k="name" v="Storsteinen" />
		<tag k="place" v="farm" />
		<tag k="ssr:stedsnr" v="261835" />
	</node>
	<node lat="69.37955555736231" lon="19.010297228561882" id="-98185">
		<tag k="alt_name" v="Bakkemoen" />
		<tag k="name" v="Bakkemo" />
		<tag k="place" v="farm" />
		<tag k="ssr:stedsnr" v="261917" />
	</node>
	<node lat="69.34318889289712" lon="18.892930561282498" id="-98192">
		<tag k="name" v="Solheim" />
		<tag k="place" v="farm" />
		<tag k="ssr:stedsnr" v="261982" />
	</node>
	<node lat="69.34103332987193" lon="18.78676387623315" id="-98194">
		<tag k="name" v="Smedvika" />
		<tag k="place" v="farm" />
		<tag k="ssr:stedsnr" v="261987" />
	</node>
	<node lat="69.4101972272696" lon="19.06713887486024" id="-98195">
		<tag k="name" v="Tømmernes" />
		<tag k="place" v="farm" />
		<tag k="ssr:stedsnr" v="263214" />
	</node>
	<node lat="69.32127222623993" lon="18.827819432442244" id="-98200">
		<tag k="name" v="Hansgård" />
		<tag k="place" v="farm" />
		<tag k="ssr:stedsnr" v="200112" />
	</node>
	<node lat="69.31377222225876" lon="18.814661104088437" id="-98201">
		<tag k="historic" v="shieling" />
		<tag k="name" v="Plogsætra" />
		<tag k="place" v="isolated_dwelling" />
		<tag k="ssr:stedsnr" v="200116" />
	</node>
	<node lat="69.14451110906268" lon="19.80013053665807" id="-98204">
		<tag k="name" v="Skau" />
		<tag k="place" v="farm" />
		<tag k="ssr:stedsnr" v="200012" />
	</node>
	<node lat="69.06769721859892" lon="19.530022212085807" id="-98206">
		<tag k="name" v="Engvoll" />
		<tag k="place" v="farm" />
		<tag k="ssr:stedsnr" v="200457" />
	</node>
	<node lat="69.06319166615845" lon="19.489491663635235" id="-98207">
		<tag k="name" v="Solbakken" />
		<tag k="place" v="farm" />
		<tag k="ssr:stedsnr" v="200458" />
	</node>
	<node lat="69.3007638882034" lon="19.414849986884665" id="-98208">
		<tag k="name" v="Skogly" />
		<tag k="place" v="farm" />
		<tag k="ssr:stedsnr" v="200355" />
	</node>
	<node lat="69.16757777778594" lon="19.06396664866174" id="-98210">
		<tag k="name" v="Fossum" />
		<tag k="place" v="farm" />
		<tag k="ssr:stedsnr" v="200749" />
	</node>
	<node lat="69.2266638912974" lon="19.182102762441378" id="-98214">
		<tag k="alt_name" v="Moen" />
		<tag k="name" v="Moli" />
		<tag k="place" v="farm" />
		<tag k="ssr:stedsnr" v="200946" />
	</node>
	<node lat="69.361033334769" lon="18.874577778845214" id="-98215">
		<tag k="name" v="Nordbyvatnet" />
		<tag k="place" v="farm" />
		<tag k="ssr:stedsnr" v="200951" />
	</node>
	<node lat="69.23355277913896" lon="19.371419443668067" id="-98217">
		<tag k="name" v="Løkeng" />
		<tag k="place" v="farm" />
		<tag k="ssr:stedsnr" v="201156" />
	</node>
	<node lat="69.27507499895478" lon="18.734930542103843" id="-98270">
		<tag k="historic" v="shieling" />
		<tag k="name" v="Øversætra" />
		<tag k="place" v="isolated_dwelling" />
		<tag k="ssr:stedsnr" v="232702" />
	</node>
	<node lat="69.4592722207433" lon="18.98141665928415" id="-98273">
		<tag k="name" v="Elvebakken" />
		<tag k="place" v="farm" />
		<tag k="ssr:stedsnr" v="450396" />
	</node>
	<node lat="69.19005833631921" lon="19.69003333166368" id="-98275">
		<tag k="name" v="Midtbø" />
		<tag k="place" v="farm" />
		<tag k="ssr:stedsnr" v="260061" />
	</node>
	<node lat="69.19282222124158" lon="19.744261088491914" id="-98276">
		<tag k="name" v="Nedrum" />
		<tag k="place" v="farm" />
		<tag k="ssr:stedsnr" v="260066" />
	</node>
	<node lat="69.21341111220185" lon="19.582180551656705" id="-98282">
		<tag k="name" v="Fredheim" />
		<tag k="place" v="farm" />
		<tag k="ssr:stedsnr" v="261105" />
	</node>
	<node lat="69.21351944467789" lon="19.5142027558004" id="-98283">
		<tag k="name" v="Skårheim" />
		<tag k="place" v="farm" />
		<tag k="ssr:stedsnr" v="261112" />
	</node>
	<node lat="69.30362221781671" lon="18.654691668529637" id="-98284">
		<tag k="fixme" v="consider place=hamlet" />
		<tag k="name" v="Aursfjordgården" />
		<tag k="place" v="village" />
		<tag k="ssr:stedsnr" v="261113" />
	</node>
	<node lat="69.25195833724409" lon="19.015336101415222" id="-98285">
		<tag k="name" v="Vassvoll" />
		<tag k="place" v="farm" />
		<tag k="ssr:stedsnr" v="261048" />
	</node>
	<node lat="69.29720833332598" lon="18.933494433304624" id="-98286">
		<tag k="alt_name" v="Aspemoen" />
		<tag k="name" v="Aspemo" />
		<tag k="place" v="farm" />
		<tag k="ssr:stedsnr" v="261100" />
	</node>
	<node lat="69.26090278128069" lon="19.250088890299622" id="-98287">
		<tag k="name" v="Holmenes" />
		<tag k="place" v="farm" />
		<tag k="ssr:stedsnr" v="261349" />
	</node>
	<node lat="69.26953888476272" lon="19.44845277186978" id="-98288">
		<tag k="name" v="Skoglyst" />
		<tag k="place" v="farm" />
		<tag k="ssr:stedsnr" v="261352" />
	</node>
	<node lat="69.10120277744244" lon="19.302677781463732" id="-98290">
		<tag k="name" v="Granholt" />
		<tag k="place" v="farm" />
		<tag k="ssr:stedsnr" v="261497" />
	</node>
	<node lat="69.09798333138272" lon="19.31083054621904" id="-98291">
		<tag k="name" v="Neset" />
		<tag k="place" v="farm" />
		<tag k="ssr:stedsnr" v="261498" />
	</node>
	<node lat="69.30346111285121" lon="18.653894444457556" id="-98303">
		<tag k="name" v="Aursfjord" />
		<tag k="place" v="farm" />
		<tag k="ssr:stedsnr" v="292003" />
	</node>
	<node lat="69.04298889036559" lon="19.396480540241303" id="-98304">
		<tag k="name" v="Solvang" />
		<tag k="place" v="isolated_dwelling" />
		<tag k="ssr:stedsnr" v="292083" />
	</node>
	<node lat="69.37795277373935" lon="19.012224989776517" id="-98323">
		<tag k="name" v="Teigen" />
		<tag k="place" v="isolated_dwelling" />
		<tag k="ssr:stedsnr" v="292727" />
	</node>
	<node lat="69.09035000040691" lon="19.601252776668456" id="-98326">
		<tag k="name" v="Sagmo" />
		<tag k="place" v="farm" />
		<tag k="ssr:stedsnr" v="292918" />
	</node>
	<node lat="69.28490468703734" lon="19.412632731684234" id="-98346">
		<tag k="alt_name" v="Seljelvnes ytre" />
		<tag k="fixme" v="consider place=hamlet" />
		<tag k="name" v="Ytre Seljelvnes" />
		<tag k="place" v="farm" />
		<tag k="ssr:stedsnr" v="462599" />
	</node>
	<node lat="69.43898055136889" lon="18.928349999396804" id="-98348">
		<tag k="name" v="Steilbu" />
		<tag k="place" v="farm" />
		<tag k="ssr:stedsnr" v="462787" />
	</node>
	<node lat="69.18718055269657" lon="19.673536103940574" id="-98350">
		<tag k="alt_name" v="Kjempedal" />
		<tag k="name" v="Kjempedalen" />
		<tag k="place" v="farm" />
		<tag k="ssr:stedsnr" v="321037" />
	</node>
	<node lat="69.29900277664508" lon="18.66544999309518" id="-98352">
		<tag k="name" v="Skoglund" />
		<tag k="place" v="farm" />
		<tag k="ssr:stedsnr" v="321087" />
	</node>
	<node lat="69.21795277513645" lon="19.27986944117878" id="-98354">
		<tag k="name" v="Djupkjos" />
		<tag k="place" v="farm" />
		<tag k="ssr:stedsnr" v="321135" />
	</node>
	<node lat="69.38403055268093" lon="18.971361112081954" id="-98358">
		<tag k="name" v="Fredheim" />
		<tag k="place" v="farm" />
		<tag k="ssr:stedsnr" v="321927" />
	</node>
	<node lat="69.37946388784145" lon="18.69653055513832" id="-98359">
		<tag k="name" v="Myrli" />
		<tag k="place" v="farm" />
		<tag k="ssr:stedsnr" v="321931" />
	</node>
	<node lat="69.3792666692356" lon="19.247844442342515" id="-98360">
		<tag k="name" v="Bjørkmo" />
		<tag k="place" v="isolated_dwelling" />
		<tag k="ssr:stedsnr" v="322203" />
	</node>
	<node lat="69.32005277450126" lon="19.42503332283327" id="-98361">
		<tag k="name" v="Toften" />
		<tag k="place" v="isolated_dwelling" />
		<tag k="ssr:stedsnr" v="322128" />
	</node>
	<node lat="69.23700833488574" lon="19.23119720513016" id="-98362">
		<tag k="alt_name" v="Grønvoll" />
		<tag k="name" v="Grønnvolltunet" />
		<tag k="place" v="farm" />
		<tag k="ssr:stedsnr" v="322138" />
	</node>
	<node lat="69.3897416662642" lon="19.281074985365994" id="-98365">
		<tag k="name" v="Solheim" />
		<tag k="place" v="farm" />
		<tag k="ssr:stedsnr" v="322190" />
	</node>
	<node lat="69.39218888679088" lon="18.702566650991372" id="-98368">
		<tag k="name" v="Nyrud" />
		<tag k="place" v="farm" />
		<tag k="ssr:stedsnr" v="322928" />
	</node>
	<node lat="69.31015555799328" lon="19.026597204418536" id="-98369">
		<tag k="historic" v="shieling" />
		<tag k="name" v="Skogengsætra" />
		<tag k="place" v="isolated_dwelling" />
		<tag k="ssr:stedsnr" v="324203" />
	</node>
	<node lat="69.45164444207518" lon="18.990927782396163" id="-98371">
		<tag k="alt_name" v="Labugten;Labukt" />
		<tag k="name" v="Labukta" />
		<tag k="place" v="farm" />
		<tag k="ssr:stedsnr" v="330202" />
	</node>
	<node lat="69.38632222383607" lon="19.087280555086373" id="-98379">
		<tag k="name" v="Bårlundheimen" />
		<tag k="place" v="locality" />
		<tag k="ssr:stedsnr" v="340806" />
	</node>
	<node lat="69.42719859405625" lon="18.96230716995194" id="-98389">
		<tag k="name" v="Skogvang" />
		<tag k="place" v="farm" />
		<tag k="ssr:stedsnr" v="473784" />
	</node>
	<node lat="69.2373500017848" lon="19.212161107716497" id="-98395">
		<tag k="amenity" v="school" />
		<tag k="name" v="Storsteinnes skole" />
		<tag k="ssr:stedsnr" v="474006" />
	</node>
	<node lat="69.38732222564643" lon="18.99063331834058" id="-98403">
		<tag k="name" v="Bakketun" />
		<tag k="place" v="farm" />
		<tag k="ssr:stedsnr" v="474262" />
	</node>
	<node lat="69.39677222018697" lon="18.983102776972498" id="-98404">
		<tag k="name" v="Fagerelv" />
		<tag k="place" v="farm" />
		<tag k="ssr:stedsnr" v="474270" />
	</node>
	<node lat="69.08952222500017" lon="19.15393889399257" id="-98419">
		<tag k="name" v="Hagenhytta" />
		<tag k="place" v="isolated_dwelling" />
		<tag k="ssr:stedsnr" v="474289" />
	</node>
	<node lat="69.32844722445422" lon="18.936299993061446" id="-98425">
		<tag k="name" v="Røe" />
		<tag k="place" v="farm" />
		<tag k="ssr:stedsnr" v="474254" />
	</node>
	<node lat="69.30004444810982" lon="19.333983336085847" id="-98432">
		<tag k="amenity" v="nursing_home" />
		<tag k="name" v="Aldersheimen" />
		<tag k="ssr:stedsnr" v="352718" />
	</node>
	<node lat="69.22238055740941" lon="19.45678887669715" id="-98454">
		<tag k="name" v="Rakeljorda" />
		<tag k="place" v="hamlet" />
		<tag k="ssr:stedsnr" v="474460" />
	</node>
	<node lat="69.4221944479481" lon="18.993602779212324" id="-98466">
		<tag k="building" v="commercial" />
		<tag k="name" v="Nestun Samvirkelag" />
		<tag k="ssr:stedsnr" v="353653" />
	</node>
	<node lat="69.16877221935985" lon="18.990036100166286" id="-98467">
		<tag k="name" v="Roli" />
		<tag k="place" v="locality" />
		<tag k="ssr:stedsnr" v="353813" />
	</node>
	<node lat="69.37021944875562" lon="18.95064998538325" id="-98481">
		<tag k="name" v="Myrstad" />
		<tag k="place" v="farm" />
		<tag k="ssr:stedsnr" v="474740" />
	</node>
	<node lat="69.30083888999522" lon="18.97342499602305" id="-98503">
		<tag k="name" v="Sjåvikør" />
		<tag k="place" v="farm" />
		<tag k="ssr:stedsnr" v="475581" />
	</node>
	<node lat="69.19475833051096" lon="19.21515276506867" id="-98523">
		<tag k="alt_name" v="Sætermo" />
		<tag k="name" v="Sætermoen" />
		<tag k="place" v="farm" />
		<tag k="ssr:stedsnr" v="381972" />
	</node>
	<node lat="69.18945833345092" lon="19.27731110640909" id="-98524">
		<tag k="name" v="Furulund" />
		<tag k="place" v="farm" />
		<tag k="ssr:stedsnr" v="382103" />
	</node>
	<node lat="69.21858055945104" lon="19.363775004500692" id="-98525">
		<tag k="name" v="Blombakken" />
		<tag k="place" v="locality" />
		<tag k="ssr:stedsnr" v="382114" />
	</node>
	<node lat="69.38006667003764" lon="19.244113893275333" id="-98531">
		<tag k="name" v="Reinsletta" />
		<tag k="place" v="farm" />
		<tag k="ssr:stedsnr" v="382219" />
	</node>
	<node lat="69.29060277409803" lon="19.316199988202534" id="-98534">
		<tag k="name" v="Storegard" />
		<tag k="place" v="farm" />
		<tag k="ssr:stedsnr" v="382359" />
	</node>
	<node lat="69.44108333142971" lon="19.024024984537665" id="-98536">
		<tag k="name" v="Elverum" />
		<tag k="place" v="farm" />
		<tag k="ssr:stedsnr" v="382902" />
	</node>
	<node lat="69.25021944585811" lon="18.863447206608637" id="-98538">
		<tag k="name" v="Vestertun" />
		<tag k="place" v="farm" />
		<tag k="ssr:stedsnr" v="382913" />
	</node>
	<node lat="69.40531388613928" lon="18.69850832396151" id="-98539">
		<tag k="name" v="Myrvoll" />
		<tag k="place" v="farm" />
		<tag k="ssr:stedsnr" v="382914" />
	</node>
	<node lat="69.48006111471263" lon="18.985286105655906" id="-98540">
		<tag k="name" v="Mellomberg" />
		<tag k="place" v="farm" />
		<tag k="ssr:stedsnr" v="382858" />
	</node>
	<node lat="69.39347500163777" lon="18.985249993914554" id="-98542">
		<tag k="name" v="Rognset" />
		<tag k="place" v="farm" />
		<tag k="ssr:stedsnr" v="382955" />
	</node>
	<node lat="69.23958143052994" lon="19.213455362655914" id="-98543">
		<tag k="alt_name" v="Vegskifte;Veiskifte" />
		<tag k="fixme" v="consider place=hamlet" />
		<tag k="name" v="Veiskiftet" />
		<tag k="place" v="farm" />
		<tag k="ssr:stedsnr" v="382960" />
	</node>
	<node lat="69.09945278024576" lon="19.282649980336505" id="-98546">
		<tag k="historic" v="shieling" />
		<tag k="name" v="Anesætra" />
		<tag k="place" v="isolated_dwelling" />
		<tag k="ssr:stedsnr" v="401906" />
	</node>
	<node lat="69.2490083359763" lon="19.21602498745265" id="-98547">
		<tag k="name" v="Frydenlund" />
		<tag k="place" v="farm" />
		<tag k="ssr:stedsnr" v="485929" />
	</node>
	<node lat="69.36489444653449" lon="18.819258338959777" id="-98565">
		<tag k="name" v="Bjørkheim" />
		<tag k="place" v="farm" />
		<tag k="ssr:stedsnr" v="414011" />
	</node>
	<node lat="69.2567611152578" lon="19.128163873826868" id="-98589">
		<tag k="name" v="Jonsgård" />
		<tag k="place" v="farm" />
		<tag k="ssr:stedsnr" v="443034" />
	</node>
	<node lat="69.21455959573112" lon="19.586368541764458" id="-98591">
		<tag k="alt_name" v="Lauvhaug" />
		<tag k="name" v="Løvhaug" />
		<tag k="place" v="farm" />
		<tag k="ssr:stedsnr" v="443106" />
	</node>
	<node lat="69.22859166279133" lon="19.417405546042882" id="-98593">
		<tag k="name" v="Steinberg" />
		<tag k="place" v="farm" />
		<tag k="ssr:stedsnr" v="443133" />
	</node>
	<node lat="69.2262250002901" lon="19.435499994104593" id="-98594">
		<tag k="name" v="Slettun" />
		<tag k="place" v="farm" />
		<tag k="ssr:stedsnr" v="443134" />
	</node>
	<node lat="69.23628888701478" lon="19.46423610008002" id="-98595">
		<tag k="name" v="Ytregard" />
		<tag k="place" v="farm" />
		<tag k="ssr:stedsnr" v="443136" />
	</node>
	<node lat="69.30473055303196" lon="19.329725000252747" id="-98597">
		<tag k="name" v="Rismoen" />
		<tag k="place" v="farm" />
		<tag k="ssr:stedsnr" v="443140" />
	</node>
	<node lat="69.19216944477651" lon="19.275424989344454" id="-98600">
		<tag k="name" v="Hølen" />
		<tag k="place" v="farm" />
		<tag k="ssr:stedsnr" v="443091" />
	</node>
	<node lat="69.30376388996514" lon="19.01145278293584" id="-98601">
		<tag k="name" v="Holesætra" />
		<tag k="place" v="locality" />
		<tag k="ssr:stedsnr" v="443094" />
	</node>
	<node lat="69.25291389012716" lon="19.223752766324424" id="-98603">
		<tag k="name" v="Nordeng" />
		<tag k="place" v="farm" />
		<tag k="ssr:stedsnr" v="443288" />
	</node>
	<node lat="69.28238361541673" lon="19.287923892363356" id="-98604">
		<tag k="name" v="Audun" />
		<tag k="place" v="farm" />
		<tag k="ssr:stedsnr" v="443332" />
	</node>
	<node lat="69.41939444158874" lon="18.99508609530576" id="-98607">
		<tag k="alt_name" v="Enigheta" />
		<tag k="name" v="Enigheten" />
		<tag k="place" v="farm" />
		<tag k="ssr:stedsnr" v="443911" />
	</node>
	<node lat="69.08065277555758" lon="19.266074988149725" id="-98609">
		<tag k="name" v="Soltun" />
		<tag k="place" v="farm" />
		<tag k="ssr:stedsnr" v="446995" />
	</node>
	<node lat="69.37591111336563" lon="19.116127781916894" id="-98611">
		<tag k="fixme" v="consider place=hamlet" />
		<tag k="name" v="Svartnes" />
		<tag k="place" v="village" />
		<tag k="ssr:stedsnr" v="451116" />
	</node>
	<node lat="69.4415707913776" lon="18.921615391428666" id="-98615">
		<tag k="fixme" v="consider place=hamlet" />
		<tag k="name" v="Kvitnes" />
		<tag k="place" v="farm" />
		<tag k="ssr:stedsnr" v="462820" />
	</node>
	<node lat="69.36568889099759" lon="18.75558054347031" id="-98627">
		<tag k="name" v="Nerås" />
		<tag k="place" v="farm" />
		<tag k="ssr:stedsnr" v="474012" />
	</node>
	<node lat="69.16014999665107" lon="19.18379997910535" id="-98656">
		<tag k="name" v="Nedrom" />
		<tag k="place" v="farm" />
		<tag k="ssr:stedsnr" v="503708" />
	</node>
	<node lat="69.37719999866061" lon="18.707355561626418" id="-98659">
		<tag k="name" v="Nyborg" />
		<tag k="place" v="farm" />
		<tag k="ssr:stedsnr" v="503921" />
	</node>
	<node lat="69.21912500048228" lon="19.605530534769393" id="-98660">
		<tag k="name" v="Fossbakk" />
		<tag k="place" v="farm" />
		<tag k="ssr:stedsnr" v="504068" />
	</node>
	<node lat="69.2208194419127" lon="19.56409999463128" id="-98661">
		<tag k="name" v="Bergland" />
		<tag k="place" v="farm" />
		<tag k="ssr:stedsnr" v="504070" />
	</node>
	<node lat="69.2187555551475" lon="19.543413872031394" id="-98662">
		<tag k="name" v="Bjørkvang" />
		<tag k="place" v="farm" />
		<tag k="ssr:stedsnr" v="504073" />
	</node>
	<node lat="69.22309444194991" lon="19.813938864484154" id="-98663">
		<tag k="alt_name" v="Nykila" />
		<tag k="name" v="Kila" />
		<tag k="place" v="farm" />
		<tag k="ssr:stedsnr" v="504075" />
	</node>
	<node lat="69.21510277865325" lon="19.63503887534824" id="-98664">
		<tag k="name" v="Dale" />
		<tag k="place" v="farm" />
		<tag k="ssr:stedsnr" v="504077" />
	</node>
	<node lat="69.19312777708855" lon="19.075991649125694" id="-98665">
		<tag k="name" v="Øverhus" />
		<tag k="place" v="farm" />
		<tag k="ssr:stedsnr" v="503967" />
	</node>
	<node lat="69.18571389150752" lon="19.05222499359852" id="-98666">
		<tag k="name" v="Vesterelv" />
		<tag k="place" v="farm" />
		<tag k="ssr:stedsnr" v="503973" />
	</node>
	<node lat="69.32440277440388" lon="19.303149982853817" id="-98667">
		<tag k="name" v="Skogan" />
		<tag k="place" v="farm" />
		<tag k="ssr:stedsnr" v="504109" />
	</node>
	<node lat="69.43818841952042" lon="18.51573547401847" id="-98671">
		<tag k="alt_name" v="Sletten" />
		<tag k="name" v="Sletta" />
		<tag k="place" v="farm" />
		<tag k="ssr:stedsnr" v="504670" />
	</node>
	<node lat="69.22928055318276" lon="18.93247498967115" id="-98673">
		<tag k="name" v="Fjellborg" />
		<tag k="place" v="locality" />
		<tag k="ssr:stedsnr" v="504975" />
	</node>
	<node lat="69.43947557208269" lon="19.03445682653141" id="-98675">
		<tag k="name" v="Lunneborg" />
		<tag k="place" v="farm" />
		<tag k="ssr:stedsnr" v="511400" />
	</node>
	<node lat="69.19148055714858" lon="19.68654442689876" id="-98680">
		<tag k="name" v="Smørpund - Vuodjabuddi" />
		<tag k="name:no" v="Smørpund" />
		<tag k="name:se" v="Vuodjabuddi" />
		<tag k="place" v="farm" />
		<tag k="ssr:stedsnr" v="685047" />
	</node>
	<node lat="69.21578889078593" lon="19.2470166612037" id="-98683">
		<tag k="name" v="Kuldstad" />
		<tag k="place" v="farm" />
		<tag k="ssr:stedsnr" v="685138" />
	</node>
	<node lat="69.2948250040939" lon="19.331936099713882" id="-98688">
		<tag k="name" v="Myra" />
		<tag k="old_name" v="Myrli" />
		<tag k="place" v="farm" />
		<tag k="ssr:stedsnr" v="685337" />
	</node>
	<node lat="69.18895000112978" lon="19.187980554736786" id="-98689">
		<tag k="name" v="Kjosvatn" />
		<tag k="place" v="farm" />
		<tag k="ssr:stedsnr" v="685757" />
	</node>
	<node lat="69.15270833039041" lon="19.183274989523262" id="-98693">
		<tag k="name" v="Bergli" />
		<tag k="place" v="farm" />
		<tag k="ssr:stedsnr" v="685785" />
	</node>
	<node lat="69.19132500204644" lon="19.678802761475744" id="-98696">
		<tag k="name" v="Solberg" />
		<tag k="place" v="farm" />
		<tag k="ssr:stedsnr" v="686029" />
	</node>
	<node lat="69.19372222692154" lon="19.648683319232465" id="-98697">
		<tag k="name" v="Skáidi" />
		<tag k="name:se" v="Skáidi" />
		<tag k="place" v="farm" />
		<tag k="ssr:stedsnr" v="686030" />
	</node>
	<node lat="69.2538833306361" lon="19.202497204699956" id="-98699">
		<tag k="name" v="Skjåvik" />
		<tag k="place" v="farm" />
		<tag k="ssr:stedsnr" v="686037" />
	</node>
	<node lat="69.31176111459483" lon="19.41783611479861" id="-98701">
		<tag k="name" v="Melen" />
		<tag k="place" v="farm" />
		<tag k="ssr:stedsnr" v="686110" />
	</node>
	<node lat="69.31229999946024" lon="19.41948331256896" id="-98702">
		<tag k="name" v="Åsheim" />
		<tag k="place" v="farm" />
		<tag k="ssr:stedsnr" v="686111" />
	</node>
	<node lat="69.19096666484836" lon="19.29038888400143" id="-98705">
		<tag k="name" v="Hølen" />
		<tag k="place" v="farm" />
		<tag k="ssr:stedsnr" v="686063" />
	</node>
	<node lat="69.21329166446617" lon="19.640641654289517" id="-98707">
		<tag k="name" v="Solli" />
		<tag k="place" v="farm" />
		<tag k="ssr:stedsnr" v="686065" />
	</node>
	<node lat="69.19892389925668" lon="19.272916253026846" id="-98709">
		<tag k="name" v="Lunde" />
		<tag k="place" v="farm" />
		<tag k="ssr:stedsnr" v="686069" />
	</node>
	<node lat="69.28115555357381" lon="19.007475001060516" id="-98710">
		<tag k="name" v="Åsli" />
		<tag k="place" v="farm" />
		<tag k="ssr:stedsnr" v="686073" />
	</node>
	<node lat="69.20085833395744" lon="19.63431665472225" id="-98712">
		<tag k="name" v="Nysætre" />
		<tag k="place" v="farm" />
		<tag k="ssr:stedsnr" v="686078" />
	</node>
	<node lat="69.18570278153413" lon="19.227877761318425" id="-98716">
		<tag k="name" v="Sætervang" />
		<tag k="place" v="farm" />
		<tag k="ssr:stedsnr" v="686083" />
	</node>
	<node lat="69.28440555935488" lon="18.698255562105683" id="-98717">
		<tag k="alt_name" v="Melkill" />
		<tag k="name" v="Melkild" />
		<tag k="place" v="farm" />
		<tag k="ssr:stedsnr" v="686085" />
	</node>
	<node lat="69.21560081772917" lon="19.49741053595763" id="-98718">
		<tag k="fixme" v="consider place=hamlet" />
		<tag k="name" v="Bakken" />
		<tag k="place" v="farm" />
		<tag k="ssr:stedsnr" v="686086" />
	</node>
	<node lat="69.30310833152397" lon="19.337647200266428" id="-98719">
		<tag k="name" v="Heim" />
		<tag k="place" v="farm" />
		<tag k="ssr:stedsnr" v="686121" />
	</node>
	<node lat="69.30701602428901" lon="19.339406928662562" id="-98720">
		<tag k="alt_name" v="Ternes, yt;Tennes ytre" />
		<tag k="fixme" v="consider place=hamlet" />
		<tag k="name" v="Ytre Tennes" />
		<tag k="old_name" v="Ytre Ternes" />
		<tag k="place" v="farm" />
		<tag k="ssr:stedsnr" v="686122" />
	</node>
	<node lat="69.31610277650755" lon="19.339547203933073" id="-98721">
		<tag k="name" v="Haugland" />
		<tag k="place" v="farm" />
		<tag k="ssr:stedsnr" v="686135" />
	</node>
	<node lat="69.23013333410118" lon="19.407888890881683" id="-98723">
		<tag k="alt_name" v="Loddbukt;Lodbugten;Indre Lodbukt" />
		<tag k="name" v="Loddbukta" />
		<tag k="place" v="farm" />
		<tag k="ssr:stedsnr" v="686167" />
	</node>
	<node lat="69.3564777802469" lon="19.36876388033962" id="-98724">
		<tag k="alt_name" v="Bråland" />
		<tag k="name" v="Gavestad" />
		<tag k="place" v="farm" />
		<tag k="ssr:stedsnr" v="686168" />
	</node>
	<node lat="69.36651545231769" lon="19.35426437437606" id="-98727">
		<tag k="name" v="Nyeng" />
		<tag k="place" v="farm" />
		<tag k="ssr:stedsnr" v="686187" />
	</node>
	<node lat="69.38163458184421" lon="19.254521158537795" id="-98728">
		<tag k="alt_name" v="Svartnes, in;Svartnes Indre" />
		<tag k="fixme" v="consider place=hamlet" />
		<tag k="name" v="Indre Svartnes" />
		<tag k="place" v="farm" />
		<tag k="ssr:stedsnr" v="686223" />
	</node>
	<node lat="69.27277499961728" lon="19.272227761083023" id="-98729">
		<tag k="name" v="Nyvik" />
		<tag k="place" v="farm" />
		<tag k="ssr:stedsnr" v="686294" />
	</node>
	<node lat="69.26948889224249" lon="19.42466665796161" id="-98733">
		<tag k="alt_name" v="Luneng" />
		<tag k="name" v="Lundeng" />
		<tag k="place" v="farm" />
		<tag k="ssr:stedsnr" v="686317" />
	</node>
	<node lat="69.27218333698532" lon="19.41297777932764" id="-98734">
		<tag k="name" v="Einan" />
		<tag k="place" v="farm" />
		<tag k="ssr:stedsnr" v="686321" />
	</node>
	<node lat="69.29062778068644" lon="19.409516650208303" id="-98738">
		<tag k="name" v="Aspenes" />
		<tag k="place" v="farm" />
		<tag k="ssr:stedsnr" v="686354" />
	</node>
	<node lat="69.09343935138223" lon="19.627426317170563" id="-98775">
		<tag k="name" v="Olsrud" />
		<tag k="place" v="farm" />
		<tag k="ssr:stedsnr" v="686486" />
	</node>
	<node lat="69.2696009541089" lon="18.724617983179794" id="-98802">
		<tag k="fixme" v="consider place=hamlet" />
		<tag k="name" v="Aursfjord" />
		<tag k="place" v="farm" />
		<tag k="ssr:stedsnr" v="539516" />
	</node>
	<node lat="69.13032499844196" lon="19.052280554955495" id="-98803">
		<tag k="name" v="Nygård" />
		<tag k="place" v="farm" />
		<tag k="ssr:stedsnr" v="686767" />
	</node>
	<node lat="69.37118055784782" lon="18.636019452743824" id="-98809">
		<tag k="name" v="Hamran" />
		<tag k="place" v="hamlet" />
		<tag k="ssr:stedsnr" v="686936" />
	</node>
	<node lat="69.36398889223705" lon="18.76533611063852" id="-98810">
		<tag k="alt_name" v="Kjerrvikåsen" />
		<tag k="name" v="Kjærvikås" />
		<tag k="place" v="farm" />
		<tag k="ssr:stedsnr" v="686954" />
	</node>
	<node lat="69.37559999968681" lon="19.169341669814415" id="-98811">
		<tag k="name" v="Storsletta" />
		<tag k="place" v="farm" />
		<tag k="ssr:stedsnr" v="686962" />
	</node>
	<node lat="69.28942285165448" lon="19.30767663620111" id="-98817">
		<tag k="name" v="Heimro" />
		<tag k="place" v="farm" />
		<tag k="ssr:stedsnr" v="564375" />
	</node>
	<node lat="69.28893518773504" lon="19.307315549932135" id="-98818">
		<tag k="alt_name" v="Ternes, in;Tennes indre" />
		<tag k="fixme" v="consider place=hamlet" />
		<tag k="name" v="Indre Tennes" />
		<tag k="old_name" v="Indre Ternes" />
		<tag k="place" v="farm" />
		<tag k="ssr:stedsnr" v="564377" />
	</node>
	<node lat="69.0927128552285" lon="19.234518781317337" id="-98819">
		<tag k="name" v="Langvassli" />
		<tag k="place" v="farm" />
		<tag k="ssr:stedsnr" v="564502" />
	</node>
	<node lat="69.46805210746021" lon="18.47379115309351" id="-98822">
		<tag k="alt_name" v="Forøen" />
		<tag k="fixme" v="consider place=hamlet" />
		<tag k="name" v="Forøy" />
		<tag k="place" v="farm" />
		<tag k="ssr:stedsnr" v="564619" />
	</node>
	<node lat="69.3809328008941" lon="18.610593573415397" id="-98823">
		<tag k="alt_name" v="Sandsvika" />
		<tag k="fixme" v="consider place=hamlet" />
		<tag k="name" v="Sandsvik" />
		<tag k="place" v="farm" />
		<tag k="ssr:stedsnr" v="564718" />
	</node>
	<node lat="69.39466111067722" lon="18.65439722042437" id="-98827">
		<tag k="name" v="Bjørklund" />
		<tag k="place" v="farm" />
		<tag k="ssr:stedsnr" v="564923" />
	</node>
	<node lat="69.37585000010418" lon="19.165497217982143" id="-98828">
		<tag k="name" v="Elvås" />
		<tag k="place" v="farm" />
		<tag k="ssr:stedsnr" v="564965" />
	</node>
	<node lat="69.38797499653283" lon="19.085680551299994" id="-98831">
		<tag k="name" v="Bjerkli" />
		<tag k="place" v="farm" />
		<tag k="ssr:stedsnr" v="566203" />
	</node>
	<node lat="69.41028055129628" lon="18.66095277554552" id="-98868">
		<tag k="name" v="Dale" />
		<tag k="place" v="farm" />
		<tag k="ssr:stedsnr" v="596252" />
	</node>
	<node lat="69.42124721804738" lon="18.95997222146604" id="-98874">
		<tag k="name" v="Skoglund" />
		<tag k="place" v="isolated_dwelling" />
		<tag k="ssr:stedsnr" v="596620" />
	</node>
	<node lat="69.21824041526845" lon="19.549648998515714" id="-98881">
		<tag k="alt_name" v="Sjøvoll" />
		<tag k="name" v="Sjøvollan" />
		<tag k="place" v="farm" />
		<tag k="ssr:stedsnr" v="625104" />
	</node>
	<node lat="69.24804844875578" lon="19.43470505084747" id="-98883">
		<tag k="alt_name" v="Ytre Hamnes;Havnnes" />
		<tag k="loc_name" v="Hamnnes" />
		<tag k="name" v="Hamnes" />
		<tag k="place" v="farm" />
		<tag k="ssr:stedsnr" v="625160" />
	</node>
	<node lat="69.216418126711" lon="19.621724871774987" id="-98884">
		<tag k="name" v="Bakkeringen" />
		<tag k="place" v="farm" />
		<tag k="ssr:stedsnr" v="625109" />
	</node>
	<node lat="69.2995084410154" lon="19.33462262879816" id="-98887">
		<tag k="alt_name" v="Gammelgard" />
		<tag k="fixme" v="consider place=hamlet" />
		<tag k="name" v="Gammelgård" />
		<tag k="place" v="farm" />
		<tag k="ssr:stedsnr" v="625084" />
	</node>
	<node lat="69.09868876234717" lon="19.694850739310446" id="-98891">
		<tag k="alt_name" v="Høgseth" />
		<tag k="name" v="Høyset" />
		<tag k="place" v="farm" />
		<tag k="ssr:stedsnr" v="625462" />
	</node>
	<node lat="69.09596667067889" lon="19.661958315707814" id="-98892">
		<tag k="name" v="Skoglund" />
		<tag k="place" v="farm" />
		<tag k="ssr:stedsnr" v="625463" />
	</node>
	<node lat="69.40755000147854" lon="18.68830278546991" id="-98894">
		<tag k="name" v="Rognmoen" />
		<tag k="place" v="farm" />
		<tag k="ssr:stedsnr" v="625912" />
	</node>
	<node lat="69.35794722583202" lon="19.365491663837528" id="-98897">
		<tag k="name" v="Nygård" />
		<tag k="place" v="farm" />
		<tag k="ssr:stedsnr" v="627547" />
	</node>
	<node lat="69.21996666385235" lon="19.603205550394286" id="-98898">
		<tag k="name" v="Bomstad" />
		<tag k="place" v="hamlet" />
		<tag k="ssr:stedsnr" v="704200" />
	</node>
	<node lat="69.43411765716213" lon="18.944288458360372" id="-98906">
		<tag k="fixme" v="consider place=hamlet" />
		<tag k="name" v="Hestnes søndre" />
		<tag k="place" v="farm" />
		<tag k="ssr:stedsnr" v="704783" />
	</node>
	<node lat="69.04151389063333" lon="19.323016670065048" id="-98911">
		<tag k="name" v="Tøløvrommet" />
		<tag k="place" v="locality" />
		<tag k="ssr:stedsnr" v="705947" />
	</node>
	<node lat="69.44357778257564" lon="18.923386099438602" id="-98915">
		<tag k="name" v="Elvevoll" />
		<tag k="place" v="farm" />
		<tag k="ssr:stedsnr" v="643795" />
	</node>
	<node lat="69.32195000414349" lon="18.834530545926803" id="-98968">
		<tag k="alt_name" v="Hamnvåg indre" />
		<tag k="loc_name" v="Inner-Hamnvåg" />
		<tag k="name" v="Indre Hamnvåg" />
		<tag k="place" v="farm" />
		<tag k="ssr:stedsnr" v="661107" />
	</node>
	<node lat="69.22921666278181" lon="19.487738879584914" id="-98969">
		<tag k="name" v="Berglund" />
		<tag k="place" v="farm" />
		<tag k="ssr:stedsnr" v="685154" />
	</node>
	<node lat="69.29369444247031" lon="18.675380555802633" id="-98972">
		<tag k="name" v="Eidismoen" />
		<tag k="place" v="farm" />
		<tag k="ssr:stedsnr" v="686089" />
	</node>
	<node lat="69.31197500207406" lon="18.960638872103907" id="-98973">
		<tag k="name" v="Myreng" />
		<tag k="place" v="farm" />
		<tag k="ssr:stedsnr" v="686092" />
	</node>
	<node lat="69.24093611457273" lon="19.44826942547706" id="-98979">
		<tag k="name" v="Nyvoll" />
		<tag k="place" v="farm" />
		<tag k="ssr:stedsnr" v="686140" />
	</node>
	<node lat="69.05988333365714" lon="19.509980557512087" id="-98983">
		<tag k="alt_name" v="Tryggstad" />
		<tag k="name" v="Trygstad" />
		<tag k="place" v="farm" />
		<tag k="ssr:stedsnr" v="686451" />
	</node>
	<node lat="69.09856110918406" lon="19.282747201119406" id="-98985">
		<tag k="name" v="Åsen" />
		<tag k="place" v="locality" />
		<tag k="ssr:stedsnr" v="686499" />
	</node>
	<node lat="69.10498611136433" lon="19.330669446782565" id="-98987">
		<tag k="name" v="Andorli" />
		<tag k="place" v="isolated_dwelling" />
		<tag k="ssr:stedsnr" v="686507" />
	</node>
	<node lat="69.48335277992841" lon="18.99332222709329" id="-98988">
		<tag k="alt_name" v="Tilleberg" />
		<tag k="name" v="Telleberg" />
		<tag k="place" v="farm" />
		<tag k="ssr:stedsnr" v="686843" />
	</node>
	<node lat="69.42325435804663" lon="19.063502941786815" id="-98989">
		<tag k="name" v="Nylund" />
		<tag k="place" v="farm" />
		<tag k="ssr:stedsnr" v="686897" />
	</node>
	<node lat="69.38623333809166" lon="19.090922212259365" id="-98990">
		<tag k="name" v="Skogstad" />
		<tag k="place" v="farm" />
		<tag k="ssr:stedsnr" v="686942" />
	</node>
	<node lat="69.2936592661028" lon="18.942820246501707" id="-98995">
		<tag k="name" v="Storbakk" />
		<tag k="old_name" v="Storbakken" />
		<tag k="place" v="farm" />
		<tag k="ssr:stedsnr" v="694879" />
	</node>
	<node lat="69.38346666509192" lon="19.405788875294935" id="-99008">
		<tag k="name" v="Bjerkaker" />
		<tag k="place" v="isolated_dwelling" />
		<tag k="ssr:stedsnr" v="716447" />
	</node>
	<node lat="69.41418333503123" lon="18.696233327770713" id="-99013">
		<tag k="name" v="Nordheim" />
		<tag k="place" v="farm" />
		<tag k="ssr:stedsnr" v="899020" />
	</node>
	<node lat="69.38387500366531" lon="18.97201389350684" id="-99019">
		<tag k="name" v="Fagertun" />
		<tag k="place" v="farm" />
		<tag k="ssr:stedsnr" v="717274" />
	</node>
	<node lat="69.08680555299117" lon="19.19105553825462" id="-99020">
		<tag k="name" v="Fynhytta" />
		<tag k="place" v="isolated_dwelling" />
		<tag k="ssr:stedsnr" v="717309" />
	</node>
	<node lat="69.0708361085819" lon="19.433538871083627" id="-99022">
		<tag k="historic" v="shieling" />
		<tag k="name" v="Johangammen" />
		<tag k="place" v="isolated_dwelling" />
		<tag k="ssr:stedsnr" v="899098" />
	</node>
	<node lat="69.2007361099485" lon="19.221555555499744" id="-99046">
		<tag k="historic" v="shieling" />
		<tag k="name" v="Nils-Larsa sætra" />
		<tag k="place" v="isolated_dwelling" />
		<tag k="ssr:stedsnr" v="899377" />
	</node>
	<node lat="69.49591110849164" lon="18.46204721297961" id="-99051">
		<tag k="name" v="Ansnes" />
		<tag k="place" v="farm" />
		<tag k="ssr:stedsnr" v="899352" />
	</node>
	<node lat="69.27259722650231" lon="19.41236943199468" id="-99075">
		<tag k="name" v="Seljelvnes indre" />
		<tag k="place" v="farm" />
		<tag k="ssr:stedsnr" v="899635" />
	</node>
	<node lat="69.32162500413058" lon="18.810936103431402" id="-99092">
		<tag k="name" v="Kleivstad" />
		<tag k="place" v="isolated_dwelling" />
		<tag k="ssr:stedsnr" v="899900" />
	</node>
	<node lat="69.38678333595182" lon="18.9912694396037" id="-99096">
		<tag k="name" v="Myrvang" />
		<tag k="place" v="farm" />
		<tag k="ssr:stedsnr" v="900293" />
	</node>
	<node lat="69.38890555177616" lon="18.9832027763057" id="-99098">
		<tag k="name" v="Lysslett" />
		<tag k="place" v="farm" />
		<tag k="ssr:stedsnr" v="900296" />
	</node>
	<node lat="69.34701389266833" lon="18.75593889409573" id="-99114">
		<tag k="name" v="Kjærvik" />
		<tag k="place" v="farm" />
		<tag k="ssr:stedsnr" v="900988" />
	</node>
	<node lat="69.18118055681755" lon="19.09971942903198" id="-99117">
		<tag k="alt_name" v="Løvmoen" />
		<tag k="name" v="Løvmo" />
		<tag k="place" v="farm" />
		<tag k="ssr:stedsnr" v="745977" />
	</node>
	<node lat="69.30197777357304" lon="18.660874994871236" id="-99118">
		<tag k="name" v="Åsheim" />
		<tag k="place" v="farm" />
		<tag k="ssr:stedsnr" v="746105" />
	</node>
	<node lat="69.22078333116961" lon="19.57364999904409" id="-99119">
		<tag k="name" v="Lilleng" />
		<tag k="place" v="farm" />
		<tag k="ssr:stedsnr" v="746109" />
	</node>
	<node lat="69.2196361141985" lon="19.558427760545783" id="-99121">
		<tag k="name" v="Bruvoll" />
		<tag k="place" v="farm" />
		<tag k="ssr:stedsnr" v="746111" />
	</node>
	<node lat="69.28312500178185" lon="18.959627770019736" id="-99123">
		<tag k="name" v="Øvermoen" />
		<tag k="place" v="farm" />
		<tag k="ssr:stedsnr" v="746083" />
	</node>
	<node lat="69.37758055916417" lon="19.286138876562294" id="-99126">
		<tag k="name" v="Kantornes" />
		<tag k="place" v="hamlet" />
		<tag k="ssr:stedsnr" v="746208" />
	</node>
	<node lat="69.25431944394488" lon="19.22316664733969" id="-99127">
		<tag k="name" v="Haugli" />
		<tag k="place" v="farm" />
		<tag k="ssr:stedsnr" v="746312" />
	</node>
	<node lat="69.06693055947784" lon="19.265552773273175" id="-99128">
		<tag k="alt_name" v="Litlebu" />
		<tag k="name" v="Lillebo" />
		<tag k="place" v="farm" />
		<tag k="ssr:stedsnr" v="746467" />
	</node>
	<node lat="69.07642221839788" lon="19.309352772910998" id="-99129">
		<tag k="name" v="Myrvang" />
		<tag k="place" v="farm" />
		<tag k="ssr:stedsnr" v="746468" />
	</node>
	<node lat="69.11860277813621" lon="19.143233320171106" id="-99130">
		<tag k="alt_name" v="Strømsmoen" />
		<tag k="name" v="Strømsmo" />
		<tag k="place" v="farm" />
		<tag k="ssr:stedsnr" v="746769" />
	</node>
	<node lat="69.31599166496896" lon="19.421966649087363" id="-99133">
		<tag k="name" v="Melelva" />
		<tag k="place" v="farm" />
		<tag k="ssr:stedsnr" v="747107" />
	</node>
	<node lat="69.31402185483913" lon="19.5344061564443" id="-99134">
		<tag k="fixme" v="consider place=hamlet" />
		<tag k="name" v="Mobakken" />
		<tag k="place" v="farm" />
		<tag k="ssr:stedsnr" v="747114" />
	</node>
	<node lat="69.09407777652106" lon="19.185608317878653" id="-99135">
		<tag k="alt_name" v="Strømslia;Straumsli" />
		<tag k="name" v="Strømsli" />
		<tag k="place" v="farm" />
		<tag k="ssr:stedsnr" v="747865" />
	</node>
	<node lat="69.26033055856708" lon="19.415874994216455" id="-99136">
		<tag k="name" v="Solberg" />
		<tag k="place" v="farm" />
		<tag k="ssr:stedsnr" v="748515" />
	</node>
	<node lat="69.432390230852" lon="18.531852408506754" id="-99138">
		<tag k="name" v="Berg" />
		<tag k="place" v="farm" />
		<tag k="ssr:stedsnr" v="753453" />
	</node>
	<node lat="69.47930833344326" lon="18.48665555627283" id="-99157">
		<tag k="name" v="Forøy Nordre og Søndre" />
		<tag k="place" v="farm" />
		<tag k="ssr:stedsnr" v="777351" />
	</node>
	<node lat="69.2134083333515" lon="19.086019445620373" id="-99163">
		<tag k="name" v="Høyland" />
		<tag k="place" v="farm" />
		<tag k="ssr:stedsnr" v="777899" />
	</node>
	<node lat="69.38828055916048" lon="18.981938880772255" id="-99177">
		<tag k="name" v="Solvoll" />
		<tag k="place" v="farm" />
		<tag k="ssr:stedsnr" v="778258" />
	</node>
	<node lat="69.42113055959496" lon="18.565413873221335" id="-99179">
		<tag k="name" v="Nybrott" />
		<tag k="place" v="isolated_dwelling" />
		<tag k="ssr:stedsnr" v="778267" />
	</node>
	<node lat="69.30114166837848" lon="19.50912221649269" id="-99200">
		<tag k="name" v="Mattisheimen" />
		<tag k="place" v="locality" />
		<tag k="ssr:stedsnr" v="838380" />
	</node>
	<node lat="69.38622222236246" lon="19.2864638681168" id="-99202">
		<tag k="name" v="Heggesletta" />
		<tag k="place" v="farm" />
		<tag k="ssr:stedsnr" v="838576" />
	</node>
	<node lat="69.191783338006" lon="19.706402757897607" id="-99252">
		<tag k="name" v="Myrlund" />
		<tag k="place" v="farm" />
		<tag k="ssr:stedsnr" v="928039" />
	</node>
	<node lat="69.18876944700123" lon="19.723486113287358" id="-99253">
		<tag k="alt_name" v="Sætermoen" />
		<tag k="name" v="Sætermo" />
		<tag k="place" v="farm" />
		<tag k="ssr:stedsnr" v="928041" />
	</node>
	<node lat="69.19045000249749" lon="19.703749981521746" id="-99254">
		<tag k="name" v="Friborg" />
		<tag k="place" v="farm" />
		<tag k="ssr:stedsnr" v="928042" />
	</node>
	<node lat="69.22009444754754" lon="19.30745553848815" id="-99261">
		<tag k="name" v="Kjerrnes" />
		<tag k="place" v="farm" />
		<tag k="ssr:stedsnr" v="928111" />
	</node>
	<node lat="69.22969166581427" lon="19.411566647935" id="-99262">
		<tag k="name" v="Libakken" />
		<tag k="place" v="farm" />
		<tag k="ssr:stedsnr" v="928114" />
	</node>
	<node lat="69.22209999682613" lon="19.23575554681939" id="-99263">
		<tag k="name" v="Hagevoll" />
		<tag k="place" v="farm" />
		<tag k="ssr:stedsnr" v="928122" />
	</node>
	<node lat="69.28498055201149" lon="19.297236094161512" id="-99265">
		<tag k="name" v="Rynes" />
		<tag k="place" v="farm" />
		<tag k="ssr:stedsnr" v="928341" />
	</node>
	<node lat="69.283952780232" lon="19.291180547449642" id="-99266">
		<tag k="name" v="Fagerheim" />
		<tag k="place" v="farm" />
		<tag k="ssr:stedsnr" v="928344" />
	</node>
	<node lat="69.2104057912157" lon="19.787408545239018" id="-99272">
		<tag k="name" v="Forelvmo" />
		<tag k="place" v="farm" />
		<tag k="ssr:stedsnr" v="929067" />
	</node>
	<node lat="69.19200833054178" lon="19.676866664439668" id="-99275">
		<tag k="name" v="Bjørkmo" />
		<tag k="place" v="farm" />
		<tag k="ssr:stedsnr" v="929019" />
	</node>
	<node lat="69.25756746739248" lon="19.11217797588466" id="-99276">
		<tag k="fixme" v="consider place=hamlet" />
		<tag k="name" v="Petersborg" />
		<tag k="place" v="farm" />
		<tag k="ssr:stedsnr" v="929025" />
	</node>
	<node lat="69.2658750038151" lon="18.81693333711773" id="-99278">
		<tag k="name" v="Bjørkhaug" />
		<tag k="place" v="farm" />
		<tag k="ssr:stedsnr" v="929047" />
	</node>
	<node lat="69.24120685211966" lon="19.227750160269547" id="-99280">
		<tag k="name" v="Veiskiftet" />
		<tag k="place" v="farm" />
		<tag k="ssr:stedsnr" v="929148" />
	</node>
	<node lat="69.25214166798442" lon="19.42603054238104" id="-99281">
		<tag k="name" v="Hamnnes" />
		<tag k="old_name" v="Havnes;Hamnes" />
		<tag k="place" v="farm" />
		<tag k="ssr:stedsnr" v="929261" />
	</node>
	<node lat="69.18763055385541" lon="19.23463054101968" id="-99283">
		<tag k="name" v="Dalheim" />
		<tag k="place" v="farm" />
		<tag k="ssr:stedsnr" v="929078" />
	</node>
	<node lat="69.19074166291335" lon="19.27888889109841" id="-99284">
		<tag k="name" v="Nylund" />
		<tag k="place" v="isolated_dwelling" />
		<tag k="ssr:stedsnr" v="929079" />
	</node>
	<node lat="69.22025833642111" lon="19.574491651153682" id="-99285">
		<tag k="name" v="Åsgard" />
		<tag k="place" v="farm" />
		<tag k="ssr:stedsnr" v="929089" />
	</node>
	<node lat="69.21451389042808" lon="19.555633322775947" id="-99286">
		<tag k="name" v="Molund" />
		<tag k="place" v="farm" />
		<tag k="ssr:stedsnr" v="929090" />
	</node>
	<node lat="69.24591666851384" lon="19.438836097983447" id="-99287">
		<tag k="name" v="Soleng" />
		<tag k="place" v="farm" />
		<tag k="ssr:stedsnr" v="929154" />
	</node>
	<node lat="69.33108333651725" lon="19.29969721785442" id="-99288">
		<tag k="name" v="Slåtten" />
		<tag k="place" v="farm" />
		<tag k="ssr:stedsnr" v="929156" />
	</node>
	<node lat="69.33026015349976" lon="19.403467357014662" id="-99289">
		<tag k="name" v="Heggenes" />
		<tag k="place" v="locality" />
		<tag k="ssr:stedsnr" v="929158" />
	</node>
	<node lat="69.23352778110578" lon="19.225461110889167" id="-99290">
		<tag k="name" v="Dalbu" />
		<tag k="place" v="farm" />
		<tag k="ssr:stedsnr" v="929172" />
	</node>
	<node lat="69.3754061404356" lon="19.364519461556426" id="-99291">
		<tag k="alt_name" v="Laksvatn, yt" />
		<tag k="fixme" v="consider place=hamlet" />
		<tag k="name" v="Ytre Laksvatn" />
		<tag k="place" v="farm" />
		<tag k="ssr:stedsnr" v="929174" />
	</node>
	<node lat="69.38075000205839" lon="19.279286102742816" id="-99292">
		<tag k="name" v="Solvang" />
		<tag k="place" v="farm" />
		<tag k="ssr:stedsnr" v="929191" />
	</node>
	<node lat="69.37956111100485" lon="19.282813869682705" id="-99293">
		<tag k="name" v="Dalheim" />
		<tag k="place" v="farm" />
		<tag k="ssr:stedsnr" v="929195" />
	</node>
	<node lat="69.0444305606112" lon="19.32824720591999" id="-99295">
		<tag k="alt_name" v="Furuly" />
		<tag k="name" v="Furuli" />
		<tag k="place" v="farm" />
		<tag k="ssr:stedsnr" v="929418" />
	</node>
	<node lat="69.27392499889707" lon="19.273505543260313" id="-99301">
		<tag k="name" v="Elvebu" />
		<tag k="place" v="farm" />
		<tag k="ssr:stedsnr" v="929288" />
	</node>
	<node lat="69.08573888634405" lon="19.603211106474333" id="-99303">
		<tag k="name" v="Sæter" />
		<tag k="place" v="farm" />
		<tag k="ssr:stedsnr" v="929443" />
	</node>
	<node lat="69.091711111305" lon="19.245458313412204" id="-99304">
		<tag k="name" v="Nyheim" />
		<tag k="place" v="farm" />
		<tag k="ssr:stedsnr" v="929462" />
	</node>
	<node lat="69.34268018386625" lon="19.128223413940283" id="-99315">
		<tag k="fixme" v="consider place=hamlet" />
		<tag k="name" v="Middagsbukta" />
		<tag k="place" v="village" />
		<tag k="ssr:stedsnr" v="929973" />
	</node>
	<node lat="69.24888284076938" lon="19.044286879718296" id="-99318">
		<tag k="name" v="Grensevoll" />
		<tag k="place" v="farm" />
		<tag k="ssr:stedsnr" v="929921" />
	</node>
	<node lat="69.18411111200494" lon="19.05024720275572" id="-99319">
		<tag k="name" v="Nerli" />
		<tag k="place" v="farm" />
		<tag k="ssr:stedsnr" v="867977" />
	</node>
	<node lat="69.25540277854438" lon="19.157038872520587" id="-99323">
		<tag k="name" v="Sørli" />
		<tag k="place" v="farm" />
		<tag k="ssr:stedsnr" v="868027" />
	</node>
	<node lat="69.25147499811742" lon="19.22442499509714" id="-99331">
		<tag k="alt_name" v="Skjånes" />
		<tag k="name" v="Sjånes" />
		<tag k="place" v="farm" />
		<tag k="ssr:stedsnr" v="868272" />
	</node>
	<node lat="69.16690849902115" lon="19.17752354353813" id="-99334">
		<tag k="alt_name" v="Steinmoen" />
		<tag k="name" v="Steinmo" />
		<tag k="place" v="farm" />
		<tag k="ssr:stedsnr" v="868720" />
	</node>
	<node lat="69.47805000147086" lon="18.48393332996737" id="-99335">
		<tag k="name" v="Soleng" />
		<tag k="place" v="farm" />
		<tag k="ssr:stedsnr" v="868604" />
	</node>
	<node lat="69.48208055108368" lon="18.482177775998" id="-99337">
		<tag k="alt_name" v="Lamo" />
		<tag k="name" v="Lamoen" />
		<tag k="place" v="farm" />
		<tag k="ssr:stedsnr" v="868618" />
	</node>
	<node lat="69.07893610791011" lon="19.213922207877836" id="-99338">
		<tag k="alt_name" v="Vassmoen" />
		<tag k="name" v="Vassmo" />
		<tag k="place" v="farm" />
		<tag k="ssr:stedsnr" v="868813" />
	</node>
	<node lat="69.40578889060862" lon="18.990138882192156" id="-99340">
		<tag k="name" v="Slettnes" />
		<tag k="place" v="farm" />
		<tag k="ssr:stedsnr" v="868911" />
	</node>
	<node lat="69.38267916086969" lon="19.00368857559151" id="-99342">
		<tag k="name" v="Heimnes" />
		<tag k="place" v="farm" />
		<tag k="ssr:stedsnr" v="868921" />
	</node>
	<node lat="69.42962499841003" lon="18.94603331406211" id="-99345">
		<tag k="name" v="Kjosvoll" />
		<tag k="place" v="farm" />
		<tag k="ssr:stedsnr" v="868873" />
	</node>
	<node lat="69.3249083313027" lon="19.410519445528823" id="-99350">
		<tag k="name" v="Mo" />
		<tag k="place" v="farm" />
		<tag k="ssr:stedsnr" v="870519" />
	</node>
	<node lat="69.04619166373728" lon="19.3023583122592" id="-99353">
		<tag k="name" v="Lisestua" />
		<tag k="place" v="isolated_dwelling" />
		<tag k="ssr:stedsnr" v="886958" />
	</node>
	<node lat="69.3420000016725" lon="19.387897222210007" id="-99355">
		<tag k="name" v="Tomasjord" />
		<tag k="place" v="hamlet" />
		<tag k="ssr:stedsnr" v="887631" />
	</node>
	<node lat="69.38171388798905" lon="18.960530546541268" id="-99399">
		<tag k="alt_name" v="Høyer" />
		<tag k="name" v="Høier" />
		<tag k="place" v="farm" />
		<tag k="ssr:stedsnr" v="928949" />
	</node>
	<node lat="69.37855833419364" lon="18.666208335720462" id="-99400">
		<tag k="name" v="Solli" />
		<tag k="place" v="farm" />
		<tag k="ssr:stedsnr" v="928953" />
	</node>
	<node lat="69.21917613480737" lon="19.554687045407235" id="-99402">
		<tag k="name" v="Nordkjosbotn - Gárgán" />
		<tag k="name:no" v="Nordkjosbotn" />
		<tag k="name:se" v="Gárgán" />
		<tag k="place" v="village" />
		<tag k="ssr:stedsnr" v="929103" />
	</node>
	<node lat="69.32019999670254" lon="18.838774994455175" id="-99403">
		<tag k="name" v="Myrvang" />
		<tag k="place" v="farm" />
		<tag k="ssr:stedsnr" v="929106" />
	</node>
	<node lat="69.31945277629634" lon="18.833149985461482" id="-99406">
		<tag k="name" v="Lamyr" />
		<tag k="place" v="farm" />
		<tag k="ssr:stedsnr" v="929112" />
	</node>
	<node lat="69.31552222038755" lon="19.421672206190372" id="-99409">
		<tag k="name" v="Elvemoen" />
		<tag k="place" v="farm" />
		<tag k="ssr:stedsnr" v="929117" />
	</node>
	<node lat="69.31527778006661" lon="19.422405540991946" id="-99410">
		<tag k="name" v="Myrbakken" />
		<tag k="place" v="farm" />
		<tag k="ssr:stedsnr" v="929118" />
	</node>
	<node lat="69.32121667051537" lon="18.960241665374912" id="-99411">
		<tag k="name" v="Bakken" />
		<tag k="place" v="farm" />
		<tag k="ssr:stedsnr" v="929099" />
	</node>
	<node lat="69.25644999827446" lon="19.41982219968529" id="-99412">
		<tag k="name" v="Haugslett" />
		<tag k="place" v="farm" />
		<tag k="ssr:stedsnr" v="929305" />
	</node>
	<node lat="69.22266349962253" lon="19.14135592391439" id="-99416">
		<tag k="alt_name" v="Ophus" />
		<tag k="fixme" v="consider place=hamlet" />
		<tag k="name" v="Opphus" />
		<tag k="place" v="farm" />
		<tag k="ssr:stedsnr" v="929945" />
	</node>
	<node lat="69.36290848632757" lon="18.852117309286626" id="-99419">
		<tag k="name" v="Sæterli" />
		<tag k="place" v="farm" />
		<tag k="ssr:stedsnr" v="929957" />
	</node>
	<node lat="69.34975833753192" lon="19.37658888553821" id="-99422">
		<tag k="name" v="Solhaug" />
		<tag k="place" v="farm" />
		<tag k="ssr:stedsnr" v="931600" />
	</node>
	<node lat="69.28858611276446" lon="18.948638881203763" id="-99423">
		<tag k="name" v="Lakseidet" />
		<tag k="place" v="farm" />
		<tag k="ssr:stedsnr" v="937906" />
	</node>
	<node lat="69.20564722398505" lon="19.641991665334768" id="-99432">
		<tag k="barrier" v="fence" />
		<tag k="name" v="Reingjerdan" />
		<tag k="ssr:stedsnr" v="959204" />
	</node>
	<node lat="69.21750833149785" lon="19.490274997640416" id="-99440">
		<tag k="name" v="Melen" />
		<tag k="place" v="hamlet" />
		<tag k="ssr:stedsnr" v="959401" />
	</node>
	<node lat="69.40955278177998" lon="18.69208889404921" id="-99446">
		<tag k="name" v="Rognså" />
		<tag k="place" v="farm" />
		<tag k="ssr:stedsnr" v="960009" />
	</node>
	<node lat="69.25218611058503" lon="19.025616655688623" id="-99448">
		<tag k="name" v="Vassvoll" />
		<tag k="place" v="farm" />
		<tag k="ssr:stedsnr" v="959921" />
	</node>
	<node lat="69.19136110781771" lon="19.263624997605096" id="-99453">
		<tag k="historic" v="shieling" />
		<tag k="name" v="Antonsætra" />
		<tag k="place" v="isolated_dwelling" />
		<tag k="ssr:stedsnr" v="960349" />
	</node>
	<node lat="69.2664004195256" lon="18.831426571300284" id="-99460">
		<tag k="name" v="Ødegård" />
		<tag k="place" v="farm" />
		<tag k="ssr:stedsnr" v="960594" />
	</node>
	<node lat="69.32052964750378" lon="18.736726134035052" id="-99471">
		<tag k="name" v="Sletteng" />
		<tag k="place" v="farm" />
		<tag k="ssr:stedsnr" v="975327" />
	</node>
	<node lat="69.36611873672148" lon="18.748404420012886" id="-99472">
		<tag k="name" v="Skogli" />
		<tag k="place" v="farm" />
		<tag k="ssr:stedsnr" v="984356" />
	</node>
	<node lat="69.19313611347104" lon="19.673669443380305" id="-99475">
		<tag k="name" v="Bjørkåker" />
		<tag k="place" v="farm" />
		<tag k="ssr:stedsnr" v="17046" />
	</node>
	<node lat="69.19724722615034" lon="19.08832221093921" id="-99479">
		<tag k="name" v="Skoglund" />
		<tag k="place" v="farm" />
		<tag k="ssr:stedsnr" v="17979" />
	</node>
	<node lat="69.22976944697636" lon="19.320236091000243" id="-99480">
		<tag k="name" v="Markenes" />
		<tag k="place" v="farm" />
		<tag k="ssr:stedsnr" v="18068" />
	</node>
	<node lat="69.2747999963399" lon="19.165291658829407" id="-99481">
		<tag k="name" v="Luneng" />
		<tag k="place" v="farm" />
		<tag k="ssr:stedsnr" v="18069" />
	</node>
	<node lat="69.28836388595278" lon="18.94658610981374" id="-99482">
		<tag k="name" v="Lakseidet" />
		<tag k="place" v="hamlet" />
		<tag k="ssr:stedsnr" v="18090" />
	</node>
	<node lat="69.25795556027349" lon="19.13497220898324" id="-99485">
		<tag k="name" v="Vasseng" />
		<tag k="place" v="farm" />
		<tag k="ssr:stedsnr" v="18040" />
	</node>
	<node lat="69.22028055363111" lon="19.255341662132828" id="-99486">
		<tag k="name" v="Bjørkelo" />
		<tag k="place" v="farm" />
		<tag k="ssr:stedsnr" v="18124" />
	</node>
	<node lat="69.33162499713896" lon="19.274911093918117" id="-99487">
		<tag k="name" v="Skogheim" />
		<tag k="place" v="locality" />
		<tag k="ssr:stedsnr" v="18157" />
	</node>
	<node lat="69.29689999802324" lon="19.414100000509368" id="-99488">
		<tag k="name" v="Åsly" />
		<tag k="place" v="farm" />
		<tag k="ssr:stedsnr" v="18301" />
	</node>
	<node lat="69.29101388548948" lon="19.31624444265689" id="-99492">
		<tag k="name" v="Bakken" />
		<tag k="place" v="farm" />
		<tag k="ssr:stedsnr" v="18327" />
	</node>
	<node lat="69.12143889304876" lon="19.744599982681134" id="-99494">
		<tag k="name" v="Bergli" />
		<tag k="place" v="farm" />
		<tag k="ssr:stedsnr" v="18460" />
	</node>
	<node lat="69.09308251627438" lon="19.616565917058" id="-99496">
		<tag k="name" v="Sletta" />
		<tag k="place" v="farm" />
		<tag k="ssr:stedsnr" v="18435" />
	</node>
	<node lat="69.08676110973332" lon="19.370252776459438" id="-99497">
		<tag k="name" v="Østerli" />
		<tag k="place" v="farm" />
		<tag k="ssr:stedsnr" v="18436" />
	</node>
	<node lat="69.15647032999935" lon="19.17238634744231" id="-99500">
		<tag k="fixme" v="consider place=hamlet" />
		<tag k="name" v="Strupen" />
		<tag k="place" v="farm" />
		<tag k="ssr:stedsnr" v="18689" />
	</node>
	<node lat="69.12457499829218" lon="19.10036389288826" id="-99504">
		<tag k="name" v="Kongsli" />
		<tag k="place" v="farm" />
		<tag k="ssr:stedsnr" v="18794" />
	</node>
	<node lat="69.37542777712787" lon="19.13190554624402" id="-99508">
		<tag k="name" v="Bjørkli" />
		<tag k="place" v="farm" />
		<tag k="ssr:stedsnr" v="18961" />
	</node>
	<node lat="69.20711666348357" lon="19.65118888510793" id="-99512">
		<tag k="name" v="Heggeli" />
		<tag k="place" v="farm" />
		<tag k="ssr:stedsnr" v="19052" />
	</node>
	<node lat="69.19252777980321" lon="19.22431943157403" id="-99513">
		<tag k="alt_name" v="Sørkjossætra" />
		<tag k="historic" v="shieling" />
		<tag k="name" v="Sørkjossætrene" />
		<tag k="place" v="isolated_dwelling" />
		<tag k="ssr:stedsnr" v="19062" />
	</node>
	<node lat="69.3759083374137" lon="18.964999992340474" id="-99516">
		<tag k="name" v="Heimlund" />
		<tag k="place" v="isolated_dwelling" />
		<tag k="ssr:stedsnr" v="18969" />
	</node>
	<node lat="69.33860278062878" lon="18.82273331684975" id="-99518">
		<tag k="name" v="Elvebakken" />
		<tag k="place" v="farm" />
		<tag k="ssr:stedsnr" v="18974" />
	</node>
	<node lat="69.34580277434029" lon="19.206874994958216" id="-99520">
		<tag k="name" v="Hammarvoll" />
		<tag k="place" v="farm" />
		<tag k="ssr:stedsnr" v="18976" />
	</node>
	<node lat="69.3362487094282" lon="19.398439619794257" id="-99522">
		<tag k="name" v="Brattstad" />
		<tag k="place" v="farm" />
		<tag k="ssr:stedsnr" v="19164" />
	</node>
	<node lat="69.23378779198826" lon="19.38173209994383" id="-99523">
		<tag k="name" v="Brygghaug" />
		<tag k="place" v="farm" />
		<tag k="ssr:stedsnr" v="19167" />
	</node>
	<node lat="69.23222733031602" lon="19.23060685370464" id="-99524">
		<tag k="alt_name" v="Sagelva" />
		<tag k="fixme" v="consider place=hamlet" />
		<tag k="name" v="Sagelv" />
		<tag k="place" v="farm" />
		<tag k="ssr:stedsnr" v="19177" />
	</node>
	<node lat="69.31320000349706" lon="18.8713166556178" id="-99526">
		<tag k="name" v="Lundberg" />
		<tag k="place" v="isolated_dwelling" />
		<tag k="ssr:stedsnr" v="19110" />
	</node>
	<node lat="69.31277389600251" lon="19.536682352813315" id="-99527">
		<tag k="fixme" v="consider place=hamlet" />
		<tag k="name" v="Lakselvsletta" />
		<tag k="place" v="farm" />
		<tag k="ssr:stedsnr" v="19119" />
	</node>
	<node lat="69.3023277772344" lon="19.33683333390353" id="-99528">
		<tag k="name" v="Gammelgard" />
		<tag k="place" v="farm" />
		<tag k="ssr:stedsnr" v="19123" />
	</node>
	<node lat="69.322380555731" lon="19.558316668933912" id="-99529">
		<tag k="name" v="Alfheim" />
		<tag k="place" v="farm" />
		<tag k="ssr:stedsnr" v="19140" />
	</node>
	<node lat="69.32253889150127" lon="19.561172209455908" id="-99530">
		<tag k="name" v="Kveldro" />
		<tag k="place" v="farm" />
		<tag k="ssr:stedsnr" v="19141" />
	</node>
	<node lat="69.441215249246" lon="18.5006435186255" id="-99537">
		<tag k="alt_name" v="Spilderbugten" />
		<tag k="fixme" v="consider place=hamlet" />
		<tag k="name" v="Spilderbukta" />
		<tag k="place" v="farm" />
		<tag k="ssr:stedsnr" v="19650" />
	</node>
	<node lat="69.44637499712466" lon="18.490230548577937" id="-99539">
		<tag k="name" v="Dalset" />
		<tag k="place" v="farm" />
		<tag k="ssr:stedsnr" v="19660" />
	</node>
	<node lat="69.38768610774292" lon="18.71801944304218" id="-99543">
		<tag k="name" v="Stabben" />
		<tag k="place" v="farm" />
		<tag k="ssr:stedsnr" v="19921" />
	</node>
	<node lat="69.21613055849585" lon="19.119049982233786" id="-99547">
		<tag k="name" v="Løvvoll" />
		<tag k="place" v="farm" />
		<tag k="ssr:stedsnr" v="19985" />
	</node>
	<node lat="69.30726389283032" lon="19.403377779426293" id="-99548">
		<tag k="name" v="Seljelv" />
		<tag k="place" v="farm" />
		<tag k="ssr:stedsnr" v="25394" />
	</node>
	<node lat="69.05256944570472" lon="19.444091657740636" id="-99562">
		<tag k="historic" v="shieling" />
		<tag k="name" v="Einargammen" />
		<tag k="place" v="isolated_dwelling" />
		<tag k="ssr:stedsnr" v="49130" />
	</node>
	<node lat="69.32132858995722" lon="18.891334066215958" id="-99632">
		<tag k="fixme" v="consider place=hamlet" />
		<tag k="name" v="Lanes" />
		<tag k="place" v="farm" />
		<tag k="ssr:stedsnr" v="50944" />
	</node>
	<node lat="69.19367222315498" lon="19.290888875584002" id="-99636">
		<tag k="name" v="Hølen" />
		<tag k="place" v="farm" />
		<tag k="ssr:stedsnr" v="60927" />
	</node>
	<node lat="69.1769777779322" lon="19.02346943789911" id="-99639">
		<tag k="name" v="Øverli" />
		<tag k="place" v="farm" />
		<tag k="ssr:stedsnr" v="78780" />
	</node>
	<node lat="69.12318888852023" lon="19.082197214971536" id="-99641">
		<tag k="name" v="Kongsberg" />
		<tag k="place" v="farm" />
		<tag k="ssr:stedsnr" v="79817" />
	</node>
	<node lat="69.26458611577293" lon="18.749374986140054" id="-99644">
		<tag k="name" v="Mo" />
		<tag k="place" v="farm" />
		<tag k="ssr:stedsnr" v="79064" />
	</node>
	<node lat="69.26765278076306" lon="18.778591657411848" id="-99645">
		<tag k="name" v="Bergom" />
		<tag k="place" v="farm" />
		<tag k="ssr:stedsnr" v="79065" />
	</node>
	<node lat="69.20689166497576" lon="19.651030539711524" id="-99646">
		<tag k="name" v="Fagerli" />
		<tag k="place" v="farm" />
		<tag k="ssr:stedsnr" v="79069" />
	</node>
	<node lat="69.19344722428283" lon="19.24463332505868" id="-99649">
		<tag k="name" v="Stormo" />
		<tag k="place" v="farm" />
		<tag k="ssr:stedsnr" v="79077" />
	</node>
	<node lat="69.23167500250038" lon="19.395177771460027" id="-99653">
		<tag k="name" v="Viken" />
		<tag k="place" v="farm" />
		<tag k="ssr:stedsnr" v="79175" />
	</node>
	<node lat="69.21745000256102" lon="19.473027773322848" id="-99655">
		<tag k="name" v="Bjørnebu" />
		<tag k="place" v="farm" />
		<tag k="ssr:stedsnr" v="79111" />
	</node>
	<node lat="69.29680000275725" lon="18.939699989303254" id="-99656">
		<tag k="name" v="Lauvhaugen" />
		<tag k="place" v="farm" />
		<tag k="ssr:stedsnr" v="79112" />
	</node>
	<node lat="69.32262500312522" lon="18.961536111451505" id="-99658">
		<tag k="name" v="Sæter" />
		<tag k="place" v="farm" />
		<tag k="ssr:stedsnr" v="79125" />
	</node>
	<node lat="69.23297777848765" lon="19.372500002457695" id="-99661">
		<tag k="name" v="Fjellberg" />
		<tag k="place" v="farm" />
		<tag k="ssr:stedsnr" v="79178" />
	</node>
	<node lat="69.34317777829887" lon="19.25768332163349" id="-99662">
		<tag k="name" v="Ytregard" />
		<tag k="place" v="farm" />
		<tag k="ssr:stedsnr" v="79181" />
	</node>
	<node lat="69.3405444437971" lon="19.304080543192725" id="-99663">
		<tag k="name" v="Kvalvik" />
		<tag k="place" v="farm" />
		<tag k="ssr:stedsnr" v="79187" />
	</node>
	<node lat="69.25091111494132" lon="19.4270222022025" id="-99664">
		<tag k="name" v="Hjemgård" />
		<tag k="place" v="farm" />
		<tag k="ssr:stedsnr" v="79278" />
	</node>
	<node lat="69.09754721961156" lon="19.706874981007996" id="-99666">
		<tag k="name" v="Harkinn" />
		<tag k="place" v="farm" />
		<tag k="ssr:stedsnr" v="79454" />
	</node>
	<node lat="69.10756944743686" lon="19.72404999981097" id="-99669">
		<tag k="name" v="Nyborg" />
		<tag k="place" v="farm" />
		<tag k="ssr:stedsnr" v="79464" />
	</node>
	<node lat="69.41125555667762" lon="18.669772227278376" id="-99677">
		<tag k="name" v="Kjernberg" />
		<tag k="place" v="farm" />
		<tag k="ssr:stedsnr" v="79909" />
	</node>
	<node lat="69.4191500003251" lon="18.57118333918293" id="-99678">
		<tag k="name" v="Nyvoll" />
		<tag k="place" v="farm" />
		<tag k="ssr:stedsnr" v="79663" />
	</node>
	<node lat="69.42822347085826" lon="18.54550854503558" id="-99679">
		<tag k="fixme" v="consider place=hamlet" />
		<tag k="name" v="Bakkeby" />
		<tag k="place" v="farm" />
		<tag k="ssr:stedsnr" v="79666" />
	</node>
	<node lat="69.4335277813199" lon="18.942247226639875" id="-99682">
		<tag k="name" v="Bakken" />
		<tag k="place" v="isolated_dwelling" />
		<tag k="ssr:stedsnr" v="79872" />
	</node>
	<node lat="69.43069793330287" lon="19.059925656174492" id="-99683">
		<tag k="alt_name" v="Storbugten" />
		<tag k="name" v="Storbukta" />
		<tag k="place" v="hamlet" />
		<tag k="ssr:stedsnr" v="79876" />
	</node>
	<node lat="69.22325278129519" lon="19.145397224938414" id="-99685">
		<tag k="name" v="Oppgård" />
		<tag k="place" v="farm" />
		<tag k="ssr:stedsnr" v="79944" />
	</node>
	<node lat="69.24329166255785" lon="18.98668610367088" id="-99686">
		<tag k="name" v="Øverli" />
		<tag k="place" v="farm" />
		<tag k="ssr:stedsnr" v="79957" />
	</node>
	<node lat="69.34812705464351" lon="18.756897044714794" id="-99692">
		<tag k="alt_name" v="Kjærvik" />
		<tag k="fixme" v="consider place=hamlet" />
		<tag k="name" v="Kjerrvika" />
		<tag k="place" v="farm" />
		<tag k="ssr:stedsnr" v="79986" />
	</node>
	<node lat="69.32373055485046" lon="18.947058335618305" id="-99694">
		<tag k="alt_name" v="Hellaberget" />
		<tag k="name" v="Hillabergan" />
		<tag k="place" v="farm" />
		<tag k="ssr:stedsnr" v="79990" />
	</node>
	<node lat="69.3026000019831" lon="19.415777775793114" id="-99701">
		<tag k="name" v="Skogen" />
		<tag k="place" v="farm" />
		<tag k="ssr:stedsnr" v="81608" />
	</node>
	<node lat="69.44284444272175" lon="18.922155549187142" id="-99706">
		<tag k="name" v="Kvitnes" />
		<tag k="place" v="farm" />
		<tag k="ssr:stedsnr" v="87820" />
	</node>
	<node lat="69.43922500028762" lon="18.936086100304337" id="-99722">
		<tag k="name" v="Nyberg" />
		<tag k="place" v="farm" />
		<tag k="ssr:stedsnr" v="98794" />
	</node>
	<node lat="69.39089444842509" lon="18.616191657782714" id="-99740">
		<tag k="amenity" v="school" />
		<tag k="name" v="Sand skole" />
		<tag k="ssr:stedsnr" v="110180" />
	</node>
	<node lat="69.19658888587335" lon="19.755224992771907" id="-99799">
		<tag k="name" v="Mo" />
		<tag k="place" v="farm" />
		<tag k="ssr:stedsnr" v="138053" />
	</node>
	<node lat="69.19142499740921" lon="19.727316648923054" id="-99800">
		<tag k="name" v="Skjold" />
		<tag k="place" v="farm" />
		<tag k="ssr:stedsnr" v="138055" />
	</node>
	<node lat="69.12170278041593" lon="19.11744166314498" id="-99807">
		<tag k="name" v="Solhaug" />
		<tag k="place" v="farm" />
		<tag k="ssr:stedsnr" v="139811" />
	</node>
	<node lat="69.19790833654893" lon="19.21090831961968" id="-99808">
		<tag k="name" v="Bratteng" />
		<tag k="place" v="isolated_dwelling" />
		<tag k="ssr:stedsnr" v="138965" />
	</node>
	<node lat="69.26513601380049" lon="18.860162093880827" id="-99814">
		<tag k="fixme" v="consider place=hamlet" />
		<tag k="name" v="Bjørkli" />
		<tag k="place" v="farm" />
		<tag k="ssr:stedsnr" v="139054" />
	</node>
	<node lat="69.27566666681106" lon="19.177541669430436" id="-99815">
		<tag k="name" v="Nyvoll" />
		<tag k="place" v="farm" />
		<tag k="ssr:stedsnr" v="139065" />
	</node>
	<node lat="69.28656420830445" lon="19.014087112191767" id="-99816">
		<tag k="name" v="Solbakken" />
		<tag k="place" v="farm" />
		<tag k="ssr:stedsnr" v="139074" />
	</node>
	<node lat="69.21858055241671" lon="19.573566659917443" id="-99818">
		<tag k="name" v="Movollen" />
		<tag k="place" v="farm" />
		<tag k="ssr:stedsnr" v="139112" />
	</node>
	<node lat="69.30274999857298" lon="18.6549861014413" id="-99819">
		<tag k="name" v="Nordlund" />
		<tag k="place" v="farm" />
		<tag k="ssr:stedsnr" v="139117" />
	</node>
	<node lat="69.29421071772204" lon="19.330148364760934" id="-99824">
		<tag k="name" v="Steinsvoll" />
		<tag k="place" v="farm" />
		<tag k="ssr:stedsnr" v="139355" />
	</node>
	<node lat="69.28101666544342" lon="19.412522224563286" id="-99826">
		<tag k="alt_name" v="Myrli" />
		<tag k="name" v="Myra" />
		<tag k="place" v="farm" />
		<tag k="ssr:stedsnr" v="139326" />
	</node>
	<node lat="69.27795159110102" lon="19.281320168529522" id="-99827">
		<tag k="alt_name" v="Litleng" />
		<tag k="name" v="Lilleng" />
		<tag k="place" v="farm" />
		<tag k="ssr:stedsnr" v="139331" />
	</node>
	<node lat="69.27729999845256" lon="19.26963332760625" id="-99828">
		<tag k="name" v="Storbakk" />
		<tag k="place" v="farm" />
		<tag k="ssr:stedsnr" v="139333" />
	</node>
	<node lat="69.05308888600356" lon="19.480133321738926" id="-99833">
		<tag k="alt_name" v="Gravrokk" />
		<tag k="name" v="Gravrok" />
		<tag k="place" v="farm" />
		<tag k="ssr:stedsnr" v="139464" />
	</node>
	<node lat="69.06256111328055" lon="19.46718888963702" id="-99834">
		<tag k="name" v="Furu" />
		<tag k="place" v="farm" />
		<tag k="ssr:stedsnr" v="139476" />
	</node>
	<node lat="69.40783517933008" lon="18.59262770489735" id="-99842">
		<tag k="alt_name" v="Labugten" />
		<tag k="fixme" v="consider place=hamlet" />
		<tag k="name" v="Labukta" />
		<tag k="place" v="farm" />
		<tag k="ssr:stedsnr" v="139670" />
	</node>
	<node lat="69.23504835326679" lon="19.212769960570036" id="-99843">
		<tag k="name" v="Molund" />
		<tag k="place" v="farm" />
		<tag k="ssr:stedsnr" v="139929" />
	</node>
	<node lat="69.21946237621276" lon="19.132985074225346" id="-99844">
		<tag k="alt_name" v="Hansvold" />
		<tag k="fixme" v="consider place=hamlet" />
		<tag k="name" v="Hansvoll" />
		<tag k="place" v="farm" />
		<tag k="ssr:stedsnr" v="139936" />
	</node>
	<node lat="69.44847500287808" lon="18.997805547163722" id="-99847">
		<tag k="name" v="Bakken" />
		<tag k="place" v="farm" />
		<tag k="ssr:stedsnr" v="139885" />
	</node>
	<node lat="69.3754638844336" lon="19.139599997915905" id="-99848">
		<tag k="name" v="Stranda" />
		<tag k="place" v="farm" />
		<tag k="ssr:stedsnr" v="139961" />
	</node>
	<node lat="69.36620983784901" lon="18.75135338256048" id="-99849">
		<tag k="alt_name" v="Skutvikåsen, nedre" />
		<tag k="name" v="Nedre Skutvikåsen" />
		<tag k="place" v="hamlet" />
		<tag k="ssr:stedsnr" v="139964" />
	</node>
	<node lat="69.37115555913422" lon="18.941708326311694" id="-99851">
		<tag k="name" v="Aspemoen" />
		<tag k="place" v="farm" />
		<tag k="ssr:stedsnr" v="139968" />
	</node>
	<node lat="69.34598055615362" lon="18.88140553695604" id="-99853">
		<tag k="alt_name" v="Marud" />
		<tag k="name" v="Morud" />
		<tag k="place" v="farm" />
		<tag k="ssr:stedsnr" v="139979" />
	</node>
	<node lat="69.23103889002674" lon="19.48412498370027" id="-99854">
		<tag k="name" v="Haugen" />
		<tag k="place" v="farm" />
		<tag k="ssr:stedsnr" v="140112" />
	</node>
	<node lat="69.23551111486317" lon="19.338905550283478" id="-99858">
		<tag k="fixme" v="consider place=hamlet" />
		<tag k="name" v="Markenes" />
		<tag k="place" v="village" />
		<tag k="ssr:stedsnr" v="140156" />
	</node>
	<node lat="69.08201944834983" lon="19.18635555012434" id="-99861">
		<tag k="name" v="Maukeng" />
		<tag k="place" v="farm" />
		<tag k="ssr:stedsnr" v="140852" />
	</node>
	<node lat="69.44447777522184" lon="19.002677773369513" id="-99863">
		<tag k="name" v="Selset" />
		<tag k="place" v="farm" />
		<tag k="ssr:stedsnr" v="141217" />
	</node>
	<node lat="69.33365277862849" lon="19.40032220252971" id="-99864">
		<tag k="name" v="Jordnes" />
		<tag k="place" v="farm" />
		<tag k="ssr:stedsnr" v="141517" />
	</node>
	<node lat="69.34371944119201" lon="19.27671943098177" id="-99865">
		<tag k="name" v="Åsheim" />
		<tag k="place" v="farm" />
		<tag k="ssr:stedsnr" v="146375" />
	</node>
	<node lat="69.32034222362395" lon="18.892355953816743" id="-99866">
		<tag k="name" v="Lanes" />
		<tag k="place" v="farm" />
		<tag k="ssr:stedsnr" v="147980" />
	</node>
	<node lat="69.38140277833885" lon="19.401997219664086" id="-99888">
		<tag k="name" v="Vassli" />
		<tag k="place" v="farm" />
		<tag k="ssr:stedsnr" v="170451" />
	</node>
	<node lat="69.22115880347697" lon="19.56818833733687" id="-99917">
		<tag k="fixme" v="consider place=hamlet" />
		<tag k="name" v="Vollabakken" />
		<tag k="place" v="farm" />
		<tag k="ssr:stedsnr" v="171237" />
	</node>
	<node lat="69.1191499969171" lon="19.135994446048638" id="-99929">
		<tag k="name" v="Wårum" />
		<tag k="place" v="farm" />
		<tag k="ssr:stedsnr" v="171523" />
	</node>
	<node lat="69.41629167149155" lon="18.573991659320118" id="-99950">
		<tag k="name" v="Myre" />
		<tag k="place" v="farm" />
		<tag k="ssr:stedsnr" v="172285" />
	</node>
	<node lat="69.18641967041916" lon="19.132294298886144" id="-99953">
		<tag k="alt_name" v="Nedre Storbukt" />
		<tag k="fixme" v="consider place=hamlet" />
		<tag k="name" v="Storbukt" />
		<tag k="place" v="farm" />
		<tag k="ssr:stedsnr" v="199980" />
	</node>
	<node lat="69.1906249993859" lon="19.070324989532974" id="-99954">
		<tag k="name" v="Brubakk" />
		<tag k="place" v="farm" />
		<tag k="ssr:stedsnr" v="199981" />
	</node>
	<node lat="69.17235833499564" lon="19.063327773136535" id="-99961">
		<tag k="name" v="Holten" />
		<tag k="place" v="farm" />
		<tag k="ssr:stedsnr" v="199794" />
	</node>
	<node lat="69.17928888752805" lon="19.11471387652926" id="-99962">
		<tag k="name" v="Bergli" />
		<tag k="place" v="farm" />
		<tag k="ssr:stedsnr" v="199797" />
	</node>
	<node lat="69.26844999615707" lon="18.763655544671295" id="-99967">
		<tag k="name" v="Nymo" />
		<tag k="place" v="farm" />
		<tag k="ssr:stedsnr" v="200076" />
	</node>
	<node lat="69.20800000296067" lon="19.77027776369379" id="-99968">
		<tag k="loc_name:se" v="Boaresgiilá" />
		<tag k="name" v="Gammelkila" />
		<tag k="name:no" v="Gammelkila" />
		<tag k="place" v="farm" />
		<tag k="ssr:stedsnr" v="200078" />
	</node>
	<node lat="69.28598055632418" lon="18.956033327186418" id="-99970">
		<tag k="alt_name" v="Sagelvmoen" />
		<tag k="name" v="Sagelvmo" />
		<tag k="place" v="farm" />
		<tag k="ssr:stedsnr" v="200085" />
	</node>
	<node lat="69.12794592561048" lon="19.76560325649787" id="-99973">
		<tag k="name" v="Steinli" />
		<tag k="place" v="farm" />
		<tag k="ssr:stedsnr" v="200026" />
	</node>
	<node lat="69.2648416692276" lon="19.127311105502894" id="-99975">
		<tag k="name" v="Haug" />
		<tag k="place" v="farm" />
		<tag k="ssr:stedsnr" v="200051" />
	</node>
	<node lat="69.32353888879561" lon="19.30393889065968" id="-99977">
		<tag k="name" v="Bergstrøm" />
		<tag k="place" v="farm" />
		<tag k="ssr:stedsnr" v="200131" />
	</node>
	<node lat="69.21918889043916" lon="19.27514722306836" id="-99978">
		<tag k="alt_name" v="Kjerreng" />
		<tag k="name" v="Kjæreng" />
		<tag k="place" v="farm" />
		<tag k="ssr:stedsnr" v="200132" />
	</node>
	<node lat="69.2210888924399" lon="19.531408318865054" id="-99980">
		<tag k="name" v="Sjøtun" />
		<tag k="place" v="farm" />
		<tag k="ssr:stedsnr" v="200142" />
	</node>
	<node lat="69.34327966494794" lon="19.5837728772435" id="-99981">
		<tag k="fixme" v="consider place=hamlet" />
		<tag k="name" v="Håkstad" />
		<tag k="place" v="farm" />
		<tag k="ssr:stedsnr" v="200150" />
	</node>
	<node lat="69.33140277449505" lon="19.27660277507176" id="-99982">
		<tag k="name" v="Lyngstad" />
		<tag k="place" v="locality" />
		<tag k="ssr:stedsnr" v="200151" />
	</node>
	<node lat="69.27560833565663" lon="19.22417776182614" id="-99987">
		<tag k="name" v="Solvoll" />
		<tag k="place" v="farm" />
		<tag k="ssr:stedsnr" v="200335" />
	</node>
	<node lat="69.10453333165944" lon="19.344049981691743" id="-99989">
		<tag k="name" v="Rotli" />
		<tag k="place" v="isolated_dwelling" />
		<tag k="ssr:stedsnr" v="200516" />
	</node>
	<node lat="69.48647500057032" lon="18.995622221722574" id="-99991">
		<tag k="name" v="Myrli" />
		<tag k="place" v="farm" />
		<tag k="ssr:stedsnr" v="200852" />
	</node>
	<node lat="69.43882893015267" lon="18.472873040430212" id="-99992">
		<tag k="alt_name" v="Spildran;Spildra" />
		<tag k="fixme" v="consider place=hamlet" />
		<tag k="name" v="Spildernes" />
		<tag k="place" v="farm" />
		<tag k="ssr:stedsnr" v="200661" />
	</node>
	<node lat="69.12134722564682" lon="19.09573888305302" id="-99995">
		<tag k="name" v="Rostanes" />
		<tag k="place" v="farm" />
		<tag k="ssr:stedsnr" v="200818" />
	</node>
	<node lat="69.36006505172446" lon="18.68951890294216" id="-100000">
		<tag k="alt_name" v="Skutvika, yt" />
		<tag k="fixme" v="consider place=hamlet" />
		<tag k="name" v="Ytre Skutvika" />
		<tag k="place" v="farm" />
		<tag k="ssr:stedsnr" v="200964" />
	</node>
	<node lat="69.45660833633482" lon="18.90464165591613" id="-100001">
		<tag k="name" v="Bjørkeng" />
		<tag k="place" v="farm" />
		<tag k="ssr:stedsnr" v="200864" />
	</node>
	<node lat="69.45156882667057" lon="18.90224902387589" id="-100002">
		<tag k="fixme" v="consider place=hamlet" />
		<tag k="name" v="Holmen" />
		<tag k="place" v="farm" />
		<tag k="ssr:stedsnr" v="200865" />
	</node>
	<node lat="69.44168611092762" lon="18.931127784257562" id="-100004">
		<tag k="name" v="Ryeng" />
		<tag k="place" v="farm" />
		<tag k="ssr:stedsnr" v="200891" />
	</node>
	<node lat="69.3310555560724" lon="18.883272224736572" id="-100006">
		<tag k="name" v="Oldervik" />
		<tag k="place" v="farm" />
		<tag k="ssr:stedsnr" v="200989" />
	</node>
	<node lat="69.20112778029424" lon="19.27148609985814" id="-100007">
		<tag k="name" v="Tverrelvmoen" />
		<tag k="place" v="farm" />
		<tag k="ssr:stedsnr" v="201058" />
	</node>
	<node lat="69.2348749969837" lon="19.339686102025862" id="-100011">
		<tag k="name" v="Nordmo" />
		<tag k="place" v="farm" />
		<tag k="ssr:stedsnr" v="201160" />
	</node>
	<node lat="69.31551666260513" lon="19.548099998687064" id="-100012">
		<tag k="name" v="Fossan" />
		<tag k="place" v="farm" />
		<tag k="ssr:stedsnr" v="201117" />
	</node>
	<node lat="69.23035556075341" lon="19.319277761480198" id="-100013">
		<tag k="name" v="Lande" />
		<tag k="place" v="farm" />
		<tag k="ssr:stedsnr" v="201168" />
	</node>
	<node lat="69.22932237964626" lon="19.32188231445335" id="-100014">
		<tag k="fixme" v="consider place=hamlet" />
		<tag k="name" v="Markenes" />
		<tag k="place" v="farm" />
		<tag k="ssr:stedsnr" v="201169" />
	</node>
	<node lat="69.31046666239864" lon="18.993533329980167" id="-100015">
		<tag k="name" v="Heim" />
		<tag k="place" v="farm" />
		<tag k="ssr:stedsnr" v="203231" />
	</node>
	<node lat="69.40880555178957" lon="18.590466671172308" id="-100016">
		<tag k="name" v="Bakketun" />
		<tag k="place" v="farm" />
		<tag k="ssr:stedsnr" v="201678" />
	</node>
	<node lat="69.2182424858905" lon="19.13898840619274" id="-100019">
		<tag k="alt_name" v="Østgaard" />
		<tag k="fixme" v="consider place=hamlet" />
		<tag k="name" v="Østgård" />
		<tag k="place" v="farm" />
		<tag k="ssr:stedsnr" v="201989" />
	</node>
	<node lat="69.29653055881613" lon="19.33569442883419" id="-100020">
		<tag k="name" v="Nygård" />
		<tag k="place" v="farm" />
		<tag k="ssr:stedsnr" v="203582" />
	</node>
	<node lat="69.21684722548096" lon="19.24754722586311" id="-100061">
		<tag k="name" v="Frostad" />
		<tag k="place" v="farm" />
		<tag k="ssr:stedsnr" v="292319" />
	</node>
	<node lat="69.30545833331828" lon="19.33795275863196" id="-100076">
		<tag k="name" v="Prestegården" />
		<tag k="place" v="farm" />
		<tag k="ssr:stedsnr" v="292732" />
	</node>
	<node lat="69.26475277362405" lon="18.742622216115336" id="-100115">
		<tag k="alt_name" v="Sløikholmo;Sløikholmen" />
		<tag k="name" v="Sløykolmoen" />
		<tag k="place" v="farm" />
		<tag k="ssr:stedsnr" v="321045" />
	</node>
	<node lat="69.30094999831131" lon="18.983316669796075" id="-100121">
		<tag k="name" v="Fredheim" />
		<tag k="place" v="farm" />
		<tag k="ssr:stedsnr" v="321079" />
	</node>
	<node lat="69.3044388927798" lon="18.983430544481795" id="-100122">
		<tag k="name" v="Storbukta" />
		<tag k="place" v="farm" />
		<tag k="ssr:stedsnr" v="321081" />
	</node>
	<node lat="69.22835277790047" lon="19.237758323249324" id="-100123">
		<tag k="name" v="Vårtun" />
		<tag k="place" v="farm" />
		<tag k="ssr:stedsnr" v="321127" />
	</node>
	<node lat="69.2228999971303" lon="19.234216653984507" id="-100124">
		<tag k="name" v="Lundegard" />
		<tag k="place" v="farm" />
		<tag k="ssr:stedsnr" v="321128" />
	</node>
	<node lat="69.2136250017257" lon="19.248438875030477" id="-100125">
		<tag k="name" v="Nyrum" />
		<tag k="place" v="farm" />
		<tag k="ssr:stedsnr" v="321130" />
	</node>
	<node lat="69.29705793486328" lon="19.333145141640852" id="-100126">
		<tag k="alt_name" v="Langnesøyra;Langnesøren" />
		<tag k="fixme" v="consider place=hamlet" />
		<tag k="name" v="Langnesøra" />
		<tag k="place" v="farm" />
		<tag k="ssr:stedsnr" v="321319" />
	</node>
	<node lat="69.29249999930035" lon="19.32462777640983" id="-100127">
		<tag k="name" v="Aspelund" />
		<tag k="place" v="farm" />
		<tag k="ssr:stedsnr" v="321323" />
	</node>
	<node lat="69.28722499696963" lon="19.301491649524667" id="-100128">
		<tag k="name" v="Ryvik" />
		<tag k="place" v="farm" />
		<tag k="ssr:stedsnr" v="321353" />
	</node>
	<node lat="69.29240000238251" lon="19.322583330247678" id="-100129">
		<tag k="name" v="Nyrud" />
		<tag k="place" v="farm" />
		<tag k="ssr:stedsnr" v="321326" />
	</node>
	<node lat="69.32021110818386" lon="19.55475277320969" id="-100130">
		<tag k="name" v="Lakselvsletta" />
		<tag k="place" v="farm" />
		<tag k="ssr:stedsnr" v="321328" />
	</node>
	<node lat="69.10820555680183" lon="19.306697220476288" id="-100133">
		<tag k="name" v="Framnes" />
		<tag k="place" v="isolated_dwelling" />
		<tag k="ssr:stedsnr" v="321459" />
	</node>
	<node lat="69.39140833380604" lon="18.60849443423816" id="-100134">
		<tag k="name" v="Sand" />
		<tag k="place" v="hamlet" />
		<tag k="ssr:stedsnr" v="321659" />
	</node>
	<node lat="69.47624562369137" lon="18.97785644401005" id="-100137">
		<tag k="name" v="Nesberg" />
		<tag k="place" v="farm" />
		<tag k="ssr:stedsnr" v="321840" />
	</node>
	<node lat="69.21259166584325" lon="19.791961103030786" id="-100138">
		<tag k="name" v="Kileng" />
		<tag k="place" v="farm" />
		<tag k="ssr:stedsnr" v="322079" />
	</node>
	<node lat="69.24995725447373" lon="18.864392653735145" id="-100139">
		<tag k="name" v="Vesterli" />
		<tag k="place" v="farm" />
		<tag k="ssr:stedsnr" v="322087" />
	</node>
	<node lat="69.37864999895179" lon="19.2162638787321" id="-100141">
		<tag k="alt_name" v="Kjosen" />
		<tag k="name" v="Kjosnes" />
		<tag k="place" v="farm" />
		<tag k="ssr:stedsnr" v="321951" />
	</node>
	<node lat="69.19563055806115" lon="19.120038883967226" id="-100142">
		<tag k="alt_name" v="Gotsiland" />
		<tag k="name" v="Godtsideland" />
		<tag k="place" v="farm" />
		<tag k="ssr:stedsnr" v="321965" />
	</node>
	<node lat="69.19031666380641" lon="19.063875000763716" id="-100143">
		<tag k="alt_name" v="Finnseth" />
		<tag k="name" v="Finnset" />
		<tag k="place" v="farm" />
		<tag k="ssr:stedsnr" v="321968" />
	</node>
	<node lat="69.18802777500014" lon="19.673197202209487" id="-100145">
		<tag k="name" v="Solheim" />
		<tag k="place" v="farm" />
		<tag k="ssr:stedsnr" v="322033" />
	</node>
	<node lat="69.2100574853318" lon="19.604941981261472" id="-100150">
		<tag k="name" v="Heimly" />
		<tag k="place" v="farm" />
		<tag k="ssr:stedsnr" v="322069" />
	</node>
	<node lat="69.33089166965047" lon="19.57290833231331" id="-100151">
		<tag k="fixme" v="consider place=hamlet" />
		<tag k="name" v="Trollelvmo" />
		<tag k="place" v="farm" />
		<tag k="ssr:stedsnr" v="322153" />
	</node>
	<node lat="69.33011944099809" lon="19.555916661894422" id="-100152">
		<tag k="alt_name" v="Heimli" />
		<tag k="name" v="Heimly" />
		<tag k="place" v="farm" />
		<tag k="ssr:stedsnr" v="322155" />
	</node>
	<node lat="69.23278519584414" lon="19.375040561955938" id="-100153">
		<tag k="alt_name" v="Ytre Lodbukt" />
		<tag k="name" v="Loddbukta" />
		<tag k="place" v="farm" />
		<tag k="ssr:stedsnr" v="322163" />
	</node>
	<node lat="69.33819999689902" lon="19.311938875593313" id="-100154">
		<tag k="alt_name" v="Skjævelnes" />
		<tag k="name" v="Skjevelnes" />
		<tag k="place" v="farm" />
		<tag k="ssr:stedsnr" v="322169" />
	</node>
	<node lat="69.21621667015468" lon="19.627819445732204" id="-100155">
		<tag k="name" v="Vang" />
		<tag k="place" v="farm" />
		<tag k="ssr:stedsnr" v="322098" />
	</node>
	<node lat="69.1066694420964" lon="19.164127779116193" id="-100161">
		<tag k="alt_name" v="Takvannsbukt;Takvassbukt" />
		<tag k="name" v="Takvassbukta" />
		<tag k="place" v="farm" />
		<tag k="ssr:stedsnr" v="322866" />
	</node>
	<node lat="69.25348333310872" lon="19.227994445843496" id="-100163">
		<tag k="name" v="Haugtun" />
		<tag k="place" v="isolated_dwelling" />
		<tag k="ssr:stedsnr" v="322263" />
	</node>
	<node lat="69.06315555428587" lon="19.454127764578445" id="-100167">
		<tag k="name" v="Solli" />
		<tag k="place" v="farm" />
		<tag k="ssr:stedsnr" v="322449" />
	</node>
	<node lat="69.08794721836811" lon="19.228180554466892" id="-100169">
		<tag k="name" v="Myreng" />
		<tag k="place" v="isolated_dwelling" />
		<tag k="ssr:stedsnr" v="322473" />
	</node>
	<node lat="69.46349999698363" lon="18.968886105548094" id="-100172">
		<tag k="alt_name:no" v="Storneset" />
		<tag k="loc_name:se" v="Stuoranjárga" />
		<tag k="name" v="Stornes" />
		<tag k="name:no" v="Stornes" />
		<tag k="place" v="hamlet" />
		<tag k="ssr:stedsnr" v="322883" />
	</node>
	<node lat="69.46675555657552" lon="18.975830551546004" id="-100173">
		<tag k="name" v="Myreng" />
		<tag k="place" v="farm" />
		<tag k="ssr:stedsnr" v="322884" />
	</node>
	<node lat="69.43134444824513" lon="18.943327776123656" id="-100174">
		<tag k="name" v="Bakken" />
		<tag k="place" v="farm" />
		<tag k="ssr:stedsnr" v="322890" />
	</node>
	<node lat="69.43831110718942" lon="18.935611099263333" id="-100175">
		<tag k="name" v="Hestnes" />
		<tag k="place" v="farm" />
		<tag k="ssr:stedsnr" v="322892" />
	</node>
	<node lat="69.42970555901366" lon="19.06023332919047" id="-100177">
		<tag k="alt_name" v="Øyra" />
		<tag k="name" v="Øra" />
		<tag k="place" v="farm" />
		<tag k="ssr:stedsnr" v="322918" />
	</node>
	<node lat="69.20964236443962" lon="19.101567617270266" id="-100180">
		<tag k="name" v="Hallen" />
		<tag k="place" v="farm" />
		<tag k="ssr:stedsnr" v="322983" />
	</node>
	<node lat="69.21235932401638" lon="19.12627567293215" id="-100181">
		<tag k="alt_name" v="Måsbergvik" />
		<tag k="fixme" v="consider place=hamlet" />
		<tag k="name" v="Måsbergvika" />
		<tag k="place" v="farm" />
		<tag k="ssr:stedsnr" v="322984" />
	</node>
	<node lat="69.33012222477615" lon="18.906908326040053" id="-100182">
		<tag k="name" v="Leirbogen" />
		<tag k="place" v="farm" />
		<tag k="ssr:stedsnr" v="322986" />
	</node>
	<node lat="69.32490565831749" lon="18.7802732057558" id="-100183">
		<tag k="alt_name" v="Hamnvåg, yt;Hamnvåg Ytre" />
		<tag k="fixme" v="consider place=hamlet" />
		<tag k="name" v="Ytre Hamnvåg" />
		<tag k="place" v="farm" />
		<tag k="ssr:stedsnr" v="322994" />
	</node>
	<node lat="69.35358881364158" lon="18.707341207145024" id="-100186">
		<tag k="alt_name" v="Skutvika, in;Skutvik Indre" />
		<tag k="fixme" v="consider place=hamlet" />
		<tag k="name" v="Indre Skutvika" />
		<tag k="place" v="farm" />
		<tag k="ssr:stedsnr" v="322946" />
	</node>
	<node lat="69.34407376381267" lon="19.17795593732184" id="-100188">
		<tag k="fixme" v="consider place=hamlet" />
		<tag k="name" v="Hamran" />
		<tag k="place" v="farm" />
		<tag k="ssr:stedsnr" v="322964" />
	</node>
	<node lat="69.32825068127116" lon="18.921375003206215" id="-100190">
		<tag k="fixme" v="consider place=hamlet" />
		<tag k="name" v="Haugen" />
		<tag k="place" v="farm" />
		<tag k="ssr:stedsnr" v="324197" />
	</node>
	<node lat="69.43102268208216" lon="19.05805406397741" id="-100191">
		<tag k="name" v="Storbukt" />
		<tag k="place" v="farm" />
		<tag k="ssr:stedsnr" v="324198" />
	</node>
	<node lat="69.33471388871942" lon="19.399902763282853" id="-100193">
		<tag k="name" v="Nybakk" />
		<tag k="place" v="farm" />
		<tag k="ssr:stedsnr" v="324578" />
	</node>
	<node lat="69.09102222317776" lon="19.183524983521963" id="-100218">
		<tag k="name" v="Finnhaugen" />
		<tag k="place" v="isolated_dwelling" />
		<tag k="ssr:stedsnr" v="352273" />
	</node>
	<node lat="69.08429166412614" lon="19.195155544406767" id="-100219">
		<tag k="name" v="Mackhytta" />
		<tag k="place" v="isolated_dwelling" />
		<tag k="ssr:stedsnr" v="352288" />
	</node>
	<node lat="69.08460555210102" lon="19.249766655089317" id="-100227">
		<tag k="name" v="Trangen" />
		<tag k="place" v="farm" />
		<tag k="ssr:stedsnr" v="352439" />
	</node>
	<node lat="69.07536666983447" lon="19.26932778274171" id="-100232">
		<tag k="name" v="Skogstua" />
		<tag k="place" v="isolated_dwelling" />
		<tag k="ssr:stedsnr" v="352461" />
	</node>
	<node lat="69.31911666989542" lon="18.819938881523207" id="-100246">
		<tag k="amenity" v="school" />
		<tag k="name" v="Hamnvåg skole" />
		<tag k="ssr:stedsnr" v="352878" />
	</node>
	<node lat="69.28238930911135" lon="19.284338432917206" id="-100289">
		<tag k="name" v="Myrbakken" />
		<tag k="place" v="isolated_dwelling" />
		<tag k="ssr:stedsnr" v="382321" />
	</node>
	<node lat="69.21223055764612" lon="19.58306943162055" id="-100291">
		<tag k="alt_name" v="Lauveng" />
		<tag k="name" v="Løveng" />
		<tag k="place" v="farm" />
		<tag k="ssr:stedsnr" v="382070" />
	</node>
	<node lat="69.19606666904893" lon="19.67094998108855" id="-100297">
		<tag k="name" v="Bjørnbåsen" />
		<tag k="place" v="farm" />
		<tag k="ssr:stedsnr" v="382042" />
	</node>
	<node lat="69.3102027803454" lon="18.981047222737764" id="-100299">
		<tag k="name" v="Skogeng" />
		<tag k="place" v="farm" />
		<tag k="ssr:stedsnr" v="382118" />
	</node>
	<node lat="69.20900555506573" lon="19.645683328866088" id="-100301">
		<tag k="name" v="Orheim" />
		<tag k="place" v="farm" />
		<tag k="ssr:stedsnr" v="382071" />
	</node>
	<node lat="69.20858889336415" lon="19.64245831930524" id="-100302">
		<tag k="name" v="Engen" />
		<tag k="place" v="farm" />
		<tag k="ssr:stedsnr" v="382072" />
	</node>
	<node lat="69.1946500012056" lon="19.22545831812731" id="-100305">
		<tag k="name" v="Teigen" />
		<tag k="place" v="farm" />
		<tag k="ssr:stedsnr" v="382078" />
	</node>
	<node lat="69.19991666339483" lon="19.22731110638105" id="-100306">
		<tag k="name" v="Sollund" />
		<tag k="place" v="farm" />
		<tag k="ssr:stedsnr" v="382082" />
	</node>
	<node lat="69.20019444886434" lon="19.64710277475233" id="-100307">
		<tag k="name" v="Elvemo" />
		<tag k="place" v="farm" />
		<tag k="ssr:stedsnr" v="382085" />
	</node>
	<node lat="69.19760278225384" lon="19.76377220108332" id="-100308">
		<tag k="alt_name" v="Fjellet" />
		<tag k="name" v="Fjelle" />
		<tag k="place" v="farm" />
		<tag k="ssr:stedsnr" v="382091" />
	</node>
	<node lat="69.30957500250062" lon="19.34364167108792" id="-100312">
		<tag k="name" v="Kjerkely" />
		<tag k="place" v="farm" />
		<tag k="ssr:stedsnr" v="382158" />
	</node>
	<node lat="69.23383611469214" lon="19.370022226361826" id="-100315">
		<tag k="name" v="Bergvoll" />
		<tag k="place" v="farm" />
		<tag k="ssr:stedsnr" v="382171" />
	</node>
	<node lat="69.3629888872868" lon="19.358252761216868" id="-100316">
		<tag k="name" v="Midtgarden" />
		<tag k="place" v="farm" />
		<tag k="ssr:stedsnr" v="382173" />
	</node>
	<node lat="69.23335277968556" lon="19.327061106897183" id="-100317">
		<tag k="name" v="Nordnes" />
		<tag k="place" v="farm" />
		<tag k="ssr:stedsnr" v="382175" />
	</node>
	<node lat="69.35496111323448" lon="19.371036105894934" id="-100318">
		<tag k="name" v="Steinnes" />
		<tag k="place" v="farm" />
		<tag k="ssr:stedsnr" v="382184" />
	</node>
	<node lat="69.3071749983829" lon="18.64923887985349" id="-100319">
		<tag k="name" v="Haug" />
		<tag k="place" v="farm" />
		<tag k="ssr:stedsnr" v="382126" />
	</node>
	<node lat="69.31903056061834" lon="18.891630543957383" id="-100320">
		<tag k="name" v="Fredheim" />
		<tag k="place" v="farm" />
		<tag k="ssr:stedsnr" v="382129" />
	</node>
	<node lat="69.21237222014285" lon="19.52896109119366" id="-100321">
		<tag k="name" v="Fossberg" />
		<tag k="place" v="farm" />
		<tag k="ssr:stedsnr" v="382132" />
	</node>
	<node lat="69.22129981018578" lon="19.236585322748308" id="-100323">
		<tag k="name" v="Bjørkeng" />
		<tag k="place" v="farm" />
		<tag k="ssr:stedsnr" v="382145" />
	</node>
	<node lat="69.30746731364857" lon="19.4193375121124" id="-100324">
		<tag k="alt_name" v="Tomasjord, in;Tomasjorden indre" />
		<tag k="fixme" v="consider place=hamlet" />
		<tag k="name" v="Indre Tomasjord" />
		<tag k="place" v="farm" />
		<tag k="ssr:stedsnr" v="382146" />
	</node>
	<node lat="69.22511388547228" lon="19.24271110401985" id="-100325">
		<tag k="name" v="Sagelva" />
		<tag k="place" v="farm" />
		<tag k="ssr:stedsnr" v="382147" />
	</node>
	<node lat="69.30152499715034" lon="19.415477759277913" id="-100326">
		<tag k="name" v="Skredet" />
		<tag k="place" v="isolated_dwelling" />
		<tag k="ssr:stedsnr" v="382148" />
	</node>
	<node lat="69.32756922422664" lon="19.406211014146624" id="-100327">
		<tag k="name" v="Sandnes" />
		<tag k="place" v="farm" />
		<tag k="ssr:stedsnr" v="382153" />
	</node>
	<node lat="69.36514676915309" lon="19.3532692268565" id="-100328">
		<tag k="name" v="Naustnes" />
		<tag k="place" v="farm" />
		<tag k="ssr:stedsnr" v="382196" />
	</node>
	<node lat="69.08895358240281" lon="19.291966172795888" id="-100329">
		<tag k="name" v="Ryeng" />
		<tag k="place" v="farm" />
		<tag k="ssr:stedsnr" v="382474" />
	</node>
	<node lat="69.25236944391217" lon="19.220244445228367" id="-100330">
		<tag k="name" v="Sjåvik" />
		<tag k="place" v="farm" />
		<tag k="ssr:stedsnr" v="382282" />
	</node>
	<node lat="69.2545187084102" lon="19.42167477652963" id="-100331">
		<tag k="name" v="Kvitberg" />
		<tag k="place" v="farm" />
		<tag k="ssr:stedsnr" v="382286" />
	</node>
	<node lat="69.29503889169796" lon="19.33211389380249" id="-100332">
		<tag k="name" v="Engset" />
		<tag k="place" v="farm" />
		<tag k="ssr:stedsnr" v="382335" />
	</node>
	<node lat="69.28680000196822" lon="19.412197220576022" id="-100333">
		<tag k="name" v="Slåttnes" />
		<tag k="place" v="farm" />
		<tag k="ssr:stedsnr" v="382351" />
	</node>
	<node lat="69.29199166630839" lon="19.410974978994176" id="-100334">
		<tag k="name" v="Aspeli" />
		<tag k="place" v="isolated_dwelling" />
		<tag k="ssr:stedsnr" v="382352" />
	</node>
	<node lat="69.453352075336" lon="18.99036828223769" id="-100342">
		<tag k="alt_name" v="Labukt" />
		<tag k="fixme" v="consider place=hamlet" />
		<tag k="name" v="Labukta" />
		<tag k="place" v="farm" />
		<tag k="ssr:stedsnr" v="382878" />
	</node>
	<node lat="69.45978611112534" lon="18.979613876132394" id="-100344">
		<tag k="name" v="Nordheim" />
		<tag k="place" v="farm" />
		<tag k="ssr:stedsnr" v="382885" />
	</node>
	<node lat="69.23422778164293" lon="19.064549982668677" id="-100346">
		<tag k="name" v="Skavli" />
		<tag k="place" v="isolated_dwelling" />
		<tag k="ssr:stedsnr" v="382967" />
	</node>
	<node lat="69.34288673118905" lon="19.095768610609287" id="-100347">
		<tag k="alt_name" v="Skredan" />
		<tag k="fixme" v="consider place=hamlet" />
		<tag k="name" v="Skrean" />
		<tag k="place" v="farm" />
		<tag k="ssr:stedsnr" v="382974" />
	</node>
	<node lat="69.34848889185861" lon="19.095408325573587" id="-100348">
		<tag k="name" v="Brattli" />
		<tag k="place" v="farm" />
		<tag k="ssr:stedsnr" v="382975" />
	</node>
	<node lat="69.24196667000805" lon="18.982205541882482" id="-100349">
		<tag k="name" v="Østerli" />
		<tag k="place" v="isolated_dwelling" />
		<tag k="ssr:stedsnr" v="382922" />
	</node>
	<node lat="69.42687499679414" lon="19.061191647796555" id="-100350">
		<tag k="name" v="Steinnes" />
		<tag k="place" v="farm" />
		<tag k="ssr:stedsnr" v="382923" />
	</node>
	<node lat="69.39849722565715" lon="18.984013881535873" id="-100351">
		<tag k="name" v="Fagerheim" />
		<tag k="place" v="farm" />
		<tag k="ssr:stedsnr" v="382933" />
	</node>
	<node lat="69.32143120502191" lon="18.836941820904386" id="-100354">
		<tag k="alt_name" v="Hamnvåg, in;Hamnvåg indre" />
		<tag k="fixme" v="consider place=hamlet" />
		<tag k="loc_name" v="Inner-Hamnvåg" />
		<tag k="name" v="Indre Hamnvåg" />
		<tag k="place" v="farm" />
		<tag k="ssr:stedsnr" v="382993" />
	</node>
	<node lat="69.34705833087442" lon="19.38062498117553" id="-100355">
		<tag k="name" v="Nyheim" />
		<tag k="place" v="farm" />
		<tag k="ssr:stedsnr" v="384577" />
	</node>
	<node lat="69.29188333632882" lon="19.400919439000784" id="-100356">
		<tag k="name" v="Slettmo" />
		<tag k="place" v="isolated_dwelling" />
		<tag k="ssr:stedsnr" v="388356" />
	</node>
	<node lat="69.42724557281979" lon="19.06693673094649" id="-100357">
		<tag k="fixme" v="consider place=hamlet" />
		<tag k="name" v="Storbukt" />
		<tag k="place" v="farm" />
		<tag k="ssr:stedsnr" v="389423" />
	</node>
	<node lat="69.06312221811966" lon="19.297286103881532" id="-100362">
		<tag k="name" v="Nyborg" />
		<tag k="place" v="farm" />
		<tag k="ssr:stedsnr" v="400941" />
	</node>
	<node lat="69.3856972256285" lon="19.28582499881072" id="-100391">
		<tag k="name" v="Skáidi" />
		<tag k="name:se" v="Skáidi" />
		<tag k="place" v="hamlet" />
		<tag k="ssr:stedsnr" v="413561" />
	</node>
	<node lat="69.27714999804154" lon="18.72121109898716" id="-100438">
		<tag k="historic" v="shieling" />
		<tag k="loc_name" v="Nersetra" />
		<tag k="name" v="Nersætra" />
		<tag k="place" v="isolated_dwelling" />
		<tag k="ssr:stedsnr" v="414725" />
	</node>
	<node lat="69.19692500469698" lon="19.758966646307968" id="-100444">
		<tag k="name" v="Steingard" />
		<tag k="place" v="farm" />
		<tag k="ssr:stedsnr" v="442051" />
	</node>
	<node lat="69.25615769136286" lon="18.931771535450373" id="-100452">
		<tag k="name" v="Furudal" />
		<tag k="place" v="farm" />
		<tag k="ssr:stedsnr" v="443044" />
	</node>
	<node lat="69.27013333662026" lon="19.148738886966825" id="-100453">
		<tag k="name" v="Mellomgård" />
		<tag k="place" v="farm" />
		<tag k="ssr:stedsnr" v="443050" />
	</node>
	<node lat="69.21176666269554" lon="19.78000276881882" id="-100455">
		<tag k="name" v="Hansjorda - Hánssagieddi" />
		<tag k="name:no" v="Hansjorda" />
		<tag k="name:se" v="Hánssagieddi" />
		<tag k="place" v="farm" />
		<tag k="ssr:stedsnr" v="443067" />
	</node>
	<node lat="69.22112722723936" lon="19.53782929170897" id="-100459">
		<tag k="fixme" v="consider place=hamlet" />
		<tag k="name" v="Vollan" />
		<tag k="place" v="farm" />
		<tag k="ssr:stedsnr" v="443113" />
	</node>
	<node lat="69.30863888890072" lon="18.65046110493605" id="-100460">
		<tag k="name" v="Steinhaug" />
		<tag k="place" v="farm" />
		<tag k="ssr:stedsnr" v="443116" />
	</node>
	<node lat="69.22061042601509" lon="19.270840355715833" id="-100462">
		<tag k="alt_name" v="Sørkjos" />
		<tag k="fixme" v="consider place=hamlet" />
		<tag k="name" v="Sørkjosen" />
		<tag k="place" v="farm" />
		<tag k="ssr:stedsnr" v="443130" />
	</node>
	<node lat="69.23268611185487" lon="19.227747205135064" id="-100464">
		<tag k="name" v="Brattland" />
		<tag k="place" v="farm" />
		<tag k="ssr:stedsnr" v="443183" />
	</node>
	<node lat="69.29421944586" lon="19.331336112442276" id="-100467">
		<tag k="name" v="Langnesøra" />
		<tag k="place" v="farm" />
		<tag k="ssr:stedsnr" v="443078" />
	</node>
	<node lat="69.19251843268327" lon="19.293877558868484" id="-100468">
		<tag k="fixme" v="consider place=hamlet" />
		<tag k="name" v="Hølen" />
		<tag k="place" v="farm" />
		<tag k="ssr:stedsnr" v="443079" />
	</node>
	<node lat="69.21939166758979" lon="19.265936098245067" id="-100470">
		<tag k="name" v="Myrland" />
		<tag k="place" v="farm" />
		<tag k="ssr:stedsnr" v="443144" />
	</node>
	<node lat="69.21588332888115" lon="19.26250000188817" id="-100471">
		<tag k="name" v="Mellomgard" />
		<tag k="place" v="farm" />
		<tag k="ssr:stedsnr" v="443145" />
	</node>
	<node lat="69.2196751910912" lon="19.477176342739153" id="-100473">
		<tag k="alt_name" v="Indre Russenes" />
		<tag k="fixme" v="consider place=hamlet" />
		<tag k="name" v="Russenes" />
		<tag k="place" v="farm" />
		<tag k="ssr:stedsnr" v="443153" />
	</node>
	<node lat="69.2352111117182" lon="19.34622498056753" id="-100476">
		<tag k="alt_name" v="Sandbukt" />
		<tag k="name" v="Sandbukta" />
		<tag k="place" v="farm" />
		<tag k="ssr:stedsnr" v="443173" />
	</node>
	<node lat="69.37871111376931" lon="19.22008054886692" id="-100478">
		<tag k="name" v="Slettvoll" />
		<tag k="place" v="farm" />
		<tag k="ssr:stedsnr" v="443221" />
	</node>
	<node lat="69.27790000142822" lon="19.41313333553789" id="-100481">
		<tag k="name" v="Slåttli" />
		<tag k="place" v="farm" />
		<tag k="ssr:stedsnr" v="443327" />
	</node>
	<node lat="69.29324167066268" lon="19.32596389299866" id="-100484">
		<tag k="name" v="Nysted" />
		<tag k="place" v="farm" />
		<tag k="ssr:stedsnr" v="443360" />
	</node>
	<node lat="69.28801110759181" lon="19.307186103728807" id="-100486">
		<tag k="alt_name" v="Tennes indre" />
		<tag k="name" v="Indre Tennes" />
		<tag k="old_name" v="Karlsrud" />
		<tag k="place" v="farm" />
		<tag k="ssr:stedsnr" v="443378" />
	</node>
	<node lat="69.17145555218998" lon="19.06131387302488" id="-100498">
		<tag k="alt_name" v="Hansset" />
		<tag k="name" v="Hansgård" />
		<tag k="place" v="farm" />
		<tag k="ssr:stedsnr" v="443744" />
	</node>
	<node lat="69.44924444508563" lon="18.90749165414755" id="-100501">
		<tag k="name" v="Skogstad" />
		<tag k="place" v="farm" />
		<tag k="ssr:stedsnr" v="443852" />
	</node>
	<node lat="69.441369440338" lon="19.01019166649548" id="-100502">
		<tag k="name" v="Nesbakken" />
		<tag k="place" v="farm" />
		<tag k="ssr:stedsnr" v="443891" />
	</node>
	<node lat="69.33181389038316" lon="18.859999997105554" id="-100505">
		<tag k="name" v="Brennvika" />
		<tag k="place" v="farm" />
		<tag k="ssr:stedsnr" v="443996" />
	</node>
	<node lat="69.20556389292435" lon="19.117638888580746" id="-100506">
		<tag k="alt_name" v="Skjærstad" />
		<tag k="name" v="Skjerstad" />
		<tag k="place" v="farm" />
		<tag k="ssr:stedsnr" v="443998" />
	</node>
	<node lat="69.38274166957862" lon="19.095052761816703" id="-100507">
		<tag k="name" v="Arnelund" />
		<tag k="place" v="farm" />
		<tag k="ssr:stedsnr" v="443940" />
	</node>
	<node lat="69.38161388633664" lon="18.714816662463228" id="-100508">
		<tag k="name" v="Skutvikvatnet" />
		<tag k="place" v="farm" />
		<tag k="ssr:stedsnr" v="443950" />
	</node>
	<node lat="69.38870555982817" lon="18.98379998776598" id="-100509">
		<tag k="fixme" v="consider place=hamlet" />
		<tag k="name" v="Malangseidet" />
		<tag k="place" v="village" />
		<tag k="ssr:stedsnr" v="443953" />
	</node>
	<node lat="69.37796666999124" lon="19.19974722865034" id="-100510">
		<tag k="name" v="Nygård" />
		<tag k="place" v="farm" />
		<tag k="ssr:stedsnr" v="443968" />
	</node>
	<node lat="69.36524632442743" lon="18.770575726380798" id="-100511">
		<tag k="name" v="Sætermoen" />
		<tag k="place" v="farm" />
		<tag k="ssr:stedsnr" v="443972" />
	</node>
	<node lat="69.27715555351331" lon="19.007266665749647" id="-100517">
		<tag k="name" v="Friberg" />
		<tag k="place" v="farm" />
		<tag k="ssr:stedsnr" v="503062" />
	</node>
	<node lat="69.2226138930258" lon="19.451905544655425" id="-100520">
		<tag k="name" v="Nyheim" />
		<tag k="place" v="farm" />
		<tag k="ssr:stedsnr" v="503139" />
	</node>
	<node lat="69.218030553392" lon="19.322555534384644" id="-100524">
		<tag k="name" v="Gåre" />
		<tag k="place" v="farm" />
		<tag k="ssr:stedsnr" v="503099" />
	</node>
	<node lat="69.22200833184903" lon="19.25470554716336" id="-100526">
		<tag k="name" v="Svalheim" />
		<tag k="place" v="farm" />
		<tag k="ssr:stedsnr" v="503116" />
	</node>
	<node lat="69.11071388998923" lon="19.353461097084004" id="-100531">
		<tag k="name" v="Tverrelvnes" />
		<tag k="place" v="farm" />
		<tag k="ssr:stedsnr" v="503464" />
	</node>
	<node lat="69.0505277825301" lon="19.454688875612764" id="-100536">
		<tag k="alt_name" v="Nystad" />
		<tag k="name" v="Nysted" />
		<tag k="place" v="farm" />
		<tag k="ssr:stedsnr" v="504439" />
	</node>
	<node lat="69.06106666424076" lon="19.516538876312534" id="-100537">
		<tag k="name" v="Fredheim" />
		<tag k="place" v="farm" />
		<tag k="ssr:stedsnr" v="504447" />
	</node>
	<node lat="69.31641666794108" lon="18.89040000467599" id="-100539">
		<tag k="name" v="Vangen" />
		<tag k="place" v="farm" />
		<tag k="ssr:stedsnr" v="504083" />
	</node>
	<node lat="69.18738610903048" lon="19.666988869603593" id="-100540">
		<tag k="name" v="Soltun" />
		<tag k="place" v="farm" />
		<tag k="ssr:stedsnr" v="504022" />
	</node>
	<node lat="69.1976416642495" lon="19.646274979905687" id="-100542">
		<tag k="name" v="Bakkejord" />
		<tag k="place" v="farm" />
		<tag k="ssr:stedsnr" v="504054" />
	</node>
	<node lat="69.19638271736846" lon="19.749897661432154" id="-100543">
		<tag k="fixme" v="consider place=hamlet" />
		<tag k="name" v="Øvergård - Johkamohkki" />
		<tag k="name:no" v="Øvergård" />
		<tag k="name:se" v="Johkamohkki" />
		<tag k="place" v="farm" />
		<tag k="ssr:stedsnr" v="504055" />
	</node>
	<node lat="69.26758092618947" lon="19.265560095166716" id="-100544">
		<tag k="fixme" v="consider place=hamlet" />
		<tag k="name" v="Holmenes" />
		<tag k="place" v="farm" />
		<tag k="ssr:stedsnr" v="504057" />
	</node>
	<node lat="69.19725000013514" lon="19.64117499174306" id="-100546">
		<tag k="name" v="Sætre" />
		<tag k="place" v="farm" />
		<tag k="ssr:stedsnr" v="504059" />
	</node>
	<node lat="69.18884166424263" lon="19.237630547739066" id="-100548">
		<tag k="name" v="Bråten" />
		<tag k="place" v="farm" />
		<tag k="ssr:stedsnr" v="504063" />
	</node>
	<node lat="69.31372500383802" lon="19.421202782664928" id="-100551">
		<tag k="name" v="Slettvoll" />
		<tag k="place" v="farm" />
		<tag k="ssr:stedsnr" v="504089" />
	</node>
	<node lat="69.23216244044383" lon="19.48178556823695" id="-100553">
		<tag k="alt_name" v="Forskognes" />
		<tag k="fixme" v="consider place=hamlet" />
		<tag k="name" v="Furskognes" />
		<tag k="place" v="farm" />
		<tag k="ssr:stedsnr" v="504098" />
	</node>
	<node lat="69.38667500077159" lon="19.28464166336494" id="-100554">
		<tag k="name" v="Vestre" />
		<tag k="place" v="farm" />
		<tag k="ssr:stedsnr" v="504188" />
	</node>
	<node lat="69.34402499902819" lon="19.38784999094877" id="-100555">
		<tag k="name" v="Solberg" />
		<tag k="place" v="farm" />
		<tag k="ssr:stedsnr" v="504134" />
	</node>
	<node lat="69.23020000450519" lon="19.322963879079243" id="-100557">
		<tag k="name" v="Rud" />
		<tag k="place" v="farm" />
		<tag k="ssr:stedsnr" v="504148" />
	</node>
	<node lat="69.23213333287839" lon="19.39130832283739" id="-100558">
		<tag k="name" v="Solvang" />
		<tag k="place" v="farm" />
		<tag k="ssr:stedsnr" v="504150" />
	</node>
	<node lat="69.33834909537464" lon="19.305475835558276" id="-100559">
		<tag k="name" v="Flaten" />
		<tag k="place" v="farm" />
		<tag k="ssr:stedsnr" v="504157" />
	</node>
	<node lat="69.25217777802624" lon="19.23827776275829" id="-100560">
		<tag k="alt_name" v="Lundberg" />
		<tag k="name" v="Lundborg" />
		<tag k="place" v="farm" />
		<tag k="ssr:stedsnr" v="504260" />
	</node>
	<node lat="69.27560555345892" lon="19.41294443925013" id="-100562">
		<tag k="alt_name" v="Vang" />
		<tag k="name" v="Vangen" />
		<tag k="place" v="farm" />
		<tag k="ssr:stedsnr" v="504287" />
	</node>
	<node lat="69.07085555743032" lon="19.30611387377725" id="-100566">
		<tag k="name" v="Åsmo" />
		<tag k="place" v="farm" />
		<tag k="ssr:stedsnr" v="504459" />
	</node>
	<node lat="69.40691111526831" lon="18.69609999825794" id="-100567">
		<tag k="name" v="Nordeng" />
		<tag k="place" v="farm" />
		<tag k="ssr:stedsnr" v="504912" />
	</node>
	<node lat="69.39068055853211" lon="18.682297218028378" id="-100568">
		<tag k="name" v="Fagertun" />
		<tag k="place" v="farm" />
		<tag k="ssr:stedsnr" v="504928" />
	</node>
	<node lat="69.32992499823955" lon="18.95276943601651" id="-100574">
		<tag k="historic" v="shieling" />
		<tag k="name" v="Nilssætra" />
		<tag k="place" v="isolated_dwelling" />
		<tag k="ssr:stedsnr" v="504990" />
	</node>
	<node lat="69.34319787260353" lon="19.145461893029207" id="-100576">
		<tag k="name" v="Heggås" />
		<tag k="place" v="farm" />
		<tag k="ssr:stedsnr" v="504997" />
	</node>
	<node lat="69.33216944367351" lon="18.89051667102539" id="-100577">
		<tag k="name" v="Storsteinnes" />
		<tag k="place" v="hamlet" />
		<tag k="ssr:stedsnr" v="505000" />
	</node>
	<node lat="69.43947500274174" lon="19.037705552257815" id="-100578">
		<tag k="name" v="Solstad" />
		<tag k="place" v="farm" />
		<tag k="ssr:stedsnr" v="506232" />
	</node>
	<node lat="69.37593610889746" lon="19.373888889888665" id="-100579">
		<tag k="fixme" v="consider place=hamlet" />
		<tag k="name" v="Laksvatn" />
		<tag k="place" v="village" />
		<tag k="ssr:stedsnr" v="506524" />
	</node>
	<node lat="69.40532221944991" lon="18.67900831472962" id="-100589">
		<tag k="name" v="Krogstad" />
		<tag k="place" v="farm" />
		<tag k="ssr:stedsnr" v="534001" />
	</node>
	<node lat="69.3898222190903" lon="18.985713881562695" id="-100637">
		<tag k="name" v="Jernberg" />
		<tag k="place" v="farm" />
		<tag k="ssr:stedsnr" v="535261" />
	</node>
	<node lat="69.40319444918721" lon="18.988286103203016" id="-100645">
		<tag k="name" v="Soleng" />
		<tag k="place" v="isolated_dwelling" />
		<tag k="ssr:stedsnr" v="535628" />
	</node>
	<node lat="69.30868610735578" lon="18.851916658829865" id="-100650">
		<tag k="name" v="Seljemo" />
		<tag k="place" v="farm" />
		<tag k="ssr:stedsnr" v="535601" />
	</node>
	<node lat="69.18339166545691" lon="19.08802500156034" id="-100651">
		<tag k="name" v="Klubbenes" />
		<tag k="place" v="farm" />
		<tag k="ssr:stedsnr" v="535798" />
	</node>
	<node lat="69.12269722394022" lon="19.10334442790518" id="-100658">
		<tag k="name" v="Kongsmo" />
		<tag k="place" v="farm" />
		<tag k="ssr:stedsnr" v="535849" />
	</node>
	<node lat="69.44656928338134" lon="18.91056526248714" id="-100668">
		<tag k="alt_name" v="Langstranden;Langstrand" />
		<tag k="fixme" v="consider place=hamlet" />
		<tag k="name" v="Langstranda" />
		<tag k="place" v="farm" />
		<tag k="ssr:stedsnr" v="536564" />
	</node>
	<node lat="69.17014722529319" lon="19.077463889865097" id="-100686">
		<tag k="name" v="Myre" />
		<tag k="place" v="farm" />
		<tag k="ssr:stedsnr" v="563797" />
	</node>
	<node lat="69.21854999890955" lon="19.237024995824076" id="-100692">
		<tag k="alt_name" v="Falkelvmo;Falkemo" />
		<tag k="name" v="Falkelvmoen" />
		<tag k="place" v="farm" />
		<tag k="ssr:stedsnr" v="564128" />
	</node>
	<node lat="69.3011916696837" lon="19.337005560317394" id="-100693">
		<tag k="name" v="Solvang" />
		<tag k="place" v="farm" />
		<tag k="ssr:stedsnr" v="564129" />
	</node>
	<node lat="69.32539999587226" lon="19.332736108642674" id="-100694">
		<tag k="name" v="Fjelli" />
		<tag k="place" v="isolated_dwelling" />
		<tag k="ssr:stedsnr" v="564132" />
	</node>
	<node lat="69.32582221807405" lon="19.409758334459916" id="-100696">
		<tag k="name" v="Sandmo" />
		<tag k="place" v="farm" />
		<tag k="ssr:stedsnr" v="564136" />
	</node>
	<node lat="69.32191666455174" lon="19.541791653413462" id="-100697">
		<tag k="name" v="Nordmoen" />
		<tag k="place" v="farm" />
		<tag k="ssr:stedsnr" v="564137" />
	</node>
	<node lat="69.22198610798509" lon="19.457069428731714" id="-100698">
		<tag k="alt_name" v="Sletnes" />
		<tag k="fixme" v="consider place=hamlet" />
		<tag k="name" v="Slettnes" />
		<tag k="place" v="farm" />
		<tag k="ssr:stedsnr" v="564139" />
	</node>
	<node lat="69.34343449255697" lon="19.391651553004454" id="-100700">
		<tag k="alt_name" v="Tomasjorden ytre;Tomasjord, yt" />
		<tag k="fixme" v="consider place=hamlet" />
		<tag k="name" v="Ytre Tomasjord" />
		<tag k="place" v="farm" />
		<tag k="ssr:stedsnr" v="564151" />
	</node>
	<node lat="69.26253073768757" lon="19.417508204587254" id="-100703">
		<tag k="alt_name" v="Seljelvnes, in" />
		<tag k="fixme" v="consider place=hamlet" />
		<tag k="name" v="Indre Seljelvnes" />
		<tag k="place" v="farm" />
		<tag k="ssr:stedsnr" v="564068" />
	</node>
	<node lat="69.29610379987602" lon="18.936514903959978" id="-100707">
		<tag k="fixme" v="consider place=hamlet" />
		<tag k="name" v="Aspenes" />
		<tag k="place" v="farm" />
		<tag k="ssr:stedsnr" v="564072" />
	</node>
	<node lat="69.21827500131148" lon="19.486291648087224" id="-100709">
		<tag k="name" v="Holm" />
		<tag k="place" v="farm" />
		<tag k="ssr:stedsnr" v="564081" />
	</node>
	<node lat="69.2208888855476" lon="19.4593305368595" id="-100710">
		<tag k="name" v="Fagernes" />
		<tag k="place" v="farm" />
		<tag k="ssr:stedsnr" v="564084" />
	</node>
	<node lat="69.30574999680977" lon="18.65028889042752" id="-100713">
		<tag k="name" v="Myrhaug" />
		<tag k="place" v="farm" />
		<tag k="ssr:stedsnr" v="564098" />
	</node>
	<node lat="69.2150749991991" lon="19.629244438862262" id="-100714">
		<tag k="name" v="Elvejord" />
		<tag k="place" v="farm" />
		<tag k="ssr:stedsnr" v="564101" />
	</node>
	<node lat="69.27761362503388" lon="19.095704202814407" id="-100718">
		<tag k="alt_name" v="Grønåsen, nedre" />
		<tag k="fixme" v="consider place=hamlet" />
		<tag k="name" v="Nedre Grønåsen" />
		<tag k="place" v="farm" />
		<tag k="ssr:stedsnr" v="564047" />
	</node>
	<node lat="69.27656944308089" lon="19.09441110989597" id="-100720">
		<tag k="name" v="Vestgård" />
		<tag k="place" v="farm" />
		<tag k="ssr:stedsnr" v="564052" />
	</node>
	<node lat="69.23097500251127" lon="19.403824989323226" id="-100726">
		<tag k="name" v="Nygard" />
		<tag k="place" v="farm" />
		<tag k="ssr:stedsnr" v="564162" />
	</node>
	<node lat="69.23772777771809" lon="19.457949981537514" id="-100727">
		<tag k="name" v="Furnes" />
		<tag k="place" v="farm" />
		<tag k="ssr:stedsnr" v="564163" />
	</node>
	<node lat="69.26500277769826" lon="19.41426110835189" id="-100730">
		<tag k="name" v="Slettvoll" />
		<tag k="place" v="farm" />
		<tag k="ssr:stedsnr" v="564323" />
	</node>
	<node lat="69.27375278070623" lon="19.41317499011867" id="-100734">
		<tag k="name" v="Minde" />
		<tag k="place" v="farm" />
		<tag k="ssr:stedsnr" v="564334" />
	</node>
	<node lat="69.26972778027533" lon="19.269472213419032" id="-100735">
		<tag k="name" v="Bakkehaug" />
		<tag k="place" v="isolated_dwelling" />
		<tag k="ssr:stedsnr" v="564335" />
	</node>
	<node lat="69.05811666679476" lon="19.49996943370412" id="-100739">
		<tag k="alt_name" v="Elverom" />
		<tag k="name" v="Elverum" />
		<tag k="place" v="farm" />
		<tag k="ssr:stedsnr" v="564459" />
	</node>
	<node lat="69.0628333308627" lon="19.48351943682341" id="-100741">
		<tag k="name" v="Krokmo" />
		<tag k="place" v="farm" />
		<tag k="ssr:stedsnr" v="564467" />
	</node>
	<node lat="69.06351667100846" lon="19.296444431128176" id="-100743">
		<tag k="name" v="Elvebakken" />
		<tag k="place" v="farm" />
		<tag k="ssr:stedsnr" v="564470" />
	</node>
	<node lat="69.068297224297" lon="19.342847212162727" id="-100744">
		<tag k="alt_name" v="Lundsætra" />
		<tag k="name" v="Lundsæter" />
		<tag k="place" v="isolated_dwelling" />
		<tag k="ssr:stedsnr" v="564473" />
	</node>
	<node lat="69.06604166455836" lon="19.30568889093746" id="-100745">
		<tag k="alt_name" v="Myrseth" />
		<tag k="name" v="Myrset" />
		<tag k="place" v="farm" />
		<tag k="ssr:stedsnr" v="564474" />
	</node>
	<node lat="69.0792250021482" lon="19.54694443729692" id="-100746">
		<tag k="alt_name" v="Rognmoen" />
		<tag k="name" v="Rognmo" />
		<tag k="place" v="farm" />
		<tag k="ssr:stedsnr" v="564481" />
	</node>
	<node lat="69.09818333612111" lon="19.69005831258169" id="-100747">
		<tag k="alt_name" v="Steinsvoll;Stenvoll" />
		<tag k="name" v="Steinvolden" />
		<tag k="place" v="farm" />
		<tag k="ssr:stedsnr" v="564499" />
	</node>
	<node lat="69.4368999997886" lon="19.04646942676999" id="-100752">
		<tag k="name" v="Kolnes" />
		<tag k="place" v="farm" />
		<tag k="ssr:stedsnr" v="564883" />
	</node>
	<node lat="69.385374996139" lon="18.99747500416177" id="-100756">
		<tag k="name" v="Rydningen" />
		<tag k="place" v="farm" />
		<tag k="ssr:stedsnr" v="564932" />
	</node>
	<node lat="69.38748055428026" lon="18.98193611461798" id="-100759">
		<tag k="name" v="Lysbakken" />
		<tag k="place" v="farm" />
		<tag k="ssr:stedsnr" v="564947" />
	</node>
	<node lat="69.36315833388566" lon="18.718799985554906" id="-100761">
		<tag k="name" v="Lund" />
		<tag k="place" v="farm" />
		<tag k="ssr:stedsnr" v="564956" />
	</node>
	<node lat="69.32298333140693" lon="18.750013870422844" id="-100767">
		<tag k="fixme" v="consider place=hamlet" />
		<tag k="name" v="Kjerkevika" />
		<tag k="place" v="village" />
		<tag k="ssr:stedsnr" v="564995" />
	</node>
	<node lat="69.20140555343575" lon="19.08338054481074" id="-100768">
		<tag k="name" v="Holmebukta" />
		<tag k="place" v="farm" />
		<tag k="ssr:stedsnr" v="564996" />
	</node>
	<node lat="69.24736168555876" lon="18.994403845686776" id="-100770">
		<tag k="name" v="Fagerli" />
		<tag k="place" v="farm" />
		<tag k="ssr:stedsnr" v="564902" />
	</node>
	<node lat="69.11147499918516" lon="19.30606666739391" id="-100831">
		<tag k="name" v="Bjørkli" />
		<tag k="place" v="farm" />
		<tag k="ssr:stedsnr" v="595777" />
	</node>
	<node lat="69.38827777837022" lon="18.996349994290796" id="-100832">
		<tag k="name" v="Nervoll" />
		<tag k="place" v="farm" />
		<tag k="ssr:stedsnr" v="596268" />
	</node>
	<node lat="69.39306666639499" lon="18.98528332636595" id="-100833">
		<tag k="amenity" v="school" />
		<tag k="name" v="Malangseidet skole" />
		<tag k="ssr:stedsnr" v="596278" />
	</node>
	<node lat="69.185397225752" lon="19.051672220162597" id="-100871">
		<tag k="name" v="Moen" />
		<tag k="place" v="farm" />
		<tag k="ssr:stedsnr" v="596845" />
	</node>
	<node lat="69.34337518101306" lon="19.26634292234213" id="-100879">
		<tag k="name" v="Sandøyra" />
		<tag k="place" v="hamlet" />
		<tag k="ssr:stedsnr" v="635073" />
	</node>
	<node lat="69.15548888973058" lon="19.2320166573223" id="-100882">
		<tag k="name" v="Heimstad" />
		<tag k="place" v="farm" />
		<tag k="ssr:stedsnr" v="624002" />
	</node>
	<node lat="69.2249611131798" lon="19.442074989754644" id="-100885">
		<tag k="name" v="Myreng" />
		<tag k="place" v="farm" />
		<tag k="ssr:stedsnr" v="624171" />
	</node>
	<node lat="69.22214444571095" lon="19.521358318077898" id="-100886">
		<tag k="name" v="Lundali" />
		<tag k="place" v="farm" />
		<tag k="ssr:stedsnr" v="624175" />
	</node>
	<node lat="69.3025527800849" lon="18.659205555410463" id="-100887">
		<tag k="name" v="Eng" />
		<tag k="place" v="farm" />
		<tag k="ssr:stedsnr" v="624124" />
	</node>
	<node lat="69.21995832959519" lon="19.238927776100212" id="-100889">
		<tag k="name" v="Falkestad" />
		<tag k="place" v="farm" />
		<tag k="ssr:stedsnr" v="624147" />
	</node>
	<node lat="69.15064167099229" lon="19.173527771848548" id="-100890">
		<tag k="name" v="Sakslund" />
		<tag k="place" v="farm" />
		<tag k="ssr:stedsnr" v="624796" />
	</node>
	<node lat="69.16231944476142" lon="19.184694446381474" id="-100892">
		<tag k="name" v="Steinstad" />
		<tag k="place" v="farm" />
		<tag k="ssr:stedsnr" v="624752" />
	</node>
	<node lat="69.35765263391572" lon="18.693254231994946" id="-100893">
		<tag k="name" v="Skutvika" />
		<tag k="place" v="farm" />
		<tag k="ssr:stedsnr" v="624958" />
	</node>
	<node lat="69.21728333579586" lon="19.262808322497367" id="-100895">
		<tag k="name" v="Sørkjos" />
		<tag k="place" v="farm" />
		<tag k="ssr:stedsnr" v="625064" />
	</node>
	<node lat="69.27029999987033" lon="18.71813056072827" id="-100897">
		<tag k="name" v="Aursfjord" />
		<tag k="place" v="hamlet" />
		<tag k="ssr:stedsnr" v="625076" />
	</node>
	<node lat="69.27724166614315" lon="19.18503054913702" id="-100901">
		<tag k="alt_name" v="Bjellmoen" />
		<tag k="name" v="Bjellmo" />
		<tag k="place" v="farm" />
		<tag k="ssr:stedsnr" v="625053" />
	</node>
	<node lat="69.31484999807051" lon="19.53589165841572" id="-100904">
		<tag k="name" v="Skogmoen" />
		<tag k="place" v="farm" />
		<tag k="ssr:stedsnr" v="625123" />
	</node>
	<node lat="69.34247241395435" lon="19.2688346674094" id="-100906">
		<tag k="alt_name" v="Sandøren" />
		<tag k="fixme" v="consider place=hamlet" />
		<tag k="name" v="Sandøyra" />
		<tag k="place" v="farm" />
		<tag k="ssr:stedsnr" v="625178" />
	</node>
	<node lat="69.2270472204024" lon="19.241541659338406" id="-100909">
		<tag k="fixme" v="consider place=hamlet" />
		<tag k="name" v="Sagelv" />
		<tag k="place" v="village" />
		<tag k="ssr:stedsnr" v="625183" />
	</node>
	<node lat="69.37093975701568" lon="19.36596174277023" id="-100910">
		<tag k="name" v="Nordgard" />
		<tag k="place" v="farm" />
		<tag k="ssr:stedsnr" v="625197" />
	</node>
	<node lat="69.3236972205673" lon="19.412808319879883" id="-100912">
		<tag k="name" v="Seljemo" />
		<tag k="place" v="farm" />
		<tag k="ssr:stedsnr" v="625141" />
	</node>
	<node lat="69.37613611104977" lon="19.29422220934601" id="-100915">
		<tag k="name" v="Glitterheim" />
		<tag k="place" v="isolated_dwelling" />
		<tag k="ssr:stedsnr" v="625209" />
	</node>
	<node lat="69.37911666473529" lon="19.226224999550706" id="-100917">
		<tag k="name" v="Ringstad" />
		<tag k="place" v="farm" />
		<tag k="ssr:stedsnr" v="625223" />
	</node>
	<node lat="69.43447778167658" lon="19.259502762447433" id="-100918">
		<tag k="building" v="civic" />
		<tag k="name" v="Smalak brøytestasjon" />
		<tag k="ssr:stedsnr" v="625238" />
	</node>
	<node lat="69.47427500163845" lon="18.482799997907513" id="-100921">
		<tag k="name" v="Nybrotet" />
		<tag k="place" v="farm" />
		<tag k="ssr:stedsnr" v="625628" />
	</node>
	<node lat="69.42920000445639" lon="18.54499999364021" id="-100927">
		<tag k="name" v="Dalheim" />
		<tag k="place" v="farm" />
		<tag k="ssr:stedsnr" v="625733" />
	</node>
	<node lat="69.45916120458014" lon="18.905053251075792" id="-100929">
		<tag k="alt_name" v="Sletten" />
		<tag k="fixme" v="consider place=hamlet" />
		<tag k="name" v="Sletta" />
		<tag k="place" v="farm" />
		<tag k="ssr:stedsnr" v="625887" />
	</node>
	<node lat="69.46178333762012" lon="18.97633888685487" id="-100930">
		<tag k="name" v="Øvergård" />
		<tag k="place" v="farm" />
		<tag k="ssr:stedsnr" v="625888" />
	</node>
	<node lat="69.39300277960905" lon="19.076980546450297" id="-100932">
		<tag k="name" v="Nordvang" />
		<tag k="place" v="farm" />
		<tag k="ssr:stedsnr" v="625956" />
	</node>
	<node lat="69.39502777456782" lon="18.688700001620287" id="-100935">
		<tag k="name" v="Fredheim" />
		<tag k="place" v="farm" />
		<tag k="ssr:stedsnr" v="625927" />
	</node>
	<node lat="69.23351274493899" lon="19.2019677414122" id="-100938">
		<tag k="fixme" v="consider place=hamlet" />
		<tag k="name" v="Storsteinnes" />
		<tag k="place" v="farm" />
		<tag k="ssr:stedsnr" v="625947" />
	</node>
	<node lat="69.34308610673556" lon="19.12743333496149" id="-100943">
		<tag k="name" v="Mellomjorda" />
		<tag k="place" v="farm" />
		<tag k="ssr:stedsnr" v="625999" />
	</node>
	<node lat="69.27885277337802" lon="19.287094445135434" id="-100944">
		<tag k="alt_name" v="Skjeret" />
		<tag k="name" v="Skjæret" />
		<tag k="place" v="farm" />
		<tag k="ssr:stedsnr" v="625321" />
	</node>
	<node lat="69.25779166438569" lon="19.41868332262973" id="-100945">
		<tag k="name" v="Bergstad" />
		<tag k="place" v="farm" />
		<tag k="ssr:stedsnr" v="625335" />
	</node>
	<node lat="69.27076666380759" lon="19.271838881573576" id="-100948">
		<tag k="name" v="Holmenes" />
		<tag k="place" v="farm" />
		<tag k="ssr:stedsnr" v="625346" />
	</node>
	<node lat="69.20681504062517" lon="19.78811892226268" id="-100950">
		<tag k="alt_name:no" v="Kilen" />
		<tag k="fixme" v="consider place=hamlet" />
		<tag k="name" v="Kila - Giillá" />
		<tag k="name:no" v="Kila" />
		<tag k="name:se" v="Giillá" />
		<tag k="place" v="farm" />
		<tag k="ssr:stedsnr" v="631074" />
	</node>
	<node lat="69.30458941424097" lon="18.864938976872555" id="-100951">
		<tag k="fixme" v="consider place=hamlet" />
		<tag k="name" v="Stålvikbotn" />
		<tag k="place" v="farm" />
		<tag k="ssr:stedsnr" v="632741" />
	</node>
	<node lat="69.3440008857029" lon="19.24576237204898" id="-100952">
		<tag k="name" v="Sandneset" />
		<tag k="place" v="farm" />
		<tag k="ssr:stedsnr" v="632960" />
	</node>
	<node lat="69.39733862334792" lon="19.073760985955296" id="-100953">
		<tag k="alt_name" v="Hestnes nordre" />
		<tag k="fixme" v="consider place=hamlet" />
		<tag k="loc_name" v="Hestnes" />
		<tag k="name" v="Nordre Hestnes" />
		<tag k="place" v="farm" />
		<tag k="ssr:stedsnr" v="633123" />
	</node>
	<node lat="69.31753004302298" lon="18.95886564454076" id="-100954">
		<tag k="fixme" v="consider place=hamlet" />
		<tag k="name" v="Eliasnes" />
		<tag k="place" v="farm" />
		<tag k="ssr:stedsnr" v="633994" />
	</node>
	<node lat="69.40010000324177" lon="18.59598334256268" id="-100955">
		<tag k="alt_name" v="Mortenshals" />
		<tag k="fixme" v="consider place=hamlet" />
		<tag k="name" v="Mortenhals" />
		<tag k="place" v="village" />
		<tag k="ssr:stedsnr" v="633998" />
	</node>
	<node lat="69.42746047469282" lon="18.954439339184866" id="-100990">
		<tag k="name" v="Åsheim" />
		<tag k="place" v="farm" />
		<tag k="ssr:stedsnr" v="655761" />
	</node>
	<node lat="69.2201444405631" lon="19.559369436037525" id="-100997">
		<tag k="name" v="Kutorget" />
		<tag k="place" v="quarter" />
		<tag k="ssr:stedsnr" v="656242" />
	</node>
	<node lat="69.38950555587799" lon="18.983172212786542" id="-100998">
		<tag k="name" v="Lilleng" />
		<tag k="place" v="farm" />
		<tag k="ssr:stedsnr" v="656249" />
	</node>
	<node lat="69.26987222000594" lon="18.82914167150136" id="-101021">
		<tag k="historic" v="shieling" />
		<tag k="name" v="Bjørkhaugsætra" />
		<tag k="place" v="isolated_dwelling" />
		<tag k="ssr:stedsnr" v="656613" />
	</node>
	<node lat="69.42699999688763" lon="18.95922499625365" id="-101062">
		<tag k="name" v="Middagsbugten ytre" />
		<tag k="place" v="isolated_dwelling" />
		<tag k="ssr:stedsnr" v="716778" />
	</node>
	<node lat="69.43657221887243" lon="18.52261388260753" id="-101088">
		<tag k="name" v="Øvringen" />
		<tag k="place" v="farm" />
		<tag k="ssr:stedsnr" v="717293" />
	</node>
	<node lat="69.40691110973637" lon="18.624513877593717" id="-101131">
		<tag k="name" v="Bakkeli" />
		<tag k="place" v="farm" />
		<tag k="ssr:stedsnr" v="718255" />
	</node>
	<node lat="69.27227500359265" lon="18.717852768645177" id="-101140">
		<tag k="name" v="Nordmo" />
		<tag k="place" v="farm" />
		<tag k="ssr:stedsnr" v="718597" />
	</node>
	<node lat="69.19280555237115" lon="19.718311093008534" id="-101148">
		<tag k="name" v="Trangen" />
		<tag k="place" v="farm" />
		<tag k="ssr:stedsnr" v="745051" />
	</node>
	<node lat="69.19254166732581" lon="19.71212498706044" id="-101149">
		<tag k="name" v="Borge" />
		<tag k="place" v="farm" />
		<tag k="ssr:stedsnr" v="745052" />
	</node>
	<node lat="69.28631942019798" lon="19.002575558746877" id="-101154">
		<tag k="fixme" v="consider place=hamlet" />
		<tag k="name" v="Nordfjordbotn" />
		<tag k="place" v="farm" />
		<tag k="ssr:stedsnr" v="746073" />
	</node>
	<node lat="69.31487499577061" lon="18.956394443356448" id="-101157">
		<tag k="name" v="Bergmoen" />
		<tag k="place" v="farm" />
		<tag k="ssr:stedsnr" v="746114" />
	</node>
	<node lat="69.33146503416494" lon="19.403065055275317" id="-101160">
		<tag k="name" v="Brattli" />
		<tag k="place" v="farm" />
		<tag k="ssr:stedsnr" v="746172" />
	</node>
	<node lat="69.12813611016752" lon="19.770744440339204" id="-101162">
		<tag k="name" v="Fagermo" />
		<tag k="place" v="isolated_dwelling" />
		<tag k="ssr:stedsnr" v="746028" />
	</node>
	<node lat="69.25205555867227" lon="19.06333055050688" id="-101165">
		<tag k="name" v="Dalen" />
		<tag k="place" v="farm" />
		<tag k="ssr:stedsnr" v="746045" />
	</node>
	<node lat="69.26773055865173" lon="18.77321666483566" id="-101168">
		<tag k="name" v="Elverum" />
		<tag k="place" v="farm" />
		<tag k="ssr:stedsnr" v="746063" />
	</node>
	<node lat="69.22068412154103" lon="19.265136751509132" id="-101172">
		<tag k="alt_name" v="Kjoshaug" />
		<tag k="name" v="Kjoshaugen" />
		<tag k="place" v="farm" />
		<tag k="ssr:stedsnr" v="746142" />
	</node>
	<node lat="69.32138888596015" lon="19.418333324000617" id="-101173">
		<tag k="alt_name" v="Slettmoen" />
		<tag k="name" v="Slettmo" />
		<tag k="place" v="farm" />
		<tag k="ssr:stedsnr" v="746143" />
	</node>
	<node lat="69.33817484195087" lon="19.398431353637804" id="-101174">
		<tag k="fixme" v="consider place=hamlet" />
		<tag k="name" v="Elvebakken" />
		<tag k="place" v="farm" />
		<tag k="ssr:stedsnr" v="746161" />
	</node>
	<node lat="69.26258055358564" lon="19.2586708322717" id="-101177">
		<tag k="name" v="Bergstad" />
		<tag k="place" v="farm" />
		<tag k="ssr:stedsnr" v="746319" />
	</node>
	<node lat="69.28440555136011" lon="19.411213884676744" id="-101180">
		<tag k="name" v="Skoglund" />
		<tag k="place" v="farm" />
		<tag k="ssr:stedsnr" v="746352" />
	</node>
	<node lat="69.28511388540485" lon="19.293838872288674" id="-101181">
		<tag k="name" v="Ryddheim" />
		<tag k="place" v="farm" />
		<tag k="ssr:stedsnr" v="746357" />
	</node>
	<node lat="69.08794294918428" lon="19.248338506817934" id="-101183">
		<tag k="name" v="Langvassli" />
		<tag k="place" v="farm" />
		<tag k="ssr:stedsnr" v="746488" />
	</node>
	<node lat="69.16220277832598" lon="19.156508326053284" id="-101189">
		<tag k="name" v="Vonheim" />
		<tag k="place" v="farm" />
		<tag k="ssr:stedsnr" v="746701" />
	</node>
	<node lat="69.12070278186644" lon="19.130252773980974" id="-101190">
		<tag k="alt_name" v="Sollia" />
		<tag k="name" v="Sollien" />
		<tag k="place" v="farm" />
		<tag k="ssr:stedsnr" v="746784" />
	</node>
	<node lat="69.14958723410776" lon="19.208026855804558" id="-101194">
		<tag k="name" v="Fjellheim" />
		<tag k="place" v="farm" />
		<tag k="ssr:stedsnr" v="746748" />
	</node>
	<node lat="69.2324444454612" lon="19.196558331537826" id="-101196">
		<tag k="alt_name" v="Øvremoen" />
		<tag k="name" v="Moen" />
		<tag k="place" v="farm" />
		<tag k="ssr:stedsnr" v="746932" />
	</node>
	<node lat="69.385280556975" lon="18.99395555054507" id="-101197">
		<tag k="name" v="Solhaug" />
		<tag k="place" v="isolated_dwelling" />
		<tag k="ssr:stedsnr" v="746934" />
	</node>
	<node lat="69.2444380895529" lon="19.44740107171977" id="-101206">
		<tag k="fixme" v="consider place=hamlet" />
		<tag k="name" v="Musnes" />
		<tag k="place" v="farm" />
		<tag k="ssr:stedsnr" v="747148" />
	</node>
	<node lat="69.32153303610083" lon="18.74600645861639" id="-101215">
		<tag k="alt_name" v="Kirkevik" />
		<tag k="fixme" v="consider place=hamlet" />
		<tag k="name" v="Kjerkevika" />
		<tag k="place" v="farm" />
		<tag k="ssr:stedsnr" v="754978" />
	</node>
	<node lat="69.32197500272092" lon="18.778063895447776" id="-101216">
		<tag k="fixme" v="consider place=hamlet" />
		<tag k="name" v="Hamnvåg" />
		<tag k="place" v="village" />
		<tag k="ssr:stedsnr" v="754979" />
	</node>
	<node lat="69.19218055886606" lon="19.721619432926694" id="-101222">
		<tag k="name" v="Elvekroknes" />
		<tag k="place" v="farm" />
		<tag k="ssr:stedsnr" v="765179" />
	</node>
	<node lat="69.34159675395861" lon="19.141680959960773" id="-101235">
		<tag k="alt_name" v="Middagsbukt indre" />
		<tag k="fixme" v="consider place=hamlet" />
		<tag k="name" v="Indre Middagsbukt" />
		<tag k="place" v="farm" />
		<tag k="ssr:stedsnr" v="777195" />
	</node>
	<node lat="69.21459444920848" lon="19.33181387436618" id="-101236">
		<tag k="historic" v="shieling" />
		<tag k="name" v="Hardersætra" />
		<tag k="place" v="isolated_dwelling" />
		<tag k="ssr:stedsnr" v="777841" />
	</node>
	<node lat="69.43880833472262" lon="18.471149985073772" id="-101248">
		<tag k="name" v="Spildernes" />
		<tag k="place" v="farm" />
		<tag k="ssr:stedsnr" v="777365" />
	</node>
	<node lat="69.25544722752102" lon="19.216694426478128" id="-101257">
		<tag k="name" v="Lunde" />
		<tag k="place" v="farm" />
		<tag k="ssr:stedsnr" v="777421" />
	</node>
	<node lat="69.25867499821989" lon="19.44590832605989" id="-101297">
		<tag k="name" v="Finngamman" />
		<tag k="place" v="locality" />
		<tag k="ssr:stedsnr" v="778297" />
	</node>
	<node lat="69.31401111242559" lon="19.011449995353676" id="-101308">
		<tag k="historic" v="shieling" />
		<tag k="name" v="Jakobsætra" />
		<tag k="place" v="isolated_dwelling" />
		<tag k="ssr:stedsnr" v="778563" />
	</node>
	<node lat="69.19317777780665" lon="19.729027775190044" id="-101325">
		<tag k="name" v="Nordmo" />
		<tag k="place" v="farm" />
		<tag k="ssr:stedsnr" v="806049" />
	</node>
	<node lat="69.18579444049806" lon="19.69394999395067" id="-101327">
		<tag k="name" v="Bergtun" />
		<tag k="place" v="farm" />
		<tag k="ssr:stedsnr" v="806052" />
	</node>
	<node lat="69.1876750041398" lon="19.68105832728082" id="-101328">
		<tag k="name" v="Fosslund" />
		<tag k="place" v="farm" />
		<tag k="ssr:stedsnr" v="806055" />
	</node>
	<node lat="69.30285555280759" lon="19.509711088889905" id="-101329">
		<tag k="name" v="Fjellås" />
		<tag k="old_name" v="Fjellas" />
		<tag k="place" v="farm" />
		<tag k="ssr:stedsnr" v="807343" />
	</node>
	<node lat="69.307800004861" lon="19.533016655181694" id="-101330">
		<tag k="name" v="Heimdal" />
		<tag k="place" v="farm" />
		<tag k="ssr:stedsnr" v="807344" />
	</node>
	<node lat="69.31438055696937" lon="19.544863874574848" id="-101332">
		<tag k="name" v="Nordheim" />
		<tag k="place" v="farm" />
		<tag k="ssr:stedsnr" v="807143" />
	</node>
	<node lat="69.21316666348689" lon="19.24476109475394" id="-101333">
		<tag k="name" v="Lysmo" />
		<tag k="place" v="farm" />
		<tag k="ssr:stedsnr" v="807148" />
	</node>
	<node lat="69.32141389196376" lon="19.304738878467166" id="-101334">
		<tag k="name" v="Solås" />
		<tag k="place" v="farm" />
		<tag k="ssr:stedsnr" v="807149" />
	</node>
	<node lat="69.21303055425471" lon="19.272358335200668" id="-101335">
		<tag k="name" v="Myrvoll" />
		<tag k="place" v="farm" />
		<tag k="ssr:stedsnr" v="807154" />
	</node>
	<node lat="69.32875000147101" lon="19.407024997978485" id="-101336">
		<tag k="name" v="Heimtun" />
		<tag k="place" v="farm" />
		<tag k="ssr:stedsnr" v="807156" />
	</node>
	<node lat="69.22809722655742" lon="19.48959165301025" id="-101338">
		<tag k="alt_name" v="Hamnes;Indre Hamnes;Havnnes" />
		<tag k="name" v="Hamnnes" />
		<tag k="place" v="farm" />
		<tag k="ssr:stedsnr" v="807159" />
	</node>
	<node lat="69.24517778192968" lon="19.4407055397864" id="-101339">
		<tag k="name" v="Solstad" />
		<tag k="place" v="farm" />
		<tag k="ssr:stedsnr" v="807164" />
	</node>
	<node lat="69.3612472239123" lon="19.359624999724257" id="-101340">
		<tag k="name" v="Laksvatn" />
		<tag k="place" v="farm" />
		<tag k="ssr:stedsnr" v="807175" />
	</node>
	<node lat="69.12516666636581" lon="19.75813609886197" id="-101343">
		<tag k="alt_name" v="Wingstad" />
		<tag k="name" v="Vingstad" />
		<tag k="place" v="farm" />
		<tag k="ssr:stedsnr" v="807024" />
	</node>
	<node lat="69.26823007857482" lon="19.148088787187977" id="-101346">
		<tag k="fixme" v="consider place=hamlet" />
		<tag k="name" v="Vesterbotn" />
		<tag k="place" v="farm" />
		<tag k="ssr:stedsnr" v="807057" />
	</node>
	<node lat="69.2658916683835" lon="18.75344998801531" id="-101347">
		<tag k="name" v="Myrvoll" />
		<tag k="place" v="farm" />
		<tag k="ssr:stedsnr" v="807066" />
	</node>
	<node lat="69.2172944444992" lon="19.27049721758263" id="-101350">
		<tag k="name" v="Myrland" />
		<tag k="place" v="farm" />
		<tag k="ssr:stedsnr" v="807076" />
	</node>
	<node lat="69.27623889283288" lon="19.114013887572856" id="-101351">
		<tag k="alt_name" v="Grønåsen, øvre;Grønås øvre;Øvre Grønås" />
		<tag k="name" v="Øvre Grønåsen" />
		<tag k="place" v="farm" />
		<tag k="ssr:stedsnr" v="807077" />
	</node>
	<node lat="69.20101389098294" lon="19.265224993476163" id="-101354">
		<tag k="name" v="Sørkjossætra" />
		<tag k="place" v="locality" />
		<tag k="ssr:stedsnr" v="807080" />
	</node>
	<node lat="69.30671111311945" lon="18.850513894041132" id="-101357">
		<tag k="name" v="Lanes" />
		<tag k="place" v="farm" />
		<tag k="ssr:stedsnr" v="807100" />
	</node>
	<node lat="69.18926111178604" lon="19.239824994335525" id="-101358">
		<tag k="name" v="Seljevoll" />
		<tag k="place" v="farm" />
		<tag k="ssr:stedsnr" v="807105" />
	</node>
	<node lat="69.19219999868936" lon="19.291180555276" id="-101359">
		<tag k="name" v="Høgmo" />
		<tag k="place" v="farm" />
		<tag k="ssr:stedsnr" v="807107" />
	</node>
	<node lat="69.21839722293628" lon="19.56058331517419" id="-101360">
		<tag k="name" v="Mogard" />
		<tag k="place" v="farm" />
		<tag k="ssr:stedsnr" v="807120" />
	</node>
	<node lat="69.21901111149074" lon="19.805774978928188" id="-101362">
		<tag k="name" v="Myrstad" />
		<tag k="place" v="farm" />
		<tag k="ssr:stedsnr" v="807124" />
	</node>
	<node lat="69.32223611129037" lon="18.95614998833382" id="-101364">
		<tag k="name" v="Bukta" />
		<tag k="place" v="farm" />
		<tag k="ssr:stedsnr" v="807128" />
	</node>
	<node lat="69.3195055594032" lon="18.96774166547588" id="-101365">
		<tag k="alt_name" v="Lauvli" />
		<tag k="name" v="Løvli" />
		<tag k="place" v="farm" />
		<tag k="ssr:stedsnr" v="807129" />
	</node>
	<node lat="69.21985000312779" lon="19.606094426390342" id="-101366">
		<tag k="name" v="Bakkeringen" />
		<tag k="place" v="farm" />
		<tag k="ssr:stedsnr" v="807130" />
	</node>
	<node lat="69.22057777608525" lon="19.31331386857673" id="-101368">
		<tag k="name" v="Sørmoen" />
		<tag k="place" v="farm" />
		<tag k="ssr:stedsnr" v="807140" />
	</node>
	<node lat="69.2280305516285" lon="19.423052770408646" id="-101370">
		<tag k="alt_name" v="Storfjellet" />
		<tag k="name" v="Storfjell" />
		<tag k="place" v="farm" />
		<tag k="ssr:stedsnr" v="807142" />
	</node>
	<node lat="69.22952777758898" lon="19.232636112650958" id="-101372">
		<tag k="name" v="Hamarbakk" />
		<tag k="place" v="farm" />
		<tag k="ssr:stedsnr" v="807176" />
	</node>
	<node lat="69.34432500054643" lon="19.2446305365396" id="-101373">
		<tag k="name" v="Haugan" />
		<tag k="place" v="farm" />
		<tag k="ssr:stedsnr" v="807178" />
	</node>
	<node lat="69.27849999639791" lon="19.279541657303216" id="-101377">
		<tag k="name" v="Litlebakk" />
		<tag k="place" v="farm" />
		<tag k="ssr:stedsnr" v="807307" />
	</node>
	<node lat="69.27562500032599" lon="19.244691647761222" id="-101378">
		<tag k="name" v="Bjørnstad" />
		<tag k="place" v="farm" />
		<tag k="ssr:stedsnr" v="807308" />
	</node>
	<node lat="69.26838958867837" lon="19.413348040743575" id="-101381">
		<tag k="fixme" v="consider place=hamlet" />
		<tag k="name" v="Seljelvnes" />
		<tag k="place" v="village" />
		<tag k="ssr:stedsnr" v="807326" />
	</node>
	<node lat="69.29751666484086" lon="19.412249986443236" id="-101382">
		<tag k="name" v="Skogeng" />
		<tag k="place" v="farm" />
		<tag k="ssr:stedsnr" v="807331" />
	</node>
	<node lat="69.25048722717854" lon="19.232195656420764" id="-101384">
		<tag k="name" v="Steinåker" />
		<tag k="place" v="farm" />
		<tag k="ssr:stedsnr" v="807275" />
	</node>
	<node lat="69.29015833731928" lon="19.313088876990395" id="-101387">
		<tag k="name" v="Bakkelund" />
		<tag k="place" v="farm" />
		<tag k="ssr:stedsnr" v="807363" />
	</node>
	<node lat="69.28630277496195" lon="19.298049988098175" id="-101388">
		<tag k="name" v="Ryvoll" />
		<tag k="place" v="farm" />
		<tag k="ssr:stedsnr" v="807368" />
	</node>
	<node lat="69.06364722063708" lon="19.30755553989103" id="-101389">
		<tag k="name" v="Åsheim" />
		<tag k="place" v="farm" />
		<tag k="ssr:stedsnr" v="807446" />
	</node>
	<node lat="69.08776111285621" lon="19.590722218661263" id="-101391">
		<tag k="name" v="Fagerhaug" />
		<tag k="place" v="farm" />
		<tag k="ssr:stedsnr" v="807454" />
	</node>
	<node lat="69.0820583312511" lon="19.29613886955046" id="-101392">
		<tag k="alt_name" v="Bjørkemo" />
		<tag k="name" v="Bjørkmo" />
		<tag k="place" v="farm" />
		<tag k="ssr:stedsnr" v="807458" />
	</node>
	<node lat="69.07671111390177" lon="19.261969438949833" id="-101393">
		<tag k="alt_name" v="Lauvlund" />
		<tag k="name" v="Løvlund" />
		<tag k="place" v="farm" />
		<tag k="ssr:stedsnr" v="807462" />
	</node>
	<node lat="69.08505277557194" lon="19.29696110581755" id="-101394">
		<tag k="name" v="Rydningen" />
		<tag k="place" v="isolated_dwelling" />
		<tag k="ssr:stedsnr" v="807471" />
	</node>
	<node lat="69.4364353352041" lon="18.523173669268086" id="-101395">
		<tag k="fixme" v="consider place=hamlet" />
		<tag k="name" v="Gammelgården" />
		<tag k="place" v="farm" />
		<tag k="ssr:stedsnr" v="807646" />
	</node>
	<node lat="69.44626388570023" lon="18.484269434086862" id="-101396">
		<tag k="name" v="Elvestad" />
		<tag k="place" v="farm" />
		<tag k="ssr:stedsnr" v="807649" />
	</node>
	<node lat="69.44424999608144" lon="18.49040000299342" id="-101397">
		<tag k="name" v="Løvoll" />
		<tag k="place" v="farm" />
		<tag k="ssr:stedsnr" v="807653" />
	</node>
	<node lat="69.15664444474311" lon="19.176980558531312" id="-101402">
		<tag k="alt_name" v="Langmoen" />
		<tag k="name" v="Langmo" />
		<tag k="place" v="farm" />
		<tag k="ssr:stedsnr" v="807730" />
	</node>
	<node lat="69.16933610660394" lon="19.07610277617131" id="-101403">
		<tag k="name" v="Elverum" />
		<tag k="place" v="farm" />
		<tag k="ssr:stedsnr" v="807747" />
	</node>
	<node lat="69.46316066411167" lon="18.973798534291817" id="-101404">
		<tag k="fixme" v="consider place=hamlet" />
		<tag k="name" v="Stornes" />
		<tag k="place" v="farm" />
		<tag k="ssr:stedsnr" v="807878" />
	</node>
	<node lat="69.38387222539033" lon="18.78090277716292" id="-101405">
		<tag k="alt_name" v="Fjellskarddalen" />
		<tag k="name" v="Fjellskardal" />
		<tag k="place" v="farm" />
		<tag k="ssr:stedsnr" v="807943" />
	</node>
	<node lat="69.41247777925267" lon="18.991219451099496" id="-101413">
		<tag k="alt_name" v="Linberg" />
		<tag k="name" v="Linnberg" />
		<tag k="place" v="farm" />
		<tag k="ssr:stedsnr" v="807930" />
	</node>
	<node lat="69.41003525491658" lon="19.074491915953075" id="-101414">
		<tag k="fixme" v="consider place=hamlet" />
		<tag k="loc_name:se" v="Dimbbarnjárga" />
		<tag k="name" v="Tømmernes" />
		<tag k="name:no" v="Tømmernes" />
		<tag k="place" v="farm" />
		<tag k="ssr:stedsnr" v="807932" />
	</node>
	<node lat="69.34365833102804" lon="19.17083610652817" id="-101419">
		<tag k="fixme" v="consider place=hamlet" />
		<tag k="name" v="Sletta" />
		<tag k="place" v="village" />
		<tag k="ssr:stedsnr" v="807997" />
	</node>
	<node lat="69.22363888530423" lon="19.17804444014001" id="-101421">
		<tag k="name" v="Lundmo" />
		<tag k="place" v="farm" />
		<tag k="ssr:stedsnr" v="807953" />
	</node>
	<node lat="69.19521388911097" lon="19.077780556245997" id="-101424">
		<tag k="name" v="Nysted" />
		<tag k="place" v="farm" />
		<tag k="ssr:stedsnr" v="807980" />
	</node>
	<node lat="69.19621718611613" lon="19.08019589078882" id="-101425">
		<tag k="name" v="Myrhaug" />
		<tag k="place" v="farm" />
		<tag k="ssr:stedsnr" v="807981" />
	</node>
	<node lat="69.34686111008953" lon="18.746994449373872" id="-101426">
		<tag k="alt_name" v="Lauksletta" />
		<tag k="name" v="Løksletta" />
		<tag k="place" v="farm" />
		<tag k="ssr:stedsnr" v="807984" />
	</node>
	<node lat="69.40110000010775" lon="18.98649443092205" id="-101427">
		<tag k="alt_name" v="Supelva" />
		<tag k="name" v="Supelv" />
		<tag k="place" v="farm" />
		<tag k="ssr:stedsnr" v="808926" />
	</node>
	<node lat="69.25600833437423" lon="19.42208054394422" id="-101430">
		<tag k="name" v="Moen" />
		<tag k="place" v="farm" />
		<tag k="ssr:stedsnr" v="810574" />
	</node>
	<node lat="69.28372777954422" lon="19.28693054939735" id="-101431">
		<tag k="name" v="Einnes" />
		<tag k="place" v="farm" />
		<tag k="ssr:stedsnr" v="810576" />
	</node>
	<node lat="69.38192500336076" lon="19.004986113681326" id="-101432">
		<tag k="name" v="Elvebakken" />
		<tag k="place" v="farm" />
		<tag k="ssr:stedsnr" v="813351" />
	</node>
	<node lat="69.44201666937305" lon="18.927341654173794" id="-101438">
		<tag k="name" v="Årseth" />
		<tag k="place" v="farm" />
		<tag k="ssr:stedsnr" v="826799" />
	</node>
	<node lat="69.0931611082188" lon="19.163502760605827" id="-101458">
		<tag k="name" v="Strømstad" />
		<tag k="place" v="farm" />
		<tag k="ssr:stedsnr" v="838320" />
	</node>
	<node lat="69.37404721960782" lon="18.627908329685653" id="-101495">
		<tag k="name" v="Utsikten" />
		<tag k="place" v="farm" />
		<tag k="ssr:stedsnr" v="839215" />
	</node>
	<node lat="69.30767499588555" lon="19.344872223942744" id="-101539">
		<tag k="name" v="Berg" />
		<tag k="place" v="isolated_dwelling" />
		<tag k="ssr:stedsnr" v="868129" />
	</node>
	<node lat="69.32466944142047" lon="19.411341655657726" id="-101540">
		<tag k="name" v="Stokse" />
		<tag k="place" v="farm" />
		<tag k="ssr:stedsnr" v="868134" />
	</node>
	<node lat="69.33661389349969" lon="19.31584720511404" id="-101544">
		<tag k="name" v="Haugstad" />
		<tag k="place" v="farm" />
		<tag k="ssr:stedsnr" v="868153" />
	</node>
	<node lat="69.35870277814308" lon="19.364877762959456" id="-101545">
		<tag k="name" v="Myreng" />
		<tag k="place" v="farm" />
		<tag k="ssr:stedsnr" v="868162" />
	</node>
	<node lat="69.26813889090025" lon="18.720311116256127" id="-101548">
		<tag k="name" v="Storli" />
		<tag k="place" v="farm" />
		<tag k="ssr:stedsnr" v="868056" />
	</node>
	<node lat="69.27390555681592" lon="18.71599999571911" id="-101549">
		<tag k="name" v="Nordmoen" />
		<tag k="place" v="farm" />
		<tag k="ssr:stedsnr" v="868057" />
	</node>
	<node lat="69.28383611238871" lon="18.962088876747654" id="-101550">
		<tag k="name" v="Nyheim" />
		<tag k="place" v="farm" />
		<tag k="ssr:stedsnr" v="868059" />
	</node>
	<node lat="69.20044999885945" lon="19.220083317397506" id="-101551">
		<tag k="historic" v="shieling" />
		<tag k="name" v="Lauvdalsæter" />
		<tag k="place" v="isolated_dwelling" />
		<tag k="ssr:stedsnr" v="868062" />
	</node>
	<node lat="69.20316388604246" lon="19.65777497706801" id="-101552">
		<tag k="name" v="Tu" />
		<tag k="place" v="farm" />
		<tag k="ssr:stedsnr" v="868066" />
	</node>
	<node lat="69.19748055349585" lon="19.66552497655564" id="-101553">
		<tag k="name" v="Berg" />
		<tag k="place" v="farm" />
		<tag k="ssr:stedsnr" v="868068" />
	</node>
	<node lat="69.21828055292697" lon="19.469263886709584" id="-101555">
		<tag k="name" v="Lindbu" />
		<tag k="place" v="farm" />
		<tag k="ssr:stedsnr" v="868087" />
	</node>
	<node lat="69.30999166822942" lon="18.975966672512676" id="-101556">
		<tag k="name" v="Solvang" />
		<tag k="place" v="farm" />
		<tag k="ssr:stedsnr" v="868092" />
	</node>
	<node lat="69.21848611227026" lon="19.61736943496958" id="-101558">
		<tag k="name" v="Myrvang" />
		<tag k="place" v="farm" />
		<tag k="ssr:stedsnr" v="868101" />
	</node>
	<node lat="69.2253861071593" lon="19.320091667990376" id="-101559">
		<tag k="name" v="Åsheim" />
		<tag k="place" v="farm" />
		<tag k="ssr:stedsnr" v="868116" />
	</node>
	<node lat="69.37906110869277" lon="19.28767220861352" id="-101560">
		<tag k="name" v="Skogvoll" />
		<tag k="place" v="farm" />
		<tag k="ssr:stedsnr" v="868189" />
	</node>
	<node lat="69.29933332984595" lon="19.337622208200305" id="-101564">
		<tag k="name" v="Myrenga" />
		<tag k="place" v="farm" />
		<tag k="ssr:stedsnr" v="868338" />
	</node>
	<node lat="69.2277833329896" lon="19.82257498704382" id="-101568">
		<tag k="name" v="Klemetheimen" />
		<tag k="place" v="farm" />
		<tag k="ssr:stedsnr" v="868355" />
	</node>
	<node lat="69.04522376962215" lon="19.293617449505508" id="-101570">
		<tag k="alt_name" v="Melkelvlia" />
		<tag k="name" v="Melkelvli" />
		<tag k="place" v="farm" />
		<tag k="ssr:stedsnr" v="868438" />
	</node>
	<node lat="69.06520555809432" lon="19.504327756312332" id="-101571">
		<tag k="name" v="Skredlund" />
		<tag k="place" v="farm" />
		<tag k="ssr:stedsnr" v="868450" />
	</node>
	<node lat="69.08590555635267" lon="19.57547777598962" id="-101572">
		<tag k="name" v="Rogne" />
		<tag k="place" v="farm" />
		<tag k="ssr:stedsnr" v="868465" />
	</node>
	<node lat="69.43285000208373" lon="18.533399987150702" id="-101575">
		<tag k="name" v="Tingvollen" />
		<tag k="place" v="farm" />
		<tag k="ssr:stedsnr" v="868626" />
	</node>
	<node lat="69.1132833370453" lon="19.155050003104066" id="-101577">
		<tag k="name" v="Utgård" />
		<tag k="place" v="farm" />
		<tag k="ssr:stedsnr" v="868770" />
	</node>
	<node lat="69.47018055908227" lon="18.977955538588848" id="-101578">
		<tag k="name" v="Myrvang" />
		<tag k="place" v="farm" />
		<tag k="ssr:stedsnr" v="868829" />
	</node>
	<node lat="69.37681388550047" lon="18.744708335834662" id="-101581">
		<tag k="alt_name" v="Skutvikåsen, øvre" />
		<tag k="name" v="Øvre Skutvikåsen" />
		<tag k="place" v="farm" />
		<tag k="ssr:stedsnr" v="868927" />
	</node>
	<node lat="69.37043503285615" lon="18.745061271996622" id="-101585">
		<tag k="name" v="Fosshøgda" />
		<tag k="place" v="farm" />
		<tag k="ssr:stedsnr" v="868951" />
	</node>
	<node lat="69.33980128712533" lon="18.820521744743623" id="-101586">
		<tag k="fixme" v="consider place=hamlet" />
		<tag k="name" v="Nordby" />
		<tag k="place" v="farm" />
		<tag k="ssr:stedsnr" v="868967" />
	</node>
	<node lat="69.30863888923601" lon="19.325186102121066" id="-101588">
		<tag k="amenity" v="school" />
		<tag k="name" v="Tennes skole" />
		<tag k="ssr:stedsnr" v="870575" />
	</node>
	<node lat="69.39807499732137" lon="18.681188890826256" id="-101621">
		<tag k="name" v="Skjellstad" />
		<tag k="place" v="farm" />
		<tag k="ssr:stedsnr" v="960036" />
	</node>
	<node lat="69.30050555131358" lon="19.336888885000086" id="-101632">
		<tag k="name" v="Gammelgård" />
		<tag k="place" v="farm" />
		<tag k="ssr:stedsnr" v="959715" />
	</node>
	<node lat="69.21995937651297" lon="19.25953597573995" id="-101642">
		<tag k="fixme" v="consider place=hamlet" />
		<tag k="name" v="Kjoshaugen" />
		<tag k="place" v="farm" />
		<tag k="ssr:stedsnr" v="959868" />
	</node>
	<node lat="69.38117500231527" lon="18.998283318280283" id="-101645">
		<tag k="name" v="Bjørkås" />
		<tag k="place" v="farm" />
		<tag k="ssr:stedsnr" v="960247" />
	</node>
	<node lat="69.38479166688909" lon="18.976586112098698" id="-101646">
		<tag k="name" v="Heimly" />
		<tag k="place" v="farm" />
		<tag k="ssr:stedsnr" v="960250" />
	</node>
	<node lat="69.25107742473433" lon="19.22314275132482" id="-101683">
		<tag k="name" v="Søreng" />
		<tag k="place" v="farm" />
		<tag k="ssr:stedsnr" v="975336" />
	</node>
	<node lat="69.23937500175288" lon="19.2203464890524" id="-101684">
		<tag k="name" v="Midtgård" />
		<tag k="place" v="farm" />
		<tag k="ssr:stedsnr" v="975339" />
	</node>
	<node lat="69.22360669004449" lon="19.520978123205044" id="-101685">
		<tag k="fixme" v="consider place=hamlet" />
		<tag k="name" v="Jernberget" />
		<tag k="place" v="farm" />
		<tag k="ssr:stedsnr" v="975301" />
	</node>
	<node lat="69.2224970515296" lon="19.51860495821609" id="-101686">
		<tag k="name" v="Jernberget" />
		<tag k="place" v="farm" />
		<tag k="ssr:stedsnr" v="975303" />
	</node>
	<node lat="69.38899406912735" lon="18.619534552174564" id="-101687">
		<tag k="fixme" v="consider place=hamlet" />
		<tag k="name" v="Sand" />
		<tag k="place" v="farm" />
		<tag k="ssr:stedsnr" v="975308" />
	</node>
	<node lat="69.2138868289442" lon="19.129771729358907" id="-101857">
		<tag k="name" v="Måsbergvik" />
		<tag k="place" v="farm" />
		<tag k="ssr:stedsnr" v="1073776" />
	</node>
	<node lat="69.36538682562862" lon="18.770290910291614" id="-101862">
		<tag k="fixme" v="consider place=hamlet" />
		<tag k="name" v="Sætermoen" />
		<tag k="place" v="farm" />
		<tag k="ssr:stedsnr" v="1074660" />
	</node>
	<node lat="69.65483861708206" lon="18.954055597917613" id="-101863">
		<tag k="amenity" v="school" />
		<tag k="name" v="Ishavsbyen videregående skole" />
		<tag k="ssr:stedsnr" v="1075695" />
	</node>
	<node lat="69.42656349455187" lon="18.954957572147208" id="-101864">
		<tag k="fixme" v="consider place=hamlet" />
		<tag k="name" v="Ytre Middagsbukt" />
		<tag k="place" v="farm" />
		<tag k="ssr:stedsnr" v="1077903" />
	</node>
	<node lat="69.49382516834706" lon="19.00146761729503" id="-101866">
		<tag k="name" v="Bergstad" />
		<tag k="place" v="locality" />
		<tag k="ssr:stedsnr" v="1077905" />
	</node>
	<node lat="69.33311845422213" lon="18.892911881908674" id="-101867">
		<tag k="fixme" v="consider place=hamlet" />
		<tag k="name" v="Storsteinnes" />
		<tag k="place" v="farm" />
		<tag k="ssr:stedsnr" v="1077906" />
	</node>
	<node lat="69.35984122672474" lon="19.36537359900875" id="-101868">
		<tag k="fixme" v="consider place=hamlet" />
		<tag k="name" v="Indre Laksvatn" />
		<tag k="place" v="farm" />
		<tag k="ssr:stedsnr" v="1077894" />
	</node>
	<node lat="69.2126314963207" lon="19.551772184648108" id="-101869">
		<tag k="fixme" v="consider place=hamlet" />
		<tag k="name" v="Nordkjosbotn" />
		<tag k="place" v="farm" />
		<tag k="ssr:stedsnr" v="1077895" />
	</node>
	<node lat="69.231599637709" lon="19.37355126457377" id="-101870">
		<tag k="fixme" v="consider place=hamlet" />
		<tag k="name" v="Loddbukta" />
		<tag k="old_name" v="Lodbugt" />
		<tag k="place" v="farm" />
		<tag k="ssr:stedsnr" v="1077900" />
	</node>
	<node lat="69.38814598088246" lon="18.987829413736772" id="-101871">
		<tag k="fixme" v="consider place=hamlet" />
		<tag k="name" v="Malangseidet" />
		<tag k="place" v="farm" />
		<tag k="ssr:stedsnr" v="1077902" />
	</node>
	<node lat="69.41325873445405" lon="18.675432422858517" id="-101872">
		<tag k="name" v="Einan" />
		<tag k="place" v="farm" />
		<tag k="ssr:stedsnr" v="1078784" />
	</node>
	<node lat="69.4106862931118" lon="18.664477223818878" id="-101873">
		<tag k="name" v="Nyheim" />
		<tag k="place" v="farm" />
		<tag k="ssr:stedsnr" v="1078786" />
	</node>
	<node lat="69.27615780641011" lon="19.08178750994622" id="-101874">
		<tag k="name" v="Bekkevoll" />
		<tag k="place" v="farm" />
		<tag k="ssr:stedsnr" v="1078400" />
	</node>
	<node lat="69.33258514997944" lon="18.819294111895548" id="-101875">
		<tag k="name" v="Nordbyneset" />
		<tag k="old_name" v="Nordbynæs" />
		<tag k="place" v="farm" />
		<tag k="ssr:stedsnr" v="1079857" />
	</node>
	<node lat="69.33807302115092" lon="18.81677416149573" id="-101876">
		<tag k="name" v="Bjørkeng" />
		<tag k="place" v="farm" />
		<tag k="ssr:stedsnr" v="1079858" />
	</node>
	<node lat="69.33300269969114" lon="18.819308810093233" id="-101877">
		<tag k="name" v="Frogner" />
		<tag k="place" v="farm" />
		<tag k="ssr:stedsnr" v="1079860" />
	</node>
	<node lat="69.0753897381134" lon="19.269287965782205" id="-101878">
		<tag k="fixme" v="consider tourism=alpine_hut or tourism=chalet" />
		<tag k="name" v="Langvasshytta" />
		<tag k="ssr:stedsnr" v="1080450" />
		<tag k="tourism" v="wilderness_hut" />
	</node>
	<node lat="69.21602508987563" lon="19.10900528140443" id="-101879">
		<tag k="name" v="Løvland" />
		<tag k="place" v="farm" />
		<tag k="ssr:stedsnr" v="1081079" />
	</node>
	<node lat="69.34315106161041" lon="18.84196718062571" id="-101884">
		<tag k="name" v="Seterbakken" />
		<tag k="old_name" v="Mauritius" />
		<tag k="place" v="farm" />
		<tag k="ssr:stedsnr" v="1083405" />
	</node>
</osm>
