<?xml version="1.0" encoding="UTF-8"?>
<osm version="0.6" generator="osmapis">
	<node lat="69.32777777400597" lon="18.786888891528964" id="-45430">
		<tag k="fixme" v="consider seamark:type=rock or natural=shoal" />
		<tag k="name" v="Hamnvågskjæret" />
		<tag k="place" v="islet" />
		<tag k="ssr:stedsnr" v="231915" />
	</node>
	<node lat="69.38935278089964" lon="18.996402766637114" id="-45447">
		<tag k="name" v="Neset" />
		<tag k="natural" v="cape" />
		<tag k="ssr:stedsnr" v="232262" />
	</node>
	<node lat="69.29788333167257" lon="18.924783329276917" id="-45457">
		<tag k="name" v="Langleira" />
		<tag k="natural" v="bay" />
		<tag k="ssr:stedsnr" v="232391" />
	</node>
	<node lat="69.23443055673798" lon="19.38262221348207" id="-45512">
		<tag k="name" v="Loddbuktneset" />
		<tag k="natural" v="cape" />
		<tag k="ssr:stedsnr" v="49682" />
	</node>
	<node lat="69.30948333750197" lon="19.351952776129977" id="-45541">
		<tag k="alt_name" v="Storskjer" />
		<tag k="fixme" v="consider seamark:type=rock or natural=shoal" />
		<tag k="name" v="Storskjæret" />
		<tag k="place" v="islet" />
		<tag k="ssr:stedsnr" v="79145" />
	</node>
	<node lat="69.4731361079448" lon="18.450611103884622" id="-45551">
		<tag k="name" v="Forøya" />
		<tag k="place" v="island" />
		<tag k="ssr:stedsnr" v="79606" />
	</node>
	<node lat="69.46494721769108" lon="18.465591666259616" id="-45552">
		<tag k="name" v="Fevika" />
		<tag k="natural" v="bay" />
		<tag k="ssr:stedsnr" v="79599" />
	</node>
	<node lat="69.29165833127782" lon="19.325602763948023" id="-45582">
		<tag k="name" v="Leirdammen" />
		<tag k="natural" v="bay" />
		<tag k="ssr:stedsnr" v="110584" />
	</node>
	<node lat="69.41671388843609" lon="18.996738878685527" id="-45609">
		<tag k="name" v="Resaneset" />
		<tag k="natural" v="cape" />
		<tag k="ssr:stedsnr" v="111624" />
	</node>
	<node lat="69.29662499705046" lon="18.948713890460475" id="-45629">
		<tag k="name" v="Aspeneset" />
		<tag k="natural" v="cape" />
		<tag k="ssr:stedsnr" v="139097" />
	</node>
	<node lat="69.29029722676009" lon="18.98321109661235" id="-45630">
		<tag k="name" v="Hjertøya" />
		<tag k="place" v="island" />
		<tag k="ssr:stedsnr" v="139098" />
	</node>
	<node lat="69.2922472207183" lon="18.96849720840359" id="-45631">
		<tag k="alt_name" v="Nordfjordbotnen" />
		<tag k="name" v="Nordfjordbotn" />
		<tag k="natural" v="bay" />
		<tag k="ssr:stedsnr" v="139099" />
	</node>
	<node lat="69.25104999881277" lon="19.409416648994092" id="-45646">
		<tag k="name" v="Kviteberggrunnen" />
		<tag k="natural" v="shoal" />
		<tag k="place" v="locality" />
		<tag k="ssr:stedsnr" v="146937" />
	</node>
	<node lat="69.2358138920349" lon="19.237269435299172" id="-45655">
		<tag k="name" v="Sagelvneset" />
		<tag k="natural" v="cape" />
		<tag k="ssr:stedsnr" v="170008" />
	</node>
	<node lat="69.2207333355569" lon="19.46824997866511" id="-45665">
		<tag k="name" v="Russenesbukta" />
		<tag k="natural" v="bay" />
		<tag k="ssr:stedsnr" v="170465" />
	</node>
	<node lat="69.43669444589287" lon="18.51781111861888" id="-45674">
		<tag k="name" v="Sletteneset" />
		<tag k="natural" v="cape" />
		<tag k="ssr:stedsnr" v="171262" />
	</node>
	<node lat="69.28050277988689" lon="18.714024982697012" id="-45697">
		<tag k="name" v="Steinneset" />
		<tag k="natural" v="cape" />
		<tag k="ssr:stedsnr" v="171772" />
	</node>
	<node lat="69.31854999610066" lon="18.93551943856027" id="-45699">
		<tag k="name" v="Øyneset" />
		<tag k="natural" v="cape" />
		<tag k="ssr:stedsnr" v="261117" />
	</node>
	<node lat="69.2221972214533" lon="19.484652778026746" id="-45722">
		<tag k="name" v="Russeneset" />
		<tag k="natural" v="cape" />
		<tag k="ssr:stedsnr" v="261143" />
	</node>
	<node lat="69.28452778017973" lon="19.302177759280884" id="-45739">
		<tag k="alt_name" v="Eilertskjeran" />
		<tag k="fixme" v="consider seamark:type=rock or natural=shoal" />
		<tag k="name" v="Eilertskjæret" />
		<tag k="place" v="islet" />
		<tag k="ssr:stedsnr" v="261372" />
	</node>
	<node lat="69.37481666979205" lon="19.11864722303758" id="-45757">
		<tag k="alt_name:no" v="Svartnes" />
		<tag k="loc_name:se" v="Spearronjárga" />
		<tag k="name" v="Svartneset" />
		<tag k="name:no" v="Svartneset" />
		<tag k="natural" v="cape" />
		<tag k="ssr:stedsnr" v="261956" />
	</node>
	<node lat="69.22548333412938" lon="19.279811096609652" id="-45775">
		<tag k="name" v="Sørkjosleira" />
		<tag k="natural" v="bay" />
		<tag k="ssr:stedsnr" v="200118" />
	</node>
	<node lat="69.41796111624053" lon="19.064172206707823" id="-45784">
		<tag k="alt_name" v="Skilnes;Skjelnes" />
		<tag k="name" v="Skjellneset" />
		<tag k="natural" v="cape" />
		<tag k="ssr:stedsnr" v="200902" />
	</node>
	<node lat="69.45590278057162" lon="18.454274989439178" id="-45792">
		<tag k="name" v="Lakseneset" />
		<tag k="natural" v="cape" />
		<tag k="ssr:stedsnr" v="267585" />
	</node>
	<node lat="69.34468611364693" lon="19.29354444801831" id="-45811">
		<tag k="name" v="Sandneset" />
		<tag k="natural" v="cape" />
		<tag k="ssr:stedsnr" v="231630" />
	</node>
	<node lat="69.27731388642226" lon="19.290766666677296" id="-45812">
		<tag k="fixme" v="consider seamark:type=rock or natural=shoal" />
		<tag k="name" v="Mellaskjæret" />
		<tag k="place" v="islet" />
		<tag k="ssr:stedsnr" v="231636" />
	</node>
	<node lat="69.46748055886225" lon="18.458516657697178" id="-45816">
		<tag k="name" v="Forøysundet" />
		<tag k="natural" v="strait" />
		<tag k="ssr:stedsnr" v="231387" />
	</node>
	<node lat="69.22593888727054" lon="19.307438885903334" id="-45828">
		<tag k="name" v="Henrikneset" />
		<tag k="natural" v="cape" />
		<tag k="ssr:stedsnr" v="231811" />
	</node>
	<node lat="69.40437500296817" lon="18.59484443137497" id="-45834">
		<tag k="name" v="Labukta" />
		<tag k="natural" v="bay" />
		<tag k="ssr:stedsnr" v="232202" />
	</node>
	<node lat="69.36885277735294" lon="18.634377768613152" id="-45836">
		<tag k="name" v="Hundberghola" />
		<tag k="natural" v="bay" />
		<tag k="ssr:stedsnr" v="232210" />
	</node>
	<node lat="69.33103611410506" lon="18.864252782888215" id="-45837">
		<tag k="name" v="Brendvika" />
		<tag k="natural" v="bay" />
		<tag k="ssr:stedsnr" v="232503" />
	</node>
	<node lat="69.29592222262917" lon="18.9515194283207" id="-45840">
		<tag k="name" v="Blåsteinbukta" />
		<tag k="natural" v="bay" />
		<tag k="ssr:stedsnr" v="232623" />
	</node>
	<node lat="69.45736944774762" lon="18.978538878270644" id="-45871">
		<tag k="name" v="Labuktleira" />
		<tag k="natural" v="bay" />
		<tag k="ssr:stedsnr" v="280711" />
	</node>
	<node lat="69.30079166522717" lon="18.9700388895713" id="-45924">
		<tag k="name" v="Skjåvikøyra" />
		<tag k="natural" v="cape" />
		<tag k="ssr:stedsnr" v="321082" />
	</node>
	<node lat="69.4872194464051" lon="18.477341657002523" id="-45953">
		<tag k="name" v="Gjerdneset" />
		<tag k="natural" v="cape" />
		<tag k="ssr:stedsnr" v="473390" />
	</node>
	<node lat="69.31277222009489" lon="19.343152768152486" id="-45958">
		<tag k="name" v="Mellavika" />
		<tag k="natural" v="bay" />
		<tag k="ssr:stedsnr" v="473639" />
	</node>
	<node lat="69.21628333423297" lon="19.507208314070628" id="-45994">
		<tag k="name" v="Kriken" />
		<tag k="natural" v="bay" />
		<tag k="ssr:stedsnr" v="352503" />
	</node>
	<node lat="69.49760555472453" lon="18.456455545517873" id="-46003">
		<tag k="name" v="Litjeneset" />
		<tag k="natural" v="cape" />
		<tag k="ssr:stedsnr" v="474329" />
	</node>
	<node lat="69.46650833131129" lon="18.467502761457034" id="-46012">
		<tag k="name" v="Porsvika" />
		<tag k="natural" v="bay" />
		<tag k="ssr:stedsnr" v="474345" />
	</node>
	<node lat="69.49613888450784" lon="18.458627774683666" id="-46025">
		<tag k="name" v="Sandhola" />
		<tag k="natural" v="bay" />
		<tag k="ssr:stedsnr" v="353354" />
	</node>
	<node lat="69.32275833211568" lon="18.905766664537072" id="-46030">
		<tag k="name" v="Finnstraumen" />
		<tag k="natural" v="strait" />
		<tag k="ssr:stedsnr" v="353402" />
	</node>
	<node lat="69.28162777540368" lon="19.28875276429737" id="-46045">
		<tag k="name" v="Reingjerdblodkjosen" />
		<tag k="natural" v="bay" />
		<tag k="ssr:stedsnr" v="474574" />
	</node>
	<node lat="69.26781110762322" lon="19.28062775716322" id="-46053">
		<tag k="name" v="Einholmen" />
		<tag k="place" v="islet" />
		<tag k="ssr:stedsnr" v="474650" />
	</node>
	<node lat="69.29775833509366" lon="18.94584443009959" id="-46077">
		<tag k="name" v="Jenshola" />
		<tag k="natural" v="bay" />
		<tag k="ssr:stedsnr" v="475586" />
	</node>
	<node lat="69.27769444872878" lon="19.29385276309318" id="-46106">
		<tag k="fixme" v="consider seamark:type=rock or natural=shoal" />
		<tag k="name" v="Ytterskjæret" />
		<tag k="old_name" v="Storholmen" />
		<tag k="place" v="islet" />
		<tag k="ssr:stedsnr" v="382318" />
	</node>
	<node lat="69.36896666313285" lon="19.355374991179755" id="-46126">
		<tag k="name" v="Buktalandet" />
		<tag k="natural" v="beach" />
		<tag k="ssr:stedsnr" v="413444" />
	</node>
	<node lat="69.22746944155463" lon="19.489711093573966" id="-46128">
		<tag k="loc_name:se" v="Suohpannjárga" />
		<tag k="name" v="Havnnesodden" />
		<tag k="name:no" v="Havnnesodden" />
		<tag k="natural" v="cape" />
		<tag k="ssr:stedsnr" v="413486" />
	</node>
	<node lat="69.32776388780461" lon="18.902566660777737" id="-46149">
		<tag k="fixme" v="consider seamark:type=rock or natural=shoal" />
		<tag k="name" v="Svartskjæret" />
		<tag k="place" v="islet" />
		<tag k="ssr:stedsnr" v="414400" />
	</node>
	<node lat="69.31299166841967" lon="18.95251943991962" id="-46156">
		<tag k="name" v="Aspevika" />
		<tag k="natural" v="bay" />
		<tag k="ssr:stedsnr" v="414592" />
	</node>
	<node lat="69.42448888827697" lon="18.472297223310726" id="-46179">
		<tag k="name" v="Sauberget" />
		<tag k="natural" v="cape" />
		<tag k="ssr:stedsnr" v="443639" />
	</node>
	<node lat="69.4409111063845" lon="18.960430557351714" id="-46183">
		<tag k="name" v="Pålgrunnen" />
		<tag k="natural" v="shoal" />
		<tag k="place" v="locality" />
		<tag k="ssr:stedsnr" v="450983" />
	</node>
	<node lat="69.34046111535248" lon="19.388155546200093" id="-46185">
		<tag k="name" v="Tomasjordneset" />
		<tag k="natural" v="cape" />
		<tag k="ssr:stedsnr" v="461577" />
	</node>
	<node lat="69.33620833808594" lon="18.828463880451793" id="-46247">
		<tag k="name" v="Nordbybukta" />
		<tag k="natural" v="bay" />
		<tag k="ssr:stedsnr" v="504976" />
	</node>
	<node lat="69.26721110918268" lon="19.30072777077989" id="-46284">
		<tag k="name" v="Storholmen" />
		<tag k="place" v="islet" />
		<tag k="ssr:stedsnr" v="686076" />
	</node>
	<node lat="69.37209722095831" lon="19.353430540211605" id="-46299">
		<tag k="loc_name:se" v="Muotkeluokta" />
		<tag k="name" v="Laksvatnbukta" />
		<tag k="name:no" v="Laksvatnbukta" />
		<tag k="natural" v="bay" />
		<tag k="ssr:stedsnr" v="686186" />
	</node>
	<node lat="69.26689722430966" lon="19.276294430704276" id="-46308">
		<tag k="name" v="Landholmen" />
		<tag k="place" v="islet" />
		<tag k="ssr:stedsnr" v="686323" />
	</node>
	<node lat="69.21846944213262" lon="19.49662498745302" id="-46320">
		<tag k="name" v="Melbukta" />
		<tag k="natural" v="bay" />
		<tag k="ssr:stedsnr" v="534444" />
	</node>
	<node lat="69.38360556030074" lon="18.603502765703688" id="-46339">
		<tag k="name" v="Hesjevikneset" />
		<tag k="natural" v="cape" />
		<tag k="ssr:stedsnr" v="535202" />
	</node>
	<node lat="69.46563333553259" lon="18.46599721914629" id="-46343">
		<tag k="name" v="Klubben" />
		<tag k="natural" v="cape" />
		<tag k="ssr:stedsnr" v="535367" />
	</node>
	<node lat="69.35612222169674" lon="18.692141669718417" id="-46357">
		<tag k="name" v="Skutvikneset" />
		<tag k="natural" v="cape" />
		<tag k="ssr:stedsnr" v="535773" />
	</node>
	<node lat="69.34516666292565" lon="18.756741668692676" id="-46368">
		<tag k="name" v="Kjærvika" />
		<tag k="natural" v="bay" />
		<tag k="ssr:stedsnr" v="536976" />
	</node>
	<node lat="69.44136944175841" lon="18.451811103369646" id="-46370">
		<tag k="name" v="Spilderneset" />
		<tag k="natural" v="cape" />
		<tag k="ssr:stedsnr" v="686663" />
	</node>
	<node lat="69.45928055773048" lon="18.461711106601136" id="-46372">
		<tag k="name" v="Slåttvika" />
		<tag k="natural" v="bay" />
		<tag k="ssr:stedsnr" v="686683" />
	</node>
	<node lat="69.42387222528876" lon="18.48051111045013" id="-46374">
		<tag k="name" v="Spilderøya" />
		<tag k="place" v="island" />
		<tag k="ssr:stedsnr" v="686711" />
	</node>
	<node lat="69.40033888870865" lon="19.068022220412097" id="-46381">
		<tag k="alt_name" v="Einkunes;Enkua" />
		<tag k="name" v="Engkunes" />
		<tag k="natural" v="cape" />
		<tag k="ssr:stedsnr" v="686918" />
	</node>
	<node lat="69.43720555439842" lon="18.94071944813655" id="-46408">
		<tag k="name" v="Hestnesbukta" />
		<tag k="natural" v="bay" />
		<tag k="ssr:stedsnr" v="582806" />
	</node>
	<node lat="69.37292499641539" lon="19.36705554384613" id="-46425">
		<tag k="name" v="Imaluokta" />
		<tag k="name:se" v="Imaluokta" />
		<tag k="natural" v="bay" />
		<tag k="ssr:stedsnr" v="595403" />
	</node>
	<node lat="69.32331944299817" lon="19.336352768330663" id="-46433">
		<tag k="name" v="Troklubben" />
		<tag k="natural" v="cape" />
		<tag k="ssr:stedsnr" v="595499" />
	</node>
	<node lat="69.320808331314" lon="18.939872222724713" id="-46442">
		<tag k="name" v="Straumen" />
		<tag k="natural" v="strait" />
		<tag k="ssr:stedsnr" v="596259" />
	</node>
	<node lat="69.3228555568251" lon="18.881866661715794" id="-46452">
		<tag k="name" v="Skjærbakken" />
		<tag k="natural" v="cape" />
		<tag k="ssr:stedsnr" v="596954" />
	</node>
	<node lat="69.24178333325251" lon="19.294824979986377" id="-46455">
		<tag k="bay" v="fjord" />
		<tag k="name" v="Balsfjorden - Báhccavuotna" />
		<tag k="name:no" v="Balsfjorden" />
		<tag k="name:se" v="Báhccavuotna" />
		<tag k="natural" v="bay" />
		<tag k="ssr:stedsnr" v="625156" />
	</node>
	<node lat="69.33077222006979" lon="19.402766661204492" id="-46471">
		<tag k="loc_name:se" v="Ávčanjárga" />
		<tag k="name" v="Heggenes" />
		<tag k="name:no" v="Heggenes" />
		<tag k="natural" v="cape" />
		<tag k="ssr:stedsnr" v="704516" />
	</node>
	<node lat="69.2335888905864" lon="19.389736095094754" id="-46486">
		<tag k="name" v="Kalvebukta" />
		<tag k="natural" v="bay" />
		<tag k="ssr:stedsnr" v="643192" />
	</node>
	<node lat="69.25265833704908" lon="19.24488332071964" id="-46500">
		<tag k="name" v="Skjåneset" />
		<tag k="natural" v="cape" />
		<tag k="ssr:stedsnr" v="656002" />
	</node>
	<node lat="69.31295277908136" lon="18.877049996162285" id="-46519">
		<tag k="name" v="Lauvstranda" />
		<tag k="natural" v="beach" />
		<tag k="ssr:stedsnr" v="656531" />
	</node>
	<node lat="69.30638332909346" lon="18.86962777133618" id="-46521">
		<tag k="name" v="Stålvikbotnneset" />
		<tag k="natural" v="cape" />
		<tag k="ssr:stedsnr" v="656536" />
	</node>
	<node lat="69.32190833563843" lon="18.731966659705485" id="-46525">
		<tag k="name" v="Finnvika" />
		<tag k="natural" v="bay" />
		<tag k="ssr:stedsnr" v="656809" />
	</node>
	<node lat="69.30939166804681" lon="18.87417778117035" id="-46545">
		<tag k="name" v="Stålvikbotn" />
		<tag k="natural" v="bay" />
		<tag k="ssr:stedsnr" v="686094" />
	</node>
	<node lat="69.28991111569003" lon="18.953077764952912" id="-46621">
		<tag k="name" v="Lakseidneset" />
		<tag k="natural" v="cape" />
		<tag k="ssr:stedsnr" v="899350" />
	</node>
	<node lat="69.21784722236498" lon="19.52200555619518" id="-46632">
		<tag k="name" v="Nordkjosbotn" />
		<tag k="natural" v="bay" />
		<tag k="ssr:stedsnr" v="899465" />
	</node>
	<node lat="69.34374722070052" lon="19.297683321741317" id="-46637">
		<tag k="name" v="Kvalvika" />
		<tag k="natural" v="bay" />
		<tag k="ssr:stedsnr" v="899526" />
	</node>
	<node lat="69.23537222010614" lon="19.334466646696963" id="-46639">
		<tag k="name" v="Litjesandbukta" />
		<tag k="natural" v="bay" />
		<tag k="ssr:stedsnr" v="899633" />
	</node>
	<node lat="69.32848888469938" lon="18.865036115710232" id="-46656">
		<tag k="name" v="Brendviksundet" />
		<tag k="natural" v="strait" />
		<tag k="ssr:stedsnr" v="900575" />
	</node>
	<node lat="69.31351111328587" lon="18.88384721174652" id="-46672">
		<tag k="name" v="Laukvikstranda" />
		<tag k="natural" v="beach" />
		<tag k="ssr:stedsnr" v="900440" />
	</node>
	<node lat="69.31066666394007" lon="18.870575002991444" id="-46676">
		<tag k="name" v="Tømmervika" />
		<tag k="natural" v="bay" />
		<tag k="ssr:stedsnr" v="900530" />
	</node>
	<node lat="69.31477500204215" lon="18.951688896136773" id="-46691">
		<tag k="alt_name" v="Henriksnes" />
		<tag k="name" v="Henriksneset" />
		<tag k="natural" v="cape" />
		<tag k="ssr:stedsnr" v="746110" />
	</node>
	<node lat="69.43471666235574" lon="18.95003610632401" id="-46702">
		<tag k="name" v="Henriknes" />
		<tag k="natural" v="cape" />
		<tag k="ssr:stedsnr" v="746866" />
	</node>
	<node lat="69.31225833082361" lon="18.874655539301003" id="-46753">
		<tag k="name" v="Råttvika" />
		<tag k="natural" v="bay" />
		<tag k="ssr:stedsnr" v="778509" />
	</node>
	<node lat="69.35299166986125" lon="19.369911095833277" id="-46761">
		<tag k="name" v="Dauka" />
		<tag k="natural" v="bay" />
		<tag k="ssr:stedsnr" v="826620" />
	</node>
	<node lat="69.43944722685019" lon="19.03050832000881" id="-46787">
		<tag k="name" v="Trollbukta" />
		<tag k="natural" v="bay" />
		<tag k="ssr:stedsnr" v="838792" />
	</node>
	<node lat="69.32281110855067" lon="18.899694439950032" id="-46797">
		<tag k="name" v="Lastraumen" />
		<tag k="natural" v="strait" />
		<tag k="ssr:stedsnr" v="839407" />
	</node>
	<node lat="69.30190556035417" lon="18.97408609689836" id="-46816">
		<tag k="name" v="Vika" />
		<tag k="natural" v="bay" />
		<tag k="ssr:stedsnr" v="839681" />
	</node>
	<node lat="69.32502222415607" lon="18.865402763168337" id="-46821">
		<tag k="name" v="Kobbeneskjosen" />
		<tag k="natural" v="bay" />
		<tag k="ssr:stedsnr" v="839938" />
	</node>
	<node lat="69.49519721783301" lon="18.461169440908844" id="-46838">
		<tag k="name" v="Laneset" />
		<tag k="natural" v="cape" />
		<tag k="ssr:stedsnr" v="928615" />
	</node>
	<node lat="69.28007500329934" lon="19.292297211967693" id="-46872">
		<tag k="name" v="Larsneset" />
		<tag k="natural" v="cape" />
		<tag k="ssr:stedsnr" v="929292" />
	</node>
	<node lat="69.41708610949948" lon="18.427299988675863" id="-46875">
		<tag k="bay" v="fjord" />
		<tag k="loc_name:se" v="Málatvuotna" />
		<tag k="name" v="Malangen" />
		<tag k="name:no" v="Malangen" />
		<tag k="natural" v="bay" />
		<tag k="ssr:stedsnr" v="929638" />
	</node>
	<node lat="69.45973333162493" lon="18.96886388307902" id="-46884">
		<tag k="name" v="Stornesodden" />
		<tag k="natural" v="cape" />
		<tag k="ssr:stedsnr" v="929894" />
	</node>
	<node lat="69.34614444124159" lon="18.7414999958539" id="-46886">
		<tag k="alt_name" v="Kjerringvikneset" />
		<tag k="name" v="Kjærvikneset" />
		<tag k="natural" v="cape" />
		<tag k="ssr:stedsnr" v="929982" />
	</node>
	<node lat="69.32201944511336" lon="18.895580556101134" id="-46897">
		<tag k="alt_name" v="Lanes" />
		<tag k="name" v="Laneset" />
		<tag k="natural" v="cape" />
		<tag k="ssr:stedsnr" v="868104" />
	</node>
	<node lat="69.44740555386751" lon="18.91476665639075" id="-46916">
		<tag k="name" v="Langstranda" />
		<tag k="natural" v="beach" />
		<tag k="ssr:stedsnr" v="868877" />
	</node>
	<node lat="69.42732221770946" lon="18.97705000302937" id="-46922">
		<tag k="name" v="Kvalbukta" />
		<tag k="natural" v="bay" />
		<tag k="ssr:stedsnr" v="886803" />
	</node>
	<node lat="69.38470555465415" lon="18.601469433669727" id="-46939">
		<tag k="name" v="Hesjevika" />
		<tag k="natural" v="bay" />
		<tag k="ssr:stedsnr" v="899203" />
	</node>
	<node lat="69.33458610781852" lon="19.32126388312254" id="-46950">
		<tag k="name" v="Skjevelnesodden" />
		<tag k="natural" v="cape" />
		<tag k="ssr:stedsnr" v="899520" />
	</node>
	<node lat="69.32695000040904" lon="19.405538878635404" id="-46952">
		<tag k="loc_name:se" v="Sáttunjárga" />
		<tag k="name" v="Sandnes" />
		<tag k="name:no" v="Sandnes" />
		<tag k="natural" v="cape" />
		<tag k="ssr:stedsnr" v="899603" />
	</node>
	<node lat="69.32117221990828" lon="18.832247213283644" id="-46977">
		<tag k="name" v="Kjosen" />
		<tag k="natural" v="bay" />
		<tag k="ssr:stedsnr" v="929113" />
	</node>
	<node lat="69.32756111297003" lon="18.76090554397967" id="-46990">
		<tag k="name" v="Korsvika" />
		<tag k="natural" v="bay" />
		<tag k="ssr:stedsnr" v="931198" />
	</node>
	<node lat="69.32056110746787" lon="19.41514444284778" id="-46996">
		<tag k="name" v="Melbukta" />
		<tag k="natural" v="bay" />
		<tag k="ssr:stedsnr" v="947583" />
	</node>
	<node lat="69.23530833101474" lon="19.37034443501107" id="-47004">
		<tag k="name" v="Kobbeskjærneset" />
		<tag k="natural" v="cape" />
		<tag k="ssr:stedsnr" v="959619" />
	</node>
	<node lat="69.31365833031128" lon="18.889897224258196" id="-47027">
		<tag k="name" v="Litjevika" />
		<tag k="natural" v="bay" />
		<tag k="ssr:stedsnr" v="960440" />
	</node>
	<node lat="69.40615277764499" lon="18.991986116091066" id="-47036">
		<tag k="name" v="Slettneset" />
		<tag k="natural" v="cape" />
		<tag k="ssr:stedsnr" v="960638" />
	</node>
	<node lat="69.32373333816034" lon="18.83178610043078" id="-47038">
		<tag k="name" v="Vikran" />
		<tag k="natural" v="bay" />
		<tag k="ssr:stedsnr" v="960935" />
	</node>
	<node lat="69.33749167072527" lon="18.792930540745463" id="-47040">
		<tag k="name" v="Litjevika" />
		<tag k="natural" v="bay" />
		<tag k="ssr:stedsnr" v="960887" />
	</node>
	<node lat="69.29885277777116" lon="18.91478332879497" id="-47053">
		<tag k="name" v="Aspenes" />
		<tag k="natural" v="cape" />
		<tag k="ssr:stedsnr" v="18097" />
	</node>
	<node lat="69.4462194439676" lon="18.453263893242763" id="-47071">
		<tag k="alt_name" v="Kveldvika" />
		<tag k="name" v="Kveldsvika" />
		<tag k="natural" v="bay" />
		<tag k="ssr:stedsnr" v="18618" />
	</node>
	<node lat="69.33486666266619" lon="18.776472224706726" id="-47089">
		<tag k="bay" v="fjord" />
		<tag k="loc_name:se" v="Nuortavuotna" />
		<tag k="name" v="Nordfjorden" />
		<tag k="name:no" v="Nordfjorden" />
		<tag k="natural" v="bay" />
		<tag k="ssr:stedsnr" v="18975" />
	</node>
	<node lat="69.43967500391706" lon="18.490352781680254" id="-47108">
		<tag k="name" v="Spilderbukta" />
		<tag k="natural" v="bay" />
		<tag k="ssr:stedsnr" v="19651" />
	</node>
	<node lat="69.51037777880568" lon="18.44680278332108" id="-47115">
		<tag k="alt_name" v="Gamnes;Gammneset" />
		<tag k="name" v="Gamneset" />
		<tag k="natural" v="cape" />
		<tag k="ssr:stedsnr" v="19999" />
	</node>
	<node lat="69.23816111341179" lon="19.428236092349575" id="-47119">
		<tag k="loc_name:se" v="Gárgán" />
		<tag k="name" v="Nordkjosen" />
		<tag k="name:no" v="Nordkjosen" />
		<tag k="natural" v="bay" />
		<tag k="ssr:stedsnr" v="25953" />
	</node>
	<node lat="69.4403861152578" lon="18.470097211411307" id="-47147">
		<tag k="name" v="Spildra" />
		<tag k="natural" v="cape" />
		<tag k="ssr:stedsnr" v="49419" />
	</node>
	<node lat="69.21375277420604" lon="19.525919443840888" id="-47177">
		<tag k="name" v="Vianeset" />
		<tag k="natural" v="cape" />
		<tag k="ssr:stedsnr" v="50248" />
	</node>
	<node lat="69.214855555654" lon="19.537463874734755" id="-47178">
		<tag k="name" v="Halvorneset" />
		<tag k="natural" v="cape" />
		<tag k="ssr:stedsnr" v="50252" />
	</node>
	<node lat="69.29351667156085" lon="18.94606665304556" id="-47179">
		<tag k="name" v="Storbakkneset" />
		<tag k="natural" v="cape" />
		<tag k="ssr:stedsnr" v="50340" />
	</node>
	<node lat="69.31543055601385" lon="18.893330548191162" id="-47183">
		<tag k="name" v="Vika" />
		<tag k="natural" v="bay" />
		<tag k="ssr:stedsnr" v="50389" />
	</node>
	<node lat="69.32232778014469" lon="18.89166665937516" id="-47184">
		<tag k="name" v="Neset" />
		<tag k="natural" v="cape" />
		<tag k="ssr:stedsnr" v="50392" />
	</node>
	<node lat="69.32161111277426" lon="18.7215722201923" id="-47199">
		<tag k="name" v="Storsteinvika" />
		<tag k="natural" v="bay" />
		<tag k="ssr:stedsnr" v="50728" />
	</node>
	<node lat="69.49939166796713" lon="18.442366671237767" id="-47244">
		<tag k="alt_name" v="Ansnes, s" />
		<tag k="fixme" v="multiple name tags, choose one and add the other to alt_name" />
		<tag k="name" v="Ansneset;Søre Ansnes" />
		<tag k="natural" v="cape" />
		<tag k="ssr:stedsnr" v="79622" />
	</node>
	<node lat="69.31500833760317" lon="18.665166667381307" id="-47263">
		<tag k="name" v="Aursvika" />
		<tag k="natural" v="bay" />
		<tag k="ssr:stedsnr" v="79987" />
	</node>
	<node lat="69.29874444201002" lon="19.41123887161302" id="-47287">
		<tag k="name" v="Sandnesodden" />
		<tag k="natural" v="cape" />
		<tag k="ssr:stedsnr" v="98621" />
	</node>
	<node lat="69.45319444213203" lon="18.98048888680563" id="-47289">
		<tag k="name" v="Labuktholmen" />
		<tag k="place" v="islet" />
		<tag k="ssr:stedsnr" v="98720" />
	</node>
	<node lat="69.45201111524392" lon="18.986858318161293" id="-47291">
		<tag k="name" v="Båtneset" />
		<tag k="natural" v="cape" />
		<tag k="ssr:stedsnr" v="98701" />
	</node>
	<node lat="69.4966305550535" lon="18.996361111393014" id="-47296">
		<tag k="name" v="Storsteinlandet" />
		<tag k="natural" v="beach" />
		<tag k="ssr:stedsnr" v="110726" />
	</node>
	<node lat="69.40986666726918" lon="19.06469442517521" id="-47299">
		<tag k="loc_name:se" v="Dimbbarnjárga" />
		<tag k="name" v="Tømmerneset" />
		<tag k="name:no" v="Tømmerneset" />
		<tag k="natural" v="cape" />
		<tag k="ssr:stedsnr" v="110741" />
	</node>
	<node lat="69.3826055594127" lon="18.606005545387784" id="-47311">
		<tag k="name" v="Ytterneset" />
		<tag k="natural" v="cape" />
		<tag k="ssr:stedsnr" v="110182" />
	</node>
	<node lat="69.27612499708995" lon="19.29030277679481" id="-47327">
		<tag k="fixme" v="consider seamark:type=rock or natural=shoal" />
		<tag k="name" v="Innerskjæret" />
		<tag k="place" v="islet" />
		<tag k="ssr:stedsnr" v="110656" />
	</node>
	<node lat="69.39185000317686" lon="19.0743860949992" id="-47335">
		<tag k="name" v="Hestnesbukta" />
		<tag k="natural" v="bay" />
		<tag k="ssr:stedsnr" v="110890" />
	</node>
	<node lat="69.30589722199505" lon="18.87672778190318" id="-47340">
		<tag k="fixme" v="consider seamark:type=rock or natural=shoal" />
		<tag k="name" v="Skjæret" />
		<tag k="place" v="islet" />
		<tag k="ssr:stedsnr" v="111498" />
	</node>
	<node lat="69.29057222399692" lon="18.945255553669337" id="-47348">
		<tag k="name" v="Mellaneset" />
		<tag k="natural" v="cape" />
		<tag k="ssr:stedsnr" v="111348" />
	</node>
	<node lat="69.34312500090404" lon="18.769586105593486" id="-47355">
		<tag k="name" v="Langstranda" />
		<tag k="natural" v="beach" />
		<tag k="ssr:stedsnr" v="111886" />
	</node>
	<node lat="69.32696667023679" lon="18.757333339490515" id="-47357">
		<tag k="fixme" v="consider seamark:type=rock or natural=shoal" />
		<tag k="name" v="Kråkskjæret" />
		<tag k="place" v="islet" />
		<tag k="ssr:stedsnr" v="111889" />
	</node>
	<node lat="69.32284444732178" lon="18.83177499324607" id="-47358">
		<tag k="name" v="Båtvika" />
		<tag k="natural" v="bay" />
		<tag k="ssr:stedsnr" v="111934" />
	</node>
	<node lat="69.34464999890274" lon="18.76208055288053" id="-47367">
		<tag k="name" v="Kuskjellhola" />
		<tag k="natural" v="bay" />
		<tag k="ssr:stedsnr" v="111968" />
	</node>
	<node lat="69.31772778008863" lon="18.946100000397017" id="-47391">
		<tag k="name" v="Straumsneset" />
		<tag k="natural" v="cape" />
		<tag k="ssr:stedsnr" v="139131" />
	</node>
	<node lat="69.31737222010491" lon="18.94896388737629" id="-47392">
		<tag k="name" v="Eliasnes" />
		<tag k="natural" v="cape" />
		<tag k="ssr:stedsnr" v="139134" />
	</node>
	<node lat="69.33204166532947" lon="18.820972219197195" id="-47421">
		<tag k="alt_name" v="Nordbynes" />
		<tag k="name" v="Nordbyneset" />
		<tag k="natural" v="cape" />
		<tag k="ssr:stedsnr" v="139970" />
	</node>
	<node lat="69.44963888592547" lon="18.992674989216706" id="-47438">
		<tag k="name" v="Bakkebukta" />
		<tag k="natural" v="bay" />
		<tag k="ssr:stedsnr" v="158682" />
	</node>
	<node lat="69.4612416691494" lon="18.968797226615973" id="-47439">
		<tag k="name" v="Stornesleira" />
		<tag k="natural" v="bay" />
		<tag k="ssr:stedsnr" v="158691" />
	</node>
	<node lat="69.43814166731686" lon="18.481186108416253" id="-47448">
		<tag k="name" v="Langneset" />
		<tag k="natural" v="cape" />
		<tag k="ssr:stedsnr" v="170378" />
	</node>
	<node lat="69.37333333619448" lon="19.33743331903538" id="-47449">
		<tag k="name" v="Ørnneslandet" />
		<tag k="natural" v="beach" />
		<tag k="ssr:stedsnr" v="170399" />
	</node>
	<node lat="69.38114444427647" lon="18.60540555794786" id="-47474">
		<tag k="name" v="Sandsvika" />
		<tag k="natural" v="bay" />
		<tag k="ssr:stedsnr" v="171175" />
	</node>
	<node lat="69.32306943995897" lon="18.930772219492294" id="-47495">
		<tag k="name" v="Øybukta" />
		<tag k="natural" v="bay" />
		<tag k="ssr:stedsnr" v="171386" />
	</node>
	<node lat="69.3396750042392" lon="18.785388891190063" id="-47517">
		<tag k="name" v="Smedvika" />
		<tag k="natural" v="bay" />
		<tag k="ssr:stedsnr" v="171978" />
	</node>
	<node lat="69.37894722591116" lon="19.23186387446448" id="-47554">
		<tag k="name" v="Telgenes" />
		<tag k="natural" v="cape" />
		<tag k="ssr:stedsnr" v="200216" />
	</node>
	<node lat="69.45173888742256" lon="18.4534833299752" id="-47562">
		<tag k="name" v="Rekvika" />
		<tag k="natural" v="bay" />
		<tag k="ssr:stedsnr" v="200677" />
	</node>
	<node lat="69.2916305562027" lon="19.40838887780837" id="-47591">
		<tag k="loc_name:se" v="Suhpenjárga" />
		<tag k="name" v="Apenesodden" />
		<tag k="name:no" v="Apenesodden" />
		<tag k="natural" v="cape" />
		<tag k="ssr:stedsnr" v="219618" />
	</node>
	<node lat="69.32202500130003" lon="18.69767777051891" id="-47606">
		<tag k="name" v="Tømmervika" />
		<tag k="natural" v="bay" />
		<tag k="ssr:stedsnr" v="292787" />
	</node>
	<node lat="69.43965555772004" lon="18.455655550035335" id="-47623">
		<tag k="name" v="Nesøyra" />
		<tag k="natural" v="cape" />
		<tag k="ssr:stedsnr" v="292346" />
	</node>
	<node lat="69.29023889355926" lon="18.948152769898442" id="-47632">
		<tag k="name" v="Ytre Lakseidbukt" />
		<tag k="natural" v="bay" />
		<tag k="ssr:stedsnr" v="292324" />
	</node>
	<node lat="69.27211111325597" lon="19.273649991037395" id="-47642">
		<tag k="name" v="Holmelvkjosen" />
		<tag k="natural" v="bay" />
		<tag k="ssr:stedsnr" v="292621" />
	</node>
	<node lat="69.37496944897315" lon="19.141472211818584" id="-47644">
		<tag k="name" v="Stranda" />
		<tag k="natural" v="beach" />
		<tag k="ssr:stedsnr" v="292661" />
	</node>
	<node lat="69.23230833367207" lon="19.318269445253986" id="-47652">
		<tag k="name" v="Markeneset" />
		<tag k="natural" v="cape" />
		<tag k="ssr:stedsnr" v="292752" />
	</node>
	<node lat="69.32605000090781" lon="18.91964443397664" id="-47667">
		<tag k="name" v="Storstraumen" />
		<tag k="natural" v="strait" />
		<tag k="ssr:stedsnr" v="293439" />
	</node>
	<node lat="69.31553611275525" lon="18.929777784663216" id="-47679">
		<tag k="name" v="Øygrunnen" />
		<tag k="natural" v="shoal" />
		<tag k="place" v="locality" />
		<tag k="ssr:stedsnr" v="297145" />
	</node>
	<node lat="69.2887499977621" lon="18.66346387123787" id="-47740">
		<tag k="bay" v="fjord" />
		<tag k="loc_name:se" v="Árvovuotna" />
		<tag k="name" v="Aursfjorden" />
		<tag k="name:no" v="Aursfjorden" />
		<tag k="natural" v="bay" />
		<tag k="ssr:stedsnr" v="322773" />
	</node>
	<node lat="69.38333610876091" lon="18.603608323893546" id="-47765">
		<tag k="name" v="Indre Sandsvikneset" />
		<tag k="natural" v="cape" />
		<tag k="ssr:stedsnr" v="328471" />
	</node>
	<node lat="69.37983333422035" lon="18.608605549429242" id="-47766">
		<tag k="fixme" v="multiple name tags, choose one and add the other to alt_name" />
		<tag k="name" v="Kabelneset;Vikaneset" />
		<tag k="natural" v="cape" />
		<tag k="ssr:stedsnr" v="328789" />
	</node>
	<node lat="69.25053055976906" lon="19.264966664656285" id="-47767">
		<tag k="name" v="Lysgrunnen" />
		<tag k="place" v="islet" />
		<tag k="ssr:stedsnr" v="329960" />
	</node>
	<node lat="69.23604444764732" lon="19.34849721800242" id="-47807">
		<tag k="name" v="Sandbukta" />
		<tag k="natural" v="bay" />
		<tag k="ssr:stedsnr" v="352632" />
	</node>
	<node lat="69.3333249988405" lon="18.814719442138248" id="-47814">
		<tag k="name" v="Kjosen" />
		<tag k="natural" v="bay" />
		<tag k="ssr:stedsnr" v="352876" />
	</node>
	<node lat="69.39055000002165" lon="18.600158321498373" id="-47823">
		<tag k="name" v="Sandsbukta" />
		<tag k="natural" v="bay" />
		<tag k="ssr:stedsnr" v="353231" />
	</node>
	<node lat="69.46400833567748" lon="18.464705546005245" id="-47831">
		<tag k="name" v="Fevikneset" />
		<tag k="natural" v="cape" />
		<tag k="ssr:stedsnr" v="353372" />
	</node>
	<node lat="69.32484722110891" lon="18.91750000352158" id="-47834">
		<tag k="fixme" v="consider seamark:type=rock or natural=shoal" />
		<tag k="name" v="Geitspelen" />
		<tag k="place" v="islet" />
		<tag k="ssr:stedsnr" v="353398" />
	</node>
	<node lat="69.29820277829668" lon="18.97291109642963" id="-47841">
		<tag k="name" v="Vevstolneset" />
		<tag k="natural" v="cape" />
		<tag k="ssr:stedsnr" v="353585" />
	</node>
	<node lat="69.3227472248781" lon="18.74179720674944" id="-47849">
		<tag k="name" v="Kjerkevika" />
		<tag k="natural" v="bay" />
		<tag k="ssr:stedsnr" v="353774" />
	</node>
	<node lat="69.3124027814421" lon="19.34551388440901" id="-47882">
		<tag k="name" v="Hamna" />
		<tag k="natural" v="bay" />
		<tag k="ssr:stedsnr" v="382159" />
	</node>
	<node lat="69.43058611085559" lon="19.054716671181872" id="-47927">
		<tag k="fixme" v="consider seamark:type=rock or natural=shoal" />
		<tag k="name" v="Øyrskjæret" />
		<tag k="place" v="islet" />
		<tag k="ssr:stedsnr" v="389967" />
	</node>
	<node lat="69.31020833156468" lon="18.64681388049102" id="-47928">
		<tag k="name" v="Tennholmen" />
		<tag k="natural" v="cape" />
		<tag k="ssr:stedsnr" v="390778" />
	</node>
	<node lat="69.37787777945296" lon="19.218630546080497" id="-47935">
		<tag k="loc_name:se" v="Feansta" />
		<tag k="name" v="Kjosen" />
		<tag k="name:no" v="Kjosen" />
		<tag k="natural" v="cape" />
		<tag k="ssr:stedsnr" v="401959" />
	</node>
	<node lat="69.34541111162186" lon="19.177074983173867" id="-47952">
		<tag k="name" v="Hammarneset" />
		<tag k="natural" v="cape" />
		<tag k="ssr:stedsnr" v="413266" />
	</node>
	<node lat="69.22544722573606" lon="19.49963054622411" id="-47957">
		<tag k="name" v="Fiskebukta" />
		<tag k="natural" v="bay" />
		<tag k="ssr:stedsnr" v="413480" />
	</node>
	<node lat="69.47005833614999" lon="18.456702785411657" id="-47967">
		<tag k="name" v="Hamna" />
		<tag k="natural" v="bay" />
		<tag k="ssr:stedsnr" v="413376" />
	</node>
	<node lat="69.28689999587483" lon="18.972344446989023" id="-47997">
		<tag k="name" v="Leirvikneset" />
		<tag k="natural" v="cape" />
		<tag k="ssr:stedsnr" v="414349" />
	</node>
	<node lat="69.32430833360853" lon="18.834038881140767" id="-48006">
		<tag k="name" v="Bærvika" />
		<tag k="natural" v="bay" />
		<tag k="ssr:stedsnr" v="414574" />
	</node>
	<node lat="69.23072777974443" lon="19.259394433964996" id="-48034">
		<tag k="loc_name:se" v="Huossu" />
		<tag k="name" v="Sørkjosen" />
		<tag k="name:no" v="Sørkjosen" />
		<tag k="natural" v="bay" />
		<tag k="ssr:stedsnr" v="443186" />
	</node>
	<node lat="69.48448611216547" lon="18.47448887783726" id="-48066">
		<tag k="name" v="Forøybukta" />
		<tag k="natural" v="bay" />
		<tag k="ssr:stedsnr" v="443628" />
	</node>
	<node lat="69.38708610747953" lon="18.60130276337457" id="-48084">
		<tag k="alt_name" v="Ytre Sandsvikneset" />
		<tag k="name" v="Sandsneset" />
		<tag k="natural" v="cape" />
		<tag k="ssr:stedsnr" v="503690" />
	</node>
	<node lat="69.32806666833253" lon="18.894319448512245" id="-48144">
		<tag k="fixme" v="multiple name tags, choose one and add the other to alt_name" />
		<tag k="name" v="Storsteinneset;Oldervikneset" />
		<tag k="natural" v="cape" />
		<tag k="ssr:stedsnr" v="504991" />
	</node>
	<node lat="69.39388888823868" lon="18.598919438153747" id="-48150">
		<tag k="name" v="Sandselvøyra" />
		<tag k="natural" v="beach" />
		<tag k="ssr:stedsnr" v="511784" />
	</node>
	<node lat="69.47667222629977" lon="18.45548610982223" id="-48170">
		<tag k="name" v="Laukvika" />
		<tag k="natural" v="bay" />
		<tag k="ssr:stedsnr" v="534356" />
	</node>
	<node lat="69.44147499957224" lon="18.48087221887868" id="-48171">
		<tag k="name" v="Bustivika" />
		<tag k="natural" v="bay" />
		<tag k="ssr:stedsnr" v="534365" />
	</node>
	<node lat="69.41542500210257" lon="19.064372212253677" id="-48187">
		<tag k="name" v="Brattneset" />
		<tag k="natural" v="cape" />
		<tag k="ssr:stedsnr" v="534758" />
	</node>
	<node lat="69.21663333052852" lon="19.5461083232452" id="-48204">
		<tag k="name" v="Sjøvollan" />
		<tag k="natural" v="cape" />
		<tag k="ssr:stedsnr" v="535253" />
	</node>
	<node lat="69.32401666533026" lon="18.931288889337335" id="-48232">
		<tag k="name" v="Kvitholmen" />
		<tag k="natural" v="cape" />
		<tag k="ssr:stedsnr" v="536403" />
	</node>
	<node lat="69.32509444141894" lon="18.899344440116895" id="-48234">
		<tag k="name" v="Straumbakken" />
		<tag k="natural" v="strait" />
		<tag k="ssr:stedsnr" v="536410" />
	</node>
	<node lat="69.30402778229559" lon="18.889086107963294" id="-48235">
		<tag k="name" v="Migneset" />
		<tag k="natural" v="cape" />
		<tag k="ssr:stedsnr" v="536429" />
	</node>
	<node lat="69.37377222650176" lon="19.29737777848929" id="-48294">
		<tag k="name" v="Ørnesbukta" />
		<tag k="natural" v="bay" />
		<tag k="ssr:stedsnr" v="564195" />
	</node>
	<node lat="69.3218611147704" lon="18.675894449938344" id="-48335">
		<tag k="alt_name" v="Aursnes" />
		<tag k="name" v="Aursneset" />
		<tag k="natural" v="cape" />
		<tag k="ssr:stedsnr" v="564994" />
	</node>
	<node lat="69.40015833010678" lon="18.591594445518812" id="-48344">
		<tag k="name" v="Klubben" />
		<tag k="natural" v="cape" />
		<tag k="ssr:stedsnr" v="570784" />
	</node>
	<node lat="69.43066667113521" lon="18.952955546033987" id="-48345">
		<tag k="alt_name" v="Påtrasbukta" />
		<tag k="name" v="Potrasbukta" />
		<tag k="natural" v="bay" />
		<tag k="ssr:stedsnr" v="571961" />
	</node>
	<node lat="69.36597499885511" lon="18.645074998438623" id="-48369">
		<tag k="name" v="Kveldvika" />
		<tag k="natural" v="bay" />
		<tag k="ssr:stedsnr" v="595187" />
	</node>
	<node lat="69.44461111252203" lon="18.450880553661047" id="-48384">
		<tag k="name" v="Steinvika" />
		<tag k="natural" v="bay" />
		<tag k="ssr:stedsnr" v="595343" />
	</node>
	<node lat="69.30891388809297" lon="19.347583321450756" id="-48387">
		<tag k="fixme" v="consider seamark:type=rock or natural=shoal" />
		<tag k="name" v="Tenneset" />
		<tag k="place" v="islet" />
		<tag k="ssr:stedsnr" v="595622" />
	</node>
	<node lat="69.23416944732304" lon="19.328894437815574" id="-48388">
		<tag k="name" v="Nordneset" />
		<tag k="natural" v="cape" />
		<tag k="ssr:stedsnr" v="595633" />
	</node>
	<node lat="69.37895833047492" lon="19.10531666431437" id="-48389">
		<tag k="name" v="Melneset" />
		<tag k="natural" v="cape" />
		<tag k="ssr:stedsnr" v="595646" />
	</node>
	<node lat="69.22987499626973" lon="19.483655556096103" id="-48393">
		<tag k="name" v="Langskjæret" />
		<tag k="natural" v="cape" />
		<tag k="ssr:stedsnr" v="595444" />
	</node>
	<node lat="69.22882499682798" lon="19.311713885594962" id="-48409">
		<tag k="name" v="Stranda" />
		<tag k="natural" v="beach" />
		<tag k="ssr:stedsnr" v="595737" />
	</node>
	<node lat="69.360791666875" lon="18.674002779537236" id="-48413">
		<tag k="name" v="Skutvika" />
		<tag k="natural" v="bay" />
		<tag k="ssr:stedsnr" v="595779" />
	</node>
	<node lat="69.32952222020494" lon="18.8012888897712" id="-48417">
		<tag k="name" v="Nordbysundet" />
		<tag k="natural" v="strait" />
		<tag k="ssr:stedsnr" v="595883" />
	</node>
	<node lat="69.33474166733141" lon="18.843283330736174" id="-48428">
		<tag k="fixme" v="consider seamark:type=rock or natural=shoal" />
		<tag k="name" v="Ringjordskjæret" />
		<tag k="place" v="islet" />
		<tag k="ssr:stedsnr" v="596527" />
	</node>
	<node lat="69.3300805526084" lon="18.87999164804493" id="-48429">
		<tag k="name" v="Oldervika" />
		<tag k="natural" v="bay" />
		<tag k="ssr:stedsnr" v="596529" />
	</node>
	<node lat="69.29474166517046" lon="18.945622210152763" id="-48435">
		<tag k="name" v="Rødveibukta" />
		<tag k="natural" v="bay" />
		<tag k="ssr:stedsnr" v="596650" />
	</node>
	<node lat="69.32503611129775" lon="18.847044432788564" id="-48447">
		<tag k="fixme" v="consider seamark:type=rock or natural=shoal" />
		<tag k="name" v="Maribåen" />
		<tag k="place" v="islet" />
		<tag k="ssr:stedsnr" v="596947" />
	</node>
	<node lat="69.32133333035061" lon="18.928163884226077" id="-48471">
		<tag k="name" v="Mesterøya" />
		<tag k="place" v="island" />
		<tag k="ssr:stedsnr" v="625110" />
	</node>
	<node lat="69.3505388851898" lon="19.373674997824754" id="-48477">
		<tag k="loc_name:se" v="Dielgenjárga" />
		<tag k="name" v="Telgenes" />
		<tag k="name:no" v="Telgenes" />
		<tag k="natural" v="cape" />
		<tag k="ssr:stedsnr" v="625181" />
	</node>
	<node lat="69.4440805557538" lon="18.92581388983601" id="-48500">
		<tag k="name" v="Kvitnes" />
		<tag k="natural" v="cape" />
		<tag k="ssr:stedsnr" v="625899" />
	</node>
	<node lat="69.39861667006421" lon="18.66522776131473" id="-48506">
		<tag k="name" v="Skrivarholmen" />
		<tag k="natural" v="cape" />
		<tag k="ssr:stedsnr" v="625941" />
	</node>
	<node lat="69.31623610894592" lon="19.41596944530772" id="-48528">
		<tag k="name" v="Meløyra" />
		<tag k="natural" v="cape" />
		<tag k="ssr:stedsnr" v="643597" />
	</node>
	<node lat="69.30452777496862" lon="19.342033319697467" id="-48554">
		<tag k="name" v="Perbukta" />
		<tag k="natural" v="bay" />
		<tag k="ssr:stedsnr" v="655640" />
	</node>
	<node lat="69.33086388757617" lon="18.851747215977916" id="-48590">
		<tag k="fixme" v="consider seamark:type=rock or natural=shoal" />
		<tag k="name" v="Skjellskjæret" />
		<tag k="place" v="islet" />
		<tag k="ssr:stedsnr" v="656574" />
	</node>
	<node lat="69.32681944892673" lon="18.867816655730042" id="-48591">
		<tag k="fixme" v="consider seamark:type=rock or natural=shoal" />
		<tag k="name" v="Kobbenesskjæret" />
		<tag k="place" v="islet" />
		<tag k="ssr:stedsnr" v="656575" />
	</node>
	<node lat="69.30349999908061" lon="18.973936101865434" id="-48622">
		<tag k="name" v="Storbukta" />
		<tag k="natural" v="bay" />
		<tag k="ssr:stedsnr" v="657655" />
	</node>
	<node lat="69.23216944828677" lon="19.475430545030456" id="-48648">
		<tag k="name" v="Forrskogneset" />
		<tag k="natural" v="cape" />
		<tag k="ssr:stedsnr" v="716471" />
	</node>
	<node lat="69.31517777583721" lon="19.342358332295706" id="-48650">
		<tag k="name" v="Gryta" />
		<tag k="natural" v="bay" />
		<tag k="ssr:stedsnr" v="716668" />
	</node>
	<node lat="69.42203611373526" lon="19.052224984113057" id="-48660">
		<tag k="name" v="Storbukta" />
		<tag k="natural" v="bay" />
		<tag k="ssr:stedsnr" v="716766" />
	</node>
	<node lat="69.32005278285003" lon="18.95024998633941" id="-48667">
		<tag k="name" v="Bukta" />
		<tag k="natural" v="bay" />
		<tag k="ssr:stedsnr" v="717259" />
	</node>
	<node lat="69.30534722444929" lon="18.872113884442246" id="-48674">
		<tag k="name" v="Lyngkjosen" />
		<tag k="natural" v="bay" />
		<tag k="ssr:stedsnr" v="717542" />
	</node>
	<node lat="69.31389722119575" lon="18.909686107081157" id="-48715">
		<tag k="name" v="Nygrunnen" />
		<tag k="natural" v="shoal" />
		<tag k="place" v="locality" />
		<tag k="ssr:stedsnr" v="722137" />
	</node>
	<node lat="69.50124721926787" lon="18.442272210355465" id="-48755">
		<tag k="name" v="Ansnes" />
		<tag k="natural" v="cape" />
		<tag k="ssr:stedsnr" v="746459" />
	</node>
	<node lat="69.42154999654593" lon="18.99605833138562" id="-48760">
		<tag k="alt_name" v="Middagsnes" />
		<tag k="name" v="Middagsneset" />
		<tag k="natural" v="cape" />
		<tag k="ssr:stedsnr" v="746885" />
	</node>
	<node lat="69.32474166653628" lon="18.850094430247466" id="-48771">
		<tag k="name" v="Hesjevika" />
		<tag k="natural" v="bay" />
		<tag k="ssr:stedsnr" v="746993" />
	</node>
	<node lat="69.23676388488431" lon="19.35999722176139" id="-48775">
		<tag k="name" v="Bergeneset" />
		<tag k="natural" v="cape" />
		<tag k="ssr:stedsnr" v="747159" />
	</node>
	<node lat="69.34513610884187" lon="19.125233317810412" id="-48802">
		<tag k="name" v="Middagsbukta" />
		<tag k="natural" v="bay" />
		<tag k="ssr:stedsnr" v="777175" />
	</node>
	<node lat="69.43987777471435" lon="18.480905546396727" id="-48814">
		<tag k="name" v="Stuvika" />
		<tag k="natural" v="bay" />
		<tag k="ssr:stedsnr" v="777358" />
	</node>
	<node lat="69.27019999816038" lon="19.41026665320684" id="-48834">
		<tag k="name" v="Olabukta" />
		<tag k="natural" v="bay" />
		<tag k="ssr:stedsnr" v="777638" />
	</node>
	<node lat="69.28681944074398" lon="18.970097209268882" id="-48867">
		<tag k="name" v="Leirvika" />
		<tag k="natural" v="bay" />
		<tag k="ssr:stedsnr" v="778339" />
	</node>
	<node lat="69.3034416641491" lon="18.891047211144652" id="-48869">
		<tag k="name" v="Mignesbukta" />
		<tag k="natural" v="bay" />
		<tag k="ssr:stedsnr" v="778438" />
	</node>
	<node lat="69.30621389275446" lon="18.975888885953413" id="-48881">
		<tag k="name" v="Finnvika" />
		<tag k="natural" v="bay" />
		<tag k="ssr:stedsnr" v="778575" />
	</node>
	<node lat="69.2799083371077" lon="18.71486389785773" id="-48886">
		<tag k="name" v="Kuelvbukta" />
		<tag k="natural" v="bay" />
		<tag k="ssr:stedsnr" v="778736" />
	</node>
	<node lat="69.25731110780691" lon="18.90663055683954" id="-48913">
		<tag k="name" v="Ungsmaløya" />
		<tag k="place" v="island" />
		<tag k="ssr:stedsnr" v="807040" />
	</node>
	<node lat="69.3966888918736" lon="19.070450005732095" id="-48924">
		<tag k="loc_name:se" v="Spearronjárga Uhca" />
		<tag k="name" v="Hestnes" />
		<tag k="name:no" v="Hestnes" />
		<tag k="natural" v="cape" />
		<tag k="ssr:stedsnr" v="807098" />
	</node>
	<node lat="69.32174444815499" lon="18.911902784805964" id="-48935">
		<tag k="name" v="Klubben" />
		<tag k="natural" v="cape" />
		<tag k="ssr:stedsnr" v="807131" />
	</node>
	<node lat="69.50181111275201" lon="18.44092499135396" id="-48958">
		<tag k="name" v="Seljeberget" />
		<tag k="natural" v="cape" />
		<tag k="ssr:stedsnr" v="807447" />
	</node>
	<node lat="69.32576944071148" lon="18.868530553785764" id="-48985">
		<tag k="alt_name" v="Kobbneset" />
		<tag k="name" v="Kobbeneset" />
		<tag k="natural" v="cape" />
		<tag k="ssr:stedsnr" v="807993" />
	</node>
	<node lat="69.37548611334837" lon="19.29021943278233" id="-49011">
		<tag k="name" v="Reinneset" />
		<tag k="natural" v="cape" />
		<tag k="ssr:stedsnr" v="839885" />
	</node>
	<node lat="69.28008611147905" lon="19.293511091299848" id="-49031">
		<tag k="name" v="Kobbestrandneset" />
		<tag k="natural" v="cape" />
		<tag k="ssr:stedsnr" v="838600" />
	</node>
	<node lat="69.36537222152509" lon="19.35282498269495" id="-49037">
		<tag k="loc_name:se" v="Návstenjárga" />
		<tag k="name" v="Naustneset" />
		<tag k="name:no" v="Naustneset" />
		<tag k="natural" v="cape" />
		<tag k="ssr:stedsnr" v="838453" />
	</node>
	<node lat="69.23435555655963" lon="19.37575000220322" id="-49046">
		<tag k="name" v="Loddbukta" />
		<tag k="natural" v="bay" />
		<tag k="ssr:stedsnr" v="838662" />
	</node>
	<node lat="69.38244166960574" lon="19.094827773152282" id="-49047">
		<tag k="name" v="Røstenes" />
		<tag k="natural" v="cape" />
		<tag k="ssr:stedsnr" v="838749" />
	</node>
	<node lat="69.37348333556378" lon="18.622569433084248" id="-49056">
		<tag k="name" v="Skrindbergvika" />
		<tag k="natural" v="bay" />
		<tag k="ssr:stedsnr" v="839203" />
	</node>
	<node lat="69.28811666864011" lon="18.956033324316703" id="-49067">
		<tag k="name" v="Indre Lakseidbukt" />
		<tag k="natural" v="bay" />
		<tag k="ssr:stedsnr" v="839353" />
	</node>
	<node lat="69.30999444296069" lon="18.867774993978042" id="-49084">
		<tag k="name" v="Seljemoneset" />
		<tag k="natural" v="cape" />
		<tag k="ssr:stedsnr" v="839538" />
	</node>
	<node lat="69.30690000267616" lon="18.860544446424502" id="-49085">
		<tag k="name" v="Ytterbotn" />
		<tag k="natural" v="bay" />
		<tag k="ssr:stedsnr" v="839541" />
	</node>
	<node lat="69.36665277559904" lon="19.041705539354453" id="-49087">
		<tag k="name" v="Vedbukta" />
		<tag k="natural" v="bay" />
		<tag k="ssr:stedsnr" v="839660" />
	</node>
	<node lat="69.28576388604685" lon="18.68980832995627" id="-49089">
		<tag k="name" v="Jordbukta" />
		<tag k="natural" v="bay" />
		<tag k="ssr:stedsnr" v="839767" />
	</node>
	<node lat="69.32532777634482" lon="18.79668610599257" id="-49103">
		<tag k="name" v="Hamnvågneset" />
		<tag k="natural" v="cape" />
		<tag k="ssr:stedsnr" v="868990" />
	</node>
	<node lat="69.32303611408284" lon="18.796302763861892" id="-49104">
		<tag k="name" v="Hamnvågbukta" />
		<tag k="natural" v="bay" />
		<tag k="ssr:stedsnr" v="868991" />
	</node>
	<node lat="69.22775833710831" lon="19.435705537139274" id="-49106">
		<tag k="name" v="Slettneset" />
		<tag k="natural" v="cape" />
		<tag k="ssr:stedsnr" v="868123" />
	</node>
	<node lat="69.23044444613957" lon="19.310225004707878" id="-49114">
		<tag k="alt_name" v="Strandnes" />
		<tag k="name" v="Strandneset" />
		<tag k="natural" v="cape" />
		<tag k="ssr:stedsnr" v="868166" />
	</node>
	<node lat="69.37176389074197" lon="19.322211114302974" id="-49129">
		<tag k="alt_name:no" v="Ørnes" />
		<tag k="loc_name:se" v="Goaskinnjárga" />
		<tag k="name" v="Ørnneset" />
		<tag k="name:no" v="Ørnneset" />
		<tag k="natural" v="cape" />
		<tag k="ssr:stedsnr" v="868190" />
	</node>
	<node lat="69.3545972265136" lon="19.36897498976096" id="-49168">
		<tag k="loc_name:se" v="Geađgenjárga" />
		<tag k="name" v="Steinnes" />
		<tag k="name:no" v="Steinnes" />
		<tag k="natural" v="cape" />
		<tag k="ssr:stedsnr" v="947602" />
	</node>
	<node lat="69.2458833341126" lon="19.23405000443013" id="-49177">
		<tag k="name" v="Spira" />
		<tag k="natural" v="cape" />
		<tag k="ssr:stedsnr" v="959016" />
	</node>
	<node lat="69.43245833679613" lon="18.475955554560755" id="-49188">
		<tag k="name" v="Spildersundet" />
		<tag k="natural" v="strait" />
		<tag k="ssr:stedsnr" v="959332" />
	</node>
	<node lat="69.3272750022937" lon="18.930522224885333" id="-49213">
		<tag k="name" v="Mestervika" />
		<tag k="natural" v="bay" />
		<tag k="ssr:stedsnr" v="960242" />
	</node>
	<node lat="69.5134083343583" lon="18.463238883337347" id="-49224">
		<tag k="name" v="Vedneset" />
		<tag k="natural" v="cape" />
		<tag k="ssr:stedsnr" v="960328" />
	</node>
	<node lat="69.30028055750927" lon="18.907077773296137" id="-49234">
		<tag k="name" v="Storelvbukta" />
		<tag k="natural" v="bay" />
		<tag k="ssr:stedsnr" v="960432" />
	</node>
	<node lat="69.32504721850488" lon="18.85598054913413" id="-49238">
		<tag k="name" v="Lanesbærvika" />
		<tag k="natural" v="bay" />
		<tag k="ssr:stedsnr" v="960570" />
	</node>
	<node lat="69.3928055568948" lon="19.073891669996293" id="-49247">
		<tag k="name" v="Hestnesodden" />
		<tag k="natural" v="cape" />
		<tag k="ssr:stedsnr" v="960874" />
	</node>
</osm>
