<?xml version="1.0" encoding="UTF-8"?>
<osm generator="osmapis" version="0.6">
	<node id="-773728" lat="69.2556499972" lon="19.1372638737">
		<tag k="amenity" v="community_centre" />
		<tag k="name" v="Josefvatn Leirsted" />
		<tag k="ssr:stedsnr" v="716440" />
	</node>
	<node id="-774908" lat="69.2115305569" lon="19.3291944322">
		<tag k="name" v="Mølna" />
		<tag k="place" v="locality" />
		<tag k="ssr:stedsnr" v="352820" />
	</node>
	<node id="-772571" lat="69.0602972233" lon="19.3018194275">
		<tag k="name" v="Hesteslakteriet" />
		<tag k="place" v="locality" />
		<tag k="ssr:stedsnr" v="97953" />
	</node>
	<node id="-775576" lat="69.31120833" lon="19.3463666678">
		<tag k="alt_name" v="Balsfjorden" />
		<tag k="amenity" v="place_of_worship" />
		<tag k="denomination" v="lutheran" />
		<tag k="name" v="Balsfjord" />
		<tag k="religion" v="christian" />
		<tag k="ssr:stedsnr" v="625153" />
	</node>
	<node id="-774742" lat="69.3914499999" lon="18.6239777685">
		<tag k="amenity" v="community_centre" />
		<tag k="name" v="Rambergstua" />
		<tag k="ssr:stedsnr" v="201935" />
	</node>
	<node id="-774549" lat="69.2312555522" lon="19.2334361138">
		<tag k="alt_name" v="Sagelv" />
		<tag k="amenity" v="place_of_worship" />
		<tag k="denomination" v="lutheran" />
		<tag k="name" v="Storsteinnes" />
		<tag k="religion" v="christian" />
		<tag k="ssr:stedsnr" v="140174" />
	</node>
	<node id="-773329" lat="69.1398333318" lon="19.0550833158">
		<tag k="name" v="Holststøtta" />
		<tag k="ssr:stedsnr" v="656780" />
		<tag k="tourism" v="attraction" />
	</node>
	<node id="-773646" lat="69.3279555535" lon="18.9327666693">
		<tag k="amenity" v="place_of_worship" />
		<tag k="denomination" v="lutheran" />
		<tag k="name" v="Mestervik-kapell" />
		<tag k="religion" v="christian" />
		<tag k="ssr:stedsnr" v="718412" />
	</node>
	<node id="-773196" lat="69.3998250033" lon="18.5981000052">
		<tag k="amenity" v="place_of_worship" />
		<tag k="denomination" v="lutheran" />
		<tag k="name" v="Malangen" />
		<tag k="religion" v="christian" />
		<tag k="ssr:stedsnr" v="503642" />
	</node>
	<node id="-772775" lat="69.4381861161" lon="19.2428444277">
		<tag k="name" v="Reingjerdet" />
		<tag k="place" v="locality" />
		<tag k="ssr:stedsnr" v="292677" />
	</node>
</osm>
