<?xml version="1.0" encoding="UTF-8"?>
<<<<<<< HEAD
<osm version="0.6" generator="osmapis">
	<node lat="62.162986107444866" lon="7.041677780074969" id="-1172">
		<tag k="historic" v="shieling" />
		<tag k="name" v="Stokkesætra" />
		<tag k="place" v="isolated_dwelling" />
		<tag k="ssr:stedsnr" v="11326" />
	</node>
	<node lat="62.02616992527719" lon="7.0131941622390475" id="-1173">
		<tag k="name" v="Brekke" />
		<tag k="place" v="farm" />
		<tag k="ssr:stedsnr" v="11485" />
	</node>
	<node lat="62.28913333599013" lon="6.840544438726724" id="-1175">
		<tag k="historic" v="shieling" />
		<tag k="name" v="Fursetsætra" />
		<tag k="place" v="isolated_dwelling" />
		<tag k="ssr:stedsnr" v="11583" />
	</node>
	<node lat="62.28442777484716" lon="6.9258277712715035" id="-1176">
		<tag k="historic" v="shieling" />
		<tag k="name" v="Heimerhaugane" />
		<tag k="old_name" v="Heimarhaugane" />
		<tag k="place" v="isolated_dwelling" />
		<tag k="ssr:stedsnr" v="11584" />
	</node>
	<node lat="62.313310455170416" lon="6.932539135991899" id="-1205">
		<tag k="fixme" v="consider place=hamlet" />
		<tag k="name" v="Hjelle" />
		<tag k="place" v="farm" />
		<tag k="ssr:stedsnr" v="35813" />
	</node>
	<node lat="62.0688888924583" lon="7.254999996146886" id="-1207">
		<tag k="name" v="Dalen Gaard Familiecamping" />
		<tag k="ssr:stedsnr" v="51779" />
		<tag k="tourism" v="camp_site" />
	</node>
	<node lat="62.0304166681658" lon="7.2767166621243256" id="-1211">
		<tag k="fixme" v="consider tourism=alpine_hut or tourism=chalet" />
		<tag k="name" v="Djupvasshytta" />
		<tag k="ssr:stedsnr" v="71178" />
		<tag k="tourism" v="wilderness_hut" />
	</node>
	<node lat="62.14460555200866" lon="6.999630561358665" id="-1221">
		<tag k="fixme" v="consider place=hamlet" />
		<tag k="name" v="Furneset" />
		<tag k="place" v="farm" />
		<tag k="ssr:stedsnr" v="72328" />
	</node>
	<node lat="62.30292261141058" lon="6.923507526870709" id="-1223">
		<tag k="fixme" v="consider place=hamlet" />
		<tag k="name" v="Framhus" />
		<tag k="place" v="farm" />
		<tag k="ssr:stedsnr" v="72573" />
	</node>
	<node lat="62.116960430905245" lon="6.963757214962761" id="-1224">
		<tag k="fixme" v="consider place=hamlet" />
		<tag k="name" v="Lundaneset" />
		<tag k="place" v="farm" />
		<tag k="ssr:stedsnr" v="83038" />
	</node>
	<node lat="62.29793333368335" lon="7.104069438361158" id="-1226">
		<tag k="name" v="Nesheim" />
		<tag k="place" v="farm" />
		<tag k="ssr:stedsnr" v="91185" />
	</node>
	<node lat="62.120723584540315" lon="7.179484816768882" id="-1233">
		<tag k="fixme" v="consider place=hamlet" />
		<tag k="name" v="Møllsbygda" />
		<tag k="place" v="village" />
		<tag k="ssr:stedsnr" v="92614" />
	</node>
	<node lat="62.095608337593795" lon="7.114702783808363" id="-1249">
		<tag k="name" v="Skageflåsætra" />
		<tag k="place" v="locality" />
		<tag k="ssr:stedsnr" v="93564" />
	</node>
	<node lat="62.07689867441318" lon="7.241483320979521" id="-1262">
		<tag k="fixme" v="consider place=hamlet" />
		<tag k="name" v="Ørjasætra" />
		<tag k="place" v="farm" />
		<tag k="ssr:stedsnr" v="131125" />
	</node>
	<node lat="62.090813804374775" lon="6.851688593470355" id="-1265">
		<tag k="name" v="Holen" />
		<tag k="place" v="isolated_dwelling" />
		<tag k="ssr:stedsnr" v="132374" />
	</node>
	<node lat="62.03729690247438" lon="7.003262823044099" id="-1268">
		<tag k="fixme" v="consider place=hamlet" />
		<tag k="name" v="Par" />
		<tag k="place" v="farm" />
		<tag k="ssr:stedsnr" v="132440" />
	</node>
	<node lat="62.26612222072043" lon="6.965547223631598" id="-1272">
		<tag k="alt_name" v="Opsviksetra" />
		<tag k="historic" v="shieling" />
		<tag k="name" v="Uksviksætra" />
		<tag k="place" v="isolated_dwelling" />
		<tag k="ssr:stedsnr" v="132917" />
	</node>
	<node lat="62.3151836170943" lon="7.002406282823061" id="-1273">
		<tag k="name" v="Hammaren" />
		<tag k="place" v="locality" />
		<tag k="ssr:stedsnr" v="133459" />
	</node>
	<node lat="62.142577774123296" lon="6.9879638798036625" id="-1277">
		<tag k="name" v="Almane" />
		<tag k="place" v="locality" />
		<tag k="ssr:stedsnr" v="253422" />
	</node>
	<node lat="62.100067113931736" lon="7.077609489049429" id="-1283">
		<tag k="name" v="Horvadraget" />
		<tag k="place" v="locality" />
		<tag k="ssr:stedsnr" v="253455" />
	</node>
	<node lat="62.27122199559305" lon="6.855955195883827" id="-1288">
		<tag k="fixme" v="consider place=hamlet" />
		<tag k="name" v="Lia" />
		<tag k="place" v="farm" />
		<tag k="ssr:stedsnr" v="253588" />
	</node>
	<node lat="62.32012782022692" lon="7.031001513603975" id="-1295">
		<tag k="historic" v="shieling" />
		<tag k="name" v="Ansoksætra" />
		<tag k="place" v="isolated_dwelling" />
		<tag k="ssr:stedsnr" v="254479" />
	</node>
	<node lat="62.019891748300346" lon="7.020363554947731" id="-1296">
		<tag k="fixme" v="consider place=hamlet" />
		<tag k="name" v="Vollset" />
		<tag k="place" v="farm" />
		<tag k="ssr:stedsnr" v="254442" />
	</node>
	<node lat="62.30230000254637" lon="7.120505554823185" id="-1299">
		<tag k="historic" v="shieling" />
		<tag k="name" v="Ovråsætra" />
		<tag k="place" v="isolated_dwelling" />
		<tag k="ssr:stedsnr" v="254581" />
	</node>
	<node lat="62.28222647903195" lon="6.874159096882879" id="-1308">
		<tag k="fixme" v="consider place=hamlet" />
		<tag k="name" v="Øvre Furset" />
		<tag k="place" v="farm" />
		<tag k="ssr:stedsnr" v="152607" />
	</node>
	<node lat="62.27862777766752" lon="6.97813610251365" id="-1323">
		<tag k="historic" v="shieling" />
		<tag k="name" v="Geilfjøsane" />
		<tag k="place" v="isolated_dwelling" />
		<tag k="ssr:stedsnr" v="157850" />
	</node>
	<node lat="62.217299999404815" lon="6.917269445368155" id="-1359">
		<tag k="name" v="Lillebø" />
		<tag k="place" v="farm" />
		<tag k="ssr:stedsnr" v="214784" />
	</node>
	<node lat="62.08992481470741" lon="6.849835830452811" id="-1378">
		<tag k="fixme" v="consider place=hamlet" />
		<tag k="name" v="Øgarden" />
		<tag k="place" v="farm" />
		<tag k="ssr:stedsnr" v="217794" />
	</node>
	<node lat="62.0762777754302" lon="6.891961112807998" id="-1379">
		<tag k="name" v="Husøya" />
		<tag k="place" v="farm" />
		<tag k="ssr:stedsnr" v="217812" />
	</node>
	<node lat="62.31417500269657" lon="7.064250002035504" id="-1386">
		<tag k="name" v="Reitane" />
		<tag k="place" v="farm" />
		<tag k="ssr:stedsnr" v="455036" />
	</node>
	<node lat="62.27193056005226" lon="6.863480561332114" id="-1389">
		<tag k="name" v="Nedrelia" />
		<tag k="place" v="farm" />
		<tag k="ssr:stedsnr" v="455644" />
	</node>
	<node lat="62.26948055478394" lon="6.85709999300544" id="-1390">
		<tag k="name" v="Fremstelia" />
		<tag k="place" v="farm" />
		<tag k="ssr:stedsnr" v="455679" />
	</node>
	<node lat="62.26763611098348" lon="6.856338881868499" id="-1391">
		<tag k="name" v="Ytstehaugen" />
		<tag k="place" v="farm" />
		<tag k="ssr:stedsnr" v="455684" />
	</node>
	<node lat="62.21754722333756" lon="6.890191662914286" id="-1392">
		<tag k="name" v="Emdalssetra" />
		<tag k="place" v="locality" />
		<tag k="ssr:stedsnr" v="455687" />
	</node>
	<node lat="62.246123519445575" lon="6.906717584143846" id="-1396">
		<tag k="fixme" v="consider place=hamlet" />
		<tag k="name" v="Gjerde" />
		<tag k="place" v="farm" />
		<tag k="ssr:stedsnr" v="253302" />
	</node>
	<node lat="62.044041663829425" lon="7.09638056491102" id="-1400">
		<tag k="fixme" v="multiple name tags, choose one and add the other to alt_name" />
		<tag k="name" v="Holesætra;Holestølen" />
		<tag k="place" v="isolated_dwelling" />
		<tag k="ssr:stedsnr" v="254421" />
	</node>
	<node lat="62.1133888891452" lon="6.8497638821183084" id="-1408">
		<tag k="name" v="Vårsætra" />
		<tag k="place" v="locality" />
		<tag k="ssr:stedsnr" v="456512" />
	</node>
	<node lat="62.07611111313223" lon="6.819841661094333" id="-1409">
		<tag k="name" v="Øvsthaugen" />
		<tag k="place" v="farm" />
		<tag k="ssr:stedsnr" v="456584" />
	</node>
	<node lat="62.075886113992055" lon="6.821597227682847" id="-1413">
		<tag k="name" v="Nedsthaugen" />
		<tag k="place" v="farm" />
		<tag k="ssr:stedsnr" v="456588" />
	</node>
	<node lat="62.10325000197223" lon="7.230880558061089" id="-1477">
		<tag k="historic" v="shieling" />
		<tag k="name" v="Litlesætra" />
		<tag k="place" v="isolated_dwelling" />
		<tag k="ssr:stedsnr" v="278624" />
	</node>
	<node lat="62.308832963140176" lon="6.94661764898453" id="-1478">
		<tag k="fixme" v="consider place=hamlet" />
		<tag k="name" v="Sløgstad" />
		<tag k="place" v="farm" />
		<tag k="ssr:stedsnr" v="278808" />
	</node>
	<node lat="62.2328626420922" lon="6.906446008529663" id="-1493">
		<tag k="fixme" v="consider place=hamlet" />
		<tag k="name" v="Slettvollen" />
		<tag k="place" v="farm" />
		<tag k="ssr:stedsnr" v="314306" />
	</node>
	<node lat="62.2087083367868" lon="6.823111120407971" id="-1495">
		<tag k="historic" v="shieling" />
		<tag k="name" v="Rødsetstølen" />
		<tag k="place" v="isolated_dwelling" />
		<tag k="ssr:stedsnr" v="314327" />
	</node>
	<node lat="62.131613982165256" lon="7.193269800499399" id="-1499">
		<tag k="historic" v="shieling" />
		<tag k="loc_name" v="Møllssætra" />
		<tag k="name" v="Møllsætrane" />
		<tag k="place" v="isolated_dwelling" />
		<tag k="ssr:stedsnr" v="314407" />
	</node>
	<node lat="62.286028969426084" lon="6.8991706601231755" id="-1506">
		<tag k="fixme" v="consider place=hamlet" />
		<tag k="name" v="Drege" />
		<tag k="place" v="farm" />
		<tag k="ssr:stedsnr" v="315561" />
	</node>
	<node lat="62.31446666989234" lon="7.08929443959453" id="-1514">
		<tag k="name" v="Nakkesetra" />
		<tag k="place" v="locality" />
		<tag k="ssr:stedsnr" v="333146" />
	</node>
	<node lat="62.324994447518385" lon="7.058149993083328" id="-1515">
		<tag k="name" v="Bjørkheim" />
		<tag k="place" v="farm" />
		<tag k="ssr:stedsnr" v="333168" />
	</node>
	<node lat="62.0965305516416" lon="6.861672219889159" id="-1516">
		<tag k="name" v="Holten" />
		<tag k="place" v="isolated_dwelling" />
		<tag k="ssr:stedsnr" v="334262" />
	</node>
	<node lat="62.27481944004076" lon="6.841219437161944" id="-1517">
		<tag k="historic" v="shieling" />
		<tag k="name" v="Gamlesætra" />
		<tag k="place" v="isolated_dwelling" />
		<tag k="ssr:stedsnr" v="334548" />
	</node>
	<node lat="62.22110770456858" lon="6.914919804096353" id="-1541">
		<tag k="fixme" v="multiple name tags, choose one and add the other to alt_name; consider place=hamlet" />
		<tag k="name" v="Fram-Fjørstad;Fjørstad" />
		<tag k="place" v="farm" />
		<tag k="ssr:stedsnr" v="374310" />
	</node>
	<node lat="61.99940555539512" lon="6.993174995167692" id="-1544">
		<tag k="name" v="Vollsæter" />
		<tag k="place" v="locality" />
		<tag k="ssr:stedsnr" v="374410" />
	</node>
	<node lat="62.100150000338346" lon="7.127338895597009" id="-1547">
		<tag k="name" v="Skagedalssætra" />
		<tag k="place" v="isolated_dwelling" />
		<tag k="ssr:stedsnr" v="374429" />
	</node>
	<node lat="62.04026111287105" lon="6.962194442106691" id="-1549">
		<tag k="name" v="Frøysa" />
		<tag k="place" v="farm" />
		<tag k="ssr:stedsnr" v="374712" />
	</node>
	<node lat="62.24695309648956" lon="6.893627003195555" id="-1551">
		<tag k="fixme" v="consider place=hamlet" />
		<tag k="name" v="Øye" />
		<tag k="place" v="farm" />
		<tag k="ssr:stedsnr" v="375211" />
	</node>
	<node lat="62.10853611186833" lon="6.907758339725017" id="-1556">
		<tag k="name" v="Bjørkneset" />
		<tag k="place" v="locality" />
		<tag k="ssr:stedsnr" v="375341" />
	</node>
	<node lat="62.04662588258181" lon="6.799616277866291" id="-1558">
		<tag k="fixme" v="consider place=hamlet" />
		<tag k="name" v="Tronstadslettene" />
		<tag k="place" v="farm" />
		<tag k="ssr:stedsnr" v="375394" />
	</node>
	<node lat="62.03818218225741" lon="6.999321581228014" id="-1561">
		<tag k="fixme" v="consider place=hamlet" />
		<tag k="name" v="Hole" />
		<tag k="place" v="farm" />
		<tag k="ssr:stedsnr" v="375421" />
	</node>
	<node lat="62.25276428725593" lon="6.891010598903423" id="-1564">
		<tag k="fixme" v="consider place=hamlet" />
		<tag k="name" v="Myklebust" />
		<tag k="place" v="farm" />
		<tag k="ssr:stedsnr" v="375904" />
	</node>
	<node lat="62.263325001904576" lon="6.81345276932488" id="-1565">
		<tag k="name" v="Øvstesætra" />
		<tag k="place" v="isolated_dwelling" />
		<tag k="ssr:stedsnr" v="375915" />
	</node>
	<node lat="62.1013374777913" lon="7.215350644892702" id="-1567">
		<tag k="fixme" v="consider place=hamlet" />
		<tag k="name" v="Vesterås" />
		<tag k="place" v="farm" />
		<tag k="ssr:stedsnr" v="390939" />
	</node>
	<node lat="62.10876944658484" lon="6.743894439654959" id="-1582">
		<tag k="name" v="Lundheim" />
		<tag k="place" v="isolated_dwelling" />
		<tag k="ssr:stedsnr" v="395609" />
	</node>
	<node lat="62.053358332439096" lon="6.790955557233768" id="-1584">
		<tag k="name" v="Leite" />
		<tag k="place" v="farm" />
		<tag k="ssr:stedsnr" v="395831" />
	</node>
	<node lat="62.17632499881395" lon="6.923591668555345" id="-1585">
		<tag k="name" v="Sætra" />
		<tag k="place" v="locality" />
		<tag k="ssr:stedsnr" v="396127" />
	</node>
	<node lat="62.1801910416318" lon="7.012403151797689" id="-1605">
		<tag k="fixme" v="consider place=hamlet" />
		<tag k="name" v="Ytste Åkerneset" />
		<tag k="place" v="farm" />
		<tag k="ssr:stedsnr" v="435367" />
	</node>
	<node lat="62.054609607771674" lon="6.937592811459128" id="-1609">
		<tag k="fixme" v="consider place=hamlet" />
		<tag k="name" v="Storstein" />
		<tag k="place" v="farm" />
		<tag k="ssr:stedsnr" v="436418" />
	</node>
	<node lat="62.15801597582086" lon="7.038101535723424" id="-1610">
		<tag k="alt_name" v="Midgarden" />
		<tag k="fixme" v="consider place=hamlet" />
		<tag k="name" v="Megarden" />
		<tag k="place" v="farm" />
		<tag k="ssr:stedsnr" v="436307" />
	</node>
	<node lat="62.15317064352633" lon="6.952129697199103" id="-1611">
		<tag k="name" v="Tindbjørgane" />
		<tag k="place" v="locality" />
		<tag k="ssr:stedsnr" v="436310" />
	</node>
	<node lat="62.26977166365022" lon="6.884276191837788" id="-1615">
		<tag k="fixme" v="consider place=hamlet" />
		<tag k="name" v="Sve" />
		<tag k="place" v="farm" />
		<tag k="ssr:stedsnr" v="436554" />
	</node>
	<node lat="62.267591898944566" lon="6.877591701443364" id="-1620">
		<tag k="name" v="Svemorka" />
		<tag k="place" v="quarter" />
		<tag k="ssr:stedsnr" v="447914" />
	</node>
	<node lat="62.34584722275186" lon="6.870100002932241" id="-1626">
		<tag k="name" v="Berget" />
		<tag k="place" v="isolated_dwelling" />
		<tag k="ssr:stedsnr" v="455973" />
	</node>
	<node lat="62.17022221976129" lon="6.980841667960883" id="-1639">
		<tag k="name" v="Inste Åknessætra" />
		<tag k="place" v="locality" />
		<tag k="ssr:stedsnr" v="457080" />
	</node>
	<node lat="62.25396388970991" lon="6.994858324395325" id="-1649">
		<tag k="name" v="Lisætra" />
		<tag k="place" v="locality" />
		<tag k="ssr:stedsnr" v="457848" />
	</node>
	<node lat="62.085009991351065" lon="7.223498831311417" id="-1656">
		<tag k="alt_name" v="Flydal" />
		<tag k="fixme" v="consider place=hamlet" />
		<tag k="name" v="Flydalen" />
		<tag k="place" v="farm" />
		<tag k="ssr:stedsnr" v="678710" />
	</node>
	<node lat="62.31330333205212" lon="7.0118250545755245" id="-1657">
		<tag k="alt_name" v="Klevberg" />
		<tag k="fixme" v="consider place=hamlet" />
		<tag k="name" v="Kleberg" />
		<tag k="place" v="farm" />
		<tag k="ssr:stedsnr" v="679472" />
	</node>
	<node lat="62.17246666598017" lon="6.995772214521243" id="-1660">
		<tag k="name" v="Plassen" />
		<tag k="place" v="locality" />
		<tag k="ssr:stedsnr" v="678357" />
	</node>
	<node lat="62.31019167012871" lon="7.071219438965624" id="-1661">
		<tag k="fixme" v="consider place=hamlet" />
		<tag k="name" v="Liabygda" />
		<tag k="place" v="village" />
		<tag k="ssr:stedsnr" v="678618" />
	</node>
	<node lat="62.069366990868055" lon="6.93327960823742" id="-1664">
=======
<osm generator="osmapis" version="0.6">
	<node id="-66560" lat="62.144605552" lon="6.99963056136">
		<tag k="fixme" v="consider place=hamlet" />
		<tag k="name" v="Furneset" />
		<tag k="place" v="farm" />
		<tag k="ssr:stedsnr" v="72328" />
	</node>
	<node id="-67583" lat="62.2190138862" lon="6.82888888371">
		<tag k="name" v="Gøtsetra" />
		<tag k="place" v="locality" />
		<tag k="ssr:stedsnr" v="30164" />
	</node>
	<node id="-68094" lat="62.1013374778" lon="7.21535064489">
		<tag k="fixme" v="consider place=hamlet" />
		<tag k="name" v="Vesterås" />
		<tag k="place" v="farm" />
		<tag k="ssr:stedsnr" v="390939" />
	</node>
	<node id="-67580" lat="62.1154638864" lon="6.91077499126">
		<tag k="name" v="Kleivane" />
		<tag k="place" v="farm" />
		<tag k="ssr:stedsnr" v="22158" />
	</node>
	<node id="-68091" lat="62.277927776" lon="6.90482221675">
		<tag k="historic" v="shieling" />
		<tag k="name" v="Dregesætra" />
		<tag k="place" v="locality" />
		<tag k="ssr:stedsnr" v="375545" />
	</node>
	<node id="-67109" lat="62.2090717997" lon="6.92314376519">
		<tag k="fixme" v="consider place=hamlet" />
		<tag k="name" v="Overvollen" />
		<tag k="place" v="farm" />
		<tag k="ssr:stedsnr" v="556356" />
	</node>
	<node id="-68088" lat="62.3341000006" lon="7.0511083385">
		<tag k="historic" v="shieling" />
		<tag k="name" v="Stavsengsætra" />
		<tag k="place" v="locality" />
		<tag k="ssr:stedsnr" v="375474" />
	</node>
	<node id="-68087" lat="62.3091934794" lon="7.00720496673">
		<tag k="fixme" v="consider place=hamlet" />
		<tag k="name" v="Grova" />
		<tag k="place" v="farm" />
		<tag k="ssr:stedsnr" v="375591" />
	</node>
	<node id="-67574" lat="62.2727916647" lon="6.9140611071">
		<tag k="historic" v="shieling" />
		<tag k="name" v="Dalebotn" />
		<tag k="place" v="locality" />
		<tag k="ssr:stedsnr" v="11573" />
	</node>
	<node id="-67573" lat="62.2841750004" lon="6.98063611042">
		<tag k="loc_name" v="Sandvika" />
		<tag k="name" v="Sandvik" />
		<tag k="place" v="farm" />
		<tag k="ssr:stedsnr" v="11566" />
	</node>
	<node id="-68596" lat="62.3398611138" lon="6.87491389736">
		<tag k="fixme" v="multiple name tags, choose one and add the other to alt_name" />
		<tag k="name" v="Fausasætra;Sætra" />
		<tag k="place" v="isolated_dwelling" />
		<tag k="ssr:stedsnr" v="872946" />
	</node>
	<node id="-68083" lat="62.3039878258" lon="6.9541039134">
		<tag k="fixme" v="consider place=hamlet" />
		<tag k="name" v="Hagen" />
		<tag k="place" v="farm" />
		<tag k="ssr:stedsnr" v="375574" />
	</node>
	<node id="-67570" lat="62.0261699253" lon="7.01319416224">
		<tag k="name" v="Brekke" />
		<tag k="place" v="farm" />
		<tag k="ssr:stedsnr" v="11485" />
	</node>
	<node id="-68593" lat="62.2890408992" lon="6.96297551753">
		<tag k="fixme" v="consider place=hamlet" />
		<tag k="name" v="Skorbøen" />
		<tag k="place" v="farm" />
		<tag k="ssr:stedsnr" v="861546" />
	</node>
	<node id="-67056" lat="62.2936942266" lon="6.95784519798">
		<tag k="fixme" v="consider place=hamlet" />
		<tag k="name" v="Helsem" />
		<tag k="place" v="farm" />
		<tag k="ssr:stedsnr" v="679535" />
	</node>
	<node id="-68079" lat="62.1085361119" lon="6.90775833973">
		<tag k="name" v="Bjørkneset" />
		<tag k="place" v="locality" />
		<tag k="ssr:stedsnr" v="375341" />
	</node>
	<node id="-68588" lat="62.0335581552" lon="7.01044701191">
		<tag k="name" v="Bjørdal" />
		<tag k="place" v="hamlet" />
		<tag k="ssr:stedsnr" v="861424" />
	</node>
	<node id="-67562" lat="62.2449249984" lon="6.80390832536">
		<tag k="historic" v="shieling" />
		<tag k="name" v="Habostadsætra" />
		<tag k="place" v="locality" />
		<tag k="ssr:stedsnr" v="11258" />
	</node>
	<node id="-68073" lat="62.0466258826" lon="6.79961627787">
		<tag k="fixme" v="consider place=hamlet" />
		<tag k="name" v="Tronstadslettene" />
		<tag k="place" v="farm" />
		<tag k="ssr:stedsnr" v="375394" />
	</node>
	<node id="-67560" lat="62.1308249979" lon="7.11834443976">
		<tag k="name" v="Gomsdalen" />
		<tag k="place" v="locality" />
		<tag k="ssr:stedsnr" v="11369" />
	</node>
	<node id="-68071" lat="62.1607528802" lon="7.03094072563">
		<tag k="fixme" v="consider place=hamlet" />
		<tag k="name" v="Seljefloten" />
		<tag k="place" v="farm" />
		<tag k="ssr:stedsnr" v="375301" />
	</node>
	<node id="-67046" lat="62.0595102347" lon="6.93911336767">
		<tag k="fixme" v="consider place=hamlet" />
		<tag k="name" v="Hauge" />
		<tag k="place" v="farm" />
		<tag k="ssr:stedsnr" v="678472" />
	</node>
	<node id="-67557" lat="62.1286333327" lon="6.91617221982">
		<tag k="name" v="Ljøsætra" />
		<tag k="place" v="isolated_dwelling" />
		<tag k="ssr:stedsnr" v="11351" />
	</node>
	<node id="-66531" lat="62.1629861074" lon="7.04167778007">
		<tag k="historic" v="shieling" />
		<tag k="name" v="Stokkesætra" />
		<tag k="place" v="locality" />
		<tag k="ssr:stedsnr" v="11326" />
	</node>
	<node id="-67041" lat="62.132570642" lon="6.83301610709">
		<tag k="historic" v="shieling" />
		<tag k="name" v="Moldskreddalen" />
		<tag k="place" v="locality" />
		<tag k="ssr:stedsnr" v="678385" />
	</node>
	<node id="-68064" lat="62.1123499964" lon="7.26020277042">
		<tag k="historic" v="shieling" />
		<tag k="name" v="Vesteråssætra" />
		<tag k="place" v="locality" />
		<tag k="ssr:stedsnr" v="375056" />
	</node>
	<node id="-68063" lat="62.0765045491" lon="6.82110055439">
		<tag k="fixme" v="consider place=hamlet" />
		<tag k="name" v="Langeland" />
		<tag k="place" v="farm" />
		<tag k="ssr:stedsnr" v="374435" />
	</node>
	<node id="-68574" lat="62.0821388879" lon="6.9296499915">
		<tag k="historic" v="shieling" />
		<tag k="name" v="Vindholen" />
		<tag k="place" v="locality" />
		<tag k="ssr:stedsnr" v="860471" />
	</node>
	<node id="-68061" lat="62.1001500003" lon="7.1273388956">
		<tag k="name" v="Skagedalssætra" />
		<tag k="place" v="isolated_dwelling" />
		<tag k="ssr:stedsnr" v="374429" />
	</node>
	<node id="-68572" lat="62.1164743999" lon="7.18338453122">
		<tag k="fixme" v="consider place=hamlet" />
		<tag k="name" v="Grande" />
		<tag k="place" v="farm" />
		<tag k="ssr:stedsnr" v="860440" />
	</node>
	<node id="-66609" lat="62.3201278202" lon="7.0310015136">
		<tag k="historic" v="shieling" />
		<tag k="name" v="Ansoksætra" />
		<tag k="place" v="locality" />
		<tag k="ssr:stedsnr" v="254479" />
	</node>
	<node id="-67033" lat="62.3141750027" lon="7.06425000204">
		<tag k="name" v="Reitane" />
		<tag k="place" v="farm" />
		<tag k="ssr:stedsnr" v="455036" />
	</node>
	<node id="-66520" lat="62.0899248147" lon="6.84983583045">
		<tag k="fixme" v="consider place=hamlet" />
		<tag k="name" v="Øgarden" />
		<tag k="place" v="farm" />
		<tag k="ssr:stedsnr" v="217794" />
	</node>
	<node id="-68004" lat="62.0393972259" lon="7.00987500036">
		<tag k="name" v="Gjerdebakken" />
		<tag k="place" v="farm" />
		<tag k="ssr:stedsnr" v="333629" />
	</node>
	<node id="-67539" lat="62.0847456994" lon="6.8661944814">
		<tag k="fixme" v="consider place=hamlet" />
		<tag k="name" v="Hellesylt" />
		<tag k="place" v="farm" />
		<tag k="ssr:stedsnr" v="983410" />
	</node>
	<node id="-67687" lat="62.2894071049" lon="6.88686829379">
		<tag k="fixme" v="consider place=hamlet" />
		<tag k="name" v="Kjølen" />
		<tag k="place" v="farm" />
		<tag k="ssr:stedsnr" v="72560" />
	</node>
	<node id="-68003" lat="62.3249944475" lon="7.05814999308">
		<tag k="name" v="Bjørkheim" />
		<tag k="place" v="farm" />
		<tag k="ssr:stedsnr" v="333168" />
	</node>
	<node id="-66512" lat="62.285924999" lon="6.92635832748">
		<tag k="historic" v="shieling" />
		<tag k="name" v="Høgmyrhaugane" />
		<tag k="place" v="locality" />
		<tag k="ssr:stedsnr" v="217763" />
	</node>
	<node id="-67576" lat="62.2844277748" lon="6.92582777127">
		<tag k="historic" v="shieling" />
		<tag k="name" v="Heimerhaugane" />
		<tag k="old_name" v="Heimarhaugane" />
		<tag k="place" v="locality" />
		<tag k="ssr:stedsnr" v="11584" />
	</node>
	<node id="-67022" lat="62.2697716637" lon="6.88427619184">
		<tag k="fixme" v="consider place=hamlet" />
		<tag k="name" v="Sve" />
		<tag k="place" v="farm" />
		<tag k="ssr:stedsnr" v="436554" />
	</node>
	<node id="-67021" lat="62.1531706435" lon="6.9521296972">
		<tag k="name" v="Tindbjørgane" />
		<tag k="place" v="locality" />
		<tag k="ssr:stedsnr" v="436310" />
	</node>
	<node id="-67020" lat="62.1580159758" lon="7.03810153572">
		<tag k="alt_name" v="Midgarden" />
		<tag k="fixme" v="consider place=hamlet" />
		<tag k="name" v="Megarden" />
		<tag k="place" v="farm" />
		<tag k="ssr:stedsnr" v="436307" />
	</node>
	<node id="-68195" lat="62.305394444" lon="6.9280388864">
		<tag k="name" v="Klipe" />
		<tag k="place" v="farm" />
		<tag k="ssr:stedsnr" v="521842" />
	</node>
	<node id="-67575" lat="62.289133336" lon="6.84054443873">
		<tag k="historic" v="shieling" />
		<tag k="name" v="Fursetsætra" />
		<tag k="place" v="locality" />
		<tag k="ssr:stedsnr" v="11583" />
	</node>
	<node id="-67016" lat="62.0978560589" lon="6.75998636523">
		<tag k="alt_name" v="Sæter" />
		<tag k="fixme" v="consider place=hamlet" />
		<tag k="name" v="Sætra" />
		<tag k="place" v="farm" />
		<tag k="ssr:stedsnr" v="435450" />
	</node>
	<node id="-67526" lat="62.2899606389" lon="6.89594552993">
		<tag k="fixme" v="consider place=hamlet" />
		<tag k="name" v="Berge" />
		<tag k="place" v="farm" />
		<tag k="ssr:stedsnr" v="921614" />
	</node>
	<node id="-67489" lat="62.1334083324" lon="6.92895833064">
		<tag k="name" v="Litlesætra" />
		<tag k="place" v="locality" />
		<tag k="ssr:stedsnr" v="943800" />
	</node>
	<node id="-68547" lat="62.0447861149" lon="7.02443611556">
		<tag k="name" v="Heimstesetra" />
		<tag k="place" v="locality" />
		<tag k="ssr:stedsnr" v="821615" />
	</node>
	<node id="-66635" lat="62.3051083323" lon="7.13522500201">
		<tag k="name" v="Gamlestøylen" />
		<tag k="place" v="locality" />
		<tag k="ssr:stedsnr" v="273194" />
	</node>
	<node id="-67061" lat="62.215513892" lon="6.89229999976">
		<tag k="name" v="Framfjørstadsætra" />
		<tag k="place" v="isolated_dwelling" />
		<tag k="ssr:stedsnr" v="496304" />
	</node>
	<node id="-67648" lat="62.1039861124" lon="7.21004444259">
		<tag k="name" v="Tuftene" />
		<tag k="place" v="locality" />
		<tag k="ssr:stedsnr" v="35833" />
	</node>
	<node id="-67665" lat="62.0304166682" lon="7.27671666212">
		<tag k="fixme" v="consider tourism=alpine_hut or tourism=chalet" />
		<tag k="name" v="Djupvasshytta" />
		<tag k="ssr:stedsnr" v="71178" />
		<tag k="tourism" v="wilderness_hut" />
	</node>
	<node id="-67572" lat="62.016520828" lon="6.76438523868">
		<tag k="fixme" v="consider place=hamlet" />
		<tag k="name" v="Røyrhus" />
		<tag k="place" v="farm" />
		<tag k="ssr:stedsnr" v="11487" />
	</node>
	<node id="-67509" lat="62.3316861109" lon="7.0512055554">
		<tag k="historic" v="shieling" />
		<tag k="name" v="Gamlesætra" />
		<tag k="place" v="locality" />
		<tag k="ssr:stedsnr" v="861478" />
	</node>
	<node id="-68531" lat="62.2196777785" lon="6.90115000274">
		<tag k="name" v="Kvitleplassen" />
		<tag k="place" v="locality" />
		<tag k="ssr:stedsnr" v="819737" />
	</node>
	<node id="-67058" lat="62.2801541458" lon="6.87275672654">
		<tag k="name" v="Furset" />
		<tag k="place" v="hamlet" />
		<tag k="ssr:stedsnr" v="679549" />
	</node>
	<node id="-68522" lat="62.1737102873" lon="7.00165063344">
		<tag k="fixme" v="consider place=hamlet" />
		<tag k="name" v="Me-Åkerneset" />
		<tag k="place" v="farm" />
		<tag k="ssr:stedsnr" v="814337" />
	</node>
	<node id="-66984" lat="62.2611888859" lon="6.82875555422">
		<tag k="name" v="Helsemstølen" />
		<tag k="place" v="locality" />
		<tag k="ssr:stedsnr" v="516965" />
	</node>
	<node id="-68007" lat="62.0965305516" lon="6.86167221989">
		<tag k="name" v="Holten" />
		<tag k="place" v="isolated_dwelling" />
		<tag k="ssr:stedsnr" v="334262" />
	</node>
	<node id="-68518" lat="62.3310888925" lon="7.03427221476">
		<tag k="fixme" v="multiple name tags, choose one and add the other to alt_name" />
		<tag k="historic" v="shieling" />
		<tag k="name" v="Ringsetsetra;Ringsetsætra" />
		<tag k="place" v="locality" />
		<tag k="ssr:stedsnr" v="801490" />
	</node>
	<node id="-68517" lat="62.2618166551" lon="6.89432113044">
		<tag k="fixme" v="consider place=hamlet" />
		<tag k="name" v="Habostad" />
		<tag k="place" v="farm" />
		<tag k="ssr:stedsnr" v="800917" />
	</node>
	<node id="-68516" lat="62.2594500019" lon="6.83733333065">
		<tag k="historic" v="shieling" />
		<tag k="name" v="Svefonna" />
		<tag k="place" v="locality" />
		<tag k="ssr:stedsnr" v="800915" />
	</node>
	<node id="-68515" lat="62.253275003" lon="6.97134166385">
		<tag k="historic" v="shieling" />
		<tag k="name" v="Vassetsætra" />
		<tag k="place" v="locality" />
		<tag k="ssr:stedsnr" v="800912" />
	</node>
	<node id="-68002" lat="62.3144666699" lon="7.08929443959">
		<tag k="name" v="Nakkesetra" />
		<tag k="place" v="locality" />
		<tag k="ssr:stedsnr" v="333146" />
	</node>
	<node id="-68513" lat="62.3109684787" lon="6.91327155311">
		<tag k="fixme" v="consider place=hamlet" />
		<tag k="name" v="Langlo" />
		<tag k="place" v="farm" />
		<tag k="ssr:stedsnr" v="800627" />
	</node>
	<node id="-68512" lat="62.3130648925" lon="7.05966023415">
		<tag k="fixme" v="consider place=hamlet" />
		<tag k="name" v="Li" />
		<tag k="place" v="farm" />
		<tag k="ssr:stedsnr" v="800624" />
	</node>
	<node id="-68510" lat="62.2840898454" lon="6.97030329244">
		<tag k="alt_name" v="Hessegjerdet" />
		<tag k="fixme" v="consider place=hamlet" />
		<tag k="name" v="Hessgjerdet" />
		<tag k="place" v="farm" />
		<tag k="ssr:stedsnr" v="800596" />
	</node>
	<node id="-68509" lat="62.2788447666" lon="6.88961389983">
		<tag k="alt_name" v="Øvste Rystene" />
		<tag k="name" v="Rustene" />
		<tag k="place" v="farm" />
		<tag k="ssr:stedsnr" v="800590" />
	</node>
	<node id="-68508" lat="62.2830257107" lon="6.98193094105">
		<tag k="fixme" v="consider place=hamlet" />
		<tag k="name" v="Uksvika" />
		<tag k="place" v="farm" />
		<tag k="ssr:stedsnr" v="800566" />
	</node>
	<node id="-66999" lat="62.0648138918" lon="7.25673332748">
		<tag k="name" v="Kleivasætra" />
		<tag k="place" v="locality" />
		<tag k="ssr:stedsnr" v="517971" />
	</node>
	<node id="-67567" lat="62.0423750009" lon="7.095744442">
		<tag k="fixme" v="multiple name tags, choose one and add the other to alt_name" />
		<tag k="name" v="Bjørdalssætra;Bjørdalstølen" />
		<tag k="place" v="isolated_dwelling" />
		<tag k="ssr:stedsnr" v="11459" />
	</node>
	<node id="-67992" lat="62.2860289694" lon="6.89917066012">
		<tag k="fixme" v="consider place=hamlet" />
		<tag k="name" v="Drege" />
		<tag k="place" v="farm" />
		<tag k="ssr:stedsnr" v="315561" />
	</node>
	<node id="-67989" lat="62.3053462075" lon="6.93607310815">
		<tag k="alt_name" v="Hjelle" />
		<tag k="fixme" v="consider place=hamlet" />
		<tag k="name" v="Hjellane" />
		<tag k="place" v="farm" />
		<tag k="ssr:stedsnr" v="314643" />
	</node>
	<node id="-68500" lat="62.0180439951" lon="6.93698896224">
		<tag k="alt_name" v="Frøysadal" />
		<tag k="fixme" v="consider place=hamlet" />
		<tag k="name" v="Frøysadalen" />
		<tag k="place" v="farm" />
		<tag k="ssr:stedsnr" v="800468" />
	</node>
	<node id="-68497" lat="62.0803209165" lon="6.88132794299">
		<tag k="fixme" v="consider place=hamlet" />
		<tag k="name" v="Korsbrekke" />
		<tag k="place" v="farm" />
		<tag k="ssr:stedsnr" v="800400" />
	</node>
	<node id="-67983" lat="62.0448720566" lon="6.78298614653">
		<tag k="fixme" v="consider place=hamlet" />
		<tag k="name" v="Kjellstad" />
		<tag k="place" v="farm" />
		<tag k="ssr:stedsnr" v="314496" />
	</node>
	<node id="-68494" lat="62.2554638852" lon="6.97799167197">
		<tag k="alt_name" v="Uksagsætra" />
		<tag k="historic" v="shieling" />
		<tag k="name" v="Uksagsætra" />
		<tag k="place" v="locality" />
		<tag k="ssr:stedsnr" v="799925" />
	</node>
	<node id="-68493" lat="62.0961888915" lon="7.24471111895">
		<tag k="historic" v="shieling" />
		<tag k="name" v="Grinddalssætra" />
		<tag k="place" v="locality" />
		<tag k="ssr:stedsnr" v="800103" />
	</node>
	<node id="-67980" lat="62.1406916629" lon="7.08434999449">
		<tag k="name" v="Storvasshytta" />
		<tag k="place" v="isolated_dwelling" />
		<tag k="ssr:stedsnr" v="314396" />
	</node>
	<node id="-66955" lat="62.2633250019" lon="6.81345276932">
		<tag k="name" v="Øvstesætra" />
		<tag k="place" v="isolated_dwelling" />
		<tag k="ssr:stedsnr" v="375915" />
	</node>
	<node id="-66954" lat="62.2527642873" lon="6.8910105989">
		<tag k="fixme" v="consider place=hamlet" />
		<tag k="name" v="Myklebust" />
		<tag k="place" v="farm" />
		<tag k="ssr:stedsnr" v="375904" />
	</node>
	<node id="-68489" lat="62.3563591581" lon="6.86248153221">
		<tag k="fixme" v="consider place=hamlet" />
		<tag k="name" v="Stigane" />
		<tag k="old_name" v="Fremmerfausa" />
		<tag k="place" v="farm" />
		<tag k="ssr:stedsnr" v="799722" />
	</node>
	<node id="-67976" lat="62.2416723517" lon="7.00121700247">
		<tag k="name" v="Duken" />
		<tag k="place" v="locality" />
		<tag k="ssr:stedsnr" v="314298" />
	</node>
	<node id="-67052" lat="62.3066455625" lon="6.94137436386">
>>>>>>> e1d4bc35ff8a6074a6f2e91616a996b547c36f15
		<tag k="fixme" v="consider place=hamlet" />
		<tag k="name" v="Os" />
		<tag k="place" v="farm" />
		<tag k="ssr:stedsnr" v="678624" />
	</node>
<<<<<<< HEAD
	<node lat="62.08166206961279" lon="7.0358773065449745" id="-1665">
		<tag k="fixme" v="multiple name tags, choose one and add the other to alt_name; consider place=hamlet" />
		<tag k="name" v="Blomberg;Holten" />
		<tag k="place" v="farm" />
		<tag k="ssr:stedsnr" v="678466" />
	</node>
	<node lat="62.05951023468094" lon="6.939113367670393" id="-1666">
		<tag k="fixme" v="consider place=hamlet" />
		<tag k="name" v="Hauge" />
		<tag k="place" v="farm" />
		<tag k="ssr:stedsnr" v="678472" />
	</node>
	<node lat="62.26717698496552" lon="6.839099826429991" id="-1667">
		<tag k="fixme" v="consider place=hamlet" />
		<tag k="name" v="Arneberg" />
		<tag k="place" v="farm" />
		<tag k="ssr:stedsnr" v="678559" />
	</node>
	<node lat="62.29369422663036" lon="6.957845197979162" id="-1669">
		<tag k="fixme" v="consider place=hamlet" />
		<tag k="name" v="Helsem" />
		<tag k="place" v="farm" />
		<tag k="ssr:stedsnr" v="679535" />
	</node>
	<node lat="62.27774999990413" lon="6.94112778577422" id="-1670">
		<tag k="historic" v="shieling" />
		<tag k="name" v="Smørhola" />
		<tag k="place" v="isolated_dwelling" />
		<tag k="ssr:stedsnr" v="679541" />
	</node>
	<node lat="62.280154145816795" lon="6.872756726544754" id="-1671">
		<tag k="name" v="Furset" />
		<tag k="place" v="hamlet" />
		<tag k="ssr:stedsnr" v="679549" />
	</node>
	<node lat="62.322347219243305" lon="6.988805555619382" id="-1672">
		<tag k="historic" v="shieling" />
		<tag k="name" v="Klebergsætra" />
		<tag k="place" v="isolated_dwelling" />
		<tag k="ssr:stedsnr" v="679456" />
	</node>
	<node lat="62.32389167111987" lon="7.079663884185169" id="-1673">
		<tag k="alt_name" v="Lisetra" />
		<tag k="historic" v="shieling" />
		<tag k="name" v="Liasætra" />
		<tag k="place" v="isolated_dwelling" />
		<tag k="ssr:stedsnr" v="679460" />
	</node>
	<node lat="62.215513891959404" lon="6.8922999997550844" id="-1675">
		<tag k="name" v="Framfjørstadsætra" />
		<tag k="place" v="isolated_dwelling" />
		<tag k="ssr:stedsnr" v="496304" />
	</node>
	<node lat="62.134868184661876" lon="7.192462399703585" id="-1679">
		<tag k="name" v="Grandesætra" />
		<tag k="place" v="isolated_dwelling" />
		<tag k="ssr:stedsnr" v="496403" />
	</node>
	<node lat="62.085325003272985" lon="7.216974995084844" id="-1684">
		<tag k="name" v="Flydal" />
		<tag k="place" v="farm" />
		<tag k="ssr:stedsnr" v="496462" />
	</node>
	<node lat="62.28706665133977" lon="6.96800246887401" id="-1685">
		<tag k="alt_name" v="Vike" />
		<tag k="fixme" v="consider place=hamlet" />
		<tag k="name" v="Vikane" />
		<tag k="place" v="farm" />
		<tag k="ssr:stedsnr" v="496607" />
	</node>
	<node lat="62.254531021546704" lon="6.899789184620119" id="-1688">
		<tag k="fixme" v="consider place=hamlet" />
		<tag k="name" v="Helstad" />
		<tag k="place" v="farm" />
		<tag k="ssr:stedsnr" v="496900" />
	</node>
	<node lat="62.26118888594353" lon="6.828755554223602" id="-1697">
		<tag k="name" v="Helsemstølen" />
		<tag k="place" v="locality" />
		<tag k="ssr:stedsnr" v="516965" />
	</node>
	<node lat="62.15336388828154" lon="7.046641665605862" id="-1699">
		<tag k="name" v="Dammen" />
		<tag k="place" v="isolated_dwelling" />
		<tag k="ssr:stedsnr" v="517306" />
	</node>
	<node lat="62.064813891799574" lon="7.256733327480307" id="-1705">
		<tag k="name" v="Kleivasætra" />
		<tag k="place" v="locality" />
		<tag k="ssr:stedsnr" v="517971" />
	</node>
	<node lat="62.29441944287024" lon="6.903483328705242" id="-1716">
		<tag k="name" v="Korsbakken" />
		<tag k="place" v="farm" />
		<tag k="ssr:stedsnr" v="521816" />
	</node>
	<node lat="62.305263891536626" lon="6.901477778727362" id="-1719">
		<tag k="name" v="Storgjerdet" />
		<tag k="place" v="farm" />
		<tag k="ssr:stedsnr" v="521840" />
	</node>
	<node lat="62.11643854268679" lon="6.914174639997102" id="-1728">
		<tag k="fixme" v="consider place=hamlet" />
		<tag k="name" v="Øvre Ljøen" />
		<tag k="place" v="farm" />
		<tag k="ssr:stedsnr" v="557352" />
	</node>
	<node lat="62.10961777005443" lon="6.738141896270159" id="-1731">
		<tag k="fixme" v="consider place=hamlet" />
		<tag k="name" v="Fivelstadhaugen" />
		<tag k="place" v="farm" />
		<tag k="ssr:stedsnr" v="557362" />
	</node>
	<node lat="62.180863846718516" lon="7.013360276411346" id="-1735">
		<tag k="name" v="Ytste Åkerneset" />
		<tag k="place" v="farm" />
		<tag k="ssr:stedsnr" v="691443" />
	</node>
	<node lat="62.31341944656318" lon="7.052172228532929" id="-1740">
		<tag k="name" v="Bakken" />
=======
	<node id="-68486" lat="62.2024027754" lon="6.82097222735">
		<tag k="historic" v="shieling" />
		<tag k="name" v="Instesætra" />
		<tag k="place" v="locality" />
		<tag k="ssr:stedsnr" v="799327" />
	</node>
	<node id="-66949" lat="62.3004507086" lon="6.94720025911">
		<tag k="alt_name" v="Kjølvås" />
		<tag k="fixme" v="consider place=hamlet" />
		<tag k="name" v="Kjølås" />
		<tag k="place" v="farm" />
		<tag k="ssr:stedsnr" v="375556" />
	</node>
	<node id="-68483" lat="61.9958972206" lon="7.04185277096">
		<tag k="historic" v="shieling" />
		<tag k="name" v="Nedstevassætra" />
		<tag k="place" v="locality" />
		<tag k="ssr:stedsnr" v="798382" />
	</node>
	<node id="-66946" lat="62.0381821823" lon="6.99932158123">
		<tag k="fixme" v="consider place=hamlet" />
		<tag k="name" v="Hole" />
		<tag k="place" v="farm" />
		<tag k="ssr:stedsnr" v="375421" />
	</node>
	<node id="-67968" lat="62.2087083368" lon="6.82311112041">
		<tag k="historic" v="shieling" />
		<tag k="name" v="Rødsetstølen" />
		<tag k="place" v="locality" />
		<tag k="ssr:stedsnr" v="314327" />
	</node>
	<node id="-68160" lat="62.142597225" lon="7.17927777339">
		<tag k="historic" v="shieling" />
		<tag k="name" v="Resstølen" />
		<tag k="place" v="locality" />
		<tag k="ssr:stedsnr" v="399575" />
	</node>
	<node id="-66942" lat="62.2469530965" lon="6.8936270032">
		<tag k="fixme" v="consider place=hamlet" />
		<tag k="name" v="Øye" />
		<tag k="place" v="farm" />
		<tag k="ssr:stedsnr" v="375211" />
	</node>
	<node id="-67965" lat="62.0695597094" lon="7.25233462978">
		<tag k="fixme" v="consider place=hamlet" />
		<tag k="name" v="Opplendskedalen" />
		<tag k="place" v="farm" />
		<tag k="ssr:stedsnr" v="314098" />
	</node>
	<node id="-67050" lat="62.2998777745" lon="6.91853332406">
		<tag k="alt_name" v="Framhusreitane" />
		<tag k="name" v="Reitane" />
		<tag k="place" v="farm" />
		<tag k="ssr:stedsnr" v="678586" />
	</node>
	<node id="-67450" lat="62.2799361112" lon="6.88594445257">
		<tag k="name" v="Rysteplassen" />
		<tag k="place" v="farm" />
		<tag k="ssr:stedsnr" v="941995" />
	</node>
	<node id="-66937" lat="62.2211077046" lon="6.9149198041">
		<tag k="fixme" v="multiple name tags, choose one and add the other to alt_name; consider place=hamlet" />
		<tag k="name" v="Fram-Fjørstad;Fjørstad" />
		<tag k="place" v="farm" />
		<tag k="ssr:stedsnr" v="374310" />
	</node>
	<node id="-67988" lat="62.3114027748" lon="7.05120834163">
		<tag k="name" v="Brauta" />
		<tag k="place" v="farm" />
		<tag k="ssr:stedsnr" v="314640" />
	</node>
	<node id="-66933" lat="62.2545310215" lon="6.89978918462">
		<tag k="fixme" v="consider place=hamlet" />
		<tag k="name" v="Helstad" />
		<tag k="place" v="farm" />
		<tag k="ssr:stedsnr" v="496900" />
	</node>
	<node id="-66932" lat="62.2487282727" lon="6.90531780349">
		<tag k="fixme" v="consider place=hamlet" />
		<tag k="name" v="Gjerde" />
		<tag k="place" v="farm" />
		<tag k="ssr:stedsnr" v="496647" />
	</node>
	<node id="-67442" lat="62.2746555576" lon="6.86068611137">
		<tag k="name" v="Nordlia" />
		<tag k="place" v="isolated_dwelling" />
		<tag k="ssr:stedsnr" v="941572" />
	</node>
	<node id="-67440" lat="62.2514222233" lon="6.89434167282">
		<tag k="name" v="Nesheim" />
>>>>>>> e1d4bc35ff8a6074a6f2e91616a996b547c36f15
		<tag k="place" v="farm" />
		<tag k="ssr:stedsnr" v="941328" />
	</node>
<<<<<<< HEAD
	<node lat="62.070299996159655" lon="6.934227783459222" id="-1750">
		<tag k="name" v="Hellebostad" />
		<tag k="place" v="farm" />
		<tag k="ssr:stedsnr" v="577615" />
	</node>
	<node lat="62.083072218976056" lon="7.225066657764939" id="-1754">
		<tag k="name" v="Haugane" />
		<tag k="place" v="farm" />
		<tag k="ssr:stedsnr" v="578058" />
	</node>
	<node lat="62.165205558728864" lon="6.921086105869635" id="-1756">
		<tag k="name" v="Ruppen" />
		<tag k="place" v="farm" />
		<tag k="ssr:stedsnr" v="578150" />
	</node>
	<node lat="62.28412222197446" lon="6.877774993175421" id="-1769">
		<tag k="name" v="Vollane" />
=======
	<node id="-66926" lat="62.0883055596" lon="6.84584443607">
		<tag k="name" v="Nybø" />
		<tag k="place" v="isolated_dwelling" />
		<tag k="ssr:stedsnr" v="496432" />
	</node>
	<node id="-66925" lat="62.0924583301" lon="6.85503610737">
		<tag k="name" v="Humlemyra" />
		<tag k="place" v="farm" />
		<tag k="ssr:stedsnr" v="496431" />
	</node>
	<node id="-67187" lat="62.314966669" lon="7.04751944456">
		<tag k="name" v="Øvre Ringset" />
		<tag k="place" v="farm" />
		<tag k="ssr:stedsnr" v="665114" />
	</node>
	<node id="-67945" lat="62.2172999994" lon="6.91726944537">
		<tag k="name" v="Lillebø" />
>>>>>>> e1d4bc35ff8a6074a6f2e91616a996b547c36f15
		<tag k="place" v="farm" />
		<tag k="ssr:stedsnr" v="214784" />
	</node>
<<<<<<< HEAD
	<node lat="62.085397226634356" lon="7.216172215689682" id="-1774">
		<tag k="name" v="Gjerdet" />
		<tag k="place" v="farm" />
		<tag k="ssr:stedsnr" v="699220" />
	</node>
	<node lat="62.234233330817716" lon="6.860322223648863" id="-1779">
		<tag k="name" v="Litlestølen" />
		<tag k="place" v="locality" />
		<tag k="ssr:stedsnr" v="699449" />
	</node>
	<node lat="62.235072224947835" lon="6.918063890345816" id="-1783">
		<tag k="barrier" v="fence" />
		<tag k="name" v="Grøtgarden" />
		<tag k="ssr:stedsnr" v="699857" />
	</node>
	<node lat="62.22632222328551" lon="6.840744452082211" id="-1798">
		<tag k="name" v="Mesætra" />
		<tag k="place" v="isolated_dwelling" />
		<tag k="ssr:stedsnr" v="617316" />
	</node>
	<node lat="62.22281273823087" lon="6.907326815353091" id="-1799">
		<tag k="fixme" v="consider place=hamlet" />
		<tag k="name" v="Emdalen" />
		<tag k="place" v="farm" />
		<tag k="ssr:stedsnr" v="617321" />
	</node>
	<node lat="62.11218889284468" lon="7.133172228780264" id="-1801">
		<tag k="historic" v="shieling" />
		<tag k="name" v="Homlungsætra" />
		<tag k="place" v="isolated_dwelling" />
		<tag k="ssr:stedsnr" v="617413" />
	</node>
	<node lat="62.308636113351874" lon="6.937166674380789" id="-1810">
		<tag k="name" v="Stranda" />
		<tag k="place" v="village" />
		<tag k="ssr:stedsnr" v="618607" />
	</node>
	<node lat="62.29569722553376" lon="6.9019083395082115" id="-1813">
		<tag k="name" v="Sløgstad" />
		<tag k="place" v="farm" />
		<tag k="ssr:stedsnr" v="618576" />
	</node>
	<node lat="62.277058331986694" lon="6.9421277703407105" id="-1816">
		<tag k="historic" v="shieling" />
		<tag k="name" v="Helsemsetra" />
		<tag k="place" v="isolated_dwelling" />
		<tag k="ssr:stedsnr" v="702716" />
	</node>
	<node lat="62.28908888595142" lon="6.9064222290020485" id="-1820">
		<tag k="name" v="Neset" />
		<tag k="place" v="farm" />
		<tag k="ssr:stedsnr" v="703828" />
	</node>
	<node lat="62.09845446332295" lon="7.210273168333831" id="-1821">
		<tag k="fixme" v="consider place=hamlet" />
		<tag k="name" v="Vinje" />
		<tag k="place" v="farm" />
		<tag k="ssr:stedsnr" v="629211" />
	</node>
	<node lat="62.27714544183267" lon="6.870235049798607" id="-1828">
		<tag k="fixme" v="consider place=hamlet" />
		<tag k="name" v="Nedre Furset" />
=======
	<node id="-66920" lat="62.1348681847" lon="7.1924623997">
		<tag k="name" v="Grandesætra" />
		<tag k="place" v="isolated_dwelling" />
		<tag k="ssr:stedsnr" v="496403" />
	</node>
	<node id="-68452" lat="62.1144472222" lon="7.10576112049">
		<tag k="name" v="Knivsnaustet" />
		<tag k="place" v="locality" />
		<tag k="ssr:stedsnr" v="760627" />
	</node>
	<node id="-66915" lat="62.0423176215" lon="6.78605061982">
		<tag k="fixme" v="consider place=hamlet" />
		<tag k="name" v="Tronstad" />
		<tag k="place" v="farm" />
		<tag k="ssr:stedsnr" v="496495" />
	</node>
	<node id="-66980" lat="62.2647361142" lon="6.86431111551">
		<tag k="name" v="Litlebrauta" />
		<tag k="place" v="isolated_dwelling" />
		<tag k="ssr:stedsnr" v="516551" />
	</node>
	<node id="-68446" lat="62.0772083377" lon="6.93165000152">
		<tag k="name" v="Litlesætra" />
		<tag k="place" v="locality" />
		<tag k="ssr:stedsnr" v="760267" />
	</node>
	<node id="-68114" lat="62.1087694466" lon="6.74389443965">
		<tag k="name" v="Lundheim" />
		<tag k="place" v="isolated_dwelling" />
		<tag k="ssr:stedsnr" v="395609" />
	</node>
	<node id="-68442" lat="62.0529111125" lon="6.79065833883">
		<tag k="name" v="Strandhaugen" />
		<tag k="place" v="farm" />
		<tag k="ssr:stedsnr" v="759792" />
	</node>
	<node id="-67924" lat="62.2428361074" lon="6.79773611071">
		<tag k="name" v="Grusstølen" />
		<tag k="place" v="locality" />
		<tag k="ssr:stedsnr" v="213540" />
	</node>
	<node id="-66958" lat="62.3233861124" lon="7.07451388355">
		<tag k="historic" v="shieling" />
		<tag k="name" v="Nedstestølen" />
		<tag k="place" v="locality" />
		<tag k="ssr:stedsnr" v="394119" />
	</node>
	<node id="-68434" lat="62.0979277786" lon="6.76563055767">
		<tag k="name" v="Tuftene" />
		<tag k="place" v="locality" />
		<tag k="ssr:stedsnr" v="759619" />
	</node>
	<node id="-67896" lat="62.0667644638" lon="6.93593603618">
		<tag k="fixme" v="consider place=hamlet" />
		<tag k="name" v="Øye" />
		<tag k="place" v="farm" />
		<tag k="ssr:stedsnr" v="193453" />
	</node>
	<node id="-67559" lat="62.1209083362" lon="6.91977777453">
		<tag k="name" v="Ljøbakken" />
		<tag k="place" v="farm" />
		<tag k="ssr:stedsnr" v="11364" />
	</node>
	<node id="-67403" lat="62.0357805558" lon="6.76351388865">
		<tag k="name" v="Solheim" />
>>>>>>> e1d4bc35ff8a6074a6f2e91616a996b547c36f15
		<tag k="place" v="farm" />
		<tag k="ssr:stedsnr" v="821377" />
	</node>
<<<<<<< HEAD
	<node lat="62.242550894951734" lon="6.909200157907392" id="-1873">
		<tag k="fixme" v="consider place=hamlet" />
		<tag k="name" v="Rødset" />
		<tag k="place" v="farm" />
		<tag k="ssr:stedsnr" v="678285" />
	</node>
	<node lat="62.10956266587243" lon="7.096612472232256" id="-1874">
		<tag k="fixme" v="consider place=hamlet" />
		<tag k="name" v="Knivsflå" />
		<tag k="place" v="farm" />
		<tag k="ssr:stedsnr" v="678410" />
	</node>
	<node lat="62.123146848909066" lon="7.17375023435842" id="-1876">
		<tag k="fixme" v="consider place=hamlet" />
		<tag k="name" v="Årset" />
		<tag k="place" v="farm" />
		<tag k="ssr:stedsnr" v="678417" />
	</node>
	<node lat="62.306645562517645" lon="6.941374363859888" id="-1881">
		<tag k="fixme" v="consider place=hamlet" />
		<tag k="name" v="Os" />
		<tag k="place" v="farm" />
		<tag k="ssr:stedsnr" v="678624" />
	</node>
	<node lat="62.13257064204029" lon="6.833016107091285" id="-1883">
		<tag k="historic" v="shieling" />
		<tag k="name" v="Moldskreddalen" />
		<tag k="place" v="isolated_dwelling" />
		<tag k="ssr:stedsnr" v="678385" />
	</node>
	<node lat="62.2998777745462" lon="6.918533324064553" id="-1886">
		<tag k="alt_name" v="Framhusreitane" />
		<tag k="name" v="Reitane" />
		<tag k="place" v="farm" />
		<tag k="ssr:stedsnr" v="678586" />
	</node>
	<node lat="62.09952499897255" lon="7.068188882977027" id="-1889">
		<tag k="name" v="Megardsplassen" />
		<tag k="place" v="locality" />
		<tag k="ssr:stedsnr" v="690895" />
	</node>
	<node lat="62.29573333124478" lon="6.833763888500095" id="-1890">
		<tag k="alt_name" v="Hevsdalssætra" />
		<tag k="historic" v="shieling" />
		<tag k="name" v="Hevsdalen" />
		<tag k="place" v="isolated_dwelling" />
		<tag k="ssr:stedsnr" v="690931" />
	</node>
	<node lat="62.133013892581374" lon="6.830838896809942" id="-1896">
		<tag k="name" v="Dalen" />
		<tag k="place" v="isolated_dwelling" />
		<tag k="ssr:stedsnr" v="698713" />
	</node>
	<node lat="61.98996666565356" lon="7.042119453081746" id="-1906">
		<tag k="name" v="Skavlen" />
		<tag k="place" v="isolated_dwelling" />
		<tag k="ssr:stedsnr" v="699964" />
	</node>
	<node lat="62.10269701817459" lon="6.851151431989967" id="-1924">
		<tag k="name" v="Bruene" />
		<tag k="old_name" v="Brua" />
		<tag k="place" v="locality" />
		<tag k="ssr:stedsnr" v="738401" />
	</node>
	<node lat="62.18620755179348" lon="6.927738093258032" id="-1929">
		<tag k="fixme" v="consider place=hamlet" />
		<tag k="name" v="Røyr" />
		<tag k="place" v="farm" />
		<tag k="ssr:stedsnr" v="739300" />
	</node>
	<node lat="62.305445200586114" lon="7.09436887357165" id="-1933">
		<tag k="fixme" v="consider place=hamlet" />
		<tag k="name" v="Ovrå" />
		<tag k="place" v="farm" />
		<tag k="ssr:stedsnr" v="739623" />
	</node>
	<node lat="62.26157222106345" lon="6.823733342575542" id="-1936">
		<tag k="fixme" v="multiple name tags, choose one and add the other to alt_name" />
		<tag k="historic" v="shieling" />
		<tag k="name" v="Litlesætra;Engesetsætra" />
		<tag k="place" v="isolated_dwelling" />
		<tag k="ssr:stedsnr" v="739905" />
	</node>
	<node lat="62.31678055174799" lon="7.049838896540644" id="-1940">
		<tag k="name" v="Plassen" />
		<tag k="place" v="farm" />
		<tag k="ssr:stedsnr" v="758945" />
	</node>
	<node lat="62.0848527734604" lon="7.209566659141099" id="-1946">
		<tag k="name" v="Klonken" />
		<tag k="place" v="isolated_dwelling" />
		<tag k="ssr:stedsnr" v="760261" />
	</node>
	<node lat="62.356359158107274" lon="6.862481532208215" id="-1972">
		<tag k="fixme" v="consider place=hamlet" />
		<tag k="name" v="Stigane" />
		<tag k="old_name" v="Fremmerfausa" />
		<tag k="place" v="farm" />
		<tag k="ssr:stedsnr" v="799722" />
	</node>
	<node lat="62.09618889153345" lon="7.244711118949987" id="-1974">
		<tag k="historic" v="shieling" />
		<tag k="name" v="Grinddalssætra" />
		<tag k="place" v="isolated_dwelling" />
		<tag k="ssr:stedsnr" v="800103" />
	</node>
	<node lat="62.07347768024313" lon="6.904715233298671" id="-1977">
		<tag k="fixme" v="consider place=hamlet" />
		<tag k="name" v="Stadheim" />
		<tag k="place" v="farm" />
		<tag k="ssr:stedsnr" v="800430" />
	</node>
	<node lat="62.0538904137833" lon="6.944131518298291" id="-1979">
		<tag k="fixme" v="consider place=hamlet" />
		<tag k="name" v="Helset" />
		<tag k="place" v="farm" />
		<tag k="ssr:stedsnr" v="800445" />
	</node>
	<node lat="62.08032091651574" lon="6.881327942987843" id="-1989">
		<tag k="fixme" v="consider place=hamlet" />
		<tag k="name" v="Korsbrekke" />
		<tag k="place" v="farm" />
		<tag k="ssr:stedsnr" v="800400" />
	</node>
	<node lat="62.31306489253211" lon="7.059660234148755" id="-1994">
		<tag k="fixme" v="consider place=hamlet" />
		<tag k="name" v="Li" />
		<tag k="place" v="farm" />
		<tag k="ssr:stedsnr" v="800624" />
	</node>
	<node lat="62.31096847865492" lon="6.913271553109753" id="-1995">
		<tag k="fixme" v="consider place=hamlet" />
		<tag k="name" v="Langlo" />
		<tag k="place" v="farm" />
		<tag k="ssr:stedsnr" v="800627" />
	</node>
	<node lat="62.27884476660852" lon="6.889613899832435" id="-1996">
		<tag k="alt_name" v="Øvste Rystene" />
		<tag k="name" v="Rustene" />
		<tag k="place" v="farm" />
		<tag k="ssr:stedsnr" v="800590" />
	</node>
	<node lat="62.28408984537036" lon="6.9703032924387776" id="-1997">
		<tag k="alt_name" v="Hessegjerdet" />
		<tag k="fixme" v="consider place=hamlet" />
		<tag k="name" v="Hessgjerdet" />
		<tag k="place" v="farm" />
		<tag k="ssr:stedsnr" v="800596" />
	</node>
	<node lat="62.331088892466234" lon="7.034272214761427" id="-1998">
		<tag k="fixme" v="multiple name tags, choose one and add the other to alt_name" />
		<tag k="historic" v="shieling" />
		<tag k="name" v="Ringsetsætra;Ringsetsetra" />
		<tag k="place" v="isolated_dwelling" />
		<tag k="ssr:stedsnr" v="801490" />
	</node>
	<node lat="62.07734444110661" lon="6.827352777675241" id="-2013">
		<tag k="name" v="Gjerdet" />
		<tag k="place" v="farm" />
		<tag k="ssr:stedsnr" v="820616" />
	</node>
	<node lat="62.12384694397501" lon="7.11971661900276" id="-2038">
		<tag k="name" v="Bringa" />
		<tag k="place" v="locality" />
		<tag k="ssr:stedsnr" v="921411" />
	</node>
	<node lat="62.09543669715037" lon="6.856206271913029" id="-2040">
		<tag k="fixme" v="consider place=hamlet" />
		<tag k="name" v="Ringdalen" />
		<tag k="place" v="farm" />
		<tag k="ssr:stedsnr" v="921428" />
	</node>
	<node lat="62.07317901517649" lon="6.819163006789442" id="-2042">
		<tag k="fixme" v="consider place=hamlet" />
		<tag k="name" v="Karbø" />
		<tag k="place" v="farm" />
		<tag k="ssr:stedsnr" v="921471" />
	</node>
	<node lat="62.050199996929365" lon="6.912649994083241" id="-2043">
		<tag k="historic" v="shieling" />
		<tag k="name" v="Haugestølen" />
		<tag k="place" v="isolated_dwelling" />
		<tag k="ssr:stedsnr" v="921473" />
	</node>
	<node lat="62.01782777928688" lon="7.002105546090051" id="-2045">
		<tag k="historic" v="shieling" />
		<tag k="name" v="Fedalssætra" />
		<tag k="place" v="isolated_dwelling" />
		<tag k="ssr:stedsnr" v="921501" />
	</node>
	<node lat="62.28996063894288" lon="6.895945529934144" id="-2047">
		<tag k="fixme" v="consider place=hamlet" />
		<tag k="name" v="Berge" />
		<tag k="place" v="farm" />
		<tag k="ssr:stedsnr" v="921614" />
	</node>
	<node lat="62.08213888787778" lon="6.929649991504876" id="-2058">
		<tag k="historic" v="shieling" />
		<tag k="name" v="Vindholen" />
		<tag k="place" v="isolated_dwelling" />
		<tag k="ssr:stedsnr" v="860471" />
	</node>
	<node lat="62.0335581552067" lon="7.010447011912319" id="-2066">
		<tag k="name" v="Bjørdal" />
		<tag k="place" v="hamlet" />
		<tag k="ssr:stedsnr" v="861424" />
	</node>
	<node lat="62.33964999944282" lon="6.917488896665282" id="-2076">
		<tag k="name" v="Skotsknutplassen" />
		<tag k="place" v="locality" />
		<tag k="ssr:stedsnr" v="880901" />
	</node>
	<node lat="62.126438890777024" lon="6.734386108690283" id="-2078">
		<tag k="name" v="Longskredstølen" />
		<tag k="place" v="locality" />
		<tag k="ssr:stedsnr" v="881058" />
	</node>
	<node lat="62.238677774379454" lon="6.911147224445583" id="-2081">
		<tag k="name" v="Sakrisplassen" />
		<tag k="place" v="farm" />
		<tag k="ssr:stedsnr" v="881400" />
	</node>
	<node lat="62.30190277861276" lon="6.937094445760244" id="-2102">
		<tag k="name" v="Skogadalen" />
		<tag k="place" v="farm" />
		<tag k="ssr:stedsnr" v="884708" />
	</node>
	<node lat="62.26542157193882" lon="6.856971971448612" id="-2113">
		<tag k="fixme" v="consider place=hamlet" />
		<tag k="name" v="Engeset" />
		<tag k="place" v="farm" />
		<tag k="ssr:stedsnr" v="921594" />
	</node>
	<node lat="62.15692995197404" lon="7.043535066882724" id="-2114">
		<tag k="fixme" v="consider place=hamlet" />
		<tag k="name" v="Øvstegarden" />
		<tag k="place" v="farm" />
		<tag k="ssr:stedsnr" v="921375" />
	</node>
	<node lat="62.09506175549385" lon="6.855639328267939" id="-2133">
		<tag k="name" v="Ringdalen" />
=======
	<node id="-68426" lat="62.3167805517" lon="7.04983889654">
		<tag k="name" v="Plassen" />
		<tag k="place" v="farm" />
		<tag k="ssr:stedsnr" v="758945" />
	</node>
	<node id="-66887" lat="62.1308888895" lon="7.19389445">
		<tag k="historic" v="shieling" />
		<tag k="name" v="Møllsætrane" />
		<tag k="place" v="locality" />
		<tag k="ssr:stedsnr" v="314407" />
	</node>
	<node id="-67397" lat="62.0773444411" lon="6.82735277768">
		<tag k="name" v="Gjerdet" />
		<tag k="place" v="farm" />
		<tag k="ssr:stedsnr" v="820616" />
	</node>
	<node id="-67877" lat="62.2786277777" lon="6.97813610251">
		<tag k="historic" v="shieling" />
		<tag k="name" v="Geilfjøsane" />
		<tag k="place" v="locality" />
		<tag k="ssr:stedsnr" v="157850" />
	</node>
	<node id="-67013" lat="62.1076269987" lon="7.17857506397">
		<tag k="fixme" v="consider place=hamlet" />
		<tag k="name" v="Homlung" />
		<tag k="place" v="farm" />
		<tag k="ssr:stedsnr" v="435442" />
	</node>
	<node id="-66877" lat="62.2328626421" lon="6.90644600853">
		<tag k="fixme" v="consider place=hamlet" />
		<tag k="name" v="Slettvollen" />
		<tag k="place" v="farm" />
		<tag k="ssr:stedsnr" v="314306" />
	</node>
	<node id="-67209" lat="62.2386777744" lon="6.91114722445">
		<tag k="name" v="Sakrisplassen" />
		<tag k="place" v="farm" />
		<tag k="ssr:stedsnr" v="881400" />
	</node>
	<node id="-67387" lat="62.306097225" lon="7.09748889619">
		<tag k="name" v="Furuly" />
		<tag k="place" v="farm" />
		<tag k="ssr:stedsnr" v="819168" />
	</node>
	<node id="-67898" lat="62.0378333366" lon="6.81300554963">
		<tag k="name" v="Tronstadsætra" />
		<tag k="place" v="isolated_dwelling" />
		<tag k="ssr:stedsnr" v="193476" />
	</node>
	<node id="-66527" lat="62.1634027789" lon="6.92292778146">
		<tag k="historic" v="shieling" />
		<tag k="name" v="Herdalen" />
		<tag k="place" v="locality" />
		<tag k="ssr:stedsnr" v="11314" />
	</node>
	<node id="-68408" lat="62.0522444471" lon="6.79360276865">
		<tag k="name" v="Tronstad" />
		<tag k="place" v="farm" />
		<tag k="ssr:stedsnr" v="739447" />
	</node>
	<node id="-68407" lat="62.3576569053" lon="6.87585440778">
		<tag k="fixme" v="consider place=hamlet" />
		<tag k="name" v="Fausa" />
		<tag k="place" v="farm" />
		<tag k="ssr:stedsnr" v="739682" />
	</node>
	<node id="-67977" lat="62.1628638164" lon="7.03354688195">
		<tag k="fixme" v="consider place=hamlet" />
		<tag k="name" v="Stokke" />
		<tag k="place" v="farm" />
		<tag k="ssr:stedsnr" v="314371" />
	</node>
	<node id="-67379" lat="62.0538904138" lon="6.9441315183">
		<tag k="fixme" v="consider place=hamlet" />
		<tag k="name" v="Helset" />
		<tag k="place" v="farm" />
		<tag k="ssr:stedsnr" v="800445" />
	</node>
	<node id="-68403" lat="62.1367083325" lon="6.82640833216">
		<tag k="historic" v="shieling" />
		<tag k="name" v="Ringdalsstølen" />
		<tag k="place" v="locality" />
		<tag k="ssr:stedsnr" v="739336" />
	</node>
	<node id="-67375" lat="62.0650555519" lon="6.84083334051">
		<tag k="name" v="Toskedalssætra" />
		<tag k="place" v="isolated_dwelling" />
		<tag k="ssr:stedsnr" v="800421" />
	</node>
	<node id="-66862" lat="62.0925111067" lon="7.22390000625">
		<tag k="name" v="Hotell Utsikten" />
		<tag k="ssr:stedsnr" v="278639" />
		<tag k="tourism" v="hotel" />
	</node>
	<node id="-67373" lat="62.1100913465" lon="7.12121456686">
		<tag k="fixme" v="consider place=hamlet" />
		<tag k="name" v="Skageflå" />
		<tag k="place" v="farm" />
		<tag k="ssr:stedsnr" v="799402" />
	</node>
	<node id="-66860" lat="62.103250002" lon="7.23088055806">
		<tag k="historic" v="shieling" />
		<tag k="name" v="Litlesætra" />
		<tag k="place" v="locality" />
		<tag k="ssr:stedsnr" v="278624" />
	</node>
	<node id="-66610" lat="62.3023000025" lon="7.12050555482">
		<tag k="historic" v="shieling" />
		<tag k="name" v="Ovråsætra" />
		<tag k="place" v="locality" />
		<tag k="ssr:stedsnr" v="254581" />
	</node>
	<node id="-67882" lat="62.17688056" lon="7.00985277783">
		<tag k="name" v="Litlesætra" />
		<tag k="place" v="locality" />
		<tag k="ssr:stedsnr" v="193336" />
	</node>
	<node id="-66951" lat="62.316065917" lon="6.9267127075">
		<tag k="fixme" v="consider place=hamlet" />
		<tag k="name" v="Øygarden" />
		<tag k="place" v="farm" />
		<tag k="ssr:stedsnr" v="375459" />
	</node>
	<node id="-68392" lat="62.1027305595" lon="6.85082500813">
		<tag k="name" v="Bruene" />
		<tag k="place" v="locality" />
		<tag k="ssr:stedsnr" v="738401" />
	</node>
	<node id="-67879" lat="62.1222083348" lon="6.92812499825">
		<tag k="name" v="Ljøbakken" />
		<tag k="place" v="farm" />
		<tag k="ssr:stedsnr" v="173750" />
	</node>
	<node id="-67377" lat="62.0734776802" lon="6.9047152333">
		<tag k="fixme" v="consider place=hamlet" />
		<tag k="name" v="Stadheim" />
		<tag k="place" v="farm" />
		<tag k="ssr:stedsnr" v="800430" />
	</node>
	<node id="-68386" lat="62.0833055526" lon="7.23877500613">
		<tag k="historic" v="shieling" />
		<tag k="name" v="Vinsåssætra" />
		<tag k="place" v="locality" />
		<tag k="ssr:stedsnr" v="738134" />
	</node>
	<node id="-67361" lat="62.0731790152" lon="6.81916300679">
		<tag k="fixme" v="consider place=hamlet" />
		<tag k="name" v="Karbø" />
		<tag k="place" v="farm" />
		<tag k="ssr:stedsnr" v="921471" />
	</node>
	<node id="-67657" lat="62.0688888925" lon="7.25499999615">
		<tag k="name" v="Dalen Gaard Familiecamping" />
		<tag k="ssr:stedsnr" v="51779" />
		<tag k="tourism" v="camp_site" />
	</node>
	<node id="-67358" lat="62.0954366972" lon="6.85620627191">
		<tag k="fixme" v="consider place=hamlet" />
		<tag k="name" v="Ringdalen" />
		<tag k="place" v="farm" />
		<tag k="ssr:stedsnr" v="921428" />
	</node>
	<node id="-67356" lat="62.123846944" lon="7.119716619">
		<tag k="name" v="Bringa" />
		<tag k="place" v="locality" />
		<tag k="ssr:stedsnr" v="921411" />
	</node>
	<node id="-66843" lat="62.1882527779" lon="6.92771666131">
		<tag k="name" v="Hans Jøran plassen" />
		<tag k="place" v="locality" />
		<tag k="ssr:stedsnr" v="274752" />
	</node>
	<node id="-67353" lat="62.156929952" lon="7.04353506688">
		<tag k="fixme" v="consider place=hamlet" />
		<tag k="name" v="Øvstegarden" />
		<tag k="place" v="farm" />
		<tag k="ssr:stedsnr" v="921375" />
	</node>
	<node id="-66790" lat="62.1702222198" lon="6.98084166796">
		<tag k="name" v="Inste Åknessætra" />
		<tag k="place" v="locality" />
		<tag k="ssr:stedsnr" v="457080" />
	</node>
	<node id="-67859" lat="62.0136916629" lon="6.94580833451">
		<tag k="name" v="Frøysasætra" />
		<tag k="place" v="isolated_dwelling" />
		<tag k="ssr:stedsnr" v="154696" />
	</node>
	<node id="-67288" lat="62.1330138926" lon="6.83083889681">
		<tag k="name" v="Dalen" />
		<tag k="place" v="isolated_dwelling" />
		<tag k="ssr:stedsnr" v="698713" />
	</node>
	<node id="-66605" lat="62.0198917483" lon="7.02036355495">
		<tag k="fixme" v="consider place=hamlet" />
		<tag k="name" v="Vollset" />
		<tag k="place" v="farm" />
		<tag k="ssr:stedsnr" v="254442" />
	</node>
	<node id="-66568" lat="62.0376785115" lon="6.95554254623">
		<tag k="fixme" v="consider place=hamlet" />
		<tag k="name" v="Frøysa" />
		<tag k="place" v="farm" />
		<tag k="ssr:stedsnr" v="72438" />
	</node>
	<node id="-67031" lat="62.2675918989" lon="6.87759170144">
		<tag k="name" v="Svemorka" />
		<tag k="place" v="quarter" />
		<tag k="ssr:stedsnr" v="447914" />
	</node>
	<node id="-67335" lat="62.0848527735" lon="7.20956665914">
		<tag k="name" v="Klonken" />
		<tag k="place" v="isolated_dwelling" />
		<tag k="ssr:stedsnr" v="760261" />
	</node>
	<node id="-66781" lat="62.075886114" lon="6.82159722768">
		<tag k="name" v="Nedsthaugen" />
		<tag k="place" v="farm" />
		<tag k="ssr:stedsnr" v="456588" />
	</node>
	<node id="-67333" lat="62.1263138845" lon="6.73980833428">
		<tag k="name" v="Fivelstadstølen" />
		<tag k="place" v="locality" />
		<tag k="ssr:stedsnr" v="760078" />
	</node>
	<node id="-67286" lat="62.284122222" lon="6.87777499318">
		<tag k="name" v="Vollane" />
		<tag k="place" v="farm" />
		<tag k="ssr:stedsnr" v="698557" />
	</node>
	<node id="-67326" lat="62.0263592562" lon="7.01444528997">
		<tag k="fixme" v="consider place=hamlet" />
		<tag k="name" v="Brekke" />
		<tag k="place" v="farm" />
		<tag k="ssr:stedsnr" v="758653" />
	</node>
	<node id="-67797" lat="62.3151836171" lon="7.00240628282">
		<tag k="name" v="Hammaren" />
		<tag k="place" v="locality" />
		<tag k="ssr:stedsnr" v="133459" />
	</node>
	<node id="-67324" lat="62.2615722211" lon="6.82373334258">
		<tag k="fixme" v="multiple name tags, choose one and add the other to alt_name" />
		<tag k="historic" v="shieling" />
		<tag k="name" v="Engesetsætra;Litlesætra" />
		<tag k="place" v="locality" />
		<tag k="ssr:stedsnr" v="739905" />
	</node>
	<node id="-67323" lat="62.1250159578" lon="7.17773871342">
		<tag k="alt_name" v="Mølsæter" />
		<tag k="fixme" v="consider place=hamlet" />
		<tag k="name" v="Møllsæter" />
		<tag k="place" v="farm" />
		<tag k="ssr:stedsnr" v="739379" />
	</node>
	<node id="-67321" lat="62.3054452006" lon="7.09436887357">
		<tag k="fixme" v="consider place=hamlet" />
		<tag k="name" v="Ovrå" />
		<tag k="place" v="farm" />
		<tag k="ssr:stedsnr" v="739623" />
	</node>
	<node id="-68344" lat="62.1783333329" lon="7.01653055842">
		<tag k="name" v="Åkernesodden" />
		<tag k="place" v="locality" />
		<tag k="ssr:stedsnr" v="638680" />
	</node>
	<node id="-68187" lat="62.2733534585" lon="6.89378615225">
		<tag k="fixme" v="consider place=hamlet" />
		<tag k="name" v="Gjerde" />
		<tag k="place" v="farm" />
		<tag k="ssr:stedsnr" v="436551" />
	</node>
	<node id="-67318" lat="62.0771666647" lon="7.21586945058">
		<tag k="historic" v="shieling" />
		<tag k="name" v="Flydalsætra" />
		<tag k="place" v="locality" />
		<tag k="ssr:stedsnr" v="739417" />
	</node>
	<node id="-67317" lat="62.0972090207" lon="7.20392199376">
		<tag k="fixme" v="consider place=hamlet" />
		<tag k="name" v="Gjørva" />
		<tag k="place" v="farm" />
		<tag k="ssr:stedsnr" v="739413" />
	</node>
	<node id="-67826" lat="62.0869222187" lon="7.21632778607">
		<tag k="name" v="Hautuftene" />
		<tag k="place" v="farm" />
		<tag k="ssr:stedsnr" v="153296" />
	</node>
	<node id="-67313" lat="62.2242145295" lon="6.91917520701">
		<tag k="name" v="Fjørstad" />
		<tag k="place" v="hamlet" />
		<tag k="ssr:stedsnr" v="717013" />
	</node>
	<node id="-68336" lat="62.0335111152" lon="6.71947776807">
		<tag k="name" v="Liasætra" />
		<tag k="place" v="locality" />
		<tag k="ssr:stedsnr" v="638463" />
	</node>
	<node id="-68335" lat="62.0320416657" lon="6.73620000773">
		<tag k="name" v="Seljehaugen" />
		<tag k="place" v="isolated_dwelling" />
		<tag k="ssr:stedsnr" v="638250" />
	</node>
	<node id="-66941" lat="62.0402611129" lon="6.96219444211">
		<tag k="name" v="Frøysa" />
		<tag k="place" v="farm" />
		<tag k="ssr:stedsnr" v="374712" />
	</node>
	<node id="-67367" lat="62.0178277793" lon="7.00210554609">
		<tag k="historic" v="shieling" />
		<tag k="name" v="Fedalssætra" />
		<tag k="place" v="locality" />
		<tag k="ssr:stedsnr" v="921501" />
	</node>
	<node id="-68328" lat="62.0844916672" lon="6.8262138935">
		<tag k="name" v="Øvstesætra" />
		<tag k="place" v="locality" />
		<tag k="ssr:stedsnr" v="637643" />
	</node>
	<node id="-67302" lat="61.9899666657" lon="7.04211945308">
		<tag k="name" v="Skavlen" />
		<tag k="place" v="isolated_dwelling" />
		<tag k="ssr:stedsnr" v="699964" />
	</node>
	<node id="-67300" lat="62.2350722249" lon="6.91806389035">
		<tag k="barrier" v="fence" />
		<tag k="name" v="Grøtgarden" />
		<tag k="ssr:stedsnr" v="699857" />
	</node>
	<node id="-66939" lat="61.9994055554" lon="6.99317499517">
		<tag k="name" v="Vollsæter" />
		<tag k="place" v="locality" />
		<tag k="ssr:stedsnr" v="374410" />
	</node>
	<node id="-68319" lat="62.3112861115" lon="7.06791388447">
		<tag k="name" v="Austlid" />
		<tag k="place" v="farm" />
		<tag k="ssr:stedsnr" v="636037" />
	</node>
	<node id="-68389" lat="62.1032358825" lon="6.75388420612">
		<tag k="fixme" v="consider place=hamlet" />
		<tag k="name" v="Fivelstad" />
		<tag k="place" v="farm" />
		<tag k="ssr:stedsnr" v="738379" />
	</node>
	<node id="-68316" lat="62.3067694467" lon="6.91082221419">
		<tag k="name" v="Storgjerde" />
		<tag k="place" v="quarter" />
		<tag k="ssr:stedsnr" v="628911" />
	</node>
	<node id="-66779" lat="62.0761111131" lon="6.81984166109">
		<tag k="name" v="Øvsthaugen" />
		<tag k="place" v="farm" />
		<tag k="ssr:stedsnr" v="456584" />
	</node>
	<node id="-67290" lat="62.0853972266" lon="7.21617221569">
		<tag k="name" v="Gjerdet" />
		<tag k="place" v="farm" />
		<tag k="ssr:stedsnr" v="699220" />
	</node>
	<node id="-66777" lat="62.1133888891" lon="6.84976388212">
		<tag k="name" v="Vårsætra" />
		<tag k="place" v="locality" />
		<tag k="ssr:stedsnr" v="456512" />
	</node>
	<node id="-68312" lat="62.2956972255" lon="6.90190833951">
		<tag k="name" v="Sløgstad" />
		<tag k="place" v="farm" />
		<tag k="ssr:stedsnr" v="618576" />
	</node>
	<node id="-67798" lat="62.3309765287" lon="6.96179245745">
		<tag k="name" v="Urda" />
		<tag k="place" v="locality" />
		<tag k="ssr:stedsnr" v="133479" />
	</node>
	<node id="-68309" lat="62.331108008" lon="6.91332340508">
		<tag k="fixme" v="consider place=hamlet" />
		<tag k="name" v="Espehjelle" />
		<tag k="place" v="farm" />
		<tag k="ssr:stedsnr" v="618510" />
	</node>
	<node id="-67017" lat="62.0329722259" lon="7.00962499425">
		<tag k="name" v="Bjørdal" />
		<tag k="place" v="hamlet" />
		<tag k="ssr:stedsnr" v="518591" />
	</node>
	<node id="-68306" lat="62.32801629" lon="7.05879843382">
		<tag k="fixme" v="consider place=hamlet" />
		<tag k="name" v="Stavseng" />
		<tag k="place" v="farm" />
		<tag k="ssr:stedsnr" v="618489" />
	</node>
	<node id="-66768" lat="62.3458472228" lon="6.87010000293">
		<tag k="name" v="Berget" />
		<tag k="place" v="isolated_dwelling" />
		<tag k="ssr:stedsnr" v="455973" />
	</node>
	<node id="-67789" lat="62.0908138044" lon="6.85168859347">
		<tag k="name" v="Holen" />
		<tag k="place" v="isolated_dwelling" />
		<tag k="ssr:stedsnr" v="132374" />
	</node>
	<node id="-67787" lat="62.119048844" lon="6.9224794453">
		<tag k="fixme" v="consider place=hamlet" />
		<tag k="name" v="Nedre Ljøen" />
		<tag k="place" v="farm" />
		<tag k="ssr:stedsnr" v="132346" />
	</node>
	<node id="-66762" lat="62.267636111" lon="6.85633888187">
		<tag k="name" v="Ytstehaugen" />
		<tag k="place" v="farm" />
		<tag k="ssr:stedsnr" v="455684" />
	</node>
	<node id="-66761" lat="62.2694805548" lon="6.85709999301">
		<tag k="name" v="Fremstelia" />
		<tag k="place" v="farm" />
		<tag k="ssr:stedsnr" v="455679" />
	</node>
	<node id="-66760" lat="62.2719305601" lon="6.86348056133">
		<tag k="name" v="Nedrelia" />
>>>>>>> e1d4bc35ff8a6074a6f2e91616a996b547c36f15
		<tag k="place" v="farm" />
		<tag k="ssr:stedsnr" v="455644" />
	</node>
<<<<<<< HEAD
	<node lat="62.09548262923558" lon="6.855206818730018" id="-2134">
		<tag k="name" v="Ringdalen" />
=======
	<node id="-68294" lat="62.0665722221" lon="6.93369722376">
		<tag k="fixme" v="consider place=hamlet" />
		<tag k="name" v="Sunnylvsbygda" />
		<tag k="place" v="village" />
		<tag k="ssr:stedsnr" v="617459" />
	</node>
	<node id="-67268" lat="62.3019027786" lon="6.93709444576">
		<tag k="name" v="Skogadalen" />
>>>>>>> e1d4bc35ff8a6074a6f2e91616a996b547c36f15
		<tag k="place" v="farm" />
		<tag k="ssr:stedsnr" v="989231" />
	</node>
<<<<<<< HEAD
	<node lat="62.094305779661184" lon="6.85696769182152" id="-2135">
		<tag k="name" v="Ringdalen" />
		<tag k="place" v="farm" />
		<tag k="ssr:stedsnr" v="989232" />
	</node>
	<node lat="62.09525834542666" lon="6.858176338915357" id="-2136">
		<tag k="name" v="Ringdalen" />
		<tag k="place" v="farm" />
		<tag k="ssr:stedsnr" v="989233" />
	</node>
	<node lat="62.0854888877633" lon="6.867691665697511" id="-2144">
		<tag k="name" v="Hellesylt" />
		<tag k="place" v="village" />
		<tag k="ssr:stedsnr" v="10385" />
	</node>
	<node lat="62.163402778860025" lon="6.92292778146473" id="-2152">
		<tag k="historic" v="shieling" />
		<tag k="name" v="Herdalen" />
		<tag k="place" v="isolated_dwelling" />
		<tag k="ssr:stedsnr" v="11314" />
	</node>
	<node lat="62.24492499841947" lon="6.803908325364524" id="-2155">
		<tag k="historic" v="shieling" />
		<tag k="name" v="Habostadsætra" />
		<tag k="place" v="isolated_dwelling" />
		<tag k="ssr:stedsnr" v="11258" />
	</node>
	<node lat="62.1286333327034" lon="6.916172219821634" id="-2160">
		<tag k="name" v="Ljøsætra" />
		<tag k="place" v="isolated_dwelling" />
		<tag k="ssr:stedsnr" v="11351" />
	</node>
	<node lat="62.12090833619614" lon="6.919777774527028" id="-2162">
		<tag k="name" v="Ljøbakken" />
		<tag k="place" v="farm" />
		<tag k="ssr:stedsnr" v="11364" />
	</node>
	<node lat="62.13082499794599" lon="7.118344439761817" id="-2163">
		<tag k="name" v="Gomsdalen" />
		<tag k="place" v="locality" />
		<tag k="ssr:stedsnr" v="11369" />
	</node>
	<node lat="62.08156760450865" lon="6.892170791944676" id="-2165">
		<tag k="fixme" v="consider place=hamlet" />
		<tag k="name" v="Åsen" />
		<tag k="place" v="farm" />
		<tag k="ssr:stedsnr" v="11409" />
	</node>
	<node lat="62.28417500039888" lon="6.980636110419133" id="-2169">
		<tag k="loc_name" v="Sandvika" />
		<tag k="name" v="Sandvik" />
		<tag k="place" v="farm" />
		<tag k="ssr:stedsnr" v="11566" />
	</node>
	<node lat="62.27279166466732" lon="6.914061107101728" id="-2170">
		<tag k="historic" v="shieling" />
		<tag k="name" v="Dalebotn" />
		<tag k="place" v="isolated_dwelling" />
		<tag k="ssr:stedsnr" v="11573" />
	</node>
	<node lat="62.042375000945334" lon="7.095744442004061" id="-2173">
		<tag k="fixme" v="multiple name tags, choose one and add the other to alt_name" />
		<tag k="name" v="Bjørdalssætra;Bjørdalstølen" />
		<tag k="place" v="isolated_dwelling" />
		<tag k="ssr:stedsnr" v="11459" />
	</node>
	<node lat="62.01652082804255" lon="6.76438523868138" id="-2176">
		<tag k="fixme" v="consider place=hamlet" />
		<tag k="name" v="Røyrhus" />
		<tag k="place" v="farm" />
		<tag k="ssr:stedsnr" v="11487" />
	</node>
	<node lat="62.11546388638969" lon="6.9107749912611105" id="-2180">
		<tag k="name" v="Kleivane" />
		<tag k="place" v="farm" />
		<tag k="ssr:stedsnr" v="22158" />
	</node>
	<node lat="62.296758336396564" lon="6.81515555563056" id="-2184">
		<tag k="historic" v="shieling" />
		<tag k="name" v="Langlosætra" />
		<tag k="place" v="isolated_dwelling" />
		<tag k="ssr:stedsnr" v="25739" />
	</node>
	<node lat="62.219013886223564" lon="6.8288888837149955" id="-2187">
		<tag k="name" v="Gøtsetra" />
		<tag k="place" v="locality" />
		<tag k="ssr:stedsnr" v="30164" />
	</node>
	<node lat="62.31572898160091" lon="7.0501526751051475" id="-2192">
		<tag k="name" v="Nedre Ringset" />
		<tag k="place" v="farm" />
		<tag k="ssr:stedsnr" v="30952" />
	</node>
	<node lat="62.11723055714549" lon="6.9746305461122855" id="-2225">
		<tag k="name" v="Robben" />
		<tag k="place" v="locality" />
		<tag k="ssr:stedsnr" v="32833" />
	</node>
	<node lat="62.30337222161028" lon="6.9429000027641266" id="-2233">
		<tag k="name" v="Lunde" />
		<tag k="place" v="farm" />
		<tag k="ssr:stedsnr" v="35853" />
	</node>
	<node lat="62.0615888850846" lon="7.268424995864453" id="-2243">
		<tag k="historic" v="shieling" />
		<tag k="name" v="Kvanndalssætra" />
		<tag k="place" v="isolated_dwelling" />
		<tag k="ssr:stedsnr" v="71093" />
	</node>
	<node lat="62.062977777287905" lon="7.247969437506254" id="-2244">
		<tag k="fixme" v="multiple name tags, choose one and add the other to alt_name" />
		<tag k="historic" v="shieling" />
		<tag k="name" v="Opplendskedalsætra;Dalssætra" />
		<tag k="place" v="isolated_dwelling" />
		<tag k="ssr:stedsnr" v="71095" />
	</node>
	<node lat="62.16658315035406" lon="6.987259191136494" id="-2248">
		<tag k="name" v="Inste Åkerneset" />
		<tag k="place" v="locality" />
		<tag k="ssr:stedsnr" v="71380" />
	</node>
	<node lat="62.072620273443036" lon="6.796451588903637" id="-2249">
		<tag k="alt_name" v="Litlebø" />
		<tag k="fixme" v="consider place=hamlet" />
		<tag k="name" v="Litlebøen" />
		<tag k="place" v="farm" />
		<tag k="ssr:stedsnr" v="71456" />
	</node>
	<node lat="62.20999722613078" lon="6.717488891352479" id="-2252">
		<tag k="fixme" v="consider tourism=alpine_hut or tourism=chalet" />
		<tag k="name" v="Patchellhytta" />
		<tag k="ssr:stedsnr" v="72279" />
		<tag k="tourism" v="wilderness_hut" />
	</node>
	<node lat="62.06064166736546" lon="6.794180546852451" id="-2262">
		<tag k="name" v="Fjelltun" />
		<tag k="place" v="farm" />
		<tag k="ssr:stedsnr" v="72398" />
	</node>
	<node lat="62.04831111361721" lon="7.000066668479808" id="-2264">
		<tag k="name" v="Helsetsætra" />
		<tag k="place" v="isolated_dwelling" />
		<tag k="ssr:stedsnr" v="72420" />
	</node>
	<node lat="62.03767851152394" lon="6.95554254622975" id="-2267">
=======
	<node id="-67060" lat="62.2264066947" lon="6.91471966533">
		<tag k="alt_name" v="Fjørstad, heimste;Heimste Fjørstad;Heim-Fjørstad" />
		<tag k="fixme" v="consider place=hamlet" />
		<tag k="name" v="Fjørstad" />
		<tag k="place" v="farm" />
		<tag k="ssr:stedsnr" v="496298" />
	</node>
	<node id="-66763" lat="62.2175472233" lon="6.89019166291">
		<tag k="name" v="Emdalssetra" />
		<tag k="place" v="locality" />
		<tag k="ssr:stedsnr" v="455687" />
	</node>
	<node id="-68288" lat="62.2228127382" lon="6.90732681535">
		<tag k="fixme" v="consider place=hamlet" />
		<tag k="name" v="Emdalen" />
		<tag k="place" v="farm" />
		<tag k="ssr:stedsnr" v="617321" />
	</node>
	<node id="-68287" lat="62.2263222233" lon="6.84074445208">
		<tag k="name" v="Mesætra" />
		<tag k="place" v="isolated_dwelling" />
		<tag k="ssr:stedsnr" v="617316" />
	</node>
	<node id="-68286" lat="61.9937750007" lon="6.8110694401">
		<tag k="historic" v="shieling" />
		<tag k="name" v="Røyrhussætra" />
		<tag k="place" v="locality" />
		<tag k="ssr:stedsnr" v="617250" />
	</node>
	<node id="-66746" lat="62.0762777754" lon="6.89196111281">
		<tag k="name" v="Husøya" />
		<tag k="place" v="farm" />
		<tag k="ssr:stedsnr" v="217812" />
	</node>
	<node id="-67256" lat="62.3133033321" lon="7.01182505458">
		<tag k="alt_name" v="Klevberg" />
		<tag k="fixme" v="consider place=hamlet" />
		<tag k="name" v="Kleberg" />
		<tag k="place" v="farm" />
		<tag k="ssr:stedsnr" v="679472" />
	</node>
	<node id="-67255" lat="62.3238916711" lon="7.07966388419">
		<tag k="fixme" v="multiple name tags, choose one and add the other to alt_name" />
		<tag k="historic" v="shieling" />
		<tag k="name" v="Liasætra;Lisetra" />
		<tag k="place" v="locality" />
		<tag k="ssr:stedsnr" v="679460" />
	</node>
	<node id="-67254" lat="62.3223472192" lon="6.98880555562">
		<tag k="historic" v="shieling" />
		<tag k="name" v="Klebergsætra" />
		<tag k="place" v="locality" />
		<tag k="ssr:stedsnr" v="679456" />
	</node>
	<node id="-67529" lat="62.2654215719" lon="6.85697197145">
		<tag k="fixme" v="consider place=hamlet" />
		<tag k="name" v="Engeset" />
		<tag k="place" v="farm" />
		<tag k="ssr:stedsnr" v="921594" />
	</node>
	<node id="-67251" lat="62.0850099914" lon="7.22349883131">
		<tag k="alt_name" v="Flydal" />
		<tag k="fixme" v="consider place=hamlet" />
		<tag k="name" v="Flydalen" />
		<tag k="place" v="farm" />
		<tag k="ssr:stedsnr" v="678710" />
	</node>
	<node id="-67249" lat="62.3101916701" lon="7.07121943897">
		<tag k="fixme" v="consider place=hamlet" />
		<tag k="name" v="Liabygda" />
		<tag k="place" v="village" />
		<tag k="ssr:stedsnr" v="678618" />
	</node>
	<node id="-67759" lat="62.0941638878" lon="7.22311111751">
		<tag k="name" v="Fossen camping" />
		<tag k="ssr:stedsnr" v="96517" />
		<tag k="tourism" v="camp_site" />
	</node>
	<node id="-67245" lat="62.267176985" lon="6.83909982643">
		<tag k="fixme" v="consider place=hamlet" />
		<tag k="name" v="Arneberg" />
		<tag k="place" v="farm" />
		<tag k="ssr:stedsnr" v="678559" />
	</node>
	<node id="-67244" lat="62.172466666" lon="6.99577221452">
		<tag k="name" v="Plassen" />
		<tag k="place" v="locality" />
		<tag k="ssr:stedsnr" v="678357" />
	</node>
	<node id="-66930" lat="62.2870666513" lon="6.96800246887">
		<tag k="alt_name" v="Vike" />
		<tag k="fixme" v="consider place=hamlet" />
		<tag k="name" v="Vikane" />
		<tag k="place" v="farm" />
		<tag k="ssr:stedsnr" v="496607" />
	</node>
	<node id="-67242" lat="62.0816620696" lon="7.03587730654">
		<tag k="fixme" v="multiple name tags, choose one and add the other to alt_name; consider place=hamlet" />
		<tag k="name" v="Blomberg;Holten" />
		<tag k="place" v="farm" />
		<tag k="ssr:stedsnr" v="678466" />
	</node>
	<node id="-67241" lat="62.0693669909" lon="6.93327960824">
		<tag k="fixme" v="consider place=hamlet" />
		<tag k="name" v="Hellebostad" />
		<tag k="place" v="farm" />
		<tag k="ssr:stedsnr" v="678456" />
	</node>
	<node id="-67240" lat="62.1231468489" lon="7.17375023436">
		<tag k="fixme" v="consider place=hamlet" />
		<tag k="name" v="Årset" />
		<tag k="place" v="farm" />
		<tag k="ssr:stedsnr" v="678417" />
	</node>
	<node id="-66726" lat="62.2647870935" lon="6.99535382382">
		<tag k="alt_name" v="Opshauglied;Li;Lie" />
		<tag k="fixme" v="consider place=hamlet" />
		<tag k="name" v="Liene" />
		<tag k="place" v="farm" />
		<tag k="ssr:stedsnr" v="193912" />
	</node>
	<node id="-66724" lat="62.2989287447" lon="6.94858229522">
		<tag k="fixme" v="consider place=hamlet" />
		<tag k="name" v="Giskehaug" />
		<tag k="place" v="farm" />
		<tag k="ssr:stedsnr" v="193613" />
	</node>
	<node id="-67792" lat="62.0846804298" lon="7.02818670931">
		<tag k="fixme" v="consider place=hamlet" />
		<tag k="name" v="Syltavika" />
		<tag k="place" v="farm" />
		<tag k="ssr:stedsnr" v="132392" />
	</node>
	<node id="-66928" lat="62.3568945301" lon="6.88477163351">
		<tag k="fixme" v="consider place=hamlet" />
		<tag k="name" v="Brune" />
		<tag k="place" v="farm" />
		<tag k="ssr:stedsnr" v="496579" />
	</node>
	<node id="-66718" lat="62.0936861071" lon="7.12236944933">
		<tag k="name" v="Tverrabøsætra" />
		<tag k="place" v="locality" />
		<tag k="ssr:stedsnr" v="193444" />
	</node>
	<node id="-67741" lat="62.0956083376" lon="7.11470278381">
		<tag k="name" v="Skageflåsætra" />
		<tag k="place" v="locality" />
		<tag k="ssr:stedsnr" v="93564" />
	</node>
	<node id="-66716" lat="62.1217194452" lon="7.16153889419">
		<tag k="name" v="Hysket" />
		<tag k="place" v="isolated_dwelling" />
		<tag k="ssr:stedsnr" v="193416" />
	</node>
	<node id="-66714" lat="62.0938508382" lon="7.22444617798">
>>>>>>> e1d4bc35ff8a6074a6f2e91616a996b547c36f15
		<tag k="fixme" v="consider place=hamlet" />
		<tag k="name" v="Hole" />
		<tag k="place" v="farm" />
		<tag k="ssr:stedsnr" v="193109" />
	</node>
<<<<<<< HEAD
	<node lat="62.28940710493187" lon="6.886868293794216" id="-2270">
		<tag k="fixme" v="consider place=hamlet" />
		<tag k="name" v="Kjølen" />
		<tag k="place" v="farm" />
		<tag k="ssr:stedsnr" v="72560" />
	</node>
	<node lat="62.30955279367561" lon="6.922819075220908" id="-2271">
		<tag k="fixme" v="consider place=hamlet" />
		<tag k="name" v="Ringstad" />
		<tag k="place" v="farm" />
		<tag k="ssr:stedsnr" v="72590" />
	</node>
	<node lat="62.31264523134152" lon="7.022481348998371" id="-2272">
		<tag k="fixme" v="consider place=hamlet" />
		<tag k="name" v="Ansok" />
		<tag k="place" v="farm" />
		<tag k="ssr:stedsnr" v="72595" />
	</node>
	<node lat="62.094163887754426" lon="7.223111117513854" id="-2317">
		<tag k="name" v="Fossen camping" />
		<tag k="ssr:stedsnr" v="96517" />
		<tag k="tourism" v="camp_site" />
	</node>
	<node lat="62.127826916440185" lon="7.185189570424276" id="-2320">
		<tag k="name" v="Storeløene" />
		<tag k="place" v="locality" />
		<tag k="ssr:stedsnr" v="96990" />
	</node>
	<node lat="62.01354167043854" lon="6.946861106439908" id="-2325">
		<tag k="historic" v="shieling" />
		<tag k="name" v="Djupgjølet" />
		<tag k="place" v="isolated_dwelling" />
		<tag k="ssr:stedsnr" v="131444" />
	</node>
	<node lat="62.11904884398015" lon="6.922479445301678" id="-2338">
		<tag k="fixme" v="consider place=hamlet" />
		<tag k="name" v="Nedre Ljøen" />
		<tag k="place" v="farm" />
		<tag k="ssr:stedsnr" v="132346" />
	</node>
	<node lat="62.08468042980165" lon="7.028186709313169" id="-2341">
		<tag k="fixme" v="consider place=hamlet" />
		<tag k="name" v="Syltavika" />
		<tag k="place" v="farm" />
		<tag k="ssr:stedsnr" v="132392" />
	</node>
	<node lat="62.24715277784582" lon="6.80336111807462" id="-2343">
		<tag k="historic" v="shieling" />
		<tag k="name" v="Liasætra" />
		<tag k="place" v="isolated_dwelling" />
		<tag k="ssr:stedsnr" v="132248" />
	</node>
	<node lat="62.23376111123366" lon="6.855419450804958" id="-2344">
		<tag k="name" v="Myklebustsætra" />
		<tag k="place" v="isolated_dwelling" />
		<tag k="ssr:stedsnr" v="132257" />
	</node>
	<node lat="62.33097652865977" lon="6.961792457445562" id="-2354">
		<tag k="name" v="Urda" />
		<tag k="place" v="locality" />
		<tag k="ssr:stedsnr" v="133479" />
	</node>
	<node lat="62.036334896604856" lon="7.009509854062047" id="-2366">
		<tag k="fixme" v="consider place=hamlet" />
		<tag k="name" v="Ytre Bjørdal" />
		<tag k="place" v="farm" />
		<tag k="ssr:stedsnr" v="151631" />
	</node>
	<node lat="62.2836166677869" lon="6.894619446182347" id="-2376">
		<tag k="name" v="Hesjevollen" />
		<tag k="place" v="farm" />
		<tag k="ssr:stedsnr" v="152617" />
	</node>
	<node lat="62.08692221871398" lon="7.216327786066983" id="-2392">
		<tag k="name" v="Hautuftene" />
		<tag k="place" v="farm" />
		<tag k="ssr:stedsnr" v="153296" />
	</node>
	<node lat="62.013691662940914" lon="6.945808334512247" id="-2412">
		<tag k="name" v="Frøysasætra" />
		<tag k="place" v="isolated_dwelling" />
		<tag k="ssr:stedsnr" v="154696" />
	</node>
	<node lat="62.21935000230621" lon="6.93350833621845" id="-2426">
		<tag k="historic" v="shieling" />
		<tag k="name" v="Heimfjørstadsætra" />
		<tag k="place" v="isolated_dwelling" />
		<tag k="ssr:stedsnr" v="192317" />
	</node>
	<node lat="62.09385083824638" lon="7.224446177977158" id="-2432">
		<tag k="fixme" v="consider place=hamlet" />
		<tag k="name" v="Hole" />
		<tag k="place" v="farm" />
		<tag k="ssr:stedsnr" v="193109" />
	</node>
	<node lat="62.176880560033496" lon="7.009852777833263" id="-2436">
		<tag k="name" v="Litlesætra" />
		<tag k="place" v="locality" />
		<tag k="ssr:stedsnr" v="193336" />
	</node>
	<node lat="62.093686107067164" lon="7.122369449329284" id="-2438">
		<tag k="name" v="Tverrabøsætra" />
		<tag k="place" v="locality" />
		<tag k="ssr:stedsnr" v="193444" />
	</node>
	<node lat="62.0667644637731" lon="6.935936036175778" id="-2442">
		<tag k="fixme" v="consider place=hamlet" />
		<tag k="name" v="Øye" />
		<tag k="place" v="farm" />
		<tag k="ssr:stedsnr" v="193453" />
	</node>
	<node lat="62.1293750018658" lon="7.174611114778072" id="-2447">
		<tag k="alt_name" v="Hausetsætrane" />
		<tag k="historic" v="shieling" />
		<tag k="name" v="Haugset" />
		<tag k="place" v="isolated_dwelling" />
		<tag k="ssr:stedsnr" v="193393" />
	</node>
	<node lat="62.12171944518442" lon="7.161538894187744" id="-2449">
		<tag k="name" v="Hysket" />
		<tag k="place" v="isolated_dwelling" />
		<tag k="ssr:stedsnr" v="193416" />
	</node>
	<node lat="62.037833336648625" lon="6.813005549626653" id="-2454">
		<tag k="name" v="Tronstadsætra" />
		<tag k="place" v="isolated_dwelling" />
		<tag k="ssr:stedsnr" v="193476" />
	</node>
	<node lat="62.29592777677157" lon="6.871669451125937" id="-2458">
		<tag k="historic" v="shieling" />
		<tag k="name" v="Ringstadsætra" />
		<tag k="place" v="isolated_dwelling" />
		<tag k="ssr:stedsnr" v="193606" />
	</node>
	<node lat="62.29892874472464" lon="6.94858229521785" id="-2461">
		<tag k="fixme" v="consider place=hamlet" />
		<tag k="name" v="Giskehaug" />
		<tag k="place" v="farm" />
		<tag k="ssr:stedsnr" v="193613" />
	</node>
	<node lat="62.264787093539034" lon="6.995353823819884" id="-2465">
		<tag k="alt_name" v="Opshauglied;Li;Lie" />
=======
	<node id="-68252" lat="62.1652055587" lon="6.92108610587">
		<tag k="name" v="Ruppen" />
		<tag k="place" v="farm" />
		<tag k="ssr:stedsnr" v="578150" />
	</node>
	<node id="-66710" lat="62.2193500023" lon="6.93350833622">
		<tag k="historic" v="shieling" />
		<tag k="name" v="Heimfjørstadsætra" />
		<tag k="place" v="locality" />
		<tag k="ssr:stedsnr" v="192317" />
	</node>
	<node id="-68245" lat="62.0702999962" lon="6.93422778346">
		<tag k="name" v="Hellebostad" />
		<tag k="place" v="farm" />
		<tag k="ssr:stedsnr" v="577615" />
	</node>
	<node id="-68210" lat="62.0282971596" lon="6.72532941303">
		<tag k="alt_name" v="Kjellstadli" />
		<tag k="fixme" v="consider place=hamlet" />
		<tag k="name" v="Kjellstadlia" />
		<tag k="place" v="farm" />
		<tag k="ssr:stedsnr" v="557433" />
	</node>
	<node id="-67996" lat="62.2823863428" lon="6.98636130437">
		<tag k="fixme" v="consider place=hamlet" />
		<tag k="name" v="Uksag" />
		<tag k="place" v="farm" />
		<tag k="ssr:stedsnr" v="315547" />
	</node>
	<node id="-66535" lat="62.0815676045" lon="6.89217079194">
		<tag k="fixme" v="consider place=hamlet" />
		<tag k="name" v="Åsen" />
		<tag k="place" v="farm" />
		<tag k="ssr:stedsnr" v="11409" />
	</node>
	<node id="-66700" lat="62.2915888856" lon="6.8533749921">
		<tag k="name" v="Hjellhaugen" />
		<tag k="place" v="isolated_dwelling" />
		<tag k="ssr:stedsnr" v="278853" />
	</node>
	<node id="-66697" lat="62.3088329631" lon="6.94661764898">
		<tag k="fixme" v="consider place=hamlet" />
		<tag k="name" v="Sløgstad" />
		<tag k="place" v="farm" />
		<tag k="ssr:stedsnr" v="278808" />
	</node>
	<node id="-68232" lat="62.123547223" lon="6.84485555089">
		<tag k="name" v="Gammelsætra" />
		<tag k="place" v="locality" />
		<tag k="ssr:stedsnr" v="576734" />
	</node>
	<node id="-67205" lat="62.1264388908" lon="6.73438610869">
		<tag k="name" v="Longskredstølen" />
		<tag k="place" v="locality" />
		<tag k="ssr:stedsnr" v="881058" />
	</node>
	<node id="-67774" lat="62.2471527778" lon="6.80336111807">
		<tag k="historic" v="shieling" />
		<tag k="name" v="Liasætra" />
		<tag k="place" v="locality" />
		<tag k="ssr:stedsnr" v="132248" />
	</node>
	<node id="-67202" lat="62.3396499994" lon="6.91748889667">
		<tag k="name" v="Skotsknutplassen" />
		<tag k="place" v="locality" />
		<tag k="ssr:stedsnr" v="880901" />
	</node>
	<node id="-68225" lat="62.2718416696" lon="6.85856945023">
		<tag k="name" v="Øvstelia" />
		<tag k="place" v="farm" />
		<tag k="ssr:stedsnr" v="576685" />
	</node>
	<node id="-68224" lat="62.3134194466" lon="7.05217222853">
		<tag k="name" v="Bakken" />
		<tag k="place" v="farm" />
		<tag k="ssr:stedsnr" v="576044" />
	</node>
	<node id="-68221" lat="62.3096361134" lon="6.93582221373">
		<tag k="name" v="Orreneset" />
		<tag k="place" v="isolated_dwelling" />
		<tag k="ssr:stedsnr" v="568930" />
	</node>
	<node id="-66684" lat="62.2836166678" lon="6.89461944618">
		<tag k="name" v="Hesjevollen" />
		<tag k="place" v="farm" />
		<tag k="ssr:stedsnr" v="152617" />
	</node>
	<node id="-66683" lat="62.282226479" lon="6.87415909688">
>>>>>>> e1d4bc35ff8a6074a6f2e91616a996b547c36f15
		<tag k="fixme" v="consider place=hamlet" />
		<tag k="name" v="Øvre Furset" />
		<tag k="place" v="farm" />
		<tag k="ssr:stedsnr" v="152607" />
	</node>
<<<<<<< HEAD
	<node lat="62.305108332271146" lon="7.135225002014543" id="-2471">
		<tag k="name" v="Gamlestøylen" />
		<tag k="place" v="locality" />
		<tag k="ssr:stedsnr" v="273194" />
	</node>
	<node lat="62.24283610738228" lon="6.79773611070692" id="-2479">
		<tag k="name" v="Grusstølen" />
		<tag k="place" v="locality" />
		<tag k="ssr:stedsnr" v="213540" />
	</node>
	<node lat="62.285924998993316" lon="6.926358327475142" id="-2515">
		<tag k="historic" v="shieling" />
		<tag k="name" v="Høgmyrhaugane" />
		<tag k="place" v="isolated_dwelling" />
		<tag k="ssr:stedsnr" v="217763" />
	</node>
	<node lat="62.032182302234446" lon="7.011084358538678" id="-2526">
		<tag k="fixme" v="consider place=hamlet" />
		<tag k="name" v="Indre Bjørdal" />
		<tag k="place" v="farm" />
		<tag k="ssr:stedsnr" v="273647" />
	</node>
	<node lat="62.18825277785233" lon="6.927716661314071" id="-2541">
		<tag k="name" v="Hans Jøran plassen" />
		<tag k="place" v="locality" />
		<tag k="ssr:stedsnr" v="274752" />
	</node>
	<node lat="62.092511106740254" lon="7.223900006246441" id="-2569">
		<tag k="name" v="Hotell Utsikten" />
		<tag k="ssr:stedsnr" v="278639" />
		<tag k="tourism" v="hotel" />
	</node>
	<node lat="62.29158888563681" lon="6.853374992101522" id="-2571">
		<tag k="name" v="Hjellhaugen" />
		<tag k="place" v="isolated_dwelling" />
		<tag k="ssr:stedsnr" v="278853" />
	</node>
	<node lat="62.24167235165914" lon="7.001217002468478" id="-2574">
		<tag k="name" v="Duken" />
		<tag k="place" v="locality" />
		<tag k="ssr:stedsnr" v="314298" />
	</node>
	<node lat="62.16286381638232" lon="7.033546881954578" id="-2575">
		<tag k="fixme" v="consider place=hamlet" />
		<tag k="name" v="Stokke" />
		<tag k="place" v="farm" />
		<tag k="ssr:stedsnr" v="314371" />
	</node>
	<node lat="62.06955970938611" lon="7.252334629780257" id="-2582">
		<tag k="fixme" v="consider place=hamlet" />
		<tag k="name" v="Opplendskedalen" />
		<tag k="place" v="farm" />
		<tag k="ssr:stedsnr" v="314098" />
	</node>
	<node lat="62.04487205656802" lon="6.782986146531967" id="-2585">
		<tag k="fixme" v="consider place=hamlet" />
		<tag k="name" v="Kjellstad" />
		<tag k="place" v="farm" />
		<tag k="ssr:stedsnr" v="314496" />
	</node>
	<node lat="62.31140277483185" lon="7.051208341633257" id="-2589">
		<tag k="name" v="Brauta" />
		<tag k="place" v="farm" />
		<tag k="ssr:stedsnr" v="314640" />
	</node>
	<node lat="62.30534620754955" lon="6.936073108151617" id="-2590">
		<tag k="alt_name" v="Hjelle" />
		<tag k="fixme" v="consider place=hamlet" />
		<tag k="name" v="Hjellane" />
		<tag k="place" v="farm" />
		<tag k="ssr:stedsnr" v="314643" />
	</node>
	<node lat="62.14069166288744" lon="7.0843499944949775" id="-2592">
		<tag k="name" v="Storvasshytta" />
		<tag k="place" v="isolated_dwelling" />
		<tag k="ssr:stedsnr" v="314396" />
	</node>
	<node lat="62.28238634277487" lon="6.986361304368205" id="-2604">
		<tag k="fixme" v="consider place=hamlet" />
		<tag k="name" v="Uksag" />
		<tag k="place" v="farm" />
		<tag k="ssr:stedsnr" v="315547" />
	</node>
	<node lat="62.03939722590732" lon="7.009875000364984" id="-2610">
		<tag k="name" v="Gjerdebakken" />
		<tag k="place" v="farm" />
		<tag k="ssr:stedsnr" v="333629" />
	</node>
	<node lat="62.07650454913984" lon="6.821100554385261" id="-2655">
		<tag k="fixme" v="consider place=hamlet" />
		<tag k="name" v="Langeland" />
		<tag k="place" v="farm" />
		<tag k="ssr:stedsnr" v="374435" />
	</node>
	<node lat="62.11234999640965" lon="7.2602027704214604" id="-2660">
		<tag k="historic" v="shieling" />
		<tag k="name" v="Vesteråssætra" />
		<tag k="place" v="isolated_dwelling" />
		<tag k="ssr:stedsnr" v="375056" />
	</node>
	<node lat="62.16075288021501" lon="7.030940725627879" id="-2666">
		<tag k="fixme" v="consider place=hamlet" />
		<tag k="name" v="Seljefloten" />
		<tag k="place" v="farm" />
		<tag k="ssr:stedsnr" v="375301" />
	</node>
	<node lat="62.30919347935102" lon="7.0072049667293115" id="-2673">
		<tag k="fixme" v="consider place=hamlet" />
		<tag k="name" v="Grova" />
		<tag k="place" v="farm" />
		<tag k="ssr:stedsnr" v="375591" />
	</node>
	<node lat="62.31606591696814" lon="6.926712707502268" id="-2676">
		<tag k="fixme" v="consider place=hamlet" />
		<tag k="name" v="Øygarden" />
		<tag k="place" v="farm" />
		<tag k="ssr:stedsnr" v="375459" />
	</node>
	<node lat="62.33410000056599" lon="7.0511083385044175" id="-2679">
		<tag k="historic" v="shieling" />
		<tag k="name" v="Stavsengsætra" />
		<tag k="place" v="isolated_dwelling" />
		<tag k="ssr:stedsnr" v="375474" />
	</node>
	<node lat="62.27792777595255" lon="6.904822216751458" id="-2680">
		<tag k="historic" v="shieling" />
		<tag k="name" v="Dregesætra" />
		<tag k="place" v="isolated_dwelling" />
		<tag k="ssr:stedsnr" v="375545" />
	</node>
	<node lat="62.300450708628695" lon="6.947200259108134" id="-2682">
		<tag k="alt_name" v="Kjølvås" />
		<tag k="fixme" v="consider place=hamlet" />
		<tag k="name" v="Kjølås" />
		<tag k="place" v="farm" />
		<tag k="ssr:stedsnr" v="375556" />
	</node>
	<node lat="62.303987825771806" lon="6.954103913399665" id="-2684">
		<tag k="fixme" v="consider place=hamlet" />
		<tag k="name" v="Hagen" />
		<tag k="place" v="farm" />
		<tag k="ssr:stedsnr" v="375574" />
	</node>
	<node lat="62.32338611237757" lon="7.07451388354688" id="-2694">
		<tag k="historic" v="shieling" />
		<tag k="name" v="Nedstestølen" />
		<tag k="place" v="isolated_dwelling" />
		<tag k="ssr:stedsnr" v="394119" />
	</node>
	<node lat="62.17700555560984" lon="7.009691665186948" id="-2706">
		<tag k="historic" v="shieling" />
		<tag k="name" v="Litlesætra" />
		<tag k="place" v="isolated_dwelling" />
		<tag k="ssr:stedsnr" v="395719" />
	</node>
	<node lat="62.29038055891378" lon="6.839936102593849" id="-2729">
		<tag k="landuse" v="winter_sports" />
		<tag k="name" v="Strandafjellet skisenter" />
		<tag k="piste:type" v="downhill" />
		<tag k="ssr:stedsnr" v="397424" />
	</node>
	<node lat="62.09625277463373" lon="7.2259388939450755" id="-2730">
		<tag k="name" v="Hole hytteutleige" />
		<tag k="ssr:stedsnr" v="399538" />
		<tag k="tourism" v="camp_site" />
	</node>
	<node lat="62.14259722503511" lon="7.179277773385799" id="-2734">
		<tag k="historic" v="shieling" />
		<tag k="name" v="Resstølen" />
		<tag k="place" v="isolated_dwelling" />
		<tag k="ssr:stedsnr" v="399575" />
	</node>
	<node lat="62.10762699865343" lon="7.178575063969005" id="-2741">
		<tag k="fixme" v="consider place=hamlet" />
		<tag k="name" v="Homlung" />
		<tag k="place" v="farm" />
		<tag k="ssr:stedsnr" v="435442" />
	</node>
	<node lat="62.09785605893802" lon="6.759986365233887" id="-2744">
		<tag k="alt_name" v="Sæter" />
		<tag k="fixme" v="consider place=hamlet" />
		<tag k="name" v="Sætra" />
		<tag k="place" v="farm" />
		<tag k="ssr:stedsnr" v="435450" />
	</node>
	<node lat="62.10623055592655" lon="7.232674997735482" id="-2748">
		<tag k="historic" v="shieling" />
		<tag k="name" v="Storsætra" />
		<tag k="place" v="isolated_dwelling" />
		<tag k="ssr:stedsnr" v="436072" />
	</node>
	<node lat="62.03605278009982" lon="6.761063894377179" id="-2756">
		<tag k="name" v="Langøylia" />
		<tag k="place" v="farm" />
		<tag k="ssr:stedsnr" v="436443" />
	</node>
	<node lat="62.27335345850092" lon="6.893786152246023" id="-2757">
		<tag k="fixme" v="consider place=hamlet" />
		<tag k="name" v="Gjerde" />
		<tag k="place" v="farm" />
		<tag k="ssr:stedsnr" v="436551" />
	</node>
	<node lat="62.22640669470978" lon="6.914719665334485" id="-2760">
		<tag k="alt_name" v="Fjørstad, heimste;Heimste Fjørstad;Heim-Fjørstad" />
		<tag k="fixme" v="consider place=hamlet" />
		<tag k="name" v="Fjørstad" />
		<tag k="place" v="farm" />
		<tag k="ssr:stedsnr" v="496298" />
	</node>
	<node lat="62.042317621522024" lon="6.786050619817369" id="-2761">
		<tag k="fixme" v="consider place=hamlet" />
		<tag k="name" v="Tronstad" />
		<tag k="place" v="farm" />
		<tag k="ssr:stedsnr" v="496495" />
	</node>
	<node lat="62.09245833014958" lon="6.855036107365619" id="-2769">
		<tag k="name" v="Humlemyra" />
		<tag k="place" v="farm" />
		<tag k="ssr:stedsnr" v="496431" />
	</node>
	<node lat="62.08830555959569" lon="6.8458444360679165" id="-2770">
		<tag k="name" v="Nybø" />
		<tag k="place" v="isolated_dwelling" />
		<tag k="ssr:stedsnr" v="496432" />
	</node>
	<node lat="62.24872827273658" lon="6.90531780348679" id="-2771">
		<tag k="fixme" v="consider place=hamlet" />
		<tag k="name" v="Gjerde" />
		<tag k="place" v="farm" />
		<tag k="ssr:stedsnr" v="496647" />
	</node>
	<node lat="62.35689453005836" lon="6.884771633508269" id="-2772">
		<tag k="fixme" v="consider place=hamlet" />
		<tag k="name" v="Brune" />
		<tag k="place" v="farm" />
		<tag k="ssr:stedsnr" v="496579" />
	</node>
	<node lat="62.26473611419365" lon="6.864311115510093" id="-2788">
		<tag k="name" v="Litlebrauta" />
		<tag k="place" v="isolated_dwelling" />
		<tag k="ssr:stedsnr" v="516551" />
	</node>
	<node lat="62.03297222586874" lon="7.0096249942466775" id="-2806">
		<tag k="name" v="Bjørdal" />
		<tag k="place" v="hamlet" />
		<tag k="ssr:stedsnr" v="518591" />
	</node>
	<node lat="62.30539444398281" lon="6.928038886396288" id="-2810">
		<tag k="name" v="Klipe" />
		<tag k="place" v="farm" />
		<tag k="ssr:stedsnr" v="521842" />
	</node>
	<node lat="62.07485000317241" lon="6.8982888875003425" id="-2811">
		<tag k="name" v="Hølsbakken" />
		<tag k="place" v="farm" />
		<tag k="ssr:stedsnr" v="536442" />
	</node>
	<node lat="62.13699722293957" lon="6.825158342828709" id="-2815">
		<tag k="historic" v="shieling" />
		<tag k="name" v="Bygdastølen" />
		<tag k="place" v="isolated_dwelling" />
		<tag k="ssr:stedsnr" v="556418" />
	</node>
	<node lat="62.113002040353216" lon="6.973963784344224" id="-2816">
		<tag k="fixme" v="consider place=hamlet" />
		<tag k="name" v="Matvika" />
		<tag k="place" v="farm" />
		<tag k="ssr:stedsnr" v="556432" />
	</node>
	<node lat="62.20907179971909" lon="6.923143765192529" id="-2819">
		<tag k="fixme" v="consider place=hamlet" />
		<tag k="name" v="Overvollen" />
		<tag k="place" v="farm" />
		<tag k="ssr:stedsnr" v="556356" />
	</node>
	<node lat="62.10042593919554" lon="7.205738616906319" id="-2821">
		<tag k="fixme" v="consider place=hamlet" />
		<tag k="name" v="Maråk" />
		<tag k="place" v="farm" />
		<tag k="ssr:stedsnr" v="556459" />
	</node>
	<node lat="62.07539678682671" lon="6.80005634639978" id="-2822">
		<tag k="fixme" v="consider place=hamlet" />
		<tag k="name" v="Tryggestad" />
		<tag k="place" v="farm" />
		<tag k="ssr:stedsnr" v="556472" />
	</node>
	<node lat="62.04740000343268" lon="6.942358339917527" id="-2824">
		<tag k="fixme" v="multiple name tags, choose one and add the other to alt_name; consider place=hamlet" />
		<tag k="name" v="Frøysøye;Myrane" />
		<tag k="place" v="farm" />
		<tag k="ssr:stedsnr" v="556480" />
	</node>
	<node lat="62.315328121941285" lon="7.049068244270415" id="-2830">
		<tag k="name" v="Ringset" />
		<tag k="place" v="hamlet" />
		<tag k="ssr:stedsnr" v="557492" />
	</node>
	<node lat="62.11967399668652" lon="7.183863067752802" id="-2834">
		<tag k="fixme" v="consider place=hamlet" />
		<tag k="name" v="Møll" />
		<tag k="place" v="farm" />
		<tag k="ssr:stedsnr" v="557378" />
	</node>
	<node lat="62.02829715961539" lon="6.72532941303085" id="-2835">
		<tag k="alt_name" v="Kjellstadli" />
		<tag k="fixme" v="consider place=hamlet" />
		<tag k="name" v="Kjellstadlia" />
		<tag k="place" v="farm" />
		<tag k="ssr:stedsnr" v="557433" />
	</node>
	<node lat="62.30963611337328" lon="6.935822213729199" id="-2839">
		<tag k="name" v="Orreneset" />
		<tag k="place" v="isolated_dwelling" />
		<tag k="ssr:stedsnr" v="568930" />
	</node>
	<node lat="62.24713611179138" lon="6.910019448625464" id="-2845">
		<tag k="name" v="Kallbakken" />
		<tag k="place" v="farm" />
		<tag k="ssr:stedsnr" v="576661" />
	</node>
	<node lat="62.12354722300044" lon="6.844855550891968" id="-2846">
		<tag k="name" v="Gammelsætra" />
		<tag k="place" v="locality" />
		<tag k="ssr:stedsnr" v="576734" />
	</node>
	<node lat="62.271841669584525" lon="6.858569450225965" id="-2847">
		<tag k="name" v="Øvstelia" />
		<tag k="place" v="farm" />
		<tag k="ssr:stedsnr" v="576685" />
	</node>
	<node lat="62.1018638918163" lon="7.20719443729308" id="-2899">
		<tag k="name" v="Geiranger" />
		<tag k="place" v="village" />
		<tag k="ssr:stedsnr" v="617420" />
	</node>
	<node lat="61.993775000709626" lon="6.81106944009906" id="-2901">
		<tag k="historic" v="shieling" />
		<tag k="name" v="Røyrhussætra" />
		<tag k="place" v="isolated_dwelling" />
		<tag k="ssr:stedsnr" v="617250" />
	</node>
	<node lat="62.16114722113536" lon="7.034213895783904" id="-2904">
		<tag k="name" v="Oaldsbygda" />
		<tag k="place" v="hamlet" />
		<tag k="ssr:stedsnr" v="617375" />
	</node>
	<node lat="62.06657222211565" lon="6.933697223755958" id="-2907">
		<tag k="fixme" v="consider place=hamlet" />
		<tag k="name" v="Sunnylvsbygda" />
		<tag k="place" v="village" />
		<tag k="ssr:stedsnr" v="617459" />
	</node>
	<node lat="62.328016289990785" lon="7.058798433822058" id="-2914">
		<tag k="fixme" v="consider place=hamlet" />
		<tag k="name" v="Stavseng" />
		<tag k="place" v="farm" />
		<tag k="ssr:stedsnr" v="618489" />
	</node>
	<node lat="62.33110800797373" lon="6.913323405084728" id="-2917">
		<tag k="fixme" v="consider place=hamlet" />
		<tag k="name" v="Espehjelle" />
		<tag k="place" v="farm" />
		<tag k="ssr:stedsnr" v="618510" />
	</node>
	<node lat="62.23130000261814" lon="6.903994452253956" id="-2920">
		<tag k="name" v="Emdalsgjerdet" />
		<tag k="place" v="farm" />
		<tag k="ssr:stedsnr" v="628177" />
	</node>
	<node lat="62.3067694466565" lon="6.910822214192009" id="-2921">
		<tag k="name" v="Storgjerde" />
		<tag k="place" v="quarter" />
		<tag k="ssr:stedsnr" v="628911" />
	</node>
	<node lat="62.31128611149929" lon="7.067913884473906" id="-2927">
		<tag k="name" v="Austlid" />
		<tag k="place" v="farm" />
		<tag k="ssr:stedsnr" v="636037" />
	</node>
	<node lat="62.08449166718806" lon="6.8262138934968535" id="-2939">
		<tag k="name" v="Øvstesætra" />
		<tag k="place" v="locality" />
		<tag k="ssr:stedsnr" v="637643" />
	</node>
	<node lat="62.032041665749524" lon="6.736200007729459" id="-2947">
		<tag k="name" v="Seljehaugen" />
		<tag k="place" v="isolated_dwelling" />
		<tag k="ssr:stedsnr" v="638250" />
	</node>
	<node lat="62.0335111151594" lon="6.719477768073579" id="-2948">
		<tag k="name" v="Liasætra" />
		<tag k="place" v="locality" />
		<tag k="ssr:stedsnr" v="638463" />
	</node>
	<node lat="62.178333332892" lon="7.016530558423671" id="-2950">
		<tag k="name" v="Åkernesodden" />
		<tag k="place" v="locality" />
		<tag k="ssr:stedsnr" v="638680" />
	</node>
	<node lat="62.31496666904208" lon="7.047519444555726" id="-2968">
		<tag k="name" v="Øvre Ringset" />
		<tag k="place" v="farm" />
		<tag k="ssr:stedsnr" v="665114" />
	</node>
	<node lat="62.22421452952008" lon="6.91917520700586" id="-2971">
		<tag k="name" v="Fjørstad" />
		<tag k="place" v="hamlet" />
		<tag k="ssr:stedsnr" v="717013" />
	</node>
	<node lat="62.35765690531842" lon="6.8758544077847255" id="-2973">
		<tag k="fixme" v="consider place=hamlet" />
		<tag k="name" v="Fausa" />
		<tag k="place" v="farm" />
		<tag k="ssr:stedsnr" v="739682" />
	</node>
	<node lat="62.08330555259365" lon="7.238775006130842" id="-2975">
		<tag k="historic" v="shieling" />
		<tag k="name" v="Vinsåssætra" />
		<tag k="place" v="isolated_dwelling" />
		<tag k="ssr:stedsnr" v="738134" />
	</node>
	<node lat="62.103235882537604" lon="6.7538842061226045" id="-2977">
		<tag k="fixme" v="consider place=hamlet" />
		<tag k="name" v="Fivelstad" />
		<tag k="place" v="farm" />
		<tag k="ssr:stedsnr" v="738379" />
	</node>
	<node lat="62.13670833247918" lon="6.826408332155318" id="-2982">
		<tag k="historic" v="shieling" />
		<tag k="name" v="Ringdalsstølen" />
		<tag k="place" v="isolated_dwelling" />
		<tag k="ssr:stedsnr" v="739336" />
	</node>
	<node lat="62.12501595778731" lon="7.177738713420366" id="-2986">
		<tag k="alt_name" v="Mølsæter" />
		<tag k="fixme" v="consider place=hamlet" />
		<tag k="name" v="Møllsæter" />
		<tag k="place" v="farm" />
		<tag k="ssr:stedsnr" v="739379" />
	</node>
	<node lat="62.097209020694265" lon="7.2039219937627" id="-2987">
		<tag k="fixme" v="consider place=hamlet" />
		<tag k="name" v="Gjørva" />
		<tag k="place" v="farm" />
		<tag k="ssr:stedsnr" v="739413" />
	</node>
	<node lat="62.07716666470432" lon="7.215869450578178" id="-2988">
		<tag k="historic" v="shieling" />
		<tag k="name" v="Flydalsætra" />
		<tag k="place" v="isolated_dwelling" />
		<tag k="ssr:stedsnr" v="739417" />
	</node>
	<node lat="62.05224444708323" lon="6.793602768654162" id="-2990">
		<tag k="name" v="Tronstad" />
		<tag k="place" v="farm" />
		<tag k="ssr:stedsnr" v="739447" />
	</node>
	<node lat="62.026359256164916" lon="7.014445289973286" id="-3003">
		<tag k="fixme" v="consider place=hamlet" />
		<tag k="name" v="Brekke" />
		<tag k="place" v="farm" />
		<tag k="ssr:stedsnr" v="758653" />
	</node>
	<node lat="62.09792777862054" lon="6.765630557672731" id="-3011">
		<tag k="name" v="Tuftene" />
		<tag k="place" v="locality" />
		<tag k="ssr:stedsnr" v="759619" />
	</node>
	<node lat="62.05291111252359" lon="6.790658338826162" id="-3018">
		<tag k="name" v="Strandhaugen" />
		<tag k="place" v="farm" />
		<tag k="ssr:stedsnr" v="759792" />
	</node>
	<node lat="62.12631388448464" lon="6.739808334278801" id="-3023">
		<tag k="name" v="Fivelstadstølen" />
		<tag k="place" v="locality" />
		<tag k="ssr:stedsnr" v="760078" />
	</node>
	<node lat="62.0772083377001" lon="6.931650001517653" id="-3026">
		<tag k="name" v="Litlesætra" />
		<tag k="place" v="locality" />
		<tag k="ssr:stedsnr" v="760267" />
	</node>
	<node lat="62.11444722221394" lon="7.105761120492078" id="-3030">
		<tag k="name" v="Knivsnaustet" />
		<tag k="place" v="locality" />
		<tag k="ssr:stedsnr" v="760627" />
	</node>
	<node lat="62.096558330241656" lon="7.210380558604589" id="-3048">
		<tag k="name" v="Union turisthotell" />
		<tag k="ssr:stedsnr" v="763971" />
		<tag k="tourism" v="hotel" />
	</node>
	<node lat="61.99589722056195" lon="7.041852770964816" id="-3051">
		<tag k="historic" v="shieling" />
		<tag k="name" v="Nedstevassætra" />
		<tag k="place" v="isolated_dwelling" />
		<tag k="ssr:stedsnr" v="798382" />
	</node>
	<node lat="62.20240277538663" lon="6.820972227353206" id="-3052">
		<tag k="historic" v="shieling" />
		<tag k="name" v="Instesætra" />
		<tag k="place" v="isolated_dwelling" />
		<tag k="ssr:stedsnr" v="799327" />
	</node>
	<node lat="62.11009134651775" lon="7.121214566856793" id="-3056">
		<tag k="fixme" v="consider place=hamlet" />
		<tag k="name" v="Skageflå" />
		<tag k="place" v="farm" />
		<tag k="ssr:stedsnr" v="799402" />
	</node>
	<node lat="62.25546388520269" lon="6.977991671969713" id="-3057">
		<tag k="alt_name" v="Uksagsætra" />
		<tag k="historic" v="shieling" />
		<tag k="name" v="Uksagsætra" />
		<tag k="place" v="isolated_dwelling" />
		<tag k="ssr:stedsnr" v="799925" />
	</node>
	<node lat="62.01804399511589" lon="6.93698896224479" id="-3062">
		<tag k="alt_name" v="Frøysadal" />
		<tag k="fixme" v="consider place=hamlet" />
		<tag k="name" v="Frøysadalen" />
		<tag k="place" v="farm" />
		<tag k="ssr:stedsnr" v="800468" />
	</node>
	<node lat="62.283025710687525" lon="6.981930941047675" id="-3065">
		<tag k="fixme" v="consider place=hamlet" />
		<tag k="name" v="Uksvika" />
		<tag k="place" v="farm" />
		<tag k="ssr:stedsnr" v="800566" />
	</node>
	<node lat="62.065055551867594" lon="6.840833340512151" id="-3067">
		<tag k="name" v="Toskedalssætra" />
		<tag k="place" v="isolated_dwelling" />
		<tag k="ssr:stedsnr" v="800421" />
	</node>
	<node lat="62.253275002992474" lon="6.971341663851728" id="-3068">
		<tag k="historic" v="shieling" />
		<tag k="name" v="Vassetsætra" />
		<tag k="place" v="isolated_dwelling" />
		<tag k="ssr:stedsnr" v="800912" />
	</node>
	<node lat="62.2594500019197" lon="6.837333330651326" id="-3069">
		<tag k="historic" v="shieling" />
		<tag k="name" v="Svefonna" />
		<tag k="place" v="isolated_dwelling" />
		<tag k="ssr:stedsnr" v="800915" />
	</node>
	<node lat="62.26181665513635" lon="6.894321130439592" id="-3070">
		<tag k="fixme" v="consider place=hamlet" />
		<tag k="name" v="Habostad" />
		<tag k="place" v="farm" />
		<tag k="ssr:stedsnr" v="800917" />
	</node>
	<node lat="62.17371028728797" lon="7.001650633442913" id="-3075">
		<tag k="fixme" v="consider place=hamlet" />
		<tag k="name" v="Me-Åkerneset" />
		<tag k="place" v="farm" />
		<tag k="ssr:stedsnr" v="814337" />
	</node>
	<node lat="62.30609722499715" lon="7.097488896186014" id="-3081">
		<tag k="name" v="Furuly" />
		<tag k="place" v="farm" />
		<tag k="ssr:stedsnr" v="819168" />
	</node>
	<node lat="62.21967777852997" lon="6.901150002738236" id="-3086">
		<tag k="name" v="Kvitleplassen" />
		<tag k="place" v="locality" />
		<tag k="ssr:stedsnr" v="819737" />
	</node>
	<node lat="62.03578055577702" lon="6.763513888652355" id="-3098">
		<tag k="name" v="Solheim" />
		<tag k="place" v="farm" />
		<tag k="ssr:stedsnr" v="821377" />
	</node>
	<node lat="62.044786114872515" lon="7.0244361155648845" id="-3100">
		<tag k="name" v="Heimstesetra" />
		<tag k="place" v="locality" />
		<tag k="ssr:stedsnr" v="821615" />
	</node>
	<node lat="62.28903888692965" lon="6.892622226323377" id="-3123">
		<tag k="name" v="Bergereiten" />
		<tag k="place" v="farm" />
		<tag k="ssr:stedsnr" v="824818" />
	</node>
	<node lat="62.11647439987935" lon="7.183384531221918" id="-3132">
		<tag k="fixme" v="consider place=hamlet" />
		<tag k="name" v="Grande" />
		<tag k="place" v="farm" />
		<tag k="ssr:stedsnr" v="860440" />
	</node>
	<node lat="62.33168611085597" lon="7.051205555396883" id="-3142">
		<tag k="historic" v="shieling" />
		<tag k="name" v="Gamlesætra" />
		<tag k="place" v="isolated_dwelling" />
		<tag k="ssr:stedsnr" v="861478" />
	</node>
	<node lat="62.28904089916197" lon="6.962975517532597" id="-3152">
		<tag k="fixme" v="consider place=hamlet" />
		<tag k="name" v="Skorbøen" />
		<tag k="place" v="farm" />
		<tag k="ssr:stedsnr" v="861546" />
	</node>
	<node lat="62.33986111375964" lon="6.874913897357124" id="-3154">
		<tag k="fixme" v="multiple name tags, choose one and add the other to alt_name" />
		<tag k="name" v="Sætra;Fausasætra" />
		<tag k="place" v="isolated_dwelling" />
		<tag k="ssr:stedsnr" v="872946" />
	</node>
	<node lat="62.089741662789095" lon="6.778130564943013" id="-3191">
		<tag k="name" v="Fredheim" />
		<tag k="place" v="farm" />
		<tag k="ssr:stedsnr" v="882780" />
	</node>
	<node lat="62.3233194441203" lon="7.078697223263829" id="-3205">
		<tag k="historic" v="shieling" />
		<tag k="name" v="Øvstestølen" />
		<tag k="place" v="isolated_dwelling" />
		<tag k="ssr:stedsnr" v="940137" />
	</node>
	<node lat="62.25142222331381" lon="6.894341672821073" id="-3217">
		<tag k="name" v="Nesheim" />
		<tag k="place" v="farm" />
		<tag k="ssr:stedsnr" v="941328" />
	</node>
	<node lat="62.27465555755227" lon="6.860686111369666" id="-3219">
		<tag k="name" v="Nordlia" />
		<tag k="place" v="isolated_dwelling" />
		<tag k="ssr:stedsnr" v="941572" />
	</node>
	<node lat="62.27993611123778" lon="6.885944452570578" id="-3227">
		<tag k="name" v="Rysteplassen" />
		<tag k="place" v="farm" />
		<tag k="ssr:stedsnr" v="941995" />
	</node>
	<node lat="62.020966666522" lon="7.022627780901994" id="-3261">
		<tag k="name" v="Ekre" />
		<tag k="place" v="farm" />
		<tag k="ssr:stedsnr" v="942965" />
	</node>
	<node lat="62.133408332443615" lon="6.928958330637941" id="-3265">
		<tag k="name" v="Litlesætra" />
		<tag k="place" v="locality" />
		<tag k="ssr:stedsnr" v="943800" />
	</node>
	<node lat="62.08474569944496" lon="6.866194481403641" id="-3286">
		<tag k="fixme" v="consider place=hamlet" />
		<tag k="name" v="Hellesylt" />
		<tag k="place" v="farm" />
		<tag k="ssr:stedsnr" v="983410" />
	</node>
	<node lat="62.31507241026742" lon="6.926157995087617" id="-3301">
		<tag k="name" v="Ødegård" />
		<tag k="place" v="farm" />
		<tag k="ssr:stedsnr" v="1081465" />
=======
	<node id="-67775" lat="62.2337611112" lon="6.8554194508">
		<tag k="name" v="Myklebustsætra" />
		<tag k="place" v="isolated_dwelling" />
		<tag k="ssr:stedsnr" v="132257" />
	</node>
	<node id="-68214" lat="62.3153281219" lon="7.04906824427">
		<tag k="name" v="Ringset" />
		<tag k="place" v="hamlet" />
		<tag k="ssr:stedsnr" v="557492" />
	</node>
	<node id="-67433" lat="62.3233194441" lon="7.07869722326">
		<tag k="historic" v="shieling" />
		<tag k="name" v="Øvstestølen" />
		<tag k="place" v="locality" />
		<tag k="ssr:stedsnr" v="940137" />
	</node>
	<node id="-67699" lat="62.2979333337" lon="7.10406943836">
		<tag k="name" v="Nesheim" />
		<tag k="place" v="farm" />
		<tag k="ssr:stedsnr" v="91185" />
	</node>
	<node id="-67535" lat="62.0209666665" lon="7.0226277809">
		<tag k="name" v="Ekre" />
		<tag k="place" v="farm" />
		<tag k="ssr:stedsnr" v="942965" />
	</node>
	<node id="-68209" lat="62.1196739967" lon="7.18386306775">
		<tag k="fixme" v="consider place=hamlet" />
		<tag k="name" v="Møll" />
		<tag k="place" v="farm" />
		<tag k="ssr:stedsnr" v="557378" />
	</node>
	<node id="-67688" lat="62.3029226114" lon="6.92350752687">
		<tag k="fixme" v="consider place=hamlet" />
		<tag k="name" v="Framhus" />
		<tag k="place" v="farm" />
		<tag k="ssr:stedsnr" v="72573" />
	</node>
	<node id="-68206" lat="62.1130020404" lon="6.97396378434">
		<tag k="fixme" v="consider place=hamlet" />
		<tag k="name" v="Matvika" />
		<tag k="place" v="farm" />
		<tag k="ssr:stedsnr" v="556432" />
	</node>
	<node id="-67692" lat="62.1169604309" lon="6.96375721496">
		<tag k="fixme" v="consider place=hamlet" />
		<tag k="name" v="Lundaneset" />
		<tag k="place" v="farm" />
		<tag k="ssr:stedsnr" v="83038" />
	</node>
	<node id="-66667" lat="62.0363348966" lon="7.00950985406">
		<tag k="fixme" v="consider place=hamlet" />
		<tag k="name" v="Ytre Bjørdal" />
		<tag k="place" v="farm" />
		<tag k="ssr:stedsnr" v="151631" />
	</node>
	<node id="-67690" lat="62.3126452313" lon="7.022481349">
		<tag k="fixme" v="consider place=hamlet" />
		<tag k="name" v="Ansok" />
		<tag k="place" v="farm" />
		<tag k="ssr:stedsnr" v="72595" />
	</node>
	<node id="-67689" lat="62.3095527937" lon="6.92281907522">
		<tag k="fixme" v="consider place=hamlet" />
		<tag k="name" v="Ringstad" />
		<tag k="place" v="farm" />
		<tag k="ssr:stedsnr" v="72590" />
	</node>
	<node id="-68200" lat="62.0474000034" lon="6.94235833992">
		<tag k="fixme" v="multiple name tags, choose one and add the other to alt_name; consider place=hamlet" />
		<tag k="name" v="Frøysøye;Myrane" />
		<tag k="place" v="farm" />
		<tag k="ssr:stedsnr" v="556480" />
	</node>
	<node id="-67175" lat="62.2771454418" lon="6.8702350498">
		<tag k="fixme" v="consider place=hamlet" />
		<tag k="name" v="Nedre Furset" />
		<tag k="place" v="farm" />
		<tag k="ssr:stedsnr" v="637612" />
	</node>
	<node id="-68197" lat="62.0748500032" lon="6.8982888875">
		<tag k="name" v="Hølsbakken" />
		<tag k="place" v="farm" />
		<tag k="ssr:stedsnr" v="536442" />
	</node>
	<node id="-67684" lat="62.2099972261" lon="6.71748889135">
		<tag k="fixme" v="consider tourism=alpine_hut or tourism=chalet" />
		<tag k="name" v="Patchellhytta" />
		<tag k="ssr:stedsnr" v="72279" />
		<tag k="tourism" v="wilderness_hut" />
	</node>
	<node id="-67064" lat="62.0853250033" lon="7.21697499508">
		<tag k="name" v="Flydal" />
		<tag k="place" v="farm" />
		<tag k="ssr:stedsnr" v="496462" />
	</node>
	<node id="-68194" lat="62.3052638915" lon="6.90147777873">
		<tag k="name" v="Storgjerdet" />
		<tag k="place" v="farm" />
		<tag k="ssr:stedsnr" v="521840" />
	</node>
	<node id="-67680" lat="62.0606416674" lon="6.79418054685">
		<tag k="name" v="Fjelltun" />
		<tag k="place" v="farm" />
		<tag k="ssr:stedsnr" v="72398" />
	</node>
	<node id="-68191" lat="62.2944194429" lon="6.90348332871">
		<tag k="name" v="Korsbakken" />
		<tag k="place" v="farm" />
		<tag k="ssr:stedsnr" v="521816" />
	</node>
	<node id="-67164" lat="62.0984544633" lon="7.21027316833">
		<tag k="fixme" v="consider place=hamlet" />
		<tag k="name" v="Vinje" />
		<tag k="place" v="farm" />
		<tag k="ssr:stedsnr" v="629211" />
	</node>
	<node id="-67258" lat="62.0897416628" lon="6.77813056494">
		<tag k="name" v="Fredheim" />
		<tag k="place" v="farm" />
		<tag k="ssr:stedsnr" v="882780" />
	</node>
	<node id="-68479" lat="62.0965583302" lon="7.2103805586">
		<tag k="name" v="Union turisthotell" />
		<tag k="ssr:stedsnr" v="763971" />
		<tag k="tourism" v="hotel" />
	</node>
	<node id="-67023" lat="62.0546096078" lon="6.93759281146">
		<tag k="fixme" v="consider place=hamlet" />
		<tag k="name" v="Storstein" />
		<tag k="place" v="farm" />
		<tag k="ssr:stedsnr" v="436418" />
	</node>
	<node id="-67158" lat="62.1018638918" lon="7.20719443729">
		<tag k="name" v="Geiranger" />
		<tag k="place" v="village" />
		<tag k="ssr:stedsnr" v="617420" />
	</node>
	<node id="-67157" lat="62.1121888928" lon="7.13317222878">
		<tag k="historic" v="shieling" />
		<tag k="name" v="Homlungsætra" />
		<tag k="place" v="locality" />
		<tag k="ssr:stedsnr" v="617413" />
	</node>
	<node id="-67156" lat="62.1611472211" lon="7.03421389578">
		<tag k="name" v="Oaldsbygda" />
		<tag k="place" v="hamlet" />
		<tag k="ssr:stedsnr" v="617375" />
	</node>
	<node id="-67667" lat="62.1665831504" lon="6.98725919114">
		<tag k="name" v="Inste Åkerneset" />
		<tag k="place" v="locality" />
		<tag k="ssr:stedsnr" v="71380" />
	</node>
	<node id="-68177" lat="62.1062305559" lon="7.23267499774">
		<tag k="historic" v="shieling" />
		<tag k="name" v="Storsætra" />
		<tag k="place" v="locality" />
		<tag k="ssr:stedsnr" v="436072" />
	</node>
	<node id="-66640" lat="62.0321823022" lon="7.01108435854">
		<tag k="fixme" v="consider place=hamlet" />
		<tag k="name" v="Indre Bjørdal" />
		<tag k="place" v="farm" />
		<tag k="ssr:stedsnr" v="273647" />
	</node>
	<node id="-67768" lat="62.0135416704" lon="6.94686110644">
		<tag k="historic" v="shieling" />
		<tag k="name" v="Djupgjølet" />
		<tag k="place" v="locality" />
		<tag k="ssr:stedsnr" v="131444" />
	</node>
	<node id="-67661" lat="62.0629777773" lon="7.24796943751">
		<tag k="fixme" v="multiple name tags, choose one and add the other to alt_name" />
		<tag k="historic" v="shieling" />
		<tag k="name" v="Dalssætra;Opplendskedalsætra" />
		<tag k="place" v="locality" />
		<tag k="ssr:stedsnr" v="71095" />
	</node>
	<node id="-67660" lat="62.0615888851" lon="7.26842499586">
		<tag k="historic" v="shieling" />
		<tag k="name" v="Kvanndalssætra" />
		<tag k="place" v="locality" />
		<tag k="ssr:stedsnr" v="71093" />
	</node>
	<node id="-67238" lat="62.1095626659" lon="7.09661247223">
		<tag k="fixme" v="consider place=hamlet" />
		<tag k="name" v="Knivsflå" />
		<tag k="place" v="farm" />
		<tag k="ssr:stedsnr" v="678410" />
	</node>
	<node id="-67057" lat="62.2777499999" lon="6.94112778577">
		<tag k="historic" v="shieling" />
		<tag k="name" v="Smørhola" />
		<tag k="place" v="locality" />
		<tag k="ssr:stedsnr" v="679541" />
	</node>
	<node id="-67141" lat="62.083072219" lon="7.22506665776">
		<tag k="name" v="Haugane" />
		<tag k="place" v="farm" />
		<tag k="ssr:stedsnr" v="578058" />
	</node>
	<node id="-66628" lat="62.2661222207" lon="6.96554722363">
		<tag k="alt_name" v="Opsviksetra" />
		<tag k="historic" v="shieling" />
		<tag k="name" v="Uksviksætra" />
		<tag k="place" v="locality" />
		<tag k="ssr:stedsnr" v="132917" />
	</node>
	<node id="-67650" lat="62.3033722216" lon="6.94290000276">
		<tag k="name" v="Lunde" />
		<tag k="place" v="farm" />
		<tag k="ssr:stedsnr" v="35853" />
	</node>
	<node id="-66625" lat="62.0372969025" lon="7.00326282304">
		<tag k="fixme" v="consider place=hamlet" />
		<tag k="name" v="Par" />
		<tag k="place" v="farm" />
		<tag k="ssr:stedsnr" v="132440" />
	</node>
	<node id="-67136" lat="62.2471361118" lon="6.91001944863">
		<tag k="name" v="Kallbakken" />
		<tag k="place" v="farm" />
		<tag k="ssr:stedsnr" v="576661" />
	</node>
	<node id="-68159" lat="62.0962527746" lon="7.22593889395">
		<tag k="name" v="Hole hytteutleige" />
		<tag k="ssr:stedsnr" v="399538" />
		<tag k="tourism" v="camp_site" />
	</node>
	<node id="-67646" lat="62.3133104552" lon="6.93253913599">
		<tag k="fixme" v="consider place=hamlet" />
		<tag k="name" v="Hjelle" />
		<tag k="place" v="farm" />
		<tag k="ssr:stedsnr" v="35813" />
	</node>
	<node id="-67550" lat="62.0854888878" lon="6.8676916657">
		<tag k="name" v="Hellesylt" />
		<tag k="place" v="village" />
		<tag k="ssr:stedsnr" v="10385" />
	</node>
	<node id="-68155" lat="62.2903805589" lon="6.83993610259">
		<tag k="landuse" v="winter_sports" />
		<tag k="name" v="Strandafjellet skisenter" />
		<tag k="piste:type" v="downhill" />
		<tag k="ssr:stedsnr" v="397424" />
	</node>
	<node id="-66617" lat="62.0768986744" lon="7.24148332098">
		<tag k="fixme" v="consider place=hamlet" />
		<tag k="name" v="Ørjasætra" />
		<tag k="place" v="farm" />
		<tag k="ssr:stedsnr" v="131125" />
	</node>
	<node id="-67128" lat="62.289088886" lon="6.906422229">
		<tag k="name" v="Neset" />
		<tag k="place" v="farm" />
		<tag k="ssr:stedsnr" v="703828" />
	</node>
	<node id="-67582" lat="62.2967583364" lon="6.81515555563">
		<tag k="historic" v="shieling" />
		<tag k="name" v="Langlosætra" />
		<tag k="place" v="locality" />
		<tag k="ssr:stedsnr" v="25739" />
	</node>
	<node id="-68010" lat="62.27481944" lon="6.84121943716">
		<tag k="historic" v="shieling" />
		<tag k="name" v="Gamlesætra" />
		<tag k="place" v="locality" />
		<tag k="ssr:stedsnr" v="334548" />
	</node>
	<node id="-67422" lat="62.2890388869" lon="6.89262222632">
		<tag k="name" v="Bergereiten" />
		<tag k="place" v="farm" />
		<tag k="ssr:stedsnr" v="824818" />
	</node>
	<node id="-67634" lat="62.1172305571" lon="6.97463054611">
		<tag k="name" v="Robben" />
		<tag k="place" v="locality" />
		<tag k="ssr:stedsnr" v="32833" />
	</node>
	<node id="-67121" lat="62.277058332" lon="6.94212777034">
		<tag k="historic" v="shieling" />
		<tag k="name" v="Helsemsetra" />
		<tag k="place" v="locality" />
		<tag k="ssr:stedsnr" v="702716" />
	</node>
	<node id="-67362" lat="62.0501999969" lon="6.91264999408">
		<tag k="historic" v="shieling" />
		<tag k="name" v="Haugestølen" />
		<tag k="place" v="locality" />
		<tag k="ssr:stedsnr" v="921473" />
	</node>
	<node id="-67080" lat="62.2957333312" lon="6.8337638885">
		<tag k="alt_name" v="Hevsdalssætra" />
		<tag k="historic" v="shieling" />
		<tag k="name" v="Hevsdalen" />
		<tag k="place" v="locality" />
		<tag k="ssr:stedsnr" v="690931" />
	</node>
	<node id="-67118" lat="62.1096177701" lon="6.73814189627">
		<tag k="fixme" v="consider place=hamlet" />
		<tag k="name" v="Fivelstadhaugen" />
		<tag k="place" v="farm" />
		<tag k="ssr:stedsnr" v="557362" />
	</node>
	<node id="-67038" lat="62.242550895" lon="6.90920015791">
		<tag k="fixme" v="consider place=hamlet" />
		<tag k="name" v="Rødset" />
		<tag k="place" v="farm" />
		<tag k="ssr:stedsnr" v="678285" />
	</node>
	<node id="-66604" lat="62.0440416638" lon="7.09638056491">
		<tag k="fixme" v="multiple name tags, choose one and add the other to alt_name" />
		<tag k="name" v="Holestølen;Holesætra" />
		<tag k="place" v="isolated_dwelling" />
		<tag k="ssr:stedsnr" v="254421" />
	</node>
	<node id="-67115" lat="62.1164385427" lon="6.91417464">
		<tag k="fixme" v="consider place=hamlet" />
		<tag k="name" v="Øvre Ljøen" />
		<tag k="place" v="farm" />
		<tag k="ssr:stedsnr" v="557352" />
	</node>
	<node id="-68315" lat="62.2313000026" lon="6.90399445225">
		<tag k="name" v="Emdalsgjerdet" />
		<tag k="place" v="farm" />
		<tag k="ssr:stedsnr" v="628177" />
	</node>
	<node id="-66597" lat="62.2712219956" lon="6.85595519588">
		<tag k="fixme" v="consider place=hamlet" />
		<tag k="name" v="Lia" />
		<tag k="place" v="farm" />
		<tag k="ssr:stedsnr" v="253588" />
	</node>
	<node id="-68615" lat="62.0950617555" lon="6.85563932827">
		<tag k="name" v="Ringdalen" />
		<tag k="place" v="farm" />
		<tag k="ssr:stedsnr" v="989230" />
	</node>
	<node id="-67107" lat="62.0753967868" lon="6.8000563464">
		<tag k="fixme" v="consider place=hamlet" />
		<tag k="name" v="Tryggestad" />
		<tag k="place" v="farm" />
		<tag k="ssr:stedsnr" v="556472" />
	</node>
	<node id="-67106" lat="62.1004259392" lon="7.20573861691">
		<tag k="fixme" v="consider place=hamlet" />
		<tag k="name" v="Maråk" />
		<tag k="place" v="farm" />
		<tag k="ssr:stedsnr" v="556459" />
	</node>
	<node id="-67105" lat="62.1369972229" lon="6.82515834283">
		<tag k="historic" v="shieling" />
		<tag k="name" v="Bygdastølen" />
		<tag k="place" v="locality" />
		<tag k="ssr:stedsnr" v="556418" />
	</node>
	<node id="-68126" lat="62.1763249988" lon="6.92359166856">
		<tag k="name" v="Sætra" />
		<tag k="place" v="locality" />
		<tag k="ssr:stedsnr" v="396127" />
	</node>
	<node id="-66821" lat="62.2539638897" lon="6.9948583244">
		<tag k="name" v="Lisætra" />
		<tag k="place" v="locality" />
		<tag k="ssr:stedsnr" v="457848" />
	</node>
	<node id="-66588" lat="62.1000671139" lon="7.07760948905">
		<tag k="name" v="Horvadraget" />
		<tag k="place" v="locality" />
		<tag k="ssr:stedsnr" v="253455" />
	</node>
	<node id="-67162" lat="62.3086361134" lon="6.93716667438">
		<tag k="name" v="Stranda" />
		<tag k="place" v="village" />
		<tag k="ssr:stedsnr" v="618607" />
	</node>
	<node id="-66584" lat="62.1425777741" lon="6.9879638798">
		<tag k="name" v="Almane" />
		<tag k="place" v="locality" />
		<tag k="ssr:stedsnr" v="253422" />
	</node>
	<node id="-68119" lat="62.0533583324" lon="6.79095555723">
		<tag k="name" v="Leite" />
		<tag k="place" v="farm" />
		<tag k="ssr:stedsnr" v="395831" />
	</node>
	<node id="-68118" lat="62.1770055556" lon="7.00969166519">
		<tag k="historic" v="shieling" />
		<tag k="name" v="Litlesætra" />
		<tag k="place" v="locality" />
		<tag k="ssr:stedsnr" v="395719" />
	</node>
	<node id="-66721" lat="62.2959277768" lon="6.87166945113">
		<tag k="historic" v="shieling" />
		<tag k="name" v="Ringstadsætra" />
		<tag k="place" v="locality" />
		<tag k="ssr:stedsnr" v="193606" />
	</node>
	<node id="-68401" lat="62.1862075518" lon="6.92773809326">
		<tag k="fixme" v="consider place=hamlet" />
		<tag k="name" v="Røyr" />
		<tag k="place" v="farm" />
		<tag k="ssr:stedsnr" v="739300" />
	</node>
	<node id="-66577" lat="62.2461235194" lon="6.90671758414">
		<tag k="fixme" v="consider place=hamlet" />
		<tag k="name" v="Gjerde" />
		<tag k="place" v="farm" />
		<tag k="ssr:stedsnr" v="253302" />
	</node>
	<node id="-67088" lat="62.2342333308" lon="6.86032222365">
		<tag k="name" v="Litlestølen" />
		<tag k="place" v="locality" />
		<tag k="ssr:stedsnr" v="699449" />
	</node>
	<node id="-67672" lat="62.0726202734" lon="6.7964515889">
		<tag k="alt_name" v="Litlebø" />
		<tag k="fixme" v="consider place=hamlet" />
		<tag k="name" v="Litlebøen" />
		<tag k="place" v="farm" />
		<tag k="ssr:stedsnr" v="71456" />
	</node>
	<node id="-66574" lat="62.1207235845" lon="7.17948481677">
		<tag k="fixme" v="consider place=hamlet" />
		<tag k="name" v="Møllsbygda" />
		<tag k="place" v="village" />
		<tag k="ssr:stedsnr" v="92614" />
	</node>
	<node id="-68175" lat="62.0360527801" lon="6.76106389438">
		<tag k="name" v="Langøylia" />
		<tag k="place" v="farm" />
		<tag k="ssr:stedsnr" v="436443" />
	</node>
	<node id="-68618" lat="62.0952583454" lon="6.85817633892">
		<tag k="name" v="Ringdalen" />
		<tag k="place" v="farm" />
		<tag k="ssr:stedsnr" v="989233" />
	</node>
	<node id="-68617" lat="62.0943057797" lon="6.85696769182">
		<tag k="name" v="Ringdalen" />
		<tag k="place" v="farm" />
		<tag k="ssr:stedsnr" v="989232" />
	</node>
	<node id="-68616" lat="62.0954826292" lon="6.85520681873">
		<tag k="name" v="Ringdalen" />
		<tag k="place" v="farm" />
		<tag k="ssr:stedsnr" v="989231" />
	</node>
	<node id="-67079" lat="62.099524999" lon="7.06818888298">
		<tag k="name" v="Megardsplassen" />
		<tag k="place" v="locality" />
		<tag k="ssr:stedsnr" v="690895" />
	</node>
	<node id="-66565" lat="62.0483111136" lon="7.00006666848">
		<tag k="name" v="Helsetsætra" />
		<tag k="place" v="isolated_dwelling" />
		<tag k="ssr:stedsnr" v="72420" />
	</node>
	<node id="-67588" lat="62.3157289816" lon="7.05015267511">
		<tag k="alt_name" v="Øvre Ringset" />
		<tag k="name" v="Nedre Ringset" />
		<tag k="place" v="farm" />
		<tag k="ssr:stedsnr" v="30952" />
	</node>
	<node id="-68173" lat="62.1807636931" lon="7.0128883018">
		<tag k="fixme" v="consider place=hamlet" />
		<tag k="name" v="Ytste Åkerneset" />
		<tag k="place" v="farm" />
		<tag k="ssr:stedsnr" v="435367" />
	</node>
	<node id="-67889" lat="62.1293750019" lon="7.17461111478">
		<tag k="alt_name" v="Hausetsætrane" />
		<tag k="historic" v="shieling" />
		<tag k="name" v="Haugset" />
		<tag k="place" v="locality" />
		<tag k="ssr:stedsnr" v="193393" />
	</node>
	<node id="-66987" lat="62.1533638883" lon="7.04664166561">
		<tag k="name" v="Dammen" />
		<tag k="place" v="isolated_dwelling" />
		<tag k="ssr:stedsnr" v="517306" />
>>>>>>> e1d4bc35ff8a6074a6f2e91616a996b547c36f15
	</node>
</osm>
