<?xml version="1.0" encoding="UTF-8"?>
<<<<<<< HEAD
<osm version="0.6" generator="osmapis">
	<node lat="62.0565333323912" lon="6.949341668953831" id="-1171">
		<tag k="name" v="Helsetvatnet" />
		<tag k="natural" v="water" />
		<tag k="ssr:stedsnr" v="11446" />
	</node>
	<node lat="62.12521944680419" lon="6.7359194439166545" id="-1178">
		<tag k="name" v="Geilskredvatnet" />
		<tag k="natural" v="water" />
		<tag k="ssr:stedsnr" v="23807" />
		<tag k="water" v="lake" />
	</node>
	<node lat="62.17393610911102" lon="6.992663894881277" id="-1185">
		<tag k="name" v="Flosteinfonna" />
		<tag k="ssr:stedsnr" v="32083" />
		<tag k="waterway" v="stream" />
	</node>
	<node lat="62.07677777733394" lon="7.209319453455376" id="-1187">
		<tag k="name" v="Storskreda" />
		<tag k="ssr:stedsnr" v="32211" />
		<tag k="waterway" v="stream" />
	</node>
	<node lat="62.158908332347224" lon="7.047763897335385" id="-1188">
		<tag k="name" v="Slettebakkelva" />
		<tag k="ssr:stedsnr" v="32337" />
		<tag k="waterway" v="river" />
	</node>
	<node lat="62.172766667000964" lon="7.043533324877482" id="-1189">
		<tag k="name" v="Plassefonna" />
		<tag k="ssr:stedsnr" v="32339" />
		<tag k="waterway" v="stream" />
	</node>
	<node lat="62.020988886310924" lon="6.747966668954435" id="-1193">
		<tag k="name" v="Pekvernfossen" />
		<tag k="natural" v="waterfall" />
		<tag k="ssr:stedsnr" v="32671" />
	</node>
	<node lat="62.1319361083903" lon="6.98138056418885" id="-1194">
		<tag k="name" v="Halvrogrova" />
		<tag k="ssr:stedsnr" v="32805" />
		<tag k="waterway" v="stream" />
	</node>
	<node lat="62.12906666544555" lon="6.9770194401494265" id="-1196">
		<tag k="name" v="Kilegrova" />
		<tag k="ssr:stedsnr" v="32808" />
		<tag k="waterway" v="stream" />
	</node>
	<node lat="62.04447499701863" lon="7.036697218741698" id="-1199">
		<tag k="name" v="Litlesætergrova" />
		<tag k="ssr:stedsnr" v="32887" />
		<tag k="waterway" v="stream" />
	</node>
	<node lat="61.985997225202276" lon="7.036438887233728" id="-1202">
		<tag k="name" v="Skurveneset" />
		<tag k="natural" v="cape" />
		<tag k="ssr:stedsnr" v="32962" />
	</node>
	<node lat="61.986252780984564" lon="7.039347226122903" id="-1208">
		<tag k="name" v="Stigholvatnet" />
		<tag k="natural" v="water" />
		<tag k="ssr:stedsnr" v="70376" />
		<tag k="water" v="lake" />
	</node>
	<node lat="62.315297225895975" lon="7.041549993501942" id="-1229">
		<tag k="name" v="Olagrova" />
		<tag k="ssr:stedsnr" v="91963" />
		<tag k="waterway" v="stream" />
	</node>
	<node lat="62.06878333202934" lon="6.829069436608333" id="-1236">
		<tag k="name" v="Steingrova" />
		<tag k="ssr:stedsnr" v="92808" />
		<tag k="waterway" v="stream" />
	</node>
	<node lat="62.08323333532503" lon="7.214366669694482" id="-1243">
		<tag k="name" v="Gjerdhauggrova" />
		<tag k="ssr:stedsnr" v="93210" />
		<tag k="waterway" v="stream" />
	</node>
	<node lat="62.03752222343779" lon="6.962900001822016" id="-1250">
		<tag k="name" v="Langøya" />
		<tag k="natural" v="cape" />
		<tag k="ssr:stedsnr" v="93571" />
	</node>
	<node lat="62.29086944527868" lon="6.903741669099272" id="-1258">
		<tag k="name" v="Storøyhølen" />
		<tag k="place" v="locality" />
		<tag k="ssr:stedsnr" v="96802" />
	</node>
	<node lat="62.337305557318544" lon="6.818986101708024" id="-1269">
		<tag k="name" v="Raudegrova" />
		<tag k="ssr:stedsnr" v="132502" />
		<tag k="waterway" v="stream" />
	</node>
	<node lat="62.169763887048425" lon="6.924447222384989" id="-1276">
		<tag k="name" v="Heimste Herdalsvatnet" />
		<tag k="natural" v="water" />
		<tag k="ssr:stedsnr" v="253382" />
	</node>
	<node lat="62.04338055253834" lon="6.996600003228817" id="-1279">
		<tag k="name" v="Liaelva" />
		<tag k="ssr:stedsnr" v="253487" />
		<tag k="waterway" v="stream" />
	</node>
	<node lat="62.101471147326215" lon="7.111298169782195" id="-1284">
		<tag k="alt_name" v="Skageflåfossen" />
		<tag k="fixme" v="multiple name tags, choose one and add the other to alt_name" />
		<tag k="name" v="Friaren;Geitfossen" />
		<tag k="natural" v="waterfall" />
		<tag k="ssr:stedsnr" v="253456" />
	</node>
	<node lat="62.23207777526555" lon="6.780855554191297" id="-1289">
		<tag k="name" v="Engsetelva" />
		<tag k="ssr:stedsnr" v="253597" />
		<tag k="waterway" v="river" />
	</node>
	<node lat="62.00585000123736" lon="6.9964361033404705" id="-1290">
		<tag k="name" v="Storvatnet" />
		<tag k="natural" v="water" />
		<tag k="ssr:stedsnr" v="253532" />
	</node>
	<node lat="62.22943055229637" lon="6.9840999934673365" id="-1292">
		<tag k="name" v="Duklidalsvatnet" />
		<tag k="natural" v="water" />
		<tag k="ssr:stedsnr" v="254257" />
	</node>
	<node lat="62.26849721991212" lon="6.761108330267082" id="-1298">
		<tag k="name" v="Tindeskardvatnet" />
		<tag k="natural" v="water" />
		<tag k="ssr:stedsnr" v="254544" />
	</node>
	<node lat="62.09399166430088" lon="6.7767361024046835" id="-1317">
		<tag k="name" v="Lomvatnet" />
		<tag k="natural" v="water" />
		<tag k="ssr:stedsnr" v="153851" />
	</node>
	<node lat="62.157988892199334" lon="6.964716661022108" id="-1319">
		<tag k="name" v="Ytste Reketeigfonna" />
		<tag k="ssr:stedsnr" v="154204" />
		<tag k="waterway" v="stream" />
	</node>
	<node lat="62.305472218641775" lon="7.117036107526377" id="-1333">
		<tag k="name" v="Instefonngrova" />
		<tag k="ssr:stedsnr" v="212194" />
		<tag k="waterway" v="stream" />
	</node>
	<node lat="62.17555555116582" lon="7.007861106194913" id="-1348">
		<tag k="name" v="Våssetgrova" />
		<tag k="ssr:stedsnr" v="214093" />
		<tag k="waterway" v="stream" />
	</node>
	<node lat="62.05232499787468" lon="6.733308340938232" id="-1352">
		<tag k="name" v="Kokartjørna" />
		<tag k="natural" v="water" />
		<tag k="ssr:stedsnr" v="214529" />
	</node>
	<node lat="62.045088891702356" lon="7.1155444369928755" id="-1360">
		<tag k="name" v="Hestevika" />
		<tag k="natural" v="bay" />
		<tag k="ssr:stedsnr" v="214785" />
	</node>
	<node lat="62.121694445002525" lon="6.9236583379175745" id="-1368">
		<tag k="name" v="Ljøelva" />
		<tag k="ssr:stedsnr" v="214880" />
		<tag k="waterway" v="river" />
	</node>
	<node lat="62.29403333531308" lon="6.808513881928821" id="-1387">
		<tag k="name" v="Elvakrokane" />
		<tag k="place" v="locality" />
		<tag k="ssr:stedsnr" v="455369" />
	</node>
	<node lat="61.99827777842832" lon="6.798274992415257" id="-1398">
		<tag k="name" v="Røyrhuselva" />
		<tag k="ssr:stedsnr" v="253510" />
		<tag k="waterway" v="river" />
	</node>
	<node lat="62.336133336382055" lon="7.022258334340703" id="-1403">
		<tag k="name" v="Storgrova" />
		<tag k="ssr:stedsnr" v="254610" />
		<tag k="waterway" v="stream" />
	</node>
	<node lat="62.26901111223613" lon="6.880869444761689" id="-1404">
		<tag k="name" v="Storelva" />
		<tag k="ssr:stedsnr" v="254613" />
		<tag k="waterway" v="river" />
	</node>
	<node lat="62.18500000346969" lon="6.920922231349692" id="-1414">
		<tag k="name" v="Bøyravatnet" />
		<tag k="natural" v="water" />
		<tag k="ssr:stedsnr" v="456788" />
	</node>
	<node lat="62.171513891961666" lon="6.985911102999768" id="-1415">
		<tag k="name" v="Ruslå" />
		<tag k="ssr:stedsnr" v="457095" />
		<tag k="waterway" v="stream" />
	</node>
	<node lat="62.07811944342464" lon="7.213177769372321" id="-1417">
		<tag k="name" v="Sæterelva" />
		<tag k="ssr:stedsnr" v="457226" />
		<tag k="waterway" v="river" />
	</node>
	<node lat="62.169641665278434" lon="7.042569435284045" id="-1425">
		<tag k="name" v="Heimstefonna" />
		<tag k="ssr:stedsnr" v="457336" />
		<tag k="waterway" v="stream" />
	</node>
	<node lat="62.04401389214108" lon="6.758658339972799" id="-1426">
		<tag k="name" v="Svortøykroken" />
		<tag k="natural" v="water" />
		<tag k="ssr:stedsnr" v="457454" />
		<tag k="water" v="lake" />
	</node>
	<node lat="62.01567778089764" lon="6.939908340391433" id="-1427">
		<tag k="name" v="Reitabakkgrova" />
		<tag k="ssr:stedsnr" v="457608" />
		<tag k="waterway" v="stream" />
	</node>
	<node lat="62.1276138850256" lon="7.117522227665935" id="-1428">
		<tag k="name" v="Bringeelva" />
		<tag k="ssr:stedsnr" v="457594" />
		<tag k="waterway" v="river" />
	</node>
	<node lat="62.33717222086914" lon="6.965377771767009" id="-1452">
		<tag k="name" v="Uragrova" />
		<tag k="ssr:stedsnr" v="273902" />
		<tag k="waterway" v="stream" />
	</node>
	<node lat="62.071227777027524" lon="6.798827786486701" id="-1454">
		<tag k="name" v="Gjurasåen" />
		<tag k="ssr:stedsnr" v="274578" />
		<tag k="waterway" v="stream" />
	</node>
	<node lat="62.20684588022518" lon="6.917841351280562" id="-1457">
		<tag k="name" v="Mellomtangen" />
		<tag k="natural" v="cape" />
		<tag k="ssr:stedsnr" v="274724" />
	</node>
	<node lat="62.16787777881941" lon="6.9797916720868765" id="-1463">
		<tag k="name" v="Reitgjølå" />
		<tag k="ssr:stedsnr" v="275085" />
		<tag k="waterway" v="stream" />
	</node>
	<node lat="62.05555278144197" lon="6.931755560373342" id="-1466">
		<tag k="name" v="Haugedalselva" />
		<tag k="ssr:stedsnr" v="275285" />
		<tag k="waterway" v="river" />
	</node>
	<node lat="62.149672223059476" lon="7.211497217161547" id="-1476">
		<tag k="fixme" v="multiple name tags, choose one and add the other to alt_name" />
		<tag k="name" v="Hesjeelva;Hesjedalselva" />
		<tag k="ssr:stedsnr" v="278610" />
		<tag k="waterway" v="river" />
	</node>
	<node lat="62.30782777327892" lon="6.924986107866288" id="-1481">
		<tag k="name" v="Ringstadelva" />
		<tag k="ssr:stedsnr" v="460830" />
		<tag k="waterway" v="stream" />
	</node>
	<node lat="62.34812499772997" lon="6.820911118398864" id="-1483">
		<tag k="name" v="Bollholmen" />
		<tag k="place" v="islet" />
		<tag k="ssr:stedsnr" v="460980" />
	</node>
	<node lat="61.99666667063602" lon="6.809036105660414" id="-1487">
		<tag k="name" v="Storegrova" />
		<tag k="ssr:stedsnr" v="289036" />
		<tag k="waterway" v="stream" />
	</node>
	<node lat="62.04131388580546" lon="7.289680550830201" id="-1491">
		<tag k="name" v="Litledalsvatnet" />
		<tag k="natural" v="water" />
		<tag k="ssr:stedsnr" v="314166" />
	</node>
	<node lat="62.07027777625981" lon="7.127777768835788" id="-1501">
		<tag k="name" v="Løkene" />
		<tag k="natural" v="water" />
		<tag k="ssr:stedsnr" v="314479" />
	</node>
	<node lat="62.281208334824434" lon="6.954597230787146" id="-1507">
		<tag k="name" v="Langedekta" />
		<tag k="ssr:stedsnr" v="315563" />
		<tag k="waterway" v="stream" />
	</node>
	<node lat="62.06713888562815" lon="6.821186107541713" id="-1518">
		<tag k="name" v="Storegrova" />
		<tag k="ssr:stedsnr" v="334808" />
		<tag k="waterway" v="stream" />
	</node>
	<node lat="62.01711389093714" lon="6.753075001585601" id="-1525">
		<tag k="name" v="Krokøyna" />
		<tag k="place" v="island" />
		<tag k="ssr:stedsnr" v="335722" />
	</node>
	<node lat="62.05796944878622" lon="7.2534027711127464" id="-1539">
		<tag k="name" v="Litleelva" />
		<tag k="ssr:stedsnr" v="374107" />
		<tag k="waterway" v="stream" />
	</node>
	<node lat="62.07131389256473" lon="7.345916670659766" id="-1540">
		<tag k="name" v="Heimste Dyrgravvatnet" />
		<tag k="natural" v="water" />
		<tag k="ssr:stedsnr" v="374112" />
		<tag k="water" v="lake" />
	</node>
	<node lat="62.172349999629596" lon="6.865530563139563" id="-1542">
		<tag k="name" v="Brevatnet" />
		<tag k="natural" v="water" />
		<tag k="ssr:stedsnr" v="374348" />
		<tag k="water" v="lake" />
	</node>
	<node lat="62.10712222641977" lon="7.094191657819623" id="-1543">
		<tag k="fixme" v="multiple name tags, choose one and add the other to alt_name" />
		<tag k="name" v="Dei sju systrene;Knivsflåelvane" />
		<tag k="natural" v="waterfall" />
		<tag k="ssr:stedsnr" v="374408" />
	</node>
	<node lat="62.08699166988078" lon="6.83126666723745" id="-1546">
		<tag k="fixme" v="multiple name tags, choose one and add the other to alt_name" />
		<tag k="name" v="Fossgrova;Svebakkgrova" />
		<tag k="ssr:stedsnr" v="374426" />
		<tag k="waterway" v="stream" />
	</node>
	<node lat="62.23988332934" lon="6.944477770890525" id="-1554">
		<tag k="name" v="Blåhornvatnet" />
		<tag k="natural" v="water" />
		<tag k="ssr:stedsnr" v="375225" />
	</node>
	<node lat="62.12796667117858" lon="7.0451833425430355" id="-1555">
		<tag k="name" v="Trollkupen" />
		<tag k="place" v="locality" />
		<tag k="ssr:stedsnr" v="375335" />
	</node>
	<node lat="62.06849722307878" lon="7.076286109207118" id="-1557">
		<tag k="name" v="Ljosurdalsvatnet" />
		<tag k="natural" v="water" />
		<tag k="ssr:stedsnr" v="375383" />
	</node>
	<node lat="62.10083333077895" lon="6.92493889534774" id="-1590">
		<tag k="name" v="Sælebotsgrova" />
		<tag k="ssr:stedsnr" v="396739" />
		<tag k="waterway" v="stream" />
	</node>
	<node lat="62.07873055985" lon="6.882708340417369" id="-1600">
		<tag k="name" v="Fløtehølen" />
		<tag k="place" v="locality" />
		<tag k="ssr:stedsnr" v="398731" />
	</node>
	<node lat="62.251016670874606" lon="6.959069450107261" id="-1617">
		<tag k="name" v="Stølsgrova" />
		<tag k="ssr:stedsnr" v="436908" />
		<tag k="waterway" v="stream" />
	</node>
	<node lat="62.25872222149631" lon="6.820550001789192" id="-1618">
		<tag k="name" v="Løken" />
		<tag k="ssr:stedsnr" v="436909" />
		<tag k="waterway" v="stream" />
	</node>
	<node lat="62.071791669548844" lon="7.331094447710524" id="-1619">
		<tag k="name" v="Bjørnstigtjønna" />
		<tag k="natural" v="water" />
		<tag k="ssr:stedsnr" v="445890" />
	</node>
	<node lat="62.33308333198179" lon="6.916838885174207" id="-1625">
		<tag k="name" v="Gamlestøa" />
		<tag k="natural" v="bay" />
		<tag k="ssr:stedsnr" v="455908" />
	</node>
	<node lat="62.16628055675512" lon="6.977094445540012" id="-1640">
		<tag k="name" v="Svartefonna" />
		<tag k="ssr:stedsnr" v="457084" />
		<tag k="waterway" v="stream" />
	</node>
	<node lat="62.28098332911034" lon="6.881769450670233" id="-1654">
		<tag k="name" v="Fursetkvisla" />
		<tag k="natural" v="water" />
		<tag k="ssr:stedsnr" v="460805" />
		<tag k="water" v="lake" />
	</node>
	<node lat="62.23086388762461" lon="6.809124999753099" id="-1659">
		<tag k="name" v="Pottdalsvatnet" />
		<tag k="natural" v="water" />
		<tag k="ssr:stedsnr" v="678296" />
	</node>
	<node lat="62.14538332949075" lon="6.7670555587705135" id="-1678">
		<tag k="name" v="Fagredalsvatna" />
		<tag k="natural" v="water" />
		<tag k="ssr:stedsnr" v="496368" />
	</node>
	<node lat="62.30845833564705" lon="7.145916675367271" id="-1686">
		<tag k="name" v="Storbotngrova" />
		<tag k="ssr:stedsnr" v="496615" />
		<tag k="waterway" v="stream" />
	</node>
	<node lat="62.2698138912666" lon="6.960111106002515" id="-1687">
		<tag k="name" v="Fonnagrova" />
		<tag k="old_name" v="Fonngrova" />
		<tag k="ssr:stedsnr" v="496599" />
		<tag k="waterway" v="stream" />
	</node>
	<node lat="62.030902781237394" lon="7.310975007277291" id="-1702">
		<tag k="name" v="Hestholmen" />
		<tag k="place" v="islet" />
		<tag k="ssr:stedsnr" v="517808" />
	</node>
	<node lat="62.00336666262054" lon="7.04803054835377" id="-1704">
		<tag k="name" v="Smågrøvene" />
		<tag k="ssr:stedsnr" v="517970" />
		<tag k="waterway" v="stream" />
	</node>
	<node lat="62.28376111302605" lon="7.005977776081515" id="-1708">
		<tag k="name" v="Hampetjønna" />
		<tag k="natural" v="water" />
		<tag k="ssr:stedsnr" v="517976" />
	</node>
	<node lat="62.15073888635912" lon="7.0047027801677375" id="-1711">
		<tag k="name" v="Søpen" />
		<tag k="natural" v="bay" />
		<tag k="ssr:stedsnr" v="518381" />
	</node>
	<node lat="62.10721111211439" lon="7.004530564506096" id="-1714">
		<tag k="name" v="Korsflåelva" />
		<tag k="ssr:stedsnr" v="518816" />
		<tag k="waterway" v="stream" />
	</node>
	<node lat="62.26222499688115" lon="6.809852787370184" id="-1724">
		<tag k="name" v="Insteelva" />
		<tag k="ssr:stedsnr" v="556911" />
		<tag k="waterway" v="stream" />
	</node>
	<node lat="62.25890832958445" lon="6.861375000288" id="-1725">
		<tag k="name" v="Tverråna" />
		<tag k="old_name" v="Tverråa" />
		<tag k="ssr:stedsnr" v="556915" />
		<tag k="waterway" v="stream" />
	</node>
	<node lat="62.14225833095617" lon="7.0814083258900515" id="-1727">
		<tag k="name" v="Storvatnet" />
		<tag k="natural" v="water" />
		<tag k="ssr:stedsnr" v="557351" />
	</node>
	<node lat="62.13173889295911" lon="7.024394447614524" id="-1730">
		<tag k="name" v="Furnesvatnet" />
		<tag k="natural" v="water" />
		<tag k="ssr:stedsnr" v="557361" />
	</node>
	<node lat="62.298911115277434" lon="6.788474996187019" id="-1732">
		<tag k="name" v="Langevatnet" />
		<tag k="natural" v="water" />
		<tag k="ssr:stedsnr" v="557564" />
	</node>
	<node lat="62.10744722051496" lon="6.842311116192217" id="-1734">
		<tag k="name" v="Tverrelva" />
		<tag k="ssr:stedsnr" v="689875" />
		<tag k="waterway" v="stream" />
	</node>
	<node lat="62.019794440449125" lon="7.337766659183601" id="-1736">
		<tag k="fixme" v="multiple name tags, choose one and add the other to alt_name" />
		<tag k="name" v="Langvasstjønna;Stavbrekktjønna" />
		<tag k="natural" v="water" />
		<tag k="ssr:stedsnr" v="566764" />
		<tag k="water" v="lake" />
	</node>
	<node lat="62.04807500354978" lon="7.2291083305223625" id="-1737">
		<tag k="name" v="Skoltetjønna" />
		<tag k="natural" v="water" />
		<tag k="ssr:stedsnr" v="566875" />
		<tag k="water" v="lake" />
	</node>
	<node lat="62.15399444105243" lon="7.034769450292884" id="-1757">
		<tag k="name" v="Fonnagrova" />
		<tag k="ssr:stedsnr" v="578300" />
		<tag k="waterway" v="stream" />
	</node>
	<node lat="62.11846388732707" lon="7.185230563732863" id="-1760">
		<tag k="name" v="Grandeelva" />
		<tag k="ssr:stedsnr" v="580740" />
		<tag k="waterway" v="river" />
	</node>
	<node lat="62.0948944456582" lon="6.87771110270817" id="-1768">
		<tag k="name" v="Jørngjølet" />
		<tag k="ssr:stedsnr" v="698075" />
		<tag k="waterway" v="stream" />
	</node>
	<node lat="62.27944167096633" lon="6.869577777592786" id="-1770">
		<tag k="name" v="Storegrova" />
		<tag k="ssr:stedsnr" v="698558" />
		<tag k="waterway" v="stream" />
	</node>
	<node lat="62.073600002869846" lon="7.210519441126057" id="-1775">
		<tag k="name" v="Tverrheiane" />
		<tag k="natural" v="cape" />
		<tag k="ssr:stedsnr" v="699230" />
	</node>
	<node lat="62.09210000408196" lon="7.218844446507884" id="-1777">
		<tag k="name" v="Maråkelva" />
		<tag k="ssr:stedsnr" v="699542" />
		<tag k="waterway" v="river" />
	</node>
	<node lat="62.035261114187165" lon="6.9535277685314645" id="-1792">
		<tag k="name" v="Kvisla" />
		<tag k="ssr:stedsnr" v="700654" />
		<tag k="waterway" v="river" />
	</node>
	<node lat="62.057516667771836" lon="7.396083329600386" id="-1796">
		<tag k="name" v="Kolbeinsåa" />
		<tag k="ssr:stedsnr" v="617135" />
		<tag k="waterway" v="river" />
	</node>
	<node lat="62.051861113413885" lon="7.2115555574256565" id="-1804">
		<tag k="name" v="Flydalsvatnet" />
		<tag k="natural" v="water" />
		<tag k="ssr:stedsnr" v="617486" />
		<tag k="water" v="lake" />
	</node>
	<node lat="62.036466670277754" lon="6.725652786590044" id="-1805">
		<tag k="name" v="Gjølelva" />
		<tag k="ssr:stedsnr" v="617487" />
		<tag k="waterway" v="stream" />
	</node>
	<node lat="62.252311112184664" lon="6.804566670577159" id="-1811">
		<tag k="name" v="Tverråna" />
		<tag k="old_name" v="Tverråa" />
		<tag k="ssr:stedsnr" v="618625" />
		<tag k="waterway" v="stream" />
	</node>
	<node lat="62.010561109202946" lon="6.762261110395164" id="-1840">
		<tag k="name" v="Storetjørna" />
		<tag k="natural" v="water" />
		<tag k="ssr:stedsnr" v="638710" />
	</node>
	<node lat="62.01420555673218" lon="6.7570944439753164" id="-1841">
		<tag k="name" v="Teigøyna" />
		<tag k="place" v="island" />
		<tag k="ssr:stedsnr" v="638716" />
	</node>
	<node lat="62.14769444234516" lon="7.005300001564938" id="-1850">
		<tag k="name" v="Kvernagrova" />
		<tag k="ssr:stedsnr" v="639395" />
		<tag k="waterway" v="stream" />
	</node>
	<node lat="61.9912638866392" lon="6.8091333330233335" id="-1865">
		<tag k="name" v="Tverrdalselva" />
		<tag k="ssr:stedsnr" v="652020" />
		<tag k="waterway" v="river" />
	</node>
	<node lat="61.99008055628289" lon="6.839802786423332" id="-1866">
		<tag k="name" v="Skihelledalselva" />
		<tag k="ssr:stedsnr" v="652030" />
		<tag k="waterway" v="river" />
	</node>
	<node lat="62.14205000246429" lon="7.22386667244867" id="-1868">
		<tag k="name" v="Møllsvatnet" />
		<tag k="natural" v="water" />
		<tag k="ssr:stedsnr" v="678087" />
	</node>
	<node lat="62.070219444502676" lon="7.317416664524361" id="-1869">
		<tag k="name" v="Bjørnstigvatnet" />
		<tag k="natural" v="water" />
		<tag k="ssr:stedsnr" v="678108" />
	</node>
	<node lat="62.03197777551233" lon="6.795511105507034" id="-1879">
		<tag k="name" v="Hjelleelva" />
		<tag k="ssr:stedsnr" v="678481" />
		<tag k="waterway" v="stream" />
	</node>
	<node lat="62.136355559449015" lon="6.914836116191203" id="-1882">
		<tag k="name" v="Nykkjevatnet" />
		<tag k="natural" v="water" />
		<tag k="ssr:stedsnr" v="678382" />
	</node>
	<node lat="62.13398333238693" lon="6.758016667475566" id="-1884">
		<tag k="name" v="Ytstevatnet" />
		<tag k="natural" v="water" />
		<tag k="ssr:stedsnr" v="678386" />
	</node>
	<node lat="62.35639444287366" lon="6.875733338764491" id="-1887">
		<tag k="name" v="Fausaelva" />
		<tag k="ssr:stedsnr" v="679512" />
		<tag k="waterway" v="river" />
	</node>
	<node lat="62.32670278081566" lon="7.062722219556145" id="-1893">
		<tag k="name" v="Løken" />
		<tag k="natural" v="water" />
		<tag k="ssr:stedsnr" v="698117" />
		<tag k="water" v="lake" />
	</node>
	<node lat="62.015416665302006" lon="6.755136110578712" id="-1902">
		<tag k="name" v="Longøyna" />
		<tag k="place" v="island" />
		<tag k="ssr:stedsnr" v="699673" />
	</node>
	<node lat="62.043033329550276" lon="7.0821388828756495" id="-1904">
		<tag k="name" v="Smådalselvane" />
		<tag k="ssr:stedsnr" v="699771" />
		<tag k="waterway" v="stream" />
	</node>
	<node lat="61.98845555936545" lon="7.038788884044421" id="-1907">
		<tag k="name" v="Slætteneset" />
		<tag k="natural" v="cape" />
		<tag k="ssr:stedsnr" v="699969" />
	</node>
	<node lat="62.025375003158075" lon="7.178894448062847" id="-1922">
		<tag k="name" v="Kupevatnet" />
		<tag k="natural" v="water" />
		<tag k="ssr:stedsnr" v="738454" />
	</node>
	<node lat="62.02104166966181" lon="7.14529167193826" id="-1923">
=======
<osm generator="osmapis" version="0.6">
	<node id="-67049" lat="62.0319777755" lon="6.79551110551">
		<tag k="name" v="Hjelleelva" />
		<tag k="ssr:stedsnr" v="678481" />
		<tag k="waterway" v="stream" />
	</node>
	<node id="-68093" lat="62.1136416653" lon="6.90898332572">
		<tag k="name" v="Storefossen" />
		<tag k="natural" v="waterfall" />
		<tag k="ssr:stedsnr" v="385895" />
	</node>
	<node id="-67579" lat="62.0921249995" lon="7.30507777119">
		<tag k="name" v="Kupevatnet" />
		<tag k="natural" v="water" />
		<tag k="ssr:stedsnr" v="20874" />
		<tag k="water" v="lake" />
	</node>
	<node id="-67578" lat="62.064484277" lon="7.26195802233">
		<tag k="name" v="Kvanndalsfossen" />
		<tag k="natural" v="waterfall" />
		<tag k="ssr:stedsnr" v="20860" />
	</node>
	<node id="-66553" lat="62.1478000027" lon="7.24039999825">
		<tag k="name" v="Grandevatnet" />
		<tag k="natural" v="water" />
		<tag k="ssr:stedsnr" v="71037" />
	</node>
	<node id="-66551" lat="62.0767777773" lon="7.20931945346">
		<tag k="name" v="Storskreda" />
		<tag k="ssr:stedsnr" v="32211" />
		<tag k="waterway" v="stream" />
	</node>
	<node id="-68598" lat="61.9918666624" lon="6.8074499951">
		<tag k="name" v="Storekroken" />
		<tag k="natural" v="cape" />
		<tag k="ssr:stedsnr" v="956038" />
	</node>
	<node id="-68597" lat="62.0024694442" lon="6.7895194409">
		<tag k="name" v="Bergekroken" />
		<tag k="natural" v="cape" />
		<tag k="ssr:stedsnr" v="956033" />
	</node>
	<node id="-68084" lat="62.302986107" lon="6.80989722173">
		<tag k="name" v="Fonnagrova" />
		<tag k="old_name" v="Fonngrova" />
		<tag k="ssr:stedsnr" v="375576" />
		<tag k="waterway" v="stream" />
	</node>
	<node id="-68082" lat="62.3262166703" lon="6.99939721759">
		<tag k="name" v="Storvassdalsvatnet" />
		<tag k="natural" v="water" />
		<tag k="ssr:stedsnr" v="375448" />
	</node>
	<node id="-68081" lat="62.0398611092" lon="6.80431111194">
		<tag k="name" v="Tronstadelva" />
		<tag k="ssr:stedsnr" v="375427" />
		<tag k="waterway" v="stream" />
	</node>
	<node id="-68080" lat="62.1274333374" lon="7.15714444282">
		<tag k="name" v="Gjerdefossen" />
		<tag k="natural" v="waterfall" />
		<tag k="ssr:stedsnr" v="375351" />
	</node>
	<node id="-67496" lat="62.2004638865" lon="6.86721666719">
		<tag k="name" v="Heimstevatnet" />
		<tag k="natural" v="water" />
		<tag k="ssr:stedsnr" v="860364" />
	</node>
	<node id="-68590" lat="62.0287027823" lon="6.95182500213">
		<tag k="fixme" v="multiple name tags, choose one and add the other to alt_name" />
		<tag k="name" v="Frøysadalselva;Vatnedalselva" />
		<tag k="ssr:stedsnr" v="861443" />
		<tag k="waterway" v="river" />
	</node>
	<node id="-67565" lat="62.3401722233" lon="7.05712499568">
		<tag k="fixme" v="multiple name tags, choose one and add the other to alt_name" />
		<tag k="name" v="Storegrova;Storgrova" />
		<tag k="ssr:stedsnr" v="11543" />
		<tag k="waterway" v="stream" />
	</node>
	<node id="-68076" lat="62.3320722209" lon="6.98315554699">
		<tag k="name" v="Klovvatnet" />
		<tag k="natural" v="water" />
		<tag k="ssr:stedsnr" v="375469" />
	</node>
	<node id="-68585" lat="62.3201583302" lon="7.06538611797">
		<tag k="fixme" v="multiple name tags, choose one and add the other to alt_name" />
		<tag k="name" v="Treåa;Tverråna" />
		<tag k="old_name" v="Tverråa" />
		<tag k="ssr:stedsnr" v="861488" />
		<tag k="waterway" v="stream" />
	</node>
	<node id="-68072" lat="62.0684972231" lon="7.07628610921">
		<tag k="name" v="Ljosurdalsvatnet" />
		<tag k="natural" v="water" />
		<tag k="ssr:stedsnr" v="375383" />
	</node>
	<node id="-68582" lat="62.313988886" lon="6.87724166906">
		<tag k="name" v="Ekregrova" />
		<tag k="ssr:stedsnr" v="861482" />
		<tag k="waterway" v="stream" />
	</node>
	<node id="-68578" lat="62.1309444466" lon="7.29676944644">
		<tag k="name" v="Kaldhusbakkvatnet" />
		<tag k="natural" v="water" />
		<tag k="old_name" v="Inste Grjota;Grjota, inste" />
		<tag k="ssr:stedsnr" v="861089" />
	</node>
	<node id="-67553" lat="62.0043333374" lon="6.89686388546">
		<tag k="name" v="Vatnedalsvatnet" />
		<tag k="natural" v="water" />
		<tag k="ssr:stedsnr" v="10457" />
		<tag k="water" v="lake" />
	</node>
	<node id="-67040" lat="62.1363555594" lon="6.91483611619">
		<tag k="name" v="Nykkjevatnet" />
		<tag k="natural" v="water" />
		<tag k="ssr:stedsnr" v="678382" />
	</node>
	<node id="-67039" lat="62.2308638876" lon="6.80912499975">
		<tag k="name" v="Pottdalsvatnet" />
		<tag k="natural" v="water" />
		<tag k="ssr:stedsnr" v="678296" />
	</node>
	<node id="-66526" lat="62.0788138906" lon="7.39450000502">
		<tag k="name" v="Dyrbakkvatnet" />
		<tag k="natural" v="water" />
		<tag k="ssr:stedsnr" v="10132" />
		<tag k="water" v="lake" />
	</node>
	<node id="-66525" lat="62.0786166686" lon="7.23261110627">
		<tag k="name" v="Geirangelva" />
		<tag k="ssr:stedsnr" v="10129" />
		<tag k="waterway" v="river" />
	</node>
	<node id="-68060" lat="62.0869916699" lon="6.83126666724">
		<tag k="fixme" v="multiple name tags, choose one and add the other to alt_name" />
		<tag k="name" v="Fossgrova;Svebakkgrova" />
		<tag k="ssr:stedsnr" v="374426" />
		<tag k="waterway" v="stream" />
	</node>
	<node id="-68571" lat="62.1762944453" lon="6.83447499177">
		<tag k="name" v="Storvatnet" />
		<tag k="natural" v="water" />
		<tag k="ssr:stedsnr" v="860389" />
	</node>
	<node id="-67034" lat="62.0440138921" lon="6.75865833997">
		<tag k="name" v="Svortøykroken" />
		<tag k="natural" v="water" />
		<tag k="ssr:stedsnr" v="457454" />
		<tag k="water" v="lake" />
	</node>
	<node id="-68056" lat="62.1723499996" lon="6.86553056314">
		<tag k="name" v="Brevatnet" />
		<tag k="natural" v="water" />
		<tag k="ssr:stedsnr" v="374348" />
		<tag k="water" v="lake" />
	</node>
	<node id="-67542" lat="62.1379335567" lon="7.20112769232">
		<tag k="name" v="Gråsteindalselva" />
		<tag k="ssr:stedsnr" v="986555" />
		<tag k="waterway" v="river" />
	</node>
	<node id="-68053" lat="62.0239555546" lon="7.30476388906">
		<tag k="name" v="Djupvatnet" />
		<tag k="natural" v="water" />
		<tag k="ssr:stedsnr" v="374176" />
		<tag k="water" v="lake" />
	</node>
	<node id="-67028" lat="62.2510166709" lon="6.95906945011">
		<tag k="name" v="Stølsgrova" />
		<tag k="ssr:stedsnr" v="436908" />
		<tag k="waterway" v="stream" />
	</node>
	<node id="-67027" lat="62.1024583362" lon="6.95568333875">
		<tag k="name" v="Breiestreket" />
		<tag k="ssr:stedsnr" v="518842" />
		<tag k="waterway" v="stream" />
	</node>
	<node id="-67025" lat="62.1072111121" lon="7.00453056451">
		<tag k="name" v="Korsflåelva" />
		<tag k="ssr:stedsnr" v="518816" />
		<tag k="waterway" v="stream" />
	</node>
	<node id="-68467" lat="62.0535527773" lon="7.2538833312">
		<tag k="name" v="Blåfjellelva" />
		<tag k="ssr:stedsnr" v="760985" />
		<tag k="waterway" v="river" />
	</node>
	<node id="-68558" lat="62.0097972213" lon="6.9433472179">
		<tag k="name" v="Botneelva" />
		<tag k="ssr:stedsnr" v="821985" />
		<tag k="waterway" v="river" />
	</node>
	<node id="-67819" lat="62.0477361096" lon="6.79351666392">
		<tag k="name" v="Storetjønna" />
		<tag k="natural" v="water" />
		<tag k="ssr:stedsnr" v="152894" />
	</node>
	<node id="-68555" lat="62.082411111" lon="6.76915277399">
		<tag k="name" v="Snødalselva" />
		<tag k="ssr:stedsnr" v="821831" />
		<tag k="waterway" v="river" />
	</node>
	<node id="-68554" lat="62.0310722209" lon="7.28804167119">
		<tag k="name" v="Keisarneset" />
		<tag k="natural" v="cape" />
		<tag k="ssr:stedsnr" v="821795" />
	</node>
	<node id="-68553" lat="62.187588887" lon="6.92157222698">
		<tag k="name" v="Kalvøya" />
		<tag k="place" v="island" />
		<tag k="ssr:stedsnr" v="821792" />
	</node>
	<node id="-67527" lat="62.3022861088" lon="7.13491666188">
		<tag k="name" v="Sætreelva" />
		<tag k="old_name" v="Sæterelva" />
		<tag k="ssr:stedsnr" v="921628" />
		<tag k="waterway" v="stream" />
	</node>
	<node id="-68550" lat="62.2444416636" lon="6.97795832393">
		<tag k="name" v="Tverrelva" />
		<tag k="ssr:stedsnr" v="821887" />
		<tag k="waterway" v="river" />
	</node>
	<node id="-67525" lat="62.2872583303" lon="6.78186945263">
		<tag k="name" v="Buvatnet" />
		<tag k="natural" v="water" />
		<tag k="ssr:stedsnr" v="921613" />
	</node>
	<node id="-67012" lat="62.2109138904" lon="6.91367777829">
		<tag k="fixme" v="multiple name tags, choose one and add the other to alt_name" />
		<tag k="name" v="Embla;Storelva" />
		<tag k="ssr:stedsnr" v="435334" />
		<tag k="waterway" v="river" />
	</node>
	<node id="-67062" lat="62.0316000035" lon="7.04712500392">
		<tag k="name" v="Litlesætrevatnet" />
		<tag k="natural" v="water" />
		<tag k="ssr:stedsnr" v="496507" />
	</node>
	<node id="-67010" lat="62.1346916654" lon="6.92175000739">
		<tag k="name" v="Storskreda" />
		<tag k="ssr:stedsnr" v="518474" />
		<tag k="waterway" v="stream" />
	</node>
	<node id="-67009" lat="62.1507388864" lon="7.00470278017">
		<tag k="name" v="Søpen" />
		<tag k="natural" v="bay" />
		<tag k="ssr:stedsnr" v="518381" />
	</node>
	<node id="-68030" lat="62.2222638855" lon="6.92448610633">
		<tag k="name" v="Tverrelva" />
		<tag k="ssr:stedsnr" v="335878" />
		<tag k="waterway" v="river" />
	</node>
	<node id="-67005" lat="62.1562166651" lon="6.92343888635">
		<tag k="name" v="Daleelva" />
		<tag k="ssr:stedsnr" v="518193" />
		<tag k="waterway" v="river" />
	</node>
	<node id="-67004" lat="62.1722194414" lon="6.98946388317">
		<tag k="name" v="Megjølet" />
		<tag k="ssr:stedsnr" v="518116" />
		<tag k="waterway" v="stream" />
	</node>
	<node id="-67002" lat="62.283761113" lon="7.00597777608">
		<tag k="name" v="Hampetjønna" />
		<tag k="natural" v="water" />
		<tag k="ssr:stedsnr" v="517976" />
	</node>
	<node id="-67512" lat="62.1506972233" lon="7.18119999654">
		<tag k="name" v="Oppskredvatnet" />
		<tag k="natural" v="water" />
		<tag k="ssr:stedsnr" v="945739" />
		<tag k="water" v="lake" />
	</node>
	<node id="-67510" lat="62.107855556" lon="7.24589999944">
		<tag k="name" v="Vesteråselva" />
		<tag k="ssr:stedsnr" v="945450" />
		<tag k="waterway" v="stream" />
	</node>
	<node id="-67508" lat="62.0349777743" lon="7.15088333693">
		<tag k="name" v="Hestebreelvane" />
		<tag k="ssr:stedsnr" v="861456" />
		<tag k="waterway" v="stream" />
	</node>
	<node id="-67742" lat="62.0375222234" lon="6.96290000182">
		<tag k="name" v="Langøya" />
		<tag k="natural" v="cape" />
		<tag k="ssr:stedsnr" v="93571" />
	</node>
	<node id="-68530" lat="62.1249527815" lon="6.83300833612">
		<tag k="name" v="Buskredelva" />
		<tag k="ssr:stedsnr" v="819735" />
		<tag k="waterway" v="river" />
	</node>
	<node id="-67505" lat="62.3251305589" lon="6.87989167277">
		<tag k="name" v="Skurdavatna" />
		<tag k="natural" v="water" />
		<tag k="old_name" v="Skuravatna" />
		<tag k="ssr:stedsnr" v="861504" />
	</node>
	<node id="-68016" lat="62.1256083313" lon="6.73555555945">
		<tag k="name" v="Vika" />
		<tag k="natural" v="bay" />
		<tag k="ssr:stedsnr" v="335068" />
	</node>
	<node id="-68526" lat="62.3097805581" lon="7.11209721259">
		<tag k="name" v="Kristiholgrova" />
		<tag k="ssr:stedsnr" v="819143" />
		<tag k="waterway" v="stream" />
	</node>
	<node id="-67501" lat="62.285377774" lon="6.98443055372">
		<tag k="name" v="Uksagelva" />
		<tag k="ssr:stedsnr" v="860620" />
		<tag k="waterway" v="stream" />
	</node>
	<node id="-68011" lat="62.0707916656" lon="6.80832500329">
		<tag k="name" v="Djupgrova" />
		<tag k="ssr:stedsnr" v="334576" />
		<tag k="waterway" v="stream" />
	</node>
	<node id="-66592" lat="62.0433805525" lon="6.99660000323">
		<tag k="name" v="Liaelva" />
		<tag k="ssr:stedsnr" v="253487" />
		<tag k="waterway" v="stream" />
	</node>
	<node id="-68520" lat="62.1398305558" lon="6.91868889182">
		<tag k="name" v="Kremmarvatnet" />
		<tag k="natural" v="water" />
		<tag k="ssr:stedsnr" v="811866" />
	</node>
	<node id="-66981" lat="62.2441138853" lon="6.88321111415">
		<tag k="name" v="Jufossen" />
		<tag k="natural" v="waterfall" />
		<tag k="ssr:stedsnr" v="516638" />
	</node>
	<node id="-66541" lat="62.1252194468" lon="6.73591944392">
		<tag k="name" v="Geilskredvatnet" />
		<tag k="natural" v="water" />
		<tag k="ssr:stedsnr" v="23807" />
		<tag k="water" v="lake" />
	</node>
	<node id="-67997" lat="62.0866249993" lon="6.8630750017">
		<tag k="name" v="Hellesyltfossen" />
		<tag k="natural" v="waterfall" />
		<tag k="ssr:stedsnr" v="325958" />
	</node>
	<node id="-67630" lat="62.1290666654" lon="6.97701944015">
		<tag k="name" v="Kilegrova" />
		<tag k="ssr:stedsnr" v="32808" />
		<tag k="waterway" v="stream" />
	</node>
	<node id="-67483" lat="62.1666638919" lon="6.92861111473">
		<tag k="name" v="Urløken" />
		<tag k="ssr:stedsnr" v="943190" />
		<tag k="waterway" v="stream" />
	</node>
	<node id="-68506" lat="62.1617166681" lon="6.91645833944">
		<tag k="name" v="Stølselva" />
		<tag k="ssr:stedsnr" v="800327" />
		<tag k="waterway" v="stream" />
	</node>
	<node id="-67993" lat="62.2812083348" lon="6.95459723079">
		<tag k="name" v="Langedekta" />
		<tag k="ssr:stedsnr" v="315563" />
		<tag k="waterway" v="stream" />
	</node>
	<node id="-67480" lat="62.2255361155" lon="6.99889722838">
		<tag k="name" v="Insteelva" />
		<tag k="ssr:stedsnr" v="942857" />
		<tag k="waterway" v="stream" />
	</node>
	<node id="-67479" lat="62.1012111083" lon="6.77778888753">
		<tag k="name" v="Breifossen" />
		<tag k="natural" v="waterfall" />
		<tag k="ssr:stedsnr" v="942854" />
	</node>
	<node id="-68465" lat="62.1326472222" lon="6.92991389153">
		<tag k="name" v="Ljøvikelva" />
		<tag k="ssr:stedsnr" v="760819" />
		<tag k="waterway" v="stream" />
	</node>
	<node id="-68078" lat="62.1279666712" lon="7.04518334254">
		<tag k="name" v="Trollkupen" />
		<tag k="place" v="locality" />
		<tag k="ssr:stedsnr" v="375335" />
	</node>
	<node id="-67986" lat="62.3083722263" lon="7.09425277071">
		<tag k="name" v="Instegrova" />
		<tag k="ssr:stedsnr" v="314635" />
		<tag k="waterway" v="stream" />
	</node>
	<node id="-67101" lat="62.0517749963" lon="7.29808055863">
		<tag k="name" v="Fossvatnet" />
		<tag k="natural" v="water" />
		<tag k="ssr:stedsnr" v="556124" />
	</node>
	<node id="-67981" lat="62.0702777763" lon="7.12777776884">
		<tag k="name" v="Løkene" />
		<tag k="natural" v="water" />
		<tag k="ssr:stedsnr" v="314479" />
	</node>
	<node id="-68492" lat="62.1403583309" lon="7.2965833407">
		<tag k="name" v="Skarevatnet" />
		<tag k="natural" v="water" />
		<tag k="ssr:stedsnr" v="800074" />
		<tag k="water" v="lake" />
	</node>
	<node id="-67467" lat="62.1824388851" lon="7.01074722537">
		<tag k="name" v="Heimstestreket" />
		<tag k="ssr:stedsnr" v="942695" />
		<tag k="waterway" v="stream" />
	</node>
	<node id="-67464" lat="62.0721416645" lon="6.92369999412">
		<tag k="name" v="Bygdaelva" />
		<tag k="ssr:stedsnr" v="942603" />
		<tag k="waterway" v="river" />
	</node>
	<node id="-67975" lat="62.0830944489" lon="7.16542500599">
		<tag k="name" v="Skagedalsvatnet" />
		<tag k="natural" v="water" />
		<tag k="ssr:stedsnr" v="314449" />
		<tag k="water" v="lake" />
	</node>
	<node id="-67459" lat="62.0526722212" lon="6.73735000094">
		<tag k="name" v="Tverrelva" />
		<tag k="ssr:stedsnr" v="942519" />
		<tag k="waterway" v="river" />
	</node>
	<node id="-68482" lat="62.1464222202" lon="6.91990556369">
		<tag k="name" v="Brekkevatnet" />
		<tag k="natural" v="water" />
		<tag k="ssr:stedsnr" v="779592" />
	</node>
	<node id="-68331" lat="62.0501999981" lon="6.80621110818">
		<tag k="name" v="Ormhauggrova" />
		<tag k="ssr:stedsnr" v="637795" />
		<tag k="waterway" v="stream" />
	</node>
	<node id="-66709" lat="62.0743527773" lon="7.3614305554">
		<tag k="name" v="Fremste Dyrgravvatnet" />
		<tag k="natural" v="water" />
		<tag k="ssr:stedsnr" v="192111" />
		<tag k="water" v="lake" />
	</node>
	<node id="-66998" lat="62.0033666626" lon="7.04803054835">
		<tag k="name" v="Smågrøvene" />
		<tag k="ssr:stedsnr" v="517970" />
		<tag k="waterway" v="stream" />
	</node>
	<node id="-68474" lat="62.3159444424" lon="6.93711665755">
		<tag k="name" v="Løken" />
		<tag k="ssr:stedsnr" v="763779" />
		<tag k="waterway" v="stream" />
	</node>
	<node id="-67449" lat="62.3177444429" lon="7.04809166719">
		<tag k="name" v="Ringsetgrova" />
		<tag k="ssr:stedsnr" v="941990" />
		<tag k="waterway" v="stream" />
	</node>
	<node id="-66936" lat="62.0713138926" lon="7.34591667066">
		<tag k="name" v="Heimste Dyrgravvatnet" />
		<tag k="natural" v="water" />
		<tag k="ssr:stedsnr" v="374112" />
		<tag k="water" v="lake" />
	</node>
	<node id="-66935" lat="62.0579694488" lon="7.25340277111">
		<tag k="name" v="Litleelva" />
		<tag k="ssr:stedsnr" v="374107" />
		<tag k="waterway" v="stream" />
	</node>
	<node id="-67561" lat="62.0565333324" lon="6.94934166895">
		<tag k="name" v="Helsetvatnet" />
		<tag k="natural" v="water" />
		<tag k="ssr:stedsnr" v="11446" />
	</node>
	<node id="-67956" lat="62.0727638849" lon="6.91927778216">
		<tag k="name" v="Høkfløten" />
		<tag k="natural" v="beach" />
		<tag k="ssr:stedsnr" v="215323" />
	</node>
	<node id="-66931" lat="62.3084583356" lon="7.14591667537">
		<tag k="name" v="Storbotngrova" />
		<tag k="ssr:stedsnr" v="496615" />
		<tag k="waterway" v="stream" />
	</node>
	<node id="-67953" lat="62.121694445" lon="6.92365833792">
		<tag k="name" v="Ljøelva" />
		<tag k="ssr:stedsnr" v="214880" />
		<tag k="waterway" v="river" />
	</node>
	<node id="-67952" lat="62.0092638845" lon="6.94646388662">
		<tag k="name" v="Nysvorgrova" />
		<tag k="ssr:stedsnr" v="214991" />
		<tag k="waterway" v="stream" />
	</node>
	<node id="-66536" lat="62.0869777749" lon="7.13105833522">
		<tag k="name" v="Tverrelva" />
		<tag k="ssr:stedsnr" v="11414" />
		<tag k="waterway" v="stream" />
	</node>
	<node id="-66621" lat="62.3373055573" lon="6.81898610171">
		<tag k="name" v="Raudegrova" />
		<tag k="ssr:stedsnr" v="132502" />
		<tag k="waterway" v="stream" />
	</node>
	<node id="-67434" lat="62.3162083369" lon="7.03319165757">
		<tag k="name" v="Olagrova" />
		<tag k="ssr:stedsnr" v="940899" />
		<tag k="waterway" v="stream" />
	</node>
	<node id="-67946" lat="62.0450888917" lon="7.11554443699">
		<tag k="name" v="Hestevika" />
		<tag k="natural" v="bay" />
		<tag k="ssr:stedsnr" v="214785" />
	</node>
	<node id="-66791" lat="62.1662805568" lon="6.97709444554">
		<tag k="name" v="Svartefonna" />
		<tag k="ssr:stedsnr" v="457084" />
		<tag k="waterway" v="stream" />
	</node>
	<node id="-66620" lat="62.0448055527" lon="7.34972500574">
		<tag k="name" v="Kolbeinsvatnet" />
		<tag k="natural" v="water" />
		<tag k="ssr:stedsnr" v="132141" />
		<tag k="water" v="lake" />
	</node>
	<node id="-66918" lat="62.1453833295" lon="6.76705555877">
		<tag k="name" v="Fagredalsvatna" />
		<tag k="natural" v="water" />
		<tag k="ssr:stedsnr" v="496368" />
	</node>
	<node id="-66929" lat="62.2698138913" lon="6.960111106">
		<tag k="name" v="Fonnagrova" />
		<tag k="old_name" v="Fonngrova" />
		<tag k="ssr:stedsnr" v="496599" />
		<tag k="waterway" v="stream" />
	</node>
	<node id="-66875" lat="62.0413138858" lon="7.28968055083">
		<tag k="name" v="Litledalsvatnet" />
		<tag k="natural" v="water" />
		<tag k="ssr:stedsnr" v="314166" />
	</node>
	<node id="-67936" lat="62.1468805518" lon="6.99679722507">
		<tag k="name" v="Grøtgjølgrova" />
		<tag k="ssr:stedsnr" v="214342" />
		<tag k="waterway" v="stream" />
	</node>
	<node id="-67423" lat="62.3206750024" lon="6.88185000303">
		<tag k="name" v="Torsnikkgrova" />
		<tag k="ssr:stedsnr" v="824821" />
		<tag k="waterway" v="stream" />
	</node>
	<node id="-67933" lat="62.1633694404" lon="6.92742223191">
		<tag k="name" v="Kvernhuskvitla" />
		<tag k="ssr:stedsnr" v="214140" />
		<tag k="waterway" v="stream" />
	</node>
	<node id="-67420" lat="62.0940361127" lon="7.24666110461">
		<tag k="name" v="Grinddalselva" />
		<tag k="ssr:stedsnr" v="824605" />
		<tag k="waterway" v="river" />
	</node>
	<node id="-66905" lat="62.0171138909" lon="6.75307500159">
		<tag k="name" v="Krokøyna" />
		<tag k="place" v="island" />
		<tag k="ssr:stedsnr" v="335722" />
	</node>
	<node id="-68439" lat="62.2626944452" lon="6.8194555559">
		<tag k="name" v="Sætreelva" />
		<tag k="ssr:stedsnr" v="759968" />
		<tag k="waterway" v="stream" />
	</node>
	<node id="-67414" lat="62.0007750035" lon="7.0388999936">
		<tag k="name" v="Røyrskreda" />
		<tag k="ssr:stedsnr" v="821959" />
		<tag k="waterway" v="stream" />
	</node>
	<node id="-66901" lat="62.1017833371" lon="7.10988055712">
		<tag k="name" v="Geitelva" />
		<tag k="ssr:stedsnr" v="335638" />
		<tag k="waterway" v="river" />
	</node>
	<node id="-66895" lat="62.0671388856" lon="6.82118610754">
		<tag k="name" v="Storegrova" />
		<tag k="ssr:stedsnr" v="334808" />
		<tag k="waterway" v="stream" />
	</node>
	<node id="-67406" lat="62.1312333377" lon="6.98707223085">
		<tag k="name" v="Mosesvødene" />
		<tag k="ssr:stedsnr" v="821818" />
		<tag k="waterway" v="stream" />
	</node>
	<node id="-67404" lat="62.0418194439" lon="6.94118332437">
		<tag k="name" v="Børkjebekkgrova" />
		<tag k="ssr:stedsnr" v="821656" />
		<tag k="waterway" v="stream" />
	</node>
	<node id="-67042" lat="62.1339833324" lon="6.75801666748">
		<tag k="name" v="Ytstevatnet" />
		<tag k="natural" v="water" />
		<tag k="ssr:stedsnr" v="678386" />
	</node>
	<node id="-68425" lat="62.1057555519" lon="6.89771111207">
		<tag k="name" v="Harketeiggrova" />
		<tag k="ssr:stedsnr" v="759093" />
		<tag k="waterway" v="stream" />
	</node>
	<node id="-67089" lat="62.0921000041" lon="7.21884444651">
		<tag k="name" v="Maråkelva" />
		<tag k="ssr:stedsnr" v="699542" />
		<tag k="waterway" v="river" />
	</node>
	<node id="-67911" lat="62.2945999986" lon="6.81802778425">
		<tag k="name" v="Svartestilla" />
		<tag k="natural" v="water" />
		<tag k="ssr:stedsnr" v="212393" />
		<tag k="water" v="lake" />
	</node>
	<node id="-68351" lat="62.0202749979" lon="7.00572222007">
		<tag k="name" v="Fedalselva" />
		<tag k="ssr:stedsnr" v="638971" />
		<tag k="waterway" v="river" />
	</node>
	<node id="-67909" lat="62.3054722186" lon="7.11703610753">
		<tag k="name" v="Instefonngrova" />
		<tag k="ssr:stedsnr" v="212194" />
		<tag k="waterway" v="stream" />
	</node>
	<node id="-67908" lat="62.3006472188" lon="7.10591944949">
		<tag k="name" v="Løgrova" />
		<tag k="ssr:stedsnr" v="212173" />
		<tag k="waterway" v="stream" />
	</node>
	<node id="-66614" lat="62.2908694453" lon="6.9037416691">
		<tag k="name" v="Storøyhølen" />
		<tag k="place" v="locality" />
		<tag k="ssr:stedsnr" v="96802" />
	</node>
	<node id="-66880" lat="62.069775" lon="7.20356943594">
		<tag k="name" v="Dalelva" />
		<tag k="ssr:stedsnr" v="314504" />
		<tag k="waterway" v="stream" />
	</node>
	<node id="-67391" lat="62.2640972204" lon="6.81053888524">
		<tag k="name" v="Sætreelva" />
		<tag k="ssr:stedsnr" v="819571" />
		<tag k="waterway" v="stream" />
	</node>
	<node id="-66554" lat="62.2008222183" lon="6.98141667006">
		<tag k="name" v="Rjupeskarvatnet" />
		<tag k="natural" v="water" />
		<tag k="ssr:stedsnr" v="71332" />
	</node>
	<node id="-68411" lat="62.2842305543" lon="6.88195832397">
		<tag k="name" v="Fursetelva" />
		<tag k="ssr:stedsnr" v="739584" />
		<tag k="waterway" v="river" />
	</node>
	<node id="-66873" lat="61.9963555519" lon="7.04568054872">
		<tag k="name" v="Nedstevatn" />
		<tag k="natural" v="water" />
		<tag k="ssr:stedsnr" v="313402" />
	</node>
	<node id="-67384" lat="62.3088305595" lon="6.88758054963">
		<tag k="alt_name" v="Storegrova" />
		<tag k="name" v="Storgrova" />
		<tag k="ssr:stedsnr" v="800614" />
		<tag k="waterway" v="stream" />
	</node>
	<node id="-67381" lat="62.2631833317" lon="6.82503333738">
		<tag k="name" v="Heimsteelva" />
		<tag k="ssr:stedsnr" v="800562" />
		<tag k="waterway" v="stream" />
	</node>
	<node id="-66867" lat="62.3481249977" lon="6.8209111184">
		<tag k="name" v="Bollholmen" />
		<tag k="place" v="islet" />
		<tag k="ssr:stedsnr" v="460980" />
	</node>
	<node id="-67890" lat="62.3381305528" lon="6.88511667103">
		<tag k="name" v="Svartåna" />
		<tag k="old_name" v="Svartelva" />
		<tag k="ssr:stedsnr" v="193547" />
		<tag k="waterway" v="stream" />
	</node>
	<node id="-66865" lat="62.3078277733" lon="6.92498610787">
		<tag k="name" v="Ringstadelva" />
		<tag k="ssr:stedsnr" v="460830" />
		<tag k="waterway" v="stream" />
	</node>
	<node id="-66864" lat="62.2809833291" lon="6.88176945067">
		<tag k="name" v="Fursetkvisla" />
		<tag k="natural" v="water" />
		<tag k="ssr:stedsnr" v="460805" />
		<tag k="water" v="lake" />
	</node>
	<node id="-68398" lat="62.0634805535" lon="6.79435555555">
		<tag k="alt_name" v="Dalaelva" />
		<tag k="name" v="Langedalselva" />
		<tag k="ssr:stedsnr" v="738724" />
		<tag k="waterway" v="river" />
	</node>
	<node id="-67037" lat="62.1420500025" lon="7.22386667245">
		<tag k="name" v="Møllsvatnet" />
		<tag k="natural" v="water" />
		<tag k="ssr:stedsnr" v="678087" />
	</node>
	<node id="-68396" lat="62.0210416697" lon="7.14529167194">
>>>>>>> e1d4bc35ff8a6074a6f2e91616a996b547c36f15
		<tag k="name" v="Nautbrevatnet" />
		<tag k="natural" v="water" />
		<tag k="ssr:stedsnr" v="738455" />
	</node>
<<<<<<< HEAD
	<node lat="62.06348055349567" lon="6.794355555553356" id="-1926">
		<tag k="alt_name" v="Dalaelva" />
		<tag k="name" v="Langedalselva" />
		<tag k="ssr:stedsnr" v="738724" />
		<tag k="waterway" v="river" />
	</node>
	<node lat="62.16171666805969" lon="6.916458339444217" id="-1985">
		<tag k="name" v="Stølselva" />
		<tag k="ssr:stedsnr" v="800327" />
		<tag k="waterway" v="stream" />
	</node>
	<node lat="62.30883055948412" lon="6.88758054962607" id="-1993">
		<tag k="alt_name" v="Storegrova" />
		<tag k="name" v="Storgrova" />
		<tag k="ssr:stedsnr" v="800614" />
		<tag k="waterway" v="stream" />
	</node>
	<node lat="62.30978055808152" lon="7.112097212587031" id="-2003">
		<tag k="name" v="Kristiholgrova" />
		<tag k="ssr:stedsnr" v="819143" />
		<tag k="waterway" v="stream" />
	</node>
	<node lat="62.264097220381586" lon="6.810538885243353" id="-2005">
		<tag k="name" v="Sætreelva" />
		<tag k="ssr:stedsnr" v="819571" />
		<tag k="waterway" v="stream" />
	</node>
	<node lat="62.131233337652496" lon="6.987072230849729" id="-2018">
		<tag k="name" v="Mosesvødene" />
		<tag k="ssr:stedsnr" v="821818" />
		<tag k="waterway" v="stream" />
	</node>
	<node lat="62.08241111103189" lon="6.769152773992034" id="-2020">
		<tag k="name" v="Snødalselva" />
		<tag k="ssr:stedsnr" v="821831" />
		<tag k="waterway" v="river" />
	</node>
	<node lat="62.24444166364505" lon="6.977958323929472" id="-2022">
		<tag k="name" v="Tverrelva" />
		<tag k="ssr:stedsnr" v="821887" />
		<tag k="waterway" v="river" />
	</node>
	<node lat="62.009797221297625" lon="6.943347217898388" id="-2030">
		<tag k="name" v="Botneelva" />
		<tag k="ssr:stedsnr" v="821985" />
		<tag k="waterway" v="river" />
	</node>
	<node lat="62.11423333768698" lon="7.02400277277461" id="-2037">
		<tag k="name" v="Korsvatnet" />
		<tag k="natural" v="water" />
		<tag k="ssr:stedsnr" v="921407" />
	</node>
	<node lat="62.07261944381159" lon="7.030152777702245" id="-2041">
		<tag k="fixme" v="multiple name tags, choose one and add the other to alt_name" />
		<tag k="name" v="Holtelva;Syltavikelva" />
		<tag k="ssr:stedsnr" v="921470" />
		<tag k="waterway" v="stream" />
	</node>
	<node lat="62.28725833033565" lon="6.7818694526265215" id="-2046">
		<tag k="name" v="Buvatnet" />
		<tag k="natural" v="water" />
		<tag k="ssr:stedsnr" v="921613" />
	</node>
	<node lat="62.09403611273631" lon="7.246661104611806" id="-2048">
		<tag k="name" v="Grinddalselva" />
		<tag k="ssr:stedsnr" v="824605" />
		<tag k="waterway" v="river" />
	</node>
	<node lat="62.31963333234158" lon="7.056544439948295" id="-2051">
		<tag k="name" v="Ringsetelva" />
		<tag k="ssr:stedsnr" v="922457" />
		<tag k="waterway" v="stream" />
	</node>
	<node lat="62.200463886501375" lon="6.867216667190603" id="-2054">
		<tag k="name" v="Heimstevatnet" />
		<tag k="natural" v="water" />
		<tag k="ssr:stedsnr" v="860364" />
	</node>
	<node lat="62.00548055287655" lon="7.042411107898144" id="-2056">
		<tag k="name" v="Nedstevatnet" />
		<tag k="natural" v="water" />
		<tag k="ssr:stedsnr" v="860529" />
		<tag k="water" v="lake" />
	</node>
	<node lat="62.28537777404631" lon="6.984430553717614" id="-2059">
		<tag k="name" v="Uksagelva" />
		<tag k="ssr:stedsnr" v="860620" />
		<tag k="waterway" v="stream" />
	</node>
	<node lat="62.11871389329461" lon="7.312102777806065" id="-2060">
		<tag k="name" v="Heimste Vesteråsvatnet" />
		<tag k="natural" v="water" />
		<tag k="ssr:stedsnr" v="861068" />
		<tag k="water" v="lake" />
	</node>
	<node lat="62.259930559488" lon="6.962530552467193" id="-2061">
		<tag k="name" v="Damfargrova" />
		<tag k="ssr:stedsnr" v="860919" />
		<tag k="waterway" v="stream" />
	</node>
	<node lat="62.04180833706079" lon="7.119797223700426" id="-2067">
		<tag k="name" v="Holedalsvatnet" />
		<tag k="natural" v="water" />
		<tag k="ssr:stedsnr" v="861427" />
		<tag k="water" v="lake" />
	</node>
	<node lat="62.03497777425456" lon="7.150883336926533" id="-2069">
		<tag k="name" v="Hestebreelvane" />
		<tag k="ssr:stedsnr" v="861456" />
		<tag k="waterway" v="stream" />
	</node>
	<node lat="62.32513055889727" lon="6.879891672767078" id="-2070">
		<tag k="name" v="Skurdavatna" />
		<tag k="natural" v="water" />
		<tag k="old_name" v="Skuravatna" />
		<tag k="ssr:stedsnr" v="861504" />
	</node>
	<node lat="62.06344444487416" lon="6.833522226349413" id="-2085">
		<tag k="name" v="Litledalselva" />
		<tag k="ssr:stedsnr" v="881855" />
		<tag k="waterway" v="river" />
	</node>
	<node lat="62.020280557293695" lon="7.035650005744682" id="-2096">
		<tag k="name" v="Peskredgjølet" />
		<tag k="ssr:stedsnr" v="882923" />
		<tag k="waterway" v="stream" />
	</node>
	<node lat="62.302286108828504" lon="7.1349166618774875" id="-2119">
		<tag k="name" v="Sætreelva" />
		<tag k="old_name" v="Sæterelva" />
		<tag k="ssr:stedsnr" v="921628" />
		<tag k="waterway" v="stream" />
	</node>
	<node lat="62.15069722326688" lon="7.181199996535032" id="-2123">
		<tag k="name" v="Oppskredvatnet" />
		<tag k="natural" v="water" />
		<tag k="ssr:stedsnr" v="945739" />
		<tag k="water" v="lake" />
	</node>
	<node lat="62.15605024868193" lon="7.19403336287502" id="-2131">
		<tag k="name" v="Øvste Hesjedalsvatnet" />
		<tag k="natural" v="water" />
		<tag k="ssr:stedsnr" v="986459" />
	</node>
	<node lat="62.158998762346855" lon="7.196213254063488" id="-2132">
		<tag k="name" v="Nedste Hesjedalsvatnet" />
		<tag k="natural" v="water" />
		<tag k="ssr:stedsnr" v="986460" />
	</node>
	<node lat="62.078616668561324" lon="7.2326111062717064" id="-2140">
		<tag k="name" v="Geirangelva" />
		<tag k="ssr:stedsnr" v="10129" />
		<tag k="waterway" v="river" />
	</node>
	<node lat="62.07881389060505" lon="7.3945000050174405" id="-2141">
		<tag k="name" v="Dyrbakkvatnet" />
		<tag k="natural" v="water" />
		<tag k="ssr:stedsnr" v="10132" />
		<tag k="water" v="lake" />
	</node>
	<node lat="62.00433333740537" lon="6.896863885462221" id="-2148">
		<tag k="name" v="Vatnedalsvatnet" />
		<tag k="natural" v="water" />
		<tag k="ssr:stedsnr" v="10457" />
		<tag k="water" v="lake" />
	</node>
	<node lat="62.086977774855505" lon="7.131058335224573" id="-2166">
		<tag k="name" v="Tverrelva" />
		<tag k="ssr:stedsnr" v="11414" />
		<tag k="waterway" v="stream" />
	</node>
	<node lat="62.340172223317595" lon="7.057124995679839" id="-2168">
		<tag k="alt_name" v="Storgrova" />
		<tag k="name" v="Storegrova" />
		<tag k="ssr:stedsnr" v="11543" />
		<tag k="waterway" v="stream" />
	</node>
	<node lat="62.155924999413934" lon="6.8242999997571525" id="-2171">
		<tag k="fixme" v="multiple name tags, choose one and add the other to alt_name" />
		<tag k="name" v="Sunnylvsvatnet;Vatnedalsvatnet" />
		<tag k="natural" v="water" />
		<tag k="ssr:stedsnr" v="11321" />
	</node>
	<node lat="62.06448427701906" lon="7.2619580223343485" id="-2178">
		<tag k="name" v="Kvanndalsfossen" />
		<tag k="natural" v="waterfall" />
		<tag k="ssr:stedsnr" v="20860" />
	</node>
	<node lat="62.09212499948906" lon="7.305077771192134" id="-2179">
		<tag k="name" v="Kupevatnet" />
		<tag k="natural" v="water" />
		<tag k="ssr:stedsnr" v="20874" />
		<tag k="water" v="lake" />
	</node>
	<node lat="62.13157777367497" lon="6.835688880469259" id="-2191">
		<tag k="name" v="Litledalselva" />
		<tag k="ssr:stedsnr" v="30736" />
		<tag k="waterway" v="river" />
	</node>
	<node lat="62.24360277582994" lon="6.793866672832178" id="-2203">
		<tag k="name" v="Åndalsåa" />
		<tag k="ssr:stedsnr" v="31744" />
		<tag k="waterway" v="stream" />
	</node>
	<node lat="62.06382500332274" lon="6.9294305584118066" id="-2212">
		<tag k="name" v="Myrstihola" />
=======
	<node id="-66859" lat="62.1496722231" lon="7.21149721716">
		<tag k="fixme" v="multiple name tags, choose one and add the other to alt_name" />
		<tag k="name" v="Hesjedalselva;Hesjeelva" />
		<tag k="ssr:stedsnr" v="278610" />
		<tag k="waterway" v="river" />
	</node>
	<node id="-67370" lat="62.3196333323" lon="7.05654443995">
		<tag k="name" v="Ringsetelva" />
		<tag k="ssr:stedsnr" v="922457" />
		<tag k="waterway" v="stream" />
	</node>
	<node id="-67111" lat="62.2622249969" lon="6.80985278737">
		<tag k="name" v="Insteelva" />
		<tag k="ssr:stedsnr" v="556911" />
		<tag k="waterway" v="stream" />
	</node>
	<node id="-67878" lat="62.0027111083" lon="6.80298333415">
		<tag k="name" v="Fossegrova" />
		<tag k="ssr:stedsnr" v="167027" />
		<tag k="waterway" v="stream" />
	</node>
	<node id="-66622" lat="62.3434333328" lon="6.8410277682">
		<tag k="name" v="Stigeligrova" />
		<tag k="old_name" v="Stigligrova" />
		<tag k="ssr:stedsnr" v="132525" />
		<tag k="waterway" v="stream" />
	</node>
	<node id="-67360" lat="62.0726194438" lon="7.0301527777">
		<tag k="fixme" v="multiple name tags, choose one and add the other to alt_name" />
		<tag k="name" v="Holtelva;Syltavikelva" />
		<tag k="ssr:stedsnr" v="921470" />
		<tag k="waterway" v="stream" />
	</node>
	<node id="-67029" lat="62.2587222215" lon="6.82055000179">
		<tag k="name" v="Løken" />
		<tag k="ssr:stedsnr" v="436909" />
		<tag k="waterway" v="stream" />
	</node>
	<node id="-68382" lat="61.9900805563" lon="6.83980278642">
		<tag k="name" v="Skihelledalselva" />
		<tag k="ssr:stedsnr" v="652030" />
		<tag k="waterway" v="river" />
	</node>
	<node id="-68381" lat="61.9912638866" lon="6.80913333302">
		<tag k="name" v="Tverrdalselva" />
		<tag k="ssr:stedsnr" v="652020" />
		<tag k="waterway" v="river" />
	</node>
	<node id="-67802" lat="62.0223111067" lon="6.81012777806">
		<tag k="name" v="Tronstadvatnet" />
		<tag k="natural" v="water" />
		<tag k="ssr:stedsnr" v="143675" />
	</node>
	<node id="-66842" lat="62.2068458802" lon="6.91784135128">
		<tag k="name" v="Mellomtangen" />
		<tag k="natural" v="cape" />
		<tag k="ssr:stedsnr" v="274724" />
	</node>
	<node id="-66838" lat="62.3371722209" lon="6.96537777177">
		<tag k="name" v="Uragrova" />
		<tag k="ssr:stedsnr" v="273902" />
		<tag k="waterway" v="stream" />
	</node>
	<node id="-66836" lat="62.0435222261" lon="6.98517499055">
		<tag k="name" v="Leirgrova" />
		<tag k="ssr:stedsnr" v="273670" />
		<tag k="waterway" v="stream" />
	</node>
	<node id="-67374" lat="62.0967833309" lon="7.06538056031">
		<tag k="name" v="Brudesløret" />
		<tag k="natural" v="waterfall" />
		<tag k="ssr:stedsnr" v="800411" />
	</node>
	<node id="-67857" lat="62.0461666689" lon="7.0271749996">
		<tag k="name" v="Heimstegjølet" />
		<tag k="ssr:stedsnr" v="154688" />
		<tag k="waterway" v="stream" />
	</node>
	<node id="-67854" lat="62.1569000013" lon="6.96397500042">
		<tag k="name" v="Inste Reketeigfonna" />
		<tag k="ssr:stedsnr" v="154091" />
		<tag k="waterway" v="stream" />
	</node>
	<node id="-67932" lat="62.1755555512" lon="7.00786110619">
		<tag k="name" v="Våssetgrova" />
		<tag k="ssr:stedsnr" v="214093" />
		<tag k="waterway" v="stream" />
	</node>
	<node id="-68364" lat="62.0376527746" lon="6.94826665854">
		<tag k="name" v="Fonngrova" />
		<tag k="ssr:stedsnr" v="639665" />
		<tag k="waterway" v="stream" />
	</node>
	<node id="-68362" lat="62.1476944423" lon="7.00530000156">
		<tag k="name" v="Kvernagrova" />
		<tag k="ssr:stedsnr" v="639395" />
		<tag k="waterway" v="stream" />
	</node>
	<node id="-67287" lat="62.279441671" lon="6.86957777759">
		<tag k="name" v="Storegrova" />
		<tag k="ssr:stedsnr" v="698558" />
		<tag k="waterway" v="stream" />
	</node>
	<node id="-67969" lat="62.1967111068" lon="6.86725000263">
		<tag k="name" v="Midtvatnet" />
		<tag k="natural" v="water" />
		<tag k="ssr:stedsnr" v="314337" />
	</node>
	<node id="-68268" lat="62.1184638873" lon="7.18523056373">
		<tag k="name" v="Grandeelva" />
		<tag k="ssr:stedsnr" v="580740" />
		<tag k="waterway" v="river" />
	</node>
	<node id="-67331" lat="62.167402776" lon="6.9702000035">
		<tag k="name" v="Grasskreda" />
		<tag k="ssr:stedsnr" v="760069" />
		<tag k="waterway" v="stream" />
	</node>
	<node id="-67842" lat="62.101813892" lon="6.95922777449">
		<tag k="name" v="Bukkeskora" />
		<tag k="ssr:stedsnr" v="153881" />
		<tag k="waterway" v="stream" />
	</node>
	<node id="-68395" lat="62.0253750032" lon="7.17889444806">
		<tag k="name" v="Kupevatnet" />
		<tag k="natural" v="water" />
		<tag k="ssr:stedsnr" v="738454" />
	</node>
	<node id="-67328" lat="62.3113361118" lon="7.0256277857">
		<tag k="name" v="Ansokgrova" />
		<tag k="ssr:stedsnr" v="758887" />
		<tag k="waterway" v="stream" />
	</node>
	<node id="-67327" lat="62.0275805538" lon="7.0095805577">
		<tag k="name" v="Rustegrova" />
		<tag k="ssr:stedsnr" v="758655" />
		<tag k="waterway" v="stream" />
	</node>
	<node id="-68350" lat="62.0170138858" lon="7.0270305606">
		<tag k="name" v="Kvernhusfossen" />
		<tag k="natural" v="waterfall" />
		<tag k="ssr:stedsnr" v="638966" />
	</node>
	<node id="-67541" lat="62.1476243274" lon="7.21506946902">
		<tag k="name" v="Grandevasselva" />
		<tag k="ssr:stedsnr" v="986552" />
		<tag k="waterway" v="stream" />
	</node>
	<node id="-68348" lat="62.2628277769" lon="6.97387777732">
		<tag k="name" v="Damfarfossen" />
		<tag k="natural" v="waterfall" />
		<tag k="ssr:stedsnr" v="638850" />
	</node>
	<node id="-66807" lat="62.0156777809" lon="6.93990834039">
		<tag k="name" v="Reitabakkgrova" />
		<tag k="ssr:stedsnr" v="457608" />
		<tag k="waterway" v="stream" />
	</node>
	<node id="-67829" lat="62.1351750042" lon="6.98554444221">
		<tag k="name" v="Systrestreka" />
		<tag k="ssr:stedsnr" v="153342" />
		<tag k="waterway" v="stream" />
	</node>
	<node id="-66804" lat="62.1696416653" lon="7.04256943528">
		<tag k="name" v="Heimstefonna" />
		<tag k="ssr:stedsnr" v="457336" />
		<tag k="waterway" v="stream" />
	</node>
	<node id="-68339" lat="62.1238416626" lon="7.15458889756">
		<tag k="name" v="Kviturelva" />
		<tag k="ssr:stedsnr" v="638557" />
		<tag k="waterway" v="river" />
	</node>
	<node id="-68337" lat="62.1985499958" lon="7.04449166176">
		<tag k="name" v="Sandskorgrova" />
		<tag k="ssr:stedsnr" v="638519" />
		<tag k="waterway" v="stream" />
	</node>
	<node id="-67824" lat="62.1567027779" lon="6.91896389608">
		<tag k="name" v="Nonselva" />
		<tag k="ssr:stedsnr" v="153181" />
		<tag k="waterway" v="river" />
	</node>
	<node id="-66795" lat="62.0781194434" lon="7.21317776937">
		<tag k="name" v="Sæterelva" />
		<tag k="ssr:stedsnr" v="457226" />
		<tag k="waterway" v="river" />
	</node>
	<node id="-67306" lat="62.0352611142" lon="6.95352776853">
		<tag k="name" v="Kvisla" />
		<tag k="ssr:stedsnr" v="700654" />
		<tag k="waterway" v="river" />
	</node>
	<node id="-67817" lat="62.2165388886" lon="6.91146111739">
		<tag k="name" v="Lygne" />
		<tag k="natural" v="water" />
		<tag k="ssr:stedsnr" v="152289" />
		<tag k="water" v="lake" />
	</node>
	<node id="-66792" lat="62.171513892" lon="6.985911103">
		<tag k="name" v="Ruslå" />
		<tag k="ssr:stedsnr" v="457095" />
		<tag k="waterway" v="stream" />
	</node>
	<node id="-67303" lat="61.9884555594" lon="7.03878888404">
		<tag k="name" v="Slætteneset" />
		<tag k="natural" v="cape" />
		<tag k="ssr:stedsnr" v="699969" />
	</node>
	<node id="-67812" lat="62.3163500032" lon="7.03082222079">
		<tag k="name" v="Stigrova" />
		<tag k="ssr:stedsnr" v="151884" />
		<tag k="waterway" v="stream" />
	</node>
	<node id="-66786" lat="62.1850000035" lon="6.92092223135">
		<tag k="name" v="Bøyravatnet" />
		<tag k="natural" v="water" />
		<tag k="ssr:stedsnr" v="456788" />
	</node>
	<node id="-67296" lat="62.0430333296" lon="7.08213888288">
		<tag k="name" v="Smådalselvane" />
		<tag k="ssr:stedsnr" v="699771" />
		<tag k="waterway" v="stream" />
	</node>
	<node id="-67280" lat="62.3267027808" lon="7.06272221956">
		<tag k="name" v="Løken" />
>>>>>>> e1d4bc35ff8a6074a6f2e91616a996b547c36f15
		<tag k="natural" v="water" />
		<tag k="ssr:stedsnr" v="698117" />
		<tag k="water" v="lake" />
	</node>
<<<<<<< HEAD
	<node lat="62.05761111494159" lon="6.70883611485327" id="-2226">
		<tag k="name" v="Kinnarskreda" />
		<tag k="ssr:stedsnr" v="32954" />
		<tag k="waterway" v="stream" />
	</node>
	<node lat="62.28347777421114" lon="6.888130564262543" id="-2230">
		<tag k="name" v="Storreitkvisla" />
		<tag k="natural" v="water" />
		<tag k="ssr:stedsnr" v="35795" />
		<tag k="water" v="lake" />
	</node>
	<node lat="62.0758083368909" lon="6.896652782514107" id="-2234">
		<tag k="name" v="Steimshølen" />
		<tag k="place" v="locality" />
		<tag k="ssr:stedsnr" v="35986" />
	</node>
	<node lat="61.993252780065966" lon="6.816316667311005" id="-2237">
		<tag k="name" v="Sætrefossen" />
		<tag k="natural" v="waterfall" />
		<tag k="ssr:stedsnr" v="46026" />
	</node>
	<node lat="62.08953333530504" lon="7.36311667021887" id="-2241">
		<tag k="name" v="Djupdalseggvatnet" />
		<tag k="natural" v="water" />
		<tag k="ssr:stedsnr" v="71137" />
	</node>
	<node lat="62.14780000271355" lon="7.240399998245785" id="-2242">
		<tag k="name" v="Grandevatnet" />
		<tag k="natural" v="water" />
		<tag k="ssr:stedsnr" v="71037" />
	</node>
	<node lat="62.20082221828091" lon="6.981416670062312" id="-2245">
		<tag k="name" v="Rjupeskarvatnet" />
		<tag k="natural" v="water" />
		<tag k="ssr:stedsnr" v="71332" />
	</node>
	<node lat="62.17091110974849" lon="6.903049999930951" id="-2246">
		<tag k="name" v="Litlevatnet" />
		<tag k="natural" v="water" />
		<tag k="ssr:stedsnr" v="71359" />
	</node>
	<node lat="62.24867500418876" lon="6.979122218705753" id="-2254">
		<tag k="name" v="Vassetvatnet" />
		<tag k="natural" v="water" />
		<tag k="ssr:stedsnr" v="72254" />
	</node>
	<node lat="62.05369166909442" lon="6.7399361080919515" id="-2261">
		<tag k="name" v="Tverrelva" />
		<tag k="ssr:stedsnr" v="72397" />
		<tag k="waterway" v="stream" />
	</node>
	<node lat="62.03428611171811" lon="7.0131722238391525" id="-2263">
		<tag k="name" v="Holedalselva" />
		<tag k="ssr:stedsnr" v="72419" />
		<tag k="waterway" v="stream" />
	</node>
	<node lat="62.03459999609455" lon="6.902513888025475" id="-2266">
		<tag k="name" v="Haugedalsvatnet" />
		<tag k="natural" v="water" />
		<tag k="ssr:stedsnr" v="72436" />
	</node>
	<node lat="62.06409999857768" lon="7.289416669435578" id="-2273">
		<tag k="name" v="Heimstevatnet" />
		<tag k="natural" v="water" />
		<tag k="ssr:stedsnr" v="81858" />
		<tag k="water" v="lake" />
	</node>
	<node lat="62.35258333644714" lon="6.862924996509439" id="-2278">
		<tag k="name" v="Åsegrova" />
		<tag k="ssr:stedsnr" v="91026" />
		<tag k="waterway" v="stream" />
	</node>
	<node lat="61.98695555919373" lon="7.042786111846487" id="-2310">
		<tag k="name" v="Hestevika" />
		<tag k="natural" v="bay" />
		<tag k="ssr:stedsnr" v="93935" />
	</node>
	<node lat="62.013841662827424" lon="7.0300777780751655" id="-2314">
		<tag k="name" v="Storøyna" />
		<tag k="place" v="island" />
		<tag k="ssr:stedsnr" v="93900" />
	</node>
	<node lat="62.07310277861467" lon="6.896005554069228" id="-2315">
		<tag k="name" v="Merkingsgrova" />
		<tag k="ssr:stedsnr" v="95727" />
		<tag k="waterway" v="stream" />
	</node>
	<node lat="62.04480555268673" lon="7.349725005741807" id="-2331">
		<tag k="name" v="Kolbeinsvatnet" />
		<tag k="natural" v="water" />
		<tag k="ssr:stedsnr" v="132141" />
		<tag k="water" v="lake" />
	</node>
	<node lat="62.18272500083027" lon="6.870505560213638" id="-2332">
		<tag k="name" v="Instevatnet" />
		<tag k="natural" v="water" />
		<tag k="ssr:stedsnr" v="132287" />
	</node>
	<node lat="62.12853333623272" lon="6.737419438783871" id="-2337">
		<tag k="name" v="Geilskredvatnet" />
		<tag k="natural" v="water" />
		<tag k="ssr:stedsnr" v="132340" />
	</node>
	<node lat="62.10250000318706" lon="6.777919434875785" id="-2339">
		<tag k="name" v="Sætreelva" />
		<tag k="ssr:stedsnr" v="132381" />
		<tag k="waterway" v="stream" />
	</node>
	<node lat="62.08382777457008" lon="7.066330552092767" id="-2340">
		<tag k="name" v="Ljosurfossen" />
		<tag k="natural" v="waterfall" />
		<tag k="ssr:stedsnr" v="132391" />
	</node>
	<node lat="62.23121389016078" lon="6.781288896163171" id="-2345">
		<tag k="name" v="Nysetvatnet" />
		<tag k="natural" v="water" />
		<tag k="ssr:stedsnr" v="132258" />
	</node>
	<node lat="62.34343333283107" lon="6.84102776820031" id="-2352">
		<tag k="name" v="Stigeligrova" />
		<tag k="old_name" v="Stigligrova" />
		<tag k="ssr:stedsnr" v="132525" />
		<tag k="waterway" v="stream" />
	</node>
	<node lat="62.03385277706762" lon="7.295547217510922" id="-2355">
		<tag k="name" v="Hesteelva" />
		<tag k="ssr:stedsnr" v="141760" />
		<tag k="waterway" v="stream" />
	</node>
	<node lat="62.06094166257253" lon="7.400577787132169" id="-2356">
		<tag k="name" v="Viafosstjønna" />
		<tag k="natural" v="water" />
		<tag k="ssr:stedsnr" v="141848" />
		<tag k="water" v="lake" />
	</node>
	<node lat="62.02231110670299" lon="6.810127778061867" id="-2358">
		<tag k="name" v="Tronstadvatnet" />
		<tag k="natural" v="water" />
		<tag k="ssr:stedsnr" v="143675" />
	</node>
	<node lat="62.31635000318691" lon="7.030822220791056" id="-2360">
		<tag k="name" v="Stigrova" />
		<tag k="ssr:stedsnr" v="151884" />
		<tag k="waterway" v="stream" />
	</node>
	<node lat="62.21653888859559" lon="6.911461117393324" id="-2373">
		<tag k="name" v="Lygne" />
		<tag k="natural" v="water" />
		<tag k="ssr:stedsnr" v="152289" />
		<tag k="water" v="lake" />
	</node>
	<node lat="62.15670277786236" lon="6.918963896080564" id="-2374">
		<tag k="name" v="Nonselva" />
		<tag k="ssr:stedsnr" v="153181" />
		<tag k="waterway" v="river" />
	</node>
	<node lat="62.07164722567418" lon="6.822330546793208" id="-2378">
		<tag k="name" v="Toskedalselva" />
		<tag k="ssr:stedsnr" v="152623" />
		<tag k="waterway" v="river" />
	</node>
	<node lat="62.04773610962794" lon="6.793516663916495" id="-2382">
		<tag k="name" v="Storetjønna" />
		<tag k="natural" v="water" />
		<tag k="ssr:stedsnr" v="152894" />
	</node>
	<node lat="62.15270833668775" lon="6.9514194482527945" id="-2394">
		<tag k="name" v="Tynnbjørgvatnet" />
		<tag k="natural" v="water" />
		<tag k="ssr:stedsnr" v="153321" />
	</node>
	<node lat="62.13517500423138" lon="6.9855444422081" id="-2395">
		<tag k="name" v="Systrestreka" />
		<tag k="ssr:stedsnr" v="153342" />
		<tag k="waterway" v="stream" />
	</node>
	<node lat="62.1018138919517" lon="6.959227774485786" id="-2397">
		<tag k="name" v="Bukkeskora" />
		<tag k="ssr:stedsnr" v="153881" />
		<tag k="waterway" v="stream" />
	</node>
	<node lat="62.15690000127869" lon="6.963975000415569" id="-2407">
		<tag k="name" v="Inste Reketeigfonna" />
		<tag k="ssr:stedsnr" v="154091" />
		<tag k="waterway" v="stream" />
	</node>
	<node lat="62.04616666889149" lon="7.027174999595771" id="-2410">
		<tag k="name" v="Heimstegjølet" />
		<tag k="ssr:stedsnr" v="154688" />
		<tag k="waterway" v="stream" />
	</node>
	<node lat="62.002711108321634" lon="6.802983334151007" id="-2424">
		<tag k="name" v="Fossegrova" />
		<tag k="ssr:stedsnr" v="167027" />
		<tag k="waterway" v="stream" />
	</node>
	<node lat="62.074352777261815" lon="7.3614305553972805" id="-2428">
		<tag k="name" v="Fremste Dyrgravvatnet" />
		<tag k="natural" v="water" />
		<tag k="ssr:stedsnr" v="192111" />
		<tag k="water" v="lake" />
	</node>
	<node lat="62.33813055281292" lon="6.8851166710282925" id="-2450">
		<tag k="name" v="Svartåna" />
		<tag k="old_name" v="Svartelva" />
		<tag k="ssr:stedsnr" v="193547" />
		<tag k="waterway" v="stream" />
	</node>
	<node lat="62.300647218833824" lon="7.1059194494852855" id="-2470">
		<tag k="name" v="Løgrova" />
		<tag k="ssr:stedsnr" v="212173" />
		<tag k="waterway" v="stream" />
	</node>
	<node lat="62.10059722206512" lon="6.879780551406188" id="-2473">
		<tag k="name" v="Ospaflågjølet" />
		<tag k="ssr:stedsnr" v="213122" />
		<tag k="waterway" v="stream" />
	</node>
	<node lat="62.29459999855275" lon="6.818027784253185" id="-2475">
		<tag k="name" v="Svartestilla" />
		<tag k="natural" v="water" />
		<tag k="ssr:stedsnr" v="212393" />
		<tag k="water" v="lake" />
	</node>
	<node lat="62.00926388452181" lon="6.946463886615266" id="-2488">
		<tag k="name" v="Nysvorgrova" />
		<tag k="ssr:stedsnr" v="214991" />
		<tag k="waterway" v="stream" />
	</node>
	<node lat="62.16336944036506" lon="6.927422231910781" id="-2490">
		<tag k="name" v="Kvernhuskvitla" />
		<tag k="ssr:stedsnr" v="214140" />
		<tag k="waterway" v="stream" />
	</node>
	<node lat="62.146880551817084" lon="6.9967972250682395" id="-2493">
		<tag k="name" v="Grøtgjølgrova" />
		<tag k="ssr:stedsnr" v="214342" />
		<tag k="waterway" v="stream" />
	</node>
	<node lat="62.07276388486113" lon="6.919277782156629" id="-2505">
		<tag k="name" v="Høkfløten" />
		<tag k="natural" v="beach" />
		<tag k="ssr:stedsnr" v="215323" />
	</node>
	<node lat="62.0386500008429" lon="6.946727784155125" id="-2506">
		<tag k="name" v="Ytstereitgrova" />
		<tag k="ssr:stedsnr" v="215689" />
		<tag k="waterway" v="stream" />
	</node>
	<node lat="62.30783611445583" lon="7.089199998516998" id="-2519">
		<tag k="name" v="Ytstegrova" />
		<tag k="ssr:stedsnr" v="273166" />
		<tag k="waterway" v="stream" />
	</node>
	<node lat="62.04352222614481" lon="6.98517499054511" id="-2528">
		<tag k="name" v="Leirgrova" />
		<tag k="ssr:stedsnr" v="273670" />
		<tag k="waterway" v="stream" />
	</node>
	<node lat="62.237308337404755" lon="6.877600002705473" id="-2534">
		<tag k="name" v="Tverråna" />
		<tag k="ssr:stedsnr" v="274392" />
		<tag k="waterway" v="stream" />
	</node>
	<node lat="62.28732777473205" lon="7.000136109467362" id="-2548">
		<tag k="name" v="Kjeskorå" />
		<tag k="ssr:stedsnr" v="274929" />
		<tag k="waterway" v="river" />
	</node>
	<node lat="62.143623460387026" lon="7.2108324245882915" id="-2563">
		<tag k="name" v="Møllsvasselva" />
		<tag k="ssr:stedsnr" v="277744" />
		<tag k="waterway" v="stream" />
	</node>
	<node lat="61.99635555193219" lon="7.045680548724907" id="-2577">
		<tag k="name" v="Nedstevatn" />
		<tag k="natural" v="water" />
		<tag k="ssr:stedsnr" v="313402" />
	</node>
	<node lat="62.19671110683566" lon="6.86725000262606" id="-2578">
		<tag k="name" v="Midtvatnet" />
		<tag k="natural" v="water" />
		<tag k="ssr:stedsnr" v="314337" />
	</node>
	<node lat="62.308372226260516" lon="7.094252770712622" id="-2587">
		<tag k="name" v="Instegrova" />
		<tag k="ssr:stedsnr" v="314635" />
		<tag k="waterway" v="stream" />
	</node>
	<node lat="62.0830944488732" lon="7.165425005991144" id="-2595">
		<tag k="name" v="Skagedalsvatnet" />
		<tag k="natural" v="water" />
		<tag k="ssr:stedsnr" v="314449" />
		<tag k="water" v="lake" />
	</node>
	<node lat="62.069775000043265" lon="7.203569435939041" id="-2596">
		<tag k="name" v="Dalelva" />
		<tag k="ssr:stedsnr" v="314504" />
		<tag k="waterway" v="stream" />
	</node>
	<node lat="62.08662499925464" lon="6.863075001700173" id="-2605">
		<tag k="name" v="Hellesyltfossen" />
		<tag k="natural" v="waterfall" />
		<tag k="ssr:stedsnr" v="325958" />
	</node>
	<node lat="62.14405555208613" lon="6.901127782009773" id="-2606">
		<tag k="name" v="Styggedalsvatnet" />
		<tag k="natural" v="water" />
		<tag k="ssr:stedsnr" v="326126" />
	</node>
	<node lat="62.0707916656233" lon="6.808325003292844" id="-2616">
		<tag k="name" v="Djupgrova" />
		<tag k="ssr:stedsnr" v="334576" />
		<tag k="waterway" v="stream" />
	</node>
	<node lat="62.125608331314" lon="6.735555559445301" id="-2620">
		<tag k="name" v="Vika" />
		<tag k="natural" v="bay" />
		<tag k="ssr:stedsnr" v="335068" />
	</node>
	<node lat="62.10178333705214" lon="7.10988055711675" id="-2632">
		<tag k="name" v="Geitelva" />
		<tag k="ssr:stedsnr" v="335638" />
		<tag k="waterway" v="river" />
	</node>
	<node lat="62.22226388548527" lon="6.924486106325035" id="-2635">
		<tag k="name" v="Tverrelva" />
		<tag k="ssr:stedsnr" v="335878" />
		<tag k="waterway" v="river" />
	</node>
	<node lat="62.02395555462421" lon="7.304763889059103" id="-2651">
		<tag k="name" v="Djupvatnet" />
		<tag k="natural" v="water" />
		<tag k="ssr:stedsnr" v="374176" />
		<tag k="water" v="lake" />
	</node>
	<node lat="62.12743333736714" lon="7.157144442817154" id="-2668">
		<tag k="name" v="Gjerdefossen" />
		<tag k="natural" v="waterfall" />
		<tag k="ssr:stedsnr" v="375351" />
	</node>
	<node lat="62.039861109210534" lon="6.8043111119433135" id="-2669">
		<tag k="name" v="Tronstadelva" />
		<tag k="ssr:stedsnr" v="375427" />
		<tag k="waterway" v="stream" />
	</node>
	<node lat="62.34750277696428" lon="6.844038890821117" id="-2670">
		<tag k="name" v="Stigelivatnet" />
		<tag k="natural" v="water" />
		<tag k="old_name" v="Stiglivatnet" />
		<tag k="ssr:stedsnr" v="375517" />
	</node>
	<node lat="62.32621667025982" lon="6.999397217594384" id="-2675">
		<tag k="name" v="Storvassdalsvatnet" />
		<tag k="natural" v="water" />
		<tag k="ssr:stedsnr" v="375448" />
	</node>
	<node lat="62.33207222086945" lon="6.983155546992222" id="-2678">
		<tag k="name" v="Klovvatnet" />
		<tag k="natural" v="water" />
		<tag k="ssr:stedsnr" v="375469" />
	</node>
	<node lat="62.302986106968866" lon="6.809897221726442" id="-2685">
		<tag k="name" v="Fonnagrova" />
		<tag k="old_name" v="Fonngrova" />
		<tag k="ssr:stedsnr" v="375576" />
		<tag k="waterway" v="stream" />
	</node>
	<node lat="62.11364166526414" lon="6.9089833257164655" id="-2689">
		<tag k="name" v="Storefossen" />
		<tag k="natural" v="waterfall" />
		<tag k="ssr:stedsnr" v="385895" />
	</node>
	<node lat="62.06925833197532" lon="6.929891672376733" id="-2710">
		<tag k="name" v="Fossane" />
		<tag k="natural" v="waterfall" />
		<tag k="ssr:stedsnr" v="396249" />
	</node>
	<node lat="62.033116663583996" lon="6.7593833337843705" id="-2716">
		<tag k="name" v="Longøyna" />
		<tag k="natural" v="cape" />
		<tag k="ssr:stedsnr" v="396347" />
	</node>
	<node lat="62.023733330529616" lon="6.746847224655067" id="-2723">
		<tag k="name" v="Kvernafossen" />
		<tag k="natural" v="waterfall" />
		<tag k="ssr:stedsnr" v="396447" />
	</node>
	<node lat="62.23092221910463" lon="6.785788887831644" id="-2728">
		<tag k="name" v="Leirvasselva" />
		<tag k="ssr:stedsnr" v="396967" />
		<tag k="waterway" v="river" />
	</node>
	<node lat="62.210913890420706" lon="6.913677778288528" id="-2737">
		<tag k="fixme" v="multiple name tags, choose one and add the other to alt_name" />
		<tag k="name" v="Embla;Storelva" />
		<tag k="ssr:stedsnr" v="435334" />
		<tag k="waterway" v="river" />
	</node>
	<node lat="62.28278611282017" lon="6.944736111045821" id="-2745">
		<tag k="name" v="Skorbøelva" />
		<tag k="ssr:stedsnr" v="436569" />
		<tag k="waterway" v="stream" />
	</node>
	<node lat="62.14796110678037" lon="7.007661113732222" id="-2751">
		<tag k="name" v="Furneselva" />
		<tag k="ssr:stedsnr" v="436320" />
		<tag k="waterway" v="stream" />
	</node>
	<node lat="62.03160000349565" lon="7.047125003915988" id="-2763">
		<tag k="name" v="Litlesætrevatnet" />
		<tag k="natural" v="water" />
		<tag k="ssr:stedsnr" v="496507" />
	</node>
	<node lat="62.10487777894147" lon="7.230741666431307" id="-2765">
		<tag k="name" v="Storsæterfossen" />
		<tag k="natural" v="waterfall" />
		<tag k="ssr:stedsnr" v="496070" />
	</node>
	<node lat="62.24411388530241" lon="6.883211114149705" id="-2789">
		<tag k="name" v="Jufossen" />
		<tag k="natural" v="waterfall" />
		<tag k="ssr:stedsnr" v="516638" />
	</node>
	<node lat="62.20663333521776" lon="6.929897220488564" id="-2799">
		<tag k="name" v="Overvollelva" />
		<tag k="ssr:stedsnr" v="517796" />
		<tag k="waterway" v="stream" />
	</node>
	<node lat="62.17221944139699" lon="6.989463883174444" id="-2802">
		<tag k="name" v="Megjølet" />
		<tag k="ssr:stedsnr" v="518116" />
		<tag k="waterway" v="stream" />
	</node>
	<node lat="62.15621666510715" lon="6.923438886345298" id="-2803">
		<tag k="name" v="Daleelva" />
		<tag k="ssr:stedsnr" v="518193" />
		<tag k="waterway" v="river" />
	</node>
	<node lat="62.134691665397334" lon="6.921750007388034" id="-2805">
		<tag k="name" v="Storskreda" />
		<tag k="ssr:stedsnr" v="518474" />
		<tag k="waterway" v="stream" />
	</node>
	<node lat="62.10245833618912" lon="6.955683338748101" id="-2807">
		<tag k="name" v="Breiestreket" />
		<tag k="ssr:stedsnr" v="518842" />
		<tag k="waterway" v="stream" />
	</node>
	<node lat="62.05177499631884" lon="7.298080558634045" id="-2812">
		<tag k="name" v="Fossvatnet" />
		<tag k="natural" v="water" />
		<tag k="ssr:stedsnr" v="556124" />
	</node>
	<node lat="62.09416388802889" lon="6.827591666658301" id="-2817">
		<tag k="name" v="Fannåa" />
		<tag k="ssr:stedsnr" v="556441" />
		<tag k="waterway" v="stream" />
	</node>
	<node lat="62.31432222572546" lon="6.899719450919445" id="-2829">
=======
	<node id="-67962" lat="62.0386500008" lon="6.94672778416">
		<tag k="name" v="Ytstereitgrova" />
		<tag k="ssr:stedsnr" v="215689" />
		<tag k="waterway" v="stream" />
	</node>
	<node id="-68314" lat="62.0933916659" lon="7.25520277304">
		<tag k="name" v="Stillelva" />
		<tag k="natural" v="water" />
		<tag k="ssr:stedsnr" v="627879" />
		<tag k="water" v="lake" />
	</node>
	<node id="-66767" lat="62.333083332" lon="6.91683888517">
		<tag k="name" v="Gamlestøa" />
		<tag k="natural" v="bay" />
		<tag k="ssr:stedsnr" v="455908" />
	</node>
	<node id="-67800" lat="62.0609416626" lon="7.40057778713">
		<tag k="name" v="Viafosstjønna" />
		<tag k="natural" v="water" />
		<tag k="ssr:stedsnr" v="141848" />
		<tag k="water" v="lake" />
	</node>
	<node id="-67799" lat="62.0338527771" lon="7.29554721751">
		<tag k="name" v="Hesteelva" />
		<tag k="ssr:stedsnr" v="141760" />
		<tag k="waterway" v="stream" />
	</node>
	<node id="-67193" lat="62.2084944433" lon="6.81783889033">
		<tag k="name" v="Tverdalselva" />
		<tag k="ssr:stedsnr" v="880165" />
		<tag k="waterway" v="river" />
	</node>
	<node id="-68308" lat="62.3350555581" lon="6.84501111754">
		<tag k="name" v="Kvanngrøvatnet" />
		<tag k="natural" v="water" />
		<tag k="ssr:stedsnr" v="618507" />
	</node>
	<node id="-67283" lat="62.0948944457" lon="6.87771110271">
		<tag k="name" v="Jørngjølet" />
		<tag k="ssr:stedsnr" v="698075" />
		<tag k="waterway" v="stream" />
	</node>
	<node id="-66595" lat="61.9982777784" lon="6.79827499242">
		<tag k="name" v="Røyrhuselva" />
		<tag k="ssr:stedsnr" v="253510" />
		<tag k="waterway" v="river" />
	</node>
	<node id="-68304" lat="62.2512694481" lon="6.97848610426">
		<tag k="name" v="Vassetvatnet" />
		<tag k="natural" v="water" />
		<tag k="old_name" v="Vassevatnet" />
		<tag k="ssr:stedsnr" v="617924" />
	</node>
	<node id="-67791" lat="62.0838277746" lon="7.06633055209">
		<tag k="name" v="Ljosurfossen" />
		<tag k="natural" v="waterfall" />
		<tag k="ssr:stedsnr" v="132391" />
	</node>
	<node id="-67790" lat="62.1025000032" lon="6.77791943488">
		<tag k="name" v="Sætreelva" />
		<tag k="ssr:stedsnr" v="132381" />
		<tag k="waterway" v="stream" />
	</node>
	<node id="-68298" lat="62.0364666703" lon="6.72565278659">
		<tag k="name" v="Gjølelva" />
		<tag k="ssr:stedsnr" v="617487" />
		<tag k="waterway" v="stream" />
	</node>
	<node id="-68297" lat="62.0518611134" lon="7.21155555743">
		<tag k="name" v="Flydalsvatnet" />
		<tag k="natural" v="water" />
		<tag k="ssr:stedsnr" v="617486" />
		<tag k="water" v="lake" />
	</node>
	<node id="-68293" lat="62.0347750038" lon="7.00200832803">
		<tag k="name" v="Bygdaelva" />
		<tag k="ssr:stedsnr" v="617451" />
		<tag k="waterway" v="river" />
	</node>
	<node id="-66756" lat="62.2690111122" lon="6.88086944476">
		<tag k="name" v="Storelva" />
		<tag k="ssr:stedsnr" v="254613" />
		<tag k="waterway" v="river" />
	</node>
	<node id="-66755" lat="62.3361333364" lon="7.02225833434">
		<tag k="name" v="Storgrova" />
		<tag k="ssr:stedsnr" v="254610" />
		<tag k="waterway" v="stream" />
	</node>
	<node id="-66754" lat="62.2294305523" lon="6.98409999347">
		<tag k="name" v="Duklidalsvatnet" />
		<tag k="natural" v="water" />
		<tag k="ssr:stedsnr" v="254257" />
	</node>
	<node id="-67531" lat="62.0273194407" lon="7.02116945136">
		<tag k="name" v="Stigegrova" />
		<tag k="ssr:stedsnr" v="940613" />
		<tag k="waterway" v="stream" />
	</node>
	<node id="-67776" lat="62.2312138902" lon="6.78128889616">
		<tag k="name" v="Nysetvatnet" />
		<tag k="natural" v="water" />
		<tag k="ssr:stedsnr" v="132258" />
	</node>
	<node id="-67616" lat="62.172766667" lon="7.04353332488">
		<tag k="name" v="Plassefonna" />
		<tag k="ssr:stedsnr" v="32339" />
		<tag k="waterway" v="stream" />
	</node>
	<node id="-67262" lat="62.0202805573" lon="7.03565000574">
		<tag k="name" v="Peskredgjølet" />
		<tag k="ssr:stedsnr" v="882923" />
		<tag k="waterway" v="stream" />
	</node>
	<node id="-67786" lat="62.1285333362" lon="6.73741943878">
		<tag k="name" v="Geilskredvatnet" />
		<tag k="natural" v="water" />
		<tag k="ssr:stedsnr" v="132340" />
	</node>
	<node id="-68282" lat="62.0575166678" lon="7.3960833296">
		<tag k="name" v="Kolbeinsåa" />
		<tag k="ssr:stedsnr" v="617135" />
		<tag k="waterway" v="river" />
	</node>
	<node id="-68279" lat="62.0708083371" lon="7.40705832892">
		<tag k="name" v="Flatvatnet" />
		<tag k="natural" v="water" />
		<tag k="ssr:stedsnr" v="617125" />
		<tag k="water" v="lake" />
	</node>
	<node id="-66739" lat="62.0523249979" lon="6.73330834094">
		<tag k="name" v="Kokartjørna" />
		<tag k="natural" v="water" />
		<tag k="ssr:stedsnr" v="214529" />
	</node>
	<node id="-67443" lat="62.0734972251" lon="6.81533610502">
		<tag k="name" v="Storegrova" />
		<tag k="ssr:stedsnr" v="941581" />
		<tag k="waterway" v="stream" />
	</node>
	<node id="-68292" lat="62.0649333347" lon="7.03382778412">
		<tag k="name" v="Holtvatnet" />
		<tag k="natural" v="water" />
		<tag k="ssr:stedsnr" v="617449" />
	</node>
	<node id="-67639" lat="61.9859972252" lon="7.03643888723">
		<tag k="name" v="Skurveneset" />
		<tag k="natural" v="cape" />
		<tag k="ssr:stedsnr" v="32962" />
	</node>
	<node id="-67757" lat="62.0731027786" lon="6.89600555407">
		<tag k="name" v="Merkingsgrova" />
		<tag k="ssr:stedsnr" v="95727" />
		<tag k="waterway" v="stream" />
	</node>
	<node id="-66892" lat="62.1440555521" lon="6.90112778201">
		<tag k="name" v="Styggedalsvatnet" />
		<tag k="natural" v="water" />
		<tag k="ssr:stedsnr" v="326126" />
	</node>
	<node id="-67754" lat="61.9869555592" lon="7.04278611185">
		<tag k="name" v="Hestevika" />
		<tag k="natural" v="bay" />
		<tag k="ssr:stedsnr" v="93935" />
	</node>
	<node id="-67753" lat="62.0138416628" lon="7.03007777808">
		<tag k="name" v="Storøyna" />
		<tag k="place" v="island" />
		<tag k="ssr:stedsnr" v="93900" />
	</node>
	<node id="-68264" lat="62.0090388906" lon="7.04674444181">
		<tag k="name" v="Nauteskreda" />
		<tag k="ssr:stedsnr" v="578898" />
		<tag k="waterway" v="stream" />
	</node>
	<node id="-67441" lat="62.3033055523" lon="7.08777222771">
		<tag k="name" v="Kvennagrova" />
		<tag k="ssr:stedsnr" v="941451" />
		<tag k="waterway" v="stream" />
	</node>
	<node id="-67236" lat="62.0702194445" lon="7.31741666452">
		<tag k="name" v="Bjørnstigvatnet" />
		<tag k="natural" v="water" />
		<tag k="ssr:stedsnr" v="678108" />
	</node>
	<node id="-67234" lat="62.0384861124" lon="6.96648332522">
		<tag k="name" v="Danefossen" />
		<tag k="natural" v="waterfall" />
		<tag k="ssr:stedsnr" v="882574" />
	</node>
	<node id="-67355" lat="62.1142333377" lon="7.02400277277">
		<tag k="name" v="Korsvatnet" />
		<tag k="natural" v="water" />
		<tag k="ssr:stedsnr" v="921407" />
	</node>
	<node id="-68254" lat="62.1539944411" lon="7.03476945029">
		<tag k="name" v="Fonnagrova" />
		<tag k="ssr:stedsnr" v="578300" />
		<tag k="waterway" v="stream" />
	</node>
	<node id="-66757" lat="62.2940333353" lon="6.80851388193">
		<tag k="name" v="Elvakrokane" />
		<tag k="place" v="locality" />
		<tag k="ssr:stedsnr" v="455369" />
	</node>
	<node id="-67078" lat="62.1074472205" lon="6.84231111619">
		<tag k="name" v="Tverrelva" />
		<tag k="ssr:stedsnr" v="689875" />
		<tag k="waterway" v="stream" />
	</node>
	<node id="-66945" lat="62.2398833293" lon="6.94447777089">
		<tag k="name" v="Blåhornvatnet" />
		<tag k="natural" v="water" />
		<tag k="ssr:stedsnr" v="375225" />
	</node>
	<node id="-67695" lat="62.3525833364" lon="6.86292499651">
		<tag k="name" v="Åsegrova" />
		<tag k="ssr:stedsnr" v="91026" />
		<tag k="waterway" v="stream" />
	</node>
	<node id="-68248" lat="62.2389416629" lon="7.00058610561">
		<tag k="name" v="Veraflåna" />
		<tag k="ssr:stedsnr" v="577887" />
		<tag k="waterway" v="stream" />
	</node>
	<node id="-68247" lat="62.2288999997" lon="6.99925277852">
		<tag k="name" v="Ytsteelva" />
		<tag k="ssr:stedsnr" v="577880" />
		<tag k="waterway" v="stream" />
	</node>
	<node id="-68246" lat="62.0813527814" lon="6.83120554697">
		<tag k="name" v="Svoragrova" />
		<tag k="ssr:stedsnr" v="577620" />
		<tag k="waterway" v="stream" />
	</node>
	<node id="-67221" lat="62.0634444449" lon="6.83352222635">
		<tag k="name" v="Litledalselva" />
		<tag k="ssr:stedsnr" v="881855" />
		<tag k="waterway" v="river" />
	</node>
	<node id="-66708" lat="61.9966666706" lon="6.80903610566">
		<tag k="name" v="Storegrova" />
		<tag k="ssr:stedsnr" v="289036" />
		<tag k="waterway" v="stream" />
	</node>
	<node id="-67730" lat="62.0832333353" lon="7.21436666969">
		<tag k="name" v="Gjerdhauggrova" />
		<tag k="ssr:stedsnr" v="93210" />
		<tag k="waterway" v="stream" />
	</node>
	<node id="-68236" lat="62.120249997" lon="6.73554999767">
		<tag k="name" v="Litlevatnet" />
		<tag k="natural" v="water" />
		<tag k="ssr:stedsnr" v="577472" />
	</node>
	<node id="-68290" lat="62.1901499974" lon="6.9825111118">
		<tag k="name" v="Instevatnet" />
		<tag k="natural" v="water" />
		<tag k="ssr:stedsnr" v="617343" />
	</node>
	<node id="-67721" lat="62.068783332" lon="6.82906943661">
		<tag k="name" v="Steingrova" />
		<tag k="ssr:stedsnr" v="92808" />
		<tag k="waterway" v="stream" />
	</node>
	<node id="-67054" lat="62.3563944429" lon="6.87573333876">
		<tag k="name" v="Fausaelva" />
		<tag k="ssr:stedsnr" v="679512" />
		<tag k="waterway" v="river" />
	</node>
	<node id="-66693" lat="62.1436234604" lon="7.21083242459">
		<tag k="name" v="Møllsvasselva" />
		<tag k="ssr:stedsnr" v="277744" />
		<tag k="waterway" v="stream" />
	</node>
	<node id="-66692" lat="62.1579888922" lon="6.96471666102">
		<tag k="name" v="Ytste Reketeigfonna" />
		<tag k="ssr:stedsnr" v="154204" />
		<tag k="waterway" v="stream" />
	</node>
	<node id="-66691" lat="62.1527083367" lon="6.95141944825">
		<tag k="name" v="Tynnbjørgvatnet" />
		<tag k="natural" v="water" />
		<tag k="ssr:stedsnr" v="153321" />
	</node>
	<node id="-67201" lat="62.0412750028" lon="7.00425555747">
		<tag k="name" v="Liagrova" />
		<tag k="ssr:stedsnr" v="880679" />
		<tag k="waterway" v="stream" />
	</node>
	<node id="-66686" lat="62.0716472257" lon="6.82233054679">
		<tag k="name" v="Toskedalselva" />
		<tag k="ssr:stedsnr" v="152623" />
		<tag k="waterway" v="river" />
	</node>
	<node id="-67197" lat="62.2961861113" lon="6.83159999242">
		<tag k="name" v="Hevsdalsgrova" />
		<tag k="ssr:stedsnr" v="880379" />
		<tag k="waterway" v="stream" />
	</node>
	<node id="-68219" lat="62.2047805516" lon="6.82110834246">
		<tag k="name" v="Moldskreddøla" />
		<tag k="ssr:stedsnr" v="568147" />
		<tag k="waterway" v="river" />
	</node>
	<node id="-68218" lat="62.0480750035" lon="7.22910833052">
		<tag k="name" v="Skoltetjønna" />
		<tag k="natural" v="water" />
		<tag k="ssr:stedsnr" v="566875" />
		<tag k="water" v="lake" />
	</node>
	<node id="-68217" lat="62.0197944404" lon="7.33776665918">
		<tag k="fixme" v="multiple name tags, choose one and add the other to alt_name" />
		<tag k="name" v="Langvasstjønna;Stavbrekktjønna" />
		<tag k="natural" v="water" />
		<tag k="ssr:stedsnr" v="566764" />
		<tag k="water" v="lake" />
	</node>
	<node id="-67704" lat="62.3152972259" lon="7.0415499935">
		<tag k="name" v="Olagrova" />
		<tag k="ssr:stedsnr" v="91963" />
		<tag k="waterway" v="stream" />
	</node>
	<node id="-68213" lat="62.3143222257" lon="6.89971945092">
>>>>>>> e1d4bc35ff8a6074a6f2e91616a996b547c36f15
		<tag k="name" v="Langloelva" />
		<tag k="ssr:stedsnr" v="557488" />
		<tag k="waterway" v="stream" />
	</node>
<<<<<<< HEAD
	<node lat="62.11329722234501" lon="7.337036113372795" id="-2832">
		<tag k="name" v="Fremste Vesteråsvatnet" />
		<tag k="natural" v="water" />
		<tag k="ssr:stedsnr" v="557064" />
		<tag k="water" v="lake" />
	</node>
	<node lat="62.20478055156718" lon="6.821108342462374" id="-2838">
		<tag k="name" v="Moldskreddøla" />
		<tag k="ssr:stedsnr" v="568147" />
		<tag k="waterway" v="river" />
	</node>
	<node lat="62.21719722142137" lon="6.897697223684503" id="-2844">
		<tag k="name" v="Emdalselva" />
		<tag k="ssr:stedsnr" v="576268" />
		<tag k="waterway" v="river" />
	</node>
	<node lat="62.08135278137731" lon="6.831205546971771" id="-2854">
		<tag k="name" v="Svoragrova" />
		<tag k="ssr:stedsnr" v="577620" />
		<tag k="waterway" v="stream" />
	</node>
	<node lat="62.12024999703493" lon="6.7355499976709705" id="-2855">
		<tag k="name" v="Litlevatnet" />
		<tag k="natural" v="water" />
		<tag k="ssr:stedsnr" v="577472" />
	</node>
	<node lat="62.228899999710265" lon="6.999252778519345" id="-2861">
		<tag k="name" v="Ytsteelva" />
		<tag k="ssr:stedsnr" v="577880" />
		<tag k="waterway" v="stream" />
	</node>
	<node lat="62.23894166292294" lon="7.00058610560742" id="-2862">
		<tag k="name" v="Veraflåna" />
		<tag k="ssr:stedsnr" v="577887" />
		<tag k="waterway" v="stream" />
	</node>
	<node lat="62.00903889055206" lon="7.046744441813442" id="-2882">
		<tag k="name" v="Nauteskreda" />
		<tag k="ssr:stedsnr" v="578898" />
		<tag k="waterway" v="stream" />
	</node>
	<node lat="62.0708083370604" lon="7.407058328922923" id="-2896">
		<tag k="name" v="Flatvatnet" />
		<tag k="natural" v="water" />
		<tag k="ssr:stedsnr" v="617125" />
		<tag k="water" v="lake" />
	</node>
	<node lat="62.19014999739049" lon="6.982511111798533" id="-2902">
		<tag k="name" v="Instevatnet" />
		<tag k="natural" v="water" />
		<tag k="ssr:stedsnr" v="617343" />
	</node>
	<node lat="62.064933334705046" lon="7.033827784115689" id="-2905">
		<tag k="name" v="Holtvatnet" />
		<tag k="natural" v="water" />
		<tag k="ssr:stedsnr" v="617449" />
	</node>
	<node lat="62.03477500376014" lon="7.002008328034864" id="-2906">
		<tag k="name" v="Bygdaelva" />
		<tag k="ssr:stedsnr" v="617451" />
		<tag k="waterway" v="river" />
	</node>
	<node lat="62.25126944806598" lon="6.97848610425643" id="-2912">
		<tag k="name" v="Vassetvatnet" />
		<tag k="natural" v="water" />
		<tag k="old_name" v="Vassevatnet" />
		<tag k="ssr:stedsnr" v="617924" />
	</node>
	<node lat="62.33505555810929" lon="6.845011117543552" id="-2916">
		<tag k="name" v="Kvanngrøvatnet" />
		<tag k="natural" v="water" />
		<tag k="ssr:stedsnr" v="618507" />
	</node>
	<node lat="62.09339166591059" lon="7.255202773044835" id="-2919">
		<tag k="name" v="Stillelva" />
		<tag k="natural" v="water" />
		<tag k="ssr:stedsnr" v="627879" />
		<tag k="water" v="lake" />
	</node>
	<node lat="62.10646944826684" lon="6.902825002460155" id="-2933">
		<tag k="name" v="Nyfonngrova" />
		<tag k="ssr:stedsnr" v="637070" />
		<tag k="waterway" v="stream" />
	</node>
	<node lat="62.05019999814987" lon="6.806211108179759" id="-2941">
		<tag k="name" v="Ormhauggrova" />
		<tag k="ssr:stedsnr" v="637795" />
		<tag k="waterway" v="stream" />
	</node>
	<node lat="62.262827776941776" lon="6.9738777773169165" id="-2946">
		<tag k="name" v="Damfarfossen" />
		<tag k="natural" v="waterfall" />
		<tag k="ssr:stedsnr" v="638850" />
	</node>
	<node lat="62.19854999582985" lon="7.044491661764296" id="-2949">
		<tag k="name" v="Sandskorgrova" />
		<tag k="ssr:stedsnr" v="638519" />
		<tag k="waterway" v="stream" />
	</node>
	<node lat="62.12384166258156" lon="7.154588897561451" id="-2952">
		<tag k="name" v="Kviturelva" />
		<tag k="ssr:stedsnr" v="638557" />
		<tag k="waterway" v="river" />
	</node>
	<node lat="62.01701388581764" lon="7.0270305606018475" id="-2957">
		<tag k="name" v="Kvernhusfossen" />
		<tag k="natural" v="waterfall" />
		<tag k="ssr:stedsnr" v="638966" />
	</node>
	<node lat="62.02027499787155" lon="7.0057222200677245" id="-2958">
		<tag k="name" v="Fedalselva" />
		<tag k="ssr:stedsnr" v="638971" />
		<tag k="waterway" v="river" />
	</node>
	<node lat="62.03765277455404" lon="6.948266658535084" id="-2963">
		<tag k="name" v="Fonngrova" />
		<tag k="ssr:stedsnr" v="639665" />
		<tag k="waterway" v="stream" />
	</node>
	<node lat="62.284230554315954" lon="6.881958323966901" id="-2993">
		<tag k="name" v="Fursetelva" />
		<tag k="ssr:stedsnr" v="739584" />
		<tag k="waterway" v="river" />
	</node>
	<node lat="62.02758055381665" lon="7.009580557699402" id="-3004">
		<tag k="name" v="Rustegrova" />
		<tag k="ssr:stedsnr" v="758655" />
		<tag k="waterway" v="stream" />
	</node>
	<node lat="62.31133611176841" lon="7.025627785695403" id="-3005">
		<tag k="name" v="Ansokgrova" />
		<tag k="ssr:stedsnr" v="758887" />
		<tag k="waterway" v="stream" />
	</node>
	<node lat="62.10575555186299" lon="6.897711112068385" id="-3007">
		<tag k="name" v="Harketeiggrova" />
		<tag k="ssr:stedsnr" v="759093" />
		<tag k="waterway" v="stream" />
	</node>
	<node lat="62.03057222432088" lon="6.94830834247671" id="-3013">
		<tag k="name" v="Røyssvorgrova" />
		<tag k="ssr:stedsnr" v="760662" />
		<tag k="waterway" v="stream" />
	</node>
	<node lat="62.26269444518398" lon="6.819455555895371" id="-3020">
		<tag k="name" v="Sætreelva" />
		<tag k="ssr:stedsnr" v="759968" />
		<tag k="waterway" v="stream" />
	</node>
	<node lat="62.16740277604656" lon="6.970200003502838" id="-3021">
		<tag k="name" v="Grasskreda" />
		<tag k="ssr:stedsnr" v="760069" />
		<tag k="waterway" v="stream" />
	</node>
	<node lat="62.13264722224412" lon="6.929913891532914" id="-3033">
		<tag k="name" v="Ljøvikelva" />
		<tag k="ssr:stedsnr" v="760819" />
		<tag k="waterway" v="stream" />
	</node>
	<node lat="62.120786111533484" lon="6.928175002573064" id="-3036">
		<tag k="name" v="Ljøfossen" />
		<tag k="natural" v="waterfall" />
		<tag k="ssr:stedsnr" v="760860" />
	</node>
	<node lat="62.05355277729739" lon="7.253883331199401" id="-3039">
		<tag k="name" v="Blåfjellelva" />
		<tag k="ssr:stedsnr" v="760985" />
		<tag k="waterway" v="river" />
	</node>
	<node lat="62.31594444237957" lon="6.937116657549831" id="-3045">
		<tag k="name" v="Løken" />
		<tag k="ssr:stedsnr" v="763779" />
		<tag k="waterway" v="stream" />
	</node>
	<node lat="62.146422220211875" lon="6.919905563694559" id="-3050">
		<tag k="name" v="Brekkevatnet" />
		<tag k="natural" v="water" />
		<tag k="ssr:stedsnr" v="779592" />
	</node>
	<node lat="62.14035833092616" lon="7.2965833406973015" id="-3058">
		<tag k="name" v="Skarevatnet" />
		<tag k="natural" v="water" />
		<tag k="ssr:stedsnr" v="800074" />
		<tag k="water" v="lake" />
	</node>
	<node lat="62.2631833316958" lon="6.825033337377206" id="-3064">
		<tag k="name" v="Heimsteelva" />
		<tag k="ssr:stedsnr" v="800562" />
		<tag k="waterway" v="stream" />
	</node>
	<node lat="62.096783330897196" lon="7.065380560312059" id="-3066">
		<tag k="name" v="Brudesløret" />
		<tag k="natural" v="waterfall" />
		<tag k="ssr:stedsnr" v="800411" />
	</node>
	<node lat="62.13983055575512" lon="6.91868889181559" id="-3072">
		<tag k="name" v="Kremmarvatnet" />
		<tag k="natural" v="water" />
		<tag k="ssr:stedsnr" v="811866" />
	</node>
	<node lat="62.1249527814571" lon="6.833008336117036" id="-3085">
		<tag k="name" v="Buskredelva" />
		<tag k="ssr:stedsnr" v="819735" />
		<tag k="waterway" v="river" />
	</node>
	<node lat="62.04181944391899" lon="6.941183324374397" id="-3104">
		<tag k="name" v="Børkjebekkgrova" />
		<tag k="ssr:stedsnr" v="821656" />
		<tag k="waterway" v="stream" />
	</node>
	<node lat="62.18758888703765" lon="6.921572226976582" id="-3108">
		<tag k="name" v="Kalvøya" />
		<tag k="place" v="island" />
		<tag k="ssr:stedsnr" v="821792" />
	</node>
	<node lat="62.03107222092523" lon="7.28804167119428" id="-3109">
		<tag k="name" v="Keisarneset" />
		<tag k="natural" v="cape" />
		<tag k="ssr:stedsnr" v="821795" />
	</node>
	<node lat="62.000775003511535" lon="7.038899993602815" id="-3115">
		<tag k="name" v="Røyrskreda" />
		<tag k="ssr:stedsnr" v="821959" />
		<tag k="waterway" v="stream" />
	</node>
	<node lat="62.32067500242931" lon="6.881850003029486" id="-3124">
		<tag k="name" v="Torsnikkgrova" />
		<tag k="ssr:stedsnr" v="824821" />
		<tag k="waterway" v="stream" />
	</node>
	<node lat="62.176294445331905" lon="6.8344749917746945" id="-3135">
		<tag k="name" v="Storvatnet" />
		<tag k="natural" v="water" />
		<tag k="ssr:stedsnr" v="860389" />
	</node>
	<node lat="62.13094444660899" lon="7.296769446441395" id="-3140">
		<tag k="name" v="Kaldhusbakkvatnet" />
		<tag k="natural" v="water" />
		<tag k="old_name" v="Inste Grjota;Grjota, inste" />
		<tag k="ssr:stedsnr" v="861089" />
	</node>
	<node lat="62.3139888860047" lon="6.877241669063153" id="-3143">
		<tag k="name" v="Ekregrova" />
		<tag k="ssr:stedsnr" v="861482" />
		<tag k="waterway" v="stream" />
	</node>
	<node lat="62.32015833024233" lon="7.065386117968841" id="-3146">
		<tag k="alt_name" v="Treåa" />
		<tag k="name" v="Tverråna" />
		<tag k="old_name" v="Tverråa" />
		<tag k="ssr:stedsnr" v="861488" />
		<tag k="waterway" v="stream" />
	</node>
	<node lat="62.02870278231068" lon="6.951825002130453" id="-3149">
		<tag k="fixme" v="multiple name tags, choose one and add the other to alt_name" />
		<tag k="name" v="Frøysadalselva;Vatnedalselva" />
		<tag k="ssr:stedsnr" v="861443" />
		<tag k="waterway" v="river" />
	</node>
	<node lat="62.20849444332333" lon="6.817838890329742" id="-3159">
		<tag k="name" v="Tverdalselva" />
		<tag k="ssr:stedsnr" v="880165" />
		<tag k="waterway" v="river" />
	</node>
	<node lat="62.29618611129692" lon="6.831599992418138" id="-3163">
		<tag k="name" v="Hevsdalsgrova" />
		<tag k="ssr:stedsnr" v="880379" />
		<tag k="waterway" v="stream" />
	</node>
	<node lat="62.041275002798415" lon="7.00425555747427" id="-3168">
		<tag k="name" v="Liagrova" />
		<tag k="ssr:stedsnr" v="880679" />
		<tag k="waterway" v="stream" />
	</node>
	<node lat="62.038486112382266" lon="6.966483325219518" id="-3184">
		<tag k="name" v="Danefossen" />
		<tag k="natural" v="waterfall" />
		<tag k="ssr:stedsnr" v="882574" />
	</node>
	<node lat="62.02731944070255" lon="7.0211694513640905" id="-3206">
		<tag k="name" v="Stigegrova" />
		<tag k="ssr:stedsnr" v="940613" />
		<tag k="waterway" v="stream" />
	</node>
	<node lat="62.31620833688819" lon="7.033191657566247" id="-3208">
		<tag k="name" v="Olagrova" />
		<tag k="ssr:stedsnr" v="940899" />
		<tag k="waterway" v="stream" />
	</node>
	<node lat="62.303305552313965" lon="7.08777222770862" id="-3218">
		<tag k="name" v="Kvennagrova" />
		<tag k="ssr:stedsnr" v="941451" />
		<tag k="waterway" v="stream" />
	</node>
	<node lat="62.073497225094485" lon="6.815336105023871" id="-3220">
		<tag k="name" v="Storegrova" />
		<tag k="ssr:stedsnr" v="941581" />
		<tag k="waterway" v="stream" />
	</node>
	<node lat="62.317744442937325" lon="7.048091667186801" id="-3223">
		<tag k="name" v="Ringsetgrova" />
		<tag k="ssr:stedsnr" v="941990" />
		<tag k="waterway" v="stream" />
	</node>
	<node lat="62.182438885091955" lon="7.010747225371986" id="-3224">
		<tag k="name" v="Heimstestreket" />
		<tag k="ssr:stedsnr" v="942695" />
		<tag k="waterway" v="stream" />
	</node>
	<node lat="62.052672221164784" lon="6.737350000936004" id="-3236">
		<tag k="name" v="Tverrelva" />
		<tag k="ssr:stedsnr" v="942519" />
		<tag k="waterway" v="river" />
	</node>
	<node lat="62.072141664486814" lon="6.923699994117195" id="-3239">
		<tag k="name" v="Bygdaelva" />
		<tag k="ssr:stedsnr" v="942603" />
		<tag k="waterway" v="river" />
	</node>
	<node lat="62.10121110829334" lon="6.77778888752841" id="-3246">
		<tag k="name" v="Breifossen" />
		<tag k="natural" v="waterfall" />
		<tag k="ssr:stedsnr" v="942854" />
	</node>
	<node lat="62.2255361155414" lon="6.998897228378257" id="-3247">
		<tag k="name" v="Insteelva" />
		<tag k="ssr:stedsnr" v="942857" />
		<tag k="waterway" v="stream" />
	</node>
	<node lat="62.16666389188047" lon="6.928611114725523" id="-3262">
		<tag k="name" v="Urløken" />
		<tag k="ssr:stedsnr" v="943190" />
		<tag k="waterway" v="stream" />
	</node>
	<node lat="62.10785555603056" lon="7.245899999439056" id="-3270">
		<tag k="name" v="Vesteråselva" />
		<tag k="ssr:stedsnr" v="945450" />
		<tag k="waterway" v="stream" />
	</node>
	<node lat="62.002469444242124" lon="6.789519440903392" id="-3272">
		<tag k="name" v="Bergekroken" />
		<tag k="natural" v="cape" />
		<tag k="ssr:stedsnr" v="956033" />
	</node>
	<node lat="61.99186666239274" lon="6.807449995096061" id="-3273">
		<tag k="name" v="Storekroken" />
		<tag k="natural" v="cape" />
		<tag k="ssr:stedsnr" v="956038" />
	</node>
	<node lat="62.14762432735869" lon="7.215069469017981" id="-3289">
		<tag k="name" v="Grandevasselva" />
		<tag k="ssr:stedsnr" v="986552" />
		<tag k="waterway" v="stream" />
	</node>
	<node lat="62.137933556712724" lon="7.201127692319551" id="-3290">
		<tag k="name" v="Gråsteindalselva" />
		<tag k="ssr:stedsnr" v="986555" />
		<tag k="waterway" v="river" />
=======
	<node id="-68212" lat="62.142258331" lon="7.08140832589">
		<tag k="name" v="Storvatnet" />
		<tag k="natural" v="water" />
		<tag k="ssr:stedsnr" v="557351" />
	</node>
	<node id="-66750" lat="62.0717916695" lon="7.33109444771">
		<tag k="name" v="Bjørnstigtjønna" />
		<tag k="natural" v="water" />
		<tag k="ssr:stedsnr" v="445890" />
	</node>
	<node id="-66674" lat="62.0555527814" lon="6.93175556037">
		<tag k="name" v="Haugedalselva" />
		<tag k="ssr:stedsnr" v="275285" />
		<tag k="waterway" v="river" />
	</node>
	<node id="-68207" lat="62.094163888" lon="6.82759166666">
		<tag k="name" v="Fannåa" />
		<tag k="ssr:stedsnr" v="556441" />
		<tag k="waterway" v="stream" />
	</node>
	<node id="-67181" lat="62.0142055567" lon="6.75709444398">
		<tag k="name" v="Teigøyna" />
		<tag k="place" v="island" />
		<tag k="ssr:stedsnr" v="638716" />
	</node>
	<node id="-67180" lat="62.0105611092" lon="6.7622611104">
		<tag k="name" v="Storetjørna" />
		<tag k="natural" v="water" />
		<tag k="ssr:stedsnr" v="638710" />
	</node>
	<node id="-67691" lat="62.0640999986" lon="7.28941666944">
		<tag k="name" v="Heimstevatnet" />
		<tag k="natural" v="water" />
		<tag k="ssr:stedsnr" v="81858" />
		<tag k="water" v="lake" />
	</node>
	<node id="-66938" lat="62.1071222264" lon="7.09419165782">
		<tag k="fixme" v="multiple name tags, choose one and add the other to alt_name" />
		<tag k="name" v="Dei sju systrene;Knivsflåelvane" />
		<tag k="natural" v="waterfall" />
		<tag k="ssr:stedsnr" v="374408" />
	</node>
	<node id="-66664" lat="62.2873277747" lon="7.00013610947">
		<tag k="name" v="Kjeskorå" />
		<tag k="ssr:stedsnr" v="274929" />
		<tag k="waterway" v="river" />
	</node>
	<node id="-66833" lat="62.3078361145" lon="7.08919999852">
		<tag k="name" v="Ytstegrova" />
		<tag k="ssr:stedsnr" v="273166" />
		<tag k="waterway" v="stream" />
	</node>
	<node id="-67504" lat="62.1187138933" lon="7.31210277781">
		<tag k="name" v="Heimste Vesteråsvatnet" />
		<tag k="natural" v="water" />
		<tag k="ssr:stedsnr" v="861068" />
		<tag k="water" v="lake" />
	</node>
	<node id="-67170" lat="62.1064694483" lon="6.90282500246">
		<tag k="name" v="Nyfonngrova" />
		<tag k="ssr:stedsnr" v="637070" />
		<tag k="waterway" v="stream" />
	</node>
	<node id="-67841" lat="62.0939916643" lon="6.7767361024">
		<tag k="name" v="Lomvatnet" />
		<tag k="natural" v="water" />
		<tag k="ssr:stedsnr" v="153851" />
	</node>
	<node id="-66947" lat="62.347502777" lon="6.84403889082">
		<tag k="name" v="Stigelivatnet" />
		<tag k="natural" v="water" />
		<tag k="old_name" v="Stiglivatnet" />
		<tag k="ssr:stedsnr" v="375517" />
	</node>
	<node id="-66805" lat="62.127613885" lon="7.11752222767">
		<tag k="name" v="Bringeelva" />
		<tag k="ssr:stedsnr" v="457594" />
		<tag k="waterway" v="river" />
	</node>
	<node id="-66654" lat="62.071227777" lon="6.79882778649">
		<tag k="name" v="Gjurasåen" />
		<tag k="ssr:stedsnr" v="274578" />
		<tag k="waterway" v="stream" />
	</node>
	<node id="-66665" lat="62.1678777788" lon="6.97979167209">
		<tag k="name" v="Reitgjølå" />
		<tag k="ssr:stedsnr" v="275085" />
		<tag k="waterway" v="stream" />
	</node>
	<node id="-68188" lat="62.2827861128" lon="6.94473611105">
		<tag k="name" v="Skorbøelva" />
		<tag k="ssr:stedsnr" v="436569" />
		<tag k="waterway" v="stream" />
	</node>
	<node id="-67675" lat="62.2486750042" lon="6.97912221871">
		<tag k="name" v="Vassetvatnet" />
		<tag k="natural" v="water" />
		<tag k="ssr:stedsnr" v="72254" />
	</node>
	<node id="-66648" lat="62.2373083374" lon="6.87760000271">
		<tag k="name" v="Tverråna" />
		<tag k="ssr:stedsnr" v="274392" />
		<tag k="waterway" v="stream" />
	</node>
	<node id="-68180" lat="62.1479611068" lon="7.00766111373">
		<tag k="name" v="Furneselva" />
		<tag k="ssr:stedsnr" v="436320" />
		<tag k="waterway" v="stream" />
	</node>
	<node id="-67666" lat="62.1709111097" lon="6.90304999993">
		<tag k="name" v="Litlevatnet" />
		<tag k="natural" v="water" />
		<tag k="ssr:stedsnr" v="71359" />
	</node>
	<node id="-66549" lat="62.1315777737" lon="6.83568888047">
		<tag k="name" v="Litledalselva" />
		<tag k="ssr:stedsnr" v="30736" />
		<tag k="waterway" v="river" />
	</node>
	<node id="-67662" lat="62.0895333353" lon="7.36311667022">
		<tag k="name" v="Djupdalseggvatnet" />
		<tag k="natural" v="water" />
		<tag k="ssr:stedsnr" v="71137" />
	</node>
	<node id="-67341" lat="62.1207861115" lon="6.92817500257">
		<tag k="name" v="Ljøfossen" />
		<tag k="natural" v="waterfall" />
		<tag k="ssr:stedsnr" v="760860" />
	</node>
	<node id="-67659" lat="61.986252781" lon="7.03934722612">
		<tag k="name" v="Stigholvatnet" />
		<tag k="natural" v="water" />
		<tag k="ssr:stedsnr" v="70376" />
		<tag k="water" v="lake" />
	</node>
	<node id="-66530" lat="62.1559249994" lon="6.82429999976">
		<tag k="fixme" v="multiple name tags, choose one and add the other to alt_name" />
		<tag k="name" v="Sunnylvsvatnet;Vatnedalsvatnet" />
		<tag k="natural" v="water" />
		<tag k="ssr:stedsnr" v="11321" />
	</node>
	<node id="-67340" lat="62.0305722243" lon="6.94830834248">
		<tag k="name" v="Røyssvorgrova" />
		<tag k="ssr:stedsnr" v="760662" />
		<tag k="waterway" v="stream" />
	</node>
	<node id="-67654" lat="61.9932527801" lon="6.81631666731">
		<tag k="name" v="Sætrefossen" />
		<tag k="natural" v="waterfall" />
		<tag k="ssr:stedsnr" v="46026" />
	</node>
	<node id="-67651" lat="62.0758083369" lon="6.89665278251">
		<tag k="name" v="Steimshølen" />
		<tag k="place" v="locality" />
		<tag k="ssr:stedsnr" v="35986" />
	</node>
	<node id="-66912" lat="62.1048777789" lon="7.23074166643">
		<tag k="name" v="Storsæterfossen" />
		<tag k="natural" v="waterfall" />
		<tag k="ssr:stedsnr" v="496070" />
	</node>
	<node id="-67134" lat="62.2171972214" lon="6.89769722368">
		<tag k="name" v="Emdalselva" />
		<tag k="ssr:stedsnr" v="576268" />
		<tag k="waterway" v="river" />
	</node>
	<node id="-68157" lat="62.0787305599" lon="6.88270834042">
		<tag k="name" v="Fløtehølen" />
		<tag k="place" v="locality" />
		<tag k="ssr:stedsnr" v="398731" />
	</node>
	<node id="-67644" lat="62.2834777742" lon="6.88813056426">
		<tag k="name" v="Storreitkvisla" />
		<tag k="natural" v="water" />
		<tag k="ssr:stedsnr" v="35795" />
		<tag k="water" v="lake" />
	</node>
	<node id="-67679" lat="62.0536916691" lon="6.73993610809">
		<tag k="name" v="Tverrelva" />
		<tag k="ssr:stedsnr" v="72397" />
		<tag k="waterway" v="stream" />
	</node>
	<node id="-68151" lat="62.2309222191" lon="6.78578888783">
		<tag k="name" v="Leirvasselva" />
		<tag k="ssr:stedsnr" v="396967" />
		<tag k="waterway" v="river" />
	</node>
	<node id="-67638" lat="62.0576111149" lon="6.70883611485">
		<tag k="name" v="Kinnarskreda" />
		<tag k="ssr:stedsnr" v="32954" />
		<tag k="waterway" v="stream" />
	</node>
	<node id="-67636" lat="62.044474997" lon="7.03669721874">
		<tag k="name" v="Litlesætergrova" />
		<tag k="ssr:stedsnr" v="32887" />
		<tag k="waterway" v="stream" />
	</node>
	<node id="-66995" lat="62.2066333352" lon="6.92989722049">
		<tag k="name" v="Overvollelva" />
		<tag k="ssr:stedsnr" v="517796" />
		<tag k="waterway" v="stream" />
	</node>
	<node id="-67120" lat="62.2989111153" lon="6.78847499619">
		<tag k="name" v="Langevatnet" />
		<tag k="natural" v="water" />
		<tag k="ssr:stedsnr" v="557564" />
	</node>
	<node id="-66607" lat="62.2684972199" lon="6.76110833027">
		<tag k="name" v="Tindeskardvatnet" />
		<tag k="natural" v="water" />
		<tag k="ssr:stedsnr" v="254544" />
	</node>
	<node id="-68142" lat="62.1008333308" lon="6.92493889535">
		<tag k="name" v="Sælebotsgrova" />
		<tag k="ssr:stedsnr" v="396739" />
		<tag k="waterway" v="stream" />
	</node>
	<node id="-67117" lat="62.131738893" lon="7.02439444761">
		<tag k="name" v="Furnesvatnet" />
		<tag k="natural" v="water" />
		<tag k="ssr:stedsnr" v="557361" />
	</node>
	<node id="-67628" lat="62.1319361084" lon="6.98138056419">
		<tag k="name" v="Halvrogrova" />
		<tag k="ssr:stedsnr" v="32805" />
		<tag k="waterway" v="stream" />
	</node>
	<node id="-68139" lat="62.0237333305" lon="6.74684722466">
		<tag k="name" v="Kvernafossen" />
		<tag k="natural" v="waterfall" />
		<tag k="ssr:stedsnr" v="396447" />
	</node>
	<node id="-68138" lat="62.0331166636" lon="6.75938333378">
		<tag k="name" v="Longøyna" />
		<tag k="natural" v="cape" />
		<tag k="ssr:stedsnr" v="396347" />
	</node>
	<node id="-67113" lat="62.1132972223" lon="7.33703611337">
		<tag k="name" v="Fremste Vesteråsvatnet" />
		<tag k="natural" v="water" />
		<tag k="ssr:stedsnr" v="557064" />
		<tag k="water" v="lake" />
	</node>
	<node id="-67112" lat="62.2589083296" lon="6.86137500029">
		<tag k="name" v="Tverråna" />
		<tag k="old_name" v="Tverråa" />
		<tag k="ssr:stedsnr" v="556915" />
		<tag k="waterway" v="stream" />
	</node>
	<node id="-67623" lat="62.0209888863" lon="6.74796666895">
		<tag k="name" v="Pekvernfossen" />
		<tag k="natural" v="waterfall" />
		<tag k="ssr:stedsnr" v="32671" />
	</node>
	<node id="-66598" lat="62.2320777753" lon="6.78085555419">
		<tag k="name" v="Engsetelva" />
		<tag k="ssr:stedsnr" v="253597" />
		<tag k="waterway" v="river" />
	</node>
	<node id="-66596" lat="62.0058500012" lon="6.99643610334">
		<tag k="name" v="Storvatnet" />
		<tag k="natural" v="water" />
		<tag k="ssr:stedsnr" v="253532" />
	</node>
	<node id="-67916" lat="62.1005972221" lon="6.87978055141">
		<tag k="name" v="Ospaflågjølet" />
		<tag k="ssr:stedsnr" v="213122" />
		<tag k="waterway" v="stream" />
	</node>
	<node id="-68130" lat="62.069258332" lon="6.92989167238">
		<tag k="name" v="Fossane" />
		<tag k="natural" v="waterfall" />
		<tag k="ssr:stedsnr" v="396249" />
	</node>
	<node id="-67163" lat="62.2523111122" lon="6.80456667058">
		<tag k="name" v="Tverråna" />
		<tag k="old_name" v="Tverråa" />
		<tag k="ssr:stedsnr" v="618625" />
		<tag k="waterway" v="stream" />
	</node>
	<node id="-68589" lat="62.0418083371" lon="7.1197972237">
		<tag k="name" v="Holedalsvatnet" />
		<tag k="natural" v="water" />
		<tag k="ssr:stedsnr" v="861427" />
		<tag k="water" v="lake" />
	</node>
	<node id="-67615" lat="62.1589083323" lon="7.04776389734">
		<tag k="name" v="Slettebakkelva" />
		<tag k="ssr:stedsnr" v="32337" />
		<tag k="waterway" v="river" />
	</node>
	<node id="-66589" lat="62.1010555597" lon="7.11329443838">
		<tag k="fixme" v="multiple name tags, choose one and add the other to alt_name" />
		<tag k="name" v="Friaren;Geitfossen;Skageflåfossen" />
		<tag k="natural" v="waterfall" />
		<tag k="ssr:stedsnr" v="253456" />
	</node>
	<node id="-67610" lat="62.0638250033" lon="6.92943055841">
		<tag k="name" v="Myrstihola" />
		<tag k="natural" v="water" />
		<tag k="ssr:stedsnr" v="32256" />
		<tag k="water" v="pond" />
	</node>
	<node id="-67778" lat="62.1827250008" lon="6.87050556021">
		<tag k="name" v="Instevatnet" />
		<tag k="natural" v="water" />
		<tag k="ssr:stedsnr" v="132287" />
	</node>
	<node id="-66564" lat="62.0342861117" lon="7.01317222384">
		<tag k="name" v="Holedalselva" />
		<tag k="ssr:stedsnr" v="72419" />
		<tag k="waterway" v="stream" />
	</node>
	<node id="-66582" lat="62.169763887" lon="6.92444722238">
		<tag k="name" v="Heimste Herdalsvatnet" />
		<tag k="natural" v="water" />
		<tag k="ssr:stedsnr" v="253382" />
	</node>
	<node id="-67605" lat="62.1739361091" lon="6.99266389488">
		<tag k="name" v="Flosteinfonna" />
		<tag k="ssr:stedsnr" v="32083" />
		<tag k="waterway" v="stream" />
	</node>
	<node id="-67092" lat="62.0154166653" lon="6.75513611058">
		<tag k="name" v="Longøyna" />
		<tag k="place" v="island" />
		<tag k="ssr:stedsnr" v="699673" />
	</node>
	<node id="-67502" lat="62.2599305595" lon="6.96253055247">
		<tag k="name" v="Damfargrova" />
		<tag k="ssr:stedsnr" v="860919" />
		<tag k="waterway" v="stream" />
	</node>
	<node id="-67601" lat="62.2436027758" lon="6.79386667283">
		<tag k="name" v="Åndalsåa" />
		<tag k="ssr:stedsnr" v="31744" />
		<tag k="waterway" v="stream" />
	</node>
	<node id="-67086" lat="62.0736000029" lon="7.21051944113">
		<tag k="name" v="Tverrheiane" />
		<tag k="natural" v="cape" />
		<tag k="ssr:stedsnr" v="699230" />
	</node>
	<node id="-66567" lat="62.0345999961" lon="6.90251388803">
		<tag k="name" v="Haugedalsvatnet" />
		<tag k="natural" v="water" />
		<tag k="ssr:stedsnr" v="72436" />
	</node>
	<node id="-68614" lat="62.1589987623" lon="7.19621325406">
		<tag k="name" v="Nedste Hesjedalsvatnet" />
		<tag k="natural" v="water" />
		<tag k="ssr:stedsnr" v="986460" />
	</node>
	<node id="-68613" lat="62.1560502487" lon="7.19403336288">
		<tag k="name" v="Øvste Hesjedalsvatnet" />
		<tag k="natural" v="water" />
		<tag k="ssr:stedsnr" v="986459" />
	</node>
	<node id="-67076" lat="62.0309027812" lon="7.31097500728">
		<tag k="name" v="Hestholmen" />
		<tag k="place" v="islet" />
		<tag k="ssr:stedsnr" v="517808" />
	</node>
	<node id="-67499" lat="62.0054805529" lon="7.0424111079">
		<tag k="name" v="Nedstevatnet" />
		<tag k="natural" v="water" />
		<tag k="ssr:stedsnr" v="860529" />
		<tag k="water" v="lake" />
>>>>>>> e1d4bc35ff8a6074a6f2e91616a996b547c36f15
	</node>
</osm>
