<?xml version="1.0" encoding="UTF-8"?>
<<<<<<< HEAD
<osm version="0.6" generator="osmapis">
	<node lat="62.210183329801204" lon="7.036491661485084" id="-1190">
		<tag k="name" v="Løneset" />
		<tag k="natural" v="cape" />
		<tag k="ssr:stedsnr" v="32384" />
	</node>
	<node lat="62.105713890560054" lon="6.934808342468382" id="-1214">
		<tag k="alt_name" v="Nokkeneset" />
		<tag k="name" v="Nakkeneset" />
		<tag k="natural" v="cape" />
		<tag k="ssr:stedsnr" v="71435" />
	</node>
	<node lat="62.104869445692316" lon="6.934458330531146" id="-1215">
		<tag k="name" v="Rinden" />
		<tag k="natural" v="cape" />
		<tag k="ssr:stedsnr" v="71436" />
	</node>
	<node lat="62.09470833591311" lon="7.030583330443653" id="-1218">
		<tag k="name" v="Stekkane" />
		<tag k="natural" v="cape" />
		<tag k="ssr:stedsnr" v="71448" />
	</node>
	<node lat="62.087397221293536" lon="6.8920555561260635" id="-1234">
		<tag k="name" v="Juvika" />
		<tag k="natural" v="bay" />
		<tag k="ssr:stedsnr" v="92618" />
	</node>
	<node lat="62.28320555971667" lon="7.007422216580254" id="-1241">
		<tag k="name" v="Hampetjønn-neset" />
		<tag k="natural" v="cape" />
		<tag k="ssr:stedsnr" v="92966" />
	</node>
	<node lat="62.12906110878005" lon="6.935275009146844" id="-1253">
		<tag k="name" v="Ljøvikhammaren" />
		<tag k="natural" v="cape" />
		<tag k="ssr:stedsnr" v="93766" />
	</node>
	<node lat="62.11707304041743" lon="7.179462415455177" id="-1259">
		<tag k="name" v="Nesevika" />
		<tag k="natural" v="bay" />
		<tag k="ssr:stedsnr" v="96810" />
	</node>
	<node lat="62.09421110706727" lon="6.9062388983576755" id="-1280">
		<tag k="name" v="Kjeskorneset" />
		<tag k="natural" v="cape" />
		<tag k="ssr:stedsnr" v="253448" />
	</node>
	<node lat="62.10152778100588" lon="6.9251861110752495" id="-1282">
		<tag k="name" v="Jogardsstranda" />
		<tag k="natural" v="beach" />
		<tag k="ssr:stedsnr" v="253454" />
	</node>
	<node lat="62.306872222530515" lon="6.9540500000820265" id="-1300">
		<tag k="name" v="Oshammaren" />
		<tag k="natural" v="cape" />
		<tag k="ssr:stedsnr" v="254597" />
	</node>
	<node lat="62.297425001228014" lon="7.122844442212726" id="-1305">
		<tag k="alt_name" v="Fagrevikane" />
		<tag k="name" v="Fagervika" />
		<tag k="natural" v="bay" />
		<tag k="ssr:stedsnr" v="151174" />
	</node>
	<node lat="62.09561110697285" lon="6.880658326753049" id="-1306">
		<tag k="name" v="Hatlevika" />
		<tag k="natural" v="bay" />
		<tag k="ssr:stedsnr" v="152115" />
	</node>
	<node lat="62.10460555628248" lon="6.901011107102695" id="-1340">
=======
<osm generator="osmapis" version="0.6">
	<node id="-66557" lat="62.1057138906" lon="6.93480834247">
		<tag k="alt_name" v="Nokkeneset" />
		<tag k="name" v="Nakkeneset" />
		<tag k="natural" v="cape" />
		<tag k="ssr:stedsnr" v="71435" />
	</node>
	<node id="-67066" lat="62.3418083311" lon="6.91812222737">
		<tag k="alt_name" v="Bødalevika" />
		<tag k="fixme" v="multiple name tags, choose one and add the other to alt_name" />
		<tag k="name" v="Olavika;Bødaolsvika" />
		<tag k="natural" v="bay" />
		<tag k="old_name" v="Bødaolevika" />
		<tag k="ssr:stedsnr" v="497519" />
	</node>
	<node id="-66552" lat="62.1779305539" lon="7.04049721972">
		<tag k="name" v="Juvika" />
		<tag k="natural" v="bay" />
		<tag k="ssr:stedsnr" v="32225" />
	</node>
	<node id="-68086" lat="62.3106027743" lon="6.99943056299">
		<tag k="name" v="Gravavika" />
		<tag k="natural" v="bay" />
		<tag k="ssr:stedsnr" v="375590" />
	</node>
	<node id="-68594" lat="62.2919194416" lon="6.96548055928">
		<tag k="name" v="Helsemvika" />
		<tag k="natural" v="bay" />
		<tag k="ssr:stedsnr" v="861548" />
	</node>
	<node id="-67051" lat="62.3132694466" lon="6.98752222102">
		<tag k="name" v="Flatneset" />
		<tag k="natural" v="cape" />
		<tag k="ssr:stedsnr" v="678620" />
	</node>
	<node id="-66533" lat="62.1300833342" lon="6.97553610731">
		<tag k="name" v="Nesvikane" />
		<tag k="natural" v="bay" />
		<tag k="ssr:stedsnr" v="11347" />
	</node>
	<node id="-67548" lat="62.1119250008" lon="7.16413888211">
		<tag k="name" v="Skagevika" />
		<tag k="natural" v="bay" />
		<tag k="ssr:stedsnr" v="10369" />
	</node>
	<node id="-68059" lat="62.0968583303" lon="7.09894999396">
		<tag k="name" v="Gjerkland" />
		<tag k="natural" v="cape" />
		<tag k="ssr:stedsnr" v="374420" />
	</node>
	<node id="-68570" lat="62.1953932689" lon="7.03826816706">
		<tag k="name" v="Vindsneset" />
		<tag k="natural" v="cape" />
		<tag k="ssr:stedsnr" v="860383" />
	</node>
	<node id="-66521" lat="62.1055333367" lon="7.18201389777">
		<tag k="name" v="Homlongsvika" />
		<tag k="natural" v="bay" />
		<tag k="ssr:stedsnr" v="217995" />
	</node>
	<node id="-67032" lat="62.3085862811" lon="7.00513738435">
		<tag k="name" v="Gravaneset" />
		<tag k="natural" v="cape" />
		<tag k="ssr:stedsnr" v="447921" />
	</node>
	<node id="-68054" lat="62.1158888856" lon="6.96158055498">
		<tag k="name" v="Lundaneset" />
		<tag k="natural" v="cape" />
		<tag k="ssr:stedsnr" v="374381" />
	</node>
	<node id="-67026" lat="62.09474722" lon="6.98739166667">
		<tag k="name" v="Furlotneset" />
		<tag k="natural" v="cape" />
		<tag k="ssr:stedsnr" v="518819" />
	</node>
	<node id="-67537" lat="62.2644638872" lon="6.99765833728">
		<tag k="name" v="Li" />
		<tag k="natural" v="bay" />
		<tag k="ssr:stedsnr" v="946811" />
	</node>
	<node id="-66510" lat="62.1229194407" lon="7.15868334246">
		<tag k="name" v="Hyskjevika" />
		<tag k="natural" v="bay" />
		<tag k="ssr:stedsnr" v="217759" />
	</node>
	<node id="-67917" lat="62.1046055563" lon="6.9010111071">
>>>>>>> e1d4bc35ff8a6074a6f2e91616a996b547c36f15
		<tag k="fixme" v="consider seamark:type=rock or natural=shoal" />
		<tag k="name" v="Halvroddsteinen" />
		<tag k="place" v="islet" />
		<tag k="ssr:stedsnr" v="213086" />
	</node>
<<<<<<< HEAD
	<node lat="62.286208330595706" lon="6.979074997111739" id="-1341">
		<tag k="name" v="Uksvikbugen" />
		<tag k="natural" v="bay" />
		<tag k="ssr:stedsnr" v="213402" />
	</node>
	<node lat="62.1223194475453" lon="7.117452778303615" id="-1354">
		<tag k="name" v="Slentreholet" />
=======
	<node id="-68043" lat="62.0865805528" lon="6.8706527718">
		<tag k="name" v="Hellesyltneset" />
		<tag k="natural" v="cape" />
		<tag k="ssr:stedsnr" v="338726" />
	</node>
	<node id="-68038" lat="62.1116444476" lon="6.91375556074">
		<tag k="name" v="Fossekråa" />
		<tag k="natural" v="bay" />
		<tag k="ssr:stedsnr" v="336763" />
	</node>
	<node id="-67006" lat="62.102680552" lon="7.00670832788">
		<tag k="name" v="Korsflåvika" />
		<tag k="natural" v="bay" />
		<tag k="ssr:stedsnr" v="518218" />
	</node>
	<node id="-68229" lat="62.3085999957" lon="7.04341389378">
		<tag k="name" v="Langhammarvika" />
		<tag k="natural" v="bay" />
		<tag k="ssr:stedsnr" v="576954" />
	</node>
	<node id="-68536" lat="62.2223388898" lon="7.00510555942">
		<tag k="name" v="Gryddevikneset" />
		<tag k="natural" v="cape" />
		<tag k="ssr:stedsnr" v="820474" />
	</node>
	<node id="-68023" lat="62.3300944454" lon="6.91785277935">
		<tag k="name" v="Bjørnasprangneset" />
		<tag k="natural" v="cape" />
		<tag k="ssr:stedsnr" v="335394" />
	</node>
	<node id="-68534" lat="62.2840361097" lon="7.00694166479">
		<tag k="name" v="Uksagneset" />
		<tag k="natural" v="cape" />
		<tag k="ssr:stedsnr" v="820426" />
	</node>
	<node id="-68019" lat="62.2419698912" lon="7.0081708868">
		<tag k="name" v="Dukeneset" />
		<tag k="natural" v="cape" />
		<tag k="ssr:stedsnr" v="335478" />
	</node>
	<node id="-68018" lat="62.2870499993" lon="7.00495000594">
		<tag k="name" v="Uksneset" />
		<tag k="natural" v="cape" />
		<tag k="ssr:stedsnr" v="335247" />
	</node>
	<node id="-66992" lat="62.104419445" lon="6.98141111277">
		<tag k="bay" v="fjord" />
		<tag k="name" v="Korsfjorden" />
		<tag k="natural" v="bay" />
		<tag k="ssr:stedsnr" v="517613" />
	</node>
	<node id="-66990" lat="62.109053015" lon="7.1936126134">
		<tag k="name" v="Lausneset" />
		<tag k="natural" v="cape" />
		<tag k="ssr:stedsnr" v="517560" />
	</node>
	<node id="-67495" lat="62.2177638866" lon="7.00483056447">
		<tag k="name" v="Gryddevikane" />
		<tag k="natural" v="bay" />
		<tag k="ssr:stedsnr" v="860355" />
	</node>
	<node id="-67492" lat="62.1042777777" lon="6.95305834073">
		<tag k="name" v="Rindane" />
		<tag k="natural" v="beach" />
		<tag k="place" v="locality" />
		<tag k="ssr:stedsnr" v="943834" />
	</node>
	<node id="-67490" lat="62.1104333349" lon="6.98586111783">
		<tag k="name" v="Årevika" />
		<tag k="natural" v="bay" />
		<tag k="ssr:stedsnr" v="943805" />
	</node>
	<node id="-67488" lat="62.1174749966" lon="6.96323611758">
		<tag k="name" v="Storevika" />
		<tag k="natural" v="bay" />
		<tag k="ssr:stedsnr" v="943793" />
	</node>
	<node id="-68507" lat="62.1446944484" lon="6.99242499107">
		<tag k="fixme" v="multiple name tags, choose one and add the other to alt_name" />
		<tag k="name" v="Furnesnobba;Nobba" />
		<tag k="natural" v="cape" />
		<tag k="ssr:stedsnr" v="800335" />
	</node>
	<node id="-67481" lat="62.286363891" lon="6.991280563">
		<tag k="name" v="Seisteinneset" />
		<tag k="natural" v="cape" />
		<tag k="ssr:stedsnr" v="942935" />
	</node>
	<node id="-67991" lat="62.2951444473" lon="7.09074999519">
		<tag k="name" v="Ovråneset" />
		<tag k="natural" v="cape" />
		<tag k="ssr:stedsnr" v="315554" />
	</node>
	<node id="-66963" lat="62.3179694483" lon="6.93509721856">
		<tag k="name" v="Bukkeneset" />
		<tag k="natural" v="cape" />
		<tag k="ssr:stedsnr" v="395416" />
	</node>
	<node id="-66962" lat="62.3136777811" lon="6.94486666394">
		<tag k="name" v="Saltspanneset" />
		<tag k="natural" v="cape" />
		<tag k="ssr:stedsnr" v="395415" />
	</node>
	<node id="-67978" lat="62.1667333295" lon="7.03433056249">
		<tag k="name" v="Stokkevika" />
		<tag k="natural" v="bay" />
		<tag k="ssr:stedsnr" v="314372" />
	</node>
	<node id="-66952" lat="62.2778972249" lon="7.22338333601">
		<tag k="bay" v="fjord" />
		<tag k="name" v="Norddalsfjorden" />
		<tag k="natural" v="bay" />
		<tag k="ssr:stedsnr" v="375611" />
	</node>
	<node id="-67463" lat="62.1444777753" lon="6.99196389543">
		<tag k="name" v="Furneset" />
		<tag k="natural" v="cape" />
		<tag k="ssr:stedsnr" v="942594" />
	</node>
	<node id="-67973" lat="62.0874422517" lon="6.88179554403">
		<tag k="name" v="Åseneset" />
		<tag k="natural" v="cape" />
		<tag k="ssr:stedsnr" v="314447" />
	</node>
	<node id="-67971" lat="62.0985416681" lon="6.88862777947">
		<tag k="name" v="Andalkroken" />
		<tag k="natural" v="cape" />
		<tag k="ssr:stedsnr" v="314437" />
	</node>
	<node id="-67455" lat="62.2948555592" lon="6.96414444628">
		<tag k="name" v="Helsemklubben" />
		<tag k="natural" v="cape" />
		<tag k="ssr:stedsnr" v="942388" />
	</node>
	<node id="-68457" lat="62.2749222221" lon="7.00201943945">
		<tag k="name" v="Litleheineset" />
		<tag k="natural" v="cape" />
		<tag k="ssr:stedsnr" v="760900" />
	</node>
	<node id="-67944" lat="62.0941499969" lon="6.98792777355">
		<tag k="name" v="Furlotvika" />
		<tag k="natural" v="bay" />
		<tag k="ssr:stedsnr" v="214848" />
	</node>
	<node id="-67940" lat="62.1205805587" lon="7.11490277799">
		<tag k="name" v="Bringeneset" />
		<tag k="natural" v="cape" />
		<tag k="ssr:stedsnr" v="214632" />
	</node>
	<node id="-67939" lat="62.1223194475" lon="7.1174527783">
		<tag k="name" v="Slentreholet" />
		<tag k="natural" v="bay" />
		<tag k="ssr:stedsnr" v="214631" />
	</node>
	<node id="-68447" lat="62.1902861093" lon="7.04089722104">
		<tag k="name" v="Smalneset" />
		<tag k="natural" v="cape" />
		<tag k="ssr:stedsnr" v="760271" />
	</node>
	<node id="-67045" lat="62.2078972228" lon="7.03644167619">
		<tag k="alt_name" v="Isflåneset" />
		<tag k="name" v="Skjeret" />
		<tag k="natural" v="cape" />
		<tag k="ssr:stedsnr" v="678317" />
	</node>
	<node id="-67417" lat="62.2818111072" lon="7.00662778751">
		<tag k="name" v="Seihammaren" />
		<tag k="natural" v="cape" />
		<tag k="ssr:stedsnr" v="821967" />
	</node>
	<node id="-67411" lat="62.2731027741" lon="6.9989777719">
		<tag k="name" v="Litleheivika" />
		<tag k="natural" v="bay" />
		<tag k="ssr:stedsnr" v="821904" />
	</node>
	<node id="-68429" lat="62.1634944474" lon="6.98075832897">
		<tag k="fixme" v="consider seamark:type=rock or natural=shoal" />
		<tag k="name" v="Kjehammaren" />
		<tag k="place" v="islet" />
		<tag k="ssr:stedsnr" v="759473" />
	</node>
	<node id="-67298" lat="62.1899027739" lon="7.01622499617">
		<tag k="name" v="Skjørhamna" />
		<tag k="natural" v="bay" />
		<tag k="ssr:stedsnr" v="699657" />
	</node>
	<node id="-67383" lat="62.2990972226" lon="6.95967222582">
		<tag k="name" v="Øygardsvika" />
		<tag k="natural" v="bay" />
		<tag k="ssr:stedsnr" v="800610" />
	</node>
	<node id="-66888" lat="62.095766667" lon="7.02184722336">
		<tag k="name" v="Korsen" />
		<tag k="natural" v="cape" />
		<tag k="ssr:stedsnr" v="314461" />
	</node>
	<node id="-67900" lat="62.337722226" lon="6.91703333489">
		<tag k="name" v="Naustvika" />
>>>>>>> e1d4bc35ff8a6074a6f2e91616a996b547c36f15
		<tag k="natural" v="bay" />
		<tag k="ssr:stedsnr" v="214631" />
	</node>
<<<<<<< HEAD
	<node lat="62.120580558706905" lon="7.114902777994152" id="-1355">
		<tag k="name" v="Bringeneset" />
		<tag k="natural" v="cape" />
		<tag k="ssr:stedsnr" v="214632" />
	</node>
	<node lat="62.095297218249215" lon="7.035025005706687" id="-1358">
		<tag k="name" v="Stekkevika" />
=======
	<node id="-67895" lat="62.2866005404" lon="6.97868926557">
		<tag k="name" v="Uksavika" />
		<tag k="natural" v="bay" />
		<tag k="ssr:stedsnr" v="193595" />
	</node>
	<node id="-67382" lat="62.3015034573" lon="7.08823522531">
		<tag k="alt_name" v="Båtstøa" />
		<tag k="name" v="Bøstøa" />
>>>>>>> e1d4bc35ff8a6074a6f2e91616a996b547c36f15
		<tag k="natural" v="bay" />
		<tag k="ssr:stedsnr" v="214734" />
	</node>
<<<<<<< HEAD
	<node lat="62.30426111249721" lon="6.957816667670871" id="-1407">
		<tag k="name" v="Hageneset" />
		<tag k="natural" v="cape" />
		<tag k="ssr:stedsnr" v="456398" />
	</node>
	<node lat="62.09834444554236" lon="7.196980563980542" id="-1410">
		<tag k="name" v="Gjørvavika" />
=======
	<node id="-67893" lat="62.2719694451" lon="6.99974165715">
		<tag k="name" v="Litlevika" />
>>>>>>> e1d4bc35ff8a6074a6f2e91616a996b547c36f15
		<tag k="natural" v="bay" />
		<tag k="ssr:stedsnr" v="456554" />
	</node>
<<<<<<< HEAD
	<node lat="62.10121944625707" lon="7.00915276996386" id="-1416">
		<tag k="name" v="Storneset" />
		<tag k="natural" v="cape" />
		<tag k="ssr:stedsnr" v="457179" />
	</node>
	<node lat="62.08516667013529" lon="6.873219444780101" id="-1475">
=======
	<node id="-66863" lat="62.0851666701" lon="6.87321944478">
>>>>>>> e1d4bc35ff8a6074a6f2e91616a996b547c36f15
		<tag k="name" v="Ragnhildholmen" />
		<tag k="place" v="islet" />
		<tag k="ssr:stedsnr" v="459757" />
	</node>
<<<<<<< HEAD
	<node lat="62.09576666704138" lon="7.02184722335705" id="-1500">
		<tag k="name" v="Korsen" />
=======
	<node id="-67885" lat="62.2378583307" lon="7.00533055353">
		<tag k="name" v="Dukevika" />
		<tag k="natural" v="bay" />
		<tag k="ssr:stedsnr" v="193259" />
	</node>
	<node id="-68291" lat="62.13571111" lon="6.98097500254">
		<tag k="name" v="Furnesvika" />
		<tag k="natural" v="bay" />
		<tag k="ssr:stedsnr" v="617393" />
	</node>
	<node id="-66978" lat="62.2961416709" lon="7.10726389123">
		<tag k="name" v="Plassevika" />
		<tag k="natural" v="bay" />
		<tag k="ssr:stedsnr" v="516159" />
	</node>
	<node id="-67547" lat="62.1139777821" lon="7.1322527682">
		<tag k="name" v="Skagen" />
		<tag k="natural" v="cape" />
		<tag k="ssr:stedsnr" v="10366" />
	</node>
	<node id="-67461" lat="62.1113750012" lon="7.11797222049">
		<tag k="name" v="Skagenobba" />
		<tag k="natural" v="cape" />
		<tag k="ssr:stedsnr" v="942561" />
	</node>
	<node id="-68370" lat="62.121347223" lon="6.93018333435">
		<tag k="name" v="Seiberget" />
>>>>>>> e1d4bc35ff8a6074a6f2e91616a996b547c36f15
		<tag k="natural" v="cape" />
		<tag k="ssr:stedsnr" v="314461" />
	</node>
<<<<<<< HEAD
	<node lat="62.29514444725344" lon="7.090749995185243" id="-1505">
		<tag k="name" v="Ovråneset" />
=======
	<node id="-68369" lat="62.1097249959" lon="6.98844444346">
		<tag k="name" v="Kvernaneset" />
>>>>>>> e1d4bc35ff8a6074a6f2e91616a996b547c36f15
		<tag k="natural" v="cape" />
		<tag k="ssr:stedsnr" v="315554" />
	</node>
<<<<<<< HEAD
	<node lat="62.287049999308124" lon="7.004950005936497" id="-1521">
		<tag k="name" v="Uksneset" />
=======
	<node id="-68368" lat="62.1113805547" lon="6.98115833464">
		<tag k="name" v="Hjellneset" />
>>>>>>> e1d4bc35ff8a6074a6f2e91616a996b547c36f15
		<tag k="natural" v="cape" />
		<tag k="ssr:stedsnr" v="335247" />
	</node>
<<<<<<< HEAD
	<node lat="62.08658055279533" lon="6.870652771801644" id="-1532">
		<tag k="name" v="Hellesyltneset" />
=======
	<node id="-67343" lat="62.1173166701" lon="7.17904167332">
		<tag k="name" v="Neset" />
>>>>>>> e1d4bc35ff8a6074a6f2e91616a996b547c36f15
		<tag k="natural" v="cape" />
		<tag k="ssr:stedsnr" v="338726" />
	</node>
<<<<<<< HEAD
	<node lat="62.09685833031382" lon="7.098949993958065" id="-1545">
		<tag k="name" v="Gjerkland" />
=======
	<node id="-68366" lat="62.1088944475" lon="6.9114555578">
		<tag k="name" v="Ytstebjørkneset" />
>>>>>>> e1d4bc35ff8a6074a6f2e91616a996b547c36f15
		<tag k="natural" v="cape" />
		<tag k="ssr:stedsnr" v="374420" />
	</node>
<<<<<<< HEAD
	<node lat="62.277897224853895" lon="7.223383336011886" id="-1563">
		<tag k="bay" v="fjord" />
		<tag k="name" v="Norddalsfjorden" />
=======
	<node id="-67850" lat="62.2801388854" lon="7.00447499993">
		<tag k="name" v="Saltkjelen" />
>>>>>>> e1d4bc35ff8a6074a6f2e91616a996b547c36f15
		<tag k="natural" v="bay" />
		<tag k="ssr:stedsnr" v="375611" />
	</node>
<<<<<<< HEAD
	<node lat="62.308605553341835" lon="7.01954444843034" id="-1573">
		<tag k="name" v="Ansoknausta" />
=======
	<node id="-67336" lat="62.2017944419" lon="7.03746665791">
		<tag k="name" v="Kalvesanden" />
>>>>>>> e1d4bc35ff8a6074a6f2e91616a996b547c36f15
		<tag k="natural" v="beach" />
		<tag k="ssr:stedsnr" v="394992" />
	</node>
<<<<<<< HEAD
	<node lat="62.30896389307348" lon="7.029080555229496" id="-1579">
		<tag k="name" v="Kolvneset" />
=======
	<node id="-67844" lat="62.2520055524" lon="7.00713334261">
		<tag k="name" v="Stangarneset" />
>>>>>>> e1d4bc35ff8a6074a6f2e91616a996b547c36f15
		<tag k="natural" v="cape" />
		<tag k="ssr:stedsnr" v="395384" />
	</node>
<<<<<<< HEAD
	<node lat="62.10276388671521" lon="7.187708336930715" id="-1601">
		<tag k="name" v="Røstaneset" />
		<tag k="natural" v="cape" />
		<tag k="ssr:stedsnr" v="398995" />
	</node>
	<node lat="62.32905555993428" lon="6.918116665190724" id="-1612">
		<tag k="name" v="Hatlevika" />
=======
	<node id="-67843" lat="62.124588886" lon="6.93271112052">
		<tag k="name" v="Skjersvika" />
>>>>>>> e1d4bc35ff8a6074a6f2e91616a996b547c36f15
		<tag k="natural" v="bay" />
		<tag k="ssr:stedsnr" v="436509" />
	</node>
	<node lat="62.308586281123944" lon="7.005137384353854" id="-1621">
		<tag k="name" v="Gravaneset" />
		<tag k="natural" v="cape" />
		<tag k="ssr:stedsnr" v="447921" />
	</node>
<<<<<<< HEAD
	<node lat="62.19768888929354" lon="7.0138083403477145" id="-1631">
		<tag k="name" v="Oldervika" />
		<tag k="natural" v="bay" />
		<tag k="ssr:stedsnr" v="456461" />
	</node>
	<node lat="62.12654444217238" lon="6.934550008127362" id="-1645">
=======
	<node id="-66817" lat="62.1265444422" lon="6.93455000813">
>>>>>>> e1d4bc35ff8a6074a6f2e91616a996b547c36f15
		<tag k="alt_name" v="Ljøskjeret" />
		<tag k="fixme" v="consider seamark:type=rock or natural=shoal" />
		<tag k="name" v="Ljøvikskjeret" />
		<tag k="place" v="islet" />
		<tag k="ssr:stedsnr" v="457805" />
	</node>
<<<<<<< HEAD
	<node lat="62.31326944664628" lon="6.98752222102396" id="-1662">
		<tag k="name" v="Flatneset" />
=======
	<node id="-67320" lat="62.3007500031" lon="6.95971389457">
		<tag k="name" v="Øykjeberget" />
		<tag k="natural" v="cape" />
		<tag k="ssr:stedsnr" v="739610" />
	</node>
	<node id="-66794" lat="62.1012194463" lon="7.00915276996">
		<tag k="name" v="Storneset" />
>>>>>>> e1d4bc35ff8a6074a6f2e91616a996b547c36f15
		<tag k="natural" v="cape" />
		<tag k="ssr:stedsnr" v="678620" />
	</node>
<<<<<<< HEAD
	<node lat="62.34180833110478" lon="6.918122227373216" id="-1690">
		<tag k="alt_name" v="Bødalevika" />
		<tag k="fixme" v="multiple name tags, choose one and add the other to alt_name" />
		<tag k="name" v="Olavika;Bødaolsvika" />
		<tag k="natural" v="bay" />
		<tag k="old_name" v="Bødaolevika" />
		<tag k="ssr:stedsnr" v="497519" />
	</node>
	<node lat="62.10905301504597" lon="7.193612613400304" id="-1700">
		<tag k="name" v="Lausneset" />
		<tag k="natural" v="cape" />
		<tag k="ssr:stedsnr" v="517560" />
	</node>
	<node lat="62.1026805520365" lon="7.0067083278804265" id="-1709">
		<tag k="name" v="Korsflåvika" />
=======
	<node id="-68326" lat="62.2948166663" lon="7.09494166289">
		<tag k="name" v="Storbåtvika" />
		<tag k="natural" v="bay" />
		<tag k="ssr:stedsnr" v="637484" />
	</node>
	<node id="-68323" lat="62.3428305575" lon="6.91802499776">
		<tag k="name" v="Skotungneset" />
		<tag k="natural" v="cape" />
		<tag k="ssr:stedsnr" v="636892" />
	</node>
	<node id="-67810" lat="62.1113972202" lon="7.17477499293">
		<tag k="name" v="Skagevikgrunna" />
		<tag k="natural" v="shoal" />
		<tag k="place" v="locality" />
		<tag k="ssr:stedsnr" v="152637" />
	</node>
	<node id="-67809" lat="62.2974250012" lon="7.12284444221">
		<tag k="alt_name" v="Fagrevikane" />
		<tag k="name" v="Fagervika" />
>>>>>>> e1d4bc35ff8a6074a6f2e91616a996b547c36f15
		<tag k="natural" v="bay" />
		<tag k="ssr:stedsnr" v="518218" />
	</node>
<<<<<<< HEAD
	<node lat="62.09474721995553" lon="6.987391666669684" id="-1715">
		<tag k="name" v="Furlotneset" />
=======
	<node id="-67292" lat="62.326502777" lon="6.96700278699">
		<tag k="name" v="Fonnaneset" />
>>>>>>> e1d4bc35ff8a6074a6f2e91616a996b547c36f15
		<tag k="natural" v="cape" />
		<tag k="ssr:stedsnr" v="518819" />
	</node>
<<<<<<< HEAD
	<node lat="62.30859999574597" lon="7.043413893780364" id="-1746">
		<tag k="name" v="Langhammarvika" />
=======
	<node id="-66778" lat="62.0983444455" lon="7.19698056398">
		<tag k="name" v="Gjørvavika" />
>>>>>>> e1d4bc35ff8a6074a6f2e91616a996b547c36f15
		<tag k="natural" v="bay" />
		<tag k="ssr:stedsnr" v="576954" />
	</node>
<<<<<<< HEAD
	<node lat="62.11218055410257" lon="6.975450002796334" id="-1748">
		<tag k="name" v="Matvika" />
		<tag k="natural" v="bay" />
		<tag k="ssr:stedsnr" v="577602" />
	</node>
	<node lat="62.113083335519825" lon="7.1657611073697405" id="-1749">
		<tag k="name" v="Revet" />
		<tag k="natural" v="shoal" />
		<tag k="place" v="locality" />
		<tag k="ssr:stedsnr" v="577612" />
	</node>
	<node lat="62.085522222586576" lon="7.041772231277791" id="-1758">
		<tag k="name" v="Holtflua" />
		<tag k="place" v="locality" />
		<tag k="seamark:type" v="rock" />
		<tag k="ssr:stedsnr" v="578705" />
	</node>
	<node lat="62.2897658807844" lon="6.971191724987424" id="-1776">
		<tag k="name" v="Skorbøneset" />
		<tag k="natural" v="cape" />
		<tag k="ssr:stedsnr" v="699395" />
	</node>
	<node lat="62.189902773880945" lon="7.016224996173798" id="-1782">
		<tag k="name" v="Skjørhamna" />
=======
	<node id="-66776" lat="62.1976888893" lon="7.01380834035">
		<tag k="name" v="Oldervika" />
		<tag k="natural" v="bay" />
		<tag k="ssr:stedsnr" v="456461" />
	</node>
	<node id="-66774" lat="62.3042611125" lon="6.95781666767">
		<tag k="name" v="Hageneset" />
		<tag k="natural" v="cape" />
		<tag k="ssr:stedsnr" v="456398" />
	</node>
	<node id="-67785" lat="62.134361114" lon="6.93550278197">
		<tag k="name" v="Ljøvika" />
>>>>>>> e1d4bc35ff8a6074a6f2e91616a996b547c36f15
		<tag k="natural" v="bay" />
		<tag k="ssr:stedsnr" v="699657" />
	</node>
<<<<<<< HEAD
	<node lat="62.28568055743329" lon="7.006074991780638" id="-1787">
		<tag k="name" v="Nesvika" />
		<tag k="natural" v="bay" />
		<tag k="ssr:stedsnr" v="699947" />
	</node>
	<node lat="62.09544693390512" lon="7.080552319733808" id="-1802">
=======
	<node id="-67780" lat="62.2241999988" lon="7.03917777874">
>>>>>>> e1d4bc35ff8a6074a6f2e91616a996b547c36f15
		<tag k="bay" v="fjord" />
		<tag k="name" v="Geirangerfjorden" />
		<tag k="natural" v="bay" />
		<tag k="ssr:stedsnr" v="617432" />
	</node>
<<<<<<< HEAD
	<node lat="62.13571111002824" lon="6.980975002537809" id="-1808">
		<tag k="name" v="Furnesvika" />
		<tag k="natural" v="bay" />
		<tag k="ssr:stedsnr" v="617393" />
	</node>
	<node lat="62.11429138041293" lon="7.187106933623735" id="-1829">
		<tag k="name" v="Inste Grandevika" />
		<tag k="natural" v="bay" />
		<tag k="ssr:stedsnr" v="637620" />
	</node>
	<node lat="62.111380554714884" lon="6.981158334643444" id="-1852">
		<tag k="name" v="Hjellneset" />
		<tag k="natural" v="cape" />
		<tag k="ssr:stedsnr" v="639830" />
	</node>
	<node lat="62.10972499590753" lon="6.98844444346035" id="-1853">
		<tag k="name" v="Kvernaneset" />
		<tag k="natural" v="cape" />
		<tag k="ssr:stedsnr" v="639832" />
	</node>
	<node lat="62.108894447506465" lon="6.9114555578034365" id="-1854">
		<tag k="name" v="Ytstebjørkneset" />
		<tag k="natural" v="cape" />
		<tag k="ssr:stedsnr" v="639775" />
	</node>
	<node lat="62.20789722281768" lon="7.03644167618876" id="-1872">
		<tag k="alt_name" v="Isflåneset" />
		<tag k="name" v="Skjeret" />
		<tag k="natural" v="cape" />
		<tag k="ssr:stedsnr" v="678317" />
	</node>
	<node lat="62.3265027769976" lon="6.967002786993623" id="-1900">
		<tag k="name" v="Fonnaneset" />
=======
	<node id="-67779" lat="62.1958861128" lon="7.01422778457">
		<tag k="fixme" v="multiple name tags, choose one and add the other to alt_name" />
		<tag k="name" v="Presthellaren;Presthelleren" />
		<tag k="natural" v="cape" />
		<tag k="ssr:stedsnr" v="132289" />
	</node>
	<node id="-66742" lat="62.0952972182" lon="7.03502500571">
		<tag k="name" v="Stekkevika" />
		<tag k="natural" v="bay" />
		<tag k="ssr:stedsnr" v="214734" />
	</node>
	<node id="-67763" lat="62.1170730404" lon="7.17946241546">
		<tag k="name" v="Nesevika" />
		<tag k="natural" v="bay" />
		<tag k="ssr:stedsnr" v="96810" />
	</node>
	<node id="-68272" lat="62.1110138932" lon="7.17441944477">
		<tag k="name" v="Kvitneset" />
>>>>>>> e1d4bc35ff8a6074a6f2e91616a996b547c36f15
		<tag k="natural" v="cape" />
		<tag k="ssr:stedsnr" v="699368" />
	</node>
<<<<<<< HEAD
	<node lat="62.30075000307031" lon="6.959713894571467" id="-1932">
		<tag k="name" v="Øykjeberget" />
		<tag k="natural" v="cape" />
		<tag k="ssr:stedsnr" v="739610" />
	</node>
	<node lat="62.2749222220769" lon="7.002019439454315" id="-1961">
		<tag k="name" v="Litleheineset" />
=======
	<node id="-67758" lat="62.0856861128" lon="6.87904999349">
		<tag k="name" v="Gunnarstøodden" />
>>>>>>> e1d4bc35ff8a6074a6f2e91616a996b547c36f15
		<tag k="natural" v="cape" />
		<tag k="ssr:stedsnr" v="760900" />
	</node>
<<<<<<< HEAD
	<node lat="62.117316670088066" lon="7.1790416733215805" id="-1965">
		<tag k="name" v="Neset" />
		<tag k="natural" v="cape" />
		<tag k="ssr:stedsnr" v="763804" />
	</node>
	<node lat="62.144694448361776" lon="6.9924249910694245" id="-1986">
		<tag k="fixme" v="multiple name tags, choose one and add the other to alt_name" />
		<tag k="name" v="Nobba;Furnesnobba" />
=======
	<node id="-66731" lat="62.2862083306" lon="6.97907499711">
		<tag k="name" v="Uksvikbugen" />
		<tag k="natural" v="bay" />
		<tag k="ssr:stedsnr" v="213402" />
	</node>
	<node id="-67748" lat="62.1290611088" lon="6.93527500915">
		<tag k="name" v="Ljøvikhammaren" />
>>>>>>> e1d4bc35ff8a6074a6f2e91616a996b547c36f15
		<tag k="natural" v="cape" />
		<tag k="ssr:stedsnr" v="800335" />
	</node>
<<<<<<< HEAD
	<node lat="62.3015034572648" lon="7.088235225309809" id="-1991">
		<tag k="alt_name" v="Båtstøa" />
		<tag k="name" v="Bøstøa" />
=======
	<node id="-67747" lat="62.1255611096" lon="6.97001388919">
		<tag k="name" v="Nyfannvika" />
>>>>>>> e1d4bc35ff8a6074a6f2e91616a996b547c36f15
		<tag k="natural" v="bay" />
		<tag k="ssr:stedsnr" v="800608" />
	</node>
<<<<<<< HEAD
	<node lat="62.29909722264957" lon="6.959672225820397" id="-1992">
		<tag k="name" v="Øygardsvika" />
		<tag k="natural" v="bay" />
		<tag k="ssr:stedsnr" v="800610" />
	</node>
	<node lat="62.222338889813685" lon="7.005105559423883" id="-2011">
		<tag k="name" v="Gryddevikneset" />
		<tag k="natural" v="cape" />
		<tag k="ssr:stedsnr" v="820474" />
	</node>
	<node lat="62.27310277407956" lon="6.998977771900077" id="-2024">
		<tag k="name" v="Litleheivika" />
=======
	<node id="-68244" lat="62.1130833355" lon="7.16576110737">
		<tag k="name" v="Revet" />
		<tag k="natural" v="shoal" />
		<tag k="place" v="locality" />
		<tag k="ssr:stedsnr" v="577612" />
	</node>
	<node id="-68243" lat="62.1121805541" lon="6.9754500028">
		<tag k="name" v="Matvika" />
>>>>>>> e1d4bc35ff8a6074a6f2e91616a996b547c36f15
		<tag k="natural" v="bay" />
		<tag k="ssr:stedsnr" v="821904" />
	</node>
<<<<<<< HEAD
	<node lat="62.281811107198294" lon="7.006627787505964" id="-2027">
		<tag k="name" v="Seihammaren" />
		<tag k="natural" v="cape" />
		<tag k="ssr:stedsnr" v="821967" />
	</node>
	<node lat="62.31830000191716" lon="6.933947222172708" id="-2049">
		<tag k="name" v="Bukkeflåvika" />
=======
	<node id="-67267" lat="62.1072416666" lon="7.19762221472">
		<tag k="name" v="Maråkstranda" />
		<tag k="natural" v="beach" />
		<tag k="place" v="locality" />
		<tag k="ssr:stedsnr" v="884704" />
	</node>
	<node id="-67727" lat="62.1556361107" lon="6.96654721952">
		<tag k="name" v="Hamna" />
>>>>>>> e1d4bc35ff8a6074a6f2e91616a996b547c36f15
		<tag k="natural" v="bay" />
		<tag k="ssr:stedsnr" v="824805" />
	</node>
<<<<<<< HEAD
	<node lat="62.10724166659893" lon="7.19762221472299" id="-2101">
		<tag k="name" v="Maråkstranda" />
		<tag k="natural" v="beach" />
		<tag k="ssr:stedsnr" v="884704" />
	</node>
	<node lat="62.088897223029626" lon="6.896019444003702" id="-2122">
		<tag k="name" v="Flyndreskolten" />
		<tag k="natural" v="shoal" />
		<tag k="place" v="locality" />
		<tag k="ssr:stedsnr" v="945736" />
	</node>
	<node lat="62.264463887208954" lon="6.997658337283604" id="-2127">
		<tag k="name" v="Li" />
		<tag k="natural" v="bay" />
		<tag k="ssr:stedsnr" v="946811" />
	</node>
	<node lat="62.11397778211747" lon="7.132252768204919" id="-2142">
		<tag k="name" v="Skagen" />
=======
	<node id="-67214" lat="62.101225002" lon="7.20301666923">
		<tag k="name" v="Maråkvika" />
		<tag k="natural" v="bay" />
		<tag k="ssr:stedsnr" v="881547" />
	</node>
	<node id="-67725" lat="62.2832055597" lon="7.00742221658">
		<tag k="name" v="Hampetjønn-neset" />
		<tag k="natural" v="cape" />
		<tag k="ssr:stedsnr" v="92966" />
	</node>
	<node id="-67211" lat="62.1204027821" lon="6.92976388066">
		<tag k="name" v="Ljøneset" />
>>>>>>> e1d4bc35ff8a6074a6f2e91616a996b547c36f15
		<tag k="natural" v="cape" />
		<tag k="ssr:stedsnr" v="10366" />
	</node>
<<<<<<< HEAD
	<node lat="62.111925000817344" lon="7.164138882109592" id="-2143">
		<tag k="name" v="Skagevika" />
		<tag k="natural" v="bay" />
		<tag k="ssr:stedsnr" v="10369" />
	</node>
	<node lat="62.13008333424149" lon="6.975536107311931" id="-2159">
		<tag k="name" v="Nesvikane" />
		<tag k="natural" v="bay" />
		<tag k="ssr:stedsnr" v="11347" />
	</node>
	<node lat="62.33749444655389" lon="6.916347228908035" id="-2189">
		<tag k="name" v="Skotungvika" />
=======
	<node id="-67717" lat="62.2155472257" lon="7.00302499801">
		<tag k="name" v="Veslehamna" />
		<tag k="natural" v="bay" />
		<tag k="ssr:stedsnr" v="92755" />
	</node>
	<node id="-67714" lat="62.0887972178" lon="6.86920277601">
		<tag k="name" v="Bugen" />
>>>>>>> e1d4bc35ff8a6074a6f2e91616a996b547c36f15
		<tag k="natural" v="bay" />
		<tag k="ssr:stedsnr" v="30896" />
	</node>
<<<<<<< HEAD
	<node lat="62.308797218942814" lon="7.026838885683892" id="-2195">
		<tag k="name" v="Århola" />
=======
	<node id="-67710" lat="62.3026892501" lon="6.95769898969">
		<tag k="name" v="Hagevika" />
>>>>>>> e1d4bc35ff8a6074a6f2e91616a996b547c36f15
		<tag k="natural" v="bay" />
		<tag k="ssr:stedsnr" v="30995" />
	</node>
<<<<<<< HEAD
	<node lat="62.177930553860264" lon="7.040497219724321" id="-2209">
		<tag k="name" v="Juvika" />
=======
	<node id="-67702" lat="62.3010796443" lon="7.08667315116">
		<tag k="name" v="Ovråbukta" />
>>>>>>> e1d4bc35ff8a6074a6f2e91616a996b547c36f15
		<tag k="natural" v="bay" />
		<tag k="ssr:stedsnr" v="32225" />
	</node>
<<<<<<< HEAD
	<node lat="62.09921388597011" lon="6.971233324256148" id="-2224">
		<tag k="fixme" v="consider seamark:type=rock or natural=shoal" />
		<tag k="name" v="Stabbefluna" />
		<tag k="place" v="islet" />
		<tag k="ssr:stedsnr" v="32825" />
	</node>
	<node lat="62.08325555717503" lon="6.876036110140985" id="-2232">
		<tag k="name" v="Vika" />
=======
	<node id="-67176" lat="62.1142913804" lon="7.18710693362">
		<tag k="name" v="Inste Grandevika" />
		<tag k="natural" v="bay" />
		<tag k="ssr:stedsnr" v="637620" />
	</node>
	<node id="-67686" lat="62.2951583312" lon="7.14237777609">
		<tag k="fixme" v="multiple name tags, choose one and add the other to alt_name" />
		<tag k="name" v="Lauvvika;Lauvvikane" />
>>>>>>> e1d4bc35ff8a6074a6f2e91616a996b547c36f15
		<tag k="natural" v="bay" />
		<tag k="ssr:stedsnr" v="35834" />
	</node>
<<<<<<< HEAD
	<node lat="62.234202774741476" lon="7.004013891283477" id="-2251">
=======
	<node id="-67683" lat="62.2342027747" lon="7.00401389128">
>>>>>>> e1d4bc35ff8a6074a6f2e91616a996b547c36f15
		<tag k="name" v="Hildeborneset" />
		<tag k="natural" v="cape" />
		<tag k="ssr:stedsnr" v="72269" />
	</node>
<<<<<<< HEAD
	<node lat="62.12876388794644" lon="6.932008325173226" id="-2256">
		<tag k="name" v="Hammaren" />
=======
	<node id="-66832" lat="62.2949972254" lon="7.13840833867">
		<tag k="name" v="Lauvvikneset" />
		<tag k="natural" v="cape" />
		<tag k="ssr:stedsnr" v="273319" />
	</node>
	<node id="-66653" lat="62.1004722218" lon="7.19338612061">
		<tag k="alt_name" v="Fannaneset" />
		<tag k="name" v="Fonnaneset" />
		<tag k="natural" v="cape" />
		<tag k="ssr:stedsnr" v="274537" />
	</node>
	<node id="-66650" lat="62.1781055568" lon="7.01576388691">
		<tag k="name" v="Åkernesodden" />
>>>>>>> e1d4bc35ff8a6074a6f2e91616a996b547c36f15
		<tag k="natural" v="cape" />
		<tag k="ssr:stedsnr" v="72338" />
	</node>
<<<<<<< HEAD
	<node lat="62.295158331247755" lon="7.142377776092617" id="-2269">
		<tag k="fixme" v="multiple name tags, choose one and add the other to alt_name" />
		<tag k="name" v="Lauvvikane;Lauvvika" />
		<tag k="natural" v="bay" />
		<tag k="ssr:stedsnr" v="72555" />
	</node>
	<node lat="62.30107964426029" lon="7.086673151161451" id="-2281">
		<tag k="name" v="Ovråbukta" />
		<tag k="natural" v="bay" />
		<tag k="ssr:stedsnr" v="91480" />
	</node>
	<node lat="62.21554722573078" lon="7.00302499800642" id="-2285">
		<tag k="name" v="Veslehamna" />
		<tag k="natural" v="bay" />
		<tag k="ssr:stedsnr" v="92755" />
	</node>
	<node lat="62.30268925012274" lon="6.95769898969225" id="-2287">
		<tag k="name" v="Hagevika" />
		<tag k="natural" v="bay" />
		<tag k="ssr:stedsnr" v="92412" />
	</node>
	<node lat="62.0887972178014" lon="6.869202776013544" id="-2289">
		<tag k="name" v="Bugen" />
=======
	<node id="-66575" lat="62.0873972213" lon="6.89205555613">
		<tag k="name" v="Juvika" />
		<tag k="natural" v="bay" />
		<tag k="ssr:stedsnr" v="92618" />
	</node>
	<node id="-68184" lat="62.3290555599" lon="6.91811666519">
		<tag k="name" v="Hatlevika" />
		<tag k="natural" v="bay" />
		<tag k="ssr:stedsnr" v="436509" />
	</node>
	<node id="-67671" lat="62.0947083359" lon="7.03058333044">
		<tag k="name" v="Stekkane" />
		<tag k="natural" v="cape" />
		<tag k="ssr:stedsnr" v="71448" />
	</node>
	<node id="-67668" lat="62.1048694457" lon="6.93445833053">
		<tag k="name" v="Rinden" />
		<tag k="natural" v="cape" />
		<tag k="ssr:stedsnr" v="71436" />
	</node>
	<node id="-67814" lat="62.095611107" lon="6.88065832675">
		<tag k="name" v="Hatlevika" />
		<tag k="natural" v="bay" />
		<tag k="ssr:stedsnr" v="152115" />
	</node>
	<node id="-67147" lat="62.0855222226" lon="7.04177223128">
		<tag k="name" v="Holtflua" />
		<tag k="place" v="locality" />
		<tag k="seamark:type" v="rock" />
		<tag k="ssr:stedsnr" v="578705" />
	</node>
	<node id="-67511" lat="62.088897223" lon="6.896019444">
		<tag k="name" v="Flyndreskolten" />
		<tag k="natural" v="shoal" />
		<tag k="place" v="locality" />
		<tag k="ssr:stedsnr" v="945736" />
	</node>
	<node id="-68022" lat="62.3319250019" lon="6.96078611714">
		<tag k="name" v="Uraneset" />
		<tag k="natural" v="cape" />
		<tag k="ssr:stedsnr" v="335379" />
	</node>
	<node id="-67649" lat="62.0832555572" lon="6.87603611014">
		<tag k="name" v="Vika" />
		<tag k="natural" v="bay" />
		<tag k="ssr:stedsnr" v="35834" />
	</node>
	<node id="-68158" lat="62.1027638867" lon="7.18770833693">
		<tag k="name" v="Røstaneset" />
		<tag k="natural" v="cape" />
		<tag k="ssr:stedsnr" v="398995" />
	</node>
	<node id="-66611" lat="62.3068722225" lon="6.95405000008">
		<tag k="name" v="Oshammaren" />
		<tag k="natural" v="cape" />
		<tag k="ssr:stedsnr" v="254597" />
	</node>
	<node id="-67633" lat="62.099213886" lon="6.97123332426">
		<tag k="fixme" v="consider seamark:type=rock or natural=shoal" />
		<tag k="name" v="Stabbefluna" />
		<tag k="place" v="islet" />
		<tag k="ssr:stedsnr" v="32825" />
	</node>
	<node id="-67119" lat="62.1187694446" lon="6.92803889384">
		<tag k="name" v="Naustberget" />
		<tag k="natural" v="cape" />
		<tag k="ssr:stedsnr" v="557372" />
	</node>
	<node id="-67421" lat="62.3183000019" lon="6.93394722217">
		<tag k="name" v="Bukkeflåvika" />
		<tag k="natural" v="bay" />
		<tag k="ssr:stedsnr" v="824805" />
	</node>
	<node id="-68137" lat="62.145194441" lon="6.9913166652">
		<tag k="name" v="Sildegarnvika" />
>>>>>>> e1d4bc35ff8a6074a6f2e91616a996b547c36f15
		<tag k="natural" v="bay" />
		<tag k="ssr:stedsnr" v="92495" />
	</node>
<<<<<<< HEAD
	<node lat="62.09924444564233" lon="6.969358338615537" id="-2297">
=======
	<node id="-66599" lat="62.0992444456" lon="6.96935833862">
>>>>>>> e1d4bc35ff8a6074a6f2e91616a996b547c36f15
		<tag k="name" v="Sandane" />
		<tag k="natural" v="beach" />
		<tag k="ssr:stedsnr" v="93810" />
	</node>
<<<<<<< HEAD
	<node lat="62.15563611072726" lon="6.966547219522863" id="-2299">
		<tag k="name" v="Hamna" />
		<tag k="natural" v="bay" />
		<tag k="ssr:stedsnr" v="93066" />
	</node>
	<node lat="62.12556110957887" lon="6.970013889188046" id="-2308">
		<tag k="name" v="Nyfannvika" />
=======
	<node id="-67617" lat="62.2101833298" lon="7.03649166149">
		<tag k="name" v="Løneset" />
		<tag k="natural" v="cape" />
		<tag k="ssr:stedsnr" v="32384" />
	</node>
	<node id="-66587" lat="62.101527781" lon="6.92518611108">
		<tag k="name" v="Jogardsstranda" />
		<tag k="natural" v="beach" />
		<tag k="place" v="locality" />
		<tag k="ssr:stedsnr" v="253454" />
	</node>
	<node id="-66585" lat="62.0942111071" lon="6.90623889836">
		<tag k="name" v="Kjeskorneset" />
		<tag k="natural" v="cape" />
		<tag k="ssr:stedsnr" v="253448" />
	</node>
	<node id="-67096" lat="62.2856805574" lon="7.00607499178">
		<tag k="name" v="Nesvika" />
		<tag k="natural" v="bay" />
		<tag k="ssr:stedsnr" v="699947" />
	</node>
	<node id="-68117" lat="62.0989472246" lon="6.97570000712">
		<tag k="name" v="Stabbeflua" />
		<tag k="natural" v="shoal" />
		<tag k="place" v="locality" />
		<tag k="ssr:stedsnr" v="395644" />
	</node>
	<node id="-68116" lat="62.1178722208" lon="6.96373888443">
		<tag k="name" v="Lundanesvika" />
>>>>>>> e1d4bc35ff8a6074a6f2e91616a996b547c36f15
		<tag k="natural" v="bay" />
		<tag k="ssr:stedsnr" v="93756" />
	</node>
<<<<<<< HEAD
	<node lat="62.08568611278854" lon="6.879049993488574" id="-2316">
		<tag k="name" v="Gunnarstøodden" />
=======
	<node id="-67087" lat="62.2897658808" lon="6.97119172499">
		<tag k="name" v="Skorbøneset" />
>>>>>>> e1d4bc35ff8a6074a6f2e91616a996b547c36f15
		<tag k="natural" v="cape" />
		<tag k="ssr:stedsnr" v="95730" />
	</node>
<<<<<<< HEAD
	<node lat="62.19588611277732" lon="7.014227784573436" id="-2333">
		<tag k="fixme" v="multiple name tags, choose one and add the other to alt_name" />
		<tag k="name" v="Presthelleren;Presthellaren" />
		<tag k="natural" v="cape" />
		<tag k="ssr:stedsnr" v="132289" />
	</node>
	<node lat="62.224199998793054" lon="7.03917777873958" id="-2334">
		<tag k="bay" v="fjord" />
		<tag k="name" v="Sunnylvsfjorden" />
		<tag k="natural" v="bay" />
		<tag k="ssr:stedsnr" v="132298" />
	</node>
	<node lat="62.13436111404533" lon="6.935502781970431" id="-2336">
		<tag k="name" v="Ljøvika" />
		<tag k="natural" v="bay" />
		<tag k="ssr:stedsnr" v="132328" />
	</node>
	<node lat="62.11139722016155" lon="7.174774992932463" id="-2379">
		<tag k="name" v="Skagevikgrunna" />
		<tag k="natural" v="shoal" />
		<tag k="place" v="locality" />
		<tag k="ssr:stedsnr" v="152637" />
	</node>
	<node lat="62.28013888543604" lon="7.004474999930399" id="-2388">
		<tag k="name" v="Saltkjelen" />
		<tag k="natural" v="bay" />
		<tag k="ssr:stedsnr" v="153976" />
	</node>
	<node lat="62.12458888602126" lon="6.93271112051599" id="-2398">
		<tag k="name" v="Skjersvika" />
		<tag k="natural" v="bay" />
		<tag k="ssr:stedsnr" v="153884" />
	</node>
	<node lat="62.25200555244932" lon="7.007133342605747" id="-2399">
		<tag k="name" v="Stangarneset" />
		<tag k="natural" v="cape" />
		<tag k="ssr:stedsnr" v="153886" />
	</node>
	<node lat="62.23785833073241" lon="7.005330553531642" id="-2444">
		<tag k="name" v="Dukevika" />
		<tag k="natural" v="bay" />
		<tag k="ssr:stedsnr" v="193259" />
	</node>
	<node lat="62.27196944514281" lon="6.999741657152342" id="-2453">
		<tag k="name" v="Litlevika" />
		<tag k="natural" v="bay" />
		<tag k="ssr:stedsnr" v="193585" />
	</node>
	<node lat="62.28660054043573" lon="6.978689265565297" id="-2457">
		<tag k="name" v="Uksavika" />
		<tag k="natural" v="bay" />
		<tag k="ssr:stedsnr" v="193595" />
	</node>
	<node lat="62.337722226012026" lon="6.917033334894775" id="-2462">
		<tag k="name" v="Naustvika" />
		<tag k="natural" v="bay" />
		<tag k="ssr:stedsnr" v="193631" />
	</node>
	<node lat="62.09414999693244" lon="6.98792777355437" id="-2499">
		<tag k="name" v="Furlotvika" />
		<tag k="natural" v="bay" />
		<tag k="ssr:stedsnr" v="214848" />
	</node>
	<node lat="62.12291944071714" lon="7.15868334246409" id="-2513">
		<tag k="name" v="Hyskjevika" />
		<tag k="natural" v="bay" />
		<tag k="ssr:stedsnr" v="217759" />
	</node>
	<node lat="62.10553333666913" lon="7.182013897771665" id="-2516">
		<tag k="name" v="Homlongsvika" />
		<tag k="natural" v="bay" />
		<tag k="ssr:stedsnr" v="217995" />
	</node>
	<node lat="62.294997225430635" lon="7.138408338668568" id="-2522">
		<tag k="name" v="Lauvvikneset" />
		<tag k="natural" v="cape" />
		<tag k="ssr:stedsnr" v="273319" />
	</node>
	<node lat="62.178105556803516" lon="7.0157638869072745" id="-2537">
		<tag k="name" v="Åkernesodden" />
		<tag k="natural" v="cape" />
		<tag k="ssr:stedsnr" v="274442" />
	</node>
	<node lat="62.10047222175493" lon="7.193386120605455" id="-2538">
		<tag k="alt_name" v="Fannaneset" />
		<tag k="name" v="Fonnaneset" />
		<tag k="natural" v="cape" />
		<tag k="ssr:stedsnr" v="274537" />
	</node>
	<node lat="62.1667333294968" lon="7.034330562490606" id="-2576">
		<tag k="name" v="Stokkevika" />
		<tag k="natural" v="bay" />
		<tag k="ssr:stedsnr" v="314372" />
	</node>
	<node lat="62.09854166810374" lon="6.888627779467148" id="-2580">
		<tag k="name" v="Andalkroken" />
		<tag k="natural" v="cape" />
		<tag k="ssr:stedsnr" v="314437" />
	</node>
	<node lat="62.08744225168964" lon="6.881795544027583" id="-2593">
		<tag k="name" v="Åseneset" />
		<tag k="natural" v="cape" />
		<tag k="ssr:stedsnr" v="314447" />
	</node>
	<node lat="62.33192500192147" lon="6.960786117143202" id="-2626">
		<tag k="name" v="Uraneset" />
		<tag k="natural" v="cape" />
		<tag k="ssr:stedsnr" v="335379" />
	</node>
	<node lat="62.33009444539496" lon="6.9178527793481255" id="-2627">
		<tag k="name" v="Bjørnasprangneset" />
		<tag k="natural" v="cape" />
		<tag k="ssr:stedsnr" v="335394" />
	</node>
	<node lat="62.24196989117465" lon="7.008170886799191" id="-2629">
		<tag k="name" v="Dukeneset" />
		<tag k="natural" v="cape" />
		<tag k="ssr:stedsnr" v="335478" />
	</node>
	<node lat="62.111644447552365" lon="6.913755560741149" id="-2644">
		<tag k="name" v="Fossekråa" />
		<tag k="natural" v="bay" />
		<tag k="ssr:stedsnr" v="336763" />
	</node>
	<node lat="62.115888885601485" lon="6.961580554982788" id="-2656">
		<tag k="name" v="Lundaneset" />
		<tag k="natural" v="cape" />
		<tag k="ssr:stedsnr" v="374381" />
	</node>
	<node lat="62.310602774278294" lon="6.999430562993756" id="-2672">
		<tag k="name" v="Gravavika" />
		<tag k="natural" v="bay" />
		<tag k="ssr:stedsnr" v="375590" />
	</node>
	<node lat="62.31367778111117" lon="6.944866663937349" id="-2690">
		<tag k="name" v="Saltspanneset" />
		<tag k="natural" v="cape" />
		<tag k="ssr:stedsnr" v="395415" />
	</node>
	<node lat="62.31796944832777" lon="6.935097218561198" id="-2691">
		<tag k="name" v="Bukkeneset" />
		<tag k="natural" v="cape" />
		<tag k="ssr:stedsnr" v="395416" />
	</node>
	<node lat="62.30882222422501" lon="7.052369440079681" id="-2700">
		<tag k="name" v="Liasjøen" />
		<tag k="natural" v="beach" />
		<tag k="ssr:stedsnr" v="394947" />
	</node>
	<node lat="62.14519444095946" lon="6.991316665197005" id="-2703">
		<tag k="name" v="Sildegarnvika" />
		<tag k="natural" v="bay" />
		<tag k="ssr:stedsnr" v="396322" />
	</node>
	<node lat="62.11787222075576" lon="6.96373888443066" id="-2705">
		<tag k="name" v="Lundanesvika" />
		<tag k="natural" v="bay" />
		<tag k="ssr:stedsnr" v="395621" />
	</node>
	<node lat="62.098947224607976" lon="6.975700007116508" id="-2707">
		<tag k="name" v="Stabbeflua" />
		<tag k="natural" v="shoal" />
		<tag k="place" v="locality" />
		<tag k="ssr:stedsnr" v="395644" />
	</node>
	<node lat="62.33074722398544" lon="6.918836117918261" id="-2782">
		<tag k="name" v="Hatlevikneset" />
		<tag k="natural" v="cape" />
		<tag k="ssr:stedsnr" v="515908" />
	</node>
	<node lat="62.296141670888346" lon="7.107263891227809" id="-2787">
		<tag k="name" v="Plassevika" />
		<tag k="natural" v="bay" />
		<tag k="ssr:stedsnr" v="516159" />
	</node>
	<node lat="62.10441944500855" lon="6.98141111276585" id="-2797">
		<tag k="bay" v="fjord" />
		<tag k="name" v="Korsfjorden" />
		<tag k="natural" v="bay" />
		<tag k="ssr:stedsnr" v="517613" />
	</node>
	<node lat="62.11876944460767" lon="6.928038893836611" id="-2833">
		<tag k="name" v="Naustberget" />
		<tag k="natural" v="cape" />
		<tag k="ssr:stedsnr" v="557372" />
	</node>
	<node lat="62.111013893202944" lon="7.174419444770184" id="-2888">
		<tag k="name" v="Kvitneset" />
		<tag k="natural" v="cape" />
		<tag k="ssr:stedsnr" v="581993" />
	</node>
	<node lat="62.12134722300794" lon="6.930183334351805" id="-2924">
		<tag k="name" v="Seiberget" />
		<tag k="natural" v="cape" />
		<tag k="ssr:stedsnr" v="639872" />
	</node>
	<node lat="62.342830557465625" lon="6.9180249977565555" id="-2932">
		<tag k="name" v="Skotungneset" />
		<tag k="natural" v="cape" />
		<tag k="ssr:stedsnr" v="636892" />
	</node>
	<node lat="62.294816666295475" lon="7.094941662890393" id="-2937">
		<tag k="name" v="Storbåtvika" />
		<tag k="natural" v="bay" />
		<tag k="ssr:stedsnr" v="637484" />
	</node>
	<node lat="62.16349444743379" lon="6.980758328966858" id="-3009">
		<tag k="fixme" v="consider seamark:type=rock or natural=shoal" />
		<tag k="name" v="Kjehammaren" />
		<tag k="place" v="islet" />
		<tag k="ssr:stedsnr" v="759473" />
	</node>
	<node lat="62.190286109283434" lon="7.040897221037258" id="-3027">
		<tag k="name" v="Smalneset" />
=======
	<node id="-68110" lat="62.3089638931" lon="7.02908055523">
		<tag k="name" v="Kolvneset" />
		<tag k="natural" v="cape" />
		<tag k="ssr:stedsnr" v="395384" />
	</node>
	<node id="-68108" lat="62.3086055533" lon="7.01954444843">
		<tag k="name" v="Ansoknausta" />
		<tag k="natural" v="beach" />
		<tag k="place" v="locality" />
		<tag k="ssr:stedsnr" v="394992" />
	</node>
	<node id="-68106" lat="62.3088222242" lon="7.05236944008">
		<tag k="name" v="Liasjøen" />
		<tag k="natural" v="beach" />
		<tag k="place" v="locality" />
		<tag k="ssr:stedsnr" v="394947" />
	</node>
	<node id="-67159" lat="62.0954469339" lon="7.08055231973">
		<tag k="bay" v="fjord" />
		<tag k="name" v="Geirangerfjorden" />
		<tag k="natural" v="bay" />
		<tag k="ssr:stedsnr" v="617432" />
	</node>
	<node id="-67591" lat="62.3087972189" lon="7.02683888568">
		<tag k="name" v="Århola" />
		<tag k="natural" v="bay" />
		<tag k="ssr:stedsnr" v="30995" />
	</node>
	<node id="-66561" lat="62.1287638879" lon="6.93200832517">
		<tag k="name" v="Hammaren" />
		<tag k="natural" v="cape" />
		<tag k="ssr:stedsnr" v="72338" />
	</node>
	<node id="-67587" lat="62.3374944466" lon="6.91634722891">
		<tag k="name" v="Skotungvika" />
		<tag k="natural" v="bay" />
		<tag k="ssr:stedsnr" v="30896" />
	</node>
	<node id="-67073" lat="62.330747224" lon="6.91883611792">
		<tag k="name" v="Hatlevikneset" />
>>>>>>> e1d4bc35ff8a6074a6f2e91616a996b547c36f15
		<tag k="natural" v="cape" />
		<tag k="ssr:stedsnr" v="760271" />
	</node>
<<<<<<< HEAD
	<node lat="62.20179444191644" lon="7.037466657912986" id="-3029">
		<tag k="name" v="Kalvesanden" />
		<tag k="natural" v="beach" />
		<tag k="ssr:stedsnr" v="760415" />
	</node>
	<node lat="62.28403610974861" lon="7.006941664790847" id="-3088">
		<tag k="name" v="Uksagneset" />
		<tag k="natural" v="cape" />
		<tag k="ssr:stedsnr" v="820426" />
	</node>
	<node lat="62.21776388656667" lon="7.0048305644723" id="-3130">
		<tag k="name" v="Gryddevikane" />
		<tag k="natural" v="bay" />
		<tag k="ssr:stedsnr" v="860355" />
	</node>
	<node lat="62.19539326890393" lon="7.038268167057032" id="-3134">
		<tag k="name" v="Vindsneset" />
		<tag k="natural" v="cape" />
		<tag k="ssr:stedsnr" v="860383" />
	</node>
	<node lat="62.29191944160504" lon="6.965480559281257" id="-3153">
		<tag k="name" v="Helsemvika" />
		<tag k="natural" v="bay" />
		<tag k="ssr:stedsnr" v="861548" />
	</node>
	<node lat="62.120402782052686" lon="6.929763880658133" id="-3172">
		<tag k="name" v="Ljøneset" />
		<tag k="natural" v="cape" />
		<tag k="ssr:stedsnr" v="881477" />
	</node>
	<node lat="62.10122500203427" lon="7.203016669232789" id="-3174">
		<tag k="name" v="Maråkvika" />
		<tag k="natural" v="bay" />
		<tag k="ssr:stedsnr" v="881547" />
	</node>
	<node lat="62.29485555917489" lon="6.964144446283506" id="-3232">
		<tag k="name" v="Helsemklubben" />
		<tag k="natural" v="cape" />
		<tag k="ssr:stedsnr" v="942388" />
	</node>
	<node lat="62.144477775322564" lon="6.991963895434202" id="-3238">
		<tag k="name" v="Furneset" />
		<tag k="natural" v="cape" />
		<tag k="ssr:stedsnr" v="942594" />
	</node>
	<node lat="62.11137500118101" lon="7.117972220493123" id="-3241">
		<tag k="name" v="Skagenobba" />
		<tag k="natural" v="cape" />
		<tag k="ssr:stedsnr" v="942561" />
	</node>
	<node lat="62.28636389097989" lon="6.9912805629967645" id="-3248">
		<tag k="name" v="Seisteinneset" />
		<tag k="natural" v="cape" />
		<tag k="ssr:stedsnr" v="942935" />
	</node>
	<node lat="62.117474996635295" lon="6.963236117575804" id="-3264">
		<tag k="name" v="Storevika" />
		<tag k="natural" v="bay" />
		<tag k="ssr:stedsnr" v="943793" />
	</node>
	<node lat="62.1104333348848" lon="6.985861117826225" id="-3266">
		<tag k="name" v="Årevika" />
		<tag k="natural" v="bay" />
		<tag k="ssr:stedsnr" v="943805" />
	</node>
	<node lat="62.10427777774066" lon="6.953058340727733" id="-3268">
		<tag k="name" v="Rindane" />
		<tag k="natural" v="beach" />
		<tag k="ssr:stedsnr" v="943834" />
	</node>
=======
>>>>>>> e1d4bc35ff8a6074a6f2e91616a996b547c36f15
</osm>
