<?xml version="1.0" encoding="UTF-8"?>
<osm generator="osmapis" version="0.6">
	<node id="-68608" lat="62.1248020677" lon="7.18385550102">
		<tag k="name" v="Brattebakksvingen" />
		<tag k="place" v="locality" />
		<tag k="ssr:stedsnr" v="975054" />
	</node>
	<node id="-68607" lat="62.120938352" lon="7.17817699627">
		<tag k="name" v="Kleivasvingen" />
		<tag k="place" v="locality" />
		<tag k="ssr:stedsnr" v="975053" />
	</node>
	<node id="-68606" lat="62.1205745329" lon="7.18424759098">
		<tag k="name" v="Gjølsvingen" />
		<tag k="place" v="locality" />
		<tag k="ssr:stedsnr" v="975052" />
	</node>
	<node id="-68605" lat="62.1199119557" lon="7.178116945">
		<tag k="name" v="Skredhagesvingen" />
		<tag k="place" v="locality" />
		<tag k="ssr:stedsnr" v="975051" />
	</node>
	<node id="-68604" lat="62.1186862568" lon="7.18456912858">
		<tag k="name" v="Storåkersvingen" />
		<tag k="place" v="locality" />
		<tag k="ssr:stedsnr" v="975050" />
	</node>
	<node id="-68603" lat="62.1189242827" lon="7.17945370079">
		<tag k="name" v="Svarthammarsvingen" />
		<tag k="place" v="locality" />
		<tag k="ssr:stedsnr" v="975049" />
	</node>
	<node id="-68602" lat="62.1174982456" lon="7.18490957366">
		<tag k="name" v="Ekresvingen" />
		<tag k="place" v="locality" />
		<tag k="ssr:stedsnr" v="975048" />
	</node>
	<node id="-68601" lat="62.1181702134" lon="7.17998557916">
		<tag k="name" v="Seljesvingen" />
		<tag k="place" v="locality" />
		<tag k="ssr:stedsnr" v="975047" />
	</node>
	<node id="-66543" lat="62.292574998" lon="6.79958611198">
		<tag k="bridge" v="yes" />
		<tag k="layer" v="1" />
		<tag k="name" v="Elvakrokbrua" />
		<tag k="ssr:stedsnr" v="27713" />
	</node>
	<node id="-66542" lat="62.0287000014" lon="6.74544999303">
		<tag k="bridge" v="yes" />
		<tag k="layer" v="1" />
		<tag k="name" v="Røyrhusbrua" />
		<tag k="ssr:stedsnr" v="27707" />
	</node>
	<node id="-67069" lat="62.0944611123" lon="7.21807222936">
		<tag k="bridge" v="yes" />
		<tag k="layer" v="1" />
		<tag k="name" v="Kopebrua" />
		<tag k="ssr:stedsnr" v="512704" />
	</node>
	<node id="-66540" lat="62.2808083331" lon="6.98201666124">
		<tag k="bridge" v="yes" />
		<tag k="layer" v="1" />
		<tag k="name" v="Uksabrua" />
		<tag k="ssr:stedsnr" v="23414" />
	</node>
	<node id="-66539" lat="62.2837249988" lon="6.88240832441">
		<tag k="bridge" v="yes" />
		<tag k="layer" v="1" />
		<tag k="name" v="Fursetbrua" />
		<tag k="ssr:stedsnr" v="23409" />
	</node>
	<node id="-66538" lat="62.0302666695" lon="6.7464638826">
		<tag k="highway" v="path" />
		<tag k="name" v="Postvegen" />
		<tag k="ssr:stedsnr" v="22817" />
	</node>
	<node id="-67067" lat="62.0866083345" lon="6.86426110362">
		<tag k="bridge" v="yes" />
		<tag k="layer" v="1" />
		<tag k="name" v="Høgebrua" />
		<tag k="ssr:stedsnr" v="506519" />
	</node>
	<node id="-68561" lat="62.1032111135" lon="7.20344722435">
		<tag k="amenity" v="ferry_terminal" />
		<tag k="name" v="Geiranger ferjekai" />
		<tag k="ssr:stedsnr" v="823277" />
	</node>
	<node id="-67530" lat="62.0874305563" lon="6.8601305551">
		<tag k="bridge" v="yes" />
		<tag k="layer" v="1" />
		<tag k="name" v="Juvebrua" />
		<tag k="ssr:stedsnr" v="934430" />
	</node>
	<node id="-68537" lat="62.0777638886" lon="6.79137221508">
		<tag k="bridge" v="yes" />
		<tag k="layer" v="1" />
		<tag k="name" v="Fossebrua" />
		<tag k="ssr:stedsnr" v="820537" />
	</node>
	<node id="-67912" lat="62.3263222262" lon="7.04071667461">
		<tag k="ford" v="yes" />
		<tag k="name" v="Hallevadet" />
		<tag k="place" v="locality" />
		<tag k="ssr:stedsnr" v="212980" />
	</node>
	<node id="-68523" lat="62.2886000025" lon="6.9011472135">
		<tag k="bridge" v="yes" />
		<tag k="layer" v="1" />
		<tag k="name" v="Dregebrua" />
		<tag k="ssr:stedsnr" v="816729" />
	</node>
	<node id="-66631" lat="62.3081722199" lon="6.92437222098">
		<tag k="bridge" v="yes" />
		<tag k="layer" v="1" />
		<tag k="name" v="Ringstad gangbru" />
		<tag k="ssr:stedsnr" v="270684" />
	</node>
	<node id="-68166" lat="62.1106638875" lon="6.74259444362">
		<tag k="bridge" v="yes" />
		<tag k="layer" v="1" />
		<tag k="name" v="Jakob Moen-brua" />
		<tag k="ssr:stedsnr" v="410887" />
	</node>
	<node id="-68000" lat="62.0846138893" lon="6.83818334063">
		<tag k="bridge" v="yes" />
		<tag k="layer" v="1" />
		<tag k="name" v="Sveabakkbrua" />
		<tag k="ssr:stedsnr" v="330725" />
	</node>
	<node id="-67999" lat="62.0958333316" lon="7.21605832609">
		<tag k="bridge" v="yes" />
		<tag k="layer" v="1" />
		<tag k="name" v="Gjerdebrua" />
		<tag k="ssr:stedsnr" v="330719" />
	</node>
	<node id="-67486" lat="62.0277500043" lon="6.95179723048">
		<tag k="bridge" v="yes" />
		<tag k="layer" v="1" />
		<tag k="name" v="Espebrua" />
		<tag k="ssr:stedsnr" v="943644" />
	</node>
	<node id="-66969" lat="62.0389888906" lon="6.98650833412">
		<tag k="bridge" v="yes" />
		<tag k="layer" v="1" />
		<tag k="name" v="Vargjølbrua" />
		<tag k="ssr:stedsnr" v="508389" />
	</node>
	<node id="-66968" lat="62.3071833345" lon="6.93618888211">
		<tag k="bridge" v="yes" />
		<tag k="layer" v="1" />
		<tag k="name" v="Osbrua" />
		<tag k="ssr:stedsnr" v="508384" />
	</node>
	<node id="-66798" lat="62.0749583309" lon="6.91828889809">
		<tag k="highway" v="path" />
		<tag k="name" v="Gjølvegen" />
		<tag k="ssr:stedsnr" v="457241" />
	</node>
	<node id="-66957" lat="62.086394444" lon="6.86892499111">
		<tag k="bridge" v="yes" />
		<tag k="layer" v="1" />
		<tag k="name" v="Hellesyltbrua" />
		<tag k="ssr:stedsnr" v="385511" />
	</node>
	<node id="-68480" lat="62.0052972209" lon="6.78273611717">
		<tag k="bridge" v="yes" />
		<tag k="layer" v="1" />
		<tag k="name" v="Geitabru" />
		<tag k="ssr:stedsnr" v="774015" />
	</node>
	<node id="-68478" lat="62.2914777823" lon="6.8604305553">
		<tag k="ford" v="yes" />
		<tag k="name" v="Syrevadet" />
		<tag k="place" v="locality" />
		<tag k="ssr:stedsnr" v="763798" />
	</node>
	<node id="-68470" lat="62.3092416708" lon="6.94955277439">
		<tag k="amenity" v="ferry_terminal" />
		<tag k="name" v="Stranda ferjekai" />
		<tag k="ssr:stedsnr" v="762299" />
	</node>
	<node id="-67437" lat="62.2985111089" lon="7.10730832999">
		<tag k="highway" v="path" />
		<tag k="name" v="Vikevegen" />
		<tag k="ssr:stedsnr" v="941147" />
	</node>
	<node id="-67132" lat="62.0901333366" lon="6.85233889455">
		<tag k="bridge" v="yes" />
		<tag k="layer" v="1" />
		<tag k="name" v="Øygardsbrua" />
		<tag k="ssr:stedsnr" v="573669" />
	</node>
	<node id="-67427" lat="62.2904861072" lon="6.84150278575">
		<tag k="bridge" v="yes" />
		<tag k="layer" v="1" />
		<tag k="name" v="Fjellsætrebrua" />
		<tag k="ssr:stedsnr" v="937727" />
	</node>
	<node id="-67426" lat="62.0617500044" lon="6.79226945121">
		<tag k="bridge" v="yes" />
		<tag k="layer" v="1" />
		<tag k="name" v="Storhaugbrua" />
		<tag k="ssr:stedsnr" v="937721" />
	</node>
	<node id="-67425" lat="62.3081361139" lon="6.92446666831">
		<tag k="bridge" v="yes" />
		<tag k="layer" v="1" />
		<tag k="name" v="Ringstadbrua" />
		<tag k="ssr:stedsnr" v="937714" />
	</node>
	<node id="-66891" lat="62.1227833293" lon="6.92022777006">
		<tag k="bridge" v="yes" />
		<tag k="layer" v="1" />
		<tag k="name" v="Sagelvbrua" />
		<tag k="ssr:stedsnr" v="477716" />
	</node>
	<node id="-68424" lat="62.3008972222" lon="7.12734445176">
		<tag k="highway" v="path" />
		<tag k="name" v="Nedsteråsa" />
		<tag k="ssr:stedsnr" v="758362" />
	</node>
	<node id="-68422" lat="62.1575111079" lon="6.92451110979">
		<tag k="bridge" v="yes" />
		<tag k="layer" v="1" />
		<tag k="name" v="Øvste Herdalselvbrua" />
		<tag k="ssr:stedsnr" v="755686" />
	</node>
	<node id="-68421" lat="62.2900111086" lon="6.8437611133">
		<tag k="bridge" v="yes" />
		<tag k="layer" v="1" />
		<tag k="name" v="Fursetsætrebrua" />
		<tag k="ssr:stedsnr" v="755683" />
	</node>
	<node id="-68420" lat="62.1642194441" lon="6.92638055623">
		<tag k="bridge" v="yes" />
		<tag k="layer" v="1" />
		<tag k="name" v="Nedste Herdalselvbrua" />
		<tag k="ssr:stedsnr" v="755681" />
	</node>
	<node id="-68419" lat="62.0948000039" lon="7.22207500854">
		<tag k="bridge" v="yes" />
		<tag k="layer" v="1" />
		<tag k="name" v="Flåbrua" />
		<tag k="ssr:stedsnr" v="755672" />
	</node>
	<node id="-68418" lat="62.0328777751" lon="7.00781666782">
		<tag k="bridge" v="yes" />
		<tag k="layer" v="1" />
		<tag k="name" v="Bjørdalsbrua" />
		<tag k="ssr:stedsnr" v="751381" />
	</node>
	<node id="-68417" lat="62.0697944449" lon="6.92147500548">
		<tag k="bridge" v="yes" />
		<tag k="layer" v="1" />
		<tag k="name" v="Ospeholsbrua" />
		<tag k="ssr:stedsnr" v="751653" />
	</node>
	<node id="-67904" lat="62.0562944474" lon="6.94076389634">
		<tag k="bridge" v="yes" />
		<tag k="layer" v="1" />
		<tag k="name" v="Storsteinsbrua" />
		<tag k="ssr:stedsnr" v="205666" />
	</node>
	<node id="-67903" lat="62.0383111075" lon="6.9951638833">
		<tag k="bridge" v="yes" />
		<tag k="layer" v="1" />
		<tag k="name" v="Holebrua" />
		<tag k="ssr:stedsnr" v="205392" />
	</node>
	<node id="-66861" lat="62.0987111107" lon="7.22360555899">
		<tag k="bridge" v="yes" />
		<tag k="layer" v="1" />
		<tag k="name" v="Vesteråsbrua" />
		<tag k="ssr:stedsnr" v="278638" />
	</node>
	<node id="-67357" lat="62.1262761144" lon="7.16724303064">
		<tag k="name" v="Ørnesvingen" />
		<tag k="place" v="locality" />
		<tag k="ssr:stedsnr" v="921416" />
	</node>
	<node id="-67131" lat="62.0813861074" lon="6.83449999805">
		<tag k="bridge" v="yes" />
		<tag k="layer" v="1" />
		<tag k="name" v="Torvløysebrua" />
		<tag k="ssr:stedsnr" v="573666" />
	</node>
	<node id="-68372" lat="62.3082000013" lon="6.94689722195">
		<tag k="junction" v="yes" />
		<tag k="name" v="Almenningen" />
		<tag k="place" v="locality" />
		<tag k="ssr:stedsnr" v="642779" />
	</node>
	<node id="-67346" lat="62.1005499957" lon="6.76002221998">
		<tag k="bridge" v="yes" />
		<tag k="layer" v="1" />
		<tag k="name" v="Nyebrua" />
		<tag k="ssr:stedsnr" v="774903" />
	</node>
	<node id="-67345" lat="62.2923166634" lon="6.87930555317">
		<tag k="highway" v="path" />
		<tag k="name" v="Gamlevegen" />
		<tag k="ssr:stedsnr" v="763816" />
	</node>
	<node id="-66799" lat="62.073038889" lon="6.93679166297">
		<tag k="highway" v="path" />
		<tag k="name" v="Mestien" />
		<tag k="ssr:stedsnr" v="457245" />
	</node>
	<node id="-67310" lat="62.3083332903" lon="7.00579874629">
		<tag k="amenity" v="ferry_terminal" />
		<tag k="name" v="Liabygda ferjekai" />
		<tag k="ssr:stedsnr" v="702325" />
	</node>
	<node id="-67276" lat="62.0642999959" lon="7.26255278207">
		<tag k="bridge" v="yes" />
		<tag k="layer" v="1" />
		<tag k="name" v="Kvanndalsbrua" />
		<tag k="ssr:stedsnr" v="694665" />
	</node>
	<node id="-66751" lat="62.2882111118" lon="6.9659611152">
		<tag k="bridge" v="yes" />
		<tag k="layer" v="1" />
		<tag k="name" v="Skorbøbrua" />
		<tag k="ssr:stedsnr" v="448386" />
	</node>
	<node id="-66748" lat="62.1105694413" lon="6.73832222072">
		<tag k="bridge" v="yes" />
		<tag k="layer" v="1" />
		<tag k="name" v="Knut Moen-brua" />
		<tag k="ssr:stedsnr" v="228910" />
	</node>
	<node id="-67231" lat="62.1452249978" lon="7.00163610506">
		<tag k="highway" v="path" />
		<tag k="name" v="Kvernavegen" />
		<tag k="ssr:stedsnr" v="882315" />
	</node>
	<node id="-67949" lat="62.206897222" lon="6.93090556119">
		<tag k="ford" v="yes" />
		<tag k="name" v="Tverrvadet" />
		<tag k="place" v="locality" />
		<tag k="ssr:stedsnr" v="214794" />
	</node>
	<node id="-68234" lat="62.1302361076" lon="6.83327776948">
		<tag k="bridge" v="yes" />
		<tag k="layer" v="1" />
		<tag k="name" v="Gjerdebøbrua" />
		<tag k="ssr:stedsnr" v="576762" />
	</node>
	<node id="-68223" lat="62.0729888886" lon="6.91159444167">
		<tag k="bridge" v="yes" />
		<tag k="layer" v="1" />
		<tag k="name" v="Stadheimsbrua" />
		<tag k="ssr:stedsnr" v="569633" />
	</node>
	<node id="-68220" lat="62.0498777786" lon="6.94803333591">
		<tag k="bridge" v="yes" />
		<tag k="layer" v="1" />
		<tag k="name" v="Myrebrua" />
		<tag k="ssr:stedsnr" v="568765" />
	</node>
	<node id="-67186" lat="62.3155527817" lon="7.05372777464">
		<tag k="bridge" v="yes" />
		<tag k="layer" v="1" />
		<tag k="name" v="Ringsetbrua" />
		<tag k="ssr:stedsnr" v="876667" />
	</node>
	<node id="-66673" lat="62.0555277758" lon="6.91615000791">
		<tag k="ford" v="yes" />
		<tag k="name" v="Styggevadet" />
		<tag k="place" v="locality" />
		<tag k="ssr:stedsnr" v="275279" />
	</node>
	<node id="-67693" lat="62.0414916641" lon="6.7881500071">
		<tag k="bridge" v="yes" />
		<tag k="layer" v="1" />
		<tag k="name" v="Tronstadbrua" />
		<tag k="ssr:stedsnr" v="88642" />
	</node>
	<node id="-66660" lat="62.2341916624" lon="6.78684721514">
		<tag k="ford" v="yes" />
		<tag k="name" v="Krokvadet" />
		<tag k="place" v="locality" />
		<tag k="ssr:stedsnr" v="274965" />
	</node>
	<node id="-66659" lat="62.2148750038" lon="6.9203916606">
		<tag k="highway" v="path" />
		<tag k="name" v="Alusvegen" />
		<tag k="ssr:stedsnr" v="274821" />
	</node>
	<node id="-67166" lat="62.2049444415" lon="6.9225138984">
		<tag k="bridge" v="yes" />
		<tag k="layer" v="1" />
		<tag k="name" v="Ørvollsbrua" />
		<tag k="ssr:stedsnr" v="633712" />
	</node>
	<node id="-67165" lat="62.0523166676" lon="6.79121945158">
		<tag k="bridge" v="yes" />
		<tag k="layer" v="1" />
		<tag k="name" v="Slettekloppa" />
		<tag k="ssr:stedsnr" v="633707" />
	</node>
	<node id="-66646" lat="62.1227833293" lon="6.92022777006">
		<tag k="bridge" v="yes" />
		<tag k="layer" v="1" />
		<tag k="name" v="Ljøbrua" />
		<tag k="ssr:stedsnr" v="148713" />
	</node>
	<node id="-66645" lat="62.1578138876" lon="6.92469999624">
		<tag k="bridge" v="yes" />
		<tag k="layer" v="1" />
		<tag k="name" v="Nonselvbrua" />
		<tag k="ssr:stedsnr" v="148712" />
	</node>
	<node id="-67153" lat="62.1231416651" lon="6.73898333397">
		<tag k="bridge" v="yes" />
		<tag k="layer" v="1" />
		<tag k="name" v="Geilskredbrua" />
		<tag k="ssr:stedsnr" v="713896" />
	</node>
	<node id="-68096" lat="62.2926472197" lon="6.80082777659">
		<tag k="bridge" v="yes" />
		<tag k="layer" v="1" />
		<tag k="name" v="Elvakrokkloppa" />
		<tag k="ssr:stedsnr" v="391715" />
	</node>
	<node id="-66632" lat="62.0947861145" lon="7.22660833419">
		<tag k="bridge" v="yes" />
		<tag k="layer" v="1" />
		<tag k="name" v="Holebrua" />
		<tag k="ssr:stedsnr" v="270689" />
	</node>
	<node id="-67655" lat="62.080350001" lon="6.79124444939">
		<tag k="bridge" v="yes" />
		<tag k="layer" v="1" />
		<tag k="name" v="Leitebrua" />
		<tag k="ssr:stedsnr" v="46436" />
	</node>
	<node id="-66630" lat="62.1161305582" lon="7.18560277726">
		<tag k="bridge" v="yes" />
		<tag k="layer" v="1" />
		<tag k="name" v="Grandebrua" />
		<tag k="ssr:stedsnr" v="270683" />
	</node>
	<node id="-67133" lat="62.0728666667" lon="6.80099443606">
		<tag k="bridge" v="yes" />
		<tag k="layer" v="1" />
		<tag k="name" v="Litlebøbrua" />
		<tag k="ssr:stedsnr" v="573672" />
	</node>
	<node id="-68156" lat="62.273430553" lon="6.99032222299">
		<tag k="highway" v="path" />
		<tag k="name" v="Bjønnastien" />
		<tag k="ssr:stedsnr" v="398726" />
	</node>
	<node id="-67643" lat="62.3043777795" lon="6.9384972146">
		<tag k="highway" v="path" />
		<tag k="name" v="Hjellestien" />
		<tag k="ssr:stedsnr" v="35786" />
	</node>
	<node id="-67641" lat="62.0875138921" lon="6.8708305482">
		<tag k="amenity" v="ferry_terminal" />
		<tag k="name" v="Hellesylt ferjekai" />
		<tag k="ssr:stedsnr" v="34282" />
	</node>
	<node id="-66616" lat="62.0772333357" lon="6.88540278681">
		<tag k="bridge" v="yes" />
		<tag k="layer" v="1" />
		<tag k="name" v="Husøykloppa" />
		<tag k="ssr:stedsnr" v="266624" />
	</node>
	<node id="-68095" lat="62.0521222177" lon="7.25273610295">
		<tag k="bridge" v="yes" />
		<tag k="layer" v="1" />
		<tag k="name" v="Nedste Blåfjellbrua" />
		<tag k="ssr:stedsnr" v="391700" />
	</node>
	<node id="-67098" lat="62.0845833329" lon="7.01697500689">
		<tag k="fixme" v="verify maritime location" />
		<tag k="mooring" v="yes" />
		<tag k="name" v="Fagrestøa" />
		<tag k="place" v="locality" />
		<tag k="ssr:stedsnr" v="700304" />
	</node>
	<node id="-67608" lat="62.0677388887" lon="6.92747499972">
		<tag k="man_made" v="cairn" />
		<tag k="name" v="Varden" />
		<tag k="place" v="locality" />
		<tag k="ssr:stedsnr" v="32250" />
	</node>
	<node id="-66570" lat="62.0508055529" lon="7.25075833765">
		<tag k="bridge" v="yes" />
		<tag k="layer" v="1" />
		<tag k="name" v="Øvste Blåfjellbrua" />
		<tag k="ssr:stedsnr" v="88635" />
	</node>
	<node id="-66569" lat="62.0972416647" lon="7.20939166159">
		<tag k="bridge" v="yes" />
		<tag k="layer" v="1" />
		<tag k="name" v="Vinjebrua" />
		<tag k="ssr:stedsnr" v="88622" />
	</node>
	<node id="-68101" lat="62.2958138846" lon="6.84508055824">
		<tag k="highway" v="path" />
		<tag k="name" v="Stien" />
		<tag k="ssr:stedsnr" v="394395" />
	</node>
	<node id="-68610" lat="62.1243928483" lon="7.17996867289">
		<tag k="name" v="Bjørkhaugsvingen" />
		<tag k="place" v="locality" />
		<tag k="ssr:stedsnr" v="975056" />
	</node>
	<node id="-68609" lat="62.1237497479" lon="7.1716284907">
		<tag k="name" v="Årsethaugsvingen" />
		<tag k="place" v="locality" />
		<tag k="ssr:stedsnr" v="975055" />
	</node>
</osm>
