<?xml version="1.0" encoding="UTF-8"?>
<<<<<<< HEAD
<osm version="0.6" generator="osmapis">
	<node lat="62.12923332980561" lon="6.83455556199079" id="-1182">
		<tag k="name" v="Gjerdebøen" />
		<tag k="natural" v="wetland" />
		<tag k="ssr:stedsnr" v="30717" />
	</node>
	<node lat="62.09590277450829" lon="6.860047219566771" id="-1183">
		<tag k="name" v="Kvilarsteinen" />
		<tag k="natural" v="stone" />
		<tag k="ssr:stedsnr" v="31108" />
	</node>
	<node lat="62.08797777544559" lon="7.070602775731427" id="-1200">
		<tag k="name" v="Ljosurtåna" />
		<tag k="natural" v="scree" />
		<tag k="ssr:stedsnr" v="32713" />
	</node>
	<node lat="62.35515277486885" lon="6.892558341131785" id="-1228">
		<tag k="name" v="Almflåa" />
		<tag k="place" v="locality" />
		<tag k="ssr:stedsnr" v="91068" />
	</node>
	<node lat="62.164086109270066" lon="6.975744449039086" id="-1231">
		<tag k="fixme" v="multiple name tags, choose one and add the other to alt_name" />
		<tag k="name" v="Breidfonna;Breifonna" />
		<tag k="place" v="locality" />
		<tag k="ssr:stedsnr" v="92478" />
	</node>
	<node lat="62.26421111222477" lon="6.970897222465949" id="-1242">
		<tag k="name" v="Alfarmyra" />
		<tag k="natural" v="wetland" />
		<tag k="ssr:stedsnr" v="92986" />
	</node>
	<node lat="62.14823611488067" lon="6.950922219269636" id="-1246">
		<tag k="name" v="Johannesflåna" />
		<tag k="place" v="locality" />
		<tag k="ssr:stedsnr" v="93285" />
	</node>
	<node lat="62.10197500239072" lon="7.009099996950507" id="-1247">
		<tag k="name" v="Korsflåna" />
		<tag k="place" v="locality" />
		<tag k="ssr:stedsnr" v="93177" />
	</node>
	<node lat="62.09835555661249" lon="7.101566665005587" id="-1248">
		<tag k="name" v="Storesteinen" />
		<tag k="natural" v="stone" />
		<tag k="ssr:stedsnr" v="93561" />
	</node>
	<node lat="62.04742777486874" lon="7.050402782196021" id="-1255">
		<tag k="historic" v="shieling" />
		<tag k="name" v="Heimesætra" />
		<tag k="place" v="locality" />
		<tag k="ssr:stedsnr" v="93622" />
	</node>
	<node lat="62.11435277466479" lon="6.976747229948579" id="-1256">
=======
<osm generator="osmapis" version="0.6">
	<node id="-67072" lat="62.3368722229" lon="6.9168305546">
		<tag k="name" v="Toreslætta" />
		<tag k="place" v="locality" />
		<tag k="ssr:stedsnr" v="515907" />
	</node>
	<node id="-66986" lat="62.0342194459" lon="6.77540000625">
		<tag k="name" v="Smågrøvene" />
		<tag k="natural" v="wetland" />
		<tag k="ssr:stedsnr" v="517304" />
	</node>
	<node id="-66815" lat="62.0290694436" lon="7.26343054805">
		<tag k="landuse" v="quarry" />
		<tag k="name" v="Grushola" />
		<tag k="ssr:stedsnr" v="457795" />
	</node>
	<node id="-66548" lat="62.1292333298" lon="6.83455556199">
		<tag k="name" v="Gjerdebøen" />
		<tag k="natural" v="wetland" />
		<tag k="ssr:stedsnr" v="30717" />
	</node>
	<node id="-66547" lat="62.0028333303" lon="6.77343889605">
		<tag k="name" v="Storsteinane" />
		<tag k="natural" v="scree" />
		<tag k="ssr:stedsnr" v="228035" />
	</node>
	<node id="-66983" lat="62.0346055545" lon="6.78903332464">
		<tag k="name" v="Tverrabrumyra" />
		<tag k="natural" v="wetland" />
		<tag k="ssr:stedsnr" v="516919" />
	</node>
	<node id="-67558" lat="62.1472396373" lon="7.20779621486">
		<tag k="name" v="Gråsteinmyrane" />
		<tag k="natural" v="wetland" />
		<tag k="ssr:stedsnr" v="11355" />
	</node>
	<node id="-67750" lat="62.1143527747" lon="6.97674722995">
>>>>>>> e1d4bc35ff8a6074a6f2e91616a996b547c36f15
		<tag k="name" v="Fureflærne" />
		<tag k="place" v="locality" />
		<tag k="ssr:stedsnr" v="93788" />
	</node>
<<<<<<< HEAD
	<node lat="62.11898055150545" lon="6.918202785078086" id="-1260">
		<tag k="name" v="Beithoggane" />
		<tag k="place" v="locality" />
		<tag k="ssr:stedsnr" v="113636" />
	</node>
	<node lat="62.31007778170839" lon="7.082183331289742" id="-1303">
		<tag k="name" v="Langmyra" />
		<tag k="natural" v="wetland" />
		<tag k="ssr:stedsnr" v="151163" />
	</node>
	<node lat="62.18543055347282" lon="6.93091945053967" id="-1315">
		<tag k="name" v="Kvia" />
		<tag k="place" v="locality" />
		<tag k="ssr:stedsnr" v="153814" />
	</node>
	<node lat="62.32005833045559" lon="6.92763889392357" id="-1325">
		<tag k="name" v="Kvannasteinen" />
		<tag k="natural" v="stone" />
		<tag k="ssr:stedsnr" v="157797" />
	</node>
	<node lat="62.09584999577099" lon="6.875094447267388" id="-1339">
		<tag k="name" v="Stabben" />
		<tag k="natural" v="stone" />
		<tag k="ssr:stedsnr" v="213113" />
	</node>
	<node lat="62.25386388860427" lon="6.870177782987392" id="-1344">
		<tag k="name" v="Myrane" />
		<tag k="natural" v="wetland" />
		<tag k="ssr:stedsnr" v="213680" />
	</node>
	<node lat="62.050622218168265" lon="6.789380559590694" id="-1345">
		<tag k="name" v="Sortøy" />
		<tag k="natural" v="wetland" />
		<tag k="ssr:stedsnr" v="213825" />
	</node>
	<node lat="62.12129166536191" lon="6.843913894285619" id="-1346">
		<tag k="name" v="Heimsætremyra" />
		<tag k="natural" v="wetland" />
		<tag k="ssr:stedsnr" v="213732" />
	</node>
	<node lat="62.15759722244452" lon="7.025255563783608" id="-1347">
		<tag k="name" v="Brattsvødene" />
		<tag k="place" v="locality" />
		<tag k="ssr:stedsnr" v="214092" />
	</node>
	<node lat="62.14497500075116" lon="6.947261119878157" id="-1351">
		<tag k="name" v="Almflærne" />
		<tag k="place" v="locality" />
		<tag k="ssr:stedsnr" v="214303" />
	</node>
	<node lat="62.049469447703984" lon="7.050086115438826" id="-1357">
		<tag k="historic" v="shieling" />
		<tag k="name" v="Heimesætra" />
		<tag k="place" v="locality" />
		<tag k="ssr:stedsnr" v="214725" />
	</node>
	<node lat="62.04922777673104" lon="6.748247224858678" id="-1364">
		<tag k="name" v="Bjørnasteinen" />
		<tag k="natural" v="stone" />
		<tag k="ssr:stedsnr" v="214796" />
	</node>
	<node lat="62.03756944544889" lon="7.2581666599196515" id="-1367">
		<tag k="name" v="Tusenmetersteinen" />
		<tag k="natural" v="stone" />
		<tag k="ssr:stedsnr" v="214830" />
	</node>
	<node lat="62.297655551989074" lon="6.89966110500347" id="-1374">
		<tag k="name" v="Guttormgjerdet" />
		<tag k="place" v="locality" />
		<tag k="ssr:stedsnr" v="217780" />
	</node>
	<node lat="62.09643055688333" lon="7.212977775962209" id="-1377">
		<tag k="name" v="Øyane" />
		<tag k="place" v="locality" />
		<tag k="ssr:stedsnr" v="217789" />
	</node>
	<node lat="62.00283333033047" lon="6.773438896052414" id="-1382">
		<tag k="name" v="Storsteinane" />
		<tag k="natural" v="scree" />
		<tag k="ssr:stedsnr" v="228035" />
	</node>
	<node lat="62.10674722312715" lon="6.740650001058707" id="-1412">
		<tag k="name" v="Myrane" />
		<tag k="natural" v="wetland" />
		<tag k="ssr:stedsnr" v="456585" />
	</node>
	<node lat="62.081255556670534" lon="6.909855557691979" id="-1419">
		<tag k="name" v="Hesten" />
		<tag k="natural" v="stone" />
		<tag k="ssr:stedsnr" v="457236" />
	</node>
	<node lat="62.084355553988566" lon="7.021427781131294" id="-1422">
		<tag k="name" v="Storsteinane" />
		<tag k="natural" v="stone" />
		<tag k="ssr:stedsnr" v="457251" />
	</node>
	<node lat="62.09496111093703" lon="7.094633328844552" id="-1429">
		<tag k="name" v="Bannarflåna" />
		<tag k="place" v="locality" />
		<tag k="ssr:stedsnr" v="457614" />
	</node>
	<node lat="62.04155000214372" lon="6.956122226989906" id="-1430">
		<tag k="name" v="Myreteigane" />
		<tag k="natural" v="wetland" />
		<tag k="ssr:stedsnr" v="457632" />
	</node>
	<node lat="62.100841667944024" lon="6.946100003539376" id="-1435">
		<tag k="name" v="Seljeflåna" />
		<tag k="place" v="locality" />
		<tag k="ssr:stedsnr" v="457753" />
	</node>
	<node lat="62.22170277808878" lon="7.0046027773590716" id="-1436">
		<tag k="name" v="Gryddeviksteinen" />
		<tag k="natural" v="stone" />
		<tag k="ssr:stedsnr" v="457853" />
	</node>
	<node lat="62.07278889181825" lon="7.24778888512436" id="-1437">
		<tag k="name" v="Moldbakk-kyrkja" />
		<tag k="natural" v="stone" />
		<tag k="ssr:stedsnr" v="457928" />
	</node>
	<node lat="62.029069443551194" lon="7.26343054805452" id="-1438">
		<tag k="landuse" v="quarry" />
		<tag k="name" v="Grushola" />
		<tag k="ssr:stedsnr" v="457795" />
	</node>
	<node lat="62.285808332766166" lon="6.98997222046395" id="-1441">
		<tag k="name" v="Seiura" />
		<tag k="natural" v="scree" />
		<tag k="ssr:stedsnr" v="457944" />
	</node>
	<node lat="62.055086107455566" lon="7.254666664173159" id="-1442">
		<tag k="name" v="Elvabreen" />
		<tag k="natural" v="glacier" />
		<tag k="ssr:stedsnr" v="457999" />
	</node>
	<node lat="62.36241111097807" lon="6.887044451085235" id="-1447">
		<tag k="name" v="Klokkarskreå" />
		<tag k="place" v="locality" />
		<tag k="ssr:stedsnr" v="273077" />
	</node>
	<node lat="62.30032222073784" lon="7.106427769593184" id="-1449">
		<tag k="name" v="Sjoamyra" />
		<tag k="natural" v="wetland" />
		<tag k="ssr:stedsnr" v="273171" />
	</node>
	<node lat="62.02564722579536" lon="6.7314944503170775" id="-1456">
		<tag k="name" v="Liamyrane" />
		<tag k="natural" v="wetland" />
		<tag k="ssr:stedsnr" v="274709" />
	</node>
	<node lat="62.08283610977962" lon="7.043252771986725" id="-1471">
		<tag k="name" v="Setarsteinen" />
		<tag k="natural" v="stone" />
		<tag k="ssr:stedsnr" v="275716" />
	</node>
	<node lat="62.10719722157215" lon="7.16119721728706" id="-1479">
		<tag k="name" v="Grønskredene" />
		<tag k="place" v="locality" />
		<tag k="ssr:stedsnr" v="278994" />
	</node>
	<node lat="61.993880558058684" lon="6.808377777403637" id="-1485">
		<tag k="name" v="Sætrekviene" />
		<tag k="place" v="locality" />
		<tag k="ssr:stedsnr" v="289031" />
	</node>
	<node lat="62.36123055938414" lon="6.884597222468921" id="-1513">
=======
	<node id="-67834" lat="62.0514194471" lon="7.06821665894">
		<tag k="historic" v="shieling" />
		<tag k="name" v="Storsteinsætra" />
		<tag k="place" v="locality" />
		<tag k="ssr:stedsnr" v="153723" />
	</node>
	<node id="-66522" lat="62.15058611" lon="7.17385832383">
		<tag k="name" v="Oppskreda" />
		<tag k="place" v="locality" />
		<tag k="ssr:stedsnr" v="217999" />
	</node>
	<node id="-67545" lat="62.1345097432" lon="7.1904631464">
		<tag k="name" v="Stigmyra" />
		<tag k="natural" v="wetland" />
		<tag k="ssr:stedsnr" v="986562" />
	</node>
	<node id="-67543" lat="62.1470877543" lon="7.20857007371">
		<tag k="historic" v="shieling" />
		<tag k="name" v="Gråsteinsætrane" />
		<tag k="place" v="locality" />
		<tag k="ssr:stedsnr" v="986560" />
	</node>
	<node id="-68565" lat="62.2775750038" lon="6.88114721596">
		<tag k="alt_name" v="Svaøyna" />
		<tag k="name" v="Sveøyna" />
		<tag k="place" v="locality" />
		<tag k="ssr:stedsnr" v="824792" />
	</node>
	<node id="-66516" lat="62.297655552" lon="6.899661105">
		<tag k="name" v="Guttormgjerdet" />
		<tag k="place" v="locality" />
		<tag k="ssr:stedsnr" v="217780" />
	</node>
	<node id="-68562" lat="62.148730553" lon="7.21107222013">
		<tag k="name" v="Gråsteinen" />
		<tag k="natural" v="stone" />
		<tag k="ssr:stedsnr" v="824759" />
	</node>
	<node id="-68560" lat="62.0423194449" lon="7.25177778681">
		<tag k="name" v="Elvabreen" />
		<tag k="natural" v="glacier" />
		<tag k="ssr:stedsnr" v="821940" />
	</node>
	<node id="-68559" lat="62.0184111151" lon="6.95160000631">
		<tag k="name" v="Breisvaet" />
		<tag k="place" v="locality" />
		<tag k="ssr:stedsnr" v="821998" />
	</node>
	<node id="-68046" lat="62.0957472244" lon="7.20373334047">
		<tag k="name" v="Høgebakkane" />
		<tag k="place" v="locality" />
		<tag k="ssr:stedsnr" v="338749" />
	</node>
	<node id="-67532" lat="62.1980750019" lon="6.90930833349">
		<tag k="name" v="Austdalsfonna" />
		<tag k="place" v="locality" />
		<tag k="ssr:stedsnr" v="941256" />
	</node>
	<node id="-68041" lat="62.0918277787" lon="7.23236943998">
		<tag k="name" v="Holemyrane" />
		<tag k="natural" v="wetland" />
		<tag k="ssr:stedsnr" v="338529" />
	</node>
	<node id="-68552" lat="62.0411722231" lon="6.98504722279">
		<tag k="name" v="Histeinura" />
		<tag k="natural" v="scree" />
		<tag k="ssr:stedsnr" v="821650" />
	</node>
	<node id="-68037" lat="62.0395250023" lon="6.95999721927">
		<tag k="name" v="Storåkrane" />
		<tag k="place" v="locality" />
		<tag k="ssr:stedsnr" v="336625" />
	</node>
	<node id="-68548" lat="62.0107694401" lon="6.76915833057">
		<tag k="name" v="Bleikemyra" />
		<tag k="natural" v="wetland" />
		<tag k="ssr:stedsnr" v="821730" />
	</node>
	<node id="-67222" lat="62.2525111131" lon="6.98132222365">
		<tag k="historic" v="shieling" />
		<tag k="name" v="Jonstølen" />
		<tag k="place" v="locality" />
		<tag k="ssr:stedsnr" v="881864" />
	</node>
	<node id="-68032" lat="62.0530277736" lon="6.93818333149">
		<tag k="name" v="Gråsteinen" />
		<tag k="natural" v="stone" />
		<tag k="ssr:stedsnr" v="336312" />
	</node>
	<node id="-67232" lat="62.1427444482" lon="6.99152776847">
		<tag k="name" v="Katthellura" />
		<tag k="natural" v="scree" />
		<tag k="ssr:stedsnr" v="882322" />
	</node>
	<node id="-67518" lat="62.2682083305" lon="6.96886388652">
		<tag k="historic" v="shieling" />
		<tag k="name" v="Årsetstølen" />
		<tag k="place" v="locality" />
		<tag k="ssr:stedsnr" v="885758" />
	</node>
	<node id="-68539" lat="62.0805194427" lon="7.22258056246">
		<tag k="name" v="Tverrabøen" />
		<tag k="natural" v="wetland" />
		<tag k="ssr:stedsnr" v="821046" />
	</node>
	<node id="-67514" lat="62.0163027763" lon="6.77858611256">
		<tag k="name" v="Kvitesteinen" />
		<tag k="natural" v="stone" />
		<tag k="ssr:stedsnr" v="881719" />
	</node>
	<node id="-67513" lat="62.1521083305" lon="7.18252500434">
		<tag k="name" v="Bergulflåene" />
		<tag k="place" v="locality" />
		<tag k="ssr:stedsnr" v="945742" />
	</node>
	<node id="-68535" lat="62.0950527762" lon="7.03883610748">
		<tag k="name" v="Kyrkja" />
		<tag k="natural" v="scree" />
		<tag k="ssr:stedsnr" v="820588" />
	</node>
	<node id="-68020" lat="62.0445111083" lon="6.7689527735">
		<tag k="name" v="Høgesteinen" />
		<tag k="natural" v="stone" />
		<tag k="ssr:stedsnr" v="335481" />
	</node>
	<node id="-66994" lat="62.0987638892" lon="7.10692221851">
		<tag k="name" v="Bukkeflåna" />
		<tag k="place" v="locality" />
		<tag k="ssr:stedsnr" v="517695" />
	</node>
	<node id="-68017" lat="62.0747111098" lon="7.21189999993">
		<tag k="name" v="Vasshammaren" />
		<tag k="place" v="locality" />
		<tag k="ssr:stedsnr" v="335245" />
	</node>
	<node id="-67498" lat="62.2113805561" lon="7.0037999964">
		<tag k="name" v="Gaddeflærne" />
		<tag k="place" v="locality" />
		<tag k="ssr:stedsnr" v="860376" />
	</node>
	<node id="-66985" lat="62.0309916674" lon="6.77515278376">
		<tag k="name" v="Kvisteinmyrane" />
		<tag k="natural" v="wetland" />
		<tag k="ssr:stedsnr" v="517299" />
	</node>
	<node id="-68008" lat="62.2958249996" lon="6.80913611973">
		<tag k="name" v="Korssvaet" />
		<tag k="place" v="locality" />
		<tag k="ssr:stedsnr" v="334352" />
	</node>
	<node id="-68519" lat="62.1782361088" lon="7.00607500876">
		<tag k="historic" v="shieling" />
		<tag k="name" v="Åkernessætra" />
		<tag k="place" v="locality" />
		<tag k="ssr:stedsnr" v="811140" />
	</node>
	<node id="-66982" lat="62.0378666657" lon="6.80691945354">
		<tag k="name" v="Svartesvøda" />
		<tag k="place" v="locality" />
		<tag k="ssr:stedsnr" v="516889" />
	</node>
	<node id="-68514" lat="62.2292334964" lon="6.71736369989">
		<tag k="name" v="Habostadbreen" />
		<tag k="natural" v="glacier" />
		<tag k="ssr:stedsnr" v="800507" />
	</node>
	<node id="-68001" lat="62.3612305594" lon="6.88459722247">
>>>>>>> e1d4bc35ff8a6074a6f2e91616a996b547c36f15
		<tag k="name" v="Brennesvaa" />
		<tag k="place" v="locality" />
		<tag k="ssr:stedsnr" v="333060" />
	</node>
<<<<<<< HEAD
	<node lat="62.07471110984633" lon="7.211899999927385" id="-1520">
		<tag k="name" v="Vasshammaren" />
		<tag k="place" v="locality" />
		<tag k="ssr:stedsnr" v="335245" />
	</node>
	<node lat="62.09783333229795" lon="7.107733342329542" id="-1527">
		<tag k="name" v="Bjørnaflåna" />
		<tag k="place" v="locality" />
		<tag k="ssr:stedsnr" v="335643" />
	</node>
	<node lat="62.09574722437079" lon="7.203733340467141" id="-1534">
		<tag k="name" v="Høgebakkane" />
		<tag k="place" v="locality" />
		<tag k="ssr:stedsnr" v="338749" />
	</node>
	<node lat="62.24316944174432" lon="6.885241660500241" id="-1571">
		<tag k="name" v="Svødene" />
		<tag k="place" v="locality" />
		<tag k="ssr:stedsnr" v="394636" />
	</node>
	<node lat="62.137555554347834" lon="6.805916665525572" id="-1572">
		<tag k="name" v="Henriksteinen" />
		<tag k="natural" v="stone" />
		<tag k="ssr:stedsnr" v="394729" />
	</node>
	<node lat="62.091538890135446" lon="6.907291668803089" id="-1576">
		<tag k="name" v="Trufteflena" />
		<tag k="place" v="locality" />
		<tag k="ssr:stedsnr" v="395082" />
	</node>
	<node lat="62.17062777736211" lon="6.9963833348781925" id="-1587">
		<tag k="name" v="Flosteinane" />
		<tag k="natural" v="stone" />
		<tag k="ssr:stedsnr" v="396080" />
	</node>
	<node lat="62.01443611552067" lon="7.018316667377696" id="-1597">
		<tag k="name" v="Hoskreda" />
		<tag k="place" v="locality" />
		<tag k="ssr:stedsnr" v="396984" />
	</node>
	<node lat="62.257963891305316" lon="6.906130557326682" id="-1623">
		<tag k="name" v="Blåura" />
		<tag k="natural" v="scree" />
		<tag k="ssr:stedsnr" v="455617" />
	</node>
	<node lat="62.33620277351587" lon="6.917700003106571" id="-1624">
		<tag k="name" v="Bjønnsteinen" />
		<tag k="natural" v="stone" />
		<tag k="ssr:stedsnr" v="455906" />
	</node>
	<node lat="62.09160555539518" lon="6.871994451890777" id="-1627">
		<tag k="name" v="Seiura" />
		<tag k="natural" v="scree" />
		<tag k="ssr:stedsnr" v="456119" />
	</node>
	<node lat="62.10777777600685" lon="6.996961104649115" id="-1634">
		<tag k="name" v="Korssvødene" />
		<tag k="place" v="locality" />
		<tag k="ssr:stedsnr" v="456617" />
	</node>
	<node lat="62.067755557850546" lon="7.257924995250325" id="-1651">
		<tag k="name" v="Norøyane" />
		<tag k="natural" v="wetland" />
		<tag k="ssr:stedsnr" v="457916" />
	</node>
	<node lat="62.06992499654821" lon="7.243208330930365" id="-1652">
		<tag k="name" v="Villøyane" />
		<tag k="natural" v="wetland" />
		<tag k="ssr:stedsnr" v="457921" />
	</node>
	<node lat="62.03460555449183" lon="6.789033324638018" id="-1696">
		<tag k="name" v="Tverrabrumyra" />
		<tag k="natural" v="wetland" />
		<tag k="ssr:stedsnr" v="516919" />
	</node>
	<node lat="62.034219445879835" lon="6.775400006245178" id="-1698">
		<tag k="name" v="Smågrøvene" />
		<tag k="natural" v="wetland" />
		<tag k="ssr:stedsnr" v="517304" />
	</node>
	<node lat="62.12332778198162" lon="7.185788881488752" id="-1717">
		<tag k="name" v="Reitane" />
		<tag k="place" v="locality" />
		<tag k="ssr:stedsnr" v="521817" />
	</node>
	<node lat="62.096305553585744" lon="7.191241668165883" id="-1762">
		<tag k="name" v="Børkaflåna" />
=======
	<node id="-66975" lat="62.1034749999" lon="6.89640277676">
		<tag k="name" v="Båtelegsvødene" />
		<tag k="place" v="locality" />
		<tag k="ssr:stedsnr" v="516086" />
	</node>
	<node id="-67998" lat="62.110583332" lon="7.20246389067">
		<tag k="name" v="Løstad" />
		<tag k="place" v="locality" />
		<tag k="ssr:stedsnr" v="326874" />
	</node>
	<node id="-67485" lat="62.0398194455" lon="6.98712499747">
		<tag k="name" v="Ytstesletta" />
		<tag k="place" v="locality" />
		<tag k="ssr:stedsnr" v="943631" />
	</node>
	<node id="-68502" lat="62.2263527733" lon="6.74067499306">
		<tag k="name" v="Vardemyra" />
		<tag k="natural" v="wetland" />
		<tag k="ssr:stedsnr" v="800277" />
	</node>
	<node id="-67477" lat="62.2545777767" lon="6.96741111068">
		<tag k="name" v="Vassetmyrane" />
		<tag k="natural" v="wetland" />
		<tag k="ssr:stedsnr" v="942844" />
	</node>
	<node id="-67476" lat="62.029308336" lon="7.27165555671">
		<tag k="name" v="Neset" />
		<tag k="place" v="locality" />
		<tag k="ssr:stedsnr" v="942801" />
	</node>
	<node id="-68499" lat="62.042874998" lon="7.18155833111">
		<tag k="name" v="Hestebreen" />
		<tag k="natural" v="glacier" />
		<tag k="ssr:stedsnr" v="800457" />
	</node>
	<node id="-67474" lat="62.0308055525" lon="7.26715000853">
		<tag k="name" v="Myra" />
		<tag k="natural" v="wetland" />
		<tag k="ssr:stedsnr" v="942786" />
	</node>
	<node id="-66960" lat="62.2431694417" lon="6.8852416605">
		<tag k="name" v="Svødene" />
		<tag k="place" v="locality" />
		<tag k="ssr:stedsnr" v="394636" />
	</node>
	<node id="-67471" lat="62.0805583372" lon="7.05699721865">
		<tag k="name" v="Holtsvødene" />
		<tag k="place" v="locality" />
		<tag k="ssr:stedsnr" v="942754" />
	</node>
	<node id="-67470" lat="62.0137305546" lon="6.76046111679">
		<tag k="name" v="Storemyra" />
		<tag k="natural" v="wetland" />
		<tag k="ssr:stedsnr" v="942738" />
	</node>
	<node id="-67469" lat="62.0134722241" lon="6.76324444148">
		<tag k="name" v="Vollen" />
		<tag k="place" v="locality" />
		<tag k="ssr:stedsnr" v="942732" />
	</node>
	<node id="-68567" lat="62.1250861113" lon="7.15599723127">
		<tag k="name" v="Kvitura" />
		<tag k="natural" v="scree" />
		<tag k="ssr:stedsnr" v="824829" />
	</node>
	<node id="-67291" lat="62.3073861148" lon="7.07340555584">
		<tag k="name" v="Flæene" />
		<tag k="natural" v="scree" />
		<tag k="ssr:stedsnr" v="699363" />
	</node>
	<node id="-67478" lat="62.2471805521" lon="7.00700000248">
		<tag k="name" v="Svødene" />
		<tag k="place" v="locality" />
		<tag k="ssr:stedsnr" v="942852" />
	</node>
	<node id="-67458" lat="62.0486388859" lon="6.73462222371">
		<tag k="name" v="Midtkvilet" />
		<tag k="natural" v="stone" />
		<tag k="ssr:stedsnr" v="942455" />
	</node>
	<node id="-67457" lat="62.0400277772" lon="6.77867221333">
		<tag k="name" v="Krokmyrane" />
		<tag k="natural" v="wetland" />
		<tag k="ssr:stedsnr" v="942441" />
	</node>
	<node id="-67453" lat="62.0782472198" lon="7.21176666109">
		<tag k="name" v="Myrane" />
		<tag k="natural" v="wetland" />
		<tag k="ssr:stedsnr" v="942233" />
	</node>
	<node id="-67452" lat="62.0320472262" lon="6.72586666104">
		<tag k="name" v="Gråsteinen" />
		<tag k="natural" v="stone" />
		<tag k="ssr:stedsnr" v="942219" />
	</node>
	<node id="-68475" lat="62.2887888883" lon="6.86378332958">
		<tag k="name" v="Myrane" />
		<tag k="natural" v="wetland" />
		<tag k="ssr:stedsnr" v="763781" />
	</node>
	<node id="-66701" lat="62.1071972216" lon="7.16119721729">
		<tag k="name" v="Grønskredene" />
		<tag k="place" v="locality" />
		<tag k="ssr:stedsnr" v="278994" />
	</node>
	<node id="-68472" lat="62.2903944465" lon="6.78578056104">
		<tag k="name" v="Hallgjerdmyrane" />
		<tag k="natural" v="wetland" />
		<tag k="ssr:stedsnr" v="763759" />
	</node>
	<node id="-68471" lat="62.090258333" lon="7.22490556011">
		<tag k="name" v="Høghaugmarka" />
>>>>>>> e1d4bc35ff8a6074a6f2e91616a996b547c36f15
		<tag k="place" v="locality" />
		<tag k="ssr:stedsnr" v="763530" />
	</node>
<<<<<<< HEAD
	<node lat="62.11049444346508" lon="6.848883332315679" id="-1766">
		<tag k="name" v="Høystakkmyrane" />
		<tag k="natural" v="wetland" />
		<tag k="ssr:stedsnr" v="698236" />
	</node>
	<node lat="62.06364722405232" lon="6.8232777829269216" id="-1772">
		<tag k="name" v="Bjørnamyra" />
		<tag k="natural" v="wetland" />
		<tag k="ssr:stedsnr" v="698800" />
	</node>
	<node lat="62.00646388634996" lon="6.778869435196434" id="-1780">
		<tag k="name" v="Instegrovøyane" />
		<tag k="natural" v="wetland" />
		<tag k="ssr:stedsnr" v="699696" />
	</node>
	<node lat="62.09911111221758" lon="6.753305555799609" id="-1784">
		<tag k="name" v="Dyrhaldmyra" />
		<tag k="natural" v="wetland" />
		<tag k="ssr:stedsnr" v="699809" />
	</node>
	<node lat="62.04208888587437" lon="7.26088610762284" id="-1788">
		<tag k="name" v="Hammarmyrfleene" />
		<tag k="place" v="locality" />
		<tag k="ssr:stedsnr" v="699955" />
	</node>
	<node lat="62.0792527779474" lon="6.937449991028892" id="-1790">
		<tag k="name" v="Fallarsteinen" />
		<tag k="natural" v="stone" />
		<tag k="ssr:stedsnr" v="700295" />
	</node>
	<node lat="62.086869445403956" lon="7.063711107156142" id="-1803">
		<tag k="name" v="Ljosura" />
		<tag k="natural" v="scree" />
		<tag k="ssr:stedsnr" v="617437" />
	</node>
	<node lat="62.10190833022817" lon="7.1133694410401045" id="-1836">
		<tag k="historic" v="shieling" />
		<tag k="name" v="Skageflålitlesætra" />
		<tag k="place" v="locality" />
		<tag k="ssr:stedsnr" v="638617" />
	</node>
	<node lat="62.08632222611556" lon="6.999058334665603" id="-1848">
		<tag k="name" v="Brattsvødene" />
		<tag k="place" v="locality" />
		<tag k="ssr:stedsnr" v="639296" />
	</node>
	<node lat="62.13665833321608" lon="7.184494446936079" id="-1860">
		<tag k="name" v="Korsmyra" />
		<tag k="natural" v="wetland" />
		<tag k="ssr:stedsnr" v="642795" />
	</node>
	<node lat="62.102450000399514" lon="7.1764444502391616" id="-1863">
		<tag k="name" v="Mjogeteigen" />
		<tag k="place" v="locality" />
		<tag k="ssr:stedsnr" v="642993" />
	</node>
	<node lat="62.35173055691235" lon="6.891788892405783" id="-1891">
		<tag k="name" v="Løkmyra" />
		<tag k="natural" v="wetland" />
		<tag k="ssr:stedsnr" v="697005" />
	</node>
	<node lat="62.31136944816897" lon="7.101566667376698" id="-1894">
		<tag k="name" v="Knutfonna" />
		<tag k="place" v="locality" />
		<tag k="ssr:stedsnr" v="698119" />
	</node>
	<node lat="62.30145833502667" lon="7.12684166587169" id="-1895">
		<tag k="name" v="Bjønnalauget" />
		<tag k="natural" v="wetland" />
		<tag k="ssr:stedsnr" v="698275" />
	</node>
	<node lat="62.30738611478356" lon="7.073405555836295" id="-1899">
		<tag k="name" v="Flæene" />
=======
	<node id="-67957" lat="62.0686749999" lon="6.93283889358">
		<tag k="name" v="Håkåhagen" />
		<tag k="place" v="locality" />
		<tag k="ssr:stedsnr" v="215344" />
	</node>
	<node id="-68466" lat="62.0419666664" lon="7.2557305474">
		<tag k="name" v="Hammarmyra" />
		<tag k="natural" v="wetland" />
		<tag k="ssr:stedsnr" v="760949" />
	</node>
	<node id="-67439" lat="62.1000916654" lon="6.85870278614">
		<tag k="name" v="Gildreflåna" />
		<tag k="place" v="locality" />
		<tag k="ssr:stedsnr" v="941247" />
	</node>
	<node id="-67950" lat="62.0492277767" lon="6.74824722486">
		<tag k="name" v="Bjørnasteinen" />
		<tag k="natural" v="stone" />
		<tag k="ssr:stedsnr" v="214796" />
	</node>
	<node id="-67867" lat="62.1433393186" lon="7.1987766185">
		<tag k="name" v="Grandemyrane" />
		<tag k="natural" v="wetland" />
		<tag k="ssr:stedsnr" v="156992" />
	</node>
	<node id="-67301" lat="62.0420888859" lon="7.26088610762">
		<tag k="name" v="Hammarmyrfleene" />
		<tag k="place" v="locality" />
		<tag k="ssr:stedsnr" v="699955" />
	</node>
	<node id="-67943" lat="62.0375694454" lon="7.25816665992">
		<tag k="name" v="Tusenmetersteinen" />
		<tag k="natural" v="stone" />
		<tag k="ssr:stedsnr" v="214830" />
	</node>
	<node id="-67430" lat="62.2937277813" lon="6.91068332891">
		<tag k="name" v="Osstølen" />
		<tag k="place" v="locality" />
		<tag k="ssr:stedsnr" v="946800" />
	</node>
	<node id="-68449" lat="62.0317499956" lon="6.71678333762">
		<tag k="name" v="Lyngsvaet" />
		<tag k="place" v="locality" />
		<tag k="ssr:stedsnr" v="760500" />
	</node>
	<node id="-68445" lat="62.0772749997" lon="7.22725834177">
		<tag k="name" v="Marka" />
		<tag k="natural" v="wetland" />
		<tag k="ssr:stedsnr" v="760046" />
	</node>
	<node id="-68444" lat="62.1624027762" lon="6.92718332474">
		<tag k="name" v="Bustøyane" />
		<tag k="natural" v="wetland" />
		<tag k="ssr:stedsnr" v="760186" />
	</node>
	<node id="-67931" lat="62.1575972224" lon="7.02525556378">
		<tag k="name" v="Brattsvødene" />
		<tag k="place" v="locality" />
		<tag k="ssr:stedsnr" v="214092" />
	</node>
	<node id="-67929" lat="62.0506222182" lon="6.78938055959">
		<tag k="name" v="Sortøy" />
		<tag k="natural" v="wetland" />
		<tag k="ssr:stedsnr" v="213825" />
	</node>
	<node id="-67928" lat="62.2538638886" lon="6.87017778299">
		<tag k="name" v="Myrane" />
		<tag k="natural" v="wetland" />
		<tag k="ssr:stedsnr" v="213680" />
	</node>
	<node id="-67927" lat="62.1293555532" lon="6.82204443645">
		<tag k="name" v="Bjørnaura" />
		<tag k="natural" v="scree" />
		<tag k="ssr:stedsnr" v="213752" />
	</node>
	<node id="-68438" lat="62.0567694446" lon="6.72002222359">
		<tag k="name" v="Skjørsteinen" />
		<tag k="natural" v="stone" />
		<tag k="ssr:stedsnr" v="759938" />
	</node>
	<node id="-67925" lat="62.1212916654" lon="6.84391389429">
		<tag k="name" v="Heimsætremyra" />
		<tag k="natural" v="wetland" />
		<tag k="ssr:stedsnr" v="213732" />
	</node>
	<node id="-67412" lat="62.0129555554" lon="7.03343056244">
		<tag k="name" v="Stråmba" />
		<tag k="natural" v="wetland" />
		<tag k="ssr:stedsnr" v="821906" />
	</node>
	<node id="-66898" lat="62.0287583333" lon="6.77131667254">
		<tag k="name" v="Storura" />
>>>>>>> e1d4bc35ff8a6074a6f2e91616a996b547c36f15
		<tag k="natural" v="scree" />
		<tag k="ssr:stedsnr" v="335309" />
	</node>
	<node id="-67849" lat="62.0178333341" lon="7.02386666902">
		<tag k="name" v="Breimyra" />
		<tag k="natural" v="wetland" />
		<tag k="ssr:stedsnr" v="153974" />
	</node>
	<node id="-66896" lat="62.0860805563" lon="7.23071388985">
		<tag k="name" v="Flydalsmyrane" />
		<tag k="natural" v="wetland" />
		<tag k="ssr:stedsnr" v="335022" />
	</node>
<<<<<<< HEAD
	<node lat="62.047980559362266" lon="7.040938886853754" id="-1901">
		<tag k="name" v="Børkjeura" />
		<tag k="natural" v="scree" />
		<tag k="ssr:stedsnr" v="699670" />
	</node>
	<node lat="62.18439721790716" lon="6.92286110857138" id="-1903">
		<tag k="name" v="Neset" />
		<tag k="natural" v="wetland" />
		<tag k="ssr:stedsnr" v="699766" />
	</node>
	<node lat="62.31596388864336" lon="6.886786108610415" id="-1916">
		<tag k="name" v="Breimyra" />
		<tag k="natural" v="wetland" />
		<tag k="ssr:stedsnr" v="703821" />
	</node>
	<node lat="62.07727499973003" lon="7.227258341766633" id="-1945">
		<tag k="name" v="Marka" />
		<tag k="natural" v="wetland" />
		<tag k="ssr:stedsnr" v="760046" />
	</node>
	<node lat="62.031749995615066" lon="6.716783337618412" id="-1949">
		<tag k="name" v="Lyngsvaet" />
		<tag k="place" v="locality" />
		<tag k="ssr:stedsnr" v="760500" />
	</node>
	<node lat="62.04196666639793" lon="7.255730547404484" id="-1958">
		<tag k="name" v="Hammarmyra" />
		<tag k="natural" v="wetland" />
		<tag k="ssr:stedsnr" v="760949" />
	</node>
	<node lat="62.08081944883622" lon="6.852108341592682" id="-1966">
		<tag k="name" v="Høgmyra" />
		<tag k="natural" v="wetland" />
		<tag k="ssr:stedsnr" v="763809" />
	</node>
	<node lat="62.22635277331862" lon="6.740674993064388" id="-1975">
		<tag k="name" v="Vardemyra" />
		<tag k="natural" v="wetland" />
		<tag k="ssr:stedsnr" v="800277" />
	</node>
	<node lat="62.22923349638041" lon="6.717363699893808" id="-1990">
		<tag k="name" v="Habostadbreen" />
		<tag k="natural" v="glacier" />
		<tag k="ssr:stedsnr" v="800507" />
	</node>
	<node lat="62.104844444947375" lon="6.740702770913788" id="-2010">
		<tag k="name" v="Steinamyra" />
		<tag k="natural" v="wetland" />
		<tag k="ssr:stedsnr" v="820576" />
	</node>
	<node lat="62.09564722416788" lon="6.757172225703644" id="-2012">
		<tag k="name" v="Urdabakken" />
		<tag k="natural" v="scree" />
		<tag k="ssr:stedsnr" v="820614" />
	</node>
	<node lat="62.094605558056024" lon="6.777919440915086" id="-2019">
		<tag k="name" v="Myrane" />
		<tag k="natural" v="wetland" />
		<tag k="ssr:stedsnr" v="821826" />
	</node>
	<node lat="62.012955555374745" lon="7.033430562436269" id="-2025">
		<tag k="name" v="Stråmba" />
		<tag k="natural" v="wetland" />
		<tag k="ssr:stedsnr" v="821906" />
	</node>
	<node lat="62.098058336074466" lon="6.8752888820159725" id="-2075">
		<tag k="name" v="Almflærne" />
		<tag k="place" v="locality" />
		<tag k="ssr:stedsnr" v="880106" />
	</node>
	<node lat="62.25251111311486" lon="6.981322223647536" id="-2086">
		<tag k="historic" v="shieling" />
		<tag k="name" v="Jonstølen" />
		<tag k="place" v="locality" />
		<tag k="ssr:stedsnr" v="881864" />
	</node>
	<node lat="62.142744448227674" lon="6.991527768473833" id="-2088">
		<tag k="name" v="Katthellura" />
		<tag k="natural" v="scree" />
		<tag k="ssr:stedsnr" v="882322" />
	</node>
	<node lat="62.055183334151444" lon="6.957386112596011" id="-2090">
		<tag k="name" v="Breisvaet" />
		<tag k="place" v="locality" />
		<tag k="ssr:stedsnr" v="882269" />
	</node>
	<node lat="62.023183331740235" lon="7.017255555634122" id="-2098">
		<tag k="name" v="Svartesvaet" />
		<tag k="place" v="locality" />
		<tag k="ssr:stedsnr" v="882966" />
	</node>
	<node lat="62.10246111533957" lon="7.22160278071928" id="-2103">
		<tag k="historic" v="shieling" />
		<tag k="name" v="Liastølen" />
		<tag k="place" v="locality" />
		<tag k="ssr:stedsnr" v="885506" />
	</node>
	<node lat="62.29372778130818" lon="6.910683328911482" id="-2125">
		<tag k="name" v="Osstølen" />
		<tag k="place" v="locality" />
		<tag k="ssr:stedsnr" v="946800" />
	</node>
	<node lat="62.08714722471346" lon="6.884258342624732" id="-2128">
		<tag k="name" v="Kurla" />
		<tag k="place" v="locality" />
		<tag k="ssr:stedsnr" v="946822" />
	</node>
	<node lat="62.1472396372632" lon="7.207796214860053" id="-2161">
		<tag k="name" v="Gråsteinmyrane" />
		<tag k="natural" v="wetland" />
		<tag k="ssr:stedsnr" v="11355" />
	</node>
	<node lat="62.09033332976443" lon="6.989605550020595" id="-2202">
		<tag k="name" v="Sylteviksvødene" />
=======
	<node id="-67407" lat="62.0946055581" lon="6.77791944092">
		<tag k="name" v="Myrane" />
		<tag k="natural" v="wetland" />
		<tag k="ssr:stedsnr" v="821826" />
	</node>
	<node id="-67405" lat="62.0460916622" lon="6.95052221781">
		<tag k="name" v="Fonnteigane" />
		<tag k="place" v="locality" />
		<tag k="ssr:stedsnr" v="821661" />
	</node>
	<node id="-67915" lat="62.0958499958" lon="6.87509444727">
		<tag k="name" v="Stabben" />
		<tag k="natural" v="stone" />
		<tag k="ssr:stedsnr" v="213113" />
	</node>
	<node id="-67396" lat="62.0956472242" lon="6.7571722257">
		<tag k="name" v="Urdabakken" />
		<tag k="natural" v="scree" />
		<tag k="ssr:stedsnr" v="820614" />
	</node>
	<node id="-67395" lat="62.1048444449" lon="6.74070277091">
		<tag k="name" v="Steinamyra" />
		<tag k="natural" v="wetland" />
		<tag k="ssr:stedsnr" v="820576" />
	</node>
	<node id="-67390" lat="62.2996388846" lon="7.1240222152">
		<tag k="name" v="Flåna" />
		<tag k="place" v="locality" />
		<tag k="ssr:stedsnr" v="819175" />
	</node>
	<node id="-68409" lat="62.0246694413" lon="6.72959167483">
		<tag k="alt_name" v="Gråsteinmyra" />
		<tag k="name" v="Gråsteinmyrane" />
		<tag k="natural" v="wetland" />
		<tag k="ssr:stedsnr" v="739450" />
	</node>
	<node id="-66696" lat="62.2941000012" lon="6.92780832511">
		<tag k="historic" v="shieling" />
		<tag k="name" v="Støvsetsætra" />
		<tag k="place" v="locality" />
		<tag k="ssr:stedsnr" v="278797" />
	</node>
	<node id="-67592" lat="62.0959027745" lon="6.86004721957">
		<tag k="name" v="Kvilarsteinen" />
		<tag k="natural" v="stone" />
		<tag k="ssr:stedsnr" v="31108" />
	</node>
	<node id="-66855" lat="62.0525277785" lon="6.73390554695">
		<tag k="name" v="Kokartjønna" />
		<tag k="natural" v="wetland" />
		<tag k="ssr:stedsnr" v="275966" />
	</node>
	<node id="-67873" lat="62.3200583305" lon="6.92763889392">
		<tag k="name" v="Kvannasteinen" />
		<tag k="natural" v="stone" />
		<tag k="ssr:stedsnr" v="157797" />
	</node>
	<node id="-66848" lat="62.0393333353" lon="6.81085554617">
		<tag k="name" v="Kjøselsteinen" />
		<tag k="natural" v="stone" />
		<tag k="ssr:stedsnr" v="274856" />
	</node>
	<node id="-66844" lat="62.1826166638" lon="6.92183334025">
		<tag k="name" v="Fremstøya" />
		<tag k="natural" v="wetland" />
		<tag k="ssr:stedsnr" v="274756" />
	</node>
	<node id="-68379" lat="62.1024500004" lon="7.17644445024">
		<tag k="name" v="Mjogeteigen" />
		<tag k="place" v="locality" />
		<tag k="ssr:stedsnr" v="642993" />
	</node>
	<node id="-67866" lat="62.0838722247" lon="6.89008332839">
		<tag k="name" v="Andersplassen" />
		<tag k="place" v="locality" />
		<tag k="ssr:stedsnr" v="156985" />
	</node>
	<node id="-66841" lat="62.0256472258" lon="6.73149445032">
		<tag k="name" v="Liamyrane" />
		<tag k="natural" v="wetland" />
		<tag k="ssr:stedsnr" v="274709" />
	</node>
	<node id="-68375" lat="62.1366583332" lon="7.18449444694">
		<tag k="name" v="Korsmyra" />
		<tag k="natural" v="wetland" />
		<tag k="ssr:stedsnr" v="642795" />
	</node>
	<node id="-67861" lat="62.1131388898" lon="7.19044165767">
		<tag k="name" v="Sildesteinen" />
		<tag k="natural" v="stone" />
		<tag k="ssr:stedsnr" v="156729" />
	</node>
	<node id="-67344" lat="62.0808194488" lon="6.85210834159">
		<tag k="name" v="Høgmyra" />
		<tag k="natural" v="wetland" />
		<tag k="ssr:stedsnr" v="763809" />
	</node>
	<node id="-67342" lat="62.11698333" lon="6.9237916629">
		<tag k="name" v="Lindane" />
>>>>>>> e1d4bc35ff8a6074a6f2e91616a996b547c36f15
		<tag k="place" v="locality" />
		<tag k="ssr:stedsnr" v="31628" />
	</node>
<<<<<<< HEAD
	<node lat="62.08346944513272" lon="7.221205550219246" id="-2207">
		<tag k="name" v="Øyane" />
		<tag k="natural" v="wetland" />
		<tag k="ssr:stedsnr" v="32042" />
	</node>
	<node lat="62.14068888895254" lon="6.941094450359535" id="-2216">
		<tag k="name" v="Flærne" />
		<tag k="place" v="locality" />
		<tag k="ssr:stedsnr" v="32278" />
	</node>
	<node lat="62.06068333419601" lon="6.704369443785832" id="-2218">
		<tag k="name" v="Purkura" />
		<tag k="natural" v="scree" />
		<tag k="ssr:stedsnr" v="32552" />
	</node>
	<node lat="62.206236114987334" lon="6.915666668705287" id="-2222">
		<tag k="name" v="Løvollen" />
		<tag k="natural" v="wetland" />
		<tag k="ssr:stedsnr" v="32758" />
	</node>
	<node lat="62.129130551683986" lon="7.176866670419498" id="-2228">
		<tag k="name" v="Gjerdemyrane" />
		<tag k="natural" v="wetland" />
		<tag k="ssr:stedsnr" v="34730" />
	</node>
	<node lat="62.13885615990164" lon="7.202948205802552" id="-2236">
		<tag k="name" v="Møllsmyrane" />
		<tag k="natural" v="wetland" />
		<tag k="ssr:stedsnr" v="35998" />
	</node>
	<node lat="62.12586388676523" lon="7.14916667110866" id="-2260">
		<tag k="name" v="Kvitura" />
		<tag k="natural" v="scree" />
		<tag k="ssr:stedsnr" v="72364" />
	</node>
	<node lat="62.03014444154734" lon="6.75302777964475" id="-2290">
		<tag k="name" v="Bødvamyra" />
		<tag k="natural" v="wetland" />
		<tag k="ssr:stedsnr" v="92354" />
	</node>
	<node lat="62.04939722481887" lon="6.742763895205364" id="-2292">
		<tag k="name" v="Bjørnaøya" />
		<tag k="natural" v="wetland" />
		<tag k="ssr:stedsnr" v="92531" />
	</node>
	<node lat="62.25549444197912" lon="7.004644444815375" id="-2295">
		<tag k="name" v="Almura" />
		<tag k="natural" v="scree" />
		<tag k="ssr:stedsnr" v="92801" />
	</node>
	<node lat="62.14003611314516" lon="6.986152768897003" id="-2301">
		<tag k="name" v="Furnesflærne" />
		<tag k="place" v="locality" />
		<tag k="ssr:stedsnr" v="93297" />
	</node>
	<node lat="62.113761110457666" lon="7.15171666557808" id="-2306">
		<tag k="name" v="Tenneflåna" />
		<tag k="place" v="locality" />
		<tag k="ssr:stedsnr" v="93494" />
	</node>
	<node lat="62.11291944635153" lon="7.147911108776548" id="-2307">
		<tag k="name" v="Monssteinen" />
		<tag k="natural" v="stone" />
		<tag k="ssr:stedsnr" v="93496" />
	</node>
	<node lat="62.02288333433206" lon="7.012813894252671" id="-2312">
		<tag k="name" v="Brekketeigen" />
		<tag k="place" v="locality" />
		<tag k="ssr:stedsnr" v="93954" />
	</node>
	<node lat="62.30216944525291" lon="6.930180548977668" id="-2321">
		<tag k="name" v="Hjellemyra" />
		<tag k="natural" v="wetland" />
		<tag k="ssr:stedsnr" v="96993" />
	</node>
	<node lat="62.07832222028294" lon="7.235599992614778" id="-2384">
		<tag k="name" v="Vassmyrane" />
		<tag k="natural" v="wetland" />
		<tag k="ssr:stedsnr" v="153040" />
	</node>
	<node lat="62.01783333407889" lon="7.02386666902305" id="-2387">
		<tag k="name" v="Breimyra" />
		<tag k="natural" v="wetland" />
		<tag k="ssr:stedsnr" v="153974" />
	</node>
	<node lat="62.01348055880083" lon="7.021263884225306" id="-2389">
		<tag k="name" v="Ramneskreda" />
		<tag k="place" v="locality" />
		<tag k="ssr:stedsnr" v="153990" />
	</node>
	<node lat="62.05141944709535" lon="7.068216658943734" id="-2401">
		<tag k="historic" v="shieling" />
		<tag k="name" v="Storsteinsætra" />
		<tag k="place" v="locality" />
		<tag k="ssr:stedsnr" v="153723" />
	</node>
	<node lat="62.01976388747435" lon="6.759455558197885" id="-2402">
		<tag k="name" v="Ørrmyra" />
		<tag k="natural" v="wetland" />
		<tag k="ssr:stedsnr" v="153729" />
	</node>
	<node lat="62.00951944453981" lon="6.783161114572253" id="-2404">
		<tag k="name" v="Svøra" />
		<tag k="place" v="locality" />
		<tag k="ssr:stedsnr" v="153741" />
	</node>
	<node lat="62.02347221808812" lon="6.955758334569873" id="-2406">
		<tag k="name" v="Korsfonna" />
		<tag k="place" v="locality" />
		<tag k="ssr:stedsnr" v="154000" />
	</node>
	<node lat="62.11313888975522" lon="7.190441657673148" id="-2414">
		<tag k="name" v="Sildesteinen" />
		<tag k="natural" v="stone" />
		<tag k="ssr:stedsnr" v="156729" />
	</node>
	<node lat="62.083872224652445" lon="6.890083328388338" id="-2417">
		<tag k="name" v="Andersplassen" />
		<tag k="place" v="locality" />
		<tag k="ssr:stedsnr" v="156985" />
	</node>
	<node lat="62.14333931861639" lon="7.1987766185026745" id="-2418">
		<tag k="name" v="Grandemyrane" />
		<tag k="natural" v="wetland" />
		<tag k="ssr:stedsnr" v="156992" />
	</node>
	<node lat="62.29887222588949" lon="6.811452779390487" id="-2459">
		<tag k="name" v="Langlofonna" />
		<tag k="place" v="locality" />
		<tag k="ssr:stedsnr" v="193607" />
	</node>
	<node lat="62.310530552923744" lon="7.062086117234402" id="-2472">
		<tag k="name" v="Gjerdemyra" />
		<tag k="natural" v="wetland" />
		<tag k="ssr:stedsnr" v="212113" />
	</node>
	<node lat="62.12935555316731" lon="6.822044436450648" id="-2484">
		<tag k="name" v="Bjørnaura" />
		<tag k="natural" v="scree" />
		<tag k="ssr:stedsnr" v="213752" />
	</node>
	<node lat="62.11106388949891" lon="6.738794447068488" id="-2486">
		<tag k="name" v="Kvia" />
		<tag k="natural" v="wetland" />
		<tag k="ssr:stedsnr" v="213621" />
	</node>
	<node lat="62.05904444129219" lon="7.254958324424713" id="-2487">
		<tag k="name" v="Høgmyra" />
		<tag k="natural" v="wetland" />
		<tag k="ssr:stedsnr" v="214922" />
	</node>
	<node lat="62.06867499987387" lon="6.9328388935768634" id="-2501">
		<tag k="name" v="Håkåhagen" />
		<tag k="place" v="locality" />
		<tag k="ssr:stedsnr" v="215344" />
	</node>
	<node lat="62.05207500176583" lon="6.945191666498554" id="-2504">
		<tag k="name" v="Hestøyna" />
		<tag k="place" v="locality" />
		<tag k="ssr:stedsnr" v="215356" />
	</node>
	<node lat="62.15058611001014" lon="7.173858323827513" id="-2517">
		<tag k="name" v="Oppskreda" />
		<tag k="place" v="locality" />
		<tag k="ssr:stedsnr" v="217999" />
	</node>
	<node lat="62.02713055961476" lon="7.003166662940326" id="-2525">
		<tag k="name" v="Histeinen" />
		<tag k="natural" v="stone" />
		<tag k="ssr:stedsnr" v="273638" />
	</node>
	<node lat="62.03443333065565" lon="7.019080562861176" id="-2527">
		<tag k="name" v="Middagssteinen" />
		<tag k="natural" v="stone" />
		<tag k="ssr:stedsnr" v="273649" />
	</node>
	<node lat="62.31338333695488" lon="7.041758326322811" id="-2530">
		<tag k="name" v="Haslevikmyra" />
		<tag k="natural" v="wetland" />
		<tag k="ssr:stedsnr" v="273963" />
	</node>
	<node lat="62.22585555616498" lon="6.845791675649255" id="-2533">
		<tag k="name" v="Storfonna" />
		<tag k="place" v="locality" />
		<tag k="ssr:stedsnr" v="274245" />
	</node>
	<node lat="62.0795666687236" lon="6.823141663779837" id="-2535">
		<tag k="name" v="Einesteinen" />
		<tag k="natural" v="stone" />
		<tag k="ssr:stedsnr" v="274592" />
	</node>
	<node lat="62.276211115303134" lon="6.875711112245602" id="-2539">
		<tag k="name" v="Fursetøyane" />
		<tag k="natural" v="wetland" />
		<tag k="ssr:stedsnr" v="274556" />
	</node>
	<node lat="62.06428055268449" lon="6.704847225168183" id="-2540">
		<tag k="name" v="Simosteinen" />
		<tag k="natural" v="stone" />
		<tag k="ssr:stedsnr" v="274560" />
	</node>
	<node lat="62.18261666379625" lon="6.921833340247576" id="-2542">
		<tag k="name" v="Fremstøya" />
		<tag k="natural" v="wetland" />
		<tag k="ssr:stedsnr" v="274756" />
	</node>
	<node lat="62.259863886872814" lon="6.9797555625057734" id="-2545">
		<tag k="name" v="Myrane" />
		<tag k="natural" v="wetland" />
		<tag k="ssr:stedsnr" v="274782" />
	</node>
	<node lat="62.03933333531634" lon="6.810855546167155" id="-2547">
		<tag k="name" v="Kjøselsteinen" />
		<tag k="natural" v="stone" />
		<tag k="ssr:stedsnr" v="274856" />
	</node>
	<node lat="62.08002778079952" lon="7.2322249969453845" id="-2550">
		<tag k="name" v="Hestøyna" />
		<tag k="place" v="locality" />
		<tag k="ssr:stedsnr" v="275037" />
	</node>
	<node lat="62.076055555106564" lon="7.2531944384030504" id="-2551">
		<tag k="name" v="Ørresvaet" />
		<tag k="place" v="locality" />
		<tag k="ssr:stedsnr" v="275041" />
	</node>
	<node lat="62.05252777849138" lon="6.7339055469473665" id="-2560">
		<tag k="name" v="Kokartjønna" />
		<tag k="natural" v="wetland" />
		<tag k="ssr:stedsnr" v="275966" />
	</node>
	<node lat="62.0999555518891" lon="7.210052775296577" id="-2564">
		<tag k="name" v="Mjølkesletta" />
		<tag k="place" v="locality" />
		<tag k="ssr:stedsnr" v="277776" />
	</node>
	<node lat="62.29410000116026" lon="6.927808325113627" id="-2566">
		<tag k="historic" v="shieling" />
		<tag k="name" v="Støvsetsætra" />
		<tag k="place" v="locality" />
		<tag k="ssr:stedsnr" v="278797" />
	</node>
	<node lat="62.11058333196281" lon="7.202463890669422" id="-2607">
		<tag k="name" v="Løstad" />
		<tag k="place" v="locality" />
		<tag k="ssr:stedsnr" v="326874" />
	</node>
	<node lat="62.29582499955185" lon="6.809136119729644" id="-2613">
		<tag k="name" v="Korssvaet" />
		<tag k="place" v="locality" />
		<tag k="ssr:stedsnr" v="334352" />
	</node>
	<node lat="62.08608055632651" lon="7.230713889850285" id="-2618">
		<tag k="name" v="Flydalsmyrane" />
		<tag k="natural" v="wetland" />
		<tag k="ssr:stedsnr" v="335022" />
	</node>
	<node lat="62.028758333270844" lon="6.771316672540324" id="-2624">
		<tag k="name" v="Storura" />
		<tag k="natural" v="scree" />
		<tag k="ssr:stedsnr" v="335309" />
	</node>
	<node lat="62.04451110830324" lon="6.768952773496375" id="-2630">
		<tag k="name" v="Høgesteinen" />
		<tag k="natural" v="stone" />
		<tag k="ssr:stedsnr" v="335481" />
	</node>
	<node lat="62.00427777378641" lon="7.037313893956777" id="-2637">
		<tag k="name" v="Urene" />
		<tag k="natural" v="scree" />
		<tag k="ssr:stedsnr" v="335919" />
	</node>
	<node lat="62.053027773634255" lon="6.938183331491986" id="-2639">
		<tag k="name" v="Gråsteinen" />
		<tag k="natural" v="stone" />
		<tag k="ssr:stedsnr" v="336312" />
	</node>
	<node lat="62.03952500234099" lon="6.959997219266364" id="-2643">
		<tag k="name" v="Storåkrane" />
		<tag k="place" v="locality" />
		<tag k="ssr:stedsnr" v="336625" />
	</node>
	<node lat="62.09182777870433" lon="7.232369439981672" id="-2647">
		<tag k="name" v="Holemyrane" />
		<tag k="natural" v="wetland" />
		<tag k="ssr:stedsnr" v="338529" />
	</node>
	<node lat="62.14220555174083" lon="6.986411108279578" id="-2702">
		<tag k="name" v="Ormesvaet" />
		<tag k="place" v="locality" />
		<tag k="ssr:stedsnr" v="396321" />
	</node>
	<node lat="62.06613333429488" lon="6.929075003888955" id="-2711">
		<tag k="name" v="Storemyra" />
		<tag k="natural" v="wetland" />
		<tag k="ssr:stedsnr" v="396251" />
	</node>
	<node lat="62.05373333643597" lon="6.958069449020679" id="-2715">
		<tag k="name" v="Svartesvaet" />
		<tag k="place" v="locality" />
		<tag k="ssr:stedsnr" v="396267" />
	</node>
	<node lat="62.04384444336264" lon="6.953800005476366" id="-2717">
		<tag k="name" v="Sandteigane" />
		<tag k="place" v="locality" />
		<tag k="ssr:stedsnr" v="396622" />
	</node>
	<node lat="62.01529444441383" lon="6.771974995387586" id="-2718">
		<tag k="name" v="Brendekviene" />
		<tag k="place" v="locality" />
		<tag k="ssr:stedsnr" v="396700" />
	</node>
	<node lat="62.1057333317724" lon="6.937586117869049" id="-2720">
		<tag k="name" v="Nokkesvødene" />
		<tag k="place" v="locality" />
		<tag k="ssr:stedsnr" v="396743" />
	</node>
	<node lat="62.31962777983453" lon="6.913308335566375" id="-2731">
		<tag k="name" v="Koppemyra" />
		<tag k="natural" v="wetland" />
		<tag k="ssr:stedsnr" v="399800" />
	</node>
	<node lat="62.14862778168787" lon="7.190802770474251" id="-2733">
		<tag k="name" v="Nilsmyra" />
		<tag k="natural" v="wetland" />
		<tag k="ssr:stedsnr" v="399809" />
	</node>
	<node lat="62.059419448401" lon="6.709663889884477" id="-2755">
		<tag k="historic" v="shieling" />
		<tag k="name" v="Kjellstadsætra" />
		<tag k="place" v="locality" />
		<tag k="ssr:stedsnr" v="436720" />
	</node>
	<node lat="62.336872222878206" lon="6.916830554596733" id="-2781">
		<tag k="name" v="Toreslætta" />
		<tag k="place" v="locality" />
		<tag k="ssr:stedsnr" v="515907" />
	</node>
	<node lat="62.10347499985063" lon="6.89640277676214" id="-2784">
		<tag k="name" v="Båtelegsvødene" />
		<tag k="place" v="locality" />
		<tag k="ssr:stedsnr" v="516086" />
	</node>
	<node lat="62.03786666566051" lon="6.806919453542892" id="-2790">
		<tag k="name" v="Svartesvøda" />
		<tag k="place" v="locality" />
		<tag k="ssr:stedsnr" v="516889" />
	</node>
	<node lat="62.03099166737366" lon="6.775152783762728" id="-2791">
		<tag k="name" v="Kvisteinmyrane" />
		<tag k="natural" v="wetland" />
		<tag k="ssr:stedsnr" v="517299" />
	</node>
	<node lat="62.09876388915888" lon="7.106922218513955" id="-2794">
		<tag k="name" v="Bukkeflåna" />
		<tag k="place" v="locality" />
		<tag k="ssr:stedsnr" v="517695" />
	</node>
	<node lat="62.08346944292969" lon="7.019561115709969" id="-2804">
		<tag k="name" v="Allsvaet" />
		<tag k="place" v="locality" />
		<tag k="ssr:stedsnr" v="518280" />
	</node>
	<node lat="62.14090555666963" lon="7.182072223723514" id="-2808">
		<tag k="name" v="Resmyrane" />
		<tag k="natural" v="wetland" />
		<tag k="ssr:stedsnr" v="520528" />
	</node>
	<node lat="62.05699444811906" lon="7.178574998596227" id="-2826">
		<tag k="name" v="Flydalsbreen" />
		<tag k="natural" v="glacier" />
		<tag k="ssr:stedsnr" v="556488" />
	</node>
	<node lat="62.06868055252097" lon="7.1724333396517075" id="-2827">
		<tag k="name" v="Sandfonna" />
		<tag k="natural" v="glacier" />
		<tag k="ssr:stedsnr" v="556489" />
	</node>
	<node lat="62.21707221951794" lon="6.925202770990707" id="-2840">
		<tag k="name" v="Juklestriket" />
		<tag k="place" v="locality" />
		<tag k="ssr:stedsnr" v="569249" />
	</node>
	<node lat="62.319219445526855" lon="7.0415055631489425" id="-2850">
		<tag k="name" v="Demmå" />
		<tag k="natural" v="wetland" />
		<tag k="ssr:stedsnr" v="576987" />
	</node>
	<node lat="62.14406666933894" lon="6.9487388802799686" id="-2856">
		<tag k="name" v="Brattsvødene" />
		<tag k="place" v="locality" />
		<tag k="ssr:stedsnr" v="577485" />
	</node>
	<node lat="62.01871666526214" lon="6.753969451417127" id="-2864">
		<tag k="name" v="Synda" />
		<tag k="natural" v="wetland" />
		<tag k="ssr:stedsnr" v="578680" />
	</node>
	<node lat="62.10803889075101" lon="6.993697225160145" id="-2865">
		<tag k="name" v="Otreflåna" />
		<tag k="place" v="locality" />
		<tag k="ssr:stedsnr" v="578792" />
	</node>
	<node lat="62.105616668201804" lon="7.00026944048409" id="-2866">
		<tag k="name" v="Korsesteinen" />
		<tag k="natural" v="stone" />
		<tag k="ssr:stedsnr" v="578795" />
	</node>
	<node lat="62.04430555525703" lon="6.961555559291206" id="-2875">
		<tag k="name" v="Storura" />
		<tag k="natural" v="scree" />
		<tag k="ssr:stedsnr" v="578635" />
	</node>
	<node lat="62.283852781779494" lon="6.99663610814716" id="-2883">
		<tag k="name" v="Kråkemyra" />
		<tag k="natural" v="wetland" />
		<tag k="ssr:stedsnr" v="578978" />
	</node>
	<node lat="61.99816666496283" lon="7.182030560947638" id="-2893">
		<tag k="name" v="Nautbreen" />
		<tag k="natural" v="glacier" />
		<tag k="ssr:stedsnr" v="616400" />
	</node>
	<node lat="62.30677222615896" lon="7.105475009285385" id="-2926">
		<tag k="name" v="Gråura" />
		<tag k="natural" v="scree" />
		<tag k="ssr:stedsnr" v="636147" />
	</node>
	<node lat="62.3123694459766" lon="7.049591658514011" id="-2930">
		<tag k="name" v="Storflåa" />
		<tag k="place" v="locality" />
		<tag k="ssr:stedsnr" v="636953" />
	</node>
	<node lat="62.03996944357682" lon="6.990169453791265" id="-2931">
		<tag k="name" v="Kornkviene" />
		<tag k="place" v="locality" />
		<tag k="ssr:stedsnr" v="636670" />
	</node>
	<node lat="62.19289721785062" lon="6.910947221295731" id="-2936">
		<tag k="name" v="Nysvora" />
		<tag k="place" v="locality" />
		<tag k="ssr:stedsnr" v="637298" />
	</node>
	<node lat="62.031802781552074" lon="7.318030550059404" id="-2944">
		<tag k="name" v="Rosenkviststeinen" />
		<tag k="natural" v="stone" />
		<tag k="ssr:stedsnr" v="638781" />
	</node>
	<node lat="62.167430553206565" lon="6.988972222875525" id="-2954">
		<tag k="name" v="Seiesteinen" />
		<tag k="natural" v="stone" />
		<tag k="ssr:stedsnr" v="639122" />
	</node>
	<node lat="62.095802775487876" lon="6.9256777849388005" id="-2964">
		<tag k="name" v="Nedsteflåna" />
		<tag k="place" v="locality" />
		<tag k="ssr:stedsnr" v="639767" />
	</node>
	<node lat="62.02466944125846" lon="6.729591674830297" id="-2991">
		<tag k="alt_name" v="Gråsteinmyra" />
		<tag k="name" v="Gråsteinmyrane" />
		<tag k="natural" v="wetland" />
		<tag k="ssr:stedsnr" v="739450" />
	</node>
	<node lat="62.05676944461253" lon="6.720022223590327" id="-3015">
		<tag k="name" v="Skjørsteinen" />
		<tag k="natural" v="stone" />
		<tag k="ssr:stedsnr" v="759938" />
	</node>
	<node lat="62.11415555115052" lon="6.738116662140261" id="-3022">
		<tag k="name" v="Øykjeslettene" />
		<tag k="natural" v="wetland" />
		<tag k="ssr:stedsnr" v="760071" />
	</node>
	<node lat="62.122130553114985" lon="6.730955546493221" id="-3024">
		<tag k="name" v="Geilskreda" />
		<tag k="place" v="locality" />
		<tag k="ssr:stedsnr" v="760080" />
	</node>
	<node lat="62.162402776200665" lon="6.9271833247391275" id="-3025">
		<tag k="name" v="Bustøyane" />
		<tag k="natural" v="wetland" />
		<tag k="ssr:stedsnr" v="760186" />
	</node>
	<node lat="62.116983330001716" lon="6.923791662899114" id="-3037">
		<tag k="name" v="Lindane" />
		<tag k="place" v="locality" />
		<tag k="ssr:stedsnr" v="760862" />
	</node>
	<node lat="62.09025833301632" lon="7.224905560114872" id="-3042">
		<tag k="name" v="Høghaugmarka" />
		<tag k="place" v="locality" />
		<tag k="ssr:stedsnr" v="763530" />
	</node>
	<node lat="62.290394446503846" lon="6.785780561036328" id="-3043">
		<tag k="name" v="Hallgjerdmyrane" />
		<tag k="natural" v="wetland" />
		<tag k="ssr:stedsnr" v="763759" />
	</node>
	<node lat="62.288788888264506" lon="6.863783329577567" id="-3046">
		<tag k="name" v="Myrane" />
		<tag k="natural" v="wetland" />
		<tag k="ssr:stedsnr" v="763781" />
	</node>
	<node lat="62.04287499802707" lon="7.181558331105635" id="-3061">
		<tag k="name" v="Hestebreen" />
		<tag k="natural" v="glacier" />
		<tag k="ssr:stedsnr" v="800457" />
	</node>
	<node lat="62.17823610884055" lon="7.006075008758913" id="-3071">
		<tag k="historic" v="shieling" />
		<tag k="name" v="Åkernessætra" />
		<tag k="place" v="locality" />
		<tag k="ssr:stedsnr" v="811140" />
	</node>
	<node lat="62.299638884563755" lon="7.124022215204977" id="-3083">
		<tag k="name" v="Flåna" />
		<tag k="place" v="locality" />
		<tag k="ssr:stedsnr" v="819175" />
	</node>
	<node lat="62.0950527761503" lon="7.038836107477015" id="-3090">
		<tag k="name" v="Kyrkja" />
		<tag k="natural" v="scree" />
		<tag k="ssr:stedsnr" v="820588" />
	</node>
	<node lat="62.08051944273972" lon="7.222580562464437" id="-3091">
		<tag k="name" v="Tverrabøen" />
		<tag k="natural" v="wetland" />
		<tag k="ssr:stedsnr" v="821046" />
	</node>
	<node lat="62.04117222305906" lon="6.985047222786717" id="-3103">
		<tag k="name" v="Histeinura" />
		<tag k="natural" v="scree" />
		<tag k="ssr:stedsnr" v="821650" />
	</node>
	<node lat="62.04609166220609" lon="6.950522217808365" id="-3105">
		<tag k="name" v="Fonnteigane" />
		<tag k="place" v="locality" />
		<tag k="ssr:stedsnr" v="821661" />
	</node>
	<node lat="62.0107694400765" lon="6.7691583305738545" id="-3106">
		<tag k="name" v="Bleikemyra" />
		<tag k="natural" v="wetland" />
		<tag k="ssr:stedsnr" v="821730" />
	</node>
	<node lat="62.01841111512437" lon="6.951600006305245" id="-3110">
		<tag k="name" v="Breisvaet" />
		<tag k="place" v="locality" />
		<tag k="ssr:stedsnr" v="821998" />
	</node>
	<node lat="62.04231944485097" lon="7.251777786809029" id="-3114">
		<tag k="name" v="Elvabreen" />
		<tag k="natural" v="glacier" />
		<tag k="ssr:stedsnr" v="821940" />
	</node>
	<node lat="61.98977499851317" lon="7.0400722317699165" id="-3117">
		<tag k="name" v="Arnemyra" />
		<tag k="natural" v="wetland" />
		<tag k="ssr:stedsnr" v="821962" />
	</node>
	<node lat="62.277575003776306" lon="6.8811472159643" id="-3120">
		<tag k="alt_name" v="Svaøyna" />
		<tag k="name" v="Sveøyna" />
		<tag k="place" v="locality" />
		<tag k="ssr:stedsnr" v="824792" />
	</node>
	<node lat="62.148730552972054" lon="7.211072220130287" id="-3122">
		<tag k="name" v="Gråsteinen" />
		<tag k="natural" v="stone" />
		<tag k="ssr:stedsnr" v="824759" />
	</node>
	<node lat="62.12508611128954" lon="7.155997231272863" id="-3126">
		<tag k="name" v="Kvitura" />
		<tag k="natural" v="scree" />
		<tag k="ssr:stedsnr" v="824829" />
	</node>
	<node lat="62.211380556084045" lon="7.00379999639525" id="-3133">
		<tag k="name" v="Gaddeflærne" />
		<tag k="place" v="locality" />
		<tag k="ssr:stedsnr" v="860376" />
	</node>
	<node lat="62.17697499668732" lon="7.0424055470931615" id="-3165">
		<tag k="name" v="Brattsvøda" />
		<tag k="place" v="locality" />
		<tag k="ssr:stedsnr" v="882229" />
	</node>
	<node lat="62.24546110915828" lon="6.808825003368837" id="-3175">
		<tag k="name" v="Nysvora" />
		<tag k="place" v="locality" />
		<tag k="ssr:stedsnr" v="881496" />
	</node>
	<node lat="62.04952777961409" lon="6.807552776961834" id="-3177">
		<tag k="name" v="Koppmyra" />
		<tag k="natural" v="wetland" />
		<tag k="ssr:stedsnr" v="881789" />
	</node>
	<node lat="62.01630277631235" lon="6.778586112556678" id="-3178">
		<tag k="name" v="Kvitesteinen" />
		<tag k="natural" v="stone" />
		<tag k="ssr:stedsnr" v="881719" />
	</node>
	<node lat="62.01026944771323" lon="6.771913892994247" id="-3186">
		<tag k="name" v="Grønemyra" />
		<tag k="natural" v="wetland" />
		<tag k="ssr:stedsnr" v="882636" />
	</node>
	<node lat="62.116144442956625" lon="6.918825001394325" id="-3187">
		<tag k="name" v="Vintrerugen" />
		<tag k="place" v="locality" />
		<tag k="ssr:stedsnr" v="882830" />
	</node>
	<node lat="62.07318055828866" lon="7.242166659203678" id="-3188">
		<tag k="name" v="Storemyra" />
		<tag k="natural" v="wetland" />
		<tag k="ssr:stedsnr" v="882927" />
	</node>
	<node lat="62.268208330503235" lon="6.968863886515365" id="-3193">
		<tag k="historic" v="shieling" />
		<tag k="name" v="Årsetstølen" />
		<tag k="place" v="locality" />
		<tag k="ssr:stedsnr" v="885758" />
	</node>
	<node lat="62.10009166542466" lon="6.858702786138903" id="-3212">
		<tag k="name" v="Gildreflåna" />
		<tag k="place" v="locality" />
		<tag k="ssr:stedsnr" v="941247" />
	</node>
	<node lat="62.19807500194132" lon="6.909308333486607" id="-3213">
		<tag k="name" v="Austdalsfonna" />
		<tag k="place" v="locality" />
		<tag k="ssr:stedsnr" v="941256" />
	</node>
	<node lat="62.32267777824099" lon="7.045863893380582" id="-3228">
		<tag k="name" v="Skitnemyra" />
		<tag k="natural" v="wetland" />
		<tag k="ssr:stedsnr" v="941996" />
	</node>
	<node lat="62.078247219774646" lon="7.211766661085022" id="-3229">
		<tag k="name" v="Myrane" />
		<tag k="natural" v="wetland" />
		<tag k="ssr:stedsnr" v="942233" />
	</node>
	<node lat="62.03204722618778" lon="6.725866661043619" id="-3230">
		<tag k="name" v="Gråsteinen" />
		<tag k="natural" v="stone" />
		<tag k="ssr:stedsnr" v="942219" />
	</node>
	<node lat="62.040027777201054" lon="6.778672213330479" id="-3234">
		<tag k="name" v="Krokmyrane" />
		<tag k="natural" v="wetland" />
		<tag k="ssr:stedsnr" v="942441" />
	</node>
	<node lat="62.04863888594979" lon="6.734622223712143" id="-3235">
		<tag k="name" v="Midtkvilet" />
		<tag k="natural" v="stone" />
		<tag k="ssr:stedsnr" v="942455" />
	</node>
	<node lat="62.25457777667592" lon="6.967411110683069" id="-3244">
		<tag k="name" v="Vassetmyrane" />
		<tag k="natural" v="wetland" />
		<tag k="ssr:stedsnr" v="942844" />
	</node>
	<node lat="62.24718055208241" lon="7.007000002475284" id="-3245">
		<tag k="name" v="Svødene" />
		<tag k="place" v="locality" />
		<tag k="ssr:stedsnr" v="942852" />
	</node>
	<node lat="62.013472224102735" lon="6.763244441476856" id="-3251">
		<tag k="name" v="Vollen" />
		<tag k="place" v="locality" />
		<tag k="ssr:stedsnr" v="942732" />
	</node>
	<node lat="62.013730554622846" lon="6.760461116793107" id="-3252">
		<tag k="name" v="Storemyra" />
		<tag k="natural" v="wetland" />
		<tag k="ssr:stedsnr" v="942738" />
	</node>
	<node lat="62.080558337240596" lon="7.056997218653022" id="-3253">
		<tag k="name" v="Holtsvødene" />
		<tag k="place" v="locality" />
		<tag k="ssr:stedsnr" v="942754" />
	</node>
	<node lat="62.03981944550476" lon="6.987124997467185" id="-3256">
		<tag k="name" v="Ytstesletta" />
		<tag k="place" v="locality" />
		<tag k="ssr:stedsnr" v="943631" />
	</node>
	<node lat="62.03080555253612" lon="7.267150008527136" id="-3258">
		<tag k="name" v="Myra" />
		<tag k="natural" v="wetland" />
		<tag k="ssr:stedsnr" v="942786" />
	</node>
	<node lat="62.02930833601886" lon="7.27165555670831" id="-3260">
		<tag k="name" v="Neset" />
		<tag k="place" v="locality" />
		<tag k="ssr:stedsnr" v="942801" />
	</node>
	<node lat="62.15210833047072" lon="7.18252500433558" id="-3271">
		<tag k="name" v="Bergulflåene" />
		<tag k="place" v="locality" />
		<tag k="ssr:stedsnr" v="945742" />
	</node>
	<node lat="62.14708775425673" lon="7.2085700737063485" id="-3291">
		<tag k="historic" v="shieling" />
		<tag k="name" v="Gråsteinsætrane" />
		<tag k="place" v="locality" />
		<tag k="ssr:stedsnr" v="986560" />
	</node>
	<node lat="62.134509743197306" lon="7.190463146404128" id="-3293">
		<tag k="name" v="Stigmyra" />
		<tag k="natural" v="wetland" />
		<tag k="ssr:stedsnr" v="986562" />
=======
	<node id="-67853" lat="62.0234722181" lon="6.95575833457">
		<tag k="name" v="Korsfonna" />
		<tag k="place" v="locality" />
		<tag k="ssr:stedsnr" v="154000" />
	</node>
	<node id="-66828" lat="62.2858083328" lon="6.98997222046">
		<tag k="name" v="Seiura" />
		<tag k="natural" v="scree" />
		<tag k="ssr:stedsnr" v="457944" />
	</node>
	<node id="-67851" lat="62.0134805588" lon="7.02126388423">
		<tag k="name" v="Ramneskreda" />
		<tag k="place" v="locality" />
		<tag k="ssr:stedsnr" v="153990" />
	</node>
	<node id="-66519" lat="62.0964305569" lon="7.21297777596">
		<tag k="name" v="Øyane" />
		<tag k="place" v="locality" />
		<tag k="ssr:stedsnr" v="217789" />
	</node>
	<node id="-66824" lat="62.0677555579" lon="7.25792499525">
		<tag k="name" v="Norøyane" />
		<tag k="natural" v="wetland" />
		<tag k="ssr:stedsnr" v="457916" />
	</node>
	<node id="-67334" lat="62.1221305531" lon="6.73095554649">
		<tag k="name" v="Geilskreda" />
		<tag k="place" v="locality" />
		<tag k="ssr:stedsnr" v="760080" />
	</node>
	<node id="-68357" lat="62.1674305532" lon="6.98897222288">
		<tag k="name" v="Seiesteinen" />
		<tag k="natural" v="stone" />
		<tag k="ssr:stedsnr" v="639122" />
	</node>
	<node id="-67332" lat="62.1141555512" lon="6.73811666214">
		<tag k="name" v="Øykjeslettene" />
		<tag k="natural" v="wetland" />
		<tag k="ssr:stedsnr" v="760071" />
	</node>
	<node id="-66687" lat="62.0828361098" lon="7.04325277199">
		<tag k="name" v="Setarsteinen" />
		<tag k="natural" v="stone" />
		<tag k="ssr:stedsnr" v="275716" />
	</node>
	<node id="-67839" lat="62.1854305535" lon="6.93091945054">
		<tag k="name" v="Kvia" />
		<tag k="place" v="locality" />
		<tag k="ssr:stedsnr" v="153814" />
	</node>
	<node id="-66814" lat="62.1008416679" lon="6.94610000354">
		<tag k="name" v="Seljeflåna" />
		<tag k="place" v="locality" />
		<tag k="ssr:stedsnr" v="457753" />
	</node>
	<node id="-67837" lat="62.0095194445" lon="6.78316111457">
		<tag k="name" v="Svøra" />
		<tag k="place" v="locality" />
		<tag k="ssr:stedsnr" v="153741" />
	</node>
	<node id="-67835" lat="62.0197638875" lon="6.7594555582">
		<tag k="name" v="Ørrmyra" />
		<tag k="natural" v="wetland" />
		<tag k="ssr:stedsnr" v="153729" />
	</node>
	<node id="-68346" lat="62.0318027816" lon="7.31803055006">
		<tag k="name" v="Rosenkviststeinen" />
		<tag k="natural" v="stone" />
		<tag k="ssr:stedsnr" v="638781" />
	</node>
	<node id="-66809" lat="62.0415500021" lon="6.95612222699">
		<tag k="name" v="Myreteigane" />
		<tag k="natural" v="wetland" />
		<tag k="ssr:stedsnr" v="457632" />
	</node>
	<node id="-66808" lat="62.0949611109" lon="7.09463332884">
		<tag k="name" v="Bannarflåna" />
		<tag k="place" v="locality" />
		<tag k="ssr:stedsnr" v="457614" />
	</node>
	<node id="-68342" lat="62.1019083302" lon="7.11336944104">
		<tag k="historic" v="shieling" />
		<tag k="name" v="Skageflålitlesætra" />
		<tag k="place" v="locality" />
		<tag k="ssr:stedsnr" v="638617" />
	</node>
	<node id="-66800" lat="62.084355554" lon="7.02142778113">
		<tag k="name" v="Storsteinane" />
		<tag k="natural" v="stone" />
		<tag k="ssr:stedsnr" v="457251" />
	</node>
	<node id="-67624" lat="62.0879777754" lon="7.07060277573">
		<tag k="name" v="Ljosurtåna" />
		<tag k="natural" v="scree" />
		<tag k="ssr:stedsnr" v="32713" />
	</node>
	<node id="-67822" lat="62.0783222203" lon="7.23559999261">
		<tag k="name" v="Vassmyrane" />
		<tag k="natural" v="wetland" />
		<tag k="ssr:stedsnr" v="153040" />
	</node>
	<node id="-66797" lat="62.0812555567" lon="6.90985555769">
		<tag k="name" v="Hesten" />
		<tag k="natural" v="stone" />
		<tag k="ssr:stedsnr" v="457236" />
	</node>
	<node id="-67538" lat="62.0871472247" lon="6.88425834262">
		<tag k="name" v="Kurla" />
		<tag k="place" v="locality" />
		<tag k="ssr:stedsnr" v="946822" />
	</node>
	<node id="-66966" lat="62.0438444434" lon="6.95380000548">
		<tag k="name" v="Sandteigane" />
		<tag k="place" v="locality" />
		<tag k="ssr:stedsnr" v="396622" />
	</node>
	<node id="-67451" lat="62.3226777782" lon="7.04586389338">
		<tag k="name" v="Skitnemyra" />
		<tag k="natural" v="wetland" />
		<tag k="ssr:stedsnr" v="941996" />
	</node>
	<node id="-68325" lat="62.1928972179" lon="6.9109472213">
		<tag k="name" v="Nysvora" />
		<tag k="place" v="locality" />
		<tag k="ssr:stedsnr" v="637298" />
	</node>
	<node id="-67299" lat="62.0991111122" lon="6.7533055558">
		<tag k="name" v="Dyrhaldmyra" />
		<tag k="natural" v="wetland" />
		<tag k="ssr:stedsnr" v="699809" />
	</node>
	<node id="-68322" lat="62.0399694436" lon="6.99016945379">
		<tag k="name" v="Kornkviene" />
		<tag k="place" v="locality" />
		<tag k="ssr:stedsnr" v="636670" />
	</node>
	<node id="-68321" lat="62.3067722262" lon="7.10547500929">
		<tag k="name" v="Gråura" />
		<tag k="natural" v="scree" />
		<tag k="ssr:stedsnr" v="636147" />
	</node>
	<node id="-66784" lat="62.107777776" lon="6.99696110465">
		<tag k="name" v="Korssvødene" />
		<tag k="place" v="locality" />
		<tag k="ssr:stedsnr" v="456617" />
	</node>
	<node id="-67295" lat="62.1843972179" lon="6.92286110857">
		<tag k="name" v="Neset" />
		<tag k="natural" v="wetland" />
		<tag k="ssr:stedsnr" v="699766" />
	</node>
	<node id="-66780" lat="62.1067472231" lon="6.74065000106">
		<tag k="name" v="Myrane" />
		<tag k="natural" v="wetland" />
		<tag k="ssr:stedsnr" v="456585" />
	</node>
	<node id="-67803" lat="62.3100777817" lon="7.08218333129">
		<tag k="name" v="Langmyra" />
		<tag k="natural" v="wetland" />
		<tag k="ssr:stedsnr" v="151163" />
	</node>
	<node id="-68360" lat="62.0863222261" lon="6.99905833467">
		<tag k="name" v="Brattsvødene" />
		<tag k="place" v="locality" />
		<tag k="ssr:stedsnr" v="639296" />
	</node>
	<node id="-67285" lat="62.301458335" lon="7.12684166587">
		<tag k="name" v="Bjønnalauget" />
		<tag k="natural" v="wetland" />
		<tag k="ssr:stedsnr" v="698275" />
	</node>
	<node id="-66770" lat="62.0916055554" lon="6.87199445189">
		<tag k="name" v="Seiura" />
		<tag k="natural" v="scree" />
		<tag k="ssr:stedsnr" v="456119" />
	</node>
	<node id="-67281" lat="62.3113694482" lon="7.10156666738">
		<tag k="name" v="Knutfonna" />
		<tag k="place" v="locality" />
		<tag k="ssr:stedsnr" v="698119" />
	</node>
	<node id="-67960" lat="62.0520750018" lon="6.9451916665">
		<tag k="name" v="Hestøyna" />
		<tag k="place" v="locality" />
		<tag k="ssr:stedsnr" v="215356" />
	</node>
	<node id="-66766" lat="62.3362027735" lon="6.91770000311">
		<tag k="name" v="Bjønnsteinen" />
		<tag k="natural" v="stone" />
		<tag k="ssr:stedsnr" v="455906" />
	</node>
	<node id="-67277" lat="62.3517305569" lon="6.89178889241">
		<tag k="name" v="Løkmyra" />
		<tag k="natural" v="wetland" />
		<tag k="ssr:stedsnr" v="697005" />
	</node>
	<node id="-66759" lat="62.2579638913" lon="6.90613055733">
		<tag k="name" v="Blåura" />
		<tag k="natural" v="scree" />
		<tag k="ssr:stedsnr" v="455617" />
	</node>
	<node id="-67265" lat="62.0231833317" lon="7.01725555563">
		<tag k="name" v="Svartesvaet" />
		<tag k="place" v="locality" />
		<tag k="ssr:stedsnr" v="882966" />
	</node>
	<node id="-67263" lat="62.0731805583" lon="7.2421666592">
		<tag k="name" v="Storemyra" />
		<tag k="natural" v="wetland" />
		<tag k="ssr:stedsnr" v="882927" />
	</node>
	<node id="-67261" lat="62.116144443" lon="6.91882500139">
		<tag k="name" v="Vintrerugen" />
		<tag k="place" v="locality" />
		<tag k="ssr:stedsnr" v="882830" />
	</node>
	<node id="-66745" lat="62.0590444413" lon="7.25495832442">
		<tag k="name" v="Høgmyra" />
		<tag k="natural" v="wetland" />
		<tag k="ssr:stedsnr" v="214922" />
	</node>
	<node id="-67767" lat="62.1189805515" lon="6.91820278508">
		<tag k="name" v="Beithoggane" />
		<tag k="place" v="locality" />
		<tag k="ssr:stedsnr" v="113636" />
	</node>
	<node id="-68277" lat="61.998166665" lon="7.18203056095">
		<tag k="name" v="Nautbreen" />
		<tag k="natural" v="glacier" />
		<tag k="ssr:stedsnr" v="616400" />
	</node>
	<node id="-67762" lat="62.3021694453" lon="6.93018054898">
		<tag k="name" v="Hjellemyra" />
		<tag k="natural" v="wetland" />
		<tag k="ssr:stedsnr" v="96993" />
	</node>
	<node id="-66736" lat="62.1449750008" lon="6.94726111988">
		<tag k="name" v="Almflærne" />
		<tag k="place" v="locality" />
		<tag k="ssr:stedsnr" v="214303" />
	</node>
	<node id="-67247" lat="62.0102694477" lon="6.77191389299">
		<tag k="name" v="Grønemyra" />
		<tag k="natural" v="wetland" />
		<tag k="ssr:stedsnr" v="882636" />
	</node>
	<node id="-68270" lat="62.0963055536" lon="7.19124166817">
		<tag k="name" v="Børkaflåna" />
		<tag k="place" v="locality" />
		<tag k="ssr:stedsnr" v="580996" />
	</node>
	<node id="-67756" lat="62.0228833343" lon="7.01281389425">
		<tag k="name" v="Brekketeigen" />
		<tag k="place" v="locality" />
		<tag k="ssr:stedsnr" v="93954" />
	</node>
	<node id="-68266" lat="62.2838527818" lon="6.99663610815">
		<tag k="name" v="Kråkemyra" />
		<tag k="natural" v="wetland" />
		<tag k="ssr:stedsnr" v="578978" />
	</node>
	<node id="-66727" lat="62.3105305529" lon="7.06208611723">
		<tag k="name" v="Gjerdemyra" />
		<tag k="natural" v="wetland" />
		<tag k="ssr:stedsnr" v="212113" />
	</node>
	<node id="-68262" lat="62.1056166682" lon="7.00026944048">
		<tag k="name" v="Korsesteinen" />
		<tag k="natural" v="stone" />
		<tag k="ssr:stedsnr" v="578795" />
	</node>
	<node id="-68261" lat="62.1080388908" lon="6.99369722516">
		<tag k="name" v="Otreflåna" />
		<tag k="place" v="locality" />
		<tag k="ssr:stedsnr" v="578792" />
	</node>
	<node id="-66722" lat="62.2988722259" lon="6.81145277939">
		<tag k="name" v="Langlofonna" />
		<tag k="place" v="locality" />
		<tag k="ssr:stedsnr" v="193607" />
	</node>
	<node id="-68257" lat="62.0187166653" lon="6.75396945142">
		<tag k="name" v="Synda" />
		<tag k="natural" v="wetland" />
		<tag k="ssr:stedsnr" v="578680" />
	</node>
	<node id="-67744" lat="62.0474277749" lon="7.0504027822">
		<tag k="historic" v="shieling" />
		<tag k="name" v="Heimesætra" />
		<tag k="place" v="locality" />
		<tag k="ssr:stedsnr" v="93622" />
	</node>
	<node id="-68255" lat="62.0443055553" lon="6.96155555929">
		<tag k="name" v="Storura" />
		<tag k="natural" v="scree" />
		<tag k="ssr:stedsnr" v="578635" />
	</node>
	<node id="-67229" lat="62.0551833342" lon="6.9573861126">
		<tag k="name" v="Breisvaet" />
		<tag k="place" v="locality" />
		<tag k="ssr:stedsnr" v="882269" />
	</node>
	<node id="-67740" lat="62.0983555566" lon="7.10156666501">
		<tag k="name" v="Storesteinen" />
		<tag k="natural" v="stone" />
		<tag k="ssr:stedsnr" v="93561" />
	</node>
	<node id="-67227" lat="62.1769749967" lon="7.04240554709">
		<tag k="name" v="Brattsvøda" />
		<tag k="place" v="locality" />
		<tag k="ssr:stedsnr" v="882229" />
	</node>
	<node id="-67738" lat="62.1129194464" lon="7.14791110878">
		<tag k="name" v="Monssteinen" />
		<tag k="natural" v="stone" />
		<tag k="ssr:stedsnr" v="93496" />
	</node>
	<node id="-67737" lat="62.1137611105" lon="7.15171666558">
		<tag k="name" v="Tenneflåna" />
		<tag k="place" v="locality" />
		<tag k="ssr:stedsnr" v="93494" />
	</node>
	<node id="-67735" lat="62.1400361131" lon="6.9861527689">
		<tag k="name" v="Furnesflærne" />
		<tag k="place" v="locality" />
		<tag k="ssr:stedsnr" v="93297" />
	</node>
	<node id="-67734" lat="62.1482361149" lon="6.95092221927">
		<tag k="name" v="Johannesflåna" />
		<tag k="place" v="locality" />
		<tag k="ssr:stedsnr" v="93285" />
	</node>
	<node id="-67097" lat="62.0792527779" lon="6.93744999103">
		<tag k="name" v="Fallarsteinen" />
		<tag k="natural" v="stone" />
		<tag k="ssr:stedsnr" v="700295" />
	</node>
	<node id="-67219" lat="62.0495277796" lon="6.80755277696">
		<tag k="name" v="Koppmyra" />
		<tag k="natural" v="wetland" />
		<tag k="ssr:stedsnr" v="881789" />
	</node>
	<node id="-66706" lat="61.9938805581" lon="6.8083777774">
		<tag k="name" v="Sætrekviene" />
		<tag k="place" v="locality" />
		<tag k="ssr:stedsnr" v="289031" />
	</node>
	<node id="-67729" lat="62.1019750024" lon="7.00909999695">
		<tag k="name" v="Korsflåna" />
		<tag k="place" v="locality" />
		<tag k="ssr:stedsnr" v="93177" />
	</node>
	<node id="-67726" lat="62.2642111122" lon="6.97089722247">
		<tag k="name" v="Alfarmyra" />
		<tag k="natural" v="wetland" />
		<tag k="ssr:stedsnr" v="92986" />
	</node>
	<node id="-67213" lat="62.2454611092" lon="6.80882500337">
		<tag k="name" v="Nysvora" />
		<tag k="place" v="locality" />
		<tag k="ssr:stedsnr" v="881496" />
	</node>
	<node id="-66839" lat="62.313383337" lon="7.04175832632">
		<tag k="name" v="Haslevikmyra" />
		<tag k="natural" v="wetland" />
		<tag k="ssr:stedsnr" v="273963" />
	</node>
	<node id="-67720" lat="62.255494442" lon="7.00464444482">
		<tag k="name" v="Almura" />
		<tag k="natural" v="scree" />
		<tag k="ssr:stedsnr" v="92801" />
	</node>
	<node id="-66695" lat="62.0999555519" lon="7.2100527753">
		<tag k="name" v="Mjølkesletta" />
		<tag k="place" v="locality" />
		<tag k="ssr:stedsnr" v="277776" />
	</node>
	<node id="-68230" lat="62.3192194455" lon="7.04150556315">
		<tag k="name" v="Demmå" />
		<tag k="natural" v="wetland" />
		<tag k="ssr:stedsnr" v="576987" />
	</node>
	<node id="-67711" lat="62.1640861093" lon="6.97574444904">
		<tag k="fixme" v="multiple name tags, choose one and add the other to alt_name" />
		<tag k="name" v="Breidfonna;Breifonna" />
		<tag k="place" v="locality" />
		<tag k="ssr:stedsnr" v="92478" />
	</node>
	<node id="-68222" lat="62.2170722195" lon="6.92520277099">
		<tag k="name" v="Juklestriket" />
		<tag k="place" v="locality" />
		<tag k="ssr:stedsnr" v="569249" />
	</node>
	<node id="-67709" lat="62.0301444415" lon="6.75302777964">
		<tag k="name" v="Bødvamyra" />
		<tag k="natural" v="wetland" />
		<tag k="ssr:stedsnr" v="92354" />
	</node>
	<node id="-67007" lat="62.0834694429" lon="7.01956111571">
		<tag k="name" v="Allsvaet" />
		<tag k="place" v="locality" />
		<tag k="ssr:stedsnr" v="518280" />
	</node>
	<node id="-67191" lat="62.0980583361" lon="6.87528888202">
		<tag k="name" v="Almflærne" />
		<tag k="place" v="locality" />
		<tag k="ssr:stedsnr" v="880106" />
	</node>
	<node id="-66822" lat="62.2217027781" lon="7.00460277736">
		<tag k="name" v="Gryddeviksteinen" />
		<tag k="natural" v="stone" />
		<tag k="ssr:stedsnr" v="457853" />
	</node>
	<node id="-66580" lat="62.0493972248" lon="6.74276389521">
		<tag k="name" v="Bjørnaøya" />
		<tag k="natural" v="wetland" />
		<tag k="ssr:stedsnr" v="92531" />
	</node>
	<node id="-67696" lat="62.3551527749" lon="6.89255834113">
		<tag k="name" v="Almflåa" />
		<tag k="place" v="locality" />
		<tag k="ssr:stedsnr" v="91068" />
	</node>
	<node id="-66671" lat="62.0760555551" lon="7.2531944384">
		<tag k="name" v="Ørresvaet" />
		<tag k="place" v="locality" />
		<tag k="ssr:stedsnr" v="275041" />
	</node>
	<node id="-66670" lat="62.0800277808" lon="7.23222499695">
		<tag k="name" v="Hestøyna" />
		<tag k="place" v="locality" />
		<tag k="ssr:stedsnr" v="275037" />
	</node>
	<node id="-66908" lat="62.0042777738" lon="7.03731389396">
		<tag k="name" v="Urene" />
		<tag k="natural" v="scree" />
		<tag k="ssr:stedsnr" v="335919" />
	</node>
	<node id="-68203" lat="62.0686805525" lon="7.17243333965">
		<tag k="name" v="Sandfonna" />
		<tag k="natural" v="glacier" />
		<tag k="ssr:stedsnr" v="556489" />
	</node>
	<node id="-68202" lat="62.0569944481" lon="7.1785749986">
		<tag k="name" v="Flydalsbreen" />
		<tag k="natural" v="glacier" />
		<tag k="ssr:stedsnr" v="556488" />
	</node>
	<node id="-67171" lat="62.312369446" lon="7.04959165851">
		<tag k="name" v="Storflåa" />
		<tag k="place" v="locality" />
		<tag k="ssr:stedsnr" v="636953" />
	</node>
	<node id="-66658" lat="62.2598638869" lon="6.97975556251">
		<tag k="name" v="Myrane" />
		<tag k="natural" v="wetland" />
		<tag k="ssr:stedsnr" v="274782" />
	</node>
	<node id="-67515" lat="62.1024611153" lon="7.22160278072">
		<tag k="historic" v="shieling" />
		<tag k="name" v="Liastølen" />
		<tag k="place" v="locality" />
		<tag k="ssr:stedsnr" v="885506" />
	</node>
	<node id="-68192" lat="62.123327782" lon="7.18578888149">
		<tag k="name" v="Reitane" />
		<tag k="place" v="locality" />
		<tag k="ssr:stedsnr" v="521817" />
	</node>
	<node id="-67678" lat="62.1258638868" lon="7.14916667111">
		<tag k="name" v="Kvitura" />
		<tag k="natural" v="scree" />
		<tag k="ssr:stedsnr" v="72364" />
	</node>
	<node id="-66652" lat="62.0642805527" lon="6.70484722517">
		<tag k="name" v="Simosteinen" />
		<tag k="natural" v="stone" />
		<tag k="ssr:stedsnr" v="274560" />
	</node>
	<node id="-66651" lat="62.2762111153" lon="6.87571111225">
		<tag k="name" v="Fursetøyane" />
		<tag k="natural" v="wetland" />
		<tag k="ssr:stedsnr" v="274556" />
	</node>
	<node id="-67160" lat="62.0868694454" lon="7.06371110716">
		<tag k="name" v="Ljosura" />
		<tag k="natural" v="scree" />
		<tag k="ssr:stedsnr" v="617437" />
	</node>
	<node id="-66647" lat="62.2258555562" lon="6.84579167565">
		<tag k="name" v="Storfonna" />
		<tag k="place" v="locality" />
		<tag k="ssr:stedsnr" v="274245" />
	</node>
	<node id="-66830" lat="62.0550861075" lon="7.25466666417">
		<tag k="name" v="Elvabreen" />
		<tag k="natural" v="glacier" />
		<tag k="ssr:stedsnr" v="457999" />
	</node>
	<node id="-66641" lat="62.0344333307" lon="7.01908056286">
		<tag k="name" v="Middagssteinen" />
		<tag k="natural" v="stone" />
		<tag k="ssr:stedsnr" v="273649" />
	</node>
	<node id="-66639" lat="62.0271305596" lon="7.00316666294">
		<tag k="name" v="Histeinen" />
		<tag k="natural" v="stone" />
		<tag k="ssr:stedsnr" v="273638" />
	</node>
	<node id="-68365" lat="62.0958027755" lon="6.92567778494">
		<tag k="name" v="Nedsteflåna" />
		<tag k="place" v="locality" />
		<tag k="ssr:stedsnr" v="639767" />
	</node>
	<node id="-66634" lat="62.3003222207" lon="7.10642776959">
		<tag k="name" v="Sjoamyra" />
		<tag k="natural" v="wetland" />
		<tag k="ssr:stedsnr" v="273171" />
	</node>
	<node id="-66633" lat="62.362411111" lon="6.88704445109">
		<tag k="name" v="Klokkarskreå" />
		<tag k="place" v="locality" />
		<tag k="ssr:stedsnr" v="273077" />
	</node>
	<node id="-67653" lat="62.1388561599" lon="7.2029482058">
		<tag k="name" v="Møllsmyrane" />
		<tag k="natural" v="wetland" />
		<tag k="ssr:stedsnr" v="35998" />
	</node>
	<node id="-68163" lat="62.3196277798" lon="6.91330833557">
		<tag k="name" v="Koppemyra" />
		<tag k="natural" v="wetland" />
		<tag k="ssr:stedsnr" v="399800" />
	</node>
	<node id="-66827" lat="62.0727888918" lon="7.24778888512">
		<tag k="name" v="Moldbakk-kyrkja" />
		<tag k="natural" v="stone" />
		<tag k="ssr:stedsnr" v="457928" />
	</node>
	<node id="-66656" lat="62.0795666687" lon="6.82314166378">
		<tag k="name" v="Einesteinen" />
		<tag k="natural" v="stone" />
		<tag k="ssr:stedsnr" v="274592" />
	</node>
	<node id="-66741" lat="62.0494694477" lon="7.05008611544">
		<tag k="historic" v="shieling" />
		<tag k="name" v="Heimesætra" />
		<tag k="place" v="locality" />
		<tag k="ssr:stedsnr" v="214725" />
	</node>
	<node id="-67642" lat="62.1291305517" lon="7.17686667042">
		<tag k="name" v="Gjerdemyrane" />
		<tag k="natural" v="wetland" />
		<tag k="ssr:stedsnr" v="34730" />
	</node>
	<node id="-68153" lat="62.0144361155" lon="7.01831666738">
		<tag k="name" v="Hoskreda" />
		<tag k="place" v="locality" />
		<tag k="ssr:stedsnr" v="396984" />
	</node>
	<node id="-67126" lat="62.3159638886" lon="6.88678610861">
		<tag k="name" v="Breimyra" />
		<tag k="natural" v="wetland" />
		<tag k="ssr:stedsnr" v="703821" />
	</node>
	<node id="-66825" lat="62.0699249965" lon="7.24320833093">
		<tag k="name" v="Villøyane" />
		<tag k="natural" v="wetland" />
		<tag k="ssr:stedsnr" v="457921" />
	</node>
	<node id="-68165" lat="62.1486277817" lon="7.19080277047">
		<tag k="name" v="Nilsmyra" />
		<tag k="natural" v="wetland" />
		<tag k="ssr:stedsnr" v="399809" />
	</node>
	<node id="-68143" lat="62.1057333318" lon="6.93758611787">
		<tag k="name" v="Nokkesvødene" />
		<tag k="place" v="locality" />
		<tag k="ssr:stedsnr" v="396743" />
	</node>
	<node id="-68140" lat="62.0152944444" lon="6.77197499539">
		<tag k="name" v="Brendekviene" />
		<tag k="place" v="locality" />
		<tag k="ssr:stedsnr" v="396700" />
	</node>
	<node id="-67626" lat="62.206236115" lon="6.91566666871">
		<tag k="name" v="Løvollen" />
		<tag k="natural" v="wetland" />
		<tag k="ssr:stedsnr" v="32758" />
	</node>
	<node id="-68136" lat="62.1422055517" lon="6.98641110828">
		<tag k="name" v="Ormesvaet" />
		<tag k="place" v="locality" />
		<tag k="ssr:stedsnr" v="396321" />
	</node>
	<node id="-68135" lat="62.0537333364" lon="6.95806944902">
		<tag k="name" v="Svartesvaet" />
		<tag k="place" v="locality" />
		<tag k="ssr:stedsnr" v="396267" />
	</node>
	<node id="-67620" lat="62.0606833342" lon="6.70436944379">
		<tag k="name" v="Purkura" />
		<tag k="natural" v="scree" />
		<tag k="ssr:stedsnr" v="32552" />
	</node>
	<node id="-68131" lat="62.0661333343" lon="6.92907500389">
		<tag k="name" v="Storemyra" />
		<tag k="natural" v="wetland" />
		<tag k="ssr:stedsnr" v="396251" />
	</node>
	<node id="-68125" lat="62.1706277774" lon="6.99638333488">
		<tag k="name" v="Flosteinane" />
		<tag k="natural" v="stone" />
		<tag k="ssr:stedsnr" v="396080" />
	</node>
	<node id="-67612" lat="62.140688889" lon="6.94109445036">
		<tag k="name" v="Flærne" />
		<tag k="place" v="locality" />
		<tag k="ssr:stedsnr" v="32278" />
	</node>
	<node id="-68237" lat="62.1440666693" lon="6.94873888028">
		<tag k="name" v="Brattsvødene" />
		<tag k="place" v="locality" />
		<tag k="ssr:stedsnr" v="577485" />
	</node>
	<node id="-67093" lat="62.0064638863" lon="6.7788694352">
		<tag k="name" v="Instegrovøyane" />
		<tag k="natural" v="wetland" />
		<tag k="ssr:stedsnr" v="699696" />
	</node>
	<node id="-67604" lat="62.0834694451" lon="7.22120555022">
		<tag k="name" v="Øyane" />
		<tag k="natural" v="wetland" />
		<tag k="ssr:stedsnr" v="32042" />
	</node>
	<node id="-67091" lat="62.0479805594" lon="7.04093888685">
		<tag k="name" v="Børkjeura" />
		<tag k="natural" v="scree" />
		<tag k="ssr:stedsnr" v="699670" />
	</node>
	<node id="-67600" lat="62.0903333298" lon="6.98960555002">
		<tag k="name" v="Sylteviksvødene" />
		<tag k="place" v="locality" />
		<tag k="ssr:stedsnr" v="31628" />
	</node>
	<node id="-67416" lat="61.9897749985" lon="7.04007223177">
		<tag k="name" v="Arnemyra" />
		<tag k="natural" v="wetland" />
		<tag k="ssr:stedsnr" v="821962" />
	</node>
	<node id="-67084" lat="62.0636472241" lon="6.82327778293">
		<tag k="name" v="Bjørnamyra" />
		<tag k="natural" v="wetland" />
		<tag k="ssr:stedsnr" v="698800" />
	</node>
	<node id="-67082" lat="62.1104944435" lon="6.84888333232">
		<tag k="name" v="Høystakkmyrane" />
		<tag k="natural" v="wetland" />
		<tag k="ssr:stedsnr" v="698236" />
	</node>
	<node id="-68105" lat="62.1375555543" lon="6.80591666553">
		<tag k="name" v="Henriksteinen" />
		<tag k="natural" v="stone" />
		<tag k="ssr:stedsnr" v="394729" />
	</node>
	<node id="-68104" lat="62.0915388901" lon="6.9072916688">
		<tag k="name" v="Trufteflena" />
		<tag k="place" v="locality" />
		<tag k="ssr:stedsnr" v="395082" />
	</node>
	<node id="-66732" lat="62.1110638895" lon="6.73879444707">
		<tag k="name" v="Kvia" />
		<tag k="natural" v="wetland" />
		<tag k="ssr:stedsnr" v="213621" />
	</node>
	<node id="-67077" lat="62.1409055567" lon="7.18207222372">
		<tag k="name" v="Resmyrane" />
		<tag k="natural" v="wetland" />
		<tag k="ssr:stedsnr" v="520528" />
	</node>
	<node id="-66902" lat="62.0978333323" lon="7.10773334233">
		<tag k="name" v="Bjørnaflåna" />
		<tag k="place" v="locality" />
		<tag k="ssr:stedsnr" v="335643" />
>>>>>>> e1d4bc35ff8a6074a6f2e91616a996b547c36f15
	</node>
</osm>
