<?xml version="1.0" encoding="UTF-8"?>
<osm generator="osmapis" version="0.6">
	<node id="-475929" lat="59.4635805521" lon="8.20756666094">
		<tag k="historic" v="boundary_stone" />
		<tag k="man_made" v="cairn" />
		<tag k="name" v="Lovmannsteinen" />
		<tag k="place" v="locality" />
		<tag k="ssr:stedsnr" v="813567" />
	</node>
	<node id="-475928" lat="59.4610333348" lon="8.20396666543">
		<tag k="historic" v="boundary_stone" />
		<tag k="man_made" v="cairn" />
		<tag k="name" v="Sosåssteinen" />
		<tag k="place" v="locality" />
		<tag k="ssr:stedsnr" v="813564" />
	</node>
	<node id="-475156" lat="59.3628212589" lon="8.16331890733">
		<tag k="historic" v="boundary_stone" />
		<tag k="man_made" v="cairn" />
		<tag k="name" v="Hanestein" />
		<tag k="place" v="locality" />
		<tag k="ssr:stedsnr" v="355754" />
	</node>
	<node id="-474004" lat="59.3865333366" lon="8.23555277736">
		<tag k="alt_name" v="Grimedalssteinen" />
		<tag k="historic" v="boundary_stone" />
		<tag k="man_made" v="cairn" />
		<tag k="name" v="Grimdalssteinen" />
		<tag k="place" v="locality" />
		<tag k="ssr:stedsnr" v="912321" />
	</node>
	<node id="-474222" lat="59.3893416676" lon="8.16571111931">
		<tag k="fixme" v="specify shooting=range, clay_pigeon etc" />
		<tag k="leisure" v="pitch" />
		<tag k="name" v="Skytebane" />
		<tag k="sport" v="shooting" />
		<tag k="ssr:stedsnr" v="874762" />
	</node>
	<node id="-472844" lat="59.5189277809" lon="8.22707500427">
		<tag k="historic" v="boundary_stone" />
		<tag k="man_made" v="cairn" />
		<tag k="name" v="Fireskillingsnippen" />
		<tag k="place" v="locality" />
		<tag k="ssr:stedsnr" v="145765" />
	</node>
	<node id="-475108" lat="59.3430444458" lon="8.00176667365">
		<tag k="historic" v="boundary_stone" />
		<tag k="man_made" v="cairn" />
		<tag k="name" v="Sæbyggen" />
		<tag k="place" v="locality" />
		<tag k="ssr:stedsnr" v="349108" />
	</node>
</osm>
