<?xml version="1.0" encoding="UTF-8"?>
<osm generator="osmapis" version="0.6">
	<node id="-405486" lat="59.4787805573" lon="8.09517778033">
		<tag k="name" v="Homstøyltjønn" />
		<tag k="natural" v="water" />
		<tag k="ssr:stedsnr" v="960466" />
	</node>
	<node id="-405481" lat="59.5175444457" lon="8.19978888011">
		<tag k="name" v="Russlandsbekken" />
		<tag k="ssr:stedsnr" v="960267" />
		<tag k="waterway" v="stream" />
	</node>
	<node id="-405475" lat="59.4401638869" lon="8.06188611751">
		<tag k="alt_name" v="Reinnesodden" />
		<tag k="name" v="Renes" />
		<tag k="natural" v="cape" />
		<tag k="ssr:stedsnr" v="938339" />
	</node>
	<node id="-405472" lat="59.5214972192" lon="8.29666944099">
		<tag k="name" v="Vrångbekk" />
		<tag k="ssr:stedsnr" v="936805" />
		<tag k="waterway" v="stream" />
	</node>
	<node id="-405157" lat="59.4988833339" lon="8.14175555165">
		<tag k="name" v="Ovestøyltjønni" />
		<tag k="natural" v="water" />
		<tag k="ssr:stedsnr" v="718184" />
	</node>
	<node id="-405464" lat="59.3437333309" lon="7.69175555543">
		<tag k="name" v="Vøylen" />
		<tag k="old_name" v="Voilen" />
		<tag k="place" v="locality" />
		<tag k="ssr:stedsnr" v="913514" />
	</node>
	<node id="-405454" lat="59.5189916675" lon="8.09362778135">
		<tag k="name" v="Nystøyltjønni" />
		<tag k="natural" v="water" />
		<tag k="ssr:stedsnr" v="899368" />
	</node>
	<node id="-405446" lat="59.4194972243" lon="7.94097778091">
		<tag k="name" v="Heftestjønnane" />
		<tag k="natural" v="water" />
		<tag k="ssr:stedsnr" v="877804" />
	</node>
	<node id="-404129" lat="59.4834277737" lon="7.87901667042">
		<tag k="name" v="Nautodden" />
		<tag k="natural" v="cape" />
		<tag k="ssr:stedsnr" v="288291" />
	</node>
	<node id="-405444" lat="59.5855833379" lon="7.81252500149">
		<tag k="name" v="Rauå" />
		<tag k="ssr:stedsnr" v="877089" />
		<tag k="waterway" v="river" />
	</node>
	<node id="-404468" lat="59.4386500036" lon="8.03581666411">
		<tag k="name" v="Bandak" />
		<tag k="natural" v="water" />
		<tag k="ssr:stedsnr" v="487841" />
		<tag k="water" v="lake" />
	</node>
	<node id="-405429" lat="59.4263888895" lon="8.14182500749">
		<tag k="name" v="Hytteodden" />
		<tag k="natural" v="cape" />
		<tag k="ssr:stedsnr" v="874357" />
	</node>
	<node id="-405422" lat="59.5860027816" lon="7.5950638868">
		<tag k="alt_name" v="Skurevasstjørnane, nordre" />
		<tag k="name" v="Nordre Skurevasstjønnane" />
		<tag k="natural" v="water" />
		<tag k="ssr:stedsnr" v="853673" />
	</node>
	<node id="-405415" lat="59.4391027796" lon="7.73931943842">
		<tag k="alt_name" v="Vassendtjørn;Vassentjønni" />
		<tag k="name" v="Vassendtjønni" />
		<tag k="natural" v="water" />
		<tag k="ssr:stedsnr" v="852817" />
	</node>
	<node id="-405409" lat="59.4263555542" lon="8.11594444637">
		<tag k="name" v="Hamarodden" />
		<tag k="natural" v="cape" />
		<tag k="ssr:stedsnr" v="852473" />
	</node>
	<node id="-405404" lat="59.5089555587" lon="7.86930000661">
		<tag k="alt_name" v="Flatamotjørn" />
		<tag k="name" v="Flatamotjønni" />
		<tag k="natural" v="water" />
		<tag k="ssr:stedsnr" v="852009" />
	</node>
	<node id="-403919" lat="59.4508750033" lon="8.26870556412">
		<tag k="alt_name" v="Kovsvatnet, vle;Kovsvatnet, vesle" />
		<tag k="name" v="Vesle Kåvsvatn" />
		<tag k="natural" v="water" />
		<tag k="ssr:stedsnr" v="245387" />
	</node>
	<node id="-405383" lat="59.4295611148" lon="7.91000556361">
		<tag k="name" v="Hettesteinen" />
		<tag k="place" v="islet" />
		<tag k="ssr:stedsnr" v="836867" />
	</node>
	<node id="-405379" lat="59.5352222211" lon="8.14430834072">
		<tag k="name" v="Bergstøyltjønni" />
		<tag k="natural" v="water" />
		<tag k="ssr:stedsnr" v="938252" />
	</node>
	<node id="-406507" lat="59.4798444422" lon="7.78709722469">
		<tag k="name" v="Botnedalsåi" />
		<tag k="ssr:stedsnr" v="410708" />
		<tag k="waterway" v="river" />
	</node>
	<node id="-405369" lat="59.4950249986" lon="7.83855278146">
		<tag k="name" v="Korviki" />
		<tag k="natural" v="bay" />
		<tag k="ssr:stedsnr" v="835823" />
	</node>
	<node id="-405367" lat="59.481161108" lon="7.82728889354">
		<tag k="name" v="Bubekken" />
		<tag k="ssr:stedsnr" v="938152" />
		<tag k="waterway" v="stream" />
	</node>
	<node id="-405366" lat="59.4929833308" lon="7.9466888926">
		<tag k="name" v="Espestøylbekken" />
		<tag k="ssr:stedsnr" v="938150" />
		<tag k="waterway" v="stream" />
	</node>
	<node id="-404456" lat="59.4959722257" lon="8.03216945249">
		<tag k="alt_name" v="Rolitjørn" />
		<tag k="name" v="Rolitjønn" />
		<tag k="natural" v="water" />
		<tag k="ssr:stedsnr" v="487676" />
	</node>
	<node id="-405349" lat="59.3342638865" lon="7.76077778543">
		<tag k="alt_name" v="Trettestøyltjønn" />
		<tag k="name" v="Trettestøyltjørni" />
		<tag k="natural" v="water" />
		<tag k="ssr:stedsnr" v="937379" />
	</node>
	<node id="-405344" lat="59.3990388854" lon="8.08308888981">
		<tag k="name" v="Gjerulvstøylstjønnan" />
		<tag k="natural" v="water" />
		<tag k="old_name" v="Gjerulvsøylstjønnane" />
		<tag k="ssr:stedsnr" v="936169" />
	</node>
	<node id="-405341" lat="59.4558361113" lon="8.23139444224">
		<tag k="name" v="Veilen" />
		<tag k="natural" v="strait" />
		<tag k="ssr:stedsnr" v="935687" />
	</node>
	<node id="-405336" lat="59.4590897277" lon="8.07433002445">
		<tag k="name" v="Svartetjønn" />
		<tag k="natural" v="water" />
		<tag k="ssr:stedsnr" v="935583" />
	</node>
	<node id="-405332" lat="59.4552500007" lon="8.11467221666">
		<tag k="name" v="Nystøyltjønni" />
		<tag k="natural" v="water" />
		<tag k="ssr:stedsnr" v="935488" />
		<tag k="water" v="pond" />
	</node>
	<node id="-405330" lat="59.4184500036" lon="8.14448889499">
		<tag k="name" v="Olavkåsodden" />
		<tag k="natural" v="cape" />
		<tag k="ssr:stedsnr" v="935288" />
	</node>
	<node id="-405326" lat="59.4635583293" lon="8.14421667077">
		<tag k="name" v="Dipletjønn" />
		<tag k="natural" v="water" />
		<tag k="ssr:stedsnr" v="934973" />
		<tag k="water" v="pond" />
	</node>
	<node id="-405325" lat="59.3584111088" lon="8.07886389572">
		<tag k="name" v="Skådam" />
		<tag k="ssr:stedsnr" v="934956" />
		<tag k="waterway" v="dam" />
	</node>
	<node id="-407372" lat="59.5276388933" lon="8.0692194522">
		<tag k="name" v="Åmotet" />
		<tag k="place" v="locality" />
		<tag k="ssr:stedsnr" v="960341" />
	</node>
	<node id="-407367" lat="59.5015472178" lon="8.21880556221">
		<tag k="name" v="Nigardsbekken" />
		<tag k="ssr:stedsnr" v="959779" />
		<tag k="waterway" v="stream" />
	</node>
	<node id="-405316" lat="59.4486305522" lon="7.98889721466">
		<tag k="name" v="Lindøy" />
		<tag k="place" v="island" />
		<tag k="ssr:stedsnr" v="816971" />
	</node>
	<node id="-407362" lat="59.4700388867" lon="8.14513888298">
		<tag k="name" v="Dipletjønn" />
		<tag k="natural" v="water" />
		<tag k="ssr:stedsnr" v="959050" />
	</node>
	<node id="-405312" lat="59.4686472263" lon="8.04204166165">
		<tag k="name" v="Stemmen" />
		<tag k="natural" v="water" />
		<tag k="ssr:stedsnr" v="816819" />
	</node>
	<node id="-405310" lat="59.5627000021" lon="8.09210000424">
		<tag k="name" v="Vesle Homvatn" />
		<tag k="natural" v="water" />
		<tag k="ssr:stedsnr" v="816276" />
	</node>
	<node id="-407353" lat="59.3403444458" lon="7.77744167462">
		<tag k="name" v="Trettestøyltjønn" />
		<tag k="natural" v="water" />
		<tag k="ssr:stedsnr" v="956943" />
	</node>
	<node id="-405303" lat="59.5643499988" lon="7.82392778113">
		<tag k="name" v="Saturvike" />
		<tag k="natural" v="bay" />
		<tag k="ssr:stedsnr" v="816060" />
	</node>
	<node id="-405301" lat="59.53003333" lon="7.8443694436">
		<tag k="name" v="Nystøyltjønn" />
		<tag k="natural" v="water" />
		<tag k="ssr:stedsnr" v="816020" />
	</node>
	<node id="-407347" lat="59.4953249993" lon="7.83517500562">
		<tag k="name" v="Byrtedammen" />
		<tag k="ssr:stedsnr" v="956828" />
		<tag k="waterway" v="dam" />
	</node>
	<node id="-406493" lat="59.5005194461" lon="7.86726111438">
		<tag k="name" v="Lauvstøylbukte" />
		<tag k="natural" v="bay" />
		<tag k="ssr:stedsnr" v="409838" />
	</node>
	<node id="-405291" lat="59.5188805598" lon="8.11012499961">
		<tag k="alt_name" v="Baldrostjørn;Baldrås" />
		<tag k="name" v="Baldrostjønn" />
		<tag k="natural" v="water" />
		<tag k="ssr:stedsnr" v="792515" />
	</node>
	<node id="-407327" lat="59.3417222204" lon="7.61712500278">
		<tag k="name" v="Kjønnesvikåi" />
		<tag k="ssr:stedsnr" v="956113" />
		<tag k="waterway" v="stream" />
	</node>
	<node id="-405277" lat="59.4942999984" lon="8.01403333304">
		<tag k="name" v="Slomslitjønn" />
		<tag k="natural" v="water" />
		<tag k="ssr:stedsnr" v="778221" />
	</node>
	<node id="-405276" lat="59.5020611115" lon="8.18857500755">
		<tag k="name" v="Kvittjønn" />
		<tag k="natural" v="water" />
		<tag k="ssr:stedsnr" v="778011" />
	</node>
	<node id="-407323" lat="59.497605554" lon="7.76736110389">
		<tag k="name" v="Senes" />
		<tag k="place" v="islet" />
		<tag k="ssr:stedsnr" v="955862" />
	</node>
	<node id="-407313" lat="59.4124000025" lon="7.78096944873">
		<tag k="name" v="Djupetjønneidet" />
		<tag k="natural" v="strait" />
		<tag k="ssr:stedsnr" v="956370" />
	</node>
	<node id="-405264" lat="59.4834194444" lon="7.88129444759">
		<tag k="name" v="Vetterodden" />
		<tag k="natural" v="cape" />
		<tag k="ssr:stedsnr" v="773304" />
	</node>
	<node id="-407310" lat="59.3979833329" lon="7.76936389263">
		<tag k="name" v="Hyttebukta" />
		<tag k="natural" v="bay" />
		<tag k="ssr:stedsnr" v="955340" />
	</node>
	<node id="-405260" lat="59.568258335" lon="8.09753055878">
		<tag k="alt_name" v="Homvatn" />
		<tag k="name" v="Homvatnet" />
		<tag k="natural" v="water" />
		<tag k="ssr:stedsnr" v="914124" />
		<tag k="water" v="lake" />
	</node>
	<node id="-407305" lat="59.4321500004" lon="8.08543334193">
		<tag k="name" v="Olavkosodden" />
		<tag k="natural" v="cape" />
		<tag k="ssr:stedsnr" v="875667" />
	</node>
	<node id="-406828" lat="59.542816667" lon="7.73293055727">
		<tag k="alt_name" v="Langetjørn" />
		<tag k="name" v="Langetjønn" />
		<tag k="natural" v="water" />
		<tag k="ssr:stedsnr" v="609092" />
	</node>
	<node id="-407302" lat="59.3946333295" lon="8.09926666849">
		<tag k="name" v="Fonnstøyltjønni" />
		<tag k="natural" v="water" />
		<tag k="ssr:stedsnr" v="875224" />
	</node>
	<node id="-405253" lat="59.4011611082" lon="7.87542500641">
		<tag k="alt_name" v="Breivatn" />
		<tag k="name" v="Breidvatn" />
		<tag k="natural" v="water" />
		<tag k="ssr:stedsnr" v="913784" />
	</node>
	<node id="-405252" lat="59.4258277796" lon="7.90048055459">
		<tag k="alt_name" v="Oftevatn" />
		<tag k="name" v="Ottevatn" />
		<tag k="natural" v="water" />
		<tag k="ssr:stedsnr" v="913767" />
	</node>
	<node id="-405250" lat="59.565947219" lon="7.69365555467">
		<tag k="alt_name" v="Byrteå" />
		<tag k="name" v="Byrteåi" />
		<tag k="ssr:stedsnr" v="913713" />
		<tag k="waterway" v="river" />
	</node>
	<node id="-405248" lat="59.497008336" lon="7.73563888056">
		<tag k="name" v="Vendalsåi" />
		<tag k="ssr:stedsnr" v="913624" />
		<tag k="waterway" v="stream" />
	</node>
	<node id="-407294" lat="59.4572972245" lon="8.11491944215">
		<tag k="name" v="Nærstøyltjønni" />
		<tag k="natural" v="water" />
		<tag k="ssr:stedsnr" v="874487" />
		<tag k="water" v="pond" />
	</node>
	<node id="-407291" lat="59.3694416649" lon="8.08171944981">
		<tag k="name" v="Dynamitthustjønni" />
		<tag k="natural" v="water" />
		<tag k="ssr:stedsnr" v="873948" />
	</node>
	<node id="-405241" lat="59.536630556" lon="8.11766666276">
		<tag k="alt_name" v="Skrovstøyltjørni" />
		<tag k="name" v="Skrøvstøyltjønni" />
		<tag k="natural" v="water" />
		<tag k="ssr:stedsnr" v="913376" />
	</node>
	<node id="-407288" lat="59.5287638849" lon="7.54573055259">
		<tag k="alt_name" v="Gråsteinstjørn" />
		<tag k="name" v="Gråsteinstjønn" />
		<tag k="natural" v="water" />
		<tag k="ssr:stedsnr" v="853637" />
	</node>
	<node id="-405239" lat="59.3668250006" lon="8.15785555809">
		<tag k="alt_name" v="Hesttjørni" />
		<tag k="name" v="Hesttjønn" />
		<tag k="natural" v="water" />
		<tag k="ssr:stedsnr" v="913266" />
	</node>
	<node id="-405237" lat="59.5519505324" lon="8.02560571236">
		<tag k="alt_name" v="Raudtjørnane" />
		<tag k="name" v="Raudtjønnane" />
		<tag k="natural" v="water" />
		<tag k="ssr:stedsnr" v="913087" />
	</node>
	<node id="-407284" lat="59.5911500015" lon="7.66543333856">
		<tag k="alt_name" v="Hestskotjørni;Hesteskotjønn" />
		<tag k="name" v="Hestskotjønni" />
		<tag k="natural" v="water" />
		<tag k="ssr:stedsnr" v="853680" />
	</node>
	<node id="-407283" lat="59.5171999985" lon="8.26562777188">
		<tag k="alt_name" v="Haukomsmobekken" />
		<tag k="name" v="Eirungåi" />
		<tag k="ssr:stedsnr" v="853502" />
		<tag k="waterway" v="river" />
	</node>
	<node id="-405233" lat="59.5484249986" lon="7.75161111409">
		<tag k="alt_name" v="Nuttjørnane" />
		<tag k="name" v="Nuttjønnane" />
		<tag k="natural" v="water" />
		<tag k="ssr:stedsnr" v="913067" />
	</node>
	<node id="-405231" lat="59.5196805596" lon="7.87006944887">
		<tag k="alt_name" v="Bessevatn, nordre;Bessevatn" />
		<tag k="name" v="Nordre Bessevatn" />
		<tag k="natural" v="water" />
		<tag k="ssr:stedsnr" v="913018" />
	</node>
	<node id="-407276" lat="59.3411805555" lon="7.9822111084">
		<tag k="alt_name" v="Stuvestøyltjørn" />
		<tag k="name" v="Stuvstøyltjønni" />
		<tag k="natural" v="water" />
		<tag k="old_name" v="Stuvestøltjørn" />
		<tag k="ssr:stedsnr" v="852983" />
	</node>
	<node id="-407275" lat="59.4902055542" lon="8.3238333253">
		<tag k="alt_name" v="Oppetjørn;Orretjønn" />
		<tag k="name" v="Oppetjønn" />
		<tag k="natural" v="water" />
		<tag k="ssr:stedsnr" v="852886" />
	</node>
	<node id="-405221" lat="59.3835888856" lon="7.5968416691">
		<tag k="name" v="Folurdkaldevatn" />
		<tag k="natural" v="water" />
		<tag k="ssr:stedsnr" v="912622" />
	</node>
	<node id="-407268" lat="59.4575500016" lon="7.75009165891">
		<tag k="alt_name" v="Brennetjørn" />
		<tag k="name" v="Brendetjønn" />
		<tag k="natural" v="water" />
		<tag k="ssr:stedsnr" v="852847" />
	</node>
	<node id="-405216" lat="59.457783329" lon="8.24648054979">
		<tag k="alt_name" v="Auringhusdaltjørni" />
		<tag k="name" v="Auringhusdaltjønni" />
		<tag k="natural" v="water" />
		<tag k="ssr:stedsnr" v="912405" />
		<tag k="water" v="lake" />
	</node>
	<node id="-407259" lat="59.4107138896" lon="7.79096666747">
		<tag k="alt_name" v="Olintjørnane" />
		<tag k="name" v="Oleimtjønn" />
		<tag k="natural" v="water" />
		<tag k="ssr:stedsnr" v="852790" />
	</node>
	<node id="-405207" lat="59.5257277779" lon="8.12069167532">
		<tag k="name" v="Storbutjønni" />
		<tag k="natural" v="water" />
		<tag k="ssr:stedsnr" v="900651" />
	</node>
	<node id="-405206" lat="59.5050583346" lon="8.29208888539">
		<tag k="name" v="Bekkekrokane" />
		<tag k="ssr:stedsnr" v="900862" />
		<tag k="waterway" v="stream" />
	</node>
	<node id="-405205" lat="59.5352888898" lon="7.6046750016">
		<tag k="alt_name" v="Svartetjørni" />
		<tag k="name" v="Svartetjønni" />
		<tag k="natural" v="water" />
		<tag k="ssr:stedsnr" v="731606" />
	</node>
	<node id="-405200" lat="59.5406527775" lon="7.54553611971">
		<tag k="alt_name" v="Brekkatjørni" />
		<tag k="name" v="Brekkatjønni" />
		<tag k="natural" v="water" />
		<tag k="ssr:stedsnr" v="731709" />
	</node>
	<node id="-405199" lat="59.5707388875" lon="8.22434167488">
		<tag k="alt_name" v="Buinvatnet" />
		<tag k="name" v="Buinvatn" />
		<tag k="natural" v="water" />
		<tag k="ssr:stedsnr" v="731434" />
		<tag k="water" v="lake" />
	</node>
	<node id="-405198" lat="59.5620833305" lon="8.29574723106">
		<tag k="alt_name" v="Homlitjørn" />
		<tag k="name" v="Homlitjønn" />
		<tag k="natural" v="water" />
		<tag k="ssr:stedsnr" v="731431" />
	</node>
	<node id="-405196" lat="59.545491671" lon="8.3106944503">
		<tag k="alt_name" v="Myrkvarvvatnet" />
		<tag k="name" v="Myrkvarvtjønn" />
		<tag k="natural" v="water" />
		<tag k="ssr:stedsnr" v="731403" />
	</node>
	<node id="-407243" lat="59.447502782" lon="8.2445861181">
		<tag k="alt_name" v="Galtedalstjørni" />
		<tag k="name" v="Galtedalstjønni" />
		<tag k="natural" v="water" />
		<tag k="ssr:stedsnr" v="852389" />
	</node>
	<node id="-405193" lat="59.5105222234" lon="8.04809722032">
		<tag k="alt_name" v="Kiletjørn" />
		<tag k="name" v="Kiletjønni" />
		<tag k="natural" v="water" />
		<tag k="ssr:stedsnr" v="731010" />
	</node>
	<node id="-405186" lat="59.4047444445" lon="7.81903056261">
		<tag k="alt_name" v="Strondtjørnane" />
		<tag k="name" v="Stråndtjønn" />
		<tag k="natural" v="water" />
		<tag k="ssr:stedsnr" v="730830" />
	</node>
	<node id="-407231" lat="59.514722218" lon="8.16320555375">
		<tag k="name" v="Deildebekk" />
		<tag k="ssr:stedsnr" v="839510" />
		<tag k="waterway" v="stream" />
	</node>
	<node id="-405182" lat="59.4672305532" lon="8.17641666724">
		<tag k="alt_name" v="Tjørnstøylvatnet" />
		<tag k="name" v="Tjønnestøyltjønni" />
		<tag k="natural" v="water" />
		<tag k="ssr:stedsnr" v="730448" />
	</node>
	<node id="-405180" lat="59.5639555552" lon="8.17902777493">
		<tag k="name" v="Storeå" />
		<tag k="ssr:stedsnr" v="899947" />
		<tag k="waterway" v="river" />
	</node>
	<node id="-407227" lat="59.4993916642" lon="8.06217778375">
		<tag k="name" v="Gasgivaren" />
		<tag k="natural" v="cape" />
		<tag k="ssr:stedsnr" v="839168" />
	</node>
	<node id="-407224" lat="59.5060277752" lon="8.1708916708">
		<tag k="name" v="Røyrtjønnane" />
		<tag k="natural" v="water" />
		<tag k="ssr:stedsnr" v="839002" />
	</node>
	<node id="-407222" lat="59.4934666704" lon="8.2187749946">
		<tag k="name" v="Damkosbekken" />
		<tag k="ssr:stedsnr" v="838820" />
		<tag k="waterway" v="stream" />
	</node>
	<node id="-405173" lat="59.5411972197" lon="8.05198054876">
		<tag k="name" v="Grytdammen" />
		<tag k="ssr:stedsnr" v="899249" />
		<tag k="waterway" v="dam" />
	</node>
	<node id="-405168" lat="59.5372194423" lon="8.05539445023">
		<tag k="name" v="Grytneset" />
		<tag k="natural" v="cape" />
		<tag k="ssr:stedsnr" v="899272" />
	</node>
	<node id="-407214" lat="59.5078" lon="8.20358611869">
		<tag k="name" v="Deildebekk" />
		<tag k="ssr:stedsnr" v="838099" />
		<tag k="waterway" v="stream" />
	</node>
	<node id="-407212" lat="59.4903749957" lon="8.16153332794">
		<tag k="name" v="Tveittjønn" />
		<tag k="natural" v="water" />
		<tag k="ssr:stedsnr" v="838081" />
	</node>
	<node id="-407209" lat="59.3700777759" lon="7.96046111385">
		<tag k="name" v="Berdelhylen" />
		<tag k="place" v="locality" />
		<tag k="ssr:stedsnr" v="835988" />
	</node>
	<node id="-407253" lat="59.50357778" lon="8.14372222441">
		<tag k="alt_name" v="Breidvatn" />
		<tag k="name" v="Breidvatnet" />
		<tag k="natural" v="water" />
		<tag k="ssr:stedsnr" v="852500" />
	</node>
	<node id="-407206" lat="59.35948611" lon="7.9549305594">
		<tag k="name" v="Rottjønn" />
		<tag k="natural" v="water" />
		<tag k="ssr:stedsnr" v="835980" />
	</node>
	<node id="-407205" lat="59.3775333307" lon="7.83097499506">
		<tag k="name" v="Håvestøylhylen" />
		<tag k="place" v="locality" />
		<tag k="ssr:stedsnr" v="835979" />
	</node>
	<node id="-407204" lat="59.3633861079" lon="7.83101388802">
		<tag k="name" v="Mørketjønn" />
		<tag k="natural" v="water" />
		<tag k="ssr:stedsnr" v="835978" />
	</node>
	<node id="-407199" lat="59.3288638925" lon="7.70516665791">
		<tag k="name" v="Jønntjønn" />
		<tag k="natural" v="water" />
		<tag k="ssr:stedsnr" v="835932" />
	</node>
	<node id="-405148" lat="59.5017166692" lon="7.87449999841">
		<tag k="name" v="Grønelibekken" />
		<tag k="ssr:stedsnr" v="895873" />
		<tag k="waterway" v="stream" />
	</node>
	<node id="-405147" lat="59.513252776" lon="8.06612499363">
		<tag k="name" v="Veilen" />
		<tag k="natural" v="strait" />
		<tag k="ssr:stedsnr" v="717376" />
	</node>
	<node id="-407192" lat="59.3503027752" lon="7.94439722541">
		<tag k="name" v="Uttakstjønni" />
		<tag k="natural" v="water" />
		<tag k="ssr:stedsnr" v="835385" />
	</node>
	<node id="-407190" lat="59.3866138902" lon="7.76276110699">
		<tag k="name" v="Gunnarsodde" />
		<tag k="natural" v="cape" />
		<tag k="ssr:stedsnr" v="835328" />
	</node>
	<node id="-405134" lat="59.4400638877" lon="7.71781666785">
		<tag k="name" v="Grunnflætjønni" />
		<tag k="natural" v="water" />
		<tag k="ssr:stedsnr" v="895637" />
	</node>
	<node id="-407178" lat="59.5695249985" lon="7.68017499393">
		<tag k="name" v="Sviva" />
		<tag k="ssr:stedsnr" v="834086" />
		<tag k="waterway" v="river" />
	</node>
	<node id="-405128" lat="59.4505000037" lon="7.74934443651">
		<tag k="name" v="Heitjønni" />
		<tag k="natural" v="water" />
		<tag k="ssr:stedsnr" v="895540" />
	</node>
	<node id="-404076" lat="59.5843222179" lon="7.71866667352">
		<tag k="alt_name" v="Litjørn" />
		<tag k="name" v="Liheintjønni" />
		<tag k="natural" v="water" />
		<tag k="ssr:stedsnr" v="148105" />
	</node>
	<node id="-407171" lat="59.4183888905" lon="8.04203056306">
		<tag k="name" v="Skurvetjønn" />
		<tag k="natural" v="water" />
		<tag k="ssr:stedsnr" v="816984" />
	</node>
	<node id="-405121" lat="59.4065055592" lon="7.74388889599">
		<tag k="name" v="Kottjønn" />
		<tag k="natural" v="water" />
		<tag k="ssr:stedsnr" v="895258" />
	</node>
	<node id="-407164" lat="59.5611722185" lon="8.00939165904">
		<tag k="name" v="Rogdelitjønn" />
		<tag k="natural" v="water" />
		<tag k="ssr:stedsnr" v="816213" />
	</node>
	<node id="-407162" lat="59.5653722264" lon="8.08975278625">
		<tag k="name" v="Fonnlibekken" />
		<tag k="ssr:stedsnr" v="816278" />
		<tag k="waterway" v="stream" />
	</node>
	<node id="-405109" lat="59.46373611" lon="8.00267499405">
		<tag k="alt_name" v="Espelitjørni" />
		<tag k="name" v="Espelitjønn" />
		<tag k="natural" v="water" />
		<tag k="ssr:stedsnr" v="695970" />
	</node>
	<node id="-407156" lat="59.4409583343" lon="8.17767221813">
		<tag k="name" v="Kvålofossen" />
		<tag k="natural" v="waterfall" />
		<tag k="ssr:stedsnr" v="814322" />
	</node>
	<node id="-405106" lat="59.4730249975" lon="7.99852778471">
		<tag k="alt_name" v="Svartetjørn" />
		<tag k="name" v="Svartetjønn" />
		<tag k="natural" v="water" />
		<tag k="ssr:stedsnr" v="695765" />
	</node>
	<node id="-405104" lat="59.5503138929" lon="8.01705833289">
		<tag k="name" v="Svarttjønn" />
		<tag k="natural" v="water" />
		<tag k="ssr:stedsnr" v="695224" />
	</node>
	<node id="-407148" lat="59.3771361067" lon="8.16661667188">
		<tag k="name" v="Steinsmyrbekken" />
		<tag k="ssr:stedsnr" v="813820" />
		<tag k="waterway" v="stream" />
	</node>
	<node id="-406460" lat="59.5456083297" lon="8.29595000187">
		<tag k="name" v="Stavatjønnbekken" />
		<tag k="ssr:stedsnr" v="390839" />
		<tag k="waterway" v="stream" />
	</node>
	<node id="-405090" lat="59.4774444438" lon="8.17587500466">
		<tag k="name" v="Oksehovdtjønni" />
		<tag k="natural" v="water" />
		<tag k="ssr:stedsnr" v="692464" />
	</node>
	<node id="-407136" lat="59.4361083299" lon="8.1302111054">
		<tag k="name" v="Diplane" />
		<tag k="natural" v="water" />
		<tag k="ssr:stedsnr" v="813294" />
		<tag k="water" v="pond" />
	</node>
	<node id="-405087" lat="59.501008337" lon="7.83741388268">
		<tag k="name" v="Hanahomen" />
		<tag k="natural" v="cape" />
		<tag k="ssr:stedsnr" v="878821" />
	</node>
	<node id="-407132" lat="59.4121833351" lon="8.14828611223">
		<tag k="name" v="Haugeholmbekken" />
		<tag k="ssr:stedsnr" v="813267" />
		<tag k="waterway" v="stream" />
	</node>
	<node id="-407131" lat="59.4079000005" lon="8.06797221881">
		<tag k="name" v="Leitestjønn" />
		<tag k="natural" v="water" />
		<tag k="ssr:stedsnr" v="813232" />
		<tag k="water" v="pond" />
	</node>
	<node id="-405082" lat="59.4518083364" lon="7.95061110511">
		<tag k="name" v="Nedrebøfossen" />
		<tag k="natural" v="waterfall" />
		<tag k="ssr:stedsnr" v="877961" />
	</node>
	<node id="-405081" lat="59.4542083328" lon="8.04516388213">
		<tag k="name" v="Vesle Nossetjønn" />
		<tag k="natural" v="water" />
		<tag k="ssr:stedsnr" v="877937" />
	</node>
	<node id="-407126" lat="59.5666583301" lon="7.52735277161">
		<tag k="alt_name" v="Merakktjørnane" />
		<tag k="name" v="Merakktjønnane" />
		<tag k="natural" v="water" />
		<tag k="ssr:stedsnr" v="792741" />
	</node>
	<node id="-405077" lat="59.4430388896" lon="8.01700276978">
		<tag k="name" v="Tangane" />
		<tag k="natural" v="cape" />
		<tag k="ssr:stedsnr" v="877915" />
	</node>
	<node id="-405074" lat="59.4393611151" lon="7.71844444001">
		<tag k="alt_name" v="Grunnefletjørni" />
		<tag k="name" v="Grunnefletjønn" />
		<tag k="natural" v="water" />
		<tag k="ssr:stedsnr" v="877358" />
	</node>
	<node id="-407121" lat="59.5745027741" lon="7.60400556379">
		<tag k="alt_name" v="Bogetjørn" />
		<tag k="name" v="Bogetjønn" />
		<tag k="natural" v="water" />
		<tag k="ssr:stedsnr" v="792670" />
	</node>
	<node id="-407119" lat="59.5670583316" lon="8.30668333695">
		<tag k="name" v="Vassausa" />
		<tag k="natural" v="water" />
		<tag k="ssr:stedsnr" v="792435" />
	</node>
	<node id="-407118" lat="59.547797218" lon="8.26162499714">
		<tag k="alt_name" v="Stemmetjørn" />
		<tag k="name" v="Stemmetjønn" />
		<tag k="natural" v="water" />
		<tag k="ssr:stedsnr" v="792407" />
	</node>
	<node id="-407114" lat="59.5418277783" lon="8.1836750062">
		<tag k="alt_name" v="Hovdevatnet" />
		<tag k="name" v="Hovdevatn" />
		<tag k="natural" v="water" />
		<tag k="ssr:stedsnr" v="792369" />
		<tag k="water" v="lake" />
	</node>
	<node id="-407113" lat="59.5449444475" lon="7.7383333287">
		<tag k="alt_name" v="Steinerotjørn" />
		<tag k="name" v="Steinerotjønn" />
		<tag k="natural" v="water" />
		<tag k="ssr:stedsnr" v="792102" />
	</node>
	<node id="-407109" lat="59.3648194418" lon="8.06067499867">
		<tag k="alt_name" v="Åmdalselvi" />
		<tag k="name" v="Åmdalsåi" />
		<tag k="ssr:stedsnr" v="791965" />
		<tag k="waterway" v="river" />
	</node>
	<node id="-407105" lat="59.4899333296" lon="8.20475556131">
		<tag k="alt_name" v="Oftevatnet" />
		<tag k="name" v="Oftevatn" />
		<tag k="natural" v="water" />
		<tag k="ssr:stedsnr" v="791877" />
		<tag k="water" v="lake" />
	</node>
	<node id="-407102" lat="59.4690583308" lon="7.90221667026">
		<tag k="name" v="Rukkeåi" />
		<tag k="ssr:stedsnr" v="791870" />
		<tag k="waterway" v="river" />
	</node>
	<node id="-407097" lat="59.5173444424" lon="7.66412778207">
		<tag k="alt_name" v="Grastjørni" />
		<tag k="name" v="Grastjønni" />
		<tag k="natural" v="water" />
		<tag k="ssr:stedsnr" v="791636" />
	</node>
	<node id="-407094" lat="59.3989416648" lon="7.54063889098">
		<tag k="name" v="Reinevassfossen" />
		<tag k="natural" v="waterfall" />
		<tag k="ssr:stedsnr" v="791594" />
	</node>
	<node id="-407093" lat="59.3603750011" lon="7.66069722206">
		<tag k="alt_name" v="Halvorsurdvatnet" />
		<tag k="name" v="Halvorsurdvatn" />
		<tag k="natural" v="water" />
		<tag k="ssr:stedsnr" v="791571" />
		<tag k="water" v="lake" />
	</node>
	<node id="-405041" lat="59.543875" lon="7.70658888256">
		<tag k="alt_name" v="Isdalsrotjørni" />
		<tag k="name" v="Isdalsrotjønni" />
		<tag k="natural" v="water" />
		<tag k="ssr:stedsnr" v="731700" />
	</node>
	<node id="-407077" lat="59.5134944444" lon="8.27821666005">
		<tag k="name" v="Messtjønn" />
		<tag k="natural" v="water" />
		<tag k="ssr:stedsnr" v="875801" />
		<tag k="water" v="pond" />
	</node>
	<node id="-407074" lat="59.5270166677" lon="8.20168054987">
		<tag k="name" v="Versto" />
		<tag k="natural" v="bay" />
		<tag k="ssr:stedsnr" v="778487" />
	</node>
	<node id="-405020" lat="59.4326416668" lon="7.77517776916">
		<tag k="alt_name" v="Myrketjørn" />
		<tag k="name" v="Myrketjønn" />
		<tag k="natural" v="water" />
		<tag k="ssr:stedsnr" v="730861" />
	</node>
	<node id="-407065" lat="59.4973944425" lon="8.06004444119">
		<tag k="name" v="Spiknes" />
		<tag k="natural" v="cape" />
		<tag k="ssr:stedsnr" v="778051" />
	</node>
	<node id="-407064" lat="59.5038500016" lon="8.22204444496">
		<tag k="name" v="Vesle Stemmetjønn" />
		<tag k="natural" v="water" />
		<tag k="ssr:stedsnr" v="777773" />
	</node>
	<node id="-405015" lat="59.3391039725" lon="8.12013781317">
		<tag k="loc_name" v="Skrevatn;Skreevatn" />
		<tag k="name" v="Skredvatn" />
		<tag k="natural" v="water" />
		<tag k="ssr:stedsnr" v="730344" />
		<tag k="water" v="lake" />
	</node>
	<node id="-407061" lat="59.5238249959" lon="8.06946943742">
		<tag k="name" v="Langesæ dam" />
		<tag k="ssr:stedsnr" v="777337" />
		<tag k="waterway" v="dam" />
	</node>
	<node id="-405009" lat="59.395152777" lon="8.13286110435">
		<tag k="alt_name" v="Stemmetjørn" />
		<tag k="name" v="Stemmetjønn" />
		<tag k="natural" v="water" />
		<tag k="ssr:stedsnr" v="730489" />
	</node>
	<node id="-407056" lat="59.3754666664" lon="7.95303888198">
		<tag k="name" v="Nipsbekken" />
		<tag k="ssr:stedsnr" v="774976" />
		<tag k="waterway" v="stream" />
	</node>
	<node id="-405005" lat="59.4508055572" lon="7.95459721557">
		<tag k="name" v="Geishyl" />
		<tag k="place" v="locality" />
		<tag k="ssr:stedsnr" v="634965" />
	</node>
	<node id="-405003" lat="59.3459944445" lon="8.10649444459">
		<tag k="name" v="Grytune" />
		<tag k="natural" v="bay" />
		<tag k="ssr:stedsnr" v="634254" />
	</node>
	<node id="-407049" lat="59.4282722186" lon="7.84611944023">
		<tag k="name" v="Krokløk" />
		<tag k="natural" v="water" />
		<tag k="ssr:stedsnr" v="774812" />
		<tag k="water" v="lake" />
	</node>
	<node id="-405078" lat="59.4636527809" lon="8.02515000155">
		<tag k="name" v="Eidsborgtjønn" />
		<tag k="natural" v="water" />
		<tag k="ssr:stedsnr" v="877933" />
	</node>
	<node id="-404993" lat="59.5274249984" lon="8.27721665821">
		<tag k="name" v="Tjønnstøyltjønni" />
		<tag k="natural" v="water" />
		<tag k="ssr:stedsnr" v="632806" />
	</node>
	<node id="-404987" lat="59.3836444424" lon="8.12353611373">
		<tag k="name" v="Jørundspytt" />
		<tag k="natural" v="water" />
		<tag k="ssr:stedsnr" v="631057" />
		<tag k="water" v="pond" />
	</node>
	<node id="-404983" lat="59.5298444437" lon="8.20887500875">
		<tag k="name" v="Åshildodden" />
		<tag k="natural" v="cape" />
		<tag k="ssr:stedsnr" v="630760" />
	</node>
	<node id="-407029" lat="59.4391972182" lon="7.73484165906">
		<tag k="name" v="Veslehomstjønn" />
		<tag k="natural" v="water" />
		<tag k="ssr:stedsnr" v="773619" />
	</node>
	<node id="-407026" lat="59.4854749961" lon="7.72978055813">
		<tag k="name" v="Nykkjingdalstjønni" />
		<tag k="natural" v="water" />
		<tag k="ssr:stedsnr" v="773701" />
	</node>
	<node id="-404977" lat="59.5269000032" lon="8.07015000683">
		<tag k="name" v="Langesæåi" />
		<tag k="ssr:stedsnr" v="610047" />
		<tag k="waterway" v="river" />
	</node>
	<node id="-404976" lat="59.5315015429" lon="8.09323421294">
		<tag k="alt_name" v="Grønlitjørn" />
		<tag k="name" v="Grønlitjønn" />
		<tag k="natural" v="water" />
		<tag k="ssr:stedsnr" v="610045" />
	</node>
	<node id="-407022" lat="59.4140944411" lon="7.76315000483">
		<tag k="name" v="Stogutjønn" />
		<tag k="natural" v="water" />
		<tag k="ssr:stedsnr" v="773297" />
	</node>
	<node id="-404972" lat="59.3986555582" lon="7.93890833672">
		<tag k="name" v="Kistedalsbekken" />
		<tag k="ssr:stedsnr" v="609766" />
		<tag k="waterway" v="stream" />
	</node>
	<node id="-407019" lat="59.4978638857" lon="7.77655555276">
		<tag k="name" v="Den grønne bekken" />
		<tag k="ssr:stedsnr" v="772796" />
		<tag k="waterway" v="stream" />
	</node>
	<node id="-404970" lat="59.5188712038" lon="7.64829509158">
		<tag k="alt_name" v="Langetjørni" />
		<tag k="name" v="Langetjønni" />
		<tag k="natural" v="water" />
		<tag k="ssr:stedsnr" v="609606" />
	</node>
	<node id="-404969" lat="59.5539638933" lon="8.28068332533">
		<tag k="alt_name" v="Stavatjørn, øvre" />
		<tag k="name" v="Kultantjønn" />
		<tag k="natural" v="water" />
		<tag k="ssr:stedsnr" v="609401" />
	</node>
	<node id="-404963" lat="59.5569027769" lon="8.21837778076">
		<tag k="alt_name" v="Stemtjørn" />
		<tag k="name" v="Stemmetjønn" />
		<tag k="natural" v="water" />
		<tag k="ssr:stedsnr" v="609405" />
	</node>
	<node id="-404959" lat="59.3702222227" lon="7.92305000868">
		<tag k="name" v="Gausbuvatn" />
		<tag k="natural" v="water" />
		<tag k="ssr:stedsnr" v="608808" />
		<tag k="water" v="lake" />
	</node>
	<node id="-404955" lat="59.5357444438" lon="8.2040527821">
		<tag k="name" v="Kosakilen" />
		<tag k="natural" v="bay" />
		<tag k="ssr:stedsnr" v="718602" />
	</node>
	<node id="-407001" lat="59.4122722231" lon="8.03078333082">
		<tag k="name" v="Røyrtveitbekken" />
		<tag k="ssr:stedsnr" v="755326" />
		<tag k="waterway" v="stream" />
	</node>
	<node id="-406998" lat="59.5481888859" lon="8.02406665913">
		<tag k="name" v="Surpetjønn" />
		<tag k="natural" v="water" />
		<tag k="ssr:stedsnr" v="755218" />
	</node>
	<node id="-404943" lat="59.5537055587" lon="8.17928610612">
		<tag k="name" v="Lauvodden" />
		<tag k="natural" v="cape" />
		<tag k="ssr:stedsnr" v="716920" />
	</node>
	<node id="-404941" lat="59.4954111118" lon="8.06756388416">
		<tag k="name" v="Blokketjønn" />
		<tag k="natural" v="water" />
		<tag k="ssr:stedsnr" v="717034" />
	</node>
	<node id="-404936" lat="59.4232277781" lon="7.88719443756">
		<tag k="name" v="Vesle Torstøyltjønni" />
		<tag k="natural" v="water" />
		<tag k="ssr:stedsnr" v="714875" />
	</node>
	<node id="-404932" lat="59.4155749972" lon="7.87897500227">
		<tag k="name" v="Statrdiplane" />
		<tag k="natural" v="water" />
		<tag k="ssr:stedsnr" v="714773" />
		<tag k="water" v="lake" />
	</node>
	<node id="-404928" lat="59.356422219" lon="7.75111389353">
		<tag k="name" v="Hallbjønnsekktjønni" />
		<tag k="natural" v="water" />
		<tag k="ssr:stedsnr" v="713936" />
	</node>
	<node id="-406972" lat="59.4626027736" lon="8.11529999182">
		<tag k="name" v="Røynestøylbekken" />
		<tag k="ssr:stedsnr" v="752975" />
		<tag k="waterway" v="stream" />
	</node>
	<node id="-406971" lat="59.374680558" lon="8.10809165856">
		<tag k="name" v="Jøkulbekken" />
		<tag k="ssr:stedsnr" v="752957" />
		<tag k="waterway" v="stream" />
	</node>
	<node id="-406970" lat="59.3667361121" lon="8.05513611395">
		<tag k="name" v="Bjørøy" />
		<tag k="place" v="island" />
		<tag k="ssr:stedsnr" v="752945" />
	</node>
	<node id="-406967" lat="59.4588416672" lon="8.22926666835">
		<tag k="name" v="Sauebrui" />
		<tag k="ssr:stedsnr" v="752642" />
		<tag k="waterway" v="dam" />
	</node>
	<node id="-404917" lat="59.4675361155" lon="7.78320833628">
		<tag k="name" v="Raubekk" />
		<tag k="ssr:stedsnr" v="713784" />
		<tag k="waterway" v="stream" />
	</node>
	<node id="-404911" lat="59.4771888892" lon="7.89430000479">
		<tag k="name" v="Sagabekken" />
		<tag k="ssr:stedsnr" v="713294" />
		<tag k="waterway" v="stream" />
	</node>
	<node id="-406957" lat="59.4717111118" lon="8.22721111397">
		<tag k="name" v="Landsverktjønni" />
		<tag k="natural" v="water" />
		<tag k="ssr:stedsnr" v="751488" />
	</node>
	<node id="-404722" lat="59.5108777749" lon="7.88163334063">
		<tag k="name" v="Flatamobekken" />
		<tag k="ssr:stedsnr" v="670002" />
		<tag k="waterway" v="stream" />
	</node>
	<node id="-406952" lat="59.3869138857" lon="7.83106667553">
		<tag k="name" v="Husdalstjønn" />
		<tag k="natural" v="water" />
		<tag k="ssr:stedsnr" v="653817" />
	</node>
	<node id="-404902" lat="59.5023027736" lon="7.71324443597">
		<tag k="name" v="Nese" />
		<tag k="natural" v="cape" />
		<tag k="ssr:stedsnr" v="591825" />
	</node>
	<node id="-406946" lat="59.4224833354" lon="7.87548889388">
		<tag k="name" v="Tuvretjønn" />
		<tag k="natural" v="water" />
		<tag k="ssr:stedsnr" v="652783" />
	</node>
	<node id="-404897" lat="59.3985750029" lon="7.79404999832">
		<tag k="name" v="Nautebutjønn" />
		<tag k="natural" v="water" />
		<tag k="ssr:stedsnr" v="591343" />
	</node>
	<node id="-404892" lat="59.5624166684" lon="7.67705000801">
		<tag k="name" v="Kvannfjøllbekken" />
		<tag k="ssr:stedsnr" v="712125" />
		<tag k="waterway" v="stream" />
	</node>
	<node id="-404890" lat="59.5010694457" lon="8.0916472244">
		<tag k="name" v="Saurdalstjønni" />
		<tag k="natural" v="water" />
		<tag k="ssr:stedsnr" v="574863" />
	</node>
	<node id="-406934" lat="59.3731888894" lon="7.89825833887">
		<tag k="name" v="Driftøy" />
		<tag k="place" v="island" />
		<tag k="ssr:stedsnr" v="652955" />
	</node>
	<node id="-404885" lat="59.5428166663" lon="8.28287500753">
		<tag k="name" v="Uddedalsvatn" />
		<tag k="natural" v="water" />
		<tag k="ssr:stedsnr" v="572855" />
	</node>
	<node id="-404884" lat="59.4157972201" lon="8.11879443707">
		<tag k="name" v="Kvennhusbekken" />
		<tag k="ssr:stedsnr" v="571309" />
		<tag k="waterway" v="stream" />
	</node>
	<node id="-404880" lat="59.3666611086" lon="8.07975554876">
		<tag k="name" v="Langkvennhustjønni" />
		<tag k="natural" v="water" />
		<tag k="ssr:stedsnr" v="570934" />
	</node>
	<node id="-404879" lat="59.3749944446" lon="8.08443056078">
		<tag k="name" v="Skytjebekken" />
		<tag k="ssr:stedsnr" v="570920" />
		<tag k="waterway" v="stream" />
	</node>
	<node id="-406922" lat="59.4785944437" lon="7.81048332742">
		<tag k="name" v="Orfit-tjønni" />
		<tag k="natural" v="water" />
		<tag k="ssr:stedsnr" v="652689" />
	</node>
	<node id="-404873" lat="59.5042425612" lon="7.90753442912">
		<tag k="alt_name" v="Svartetjørn" />
		<tag k="name" v="Svartetjønn" />
		<tag k="natural" v="water" />
		<tag k="ssr:stedsnr" v="549015" />
	</node>
	<node id="-406919" lat="59.420061111" lon="7.74977778633">
		<tag k="name" v="Fiten" />
		<tag k="natural" v="water" />
		<tag k="ssr:stedsnr" v="652246" />
	</node>
	<node id="-406916" lat="59.3479416625" lon="7.61707221713">
		<tag k="name" v="Vesle Honsveigtjønn" />
		<tag k="natural" v="water" />
		<tag k="ssr:stedsnr" v="652090" />
	</node>
	<node id="-406914" lat="59.4729527786" lon="7.86217500681">
		<tag k="name" v="Rukkeåi" />
		<tag k="ssr:stedsnr" v="652356" />
		<tag k="waterway" v="river" />
	</node>
	<node id="-404865" lat="59.4882111153" lon="7.89320276949">
		<tag k="name" v="Nivelkingbekken" />
		<tag k="ssr:stedsnr" v="695835" />
		<tag k="waterway" v="stream" />
	</node>
	<node id="-404856" lat="59.3946027774" lon="7.80740555052">
		<tag k="alt_name" v="Løyningsbukta" />
		<tag k="name" v="Løyningbukti" />
		<tag k="natural" v="bay" />
		<tag k="ssr:stedsnr" v="695341" />
	</node>
	<node id="-404854" lat="59.3987249977" lon="8.01703056228">
		<tag k="name" v="Haugelandsbekken" />
		<tag k="ssr:stedsnr" v="695336" />
		<tag k="waterway" v="stream" />
	</node>
	<node id="-406889" lat="59.3469666643" lon="8.13313889157">
		<tag k="name" v="Damodden" />
		<tag k="natural" v="cape" />
		<tag k="ssr:stedsnr" v="634247" />
	</node>
	<node id="-406886" lat="59.5557361125" lon="8.03571667087">
		<tag k="name" v="Bjorvik" />
		<tag k="natural" v="bay" />
		<tag k="ssr:stedsnr" v="634198" />
	</node>
	<node id="-406885" lat="59.5230388912" lon="8.02629166994">
		<tag k="name" v="Orrekvæbekken" />
		<tag k="ssr:stedsnr" v="634188" />
		<tag k="waterway" v="stream" />
	</node>
	<node id="-406881" lat="59.5147250021" lon="8.30221666763">
		<tag k="name" v="Kvæpetjønn" />
		<tag k="natural" v="water" />
		<tag k="ssr:stedsnr" v="632795" />
	</node>
	<node id="-404832" lat="59.3698638877" lon="8.10218888783">
		<tag k="name" v="Mørketjønn" />
		<tag k="natural" v="water" />
		<tag k="ssr:stedsnr" v="692926" />
	</node>
	<node id="-406878" lat="59.4026489713" lon="8.10406536799">
		<tag k="name" v="Hovdestøyltjønna" />
		<tag k="natural" v="water" />
		<tag k="ssr:stedsnr" v="632439" />
	</node>
	<node id="-404826" lat="59.4388388898" lon="8.21984166318">
		<tag k="name" v="Kilen" />
		<tag k="natural" v="bay" />
		<tag k="ssr:stedsnr" v="692622" />
	</node>
	<node id="-404821" lat="59.4446166697" lon="8.2309000058">
		<tag k="name" v="Kolatangen" />
		<tag k="natural" v="cape" />
		<tag k="ssr:stedsnr" v="692585" />
	</node>
	<node id="-406865" lat="59.523763885" lon="8.26841111106">
		<tag k="name" v="Spjottjønn" />
		<tag k="natural" v="water" />
		<tag k="ssr:stedsnr" v="630736" />
	</node>
	<node id="-404810" lat="59.4180083326" lon="8.08714444331">
		<tag k="name" v="Udøgertjønni" />
		<tag k="natural" v="water" />
		<tag k="ssr:stedsnr" v="691329" />
		<tag k="water" v="pond" />
	</node>
	<node id="-406855" lat="59.5447000043" lon="7.6178500073">
		<tag k="alt_name" v="Dyrstuptjørn" />
		<tag k="name" v="Dyrstuptjønn" />
		<tag k="natural" v="water" />
		<tag k="ssr:stedsnr" v="610749" />
	</node>
	<node id="-404377" lat="59.3441111129" lon="7.71106388994">
		<tag k="name" v="Vøylen" />
		<tag k="natural" v="beach" />
		<tag k="ssr:stedsnr" v="470924" />
	</node>
	<node id="-406846" lat="59.3709250002" lon="7.76730555549">
		<tag k="alt_name" v="Kambetjørn" />
		<tag k="name" v="Kampetjønn" />
		<tag k="natural" v="water" />
		<tag k="ssr:stedsnr" v="609733" />
		<tag k="water" v="lake" />
	</node>
	<node id="-406838" lat="59.4205472188" lon="8.13365832816">
		<tag k="name" v="Lauvvikøyane" />
		<tag k="place" v="islet" />
		<tag k="ssr:stedsnr" v="609472" />
	</node>
	<node id="-404361" lat="59.4560416707" lon="8.04433333437">
		<tag k="alt_name" v="Nøssetjørn;Nossetjønn" />
		<tag k="name" v="Nøssetjønn" />
		<tag k="natural" v="water" />
		<tag k="ssr:stedsnr" v="305842" />
	</node>
	<node id="-406836" lat="59.5048083318" lon="7.63015554952">
		<tag k="alt_name" v="Kjellartjørni" />
		<tag k="name" v="Kjellartjønni" />
		<tag k="natural" v="water" />
		<tag k="old_name" v="Kjeddartjørni" />
		<tag k="ssr:stedsnr" v="609591" />
	</node>
	<node id="-403899" lat="59.5092861118" lon="8.14561666688">
		<tag k="name" v="Stemmetjønn" />
		<tag k="natural" v="water" />
		<tag k="ssr:stedsnr" v="232785" />
	</node>
	<node id="-406833" lat="59.4360916692" lon="8.24181388711">
		<tag k="alt_name" v="Hundstjørn" />
		<tag k="name" v="Hundstjønn" />
		<tag k="natural" v="water" />
		<tag k="ssr:stedsnr" v="609447" />
	</node>
	<node id="-404780" lat="59.4104694419" lon="8.05794443901">
		<tag k="name" v="Mørketjønn" />
		<tag k="natural" v="water" />
		<tag k="ssr:stedsnr" v="509264" />
	</node>
	<node id="-406827" lat="59.5477166646" lon="8.06919166539">
		<tag k="alt_name" v="Bekkekrokane" />
		<tag k="name" v="Bekkjekrokane" />
		<tag k="place" v="locality" />
		<tag k="ssr:stedsnr" v="609055" />
	</node>
	<node id="-406826" lat="59.4328527819" lon="7.86318332505">
		<tag k="name" v="Herrvatn" />
		<tag k="natural" v="water" />
		<tag k="old_name" v="Herrevatn" />
		<tag k="ssr:stedsnr" v="608862" />
	</node>
	<node id="-406825" lat="59.4412611084" lon="7.86411388943">
		<tag k="name" v="Dalåi" />
		<tag k="ssr:stedsnr" v="608860" />
		<tag k="waterway" v="river" />
	</node>
	<node id="-406824" lat="59.4583305533" lon="7.94454166737">
		<tag k="alt_name" v="Tokkeåi" />
		<tag k="name" v="Tokke" />
		<tag k="ssr:stedsnr" v="608849" />
		<tag k="waterway" v="river" />
	</node>
	<node id="-406823" lat="59.447522226" lon="7.76205000391">
		<tag k="alt_name" v="Golitjørn;Golivatn" />
		<tag k="name" v="Golitjønn" />
		<tag k="natural" v="water" />
		<tag k="ssr:stedsnr" v="608837" />
	</node>
	<node id="-406821" lat="59.4642138923" lon="8.16483055805">
		<tag k="alt_name" v="Laugevatnet" />
		<tag k="name" v="Laugevatn" />
		<tag k="natural" v="water" />
		<tag k="ssr:stedsnr" v="608453" />
		<tag k="water" v="lake" />
	</node>
	<node id="-406819" lat="59.4894194411" lon="8.21930833847">
		<tag k="name" v="Oftedammen" />
		<tag k="ssr:stedsnr" v="596837" />
		<tag k="waterway" v="dam" />
	</node>
	<node id="-406817" lat="59.5210555589" lon="8.1272305632">
		<tag k="name" v="Skjortetjønn" />
		<tag k="natural" v="water" />
		<tag k="ssr:stedsnr" v="596612" />
	</node>
	<node id="-406810" lat="59.5063055569" lon="8.14539166319">
		<tag k="name" v="Mønetjønn" />
		<tag k="natural" v="water" />
		<tag k="ssr:stedsnr" v="595195" />
	</node>
	<node id="-404759" lat="59.4767249968" lon="7.86728889692">
		<tag k="alt_name" v="Lundtjørn" />
		<tag k="name" v="Lontveittjønni" />
		<tag k="natural" v="water" />
		<tag k="ssr:stedsnr" v="670843" />
	</node>
	<node id="-406806" lat="59.3492972259" lon="7.7977249951">
		<tag k="name" v="Ufsebutjønnane" />
		<tag k="natural" v="water" />
		<tag k="ssr:stedsnr" v="595085" />
	</node>
	<node id="-406805" lat="59.4950277741" lon="8.13488055888">
		<tag k="name" v="Svarttjønn" />
		<tag k="natural" v="water" />
		<tag k="ssr:stedsnr" v="595045" />
	</node>
	<node id="-406802" lat="59.5036166637" lon="8.19589443636">
		<tag k="name" v="Søyletjønn" />
		<tag k="natural" v="water" />
		<tag k="ssr:stedsnr" v="595010" />
	</node>
	<node id="-404752" lat="59.5948861094" lon="7.68083888146">
		<tag k="name" v="Russvatn" />
		<tag k="natural" v="water" />
		<tag k="ssr:stedsnr" v="670682" />
		<tag k="water" v="lake" />
	</node>
	<node id="-404751" lat="59.5879055535" lon="7.70023889368">
		<tag k="alt_name" v="Russtjørn;Russvastjønn" />
		<tag k="name" v="Russtjønn" />
		<tag k="natural" v="water" />
		<tag k="ssr:stedsnr" v="670677" />
	</node>
	<node id="-404749" lat="59.4870916628" lon="7.90618889238">
		<tag k="alt_name" v="Ovetjørn" />
		<tag k="name" v="Ovetjønn" />
		<tag k="natural" v="water" />
		<tag k="ssr:stedsnr" v="670610" />
	</node>
	<node id="-406795" lat="59.4388305568" lon="7.91618333166">
		<tag k="name" v="Svartebekk" />
		<tag k="ssr:stedsnr" v="592813" />
		<tag k="waterway" v="stream" />
	</node>
	<node id="-404744" lat="59.5192555558" lon="8.18738332953">
		<tag k="name" v="Ofteelvi" />
		<tag k="ssr:stedsnr" v="670484" />
		<tag k="waterway" v="river" />
	</node>
	<node id="-406788" lat="59.3623500028" lon="7.92150277876">
		<tag k="name" v="Lomtjønn" />
		<tag k="natural" v="water" />
		<tag k="ssr:stedsnr" v="591992" />
	</node>
	<node id="-404739" lat="59.4286305513" lon="8.30097500282">
		<tag k="alt_name" v="Løyntjørn" />
		<tag k="name" v="Løyntjønn" />
		<tag k="natural" v="water" />
		<tag k="ssr:stedsnr" v="670429" />
	</node>
	<node id="-404737" lat="59.5569694439" lon="8.25609721859">
		<tag k="alt_name" v="Maurdalstjørn" />
		<tag k="name" v="Maurdalstjønni" />
		<tag k="natural" v="water" />
		<tag k="ssr:stedsnr" v="670404" />
	</node>
	<node id="-406783" lat="59.3314166637" lon="7.68543611013">
		<tag k="name" v="Vestre Kuskartjønn" />
		<tag k="natural" v="water" />
		<tag k="ssr:stedsnr" v="591922" />
	</node>
	<node id="-406778" lat="59.498897223" lon="7.76689722588">
		<tag k="name" v="Gråtarsteinen" />
		<tag k="place" v="islet" />
		<tag k="ssr:stedsnr" v="591761" />
	</node>
	<node id="-404729" lat="59.530413893" lon="7.85314722172">
		<tag k="alt_name" v="Ånetjørn" />
		<tag k="name" v="Ånitjønn" />
		<tag k="natural" v="water" />
		<tag k="ssr:stedsnr" v="670065" />
	</node>
	<node id="-404726" lat="59.524808334" lon="7.84521945301">
		<tag k="alt_name" v="Sprenetjørn" />
		<tag k="name" v="Sprenetjønn" />
		<tag k="natural" v="water" />
		<tag k="ssr:stedsnr" v="670041" />
	</node>
	<node id="-404725" lat="59.5066805538" lon="8.08253333518">
		<tag k="alt_name" v="Mjaugetjørn" />
		<tag k="name" v="Mjaugetjønni" />
		<tag k="natural" v="water" />
		<tag k="ssr:stedsnr" v="670014" />
	</node>
	<node id="-406770" lat="59.504319442" lon="7.86359999987">
		<tag k="name" v="Onufsdalsbukti" />
		<tag k="natural" v="bay" />
		<tag k="ssr:stedsnr" v="591841" />
	</node>
	<node id="-404721" lat="59.3457999969" lon="7.7573694413">
		<tag k="alt_name" v="Kuskardåi" />
		<tag k="name" v="Kuskaråi" />
		<tag k="ssr:stedsnr" v="669978" />
		<tag k="waterway" v="stream" />
	</node>
	<node id="-404717" lat="59.495499997" lon="8.3189777762">
		<tag k="alt_name" v="Skatjørnflyi" />
		<tag k="name" v="Skatjønnflye" />
		<tag k="natural" v="water" />
		<tag k="ssr:stedsnr" v="669883" />
	</node>
	<node id="-404712" lat="59.4325777771" lon="7.76125833687">
		<tag k="alt_name" v="Langetjørn" />
		<tag k="name" v="Langevatn" />
		<tag k="natural" v="water" />
		<tag k="ssr:stedsnr" v="669842" />
	</node>
	<node id="-406757" lat="59.5018388882" lon="7.78552222695">
		<tag k="name" v="Rotebekken" />
		<tag k="ssr:stedsnr" v="590782" />
		<tag k="waterway" v="stream" />
	</node>
	<node id="-404704" lat="59.3951194413" lon="7.64206944045">
		<tag k="alt_name" v="Folurdvatnet" />
		<tag k="name" v="Folurdvatn" />
		<tag k="natural" v="water" />
		<tag k="ssr:stedsnr" v="669627" />
		<tag k="water" v="lake" />
	</node>
	<node id="-404701" lat="59.4025972244" lon="8.20484721923">
		<tag k="name" v="Sanden" />
		<tag k="natural" v="beach" />
		<tag k="ssr:stedsnr" v="669476" />
	</node>
	<node id="-406745" lat="59.493366663" lon="7.92795277057">
		<tag k="name" v="Juvebekken" />
		<tag k="ssr:stedsnr" v="573840" />
		<tag k="waterway" v="stream" />
	</node>
	<node id="-404694" lat="59.5048250019" lon="7.73429443962">
		<tag k="name" v="Vebransdalsbekken" />
		<tag k="ssr:stedsnr" v="470835" />
		<tag k="waterway" v="stream" />
	</node>
	<node id="-406741" lat="59.4380916659" lon="8.01424445326">
		<tag k="name" v="Tuvøy" />
		<tag k="place" v="island" />
		<tag k="ssr:stedsnr" v="573895" />
	</node>
	<node id="-406733" lat="59.4351166694" lon="8.07574999214">
		<tag k="alt_name" v="Barskorbukta" />
		<tag k="name" v="Barskorbukti" />
		<tag k="natural" v="bay" />
		<tag k="ssr:stedsnr" v="573321" />
	</node>
	<node id="-406729" lat="59.4891888912" lon="7.93784165806">
		<tag k="alt_name" v="Kvernebekken" />
		<tag k="name" v="Kvennebekken" />
		<tag k="ssr:stedsnr" v="573030" />
		<tag k="waterway" v="stream" />
	</node>
	<node id="-404678" lat="59.4846472184" lon="8.22136110459">
		<tag k="name" v="Lakstjønn" />
		<tag k="natural" v="water" />
		<tag k="ssr:stedsnr" v="449422" />
	</node>
	<node id="-404677" lat="59.4763305551" lon="8.24820278509">
		<tag k="name" v="Svarttjønn" />
		<tag k="natural" v="water" />
		<tag k="ssr:stedsnr" v="449417" />
	</node>
	<node id="-406721" lat="59.430411109" lon="8.08250555978">
		<tag k="name" v="Kvennhusbekken" />
		<tag k="ssr:stedsnr" v="571651" />
		<tag k="waterway" v="stream" />
	</node>
	<node id="-406720" lat="59.4356527739" lon="8.04959444206">
		<tag k="name" v="Tveitbekken" />
		<tag k="ssr:stedsnr" v="571624" />
		<tag k="waterway" v="stream" />
	</node>
	<node id="-404670" lat="59.4934944475" lon="8.00283334138">
		<tag k="name" v="Slomslibekken" />
		<tag k="ssr:stedsnr" v="656752" />
		<tag k="waterway" v="stream" />
	</node>
	<node id="-404666" lat="59.5844388862" lon="7.68011667181">
		<tag k="alt_name" v="Hjasagrovtjørnane" />
		<tag k="name" v="Hjasagrovtjønnane" />
		<tag k="natural" v="water" />
		<tag k="ssr:stedsnr" v="429103" />
	</node>
	<node id="-404664" lat="59.5249750036" lon="7.7118222153">
		<tag k="name" v="Flovatn" />
		<tag k="natural" v="water" />
		<tag k="ssr:stedsnr" v="428609" />
		<tag k="water" v="lake" />
	</node>
	<node id="-404663" lat="59.5704305551" lon="8.29966666143">
		<tag k="name" v="Myklevatn" />
		<tag k="natural" v="water" />
		<tag k="ssr:stedsnr" v="428414" />
		<tag k="water" v="lake" />
	</node>
	<node id="-406708" lat="59.4549527762" lon="8.25095276972">
		<tag k="name" v="Svarttjønn" />
		<tag k="natural" v="water" />
		<tag k="ssr:stedsnr" v="570620" />
		<tag k="water" v="pond" />
	</node>
	<node id="-404659" lat="59.5219277785" lon="8.02186667289">
		<tag k="name" v="Viermyrbekken" />
		<tag k="ssr:stedsnr" v="428032" />
		<tag k="waterway" v="stream" />
	</node>
	<node id="-406706" lat="59.4663611133" lon="8.20725278453">
		<tag k="name" v="Murtetjønn" />
		<tag k="natural" v="water" />
		<tag k="ssr:stedsnr" v="570446" />
	</node>
	<node id="-404654" lat="59.4708611112" lon="7.74610277185">
		<tag k="alt_name" v="Valvasstjørn" />
		<tag k="name" v="Valvasstjønn" />
		<tag k="natural" v="water" />
		<tag k="ssr:stedsnr" v="427817" />
	</node>
	<node id="-404653" lat="59.4435111147" lon="8.04352223063">
		<tag k="name" v="Gunnarshelle" />
		<tag k="natural" v="cape" />
		<tag k="ssr:stedsnr" v="427803" />
	</node>
	<node id="-404647" lat="59.3765749995" lon="7.9919777701">
		<tag k="alt_name" v="Napetjørn;Napatjønn" />
		<tag k="name" v="Napetjønn" />
		<tag k="natural" v="water" />
		<tag k="ssr:stedsnr" v="427739" />
	</node>
	<node id="-406693" lat="59.5337416658" lon="8.27350277941">
		<tag k="alt_name" v="Tyrvantjønn" />
		<tag k="name" v="Tyrvatn" />
		<tag k="natural" v="water" />
		<tag k="ssr:stedsnr" v="549392" />
	</node>
	<node id="-404642" lat="59.5560472249" lon="8.17411388486">
		<tag k="alt_name" v="Bergsvatn" />
		<tag k="name" v="Bergsvatnet" />
		<tag k="natural" v="water" />
		<tag k="ssr:stedsnr" v="427436" />
		<tag k="water" v="lake" />
	</node>
	<node id="-404641" lat="59.5544944463" lon="8.26324722536">
		<tag k="name" v="Nordigardkriklan" />
		<tag k="natural" v="water" />
		<tag k="old_name" v="Nordigardkrikollan" />
		<tag k="ssr:stedsnr" v="427428" />
	</node>
	<node id="-404636" lat="59.3831888886" lon="8.03917500383">
		<tag k="name" v="Lisleå" />
		<tag k="ssr:stedsnr" v="513993" />
		<tag k="waterway" v="river" />
	</node>
	<node id="-406681" lat="59.4533666694" lon="7.7265805482">
		<tag k="alt_name" v="Øytjørn" />
		<tag k="name" v="Øytjønn" />
		<tag k="natural" v="water" />
		<tag k="ssr:stedsnr" v="548849" />
	</node>
	<node id="-406678" lat="59.4541249967" lon="7.98703888866">
		<tag k="name" v="Berglibekken" />
		<tag k="ssr:stedsnr" v="548816" />
		<tag k="waterway" v="stream" />
	</node>
	<node id="-404628" lat="59.4287916705" lon="7.96346110988">
		<tag k="name" v="Tritjønnfly" />
		<tag k="natural" v="water" />
		<tag k="ssr:stedsnr" v="513918" />
	</node>
	<node id="-403992" lat="59.5054749986" lon="8.24643888241">
		<tag k="name" v="Styggedalsbekken" />
		<tag k="ssr:stedsnr" v="110810" />
		<tag k="waterway" v="stream" />
	</node>
	<node id="-406670" lat="59.4153750044" lon="7.88883611567">
		<tag k="name" v="Nipediplane" />
		<tag k="natural" v="water" />
		<tag k="ssr:stedsnr" v="548778" />
	</node>
	<node id="-403991" lat="59.5126444482" lon="8.16103055472">
		<tag k="name" v="Homstangen" />
		<tag k="natural" v="cape" />
		<tag k="ssr:stedsnr" v="110515" />
	</node>
	<node id="-404609" lat="59.5350916698" lon="8.18155556148">
		<tag k="name" v="Hovden" />
		<tag k="ssr:stedsnr" v="414628" />
		<tag k="waterway" v="dam" />
	</node>
	<node id="-406656" lat="59.4651361138" lon="8.24814444498">
		<tag k="alt_name" v="Dagrosdaltjørni" />
		<tag k="name" v="Dagrosdaltjønni" />
		<tag k="natural" v="water" />
		<tag k="ssr:stedsnr" v="548448" />
	</node>
	<node id="-406655" lat="59.4682777776" lon="8.14325277431">
		<tag k="alt_name" v="Svarttjørn" />
		<tag k="name" v="Svarttjønn" />
		<tag k="natural" v="water" />
		<tag k="ssr:stedsnr" v="548445" />
	</node>
	<node id="-406653" lat="59.5609194459" lon="8.30994444617">
		<tag k="alt_name" v="Bjørnpytt" />
		<tag k="name" v="Bjønnpytt" />
		<tag k="natural" v="water" />
		<tag k="ssr:stedsnr" v="548429" />
	</node>
	<node id="-404595" lat="59.4456666699" lon="8.23916389027">
		<tag k="name" v="Vrångåi" />
		<tag k="ssr:stedsnr" v="510634" />
		<tag k="waterway" v="river" />
	</node>
	<node id="-404586" lat="59.5051499968" lon="7.87130278509">
		<tag k="name" v="Reisholtbekken" />
		<tag k="ssr:stedsnr" v="409859" />
		<tag k="waterway" v="stream" />
	</node>
	<node id="-404585" lat="59.4978333302" lon="7.8556861094">
		<tag k="name" v="Streitjønn" />
		<tag k="natural" v="water" />
		<tag k="ssr:stedsnr" v="409856" />
	</node>
	<node id="-406629" lat="59.4947555516" lon="7.87148056433">
		<tag k="name" v="Timmviki" />
		<tag k="natural" v="bay" />
		<tag k="ssr:stedsnr" v="531882" />
	</node>
	<node id="-406625" lat="59.4689388933" lon="7.81523332508">
		<tag k="name" v="Båretjønn" />
		<tag k="natural" v="water" />
		<tag k="ssr:stedsnr" v="531825" />
	</node>
	<node id="-404576" lat="59.4062777789" lon="7.7182722286">
		<tag k="name" v="Halen" />
		<tag k="natural" v="bay" />
		<tag k="ssr:stedsnr" v="409329" />
	</node>
	<node id="-404575" lat="59.4024583292" lon="7.71738055402">
		<tag k="name" v="Spatjønn" />
		<tag k="natural" v="water" />
		<tag k="ssr:stedsnr" v="409324" />
	</node>
	<node id="-406622" lat="59.3628388928" lon="7.82282778426">
		<tag k="name" v="Urutipptjønn" />
		<tag k="natural" v="water" />
		<tag k="ssr:stedsnr" v="531977" />
	</node>
	<node id="-406621" lat="59.4687111129" lon="7.7452416707">
		<tag k="name" v="Valvasstjønn" />
		<tag k="natural" v="water" />
		<tag k="ssr:stedsnr" v="531751" />
	</node>
	<node id="-406611" lat="59.4070972187" lon="7.80914722506">
		<tag k="name" v="Haratjønn" />
		<tag k="natural" v="water" />
		<tag k="ssr:stedsnr" v="531349" />
	</node>
	<node id="-406604" lat="59.4981666703" lon="7.72081111404">
		<tag k="name" v="Klokkarflote" />
		<tag k="natural" v="cape" />
		<tag k="ssr:stedsnr" v="530892" />
	</node>
	<node id="-406603" lat="59.5055277809" lon="7.71360278549">
		<tag k="name" v="Hovundløken" />
		<tag k="natural" v="water" />
		<tag k="ssr:stedsnr" v="530833" />
		<tag k="water" v="lake" />
	</node>
	<node id="-406602" lat="59.4620861075" lon="7.72000832749">
		<tag k="name" v="Sperredammen" />
		<tag k="ssr:stedsnr" v="530695" />
		<tag k="waterway" v="dam" />
	</node>
	<node id="-404549" lat="59.4040166652" lon="8.12591389689">
		<tag k="name" v="Bronalitjønni" />
		<tag k="natural" v="water" />
		<tag k="ssr:stedsnr" v="390316" />
		<tag k="water" v="pond" />
	</node>
	<node id="-406593" lat="59.3634027791" lon="7.75771944914">
		<tag k="name" v="Vesle Kambetjønn" />
		<tag k="natural" v="water" />
		<tag k="ssr:stedsnr" v="530279" />
	</node>
	<node id="-406589" lat="59.574166671" lon="7.53534443861">
		<tag k="alt_name" v="Såtetjørn, søre" />
		<tag k="name" v="Søre Såtetjønn" />
		<tag k="natural" v="water" />
		<tag k="ssr:stedsnr" v="428668" />
	</node>
	<node id="-406587" lat="59.5279777782" lon="8.25864444738">
		<tag k="alt_name" v="Flatastøyltjørn" />
		<tag k="name" v="Flatastøylvatnet" />
		<tag k="natural" v="water" />
		<tag k="ssr:stedsnr" v="428362" />
		<tag k="water" v="lake" />
	</node>
	<node id="-404538" lat="59.3942361104" lon="8.21346388241">
		<tag k="name" v="Bjørnskørbekken" />
		<tag k="ssr:stedsnr" v="388720" />
		<tag k="waterway" v="stream" />
	</node>
	<node id="-406584" lat="59.5200722185" lon="8.31504723076">
		<tag k="name" v="Kvernvatn" />
		<tag k="natural" v="water" />
		<tag k="ssr:stedsnr" v="428479" />
		<tag k="water" v="lake" />
	</node>
	<node id="-406583" lat="59.5149833374" lon="8.13021388447">
		<tag k="alt_name" v="Gåsvatnet, vesle" />
		<tag k="name" v="Vesle Gåsvatn" />
		<tag k="natural" v="water" />
		<tag k="old_name" v="Gåsvatnet, vle" />
		<tag k="ssr:stedsnr" v="428468" />
	</node>
	<node id="-406582" lat="59.5110166635" lon="8.16395833973">
		<tag k="alt_name" v="Breidlandstjørni" />
		<tag k="name" v="Breilandstjønni" />
		<tag k="natural" v="water" />
		<tag k="ssr:stedsnr" v="428467" />
	</node>
	<node id="-406580" lat="59.5465020393" lon="7.73747545816">
		<tag k="alt_name" v="Trolletjørn" />
		<tag k="name" v="Trolletjønn" />
		<tag k="natural" v="water" />
		<tag k="old_name" v="Troddetjørn" />
		<tag k="ssr:stedsnr" v="428091" />
	</node>
	<node id="-406579" lat="59.5561083314" lon="8.07856943624">
		<tag k="alt_name" v="Listøyltjørn" />
		<tag k="name" v="Listøyltjønn" />
		<tag k="natural" v="water" />
		<tag k="old_name" v="Listøltjørn" />
		<tag k="ssr:stedsnr" v="428089" />
	</node>
	<node id="-406576" lat="59.5484527767" lon="7.82343332564">
		<tag k="name" v="Byrtevatn" />
		<tag k="natural" v="water" />
		<tag k="ssr:stedsnr" v="428078" />
		<tag k="water" v="lake" />
	</node>
	<node id="-406571" lat="59.4382527767" lon="8.01455833375">
		<tag k="name" v="Hestøy" />
		<tag k="place" v="islet" />
		<tag k="ssr:stedsnr" v="427795" />
	</node>
	<node id="-406570" lat="59.4395583315" lon="7.94485555382">
		<tag k="name" v="Heibøåi" />
		<tag k="ssr:stedsnr" v="427793" />
		<tag k="waterway" v="stream" />
	</node>
	<node id="-404517" lat="59.5541777756" lon="7.64288889333">
		<tag k="name" v="Poddeskorvatnet" />
		<tag k="natural" v="water" />
		<tag k="old_name" v="Poddeskårvatni" />
		<tag k="ssr:stedsnr" v="488725" />
		<tag k="water" v="lake" />
	</node>
	<node id="-404516" lat="59.5825888891" lon="7.64599722907">
		<tag k="alt_name" v="Fisklaustjørni" />
		<tag k="name" v="Fisklaustjønni" />
		<tag k="natural" v="water" />
		<tag k="old_name" v="Fisklaustjørn" />
		<tag k="ssr:stedsnr" v="488673" />
	</node>
	<node id="-406561" lat="59.5076222238" lon="8.32378888112">
		<tag k="alt_name" v="Votukjørrtjørni" />
		<tag k="name" v="Votukjerrtjønn" />
		<tag k="natural" v="water" />
		<tag k="ssr:stedsnr" v="427561" />
	</node>
	<node id="-406559" lat="59.4861277807" lon="7.72965278181">
		<tag k="alt_name" v="Nykkingdalstjørn;Nykkjindalstjønn" />
		<tag k="name" v="Nykkingdalstjønn" />
		<tag k="natural" v="water" />
		<tag k="old_name" v="Nykkjingdalstjørn" />
		<tag k="ssr:stedsnr" v="427642" />
	</node>
	<node id="-406553" lat="59.4651138853" lon="8.22135277934">
		<tag k="alt_name" v="Strondtjørn" />
		<tag k="name" v="Stråndstjønn" />
		<tag k="natural" v="water" />
		<tag k="ssr:stedsnr" v="427452" />
	</node>
	<node id="-404502" lat="59.5596833324" lon="8.25660278442">
		<tag k="alt_name" v="Gjeslemotjørni" />
		<tag k="name" v="Gjæslemotjønni" />
		<tag k="natural" v="water" />
		<tag k="ssr:stedsnr" v="488395" />
	</node>
	<node id="-406548" lat="59.5105361092" lon="8.15205277593">
		<tag k="name" v="Nesbekken" />
		<tag k="ssr:stedsnr" v="414788" />
		<tag k="waterway" v="stream" />
	</node>
	<node id="-404498" lat="59.5598138919" lon="8.27986944656">
		<tag k="name" v="Kultankriklan" />
		<tag k="natural" v="water" />
		<tag k="old_name" v="Kultankrikollan" />
		<tag k="ssr:stedsnr" v="488387" />
	</node>
	<node id="-404496" lat="59.5308250023" lon="8.31333610377">
		<tag k="alt_name" v="Murtetjørn" />
		<tag k="name" v="Murtetjønn" />
		<tag k="natural" v="water" />
		<tag k="ssr:stedsnr" v="488375" />
	</node>
	<node id="-406543" lat="59.5061555594" lon="8.1287055576">
		<tag k="name" v="Podden" />
		<tag k="natural" v="water" />
		<tag k="ssr:stedsnr" v="414174" />
	</node>
	<node id="-406542" lat="59.4986222194" lon="8.10130832705">
		<tag k="name" v="Rundetjønn" />
		<tag k="natural" v="water" />
		<tag k="ssr:stedsnr" v="414096" />
	</node>
	<node id="-406537" lat="59.5485444431" lon="8.07924165837">
		<tag k="name" v="Furdalstøylbekken" />
		<tag k="ssr:stedsnr" v="413732" />
		<tag k="waterway" v="stream" />
	</node>
	<node id="-404486" lat="59.5142583352" lon="7.7590611118">
		<tag k="alt_name" v="Flottjørn" />
		<tag k="name" v="Flottjønn" />
		<tag k="natural" v="water" />
		<tag k="ssr:stedsnr" v="488043" />
	</node>
	<node id="-406523" lat="59.4669944412" lon="8.11226666185">
		<tag k="name" v="Nipetjønn" />
		<tag k="natural" v="water" />
		<tag k="ssr:stedsnr" v="413035" />
	</node>
	<node id="-404472" lat="59.482644446" lon="7.86543056431">
		<tag k="name" v="Ljosåkpytten" />
		<tag k="natural" v="water" />
		<tag k="ssr:stedsnr" v="348373" />
		<tag k="water" v="pond" />
	</node>
	<node id="-404469" lat="59.3988944421" lon="7.799288895">
		<tag k="name" v="Skjulsbekk" />
		<tag k="ssr:stedsnr" v="348354" />
		<tag k="waterway" v="stream" />
	</node>
	<node id="-406516" lat="59.4874416665" lon="7.86724999177">
		<tag k="name" v="Bakketjønn" />
		<tag k="natural" v="water" />
		<tag k="ssr:stedsnr" v="410862" />
	</node>
	<node id="-404465" lat="59.4499499991" lon="7.79355000309">
		<tag k="name" v="Frolandsåi" />
		<tag k="ssr:stedsnr" v="487824" />
		<tag k="waterway" v="river" />
	</node>
	<node id="-404459" lat="59.494075001" lon="7.76716944083">
		<tag k="name" v="Botnedalsvatn" />
		<tag k="natural" v="water" />
		<tag k="ssr:stedsnr" v="487692" />
		<tag k="water" v="lake" />
	</node>
	<node id="-406506" lat="59.4274166685" lon="7.88376666744">
		<tag k="name" v="Bakkerotjønn" />
		<tag k="natural" v="water" />
		<tag k="ssr:stedsnr" v="410663" />
	</node>
	<node id="-406504" lat="59.4563472195" lon="7.86742500652">
		<tag k="name" v="Røgdelitjønni" />
		<tag k="natural" v="water" />
		<tag k="ssr:stedsnr" v="410448" />
	</node>
	<node id="-404454" lat="59.3576277816" lon="7.63851665996">
		<tag k="alt_name" v="Underbukvævtjørni" />
		<tag k="name" v="Underbukvævtjønni" />
		<tag k="natural" v="water" />
		<tag k="ssr:stedsnr" v="487613" />
	</node>
	<node id="-404453" lat="59.3477472249" lon="8.1281249944">
		<tag k="alt_name" v="Gåsbukti" />
		<tag k="name" v="Gossebukti" />
		<tag k="natural" v="bay" />
		<tag k="ssr:stedsnr" v="487398" />
	</node>
	<node id="-404445" lat="59.4788277749" lon="8.15961389287">
		<tag k="alt_name" v="Åmlivatnet" />
		<tag k="name" v="Åmlivatn" />
		<tag k="natural" v="water" />
		<tag k="ssr:stedsnr" v="487451" />
		<tag k="water" v="lake" />
	</node>
	<node id="-404444" lat="59.472788892" lon="8.18370277001">
		<tag k="alt_name" v="Nossevatnet" />
		<tag k="name" v="Nossevatn" />
		<tag k="natural" v="water" />
		<tag k="ssr:stedsnr" v="487450" />
		<tag k="water" v="lake" />
	</node>
	<node id="-404442" lat="59.5629305543" lon="8.09971111528">
		<tag k="name" v="Haugrolitjønn" />
		<tag k="natural" v="water" />
		<tag k="ssr:stedsnr" v="331238" />
	</node>
	<node id="-404439" lat="59.5528222225" lon="8.01596666318">
		<tag k="name" v="Raudåi" />
		<tag k="ssr:stedsnr" v="331205" />
		<tag k="waterway" v="stream" />
	</node>
	<node id="-406478" lat="59.3998861123" lon="7.81648889684">
		<tag k="name" v="Ronsvaldtjønn" />
		<tag k="natural" v="water" />
		<tag k="ssr:stedsnr" v="409369" />
	</node>
	<node id="-404425" lat="59.4135416623" lon="8.14552778237">
		<tag k="name" v="Kåsabekken" />
		<tag k="ssr:stedsnr" v="327302" />
		<tag k="waterway" v="stream" />
	</node>
	<node id="-404421" lat="59.4958222177" lon="8.26009166216">
		<tag k="name" v="Totjønni" />
		<tag k="natural" v="water" />
		<tag k="ssr:stedsnr" v="475836" />
	</node>
	<node id="-404420" lat="59.4886611116" lon="8.22333610977">
		<tag k="name" v="Langehyl" />
		<tag k="place" v="locality" />
		<tag k="ssr:stedsnr" v="475833" />
	</node>
	<node id="-403958" lat="59.5236027814" lon="8.27973889508">
		<tag k="alt_name" v="Eirungsvatn" />
		<tag k="name" v="Eirungvatn" />
		<tag k="natural" v="water" />
		<tag k="ssr:stedsnr" v="246493" />
		<tag k="water" v="lake" />
	</node>
	<node id="-404418" lat="59.4994750017" lon="8.12745000749">
		<tag k="name" v="Deildetjønn" />
		<tag k="natural" v="water" />
		<tag k="ssr:stedsnr" v="475171" />
	</node>
	<node id="-406463" lat="59.5155416676" lon="8.0386861059">
		<tag k="name" v="Kilebekken" />
		<tag k="ssr:stedsnr" v="391195" />
		<tag k="waterway" v="stream" />
	</node>
	<node id="-404981" lat="59.4088916653" lon="8.07687222509">
		<tag k="name" v="Vesle Anetjønn" />
		<tag k="natural" v="water" />
		<tag k="ssr:stedsnr" v="630263" />
	</node>
	<node id="-404412" lat="59.536158335" lon="8.10024721861">
		<tag k="name" v="Rostøylbekken" />
		<tag k="ssr:stedsnr" v="474701" />
		<tag k="waterway" v="stream" />
	</node>
	<node id="-404408" lat="59.4765611131" lon="8.05024166059">
		<tag k="name" v="Dauvetjønn" />
		<tag k="natural" v="water" />
		<tag k="ssr:stedsnr" v="474471" />
	</node>
	<node id="-403956" lat="59.54989167" lon="8.28664445102">
		<tag k="alt_name" v="Stavatjørn, nedre" />
		<tag k="name" v="Stavatjønn" />
		<tag k="natural" v="water" />
		<tag k="ssr:stedsnr" v="246398" />
	</node>
	<node id="-404406" lat="59.5042805582" lon="8.06437222932">
		<tag k="name" v="Grastjønnhombukti" />
		<tag k="natural" v="bay" />
		<tag k="ssr:stedsnr" v="474176" />
	</node>
	<node id="-406452" lat="59.4633271779" lon="8.10229530955">
		<tag k="name" v="Tjønnstøyltjønni" />
		<tag k="natural" v="water" />
		<tag k="ssr:stedsnr" v="389598" />
	</node>
	<node id="-406447" lat="59.3722277756" lon="8.12030278481">
		<tag k="name" v="Vislandstjønni" />
		<tag k="natural" v="water" />
		<tag k="ssr:stedsnr" v="388967" />
	</node>
	<node id="-406446" lat="59.3989638886" lon="8.16992499121">
		<tag k="name" v="Mørketjønn" />
		<tag k="natural" v="water" />
		<tag k="ssr:stedsnr" v="388750" />
		<tag k="water" v="pond" />
	</node>
	<node id="-404396" lat="59.4310833369" lon="7.90184167174">
		<tag k="name" v="Bjønnekjelda" />
		<tag k="natural" v="spring" />
		<tag k="ssr:stedsnr" v="471859" />
	</node>
	<node id="-406443" lat="59.4297472214" lon="8.09417499229">
		<tag k="name" v="Gruppa" />
		<tag k="natural" v="beach" />
		<tag k="ssr:stedsnr" v="388676" />
	</node>
	<node id="-406429" lat="59.5844222199" lon="7.68031389475">
		<tag k="alt_name" v="Hjasagrøtjørnane" />
		<tag k="name" v="Hjasagrøtjønnane" />
		<tag k="natural" v="water" />
		<tag k="old_name" v="Hjasagrovtjørnane" />
		<tag k="ssr:stedsnr" v="367678" />
	</node>
	<node id="-406427" lat="59.5128000023" lon="8.14233888737">
		<tag k="alt_name" v="Kvevetjønni" />
		<tag k="name" v="Kvævetjørni" />
		<tag k="natural" v="water" />
		<tag k="ssr:stedsnr" v="367449" />
	</node>
	<node id="-406425" lat="59.544849996" lon="8.10333888686">
		<tag k="alt_name" v="Kvævetjørn" />
		<tag k="name" v="Kvevetjønni" />
		<tag k="natural" v="water" />
		<tag k="ssr:stedsnr" v="367370" />
	</node>
	<node id="-406424" lat="59.5461999965" lon="8.16628888929">
		<tag k="alt_name" v="Kråkebøtjørn" />
		<tag k="name" v="Kråkebøtjønni" />
		<tag k="natural" v="water" />
		<tag k="ssr:stedsnr" v="367363" />
	</node>
	<node id="-406422" lat="59.5588861089" lon="8.26617778436">
		<tag k="alt_name" v="Grunntjørn" />
		<tag k="name" v="Grunntjønn" />
		<tag k="natural" v="water" />
		<tag k="ssr:stedsnr" v="367346" />
	</node>
	<node id="-406420" lat="59.5298444437" lon="8.20887500875">
		<tag k="alt_name" v="Ljosdalsvatnet" />
		<tag k="name" v="Ljosdalvatn" />
		<tag k="natural" v="water" />
		<tag k="ssr:stedsnr" v="367335" />
		<tag k="water" v="lake" />
	</node>
	<node id="-406419" lat="59.5274638847" lon="8.23424167335">
		<tag k="alt_name" v="Hornlitjørn" />
		<tag k="name" v="Homletjønni" />
		<tag k="natural" v="water" />
		<tag k="ssr:stedsnr" v="367329" />
	</node>
	<node id="-406417" lat="59.5387361133" lon="8.10884167231">
		<tag k="alt_name" v="Hægedalstjørni" />
		<tag k="name" v="Hegedalstjønni" />
		<tag k="natural" v="water" />
		<tag k="ssr:stedsnr" v="367317" />
	</node>
	<node id="-404365" lat="59.4218749999" lon="7.78548610598">
		<tag k="name" v="Skartjønn" />
		<tag k="natural" v="water" />
		<tag k="ssr:stedsnr" v="470727" />
	</node>
	<node id="-404364" lat="59.4848638872" lon="7.76637778428">
		<tag k="name" v="Sperredammen" />
		<tag k="ssr:stedsnr" v="470694" />
		<tag k="waterway" v="dam" />
	</node>
	<node id="-405314" lat="59.3803416671" lon="7.99997221639">
		<tag k="name" v="Vislietjønn" />
		<tag k="natural" v="water" />
		<tag k="ssr:stedsnr" v="816955" />
	</node>
	<node id="-404362" lat="59.4457750039" lon="7.97764167158">
		<tag k="name" v="Neset" />
		<tag k="natural" v="cape" />
		<tag k="ssr:stedsnr" v="305849" />
	</node>
	<node id="-406409" lat="59.5297250003" lon="8.07785276953">
		<tag k="name" v="Grønliåi" />
		<tag k="ssr:stedsnr" v="367035" />
		<tag k="waterway" v="stream" />
	</node>
	<node id="-404356" lat="59.4525194462" lon="7.73835832654">
		<tag k="name" v="Smøgåi" />
		<tag k="ssr:stedsnr" v="470571" />
		<tag k="waterway" v="river" />
	</node>
	<node id="-406403" lat="59.3453249982" lon="7.97779999187">
		<tag k="name" v="Grunnevatn" />
		<tag k="natural" v="water" />
		<tag k="ssr:stedsnr" v="366972" />
	</node>
	<node id="-406402" lat="59.354922219" lon="7.93997500326">
		<tag k="name" v="Åsbekken" />
		<tag k="ssr:stedsnr" v="366971" />
		<tag k="waterway" v="stream" />
	</node>
	<node id="-406401" lat="59.3516583353" lon="7.9211055621">
		<tag k="alt_name" v="Listøyltjørn;Listøyltjønni" />
		<tag k="name" v="Listøyltjønn" />
		<tag k="natural" v="water" />
		<tag k="old_name" v="Listøltjørn" />
		<tag k="ssr:stedsnr" v="366969" />
	</node>
	<node id="-406400" lat="59.3723916648" lon="8.06953889715">
		<tag k="alt_name" v="Sandlandstjørn" />
		<tag k="name" v="Sandlandstjønn" />
		<tag k="natural" v="water" />
		<tag k="ssr:stedsnr" v="366966" />
	</node>
	<node id="-406399" lat="59.3561277788" lon="7.77355833968">
		<tag k="name" v="Førsvatn" />
		<tag k="natural" v="water" />
		<tag k="ssr:stedsnr" v="366964" />
		<tag k="water" v="lake" />
	</node>
	<node id="-404350" lat="59.5635749972" lon="7.72710555644">
		<tag k="name" v="Heietjønnane" />
		<tag k="natural" v="water" />
		<tag k="ssr:stedsnr" v="470069" />
	</node>
	<node id="-406393" lat="59.4252472236" lon="7.78871944774">
		<tag k="alt_name" v="Grunnetjørn" />
		<tag k="name" v="Grunnetjønn" />
		<tag k="natural" v="water" />
		<tag k="ssr:stedsnr" v="366815" />
	</node>
	<node id="-406385" lat="59.3894305568" lon="7.86836943978">
		<tag k="alt_name" v="Staketjørnane" />
		<tag k="name" v="Staketjønnane" />
		<tag k="natural" v="water" />
		<tag k="ssr:stedsnr" v="366746" />
	</node>
	<node id="-404336" lat="59.4235388909" lon="7.82460000783">
		<tag k="name" v="Frøsepytt" />
		<tag k="natural" v="water" />
		<tag k="ssr:stedsnr" v="289853" />
		<tag k="water" v="pond" />
	</node>
	<node id="-406382" lat="59.4962805521" lon="7.87421110401">
		<tag k="alt_name" v="Bessevatn, heimre;Bessevatn" />
		<tag k="name" v="Heimre Bessevatn" />
		<tag k="natural" v="water" />
		<tag k="ssr:stedsnr" v="366655" />
		<tag k="water" v="lake" />
	</node>
	<node id="-406377" lat="59.4404999987" lon="8.22773056022">
		<tag k="name" v="Molteøyi" />
		<tag k="place" v="islet" />
		<tag k="ssr:stedsnr" v="366490" />
	</node>
	<node id="-404326" lat="59.4885861097" lon="7.76595555278">
		<tag k="name" v="Kilerova" />
		<tag k="natural" v="bay" />
		<tag k="ssr:stedsnr" v="288752" />
	</node>
	<node id="-406372" lat="59.4239944433" lon="8.28405555246">
		<tag k="alt_name" v="Folatjørn" />
		<tag k="name" v="Folatjønn" />
		<tag k="natural" v="water" />
		<tag k="ssr:stedsnr" v="366451" />
	</node>
	<node id="-404322" lat="59.4038694446" lon="7.79967777128">
		<tag k="name" v="Grastjønn" />
		<tag k="natural" v="water" />
		<tag k="ssr:stedsnr" v="288320" />
	</node>
	<node id="-404317" lat="59.5160472188" lon="8.06355277842">
		<tag k="name" v="Jorunnsund" />
		<tag k="natural" v="strait" />
		<tag k="ssr:stedsnr" v="271854" />
	</node>
	<node id="-406361" lat="59.4838499992" lon="8.04683333704">
		<tag k="name" v="Røyslandstjønn" />
		<tag k="natural" v="water" />
		<tag k="ssr:stedsnr" v="353473" />
	</node>
	<node id="-404312" lat="59.5349638888" lon="8.12209999252">
		<tag k="name" v="Skinantjønni" />
		<tag k="natural" v="water" />
		<tag k="ssr:stedsnr" v="270254" />
	</node>
	<node id="-404622" lat="59.4121083337" lon="8.07816388925">
		<tag k="alt_name" v="Anetjørn" />
		<tag k="name" v="Anetjønn" />
		<tag k="natural" v="water" />
		<tag k="ssr:stedsnr" v="513362" />
	</node>
	<node id="-406351" lat="59.5319999963" lon="8.0675694497">
		<tag k="name" v="Fiskedammane" />
		<tag k="natural" v="water" />
		<tag k="ssr:stedsnr" v="352251" />
	</node>
	<node id="-404376" lat="59.4199527815" lon="8.30005556134">
		<tag k="alt_name" v="Skosletjørni" />
		<tag k="name" v="Skosletjønn" />
		<tag k="natural" v="water" />
		<tag k="ssr:stedsnr" v="306421" />
	</node>
	<node id="-404297" lat="59.3689111133" lon="8.10935277026">
		<tag k="name" v="Storakertjønni" />
		<tag k="natural" v="water" />
		<tag k="ssr:stedsnr" v="267968" />
	</node>
	<node id="-403936" lat="59.4244350294" lon="8.01101342543">
		<tag k="alt_name" v="Grisetjønn" />
		<tag k="name" v="Grisetjørn" />
		<tag k="natural" v="water" />
		<tag k="ssr:stedsnr" v="245790" />
	</node>
	<node id="-404284" lat="59.52241389" lon="7.77398889548">
		<tag k="name" v="Skaretjønn" />
		<tag k="natural" v="water" />
		<tag k="ssr:stedsnr" v="453829" />
	</node>
	<node id="-406323" lat="59.415250002" lon="7.77581111304">
		<tag k="name" v="Kroktjønn" />
		<tag k="natural" v="water" />
		<tag k="ssr:stedsnr" v="349388" />
	</node>
	<node id="-404268" lat="59.589622226" lon="7.81463054942">
		<tag k="name" v="Haukåsbekken" />
		<tag k="ssr:stedsnr" v="452092" />
		<tag k="waterway" v="stream" />
	</node>
	<node id="-404267" lat="59.5510944485" lon="8.02833888405">
		<tag k="name" v="Raudtjønn" />
		<tag k="natural" v="water" />
		<tag k="ssr:stedsnr" v="452201" />
	</node>
	<node id="-406314" lat="59.4674388915" lon="7.82263610873">
		<tag k="name" v="Svartepytt" />
		<tag k="natural" v="water" />
		<tag k="ssr:stedsnr" v="348392" />
		<tag k="water" v="pond" />
	</node>
	<node id="-406313" lat="59.4787527741" lon="7.85874721529">
		<tag k="name" v="Auså" />
		<tag k="ssr:stedsnr" v="348386" />
		<tag k="waterway" v="river" />
	</node>
	<node id="-404261" lat="59.5481083293" lon="8.30115833904">
		<tag k="name" v="Myklevassbekken" />
		<tag k="ssr:stedsnr" v="451863" />
		<tag k="waterway" v="stream" />
	</node>
	<node id="-404260" lat="59.522558332" lon="8.27626111933">
		<tag k="name" v="Fiskeløk" />
		<tag k="natural" v="water" />
		<tag k="ssr:stedsnr" v="451842" />
		<tag k="water" v="lake" />
	</node>
	<node id="-404259" lat="59.5253027737" lon="8.28197778557">
		<tag k="name" v="Veilen" />
		<tag k="natural" v="strait" />
		<tag k="ssr:stedsnr" v="451841" />
	</node>
	<node id="-406299" lat="59.437852775" lon="7.96623889333">
		<tag k="name" v="Spækebekk" />
		<tag k="ssr:stedsnr" v="331952" />
		<tag k="waterway" v="stream" />
	</node>
	<node id="-404248" lat="59.4627583313" lon="8.20420278144">
		<tag k="name" v="Sosås" />
		<tag k="natural" v="water" />
		<tag k="ssr:stedsnr" v="449581" />
	</node>
	<node id="-404246" lat="59.4445722198" lon="8.11304999371">
		<tag k="name" v="Sprengebekk" />
		<tag k="ssr:stedsnr" v="449465" />
		<tag k="waterway" v="stream" />
	</node>
	<node id="-404238" lat="59.5372154795" lon="7.73713995444">
		<tag k="alt_name" v="Vierrotjørn" />
		<tag k="name" v="Vierrotjønn" />
		<tag k="natural" v="water" />
		<tag k="ssr:stedsnr" v="246058" />
	</node>
	<node id="-405293" lat="59.5267499999" lon="7.59132499598">
		<tag k="name" v="Gråsteinsvatn" />
		<tag k="natural" v="water" />
		<tag k="ssr:stedsnr" v="792634" />
	</node>
	<node id="-404234" lat="59.4178861123" lon="7.78884999169">
		<tag k="alt_name" v="Djupetjørn" />
		<tag k="name" v="Djupetjønn" />
		<tag k="natural" v="water" />
		<tag k="ssr:stedsnr" v="245772" />
		<tag k="water" v="lake" />
	</node>
	<node id="-404233" lat="59.4203861101" lon="7.81023332609">
		<tag k="name" v="Eivindvatn" />
		<tag k="natural" v="water" />
		<tag k="ssr:stedsnr" v="245771" />
		<tag k="water" v="lake" />
	</node>
	<node id="-406277" lat="59.4205972185" lon="8.10866388762">
		<tag k="name" v="Skorbekk" />
		<tag k="ssr:stedsnr" v="329417" />
		<tag k="waterway" v="stream" />
	</node>
	<node id="-406275" lat="59.5333777819" lon="8.24943332455">
		<tag k="name" v="Fjellstøylbekken" />
		<tag k="ssr:stedsnr" v="329109" />
		<tag k="waterway" v="stream" />
	</node>
	<node id="-404226" lat="59.3350388879" lon="7.60881110312">
		<tag k="name" v="Skjulsbekk" />
		<tag k="ssr:stedsnr" v="245516" />
		<tag k="waterway" v="stream" />
	</node>
	<node id="-404224" lat="59.4479277739" lon="8.23816666878">
		<tag k="alt_name" v="Pollen" />
		<tag k="name" v="Podden" />
		<tag k="natural" v="water" />
		<tag k="ssr:stedsnr" v="245372" />
	</node>
	<node id="-404608" lat="59.5361444449" lon="8.18315832604">
		<tag k="name" v="Prestodden" />
		<tag k="natural" v="cape" />
		<tag k="ssr:stedsnr" v="414627" />
	</node>
	<node id="-406270" lat="59.440091665" lon="8.22485833431">
		<tag k="name" v="Nautsund" />
		<tag k="natural" v="strait" />
		<tag k="ssr:stedsnr" v="328639" />
	</node>
	<node id="-406268" lat="59.4429166662" lon="8.22842499225">
		<tag k="name" v="Tåråndsodden" />
		<tag k="natural" v="cape" />
		<tag k="ssr:stedsnr" v="328637" />
	</node>
	<node id="-404213" lat="59.4894250029" lon="8.23065555235">
		<tag k="name" v="Kyrkjehylen" />
		<tag k="place" v="locality" />
		<tag k="ssr:stedsnr" v="232820" />
	</node>
	<node id="-404210" lat="59.5107861067" lon="8.16575833403">
		<tag k="name" v="Storehom" />
		<tag k="place" v="island" />
		<tag k="ssr:stedsnr" v="231555" />
	</node>
	<node id="-406256" lat="59.4283055513" lon="8.09166943612">
		<tag k="name" v="Gruppebekken" />
		<tag k="ssr:stedsnr" v="327657" />
		<tag k="waterway" v="stream" />
	</node>
	<node id="-406253" lat="59.5387972254" lon="7.66863888451">
		<tag k="alt_name" v="Drottetjørn" />
		<tag k="name" v="Drottetjønn" />
		<tag k="natural" v="water" />
		<tag k="old_name" v="Dråtetjørni" />
		<tag k="ssr:stedsnr" v="307727" />
	</node>
	<node id="-406252" lat="59.5826472193" lon="7.75128611541">
		<tag k="alt_name" v="Listøyltjørni" />
		<tag k="name" v="Listøyltjønni" />
		<tag k="natural" v="water" />
		<tag k="old_name" v="Listøltjørn" />
		<tag k="ssr:stedsnr" v="306927" />
	</node>
	<node id="-406251" lat="59.48731667" lon="8.27023610533">
		<tag k="name" v="Dalaåi" />
		<tag k="ssr:stedsnr" v="306899" />
		<tag k="waterway" v="river" />
	</node>
	<node id="-406248" lat="59.4734166708" lon="7.80901943556">
		<tag k="alt_name" v="Rauttjørn" />
		<tag k="name" v="Rautetjønn" />
		<tag k="natural" v="water" />
		<tag k="ssr:stedsnr" v="306849" />
	</node>
	<node id="-406246" lat="59.4214777747" lon="7.75418888729">
		<tag k="name" v="Tverråi" />
		<tag k="ssr:stedsnr" v="306770" />
		<tag k="waterway" v="river" />
	</node>
	<node id="-404196" lat="59.3643611116" lon="7.68711110723">
		<tag k="name" v="Urå" />
		<tag k="ssr:stedsnr" v="228253" />
		<tag k="waterway" v="stream" />
	</node>
	<node id="-404195" lat="59.3451611081" lon="7.64218055314">
		<tag k="name" v="Bjønnodden" />
		<tag k="natural" v="cape" />
		<tag k="ssr:stedsnr" v="228103" />
	</node>
	<node id="-404193" lat="59.4947805594" lon="7.83560833128">
		<tag k="name" v="Osen" />
		<tag k="natural" v="waterfall" />
		<tag k="ssr:stedsnr" v="227826" />
	</node>
	<node id="-404188" lat="59.3506499969" lon="7.76405554971">
		<tag k="name" v="Førsvatn Halen" />
		<tag k="natural" v="water" />
		<tag k="ssr:stedsnr" v="227904" />
		<tag k="water" v="lake" />
	</node>
	<node id="-406234" lat="59.4943972179" lon="8.05877777684">
		<tag k="name" v="Langesæ" />
		<tag k="natural" v="water" />
		<tag k="ssr:stedsnr" v="306578" />
		<tag k="water" v="lake" />
	</node>
	<node id="-406991" lat="59.5622944437" lon="7.82139721527">
		<tag k="name" v="Grauteholmen" />
		<tag k="place" v="island" />
		<tag k="ssr:stedsnr" v="755059" />
	</node>
	<node id="-406227" lat="59.5262138858" lon="8.23178055351">
		<tag k="alt_name" v="Rundtjørn" />
		<tag k="name" v="Rundetjønn" />
		<tag k="natural" v="water" />
		<tag k="ssr:stedsnr" v="306389" />
	</node>
	<node id="-406225" lat="59.5585666698" lon="7.73805277974">
		<tag k="alt_name" v="Londebubekken" />
		<tag k="name" v="Lundebubekken" />
		<tag k="ssr:stedsnr" v="306115" />
		<tag k="waterway" v="stream" />
	</node>
	<node id="-406224" lat="59.5637888909" lon="7.72562778556">
		<tag k="alt_name" v="Heietjørnane" />
		<tag k="name" v="Heietjønnane" />
		<tag k="natural" v="water" />
		<tag k="ssr:stedsnr" v="306112" />
	</node>
	<node id="-406222" lat="59.5486750015" lon="7.78452778262">
		<tag k="alt_name" v="Stemmetjørn" />
		<tag k="name" v="Steintjønn" />
		<tag k="natural" v="water" />
		<tag k="ssr:stedsnr" v="306074" />
	</node>
	<node id="-406220" lat="59.5399027755" lon="7.76898611672">
		<tag k="alt_name" v="Stemleitjørn" />
		<tag k="name" v="Stemeleitjønnane" />
		<tag k="natural" v="water" />
		<tag k="old_name" v="Stevnleitjørn" />
		<tag k="ssr:stedsnr" v="306060" />
	</node>
	<node id="-404169" lat="59.4976333365" lon="8.26746388349">
		<tag k="name" v="Bygglandsåi" />
		<tag k="ssr:stedsnr" v="293865" />
		<tag k="waterway" v="river" />
	</node>
	<node id="-406212" lat="59.3763499978" lon="7.60442778506">
		<tag k="alt_name" v="Kaldevatn, store" />
		<tag k="name" v="Store Kaldevatn" />
		<tag k="natural" v="water" />
		<tag k="ssr:stedsnr" v="305649" />
		<tag k="water" v="lake" />
	</node>
	<node id="-406210" lat="59.4016750042" lon="8.21206944465">
		<tag k="name" v="Midtlitangen" />
		<tag k="natural" v="cape" />
		<tag k="ssr:stedsnr" v="305495" />
	</node>
	<node id="-406208" lat="59.416922219" lon="8.14816389401">
		<tag k="alt_name" v="Kosaodden" />
		<tag k="name" v="Kåsaodden" />
		<tag k="natural" v="cape" />
		<tag k="ssr:stedsnr" v="305471" />
	</node>
	<node id="-404158" lat="59.5440111117" lon="8.06132221887">
		<tag k="name" v="Grytstøylbekken" />
		<tag k="ssr:stedsnr" v="292236" />
		<tag k="waterway" v="stream" />
	</node>
	<node id="-406205" lat="59.4542138927" lon="8.25820278572">
		<tag k="alt_name" v="Kovsvatnet" />
		<tag k="name" v="Kåvsvatn" />
		<tag k="natural" v="water" />
		<tag k="ssr:stedsnr" v="305404" />
		<tag k="water" v="lake" />
	</node>
	<node id="-403914" lat="59.5976611094" lon="7.63761110234">
		<tag k="alt_name" v="Uførstjørnane;Uførestjørnane" />
		<tag k="name" v="Uførestjønnane" />
		<tag k="natural" v="water" />
		<tag k="ssr:stedsnr" v="64703" />
	</node>
	<node id="-406202" lat="59.533125002" lon="8.08495000471">
		<tag k="name" v="Folatjønn" />
		<tag k="natural" v="water" />
		<tag k="ssr:stedsnr" v="210856" />
	</node>
	<node id="-404152" lat="59.4895194435" lon="8.05274166618">
		<tag k="name" v="Jarfjøddbukti" />
		<tag k="natural" v="bay" />
		<tag k="ssr:stedsnr" v="292087" />
	</node>
	<node id="-406199" lat="59.4027750025" lon="7.96151666639">
		<tag k="name" v="Åstjønn" />
		<tag k="natural" v="water" />
		<tag k="ssr:stedsnr" v="209967" />
	</node>
	<node id="-404150" lat="59.4935111072" lon="8.19776944686">
		<tag k="name" v="Deildeodden" />
		<tag k="natural" v="cape" />
		<tag k="ssr:stedsnr" v="292063" />
	</node>
	<node id="-404149" lat="59.4949138865" lon="8.19322499464">
		<tag k="name" v="Brustøet" />
		<tag k="natural" v="strait" />
		<tag k="ssr:stedsnr" v="292060" />
	</node>
	<node id="-406196" lat="59.4445361128" lon="7.97871389116">
		<tag k="name" v="Huvestadhylen" />
		<tag k="place" v="locality" />
		<tag k="ssr:stedsnr" v="209951" />
	</node>
	<node id="-404142" lat="59.3521666686" lon="8.01871389674">
		<tag k="name" v="Stemmetjønn" />
		<tag k="natural" v="water" />
		<tag k="ssr:stedsnr" v="289080" />
	</node>
	<node id="-406186" lat="59.3636722232" lon="8.02165000661">
		<tag k="name" v="Bratterudbekken" />
		<tag k="ssr:stedsnr" v="209361" />
		<tag k="waterway" v="stream" />
	</node>
	<node id="-404137" lat="59.3309666665" lon="7.6972694511">
		<tag k="name" v="Midtre Kuskartjønn" />
		<tag k="natural" v="water" />
		<tag k="ssr:stedsnr" v="288923" />
	</node>
	<node id="-404133" lat="59.5190888915" lon="7.83146667044">
		<tag k="name" v="Grånodden" />
		<tag k="natural" v="cape" />
		<tag k="ssr:stedsnr" v="288580" />
	</node>
	<node id="-404554" lat="59.4819888846" lon="8.06531665968">
		<tag k="alt_name" v="Skardstjørni" />
		<tag k="name" v="Skarstjønn" />
		<tag k="natural" v="water" />
		<tag k="ssr:stedsnr" v="391167" />
	</node>
	<node id="-405275" lat="59.4985916632" lon="8.17399445321">
		<tag k="name" v="Grytetjønni" />
		<tag k="natural" v="water" />
		<tag k="ssr:stedsnr" v="778004" />
	</node>
	<node id="-406176" lat="59.423627779" lon="7.77054999218">
		<tag k="alt_name" v="Åslitjørn" />
		<tag k="name" v="Aslestjønn" />
		<tag k="natural" v="water" />
		<tag k="ssr:stedsnr" v="209347" />
	</node>
	<node id="-404127" lat="59.4815638933" lon="7.88690000482">
		<tag k="name" v="Grisetjønn" />
		<tag k="natural" v="water" />
		<tag k="ssr:stedsnr" v="288282" />
	</node>
	<node id="-406174" lat="59.4673222238" lon="7.81921111454">
		<tag k="alt_name" v="Stemmetjørn" />
		<tag k="name" v="Stemmetjønn" />
		<tag k="natural" v="water" />
		<tag k="ssr:stedsnr" v="209183" />
	</node>
	<node id="-406173" lat="59.4900888866" lon="7.98156665841">
		<tag k="name" v="Molandsbekken" />
		<tag k="ssr:stedsnr" v="209173" />
		<tag k="waterway" v="stream" />
	</node>
	<node id="-404122" lat="59.5556250006" lon="8.04282499639">
		<tag k="name" v="Deildebekken" />
		<tag k="ssr:stedsnr" v="185083" />
		<tag k="waterway" v="stream" />
	</node>
	<node id="-404121" lat="59.5462894034" lon="8.0343562996">
		<tag k="alt_name" v="Langetjørn" />
		<tag k="name" v="Langetjønn" />
		<tag k="natural" v="water" />
		<tag k="ssr:stedsnr" v="185075" />
	</node>
	<node id="-404119" lat="59.5434444469" lon="8.02040556014">
		<tag k="name" v="Grytåi" />
		<tag k="ssr:stedsnr" v="185073" />
		<tag k="waterway" v="stream" />
	</node>
	<node id="-404118" lat="59.5413555513" lon="7.85242222748">
		<tag k="alt_name" v="Åvedalstjørn" />
		<tag k="name" v="Åvedaltjønni" />
		<tag k="natural" v="water" />
		<tag k="ssr:stedsnr" v="185067" />
	</node>
	<node id="-404116" lat="59.5299138892" lon="7.78624167411">
		<tag k="name" v="Kleivåi" />
		<tag k="ssr:stedsnr" v="185060" />
		<tag k="waterway" v="stream" />
	</node>
	<node id="-403907" lat="59.4113333319" lon="7.87530000807">
		<tag k="name" v="Mjåvatn" />
		<tag k="natural" v="water" />
		<tag k="ssr:stedsnr" v="63802" />
	</node>
	<node id="-404099" lat="59.3831111071" lon="7.87096388785">
		<tag k="name" v="Skarketjønn" />
		<tag k="natural" v="water" />
		<tag k="ssr:stedsnr" v="167818" />
	</node>
	<node id="-404095" lat="59.3839555511" lon="7.7911388855">
		<tag k="name" v="Jønnvasstøyltjønn" />
		<tag k="natural" v="water" />
		<tag k="ssr:stedsnr" v="167358" />
	</node>
	<node id="-406130" lat="59.5670388856" lon="7.82279999963">
		<tag k="name" v="Skattegrunnane" />
		<tag k="natural" v="shoal" />
		<tag k="place" v="locality" />
		<tag k="ssr:stedsnr" v="209047" />
	</node>
	<node id="-406127" lat="59.5794138889" lon="7.79078055595">
		<tag k="name" v="Kaldebekk" />
		<tag k="ssr:stedsnr" v="185900" />
		<tag k="waterway" v="stream" />
	</node>
	<node id="-404077" lat="59.5771472202" lon="7.77365000481">
		<tag k="name" v="Sliretjønn" />
		<tag k="natural" v="water" />
		<tag k="ssr:stedsnr" v="148116" />
	</node>
	<node id="-406124" lat="59.5616249998" lon="7.55369444633">
		<tag k="alt_name" v="Venevasstjørnane" />
		<tag k="name" v="Venevasstjønnane" />
		<tag k="natural" v="water" />
		<tag k="ssr:stedsnr" v="185708" />
	</node>
	<node id="-406123" lat="59.5795416637" lon="7.61509445059">
		<tag k="alt_name" v="Skurevasstjørnane, heimre" />
		<tag k="name" v="Heimre Skurevasstjønnane" />
		<tag k="natural" v="water" />
		<tag k="ssr:stedsnr" v="185654" />
	</node>
	<node id="-406122" lat="59.3426777801" lon="8.12557777226">
		<tag k="name" v="Digernes" />
		<tag k="natural" v="cape" />
		<tag k="ssr:stedsnr" v="185626" />
	</node>
	<node id="-406121" lat="59.4501249995" lon="8.2303638902">
		<tag k="name" v="Langesæ" />
		<tag k="natural" v="water" />
		<tag k="ssr:stedsnr" v="185622" />
		<tag k="water" v="lake" />
	</node>
	<node id="-406119" lat="59.5147999968" lon="7.56455277314">
		<tag k="alt_name" v="Merakktjørnane" />
		<tag k="name" v="Merakktjønnane" />
		<tag k="natural" v="water" />
		<tag k="ssr:stedsnr" v="185589" />
	</node>
	<node id="-405265" lat="59.4430027774" lon="7.74351111211">
		<tag k="name" v="Hunsfoss" />
		<tag k="natural" v="waterfall" />
		<tag k="ssr:stedsnr" v="773660" />
	</node>
	<node id="-406116" lat="59.5427388872" lon="8.11004444816">
		<tag k="alt_name" v="Vadderåstjørn" />
		<tag k="name" v="Vadderåstjønni" />
		<tag k="natural" v="water" />
		<tag k="ssr:stedsnr" v="185399" />
	</node>
	<node id="-406113" lat="59.5250472236" lon="8.12431667337">
		<tag k="alt_name" v="Kolgravtjørni" />
		<tag k="name" v="Kolgravtjønni" />
		<tag k="natural" v="water" />
		<tag k="ssr:stedsnr" v="185378" />
	</node>
	<node id="-404922" lat="59.4968027788" lon="7.86933054702">
		<tag k="name" v="Kaupanflote" />
		<tag k="natural" v="bay" />
		<tag k="ssr:stedsnr" v="713874" />
	</node>
	<node id="-406103" lat="59.4777527773" lon="7.8520305491">
		<tag k="name" v="Mosvatn" />
		<tag k="natural" v="water" />
		<tag k="ssr:stedsnr" v="184831" />
	</node>
	<node id="-404053" lat="59.3781944473" lon="8.18291943821">
		<tag k="name" v="Kvennhusbekken" />
		<tag k="ssr:stedsnr" v="145810" />
		<tag k="waterway" v="stream" />
	</node>
	<node id="-405262" lat="59.5199249995" lon="7.61467499263">
		<tag k="name" v="Langevatnet" />
		<tag k="natural" v="water" />
		<tag k="ssr:stedsnr" v="914678" />
	</node>
	<node id="-404045" lat="59.4993527801" lon="7.92544722063">
		<tag k="name" v="Svartetjønn" />
		<tag k="natural" v="water" />
		<tag k="ssr:stedsnr" v="270824" />
	</node>
	<node id="-404039" lat="59.4862611144" lon="7.9489138829">
		<tag k="name" v="Juvebekken" />
		<tag k="ssr:stedsnr" v="270911" />
		<tag k="waterway" v="stream" />
	</node>
	<node id="-406083" lat="59.4424611071" lon="7.63923333004">
		<tag k="name" v="Nauteberdalsvatn" />
		<tag k="natural" v="water" />
		<tag k="ssr:stedsnr" v="184421" />
		<tag k="water" v="lake" />
	</node>
	<node id="-406081" lat="59.4613194485" lon="8.23176944723">
		<tag k="alt_name" v="Vrålstjørn" />
		<tag k="name" v="Vrålstjønn" />
		<tag k="natural" v="water" />
		<tag k="ssr:stedsnr" v="184399" />
	</node>
	<node id="-404032" lat="59.561133331" lon="7.81937221383">
		<tag k="name" v="Krokane" />
		<tag k="natural" v="cape" />
		<tag k="ssr:stedsnr" v="270048" />
	</node>
	<node id="-404031" lat="59.5627750042" lon="7.82080556058">
		<tag k="name" v="Stakksvik" />
		<tag k="natural" v="bay" />
		<tag k="ssr:stedsnr" v="270045" />
	</node>
	<node id="-404025" lat="59.4858638864" lon="8.06600556122">
		<tag k="alt_name" v="Oksmyrtjørni" />
		<tag k="name" v="Oksemyrtjønn" />
		<tag k="natural" v="water" />
		<tag k="ssr:stedsnr" v="270183" />
	</node>
	<node id="-404024" lat="59.516813885" lon="8.27553888148">
		<tag k="name" v="Messtjønn" />
		<tag k="natural" v="water" />
		<tag k="ssr:stedsnr" v="269841" />
		<tag k="water" v="pond" />
	</node>
	<node id="-404023" lat="59.4388666695" lon="8.0559583319">
		<tag k="name" v="Prosshol" />
		<tag k="natural" v="bay" />
		<tag k="ssr:stedsnr" v="269682" />
	</node>
	<node id="-406066" lat="59.495808336" lon="8.03100000626">
		<tag k="name" v="Store Rolitjønn" />
		<tag k="natural" v="water" />
		<tag k="ssr:stedsnr" v="171173" />
	</node>
	<node id="-404015" lat="59.559291669" lon="8.26686943926">
		<tag k="name" v="Grunntjønn" />
		<tag k="natural" v="water" />
		<tag k="ssr:stedsnr" v="268148" />
		<tag k="water" v="lake" />
	</node>
	<node id="-404014" lat="59.5509666632" lon="8.2633805547">
		<tag k="name" v="Nordigardskrikland" />
		<tag k="natural" v="water" />
		<tag k="ssr:stedsnr" v="268145" />
	</node>
	<node id="-404009" lat="59.399591668" lon="8.21102499134">
		<tag k="name" v="Knutsliåi" />
		<tag k="ssr:stedsnr" v="267849" />
		<tag k="waterway" v="stream" />
	</node>
	<node id="-404002" lat="59.4862999983" lon="8.20906943845">
		<tag k="name" v="Dalastøylbukti" />
		<tag k="natural" v="bay" />
		<tag k="ssr:stedsnr" v="267479" />
	</node>
	<node id="-406049" lat="59.373952777" lon="7.84631943797">
		<tag k="name" v="Sæbyggjeåi" />
		<tag k="ssr:stedsnr" v="167978" />
		<tag k="waterway" v="river" />
	</node>
	<node id="-403996" lat="59.5270555561" lon="8.32216388613">
		<tag k="alt_name" v="Raudå" />
		<tag k="name" v="Raudåi" />
		<tag k="ssr:stedsnr" v="124323" />
		<tag k="waterway" v="stream" />
	</node>
	<node id="-403995" lat="59.384566666" lon="8.11809444025">
		<tag k="alt_name" v="Venetjørnane" />
		<tag k="name" v="Ventjønnane" />
		<tag k="natural" v="water" />
		<tag k="ssr:stedsnr" v="123316" />
	</node>
	<node id="-406040" lat="59.4965583346" lon="7.87298889309">
		<tag k="name" v="Bessøy" />
		<tag k="place" v="island" />
		<tag k="ssr:stedsnr" v="167859" />
	</node>
	<node id="-406039" lat="59.3985388903" lon="7.83728333137">
		<tag k="name" v="Homvatn" />
		<tag k="natural" v="water" />
		<tag k="ssr:stedsnr" v="167743" />
		<tag k="water" v="lake" />
	</node>
	<node id="-403986" lat="59.5210027809" lon="7.80768611079">
		<tag k="name" v="Heggtveitbekken" />
		<tag k="ssr:stedsnr" v="89216" />
		<tag k="waterway" v="stream" />
	</node>
	<node id="-403984" lat="59.4383888847" lon="8.06676667255">
		<tag k="name" v="Fløtabukti" />
		<tag k="natural" v="bay" />
		<tag k="ssr:stedsnr" v="86656" />
	</node>
	<node id="-403983" lat="59.4476804934" lon="8.06091581794">
		<tag k="name" v="Juvstøylbekken" />
		<tag k="ssr:stedsnr" v="86611" />
		<tag k="waterway" v="stream" />
	</node>
	<node id="-403885" lat="59.5110305564" lon="8.18960000644">
		<tag k="name" v="Folatjønn" />
		<tag k="natural" v="water" />
		<tag k="ssr:stedsnr" v="231491" />
	</node>
	<node id="-406025" lat="59.3960805575" lon="7.77518888663">
		<tag k="name" v="Orrhaneodden" />
		<tag k="natural" v="cape" />
		<tag k="ssr:stedsnr" v="166351" />
	</node>
	<node id="-403976" lat="59.4294583309" lon="8.0976305622">
		<tag k="name" v="Stigodden" />
		<tag k="natural" v="cape" />
		<tag k="ssr:stedsnr" v="85660" />
	</node>
	<node id="-406022" lat="59.3902000007" lon="7.76946943912">
		<tag k="name" v="Hovedøya" />
		<tag k="place" v="island" />
		<tag k="ssr:stedsnr" v="166349" />
	</node>
	<node id="-403970" lat="59.4576611077" lon="8.14942499861">
		<tag k="name" v="Hjasahovtjønni" />
		<tag k="natural" v="water" />
		<tag k="ssr:stedsnr" v="85411" />
	</node>
	<node id="-403965" lat="59.5700499987" lon="7.58138888465">
		<tag k="alt_name" v="Skarvtjørn" />
		<tag k="name" v="Skarvtjønn" />
		<tag k="natural" v="water" />
		<tag k="ssr:stedsnr" v="246715" />
	</node>
	<node id="-403963" lat="59.5487555519" lon="7.56682499264">
		<tag k="alt_name" v="Brekkatjørni, heimre" />
		<tag k="name" v="Heimre Brekkatjønni" />
		<tag k="natural" v="water" />
		<tag k="ssr:stedsnr" v="246695" />
	</node>
	<node id="-403962" lat="59.5261250007" lon="7.66720833399">
		<tag k="alt_name" v="Dei fem tjørnane" />
		<tag k="name" v="Dei fem tjønnane" />
		<tag k="natural" v="water" />
		<tag k="ssr:stedsnr" v="246625" />
	</node>
	<node id="-403960" lat="59.5147194403" lon="8.13122777554">
		<tag k="name" v="Gåsvatn, vle" />
		<tag k="natural" v="water" />
		<tag k="ssr:stedsnr" v="246499" />
	</node>
	<node id="-406006" lat="59.4408833361" lon="8.00812500335">
		<tag k="name" v="Buøy" />
		<tag k="place" v="island" />
		<tag k="ssr:stedsnr" v="148905" />
	</node>
	<node id="-406004" lat="59.3980527751" lon="8.06869721864">
		<tag k="alt_name" v="Stemmetjørn" />
		<tag k="name" v="Stemmetjønn" />
		<tag k="natural" v="water" />
		<tag k="ssr:stedsnr" v="148349" />
	</node>
	<node id="-403955" lat="59.5512222255" lon="8.33789445101">
		<tag k="alt_name" v="Trolltjørn" />
		<tag k="name" v="Trolltjønn" />
		<tag k="natural" v="water" />
		<tag k="ssr:stedsnr" v="246394" />
	</node>
	<node id="-403954" lat="59.5369500036" lon="8.19783332539">
		<tag k="name" v="Langodden" />
		<tag k="natural" v="cape" />
		<tag k="ssr:stedsnr" v="246377" />
	</node>
	<node id="-404563" lat="59.4340999993" lon="7.74789166055">
		<tag k="alt_name" v="Steintjørn" />
		<tag k="name" v="Steitjønn" />
		<tag k="natural" v="water" />
		<tag k="ssr:stedsnr" v="391354" />
	</node>
	<node id="-406000" lat="59.5783083318" lon="7.82238889561">
		<tag k="name" v="Skoralibekken" />
		<tag k="ssr:stedsnr" v="148050" />
		<tag k="waterway" v="stream" />
	</node>
	<node id="-404904" lat="59.3547972195" lon="8.03470000476">
		<tag k="name" v="Piggnutstjønni" />
		<tag k="natural" v="water" />
		<tag k="ssr:stedsnr" v="713084" />
	</node>
	<node id="-405996" lat="59.5601388871" lon="8.29318610687">
		<tag k="name" v="Langetjønn" />
		<tag k="natural" v="water" />
		<tag k="ssr:stedsnr" v="147846" />
	</node>
	<node id="-405995" lat="59.5662111146" lon="8.30139444772">
		<tag k="name" v="Vesle Myklevatn" />
		<tag k="natural" v="water" />
		<tag k="ssr:stedsnr" v="147842" />
	</node>
	<node id="-405991" lat="59.5211861098" lon="8.26721944107">
		<tag k="name" v="Dampedaltjønni" />
		<tag k="natural" v="water" />
		<tag k="ssr:stedsnr" v="146747" />
		<tag k="water" v="pond" />
	</node>
	<node id="-403942" lat="59.4350888893" lon="7.78930832947">
		<tag k="name" v="Raudmyrsbekken" />
		<tag k="old_name" v="Raudmyrsbekk" />
		<tag k="ssr:stedsnr" v="245829" />
		<tag k="waterway" v="stream" />
	</node>
	<node id="-403939" lat="59.4397027762" lon="7.92312777235">
		<tag k="name" v="Leiråi" />
		<tag k="ssr:stedsnr" v="245811" />
		<tag k="waterway" v="stream" />
	</node>
	<node id="-405986" lat="59.4732409888" lon="8.20349360234">
		<tag k="name" v="Størrbutjønni" />
		<tag k="natural" v="water" />
		<tag k="ssr:stedsnr" v="146475" />
	</node>
	<node id="-405984" lat="59.5510722221" lon="8.26026944004">
		<tag k="name" v="Svarttjønn" />
		<tag k="natural" v="water" />
		<tag k="ssr:stedsnr" v="146130" />
		<tag k="water" v="pond" />
	</node>
	<node id="-403935" lat="59.4084111124" lon="7.84754722648">
		<tag k="alt_name" v="Grisetjørn" />
		<tag k="name" v="Grisetjønn" />
		<tag k="natural" v="water" />
		<tag k="ssr:stedsnr" v="245788" />
	</node>
	<node id="-405978" lat="59.4789694446" lon="8.24732777006">
		<tag k="name" v="Kvittjønn" />
		<tag k="natural" v="water" />
		<tag k="ssr:stedsnr" v="145445" />
	</node>
	<node id="-405977" lat="59.4743361121" lon="8.25578056365">
		<tag k="name" v="Heddertjønn" />
		<tag k="natural" v="water" />
		<tag k="ssr:stedsnr" v="145440" />
	</node>
	<node id="-403927" lat="59.504583335" lon="8.11071110516">
		<tag k="name" v="Mjåvatn" />
		<tag k="natural" v="water" />
		<tag k="ssr:stedsnr" v="245488" />
	</node>
	<node id="-403926" lat="59.504244445" lon="8.17347223034">
		<tag k="name" v="Grytåi" />
		<tag k="ssr:stedsnr" v="245484" />
		<tag k="waterway" v="stream" />
	</node>
	<node id="-403925" lat="59.442869448" lon="8.16096389264">
		<tag k="name" v="Lårdalsåi" />
		<tag k="ssr:stedsnr" v="245450" />
		<tag k="waterway" v="river" />
	</node>
	<node id="-403920" lat="59.558169444" lon="8.32535833528">
		<tag k="name" v="Vorvatn" />
		<tag k="natural" v="water" />
		<tag k="ssr:stedsnr" v="245396" />
		<tag k="water" v="lake" />
	</node>
	<node id="-405240" lat="59.3745611129" lon="8.14301110665">
		<tag k="name" v="Heibekken" />
		<tag k="ssr:stedsnr" v="913283" />
		<tag k="waterway" v="stream" />
	</node>
	<node id="-403918" lat="59.3729611119" lon="8.15769445217">
		<tag k="alt_name" v="Haugetjørni" />
		<tag k="name" v="Haugtjønn" />
		<tag k="natural" v="water" />
		<tag k="ssr:stedsnr" v="245282" />
	</node>
	<node id="-405962" lat="59.4039777804" lon="7.83721388248">
		<tag k="alt_name" v="Homvatn" />
		<tag k="name" v="Homevatn" />
		<tag k="natural" v="water" />
		<tag k="ssr:stedsnr" v="124764" />
		<tag k="water" v="lake" />
	</node>
	<node id="-405960" lat="59.3844972206" lon="8.02074999443">
		<tag k="name" v="Åmlivatn" />
		<tag k="natural" v="water" />
		<tag k="ssr:stedsnr" v="124740" />
		<tag k="water" v="lake" />
	</node>
	<node id="-405956" lat="59.5731888887" lon="7.55650832645">
		<tag k="alt_name" v="Kroktjørni" />
		<tag k="name" v="Kroktjønni" />
		<tag k="natural" v="water" />
		<tag k="ssr:stedsnr" v="124697" />
	</node>
	<node id="-405955" lat="59.5723027767" lon="7.61921388554">
		<tag k="alt_name" v="Hestehomtjørni" />
		<tag k="name" v="Hestehomtjønni" />
		<tag k="natural" v="water" />
		<tag k="ssr:stedsnr" v="124691" />
	</node>
	<node id="-405951" lat="59.5832916633" lon="7.55550833921">
		<tag k="name" v="Skurevatn" />
		<tag k="natural" v="water" />
		<tag k="ssr:stedsnr" v="124639" />
		<tag k="water" v="lake" />
	</node>
	<node id="-405950" lat="59.5372777742" lon="7.63992499972">
		<tag k="name" v="Poddevatn" />
		<tag k="natural" v="water" />
		<tag k="ssr:stedsnr" v="124586" />
		<tag k="water" v="lake" />
	</node>
	<node id="-405949" lat="59.5117499962" lon="7.65685833463">
		<tag k="name" v="Søylediplane" />
		<tag k="natural" v="water" />
		<tag k="old_name" v="Søyledyplane" />
		<tag k="ssr:stedsnr" v="124579" />
	</node>
	<node id="-405948" lat="59.5137166678" lon="7.70873333989">
		<tag k="name" v="Hovundåi" />
		<tag k="ssr:stedsnr" v="124569" />
		<tag k="waterway" v="stream" />
	</node>
	<node id="-405947" lat="59.5233111093" lon="8.09765277916">
		<tag k="alt_name" v="Nårongsdaltjørni" />
		<tag k="name" v="Nårångsdaltjønni" />
		<tag k="natural" v="water" />
		<tag k="ssr:stedsnr" v="124472" />
	</node>
	<node id="-405946" lat="59.519027778" lon="8.12675277011">
		<tag k="alt_name" v="Gåsvatnet, store" />
		<tag k="name" v="Store Gåsvatn" />
		<tag k="natural" v="water" />
		<tag k="ssr:stedsnr" v="124468" />
	</node>
	<node id="-405945" lat="59.5248027744" lon="8.31738332486">
		<tag k="alt_name" v="Migandtjørni" />
		<tag k="name" v="Migantjønn" />
		<tag k="natural" v="water" />
		<tag k="ssr:stedsnr" v="124464" />
	</node>
	<node id="-403894" lat="59.5244888919" lon="8.18614445172">
		<tag k="name" v="Sankt Helena" />
		<tag k="place" v="island" />
		<tag k="ssr:stedsnr" v="232441" />
	</node>
	<node id="-403892" lat="59.4957388908" lon="8.29968889183">
		<tag k="name" v="Juvsbekken" />
		<tag k="ssr:stedsnr" v="232087" />
		<tag k="waterway" v="stream" />
	</node>
	<node id="-403888" lat="59.5348861143" lon="8.08488055534">
		<tag k="name" v="Loppetjønn" />
		<tag k="natural" v="water" />
		<tag k="ssr:stedsnr" v="231781" />
	</node>
	<node id="-405933" lat="59.5128651749" lon="8.08901558761">
		<tag k="alt_name" v="Flotstøyltjørn" />
		<tag k="name" v="Flotstøyltjønn" />
		<tag k="natural" v="water" />
		<tag k="old_name" v="Flotstøltjørn" />
		<tag k="ssr:stedsnr" v="124018" />
	</node>
	<node id="-403884" lat="59.513819447" lon="8.19989723013">
		<tag k="name" v="Klamrebekk" />
		<tag k="ssr:stedsnr" v="231326" />
		<tag k="waterway" v="stream" />
	</node>
	<node id="-403883" lat="59.4914583359" lon="8.10520000242">
		<tag k="name" v="Svarttjønn" />
		<tag k="natural" v="water" />
		<tag k="ssr:stedsnr" v="231236" />
	</node>
	<node id="-405927" lat="59.4345138854" lon="7.73690555467">
		<tag k="alt_name" v="Kvævetjørn" />
		<tag k="name" v="Kvævetjønn" />
		<tag k="natural" v="water" />
		<tag k="ssr:stedsnr" v="123855" />
	</node>
	<node id="-403878" lat="59.4962583335" lon="8.0542638828">
		<tag k="name" v="Vikabukti" />
		<tag k="natural" v="bay" />
		<tag k="ssr:stedsnr" v="231122" />
	</node>
	<node id="-405925" lat="59.4385222186" lon="8.07332222129">
		<tag k="alt_name" v="Høynesodden" />
		<tag k="name" v="Høgnesodden" />
		<tag k="natural" v="cape" />
		<tag k="ssr:stedsnr" v="123841" />
	</node>
	<node id="-405923" lat="59.4376527816" lon="7.87257499163">
		<tag k="name" v="Svollbekken" />
		<tag k="ssr:stedsnr" v="123833" />
		<tag k="waterway" v="stream" />
	</node>
	<node id="-405919" lat="59.4426083321" lon="7.77501945283">
		<tag k="alt_name" v="Smøgåi" />
		<tag k="name" v="Smogåi" />
		<tag k="old_name" v="Smågåi" />
		<tag k="ssr:stedsnr" v="123814" />
		<tag k="waterway" v="river" />
	</node>
	<node id="-405918" lat="59.4461500033" lon="7.73023055227">
		<tag k="alt_name" v="Storehomstjørn" />
		<tag k="name" v="Storehomstjønna" />
		<tag k="natural" v="water" />
		<tag k="ssr:stedsnr" v="123813" />
	</node>
	<node id="-405914" lat="59.4844249976" lon="7.87892500418">
		<tag k="alt_name" v="Tveitevatn" />
		<tag k="name" v="Tveitotjønn" />
		<tag k="natural" v="water" />
		<tag k="ssr:stedsnr" v="123684" />
	</node>
	<node id="-403859" lat="59.5204805586" lon="7.85313611276">
		<tag k="name" v="Myrketjønn" />
		<tag k="natural" v="water" />
		<tag k="ssr:stedsnr" v="228700" />
	</node>
	<node id="-403856" lat="59.3437611068" lon="7.99541388884">
		<tag k="name" v="Nystøyltjønni" />
		<tag k="natural" v="water" />
		<tag k="ssr:stedsnr" v="228097" />
	</node>
	<node id="-405903" lat="59.35185556" lon="8.12325833989">
		<tag k="alt_name" v="Haråstjørni" />
		<tag k="name" v="Haråstjønni" />
		<tag k="natural" v="water" />
		<tag k="ssr:stedsnr" v="123401" />
	</node>
	<node id="-405899" lat="59.4975555532" lon="8.26052500244">
		<tag k="name" v="Kvåletjønni" />
		<tag k="natural" v="water" />
		<tag k="ssr:stedsnr" v="111816" />
	</node>
	<node id="-403848" lat="59.4102805591" lon="7.7577111035">
		<tag k="name" v="Eigilshylen" />
		<tag k="place" v="locality" />
		<tag k="ssr:stedsnr" v="227295" />
	</node>
	<node id="-403843" lat="59.3698138879" lon="7.78658611739">
		<tag k="name" v="Svivomhylen" />
		<tag k="place" v="locality" />
		<tag k="ssr:stedsnr" v="227253" />
	</node>
	<node id="-405227" lat="59.4346416658" lon="7.81244999475">
		<tag k="alt_name" v="Teksleåi" />
		<tag k="name" v="Tekslåi" />
		<tag k="ssr:stedsnr" v="912855" />
		<tag k="waterway" v="stream" />
	</node>
	<node id="-405888" lat="59.493786114" lon="8.1838749919">
		<tag k="name" v="Tangane" />
		<tag k="natural" v="cape" />
		<tag k="ssr:stedsnr" v="110069" />
	</node>
	<node id="-405887" lat="59.4971833357" lon="8.18687221363">
		<tag k="name" v="Lomstjønn" />
		<tag k="natural" v="water" />
		<tag k="ssr:stedsnr" v="110068" />
	</node>
	<node id="-403833" lat="59.4394861119" lon="8.00520555762">
		<tag k="name" v="Asiaevja" />
		<tag k="natural" v="strait" />
		<tag k="ssr:stedsnr" v="27902" />
	</node>
	<node id="-405880" lat="59.4258166624" lon="7.88796666222">
		<tag k="name" v="Torstøyltjønni" />
		<tag k="natural" v="water" />
		<tag k="ssr:stedsnr" v="107882" />
	</node>
	<node id="-404208" lat="59.4913166694" lon="8.20823055752">
		<tag k="name" v="Skotbukti" />
		<tag k="natural" v="bay" />
		<tag k="ssr:stedsnr" v="231464" />
	</node>
	<node id="-403811" lat="59.5421027764" lon="7.67886944299">
		<tag k="name" v="Midvatn" />
		<tag k="natural" v="water" />
		<tag k="ssr:stedsnr" v="3698" />
	</node>
	<node id="-405857" lat="59.4419916692" lon="7.80768889448">
		<tag k="name" v="Åsfoss" />
		<tag k="natural" v="waterfall" />
		<tag k="ssr:stedsnr" v="106726" />
	</node>
	<node id="-405854" lat="59.5123166645" lon="7.87446111918">
		<tag k="name" v="Flatamobekken" />
		<tag k="ssr:stedsnr" v="106652" />
		<tag k="waterway" v="stream" />
	</node>
	<node id="-404379" lat="59.4974166665" lon="7.73420832588">
		<tag k="name" v="Fiskebergløkjen" />
		<tag k="natural" v="water" />
		<tag k="ssr:stedsnr" v="470929" />
	</node>
	<node id="-405838" lat="59.4813444434" lon="7.8451722195">
		<tag k="name" v="Mosåi" />
		<tag k="ssr:stedsnr" v="106383" />
		<tag k="waterway" v="river" />
	</node>
	<node id="-405835" lat="59.3811500031" lon="7.76919444968">
		<tag k="name" v="Lundsbukta" />
		<tag k="natural" v="bay" />
		<tag k="ssr:stedsnr" v="106320" />
	</node>
	<node id="-405826" lat="59.3610472184" lon="7.80147500588">
		<tag k="name" v="Kleggenestjønn" />
		<tag k="natural" v="water" />
		<tag k="ssr:stedsnr" v="106245" />
	</node>
	<node id="-404874" lat="59.5189694406" lon="7.87875555597">
		<tag k="name" v="Myklestøylbekken" />
		<tag k="old_name" v="Myklestølbekken" />
		<tag k="ssr:stedsnr" v="549034" />
		<tag k="waterway" v="stream" />
	</node>
	<node id="-404532" lat="59.3855361126" lon="8.17738333631">
		<tag k="alt_name" v="Bjortjørn" />
		<tag k="name" v="Bjortjønn" />
		<tag k="natural" v="water" />
		<tag k="ssr:stedsnr" v="366281" />
	</node>
	<node id="-405811" lat="59.40400278" lon="7.99860555115">
		<tag k="name" v="Skafsååi" />
		<tag k="ssr:stedsnr" v="88991" />
		<tag k="waterway" v="river" />
	</node>
	<node id="-405810" lat="59.3989388873" lon="8.00735277508">
		<tag k="name" v="Nykkhyl" />
		<tag k="place" v="locality" />
		<tag k="ssr:stedsnr" v="88989" />
	</node>
	<node id="-405803" lat="59.4378749962" lon="8.01021945059">
		<tag k="name" v="Veøy" />
		<tag k="place" v="island" />
		<tag k="ssr:stedsnr" v="88905" />
	</node>
	<node id="-405797" lat="59.4120249973" lon="7.7491694495">
		<tag k="name" v="Urå" />
		<tag k="ssr:stedsnr" v="88332" />
		<tag k="waterway" v="river" />
	</node>
	<node id="-405790" lat="59.5529916674" lon="8.02105278001">
		<tag k="name" v="Raudtjønn" />
		<tag k="natural" v="water" />
		<tag k="ssr:stedsnr" v="88164" />
	</node>
	<node id="-405789" lat="59.58575" lon="7.69565833583">
		<tag k="name" v="Lisle Russvasstjønn" />
		<tag k="natural" v="water" />
		<tag k="old_name" v="Lisle Russvastjønn" />
		<tag k="ssr:stedsnr" v="88086" />
	</node>
	<node id="-405787" lat="59.4767611143" lon="7.9578555529">
		<tag k="name" v="Svartepyttholet" />
		<tag k="place" v="locality" />
		<tag k="ssr:stedsnr" v="88069" />
	</node>
	<node id="-405783" lat="59.5115611082" lon="8.32585555049">
		<tag k="name" v="Svarttjønn" />
		<tag k="natural" v="water" />
		<tag k="ssr:stedsnr" v="87822" />
	</node>
	<node id="-405782" lat="59.5117972259" lon="8.31557777819">
		<tag k="name" v="Inntaksdam" />
		<tag k="ssr:stedsnr" v="87819" />
		<tag k="waterway" v="dam" />
	</node>
	<node id="-406233" lat="59.5255361107" lon="8.23753888677">
		<tag k="alt_name" v="Langetjørn" />
		<tag k="name" v="Langelitjønni" />
		<tag k="natural" v="water" />
		<tag k="ssr:stedsnr" v="306493" />
	</node>
	<node id="-404866" lat="59.502621903" lon="7.8992078363">
		<tag k="name" v="Surtetjønn" />
		<tag k="natural" v="water" />
		<tag k="ssr:stedsnr" v="695843" />
	</node>
	<node id="-405765" lat="59.3716122116" lon="8.09648949056">
		<tag k="name" v="Nørstetjønn" />
		<tag k="natural" v="water" />
		<tag k="ssr:stedsnr" v="85920" />
	</node>
	<node id="-405764" lat="59.3714555573" lon="8.19660833406">
		<tag k="name" v="Oppigardstjønn" />
		<tag k="natural" v="water" />
		<tag k="ssr:stedsnr" v="85901" />
		<tag k="water" v="pond" />
	</node>
	<node id="-405762" lat="59.3993805588" lon="8.16261666298">
		<tag k="name" v="Klauvreidtjønni" />
		<tag k="natural" v="water" />
		<tag k="old_name" v="Klaureidtjønni" />
		<tag k="ssr:stedsnr" v="85740" />
	</node>
	<node id="-405757" lat="59.4591916703" lon="8.22896388695">
		<tag k="name" v="Svarthylane" />
		<tag k="natural" v="water" />
		<tag k="ssr:stedsnr" v="85624" />
		<tag k="water" v="lake" />
	</node>
	<node id="-404522" lat="59.4681166678" lon="7.72544166636">
		<tag k="alt_name" v="Strandstøyldalsvatnet" />
		<tag k="name" v="Strandstøylsdalsvatnet" />
		<tag k="natural" v="water" />
		<tag k="old_name" v="Strandstøldalsvatn" />
		<tag k="ssr:stedsnr" v="488840" />
	</node>
	<node id="-405748" lat="59.5371194419" lon="7.79339166785">
		<tag k="name" v="Kaldebekk" />
		<tag k="ssr:stedsnr" v="65086" />
		<tag k="waterway" v="stream" />
	</node>
	<node id="-405737" lat="59.5277722252" lon="8.12261943769">
		<tag k="alt_name" v="Grasdaltjørn" />
		<tag k="name" v="Grasdaltjønni" />
		<tag k="natural" v="water" />
		<tag k="ssr:stedsnr" v="64395" />
	</node>
	<node id="-405735" lat="59.5282083343" lon="8.29083889002">
		<tag k="name" v="Bjorvatn" />
		<tag k="natural" v="water" />
		<tag k="ssr:stedsnr" v="64391" />
		<tag k="water" v="lake" />
	</node>
	<node id="-405734" lat="59.5627333297" lon="8.2205611157">
		<tag k="alt_name" v="Midttjørn" />
		<tag k="name" v="Midttjønn" />
		<tag k="natural" v="water" />
		<tag k="ssr:stedsnr" v="64455" />
	</node>
	<node id="-405732" lat="59.3448138925" lon="8.08858888337">
		<tag k="name" v="Grunnane" />
		<tag k="natural" v="water" />
		<tag k="ssr:stedsnr" v="63990" />
		<tag k="water" v="lake" />
	</node>
	<node id="-405725" lat="59.5386333324" lon="8.05582778353">
		<tag k="alt_name" v="Grytestøyltjørn;Gryttjønn" />
		<tag k="name" v="Grytestøyltjønn" />
		<tag k="natural" v="water" />
		<tag k="old_name" v="Grytestøltjørn" />
		<tag k="ssr:stedsnr" v="64046" />
	</node>
	<node id="-403930" lat="59.3909138847" lon="7.75781110289">
		<tag k="name" v="Borsæ" />
		<tag k="natural" v="water" />
		<tag k="ssr:stedsnr" v="245730" />
		<tag k="water" v="lake" />
	</node>
	<node id="-405712" lat="59.5105055554" lon="8.31471388438">
		<tag k="alt_name" v="Kvernåi;Kvennevassåi" />
		<tag k="name" v="Kvernvasselvi" />
		<tag k="ssr:stedsnr" v="63567" />
		<tag k="waterway" v="river" />
	</node>
	<node id="-405711" lat="59.3433888879" lon="7.65893888835">
		<tag k="alt_name" v="Kjønnesviksvatnet" />
		<tag k="name" v="Kjønnesvikvatn" />
		<tag k="natural" v="water" />
		<tag k="ssr:stedsnr" v="63566" />
		<tag k="water" v="lake" />
	</node>
	<node id="-405707" lat="59.3420611074" lon="8.1090638852">
		<tag k="alt_name" v="Greipstadodden" />
		<tag k="name" v="Greivstadodden" />
		<tag k="natural" v="cape" />
		<tag k="ssr:stedsnr" v="63352" />
	</node>
	<node id="-405695" lat="59.4899305544" lon="8.23369166253">
		<tag k="name" v="Kyrkjeøyi" />
		<tag k="place" v="island" />
		<tag k="ssr:stedsnr" v="50800" />
	</node>
	<node id="-405682" lat="59.4915250007" lon="8.19718055948">
		<tag k="name" v="Overnes" />
		<tag k="place" v="island" />
		<tag k="ssr:stedsnr" v="49458" />
	</node>
	<node id="-405681" lat="59.5185305525" lon="8.06227499385">
		<tag k="name" v="Djevleøyi" />
		<tag k="place" v="island" />
		<tag k="ssr:stedsnr" v="49401" />
	</node>
	<node id="-405680" lat="59.5375055519" lon="8.06249721891">
		<tag k="name" v="Nesabekken" />
		<tag k="ssr:stedsnr" v="49320" />
		<tag k="waterway" v="stream" />
	</node>
	<node id="-405668" lat="59.3738972218" lon="7.97328888732">
		<tag k="name" v="Gjessløystjønn" />
		<tag k="natural" v="water" />
		<tag k="ssr:stedsnr" v="46980" />
	</node>
	<node id="-405663" lat="59.3332333346" lon="7.7083805618">
		<tag k="name" v="Heimre Kuskartjønn" />
		<tag k="natural" v="water" />
		<tag k="ssr:stedsnr" v="46939" />
	</node>
	<node id="-405661" lat="59.4229638918" lon="7.89540555949">
		<tag k="name" v="Auverstjønn" />
		<tag k="natural" v="water" />
		<tag k="ssr:stedsnr" v="46881" />
	</node>
	<node id="-405651" lat="59.3532305556" lon="8.001086118">
		<tag k="name" v="Skarketjønn" />
		<tag k="natural" v="water" />
		<tag k="ssr:stedsnr" v="46094" />
	</node>
	<node id="-405649" lat="59.5593638896" lon="7.66383332804">
		<tag k="name" v="Poddeskorvatni" />
		<tag k="natural" v="water" />
		<tag k="ssr:stedsnr" v="46055" />
		<tag k="water" v="lake" />
	</node>
	<node id="-405626" lat="59.4065861126" lon="7.78549165957">
		<tag k="name" v="Oleimtjønn" />
		<tag k="natural" v="water" />
		<tag k="ssr:stedsnr" v="45346" />
	</node>
	<node id="-405625" lat="59.3890944414" lon="7.76139444072">
		<tag k="name" v="Hågøy" />
		<tag k="place" v="island" />
		<tag k="ssr:stedsnr" v="45317" />
	</node>
	<node id="-405926" lat="59.4405222202" lon="8.016116663">
		<tag k="alt_name" v="Ljåmøy" />
		<tag k="name" v="Jamøy" />
		<tag k="natural" v="cape" />
		<tag k="ssr:stedsnr" v="123842" />
	</node>
	<node id="-404500" lat="59.4462749957" lon="7.6915833367">
		<tag k="name" v="Langevatn" />
		<tag k="natural" v="water" />
		<tag k="ssr:stedsnr" v="488390" />
	</node>
	<node id="-405621" lat="59.5016388867" lon="7.80083611237">
		<tag k="name" v="Svartetjønn" />
		<tag k="natural" v="water" />
		<tag k="ssr:stedsnr" v="44760" />
	</node>
	<node id="-405617" lat="59.5444944441" lon="7.79732499381">
		<tag k="name" v="Storebekk" />
		<tag k="ssr:stedsnr" v="28275" />
		<tag k="waterway" v="stream" />
	</node>
	<node id="-404157" lat="59.540447218" lon="8.05716665985">
		<tag k="name" v="Furuodden" />
		<tag k="natural" v="cape" />
		<tag k="ssr:stedsnr" v="292225" />
	</node>
	<node id="-405611" lat="59.4475388847" lon="7.98321666111">
		<tag k="name" v="Brynjulvsøyane" />
		<tag k="place" v="island" />
		<tag k="ssr:stedsnr" v="27959" />
	</node>
	<node id="-405609" lat="59.4367499979" lon="8.01452776972">
		<tag k="name" v="Landøy" />
		<tag k="place" v="island" />
		<tag k="ssr:stedsnr" v="27898" />
	</node>
	<node id="-405602" lat="59.5508333355" lon="8.02473333191">
		<tag k="name" v="Raudtjønn" />
		<tag k="natural" v="water" />
		<tag k="ssr:stedsnr" v="27198" />
	</node>
	<node id="-405601" lat="59.4900750025" lon="7.83982222801">
		<tag k="name" v="Mosåi" />
		<tag k="ssr:stedsnr" v="27169" />
		<tag k="waterway" v="stream" />
	</node>
	<node id="-405598" lat="59.5920055591" lon="7.81614722606">
		<tag k="name" v="Kvennebekken" />
		<tag k="ssr:stedsnr" v="27094" />
		<tag k="waterway" v="stream" />
	</node>
	<node id="-405593" lat="59.3605416705" lon="7.77663610616">
		<tag k="name" v="Digranes" />
		<tag k="natural" v="cape" />
		<tag k="ssr:stedsnr" v="27366" />
	</node>
	<node id="-405587" lat="59.3995388932" lon="8.05571111945">
		<tag k="name" v="Breilstjønn" />
		<tag k="natural" v="water" />
		<tag k="ssr:stedsnr" v="26226" />
	</node>
	<node id="-405176" lat="59.5029166699" lon="8.02366944072">
		<tag k="name" v="Lisle Rolitjønn" />
		<tag k="natural" v="water" />
		<tag k="ssr:stedsnr" v="899733" />
	</node>
	<node id="-405581" lat="59.5638388853" lon="8.21681111147">
		<tag k="name" v="Gråndalstjønni" />
		<tag k="natural" v="water" />
		<tag k="ssr:stedsnr" v="25270" />
	</node>
	<node id="-405578" lat="59.3703111089" lon="8.10541944675">
		<tag k="name" v="Brubakktjønni" />
		<tag k="natural" v="water" />
		<tag k="ssr:stedsnr" v="24968" />
	</node>
	<node id="-404151" lat="59.493030559" lon="8.19501943775">
		<tag k="name" v="Sandodden" />
		<tag k="natural" v="cape" />
		<tag k="ssr:stedsnr" v="292064" />
	</node>
	<node id="-403809" lat="59.557558335" lon="7.52240556154">
		<tag k="name" v="Venevatn" />
		<tag k="natural" v="water" />
		<tag k="ssr:stedsnr" v="3723" />
		<tag k="water" v="lake" />
	</node>
	<node id="-405557" lat="59.5065861119" lon="8.30928888619">
		<tag k="alt_name" v="Skoftedalstjørni" />
		<tag k="name" v="Skoftedalstjønni" />
		<tag k="natural" v="water" />
		<tag k="ssr:stedsnr" v="3514" />
	</node>
	<node id="-405556" lat="59.5024277802" lon="8.22468889637">
		<tag k="alt_name" v="Stemmetjørn" />
		<tag k="name" v="Stemmetjønn" />
		<tag k="natural" v="water" />
		<tag k="ssr:stedsnr" v="3513" />
	</node>
	<node id="-405554" lat="59.5177361119" lon="8.2869694427">
		<tag k="name" v="Mjåvatn" />
		<tag k="natural" v="water" />
		<tag k="ssr:stedsnr" v="3475" />
		<tag k="water" v="lake" />
	</node>
	<node id="-405546" lat="59.5445333341" lon="8.01800832611">
		<tag k="alt_name" v="Bjørntjørn" />
		<tag k="name" v="Bjønntjønn" />
		<tag k="natural" v="water" />
		<tag k="ssr:stedsnr" v="3067" />
	</node>
	<node id="-405542" lat="59.3632525238" lon="7.93897493205">
		<tag k="name" v="Hylebuhylen" />
		<tag k="natural" v="water" />
		<tag k="ssr:stedsnr" v="2967" />
	</node>
	<node id="-405541" lat="59.3689611075" lon="7.97215832713">
		<tag k="alt_name" v="Moensåi" />
		<tag k="name" v="Monsåi" />
		<tag k="ssr:stedsnr" v="2965" />
		<tag k="waterway" v="river" />
	</node>
	<node id="-405532" lat="59.3713972227" lon="7.78780554988">
		<tag k="alt_name" v="Fyrå" />
		<tag k="name" v="Fyråi" />
		<tag k="ssr:stedsnr" v="2757" />
		<tag k="waterway" v="stream" />
	</node>
	<node id="-407129" lat="59.3907194466" lon="8.08309166823">
		<tag k="name" v="Mørketjønn" />
		<tag k="natural" v="water" />
		<tag k="ssr:stedsnr" v="813145" />
	</node>
	<node id="-405526" lat="59.3749805525" lon="7.70973611547">
		<tag k="name" v="Grunnevatn" />
		<tag k="natural" v="water" />
		<tag k="ssr:stedsnr" v="2600" />
	</node>
	<node id="-405525" lat="59.3520138844" lon="7.61003888962">
		<tag k="alt_name" v="Hunnsveigtjørn;Store Honsveigtjørnan;Honsveigtjønn" />
		<tag k="name" v="Store Honsveigtjønnane" />
		<tag k="natural" v="water" />
		<tag k="old_name" v="Honsveigtjørnin, store" />
		<tag k="ssr:stedsnr" v="2578" />
	</node>
	<node id="-405524" lat="59.3320027814" lon="7.687424996">
		<tag k="alt_name" v="Kuskardtjørnin" />
		<tag k="name" v="Kuskardtjønnane" />
		<tag k="natural" v="water" />
		<tag k="ssr:stedsnr" v="2554" />
	</node>
	<node id="-405521" lat="59.4786777753" lon="8.22708333506">
		<tag k="alt_name" v="Øytjørn" />
		<tag k="name" v="Øytjønn" />
		<tag k="natural" v="water" />
		<tag k="ssr:stedsnr" v="2443" />
	</node>
	<node id="-405520" lat="59.4459388913" lon="7.6682472147">
		<tag k="alt_name" v="Rikarskvævtjørni" />
		<tag k="name" v="Rikarskvævtjønni" />
		<tag k="natural" v="water" />
		<tag k="ssr:stedsnr" v="2429" />
	</node>
	<node id="-405518" lat="59.474426793" lon="8.13556670645">
		<tag k="alt_name" v="Lauvkvåltjørni" />
		<tag k="name" v="Lauvkvåltjønn" />
		<tag k="natural" v="water" />
		<tag k="ssr:stedsnr" v="2425" />
	</node>
	<node id="-405066" lat="59.4633722199" lon="8.05564722419">
		<tag k="name" v="Ramsbekk" />
		<tag k="ssr:stedsnr" v="877167" />
		<tag k="waterway" v="stream" />
	</node>
</osm>
