<?xml version="1.0" encoding="UTF-8"?>
<osm version="0.6" generator="osmapis">
	<node lat="59.4117472197121" lon="8.16623333832835" id="-27603">
		<tag k="alt_name" v="Haugholmgruvene" />
		<tag k="landuse" v="quarry" />
		<tag k="name" v="Bandaksligruvene" />
		<tag k="ssr:stedsnr" v="2475" />
	</node>
	<node lat="59.48982777837814" lon="8.15283333072066" id="-27623">
		<tag k="name" v="Orekosåker" />
		<tag k="place" v="locality" />
		<tag k="ssr:stedsnr" v="231071" />
	</node>
	<node lat="59.5105194469192" lon="8.179730554163195" id="-27625">
		<tag k="name" v="Nutemyri" />
		<tag k="natural" v="wetland" />
		<tag k="ssr:stedsnr" v="231503" />
	</node>
	<node lat="59.40408333110192" lon="8.15133610297562" id="-27637">
		<tag k="name" v="Stigamyr" />
		<tag k="natural" v="wetland" />
		<tag k="ssr:stedsnr" v="24298" />
	</node>
	<node lat="59.53624444418687" lon="7.850786106725807" id="-27648">
		<tag k="historic" v="shieling" />
		<tag k="name" v="Groveslåtte" />
		<tag k="place" v="locality" />
		<tag k="ssr:stedsnr" v="27008" />
	</node>
	<node lat="59.48866666647266" lon="7.984469449951524" id="-27649">
		<tag k="name" v="Molandsmyri" />
		<tag k="natural" v="wetland" />
		<tag k="ssr:stedsnr" v="27034" />
	</node>
	<node lat="59.573266667931215" lon="7.809405556916407" id="-27650">
		<tag k="historic" v="shieling" />
		<tag k="name" v="Kveldseten" />
		<tag k="place" v="locality" />
		<tag k="ssr:stedsnr" v="27101" />
	</node>
	<node lat="59.48319722559678" lon="7.935375007239459" id="-27660">
		<tag k="name" v="Fyrstemyr" />
		<tag k="natural" v="wetland" />
		<tag k="ssr:stedsnr" v="27906" />
	</node>
	<node lat="59.52470555876281" lon="7.804022225202913" id="-27669">
		<tag k="historic" v="shieling" />
		<tag k="name" v="Steinburoe" />
		<tag k="place" v="locality" />
		<tag k="ssr:stedsnr" v="44824" />
	</node>
	<node lat="59.411416666608865" lon="7.757319439686464" id="-27670">
		<tag k="historic" v="shieling" />
		<tag k="name" v="Eigilstøyl" />
		<tag k="place" v="locality" />
		<tag k="ssr:stedsnr" v="45292" />
	</node>
	<node lat="59.50931111210736" lon="7.875002779239441" id="-27673">
		<tag k="historic" v="shieling" />
		<tag k="name" v="Nystøyl" />
		<tag k="place" v="locality" />
		<tag k="ssr:stedsnr" v="45605" />
	</node>
	<node lat="59.50123333555938" lon="7.721616673427813" id="-27680">
		<tag k="name" v="Haramoen" />
		<tag k="natural" v="wetland" />
		<tag k="ssr:stedsnr" v="45825" />
	</node>
	<node lat="59.45679166581855" lon="7.899058329466172" id="-27681">
		<tag k="name" v="Sevlingane" />
		<tag k="natural" v="wetland" />
		<tag k="ssr:stedsnr" v="45771" />
	</node>
	<node lat="59.495875002706676" lon="7.788577775102673" id="-27682">
		<tag k="historic" v="shieling" />
		<tag k="name" v="Fjose" />
		<tag k="place" v="locality" />
		<tag k="ssr:stedsnr" v="45772" />
	</node>
	<node lat="59.384186114426534" lon="8.058061104554268" id="-27727">
		<tag k="name" v="Kringlemyri" />
		<tag k="natural" v="wetland" />
		<tag k="ssr:stedsnr" v="85184" />
	</node>
	<node lat="59.45814444531756" lon="8.174833340462428" id="-27735">
		<tag k="name" v="Hestebeitmyra" />
		<tag k="natural" v="wetland" />
		<tag k="ssr:stedsnr" v="85515" />
	</node>
	<node lat="59.45399999874036" lon="8.250183340054699" id="-27738">
		<tag k="name" v="Dammyri" />
		<tag k="natural" v="wetland" />
		<tag k="ssr:stedsnr" v="85593" />
	</node>
	<node lat="59.39273333466565" lon="8.21079722027702" id="-27739">
		<tag k="name" v="Hagamyrane" />
		<tag k="natural" v="wetland" />
		<tag k="ssr:stedsnr" v="85706" />
	</node>
	<node lat="59.56347777747127" lon="8.22121943715626" id="-27746">
		<tag k="historic" v="shieling" />
		<tag k="name" v="Tvigyva" />
		<tag k="place" v="locality" />
		<tag k="ssr:stedsnr" v="86281" />
	</node>
	<node lat="59.44897350741081" lon="8.08798055687541" id="-27751">
		<tag k="name" v="Heimdalsmyrane" />
		<tag k="natural" v="wetland" />
		<tag k="ssr:stedsnr" v="86605" />
	</node>
	<node lat="59.440952777974964" lon="8.111544441033304" id="-27753">
		<tag k="name" v="Tjønnflymyri" />
		<tag k="natural" v="wetland" />
		<tag k="ssr:stedsnr" v="86821" />
	</node>
	<node lat="59.57000000062342" lon="8.089252781975034" id="-27766">
		<tag k="name" v="Flottine" />
		<tag k="natural" v="wetland" />
		<tag k="ssr:stedsnr" v="88187" />
	</node>
	<node lat="59.5651425035" lon="8.071853108968991" id="-27794">
		<tag k="alt_name" v="Langelimyrane" />
		<tag k="name" v="Langlimyri" />
		<tag k="natural" v="wetland" />
		<tag k="ssr:stedsnr" v="246094" />
	</node>
	<node lat="59.4754305519565" lon="7.900800005589634" id="-27807">
		<tag k="name" v="Storåker" />
		<tag k="place" v="locality" />
		<tag k="ssr:stedsnr" v="106288" />
	</node>
	<node lat="59.48119722144316" lon="7.903119452711752" id="-27808">
		<tag k="historic" v="shieling" />
		<tag k="name" v="Kveldtrøyta" />
		<tag k="place" v="locality" />
		<tag k="ssr:stedsnr" v="106293" />
	</node>
	<node lat="59.513241663776896" lon="7.854241669858421" id="-27815">
		<tag k="historic" v="shieling" />
		<tag k="name" v="Dridbu" />
		<tag k="place" v="locality" />
		<tag k="ssr:stedsnr" v="106630" />
	</node>
	<node lat="59.423733332627364" lon="7.899780563255856" id="-27824">
		<tag k="historic" v="shieling" />
		<tag k="name" v="Strånd" />
		<tag k="place" v="locality" />
		<tag k="ssr:stedsnr" v="107872" />
	</node>
	<node lat="59.499072225054114" lon="8.167424991122138" id="-27828">
		<tag k="name" v="Vettemyr" />
		<tag k="natural" v="wetland" />
		<tag k="ssr:stedsnr" v="110003" />
	</node>
	<node lat="59.54751944504367" lon="8.208866665288763" id="-27833">
		<tag k="name" v="Nonskås" />
		<tag k="natural" v="wetland" />
		<tag k="ssr:stedsnr" v="110574" />
	</node>
	<node lat="59.504574998324316" lon="8.237066665569497" id="-27835">
		<tag k="name" v="Kringledokki" />
		<tag k="natural" v="wetland" />
		<tag k="ssr:stedsnr" v="110812" />
	</node>
	<node lat="59.50682500366255" lon="8.314138892617008" id="-27836">
		<tag k="name" v="Løkjin" />
		<tag k="natural" v="wetland" />
		<tag k="ssr:stedsnr" v="111072" />
	</node>
	<node lat="59.49908611054635" lon="8.311666675007736" id="-27837">
		<tag k="name" v="Langkos" />
		<tag k="place" v="locality" />
		<tag k="ssr:stedsnr" v="111084" />
	</node>
	<node lat="59.36450277794714" lon="7.655655558958405" id="-27847">
		<tag k="name" v="Halvorsurd" />
		<tag k="natural" v="scree" />
		<tag k="ssr:stedsnr" v="123628" />
	</node>
	<node lat="59.53626388809507" lon="7.829549993823763" id="-27882">
		<tag k="historic" v="shieling" />
		<tag k="name" v="Omsbergnord" />
		<tag k="place" v="locality" />
		<tag k="ssr:stedsnr" v="148017" />
	</node>
	<node lat="59.4920361131773" lon="7.896611112972964" id="-27898">
		<tag k="name" v="Nivelkingmyre" />
		<tag k="natural" v="wetland" />
		<tag k="ssr:stedsnr" v="149867" />
	</node>
	<node lat="59.38369721838366" lon="7.961344436469716" id="-27906">
		<tag k="name" v="Hestegreft" />
		<tag k="natural" v="wetland" />
		<tag k="ssr:stedsnr" v="167565" />
	</node>
	<node lat="59.48316944824545" lon="7.7590666711955" id="-27907">
		<tag k="historic" v="shieling" />
		<tag k="name" v="Kilerova" />
		<tag k="place" v="locality" />
		<tag k="ssr:stedsnr" v="167757" />
	</node>
	<node lat="59.34535555854762" lon="7.7515861023066925" id="-27912">
		<tag k="name" v="Dansarhaugen" />
		<tag k="natural" v="wetland" />
		<tag k="ssr:stedsnr" v="167956" />
	</node>
	<node lat="59.4252138904832" lon="7.911563891010335" id="-27915">
		<tag k="historic" v="shieling" />
		<tag k="name" v="Strålaus" />
		<tag k="place" v="locality" />
		<tag k="ssr:stedsnr" v="168862" />
	</node>
	<node lat="59.48341110877747" lon="8.16334444081597" id="-27956">
		<tag k="name" v="Åmlandsmyrane" />
		<tag k="natural" v="wetland" />
		<tag k="ssr:stedsnr" v="205588" />
	</node>
	<node lat="59.42348888815643" lon="8.101241669538274" id="-27964">
		<tag k="name" v="Skormyri" />
		<tag k="natural" v="wetland" />
		<tag k="ssr:stedsnr" v="268718" />
	</node>
	<node lat="59.399347225092505" lon="8.099702772785726" id="-27967">
		<tag k="name" v="Botilskjerr" />
		<tag k="natural" v="wetland" />
		<tag k="ssr:stedsnr" v="208199" />
	</node>
	<node lat="59.479944440908206" lon="7.862627779584646" id="-28006">
		<tag k="historic" v="shieling" />
		<tag k="name" v="Kasine" />
		<tag k="place" v="locality" />
		<tag k="ssr:stedsnr" v="226445" />
	</node>
	<node lat="59.52504722556952" lon="7.859302780003047" id="-28015">
		<tag k="name" v="Deildemyr" />
		<tag k="natural" v="wetland" />
		<tag k="ssr:stedsnr" v="227613" />
	</node>
	<node lat="59.54900555590257" lon="7.814597215009287" id="-28018">
		<tag k="historic" v="shieling" />
		<tag k="name" v="Nystøyl" />
		<tag k="place" v="locality" />
		<tag k="ssr:stedsnr" v="227903" />
	</node>
	<node lat="59.505127780620754" lon="7.746808336827932" id="-28023">
		<tag k="historic" v="shieling" />
		<tag k="name" v="Skare" />
		<tag k="place" v="locality" />
		<tag k="ssr:stedsnr" v="227837" />
	</node>
	<node lat="59.41752777496464" lon="8.070169444419712" id="-28028">
		<tag k="historic" v="shieling" />
		<tag k="name" v="Fjellstøyl" />
		<tag k="place" v="locality" />
		<tag k="ssr:stedsnr" v="449282" />
	</node>
	<node lat="59.4760916642351" lon="7.878166661282107" id="-28030">
		<tag k="name" v="Fjalaberget" />
		<tag k="place" v="locality" />
		<tag k="ssr:stedsnr" v="228494" />
	</node>
	<node lat="59.49043055464399" lon="7.847436114044834" id="-28035">
		<tag k="name" v="Storemyr" />
		<tag k="natural" v="wetland" />
		<tag k="ssr:stedsnr" v="228879" />
	</node>
	<node lat="59.45437222283745" lon="7.899708333883733" id="-28040">
		<tag k="name" v="Stakkstøylmyrane" />
		<tag k="natural" v="wetland" />
		<tag k="ssr:stedsnr" v="228989" />
	</node>
	<node lat="59.468527779254565" lon="8.11623888151999" id="-28047">
		<tag k="landuse" v="quarry" />
		<tag k="name" v="Brynesteinberget" />
		<tag k="ssr:stedsnr" v="231041" />
	</node>
	<node lat="59.487644443073926" lon="8.166191665311338" id="-28048">
		<tag k="name" v="Ljosmyri" />
		<tag k="natural" v="wetland" />
		<tag k="ssr:stedsnr" v="231087" />
	</node>
	<node lat="59.523172223772285" lon="8.063044439252497" id="-28053">
		<tag k="name" v="Stutedalsholet" />
		<tag k="natural" v="wetland" />
		<tag k="ssr:stedsnr" v="231380" />
	</node>
	<node lat="59.49878611482691" lon="8.00754167244394" id="-28054">
		<tag k="name" v="Røyslidalsmyri" />
		<tag k="natural" v="wetland" />
		<tag k="ssr:stedsnr" v="231737" />
	</node>
	<node lat="59.49368888477068" lon="8.222199993710722" id="-28057">
		<tag k="name" v="Deildemyr" />
		<tag k="natural" v="wetland" />
		<tag k="ssr:stedsnr" v="231809" />
	</node>
	<node lat="59.50690555319514" lon="8.239969437365914" id="-28058">
		<tag k="name" v="Skarvemyr" />
		<tag k="natural" v="wetland" />
		<tag k="ssr:stedsnr" v="231828" />
	</node>
	<node lat="59.51113888880899" lon="8.12465555884854" id="-28061">
		<tag k="name" v="Flottin" />
		<tag k="natural" v="wetland" />
		<tag k="ssr:stedsnr" v="232744" />
	</node>
	<node lat="59.53226944589935" lon="7.85577222459697" id="-28075">
		<tag k="historic" v="shieling" />
		<tag k="name" v="Driterenna" />
		<tag k="place" v="locality" />
		<tag k="ssr:stedsnr" v="452005" />
	</node>
	<node lat="59.49509444853726" lon="7.926997220456403" id="-28132">
		<tag k="historic" v="shieling" />
		<tag k="name" v="Juvet" />
		<tag k="place" v="locality" />
		<tag k="ssr:stedsnr" v="453845" />
	</node>
	<node lat="59.37939166876704" lon="8.163841668138765" id="-28138">
		<tag k="name" v="Vrålimyri" />
		<tag k="natural" v="wetland" />
		<tag k="ssr:stedsnr" v="267830" />
	</node>
	<node lat="59.410036110004796" lon="8.124211112861584" id="-28147">
		<tag k="name" v="Bjønnbakkmyri" />
		<tag k="natural" v="wetland" />
		<tag k="ssr:stedsnr" v="269332" />
	</node>
	<node lat="59.4350333365441" lon="8.067449998745674" id="-28149">
		<tag k="name" v="Nesmyr" />
		<tag k="natural" v="wetland" />
		<tag k="ssr:stedsnr" v="269704" />
	</node>
	<node lat="59.53063055698128" lon="7.8443749915335115" id="-28151">
		<tag k="historic" v="shieling" />
		<tag k="name" v="Bugarden" />
		<tag k="place" v="locality" />
		<tag k="ssr:stedsnr" v="270010" />
	</node>
	<node lat="59.5213972233957" lon="7.9990111128838235" id="-28156">
		<tag k="name" v="Urine" />
		<tag k="natural" v="scree" />
		<tag k="ssr:stedsnr" v="270228" />
	</node>
	<node lat="59.48089999735129" lon="7.996397225216123" id="-28165">
		<tag k="name" v="Løkjesmyre" />
		<tag k="natural" v="wetland" />
		<tag k="ssr:stedsnr" v="270775" />
	</node>
	<node lat="59.54364444052117" lon="7.799697216572926" id="-28188">
		<tag k="historic" v="shieling" />
		<tag k="name" v="Bugaren" />
		<tag k="place" v="locality" />
		<tag k="ssr:stedsnr" v="289930" />
	</node>
	<node lat="59.503538888551724" lon="8.095986118995823" id="-28195">
		<tag k="name" v="Åsmundshol" />
		<tag k="natural" v="wetland" />
		<tag k="ssr:stedsnr" v="292093" />
	</node>
	<node lat="59.474872221042574" lon="7.8535305474661925" id="-28219">
		<tag k="historic" v="shieling" />
		<tag k="name" v="Fitjeskogen" />
		<tag k="place" v="locality" />
		<tag k="ssr:stedsnr" v="469397" />
	</node>
	<node lat="59.523549996603194" lon="7.802433341744909" id="-28221">
		<tag k="historic" v="shieling" />
		<tag k="name" v="Listøyl" />
		<tag k="place" v="locality" />
		<tag k="ssr:stedsnr" v="469827" />
	</node>
	<node lat="59.46450555450549" lon="7.875108335687174" id="-28225">
		<tag k="historic" v="shieling" />
		<tag k="name" v="Haugestøylhaddine" />
		<tag k="place" v="locality" />
		<tag k="ssr:stedsnr" v="471432" />
	</node>
	<node lat="59.45254214625509" lon="8.057034632544527" id="-28231">
		<tag k="name" v="Juvstøylmyr" />
		<tag k="natural" v="wetland" />
		<tag k="ssr:stedsnr" v="328564" />
	</node>
	<node lat="59.52468333771315" lon="8.24529721339109" id="-28234">
		<tag k="name" v="Kvitmyr" />
		<tag k="natural" v="wetland" />
		<tag k="ssr:stedsnr" v="328771" />
	</node>
	<node lat="59.47420000231466" lon="7.8776638828497205" id="-28243">
		<tag k="name" v="Røyremyrane" />
		<tag k="natural" v="wetland" />
		<tag k="ssr:stedsnr" v="470434" />
	</node>
	<node lat="59.48632778213958" lon="7.882277783338719" id="-28244">
		<tag k="historic" v="shieling" />
		<tag k="name" v="Misstøyl" />
		<tag k="place" v="locality" />
		<tag k="ssr:stedsnr" v="470441" />
	</node>
	<node lat="59.45256666389859" lon="7.864286113545082" id="-28245">
		<tag k="historic" v="shieling" />
		<tag k="name" v="Hegstevik" />
		<tag k="place" v="locality" />
		<tag k="ssr:stedsnr" v="470391" />
	</node>
	<node lat="59.474469440214634" lon="7.747674998108543" id="-28254">
		<tag k="historic" v="shieling" />
		<tag k="name" v="Nutestøylen" />
		<tag k="place" v="locality" />
		<tag k="ssr:stedsnr" v="470742" />
	</node>
	<node lat="59.517066665052575" lon="8.039752780124871" id="-28255">
		<tag k="historic" v="shieling" />
		<tag k="name" v="Haugestøylen" />
		<tag k="place" v="locality" />
		<tag k="ssr:stedsnr" v="331194" />
	</node>
	<node lat="59.504138887130466" lon="7.872097227051647" id="-28269">
		<tag k="name" v="Reisholt" />
		<tag k="natural" v="wetland" />
		<tag k="ssr:stedsnr" v="470878" />
	</node>
	<node lat="59.49369444827223" lon="8.21377778288878" id="-28285">
		<tag k="name" v="Løkjesmyrane" />
		<tag k="natural" v="wetland" />
		<tag k="ssr:stedsnr" v="473446" />
	</node>
	<node lat="59.4852472177253" lon="7.749233328081101" id="-28293">
		<tag k="historic" v="shieling" />
		<tag k="name" v="Fjøllstøyl" />
		<tag k="place" v="locality" />
		<tag k="ssr:stedsnr" v="348720" />
	</node>
	<node lat="59.50891666407742" lon="7.874866662864099" id="-28301">
		<tag k="historic" v="shieling" />
		<tag k="name" v="Rabben" />
		<tag k="place" v="locality" />
		<tag k="ssr:stedsnr" v="349702" />
	</node>
	<node lat="59.48853055522228" lon="8.192661119918307" id="-28307">
		<tag k="name" v="Åsbøk" />
		<tag k="place" v="locality" />
		<tag k="ssr:stedsnr" v="352412" />
	</node>
	<node lat="59.50346666775751" lon="8.170061110954428" id="-28312">
		<tag k="name" v="Storkosmyri" />
		<tag k="natural" v="wetland" />
		<tag k="ssr:stedsnr" v="353021" />
	</node>
	<node lat="59.519194445577305" lon="8.170313887553405" id="-28319">
		<tag k="name" v="Kubbestolmyri" />
		<tag k="natural" v="wetland" />
		<tag k="ssr:stedsnr" v="353468" />
	</node>
	<node lat="59.49572500281833" lon="8.244519437816216" id="-28331">
		<tag k="landuse" v="quarry" />
		<tag k="name" v="Nordaberggruvene" />
		<tag k="ssr:stedsnr" v="475842" />
	</node>
	<node lat="59.51345000379868" lon="7.803936103610029" id="-28347">
		<tag k="name" v="Svåine" />
		<tag k="place" v="locality" />
		<tag k="ssr:stedsnr" v="367031" />
	</node>
	<node lat="59.440822223744604" lon="8.145544445392028" id="-28359">
		<tag k="name" v="Langemyr" />
		<tag k="natural" v="wetland" />
		<tag k="ssr:stedsnr" v="388309" />
	</node>
	<node lat="59.406552777825524" lon="8.162711117188321" id="-28369">
		<tag k="name" v="Kleivmyr" />
		<tag k="natural" v="wetland" />
		<tag k="ssr:stedsnr" v="388689" />
	</node>
	<node lat="59.5260861114021" lon="7.863155551755606" id="-28398">
		<tag k="historic" v="shieling" />
		<tag k="name" v="Leppen" />
		<tag k="place" v="locality" />
		<tag k="ssr:stedsnr" v="409618" />
	</node>
	<node lat="59.35745555853087" lon="8.01607222854244" id="-28407">
		<tag k="historic" v="shieling" />
		<tag k="name" v="Fjøllstøyl" />
		<tag k="place" v="locality" />
		<tag k="ssr:stedsnr" v="410095" />
	</node>
	<node lat="59.494280559804714" lon="8.162263892914053" id="-28424">
		<tag k="name" v="Dukane" />
		<tag k="place" v="locality" />
		<tag k="ssr:stedsnr" v="413090" />
	</node>
	<node lat="59.49253055182421" lon="8.13338055146879" id="-28425">
		<tag k="name" v="Jamsmyr" />
		<tag k="natural" v="wetland" />
		<tag k="ssr:stedsnr" v="413205" />
	</node>
	<node lat="59.40729245098864" lon="7.9351909325178385" id="-28429">
		<tag k="historic" v="shieling" />
		<tag k="name" v="Flatastøyl" />
		<tag k="old_name" v="Flatastøl" />
		<tag k="place" v="locality" />
		<tag k="ssr:stedsnr" v="487817" />
	</node>
	<node lat="59.542113888709856" lon="8.093247219730607" id="-28430">
		<tag k="name" v="Finnfløti" />
		<tag k="natural" v="wetland" />
		<tag k="ssr:stedsnr" v="413714" />
	</node>
	<node lat="59.50850555548916" lon="8.318124999795431" id="-28435">
		<tag k="name" v="Votukjerr" />
		<tag k="natural" v="wetland" />
		<tag k="ssr:stedsnr" v="414095" />
	</node>
	<node lat="59.51641388854403" lon="7.993411115528083" id="-28509">
		<tag k="historic" v="shieling" />
		<tag k="name" v="Varmekro" />
		<tag k="place" v="locality" />
		<tag k="ssr:stedsnr" v="452205" />
	</node>
	<node lat="59.561686112478135" lon="8.087922215251306" id="-28511">
		<tag k="alt_name" v="Homvasstøyl" />
		<tag k="historic" v="shieling" />
		<tag k="name" v="Homvasstøylen" />
		<tag k="place" v="locality" />
		<tag k="ssr:stedsnr" v="452243" />
	</node>
	<node lat="59.45633888448675" lon="7.878980550113021" id="-28528">
		<tag k="historic" v="shieling" />
		<tag k="name" v="Nystøyl" />
		<tag k="place" v="locality" />
		<tag k="ssr:stedsnr" v="470768" />
	</node>
	<node lat="59.45897221909205" lon="7.835347220332947" id="-28538">
		<tag k="name" v="Timberslette" />
		<tag k="natural" v="wetland" />
		<tag k="ssr:stedsnr" v="471916" />
	</node>
	<node lat="59.45831388823404" lon="7.833099997765142" id="-28539">
		<tag k="historic" v="shieling" />
		<tag k="name" v="Sondriseter" />
		<tag k="place" v="locality" />
		<tag k="ssr:stedsnr" v="471919" />
	</node>
	<node lat="59.496877776540714" lon="8.139616661748716" id="-28545">
		<tag k="name" v="Kveldbeitmyri" />
		<tag k="natural" v="wetland" />
		<tag k="ssr:stedsnr" v="473059" />
	</node>
	<node lat="59.54117777366533" lon="8.096702784186418" id="-28547">
		<tag k="name" v="Løkjesmyri" />
		<tag k="natural" v="wetland" />
		<tag k="ssr:stedsnr" v="474705" />
	</node>
	<node lat="59.566321797782095" lon="7.73696405233814" id="-28561">
		<tag k="alt_name" v="Skarstøylen" />
		<tag k="historic" v="shieling" />
		<tag k="name" v="Skardsstøyl" />
		<tag k="old_name" v="Skardstøl" />
		<tag k="place" v="locality" />
		<tag k="ssr:stedsnr" v="488113" />
	</node>
	<node lat="59.38420833107602" lon="8.075127769992461" id="-28585">
		<tag k="name" v="Tomyri" />
		<tag k="natural" v="wetland" />
		<tag k="ssr:stedsnr" v="509215" />
	</node>
	<node lat="59.429008331116584" lon="8.276272230814094" id="-28590">
		<tag k="name" v="Dynemyri" />
		<tag k="natural" v="wetland" />
		<tag k="ssr:stedsnr" v="509385" />
	</node>
	<node lat="59.48008610733217" lon="8.259022224690966" id="-28593">
		<tag k="name" v="Åflæi" />
		<tag k="natural" v="wetland" />
		<tag k="ssr:stedsnr" v="510461" />
	</node>
	<node lat="59.48060555524498" lon="8.226711105270907" id="-28594">
		<tag k="name" v="Øytjønnmyrane" />
		<tag k="natural" v="wetland" />
		<tag k="ssr:stedsnr" v="510463" />
	</node>
</osm>
