<?xml version="1.0" encoding="UTF-8"?>
<osm version="0.6" generator="osmapis">
	<node lat="59.431511111560425" lon="7.9051833333761286" id="-28364">
		<tag k="fixme" v="consider natural=peak for the most distinct mountains in the district" />
		<tag k="name" v="Brendenuten" />
		<tag k="natural" v="hill" />
		<tag k="place" v="locality" />
		<tag k="ssr:stedsnr" v="229865" />
	</node>
	<node lat="59.36689722026624" lon="7.632527780937576" id="-28371">
		<tag k="name" v="Kaldevassdalen" />
		<tag k="natural" v="valley" />
		<tag k="place" v="locality" />
		<tag k="ssr:stedsnr" v="2601" />
	</node>
	<node lat="59.40212222019026" lon="7.778572225486859" id="-28379">
		<tag k="fixme" v="consider natural=peak for the most distinct mountains in the district" />
		<tag k="name" v="Hovdenut" />
		<tag k="natural" v="hill" />
		<tag k="place" v="locality" />
		<tag k="ssr:stedsnr" v="2781" />
	</node>
	<node lat="59.54965555190272" lon="8.2365472178986" id="-28381">
		<tag k="fixme" v="consider natural=peak for the most distinct mountains in the district" />
		<tag k="name" v="Raudsinutan" />
		<tag k="natural" v="hill" />
		<tag k="place" v="locality" />
		<tag k="ssr:stedsnr" v="3376" />
	</node>
	<node lat="59.56256388629602" lon="7.6147638853655835" id="-28382">
		<tag k="name" v="Brekkeroi" />
		<tag k="natural" v="valley" />
		<tag k="place" v="locality" />
		<tag k="ssr:stedsnr" v="3719" />
	</node>
	<node lat="59.50408611493348" lon="8.01841110369232" id="-28397">
		<tag k="name" v="Rolidalen" />
		<tag k="natural" v="valley" />
		<tag k="place" v="locality" />
		<tag k="ssr:stedsnr" v="231762" />
	</node>
	<node lat="59.500233329444185" lon="8.143916665195144" id="-28399">
		<tag k="name" v="Skjendalen" />
		<tag k="natural" v="valley" />
		<tag k="place" v="locality" />
		<tag k="ssr:stedsnr" v="232162" />
	</node>
	<node lat="59.55508888512514" lon="8.204230561766582" id="-28400">
		<tag k="name" v="Krossdalen" />
		<tag k="natural" v="valley" />
		<tag k="place" v="locality" />
		<tag k="ssr:stedsnr" v="232552" />
	</node>
	<node lat="59.534613888930714" lon="8.157999999717301" id="-28401">
		<tag k="name" v="Kråkeggi" />
		<tag k="natural" v="hill" />
		<tag k="place" v="locality" />
		<tag k="ssr:stedsnr" v="232566" />
	</node>
	<node lat="59.4592527781009" lon="8.189427781924973" id="-28404">
		<tag k="name" v="Bjønnehola" />
		<tag k="natural" v="valley" />
		<tag k="place" v="locality" />
		<tag k="ssr:stedsnr" v="24594" />
	</node>
	<node lat="59.373691666256704" lon="8.179816662867214" id="-28407">
		<tag k="name" v="Paradisliane" />
		<tag k="natural" v="slope" />
		<tag k="place" v="locality" />
		<tag k="ssr:stedsnr" v="24814" />
	</node>
	<node lat="59.35873333703221" lon="8.049605563374827" id="-28408">
		<tag k="name" v="Skrea" />
		<tag k="place" v="locality" />
		<tag k="ssr:stedsnr" v="24949" />
	</node>
	<node lat="59.53723888712656" lon="8.219952783860998" id="-28409">
		<tag k="fixme" v="consider natural=peak for the most distinct mountains in the district" />
		<tag k="name" v="Storenut" />
		<tag k="natural" v="hill" />
		<tag k="place" v="locality" />
		<tag k="ssr:stedsnr" v="25088" />
	</node>
	<node lat="59.471927781343666" lon="8.034027776498025" id="-28420">
		<tag k="name" v="Brynesteinbrot" />
		<tag k="place" v="locality" />
		<tag k="ssr:stedsnr" v="27801" />
	</node>
	<node lat="59.46841944063179" lon="8.034833331238334" id="-28421">
		<tag k="fixme" v="consider natural=peak for the most distinct mountains in the district" />
		<tag k="name" v="Steinbergnuten" />
		<tag k="natural" v="hill" />
		<tag k="place" v="locality" />
		<tag k="ssr:stedsnr" v="27802" />
	</node>
	<node lat="59.48281944713553" lon="8.003119446704963" id="-28422">
		<tag k="name" v="Krossdalen" />
		<tag k="natural" v="valley" />
		<tag k="place" v="locality" />
		<tag k="ssr:stedsnr" v="27776" />
	</node>
	<node lat="59.40403332968555" lon="7.972922221672405" id="-28429">
		<tag k="name" v="Lo" />
		<tag k="place" v="locality" />
		<tag k="ssr:stedsnr" v="27969" />
	</node>
	<node lat="59.485975000926985" lon="7.869469435795391" id="-28434">
		<tag k="name" v="Mosadalen" />
		<tag k="natural" v="valley" />
		<tag k="place" v="locality" />
		<tag k="ssr:stedsnr" v="44380" />
	</node>
	<node lat="59.425205560023024" lon="7.8854027754136595" id="-28440">
		<tag k="name" v="Jammerdalen" />
		<tag k="natural" v="valley" />
		<tag k="place" v="locality" />
		<tag k="ssr:stedsnr" v="45624" />
	</node>
	<node lat="59.4557194479954" lon="7.735897219083301" id="-28442">
		<tag k="name" v="Langeliane" />
		<tag k="natural" v="slope" />
		<tag k="place" v="locality" />
		<tag k="ssr:stedsnr" v="45670" />
	</node>
	<node lat="59.450175001946455" lon="7.709630551184866" id="-28443">
		<tag k="name" v="Elghola" />
		<tag k="natural" v="valley" />
		<tag k="place" v="locality" />
		<tag k="ssr:stedsnr" v="45677" />
	</node>
	<node lat="59.45568889291432" lon="7.740272218770085" id="-28444">
		<tag k="name" v="Skorve" />
		<tag k="natural" v="ridge" />
		<tag k="place" v="locality" />
		<tag k="ssr:stedsnr" v="45682" />
	</node>
	<node lat="59.480922220380236" lon="7.799236105906309" id="-28445">
		<tag k="name" v="Nipesteinlii" />
		<tag k="natural" v="slope" />
		<tag k="place" v="locality" />
		<tag k="ssr:stedsnr" v="45687" />
	</node>
	<node lat="59.55715277360668" lon="7.784630557674514" id="-28450">
		<tag k="name" v="Måle" />
		<tag k="natural" v="slope" />
		<tag k="place" v="locality" />
		<tag k="ssr:stedsnr" v="45981" />
	</node>
	<node lat="59.4571000024897" lon="7.885474994295178" id="-28451">
		<tag k="fixme" v="consider natural=peak for the most distinct mountains in the district" />
		<tag k="name" v="Fjågestøylnuten" />
		<tag k="natural" v="hill" />
		<tag k="place" v="locality" />
		<tag k="ssr:stedsnr" v="45986" />
	</node>
	<node lat="59.38475555535111" lon="7.827794447033434" id="-28455">
		<tag k="name" v="Kongshaug" />
		<tag k="natural" v="hill" />
		<tag k="place" v="locality" />
		<tag k="ssr:stedsnr" v="46819" />
	</node>
	<node lat="59.56580278213259" lon="7.8004611093372045" id="-28458">
		<tag k="name" v="Stigen" />
		<tag k="natural" v="slope" />
		<tag k="place" v="locality" />
		<tag k="ssr:stedsnr" v="46976" />
	</node>
	<node lat="59.491358334732276" lon="8.144827781621293" id="-28461">
		<tag k="name" v="Djupedal" />
		<tag k="natural" v="valley" />
		<tag k="place" v="locality" />
		<tag k="ssr:stedsnr" v="49072" />
	</node>
	<node lat="59.50767222626109" lon="7.995008337675303" id="-28464">
		<tag k="name" v="Tråganuten" />
		<tag k="natural" v="hill" />
		<tag k="place" v="locality" />
		<tag k="ssr:stedsnr" v="49602" />
	</node>
	<node lat="59.36538889268203" lon="8.098536103317137" id="-28471">
		<tag k="name" v="Tjoveli" />
		<tag k="natural" v="slope" />
		<tag k="place" v="locality" />
		<tag k="ssr:stedsnr" v="63274" />
	</node>
	<node lat="59.45666944139363" lon="8.253641667139922" id="-28472">
		<tag k="alt_name" v="Kovsnetten" />
		<tag k="fixme" v="consider natural=peak for the most distinct mountains in the district" />
		<tag k="name" v="Kåvsnetten" />
		<tag k="natural" v="hill" />
		<tag k="place" v="locality" />
		<tag k="ssr:stedsnr" v="63405" />
	</node>
	<node lat="59.38497499753858" lon="8.168941661444666" id="-28474">
		<tag k="alt_name" v="Brothusåsen" />
		<tag k="fixme" v="consider natural=peak for the most distinct mountains in the district" />
		<tag k="name" v="Brøthusåsen" />
		<tag k="natural" v="hill" />
		<tag k="place" v="locality" />
		<tag k="ssr:stedsnr" v="63304" />
	</node>
	<node lat="59.41770555882757" lon="8.040197230176048" id="-28476">
		<tag k="alt_name" v="Skurvenuten" />
		<tag k="fixme" v="consider natural=peak for the most distinct mountains in the district" />
		<tag k="name" v="Skurvanuten" />
		<tag k="natural" v="hill" />
		<tag k="place" v="locality" />
		<tag k="ssr:stedsnr" v="63805" />
	</node>
	<node lat="59.358741669225275" lon="7.658558326546153" id="-28480">
		<tag k="name" v="Vegardalen" />
		<tag k="natural" v="valley" />
		<tag k="place" v="locality" />
		<tag k="ssr:stedsnr" v="63581" />
	</node>
	<node lat="59.36966666909027" lon="7.835905554086198" id="-28481">
		<tag k="fixme" v="consider natural=peak for the most distinct mountains in the district" />
		<tag k="name" v="Skurverudnuten" />
		<tag k="natural" v="hill" />
		<tag k="place" v="locality" />
		<tag k="ssr:stedsnr" v="63760" />
	</node>
	<node lat="59.39224721870013" lon="8.180300004939093" id="-28491">
		<tag k="fixme" v="consider natural=peak for the most distinct mountains in the district" />
		<tag k="name" v="Lauvås" />
		<tag k="natural" v="hill" />
		<tag k="place" v="locality" />
		<tag k="ssr:stedsnr" v="245279" />
	</node>
	<node lat="59.45147778107059" lon="8.11398055501918" id="-28495">
		<tag k="fixme" v="consider natural=peak for the most distinct mountains in the district" />
		<tag k="name" v="Nystøylnuten" />
		<tag k="natural" v="hill" />
		<tag k="place" v="locality" />
		<tag k="ssr:stedsnr" v="85407" />
	</node>
	<node lat="59.45750555976963" lon="8.143997214291717" id="-28499">
		<tag k="fixme" v="consider natural=peak for the most distinct mountains in the district" />
		<tag k="name" v="Gråmannhovnuten" />
		<tag k="natural" v="hill" />
		<tag k="place" v="locality" />
		<tag k="ssr:stedsnr" v="85376" />
	</node>
	<node lat="59.460530554692184" lon="8.179049999096186" id="-28500">
		<tag k="name" v="Bjønnetøane" />
		<tag k="natural" v="slope" />
		<tag k="place" v="locality" />
		<tag k="ssr:stedsnr" v="85510" />
	</node>
	<node lat="59.44878055941344" lon="8.216408329951793" id="-28502">
		<tag k="fixme" v="consider natural=peak for the most distinct mountains in the district" />
		<tag k="name" v="Akslaråsen" />
		<tag k="natural" v="hill" />
		<tag k="place" v="locality" />
		<tag k="ssr:stedsnr" v="85530" />
	</node>
	<node lat="59.38034166227009" lon="8.064325008048728" id="-28511">
		<tag k="name" v="Styggedal" />
		<tag k="natural" v="valley" />
		<tag k="place" v="locality" />
		<tag k="ssr:stedsnr" v="86230" />
	</node>
	<node lat="59.48025555644939" lon="7.618772224975467" id="-28514">
		<tag k="fixme" v="consider natural=peak for the most distinct mountains in the district" />
		<tag k="name" v="Simletind" />
		<tag k="natural" v="hill" />
		<tag k="place" v="locality" />
		<tag k="ssr:stedsnr" v="245358" />
	</node>
	<node lat="59.44934999576866" lon="8.110644438967164" id="-28515">
		<tag k="fixme" v="consider natural=peak for the most distinct mountains in the district" />
		<tag k="name" v="Vermundstøylnuten" />
		<tag k="natural" v="hill" />
		<tag k="place" v="locality" />
		<tag k="ssr:stedsnr" v="245360" />
	</node>
	<node lat="59.47442777635366" lon="7.627449992201476" id="-28520">
		<tag k="alt_name" v="Svålufsdalen" />
		<tag k="loc_name" v="Svolufsdalen" />
		<tag k="name" v="Svolhusdalen" />
		<tag k="natural" v="valley" />
		<tag k="place" v="locality" />
		<tag k="ssr:stedsnr" v="245365" />
	</node>
	<node lat="59.51481111322738" lon="8.296563887726728" id="-28526">
		<tag k="name" v="Mjåvasskardet" />
		<tag k="natural" v="valley" />
		<tag k="place" v="locality" />
		<tag k="ssr:stedsnr" v="87826" />
	</node>
	<node lat="59.53389722418345" lon="7.876916669601258" id="-28528">
		<tag k="name" v="Ørnenibba" />
		<tag k="natural" v="valley" />
		<tag k="place" v="locality" />
		<tag k="ssr:stedsnr" v="88006" />
	</node>
	<node lat="59.58467499659955" lon="7.709983325587343" id="-28529">
		<tag k="name" v="Fossbrekkhaddine" />
		<tag k="natural" v="slope" />
		<tag k="place" v="locality" />
		<tag k="ssr:stedsnr" v="88085" />
	</node>
	<node lat="59.52083888876727" lon="8.011188893326826" id="-28531">
		<tag k="name" v="Mjaugedalskleivane" />
		<tag k="natural" v="slope" />
		<tag k="place" v="locality" />
		<tag k="ssr:stedsnr" v="88181" />
	</node>
	<node lat="59.56161944032463" lon="8.09616388472877" id="-28533">
		<tag k="name" v="Deildenuten" />
		<tag k="natural" v="hill" />
		<tag k="place" v="locality" />
		<tag k="ssr:stedsnr" v="88191" />
	</node>
	<node lat="59.35719722010638" lon="8.116399993576069" id="-28534">
		<tag k="name" v="Sjavskotkroi" />
		<tag k="natural" v="slope" />
		<tag k="place" v="locality" />
		<tag k="ssr:stedsnr" v="88194" />
	</node>
	<node lat="59.41052778153377" lon="7.739580550178541" id="-28539">
		<tag k="alt_name" v="Urdalen" />
		<tag k="name" v="Urddalen" />
		<tag k="natural" v="valley" />
		<tag k="place" v="locality" />
		<tag k="ssr:stedsnr" v="88271" />
	</node>
	<node lat="59.450408334908964" lon="7.887833331023544" id="-28546">
		<tag k="name" v="Langeli" />
		<tag k="natural" v="slope" />
		<tag k="place" v="locality" />
		<tag k="ssr:stedsnr" v="245801" />
	</node>
	<node lat="59.46439722353339" lon="7.752475004902872" id="-28548">
		<tag k="alt_name" v="Bronane" />
		<tag k="fixme" v="consider natural=peak for the most distinct mountains in the district" />
		<tag k="name" v="Brunane" />
		<tag k="natural" v="hill" />
		<tag k="old_name" v="Kråkskorheii" />
		<tag k="place" v="locality" />
		<tag k="ssr:stedsnr" v="245839" />
	</node>
	<node lat="59.478605555868235" lon="8.060716674014383" id="-28549">
		<tag k="fixme" v="consider natural=peak for the most distinct mountains in the district" />
		<tag k="name" v="Skrøyvanutane" />
		<tag k="natural" v="hill" />
		<tag k="old_name" v="Skrøyva" />
		<tag k="place" v="locality" />
		<tag k="ssr:stedsnr" v="245842" />
	</node>
	<node lat="59.530819443494096" lon="7.767752774471758" id="-28554">
		<tag k="name" v="Dribbanuten" />
		<tag k="natural" v="hill" />
		<tag k="place" v="locality" />
		<tag k="ssr:stedsnr" v="89075" />
	</node>
	<node lat="59.53468055294915" lon="7.795674997520294" id="-28558">
		<tag k="fixme" v="consider natural=peak for the most distinct mountains in the district" />
		<tag k="name" v="Trondsanuten" />
		<tag k="natural" v="hill" />
		<tag k="old_name" v="Trondsnut" />
		<tag k="place" v="locality" />
		<tag k="ssr:stedsnr" v="246057" />
	</node>
	<node lat="59.50935555338525" lon="8.281633333608722" id="-28563">
		<tag k="alt_name" v="Messtjørnhovet" />
		<tag k="fixme" v="consider natural=peak for the most distinct mountains in the district" />
		<tag k="name" v="Messtjønnhovet" />
		<tag k="natural" v="hill" />
		<tag k="place" v="locality" />
		<tag k="ssr:stedsnr" v="246479" />
	</node>
	<node lat="59.521700001429295" lon="8.234358334225945" id="-28565">
		<tag k="fixme" v="consider natural=peak for the most distinct mountains in the district" />
		<tag k="name" v="Langelinutane" />
		<tag k="natural" v="hill" />
		<tag k="place" v="locality" />
		<tag k="ssr:stedsnr" v="246494" />
	</node>
	<node lat="59.528016666185565" lon="7.803575004461643" id="-28567">
		<tag k="name" v="Hedderdokki" />
		<tag k="natural" v="valley" />
		<tag k="place" v="locality" />
		<tag k="ssr:stedsnr" v="105837" />
	</node>
	<node lat="59.56602222346565" lon="7.695124999215559" id="-28568">
		<tag k="name" v="Rosserodalen" />
		<tag k="natural" v="valley" />
		<tag k="place" v="locality" />
		<tag k="ssr:stedsnr" v="106075" />
	</node>
	<node lat="59.56355833484641" lon="7.704375006905906" id="-28569">
		<tag k="name" v="Bukjømi" />
		<tag k="natural" v="slope" />
		<tag k="place" v="locality" />
		<tag k="ssr:stedsnr" v="106078" />
	</node>
	<node lat="59.4836833302607" lon="7.914655546994231" id="-28571">
		<tag k="name" v="Orredokke" />
		<tag k="natural" v="valley" />
		<tag k="place" v="locality" />
		<tag k="ssr:stedsnr" v="106280" />
	</node>
	<node lat="59.48599167052195" lon="7.910574992736442" id="-28575">
		<tag k="fixme" v="consider natural=peak for the most distinct mountains in the district" />
		<tag k="name" v="Orredokknuten" />
		<tag k="natural" v="hill" />
		<tag k="place" v="locality" />
		<tag k="ssr:stedsnr" v="106296" />
	</node>
	<node lat="59.38560555287947" lon="7.925527772513202" id="-28576">
		<tag k="name" v="Kramforroliane" />
		<tag k="natural" v="slope" />
		<tag k="place" v="locality" />
		<tag k="ssr:stedsnr" v="106382" />
	</node>
	<node lat="59.3889888868589" lon="7.941250004268205" id="-28578">
		<tag k="fixme" v="consider natural=peak for the most distinct mountains in the district" />
		<tag k="name" v="Sotemolinuten" />
		<tag k="natural" v="hill" />
		<tag k="place" v="locality" />
		<tag k="ssr:stedsnr" v="106502" />
	</node>
	<node lat="59.52887777906326" lon="7.856255547412027" id="-28580">
		<tag k="name" v="Storemyrskare" />
		<tag k="natural" v="valley" />
		<tag k="place" v="locality" />
		<tag k="ssr:stedsnr" v="106625" />
	</node>
	<node lat="59.463813888829826" lon="7.894794443616975" id="-28583">
		<tag k="name" v="Bakliane" />
		<tag k="natural" v="slope" />
		<tag k="place" v="locality" />
		<tag k="ssr:stedsnr" v="106775" />
	</node>
	<node lat="59.5058249985905" lon="7.8410611104825865" id="-28585">
		<tag k="name" v="Birkjeliskote" />
		<tag k="natural" v="cliff" />
		<tag k="ssr:stedsnr" v="106872" />
	</node>
	<node lat="59.42943055902216" lon="7.884775005010724" id="-28586">
		<tag k="name" v="Dribbudalen" />
		<tag k="natural" v="valley" />
		<tag k="place" v="locality" />
		<tag k="ssr:stedsnr" v="107124" />
	</node>
	<node lat="59.43059444296644" lon="7.824394446798815" id="-28588">
		<tag k="name" v="Tekslenosi" />
		<tag k="natural" v="ridge" />
		<tag k="place" v="locality" />
		<tag k="ssr:stedsnr" v="107818" />
	</node>
	<node lat="59.50586944617581" lon="8.202819451498684" id="-28597">
		<tag k="name" v="Stallsberget" />
		<tag k="natural" v="cliff" />
		<tag k="ssr:stedsnr" v="110074" />
	</node>
	<node lat="59.548613889514606" lon="8.214786117111306" id="-28598">
		<tag k="name" v="Rundehaug" />
		<tag k="natural" v="hill" />
		<tag k="place" v="locality" />
		<tag k="ssr:stedsnr" v="110573" />
	</node>
	<node lat="59.516524997192334" lon="8.142827784277774" id="-28605">
		<tag k="fixme" v="consider natural=peak for the most distinct mountains in the district" />
		<tag k="name" v="Vassendnuten" />
		<tag k="natural" v="hill" />
		<tag k="place" v="locality" />
		<tag k="ssr:stedsnr" v="111778" />
	</node>
	<node lat="59.49865833325982" lon="8.242830562852305" id="-28606">
		<tag k="name" v="Stallstemåsen" />
		<tag k="natural" v="hill" />
		<tag k="place" v="locality" />
		<tag k="ssr:stedsnr" v="111819" />
	</node>
	<node lat="59.45725277563774" lon="8.15225000150836" id="-28612">
		<tag k="fixme" v="consider natural=peak for the most distinct mountains in the district" />
		<tag k="name" v="Fjellstøylnuten" />
		<tag k="natural" v="hill" />
		<tag k="place" v="locality" />
		<tag k="ssr:stedsnr" v="123411" />
	</node>
	<node lat="59.37780833526451" lon="7.645877774421772" id="-28614">
		<tag k="fixme" v="consider natural=peak for the most distinct mountains in the district" />
		<tag k="name" v="Spafjell" />
		<tag k="natural" v="hill" />
		<tag k="place" v="locality" />
		<tag k="ssr:stedsnr" v="123650" />
	</node>
	<node lat="59.40412221959997" lon="8.064627781073721" id="-28627">
		<tag k="fixme" v="consider natural=peak for the most distinct mountains in the district" />
		<tag k="name" v="Nystøylnuten" />
		<tag k="natural" v="hill" />
		<tag k="old_name" v="Nystølnut" />
		<tag k="place" v="locality" />
		<tag k="ssr:stedsnr" v="124706" />
	</node>
	<node lat="59.4739888918144" lon="8.192516673919112" id="-28639">
		<tag k="fixme" v="consider natural=peak for the most distinct mountains in the district" />
		<tag k="name" v="Espeliåsen" />
		<tag k="natural" v="hill" />
		<tag k="place" v="locality" />
		<tag k="ssr:stedsnr" v="146473" />
	</node>
	<node lat="59.42650000281386" lon="8.111611102602277" id="-28642">
		<tag k="name" v="Åmdalen" />
		<tag k="natural" v="valley" />
		<tag k="place" v="locality" />
		<tag k="ssr:stedsnr" v="146804" />
	</node>
	<node lat="59.44928055813017" lon="8.146805552038078" id="-28644">
		<tag k="name" v="Borgesætnuten" />
		<tag k="place" v="locality" />
		<tag k="ssr:stedsnr" v="147520" />
	</node>
	<node lat="59.5140416709975" lon="8.315552776482528" id="-28645">
		<tag k="name" v="Damhaugen" />
		<tag k="natural" v="hill" />
		<tag k="place" v="locality" />
		<tag k="ssr:stedsnr" v="147807" />
	</node>
	<node lat="59.53728889323025" lon="7.846286113345851" id="-28646">
		<tag k="name" v="Varenuten" />
		<tag k="natural" v="hill" />
		<tag k="place" v="locality" />
		<tag k="ssr:stedsnr" v="148009" />
	</node>
	<node lat="59.53201388813962" lon="7.839347226374125" id="-28647">
		<tag k="name" v="Taddenosholane" />
		<tag k="natural" v="valley" />
		<tag k="place" v="locality" />
		<tag k="ssr:stedsnr" v="148012" />
	</node>
	<node lat="59.51023055275018" lon="7.9894555546903705" id="-28650">
		<tag k="name" v="Vesle Ravnejuv" />
		<tag k="natural" v="gorge" />
		<tag k="ssr:stedsnr" v="148220" />
	</node>
	<node lat="59.5503666694584" lon="8.040258340960735" id="-28651">
		<tag k="name" v="Merrehaug" />
		<tag k="natural" v="hill" />
		<tag k="place" v="locality" />
		<tag k="ssr:stedsnr" v="148223" />
	</node>
	<node lat="59.54032499567715" lon="8.126405551447457" id="-28652">
		<tag k="name" v="Tjønnli" />
		<tag k="natural" v="slope" />
		<tag k="place" v="locality" />
		<tag k="ssr:stedsnr" v="148260" />
	</node>
	<node lat="59.562702774200346" lon="8.086688883753697" id="-28653">
		<tag k="name" v="Huskuld" />
		<tag k="natural" v="slope" />
		<tag k="place" v="locality" />
		<tag k="ssr:stedsnr" v="148273" />
	</node>
	<node lat="59.47146388605422" lon="8.0372055526184" id="-28655">
		<tag k="name" v="Keikestøyldalen" />
		<tag k="natural" v="valley" />
		<tag k="place" v="locality" />
		<tag k="ssr:stedsnr" v="148809" />
	</node>
	<node lat="59.44978055828645" lon="7.960311118309597" id="-28659">
		<tag k="name" v="Vistadmoen" />
		<tag k="place" v="locality" />
		<tag k="ssr:stedsnr" v="148956" />
	</node>
	<node lat="59.506449998066984" lon="7.896474993915852" id="-28663">
		<tag k="name" v="Kvæven" />
		<tag k="natural" v="slope" />
		<tag k="place" v="locality" />
		<tag k="ssr:stedsnr" v="149864" />
	</node>
	<node lat="59.42583888650081" lon="7.7456000035440775" id="-28665">
		<tag k="name" v="Tverråflatane" />
		<tag k="place" v="locality" />
		<tag k="ssr:stedsnr" v="166634" />
	</node>
	<node lat="59.44935277694829" lon="7.757088890366582" id="-28667">
		<tag k="name" v="Holanuten" />
		<tag k="natural" v="ridge" />
		<tag k="place" v="locality" />
		<tag k="ssr:stedsnr" v="166568" />
	</node>
	<node lat="59.50423889335857" lon="7.757511117391525" id="-28668">
		<tag k="name" v="Storebuekra" />
		<tag k="natural" v="slope" />
		<tag k="place" v="locality" />
		<tag k="ssr:stedsnr" v="166906" />
	</node>
	<node lat="59.34772777818009" lon="7.643599998267514" id="-28669">
		<tag k="name" v="Kvæven" />
		<tag k="natural" v="valley" />
		<tag k="place" v="locality" />
		<tag k="ssr:stedsnr" v="167106" />
	</node>
	<node lat="59.579986114070394" lon="7.676202770123995" id="-28670">
		<tag k="fixme" v="consider natural=peak for the most distinct mountains in the district" />
		<tag k="name" v="Kvævenuten" />
		<tag k="natural" v="hill" />
		<tag k="place" v="locality" />
		<tag k="ssr:stedsnr" v="167061" />
	</node>
	<node lat="59.52443611202111" lon="7.8631444371067" id="-28676">
		<tag k="name" v="Åvestøyllet" />
		<tag k="natural" v="slope" />
		<tag k="place" v="locality" />
		<tag k="ssr:stedsnr" v="167865" />
	</node>
	<node lat="59.48906944882968" lon="7.852433326481302" id="-28677">
		<tag k="name" v="Troddedalen" />
		<tag k="natural" v="valley" />
		<tag k="place" v="locality" />
		<tag k="ssr:stedsnr" v="167871" />
	</node>
	<node lat="59.4952944474226" lon="8.123563887787794" id="-28683">
		<tag k="name" v="Torsmyrdalen" />
		<tag k="natural" v="valley" />
		<tag k="place" v="locality" />
		<tag k="ssr:stedsnr" v="170213" />
	</node>
	<node lat="59.50496110991277" lon="8.013652773782072" id="-28684">
		<tag k="name" v="Vålansteinen" />
		<tag k="place" v="locality" />
		<tag k="ssr:stedsnr" v="170666" />
	</node>
	<node lat="59.50675000042631" lon="8.111588892766592" id="-28686">
		<tag k="name" v="Setanuten" />
		<tag k="natural" v="hill" />
		<tag k="place" v="locality" />
		<tag k="ssr:stedsnr" v="171164" />
	</node>
	<node lat="59.51203611308813" lon="8.202680561339392" id="-28689">
		<tag k="name" v="Smiukleivi" />
		<tag k="natural" v="slope" />
		<tag k="place" v="locality" />
		<tag k="ssr:stedsnr" v="171274" />
	</node>
	<node lat="59.518069443123665" lon="8.138788884224187" id="-28692">
		<tag k="name" v="Sloklii" />
		<tag k="natural" v="slope" />
		<tag k="place" v="locality" />
		<tag k="ssr:stedsnr" v="171811" />
	</node>
	<node lat="59.53687499615145" lon="8.075336111925969" id="-28693">
		<tag k="name" v="Tjøruhjellbakkane" />
		<tag k="natural" v="slope" />
		<tag k="place" v="locality" />
		<tag k="ssr:stedsnr" v="171719" />
	</node>
	<node lat="59.52408055196112" lon="7.536386118905369" id="-28701">
		<tag k="fixme" v="consider natural=peak for the most distinct mountains in the district" />
		<tag k="name" v="Gråsteinsnosi" />
		<tag k="natural" v="hill" />
		<tag k="place" v="locality" />
		<tag k="ssr:stedsnr" v="185609" />
	</node>
	<node lat="59.451461114257974" lon="8.141236103882841" id="-28705">
		<tag k="name" v="Menatten" />
		<tag k="natural" v="hill" />
		<tag k="place" v="locality" />
		<tag k="ssr:stedsnr" v="267449" />
	</node>
	<node lat="59.470227773758964" lon="8.170347214846107" id="-28708">
		<tag k="name" v="Nesmarki" />
		<tag k="natural" v="slope" />
		<tag k="place" v="locality" />
		<tag k="ssr:stedsnr" v="267429" />
	</node>
	<node lat="59.4214805531241" lon="8.237649999740814" id="-28710">
		<tag k="name" v="Sjåberg" />
		<tag k="place" v="locality" />
		<tag k="ssr:stedsnr" v="267693" />
	</node>
	<node lat="59.42902499808756" lon="8.087875007376738" id="-28713">
		<tag k="name" v="Sjåberg" />
		<tag k="natural" v="hill" />
		<tag k="place" v="locality" />
		<tag k="ssr:stedsnr" v="267674" />
	</node>
	<node lat="59.39133888949598" lon="8.222788892134536" id="-28715">
		<tag k="name" v="Grimdalen" />
		<tag k="natural" v="valley" />
		<tag k="place" v="locality" />
		<tag k="ssr:stedsnr" v="267847" />
	</node>
	<node lat="59.43351389070863" lon="8.232363887990926" id="-28726">
		<tag k="fixme" v="consider natural=peak for the most distinct mountains in the district" />
		<tag k="name" v="Kvervingsåsen" />
		<tag k="natural" v="hill" />
		<tag k="place" v="locality" />
		<tag k="ssr:stedsnr" v="206604" />
	</node>
	<node lat="59.44282222208099" lon="8.257983336722704" id="-28727">
		<tag k="name" v="Eggjeflæi" />
		<tag k="place" v="locality" />
		<tag k="ssr:stedsnr" v="206609" />
	</node>
	<node lat="59.538111108616576" lon="7.864377773707184" id="-28739">
		<tag k="name" v="Hosseskor" />
		<tag k="natural" v="slope" />
		<tag k="place" v="locality" />
		<tag k="ssr:stedsnr" v="209003" />
	</node>
	<node lat="59.531297220006145" lon="7.840263886329849" id="-28740">
		<tag k="name" v="Furunuten" />
		<tag k="natural" v="hill" />
		<tag k="place" v="locality" />
		<tag k="ssr:stedsnr" v="209010" />
	</node>
	<node lat="59.46852500088004" lon="7.934433334136999" id="-28742">
		<tag k="name" v="Vekthaugen" />
		<tag k="natural" v="hill" />
		<tag k="place" v="locality" />
		<tag k="ssr:stedsnr" v="209092" />
	</node>
	<node lat="59.42637500043134" lon="7.817605561195277" id="-28747">
		<tag k="fixme" v="consider natural=peak for the most distinct mountains in the district" />
		<tag k="name" v="Lauvhalsåsen" />
		<tag k="natural" v="hill" />
		<tag k="place" v="locality" />
		<tag k="ssr:stedsnr" v="209345" />
	</node>
	<node lat="59.437855555699706" lon="7.954975003342976" id="-28749">
		<tag k="name" v="Grasskotet" />
		<tag k="natural" v="valley" />
		<tag k="place" v="locality" />
		<tag k="ssr:stedsnr" v="209930" />
	</node>
	<node lat="59.35069721797168" lon="7.975455554236823" id="-28750">
		<tag k="fixme" v="consider natural=peak for the most distinct mountains in the district" />
		<tag k="name" v="Grunnvassnuten" />
		<tag k="natural" v="hill" />
		<tag k="place" v="locality" />
		<tag k="ssr:stedsnr" v="269356" />
	</node>
	<node lat="59.555377777411735" lon="8.30177777083163" id="-28752">
		<tag k="name" v="Myklekvæven" />
		<tag k="natural" v="valley" />
		<tag k="place" v="locality" />
		<tag k="ssr:stedsnr" v="269651" />
	</node>
	<node lat="59.50662500398988" lon="7.985016674708121" id="-28754">
		<tag k="name" v="Juvet" />
		<tag k="natural" v="slope" />
		<tag k="place" v="locality" />
		<tag k="ssr:stedsnr" v="270032" />
	</node>
	<node lat="59.508938888322" lon="7.899386112385685" id="-28759">
		<tag k="name" v="Fagerdalen" />
		<tag k="natural" v="valley" />
		<tag k="place" v="locality" />
		<tag k="ssr:stedsnr" v="270054" />
	</node>
	<node lat="59.510136110228906" lon="8.018700008539541" id="-28760">
		<tag k="name" v="Vålandsdalen" />
		<tag k="natural" v="valley" />
		<tag k="place" v="locality" />
		<tag k="ssr:stedsnr" v="270233" />
	</node>
	<node lat="59.5542722254261" lon="8.097772221317129" id="-28761">
		<tag k="name" v="Brennrodalen" />
		<tag k="natural" v="valley" />
		<tag k="place" v="locality" />
		<tag k="ssr:stedsnr" v="270238" />
	</node>
	<node lat="59.35278610983334" lon="8.100380558820062" id="-28762">
		<tag k="fixme" v="consider natural=peak for the most distinct mountains in the district" />
		<tag k="name" v="Vesle Harås" />
		<tag k="natural" v="hill" />
		<tag k="place" v="locality" />
		<tag k="ssr:stedsnr" v="270243" />
	</node>
	<node lat="59.47260555157869" lon="7.837016662444278" id="-28773">
		<tag k="name" v="Skjerebronane" />
		<tag k="place" v="locality" />
		<tag k="ssr:stedsnr" v="226450" />
	</node>
	<node lat="59.46526666301609" lon="7.835858336721469" id="-28774">
		<tag k="name" v="Brattveitdokka" />
		<tag k="natural" v="slope" />
		<tag k="place" v="locality" />
		<tag k="ssr:stedsnr" v="226454" />
	</node>
	<node lat="59.563266664528946" lon="7.6966694508160325" id="-28775">
		<tag k="name" v="Klavane" />
		<tag k="natural" v="slope" />
		<tag k="place" v="locality" />
		<tag k="ssr:stedsnr" v="227084" />
	</node>
	<node lat="59.477286115232545" lon="7.925205551995034" id="-28777">
		<tag k="name" v="Store Låvedalen" />
		<tag k="natural" v="valley" />
		<tag k="place" v="locality" />
		<tag k="ssr:stedsnr" v="227291" />
	</node>
	<node lat="59.41487777821443" lon="7.741597219661572" id="-28780">
		<tag k="name" v="Krakaskrea" />
		<tag k="natural" v="slope" />
		<tag k="place" v="locality" />
		<tag k="ssr:stedsnr" v="227299" />
	</node>
	<node lat="59.5260944436717" lon="7.840980547394956" id="-28782">
		<tag k="fixme" v="consider natural=peak for the most distinct mountains in the district" />
		<tag k="name" v="Skjennuten" />
		<tag k="natural" v="hill" />
		<tag k="place" v="locality" />
		<tag k="ssr:stedsnr" v="227616" />
	</node>
	<node lat="59.511533332618114" lon="7.783602775896298" id="-28788">
		<tag k="name" v="Kaldebekkvævane" />
		<tag k="natural" v="valley" />
		<tag k="old_name" v="Kaldbekkkvævane" />
		<tag k="place" v="locality" />
		<tag k="ssr:stedsnr" v="227833" />
	</node>
	<node lat="59.479730559111225" lon="7.887930561373608" id="-28797">
		<tag k="name" v="Rugråne" />
		<tag k="natural" v="valley" />
		<tag k="place" v="locality" />
		<tag k="ssr:stedsnr" v="228515" />
	</node>
	<node lat="59.43493333240289" lon="7.873291663310087" id="-28799">
		<tag k="name" v="Mjøltedalane" />
		<tag k="natural" v="valley" />
		<tag k="place" v="locality" />
		<tag k="ssr:stedsnr" v="228833" />
	</node>
	<node lat="59.451369445809846" lon="7.903630549419186" id="-28803">
		<tag k="name" v="Nuten" />
		<tag k="natural" v="hill" />
		<tag k="place" v="locality" />
		<tag k="ssr:stedsnr" v="228795" />
	</node>
	<node lat="59.458708337100255" lon="8.13906666570239" id="-28808">
		<tag k="name" v="Langås" />
		<tag k="natural" v="ridge" />
		<tag k="place" v="locality" />
		<tag k="ssr:stedsnr" v="449433" />
	</node>
	<node lat="59.44607777373311" lon="8.19592222266476" id="-28811">
		<tag k="name" v="Småkasin" />
		<tag k="natural" v="slope" />
		<tag k="place" v="locality" />
		<tag k="ssr:stedsnr" v="449543" />
	</node>
	<node lat="59.55083611148858" lon="8.204625004859095" id="-28818">
		<tag k="name" v="Åkestøylnuten" />
		<tag k="natural" v="hill" />
		<tag k="place" v="locality" />
		<tag k="ssr:stedsnr" v="231629" />
	</node>
	<node lat="59.410538888664775" lon="8.26293333187965" id="-28822">
		<tag k="name" v="Brøneskotet" />
		<tag k="place" v="locality" />
		<tag k="ssr:stedsnr" v="449700" />
	</node>
	<node lat="59.51443611035971" lon="8.257352770467373" id="-28825">
		<tag k="name" v="Kvålemodalen" />
		<tag k="natural" v="valley" />
		<tag k="place" v="locality" />
		<tag k="ssr:stedsnr" v="449714" />
	</node>
	<node lat="59.49230555918246" lon="8.245222220554785" id="-28830">
		<tag k="name" v="Jasakroi" />
		<tag k="natural" v="valley" />
		<tag k="place" v="locality" />
		<tag k="ssr:stedsnr" v="232832" />
	</node>
	<node lat="59.364727779723374" lon="8.10590554680959" id="-28831">
		<tag k="name" v="Tjovelii" />
		<tag k="natural" v="slope" />
		<tag k="place" v="locality" />
		<tag k="ssr:stedsnr" v="449942" />
	</node>
	<node lat="59.461300856129235" lon="8.097607880723551" id="-28834">
		<tag k="fixme" v="consider natural=peak for the most distinct mountains in the district" />
		<tag k="name" v="Tjønnstøylnuten" />
		<tag k="natural" v="hill" />
		<tag k="place" v="locality" />
		<tag k="ssr:stedsnr" v="450601" />
	</node>
	<node lat="59.41636388705262" lon="8.049574992383437" id="-28835">
		<tag k="name" v="Lauvvikfjelldalen" />
		<tag k="natural" v="valley" />
		<tag k="place" v="locality" />
		<tag k="ssr:stedsnr" v="450734" />
	</node>
	<node lat="59.42769722322126" lon="8.026022223256456" id="-28842">
		<tag k="name" v="Hagaberg" />
		<tag k="natural" v="ridge" />
		<tag k="place" v="locality" />
		<tag k="ssr:stedsnr" v="452067" />
	</node>
	<node lat="59.48481666356123" lon="7.779083334465749" id="-28847">
		<tag k="alt_name" v="Grønovdnuten" />
		<tag k="fixme" v="consider natural=peak for the most distinct mountains in the district" />
		<tag k="name" v="Grønhovdnuten" />
		<tag k="natural" v="hill" />
		<tag k="place" v="locality" />
		<tag k="ssr:stedsnr" v="452154" />
	</node>
	<node lat="59.48543333705945" lon="8.006827769598347" id="-28852">
		<tag k="alt_name" v="Djupedal" />
		<tag k="name" v="Djupedalen" />
		<tag k="natural" v="valley" />
		<tag k="place" v="locality" />
		<tag k="ssr:stedsnr" v="245613" />
	</node>
	<node lat="59.536927777920866" lon="8.110927784491597" id="-28855">
		<tag k="name" v="Skrøvstøylfjellet" />
		<tag k="natural" v="hill" />
		<tag k="place" v="locality" />
		<tag k="ssr:stedsnr" v="452192" />
	</node>
	<node lat="59.38203332960119" lon="8.10913888623943" id="-28857">
		<tag k="fixme" v="consider natural=peak for the most distinct mountains in the district" />
		<tag k="name" v="Toheii" />
		<tag k="natural" v="hill" />
		<tag k="place" v="locality" />
		<tag k="ssr:stedsnr" v="245272" />
	</node>
	<node lat="59.438524999699716" lon="7.621563884091398" id="-28858">
		<tag k="name" v="Nauteberdalen" />
		<tag k="natural" v="valley" />
		<tag k="place" v="locality" />
		<tag k="ssr:stedsnr" v="245404" />
	</node>
	<node lat="59.54795278062304" lon="8.1106138899141" id="-28860">
		<tag k="fixme" v="consider natural=peak for the most distinct mountains in the district" />
		<tag k="name" v="Jåfjell" />
		<tag k="natural" v="hill" />
		<tag k="place" v="locality" />
		<tag k="ssr:stedsnr" v="245419" />
	</node>
	<node lat="59.53878610769964" lon="8.296108326846888" id="-28875">
		<tag k="alt_name" v="Bulinuten" />
		<tag k="fixme" v="consider natural=peak for the most distinct mountains in the district" />
		<tag k="name" v="Bulinut" />
		<tag k="natural" v="hill" />
		<tag k="place" v="locality" />
		<tag k="ssr:stedsnr" v="246368" />
	</node>
	<node lat="59.57121110893719" lon="7.629136115450034" id="-28880">
		<tag k="fixme" v="consider natural=peak for the most distinct mountains in the district" />
		<tag k="name" v="Hestehomnuten" />
		<tag k="natural" v="hill" />
		<tag k="place" v="locality" />
		<tag k="ssr:stedsnr" v="246710" />
	</node>
	<node lat="59.57642499802374" lon="7.754525004791318" id="-28882">
		<tag k="alt_name" v="Skansenuten" />
		<tag k="name" v="Skansenut" />
		<tag k="natural" v="hill" />
		<tag k="place" v="locality" />
		<tag k="ssr:stedsnr" v="246907" />
	</node>
	<node lat="59.47295555886999" lon="8.02905833817738" id="-28887">
		<tag k="alt_name" v="Brunåsli" />
		<tag k="name" v="Bronåslia" />
		<tag k="natural" v="slope" />
		<tag k="place" v="locality" />
		<tag k="ssr:stedsnr" v="452777" />
	</node>
	<node lat="59.41567500313849" lon="7.967580557513933" id="-28888">
		<tag k="name" v="Hukebu" />
		<tag k="place" v="locality" />
		<tag k="ssr:stedsnr" v="452798" />
	</node>
	<node lat="59.50367499846035" lon="7.890775000724479" id="-28896">
		<tag k="alt_name" v="Surtetjøndalen" />
		<tag k="name" v="Surtetjønndalen" />
		<tag k="natural" v="valley" />
		<tag k="place" v="locality" />
		<tag k="ssr:stedsnr" v="453837" />
	</node>
	<node lat="59.49207222449079" lon="7.926566663854796" id="-28897">
		<tag k="name" v="Varenibba" />
		<tag k="natural" v="hill" />
		<tag k="place" v="locality" />
		<tag k="ssr:stedsnr" v="453844" />
	</node>
	<node lat="59.488861111665855" lon="7.90142500382182" id="-28899">
		<tag k="name" v="Ovetjønnåsen" />
		<tag k="natural" v="hill" />
		<tag k="place" v="locality" />
		<tag k="ssr:stedsnr" v="453848" />
	</node>
	<node lat="59.520983334243404" lon="8.260788890127312" id="-28902">
		<tag k="fixme" v="consider natural=peak for the most distinct mountains in the district" />
		<tag k="name" v="Haugestøylhovet" />
		<tag k="natural" v="hill" />
		<tag k="place" v="locality" />
		<tag k="ssr:stedsnr" v="267737" />
	</node>
	<node lat="59.52984444369446" lon="8.208875008746618" id="-28905">
		<tag k="fixme" v="consider natural=peak for the most distinct mountains in the district" />
		<tag k="name" v="Storhovnuten" />
		<tag k="natural" v="hill" />
		<tag k="place" v="locality" />
		<tag k="ssr:stedsnr" v="267784" />
	</node>
	<node lat="59.37076389264094" lon="8.087036105493233" id="-28906">
		<tag k="name" v="Gåstjønnslettene" />
		<tag k="place" v="locality" />
		<tag k="ssr:stedsnr" v="267932" />
	</node>
	<node lat="59.381655556759675" lon="8.13569167250568" id="-28907">
		<tag k="name" v="Kyrsvelt" />
		<tag k="natural" v="gorge" />
		<tag k="ssr:stedsnr" v="268078" />
	</node>
	<node lat="59.40129722463133" lon="8.051908340033402" id="-28909">
		<tag k="name" v="Fantedalssnytta" />
		<tag k="natural" v="hill" />
		<tag k="place" v="locality" />
		<tag k="ssr:stedsnr" v="268233" />
	</node>
	<node lat="59.43797500085417" lon="8.20571389198764" id="-28910">
		<tag k="name" v="Juvet" />
		<tag k="natural" v="gorge" />
		<tag k="ssr:stedsnr" v="268281" />
	</node>
	<node lat="59.5299361143023" lon="7.839555548556829" id="-28916">
		<tag k="name" v="Kyrsvelt" />
		<tag k="natural" v="slope" />
		<tag k="place" v="locality" />
		<tag k="ssr:stedsnr" v="270009" />
	</node>
	<node lat="59.36155555114084" lon="8.021516662197158" id="-28918">
		<tag k="fixme" v="consider natural=peak for the most distinct mountains in the district" />
		<tag k="name" v="Liarskarnuten" />
		<tag k="natural" v="hill" />
		<tag k="place" v="locality" />
		<tag k="ssr:stedsnr" v="270075" />
	</node>
	<node lat="59.54686111510962" lon="8.028816663612448" id="-28920">
		<tag k="name" v="Kjempekjosine" />
		<tag k="natural" v="hill" />
		<tag k="place" v="locality" />
		<tag k="ssr:stedsnr" v="270224" />
	</node>
	<node lat="59.49890833203358" lon="7.992363880219438" id="-28923">
		<tag k="alt_name" v="Store Ravnejuv" />
		<tag k="name" v="Ravnegjuv" />
		<tag k="natural" v="gorge" />
		<tag k="ssr:stedsnr" v="270205" />
	</node>
	<node lat="59.574338886850306" lon="7.755486119652833" id="-28924">
		<tag k="name" v="Skansehaddine" />
		<tag k="natural" v="slope" />
		<tag k="place" v="locality" />
		<tag k="ssr:stedsnr" v="270116" />
	</node>
	<node lat="59.574705553291174" lon="7.687786117059686" id="-28925">
		<tag k="name" v="Hyttenuten" />
		<tag k="natural" v="hill" />
		<tag k="place" v="locality" />
		<tag k="ssr:stedsnr" v="270125" />
	</node>
	<node lat="59.423363885649366" lon="7.946594441556631" id="-28929">
		<tag k="name" v="Grasdalen" />
		<tag k="natural" v="valley" />
		<tag k="place" v="locality" />
		<tag k="ssr:stedsnr" v="270882" />
	</node>
	<node lat="59.47168610903837" lon="7.993852770177539" id="-28932">
		<tag k="name" v="Trastekro" />
		<tag k="natural" v="valley" />
		<tag k="place" v="locality" />
		<tag k="ssr:stedsnr" v="270785" />
	</node>
	<node lat="59.57123610821409" lon="7.747902772632079" id="-28937">
		<tag k="name" v="Bergannuten" />
		<tag k="place" v="locality" />
		<tag k="ssr:stedsnr" v="288088" />
	</node>
	<node lat="59.559122217820196" lon="7.72529999466173" id="-28938">
		<tag k="name" v="Svollbekklie" />
		<tag k="natural" v="slope" />
		<tag k="place" v="locality" />
		<tag k="ssr:stedsnr" v="288094" />
	</node>
	<node lat="59.448980551833685" lon="7.846505553921164" id="-28939">
		<tag k="name" v="Tveitebrotet" />
		<tag k="natural" v="slope" />
		<tag k="place" v="locality" />
		<tag k="ssr:stedsnr" v="288393" />
	</node>
	<node lat="59.48433610681515" lon="7.907997221451185" id="-28941">
		<tag k="name" v="Bjørkelibrotet" />
		<tag k="natural" v="slope" />
		<tag k="place" v="locality" />
		<tag k="ssr:stedsnr" v="288283" />
	</node>
	<node lat="59.477127774101184" lon="7.891105552743399" id="-28943">
		<tag k="name" v="Fanteberge" />
		<tag k="place" v="locality" />
		<tag k="ssr:stedsnr" v="288434" />
	</node>
	<node lat="59.51497500319323" lon="7.770874999146983" id="-28948">
		<tag k="name" v="Grødbunuten" />
		<tag k="place" v="locality" />
		<tag k="ssr:stedsnr" v="288806" />
	</node>
	<node lat="59.556330552044045" lon="7.765219452012427" id="-28951">
		<tag k="fixme" v="consider natural=peak for the most distinct mountains in the district" />
		<tag k="name" v="Gotshommnuten" />
		<tag k="natural" v="hill" />
		<tag k="place" v="locality" />
		<tag k="ssr:stedsnr" v="288981" />
	</node>
	<node lat="59.50432222561933" lon="8.182699997829072" id="-28955">
		<tag k="name" v="Breilandshaugane" />
		<tag k="natural" v="hill" />
		<tag k="place" v="locality" />
		<tag k="ssr:stedsnr" v="292005" />
	</node>
	<node lat="59.48488055771726" lon="8.056052772729192" id="-28963">
		<tag k="fixme" v="consider natural=peak for the most distinct mountains in the district" />
		<tag k="name" v="Koberåsen" />
		<tag k="natural" v="hill" />
		<tag k="place" v="locality" />
		<tag k="ssr:stedsnr" v="292425" />
	</node>
	<node lat="59.40724444440458" lon="8.167794443808683" id="-28965">
		<tag k="fixme" v="consider natural=peak for the most distinct mountains in the district" />
		<tag k="name" v="Haukelinuten" />
		<tag k="natural" v="hill" />
		<tag k="place" v="locality" />
		<tag k="ssr:stedsnr" v="305469" />
	</node>
	<node lat="59.51056388707544" lon="7.916069437696731" id="-28969">
		<tag k="alt_name" v="Bessefjøll" />
		<tag k="fixme" v="consider natural=peak for the most distinct mountains in the district" />
		<tag k="name" v="Bessefjell" />
		<tag k="natural" v="hill" />
		<tag k="place" v="locality" />
		<tag k="ssr:stedsnr" v="306015" />
	</node>
	<node lat="59.54754721844803" lon="8.173683329131613" id="-28977">
		<tag k="fixme" v="consider natural=peak for the most distinct mountains in the district" />
		<tag k="name" v="Hovdås" />
		<tag k="natural" v="hill" />
		<tag k="place" v="locality" />
		<tag k="ssr:stedsnr" v="306417" />
	</node>
	<node lat="59.56550833543935" lon="7.649899998882798" id="-28980">
		<tag k="alt_name" v="Hestegreftnutane" />
		<tag k="name" v="Hestegreft" />
		<tag k="natural" v="hill" />
		<tag k="place" v="locality" />
		<tag k="ssr:stedsnr" v="306706" />
	</node>
	<node lat="59.361561109116714" lon="7.813933334869751" id="-28983">
		<tag k="name" v="Halvfarsbakken" />
		<tag k="natural" v="slope" />
		<tag k="place" v="locality" />
		<tag k="ssr:stedsnr" v="469238" />
	</node>
	<node lat="59.24859999703415" lon="6.806783328633947" id="-28986">
		<tag k="name" v="Heiane" />
		<tag k="natural" v="mountain_range" />
		<tag k="ssr:stedsnr" v="326179" />
	</node>
	<node lat="59.40777777570636" lon="8.048444451280135" id="-28989">
		<tag k="name" v="Kringlemyrbroni" />
		<tag k="natural" v="slope" />
		<tag k="place" v="locality" />
		<tag k="ssr:stedsnr" v="327259" />
	</node>
	<node lat="59.37249166310312" lon="8.140880555995327" id="-28994">
		<tag k="name" v="Hutlaup" />
		<tag k="natural" v="slope" />
		<tag k="place" v="locality" />
		<tag k="ssr:stedsnr" v="327971" />
	</node>
	<node lat="59.48555833047026" lon="8.287483325280451" id="-28996">
		<tag k="fixme" v="consider natural=peak for the most distinct mountains in the district" />
		<tag k="name" v="Brennås" />
		<tag k="natural" v="hill" />
		<tag k="place" v="locality" />
		<tag k="ssr:stedsnr" v="328271" />
	</node>
	<node lat="59.52623333140691" lon="8.243525001722851" id="-28999">
		<tag k="fixme" v="consider natural=peak for the most distinct mountains in the district" />
		<tag k="name" v="Kvitmyrhovet" />
		<tag k="natural" v="hill" />
		<tag k="place" v="locality" />
		<tag k="ssr:stedsnr" v="328762" />
	</node>
	<node lat="59.452497226083935" lon="8.204241673931906" id="-29001">
		<tag k="name" v="Verpsdalen" />
		<tag k="natural" v="valley" />
		<tag k="place" v="locality" />
		<tag k="ssr:stedsnr" v="328603" />
	</node>
	<node lat="59.43046944739636" lon="8.264180547895556" id="-29002">
		<tag k="name" v="Dyneskard" />
		<tag k="natural" v="valley" />
		<tag k="place" v="locality" />
		<tag k="ssr:stedsnr" v="328623" />
	</node>
	<node lat="59.454041667100725" lon="8.266244449656817" id="-29003">
		<tag k="fixme" v="consider natural=peak for the most distinct mountains in the district" />
		<tag k="name" v="Vesle Kåvsnetten" />
		<tag k="natural" v="hill" />
		<tag k="place" v="locality" />
		<tag k="ssr:stedsnr" v="328663" />
	</node>
	<node lat="59.53788888718205" lon="7.858069445214624" id="-29015">
		<tag k="alt_name" v="Kramfornuten" />
		<tag k="name" v="Kramfernuten" />
		<tag k="natural" v="hill" />
		<tag k="old_name" v="Kramfornut" />
		<tag k="place" v="locality" />
		<tag k="ssr:stedsnr" v="331003" />
	</node>
	<node lat="59.536749996907304" lon="7.831719436587807" id="-29016">
		<tag k="name" v="Goplenuten" />
		<tag k="natural" v="hill" />
		<tag k="place" v="locality" />
		<tag k="ssr:stedsnr" v="331009" />
	</node>
	<node lat="59.526933333612" lon="8.022430550039429" id="-29022">
		<tag k="name" v="Orrekvævane" />
		<tag k="natural" v="hill" />
		<tag k="place" v="locality" />
		<tag k="ssr:stedsnr" v="331196" />
	</node>
	<node lat="59.5551083344077" lon="7.993800004817284" id="-29023">
		<tag k="name" v="Rogdelineset" />
		<tag k="natural" v="hill" />
		<tag k="place" v="locality" />
		<tag k="ssr:stedsnr" v="331200" />
	</node>
	<node lat="59.53240833324772" lon="8.030772219464835" id="-29029">
		<tag k="name" v="Knutskjerr" />
		<tag k="place" v="locality" />
		<tag k="ssr:stedsnr" v="331217" />
	</node>
	<node lat="59.494741665981266" lon="7.752461108007984" id="-29034">
		<tag k="name" v="Kilehaugane" />
		<tag k="natural" v="hill" />
		<tag k="place" v="locality" />
		<tag k="ssr:stedsnr" v="470927" />
	</node>
	<node lat="59.421408329514044" lon="8.009088890715047" id="-29038">
		<tag k="fixme" v="consider natural=peak for the most distinct mountains in the district" />
		<tag k="name" v="Storås" />
		<tag k="natural" v="hill" />
		<tag k="place" v="locality" />
		<tag k="ssr:stedsnr" v="331955" />
	</node>
	<node lat="59.38115833515517" lon="8.037699992365294" id="-29039">
		<tag k="name" v="Sveigedalsjuvet" />
		<tag k="natural" v="gorge" />
		<tag k="ssr:stedsnr" v="331957" />
	</node>
	<node lat="59.55666944253506" lon="8.105055555637048" id="-29041">
		<tag k="alt_name" v="Venlinut" />
		<tag k="name" v="Venlinutane" />
		<tag k="natural" v="hill" />
		<tag k="place" v="locality" />
		<tag k="ssr:stedsnr" v="331963" />
	</node>
	<node lat="59.495680553457014" lon="7.710197223238289" id="-29043">
		<tag k="name" v="Flottekvæven" />
		<tag k="natural" v="valley" />
		<tag k="place" v="locality" />
		<tag k="ssr:stedsnr" v="470931" />
	</node>
	<node lat="59.38047777748626" lon="7.8747888939687885" id="-29049">
		<tag k="name" v="Hukkedalen" />
		<tag k="natural" v="valley" />
		<tag k="place" v="locality" />
		<tag k="ssr:stedsnr" v="471816" />
	</node>
	<node lat="59.489588885890036" lon="8.139016670824791" id="-29050">
		<tag k="name" v="Lauvrukollen" />
		<tag k="natural" v="hill" />
		<tag k="place" v="locality" />
		<tag k="ssr:stedsnr" v="473200" />
	</node>
	<node lat="59.47530555310736" lon="7.873444452834108" id="-29054">
		<tag k="fixme" v="consider natural=peak for the most distinct mountains in the district" />
		<tag k="name" v="Øyannuten" />
		<tag k="natural" v="hill" />
		<tag k="place" v="locality" />
		<tag k="ssr:stedsnr" v="348372" />
	</node>
	<node lat="59.48215833218709" lon="7.916963887941142" id="-29056">
		<tag k="name" v="Fennflote" />
		<tag k="natural" v="valley" />
		<tag k="place" v="locality" />
		<tag k="ssr:stedsnr" v="348262" />
	</node>
	<node lat="59.458880558278516" lon="7.818683325896551" id="-29058">
		<tag k="fixme" v="consider natural=peak for the most distinct mountains in the district" />
		<tag k="name" v="Båvetjønn" />
		<tag k="natural" v="hill" />
		<tag k="place" v="locality" />
		<tag k="ssr:stedsnr" v="348714" />
	</node>
	<node lat="59.459350002111776" lon="7.807108330550255" id="-29061">
		<tag k="name" v="Kvålskvævane" />
		<tag k="natural" v="valley" />
		<tag k="place" v="locality" />
		<tag k="ssr:stedsnr" v="348629" />
	</node>
	<node lat="59.45308888588865" lon="7.744605547558352" id="-29062">
		<tag k="name" v="Støylelii" />
		<tag k="natural" v="slope" />
		<tag k="place" v="locality" />
		<tag k="ssr:stedsnr" v="348669" />
	</node>
	<node lat="59.47683611532603" lon="7.771730560248902" id="-29068">
		<tag k="fixme" v="consider natural=peak for the most distinct mountains in the district" />
		<tag k="name" v="Nystøylnuten" />
		<tag k="natural" v="hill" />
		<tag k="place" v="locality" />
		<tag k="ssr:stedsnr" v="349729" />
	</node>
	<node lat="59.49011667071905" lon="7.863097214005783" id="-29071">
		<tag k="name" v="Asjersdal" />
		<tag k="natural" v="valley" />
		<tag k="place" v="locality" />
		<tag k="ssr:stedsnr" v="349915" />
	</node>
	<node lat="59.491686108584396" lon="8.152186103943922" id="-29072">
		<tag k="name" v="Øvsteryggen" />
		<tag k="natural" v="ridge" />
		<tag k="place" v="locality" />
		<tag k="ssr:stedsnr" v="352054" />
	</node>
	<node lat="59.54849999808978" lon="8.05751110298611" id="-29074">
		<tag k="name" v="Solemstøylnuten" />
		<tag k="natural" v="hill" />
		<tag k="place" v="locality" />
		<tag k="ssr:stedsnr" v="474283" />
	</node>
	<node lat="59.50996389122601" lon="8.075586119864132" id="-29075">
		<tag k="name" v="Fjellstøylnuten" />
		<tag k="natural" v="hill" />
		<tag k="place" v="locality" />
		<tag k="ssr:stedsnr" v="352362" />
	</node>
	<node lat="59.508202774322925" lon="8.236608327518296" id="-29076">
		<tag k="fixme" v="consider natural=peak for the most distinct mountains in the district" />
		<tag k="name" v="Nordabergskarvet" />
		<tag k="natural" v="hill" />
		<tag k="place" v="locality" />
		<tag k="ssr:stedsnr" v="352766" />
	</node>
	<node lat="59.50675555820323" lon="8.160469448865092" id="-29079">
		<tag k="name" v="Tjørudalen" />
		<tag k="natural" v="valley" />
		<tag k="place" v="locality" />
		<tag k="ssr:stedsnr" v="353023" />
	</node>
	<node lat="59.49648888874127" lon="8.09497221788492" id="-29080">
		<tag k="name" v="Dagsbeitet" />
		<tag k="natural" v="valley" />
		<tag k="place" v="locality" />
		<tag k="ssr:stedsnr" v="353053" />
	</node>
	<node lat="59.51029444746755" lon="8.173886105553171" id="-29087">
		<tag k="name" v="Revshaug" />
		<tag k="natural" v="hill" />
		<tag k="place" v="locality" />
		<tag k="ssr:stedsnr" v="474501" />
	</node>
	<node lat="59.52937500211803" lon="8.193536105225109" id="-29095">
		<tag k="name" v="Badstogdalen" />
		<tag k="natural" v="valley" />
		<tag k="place" v="locality" />
		<tag k="ssr:stedsnr" v="475496" />
	</node>
	<node lat="59.49506666844743" lon="8.24288056245545" id="-29096">
		<tag k="name" v="Stortodalen" />
		<tag k="natural" v="valley" />
		<tag k="place" v="locality" />
		<tag k="ssr:stedsnr" v="475840" />
	</node>
	<node lat="59.504511113929254" lon="8.280752785889417" id="-29098">
		<tag k="name" v="Vesle Styggedal" />
		<tag k="natural" v="valley" />
		<tag k="place" v="locality" />
		<tag k="ssr:stedsnr" v="475852" />
	</node>
	<node lat="59.38104444074864" lon="8.135108329773786" id="-29100">
		<tag k="alt_name" v="Eiklandnuten" />
		<tag k="fixme" v="consider natural=peak for the most distinct mountains in the district" />
		<tag k="name" v="Eikelandnuten" />
		<tag k="natural" v="hill" />
		<tag k="place" v="locality" />
		<tag k="ssr:stedsnr" v="366285" />
	</node>
	<node lat="59.45095833577584" lon="7.645350007656721" id="-29101">
		<tag k="name" v="Slækja" />
		<tag k="natural" v="valley" />
		<tag k="place" v="locality" />
		<tag k="ssr:stedsnr" v="366409" />
	</node>
	<node lat="59.43308888744253" lon="7.972524998935782" id="-29110">
		<tag k="alt_name" v="Storås" />
		<tag k="fixme" v="consider natural=peak for the most distinct mountains in the district" />
		<tag k="name" v="Dølabrotet" />
		<tag k="natural" v="hill" />
		<tag k="old_name" v="Brota" />
		<tag k="place" v="locality" />
		<tag k="ssr:stedsnr" v="366779" />
	</node>
	<node lat="59.355977779335326" lon="8.075177778004905" id="-29111">
		<tag k="alt_name" v="Ruste" />
		<tag k="fixme" v="consider natural=peak for the most distinct mountains in the district" />
		<tag k="name" v="Røsti" />
		<tag k="natural" v="hill" />
		<tag k="place" v="locality" />
		<tag k="ssr:stedsnr" v="366976" />
	</node>
	<node lat="59.410322220231855" lon="8.082880556894803" id="-29127">
		<tag k="name" v="Mjøltenetten" />
		<tag k="natural" v="hill" />
		<tag k="place" v="locality" />
		<tag k="ssr:stedsnr" v="388241" />
	</node>
	<node lat="59.45606389264621" lon="8.109552774109018" id="-29128">
		<tag k="name" v="Tuvmyrdalen" />
		<tag k="natural" v="valley" />
		<tag k="place" v="locality" />
		<tag k="ssr:stedsnr" v="388430" />
	</node>
	<node lat="59.47184166875894" lon="8.191841663334932" id="-29130">
		<tag k="name" v="Kyrdalkosi" />
		<tag k="natural" v="slope" />
		<tag k="place" v="locality" />
		<tag k="ssr:stedsnr" v="388466" />
	</node>
	<node lat="59.51208333104006" lon="8.257255562300015" id="-29131">
		<tag k="name" v="Londalen" />
		<tag k="natural" v="valley" />
		<tag k="place" v="locality" />
		<tag k="ssr:stedsnr" v="388714" />
	</node>
	<node lat="59.513936113833815" lon="8.24334721863546" id="-29132">
		<tag k="fixme" v="consider natural=peak for the most distinct mountains in the district" />
		<tag k="name" v="Kvåletulla" />
		<tag k="natural" v="hill" />
		<tag k="place" v="locality" />
		<tag k="ssr:stedsnr" v="388716" />
	</node>
	<node lat="59.38702777627287" lon="8.10624721764153" id="-29137">
		<tag k="name" v="Stakksneismyrane" />
		<tag k="place" v="locality" />
		<tag k="ssr:stedsnr" v="389050" />
	</node>
	<node lat="59.3822722199994" lon="8.10732499207261" id="-29138">
		<tag k="fixme" v="consider natural=peak for the most distinct mountains in the district" />
		<tag k="name" v="Jøkulen" />
		<tag k="natural" v="hill" />
		<tag k="place" v="locality" />
		<tag k="ssr:stedsnr" v="389052" />
	</node>
	<node lat="59.4497685075467" lon="8.079265389620362" id="-29141">
		<tag k="name" v="Juvstøylskaret" />
		<tag k="natural" v="valley" />
		<tag k="place" v="locality" />
		<tag k="ssr:stedsnr" v="389617" />
	</node>
	<node lat="59.53229166395619" lon="8.22678056207649" id="-29143">
		<tag k="fixme" v="consider natural=peak for the most distinct mountains in the district" />
		<tag k="name" v="Brenningan" />
		<tag k="natural" v="hill" />
		<tag k="place" v="locality" />
		<tag k="ssr:stedsnr" v="390107" />
	</node>
	<node lat="59.40965278170422" lon="8.121063897579957" id="-29144">
		<tag k="name" v="Bjønnbakkskotet" />
		<tag k="place" v="locality" />
		<tag k="ssr:stedsnr" v="390396" />
	</node>
	<node lat="59.5701611066177" lon="7.826716659499084" id="-29146">
		<tag k="name" v="Berstøylure" />
		<tag k="natural" v="slope" />
		<tag k="place" v="locality" />
		<tag k="ssr:stedsnr" v="391046" />
	</node>
	<node lat="59.58551666495168" lon="7.784572227059928" id="-29147">
		<tag k="name" v="Deildenuten" />
		<tag k="natural" v="hill" />
		<tag k="place" v="locality" />
		<tag k="ssr:stedsnr" v="391108" />
	</node>
	<node lat="59.57787777925642" lon="7.795852780284" id="-29148">
		<tag k="name" v="Gamlerota" />
		<tag k="natural" v="valley" />
		<tag k="place" v="locality" />
		<tag k="ssr:stedsnr" v="391109" />
	</node>
	<node lat="59.40894166533478" lon="7.803977775316449" id="-29150">
		<tag k="alt_name" v="Ørnereiråsen" />
		<tag k="fixme" v="consider natural=peak for the most distinct mountains in the district" />
		<tag k="name" v="Ørnreiråsen" />
		<tag k="natural" v="hill" />
		<tag k="place" v="locality" />
		<tag k="ssr:stedsnr" v="391344" />
	</node>
	<node lat="59.40159999967061" lon="8.047680562974405" id="-29151">
		<tag k="fixme" v="consider natural=peak for the most distinct mountains in the district" />
		<tag k="name" v="Snørås" />
		<tag k="natural" v="hill" />
		<tag k="place" v="locality" />
		<tag k="ssr:stedsnr" v="391346" />
	</node>
	<node lat="59.554091670649754" lon="8.032636103025457" id="-29155">
		<tag k="name" v="Sjerløk" />
		<tag k="place" v="locality" />
		<tag k="ssr:stedsnr" v="391202" />
	</node>
	<node lat="59.54223889050662" lon="8.102822230817575" id="-29156">
		<tag k="name" v="Skinndalen" />
		<tag k="natural" v="valley" />
		<tag k="place" v="locality" />
		<tag k="ssr:stedsnr" v="391207" />
	</node>
	<node lat="59.56602222191757" lon="7.7054583287685805" id="-29160">
		<tag k="name" v="Fuglebui" />
		<tag k="natural" v="slope" />
		<tag k="place" v="locality" />
		<tag k="ssr:stedsnr" v="409093" />
	</node>
	<node lat="59.44951944882122" lon="7.7693555520281254" id="-29165">
		<tag k="fixme" v="consider natural=peak for the most distinct mountains in the district" />
		<tag k="name" v="Øvre Ånifjøll" />
		<tag k="natural" v="hill" />
		<tag k="place" v="locality" />
		<tag k="ssr:stedsnr" v="409722" />
	</node>
	<node lat="59.52602500193718" lon="7.776397224321588" id="-29166">
		<tag k="fixme" v="consider natural=peak for the most distinct mountains in the district" />
		<tag k="name" v="Kråkesylvnuten" />
		<tag k="natural" v="hill" />
		<tag k="place" v="locality" />
		<tag k="ssr:stedsnr" v="409812" />
	</node>
	<node lat="59.499855554922114" lon="7.840574999327274" id="-29167">
		<tag k="name" v="Koren" />
		<tag k="natural" v="slope" />
		<tag k="place" v="locality" />
		<tag k="ssr:stedsnr" v="409813" />
	</node>
	<node lat="59.50688888742805" lon="7.725513896502807" id="-29168">
		<tag k="fixme" v="consider natural=peak for the most distinct mountains in the district" />
		<tag k="name" v="Ånovdnuten" />
		<tag k="natural" v="hill" />
		<tag k="place" v="locality" />
		<tag k="ssr:stedsnr" v="409825" />
	</node>
	<node lat="59.496213892839" lon="7.850380561997093" id="-29169">
		<tag k="name" v="Døyndalskotet" />
		<tag k="natural" v="cliff" />
		<tag k="ssr:stedsnr" v="409841" />
	</node>
	<node lat="59.41435833756039" lon="7.808741661000218" id="-29175">
		<tag k="name" v="Haratjønndalen" />
		<tag k="natural" v="valley" />
		<tag k="place" v="locality" />
		<tag k="ssr:stedsnr" v="410348" />
	</node>
	<node lat="59.52098888834537" lon="7.820322226705034" id="-29177">
		<tag k="name" v="Vikrinden" />
		<tag k="place" v="locality" />
		<tag k="ssr:stedsnr" v="410643" />
	</node>
	<node lat="59.46173333062965" lon="7.625886109909275" id="-29181">
		<tag k="fixme" v="consider natural=peak for the most distinct mountains in the district" />
		<tag k="name" v="Sæbyggjenuten" />
		<tag k="natural" v="hill" />
		<tag k="place" v="locality" />
		<tag k="ssr:stedsnr" v="487429" />
	</node>
	<node lat="59.465608333392844" lon="8.110091669037736" id="-29184">
		<tag k="fixme" v="consider natural=peak for the most distinct mountains in the district" />
		<tag k="name" v="Nipen" />
		<tag k="natural" v="hill" />
		<tag k="place" v="locality" />
		<tag k="ssr:stedsnr" v="487456" />
	</node>
	<node lat="59.41934722078251" lon="7.704575006327688" id="-29187">
		<tag k="fixme" v="consider natural=peak for the most distinct mountains in the district" />
		<tag k="name" v="Langbakkehalsen" />
		<tag k="natural" v="hill" />
		<tag k="place" v="locality" />
		<tag k="ssr:stedsnr" v="487465" />
	</node>
	<node lat="59.40510555956145" lon="8.131363889642188" id="-29188">
		<tag k="fixme" v="consider natural=peak for the most distinct mountains in the district" />
		<tag k="name" v="Slåttemyråsen" />
		<tag k="natural" v="hill" />
		<tag k="place" v="locality" />
		<tag k="ssr:stedsnr" v="487498" />
	</node>
	<node lat="59.504950003756804" lon="7.797016662250296" id="-29207">
		<tag k="alt_name" v="Skåpesteinnuten" />
		<tag k="fixme" v="consider natural=peak for the most distinct mountains in the district" />
		<tag k="name" v="Skåpsteinnuten" />
		<tag k="natural" v="hill" />
		<tag k="old_name" v="Skåpsteinnut" />
		<tag k="place" v="locality" />
		<tag k="ssr:stedsnr" v="488009" />
	</node>
	<node lat="59.51663888500663" lon="7.860288895734923" id="-29208">
		<tag k="name" v="Kvæven" />
		<tag k="natural" v="valley" />
		<tag k="place" v="locality" />
		<tag k="ssr:stedsnr" v="488020" />
	</node>
	<node lat="59.51784999615006" lon="7.788211118714372" id="-29211">
		<tag k="alt_name" v="Rautefjøll" />
		<tag k="fixme" v="consider natural=peak for the most distinct mountains in the district" />
		<tag k="name" v="Rautefjell" />
		<tag k="natural" v="hill" />
		<tag k="place" v="locality" />
		<tag k="ssr:stedsnr" v="488065" />
	</node>
	<node lat="59.451166669344666" lon="7.712086119493876" id="-29218">
		<tag k="alt_name" v="Øytjørnristene" />
		<tag k="fixme" v="consider natural=peak for the most distinct mountains in the district" />
		<tag k="name" v="Øytjønnristene" />
		<tag k="natural" v="hill" />
		<tag k="place" v="locality" />
		<tag k="ssr:stedsnr" v="488382" />
	</node>
	<node lat="59.43893333042137" lon="7.575297219985145" id="-29220">
		<tag k="name" v="Raunagjuvet" />
		<tag k="natural" v="valley" />
		<tag k="place" v="locality" />
		<tag k="ssr:stedsnr" v="488388" />
	</node>
	<node lat="59.557133337245084" lon="8.309605553816942" id="-29222">
		<tag k="fixme" v="consider natural=peak for the most distinct mountains in the district" />
		<tag k="name" v="Vornuten" />
		<tag k="natural" v="hill" />
		<tag k="place" v="locality" />
		<tag k="ssr:stedsnr" v="488393" />
	</node>
	<node lat="59.512033336096565" lon="8.31211110352614" id="-29223">
		<tag k="alt_name" v="Vasstaulnuten" />
		<tag k="fixme" v="consider natural=peak for the most distinct mountains in the district" />
		<tag k="name" v="Vasstøylnuten" />
		<tag k="natural" v="hill" />
		<tag k="place" v="locality" />
		<tag k="ssr:stedsnr" v="488478" />
	</node>
	<node lat="59.516719445480454" lon="7.641794450266717" id="-29225">
		<tag k="fixme" v="consider natural=peak for the most distinct mountains in the district" />
		<tag k="name" v="Grasdalsnuten" />
		<tag k="natural" v="hill" />
		<tag k="place" v="locality" />
		<tag k="ssr:stedsnr" v="488622" />
	</node>
	<node lat="59.55788888974864" lon="7.5741861109184585" id="-29228">
		<tag k="name" v="Venevassdalen" />
		<tag k="natural" v="valley" />
		<tag k="place" v="locality" />
		<tag k="ssr:stedsnr" v="488732" />
	</node>
	<node lat="59.36235833094435" lon="8.127397225014162" id="-29235">
		<tag k="name" v="Styggedal" />
		<tag k="natural" v="valley" />
		<tag k="place" v="locality" />
		<tag k="ssr:stedsnr" v="427279" />
	</node>
	<node lat="59.375977778112265" lon="8.136772226681751" id="-29237">
		<tag k="name" v="Nilsedalen" />
		<tag k="natural" v="valley" />
		<tag k="place" v="locality" />
		<tag k="ssr:stedsnr" v="427324" />
	</node>
	<node lat="59.35248888553028" lon="7.63645556176176" id="-29241">
		<tag k="fixme" v="consider natural=peak for the most distinct mountains in the district" />
		<tag k="name" v="Tjørnesvikfjellet" />
		<tag k="natural" v="hill" />
		<tag k="old_name" v="Kjønnesvikfjell" />
		<tag k="place" v="locality" />
		<tag k="ssr:stedsnr" v="427579" />
	</node>
	<node lat="59.41798333784091" lon="8.05797778322135" id="-29243">
		<tag k="fixme" v="consider natural=peak for the most distinct mountains in the district" />
		<tag k="name" v="Lauvvikfjell" />
		<tag k="natural" v="hill" />
		<tag k="place" v="locality" />
		<tag k="ssr:stedsnr" v="427772" />
	</node>
	<node lat="59.466055553132634" lon="8.073358331378346" id="-29246">
		<tag k="name" v="Brekka" />
		<tag k="place" v="locality" />
		<tag k="ssr:stedsnr" v="427823" />
	</node>
	<node lat="59.52165555393454" lon="8.035588883051574" id="-29250">
		<tag k="fixme" v="consider natural=peak for the most distinct mountains in the district" />
		<tag k="name" v="Viermyrnuten" />
		<tag k="natural" v="hill" />
		<tag k="old_name" v="Viermyrnut" />
		<tag k="place" v="locality" />
		<tag k="ssr:stedsnr" v="428023" />
	</node>
	<node lat="59.52117777354921" lon="7.6868111121832365" id="-29258">
		<tag k="fixme" v="consider natural=peak for the most distinct mountains in the district" />
		<tag k="name" v="Hovundtind" />
		<tag k="natural" v="hill" />
		<tag k="place" v="locality" />
		<tag k="ssr:stedsnr" v="428627" />
	</node>
	<node lat="59.43622222510877" lon="8.157719437397269" id="-29262">
		<tag k="name" v="Bjønneskar" />
		<tag k="natural" v="valley" />
		<tag k="place" v="locality" />
		<tag k="ssr:stedsnr" v="449324" />
	</node>
	<node lat="59.391172221422124" lon="8.241780548819712" id="-29266">
		<tag k="name" v="Solingbakken" />
		<tag k="natural" v="slope" />
		<tag k="place" v="locality" />
		<tag k="ssr:stedsnr" v="449813" />
	</node>
	<node lat="59.393949995774435" lon="8.244811115213656" id="-29267">
		<tag k="name" v="Surtejuv" />
		<tag k="natural" v="gorge" />
		<tag k="ssr:stedsnr" v="449815" />
	</node>
	<node lat="59.38406111540448" lon="8.180261106174266" id="-29268">
		<tag k="name" v="Bjortjønnliane" />
		<tag k="natural" v="slope" />
		<tag k="place" v="locality" />
		<tag k="ssr:stedsnr" v="449717" />
	</node>
	<node lat="59.4609586816977" lon="8.08056820722979" id="-29271">
		<tag k="fixme" v="consider natural=peak for the most distinct mountains in the district" />
		<tag k="name" v="Vingravlinuten" />
		<tag k="natural" v="hill" />
		<tag k="place" v="locality" />
		<tag k="ssr:stedsnr" v="450614" />
	</node>
	<node lat="59.42596111374403" lon="8.068400007053699" id="-29272">
		<tag k="name" v="Furuseten" />
		<tag k="place" v="locality" />
		<tag k="ssr:stedsnr" v="451703" />
	</node>
	<node lat="59.437799996737546" lon="8.06370555869239" id="-29273">
		<tag k="name" v="Hjuringsteinane" />
		<tag k="natural" v="hill" />
		<tag k="place" v="locality" />
		<tag k="ssr:stedsnr" v="451679" />
	</node>
	<node lat="59.42511389075216" lon="8.005730561222355" id="-29280">
		<tag k="name" v="Tjønnhaugen" />
		<tag k="natural" v="hill" />
		<tag k="place" v="locality" />
		<tag k="ssr:stedsnr" v="452923" />
	</node>
	<node lat="59.45128055718035" lon="7.9636583288206895" id="-29281">
		<tag k="name" v="Vistadbakki" />
		<tag k="natural" v="slope" />
		<tag k="place" v="locality" />
		<tag k="ssr:stedsnr" v="452963" />
	</node>
	<node lat="59.53950000309405" lon="7.743241665092954" id="-29284">
		<tag k="name" v="Vierrohalline" />
		<tag k="natural" v="slope" />
		<tag k="place" v="locality" />
		<tag k="ssr:stedsnr" v="453269" />
	</node>
	<node lat="59.53080278202849" lon="7.773516664465462" id="-29285">
		<tag k="fixme" v="consider natural=peak for the most distinct mountains in the district" />
		<tag k="name" v="Hågoksli" />
		<tag k="natural" v="hill" />
		<tag k="place" v="locality" />
		<tag k="ssr:stedsnr" v="453271" />
	</node>
	<node lat="59.498772226087354" lon="7.845730549478755" id="-29287">
		<tag k="name" v="Osliane" />
		<tag k="natural" v="slope" />
		<tag k="place" v="locality" />
		<tag k="ssr:stedsnr" v="469875" />
	</node>
	<node lat="59.419066662535556" lon="7.711116667566424" id="-29288">
		<tag k="name" v="Langbakkehalsen" />
		<tag k="natural" v="valley" />
		<tag k="place" v="locality" />
		<tag k="ssr:stedsnr" v="470260" />
	</node>
	<node lat="59.5202166634295" lon="7.8370638913323365" id="-29290">
		<tag k="name" v="Sveinskorbrøne" />
		<tag k="natural" v="slope" />
		<tag k="place" v="locality" />
		<tag k="ssr:stedsnr" v="470620" />
	</node>
	<node lat="59.528869447775314" lon="7.860691667999155" id="-29291">
		<tag k="fixme" v="consider natural=peak for the most distinct mountains in the district" />
		<tag k="name" v="Nipenuten" />
		<tag k="natural" v="hill" />
		<tag k="place" v="locality" />
		<tag k="ssr:stedsnr" v="470624" />
	</node>
	<node lat="59.50334167011803" lon="7.820211119148533" id="-29293">
		<tag k="name" v="Gloskarnuten" />
		<tag k="natural" v="ridge" />
		<tag k="place" v="locality" />
		<tag k="ssr:stedsnr" v="470820" />
	</node>
	<node lat="59.4359861083954" lon="7.919272227402308" id="-29302">
		<tag k="name" v="Leiråjuvet" />
		<tag k="natural" v="gorge" />
		<tag k="ssr:stedsnr" v="471776" />
	</node>
	<node lat="59.457572226757605" lon="7.838102784100468" id="-29303">
		<tag k="fixme" v="consider natural=peak for the most distinct mountains in the district" />
		<tag k="name" v="Lyngås" />
		<tag k="natural" v="hill" />
		<tag k="place" v="locality" />
		<tag k="ssr:stedsnr" v="471915" />
	</node>
	<node lat="59.565236107610126" lon="7.802522229425136" id="-29306">
		<tag k="name" v="Vårfjoslie" />
		<tag k="natural" v="slope" />
		<tag k="place" v="locality" />
		<tag k="ssr:stedsnr" v="471970" />
	</node>
	<node lat="59.569524996837146" lon="7.774883337663895" id="-29307">
		<tag k="name" v="Nordbøgjelen" />
		<tag k="place" v="locality" />
		<tag k="ssr:stedsnr" v="471978" />
	</node>
	<node lat="59.40521944588384" lon="7.910699993684935" id="-29309">
		<tag k="name" v="Breikvæven" />
		<tag k="natural" v="valley" />
		<tag k="place" v="locality" />
		<tag k="ssr:stedsnr" v="471806" />
	</node>
	<node lat="59.47998332928569" lon="7.666100005869482" id="-29317">
		<tag k="name" v="Bjørnestigen" />
		<tag k="natural" v="slope" />
		<tag k="place" v="locality" />
		<tag k="ssr:stedsnr" v="487405" />
	</node>
	<node lat="59.45990832994181" lon="8.184113891923808" id="-29318">
		<tag k="alt_name" v="Røyhusmidnuten" />
		<tag k="fixme" v="consider natural=peak for the most distinct mountains in the district" />
		<tag k="name" v="Røyulfsminne" />
		<tag k="natural" v="hill" />
		<tag k="place" v="locality" />
		<tag k="ssr:stedsnr" v="487406" />
	</node>
	<node lat="59.388974999657606" lon="8.105844449362701" id="-29319">
		<tag k="alt_name" v="Trollurdnuten" />
		<tag k="fixme" v="consider natural=peak for the most distinct mountains in the district" />
		<tag k="name" v="Trollurnuten" />
		<tag k="natural" v="hill" />
		<tag k="place" v="locality" />
		<tag k="ssr:stedsnr" v="487506" />
	</node>
	<node lat="59.55404166908821" lon="8.333733341092213" id="-29332">
		<tag k="alt_name" v="Trolltjørnnuten" />
		<tag k="fixme" v="consider natural=peak for the most distinct mountains in the district" />
		<tag k="name" v="Trolltjønnuten" />
		<tag k="natural" v="hill" />
		<tag k="place" v="locality" />
		<tag k="ssr:stedsnr" v="488406" />
	</node>
	<node lat="59.56427777479529" lon="8.295011118644958" id="-29335">
		<tag k="fixme" v="consider natural=peak for the most distinct mountains in the district" />
		<tag k="name" v="Tullaren" />
		<tag k="natural" v="hill" />
		<tag k="place" v="locality" />
		<tag k="ssr:stedsnr" v="488434" />
	</node>
	<node lat="59.424108335961165" lon="8.253849997210967" id="-29340">
		<tag k="fixme" v="consider natural=peak for the most distinct mountains in the district" />
		<tag k="name" v="Hundstøylnuten" />
		<tag k="natural" v="hill" />
		<tag k="place" v="locality" />
		<tag k="ssr:stedsnr" v="488467" />
	</node>
	<node lat="59.567541664351964" lon="7.574644436469829" id="-29347">
		<tag k="fixme" v="consider natural=peak for the most distinct mountains in the district" />
		<tag k="name" v="Brekkekollane" />
		<tag k="natural" v="hill" />
		<tag k="place" v="locality" />
		<tag k="ssr:stedsnr" v="488743" />
	</node>
	<node lat="59.38301944770854" lon="8.069227779330248" id="-29352">
		<tag k="name" v="Grindeskar" />
		<tag k="natural" v="valley" />
		<tag k="place" v="locality" />
		<tag k="ssr:stedsnr" v="509220" />
	</node>
	<node lat="59.431463887377454" lon="8.152536108328759" id="-29355">
		<tag k="name" v="Holten" />
		<tag k="place" v="locality" />
		<tag k="ssr:stedsnr" v="509326" />
	</node>
	<node lat="59.463736110556354" lon="8.129613887082304" id="-29358">
		<tag k="name" v="Flatlandnuten" />
		<tag k="place" v="locality" />
		<tag k="ssr:stedsnr" v="509969" />
	</node>
	<node lat="59.483394442512825" lon="8.223466668242418" id="-29361">
		<tag k="name" v="Lakstjønnbakkane" />
		<tag k="natural" v="slope" />
		<tag k="place" v="locality" />
		<tag k="ssr:stedsnr" v="510466" />
	</node>
	<node lat="59.450255551972056" lon="8.193605559015737" id="-29362">
		<tag k="name" v="Storkasin" />
		<tag k="natural" v="slope" />
		<tag k="place" v="locality" />
		<tag k="ssr:stedsnr" v="510564" />
	</node>
	<node lat="59.4626022260022" lon="8.06250648691233" id="-29364">
		<tag k="name" v="Kolabotnane" />
		<tag k="natural" v="valley" />
		<tag k="place" v="locality" />
		<tag k="ssr:stedsnr" v="510604" />
	</node>
	<node lat="59.54907777329792" lon="8.010363885545393" id="-29366">
		<tag k="name" v="Kvennhusdalen" />
		<tag k="natural" v="valley" />
		<tag k="place" v="locality" />
		<tag k="ssr:stedsnr" v="513032" />
	</node>
	<node lat="59.57232499914522" lon="7.684508325242051" id="-29367">
		<tag k="name" v="Hommo" />
		<tag k="natural" v="slope" />
		<tag k="place" v="locality" />
		<tag k="ssr:stedsnr" v="513120" />
	</node>
	<node lat="59.531055552432306" lon="8.035216666629037" id="-29369">
		<tag k="name" v="Gobjørgstøyldalen" />
		<tag k="natural" v="valley" />
		<tag k="place" v="locality" />
		<tag k="ssr:stedsnr" v="513226" />
	</node>
</osm>
