<?xml version="1.0" encoding="UTF-8"?>
<osm version="0.6" generator="osmapis">
	<node lat="59.47908055596908" lon="8.13618333773646" id="-28367">
		<tag k="name" v="Lauvkvålen" />
		<tag k="place" v="farm" />
		<tag k="ssr:stedsnr" v="2427" />
	</node>
	<node lat="59.40396944631452" lon="8.102974998616205" id="-28370">
		<tag k="historic" v="shieling" />
		<tag k="name" v="Hovdestøyl" />
		<tag k="place" v="isolated_dwelling" />
		<tag k="ssr:stedsnr" v="2482" />
	</node>
	<node lat="59.509999205559694" lon="8.000259202900839" id="-28374">
		<tag k="alt_name" v="Vildalen" />
		<tag k="name" v="Villdalen" />
		<tag k="place" v="locality" />
		<tag k="ssr:stedsnr" v="3022" />
	</node>
	<node lat="59.527599996106176" lon="7.8698750077958355" id="-28375">
		<tag k="alt_name" v="Flotte" />
		<tag k="historic" v="shieling" />
		<tag k="name" v="Floti" />
		<tag k="place" v="isolated_dwelling" />
		<tag k="ssr:stedsnr" v="3041" />
	</node>
	<node lat="59.43534721998945" lon="8.02064166332418" id="-28377">
		<tag k="alt_name" v="Brattestå" />
		<tag k="name" v="Brattestod" />
		<tag k="place" v="farm" />
		<tag k="ssr:stedsnr" v="2774" />
	</node>
	<node lat="59.429938888655364" lon="7.985699999196608" id="-28378">
		<tag k="alt_name" v="Dølen" />
		<tag k="fixme" v="consider place=hamlet" />
		<tag k="name" v="Døli" />
		<tag k="old_name" v="Døle" />
		<tag k="place" v="farm" />
		<tag k="ssr:stedsnr" v="2776" />
	</node>
	<node lat="59.56505555223286" lon="7.769072230635289" id="-28380">
		<tag k="name" v="Myklestøyl" />
		<tag k="old_name" v="Myklestøl" />
		<tag k="place" v="isolated_dwelling" />
		<tag k="ssr:stedsnr" v="3110" />
	</node>
	<node lat="59.50990555107744" lon="8.176677772891574" id="-28384">
		<tag k="alt_name" v="Breidland;Breiland sud" />
		<tag k="fixme" v="consider place=hamlet" />
		<tag k="name" v="Breiland" />
		<tag k="place" v="farm" />
		<tag k="ssr:stedsnr" v="4106" />
	</node>
	<node lat="59.4972138929199" lon="8.183447226224608" id="-28385">
		<tag k="name" v="Bukti" />
		<tag k="place" v="isolated_dwelling" />
		<tag k="ssr:stedsnr" v="231011" />
	</node>
	<node lat="59.50180832948885" lon="8.052636106491443" id="-28387">
		<tag k="historic" v="shieling" />
		<tag k="name" v="Augondalen" />
		<tag k="place" v="isolated_dwelling" />
		<tag k="ssr:stedsnr" v="231213" />
	</node>
	<node lat="59.49710277912231" lon="8.149925004402544" id="-28388">
		<tag k="name" v="Torjushovden" />
		<tag k="place" v="locality" />
		<tag k="ssr:stedsnr" v="231063" />
	</node>
	<node lat="59.5296527785026" lon="8.188038880749822" id="-28393">
		<tag k="name" v="Slirmyr" />
		<tag k="place" v="locality" />
		<tag k="ssr:stedsnr" v="232442" />
	</node>
	<node lat="59.502191665788644" lon="8.314397215610523" id="-28398">
		<tag k="name" v="Høgli øvre" />
		<tag k="place" v="isolated_dwelling" />
		<tag k="ssr:stedsnr" v="232073" />
	</node>
	<node lat="59.41373611240019" lon="8.157608335119543" id="-28402">
		<tag k="name" v="Oppigard Haugeholmen" />
		<tag k="place" v="farm" />
		<tag k="ssr:stedsnr" v="24282" />
	</node>
	<node lat="59.45758055490091" lon="8.15974166824046" id="-28405">
		<tag k="historic" v="shieling" />
		<tag k="name" v="Norjordet" />
		<tag k="place" v="isolated_dwelling" />
		<tag k="ssr:stedsnr" v="24597" />
	</node>
	<node lat="59.47032778180349" lon="8.212999998195205" id="-28406">
		<tag k="name" v="Eilefstjønnhytta" />
		<tag k="place" v="isolated_dwelling" />
		<tag k="ssr:stedsnr" v="24493" />
	</node>
	<node lat="59.48724444230509" lon="8.309241673952691" id="-28410">
		<tag k="name" v="Brattrud" />
		<tag k="place" v="locality" />
		<tag k="ssr:stedsnr" v="25309" />
	</node>
	<node lat="59.41860277367776" lon="8.134905558771562" id="-28411">
		<tag k="name" v="Lauvvik søndre" />
		<tag k="place" v="farm" />
		<tag k="ssr:stedsnr" v="25324" />
	</node>
	<node lat="59.45272384301815" lon="8.093015560652288" id="-28412">
		<tag k="historic" v="shieling" />
		<tag k="name" v="Steinsmyr" />
		<tag k="place" v="isolated_dwelling" />
		<tag k="ssr:stedsnr" v="25574" />
	</node>
	<node lat="59.47988055402091" lon="7.938594436040568" id="-28418">
		<tag k="name" v="Lurås" />
		<tag k="place" v="locality" />
		<tag k="ssr:stedsnr" v="27083" />
	</node>
	<node lat="59.35790555300078" lon="8.14613888829448" id="-28419">
		<tag k="name" v="Råmundkilen" />
		<tag k="place" v="locality" />
		<tag k="ssr:stedsnr" v="27232" />
	</node>
	<node lat="59.47293333046458" lon="8.043441658409156" id="-28423">
		<tag k="historic" v="shieling" />
		<tag k="name" v="Jarandsdalen" />
		<tag k="place" v="isolated_dwelling" />
		<tag k="ssr:stedsnr" v="27777" />
	</node>
	<node lat="59.474472224413326" lon="8.024755553182159" id="-28424">
		<tag k="historic" v="shieling" />
		<tag k="name" v="Stuppen" />
		<tag k="place" v="isolated_dwelling" />
		<tag k="ssr:stedsnr" v="27780" />
	</node>
	<node lat="59.46215833570472" lon="8.030619452260137" id="-28427">
		<tag k="name" v="Reinstog" />
		<tag k="place" v="farm" />
		<tag k="ssr:stedsnr" v="27920" />
	</node>
	<node lat="59.46131111047617" lon="8.022530562041549" id="-28428">
		<tag k="name" v="Vrengen" />
		<tag k="place" v="farm" />
		<tag k="ssr:stedsnr" v="27923" />
	</node>
	<node lat="59.56754166382625" lon="7.764641665936446" id="-28430">
		<tag k="historic" v="shieling" />
		<tag k="name" v="Nøru" />
		<tag k="place" v="isolated_dwelling" />
		<tag k="ssr:stedsnr" v="28073" />
	</node>
	<node lat="59.55892777451042" lon="7.8038888859380835" id="-28431">
		<tag k="name" v="Odbø" />
		<tag k="place" v="farm" />
		<tag k="ssr:stedsnr" v="28082" />
	</node>
	<node lat="59.47445000341582" lon="7.858611105025724" id="-28433">
		<tag k="historic" v="shieling" />
		<tag k="name" v="Juvland" />
		<tag k="place" v="isolated_dwelling" />
		<tag k="ssr:stedsnr" v="44376" />
	</node>
	<node lat="59.45536388624969" lon="7.849163882676072" id="-28437">
		<tag k="name" v="Haugebakk" />
		<tag k="place" v="farm" />
		<tag k="ssr:stedsnr" v="45421" />
	</node>
	<node lat="59.38559444185622" lon="7.945483324706789" id="-28438">
		<tag k="historic" v="shieling" />
		<tag k="name" v="Sotemolie" />
		<tag k="place" v="isolated_dwelling" />
		<tag k="ssr:stedsnr" v="45508" />
	</node>
	<node lat="59.438286115425534" lon="7.714274996672948" id="-28441">
		<tag k="name" v="Fjøllstøyl" />
		<tag k="place" v="locality" />
		<tag k="ssr:stedsnr" v="45627" />
	</node>
	<node lat="59.44341388930398" lon="7.9328805562411775" id="-28453">
		<tag k="name" v="Fentefloti" />
		<tag k="place" v="locality" />
		<tag k="ssr:stedsnr" v="46778" />
	</node>
	<node lat="59.44315833681056" lon="7.9016333307846" id="-28454">
		<tag k="historic" v="shieling" />
		<tag k="name" v="Øystøylane" />
		<tag k="place" v="isolated_dwelling" />
		<tag k="ssr:stedsnr" v="46781" />
	</node>
	<node lat="59.3763805593328" lon="7.947413887028656" id="-28459">
		<tag k="historic" v="shieling" />
		<tag k="name" v="Nipane" />
		<tag k="place" v="isolated_dwelling" />
		<tag k="ssr:stedsnr" v="46978" />
	</node>
	<node lat="59.502622221337475" lon="8.210130547628484" id="-28462">
		<tag k="name" v="Nystøyl" />
		<tag k="place" v="locality" />
		<tag k="ssr:stedsnr" v="49119" />
	</node>
	<node lat="59.54977499567315" lon="8.21147222008746" id="-28463">
		<tag k="name" v="Stoplestoga" />
		<tag k="place" v="locality" />
		<tag k="ssr:stedsnr" v="49574" />
	</node>
	<node lat="59.50848055715841" lon="8.307883336250203" id="-28465">
		<tag k="name" v="Skoftedalen" />
		<tag k="place" v="farm" />
		<tag k="ssr:stedsnr" v="50082" />
	</node>
	<node lat="59.502266668228934" lon="7.767730562394661" id="-28466">
		<tag k="historic" v="shieling" />
		<tag k="name" v="Rui" />
		<tag k="place" v="isolated_dwelling" />
		<tag k="ssr:stedsnr" v="63014" />
	</node>
	<node lat="59.506742845860664" lon="8.004817411147243" id="-28467">
		<tag k="name" v="Våland" />
		<tag k="old_name" v="Vålane" />
		<tag k="place" v="locality" />
		<tag k="ssr:stedsnr" v="63016" />
	</node>
	<node lat="59.56221944195758" lon="7.796988884866256" id="-28468">
		<tag k="name" v="Plassen" />
		<tag k="place" v="farm" />
		<tag k="ssr:stedsnr" v="63107" />
	</node>
	<node lat="59.5671055515279" lon="7.807688895770378" id="-28469">
		<tag k="fixme" v="consider place=hamlet" />
		<tag k="name" v="Midbø" />
		<tag k="place" v="farm" />
		<tag k="ssr:stedsnr" v="63108" />
	</node>
	<node lat="59.56361666659445" lon="7.803524994743884" id="-28470">
		<tag k="name" v="Nordjordet" />
		<tag k="place" v="farm" />
		<tag k="ssr:stedsnr" v="63110" />
	</node>
	<node lat="59.446025003129115" lon="8.129941673767215" id="-28473">
		<tag k="name" v="Landsverk" />
		<tag k="place" v="farm" />
		<tag k="ssr:stedsnr" v="63414" />
	</node>
	<node lat="59.50531111230933" lon="8.200811107419527" id="-28479">
		<tag k="fixme" v="consider place=hamlet" />
		<tag k="name" v="Sopanstad" />
		<tag k="place" v="farm" />
		<tag k="ssr:stedsnr" v="63568" />
	</node>
	<node lat="59.42813333667824" lon="8.086544447884995" id="-28482">
		<tag k="alt_name" v="Barskår" />
		<tag k="fixme" v="consider place=hamlet" />
		<tag k="name" v="Barskor" />
		<tag k="place" v="farm" />
		<tag k="ssr:stedsnr" v="63777" />
	</node>
	<node lat="59.42921667000151" lon="8.002913885870921" id="-28483">
		<tag k="name" v="Holtebru" />
		<tag k="place" v="hamlet" />
		<tag k="ssr:stedsnr" v="63782" />
	</node>
	<node lat="59.53004999753562" lon="7.846888883435886" id="-28484">
		<tag k="name" v="Nystøyl" />
		<tag k="old_name" v="Nystøl" />
		<tag k="place" v="isolated_dwelling" />
		<tag k="ssr:stedsnr" v="64044" />
	</node>
	<node lat="59.508969443438666" lon="8.200405562775973" id="-28485">
		<tag k="name" v="Ofteli" />
		<tag k="place" v="farm" />
		<tag k="ssr:stedsnr" v="64505" />
	</node>
	<node lat="59.51026388909024" lon="8.199950001972516" id="-28486">
		<tag k="name" v="Århus" />
		<tag k="place" v="farm" />
		<tag k="ssr:stedsnr" v="64507" />
	</node>
	<node lat="59.518441663110366" lon="8.301552774746993" id="-28487">
		<tag k="historic" v="shieling" />
		<tag k="name" v="Røynstøyl" />
		<tag k="place" v="isolated_dwelling" />
		<tag k="ssr:stedsnr" v="64519" />
	</node>
	<node lat="59.51949721961999" lon="8.264205564071993" id="-28488">
		<tag k="alt_name" v="Haugestøl" />
		<tag k="fixme" v="consider place=hamlet" />
		<tag k="name" v="Haugestøyl" />
		<tag k="place" v="farm" />
		<tag k="ssr:stedsnr" v="64525" />
	</node>
	<node lat="59.44404167063945" lon="8.158669448765805" id="-28494">
		<tag k="name" v="Heimdal" />
		<tag k="place" v="farm" />
		<tag k="ssr:stedsnr" v="85190" />
	</node>
	<node lat="59.44547500232805" lon="8.17299167074652" id="-28496">
		<tag k="amenity" v="nursing_home" />
		<tag k="name" v="Kvileheim" />
		<tag k="ssr:stedsnr" v="85488" />
	</node>
	<node lat="59.46162777768269" lon="8.24902222412963" id="-28503">
		<tag k="historic" v="shieling" />
		<tag k="name" v="Røynstøyl" />
		<tag k="place" v="isolated_dwelling" />
		<tag k="ssr:stedsnr" v="85573" />
	</node>
	<node lat="59.37232221898785" lon="8.19419445218975" id="-28508">
		<tag k="name" v="Oppigard Paradis" />
		<tag k="place" v="locality" />
		<tag k="ssr:stedsnr" v="85904" />
	</node>
	<node lat="59.47979444320316" lon="8.190666665351031" id="-28509">
		<tag k="name" v="Espeli" />
		<tag k="place" v="farm" />
		<tag k="ssr:stedsnr" v="245401" />
	</node>
	<node lat="59.43889444082454" lon="8.166724994724586" id="-28513">
		<tag k="name" v="Bjørndalen" />
		<tag k="place" v="locality" />
		<tag k="ssr:stedsnr" v="86285" />
	</node>
	<node lat="59.42306666259831" lon="8.181361117047526" id="-28516">
		<tag k="name" v="Eik prestegard" />
		<tag k="place" v="farm" />
		<tag k="ssr:stedsnr" v="86477" />
	</node>
	<node lat="59.40410555305471" lon="8.104152779582808" id="-28523">
		<tag k="name" v="Hovdestøyl" />
		<tag k="place" v="locality" />
		<tag k="ssr:stedsnr" v="87429" />
	</node>
	<node lat="59.34496666580985" lon="7.6270111134942065" id="-28524">
		<tag k="name" v="Kjønnesviki" />
		<tag k="place" v="isolated_dwelling" />
		<tag k="ssr:stedsnr" v="245527" />
	</node>
	<node lat="59.422647223371754" lon="7.902633329073147" id="-28527">
		<tag k="name" v="Gjestløys" />
		<tag k="old_name" v="Gjessløys" />
		<tag k="place" v="isolated_dwelling" />
		<tag k="ssr:stedsnr" v="245765" />
	</node>
	<node lat="59.419636115078774" lon="7.971372213400746" id="-28535">
		<tag k="name" v="Lyngstad" />
		<tag k="place" v="farm" />
		<tag k="ssr:stedsnr" v="245763" />
	</node>
	<node lat="59.45069722207434" lon="8.016808340443013" id="-28536">
		<tag k="alt_name" v="Kleive" />
		<tag k="name" v="Kleivi" />
		<tag k="place" v="isolated_dwelling" />
		<tag k="ssr:stedsnr" v="245826" />
	</node>
	<node lat="59.47529721882414" lon="7.908880549326436" id="-28538">
		<tag k="name" v="Jordet" />
		<tag k="place" v="farm" />
		<tag k="ssr:stedsnr" v="245835" />
	</node>
	<node lat="59.4328972220234" lon="8.060386108516136" id="-28542">
		<tag k="alt_name" v="Tveiten" />
		<tag k="name" v="Barskortveiten" />
		<tag k="place" v="farm" />
		<tag k="ssr:stedsnr" v="245774" />
	</node>
	<node lat="59.41580555833535" lon="8.026013885780452" id="-28543">
		<tag k="name" v="Røyrtveit" />
		<tag k="place" v="farm" />
		<tag k="ssr:stedsnr" v="245782" />
	</node>
	<node lat="59.439097224575136" lon="7.8294666710043375" id="-28545">
		<tag k="name" v="Kallbast" />
		<tag k="place" v="farm" />
		<tag k="ssr:stedsnr" v="245798" />
	</node>
	<node lat="59.498930559277696" lon="8.198152770648136" id="-28547">
		<tag k="fixme" v="consider place=suburb, village or hamlet" />
		<tag k="name" v="Ofte" />
		<tag k="place" v="quarter" />
		<tag k="ssr:stedsnr" v="245872" />
	</node>
	<node lat="59.47242499731261" lon="8.077102783365786" id="-28550">
		<tag k="name" v="Nordheim" />
		<tag k="place" v="farm" />
		<tag k="ssr:stedsnr" v="245845" />
	</node>
	<node lat="59.46776388453064" lon="8.024677783252825" id="-28551">
		<tag k="name" v="Vegheim" />
		<tag k="place" v="isolated_dwelling" />
		<tag k="ssr:stedsnr" v="88769" />
	</node>
	<node lat="59.44566666385061" lon="7.962563884690411" id="-28553">
		<tag k="name" v="Eikland" />
		<tag k="place" v="farm" />
		<tag k="ssr:stedsnr" v="88967" />
	</node>
	<node lat="59.52442132229938" lon="7.872862401150095" id="-28556">
		<tag k="name" v="Vassenden" />
		<tag k="place" v="locality" />
		<tag k="ssr:stedsnr" v="246046" />
	</node>
	<node lat="59.531308332928056" lon="8.006986117650522" id="-28557">
		<tag k="name" v="Kasine" />
		<tag k="place" v="farm" />
		<tag k="ssr:stedsnr" v="246051" />
	</node>
	<node lat="59.43472500281521" lon="7.898336105534479" id="-28570">
		<tag k="name" v="Dalastøyl" />
		<tag k="place" v="locality" />
		<tag k="ssr:stedsnr" v="106088" />
	</node>
	<node lat="59.47664444058478" lon="7.902102783348644" id="-28572">
		<tag k="name" v="Glettenberg" />
		<tag k="place" v="locality" />
		<tag k="ssr:stedsnr" v="106286" />
	</node>
	<node lat="59.48170277892371" lon="7.850227774076494" id="-28579">
		<tag k="name" v="Moen" />
		<tag k="place" v="farm" />
		<tag k="ssr:stedsnr" v="106488" />
	</node>
	<node lat="59.42789722652661" lon="7.916530554285443" id="-28589">
		<tag k="historic" v="shieling" />
		<tag k="name" v="Skitrenn" />
		<tag k="place" v="isolated_dwelling" />
		<tag k="ssr:stedsnr" v="107870" />
	</node>
	<node lat="59.48949166621837" lon="7.794674994208628" id="-28591">
		<tag k="historic" v="shieling" />
		<tag k="name" v="Listøyl" />
		<tag k="place" v="isolated_dwelling" />
		<tag k="ssr:stedsnr" v="107874" />
	</node>
	<node lat="59.422891670974" lon="7.8882722254627415" id="-28593">
		<tag k="historic" v="shieling" />
		<tag k="name" v="Torstøyl-vesle" />
		<tag k="place" v="isolated_dwelling" />
		<tag k="ssr:stedsnr" v="107884" />
	</node>
	<node lat="59.50083611393689" lon="8.174016661388116" id="-28595">
		<tag k="name" v="Tangvald" />
		<tag k="place" v="locality" />
		<tag k="ssr:stedsnr" v="110009" />
	</node>
	<node lat="59.4900249987229" lon="8.272627779542152" id="-28604">
		<tag k="name" v="Undeberg" />
		<tag k="place" v="isolated_dwelling" />
		<tag k="ssr:stedsnr" v="111091" />
	</node>
	<node lat="59.501063892283895" lon="8.24979445008047" id="-28607">
		<tag k="name" v="Staulen" />
		<tag k="place" v="locality" />
		<tag k="ssr:stedsnr" v="111822" />
	</node>
	<node lat="59.438402774130225" lon="8.178816664815518" id="-28610">
		<tag k="alt_name" v="Tveito nordistog" />
		<tag k="fixme" v="consider place=hamlet" />
		<tag k="name" v="Tveito" />
		<tag k="place" v="farm" />
		<tag k="ssr:stedsnr" v="123524" />
	</node>
	<node lat="59.44238333660852" lon="8.276933336649375" id="-28611">
		<tag k="alt_name" v="Kyrvestøylen;Kyrvestøyl øvre" />
		<tag k="historic" v="shieling" />
		<tag k="name" v="Øvre Kyrvestøyl" />
		<tag k="place" v="isolated_dwelling" />
		<tag k="ssr:stedsnr" v="123525" />
	</node>
	<node lat="59.39708016581566" lon="7.784523098047875" id="-28615">
		<tag k="name" v="Hovden" />
		<tag k="place" v="locality" />
		<tag k="ssr:stedsnr" v="123803" />
	</node>
	<node lat="59.44219999717988" lon="7.820577785136858" id="-28618">
		<tag k="name" v="Sigurdsli" />
		<tag k="place" v="farm" />
		<tag k="ssr:stedsnr" v="123815" />
	</node>
	<node lat="59.50364166402852" lon="7.761355550237196" id="-28619">
		<tag k="historic" v="shieling" />
		<tag k="name" v="Garden" />
		<tag k="place" v="isolated_dwelling" />
		<tag k="ssr:stedsnr" v="124009" />
	</node>
	<node lat="59.56574444203835" lon="7.7629583367813515" id="-28621">
		<tag k="name" v="Ruslebekk" />
		<tag k="place" v="locality" />
		<tag k="ssr:stedsnr" v="124111" />
	</node>
	<node lat="59.536133336655126" lon="8.249811105439065" id="-28623">
		<tag k="historic" v="shieling" />
		<tag k="name" v="Fjellstøyl" />
		<tag k="place" v="isolated_dwelling" />
		<tag k="ssr:stedsnr" v="124325" />
	</node>
	<node lat="59.5485527755787" lon="8.088750006129176" id="-28624">
		<tag k="historic" v="shieling" />
		<tag k="name" v="Galtedalen" />
		<tag k="place" v="isolated_dwelling" />
		<tag k="ssr:stedsnr" v="124057" />
	</node>
	<node lat="59.53882499800477" lon="7.739480558710679" id="-28625">
		<tag k="name" v="Vierroi" />
		<tag k="place" v="isolated_dwelling" />
		<tag k="ssr:stedsnr" v="124058" />
	</node>
	<node lat="59.40653333322959" lon="7.9705083280914115" id="-28628">
		<tag k="name" v="Heggard" />
		<tag k="place" v="farm" />
		<tag k="ssr:stedsnr" v="124711" />
	</node>
	<node lat="59.56743611129814" lon="7.810622215318053" id="-28630">
		<tag k="name" v="Nordstog" />
		<tag k="place" v="farm" />
		<tag k="ssr:stedsnr" v="124918" />
	</node>
	<node lat="59.401799995808716" lon="8.175294445265076" id="-28632">
		<tag k="name" v="Bergan" />
		<tag k="place" v="isolated_dwelling" />
		<tag k="ssr:stedsnr" v="145686" />
	</node>
	<node lat="59.46536111304191" lon="8.169177780860405" id="-28635">
		<tag k="name" v="Vigeland" />
		<tag k="place" v="locality" />
		<tag k="ssr:stedsnr" v="145577" />
	</node>
	<node lat="59.39389721840393" lon="8.162830553928664" id="-28637">
		<tag k="name" v="Holtan" />
		<tag k="place" v="isolated_dwelling" />
		<tag k="ssr:stedsnr" v="145769" />
	</node>
	<node lat="59.38972777611363" lon="8.118880560748028" id="-28638">
		<tag k="name" v="Tippreid" />
		<tag k="place" v="locality" />
		<tag k="ssr:stedsnr" v="146075" />
	</node>
	<node lat="59.43301110818533" lon="8.199730558542711" id="-28643">
		<tag k="name" v="Taddesæ" />
		<tag k="place" v="farm" />
		<tag k="ssr:stedsnr" v="147273" />
	</node>
	<node lat="59.471966667610694" lon="7.849688892094986" id="-28654">
		<tag k="fixme" v="consider place=hamlet" />
		<tag k="name" v="Rykkeli" />
		<tag k="place" v="farm" />
		<tag k="ssr:stedsnr" v="148171" />
	</node>
	<node lat="59.43399444133747" lon="7.997016660834281" id="-28657">
		<tag k="name" v="Hommane" />
		<tag k="place" v="farm" />
		<tag k="ssr:stedsnr" v="148910" />
	</node>
	<node lat="59.42498610670124" lon="7.994705553008134" id="-28658">
		<tag k="name" v="Kleive Burtistog" />
		<tag k="place" v="farm" />
		<tag k="ssr:stedsnr" v="148912" />
	</node>
	<node lat="59.446594443498924" lon="7.9456472234919575" id="-28661">
		<tag k="name" v="Bruher" />
		<tag k="place" v="locality" />
		<tag k="ssr:stedsnr" v="148966" />
	</node>
	<node lat="59.40725277408654" lon="8.022858327178412" id="-28662">
		<tag k="name" v="Seltveit nedre" />
		<tag k="place" v="farm" />
		<tag k="ssr:stedsnr" v="148975" />
	</node>
	<node lat="59.43937777722643" lon="7.733111119702231" id="-28666">
		<tag k="historic" v="shieling" />
		<tag k="name" v="Veslehomstjønn" />
		<tag k="place" v="isolated_dwelling" />
		<tag k="ssr:stedsnr" v="166646" />
	</node>
	<node lat="59.502247218883795" lon="7.859252785114982" id="-28675">
		<tag k="historic" v="shieling" />
		<tag k="name" v="Lauvstøyl" />
		<tag k="place" v="isolated_dwelling" />
		<tag k="ssr:stedsnr" v="167864" />
	</node>
	<node lat="59.43070833713166" lon="7.93187223049362" id="-28682">
		<tag k="historic" v="shieling" />
		<tag k="name" v="Heibøstøylane" />
		<tag k="place" v="isolated_dwelling" />
		<tag k="ssr:stedsnr" v="168863" />
	</node>
	<node lat="59.50119167030489" lon="8.16700278344599" id="-28685">
		<tag k="name" v="Vikaroe" />
		<tag k="place" v="locality" />
		<tag k="ssr:stedsnr" v="171004" />
	</node>
	<node lat="59.510541663976824" lon="8.200375004221018" id="-28688">
		<tag k="name" v="Ofteli nordre" />
		<tag k="place" v="farm" />
		<tag k="ssr:stedsnr" v="171271" />
	</node>
	<node lat="59.48267777755911" lon="8.05155832731397" id="-28690">
		<tag k="name" v="Jarfodde" />
		<tag k="place" v="locality" />
		<tag k="ssr:stedsnr" v="171458" />
	</node>
	<node lat="59.53994999785361" lon="8.193988884957742" id="-28691">
		<tag k="historic" v="shieling" />
		<tag k="name" v="Lomstøyl" />
		<tag k="place" v="isolated_dwelling" />
		<tag k="ssr:stedsnr" v="171659" />
	</node>
	<node lat="59.47749444363242" lon="8.207899992061542" id="-28694">
		<tag k="alt_name" v="Kyrdalen" />
		<tag k="name" v="Kyrdal" />
		<tag k="place" v="locality" />
		<tag k="ssr:stedsnr" v="184438" />
	</node>
	<node lat="59.42100000274319" lon="8.02047499945415" id="-28695">
		<tag k="alt_name" v="Bilstad, midtre;Bilstad Hemigard" />
		<tag k="name" v="Midtre Bilstad" />
		<tag k="place" v="farm" />
		<tag k="ssr:stedsnr" v="184791" />
	</node>
	<node lat="59.474225004126446" lon="7.941816666226989" id="-28696">
		<tag k="name" v="Skålen" />
		<tag k="place" v="farm" />
		<tag k="ssr:stedsnr" v="184817" />
	</node>
	<node lat="59.45795000386492" lon="7.801175007377775" id="-28698">
		<tag k="name" v="Kvålen" />
		<tag k="place" v="farm" />
		<tag k="ssr:stedsnr" v="184836" />
	</node>
	<node lat="59.559258329368106" lon="8.228330553282213" id="-28702">
		<tag k="historic" v="shieling" />
		<tag k="name" v="Roheim" />
		<tag k="place" v="isolated_dwelling" />
		<tag k="ssr:stedsnr" v="185385" />
	</node>
	<node lat="59.484441664920865" lon="8.1844083396756" id="-28707">
		<tag k="name" v="Bekkhus" />
		<tag k="place" v="locality" />
		<tag k="ssr:stedsnr" v="266524" />
	</node>
	<node lat="59.40242221784708" lon="8.201838895457305" id="-28712">
		<tag k="name" v="Slampekåsi" />
		<tag k="place" v="isolated_dwelling" />
		<tag k="ssr:stedsnr" v="267664" />
	</node>
	<node lat="59.39390833704286" lon="8.240447229440115" id="-28714">
		<tag k="historic" v="shieling" />
		<tag k="name" v="Storli" />
		<tag k="place" v="isolated_dwelling" />
		<tag k="ssr:stedsnr" v="267846" />
	</node>
	<node lat="59.3887527752016" lon="8.157602782175035" id="-28720">
		<tag k="name" v="Sjåheim" />
		<tag k="place" v="isolated_dwelling" />
		<tag k="ssr:stedsnr" v="268175" />
	</node>
	<node lat="59.454188892123746" lon="8.1564166638466" id="-28725">
		<tag k="alt_name" v="Vestre Hegtveit" />
		<tag k="fixme" v="consider place=hamlet" />
		<tag k="name" v="Heggtveit vestre nordre" />
		<tag k="place" v="farm" />
		<tag k="ssr:stedsnr" v="268547" />
	</node>
	<node lat="59.38703055358591" lon="8.157525001024975" id="-28728">
		<tag k="name" v="Kvæven" />
		<tag k="place" v="isolated_dwelling" />
		<tag k="ssr:stedsnr" v="207116" />
	</node>
	<node lat="59.37996388908096" lon="8.157486104042821" id="-28729">
		<tag k="name" v="Solheim" />
		<tag k="place" v="isolated_dwelling" />
		<tag k="ssr:stedsnr" v="207119" />
	</node>
	<node lat="59.37871388879862" lon="8.060208324918515" id="-28731">
		<tag k="name" v="Napran" />
		<tag k="place" v="locality" />
		<tag k="ssr:stedsnr" v="207932" />
	</node>
	<node lat="59.540472220164425" lon="8.235811116968101" id="-28732">
		<tag k="name" v="Kjervingmoen" />
		<tag k="place" v="locality" />
		<tag k="ssr:stedsnr" v="208117" />
	</node>
	<node lat="59.39586666674368" lon="8.05581667076996" id="-28734">
		<tag k="name" v="Breilskåsi" />
		<tag k="place" v="locality" />
		<tag k="ssr:stedsnr" v="208201" />
	</node>
	<node lat="59.43288888473599" lon="8.167044438401325" id="-28736">
		<tag k="name" v="Kolberg" />
		<tag k="place" v="farm" />
		<tag k="ssr:stedsnr" v="208300" />
	</node>
	<node lat="59.40640833360193" lon="8.11432777033263" id="-28737">
		<tag k="name" v="Nystøyl" />
		<tag k="place" v="locality" />
		<tag k="ssr:stedsnr" v="208420" />
	</node>
	<node lat="59.53618332906789" lon="8.311333333109763" id="-28738">
		<tag k="historic" v="shieling" />
		<tag k="name" v="Kvisling" />
		<tag k="place" v="isolated_dwelling" />
		<tag k="ssr:stedsnr" v="208840" />
	</node>
	<node lat="59.377041668224464" lon="8.039630554992149" id="-28743">
		<tag k="name" v="Moen" />
		<tag k="place" v="farm" />
		<tag k="ssr:stedsnr" v="209094" />
	</node>
	<node lat="59.375891666039635" lon="8.025027785038912" id="-28744">
		<tag k="name" v="Dalen" />
		<tag k="place" v="farm" />
		<tag k="ssr:stedsnr" v="209096" />
	</node>
	<node lat="59.473908332882566" lon="7.942516660858729" id="-28745">
		<tag k="name" v="Utå-Skålen" />
		<tag k="place" v="farm" />
		<tag k="ssr:stedsnr" v="209099" />
	</node>
	<node lat="59.44542221954353" lon="8.148508329394465" id="-28751">
		<tag k="name" v="Ålandsli nedre" />
		<tag k="place" v="farm" />
		<tag k="ssr:stedsnr" v="269541" />
	</node>
	<node lat="59.471150001479565" lon="7.96871666176243" id="-28755">
		<tag k="historic" v="shieling" />
		<tag k="name" v="Visås-støylen" />
		<tag k="place" v="isolated_dwelling" />
		<tag k="ssr:stedsnr" v="270097" />
	</node>
	<node lat="59.4744472249808" lon="7.971961110850818" id="-28756">
		<tag k="name" v="Storli" />
		<tag k="place" v="locality" />
		<tag k="ssr:stedsnr" v="270099" />
	</node>
	<node lat="59.451294441058884" lon="8.012883336189446" id="-28764">
		<tag k="name" v="Rusmyr" />
		<tag k="place" v="locality" />
		<tag k="ssr:stedsnr" v="270919" />
	</node>
	<node lat="59.44572222113034" lon="8.001547220858306" id="-28765">
		<tag k="name" v="Bandakjordet" />
		<tag k="place" v="quarter" />
		<tag k="ssr:stedsnr" v="270920" />
	</node>
	<node lat="59.44262777634788" lon="7.987658339487661" id="-28766">
		<tag k="name" v="Dalstrøm" />
		<tag k="place" v="farm" />
		<tag k="ssr:stedsnr" v="270935" />
	</node>
	<node lat="59.44511944241861" lon="7.966116669545171" id="-28767">
		<tag k="name" v="Vistadhaugen" />
		<tag k="place" v="farm" />
		<tag k="ssr:stedsnr" v="270950" />
	</node>
	<node lat="59.448788889243865" lon="7.983625006905079" id="-28768">
		<tag k="name" v="Bekketun" />
		<tag k="place" v="isolated_dwelling" />
		<tag k="ssr:stedsnr" v="270960" />
	</node>
	<node lat="59.444574996106816" lon="7.947786118258262" id="-28769">
		<tag k="name" v="Gravhaug" />
		<tag k="place" v="farm" />
		<tag k="ssr:stedsnr" v="270970" />
	</node>
	<node lat="59.565905552688356" lon="7.806363884716262" id="-28770">
		<tag k="alt_name" v="Leirbrekke" />
		<tag k="fixme" v="consider place=hamlet" />
		<tag k="name" v="Leirbrekk" />
		<tag k="place" v="farm" />
		<tag k="ssr:stedsnr" v="271071" />
	</node>
	<node lat="59.484713889524045" lon="7.860719445460151" id="-28771">
		<tag k="alt_name" v="Nedre Håvteit" />
		<tag k="fixme" v="consider place=hamlet" />
		<tag k="name" v="Håtveit Nigard" />
		<tag k="place" v="farm" />
		<tag k="ssr:stedsnr" v="226437" />
	</node>
	<node lat="59.469422225772085" lon="7.911724999700709" id="-28776">
		<tag k="name" v="Berg" />
		<tag k="place" v="isolated_dwelling" />
		<tag k="ssr:stedsnr" v="227281" />
	</node>
	<node lat="59.47238888448557" lon="7.903227778612885" id="-28778">
		<tag k="historic" v="shieling" />
		<tag k="name" v="Deildeufs" />
		<tag k="place" v="isolated_dwelling" />
		<tag k="ssr:stedsnr" v="227294" />
	</node>
	<node lat="59.51219999559536" lon="7.770449997884928" id="-28787">
		<tag k="name" v="Bugaren" />
		<tag k="place" v="isolated_dwelling" />
		<tag k="ssr:stedsnr" v="271858" />
	</node>
	<node lat="59.50384444605723" lon="7.7305361131974175" id="-28790">
		<tag k="name" v="Ånovd" />
		<tag k="place" v="isolated_dwelling" />
		<tag k="ssr:stedsnr" v="227891" />
	</node>
	<node lat="59.49988888591815" lon="8.074674998691773" id="-28791">
		<tag k="alt_name" v="Leirgravli øvre" />
		<tag k="name" v="Leirgravli" />
		<tag k="place" v="isolated_dwelling" />
		<tag k="ssr:stedsnr" v="271865" />
	</node>
	<node lat="59.44499166941549" lon="7.890750002585651" id="-28798">
		<tag k="historic" v="shieling" />
		<tag k="name" v="Spillemannslii" />
		<tag k="place" v="isolated_dwelling" />
		<tag k="ssr:stedsnr" v="228806" />
	</node>
	<node lat="59.443224998806436" lon="7.848347226379951" id="-28800">
		<tag k="name" v="Runingen" />
		<tag k="place" v="locality" />
		<tag k="ssr:stedsnr" v="228839" />
	</node>
	<node lat="59.443591663777354" lon="7.909999996912274" id="-28804">
		<tag k="name" v="Osmundsdal" />
		<tag k="place" v="isolated_dwelling" />
		<tag k="ssr:stedsnr" v="228798" />
	</node>
	<node lat="59.56311111248064" lon="7.8133305633736105" id="-28805">
		<tag k="name" v="Nystog" />
		<tag k="place" v="isolated_dwelling" />
		<tag k="ssr:stedsnr" v="228935" />
	</node>
	<node lat="59.450438887250456" lon="7.922086119324889" id="-28807">
		<tag k="fixme" v="consider place=hamlet" />
		<tag k="name" v="Midjås søndre" />
		<tag k="place" v="farm" />
		<tag k="ssr:stedsnr" v="228996" />
	</node>
	<node lat="59.46930555638719" lon="8.165888889381918" id="-28809">
		<tag k="name" v="Myrbø" />
		<tag k="place" v="farm" />
		<tag k="ssr:stedsnr" v="449457" />
	</node>
	<node lat="59.473916664640605" lon="8.108258336060086" id="-28812">
		<tag k="name" v="Finneroe" />
		<tag k="place" v="locality" />
		<tag k="ssr:stedsnr" v="231038" />
	</node>
	<node lat="59.502475004146" lon="8.201213895086331" id="-28815">
		<tag k="name" v="Kollberg" />
		<tag k="place" v="isolated_dwelling" />
		<tag k="ssr:stedsnr" v="231100" />
	</node>
	<node lat="59.43785000202314" lon="8.180952773122778" id="-28832">
		<tag k="name" v="Tveito sudistog" />
		<tag k="place" v="farm" />
		<tag k="ssr:stedsnr" v="450260" />
	</node>
	<node lat="59.44669444869853" lon="8.14648888850252" id="-28837">
		<tag k="alt_name" v="Ålandsli" />
		<tag k="fixme" v="consider place=hamlet" />
		<tag k="name" v="Ålandsli øvre" />
		<tag k="place" v="farm" />
		<tag k="ssr:stedsnr" v="451541" />
	</node>
	<node lat="59.448991663538195" lon="8.141836119956599" id="-28838">
		<tag k="name" v="Fjødde" />
		<tag k="place" v="locality" />
		<tag k="ssr:stedsnr" v="451546" />
	</node>
	<node lat="59.36887777956838" lon="8.030738880161074" id="-28843">
		<tag k="name" v="Åmdal Heimistog" />
		<tag k="place" v="farm" />
		<tag k="ssr:stedsnr" v="452074" />
	</node>
	<node lat="59.51239166229871" lon="8.045316672526674" id="-28845">
		<tag k="historic" v="shieling" />
		<tag k="name" v="Kilen" />
		<tag k="place" v="isolated_dwelling" />
		<tag k="ssr:stedsnr" v="245010" />
	</node>
	<node lat="59.514702775482505" lon="7.996672228336894" id="-28846">
		<tag k="fixme" v="consider place=hamlet" />
		<tag k="name" v="Bratterud" />
		<tag k="place" v="farm" />
		<tag k="ssr:stedsnr" v="245012" />
	</node>
	<node lat="59.45744722663065" lon="7.754908326675399" id="-28848">
		<tag k="alt_name" v="Listøyl" />
		<tag k="historic" v="shieling" />
		<tag k="name" v="Nystøyl" />
		<tag k="place" v="isolated_dwelling" />
		<tag k="ssr:stedsnr" v="452160" />
	</node>
	<node lat="59.44475555258092" lon="8.191438883059883" id="-28850">
		<tag k="alt_name" v="Askje øvre" />
		<tag k="loc_name" v="Aske" />
		<tag k="name" v="Aske, øvre" />
		<tag k="place" v="farm" />
		<tag k="ssr:stedsnr" v="245375" />
	</node>
	<node lat="59.49708889209255" lon="8.070705549556353" id="-28851">
		<tag k="alt_name" v="Leirgravli nedre" />
		<tag k="name" v="Leirgravli" />
		<tag k="place" v="isolated_dwelling" />
		<tag k="ssr:stedsnr" v="245605" />
	</node>
	<node lat="59.48592222474446" lon="7.837258336333584" id="-28853">
		<tag k="fixme" v="consider place=hamlet" />
		<tag k="name" v="Ljostad" />
		<tag k="place" v="farm" />
		<tag k="ssr:stedsnr" v="245619" />
	</node>
	<node lat="59.48916110796457" lon="7.862733328296173" id="-28854">
		<tag k="name" v="Nordigard" />
		<tag k="place" v="farm" />
		<tag k="ssr:stedsnr" v="245628" />
	</node>
	<node lat="59.472480556249614" lon="8.224861118908516" id="-28859">
		<tag k="alt_name" v="Søndre Landsverk" />
		<tag k="name" v="Landsverk" />
		<tag k="place" v="locality" />
		<tag k="ssr:stedsnr" v="245405" />
	</node>
	<node lat="59.402436109981366" lon="8.121999995645432" id="-28861">
		<tag k="alt_name" v="Brunali" />
		<tag k="historic" v="shieling" />
		<tag k="name" v="Bronali" />
		<tag k="place" v="isolated_dwelling" />
		<tag k="ssr:stedsnr" v="245439" />
	</node>
	<node lat="59.43620833600455" lon="8.13641389460471" id="-28863">
		<tag k="alt_name" v="Haddedalane" />
		<tag k="historic" v="shieling" />
		<tag k="name" v="Heddedalen" />
		<tag k="place" v="isolated_dwelling" />
		<tag k="ssr:stedsnr" v="245452" />
	</node>
	<node lat="59.40631666526497" lon="8.010694436616395" id="-28866">
		<tag k="alt_name" v="Koldkjenn;Kolkjøn" />
		<tag k="fixme" v="consider place=hamlet" />
		<tag k="name" v="Koldkinn" />
		<tag k="place" v="farm" />
		<tag k="ssr:stedsnr" v="245732" />
	</node>
	<node lat="59.40433332947679" lon="8.004130560481496" id="-28867">
		<tag k="fixme" v="consider place=hamlet" />
		<tag k="name" v="Skafså" />
		<tag k="place" v="farm" />
		<tag k="ssr:stedsnr" v="245733" />
	</node>
	<node lat="59.375975002215725" lon="7.916488894314712" id="-28868">
		<tag k="name" v="Gausbu" />
		<tag k="place" v="isolated_dwelling" />
		<tag k="ssr:stedsnr" v="245739" />
	</node>
	<node lat="59.380358337748994" lon="8.007547225120392" id="-28869">
		<tag k="alt_name" v="Mule, øvre" />
		<tag k="name" v="Øvre Mule" />
		<tag k="place" v="farm" />
		<tag k="ssr:stedsnr" v="245740" />
	</node>
	<node lat="59.43395833353353" lon="7.930349999469627" id="-28871">
		<tag k="alt_name" v="Støgebustøylane" />
		<tag k="name" v="Stogebustøylane" />
		<tag k="old_name" v="Stogebustølane" />
		<tag k="place" v="isolated_dwelling" />
		<tag k="ssr:stedsnr" v="245816" />
	</node>
	<node lat="59.48403888740149" lon="8.12060554835456" id="-28872">
		<tag k="fixme" v="consider place=hamlet" />
		<tag k="name" v="Kvåle" />
		<tag k="place" v="farm" />
		<tag k="ssr:stedsnr" v="245894" />
	</node>
	<node lat="59.546377779542844" lon="8.208008328571147" id="-28874">
		<tag k="alt_name" v="Førstøl" />
		<tag k="fixme" v="consider place=hamlet" />
		<tag k="name" v="Førstøyl" />
		<tag k="place" v="farm" />
		<tag k="ssr:stedsnr" v="246402" />
	</node>
	<node lat="59.53823332936473" lon="8.279624996304253" id="-28876">
		<tag k="alt_name" v="Fjellet, nedre;Fjellet" />
		<tag k="name" v="Nigard Fjellet" />
		<tag k="place" v="farm" />
		<tag k="ssr:stedsnr" v="246369" />
	</node>
	<node lat="59.53816388475412" lon="8.268836104527832" id="-28877">
		<tag k="alt_name" v="Fjellet, nord" />
		<tag k="name" v="Nord Fjellet" />
		<tag k="place" v="farm" />
		<tag k="ssr:stedsnr" v="246370" />
	</node>
	<node lat="59.57008711714484" lon="7.739546594351793" id="-28883">
		<tag k="name" v="Glosli" />
		<tag k="place" v="locality" />
		<tag k="ssr:stedsnr" v="246911" />
	</node>
	<node lat="59.56991944206552" lon="7.813249992314544" id="-28884">
		<tag k="name" v="Austjordet" />
		<tag k="place" v="farm" />
		<tag k="ssr:stedsnr" v="246915" />
	</node>
	<node lat="59.52678333718978" lon="7.712424999978021" id="-28885">
		<tag k="name" v="Solberg" />
		<tag k="place" v="isolated_dwelling" />
		<tag k="ssr:stedsnr" v="246622" />
	</node>
	<node lat="59.464116663330856" lon="8.032708336164479" id="-28889">
		<tag k="fixme" v="consider place=hamlet" />
		<tag k="name" v="Lofthus øvre" />
		<tag k="place" v="farm" />
		<tag k="ssr:stedsnr" v="452932" />
	</node>
	<node lat="59.44924167007673" lon="7.993699996985658" id="-28890">
		<tag k="name" v="Huvestadvegen" />
		<tag k="place" v="quarter" />
		<tag k="ssr:stedsnr" v="452945" />
	</node>
	<node lat="59.380786111744854" lon="8.01285833202509" id="-28891">
		<tag k="name" v="Mule" />
		<tag k="place" v="farm" />
		<tag k="ssr:stedsnr" v="452960" />
	</node>
	<node lat="59.39388333394605" lon="8.031872229700047" id="-28892">
		<tag k="name" v="Nedrebø nordre" />
		<tag k="place" v="farm" />
		<tag k="ssr:stedsnr" v="452996" />
	</node>
	<node lat="59.56521111262224" lon="7.803666670852639" id="-28893">
		<tag k="name" v="Nevahaug" />
		<tag k="place" v="farm" />
		<tag k="ssr:stedsnr" v="453069" />
	</node>
	<node lat="59.54061666267206" lon="8.060752772768565" id="-28895">
		<tag k="name" v="Blombakk" />
		<tag k="place" v="isolated_dwelling" />
		<tag k="ssr:stedsnr" v="453834" />
	</node>
	<node lat="59.44323888669362" lon="8.151027772356962" id="-28900">
		<tag k="name" v="Ufsmyr" />
		<tag k="place" v="locality" />
		<tag k="ssr:stedsnr" v="267309" />
	</node>
	<node lat="59.39188333616602" lon="8.161258331415329" id="-28901">
		<tag k="name" v="Dale" />
		<tag k="place" v="farm" />
		<tag k="ssr:stedsnr" v="267728" />
	</node>
	<node lat="59.3748555572507" lon="8.194761112577574" id="-28903">
		<tag k="name" v="Upprann" />
		<tag k="place" v="locality" />
		<tag k="ssr:stedsnr" v="267815" />
	</node>
	<node lat="59.38999444514925" lon="8.125652777338074" id="-28908">
		<tag k="name" v="Solli" />
		<tag k="place" v="locality" />
		<tag k="ssr:stedsnr" v="268091" />
	</node>
	<node lat="59.41766388551385" lon="8.105869449211731" id="-28911">
		<tag k="name" v="Brotet" />
		<tag k="place" v="locality" />
		<tag k="ssr:stedsnr" v="268408" />
	</node>
	<node lat="59.377508336345215" lon="8.028244441202045" id="-28919">
		<tag k="name" v="Nesmark" />
		<tag k="place" v="farm" />
		<tag k="ssr:stedsnr" v="270086" />
	</node>
	<node lat="59.51456111000435" lon="7.995308332524681" id="-28921">
		<tag k="alt_name" v="Bratterud, Nigard" />
		<tag k="name" v="Nigard Bratterud" />
		<tag k="place" v="farm" />
		<tag k="ssr:stedsnr" v="270226" />
	</node>
	<node lat="59.428586106834295" lon="7.986949992875783" id="-28928">
		<tag k="name" v="Døli" />
		<tag k="place" v="farm" />
		<tag k="ssr:stedsnr" v="270875" />
	</node>
	<node lat="59.443763884760386" lon="8.011369439823676" id="-28930">
		<tag k="name" v="Dalen hotell" />
		<tag k="ssr:stedsnr" v="270887" />
		<tag k="tourism" v="hotel" />
	</node>
	<node lat="59.40586110905982" lon="7.988600001831145" id="-28934">
		<tag k="amenity" v="nursing_home" />
		<tag k="name" v="Storåsli gamleheim" />
		<tag k="ssr:stedsnr" v="270980" />
	</node>
	<node lat="59.40554721925111" lon="7.952849994230481" id="-28935">
		<tag k="name" v="Grimdalsbakkane" />
		<tag k="place" v="isolated_dwelling" />
		<tag k="ssr:stedsnr" v="270982" />
	</node>
	<node lat="59.483969442301635" lon="7.867116671526041" id="-28936">
		<tag k="name" v="Ljosåk" />
		<tag k="place" v="farm" />
		<tag k="ssr:stedsnr" v="287427" />
	</node>
	<node lat="59.46855555756378" lon="7.780277784668723" id="-28944">
		<tag k="historic" v="shieling" />
		<tag k="name" v="Goddalsmoen" />
		<tag k="place" v="isolated_dwelling" />
		<tag k="ssr:stedsnr" v="288735" />
	</node>
	<node lat="59.501922225685654" lon="7.751761112879889" id="-28945">
		<tag k="name" v="Bjørge" />
		<tag k="place" v="isolated_dwelling" />
		<tag k="ssr:stedsnr" v="288917" />
	</node>
	<node lat="59.45133055293353" lon="7.787991674198883" id="-28947">
		<tag k="historic" v="shieling" />
		<tag k="name" v="Vasstøyl" />
		<tag k="place" v="isolated_dwelling" />
		<tag k="ssr:stedsnr" v="288692" />
	</node>
	<node lat="59.454058332858295" lon="7.803708337107535" id="-28949">
		<tag k="name" v="Bakken øvre" />
		<tag k="place" v="farm" />
		<tag k="ssr:stedsnr" v="288815" />
	</node>
	<node lat="59.42404166831851" lon="7.893099991791879" id="-28953">
		<tag k="name" v="Auverstøyl" />
		<tag k="place" v="locality" />
		<tag k="ssr:stedsnr" v="289910" />
	</node>
	<node lat="59.498147220425956" lon="8.194388884880398" id="-28960">
		<tag k="amenity" v="school" />
		<tag k="name" v="Høydalsmo skule" />
		<tag k="ssr:stedsnr" v="292091" />
	</node>
	<node lat="59.46604999795523" lon="8.223516667014769" id="-28964">
		<tag k="alt_name" v="Strond;Strand" />
		<tag k="fixme" v="consider place=hamlet" />
		<tag k="name" v="Strånd" />
		<tag k="place" v="farm" />
		<tag k="ssr:stedsnr" v="305458" />
	</node>
	<node lat="59.41182222273457" lon="8.132755563121579" id="-28967">
		<tag k="alt_name" v="Ometo nordre" />
		<tag k="name" v="Ometo" />
		<tag k="place" v="locality" />
		<tag k="ssr:stedsnr" v="305473" />
	</node>
	<node lat="59.44997777796499" lon="7.8019499986537975" id="-28968">
		<tag k="alt_name" v="Li" />
		<tag k="fixme" v="consider place=hamlet" />
		<tag k="name" v="Lid" />
		<tag k="place" v="farm" />
		<tag k="ssr:stedsnr" v="305870" />
	</node>
	<node lat="59.545591663217465" lon="7.7760055560765435" id="-28971">
		<tag k="name" v="Tjørnestøyl" />
		<tag k="old_name" v="Tjørnestøl" />
		<tag k="place" v="locality" />
		<tag k="ssr:stedsnr" v="306073" />
	</node>
	<node lat="59.56663058352294" lon="7.815031775274948" id="-28973">
		<tag k="name" v="Huso" />
		<tag k="place" v="farm" />
		<tag k="ssr:stedsnr" v="306105" />
	</node>
	<node lat="59.55225555112201" lon="8.19722222573054" id="-28976">
		<tag k="alt_name" v="Nordre Landsverk" />
		<tag k="fixme" v="consider place=hamlet" />
		<tag k="name" v="Landsverk" />
		<tag k="place" v="farm" />
		<tag k="ssr:stedsnr" v="306405" />
	</node>
	<node lat="59.498575000590634" lon="7.87999166197288" id="-28979">
		<tag k="historic" v="shieling" />
		<tag k="name" v="Kjetilsbekk" />
		<tag k="place" v="isolated_dwelling" />
		<tag k="ssr:stedsnr" v="306605" />
	</node>
	<node lat="59.46643332887904" lon="7.845574992844817" id="-28982">
		<tag k="alt_name" v="Kvilde" />
		<tag k="name" v="Kvildi" />
		<tag k="place" v="farm" />
		<tag k="ssr:stedsnr" v="306866" />
	</node>
	<node lat="59.46767777857918" lon="7.852608337423339" id="-28984">
		<tag k="name" v="Dekkane" />
		<tag k="place" v="locality" />
		<tag k="ssr:stedsnr" v="469429" />
	</node>
	<node lat="59.371966669389764" lon="8.133952769888927" id="-28993">
		<tag k="name" v="Vislandskåsi" />
		<tag k="place" v="isolated_dwelling" />
		<tag k="ssr:stedsnr" v="327968" />
	</node>
	<node lat="59.40785277475981" lon="8.105880558549512" id="-29006">
		<tag k="name" v="Nyrstøyl" />
		<tag k="place" v="locality" />
		<tag k="ssr:stedsnr" v="329415" />
	</node>
	<node lat="59.54750833718922" lon="8.322075003426976" id="-29008">
		<tag k="historic" v="shieling" />
		<tag k="name" v="Nystaul" />
		<tag k="place" v="isolated_dwelling" />
		<tag k="ssr:stedsnr" v="329819" />
	</node>
	<node lat="59.45292499789753" lon="7.797538897042672" id="-29013">
		<tag k="name" v="Reine nedre" />
		<tag k="place" v="farm" />
		<tag k="ssr:stedsnr" v="470647" />
	</node>
	<node lat="59.45121111148125" lon="7.7802027753262495" id="-29018">
		<tag k="name" v="Døkki" />
		<tag k="place" v="locality" />
		<tag k="ssr:stedsnr" v="470733" />
	</node>
	<node lat="59.47347500382291" lon="7.7634111030135" id="-29019">
		<tag k="historic" v="shieling" />
		<tag k="name" v="Nystøyl" />
		<tag k="place" v="isolated_dwelling" />
		<tag k="ssr:stedsnr" v="470741" />
	</node>
	<node lat="59.46585277341753" lon="7.943227775731838" id="-29025">
		<tag k="name" v="Lio" />
		<tag k="place" v="farm" />
		<tag k="ssr:stedsnr" v="331071" />
	</node>
	<node lat="59.377766668924586" lon="8.034961118400021" id="-29026">
		<tag k="name" v="Barstad" />
		<tag k="place" v="farm" />
		<tag k="ssr:stedsnr" v="331074" />
	</node>
	<node lat="59.532441664175" lon="8.106888886568624" id="-29028">
		<tag k="name" v="Grønli" />
		<tag k="place" v="farm" />
		<tag k="ssr:stedsnr" v="331212" />
	</node>
	<node lat="59.43432222050996" lon="7.808630558672817" id="-29030">
		<tag k="name" v="Mannsverk" />
		<tag k="place" v="locality" />
		<tag k="ssr:stedsnr" v="470751" />
	</node>
	<node lat="59.493622221721544" lon="7.796597219955662" id="-29032">
		<tag k="historic" v="shieling" />
		<tag k="name" v="Rysaroi" />
		<tag k="place" v="isolated_dwelling" />
		<tag k="ssr:stedsnr" v="470849" />
	</node>
	<node lat="59.49113889334026" lon="7.791238888018071" id="-29033">
		<tag k="name" v="Brurestøyl" />
		<tag k="place" v="locality" />
		<tag k="ssr:stedsnr" v="470859" />
	</node>
	<node lat="59.423269445819386" lon="7.974688888156699" id="-29036">
		<tag k="name" v="Heggli" />
		<tag k="place" v="farm" />
		<tag k="ssr:stedsnr" v="331912" />
	</node>
	<node lat="59.45112500255014" lon="7.9458833412105" id="-29040">
		<tag k="name" v="Årmote" />
		<tag k="place" v="farm" />
		<tag k="ssr:stedsnr" v="331962" />
	</node>
	<node lat="59.37586944060919" lon="7.911763892042314" id="-29044">
		<tag k="name" v="Gausbu" />
		<tag k="place" v="locality" />
		<tag k="ssr:stedsnr" v="470946" />
	</node>
	<node lat="59.37481111359074" lon="7.91681111560731" id="-29045">
		<tag k="name" v="Gausbu" />
		<tag k="place" v="locality" />
		<tag k="ssr:stedsnr" v="470951" />
	</node>
	<node lat="59.37524166513651" lon="7.929663883075726" id="-29046">
		<tag k="historic" v="shieling" />
		<tag k="name" v="Kattarås" />
		<tag k="place" v="isolated_dwelling" />
		<tag k="ssr:stedsnr" v="470991" />
	</node>
	<node lat="59.431347222199314" lon="7.863302780381225" id="-29048">
		<tag k="name" v="Lii" />
		<tag k="place" v="locality" />
		<tag k="ssr:stedsnr" v="471810" />
	</node>
	<node lat="59.47335555603333" lon="7.845675004151437" id="-29053">
		<tag k="historic" v="shieling" />
		<tag k="name" v="Mosli" />
		<tag k="place" v="isolated_dwelling" />
		<tag k="ssr:stedsnr" v="348363" />
	</node>
	<node lat="59.48196944116962" lon="7.8448166602534055" id="-29060">
		<tag k="name" v="Åheim" />
		<tag k="place" v="isolated_dwelling" />
		<tag k="ssr:stedsnr" v="348468" />
	</node>
	<node lat="59.542977777579466" lon="7.813108341910837" id="-29063">
		<tag k="fixme" v="consider place=hamlet" />
		<tag k="name" v="Utabjå øvre" />
		<tag k="place" v="farm" />
		<tag k="ssr:stedsnr" v="348915" />
	</node>
	<node lat="59.42809444757544" lon="7.878277785828677" id="-29065">
		<tag k="historic" v="shieling" />
		<tag k="name" v="Bakkero øvre" />
		<tag k="place" v="isolated_dwelling" />
		<tag k="ssr:stedsnr" v="349412" />
	</node>
	<node lat="59.38765000311606" lon="7.888738891407222" id="-29066">
		<tag k="historic" v="shieling" />
		<tag k="name" v="Skarstøyl" />
		<tag k="place" v="isolated_dwelling" />
		<tag k="ssr:stedsnr" v="349458" />
	</node>
	<node lat="59.44511944017647" lon="7.925033330925388" id="-29069">
		<tag k="name" v="Vaddedalen" />
		<tag k="place" v="isolated_dwelling" />
		<tag k="ssr:stedsnr" v="349784" />
	</node>
	<node lat="59.44491389156411" lon="7.925652783918082" id="-29070">
		<tag k="name" v="Flata" />
		<tag k="place" v="isolated_dwelling" />
		<tag k="ssr:stedsnr" v="349786" />
	</node>
	<node lat="59.50390278171407" lon="8.189852785418093" id="-29077">
		<tag k="name" v="Skreppedalen" />
		<tag k="place" v="locality" />
		<tag k="ssr:stedsnr" v="353009" />
	</node>
	<node lat="59.49094166859467" lon="8.064041672577797" id="-29081">
		<tag k="name" v="Furustøyl" />
		<tag k="place" v="locality" />
		<tag k="ssr:stedsnr" v="353060" />
	</node>
	<node lat="59.49189999709862" lon="8.306780557608306" id="-29082">
		<tag k="name" v="Åheim" />
		<tag k="place" v="quarter" />
		<tag k="ssr:stedsnr" v="353104" />
	</node>
	<node lat="59.46778611498059" lon="8.055091665514928" id="-29084">
		<tag k="historic" v="shieling" />
		<tag k="name" v="Orklepplie øvre" />
		<tag k="place" v="isolated_dwelling" />
		<tag k="ssr:stedsnr" v="474475" />
	</node>
	<node lat="59.54969722630906" lon="8.205319448384982" id="-29088">
		<tag k="name" v="Åkestøyl" />
		<tag k="place" v="locality" />
		<tag k="ssr:stedsnr" v="474576" />
	</node>
	<node lat="59.53115000064615" lon="8.100697227392068" id="-29090">
		<tag k="historic" v="shieling" />
		<tag k="name" v="Kånungstøyl" />
		<tag k="place" v="isolated_dwelling" />
		<tag k="ssr:stedsnr" v="474756" />
	</node>
	<node lat="59.49940833424528" lon="8.314138892653482" id="-29091">
		<tag k="name" v="Høgli" />
		<tag k="place" v="isolated_dwelling" />
		<tag k="ssr:stedsnr" v="475086" />
	</node>
	<node lat="59.50187222378175" lon="8.140619448181733" id="-29092">
		<tag k="name" v="Trongstøyl" />
		<tag k="place" v="locality" />
		<tag k="ssr:stedsnr" v="475156" />
	</node>
	<node lat="59.47260555622507" lon="8.239097218765188" id="-29102">
		<tag k="alt_name" v="Nystøyl" />
		<tag k="historic" v="shieling" />
		<tag k="name" v="Homme-Nystøyl" />
		<tag k="place" v="isolated_dwelling" />
		<tag k="ssr:stedsnr" v="366430" />
	</node>
	<node lat="59.43732222014547" lon="8.17198611260776" id="-29103">
		<tag k="alt_name" v="Nordre Homme" />
		<tag k="fixme" v="consider place=hamlet" />
		<tag k="name" v="Homme" />
		<tag k="place" v="farm" />
		<tag k="ssr:stedsnr" v="366485" />
	</node>
	<node lat="59.48303333571481" lon="7.819825004272487" id="-29105">
		<tag k="alt_name" v="Rebbisbakke" />
		<tag k="historic" v="shieling" />
		<tag k="name" v="Rebbesbakke" />
		<tag k="place" v="isolated_dwelling" />
		<tag k="ssr:stedsnr" v="366627" />
	</node>
	<node lat="59.489775001137026" lon="7.865238884307294" id="-29106">
		<tag k="fixme" v="multiple name tags, choose one and add the other to alt_name; consider place=hamlet" />
		<tag k="name" v="Uppigard;Øvre Håtveit" />
		<tag k="place" v="farm" />
		<tag k="ssr:stedsnr" v="366634" />
	</node>
	<node lat="59.45937499778904" lon="8.0134749987544" id="-29107">
		<tag k="alt_name" v="Gjærde" />
		<tag k="name" v="Gjerde" />
		<tag k="place" v="farm" />
		<tag k="ssr:stedsnr" v="366807" />
	</node>
	<node lat="59.4538722192504" lon="7.798208336349873" id="-29109">
		<tag k="fixme" v="consider place=hamlet" />
		<tag k="name" v="Froland" />
		<tag k="place" v="village" />
		<tag k="ssr:stedsnr" v="366835" />
	</node>
	<node lat="59.51238610824492" lon="7.863724996154306" id="-29112">
		<tag k="alt_name" v="Vedbu" />
		<tag k="name" v="Veddbu" />
		<tag k="place" v="isolated_dwelling" />
		<tag k="ssr:stedsnr" v="367006" />
	</node>
	<node lat="59.56053610835412" lon="7.796677780561652" id="-29114">
		<tag k="name" v="Haugen" />
		<tag k="place" v="farm" />
		<tag k="ssr:stedsnr" v="367081" />
	</node>
	<node lat="59.56212500031816" lon="7.79515278438092" id="-29115">
		<tag k="name" v="Nordbø" />
		<tag k="place" v="farm" />
		<tag k="ssr:stedsnr" v="367082" />
	</node>
	<node lat="59.559747224971446" lon="7.811980555442685" id="-29116">
		<tag k="alt_name" v="Byrte, øvre" />
		<tag k="fixme" v="consider place=hamlet" />
		<tag k="name" v="Øvre Byrte" />
		<tag k="place" v="village" />
		<tag k="ssr:stedsnr" v="367086" />
	</node>
	<node lat="59.56855833670331" lon="7.816711114426166" id="-29117">
		<tag k="name" v="Vasshus" />
		<tag k="place" v="farm" />
		<tag k="ssr:stedsnr" v="367094" />
	</node>
	<node lat="59.5289444480071" lon="8.226336103536696" id="-29118">
		<tag k="name" v="Sandvik" />
		<tag k="place" v="farm" />
		<tag k="ssr:stedsnr" v="367325" />
	</node>
	<node lat="59.502566663260225" lon="8.259327776650258" id="-29122">
		<tag k="name" v="Øvre Haukom" />
		<tag k="place" v="farm" />
		<tag k="ssr:stedsnr" v="367501" />
	</node>
	<node lat="59.59420000119595" lon="7.817352785807756" id="-29123">
		<tag k="name" v="Haukås" />
		<tag k="place" v="isolated_dwelling" />
		<tag k="ssr:stedsnr" v="367881" />
	</node>
	<node lat="59.57116666600521" lon="7.7186944499312515" id="-29124">
		<tag k="name" v="Sveigefit" />
		<tag k="place" v="isolated_dwelling" />
		<tag k="ssr:stedsnr" v="367920" />
	</node>
	<node lat="59.439897224025835" lon="8.12286944600088" id="-29126">
		<tag k="name" v="Gløstøyl" />
		<tag k="place" v="locality" />
		<tag k="ssr:stedsnr" v="388318" />
	</node>
	<node lat="59.46900555461578" lon="8.192649995385581" id="-29129">
		<tag k="name" v="Hoggstøyl" />
		<tag k="place" v="locality" />
		<tag k="ssr:stedsnr" v="388462" />
	</node>
	<node lat="59.384991668976966" lon="8.153016662431645" id="-29139">
		<tag k="name" v="Lassemo" />
		<tag k="place" v="isolated_dwelling" />
		<tag k="ssr:stedsnr" v="389055" />
	</node>
	<node lat="59.44679441172794" lon="8.086374505614348" id="-29140">
		<tag k="historic" v="shieling" />
		<tag k="name" v="Grasdalen" />
		<tag k="place" v="isolated_dwelling" />
		<tag k="ssr:stedsnr" v="389616" />
	</node>
	<node lat="59.5313250035632" lon="8.236627769188097" id="-29142">
		<tag k="name" v="Hovdestøyl" />
		<tag k="place" v="locality" />
		<tag k="ssr:stedsnr" v="390104" />
	</node>
	<node lat="59.36710277594044" lon="8.029355562889137" id="-29152">
		<tag k="name" v="Åmdal Burtistog" />
		<tag k="place" v="farm" />
		<tag k="ssr:stedsnr" v="391087" />
	</node>
	<node lat="59.46632777419501" lon="7.9405999961004" id="-29153">
		<tag k="name" v="Fillefjødd" />
		<tag k="place" v="locality" />
		<tag k="ssr:stedsnr" v="391089" />
	</node>
	<node lat="59.37410833476738" lon="8.031447227252835" id="-29154">
		<tag k="name" v="Fleshaugen" />
		<tag k="place" v="farm" />
		<tag k="ssr:stedsnr" v="391090" />
	</node>
	<node lat="59.46279166564311" lon="8.030655556809155" id="-29157">
		<tag k="name" v="Lofthus-Haugen" />
		<tag k="place" v="farm" />
		<tag k="ssr:stedsnr" v="391938" />
	</node>
	<node lat="59.40908055274579" lon="8.02063610773457" id="-29158">
		<tag k="name" v="Seltveit øvre" />
		<tag k="place" v="farm" />
		<tag k="ssr:stedsnr" v="391990" />
	</node>
	<node lat="59.39979166448044" lon="8.02900833202529" id="-29159">
		<tag k="name" v="Kjestveit nordre" />
		<tag k="place" v="farm" />
		<tag k="ssr:stedsnr" v="391995" />
	</node>
	<node lat="59.41027222091787" lon="7.736280556892274" id="-29163">
		<tag k="historic" v="shieling" />
		<tag k="name" v="Urmoen" />
		<tag k="place" v="isolated_dwelling" />
		<tag k="ssr:stedsnr" v="409300" />
	</node>
	<node lat="59.42864166256758" lon="7.8869194466665125" id="-29174">
		<tag k="historic" v="shieling" />
		<tag k="name" v="Dribbu" />
		<tag k="place" v="isolated_dwelling" />
		<tag k="ssr:stedsnr" v="410214" />
	</node>
	<node lat="59.438727781106465" lon="7.834938889016014" id="-29178">
		<tag k="name" v="Nystøyl" />
		<tag k="place" v="locality" />
		<tag k="ssr:stedsnr" v="410807" />
	</node>
	<node lat="59.38080277359638" lon="8.144286109272443" id="-29179">
		<tag k="alt_name" v="Eikeland, s;Eikland søndre;Sørigard Eikland" />
		<tag k="loc_name" v="Eikland" />
		<tag k="name" v="Søndre Eikland" />
		<tag k="place" v="farm" />
		<tag k="ssr:stedsnr" v="487289" />
	</node>
	<node lat="59.39850555611888" lon="8.154825007405016" id="-29180">
		<tag k="alt_name" v="Midtgarden" />
		<tag k="fixme" v="consider place=hamlet" />
		<tag k="name" v="Midgarden" />
		<tag k="place" v="farm" />
		<tag k="ssr:stedsnr" v="487300" />
	</node>
	<node lat="59.46684999622602" lon="8.152677780567632" id="-29186">
		<tag k="name" v="Hemingstveit" />
		<tag k="place" v="isolated_dwelling" />
		<tag k="ssr:stedsnr" v="487462" />
	</node>
	<node lat="59.4680166660021" lon="8.138027774052196" id="-29189">
		<tag k="historic" v="shieling" />
		<tag k="name" v="Verrmoen" />
		<tag k="place" v="isolated_dwelling" />
		<tag k="ssr:stedsnr" v="413045" />
	</node>
	<node lat="59.48807778126095" lon="8.189611103113904" id="-29192">
		<tag k="name" v="Høgetveit" />
		<tag k="place" v="locality" />
		<tag k="ssr:stedsnr" v="413445" />
	</node>
	<node lat="59.43240000330413" lon="7.991177769496366" id="-29193">
		<tag k="fixme" v="consider place=hamlet" />
		<tag k="name" v="Viken" />
		<tag k="place" v="farm" />
		<tag k="ssr:stedsnr" v="487806" />
	</node>
	<node lat="59.41519166958643" lon="7.961366671838931" id="-29194">
		<tag k="name" v="Tveito" />
		<tag k="old_name" v="Tveiten" />
		<tag k="place" v="farm" />
		<tag k="ssr:stedsnr" v="487816" />
	</node>
	<node lat="59.37770555216168" lon="7.887224993379525" id="-29197">
		<tag k="alt_name" v="Turtelii" />
		<tag k="name" v="Turtlii" />
		<tag k="place" v="isolated_dwelling" />
		<tag k="ssr:stedsnr" v="487788" />
	</node>
	<node lat="59.45428333729919" lon="7.803716671019537" id="-29198">
		<tag k="fixme" v="consider place=hamlet" />
		<tag k="name" v="Bakken" />
		<tag k="place" v="farm" />
		<tag k="ssr:stedsnr" v="487873" />
	</node>
	<node lat="59.49061666897012" lon="8.166277770980232" id="-29204">
		<tag k="name" v="Nordskog" />
		<tag k="place" v="isolated_dwelling" />
		<tag k="ssr:stedsnr" v="487885" />
	</node>
	<node lat="59.33780277804387" lon="7.734750002473618" id="-29206">
		<tag k="alt_name" v="Kuskar" />
		<tag k="name" v="Kuskardet" />
		<tag k="place" v="isolated_dwelling" />
		<tag k="ssr:stedsnr" v="487981" />
	</node>
	<node lat="59.513608333601134" lon="7.874247225317179" id="-29209">
		<tag k="historic" v="shieling" />
		<tag k="name" v="Stridsmo" />
		<tag k="place" v="isolated_dwelling" />
		<tag k="ssr:stedsnr" v="488022" />
	</node>
	<node lat="59.518133335689264" lon="7.999983329201165" id="-29210">
		<tag k="name" v="Turtedalen" />
		<tag k="place" v="farm" />
		<tag k="ssr:stedsnr" v="488032" />
	</node>
	<node lat="59.544383331509316" lon="7.789100004625019" id="-29212">
		<tag k="name" v="Sveigeskard" />
		<tag k="place" v="isolated_dwelling" />
		<tag k="ssr:stedsnr" v="488073" />
	</node>
	<node lat="59.52386944013074" lon="7.874174996525791" id="-29213">
		<tag k="name" v="Ormestøyl" />
		<tag k="old_name" v="Ormestøl" />
		<tag k="place" v="isolated_dwelling" />
		<tag k="ssr:stedsnr" v="488038" />
	</node>
	<node lat="59.52203055583698" lon="7.870172217415119" id="-29214">
		<tag k="historic" v="shieling" />
		<tag k="name" v="Åvestøyl" />
		<tag k="old_name" v="Åvestøl" />
		<tag k="place" v="isolated_dwelling" />
		<tag k="ssr:stedsnr" v="488041" />
	</node>
	<node lat="59.520802779183825" lon="8.200672230069397" id="-29216">
		<tag k="historic" v="shieling" />
		<tag k="name" v="Nystøyl" />
		<tag k="place" v="isolated_dwelling" />
		<tag k="ssr:stedsnr" v="488514" />
	</node>
	<node lat="59.50915555431938" lon="8.272986102619917" id="-29224">
		<tag k="historic" v="shieling" />
		<tag k="name" v="Lonan" />
		<tag k="place" v="isolated_dwelling" />
		<tag k="ssr:stedsnr" v="488479" />
	</node>
	<node lat="59.570049999201046" lon="7.675686110605542" id="-29229">
		<tag k="historic" v="shieling" />
		<tag k="name" v="Tangen" />
		<tag k="place" v="isolated_dwelling" />
		<tag k="ssr:stedsnr" v="488735" />
	</node>
	<node lat="59.56841666899221" lon="7.809569453097294" id="-29231">
		<tag k="alt_name" v="Flåten" />
		<tag k="fixme" v="consider place=hamlet" />
		<tag k="name" v="Floten" />
		<tag k="place" v="farm" />
		<tag k="ssr:stedsnr" v="488928" />
	</node>
	<node lat="59.46962500364614" lon="8.00921666511482" id="-29232">
		<tag k="fixme" v="consider place=hamlet" />
		<tag k="name" v="Tveiten" />
		<tag k="place" v="farm" />
		<tag k="ssr:stedsnr" v="488870" />
	</node>
	<node lat="59.55903888729815" lon="7.811986114870798" id="-29233">
		<tag k="alt_name" v="Urdbø" />
		<tag k="name" v="Uddbø" />
		<tag k="place" v="farm" />
		<tag k="ssr:stedsnr" v="427103" />
	</node>
	<node lat="59.5631333291236" lon="7.778391672799922" id="-29234">
		<tag k="name" v="Heimarud" />
		<tag k="place" v="locality" />
		<tag k="ssr:stedsnr" v="427107" />
	</node>
	<node lat="59.36370277785426" lon="8.154111113639466" id="-29236">
		<tag k="name" v="Krossli" />
		<tag k="place" v="hamlet" />
		<tag k="ssr:stedsnr" v="427305" />
	</node>
	<node lat="59.39878333166383" lon="8.113508340812475" id="-29239">
		<tag k="historic" v="shieling" />
		<tag k="name" v="Løyning" />
		<tag k="place" v="isolated_dwelling" />
		<tag k="ssr:stedsnr" v="427470" />
	</node>
	<node lat="59.44128611163278" lon="8.179591663959394" id="-29240">
		<tag k="alt_name" v="Kvålo nedre" />
		<tag k="fixme" v="consider place=hamlet" />
		<tag k="name" v="Kvålo" />
		<tag k="place" v="farm" />
		<tag k="ssr:stedsnr" v="427481" />
	</node>
	<node lat="59.39349999624979" lon="7.885872228057099" id="-29242">
		<tag k="name" v="Grøndalen" />
		<tag k="place" v="isolated_dwelling" />
		<tag k="ssr:stedsnr" v="427724" />
	</node>
	<node lat="59.48576666776179" lon="8.122116675157814" id="-29247">
		<tag k="alt_name" v="Midtbø" />
		<tag k="fixme" v="consider place=hamlet" />
		<tag k="name" v="Midbø" />
		<tag k="place" v="farm" />
		<tag k="ssr:stedsnr" v="427869" />
	</node>
	<node lat="59.50238611242044" lon="7.85863888763598" id="-29248">
		<tag k="name" v="Ånusdalen" />
		<tag k="old_name" v="Anusdalen" />
		<tag k="place" v="locality" />
		<tag k="ssr:stedsnr" v="428007" />
	</node>
	<node lat="59.52124166589053" lon="7.886488896068364" id="-29249">
		<tag k="historic" v="shieling" />
		<tag k="name" v="Stavsli" />
		<tag k="place" v="isolated_dwelling" />
		<tag k="ssr:stedsnr" v="428022" />
	</node>
	<node lat="59.357950001318756" lon="7.943941672451952" id="-29251">
		<tag k="name" v="Åsen" />
		<tag k="place" v="isolated_dwelling" />
		<tag k="ssr:stedsnr" v="427974" />
	</node>
	<node lat="59.51298888750615" lon="8.265272230470663" id="-29254">
		<tag k="name" v="Kvålemoen" />
		<tag k="place" v="isolated_dwelling" />
		<tag k="ssr:stedsnr" v="428466" />
	</node>
	<node lat="59.57155832950343" lon="7.808533332148193" id="-29261">
		<tag k="alt_name" v="Lie" />
		<tag k="name" v="Lii" />
		<tag k="place" v="farm" />
		<tag k="ssr:stedsnr" v="670933" />
	</node>
	<node lat="59.390769444028315" lon="8.161177778401377" id="-29269">
		<tag k="name" v="Furuheim" />
		<tag k="place" v="farm" />
		<tag k="ssr:stedsnr" v="449736" />
	</node>
	<node lat="59.52361944523169" lon="8.009180559056631" id="-29276">
		<tag k="name" v="Mjaugedal, øvre" />
		<tag k="place" v="farm" />
		<tag k="ssr:stedsnr" v="452211" />
	</node>
	<node lat="59.42441388752164" lon="7.985463882606958" id="-29278">
		<tag k="name" v="Haugen nedre" />
		<tag k="place" v="farm" />
		<tag k="ssr:stedsnr" v="452906" />
	</node>
	<node lat="59.44310000151703" lon="7.9939861179937" id="-29279">
		<tag k="name" v="Bakken" />
		<tag k="place" v="farm" />
		<tag k="ssr:stedsnr" v="452908" />
	</node>
	<node lat="59.40230833318748" lon="7.941402782890482" id="-29282">
		<tag k="historic" v="shieling" />
		<tag k="name" v="Trykkemillom" />
		<tag k="place" v="isolated_dwelling" />
		<tag k="ssr:stedsnr" v="452979" />
	</node>
	<node lat="59.565975002871554" lon="7.748769443273292" id="-29283">
		<tag k="alt_name" v="Stakslådalen" />
		<tag k="name" v="Stakksslåttdalen" />
		<tag k="place" v="isolated_dwelling" />
		<tag k="ssr:stedsnr" v="453265" />
	</node>
	<node lat="59.4970361118977" lon="7.84487500412751" id="-29286">
		<tag k="name" v="Øygarden" />
		<tag k="place" v="locality" />
		<tag k="ssr:stedsnr" v="469874" />
	</node>
	<node lat="59.38159444122011" lon="7.906141673417971" id="-29289">
		<tag k="historic" v="shieling" />
		<tag k="name" v="Myrstøylteigen" />
		<tag k="place" v="isolated_dwelling" />
		<tag k="ssr:stedsnr" v="470367" />
	</node>
	<node lat="59.44217777504819" lon="7.82111666442556" id="-29292">
		<tag k="historic" v="shieling" />
		<tag k="name" v="Sigurdsli" />
		<tag k="place" v="isolated_dwelling" />
		<tag k="ssr:stedsnr" v="470806" />
	</node>
	<node lat="59.443172225915376" lon="7.92075832933153" id="-29301">
		<tag k="name" v="Kjetilskog" />
		<tag k="place" v="locality" />
		<tag k="ssr:stedsnr" v="471762" />
	</node>
	<node lat="59.567069440866035" lon="7.766133329362676" id="-29308">
		<tag k="historic" v="shieling" />
		<tag k="name" v="Nørerud" />
		<tag k="place" v="isolated_dwelling" />
		<tag k="ssr:stedsnr" v="471979" />
	</node>
	<node lat="59.49977221979254" lon="8.118513892842325" id="-29314">
		<tag k="name" v="Goli" />
		<tag k="place" v="locality" />
		<tag k="ssr:stedsnr" v="475169" />
	</node>
	<node lat="59.37394444069612" lon="8.129388886961825" id="-29316">
		<tag k="name" v="Vislandkosi" />
		<tag k="place" v="locality" />
		<tag k="ssr:stedsnr" v="487311" />
	</node>
	<node lat="59.486019440294626" lon="7.8130555560163675" id="-29321">
		<tag k="name" v="Kvæven" />
		<tag k="place" v="isolated_dwelling" />
		<tag k="ssr:stedsnr" v="487673" />
	</node>
	<node lat="59.47927778179438" lon="7.869261119639124" id="-29323">
		<tag k="name" v="Lundtveit" />
		<tag k="place" v="farm" />
		<tag k="ssr:stedsnr" v="487680" />
	</node>
	<node lat="59.48381388468812" lon="7.839891658797927" id="-29324">
		<tag k="alt_name" v="Mo Prestegard" />
		<tag k="fixme" v="consider place=hamlet" />
		<tag k="name" v="Mo" />
		<tag k="place" v="farm" />
		<tag k="ssr:stedsnr" v="487682" />
	</node>
	<node lat="59.430616670996585" lon="8.031227770645389" id="-29326">
		<tag k="alt_name" v="Botnen" />
		<tag k="name" v="Botn" />
		<tag k="place" v="isolated_dwelling" />
		<tag k="ssr:stedsnr" v="487802" />
	</node>
	<node lat="59.44767499879459" lon="7.961852771476893" id="-29328">
		<tag k="fixme" v="consider place=hamlet" />
		<tag k="name" v="Vistad" />
		<tag k="place" v="farm" />
		<tag k="ssr:stedsnr" v="487850" />
	</node>
	<node lat="59.45039721790463" lon="7.937005556989532" id="-29329">
		<tag k="fixme" v="consider place=hamlet" />
		<tag k="name" v="Nedrebø" />
		<tag k="place" v="farm" />
		<tag k="ssr:stedsnr" v="487851" />
	</node>
	<node lat="59.4333333334926" lon="7.727222227963043" id="-29330">
		<tag k="name" v="Kvæven" />
		<tag k="place" v="isolated_dwelling" />
		<tag k="ssr:stedsnr" v="487853" />
	</node>
	<node lat="59.45438888636517" lon="7.789183337735968" id="-29331">
		<tag k="name" v="Grøvstad" />
		<tag k="place" v="farm" />
		<tag k="ssr:stedsnr" v="487869" />
	</node>
	<node lat="59.42687777393713" lon="8.296274998311228" id="-29333">
		<tag k="historic" v="shieling" />
		<tag k="name" v="Sagi" />
		<tag k="place" v="isolated_dwelling" />
		<tag k="ssr:stedsnr" v="488416" />
	</node>
	<node lat="59.57434444750183" lon="8.232011118585897" id="-29334">
		<tag k="alt_name" v="Buin" />
		<tag k="historic" v="shieling" />
		<tag k="name" v="Buinstøylen" />
		<tag k="place" v="isolated_dwelling" />
		<tag k="ssr:stedsnr" v="488425" />
	</node>
	<node lat="59.44070555393499" lon="8.200005548963244" id="-29336">
		<tag k="fixme" v="consider place=hamlet" />
		<tag k="name" v="Skatter" />
		<tag k="place" v="farm" />
		<tag k="ssr:stedsnr" v="488438" />
	</node>
	<node lat="59.42959722305614" lon="8.125397224819034" id="-29337">
		<tag k="alt_name" v="Ljomfloti" />
		<tag k="name" v="Lamflaten" />
		<tag k="place" v="locality" />
		<tag k="ssr:stedsnr" v="488455" />
	</node>
	<node lat="59.43121666804033" lon="8.181805562472682" id="-29338">
		<tag k="alt_name" v="Skjelbreid Søndre;Søndre Skjelbrei" />
		<tag k="fixme" v="consider place=hamlet" />
		<tag k="name" v="Skjelbreid" />
		<tag k="place" v="farm" />
		<tag k="ssr:stedsnr" v="488456" />
	</node>
	<node lat="59.43093055479464" lon="8.220341666474646" id="-29339">
		<tag k="historic" v="shieling" />
		<tag k="name" v="Nosdal" />
		<tag k="place" v="isolated_dwelling" />
		<tag k="ssr:stedsnr" v="488458" />
	</node>
	<node lat="59.53912222024369" lon="8.241047217148704" id="-29341">
		<tag k="historic" v="shieling" />
		<tag k="name" v="Nystøyl" />
		<tag k="place" v="isolated_dwelling" />
		<tag k="ssr:stedsnr" v="488359" />
	</node>
	<node lat="59.5347138872279" lon="8.126327774092953" id="-29342">
		<tag k="alt_name" v="Skinan (store)" />
		<tag k="historic" v="shieling" />
		<tag k="name" v="Skinand" />
		<tag k="place" v="isolated_dwelling" />
		<tag k="ssr:stedsnr" v="488361" />
	</node>
	<node lat="59.52453055961297" lon="8.295319445562543" id="-29344">
		<tag k="name" v="Berge" />
		<tag k="place" v="isolated_dwelling" />
		<tag k="ssr:stedsnr" v="488498" />
	</node>
	<node lat="59.5009861118933" lon="8.21447777396947" id="-29346">
		<tag k="historic" v="shieling" />
		<tag k="name" v="Fjellstøyl" />
		<tag k="place" v="isolated_dwelling" />
		<tag k="ssr:stedsnr" v="488547" />
	</node>
	<node lat="59.38913276011023" lon="7.994594419302951" id="-29348">
		<tag k="alt_name" v="Åmli, øvre;Åmli uppigard" />
		<tag k="fixme" v="consider place=hamlet" />
		<tag k="name" v="Øvre Åmli" />
		<tag k="place" v="farm" />
		<tag k="ssr:stedsnr" v="488755" />
	</node>
	<node lat="59.48262500178371" lon="8.15042777333158" id="-29349">
		<tag k="name" v="Åmli" />
		<tag k="place" v="locality" />
		<tag k="ssr:stedsnr" v="488902" />
	</node>
	<node lat="59.48042500216113" lon="8.119411114150871" id="-29350">
		<tag k="name" v="Smørklepp" />
		<tag k="place" v="isolated_dwelling" />
		<tag k="ssr:stedsnr" v="488900" />
	</node>
	<node lat="59.41819999801246" lon="8.072963888178581" id="-29353">
		<tag k="name" v="Stuppenhol" />
		<tag k="place" v="locality" />
		<tag k="ssr:stedsnr" v="509279" />
	</node>
	<node lat="59.448552779264084" lon="8.12854723077882" id="-29365">
		<tag k="name" v="Heggstøyl" />
		<tag k="place" v="farm" />
		<tag k="ssr:stedsnr" v="511516" />
	</node>
	<node lat="59.48149722617064" lon="7.756400007796484" id="-29368">
		<tag k="alt_name" v="Fjøllstøyl" />
		<tag k="historic" v="shieling" />
		<tag k="name" v="Fjellstøylen" />
		<tag k="place" v="isolated_dwelling" />
		<tag k="ssr:stedsnr" v="513175" />
	</node>
</osm>
