<?xml version="1.0" encoding="UTF-8"?>
<<<<<<< HEAD
<osm version="0.6" generator="osmapis">
	<node lat="59.36550278157386" lon="7.85865832916913" id="-28457">
		<tag k="highway" v="path" />
		<tag k="name" v="Folaspranget" />
		<tag k="ssr:stedsnr" v="46974" />
	</node>
	<node lat="59.48616388869272" lon="7.733261118331207" id="-28584">
		<tag k="highway" v="path" />
		<tag k="name" v="Kristianrota" />
		<tag k="ssr:stedsnr" v="106921" />
	</node>
	<node lat="59.4456666707128" lon="8.01207777454597" id="-28587">
		<tag k="bridge" v="yes" />
		<tag k="layer" v="1" />
		<tag k="name" v="Eidsborgbekk" />
		<tag k="ssr:stedsnr" v="107430" />
	</node>
	<node lat="59.377650003899085" lon="8.174388897315986" id="-28633">
		<tag k="highway" v="path" />
		<tag k="name" v="Plankeslepa" />
		<tag k="ssr:stedsnr" v="145803" />
	</node>
	<node lat="59.44521666862925" lon="8.10775554824672" id="-28641">
		<tag k="fixme" v="consider highway=path" />
		<tag k="highway" v="track" />
		<tag k="name" v="Grasdalvegen" />
		<tag k="ssr:stedsnr" v="146480" />
	</node>
	<node lat="59.5186916641608" lon="8.161877775356823" id="-28679">
		<tag k="bridge" v="yes" />
		<tag k="layer" v="1" />
		<tag k="name" v="Slethaug" />
		<tag k="ssr:stedsnr" v="168405" />
	</node>
	<node lat="59.37714444718706" lon="8.155894441805556" id="-28680">
		<tag k="bridge" v="yes" />
		<tag k="layer" v="1" />
		<tag k="name" v="Eikeland" />
		<tag k="ssr:stedsnr" v="168408" />
	</node>
	<node lat="59.46550000123715" lon="8.199991667426275" id="-28709">
=======
<osm generator="osmapis" version="0.6">
	<node id="-474112" lat="59.4839638909" lon="8.18240000581">
		<tag k="highway" v="path" />
		<tag k="name" v="Prestekleivi" />
		<tag k="ssr:stedsnr" v="934487" />
	</node>
	<node id="-474108" lat="59.3932805517" lon="8.09222222756">
>>>>>>> e1d4bc35ff8a6074a6f2e91616a996b547c36f15
		<tag k="highway" v="path" />
		<tag k="name" v="Berglandsvegen" />
		<tag k="ssr:stedsnr" v="934162" />
	</node>
<<<<<<< HEAD
	<node lat="59.45504166960836" lon="8.234291674761106" id="-28711">
=======
	<node id="-473080" lat="59.4550416696" lon="8.23429167476">
>>>>>>> e1d4bc35ff8a6074a6f2e91616a996b547c36f15
		<tag k="fixme" v="verify maritime location" />
		<tag k="mooring" v="yes" />
		<tag k="name" v="Kabrettstøi" />
		<tag k="place" v="locality" />
		<tag k="ssr:stedsnr" v="267655" />
	</node>
<<<<<<< HEAD
	<node lat="59.43515555167674" lon="8.17520832918346" id="-28735">
		<tag k="alt_name" v="Homme" />
		<tag k="bridge" v="yes" />
		<tag k="layer" v="1" />
		<tag k="name" v="Homme bru" />
		<tag k="ssr:stedsnr" v="208305" />
	</node>
	<node lat="59.37331666718773" lon="8.045230556538314" id="-28741">
		<tag k="junction" v="yes" />
		<tag k="name" v="Rota" />
=======
	<node id="-476149" lat="59.5416777749" lon="8.19316944113">
		<tag k="bridge" v="yes" />
		<tag k="layer" v="1" />
		<tag k="name" v="Mørke" />
		<tag k="ssr:stedsnr" v="957398" />
	</node>
	<node id="-475124" lat="59.5421777769" lon="8.05714445279">
		<tag k="bridge" v="yes" />
		<tag k="layer" v="1" />
		<tag k="name" v="Grytestøyl" />
		<tag k="ssr:stedsnr" v="350362" />
	</node>
	<node id="-473577" lat="59.4082194446" lon="8.18854722008">
		<tag k="man_made" v="quay" />
		<tag k="name" v="Bandaksli brygge" />
>>>>>>> e1d4bc35ff8a6074a6f2e91616a996b547c36f15
		<tag k="place" v="locality" />
		<tag k="ssr:stedsnr" v="209081" />
	</node>
<<<<<<< HEAD
	<node lat="59.4449333338901" lon="8.024144441655416" id="-28748">
		<tag k="man_made" v="quay" />
		<tag k="name" v="Dalen brygge" />
=======
	<node id="-473084" lat="59.4655000012" lon="8.19999166743">
		<tag k="highway" v="path" />
		<tag k="name" v="Jotomstigen" />
		<tag k="ssr:stedsnr" v="267556" />
	</node>
	<node id="-473571" lat="59.4322666675" lon="8.14986944148">
		<tag k="man_made" v="cairn" />
		<tag k="name" v="Varden" />
>>>>>>> e1d4bc35ff8a6074a6f2e91616a996b547c36f15
		<tag k="place" v="locality" />
		<tag k="ssr:stedsnr" v="209927" />
	</node>
<<<<<<< HEAD
	<node lat="59.478852776792216" lon="7.85677500481924" id="-28795">
		<tag k="bridge" v="yes" />
		<tag k="layer" v="1" />
		<tag k="name" v="Øvre Ause" />
		<tag k="ssr:stedsnr" v="228443" />
	</node>
	<node lat="59.4456305561083" lon="8.153283325290579" id="-28836">
=======
	<node id="-476118" lat="59.3432861067" lon="7.69095555678">
		<tag k="highway" v="path" />
		<tag k="name" v="Steilaupet" />
		<tag k="ssr:stedsnr" v="956299" />
	</node>
	<node id="-473044" lat="59.4456305561" lon="8.15328332529">
>>>>>>> e1d4bc35ff8a6074a6f2e91616a996b547c36f15
		<tag k="alt_name" v="Flatdal" />
		<tag k="bridge" v="yes" />
		<tag k="layer" v="1" />
		<tag k="name" v="Ålandsli bru" />
		<tag k="ssr:stedsnr" v="451538" />
	</node>
<<<<<<< HEAD
	<node lat="59.39900833714898" lon="8.00704721528995" id="-28952">
=======
	<node id="-474056" lat="59.4759833314" lon="7.89190278112">
		<tag k="highway" v="path" />
		<tag k="name" v="Bubrokka" />
		<tag k="ssr:stedsnr" v="774513" />
	</node>
	<node id="-474444" lat="59.4456444403" lon="7.9972499933">
		<tag k="bridge" v="yes" />
		<tag k="layer" v="1" />
		<tag k="name" v="Dalen" />
		<tag k="ssr:stedsnr" v="46461" />
	</node>
	<node id="-475582" lat="59.5574472258" lon="7.81106389421">
		<tag k="bridge" v="yes" />
		<tag k="layer" v="1" />
		<tag k="name" v="Børte" />
		<tag k="ssr:stedsnr" v="592456" />
	</node>
	<node id="-475581" lat="59.4292249983" lon="8.00281667542">
		<tag k="bridge" v="yes" />
		<tag k="layer" v="1" />
		<tag k="name" v="Holte" />
		<tag k="ssr:stedsnr" v="592446" />
	</node>
	<node id="-476092" lat="59.3799694415" lon="8.07335555356">
		<tag k="highway" v="path" />
		<tag k="name" v="Tokleivi" />
		<tag k="ssr:stedsnr" v="875237" />
	</node>
	<node id="-476148" lat="59.375769446" lon="7.83748332901">
>>>>>>> e1d4bc35ff8a6074a6f2e91616a996b547c36f15
		<tag k="bridge" v="yes" />
		<tag k="layer" v="1" />
		<tag k="name" v="Sæbygjeåi" />
		<tag k="ssr:stedsnr" v="957391" />
	</node>
<<<<<<< HEAD
	<node lat="59.414922223587034" lon="8.246994449237345" id="-28998">
		<tag k="fixme" v="consider highway=path" />
		<tag k="highway" v="track" />
		<tag k="name" v="Flekstveitvegen" />
		<tag k="ssr:stedsnr" v="328707" />
	</node>
	<node lat="59.41948055933096" lon="8.12463054815998" id="-29005">
		<tag k="man_made" v="quay" />
		<tag k="name" v="Lauvvikbrygga" />
=======
	<node id="-476085" lat="59.4200916688" lon="8.20968610268">
		<tag k="fixme" v="verify maritime location" />
		<tag k="mooring" v="yes" />
		<tag k="name" v="Båtstø" />
		<tag k="place" v="locality" />
		<tag k="ssr:stedsnr" v="874729" />
	</node>
	<node id="-476084" lat="59.4476888898" lon="8.23430833692">
		<tag k="fixme" v="verify maritime location" />
		<tag k="mooring" v="yes" />
		<tag k="name" v="Inghusdalstøi" />
		<tag k="place" v="locality" />
		<tag k="ssr:stedsnr" v="874623" />
	</node>
	<node id="-474547" lat="59.4224583312" lon="8.17826388881">
		<tag k="fixme" v="verify maritime location" />
		<tag k="mooring" v="yes" />
		<tag k="name" v="Flosto" />
>>>>>>> e1d4bc35ff8a6074a6f2e91616a996b547c36f15
		<tag k="place" v="locality" />
		<tag k="ssr:stedsnr" v="329313" />
	</node>
<<<<<<< HEAD
	<node lat="59.373761113649955" lon="7.991602771765077" id="-29024">
=======
	<node id="-474171" lat="59.492919444" lon="8.30992777501">
		<tag k="bridge" v="yes" />
		<tag k="layer" v="1" />
		<tag k="name" v="Mostøylbakken" />
		<tag k="ssr:stedsnr" v="836364" />
	</node>
	<node id="-475555" lat="59.4761833312" lon="7.89426111049">
>>>>>>> e1d4bc35ff8a6074a6f2e91616a996b547c36f15
		<tag k="ford" v="yes" />
		<tag k="name" v="Åslandsva" />
		<tag k="place" v="locality" />
<<<<<<< HEAD
		<tag k="ssr:stedsnr" v="331069" />
	</node>
	<node lat="59.37651667020927" lon="8.03828055980252" id="-29047">
		<tag k="bridge" v="yes" />
		<tag k="layer" v="1" />
		<tag k="name" v="Åmdalsverk" />
		<tag k="ssr:stedsnr" v="471398" />
	</node>
	<node lat="59.475661112520044" lon="7.914399997272456" id="-29057">
		<tag k="highway" v="path" />
		<tag k="name" v="Gamleveg" />
		<tag k="ssr:stedsnr" v="348264" />
	</node>
	<node lat="59.36358610930787" lon="8.05228334053282" id="-29136">
=======
		<tag k="ssr:stedsnr" v="591258" />
	</node>
	<node id="-472989" lat="59.5260055586" lon="8.14823889654">
		<tag k="bridge" v="yes" />
		<tag k="layer" v="1" />
		<tag k="name" v="Grotdalen" />
		<tag k="ssr:stedsnr" v="228456" />
	</node>
	<node id="-475538" lat="59.3830666689" lon="8.00274999291">
		<tag k="bridge" v="yes" />
		<tag k="layer" v="1" />
		<tag k="name" v="Midtbru" />
		<tag k="ssr:stedsnr" v="573994" />
	</node>
	<node id="-472968" lat="59.4449333339" lon="8.02414444166">
		<tag k="man_made" v="quay" />
		<tag k="name" v="Dalen brygge" />
		<tag k="place" v="locality" />
		<tag k="ssr:stedsnr" v="209927" />
	</node>
	<node id="-475508" lat="59.4372166636" lon="8.04674166095">
		<tag k="fixme" v="verify maritime location" />
		<tag k="mooring" v="yes" />
		<tag k="name" v="Tveitsto" />
		<tag k="place" v="locality" />
		<tag k="ssr:stedsnr" v="571621" />
	</node>
	<node id="-474771" lat="59.3551416624" lon="8.08638333628">
		<tag k="highway" v="path" />
		<tag k="name" v="Langkvernhusvegen" />
		<tag k="ssr:stedsnr" v="145884" />
	</node>
	<node id="-474979" lat="59.4632944411" lon="7.93821667332">
>>>>>>> e1d4bc35ff8a6074a6f2e91616a996b547c36f15
		<tag k="landuse" v="industrial" />
		<tag k="name" v="Skafså 1" />
		<tag k="power" v="plant" />
<<<<<<< HEAD
		<tag k="ssr:stedsnr" v="388942" />
	</node>
	<node lat="59.497708334152904" lon="8.161447214513071" id="-29199">
		<tag k="bridge" v="yes" />
		<tag k="layer" v="1" />
		<tag k="name" v="Dauvevadet" />
		<tag k="ssr:stedsnr" v="414001" />
	</node>
	<node lat="59.490244443690166" lon="8.28756944507775" id="-29296">
=======
		<tag k="ssr:stedsnr" v="209938" />
	</node>
	<node id="-473954" lat="59.593552776" lon="7.80703611275">
		<tag k="bridge" v="yes" />
		<tag k="layer" v="1" />
		<tag k="name" v="Austbø" />
		<tag k="ssr:stedsnr" v="896442" />
	</node>
	<node id="-473953" lat="59.4990444473" lon="8.19791388219">
		<tag k="bridge" v="yes" />
		<tag k="layer" v="1" />
		<tag k="name" v="Ofte" />
		<tag k="ssr:stedsnr" v="896436" />
	</node>
	<node id="-473952" lat="59.4239500044" lon="8.18456665947">
		<tag k="bridge" v="yes" />
		<tag k="layer" v="1" />
		<tag k="name" v="Triset" />
		<tag k="ssr:stedsnr" v="896433" />
	</node>
	<node id="-474461" lat="59.466716669" lon="8.13456388201">
		<tag k="highway" v="path" />
		<tag k="name" v="Brekkebakken" />
		<tag k="ssr:stedsnr" v="49044" />
	</node>
	<node id="-474454" lat="59.3655027816" lon="7.85865832917">
		<tag k="highway" v="path" />
		<tag k="name" v="Folaspranget" />
		<tag k="ssr:stedsnr" v="46974" />
	</node>
	<node id="-475983" lat="59.5252749989" lon="7.82371111577">
		<tag k="fixme" v="verify maritime location" />
		<tag k="mooring" v="yes" />
		<tag k="name" v="Rikarsto" />
		<tag k="place" v="locality" />
		<tag k="ssr:stedsnr" v="835682" />
	</node>
	<node id="-474956" lat="59.4351555517" lon="8.17520832918">
		<tag k="alt_name" v="Homme" />
>>>>>>> e1d4bc35ff8a6074a6f2e91616a996b547c36f15
		<tag k="bridge" v="yes" />
		<tag k="layer" v="1" />
		<tag k="name" v="Rui" />
		<tag k="ssr:stedsnr" v="471409" />
	</node>
<<<<<<< HEAD
	<node lat="59.484905553270664" lon="7.953044437442072" id="-29297">
		<tag k="bridge" v="yes" />
		<tag k="layer" v="1" />
		<tag k="name" v="Skredtveit" />
		<tag k="ssr:stedsnr" v="471410" />
	</node>
	<node lat="59.42643611505757" lon="8.004386112255672" id="-29298">
=======
	<node id="-474443" lat="59.4753138901" lon="8.16689721947">
		<tag k="bridge" v="yes" />
		<tag k="layer" v="1" />
		<tag k="name" v="Veiå" />
		<tag k="ssr:stedsnr" v="46434" />
	</node>
	<node id="-475975" lat="59.5056472201" lon="7.86764166844">
		<tag k="fixme" v="verify maritime location" />
		<tag k="mooring" v="yes" />
		<tag k="name" v="Versto" />
		<tag k="place" v="locality" />
		<tag k="ssr:stedsnr" v="834844" />
	</node>
	<node id="-474946" lat="59.4753027803" lon="8.16690833039">
>>>>>>> e1d4bc35ff8a6074a6f2e91616a996b547c36f15
		<tag k="bridge" v="yes" />
		<tag k="layer" v="1" />
		<tag k="name" v="Kleivebekk" />
		<tag k="ssr:stedsnr" v="471411" />
	</node>
<<<<<<< HEAD
	<node lat="59.38405833240949" lon="8.007383336714812" id="-29299">
=======
	<node id="-472893" lat="59.3771444472" lon="8.15589444181">
>>>>>>> e1d4bc35ff8a6074a6f2e91616a996b547c36f15
		<tag k="bridge" v="yes" />
		<tag k="layer" v="1" />
		<tag k="name" v="Moen" />
		<tag k="ssr:stedsnr" v="471412" />
	</node>
<<<<<<< HEAD
	<node lat="59.43030277866458" lon="8.002752783850688" id="-29300">
=======
	<node id="-472892" lat="59.5186916642" lon="8.16187777536">
>>>>>>> e1d4bc35ff8a6074a6f2e91616a996b547c36f15
		<tag k="bridge" v="yes" />
		<tag k="layer" v="1" />
		<tag k="name" v="Holtebekk" />
		<tag k="ssr:stedsnr" v="471417" />
	</node>
<<<<<<< HEAD
	<node lat="59.4322666674747" lon="8.149869441477618" id="-29354">
		<tag k="man_made" v="cairn" />
		<tag k="name" v="Varden" />
		<tag k="place" v="locality" />
		<tag k="ssr:stedsnr" v="509325" />
	</node>
	<node lat="59.46056111065414" lon="8.122425007554252" id="-29357">
=======
	<node id="-475425" lat="59.4822194455" lon="7.84340833343">
		<tag k="bridge" v="yes" />
		<tag k="layer" v="1" />
		<tag k="name" v="Ljostad" />
		<tag k="ssr:stedsnr" v="532387" />
	</node>
	<node id="-473372" lat="59.4605611107" lon="8.12242500755">
>>>>>>> e1d4bc35ff8a6074a6f2e91616a996b547c36f15
		<tag k="fixme" v="consider highway=path" />
		<tag k="highway" v="track" />
		<tag k="name" v="Nærstøylvegen" />
		<tag k="ssr:stedsnr" v="509967" />
	</node>
<<<<<<< HEAD
	<node lat="59.40821944456264" lon="8.188547220084994" id="-29363">
		<tag k="man_made" v="quay" />
		<tag k="name" v="Bandaksli brygge" />
		<tag k="place" v="locality" />
		<tag k="ssr:stedsnr" v="510702" />
=======
	<node id="-473355" lat="59.4502027744" lon="7.94928334175">
		<tag k="alt_name" v="Vistad" />
		<tag k="bridge" v="yes" />
		<tag k="layer" v="1" />
		<tag k="name" v="Vistad bru" />
		<tag k="ssr:stedsnr" v="391973" />
	</node>
	<node id="-474378" lat="59.4242527773" lon="8.18824167488">
		<tag k="man_made" v="quay" />
		<tag k="name" v="Lårdal brygge" />
		<tag k="place" v="locality" />
		<tag k="ssr:stedsnr" v="26493" />
	</node>
	<node id="-472841" lat="59.3776500039" lon="8.17438889732">
		<tag k="highway" v="path" />
		<tag k="name" v="Plankeslepa" />
		<tag k="ssr:stedsnr" v="145803" />
	</node>
	<node id="-474843" lat="59.3704805533" lon="8.0907833309">
		<tag k="bridge" v="yes" />
		<tag k="layer" v="1" />
		<tag k="name" v="Skytjebekk" />
		<tag k="ssr:stedsnr" v="168401" />
	</node>
	<node id="-473636" lat="59.4812583321" lon="7.95811111061">
		<tag k="alt_name" v="Omdal" />
		<tag k="bridge" v="yes" />
		<tag k="layer" v="1" />
		<tag k="name" v="Omdalsbru" />
		<tag k="ssr:stedsnr" v="695088" />
	</node>
	<node id="-474147" lat="59.3721777809" lon="8.0260083371">
		<tag k="landuse" v="industrial" />
		<tag k="name" v="Krossgot" />
		<tag k="power" v="plant" />
		<tag k="ssr:stedsnr" v="938067" />
	</node>
	<node id="-473122" lat="59.3990083371" lon="8.00704721529">
		<tag k="bridge" v="yes" />
		<tag k="layer" v="1" />
		<tag k="name" v="Nykhyl" />
		<tag k="ssr:stedsnr" v="289406" />
	</node>
	<node id="-475847" lat="59.4957527813" lon="8.17977777075">
		<tag k="alt_name" v="Grytå bru" />
		<tag k="bridge" v="yes" />
		<tag k="layer" v="1" />
		<tag k="name" v="Grytå" />
		<tag k="ssr:stedsnr" v="775375" />
	</node>
	<node id="-475846" lat="59.4439944464" lon="7.97584445167">
		<tag k="bridge" v="yes" />
		<tag k="layer" v="1" />
		<tag k="name" v="Tverrå" />
		<tag k="ssr:stedsnr" v="775357" />
	</node>
	<node id="-475841" lat="59.3803194481" lon="7.82728611692">
		<tag k="ford" v="yes" />
		<tag k="name" v="Majorvadet" />
		<tag k="place" v="locality" />
		<tag k="ssr:stedsnr" v="774818" />
	</node>
	<node id="-475327" lat="59.4977083342" lon="8.16144721451">
		<tag k="bridge" v="yes" />
		<tag k="layer" v="1" />
		<tag k="name" v="Dauvevadet" />
		<tag k="ssr:stedsnr" v="414001" />
	</node>
	<node id="-475323" lat="59.5420750016" lon="8.20550277041">
		<tag k="junction" v="yes" />
		<tag k="name" v="Torget" />
		<tag k="place" v="locality" />
		<tag k="ssr:stedsnr" v="413562" />
	</node>
	<node id="-473256" lat="59.4756611125" lon="7.91439999727">
		<tag k="highway" v="path" />
		<tag k="name" v="Gamleveg" />
		<tag k="ssr:stedsnr" v="348264" />
	</node>
	<node id="-474786" lat="59.470508331" lon="7.94687499504">
		<tag k="alt_name" v="Skålejuv" />
		<tag k="bridge" v="yes" />
		<tag k="layer" v="1" />
		<tag k="name" v="Skålejuv bru" />
		<tag k="ssr:stedsnr" v="148088" />
	</node>
	<node id="-474268" lat="59.5889722201" lon="7.80682777985">
		<tag k="bridge" v="yes" />
		<tag k="layer" v="1" />
		<tag k="name" v="Flatastøyl" />
		<tag k="ssr:stedsnr" v="957403" />
	</node>
	<node id="-474776" lat="59.4452166686" lon="8.10775554825">
		<tag k="fixme" v="consider highway=path" />
		<tag k="highway" v="track" />
		<tag k="name" v="Grasdalvegen" />
		<tag k="ssr:stedsnr" v="146480" />
	</node>
	<node id="-475795" lat="59.4442444477" lon="8.04021389172">
		<tag k="landuse" v="industrial" />
		<tag k="name" v="Tokke 1" />
		<tag k="power" v="plant" />
		<tag k="ssr:stedsnr" v="755937" />
	</node>
	<node id="-475786" lat="59.4810472242" lon="7.80450277755">
		<tag k="highway" v="path" />
		<tag k="name" v="Futevegen" />
		<tag k="ssr:stedsnr" v="755170" />
	</node>
	<node id="-473222" lat="59.4194805593" lon="8.12463054816">
		<tag k="man_made" v="quay" />
		<tag k="name" v="Lauvvikbrygga" />
		<tag k="place" v="locality" />
		<tag k="ssr:stedsnr" v="329313" />
	</node>
	<node id="-473217" lat="59.4149222236" lon="8.24699444924">
		<tag k="fixme" v="consider highway=path" />
		<tag k="highway" v="track" />
		<tag k="name" v="Flekstveitvegen" />
		<tag k="ssr:stedsnr" v="328707" />
	</node>
	<node id="-475769" lat="59.4573527793" lon="8.13331110926">
		<tag k="alt_name" v="Aalandsli" />
		<tag k="bridge" v="yes" />
		<tag k="layer" v="1" />
		<tag k="name" v="Flateland bru" />
		<tag k="ssr:stedsnr" v="753420" />
	</node>
	<node id="-475070" lat="59.3737611136" lon="7.99160277177">
		<tag k="ford" v="yes" />
		<tag k="name" v="Åslandsva" />
		<tag k="place" v="locality" />
		<tag k="ssr:stedsnr" v="331069" />
	</node>
	<node id="-475238" lat="59.3635861093" lon="8.05228334053">
		<tag k="landuse" v="industrial" />
		<tag k="name" v="Skafså 1" />
		<tag k="power" v="plant" />
		<tag k="ssr:stedsnr" v="388942" />
	</node>
	<node id="-473694" lat="59.49183889" lon="8.30642222312">
		<tag k="bridge" v="yes" />
		<tag k="layer" v="1" />
		<tag k="name" v="Mostøyl" />
		<tag k="ssr:stedsnr" v="592441" />
	</node>
	<node id="-475740" lat="59.5452416676" lon="8.01501111416">
		<tag k="bridge" v="yes" />
		<tag k="layer" v="1" />
		<tag k="name" v="Gøytil" />
		<tag k="ssr:stedsnr" v="653403" />
	</node>
	<node id="-475739" lat="59.5643166698" lon="8.18422776955">
		<tag k="bridge" v="yes" />
		<tag k="layer" v="1" />
		<tag k="name" v="Lisleå" />
		<tag k="ssr:stedsnr" v="653401" />
	</node>
	<node id="-473178" lat="59.4303027787" lon="8.00275278385">
		<tag k="bridge" v="yes" />
		<tag k="layer" v="1" />
		<tag k="name" v="Holtebekk" />
		<tag k="ssr:stedsnr" v="471417" />
	</node>
	<node id="-473177" lat="59.3840583324" lon="8.00738333671">
		<tag k="bridge" v="yes" />
		<tag k="layer" v="1" />
		<tag k="name" v="Moen" />
		<tag k="ssr:stedsnr" v="471412" />
	</node>
	<node id="-473176" lat="59.4264361151" lon="8.00438611226">
		<tag k="bridge" v="yes" />
		<tag k="layer" v="1" />
		<tag k="name" v="Kleivebekk" />
		<tag k="ssr:stedsnr" v="471411" />
	</node>
	<node id="-473175" lat="59.4849055533" lon="7.95304443744">
		<tag k="bridge" v="yes" />
		<tag k="layer" v="1" />
		<tag k="name" v="Skredtveit" />
		<tag k="ssr:stedsnr" v="471410" />
	</node>
	<node id="-473174" lat="59.4902444437" lon="8.28756944508">
		<tag k="bridge" v="yes" />
		<tag k="layer" v="1" />
		<tag k="name" v="Rui" />
		<tag k="ssr:stedsnr" v="471409" />
	</node>
	<node id="-473173" lat="59.3765166702" lon="8.0382805598">
		<tag k="bridge" v="yes" />
		<tag k="layer" v="1" />
		<tag k="name" v="Åmdalsverk" />
		<tag k="ssr:stedsnr" v="471398" />
	</node>
	<node id="-473682" lat="59.4723333344" lon="7.87138888114">
		<tag k="name" v="Øyanberge" />
		<tag k="place" v="locality" />
		<tag k="ssr:stedsnr" v="712360" />
	</node>
	<node id="-475724" lat="59.3677611144" lon="7.87543611698">
		<tag k="bridge" v="yes" />
		<tag k="layer" v="1" />
		<tag k="name" v="Sæbyggjebru" />
		<tag k="ssr:stedsnr" v="652972" />
	</node>
	<node id="-472650" lat="59.3906861128" lon="8.04050277641">
		<tag k="bridge" v="yes" />
		<tag k="layer" v="1" />
		<tag k="name" v="Platebru" />
		<tag k="ssr:stedsnr" v="228446" />
	</node>
	<node id="-474185" lat="59.4627611088" lon="7.94009166759">
		<tag k="alt_name" v="Rukke" />
		<tag k="bridge" v="yes" />
		<tag k="layer" v="1" />
		<tag k="name" v="Rukke bru" />
		<tag k="ssr:stedsnr" v="938960" />
	</node>
	<node id="-475403" lat="59.5190777775" lon="7.87036667244">
		<tag k="ford" v="yes" />
		<tag k="name" v="Rafossvaet" />
		<tag k="place" v="locality" />
		<tag k="ssr:stedsnr" v="531695" />
	</node>
	<node id="-472649" lat="59.4788527768" lon="7.85677500482">
		<tag k="bridge" v="yes" />
		<tag k="layer" v="1" />
		<tag k="name" v="Øvre Ause" />
		<tag k="ssr:stedsnr" v="228443" />
	</node>
	<node id="-474170" lat="59.461380552" lon="8.02238333298">
		<tag k="bridge" v="yes" />
		<tag k="layer" v="1" />
		<tag k="name" v="Vrengen" />
		<tag k="ssr:stedsnr" v="836355" />
	</node>
	<node id="-475694" lat="59.4487472253" lon="7.73254167411">
		<tag k="highway" v="path" />
		<tag k="name" v="Homstjønnstigen" />
		<tag k="ssr:stedsnr" v="651674" />
	</node>
	<node id="-474157" lat="59.4639138918" lon="7.78918889002">
		<tag k="ford" v="yes" />
		<tag k="name" v="Øyarvadet" />
		<tag k="place" v="locality" />
		<tag k="ssr:stedsnr" v="938158" />
	</node>
	<node id="-474662" lat="59.4456666707" lon="8.01207777455">
		<tag k="bridge" v="yes" />
		<tag k="layer" v="1" />
		<tag k="name" v="Eidsborgbekk" />
		<tag k="ssr:stedsnr" v="107430" />
	</node>
	<node id="-473124" lat="59.5243888925" lon="8.01652500556">
		<tag k="bridge" v="yes" />
		<tag k="layer" v="1" />
		<tag k="name" v="Mjaugedal" />
		<tag k="ssr:stedsnr" v="289418" />
	</node>
	<node id="-473123" lat="59.4323527762" lon="7.99763888736">
		<tag k="bridge" v="yes" />
		<tag k="layer" v="1" />
		<tag k="name" v="Midtbjøra" />
		<tag k="ssr:stedsnr" v="289412" />
	</node>
	<node id="-474658" lat="59.4861638887" lon="7.73326111833">
		<tag k="highway" v="path" />
		<tag k="name" v="Kristianrota" />
		<tag k="ssr:stedsnr" v="106921" />
	</node>
	<node id="-475676" lat="59.469461109" lon="7.94728888224">
		<tag k="junction" v="yes" />
		<tag k="name" v="Liosvingen" />
		<tag k="place" v="locality" />
		<tag k="ssr:stedsnr" v="634082" />
	</node>
	<node id="-476184" lat="58.9440068917" lon="9.63791772882">
		<tag k="name" v="Tonerhavn" />
		<tag k="place" v="locality" />
		<tag k="ssr:stedsnr" v="1074516" />
	</node>
	<node id="-475655" lat="59.3621805513" lon="8.0707583392">
		<tag k="highway" v="path" />
		<tag k="name" v="Krusmunskotet" />
		<tag k="ssr:stedsnr" v="630947" />
	</node>
	<node id="-474117" lat="59.3924805588" lon="8.13930833567">
		<tag k="highway" v="path" />
		<tag k="name" v="Stemmekleivane" />
		<tag k="ssr:stedsnr" v="935061" />
	</node>
	<node id="-474966" lat="59.3733166672" lon="8.04523055654">
		<tag k="junction" v="yes" />
		<tag k="name" v="Rota" />
		<tag k="place" v="locality" />
		<tag k="ssr:stedsnr" v="209081" />
>>>>>>> e1d4bc35ff8a6074a6f2e91616a996b547c36f15
	</node>
</osm>
