<?xml version="1.0" encoding="UTF-8"?>
<osm generator="osmapis" version="0.6">
	<node id="-806612" lat="70.8581000216" lon="29.0848518627">
		<tag k="name" v="Berlevåg kommune" />
		<tag k="ssr:date" v="2016-05-11" />
		<tag k="ssr:gruppe" v="administrativeIndelinger" />
		<tag k="ssr:hovedgruppe" v="offentligAdministrasjon" />
		<tag k="ssr:stedsnr" v="694034" />
		<tag k="ssr:type" v="kommune" />
	</node>
	<node id="-806435" lat="70.859319463" lon="29.1015074304">
		<tag k="name" v="Vardneset" />
		<tag k="ssr:date" v="2016-05-10" />
		<tag k="ssr:gruppe" v="navigasjon" />
		<tag k="ssr:hovedgruppe" v="infrastruktur" />
		<tag k="ssr:stedsnr" v="216248" />
		<tag k="ssr:type" v="fyrlykt" />
	</node>
	<node id="-806256" lat="70.732205585" lon="29.419132258">
		<tag k="name" v="Veidnes" />
		<tag k="ssr:date" v="2016-05-10" />
		<tag k="ssr:gruppe" v="navigasjon" />
		<tag k="ssr:hovedgruppe" v="infrastruktur" />
		<tag k="ssr:stedsnr" v="329942" />
		<tag k="ssr:type" v="fyrlykt" />
	</node>
	<node id="-806733" lat="70.7129333626" lon="29.2956600786">
		<tag k="name" v="Kobbkroken" />
		<tag k="ssr:date" v="2016-05-11" />
		<tag k="ssr:gruppe" v="navigasjon" />
		<tag k="ssr:hovedgruppe" v="infrastruktur" />
		<tag k="ssr:stedsnr" v="930434" />
		<tag k="ssr:type" v="fyrlykt" />
	</node>
	<node id="-806249" lat="70.8530528038" lon="29.2357351514">
		<tag k="name" v="Kjølneset" />
		<tag k="old_name" v="Kjølnes fyr" />
		<tag k="ssr:date" v="2016-05-10" />
		<tag k="ssr:gruppe" v="navigasjon" />
		<tag k="ssr:hovedgruppe" v="infrastruktur" />
		<tag k="ssr:stedsnr" v="323980" />
		<tag k="ssr:type" v="fyrlykt" />
	</node>
	<node id="-806246" lat="70.8852194616" lon="28.9669241415">
		<tag k="name" v="Skarveneset" />
		<tag k="ssr:date" v="2016-05-10" />
		<tag k="ssr:gruppe" v="navigasjon" />
		<tag k="ssr:hovedgruppe" v="infrastruktur" />
		<tag k="ssr:stedsnr" v="323964" />
		<tag k="ssr:type" v="fyrlykt" />
	</node>
	<node id="-806755" lat="68.4849327361" lon="16.2297866207">
		<tag k="fixme" v="multiple name tags, choose one and add the other to alt_name" />
		<tag k="name" v="Nord-Noreg;Nord-Norge" />
		<tag k="ssr:date" v="2017-05-18" />
		<tag k="ssr:gruppe" v="administrativeIndelinger" />
		<tag k="ssr:hovedgruppe" v="offentligAdministrasjon" />
		<tag k="ssr:stedsnr" v="976106" />
		<tag k="ssr:type" v="annenAdministrativInndeling" />
	</node>
</osm>
