<?xml version="1.0" encoding="UTF-8"?>
<osm generator="osmapis" version="0.6">
	<node id="-282624" lat="58.9328388883" lon="8.93108611044">
		<tag k="name" v="Bronfakstjenn" />
		<tag k="natural" v="water" />
		<tag k="ssr:stedsnr" v="752506" />
	</node>
	<node id="-282618" lat="58.9013250003" lon="8.82998610461">
		<tag k="name" v="Roa" />
		<tag k="natural" v="bay" />
		<tag k="ssr:stedsnr" v="752449" />
	</node>
	<node id="-281257" lat="58.7706583303" lon="9.0272250062">
		<tag k="name" v="Lomtjenn" />
		<tag k="natural" v="water" />
		<tag k="ssr:stedsnr" v="267538" />
	</node>
	<node id="-282611" lat="58.9481583349" lon="8.88560556226">
		<tag k="alt_name" v="Risfjellvannet" />
		<tag k="name" v="Risfjellvatn" />
		<tag k="natural" v="water" />
		<tag k="ssr:stedsnr" v="729914" />
	</node>
	<node id="-282610" lat="58.9641055519" lon="8.95345556014">
		<tag k="alt_name" v="Fisketjennelva" />
		<tag k="name" v="Fisketjernelva" />
		<tag k="ssr:stedsnr" v="729910" />
		<tag k="waterway" v="stream" />
	</node>
	<node id="-282601" lat="58.8914361122" lon="8.83917221551">
		<tag k="alt_name" v="Kverntjenn" />
		<tag k="name" v="Kverntjørna" />
		<tag k="natural" v="water" />
		<tag k="ssr:stedsnr" v="729446" />
	</node>
	<node id="-282599" lat="58.9258833314" lon="8.82351944311">
		<tag k="alt_name" v="Fisketjenn" />
		<tag k="name" v="Fisktjerna" />
		<tag k="natural" v="water" />
		<tag k="ssr:stedsnr" v="729390" />
	</node>
	<node id="-282593" lat="58.8754416673" lon="8.91595832816">
		<tag k="alt_name" v="Holmvannet" />
		<tag k="name" v="Holmvatn" />
		<tag k="natural" v="water" />
		<tag k="ssr:stedsnr" v="729218" />
	</node>
	<node id="-282590" lat="58.8643472189" lon="8.85707776973">
		<tag k="name" v="Eldstøbukta" />
		<tag k="natural" v="bay" />
		<tag k="ssr:stedsnr" v="729171" />
	</node>
	<node id="-282589" lat="58.8576944457" lon="9.09044165972">
		<tag k="alt_name" v="Tveittjenn" />
		<tag k="name" v="Tveitstjern" />
		<tag k="natural" v="water" />
		<tag k="ssr:stedsnr" v="729156" />
	</node>
	<node id="-282585" lat="58.8622722252" lon="8.89519721657">
		<tag k="alt_name" v="Plenttjenn" />
		<tag k="name" v="Plentetjern" />
		<tag k="natural" v="water" />
		<tag k="ssr:stedsnr" v="729139" />
	</node>
	<node id="-282582" lat="58.8525972206" lon="9.17036111186">
		<tag k="alt_name" v="Vilitjenn" />
		<tag k="name" v="Vilitjerna" />
		<tag k="natural" v="water" />
		<tag k="ssr:stedsnr" v="729118" />
	</node>
	<node id="-282578" lat="58.8415416686" lon="9.17732221587">
		<tag k="alt_name" v="Tjovlitjenn" />
		<tag k="name" v="Tjovelitjerna" />
		<tag k="natural" v="water" />
		<tag k="ssr:stedsnr" v="729082" />
	</node>
	<node id="-282565" lat="58.7738555586" lon="9.02488888862">
		<tag k="name" v="Lomtjenn" />
		<tag k="natural" v="water" />
		<tag k="ssr:stedsnr" v="692558" />
	</node>
	<node id="-282557" lat="58.8234222194" lon="9.00785554935">
		<tag k="name" v="Øygardslitjenn" />
		<tag k="natural" v="water" />
		<tag k="ssr:stedsnr" v="691970" />
	</node>
	<node id="-282552" lat="58.8128027804" lon="9.13235832498">
		<tag k="name" v="Gruvetjenn" />
		<tag k="natural" v="water" />
		<tag k="ssr:stedsnr" v="691951" />
	</node>
	<node id="-282551" lat="58.7957333378" lon="9.09554444463">
		<tag k="name" v="Huldretjenn" />
		<tag k="natural" v="water" />
		<tag k="ssr:stedsnr" v="691948" />
	</node>
	<node id="-282539" lat="58.780077779" lon="9.02499721718">
		<tag k="name" v="Steinsmyrtjenn" />
		<tag k="natural" v="water" />
		<tag k="ssr:stedsnr" v="691900" />
	</node>
	<node id="-282532" lat="58.9205277737" lon="8.96362500499">
		<tag k="name" v="Rekvik" />
		<tag k="natural" v="bay" />
		<tag k="ssr:stedsnr" v="691860" />
	</node>
	<node id="-282522" lat="58.8898416707" lon="9.05285555201">
		<tag k="name" v="Gunnustadtjenn" />
		<tag k="natural" v="water" />
		<tag k="ssr:stedsnr" v="691798" />
	</node>
	<node id="-282513" lat="58.8964055539" lon="9.01275832926">
		<tag k="name" v="Holmane" />
		<tag k="natural" v="cape" />
		<tag k="ssr:stedsnr" v="691737" />
	</node>
	<node id="-282496" lat="58.8729999985" lon="9.11363333794">
		<tag k="name" v="Galtevaet" />
		<tag k="natural" v="shoal" />
		<tag k="place" v="locality" />
		<tag k="ssr:stedsnr" v="691626" />
	</node>
	<node id="-282494" lat="58.9168111112" lon="9.05849444066">
		<tag k="name" v="Rubbmyrbekken" />
		<tag k="ssr:stedsnr" v="691608" />
		<tag k="waterway" v="stream" />
	</node>
	<node id="-282493" lat="58.9211083313" lon="9.0552305526">
		<tag k="name" v="Snøkjerrhølen" />
		<tag k="place" v="locality" />
		<tag k="ssr:stedsnr" v="691607" />
	</node>
	<node id="-282486" lat="58.9221611119" lon="8.83325832557">
		<tag k="name" v="Høydalsdammen" />
		<tag k="ssr:stedsnr" v="691550" />
		<tag k="waterway" v="dam" />
	</node>
	<node id="-282484" lat="58.9275666671" lon="8.90903333542">
		<tag k="alt_name" v="Nedre Raudkolltjenn" />
		<tag k="name" v="Nedre Raudkolltjern" />
		<tag k="natural" v="water" />
		<tag k="ssr:stedsnr" v="691542" />
	</node>
	<node id="-282483" lat="58.8892027807" lon="8.91479167394">
		<tag k="name" v="Løkjefjelltjenn" />
		<tag k="natural" v="water" />
		<tag k="ssr:stedsnr" v="691530" />
	</node>
	<node id="-282477" lat="58.8504999996" lon="8.90852500237">
		<tag k="name" v="Lauvreistjenn" />
		<tag k="natural" v="water" />
		<tag k="ssr:stedsnr" v="691496" />
		<tag k="water" v="pond" />
	</node>
	<node id="-282470" lat="58.915372225" lon="9.01060555342">
		<tag k="alt_name" v="Raundalstjenn" />
		<tag k="name" v="Raundalstjern" />
		<tag k="natural" v="water" />
		<tag k="ssr:stedsnr" v="669754" />
	</node>
	<node id="-282467" lat="58.9807749981" lon="8.92645555068">
		<tag k="alt_name" v="Fisketjenn" />
		<tag k="name" v="Fisketjern" />
		<tag k="natural" v="water" />
		<tag k="ssr:stedsnr" v="668967" />
	</node>
	<node id="-282464" lat="58.9302999958" lon="8.89288055151">
		<tag k="alt_name" v="Solemtjenn" />
		<tag k="name" v="Solemtjern" />
		<tag k="natural" v="water" />
		<tag k="ssr:stedsnr" v="668845" />
	</node>
	<node id="-282458" lat="58.8880666654" lon="8.84050832918">
		<tag k="alt_name" v="Den Svarte Tjenna" />
		<tag k="name" v="Svarttjørna" />
		<tag k="natural" v="water" />
		<tag k="ssr:stedsnr" v="668736" />
	</node>
	<node id="-282455" lat="58.9351361107" lon="8.80273611402">
		<tag k="name" v="Fosslona" />
		<tag k="natural" v="water" />
		<tag k="ssr:stedsnr" v="668439" />
	</node>
	<node id="-282446" lat="58.8723249974" lon="8.92414721528">
		<tag k="alt_name" v="Tegårsvannet" />
		<tag k="name" v="Tegardsvatn" />
		<tag k="natural" v="water" />
		<tag k="ssr:stedsnr" v="668227" />
	</node>
	<node id="-282444" lat="58.875858329" lon="8.98375278045">
		<tag k="alt_name" v="Igletjenn" />
		<tag k="name" v="Igletjern" />
		<tag k="natural" v="water" />
		<tag k="ssr:stedsnr" v="668209" />
	</node>
	<node id="-282437" lat="58.8639055545" lon="9.15141110763">
		<tag k="alt_name" v="Svarttjenn" />
		<tag k="name" v="Svarttjerna" />
		<tag k="natural" v="water" />
		<tag k="ssr:stedsnr" v="668172" />
	</node>
	<node id="-282435" lat="58.8630611132" lon="9.00003611287">
		<tag k="alt_name" v="Bjørnstjenn" />
		<tag k="name" v="Bjørnstjern" />
		<tag k="natural" v="water" />
		<tag k="ssr:stedsnr" v="668155" />
	</node>
	<node id="-282432" lat="58.8617166703" lon="8.88828332603">
		<tag k="alt_name" v="Tjennheitjenn" />
		<tag k="name" v="Tjernheitjern" />
		<tag k="natural" v="water" />
		<tag k="ssr:stedsnr" v="668140" />
	</node>
	<node id="-282431" lat="58.8554805555" lon="8.85596944891">
		<tag k="alt_name" v="Vegårsvann;Vegårdsvatnet;Vegårsvannet" />
		<tag k="name" v="Vegårsvatnet" />
		<tag k="natural" v="water" />
		<tag k="ssr:stedsnr" v="668139" />
		<tag k="water" v="lake" />
	</node>
	<node id="-282430" lat="58.8495454039" lon="8.9656246661">
		<tag k="name" v="Svarthøl" />
		<tag k="natural" v="water" />
		<tag k="ssr:stedsnr" v="668137" />
	</node>
	<node id="-282429" lat="58.8604586915" lon="9.13627040228">
		<tag k="alt_name" v="Øygardstjennene;Øygardstjenn" />
		<tag k="name" v="Øygardstjørnane" />
		<tag k="natural" v="water" />
		<tag k="ssr:stedsnr" v="668120" />
	</node>
	<node id="-282426" lat="58.8451963849" lon="9.13026662866">
		<tag k="alt_name" v="Klovtjenn" />
		<tag k="name" v="Klovtjerna" />
		<tag k="natural" v="water" />
		<tag k="ssr:stedsnr" v="668108" />
	</node>
	<node id="-282423" lat="58.8414833356" lon="9.13603056145">
		<tag k="alt_name" v="Rødsøygardstjenn" />
		<tag k="name" v="Rødsøygardstjerna" />
		<tag k="natural" v="water" />
		<tag k="ssr:stedsnr" v="668078" />
	</node>
	<node id="-282422" lat="58.8382527758" lon="9.16945555206">
		<tag k="alt_name" v="Øygardstjenna" />
		<tag k="name" v="Øygardstjerna" />
		<tag k="natural" v="water" />
		<tag k="ssr:stedsnr" v="668076" />
	</node>
	<node id="-282420" lat="58.8290222228" lon="9.06387499312">
		<tag k="alt_name" v="Grytingtjenn" />
		<tag k="name" v="Grytingtjern" />
		<tag k="natural" v="water" />
		<tag k="ssr:stedsnr" v="668064" />
	</node>
	<node id="-282418" lat="58.8291805589" lon="9.17037222656">
		<tag k="name" v="Lillesvart" />
		<tag k="natural" v="water" />
		<tag k="ssr:stedsnr" v="668057" />
	</node>
	<node id="-282411" lat="58.9077499996" lon="8.97112777005">
		<tag k="name" v="Storelva" />
		<tag k="ssr:stedsnr" v="634330" />
		<tag k="waterway" v="river" />
	</node>
	<node id="-282406" lat="58.9761694422" lon="8.93571388703">
		<tag k="name" v="De brente dammane" />
		<tag k="ssr:stedsnr" v="631611" />
		<tag k="waterway" v="dam" />
	</node>
	<node id="-282405" lat="58.9691972189" lon="8.86745277924">
		<tag k="name" v="Vomma" />
		<tag k="natural" v="cape" />
		<tag k="ssr:stedsnr" v="631606" />
	</node>
	<node id="-282403" lat="58.9600861146" lon="8.91314166611">
		<tag k="name" v="Svarthøldammen" />
		<tag k="ssr:stedsnr" v="631572" />
		<tag k="waterway" v="dam" />
	</node>
	<node id="-282391" lat="58.8537027749" lon="9.0160722193">
		<tag k="name" v="Igletjenn" />
		<tag k="natural" v="water" />
		<tag k="ssr:stedsnr" v="630934" />
	</node>
	<node id="-282367" lat="58.9266722263" lon="9.03700555331">
		<tag k="name" v="Kilbutangen" />
		<tag k="natural" v="cape" />
		<tag k="ssr:stedsnr" v="630807" />
	</node>
	<node id="-282364" lat="58.9268527745" lon="8.95899999276">
		<tag k="name" v="Urvassfossen" />
		<tag k="natural" v="waterfall" />
		<tag k="ssr:stedsnr" v="630799" />
	</node>
	<node id="-282358" lat="58.8804944455" lon="9.03236944036">
		<tag k="name" v="Holmane" />
		<tag k="place" v="islet" />
		<tag k="ssr:stedsnr" v="630769" />
	</node>
	<node id="-282349" lat="58.8986027734" lon="9.02183888103">
		<tag k="name" v="Lillelva" />
		<tag k="ssr:stedsnr" v="630719" />
		<tag k="waterway" v="river" />
	</node>
	<node id="-282326" lat="58.8769277789" lon="8.90856388211">
		<tag k="name" v="Grautpytt" />
		<tag k="natural" v="water" />
		<tag k="ssr:stedsnr" v="630481" />
		<tag k="water" v="pond" />
	</node>
	<node id="-282321" lat="58.9007888858" lon="8.94282777502">
		<tag k="alt_name" v="Morketjern" />
		<tag k="name" v="Morketjenn" />
		<tag k="natural" v="water" />
		<tag k="ssr:stedsnr" v="608802" />
	</node>
	<node id="-282320" lat="58.7929000003" lon="9.0185527863">
		<tag k="alt_name" v="Høglitjennene" />
		<tag k="name" v="Høglitjørnane" />
		<tag k="natural" v="water" />
		<tag k="ssr:stedsnr" v="608537" />
	</node>
	<node id="-282318" lat="58.800058329" lon="9.0632722272">
		<tag k="name" v="Haugelva" />
		<tag k="ssr:stedsnr" v="608533" />
		<tag k="waterway" v="stream" />
	</node>
	<node id="-282317" lat="58.7913606964" lon="9.05731781703">
		<tag k="alt_name" v="Langtjenn" />
		<tag k="name" v="Langtjerna" />
		<tag k="natural" v="water" />
		<tag k="ssr:stedsnr" v="608527" />
	</node>
	<node id="-282315" lat="58.9429987014" lon="8.87487479562">
		<tag k="alt_name" v="Rumpetjenn" />
		<tag k="name" v="Rumpetjern" />
		<tag k="natural" v="water" />
		<tag k="ssr:stedsnr" v="607924" />
	</node>
	<node id="-282313" lat="58.9451638881" lon="9.01020277983">
		<tag k="alt_name" v="Sandtjenn" />
		<tag k="name" v="Sandtjern" />
		<tag k="natural" v="water" />
		<tag k="ssr:stedsnr" v="607921" />
	</node>
	<node id="-282311" lat="58.9340166666" lon="8.8620138892">
		<tag k="alt_name" v="Kjellingtjenn" />
		<tag k="name" v="Kjellingtjern" />
		<tag k="natural" v="water" />
		<tag k="ssr:stedsnr" v="607831" />
	</node>
	<node id="-282309" lat="58.8070916684" lon="9.03777500603">
		<tag k="alt_name" v="Urvassbekken" />
		<tag k="name" v="Urdvassbekken" />
		<tag k="ssr:stedsnr" v="607479" />
		<tag k="waterway" v="stream" />
	</node>
	<node id="-282307" lat="58.8093194415" lon="9.09928332926">
		<tag k="alt_name" v="Midtvannet" />
		<tag k="name" v="Midtvatnet" />
		<tag k="natural" v="water" />
		<tag k="ssr:stedsnr" v="607472" />
	</node>
	<node id="-282303" lat="58.88860208" lon="9.12115182923">
		<tag k="alt_name" v="Solemtjenn" />
		<tag k="name" v="Solemtjern" />
		<tag k="natural" v="water" />
		<tag k="ssr:stedsnr" v="607239" />
	</node>
	<node id="-282286" lat="58.851331565" lon="9.13700562751">
		<tag k="alt_name" v="Fisketjenn" />
		<tag k="name" v="Fisketjerna" />
		<tag k="natural" v="water" />
		<tag k="ssr:stedsnr" v="607110" />
	</node>
	<node id="-282284" lat="58.8425250025" lon="8.9396611041">
		<tag k="alt_name" v="Øygardstjenn" />
		<tag k="name" v="Øygardstjern" />
		<tag k="natural" v="water" />
		<tag k="ssr:stedsnr" v="607099" />
	</node>
	<node id="-282282" lat="58.8424868964" lon="8.99773315127">
		<tag k="alt_name" v="Stuptjenn" />
		<tag k="name" v="Stuptjern" />
		<tag k="natural" v="water" />
		<tag k="ssr:stedsnr" v="607089" />
	</node>
	<node id="-282279" lat="58.8318583319" lon="9.13147778473">
		<tag k="alt_name" v="Langtjenn" />
		<tag k="name" v="Langtjerna" />
		<tag k="natural" v="water" />
		<tag k="ssr:stedsnr" v="607065" />
	</node>
	<node id="-282277" lat="58.8323287105" lon="9.15153110038">
		<tag k="alt_name" v="Nybutjennene" />
		<tag k="name" v="Nybutjørnane" />
		<tag k="natural" v="water" />
		<tag k="ssr:stedsnr" v="607062" />
	</node>
	<node id="-282276" lat="58.828325" lon="9.15856943985">
		<tag k="alt_name" v="Nykktjenn" />
		<tag k="name" v="Nykktjerna" />
		<tag k="natural" v="water" />
		<tag k="ssr:stedsnr" v="607061" />
	</node>
	<node id="-282263" lat="58.8418055534" lon="9.01312778182">
		<tag k="name" v="Fjøstjenn" />
		<tag k="natural" v="water" />
		<tag k="ssr:stedsnr" v="570929" />
	</node>
	<node id="-282257" lat="58.8038583333" lon="8.99652500029">
		<tag k="name" v="Skrefjellbekken" />
		<tag k="ssr:stedsnr" v="570873" />
		<tag k="waterway" v="stream" />
	</node>
	<node id="-282255" lat="58.9131472239" lon="8.97970832659">
		<tag k="name" v="Kropptjenn" />
		<tag k="natural" v="water" />
		<tag k="ssr:stedsnr" v="570863" />
	</node>
	<node id="-282244" lat="58.8716055588" lon="8.95833610673">
		<tag k="name" v="Sekkanbekken" />
		<tag k="ssr:stedsnr" v="570785" />
		<tag k="waterway" v="stream" />
	</node>
	<node id="-282241" lat="58.8672222202" lon="9.0330333397">
		<tag k="name" v="Skuggevik" />
		<tag k="natural" v="bay" />
		<tag k="ssr:stedsnr" v="570781" />
	</node>
	<node id="-282240" lat="58.8221000009" lon="9.1505416641">
		<tag k="name" v="Mjåvasskilen" />
		<tag k="natural" v="bay" />
		<tag k="ssr:stedsnr" v="570778" />
	</node>
	<node id="-282234" lat="58.8344916663" lon="9.06670832557">
		<tag k="name" v="Tvielva" />
		<tag k="ssr:stedsnr" v="570737" />
		<tag k="waterway" v="stream" />
	</node>
	<node id="-282232" lat="58.8881777807" lon="9.02923056115">
		<tag k="name" v="Sandåkerfossen" />
		<tag k="natural" v="waterfall" />
		<tag k="ssr:stedsnr" v="570732" />
	</node>
	<node id="-282228" lat="58.8870833363" lon="9.03681944981">
		<tag k="name" v="Lierhølen" />
		<tag k="place" v="locality" />
		<tag k="ssr:stedsnr" v="570720" />
	</node>
	<node id="-282221" lat="58.9110277742" lon="9.07113055977">
		<tag k="name" v="Skjenskjærafossen" />
		<tag k="natural" v="waterfall" />
		<tag k="ssr:stedsnr" v="570569" />
	</node>
	<node id="-282195" lat="58.8659861084" lon="8.84283889157">
		<tag k="name" v="Lortbekk" />
		<tag k="ssr:stedsnr" v="569549" />
		<tag k="waterway" v="stream" />
	</node>
	<node id="-282193" lat="58.8798722245" lon="8.88245832883">
		<tag k="name" v="Steinvorstjenn" />
		<tag k="natural" v="water" />
		<tag k="ssr:stedsnr" v="569532" />
	</node>
	<node id="-282185" lat="58.9054916689" lon="8.91894166384">
		<tag k="alt_name" v="Mjåvannet" />
		<tag k="name" v="Mjåvatn" />
		<tag k="natural" v="water" />
		<tag k="ssr:stedsnr" v="548761" />
		<tag k="water" v="lake" />
	</node>
	<node id="-282184" lat="58.9217833312" lon="8.95363610965">
		<tag k="alt_name" v="Lundevannet" />
		<tag k="name" v="Lundvatn" />
		<tag k="natural" v="water" />
		<tag k="ssr:stedsnr" v="547891" />
	</node>
	<node id="-282181" lat="58.9110944404" lon="9.06829444531">
		<tag k="name" v="Rossva" />
		<tag k="ssr:stedsnr" v="547788" />
		<tag k="waterway" v="stream" />
	</node>
	<node id="-282177" lat="58.8775083359" lon="8.90559167212">
		<tag k="alt_name" v="Bjortjenn" />
		<tag k="name" v="Bjortjern" />
		<tag k="natural" v="water" />
		<tag k="ssr:stedsnr" v="547242" />
	</node>
	<node id="-282176" lat="58.8836194454" lon="9.13447500331">
		<tag k="name" v="Graskjerra" />
		<tag k="place" v="locality" />
		<tag k="ssr:stedsnr" v="547228" />
	</node>
	<node id="-282174" lat="58.8600555513" lon="9.0819388975">
		<tag k="alt_name" v="Igletjenn" />
		<tag k="name" v="Igletjern" />
		<tag k="natural" v="water" />
		<tag k="ssr:stedsnr" v="547162" />
	</node>
	<node id="-282172" lat="58.8596222179" lon="9.15394166097">
		<tag k="alt_name" v="Tufttjenn" />
		<tag k="name" v="Tofttjerna" />
		<tag k="natural" v="water" />
		<tag k="ssr:stedsnr" v="547139" />
	</node>
	<node id="-282167" lat="58.9707361117" lon="8.86701110529">
		<tag k="alt_name" v="Navannet" />
		<tag k="name" v="Navatn" />
		<tag k="natural" v="water" />
		<tag k="ssr:stedsnr" v="546981" />
	</node>
	<node id="-282164" lat="58.9296277734" lon="8.93405833422">
		<tag k="alt_name" v="Rumpetjenn" />
		<tag k="name" v="Rumpetjern" />
		<tag k="natural" v="water" />
		<tag k="ssr:stedsnr" v="546812" />
	</node>
	<node id="-282163" lat="58.8905305561" lon="8.95610833144">
		<tag k="alt_name" v="Lillelv" />
		<tag k="name" v="Lillelva" />
		<tag k="ssr:stedsnr" v="546214" />
		<tag k="waterway" v="river" />
	</node>
	<node id="-282160" lat="58.8615805522" lon="8.8672055598">
		<tag k="name" v="Viksbukta" />
		<tag k="natural" v="bay" />
		<tag k="ssr:stedsnr" v="546167" />
	</node>
	<node id="-282145" lat="58.9776083325" lon="8.9332749923">
		<tag k="name" v="Fisketjenndammen" />
		<tag k="ssr:stedsnr" v="510629" />
		<tag k="waterway" v="dam" />
	</node>
	<node id="-282139" lat="58.8252805544" lon="9.01433610396">
		<tag k="name" v="Skjertjenn" />
		<tag k="natural" v="water" />
		<tag k="ssr:stedsnr" v="509977" />
	</node>
	<node id="-282137" lat="58.8376166671" lon="9.01994721972">
		<tag k="name" v="Lona" />
		<tag k="natural" v="water" />
		<tag k="ssr:stedsnr" v="509970" />
		<tag k="water" v="lake" />
	</node>
	<node id="-282134" lat="58.7940138925" lon="9.10121110665">
		<tag k="name" v="Persbukt" />
		<tag k="natural" v="bay" />
		<tag k="ssr:stedsnr" v="509941" />
	</node>
	<node id="-282133" lat="58.809777782" lon="9.10528055425">
		<tag k="name" v="Timmerøya" />
		<tag k="place" v="island" />
		<tag k="ssr:stedsnr" v="509936" />
	</node>
	<node id="-282130" lat="58.8065694427" lon="9.06629999541">
		<tag k="name" v="Småtjenn" />
		<tag k="natural" v="water" />
		<tag k="ssr:stedsnr" v="509919" />
	</node>
	<node id="-282127" lat="58.9913694405" lon="8.98485000499">
		<tag k="name" v="Skreddarlona" />
		<tag k="natural" v="water" />
		<tag k="ssr:stedsnr" v="509909" />
		<tag k="water" v="lake" />
	</node>
	<node id="-282120" lat="58.7853249971" lon="9.02046388024">
		<tag k="name" v="Vestre Skorstølvannet" />
		<tag k="natural" v="water" />
		<tag k="ssr:stedsnr" v="509859" />
		<tag k="water" v="lake" />
	</node>
	<node id="-282118" lat="58.9246083308" lon="8.98340000528">
		<tag k="name" v="Skuggetjenn" />
		<tag k="natural" v="water" />
		<tag k="ssr:stedsnr" v="509836" />
	</node>
	<node id="-282115" lat="58.8680444475" lon="9.08232221881">
		<tag k="name" v="Sandbekk" />
		<tag k="ssr:stedsnr" v="509828" />
		<tag k="waterway" v="stream" />
	</node>
	<node id="-282114" lat="58.9353638911" lon="9.00502778441">
		<tag k="name" v="Roa" />
		<tag k="natural" v="bay" />
		<tag k="ssr:stedsnr" v="509825" />
	</node>
	<node id="-282103" lat="58.876374998" lon="9.04151667341">
		<tag k="name" v="Småmyrtjenn" />
		<tag k="natural" v="water" />
		<tag k="ssr:stedsnr" v="509770" />
	</node>
	<node id="-282093" lat="58.8735277739" lon="8.9926499992">
		<tag k="name" v="Kvernbekken" />
		<tag k="ssr:stedsnr" v="509724" />
		<tag k="waterway" v="stream" />
	</node>
	<node id="-282086" lat="58.8205583353" lon="9.16234443693">
		<tag k="name" v="Holmane" />
		<tag k="place" v="islet" />
		<tag k="ssr:stedsnr" v="509632" />
	</node>
	<node id="-282085" lat="58.8253111132" lon="9.1669027769">
		<tag k="name" v="Lillesvartsundet" />
		<tag k="natural" v="strait" />
		<tag k="ssr:stedsnr" v="509628" />
	</node>
	<node id="-282080" lat="58.9223444451" lon="9.05388332784">
		<tag k="name" v="Kilbudammen" />
		<tag k="ssr:stedsnr" v="509572" />
		<tag k="waterway" v="dam" />
	</node>
	<node id="-282073" lat="58.8876944471" lon="8.90391944401">
		<tag k="name" v="Rekvika" />
		<tag k="natural" v="bay" />
		<tag k="ssr:stedsnr" v="509488" />
	</node>
	<node id="-282065" lat="58.9386583298" lon="8.86717222357">
		<tag k="name" v="Diplane" />
		<tag k="place" v="locality" />
		<tag k="ssr:stedsnr" v="486931" />
	</node>
	<node id="-282063" lat="58.9188166689" lon="8.85943888531">
		<tag k="name" v="Kvernkroelva" />
		<tag k="ssr:stedsnr" v="486844" />
		<tag k="waterway" v="stream" />
	</node>
	<node id="-282062" lat="58.9228666676" lon="8.8703555598">
		<tag k="alt_name" v="Kalvåstjenn" />
		<tag k="name" v="Kalvåstjern" />
		<tag k="natural" v="water" />
		<tag k="ssr:stedsnr" v="486843" />
	</node>
	<node id="-282054" lat="58.9302888888" lon="8.79580832955">
		<tag k="name" v="Vehuselva" />
		<tag k="ssr:stedsnr" v="486433" />
		<tag k="waterway" v="stream" />
	</node>
	<node id="-282053" lat="58.9331027739" lon="8.8319888968">
		<tag k="alt_name" v="Heilandsvannet" />
		<tag k="name" v="Heilandsvatnet" />
		<tag k="natural" v="water" />
		<tag k="ssr:stedsnr" v="486429" />
		<tag k="water" v="lake" />
	</node>
	<node id="-282047" lat="58.8764249961" lon="8.84926110886">
		<tag k="alt_name" v="Hekkentjenn" />
		<tag k="name" v="Hekkentjern" />
		<tag k="natural" v="water" />
		<tag k="ssr:stedsnr" v="486194" />
	</node>
	<node id="-282046" lat="58.86018056" lon="8.87795832699">
		<tag k="name" v="Bjelkekjerr" />
		<tag k="place" v="locality" />
		<tag k="ssr:stedsnr" v="486150" />
	</node>
	<node id="-282044" lat="58.8565404738" lon="8.99268575329">
		<tag k="alt_name" v="Kalvåstjenn" />
		<tag k="name" v="Kalvåstjern" />
		<tag k="natural" v="water" />
		<tag k="ssr:stedsnr" v="486130" />
	</node>
	<node id="-282043" lat="58.8628167794" lon="8.97491461086">
		<tag k="alt_name" v="Kringletjenn" />
		<tag k="name" v="Kringletjern" />
		<tag k="natural" v="water" />
		<tag k="ssr:stedsnr" v="486128" />
	</node>
	<node id="-282042" lat="58.8630166709" lon="8.91378334115">
		<tag k="name" v="Storren" />
		<tag k="place" v="locality" />
		<tag k="ssr:stedsnr" v="486120" />
	</node>
	<node id="-282040" lat="58.8581250006" lon="8.88705000094">
		<tag k="alt_name" v="Tjennene" />
		<tag k="name" v="Tjernane" />
		<tag k="natural" v="water" />
		<tag k="ssr:stedsnr" v="486117" />
	</node>
	<node id="-282038" lat="58.8392805582" lon="8.94457778019">
		<tag k="alt_name" v="Sorttjenn" />
		<tag k="name" v="Surttjern" />
		<tag k="natural" v="water" />
		<tag k="ssr:stedsnr" v="486082" />
	</node>
	<node id="-282035" lat="58.8346305587" lon="9.03619999766">
		<tag k="alt_name" v="Båsvannet" />
		<tag k="name" v="Båsvatn" />
		<tag k="natural" v="water" />
		<tag k="ssr:stedsnr" v="486060" />
	</node>
	<node id="-282030" lat="58.8698361076" lon="9.12461111856">
		<tag k="alt_name" v="Kalvvatnet, vestre" />
		<tag k="name" v="Vestre Kalvvannet" />
		<tag k="natural" v="water" />
		<tag k="ssr:stedsnr" v="485163" />
		<tag k="water" v="lake" />
	</node>
	<node id="-282029" lat="58.8773805575" lon="9.08052499609">
		<tag k="alt_name" v="Stølstjenn" />
		<tag k="name" v="Stølstjern" />
		<tag k="natural" v="water" />
		<tag k="ssr:stedsnr" v="485156" />
	</node>
	<node id="-282014" lat="58.8187166682" lon="9.04468055479">
		<tag k="name" v="Perstjenn" />
		<tag k="natural" v="water" />
		<tag k="ssr:stedsnr" v="449931" />
	</node>
	<node id="-282009" lat="58.809169441" lon="9.06712500291">
		<tag k="name" v="Småtjenn" />
		<tag k="natural" v="water" />
		<tag k="ssr:stedsnr" v="449907" />
	</node>
	<node id="-282004" lat="58.7824611137" lon="9.0448777761">
		<tag k="name" v="Nærsbukarttjenn" />
		<tag k="natural" v="water" />
		<tag k="ssr:stedsnr" v="449882" />
	</node>
	<node id="-281989" lat="58.9286500022" lon="8.95785555331">
		<tag k="name" v="Prestefoss" />
		<tag k="natural" v="waterfall" />
		<tag k="ssr:stedsnr" v="449810" />
	</node>
	<node id="-281964" lat="58.8358277767" lon="9.16400555736">
		<tag k="name" v="Lonelva" />
		<tag k="ssr:stedsnr" v="449646" />
		<tag k="waterway" v="stream" />
	</node>
	<node id="-281953" lat="58.913263893" lon="8.84766945027">
		<tag k="name" v="Marksetdammen" />
		<tag k="ssr:stedsnr" v="449520" />
		<tag k="waterway" v="dam" />
	</node>
	<node id="-281949" lat="58.8675166681" lon="8.85281389359">
		<tag k="name" v="Sautangen" />
		<tag k="natural" v="cape" />
		<tag k="ssr:stedsnr" v="449502" />
	</node>
	<node id="-281942" lat="58.8983777791" lon="8.83812500572">
		<tag k="name" v="Sjølvskottjenn" />
		<tag k="natural" v="water" />
		<tag k="ssr:stedsnr" v="449444" />
	</node>
	<node id="-281941" lat="58.9014444451" lon="8.88775277997">
		<tag k="alt_name" v="Fjæringstjenn" />
		<tag k="name" v="Fjedingstjern" />
		<tag k="natural" v="water" />
		<tag k="ssr:stedsnr" v="427735" />
	</node>
	<node id="-281939" lat="58.9461860548" lon="8.89722477977">
		<tag k="alt_name" v="Dobbeltjenn" />
		<tag k="name" v="Dobbeltjern" />
		<tag k="natural" v="water" />
		<tag k="ssr:stedsnr" v="426919" />
	</node>
	<node id="-281930" lat="58.8642111138" lon="8.83617778445">
		<tag k="name" v="Lortbekk" />
		<tag k="ssr:stedsnr" v="426749" />
		<tag k="waterway" v="stream" />
	</node>
	<node id="-281922" lat="58.866729764" lon="9.10980397173">
		<tag k="alt_name" v="Langtjenn" />
		<tag k="name" v="Langtjerna" />
		<tag k="natural" v="water" />
		<tag k="ssr:stedsnr" v="426165" />
	</node>
	<node id="-281920" lat="58.8550166675" lon="8.92554166563">
		<tag k="name" v="Lonene" />
		<tag k="place" v="locality" />
		<tag k="ssr:stedsnr" v="426154" />
	</node>
	<node id="-281914" lat="58.9269333342" lon="8.81185556238">
		<tag k="alt_name" v="Svarttjenn" />
		<tag k="name" v="Svarttjern" />
		<tag k="natural" v="water" />
		<tag k="ssr:stedsnr" v="425401" />
	</node>
	<node id="-281910" lat="58.8483805523" lon="9.12335000418">
		<tag k="name" v="Kjerrstembekken" />
		<tag k="ssr:stedsnr" v="267999" />
		<tag k="waterway" v="stream" />
	</node>
	<node id="-281873" lat="58.8686305522" lon="9.03128888197">
		<tag k="name" v="Tollnes" />
		<tag k="natural" v="cape" />
		<tag k="ssr:stedsnr" v="266814" />
	</node>
	<node id="-281862" lat="58.936550003" lon="8.82657222241">
		<tag k="name" v="Heilandstjenn" />
		<tag k="natural" v="water" />
		<tag k="ssr:stedsnr" v="266711" />
	</node>
	<node id="-281856" lat="58.9295027766" lon="8.87113888837">
		<tag k="name" v="Ljådalsdammen" />
		<tag k="ssr:stedsnr" v="266571" />
		<tag k="waterway" v="dam" />
	</node>
	<node id="-281854" lat="58.9413444475" lon="8.86233054867">
		<tag k="name" v="Sautjenn" />
		<tag k="natural" v="water" />
		<tag k="ssr:stedsnr" v="266567" />
		<tag k="water" v="pond" />
	</node>
	<node id="-281853" lat="58.9308611098" lon="8.84304167454">
		<tag k="name" v="Sønderkil" />
		<tag k="natural" v="bay" />
		<tag k="ssr:stedsnr" v="266564" />
	</node>
	<node id="-281840" lat="58.9254361092" lon="8.87559722998">
		<tag k="name" v="Kalvåselva" />
		<tag k="ssr:stedsnr" v="244861" />
		<tag k="waterway" v="stream" />
	</node>
	<node id="-281834" lat="58.9069611072" lon="8.87639444463">
		<tag k="alt_name" v="Blandingstjenn" />
		<tag k="name" v="Blandingstjern" />
		<tag k="natural" v="water" />
		<tag k="ssr:stedsnr" v="244791" />
	</node>
	<node id="-281832" lat="58.9184444408" lon="9.06091110363">
		<tag k="name" v="Kilbuelva" />
		<tag k="ssr:stedsnr" v="244774" />
		<tag k="waterway" v="river" />
	</node>
	<node id="-281831" lat="58.7984666627" lon="8.99266667125">
		<tag k="name" v="Skredfjellbekken" />
		<tag k="ssr:stedsnr" v="244525" />
		<tag k="waterway" v="stream" />
	</node>
	<node id="-281828" lat="58.8075638926" lon="9.12525833963">
		<tag k="alt_name" v="Gåstjenn" />
		<tag k="name" v="Gåstjerna" />
		<tag k="natural" v="water" />
		<tag k="ssr:stedsnr" v="244490" />
	</node>
	<node id="-281827" lat="58.9602277767" lon="8.81506665814">
		<tag k="alt_name" v="Store Karistjenn" />
		<tag k="name" v="Karistjørna" />
		<tag k="natural" v="water" />
		<tag k="ssr:stedsnr" v="244312" />
	</node>
	<node id="-281826" lat="58.8755749977" lon="8.93511945245">
		<tag k="alt_name" v="Steinsvannet" />
		<tag k="name" v="Steinsvatn" />
		<tag k="natural" v="water" />
		<tag k="ssr:stedsnr" v="244218" />
	</node>
	<node id="-281823" lat="58.8492527772" lon="8.93982221933">
		<tag k="alt_name" v="Hundsvannet" />
		<tag k="name" v="Hundsvatn" />
		<tag k="natural" v="water" />
		<tag k="ssr:stedsnr" v="244147" />
		<tag k="water" v="lake" />
	</node>
	<node id="-281822" lat="58.8490666634" lon="8.99846388971">
		<tag k="alt_name" v="Fuglelitjenn" />
		<tag k="name" v="Fuglelitjern" />
		<tag k="natural" v="water" />
		<tag k="ssr:stedsnr" v="244132" />
	</node>
	<node id="-281817" lat="58.9351138921" lon="8.79108056419">
		<tag k="alt_name" v="Timmerlitjenn" />
		<tag k="name" v="Timmerlitjørna" />
		<tag k="natural" v="water" />
		<tag k="ssr:stedsnr" v="243419" />
	</node>
	<node id="-281816" lat="58.8881277768" lon="8.88199444633">
		<tag k="alt_name" v="Store Kleivvasstjenn" />
		<tag k="name" v="Store Kleivvasstjern" />
		<tag k="natural" v="water" />
		<tag k="ssr:stedsnr" v="243231" />
	</node>
	<node id="-281815" lat="58.8902444487" lon="9.11622777232">
		<tag k="alt_name" v="Heiknuttjenn" />
		<tag k="name" v="Heiknuttjerna" />
		<tag k="natural" v="water" />
		<tag k="ssr:stedsnr" v="243214" />
	</node>
	<node id="-281813" lat="58.8649833374" lon="8.92009444815">
		<tag k="alt_name" v="Stemtjenn" />
		<tag k="name" v="Stemtjern" />
		<tag k="natural" v="water" />
		<tag k="ssr:stedsnr" v="243167" />
	</node>
	<node id="-281810" lat="58.8423777739" lon="8.97229723034">
		<tag k="name" v="Høylangen" />
		<tag k="place" v="locality" />
		<tag k="ssr:stedsnr" v="243094" />
	</node>
	<node id="-281809" lat="58.8410111106" lon="9.03505834142">
		<tag k="name" v="Skogeråstjern" />
		<tag k="natural" v="water" />
		<tag k="ssr:stedsnr" v="243088" />
	</node>
	<node id="-281795" lat="58.8306311041" lon="9.01794471998">
		<tag k="name" v="Lonåstjennene" />
		<tag k="natural" v="water" />
		<tag k="ssr:stedsnr" v="206984" />
	</node>
	<node id="-281785" lat="58.8161805535" lon="9.15537222892">
		<tag k="name" v="Østre Svartøya" />
		<tag k="place" v="island" />
		<tag k="ssr:stedsnr" v="206952" />
	</node>
	<node id="-281776" lat="58.9219500011" lon="9.00828888755">
		<tag k="name" v="Ulvstjenn" />
		<tag k="natural" v="water" />
		<tag k="ssr:stedsnr" v="206897" />
	</node>
	<node id="-281764" lat="58.9386083336" lon="8.98530555663">
		<tag k="name" v="Paldalstjenn" />
		<tag k="natural" v="water" />
		<tag k="ssr:stedsnr" v="206838" />
	</node>
	<node id="-281763" lat="58.8832777767" lon="9.1539055617">
		<tag k="name" v="Småtjennene" />
		<tag k="natural" v="water" />
		<tag k="ssr:stedsnr" v="206835" />
	</node>
	<node id="-281761" lat="58.9384722192" lon="8.95130556385">
		<tag k="name" v="Kjeppdammen" />
		<tag k="ssr:stedsnr" v="206830" />
		<tag k="waterway" v="dam" />
	</node>
	<node id="-281748" lat="58.8709055594" lon="8.9751722176">
		<tag k="name" v="Blandtjenn" />
		<tag k="natural" v="water" />
		<tag k="ssr:stedsnr" v="206767" />
		<tag k="water" v="pond" />
	</node>
	<node id="-281718" lat="58.8984222218" lon="8.83436388108">
		<tag k="name" v="Sundet" />
		<tag k="natural" v="strait" />
		<tag k="ssr:stedsnr" v="206447" />
	</node>
	<node id="-281716" lat="58.8341277812" lon="9.1637666686">
		<tag k="name" v="Storelona" />
		<tag k="natural" v="water" />
		<tag k="ssr:stedsnr" v="206643" />
		<tag k="water" v="lake" />
	</node>
	<node id="-281712" lat="58.9025472226" lon="9.08420278233">
		<tag k="loc_name" v="Lille Nybutjenn" />
		<tag k="name" v="Lille Nybutjern" />
		<tag k="natural" v="water" />
		<tag k="ssr:stedsnr" v="184776" />
	</node>
	<node id="-281709" lat="58.9418654821" lon="8.85260999689">
		<tag k="alt_name" v="Gullknapptjenn" />
		<tag k="name" v="Gullknapptjern" />
		<tag k="natural" v="water" />
		<tag k="ssr:stedsnr" v="183930" />
	</node>
	<node id="-281708" lat="58.9225222245" lon="8.96269444702">
		<tag k="alt_name" v="Urvannet" />
		<tag k="name" v="Urdvatn" />
		<tag k="natural" v="water" />
		<tag k="ssr:stedsnr" v="183874" />
	</node>
	<node id="-281703" lat="58.8908960154" lon="8.84597286324">
		<tag k="alt_name" v="Skartjenn" />
		<tag k="name" v="Skardtjern" />
		<tag k="natural" v="water" />
		<tag k="ssr:stedsnr" v="183822" />
	</node>
	<node id="-281700" lat="58.8744750024" lon="8.80513888998">
		<tag k="name" v="Skomma" />
		<tag k="natural" v="water" />
		<tag k="ssr:stedsnr" v="183695" />
	</node>
	<node id="-281696" lat="58.8624741651" lon="9.02650204921">
		<tag k="alt_name" v="Torstjenn" />
		<tag k="name" v="Terstjern" />
		<tag k="natural" v="water" />
		<tag k="ssr:stedsnr" v="183133" />
	</node>
	<node id="-281695" lat="58.8637555597" lon="8.94714444535">
		<tag k="alt_name" v="Meseltjørnane" />
		<tag k="name" v="Meseltjennene" />
		<tag k="natural" v="water" />
		<tag k="ssr:stedsnr" v="183132" />
	</node>
	<node id="-281693" lat="58.8547277804" lon="8.94056943623">
		<tag k="name" v="Vestølelva" />
		<tag k="ssr:stedsnr" v="183128" />
		<tag k="waterway" v="stream" />
	</node>
	<node id="-281691" lat="58.8562527806" lon="9.17180834186">
		<tag k="alt_name" v="Rundtjenn" />
		<tag k="name" v="Rundtjerna" />
		<tag k="natural" v="water" />
		<tag k="ssr:stedsnr" v="183114" />
	</node>
	<node id="-281688" lat="58.819914407" lon="9.13803607279">
		<tag k="alt_name" v="Mjåvannet" />
		<tag k="name" v="Mjåvatnet" />
		<tag k="natural" v="water" />
		<tag k="ssr:stedsnr" v="183036" />
	</node>
	<node id="-281685" lat="58.9726277738" lon="8.96236389422">
		<tag k="alt_name" v="Vesterholttjenn" />
		<tag k="name" v="Vesterholttjern" />
		<tag k="natural" v="water" />
		<tag k="ssr:stedsnr" v="182986" />
	</node>
	<node id="-281684" lat="58.9732116698" lon="8.98335171922">
		<tag k="alt_name" v="Styggetjenn" />
		<tag k="name" v="Styggetjern" />
		<tag k="natural" v="water" />
		<tag k="ssr:stedsnr" v="182985" />
	</node>
	<node id="-281682" lat="58.9692194409" lon="8.88110832948">
		<tag k="name" v="Navasselva" />
		<tag k="ssr:stedsnr" v="182875" />
		<tag k="waterway" v="stream" />
	</node>
	<node id="-281681" lat="58.9328194422" lon="8.87837778254">
		<tag k="alt_name" v="Finntjennene" />
		<tag k="name" v="Finntjørnane" />
		<tag k="natural" v="water" />
		<tag k="ssr:stedsnr" v="182824" />
	</node>
	<node id="-281680" lat="58.9304765977" lon="8.97412496693">
		<tag k="alt_name" v="Valletjenn" />
		<tag k="name" v="Valletjern" />
		<tag k="natural" v="water" />
		<tag k="ssr:stedsnr" v="182816" />
	</node>
	<node id="-281678" lat="58.9326555544" lon="8.91958333092">
		<tag k="alt_name" v="Øvre Raukolltjenn" />
		<tag k="name" v="Øvre Raudkolltjern" />
		<tag k="natural" v="water" />
		<tag k="ssr:stedsnr" v="182813" />
	</node>
	<node id="-281676" lat="58.8070694415" lon="9.11709444969">
		<tag k="alt_name" v="Pøddetjenn" />
		<tag k="name" v="Poddetjerna" />
		<tag k="natural" v="water" />
		<tag k="ssr:stedsnr" v="182470" />
	</node>
	<node id="-281668" lat="58.8638861106" lon="8.87851944723">
		<tag k="alt_name" v="Eldstøtjenn" />
		<tag k="name" v="Eldstømyrtjerna" />
		<tag k="natural" v="water" />
		<tag k="ssr:stedsnr" v="182165" />
	</node>
	<node id="-281667" lat="58.8404833345" lon="8.95323888846">
		<tag k="alt_name" v="Storfisktjenn" />
		<tag k="name" v="Storfisktjerna" />
		<tag k="natural" v="water" />
		<tag k="ssr:stedsnr" v="182089" />
	</node>
	<node id="-281666" lat="58.837213887" lon="8.94913610849">
		<tag k="name" v="Pråmbukta" />
		<tag k="place" v="locality" />
		<tag k="ssr:stedsnr" v="182088" />
	</node>
	<node id="-281656" lat="58.8873000025" lon="9.04182499486">
		<tag k="name" v="Auslandselva" />
		<tag k="ssr:stedsnr" v="145986" />
		<tag k="waterway" v="river" />
	</node>
	<node id="-281652" lat="58.8088305595" lon="9.13840832848">
		<tag k="name" v="Storodden" />
		<tag k="natural" v="cape" />
		<tag k="ssr:stedsnr" v="145954" />
	</node>
	<node id="-281650" lat="58.8590277792" lon="8.98740833525">
		<tag k="name" v="Neverhøl" />
		<tag k="place" v="locality" />
		<tag k="ssr:stedsnr" v="145929" />
	</node>
	<node id="-281645" lat="58.8603472248" lon="9.01093333526">
		<tag k="name" v="Spjøstjenn" />
		<tag k="natural" v="water" />
		<tag k="ssr:stedsnr" v="145917" />
	</node>
	<node id="-281640" lat="58.8060472185" lon="9.04626111366">
		<tag k="name" v="Sevreisbukta" />
		<tag k="natural" v="bay" />
		<tag k="ssr:stedsnr" v="145877" />
	</node>
	<node id="-281637" lat="58.9216916675" lon="8.97454721815">
		<tag k="name" v="Eldstedtjenn" />
		<tag k="natural" v="water" />
		<tag k="ssr:stedsnr" v="145870" />
	</node>
	<node id="-281634" lat="58.9213027807" lon="8.95712778052">
		<tag k="name" v="Råna" />
		<tag k="natural" v="strait" />
		<tag k="ssr:stedsnr" v="145866" />
	</node>
	<node id="-281627" lat="58.9356027755" lon="8.95494999199">
		<tag k="name" v="Kjeppfossene" />
		<tag k="natural" v="waterfall" />
		<tag k="ssr:stedsnr" v="145842" />
	</node>
	<node id="-281621" lat="58.8695972201" lon="9.00338056291">
		<tag k="name" v="Trollbekk" />
		<tag k="ssr:stedsnr" v="145829" />
		<tag k="waterway" v="stream" />
	</node>
	<node id="-281610" lat="58.8216472224" lon="9.14622499829">
		<tag k="name" v="Mjåvassbekken" />
		<tag k="ssr:stedsnr" v="145787" />
		<tag k="waterway" v="stream" />
	</node>
	<node id="-281603" lat="58.8285944422" lon="9.10337778399">
		<tag k="name" v="Kjeholmen" />
		<tag k="place" v="islet" />
		<tag k="ssr:stedsnr" v="145753" />
	</node>
	<node id="-281602" lat="58.8966166625" lon="9.00095832609">
		<tag k="name" v="Vrangfoss" />
		<tag k="natural" v="waterfall" />
		<tag k="ssr:stedsnr" v="145752" />
	</node>
	<node id="-281572" lat="58.9506444456" lon="9.0018861029">
		<tag k="alt_name" v="Lille Orretj" />
		<tag k="name" v="Lille Orretjern" />
		<tag k="natural" v="water" />
		<tag k="ssr:stedsnr" v="122910" />
	</node>
	<node id="-281571" lat="58.9510305539" lon="9.00637499337">
		<tag k="alt_name" v="Orretjenn" />
		<tag k="name" v="Store Orretjern" />
		<tag k="natural" v="water" />
		<tag k="ssr:stedsnr" v="122909" />
	</node>
	<node id="-281566" lat="58.9274194476" lon="8.98198054766">
		<tag k="name" v="Tvilandstjenn" />
		<tag k="natural" v="water" />
		<tag k="old_name" v="Trilandstjerna" />
		<tag k="ssr:stedsnr" v="122822" />
	</node>
	<node id="-281565" lat="58.9359944442" lon="9.01390000593">
		<tag k="alt_name" v="Vondstitjenn" />
		<tag k="name" v="Vondstigtjerna" />
		<tag k="natural" v="water" />
		<tag k="ssr:stedsnr" v="122820" />
	</node>
	<node id="-281564" lat="58.9397916654" lon="8.93292777255">
		<tag k="alt_name" v="Kubbetjenn" />
		<tag k="name" v="Kubbetjern" />
		<tag k="natural" v="water" />
		<tag k="ssr:stedsnr" v="122815" />
	</node>
	<node id="-281562" lat="58.796641666" lon="9.0176388917">
		<tag k="alt_name" v="Mørketjenn" />
		<tag k="name" v="Mørktjerna" />
		<tag k="natural" v="water" />
		<tag k="ssr:stedsnr" v="122482" />
	</node>
	<node id="-281560" lat="58.803497222" lon="9.02868611663">
		<tag k="alt_name" v="Urvannet" />
		<tag k="name" v="Urdvatn" />
		<tag k="natural" v="water" />
		<tag k="ssr:stedsnr" v="122459" />
		<tag k="water" v="lake" />
	</node>
	<node id="-281559" lat="58.8024055532" lon="9.12005000515">
		<tag k="alt_name" v="Lomstjenn" />
		<tag k="name" v="Lomtjerna" />
		<tag k="natural" v="water" />
		<tag k="ssr:stedsnr" v="122453" />
	</node>
	<node id="-281555" lat="58.8850222591" lon="9.08774619787">
		<tag k="alt_name" v="Ulvstjenn" />
		<tag k="name" v="Ulvstjern" />
		<tag k="natural" v="water" />
		<tag k="ssr:stedsnr" v="122234" />
	</node>
	<node id="-281553" lat="58.8750111083" lon="8.89052499425">
		<tag k="alt_name" v="Almenningsvannet" />
		<tag k="name" v="Almenningsvatnet" />
		<tag k="natural" v="water" />
		<tag k="ssr:stedsnr" v="122219" />
	</node>
	<node id="-281551" lat="58.875030554" lon="9.14527776966">
		<tag k="alt_name" v="Kalvvatnet, østre" />
		<tag k="name" v="Østre Kalvvannet" />
		<tag k="natural" v="water" />
		<tag k="ssr:stedsnr" v="122198" />
		<tag k="water" v="lake" />
	</node>
	<node id="-281536" lat="58.8108638892" lon="9.00339999971">
		<tag k="alt_name" v="Skrefjelltjenn" />
		<tag k="name" v="Skredfjelltjerna" />
		<tag k="natural" v="water" />
		<tag k="ssr:stedsnr" v="122019" />
	</node>
	<node id="-281516" lat="58.7973916709" lon="9.10866389472">
		<tag k="name" v="Lilløy" />
		<tag k="place" v="island" />
		<tag k="ssr:stedsnr" v="85940" />
	</node>
	<node id="-281507" lat="58.9865166689" lon="8.99806944852">
		<tag k="name" v="Kvernfoss" />
		<tag k="natural" v="waterfall" />
		<tag k="ssr:stedsnr" v="85895" />
	</node>
	<node id="-281504" lat="58.848180552" lon="8.94049999968">
		<tag k="name" v="Hundane" />
		<tag k="place" v="islet" />
		<tag k="ssr:stedsnr" v="85889" />
	</node>
	<node id="-281496" lat="58.9299194425" lon="8.99472499174">
		<tag k="name" v="Fisketjenn" />
		<tag k="natural" v="water" />
		<tag k="ssr:stedsnr" v="85808" />
	</node>
	<node id="-281486" lat="58.8928472242" lon="9.05588056028">
		<tag k="name" v="Gunnustadfossen" />
		<tag k="natural" v="waterfall" />
		<tag k="ssr:stedsnr" v="85769" />
	</node>
	<node id="-281482" lat="58.8685055562" lon="8.98346110516">
		<tag k="name" v="Lona" />
		<tag k="ssr:stedsnr" v="85735" />
		<tag k="waterway" v="stream" />
	</node>
	<node id="-281465" lat="58.9229000024" lon="9.04987778009">
		<tag k="name" v="Vintervegbukta" />
		<tag k="natural" v="bay" />
		<tag k="ssr:stedsnr" v="84900" />
	</node>
	<node id="-281464" lat="58.9133222254" lon="8.96159166091">
		<tag k="name" v="Dansarhølen" />
		<tag k="place" v="locality" />
		<tag k="ssr:stedsnr" v="84895" />
	</node>
	<node id="-281463" lat="58.9088222249" lon="8.96661943765">
		<tag k="name" v="Plogen" />
		<tag k="place" v="islet" />
		<tag k="ssr:stedsnr" v="84889" />
	</node>
	<node id="-281456" lat="58.929963892" lon="8.79506944737">
		<tag k="name" v="Vehuselva" />
		<tag k="ssr:stedsnr" v="84722" />
		<tag k="waterway" v="river" />
	</node>
	<node id="-281451" lat="58.8981527758" lon="8.90278610632">
		<tag k="name" v="Ormtjenn" />
		<tag k="natural" v="water" />
		<tag k="ssr:stedsnr" v="84564" />
	</node>
	<node id="-281442" lat="58.8546111085" lon="8.93759443766">
		<tag k="name" v="Stittlonene" />
		<tag k="natural" v="water" />
		<tag k="ssr:stedsnr" v="84537" />
		<tag k="water" v="lake" />
	</node>
	<node id="-281429" lat="58.8971888868" lon="9.06956943993">
		<tag k="alt_name" v="Skuggetjenn" />
		<tag k="name" v="Skuggetjern" />
		<tag k="natural" v="water" />
		<tag k="ssr:stedsnr" v="62233" />
	</node>
	<node id="-281424" lat="58.8152944432" lon="9.05054445029">
		<tag k="alt_name" v="Barbuvannet" />
		<tag k="name" v="Barbuvatnet" />
		<tag k="natural" v="water" />
		<tag k="ssr:stedsnr" v="62025" />
	</node>
	<node id="-281422" lat="58.954638889" lon="8.99248889092">
		<tag k="alt_name" v="Blomreisheitjenn" />
		<tag k="name" v="Blomreisheitjerna" />
		<tag k="natural" v="water" />
		<tag k="ssr:stedsnr" v="61889" />
	</node>
	<node id="-281417" lat="58.96576389" lon="8.89520277053">
		<tag k="alt_name" v="Fjosbutjenn" />
		<tag k="name" v="Fjosbutjern" />
		<tag k="natural" v="water" />
		<tag k="ssr:stedsnr" v="61861" />
	</node>
	<node id="-281415" lat="58.8831305548" lon="8.8155444408">
		<tag k="alt_name" v="Revtjenn" />
		<tag k="name" v="Revtjørna" />
		<tag k="natural" v="water" />
		<tag k="ssr:stedsnr" v="61701" />
	</node>
	<node id="-281405" lat="58.870975003" lon="9.08036389715">
		<tag k="alt_name" v="Rafstøltjern" />
		<tag k="name" v="Rafstøltjenn" />
		<tag k="natural" v="water" />
		<tag k="ssr:stedsnr" v="61147" />
	</node>
	<node id="-281394" lat="58.7869083292" lon="9.05312500812">
		<tag k="name" v="Buksetjenn" />
		<tag k="natural" v="water" />
		<tag k="ssr:stedsnr" v="24965" />
	</node>
	<node id="-281387" lat="58.8152527802" lon="9.07779443834">
		<tag k="name" v="Lindtjenn" />
		<tag k="natural" v="water" />
		<tag k="ssr:stedsnr" v="24936" />
	</node>
	<node id="-281386" lat="58.8109055569" lon="9.0985388863">
		<tag k="name" v="Hjelløya" />
		<tag k="place" v="islet" />
		<tag k="ssr:stedsnr" v="24934" />
	</node>
	<node id="-281379" lat="58.978038887" lon="9.00789999613">
		<tag k="name" v="Gruvlefoss" />
		<tag k="natural" v="waterfall" />
		<tag k="ssr:stedsnr" v="24913" />
	</node>
	<node id="-281373" lat="58.9747138845" lon="8.96709999277">
		<tag k="name" v="Mellomtjenn" />
		<tag k="natural" v="water" />
		<tag k="ssr:stedsnr" v="24899" />
	</node>
	<node id="-281348" lat="58.879994444" lon="8.94186389225">
		<tag k="name" v="Luttjennmyra" />
		<tag k="natural" v="water" />
		<tag k="ssr:stedsnr" v="24799" />
	</node>
	<node id="-281339" lat="58.9363138916" lon="8.79960278534">
		<tag k="name" v="Fosslonfossen" />
		<tag k="natural" v="waterfall" />
		<tag k="ssr:stedsnr" v="24715" />
	</node>
	<node id="-281322" lat="58.9306944466" lon="8.84742777804">
		<tag k="name" v="Smalsund" />
		<tag k="natural" v="strait" />
		<tag k="ssr:stedsnr" v="24560" />
	</node>
	<node id="-281320" lat="58.9060472229" lon="8.83102221608">
		<tag k="name" v="Kabrettstedammen" />
		<tag k="ssr:stedsnr" v="24549" />
		<tag k="waterway" v="dam" />
	</node>
	<node id="-281311" lat="58.9902723284" lon="8.97449859172">
		<tag k="alt_name" v="Mørketjenn" />
		<tag k="name" v="Mørktjern" />
		<tag k="natural" v="water" />
		<tag k="ssr:stedsnr" v="1971" />
	</node>
	<node id="-281310" lat="58.9847777743" lon="8.88182778079">
		<tag k="alt_name" v="Bjørkebuvannet" />
		<tag k="name" v="Bjørkebuvatnet" />
		<tag k="natural" v="water" />
		<tag k="ssr:stedsnr" v="1967" />
	</node>
	<node id="-281309" lat="58.9843638911" lon="8.84958333073">
		<tag k="alt_name" v="Haglåsbekken" />
		<tag k="name" v="Hagelåsbekken" />
		<tag k="ssr:stedsnr" v="1964" />
		<tag k="waterway" v="stream" />
	</node>
	<node id="-281308" lat="58.9475598186" lon="8.8590284282">
		<tag k="alt_name" v="Veholttjenn" />
		<tag k="name" v="Veholttjern" />
		<tag k="natural" v="water" />
		<tag k="ssr:stedsnr" v="1914" />
	</node>
	<node id="-281307" lat="58.9214472215" lon="8.9209749952">
		<tag k="alt_name" v="Solemselva" />
		<tag k="name" v="Solemelva" />
		<tag k="ssr:stedsnr" v="1854" />
		<tag k="waterway" v="stream" />
	</node>
	<node id="-281306" lat="58.9428666699" lon="9.02565277649">
		<tag k="alt_name" v="Mørketjenn" />
		<tag k="name" v="Mørttjern" />
		<tag k="natural" v="water" />
		<tag k="ssr:stedsnr" v="1831" />
	</node>
	<node id="-281305" lat="58.8955777797" lon="8.8847249998">
		<tag k="alt_name" v="Otertjenn" />
		<tag k="name" v="Oterstjern" />
		<tag k="natural" v="water" />
		<tag k="ssr:stedsnr" v="1803" />
	</node>
	<node id="-281302" lat="58.7957166676" lon="9.04293055516">
		<tag k="alt_name" v="Skjærtjenn" />
		<tag k="name" v="Skjertjerna" />
		<tag k="natural" v="water" />
		<tag k="ssr:stedsnr" v="1506" />
	</node>
	<node id="-281301" lat="58.9190388873" lon="8.81669443838">
		<tag k="name" v="Trettestebekken" />
		<tag k="ssr:stedsnr" v="1384" />
		<tag k="waterway" v="stream" />
	</node>
	<node id="-281298" lat="58.8779750037" lon="9.00686389551">
		<tag k="alt_name" v="Dråpetjenn" />
		<tag k="name" v="Dråpetjern" />
		<tag k="natural" v="water" />
		<tag k="ssr:stedsnr" v="1207" />
	</node>
	<node id="-281294" lat="58.8271861139" lon="9.17015554737">
		<tag k="name" v="Plassodden" />
		<tag k="natural" v="cape" />
		<tag k="ssr:stedsnr" v="1078" />
	</node>
	<node id="-281290" lat="58.8256500027" lon="9.10215833197">
		<tag k="alt_name" v="Holtfjorden" />
		<tag k="name" v="Holtefjorden" />
		<tag k="natural" v="water" />
		<tag k="ssr:stedsnr" v="1060" />
		<tag k="water" v="lake" />
	</node>
	<node id="-281288" lat="58.8246333303" lon="9.16571945003">
		<tag k="name" v="Råna" />
		<tag k="natural" v="cape" />
		<tag k="ssr:stedsnr" v="1041" />
	</node>
	<node id="-281284" lat="58.9571722214" lon="8.875288891">
		<tag k="name" v="Maurbekken" />
		<tag k="ssr:stedsnr" v="898" />
		<tag k="waterway" v="stream" />
	</node>
	<node id="-281283" lat="58.9701583299" lon="8.85950278357">
		<tag k="alt_name" v="Navasstjenn" />
		<tag k="name" v="Navasstjern" />
		<tag k="natural" v="water" />
		<tag k="ssr:stedsnr" v="880" />
	</node>
	<node id="-281280" lat="58.9307444403" lon="8.86164443849">
		<tag k="name" v="Ljådalslonene" />
		<tag k="place" v="locality" />
		<tag k="ssr:stedsnr" v="836" />
	</node>
	<node id="-281278" lat="58.8074944442" lon="9.09838333171">
		<tag k="name" v="Øya" />
		<tag k="place" v="islet" />
		<tag k="ssr:stedsnr" v="475" />
	</node>
	<node id="-281277" lat="58.8789277783" lon="8.80316667498">
		<tag k="alt_name" v="Grasåstjenn" />
		<tag k="name" v="Grasåstjørna" />
		<tag k="natural" v="water" />
		<tag k="ssr:stedsnr" v="699" />
	</node>
	<node id="-281276" lat="58.8822280139" lon="9.09925589715">
		<tag k="alt_name" v="Langtjenn" />
		<tag k="name" v="Langtjern" />
		<tag k="natural" v="water" />
		<tag k="ssr:stedsnr" v="239" />
	</node>
	<node id="-281274" lat="58.868302774" lon="8.96474999708">
		<tag k="alt_name" v="Ormtjenn" />
		<tag k="name" v="Ormtjern" />
		<tag k="natural" v="water" />
		<tag k="ssr:stedsnr" v="197" />
	</node>
	<node id="-281272" lat="58.8637527823" lon="8.85145278426">
		<tag k="alt_name" v="Urodden" />
		<tag k="name" v="Urdodden" />
		<tag k="natural" v="cape" />
		<tag k="ssr:stedsnr" v="182" />
	</node>
	<node id="-281271" lat="58.8649777809" lon="9.11635278405">
		<tag k="name" v="Kalvvassbekken" />
		<tag k="ssr:stedsnr" v="175" />
		<tag k="waterway" v="stream" />
	</node>
	<node id="-281269" lat="58.8407638864" lon="9.0507388906">
		<tag k="alt_name" v="Fonetjern" />
		<tag k="name" v="Fonstjenn" />
		<tag k="natural" v="water" />
		<tag k="ssr:stedsnr" v="94" />
	</node>
	<node id="-281265" lat="58.8692555596" lon="9.12917500182">
		<tag k="name" v="Lyngtangbukta" />
		<tag k="natural" v="bay" />
		<tag k="ssr:stedsnr" v="267598" />
	</node>
	<node id="-281263" lat="58.8507749966" lon="9.17020833485">
		<tag k="name" v="Bjormyrbekken" />
		<tag k="ssr:stedsnr" v="267592" />
		<tag k="waterway" v="stream" />
	</node>
	<node id="-281031" lat="58.88219768" lon="8.94234487506">
		<tag k="name" v="Fåtjenn" />
		<tag k="natural" v="water" />
		<tag k="ssr:stedsnr" v="327743" />
	</node>
	<node id="-281255" lat="58.853605553" lon="8.99322500576">
		<tag k="name" v="Grønbergtjenn" />
		<tag k="natural" v="water" />
		<tag k="ssr:stedsnr" v="266936" />
	</node>
	<node id="-281254" lat="58.8510249958" lon="8.98843055913">
		<tag k="name" v="Vehustjenn" />
		<tag k="natural" v="water" />
		<tag k="ssr:stedsnr" v="266933" />
	</node>
	<node id="-281253" lat="58.8418666625" lon="9.02881667219">
		<tag k="name" v="Listølhølen" />
		<tag k="place" v="locality" />
		<tag k="ssr:stedsnr" v="266928" />
	</node>
	<node id="-281245" lat="58.9247027758" lon="9.00668055599">
		<tag k="name" v="Sølvfokktjenn" />
		<tag k="natural" v="water" />
		<tag k="ssr:stedsnr" v="266897" />
	</node>
	<node id="-281238" lat="58.8692250032" lon="9.11165555583">
		<tag k="name" v="Kringletjenn" />
		<tag k="natural" v="water" />
		<tag k="ssr:stedsnr" v="266865" />
	</node>
	<node id="-281235" lat="58.7768666704" lon="9.05399445302">
		<tag k="name" v="Svarthusbukta" />
		<tag k="natural" v="bay" />
		<tag k="ssr:stedsnr" v="84242" />
	</node>
	<node id="-281234" lat="58.7848365763" lon="9.01693915335">
		<tag k="name" v="Brentebergtjenn" />
		<tag k="natural" v="water" />
		<tag k="ssr:stedsnr" v="873255" />
	</node>
	<node id="-281214" lat="58.8002222192" lon="9.04812778357">
		<tag k="loc_name" v="Damtjerna" />
		<tag k="name" v="Damtjenn" />
		<tag k="natural" v="water" />
		<tag k="ssr:stedsnr" v="388864" />
	</node>
	<node id="-281208" lat="58.9377333376" lon="9.01965833232">
		<tag k="name" v="Pålsslåttjenn" />
		<tag k="natural" v="water" />
		<tag k="ssr:stedsnr" v="388841" />
	</node>
	<node id="-280987" lat="58.8850972255" lon="8.93294445135">
		<tag k="name" v="Laugarhølen" />
		<tag k="natural" v="water" />
		<tag k="ssr:stedsnr" v="327467" />
		<tag k="water" v="pond" />
	</node>
	<node id="-281193" lat="58.8732499957" lon="8.97127499367">
		<tag k="name" v="Stølstjenn" />
		<tag k="natural" v="water" />
		<tag k="ssr:stedsnr" v="388769" />
		<tag k="water" v="pond" />
	</node>
	<node id="-281191" lat="58.8365861148" lon="9.15990832905">
		<tag k="name" v="Elvekroken" />
		<tag k="ssr:stedsnr" v="388765" />
		<tag k="waterway" v="stream" />
	</node>
	<node id="-281186" lat="58.8978972218" lon="9.04974999157">
		<tag k="name" v="Svinhølen" />
		<tag k="place" v="locality" />
		<tag k="ssr:stedsnr" v="388718" />
	</node>
	<node id="-281170" lat="58.9063277787" lon="9.02269167079">
		<tag k="name" v="Brekkaelva" />
		<tag k="ssr:stedsnr" v="387899" />
		<tag k="waterway" v="stream" />
	</node>
	<node id="-281168" lat="58.9239611125" lon="9.0270055574">
		<tag k="name" v="Igletjenn" />
		<tag k="natural" v="water" />
		<tag k="ssr:stedsnr" v="387888" />
	</node>
	<node id="-281162" lat="58.9420027789" lon="8.94517777841">
		<tag k="name" v="Kjeppåna" />
		<tag k="ssr:stedsnr" v="387833" />
		<tag k="waterway" v="river" />
	</node>
	<node id="-281157" lat="58.9725916699" lon="8.86317778254">
		<tag k="name" v="Navassfossen" />
		<tag k="natural" v="waterfall" />
		<tag k="ssr:stedsnr" v="387611" />
	</node>
	<node id="-281156" lat="58.945902774" lon="8.90170833715">
		<tag k="name" v="Gunhildstjenn" />
		<tag k="natural" v="water" />
		<tag k="ssr:stedsnr" v="387594" />
	</node>
	<node id="-281151" lat="58.8678416624" lon="8.78550000133">
		<tag k="name" v="Trælvasstjenn" />
		<tag k="natural" v="water" />
		<tag k="ssr:stedsnr" v="387712" />
	</node>
	<node id="-281145" lat="58.9016805567" lon="8.99339999407">
		<tag k="alt_name" v="Hustjenn" />
		<tag k="name" v="Hustjern" />
		<tag k="natural" v="water" />
		<tag k="ssr:stedsnr" v="366758" />
	</node>
	<node id="-281144" lat="58.7805750025" lon="9.03343610579">
		<tag k="alt_name" v="Lindtjerna" />
		<tag k="name" v="Lindtjenn" />
		<tag k="natural" v="water" />
		<tag k="ssr:stedsnr" v="366424" />
	</node>
	<node id="-281142" lat="58.9216916645" lon="8.98609999293">
		<tag k="alt_name" v="Kroktjennene" />
		<tag k="name" v="Kroktjern" />
		<tag k="natural" v="water" />
		<tag k="ssr:stedsnr" v="365893" />
	</node>
	<node id="-281140" lat="58.9203472223" lon="8.88521388104">
		<tag k="alt_name" v="Bjørntjenn" />
		<tag k="name" v="Bjørntjern" />
		<tag k="natural" v="water" />
		<tag k="ssr:stedsnr" v="365872" />
	</node>
	<node id="-281139" lat="58.9201583314" lon="8.8538138803">
		<tag k="alt_name" v="Måreistjenn" />
		<tag k="name" v="Måreistjern" />
		<tag k="natural" v="water" />
		<tag k="ssr:stedsnr" v="365866" />
	</node>
	<node id="-281134" lat="58.9120138929" lon="8.91696943741">
		<tag k="alt_name" v="Øygardstjenn" />
		<tag k="name" v="Øygardstjern" />
		<tag k="natural" v="water" />
		<tag k="ssr:stedsnr" v="365783" />
	</node>
	<node id="-281129" lat="58.9548000029" lon="8.81792222336">
		<tag k="alt_name" v="Karistjørna, lille;Lille Karistjenn" />
		<tag k="name" v="Lille Karistjørna" />
		<tag k="natural" v="water" />
		<tag k="ssr:stedsnr" v="365336" />
	</node>
	<node id="-281126" lat="58.85693333" lon="8.96276943787">
		<tag k="alt_name" v="Egdetjenn" />
		<tag k="name" v="Egdetjern" />
		<tag k="natural" v="water" />
		<tag k="ssr:stedsnr" v="365152" />
	</node>
	<node id="-281125" lat="58.8511222221" lon="8.96201666375">
		<tag k="alt_name" v="Vestre Lyngtjenn" />
		<tag k="name" v="Vestre Lyngtjern" />
		<tag k="natural" v="water" />
		<tag k="ssr:stedsnr" v="365148" />
	</node>
	<node id="-281118" lat="58.8189833298" lon="9.07360000312">
		<tag k="alt_name" v="Nybøtjenn" />
		<tag k="name" v="Nybøtjerna" />
		<tag k="natural" v="water" />
		<tag k="ssr:stedsnr" v="365049" />
	</node>
	<node id="-281117" lat="58.8206277797" lon="9.08283333289">
		<tag k="alt_name" v="Sorttjenn" />
		<tag k="name" v="Surttjern" />
		<tag k="natural" v="water" />
		<tag k="ssr:stedsnr" v="365050" />
	</node>
	<node id="-281116" lat="58.8192368536" lon="9.12770050986">
		<tag k="alt_name" v="Ørbelstøtjenna" />
		<tag k="name" v="Ørbrysteltjerna" />
		<tag k="natural" v="water" />
		<tag k="ssr:stedsnr" v="365040" />
	</node>
	<node id="-281113" lat="58.9806083349" lon="8.84967222179">
		<tag k="name" v="Uvdalselva" />
		<tag k="ssr:stedsnr" v="364988" />
		<tag k="waterway" v="stream" />
	</node>
	<node id="-281111" lat="58.9648000007" lon="8.87121110518">
		<tag k="name" v="Sønderkil" />
		<tag k="place" v="locality" />
		<tag k="ssr:stedsnr" v="364898" />
	</node>
	<node id="-281109" lat="58.8697027778" lon="8.81260277027">
		<tag k="name" v="Langvatn" />
		<tag k="natural" v="water" />
		<tag k="ssr:stedsnr" v="364750" />
	</node>
	<node id="-281105" lat="58.9384394788" lon="8.79388725975">
		<tag k="alt_name" v="Revtjenn" />
		<tag k="name" v="Revtjørna" />
		<tag k="natural" v="water" />
		<tag k="ssr:stedsnr" v="364427" />
	</node>
	<node id="-281092" lat="58.9429539595" lon="8.82364813595">
		<tag k="alt_name" v="Stogreistjenn" />
		<tag k="name" v="Stogreistjern" />
		<tag k="natural" v="water" />
		<tag k="ssr:stedsnr" v="364858" />
	</node>
	<node id="-281086" lat="58.9579638873" lon="8.91837777432">
		<tag k="name" v="Bjørnvafossen" />
		<tag k="natural" v="waterfall" />
		<tag k="ssr:stedsnr" v="328565" />
	</node>
	<node id="-281081" lat="58.8282194437" lon="9.01785555959">
		<tag k="name" v="Mørktjenn" />
		<tag k="natural" v="water" />
		<tag k="ssr:stedsnr" v="327974" />
	</node>
	<node id="-283127" lat="58.8442249975" lon="9.08426667315">
		<tag k="name" v="Sunda" />
		<tag k="natural" v="strait" />
		<tag k="ssr:stedsnr" v="934971" />
	</node>
	<node id="-281001" lat="58.9227249974" lon="8.90847221418">
		<tag k="name" v="Solemdammen" />
		<tag k="ssr:stedsnr" v="327539" />
		<tag k="waterway" v="dam" />
	</node>
	<node id="-283112" lat="58.7988472216" lon="9.03967777351">
		<tag k="name" v="Raudtangen" />
		<tag k="natural" v="cape" />
		<tag k="ssr:stedsnr" v="934859" />
	</node>
	<node id="-281054" lat="58.9197722261" lon="8.95336389361">
		<tag k="name" v="Buodden" />
		<tag k="natural" v="cape" />
		<tag k="ssr:stedsnr" v="327815" />
	</node>
	<node id="-281052" lat="58.9397638887" lon="9.02273611495">
		<tag k="name" v="Pålsslåttjenn" />
		<tag k="natural" v="water" />
		<tag k="ssr:stedsnr" v="327806" />
	</node>
	<node id="-283087" lat="58.8278305521" lon="9.11250278535">
		<tag k="name" v="Åslandstjenn" />
		<tag k="natural" v="water" />
		<tag k="ssr:stedsnr" v="934751" />
	</node>
	<node id="-281035" lat="58.8791416644" lon="8.94551944634">
		<tag k="name" v="Luttjenn" />
		<tag k="natural" v="water" />
		<tag k="ssr:stedsnr" v="327753" />
	</node>
	<node id="-283079" lat="58.8997083372" lon="9.01364166397">
		<tag k="name" v="Ambutjennbekken" />
		<tag k="ssr:stedsnr" v="934723" />
		<tag k="waterway" v="stream" />
	</node>
	<node id="-280993" lat="58.8788166654" lon="8.88199722322">
		<tag k="name" v="Lille Steinvorstjenn" />
		<tag k="natural" v="water" />
		<tag k="ssr:stedsnr" v="327494" />
	</node>
	<node id="-283074" lat="58.8704527782" lon="8.80604722818">
		<tag k="name" v="Korttjenn" />
		<tag k="natural" v="water" />
		<tag k="ssr:stedsnr" v="934706" />
	</node>
	<node id="-283071" lat="58.8575722217" lon="8.851672221">
		<tag k="name" v="Blekfoldbukta" />
		<tag k="natural" v="bay" />
		<tag k="ssr:stedsnr" v="934682" />
	</node>
	<node id="-281021" lat="58.8325805591" lon="9.06496944864">
		<tag k="name" v="Igletjenn" />
		<tag k="natural" v="water" />
		<tag k="ssr:stedsnr" v="327718" />
	</node>
	<node id="-281019" lat="58.887338888" lon="9.02744999155">
		<tag k="name" v="Sandåkerhølen" />
		<tag k="place" v="locality" />
		<tag k="ssr:stedsnr" v="327713" />
	</node>
	<node id="-283065" lat="58.9200638883" lon="8.92875278304">
		<tag k="name" v="Solemfossen" />
		<tag k="natural" v="waterfall" />
		<tag k="ssr:stedsnr" v="934549" />
	</node>
	<node id="-283063" lat="58.9225944408" lon="8.91680556139">
		<tag k="name" v="Vinterstødammen" />
		<tag k="ssr:stedsnr" v="934522" />
		<tag k="waterway" v="dam" />
	</node>
	<node id="-283060" lat="58.8767777748" lon="8.93976388739">
		<tag k="name" v="Skjertjenn" />
		<tag k="natural" v="water" />
		<tag k="ssr:stedsnr" v="934493" />
	</node>
	<node id="-283053" lat="58.8503666628" lon="8.91536666756">
		<tag k="name" v="Smørtjenn" />
		<tag k="natural" v="water" />
		<tag k="ssr:stedsnr" v="934450" />
	</node>
	<node id="-283049" lat="58.9251305572" lon="9.04465277767">
		<tag k="alt_name" v="Kilbuvannet" />
		<tag k="name" v="Kilbuvatnet" />
		<tag k="natural" v="water" />
		<tag k="ssr:stedsnr" v="912871" />
		<tag k="water" v="lake" />
	</node>
	<node id="-283048" lat="58.9083222243" lon="9.02256666969">
		<tag k="name" v="Brekka" />
		<tag k="place" v="locality" />
		<tag k="ssr:stedsnr" v="912803" />
	</node>
	<node id="-283043" lat="58.9842361098" lon="8.91816945063">
		<tag k="name" v="Sandvassbekken" />
		<tag k="ssr:stedsnr" v="911962" />
		<tag k="waterway" v="stream" />
	</node>
	<node id="-283042" lat="58.9422111069" lon="8.85217777317">
		<tag k="name" v="Finnslåtten" />
		<tag k="place" v="locality" />
		<tag k="ssr:stedsnr" v="911922" />
	</node>
	<node id="-283041" lat="58.9671611096" lon="8.88870555946">
		<tag k="alt_name" v="Maurbekktjenn" />
		<tag k="name" v="Maurbekktjern" />
		<tag k="natural" v="water" />
		<tag k="ssr:stedsnr" v="911864" />
	</node>
	<node id="-283040" lat="58.9310944484" lon="9.00661110788">
		<tag k="alt_name" v="Evjevannet" />
		<tag k="name" v="Evjevatn" />
		<tag k="natural" v="water" />
		<tag k="ssr:stedsnr" v="911834" />
		<tag k="water" v="lake" />
	</node>
	<node id="-283039" lat="58.9427583344" lon="8.94276666304">
		<tag k="name" v="Fjosbuelva" />
		<tag k="ssr:stedsnr" v="911824" />
		<tag k="waterway" v="stream" />
	</node>
	<node id="-283038" lat="58.8914999998" lon="8.87104999841">
		<tag k="alt_name" v="Skåptjenn" />
		<tag k="name" v="Skåptjern" />
		<tag k="natural" v="water" />
		<tag k="ssr:stedsnr" v="911816" />
	</node>
	<node id="-283035" lat="58.8703555529" lon="8.79286388374">
		<tag k="name" v="Grasåsbekken" />
		<tag k="ssr:stedsnr" v="911707" />
		<tag k="waterway" v="stream" />
	</node>
	<node id="-280986" lat="58.9150999966" lon="8.88628610871">
		<tag k="alt_name" v="Styggetjenn" />
		<tag k="name" v="Styggetjern" />
		<tag k="natural" v="water" />
		<tag k="ssr:stedsnr" v="305871" />
	</node>
	<node id="-283033" lat="58.9505888845" lon="8.82821111">
		<tag k="alt_name" v="Øygardstjenna" />
		<tag k="name" v="Øygardstjørna" />
		<tag k="natural" v="water" />
		<tag k="ssr:stedsnr" v="911435" />
	</node>
	<node id="-280983" lat="58.9215138926" lon="8.91841111636">
		<tag k="name" v="Bomhølen" />
		<tag k="place" v="locality" />
		<tag k="ssr:stedsnr" v="305853" />
	</node>
	<node id="-280985" lat="58.9211500008" lon="8.91493888364">
		<tag k="alt_name" v="Kvalptjenn" />
		<tag k="name" v="Kvalptjern" />
		<tag k="natural" v="water" />
		<tag k="ssr:stedsnr" v="305855" />
	</node>
	<node id="-280980" lat="58.9040999973" lon="9.00131111614">
		<tag k="alt_name" v="Ambutjenn" />
		<tag k="name" v="Ambutjern" />
		<tag k="natural" v="water" />
		<tag k="ssr:stedsnr" v="305767" />
	</node>
	<node id="-280978" lat="58.9104305512" lon="9.00700833086">
		<tag k="alt_name" v="Nyklebutjenn" />
		<tag k="name" v="Nyklebutjerna" />
		<tag k="natural" v="water" />
		<tag k="ssr:stedsnr" v="305759" />
	</node>
	<node id="-283025" lat="58.8547833326" lon="9.07265000282">
		<tag k="alt_name" v="Gjerstadvannet" />
		<tag k="name" v="Gjerstadvatnet" />
		<tag k="natural" v="water" />
		<tag k="ssr:stedsnr" v="911199" />
		<tag k="water" v="lake" />
	</node>
	<node id="-283022" lat="58.8710916639" lon="9.09495556071">
		<tag k="alt_name" v="Stemtjenn" />
		<tag k="name" v="Stemtjern" />
		<tag k="natural" v="water" />
		<tag k="ssr:stedsnr" v="911161" />
	</node>
	<node id="-283021" lat="58.8634361137" lon="8.98876665981">
		<tag k="name" v="Egdelva" />
		<tag k="ssr:stedsnr" v="911157" />
		<tag k="waterway" v="river" />
	</node>
	<node id="-280971" lat="58.9563972205" lon="8.84769166844">
		<tag k="alt_name" v="Den svarte tjenna" />
		<tag k="name" v="Den svarte tjerna" />
		<tag k="natural" v="water" />
		<tag k="ssr:stedsnr" v="304896" />
	</node>
	<node id="-283018" lat="58.8349218131" lon="9.02622120295">
		<tag k="alt_name" v="Pøddetjenn" />
		<tag k="name" v="Poddetjern" />
		<tag k="natural" v="water" />
		<tag k="ssr:stedsnr" v="911081" />
	</node>
	<node id="-283031" lat="58.8844888896" lon="8.87731944219">
		<tag k="alt_name" v="Lille Kleivvasstjenn" />
		<tag k="fixme" v="multiple name tags, choose one and add the other to alt_name" />
		<tag k="name" v="Kattheitj;Lille Kleivvasstjern" />
		<tag k="natural" v="water" />
		<tag k="ssr:stedsnr" v="911263" />
	</node>
	<node id="-283016" lat="58.8209750026" lon="9.00698611656">
		<tag k="alt_name" v="Daltjenn" />
		<tag k="name" v="Bjortjern" />
		<tag k="natural" v="water" />
		<tag k="ssr:stedsnr" v="911053" />
	</node>
	<node id="-280966" lat="58.8952583304" lon="8.83525833001">
		<tag k="alt_name" v="Tjærehjelltjenn" />
		<tag k="name" v="Tjærehjelltjørna" />
		<tag k="natural" v="water" />
		<tag k="ssr:stedsnr" v="304436" />
	</node>
	<node id="-280965" lat="58.9397055557" lon="8.78880000508">
		<tag k="alt_name" v="Krosslitjenn" />
		<tag k="name" v="Krosskleivtjørna" />
		<tag k="natural" v="water" />
		<tag k="ssr:stedsnr" v="304418" />
	</node>
	<node id="-280964" lat="58.9507555542" lon="8.80896666187">
		<tag k="alt_name" v="Storrtjennene" />
		<tag k="name" v="Storrtjørnane" />
		<tag k="natural" v="water" />
		<tag k="ssr:stedsnr" v="304419" />
	</node>
	<node id="-280961" lat="58.8826444469" lon="9.07612499446">
		<tag k="alt_name" v="Sandtjenn" />
		<tag k="name" v="Sandtjern" />
		<tag k="natural" v="water" />
		<tag k="ssr:stedsnr" v="304216" />
	</node>
	<node id="-283008" lat="58.8994472179" lon="8.97783889098">
		<tag k="name" v="Åsbaktjenn" />
		<tag k="natural" v="water" />
		<tag k="ssr:stedsnr" v="873999" />
	</node>
	<node id="-280958" lat="58.8800500002" lon="8.90801111766">
		<tag k="alt_name" v="Grimstjenn" />
		<tag k="name" v="Grimstjern" />
		<tag k="natural" v="water" />
		<tag k="ssr:stedsnr" v="304199" />
	</node>
	<node id="-280981" lat="58.9005444425" lon="9.07911388158">
		<tag k="alt_name" v="Store Nybutjenn" />
		<tag k="name" v="Store Nybutjern" />
		<tag k="natural" v="water" />
		<tag k="ssr:stedsnr" v="305791" />
	</node>
	<node id="-283001" lat="58.7995666685" lon="9.10599166137">
		<tag k="name" v="Myrstø" />
		<tag k="natural" v="beach" />
		<tag k="ssr:stedsnr" v="873945" />
	</node>
	<node id="-283000" lat="58.8033333357" lon="9.10601110868">
		<tag k="name" v="Båtstø" />
		<tag k="natural" v="beach" />
		<tag k="ssr:stedsnr" v="873942" />
	</node>
	<node id="-280951" lat="58.8553583294" lon="8.89215555356">
		<tag k="alt_name" v="Småtjennene" />
		<tag k="name" v="Småtjernane" />
		<tag k="natural" v="water" />
		<tag k="ssr:stedsnr" v="304131" />
	</node>
	<node id="-280950" lat="58.8543611094" lon="8.97760833719">
		<tag k="alt_name" v="Heimre Lyngtjenn" />
		<tag k="name" v="Heimre Lyngtjern" />
		<tag k="natural" v="water" />
		<tag k="ssr:stedsnr" v="304128" />
	</node>
	<node id="-280945" lat="58.830869446" lon="8.99626388709">
		<tag k="alt_name" v="Lyngåstjenn" />
		<tag k="name" v="Lyngåstjern" />
		<tag k="natural" v="water" />
		<tag k="ssr:stedsnr" v="304066" />
	</node>
	<node id="-280944" lat="58.8302666664" lon="9.12177778435">
		<tag k="name" v="Åslandselva" />
		<tag k="ssr:stedsnr" v="304060" />
		<tag k="waterway" v="stream" />
	</node>
	<node id="-280942" lat="58.8121527769" lon="9.12690277514">
		<tag k="alt_name" v="Ståltjerna" />
		<tag k="name" v="Ståltjenn" />
		<tag k="natural" v="water" />
		<tag k="ssr:stedsnr" v="304011" />
	</node>
	<node id="-282989" lat="58.8584916646" lon="8.9690527791">
		<tag k="name" v="Kutangen" />
		<tag k="place" v="islet" />
		<tag k="ssr:stedsnr" v="873898" />
	</node>
	<node id="-282983" lat="58.8052888929" lon="9.04369445124">
		<tag k="name" v="Sevreisstranda" />
		<tag k="natural" v="beach" />
		<tag k="ssr:stedsnr" v="873868" />
	</node>
	<node id="-280977" lat="58.7874972262" lon="9.03853888377">
		<tag k="alt_name" v="Djuptjenn" />
		<tag k="name" v="Djuptjerna" />
		<tag k="natural" v="water" />
		<tag k="ssr:stedsnr" v="305489" />
	</node>
	<node id="-282980" lat="58.9073694413" lon="8.96818888984">
		<tag k="name" v="Sagfossen" />
		<tag k="natural" v="waterfall" />
		<tag k="ssr:stedsnr" v="873859" />
	</node>
	<node id="-282971" lat="58.9301972216" lon="9.01061110682">
		<tag k="name" v="Kreklingøya" />
		<tag k="place" v="islet" />
		<tag k="ssr:stedsnr" v="873837" />
	</node>
	<node id="-282946" lat="58.8329111093" lon="9.1647083348">
		<tag k="name" v="Damhølen" />
		<tag k="place" v="locality" />
		<tag k="ssr:stedsnr" v="873630" />
	</node>
	<node id="-282939" lat="58.9701555515" lon="8.87455833771">
		<tag k="name" v="Navassdammen" />
		<tag k="ssr:stedsnr" v="873572" />
		<tag k="waterway" v="dam" />
	</node>
	<node id="-282934" lat="58.9298166686" lon="8.87327221407">
		<tag k="name" v="Sandvadhølen" />
		<tag k="natural" v="water" />
		<tag k="ssr:stedsnr" v="873551" />
		<tag k="water" v="pond" />
	</node>
	<node id="-282933" lat="58.9341277806" lon="8.84146666546">
		<tag k="name" v="Heilandsdammen" />
		<tag k="ssr:stedsnr" v="873545" />
		<tag k="waterway" v="dam" />
	</node>
	<node id="-282931" lat="58.9093694415" lon="8.84493611415">
		<tag k="name" v="Sautangen" />
		<tag k="natural" v="cape" />
		<tag k="ssr:stedsnr" v="873540" />
	</node>
	<node id="-282928" lat="58.8648305576" lon="8.86302223059">
		<tag k="name" v="Eldstøbekken" />
		<tag k="ssr:stedsnr" v="873523" />
		<tag k="waterway" v="stream" />
	</node>
	<node id="-280968" lat="58.9332972239" lon="8.84675278104">
		<tag k="name" v="Langkil" />
		<tag k="place" v="locality" />
		<tag k="ssr:stedsnr" v="304854" />
	</node>
	<node id="-282923" lat="58.940433336" lon="9.00660278107">
		<tag k="alt_name" v="Fisketjenn" />
		<tag k="name" v="Fisketjern" />
		<tag k="natural" v="water" />
		<tag k="ssr:stedsnr" v="851826" />
	</node>
	<node id="-282918" lat="58.9063055535" lon="9.07298888596">
		<tag k="alt_name" v="Tryttjenn" />
		<tag k="name" v="Tryttjern" />
		<tag k="natural" v="water" />
		<tag k="ssr:stedsnr" v="851787" />
	</node>
	<node id="-282916" lat="58.9088805568" lon="8.89511666282">
		<tag k="alt_name" v="Vrangvannet" />
		<tag k="name" v="Vrangvatn" />
		<tag k="natural" v="water" />
		<tag k="ssr:stedsnr" v="851755" />
	</node>
	<node id="-282915" lat="58.9109194416" lon="8.89183055237">
		<tag k="alt_name" v="Foletjenn" />
		<tag k="name" v="Foletjern" />
		<tag k="natural" v="water" />
		<tag k="ssr:stedsnr" v="851754" />
	</node>
	<node id="-282913" lat="58.9105527745" lon="8.84161388189">
		<tag k="alt_name" v="Marksettjenn" />
		<tag k="name" v="Marksettjørna" />
		<tag k="natural" v="water" />
		<tag k="ssr:stedsnr" v="851475" />
	</node>
	<node id="-282912" lat="58.8054638909" lon="9.12759723073">
		<tag k="alt_name" v="Røyvannet" />
		<tag k="name" v="Røyvatnet" />
		<tag k="natural" v="water" />
		<tag k="ssr:stedsnr" v="851457" />
	</node>
	<node id="-282910" lat="58.9043250039" lon="8.8363444404">
		<tag k="alt_name" v="Langtjenn" />
		<tag k="name" v="Langtjørna" />
		<tag k="natural" v="water" />
		<tag k="ssr:stedsnr" v="851426" />
	</node>
	<node id="-282904" lat="58.826814827" lon="9.15379321777">
		<tag k="alt_name" v="Timmertjenn" />
		<tag k="name" v="Timmertjerna" />
		<tag k="natural" v="water" />
		<tag k="ssr:stedsnr" v="851032" />
	</node>
	<node id="-282900" lat="58.9320638902" lon="8.95728610569">
		<tag k="name" v="Meåna" />
		<tag k="place" v="locality" />
		<tag k="ssr:stedsnr" v="850833" />
	</node>
	<node id="-282898" lat="58.8012027738" lon="9.0423111095">
		<tag k="alt_name" v="Østre Skorstølvannet" />
		<tag k="name" v="Skorstølvatnet" />
		<tag k="natural" v="water" />
		<tag k="ssr:stedsnr" v="850490" />
		<tag k="water" v="lake" />
	</node>
	<node id="-282897" lat="58.9429068329" lon="8.8234669429">
		<tag k="alt_name" v="Stemtjenn" />
		<tag k="name" v="Stemtjerna" />
		<tag k="natural" v="water" />
		<tag k="ssr:stedsnr" v="850443" />
	</node>
	<node id="-282894" lat="58.8877416653" lon="8.89925555694">
		<tag k="alt_name" v="Kleivvannet" />
		<tag k="name" v="Kleivvatn" />
		<tag k="natural" v="water" />
		<tag k="ssr:stedsnr" v="850193" />
		<tag k="water" v="lake" />
	</node>
	<node id="-282887" lat="58.8623333317" lon="9.05066944426">
		<tag k="name" v="Nessundet" />
		<tag k="natural" v="strait" />
		<tag k="ssr:stedsnr" v="850156" />
	</node>
	<node id="-282881" lat="58.8286409692" lon="9.14445112999">
		<tag k="alt_name" v="Gunnarstjenn" />
		<tag k="name" v="Gunnarstjerna" />
		<tag k="natural" v="water" />
		<tag k="ssr:stedsnr" v="850063" />
	</node>
	<node id="-282867" lat="58.846283329" lon="9.08539166979">
		<tag k="name" v="Sundsfoss" />
		<tag k="natural" v="waterfall" />
		<tag k="ssr:stedsnr" v="813968" />
	</node>
	<node id="-282862" lat="58.8126833359" lon="9.14125556287">
		<tag k="name" v="Flatstøa" />
		<tag k="natural" v="beach" />
		<tag k="ssr:stedsnr" v="813942" />
	</node>
	<node id="-282854" lat="58.8281166649" lon="8.96668054945">
		<tag k="name" v="Prestekonetjennene" />
		<tag k="natural" v="water" />
		<tag k="ssr:stedsnr" v="813918" />
	</node>
	<node id="-282852" lat="58.845080556" lon="9.03094721579">
		<tag k="name" v="Daldammen" />
		<tag k="ssr:stedsnr" v="813905" />
		<tag k="waterway" v="dam" />
	</node>
	<node id="-282844" lat="58.8793250004" lon="9.0788111183">
		<tag k="name" v="Svarttjenn" />
		<tag k="natural" v="water" />
		<tag k="ssr:stedsnr" v="813841" />
	</node>
	<node id="-280952" lat="58.858297218" lon="8.92470277109">
		<tag k="alt_name" v="Besstjenn" />
		<tag k="name" v="Besstjern" />
		<tag k="natural" v="water" />
		<tag k="ssr:stedsnr" v="304134" />
	</node>
	<node id="-282826" lat="58.8908999972" lon="9.03199444278">
		<tag k="name" v="Auslandsbekken" />
		<tag k="ssr:stedsnr" v="813750" />
		<tag k="waterway" v="stream" />
	</node>
	<node id="-282820" lat="58.8807472203" lon="8.81360277171">
		<tag k="name" v="Østre Grasåstjenn" />
		<tag k="natural" v="water" />
		<tag k="ssr:stedsnr" v="813734" />
	</node>
	<node id="-282818" lat="58.8715972187" lon="8.79733333939">
		<tag k="name" v="Skjengstjenn" />
		<tag k="natural" v="water" />
		<tag k="ssr:stedsnr" v="813723" />
	</node>
	<node id="-282817" lat="58.9212916707" lon="8.82739443835">
		<tag k="name" v="Høydalsbekken" />
		<tag k="ssr:stedsnr" v="813716" />
		<tag k="waterway" v="stream" />
	</node>
	<node id="-282816" lat="58.8552555584" lon="8.86373610372">
		<tag k="name" v="Vindodden" />
		<tag k="natural" v="cape" />
		<tag k="ssr:stedsnr" v="813705" />
	</node>
	<node id="-282814" lat="58.8702861076" lon="8.81523889223">
		<tag k="name" v="Langvannet" />
		<tag k="natural" v="water" />
		<tag k="ssr:stedsnr" v="813669" />
		<tag k="water" v="lake" />
	</node>
	<node id="-282807" lat="58.9828083358" lon="8.90057499406">
		<tag k="name" v="Bjørkebuvassbekken" />
		<tag k="ssr:stedsnr" v="813574" />
		<tag k="waterway" v="stream" />
	</node>
	<node id="-282806" lat="58.9841361126" lon="8.91669444576">
		<tag k="name" v="Sandtjennbekken" />
		<tag k="ssr:stedsnr" v="813573" />
		<tag k="waterway" v="stream" />
	</node>
	<node id="-282798" lat="58.878025" lon="8.85804722068">
		<tag k="name" v="Grisbekk" />
		<tag k="ssr:stedsnr" v="813466" />
		<tag k="waterway" v="stream" />
	</node>
	<node id="-282797" lat="58.8825722196" lon="8.93596111021">
		<tag k="name" v="Myklandstjenn" />
		<tag k="natural" v="water" />
		<tag k="ssr:stedsnr" v="813460" />
	</node>
	<node id="-282795" lat="58.858825001" lon="8.84639444705">
		<tag k="name" v="Sundbekk" />
		<tag k="ssr:stedsnr" v="813442" />
		<tag k="waterway" v="stream" />
	</node>
	<node id="-282790" lat="58.9885527798" lon="8.99223333388">
		<tag k="alt_name" v="Bjørnstadvannet" />
		<tag k="name" v="Bjørnstadvatnet" />
		<tag k="natural" v="water" />
		<tag k="ssr:stedsnr" v="790967" />
		<tag k="water" v="lake" />
	</node>
	<node id="-282789" lat="58.9241972186" lon="9.0019416611">
		<tag k="alt_name" v="Vondtjenn" />
		<tag k="name" v="Vondtjern" />
		<tag k="natural" v="water" />
		<tag k="ssr:stedsnr" v="790888" />
	</node>
	<node id="-282787" lat="58.9374111098" lon="8.92073611754">
		<tag k="alt_name" v="Holtjenn" />
		<tag k="name" v="Holtjern" />
		<tag k="natural" v="water" />
		<tag k="ssr:stedsnr" v="790838" />
	</node>
	<node id="-282786" lat="58.9430972267" lon="9.01681944836">
		<tag k="alt_name" v="Øygardsrødtjenn" />
		<tag k="name" v="Øygardstjerna" />
		<tag k="natural" v="water" />
		<tag k="ssr:stedsnr" v="790839" />
	</node>
	<node id="-282783" lat="58.8994833303" lon="9.06603333041">
		<tag k="name" v="Sigder" />
		<tag k="place" v="locality" />
		<tag k="ssr:stedsnr" v="790816" />
	</node>
	<node id="-282778" lat="58.9034138929" lon="8.92274167257">
		<tag k="alt_name" v="Stølstjenn" />
		<tag k="name" v="Stølstjern" />
		<tag k="natural" v="water" />
		<tag k="ssr:stedsnr" v="790788" />
	</node>
	<node id="-282777" lat="58.9139999978" lon="8.92535000014">
		<tag k="alt_name" v="Bråkolltjenn" />
		<tag k="name" v="Bråkåltjern" />
		<tag k="natural" v="water" />
		<tag k="ssr:stedsnr" v="790784" />
	</node>
	<node id="-282776" lat="58.9111583376" lon="8.87932222382">
		<tag k="alt_name" v="Gjøstjenn" />
		<tag k="name" v="Gjøstjern" />
		<tag k="natural" v="water" />
		<tag k="ssr:stedsnr" v="790783" />
	</node>
	<node id="-282775" lat="58.9174333342" lon="8.91639166258">
		<tag k="name" v="Mjåvassbekken" />
		<tag k="ssr:stedsnr" v="790782" />
		<tag k="waterway" v="stream" />
	</node>
	<node id="-283017" lat="58.831588886" lon="9.1825583358">
		<tag k="alt_name" v="Strattjerna" />
		<tag k="name" v="Stratstjenn" />
		<tag k="natural" v="water" />
		<tag k="ssr:stedsnr" v="911064" />
	</node>
	<node id="-282770" lat="58.876958334" lon="9.06990555208">
		<tag k="alt_name" v="Trollvannet" />
		<tag k="name" v="Trollvatn" />
		<tag k="natural" v="water" />
		<tag k="ssr:stedsnr" v="790158" />
	</node>
	<node id="-282768" lat="58.8502916712" lon="9.01335788463">
		<tag k="alt_name" v="Stemtjenn" />
		<tag k="name" v="Stemtjern" />
		<tag k="natural" v="water" />
		<tag k="ssr:stedsnr" v="790099" />
	</node>
	<node id="-282766" lat="58.9518888868" lon="8.85484999503">
		<tag k="alt_name" v="Storrtjenn" />
		<tag k="name" v="Storrtjern" />
		<tag k="natural" v="water" />
		<tag k="ssr:stedsnr" v="789924" />
	</node>
	<node id="-282765" lat="58.945361113" lon="8.93743611945">
		<tag k="name" v="Kubbekjerrhølen" />
		<tag k="place" v="locality" />
		<tag k="ssr:stedsnr" v="789917" />
	</node>
	<node id="-282764" lat="58.9453303872" lon="8.99936394045">
		<tag k="alt_name" v="Jerpedalstjenn" />
		<tag k="name" v="Jerpedalstjerna" />
		<tag k="natural" v="water" />
		<tag k="ssr:stedsnr" v="789914" />
	</node>
	<node id="-282763" lat="58.9443916692" lon="8.9726388861">
		<tag k="alt_name" v="Brannstadtjenn" />
		<tag k="name" v="Brannstadtjern" />
		<tag k="natural" v="water" />
		<tag k="ssr:stedsnr" v="789915" />
	</node>
	<node id="-282756" lat="58.9429611146" lon="8.78426944446">
		<tag k="alt_name" v="Solhomtjenn" />
		<tag k="name" v="Solhomtjerna" />
		<tag k="natural" v="water" />
		<tag k="ssr:stedsnr" v="789425" />
	</node>
	<node id="-282753" lat="58.8822527779" lon="8.87869444293">
		<tag k="alt_name" v="Kattheitjenn" />
		<tag k="name" v="Kattheitjern" />
		<tag k="natural" v="water" />
		<tag k="ssr:stedsnr" v="789249" />
	</node>
	<node id="-282752" lat="58.8814861132" lon="8.95206666431">
		<tag k="alt_name" v="Koltjenn" />
		<tag k="name" v="Koltjern" />
		<tag k="natural" v="water" />
		<tag k="ssr:stedsnr" v="789233" />
	</node>
	<node id="-282749" lat="58.8677027766" lon="8.91875000408">
		<tag k="alt_name" v="Vrangtjenn" />
		<tag k="name" v="Vrangtjern" />
		<tag k="natural" v="water" />
		<tag k="ssr:stedsnr" v="789194" />
	</node>
	<node id="-282748" lat="58.8607638892" lon="8.85707222041">
		<tag k="name" v="Sundodden" />
		<tag k="natural" v="cape" />
		<tag k="ssr:stedsnr" v="789179" />
	</node>
	<node id="-282747" lat="58.8653861416" lon="9.06526752223">
		<tag k="alt_name" v="Småtjern" />
		<tag k="name" v="Småtjennene" />
		<tag k="natural" v="water" />
		<tag k="ssr:stedsnr" v="789166" />
	</node>
	<node id="-282742" lat="58.8368666708" lon="8.99855278137">
		<tag k="name" v="Baunkjerrbekken" />
		<tag k="ssr:stedsnr" v="789092" />
		<tag k="waterway" v="stream" />
	</node>
	<node id="-280970" lat="58.9275638924" lon="8.89702777938">
		<tag k="alt_name" v="Skuggetjenn" />
		<tag k="name" v="Skuggetjern" />
		<tag k="natural" v="water" />
		<tag k="ssr:stedsnr" v="304863" />
	</node>
	<node id="-282736" lat="58.8239138902" lon="9.05873334026">
		<tag k="alt_name" v="Langtjenn" />
		<tag k="name" v="Langtjern" />
		<tag k="natural" v="water" />
		<tag k="ssr:stedsnr" v="789033" />
	</node>
	<node id="-282726" lat="58.8895444447" lon="9.05002777778">
		<tag k="name" v="Katthølen" />
		<tag k="place" v="locality" />
		<tag k="ssr:stedsnr" v="752989" />
	</node>
	<node id="-282722" lat="58.833347223" lon="9.01002777066">
		<tag k="name" v="Tverrlona" />
		<tag k="natural" v="water" />
		<tag k="ssr:stedsnr" v="752977" />
		<tag k="water" v="lake" />
	</node>
	<node id="-282714" lat="58.7918861122" lon="9.09778334097">
		<tag k="name" v="Stifosstranda" />
		<tag k="natural" v="beach" />
		<tag k="ssr:stedsnr" v="752955" />
	</node>
	<node id="-282713" lat="58.7957555586" lon="9.10058889409">
		<tag k="name" v="Huldrebukta" />
		<tag k="natural" v="bay" />
		<tag k="ssr:stedsnr" v="752949" />
	</node>
	<node id="-282712" lat="58.8354749957" lon="8.95298611663">
		<tag k="name" v="Falkåstjenn" />
		<tag k="natural" v="water" />
		<tag k="ssr:stedsnr" v="752947" />
	</node>
	<node id="-282705" lat="58.7897083308" lon="9.03398055809">
		<tag k="name" v="Steinsmyrpytten" />
		<tag k="natural" v="water" />
		<tag k="ssr:stedsnr" v="752909" />
		<tag k="water" v="pond" />
	</node>
	<node id="-282699" lat="58.923883332" lon="9.01360555464">
		<tag k="name" v="Evjevasstjenn" />
		<tag k="natural" v="bay" />
		<tag k="ssr:stedsnr" v="752884" />
	</node>
	<node id="-282697" lat="58.7998749963" lon="9.04366388573">
		<tag k="name" v="Storøy" />
		<tag k="place" v="island" />
		<tag k="ssr:stedsnr" v="752868" />
	</node>
	<node id="-282696" lat="58.915958334" lon="8.98346388534">
		<tag k="name" v="Bokstjenn" />
		<tag k="natural" v="water" />
		<tag k="ssr:stedsnr" v="752867" />
	</node>
	<node id="-282684" lat="58.879672224" lon="9.06732777853">
		<tag k="name" v="Trollfoss" />
		<tag k="natural" v="waterfall" />
		<tag k="ssr:stedsnr" v="752839" />
	</node>
	<node id="-282682" lat="58.8709138915" lon="9.06658333413">
		<tag k="name" v="Rosstjenn" />
		<tag k="natural" v="water" />
		<tag k="ssr:stedsnr" v="752838" />
	</node>
	<node id="-282678" lat="58.8628555601" lon="8.99569999303">
		<tag k="name" v="Vaet" />
		<tag k="natural" v="strait" />
		<tag k="ssr:stedsnr" v="752822" />
	</node>
	<node id="-282672" lat="58.8846583367" lon="9.07330277437">
		<tag k="name" v="Langstebekken" />
		<tag k="ssr:stedsnr" v="752799" />
		<tag k="waterway" v="stream" />
	</node>
	<node id="-282663" lat="58.8216722222" lon="9.15279721702">
		<tag k="name" v="Mjåvassodden" />
		<tag k="natural" v="cape" />
		<tag k="ssr:stedsnr" v="752770" />
	</node>
	<node id="-282646" lat="58.9486722227" lon="8.79115000112">
		<tag k="name" v="Maristjenn" />
		<tag k="natural" v="water" />
		<tag k="ssr:stedsnr" v="752677" />
	</node>
	<node id="-282635" lat="58.9804277819" lon="8.84238610965">
		<tag k="name" v="Den vonde fossen" />
		<tag k="natural" v="waterfall" />
		<tag k="ssr:stedsnr" v="752559" />
	</node>
	<node id="-282631" lat="58.9541361079" lon="8.91969444348">
		<tag k="name" v="Fjosbufossen" />
		<tag k="natural" v="waterfall" />
		<tag k="ssr:stedsnr" v="752542" />
	</node>
	<node id="-282626" lat="58.9108583314" lon="8.92168333222">
		<tag k="name" v="Mjåvassdammen" />
		<tag k="ssr:stedsnr" v="752519" />
		<tag k="waterway" v="dam" />
	</node>
</osm>
