<?xml version="1.0" encoding="UTF-8"?>
<osm generator="osmapis" version="0.6">
	<node id="-156895" lat="66.9912138887" lon="14.1735305571">
		<tag k="junction" v="yes" />
		<tag k="name" v="Hamnkrysset" />
		<tag k="place" v="locality" />
		<tag k="ssr:stedsnr" v="207477" />
	</node>
	<node id="-155645" lat="66.9831944407" lon="13.9569999883">
		<tag k="highway" v="path" />
		<tag k="name" v="Grøssetvegen" />
		<tag k="ssr:stedsnr" v="482267" />
	</node>
	<node id="-156059" lat="66.965741663" lon="14.1267472124">
		<tag k="ford" v="yes" />
		<tag k="name" v="Hestvadet" />
		<tag k="place" v="locality" />
		<tag k="ssr:stedsnr" v="631460" />
	</node>
	<node id="-157327" lat="67.1536138908" lon="14.0206277783">
		<tag k="name" v="Leia" />
		<tag k="place" v="locality" />
		<tag k="ssr:stedsnr" v="577353" />
	</node>
	<node id="-156052" lat="66.9908611099" lon="13.869472225">
		<tag k="highway" v="path" />
		<tag k="name" v="Stia" />
		<tag k="ssr:stedsnr" v="723490" />
	</node>
	<node id="-155766" lat="67.1022583296" lon="13.8988277806">
		<tag k="highway" v="path" />
		<tag k="name" v="Littj-stia" />
		<tag k="ssr:stedsnr" v="420206" />
	</node>
	<node id="-157321" lat="66.8883888879" lon="14.1541694429">
		<tag k="landuse" v="industrial" />
		<tag k="name" v="Langvatnet kraftstasjon" />
		<tag k="power" v="plant" />
		<tag k="ssr:stedsnr" v="572549" />
	</node>
	<node id="-157332" lat="66.938980552" lon="13.7329500072">
		<tag k="highway" v="path" />
		<tag k="name" v="Gjerdskogvegen" />
		<tag k="ssr:stedsnr" v="577980" />
	</node>
	<node id="-157555" lat="66.9477694455" lon="13.69728611">
		<tag k="landuse" v="harbour" />
		<tag k="name" v="Grimstadsjøen" />
		<tag k="seamark:type" v="harbour" />
		<tag k="ssr:stedsnr" v="759962" />
	</node>
	<node id="-156786" lat="66.9402250034" lon="13.7523472327">
		<tag k="highway" v="path" />
		<tag k="name" v="Ronlivegen" />
		<tag k="ssr:stedsnr" v="152975" />
	</node>
	<node id="-157711" lat="67.103858329" lon="13.9017027764">
		<tag k="highway" v="path" />
		<tag k="name" v="Stia" />
		<tag k="ssr:stedsnr" v="845212" />
	</node>
	<node id="-155756" lat="67.0260277819" lon="14.1525138895">
		<tag k="fixme" v="verify maritime location" />
		<tag k="mooring" v="yes" />
		<tag k="name" v="Sørsjøen" />
		<tag k="place" v="locality" />
		<tag k="ssr:stedsnr" v="510600" />
	</node>
	<node id="-156097" lat="67.0317138899" lon="13.9545444482">
		<tag k="highway" v="path" />
		<tag k="name" v="Slettvegen" />
		<tag k="ssr:stedsnr" v="882724" />
	</node>
	<node id="-155429" lat="67.0729499987" lon="13.8656027793">
		<tag k="highway" v="path" />
		<tag k="name" v="Steinvegen" />
		<tag k="ssr:stedsnr" v="298307" />
	</node>
	<node id="-155625" lat="67.1239666632" lon="14.2126666636">
		<tag k="highway" v="path" />
		<tag k="name" v="Øyjordstia" />
		<tag k="ssr:stedsnr" v="480026" />
	</node>
	<node id="-155654" lat="67.1816361127" lon="13.7743777777">
		<tag k="name" v="Bådleden" />
		<tag k="place" v="locality" />
		<tag k="ssr:stedsnr" v="358265" />
	</node>
	<node id="-156070" lat="67.1259583311" lon="14.3592777881">
		<tag k="highway" v="path" />
		<tag k="name" v="Hestvegan" />
		<tag k="ssr:stedsnr" v="647091" />
	</node>
	<node id="-155969" lat="66.946524998" lon="13.7513166646">
		<tag k="highway" v="path" />
		<tag k="name" v="Melivegen" />
		<tag k="ssr:stedsnr" v="699978" />
	</node>
	<node id="-155846" lat="66.9906749982" lon="13.9524138795">
		<tag k="highway" v="path" />
		<tag k="name" v="Tortenlivegen" />
		<tag k="ssr:stedsnr" v="480178" />
	</node>
	<node id="-156193" lat="67.0072805568" lon="13.9732222154">
		<tag k="highway" v="path" />
		<tag k="name" v="Pundsleia" />
		<tag k="ssr:stedsnr" v="905135" />
	</node>
</osm>
