<?xml version="1.0" encoding="UTF-8"?>
<<<<<<< HEAD
<osm version="0.6" generator="osmapis">
	<node lat="67.14183055543973" lon="14.071424996437539" id="-7550">
		<tag k="name" v="Stormyra" />
		<tag k="natural" v="wetland" />
		<tag k="ssr:stedsnr" v="16874" />
	</node>
	<node lat="67.05400555632336" lon="14.044647231724495" id="-7565">
		<tag k="name" v="Holtan" />
		<tag k="place" v="locality" />
		<tag k="ssr:stedsnr" v="31970" />
	</node>
	<node lat="66.94843888717897" lon="13.72230277900154" id="-7566">
		<tag k="name" v="Langkleiva" />
		<tag k="place" v="locality" />
		<tag k="ssr:stedsnr" v="31971" />
	</node>
	<node lat="67.04481111048669" lon="14.059197220626226" id="-7568">
		<tag k="name" v="Gjerdgården" />
		<tag k="place" v="locality" />
		<tag k="ssr:stedsnr" v="32873" />
	</node>
	<node lat="67.07050277897982" lon="13.84726666861736" id="-7587">
		<tag k="name" v="Littj-sanden" />
		<tag k="natural" v="beach" />
		<tag k="ssr:stedsnr" v="237321" />
		<tag k="surface" v="sand" />
	</node>
	<node lat="67.06844721864937" lon="14.049805552677608" id="-7595">
		<tag k="name" v="Stormyra" />
		<tag k="natural" v="wetland" />
		<tag k="ssr:stedsnr" v="55174" />
	</node>
	<node lat="66.94050000098206" lon="13.766516657473655" id="-7620">
		<tag k="name" v="Ronmyra" />
		<tag k="natural" v="wetland" />
		<tag k="ssr:stedsnr" v="77212" />
	</node>
	<node lat="67.06664999856169" lon="14.264016656200335" id="-7638">
		<tag k="name" v="Øvergjerdet" />
		<tag k="place" v="locality" />
		<tag k="ssr:stedsnr" v="92278" />
	</node>
	<node lat="67.15486110906704" lon="14.073069434989627" id="-7645">
		<tag k="name" v="Vågmyra" />
		<tag k="natural" v="wetland" />
		<tag k="ssr:stedsnr" v="101079" />
	</node>
	<node lat="66.93469166315877" lon="13.91093333788476" id="-7708">
		<tag k="name" v="Kattvassmyran" />
		<tag k="natural" v="wetland" />
		<tag k="ssr:stedsnr" v="146942" />
	</node>
	<node lat="67.15841389012358" lon="14.009038887384792" id="-7718">
		<tag k="name" v="Gårdsmyra" />
		<tag k="natural" v="wetland" />
		<tag k="ssr:stedsnr" v="153567" />
	</node>
	<node lat="67.07652222483266" lon="13.85468888973635" id="-7783">
		<tag k="name" v="Høysand" />
		<tag k="place" v="locality" />
		<tag k="ssr:stedsnr" v="177316" />
	</node>
	<node lat="67.14027777386177" lon="13.974527773162167" id="-7843">
		<tag k="name" v="Skaueggan" />
		<tag k="place" v="locality" />
		<tag k="ssr:stedsnr" v="214330" />
	</node>
	<node lat="67.06136944185101" lon="13.845930545826318" id="-7855">
		<tag k="name" v="Kongensjorda" />
		<tag k="place" v="locality" />
		<tag k="ssr:stedsnr" v="223397" />
	</node>
	<node lat="67.00704999556658" lon="14.182794454705597" id="-7924">
		<tag k="name" v="Olderdalen" />
		<tag k="place" v="locality" />
		<tag k="ssr:stedsnr" v="267640" />
	</node>
	<node lat="66.96122500304402" lon="13.861894444800484" id="-7929">
		<tag k="name" v="Øyjorda" />
		<tag k="place" v="locality" />
		<tag k="ssr:stedsnr" v="273405" />
	</node>
	<node lat="67.0743972179281" lon="13.859644451751144" id="-7945">
		<tag k="name" v="Innersanden" />
		<tag k="place" v="locality" />
		<tag k="ssr:stedsnr" v="298304" />
	</node>
	<node lat="66.98242221930576" lon="13.881438883972715" id="-7952">
		<tag k="name" v="Kløvensteinan" />
		<tag k="natural" v="stone" />
		<tag k="ssr:stedsnr" v="298487" />
	</node>
	<node lat="67.14023332941166" lon="14.086616655731493" id="-7959">
		<tag k="name" v="Holtan" />
		<tag k="place" v="locality" />
		<tag k="ssr:stedsnr" v="465089" />
	</node>
	<node lat="67.10011389255807" lon="14.297041668496606" id="-8015">
		<tag k="name" v="Sævmyra" />
		<tag k="natural" v="wetland" />
		<tag k="ssr:stedsnr" v="334152" />
	</node>
	<node lat="67.06285555694198" lon="14.044533340514239" id="-8017">
		<tag k="name" v="Skau" />
		<tag k="place" v="locality" />
		<tag k="ssr:stedsnr" v="335962" />
	</node>
	<node lat="67.05792777645274" lon="13.821722221967837" id="-8024">
		<tag k="name" v="Svartskogan" />
		<tag k="place" v="locality" />
		<tag k="ssr:stedsnr" v="344395" />
	</node>
	<node lat="67.00216666430491" lon="13.892941668695586" id="-8040">
		<tag k="name" v="Spanskliura" />
		<tag k="natural" v="scree" />
		<tag k="ssr:stedsnr" v="359463" />
	</node>
	<node lat="67.00041944553946" lon="13.928300008943896" id="-8044">
		<tag k="name" v="Stormyra" />
		<tag k="natural" v="wetland" />
		<tag k="ssr:stedsnr" v="359509" />
	</node>
	<node lat="66.97379444835119" lon="13.74948889983756" id="-8076">
		<tag k="fixme" v="multiple name tags, choose one and add the other to alt_name" />
		<tag k="name" v="Finnesgjura;Jura" />
		<tag k="natural" v="scree" />
		<tag k="ssr:stedsnr" v="380217" />
	</node>
	<node lat="67.09227222278298" lon="14.066661113323507" id="-8092">
		<tag k="name" v="Finnholura" />
		<tag k="natural" v="scree" />
		<tag k="ssr:stedsnr" v="388505" />
	</node>
	<node lat="66.95766944866126" lon="13.783027774737338" id="-8097">
		<tag k="name" v="Helgesteinen" />
		<tag k="natural" v="stone" />
		<tag k="ssr:stedsnr" v="395982" />
	</node>
	<node lat="67.15953610825217" lon="14.008730565754764" id="-8102">
		<tag k="name" v="Flåtta" />
		<tag k="place" v="locality" />
		<tag k="ssr:stedsnr" v="396529" />
	</node>
	<node lat="67.16439722456907" lon="13.997277774114556" id="-8103">
		<tag k="name" v="Nattmålsmyra" />
		<tag k="natural" v="wetland" />
		<tag k="ssr:stedsnr" v="396537" />
	</node>
	<node lat="67.05576388453808" lon="13.791708341638058" id="-8118">
		<tag k="name" v="Grytliura" />
		<tag k="natural" v="scree" />
		<tag k="ssr:stedsnr" v="405539" />
	</node>
	<node lat="67.1542055564509" lon="14.084219455619165" id="-8167">
		<tag k="name" v="Sundvikdya" />
		<tag k="natural" v="wetland" />
		<tag k="ssr:stedsnr" v="441902" />
	</node>
	<node lat="67.00776944347486" lon="14.183513886515657" id="-8179">
		<tag k="name" v="Eriklemman" />
		<tag k="place" v="locality" />
		<tag k="ssr:stedsnr" v="450569" />
	</node>
	<node lat="66.97685000003851" lon="13.989061101606618" id="-8188">
		<tag k="name" v="Grindhågmyra" />
		<tag k="natural" v="wetland" />
		<tag k="ssr:stedsnr" v="456326" />
	</node>
	<node lat="67.10434166383557" lon="13.893802766916972" id="-8212">
		<tag k="landuse" v="meadow" />
		<tag k="name" v="Sommarfjøsplassen" />
		<tag k="ssr:stedsnr" v="480170" />
	</node>
	<node lat="67.07446110927164" lon="13.838772229057694" id="-8215">
		<tag k="name" v="Vossura" />
		<tag k="natural" v="scree" />
		<tag k="ssr:stedsnr" v="480281" />
	</node>
	<node lat="66.9475999975106" lon="13.935250005969898" id="-8227">
		<tag k="name" v="Stormyra" />
		<tag k="natural" v="wetland" />
		<tag k="ssr:stedsnr" v="501194" />
	</node>
	<node lat="67.11716388922841" lon="13.873486104199195" id="-8252">
		<tag k="name" v="Mølndalsmyra" />
		<tag k="natural" v="wetland" />
		<tag k="ssr:stedsnr" v="501907" />
	</node>
	<node lat="67.0064194489869" lon="14.235199993866651" id="-8264">
		<tag k="name" v="Lefsnesmyra" />
		<tag k="natural" v="wetland" />
		<tag k="ssr:stedsnr" v="510558" />
	</node>
	<node lat="66.97477222313576" lon="14.147008333794146" id="-8354">
		<tag k="name" v="Gammvikmyra" />
		<tag k="natural" v="wetland" />
		<tag k="ssr:stedsnr" v="692574" />
	</node>
	<node lat="66.9614194401672" lon="14.153002780657603" id="-8361">
		<tag k="name" v="Anne-Lottasteinen" />
		<tag k="natural" v="stone" />
		<tag k="ssr:stedsnr" v="692452" />
	</node>
	<node lat="66.99324166597476" lon="14.238569448992482" id="-8362">
		<tag k="name" v="Uran" />
		<tag k="natural" v="scree" />
		<tag k="ssr:stedsnr" v="692456" />
	</node>
	<node lat="66.95804166796503" lon="14.149188883676835" id="-8371">
		<tag k="name" v="Johannessteinen" />
		<tag k="natural" v="stone" />
		<tag k="ssr:stedsnr" v="570419" />
	</node>
	<node lat="67.15810000061138" lon="13.990430554445656" id="-8380">
		<tag k="name" v="Nymyra" />
=======
<osm generator="osmapis" version="0.6">
	<node id="-167421" lat="66.9351527781" lon="13.7496611128">
		<tag k="name" v="Hestamarka" />
		<tag k="place" v="locality" />
		<tag k="ssr:stedsnr" v="101739" />
	</node>
	<node id="-167415" lat="67.0501111119" lon="13.7657861093">
		<tag k="name" v="Stormyra" />
		<tag k="natural" v="wetland" />
		<tag k="ssr:stedsnr" v="101529" />
	</node>
	<node id="-167411" lat="67.1076361109" lon="13.8710749923">
		<tag k="name" v="Meskagmyra" />
		<tag k="natural" v="wetland" />
		<tag k="ssr:stedsnr" v="101295" />
	</node>
	<node id="-166385" lat="67.0004194455" lon="13.9283000089">
		<tag k="name" v="Stormyra" />
>>>>>>> e1d4bc35ff8a6074a6f2e91616a996b547c36f15
		<tag k="natural" v="wetland" />
		<tag k="ssr:stedsnr" v="578533" />
	</node>
<<<<<<< HEAD
	<node lat="66.96986944146842" lon="13.919127774942012" id="-8395">
		<tag k="name" v="Raudsteinan" />
		<tag k="natural" v="stone" />
		<tag k="ssr:stedsnr" v="601357" />
	</node>
	<node lat="67.06940277795466" lon="14.321366672543052" id="-8398">
		<tag k="name" v="Mølnkjerran" />
=======
	<node id="-167408" lat="67.1548611091" lon="14.073069435">
		<tag k="name" v="Vågmyra" />
		<tag k="natural" v="wetland" />
		<tag k="ssr:stedsnr" v="101079" />
	</node>
	<node id="-167406" lat="67.0607361069" lon="14.0436583402">
		<tag k="name" v="Munkøya" />
>>>>>>> e1d4bc35ff8a6074a6f2e91616a996b547c36f15
		<tag k="place" v="locality" />
		<tag k="ssr:stedsnr" v="699226" />
	</node>
<<<<<<< HEAD
	<node lat="67.0637861138878" lon="14.339708341739906" id="-8400">
		<tag k="name" v="Lappstad" />
		<tag k="natural" v="wetland" />
		<tag k="ssr:stedsnr" v="699258" />
	</node>
	<node lat="66.93573055784917" lon="13.738627774807911" id="-8444">
		<tag k="name" v="Lillemarkmyra" />
=======
	<node id="-167250" lat="66.9683305551" lon="14.1379249975">
		<tag k="name" v="Øvermyra" />
		<tag k="natural" v="wetland" />
		<tag k="ssr:stedsnr" v="25615" />
	</node>
	<node id="-168422" lat="67.1357749994" lon="14.2465333445">
		<tag k="name" v="Bekkdya" />
>>>>>>> e1d4bc35ff8a6074a6f2e91616a996b547c36f15
		<tag k="natural" v="wetland" />
		<tag k="ssr:stedsnr" v="637982" />
	</node>
<<<<<<< HEAD
	<node lat="67.12986944506034" lon="14.093880562457256" id="-8457">
		<tag k="name" v="Langskogan" />
=======
	<node id="-167394" lat="67.0666499986" lon="14.2640166562">
		<tag k="name" v="Øvergjerdet" />
>>>>>>> e1d4bc35ff8a6074a6f2e91616a996b547c36f15
		<tag k="place" v="locality" />
		<tag k="ssr:stedsnr" v="708087" />
	</node>
<<<<<<< HEAD
	<node lat="67.05298888585024" lon="14.219636108262785" id="-8470">
		<tag k="landuse" v="meadow" />
		<tag k="name" v="Steinåkeren" />
		<tag k="ssr:stedsnr" v="662092" />
	</node>
	<node lat="66.99951389000901" lon="13.998916663460902" id="-8471">
		<tag k="name" v="Stusteinen" />
		<tag k="natural" v="stone" />
		<tag k="ssr:stedsnr" v="662209" />
	</node>
	<node lat="67.1045972252146" lon="13.885266677925737" id="-8476">
		<tag k="name" v="Porsmyra" />
		<tag k="natural" v="wetland" />
		<tag k="ssr:stedsnr" v="662193" />
	</node>
	<node lat="66.93330000304141" lon="13.753508337690524" id="-8498">
=======
	<node id="-165856" lat="66.9332972198" lon="13.7250500046">
		<tag k="name" v="Mevikgjerdskogan" />
		<tag k="place" v="locality" />
		<tag k="ssr:stedsnr" v="223794" />
	</node>
	<node id="-166879" lat="66.933300003" lon="13.7535083377">
>>>>>>> e1d4bc35ff8a6074a6f2e91616a996b547c36f15
		<tag k="name" v="Stormyra" />
		<tag k="natural" v="wetland" />
		<tag k="ssr:stedsnr" v="890764" />
	</node>
<<<<<<< HEAD
	<node lat="67.05569999581796" lon="13.782055560409404" id="-8499">
		<tag k="name" v="Damsteinan" />
		<tag k="natural" v="stone" />
		<tag k="ssr:stedsnr" v="890558" />
	</node>
	<node lat="66.99134444865773" lon="14.073102781950151" id="-8542">
		<tag k="name" v="Vollen" />
		<tag k="place" v="locality" />
		<tag k="ssr:stedsnr" v="699814" />
	</node>
	<node lat="67.0308944479743" lon="14.036427774343153" id="-8544">
=======
	<node id="-166363" lat="67.0628555569" lon="14.0445333405">
		<tag k="name" v="Skau" />
		<tag k="place" v="locality" />
		<tag k="ssr:stedsnr" v="335962" />
	</node>
	<node id="-166362" lat="67.0548694471" lon="14.0542611034">
		<tag k="name" v="Torvmyra" />
		<tag k="natural" v="wetland" />
		<tag k="ssr:stedsnr" v="335915" />
	</node>
	<node id="-165845" lat="67.0613694419" lon="13.8459305458">
		<tag k="name" v="Kongensjorda" />
		<tag k="place" v="locality" />
		<tag k="ssr:stedsnr" v="223397" />
	</node>
	<node id="-166356" lat="67.0744611093" lon="13.8387722291">
		<tag k="name" v="Vossura" />
		<tag k="natural" v="scree" />
		<tag k="ssr:stedsnr" v="480281" />
	</node>
	<node id="-166866" lat="67.030894448" lon="14.0364277743">
>>>>>>> e1d4bc35ff8a6074a6f2e91616a996b547c36f15
		<tag k="name" v="Storsteinan" />
		<tag k="natural" v="stone" />
		<tag k="ssr:stedsnr" v="699817" />
	</node>
<<<<<<< HEAD
	<node lat="66.98291111016609" lon="14.0580472332808" id="-8589">
		<tag k="historic" v="shieling" />
		<tag k="name" v="Melkebenkane" />
		<tag k="place" v="locality" />
		<tag k="ssr:stedsnr" v="744174" />
	</node>
	<node lat="66.95317499828462" lon="14.139322213298062" id="-8620">
		<tag k="name" v="Oksporten" />
		<tag k="natural" v="stone" />
		<tag k="ssr:stedsnr" v="753474" />
	</node>
	<node lat="66.97066389000993" lon="14.14231665840163" id="-8626">
		<tag k="name" v="Nermyra" />
		<tag k="natural" v="wetland" />
		<tag k="ssr:stedsnr" v="753571" />
	</node>
	<node lat="66.95158611258377" lon="13.822991672304367" id="-8646">
		<tag k="name" v="Lappsteinan" />
		<tag k="natural" v="scree" />
		<tag k="ssr:stedsnr" v="905488" />
	</node>
	<node lat="66.97671944649694" lon="13.95373889982609" id="-8652">
		<tag k="name" v="Hestura" />
		<tag k="natural" v="scree" />
		<tag k="ssr:stedsnr" v="759403" />
	</node>
	<node lat="67.1599888856403" lon="14.000322216009847" id="-8657">
		<tag k="name" v="Helsmyra" />
=======
	<node id="-166051" lat="67.0638305594" lon="14.3576416759">
		<tag k="name" v="Ørnura" />
		<tag k="natural" v="scree" />
		<tag k="ssr:stedsnr" v="274250" />
	</node>
	<node id="-166864" lat="66.9913444487" lon="14.073102782">
		<tag k="name" v="Vollen" />
		<tag k="place" v="locality" />
		<tag k="ssr:stedsnr" v="699814" />
	</node>
	<node id="-167884" lat="67.0637749975" lon="13.8584888831">
		<tag k="name" v="Tverrmyran" />
		<tag k="natural" v="wetland" />
		<tag k="ssr:stedsnr" v="405397" />
	</node>
	<node id="-168394" lat="67.0641805577" lon="14.0519583296">
		<tag k="name" v="Pengura" />
		<tag k="natural" v="scree" />
		<tag k="ssr:stedsnr" v="821952" />
	</node>
	<node id="-168391" lat="67.0436138917" lon="14.0300555581">
		<tag k="name" v="Myra" />
		<tag k="natural" v="wetland" />
		<tag k="ssr:stedsnr" v="821939" />
	</node>
	<node id="-168390" lat="67.0455666695" lon="14.0343944541">
		<tag k="name" v="Langskogan" />
		<tag k="place" v="locality" />
		<tag k="ssr:stedsnr" v="821938" />
	</node>
	<node id="-166341" lat="67.011138887" lon="14.1869500071">
		<tag k="name" v="Kusletta" />
		<tag k="place" v="locality" />
		<tag k="ssr:stedsnr" v="328514" />
	</node>
	<node id="-167876" lat="67.0557638845" lon="13.7917083416">
		<tag k="name" v="Grytliura" />
		<tag k="natural" v="scree" />
		<tag k="ssr:stedsnr" v="405539" />
	</node>
	<node id="-168387" lat="67.1550916684" lon="13.9950861071">
		<tag k="name" v="Stormyra" />
		<tag k="natural" v="wetland" />
		<tag k="ssr:stedsnr" v="821535" />
	</node>
	<node id="-166850" lat="66.993241666" lon="14.238569449">
		<tag k="name" v="Uran" />
		<tag k="natural" v="scree" />
		<tag k="ssr:stedsnr" v="692456" />
	</node>
	<node id="-165935" lat="67.0188055543" lon="14.2165555517">
		<tag k="name" v="Skognesmyra" />
		<tag k="natural" v="wetland" />
		<tag k="ssr:stedsnr" v="85613" />
	</node>
	<node id="-167353" lat="66.940500001" lon="13.7665166575">
		<tag k="name" v="Ronmyra" />
>>>>>>> e1d4bc35ff8a6074a6f2e91616a996b547c36f15
		<tag k="natural" v="wetland" />
		<tag k="ssr:stedsnr" v="760559" />
	</node>
<<<<<<< HEAD
	<node lat="67.05448611286891" lon="13.7864388807365" id="-8661">
		<tag k="name" v="Heimerskålen" />
		<tag k="natural" v="scree" />
		<tag k="ssr:stedsnr" v="769534" />
	</node>
	<node lat="67.11812777435237" lon="13.893494432545603" id="-8663">
		<tag k="name" v="Palstokkan" />
=======
	<node id="-166037" lat="66.961225003" lon="13.8618944448">
		<tag k="name" v="Øyjorda" />
		<tag k="place" v="locality" />
		<tag k="ssr:stedsnr" v="273405" />
	</node>
	<node id="-166071" lat="67.0272861095" lon="14.1179583308">
		<tag k="name" v="Bjørnsteinen" />
		<tag k="natural" v="stone" />
		<tag k="ssr:stedsnr" v="280090" />
	</node>
	<node id="-167857" lat="66.9576694487" lon="13.7830277747">
		<tag k="name" v="Helgesteinen" />
		<tag k="natural" v="stone" />
		<tag k="ssr:stedsnr" v="395982" />
	</node>
	<node id="-167856" lat="66.9376166694" lon="13.6897694385">
		<tag k="name" v="Skarskogan" />
>>>>>>> e1d4bc35ff8a6074a6f2e91616a996b547c36f15
		<tag k="place" v="locality" />
		<tag k="ssr:stedsnr" v="769300" />
	</node>
<<<<<<< HEAD
	<node lat="67.08750555204247" lon="14.06578055471876" id="-8701">
=======
	<node id="-168363" lat="67.087505552" lon="14.0657805547">
>>>>>>> e1d4bc35ff8a6074a6f2e91616a996b547c36f15
		<tag k="name" v="Mølnskogen" />
		<tag k="place" v="locality" />
		<tag k="ssr:stedsnr" v="813491" />
	</node>
<<<<<<< HEAD
	<node lat="67.13577499940017" lon="14.246533344547933" id="-8728">
		<tag k="name" v="Bekkdya" />
		<tag k="natural" v="wetland" />
		<tag k="ssr:stedsnr" v="845005" />
	</node>
	<node lat="67.07908888475392" lon="14.099830564802382" id="-8776">
		<tag k="name" v="Gammelfjøslemmen" />
=======
	<node id="-166313" lat="67.1402333294" lon="14.0866166557">
		<tag k="name" v="Holtan" />
		<tag k="place" v="locality" />
		<tag k="ssr:stedsnr" v="465089" />
	</node>
	<node id="-168360" lat="66.9588805521" lon="14.1376611069">
		<tag k="name" v="Svaen" />
>>>>>>> e1d4bc35ff8a6074a6f2e91616a996b547c36f15
		<tag k="place" v="locality" />
		<tag k="ssr:stedsnr" v="875968" />
	</node>
<<<<<<< HEAD
	<node lat="66.96057222332325" lon="13.80103889652146" id="-8780">
		<tag k="name" v="Sandslettan" />
		<tag k="natural" v="beach" />
		<tag k="ssr:stedsnr" v="881956" />
		<tag k="surface" v="sand" />
	</node>
	<node lat="66.94525833573651" lon="13.707049998193066" id="-8781">
		<tag k="name" v="Bogen" />
=======
	<node id="-166311" lat="66.9901861104" lon="14.0712750028">
		<tag k="name" v="Vollan" />
>>>>>>> e1d4bc35ff8a6074a6f2e91616a996b547c36f15
		<tag k="place" v="locality" />
		<tag k="ssr:stedsnr" v="881959" />
	</node>
<<<<<<< HEAD
	<node lat="66.99640277819093" lon="13.989275006335598" id="-8800">
		<tag k="name" v="Valura" />
		<tag k="natural" v="scree" />
		<tag k="ssr:stedsnr" v="905217" />
	</node>
	<node lat="67.04946666356462" lon="14.229813880528509" id="-8840">
		<tag k="name" v="Lappmannvikmyran" />
=======
	<node id="-166818" lat="66.9949138901" lon="14.0663750055">
		<tag k="landuse" v="meadow" />
		<tag k="name" v="Engan" />
		<tag k="ssr:stedsnr" v="882752" />
	</node>
	<node id="-166804" lat="67.0997166691" lon="14.2918444386">
		<tag k="name" v="Stormyra" />
>>>>>>> e1d4bc35ff8a6074a6f2e91616a996b547c36f15
		<tag k="natural" v="wetland" />
		<tag k="ssr:stedsnr" v="965108" />
	</node>
<<<<<<< HEAD
	<node lat="66.98296389251978" lon="13.819869454604174" id="-8851">
		<tag k="name" v="Storsteinen" />
		<tag k="natural" v="stone" />
		<tag k="ssr:stedsnr" v="965492" />
	</node>
	<node lat="66.96833055506576" lon="14.137924997499434" id="-8907">
		<tag k="name" v="Øvermyra" />
=======
	<node id="-166283" lat="66.97685" lon="13.9890611016">
		<tag k="name" v="Grindhågmyra" />
>>>>>>> e1d4bc35ff8a6074a6f2e91616a996b547c36f15
		<tag k="natural" v="wetland" />
		<tag k="ssr:stedsnr" v="25615" />
	</node>
<<<<<<< HEAD
	<node lat="67.06586111276866" lon="14.317341662556984" id="-8909">
		<tag k="name" v="Myran" />
		<tag k="natural" v="wetland" />
		<tag k="ssr:stedsnr" v="31224" />
	</node>
	<node lat="67.06428333270557" lon="14.349777770980573" id="-8911">
		<tag k="name" v="Geitmarka" />
		<tag k="place" v="locality" />
		<tag k="ssr:stedsnr" v="32237" />
	</node>
	<node lat="67.0222250016975" lon="13.954488881578136" id="-8917">
		<tag k="name" v="Sjurhagån" />
=======
	<node id="-167497" lat="66.9346916632" lon="13.9109333379">
		<tag k="name" v="Kattvassmyran" />
		<tag k="natural" v="wetland" />
		<tag k="ssr:stedsnr" v="146942" />
	</node>
	<node id="-167808" lat="66.9737944484" lon="13.7494888998">
		<tag k="fixme" v="multiple name tags, choose one and add the other to alt_name" />
		<tag k="name" v="Finnesgjura;Jura" />
		<tag k="natural" v="scree" />
		<tag k="ssr:stedsnr" v="380217" />
	</node>
	<node id="-166781" lat="67.009747223" lon="14.183622211">
		<tag k="name" v="Flogsmyrrabben" />
>>>>>>> e1d4bc35ff8a6074a6f2e91616a996b547c36f15
		<tag k="place" v="locality" />
		<tag k="ssr:stedsnr" v="32741" />
	</node>
<<<<<<< HEAD
	<node lat="67.01880555433135" lon="14.216555551658956" id="-9007">
		<tag k="name" v="Skognesmyra" />
		<tag k="natural" v="wetland" />
		<tag k="ssr:stedsnr" v="85613" />
	</node>
	<node lat="67.06073610686946" lon="14.043658340234257" id="-9020">
		<tag k="name" v="Munkøya" />
=======
	<node id="-166249" lat="67.0077694435" lon="14.1835138865">
		<tag k="name" v="Eriklemman" />
>>>>>>> e1d4bc35ff8a6074a6f2e91616a996b547c36f15
		<tag k="place" v="locality" />
		<tag k="ssr:stedsnr" v="93928" />
	</node>
<<<<<<< HEAD
	<node lat="67.0501111118942" lon="13.765786109273268" id="-9021">
		<tag k="name" v="Stormyra" />
		<tag k="natural" v="wetland" />
		<tag k="ssr:stedsnr" v="101529" />
	</node>
	<node lat="67.10763611092993" lon="13.871074992312215" id="-9027">
		<tag k="name" v="Meskagmyra" />
		<tag k="natural" v="wetland" />
		<tag k="ssr:stedsnr" v="101295" />
	</node>
	<node lat="66.93515277813944" lon="13.749661112815653" id="-9032">
		<tag k="name" v="Hestamarka" />
=======
	<node id="-168296" lat="67.0544861129" lon="13.7864388807">
		<tag k="name" v="Heimerskålen" />
		<tag k="natural" v="scree" />
		<tag k="ssr:stedsnr" v="769534" />
	</node>
	<node id="-167270" lat="67.0448111105" lon="14.0591972206">
		<tag k="name" v="Gjerdgården" />
>>>>>>> e1d4bc35ff8a6074a6f2e91616a996b547c36f15
		<tag k="place" v="locality" />
		<tag k="ssr:stedsnr" v="101739" />
	</node>
<<<<<<< HEAD
	<node lat="67.1430166659941" lon="14.080352777178717" id="-9035">
		<tag k="landuse" v="meadow" />
		<tag k="name" v="Nylenden" />
		<tag k="ssr:stedsnr" v="102096" />
	</node>
	<node lat="66.94760277532906" lon="13.662938878094463" id="-9078">
		<tag k="alt_name" v="Gråurda" />
		<tag k="name" v="Gråura" />
		<tag k="natural" v="scree" />
		<tag k="ssr:stedsnr" v="137847" />
	</node>
	<node lat="67.12526666552098" lon="14.093869437296888" id="-9081">
		<tag k="name" v="Langskogan" />
=======
	<node id="-168292" lat="67.0685361139" lon="13.9412555665">
		<tag k="name" v="Sengmyra" />
		<tag k="natural" v="wetland" />
		<tag k="ssr:stedsnr" v="769368" />
	</node>
	<node id="-167265" lat="67.0222250017" lon="13.9544888816">
		<tag k="name" v="Sjurhagån" />
>>>>>>> e1d4bc35ff8a6074a6f2e91616a996b547c36f15
		<tag k="place" v="locality" />
		<tag k="ssr:stedsnr" v="137900" />
	</node>
<<<<<<< HEAD
	<node lat="66.95286389237064" lon="14.103772231509884" id="-9086">
		<tag k="name" v="Jens Olso-nesan" />
		<tag k="place" v="locality" />
		<tag k="ssr:stedsnr" v="146493" />
	</node>
	<node lat="67.0676666633054" lon="14.303583339096496" id="-9095">
		<tag k="name" v="Kjerkedelen" />
=======
	<node id="-166751" lat="66.9698694415" lon="13.9191277749">
		<tag k="name" v="Raudsteinan" />
		<tag k="natural" v="stone" />
		<tag k="ssr:stedsnr" v="601357" />
	</node>
	<node id="-167261" lat="67.0642833327" lon="14.349777771">
		<tag k="name" v="Geitmarka" />
>>>>>>> e1d4bc35ff8a6074a6f2e91616a996b547c36f15
		<tag k="place" v="locality" />
		<tag k="ssr:stedsnr" v="152239" />
	</node>
<<<<<<< HEAD
	<node lat="67.03840115887586" lon="13.956778439685682" id="-9106">
		<tag k="name" v="Øvermarka" />
=======
	<node id="-167260" lat="66.9484388872" lon="13.722302779">
		<tag k="name" v="Langkleiva" />
>>>>>>> e1d4bc35ff8a6074a6f2e91616a996b547c36f15
		<tag k="place" v="locality" />
		<tag k="ssr:stedsnr" v="153827" />
	</node>
<<<<<<< HEAD
	<node lat="66.98600555939626" lon="14.15230277905561" id="-9109">
		<tag k="name" v="Svartskogen" />
=======
	<node id="-167259" lat="67.0540055563" lon="14.0446472317">
		<tag k="name" v="Holtan" />
>>>>>>> e1d4bc35ff8a6074a6f2e91616a996b547c36f15
		<tag k="place" v="locality" />
		<tag k="ssr:stedsnr" v="162072" />
	</node>
<<<<<<< HEAD
	<node lat="66.96541389086771" lon="13.88169445417777" id="-9123">
		<tag k="name" v="Ausskogan" />
		<tag k="place" v="locality" />
		<tag k="ssr:stedsnr" v="177378" />
	</node>
	<node lat="66.94846666410393" lon="13.807897225756596" id="-9132">
		<tag k="name" v="Kvannten" />
=======
	<node id="-168282" lat="67.1599888856" lon="14.000322216">
		<tag k="name" v="Helsmyra" />
		<tag k="natural" v="wetland" />
		<tag k="ssr:stedsnr" v="760559" />
	</node>
	<node id="-166409" lat="66.9475999975" lon="13.935250006">
		<tag k="name" v="Stormyra" />
		<tag k="natural" v="wetland" />
		<tag k="ssr:stedsnr" v="501194" />
	</node>
	<node id="-168279" lat="67.0103388896" lon="14.0559472193">
		<tag k="name" v="Jelstadmyran" />
>>>>>>> e1d4bc35ff8a6074a6f2e91616a996b547c36f15
		<tag k="natural" v="wetland" />
		<tag k="ssr:stedsnr" v="177485" />
	</node>
<<<<<<< HEAD
	<node lat="66.9555499972035" lon="13.902936113978482" id="-9133">
		<tag k="name" v="Jakobenga" />
=======
	<node id="-168276" lat="66.9463194453" lon="13.6936194468">
		<tag k="name" v="Tofta" />
>>>>>>> e1d4bc35ff8a6074a6f2e91616a996b547c36f15
		<tag k="place" v="locality" />
		<tag k="ssr:stedsnr" v="177488" />
	</node>
<<<<<<< HEAD
	<node lat="66.99603332967074" lon="13.884138894170238" id="-9136">
		<tag k="name" v="Heststeinan" />
		<tag k="natural" v="scree" />
		<tag k="ssr:stedsnr" v="177500" />
	</node>
	<node lat="66.92450000321169" lon="14.11683054553435" id="-9181">
		<tag k="name" v="Kliptjønnmyran" />
		<tag k="natural" v="wetland" />
		<tag k="ssr:stedsnr" v="207473" />
	</node>
	<node lat="67.01369722631208" lon="14.189736122068586" id="-9188">
		<tag k="name" v="Åsmyra" />
		<tag k="natural" v="wetland" />
		<tag k="ssr:stedsnr" v="207519" />
	</node>
	<node lat="66.97234166393073" lon="13.95056112064256" id="-9193">
		<tag k="name" v="Grøssetura" />
=======
	<node id="-166030" lat="66.9476027753" lon="13.6629388781">
		<tag k="alt_name" v="Gråurda" />
		<tag k="name" v="Gråura" />
		<tag k="natural" v="scree" />
		<tag k="ssr:stedsnr" v="137847" />
	</node>
	<node id="-168274" lat="66.9420583303" lon="13.6795861218">
		<tag k="name" v="Vassbekkmyra" />
		<tag k="natural" v="wetland" />
		<tag k="ssr:stedsnr" v="759940" />
	</node>
	<node id="-168273" lat="66.9767194465" lon="13.9537388998">
		<tag k="name" v="Hestura" />
>>>>>>> e1d4bc35ff8a6074a6f2e91616a996b547c36f15
		<tag k="natural" v="scree" />
		<tag k="ssr:stedsnr" v="213441" />
	</node>
<<<<<<< HEAD
	<node lat="67.1141055530292" lon="14.040999988514688" id="-9194">
		<tag k="name" v="Hambrekken" />
		<tag k="place" v="locality" />
		<tag k="ssr:stedsnr" v="214597" />
	</node>
	<node lat="66.93329721980469" lon="13.725050004634513" id="-9210">
		<tag k="name" v="Mevikgjerdskogan" />
=======
	<node id="-166223" lat="67.1542055565" lon="14.0842194556">
		<tag k="name" v="Sundvikdya" />
		<tag k="natural" v="wetland" />
		<tag k="ssr:stedsnr" v="441902" />
	</node>
	<node id="-168269" lat="67.1065750031" lon="14.3159138792">
		<tag k="name" v="Grøven" />
>>>>>>> e1d4bc35ff8a6074a6f2e91616a996b547c36f15
		<tag k="place" v="locality" />
		<tag k="ssr:stedsnr" v="223794" />
	</node>
<<<<<<< HEAD
	<node lat="66.98235277690269" lon="13.754024993526684" id="-9213">
		<tag k="name" v="Kleivsteinan" />
		<tag k="natural" v="stone" />
		<tag k="ssr:stedsnr" v="223771" />
	</node>
	<node lat="67.06383055943286" lon="14.357641675935232" id="-9215">
		<tag k="name" v="Ørnura" />
		<tag k="natural" v="scree" />
		<tag k="ssr:stedsnr" v="274250" />
	</node>
	<node lat="67.156174995844" lon="13.980052785037135" id="-9217">
		<tag k="name" v="Langmyra" />
=======
	<node id="-168268" lat="67.0944666699" lon="14.2778722253">
		<tag k="name" v="Gåsmyra" />
		<tag k="natural" v="wetland" />
		<tag k="ssr:stedsnr" v="759092" />
	</node>
	<node id="-168265" lat="66.97066389" lon="14.1423166584">
		<tag k="name" v="Nermyra" />
>>>>>>> e1d4bc35ff8a6074a6f2e91616a996b547c36f15
		<tag k="natural" v="wetland" />
		<tag k="ssr:stedsnr" v="274562" />
	</node>
<<<<<<< HEAD
	<node lat="66.97887777744954" lon="14.038972213332835" id="-9218">
		<tag k="name" v="Blåflogmyran" />
=======
	<node id="-167239" lat="67.1418305554" lon="14.0714249964">
		<tag k="name" v="Stormyra" />
>>>>>>> e1d4bc35ff8a6074a6f2e91616a996b547c36f15
		<tag k="natural" v="wetland" />
		<tag k="ssr:stedsnr" v="274838" />
	</node>
<<<<<<< HEAD
	<node lat="66.99018611036728" lon="14.071275002775744" id="-9223">
		<tag k="name" v="Vollan" />
		<tag k="place" v="locality" />
		<tag k="ssr:stedsnr" v="275804" />
	</node>
	<node lat="67.02728610945589" lon="14.117958330818643" id="-9225">
		<tag k="name" v="Bjørnsteinen" />
=======
	<node id="-168258" lat="66.9531749983" lon="14.1393222133">
		<tag k="name" v="Oksporten" />
>>>>>>> e1d4bc35ff8a6074a6f2e91616a996b547c36f15
		<tag k="natural" v="stone" />
		<tag k="ssr:stedsnr" v="280090" />
	</node>
<<<<<<< HEAD
	<node lat="66.93199444611248" lon="13.726947230708575" id="-9233">
		<tag k="name" v="Storura" />
		<tag k="natural" v="scree" />
		<tag k="ssr:stedsnr" v="283717" />
	</node>
	<node lat="67.147847219313" lon="14.094083326632038" id="-9234">
		<tag k="name" v="Dukan" />
=======
	<node id="-167744" lat="67.0579277765" lon="13.821722222">
		<tag k="name" v="Svartskogan" />
>>>>>>> e1d4bc35ff8a6074a6f2e91616a996b547c36f15
		<tag k="place" v="locality" />
		<tag k="ssr:stedsnr" v="284099" />
	</node>
<<<<<<< HEAD
	<node lat="67.06241666457633" lon="13.854344447985953" id="-9236">
		<tag k="name" v="Tverrmyrsanden" />
=======
	<node id="-166718" lat="67.1298694451" lon="14.0938805625">
		<tag k="name" v="Langskogan" />
>>>>>>> e1d4bc35ff8a6074a6f2e91616a996b547c36f15
		<tag k="place" v="locality" />
		<tag k="ssr:stedsnr" v="284384" />
	</node>
<<<<<<< HEAD
	<node lat="67.02021666646513" lon="13.94156943880856" id="-9255">
		<tag k="name" v="Tranmyra" />
		<tag k="natural" v="wetland" />
		<tag k="ssr:stedsnr" v="298365" />
	</node>
	<node lat="66.93412500073786" lon="13.725811100985712" id="-9258">
		<tag k="name" v="Mevikmarka" />
=======
	<node id="-167739" lat="67.1562861125" lon="14.0699888797">
		<tag k="name" v="Longa" />
		<tag k="natural" v="wetland" />
		<tag k="ssr:stedsnr" v="344075" />
	</node>
	<node id="-165855" lat="66.9823527769" lon="13.7540249935">
		<tag k="name" v="Kleivsteinan" />
		<tag k="natural" v="stone" />
		<tag k="ssr:stedsnr" v="223771" />
	</node>
	<node id="-166712" lat="67.0929583332" lon="14.0636916757">
		<tag k="name" v="Kvanntoura" />
		<tag k="natural" v="scree" />
		<tag k="ssr:stedsnr" v="570475" />
	</node>
	<node id="-167735" lat="67.0170888935" lon="14.0494111075">
		<tag k="name" v="Nordmarka" />
>>>>>>> e1d4bc35ff8a6074a6f2e91616a996b547c36f15
		<tag k="place" v="locality" />
		<tag k="ssr:stedsnr" v="319156" />
	</node>
<<<<<<< HEAD
	<node lat="67.01113888695167" lon="14.186950007089967" id="-9308">
		<tag k="name" v="Kusletta" />
		<tag k="place" v="locality" />
		<tag k="ssr:stedsnr" v="328514" />
	</node>
	<node lat="67.06718889265481" lon="14.29225000595409" id="-9316">
=======
	<node id="-167725" lat="67.0671888927" lon="14.292250006">
>>>>>>> e1d4bc35ff8a6074a6f2e91616a996b547c36f15
		<tag k="name" v="Kalvgjerdet" />
		<tag k="place" v="locality" />
		<tag k="ssr:stedsnr" v="334267" />
	</node>
<<<<<<< HEAD
	<node lat="67.01708889354057" lon="14.049411107467543" id="-9320">
		<tag k="name" v="Nordmarka" />
=======
	<node id="-167724" lat="67.1001138926" lon="14.2970416685">
		<tag k="name" v="Sævmyra" />
		<tag k="natural" v="wetland" />
		<tag k="ssr:stedsnr" v="334152" />
	</node>
	<node id="-168225" lat="66.9829111102" lon="14.0580472333">
		<tag k="historic" v="shieling" />
		<tag k="name" v="Melkebenkane" />
>>>>>>> e1d4bc35ff8a6074a6f2e91616a996b547c36f15
		<tag k="place" v="locality" />
		<tag k="ssr:stedsnr" v="335984" />
	</node>
<<<<<<< HEAD
	<node lat="67.0548694470516" lon="14.054261103434033" id="-9324">
		<tag k="name" v="Torvmyra" />
=======
	<node id="-166681" lat="67.0637861139" lon="14.3397083417">
		<tag k="name" v="Lappstad" />
>>>>>>> e1d4bc35ff8a6074a6f2e91616a996b547c36f15
		<tag k="natural" v="wetland" />
		<tag k="ssr:stedsnr" v="335915" />
	</node>
<<<<<<< HEAD
	<node lat="67.15628611250135" lon="14.069988879675682" id="-9332">
		<tag k="name" v="Longa" />
		<tag k="natural" v="wetland" />
		<tag k="ssr:stedsnr" v="344075" />
	</node>
	<node lat="66.9376166694176" lon="13.689769438513968" id="-9420">
		<tag k="name" v="Skarskogan" />
=======
	<node id="-166458" lat="67.1643972246" lon="13.9972777741">
		<tag k="name" v="Nattmålsmyra" />
		<tag k="natural" v="wetland" />
		<tag k="ssr:stedsnr" v="396537" />
	</node>
	<node id="-168207" lat="67.0790888848" lon="14.0998305648">
		<tag k="name" v="Gammelfjøslemmen" />
		<tag k="place" v="locality" />
		<tag k="ssr:stedsnr" v="875968" />
	</node>
	<node id="-168206" lat="66.9088305552" lon="14.1349416769">
		<tag k="name" v="Tettskogen" />
>>>>>>> e1d4bc35ff8a6074a6f2e91616a996b547c36f15
		<tag k="place" v="locality" />
		<tag k="ssr:stedsnr" v="395946" />
	</node>
<<<<<<< HEAD
	<node lat="67.06583333106464" lon="13.941097211070534" id="-9430">
		<tag k="name" v="Langmyra" />
		<tag k="natural" v="wetland" />
		<tag k="ssr:stedsnr" v="405375" />
	</node>
	<node lat="67.06214444694987" lon="13.849022212959465" id="-9433">
		<tag k="name" v="Tverrmyrura" />
		<tag k="natural" v="scree" />
		<tag k="ssr:stedsnr" v="405392" />
	</node>
	<node lat="67.06377499752564" lon="13.85848888310664" id="-9435">
		<tag k="name" v="Tverrmyran" />
		<tag k="natural" v="wetland" />
		<tag k="ssr:stedsnr" v="405397" />
	</node>
	<node lat="66.98876944191797" lon="13.870577769975762" id="-9468">
		<tag k="name" v="Skyttesteinen" />
		<tag k="natural" v="stone" />
		<tag k="ssr:stedsnr" v="420523" />
	</node>
	<node lat="66.98394722414645" lon="13.871466660823211" id="-9469">
		<tag k="name" v="Steinan" />
=======
	<node id="-166155" lat="66.9824222193" lon="13.881438884">
		<tag k="name" v="Kløvensteinan" />
		<tag k="natural" v="stone" />
		<tag k="ssr:stedsnr" v="298487" />
	</node>
	<node id="-168201" lat="67.0625805537" lon="13.7724666623">
		<tag k="name" v="Hagen" />
		<tag k="place" v="locality" />
		<tag k="ssr:stedsnr" v="647559" />
	</node>
	<node id="-166151" lat="67.0202166665" lon="13.9415694388">
		<tag k="name" v="Tranmyra" />
		<tag k="natural" v="wetland" />
		<tag k="ssr:stedsnr" v="298365" />
	</node>
	<node id="-166147" lat="67.0743972179" lon="13.8596444518">
		<tag k="name" v="Innersanden" />
		<tag k="place" v="locality" />
		<tag k="ssr:stedsnr" v="298304" />
	</node>
	<node id="-167163" lat="67.0494666636" lon="14.2298138805">
		<tag k="name" v="Lappmannvikmyran" />
		<tag k="natural" v="wetland" />
		<tag k="ssr:stedsnr" v="965108" />
	</node>
	<node id="-168186" lat="67.0398027739" lon="14.0697027812">
		<tag k="name" v="Lauvvassura" />
>>>>>>> e1d4bc35ff8a6074a6f2e91616a996b547c36f15
		<tag k="natural" v="scree" />
		<tag k="ssr:stedsnr" v="420526" />
	</node>
<<<<<<< HEAD
	<node lat="66.98291388640037" lon="13.864913878409169" id="-9471">
		<tag k="landuse" v="meadow" />
		<tag k="name" v="Sjyåkran" />
		<tag k="ssr:stedsnr" v="420533" />
	</node>
	<node lat="67.0354305583322" lon="14.045188888451705" id="-9566">
		<tag k="name" v="Vollan" />
		<tag k="place" v="locality" />
		<tag k="ssr:stedsnr" v="517854" />
	</node>
	<node lat="67.0862833347863" lon="14.337355565884764" id="-9571">
=======
	<node id="-166527" lat="67.0529888859" lon="14.2196361083">
		<tag k="landuse" v="meadow" />
		<tag k="name" v="Steinåkeren" />
		<tag k="ssr:stedsnr" v="662092" />
	</node>
	<node id="-166645" lat="67.0862833348" lon="14.3373555659">
>>>>>>> e1d4bc35ff8a6074a6f2e91616a996b547c36f15
		<tag k="name" v="Innervikura" />
		<tag k="natural" v="scree" />
		<tag k="ssr:stedsnr" v="526032" />
	</node>
<<<<<<< HEAD
	<node lat="67.00439444780667" lon="13.917963885265216" id="-9611">
		<tag k="name" v="Innermarka" />
		<tag k="place" v="locality" />
		<tag k="ssr:stedsnr" v="541456" />
	</node>
	<node lat="67.09322777549524" lon="14.020386120970661" id="-9664">
		<tag k="name" v="Hustadmyran" />
=======
	<node id="-168180" lat="67.0739250014" lon="14.3478111045">
		<tag k="name" v="Langmyra" />
		<tag k="natural" v="wetland" />
		<tag k="ssr:stedsnr" v="638278" />
	</node>
	<node id="-168179" lat="66.9357305578" lon="13.7386277748">
		<tag k="name" v="Lillemarkmyra" />
>>>>>>> e1d4bc35ff8a6074a6f2e91616a996b547c36f15
		<tag k="natural" v="wetland" />
		<tag k="ssr:stedsnr" v="562139" />
	</node>
<<<<<<< HEAD
	<node lat="67.09295833321286" lon="14.063691675725309" id="-9694">
		<tag k="name" v="Kvanntoura" />
		<tag k="natural" v="scree" />
		<tag k="ssr:stedsnr" v="570475" />
	</node>
	<node lat="67.12124722469882" lon="14.321394435487704" id="-9707">
		<tag k="name" v="Gyltesmyra" />
=======
	<node id="-168173" lat="66.942844446" lon="13.7247499895">
		<tag k="name" v="Myran" />
>>>>>>> e1d4bc35ff8a6074a6f2e91616a996b547c36f15
		<tag k="natural" v="wetland" />
		<tag k="ssr:stedsnr" v="577229" />
	</node>
<<<<<<< HEAD
	<node lat="67.11671389012896" lon="14.050119437225163" id="-9714">
		<tag k="name" v="Hambøren" />
		<tag k="place" v="locality" />
		<tag k="ssr:stedsnr" v="578581" />
	</node>
	<node lat="67.13676388768775" lon="14.101072229169034" id="-9732">
		<tag k="name" v="Limyra" />
		<tag k="natural" v="wetland" />
		<tag k="ssr:stedsnr" v="587079" />
	</node>
	<node lat="66.9826194404452" lon="14.149761106609505" id="-9736">
		<tag k="name" v="Høgvikmyran" />
		<tag k="natural" v="wetland" />
		<tag k="ssr:stedsnr" v="601063" />
	</node>
	<node lat="67.0903055534749" lon="14.110033332452524" id="-9773">
		<tag k="name" v="Blåurda" />
		<tag k="natural" v="scree" />
		<tag k="ssr:stedsnr" v="623156" />
	</node>
	<node lat="67.0097472230383" lon="14.183622210962497" id="-9791">
		<tag k="name" v="Flogsmyrrabben" />
		<tag k="place" v="locality" />
		<tag k="ssr:stedsnr" v="631662" />
	</node>
	<node lat="66.9428444459854" lon="13.724749989471343" id="-9795">
		<tag k="name" v="Myran" />
		<tag k="natural" v="wetland" />
		<tag k="ssr:stedsnr" v="637952" />
	</node>
	<node lat="67.03980277393438" lon="14.0697027811864" id="-9803">
		<tag k="name" v="Lauvvassura" />
		<tag k="natural" v="scree" />
		<tag k="ssr:stedsnr" v="638784" />
	</node>
	<node lat="67.07392500136852" lon="14.347811104524054" id="-9806">
		<tag k="name" v="Langmyra" />
		<tag k="natural" v="wetland" />
		<tag k="ssr:stedsnr" v="638278" />
	</node>
	<node lat="67.06258055373621" lon="13.772466662282556" id="-9825">
		<tag k="name" v="Hagen" />
=======
	<node id="-167139" lat="66.9964027782" lon="13.9892750063">
		<tag k="name" v="Valura" />
		<tag k="natural" v="scree" />
		<tag k="ssr:stedsnr" v="905217" />
	</node>
	<node id="-167644" lat="66.9341250007" lon="13.725811101">
		<tag k="name" v="Mevikmarka" />
		<tag k="place" v="locality" />
		<tag k="ssr:stedsnr" v="319156" />
	</node>
	<node id="-167131" lat="66.9452583357" lon="13.7070499982">
		<tag k="name" v="Bogen" />
		<tag k="place" v="locality" />
		<tag k="ssr:stedsnr" v="881959" />
	</node>
	<node id="-167130" lat="66.9605722233" lon="13.8010388965">
		<tag k="name" v="Sandslettan" />
		<tag k="natural" v="beach" />
		<tag k="ssr:stedsnr" v="881956" />
		<tag k="surface" v="sand" />
	</node>
	<node id="-167126" lat="67.0062361069" lon="14.189644446">
		<tag k="name" v="Einkastgrinda" />
		<tag k="place" v="locality" />
		<tag k="ssr:stedsnr" v="874673" />
	</node>
	<node id="-166009" lat="67.0070499956" lon="14.1827944547">
		<tag k="name" v="Olderdalen" />
		<tag k="place" v="locality" />
		<tag k="ssr:stedsnr" v="267640" />
	</node>
	<node id="-166097" lat="67.0765222248" lon="13.8546888897">
		<tag k="name" v="Høysand" />
		<tag k="place" v="locality" />
		<tag k="ssr:stedsnr" v="177316" />
	</node>
	<node id="-167632" lat="67.114105553" lon="14.0409999885">
		<tag k="name" v="Hambrekken" />
>>>>>>> e1d4bc35ff8a6074a6f2e91616a996b547c36f15
		<tag k="place" v="locality" />
		<tag k="ssr:stedsnr" v="647559" />
	</node>
<<<<<<< HEAD
	<node lat="66.97798333173306" lon="13.888061112622092" id="-9835">
		<tag k="name" v="Trollkjerka" />
=======
	<node id="-168139" lat="67.0903055535" lon="14.1100333325">
		<tag k="name" v="Blåurda" />
>>>>>>> e1d4bc35ff8a6074a6f2e91616a996b547c36f15
		<tag k="natural" v="scree" />
		<tag k="ssr:stedsnr" v="662370" />
	</node>
<<<<<<< HEAD
	<node lat="67.07298888977964" lon="13.767891671486217" id="-9841">
		<tag k="name" v="Hullura" />
=======
	<node id="-167626" lat="66.9723416639" lon="13.9505611206">
		<tag k="name" v="Grøssetura" />
>>>>>>> e1d4bc35ff8a6074a6f2e91616a996b547c36f15
		<tag k="natural" v="scree" />
		<tag k="ssr:stedsnr" v="662571" />
	</node>
<<<<<<< HEAD
	<node lat="67.10657500312875" lon="14.315913879203775" id="-9895">
		<tag k="name" v="Grøven" />
=======
	<node id="-166087" lat="67.0624166646" lon="13.854344448">
		<tag k="name" v="Tverrmyrsanden" />
>>>>>>> e1d4bc35ff8a6074a6f2e91616a996b547c36f15
		<tag k="place" v="locality" />
		<tag k="ssr:stedsnr" v="759131" />
	</node>
<<<<<<< HEAD
	<node lat="67.09446666989373" lon="14.277872225317154" id="-9897">
		<tag k="name" v="Gåsmyra" />
=======
	<node id="-167110" lat="67.0623833348" lon="14.0495055533">
		<tag k="name" v="Gildeskålmyra" />
>>>>>>> e1d4bc35ff8a6074a6f2e91616a996b547c36f15
		<tag k="natural" v="wetland" />
		<tag k="ssr:stedsnr" v="759092" />
	</node>
<<<<<<< HEAD
	<node lat="66.94205833034859" lon="13.67958612175627" id="-9899">
		<tag k="name" v="Vassbekkmyra" />
		<tag k="natural" v="wetland" />
		<tag k="ssr:stedsnr" v="759940" />
	</node>
	<node lat="66.94631944527029" lon="13.6936194467975" id="-9901">
		<tag k="name" v="Tofta" />
		<tag k="place" v="locality" />
		<tag k="ssr:stedsnr" v="759963" />
	</node>
	<node lat="67.01033888962436" lon="14.0559472192599" id="-9904">
		<tag k="name" v="Jelstadmyran" />
=======
	<node id="-166085" lat="67.1478472193" lon="14.0940833266">
		<tag k="name" v="Dukan" />
		<tag k="place" v="locality" />
		<tag k="ssr:stedsnr" v="284099" />
	</node>
	<node id="-166387" lat="67.0021666643" lon="13.8929416687">
		<tag k="name" v="Spanskliura" />
		<tag k="natural" v="scree" />
		<tag k="ssr:stedsnr" v="359463" />
	</node>
	<node id="-167104" lat="67.0517222193" lon="14.04921111">
		<tag k="name" v="Liflegjerdet" />
		<tag k="place" v="locality" />
		<tag k="ssr:stedsnr" v="942919" />
	</node>
	<node id="-166079" lat="66.9319944461" lon="13.7269472307">
		<tag k="name" v="Storura" />
		<tag k="natural" v="scree" />
		<tag k="ssr:stedsnr" v="283717" />
	</node>
	<node id="-167614" lat="66.9245000032" lon="14.1168305455">
		<tag k="name" v="Kliptjønnmyran" />
>>>>>>> e1d4bc35ff8a6074a6f2e91616a996b547c36f15
		<tag k="natural" v="wetland" />
		<tag k="ssr:stedsnr" v="759986" />
	</node>
<<<<<<< HEAD
	<node lat="67.06853611394898" lon="13.941255566516864" id="-9921">
		<tag k="name" v="Sengmyra" />
		<tag k="natural" v="wetland" />
		<tag k="ssr:stedsnr" v="769368" />
	</node>
	<node lat="67.07025278026595" lon="13.84244721208125" id="-9962">
		<tag k="name" v="Storsanden" />
		<tag k="natural" v="beach" />
		<tag k="ssr:stedsnr" v="805195" />
		<tag k="surface" v="sand" />
	</node>
	<node lat="66.95888055206215" lon="14.137661106938637" id="-9988">
		<tag k="name" v="Svaen" />
=======
	<node id="-166131" lat="67.0136972263" lon="14.1897361221">
		<tag k="name" v="Åsmyra" />
		<tag k="natural" v="wetland" />
		<tag k="ssr:stedsnr" v="207519" />
	</node>
	<node id="-166858" lat="67.069402778" lon="14.3213666725">
		<tag k="name" v="Mølnkjerran" />
		<tag k="place" v="locality" />
		<tag k="ssr:stedsnr" v="699226" />
	</node>
	<node id="-167098" lat="66.9740472243" lon="14.0155638951">
		<tag k="name" v="Kalvhagen" />
		<tag k="place" v="locality" />
		<tag k="ssr:stedsnr" v="942297" />
	</node>
	<node id="-167096" lat="67.0144805593" lon="14.0557444386">
		<tag k="name" v="Vollan" />
		<tag k="place" v="locality" />
		<tag k="ssr:stedsnr" v="941983" />
	</node>
	<node id="-167095" lat="66.9393333376" lon="13.7794499977">
		<tag k="name" v="Ronen" />
>>>>>>> e1d4bc35ff8a6074a6f2e91616a996b547c36f15
		<tag k="place" v="locality" />
		<tag k="ssr:stedsnr" v="813426" />
	</node>
<<<<<<< HEAD
	<node lat="67.15509166843145" lon="13.995086107063113" id="-10002">
		<tag k="name" v="Stormyra" />
=======
	<node id="-167090" lat="67.0962833361" lon="14.2945027791">
		<tag k="name" v="Balmyra" />
>>>>>>> e1d4bc35ff8a6074a6f2e91616a996b547c36f15
		<tag k="natural" v="wetland" />
		<tag k="ssr:stedsnr" v="821535" />
	</node>
<<<<<<< HEAD
	<node lat="67.04556666946411" lon="14.034394454082225" id="-10010">
		<tag k="name" v="Langskogan" />
		<tag k="place" v="locality" />
		<tag k="ssr:stedsnr" v="821938" />
	</node>
	<node lat="67.04361389171984" lon="14.030055558124635" id="-10011">
		<tag k="name" v="Myra" />
		<tag k="natural" v="wetland" />
		<tag k="ssr:stedsnr" v="821939" />
	</node>
	<node lat="67.06418055773183" lon="14.051958329560204" id="-10014">
		<tag k="name" v="Pengura" />
=======
	<node id="-166065" lat="66.9860055594" lon="14.1523027791">
		<tag k="name" v="Svartskogen" />
		<tag k="place" v="locality" />
		<tag k="ssr:stedsnr" v="162072" />
	</node>
	<node id="-166054" lat="66.9788777774" lon="14.0389722133">
		<tag k="name" v="Blåflogmyran" />
		<tag k="natural" v="wetland" />
		<tag k="ssr:stedsnr" v="274838" />
	</node>
	<node id="-166565" lat="67.1043416638" lon="13.8938027669">
		<tag k="landuse" v="meadow" />
		<tag k="name" v="Sommarfjøsplassen" />
		<tag k="ssr:stedsnr" v="480170" />
	</node>
	<node id="-166052" lat="67.1561749958" lon="13.980052785">
		<tag k="name" v="Langmyra" />
		<tag k="natural" v="wetland" />
		<tag k="ssr:stedsnr" v="274562" />
	</node>
	<node id="-167878" lat="67.0658333311" lon="13.9410972111">
		<tag k="name" v="Langmyra" />
		<tag k="natural" v="wetland" />
		<tag k="ssr:stedsnr" v="405375" />
	</node>
	<node id="-166549" lat="67.0729888898" lon="13.7678916715">
		<tag k="name" v="Hullura" />
>>>>>>> e1d4bc35ff8a6074a6f2e91616a996b547c36f15
		<tag k="natural" v="scree" />
		<tag k="ssr:stedsnr" v="821952" />
	</node>
<<<<<<< HEAD
	<node lat="67.00748889103845" lon="14.18584166648338" id="-10109">
		<tag k="name" v="Bekkedya" />
		<tag k="place" v="locality" />
		<tag k="ssr:stedsnr" v="874546" />
	</node>
	<node lat="67.00623610686232" lon="14.189644446007915" id="-10114">
		<tag k="name" v="Einkastgrinda" />
		<tag k="place" v="locality" />
		<tag k="ssr:stedsnr" v="874673" />
	</node>
	<node lat="66.90883055522879" lon="14.134941676890717" id="-10117">
		<tag k="name" v="Tettskogen" />
		<tag k="place" v="locality" />
		<tag k="ssr:stedsnr" v="875541" />
	</node>
	<node lat="67.09971666907232" lon="14.291844438551426" id="-10119">
		<tag k="name" v="Stormyra" />
		<tag k="natural" v="wetland" />
		<tag k="ssr:stedsnr" v="881092" />
	</node>
	<node lat="66.9949138901161" lon="14.06637500552874" id="-10128">
		<tag k="landuse" v="meadow" />
		<tag k="name" v="Engan" />
		<tag k="ssr:stedsnr" v="882752" />
	</node>
	<node lat="67.09628333613406" lon="14.294502779059636" id="-10137">
		<tag k="name" v="Balmyra" />
=======
	<node id="-168078" lat="66.9826194404" lon="14.1497611066">
		<tag k="name" v="Høgvikmyran" />
		<tag k="natural" v="wetland" />
		<tag k="ssr:stedsnr" v="601063" />
	</node>
	<node id="-166541" lat="66.9779833317" lon="13.8880611126">
		<tag k="name" v="Trollkjerka" />
		<tag k="natural" v="scree" />
		<tag k="ssr:stedsnr" v="662370" />
	</node>
	<node id="-168075" lat="67.1367638877" lon="14.1010722292">
		<tag k="name" v="Limyra" />
		<tag k="natural" v="wetland" />
		<tag k="ssr:stedsnr" v="587079" />
	</node>
	<node id="-166538" lat="66.99951389" lon="13.9989166635">
		<tag k="name" v="Stusteinen" />
		<tag k="natural" v="stone" />
		<tag k="ssr:stedsnr" v="662209" />
	</node>
	<node id="-166536" lat="67.1045972252" lon="13.8852666779">
		<tag k="name" v="Porsmyra" />
>>>>>>> e1d4bc35ff8a6074a6f2e91616a996b547c36f15
		<tag k="natural" v="wetland" />
		<tag k="ssr:stedsnr" v="941086" />
	</node>
<<<<<<< HEAD
	<node lat="67.01448055933548" lon="14.055744438634958" id="-10142">
		<tag k="name" v="Vollan" />
		<tag k="place" v="locality" />
		<tag k="ssr:stedsnr" v="941983" />
	</node>
	<node lat="66.93933333755695" lon="13.779449997697961" id="-10143">
		<tag k="name" v="Ronen" />
		<tag k="place" v="locality" />
		<tag k="ssr:stedsnr" v="941974" />
	</node>
	<node lat="66.97404722432996" lon="14.015563895067785" id="-10145">
		<tag k="name" v="Kalvhagen" />
=======
	<node id="-167047" lat="67.0702527803" lon="13.8424472121">
		<tag k="name" v="Storsanden" />
		<tag k="natural" v="beach" />
		<tag k="ssr:stedsnr" v="805195" />
		<tag k="surface" v="sand" />
	</node>
	<node id="-167554" lat="66.9960333297" lon="13.8841388942">
		<tag k="name" v="Heststeinan" />
		<tag k="natural" v="scree" />
		<tag k="ssr:stedsnr" v="177500" />
	</node>
	<node id="-167551" lat="66.9555499972" lon="13.902936114">
		<tag k="name" v="Jakobenga" />
>>>>>>> e1d4bc35ff8a6074a6f2e91616a996b547c36f15
		<tag k="place" v="locality" />
		<tag k="ssr:stedsnr" v="942297" />
	</node>
<<<<<<< HEAD
	<node lat="67.06238333482887" lon="14.049505553320992" id="-10154">
		<tag k="name" v="Gildeskålmyra" />
=======
	<node id="-167550" lat="66.9484666641" lon="13.8078972258">
		<tag k="name" v="Kvannten" />
>>>>>>> e1d4bc35ff8a6074a6f2e91616a996b547c36f15
		<tag k="natural" v="wetland" />
		<tag k="ssr:stedsnr" v="942952" />
	</node>
<<<<<<< HEAD
	<node lat="67.05172221930721" lon="14.049211110044064" id="-10157">
		<tag k="name" v="Liflegjerdet" />
=======
	<node id="-167548" lat="66.9654138909" lon="13.8816944542">
		<tag k="name" v="Ausskogan" />
>>>>>>> e1d4bc35ff8a6074a6f2e91616a996b547c36f15
		<tag k="place" v="locality" />
		<tag k="ssr:stedsnr" v="942919" />
	</node>
<<<<<<< HEAD
	<node lat="66.93381110710244" lon="13.721752783134212" id="-10162">
		<tag k="name" v="Grimstadgjerdskogan" />
=======
	<node id="-168059" lat="67.1167138901" lon="14.0501194372">
		<tag k="name" v="Hambøren" />
>>>>>>> e1d4bc35ff8a6074a6f2e91616a996b547c36f15
		<tag k="place" v="locality" />
		<tag k="ssr:stedsnr" v="951779" />
	</node>
<<<<<<< HEAD
	<node lat="67.07696110719077" lon="13.844636107119035" id="-10174">
		<tag k="name" v="Torvmyran" />
=======
	<node id="-168057" lat="67.1581000006" lon="13.9904305544">
		<tag k="name" v="Nymyra" />
>>>>>>> e1d4bc35ff8a6074a6f2e91616a996b547c36f15
		<tag k="natural" v="wetland" />
		<tag k="ssr:stedsnr" v="965332" />
	</node>
	<node id="-168049" lat="67.1212472247" lon="14.3213944355">
		<tag k="name" v="Gyltesmyra" />
		<tag k="natural" v="wetland" />
		<tag k="ssr:stedsnr" v="577229" />
	</node>
	<node id="-166511" lat="67.0354305583" lon="14.0451888885">
		<tag k="name" v="Vollan" />
		<tag k="place" v="locality" />
		<tag k="ssr:stedsnr" v="517854" />
	</node>
	<node id="-168035" lat="66.958041668" lon="14.1491888837">
		<tag k="name" v="Johannessteinen" />
		<tag k="natural" v="stone" />
		<tag k="ssr:stedsnr" v="570419" />
	</node>
	<node id="-166497" lat="66.9829138864" lon="13.8649138784">
		<tag k="landuse" v="meadow" />
		<tag k="name" v="Sjyåkran" />
		<tag k="ssr:stedsnr" v="420533" />
	</node>
	<node id="-166495" lat="66.9839472241" lon="13.8714666608">
		<tag k="name" v="Steinan" />
		<tag k="natural" v="scree" />
		<tag k="ssr:stedsnr" v="420526" />
	</node>
	<node id="-166494" lat="66.9887694419" lon="13.87057777">
		<tag k="name" v="Skyttesteinen" />
		<tag k="natural" v="stone" />
		<tag k="ssr:stedsnr" v="420523" />
	</node>
	<node id="-167517" lat="67.0384011589" lon="13.9567784397">
		<tag k="name" v="Øvermarka" />
		<tag k="place" v="locality" />
		<tag k="ssr:stedsnr" v="153827" />
	</node>
	<node id="-166671" lat="66.9747722231" lon="14.1470083338">
		<tag k="name" v="Gammvikmyra" />
		<tag k="natural" v="wetland" />
		<tag k="ssr:stedsnr" v="692574" />
	</node>
	<node id="-167510" lat="67.1584138901" lon="14.0090388874">
		<tag k="name" v="Gårdsmyra" />
		<tag k="natural" v="wetland" />
		<tag k="ssr:stedsnr" v="153567" />
	</node>
	<node id="-166670" lat="66.9614194402" lon="14.1530027807">
		<tag k="name" v="Anne-Lottasteinen" />
		<tag k="natural" v="stone" />
		<tag k="ssr:stedsnr" v="692452" />
	</node>
	<node id="-166584" lat="67.1171638892" lon="13.8734861042">
		<tag k="name" v="Mølndalsmyra" />
		<tag k="natural" v="wetland" />
		<tag k="ssr:stedsnr" v="501907" />
	</node>
	<node id="-167500" lat="67.0676666633" lon="14.3035833391">
		<tag k="name" v="Kjerkedelen" />
		<tag k="place" v="locality" />
		<tag k="ssr:stedsnr" v="152239" />
	</node>
	<node id="-166475" lat="67.006419449" lon="14.2351999939">
		<tag k="name" v="Lefsnesmyra" />
		<tag k="natural" v="wetland" />
		<tag k="ssr:stedsnr" v="510558" />
	</node>
	<node id="-168009" lat="67.0932277755" lon="14.020386121">
		<tag k="name" v="Hustadmyran" />
		<tag k="natural" v="wetland" />
		<tag k="ssr:stedsnr" v="562139" />
	</node>
	<node id="-167493" lat="66.9528638924" lon="14.1037722315">
		<tag k="name" v="Jens Olso-nesan" />
		<tag k="place" v="locality" />
		<tag k="ssr:stedsnr" v="146493" />
	</node>
	<node id="-168506" lat="66.9829638925" lon="13.8198694546">
		<tag k="name" v="Storsteinen" />
		<tag k="natural" v="stone" />
		<tag k="ssr:stedsnr" v="965492" />
	</node>
	<node id="-166457" lat="67.1595361083" lon="14.0087305658">
		<tag k="name" v="Flåtta" />
		<tag k="place" v="locality" />
		<tag k="ssr:stedsnr" v="396529" />
	</node>
	<node id="-167480" lat="67.1252666655" lon="14.0938694373">
		<tag k="name" v="Langskogan" />
		<tag k="place" v="locality" />
		<tag k="ssr:stedsnr" v="137900" />
	</node>
	<node id="-168502" lat="67.0769611072" lon="13.8446361071">
		<tag k="name" v="Torvmyran" />
		<tag k="natural" v="wetland" />
		<tag k="ssr:stedsnr" v="965332" />
	</node>
	<node id="-166153" lat="67.1402777739" lon="13.9745277732">
		<tag k="name" v="Skaueggan" />
		<tag k="place" v="locality" />
		<tag k="ssr:stedsnr" v="214330" />
	</node>
	<node id="-168496" lat="66.9338111071" lon="13.7217527831">
		<tag k="name" v="Grimstadgjerdskogan" />
		<tag k="place" v="locality" />
		<tag k="ssr:stedsnr" v="951779" />
	</node>
	<node id="-166447" lat="67.0922722228" lon="14.0666611133">
		<tag k="name" v="Finnholura" />
		<tag k="natural" v="scree" />
		<tag k="ssr:stedsnr" v="388505" />
	</node>
	<node id="-166958" lat="67.1181277744" lon="13.8934944325">
		<tag k="name" v="Palstokkan" />
		<tag k="place" v="locality" />
		<tag k="ssr:stedsnr" v="769300" />
	</node>
	<node id="-168487" lat="67.007488891" lon="14.1858416665">
		<tag k="name" v="Bekkedya" />
		<tag k="place" v="locality" />
		<tag k="ssr:stedsnr" v="874546" />
	</node>
	<node id="-167882" lat="67.0621444469" lon="13.849022213">
		<tag k="name" v="Tverrmyrura" />
		<tag k="natural" v="scree" />
		<tag k="ssr:stedsnr" v="405392" />
	</node>
	<node id="-167967" lat="67.0043944478" lon="13.9179638853">
		<tag k="name" v="Innermarka" />
		<tag k="place" v="locality" />
		<tag k="ssr:stedsnr" v="541456" />
	</node>
	<node id="-165917" lat="67.0684472186" lon="14.0498055527">
		<tag k="name" v="Stormyra" />
		<tag k="natural" v="wetland" />
		<tag k="ssr:stedsnr" v="55174" />
	</node>
	<node id="-165908" lat="67.070502779" lon="13.8472666686">
		<tag k="name" v="Littj-sanden" />
		<tag k="natural" v="beach" />
		<tag k="ssr:stedsnr" v="237321" />
		<tag k="surface" v="sand" />
	</node>
	<node id="-166923" lat="66.9515861126" lon="13.8229916723">
		<tag k="name" v="Lappsteinan" />
		<tag k="natural" v="scree" />
		<tag k="ssr:stedsnr" v="905488" />
	</node>
	<node id="-167255" lat="67.0658611128" lon="14.3173416626">
		<tag k="name" v="Myran" />
		<tag k="natural" v="wetland" />
		<tag k="ssr:stedsnr" v="31224" />
	</node>
	<node id="-167429" lat="67.143016666" lon="14.0803527772">
		<tag k="landuse" v="meadow" />
		<tag k="name" v="Nylenden" />
		<tag k="ssr:stedsnr" v="102096" />
	</node>
	<node id="-166875" lat="67.0556999958" lon="13.7820555604">
		<tag k="name" v="Damsteinan" />
		<tag k="natural" v="stone" />
		<tag k="ssr:stedsnr" v="890558" />
	</node>
</osm>
