<?xml version="1.0" encoding="UTF-8"?>
<osm version="0.6" generator="osmapis">
	<node lat="67.006389485656" lon="13.970728075874721" id="-18040">
		<tag k="alt_name" v="For, nedre" />
		<tag k="fixme" v="multiple name tags, choose one and add the other to alt_name; consider place=hamlet" />
		<tag k="name" v="For;Ner-For" />
		<tag k="place" v="farm" />
		<tag k="ssr:stedsnr" v="16022" />
	</node>
	<node lat="67.11197047367831" lon="14.309292983617809" id="-18056">
		<tag k="fixme" v="consider place=hamlet" />
		<tag k="name" v="Nygård" />
		<tag k="place" v="farm" />
		<tag k="ssr:stedsnr" v="16417" />
	</node>
	<node lat="67.11369960287185" lon="14.230230122618039" id="-18057">
		<tag k="alt_name" v="Øyjord" />
		<tag k="fixme" v="consider place=hamlet" />
		<tag k="name" v="Øyjorda" />
		<tag k="place" v="farm" />
		<tag k="ssr:stedsnr" v="16418" />
	</node>
	<node lat="67.13453611316875" lon="14.07380277937567" id="-18063">
		<tag k="name" v="Solheim" />
		<tag k="place" v="farm" />
		<tag k="ssr:stedsnr" v="16901" />
	</node>
	<node lat="67.12706688256452" lon="14.172637830587352" id="-18064">
		<tag k="fixme" v="consider place=hamlet" />
		<tag k="name" v="Sæter" />
		<tag k="place" v="farm" />
		<tag k="ssr:stedsnr" v="16902" />
	</node>
	<node lat="67.13626666800006" lon="13.966916657290644" id="-18073">
		<tag k="alt_name" v="Sørarnøya" />
		<tag k="loc_name" v="Sør-Arnøya" />
		<tag k="name" v="Sør-Arnøy" />
		<tag k="old_name" v="Sørarnøy" />
		<tag k="place" v="village" />
		<tag k="ssr:stedsnr" v="16883" />
	</node>
	<node lat="66.9876250809632" lon="14.04602071242851" id="-18074">
		<tag k="name" v="Åkervika" />
		<tag k="place" v="farm" />
		<tag k="ssr:stedsnr" v="25078" />
	</node>
	<node lat="66.94608610863244" lon="13.687758344101026" id="-18085">
		<tag k="name" v="Langhaugen" />
		<tag k="place" v="farm" />
		<tag k="ssr:stedsnr" v="31965" />
	</node>
	<node lat="67.0714388893887" lon="14.332033335640462" id="-18088">
		<tag k="name" v="Vollen" />
		<tag k="place" v="farm" />
		<tag k="ssr:stedsnr" v="32213" />
	</node>
	<node lat="67.059744445402" lon="14.046174996030004" id="-18090">
		<tag k="name" v="Gildeskål prestegård" />
		<tag k="place" v="farm" />
		<tag k="ssr:stedsnr" v="32964" />
	</node>
	<node lat="67.00723022908917" lon="13.986326213631203" id="-18132">
		<tag k="fixme" v="consider place=hamlet" />
		<tag k="name" v="Valle" />
		<tag k="place" v="farm" />
		<tag k="ssr:stedsnr" v="77026" />
	</node>
	<node lat="66.94793781273151" lon="13.904997464504847" id="-18140">
		<tag k="fixme" v="consider place=hamlet" />
		<tag k="name" v="Oterstranda" />
		<tag k="place" v="farm" />
		<tag k="ssr:stedsnr" v="77204" />
	</node>
	<node lat="67.1514888856579" lon="14.329458324667552" id="-18146">
		<tag k="alt_name" v="Okslia, yt" />
		<tag k="name" v="Ytre Okslia" />
		<tag k="place" v="isolated_dwelling" />
		<tag k="ssr:stedsnr" v="77416" />
	</node>
	<node lat="67.1905671617788" lon="14.281665051370565" id="-18147">
		<tag k="alt_name" v="Alsvik" />
		<tag k="fixme" v="consider place=hamlet" />
		<tag k="name" v="Alsvika" />
		<tag k="place" v="farm" />
		<tag k="ssr:stedsnr" v="77421" />
	</node>
	<node lat="67.0301637742559" lon="14.26095067374274" id="-18170">
		<tag k="alt_name" v="Asgosletten" />
		<tag k="fixme" v="consider place=hamlet" />
		<tag k="name" v="Asgotsletta" />
		<tag k="place" v="farm" />
		<tag k="ssr:stedsnr" v="102024" />
	</node>
	<node lat="67.14186110988298" lon="14.081063893369539" id="-18173">
		<tag k="name" v="Slavringen" />
		<tag k="place" v="isolated_dwelling" />
		<tag k="ssr:stedsnr" v="102089" />
	</node>
	<node lat="67.05642499740182" lon="14.232719447714087" id="-18181">
		<tag k="name" v="Solbakken" />
		<tag k="place" v="farm" />
		<tag k="ssr:stedsnr" v="116107" />
	</node>
	<node lat="67.12394277759077" lon="14.186982506022545" id="-18200">
		<tag k="name" v="Lauklia" />
		<tag k="place" v="locality" />
		<tag k="ssr:stedsnr" v="137155" />
	</node>
	<node lat="67.0447319343462" lon="14.11168256937881" id="-18202">
		<tag k="alt_name" v="Nordbergnes" />
		<tag k="name" v="Nordbergneset" />
		<tag k="place" v="farm" />
		<tag k="ssr:stedsnr" v="137162" />
	</node>
	<node lat="67.06829166765094" lon="14.31305277802252" id="-18206">
		<tag k="alt_name" v="Einvolden" />
		<tag k="name" v="Einvollen" />
		<tag k="place" v="farm" />
		<tag k="ssr:stedsnr" v="137212" />
	</node>
	<node lat="67.03179200715495" lon="14.259784335385294" id="-18211">
		<tag k="name" v="Asgotsletta" />
		<tag k="place" v="farm" />
		<tag k="ssr:stedsnr" v="137348" />
	</node>
	<node lat="67.06531542693675" lon="14.258710997515669" id="-18235">
		<tag k="name" v="Gammelgården" />
		<tag k="place" v="farm" />
		<tag k="ssr:stedsnr" v="152303" />
	</node>
	<node lat="67.0409495347321" lon="14.215307740029424" id="-18246">
		<tag k="name" v="Nordgård" />
		<tag k="place" v="farm" />
		<tag k="ssr:stedsnr" v="159115" />
	</node>
	<node lat="67.03352777762011" lon="14.026630552743407" id="-18248">
		<tag k="name" v="Inndyr" />
		<tag k="place" v="village" />
		<tag k="ssr:stedsnr" v="258214" />
	</node>
	<node lat="67.06708611499666" lon="14.043858341148441" id="-18257">
		<tag k="alt_name" v="Stoppervik;Stoppervika" />
		<tag k="name" v="Stokkbruvika" />
		<tag k="place" v="hamlet" />
		<tag k="ssr:stedsnr" v="258231" />
	</node>
	<node lat="66.96579166595306" lon="13.802949989774586" id="-18262">
		<tag k="name" v="Sanden" />
		<tag k="place" v="farm" />
		<tag k="ssr:stedsnr" v="258251" />
	</node>
	<node lat="67.09977199748411" lon="14.015015692208458" id="-18272">
		<tag k="fixme" v="consider place=hamlet" />
		<tag k="name" v="Hustad" />
		<tag k="place" v="farm" />
		<tag k="ssr:stedsnr" v="259130" />
	</node>
	<node lat="67.10550555677045" lon="14.018102775447382" id="-18273">
		<tag k="name" v="Rørstad" />
		<tag k="place" v="farm" />
		<tag k="ssr:stedsnr" v="259131" />
	</node>
	<node lat="66.9886972226754" lon="13.973866661865875" id="-18301">
		<tag k="name" v="Selvågen" />
		<tag k="place" v="farm" />
		<tag k="ssr:stedsnr" v="177215" />
	</node>
	<node lat="66.97079885686277" lon="13.945654926447158" id="-18318">
		<tag k="alt_name" v="Grøset" />
		<tag k="fixme" v="consider place=hamlet" />
		<tag k="name" v="Grøsset" />
		<tag k="old_name" v="Grøtset" />
		<tag k="place" v="farm" />
		<tag k="ssr:stedsnr" v="198209" />
	</node>
	<node lat="66.96793333690091" lon="13.972441658189592" id="-18319">
		<tag k="fixme" v="consider place=hamlet" />
		<tag k="name" v="Gjelset" />
		<tag k="place" v="farm" />
		<tag k="ssr:stedsnr" v="198211" />
	</node>
	<node lat="67.08289426929386" lon="14.330292787484414" id="-18322">
		<tag k="fixme" v="multiple name tags, choose one and add the other to alt_name; consider place=hamlet" />
		<tag k="name" v="Innervik;Indre Skålsvik" />
		<tag k="place" v="farm" />
		<tag k="ssr:stedsnr" v="198259" />
	</node>
	<node lat="67.12437968983696" lon="14.319719488946877" id="-18339">
		<tag k="fixme" v="consider place=hamlet" />
		<tag k="name" v="Ertenvåg" />
		<tag k="place" v="farm" />
		<tag k="ssr:stedsnr" v="198482" />
	</node>
	<node lat="67.13047777365107" lon="14.145741661153696" id="-18343">
		<tag k="alt_name" v="Urdsvika" />
		<tag k="name" v="Ursvika" />
		<tag k="place" v="isolated_dwelling" />
		<tag k="ssr:stedsnr" v="198911" />
	</node>
	<node lat="67.14171110918042" lon="14.112966659462007" id="-18347">
		<tag k="name" v="Flosanden" />
		<tag k="place" v="isolated_dwelling" />
		<tag k="ssr:stedsnr" v="198928" />
	</node>
	<node lat="66.96008611470951" lon="13.825336100471" id="-18401">
		<tag k="name" v="Breivoll" />
		<tag k="place" v="farm" />
		<tag k="ssr:stedsnr" v="455392" />
	</node>
	<node lat="67.07345555781112" lon="14.26106666407911" id="-18402">
		<tag k="alt_name" v="Eivika" />
		<tag k="name" v="Eidvika" />
		<tag k="place" v="farm" />
		<tag k="ssr:stedsnr" v="456285" />
	</node>
	<node lat="67.11268611421193" lon="14.039380551946893" id="-18403">
		<tag k="name" v="Flåtten" />
		<tag k="place" v="farm" />
		<tag k="ssr:stedsnr" v="258171" />
	</node>
	<node lat="67.04353055899927" lon="14.04453054918378" id="-18404">
		<tag k="alt_name" v="Flathaug" />
		<tag k="name" v="Flathaugen" />
		<tag k="place" v="farm" />
		<tag k="ssr:stedsnr" v="258203" />
	</node>
	<node lat="66.96368202516501" lon="13.806914136274646" id="-18407">
		<tag k="alt_name" v="Storvika" />
		<tag k="fixme" v="consider place=hamlet" />
		<tag k="name" v="Storvik" />
		<tag k="place" v="farm" />
		<tag k="ssr:stedsnr" v="258254" />
	</node>
	<node lat="66.9660567789695" lon="14.12249949419213" id="-18408">
		<tag k="fixme" v="consider place=hamlet" />
		<tag k="name" v="Tverrlia" />
		<tag k="place" v="farm" />
		<tag k="ssr:stedsnr" v="258259" />
	</node>
	<node lat="67.07342778080323" lon="14.341825008021862" id="-18409">
		<tag k="name" v="Skivika" />
		<tag k="place" v="farm" />
		<tag k="ssr:stedsnr" v="258262" />
	</node>
	<node lat="66.94433889116979" lon="13.70259445153461" id="-18433">
		<tag k="name" v="Sandstad" />
		<tag k="place" v="farm" />
		<tag k="ssr:stedsnr" v="259874" />
	</node>
	<node lat="67.14869999678632" lon="14.092366654920854" id="-18434">
		<tag k="name" v="Åsjorda" />
		<tag k="place" v="farm" />
		<tag k="ssr:stedsnr" v="259877" />
	</node>
	<node lat="67.12650000413882" lon="14.054833322959757" id="-18442">
		<tag k="name" v="Sørgården" />
		<tag k="place" v="farm" />
		<tag k="ssr:stedsnr" v="457579" />
	</node>
	<node lat="67.11467778158755" lon="14.034947213272545" id="-18479">
		<tag k="name" v="Labakken" />
		<tag k="place" v="farm" />
		<tag k="ssr:stedsnr" v="302426" />
	</node>
	<node lat="66.97530864129455" lon="14.154679035643179" id="-18502">
		<tag k="alt_name" v="Sundsfjord" />
		<tag k="fixme" v="consider place=hamlet" />
		<tag k="name" v="Sundsfjorden" />
		<tag k="place" v="farm" />
		<tag k="ssr:stedsnr" v="319237" />
	</node>
	<node lat="66.94496111366095" lon="13.722586121097889" id="-18512">
		<tag k="fixme" v="consider place=hamlet" />
		<tag k="name" v="Grimstad" />
		<tag k="place" v="village" />
		<tag k="ssr:stedsnr" v="319201" />
	</node>
	<node lat="67.07516666923628" lon="13.855719438149526" id="-18519">
		<tag k="name" v="Nordfugløy" />
		<tag k="place" v="hamlet" />
		<tag k="ssr:stedsnr" v="320142" />
	</node>
	<node lat="67.10862221892177" lon="13.916211104032676" id="-18544">
		<tag k="name" v="Gården" />
		<tag k="place" v="farm" />
		<tag k="ssr:stedsnr" v="344318" />
	</node>
	<node lat="67.05186110733668" lon="13.95943056526832" id="-18554">
		<tag k="name" v="Einvollen" />
		<tag k="place" v="locality" />
		<tag k="ssr:stedsnr" v="359156" />
	</node>
	<node lat="67.13865555721914" lon="14.134363898442214" id="-18603">
		<tag k="building" v="industrial" />
		<tag k="industrial" v="factory" />
		<tag k="name" v="Kvartsbrudd" />
		<tag k="ssr:stedsnr" v="380914" />
	</node>
	<node lat="67.13976966225252" lon="14.111834639272404" id="-18604">
		<tag k="name" v="Lieng" />
		<tag k="place" v="farm" />
		<tag k="ssr:stedsnr" v="380917" />
	</node>
	<node lat="66.94467778020582" lon="13.70033611161042" id="-18609">
		<tag k="name" v="Mørvollen" />
		<tag k="place" v="farm" />
		<tag k="ssr:stedsnr" v="380869" />
	</node>
	<node lat="67.01740833255144" lon="13.938547219876698" id="-18651">
		<tag k="name" v="Vollen" />
		<tag k="place" v="isolated_dwelling" />
		<tag k="ssr:stedsnr" v="420438" />
	</node>
	<node lat="67.13204166262082" lon="14.047605547795579" id="-18662">
		<tag k="alt_name" v="Breidvika" />
		<tag k="name" v="Breivik" />
		<tag k="place" v="farm" />
		<tag k="ssr:stedsnr" v="440902" />
	</node>
	<node lat="67.00515277828386" lon="14.1386516236421" id="-18669">
		<tag k="name" v="Storvika" />
		<tag k="place" v="farm" />
		<tag k="ssr:stedsnr" v="441038" />
	</node>
	<node lat="67.01802614578033" lon="14.165353951409438" id="-18670">
		<tag k="fixme" v="consider place=hamlet" />
		<tag k="name" v="Kvarsvika" />
		<tag k="place" v="farm" />
		<tag k="ssr:stedsnr" v="441040" />
	</node>
	<node lat="67.18711302420853" lon="14.247725684239173" id="-18672">
		<tag k="name" v="Kringla" />
		<tag k="place" v="farm" />
		<tag k="ssr:stedsnr" v="441053" />
	</node>
	<node lat="67.10732777616413" lon="14.037961120379213" id="-18675">
		<tag k="name" v="Solvang" />
		<tag k="place" v="farm" />
		<tag k="ssr:stedsnr" v="441136" />
	</node>
	<node lat="67.14993644887043" lon="14.271464288439628" id="-18686">
		<tag k="fixme" v="consider place=hamlet" />
		<tag k="name" v="Telnes" />
		<tag k="place" v="farm" />
		<tag k="ssr:stedsnr" v="441396" />
	</node>
	<node lat="67.07207777424264" lon="14.305158341694947" id="-18706">
		<tag k="name" v="Sjøvoll" />
		<tag k="place" v="farm" />
		<tag k="ssr:stedsnr" v="456282" />
	</node>
	<node lat="67.10307777468502" lon="13.912150005299939" id="-18732">
		<tag k="name" v="Båtvika" />
		<tag k="place" v="farm" />
		<tag k="ssr:stedsnr" v="480107" />
	</node>
	<node lat="67.00619444084815" lon="13.975583336420861" id="-18733">
		<tag k="name" v="Slettvollen" />
		<tag k="place" v="farm" />
		<tag k="ssr:stedsnr" v="480108" />
	</node>
	<node lat="66.96205391241304" lon="13.984766924461901" id="-18748">
		<tag k="alt_name" v="Oppsahl" />
		<tag k="fixme" v="consider place=hamlet" />
		<tag k="name" v="Oppsal" />
		<tag k="place" v="farm" />
		<tag k="ssr:stedsnr" v="501189" />
	</node>
	<node lat="67.05184166308193" lon="13.951408322194453" id="-18762">
		<tag k="name" v="Røssøysundet" />
		<tag k="place" v="farm" />
		<tag k="ssr:stedsnr" v="501214" />
	</node>
	<node lat="67.07693332988701" lon="14.215880544624355" id="-18768">
		<tag k="name" v="Elvebakken" />
		<tag k="place" v="farm" />
		<tag k="ssr:stedsnr" v="501229" />
	</node>
	<node lat="67.14584166284575" lon="14.334991668002198" id="-18777">
		<tag k="alt_name" v="Okslia, in" />
		<tag k="name" v="Indre Okslia" />
		<tag k="place" v="isolated_dwelling" />
		<tag k="ssr:stedsnr" v="502404" />
	</node>
	<node lat="67.13495277345714" lon="14.093483336964175" id="-18780">
		<tag k="name" v="Kvitøya" />
		<tag k="place" v="farm" />
		<tag k="ssr:stedsnr" v="502924" />
	</node>
	<node lat="67.0373055545011" lon="14.11495276680221" id="-18803">
		<tag k="alt_name" v="Sandnes, midtre" />
		<tag k="name" v="Midtre Sandnes" />
		<tag k="place" v="farm" />
		<tag k="ssr:stedsnr" v="683187" />
	</node>
	<node lat="67.1097380868726" lon="14.225292727689022" id="-18815">
		<tag k="fixme" v="consider place=hamlet" />
		<tag k="name" v="Klubbstein" />
		<tag k="place" v="farm" />
		<tag k="ssr:stedsnr" v="683431" />
	</node>
	<node lat="67.12788461033844" lon="14.058351331336654" id="-18821">
		<tag k="fixme" v="consider place=hamlet" />
		<tag k="name" v="Våg" />
		<tag k="place" v="farm" />
		<tag k="ssr:stedsnr" v="683896" />
	</node>
	<node lat="67.02907777995522" lon="14.026836121743083" id="-18835">
		<tag k="fixme" v="consider place=hamlet" />
		<tag k="name" v="Solvika" />
		<tag k="place" v="village" />
		<tag k="ssr:stedsnr" v="517850" />
	</node>
	<node lat="67.1383527765334" lon="13.960219447426846" id="-18843">
		<tag k="name" v="Åsen" />
		<tag k="place" v="farm" />
		<tag k="ssr:stedsnr" v="684891" />
	</node>
	<node lat="67.14010277635573" lon="13.97262222625013" id="-18844">
		<tag k="name" v="Halsåkeren" />
		<tag k="place" v="farm" />
		<tag k="ssr:stedsnr" v="684892" />
	</node>
	<node lat="67.11458889141748" lon="13.905641669265995" id="-18849">
		<tag k="name" v="Kongsgården" />
		<tag k="place" v="locality" />
		<tag k="ssr:stedsnr" v="526287" />
	</node>
	<node lat="67.07862500171386" lon="14.053686107401388" id="-18862">
		<tag k="name" v="Tømmervik" />
		<tag k="place" v="isolated_dwelling" />
		<tag k="ssr:stedsnr" v="541119" />
	</node>
	<node lat="67.03706808876612" lon="14.216066755190898" id="-18912">
		<tag k="name" v="Solvang" />
		<tag k="place" v="farm" />
		<tag k="ssr:stedsnr" v="595104" />
	</node>
	<node lat="67.17100555630701" lon="13.778619437452152" id="-18920">
		<tag k="fixme" v="consider place=hamlet" />
		<tag k="loc_name" v="Meværet" />
		<tag k="name" v="Mevær" />
		<tag k="place" v="village" />
		<tag k="ssr:stedsnr" v="601569" />
	</node>
	<node lat="67.07149722041481" lon="14.32849721215806" id="-18922">
		<tag k="name" v="Øvergård" />
		<tag k="place" v="farm" />
		<tag k="ssr:stedsnr" v="699234" />
	</node>
	<node lat="67.02965790710992" lon="14.113364507722332" id="-18929">
		<tag k="fixme" v="consider place=hamlet" />
		<tag k="name" v="Myklebostad" />
		<tag k="place" v="farm" />
		<tag k="ssr:stedsnr" v="622209" />
	</node>
	<node lat="66.95351645939992" lon="14.132667685995777" id="-18933">
		<tag k="fixme" v="consider place=hamlet" />
		<tag k="name" v="Storåmoen" />
		<tag k="place" v="farm" />
		<tag k="ssr:stedsnr" v="622227" />
	</node>
	<node lat="67.07126944456918" lon="14.30001943700691" id="-18934">
		<tag k="name" v="Moen" />
		<tag k="place" v="farm" />
		<tag k="ssr:stedsnr" v="622273" />
	</node>
	<node lat="67.07102812389478" lon="14.224532474281524" id="-18935">
		<tag k="name" v="Framnes" />
		<tag k="place" v="farm" />
		<tag k="ssr:stedsnr" v="622279" />
	</node>
	<node lat="67.1204666662288" lon="14.314699995455737" id="-18963">
		<tag k="name" v="Åkran" />
		<tag k="place" v="farm" />
		<tag k="ssr:stedsnr" v="632147" />
	</node>
	<node lat="67.11443055672676" lon="14.311744453130254" id="-18965">
		<tag k="name" v="Kroksmoen" />
		<tag k="place" v="farm" />
		<tag k="ssr:stedsnr" v="633594" />
	</node>
	<node lat="67.07253611446266" lon="14.331280548886687" id="-18968">
		<tag k="name" v="Bakken" />
		<tag k="place" v="farm" />
		<tag k="ssr:stedsnr" v="638228" />
	</node>
	<node lat="66.99674722255352" lon="14.147869454739103" id="-18983">
		<tag k="name" v="Kroken" />
		<tag k="place" v="isolated_dwelling" />
		<tag k="ssr:stedsnr" v="708097" />
	</node>
	<node lat="66.94113611252442" lon="13.960924992552211" id="-18997">
		<tag k="name" v="Gammelgården" />
		<tag k="place" v="locality" />
		<tag k="ssr:stedsnr" v="662214" />
	</node>
	<node lat="67.10473888543531" lon="13.913666664532725" id="-18999">
		<tag k="name" v="Johan-Sørensoplassen" />
		<tag k="place" v="locality" />
		<tag k="ssr:stedsnr" v="662189" />
	</node>
	<node lat="67.00648611207579" lon="13.916791670588962" id="-19006">
		<tag k="name" v="Bringvika" />
		<tag k="place" v="farm" />
		<tag k="ssr:stedsnr" v="662437" />
	</node>
	<node lat="67.05778055382943" lon="14.100572231863685" id="-19032">
		<tag k="fixme" v="consider place=hamlet" />
		<tag k="name" v="Odden" />
		<tag k="place" v="farm" />
		<tag k="ssr:stedsnr" v="683217" />
	</node>
	<node lat="66.97793286345407" lon="13.9807160391351" id="-19034">
		<tag k="fixme" v="consider place=hamlet" />
		<tag k="name" v="Sørfinnset" />
		<tag k="place" v="farm" />
		<tag k="ssr:stedsnr" v="683224" />
	</node>
	<node lat="67.14729166395688" lon="14.102188887048626" id="-19043">
		<tag k="name" v="Hammaren" />
		<tag k="place" v="farm" />
		<tag k="ssr:stedsnr" v="683865" />
	</node>
	<node lat="67.11523055670764" lon="14.045691674052152" id="-19065">
		<tag k="name" v="Kulen" />
		<tag k="place" v="isolated_dwelling" />
		<tag k="ssr:stedsnr" v="699572" />
	</node>
	<node lat="67.03640278229307" lon="14.102605550039035" id="-19075">
		<tag k="historic" v="shieling" />
		<tag k="name" v="Sandnessetra" />
		<tag k="place" v="isolated_dwelling" />
		<tag k="ssr:stedsnr" v="704069" />
	</node>
	<node lat="67.03977778118123" lon="14.214730562086055" id="-19085">
		<tag k="name" v="Midtgård" />
		<tag k="place" v="farm" />
		<tag k="ssr:stedsnr" v="716126" />
	</node>
	<node lat="67.00143333186736" lon="14.04824722124991" id="-19096">
		<tag k="fixme" v="consider place=hamlet" />
		<tag k="name" v="Dal" />
		<tag k="place" v="farm" />
		<tag k="ssr:stedsnr" v="744021" />
	</node>
	<node lat="67.18559722440163" lon="14.244422230237223" id="-19102">
		<tag k="name" v="Solbakken" />
		<tag k="place" v="farm" />
		<tag k="ssr:stedsnr" v="744040" />
	</node>
	<node lat="67.09501944442093" lon="14.205572233369292" id="-19103">
		<tag k="alt_name" v="Påsheia" />
		<tag k="name" v="Posheia" />
		<tag k="place" v="isolated_dwelling" />
		<tag k="ssr:stedsnr" v="744097" />
	</node>
	<node lat="67.11301612256402" lon="14.035369412760355" id="-19107">
		<tag k="fixme" v="consider place=hamlet" />
		<tag k="name" v="Lekanger" />
		<tag k="place" v="farm" />
		<tag k="ssr:stedsnr" v="744124" />
	</node>
	<node lat="66.94242777751782" lon="13.74271943628626" id="-19190">
		<tag k="alt_name" v="Aasgård" />
		<tag k="name" v="Åsgård" />
		<tag k="place" v="farm" />
		<tag k="ssr:stedsnr" v="909322" />
	</node>
	<node lat="67.0225962193972" lon="13.959949007152389" id="-19212">
		<tag k="alt_name" v="Søndre Sandnes;Sandnes, s;Sandnes" />
		<tag k="fixme" v="consider place=hamlet" />
		<tag k="name" v="Sør-Sandnes" />
		<tag k="place" v="farm" />
		<tag k="ssr:stedsnr" v="805055" />
	</node>
	<node lat="67.07187506964831" lon="14.332179682519827" id="-19213">
		<tag k="alt_name" v="Kjelling, in;Østre Kjelling" />
		<tag k="fixme" v="consider place=hamlet" />
		<tag k="name" v="Indre Kjelling" />
		<tag k="old_name" v="Kjelling" />
		<tag k="place" v="farm" />
		<tag k="ssr:stedsnr" v="805207" />
	</node>
	<node lat="67.18572094063694" lon="14.240038354948563" id="-19232">
		<tag k="name" v="Naustvollen" />
		<tag k="place" v="farm" />
		<tag k="ssr:stedsnr" v="815526" />
	</node>
	<node lat="67.04024221601078" lon="14.215030260733736" id="-19241">
		<tag k="name" v="Solhaug" />
		<tag k="place" v="farm" />
		<tag k="ssr:stedsnr" v="827103" />
	</node>
	<node lat="67.07823610774312" lon="14.052733329909525" id="-19255">
		<tag k="name" v="Halsan" />
		<tag k="place" v="farm" />
		<tag k="ssr:stedsnr" v="845186" />
	</node>
	<node lat="66.94657222185366" lon="13.716705566731266" id="-19307">
		<tag k="name" v="Eiterågmo" />
		<tag k="place" v="farm" />
		<tag k="ssr:stedsnr" v="881965" />
	</node>
	<node lat="67.04061111099026" lon="13.95775278686672" id="-19308">
		<tag k="name" v="Kjempen" />
		<tag k="place" v="isolated_dwelling" />
		<tag k="ssr:stedsnr" v="882719" />
	</node>
	<node lat="67.03808369609494" lon="14.110012866296733" id="-19312">
		<tag k="fixme" v="consider place=hamlet" />
		<tag k="name" v="Sandnes" />
		<tag k="place" v="farm" />
		<tag k="ssr:stedsnr" v="935561" />
	</node>
	<node lat="67.06944117281598" lon="14.304844336359988" id="-19318">
		<tag k="alt_name" v="Kjelling, yt;Kjelling Vestre;Vestre Kjelling" />
		<tag k="fixme" v="consider place=hamlet" />
		<tag k="name" v="Ytre Kjelling" />
		<tag k="place" v="farm" />
		<tag k="ssr:stedsnr" v="891023" />
	</node>
	<node lat="67.0440444452686" lon="14.03016944769859" id="-19341">
		<tag k="name" v="Myra" />
		<tag k="place" v="farm" />
		<tag k="ssr:stedsnr" v="926219" />
	</node>
	<node lat="67.12889166786135" lon="14.056588881291907" id="-19351">
		<tag k="name" v="Våg" />
		<tag k="place" v="farm" />
		<tag k="ssr:stedsnr" v="926906" />
	</node>
	<node lat="67.07709774800016" lon="14.212483531909838" id="-19358">
		<tag k="fixme" v="consider place=hamlet" />
		<tag k="name" v="Nordsandnes" />
		<tag k="place" v="farm" />
		<tag k="ssr:stedsnr" v="927270" />
	</node>
	<node lat="67.0533111143247" lon="14.225347230314371" id="-19366">
		<tag k="name" v="Hallager" />
		<tag k="place" v="farm" />
		<tag k="ssr:stedsnr" v="965112" />
	</node>
	<node lat="67.00851944296011" lon="13.966377780151861" id="-19367">
		<tag k="name" v="Yttermarka" />
		<tag k="place" v="farm" />
		<tag k="ssr:stedsnr" v="965134" />
	</node>
	<node lat="67.10896110850238" lon="14.027411100658828" id="-19379">
		<tag k="name" v="Nyheim" />
		<tag k="place" v="farm" />
		<tag k="ssr:stedsnr" v="970598" />
	</node>
	<node lat="66.96250246096167" lon="14.132651094332024" id="-19410">
		<tag k="fixme" v="consider place=hamlet" />
		<tag k="name" v="Ågnes" />
		<tag k="place" v="farm" />
		<tag k="ssr:stedsnr" v="16177" />
	</node>
	<node lat="66.94561666292428" lon="13.736308322866252" id="-19416">
		<tag k="fixme" v="consider place=hamlet" />
		<tag k="name" v="Mevik" />
		<tag k="place" v="village" />
		<tag k="ssr:stedsnr" v="16191" />
	</node>
	<node lat="67.04275350358863" lon="14.040636631031587" id="-19417">
		<tag k="name" v="Åsjorda" />
		<tag k="place" v="farm" />
		<tag k="ssr:stedsnr" v="16192" />
	</node>
	<node lat="67.10779722034779" lon="13.915116658496528" id="-19480">
		<tag k="name" v="Gården" />
		<tag k="place" v="farm" />
		<tag k="ssr:stedsnr" v="56187" />
	</node>
	<node lat="67.06544383756763" lon="14.263829892376844" id="-19486">
		<tag k="fixme" v="consider place=hamlet" />
		<tag k="name" v="Kjøpstad" />
		<tag k="place" v="farm" />
		<tag k="ssr:stedsnr" v="76274" />
	</node>
	<node lat="67.00369462125796" lon="13.909773927932111" id="-19490">
		<tag k="fixme" v="consider place=hamlet" />
		<tag k="name" v="Vigdel" />
		<tag k="place" v="farm" />
		<tag k="ssr:stedsnr" v="77041" />
	</node>
	<node lat="66.97375279533881" lon="13.733342306409996" id="-19496">
		<tag k="fixme" v="consider place=hamlet" />
		<tag k="name" v="Finnes" />
		<tag k="place" v="farm" />
		<tag k="ssr:stedsnr" v="77228" />
	</node>
	<node lat="67.07492667786822" lon="14.057542790261312" id="-19497">
		<tag k="fixme" v="consider place=hamlet" />
		<tag k="name" v="Sund" />
		<tag k="place" v="farm" />
		<tag k="ssr:stedsnr" v="77233" />
	</node>
	<node lat="66.96873610689504" lon="13.891186113646054" id="-19500">
		<tag k="name" v="Ausa" />
		<tag k="place" v="locality" />
		<tag k="ssr:stedsnr" v="77241" />
	</node>
	<node lat="67.09166223228652" lon="14.247386593180352" id="-19516">
		<tag k="alt_name" v="Røssnes" />
		<tag k="fixme" v="consider place=hamlet" />
		<tag k="name" v="Røsnes" />
		<tag k="place" v="farm" />
		<tag k="ssr:stedsnr" v="77475" />
	</node>
	<node lat="66.96297222439502" lon="13.967688886697085" id="-19538">
		<tag k="name" v="Gilset" />
		<tag k="place" v="farm" />
		<tag k="ssr:stedsnr" v="86533" />
	</node>
	<node lat="66.9450388915758" lon="13.71934999060391" id="-19542">
		<tag k="name" v="Nystad" />
		<tag k="place" v="farm" />
		<tag k="ssr:stedsnr" v="92944" />
	</node>
	<node lat="66.94445277615807" lon="13.706233325063488" id="-19543">
		<tag k="name" v="Solheim" />
		<tag k="place" v="farm" />
		<tag k="ssr:stedsnr" v="92952" />
	</node>
	<node lat="67.04052222069804" lon="13.961447221629657" id="-19545">
		<tag k="name" v="Gåshågen" />
		<tag k="place" v="isolated_dwelling" />
		<tag k="ssr:stedsnr" v="93739" />
	</node>
	<node lat="67.01305544091969" lon="14.123393123229217" id="-19578">
		<tag k="alt_name" v="Leirvik" />
		<tag k="fixme" v="consider place=hamlet" />
		<tag k="name" v="Leirvika" />
		<tag k="place" v="farm" />
		<tag k="ssr:stedsnr" v="137027" />
	</node>
	<node lat="67.1849305598461" lon="14.241577775550779" id="-19580">
		<tag k="fixme" v="consider place=hamlet" />
		<tag k="name" v="Sandvika" />
		<tag k="place" v="farm" />
		<tag k="ssr:stedsnr" v="137049" />
	</node>
	<node lat="67.05601667038515" lon="13.778866669558688" id="-19593">
		<tag k="fixme" v="consider place=hamlet" />
		<tag k="name" v="Sørfugløy" />
		<tag k="place" v="village" />
		<tag k="ssr:stedsnr" v="137188" />
	</node>
	<node lat="67.07258722847705" lon="14.309177796031443" id="-19600">
		<tag k="alt_name" v="Buneset" />
		<tag k="name" v="Bunes" />
		<tag k="place" v="farm" />
		<tag k="ssr:stedsnr" v="137282" />
	</node>
	<node lat="67.01419593985523" lon="14.246532620214914" id="-19601">
		<tag k="alt_name" v="Tind" />
		<tag k="fixme" v="consider place=hamlet" />
		<tag k="name" v="Tindan" />
		<tag k="place" v="farm" />
		<tag k="ssr:stedsnr" v="137289" />
	</node>
	<node lat="66.97170000304776" lon="13.945716671679081" id="-19668">
		<tag k="name" v="Nygård" />
		<tag k="place" v="farm" />
		<tag k="ssr:stedsnr" v="179368" />
	</node>
	<node lat="66.99895429726877" lon="14.239605567450399" id="-19681">
		<tag k="alt_name" v="Breidvika;Breivik" />
		<tag k="fixme" v="consider place=hamlet" />
		<tag k="name" v="Breivika" />
		<tag k="place" v="farm" />
		<tag k="ssr:stedsnr" v="198250" />
	</node>
	<node lat="66.86246388509969" lon="14.083194453239427" id="-19682">
		<tag k="name" v="Ruffehytta" />
		<tag k="place" v="isolated_dwelling" />
		<tag k="ssr:stedsnr" v="198331" />
	</node>
	<node lat="66.98254603340355" lon="13.871233544768995" id="-19685">
		<tag k="fixme" v="consider place=hamlet" />
		<tag k="name" v="Novika" />
		<tag k="place" v="farm" />
		<tag k="ssr:stedsnr" v="198194" />
	</node>
	<node lat="67.12228333415122" lon="14.246861103234107" id="-19691">
		<tag k="alt_name" v="Langnesvik" />
		<tag k="name" v="Langnesvika" />
		<tag k="place" v="farm" />
		<tag k="ssr:stedsnr" v="198423" />
	</node>
	<node lat="67.10314722622519" lon="13.91838888042082" id="-19778">
		<tag k="name" v="Sandvika" />
		<tag k="place" v="farm" />
		<tag k="ssr:stedsnr" v="298143" />
	</node>
	<node lat="66.9373611155924" lon="13.894324992823416" id="-19799">
		<tag k="building" v="industrial" />
		<tag k="industrial" v="factory" />
		<tag k="name" v="Molybden" />
		<tag k="ssr:stedsnr" v="319219" />
	</node>
	<node lat="66.9804823182817" lon="13.782389396898452" id="-19803">
		<tag k="name" v="Leikvollen" />
		<tag k="place" v="locality" />
		<tag k="ssr:stedsnr" v="319230" />
	</node>
	<node lat="67.1465176202369" lon="14.089637090505336" id="-19813">
		<tag k="fixme" v="consider place=hamlet" />
		<tag k="name" v="Mårnes" />
		<tag k="place" v="farm" />
		<tag k="ssr:stedsnr" v="319872" />
	</node>
	<node lat="67.04040833281898" lon="14.219236101897673" id="-19852">
		<tag k="name" v="Sjøvoll" />
		<tag k="old_name" v="Sjøvold" />
		<tag k="place" v="farm" />
		<tag k="ssr:stedsnr" v="341095" />
	</node>
	<node lat="67.05430622771401" lon="14.229960604811128" id="-19876">
		<tag k="name" v="Sjøhaugen" />
		<tag k="old_name" v="Sjøhaug" />
		<tag k="place" v="farm" />
		<tag k="ssr:stedsnr" v="359084" />
	</node>
	<node lat="66.96419444089467" lon="13.968119446310046" id="-19883">
		<tag k="name" v="Gjelset" />
		<tag k="place" v="farm" />
		<tag k="ssr:stedsnr" v="359391" />
	</node>
	<node lat="67.01046063572817" lon="14.131102958512606" id="-19898">
		<tag k="fixme" v="consider place=hamlet" />
		<tag k="name" v="Klikken" />
		<tag k="place" v="farm" />
		<tag k="ssr:stedsnr" v="380037" />
	</node>
	<node lat="67.09450277321677" lon="14.043622232431511" id="-19903">
		<tag k="name" v="Flagghaugen" />
		<tag k="place" v="farm" />
		<tag k="ssr:stedsnr" v="380129" />
	</node>
	<node lat="67.13466666280739" lon="13.962188883004794" id="-19920">
		<tag k="name" v="Haugen" />
		<tag k="place" v="farm" />
		<tag k="ssr:stedsnr" v="380882" />
	</node>
	<node lat="67.14293055751166" lon="13.972330557926469" id="-19921">
		<tag k="name" v="Vollan" />
		<tag k="place" v="farm" />
		<tag k="ssr:stedsnr" v="380896" />
	</node>
	<node lat="67.107780553266" lon="14.282077784519707" id="-19941">
		<tag k="name" v="Fagermo" />
		<tag k="place" v="farm" />
		<tag k="ssr:stedsnr" v="390597" />
	</node>
	<node lat="66.98483611504666" lon="14.040202783785583" id="-19951">
		<tag k="name" v="Munnavika" />
		<tag k="place" v="farm" />
		<tag k="ssr:stedsnr" v="396855" />
	</node>
	<node lat="67.10087398962798" lon="14.20373815347228" id="-19976">
		<tag k="fixme" v="consider place=hamlet" />
		<tag k="name" v="Våtvik" />
		<tag k="place" v="farm" />
		<tag k="ssr:stedsnr" v="420025" />
	</node>
	<node lat="67.03876380889169" lon="13.95606168896672" id="-19985">
		<tag k="name" v="Nord-Femris" />
		<tag k="place" v="farm" />
		<tag k="ssr:stedsnr" v="420164" />
	</node>
	<node lat="67.00246944741232" lon="13.90272500425411" id="-20000">
		<tag k="name" v="Stranna" />
		<tag k="place" v="farm" />
		<tag k="ssr:stedsnr" v="420474" />
	</node>
	<node lat="67.00521666455475" lon="14.186961104043846" id="-20009">
		<tag k="fixme" v="consider place=hamlet" />
		<tag k="name" v="Kvarsnes" />
		<tag k="place" v="farm" />
		<tag k="ssr:stedsnr" v="441026" />
	</node>
	<node lat="66.97687777567481" lon="14.001683340910736" id="-20010">
		<tag k="alt_name" v="Seljeseth" />
		<tag k="fixme" v="consider place=hamlet" />
		<tag k="name" v="Seljeset" />
		<tag k="place" v="farm" />
		<tag k="ssr:stedsnr" v="441221" />
	</node>
	<node lat="67.05265467466165" lon="14.224364912401638" id="-20025">
		<tag k="alt_name" v="Skjelvik" />
		<tag k="fixme" v="consider place=hamlet" />
		<tag k="name" v="Skjelvika" />
		<tag k="place" v="farm" />
		<tag k="ssr:stedsnr" v="441251" />
	</node>
	<node lat="67.0942592642209" lon="14.051830230095977" id="-20028">
		<tag k="fixme" v="consider place=hamlet" />
		<tag k="name" v="Horsdal" />
		<tag k="place" v="farm" />
		<tag k="ssr:stedsnr" v="441122" />
	</node>
	<node lat="67.15324444545715" lon="13.99859722422054" id="-20039">
		<tag k="name" v="Nordarnøya" />
		<tag k="place" v="hamlet" />
		<tag k="ssr:stedsnr" v="441901" />
	</node>
	<node lat="67.00412462623632" lon="14.04659876856513" id="-20052">
		<tag k="name" v="Storvika" />
		<tag k="place" v="farm" />
		<tag k="ssr:stedsnr" v="501023" />
	</node>
	<node lat="67.00845833138162" lon="13.933752772807827" id="-20060">
		<tag k="name" v="Tingvoll" />
		<tag k="place" v="farm" />
		<tag k="ssr:stedsnr" v="501036" />
	</node>
	<node lat="67.03893392968034" lon="14.216098161912237" id="-20078">
		<tag k="name" v="Vika" />
		<tag k="place" v="farm" />
		<tag k="ssr:stedsnr" v="510112" />
	</node>
	<node lat="67.05422777560176" lon="13.77734722734785" id="-20115">
		<tag k="name" v="Røyra" />
		<tag k="place" v="farm" />
		<tag k="ssr:stedsnr" v="526532" />
	</node>
	<node lat="67.03914166368811" lon="14.10758055746204" id="-20159">
		<tag k="name" v="Bratteng" />
		<tag k="place" v="farm" />
		<tag k="ssr:stedsnr" v="561196" />
	</node>
	<node lat="67.0223638858897" lon="14.0277888805802" id="-20181">
		<tag k="name" v="Oldervika" />
		<tag k="place" v="farm" />
		<tag k="ssr:stedsnr" v="562049" />
	</node>
	<node lat="67.1017972238537" lon="14.023574991203356" id="-20189">
		<tag k="name" v="Heimerhustad" />
		<tag k="place" v="farm" />
		<tag k="ssr:stedsnr" v="562129" />
	</node>
	<node lat="67.07659722454073" lon="14.215655550574288" id="-20194">
		<tag k="name" v="Sandnes" />
		<tag k="place" v="farm" />
		<tag k="ssr:stedsnr" v="562284" />
	</node>
	<node lat="66.99496666348351" lon="14.060905547911604" id="-20228">
		<tag k="name" v="Kleivstua" />
		<tag k="place" v="farm" />
		<tag k="ssr:stedsnr" v="572635" />
	</node>
	<node lat="67.10565833653365" lon="14.301188889110959" id="-20229">
		<tag k="name" v="Kleiva" />
		<tag k="place" v="farm" />
		<tag k="ssr:stedsnr" v="572568" />
	</node>
	<node lat="66.99455130818075" lon="14.140933789537305" id="-20281">
		<tag k="alt_name" v="Vindvik" />
		<tag k="fixme" v="consider place=hamlet" />
		<tag k="name" v="Vindvika" />
		<tag k="place" v="farm" />
		<tag k="ssr:stedsnr" v="622025" />
	</node>
	<node lat="67.00652221820906" lon="13.973802779691995" id="-20284">
		<tag k="name" v="Forstranda" />
		<tag k="place" v="hamlet" />
		<tag k="ssr:stedsnr" v="622056" />
	</node>
	<node lat="67.09053703261351" lon="14.205435061226202" id="-20301">
		<tag k="fixme" v="consider place=hamlet" />
		<tag k="name" v="Kransvika" />
		<tag k="place" v="farm" />
		<tag k="ssr:stedsnr" v="623157" />
	</node>
	<node lat="66.94569722409024" lon="13.72149167777883" id="-20323">
		<tag k="name" v="Nygårdsvoll" />
		<tag k="place" v="farm" />
		<tag k="ssr:stedsnr" v="637956" />
	</node>
	<node lat="67.0069000039893" lon="13.984891677072847" id="-20373">
		<tag k="name" v="Lahaugen" />
		<tag k="place" v="farm" />
		<tag k="ssr:stedsnr" v="723129" />
	</node>
	<node lat="67.07801944752538" lon="14.057183343348438" id="-20378">
		<tag k="name" v="Hesthagen" />
		<tag k="place" v="locality" />
		<tag k="ssr:stedsnr" v="723174" />
	</node>
	<node lat="67.07599166595071" lon="14.052661099601977" id="-20380">
		<tag k="name" v="Lensmannsgården" />
		<tag k="place" v="farm" />
		<tag k="ssr:stedsnr" v="723178" />
	</node>
	<node lat="67.10782777894536" lon="13.91036945120061" id="-20382">
		<tag k="alt_name" v="Under-Alberget" />
		<tag k="name" v="Under Alberget" />
		<tag k="place" v="farm" />
		<tag k="ssr:stedsnr" v="723195" />
	</node>
	<node lat="67.11467778158755" lon="14.034947213272545" id="-20399">
		<tag k="name" v="Nordvollen" />
		<tag k="place" v="farm" />
		<tag k="ssr:stedsnr" v="727390" />
	</node>
	<node lat="67.07068889279208" lon="14.251844448793838" id="-20400">
		<tag k="alt_name" v="Gjota" />
		<tag k="name" v="Gjoten" />
		<tag k="place" v="farm" />
		<tag k="ssr:stedsnr" v="744202" />
	</node>
	<node lat="66.98630179172672" lon="13.967397666235728" id="-20408">
		<tag k="alt_name" v="Høgsetdal" />
		<tag k="fixme" v="consider place=hamlet" />
		<tag k="name" v="Høgsetdalen" />
		<tag k="place" v="farm" />
		<tag k="ssr:stedsnr" v="744170" />
	</node>
	<node lat="67.13087839258496" lon="14.254167973127581" id="-20411">
		<tag k="fixme" v="consider place=hamlet" />
		<tag k="name" v="Finnset" />
		<tag k="place" v="farm" />
		<tag k="ssr:stedsnr" v="744447" />
	</node>
	<node lat="66.94299650484835" lon="13.706334713892193" id="-20419">
		<tag k="fixme" v="consider place=hamlet" />
		<tag k="name" v="Grimstad" />
		<tag k="place" v="farm" />
		<tag k="ssr:stedsnr" v="744851" />
	</node>
	<node lat="67.0418947610593" lon="13.958093532505828" id="-20469">
		<tag k="alt_name" v="Nord Femris;Nordre Femris" />
		<tag k="fixme" v="consider place=hamlet" />
		<tag k="name" v="Nord-Femris" />
		<tag k="place" v="farm" />
		<tag k="ssr:stedsnr" v="805177" />
	</node>
	<node lat="67.10182722891945" lon="14.300229014482403" id="-20474">
		<tag k="fixme" v="consider place=hamlet" />
		<tag k="name" v="Saura" />
		<tag k="place" v="farm" />
		<tag k="ssr:stedsnr" v="805477" />
	</node>
	<node lat="67.00485273044373" lon="13.972112748139743" id="-20477">
		<tag k="alt_name" v="For, øvre" />
		<tag k="fixme" v="consider place=hamlet" />
		<tag k="name" v="Øver-For" />
		<tag k="place" v="farm" />
		<tag k="ssr:stedsnr" v="805027" />
	</node>
	<node lat="66.94526944484271" lon="13.716325002350395" id="-20504">
		<tag k="name" v="Elvebakk" />
		<tag k="place" v="farm" />
		<tag k="ssr:stedsnr" v="805860" />
	</node>
	<node lat="66.97873333213869" lon="13.989986111139142" id="-20526">
		<tag k="name" v="Skillevik" />
		<tag k="place" v="farm" />
		<tag k="ssr:stedsnr" v="815564" />
	</node>
	<node lat="66.99500370607514" lon="14.181298004000958" id="-20576">
		<tag k="fixme" v="consider place=hamlet" />
		<tag k="name" v="Hamn" />
		<tag k="place" v="farm" />
		<tag k="ssr:stedsnr" v="865026" />
	</node>
	<node lat="67.1085110805236" lon="13.915126044930444" id="-20591">
		<tag k="fixme" v="consider place=hamlet" />
		<tag k="name" v="Fleina" />
		<tag k="place" v="farm" />
		<tag k="ssr:stedsnr" v="866115" />
	</node>
	<node lat="67.03280751851692" lon="14.153847116605059" id="-20609">
		<tag k="fixme" v="consider place=hamlet" />
		<tag k="name" v="Morsdal" />
		<tag k="place" v="farm" />
		<tag k="ssr:stedsnr" v="866178" />
	</node>
	<node lat="67.0867927355455" lon="14.315437006602643" id="-20612">
		<tag k="alt_name" v="Skålsvika;Skålsvik" />
		<tag k="fixme" v="consider place=hamlet" />
		<tag k="name" v="Ytre Skålsvik" />
		<tag k="place" v="farm" />
		<tag k="ssr:stedsnr" v="866255" />
	</node>
	<node lat="67.13803554367577" lon="14.201724170938448" id="-20628">
		<tag k="fixme" v="consider place=hamlet" />
		<tag k="name" v="Følvika" />
		<tag k="place" v="farm" />
		<tag k="ssr:stedsnr" v="866929" />
	</node>
	<node lat="66.86101944465977" lon="14.155949996988097" id="-20649">
		<tag k="fixme" v="consider tourism=alpine_hut or tourism=chalet" />
		<tag k="name" v="Fellvasstua" />
		<tag k="ssr:stedsnr" v="881243" />
		<tag k="tourism" v="wilderness_hut" />
	</node>
	<node lat="66.98037777392922" lon="14.011644448924473" id="-20665">
		<tag k="name" v="Flaghaugen" />
		<tag k="place" v="farm" />
		<tag k="ssr:stedsnr" v="937658" />
	</node>
	<node lat="67.02436944425477" lon="13.961891661983234" id="-20670">
		<tag k="name" v="Åkervika" />
		<tag k="place" v="farm" />
		<tag k="ssr:stedsnr" v="941763" />
	</node>
	<node lat="66.94519166979313" lon="13.727794456043217" id="-20684">
		<tag k="name" v="Husmorstua" />
		<tag k="place" v="farm" />
		<tag k="ssr:stedsnr" v="942953" />
	</node>
	<node lat="67.03695277500259" lon="14.114413897322647" id="-20688">
		<tag k="name" v="Nyheim" />
		<tag k="place" v="farm" />
		<tag k="ssr:stedsnr" v="947114" />
	</node>
	<node lat="67.00601666331752" lon="13.980363884259402" id="-20701">
		<tag k="name" v="Vallvik" />
		<tag k="place" v="farm" />
		<tag k="ssr:stedsnr" v="965130" />
	</node>
	<node lat="67.01481675363726" lon="14.049423510554647" id="-20727">
		<tag k="name" v="Bakkehaug" />
		<tag k="place" v="farm" />
		<tag k="ssr:stedsnr" v="979949" />
	</node>
	<node lat="67.12951958419717" lon="14.067679362350814" id="-20728">
		<tag k="name" v="Vollhaugen" />
		<tag k="place" v="farm" />
		<tag k="ssr:stedsnr" v="980019" />
	</node>
	<node lat="67.15654141390651" lon="14.006739634909314" id="-20729">
		<tag k="name" v="Varden" />
		<tag k="place" v="farm" />
		<tag k="ssr:stedsnr" v="980020" />
	</node>
	<node lat="67.03857016429399" lon="14.114289334997341" id="-20924">
		<tag k="name" v="Sandnes" />
		<tag k="place" v="farm" />
		<tag k="ssr:stedsnr" v="1072625" />
	</node>
	<node lat="67.06036970620089" lon="14.042009054644884" id="-20926">
		<tag k="fixme" v="consider place=hamlet" />
		<tag k="name" v="Gildeskål" />
		<tag k="place" v="farm" />
		<tag k="ssr:stedsnr" v="1074482" />
	</node>
	<node lat="66.9991026883107" lon="14.159747440796187" id="-20927">
		<tag k="fixme" v="consider place=hamlet" />
		<tag k="name" v="Sirivika" />
		<tag k="place" v="farm" />
		<tag k="ssr:stedsnr" v="1074485" />
	</node>
	<node lat="66.94602961086566" lon="14.143193460583763" id="-20928">
		<tag k="name" v="Stien" />
		<tag k="place" v="locality" />
		<tag k="ssr:stedsnr" v="1074488" />
	</node>
	<node lat="66.98980443720271" lon="14.210387293025814" id="-20929">
		<tag k="name" v="Forså" />
		<tag k="place" v="locality" />
		<tag k="ssr:stedsnr" v="1074489" />
	</node>
	<node lat="67.15064776729157" lon="14.348978281724827" id="-20931">
		<tag k="name" v="Okslia" />
		<tag k="place" v="locality" />
		<tag k="ssr:stedsnr" v="1074504" />
	</node>
	<node lat="67.04853079624561" lon="14.151503658596575" id="-20932">
		<tag k="name" v="Grytvika" />
		<tag k="place" v="locality" />
		<tag k="ssr:stedsnr" v="1074505" />
	</node>
	<node lat="67.11148293243811" lon="14.191189721130664" id="-20933">
		<tag k="name" v="Sandhornet" />
		<tag k="place" v="locality" />
		<tag k="ssr:stedsnr" v="1074506" />
	</node>
	<node lat="67.16206782714036" lon="13.775087379703955" id="-20934">
		<tag k="name" v="Fleinvær" />
		<tag k="place" v="locality" />
		<tag k="ssr:stedsnr" v="1074508" />
	</node>
	<node lat="67.16420886686905" lon="13.744037579197792" id="-20935">
		<tag k="fixme" v="consider place=hamlet" />
		<tag k="name" v="Løksøya" />
		<tag k="place" v="farm" />
		<tag k="ssr:stedsnr" v="1074509" />
	</node>
	<node lat="67.1742042909702" lon="13.784689992993245" id="-20936">
		<tag k="alt_name" v="Kjønnøy" />
		<tag k="fixme" v="consider place=hamlet" />
		<tag k="name" v="Tjønnøya" />
		<tag k="place" v="farm" />
		<tag k="ssr:stedsnr" v="1074510" />
	</node>
	<node lat="67.01816747132439" lon="13.927966047109093" id="-20937">
		<tag k="fixme" v="consider place=hamlet" />
		<tag k="name" v="Sør-Femris" />
		<tag k="place" v="farm" />
		<tag k="ssr:stedsnr" v="1074512" />
	</node>
	<node lat="66.9420433324339" lon="13.961963914482917" id="-20938">
		<tag k="fixme" v="consider place=hamlet" />
		<tag k="name" v="Laksådalen" />
		<tag k="place" v="farm" />
		<tag k="ssr:stedsnr" v="1074480" />
	</node>
	<node lat="67.03500308601342" lon="14.037653874621052" id="-20939">
		<tag k="fixme" v="consider place=hamlet" />
		<tag k="name" v="Inndyr" />
		<tag k="place" v="farm" />
		<tag k="ssr:stedsnr" v="1074481" />
	</node>
	<node lat="66.94811101637856" lon="13.729902155787626" id="-20941">
		<tag k="name" v="Sjømo" />
		<tag k="place" v="farm" />
		<tag k="ssr:stedsnr" v="1081210" />
	</node>
</osm>
