<?xml version="1.0" encoding="UTF-8"?>
<osm version="0.6" generator="osmapis">
	<node lat="67.00323055131416" lon="13.975455565667428" id="-18038">
		<tag k="name" v="Forselva" />
		<tag k="ssr:stedsnr" v="16013" />
		<tag k="waterway" v="stream" />
	</node>
	<node lat="67.08838888832688" lon="14.17883333119095" id="-18046">
		<tag k="name" v="Hellemoelva" />
		<tag k="ssr:stedsnr" v="16119" />
		<tag k="waterway" v="stream" />
	</node>
	<node lat="67.1049527744398" lon="14.150761100845537" id="-18050">
		<tag k="name" v="Øverforsen" />
		<tag k="natural" v="waterfall" />
		<tag k="ssr:stedsnr" v="16131" />
	</node>
	<node lat="66.8416722178838" lon="14.23512499949169" id="-18055">
		<tag k="name" v="Forsvatnet" />
		<tag k="natural" v="water" />
		<tag k="ssr:stedsnr" v="16411" />
	</node>
	<node lat="67.1432250017286" lon="14.37403055337977" id="-18059">
		<tag k="name" v="Nordvatnet" />
		<tag k="natural" v="water" />
		<tag k="ssr:stedsnr" v="16452" />
	</node>
	<node lat="67.13479166735642" lon="14.232058322355885" id="-18060">
		<tag k="name" v="Telneselva" />
		<tag k="ssr:stedsnr" v="16459" />
		<tag k="waterway" v="stream" />
	</node>
	<node lat="67.13403055878102" lon="14.34005833258257" id="-18062">
		<tag k="name" v="Meåga" />
		<tag k="ssr:stedsnr" v="16467" />
		<tag k="waterway" v="stream" />
	</node>
	<node lat="66.93691111511097" lon="14.003177785051683" id="-18125">
		<tag k="name" v="Kvannstivatnet" />
		<tag k="natural" v="water" />
		<tag k="ssr:stedsnr" v="56211" />
	</node>
	<node lat="67.0790888918445" lon="14.180850006943384" id="-18144">
		<tag k="name" v="Sandneselva" />
		<tag k="ssr:stedsnr" v="77248" />
		<tag k="waterway" v="river" />
	</node>
	<node lat="66.96111110846279" lon="14.191491670062193" id="-18149">
		<tag k="name" v="Mikkelvatnet" />
		<tag k="natural" v="water" />
		<tag k="ssr:stedsnr" v="77199" />
	</node>
	<node lat="66.9443027796967" lon="13.744702778296519" id="-18161">
		<tag k="name" v="Krokotåga" />
		<tag k="ssr:stedsnr" v="92977" />
		<tag k="waterway" v="stream" />
	</node>
	<node lat="66.96600278147669" lon="13.988055552838048" id="-18162">
		<tag k="name" v="Tennvatnet" />
		<tag k="natural" v="water" />
		<tag k="ssr:stedsnr" v="93283" />
	</node>
	<node lat="67.12516944081085" lon="14.173366667394063" id="-18198">
		<tag k="name" v="Sætervatnet" />
		<tag k="natural" v="water" />
		<tag k="ssr:stedsnr" v="137148" />
	</node>
	<node lat="66.9956972182328" lon="13.906858335473544" id="-18203">
		<tag k="name" v="Vigdelvatnet" />
		<tag k="natural" v="water" />
		<tag k="ssr:stedsnr" v="137019" />
	</node>
	<node lat="67.14393333308483" lon="14.357594436637488" id="-18212">
		<tag k="name" v="Okslivatnan" />
		<tag k="natural" v="water" />
		<tag k="ssr:stedsnr" v="137474" />
	</node>
	<node lat="67.09215833310238" lon="14.295655544102308" id="-18232">
		<tag k="name" v="Langosen" />
		<tag k="natural" v="bay" />
		<tag k="ssr:stedsnr" v="152107" />
	</node>
	<node lat="67.0921444448307" lon="14.300394446566713" id="-18233">
		<tag k="name" v="Djuposen" />
		<tag k="natural" v="bay" />
		<tag k="ssr:stedsnr" v="152108" />
	</node>
	<node lat="67.02863610866982" lon="14.11233056620801" id="-18245">
		<tag k="name" v="Myklebostadelva" />
		<tag k="ssr:stedsnr" v="159107" />
		<tag k="waterway" v="stream" />
	</node>
	<node lat="66.84014444791356" lon="14.32092499123653" id="-18263">
		<tag k="name" v="Karstvatnan" />
		<tag k="natural" v="water" />
		<tag k="ssr:stedsnr" v="258438" />
	</node>
	<node lat="67.02583333512666" lon="14.178202768336144" id="-18270">
		<tag k="name" v="Kvarsnesvatnet" />
		<tag k="natural" v="water" />
		<tag k="ssr:stedsnr" v="259041" />
	</node>
	<node lat="66.79749167016341" lon="14.14692777720891" id="-18275">
		<tag k="name" v="Hørnqistvatnet" />
		<tag k="natural" v="water" />
		<tag k="ssr:stedsnr" v="259296" />
	</node>
	<node lat="67.11987499884872" lon="14.218452774814063" id="-18282">
		<tag k="fixme" v="multiple name tags, choose one and add the other to alt_name" />
		<tag k="name" v="Skyttarvatnet;Øyjordvatnet" />
		<tag k="natural" v="water" />
		<tag k="ssr:stedsnr" v="259441" />
	</node>
	<node lat="66.93455555288195" lon="13.761405557596856" id="-18292">
		<tag k="name" v="Lomtjønna" />
		<tag k="natural" v="water" />
		<tag k="ssr:stedsnr" v="162761" />
	</node>
	<node lat="66.98113333256865" lon="13.958738877452081" id="-18300">
		<tag k="name" v="Mølnan" />
		<tag k="natural" v="bay" />
		<tag k="ssr:stedsnr" v="177208" />
	</node>
	<node lat="66.98256944166647" lon="13.945152784325293" id="-18316">
		<tag k="alt_name" v="Glomsåga" />
		<tag k="name" v="Glomselva" />
		<tag k="ssr:stedsnr" v="198205" />
		<tag k="waterway" v="stream" />
	</node>
	<node lat="66.79339721903906" lon="14.213849995928236" id="-18323">
		<tag k="name" v="Svalvatnet" />
		<tag k="natural" v="water" />
		<tag k="ssr:stedsnr" v="198271" />
		<tag k="water" v="lake" />
	</node>
	<node lat="66.9191972191658" lon="14.212619432843058" id="-18333">
		<tag k="loc_name:smj" v="Såhkamjávrre" />
		<tag k="name" v="Sokumvatnet" />
		<tag k="name:no" v="Sokumvatnet" />
		<tag k="natural" v="water" />
		<tag k="ssr:stedsnr" v="198163" />
		<tag k="water" v="lake" />
	</node>
	<node lat="66.899752781714" lon="14.284974991177982" id="-18340">
		<tag k="name" v="Sandvatnet" />
		<tag k="natural" v="water" />
		<tag k="ssr:stedsnr" v="198483" />
		<tag k="water" v="lake" />
	</node>
	<node lat="67.13459166271898" lon="14.205794447777887" id="-18344">
		<tag k="name" v="Følvikelva" />
		<tag k="ssr:stedsnr" v="198916" />
		<tag k="waterway" v="river" />
	</node>
	<node lat="67.10683333083145" lon="13.852633331203547" id="-18376">
		<tag k="name" v="Isdammen" />
		<tag k="natural" v="water" />
		<tag k="ssr:stedsnr" v="223336" />
	</node>
	<node lat="66.87815555953792" lon="14.17453888057169" id="-18415">
		<tag k="loc_name:smj" v="Jámekjávrre" />
		<tag k="name" v="Daudmannsvatnet" />
		<tag k="name:no" v="Daudmannsvatnet" />
		<tag k="natural" v="water" />
		<tag k="ssr:stedsnr" v="259358" />
		<tag k="water" v="lake" />
	</node>
	<node lat="66.81388333010027" lon="14.356747226928611" id="-18425">
		<tag k="name" v="Ramnfjellbekken" />
		<tag k="ssr:stedsnr" v="259424" />
		<tag k="waterway" v="stream" />
	</node>
	<node lat="66.93851666749008" lon="13.750891676200048" id="-18426">
		<tag k="name" v="Nessan" />
		<tag k="natural" v="cape" />
		<tag k="ssr:stedsnr" v="456984" />
	</node>
	<node lat="66.98118889213016" lon="14.124302789695577" id="-18460">
		<tag k="name" v="Småvatnan" />
		<tag k="natural" v="water" />
		<tag k="ssr:stedsnr" v="284074" />
		<tag k="water" v="lake" />
	</node>
	<node lat="67.06216111559105" lon="13.792886111760483" id="-18490">
		<tag k="name" v="Mølnelva" />
		<tag k="ssr:stedsnr" v="465538" />
		<tag k="waterway" v="stream" />
	</node>
	<node lat="66.92678611484132" lon="13.718758334494689" id="-18495">
		<tag k="name" v="Spannslivatnet" />
		<tag k="natural" v="water" />
		<tag k="ssr:stedsnr" v="465734" />
	</node>
	<node lat="66.8229361076671" lon="14.290011104349404" id="-18503">
		<tag k="loc_name:smj" v="Siglejávrre" />
		<tag k="name" v="Seglvatnet" />
		<tag k="name:no" v="Seglvatnet" />
		<tag k="natural" v="water" />
		<tag k="ssr:stedsnr" v="319407" />
		<tag k="water" v="lake" />
	</node>
	<node lat="66.85077222398348" lon="14.159097232147039" id="-18515">
		<tag k="loc_name:smj" v="Roavggojávrre" />
		<tag k="name" v="Fellvatnet" />
		<tag k="name:no" v="Fellvatnet" />
		<tag k="natural" v="water" />
		<tag k="ssr:stedsnr" v="319342" />
		<tag k="water" v="lake" />
	</node>
	<node lat="66.94234166542687" lon="13.966961109125462" id="-18569">
		<tag k="name" v="Elvkroken" />
		<tag k="natural" v="cape" />
		<tag k="ssr:stedsnr" v="480190" />
	</node>
	<node lat="66.99635555577605" lon="13.91249445229649" id="-18575">
		<tag k="name" v="Tjønna" />
		<tag k="natural" v="water" />
		<tag k="ssr:stedsnr" v="480487" />
	</node>
	<node lat="67.05886666259741" lon="14.185358329358513" id="-18583">
		<tag k="name" v="Bondsvatnet" />
		<tag k="natural" v="water" />
		<tag k="ssr:stedsnr" v="379226" />
	</node>
	<node lat="66.90611944639868" lon="13.99981111393401" id="-18590">
		<tag k="name" v="Kvittindvatnet" />
		<tag k="natural" v="water" />
		<tag k="ssr:stedsnr" v="380128" />
		<tag k="water" v="lake" />
	</node>
	<node lat="66.92656666692706" lon="14.026152777746875" id="-18593">
		<tag k="name" v="Holmvatnet" />
		<tag k="natural" v="water" />
		<tag k="ssr:stedsnr" v="380177" />
		<tag k="water" v="lake" />
	</node>
	<node lat="66.92336388956656" lon="14.036333323010124" id="-18594">
		<tag k="name" v="Rundvatnet" />
		<tag k="natural" v="water" />
		<tag k="ssr:stedsnr" v="380178" />
	</node>
	<node lat="66.97477777487366" lon="13.993663899401028" id="-18599">
		<tag k="name" v="Sørvatnet" />
		<tag k="natural" v="water" />
		<tag k="ssr:stedsnr" v="380222" />
	</node>
	<node lat="67.10916388779728" lon="13.854827767662034" id="-18633">
		<tag k="name" v="Vannliljtjønna" />
		<tag k="natural" v="water" />
		<tag k="ssr:stedsnr" v="405286" />
	</node>
	<node lat="67.11182499914757" lon="13.893783338900061" id="-18635">
		<tag k="name" v="Trolltjønna" />
		<tag k="natural" v="water" />
		<tag k="ssr:stedsnr" v="405308" />
	</node>
	<node lat="67.05576944485028" lon="14.299111111693213" id="-18661">
		<tag k="name" v="Fjellkløvelva" />
		<tag k="ssr:stedsnr" v="440307" />
		<tag k="waterway" v="stream" />
	</node>
	<node lat="67.13417222246791" lon="14.197436119973604" id="-18663">
		<tag k="name" v="Litlvatnet" />
		<tag k="natural" v="water" />
		<tag k="ssr:stedsnr" v="440912" />
	</node>
	<node lat="66.78237499766391" lon="14.175030548850998" id="-18683">
		<tag k="alt_name" v="Sandvatnet, l" />
		<tag k="name" v="Litle Sandvatnet" />
		<tag k="natural" v="water" />
		<tag k="ssr:stedsnr" v="441301" />
		<tag k="water" v="lake" />
	</node>
	<node lat="66.83038610785557" lon="14.257225010605834" id="-18685">
		<tag k="name" v="Rundvatnet" />
		<tag k="natural" v="water" />
		<tag k="ssr:stedsnr" v="441418" />
		<tag k="water" v="lake" />
	</node>
	<node lat="67.02554444316347" lon="14.06135833276753" id="-18715">
		<tag k="name" v="Mølnåga" />
		<tag k="ssr:stedsnr" v="457778" />
		<tag k="waterway" v="stream" />
	</node>
	<node lat="67.13730555319557" lon="14.093902773613346" id="-18717">
		<tag k="name" v="Krokan" />
		<tag k="natural" v="bay" />
		<tag k="ssr:stedsnr" v="465065" />
	</node>
	<node lat="67.04600555372214" lon="13.756872219466738" id="-18723">
		<tag k="name" v="Altjønna" />
		<tag k="natural" v="water" />
		<tag k="ssr:stedsnr" v="465526" />
	</node>
	<node lat="67.12026388643953" lon="14.148316675534918" id="-18731">
		<tag k="name" v="Lillevatnet" />
		<tag k="natural" v="water" />
		<tag k="ssr:stedsnr" v="480031" />
	</node>
	<node lat="67.11664166485114" lon="14.222261116243198" id="-18743">
		<tag k="name" v="Trollvatnet" />
		<tag k="natural" v="water" />
		<tag k="ssr:stedsnr" v="480458" />
	</node>
	<node lat="66.9441888874686" lon="13.91163887796056" id="-18744">
		<tag k="name" v="Mellomelva" />
		<tag k="ssr:stedsnr" v="480468" />
		<tag k="waterway" v="stream" />
	</node>
	<node lat="66.94896667068979" lon="14.088330546300378" id="-18751">
		<tag k="name" v="Kjerrslettvatnet" />
		<tag k="natural" v="water" />
		<tag k="ssr:stedsnr" v="501197" />
	</node>
	<node lat="66.82496666823398" lon="14.187022221629299" id="-18752">
		<tag k="loc_name:smj" v="Konradjávrre" />
		<tag k="name" v="Konradvatnet" />
		<tag k="name:no" v="Konradvatnet" />
		<tag k="natural" v="water" />
		<tag k="ssr:stedsnr" v="501318" />
	</node>
	<node lat="67.05210277357783" lon="14.074349998849398" id="-18755">
		<tag k="name" v="Holmvatnet" />
		<tag k="natural" v="water" />
		<tag k="ssr:stedsnr" v="501202" />
	</node>
	<node lat="66.93721944439362" lon="13.819466669903772" id="-18758">
		<tag k="alt_name" v="Skromdalsvatnan, midtre" />
		<tag k="name" v="Midtre Skromdalsvatnan" />
		<tag k="natural" v="water" />
		<tag k="ssr:stedsnr" v="501205" />
		<tag k="water" v="lake" />
	</node>
	<node lat="67.0748166706613" lon="14.199997219737073" id="-18767">
		<tag k="name" v="Oselva" />
		<tag k="ssr:stedsnr" v="501228" />
		<tag k="waterway" v="stream" />
	</node>
	<node lat="66.96967222287084" lon="14.04639445040943" id="-18769">
		<tag k="name" v="Dorryvatnet" />
		<tag k="natural" v="water" />
		<tag k="ssr:stedsnr" v="501230" />
	</node>
	<node lat="66.94882222356819" lon="14.303358334799269" id="-18770">
		<tag k="name" v="Namnlausvatnet" />
		<tag k="natural" v="water" />
		<tag k="ssr:stedsnr" v="501237" />
		<tag k="water" v="lake" />
	</node>
	<node lat="67.18041666517951" lon="14.276427772458163" id="-18771">
		<tag k="name" v="Krokvatnet" />
		<tag k="natural" v="water" />
		<tag k="ssr:stedsnr" v="501403" />
	</node>
	<node lat="66.80976666376655" lon="14.314350000688423" id="-18773">
		<tag k="name" v="Elineelva" />
		<tag k="ssr:stedsnr" v="501389" />
		<tag k="waterway" v="stream" />
	</node>
	<node lat="66.88531666803412" lon="13.96012221529491" id="-18791">
		<tag k="name" v="Steffedalsvatnan" />
		<tag k="natural" v="water" />
		<tag k="ssr:stedsnr" v="683130" />
	</node>
	<node lat="66.94361110860716" lon="13.978897211060003" id="-18796">
		<tag k="name" v="Høljan" />
		<tag k="natural" v="water" />
		<tag k="ssr:stedsnr" v="683150" />
		<tag k="water" v="lake" />
	</node>
	<node lat="66.96769167029757" lon="14.216880562059554" id="-18800">
		<tag k="alt_name" v="Forsåvatnet, nedre" />
		<tag k="name" v="Nedre Forsåvatnet" />
		<tag k="natural" v="water" />
		<tag k="ssr:stedsnr" v="683179" />
		<tag k="water" v="lake" />
	</node>
	<node lat="66.95849722138875" lon="13.859341660630635" id="-18802">
		<tag k="name" v="Storvikvatnet" />
		<tag k="natural" v="water" />
		<tag k="ssr:stedsnr" v="683185" />
		<tag k="water" v="lake" />
	</node>
	<node lat="66.94643888554623" lon="13.773527773259632" id="-18804">
		<tag k="name" v="Stokkåga" />
		<tag k="ssr:stedsnr" v="683191" />
		<tag k="waterway" v="stream" />
	</node>
	<node lat="66.95490833801696" lon="14.046258323570859" id="-18806">
		<tag k="alt_name" v="Altvatnan" />
		<tag k="name" v="Altevatnan" />
		<tag k="natural" v="water" />
		<tag k="ssr:stedsnr" v="683199" />
		<tag k="water" v="lake" />
	</node>
	<node lat="66.80583611044817" lon="14.2743388773228" id="-18807">
		<tag k="name" v="Saravatnet" />
		<tag k="natural" v="water" />
		<tag k="ssr:stedsnr" v="683382" />
		<tag k="water" v="lake" />
	</node>
	<node lat="67.0366999958754" lon="14.27914722669051" id="-18811">
		<tag k="alt_name" v="Hellarvikelva" />
		<tag k="name" v="Hellervikelva" />
		<tag k="ssr:stedsnr" v="683347" />
		<tag k="waterway" v="stream" />
	</node>
	<node lat="66.83194722057199" lon="14.234116658679493" id="-18814">
		<tag k="name" v="Sundvatnet" />
		<tag k="natural" v="water" />
		<tag k="ssr:stedsnr" v="683423" />
		<tag k="water" v="lake" />
	</node>
	<node lat="66.81429444649886" lon="14.16483611466443" id="-18829">
		<tag k="name" v="Kråvatnet" />
		<tag k="natural" v="water" />
		<tag k="ssr:stedsnr" v="684332" />
	</node>
	<node lat="66.96473889068022" lon="13.818719438667795" id="-18831">
		<tag k="name" v="Maresmesselva" />
		<tag k="ssr:stedsnr" v="517469" />
		<tag k="waterway" v="river" />
	</node>
	<node lat="67.03915555536129" lon="14.08054445342932" id="-18834">
		<tag k="name" v="Memmaursvatnet" />
		<tag k="natural" v="water" />
		<tag k="ssr:stedsnr" v="517809" />
		<tag k="water" v="lake" />
	</node>
	<node lat="66.96515555312321" lon="13.996638896738487" id="-18836">
		<tag k="name" v="Stemelva" />
		<tag k="ssr:stedsnr" v="517863" />
		<tag k="waterway" v="stream" />
	</node>
	<node lat="66.9454722193809" lon="13.686419437794164" id="-18838">
		<tag k="name" v="Engåga" />
		<tag k="ssr:stedsnr" v="517973" />
		<tag k="waterway" v="stream" />
	</node>
	<node lat="66.9743944420951" lon="13.904883333542267" id="-18865">
		<tag k="name" v="Bjørnelva" />
		<tag k="ssr:stedsnr" v="541405" />
		<tag k="waterway" v="stream" />
	</node>
	<node lat="67.03879722122171" lon="14.21094721357128" id="-18905">
		<tag k="name" v="Kummerelva" />
		<tag k="ssr:stedsnr" v="583110" />
		<tag k="waterway" v="stream" />
	</node>
	<node lat="67.04436944414633" lon="13.956716655107043" id="-18915">
		<tag k="name" v="Stortjønna" />
		<tag k="natural" v="water" />
		<tag k="ssr:stedsnr" v="601149" />
	</node>
	<node lat="66.96166944049611" lon="14.027377783818602" id="-18927">
		<tag k="name" v="Altenelva" />
		<tag k="ssr:stedsnr" v="699840" />
		<tag k="waterway" v="river" />
	</node>
	<node lat="67.11519999828009" lon="14.148977769428182" id="-18938">
		<tag k="fixme" v="multiple name tags, choose one and add the other to alt_name" />
		<tag k="name" v="Nerforsen;Forsen" />
		<tag k="natural" v="waterfall" />
		<tag k="ssr:stedsnr" v="622175" />
	</node>
	<node lat="67.02213055431666" lon="14.261558329053948" id="-18939">
		<tag k="name" v="Tindåga" />
		<tag k="ssr:stedsnr" v="622319" />
		<tag k="waterway" v="stream" />
	</node>
	<node lat="67.13848889156017" lon="14.332327786151474" id="-18941">
		<tag k="name" v="Trollåga" />
		<tag k="ssr:stedsnr" v="622476" />
		<tag k="waterway" v="stream" />
	</node>
	<node lat="67.12986389121684" lon="14.23936110072423" id="-18943">
		<tag k="name" v="Finnsetvatnet" />
		<tag k="natural" v="water" />
		<tag k="ssr:stedsnr" v="622482" />
	</node>
	<node lat="67.12960555252153" lon="14.113952775292605" id="-18947">
		<tag k="name" v="Storvatnet" />
		<tag k="natural" v="water" />
		<tag k="ssr:stedsnr" v="622923" />
	</node>
	<node lat="66.89872221956425" lon="14.218872212691327" id="-18952">
		<tag k="name" v="Krokvatnan" />
		<tag k="natural" v="water" />
		<tag k="ssr:stedsnr" v="623515" />
		<tag k="water" v="lake" />
	</node>
	<node lat="67.11405555429732" lon="14.328461121651978" id="-18979">
		<tag k="name" v="Flogelva" />
		<tag k="ssr:stedsnr" v="708075" />
		<tag k="waterway" v="stream" />
	</node>
	<node lat="67.07470555753346" lon="13.835541677190609" id="-19002">
		<tag k="name" v="Vatnet" />
		<tag k="natural" v="water" />
		<tag k="ssr:stedsnr" v="662306" />
	</node>
	<node lat="66.936658329203" lon="13.844350008429478" id="-19027">
		<tag k="alt_name" v="Skromdalsvatnan, øvre" />
		<tag k="name" v="Øvre Skromdalsvatnan" />
		<tag k="natural" v="water" />
		<tag k="ssr:stedsnr" v="683206" />
		<tag k="water" v="lake" />
	</node>
	<node lat="66.98379999722313" lon="14.289430556313363" id="-19037">
		<tag k="name" v="Hattvatnan" />
		<tag k="natural" v="water" />
		<tag k="ssr:stedsnr" v="683256" />
		<tag k="water" v="lake" />
	</node>
	<node lat="67.03441944333612" lon="14.105686107208973" id="-19074">
		<tag k="name" v="Sandneselva" />
		<tag k="ssr:stedsnr" v="704113" />
		<tag k="waterway" v="stream" />
	</node>
	<node lat="66.90982222071447" lon="13.94377777588919" id="-19104">
		<tag k="name" v="Myggvatnet" />
		<tag k="natural" v="water" />
		<tag k="ssr:stedsnr" v="744098" />
	</node>
	<node lat="66.93125555784212" lon="14.210244454402813" id="-19109">
		<tag k="name" v="Olastranda" />
		<tag k="natural" v="beach" />
		<tag k="ssr:stedsnr" v="744128" />
	</node>
	<node lat="66.9555638861738" lon="14.086199992003078" id="-19112">
		<tag k="name" v="Litlevatnet" />
		<tag k="natural" v="water" />
		<tag k="ssr:stedsnr" v="744153" />
	</node>
	<node lat="66.9721749961586" lon="14.06776388405397" id="-19121">
		<tag k="name" v="Greftvatnet" />
		<tag k="natural" v="water" />
		<tag k="ssr:stedsnr" v="744191" />
	</node>
	<node lat="67.12761110885714" lon="14.127388884391937" id="-19135">
		<tag k="name" v="Dalelva" />
		<tag k="ssr:stedsnr" v="744905" />
		<tag k="waterway" v="stream" />
	</node>
	<node lat="66.96015555752702" lon="14.072663897820938" id="-19157">
		<tag k="name" v="Sandvatnet" />
		<tag k="natural" v="water" />
		<tag k="ssr:stedsnr" v="905148" />
	</node>
	<node lat="66.94292778147582" lon="13.912266667657974" id="-19165">
		<tag k="name" v="Røyrodden" />
		<tag k="natural" v="cape" />
		<tag k="ssr:stedsnr" v="905475" />
	</node>
	<node lat="67.06822222426291" lon="14.307883341268605" id="-19175">
		<tag k="alt_name" v="Einvoldelva" />
		<tag k="name" v="Einvollelva" />
		<tag k="ssr:stedsnr" v="759218" />
		<tag k="waterway" v="stream" />
	</node>
	<node lat="66.96019166814311" lon="14.26592778496085" id="-19215">
		<tag k="alt_name:no" v="Sokumvatnet, l" />
		<tag k="loc_name:smj" v="Såhkamjávrásj" />
		<tag k="name" v="Litle Sokumvatnet" />
		<tag k="name:no" v="Litle Sokumvatnet" />
		<tag k="natural" v="water" />
		<tag k="ssr:stedsnr" v="805224" />
		<tag k="water" v="lake" />
	</node>
	<node lat="67.07627500033126" lon="13.80120278177033" id="-19260">
		<tag k="name" v="Bjørndalsvatnet" />
		<tag k="natural" v="water" />
		<tag k="ssr:stedsnr" v="845612" />
	</node>
	<node lat="66.97853889023307" lon="13.906163880849618" id="-19280">
		<tag k="name" v="Bjørnvatnet" />
		<tag k="natural" v="water" />
		<tag k="ssr:stedsnr" v="926235" />
	</node>
	<node lat="66.82391111369132" lon="14.21191667085158" id="-19283">
		<tag k="name" v="Rosenvatnet" />
		<tag k="natural" v="water" />
		<tag k="ssr:stedsnr" v="926334" />
	</node>
	<node lat="67.18188055115553" lon="14.270791665612734" id="-19293">
		<tag k="name" v="Holmvatnet" />
		<tag k="natural" v="water" />
		<tag k="ssr:stedsnr" v="927073" />
	</node>
	<node lat="67.01903611234943" lon="14.253861118415667" id="-19295">
		<tag k="name" v="Kalvskinnåga" />
		<tag k="ssr:stedsnr" v="927326" />
		<tag k="waterway" v="stream" />
	</node>
	<node lat="67.12255555932929" lon="14.210086110288081" id="-19322">
		<tag k="name" v="Tverrelva" />
		<tag k="ssr:stedsnr" v="905022" />
		<tag k="waterway" v="stream" />
	</node>
	<node lat="67.04818333501541" lon="14.2220888937417" id="-19323">
		<tag k="name" v="Lomtjønna" />
		<tag k="natural" v="water" />
		<tag k="ssr:stedsnr" v="905100" />
	</node>
	<node lat="66.99303889220631" lon="13.980747233569632" id="-19326">
		<tag k="name" v="Skvettåga" />
		<tag k="ssr:stedsnr" v="905218" />
		<tag k="waterway" v="stream" />
	</node>
	<node lat="66.90802499743918" lon="14.030302766665999" id="-19332">
		<tag k="name" v="Krokvatnet" />
		<tag k="natural" v="water" />
		<tag k="ssr:stedsnr" v="926123" />
		<tag k="water" v="lake" />
	</node>
	<node lat="67.04844999767829" lon="14.196269447258294" id="-19340">
		<tag k="alt_name" v="Mølnelva" />
		<tag k="name" v="Mølnåga" />
		<tag k="ssr:stedsnr" v="926216" />
		<tag k="waterway" v="stream" />
	</node>
	<node lat="67.04588333066552" lon="14.081527781110657" id="-19342">
		<tag k="fixme" v="multiple name tags, choose one and add the other to alt_name" />
		<tag k="name" v="Holmvasstjønna;Litlholmvatnet" />
		<tag k="natural" v="water" />
		<tag k="ssr:stedsnr" v="926222" />
	</node>
	<node lat="66.97897500086596" lon="13.941597220422054" id="-19374">
		<tag k="name" v="Elven" />
		<tag k="ssr:stedsnr" v="965391" />
		<tag k="waterway" v="stream" />
	</node>
	<node lat="66.9977750020156" lon="13.907558328957627" id="-19396">
		<tag k="name" v="Vigdelelva" />
		<tag k="ssr:stedsnr" v="16032" />
		<tag k="waterway" v="stream" />
	</node>
	<node lat="67.11818888671219" lon="14.199580547624263" id="-19399">
		<tag k="name" v="Storelva" />
		<tag k="ssr:stedsnr" v="16143" />
		<tag k="waterway" v="river" />
	</node>
	<node lat="66.81228055389622" lon="14.1353138817113" id="-19423">
		<tag k="name" v="Gåsvatnan" />
		<tag k="natural" v="water" />
		<tag k="ssr:stedsnr" v="16294" />
	</node>
	<node lat="67.17628055775891" lon="14.254902771877532" id="-19424">
		<tag k="name" v="Stengvatnet" />
		<tag k="natural" v="water" />
		<tag k="ssr:stedsnr" v="16396" />
	</node>
	<node lat="66.96805833134316" lon="13.976719448425294" id="-19439">
		<tag k="name" v="Stokkåga" />
		<tag k="ssr:stedsnr" v="32280" />
		<tag k="waterway" v="stream" />
	</node>
	<node lat="67.06371944168107" lon="13.821350009058051" id="-19461">
		<tag k="name" v="Skiftneshågelva" />
		<tag k="ssr:stedsnr" v="41390" />
		<tag k="waterway" v="stream" />
	</node>
	<node lat="67.09726388955215" lon="14.107119449556022" id="-19492">
		<tag k="name" v="Isvatna" />
		<tag k="natural" v="water" />
		<tag k="ssr:stedsnr" v="77131" />
		<tag k="water" v="lake" />
	</node>
	<node lat="67.10040833285235" lon="14.18878888787965" id="-19493">
		<tag k="name" v="Våtvikelva" />
		<tag k="ssr:stedsnr" v="77134" />
		<tag k="waterway" v="river" />
	</node>
	<node lat="66.96792221899734" lon="13.888930555910738" id="-19502">
		<tag k="alt_name" v="Ausenelva" />
		<tag k="name" v="Auselva" />
		<tag k="ssr:stedsnr" v="77246" />
		<tag k="waterway" v="stream" />
	</node>
	<node lat="66.82791944874037" lon="14.337591666380735" id="-19515">
		<tag k="name" v="Heinbergelva" />
		<tag k="ssr:stedsnr" v="77440" />
		<tag k="waterway" v="river" />
	</node>
	<node lat="67.10435277903878" lon="14.31051666767907" id="-19517">
		<tag k="name" v="Saurelva" />
		<tag k="ssr:stedsnr" v="77482" />
		<tag k="waterway" v="stream" />
	</node>
	<node lat="67.14361944608532" lon="13.955444452434262" id="-19540">
		<tag k="name" v="Kjørøyosen" />
		<tag k="natural" v="bay" />
		<tag k="ssr:stedsnr" v="92353" />
	</node>
	<node lat="67.03425278010623" lon="14.07764722751911" id="-19582">
		<tag k="alt_name" v="Jelstadvatnet" />
		<tag k="name" v="Hjellstadvatnet" />
		<tag k="natural" v="water" />
		<tag k="ssr:stedsnr" v="137167" />
	</node>
	<node lat="66.96201110957888" lon="14.026750010768023" id="-19583">
		<tag k="name" v="Dorryvasselva" />
		<tag k="ssr:stedsnr" v="137168" />
		<tag k="waterway" v="stream" />
	</node>
	<node lat="66.7960833314611" lon="14.24498333352269" id="-19588">
		<tag k="alt_name" v="Svalvatnet, litle" />
		<tag k="name" v="Litle Svalvatnet" />
		<tag k="natural" v="water" />
		<tag k="ssr:stedsnr" v="137401" />
	</node>
	<node lat="66.95109444697339" lon="14.215113888978223" id="-19591">
		<tag k="alt_name" v="Forsåvatnet, øvre" />
		<tag k="name" v="Øvre Forsåvatnet" />
		<tag k="natural" v="water" />
		<tag k="ssr:stedsnr" v="137182" />
		<tag k="water" v="lake" />
	</node>
	<node lat="67.0507777789376" lon="14.171341664247358" id="-19592">
		<tag k="name" v="Grytvikvatnet" />
		<tag k="natural" v="water" />
		<tag k="ssr:stedsnr" v="137186" />
	</node>
	<node lat="67.08998888899482" lon="14.351183333708104" id="-19597">
		<tag k="name" v="Innervikvatnet" />
		<tag k="natural" v="water" />
		<tag k="ssr:stedsnr" v="137250" />
	</node>
	<node lat="66.94180833477337" lon="13.972063890617832" id="-19655">
		<tag k="name" v="Laksådalselva" />
		<tag k="ssr:stedsnr" v="177230" />
		<tag k="waterway" v="stream" />
	</node>
	<node lat="67.07531389122266" lon="13.853802773487544" id="-19656">
		<tag k="name" v="Stortjønna" />
		<tag k="natural" v="water" />
		<tag k="ssr:stedsnr" v="177334" />
	</node>
	<node lat="66.94800277335162" lon="13.919661111938584" id="-19661">
		<tag k="name" v="Finnkonvatnet" />
		<tag k="natural" v="water" />
		<tag k="ssr:stedsnr" v="177489" />
	</node>
	<node lat="66.98551666871066" lon="14.119800010513439" id="-19687">
		<tag k="name" v="Vindvikelva" />
		<tag k="ssr:stedsnr" v="198197" />
		<tag k="waterway" v="stream" />
	</node>
	<node lat="66.81167500391723" lon="14.346583338374971" id="-19689">
		<tag k="name" v="Ramnfjellvatnet" />
		<tag k="natural" v="water" />
		<tag k="ssr:stedsnr" v="198382" />
	</node>
	<node lat="66.94632222287318" lon="13.714024994246374" id="-19747">
		<tag k="name" v="Eiteråga" />
		<tag k="ssr:stedsnr" v="274964" />
		<tag k="waterway" v="stream" />
	</node>
	<node lat="66.95482500062856" lon="13.981680552873133" id="-19773">
		<tag k="name" v="Oppsalelva" />
		<tag k="ssr:stedsnr" v="298210" />
		<tag k="waterway" v="stream" />
	</node>
	<node lat="67.12531944596095" lon="14.13006943711693" id="-19792">
		<tag k="name" v="Mølnelva" />
		<tag k="ssr:stedsnr" v="319184" />
		<tag k="waterway" v="stream" />
	</node>
	<node lat="67.09479444057135" lon="14.080019441293391" id="-19797">
		<tag k="alt_name" v="Stjernelva" />
		<tag k="name" v="Stjernåga" />
		<tag k="ssr:stedsnr" v="319129" />
		<tag k="waterway" v="stream" />
	</node>
	<node lat="66.84522221849777" lon="14.22482500456923" id="-19810">
		<tag k="name" v="Sundvasselva" />
		<tag k="ssr:stedsnr" v="319453" />
		<tag k="waterway" v="river" />
	</node>
	<node lat="67.13459444846433" lon="14.206375003481021" id="-19821">
		<tag k="name" v="Svartvatnet" />
		<tag k="natural" v="water" />
		<tag k="ssr:stedsnr" v="319924" />
	</node>
	<node lat="67.06204166622784" lon="13.804252768554122" id="-19855">
		<tag k="name" v="Lunddalsvatnet" />
		<tag k="natural" v="water" />
		<tag k="ssr:stedsnr" v="344564" />
	</node>
	<node lat="67.06692777786637" lon="13.939508341138362" id="-19863">
		<tag k="name" v="Lomstjønna" />
		<tag k="natural" v="water" />
		<tag k="ssr:stedsnr" v="344383" />
	</node>
	<node lat="66.98517777421995" lon="13.938116664344085" id="-19887">
		<tag k="name" v="Skvettelva" />
		<tag k="ssr:stedsnr" v="359516" />
		<tag k="waterway" v="stream" />
	</node>
	<node lat="67.04153332943997" lon="14.333397219641908" id="-19892">
		<tag k="name" v="Åsvatnet" />
		<tag k="natural" v="water" />
		<tag k="ssr:stedsnr" v="380365" />
	</node>
	<node lat="66.85480833312897" lon="14.134997224858607" id="-19894">
		<tag k="loc_name:smj" v="Roavggojåhkå" />
		<tag k="name" v="Fellvassåga" />
		<tag k="name:no" v="Fellvassåga" />
		<tag k="ssr:stedsnr" v="380376" />
		<tag k="waterway" v="stream" />
	</node>
	<node lat="67.03026388740801" lon="14.307147223897596" id="-19895">
		<tag k="name" v="Kisfjellvatnet" />
		<tag k="natural" v="water" />
		<tag k="ssr:stedsnr" v="380379" />
	</node>
	<node lat="67.17959166622394" lon="14.26875833677216" id="-19897">
		<tag k="name" v="Langhammarvatnet" />
		<tag k="natural" v="water" />
		<tag k="ssr:stedsnr" v="380446" />
	</node>
	<node lat="66.89878333445759" lon="14.087163882946312" id="-19904">
		<tag k="name" v="Storvika" />
		<tag k="natural" v="bay" />
		<tag k="ssr:stedsnr" v="380133" />
	</node>
	<node lat="67.17435000386017" lon="14.239874991490247" id="-19909">
		<tag k="name" v="Mølnelva" />
		<tag k="ssr:stedsnr" v="380156" />
		<tag k="waterway" v="stream" />
	</node>
	<node lat="66.78462500041653" lon="14.182663890706003" id="-19915">
		<tag k="alt_name" v="Sandvatnet, store" />
		<tag k="name" v="Store Sandvatnet" />
		<tag k="natural" v="water" />
		<tag k="ssr:stedsnr" v="380297" />
		<tag k="water" v="lake" />
	</node>
	<node lat="67.05005833506999" lon="13.759033339081244" id="-19964">
		<tag k="name" v="Stortjønna" />
		<tag k="natural" v="water" />
		<tag k="ssr:stedsnr" v="405566" />
	</node>
	<node lat="67.07269999588735" lon="13.853144433343848" id="-19988">
		<tag k="name" v="Vasselva" />
		<tag k="ssr:stedsnr" v="420331" />
		<tag k="waterway" v="stream" />
	</node>
	<node lat="66.97127499689961" lon="13.890016668930505" id="-19990">
		<tag k="name" v="Vokkelva" />
		<tag k="ssr:stedsnr" v="420395" />
		<tag k="waterway" v="stream" />
	</node>
	<node lat="67.06010555633445" lon="14.06664445214691" id="-20004">
		<tag k="name" v="Sundsvatnet" />
		<tag k="natural" v="water" />
		<tag k="ssr:stedsnr" v="440260" />
	</node>
	<node lat="67.07020278095438" lon="14.311088885849609" id="-20005">
		<tag k="name" v="Kjellingosen" />
		<tag k="natural" v="bay" />
		<tag k="ssr:stedsnr" v="440278" />
	</node>
	<node lat="66.96397221808795" lon="13.994755557290306" id="-20012">
		<tag k="alt_name" v="Gardvatnet" />
		<tag k="name" v="Gardsvatnet" />
		<tag k="natural" v="water" />
		<tag k="ssr:stedsnr" v="441232" />
	</node>
	<node lat="67.11098611282029" lon="14.13767500149959" id="-20019">
		<tag k="name" v="Stornakkvatnet" />
		<tag k="natural" v="water" />
		<tag k="ssr:stedsnr" v="441162" />
	</node>
	<node lat="66.92843889332057" lon="13.986252769332538" id="-20021">
		<tag k="name" v="Øverdalselva" />
		<tag k="ssr:stedsnr" v="441166" />
		<tag k="waterway" v="stream" />
	</node>
	<node lat="67.06021111465996" lon="14.352133330551963" id="-20024">
		<tag k="name" v="Kjellingelva" />
		<tag k="ssr:stedsnr" v="441247" />
		<tag k="waterway" v="stream" />
	</node>
	<node lat="67.00309999571665" lon="14.058480552932467" id="-20053">
		<tag k="name" v="Dalselva" />
		<tag k="ssr:stedsnr" v="501025" />
		<tag k="waterway" v="stream" />
	</node>
	<node lat="66.89128888892745" lon="14.0897444449879" id="-20057">
		<tag k="name" v="Forneset" />
		<tag k="natural" v="cape" />
		<tag k="ssr:stedsnr" v="501144" />
	</node>
	<node lat="67.12584444677177" lon="14.211177785422223" id="-20062">
		<tag k="name" v="Skyttevatnet" />
		<tag k="natural" v="water" />
		<tag k="ssr:stedsnr" v="501183" />
	</node>
	<node lat="66.90633055943373" lon="14.281191656578057" id="-20067">
		<tag k="name" v="Sandvassåga" />
		<tag k="ssr:stedsnr" v="501466" />
		<tag k="waterway" v="stream" />
	</node>
	<node lat="67.0539722222301" lon="14.355752784747837" id="-20099">
		<tag k="name" v="Øverdalselva" />
		<tag k="ssr:stedsnr" v="526051" />
		<tag k="waterway" v="stream" />
	</node>
	<node lat="66.92864999949893" lon="13.798502776815408" id="-20103">
		<tag k="name" v="Skromdalsvatnan" />
		<tag k="natural" v="water" />
		<tag k="ssr:stedsnr" v="526756" />
		<tag k="water" v="lake" />
	</node>
	<node lat="66.9489583337576" lon="13.899613888659616" id="-20141">
		<tag k="name" v="Purkelva" />
		<tag k="ssr:stedsnr" v="541495" />
		<tag k="waterway" v="stream" />
	</node>
	<node lat="67.06064444780695" lon="14.202213882694489" id="-20148">
		<tag k="name" v="Nonselva" />
		<tag k="ssr:stedsnr" v="561232" />
		<tag k="waterway" v="stream" />
	</node>
	<node lat="66.98077499745486" lon="13.924994447222788" id="-20150">
		<tag k="name" v="Langvatnet" />
		<tag k="natural" v="water" />
		<tag k="ssr:stedsnr" v="561245" />
	</node>
	<node lat="67.04035833134417" lon="14.065077774933016" id="-20158">
		<tag k="name" v="Lauvvatnet" />
		<tag k="natural" v="water" />
		<tag k="ssr:stedsnr" v="561193" />
	</node>
	<node lat="66.93798333408225" lon="13.74582499697408" id="-20167">
		<tag k="name" v="Skromma" />
		<tag k="ssr:stedsnr" v="561219" />
		<tag k="waterway" v="stream" />
	</node>
	<node lat="66.89949444078078" lon="14.21173054511109" id="-20183">
		<tag k="alt_name" v="Krokvatnet, nedre" />
		<tag k="name" v="Nedre Krokvatnet" />
		<tag k="natural" v="water" />
		<tag k="ssr:stedsnr" v="562114" />
		<tag k="water" v="lake" />
	</node>
	<node lat="66.80057777358259" lon="14.247266675634654" id="-20197">
		<tag k="name" v="Svalvasselva" />
		<tag k="ssr:stedsnr" v="562408" />
		<tag k="waterway" v="stream" />
	</node>
	<node lat="66.8636111077287" lon="14.158788886512188" id="-20201">
		<tag k="name" v="Stabbursfjellvatnet" />
		<tag k="natural" v="water" />
		<tag k="ssr:stedsnr" v="562353" />
	</node>
	<node lat="67.12987222023192" lon="14.097569436783282" id="-20210">
		<tag k="name" v="Keipanelva" />
		<tag k="ssr:stedsnr" v="562904" />
		<tag k="waterway" v="stream" />
	</node>
	<node lat="66.98013333032652" lon="14.001272222226222" id="-20260">
		<tag k="name" v="Nordvatnet" />
		<tag k="natural" v="water" />
		<tag k="ssr:stedsnr" v="601198" />
	</node>
	<node lat="67.07982222356411" lon="13.849194453418114" id="-20261">
		<tag k="name" v="Bunestjønna" />
		<tag k="natural" v="water" />
		<tag k="ssr:stedsnr" v="601276" />
		<tag k="water" v="pond" />
	</node>
	<node lat="66.94680555598543" lon="13.907286117702945" id="-20262">
		<tag k="name" v="Laksåga" />
		<tag k="ssr:stedsnr" v="601440" />
		<tag k="waterway" v="stream" />
	</node>
	<node lat="66.98048889081656" lon="14.239227780962132" id="-20308">
		<tag k="name" v="Tverråga" />
		<tag k="ssr:stedsnr" v="623791" />
		<tag k="waterway" v="stream" />
	</node>
	<node lat="66.93736666651834" lon="13.732891658973777" id="-20329">
		<tag k="name" v="Tverråa" />
		<tag k="ssr:stedsnr" v="637773" />
		<tag k="waterway" v="stream" />
	</node>
	<node lat="67.03350277385104" lon="13.955102778904779" id="-20331">
		<tag k="name" v="Kletjønna" />
		<tag k="natural" v="water" />
		<tag k="ssr:stedsnr" v="638793" />
	</node>
	<node lat="66.96321666617898" lon="13.980436115579556" id="-20334">
		<tag k="name" v="Oppsalvatnet" />
		<tag k="natural" v="water" />
		<tag k="ssr:stedsnr" v="638296" />
		<tag k="water" v="lake" />
	</node>
	<node lat="67.07692500292926" lon="13.850527788727204" id="-20357">
		<tag k="name" v="Mørnelva" />
		<tag k="ssr:stedsnr" v="662296" />
		<tag k="waterway" v="stream" />
	</node>
	<node lat="66.94541389056066" lon="13.908677781010137" id="-20365">
		<tag k="name" v="Lille Laksådalvatnet" />
		<tag k="natural" v="water" />
		<tag k="ssr:stedsnr" v="662460" />
	</node>
	<node lat="66.94375833370987" lon="14.014774992078687" id="-20385">
		<tag k="name" v="Jakob-Persvatnan" />
		<tag k="natural" v="water" />
		<tag k="ssr:stedsnr" v="723214" />
		<tag k="water" v="lake" />
	</node>
	<node lat="66.97486389227903" lon="13.92397221986789" id="-20397">
		<tag k="name" v="Grøssettindvatnet" />
		<tag k="natural" v="water" />
		<tag k="ssr:stedsnr" v="725261" />
	</node>
	<node lat="66.99249999868313" lon="14.296316654874632" id="-20402">
		<tag k="name" v="Breivikdalsvatnet" />
		<tag k="natural" v="water" />
		<tag k="ssr:stedsnr" v="744221" />
	</node>
	<node lat="66.94903611002128" lon="13.942666665258894" id="-20404">
		<tag k="name" v="Kjellingvatnet" />
		<tag k="natural" v="water" />
		<tag k="ssr:stedsnr" v="744161" />
	</node>
	<node lat="66.92829444851144" lon="13.802136120536506" id="-20407">
		<tag k="alt_name" v="Skromdalsvatnan, nedre" />
		<tag k="name" v="Nedre Skromdalsvatnan" />
		<tag k="natural" v="water" />
		<tag k="ssr:stedsnr" v="744167" />
		<tag k="water" v="lake" />
	</node>
	<node lat="66.88146944656985" lon="14.31395277642895" id="-20410">
		<tag k="name" v="Småsandvatnan" />
		<tag k="natural" v="water" />
		<tag k="ssr:stedsnr" v="744438" />
		<tag k="water" v="lake" />
	</node>
	<node lat="67.03770833056272" lon="13.957572226484798" id="-20427">
		<tag k="name" v="Osen" />
		<tag k="natural" v="water" />
		<tag k="ssr:stedsnr" v="760780" />
	</node>
	<node lat="67.05630277754467" lon="14.342013898930166" id="-20445">
		<tag k="name" v="Åsinglielva" />
		<tag k="ssr:stedsnr" v="769009" />
		<tag k="waterway" v="stream" />
	</node>
	<node lat="66.99328333171314" lon="13.921138881226042" id="-20475">
		<tag k="name" v="Forsvatnet" />
		<tag k="natural" v="water" />
		<tag k="ssr:stedsnr" v="805023" />
		<tag k="water" v="lake" />
	</node>
	<node lat="67.06555555446805" lon="14.323950009182052" id="-20533">
		<tag k="name" v="Langnes" />
		<tag k="natural" v="cape" />
		<tag k="ssr:stedsnr" v="821235" />
	</node>
	<node lat="66.97674166995452" lon="14.010955561295741" id="-20535">
		<tag k="name" v="Seljesetsundet" />
		<tag k="natural" v="strait" />
		<tag k="ssr:stedsnr" v="821340" />
	</node>
	<node lat="67.14410555468292" lon="13.960811103905625" id="-20536">
		<tag k="name" v="Storåstjønna" />
		<tag k="natural" v="water" />
		<tag k="ssr:stedsnr" v="821355" />
	</node>
	<node lat="67.13060833362694" lon="14.357380546829612" id="-20544">
		<tag k="name" v="Ertenvågelva" />
		<tag k="ssr:stedsnr" v="830054" />
		<tag k="waterway" v="stream" />
	</node>
	<node lat="66.93250555858981" lon="13.738199991433984" id="-20559">
		<tag k="name" v="Lilleåa" />
		<tag k="ssr:stedsnr" v="830760" />
		<tag k="waterway" v="stream" />
	</node>
	<node lat="66.83977777472292" lon="14.274205563588225" id="-20582">
		<tag k="loc_name:smj" v="Láhkojávrre" />
		<tag k="name" v="Lágovatnet" />
		<tag k="name:no" v="Lágovatnet" />
		<tag k="natural" v="water" />
		<tag k="ssr:stedsnr" v="865473" />
		<tag k="water" v="lake" />
	</node>
	<node lat="66.9673833299775" lon="13.929477780476025" id="-20600">
		<tag k="name" v="Skipneset" />
		<tag k="natural" v="cape" />
		<tag k="ssr:stedsnr" v="866214" />
	</node>
	<node lat="66.93888332924563" lon="14.117080565421372" id="-20605">
		<tag k="name" v="Sundfjorddalselva" />
		<tag k="ssr:stedsnr" v="866150" />
		<tag k="waterway" v="river" />
	</node>
	<node lat="66.8173083377312" lon="14.252197217172249" id="-20616">
		<tag k="loc_name:smj" v="Guollejávrre" />
		<tag k="name" v="Fiskvatnet" />
		<tag k="name:no" v="Fiskvatnet" />
		<tag k="natural" v="water" />
		<tag k="ssr:stedsnr" v="866408" />
		<tag k="water" v="lake" />
	</node>
	<node lat="67.14221111406196" lon="13.725183324009453" id="-20662">
		<tag k="name" v="Nupgrunnen" />
		<tag k="natural" v="shoal" />
		<tag k="place" v="locality" />
		<tag k="ssr:stedsnr" v="936072" />
	</node>
</osm>
