<?xml version="1.0" encoding="UTF-8"?>
<osm generator="osmapis" version="0.6">
	<node id="-809726" lat="70.1310889286" lon="29.109932203">
		<tag k="alt_name:no" v="Klubbvik" />
		<tag k="name" v="Gohppi - Klubbvika" />
		<tag k="name:no" v="Klubbvika" />
		<tag k="name:se" v="Gohppi" />
		<tag k="place" v="hamlet" />
		<tag k="ssr:stedsnr" v="565635" />
	</node>
	<node id="-809237" lat="70.137800039" lon="29.110765545">
		<tag k="name" v="Stakkmyra" />
		<tag k="name:no" v="Stakkmyra" />
		<tag k="place" v="isolated_dwelling" />
		<tag k="ssr:stedsnr" v="19599" />
	</node>
	<node id="-809593" lat="70.1469361353" lon="28.5506963297">
		<tag k="name" v="Aune" />
		<tag k="name:no" v="Aune" />
		<tag k="place" v="farm" />
		<tag k="ssr:stedsnr" v="444866" />
	</node>
	<node id="-810101" lat="70.1550250249" lon="28.5608046557">
		<tag k="name" v="Vassmyr" />
		<tag k="name:no" v="Vassmyr" />
		<tag k="place" v="farm" />
		<tag k="ssr:stedsnr" v="868822" />
	</node>
	<node id="-809844" lat="70.1752416972" lon="28.7224212632">
		<tag k="loc_name:se" v="Gorgŋetak" />
		<tag k="name" v="Gorgŋehat" />
		<tag k="name:se" v="Gorgŋehat" />
		<tag k="place" v="hamlet" />
		<tag k="ssr:stedsnr" v="634439" />
	</node>
	<node id="-809328" lat="70.1633750332" lon="28.7911545747">
		<tag k="name" v="Áppošborri - Abelsborg" />
		<tag k="name:no" v="Abelsborg" />
		<tag k="name:se" v="Áppošborri" />
		<tag k="place" v="hamlet" />
		<tag k="ssr:stedsnr" v="80886" />
	</node>
	<node id="-809967" lat="70.1249055865" lon="28.4494380202">
		<tag k="name" v="Vesterelv" />
		<tag k="name:no" v="Vesterelv" />
		<tag k="place" v="isolated_dwelling" />
		<tag k="ssr:stedsnr" v="748466" />
	</node>
	<node id="-809324" lat="70.1734000273" lon="28.7477101334">
		<tag k="name" v="Stuorraváhki" />
		<tag k="name:se" v="Stuorraváhki" />
		<tag k="old_name:se" v="Stuorravakki" />
		<tag k="place" v="farm" />
		<tag k="ssr:stedsnr" v="80865" />
	</node>
	<node id="-809234" lat="70.1471877819" lon="28.8799099412">
		<tag k="name" v="Simonjord" />
		<tag k="name:no" v="Simonjord" />
		<tag k="place" v="farm" />
		<tag k="ssr:stedsnr" v="991180" />
	</node>
	<node id="-809660" lat="70.1503055891" lon="29.1124933091">
		<tag k="name" v="Dalen" />
		<tag k="name:no" v="Dalen" />
		<tag k="place" v="isolated_dwelling" />
		<tag k="ssr:stedsnr" v="505658" />
	</node>
	<node id="-809827" lat="70.1305278095" lon="29.0093127949">
		<tag k="fixme" v="consider place=hamlet" />
		<tag k="name" v="Ceavccageađgi - Mortensnes" />
		<tag k="name:no" v="Mortensnes" />
		<tag k="name:se" v="Ceavccageađgi" />
		<tag k="place" v="village" />
		<tag k="ssr:stedsnr" v="627797" />
	</node>
	<node id="-809698" lat="70.0512583663" lon="29.0542488796">
		<tag k="name" v="Builuovta - Byluft" />
		<tag k="name:no" v="Byluft" />
		<tag k="name:se" v="Builuovta" />
		<tag k="place" v="hamlet" />
		<tag k="ssr:stedsnr" v="514269" />
	</node>
	<node id="-810080" lat="70.1033278072" lon="28.6389268401">
		<tag k="name" v="Gállásiidbáiki" />
		<tag k="name:se" v="Gállásiidbáiki" />
		<tag k="old_name:se" v="Gallasaibaiki" />
		<tag k="place" v="locality" />
		<tag k="ssr:stedsnr" v="816071" />
	</node>
	<node id="-809566" lat="70.1485028103" lon="28.9063739552">
		<tag k="name" v="Boaresárku - Bergeby" />
		<tag k="name:no" v="Bergeby" />
		<tag k="name:se" v="Boaresárku" />
		<tag k="place" v="hamlet" />
		<tag k="ssr:stedsnr" v="444634" />
	</node>
	<node id="-809103" lat="70.1298000288" lon="28.5258629807">
		<tag k="name" v="Bjørnebergmyren" />
		<tag k="name:no" v="Bjørnebergmyren" />
		<tag k="old_name:no" v="Bjørneberget" />
		<tag k="place" v="farm" />
		<tag k="ssr:stedsnr" v="322736" />
	</node>
	<node id="-809176" lat="70.1733500266" lon="28.7648601321">
		<tag k="name" v="Steinbakken" />
		<tag k="name:no" v="Steinbakken" />
		<tag k="place" v="farm" />
		<tag k="ssr:stedsnr" v="383868" />
	</node>
	<node id="-809943" lat="70.2226583598" lon="28.68515184">
		<tag k="name" v="Johkageahči" />
		<tag k="name:se" v="Johkageahči" />
		<tag k="old_name:se" v="Jåkkagæčči;Johkageačči" />
		<tag k="place" v="locality" />
		<tag k="ssr:stedsnr" v="747842" />
	</node>
	<node id="-809230" lat="70.0773085093" lon="28.7946190727">
		<tag k="name" v="Sullovuolášgieddi - Grasbakkholmejord" />
		<tag k="name:no" v="Grasbakkholmejord" />
		<tag k="name:se" v="Sullovuolášgieddi" />
		<tag k="place" v="farm" />
		<tag k="ssr:stedsnr" v="990646" />
	</node>
	<node id="-810061" lat="70.0938389166" lon="28.6647073759">
		<tag k="name" v="Reahpen" />
		<tag k="name:se" v="Reahpen" />
		<tag k="place" v="hamlet" />
		<tag k="ssr:stedsnr" v="810799" />
	</node>
	<node id="-809164" lat="70.1325083631" lon="28.5286046517">
		<tag k="name" v="Langmo" />
		<tag k="name:no" v="Langmo" />
		<tag k="place" v="farm" />
		<tag k="ssr:stedsnr" v="383763" />
	</node>
	<node id="-809290" lat="70.1514389146" lon="28.5587157623">
		<tag k="name" v="Vuollenjiđgu" />
		<tag k="name:se" v="Vuollenjiđgu" />
		<tag k="place" v="hamlet" />
		<tag k="ssr:stedsnr" v="28456" />
	</node>
	<node id="-809548" lat="70.1226250308" lon="28.5750851932">
		<tag k="name" v="Márkan" />
		<tag k="name:se" v="Márkan" />
		<tag k="old_name:se" v="Markan" />
		<tag k="place" v="hamlet" />
		<tag k="ssr:stedsnr" v="262814" />
	</node>
	<node id="-809669" lat="70.1066166944" lon="28.5930768592">
		<tag k="name" v="Sirddagohppi" />
		<tag k="name:se" v="Sirddagohppi" />
		<tag k="place" v="hamlet" />
		<tag k="ssr:stedsnr" v="506777" />
	</node>
	<node id="-809796" lat="70.1226111396" lon="28.5751268639">
		<tag k="fixme" v="consider place=hamlet" />
		<tag k="name" v="Stuorravuonna - Karlebotn" />
		<tag k="name:no" v="Karlebotn" />
		<tag k="name:se" v="Stuorravuonna" />
		<tag k="place" v="village" />
		<tag k="ssr:stedsnr" v="625793" />
	</node>
	<node id="-809794" lat="70.1202305829" lon="28.572587962">
		<tag k="name" v="Skuvgi" />
		<tag k="name:se" v="Skuvgi" />
		<tag k="place" v="hamlet" />
		<tag k="ssr:stedsnr" v="625785" />
	</node>
	<node id="-809227" lat="70.0769957295" lon="28.8083773016">
		<tag k="name" v="Rissebávti - Indre Grasbakken" />
		<tag k="name:no" v="Indre Grasbakken" />
		<tag k="name:se" v="Rissebávti" />
		<tag k="place" v="farm" />
		<tag k="ssr:stedsnr" v="990625" />
	</node>
	<node id="-810047" lat="70.1565889194" lon="28.5743740857">
		<tag k="name" v="Njiđgu - Vesterelv" />
		<tag k="name:no" v="Vesterelv" />
		<tag k="name:se" v="Njiđgu" />
		<tag k="place" v="hamlet" />
		<tag k="ssr:stedsnr" v="808858" />
	</node>
	<node id="-810044" lat="70.1776083651" lon="28.6122018689">
		<tag k="fixme" v="consider place=hamlet" />
		<tag k="loc_name:se" v="Hearrágoahtenjárga;Rovvejohka" />
		<tag k="name" v="Nyborg" />
		<tag k="name:no" v="Nyborg" />
		<tag k="place" v="village" />
		<tag k="ssr:stedsnr" v="808843" />
	</node>
	<node id="-809531" lat="70.1519750313" lon="28.8648017565">
		<tag k="fixme" v="consider place=hamlet" />
		<tag k="name" v="Unjárga - Nesseby" />
		<tag k="name:no" v="Nesseby" />
		<tag k="name:se" v="Unjárga" />
		<tag k="place" v="village" />
		<tag k="ssr:stedsnr" v="262651" />
	</node>
	<node id="-809785" lat="70.0716639218" lon="28.8516850753">
		<tag k="name" v="Ytre Nyelv" />
		<tag k="name:no" v="Ytre Nyelv" />
		<tag k="place" v="isolated_dwelling" />
		<tag k="ssr:stedsnr" v="594135" />
	</node>
	<node id="-809221" lat="70.1083066002" lon="28.6040876822">
		<tag k="name" v="Sirddagohppi" />
		<tag k="name:se" v="Sirddagohppi" />
		<tag k="place" v="farm" />
		<tag k="ssr:stedsnr" v="990461" />
	</node>
	<node id="-809654" lat="70.010305595" lon="29.1231849294">
		<tag k="name" v="Juvravuonna - Gandvik" />
		<tag k="name:no" v="Gandvik" />
		<tag k="name:se" v="Juvravuonna" />
		<tag k="place" v="hamlet" />
		<tag k="ssr:stedsnr" v="505588" />
	</node>
	<node id="-809909" lat="70.1748194756" lon="28.5772713163">
		<tag k="name" v="Hearrágoahti - Amtmannsgammen" />
		<tag k="name:no" v="Amtmannsgammen" />
		<tag k="name:se" v="Hearrágoahti" />
		<tag k="place" v="farm" />
		<tag k="ssr:stedsnr" v="693488" />
	</node>
	<node id="-809524" lat="70.1098972516" lon="28.5864768544">
		<tag k="name" v="Grønnbakken" />
		<tag k="name:no" v="Grønnbakken" />
		<tag k="place" v="farm" />
		<tag k="ssr:stedsnr" v="230308" />
	</node>
	<node id="-809649" lat="70.1764055881" lon="28.7218907071">
		<tag k="name" v="Gornitak" />
		<tag k="name:no" v="Gornitak" />
		<tag k="place" v="farm" />
		<tag k="ssr:stedsnr" v="504847" />
	</node>
	<node id="-809264" lat="70.0517083667" lon="29.0537099921">
		<tag k="name" v="Byluft" />
		<tag k="name:no" v="Byluft" />
		<tag k="place" v="isolated_dwelling" />
		<tag k="ssr:stedsnr" v="20688" />
	</node>
	<node id="-809312" lat="70.1306750363" lon="29.0102989264">
		<tag k="name" v="Nyslett" />
		<tag k="name:no" v="Nyslett" />
		<tag k="place" v="farm" />
		<tag k="ssr:stedsnr" v="49135" />
	</node>
	<node id="-809098" lat="70.169841697" lon="28.5560435474">
		<tag k="name" v="Fjordbotn" />
		<tag k="name:no" v="Fjordbotn" />
		<tag k="place" v="farm" />
		<tag k="ssr:stedsnr" v="291375" />
	</node>
	<node id="-810155" lat="70.209419473" lon="28.3502908592">
		<tag k="name" v="Seidafjellet hytteområde" />
		<tag k="name:no" v="Seidafjellet hytteområde" />
		<tag k="place" v="neighbourhood" />
		<tag k="ssr:stedsnr" v="905984" />
	</node>
	<node id="-809386" lat="70.0921278076" lon="28.7240768096">
		<tag k="name" v="Gerildbukt" />
		<tag k="name:no" v="Gerildbukt" />
		<tag k="place" v="farm" />
		<tag k="ssr:stedsnr" v="109164" />
	</node>
	<node id="-809385" lat="70.0841750322" lon="28.7404406738">
		<tag k="name" v="Digernes" />
		<tag k="name:no" v="Digernes" />
		<tag k="place" v="farm" />
		<tag k="ssr:stedsnr" v="109149" />
	</node>
	<node id="-809382" lat="70.1411861403" lon="28.6930407198">
		<tag k="name" v="Rabbedal" />
		<tag k="name:no" v="Rabbedal" />
		<tag k="place" v="isolated_dwelling" />
		<tag k="ssr:stedsnr" v="108329" />
	</node>
	<node id="-809250" lat="70.1116944766" lon="28.5778157396">
		<tag k="name" v="Roggeluovttgieddi" />
		<tag k="name:se" v="Roggeluovttgieddi" />
		<tag k="old_name:se" v="Råggeluovtgieddi" />
		<tag k="place" v="locality" />
		<tag k="ssr:stedsnr" v="19768" />
	</node>
	<node id="-810014" lat="70.0760111458" lon="28.8043073306">
		<tag k="loc_name:se" v="Rissebávti" />
		<tag k="name" v="Rissebákti - Grasbakken" />
		<tag k="name:no" v="Grasbakken" />
		<tag k="name:se" v="Rissebákti" />
		<tag k="old_name:se" v="Rissebakti" />
		<tag k="place" v="hamlet" />
		<tag k="ssr:stedsnr" v="869824" />
	</node>
	<node id="-809285" lat="70.0800083662" lon="28.7573267939">
		<tag k="name" v="Giinabáiki" />
		<tag k="name:se" v="Giinabáiki" />
		<tag k="place" v="farm" />
		<tag k="ssr:stedsnr" v="28140" />
	</node>
	<node id="-809880" lat="70.1727833616" lon="28.5556824488">
		<tag k="name" v="Vuonnabahta - Varangerbotn" />
		<tag k="name:no" v="Varangerbotn" />
		<tag k="name:se" v="Vuonnabahta" />
		<tag k="place" v="village" />
		<tag k="ssr:stedsnr" v="686835" />
	</node>
	<node id="-809097" lat="70.071852815" lon="28.8463350798">
		<tag k="name" v="Indre Nyelv" />
		<tag k="name:no" v="Indre Nyelv" />
		<tag k="place" v="isolated_dwelling" />
		<tag k="ssr:stedsnr" v="291125" />
	</node>
	<node id="-810133" lat="70.1719778048" lon="28.5618324357">
		<tag k="name" v="Iŋggágoahti" />
		<tag k="name:se" v="Iŋggágoahti" />
		<tag k="place" v="isolated_dwelling" />
		<tag k="ssr:stedsnr" v="876481" />
	</node>
	<node id="-809236" lat="70.1301694821" lon="29.0869877802">
		<tag k="name" v="Svenskeviken" />
		<tag k="name:no" v="Svenskeviken" />
		<tag k="old_name:no" v="Per Larsavika" />
		<tag k="place" v="farm" />
		<tag k="ssr:stedsnr" v="19596" />
	</node>
	<node id="-809362" lat="70.1427778072" lon="28.9259100625">
		<tag k="name" v="Veašenjárga - Hammernes" />
		<tag k="name:no" v="Hammernes" />
		<tag k="name:se" v="Veašenjárga" />
		<tag k="place" v="hamlet" />
		<tag k="ssr:stedsnr" v="87270" />
	</node>
	<node id="-809233" lat="70.1234664323" lon="28.5979587774">
		<tag k="name" v="Biggánjárga" />
		<tag k="name:se" v="Biggánjárga" />
		<tag k="place" v="farm" />
		<tag k="ssr:stedsnr" v="991177" />
	</node>
	<node id="-809232" lat="70.1230857965" lon="28.5958908039">
		<tag k="name" v="Bigganes" />
		<tag k="name:no" v="Bigganes" />
		<tag k="place" v="farm" />
		<tag k="ssr:stedsnr" v="991176" />
	</node>
	<node id="-809231" lat="70.1235256034" lon="28.592735252">
		<tag k="name" v="Bigganjarg" />
		<tag k="name:se" v="Bigganjarg" />
		<tag k="place" v="farm" />
		<tag k="ssr:stedsnr" v="991175" />
	</node>
	<node id="-809870" lat="70.0982250308" lon="28.6987740287">
		<tag k="name" v="Stuorrasiida - Storplassen" />
		<tag k="name:no" v="Storplassen" />
		<tag k="name:se" v="Stuorrasiida" />
		<tag k="place" v="locality" />
		<tag k="ssr:stedsnr" v="686762" />
	</node>
	<node id="-809229" lat="70.0758611151" lon="28.8082315427">
		<tag k="name" v="Rissebávti - Grasbakken" />
		<tag k="name:no" v="Grasbakken" />
		<tag k="name:se" v="Rissebávti" />
		<tag k="place" v="farm" />
		<tag k="ssr:stedsnr" v="990643" />
	</node>
	<node id="-809228" lat="70.076528418" lon="28.8109138682">
		<tag k="name" v="Rissebávti - Nedre Grasbakken" />
		<tag k="name:no" v="Nedre Grasbakken" />
		<tag k="name:se" v="Rissebávti" />
		<tag k="place" v="farm" />
		<tag k="ssr:stedsnr" v="990624" />
	</node>
	<node id="-810178" lat="70.1664750286" lon="28.5557796564">
		<tag k="name" v="Murholt" />
		<tag k="name:no" v="Murholt" />
		<tag k="place" v="farm" />
		<tag k="ssr:stedsnr" v="929875" />
	</node>
	<node id="-809226" lat="70.1492814702" lon="28.8844781774">
		<tag k="name" v="Simmonoaivigieddi" />
		<tag k="name:se" v="Simmonoaivigieddi" />
		<tag k="old_name:no" v="Simonhovedjord" />
		<tag k="place" v="farm" />
		<tag k="ssr:stedsnr" v="990481" />
	</node>
	<node id="-809225" lat="70.1101472743" lon="28.5936330251">
		<tag k="name" v="Sirddagohppi" />
		<tag k="name:se" v="Sirddagohppi" />
		<tag k="place" v="farm" />
		<tag k="ssr:stedsnr" v="990466" />
	</node>
	<node id="-809224" lat="70.1085288896" lon="28.5999551349">
		<tag k="name" v="Sirddagohppi" />
		<tag k="name:se" v="Sirddagohppi" />
		<tag k="place" v="farm" />
		<tag k="ssr:stedsnr" v="990465" />
	</node>
	<node id="-809223" lat="70.1087562586" lon="28.6021192892">
		<tag k="name" v="Sirddagohppi" />
		<tag k="name:se" v="Sirddagohppi" />
		<tag k="place" v="farm" />
		<tag k="ssr:stedsnr" v="990463" />
	</node>
	<node id="-809222" lat="70.1096752752" lon="28.6043350617">
		<tag k="name" v="Sirddagohppi" />
		<tag k="name:se" v="Sirddagohppi" />
		<tag k="place" v="farm" />
		<tag k="ssr:stedsnr" v="990462" />
	</node>
	<node id="-809861" lat="70.072002811" lon="28.8478350704">
		<tag k="name" v="Ođđajohka - Nyelv" />
		<tag k="name:no" v="Nyelv" />
		<tag k="name:se" v="Ođđajohka" />
		<tag k="place" v="hamlet" />
		<tag k="ssr:stedsnr" v="686678" />
	</node>
	<node id="-809346" lat="70.1567667027" lon="28.835354544">
		<tag k="name" v="Giškananjohka" />
		<tag k="name:se" v="Giškananjohka" />
		<tag k="old_name:se" v="Giškanånjåkka" />
		<tag k="place" v="farm" />
		<tag k="ssr:stedsnr" v="80742" />
	</node>
	<node id="-809259" lat="70.1768944746" lon="28.6775657236">
		<tag k="name" v="Álddanjárga - Meskelv" />
		<tag k="name:no" v="Meskelv" />
		<tag k="name:se" v="Álddanjárga" />
		<tag k="place" v="hamlet" />
		<tag k="ssr:stedsnr" v="19839" />
	</node>
</osm>
