<?xml version="1.0" encoding="UTF-8"?>
<osm generator="osmapis" version="0.6">
	<node id="-806400" lat="70.0591889226" lon="29.0960238531">
		<tag k="name" v="Láštu" />
		<tag k="name:se" v="Láštu" />
		<tag k="natural" v="bay" />
		<tag k="old_name:se" v="Lašto" />
		<tag k="ssr:stedsnr" v="80655" />
	</node>
	<node id="-806997" lat="70.0137861489" lon="29.1166016142">
		<tag k="name" v="Álddagárggu" />
		<tag k="name:se" v="Álddagárggu" />
		<tag k="natural" v="beach" />
		<tag k="place" v="locality" />
		<tag k="ssr:stedsnr" v="697537" />
	</node>
	<node id="-806394" lat="70.1567583639" lon="28.8147073371">
		<tag k="name" v="Buvrenjárga - Burnes" />
		<tag k="name:no" v="Burnes" />
		<tag k="name:se" v="Buvrenjárga" />
		<tag k="natural" v="cape" />
		<tag k="old_name:se" v="Buvrenjarga" />
		<tag k="ssr:stedsnr" v="80882" />
	</node>
	<node id="-806904" lat="70.1936389137" lon="28.7018879477">
		<tag k="name" v="Meskelvfjæra" />
		<tag k="name:no" v="Meskelvfjæra" />
		<tag k="natural" v="beach" />
		<tag k="place" v="locality" />
		<tag k="ssr:stedsnr" v="632441" />
	</node>
	<node id="-806903" lat="70.1259611447" lon="29.1345294221">
		<tag k="name" v="Tjukkenasbukta" />
		<tag k="name:no" v="Tjukkenasbukta" />
		<tag k="natural" v="bay" />
		<tag k="ssr:stedsnr" v="632398" />
	</node>
	<node id="-806902" lat="70.1515111449" lon="28.8537156485">
		<tag k="name" v="Guohcagohppi" />
		<tag k="name:se" v="Guohcagohppi" />
		<tag k="natural" v="bay" />
		<tag k="ssr:stedsnr" v="632336" />
	</node>
	<node id="-806899" lat="70.1288861456" lon="29.0025516895">
		<tag k="name" v="Ceavccageađggohppi" />
		<tag k="name:se" v="Ceavccageađggohppi" />
		<tag k="natural" v="bay" />
		<tag k="ssr:stedsnr" v="632318" />
	</node>
	<node id="-806898" lat="70.1281194737" lon="28.99019615">
		<tag k="fixme" v="consider seamark:type=rock or natural=shoal" />
		<tag k="name" v="Storskjæret" />
		<tag k="name:no" v="Storskjæret" />
		<tag k="place" v="islet" />
		<tag k="ssr:stedsnr" v="632319" />
	</node>
	<node id="-806380" lat="70.0903278127" lon="28.872721191">
		<tag k="name" v="Veidnesgrunnen" />
		<tag k="name:no" v="Veidnesgrunnen" />
		<tag k="natural" v="shoal" />
		<tag k="place" v="locality" />
		<tag k="ssr:stedsnr" v="49180" />
	</node>
	<node id="-806994" lat="70.1059778075" lon="28.8244934265">
		<tag k="name" v="Leštogohppi" />
		<tag k="name:se" v="Leštogohppi" />
		<tag k="natural" v="bay" />
		<tag k="ssr:stedsnr" v="696240" />
	</node>
	<node id="-806378" lat="70.1724555879" lon="28.6073185273">
		<tag k="fixme" v="consider seamark:type=rock or natural=shoal" />
		<tag k="name" v="Nyborgskjæret" />
		<tag k="name:no" v="Nyborgskjæret" />
		<tag k="place" v="islet" />
		<tag k="ssr:stedsnr" v="48322" />
	</node>
	<node id="-806377" lat="70.1473278071" lon="28.7273545886">
		<tag k="name" v="Karleneset" />
		<tag k="name:no" v="Karleneset" />
		<tag k="natural" v="cape" />
		<tag k="ssr:stedsnr" v="47339" />
	</node>
	<node id="-806887" lat="70.0613278171" lon="29.0119044429">
		<tag k="alt_name:no" v="Langnes" />
		<tag k="name" v="Válováhnjárga - Tveianeset" />
		<tag k="name:no" v="Tveianeset" />
		<tag k="name:se" v="Válováhnjárga" />
		<tag k="natural" v="cape" />
		<tag k="ssr:stedsnr" v="626711" />
	</node>
	<node id="-806371" lat="70.0292444814" lon="29.1717738028">
		<tag k="name" v="Sárairvvinjárga" />
		<tag k="name:se" v="Sárairvvinjárga" />
		<tag k="natural" v="cape" />
		<tag k="ssr:stedsnr" v="30642" />
	</node>
	<node id="-806369" lat="70.0237611507" lon="29.1386349497">
		<tag k="name" v="Pierasáttu" />
		<tag k="name:se" v="Pierasáttu" />
		<tag k="natural" v="beach" />
		<tag k="place" v="locality" />
		<tag k="ssr:stedsnr" v="30639" />
	</node>
	<node id="-806368" lat="70.0474417093" lon="29.1419099421">
		<tag k="name" v="Nieidaváhnjárga" />
		<tag k="name:se" v="Nieidaváhnjárga" />
		<tag k="natural" v="cape" />
		<tag k="ssr:stedsnr" v="30628" />
	</node>
	<node id="-806367" lat="70.0636055864" lon="28.9716600272">
		<tag k="name" v="Čoalbmeriddu" />
		<tag k="name:se" v="Čoalbmeriddu" />
		<tag k="natural" v="beach" />
		<tag k="place" v="locality" />
		<tag k="ssr:stedsnr" v="30552" />
	</node>
	<node id="-806362" lat="70.0119528135" lon="29.1595321379">
		<tag k="name" v="Rággošnjárga - Steinnes" />
		<tag k="name:no" v="Steinnes" />
		<tag k="name:se" v="Rággošnjárga" />
		<tag k="natural" v="cape" />
		<tag k="ssr:stedsnr" v="30709" />
	</node>
	<node id="-806360" lat="70.0731139222" lon="28.8533461826">
		<tag k="name" v="Ántenjárga" />
		<tag k="name:se" v="Ántenjárga" />
		<tag k="natural" v="cape" />
		<tag k="ssr:stedsnr" v="29231" />
	</node>
	<node id="-806356" lat="70.0891083635" lon="28.8059823051">
		<tag k="name" v="Bealsagohppi" />
		<tag k="name:se" v="Bealsagohppi" />
		<tag k="natural" v="bay" />
		<tag k="ssr:stedsnr" v="28182" />
	</node>
	<node id="-807075" lat="70.0468944802" lon="29.1346016062">
		<tag k="fixme" v="consider seamark:type=rock or natural=shoal" />
		<tag k="name" v="Miinagálli" />
		<tag k="name:se" v="Miinagálli" />
		<tag k="place" v="islet" />
		<tag k="ssr:stedsnr" v="758663" />
	</node>
	<node id="-806966" lat="70.1661889202" lon="28.7653518093">
		<tag k="fixme" v="consider seamark:type=rock or natural=shoal" />
		<tag k="name" v="Fuoiknjárlásis" />
		<tag k="name:se" v="Fuoiknjárlásis" />
		<tag k="place" v="islet" />
		<tag k="ssr:stedsnr" v="693511" />
	</node>
	<node id="-806347" lat="70.164377803" lon="28.6650462912">
		<tag k="name" v="Boazovárgárggu" />
		<tag k="name:se" v="Boazovárgárggu" />
		<tag k="natural" v="shoal" />
		<tag k="place" v="locality" />
		<tag k="ssr:stedsnr" v="27048" />
	</node>
	<node id="-806343" lat="70.1706944737" lon="28.757101802">
		<tag k="name" v="Marmenjárga - Mørmenes" />
		<tag k="name:no" v="Mørmenes" />
		<tag k="name:se" v="Marmenjárga" />
		<tag k="natural" v="cape" />
		<tag k="ssr:stedsnr" v="26507" />
	</node>
	<node id="-806342" lat="70.1653278048" lon="28.7814129061">
		<tag k="name" v="Ottereŋnjárga" />
		<tag k="name:se" v="Ottereŋnjárga" />
		<tag k="natural" v="cape" />
		<tag k="ssr:stedsnr" v="26484" />
	</node>
	<node id="-806853" lat="70.0814444807" lon="28.8031184263">
		<tag k="name" v="Grasbakkholman" />
		<tag k="name:no" v="Grasbakkholman" />
		<tag k="natural" v="shoal" />
		<tag k="place" v="locality" />
		<tag k="ssr:stedsnr" v="594153" />
	</node>
	<node id="-806851" lat="70.1128055898" lon="29.1365655329">
		<tag k="name" v="Tjukkenesgrunnen" />
		<tag k="name:no" v="Tjukkenesgrunnen" />
		<tag k="natural" v="shoal" />
		<tag k="place" v="locality" />
		<tag k="ssr:stedsnr" v="594112" />
	</node>
	<node id="-806338" lat="70.1473917023" lon="28.9015211772">
		<tag k="name" v="Suovvejohgárggu" />
		<tag k="name:se" v="Suovvejohgárggu" />
		<tag k="natural" v="shoal" />
		<tag k="place" v="locality" />
		<tag k="ssr:stedsnr" v="26294" />
	</node>
	<node id="-806335" lat="70.106161142" lon="28.7250490236">
		<tag k="fixme" v="consider seamark:type=rock or natural=shoal" />
		<tag k="name" v="Áidenjárlássá" />
		<tag k="name:se" v="Áidenjárlássá" />
		<tag k="place" v="islet" />
		<tag k="ssr:stedsnr" v="24262" />
	</node>
	<node id="-807157" lat="70.0454500399" lon="29.1584377181">
		<tag k="fixme" v="consider seamark:type=rock or natural=shoal" />
		<tag k="name" v="Čearretgálli" />
		<tag k="name:se" v="Čearretgálli" />
		<tag k="place" v="islet" />
		<tag k="ssr:stedsnr" v="819648" />
	</node>
	<node id="-806843" lat="70.063961145" lon="28.9574183625">
		<tag k="name" v="Háškagohppi" />
		<tag k="name:se" v="Háškagohppi" />
		<tag k="natural" v="bay" />
		<tag k="ssr:stedsnr" v="576565" />
	</node>
	<node id="-806841" lat="70.0919278099" lon="28.7615740187">
		<tag k="name" v="Ruoššoaigohppi" />
		<tag k="name:se" v="Ruoššoaigohppi" />
		<tag k="natural" v="bay" />
		<tag k="ssr:stedsnr" v="574133" />
	</node>
	<node id="-806840" lat="70.0846805866" lon="28.7481351157">
		<tag k="name" v="Lávrragohppi" />
		<tag k="name:se" v="Lávrragohppi" />
		<tag k="natural" v="bay" />
		<tag k="ssr:stedsnr" v="574132" />
	</node>
	<node id="-806387" lat="70.1103389158" lon="28.600874061">
		<tag k="name" v="Sirddagohppi - Sivertbukt" />
		<tag k="name:no" v="Sivertbukt" />
		<tag k="name:se" v="Sirddagohppi" />
		<tag k="natural" v="bay" />
		<tag k="ssr:stedsnr" v="80778" />
	</node>
	<node id="-807240" lat="70.1098083658" lon="28.6037740695">
		<tag k="name" v="Duommanjárga" />
		<tag k="name:se" v="Duommanjárga" />
		<tag k="natural" v="cape" />
		<tag k="old_name:se" v="Duommanjarga;Duommenjárga" />
		<tag k="ssr:stedsnr" v="929765" />
	</node>
	<node id="-806318" lat="70.1183639159" lon="28.5776601831">
		<tag k="name" v="Stuorravuonbahta" />
		<tag k="name:se" v="Stuorravuonbahta" />
		<tag k="natural" v="bay" />
		<tag k="old_name:se" v="Stuorravuonbatta;Stuorravuon-bahta" />
		<tag k="ssr:stedsnr" v="19777" />
	</node>
	<node id="-806829" lat="70.1233028085" lon="28.5828657434">
		<tag k="fixme" v="consider seamark:type=rock or natural=shoal" />
		<tag k="name" v="Duvdegálli" />
		<tag k="name:se" v="Duvdegálli" />
		<tag k="place" v="islet" />
		<tag k="ssr:stedsnr" v="572702" />
	</node>
	<node id="-806313" lat="70.160866696" lon="28.7391407003">
		<tag k="alt_name:no" v="Angsneset" />
		<tag k="alt_name:se" v="Selisnjárga" />
		<tag k="name" v="Selešnjárga - Angsnes" />
		<tag k="name:no" v="Angsnes" />
		<tag k="name:se" v="Selešnjárga" />
		<tag k="natural" v="cape" />
		<tag k="old_name:no" v="Angnes" />
		<tag k="old_name:se" v="Selešnjarga" />
		<tag k="ssr:stedsnr" v="19757" />
	</node>
	<node id="-806311" lat="70.1288028103" lon="28.6453768364">
		<tag k="name" v="Ráppotgohppi" />
		<tag k="name:se" v="Ráppotgohppi" />
		<tag k="natural" v="bay" />
		<tag k="old_name:se" v="Rabbutgåppi;Rabokgåppi" />
		<tag k="ssr:stedsnr" v="19755" />
	</node>
	<node id="-806307" lat="70.077875036" lon="28.8292406582">
		<tag k="name" v="Oaggunnjárga - Fiskenes" />
		<tag k="name:no" v="Fiskenes" />
		<tag k="name:se" v="Oaggunnjárga" />
		<tag k="natural" v="cape" />
		<tag k="old_name:se" v="Oarggonnjarga" />
		<tag k="ssr:stedsnr" v="19658" />
	</node>
	<node id="-806305" lat="70.1249333665" lon="29.0772405587">
		<tag k="alt_name:no" v="Sørenslåttbukt" />
		<tag k="name" v="Sørenslåttbukta" />
		<tag k="name:no" v="Sørenslåttbukta" />
		<tag k="natural" v="bay" />
		<tag k="ssr:stedsnr" v="19606" />
	</node>
	<node id="-806809" lat="70.1047722577" lon="28.7492990086">
		<tag k="name" v="Stuorragohppi" />
		<tag k="name:se" v="Stuorragohppi" />
		<tag k="natural" v="bay" />
		<tag k="old_name:se" v="Stuorragåppi" />
		<tag k="ssr:stedsnr" v="565807" />
	</node>
	<node id="-806808" lat="70.1065833636" lon="28.6165768534">
		<tag k="name" v="Heargeluokta" />
		<tag k="name:se" v="Heargeluokta" />
		<tag k="natural" v="bay" />
		<tag k="old_name:se" v="Hærgeluokta;Hearge-luokta" />
		<tag k="ssr:stedsnr" v="565804" />
	</node>
	<node id="-806806" lat="70.1166916976" lon="28.6049990861">
		<tag k="bay" v="fjord" />
		<tag k="name" v="Stuorravuonna - Karlebotn" />
		<tag k="name:no" v="Karlebotn" />
		<tag k="name:se" v="Stuorravuonna" />
		<tag k="natural" v="bay" />
		<tag k="ssr:stedsnr" v="565797" />
	</node>
	<node id="-806919" lat="70.1026805852" lon="28.8403739714">
		<tag k="name" v="Ruŋgogohppi" />
		<tag k="name:se" v="Ruŋgogohppi" />
		<tag k="natural" v="bay" />
		<tag k="ssr:stedsnr" v="635215" />
	</node>
	<node id="-806287" lat="70.1212083676" lon="28.964615593">
		<tag k="name" v="Maddevarregrunnen" />
		<tag k="name:no" v="Maddevarregrunnen" />
		<tag k="natural" v="shoal" />
		<tag k="place" v="locality" />
		<tag k="ssr:stedsnr" v="898106" />
	</node>
	<node id="-806285" lat="70.0850666983" lon="28.9416655963">
		<tag k="name" v="Garngrunnen" />
		<tag k="name:no" v="Garngrunnen" />
		<tag k="natural" v="shoal" />
		<tag k="place" v="locality" />
		<tag k="ssr:stedsnr" v="473153" />
	</node>
	<node id="-806283" lat="70.1181250299" lon="28.9975628136">
		<tag k="name" v="Hysegrunnen" />
		<tag k="name:no" v="Hysegrunnen" />
		<tag k="natural" v="shoal" />
		<tag k="place" v="locality" />
		<tag k="ssr:stedsnr" v="413119" />
	</node>
	<node id="-806282" lat="70.1078361484" lon="29.2718015666">
		<tag k="name" v="Skitnelvgrunnen" />
		<tag k="name:no" v="Skitnelvgrunnen" />
		<tag k="natural" v="shoal" />
		<tag k="place" v="locality" />
		<tag k="ssr:stedsnr" v="413091" />
	</node>
	<node id="-806791" lat="70.023402818" lon="29.1394904986">
		<tag k="name" v="Pieragohppi" />
		<tag k="name:se" v="Pieragohppi" />
		<tag k="natural" v="bay" />
		<tag k="old_name:se" v="Pieragåppi" />
		<tag k="ssr:stedsnr" v="565598" />
	</node>
	<node id="-806271" lat="70.0817444799" lon="28.8082795358">
		<tag k="name" v="Gavraidsuolu - Midtre Grasbakkholmen" />
		<tag k="name:no" v="Midtre Grasbakkholmen" />
		<tag k="name:se" v="Gavraidsuolu" />
		<tag k="place" v="islet" />
		<tag k="ssr:stedsnr" v="392189" />
	</node>
	<node id="-806782" lat="70.1510166994" lon="28.7416823522">
		<tag k="fixme" v="multiple name tags, choose one and add the other to alt_name" />
		<tag k="name" v="Čuđoainjárga;Čuđegoađát - Spisshoveneset" />
		<tag k="name:no" v="Spisshoveneset" />
		<tag k="name:se" v="Čuđoainjárga;Čuđegoađát" />
		<tag k="natural" v="cape" />
		<tag k="old_name:se" v="Čuđegoađat" />
		<tag k="ssr:stedsnr" v="564751" />
	</node>
	<node id="-806779" lat="70.0879833622" lon="28.820673979">
		<tag k="alt_name:no" v="Skipperbukt" />
		<tag k="name" v="Skipperbukta" />
		<tag k="name:no" v="Skipperbukta" />
		<tag k="natural" v="bay" />
		<tag k="ssr:stedsnr" v="564662" />
	</node>
	<node id="-806778" lat="70.0748472554" lon="28.8690906279">
		<tag k="name" v="Stavneset" />
		<tag k="name:no" v="Stavneset" />
		<tag k="natural" v="cape" />
		<tag k="ssr:stedsnr" v="534151" />
	</node>
	<node id="-806777" lat="70.1457416955" lon="28.8177434393">
		<tag k="name" v="Burnesgrunnen" />
		<tag k="name:no" v="Burnesgrunnen" />
		<tag k="natural" v="shoal" />
		<tag k="place" v="locality" />
		<tag k="ssr:stedsnr" v="533156" />
	</node>
	<node id="-806774" lat="70.0452833734" lon="29.1092710801">
		<tag k="name" v="Ruoššasuolu" />
		<tag k="name:se" v="Ruoššasuolu" />
		<tag k="place" v="islet" />
		<tag k="ssr:stedsnr" v="515759" />
	</node>
	<node id="-806772" lat="70.0393472631" lon="29.1688099446">
		<tag k="name" v="Beatnatgohppi" />
		<tag k="name:se" v="Beatnatgohppi" />
		<tag k="natural" v="bay" />
		<tag k="ssr:stedsnr" v="515649" />
	</node>
	<node id="-807283" lat="70.046075036" lon="29.1503599356">
		<tag k="name" v="Nieidaváhgohppi" />
		<tag k="name:se" v="Nieidaváhgohppi" />
		<tag k="natural" v="bay" />
		<tag k="ssr:stedsnr" v="940629" />
	</node>
	<node id="-807282" lat="70.0412361497" lon="29.1683766008">
		<tag k="name" v="Átteváhnjárga" />
		<tag k="name:se" v="Átteváhnjárga" />
		<tag k="natural" v="cape" />
		<tag k="ssr:stedsnr" v="940624" />
	</node>
	<node id="-806769" lat="70.0620555891" lon="29.0078433315">
		<tag k="name" v="Válogohppi" />
		<tag k="name:se" v="Válogohppi" />
		<tag k="natural" v="bay" />
		<tag k="ssr:stedsnr" v="515552" />
	</node>
	<node id="-806767" lat="70.0693778164" lon="28.9262406048">
		<tag k="name" v="Heartagohppi" />
		<tag k="name:se" v="Heartagohppi" />
		<tag k="natural" v="bay" />
		<tag k="ssr:stedsnr" v="515538" />
	</node>
	<node id="-806254" lat="70.1701722514" lon="28.5806935506">
		<tag k="name" v="Tangneset" />
		<tag k="name:no" v="Tangneset" />
		<tag k="natural" v="cape" />
		<tag k="ssr:stedsnr" v="390425" />
	</node>
	<node id="-806253" lat="70.1517833631" lon="28.8482795463">
		<tag k="name" v="Ealkoainjárga" />
		<tag k="name:se" v="Ealkoainjárga" />
		<tag k="natural" v="cape" />
		<tag k="ssr:stedsnr" v="390419" />
	</node>
	<node id="-806764" lat="70.0752444766" lon="28.8745100741">
		<tag k="name" v="Ujjogašgohppi" />
		<tag k="name:se" v="Ujjogašgohppi" />
		<tag k="natural" v="bay" />
		<tag k="ssr:stedsnr" v="514243" />
	</node>
	<node id="-806763" lat="70.1037639203" lon="28.733010131">
		<tag k="name" v="Čuosoairiima" />
		<tag k="name:se" v="Čuosoairiima" />
		<tag k="natural" v="bay" />
		<tag k="ssr:stedsnr" v="514239" />
	</node>
	<node id="-806760" lat="70.0864111414" lon="28.7435878953">
		<tag k="name" v="Báršnjárgohppi" />
		<tag k="name:se" v="Báršnjárgohppi" />
		<tag k="natural" v="bay" />
		<tag k="ssr:stedsnr" v="514132" />
	</node>
	<node id="-806759" lat="70.1607139131" lon="28.5805824272">
		<tag k="name" v="Niiles-Máhtenjárga" />
		<tag k="name:se" v="Niiles-Máhtenjárga" />
		<tag k="natural" v="cape" />
		<tag k="ssr:stedsnr" v="513618" />
	</node>
	<node id="-806757" lat="70.1585028059" lon="28.5816102065">
		<tag k="name" v="Båtneset" />
		<tag k="name:no" v="Båtneset" />
		<tag k="natural" v="cape" />
		<tag k="ssr:stedsnr" v="513476" />
	</node>
	<node id="-807268" lat="70.1614305853" lon="28.7603518055">
		<tag k="name" v="Njárgageahči" />
		<tag k="name:se" v="Njárgageahči" />
		<tag k="natural" v="cape" />
		<tag k="ssr:stedsnr" v="936489" />
	</node>
	<node id="-806754" lat="70.1003416945" lon="28.7001157031">
		<tag k="name" v="Stuorrasiidriima" />
		<tag k="name:se" v="Stuorrasiidriima" />
		<tag k="natural" v="bay" />
		<tag k="ssr:stedsnr" v="513058" />
	</node>
	<node id="-807056" lat="70.1081028047" lon="28.6166879605">
		<tag k="fixme" v="consider seamark:type=rock or natural=shoal" />
		<tag k="name" v="Fálisbuođđu - Kvalskjæret" />
		<tag k="name:no" v="Kvalskjæret" />
		<tag k="name:se" v="Fálisbuođđu" />
		<tag k="place" v="islet" />
		<tag k="ssr:stedsnr" v="754728" />
	</node>
	<node id="-806236" lat="70.0955805853" lon="28.6705351595">
		<tag k="alt_name:se" v="Čeavrresjohgohppi" />
		<tag k="name" v="Čeavrresgohppi" />
		<tag k="name:se" v="Čeavrresgohppi" />
		<tag k="natural" v="bay" />
		<tag k="old_name:se" v="Čævresgåppi" />
		<tag k="ssr:stedsnr" v="383796" />
	</node>
	<node id="-806235" lat="70.1317750342" lon="28.6664907195">
		<tag k="alt_name:se" v="Oaivebáhčannjárga" />
		<tag k="name" v="Oaibáhčannjárga - Rabbeneset" />
		<tag k="name:no" v="Rabbeneset" />
		<tag k="name:se" v="Oaibáhčannjárga" />
		<tag k="natural" v="cape" />
		<tag k="old_name:se" v="Oaibaččannjarga" />
		<tag k="ssr:stedsnr" v="383789" />
	</node>
	<node id="-806745" lat="70.1630944735" lon="28.7865906662">
		<tag k="name" v="Áppošbornjárga" />
		<tag k="name:se" v="Áppošbornjárga" />
		<tag k="natural" v="cape" />
		<tag k="ssr:stedsnr" v="511460" />
	</node>
	<node id="-807054" lat="70.1563611443" lon="28.8175740108">
		<tag k="name" v="Bávválgohppi" />
		<tag k="name:se" v="Bávválgohppi" />
		<tag k="natural" v="bay" />
		<tag k="ssr:stedsnr" v="754489" />
	</node>
	<node id="-806737" lat="70.0773278085" lon="28.8164267681">
		<tag k="name" v="Rissebávttgohppi - Grasbakkbukta" />
		<tag k="name:no" v="Grasbakkbukta" />
		<tag k="name:se" v="Rissebávttgohppi" />
		<tag k="natural" v="bay" />
		<tag k="ssr:stedsnr" v="509276" />
	</node>
	<node id="-806735" lat="70.1426278147" lon="28.8546267572">
		<tag k="name" v="Unjárgeahči" />
		<tag k="name:se" v="Unjárgeahči" />
		<tag k="natural" v="cape" />
		<tag k="ssr:stedsnr" v="506036" />
	</node>
	<node id="-806221" lat="70.1314444714" lon="28.7212295839">
		<tag k="fixme" v="consider seamark:type=rock or natural=shoal" />
		<tag k="name" v="Sandskjæret" />
		<tag k="name:no" v="Sandskjæret" />
		<tag k="place" v="islet" />
		<tag k="ssr:stedsnr" v="351332" />
	</node>
	<node id="-806220" lat="70.0475083683" lon="29.1295682897">
		<tag k="name" v="Pieranjárga - Perneset" />
		<tag k="name:no" v="Perneset" />
		<tag k="name:se" v="Pieranjárga" />
		<tag k="natural" v="cape" />
		<tag k="ssr:stedsnr" v="333739" />
	</node>
	<node id="-806731" lat="70.0426194799" lon="29.1612821659">
		<tag k="name" v="Átteváhki" />
		<tag k="name:se" v="Átteváhki" />
		<tag k="natural" v="bay" />
		<tag k="old_name:se" v="Addevakki" />
		<tag k="ssr:stedsnr" v="505688" />
	</node>
	<node id="-806729" lat="70.0544639216" lon="29.0633238797">
		<tag k="name" v="Buoiluokta - Middagsbukta" />
		<tag k="name:no" v="Middagsbukta" />
		<tag k="name:se" v="Buoiluokta" />
		<tag k="natural" v="bay" />
		<tag k="ssr:stedsnr" v="505680" />
	</node>
	<node id="-806216" lat="70.0250305966" lon="29.1471904937">
		<tag k="name" v="Ceagannjárga" />
		<tag k="name:se" v="Ceagannjárga" />
		<tag k="natural" v="cape" />
		<tag k="ssr:stedsnr" v="333646" />
	</node>
	<node id="-806726" lat="70.1299778155" lon="29.0913905418">
		<tag k="name" v="Miennjagohppi" />
		<tag k="name:se" v="Miennjagohppi" />
		<tag k="natural" v="bay" />
		<tag k="old_name:se" v="Miennjagåppi" />
		<tag k="ssr:stedsnr" v="505654" />
	</node>
	<node id="-807004" lat="70.1053722506" lon="28.6765795969">
		<tag k="name" v="Reppengrunnen" />
		<tag k="name:no" v="Reppengrunnen" />
		<tag k="natural" v="shoal" />
		<tag k="place" v="locality" />
		<tag k="ssr:stedsnr" v="715340" />
	</node>
	<node id="-806724" lat="70.0125222595" lon="29.2217793388">
		<tag k="alt_name:no" v="Åpenvika" />
		<tag k="name" v="Suttesjohgohppi - Åpenvikbukta" />
		<tag k="name:no" v="Åpenvikbukta" />
		<tag k="name:se" v="Suttesjohgohppi" />
		<tag k="natural" v="bay" />
		<tag k="old_name:se" v="Suddesjåkgåppi" />
		<tag k="ssr:stedsnr" v="505596" />
	</node>
	<node id="-806723" lat="70.0158361517" lon="29.2407237711">
		<tag k="name" v="Suttesjohnjárga" />
		<tag k="name:se" v="Suttesjohnjárga" />
		<tag k="natural" v="cape" />
		<tag k="old_name:se" v="Suddesjåknjarga" />
		<tag k="ssr:stedsnr" v="505594" />
	</node>
	<node id="-807055" lat="70.17022225" lon="28.7591962466">
		<tag k="name" v="Marmenjárgohppi" />
		<tag k="name:se" v="Marmenjárgohppi" />
		<tag k="natural" v="bay" />
		<tag k="ssr:stedsnr" v="754518" />
	</node>
	<node id="-806718" lat="70.1585111455" lon="28.7587101403">
		<tag k="alt_name:se" v="Geahčegieddnjárga" />
		<tag k="name" v="Geahčeváinjárga" />
		<tag k="name:se" v="Geahčeváinjárga" />
		<tag k="natural" v="cape" />
		<tag k="old_name:se" v="Gæččevajnjarga" />
		<tag k="ssr:stedsnr" v="504860" />
	</node>
	<node id="-807229" lat="70.090869476" lon="28.8479906433">
		<tag k="name" v="Ruŋgonjárga" />
		<tag k="name:se" v="Ruŋgonjárga" />
		<tag k="natural" v="cape" />
		<tag k="old_name:se" v="Ruŋgunjarga" />
		<tag k="ssr:stedsnr" v="929656" />
	</node>
	<node id="-806196" lat="70.152938924" lon="28.8325712174">
		<tag k="fixme" v="consider seamark:type=rock or natural=shoal" />
		<tag k="name" v="Giškanlásis" />
		<tag k="name:se" v="Giškanlásis" />
		<tag k="place" v="islet" />
		<tag k="ssr:stedsnr" v="329421" />
	</node>
	<node id="-806195" lat="70.14681392" lon="28.8978045272">
		<tag k="name" v="Gárgomátta" />
		<tag k="name:se" v="Gárgomátta" />
		<tag k="natural" v="cape" />
		<tag k="ssr:stedsnr" v="329282" />
	</node>
	<node id="-806705" lat="70.0670917041" lon="29.0876183003">
		<tag k="fixme" v="consider seamark:type=rock or natural=shoal" />
		<tag k="name" v="Stuorralásis - Storskjæret" />
		<tag k="name:no" v="Storskjæret" />
		<tag k="name:se" v="Stuorralásis" />
		<tag k="old_name:se" v="Stuorralasis" />
		<tag k="place" v="islet" />
		<tag k="ssr:stedsnr" v="504677" />
	</node>
	<node id="-806190" lat="70.0840083639" lon="28.7752712188">
		<tag k="fixme" v="consider seamark:type=rock or natural=shoal" />
		<tag k="name" v="Viervuonlássá - Storskjær" />
		<tag k="name:no" v="Storskjær" />
		<tag k="name:se" v="Viervuonlássá" />
		<tag k="place" v="islet" />
		<tag k="ssr:stedsnr" v="327276" />
	</node>
	<node id="-806189" lat="70.1235278117" lon="28.6000324044">
		<tag k="name" v="Biggánjárga - Bigganes" />
		<tag k="name:no" v="Bigganes" />
		<tag k="name:se" v="Biggánjárga" />
		<tag k="natural" v="cape" />
		<tag k="old_name:se" v="Bigganjárga" />
		<tag k="ssr:stedsnr" v="327017" />
	</node>
	<node id="-807212" lat="70.0800333652" lon="28.7970212082">
		<tag k="name" v="Čeavdagohppi" />
		<tag k="name:se" v="Čeavdagohppi" />
		<tag k="natural" v="bay" />
		<tag k="ssr:stedsnr" v="878191" />
	</node>
	<node id="-806187" lat="70.0591944781" lon="29.0934877382">
		<tag k="name" v="Láhtanjárga - Latnæringen" />
		<tag k="name:no" v="Latnæringen" />
		<tag k="name:se" v="Láhtanjárga" />
		<tag k="natural" v="cape" />
		<tag k="old_name:se" v="Lattanjarga" />
		<tag k="ssr:stedsnr" v="323692" />
	</node>
	<node id="-806186" lat="70.0620361525" lon="29.0870238565">
		<tag k="alt_name:no" v="Seilskjer;Seilskjær" />
		<tag k="alt_name:se" v="Borjjaslássá" />
		<tag k="fixme" v="consider seamark:type=rock or natural=shoal" />
		<tag k="name" v="Borjjaslásis - Seilskjæret" />
		<tag k="name:no" v="Seilskjæret" />
		<tag k="name:se" v="Borjjaslásis" />
		<tag k="old_name:se" v="Bårjaslasis" />
		<tag k="place" v="islet" />
		<tag k="ssr:stedsnr" v="323691" />
	</node>
	<node id="-806185" lat="70.0470750397" lon="29.1350016118">
		<tag k="name" v="Nieidaváhki" />
		<tag k="name:se" v="Nieidaváhki" />
		<tag k="natural" v="bay" />
		<tag k="old_name:se" v="Nieidavakki" />
		<tag k="ssr:stedsnr" v="323681" />
	</node>
	<node id="-806694" lat="70.0586833687" lon="29.025154433">
		<tag k="name" v="Bielasluovttgohppi" />
		<tag k="name:se" v="Bielasluovttgohppi" />
		<tag k="natural" v="bay" />
		<tag k="ssr:stedsnr" v="455534" />
	</node>
	<node id="-806692" lat="70.0750722519" lon="28.863787858">
		<tag k="fixme" v="consider seamark:type=rock or natural=shoal" />
		<tag k="name" v="Fáleslássá" />
		<tag k="name:se" v="Fáleslássá" />
		<tag k="place" v="islet" />
		<tag k="ssr:stedsnr" v="453244" />
	</node>
	<node id="-806690" lat="70.088838919" lon="28.7983073268">
		<tag k="name" v="Stuorračievra" />
		<tag k="name:se" v="Stuorračievra" />
		<tag k="natural" v="beach" />
		<tag k="place" v="locality" />
		<tag k="ssr:stedsnr" v="453186" />
	</node>
	<node id="-807196" lat="70.1671500284" lon="28.7656017968">
		<tag k="fixme" v="consider seamark:type=rock or natural=shoal" />
		<tag k="name" v="Uhcalássáš" />
		<tag k="name:se" v="Uhcalássáš" />
		<tag k="place" v="islet" />
		<tag k="ssr:stedsnr" v="875482" />
	</node>
	<node id="-807194" lat="70.1616500331" lon="28.7924684619">
		<tag k="name" v="Skuvlanjárga - Skolenes" />
		<tag k="name:no" v="Skolenes" />
		<tag k="name:se" v="Skuvlanjárga" />
		<tag k="natural" v="cape" />
		<tag k="ssr:stedsnr" v="875465" />
	</node>
	<node id="-806681" lat="70.1487805834" lon="28.8570934357">
		<tag k="name" v="Karenláirá" />
		<tag k="name:se" v="Karenláirá" />
		<tag k="natural" v="shoal" />
		<tag k="place" v="locality" />
		<tag k="ssr:stedsnr" v="451331" />
	</node>
	<node id="-807192" lat="70.1936389137" lon="28.7018879477">
		<tag k="alt_name:no" v="Åarnes" />
		<tag k="name" v="Oardanjárga - Aarnes" />
		<tag k="name:no" v="Aarnes" />
		<tag k="name:se" v="Oardanjárga" />
		<tag k="natural" v="cape" />
		<tag k="ssr:stedsnr" v="875425" />
	</node>
	<node id="-807191" lat="70.1141916931" lon="28.5928407373">
		<tag k="name" v="Gohpigárggu" />
		<tag k="name:se" v="Gohpigárggu" />
		<tag k="natural" v="shoal" />
		<tag k="place" v="locality" />
		<tag k="ssr:stedsnr" v="875709" />
	</node>
	<node id="-806677" lat="70.1287361459" lon="29.0890349778">
		<tag k="alt_name:no" v="Per Larsavik" />
		<tag k="name" v="Per Larsavika" />
		<tag k="name:no" v="Per Larsavika" />
		<tag k="natural" v="bay" />
		<tag k="ssr:stedsnr" v="451289" />
	</node>
	<node id="-806158" lat="70.0720972574" lon="28.9194961494">
		<tag k="fixme" v="consider seamark:type=rock or natural=shoal" />
		<tag k="name" v="Dødsskjær" />
		<tag k="name:no" v="Dødsskjær" />
		<tag k="place" v="islet" />
		<tag k="ssr:stedsnr" v="273508" />
	</node>
	<node id="-806669" lat="70.0349111463" lon="29.1773515978">
		<tag k="name" v="Albmánjárga - Gandvikneset" />
		<tag k="name:no" v="Gandvikneset" />
		<tag k="name:se" v="Albmánjárga" />
		<tag k="natural" v="cape" />
		<tag k="old_name:se" v="Albmanjarga" />
		<tag k="ssr:stedsnr" v="445612" />
	</node>
	<node id="-806156" lat="70.0793694782" lon="28.7847795519">
		<tag k="fixme" v="consider seamark:type=rock or natural=shoal" />
		<tag k="name" v="Sávzagálli" />
		<tag k="name:se" v="Sávzagálli" />
		<tag k="place" v="islet" />
		<tag k="ssr:stedsnr" v="271200" />
	</node>
	<node id="-806154" lat="70.0842833659" lon="28.7570295703">
		<tag k="name" v="Gohcibanjárga" />
		<tag k="name:se" v="Gohcibanjárga" />
		<tag k="natural" v="cape" />
		<tag k="ssr:stedsnr" v="271138" />
	</node>
	<node id="-806153" lat="70.0925166954" lon="28.7281851297">
		<tag k="name" v="Gearralgohppi" />
		<tag k="name:se" v="Gearralgohppi" />
		<tag k="natural" v="bay" />
		<tag k="ssr:stedsnr" v="271120" />
	</node>
	<node id="-806664" lat="70.1474417015" lon="28.866935094">
		<tag k="name" v="Unjárga" />
		<tag k="name:se" v="Unjárga" />
		<tag k="natural" v="cape" />
		<tag k="ssr:stedsnr" v="445049" />
	</node>
	<node id="-806151" lat="70.1759194721" lon="28.7121046025">
		<tag k="name" v="Struppnjárga" />
		<tag k="name:se" v="Struppnjárga" />
		<tag k="natural" v="cape" />
		<tag k="ssr:stedsnr" v="270508" />
	</node>
	<node id="-806150" lat="70.162505586" lon="28.6045352035">
		<tag k="name" v="Geinnodatnjárga - Veineset" />
		<tag k="name:no" v="Veineset" />
		<tag k="name:se" v="Geinnodatnjárga" />
		<tag k="natural" v="cape" />
		<tag k="ssr:stedsnr" v="270448" />
	</node>
	<node id="-807053" lat="70.1443861404" lon="28.8470350992">
		<tag k="name" v="Ávekiidbohki" />
		<tag k="name:se" v="Ávekiidbohki" />
		<tag k="natural" v="strait" />
		<tag k="ssr:stedsnr" v="754477" />
	</node>
	<node id="-807171" lat="70.0260806" lon="29.3275154138">
		<tag k="name" v="Juvrrit - Lausklubben" />
		<tag k="name:no" v="Lausklubben" />
		<tag k="name:se" v="Juvrrit" />
		<tag k="old_name:se" v="Juvrit" />
		<tag k="place" v="island" />
		<tag k="ssr:stedsnr" v="869629" />
	</node>
	<node id="-807170" lat="70.0166583758" lon="29.1421932738">
		<tag k="name" v="Juvravuonna - Gandvik" />
		<tag k="name:no" v="Gandvik" />
		<tag k="name:se" v="Juvravuonna" />
		<tag k="natural" v="bay" />
		<tag k="ssr:stedsnr" v="869626" />
	</node>
	<node id="-806657" lat="70.1703944695" lon="28.6290601844">
		<tag k="bay" v="fjord" />
		<tag k="name" v="Mieskavuonna - Meskefjorden" />
		<tag k="name:no" v="Meskefjorden" />
		<tag k="name:se" v="Mieskavuonna" />
		<tag k="natural" v="bay" />
		<tag k="ssr:stedsnr" v="444848" />
	</node>
	<node id="-806797" lat="70.0515278185" lon="29.1184710779">
		<tag k="alt_name:no" v="Makkbukta" />
		<tag k="alt_name:se" v="Máhgohppi" />
		<tag k="name" v="Máhkkagohppi - Makkebukt" />
		<tag k="name:no" v="Makkebukt" />
		<tag k="name:se" v="Máhkkagohppi" />
		<tag k="natural" v="bay" />
		<tag k="old_name:se" v="Makkagåppi" />
		<tag k="ssr:stedsnr" v="565673" />
	</node>
	<node id="-807162" lat="70.1061111453" lon="29.060415561">
		<tag k="name" v="Fugleberggrunnen" />
		<tag k="name:no" v="Fugleberggrunnen" />
		<tag k="natural" v="shoal" />
		<tag k="place" v="locality" />
		<tag k="ssr:stedsnr" v="838141" />
	</node>
	<node id="-807161" lat="70.0542917065" lon="29.056259994">
		<tag k="name" v="Buoiluovttnjárga - Byluftneset" />
		<tag k="name:no" v="Byluftneset" />
		<tag k="name:se" v="Buoiluovttnjárga" />
		<tag k="natural" v="cape" />
		<tag k="ssr:stedsnr" v="819764" />
	</node>
	<node id="-806645" lat="70.1086055861" lon="28.7932434498">
		<tag k="name" v="Šákkošnjárga - Tangsprellneset" />
		<tag k="name:no" v="Tangsprellneset" />
		<tag k="name:se" v="Šákkošnjárga" />
		<tag k="natural" v="cape" />
		<tag k="old_name:se" v="Šaggušnjarga" />
		<tag k="ssr:stedsnr" v="444765" />
	</node>
	<node id="-806644" lat="70.1126611385" lon="28.5790685141">
		<tag k="name" v="Gohpebahta" />
		<tag k="name:se" v="Gohpebahta" />
		<tag k="natural" v="bay" />
		<tag k="old_name:se" v="Gåppelbatta;Gohpibahta" />
		<tag k="ssr:stedsnr" v="444764" />
	</node>
	<node id="-807155" lat="70.0873555882" lon="28.8280156519">
		<tag k="fixme" v="consider seamark:type=rock or natural=shoal" />
		<tag k="name" v="Hánsagálli" />
		<tag k="name:se" v="Hánsagálli" />
		<tag k="place" v="islet" />
		<tag k="ssr:stedsnr" v="818149" />
	</node>
	<node id="-807152" lat="70.0917444742" lon="28.7752545553">
		<tag k="name" v="Láppesgohppi" />
		<tag k="name:se" v="Láppesgohppi" />
		<tag k="natural" v="bay" />
		<tag k="ssr:stedsnr" v="817135" />
	</node>
	<node id="-807149" lat="70.1616305826" lon="28.5953685324">
		<tag k="name" v="Deapponjárga - Tangneset" />
		<tag k="name:no" v="Tangneset" />
		<tag k="name:se" v="Deapponjárga" />
		<tag k="natural" v="cape" />
		<tag k="ssr:stedsnr" v="816465" />
	</node>
	<node id="-806635" lat="70.0681111424" lon="28.9272378314">
		<tag k="name" v="Čoalbmeriddu" />
		<tag k="name:se" v="Čoalbmeriddu" />
		<tag k="natural" v="beach" />
		<tag k="old_name:se" v="Čoalbmeriddo" />
		<tag k="place" v="locality" />
		<tag k="ssr:stedsnr" v="444675" />
	</node>
	<node id="-806951" lat="70.1269167046" lon="29.011201683">
		<tag k="name" v="Ceavccageađgnjárga - Mortensnes" />
		<tag k="name:no" v="Mortensnes" />
		<tag k="name:se" v="Ceavccageađgnjárga" />
		<tag k="natural" v="cape" />
		<tag k="ssr:stedsnr" v="687631" />
	</node>
	<node id="-806632" lat="70.1936389137" lon="28.7018879477">
		<tag k="name" v="Meskelvneset" />
		<tag k="name:no" v="Meskelvneset" />
		<tag k="natural" v="cape" />
		<tag k="ssr:stedsnr" v="268407" />
	</node>
	<node id="-806630" lat="70.1447361384" lon="28.8625628777">
		<tag k="name" v="Unjárgohppi - Nessebybukta" />
		<tag k="name:no" v="Nessebybukta" />
		<tag k="name:se" v="Unjárgohppi" />
		<tag k="natural" v="bay" />
		<tag k="ssr:stedsnr" v="268300" />
	</node>
	<node id="-807141" lat="70.1676639179" lon="28.7730656932">
		<tag k="name" v="Ándarasnjárga - Andersnes" />
		<tag k="name:no" v="Andersnes" />
		<tag k="name:se" v="Ándarasnjárga" />
		<tag k="natural" v="cape" />
		<tag k="ssr:stedsnr" v="815481" />
	</node>
	<node id="-807140" lat="70.1688194703" lon="28.7675573623">
		<tag k="name" v="Fuoiknjárgohppi" />
		<tag k="name:se" v="Fuoiknjárgohppi" />
		<tag k="natural" v="bay" />
		<tag k="ssr:stedsnr" v="815480" />
	</node>
	<node id="-807138" lat="70.1486917034" lon="28.849971202">
		<tag k="fixme" v="consider seamark:type=rock or natural=shoal" />
		<tag k="name" v="Uhcalássáš - Lilleskjær" />
		<tag k="name:no" v="Lilleskjær" />
		<tag k="name:se" v="Uhcalássáš" />
		<tag k="place" v="islet" />
		<tag k="ssr:stedsnr" v="815432" />
	</node>
	<node id="-806625" lat="70.0176333702" lon="29.1793238031">
		<tag k="alt_name:no" v="Østnes;Austneset" />
		<tag k="name" v="Davvenjárga - Ytrenes" />
		<tag k="name:no" v="Ytrenes" />
		<tag k="name:se" v="Davvenjárga" />
		<tag k="natural" v="cape" />
		<tag k="old_name:se" v="Davvenjarga" />
		<tag k="ssr:stedsnr" v="263597" />
	</node>
	<node id="-807136" lat="70.1219833682" lon="29.1686016246">
		<tag k="name" v="Giettáid - Flauan" />
		<tag k="name:no" v="Flauan" />
		<tag k="name:se" v="Giettáid" />
		<tag k="natural" v="beach" />
		<tag k="place" v="locality" />
		<tag k="ssr:stedsnr" v="815370" />
	</node>
	<node id="-807134" lat="70.1505389254" lon="28.8568906466">
		<tag k="name" v="Gunnarnjárga" />
		<tag k="name:se" v="Gunnarnjárga" />
		<tag k="natural" v="cape" />
		<tag k="ssr:stedsnr" v="815304" />
	</node>
	<node id="-806949" lat="70.0117111524" lon="29.2705681939">
		<tag k="name" v="Gávgilgohppi" />
		<tag k="name:se" v="Gávgilgohppi" />
		<tag k="natural" v="bay" />
		<tag k="old_name:se" v="Gavgilgåppi" />
		<tag k="ssr:stedsnr" v="687607" />
	</node>
	<node id="-807131" lat="70.1448361447" lon="28.880626746">
		<tag k="name" v="Gazzanjárgohppi" />
		<tag k="name:se" v="Gazzanjárgohppi" />
		<tag k="natural" v="bay" />
		<tag k="ssr:stedsnr" v="815269" />
	</node>
	<node id="-807129" lat="70.1026139194" lon="28.7112351406">
		<tag k="name" v="Áidenjárgohppi" />
		<tag k="name:se" v="Áidenjárgohppi" />
		<tag k="natural" v="bay" />
		<tag k="ssr:stedsnr" v="812307" />
	</node>
	<node id="-806616" lat="70.0935278104" lon="28.7375045747">
		<tag k="alt_name:se" v="Viervuonbahta" />
		<tag k="name" v="Vieravuonbahta - Veidnesbotn" />
		<tag k="name:no" v="Veidnesbotn" />
		<tag k="name:se" v="Vieravuonbahta" />
		<tag k="natural" v="bay" />
		<tag k="old_name:se" v="Vieravuonbatta" />
		<tag k="ssr:stedsnr" v="262820" />
	</node>
	<node id="-806613" lat="70.1323805855" lon="28.7349073507">
		<tag k="name" v="Gáškkut" />
		<tag k="name:se" v="Gáškkut" />
		<tag k="natural" v="cape" />
		<tag k="old_name:se" v="Gaškot" />
		<tag k="ssr:stedsnr" v="262806" />
	</node>
	<node id="-807290" lat="70.1065389229" lon="28.8494239895">
		<tag k="name" v="Kistegrunnen" />
		<tag k="name:no" v="Kistegrunnen" />
		<tag k="natural" v="shoal" />
		<tag k="place" v="locality" />
		<tag k="ssr:stedsnr" v="959138" />
	</node>
	<node id="-807120" lat="70.1689694692" lon="28.5776935421">
		<tag k="name" v="Cagannjárga - Tjeldneset" />
		<tag k="name:no" v="Tjeldneset" />
		<tag k="name:se" v="Cagannjárga" />
		<tag k="natural" v="cape" />
		<tag k="old_name:se" v="Cagannjarga" />
		<tag k="ssr:stedsnr" v="808870" />
	</node>
	<node id="-807119" lat="70.1620139127" lon="28.5841685399">
		<tag k="name" v="Nuortalašnjárga - Skolteneset" />
		<tag k="name:no" v="Skolteneset" />
		<tag k="name:se" v="Nuortalašnjárga" />
		<tag k="natural" v="cape" />
		<tag k="old_name:se" v="Nuortalašnjarga" />
		<tag k="ssr:stedsnr" v="808867" />
	</node>
	<node id="-807118" lat="70.1650166972" lon="28.7451212424">
		<tag k="name" v="Soabbenjárga" />
		<tag k="name:se" v="Soabbenjárga" />
		<tag k="natural" v="cape" />
		<tag k="old_name:se" v="Soabbenjarga" />
		<tag k="ssr:stedsnr" v="808866" />
	</node>
	<node id="-807116" lat="70.1692750312" lon="28.7647351228">
		<tag k="name" v="Fuoiknjárga - Bunes" />
		<tag k="name:no" v="Bunes" />
		<tag k="name:se" v="Fuoiknjárga" />
		<tag k="natural" v="cape" />
		<tag k="ssr:stedsnr" v="808864" />
	</node>
	<node id="-806603" lat="70.0617417051" lon="28.9840238987">
		<tag k="name" v="Niibereahpengohppi" />
		<tag k="name:se" v="Niibereahpengohppi" />
		<tag k="natural" v="bay" />
		<tag k="old_name:se" v="Niiberæppengåppi" />
		<tag k="ssr:stedsnr" v="262706" />
	</node>
	<node id="-806600" lat="70.1420111417" lon="28.9225378419">
		<tag k="alt_name:no" v="Hammernes;Hammarneset" />
		<tag k="name" v="Veašenjárga - Hammarnes" />
		<tag k="name:no" v="Hammarnes" />
		<tag k="name:se" v="Veašenjárga" />
		<tag k="natural" v="cape" />
		<tag k="old_name:se" v="Væšenjarga" />
		<tag k="ssr:stedsnr" v="262656" />
	</node>
	<node id="-806596" lat="70.1676666905" lon="28.5730602078">
		<tag k="name" v="Njiđgogáddi" />
		<tag k="name:se" v="Njiđgogáddi" />
		<tag k="natural" v="beach" />
		<tag k="old_name:se" v="Njiđgogaddi" />
		<tag k="place" v="locality" />
		<tag k="ssr:stedsnr" v="261841" />
	</node>
	<node id="-807105" lat="70.102880582" lon="28.6449323868">
		<tag k="name" v="Gállásiidgohppi" />
		<tag k="name:se" v="Gállásiidgohppi" />
		<tag k="natural" v="bay" />
		<tag k="old_name:se" v="Gallasiidgåppi;Gallasaigåppi" />
		<tag k="ssr:stedsnr" v="808790" />
	</node>
	<node id="-806592" lat="70.1090972556" lon="28.7694017812">
		<tag k="fixme" v="consider seamark:type=rock or natural=shoal" />
		<tag k="name" v="Skarvskjæret" />
		<tag k="name:no" v="Skarvskjæret" />
		<tag k="place" v="islet" />
		<tag k="ssr:stedsnr" v="231183" />
	</node>
	<node id="-806590" lat="70.1737778124" lon="28.7423268151">
		<tag k="name" v="Marmeneset" />
		<tag k="name:no" v="Marmeneset" />
		<tag k="natural" v="cape" />
		<tag k="ssr:stedsnr" v="229179" />
	</node>
	<node id="-806589" lat="70.1275000352" lon="28.8616656505">
		<tag k="name" v="Nessebygrunnen" />
		<tag k="name:no" v="Nessebygrunnen" />
		<tag k="natural" v="shoal" />
		<tag k="place" v="locality" />
		<tag k="ssr:stedsnr" v="229161" />
	</node>
	<node id="-806585" lat="70.0176944808" lon="29.1528877183">
		<tag k="fixme" v="consider seamark:type=rock or natural=shoal" />
		<tag k="name" v="Juvrovuonlássá" />
		<tag k="name:se" v="Juvrovuonlássá" />
		<tag k="place" v="islet" />
		<tag k="ssr:stedsnr" v="212650" />
	</node>
	<node id="-807028" lat="70.1009028097" lon="28.6517407145">
		<tag k="name" v="Bitkonjárga - Reppenneset" />
		<tag k="name:no" v="Reppenneset" />
		<tag k="name:se" v="Bitkonjárga" />
		<tag k="natural" v="cape" />
		<tag k="old_name:se" v="Bitkunjarga" />
		<tag k="ssr:stedsnr" v="747790" />
	</node>
	<node id="-806581" lat="70.0725194788" lon="28.9100933754">
		<tag k="name" v="Návdesuolgohppi" />
		<tag k="name:se" v="Návdesuolgohppi" />
		<tag k="natural" v="bay" />
		<tag k="ssr:stedsnr" v="212517" />
	</node>
	<node id="-806580" lat="70.1047667012" lon="28.8322462096">
		<tag k="name" v="Čohkoainjárga" />
		<tag k="name:se" v="Čohkoainjárga" />
		<tag k="natural" v="cape" />
		<tag k="ssr:stedsnr" v="211230" />
	</node>
	<node id="-807091" lat="70.073411144" lon="28.903323951">
		<tag k="name" v="Guovllasbohki" />
		<tag k="name:se" v="Guovllasbohki" />
		<tag k="natural" v="bay" />
		<tag k="old_name:se" v="Guovlasbåkki" />
		<tag k="ssr:stedsnr" v="808676" />
	</node>
	<node id="-807090" lat="70.143919474" lon="28.8846739574">
		<tag k="name" v="Gazzanjárga - Klauvnes" />
		<tag k="name:no" v="Klauvnes" />
		<tag k="name:se" v="Gazzanjárga" />
		<tag k="natural" v="cape" />
		<tag k="ssr:stedsnr" v="808645" />
	</node>
	<node id="-806577" lat="70.0926250312" lon="28.754410127">
		<tag k="name" v="Gieddesulloš" />
		<tag k="name:se" v="Gieddesulloš" />
		<tag k="place" v="islet" />
		<tag k="ssr:stedsnr" v="211136" />
	</node>
	<node id="-807112" lat="70.1739889217" lon="28.57621576">
		<tag k="name" v="Guotkamašriddu" />
		<tag k="name:se" v="Guotkamašriddu" />
		<tag k="natural" v="beach" />
		<tag k="old_name:se" v="Guotkamašriddo;Guotkemasriddu" />
		<tag k="place" v="locality" />
		<tag k="ssr:stedsnr" v="808845" />
	</node>
	<node id="-807086" lat="70.0721083658" lon="28.9540044791">
		<tag k="name" v="Skarvskjærgrunnen" />
		<tag k="name:no" v="Skarvskjærgrunnen" />
		<tag k="natural" v="shoal" />
		<tag k="place" v="locality" />
		<tag k="ssr:stedsnr" v="777126" />
	</node>
	<node id="-806570" lat="70.1064583678" lon="28.618982388">
		<tag k="name" v="Sáranjárga" />
		<tag k="name:se" v="Sáranjárga" />
		<tag k="natural" v="cape" />
		<tag k="ssr:stedsnr" v="208737" />
	</node>
	<node id="-806569" lat="70.1122000276" lon="28.5930574035">
		<tag k="name" v="Vuostinváhnjárga" />
		<tag k="name:se" v="Vuostinváhnjárga" />
		<tag k="natural" v="cape" />
		<tag k="ssr:stedsnr" v="208731" />
	</node>
	<node id="-806568" lat="70.1122417006" lon="28.5872101842">
		<tag k="name" v="Siskkit Váhki" />
		<tag k="name:se" v="Siskkit Váhki" />
		<tag k="natural" v="bay" />
		<tag k="ssr:stedsnr" v="208732" />
	</node>
	<node id="-806566" lat="70.1554583632" lon="28.8199851061">
		<tag k="name" v="Beaivenjárga - Solnes" />
		<tag k="name:no" v="Solnes" />
		<tag k="name:se" v="Beaivenjárga" />
		<tag k="natural" v="cape" />
		<tag k="ssr:stedsnr" v="208461" />
	</node>
	<node id="-807281" lat="70.0595972561" lon="29.0220877859">
		<tag k="name" v="Ruoššoaigohppi" />
		<tag k="name:se" v="Ruoššoaigohppi" />
		<tag k="natural" v="bay" />
		<tag k="ssr:stedsnr" v="940532" />
	</node>
	<node id="-807076" lat="70.0202555931" lon="29.1309016019">
		<tag k="name" v="Sáttogohppi" />
		<tag k="name:se" v="Sáttogohppi" />
		<tag k="natural" v="bay" />
		<tag k="ssr:stedsnr" v="758669" />
	</node>
	<node id="-806563" lat="70.1219833682" lon="29.1686016246">
		<tag k="name" v="Giettáidnjárga" />
		<tag k="name:se" v="Giettáidnjárga" />
		<tag k="natural" v="cape" />
		<tag k="ssr:stedsnr" v="208368" />
	</node>
	<node id="-807073" lat="70.0650472583" lon="28.9663794791">
		<tag k="name" v="Háškasullobohki" />
		<tag k="name:se" v="Háškasullobohki" />
		<tag k="natural" v="strait" />
		<tag k="ssr:stedsnr" v="758605" />
	</node>
	<node id="-807071" lat="70.0882694818" lon="28.8012850935">
		<tag k="fixme" v="consider seamark:type=rock or natural=shoal" />
		<tag k="name" v="Bealsagálli" />
		<tag k="name:se" v="Bealsagálli" />
		<tag k="place" v="islet" />
		<tag k="ssr:stedsnr" v="757146" />
	</node>
	<node id="-807070" lat="70.0805472542" lon="28.7924156565">
		<tag k="name" v="Vuonat suolu - Vestre Grasbakkholmen" />
		<tag k="name:no" v="Vestre Grasbakkholmen" />
		<tag k="name:se" v="Vuonat suolu" />
		<tag k="place" v="islet" />
		<tag k="ssr:stedsnr" v="757111" />
	</node>
	<node id="-806556" lat="70.1759361415" lon="28.7109684845">
		<tag k="name" v="Gorgŋetakgohppi" />
		<tag k="name:se" v="Gorgŋetakgohppi" />
		<tag k="natural" v="bay" />
		<tag k="old_name:se" v="Gårŋetakgåppi" />
		<tag k="ssr:stedsnr" v="206275" />
	</node>
	<node id="-806555" lat="70.0584194834" lon="29.1090682927">
		<tag k="name" v="Dealpu - Krokneset" />
		<tag k="name:no" v="Krokneset" />
		<tag k="name:se" v="Dealpu" />
		<tag k="natural" v="cape" />
		<tag k="old_name:se" v="Dælpo;Dealpo" />
		<tag k="ssr:stedsnr" v="202682" />
	</node>
	<node id="-806554" lat="70.1247278098" lon="29.1498655208">
		<tag k="alt_name:no" v="Tjukkenasen" />
		<tag k="name" v="Gassanjárga - Tjukkeneset" />
		<tag k="name:no" v="Tjukkeneset" />
		<tag k="name:se" v="Gassanjárga" />
		<tag k="natural" v="cape" />
		<tag k="ssr:stedsnr" v="202662" />
	</node>
	<node id="-806255" lat="70.1696055811" lon="28.5694991058">
		<tag k="name" v="Savdnjanjárga - Sauaneset" />
		<tag k="name:no" v="Sauaneset" />
		<tag k="name:se" v="Savdnjanjárga" />
		<tag k="natural" v="cape" />
		<tag k="ssr:stedsnr" v="390428" />
	</node>
	<node id="-806550" lat="70.1637666956" lon="28.7511740204">
		<tag k="name" v="Čeavángohppi" />
		<tag k="name:se" v="Čeavángohppi" />
		<tag k="natural" v="bay" />
		<tag k="old_name:se" v="Čævangåppi" />
		<tag k="ssr:stedsnr" v="201854" />
	</node>
	<node id="-806544" lat="70.080919474" lon="28.8008767728">
		<tag k="name" v="Rissebávttsullot - Grasbakkholman" />
		<tag k="name:no" v="Grasbakkholman" />
		<tag k="name:se" v="Rissebávttsullot" />
		<tag k="old_name:se" v="Rissebavtsullut" />
		<tag k="place" v="islet" />
		<tag k="ssr:stedsnr" v="201796" />
	</node>
	<node id="-806543" lat="70.0795167002" lon="28.8466350909">
		<tag k="alt_name:se" v="Viervuonna" />
		<tag k="bay" v="fjord" />
		<tag k="name" v="Vieravuotna - Veidnesfjorden" />
		<tag k="name:no" v="Veidnesfjorden" />
		<tag k="name:se" v="Vieravuotna" />
		<tag k="natural" v="bay" />
		<tag k="old_name:se" v="Vieravuodna" />
		<tag k="ssr:stedsnr" v="201788" />
	</node>
	<node id="-806542" lat="70.0819944718" lon="28.7622351222">
		<tag k="name" v="Áttegieddnjárga" />
		<tag k="name:se" v="Áttegieddnjárga" />
		<tag k="natural" v="cape" />
		<tag k="old_name:se" v="Addegieddnjarga" />
		<tag k="ssr:stedsnr" v="201787" />
	</node>
	<node id="-806266" lat="70.0964833631" lon="28.6729268165">
		<tag k="name" v="Čeavrresjohnjárga" />
		<tag k="name:se" v="Čeavrresjohnjárga" />
		<tag k="natural" v="cape" />
		<tag k="ssr:stedsnr" v="391070" />
	</node>
	<node id="-806540" lat="70.104013919" lon="28.7128962528">
		<tag k="alt_name:se" v="Gjerdeneset" />
		<tag k="name" v="Áidenjárga" />
		<tag k="name:se" v="Áidenjárga" />
		<tag k="natural" v="cape" />
		<tag k="old_name:se" v="Aidenjarga" />
		<tag k="ssr:stedsnr" v="201778" />
	</node>
	<node id="-806539" lat="70.101294474" lon="28.7037934811">
		<tag k="name" v="Guhkesnjárga" />
		<tag k="name:se" v="Guhkesnjárga" />
		<tag k="natural" v="cape" />
		<tag k="old_name:se" v="Gukkesnjarga" />
		<tag k="ssr:stedsnr" v="201774" />
	</node>
	<node id="-807047" lat="70.1353861427" lon="28.7808573456">
		<tag k="name" v="Várjavuonsuolu - Sjøholmen" />
		<tag k="name:no" v="Sjøholmen" />
		<tag k="name:se" v="Várjavuonsuolu" />
		<tag k="place" v="islet" />
		<tag k="ssr:stedsnr" v="752706" />
	</node>
	<node id="-806529" lat="70.1308861487" lon="29.1142933282">
		<tag k="name" v="Mihkkalgohppi - Klubbvika" />
		<tag k="name:no" v="Klubbvika" />
		<tag k="name:se" v="Mihkkalgohppi" />
		<tag k="natural" v="bay" />
		<tag k="old_name:se" v="Mikkalgåppi" />
		<tag k="ssr:stedsnr" v="201597" />
	</node>
	<node id="-806528" lat="70.1239500359" lon="29.015051689">
		<tag k="name" v="Handelsneset" />
		<tag k="name:no" v="Handelsneset" />
		<tag k="natural" v="cape" />
		<tag k="ssr:stedsnr" v="201595" />
	</node>
	<node id="-807104" lat="70.129938922" lon="28.7662351257">
		<tag k="name" v="Forfáŋgár" />
		<tag k="name:se" v="Forfáŋgár" />
		<tag k="natural" v="beach" />
		<tag k="old_name:se" v="Fårfaŋgar" />
		<tag k="place" v="locality" />
		<tag k="ssr:stedsnr" v="808775" />
	</node>
	<node id="-806524" lat="70.0744111457" lon="28.9108878308">
		<tag k="name" v="Návdesuolu - Revholmen" />
		<tag k="name:no" v="Revholmen" />
		<tag k="name:se" v="Návdesuolu" />
		<tag k="old_name:se" v="Navdesuolo" />
		<tag k="place" v="islet" />
		<tag k="ssr:stedsnr" v="201655" />
	</node>
	<node id="-806523" lat="70.1062166964" lon="28.8225184216">
		<tag k="fixme" v="consider seamark:type=rock or natural=shoal" />
		<tag k="name" v="Čillagálli" />
		<tag k="name:se" v="Čillagálli" />
		<tag k="old_name:se" v="Čillagalli" />
		<tag k="place" v="islet" />
		<tag k="ssr:stedsnr" v="201645" />
	</node>
	<node id="-806521" lat="70.1441444767" lon="28.8388628735">
		<tag k="name" v="Ávehat - Løkholmen" />
		<tag k="name:no" v="Løkholmen" />
		<tag k="name:se" v="Ávehat" />
		<tag k="old_name:se" v="Avehat" />
		<tag k="place" v="islet" />
		<tag k="ssr:stedsnr" v="201615" />
	</node>
	<node id="-806519" lat="70.0888361466" lon="28.8031295347">
		<tag k="name" v="Pelsneset" />
		<tag k="name:no" v="Pelsneset" />
		<tag k="natural" v="cape" />
		<tag k="ssr:stedsnr" v="170151" />
	</node>
	<node id="-806518" lat="70.1230139265" lon="29.0206294742">
		<tag k="name" v="Ytterneset" />
		<tag k="name:no" v="Ytterneset" />
		<tag k="natural" v="cape" />
		<tag k="ssr:stedsnr" v="170110" />
	</node>
	<node id="-806517" lat="70.1475305884" lon="28.6419768519">
		<tag k="name" v="Sælesneset" />
		<tag k="name:no" v="Sælesneset" />
		<tag k="natural" v="cape" />
		<tag k="ssr:stedsnr" v="169332" />
	</node>
	<node id="-806516" lat="70.1636916992" lon="28.7027823832">
		<tag k="name" v="Svartsteinneset" />
		<tag k="name:no" v="Svartsteinneset" />
		<tag k="natural" v="cape" />
		<tag k="ssr:stedsnr" v="169302" />
	</node>
	<node id="-807023" lat="70.1345722564" lon="28.8125128956">
		<tag k="name" v="Suologeahči" />
		<tag k="name:se" v="Suologeahči" />
		<tag k="natural" v="cape" />
		<tag k="old_name:se" v="Suolugæčči" />
		<tag k="ssr:stedsnr" v="747757" />
	</node>
	<node id="-806510" lat="70.0209361485" lon="29.1355627277">
		<tag k="name" v="Pieranjárga" />
		<tag k="name:se" v="Pieranjárga" />
		<tag k="natural" v="cape" />
		<tag k="ssr:stedsnr" v="151660" />
	</node>
	<node id="-806508" lat="70.0187194843" lon="29.12124883">
		<tag k="name" v="Jovnnagieddi" />
		<tag k="name:se" v="Jovnnagieddi" />
		<tag k="natural" v="beach" />
		<tag k="place" v="locality" />
		<tag k="ssr:stedsnr" v="151646" />
	</node>
	<node id="-806503" lat="70.0784167016" lon="28.7878684475">
		<tag k="name" v="Báŋkogohppi" />
		<tag k="name:se" v="Báŋkogohppi" />
		<tag k="natural" v="bay" />
		<tag k="ssr:stedsnr" v="150165" />
	</node>
	<node id="-807014" lat="70.1356861426" lon="28.9737600493">
		<tag k="name" v="Gurluovttgohppi - Godluktbukt" />
		<tag k="name:no" v="Godluktbukt" />
		<tag k="name:se" v="Gurluovttgohppi" />
		<tag k="natural" v="bay" />
		<tag k="old_name:se" v="Gurluovtgåppi" />
		<tag k="ssr:stedsnr" v="747655" />
	</node>
	<node id="-806501" lat="70.0859889169" lon="28.7474323434">
		<tag k="name" v="Báršnjárga" />
		<tag k="name:se" v="Báršnjárga" />
		<tag k="natural" v="cape" />
		<tag k="ssr:stedsnr" v="150113" />
	</node>
	<node id="-806502" lat="70.0928305842" lon="28.7487240104">
		<tag k="name" v="Suohpanjárga - Sopneset" />
		<tag k="name:no" v="Sopneset" />
		<tag k="name:se" v="Suohpanjárga" />
		<tag k="natural" v="cape" />
		<tag k="ssr:stedsnr" v="150119" />
	</node>
	<node id="-806498" lat="70.0572361452" lon="29.0387100016">
		<tag k="name" v="Buollánnjárga" />
		<tag k="name:se" v="Buollánnjárga" />
		<tag k="natural" v="cape" />
		<tag k="ssr:stedsnr" v="149225" />
	</node>
	<node id="-806494" lat="70.1738528028" lon="28.5793879929">
		<tag k="name" v="Hándalriddu" />
		<tag k="name:se" v="Hándalriddu" />
		<tag k="natural" v="beach" />
		<tag k="place" v="locality" />
		<tag k="ssr:stedsnr" v="148500" />
	</node>
	<node id="-806493" lat="70.1749444727" lon="28.5864824215">
		<tag k="name" v="Hearráidnjárga" />
		<tag k="name:se" v="Hearráidnjárga" />
		<tag k="natural" v="cape" />
		<tag k="ssr:stedsnr" v="148496" />
	</node>
	<node id="-806492" lat="70.1586805877" lon="28.5843768638">
		<tag k="name" v="Junno-Máhtenjárga" />
		<tag k="name:se" v="Junno-Máhtenjárga" />
		<tag k="natural" v="cape" />
		<tag k="ssr:stedsnr" v="148458" />
	</node>
	<node id="-807003" lat="70.1163889168" lon="28.6643046037">
		<tag k="name" v="Midtgrunnen" />
		<tag k="name:no" v="Midtgrunnen" />
		<tag k="natural" v="shoal" />
		<tag k="place" v="locality" />
		<tag k="ssr:stedsnr" v="715338" />
	</node>
	<node id="-807002" lat="70.0500000329" lon="29.1050460768">
		<tag k="name" v="Dákkosáttu" />
		<tag k="name:se" v="Dákkosáttu" />
		<tag k="natural" v="beach" />
		<tag k="place" v="locality" />
		<tag k="ssr:stedsnr" v="697741" />
	</node>
	<node id="-807001" lat="70.0471055916" lon="29.1204905016">
		<tag k="name" v="Skuvlameaštárláttu" />
		<tag k="name:se" v="Skuvlameaštárláttu" />
		<tag k="natural" v="bay" />
		<tag k="ssr:stedsnr" v="697739" />
	</node>
	<node id="-806485" lat="70.1542305857" lon="28.8408156521">
		<tag k="name" v="Ealkoaigohppi" />
		<tag k="name:se" v="Ealkoaigohppi" />
		<tag k="natural" v="bay" />
		<tag k="ssr:stedsnr" v="147442" />
	</node>
	<node id="-806996" lat="70.0735416995" lon="28.8991683895">
		<tag k="name" v="Lohkkaváhki" />
		<tag k="name:se" v="Lohkkaváhki" />
		<tag k="natural" v="bay" />
		<tag k="ssr:stedsnr" v="697512" />
	</node>
	<node id="-806995" lat="70.0591055941" lon="29.1042044117">
		<tag k="name" v="Gáranasbávttgohppi" />
		<tag k="name:se" v="Gáranasbávttgohppi" />
		<tag k="natural" v="bay" />
		<tag k="ssr:stedsnr" v="696828" />
	</node>
	<node id="-806482" lat="70.1235416995" lon="29.0687405394">
		<tag k="name" v="Torvneset" />
		<tag k="name:no" v="Torvneset" />
		<tag k="natural" v="cape" />
		<tag k="ssr:stedsnr" v="147271" />
	</node>
	<node id="-806993" lat="70.1073500342" lon="28.7932601222">
		<tag k="name" v="Šákkošnjárgohppi" />
		<tag k="name:se" v="Šákkošnjárgohppi" />
		<tag k="natural" v="bay" />
		<tag k="ssr:stedsnr" v="696235" />
	</node>
	<node id="-806992" lat="70.075552809" lon="28.8686184058">
		<tag k="fixme" v="consider seamark:type=rock or natural=shoal" />
		<tag k="name" v="Soabbelássá - Stavskjær" />
		<tag k="name:no" v="Stavskjær" />
		<tag k="name:se" v="Soabbelássá" />
		<tag k="place" v="islet" />
		<tag k="ssr:stedsnr" v="696225" />
	</node>
	<node id="-806478" lat="70.1252611417" lon="28.9966350242">
		<tag k="fixme" v="consider seamark:type=rock or natural=shoal" />
		<tag k="name" v="Urralásis - Vardeskjæret" />
		<tag k="name:no" v="Vardeskjæret" />
		<tag k="name:se" v="Urralásis" />
		<tag k="place" v="islet" />
		<tag k="ssr:stedsnr" v="145081" />
	</node>
	<node id="-806477" lat="70.1722250294" lon="28.5745352132">
		<tag k="name" v="Vuonnabahta" />
		<tag k="name:se" v="Vuonnabahta" />
		<tag k="natural" v="bay" />
		<tag k="ssr:stedsnr" v="142026" />
	</node>
	<node id="-806475" lat="70.1762055847" lon="28.6758768447">
		<tag k="name" v="Álddanjárga" />
		<tag k="name:se" v="Álddanjárga" />
		<tag k="natural" v="cape" />
		<tag k="ssr:stedsnr" v="140850" />
	</node>
	<node id="-806978" lat="70.1581416996" lon="28.8074990017">
		<tag k="name" v="Njallanjárga" />
		<tag k="name:se" v="Njallanjárga" />
		<tag k="natural" v="cape" />
		<tag k="ssr:stedsnr" v="694448" />
	</node>
	<node id="-806466" lat="70.0966750354" lon="28.6548407109">
		<tag k="name" v="Reahpengohppi" />
		<tag k="name:se" v="Reahpengohppi" />
		<tag k="natural" v="bay" />
		<tag k="old_name:se" v="Ræppengåppi" />
		<tag k="ssr:stedsnr" v="140783" />
	</node>
	<node id="-806464" lat="70.1058805897" lon="28.7577823467">
		<tag k="name" v="Fálesnjárga - Kvalnes" />
		<tag k="name:no" v="Kvalnes" />
		<tag k="name:se" v="Fálesnjárga" />
		<tag k="natural" v="cape" />
		<tag k="old_name:se" v="Falesnjarga" />
		<tag k="ssr:stedsnr" v="140768" />
	</node>
	<node id="-806975" lat="70.1510944728" lon="28.8486045531">
		<tag k="fixme" v="consider seamark:type=rock or natural=shoal" />
		<tag k="name" v="Ealkoailásis" />
		<tag k="name:se" v="Ealkoailásis" />
		<tag k="place" v="islet" />
		<tag k="ssr:stedsnr" v="693450" />
	</node>
	<node id="-806971" lat="70.1458583648" lon="28.8920906229">
		<tag k="name" v="Nuortalašgavva" />
		<tag k="name:se" v="Nuortalašgavva" />
		<tag k="natural" v="beach" />
		<tag k="place" v="locality" />
		<tag k="ssr:stedsnr" v="693322" />
	</node>
	<node id="-806279" lat="70.0150667043" lon="29.2011182342">
		<tag k="name" v="Háns-Uvlláluokta" />
		<tag k="name:se" v="Háns-Uvlláluokta" />
		<tag k="natural" v="bay" />
		<tag k="ssr:stedsnr" v="394709" />
	</node>
	<node id="-806454" lat="70.1656861411" lon="28.7651212411">
		<tag k="fixme" v="consider seamark:type=rock or natural=shoal" />
		<tag k="name" v="Bunesskjær" />
		<tag k="name:no" v="Bunesskjær" />
		<tag k="place" v="islet" />
		<tag k="ssr:stedsnr" v="268492" />
	</node>
	<node id="-807029" lat="70.0989555924" lon="28.7945656636">
		<tag k="alt_name:se" v="Viernjárga" />
		<tag k="name" v="Vieranjárga - Veidneset" />
		<tag k="name:no" v="Veidneset" />
		<tag k="name:se" v="Vieranjárga" />
		<tag k="natural" v="cape" />
		<tag k="old_name:se" v="Vieranjarga" />
		<tag k="ssr:stedsnr" v="747795" />
	</node>
	<node id="-806451" lat="70.0747083689" lon="28.963085036">
		<tag k="name" v="Naskholmgrunnen" />
		<tag k="name:no" v="Naskholmgrunnen" />
		<tag k="natural" v="shoal" />
		<tag k="place" v="locality" />
		<tag k="ssr:stedsnr" v="109127" />
	</node>
	<node id="-806450" lat="70.1571389152" lon="28.753362924">
		<tag k="name" v="Pålsneset" />
		<tag k="name:no" v="Pålsneset" />
		<tag k="natural" v="cape" />
		<tag k="ssr:stedsnr" v="108335" />
	</node>
	<node id="-806579" lat="70.0788500305" lon="28.7719601044">
		<tag k="name" v="Viennagohppi" />
		<tag k="name:se" v="Viennagohppi" />
		<tag k="natural" v="bay" />
		<tag k="ssr:stedsnr" v="211170" />
	</node>
	<node id="-806152" lat="70.1083055869" lon="28.6324573879">
		<tag k="fixme" v="consider seamark:type=rock or natural=shoal" />
		<tag k="name" v="Reahpenlássát - Reppenskjæret" />
		<tag k="name:no" v="Reppenskjæret" />
		<tag k="name:se" v="Reahpenlássát" />
		<tag k="place" v="islet" />
		<tag k="ssr:stedsnr" v="271067" />
	</node>
	<node id="-806578" lat="70.0814805876" lon="28.7997906587">
		<tag k="name" v="Stuorragohppi" />
		<tag k="name:se" v="Stuorragohppi" />
		<tag k="natural" v="bay" />
		<tag k="ssr:stedsnr" v="211165" />
	</node>
	<node id="-806954" lat="70.1462750369" lon="28.9020350723">
		<tag k="name" v="Suovvejohgohppi" />
		<tag k="name:se" v="Suovvejohgohppi" />
		<tag k="natural" v="bay" />
		<tag k="old_name:se" v="Suovvejåkgåppi" />
		<tag k="ssr:stedsnr" v="687650" />
	</node>
	<node id="-807175" lat="70.0667444797" lon="28.965362797">
		<tag k="name" v="Háškasuolu - Naskholmen" />
		<tag k="name:no" v="Naskholmen" />
		<tag k="name:se" v="Háškasuolu" />
		<tag k="old_name:se" v="Haškasuolo" />
		<tag k="place" v="islet" />
		<tag k="ssr:stedsnr" v="869710" />
	</node>
	<node id="-806439" lat="70.0757028088" lon="28.8425711988">
		<tag k="name" v="Ođđajohnjárga" />
		<tag k="name:se" v="Ođđajohnjárga" />
		<tag k="natural" v="cape" />
		<tag k="ssr:stedsnr" v="89219" />
	</node>
	<node id="-806437" lat="70.0801194812" lon="28.8130823108">
		<tag k="name" v="Davit suolu - Ytre Grasbakkholmen" />
		<tag k="name:no" v="Ytre Grasbakkholmen" />
		<tag k="name:se" v="Davit suolu" />
		<tag k="place" v="islet" />
		<tag k="ssr:stedsnr" v="89178" />
	</node>
	<node id="-807087" lat="70.0718917025" lon="28.9590850359">
		<tag k="name" v="Naskholmstein" />
		<tag k="name:no" v="Naskholmstein" />
		<tag k="natural" v="shoal" />
		<tag k="place" v="locality" />
		<tag k="ssr:stedsnr" v="777127" />
	</node>
	<node id="-806425" lat="70.1295000363" lon="28.9896128053">
		<tag k="alt_name:no" v="Nordkappskjæret" />
		<tag k="fixme" v="consider seamark:type=rock or natural=shoal" />
		<tag k="name" v="Nordkapp" />
		<tag k="name:no" v="Nordkapp" />
		<tag k="place" v="islet" />
		<tag k="ssr:stedsnr" v="86301" />
	</node>
	<node id="-806233" lat="70.1372444802" lon="28.6806323746">
		<tag k="name" v="Njihconjárga" />
		<tag k="name:se" v="Njihconjárga" />
		<tag k="natural" v="cape" />
		<tag k="old_name:se" v="Njicconjarga" />
		<tag k="ssr:stedsnr" v="383778" />
	</node>
	<node id="-806419" lat="70.1619500302" lon="28.6290323975">
		<tag k="alt_name:no" v="Tude Pålsneset" />
		<tag k="name" v="Duttapiernjárga - Tud-Perneset" />
		<tag k="name:no" v="Tud-Perneset" />
		<tag k="name:se" v="Duttapiernjárga" />
		<tag k="natural" v="cape" />
		<tag k="old_name:se" v="Duddapiernjarga" />
		<tag k="ssr:stedsnr" v="80889" />
	</node>
	<node id="-806929" lat="70.0734361446" lon="28.8474989776">
		<tag k="alt_name:no" v="Nyelvbukt" />
		<tag k="name" v="Ođđajohgohppi - Nyelvbukta" />
		<tag k="name:no" v="Nyelvbukta" />
		<tag k="name:se" v="Ođđajohgohppi" />
		<tag k="natural" v="bay" />
		<tag k="ssr:stedsnr" v="686679" />
	</node>
	<node id="-806927" lat="70.080963925" lon="28.8459628494">
		<tag k="name" v="Nyelvgrunnen" />
		<tag k="name:no" v="Nyelvgrunnen" />
		<tag k="natural" v="shoal" />
		<tag k="place" v="locality" />
		<tag k="ssr:stedsnr" v="655165" />
	</node>
	<node id="-806414" lat="70.1050555881" lon="28.6310740736">
		<tag k="name" v="Sáranjárgohppi" />
		<tag k="name:se" v="Sáranjárgohppi" />
		<tag k="natural" v="bay" />
		<tag k="old_name:se" v="Saranjargåppi" />
		<tag k="ssr:stedsnr" v="80805" />
	</node>
	<node id="-806922" lat="70.0729555909" lon="28.9081072828">
		<tag k="name" v="Valen" />
		<tag k="name:no" v="Valen" />
		<tag k="place" v="locality" />
		<tag k="ssr:stedsnr" v="636547" />
	</node>
	<node id="-806921" lat="70.0719472538" lon="28.9201128112">
		<tag k="fixme" v="consider seamark:type=rock or natural=shoal" />
		<tag k="name" v="Undervannsskjær" />
		<tag k="name:no" v="Undervannsskjær" />
		<tag k="place" v="islet" />
		<tag k="ssr:stedsnr" v="636536" />
	</node>
	<node id="-806499" lat="70.0944555877" lon="28.7297601427">
		<tag k="name" v="Fálesgohppi" />
		<tag k="name:se" v="Fálesgohppi" />
		<tag k="natural" v="bay" />
		<tag k="ssr:stedsnr" v="150090" />
	</node>
	<node id="-806407" lat="70.0723361491" lon="28.9283739241">
		<tag k="alt_name:no" v="Skarveskjer;Skarvskjær" />
		<tag k="alt_name:se" v="Skárfalássá" />
		<tag k="fixme" v="consider seamark:type=rock or natural=shoal" />
		<tag k="name" v="Skárfalásis - Skarveskjær" />
		<tag k="name:no" v="Skarveskjær" />
		<tag k="name:se" v="Skárfalásis" />
		<tag k="old_name:se" v="Skarfalasis" />
		<tag k="place" v="islet" />
		<tag k="ssr:stedsnr" v="80682" />
	</node>
	<node id="-806917" lat="70.095630585" lon="28.8517073095">
		<tag k="name" v="Viernjárgeahči" />
		<tag k="name:se" v="Viernjárgeahči" />
		<tag k="natural" v="cape" />
		<tag k="ssr:stedsnr" v="635144" />
	</node>
	<node id="-806915" lat="70.1011972581" lon="28.8450211932">
		<tag k="name" v="Ruŋgonjárga" />
		<tag k="name:se" v="Ruŋgonjárga" />
		<tag k="natural" v="cape" />
		<tag k="ssr:stedsnr" v="635141" />
	</node>
	<node id="-806914" lat="70.0921694763" lon="28.7610989964">
		<tag k="fixme" v="consider seamark:type=rock or natural=shoal" />
		<tag k="name" v="Ruoššoaigálli" />
		<tag k="name:se" v="Ruoššoaigálli" />
		<tag k="place" v="islet" />
		<tag k="ssr:stedsnr" v="635110" />
	</node>
	<node id="-806913" lat="70.0897666934" lon="28.7354629098">
		<tag k="fixme" v="consider seamark:type=rock or natural=shoal" />
		<tag k="name" v="Nikkulagálli" />
		<tag k="name:se" v="Nikkulagálli" />
		<tag k="place" v="islet" />
		<tag k="ssr:stedsnr" v="635103" />
	</node>
</osm>
