<?xml version="1.0" encoding="UTF-8"?>
<osm generator="osmapis" version="0.6">
	<node id="-806912" lat="70.1446444758" lon="28.5788685285">
		<tag k="name" v="Čohkaoaijeaggi" />
		<tag k="name:se" v="Čohkaoaijeaggi" />
		<tag k="natural" v="wetland" />
		<tag k="ssr:stedsnr" v="634467" />
	</node>
	<node id="-806392" lat="70.1765472503" lon="28.5082546708">
		<tag k="name" v="Vuonnabahjeaggi - Varangerbotnmyra" />
		<tag k="name:no" v="Varangerbotnmyra" />
		<tag k="name:se" v="Vuonnabahjeaggi" />
		<tag k="natural" v="wetland" />
		<tag k="ssr:stedsnr" v="80868" />
	</node>
	<node id="-806740" lat="70.1608305875" lon="28.5172935523">
		<tag k="name" v="Savdnjajeaggi" />
		<tag k="name:se" v="Savdnjajeaggi" />
		<tag k="natural" v="wetland" />
		<tag k="ssr:stedsnr" v="511309" />
	</node>
	<node id="-806901" lat="70.1678750322" lon="28.8661767532">
		<tag k="name" v="Holmmajeaggi" />
		<tag k="name:se" v="Holmmajeaggi" />
		<tag k="natural" v="wetland" />
		<tag k="ssr:stedsnr" v="632331" />
	</node>
	<node id="-806381" lat="70.2237333588" lon="28.650249091">
		<tag k="name" v="Vuovdevađđa" />
		<tag k="name:se" v="Vuovdevađđa" />
		<tag k="natural" v="wetland" />
		<tag k="ssr:stedsnr" v="79786" />
	</node>
	<node id="-806877" lat="70.1833750277" lon="28.5862740994">
		<tag k="name" v="Suovka" />
		<tag k="name:se" v="Suovka" />
		<tag k="place" v="locality" />
		<tag k="ssr:stedsnr" v="625860" />
	</node>
	<node id="-806874" lat="70.1775916936" lon="28.5228907747">
		<tag k="name" v="Rovvejeaggi" />
		<tag k="name:se" v="Rovvejeaggi" />
		<tag k="natural" v="wetland" />
		<tag k="old_name:se" v="Råvvejæggi" />
		<tag k="ssr:stedsnr" v="625855" />
	</node>
	<node id="-806871" lat="70.2030194759" lon="28.569479664">
		<tag k="name" v="Balsajeaggi" />
		<tag k="name:se" v="Balsajeaggi" />
		<tag k="natural" v="wetland" />
		<tag k="old_name:se" v="Balsajæggi" />
		<tag k="ssr:stedsnr" v="625831" />
	</node>
	<node id="-806351" lat="70.1645278014" lon="28.5494796599">
		<tag k="name" v="Mieskarohtu" />
		<tag k="name:se" v="Mieskarohtu" />
		<tag k="place" v="locality" />
		<tag k="ssr:stedsnr" v="27595" />
	</node>
	<node id="-806348" lat="70.1577305807" lon="28.5745574279">
		<tag k="landuse" v="meadow" />
		<tag k="name" v="Pieraš-Hánssagieddi" />
		<tag k="name:se" v="Pieraš-Hánssagieddi" />
		<tag k="ssr:stedsnr" v="27458" />
	</node>
	<node id="-806340" lat="70.1161305823" lon="28.4072907997">
		<tag k="name" v="Jeaggegeahči" />
		<tag k="name:se" v="Jeaggegeahči" />
		<tag k="natural" v="wetland" />
		<tag k="ssr:stedsnr" v="26364" />
	</node>
	<node id="-806842" lat="70.0472278171" lon="29.0121294497">
		<tag k="name" v="Jeageloaijeaggi" />
		<tag k="name:se" v="Jeageloaijeaggi" />
		<tag k="natural" v="wetland" />
		<tag k="ssr:stedsnr" v="574269" />
	</node>
	<node id="-806832" lat="70.114972252" lon="28.5571435426">
		<tag k="landuse" v="meadow" />
		<tag k="name" v="Sarretgieddi" />
		<tag k="name:se" v="Sarretgieddi" />
		<tag k="ssr:stedsnr" v="572751" />
	</node>
	<node id="-806824" lat="70.1232111383" lon="28.4298046848">
		<tag k="name" v="Skárfarohtu" />
		<tag k="name:se" v="Skárfarohtu" />
		<tag k="place" v="locality" />
		<tag k="ssr:stedsnr" v="572379" />
	</node>
	<node id="-806823" lat="70.1491889246" lon="28.9192322861">
		<tag k="name" v="Gudbajeaggi" />
		<tag k="name:se" v="Gudbajeaggi" />
		<tag k="natural" v="wetland" />
		<tag k="ssr:stedsnr" v="572312" />
	</node>
	<node id="-806822" lat="70.1626722554" lon="28.9332628395">
		<tag k="name" v="Guolbajeaggi" />
		<tag k="name:se" v="Guolbajeaggi" />
		<tag k="natural" v="wetland" />
		<tag k="ssr:stedsnr" v="572310" />
	</node>
	<node id="-806819" lat="70.1277805912" lon="29.0496155771">
		<tag k="name" v="Fuglåsmyra" />
		<tag k="name:no" v="Fuglåsmyra" />
		<tag k="natural" v="wetland" />
		<tag k="ssr:stedsnr" v="571245" />
	</node>
	<node id="-806306" lat="70.1400500339" lon="29.0670738885">
		<tag k="name" v="Langhalsmyra" />
		<tag k="name:no" v="Langhalsmyra" />
		<tag k="natural" v="wetland" />
		<tag k="ssr:stedsnr" v="19629" />
	</node>
	<node id="-806807" lat="70.0960250343" lon="28.7778517934">
		<tag k="name" v="Juggejeaggi" />
		<tag k="name:se" v="Juggejeaggi" />
		<tag k="natural" v="wetland" />
		<tag k="old_name:se" v="Juggejæggi" />
		<tag k="ssr:stedsnr" v="565801" />
	</node>
	<node id="-806805" lat="70.1181000271" lon="28.4244546847">
		<tag k="name" v="Loahkejeaggi" />
		<tag k="name:se" v="Loahkejeaggi" />
		<tag k="natural" v="wetland" />
		<tag k="old_name:se" v="Loakkejæggi" />
		<tag k="ssr:stedsnr" v="565792" />
	</node>
	<node id="-806802" lat="70.1594972565" lon="29.1141377773">
		<tag k="name" v="Ola Flåmyra" />
		<tag k="name:no" v="Ola Flåmyra" />
		<tag k="natural" v="wetland" />
		<tag k="ssr:stedsnr" v="565745" />
	</node>
	<node id="-806794" lat="70.1443555932" lon="29.0577044496">
		<tag k="name" v="Stuorrajeaggi - Stormyra" />
		<tag k="name:no" v="Stormyra" />
		<tag k="name:se" v="Stuorrajeaggi" />
		<tag k="natural" v="wetland" />
		<tag k="old_name:se" v="Stuorrajæggi" />
		<tag k="ssr:stedsnr" v="565659" />
	</node>
	<node id="-806790" lat="70.1604722491" lon="28.5524351998">
		<tag k="name" v="Rásánoaijeaggi" />
		<tag k="name:se" v="Rásánoaijeaggi" />
		<tag k="natural" v="wetland" />
		<tag k="old_name:se" v="Rasanoaijæggi" />
		<tag k="ssr:stedsnr" v="564860" />
	</node>
	<node id="-806276" lat="70.0619000347" lon="28.992160013">
		<tag k="name" v="Bálddesgeađgi" />
		<tag k="name:se" v="Bálddesgeađgi" />
		<tag k="natural" v="stone" />
		<tag k="ssr:stedsnr" v="394543" />
	</node>
	<node id="-806269" lat="70.1692166994" lon="28.8997461843">
		<tag k="name" v="Lavttajeaggi" />
		<tag k="name:se" v="Lavttajeaggi" />
		<tag k="natural" v="wetland" />
		<tag k="ssr:stedsnr" v="392030" />
	</node>
	<node id="-806267" lat="70.1898666914" lon="28.6433963042">
		<tag k="name" v="Andevannsmyra" />
		<tag k="name:no" v="Andevannsmyra" />
		<tag k="natural" v="wetland" />
		<tag k="ssr:stedsnr" v="391124" />
	</node>
	<node id="-807288" lat="70.0472250357" lon="29.0722960878">
		<tag k="name" v="Lavdnjejeaggi" />
		<tag k="name:se" v="Lavdnjejeaggi" />
		<tag k="natural" v="wetland" />
		<tag k="ssr:stedsnr" v="940749" />
	</node>
	<node id="-806775" lat="70.2301916942" lon="28.4083408386">
		<tag k="name" v="Álbmotsuovka" />
		<tag k="name:se" v="Álbmotsuovka" />
		<tag k="place" v="locality" />
		<tag k="ssr:stedsnr" v="519465" />
	</node>
	<node id="-806262" lat="70.1617528162" lon="28.9761017093">
		<tag k="name" v="Juovvaoaijeakkit" />
		<tag k="name:se" v="Juovvaoaijeakkit" />
		<tag k="natural" v="wetland" />
		<tag k="ssr:stedsnr" v="391017" />
	</node>
	<node id="-806206" lat="70.1630805893" lon="29.1090433235">
		<tag k="name" v="Henningmyra" />
		<tag k="name:no" v="Henningmyra" />
		<tag k="natural" v="wetland" />
		<tag k="ssr:stedsnr" v="331113" />
	</node>
	<node id="-806258" lat="70.1241861393" lon="28.6106129561">
		<tag k="name" v="Čáhppesgeađgi" />
		<tag k="name:se" v="Čáhppesgeađgi" />
		<tag k="natural" v="stone" />
		<tag k="ssr:stedsnr" v="390670" />
	</node>
	<node id="-806766" lat="70.0747111414" lon="28.8837545157">
		<tag k="name" v="Čillagálli" />
		<tag k="name:se" v="Čillagálli" />
		<tag k="natural" v="stone" />
		<tag k="ssr:stedsnr" v="515532" />
	</node>
	<node id="-807274" lat="70.1568028034" lon="28.6374296224">
		<tag k="name" v="Duttapierjeaggi" />
		<tag k="name:se" v="Duttapierjeaggi" />
		<tag k="natural" v="wetland" />
		<tag k="ssr:stedsnr" v="938056" />
	</node>
	<node id="-806247" lat="70.1542389182" lon="28.4815046755">
		<tag k="name" v="Suoidnejeaggi" />
		<tag k="name:se" v="Suoidnejeaggi" />
		<tag k="natural" v="wetland" />
		<tag k="ssr:stedsnr" v="389321" />
	</node>
	<node id="-806246" lat="70.1583805794" lon="28.5317907738">
		<tag k="name" v="Čohkajeaggi" />
		<tag k="name:se" v="Čohkajeaggi" />
		<tag k="natural" v="wetland" />
		<tag k="ssr:stedsnr" v="389147" />
	</node>
	<node id="-806241" lat="70.1895555806" lon="28.555343546">
		<tag k="name" v="Gákkafielmmajeaggi" />
		<tag k="name:se" v="Gákkafielmmajeaggi" />
		<tag k="natural" v="wetland" />
		<tag k="old_name:se" v="Gaggafielmajæggi" />
		<tag k="ssr:stedsnr" v="383853" />
	</node>
	<node id="-806744" lat="70.1541889159" lon="28.7444406904">
		<tag k="landuse" v="meadow" />
		<tag k="name" v="Čuđiidgieddi" />
		<tag k="name:se" v="Čuđiidgieddi" />
		<tag k="ssr:stedsnr" v="511457" />
	</node>
	<node id="-806229" lat="70.1941000307" lon="29.0438016968">
		<tag k="name" v="Čoskajeaggi" />
		<tag k="name:se" v="Čoskajeaggi" />
		<tag k="natural" v="wetland" />
		<tag k="old_name:se" v="Čåskajæggi" />
		<tag k="ssr:stedsnr" v="383757" />
	</node>
	<node id="-807252" lat="70.0625694844" lon="28.9606489129">
		<tag k="name" v="Háškagieddi - Skrapjord" />
		<tag k="name:no" v="Skrapjord" />
		<tag k="name:se" v="Háškagieddi" />
		<tag k="old_name:se" v="Haškagieddi;Haškágieddi" />
		<tag k="place" v="locality" />
		<tag k="ssr:stedsnr" v="930697" />
	</node>
	<node id="-806227" lat="70.1607472535" lon="28.9072934051">
		<tag k="fixme" v="multiple name tags, choose one and add the other to alt_name" />
		<tag k="name" v="Mávnnos jeaggi;Guolbbajeaggi" />
		<tag k="name:se" v="Mávnnos jeaggi;Guolbbajeaggi" />
		<tag k="natural" v="wetland" />
		<tag k="old_name:se" v="Guolbajæggi" />
		<tag k="ssr:stedsnr" v="383738" />
	</node>
	<node id="-806738" lat="70.1345278148" lon="29.1200933032">
		<tag k="name" v="Bjerkbu" />
		<tag k="name:no" v="Bjerkbu" />
		<tag k="place" v="locality" />
		<tag k="ssr:stedsnr" v="511268" />
	</node>
	<node id="-807239" lat="70.1299555844" lon="28.5281879922">
		<tag k="name" v="Fávlerohtu" />
		<tag k="name:se" v="Fávlerohtu" />
		<tag k="old_name:se" v="Favleråtto" />
		<tag k="place" v="locality" />
		<tag k="ssr:stedsnr" v="929757" />
	</node>
	<node id="-806211" lat="70.0837694762" lon="28.7192517906">
		<tag k="name" v="Čáhcekeatjeaggi" />
		<tag k="name:se" v="Čáhcekeatjeaggi" />
		<tag k="natural" v="wetland" />
		<tag k="ssr:stedsnr" v="332105" />
	</node>
	<node id="-806720" lat="70.157191693" lon="28.6421740673">
		<tag k="name" v="Duddapierjeaggi" />
		<tag k="name:se" v="Duddapierjeaggi" />
		<tag k="natural" v="wetland" />
		<tag k="old_name:se" v="Duddapierjæggi" />
		<tag k="ssr:stedsnr" v="504864" />
	</node>
	<node id="-807230" lat="70.0708833663" lon="28.8608572799">
		<tag k="alt_name:no" v="Nyelvmyr" />
		<tag k="name" v="Ođđajohjeaggi - Nyelvmyra" />
		<tag k="name:no" v="Nyelvmyra" />
		<tag k="name:se" v="Ođđajohjeaggi" />
		<tag k="natural" v="wetland" />
		<tag k="ssr:stedsnr" v="929662" />
	</node>
	<node id="-807228" lat="70.1334194721" lon="28.493915773">
		<tag k="fixme" v="multiple name tags, choose one and add the other to alt_name" />
		<tag k="name" v="Njiđggujeaggi;Suoidnejeaggi" />
		<tag k="name:se" v="Njiđggujeaggi;Suoidnejeaggi" />
		<tag k="natural" v="wetland" />
		<tag k="old_name:se" v="Suoidnejæggi" />
		<tag k="ssr:stedsnr" v="929861" />
	</node>
	<node id="-806203" lat="70.1296028129" lon="28.6430907216">
		<tag k="landuse" v="meadow" />
		<tag k="name" v="Ráppotgieddi" />
		<tag k="name:se" v="Ráppotgieddi" />
		<tag k="old_name:se" v="Rabokgieddi" />
		<tag k="ssr:stedsnr" v="331039" />
	</node>
	<node id="-807225" lat="70.2016666979" lon="28.4669019175">
		<tag k="name" v="Suovkajeaggi - Sukimyra" />
		<tag k="name:no" v="Sukimyra" />
		<tag k="name:se" v="Suovkajeaggi" />
		<tag k="natural" v="wetland" />
		<tag k="old_name:se" v="Suovkajæggi" />
		<tag k="ssr:stedsnr" v="929836" />
	</node>
	<node id="-806710" lat="70.0860000305" lon="28.6922990167">
		<tag k="name" v="Gáibejeaggi" />
		<tag k="name:se" v="Gáibejeaggi" />
		<tag k="natural" v="wetland" />
		<tag k="old_name:se" v="Gaibejæggi" />
		<tag k="ssr:stedsnr" v="504798" />
	</node>
	<node id="-807049" lat="70.1284639261" lon="29.1314294314">
		<tag k="name" v="Gammjur - Gamjorda" />
		<tag k="name:no" v="Gamjorda" />
		<tag k="name:se" v="Gammjur" />
		<tag k="place" v="locality" />
		<tag k="ssr:stedsnr" v="754320" />
	</node>
	<node id="-806707" lat="70.1616667019" lon="28.8700406493">
		<tag k="name" v="Guopmejeaggi" />
		<tag k="name:se" v="Guopmejeaggi" />
		<tag k="natural" v="wetland" />
		<tag k="old_name:se" v="Guobmejæggi" />
		<tag k="ssr:stedsnr" v="504721" />
	</node>
	<node id="-807217" lat="70.0705444766" lon="28.8882433948">
		<tag k="name" v="Gáldojogašgieddi" />
		<tag k="name:se" v="Gáldojogašgieddi" />
		<tag k="natural" v="wetland" />
		<tag k="ssr:stedsnr" v="880538" />
	</node>
	<node id="-807214" lat="70.0576750369" lon="28.972848909">
		<tag k="name" v="Guoŋurjeaggi" />
		<tag k="name:se" v="Guoŋurjeaggi" />
		<tag k="natural" v="wetland" />
		<tag k="ssr:stedsnr" v="878239" />
	</node>
	<node id="-806700" lat="70.2336278052" lon="28.3992019599">
		<tag k="name" v="Klerkskogen" />
		<tag k="name:no" v="Klerkskogen" />
		<tag k="place" v="locality" />
		<tag k="ssr:stedsnr" v="459398" />
	</node>
	<node id="-807211" lat="70.0922416955" lon="28.7251378985">
		<tag k="name" v="Gearralgieddi" />
		<tag k="name:se" v="Gearralgieddi" />
		<tag k="place" v="locality" />
		<tag k="ssr:stedsnr" v="878142" />
	</node>
	<node id="-807210" lat="70.0907194768" lon="28.7168768098">
		<tag k="name" v="Gearraljeaggi" />
		<tag k="name:se" v="Gearraljeaggi" />
		<tag k="natural" v="wetland" />
		<tag k="ssr:stedsnr" v="878110" />
	</node>
	<node id="-807209" lat="70.1532222499" lon="28.5584102211">
		<tag k="name" v="Guhturrohtu" />
		<tag k="name:se" v="Guhturrohtu" />
		<tag k="place" v="locality" />
		<tag k="ssr:stedsnr" v="877443" />
	</node>
	<node id="-807206" lat="70.1907416908" lon="28.4769491319">
		<tag k="name" v="Rássarohtu - Grasskogen" />
		<tag k="name:no" v="Grasskogen" />
		<tag k="name:se" v="Rássarohtu" />
		<tag k="place" v="locality" />
		<tag k="ssr:stedsnr" v="877059" />
	</node>
	<node id="-806193" lat="70.1737666979" lon="28.5206129946">
		<tag k="name" v="Bivnokjeaggi" />
		<tag k="name:se" v="Bivnokjeaggi" />
		<tag k="natural" v="wetland" />
		<tag k="ssr:stedsnr" v="328660" />
	</node>
	<node id="-806691" lat="70.0763805847" lon="28.8001962056">
		<tag k="landuse" v="meadow" />
		<tag k="name" v="Sullovuolášgieddi" />
		<tag k="name:se" v="Sullovuolášgieddi" />
		<tag k="ssr:stedsnr" v="453238" />
	</node>
	<node id="-806178" lat="70.1482778035" lon="28.5868490913">
		<tag k="alt_name:no" v="Vesterelvmyrene" />
		<tag k="name" v="Vesterelvmyran" />
		<tag k="name:no" v="Vesterelvmyran" />
		<tag k="natural" v="wetland" />
		<tag k="ssr:stedsnr" v="322848" />
	</node>
	<node id="-806689" lat="70.1891666959" lon="28.4999046727">
		<tag k="name" v="Lattenjeaggi" />
		<tag k="name:se" v="Lattenjeaggi" />
		<tag k="natural" v="wetland" />
		<tag k="ssr:stedsnr" v="452058" />
	</node>
	<node id="-807199" lat="70.1644583627" lon="28.8123878799">
		<tag k="name" v="Luohpoaijeaggi" />
		<tag k="name:se" v="Luohpoaijeaggi" />
		<tag k="natural" v="wetland" />
		<tag k="ssr:stedsnr" v="876471" />
	</node>
	<node id="-806685" lat="70.1247389165" lon="28.6161657347">
		<tag k="name" v="Beakkageađgi" />
		<tag k="name:se" v="Beakkageađgi" />
		<tag k="natural" v="stone" />
		<tag k="ssr:stedsnr" v="451709" />
	</node>
	<node id="-806166" lat="70.0644250331" lon="28.915423945">
		<tag k="name" v="Sarvvesjeaggi" />
		<tag k="name:se" v="Sarvvesjeaggi" />
		<tag k="natural" v="wetland" />
		<tag k="old_name:se" v="Sarvesjæggi" />
		<tag k="ssr:stedsnr" v="322673" />
	</node>
	<node id="-807126" lat="70.126113924" lon="29.0139961284">
		<tag k="name" v="Ceavccageađgi - Transteinen" />
		<tag k="name:no" v="Transteinen" />
		<tag k="name:se" v="Ceavccageađgi" />
		<tag k="natural" v="stone" />
		<tag k="ssr:stedsnr" v="810021" />
	</node>
	<node id="-806144" lat="70.1728361393" lon="28.5612102095">
		<tag k="name" v="Sykehjemsjorda" />
		<tag k="name:no" v="Sykehjemsjorda" />
		<tag k="place" v="locality" />
		<tag k="ssr:stedsnr" v="269487" />
	</node>
	<node id="-806143" lat="70.1565000312" lon="28.8141962328">
		<tag k="landuse" v="meadow" />
		<tag k="name" v="Beakkagieddi" />
		<tag k="name:se" v="Beakkagieddi" />
		<tag k="ssr:stedsnr" v="269478" />
	</node>
	<node id="-807164" lat="70.2076666919" lon="28.5926741028">
		<tag k="name" v="Stuorravađđa" />
		<tag k="name:se" v="Stuorravađđa" />
		<tag k="natural" v="wetland" />
		<tag k="ssr:stedsnr" v="868789" />
	</node>
	<node id="-806641" lat="70.1337194705" lon="28.5763574245">
		<tag k="name" v="Lárajeaggi" />
		<tag k="name:se" v="Lárajeaggi" />
		<tag k="natural" v="wetland" />
		<tag k="old_name:se" v="Larajæggi" />
		<tag k="ssr:stedsnr" v="444756" />
	</node>
	<node id="-807150" lat="70.1978778054" lon="28.5738602231">
		<tag k="name" v="Balsajeaggi" />
		<tag k="name:se" v="Balsajeaggi" />
		<tag k="natural" v="wetland" />
		<tag k="ssr:stedsnr" v="817104" />
	</node>
	<node id="-807148" lat="70.1574805874" lon="28.5820824249">
		<tag k="landuse" v="meadow" />
		<tag k="name" v="Junno-Máhte-gieddi" />
		<tag k="name:se" v="Junno-Máhte-gieddi" />
		<tag k="ssr:stedsnr" v="816454" />
	</node>
	<node id="-806631" lat="70.1143222528" lon="28.5308490914">
		<tag k="name" v="Fárppaljeaggi" />
		<tag k="name:se" v="Fárppaljeaggi" />
		<tag k="natural" v="wetland" />
		<tag k="ssr:stedsnr" v="268311" />
	</node>
	<node id="-806617" lat="70.0767778096" lon="28.7148379101">
		<tag k="name" v="Čeavrresjeaggi" />
		<tag k="name:se" v="Čeavrresjeaggi" />
		<tag k="natural" v="wetland" />
		<tag k="old_name:se" v="Čævresjæggi" />
		<tag k="ssr:stedsnr" v="262832" />
	</node>
	<node id="-806614" lat="70.1259361406" lon="28.5888907335">
		<tag k="name" v="Gáicajeaggi" />
		<tag k="name:se" v="Gáicajeaggi" />
		<tag k="natural" v="wetland" />
		<tag k="old_name:se" v="Gaicajæggi" />
		<tag k="ssr:stedsnr" v="262813" />
	</node>
	<node id="-807122" lat="70.251708358" lon="28.6398018644">
		<tag k="name" v="Gumppejeakkit" />
		<tag k="name:se" v="Gumppejeakkit" />
		<tag k="natural" v="wetland" />
		<tag k="old_name:se" v="Gumpejæggit" />
		<tag k="ssr:stedsnr" v="809962" />
	</node>
	<node id="-806607" lat="70.2370500367" lon="29.2096655413">
		<tag k="name" v="Aleksandersenmyra" />
		<tag k="name:no" v="Aleksandersenmyra" />
		<tag k="natural" v="wetland" />
		<tag k="ssr:stedsnr" v="262721" />
	</node>
	<node id="-807201" lat="70.1764555864" lon="28.5881241063">
		<tag k="name" v="Nyborgskogen" />
		<tag k="name:no" v="Nyborgskogen" />
		<tag k="place" v="locality" />
		<tag k="ssr:stedsnr" v="876495" />
	</node>
	<node id="-806175" lat="70.1131583635" lon="28.4231046813">
		<tag k="name" v="Reikejeaggi" />
		<tag k="name:se" v="Reikejeaggi" />
		<tag k="natural" v="wetland" />
		<tag k="old_name:se" v="Reikejæggi" />
		<tag k="ssr:stedsnr" v="322747" />
	</node>
	<node id="-806584" lat="70.0262083715" lon="29.1535849234">
		<tag k="landuse" v="meadow" />
		<tag k="name" v="Ellegiettáš" />
		<tag k="name:se" v="Ellegiettáš" />
		<tag k="ssr:stedsnr" v="212646" />
	</node>
	<node id="-806583" lat="70.0655416993" lon="28.9474433695">
		<tag k="name" v="Irvigálli" />
		<tag k="name:se" v="Irvigálli" />
		<tag k="natural" v="stone" />
		<tag k="ssr:stedsnr" v="212557" />
	</node>
	<node id="-806575" lat="70.1531139156" lon="28.567882418">
		<tag k="landuse" v="meadow" />
		<tag k="name" v="Ruošša-Iskkugieddi" />
		<tag k="name:se" v="Ruošša-Iskkugieddi" />
		<tag k="ssr:stedsnr" v="210455" />
	</node>
	<node id="-806571" lat="70.2138083622" lon="28.4610352714">
		<tag k="name" v="Oppdalmyra" />
		<tag k="name:no" v="Oppdalmyra" />
		<tag k="natural" v="wetland" />
		<tag k="ssr:stedsnr" v="209238" />
	</node>
	<node id="-807077" lat="70.022941709" lon="29.1304960481">
		<tag k="name" v="Pierasuovka" />
		<tag k="name:se" v="Pierasuovka" />
		<tag k="natural" v="wetland" />
		<tag k="ssr:stedsnr" v="758671" />
	</node>
	<node id="-806564" lat="70.1585111404" lon="28.8231184341">
		<tag k="name" v="Mávrašjeaggi" />
		<tag k="name:se" v="Mávrašjeaggi" />
		<tag k="natural" v="wetland" />
		<tag k="ssr:stedsnr" v="208442" />
	</node>
	<node id="-806559" lat="70.1458944766" lon="28.9391628351">
		<tag k="name" v="Návccabávttjeakkit" />
		<tag k="name:se" v="Návccabávttjeakkit" />
		<tag k="natural" v="wetland" />
		<tag k="ssr:stedsnr" v="208269" />
	</node>
	<node id="-807109" lat="70.2140805833" lon="28.6310157645">
		<tag k="name" v="Nieidavađđa" />
		<tag k="name:se" v="Nieidavađđa" />
		<tag k="natural" v="wetland" />
		<tag k="ssr:stedsnr" v="808831" />
	</node>
	<node id="-807067" lat="70.2335778023" lon="28.3923963943">
		<tag k="name" v="Klerkmyra" />
		<tag k="name:no" v="Klerkmyra" />
		<tag k="natural" v="wetland" />
		<tag k="ssr:stedsnr" v="756126" />
	</node>
	<node id="-807063" lat="70.1208166949" lon="28.5699713172">
		<tag k="landuse" v="meadow" />
		<tag k="name" v="Leansmangieddi" />
		<tag k="name:se" v="Leansmangieddi" />
		<tag k="ssr:stedsnr" v="755763" />
	</node>
	<node id="-806537" lat="70.1407000295" lon="28.5882518683">
		<tag k="name" v="Dutku" />
		<tag k="name:se" v="Dutku" />
		<tag k="natural" v="wetland" />
		<tag k="old_name:se" v="Dutko" />
		<tag k="ssr:stedsnr" v="201754" />
	</node>
	<node id="-806535" lat="70.1407916956" lon="28.4780796908">
		<tag k="name" v="Stuorrajeaggi - Stormyra" />
		<tag k="name:no" v="Stormyra" />
		<tag k="name:se" v="Stuorrajeaggi" />
		<tag k="natural" v="wetland" />
		<tag k="old_name:se" v="Stuorrajæggi" />
		<tag k="ssr:stedsnr" v="201751" />
	</node>
	<node id="-807046" lat="70.1737194715" lon="28.4985963422">
		<tag k="name" v="Bivnojeaggi" />
		<tag k="name:se" v="Bivnojeaggi" />
		<tag k="natural" v="wetland" />
		<tag k="ssr:stedsnr" v="752619" />
	</node>
	<node id="-807019" lat="70.1651305821" lon="28.8405739999">
		<tag k="name" v="Huvvavárjeaggi" />
		<tag k="name:se" v="Huvvavárjeaggi" />
		<tag k="natural" v="wetland" />
		<tag k="old_name:se" v="Huvvavarjæggi" />
		<tag k="ssr:stedsnr" v="747716" />
	</node>
	<node id="-806504" lat="70.0709444776" lon="28.7360156712">
		<tag k="name" v="Čeavrresjohjeaggi" />
		<tag k="name:se" v="Čeavrresjohjeaggi" />
		<tag k="natural" v="wetland" />
		<tag k="ssr:stedsnr" v="150173" />
	</node>
	<node id="-806495" lat="70.1131250325" lon="28.5735768727">
		<tag k="landuse" v="meadow" />
		<tag k="name" v="Rikardgieddi" />
		<tag k="name:se" v="Rikardgieddi" />
		<tag k="ssr:stedsnr" v="148761" />
	</node>
	<node id="-806481" lat="70.147819468" lon="28.5397074425">
		<tag k="landuse" v="meadow" />
		<tag k="name" v="Ivvárgieddi" />
		<tag k="name:se" v="Ivvárgieddi" />
		<tag k="ssr:stedsnr" v="147164" />
	</node>
	<node id="-806986" lat="70.1567361413" lon="28.5683518821">
		<tag k="landuse" v="meadow" />
		<tag k="name" v="Beakka-Hánnogieddi" />
		<tag k="name:se" v="Beakka-Hánnogieddi" />
		<tag k="ssr:stedsnr" v="695455" />
	</node>
	<node id="-806980" lat="70.1137166964" lon="28.5685629785">
		<tag k="name" v="Gohppejeaggi" />
		<tag k="name:se" v="Gohppejeaggi" />
		<tag k="natural" v="wetland" />
		<tag k="ssr:stedsnr" v="694733" />
	</node>
	<node id="-806465" lat="70.0970861389" lon="28.735712908">
		<tag k="name" v="Vieltegieddi" />
		<tag k="name:se" v="Vieltegieddi" />
		<tag k="place" v="locality" />
		<tag k="ssr:stedsnr" v="140781" />
	</node>
	<node id="-806458" lat="70.1741639291" lon="29.1517016428">
		<tag k="name" v="Jakobselvmyran" />
		<tag k="name:no" v="Jakobselvmyran" />
		<tag k="natural" v="wetland" />
		<tag k="ssr:stedsnr" v="140740" />
	</node>
	<node id="-806446" lat="70.171041693" lon="28.3449713914">
		<tag k="name" v="Hávgoaijeakkit" />
		<tag k="name:se" v="Hávgoaijeakkit" />
		<tag k="natural" v="wetland" />
		<tag k="ssr:stedsnr" v="95481" />
	</node>
	<node id="-806442" lat="70.0463555985" lon="29.1285571639">
		<tag k="name" v="Nuortagálli" />
		<tag k="name:se" v="Nuortagálli" />
		<tag k="natural" v="stone" />
		<tag k="ssr:stedsnr" v="91641" />
	</node>
	<node id="-806438" lat="70.0743250308" lon="28.7165129084">
		<tag k="name" v="Gáibejeaggi" />
		<tag k="name:se" v="Gáibejeaggi" />
		<tag k="natural" v="wetland" />
		<tag k="ssr:stedsnr" v="89186" />
	</node>
	<node id="-806435" lat="70.2156500291" lon="28.5045907944">
		<tag k="name" v="Báišvađajeaggi" />
		<tag k="name:se" v="Báišvađajeaggi" />
		<tag k="natural" v="wetland" />
		<tag k="ssr:stedsnr" v="88186" />
	</node>
	<node id="-806946" lat="70.2095472529" lon="28.5588157888">
		<tag k="name" v="Álljaveaijeaggi" />
		<tag k="name:se" v="Álljaveaijeaggi" />
		<tag k="natural" v="wetland" />
		<tag k="old_name:se" v="Alljavæjjæggi" />
		<tag k="ssr:stedsnr" v="686827" />
	</node>
	<node id="-806433" lat="70.148375035" lon="29.0178544823">
		<tag k="name" v="Ruoššajeakkit - Russermyra" />
		<tag k="name:no" v="Russermyra" />
		<tag k="name:se" v="Ruoššajeakkit" />
		<tag k="natural" v="wetland" />
		<tag k="ssr:stedsnr" v="88020" />
	</node>
	<node id="-806430" lat="70.1168555818" lon="28.5479824325">
		<tag k="name" v="Hánnoaijeaggi" />
		<tag k="name:se" v="Hánnoaijeaggi" />
		<tag k="natural" v="wetland" />
		<tag k="ssr:stedsnr" v="87741" />
	</node>
	<node id="-806930" lat="70.22932503" lon="28.8360045799">
		<tag k="name" v="Máttavárjeaggi" />
		<tag k="name:se" v="Máttavárjeaggi" />
		<tag k="natural" v="wetland" />
		<tag k="old_name:se" v="Maddavarjæggi" />
		<tag k="ssr:stedsnr" v="686690" />
	</node>
	<node id="-806926" lat="70.181155582" lon="28.3524964106">
		<tag k="name" v="Eatnančielggjeakkit" />
		<tag k="name:se" v="Eatnančielggjeakkit" />
		<tag k="natural" v="wetland" />
		<tag k="ssr:stedsnr" v="640556" />
	</node>
</osm>
