<?xml version="1.0" encoding="UTF-8"?>
<osm version="0.6" generator="osmapis">
	<node lat="60.73429444595176" lon="5.714569449948536" id="-91385">
		<tag k="name" v="Svartedalen" />
		<tag k="natural" v="valley" />
		<tag k="place" v="locality" />
		<tag k="ssr:stedsnr" v="6318" />
	</node>
	<node lat="60.98636389109912" lon="5.918486116386804" id="-91386">
		<tag k="alt_name" v="Vestrebotnvatnet, stora" />
		<tag k="name" v="Stora Vestrebotnvatnet" />
		<tag k="natural" v="water" />
		<tag k="ssr:stedsnr" v="8010" />
	</node>
	<node lat="60.98818888451485" lon="5.953524991208936" id="-91387">
		<tag k="name" v="Trongedalen" />
		<tag k="natural" v="valley" />
		<tag k="place" v="locality" />
		<tag k="ssr:stedsnr" v="8012" />
	</node>
	<node lat="60.97906111454951" lon="6.075583326090243" id="-91388">
		<tag k="name" v="Sæterelva" />
		<tag k="ssr:stedsnr" v="8017" />
		<tag k="waterway" v="stream" />
	</node>
	<node lat="60.94176111203539" lon="6.020486115498767" id="-91389">
		<tag k="fixme" v="consider natural=peak for the most distinct mountains in the district" />
		<tag k="name" v="Smørstakken" />
		<tag k="natural" v="hill" />
		<tag k="place" v="locality" />
		<tag k="ssr:stedsnr" v="8112" />
	</node>
	<node lat="60.959161107203855" lon="6.085449999367189" id="-91390">
		<tag k="name" v="Rindavatnet" />
		<tag k="natural" v="water" />
		<tag k="ssr:stedsnr" v="8114" />
	</node>
	<node lat="60.9323000000157" lon="5.985200002177364" id="-91391">
		<tag k="name" v="Seglet" />
		<tag k="natural" v="gorge" />
		<tag k="ssr:stedsnr" v="8118" />
	</node>
	<node lat="60.93551666279628" lon="6.13320000239523" id="-91392">
		<tag k="fixme" v="consider natural=peak for the most distinct mountains in the district" />
		<tag k="name" v="Sørdalsfjellet" />
		<tag k="natural" v="hill" />
		<tag k="place" v="locality" />
		<tag k="ssr:stedsnr" v="8120" />
	</node>
	<node lat="60.773049995510036" lon="5.696583326480925" id="-91393">
		<tag k="fixme" v="consider natural=peak for the most distinct mountains in the district" />
		<tag k="name" v="Svida" />
		<tag k="natural" v="hill" />
		<tag k="place" v="locality" />
		<tag k="ssr:stedsnr" v="8476" />
	</node>
	<node lat="60.79210278171396" lon="5.791102782295193" id="-91394">
		<tag k="fixme" v="consider natural=peak for the most distinct mountains in the district" />
		<tag k="name" v="Klettane" />
		<tag k="natural" v="hill" />
		<tag k="place" v="locality" />
		<tag k="ssr:stedsnr" v="8492" />
	</node>
	<node lat="60.79613889272658" lon="5.73458055099659" id="-91395">
		<tag k="alt_name" v="Beitleelva" />
		<tag k="name" v="Beitlåna" />
		<tag k="ssr:stedsnr" v="8493" />
		<tag k="waterway" v="stream" />
	</node>
	<node lat="60.90942500323111" lon="6.004094451912596" id="-91396">
		<tag k="historic" v="shieling" />
		<tag k="name" v="Nystølen" />
		<tag k="place" v="isolated_dwelling" />
		<tag k="ssr:stedsnr" v="9039" />
	</node>
	<node lat="60.834805559052086" lon="5.977913879474182" id="-91397">
		<tag k="name" v="Sesskarberget" />
		<tag k="natural" v="hill" />
		<tag k="place" v="locality" />
		<tag k="ssr:stedsnr" v="9097" />
	</node>
	<node lat="60.83619166217614" lon="5.947833329497643" id="-91398">
		<tag k="name" v="Haugen" />
		<tag k="natural" v="hill" />
		<tag k="place" v="locality" />
		<tag k="ssr:stedsnr" v="9100" />
	</node>
	<node lat="60.89020832984652" lon="5.837063897001973" id="-91399">
		<tag k="name" v="Skjerjavasstangen" />
		<tag k="natural" v="cape" />
		<tag k="ssr:stedsnr" v="9322" />
	</node>
	<node lat="60.82563611224006" lon="5.798544445019324" id="-91400">
		<tag k="name" v="Nedstavatnet" />
		<tag k="natural" v="water" />
		<tag k="ssr:stedsnr" v="9502" />
	</node>
	<node lat="60.81642618446058" lon="5.710225825615165" id="-91401">
		<tag k="alt_name" v="Djupevatnet" />
		<tag k="name" v="Djupavatnet" />
		<tag k="natural" v="water" />
		<tag k="ssr:stedsnr" v="9503" />
	</node>
	<node lat="60.8645888923949" lon="5.842438887041135" id="-91402">
		<tag k="name" v="Myrane" />
		<tag k="natural" v="wetland" />
		<tag k="ssr:stedsnr" v="44523" />
	</node>
	<node lat="60.814127778043584" lon="5.83178054849853" id="-91403">
		<tag k="name" v="Røyrtørne" />
		<tag k="place" v="locality" />
		<tag k="ssr:stedsnr" v="44527" />
	</node>
	<node lat="60.8200194445097" lon="5.837288893098942" id="-91404">
		<tag k="name" v="Næreneset" />
		<tag k="natural" v="cape" />
		<tag k="ssr:stedsnr" v="44533" />
	</node>
	<node lat="60.76808611354477" lon="5.723558331736525" id="-91405">
		<tag k="name" v="Straumsbekkena" />
		<tag k="ssr:stedsnr" v="44578" />
		<tag k="waterway" v="stream" />
	</node>
	<node lat="60.755491667314935" lon="5.683730548739372" id="-91406">
		<tag k="name" v="Storlia" />
		<tag k="natural" v="slope" />
		<tag k="place" v="locality" />
		<tag k="ssr:stedsnr" v="44591" />
	</node>
	<node lat="60.82251111040408" lon="5.7516166732624265" id="-91407">
		<tag k="name" v="Bykset" />
		<tag k="natural" v="hill" />
		<tag k="place" v="locality" />
		<tag k="ssr:stedsnr" v="44628" />
	</node>
	<node lat="60.77782777319182" lon="5.744880550235013" id="-91408">
		<tag k="name" v="Skjeggedalen" />
		<tag k="natural" v="valley" />
		<tag k="place" v="locality" />
		<tag k="ssr:stedsnr" v="47081" />
	</node>
	<node lat="60.93702499582766" lon="5.868725008111594" id="-91409">
		<tag k="alt_name" v="Vika, insta" />
		<tag k="name" v="Insta Vika" />
		<tag k="natural" v="bay" />
		<tag k="ssr:stedsnr" v="58120" />
	</node>
	<node lat="60.764466663879745" lon="5.682366670830411" id="-91410">
		<tag k="fixme" v="consider natural=peak for the most distinct mountains in the district" />
		<tag k="name" v="Midtfjellet" />
		<tag k="natural" v="hill" />
		<tag k="place" v="locality" />
		<tag k="ssr:stedsnr" v="69034" />
	</node>
	<node lat="60.89567500285324" lon="6.014349994990786" id="-91411">
		<tag k="fixme" v="consider natural=peak for the most distinct mountains in the district" />
		<tag k="name" v="Stølsfjellsberget" />
		<tag k="natural" v="hill" />
		<tag k="place" v="locality" />
		<tag k="ssr:stedsnr" v="69092" />
	</node>
	<node lat="60.94566388731688" lon="5.9925583372528335" id="-91412">
		<tag k="name" v="Stølsdalen" />
		<tag k="natural" v="valley" />
		<tag k="place" v="locality" />
		<tag k="ssr:stedsnr" v="69096" />
	</node>
	<node lat="60.94195833398428" lon="5.979627781106331" id="-91413">
		<tag k="name" v="Storehaugen" />
		<tag k="natural" v="hill" />
		<tag k="place" v="locality" />
		<tag k="ssr:stedsnr" v="69100" />
	</node>
	<node lat="60.83785555220776" lon="5.958574994839568" id="-91414">
		<tag k="fixme" v="consider natural=peak for the most distinct mountains in the district" />
		<tag k="name" v="Kalvsåsen" />
		<tag k="natural" v="hill" />
		<tag k="place" v="locality" />
		<tag k="ssr:stedsnr" v="69130" />
	</node>
	<node lat="60.82092499788581" lon="5.876941661685557" id="-91415">
		<tag k="name" v="Almelidalen" />
		<tag k="natural" v="valley" />
		<tag k="place" v="locality" />
		<tag k="ssr:stedsnr" v="69132" />
	</node>
	<node lat="60.87680833778072" lon="5.889600008303665" id="-91416">
		<tag k="name" v="Borga" />
		<tag k="natural" v="valley" />
		<tag k="place" v="locality" />
		<tag k="ssr:stedsnr" v="69181" />
	</node>
	<node lat="60.859772219066" lon="5.9785388803401505" id="-91417">
		<tag k="name" v="Balane" />
		<tag k="place" v="locality" />
		<tag k="ssr:stedsnr" v="69196" />
	</node>
	<node lat="60.74689275992608" lon="5.693374486205491" id="-91418">
		<tag k="bay" v="fjord" />
		<tag k="name" v="Mofjorden" />
		<tag k="natural" v="bay" />
		<tag k="ssr:stedsnr" v="69490" />
	</node>
	<node lat="60.82310087868654" lon="5.720520618753593" id="-91419">
		<tag k="name" v="Sørdalsvatnet" />
		<tag k="natural" v="water" />
		<tag k="ssr:stedsnr" v="69538" />
	</node>
	<node lat="60.83697777390661" lon="5.843291663509279" id="-91420">
		<tag k="fixme" v="consider natural=peak for the most distinct mountains in the district" />
		<tag k="name" v="Nærafjellet" />
		<tag k="natural" v="hill" />
		<tag k="place" v="locality" />
		<tag k="ssr:stedsnr" v="105623" />
	</node>
	<node lat="60.72630000010603" lon="5.722183334811559" id="-91421">
		<tag k="name" v="Skaret" />
		<tag k="natural" v="valley" />
		<tag k="place" v="locality" />
		<tag k="ssr:stedsnr" v="105582" />
	</node>
	<node lat="60.906008336707785" lon="6.01890832526472" id="-91422">
		<tag k="name" v="Steinevassbotn" />
		<tag k="natural" v="valley" />
		<tag k="place" v="locality" />
		<tag k="ssr:stedsnr" v="105726" />
	</node>
	<node lat="60.98709166598388" lon="5.980633336958762" id="-91423">
		<tag k="name" v="Austrebotnen" />
		<tag k="natural" v="valley" />
		<tag k="place" v="locality" />
		<tag k="ssr:stedsnr" v="251005" />
	</node>
	<node lat="60.985152776128395" lon="6.139211109511993" id="-91424">
		<tag k="name" v="Vieråna" />
		<tag k="ssr:stedsnr" v="251014" />
		<tag k="waterway" v="stream" />
	</node>
	<node lat="60.965625003755946" lon="6.034549995109874" id="-91425">
		<tag k="name" v="Verkalia" />
		<tag k="natural" v="slope" />
		<tag k="place" v="locality" />
		<tag k="ssr:stedsnr" v="251031" />
	</node>
	<node lat="60.90801020120536" lon="5.995299280945017" id="-91426">
		<tag k="name" v="Svartavatnet" />
		<tag k="natural" v="water" />
		<tag k="ssr:stedsnr" v="251070" />
		<tag k="water" v="lake" />
	</node>
	<node lat="60.918083331717625" lon="6.080788880365162" id="-91427">
		<tag k="name" v="Kvanngrødvatnet" />
		<tag k="natural" v="water" />
		<tag k="ssr:stedsnr" v="251074" />
		<tag k="water" v="lake" />
	</node>
	<node lat="60.901838888059636" lon="6.004749995875657" id="-91428">
		<tag k="name" v="Kyrabotnane" />
		<tag k="natural" v="valley" />
		<tag k="place" v="locality" />
		<tag k="ssr:stedsnr" v="251083" />
	</node>
	<node lat="60.891663889791076" lon="5.979669446747812" id="-91429">
		<tag k="name" v="Flatneset" />
		<tag k="natural" v="cape" />
		<tag k="ssr:stedsnr" v="251098" />
	</node>
	<node lat="60.957330553729165" lon="6.026433340903494" id="-91430">
		<tag k="historic" v="shieling" />
		<tag k="name" v="Heimrestølen" />
		<tag k="place" v="isolated_dwelling" />
		<tag k="ssr:stedsnr" v="251102" />
	</node>
	<node lat="60.9569277764431" lon="6.072758336257811" id="-91431">
		<tag k="fixme" v="consider natural=peak for the most distinct mountains in the district" />
		<tag k="name" v="Sørdalsrinden" />
		<tag k="natural" v="hill" />
		<tag k="place" v="locality" />
		<tag k="ssr:stedsnr" v="251109" />
	</node>
	<node lat="60.95336111301519" lon="5.913124996845221" id="-91432">
		<tag k="fixme" v="consider natural=peak for the most distinct mountains in the district" />
		<tag k="name" v="Eldhusfjellet" />
		<tag k="natural" v="hill" />
		<tag k="place" v="locality" />
		<tag k="ssr:stedsnr" v="251112" />
	</node>
	<node lat="60.93733889042791" lon="5.972330563466558" id="-91433">
		<tag k="fixme" v="consider place=hamlet" />
		<tag k="name" v="Steinsland" />
		<tag k="place" v="farm" />
		<tag k="ssr:stedsnr" v="251122" />
	</node>
	<node lat="60.933724998517526" lon="5.963811106453152" id="-91434">
		<tag k="name" v="Kvernhuselva" />
		<tag k="ssr:stedsnr" v="251126" />
		<tag k="waterway" v="stream" />
	</node>
	<node lat="60.818566662706736" lon="5.920775005993251" id="-91435">
		<tag k="name" v="Almelibotnen" />
		<tag k="natural" v="valley" />
		<tag k="place" v="locality" />
		<tag k="ssr:stedsnr" v="251158" />
	</node>
	<node lat="60.84670277679461" lon="5.916702770334365" id="-91436">
		<tag k="name" v="Sollielva" />
		<tag k="ssr:stedsnr" v="251173" />
		<tag k="waterway" v="stream" />
	</node>
	<node lat="61.01168888809868" lon="5.928691664386079" id="-91437">
		<tag k="fixme" v="consider natural=peak for the most distinct mountains in the district" />
		<tag k="name" v="Sundagsfjellet" />
		<tag k="natural" v="hill" />
		<tag k="place" v="locality" />
		<tag k="ssr:stedsnr" v="251386" />
	</node>
	<node lat="60.8421750023969" lon="5.723841674145809" id="-91438">
		<tag k="name" v="Trollholevatnet" />
		<tag k="natural" v="water" />
		<tag k="ssr:stedsnr" v="251419" />
	</node>
	<node lat="60.80072468086214" lon="5.71361573403317" id="-91439">
		<tag k="name" v="Sætravatnet" />
		<tag k="natural" v="water" />
		<tag k="ssr:stedsnr" v="251487" />
	</node>
	<node lat="60.81554255201025" lon="5.802421871297878" id="-91440">
		<tag k="alt_name" v="Mo" />
		<tag k="amenity" v="place_of_worship" />
		<tag k="denomination" v="lutheran" />
		<tag k="name" v="Mo kyrkje" />
		<tag k="religion" v="christian" />
		<tag k="ssr:stedsnr" v="251505" />
	</node>
	<node lat="60.80972499779531" lon="5.728083327589708" id="-91441">
		<tag k="name" v="Sauabotnen" />
		<tag k="natural" v="valley" />
		<tag k="place" v="locality" />
		<tag k="ssr:stedsnr" v="251512" />
	</node>
	<node lat="60.82578055284764" lon="5.845255557010404" id="-91442">
		<tag k="name" v="Granheim" />
		<tag k="place" v="farm" />
		<tag k="ssr:stedsnr" v="130103" />
	</node>
	<node lat="60.82169999685946" lon="5.925405552301403" id="-91443">
		<tag k="fixme" v="consider natural=peak for the most distinct mountains in the district" />
		<tag k="name" v="Trollavassfjellet" />
		<tag k="natural" v="hill" />
		<tag k="place" v="locality" />
		<tag k="ssr:stedsnr" v="130125" />
	</node>
	<node lat="60.83134166300873" lon="5.959925006907879" id="-91444">
		<tag k="name" v="Almelibekken" />
		<tag k="ssr:stedsnr" v="130131" />
		<tag k="waterway" v="stream" />
	</node>
	<node lat="60.81307500222414" lon="5.802249995077666" id="-91445">
		<tag k="name" v="Movika" />
		<tag k="natural" v="bay" />
		<tag k="ssr:stedsnr" v="165125" />
	</node>
	<node lat="60.7901583360207" lon="5.756005562825042" id="-91446">
		<tag k="name" v="Beitleneset" />
		<tag k="natural" v="cape" />
		<tag k="ssr:stedsnr" v="165127" />
	</node>
	<node lat="60.758972224427005" lon="5.697613887945449" id="-91447">
		<tag k="name" v="Fleo" />
		<tag k="natural" v="cape" />
		<tag k="ssr:stedsnr" v="165130" />
	</node>
	<node lat="60.77142222413237" lon="5.741916667095581" id="-91448">
		<tag k="name" v="Storaneset" />
		<tag k="natural" v="cape" />
		<tag k="ssr:stedsnr" v="165131" />
	</node>
	<node lat="60.75387499986936" lon="5.664311106141656" id="-91449">
		<tag k="fixme" v="consider natural=peak for the most distinct mountains in the district" />
		<tag k="name" v="Storlifjellet" />
		<tag k="natural" v="hill" />
		<tag k="place" v="locality" />
		<tag k="ssr:stedsnr" v="165580" />
	</node>
	<node lat="60.748205552149905" lon="5.672930561915607" id="-91450">
		<tag k="name" v="Stokkedalen" />
		<tag k="natural" v="valley" />
		<tag k="place" v="locality" />
		<tag k="ssr:stedsnr" v="165585" />
	</node>
	<node lat="60.8863833337402" lon="6.045424990936729" id="-91451">
		<tag k="name" v="Øykjabotn" />
		<tag k="natural" v="valley" />
		<tag k="place" v="locality" />
		<tag k="ssr:stedsnr" v="166517" />
	</node>
	<node lat="60.9193277772008" lon="5.9537611130693335" id="-91452">
		<tag k="name" v="Øyjordsberget" />
		<tag k="natural" v="hill" />
		<tag k="place" v="locality" />
		<tag k="ssr:stedsnr" v="166703" />
	</node>
	<node lat="60.93405278214658" lon="5.971844451097653" id="-91453">
		<tag k="bridge" v="yes" />
		<tag k="layer" v="1" />
		<tag k="name" v="Steinsland" />
		<tag k="ssr:stedsnr" v="168069" />
	</node>
	<node lat="60.90974999889152" lon="6.075888895680322" id="-91454">
		<tag k="name" v="Norddalseggene" />
		<tag k="natural" v="ridge" />
		<tag k="place" v="locality" />
		<tag k="ssr:stedsnr" v="190083" />
	</node>
	<node lat="60.90363055666968" lon="6.104249992652251" id="-91455">
		<tag k="fixme" v="consider natural=peak for the most distinct mountains in the district" />
		<tag k="name" v="Gavlafjellet" />
		<tag k="natural" v="hill" />
		<tag k="place" v="locality" />
		<tag k="ssr:stedsnr" v="190085" />
	</node>
	<node lat="60.83708611519391" lon="5.752255560049477" id="-91456">
		<tag k="fixme" v="consider natural=peak for the most distinct mountains in the district" />
		<tag k="name" v="Knausafjellet" />
		<tag k="natural" v="hill" />
		<tag k="place" v="locality" />
		<tag k="ssr:stedsnr" v="190417" />
	</node>
	<node lat="60.85111110923556" lon="5.760794446443487" id="-91457">
		<tag k="fixme" v="consider natural=peak for the most distinct mountains in the district" />
		<tag k="name" v="Tverrfjellet" />
		<tag k="natural" v="hill" />
		<tag k="place" v="locality" />
		<tag k="ssr:stedsnr" v="190420" />
	</node>
	<node lat="60.84757777892792" lon="5.767800005807709" id="-91458">
		<tag k="name" v="Dyrabotnen" />
		<tag k="natural" v="valley" />
		<tag k="place" v="locality" />
		<tag k="ssr:stedsnr" v="190422" />
	</node>
	<node lat="60.78458333338947" lon="5.7742500032052" id="-91459">
		<tag k="name" v="Bjørnabotnen" />
		<tag k="natural" v="valley" />
		<tag k="place" v="locality" />
		<tag k="ssr:stedsnr" v="190466" />
	</node>
	<node lat="60.78453055634435" lon="5.814558330214517" id="-91460">
		<tag k="alt_name" v="Hodnefjellsvatnet" />
		<tag k="name" v="Hornafjellsvatnet" />
		<tag k="natural" v="water" />
		<tag k="ssr:stedsnr" v="190471" />
	</node>
	<node lat="60.782491667634574" lon="5.699433335517551" id="-91461">
		<tag k="name" v="Moltebotnen" />
		<tag k="natural" v="valley" />
		<tag k="place" v="locality" />
		<tag k="ssr:stedsnr" v="190475" />
	</node>
	<node lat="60.791225002498585" lon="5.721550007476662" id="-91462">
		<tag k="name" v="Beitlatjørna" />
		<tag k="natural" v="water" />
		<tag k="ssr:stedsnr" v="190483" />
	</node>
	<node lat="60.82019166470345" lon="5.763391672093819" id="-91463">
		<tag k="historic" v="shieling" />
		<tag k="name" v="Otterstadstølen" />
		<tag k="place" v="isolated_dwelling" />
		<tag k="ssr:stedsnr" v="190512" />
	</node>
	<node lat="60.84377778076523" lon="5.872977780002203" id="-91464">
		<tag k="fixme" v="consider natural=peak for the most distinct mountains in the district" />
		<tag k="name" v="Storfjellet" />
		<tag k="natural" v="hill" />
		<tag k="place" v="locality" />
		<tag k="ssr:stedsnr" v="190827" />
	</node>
	<node lat="61.02760000062709" lon="6.049302779184865" id="-91465">
		<tag k="fixme" v="consider natural=peak for the most distinct mountains in the district" />
		<tag k="name" v="Runderabben" />
		<tag k="natural" v="hill" />
		<tag k="place" v="locality" />
		<tag k="ssr:stedsnr" v="191326" />
	</node>
	<node lat="60.890488886664485" lon="5.954663892126053" id="-91466">
		<tag k="fixme" v="consider natural=peak for the most distinct mountains in the district" />
		<tag k="name" v="Stortona" />
		<tag k="natural" v="hill" />
		<tag k="place" v="locality" />
		<tag k="ssr:stedsnr" v="191066" />
	</node>
	<node lat="60.88853333655096" lon="6.031130560635628" id="-91467">
		<tag k="name" v="Liland" />
		<tag k="place" v="farm" />
		<tag k="ssr:stedsnr" v="191073" />
	</node>
	<node lat="60.75354999570277" lon="5.725252784021571" id="-91468">
		<tag k="name" v="Mostraumen" />
		<tag k="place" v="farm" />
		<tag k="ssr:stedsnr" v="208287" />
	</node>
	<node lat="60.85224722145639" lon="5.973763897158823" id="-91469">
		<tag k="name" v="Øvre Helland" />
		<tag k="place" v="farm" />
		<tag k="ssr:stedsnr" v="269314" />
	</node>
	<node lat="60.89779999598457" lon="5.9514416582432546" id="-91470">
		<tag k="name" v="Flærne" />
		<tag k="place" v="locality" />
		<tag k="ssr:stedsnr" v="226731" />
	</node>
	<node lat="60.9018055589695" lon="5.956822224176705" id="-91471">
		<tag k="name" v="Brualia" />
		<tag k="natural" v="slope" />
		<tag k="place" v="locality" />
		<tag k="ssr:stedsnr" v="226738" />
	</node>
	<node lat="60.89348055487247" lon="6.00146945017475" id="-91472">
		<tag k="fixme" v="consider natural=peak for the most distinct mountains in the district" />
		<tag k="name" v="Støfjellet" />
		<tag k="natural" v="hill" />
		<tag k="place" v="locality" />
		<tag k="ssr:stedsnr" v="226746" />
	</node>
	<node lat="60.92368610983352" lon="5.957205554629432" id="-91473">
		<tag k="name" v="Greggusbrekkene" />
		<tag k="ssr:stedsnr" v="227695" />
		<tag k="waterway" v="stream" />
	</node>
	<node lat="60.83655555741523" lon="5.9239555532706" id="-91474">
		<tag k="name" v="Farestveit" />
		<tag k="place" v="farm" />
		<tag k="ssr:stedsnr" v="269307" />
	</node>
	<node lat="60.8376194458858" lon="5.929358335110298" id="-91475">
		<tag k="name" v="Farestveit" />
		<tag k="place" v="farm" />
		<tag k="ssr:stedsnr" v="269308" />
	</node>
	<node lat="60.86190833400141" lon="5.815297223055156" id="-91476">
		<tag k="fixme" v="consider tourism=alpine_hut or tourism=chalet" />
		<tag k="name" v="Skavlabu" />
		<tag k="ssr:stedsnr" v="282115" />
		<tag k="tourism" v="wilderness_hut" />
	</node>
	<node lat="60.87766666339705" lon="6.0072472151149165" id="-91477">
		<tag k="name" v="Hovden" />
		<tag k="natural" v="hill" />
		<tag k="place" v="locality" />
		<tag k="ssr:stedsnr" v="287603" />
	</node>
	<node lat="60.751269446967626" lon="5.745830555598379" id="-91478">
		<tag k="fixme" v="consider natural=peak for the most distinct mountains in the district" />
		<tag k="name" v="Toppfjellet" />
		<tag k="natural" v="hill" />
		<tag k="place" v="locality" />
		<tag k="ssr:stedsnr" v="287607" />
	</node>
	<node lat="60.77601388673035" lon="5.734713890545571" id="-91479">
		<tag k="name" v="Skjeggevikhelleren" />
		<tag k="place" v="locality" />
		<tag k="ssr:stedsnr" v="287612" />
	</node>
	<node lat="60.863874996633825" lon="6.019830556177154" id="-91480">
		<tag k="name" v="Ubyttebotn" />
		<tag k="natural" v="valley" />
		<tag k="place" v="locality" />
		<tag k="ssr:stedsnr" v="287576" />
	</node>
	<node lat="60.872230552341655" lon="5.996863889636603" id="-91481">
		<tag k="fixme" v="consider natural=peak for the most distinct mountains in the district" />
		<tag k="name" v="Furskatknausane" />
		<tag k="natural" v="hill" />
		<tag k="place" v="locality" />
		<tag k="ssr:stedsnr" v="287581" />
	</node>
	<node lat="60.845402773551754" lon="5.978344439726494" id="-91482">
		<tag k="name" v="Tona" />
		<tag k="place" v="locality" />
		<tag k="ssr:stedsnr" v="287595" />
	</node>
	<node lat="60.895263888506896" lon="6.015108339797435" id="-91483">
		<tag k="name" v="Fjelltona" />
		<tag k="place" v="locality" />
		<tag k="ssr:stedsnr" v="287733" />
	</node>
	<node lat="60.935647218622044" lon="5.976302783976146" id="-91484">
		<tag k="name" v="Holmane" />
		<tag k="place" v="islet" />
		<tag k="ssr:stedsnr" v="287751" />
	</node>
	<node lat="60.73524999969576" lon="5.696780549054054" id="-91485">
		<tag k="name" v="Djupedalen" />
		<tag k="natural" v="valley" />
		<tag k="place" v="locality" />
		<tag k="ssr:stedsnr" v="309341" />
	</node>
	<node lat="60.7758499968989" lon="5.682900007977385" id="-91486">
		<tag k="historic" v="shieling" />
		<tag k="name" v="Nottveitsætra" />
		<tag k="place" v="isolated_dwelling" />
		<tag k="ssr:stedsnr" v="311487" />
	</node>
	<node lat="60.97421666887397" lon="5.960538880497358" id="-91487">
		<tag k="name" v="Trongedalselva" />
		<tag k="ssr:stedsnr" v="312004" />
		<tag k="waterway" v="stream" />
	</node>
	<node lat="60.982575002249646" lon="6.108286106575135" id="-91488">
		<tag k="historic" v="shieling" />
		<tag k="name" v="Steinslandsstølen" />
		<tag k="place" v="isolated_dwelling" />
		<tag k="ssr:stedsnr" v="312017" />
	</node>
	<node lat="60.96648333704283" lon="5.962663893646277" id="-91489">
		<tag k="name" v="Tjuvhelleren" />
		<tag k="natural" v="valley" />
		<tag k="place" v="locality" />
		<tag k="ssr:stedsnr" v="312021" />
	</node>
	<node lat="60.82355277660299" lon="5.8449944464662815" id="-91490">
		<tag k="alt_name" v="Nesheim" />
		<tag k="name" v="Nesjane" />
		<tag k="place" v="farm" />
		<tag k="ssr:stedsnr" v="312110" />
	</node>
	<node lat="60.85617777815375" lon="5.873386120203067" id="-91491">
		<tag k="historic" v="shieling" />
		<tag k="name" v="Tveradalsstølen" />
		<tag k="place" v="isolated_dwelling" />
		<tag k="ssr:stedsnr" v="312167" />
	</node>
	<node lat="60.84085277841037" lon="5.7938527830296005" id="-91492">
		<tag k="name" v="Kupa" />
		<tag k="natural" v="valley" />
		<tag k="place" v="locality" />
		<tag k="ssr:stedsnr" v="312369" />
	</node>
	<node lat="60.84542500357784" lon="5.836283328370544" id="-91493">
		<tag k="name" v="Leina" />
		<tag k="natural" v="slope" />
		<tag k="place" v="locality" />
		<tag k="ssr:stedsnr" v="312374" />
	</node>
	<node lat="60.79992777465712" lon="5.8250166686587495" id="-91494">
		<tag k="name" v="Smylmbotnane" />
		<tag k="natural" v="valley" />
		<tag k="place" v="locality" />
		<tag k="ssr:stedsnr" v="312467" />
	</node>
	<node lat="60.78298610723965" lon="5.737461106311321" id="-91495">
		<tag k="name" v="Skjeggevikdalen" />
		<tag k="natural" v="valley" />
		<tag k="place" v="locality" />
		<tag k="ssr:stedsnr" v="468588" />
	</node>
	<node lat="60.826008333645895" lon="5.753938895240092" id="-91496">
		<tag k="name" v="Øvstafallet" />
		<tag k="place" v="locality" />
		<tag k="ssr:stedsnr" v="468593" />
	</node>
	<node lat="60.763461114657794" lon="5.668524997445865" id="-91497">
		<tag k="name" v="Storbotsdalen" />
		<tag k="natural" v="valley" />
		<tag k="place" v="locality" />
		<tag k="ssr:stedsnr" v="468537" />
	</node>
	<node lat="60.77695000290265" lon="5.757891663947892" id="-91498">
		<tag k="name" v="Langedalsvika" />
		<tag k="natural" v="bay" />
		<tag k="ssr:stedsnr" v="469159" />
	</node>
	<node lat="60.76770821382221" lon="5.728114947886525" id="-91499">
		<tag k="layer" v="-1" />
		<tag k="name" v="Mostraumtunnelen" />
		<tag k="ssr:stedsnr" v="469335" />
		<tag k="tunnel" v="yes" />
	</node>
	<node lat="60.876747218270566" lon="6.012527774352991" id="-91500">
		<tag k="name" v="Hovdenberget" />
		<tag k="natural" v="hill" />
		<tag k="place" v="locality" />
		<tag k="ssr:stedsnr" v="469596" />
	</node>
	<node lat="60.85176944233247" lon="5.84507778343496" id="-91501">
		<tag k="name" v="Blombotn" />
		<tag k="natural" v="valley" />
		<tag k="place" v="locality" />
		<tag k="ssr:stedsnr" v="469542" />
	</node>
	<node lat="60.827475001028375" lon="5.8360805575632835" id="-91502">
		<tag k="name" v="Svalia" />
		<tag k="natural" v="slope" />
		<tag k="place" v="locality" />
		<tag k="ssr:stedsnr" v="469553" />
	</node>
	<node lat="60.831094441922545" lon="5.84832500140753" id="-91503">
		<tag k="name" v="Stegahamrane" />
		<tag k="natural" v="hill" />
		<tag k="place" v="locality" />
		<tag k="ssr:stedsnr" v="469554" />
	</node>
	<node lat="60.92084999982319" lon="5.969400009217989" id="-91504">
		<tag k="name" v="Rossevika" />
		<tag k="natural" v="bay" />
		<tag k="ssr:stedsnr" v="469730" />
	</node>
	<node lat="60.91271944766727" lon="5.945108326529923" id="-91505">
		<tag k="name" v="Seglet" />
		<tag k="place" v="locality" />
		<tag k="ssr:stedsnr" v="469737" />
	</node>
	<node lat="60.93017777726711" lon="5.979549993024023" id="-91506">
		<tag k="name" v="Leitet" />
		<tag k="natural" v="hill" />
		<tag k="place" v="locality" />
		<tag k="ssr:stedsnr" v="469748" />
	</node>
	<node lat="60.946444444665445" lon="5.977338883147001" id="-91507">
		<tag k="fixme" v="consider natural=peak for the most distinct mountains in the district" />
		<tag k="name" v="Rusta" />
		<tag k="natural" v="hill" />
		<tag k="place" v="locality" />
		<tag k="ssr:stedsnr" v="494782" />
	</node>
	<node lat="60.792377776649246" lon="5.756163884831587" id="-91508">
		<tag k="bridge" v="yes" />
		<tag k="layer" v="1" />
		<tag k="name" v="Slottet" />
		<tag k="ssr:stedsnr" v="472047" />
	</node>
	<node lat="60.81181388920519" lon="5.778477771381476" id="-91509">
		<tag k="bridge" v="yes" />
		<tag k="layer" v="1" />
		<tag k="name" v="Grønhaug" />
		<tag k="ssr:stedsnr" v="472050" />
	</node>
	<node lat="60.74426944690524" lon="5.700063892479366" id="-91510">
		<tag k="name" v="Mosura" />
		<tag k="place" v="locality" />
		<tag k="ssr:stedsnr" v="347554" />
	</node>
	<node lat="60.76900833217168" lon="5.703991664358467" id="-91511">
		<tag k="name" v="Nottveitgjela" />
		<tag k="natural" v="gorge" />
		<tag k="ssr:stedsnr" v="347563" />
	</node>
	<node lat="60.773730553427065" lon="5.743111108178618" id="-91512">
		<tag k="name" v="Storevika" />
		<tag k="natural" v="bay" />
		<tag k="ssr:stedsnr" v="347566" />
	</node>
	<node lat="60.753241664372894" lon="5.678674992585908" id="-91513">
		<tag k="name" v="Fitjane" />
		<tag k="place" v="locality" />
		<tag k="ssr:stedsnr" v="347580" />
	</node>
	<node lat="60.75987221951771" lon="5.6840555477334584" id="-91514">
		<tag k="name" v="Stokkleiva" />
		<tag k="natural" v="slope" />
		<tag k="place" v="locality" />
		<tag k="ssr:stedsnr" v="347582" />
	</node>
	<node lat="60.78456138492927" lon="5.752769275553924" id="-91515">
		<tag k="layer" v="-1" />
		<tag k="name" v="Slottsportentunnelen" />
		<tag k="ssr:stedsnr" v="347759" />
		<tag k="tunnel" v="yes" />
	</node>
	<node lat="60.89363889308743" lon="6.014069446333278" id="-91516">
		<tag k="name" v="Ørne Kråa" />
		<tag k="place" v="locality" />
		<tag k="ssr:stedsnr" v="348673" />
	</node>
	<node lat="60.91491666219548" lon="5.967927775567586" id="-91517">
		<tag k="bridge" v="yes" />
		<tag k="layer" v="1" />
		<tag k="name" v="Reveå" />
		<tag k="ssr:stedsnr" v="350053" />
	</node>
	<node lat="60.98251313305167" lon="5.924220733612047" id="-91518">
		<tag k="name" v="Vestrebotnvotna" />
		<tag k="natural" v="water" />
		<tag k="ssr:stedsnr" v="372006" />
		<tag k="water" v="lake" />
	</node>
	<node lat="60.96893610740834" lon="6.012152785298002" id="-91519">
		<tag k="name" v="Fjellstølelva" />
		<tag k="ssr:stedsnr" v="372012" />
		<tag k="waterway" v="stream" />
	</node>
	<node lat="60.9297694414789" lon="5.962211113760821" id="-91520">
		<tag k="name" v="Gregusbekken" />
		<tag k="ssr:stedsnr" v="372127" />
		<tag k="waterway" v="stream" />
	</node>
	<node lat="60.925066663180274" lon="6.012574998513503" id="-91521">
		<tag k="name" v="Sauaholene" />
		<tag k="natural" v="valley" />
		<tag k="place" v="locality" />
		<tag k="ssr:stedsnr" v="372129" />
	</node>
	<node lat="60.862536110581416" lon="5.85166945245334" id="-91522">
		<tag k="name" v="Tverrlia" />
		<tag k="natural" v="slope" />
		<tag k="place" v="locality" />
		<tag k="ssr:stedsnr" v="372162" />
	</node>
	<node lat="60.879105553425255" lon="6.018383336453395" id="-91523">
		<tag k="fixme" v="consider natural=peak for the most distinct mountains in the district" />
		<tag k="name" v="Skrednipa" />
		<tag k="natural" v="hill" />
		<tag k="place" v="locality" />
		<tag k="ssr:stedsnr" v="372171" />
	</node>
	<node lat="60.86334444679689" lon="5.864725001662588" id="-91524">
		<tag k="name" v="Seljedalselva" />
		<tag k="ssr:stedsnr" v="372174" />
		<tag k="waterway" v="stream" />
	</node>
	<node lat="60.86526666689679" lon="5.86431665898376" id="-91525">
		<tag k="name" v="Seljedalen" />
		<tag k="natural" v="valley" />
		<tag k="place" v="locality" />
		<tag k="ssr:stedsnr" v="372177" />
	</node>
	<node lat="60.760005559696715" lon="5.6941055539296315" id="-91526">
		<tag k="fixme" v="consider place=hamlet" />
		<tag k="name" v="Nottveit" />
		<tag k="place" v="farm" />
		<tag k="ssr:stedsnr" v="372056" />
	</node>
	<node lat="60.758074997340266" lon="5.754027769682929" id="-91527">
		<tag k="historic" v="shieling" />
		<tag k="name" v="Fagerstølen" />
		<tag k="place" v="isolated_dwelling" />
		<tag k="ssr:stedsnr" v="372059" />
	</node>
	<node lat="60.839277779373944" lon="5.993819441731" id="-91528">
		<tag k="fixme" v="consider natural=peak for the most distinct mountains in the district" />
		<tag k="name" v="Sørskarfjellet" />
		<tag k="natural" v="hill" />
		<tag k="place" v="locality" />
		<tag k="ssr:stedsnr" v="373106" />
	</node>
	<node lat="60.84195555184227" lon="5.9656194488411485" id="-91529">
		<tag k="name" v="Merkestigbekken" />
		<tag k="ssr:stedsnr" v="373112" />
		<tag k="waterway" v="stream" />
	</node>
	<node lat="60.84743610878652" lon="5.95915277151081" id="-91530">
		<tag k="name" v="Vaulane" />
		<tag k="place" v="locality" />
		<tag k="ssr:stedsnr" v="373113" />
	</node>
	<node lat="60.84022499866448" lon="5.953272230961102" id="-91531">
		<tag k="name" v="Farestveit" />
		<tag k="place" v="farm" />
		<tag k="ssr:stedsnr" v="390292" />
	</node>
	<node lat="60.81744166968806" lon="5.855069444715221" id="-91532">
		<tag k="name" v="Holmabrota" />
		<tag k="natural" v="hill" />
		<tag k="place" v="locality" />
		<tag k="ssr:stedsnr" v="409519" />
	</node>
	<node lat="60.8572611114001" lon="5.981880552823785" id="-91533">
		<tag k="name" v="Rusta" />
		<tag k="place" v="locality" />
		<tag k="ssr:stedsnr" v="409544" />
	</node>
	<node lat="60.85748055532574" lon="5.999088891821893" id="-91534">
		<tag k="name" v="Tverrdalen" />
		<tag k="natural" v="valley" />
		<tag k="place" v="locality" />
		<tag k="ssr:stedsnr" v="409546" />
	</node>
	<node lat="60.94328611510024" lon="5.975316662986363" id="-91535">
		<tag k="name" v="Halsen" />
		<tag k="natural" v="ridge" />
		<tag k="place" v="locality" />
		<tag k="ssr:stedsnr" v="409711" />
	</node>
	<node lat="60.74109999587514" lon="5.720025000125143" id="-91536">
		<tag k="historic" v="shieling" />
		<tag k="name" v="Mostraumstølen" />
		<tag k="place" v="isolated_dwelling" />
		<tag k="ssr:stedsnr" v="491320" />
	</node>
	<node lat="60.735024999656474" lon="5.7351250070946955" id="-91537">
		<tag k="alt_name" v="Norenakken" />
		<tag k="fixme" v="consider natural=peak for the most distinct mountains in the district" />
		<tag k="name" v="Nordrenakken" />
		<tag k="natural" v="hill" />
		<tag k="place" v="locality" />
		<tag k="ssr:stedsnr" v="431321" />
	</node>
	<node lat="60.74383610938504" lon="5.662836118555936" id="-91538">
		<tag k="name" v="Tverrdalen" />
		<tag k="natural" v="valley" />
		<tag k="place" v="locality" />
		<tag k="ssr:stedsnr" v="491466" />
	</node>
	<node lat="60.748099996749374" lon="5.744827784067783" id="-91539">
		<tag k="fixme" v="consider natural=peak for the most distinct mountains in the district" />
		<tag k="name" v="Njuken" />
		<tag k="natural" v="hill" />
		<tag k="place" v="locality" />
		<tag k="ssr:stedsnr" v="491468" />
	</node>
	<node lat="61.00470483362914" lon="6.044196865378654" id="-91540">
		<tag k="name" v="Åsabotnvotna" />
		<tag k="natural" v="water" />
		<tag k="ssr:stedsnr" v="433009" />
		<tag k="water" v="lake" />
	</node>
	<node lat="60.97530277668533" lon="5.949858332841798" id="-91541">
		<tag k="name" v="Vestrebotnelva" />
		<tag k="ssr:stedsnr" v="433013" />
		<tag k="waterway" v="stream" />
	</node>
	<node lat="60.95496111206444" lon="6.082730556275485" id="-91542">
		<tag k="name" v="Rindadalen" />
		<tag k="natural" v="valley" />
		<tag k="place" v="locality" />
		<tag k="ssr:stedsnr" v="433115" />
	</node>
	<node lat="60.936863885153485" lon="6.113894439783786" id="-91543">
		<tag k="alt_name" v="Sørdalsvatnet, øvre" />
		<tag k="name" v="Øvre Sørdalsvatnet" />
		<tag k="natural" v="water" />
		<tag k="ssr:stedsnr" v="433125" />
		<tag k="water" v="lake" />
	</node>
	<node lat="60.91384261334028" lon="5.909843436328611" id="-91544">
		<tag k="name" v="Steinadalstjørnene" />
		<tag k="natural" v="water" />
		<tag k="ssr:stedsnr" v="433131" />
		<tag k="water" v="lake" />
	</node>
	<node lat="60.85627499668688" lon="5.75496666575575" id="-91545">
		<tag k="alt_name" v="Veslavatnet;Vetlevatnet" />
		<tag k="name" v="Vetlavatnet" />
		<tag k="natural" v="water" />
		<tag k="ssr:stedsnr" v="433407" />
	</node>
	<node lat="60.841705555488076" lon="5.769463893485669" id="-91546">
		<tag k="name" v="Steinabotnen" />
		<tag k="natural" v="valley" />
		<tag k="place" v="locality" />
		<tag k="ssr:stedsnr" v="433377" />
	</node>
	<node lat="60.84646944414127" lon="5.7479694361306635" id="-91547">
		<tag k="name" v="Torrisskaret" />
		<tag k="natural" v="valley" />
		<tag k="place" v="locality" />
		<tag k="ssr:stedsnr" v="433382" />
	</node>
	<node lat="60.85445833692809" lon="6.003683335280376" id="-91548">
		<tag k="name" v="Tveradalen" />
		<tag k="natural" v="valley" />
		<tag k="place" v="locality" />
		<tag k="ssr:stedsnr" v="434169" />
	</node>
	<node lat="61.02753333346513" lon="6.0087722171993745" id="-91549">
		<tag k="alt_name" v="Norddalsvatnet, store;Store Nordalsvatnet" />
		<tag k="name" v="Store Norddalsvatnet" />
		<tag k="natural" v="water" />
		<tag k="ssr:stedsnr" v="434331" />
		<tag k="water" v="lake" />
	</node>
	<node lat="60.798774997673156" lon="5.807500009332181" id="-91550">
		<tag k="historic" v="shieling" />
		<tag k="name" v="Mostølen" />
		<tag k="place" v="isolated_dwelling" />
		<tag k="ssr:stedsnr" v="493449" />
	</node>
	<node lat="60.89324444326769" lon="6.062352772123765" id="-91551">
		<tag k="historic" v="shieling" />
		<tag k="name" v="Krosstølen" />
		<tag k="place" v="isolated_dwelling" />
		<tag k="ssr:stedsnr" v="494090" />
	</node>
	<node lat="60.95843333020234" lon="5.974277778411977" id="-91552">
		<tag k="name" v="Botnelvbekken" />
		<tag k="ssr:stedsnr" v="494036" />
		<tag k="waterway" v="stream" />
	</node>
	<node lat="60.96099999928161" lon="5.958952768711124" id="-91553">
		<tag k="name" v="Botnelva" />
		<tag k="ssr:stedsnr" v="494037" />
		<tag k="waterway" v="stream" />
	</node>
	<node lat="60.753108334512916" lon="5.68159444288645" id="-91554">
		<tag k="name" v="Fitjabekken" />
		<tag k="ssr:stedsnr" v="494057" />
		<tag k="waterway" v="stream" />
	</node>
	<node lat="60.81654999792417" lon="5.894402772992531" id="-91555">
		<tag k="name" v="Stølsdalen" />
		<tag k="natural" v="valley" />
		<tag k="place" v="locality" />
		<tag k="ssr:stedsnr" v="494127" />
	</node>
	<node lat="60.82547500302681" lon="5.935916674923278" id="-91556">
		<tag k="name" v="Ædnarusta" />
		<tag k="natural" v="slope" />
		<tag k="place" v="locality" />
		<tag k="ssr:stedsnr" v="494132" />
	</node>
	<node lat="60.82159999801719" lon="5.904677780646886" id="-91557">
		<tag k="name" v="Bjørnabotnen" />
		<tag k="natural" v="valley" />
		<tag k="place" v="locality" />
		<tag k="ssr:stedsnr" v="494133" />
	</node>
	<node lat="60.82857500183885" lon="5.947549998513117" id="-91558">
		<tag k="name" v="Todeilselva" />
		<tag k="ssr:stedsnr" v="494136" />
		<tag k="waterway" v="stream" />
	</node>
	<node lat="60.883438886898105" lon="6.0437694511658355" id="-91559">
		<tag k="name" v="Sørelva" />
		<tag k="ssr:stedsnr" v="494141" />
		<tag k="waterway" v="river" />
	</node>
	<node lat="60.87243055966289" lon="5.887644448073491" id="-91560">
		<tag k="name" v="Nordbotnen" />
		<tag k="natural" v="valley" />
		<tag k="place" v="locality" />
		<tag k="ssr:stedsnr" v="494145" />
	</node>
	<node lat="60.84815555387366" lon="5.85076389773947" id="-91561">
		<tag k="name" v="Hellandsdalen" />
		<tag k="natural" v="valley" />
		<tag k="place" v="locality" />
		<tag k="ssr:stedsnr" v="494149" />
	</node>
	<node lat="60.85539444269647" lon="5.85555832446846" id="-91562">
		<tag k="historic" v="shieling" />
		<tag k="name" v="Sørstølen" />
		<tag k="place" v="isolated_dwelling" />
		<tag k="ssr:stedsnr" v="494158" />
	</node>
	<node lat="60.834499999530045" lon="5.823263886600408" id="-91563">
		<tag k="fixme" v="consider natural=peak for the most distinct mountains in the district" />
		<tag k="name" v="Tofjellet" />
		<tag k="natural" v="hill" />
		<tag k="place" v="locality" />
		<tag k="ssr:stedsnr" v="494343" />
	</node>
	<node lat="60.80662777903124" lon="5.766233336613176" id="-91564">
		<tag k="name" v="Klubbane" />
		<tag k="natural" v="cape" />
		<tag k="ssr:stedsnr" v="494434" />
	</node>
	<node lat="60.802483329965675" lon="5.7426888971015995" id="-91565">
		<tag k="name" v="Kollhaugen" />
		<tag k="natural" v="hill" />
		<tag k="place" v="locality" />
		<tag k="ssr:stedsnr" v="494437" />
	</node>
	<node lat="60.7553946154779" lon="5.720340795970674" id="-91566">
		<tag k="fixme" v="consider place=hamlet" />
		<tag k="name" v="Mostraumen" />
		<tag k="place" v="farm" />
		<tag k="ssr:stedsnr" v="451315" />
	</node>
	<node lat="60.938027781839295" lon="5.980261103765864" id="-91567">
		<tag k="name" v="Haugen" />
		<tag k="natural" v="hill" />
		<tag k="place" v="locality" />
		<tag k="ssr:stedsnr" v="675128" />
	</node>
	<node lat="60.93185000196094" lon="6.1025138817413955" id="-91568">
		<tag k="name" v="Sørdalsskaret" />
		<tag k="natural" v="valley" />
		<tag k="place" v="locality" />
		<tag k="ssr:stedsnr" v="675145" />
	</node>
	<node lat="60.76947499901328" lon="5.786527784281933" id="-91569">
		<tag k="fixme" v="consider natural=peak for the most distinct mountains in the district" />
		<tag k="name" v="Slettafjellet" />
		<tag k="natural" v="hill" />
		<tag k="place" v="locality" />
		<tag k="ssr:stedsnr" v="468543" />
	</node>
	<node lat="60.78396110931138" lon="5.716833338469336" id="-91570">
		<tag k="fixme" v="consider natural=peak for the most distinct mountains in the district" />
		<tag k="name" v="Raunefjellet" />
		<tag k="natural" v="hill" />
		<tag k="place" v="locality" />
		<tag k="ssr:stedsnr" v="675471" />
	</node>
	<node lat="60.851802781059874" lon="5.782386105107191" id="-91571">
		<tag k="fixme" v="consider natural=peak for the most distinct mountains in the district" />
		<tag k="name" v="Høganipa" />
		<tag k="natural" v="hill" />
		<tag k="place" v="locality" />
		<tag k="ssr:stedsnr" v="675442" />
	</node>
	<node lat="60.777808334484085" lon="5.689788880917998" id="-91572">
		<tag k="name" v="Sætradalen" />
		<tag k="natural" v="valley" />
		<tag k="place" v="locality" />
		<tag k="ssr:stedsnr" v="675478" />
	</node>
	<node lat="60.79472500097727" lon="5.756180549705211" id="-91573">
		<tag k="fixme" v="consider natural=peak for the most distinct mountains in the district" />
		<tag k="name" v="Slottet" />
		<tag k="natural" v="hill" />
		<tag k="place" v="locality" />
		<tag k="ssr:stedsnr" v="675491" />
	</node>
	<node lat="60.81273888927943" lon="5.844777777064396" id="-91574">
		<tag k="alt_name" v="Halvgjengebekken" />
		<tag k="name" v="Haljebekken" />
		<tag k="ssr:stedsnr" v="469561" />
		<tag k="waterway" v="stream" />
	</node>
	<node lat="60.85458333327683" lon="5.9760916629413865" id="-91575">
		<tag k="name" v="Langhaugen" />
		<tag k="natural" v="hill" />
		<tag k="place" v="locality" />
		<tag k="ssr:stedsnr" v="469571" />
	</node>
	<node lat="60.84723888809838" lon="5.9508499946146145" id="-91576">
		<tag k="name" v="Vetletunga" />
		<tag k="place" v="locality" />
		<tag k="ssr:stedsnr" v="469572" />
	</node>
	<node lat="60.85766111058074" lon="6.0016333307413126" id="-91577">
		<tag k="historic" v="shieling" />
		<tag k="name" v="Gamlestølen" />
		<tag k="place" v="locality" />
		<tag k="ssr:stedsnr" v="469580" />
	</node>
	<node lat="60.84233889209128" lon="5.957311113087273" id="-91578">
		<tag k="name" v="Furehaugane" />
		<tag k="natural" v="hill" />
		<tag k="place" v="locality" />
		<tag k="ssr:stedsnr" v="469586" />
	</node>
	<node lat="60.89924722642845" lon="5.98466110804204" id="-91579">
		<tag k="name" v="Geithelleren" />
		<tag k="place" v="locality" />
		<tag k="ssr:stedsnr" v="469729" />
	</node>
	<node lat="60.91253333108417" lon="5.972819452742478" id="-91580">
		<tag k="name" v="Tausholmen" />
		<tag k="place" v="islet" />
		<tag k="ssr:stedsnr" v="676062" />
	</node>
	<node lat="60.902238891624584" lon="5.965663896629167" id="-91581">
		<tag k="name" v="Tverrelva" />
		<tag k="ssr:stedsnr" v="676066" />
		<tag k="waterway" v="stream" />
	</node>
	<node lat="60.95876111168528" lon="5.984502770487153" id="-91582">
		<tag k="fixme" v="consider natural=peak for the most distinct mountains in the district" />
		<tag k="name" v="Mona" />
		<tag k="natural" v="hill" />
		<tag k="place" v="locality" />
		<tag k="ssr:stedsnr" v="676027" />
	</node>
	<node lat="60.871508330691505" lon="6.034405561336616" id="-91583">
		<tag k="fixme" v="consider natural=peak for the most distinct mountains in the district" />
		<tag k="name" v="Blånipa" />
		<tag k="natural" v="hill" />
		<tag k="place" v="locality" />
		<tag k="ssr:stedsnr" v="676156" />
	</node>
	<node lat="60.802786113209876" lon="5.795199995037493" id="-91584">
		<tag k="name" v="Geitaskaret" />
		<tag k="natural" v="valley" />
		<tag k="place" v="locality" />
		<tag k="ssr:stedsnr" v="676471" />
	</node>
	<node lat="60.78007500103438" lon="5.770527777821196" id="-91585">
		<tag k="name" v="Høgaberget" />
		<tag k="natural" v="hill" />
		<tag k="place" v="locality" />
		<tag k="ssr:stedsnr" v="493426" />
	</node>
	<node lat="60.833936110823856" lon="5.938713897496332" id="-91586">
		<tag k="name" v="Heiane" />
		<tag k="natural" v="slope" />
		<tag k="place" v="locality" />
		<tag k="ssr:stedsnr" v="494115" />
	</node>
	<node lat="60.847477775220945" lon="5.947900001129233" id="-91587">
		<tag k="name" v="Vaulura" />
		<tag k="natural" v="scree" />
		<tag k="ssr:stedsnr" v="494120" />
	</node>
	<node lat="60.8606361130196" lon="6.010475008403092" id="-91588">
		<tag k="name" v="Kroken" />
		<tag k="place" v="isolated_dwelling" />
		<tag k="ssr:stedsnr" v="494162" />
	</node>
	<node lat="60.860896201136434" lon="6.0497239975395924" id="-91589">
		<tag k="alt_name" v="Norddalsvatnet, øvre" />
		<tag k="name" v="Øvre Norddalsvatnet" />
		<tag k="natural" v="water" />
		<tag k="ssr:stedsnr" v="494165" />
		<tag k="water" v="lake" />
	</node>
	<node lat="60.8188922556359" lon="5.811092531169635" id="-91590">
		<tag k="fixme" v="consider place=hamlet" />
		<tag k="name" v="Otterstad" />
		<tag k="place" v="farm" />
		<tag k="ssr:stedsnr" v="494461" />
	</node>
	<node lat="60.83807500354562" lon="5.771158326181551" id="-91591">
		<tag k="name" v="Høgahjellane" />
		<tag k="place" v="locality" />
		<tag k="ssr:stedsnr" v="494369" />
	</node>
	<node lat="60.76467499744589" lon="5.721838891361913" id="-91592">
		<tag k="name" v="Seljaneset" />
		<tag k="natural" v="cape" />
		<tag k="ssr:stedsnr" v="529606" />
	</node>
	<node lat="60.764838892503775" lon="5.727163885598606" id="-91593">
		<tag k="name" v="Mostraum" />
		<tag k="place" v="farm" />
		<tag k="ssr:stedsnr" v="529607" />
	</node>
	<node lat="60.815297222923384" lon="5.776311118329747" id="-91594">
		<tag k="name" v="Magnehjellane" />
		<tag k="place" v="locality" />
		<tag k="ssr:stedsnr" v="529613" />
	</node>
	<node lat="60.777650003208336" lon="5.680558325839337" id="-91595">
		<tag k="name" v="Åsbrekkena" />
		<tag k="natural" v="slope" />
		<tag k="place" v="locality" />
		<tag k="ssr:stedsnr" v="529574" />
	</node>
	<node lat="60.74904798960706" lon="5.656673004915078" id="-91596">
		<tag k="name" v="Blombrekkstjørna" />
		<tag k="natural" v="water" />
		<tag k="ssr:stedsnr" v="530179" />
	</node>
	<node lat="60.85003280839664" lon="5.974565703553954" id="-91597">
		<tag k="name" v="Tjørnane" />
		<tag k="natural" v="water" />
		<tag k="ssr:stedsnr" v="530570" />
		<tag k="water" v="lake" />
	</node>
	<node lat="60.84569722499452" lon="5.94428055035661" id="-91598">
		<tag k="name" v="Stortunga" />
		<tag k="place" v="locality" />
		<tag k="ssr:stedsnr" v="530579" />
	</node>
	<node lat="60.83967777495032" lon="5.972261114419377" id="-91599">
		<tag k="name" v="Bjørkhaugane" />
		<tag k="natural" v="hill" />
		<tag k="place" v="locality" />
		<tag k="ssr:stedsnr" v="530585" />
	</node>
	<node lat="60.87494150270658" lon="5.979320408570277" id="-91600">
		<tag k="name" v="Naustvika" />
		<tag k="natural" v="bay" />
		<tag k="ssr:stedsnr" v="530588" />
	</node>
	<node lat="60.89278333542985" lon="5.949324999480975" id="-91601">
		<tag k="name" v="Tverråbotn" />
		<tag k="natural" v="valley" />
		<tag k="place" v="locality" />
		<tag k="ssr:stedsnr" v="530705" />
	</node>
	<node lat="60.90772777343025" lon="5.978391664791502" id="-91602">
		<tag k="name" v="Småslåttna" />
		<tag k="place" v="locality" />
		<tag k="ssr:stedsnr" v="530710" />
	</node>
	<node lat="60.890830556661676" lon="5.967855564090929" id="-91603">
		<tag k="name" v="Godstrand" />
		<tag k="natural" v="beach" />
		<tag k="ssr:stedsnr" v="530696" />
	</node>
	<node lat="60.90434444892651" lon="5.963361113466403" id="-91604">
		<tag k="name" v="Nålten" />
		<tag k="place" v="locality" />
		<tag k="ssr:stedsnr" v="530701" />
	</node>
	<node lat="60.957352776149015" lon="6.129663892793853" id="-91605">
		<tag k="fixme" v="consider natural=peak for the most distinct mountains in the district" />
		<tag k="name" v="Hornafjellet" />
		<tag k="natural" v="hill" />
		<tag k="place" v="locality" />
		<tag k="ssr:stedsnr" v="554105" />
	</node>
	<node lat="60.944977780866054" lon="6.063716665842245" id="-91606">
		<tag k="alt_name" v="Skålebotnsvatnet, øvre" />
		<tag k="name" v="Øvre Skålebotnsvatnet" />
		<tag k="place" v="locality" />
		<tag k="ssr:stedsnr" v="554117" />
	</node>
	<node lat="60.93447500305769" lon="5.945219450944646" id="-91607">
		<tag k="name" v="Kvernhusbotnen" />
		<tag k="natural" v="valley" />
		<tag k="place" v="locality" />
		<tag k="ssr:stedsnr" v="554119" />
	</node>
	<node lat="60.83772535162513" lon="5.934020763936424" id="-91608">
		<tag k="fixme" v="consider place=hamlet" />
		<tag k="name" v="Farestveit" />
		<tag k="place" v="farm" />
		<tag k="ssr:stedsnr" v="554128" />
	</node>
	<node lat="60.83176666607085" lon="5.883061104331664" id="-91609">
		<tag k="name" v="Hellandsfossen" />
		<tag k="natural" v="waterfall" />
		<tag k="ssr:stedsnr" v="554129" />
	</node>
	<node lat="60.82278611465173" lon="5.8620194380317745" id="-91610">
		<tag k="name" v="Modalen" />
		<tag k="natural" v="valley" />
		<tag k="place" v="locality" />
		<tag k="ssr:stedsnr" v="554131" />
	</node>
	<node lat="60.826466665642094" lon="5.8439527738963" id="-91611">
		<tag k="name" v="Hugnadstad" />
		<tag k="place" v="farm" />
		<tag k="ssr:stedsnr" v="554135" />
	</node>
	<node lat="60.839024996210696" lon="5.904299997685085" id="-91612">
		<tag k="fixme" v="consider place=hamlet" />
		<tag k="name" v="Almelii" />
		<tag k="place" v="farm" />
		<tag k="ssr:stedsnr" v="554138" />
	</node>
	<node lat="60.979852778318204" lon="5.917950004366845" id="-91613">
		<tag k="name" v="Vestrebotnen" />
		<tag k="natural" v="valley" />
		<tag k="place" v="locality" />
		<tag k="ssr:stedsnr" v="554009" />
	</node>
	<node lat="60.89620555277451" lon="6.03474999824185" id="-91614">
		<tag k="fixme" v="consider natural=peak for the most distinct mountains in the district" />
		<tag k="name" v="Knolten" />
		<tag k="natural" v="hill" />
		<tag k="place" v="locality" />
		<tag k="ssr:stedsnr" v="554077" />
	</node>
	<node lat="60.76539166508871" lon="5.685888882165776" id="-91615">
		<tag k="name" v="Nottveitelva" />
		<tag k="ssr:stedsnr" v="554031" />
		<tag k="waterway" v="stream" />
	</node>
	<node lat="60.801324997100984" lon="5.810663881521108" id="-91616">
		<tag k="fixme" v="consider natural=peak for the most distinct mountains in the district" />
		<tag k="name" v="Øykjafjellet" />
		<tag k="natural" v="hill" />
		<tag k="place" v="locality" />
		<tag k="ssr:stedsnr" v="554506" />
	</node>
	<node lat="60.82836110949867" lon="5.754833340144104" id="-91617">
		<tag k="fixme" v="consider natural=peak for the most distinct mountains in the district" />
		<tag k="name" v="Laurdagsfjellet" />
		<tag k="natural" v="hill" />
		<tag k="place" v="locality" />
		<tag k="ssr:stedsnr" v="554406" />
	</node>
	<node lat="60.833550000292405" lon="5.775938895282883" id="-91618">
		<tag k="fixme" v="consider natural=peak for the most distinct mountains in the district" />
		<tag k="name" v="Rusta" />
		<tag k="natural" v="hill" />
		<tag k="place" v="locality" />
		<tag k="ssr:stedsnr" v="554408" />
	</node>
	<node lat="60.78641388519516" lon="5.7126861093181915" id="-91619">
		<tag k="name" v="Beitlaskaret" />
		<tag k="natural" v="valley" />
		<tag k="place" v="locality" />
		<tag k="ssr:stedsnr" v="554473" />
	</node>
	<node lat="60.79028888496702" lon="5.698905554067991" id="-91620">
		<tag k="name" v="Tverrbotnen" />
		<tag k="natural" v="valley" />
		<tag k="place" v="locality" />
		<tag k="ssr:stedsnr" v="554483" />
	</node>
	<node lat="60.851625000598546" lon="5.86716665969905" id="-91621">
		<tag k="name" v="Tveradalen" />
		<tag k="natural" v="valley" />
		<tag k="place" v="locality" />
		<tag k="ssr:stedsnr" v="554841" />
	</node>
	<node lat="60.855947222367206" lon="5.975650007412412" id="-91622">
		<tag k="name" v="Øvre Helland" />
		<tag k="place" v="farm" />
		<tag k="ssr:stedsnr" v="572318" />
	</node>
	<node lat="60.81510569334488" lon="5.832636559053824" id="-91623">
		<tag k="alt_name" v="Modalentunnelen;Modalen" />
		<tag k="layer" v="-1" />
		<tag k="name" v="Modalstunnelen" />
		<tag k="ssr:stedsnr" v="578041" />
		<tag k="tunnel" v="yes" />
	</node>
	<node lat="60.82710833584147" lon="5.9492500035659575" id="-91624">
		<tag k="name" v="Flåtane" />
		<tag k="place" v="locality" />
		<tag k="ssr:stedsnr" v="590527" />
	</node>
	<node lat="60.843941662567545" lon="5.737936108722492" id="-91625">
		<tag k="fixme" v="consider natural=peak for the most distinct mountains in the district" />
		<tag k="name" v="Torrisskarfjellet" />
		<tag k="natural" v="hill" />
		<tag k="place" v="locality" />
		<tag k="ssr:stedsnr" v="590622" />
	</node>
	<node lat="60.85620277913298" lon="5.988669450502138" id="-91626">
		<tag k="name" v="Dermannshaugen" />
		<tag k="natural" v="hill" />
		<tag k="place" v="locality" />
		<tag k="ssr:stedsnr" v="590557" />
	</node>
	<node lat="60.903352777464406" lon="5.981402776959232" id="-91627">
		<tag k="name" v="Merkeskråa" />
		<tag k="place" v="locality" />
		<tag k="ssr:stedsnr" v="590709" />
	</node>
	<node lat="60.907119443738736" lon="5.959711102247894" id="-91628">
		<tag k="name" v="Illebrekkene" />
		<tag k="natural" v="slope" />
		<tag k="place" v="locality" />
		<tag k="ssr:stedsnr" v="590720" />
	</node>
	<node lat="60.850099999723284" lon="6.019308324894305" id="-91629">
		<tag k="name" v="Storebotn" />
		<tag k="natural" v="valley" />
		<tag k="place" v="locality" />
		<tag k="ssr:stedsnr" v="590724" />
	</node>
	<node lat="60.939594444440594" lon="5.950877784207929" id="-91630">
		<tag k="fixme" v="consider natural=peak for the most distinct mountains in the district" />
		<tag k="name" v="Grånova" />
		<tag k="natural" v="hill" />
		<tag k="place" v="locality" />
		<tag k="ssr:stedsnr" v="614104" />
	</node>
	<node lat="60.8539083305696" lon="5.808549993621241" id="-91631">
		<tag k="fixme" v="consider natural=peak for the most distinct mountains in the district" />
		<tag k="name" v="Kupefjellet" />
		<tag k="natural" v="hill" />
		<tag k="place" v="locality" />
		<tag k="ssr:stedsnr" v="614405" />
	</node>
	<node lat="60.78641110864428" lon="5.789322218681681" id="-91632">
		<tag k="name" v="Nyløholene" />
		<tag k="natural" v="valley" />
		<tag k="place" v="locality" />
		<tag k="ssr:stedsnr" v="614460" />
	</node>
	<node lat="60.79119444468686" lon="5.776761113240417" id="-91633">
		<tag k="name" v="Klettadalen" />
		<tag k="natural" v="valley" />
		<tag k="place" v="locality" />
		<tag k="ssr:stedsnr" v="614470" />
	</node>
	<node lat="60.84588055898918" lon="5.967858336854788" id="-91634">
		<tag k="name" v="Espeneset" />
		<tag k="natural" v="cape" />
		<tag k="ssr:stedsnr" v="615123" />
	</node>
	<node lat="60.852724988227486" lon="5.705212277166372" id="-91635">
		<tag k="name" v="Øvste Godbotsfossen" />
		<tag k="natural" v="waterfall" />
		<tag k="ssr:stedsnr" v="651034" />
	</node>
	<node lat="60.884724998672255" lon="5.966758339339398" id="-91636">
		<tag k="name" v="Skavlane" />
		<tag k="natural" v="hill" />
		<tag k="place" v="locality" />
		<tag k="ssr:stedsnr" v="651540" />
	</node>
	<node lat="60.83220277572301" lon="5.844683325503386" id="-91637">
		<tag k="name" v="Botnane" />
		<tag k="natural" v="valley" />
		<tag k="place" v="locality" />
		<tag k="ssr:stedsnr" v="651542" />
	</node>
	<node lat="60.86462777532763" lon="6.004666674428262" id="-91638">
		<tag k="name" v="Tverrlia" />
		<tag k="natural" v="slope" />
		<tag k="place" v="locality" />
		<tag k="ssr:stedsnr" v="651591" />
	</node>
	<node lat="60.916036109262706" lon="5.976538896387867" id="-91639">
		<tag k="name" v="Ræholna" />
		<tag k="place" v="locality" />
		<tag k="ssr:stedsnr" v="651704" />
	</node>
	<node lat="60.91617222112597" lon="5.942825003416184" id="-91640">
		<tag k="name" v="Revabotn" />
		<tag k="natural" v="valley" />
		<tag k="place" v="locality" />
		<tag k="ssr:stedsnr" v="651710" />
	</node>
	<node lat="60.91256388950114" lon="5.958611115079517" id="-91641">
		<tag k="name" v="Slette" />
		<tag k="place" v="locality" />
		<tag k="ssr:stedsnr" v="651712" />
	</node>
	<node lat="60.96134722256662" lon="5.967552781502895" id="-91642">
		<tag k="name" v="Botna slåtta" />
		<tag k="place" v="locality" />
		<tag k="ssr:stedsnr" v="651715" />
	</node>
	<node lat="60.77182499565076" lon="5.730019436219549" id="-91643">
		<tag k="fixme" v="consider natural=peak for the most distinct mountains in the district" />
		<tag k="name" v="Flotaneset" />
		<tag k="natural" v="hill" />
		<tag k="place" v="locality" />
		<tag k="ssr:stedsnr" v="676044" />
	</node>
	<node lat="60.76808888797268" lon="5.747980557787889" id="-91644">
		<tag k="fixme" v="consider natural=peak for the most distinct mountains in the district" />
		<tag k="name" v="Veslafjellet" />
		<tag k="natural" v="hill" />
		<tag k="place" v="locality" />
		<tag k="ssr:stedsnr" v="676045" />
	</node>
	<node lat="60.75569444389841" lon="5.7165138888820595" id="-91645">
		<tag k="name" v="Mostraumshaugen" />
		<tag k="place" v="farm" />
		<tag k="ssr:stedsnr" v="676057" />
	</node>
	<node lat="60.887230556111405" lon="5.994374997018384" id="-91646">
		<tag k="fixme" v="consider natural=peak for the most distinct mountains in the district" />
		<tag k="name" v="Geitnipa" />
		<tag k="natural" v="hill" />
		<tag k="place" v="locality" />
		<tag k="ssr:stedsnr" v="676091" />
	</node>
	<node lat="60.83351630377094" lon="5.871730909367764" id="-91647">
		<tag k="alt_name" v="Nedrehelland;Helland" />
		<tag k="fixme" v="consider place=hamlet" />
		<tag k="name" v="Nedre Helland" />
		<tag k="place" v="farm" />
		<tag k="ssr:stedsnr" v="676143" />
	</node>
	<node lat="60.83087499988051" lon="5.942816660330034" id="-91648">
		<tag k="name" v="Ædnabekken" />
		<tag k="ssr:stedsnr" v="676147" />
		<tag k="waterway" v="stream" />
	</node>
	<node lat="60.87683889148364" lon="6.054075004526529" id="-91649">
		<tag k="name" v="Reinshjellane" />
		<tag k="place" v="locality" />
		<tag k="ssr:stedsnr" v="676154" />
	</node>
	<node lat="60.75037222214794" lon="5.688877783410718" id="-91650">
		<tag k="name" v="Fagrevikneset" />
		<tag k="natural" v="cape" />
		<tag k="ssr:stedsnr" v="894157" />
	</node>
	<node lat="60.844327776205695" lon="5.95908055378907" id="-91652">
		<tag k="fixme" v="consider natural=peak for the most distinct mountains in the district" />
		<tag k="name" v="Åsen" />
		<tag k="natural" v="hill" />
		<tag k="place" v="locality" />
		<tag k="ssr:stedsnr" v="894587" />
	</node>
	<node lat="60.858380555459846" lon="5.732555562708974" id="-91653">
		<tag k="fixme" v="consider natural=peak for the most distinct mountains in the district" />
		<tag k="name" v="Vetlevassegga" />
		<tag k="natural" v="hill" />
		<tag k="place" v="locality" />
		<tag k="ssr:stedsnr" v="894625" />
	</node>
	<node lat="60.83344166927483" lon="5.88762221694732" id="-91654">
		<tag k="name" v="Eikebakken" />
		<tag k="natural" v="slope" />
		<tag k="place" v="locality" />
		<tag k="ssr:stedsnr" v="894636" />
	</node>
	<node lat="60.864291666247546" lon="5.986241675457046" id="-91655">
		<tag k="name" v="Namdalselva" />
		<tag k="ssr:stedsnr" v="894598" />
		<tag k="waterway" v="river" />
	</node>
	<node lat="60.8347692840937" lon="5.888054717899926" id="-91656">
		<tag k="name" v="Eikkebakktjøna" />
		<tag k="natural" v="water" />
		<tag k="ssr:stedsnr" v="894638" />
	</node>
	<node lat="60.76572221988866" lon="5.7382166754240895" id="-91657">
		<tag k="name" v="Håhelleren" />
		<tag k="place" v="locality" />
		<tag k="ssr:stedsnr" v="894643" />
	</node>
	<node lat="60.79843888516294" lon="5.806594452007347" id="-91658">
		<tag k="name" v="Øvrebotn" />
		<tag k="natural" v="valley" />
		<tag k="place" v="locality" />
		<tag k="ssr:stedsnr" v="894647" />
	</node>
	<node lat="60.81577221997035" lon="5.783883325225785" id="-91659">
		<tag k="name" v="Krakelia" />
		<tag k="natural" v="slope" />
		<tag k="place" v="locality" />
		<tag k="ssr:stedsnr" v="894654" />
	</node>
	<node lat="60.92783888694164" lon="5.980241657862033" id="-91660">
		<tag k="name" v="Landelia" />
		<tag k="natural" v="slope" />
		<tag k="place" v="locality" />
		<tag k="ssr:stedsnr" v="894737" />
	</node>
	<node lat="60.86221388686496" lon="5.981102777860591" id="-91661">
		<tag k="bridge" v="yes" />
		<tag k="layer" v="1" />
		<tag k="name" v="Nåmdal" />
		<tag k="ssr:stedsnr" v="897050" />
	</node>
	<node lat="60.838183337110856" lon="5.944299994574517" id="-91662">
		<tag k="bridge" v="yes" />
		<tag k="layer" v="1" />
		<tag k="name" v="Fanabekken" />
		<tag k="ssr:stedsnr" v="897052" />
	</node>
	<node lat="60.829772218588325" lon="5.92834444630609" id="-91663">
		<tag k="name" v="Berget" />
		<tag k="natural" v="hill" />
		<tag k="place" v="locality" />
		<tag k="ssr:stedsnr" v="711612" />
	</node>
	<node lat="60.76898333244582" lon="5.726133341847293" id="-91664">
		<tag k="name" v="Trollgjel" />
		<tag k="place" v="locality" />
		<tag k="ssr:stedsnr" v="711614" />
	</node>
	<node lat="60.83564721983385" lon="5.940341663201207" id="-91665">
		<tag k="name" v="Timmerlia" />
		<tag k="natural" v="slope" />
		<tag k="place" v="locality" />
		<tag k="ssr:stedsnr" v="712539" />
	</node>
	<node lat="60.902461109249195" lon="6.021813892889494" id="-91666">
		<tag k="name" v="Aksla" />
		<tag k="natural" v="ridge" />
		<tag k="place" v="locality" />
		<tag k="ssr:stedsnr" v="712684" />
	</node>
	<node lat="60.90422222096572" lon="6.028513884876379" id="-91667">
		<tag k="name" v="Seilæ" />
		<tag k="place" v="locality" />
		<tag k="ssr:stedsnr" v="712686" />
	</node>
	<node lat="60.906808332130744" lon="6.015313890159502" id="-91668">
		<tag k="name" v="Fitjane" />
		<tag k="place" v="locality" />
		<tag k="ssr:stedsnr" v="712698" />
	</node>
	<node lat="60.74775555479491" lon="5.702874997105476" id="-91669">
		<tag k="fixme" v="multiple name tags, choose one and add the other to alt_name" />
		<tag k="name" v="Mosurbukta;Mosurvika" />
		<tag k="natural" v="bay" />
		<tag k="ssr:stedsnr" v="734482" />
	</node>
	<node lat="60.86117499764911" lon="5.721175001945425" id="-91670">
		<tag k="alt_name" v="Langevatnet" />
		<tag k="name" v="Langavatnet" />
		<tag k="natural" v="water" />
		<tag k="ssr:stedsnr" v="736421" />
		<tag k="water" v="lake" />
	</node>
	<node lat="60.833912917936416" lon="5.799778621185879" id="-91671">
		<tag k="name" v="Øvstavatnet" />
		<tag k="natural" v="water" />
		<tag k="ssr:stedsnr" v="736387" />
	</node>
	<node lat="60.811258335866505" lon="5.9241638833748365" id="-91672">
		<tag k="fixme" v="multiple name tags, choose one and add the other to alt_name; consider natural=peak for the most distinct mountains in the district" />
		<tag k="name" v="Gjøttefjellet;Høgafjellet" />
		<tag k="natural" v="hill" />
		<tag k="place" v="locality" />
		<tag k="ssr:stedsnr" v="736817" />
	</node>
	<node lat="60.7518750038933" lon="5.709044441988557" id="-91673">
		<tag k="fixme" v="consider natural=peak for the most distinct mountains in the district" />
		<tag k="name" v="Heiane" />
		<tag k="natural" v="hill" />
		<tag k="place" v="locality" />
		<tag k="ssr:stedsnr" v="736828" />
	</node>
	<node lat="60.90781110960582" lon="5.849197219328594" id="-91674">
		<tag k="alt_name" v="Skjerjavasshytta Th" />
		<tag k="name" v="Skjerjavasshytta" />
		<tag k="place" v="isolated_dwelling" />
		<tag k="ssr:stedsnr" v="737064" />
	</node>
	<node lat="60.91517500014046" lon="6.065666675550676" id="-91675">
		<tag k="name" v="Kvanndalsbotnen" />
		<tag k="natural" v="valley" />
		<tag k="place" v="locality" />
		<tag k="ssr:stedsnr" v="737069" />
	</node>
	<node lat="60.90774166876559" lon="6.021375002556753" id="-91676">
		<tag k="name" v="Fitlia" />
		<tag k="natural" v="slope" />
		<tag k="place" v="locality" />
		<tag k="ssr:stedsnr" v="737072" />
	</node>
	<node lat="60.88924444240221" lon="5.969813891266898" id="-91677">
		<tag k="name" v="Modalen" />
		<tag k="natural" v="valley" />
		<tag k="place" v="locality" />
		<tag k="ssr:stedsnr" v="737073" />
	</node>
	<node lat="60.89685555491173" lon="6.045458331649613" id="-91678">
		<tag k="fixme" v="consider natural=peak for the most distinct mountains in the district" />
		<tag k="name" v="Indreseglet" />
		<tag k="natural" v="hill" />
		<tag k="place" v="locality" />
		<tag k="ssr:stedsnr" v="737075" />
	</node>
	<node lat="60.89262500044265" lon="5.998827772666318" id="-91679">
		<tag k="fixme" v="consider natural=peak for the most distinct mountains in the district" />
		<tag k="name" v="Nåmdalsfjellet" />
		<tag k="natural" v="hill" />
		<tag k="place" v="locality" />
		<tag k="ssr:stedsnr" v="737081" />
	</node>
	<node lat="60.845861108149805" lon="5.933858325037372" id="-91680">
		<tag k="name" v="Nova" />
		<tag k="natural" v="hill" />
		<tag k="place" v="locality" />
		<tag k="ssr:stedsnr" v="737121" />
	</node>
	<node lat="60.867705554714384" lon="5.9052249949567805" id="-91681">
		<tag k="name" v="Dalenden" />
		<tag k="natural" v="valley" />
		<tag k="place" v="locality" />
		<tag k="ssr:stedsnr" v="737162" />
	</node>
	<node lat="60.85454166266847" lon="5.9479583297050675" id="-91682">
		<tag k="alt_name" v="Gaubotn" />
		<tag k="name" v="Gauvbotnen" />
		<tag k="natural" v="valley" />
		<tag k="place" v="locality" />
		<tag k="ssr:stedsnr" v="737165" />
	</node>
	<node lat="60.89330100682837" lon="5.852729676547869" id="-91683">
		<tag k="name" v="Skjerjavatnet" />
		<tag k="natural" v="water" />
		<tag k="ssr:stedsnr" v="737303" />
		<tag k="water" v="lake" />
	</node>
	<node lat="60.81023332990007" lon="5.759191669658539" id="-91684">
		<tag k="name" v="Stokkevikdalen" />
		<tag k="natural" v="valley" />
		<tag k="place" v="locality" />
		<tag k="ssr:stedsnr" v="737468" />
	</node>
	<node lat="60.83196667124124" lon="5.763138893368902" id="-91685">
		<tag k="name" v="Leitet" />
		<tag k="natural" v="hill" />
		<tag k="place" v="locality" />
		<tag k="ssr:stedsnr" v="737363" />
	</node>
	<node lat="60.83003333526421" lon="5.785199997409564" id="-91686">
		<tag k="fixme" v="consider natural=peak for the most distinct mountains in the district" />
		<tag k="name" v="Fjellkleivane" />
		<tag k="natural" v="hill" />
		<tag k="place" v="locality" />
		<tag k="ssr:stedsnr" v="737365" />
	</node>
	<node lat="60.79965277671914" lon="5.75625834151601" id="-91687">
		<tag k="name" v="Beitlelandet" />
		<tag k="place" v="locality" />
		<tag k="ssr:stedsnr" v="772158" />
	</node>
	<node lat="60.863741404935396" lon="5.979958408972614" id="-91688">
		<tag k="fixme" v="consider place=hamlet" />
		<tag k="name" v="Namdal" />
		<tag k="place" v="farm" />
		<tag k="ssr:stedsnr" v="773516" />
	</node>
	<node lat="60.86179167114542" lon="5.981955556769581" id="-91689">
		<tag k="name" v="Fossdalen" />
		<tag k="natural" v="valley" />
		<tag k="place" v="locality" />
		<tag k="ssr:stedsnr" v="773517" />
	</node>
	<node lat="60.865366669065786" lon="5.9778694474349425" id="-91690">
		<tag k="bridge" v="yes" />
		<tag k="layer" v="1" />
		<tag k="name" v="Straume" />
		<tag k="ssr:stedsnr" v="775055" />
	</node>
	<node lat="60.845011112574056" lon="5.969005555456937" id="-91691">
		<tag k="bridge" v="yes" />
		<tag k="layer" v="1" />
		<tag k="name" v="Kalsåsen" />
		<tag k="ssr:stedsnr" v="775057" />
	</node>
	<node lat="60.745138887035544" lon="5.683077770547734" id="-91692">
		<tag k="name" v="Raudhelleren" />
		<tag k="place" v="locality" />
		<tag k="ssr:stedsnr" v="795506" />
	</node>
	<node lat="60.99527500159683" lon="6.083213893302377" id="-91693">
		<tag k="name" v="Blådalen" />
		<tag k="natural" v="valley" />
		<tag k="place" v="locality" />
		<tag k="ssr:stedsnr" v="797002" />
	</node>
	<node lat="60.94481389321881" lon="6.050838888377746" id="-91694">
		<tag k="name" v="Sygnaskaret" />
		<tag k="natural" v="valley" />
		<tag k="place" v="locality" />
		<tag k="ssr:stedsnr" v="797118" />
	</node>
	<node lat="60.752699999257686" lon="5.656736112325171" id="-91695">
		<tag k="fixme" v="consider natural=peak for the most distinct mountains in the district" />
		<tag k="name" v="Nipa" />
		<tag k="natural" v="hill" />
		<tag k="place" v="locality" />
		<tag k="ssr:stedsnr" v="797058" />
	</node>
	<node lat="60.75491944778378" lon="5.721605555300843" id="-91696">
		<tag k="name" v="Mostraumsviki" />
		<tag k="place" v="farm" />
		<tag k="ssr:stedsnr" v="797059" />
	</node>
	<node lat="60.81849166533082" lon="5.795577769639418" id="-91697">
		<tag k="name" v="Kvernhusfossen" />
		<tag k="natural" v="waterfall" />
		<tag k="ssr:stedsnr" v="797503" />
	</node>
	<node lat="60.79613610755462" lon="5.81246666407537" id="-91698">
		<tag k="name" v="Botnen" />
		<tag k="natural" v="valley" />
		<tag k="place" v="locality" />
		<tag k="ssr:stedsnr" v="797455" />
	</node>
	<node lat="60.795466664154134" lon="5.723891675738572" id="-91699">
		<tag k="fixme" v="consider natural=peak for the most distinct mountains in the district" />
		<tag k="name" v="Beitlafjellet" />
		<tag k="natural" v="hill" />
		<tag k="place" v="locality" />
		<tag k="ssr:stedsnr" v="797458" />
	</node>
	<node lat="60.81172777791487" lon="5.808819449556224" id="-91700">
		<tag k="fixme" v="consider natural=peak for the most distinct mountains in the district" />
		<tag k="name" v="Husafjellet" />
		<tag k="natural" v="hill" />
		<tag k="place" v="locality" />
		<tag k="ssr:stedsnr" v="797822" />
	</node>
	<node lat="60.814299997214206" lon="5.765350006042636" id="-91701">
		<tag k="fixme" v="consider natural=peak for the most distinct mountains in the district" />
		<tag k="name" v="Haugane" />
		<tag k="natural" v="hill" />
		<tag k="place" v="locality" />
		<tag k="ssr:stedsnr" v="798445" />
	</node>
	<node lat="60.88838750122799" lon="5.901617460520112" id="-91702">
		<tag k="name" v="Seljedalsvotna" />
		<tag k="natural" v="water" />
		<tag k="ssr:stedsnr" v="919069" />
		<tag k="water" v="lake" />
	</node>
	<node lat="60.893674999610454" lon="6.058883335770588" id="-91703">
		<tag k="name" v="Norddalselva" />
		<tag k="ssr:stedsnr" v="919082" />
		<tag k="waterway" v="stream" />
	</node>
	<node lat="60.88613889183396" lon="6.061641661006953" id="-91704">
		<tag k="fixme" v="consider natural=peak for the most distinct mountains in the district" />
		<tag k="name" v="Daurmålshaugen" />
		<tag k="natural" v="hill" />
		<tag k="place" v="locality" />
		<tag k="ssr:stedsnr" v="919086" />
	</node>
	<node lat="60.89164999717702" lon="6.0490944530126844" id="-91705">
		<tag k="name" v="Stølselva" />
		<tag k="ssr:stedsnr" v="919088" />
		<tag k="waterway" v="stream" />
	</node>
	<node lat="60.94296863456616" lon="5.886642040129975" id="-91706">
		<tag k="name" v="Vardadalstjørnane" />
		<tag k="natural" v="water" />
		<tag k="ssr:stedsnr" v="919095" />
		<tag k="water" v="lake" />
	</node>
	<node lat="60.8596076942862" lon="5.974741822231657" id="-91707">
		<tag k="alt_name" v="Herlaugsvatnet" />
		<tag k="name" v="Herlangen" />
		<tag k="natural" v="water" />
		<tag k="ssr:stedsnr" v="919125" />
	</node>
	<node lat="60.80768333472829" lon="5.8717388836151345" id="-91708">
		<tag k="fixme" v="consider natural=peak for the most distinct mountains in the district" />
		<tag k="name" v="Lågfjellet" />
		<tag k="natural" v="hill" />
		<tag k="place" v="locality" />
		<tag k="ssr:stedsnr" v="919130" />
	</node>
	<node lat="60.82527499707191" lon="5.974763893835647" id="-91709">
		<tag k="name" v="Daurmålsbotnen" />
		<tag k="natural" v="valley" />
		<tag k="place" v="locality" />
		<tag k="ssr:stedsnr" v="919139" />
	</node>
	<node lat="60.865527773783974" lon="5.974419451579513" id="-91710">
		<tag k="name" v="Nygard" />
		<tag k="place" v="farm" />
		<tag k="ssr:stedsnr" v="919167" />
	</node>
	<node lat="60.83911111196579" lon="5.824886106032446" id="-91711">
		<tag k="name" v="Kollebotnen" />
		<tag k="natural" v="valley" />
		<tag k="place" v="locality" />
		<tag k="ssr:stedsnr" v="919391" />
	</node>
	<node lat="60.809811113680176" lon="5.774833324861693" id="-91712">
		<tag k="name" v="Grunkeneset" />
		<tag k="natural" v="cape" />
		<tag k="ssr:stedsnr" v="919481" />
	</node>
	<node lat="60.8096083515964" lon="5.771828322307389" id="-91713">
		<tag k="layer" v="-1" />
		<tag k="name" v="Klubben II" />
		<tag k="ssr:stedsnr" v="833288" />
		<tag k="tunnel" v="yes" />
	</node>
	<node lat="60.78478610811212" lon="5.752358335977771" id="-91714">
		<tag k="name" v="Mattisvikneset" />
		<tag k="natural" v="cape" />
		<tag k="ssr:stedsnr" v="833134" />
	</node>
	<node lat="60.788361110619135" lon="5.754163887489891" id="-91715">
		<tag k="name" v="Mattisvika" />
		<tag k="natural" v="bay" />
		<tag k="ssr:stedsnr" v="833583" />
	</node>
	<node lat="60.7788861124504" lon="5.71416665863176" id="-91716">
		<tag k="name" v="Johanshola" />
		<tag k="natural" v="valley" />
		<tag k="place" v="locality" />
		<tag k="ssr:stedsnr" v="833588" />
	</node>
	<node lat="60.76218611081092" lon="5.729041660214968" id="-91717">
		<tag k="name" v="Nova" />
		<tag k="place" v="locality" />
		<tag k="ssr:stedsnr" v="833628" />
	</node>
	<node lat="60.83283610951433" lon="5.959913897803232" id="-91718">
		<tag k="name" v="Sesskaret" />
		<tag k="natural" v="valley" />
		<tag k="place" v="locality" />
		<tag k="ssr:stedsnr" v="858127" />
	</node>
	<node lat="60.991213885489564" lon="6.088338881580943" id="-91719">
		<tag k="fixme" v="consider natural=peak for the most distinct mountains in the district" />
		<tag k="name" v="Blåfjellet" />
		<tag k="natural" v="hill" />
		<tag k="place" v="locality" />
		<tag k="ssr:stedsnr" v="858012" />
	</node>
	<node lat="60.96731389017134" lon="6.1379888863216765" id="-91720">
		<tag k="alt_name" v="Berdalsvatnet, øvre" />
		<tag k="name" v="Øvre Berdalsvatnet" />
		<tag k="place" v="locality" />
		<tag k="ssr:stedsnr" v="858026" />
	</node>
	<node lat="60.96844166910918" lon="6.093861116406356" id="-91721">
		<tag k="name" v="Sørdalselva" />
		<tag k="ssr:stedsnr" v="858027" />
		<tag k="waterway" v="stream" />
	</node>
	<node lat="60.90898055242978" lon="6.127044453487945" id="-91722">
		<tag k="name" v="Gavlavatnet" />
		<tag k="natural" v="water" />
		<tag k="ssr:stedsnr" v="858074" />
		<tag k="water" v="lake" />
	</node>
	<node lat="60.89855833227873" lon="6.085213892773426" id="-91723">
		<tag k="fixme" v="consider natural=peak for the most distinct mountains in the district" />
		<tag k="name" v="Saufjellet" />
		<tag k="natural" v="hill" />
		<tag k="place" v="locality" />
		<tag k="ssr:stedsnr" v="858080" />
	</node>
	<node lat="60.948974996700436" lon="5.9684333389934" id="-91724">
		<tag k="name" v="Norddalen" />
		<tag k="natural" v="valley" />
		<tag k="place" v="locality" />
		<tag k="ssr:stedsnr" v="858094" />
	</node>
	<node lat="60.851794442903106" lon="5.936230555153873" id="-91725">
		<tag k="fixme" v="consider natural=peak for the most distinct mountains in the district" />
		<tag k="name" v="Sturtungsgavlen" />
		<tag k="natural" v="hill" />
		<tag k="place" v="locality" />
		<tag k="ssr:stedsnr" v="858180" />
	</node>
	<node lat="60.86494166768186" lon="6.0275749969467665" id="-91726">
		<tag k="name" v="Norddalen" />
		<tag k="natural" v="valley" />
		<tag k="place" v="locality" />
		<tag k="ssr:stedsnr" v="858190" />
	</node>
	<node lat="60.82811388943577" lon="5.778177784743997" id="-91727">
		<tag k="name" v="Øvstebotnen" />
		<tag k="natural" v="valley" />
		<tag k="place" v="locality" />
		<tag k="ssr:stedsnr" v="858392" />
	</node>
	<node lat="60.851024998070294" lon="5.7142999928846825" id="-91728">
		<tag k="name" v="Vemundsbotnen" />
		<tag k="natural" v="valley" />
		<tag k="place" v="locality" />
		<tag k="ssr:stedsnr" v="858425" />
	</node>
	<node lat="60.78810555823278" lon="5.775730557342486" id="-91729">
		<tag k="name" v="Nyløa" />
		<tag k="place" v="locality" />
		<tag k="ssr:stedsnr" v="858471" />
	</node>
	<node lat="60.84661111401456" lon="5.8625777716947916" id="-91730">
		<tag k="name" v="Rustenden" />
		<tag k="natural" v="slope" />
		<tag k="place" v="locality" />
		<tag k="ssr:stedsnr" v="894568" />
	</node>
	<node lat="60.829952778281246" lon="5.884397230038546" id="-91731">
		<tag k="name" v="Fossrinnen" />
		<tag k="ssr:stedsnr" v="894570" />
		<tag k="waterway" v="stream" />
	</node>
	<node lat="60.86116111107557" lon="5.998011117735179" id="-91732">
		<tag k="name" v="Fossen" />
		<tag k="natural" v="waterfall" />
		<tag k="ssr:stedsnr" v="894579" />
	</node>
	<node lat="60.774727779340324" lon="5.671630553733613" id="-91733">
		<tag k="name" v="Kroksheiane" />
		<tag k="natural" v="hill" />
		<tag k="place" v="locality" />
		<tag k="ssr:stedsnr" v="894615" />
	</node>
	<node lat="60.81253055448759" lon="5.7533555548499535" id="-91734">
		<tag k="name" v="Botnane" />
		<tag k="natural" v="valley" />
		<tag k="place" v="locality" />
		<tag k="ssr:stedsnr" v="894658" />
	</node>
	<node lat="60.83915100168084" lon="5.845265264887256" id="-91735">
		<tag k="name" v="Lomatjørna" />
		<tag k="natural" v="water" />
		<tag k="ssr:stedsnr" v="906162" />
	</node>
	<node lat="60.942224996240654" lon="5.9603583365094615" id="-91736">
		<tag k="fixme" v="consider natural=peak for the most distinct mountains in the district" />
		<tag k="name" v="Furefjellet" />
		<tag k="natural" v="hill" />
		<tag k="place" v="locality" />
		<tag k="ssr:stedsnr" v="918104" />
	</node>
	<node lat="60.955052781322344" lon="6.096633342029886" id="-91737">
		<tag k="alt_name" v="Sørdalsvatnet, nedre" />
		<tag k="name" v="Nedre Sørdalsvatnet" />
		<tag k="natural" v="water" />
		<tag k="ssr:stedsnr" v="918109" />
		<tag k="water" v="lake" />
	</node>
	<node lat="60.792713889749535" lon="5.708030563452196" id="-91738">
		<tag k="fixme" v="consider natural=peak for the most distinct mountains in the district" />
		<tag k="name" v="Tverrfjellet" />
		<tag k="natural" v="hill" />
		<tag k="place" v="locality" />
		<tag k="ssr:stedsnr" v="918521" />
	</node>
	<node lat="60.95618889222474" lon="5.981125005134995" id="-91739">
		<tag k="name" v="Bjørnanakken" />
		<tag k="natural" v="hill" />
		<tag k="place" v="locality" />
		<tag k="ssr:stedsnr" v="919024" />
	</node>
	<node lat="60.760150003331816" lon="5.775727782184022" id="-91740">
		<tag k="alt_name" v="Snjofonnfjellet" />
		<tag k="fixme" v="consider natural=peak for the most distinct mountains in the district" />
		<tag k="name" v="Snjofannefjellet" />
		<tag k="natural" v="hill" />
		<tag k="place" v="locality" />
		<tag k="ssr:stedsnr" v="919059" />
	</node>
	<node lat="60.75273610959231" lon="5.742963885341931" id="-91741">
		<tag k="name" v="Svanurskaret" />
		<tag k="natural" v="valley" />
		<tag k="place" v="locality" />
		<tag k="ssr:stedsnr" v="919061" />
	</node>
	<node lat="60.90991111404481" lon="6.019877770088324" id="-91742">
		<tag k="name" v="Steinavassbekken" />
		<tag k="ssr:stedsnr" v="919066" />
		<tag k="waterway" v="stream" />
	</node>
	<node lat="60.915725001429" lon="5.964952785252309" id="-91743">
		<tag k="name" v="Revåna" />
		<tag k="ssr:stedsnr" v="919115" />
		<tag k="waterway" v="stream" />
	</node>
	<node lat="60.82025000187722" lon="5.82671944086885" id="-91744">
		<tag k="fixme" v="consider natural=peak for the most distinct mountains in the district" />
		<tag k="name" v="Åsen" />
		<tag k="natural" v="hill" />
		<tag k="place" v="locality" />
		<tag k="ssr:stedsnr" v="919945" />
	</node>
	<node lat="60.82892777981961" lon="5.919313886976687" id="-91745">
		<tag k="name" v="Midttoa" />
		<tag k="place" v="locality" />
		<tag k="ssr:stedsnr" v="954515" />
	</node>
	<node lat="60.849191662499095" lon="5.857113888448759" id="-91746">
		<tag k="name" v="Kvolven" />
		<tag k="place" v="locality" />
		<tag k="ssr:stedsnr" v="955506" />
	</node>
	<node lat="60.81520277514651" lon="5.8972916731334735" id="-91747">
		<tag k="name" v="Jobotten" />
		<tag k="natural" v="valley" />
		<tag k="place" v="locality" />
		<tag k="ssr:stedsnr" v="955539" />
	</node>
	<node lat="60.840711109899466" lon="5.953449991318658" id="-91748">
		<tag k="bridge" v="yes" />
		<tag k="layer" v="1" />
		<tag k="name" v="Åsmundselv" />
		<tag k="ssr:stedsnr" v="229053" />
	</node>
	<node lat="60.92322500136926" lon="6.136944445759039" id="-91749">
		<tag k="name" v="Helladalen" />
		<tag k="natural" v="valley" />
		<tag k="place" v="locality" />
		<tag k="ssr:stedsnr" v="8128" />
	</node>
	<node lat="60.75961666366842" lon="5.70971944803679" id="-91750">
		<tag k="name" v="Hauganeset" />
		<tag k="natural" v="cape" />
		<tag k="ssr:stedsnr" v="8065" />
	</node>
	<node lat="60.78256388603904" lon="5.794244442943399" id="-91751">
		<tag k="alt_name" v="Hodnefjellet" />
		<tag k="fixme" v="consider natural=peak for the most distinct mountains in the district" />
		<tag k="name" v="Hornafjellet" />
		<tag k="natural" v="hill" />
		<tag k="place" v="locality" />
		<tag k="ssr:stedsnr" v="8481" />
	</node>
	<node lat="60.861813889264155" lon="6.011724992680905" id="-91752">
		<tag k="name" v="Norddalselva" />
		<tag k="ssr:stedsnr" v="8820" />
		<tag k="waterway" v="stream" />
	</node>
	<node lat="60.823191668923656" lon="5.740325002283351" id="-91753">
		<tag k="name" v="Sørdalen" />
		<tag k="natural" v="valley" />
		<tag k="place" v="locality" />
		<tag k="ssr:stedsnr" v="8950" />
	</node>
	<node lat="60.89911666836583" lon="6.022213886911243" id="-91754">
		<tag k="name" v="Oselvi" />
		<tag k="ssr:stedsnr" v="9053" />
		<tag k="waterway" v="stream" />
	</node>
	<node lat="60.88970555531796" lon="6.074830563383769" id="-91755">
		<tag k="name" v="Austredalen" />
		<tag k="natural" v="valley" />
		<tag k="place" v="locality" />
		<tag k="ssr:stedsnr" v="9059" />
	</node>
	<node lat="60.94587499576673" lon="5.971202769885039" id="-91756">
		<tag k="name" v="Norddalselva" />
		<tag k="ssr:stedsnr" v="9063" />
		<tag k="waterway" v="river" />
	</node>
	<node lat="60.86384444585106" lon="5.910774996001548" id="-91757">
		<tag k="fixme" v="consider natural=peak for the most distinct mountains in the district" />
		<tag k="name" v="Kvitafjellet" />
		<tag k="natural" v="hill" />
		<tag k="place" v="locality" />
		<tag k="ssr:stedsnr" v="9151" />
	</node>
	<node lat="60.85377500140459" lon="5.964300008151977" id="-91758">
		<tag k="name" v="Gauvbotnselva" />
		<tag k="ssr:stedsnr" v="9155" />
		<tag k="waterway" v="stream" />
	</node>
	<node lat="60.973355556269304" lon="5.966186114241906" id="-91759">
		<tag k="name" v="Austrebotnelva" />
		<tag k="ssr:stedsnr" v="9010" />
		<tag k="waterway" v="stream" />
	</node>
	<node lat="60.97241389059289" lon="6.117750000251942" id="-91760">
		<tag k="alt_name" v="Berdalsvatnet, nedre" />
		<tag k="name" v="Nedre Berdalsvatnet" />
		<tag k="natural" v="water" />
		<tag k="ssr:stedsnr" v="9014" />
	</node>
	<node lat="60.90111944088368" lon="5.942400007737462" id="-91761">
		<tag k="alt_name" v="Sæterbotn" />
		<tag k="name" v="Sæterbotnen" />
		<tag k="natural" v="valley" />
		<tag k="place" v="locality" />
		<tag k="ssr:stedsnr" v="9034" />
	</node>
	<node lat="60.83151388977578" lon="5.893924992277998" id="-91762">
		<tag k="name" v="Botnen" />
		<tag k="natural" v="slope" />
		<tag k="place" v="locality" />
		<tag k="ssr:stedsnr" v="9112" />
	</node>
	<node lat="60.836844442834526" lon="5.893541666160021" id="-91763">
		<tag k="name" v="Almelineset" />
		<tag k="place" v="farm" />
		<tag k="ssr:stedsnr" v="9113" />
	</node>
	<node lat="60.821491662835435" lon="5.850924991242231" id="-91764">
		<tag k="fixme" v="consider natural=peak for the most distinct mountains in the district" />
		<tag k="name" v="Navene" />
		<tag k="natural" v="hill" />
		<tag k="place" v="locality" />
		<tag k="ssr:stedsnr" v="9125" />
	</node>
	<node lat="60.87200278032636" lon="5.954030551594029" id="-91765">
		<tag k="fixme" v="consider natural=peak for the most distinct mountains in the district" />
		<tag k="name" v="Rusta" />
		<tag k="natural" v="hill" />
		<tag k="place" v="locality" />
		<tag k="ssr:stedsnr" v="9128" />
	</node>
	<node lat="60.866011112970334" lon="5.900302771196917" id="-91766">
		<tag k="name" v="Steinabotnen" />
		<tag k="natural" v="valley" />
		<tag k="place" v="locality" />
		<tag k="ssr:stedsnr" v="9133" />
	</node>
	<node lat="60.79982777512899" lon="5.73208889054639" id="-91767">
		<tag k="name" v="Storebotnen" />
		<tag k="natural" v="valley" />
		<tag k="place" v="locality" />
		<tag k="ssr:stedsnr" v="9470" />
	</node>
	<node lat="60.815013891299124" lon="5.8028666573140155" id="-91768">
		<tag k="fixme" v="consider place=hamlet" />
		<tag k="name" v="Mo" />
		<tag k="place" v="village" />
		<tag k="ssr:stedsnr" v="9483" />
	</node>
	<node lat="60.86004166829702" lon="5.85110277575552" id="-91769">
		<tag k="name" v="Tverrliane" />
		<tag k="natural" v="slope" />
		<tag k="place" v="locality" />
		<tag k="ssr:stedsnr" v="44501" />
	</node>
	<node lat="60.82944444031333" lon="5.843716659309794" id="-91770">
		<tag k="name" v="Eikhaugane" />
		<tag k="natural" v="hill" />
		<tag k="place" v="locality" />
		<tag k="ssr:stedsnr" v="44514" />
	</node>
	<node lat="60.832105559382164" lon="5.888688893725435" id="-91771">
		<tag k="name" v="Almelibotn" />
		<tag k="natural" v="valley" />
		<tag k="place" v="locality" />
		<tag k="ssr:stedsnr" v="44518" />
	</node>
	<node lat="60.7576694465728" lon="5.692936114546477" id="-91772">
		<tag k="name" v="Kamullbukta" />
		<tag k="natural" v="bay" />
		<tag k="ssr:stedsnr" v="44152" />
	</node>
	<node lat="60.784369440120486" lon="5.76714165941469" id="-91773">
		<tag k="name" v="Bjørnatoa" />
		<tag k="natural" v="cape" />
		<tag k="ssr:stedsnr" v="44153" />
	</node>
	<node lat="60.83803055850897" lon="5.880688890038976" id="-91774">
		<tag k="name" v="Hestelia" />
		<tag k="natural" v="slope" />
		<tag k="place" v="locality" />
		<tag k="ssr:stedsnr" v="44605" />
	</node>
	<node lat="60.83745832995257" lon="5.888286119895054" id="-91775">
		<tag k="name" v="Verkalia" />
		<tag k="natural" v="slope" />
		<tag k="place" v="locality" />
		<tag k="ssr:stedsnr" v="44606" />
	</node>
	<node lat="60.83433055938329" lon="5.896322214016605" id="-91776">
		<tag k="fixme" v="consider natural=peak for the most distinct mountains in the district" />
		<tag k="name" v="Åsen" />
		<tag k="natural" v="hill" />
		<tag k="place" v="locality" />
		<tag k="ssr:stedsnr" v="44611" />
	</node>
	<node lat="60.83714166753497" lon="5.917497215854633" id="-91777">
		<tag k="fixme" v="consider natural=peak for the most distinct mountains in the district" />
		<tag k="name" v="Solliåsen" />
		<tag k="natural" v="hill" />
		<tag k="place" v="locality" />
		<tag k="ssr:stedsnr" v="44613" />
	</node>
	<node lat="60.847986110087426" lon="5.977363894016047" id="-91778">
		<tag k="name" v="Midtbekkdalen" />
		<tag k="natural" v="valley" />
		<tag k="place" v="locality" />
		<tag k="ssr:stedsnr" v="44546" />
	</node>
	<node lat="60.87870555456858" lon="5.995586119395235" id="-91779">
		<tag k="fixme" v="consider natural=peak for the most distinct mountains in the district" />
		<tag k="name" v="Seilæ" />
		<tag k="natural" v="hill" />
		<tag k="place" v="locality" />
		<tag k="ssr:stedsnr" v="44557" />
	</node>
	<node lat="60.822002779353795" lon="5.948397214294535" id="-91780">
		<tag k="name" v="Fjellkråa" />
		<tag k="natural" v="slope" />
		<tag k="place" v="locality" />
		<tag k="ssr:stedsnr" v="56131" />
	</node>
	<node lat="60.766061106836865" lon="5.714625004447944" id="-91781">
		<tag k="name" v="Fuglaberga" />
		<tag k="natural" v="hill" />
		<tag k="place" v="locality" />
		<tag k="ssr:stedsnr" v="60055" />
	</node>
	<node lat="60.905215938877504" lon="6.158699589673868" id="-91782">
		<tag k="alt_name" v="Kvammavatnet, austre" />
		<tag k="name" v="Austre Kvammavatnet" />
		<tag k="natural" v="water" />
		<tag k="ssr:stedsnr" v="69078" />
		<tag k="water" v="lake" />
	</node>
	<node lat="60.9431750040441" lon="5.971627770772334" id="-91783">
		<tag k="name" v="Heimdal" />
		<tag k="place" v="farm" />
		<tag k="ssr:stedsnr" v="69101" />
	</node>
	<node lat="60.984913890362414" lon="6.060436107929216" id="-91784">
		<tag k="name" v="Åsabotnen" />
		<tag k="natural" v="valley" />
		<tag k="place" v="locality" />
		<tag k="ssr:stedsnr" v="69002" />
	</node>
	<node lat="60.981136108420465" lon="5.97901666785845" id="-91785">
		<tag k="name" v="Austrebotnvatnet" />
		<tag k="natural" v="water" />
		<tag k="ssr:stedsnr" v="69006" />
	</node>
	<node lat="60.83213333196632" lon="5.863000004327886" id="-91786">
		<tag k="name" v="Krossdal" />
		<tag k="place" v="farm" />
		<tag k="ssr:stedsnr" v="69143" />
	</node>
	<node lat="60.91224166726513" lon="5.966555554518578" id="-91787">
		<tag k="historic" v="shieling" />
		<tag k="name" v="Straumsstølen" />
		<tag k="place" v="isolated_dwelling" />
		<tag k="ssr:stedsnr" v="69122" />
	</node>
	<node lat="60.91311666363878" lon="5.991549995245236" id="-91788">
		<tag k="name" v="Kvitavasselva" />
		<tag k="ssr:stedsnr" v="69123" />
		<tag k="waterway" v="stream" />
	</node>
	<node lat="60.9176166652128" lon="5.871424993811339" id="-91789">
		<tag k="name" v="Steinadalen" />
		<tag k="natural" v="valley" />
		<tag k="place" v="locality" />
		<tag k="ssr:stedsnr" v="69124" />
	</node>
	<node lat="60.86367213036573" lon="5.807982567660767" id="-91790">
		<tag k="name" v="Skavlavatna" />
		<tag k="natural" v="water" />
		<tag k="ssr:stedsnr" v="69474" />
		<tag k="water" v="lake" />
	</node>
	<node lat="60.8501111100368" lon="5.860622219994149" id="-91791">
		<tag k="name" v="Kvitesvaa" />
		<tag k="place" v="locality" />
		<tag k="ssr:stedsnr" v="105525" />
	</node>
	<node lat="60.85098333068336" lon="5.863688883114921" id="-91792">
		<tag k="historic" v="shieling" />
		<tag k="name" v="Nærstølen" />
		<tag k="place" v="locality" />
		<tag k="ssr:stedsnr" v="105528" />
	</node>
	<node lat="60.85979722567841" lon="5.847855557828761" id="-91793">
		<tag k="name" v="Botn" />
		<tag k="natural" v="valley" />
		<tag k="place" v="locality" />
		<tag k="ssr:stedsnr" v="105532" />
	</node>
	<node lat="60.8263833295541" lon="5.83708055228965" id="-91794">
		<tag k="name" v="Svahaugen" />
		<tag k="natural" v="hill" />
		<tag k="place" v="locality" />
		<tag k="ssr:stedsnr" v="105551" />
	</node>
	<node lat="60.87022777811904" lon="6.008719449813304" id="-91795">
		<tag k="name" v="Botnane" />
		<tag k="natural" v="valley" />
		<tag k="place" v="locality" />
		<tag k="ssr:stedsnr" v="105554" />
	</node>
	<node lat="60.85299167015465" lon="5.978941666000235" id="-91796">
		<tag k="name" v="Botn" />
		<tag k="natural" v="valley" />
		<tag k="place" v="locality" />
		<tag k="ssr:stedsnr" v="105558" />
	</node>
	<node lat="60.8790083339649" lon="5.984522227176908" id="-91797">
		<tag k="name" v="Magnejorda" />
		<tag k="place" v="locality" />
		<tag k="ssr:stedsnr" v="105570" />
	</node>
	<node lat="60.84228889344999" lon="5.850347228954301" id="-91798">
		<tag k="name" v="Eikelida" />
		<tag k="natural" v="slope" />
		<tag k="place" v="locality" />
		<tag k="ssr:stedsnr" v="105618" />
	</node>
	<node lat="60.90202222092178" lon="6.043983329212961" id="-91799">
		<tag k="name" v="Lurveberget" />
		<tag k="natural" v="hill" />
		<tag k="place" v="locality" />
		<tag k="ssr:stedsnr" v="105716" />
	</node>
	<node lat="60.94508733448284" lon="5.939870703695252" id="-91800">
		<tag k="name" v="Sylvbergstjørnane" />
		<tag k="natural" v="water" />
		<tag k="ssr:stedsnr" v="129124" />
		<tag k="water" v="lake" />
	</node>
	<node lat="60.924161108931074" lon="5.941075003884708" id="-91801">
		<tag k="name" v="Gregusbotnen" />
		<tag k="natural" v="valley" />
		<tag k="place" v="locality" />
		<tag k="ssr:stedsnr" v="129145" />
	</node>
	<node lat="60.807500001527046" lon="5.949133340137946" id="-91802">
		<tag k="name" v="Storavatnet" />
		<tag k="natural" v="water" />
		<tag k="ssr:stedsnr" v="129259" />
		<tag k="water" v="lake" />
	</node>
	<node lat="60.90978333624248" lon="5.896677777851361" id="-91803">
		<tag k="fixme" v="consider natural=peak for the most distinct mountains in the district" />
		<tag k="name" v="Høgda" />
		<tag k="natural" v="hill" />
		<tag k="place" v="locality" />
		<tag k="ssr:stedsnr" v="130050" />
	</node>
	<node lat="60.886724997405096" lon="6.018705548150735" id="-91804">
		<tag k="fixme" v="consider natural=peak for the most distinct mountains in the district" />
		<tag k="name" v="Åsen" />
		<tag k="natural" v="hill" />
		<tag k="place" v="locality" />
		<tag k="ssr:stedsnr" v="130063" />
	</node>
	<node lat="60.88438888564946" lon="6.0256694515953235" id="-91805">
		<tag k="name" v="Moltemyrberget" />
		<tag k="natural" v="hill" />
		<tag k="place" v="locality" />
		<tag k="ssr:stedsnr" v="130142" />
	</node>
	<node lat="60.84245833261644" lon="5.9149388902243745" id="-91806">
		<tag k="fixme" v="consider natural=peak for the most distinct mountains in the district" />
		<tag k="name" v="Kamben" />
		<tag k="natural" v="hill" />
		<tag k="place" v="locality" />
		<tag k="ssr:stedsnr" v="130154" />
	</node>
	<node lat="60.81058333106024" lon="5.7909805513273644" id="-91807">
		<tag k="name" v="Moneset" />
		<tag k="natural" v="cape" />
		<tag k="ssr:stedsnr" v="130445" />
	</node>
	<node lat="60.81498610719171" lon="5.76960278556903" id="-91808">
		<tag k="name" v="Stølselva" />
		<tag k="ssr:stedsnr" v="130447" />
		<tag k="waterway" v="stream" />
	</node>
	<node lat="60.895527780867525" lon="6.064005561562213" id="-91809">
		<tag k="name" v="Norddalen" />
		<tag k="natural" v="valley" />
		<tag k="place" v="locality" />
		<tag k="ssr:stedsnr" v="130764" />
	</node>
	<node lat="60.850096818497214" lon="5.969424329948086" id="-91810">
		<tag k="name" v="Furneset" />
		<tag k="natural" v="cape" />
		<tag k="ssr:stedsnr" v="130765" />
	</node>
	<node lat="60.75757222591227" lon="5.722275001186486" id="-91811">
		<tag k="name" v="Mostraumsvika" />
		<tag k="natural" v="bay" />
		<tag k="ssr:stedsnr" v="165140" />
	</node>
	<node lat="60.72457500250557" lon="5.715802774716396" id="-91812">
		<tag k="name" v="Flånakken" />
		<tag k="natural" v="ridge" />
		<tag k="place" v="locality" />
		<tag k="ssr:stedsnr" v="165561" />
	</node>
	<node lat="60.83525555630107" lon="5.879149999159439" id="-91813">
		<tag k="name" v="Krana" />
		<tag k="place" v="locality" />
		<tag k="ssr:stedsnr" v="165603" />
	</node>
	<node lat="60.82007777838578" lon="5.775494448451555" id="-91814">
		<tag k="name" v="Grannova" />
		<tag k="place" v="locality" />
		<tag k="ssr:stedsnr" v="165618" />
	</node>
	<node lat="60.81678889182074" lon="5.7530138805992435" id="-91815">
		<tag k="name" v="Runnehaugen" />
		<tag k="natural" v="hill" />
		<tag k="place" v="locality" />
		<tag k="ssr:stedsnr" v="165626" />
	</node>
	<node lat="60.82903055786896" lon="5.8354944492359895" id="-91816">
		<tag k="name" v="Tona" />
		<tag k="place" v="locality" />
		<tag k="ssr:stedsnr" v="166521" />
	</node>
	<node lat="60.820622218202715" lon="5.840997214919537" id="-91817">
		<tag k="name" v="Furhaugane" />
		<tag k="natural" v="hill" />
		<tag k="place" v="locality" />
		<tag k="ssr:stedsnr" v="166535" />
	</node>
	<node lat="60.86149444440558" lon="5.964869444463729" id="-91818">
		<tag k="name" v="Furskogen" />
		<tag k="place" v="locality" />
		<tag k="ssr:stedsnr" v="166540" />
	</node>
	<node lat="60.84450050161135" lon="5.953077708118882" id="-91819">
		<tag k="name" v="Vika" />
		<tag k="natural" v="bay" />
		<tag k="ssr:stedsnr" v="166549" />
	</node>
	<node lat="60.83651944677945" lon="5.951702775505999" id="-91820">
		<tag k="name" v="Giljane" />
		<tag k="natural" v="hill" />
		<tag k="place" v="locality" />
		<tag k="ssr:stedsnr" v="166555" />
	</node>
	<node lat="60.94901666704106" lon="6.107527777983796" id="-91821">
		<tag k="name" v="Sørdalen" />
		<tag k="natural" v="valley" />
		<tag k="place" v="locality" />
		<tag k="ssr:stedsnr" v="190119" />
	</node>
	<node lat="60.92585555320357" lon="6.106288895700702" id="-91822">
		<tag k="fixme" v="consider natural=peak for the most distinct mountains in the district" />
		<tag k="name" v="Kvanngrødfjellet" />
		<tag k="natural" v="hill" />
		<tag k="place" v="locality" />
		<tag k="ssr:stedsnr" v="190130" />
	</node>
	<node lat="60.831866669375586" lon="5.725744445672587" id="-91823">
		<tag k="alt_name" v="Sødalsfjellet" />
		<tag k="fixme" v="consider natural=peak for the most distinct mountains in the district" />
		<tag k="name" v="Sørdalsfjellet" />
		<tag k="natural" v="hill" />
		<tag k="place" v="locality" />
		<tag k="ssr:stedsnr" v="190402" />
	</node>
	<node lat="60.93380000253707" lon="5.858902782378186" id="-91824">
		<tag k="alt_name" v="Smalevatnet" />
		<tag k="fixme" v="multiple name tags, choose one and add the other to alt_name" />
		<tag k="name" v="Langavatnet;Smalavatnet" />
		<tag k="natural" v="water" />
		<tag k="ssr:stedsnr" v="190833" />
		<tag k="water" v="lake" />
	</node>
	<node lat="60.88176944475723" lon="5.92447499220203" id="-91825">
		<tag k="fixme" v="consider natural=peak for the most distinct mountains in the district" />
		<tag k="name" v="Gråsida" />
		<tag k="natural" v="hill" />
		<tag k="place" v="locality" />
		<tag k="ssr:stedsnr" v="190836" />
	</node>
	<node lat="60.87920833711199" lon="6.076269435851761" id="-91826">
		<tag k="name" v="Sauaholene" />
		<tag k="natural" v="valley" />
		<tag k="place" v="locality" />
		<tag k="ssr:stedsnr" v="190837" />
	</node>
	<node lat="60.94681388991979" lon="5.889430557769142" id="-91827">
		<tag k="name" v="Vardadalen" />
		<tag k="natural" v="valley" />
		<tag k="place" v="locality" />
		<tag k="ssr:stedsnr" v="191078" />
	</node>
	<node lat="60.9644805578114" lon="6.014124994289592" id="-91828">
		<tag k="alt_name" v="Straumsstølen" />
		<tag k="historic" v="shieling" />
		<tag k="name" v="Fjellstølen" />
		<tag k="place" v="isolated_dwelling" />
		<tag k="ssr:stedsnr" v="191023" />
	</node>
	<node lat="60.96162376266563" lon="5.936177791410755" id="-91829">
		<tag k="name" v="Botnelvvotna" />
		<tag k="natural" v="water" />
		<tag k="ssr:stedsnr" v="191025" />
		<tag k="water" v="lake" />
	</node>
	<node lat="60.961969441962985" lon="5.9221388952450535" id="-91830">
		<tag k="alt_name" v="Botnelvbotn" />
		<tag k="name" v="Botnelvbotnen" />
		<tag k="natural" v="valley" />
		<tag k="place" v="locality" />
		<tag k="ssr:stedsnr" v="191026" />
	</node>
	<node lat="60.821699999376854" lon="5.948091658174269" id="-91831">
		<tag k="historic" v="shieling" />
		<tag k="name" v="Todeilsstølen" />
		<tag k="place" v="isolated_dwelling" />
		<tag k="ssr:stedsnr" v="191118" />
	</node>
	<node lat="60.87626388933334" lon="5.975227782577138" id="-91832">
		<tag k="name" v="Heimdal" />
		<tag k="place" v="farm" />
		<tag k="ssr:stedsnr" v="191133" />
	</node>
	<node lat="60.88121389009565" lon="6.107849996911855" id="-91833">
		<tag k="name" v="Skjerjabotnen" />
		<tag k="place" v="isolated_dwelling" />
		<tag k="ssr:stedsnr" v="191137" />
	</node>
	<node lat="60.8414916703717" lon="5.8554888805101974" id="-91834">
		<tag k="name" v="Budalselva" />
		<tag k="ssr:stedsnr" v="191140" />
		<tag k="waterway" v="river" />
	</node>
	<node lat="60.858173149216114" lon="6.088295119855117" id="-91835">
		<tag k="name" v="Hornavatnet" />
		<tag k="natural" v="water" />
		<tag k="ssr:stedsnr" v="191146" />
		<tag k="water" v="lake" />
	</node>
	<node lat="60.86408064493589" lon="6.03311605174753" id="-91836">
		<tag k="alt_name" v="Norddalsvatnet, nedre" />
		<tag k="name" v="Nedre Norddalsvatnet" />
		<tag k="natural" v="water" />
		<tag k="ssr:stedsnr" v="191151" />
		<tag k="water" v="lake" />
	</node>
	<node lat="60.87488772273626" lon="5.8243563525273325" id="-91837">
		<tag k="name" v="Sætertjørna" />
		<tag k="natural" v="water" />
		<tag k="ssr:stedsnr" v="191280" />
	</node>
	<node lat="60.81114444191496" lon="5.835788889112897" id="-91838">
		<tag k="name" v="Nedranesbekken" />
		<tag k="ssr:stedsnr" v="191446" />
		<tag k="waterway" v="stream" />
	</node>
	<node lat="60.785950004060744" lon="5.727097224535743" id="-91839">
		<tag k="name" v="Skaret" />
		<tag k="natural" v="valley" />
		<tag k="place" v="locality" />
		<tag k="ssr:stedsnr" v="226644" />
	</node>
	<node lat="60.8277500033188" lon="5.811858325147023" id="-91840">
		<tag k="name" v="Austragjelet" />
		<tag k="natural" v="valley" />
		<tag k="place" v="locality" />
		<tag k="ssr:stedsnr" v="226645" />
	</node>
	<node lat="60.82445277343579" lon="5.745833327720521" id="-91841">
		<tag k="name" v="Sødalselva" />
		<tag k="ssr:stedsnr" v="226649" />
		<tag k="waterway" v="river" />
	</node>
	<node lat="60.82440277497741" lon="5.75416111795904" id="-91842">
		<tag k="name" v="Nedstafallet" />
		<tag k="place" v="locality" />
		<tag k="ssr:stedsnr" v="226650" />
	</node>
	<node lat="60.7435916666823" lon="5.697030556760578" id="-91843">
		<tag k="name" v="Mosurneset" />
		<tag k="natural" v="cape" />
		<tag k="ssr:stedsnr" v="226168" />
	</node>
	<node lat="60.760412640870825" lon="5.692618916903604" id="-91844">
		<tag k="layer" v="-1" />
		<tag k="name" v="Fuglebergtunnelen" />
		<tag k="ssr:stedsnr" v="226479" />
		<tag k="tunnel" v="yes" />
	</node>
	<node lat="60.82901111171841" lon="5.8933833343694735" id="-91845">
		<tag k="name" v="Botnatoa" />
		<tag k="natural" v="valley" />
		<tag k="place" v="locality" />
		<tag k="ssr:stedsnr" v="226562" />
	</node>
	<node lat="60.77396111024711" lon="5.714130554626633" id="-91846">
		<tag k="name" v="Kjemmagjela" />
		<tag k="place" v="locality" />
		<tag k="ssr:stedsnr" v="226610" />
	</node>
	<node lat="60.77023889058839" lon="5.6832138804842876" id="-91847">
		<tag k="name" v="Stølsdalen" />
		<tag k="natural" v="valley" />
		<tag k="place" v="locality" />
		<tag k="ssr:stedsnr" v="226615" />
	</node>
	<node lat="60.770563885304924" lon="5.677636106749441" id="-91848">
		<tag k="name" v="Kroksdalen" />
		<tag k="natural" v="valley" />
		<tag k="place" v="locality" />
		<tag k="ssr:stedsnr" v="226616" />
	</node>
	<node lat="60.74486110816387" lon="5.690416660493945" id="-91849">
		<tag k="bay" v="fjord" />
		<tag k="name" v="Romerheimsfjorden" />
		<tag k="natural" v="bay" />
		<tag k="ssr:stedsnr" v="226627" />
	</node>
	<node lat="60.89878611129107" lon="5.959702771643747" id="-91850">
		<tag k="name" v="Fureskogen" />
		<tag k="place" v="locality" />
		<tag k="ssr:stedsnr" v="226754" />
	</node>
	<node lat="60.85299999781106" lon="5.957886119336323" id="-91851">
		<tag k="name" v="Gjellane" />
		<tag k="place" v="locality" />
		<tag k="ssr:stedsnr" v="227553" />
	</node>
	<node lat="60.85829722430642" lon="5.84871110313311" id="-91852">
		<tag k="name" v="Sæterbrekka" />
		<tag k="natural" v="slope" />
		<tag k="place" v="locality" />
		<tag k="ssr:stedsnr" v="227514" />
	</node>
	<node lat="60.85711111019769" lon="5.844650002632335" id="-91853">
		<tag k="name" v="Skaret" />
		<tag k="natural" v="valley" />
		<tag k="place" v="locality" />
		<tag k="ssr:stedsnr" v="227515" />
	</node>
	<node lat="60.82808888847368" lon="5.938972222632722" id="-91854">
		<tag k="name" v="Gangelia" />
		<tag k="natural" v="slope" />
		<tag k="place" v="locality" />
		<tag k="ssr:stedsnr" v="227521" />
	</node>
	<node lat="60.86792555672921" lon="5.976649537190431" id="-91855">
		<tag k="name" v="Midvatnet" />
		<tag k="natural" v="water" />
		<tag k="ssr:stedsnr" v="227705" />
	</node>
	<node lat="60.85518332947604" lon="6.0029083344763" id="-91856">
		<tag k="name" v="Tverrdalselva" />
		<tag k="ssr:stedsnr" v="227706" />
		<tag k="waterway" v="river" />
	</node>
	<node lat="60.774502779276396" lon="5.690072227466063" id="-91857">
		<tag k="name" v="Slettebrekkena" />
		<tag k="natural" v="slope" />
		<tag k="place" v="locality" />
		<tag k="ssr:stedsnr" v="287621" />
	</node>
	<node lat="60.77685277506501" lon="5.675063887948866" id="-91858">
		<tag k="name" v="Geitabotnen" />
		<tag k="natural" v="valley" />
		<tag k="place" v="locality" />
		<tag k="ssr:stedsnr" v="287624" />
	</node>
	<node lat="60.808763887409896" lon="5.801577784440788" id="-91859">
		<tag k="name" v="Bergsåa" />
		<tag k="ssr:stedsnr" v="287167" />
		<tag k="waterway" v="stream" />
	</node>
	<node lat="60.85436944671527" lon="5.847150008461896" id="-91860">
		<tag k="name" v="Glupsura" />
		<tag k="natural" v="scree" />
		<tag k="ssr:stedsnr" v="287550" />
	</node>
	<node lat="60.84882222116989" lon="5.846483337908391" id="-91861">
		<tag k="name" v="Skavlen" />
		<tag k="place" v="locality" />
		<tag k="ssr:stedsnr" v="287552" />
	</node>
	<node lat="60.88646389147233" lon="6.018202770949783" id="-91862">
		<tag k="fixme" v="consider natural=peak for the most distinct mountains in the district" />
		<tag k="name" v="Krossåsen" />
		<tag k="natural" v="hill" />
		<tag k="place" v="locality" />
		<tag k="ssr:stedsnr" v="287555" />
	</node>
	<node lat="60.82945278167756" lon="5.878394441058589" id="-91863">
		<tag k="name" v="Storhaugen" />
		<tag k="natural" v="hill" />
		<tag k="place" v="locality" />
		<tag k="ssr:stedsnr" v="287559" />
	</node>
	<node lat="60.82956667069855" lon="5.905102770792275" id="-91864">
		<tag k="fixme" v="consider natural=peak for the most distinct mountains in the district" />
		<tag k="name" v="Åsane" />
		<tag k="natural" v="hill" />
		<tag k="place" v="locality" />
		<tag k="ssr:stedsnr" v="287562" />
	</node>
	<node lat="60.80840555358786" lon="5.879949997807517" id="-91865">
		<tag k="fixme" v="consider natural=peak for the most distinct mountains in the district" />
		<tag k="name" v="Jorskarfjellet" />
		<tag k="natural" v="hill" />
		<tag k="place" v="locality" />
		<tag k="ssr:stedsnr" v="287569" />
	</node>
	<node lat="60.817069444188874" lon="5.8364611157273485" id="-91866">
		<tag k="name" v="Nærenesbekken" />
		<tag k="ssr:stedsnr" v="287573" />
		<tag k="waterway" v="stream" />
	</node>
	<node lat="60.842127777792136" lon="5.86372222769364" id="-91867">
		<tag k="name" v="Rusta" />
		<tag k="natural" v="hill" />
		<tag k="place" v="locality" />
		<tag k="ssr:stedsnr" v="287637" />
	</node>
	<node lat="60.83931944280218" lon="5.927041666145302" id="-91868">
		<tag k="name" v="Øyjordi" />
		<tag k="place" v="farm" />
		<tag k="ssr:stedsnr" v="287640" />
	</node>
	<node lat="60.75819444741926" lon="5.724630557979124" id="-91869">
		<tag k="name" v="Nakken" />
		<tag k="natural" v="ridge" />
		<tag k="place" v="locality" />
		<tag k="ssr:stedsnr" v="287653" />
	</node>
	<node lat="60.75994444751236" lon="5.729083328244164" id="-91870">
		<tag k="alt_name" v="Svaneura" />
		<tag k="name" v="Svanura" />
		<tag k="natural" v="scree" />
		<tag k="ssr:stedsnr" v="287654" />
	</node>
	<node lat="60.90210000405238" lon="5.973272220482012" id="-91871">
		<tag k="bridge" v="yes" />
		<tag k="layer" v="1" />
		<tag k="name" v="Tverrå" />
		<tag k="ssr:stedsnr" v="290056" />
	</node>
	<node lat="60.91101944842265" lon="5.966441666542513" id="-91872">
		<tag k="bridge" v="yes" />
		<tag k="layer" v="1" />
		<tag k="name" v="Seters" />
		<tag k="ssr:stedsnr" v="290062" />
	</node>
	<node lat="60.83149444585462" lon="5.859666658301923" id="-91873">
		<tag k="bridge" v="yes" />
		<tag k="layer" v="1" />
		<tag k="name" v="Krossdalen" />
		<tag k="ssr:stedsnr" v="290063" />
	</node>
	<node lat="60.73175278032237" lon="5.734100002489175" id="-91874">
		<tag k="fixme" v="consider natural=peak for the most distinct mountains in the district" />
		<tag k="name" v="Salsfjellet" />
		<tag k="natural" v="hill" />
		<tag k="place" v="locality" />
		<tag k="ssr:stedsnr" v="309326" />
	</node>
	<node lat="60.76666388652784" lon="5.728950002979322" id="-91875">
		<tag k="name" v="Mostraumen" />
		<tag k="natural" v="strait" />
		<tag k="ssr:stedsnr" v="312045" />
	</node>
	<node lat="60.95768333508428" lon="6.062119443292201" id="-91876">
		<tag k="name" v="Skålebotnen" />
		<tag k="natural" v="valley" />
		<tag k="place" v="locality" />
		<tag k="ssr:stedsnr" v="311117" />
	</node>
	<node lat="60.86582221920093" lon="6.0062111056531915" id="-91877">
		<tag k="name" v="Krossdalen" />
		<tag k="natural" v="valley" />
		<tag k="place" v="locality" />
		<tag k="ssr:stedsnr" v="312139" />
	</node>
	<node lat="60.868952776698215" lon="6.058708339727041" id="-91878">
		<tag k="name" v="Norddalsbotnen" />
		<tag k="natural" v="valley" />
		<tag k="place" v="locality" />
		<tag k="ssr:stedsnr" v="312142" />
	</node>
	<node lat="60.85749765535021" lon="5.879426384436931" id="-91879">
		<tag k="name" v="Fagerdalstjørna" />
		<tag k="natural" v="water" />
		<tag k="ssr:stedsnr" v="312143" />
	</node>
	<node lat="60.920155557635006" lon="5.988911116031599" id="-91880">
		<tag k="fixme" v="consider natural=peak for the most distinct mountains in the district" />
		<tag k="name" v="Grønfjellet" />
		<tag k="natural" v="hill" />
		<tag k="place" v="locality" />
		<tag k="ssr:stedsnr" v="312067" />
	</node>
	<node lat="60.82488611397681" lon="5.8093666618477835" id="-91881">
		<tag k="fixme" v="consider natural=peak for the most distinct mountains in the district" />
		<tag k="name" v="Husafjellet" />
		<tag k="natural" v="hill" />
		<tag k="place" v="locality" />
		<tag k="ssr:stedsnr" v="312494" />
	</node>
	<node lat="60.88427499919669" lon="6.104858326204963" id="-91882">
		<tag k="name" v="Krossgavlen" />
		<tag k="natural" v="hill" />
		<tag k="place" v="locality" />
		<tag k="ssr:stedsnr" v="312152" />
	</node>
	<node lat="60.85256666691621" lon="5.915124996730994" id="-91883">
		<tag k="name" v="Sollidalen" />
		<tag k="natural" v="valley" />
		<tag k="place" v="locality" />
		<tag k="ssr:stedsnr" v="312156" />
	</node>
	<node lat="60.853405559250106" lon="6.007299995495459" id="-91884">
		<tag k="historic" v="shieling" />
		<tag k="name" v="Tveradalsstølen" />
		<tag k="place" v="isolated_dwelling" />
		<tag k="ssr:stedsnr" v="312159" />
	</node>
	<node lat="60.841494447219354" lon="5.846375003249677" id="-91885">
		<tag k="name" v="Steiadalen" />
		<tag k="natural" v="valley" />
		<tag k="place" v="locality" />
		<tag k="ssr:stedsnr" v="312160" />
	</node>
	<node lat="61.013824997422994" lon="6.0373638969299455" id="-91886">
		<tag k="name" v="Åsabotnen" />
		<tag k="natural" v="valley" />
		<tag k="place" v="locality" />
		<tag k="ssr:stedsnr" v="312348" />
	</node>
	<node lat="61.01511111085671" lon="5.9965166752926695" id="-91887">
		<tag k="fixme" v="consider tourism=alpine_hut or tourism=chalet" />
		<tag k="name" v="Norddalshytten" />
		<tag k="old_name" v="Norddalen" />
		<tag k="ssr:stedsnr" v="312349" />
		<tag k="tourism" v="wilderness_hut" />
	</node>
	<node lat="60.83793888664826" lon="5.932997230400089" id="-91888">
		<tag k="name" v="Farestveit" />
		<tag k="place" v="farm" />
		<tag k="ssr:stedsnr" v="330315" />
	</node>
	<node lat="60.797688887076" lon="5.769438894015784" id="-91889">
		<tag k="name" v="Grimsneset" />
		<tag k="natural" v="cape" />
		<tag k="ssr:stedsnr" v="347149" />
	</node>
	<node lat="60.84191389184489" lon="5.840827772813672" id="-91890">
		<tag k="fixme" v="consider natural=peak for the most distinct mountains in the district" />
		<tag k="name" v="Midtfjellet" />
		<tag k="natural" v="hill" />
		<tag k="place" v="locality" />
		<tag k="ssr:stedsnr" v="347589" />
	</node>
	<node lat="60.83634444031009" lon="5.862855561415757" id="-91891">
		<tag k="historic" v="shieling" />
		<tag k="name" v="Vetlestølen" />
		<tag k="place" v="locality" />
		<tag k="ssr:stedsnr" v="347596" />
	</node>
	<node lat="60.832077775682215" lon="5.923188886987907" id="-91892">
		<tag k="name" v="Blombrekka" />
		<tag k="natural" v="slope" />
		<tag k="place" v="locality" />
		<tag k="ssr:stedsnr" v="347600" />
	</node>
	<node lat="60.881858329172445" lon="5.967575007429913" id="-91893">
		<tag k="name" v="Skredtorna" />
		<tag k="place" v="locality" />
		<tag k="ssr:stedsnr" v="348493" />
	</node>
	<node lat="60.88241389049647" lon="6.0036388872823245" id="-91894">
		<tag k="name" v="Heidalida" />
		<tag k="natural" v="slope" />
		<tag k="place" v="locality" />
		<tag k="ssr:stedsnr" v="348495" />
	</node>
	<node lat="60.91476111246383" lon="5.95895555012671" id="-91895">
		<tag k="name" v="Furhaugane" />
		<tag k="natural" v="hill" />
		<tag k="place" v="locality" />
		<tag k="ssr:stedsnr" v="348688" />
	</node>
	<node lat="60.92219444805498" lon="5.954163895442361" id="-91896">
		<tag k="name" v="Gregguselva" />
		<tag k="ssr:stedsnr" v="348692" />
		<tag k="waterway" v="river" />
	</node>
	<node lat="60.83100555416452" lon="5.948980561162747" id="-91897">
		<tag k="name" v="Ossmusslia" />
		<tag k="natural" v="slope" />
		<tag k="place" v="locality" />
		<tag k="ssr:stedsnr" v="348543" />
	</node>
	<node lat="60.8653611122481" lon="5.972836107415801" id="-91898">
		<tag k="name" v="Straume" />
		<tag k="place" v="farm" />
		<tag k="ssr:stedsnr" v="348550" />
	</node>
	<node lat="60.74365277422725" lon="5.673483341858418" id="-91899">
		<tag k="fixme" v="consider natural=peak for the most distinct mountains in the district" />
		<tag k="name" v="Åsen" />
		<tag k="natural" v="hill" />
		<tag k="place" v="locality" />
		<tag k="ssr:stedsnr" v="370495" />
	</node>
	<node lat="60.7451861099899" lon="5.716725009229476" id="-91900">
		<tag k="name" v="Fossedalen" />
		<tag k="natural" v="valley" />
		<tag k="place" v="locality" />
		<tag k="ssr:stedsnr" v="370498" />
	</node>
	<node lat="61.00793333445575" lon="5.977563879738509" id="-91901">
		<tag k="name" v="Norddalen" />
		<tag k="natural" v="valley" />
		<tag k="place" v="locality" />
		<tag k="ssr:stedsnr" v="371429" />
	</node>
	<node lat="60.90994166374044" lon="5.962255560259931" id="-91902">
		<tag k="name" v="Sæterelva" />
		<tag k="ssr:stedsnr" v="372073" />
		<tag k="waterway" v="stream" />
	</node>
	<node lat="60.92042499929771" lon="6.151999997473087" id="-91903">
		<tag k="fixme" v="consider natural=peak for the most distinct mountains in the district" />
		<tag k="name" v="Hellesåta" />
		<tag k="natural" v="hill" />
		<tag k="place" v="locality" />
		<tag k="ssr:stedsnr" v="372075" />
	</node>
	<node lat="60.90203333784783" lon="5.994144451040232" id="-91904">
		<tag k="name" v="Kvelven" />
		<tag k="natural" v="valley" />
		<tag k="place" v="locality" />
		<tag k="ssr:stedsnr" v="372078" />
	</node>
	<node lat="60.9082000021197" lon="6.044538885176741" id="-91905">
		<tag k="name" v="Kvanndalselva" />
		<tag k="ssr:stedsnr" v="372088" />
		<tag k="waterway" v="stream" />
	</node>
	<node lat="60.89277777798018" lon="6.018586103723586" id="-91906">
		<tag k="alt_name" v="Nåmdalsåsen" />
		<tag k="fixme" v="consider natural=peak for the most distinct mountains in the district" />
		<tag k="name" v="Øvrehellandsåsen" />
		<tag k="natural" v="hill" />
		<tag k="place" v="locality" />
		<tag k="ssr:stedsnr" v="372094" />
	</node>
	<node lat="60.88932500317901" lon="6.068005555274654" id="-91907">
		<tag k="name" v="Austredalselva" />
		<tag k="ssr:stedsnr" v="372100" />
		<tag k="waterway" v="stream" />
	</node>
	<node lat="60.86240833423727" lon="6.008133333835194" id="-91908">
		<tag k="name" v="Oksla" />
		<tag k="natural" v="hill" />
		<tag k="place" v="locality" />
		<tag k="ssr:stedsnr" v="372194" />
	</node>
	<node lat="60.82717500202608" lon="5.817880546501346" id="-91909">
		<tag k="fixme" v="consider natural=peak for the most distinct mountains in the district" />
		<tag k="name" v="Storfjellet" />
		<tag k="natural" v="hill" />
		<tag k="place" v="locality" />
		<tag k="ssr:stedsnr" v="372391" />
	</node>
	<node lat="60.84100833603793" lon="6.010538883848312" id="-91910">
		<tag k="name" v="Sørskaret" />
		<tag k="natural" v="valley" />
		<tag k="place" v="locality" />
		<tag k="ssr:stedsnr" v="373120" />
	</node>
	<node lat="60.8421500033867" lon="5.976408342147941" id="-91911">
		<tag k="name" v="Bjørkehaugbekken" />
		<tag k="ssr:stedsnr" v="373121" />
		<tag k="waterway" v="stream" />
	</node>
	<node lat="60.8102916624978" lon="5.846486110578481" id="-91912">
		<tag k="name" v="Smylmbotnane" />
		<tag k="natural" v="valley" />
		<tag k="place" v="locality" />
		<tag k="ssr:stedsnr" v="373124" />
	</node>
	<node lat="60.8353916700593" lon="5.84626111671863" id="-91913">
		<tag k="name" v="Furehjellen" />
		<tag k="place" v="locality" />
		<tag k="ssr:stedsnr" v="408612" />
	</node>
	<node lat="60.834130554112164" lon="5.903302778286852" id="-91914">
		<tag k="name" v="Holmura" />
		<tag k="natural" v="scree" />
		<tag k="ssr:stedsnr" v="408614" />
	</node>
	<node lat="60.751055553141015" lon="5.701233326285635" id="-91915">
		<tag k="name" v="Kjetoberget" />
		<tag k="natural" v="hill" />
		<tag k="place" v="locality" />
		<tag k="ssr:stedsnr" v="408574" />
	</node>
	<node lat="60.72746666499175" lon="5.7322583326115835" id="-91916">
		<tag k="name" v="Midtnakken" />
		<tag k="natural" v="ridge" />
		<tag k="place" v="locality" />
		<tag k="ssr:stedsnr" v="408581" />
	</node>
	<node lat="60.865927776494225" lon="5.987419449501513" id="-91917">
		<tag k="name" v="Kåsane" />
		<tag k="place" v="locality" />
		<tag k="ssr:stedsnr" v="409560" />
	</node>
	<node lat="60.870952777210206" lon="6.0045666669186755" id="-91918">
		<tag k="name" v="Ura" />
		<tag k="natural" v="scree" />
		<tag k="ssr:stedsnr" v="409529" />
	</node>
	<node lat="60.87111944496497" lon="5.982399999287053" id="-91919">
		<tag k="name" v="Rinnane" />
		<tag k="natural" v="hill" />
		<tag k="place" v="locality" />
		<tag k="ssr:stedsnr" v="409533" />
	</node>
	<node lat="60.89604166224389" lon="6.020369445590109" id="-91920">
		<tag k="historic" v="shieling" />
		<tag k="name" v="Fjellstølen" />
		<tag k="place" v="locality" />
		<tag k="ssr:stedsnr" v="409697" />
	</node>
	<node lat="60.83147778180998" lon="5.8905749988943805" id="-91921">
		<tag k="bridge" v="yes" />
		<tag k="layer" v="1" />
		<tag k="name" v="Almelibotn" />
		<tag k="ssr:stedsnr" v="411060" />
	</node>
	<node lat="60.73886110706078" lon="5.672052780274727" id="-91922">
		<tag k="name" v="Bjørnstø" />
		<tag k="natural" v="bay" />
		<tag k="ssr:stedsnr" v="431334" />
	</node>
	<node lat="60.90569121316854" lon="6.146925878062538" id="-91923">
		<tag k="alt_name" v="Kvammavatnet, vestre" />
		<tag k="name" v="Vestre Kvammavatnet" />
		<tag k="natural" v="water" />
		<tag k="ssr:stedsnr" v="433083" />
		<tag k="water" v="lake" />
	</node>
	<node lat="60.7648944475516" lon="5.695969437581872" id="-91924">
		<tag k="fixme" v="consider natural=peak for the most distinct mountains in the district" />
		<tag k="name" v="Berget" />
		<tag k="natural" v="hill" />
		<tag k="place" v="locality" />
		<tag k="ssr:stedsnr" v="433047" />
	</node>
	<node lat="60.90924167010139" lon="6.180113891885423" id="-91925">
		<tag k="fixme" v="consider natural=peak for the most distinct mountains in the district" />
		<tag k="name" v="Askjellfjellet" />
		<tag k="natural" v="hill" />
		<tag k="place" v="locality" />
		<tag k="ssr:stedsnr" v="433084" />
	</node>
	<node lat="60.903886113245534" lon="6.006699998997055" id="-91926">
		<tag k="name" v="Ukristna" />
		<tag k="natural" v="slope" />
		<tag k="place" v="locality" />
		<tag k="ssr:stedsnr" v="433091" />
	</node>
	<node lat="60.904613886040245" lon="6.023750001154276" id="-91927">
		<tag k="fixme" v="consider natural=peak for the most distinct mountains in the district" />
		<tag k="name" v="Oksla" />
		<tag k="natural" v="hill" />
		<tag k="place" v="locality" />
		<tag k="ssr:stedsnr" v="433101" />
	</node>
	<node lat="60.94455832959505" lon="5.947113894161403" id="-91928">
		<tag k="fixme" v="consider natural=peak for the most distinct mountains in the district" />
		<tag k="name" v="Sylvberget" />
		<tag k="natural" v="hill" />
		<tag k="place" v="locality" />
		<tag k="ssr:stedsnr" v="433119" />
	</node>
	<node lat="60.92517500175277" lon="6.00401666799591" id="-91929">
		<tag k="name" v="Kvitavassdalen" />
		<tag k="natural" v="valley" />
		<tag k="place" v="locality" />
		<tag k="ssr:stedsnr" v="433121" />
	</node>
	<node lat="60.90369999671818" lon="5.836133340136591" id="-91930">
		<tag k="fixme" v="consider natural=peak for the most distinct mountains in the district" />
		<tag k="name" v="Skjerjavassryggen" />
		<tag k="natural" v="hill" />
		<tag k="place" v="locality" />
		<tag k="ssr:stedsnr" v="433335" />
	</node>
	<node lat="60.835153548557734" lon="5.708234520031053" id="-91931">
		<tag k="alt_name" v="Sørdalsvatnet, insta;Inste Sødalsvatnet" />
		<tag k="name" v="Insta Sørdalsvatnet" />
		<tag k="natural" v="water" />
		<tag k="ssr:stedsnr" v="433364" />
	</node>
	<node lat="60.821583334206586" lon="5.8891861169207" id="-91932">
		<tag k="historic" v="shieling" />
		<tag k="name" v="Almelistølen" />
		<tag k="place" v="isolated_dwelling" />
		<tag k="ssr:stedsnr" v="434110" />
	</node>
	<node lat="60.83641666813894" lon="6.037769443393176" id="-91933">
		<tag k="fixme" v="consider natural=peak for the most distinct mountains in the district" />
		<tag k="loc_name" v="Øykjafjellet" />
		<tag k="name" v="Øykafjellet" />
		<tag k="natural" v="hill" />
		<tag k="place" v="locality" />
		<tag k="ssr:stedsnr" v="434112" />
	</node>
	<node lat="60.97465833508923" lon="6.111741667477875" id="-91934">
		<tag k="name" v="Hjellane" />
		<tag k="place" v="locality" />
		<tag k="ssr:stedsnr" v="434007" />
	</node>
	<node lat="60.814083332730235" lon="5.859541665609168" id="-91935">
		<tag k="name" v="Modalsskaret" />
		<tag k="natural" v="valley" />
		<tag k="place" v="locality" />
		<tag k="ssr:stedsnr" v="434133" />
	</node>
	<node lat="60.826269440355084" lon="5.954849997466119" id="-91936">
		<tag k="name" v="Såta" />
		<tag k="natural" v="hill" />
		<tag k="place" v="locality" />
		<tag k="ssr:stedsnr" v="434135" />
	</node>
	<node lat="60.8603638861238" lon="5.845286103481001" id="-91937">
		<tag k="historic" v="shieling" />
		<tag k="name" v="Bleidalsstølen" />
		<tag k="place" v="isolated_dwelling" />
		<tag k="ssr:stedsnr" v="434144" />
	</node>
	<node lat="60.86430967325437" lon="5.9767204481865095" id="-91938">
		<tag k="alt_name" v="Aabåtvatn" />
		<tag k="name" v="Åbotnsvatnet" />
		<tag k="natural" v="water" />
		<tag k="ssr:stedsnr" v="434161" />
	</node>
	<node lat="60.83653333384248" lon="5.880938880694732" id="-91939">
		<tag k="name" v="Veslaseglet" />
		<tag k="natural" v="ridge" />
		<tag k="place" v="locality" />
		<tag k="ssr:stedsnr" v="434165" />
	</node>
	<node lat="60.844874996266824" lon="5.920413884937619" id="-91940">
		<tag k="alt_name" v="Sollistølen" />
		<tag k="historic" v="shieling" />
		<tag k="name" v="Tringsstølen" />
		<tag k="place" v="isolated_dwelling" />
		<tag k="ssr:stedsnr" v="434166" />
	</node>
	<node lat="60.83871111142053" lon="5.935386112313434" id="-91941">
		<tag k="name" v="Farestveit" />
		<tag k="place" v="farm" />
		<tag k="ssr:stedsnr" v="512299" />
	</node>
	<node lat="60.75498055146868" lon="5.702522225745618" id="-91942">
		<tag k="name" v="Kjetoa" />
		<tag k="place" v="locality" />
		<tag k="ssr:stedsnr" v="529557" />
	</node>
	<node lat="60.72594688308796" lon="5.700859850989039" id="-91943">
		<tag k="name" v="Fagerskaret" />
		<tag k="natural" v="valley" />
		<tag k="place" v="locality" />
		<tag k="ssr:stedsnr" v="529561" />
	</node>
	<node lat="60.806524408235695" lon="5.762058775869966" id="-91944">
		<tag k="layer" v="-1" />
		<tag k="name" v="Klubben I" />
		<tag k="ssr:stedsnr" v="529262" />
		<tag k="tunnel" v="yes" />
	</node>
	<node lat="60.83890277420868" lon="5.8572527790928826" id="-91945">
		<tag k="name" v="Esphaugen" />
		<tag k="natural" v="hill" />
		<tag k="place" v="locality" />
		<tag k="ssr:stedsnr" v="529588" />
	</node>
	<node lat="60.880802781489706" lon="5.96979166553751" id="-91946">
		<tag k="name" v="Skredbekken" />
		<tag k="ssr:stedsnr" v="530534" />
		<tag k="waterway" v="stream" />
	</node>
	<node lat="60.886050000340326" lon="5.9847749909839525" id="-91947">
		<tag k="name" v="Stalleleitet" />
		<tag k="natural" v="slope" />
		<tag k="place" v="locality" />
		<tag k="ssr:stedsnr" v="530537" />
	</node>
	<node lat="60.87102222228854" lon="5.9723277715858165" id="-91948">
		<tag k="name" v="Bjørnbakken" />
		<tag k="natural" v="slope" />
		<tag k="place" v="locality" />
		<tag k="ssr:stedsnr" v="530565" />
	</node>
	<node lat="60.891824997086964" lon="6.035916663373764" id="-91949">
		<tag k="name" v="Krossen" />
		<tag k="place" v="farm" />
		<tag k="ssr:stedsnr" v="544757" />
	</node>
	<node lat="60.91086055732804" lon="5.830043304163676" id="-91950">
		<tag k="name" v="Hjortevatnet" />
		<tag k="natural" v="water" />
		<tag k="ssr:stedsnr" v="554365" />
		<tag k="water" v="lake" />
	</node>
	<node lat="60.76896944519726" lon="5.756527783937774" id="-91951">
		<tag k="fixme" v="consider place=hamlet" />
		<tag k="name" v="Langedalen" />
		<tag k="place" v="farm" />
		<tag k="ssr:stedsnr" v="554034" />
	</node>
	<node lat="60.96226388481585" lon="6.01713889834407" id="-91952">
		<tag k="fixme" v="consider natural=peak for the most distinct mountains in the district" />
		<tag k="name" v="Rusta" />
		<tag k="natural" v="hill" />
		<tag k="place" v="locality" />
		<tag k="ssr:stedsnr" v="554017" />
	</node>
	<node lat="60.89149829649605" lon="6.036153830804429" id="-91953">
		<tag k="alt_name" v="Nygård" />
		<tag k="fixme" v="consider place=hamlet" />
		<tag k="name" v="Nygard" />
		<tag k="place" v="farm" />
		<tag k="ssr:stedsnr" v="554084" />
	</node>
	<node lat="60.888765654835886" lon="6.025593972270075" id="-91954">
		<tag k="name" v="Krossvatnet" />
		<tag k="natural" v="water" />
		<tag k="ssr:stedsnr" v="554089" />
	</node>
	<node lat="60.95792840893897" lon="6.057685528299715" id="-91955">
		<tag k="name" v="Nedre Skålebotnsvatnet" />
		<tag k="natural" v="water" />
		<tag k="ssr:stedsnr" v="554095" />
	</node>
	<node lat="60.940755560150635" lon="5.935141669900686" id="-91956">
		<tag k="name" v="Kvernhusbotnvatnet" />
		<tag k="natural" v="water" />
		<tag k="ssr:stedsnr" v="554101" />
	</node>
	<node lat="60.85147691573398" lon="5.8661719692228065" id="-91957">
		<tag k="name" v="Tveråna" />
		<tag k="ssr:stedsnr" v="554181" />
		<tag k="waterway" v="stream" />
	</node>
	<node lat="60.86041666383345" lon="5.9534249915467665" id="-91958">
		<tag k="name" v="Merkeselva" />
		<tag k="ssr:stedsnr" v="554188" />
		<tag k="waterway" v="stream" />
	</node>
	<node lat="60.861413888141826" lon="5.97910555680398" id="-91959">
		<tag k="amenity" v="nursing_home" />
		<tag k="name" v="Modalen aldersheim" />
		<tag k="ssr:stedsnr" v="554192" />
	</node>
	<node lat="60.77184717279831" lon="5.770328169639365" id="-91960">
		<tag k="name" v="Stølsvatnet" />
		<tag k="natural" v="water" />
		<tag k="ssr:stedsnr" v="554036" />
	</node>
	<node lat="60.912161106873924" lon="5.986988882143014" id="-91961">
		<tag k="fixme" v="consider natural=peak for the most distinct mountains in the district" />
		<tag k="name" v="Holmanesfjellet" />
		<tag k="natural" v="hill" />
		<tag k="place" v="locality" />
		<tag k="ssr:stedsnr" v="554061" />
	</node>
	<node lat="60.913225003900536" lon="5.974011115752049" id="-91962">
		<tag k="name" v="Holmaneset" />
		<tag k="natural" v="cape" />
		<tag k="ssr:stedsnr" v="554065" />
	</node>
	<node lat="60.84322500312376" lon="6.015744436057131" id="-91963">
		<tag k="name" v="Dalavatnet" />
		<tag k="natural" v="water" />
		<tag k="ssr:stedsnr" v="554142" />
	</node>
	<node lat="60.874833332502625" lon="6.023025004061569" id="-91964">
		<tag k="fixme" v="consider natural=peak for the most distinct mountains in the district" />
		<tag k="name" v="Tverrfjellet" />
		<tag k="natural" v="hill" />
		<tag k="place" v="locality" />
		<tag k="ssr:stedsnr" v="554168" />
	</node>
	<node lat="60.816125002790294" lon="5.947300004406988" id="-91965">
		<tag k="name" v="Tverrdalen" />
		<tag k="natural" v="valley" />
		<tag k="place" v="locality" />
		<tag k="ssr:stedsnr" v="554837" />
	</node>
	<node lat="60.756480554737536" lon="5.753600008189227" id="-91966">
		<tag k="historic" v="shieling" />
		<tag k="name" v="Langedalstølen" />
		<tag k="place" v="locality" />
		<tag k="ssr:stedsnr" v="590575" />
	</node>
	<node lat="60.82966388518362" lon="5.912172223201989" id="-91967">
		<tag k="name" v="Hanrane" />
		<tag k="natural" v="ridge" />
		<tag k="place" v="locality" />
		<tag k="ssr:stedsnr" v="590542" />
	</node>
	<node lat="60.832655558155324" lon="5.916358333527316" id="-91968">
		<tag k="name" v="Skrena" />
		<tag k="natural" v="valley" />
		<tag k="place" v="locality" />
		<tag k="ssr:stedsnr" v="590543" />
	</node>
	<node lat="60.813036108265244" lon="5.887741666256352" id="-91969">
		<tag k="historic" v="shieling" />
		<tag k="name" v="Knutstølen" />
		<tag k="place" v="locality" />
		<tag k="ssr:stedsnr" v="590544" />
	</node>
	<node lat="60.86246110720994" lon="5.975766658165077" id="-91970">
		<tag k="name" v="Balaneset" />
		<tag k="natural" v="cape" />
		<tag k="ssr:stedsnr" v="590549" />
	</node>
	<node lat="60.92541388863048" lon="5.864861108198217" id="-91971">
		<tag k="name" v="Ytste Vika" />
		<tag k="natural" v="bay" />
		<tag k="ssr:stedsnr" v="603097" />
	</node>
	<node lat="60.92908333266542" lon="6.120636110626679" id="-91972">
		<tag k="name" v="Skorvadalen" />
		<tag k="natural" v="valley" />
		<tag k="place" v="locality" />
		<tag k="ssr:stedsnr" v="614115" />
	</node>
	<node lat="60.86841666447246" lon="5.8353527867673005" id="-91973">
		<tag k="name" v="Bleidalen" />
		<tag k="natural" v="valley" />
		<tag k="place" v="locality" />
		<tag k="ssr:stedsnr" v="614435" />
	</node>
	<node lat="60.78069166811987" lon="5.74778888371567" id="-91974">
		<tag k="name" v="Skjeggevika" />
		<tag k="natural" v="bay" />
		<tag k="ssr:stedsnr" v="614440" />
	</node>
	<node lat="60.79882778040082" lon="5.752052779635776" id="-91975">
		<tag k="name" v="Hestabotnen" />
		<tag k="natural" v="valley" />
		<tag k="place" v="locality" />
		<tag k="ssr:stedsnr" v="615459" />
	</node>
	<node lat="60.97000277817962" lon="6.1329611079913295" id="-91976">
		<tag k="name" v="Storehaugen" />
		<tag k="natural" v="hill" />
		<tag k="place" v="locality" />
		<tag k="ssr:stedsnr" v="615025" />
	</node>
	<node lat="60.9576305599312" lon="6.003844443276847" id="-91977">
		<tag k="fixme" v="consider natural=peak for the most distinct mountains in the district" />
		<tag k="name" v="Hytteberget" />
		<tag k="natural" v="hill" />
		<tag k="place" v="locality" />
		<tag k="ssr:stedsnr" v="615033" />
	</node>
	<node lat="60.76598332934843" lon="5.672436105437747" id="-91978">
		<tag k="name" v="Storebotnen" />
		<tag k="natural" v="valley" />
		<tag k="place" v="locality" />
		<tag k="ssr:stedsnr" v="615043" />
	</node>
	<node lat="60.90966388982735" lon="5.971449994843204" id="-91979">
		<tag k="alt_name" v="Steinslandsvatn" />
		<tag k="name" v="Steinslandsvatnet" />
		<tag k="natural" v="water" />
		<tag k="ssr:stedsnr" v="615063" />
		<tag k="water" v="lake" />
	</node>
	<node lat="60.90083791628006" lon="6.091055032671494" id="-91980">
		<tag k="name" v="Saufjellsvatnet" />
		<tag k="natural" v="water" />
		<tag k="ssr:stedsnr" v="615073" />
	</node>
	<node lat="60.90044444378043" lon="6.030241658633725" id="-91981">
		<tag k="name" v="Sundet" />
		<tag k="place" v="isolated_dwelling" />
		<tag k="ssr:stedsnr" v="615074" />
	</node>
	<node lat="60.88151666566409" lon="6.12324999578258" id="-91982">
		<tag k="name" v="Skjerjavatnet" />
		<tag k="natural" v="water" />
		<tag k="ssr:stedsnr" v="615148" />
		<tag k="water" v="lake" />
	</node>
	<node lat="60.86354999866364" lon="5.845894448383208" id="-91983">
		<tag k="name" v="Storehaugen" />
		<tag k="natural" v="hill" />
		<tag k="place" v="locality" />
		<tag k="ssr:stedsnr" v="615149" />
	</node>
	<node lat="60.83724444791059" lon="5.869013888904029" id="-91984">
		<tag k="name" v="Heimalia" />
		<tag k="natural" v="slope" />
		<tag k="place" v="locality" />
		<tag k="ssr:stedsnr" v="615159" />
	</node>
	<node lat="60.866825001106776" lon="5.951449992809781" id="-91985">
		<tag k="name" v="Kvernhusbotnen" />
		<tag k="natural" v="valley" />
		<tag k="place" v="locality" />
		<tag k="ssr:stedsnr" v="615161" />
	</node>
	<node lat="60.83216944427956" lon="5.931391665459787" id="-91986">
		<tag k="name" v="Klauva" />
		<tag k="natural" v="slope" />
		<tag k="place" v="locality" />
		<tag k="ssr:stedsnr" v="615133" />
	</node>
	<node lat="60.87440278101482" lon="6.00772777475899" id="-91987">
		<tag k="name" v="Krossdalselva" />
		<tag k="ssr:stedsnr" v="615135" />
		<tag k="waterway" v="river" />
	</node>
	<node lat="60.88372500107482" lon="5.97933055845852" id="-91988">
		<tag k="name" v="Brattneset" />
		<tag k="natural" v="cape" />
		<tag k="ssr:stedsnr" v="615143" />
	</node>
	<node lat="60.84175833761123" lon="5.777597227865885" id="-91989">
		<tag k="fixme" v="consider natural=peak for the most distinct mountains in the district" />
		<tag k="name" v="Høgahjellsnipa" />
		<tag k="natural" v="hill" />
		<tag k="place" v="locality" />
		<tag k="ssr:stedsnr" v="615372" />
	</node>
	<node lat="60.81356666927546" lon="5.781536113117576" id="-91990">
		<tag k="name" v="Grønhaug" />
		<tag k="place" v="farm" />
		<tag k="ssr:stedsnr" v="615470" />
	</node>
	<node lat="60.8127694447798" lon="5.747069437865028" id="-91991">
		<tag k="fixme" v="consider natural=peak for the most distinct mountains in the district" />
		<tag k="name" v="Botnafjellet" />
		<tag k="natural" v="hill" />
		<tag k="place" v="locality" />
		<tag k="ssr:stedsnr" v="615472" />
	</node>
	<node lat="60.759869442527624" lon="5.687524999632366" id="-91992">
		<tag k="fixme" v="consider natural=peak for the most distinct mountains in the district" />
		<tag k="name" v="Åsen" />
		<tag k="natural" v="hill" />
		<tag k="place" v="locality" />
		<tag k="ssr:stedsnr" v="615788" />
	</node>
	<node lat="60.85284722404731" lon="5.97045277790076" id="-91993">
		<tag k="name" v="Øvre Helland" />
		<tag k="place" v="farm" />
		<tag k="ssr:stedsnr" v="632320" />
	</node>
	<node lat="60.763747220670474" lon="5.69038332689415" id="-91994">
		<tag k="name" v="Krakelia" />
		<tag k="natural" v="slope" />
		<tag k="place" v="locality" />
		<tag k="ssr:stedsnr" v="650551" />
	</node>
	<node lat="60.76339722479739" lon="5.677808333882436" id="-91995">
		<tag k="name" v="Vetlebotnen" />
		<tag k="natural" v="valley" />
		<tag k="place" v="locality" />
		<tag k="ssr:stedsnr" v="650552" />
	</node>
	<node lat="60.83916944096377" lon="5.913911109035667" id="-91996">
		<tag k="name" v="Sollia" />
		<tag k="natural" v="slope" />
		<tag k="place" v="locality" />
		<tag k="ssr:stedsnr" v="650564" />
	</node>
	<node lat="60.83528611231295" lon="5.853991672396361" id="-91997">
		<tag k="name" v="Løype" />
		<tag k="place" v="locality" />
		<tag k="ssr:stedsnr" v="650569" />
	</node>
	<node lat="60.836969441077855" lon="5.85809721436694" id="-91998">
		<tag k="name" v="Legda" />
		<tag k="place" v="locality" />
		<tag k="ssr:stedsnr" v="650570" />
	</node>
	<node lat="60.82113055907993" lon="5.7596277685868245" id="-91999">
		<tag k="name" v="Fallet" />
		<tag k="natural" v="cliff" />
		<tag k="ssr:stedsnr" v="650584" />
	</node>
	<node lat="60.78265833567145" lon="5.749174991848549" id="-92000">
		<tag k="name" v="Svinhelleren" />
		<tag k="place" v="locality" />
		<tag k="ssr:stedsnr" v="650533" />
	</node>
	<node lat="60.84726388512036" lon="5.851947227083564" id="-92001">
		<tag k="name" v="Fitjane" />
		<tag k="place" v="locality" />
		<tag k="ssr:stedsnr" v="651527" />
	</node>
	<node lat="60.872819442688574" lon="5.967941660503302" id="-92002">
		<tag k="name" v="Storebekken" />
		<tag k="ssr:stedsnr" v="651565" />
		<tag k="waterway" v="stream" />
	</node>
	<node lat="60.93960555519899" lon="5.974894440333993" id="-92003">
		<tag k="name" v="Nordalsholmen" />
		<tag k="place" v="islet" />
		<tag k="ssr:stedsnr" v="651727" />
	</node>
	<node lat="60.75494722424035" lon="5.7365750029975375" id="-92004">
		<tag k="name" v="Storlia" />
		<tag k="natural" v="slope" />
		<tag k="place" v="locality" />
		<tag k="ssr:stedsnr" v="711561" />
	</node>
	<node lat="60.77661389182833" lon="5.7239527774282415" id="-92005">
		<tag k="name" v="Sersjantlia" />
		<tag k="natural" v="slope" />
		<tag k="place" v="locality" />
		<tag k="ssr:stedsnr" v="711565" />
	</node>
	<node lat="60.83213055794475" lon="5.746241663827353" id="-92006">
		<tag k="name" v="Trollholebekken" />
		<tag k="ssr:stedsnr" v="711619" />
		<tag k="waterway" v="stream" />
	</node>
	<node lat="60.86202778074956" lon="5.850580559062606" id="-92007">
		<tag k="name" v="Alldalen" />
		<tag k="natural" v="valley" />
		<tag k="place" v="locality" />
		<tag k="ssr:stedsnr" v="712486" />
	</node>
	<node lat="60.88283888504378" lon="6.0115638838069465" id="-92008">
		<tag k="name" v="Storeneset" />
		<tag k="natural" v="cape" />
		<tag k="ssr:stedsnr" v="712495" />
	</node>
	<node lat="60.890077572430066" lon="6.018153072173735" id="-92009">
		<tag k="name" v="Hylkjetjørna" />
		<tag k="natural" v="water" />
		<tag k="ssr:stedsnr" v="712671" />
	</node>
	<node lat="60.835113893148566" lon="5.953591658084447" id="-92010">
		<tag k="name" v="Almane" />
		<tag k="place" v="locality" />
		<tag k="ssr:stedsnr" v="712545" />
	</node>
	<node lat="60.87837222427326" lon="6.003891657808404" id="-92011">
		<tag k="historic" v="shieling" />
		<tag k="name" v="Vårstølen" />
		<tag k="place" v="locality" />
		<tag k="ssr:stedsnr" v="712546" />
	</node>
	<node lat="60.80987499617525" lon="5.848688889614793" id="-92012">
		<tag k="fixme" v="consider natural=peak for the most distinct mountains in the district" />
		<tag k="name" v="Øvrefjellet" />
		<tag k="natural" v="hill" />
		<tag k="place" v="locality" />
		<tag k="ssr:stedsnr" v="712509" />
	</node>
	<node lat="60.80803888646129" lon="5.899169447271949" id="-92013">
		<tag k="fixme" v="consider natural=peak for the most distinct mountains in the district" />
		<tag k="name" v="Jorskarnova" />
		<tag k="natural" v="hill" />
		<tag k="place" v="locality" />
		<tag k="ssr:stedsnr" v="712511" />
	</node>
	<node lat="60.867888890310496" lon="5.997527784318985" id="-92014">
		<tag k="name" v="Skorvstallane" />
		<tag k="place" v="locality" />
		<tag k="ssr:stedsnr" v="712516" />
	</node>
	<node lat="60.92700555172529" lon="5.975416661026288" id="-92015">
		<tag k="name" v="Storeholmen" />
		<tag k="place" v="islet" />
		<tag k="ssr:stedsnr" v="712708" />
	</node>
	<node lat="60.75581944556854" lon="5.744191667184167" id="-92016">
		<tag k="fixme" v="consider natural=peak for the most distinct mountains in the district" />
		<tag k="name" v="Toppfjellet" />
		<tag k="natural" v="hill" />
		<tag k="place" v="locality" />
		<tag k="ssr:stedsnr" v="736058" />
	</node>
	<node lat="60.929908335872305" lon="6.039794441046715" id="-92017">
		<tag k="fixme" v="consider natural=peak for the most distinct mountains in the district" />
		<tag k="name" v="Storfjellet" />
		<tag k="natural" v="hill" />
		<tag k="place" v="locality" />
		<tag k="ssr:stedsnr" v="736129" />
	</node>
	<node lat="60.945355558221536" lon="5.99231389548664" id="-92018">
		<tag k="ford" v="yes" />
		<tag k="name" v="Rumpevadet" />
		<tag k="place" v="locality" />
		<tag k="ssr:stedsnr" v="736101" />
	</node>
	<node lat="60.77253888635632" lon="5.753649992544526" id="-92019">
		<tag k="name" v="Storehaugen" />
		<tag k="natural" v="hill" />
		<tag k="place" v="locality" />
		<tag k="ssr:stedsnr" v="736433" />
	</node>
	<node lat="60.77647777957325" lon="5.769788892801761" id="-92020">
		<tag k="name" v="Fjellbotnen" />
		<tag k="natural" v="valley" />
		<tag k="place" v="locality" />
		<tag k="ssr:stedsnr" v="736434" />
	</node>
	<node lat="60.813327781734586" lon="5.8891083309532455" id="-92021">
		<tag k="name" v="Jobotnen" />
		<tag k="place" v="farm" />
		<tag k="ssr:stedsnr" v="737136" />
	</node>
	<node lat="60.97350278086555" lon="6.011374991233497" id="-92022">
		<tag k="name" v="Norddalen" />
		<tag k="natural" v="valley" />
		<tag k="place" v="locality" />
		<tag k="ssr:stedsnr" v="737013" />
	</node>
	<node lat="60.97018333617773" lon="6.137766661907608" id="-92023">
		<tag k="name" v="Berdalen" />
		<tag k="natural" v="valley" />
		<tag k="place" v="locality" />
		<tag k="ssr:stedsnr" v="737015" />
	</node>
	<node lat="60.97413889009465" lon="6.088925004427625" id="-92024">
		<tag k="name" v="Stølsvatnet" />
		<tag k="natural" v="water" />
		<tag k="ssr:stedsnr" v="737016" />
		<tag k="water" v="lake" />
	</node>
	<node lat="60.866133332021796" lon="5.88031665877496" id="-92025">
		<tag k="fixme" v="consider natural=peak for the most distinct mountains in the district" />
		<tag k="name" v="Seljedalsfjellet" />
		<tag k="natural" v="hill" />
		<tag k="place" v="locality" />
		<tag k="ssr:stedsnr" v="737150" />
	</node>
	<node lat="60.87063055594808" lon="5.907725000450628" id="-92026">
		<tag k="fixme" v="consider natural=peak for the most distinct mountains in the district" />
		<tag k="name" v="Altaret" />
		<tag k="natural" v="hill" />
		<tag k="place" v="locality" />
		<tag k="ssr:stedsnr" v="737154" />
	</node>
	<node lat="60.88132499933555" lon="6.077752785668745" id="-92027">
		<tag k="name" v="Viermyrdalen" />
		<tag k="natural" v="valley" />
		<tag k="place" v="locality" />
		<tag k="ssr:stedsnr" v="737158" />
	</node>
	<node lat="60.85551601251734" lon="5.97463037618075" id="-92028">
		<tag k="fixme" v="consider place=hamlet" />
		<tag k="name" v="Øvre Helland" />
		<tag k="place" v="farm" />
		<tag k="ssr:stedsnr" v="754342" />
	</node>
	<node lat="60.83857499995973" lon="5.942558333369607" id="-92029">
		<tag k="name" v="Farestveit" />
		<tag k="place" v="farm" />
		<tag k="ssr:stedsnr" v="754346" />
	</node>
	<node lat="60.90181944823447" lon="5.9681888873520075" id="-92030">
		<tag k="name" v="Tverraholmen" />
		<tag k="place" v="islet" />
		<tag k="ssr:stedsnr" v="773673" />
	</node>
	<node lat="60.82969444090058" lon="5.872438898139741" id="-92031">
		<tag k="name" v="Feta" />
		<tag k="place" v="locality" />
		<tag k="ssr:stedsnr" v="772531" />
	</node>
	<node lat="60.83265555973697" lon="5.860869446859931" id="-92032">
		<tag k="historic" v="shieling" />
		<tag k="name" v="Nærestølen" />
		<tag k="place" v="locality" />
		<tag k="ssr:stedsnr" v="772532" />
	</node>
	<node lat="60.79171111131944" lon="5.798319441398941" id="-92033">
		<tag k="name" v="Øvste Rinnen" />
		<tag k="natural" v="ridge" />
		<tag k="place" v="locality" />
		<tag k="ssr:stedsnr" v="772614" />
	</node>
	<node lat="60.82193610843735" lon="5.788597226221265" id="-92034">
		<tag k="name" v="Kvernhusbotn" />
		<tag k="natural" v="valley" />
		<tag k="place" v="locality" />
		<tag k="ssr:stedsnr" v="772622" />
	</node>
	<node lat="60.77130555471826" lon="5.74889721565157" id="-92035">
		<tag k="name" v="Basttoa" />
		<tag k="place" v="locality" />
		<tag k="ssr:stedsnr" v="772571" />
	</node>
	<node lat="60.77143333481098" lon="5.669763880600055" id="-92036">
		<tag k="name" v="Dalaskaret" />
		<tag k="natural" v="valley" />
		<tag k="place" v="locality" />
		<tag k="ssr:stedsnr" v="772582" />
	</node>
	<node lat="60.75258055612184" lon="5.688936119349355" id="-92037">
		<tag k="name" v="Fagervika" />
		<tag k="natural" v="bay" />
		<tag k="ssr:stedsnr" v="772587" />
	</node>
	<node lat="60.811344448247915" lon="5.807736110796663" id="-92038">
		<tag k="name" v="Botnatoa" />
		<tag k="natural" v="valley" />
		<tag k="place" v="locality" />
		<tag k="ssr:stedsnr" v="772594" />
	</node>
	<node lat="60.80891666430518" lon="5.795233336296656" id="-92039">
		<tag k="name" v="Klettane" />
		<tag k="natural" v="hill" />
		<tag k="place" v="locality" />
		<tag k="ssr:stedsnr" v="772597" />
	</node>
	<node lat="60.83302221876787" lon="5.944766668740198" id="-92040">
		<tag k="name" v="Skavlen" />
		<tag k="natural" v="hill" />
		<tag k="place" v="locality" />
		<tag k="ssr:stedsnr" v="773540" />
	</node>
	<node lat="60.83853333516392" lon="5.963172214012452" id="-92041">
		<tag k="name" v="Merkesstibekken" />
		<tag k="ssr:stedsnr" v="773544" />
		<tag k="waterway" v="stream" />
	</node>
	<node lat="60.885283337879116" lon="5.994786119653651" id="-92042">
		<tag k="fixme" v="consider natural=peak for the most distinct mountains in the district" />
		<tag k="name" v="Nåmdalsfjellet" />
		<tag k="natural" v="hill" />
		<tag k="place" v="locality" />
		<tag k="ssr:stedsnr" v="773496" />
	</node>
	<node lat="60.8655638871989" lon="5.983911109401063" id="-92043">
		<tag k="name" v="Haugane" />
		<tag k="place" v="farm" />
		<tag k="ssr:stedsnr" v="773555" />
	</node>
	<node lat="60.95871388708083" lon="5.955186117565808" id="-92044">
		<tag k="name" v="Botnelvskavlen" />
		<tag k="place" v="locality" />
		<tag k="ssr:stedsnr" v="773689" />
	</node>
	<node lat="60.97270277526169" lon="6.107152782738551" id="-92045">
		<tag k="name" v="Berdalselva" />
		<tag k="ssr:stedsnr" v="784023" />
		<tag k="waterway" v="stream" />
	</node>
	<node lat="60.76579999999324" lon="5.728574996818289" id="-92046">
		<tag k="name" v="Straumen" />
		<tag k="place" v="farm" />
		<tag k="ssr:stedsnr" v="797044" />
	</node>
	<node lat="60.766088885558965" lon="5.7618888878344405" id="-92047">
		<tag k="name" v="Grønetørna" />
		<tag k="natural" v="valley" />
		<tag k="place" v="locality" />
		<tag k="ssr:stedsnr" v="797045" />
	</node>
	<node lat="60.92141279860441" lon="5.995352039628786" id="-92048">
		<tag k="name" v="Kvitavatnet" />
		<tag k="natural" v="water" />
		<tag k="ssr:stedsnr" v="797130" />
	</node>
	<node lat="60.90745277986143" lon="6.039608328786168" id="-92049">
		<tag k="name" v="Kvanndalen" />
		<tag k="natural" v="valley" />
		<tag k="place" v="locality" />
		<tag k="ssr:stedsnr" v="797084" />
	</node>
	<node lat="60.88643333602664" lon="5.869980560968114" id="-92050">
		<tag k="fixme" v="consider natural=peak for the most distinct mountains in the district" />
		<tag k="name" v="Nordbotnfjellet" />
		<tag k="natural" v="hill" />
		<tag k="place" v="locality" />
		<tag k="ssr:stedsnr" v="797087" />
	</node>
	<node lat="60.904530553482076" lon="6.040783338763133" id="-92051">
		<tag k="name" v="Kvanndalsholmane" />
		<tag k="place" v="islet" />
		<tag k="ssr:stedsnr" v="797089" />
	</node>
	<node lat="60.88046389335368" lon="5.852536109084576" id="-92052">
		<tag k="name" v="Trollegilsbotnen" />
		<tag k="natural" v="valley" />
		<tag k="place" v="locality" />
		<tag k="ssr:stedsnr" v="797093" />
	</node>
	<node lat="60.88833333041799" lon="6.097283341145635" id="-92053">
		<tag k="fixme" v="consider natural=peak for the most distinct mountains in the district" />
		<tag k="name" v="Flatafjellet" />
		<tag k="natural" v="hill" />
		<tag k="place" v="locality" />
		<tag k="ssr:stedsnr" v="797096" />
	</node>
	<node lat="60.83343055370463" lon="5.7457055572716635" id="-92054">
		<tag k="name" v="Trollholene" />
		<tag k="natural" v="valley" />
		<tag k="place" v="locality" />
		<tag k="ssr:stedsnr" v="797377" />
	</node>
	<node lat="60.83268610946934" lon="5.808991668244424" id="-92055">
		<tag k="fixme" v="consider natural=peak for the most distinct mountains in the district" />
		<tag k="name" v="Austraberget" />
		<tag k="natural" v="hill" />
		<tag k="place" v="locality" />
		<tag k="ssr:stedsnr" v="797380" />
	</node>
	<node lat="60.77725000272659" lon="5.735255563801686" id="-92056">
		<tag k="name" v="Skjerjadalen" />
		<tag k="natural" v="valley" />
		<tag k="place" v="locality" />
		<tag k="ssr:stedsnr" v="797440" />
	</node>
	<node lat="60.94601388582001" lon="5.98735277665935" id="-92057">
		<tag k="name" v="Stølselva" />
		<tag k="ssr:stedsnr" v="797826" />
		<tag k="waterway" v="river" />
	</node>
	<node lat="60.890437157613356" lon="5.819413275451421" id="-92058">
		<tag k="name" v="Svartavatnet" />
		<tag k="natural" v="water" />
		<tag k="ssr:stedsnr" v="797328" />
		<tag k="water" v="lake" />
	</node>
	<node lat="60.81605555634532" lon="5.733561110995738" id="-92059">
		<tag k="fixme" v="consider natural=peak for the most distinct mountains in the district" />
		<tag k="name" v="Stølsfjellet" />
		<tag k="natural" v="hill" />
		<tag k="place" v="locality" />
		<tag k="ssr:stedsnr" v="797489" />
	</node>
	<node lat="60.98340278109581" lon="6.098041665454311" id="-92060">
		<tag k="name" v="Geitura" />
		<tag k="natural" v="scree" />
		<tag k="ssr:stedsnr" v="798018" />
	</node>
	<node lat="60.977174999623344" lon="6.058488881135805" id="-92061">
		<tag k="name" v="Åsabotnelva" />
		<tag k="ssr:stedsnr" v="798020" />
		<tag k="waterway" v="stream" />
	</node>
	<node lat="60.96343055521739" lon="6.05460277513365" id="-92062">
		<tag k="fixme" v="consider natural=peak for the most distinct mountains in the district" />
		<tag k="name" v="Skålebotnnova" />
		<tag k="natural" v="hill" />
		<tag k="place" v="locality" />
		<tag k="ssr:stedsnr" v="798035" />
	</node>
	<node lat="60.8455694466112" lon="5.991149999652506" id="-92063">
		<tag k="alt_name" v="Skålbotn" />
		<tag k="name" v="Skålbotnen" />
		<tag k="natural" v="valley" />
		<tag k="place" v="locality" />
		<tag k="ssr:stedsnr" v="798132" />
	</node>
	<node lat="60.826486112244986" lon="5.900633328564887" id="-92064">
		<tag k="fixme" v="consider natural=peak for the most distinct mountains in the district" />
		<tag k="name" v="Middagsfjellet" />
		<tag k="natural" v="hill" />
		<tag k="place" v="locality" />
		<tag k="ssr:stedsnr" v="798142" />
	</node>
	<node lat="60.83690832959223" lon="5.925702781154792" id="-92065">
		<tag k="name" v="Farestveit" />
		<tag k="place" v="farm" />
		<tag k="ssr:stedsnr" v="815286" />
	</node>
	<node lat="60.80282222203449" lon="5.775136117638959" id="-92066">
		<tag k="name" v="Kjetoa" />
		<tag k="natural" v="cape" />
		<tag k="ssr:stedsnr" v="833141" />
	</node>
	<node lat="60.7501888851347" lon="5.726916673110859" id="-92067">
		<tag k="fixme" v="consider natural=peak for the most distinct mountains in the district" />
		<tag k="name" v="Skredfjellet" />
		<tag k="natural" v="hill" />
		<tag k="place" v="locality" />
		<tag k="ssr:stedsnr" v="833574" />
	</node>
	<node lat="60.74383610837363" lon="5.669205559610809" id="-92068">
		<tag k="name" v="Bjørnstødalen" />
		<tag k="natural" v="valley" />
		<tag k="place" v="locality" />
		<tag k="ssr:stedsnr" v="833609" />
	</node>
	<node lat="60.74458888829081" lon="5.683144443208477" id="-92069">
		<tag k="name" v="Raudhellerlia" />
		<tag k="natural" v="slope" />
		<tag k="place" v="locality" />
		<tag k="ssr:stedsnr" v="833610" />
	</node>
	<node lat="60.750063890441965" lon="5.666936102321226" id="-92070">
		<tag k="name" v="Stengena" />
		<tag k="place" v="locality" />
		<tag k="ssr:stedsnr" v="833611" />
	</node>
	<node lat="60.75013055194377" lon="5.683463884477797" id="-92071">
		<tag k="name" v="Høgeneset" />
		<tag k="natural" v="cape" />
		<tag k="ssr:stedsnr" v="833612" />
	</node>
	<node lat="60.83587777486933" lon="5.908852771498418" id="-92072">
		<tag k="name" v="Holmen" />
		<tag k="place" v="islet" />
		<tag k="ssr:stedsnr" v="833625" />
	</node>
	<node lat="60.838213937229305" lon="5.708798039062836" id="-92073">
		<tag k="name" v="Orfallet" />
		<tag k="natural" v="bay" />
		<tag k="ssr:stedsnr" v="834023" />
	</node>
	<node lat="60.85019721995029" lon="5.854469436821839" id="-92074">
		<tag k="name" v="Slettabakken" />
		<tag k="natural" v="slope" />
		<tag k="place" v="locality" />
		<tag k="ssr:stedsnr" v="834500" />
	</node>
	<node lat="60.85162222539752" lon="5.849405550059943" id="-92075">
		<tag k="name" v="Runnhaugane" />
		<tag k="natural" v="hill" />
		<tag k="place" v="locality" />
		<tag k="ssr:stedsnr" v="834512" />
	</node>
	<node lat="60.85793889294193" lon="5.846280563822008" id="-92076">
		<tag k="name" v="Svaena" />
		<tag k="place" v="locality" />
		<tag k="ssr:stedsnr" v="834515" />
	</node>
	<node lat="60.883680556625684" lon="6.020772213939263" id="-92077">
		<tag k="name" v="Åsskaret" />
		<tag k="natural" v="valley" />
		<tag k="place" v="locality" />
		<tag k="ssr:stedsnr" v="834523" />
	</node>
	<node lat="60.84665555323736" lon="5.859261102214393" id="-92078">
		<tag k="name" v="Kleivane" />
		<tag k="natural" v="slope" />
		<tag k="place" v="locality" />
		<tag k="ssr:stedsnr" v="834525" />
	</node>
	<node lat="60.885975004427564" lon="6.012999997427643" id="-92079">
		<tag k="name" v="Skjergrashaugane" />
		<tag k="natural" v="hill" />
		<tag k="place" v="locality" />
		<tag k="ssr:stedsnr" v="834582" />
	</node>
	<node lat="60.860063886201246" lon="5.989733341482264" id="-92080">
		<tag k="name" v="Furkammen" />
		<tag k="natural" v="hill" />
		<tag k="place" v="locality" />
		<tag k="ssr:stedsnr" v="834543" />
	</node>
	<node lat="60.870888887542655" lon="5.967988893760146" id="-92081">
		<tag k="name" v="Godhola" />
		<tag k="natural" v="valley" />
		<tag k="place" v="locality" />
		<tag k="ssr:stedsnr" v="834555" />
	</node>
	<node lat="60.839830555940715" lon="5.950224992832558" id="-92082">
		<tag k="name" v="Neset" />
		<tag k="natural" v="cape" />
		<tag k="ssr:stedsnr" v="834560" />
	</node>
	<node lat="60.83765833638438" lon="5.966194452222177" id="-92083">
		<tag k="fixme" v="consider natural=peak for the most distinct mountains in the district" />
		<tag k="name" v="Kuldeåsen" />
		<tag k="natural" v="hill" />
		<tag k="place" v="locality" />
		<tag k="ssr:stedsnr" v="834567" />
	</node>
	<node lat="60.8481027800672" lon="6.018252770510713" id="-92084">
		<tag k="name" v="Vidbotn" />
		<tag k="natural" v="valley" />
		<tag k="place" v="locality" />
		<tag k="ssr:stedsnr" v="834717" />
	</node>
	<node lat="60.81652778139317" lon="5.793269449069105" id="-92085">
		<tag k="bridge" v="yes" />
		<tag k="layer" v="1" />
		<tag k="name" v="Kvernhusbekken" />
		<tag k="ssr:stedsnr" v="836044" />
	</node>
	<node lat="60.86008055660432" lon="5.978586110542635" id="-92086">
		<tag k="name" v="Balane" />
		<tag k="place" v="quarter" />
		<tag k="ssr:stedsnr" v="844535" />
	</node>
	<node lat="60.90575000192054" lon="6.012850007643959" id="-92087">
		<tag k="name" v="Steinavatnet" />
		<tag k="natural" v="water" />
		<tag k="ssr:stedsnr" v="858057" />
	</node>
	<node lat="60.81856388842902" lon="5.817322229220677" id="-92088">
		<tag k="name" v="Moelva" />
		<tag k="ssr:stedsnr" v="858142" />
		<tag k="waterway" v="river" />
	</node>
	<node lat="60.81151562361199" lon="5.8596470012791935" id="-92089">
		<tag k="name" v="Hevikatjørna" />
		<tag k="natural" v="water" />
		<tag k="ssr:stedsnr" v="858151" />
	</node>
	<node lat="60.87288889047458" lon="5.990658330969849" id="-92090">
		<tag k="fixme" v="consider natural=peak for the most distinct mountains in the district" />
		<tag k="name" v="Stimma" />
		<tag k="natural" v="hill" />
		<tag k="place" v="locality" />
		<tag k="ssr:stedsnr" v="858162" />
	</node>
	<node lat="60.870943806690136" lon="5.9775090250264435" id="-92091">
		<tag k="fixme" v="consider place=hamlet" />
		<tag k="name" v="Straume" />
		<tag k="place" v="farm" />
		<tag k="ssr:stedsnr" v="858163" />
	</node>
	<node lat="60.8682499966805" lon="6.07970555850445" id="-92092">
		<tag k="fixme" v="consider natural=peak for the most distinct mountains in the district" />
		<tag k="name" v="Reinsnova" />
		<tag k="natural" v="hill" />
		<tag k="place" v="locality" />
		<tag k="ssr:stedsnr" v="858169" />
	</node>
	<node lat="60.805505552263064" lon="5.762869448242808" id="-92093">
		<tag k="name" v="Stokkevika" />
		<tag k="natural" v="bay" />
		<tag k="ssr:stedsnr" v="858499" />
	</node>
	<node lat="60.801056602385756" lon="5.777441758404553" id="-92094">
		<tag k="alt_name" v="Lommatjørna" />
		<tag k="fixme" v="multiple name tags, choose one and add the other to alt_name" />
		<tag k="name" v="Nestjørna;Lomatjørna" />
		<tag k="natural" v="water" />
		<tag k="ssr:stedsnr" v="858502" />
	</node>
	<node lat="60.86971574125441" lon="5.751655489226973" id="-92095">
		<tag k="name" v="Storavatnet" />
		<tag k="natural" v="water" />
		<tag k="ssr:stedsnr" v="858454" />
		<tag k="water" v="lake" />
	</node>
	<node lat="60.94689324896156" lon="5.889892715642662" id="-92096">
		<tag k="fixme" v="consider tourism=alpine_hut or tourism=chalet" />
		<tag k="name" v="Vardadalsbu" />
		<tag k="ssr:stedsnr" v="938728" />
		<tag k="tourism" v="wilderness_hut" />
	</node>
	<node lat="60.81060833028509" lon="5.7937222191416184" id="-92097">
		<tag k="name" v="Nesvika" />
		<tag k="natural" v="bay" />
		<tag k="ssr:stedsnr" v="954136" />
	</node>
	<node lat="60.77721388432076" lon="5.754858325771579" id="-92098">
		<tag k="name" v="Langedalsneset" />
		<tag k="natural" v="cape" />
		<tag k="ssr:stedsnr" v="954559" />
	</node>
	<node lat="60.772978446763986" lon="5.72801932039352" id="-92099">
		<tag k="name" v="Bergatjørna" />
		<tag k="natural" v="water" />
		<tag k="ssr:stedsnr" v="954562" />
	</node>
	<node lat="60.75710000150684" lon="5.689427775113308" id="-92100">
		<tag k="historic" v="shieling" />
		<tag k="name" v="Stølen" />
		<tag k="place" v="locality" />
		<tag k="ssr:stedsnr" v="954571" />
	</node>
	<node lat="60.8327055568055" lon="5.9667499958520684" id="-92101">
		<tag k="name" v="Sæskarberget" />
		<tag k="natural" v="hill" />
		<tag k="place" v="locality" />
		<tag k="ssr:stedsnr" v="955567" />
	</node>
	<node lat="60.8761027763027" lon="5.983969452744233" id="-92102">
		<tag k="name" v="Nyskredneset" />
		<tag k="natural" v="cape" />
		<tag k="ssr:stedsnr" v="955576" />
	</node>
	<node lat="60.91703055628143" lon="5.962052772588393" id="-92103">
		<tag k="name" v="Rossevikhaugane" />
		<tag k="natural" v="hill" />
		<tag k="place" v="locality" />
		<tag k="ssr:stedsnr" v="955708" />
	</node>
	<node lat="60.92349721948624" lon="5.970761113239174" id="-92104">
		<tag k="name" v="Uraneset" />
		<tag k="natural" v="cape" />
		<tag k="ssr:stedsnr" v="955710" />
	</node>
	<node lat="60.96960555547537" lon="5.966816665100007" id="-92105">
		<tag k="name" v="Yrkje" />
		<tag k="place" v="locality" />
		<tag k="ssr:stedsnr" v="955717" />
	</node>
	<node lat="60.81497768725951" lon="5.804345369880247" id="-92106">
		<tag k="fixme" v="consider place=hamlet" />
		<tag k="name" v="Mo" />
		<tag k="place" v="farm" />
		<tag k="ssr:stedsnr" v="989189" />
	</node>
</osm>
