<?xml version="1.0" encoding="UTF-8"?>
<<<<<<< HEAD
<osm version="0.6" generator="osmapis">
	<node lat="60.98636389109912" lon="5.918486116386804" id="-28695">
=======
<osm generator="osmapis" version="0.6">
	<node id="-645396" lat="60.8761027763" lon="5.98396945274">
		<tag k="name" v="Nyskredneset" />
		<tag k="natural" v="cape" />
		<tag k="ssr:stedsnr" v="955576" />
	</node>
	<node id="-645116" lat="60.8445005016" lon="5.95307770812">
		<tag k="name" v="Vika" />
		<tag k="natural" v="bay" />
		<tag k="ssr:stedsnr" v="166549" />
	</node>
	<node id="-645104" lat="60.8500968185" lon="5.96942432995">
		<tag k="name" v="Furneset" />
		<tag k="natural" v="cape" />
		<tag k="ssr:stedsnr" v="130765" />
	</node>
	<node id="-645102" lat="60.8149861072" lon="5.76960278557">
		<tag k="name" v="Stølselva" />
		<tag k="ssr:stedsnr" v="130447" />
		<tag k="waterway" v="stream" />
	</node>
	<node id="-645096" lat="60.8075000015" lon="5.94913334014">
		<tag k="name" v="Storavatnet" />
		<tag k="natural" v="water" />
		<tag k="ssr:stedsnr" v="129259" />
		<tag k="water" v="lake" />
	</node>
	<node id="-645082" lat="60.8636721304" lon="5.80798256766">
		<tag k="name" v="Skavlavatna" />
		<tag k="natural" v="water" />
		<tag k="ssr:stedsnr" v="69474" />
		<tag k="water" v="lake" />
	</node>
	<node id="-645081" lat="60.8231008787" lon="5.72052061875">
		<tag k="name" v="Sørdalsvatnet" />
		<tag k="natural" v="water" />
		<tag k="ssr:stedsnr" v="69538" />
	</node>
	<node id="-645369" lat="60.8358777749" lon="5.9088527715">
		<tag k="name" v="Holmen" />
		<tag k="place" v="islet" />
		<tag k="ssr:stedsnr" v="833625" />
	</node>
	<node id="-645074" lat="60.9131166636" lon="5.99154999525">
		<tag k="name" v="Kvitavasselva" />
		<tag k="ssr:stedsnr" v="69123" />
		<tag k="waterway" v="stream" />
	</node>
	<node id="-645068" lat="60.9052159389" lon="6.15869958967">
		<tag k="alt_name" v="Kvammavatnet, austre" />
		<tag k="name" v="Austre Kvammavatnet" />
		<tag k="natural" v="water" />
		<tag k="ssr:stedsnr" v="69078" />
		<tag k="water" v="lake" />
	</node>
	<node id="-645066" lat="60.9811361084" lon="5.97901666786">
		<tag k="name" v="Austrebotnvatnet" />
		<tag k="natural" v="water" />
		<tag k="ssr:stedsnr" v="69006" />
	</node>
	<node id="-645062" lat="60.9370249958" lon="5.86872500811">
		<tag k="alt_name" v="Vika, insta" />
		<tag k="name" v="Insta Vika" />
		<tag k="natural" v="bay" />
		<tag k="ssr:stedsnr" v="58120" />
	</node>
	<node id="-645054" lat="60.7680861135" lon="5.72355833174">
		<tag k="name" v="Straumsbekkena" />
		<tag k="ssr:stedsnr" v="44578" />
		<tag k="waterway" v="stream" />
	</node>
	<node id="-645051" lat="60.8200194445" lon="5.8372888931">
		<tag k="name" v="Næreneset" />
		<tag k="natural" v="cape" />
		<tag k="ssr:stedsnr" v="44533" />
	</node>
	<node id="-645041" lat="60.8537750014" lon="5.96430000815">
		<tag k="name" v="Gauvbotnselva" />
		<tag k="ssr:stedsnr" v="9155" />
		<tag k="waterway" v="stream" />
	</node>
	<node id="-645038" lat="60.9458749958" lon="5.97120276989">
		<tag k="name" v="Norddalselva" />
		<tag k="ssr:stedsnr" v="9063" />
		<tag k="waterway" v="river" />
	</node>
	<node id="-645036" lat="60.8991166684" lon="6.02221388691">
		<tag k="name" v="Oselvi" />
		<tag k="ssr:stedsnr" v="9053" />
		<tag k="waterway" v="stream" />
	</node>
	<node id="-645033" lat="60.7961388927" lon="5.734580551">
		<tag k="alt_name" v="Beitleelva" />
		<tag k="name" v="Beitlåna" />
		<tag k="ssr:stedsnr" v="8493" />
		<tag k="waterway" v="stream" />
	</node>
	<node id="-645026" lat="60.9591611072" lon="6.08544999937">
		<tag k="name" v="Rindavatnet" />
		<tag k="natural" v="water" />
		<tag k="ssr:stedsnr" v="8114" />
	</node>
	<node id="-645275" lat="60.8815166657" lon="6.12324999578">
		<tag k="name" v="Skjerjavatnet" />
		<tag k="natural" v="water" />
		<tag k="ssr:stedsnr" v="615148" />
		<tag k="water" v="lake" />
	</node>
	<node id="-645023" lat="60.9790611145" lon="6.07558332609">
		<tag k="name" v="Sæterelva" />
		<tag k="ssr:stedsnr" v="8017" />
		<tag k="waterway" v="stream" />
	</node>
	<node id="-645021" lat="60.9863638911" lon="5.91848611639">
>>>>>>> e1d4bc35ff8a6074a6f2e91616a996b547c36f15
		<tag k="alt_name" v="Vestrebotnvatnet, stora" />
		<tag k="name" v="Stora Vestrebotnvatnet" />
		<tag k="natural" v="water" />
		<tag k="ssr:stedsnr" v="8010" />
<<<<<<< HEAD
	</node>
	<node lat="60.97906111454951" lon="6.075583326090243" id="-28697">
		<tag k="name" v="Sæterelva" />
		<tag k="ssr:stedsnr" v="8017" />
		<tag k="waterway" v="stream" />
	</node>
	<node lat="60.959161107203855" lon="6.085449999367189" id="-28699">
		<tag k="name" v="Rindavatnet" />
=======
	</node>
	<node id="-645017" lat="60.8596076943" lon="5.97474182223">
		<tag k="alt_name" v="Herlaugsvatnet" />
		<tag k="name" v="Herlangen" />
		<tag k="natural" v="water" />
		<tag k="ssr:stedsnr" v="919125" />
	</node>
	<node id="-645016" lat="60.9157250014" lon="5.96495278525">
		<tag k="name" v="Revåna" />
		<tag k="ssr:stedsnr" v="919115" />
		<tag k="waterway" v="stream" />
	</node>
	<node id="-645015" lat="60.8882351265" lon="5.9017606183">
		<tag k="name" v="Seljedalsvotna" />
		<tag k="natural" v="water" />
		<tag k="ssr:stedsnr" v="919069" />
		<tag k="water" v="lake" />
	</node>
	<node id="-645014" lat="60.909911114" lon="6.01987777009">
		<tag k="name" v="Steinavassbekken" />
		<tag k="ssr:stedsnr" v="919066" />
		<tag k="waterway" v="stream" />
	</node>
	<node id="-645273" lat="60.874402781" lon="6.00772777476">
		<tag k="name" v="Krossdalselva" />
		<tag k="ssr:stedsnr" v="615135" />
		<tag k="waterway" v="river" />
	</node>
	<node id="-645010" lat="60.9550527813" lon="6.09663334203">
		<tag k="alt_name" v="Sørdalsvatnet, nedre" />
		<tag k="name" v="Nedre Sørdalsvatnet" />
		<tag k="natural" v="water" />
		<tag k="ssr:stedsnr" v="918109" />
		<tag k="water" v="lake" />
	</node>
	<node id="-645008" lat="60.8391510017" lon="5.84526526489">
		<tag k="name" v="Lomatjørna" />
		<tag k="natural" v="water" />
		<tag k="ssr:stedsnr" v="906162" />
	</node>
	<node id="-645006" lat="60.8697157413" lon="5.75165548923">
		<tag k="name" v="Storavatnet" />
		<tag k="natural" v="water" />
		<tag k="ssr:stedsnr" v="858454" />
		<tag k="water" v="lake" />
	</node>
	<node id="-645001" lat="60.9089805524" lon="6.12704445349">
		<tag k="name" v="Gavlavatnet" />
		<tag k="natural" v="water" />
		<tag k="ssr:stedsnr" v="858074" />
		<tag k="water" v="lake" />
	</node>
	<node id="-645000" lat="60.9057500019" lon="6.01285000764">
		<tag k="name" v="Steinavatnet" />
		<tag k="natural" v="water" />
		<tag k="ssr:stedsnr" v="858057" />
	</node>
	<node id="-644999" lat="60.9673138902" lon="6.13798888632">
		<tag k="alt_name" v="Berdalsvatnet, øvre" />
		<tag k="name" v="Øvre Berdalsvatnet" />
		<tag k="place" v="locality" />
		<tag k="ssr:stedsnr" v="858026" />
	</node>
	<node id="-644994" lat="60.8398305559" lon="5.95022499283">
		<tag k="name" v="Neset" />
		<tag k="natural" v="cape" />
		<tag k="ssr:stedsnr" v="834560" />
	</node>
	<node id="-644986" lat="60.9771749996" lon="6.05848888114">
		<tag k="name" v="Åsabotnelva" />
		<tag k="ssr:stedsnr" v="798020" />
		<tag k="waterway" v="stream" />
	</node>
	<node id="-644980" lat="60.9429686346" lon="5.88664204013">
		<tag k="name" v="Vardadalstjørnane" />
		<tag k="natural" v="water" />
		<tag k="ssr:stedsnr" v="919095" />
		<tag k="water" v="lake" />
	</node>
	<node id="-644979" lat="60.8916499972" lon="6.04909445301">
		<tag k="name" v="Stølselva" />
		<tag k="ssr:stedsnr" v="919088" />
		<tag k="waterway" v="stream" />
	</node>
	<node id="-644977" lat="60.8936749996" lon="6.05888333577">
		<tag k="name" v="Norddalselva" />
		<tag k="ssr:stedsnr" v="919082" />
		<tag k="waterway" v="stream" />
	</node>
	<node id="-644971" lat="60.9018194482" lon="5.96818888735">
		<tag k="name" v="Tverraholmen" />
		<tag k="place" v="islet" />
		<tag k="ssr:stedsnr" v="773673" />
	</node>
	<node id="-644961" lat="60.8347692841" lon="5.8880547179">
		<tag k="name" v="Eikkebakktjøna" />
		<tag k="natural" v="water" />
		<tag k="ssr:stedsnr" v="894638" />
	</node>
	<node id="-644957" lat="60.8642916662" lon="5.98624167546">
		<tag k="name" v="Namdalselva" />
		<tag k="ssr:stedsnr" v="894598" />
		<tag k="waterway" v="river" />
	</node>
	<node id="-644955" lat="60.8611611111" lon="5.99801111774">
		<tag k="name" v="Fossen" />
		<tag k="natural" v="waterfall" />
		<tag k="ssr:stedsnr" v="894579" />
	</node>
	<node id="-644954" lat="60.8299527783" lon="5.88439723004">
		<tag k="name" v="Fossrinnen" />
		<tag k="ssr:stedsnr" v="894570" />
		<tag k="waterway" v="stream" />
	</node>
	<node id="-644952" lat="60.8321305579" lon="5.74624166383">
		<tag k="name" v="Trollholebekken" />
		<tag k="ssr:stedsnr" v="711619" />
		<tag k="waterway" v="stream" />
	</node>
	<node id="-644943" lat="60.9022388916" lon="5.96566389663">
		<tag k="name" v="Tverrelva" />
		<tag k="ssr:stedsnr" v="676066" />
		<tag k="waterway" v="stream" />
	</node>
	<node id="-644942" lat="60.9125333311" lon="5.97281945274">
		<tag k="name" v="Tausholmen" />
		<tag k="place" v="islet" />
		<tag k="ssr:stedsnr" v="676062" />
	</node>
	<node id="-644916" lat="60.882838885" lon="6.01156388381">
		<tag k="name" v="Storeneset" />
		<tag k="natural" v="cape" />
		<tag k="ssr:stedsnr" v="712495" />
	</node>
	<node id="-644914" lat="60.9270055517" lon="5.97541666103">
		<tag k="name" v="Storeholmen" />
		<tag k="place" v="islet" />
		<tag k="ssr:stedsnr" v="712708" />
	</node>
	<node id="-644910" lat="60.8900775724" lon="6.01815307217">
		<tag k="name" v="Hylkjetjørna" />
>>>>>>> e1d4bc35ff8a6074a6f2e91616a996b547c36f15
		<tag k="natural" v="water" />
		<tag k="ssr:stedsnr" v="8114" />
	</node>
<<<<<<< HEAD
	<node lat="60.79613889272658" lon="5.73458055099659" id="-28704">
		<tag k="alt_name" v="Beitleelva" />
		<tag k="name" v="Beitlåna" />
		<tag k="ssr:stedsnr" v="8493" />
		<tag k="waterway" v="stream" />
	</node>
	<node lat="60.89020832984652" lon="5.837063897001973" id="-28708">
		<tag k="name" v="Skjerjavasstangen" />
=======
	<node id="-644908" lat="60.8624611072" lon="5.97576665817">
		<tag k="name" v="Balaneset" />
>>>>>>> e1d4bc35ff8a6074a6f2e91616a996b547c36f15
		<tag k="natural" v="cape" />
		<tag k="ssr:stedsnr" v="9322" />
	</node>
<<<<<<< HEAD
	<node lat="60.82563611224006" lon="5.798544445019324" id="-28709">
		<tag k="name" v="Nedstavatnet" />
=======
	<node id="-644902" lat="60.9108605573" lon="5.83004330416">
		<tag k="name" v="Hjortevatnet" />
>>>>>>> e1d4bc35ff8a6074a6f2e91616a996b547c36f15
		<tag k="natural" v="water" />
		<tag k="ssr:stedsnr" v="9502" />
	</node>
<<<<<<< HEAD
	<node lat="60.81642618446058" lon="5.710225825615165" id="-28710">
		<tag k="alt_name" v="Djupevatnet" />
		<tag k="name" v="Djupavatnet" />
		<tag k="natural" v="water" />
		<tag k="ssr:stedsnr" v="9503" />
	</node>
	<node lat="60.8200194445097" lon="5.837288893098942" id="-28713">
		<tag k="name" v="Næreneset" />
		<tag k="natural" v="cape" />
		<tag k="ssr:stedsnr" v="44533" />
	</node>
	<node lat="60.76808611354477" lon="5.723558331736525" id="-28714">
		<tag k="name" v="Straumsbekkena" />
		<tag k="ssr:stedsnr" v="44578" />
		<tag k="waterway" v="stream" />
	</node>
	<node lat="60.93702499582766" lon="5.868725008111594" id="-28718">
		<tag k="alt_name" v="Vika, insta" />
		<tag k="name" v="Insta Vika" />
=======
	<node id="-644897" lat="60.9449777809" lon="6.06371666584">
		<tag k="alt_name" v="Skålebotnsvatnet, øvre" />
		<tag k="name" v="Øvre Skålebotnsvatnet" />
		<tag k="place" v="locality" />
		<tag k="ssr:stedsnr" v="554117" />
	</node>
	<node id="-645408" lat="60.7845305563" lon="5.81455833021">
		<tag k="alt_name" v="Hodnefjellsvatnet" />
		<tag k="name" v="Hornafjellsvatnet" />
		<tag k="natural" v="water" />
		<tag k="ssr:stedsnr" v="190471" />
	</node>
	<node id="-645407" lat="60.8527249882" lon="5.70521227717">
		<tag k="name" v="Øvste Godbotsfossen" />
		<tag k="natural" v="waterfall" />
		<tag k="ssr:stedsnr" v="651034" />
	</node>
	<node id="-644894" lat="60.8749415027" lon="5.97932040857">
		<tag k="name" v="Naustvika" />
>>>>>>> e1d4bc35ff8a6074a6f2e91616a996b547c36f15
		<tag k="natural" v="bay" />
		<tag k="ssr:stedsnr" v="58120" />
	</node>
<<<<<<< HEAD
	<node lat="60.82310087868654" lon="5.720520618753593" id="-28728">
		<tag k="name" v="Sørdalsvatnet" />
		<tag k="natural" v="water" />
		<tag k="ssr:stedsnr" v="69538" />
	</node>
	<node lat="60.985152776128395" lon="6.139211109511993" id="-28733">
		<tag k="name" v="Vieråna" />
		<tag k="ssr:stedsnr" v="251014" />
		<tag k="waterway" v="stream" />
	</node>
	<node lat="60.90801020120536" lon="5.995299280945017" id="-28735">
		<tag k="name" v="Svartavatnet" />
=======
	<node id="-645405" lat="60.8351535486" lon="5.70823452003">
		<tag k="alt_name" v="Sørdalsvatnet, insta;Inste Sødalsvatnet" />
		<tag k="name" v="Insta Sørdalsvatnet" />
		<tag k="natural" v="water" />
		<tag k="ssr:stedsnr" v="433364" />
	</node>
	<node id="-645404" lat="60.8164261845" lon="5.71022582562">
		<tag k="alt_name" v="Djupevatnet" />
		<tag k="name" v="Djupavatnet" />
		<tag k="natural" v="water" />
		<tag k="ssr:stedsnr" v="9503" />
	</node>
	<node id="-644891" lat="60.8500328084" lon="5.97456570355">
		<tag k="name" v="Tjørnane" />
		<tag k="natural" v="water" />
		<tag k="ssr:stedsnr" v="530570" />
		<tag k="water" v="lake" />
	</node>
	<node id="-645398" lat="60.9234972195" lon="5.97076111324">
		<tag k="name" v="Uraneset" />
		<tag k="natural" v="cape" />
		<tag k="ssr:stedsnr" v="955710" />
	</node>
	<node id="-644884" lat="60.8308749999" lon="5.94281666033">
		<tag k="name" v="Ædnabekken" />
		<tag k="ssr:stedsnr" v="676147" />
		<tag k="waterway" v="stream" />
	</node>
	<node id="-645392" lat="60.7729784468" lon="5.72801932039">
		<tag k="name" v="Bergatjørna" />
>>>>>>> e1d4bc35ff8a6074a6f2e91616a996b547c36f15
		<tag k="natural" v="water" />
		<tag k="ssr:stedsnr" v="251070" />
		<tag k="water" v="lake" />
	</node>
<<<<<<< HEAD
	<node lat="60.918083331717625" lon="6.080788880365162" id="-28736">
		<tag k="name" v="Kvanngrødvatnet" />
=======
	<node id="-645387" lat="60.8010566024" lon="5.7774417584">
		<tag k="alt_name" v="Lommatjørna" />
		<tag k="fixme" v="multiple name tags, choose one and add the other to alt_name" />
		<tag k="name" v="Nestjørna;Lomatjørna" />
>>>>>>> e1d4bc35ff8a6074a6f2e91616a996b547c36f15
		<tag k="natural" v="water" />
		<tag k="ssr:stedsnr" v="251074" />
		<tag k="water" v="lake" />
	</node>
<<<<<<< HEAD
	<node lat="60.891663889791076" lon="5.979669446747812" id="-28738">
		<tag k="name" v="Flatneset" />
		<tag k="natural" v="cape" />
		<tag k="ssr:stedsnr" v="251098" />
	</node>
	<node lat="60.933724998517526" lon="5.963811106453152" id="-28743">
		<tag k="name" v="Kvernhuselva" />
		<tag k="ssr:stedsnr" v="251126" />
		<tag k="waterway" v="stream" />
	</node>
	<node lat="60.84670277679461" lon="5.916702770334365" id="-28745">
		<tag k="name" v="Sollielva" />
		<tag k="ssr:stedsnr" v="251173" />
		<tag k="waterway" v="stream" />
	</node>
	<node lat="60.8421750023969" lon="5.723841674145809" id="-28747">
		<tag k="name" v="Trollholevatnet" />
=======
	<node id="-644873" lat="61.0275333335" lon="6.0087722172">
		<tag k="alt_name" v="Norddalsvatnet, store" />
		<tag k="name" v="Store Nordalsvatnet" />
		<tag k="natural" v="water" />
		<tag k="ssr:stedsnr" v="434331" />
		<tag k="water" v="lake" />
	</node>
	<node id="-644870" lat="60.8562749967" lon="5.75496666576">
		<tag k="alt_name" v="Veslavatnet;Vetlevatnet" />
		<tag k="name" v="Vetlavatnet" />
		<tag k="natural" v="water" />
		<tag k="ssr:stedsnr" v="433407" />
	</node>
	<node id="-644869" lat="60.9139561362" lon="5.90992981533">
		<tag k="name" v="Steinadalstjørnene" />
>>>>>>> e1d4bc35ff8a6074a6f2e91616a996b547c36f15
		<tag k="natural" v="water" />
		<tag k="ssr:stedsnr" v="251419" />
	</node>
<<<<<<< HEAD
	<node lat="60.80072468086214" lon="5.71361573403317" id="-28748">
		<tag k="name" v="Sætravatnet" />
=======
	<node id="-644868" lat="60.9368638852" lon="6.11389443978">
		<tag k="alt_name" v="Sørdalsvatnet, øvre" />
		<tag k="name" v="Øvre Sørdalsvatnet" />
>>>>>>> e1d4bc35ff8a6074a6f2e91616a996b547c36f15
		<tag k="natural" v="water" />
		<tag k="ssr:stedsnr" v="251487" />
	</node>
<<<<<<< HEAD
	<node lat="60.83134166300873" lon="5.959925006907879" id="-28753">
		<tag k="name" v="Almelibekken" />
		<tag k="ssr:stedsnr" v="130131" />
		<tag k="waterway" v="stream" />
	</node>
	<node lat="60.78453055634435" lon="5.814558330214517" id="-28769">
		<tag k="alt_name" v="Hodnefjellsvatnet" />
		<tag k="name" v="Hornafjellsvatnet" />
		<tag k="natural" v="water" />
		<tag k="ssr:stedsnr" v="190471" />
	</node>
	<node lat="60.791225002498585" lon="5.721550007476662" id="-28771">
		<tag k="name" v="Beitlatjørna" />
=======
	<node id="-645379" lat="60.9684416691" lon="6.09386111641">
		<tag k="name" v="Sørdalselva" />
		<tag k="ssr:stedsnr" v="858027" />
		<tag k="waterway" v="stream" />
	</node>
	<node id="-644864" lat="60.9753027767" lon="5.94985833284">
		<tag k="name" v="Vestrebotnelva" />
		<tag k="ssr:stedsnr" v="433013" />
		<tag k="waterway" v="stream" />
	</node>
	<node id="-644863" lat="61.0027245728" lon="6.03709753878">
		<tag k="name" v="Åsabotnvotna" />
>>>>>>> e1d4bc35ff8a6074a6f2e91616a996b547c36f15
		<tag k="natural" v="water" />
		<tag k="ssr:stedsnr" v="190483" />
	</node>
<<<<<<< HEAD
	<node lat="60.92368610983352" lon="5.957205554629432" id="-28782">
		<tag k="name" v="Greggusbrekkene" />
		<tag k="ssr:stedsnr" v="227695" />
		<tag k="waterway" v="stream" />
	</node>
	<node lat="60.935647218622044" lon="5.976302783976146" id="-28793">
		<tag k="name" v="Holmane" />
		<tag k="place" v="islet" />
		<tag k="ssr:stedsnr" v="287751" />
	</node>
	<node lat="60.97421666887397" lon="5.960538880497358" id="-28796">
		<tag k="name" v="Trongedalselva" />
		<tag k="ssr:stedsnr" v="312004" />
		<tag k="waterway" v="stream" />
	</node>
	<node lat="60.92084999982319" lon="5.969400009217989" id="-28812">
		<tag k="name" v="Rossevika" />
		<tag k="natural" v="bay" />
		<tag k="ssr:stedsnr" v="469730" />
	</node>
	<node lat="60.98251313305167" lon="5.924220733612047" id="-28825">
=======
	<node id="-645371" lat="60.8382139372" lon="5.70879803906">
		<tag k="name" v="Orfallet" />
		<tag k="natural" v="bay" />
		<tag k="ssr:stedsnr" v="834023" />
	</node>
	<node id="-644857" lat="60.9099416637" lon="5.96225556026">
		<tag k="name" v="Sæterelva" />
		<tag k="ssr:stedsnr" v="372073" />
		<tag k="waterway" v="stream" />
	</node>
	<node id="-644854" lat="60.9689361074" lon="6.0121527853">
		<tag k="name" v="Fjellstølelva" />
		<tag k="ssr:stedsnr" v="372012" />
		<tag k="waterway" v="stream" />
	</node>
	<node id="-644853" lat="60.9823305859" lon="5.91930462268">
>>>>>>> e1d4bc35ff8a6074a6f2e91616a996b547c36f15
		<tag k="name" v="Vestrebotnvotna" />
		<tag k="natural" v="water" />
		<tag k="ssr:stedsnr" v="372006" />
		<tag k="water" v="lake" />
	</node>
<<<<<<< HEAD
	<node lat="60.96893610740834" lon="6.012152785298002" id="-28826">
		<tag k="name" v="Fjellstølelva" />
		<tag k="ssr:stedsnr" v="372012" />
		<tag k="waterway" v="stream" />
	</node>
	<node lat="60.9297694414789" lon="5.962211113760821" id="-28827">
=======
	<node id="-644851" lat="60.8633444468" lon="5.86472500166">
		<tag k="name" v="Seljedalselva" />
		<tag k="ssr:stedsnr" v="372174" />
		<tag k="waterway" v="stream" />
	</node>
	<node id="-644847" lat="60.9297694415" lon="5.96221111376">
>>>>>>> e1d4bc35ff8a6074a6f2e91616a996b547c36f15
		<tag k="name" v="Gregusbekken" />
		<tag k="ssr:stedsnr" v="372127" />
		<tag k="waterway" v="stream" />
	</node>
<<<<<<< HEAD
	<node lat="60.86334444679689" lon="5.864725001662588" id="-28831">
		<tag k="name" v="Seljedalselva" />
		<tag k="ssr:stedsnr" v="372174" />
		<tag k="waterway" v="stream" />
	</node>
	<node lat="60.84195555184227" lon="5.9656194488411485" id="-28836">
		<tag k="name" v="Merkestigbekken" />
		<tag k="ssr:stedsnr" v="373112" />
		<tag k="waterway" v="stream" />
	</node>
	<node lat="61.00470483362914" lon="6.044196865378654" id="-28847">
		<tag k="name" v="Åsabotnvotna" />
=======
	<node id="-645357" lat="60.9460138858" lon="5.98735277666">
		<tag k="name" v="Stølselva" />
		<tag k="ssr:stedsnr" v="797826" />
		<tag k="waterway" v="river" />
	</node>
	<node id="-645355" lat="60.8184916653" lon="5.79557776964">
		<tag k="name" v="Kvernhusfossen" />
		<tag k="natural" v="waterfall" />
		<tag k="ssr:stedsnr" v="797503" />
	</node>
	<node id="-645354" lat="60.8904371576" lon="5.81941327545">
		<tag k="name" v="Svartavatnet" />
>>>>>>> e1d4bc35ff8a6074a6f2e91616a996b547c36f15
		<tag k="natural" v="water" />
		<tag k="ssr:stedsnr" v="433009" />
		<tag k="water" v="lake" />
	</node>
<<<<<<< HEAD
	<node lat="60.97530277668533" lon="5.949858332841798" id="-28848">
		<tag k="name" v="Vestrebotnelva" />
		<tag k="ssr:stedsnr" v="433013" />
		<tag k="waterway" v="stream" />
	</node>
	<node lat="60.936863885153485" lon="6.113894439783786" id="-28850">
		<tag k="alt_name" v="Sørdalsvatnet, øvre" />
		<tag k="name" v="Øvre Sørdalsvatnet" />
=======
	<node id="-644840" lat="60.8608962011" lon="6.04972399754">
		<tag k="alt_name" v="Norddalsvatnet, øvre" />
		<tag k="name" v="Øvre Norddalsvatnet" />
>>>>>>> e1d4bc35ff8a6074a6f2e91616a996b547c36f15
		<tag k="natural" v="water" />
		<tag k="ssr:stedsnr" v="433125" />
		<tag k="water" v="lake" />
	</node>
<<<<<<< HEAD
	<node lat="60.91384261334028" lon="5.909843436328611" id="-28851">
		<tag k="name" v="Steinadalstjørnene" />
		<tag k="natural" v="water" />
		<tag k="ssr:stedsnr" v="433131" />
		<tag k="water" v="lake" />
	</node>
	<node lat="60.85627499668688" lon="5.75496666575575" id="-28852">
		<tag k="alt_name" v="Veslavatnet;Vetlevatnet" />
		<tag k="name" v="Vetlavatnet" />
		<tag k="natural" v="water" />
		<tag k="ssr:stedsnr" v="433407" />
	</node>
	<node lat="61.02753333346513" lon="6.0087722171993745" id="-28856">
		<tag k="alt_name" v="Norddalsvatnet, store;Store Nordalsvatnet" />
		<tag k="name" v="Store Norddalsvatnet" />
		<tag k="natural" v="water" />
		<tag k="ssr:stedsnr" v="434331" />
		<tag k="water" v="lake" />
	</node>
	<node lat="60.95843333020234" lon="5.974277778411977" id="-28859">
		<tag k="name" v="Botnelvbekken" />
		<tag k="ssr:stedsnr" v="494036" />
		<tag k="waterway" v="stream" />
	</node>
	<node lat="60.96099999928161" lon="5.958952768711124" id="-28860">
=======
	<node id="-645348" lat="60.9214127986" lon="5.99535203963">
		<tag k="name" v="Kvitavatnet" />
		<tag k="natural" v="water" />
		<tag k="ssr:stedsnr" v="797130" />
	</node>
	<node id="-644835" lat="60.8834388869" lon="6.04376945117">
		<tag k="name" v="Sørelva" />
		<tag k="ssr:stedsnr" v="494141" />
		<tag k="waterway" v="river" />
	</node>
	<node id="-644834" lat="60.8285750018" lon="5.94754999851">
		<tag k="name" v="Todeilselva" />
		<tag k="ssr:stedsnr" v="494136" />
		<tag k="waterway" v="stream" />
	</node>
	<node id="-645243" lat="60.9407555602" lon="5.9351416699">
		<tag k="name" v="Kvernhusbotnvatnet" />
		<tag k="natural" v="water" />
		<tag k="ssr:stedsnr" v="554101" />
	</node>
	<node id="-645344" lat="60.9045305535" lon="6.04078333876">
		<tag k="name" v="Kvanndalsholmane" />
		<tag k="place" v="islet" />
		<tag k="ssr:stedsnr" v="797089" />
	</node>
	<node id="-644827" lat="60.7531083345" lon="5.68159444289">
		<tag k="name" v="Fitjabekken" />
		<tag k="ssr:stedsnr" v="494057" />
		<tag k="waterway" v="stream" />
	</node>
	<node id="-644826" lat="60.9609999993" lon="5.95895276871">
>>>>>>> e1d4bc35ff8a6074a6f2e91616a996b547c36f15
		<tag k="name" v="Botnelva" />
		<tag k="ssr:stedsnr" v="494037" />
		<tag k="waterway" v="stream" />
	</node>
<<<<<<< HEAD
	<node lat="60.753108334512916" lon="5.68159444288645" id="-28861">
		<tag k="name" v="Fitjabekken" />
		<tag k="ssr:stedsnr" v="494057" />
		<tag k="waterway" v="stream" />
	</node>
	<node lat="60.82857500183885" lon="5.947549998513117" id="-28865">
		<tag k="name" v="Todeilselva" />
		<tag k="ssr:stedsnr" v="494136" />
		<tag k="waterway" v="stream" />
	</node>
	<node lat="60.883438886898105" lon="6.0437694511658355" id="-28866">
		<tag k="name" v="Sørelva" />
		<tag k="ssr:stedsnr" v="494141" />
		<tag k="waterway" v="river" />
	</node>
	<node lat="60.81273888927943" lon="5.844777777064396" id="-28881">
=======
	<node id="-644825" lat="60.9584333302" lon="5.97427777841">
		<tag k="name" v="Botnelvbekken" />
		<tag k="ssr:stedsnr" v="494036" />
		<tag k="waterway" v="stream" />
	</node>
	<node id="-645335" lat="60.9727027753" lon="6.10715278274">
		<tag k="name" v="Berdalselva" />
		<tag k="ssr:stedsnr" v="784023" />
		<tag k="waterway" v="stream" />
	</node>
	<node id="-645241" lat="60.8887656548" lon="6.02559397227">
		<tag k="name" v="Krossvatnet" />
		<tag k="natural" v="water" />
		<tag k="ssr:stedsnr" v="554089" />
	</node>
	<node id="-645332" lat="60.8385333352" lon="5.96317221401">
		<tag k="name" v="Merkesstibekken" />
		<tag k="ssr:stedsnr" v="773544" />
		<tag k="waterway" v="stream" />
	</node>
	<node id="-644808" lat="60.9208499998" lon="5.96940000922">
		<tag k="name" v="Rossevika" />
		<tag k="natural" v="bay" />
		<tag k="ssr:stedsnr" v="469730" />
	</node>
	<node id="-645409" lat="60.8115156236" lon="5.85964700128">
		<tag k="name" v="Hevikatjørna" />
		<tag k="natural" v="water" />
		<tag k="ssr:stedsnr" v="858151" />
	</node>
	<node id="-645314" lat="60.8933010068" lon="5.85272967655">
		<tag k="name" v="Skjerjavatnet" />
		<tag k="natural" v="water" />
		<tag k="ssr:stedsnr" v="737303" />
		<tag k="water" v="lake" />
	</node>
	<node id="-644800" lat="60.8127388893" lon="5.84477777706">
>>>>>>> e1d4bc35ff8a6074a6f2e91616a996b547c36f15
		<tag k="alt_name" v="Halvgjengebekken" />
		<tag k="name" v="Haljebekken" />
		<tag k="ssr:stedsnr" v="469561" />
		<tag k="waterway" v="stream" />
	</node>
<<<<<<< HEAD
	<node lat="60.91253333108417" lon="5.972819452742478" id="-28887">
		<tag k="name" v="Tausholmen" />
		<tag k="place" v="islet" />
		<tag k="ssr:stedsnr" v="676062" />
	</node>
	<node lat="60.902238891624584" lon="5.965663896629167" id="-28888">
		<tag k="name" v="Tverrelva" />
		<tag k="ssr:stedsnr" v="676066" />
		<tag k="waterway" v="stream" />
	</node>
	<node lat="60.860896201136434" lon="6.0497239975395924" id="-28896">
		<tag k="alt_name" v="Norddalsvatnet, øvre" />
		<tag k="name" v="Øvre Norddalsvatnet" />
=======
	<node id="-645300" lat="60.9741388901" lon="6.08892500443">
		<tag k="name" v="Stølsvatnet" />
		<tag k="natural" v="water" />
		<tag k="ssr:stedsnr" v="737016" />
		<tag k="water" v="lake" />
	</node>
	<node id="-645406" lat="60.7490479896" lon="5.65667300492">
		<tag k="name" v="Blombrekkstjørna" />
		<tag k="natural" v="water" />
		<tag k="ssr:stedsnr" v="530179" />
	</node>
	<node id="-644783" lat="60.8170694442" lon="5.83646111573">
		<tag k="name" v="Nærenesbekken" />
		<tag k="ssr:stedsnr" v="287573" />
		<tag k="waterway" v="stream" />
	</node>
	<node id="-645293" lat="60.8611749976" lon="5.72117500195">
		<tag k="alt_name" v="Langevatnet" />
		<tag k="name" v="Langavatnet" />
>>>>>>> e1d4bc35ff8a6074a6f2e91616a996b547c36f15
		<tag k="natural" v="water" />
		<tag k="ssr:stedsnr" v="494165" />
		<tag k="water" v="lake" />
	</node>
<<<<<<< HEAD
	<node lat="60.74904798960706" lon="5.656673004915078" id="-28903">
		<tag k="name" v="Blombrekkstjørna" />
		<tag k="natural" v="water" />
		<tag k="ssr:stedsnr" v="530179" />
	</node>
	<node lat="60.85003280839664" lon="5.974565703553954" id="-28904">
		<tag k="name" v="Tjørnane" />
		<tag k="natural" v="water" />
		<tag k="ssr:stedsnr" v="530570" />
		<tag k="water" v="lake" />
	</node>
	<node lat="60.87494150270658" lon="5.979320408570277" id="-28907">
		<tag k="name" v="Naustvika" />
		<tag k="natural" v="bay" />
		<tag k="ssr:stedsnr" v="530588" />
	</node>
	<node lat="60.944977780866054" lon="6.063716665842245" id="-28913">
		<tag k="alt_name" v="Skålebotnsvatnet, øvre" />
		<tag k="name" v="Øvre Skålebotnsvatnet" />
		<tag k="place" v="locality" />
		<tag k="ssr:stedsnr" v="554117" />
	</node>
	<node lat="60.83176666607085" lon="5.883061104331664" id="-28916">
		<tag k="name" v="Hellandsfossen" />
		<tag k="natural" v="waterfall" />
		<tag k="ssr:stedsnr" v="554129" />
	</node>
	<node lat="60.76539166508871" lon="5.685888882165776" id="-28922">
		<tag k="name" v="Nottveitelva" />
		<tag k="ssr:stedsnr" v="554031" />
		<tag k="waterway" v="stream" />
	</node>
	<node lat="60.84588055898918" lon="5.967858336854788" id="-28940">
=======
	<node id="-645292" lat="60.8339129179" lon="5.79977862119">
		<tag k="name" v="Øvstavatnet" />
		<tag k="natural" v="water" />
		<tag k="ssr:stedsnr" v="736387" />
	</node>
	<node id="-645291" lat="60.9396055552" lon="5.97489444033">
		<tag k="name" v="Nordalsholmen" />
		<tag k="place" v="islet" />
		<tag k="ssr:stedsnr" v="651727" />
	</node>
	<node id="-644777" lat="60.8087638874" lon="5.80157778444">
		<tag k="name" v="Bergsåa" />
		<tag k="ssr:stedsnr" v="287167" />
		<tag k="waterway" v="stream" />
	</node>
	<node id="-645286" lat="60.8728194427" lon="5.9679416605">
		<tag k="name" v="Storebekken" />
		<tag k="ssr:stedsnr" v="651565" />
		<tag k="waterway" v="stream" />
	</node>
	<node id="-644772" lat="60.8551833295" lon="6.00290833448">
		<tag k="name" v="Tverrdalselva" />
		<tag k="ssr:stedsnr" v="227706" />
		<tag k="waterway" v="river" />
	</node>
	<node id="-644771" lat="60.8679255567" lon="5.97664953719">
		<tag k="name" v="Midvatnet" />
		<tag k="natural" v="water" />
		<tag k="ssr:stedsnr" v="227705" />
	</node>
	<node id="-645232" lat="60.7653916651" lon="5.68588888217">
		<tag k="name" v="Nottveitelva" />
		<tag k="ssr:stedsnr" v="554031" />
		<tag k="waterway" v="stream" />
	</node>
	<node id="-644765" lat="60.8111444419" lon="5.83578888911">
		<tag k="name" v="Nedranesbekken" />
		<tag k="ssr:stedsnr" v="191446" />
		<tag k="waterway" v="stream" />
	</node>
	<node id="-644763" lat="60.9616237627" lon="5.93617779141">
		<tag k="name" v="Botnelvvotna" />
		<tag k="natural" v="water" />
		<tag k="ssr:stedsnr" v="191025" />
		<tag k="water" v="lake" />
	</node>
	<node id="-645274" lat="60.8837250011" lon="5.97933055846">
		<tag k="name" v="Brattneset" />
		<tag k="natural" v="cape" />
		<tag k="ssr:stedsnr" v="615143" />
	</node>
	<node id="-644761" lat="60.8414916704" lon="5.85548888051">
		<tag k="name" v="Budalselva" />
		<tag k="ssr:stedsnr" v="191140" />
		<tag k="waterway" v="river" />
	</node>
	<node id="-645271" lat="60.845880559" lon="5.96785833685">
>>>>>>> e1d4bc35ff8a6074a6f2e91616a996b547c36f15
		<tag k="name" v="Espeneset" />
		<tag k="natural" v="cape" />
		<tag k="ssr:stedsnr" v="615123" />
	</node>
<<<<<<< HEAD
	<node lat="60.852724988227486" lon="5.705212277166372" id="-28941">
		<tag k="name" v="Øvste Godbotsfossen" />
		<tag k="natural" v="waterfall" />
		<tag k="ssr:stedsnr" v="651034" />
	</node>
	<node lat="60.83087499988051" lon="5.942816660330034" id="-28954">
		<tag k="name" v="Ædnabekken" />
		<tag k="ssr:stedsnr" v="676147" />
		<tag k="waterway" v="stream" />
	</node>
	<node lat="60.864291666247546" lon="5.986241675457046" id="-28961">
		<tag k="name" v="Namdalselva" />
		<tag k="ssr:stedsnr" v="894598" />
		<tag k="waterway" v="river" />
	</node>
	<node lat="60.8347692840937" lon="5.888054717899926" id="-28962">
		<tag k="name" v="Eikkebakktjøna" />
		<tag k="natural" v="water" />
		<tag k="ssr:stedsnr" v="894638" />
	</node>
	<node lat="60.86117499764911" lon="5.721175001945425" id="-28976">
		<tag k="alt_name" v="Langevatnet" />
		<tag k="name" v="Langavatnet" />
=======
	<node id="-645269" lat="60.9008379163" lon="6.09105503267">
		<tag k="name" v="Saufjellsvatnet" />
		<tag k="natural" v="water" />
		<tag k="ssr:stedsnr" v="615073" />
	</node>
	<node id="-645268" lat="60.9096638898" lon="5.97144999484">
		<tag k="alt_name" v="Steinslandsvatn" />
		<tag k="name" v="Steinslandsvatnet" />
		<tag k="natural" v="water" />
		<tag k="ssr:stedsnr" v="615063" />
		<tag k="water" v="lake" />
	</node>
	<node id="-644754" lat="60.9356472186" lon="5.97630278398">
		<tag k="name" v="Holmane" />
		<tag k="place" v="islet" />
		<tag k="ssr:stedsnr" v="287751" />
	</node>
	<node id="-645229" lat="60.9132250039" lon="5.97401111575">
		<tag k="name" v="Holmaneset" />
		<tag k="natural" v="cape" />
		<tag k="ssr:stedsnr" v="554065" />
	</node>
	<node id="-645259" lat="60.9254138886" lon="5.8648611082">
		<tag k="name" v="Ytste Vika" />
		<tag k="natural" v="bay" />
		<tag k="ssr:stedsnr" v="603097" />
	</node>
	<node id="-644739" lat="60.831341663" lon="5.95992500691">
		<tag k="name" v="Almelibekken" />
		<tag k="ssr:stedsnr" v="130131" />
		<tag k="waterway" v="stream" />
	</node>
	<node id="-645249" lat="60.8432250031" lon="6.01574443606">
		<tag k="name" v="Dalavatnet" />
		<tag k="natural" v="water" />
		<tag k="ssr:stedsnr" v="554142" />
	</node>
	<node id="-644735" lat="60.9450873345" lon="5.9398707037">
		<tag k="name" v="Sylvbergstjørnane" />
		<tag k="natural" v="water" />
		<tag k="ssr:stedsnr" v="129124" />
	</node>
	<node id="-645245" lat="60.8317666661" lon="5.88306110433">
		<tag k="name" v="Hellandsfossen" />
		<tag k="natural" v="waterfall" />
		<tag k="ssr:stedsnr" v="554129" />
	</node>
	<node id="-644732" lat="60.8007246809" lon="5.71361573403">
		<tag k="name" v="Sætravatnet" />
>>>>>>> e1d4bc35ff8a6074a6f2e91616a996b547c36f15
		<tag k="natural" v="water" />
		<tag k="ssr:stedsnr" v="736421" />
		<tag k="water" v="lake" />
	</node>
<<<<<<< HEAD
	<node lat="60.833912917936416" lon="5.799778621185879" id="-28977">
		<tag k="name" v="Øvstavatnet" />
=======
	<node id="-644731" lat="60.8421750024" lon="5.72384167415">
		<tag k="name" v="Trollholevatnet" />
>>>>>>> e1d4bc35ff8a6074a6f2e91616a996b547c36f15
		<tag k="natural" v="water" />
		<tag k="ssr:stedsnr" v="736387" />
	</node>
<<<<<<< HEAD
	<node lat="60.89330100682837" lon="5.852729676547869" id="-28989">
		<tag k="name" v="Skjerjavatnet" />
=======
	<node id="-645242" lat="60.9579284089" lon="6.0576855283">
		<tag k="name" v="Nedre Skålebotnsvatnet" />
>>>>>>> e1d4bc35ff8a6074a6f2e91616a996b547c36f15
		<tag k="natural" v="water" />
		<tag k="ssr:stedsnr" v="737303" />
		<tag k="water" v="lake" />
	</node>
<<<<<<< HEAD
	<node lat="60.81849166533082" lon="5.795577769639418" id="-29003">
		<tag k="name" v="Kvernhusfossen" />
		<tag k="natural" v="waterfall" />
		<tag k="ssr:stedsnr" v="797503" />
	</node>
	<node lat="60.88838750122799" lon="5.901617460520112" id="-29008">
		<tag k="name" v="Seljedalsvotna" />
		<tag k="natural" v="water" />
		<tag k="ssr:stedsnr" v="919069" />
		<tag k="water" v="lake" />
	</node>
	<node lat="60.893674999610454" lon="6.058883335770588" id="-29009">
		<tag k="name" v="Norddalselva" />
		<tag k="ssr:stedsnr" v="919082" />
		<tag k="waterway" v="stream" />
	</node>
	<node lat="60.89164999717702" lon="6.0490944530126844" id="-29011">
		<tag k="name" v="Stølselva" />
		<tag k="ssr:stedsnr" v="919088" />
		<tag k="waterway" v="stream" />
	</node>
	<node lat="60.94296863456616" lon="5.886642040129975" id="-29012">
		<tag k="name" v="Vardadalstjørnane" />
=======
	<node id="-644729" lat="60.8467027768" lon="5.91670277033">
		<tag k="name" v="Sollielva" />
		<tag k="ssr:stedsnr" v="251173" />
		<tag k="waterway" v="stream" />
	</node>
	<node id="-644727" lat="60.9337249985" lon="5.96381110645">
		<tag k="name" v="Kvernhuselva" />
		<tag k="ssr:stedsnr" v="251126" />
		<tag k="waterway" v="stream" />
	</node>
	<node id="-645237" lat="60.8604166638" lon="5.95342499155">
		<tag k="name" v="Merkeselva" />
		<tag k="ssr:stedsnr" v="554188" />
		<tag k="waterway" v="stream" />
	</node>
	<node id="-645236" lat="60.8514769157" lon="5.86617196922">
		<tag k="name" v="Tveråna" />
		<tag k="ssr:stedsnr" v="554181" />
		<tag k="waterway" v="stream" />
	</node>
	<node id="-644722" lat="60.8916638898" lon="5.97966944675">
		<tag k="name" v="Flatneset" />
		<tag k="natural" v="cape" />
		<tag k="ssr:stedsnr" v="251098" />
	</node>
	<node id="-644720" lat="60.9180833317" lon="6.08078888037">
		<tag k="name" v="Kvanngrødvatnet" />
>>>>>>> e1d4bc35ff8a6074a6f2e91616a996b547c36f15
		<tag k="natural" v="water" />
		<tag k="ssr:stedsnr" v="919095" />
		<tag k="water" v="lake" />
	</node>
<<<<<<< HEAD
	<node lat="60.8596076942862" lon="5.974741822231657" id="-29013">
		<tag k="alt_name" v="Herlaugsvatnet" />
		<tag k="name" v="Herlangen" />
		<tag k="natural" v="water" />
		<tag k="ssr:stedsnr" v="919125" />
	</node>
	<node lat="60.96731389017134" lon="6.1379888863216765" id="-29026">
		<tag k="alt_name" v="Berdalsvatnet, øvre" />
		<tag k="name" v="Øvre Berdalsvatnet" />
		<tag k="place" v="locality" />
		<tag k="ssr:stedsnr" v="858026" />
	</node>
	<node lat="60.96844166910918" lon="6.093861116406356" id="-29027">
		<tag k="name" v="Sørdalselva" />
		<tag k="ssr:stedsnr" v="858027" />
		<tag k="waterway" v="stream" />
	</node>
	<node lat="60.90898055242978" lon="6.127044453487945" id="-29028">
		<tag k="name" v="Gavlavatnet" />
=======
	<node id="-644719" lat="60.9080102012" lon="5.99529928095">
		<tag k="name" v="Svartavatnet" />
		<tag k="natural" v="water" />
		<tag k="ssr:stedsnr" v="251070" />
		<tag k="water" v="lake" />
	</node>
	<node id="-644717" lat="60.9851527761" lon="6.13921110951">
		<tag k="name" v="Vieråna" />
		<tag k="ssr:stedsnr" v="251014" />
		<tag k="waterway" v="stream" />
	</node>
	<node id="-644715" lat="60.9236861098" lon="5.95720555463">
		<tag k="name" v="Greggusbrekkene" />
		<tag k="ssr:stedsnr" v="227695" />
		<tag k="waterway" v="stream" />
	</node>
	<node id="-645224" lat="60.8808027815" lon="5.96979166554">
		<tag k="name" v="Skredbekken" />
		<tag k="ssr:stedsnr" v="530534" />
		<tag k="waterway" v="stream" />
	</node>
	<node id="-644709" lat="60.8244527734" lon="5.74583332772">
		<tag k="name" v="Sødalselva" />
		<tag k="ssr:stedsnr" v="226649" />
		<tag k="waterway" v="river" />
	</node>
	<node id="-645214" lat="60.8643096733" lon="5.97672044819">
		<tag k="alt_name" v="Aabåtvatn" />
		<tag k="name" v="Åbotnsvatnet" />
>>>>>>> e1d4bc35ff8a6074a6f2e91616a996b547c36f15
		<tag k="natural" v="water" />
		<tag k="ssr:stedsnr" v="858074" />
		<tag k="water" v="lake" />
	</node>
<<<<<<< HEAD
	<node lat="60.829952778281246" lon="5.884397230038546" id="-29037">
		<tag k="name" v="Fossrinnen" />
		<tag k="ssr:stedsnr" v="894570" />
		<tag k="waterway" v="stream" />
	</node>
	<node lat="60.86116111107557" lon="5.998011117735179" id="-29038">
		<tag k="name" v="Fossen" />
		<tag k="natural" v="waterfall" />
		<tag k="ssr:stedsnr" v="894579" />
	</node>
	<node lat="60.83915100168084" lon="5.845265264887256" id="-29041">
		<tag k="name" v="Lomatjørna" />
		<tag k="natural" v="water" />
		<tag k="ssr:stedsnr" v="906162" />
	</node>
	<node lat="60.955052781322344" lon="6.096633342029886" id="-29043">
		<tag k="alt_name" v="Sørdalsvatnet, nedre" />
		<tag k="name" v="Nedre Sørdalsvatnet" />
=======
	<node id="-644700" lat="60.8902083298" lon="5.837063897">
		<tag k="name" v="Skjerjavasstangen" />
		<tag k="natural" v="cape" />
		<tag k="ssr:stedsnr" v="9322" />
	</node>
	<node id="-644699" lat="60.8256361122" lon="5.79854444502">
		<tag k="name" v="Nedstavatnet" />
		<tag k="natural" v="water" />
		<tag k="ssr:stedsnr" v="9502" />
	</node>
	<node id="-645204" lat="60.9056912132" lon="6.14692587806">
		<tag k="alt_name" v="Kvammavatnet, vestre" />
		<tag k="name" v="Vestre Kvammavatnet" />
>>>>>>> e1d4bc35ff8a6074a6f2e91616a996b547c36f15
		<tag k="natural" v="water" />
		<tag k="ssr:stedsnr" v="918109" />
		<tag k="water" v="lake" />
	</node>
<<<<<<< HEAD
	<node lat="60.90991111404481" lon="6.019877770088324" id="-29048">
		<tag k="name" v="Steinavassbekken" />
		<tag k="ssr:stedsnr" v="919066" />
		<tag k="waterway" v="stream" />
	</node>
	<node lat="60.915725001429" lon="5.964952785252309" id="-29049">
		<tag k="name" v="Revåna" />
		<tag k="ssr:stedsnr" v="919115" />
		<tag k="waterway" v="stream" />
	</node>
	<node lat="60.861813889264155" lon="6.011724992680905" id="-29058">
=======
	<node id="-644691" lat="60.9724138906" lon="6.11775000025">
		<tag k="alt_name" v="Berdalsvatnet, nedre" />
		<tag k="name" v="Nedre Berdalsvatnet" />
		<tag k="natural" v="water" />
		<tag k="ssr:stedsnr" v="9014" />
	</node>
	<node id="-644690" lat="60.9733555563" lon="5.96618611424">
		<tag k="name" v="Austrebotnelva" />
		<tag k="ssr:stedsnr" v="9010" />
		<tag k="waterway" v="stream" />
	</node>
	<node id="-644689" lat="60.8618138893" lon="6.01172499268">
>>>>>>> e1d4bc35ff8a6074a6f2e91616a996b547c36f15
		<tag k="name" v="Norddalselva" />
		<tag k="ssr:stedsnr" v="8820" />
		<tag k="waterway" v="stream" />
	</node>
<<<<<<< HEAD
	<node lat="60.89911666836583" lon="6.022213886911243" id="-29060">
		<tag k="name" v="Oselvi" />
		<tag k="ssr:stedsnr" v="9053" />
		<tag k="waterway" v="stream" />
	</node>
	<node lat="60.94587499576673" lon="5.971202769885039" id="-29062">
		<tag k="name" v="Norddalselva" />
		<tag k="ssr:stedsnr" v="9063" />
		<tag k="waterway" v="river" />
	</node>
	<node lat="60.85377500140459" lon="5.964300008151977" id="-29064">
		<tag k="name" v="Gauvbotnselva" />
		<tag k="ssr:stedsnr" v="9155" />
		<tag k="waterway" v="stream" />
	</node>
	<node lat="60.973355556269304" lon="5.966186114241906" id="-29065">
		<tag k="name" v="Austrebotnelva" />
		<tag k="ssr:stedsnr" v="9010" />
		<tag k="waterway" v="stream" />
	</node>
	<node lat="60.97241389059289" lon="6.117750000251942" id="-29066">
		<tag k="alt_name" v="Berdalsvatnet, nedre" />
		<tag k="name" v="Nedre Berdalsvatnet" />
		<tag k="natural" v="water" />
		<tag k="ssr:stedsnr" v="9014" />
	</node>
	<node lat="60.905215938877504" lon="6.158699589673868" id="-29088">
		<tag k="alt_name" v="Kvammavatnet, austre" />
		<tag k="name" v="Austre Kvammavatnet" />
		<tag k="natural" v="water" />
		<tag k="ssr:stedsnr" v="69078" />
		<tag k="water" v="lake" />
	</node>
	<node lat="60.981136108420465" lon="5.97901666785845" id="-29091">
		<tag k="name" v="Austrebotnvatnet" />
=======
	<node id="-645187" lat="60.8421500034" lon="5.97640834215">
		<tag k="name" v="Bjørkehaugbekken" />
		<tag k="ssr:stedsnr" v="373121" />
		<tag k="waterway" v="stream" />
	</node>
	<node id="-645184" lat="60.8419555518" lon="5.96561944884">
		<tag k="name" v="Merkestigbekken" />
		<tag k="ssr:stedsnr" v="373112" />
		<tag k="waterway" v="stream" />
	</node>
	<node id="-645180" lat="60.8893250032" lon="6.06800555527">
		<tag k="name" v="Austredalselva" />
		<tag k="ssr:stedsnr" v="372100" />
		<tag k="waterway" v="stream" />
	</node>
	<node id="-645178" lat="60.9082000021" lon="6.04453888518">
		<tag k="name" v="Kvanndalselva" />
		<tag k="ssr:stedsnr" v="372088" />
		<tag k="waterway" v="stream" />
	</node>
	<node id="-645385" lat="60.8185638884" lon="5.81732222922">
		<tag k="name" v="Moelva" />
		<tag k="ssr:stedsnr" v="858142" />
		<tag k="waterway" v="river" />
	</node>
	<node id="-645171" lat="60.9221944481" lon="5.95416389544">
		<tag k="name" v="Gregguselva" />
		<tag k="ssr:stedsnr" v="348692" />
		<tag k="waterway" v="river" />
	</node>
	<node id="-645152" lat="60.8574976554" lon="5.87942638444">
		<tag k="name" v="Fagerdalstjørna" />
>>>>>>> e1d4bc35ff8a6074a6f2e91616a996b547c36f15
		<tag k="natural" v="water" />
		<tag k="ssr:stedsnr" v="69006" />
	</node>
<<<<<<< HEAD
	<node lat="60.91311666363878" lon="5.991549995245236" id="-29094">
		<tag k="name" v="Kvitavasselva" />
		<tag k="ssr:stedsnr" v="69123" />
		<tag k="waterway" v="stream" />
	</node>
	<node lat="60.86367213036573" lon="5.807982567660767" id="-29096">
		<tag k="name" v="Skavlavatna" />
=======
	<node id="-645234" lat="60.7718471728" lon="5.77032816964">
		<tag k="name" v="Stølsvatnet" />
		<tag k="natural" v="water" />
		<tag k="ssr:stedsnr" v="554036" />
	</node>
	<node id="-645144" lat="60.9742166689" lon="5.9605388805">
		<tag k="name" v="Trongedalselva" />
		<tag k="ssr:stedsnr" v="312004" />
		<tag k="waterway" v="stream" />
	</node>
	<node id="-645138" lat="60.8748877227" lon="5.82435635253">
		<tag k="name" v="Sætertjørna" />
>>>>>>> e1d4bc35ff8a6074a6f2e91616a996b547c36f15
		<tag k="natural" v="water" />
		<tag k="ssr:stedsnr" v="69474" />
		<tag k="water" v="lake" />
	</node>
<<<<<<< HEAD
	<node lat="60.94508733448284" lon="5.939870703695252" id="-29106">
		<tag k="name" v="Sylvbergstjørnane" />
		<tag k="natural" v="water" />
		<tag k="ssr:stedsnr" v="129124" />
		<tag k="water" v="lake" />
	</node>
	<node lat="60.807500001527046" lon="5.949133340137946" id="-29108">
		<tag k="name" v="Storavatnet" />
=======
	<node id="-645137" lat="60.8640806449" lon="6.03311605175">
		<tag k="alt_name" v="Norddalsvatnet, nedre" />
		<tag k="name" v="Nedre Norddalsvatnet" />
		<tag k="natural" v="water" />
		<tag k="ssr:stedsnr" v="191151" />
		<tag k="water" v="lake" />
	</node>
	<node id="-645133" lat="60.8581731492" lon="6.08829511986">
		<tag k="name" v="Hornavatnet" />
>>>>>>> e1d4bc35ff8a6074a6f2e91616a996b547c36f15
		<tag k="natural" v="water" />
		<tag k="ssr:stedsnr" v="129259" />
		<tag k="water" v="lake" />
	</node>
<<<<<<< HEAD
	<node lat="60.81498610719171" lon="5.76960278556903" id="-29114">
		<tag k="name" v="Stølselva" />
		<tag k="ssr:stedsnr" v="130447" />
		<tag k="waterway" v="stream" />
	</node>
	<node lat="60.850096818497214" lon="5.969424329948086" id="-29116">
		<tag k="name" v="Furneset" />
		<tag k="natural" v="cape" />
		<tag k="ssr:stedsnr" v="130765" />
	</node>
	<node lat="60.84450050161135" lon="5.953077708118882" id="-29125">
		<tag k="name" v="Vika" />
		<tag k="natural" v="bay" />
		<tag k="ssr:stedsnr" v="166549" />
	</node>
	<node lat="60.93380000253707" lon="5.858902782378186" id="-29130">
=======
	<node id="-645130" lat="60.9338000025" lon="5.85890278238">
>>>>>>> e1d4bc35ff8a6074a6f2e91616a996b547c36f15
		<tag k="alt_name" v="Smalevatnet" />
		<tag k="fixme" v="multiple name tags, choose one and add the other to alt_name" />
		<tag k="name" v="Langavatnet;Smalavatnet" />
		<tag k="natural" v="water" />
		<tag k="ssr:stedsnr" v="190833" />
		<tag k="water" v="lake" />
	</node>
<<<<<<< HEAD
	<node lat="60.96162376266563" lon="5.936177791410755" id="-29135">
		<tag k="name" v="Botnelvvotna" />
=======
	<node id="-645128" lat="60.7912250025" lon="5.72155000748">
		<tag k="name" v="Beitlatjørna" />
>>>>>>> e1d4bc35ff8a6074a6f2e91616a996b547c36f15
		<tag k="natural" v="water" />
		<tag k="ssr:stedsnr" v="191025" />
		<tag k="water" v="lake" />
	</node>
<<<<<<< HEAD
	<node lat="60.8414916703717" lon="5.8554888805101974" id="-29140">
		<tag k="name" v="Budalselva" />
		<tag k="ssr:stedsnr" v="191140" />
		<tag k="waterway" v="river" />
	</node>
	<node lat="60.858173149216114" lon="6.088295119855117" id="-29141">
		<tag k="name" v="Hornavatnet" />
		<tag k="natural" v="water" />
		<tag k="ssr:stedsnr" v="191146" />
		<tag k="water" v="lake" />
	</node>
	<node lat="60.86408064493589" lon="6.03311605174753" id="-29142">
		<tag k="alt_name" v="Norddalsvatnet, nedre" />
		<tag k="name" v="Nedre Norddalsvatnet" />
		<tag k="natural" v="water" />
		<tag k="ssr:stedsnr" v="191151" />
		<tag k="water" v="lake" />
	</node>
	<node lat="60.87488772273626" lon="5.8243563525273325" id="-29143">
		<tag k="name" v="Sætertjørna" />
		<tag k="natural" v="water" />
		<tag k="ssr:stedsnr" v="191280" />
	</node>
	<node lat="60.81114444191496" lon="5.835788889112897" id="-29144">
		<tag k="name" v="Nedranesbekken" />
		<tag k="ssr:stedsnr" v="191446" />
		<tag k="waterway" v="stream" />
	</node>
	<node lat="60.82445277343579" lon="5.745833327720521" id="-29147">
		<tag k="name" v="Sødalselva" />
		<tag k="ssr:stedsnr" v="226649" />
		<tag k="waterway" v="river" />
	</node>
	<node lat="60.86792555672921" lon="5.976649537190431" id="-29160">
		<tag k="name" v="Midvatnet" />
		<tag k="natural" v="water" />
		<tag k="ssr:stedsnr" v="227705" />
	</node>
	<node lat="60.85518332947604" lon="6.0029083344763" id="-29161">
		<tag k="name" v="Tverrdalselva" />
		<tag k="ssr:stedsnr" v="227706" />
		<tag k="waterway" v="river" />
	</node>
	<node lat="60.808763887409896" lon="5.801577784440788" id="-29164">
		<tag k="name" v="Bergsåa" />
		<tag k="ssr:stedsnr" v="287167" />
		<tag k="waterway" v="stream" />
	</node>
	<node lat="60.817069444188874" lon="5.8364611157273485" id="-29171">
		<tag k="name" v="Nærenesbekken" />
		<tag k="ssr:stedsnr" v="287573" />
		<tag k="waterway" v="stream" />
	</node>
	<node lat="60.85749765535021" lon="5.879426384436931" id="-29184">
		<tag k="name" v="Fagerdalstjørna" />
		<tag k="natural" v="water" />
		<tag k="ssr:stedsnr" v="312143" />
	</node>
	<node lat="60.92219444805498" lon="5.954163895442361" id="-29201">
		<tag k="name" v="Gregguselva" />
		<tag k="ssr:stedsnr" v="348692" />
		<tag k="waterway" v="river" />
	</node>
	<node lat="60.90994166374044" lon="5.962255560259931" id="-29207">
		<tag k="name" v="Sæterelva" />
		<tag k="ssr:stedsnr" v="372073" />
		<tag k="waterway" v="stream" />
	</node>
	<node lat="60.9082000021197" lon="6.044538885176741" id="-29210">
		<tag k="name" v="Kvanndalselva" />
		<tag k="ssr:stedsnr" v="372088" />
		<tag k="waterway" v="stream" />
	</node>
	<node lat="60.88932500317901" lon="6.068005555274654" id="-29212">
		<tag k="name" v="Austredalselva" />
		<tag k="ssr:stedsnr" v="372100" />
		<tag k="waterway" v="stream" />
	</node>
	<node lat="60.8421500033867" lon="5.976408342147941" id="-29216">
		<tag k="name" v="Bjørkehaugbekken" />
		<tag k="ssr:stedsnr" v="373121" />
		<tag k="waterway" v="stream" />
	</node>
	<node lat="60.90569121316854" lon="6.146925878062538" id="-29228">
		<tag k="alt_name" v="Kvammavatnet, vestre" />
		<tag k="name" v="Vestre Kvammavatnet" />
		<tag k="natural" v="water" />
		<tag k="ssr:stedsnr" v="433083" />
		<tag k="water" v="lake" />
	</node>
	<node lat="60.835153548557734" lon="5.708234520031053" id="-29236">
		<tag k="alt_name" v="Sørdalsvatnet, insta;Inste Sødalsvatnet" />
		<tag k="name" v="Insta Sørdalsvatnet" />
		<tag k="natural" v="water" />
		<tag k="ssr:stedsnr" v="433364" />
	</node>
	<node lat="60.86430967325437" lon="5.9767204481865095" id="-29243">
		<tag k="alt_name" v="Aabåtvatn" />
		<tag k="name" v="Åbotnsvatnet" />
		<tag k="natural" v="water" />
		<tag k="ssr:stedsnr" v="434161" />
	</node>
	<node lat="60.880802781489706" lon="5.96979166553751" id="-29251">
		<tag k="name" v="Skredbekken" />
		<tag k="ssr:stedsnr" v="530534" />
		<tag k="waterway" v="stream" />
	</node>
	<node lat="60.91086055732804" lon="5.830043304163676" id="-29255">
		<tag k="name" v="Hjortevatnet" />
		<tag k="natural" v="water" />
		<tag k="ssr:stedsnr" v="554365" />
		<tag k="water" v="lake" />
	</node>
	<node lat="60.888765654835886" lon="6.025593972270075" id="-29259">
		<tag k="name" v="Krossvatnet" />
		<tag k="natural" v="water" />
		<tag k="ssr:stedsnr" v="554089" />
	</node>
	<node lat="60.95792840893897" lon="6.057685528299715" id="-29260">
		<tag k="name" v="Nedre Skålebotnsvatnet" />
		<tag k="natural" v="water" />
		<tag k="ssr:stedsnr" v="554095" />
	</node>
	<node lat="60.940755560150635" lon="5.935141669900686" id="-29261">
		<tag k="name" v="Kvernhusbotnvatnet" />
		<tag k="natural" v="water" />
		<tag k="ssr:stedsnr" v="554101" />
	</node>
	<node lat="60.85147691573398" lon="5.8661719692228065" id="-29262">
		<tag k="name" v="Tveråna" />
		<tag k="ssr:stedsnr" v="554181" />
		<tag k="waterway" v="stream" />
	</node>
	<node lat="60.86041666383345" lon="5.9534249915467665" id="-29263">
		<tag k="name" v="Merkeselva" />
		<tag k="ssr:stedsnr" v="554188" />
		<tag k="waterway" v="stream" />
	</node>
	<node lat="60.77184717279831" lon="5.770328169639365" id="-29265">
		<tag k="name" v="Stølsvatnet" />
		<tag k="natural" v="water" />
		<tag k="ssr:stedsnr" v="554036" />
	</node>
	<node lat="60.913225003900536" lon="5.974011115752049" id="-29267">
		<tag k="name" v="Holmaneset" />
		<tag k="natural" v="cape" />
		<tag k="ssr:stedsnr" v="554065" />
	</node>
	<node lat="60.84322500312376" lon="6.015744436057131" id="-29268">
		<tag k="name" v="Dalavatnet" />
		<tag k="natural" v="water" />
		<tag k="ssr:stedsnr" v="554142" />
	</node>
	<node lat="60.86246110720994" lon="5.975766658165077" id="-29275">
		<tag k="name" v="Balaneset" />
		<tag k="natural" v="cape" />
		<tag k="ssr:stedsnr" v="590549" />
	</node>
	<node lat="60.92541388863048" lon="5.864861108198217" id="-29276">
		<tag k="name" v="Ytste Vika" />
		<tag k="natural" v="bay" />
		<tag k="ssr:stedsnr" v="603097" />
	</node>
	<node lat="60.90966388982735" lon="5.971449994843204" id="-29284">
		<tag k="alt_name" v="Steinslandsvatn" />
		<tag k="name" v="Steinslandsvatnet" />
		<tag k="natural" v="water" />
		<tag k="ssr:stedsnr" v="615063" />
		<tag k="water" v="lake" />
	</node>
	<node lat="60.90083791628006" lon="6.091055032671494" id="-29285">
		<tag k="name" v="Saufjellsvatnet" />
		<tag k="natural" v="water" />
		<tag k="ssr:stedsnr" v="615073" />
	</node>
	<node lat="60.88151666566409" lon="6.12324999578258" id="-29287">
		<tag k="name" v="Skjerjavatnet" />
		<tag k="natural" v="water" />
		<tag k="ssr:stedsnr" v="615148" />
		<tag k="water" v="lake" />
	</node>
	<node lat="60.87440278101482" lon="6.00772777475899" id="-29292">
		<tag k="name" v="Krossdalselva" />
		<tag k="ssr:stedsnr" v="615135" />
		<tag k="waterway" v="river" />
	</node>
	<node lat="60.88372500107482" lon="5.97933055845852" id="-29293">
		<tag k="name" v="Brattneset" />
		<tag k="natural" v="cape" />
		<tag k="ssr:stedsnr" v="615143" />
	</node>
	<node lat="60.872819442688574" lon="5.967941660503302" id="-29307">
		<tag k="name" v="Storebekken" />
		<tag k="ssr:stedsnr" v="651565" />
		<tag k="waterway" v="stream" />
	</node>
	<node lat="60.93960555519899" lon="5.974894440333993" id="-29308">
		<tag k="name" v="Nordalsholmen" />
		<tag k="place" v="islet" />
		<tag k="ssr:stedsnr" v="651727" />
	</node>
	<node lat="60.83213055794475" lon="5.746241663827353" id="-29311">
		<tag k="name" v="Trollholebekken" />
		<tag k="ssr:stedsnr" v="711619" />
		<tag k="waterway" v="stream" />
	</node>
	<node lat="60.88283888504378" lon="6.0115638838069465" id="-29313">
		<tag k="name" v="Storeneset" />
		<tag k="natural" v="cape" />
		<tag k="ssr:stedsnr" v="712495" />
	</node>
	<node lat="60.890077572430066" lon="6.018153072173735" id="-29314">
		<tag k="name" v="Hylkjetjørna" />
		<tag k="natural" v="water" />
		<tag k="ssr:stedsnr" v="712671" />
	</node>
	<node lat="60.92700555172529" lon="5.975416661026288" id="-29320">
		<tag k="name" v="Storeholmen" />
		<tag k="place" v="islet" />
		<tag k="ssr:stedsnr" v="712708" />
	</node>
	<node lat="60.97413889009465" lon="6.088925004427625" id="-29329">
		<tag k="name" v="Stølsvatnet" />
		<tag k="natural" v="water" />
		<tag k="ssr:stedsnr" v="737016" />
		<tag k="water" v="lake" />
	</node>
	<node lat="60.90181944823447" lon="5.9681888873520075" id="-29335">
		<tag k="name" v="Tverraholmen" />
		<tag k="place" v="islet" />
		<tag k="ssr:stedsnr" v="773673" />
	</node>
	<node lat="60.83853333516392" lon="5.963172214012452" id="-29346">
		<tag k="name" v="Merkesstibekken" />
		<tag k="ssr:stedsnr" v="773544" />
		<tag k="waterway" v="stream" />
	</node>
	<node lat="60.97270277526169" lon="6.107152782738551" id="-29350">
		<tag k="name" v="Berdalselva" />
		<tag k="ssr:stedsnr" v="784023" />
		<tag k="waterway" v="stream" />
	</node>
	<node lat="60.92141279860441" lon="5.995352039628786" id="-29353">
		<tag k="name" v="Kvitavatnet" />
		<tag k="natural" v="water" />
		<tag k="ssr:stedsnr" v="797130" />
	</node>
	<node lat="60.904530553482076" lon="6.040783338763133" id="-29356">
		<tag k="name" v="Kvanndalsholmane" />
		<tag k="place" v="islet" />
		<tag k="ssr:stedsnr" v="797089" />
	</node>
	<node lat="60.94601388582001" lon="5.98735277665935" id="-29362">
		<tag k="name" v="Stølselva" />
		<tag k="ssr:stedsnr" v="797826" />
		<tag k="waterway" v="river" />
	</node>
	<node lat="60.890437157613356" lon="5.819413275451421" id="-29363">
		<tag k="name" v="Svartavatnet" />
		<tag k="natural" v="water" />
		<tag k="ssr:stedsnr" v="797328" />
		<tag k="water" v="lake" />
	</node>
	<node lat="60.977174999623344" lon="6.058488881135805" id="-29366">
		<tag k="name" v="Åsabotnelva" />
		<tag k="ssr:stedsnr" v="798020" />
		<tag k="waterway" v="stream" />
	</node>
	<node lat="60.83587777486933" lon="5.908852771498418" id="-29377">
		<tag k="name" v="Holmen" />
		<tag k="place" v="islet" />
		<tag k="ssr:stedsnr" v="833625" />
	</node>
	<node lat="60.838213937229305" lon="5.708798039062836" id="-29378">
		<tag k="name" v="Orfallet" />
		<tag k="natural" v="bay" />
		<tag k="ssr:stedsnr" v="834023" />
	</node>
	<node lat="60.839830555940715" lon="5.950224992832558" id="-29387">
		<tag k="name" v="Neset" />
		<tag k="natural" v="cape" />
		<tag k="ssr:stedsnr" v="834560" />
	</node>
	<node lat="60.90575000192054" lon="6.012850007643959" id="-29392">
		<tag k="name" v="Steinavatnet" />
		<tag k="natural" v="water" />
		<tag k="ssr:stedsnr" v="858057" />
	</node>
	<node lat="60.81856388842902" lon="5.817322229220677" id="-29393">
		<tag k="name" v="Moelva" />
		<tag k="ssr:stedsnr" v="858142" />
		<tag k="waterway" v="river" />
	</node>
	<node lat="60.81151562361199" lon="5.8596470012791935" id="-29394">
		<tag k="name" v="Hevikatjørna" />
		<tag k="natural" v="water" />
		<tag k="ssr:stedsnr" v="858151" />
	</node>
	<node lat="60.801056602385756" lon="5.777441758404553" id="-29399">
		<tag k="alt_name" v="Lommatjørna" />
		<tag k="fixme" v="multiple name tags, choose one and add the other to alt_name" />
		<tag k="name" v="Nestjørna;Lomatjørna" />
		<tag k="natural" v="water" />
		<tag k="ssr:stedsnr" v="858502" />
	</node>
	<node lat="60.86971574125441" lon="5.751655489226973" id="-29400">
		<tag k="name" v="Storavatnet" />
		<tag k="natural" v="water" />
		<tag k="ssr:stedsnr" v="858454" />
		<tag k="water" v="lake" />
	</node>
	<node lat="60.772978446763986" lon="5.72801932039352" id="-29404">
		<tag k="name" v="Bergatjørna" />
		<tag k="natural" v="water" />
		<tag k="ssr:stedsnr" v="954562" />
	</node>
	<node lat="60.8761027763027" lon="5.983969452744233" id="-29407">
		<tag k="name" v="Nyskredneset" />
		<tag k="natural" v="cape" />
		<tag k="ssr:stedsnr" v="955576" />
	</node>
	<node lat="60.92349721948624" lon="5.970761113239174" id="-29409">
		<tag k="name" v="Uraneset" />
		<tag k="natural" v="cape" />
		<tag k="ssr:stedsnr" v="955710" />
	</node>
=======
>>>>>>> e1d4bc35ff8a6074a6f2e91616a996b547c36f15
</osm>
