<?xml version="1.0" encoding="UTF-8"?>
<osm generator="osmapis" version="0.6">
	<node id="-62848" lat="60.8653666691" lon="5.97786944743">
		<tag k="bridge" v="yes" />
		<tag k="layer" v="1" />
		<tag k="name" v="Straume" />
		<tag k="ssr:stedsnr" v="775055" />
	</node>
	<node id="-62688" lat="60.8118138892" lon="5.77847777138">
		<tag k="bridge" v="yes" />
		<tag k="layer" v="1" />
		<tag k="name" v="Grønhaug" />
		<tag k="ssr:stedsnr" v="472050" />
	</node>
	<node id="-62813" lat="60.9453555582" lon="5.99231389549">
		<tag k="ford" v="yes" />
		<tag k="name" v="Rumpevadet" />
		<tag k="place" v="locality" />
		<tag k="ssr:stedsnr" v="736101" />
	</node>
	<node id="-62844" lat="60.8381833371" lon="5.94429999457">
		<tag k="bridge" v="yes" />
		<tag k="layer" v="1" />
		<tag k="name" v="Fanabekken" />
		<tag k="ssr:stedsnr" v="897052" />
	</node>
	<node id="-62843" lat="60.8622138869" lon="5.98110277786">
		<tag k="bridge" v="yes" />
		<tag k="layer" v="1" />
		<tag k="name" v="Nåmdal" />
		<tag k="ssr:stedsnr" v="897050" />
	</node>
	<node id="-62687" lat="60.7923777766" lon="5.75616388483">
		<tag k="bridge" v="yes" />
		<tag k="layer" v="1" />
		<tag k="name" v="Slottet" />
		<tag k="ssr:stedsnr" v="472047" />
	</node>
	<node id="-63094" lat="60.8062777754" lon="5.76106110913">
		<tag k="layer" v="-1" />
		<tag k="name" v="Klubben I" />
		<tag k="ssr:stedsnr" v="529262" />
		<tag k="tunnel" v="yes" />
	</node>
	<node id="-63253" lat="60.8165277814" lon="5.79326944907">
		<tag k="bridge" v="yes" />
		<tag k="layer" v="1" />
		<tag k="name" v="Kvernhusbekken" />
		<tag k="ssr:stedsnr" v="836044" />
	</node>
	<node id="-62632" lat="60.8314944459" lon="5.8596666583">
		<tag k="bridge" v="yes" />
		<tag k="layer" v="1" />
		<tag k="name" v="Krossdalen" />
		<tag k="ssr:stedsnr" v="290063" />
	</node>
	<node id="-62649" lat="60.8407111099" lon="5.95344999132">
		<tag k="bridge" v="yes" />
		<tag k="layer" v="1" />
		<tag k="name" v="Åsmundselv" />
		<tag k="ssr:stedsnr" v="229053" />
	</node>
	<node id="-62621" lat="60.9340527821" lon="5.9718444511">
		<tag k="bridge" v="yes" />
		<tag k="layer" v="1" />
		<tag k="name" v="Steinsland" />
		<tag k="ssr:stedsnr" v="168069" />
	</node>
	<node id="-62667" lat="60.9021000041" lon="5.97327222048">
		<tag k="bridge" v="yes" />
		<tag k="layer" v="1" />
		<tag k="name" v="Tverrå" />
		<tag k="ssr:stedsnr" v="290056" />
	</node>
	<node id="-63050" lat="60.9149166622" lon="5.96792777557">
		<tag k="bridge" v="yes" />
		<tag k="layer" v="1" />
		<tag k="name" v="Reveå" />
		<tag k="ssr:stedsnr" v="350053" />
	</node>
	<node id="-63240" lat="60.8094777817" lon="5.77110555743">
		<tag k="layer" v="-1" />
		<tag k="name" v="Klubben II" />
		<tag k="ssr:stedsnr" v="833288" />
		<tag k="tunnel" v="yes" />
	</node>
	<node id="-62631" lat="60.9110194484" lon="5.96644166654">
		<tag k="bridge" v="yes" />
		<tag k="layer" v="1" />
		<tag k="name" v="Seters" />
		<tag k="ssr:stedsnr" v="290062" />
	</node>
	<node id="-63078" lat="60.8314777818" lon="5.89057499889">
		<tag k="bridge" v="yes" />
		<tag k="layer" v="1" />
		<tag k="name" v="Almelibotn" />
		<tag k="ssr:stedsnr" v="411060" />
	</node>
	<node id="-62849" lat="60.8450111126" lon="5.96900555546">
		<tag k="bridge" v="yes" />
		<tag k="layer" v="1" />
		<tag k="name" v="Kalsåsen" />
		<tag k="ssr:stedsnr" v="775057" />
	</node>
</osm>
