<?xml version="1.0" encoding="UTF-8"?>
<osm version="0.6" generator="osmapis">
	<node lat="60.94176111203539" lon="6.020486115498767" id="-75069">
		<tag k="fixme" v="consider natural=peak for the most distinct mountains in the district" />
		<tag k="name" v="Smørstakken" />
		<tag k="natural" v="hill" />
		<tag k="place" v="locality" />
		<tag k="ssr:stedsnr" v="8112" />
	</node>
	<node lat="60.9323000000157" lon="5.985200002177364" id="-75071">
		<tag k="name" v="Seglet" />
		<tag k="natural" v="gorge" />
		<tag k="ssr:stedsnr" v="8118" />
	</node>
	<node lat="60.773049995510036" lon="5.696583326480925" id="-75073">
		<tag k="fixme" v="consider natural=peak for the most distinct mountains in the district" />
		<tag k="name" v="Svida" />
		<tag k="natural" v="hill" />
		<tag k="place" v="locality" />
		<tag k="ssr:stedsnr" v="8476" />
	</node>
	<node lat="60.79210278171396" lon="5.791102782295193" id="-75074">
		<tag k="fixme" v="consider natural=peak for the most distinct mountains in the district" />
		<tag k="name" v="Klettane" />
		<tag k="natural" v="hill" />
		<tag k="place" v="locality" />
		<tag k="ssr:stedsnr" v="8492" />
	</node>
	<node lat="60.823191668923656" lon="5.740325002283351" id="-75078">
		<tag k="name" v="Sørdalen" />
		<tag k="natural" v="valley" />
		<tag k="place" v="locality" />
		<tag k="ssr:stedsnr" v="8950" />
	</node>
	<node lat="60.83151388977578" lon="5.893924992277998" id="-75079">
		<tag k="name" v="Botnen" />
		<tag k="natural" v="slope" />
		<tag k="place" v="locality" />
		<tag k="ssr:stedsnr" v="9112" />
	</node>
	<node lat="60.86384444585106" lon="5.910774996001548" id="-75081">
		<tag k="fixme" v="consider natural=peak for the most distinct mountains in the district" />
		<tag k="name" v="Kvitafjellet" />
		<tag k="natural" v="hill" />
		<tag k="place" v="locality" />
		<tag k="ssr:stedsnr" v="9151" />
	</node>
	<node lat="60.834805559052086" lon="5.977913879474182" id="-75083">
		<tag k="name" v="Sesskarberget" />
		<tag k="natural" v="hill" />
		<tag k="place" v="locality" />
		<tag k="ssr:stedsnr" v="9097" />
	</node>
	<node lat="60.83619166217614" lon="5.947833329497643" id="-75084">
		<tag k="name" v="Haugen" />
		<tag k="natural" v="hill" />
		<tag k="place" v="locality" />
		<tag k="ssr:stedsnr" v="9100" />
	</node>
	<node lat="60.83803055850897" lon="5.880688890038976" id="-75087">
		<tag k="name" v="Hestelia" />
		<tag k="natural" v="slope" />
		<tag k="place" v="locality" />
		<tag k="ssr:stedsnr" v="44605" />
	</node>
	<node lat="60.83745832995257" lon="5.888286119895054" id="-75088">
		<tag k="name" v="Verkalia" />
		<tag k="natural" v="slope" />
		<tag k="place" v="locality" />
		<tag k="ssr:stedsnr" v="44606" />
	</node>
	<node lat="60.83433055938329" lon="5.896322214016605" id="-75089">
		<tag k="fixme" v="consider natural=peak for the most distinct mountains in the district" />
		<tag k="name" v="Åsen" />
		<tag k="natural" v="hill" />
		<tag k="place" v="locality" />
		<tag k="ssr:stedsnr" v="44611" />
	</node>
	<node lat="60.83714166753497" lon="5.917497215854633" id="-75090">
		<tag k="fixme" v="consider natural=peak for the most distinct mountains in the district" />
		<tag k="name" v="Solliåsen" />
		<tag k="natural" v="hill" />
		<tag k="place" v="locality" />
		<tag k="ssr:stedsnr" v="44613" />
	</node>
	<node lat="60.82251111040408" lon="5.7516166732624265" id="-75091">
		<tag k="name" v="Bykset" />
		<tag k="natural" v="hill" />
		<tag k="place" v="locality" />
		<tag k="ssr:stedsnr" v="44628" />
	</node>
	<node lat="60.86004166829702" lon="5.85110277575552" id="-75092">
		<tag k="name" v="Tverrliane" />
		<tag k="natural" v="slope" />
		<tag k="place" v="locality" />
		<tag k="ssr:stedsnr" v="44501" />
	</node>
	<node lat="60.82944444031333" lon="5.843716659309794" id="-75093">
		<tag k="name" v="Eikhaugane" />
		<tag k="natural" v="hill" />
		<tag k="place" v="locality" />
		<tag k="ssr:stedsnr" v="44514" />
	</node>
	<node lat="60.814127778043584" lon="5.83178054849853" id="-75095">
		<tag k="name" v="Røyrtørne" />
		<tag k="place" v="locality" />
		<tag k="ssr:stedsnr" v="44527" />
	</node>
	<node lat="60.755491667314935" lon="5.683730548739372" id="-75097">
		<tag k="name" v="Storlia" />
		<tag k="natural" v="slope" />
		<tag k="place" v="locality" />
		<tag k="ssr:stedsnr" v="44591" />
	</node>
	<node lat="60.89779999598457" lon="5.9514416582432546" id="-75098">
		<tag k="name" v="Flærne" />
		<tag k="place" v="locality" />
		<tag k="ssr:stedsnr" v="226731" />
	</node>
	<node lat="60.9018055589695" lon="5.956822224176705" id="-75099">
		<tag k="name" v="Brualia" />
		<tag k="natural" v="slope" />
		<tag k="place" v="locality" />
		<tag k="ssr:stedsnr" v="226738" />
	</node>
	<node lat="60.77782777319182" lon="5.744880550235013" id="-75100">
		<tag k="name" v="Skjeggedalen" />
		<tag k="natural" v="valley" />
		<tag k="place" v="locality" />
		<tag k="ssr:stedsnr" v="47081" />
	</node>
	<node lat="60.785950004060744" lon="5.727097224535743" id="-75103">
		<tag k="fixme" v="consider natural=saddle" />
		<tag k="name" v="Skaret" />
		<tag k="natural" v="valley" />
		<tag k="place" v="locality" />
		<tag k="ssr:stedsnr" v="226644" />
	</node>
	<node lat="60.8277500033188" lon="5.811858325147023" id="-75104">
		<tag k="name" v="Austragjelet" />
		<tag k="natural" v="valley" />
		<tag k="place" v="locality" />
		<tag k="ssr:stedsnr" v="226645" />
	</node>
	<node lat="60.85829722430642" lon="5.84871110313311" id="-75105">
		<tag k="name" v="Sæterbrekka" />
		<tag k="natural" v="slope" />
		<tag k="place" v="locality" />
		<tag k="ssr:stedsnr" v="227514" />
	</node>
	<node lat="60.85711111019769" lon="5.844650002632335" id="-75106">
		<tag k="fixme" v="consider natural=saddle" />
		<tag k="name" v="Skaret" />
		<tag k="natural" v="valley" />
		<tag k="place" v="locality" />
		<tag k="ssr:stedsnr" v="227515" />
	</node>
	<node lat="60.82808888847368" lon="5.938972222632722" id="-75107">
		<tag k="name" v="Gangelia" />
		<tag k="natural" v="slope" />
		<tag k="place" v="locality" />
		<tag k="ssr:stedsnr" v="227521" />
	</node>
	<node lat="60.984913890362414" lon="6.060436107929216" id="-75110">
		<tag k="name" v="Åsabotnen" />
		<tag k="natural" v="valley" />
		<tag k="place" v="locality" />
		<tag k="ssr:stedsnr" v="69002" />
	</node>
	<node lat="60.764466663879745" lon="5.682366670830411" id="-75112">
		<tag k="fixme" v="consider natural=peak for the most distinct mountains in the district" />
		<tag k="name" v="Midtfjellet" />
		<tag k="natural" v="hill" />
		<tag k="place" v="locality" />
		<tag k="ssr:stedsnr" v="69034" />
	</node>
	<node lat="60.83785555220776" lon="5.958574994839568" id="-75114">
		<tag k="fixme" v="consider natural=peak for the most distinct mountains in the district" />
		<tag k="name" v="Kalvsåsen" />
		<tag k="natural" v="hill" />
		<tag k="place" v="locality" />
		<tag k="ssr:stedsnr" v="69130" />
	</node>
	<node lat="60.82092499788581" lon="5.876941661685557" id="-75115">
		<tag k="name" v="Almelidalen" />
		<tag k="natural" v="valley" />
		<tag k="place" v="locality" />
		<tag k="ssr:stedsnr" v="69132" />
	</node>
	<node lat="60.87680833778072" lon="5.889600008303665" id="-75116">
		<tag k="name" v="Borga" />
		<tag k="natural" v="valley" />
		<tag k="place" v="locality" />
		<tag k="ssr:stedsnr" v="69181" />
	</node>
	<node lat="60.859772219066" lon="5.9785388803401505" id="-75117">
		<tag k="name" v="Balane" />
		<tag k="place" v="locality" />
		<tag k="ssr:stedsnr" v="69196" />
	</node>
	<node lat="60.8501111100368" lon="5.860622219994149" id="-75120">
		<tag k="name" v="Kvitesvaa" />
		<tag k="place" v="locality" />
		<tag k="ssr:stedsnr" v="105525" />
	</node>
	<node lat="60.84228889344999" lon="5.850347228954301" id="-75123">
		<tag k="name" v="Eikelida" />
		<tag k="natural" v="slope" />
		<tag k="place" v="locality" />
		<tag k="ssr:stedsnr" v="105618" />
	</node>
	<node lat="60.83697777390661" lon="5.843291663509279" id="-75124">
		<tag k="fixme" v="consider natural=peak for the most distinct mountains in the district" />
		<tag k="name" v="Nærafjellet" />
		<tag k="natural" v="hill" />
		<tag k="place" v="locality" />
		<tag k="ssr:stedsnr" v="105623" />
	</node>
	<node lat="60.906008336707785" lon="6.01890832526472" id="-75125">
		<tag k="name" v="Steinevassbotn" />
		<tag k="natural" v="valley" />
		<tag k="place" v="locality" />
		<tag k="ssr:stedsnr" v="105726" />
	</node>
	<node lat="60.82169999685946" lon="5.925405552301403" id="-75127">
		<tag k="fixme" v="consider natural=peak for the most distinct mountains in the district" />
		<tag k="name" v="Trollavassfjellet" />
		<tag k="natural" v="hill" />
		<tag k="place" v="locality" />
		<tag k="ssr:stedsnr" v="130125" />
	</node>
	<node lat="60.82007777838578" lon="5.775494448451555" id="-75129">
		<tag k="name" v="Grannova" />
		<tag k="place" v="locality" />
		<tag k="ssr:stedsnr" v="165618" />
	</node>
	<node lat="60.83525555630107" lon="5.879149999159439" id="-75130">
		<tag k="name" v="Krana" />
		<tag k="place" v="locality" />
		<tag k="ssr:stedsnr" v="165603" />
	</node>
	<node lat="60.81678889182074" lon="5.7530138805992435" id="-75131">
		<tag k="name" v="Runnehaugen" />
		<tag k="natural" v="hill" />
		<tag k="place" v="locality" />
		<tag k="ssr:stedsnr" v="165626" />
	</node>
	<node lat="60.72457500250557" lon="5.715802774716396" id="-75132">
		<tag k="name" v="Flånakken" />
		<tag k="natural" v="ridge" />
		<tag k="place" v="locality" />
		<tag k="ssr:stedsnr" v="165561" />
	</node>
	<node lat="60.753874999869346" lon="5.664311106141656" id="-75133">
		<tag k="fixme" v="consider natural=peak for the most distinct mountains in the district" />
		<tag k="name" v="Storlifjellet" />
		<tag k="natural" v="hill" />
		<tag k="place" v="locality" />
		<tag k="ssr:stedsnr" v="165580" />
	</node>
	<node lat="60.8863833337402" lon="6.045424990936729" id="-75134">
		<tag k="name" v="Øykjabotn" />
		<tag k="natural" v="valley" />
		<tag k="place" v="locality" />
		<tag k="ssr:stedsnr" v="166517" />
	</node>
	<node lat="60.83651944677945" lon="5.951702775505999" id="-75135">
		<tag k="name" v="Giljane" />
		<tag k="natural" v="hill" />
		<tag k="place" v="locality" />
		<tag k="ssr:stedsnr" v="166555" />
	</node>
	<node lat="60.9193277772008" lon="5.9537611130693335" id="-75136">
		<tag k="name" v="Øyjordsberget" />
		<tag k="natural" v="hill" />
		<tag k="place" v="locality" />
		<tag k="ssr:stedsnr" v="166703" />
	</node>
	<node lat="60.98709166598388" lon="5.980633336958762" id="-75138">
		<tag k="name" v="Austrebotnen" />
		<tag k="natural" v="valley" />
		<tag k="place" v="locality" />
		<tag k="ssr:stedsnr" v="251005" />
	</node>
	<node lat="60.965625003755946" lon="6.034549995109874" id="-75142">
		<tag k="name" v="Verkalia" />
		<tag k="natural" v="slope" />
		<tag k="place" v="locality" />
		<tag k="ssr:stedsnr" v="251031" />
	</node>
	<node lat="60.901838888059636" lon="6.004749995875657" id="-75144">
		<tag k="name" v="Kyrabotnane" />
		<tag k="natural" v="valley" />
		<tag k="place" v="locality" />
		<tag k="ssr:stedsnr" v="251083" />
	</node>
	<node lat="60.953361113015205" lon="5.913124996845221" id="-75145">
		<tag k="fixme" v="consider natural=peak for the most distinct mountains in the district" />
		<tag k="name" v="Eldhusfjellet" />
		<tag k="natural" v="hill" />
		<tag k="place" v="locality" />
		<tag k="ssr:stedsnr" v="251112" />
	</node>
	<node lat="60.94901666704106" lon="6.107527777983796" id="-75148">
		<tag k="name" v="Sørdalen" />
		<tag k="natural" v="valley" />
		<tag k="place" v="locality" />
		<tag k="ssr:stedsnr" v="190119" />
	</node>
	<node lat="60.831866669375586" lon="5.725744445672587" id="-75151">
		<tag k="alt_name" v="Sødalsfjellet" />
		<tag k="fixme" v="consider natural=peak for the most distinct mountains in the district" />
		<tag k="name" v="Sørdalsfjellet" />
		<tag k="natural" v="hill" />
		<tag k="place" v="locality" />
		<tag k="ssr:stedsnr" v="190402" />
	</node>
	<node lat="60.83708611519391" lon="5.752255560049477" id="-75152">
		<tag k="fixme" v="consider natural=peak for the most distinct mountains in the district" />
		<tag k="name" v="Knausafjellet" />
		<tag k="natural" v="hill" />
		<tag k="place" v="locality" />
		<tag k="ssr:stedsnr" v="190417" />
	</node>
	<node lat="60.85111110923556" lon="5.760794446443487" id="-75153">
		<tag k="fixme" v="consider natural=peak for the most distinct mountains in the district" />
		<tag k="name" v="Tverrfjellet" />
		<tag k="natural" v="hill" />
		<tag k="place" v="locality" />
		<tag k="ssr:stedsnr" v="190420" />
	</node>
	<node lat="60.84757777892792" lon="5.767800005807709" id="-75154">
		<tag k="name" v="Dyrabotnen" />
		<tag k="natural" v="valley" />
		<tag k="place" v="locality" />
		<tag k="ssr:stedsnr" v="190422" />
	</node>
	<node lat="60.78458333338947" lon="5.7742500032052" id="-75155">
		<tag k="name" v="Bjørnabotnen" />
		<tag k="natural" v="valley" />
		<tag k="place" v="locality" />
		<tag k="ssr:stedsnr" v="190466" />
	</node>
	<node lat="60.782491667634574" lon="5.699433335517551" id="-75157">
		<tag k="name" v="Moltebotnen" />
		<tag k="natural" v="valley" />
		<tag k="place" v="locality" />
		<tag k="ssr:stedsnr" v="190475" />
	</node>
	<node lat="60.84377778076523" lon="5.872977780002203" id="-75158">
		<tag k="fixme" v="consider natural=peak for the most distinct mountains in the district" />
		<tag k="name" v="Storfjellet" />
		<tag k="natural" v="hill" />
		<tag k="place" v="locality" />
		<tag k="ssr:stedsnr" v="190827" />
	</node>
	<node lat="60.8904888866645" lon="5.954663892126053" id="-75159">
		<tag k="fixme" v="consider natural=peak for the most distinct mountains in the district" />
		<tag k="name" v="Stortona" />
		<tag k="natural" v="hill" />
		<tag k="place" v="locality" />
		<tag k="ssr:stedsnr" v="191066" />
	</node>
	<node lat="61.01168888809868" lon="5.928691664386079" id="-75161">
		<tag k="fixme" v="consider natural=peak for the most distinct mountains in the district" />
		<tag k="name" v="Sundagsfjellet" />
		<tag k="natural" v="hill" />
		<tag k="place" v="locality" />
		<tag k="ssr:stedsnr" v="251386" />
	</node>
	<node lat="60.77396111024711" lon="5.714130554626633" id="-75166">
		<tag k="name" v="Kjemmagjela" />
		<tag k="place" v="locality" />
		<tag k="ssr:stedsnr" v="226610" />
	</node>
	<node lat="60.77023889058839" lon="5.6832138804842876" id="-75167">
		<tag k="name" v="Stølsdalen" />
		<tag k="natural" v="valley" />
		<tag k="place" v="locality" />
		<tag k="ssr:stedsnr" v="226615" />
	</node>
	<node lat="60.770563885304924" lon="5.677636106749441" id="-75168">
		<tag k="name" v="Kroksdalen" />
		<tag k="natural" v="valley" />
		<tag k="place" v="locality" />
		<tag k="ssr:stedsnr" v="226616" />
	</node>
	<node lat="60.82901111171841" lon="5.8933833343694735" id="-75169">
		<tag k="name" v="Botnatoa" />
		<tag k="natural" v="valley" />
		<tag k="place" v="locality" />
		<tag k="ssr:stedsnr" v="226562" />
	</node>
	<node lat="60.82440277497741" lon="5.75416111795904" id="-75171">
		<tag k="name" v="Nedstafallet" />
		<tag k="place" v="locality" />
		<tag k="ssr:stedsnr" v="226650" />
	</node>
	<node lat="60.89348055487247" lon="6.00146945017475" id="-75172">
		<tag k="fixme" v="consider natural=peak for the most distinct mountains in the district" />
		<tag k="name" v="Støfjellet" />
		<tag k="natural" v="hill" />
		<tag k="place" v="locality" />
		<tag k="ssr:stedsnr" v="226746" />
	</node>
	<node lat="60.85299999781106" lon="5.957886119336323" id="-75174">
		<tag k="name" v="Gjellane" />
		<tag k="place" v="locality" />
		<tag k="ssr:stedsnr" v="227553" />
	</node>
	<node lat="60.818566662706736" lon="5.920775005993251" id="-75180">
		<tag k="name" v="Almelibotnen" />
		<tag k="natural" v="valley" />
		<tag k="place" v="locality" />
		<tag k="ssr:stedsnr" v="251158" />
	</node>
	<node lat="60.9569277764431" lon="6.072758336257811" id="-75181">
		<tag k="fixme" v="consider natural=peak for the most distinct mountains in the district" />
		<tag k="name" v="Sørdalsrinden" />
		<tag k="natural" v="hill" />
		<tag k="place" v="locality" />
		<tag k="ssr:stedsnr" v="251109" />
	</node>
	<node lat="60.80972499779531" lon="5.728083327589708" id="-75183">
		<tag k="name" v="Sauabotnen" />
		<tag k="natural" v="valley" />
		<tag k="place" v="locality" />
		<tag k="ssr:stedsnr" v="251512" />
	</node>
	<node lat="60.87766666339705" lon="6.0072472151149165" id="-75187">
		<tag k="name" v="Hovden" />
		<tag k="natural" v="hill" />
		<tag k="place" v="locality" />
		<tag k="ssr:stedsnr" v="287603" />
	</node>
	<node lat="60.751269446967626" lon="5.745830555598379" id="-75188">
		<tag k="fixme" v="consider natural=peak for the most distinct mountains in the district" />
		<tag k="name" v="Toppfjellet" />
		<tag k="natural" v="hill" />
		<tag k="place" v="locality" />
		<tag k="ssr:stedsnr" v="287607" />
	</node>
	<node lat="60.77601388673035" lon="5.734713890545571" id="-75189">
		<tag k="name" v="Skjeggevikhelleren" />
		<tag k="place" v="locality" />
		<tag k="ssr:stedsnr" v="287612" />
	</node>
	<node lat="60.84882222116989" lon="5.846483337908391" id="-75191">
		<tag k="name" v="Skavlen" />
		<tag k="place" v="locality" />
		<tag k="ssr:stedsnr" v="287552" />
	</node>
	<node lat="60.88646389147233" lon="6.018202770949783" id="-75192">
		<tag k="fixme" v="consider natural=peak for the most distinct mountains in the district" />
		<tag k="name" v="Krossåsen" />
		<tag k="natural" v="hill" />
		<tag k="place" v="locality" />
		<tag k="ssr:stedsnr" v="287555" />
	</node>
	<node lat="60.82945278167756" lon="5.878394441058589" id="-75193">
		<tag k="name" v="Storhaugen" />
		<tag k="natural" v="hill" />
		<tag k="place" v="locality" />
		<tag k="ssr:stedsnr" v="287559" />
	</node>
	<node lat="60.82956667069855" lon="5.905102770792275" id="-75194">
		<tag k="fixme" v="consider natural=peak for the most distinct mountains in the district" />
		<tag k="name" v="Åsane" />
		<tag k="natural" v="hill" />
		<tag k="place" v="locality" />
		<tag k="ssr:stedsnr" v="287562" />
	</node>
	<node lat="60.95768333508428" lon="6.062119443292201" id="-75196">
		<tag k="name" v="Skålebotnen" />
		<tag k="natural" v="valley" />
		<tag k="place" v="locality" />
		<tag k="ssr:stedsnr" v="311117" />
	</node>
	<node lat="60.86582221920093" lon="6.0062111056531915" id="-75200">
		<tag k="name" v="Krossdalen" />
		<tag k="natural" v="valley" />
		<tag k="place" v="locality" />
		<tag k="ssr:stedsnr" v="312139" />
	</node>
	<node lat="60.82488611397681" lon="5.8093666618477835" id="-75201">
		<tag k="fixme" v="consider natural=peak for the most distinct mountains in the district" />
		<tag k="name" v="Husafjellet" />
		<tag k="natural" v="hill" />
		<tag k="place" v="locality" />
		<tag k="ssr:stedsnr" v="312494" />
	</node>
	<node lat="60.89363889308743" lon="6.014069446333278" id="-75204">
		<tag k="name" v="Ørne Kråa" />
		<tag k="place" v="locality" />
		<tag k="ssr:stedsnr" v="348673" />
	</node>
	<node lat="60.91476111246383" lon="5.95895555012671" id="-75205">
		<tag k="name" v="Furhaugane" />
		<tag k="natural" v="hill" />
		<tag k="place" v="locality" />
		<tag k="ssr:stedsnr" v="348688" />
	</node>
	<node lat="60.74365277422725" lon="5.673483341858418" id="-75206">
		<tag k="fixme" v="consider natural=peak for the most distinct mountains in the district" />
		<tag k="name" v="Åsen" />
		<tag k="natural" v="hill" />
		<tag k="place" v="locality" />
		<tag k="ssr:stedsnr" v="370495" />
	</node>
	<node lat="60.879105553425255" lon="6.018383336453395" id="-75210">
		<tag k="fixme" v="consider natural=peak for the most distinct mountains in the district" />
		<tag k="name" v="Skrednipa" />
		<tag k="natural" v="hill" />
		<tag k="place" v="locality" />
		<tag k="ssr:stedsnr" v="372171" />
	</node>
	<node lat="60.86526666689679" lon="5.86431665898376" id="-75212">
		<tag k="name" v="Seljedalen" />
		<tag k="natural" v="valley" />
		<tag k="place" v="locality" />
		<tag k="ssr:stedsnr" v="372177" />
	</node>
	<node lat="60.839277779373944" lon="5.993819441731" id="-75213">
		<tag k="fixme" v="consider natural=peak for the most distinct mountains in the district" />
		<tag k="name" v="Sørskarfjellet" />
		<tag k="natural" v="hill" />
		<tag k="place" v="locality" />
		<tag k="ssr:stedsnr" v="373106" />
	</node>
	<node lat="60.763461114657794" lon="5.668524997445865" id="-75215">
		<tag k="name" v="Storbotsdalen" />
		<tag k="natural" v="valley" />
		<tag k="place" v="locality" />
		<tag k="ssr:stedsnr" v="468537" />
	</node>
	<node lat="60.76947499901328" lon="5.786527784281933" id="-75216">
		<tag k="fixme" v="consider natural=peak for the most distinct mountains in the district" />
		<tag k="name" v="Slettafjellet" />
		<tag k="natural" v="hill" />
		<tag k="place" v="locality" />
		<tag k="ssr:stedsnr" v="468543" />
	</node>
	<node lat="60.85176944233247" lon="5.84507778343496" id="-75217">
		<tag k="name" v="Blombotn" />
		<tag k="natural" v="valley" />
		<tag k="place" v="locality" />
		<tag k="ssr:stedsnr" v="469542" />
	</node>
	<node lat="60.827475001028375" lon="5.8360805575632835" id="-75218">
		<tag k="name" v="Svalia" />
		<tag k="natural" v="slope" />
		<tag k="place" v="locality" />
		<tag k="ssr:stedsnr" v="469553" />
	</node>
	<node lat="60.831094441922545" lon="5.84832500140753" id="-75219">
		<tag k="name" v="Stegahamrane" />
		<tag k="natural" v="hill" />
		<tag k="place" v="locality" />
		<tag k="ssr:stedsnr" v="469554" />
	</node>
	<node lat="60.91271944766727" lon="5.945108326529923" id="-75224">
		<tag k="name" v="Seglet" />
		<tag k="place" v="locality" />
		<tag k="ssr:stedsnr" v="469737" />
	</node>
	<node lat="60.93017777726711" lon="5.979549993024023" id="-75225">
		<tag k="name" v="Leitet" />
		<tag k="natural" v="hill" />
		<tag k="place" v="locality" />
		<tag k="ssr:stedsnr" v="469748" />
	</node>
	<node lat="60.751055553141015" lon="5.701233326285635" id="-75228">
		<tag k="name" v="Kjetoberget" />
		<tag k="natural" v="hill" />
		<tag k="place" v="locality" />
		<tag k="ssr:stedsnr" v="408574" />
	</node>
	<node lat="60.865927776494225" lon="5.987419449501513" id="-75229">
		<tag k="name" v="Kåsane" />
		<tag k="place" v="locality" />
		<tag k="ssr:stedsnr" v="409560" />
	</node>
	<node lat="60.94328611510024" lon="5.975316662986363" id="-75230">
		<tag k="name" v="Halsen" />
		<tag k="natural" v="ridge" />
		<tag k="place" v="locality" />
		<tag k="ssr:stedsnr" v="409711" />
	</node>
	<node lat="60.735024999656474" lon="5.7351250070946955" id="-75232">
		<tag k="alt_name" v="Norenakken" />
		<tag k="fixme" v="consider natural=peak for the most distinct mountains in the district" />
		<tag k="name" v="Nordrenakken" />
		<tag k="natural" v="hill" />
		<tag k="place" v="locality" />
		<tag k="ssr:stedsnr" v="431321" />
	</node>
	<node lat="60.95496111206444" lon="6.082730556275485" id="-75235">
		<tag k="name" v="Rindadalen" />
		<tag k="natural" v="valley" />
		<tag k="place" v="locality" />
		<tag k="ssr:stedsnr" v="433115" />
	</node>
	<node lat="60.94455832959505" lon="5.947113894161403" id="-75236">
		<tag k="fixme" v="consider natural=peak for the most distinct mountains in the district" />
		<tag k="name" v="Sylvberget" />
		<tag k="natural" v="hill" />
		<tag k="place" v="locality" />
		<tag k="ssr:stedsnr" v="433119" />
	</node>
	<node lat="60.903886113245534" lon="6.006699998997055" id="-75237">
		<tag k="name" v="Ukristna" />
		<tag k="natural" v="slope" />
		<tag k="place" v="locality" />
		<tag k="ssr:stedsnr" v="433091" />
	</node>
	<node lat="60.904613886040245" lon="6.023750001154276" id="-75238">
		<tag k="fixme" v="consider natural=peak for the most distinct mountains in the district" />
		<tag k="name" v="Oksla" />
		<tag k="natural" v="hill" />
		<tag k="place" v="locality" />
		<tag k="ssr:stedsnr" v="433101" />
	</node>
	<node lat="60.90369999671818" lon="5.836133340136591" id="-75239">
		<tag k="fixme" v="consider natural=peak for the most distinct mountains in the district" />
		<tag k="name" v="Skjerjavassryggen" />
		<tag k="natural" v="hill" />
		<tag k="place" v="locality" />
		<tag k="ssr:stedsnr" v="433335" />
	</node>
	<node lat="60.97465833508923" lon="6.111741667477875" id="-75240">
		<tag k="name" v="Hjellane" />
		<tag k="place" v="locality" />
		<tag k="ssr:stedsnr" v="434007" />
	</node>
	<node lat="60.83641666813894" lon="6.037769443393176" id="-75242">
		<tag k="fixme" v="consider natural=peak for the most distinct mountains in the district" />
		<tag k="loc_name" v="Øykjafjellet" />
		<tag k="name" v="Øykafjellet" />
		<tag k="natural" v="hill" />
		<tag k="place" v="locality" />
		<tag k="ssr:stedsnr" v="434112" />
	</node>
	<node lat="60.814083332730235" lon="5.859541665609168" id="-75243">
		<tag k="fixme" v="consider natural=saddle" />
		<tag k="name" v="Modalsskaret" />
		<tag k="natural" v="valley" />
		<tag k="place" v="locality" />
		<tag k="ssr:stedsnr" v="434133" />
	</node>
	<node lat="60.826269440355084" lon="5.954849997466119" id="-75244">
		<tag k="name" v="Såta" />
		<tag k="natural" v="hill" />
		<tag k="place" v="locality" />
		<tag k="ssr:stedsnr" v="434135" />
	</node>
	<node lat="60.78298610723965" lon="5.737461106311321" id="-75248">
		<tag k="name" v="Skjeggevikdalen" />
		<tag k="natural" v="valley" />
		<tag k="place" v="locality" />
		<tag k="ssr:stedsnr" v="468588" />
	</node>
	<node lat="60.826008333645895" lon="5.753938895240092" id="-75249">
		<tag k="name" v="Øvstafallet" />
		<tag k="place" v="locality" />
		<tag k="ssr:stedsnr" v="468593" />
	</node>
	<node lat="60.85458333327683" lon="5.9760916629413865" id="-75250">
		<tag k="name" v="Langhaugen" />
		<tag k="natural" v="hill" />
		<tag k="place" v="locality" />
		<tag k="ssr:stedsnr" v="469571" />
	</node>
	<node lat="60.84723888809838" lon="5.9508499946146145" id="-75251">
		<tag k="name" v="Vetletunga" />
		<tag k="place" v="locality" />
		<tag k="ssr:stedsnr" v="469572" />
	</node>
	<node lat="60.84233889209128" lon="5.957311113087273" id="-75253">
		<tag k="name" v="Furehaugane" />
		<tag k="natural" v="hill" />
		<tag k="place" v="locality" />
		<tag k="ssr:stedsnr" v="469586" />
	</node>
	<node lat="60.876747218270566" lon="6.012527774352991" id="-75254">
		<tag k="name" v="Hovdenberget" />
		<tag k="natural" v="hill" />
		<tag k="place" v="locality" />
		<tag k="ssr:stedsnr" v="469596" />
	</node>
	<node lat="60.89924722642845" lon="5.98466110804204" id="-75255">
		<tag k="name" v="Geithelleren" />
		<tag k="place" v="locality" />
		<tag k="ssr:stedsnr" v="469729" />
	</node>
	<node lat="60.833936110823856" lon="5.938713897496332" id="-75257">
		<tag k="name" v="Heiane" />
		<tag k="natural" v="slope" />
		<tag k="place" v="locality" />
		<tag k="ssr:stedsnr" v="494115" />
	</node>
	<node lat="60.81654999792417" lon="5.894402772992531" id="-75259">
		<tag k="name" v="Stølsdalen" />
		<tag k="natural" v="valley" />
		<tag k="place" v="locality" />
		<tag k="ssr:stedsnr" v="494127" />
	</node>
	<node lat="60.834499999530045" lon="5.823263886600408" id="-75260">
		<tag k="fixme" v="consider natural=peak for the most distinct mountains in the district" />
		<tag k="name" v="Tofjellet" />
		<tag k="natural" v="hill" />
		<tag k="place" v="locality" />
		<tag k="ssr:stedsnr" v="494343" />
	</node>
	<node lat="60.93185000196094" lon="6.1025138817413955" id="-75261">
		<tag k="fixme" v="consider natural=saddle" />
		<tag k="name" v="Sørdalsskaret" />
		<tag k="natural" v="valley" />
		<tag k="place" v="locality" />
		<tag k="ssr:stedsnr" v="675145" />
	</node>
	<node lat="60.777808334484085" lon="5.689788880917998" id="-75262">
		<tag k="name" v="Sætradalen" />
		<tag k="natural" v="valley" />
		<tag k="place" v="locality" />
		<tag k="ssr:stedsnr" v="675478" />
	</node>
	<node lat="60.851802781059874" lon="5.782386105107191" id="-75263">
		<tag k="fixme" v="consider natural=peak for the most distinct mountains in the district" />
		<tag k="name" v="Høganipa" />
		<tag k="natural" v="hill" />
		<tag k="place" v="locality" />
		<tag k="ssr:stedsnr" v="675442" />
	</node>
	<node lat="60.79472500097727" lon="5.756180549705211" id="-75264">
		<tag k="fixme" v="consider natural=peak for the most distinct mountains in the district" />
		<tag k="name" v="Slottet" />
		<tag k="natural" v="hill" />
		<tag k="place" v="locality" />
		<tag k="ssr:stedsnr" v="675491" />
	</node>
	<node lat="60.815297222923384" lon="5.776311118329747" id="-75267">
		<tag k="name" v="Magnehjellane" />
		<tag k="place" v="locality" />
		<tag k="ssr:stedsnr" v="529613" />
	</node>
	<node lat="60.83890277420868" lon="5.8572527790928826" id="-75268">
		<tag k="name" v="Esphaugen" />
		<tag k="natural" v="hill" />
		<tag k="place" v="locality" />
		<tag k="ssr:stedsnr" v="529588" />
	</node>
	<node lat="60.95876111168528" lon="5.984502770487153" id="-75269">
		<tag k="fixme" v="consider natural=peak for the most distinct mountains in the district" />
		<tag k="name" v="Mona" />
		<tag k="natural" v="hill" />
		<tag k="place" v="locality" />
		<tag k="ssr:stedsnr" v="676027" />
	</node>
	<node lat="60.886050000340326" lon="5.9847749909839525" id="-75271">
		<tag k="name" v="Stalleleitet" />
		<tag k="natural" v="slope" />
		<tag k="place" v="locality" />
		<tag k="ssr:stedsnr" v="530537" />
	</node>
	<node lat="60.84569722499452" lon="5.94428055035661" id="-75272">
		<tag k="name" v="Stortunga" />
		<tag k="place" v="locality" />
		<tag k="ssr:stedsnr" v="530579" />
	</node>
	<node lat="60.83967777495032" lon="5.972261114419377" id="-75273">
		<tag k="name" v="Bjørkhaugane" />
		<tag k="natural" v="hill" />
		<tag k="place" v="locality" />
		<tag k="ssr:stedsnr" v="530585" />
	</node>
	<node lat="60.89278333542985" lon="5.949324999480975" id="-75275">
		<tag k="name" v="Tverråbotn" />
		<tag k="natural" v="valley" />
		<tag k="place" v="locality" />
		<tag k="ssr:stedsnr" v="530705" />
	</node>
	<node lat="60.90434444892651" lon="5.963361113466403" id="-75278">
		<tag k="name" v="Nålten" />
		<tag k="place" v="locality" />
		<tag k="ssr:stedsnr" v="530701" />
	</node>
	<node lat="60.887230556111405" lon="5.994374997018384" id="-75282">
		<tag k="fixme" v="consider natural=peak for the most distinct mountains in the district" />
		<tag k="name" v="Geitnipa" />
		<tag k="natural" v="hill" />
		<tag k="place" v="locality" />
		<tag k="ssr:stedsnr" v="676091" />
	</node>
	<node lat="60.802786113209876" lon="5.795199995037493" id="-75283">
		<tag k="fixme" v="consider natural=saddle" />
		<tag k="name" v="Geitaskaret" />
		<tag k="natural" v="valley" />
		<tag k="place" v="locality" />
		<tag k="ssr:stedsnr" v="676471" />
	</node>
	<node lat="60.957352776149015" lon="6.129663892793853" id="-75284">
		<tag k="fixme" v="consider natural=peak for the most distinct mountains in the district" />
		<tag k="name" v="Hornafjellet" />
		<tag k="natural" v="hill" />
		<tag k="place" v="locality" />
		<tag k="ssr:stedsnr" v="554105" />
	</node>
	<node lat="60.82836110949867" lon="5.754833340144104" id="-75296">
		<tag k="fixme" v="consider natural=peak for the most distinct mountains in the district" />
		<tag k="name" v="Laurdagsfjellet" />
		<tag k="natural" v="hill" />
		<tag k="place" v="locality" />
		<tag k="ssr:stedsnr" v="554406" />
	</node>
	<node lat="60.833550000292405" lon="5.775938895282883" id="-75297">
		<tag k="fixme" v="consider natural=peak for the most distinct mountains in the district" />
		<tag k="name" v="Rusta" />
		<tag k="natural" v="hill" />
		<tag k="place" v="locality" />
		<tag k="ssr:stedsnr" v="554408" />
	</node>
	<node lat="60.790288884967026" lon="5.698905554067991" id="-75298">
		<tag k="name" v="Tverrbotnen" />
		<tag k="natural" v="valley" />
		<tag k="place" v="locality" />
		<tag k="ssr:stedsnr" v="554483" />
	</node>
	<node lat="60.801324997100984" lon="5.810663881521108" id="-75299">
		<tag k="fixme" v="consider natural=peak for the most distinct mountains in the district" />
		<tag k="name" v="Øykjafjellet" />
		<tag k="natural" v="hill" />
		<tag k="place" v="locality" />
		<tag k="ssr:stedsnr" v="554506" />
	</node>
	<node lat="60.816125002790294" lon="5.947300004406988" id="-75300">
		<tag k="name" v="Tverrdalen" />
		<tag k="natural" v="valley" />
		<tag k="place" v="locality" />
		<tag k="ssr:stedsnr" v="554837" />
	</node>
	<node lat="60.843941662567545" lon="5.737936108722492" id="-75302">
		<tag k="fixme" v="consider natural=peak for the most distinct mountains in the district" />
		<tag k="name" v="Torrisskarfjellet" />
		<tag k="natural" v="hill" />
		<tag k="place" v="locality" />
		<tag k="ssr:stedsnr" v="590622" />
	</node>
	<node lat="60.903352777464406" lon="5.981402776959232" id="-75304">
		<tag k="name" v="Merkeskråa" />
		<tag k="place" v="locality" />
		<tag k="ssr:stedsnr" v="590709" />
	</node>
	<node lat="60.907119443738736" lon="5.959711102247894" id="-75305">
		<tag k="name" v="Illebrekkene" />
		<tag k="natural" v="slope" />
		<tag k="place" v="locality" />
		<tag k="ssr:stedsnr" v="590720" />
	</node>
	<node lat="60.850099999723284" lon="6.019308324894305" id="-75306">
		<tag k="name" v="Storebotn" />
		<tag k="natural" v="valley" />
		<tag k="place" v="locality" />
		<tag k="ssr:stedsnr" v="590724" />
	</node>
	<node lat="60.939594444440594" lon="5.950877784207929" id="-75307">
		<tag k="fixme" v="consider natural=peak for the most distinct mountains in the district" />
		<tag k="name" v="Grånova" />
		<tag k="natural" v="hill" />
		<tag k="place" v="locality" />
		<tag k="ssr:stedsnr" v="614104" />
	</node>
	<node lat="60.8539083305696" lon="5.808549993621241" id="-75308">
		<tag k="fixme" v="consider natural=peak for the most distinct mountains in the district" />
		<tag k="name" v="Kupefjellet" />
		<tag k="natural" v="hill" />
		<tag k="place" v="locality" />
		<tag k="ssr:stedsnr" v="614405" />
	</node>
	<node lat="60.97000277817962" lon="6.1329611079913295" id="-75309">
		<tag k="name" v="Storehaugen" />
		<tag k="natural" v="hill" />
		<tag k="place" v="locality" />
		<tag k="ssr:stedsnr" v="615025" />
	</node>
	<node lat="60.84175833761123" lon="5.777597227865885" id="-75313">
		<tag k="fixme" v="consider natural=peak for the most distinct mountains in the district" />
		<tag k="name" v="Høgahjellsnipa" />
		<tag k="natural" v="hill" />
		<tag k="place" v="locality" />
		<tag k="ssr:stedsnr" v="615372" />
	</node>
	<node lat="60.79882778040082" lon="5.752052779635776" id="-75314">
		<tag k="name" v="Hestabotnen" />
		<tag k="natural" v="valley" />
		<tag k="place" v="locality" />
		<tag k="ssr:stedsnr" v="615459" />
	</node>
	<node lat="60.884724998672255" lon="5.966758339339398" id="-75316">
		<tag k="name" v="Skavlane" />
		<tag k="natural" v="hill" />
		<tag k="place" v="locality" />
		<tag k="ssr:stedsnr" v="651540" />
	</node>
	<node lat="60.83220277572301" lon="5.844683325503386" id="-75317">
		<tag k="name" v="Botnane" />
		<tag k="natural" v="valley" />
		<tag k="place" v="locality" />
		<tag k="ssr:stedsnr" v="651542" />
	</node>
	<node lat="60.916036109262706" lon="5.976538896387867" id="-75318">
		<tag k="name" v="Ræholna" />
		<tag k="place" v="locality" />
		<tag k="ssr:stedsnr" v="651704" />
	</node>
	<node lat="60.938027781839295" lon="5.980261103765864" id="-75319">
		<tag k="name" v="Haugen" />
		<tag k="natural" v="hill" />
		<tag k="place" v="locality" />
		<tag k="ssr:stedsnr" v="675128" />
	</node>
	<node lat="60.78396110931138" lon="5.716833338469336" id="-75320">
		<tag k="fixme" v="consider natural=peak for the most distinct mountains in the district" />
		<tag k="name" v="Raunefjellet" />
		<tag k="natural" v="hill" />
		<tag k="place" v="locality" />
		<tag k="ssr:stedsnr" v="675471" />
	</node>
	<node lat="60.77182499565076" lon="5.730019436219549" id="-75321">
		<tag k="fixme" v="consider natural=peak for the most distinct mountains in the district" />
		<tag k="name" v="Flotaneset" />
		<tag k="natural" v="hill" />
		<tag k="place" v="locality" />
		<tag k="ssr:stedsnr" v="676044" />
	</node>
	<node lat="60.76808888797268" lon="5.747980557787889" id="-75322">
		<tag k="fixme" v="consider natural=peak for the most distinct mountains in the district" />
		<tag k="name" v="Veslafjellet" />
		<tag k="natural" v="hill" />
		<tag k="place" v="locality" />
		<tag k="ssr:stedsnr" v="676045" />
	</node>
	<node lat="60.87683889148362" lon="6.054075004526529" id="-75325">
		<tag k="name" v="Reinshjellane" />
		<tag k="place" v="locality" />
		<tag k="ssr:stedsnr" v="676154" />
	</node>
	<node lat="60.871508330691505" lon="6.034405561336616" id="-75326">
		<tag k="fixme" v="consider natural=peak for the most distinct mountains in the district" />
		<tag k="name" v="Blånipa" />
		<tag k="natural" v="hill" />
		<tag k="place" v="locality" />
		<tag k="ssr:stedsnr" v="676156" />
	</node>
	<node lat="60.829772218588325" lon="5.92834444630609" id="-75327">
		<tag k="name" v="Berget" />
		<tag k="natural" v="hill" />
		<tag k="place" v="locality" />
		<tag k="ssr:stedsnr" v="711612" />
	</node>
	<node lat="60.76898333244582" lon="5.726133341847293" id="-75328">
		<tag k="name" v="Trollgjel" />
		<tag k="place" v="locality" />
		<tag k="ssr:stedsnr" v="711614" />
	</node>
	<node lat="60.80987499617525" lon="5.848688889614793" id="-75329">
		<tag k="fixme" v="consider natural=peak for the most distinct mountains in the district" />
		<tag k="name" v="Øvrefjellet" />
		<tag k="natural" v="hill" />
		<tag k="place" v="locality" />
		<tag k="ssr:stedsnr" v="712509" />
	</node>
	<node lat="60.808038886461276" lon="5.899169447271949" id="-75330">
		<tag k="fixme" v="consider natural=peak for the most distinct mountains in the district" />
		<tag k="name" v="Jorskarnova" />
		<tag k="natural" v="hill" />
		<tag k="place" v="locality" />
		<tag k="ssr:stedsnr" v="712511" />
	</node>
	<node lat="60.867888890310496" lon="5.997527784318985" id="-75331">
		<tag k="name" v="Skorvstallane" />
		<tag k="place" v="locality" />
		<tag k="ssr:stedsnr" v="712516" />
	</node>
	<node lat="60.86202778074956" lon="5.850580559062606" id="-75332">
		<tag k="name" v="Alldalen" />
		<tag k="natural" v="valley" />
		<tag k="place" v="locality" />
		<tag k="ssr:stedsnr" v="712486" />
	</node>
	<node lat="60.902461109249195" lon="6.021813892889494" id="-75334">
		<tag k="name" v="Aksla" />
		<tag k="natural" v="ridge" />
		<tag k="place" v="locality" />
		<tag k="ssr:stedsnr" v="712684" />
	</node>
	<node lat="60.90422222096572" lon="6.028513884876379" id="-75335">
		<tag k="name" v="Seilæ" />
		<tag k="place" v="locality" />
		<tag k="ssr:stedsnr" v="712686" />
	</node>
	<node lat="60.90680833213076" lon="6.015313890159502" id="-75336">
		<tag k="name" v="Fitjane" />
		<tag k="place" v="locality" />
		<tag k="ssr:stedsnr" v="712698" />
	</node>
	<node lat="60.811258335866505" lon="5.9241638833748365" id="-75340">
		<tag k="fixme" v="multiple name tags, choose one and add the other to alt_name; consider natural=peak for the most distinct mountains in the district" />
		<tag k="name" v="Gjøttefjellet;Høgafjellet" />
		<tag k="natural" v="hill" />
		<tag k="place" v="locality" />
		<tag k="ssr:stedsnr" v="736817" />
	</node>
	<node lat="60.7518750038933" lon="5.709044441988557" id="-75341">
		<tag k="fixme" v="consider natural=peak for the most distinct mountains in the district" />
		<tag k="name" v="Heiane" />
		<tag k="natural" v="hill" />
		<tag k="place" v="locality" />
		<tag k="ssr:stedsnr" v="736828" />
	</node>
	<node lat="60.845861108149805" lon="5.933858325037372" id="-75342">
		<tag k="name" v="Nova" />
		<tag k="natural" v="hill" />
		<tag k="place" v="locality" />
		<tag k="ssr:stedsnr" v="737121" />
	</node>
	<node lat="60.97018333617773" lon="6.137766661907608" id="-75343">
		<tag k="name" v="Berdalen" />
		<tag k="natural" v="valley" />
		<tag k="place" v="locality" />
		<tag k="ssr:stedsnr" v="737015" />
	</node>
	<node lat="60.91517500014046" lon="6.065666675550676" id="-75346">
		<tag k="name" v="Kvanndalsbotnen" />
		<tag k="natural" v="valley" />
		<tag k="place" v="locality" />
		<tag k="ssr:stedsnr" v="737069" />
	</node>
	<node lat="60.90774166876559" lon="6.021375002556753" id="-75347">
		<tag k="name" v="Fitlia" />
		<tag k="natural" v="slope" />
		<tag k="place" v="locality" />
		<tag k="ssr:stedsnr" v="737072" />
	</node>
	<node lat="60.88924444240221" lon="5.969813891266898" id="-75348">
		<tag k="name" v="Modalen" />
		<tag k="natural" v="valley" />
		<tag k="place" v="locality" />
		<tag k="ssr:stedsnr" v="737073" />
	</node>
	<node lat="60.89685555491173" lon="6.045458331649613" id="-75349">
		<tag k="fixme" v="consider natural=peak for the most distinct mountains in the district" />
		<tag k="name" v="Indreseglet" />
		<tag k="natural" v="hill" />
		<tag k="place" v="locality" />
		<tag k="ssr:stedsnr" v="737075" />
	</node>
	<node lat="60.89262500044265" lon="5.998827772666318" id="-75350">
		<tag k="fixme" v="consider natural=peak for the most distinct mountains in the district" />
		<tag k="name" v="Nåmdalsfjellet" />
		<tag k="natural" v="hill" />
		<tag k="place" v="locality" />
		<tag k="ssr:stedsnr" v="737081" />
	</node>
	<node lat="60.85454166266847" lon="5.9479583297050675" id="-75351">
		<tag k="alt_name" v="Gaubotn" />
		<tag k="name" v="Gauvbotnen" />
		<tag k="natural" v="valley" />
		<tag k="place" v="locality" />
		<tag k="ssr:stedsnr" v="737165" />
	</node>
	<node lat="60.83003333526421" lon="5.785199997409564" id="-75353">
		<tag k="fixme" v="consider natural=peak for the most distinct mountains in the district" />
		<tag k="name" v="Fjellkleivane" />
		<tag k="natural" v="hill" />
		<tag k="place" v="locality" />
		<tag k="ssr:stedsnr" v="737365" />
	</node>
	<node lat="60.81023332990007" lon="5.759191669658539" id="-75354">
		<tag k="name" v="Stokkevikdalen" />
		<tag k="natural" v="valley" />
		<tag k="place" v="locality" />
		<tag k="ssr:stedsnr" v="737468" />
	</node>
	<node lat="60.83344166927483" lon="5.88762221694732" id="-75356">
		<tag k="name" v="Eikebakken" />
		<tag k="natural" v="slope" />
		<tag k="place" v="locality" />
		<tag k="ssr:stedsnr" v="894636" />
	</node>
	<node lat="60.76572221988866" lon="5.7382166754240895" id="-75358">
		<tag k="name" v="Håhelleren" />
		<tag k="place" v="locality" />
		<tag k="ssr:stedsnr" v="894643" />
	</node>
	<node lat="60.79843888516294" lon="5.806594452007347" id="-75359">
		<tag k="name" v="Øvrebotn" />
		<tag k="natural" v="valley" />
		<tag k="place" v="locality" />
		<tag k="ssr:stedsnr" v="894647" />
	</node>
	<node lat="60.844327776205695" lon="5.95908055378907" id="-75360">
		<tag k="fixme" v="consider natural=peak for the most distinct mountains in the district" />
		<tag k="name" v="Åsen" />
		<tag k="natural" v="hill" />
		<tag k="place" v="locality" />
		<tag k="ssr:stedsnr" v="894587" />
	</node>
	<node lat="60.81577221997035" lon="5.783883325225785" id="-75362">
		<tag k="name" v="Krakelia" />
		<tag k="natural" v="slope" />
		<tag k="place" v="locality" />
		<tag k="ssr:stedsnr" v="894654" />
	</node>
	<node lat="60.81253055448759" lon="5.7533555548499535" id="-75363">
		<tag k="name" v="Botnane" />
		<tag k="natural" v="valley" />
		<tag k="place" v="locality" />
		<tag k="ssr:stedsnr" v="894658" />
	</node>
	<node lat="60.92783888694164" lon="5.980241657862033" id="-75364">
		<tag k="name" v="Landelia" />
		<tag k="natural" v="slope" />
		<tag k="place" v="locality" />
		<tag k="ssr:stedsnr" v="894737" />
	</node>
	<node lat="60.79171111131944" lon="5.798319441398941" id="-75367">
		<tag k="name" v="Øvste Rinnen" />
		<tag k="natural" v="ridge" />
		<tag k="place" v="locality" />
		<tag k="ssr:stedsnr" v="772614" />
	</node>
	<node lat="60.82193610843735" lon="5.788597226221265" id="-75368">
		<tag k="name" v="Kvernhusbotn" />
		<tag k="natural" v="valley" />
		<tag k="place" v="locality" />
		<tag k="ssr:stedsnr" v="772622" />
	</node>
	<node lat="60.77130555471826" lon="5.74889721565157" id="-75369">
		<tag k="name" v="Basttoa" />
		<tag k="place" v="locality" />
		<tag k="ssr:stedsnr" v="772571" />
	</node>
	<node lat="60.77143333481098" lon="5.669763880600055" id="-75370">
		<tag k="fixme" v="consider natural=saddle" />
		<tag k="name" v="Dalaskaret" />
		<tag k="natural" v="valley" />
		<tag k="place" v="locality" />
		<tag k="ssr:stedsnr" v="772582" />
	</node>
	<node lat="60.86179167114542" lon="5.981955556769581" id="-75372">
		<tag k="name" v="Fossdalen" />
		<tag k="natural" v="valley" />
		<tag k="place" v="locality" />
		<tag k="ssr:stedsnr" v="773517" />
	</node>
	<node lat="60.745138887035544" lon="5.683077770547734" id="-75376">
		<tag k="name" v="Raudhelleren" />
		<tag k="place" v="locality" />
		<tag k="ssr:stedsnr" v="795506" />
	</node>
	<node lat="60.7788861124504" lon="5.71416665863176" id="-75385">
		<tag k="name" v="Johanshola" />
		<tag k="natural" v="valley" />
		<tag k="place" v="locality" />
		<tag k="ssr:stedsnr" v="833588" />
	</node>
	<node lat="60.74383610837363" lon="5.669205559610809" id="-75386">
		<tag k="name" v="Bjørnstødalen" />
		<tag k="natural" v="valley" />
		<tag k="place" v="locality" />
		<tag k="ssr:stedsnr" v="833609" />
	</node>
	<node lat="60.74458888829081" lon="5.683144443208477" id="-75387">
		<tag k="name" v="Raudhellerlia" />
		<tag k="natural" v="slope" />
		<tag k="place" v="locality" />
		<tag k="ssr:stedsnr" v="833610" />
	</node>
	<node lat="60.750063890441965" lon="5.666936102321226" id="-75388">
		<tag k="name" v="Stengena" />
		<tag k="place" v="locality" />
		<tag k="ssr:stedsnr" v="833611" />
	</node>
	<node lat="60.85019721995029" lon="5.854469436821839" id="-75389">
		<tag k="name" v="Slettabakken" />
		<tag k="natural" v="slope" />
		<tag k="place" v="locality" />
		<tag k="ssr:stedsnr" v="834500" />
	</node>
	<node lat="60.85162222539752" lon="5.849405550059943" id="-75390">
		<tag k="name" v="Runnhaugane" />
		<tag k="natural" v="hill" />
		<tag k="place" v="locality" />
		<tag k="ssr:stedsnr" v="834512" />
	</node>
	<node lat="60.860063886201246" lon="5.989733341482264" id="-75391">
		<tag k="name" v="Furkammen" />
		<tag k="natural" v="hill" />
		<tag k="place" v="locality" />
		<tag k="ssr:stedsnr" v="834543" />
	</node>
	<node lat="60.885975004427564" lon="6.012999997427643" id="-75392">
		<tag k="name" v="Skjergrashaugane" />
		<tag k="natural" v="hill" />
		<tag k="place" v="locality" />
		<tag k="ssr:stedsnr" v="834582" />
	</node>
	<node lat="60.8481027800672" lon="6.018252770510713" id="-75393">
		<tag k="name" v="Vidbotn" />
		<tag k="natural" v="valley" />
		<tag k="place" v="locality" />
		<tag k="ssr:stedsnr" v="834717" />
	</node>
	<node lat="60.991213885489564" lon="6.088338881580943" id="-75395">
		<tag k="fixme" v="consider natural=peak for the most distinct mountains in the district" />
		<tag k="name" v="Blåfjellet" />
		<tag k="natural" v="hill" />
		<tag k="place" v="locality" />
		<tag k="ssr:stedsnr" v="858012" />
	</node>
	<node lat="60.83283610951433" lon="5.959913897803232" id="-75396">
		<tag k="fixme" v="consider natural=saddle" />
		<tag k="name" v="Sesskaret" />
		<tag k="natural" v="valley" />
		<tag k="place" v="locality" />
		<tag k="ssr:stedsnr" v="858127" />
	</node>
	<node lat="60.851794442903106" lon="5.936230555153873" id="-75397">
		<tag k="fixme" v="consider natural=peak for the most distinct mountains in the district" />
		<tag k="name" v="Sturtungsgavlen" />
		<tag k="natural" v="hill" />
		<tag k="place" v="locality" />
		<tag k="ssr:stedsnr" v="858180" />
	</node>
	<node lat="60.86494166768186" lon="6.0275749969467665" id="-75398">
		<tag k="name" v="Norddalen" />
		<tag k="natural" v="valley" />
		<tag k="place" v="locality" />
		<tag k="ssr:stedsnr" v="858190" />
	</node>
	<node lat="60.948974996700436" lon="5.9684333389934" id="-75399">
		<tag k="name" v="Norddalen" />
		<tag k="natural" v="valley" />
		<tag k="place" v="locality" />
		<tag k="ssr:stedsnr" v="858094" />
	</node>
	<node lat="60.851024998070294" lon="5.7142999928846825" id="-75400">
		<tag k="name" v="Vemundsbotnen" />
		<tag k="natural" v="valley" />
		<tag k="place" v="locality" />
		<tag k="ssr:stedsnr" v="858425" />
	</node>
	<node lat="60.788105558232765" lon="5.775730557342486" id="-75401">
		<tag k="name" v="Nyløa" />
		<tag k="place" v="locality" />
		<tag k="ssr:stedsnr" v="858471" />
	</node>
	<node lat="60.84661111401456" lon="5.8625777716947916" id="-75402">
		<tag k="name" v="Rustenden" />
		<tag k="natural" v="slope" />
		<tag k="place" v="locality" />
		<tag k="ssr:stedsnr" v="894568" />
	</node>
	<node lat="60.774727779340324" lon="5.671630553733613" id="-75405">
		<tag k="name" v="Kroksheiane" />
		<tag k="natural" v="hill" />
		<tag k="place" v="locality" />
		<tag k="ssr:stedsnr" v="894615" />
	</node>
	<node lat="60.858380555459846" lon="5.732555562708974" id="-75406">
		<tag k="fixme" v="consider natural=peak for the most distinct mountains in the district" />
		<tag k="name" v="Vetlevassegga" />
		<tag k="natural" v="hill" />
		<tag k="place" v="locality" />
		<tag k="ssr:stedsnr" v="894625" />
	</node>
	<node lat="60.942224996240654" lon="5.9603583365094615" id="-75408">
		<tag k="fixme" v="consider natural=peak for the most distinct mountains in the district" />
		<tag k="name" v="Furefjellet" />
		<tag k="natural" v="hill" />
		<tag k="place" v="locality" />
		<tag k="ssr:stedsnr" v="918104" />
	</node>
	<node lat="60.95618889222474" lon="5.981125005134995" id="-75412">
		<tag k="name" v="Bjørnanakken" />
		<tag k="natural" v="hill" />
		<tag k="place" v="locality" />
		<tag k="ssr:stedsnr" v="919024" />
	</node>
	<node lat="60.760150003331816" lon="5.775727782184022" id="-75413">
		<tag k="alt_name" v="Snjofonnfjellet" />
		<tag k="fixme" v="consider natural=peak for the most distinct mountains in the district" />
		<tag k="name" v="Snjofannefjellet" />
		<tag k="natural" v="hill" />
		<tag k="place" v="locality" />
		<tag k="ssr:stedsnr" v="919059" />
	</node>
	<node lat="60.75273610959231" lon="5.742963885341931" id="-75414">
		<tag k="fixme" v="consider natural=saddle" />
		<tag k="name" v="Svanurskaret" />
		<tag k="natural" v="valley" />
		<tag k="place" v="locality" />
		<tag k="ssr:stedsnr" v="919061" />
	</node>
	<node lat="60.82025000187722" lon="5.82671944086885" id="-75418">
		<tag k="fixme" v="consider natural=peak for the most distinct mountains in the district" />
		<tag k="name" v="Åsen" />
		<tag k="natural" v="hill" />
		<tag k="place" v="locality" />
		<tag k="ssr:stedsnr" v="919945" />
	</node>
	<node lat="60.84919166249908" lon="5.857113888448759" id="-75420">
		<tag k="name" v="Kvolven" />
		<tag k="place" v="locality" />
		<tag k="ssr:stedsnr" v="955506" />
	</node>
	<node lat="60.91703055628143" lon="5.962052772588393" id="-75421">
		<tag k="name" v="Rossevikhaugane" />
		<tag k="natural" v="hill" />
		<tag k="place" v="locality" />
		<tag k="ssr:stedsnr" v="955708" />
	</node>
	<node lat="60.96960555547537" lon="5.966816665100007" id="-75423">
		<tag k="name" v="Yrkje" />
		<tag k="place" v="locality" />
		<tag k="ssr:stedsnr" v="955717" />
	</node>
	<node lat="60.73429444595176" lon="5.714569449948536" id="-75424">
		<tag k="name" v="Svartedalen" />
		<tag k="natural" v="valley" />
		<tag k="place" v="locality" />
		<tag k="ssr:stedsnr" v="6318" />
	</node>
	<node lat="60.98818888451485" lon="5.953524991208936" id="-75426">
		<tag k="name" v="Trongedalen" />
		<tag k="natural" v="valley" />
		<tag k="place" v="locality" />
		<tag k="ssr:stedsnr" v="8012" />
	</node>
	<node lat="60.93551666279628" lon="6.13320000239523" id="-75428">
		<tag k="fixme" v="consider natural=peak for the most distinct mountains in the district" />
		<tag k="name" v="Sørdalsfjellet" />
		<tag k="natural" v="hill" />
		<tag k="place" v="locality" />
		<tag k="ssr:stedsnr" v="8120" />
	</node>
	<node lat="60.92322500136926" lon="6.136944445759039" id="-75429">
		<tag k="name" v="Helladalen" />
		<tag k="natural" v="valley" />
		<tag k="place" v="locality" />
		<tag k="ssr:stedsnr" v="8128" />
	</node>
	<node lat="60.78256388603904" lon="5.794244442943399" id="-75431">
		<tag k="alt_name" v="Hodnefjellet" />
		<tag k="fixme" v="consider natural=peak for the most distinct mountains in the district" />
		<tag k="name" v="Hornafjellet" />
		<tag k="natural" v="hill" />
		<tag k="place" v="locality" />
		<tag k="ssr:stedsnr" v="8481" />
	</node>
	<node lat="60.79982777512899" lon="5.73208889054639" id="-75433">
		<tag k="name" v="Storebotnen" />
		<tag k="natural" v="valley" />
		<tag k="place" v="locality" />
		<tag k="ssr:stedsnr" v="9470" />
	</node>
	<node lat="60.90111944088368" lon="5.942400007737462" id="-75434">
		<tag k="alt_name" v="Sæterbotn" />
		<tag k="name" v="Sæterbotnen" />
		<tag k="natural" v="valley" />
		<tag k="place" v="locality" />
		<tag k="ssr:stedsnr" v="9034" />
	</node>
	<node lat="60.821491662835435" lon="5.850924991242231" id="-75435">
		<tag k="fixme" v="consider natural=peak for the most distinct mountains in the district" />
		<tag k="name" v="Navene" />
		<tag k="natural" v="hill" />
		<tag k="place" v="locality" />
		<tag k="ssr:stedsnr" v="9125" />
	</node>
	<node lat="60.87200278032636" lon="5.954030551594029" id="-75436">
		<tag k="fixme" v="consider natural=peak for the most distinct mountains in the district" />
		<tag k="name" v="Rusta" />
		<tag k="natural" v="hill" />
		<tag k="place" v="locality" />
		<tag k="ssr:stedsnr" v="9128" />
	</node>
	<node lat="60.88970555531796" lon="6.074830563383769" id="-75439">
		<tag k="name" v="Austredalen" />
		<tag k="natural" v="valley" />
		<tag k="place" v="locality" />
		<tag k="ssr:stedsnr" v="9059" />
	</node>
	<node lat="60.866011112970334" lon="5.900302771196917" id="-75441">
		<tag k="name" v="Steinabotnen" />
		<tag k="natural" v="valley" />
		<tag k="place" v="locality" />
		<tag k="ssr:stedsnr" v="9133" />
	</node>
	<node lat="60.847986110087426" lon="5.977363894016047" id="-75446">
		<tag k="name" v="Midtbekkdalen" />
		<tag k="natural" v="valley" />
		<tag k="place" v="locality" />
		<tag k="ssr:stedsnr" v="44546" />
	</node>
	<node lat="60.832105559382164" lon="5.888688893725435" id="-75447">
		<tag k="name" v="Almelibotn" />
		<tag k="natural" v="valley" />
		<tag k="place" v="locality" />
		<tag k="ssr:stedsnr" v="44518" />
	</node>
	<node lat="60.87870555456858" lon="5.995586119395235" id="-75448">
		<tag k="fixme" v="consider natural=peak for the most distinct mountains in the district" />
		<tag k="name" v="Seilæ" />
		<tag k="natural" v="hill" />
		<tag k="place" v="locality" />
		<tag k="ssr:stedsnr" v="44557" />
	</node>
	<node lat="60.822002779353795" lon="5.948397214294535" id="-75449">
		<tag k="name" v="Fjellkråa" />
		<tag k="natural" v="slope" />
		<tag k="place" v="locality" />
		<tag k="ssr:stedsnr" v="56131" />
	</node>
	<node lat="60.766061106836865" lon="5.714625004447944" id="-75450">
		<tag k="name" v="Fuglaberga" />
		<tag k="natural" v="hill" />
		<tag k="place" v="locality" />
		<tag k="ssr:stedsnr" v="60055" />
	</node>
	<node lat="60.89567500285324" lon="6.014349994990786" id="-75451">
		<tag k="fixme" v="consider natural=peak for the most distinct mountains in the district" />
		<tag k="name" v="Stølsfjellsberget" />
		<tag k="natural" v="hill" />
		<tag k="place" v="locality" />
		<tag k="ssr:stedsnr" v="69092" />
	</node>
	<node lat="60.94566388731688" lon="5.9925583372528335" id="-75452">
		<tag k="name" v="Stølsdalen" />
		<tag k="natural" v="valley" />
		<tag k="place" v="locality" />
		<tag k="ssr:stedsnr" v="69096" />
	</node>
	<node lat="60.94195833398428" lon="5.979627781106331" id="-75453">
		<tag k="name" v="Storehaugen" />
		<tag k="natural" v="hill" />
		<tag k="place" v="locality" />
		<tag k="ssr:stedsnr" v="69100" />
	</node>
	<node lat="60.9176166652128" lon="5.871424993811339" id="-75456">
		<tag k="name" v="Steinadalen" />
		<tag k="natural" v="valley" />
		<tag k="place" v="locality" />
		<tag k="ssr:stedsnr" v="69124" />
	</node>
	<node lat="60.72630000010603" lon="5.722183334811559" id="-75460">
		<tag k="fixme" v="consider natural=saddle" />
		<tag k="name" v="Skaret" />
		<tag k="natural" v="valley" />
		<tag k="place" v="locality" />
		<tag k="ssr:stedsnr" v="105582" />
	</node>
	<node lat="60.90202222092178" lon="6.043983329212961" id="-75461">
		<tag k="name" v="Lurveberget" />
		<tag k="natural" v="hill" />
		<tag k="place" v="locality" />
		<tag k="ssr:stedsnr" v="105716" />
	</node>
	<node lat="60.85979722567841" lon="5.847855557828761" id="-75462">
		<tag k="name" v="Botn" />
		<tag k="natural" v="valley" />
		<tag k="place" v="locality" />
		<tag k="ssr:stedsnr" v="105532" />
	</node>
	<node lat="60.8263833295541" lon="5.83708055228965" id="-75463">
		<tag k="name" v="Svahaugen" />
		<tag k="natural" v="hill" />
		<tag k="place" v="locality" />
		<tag k="ssr:stedsnr" v="105551" />
	</node>
	<node lat="60.87022777811904" lon="6.008719449813304" id="-75464">
		<tag k="name" v="Botnane" />
		<tag k="natural" v="valley" />
		<tag k="place" v="locality" />
		<tag k="ssr:stedsnr" v="105554" />
	</node>
	<node lat="60.85299167015465" lon="5.978941666000235" id="-75465">
		<tag k="name" v="Botn" />
		<tag k="natural" v="valley" />
		<tag k="place" v="locality" />
		<tag k="ssr:stedsnr" v="105558" />
	</node>
	<node lat="60.924161108931074" lon="5.941075003884708" id="-75467">
		<tag k="name" v="Gregusbotnen" />
		<tag k="natural" v="valley" />
		<tag k="place" v="locality" />
		<tag k="ssr:stedsnr" v="129145" />
	</node>
	<node lat="60.90978333624248" lon="5.896677777851361" id="-75469">
		<tag k="fixme" v="consider natural=peak for the most distinct mountains in the district" />
		<tag k="name" v="Høgda" />
		<tag k="natural" v="hill" />
		<tag k="place" v="locality" />
		<tag k="ssr:stedsnr" v="130050" />
	</node>
	<node lat="60.886724997405096" lon="6.018705548150735" id="-75470">
		<tag k="fixme" v="consider natural=peak for the most distinct mountains in the district" />
		<tag k="name" v="Åsen" />
		<tag k="natural" v="hill" />
		<tag k="place" v="locality" />
		<tag k="ssr:stedsnr" v="130063" />
	</node>
	<node lat="60.88438888564946" lon="6.0256694515953235" id="-75472">
		<tag k="name" v="Moltemyrberget" />
		<tag k="natural" v="hill" />
		<tag k="place" v="locality" />
		<tag k="ssr:stedsnr" v="130142" />
	</node>
	<node lat="60.84245833261644" lon="5.9149388902243745" id="-75473">
		<tag k="fixme" v="consider natural=peak for the most distinct mountains in the district" />
		<tag k="name" v="Kamben" />
		<tag k="natural" v="hill" />
		<tag k="place" v="locality" />
		<tag k="ssr:stedsnr" v="130154" />
	</node>
	<node lat="60.895527780867525" lon="6.064005561562213" id="-75476">
		<tag k="name" v="Norddalen" />
		<tag k="natural" v="valley" />
		<tag k="place" v="locality" />
		<tag k="ssr:stedsnr" v="130764" />
	</node>
	<node lat="60.748205552149905" lon="5.672930561915607" id="-75482">
		<tag k="name" v="Stokkedalen" />
		<tag k="natural" v="valley" />
		<tag k="place" v="locality" />
		<tag k="ssr:stedsnr" v="165585" />
	</node>
	<node lat="60.82903055786896" lon="5.8354944492359895" id="-75483">
		<tag k="name" v="Tona" />
		<tag k="place" v="locality" />
		<tag k="ssr:stedsnr" v="166521" />
	</node>
	<node lat="60.820622218202715" lon="5.840997214919537" id="-75484">
		<tag k="name" v="Furhaugane" />
		<tag k="natural" v="hill" />
		<tag k="place" v="locality" />
		<tag k="ssr:stedsnr" v="166535" />
	</node>
	<node lat="60.90974999889152" lon="6.075888895680322" id="-75488">
		<tag k="name" v="Norddalseggene" />
		<tag k="natural" v="ridge" />
		<tag k="place" v="locality" />
		<tag k="ssr:stedsnr" v="190083" />
	</node>
	<node lat="60.90363055666968" lon="6.104249992652251" id="-75489">
		<tag k="fixme" v="consider natural=peak for the most distinct mountains in the district" />
		<tag k="name" v="Gavlafjellet" />
		<tag k="natural" v="hill" />
		<tag k="place" v="locality" />
		<tag k="ssr:stedsnr" v="190085" />
	</node>
	<node lat="60.92585555320357" lon="6.106288895700702" id="-75490">
		<tag k="fixme" v="consider natural=peak for the most distinct mountains in the district" />
		<tag k="name" v="Kvanngrødfjellet" />
		<tag k="natural" v="hill" />
		<tag k="place" v="locality" />
		<tag k="ssr:stedsnr" v="190130" />
	</node>
	<node lat="60.88176944475723" lon="5.92447499220203" id="-75492">
		<tag k="fixme" v="consider natural=peak for the most distinct mountains in the district" />
		<tag k="name" v="Gråsida" />
		<tag k="natural" v="hill" />
		<tag k="place" v="locality" />
		<tag k="ssr:stedsnr" v="190836" />
	</node>
	<node lat="60.87920833711199" lon="6.076269435851761" id="-75493">
		<tag k="name" v="Sauaholene" />
		<tag k="natural" v="valley" />
		<tag k="place" v="locality" />
		<tag k="ssr:stedsnr" v="190837" />
	</node>
	<node lat="60.961969441962985" lon="5.9221388952450535" id="-75496">
		<tag k="alt_name" v="Botnelvbotn" />
		<tag k="name" v="Botnelvbotnen" />
		<tag k="natural" v="valley" />
		<tag k="place" v="locality" />
		<tag k="ssr:stedsnr" v="191026" />
	</node>
	<node lat="60.94681388991979" lon="5.889430557769142" id="-75497">
		<tag k="name" v="Vardadalen" />
		<tag k="natural" v="valley" />
		<tag k="place" v="locality" />
		<tag k="ssr:stedsnr" v="191078" />
	</node>
	<node lat="61.02760000062709" lon="6.049302779184865" id="-75504">
		<tag k="fixme" v="consider natural=peak for the most distinct mountains in the district" />
		<tag k="name" v="Runderabben" />
		<tag k="natural" v="hill" />
		<tag k="place" v="locality" />
		<tag k="ssr:stedsnr" v="191326" />
	</node>
	<node lat="60.845402773551754" lon="5.978344439726494" id="-75508">
		<tag k="name" v="Tona" />
		<tag k="place" v="locality" />
		<tag k="ssr:stedsnr" v="287595" />
	</node>
	<node lat="60.774502779276396" lon="5.690072227466063" id="-75509">
		<tag k="name" v="Slettebrekkena" />
		<tag k="natural" v="slope" />
		<tag k="place" v="locality" />
		<tag k="ssr:stedsnr" v="287621" />
	</node>
	<node lat="60.77685277506501" lon="5.675063887948866" id="-75510">
		<tag k="name" v="Geitabotnen" />
		<tag k="natural" v="valley" />
		<tag k="place" v="locality" />
		<tag k="ssr:stedsnr" v="287624" />
	</node>
	<node lat="60.80840555358786" lon="5.879949997807517" id="-75511">
		<tag k="fixme" v="consider natural=peak for the most distinct mountains in the district" />
		<tag k="name" v="Jorskarfjellet" />
		<tag k="natural" v="hill" />
		<tag k="place" v="locality" />
		<tag k="ssr:stedsnr" v="287569" />
	</node>
	<node lat="60.863874996633825" lon="6.019830556177154" id="-75513">
		<tag k="name" v="Ubyttebotn" />
		<tag k="natural" v="valley" />
		<tag k="place" v="locality" />
		<tag k="ssr:stedsnr" v="287576" />
	</node>
	<node lat="60.872230552341655" lon="5.996863889636603" id="-75514">
		<tag k="fixme" v="consider natural=peak for the most distinct mountains in the district" />
		<tag k="name" v="Furskatknausane" />
		<tag k="natural" v="hill" />
		<tag k="place" v="locality" />
		<tag k="ssr:stedsnr" v="287581" />
	</node>
	<node lat="60.75819444741926" lon="5.724630557979124" id="-75516">
		<tag k="name" v="Nakken" />
		<tag k="natural" v="ridge" />
		<tag k="place" v="locality" />
		<tag k="ssr:stedsnr" v="287653" />
	</node>
	<node lat="60.842127777792136" lon="5.86372222769364" id="-75519">
		<tag k="name" v="Rusta" />
		<tag k="natural" v="hill" />
		<tag k="place" v="locality" />
		<tag k="ssr:stedsnr" v="287637" />
	</node>
	<node lat="60.895263888506896" lon="6.015108339797435" id="-75520">
		<tag k="name" v="Fjelltona" />
		<tag k="place" v="locality" />
		<tag k="ssr:stedsnr" v="287733" />
	</node>
	<node lat="60.73175278032237" lon="5.734100002489175" id="-75523">
		<tag k="fixme" v="consider natural=peak for the most distinct mountains in the district" />
		<tag k="name" v="Salsfjellet" />
		<tag k="natural" v="hill" />
		<tag k="place" v="locality" />
		<tag k="ssr:stedsnr" v="309326" />
	</node>
	<node lat="60.73524999969576" lon="5.696780549054054" id="-75524">
		<tag k="name" v="Djupedalen" />
		<tag k="natural" v="valley" />
		<tag k="place" v="locality" />
		<tag k="ssr:stedsnr" v="309341" />
	</node>
	<node lat="60.920155557635006" lon="5.988911116031599" id="-75526">
		<tag k="fixme" v="consider natural=peak for the most distinct mountains in the district" />
		<tag k="name" v="Grønfjellet" />
		<tag k="natural" v="hill" />
		<tag k="place" v="locality" />
		<tag k="ssr:stedsnr" v="312067" />
	</node>
	<node lat="60.868952776698215" lon="6.058708339727041" id="-75527">
		<tag k="name" v="Norddalsbotnen" />
		<tag k="natural" v="valley" />
		<tag k="place" v="locality" />
		<tag k="ssr:stedsnr" v="312142" />
	</node>
	<node lat="60.88427499919669" lon="6.104858326204963" id="-75529">
		<tag k="name" v="Krossgavlen" />
		<tag k="natural" v="hill" />
		<tag k="place" v="locality" />
		<tag k="ssr:stedsnr" v="312152" />
	</node>
	<node lat="60.85256666691621" lon="5.915124996730994" id="-75530">
		<tag k="name" v="Sollidalen" />
		<tag k="natural" v="valley" />
		<tag k="place" v="locality" />
		<tag k="ssr:stedsnr" v="312156" />
	</node>
	<node lat="60.841494447219354" lon="5.846375003249677" id="-75532">
		<tag k="name" v="Steiadalen" />
		<tag k="natural" v="valley" />
		<tag k="place" v="locality" />
		<tag k="ssr:stedsnr" v="312160" />
	</node>
	<node lat="60.96648333704283" lon="5.962663893646277" id="-75535">
		<tag k="name" v="Tjuvhelleren" />
		<tag k="natural" v="valley" />
		<tag k="place" v="locality" />
		<tag k="ssr:stedsnr" v="312021" />
	</node>
	<node lat="60.79992777465711" lon="5.8250166686587495" id="-75536">
		<tag k="name" v="Smylmbotnane" />
		<tag k="natural" v="valley" />
		<tag k="place" v="locality" />
		<tag k="ssr:stedsnr" v="312467" />
	</node>
	<node lat="61.013824997422994" lon="6.0373638969299455" id="-75537">
		<tag k="name" v="Åsabotnen" />
		<tag k="natural" v="valley" />
		<tag k="place" v="locality" />
		<tag k="ssr:stedsnr" v="312348" />
	</node>
	<node lat="60.84085277841037" lon="5.7938527830296005" id="-75539">
		<tag k="name" v="Kupa" />
		<tag k="natural" v="valley" />
		<tag k="place" v="locality" />
		<tag k="ssr:stedsnr" v="312369" />
	</node>
	<node lat="60.84542500357784" lon="5.836283328370544" id="-75540">
		<tag k="name" v="Leina" />
		<tag k="natural" v="slope" />
		<tag k="place" v="locality" />
		<tag k="ssr:stedsnr" v="312374" />
	</node>
	<node lat="60.753241664372894" lon="5.678674992585908" id="-75542">
		<tag k="name" v="Fitjane" />
		<tag k="place" v="locality" />
		<tag k="ssr:stedsnr" v="347580" />
	</node>
	<node lat="60.75987221951771" lon="5.6840555477334584" id="-75543">
		<tag k="name" v="Stokkleiva" />
		<tag k="natural" v="slope" />
		<tag k="place" v="locality" />
		<tag k="ssr:stedsnr" v="347582" />
	</node>
	<node lat="60.84191389184489" lon="5.840827772813672" id="-75544">
		<tag k="fixme" v="consider natural=peak for the most distinct mountains in the district" />
		<tag k="name" v="Midtfjellet" />
		<tag k="natural" v="hill" />
		<tag k="place" v="locality" />
		<tag k="ssr:stedsnr" v="347589" />
	</node>
	<node lat="60.74426944690524" lon="5.700063892479366" id="-75545">
		<tag k="name" v="Mosura" />
		<tag k="place" v="locality" />
		<tag k="ssr:stedsnr" v="347554" />
	</node>
	<node lat="60.76900833217168" lon="5.703991664358467" id="-75546">
		<tag k="name" v="Nottveitgjela" />
		<tag k="natural" v="gorge" />
		<tag k="ssr:stedsnr" v="347563" />
	</node>
	<node lat="60.832077775682215" lon="5.923188886987907" id="-75548">
		<tag k="name" v="Blombrekka" />
		<tag k="natural" v="slope" />
		<tag k="place" v="locality" />
		<tag k="ssr:stedsnr" v="347600" />
	</node>
	<node lat="60.83100555416452" lon="5.948980561162747" id="-75549">
		<tag k="name" v="Ossmusslia" />
		<tag k="natural" v="slope" />
		<tag k="place" v="locality" />
		<tag k="ssr:stedsnr" v="348543" />
	</node>
	<node lat="60.881858329172445" lon="5.967575007429913" id="-75552">
		<tag k="name" v="Skredtorna" />
		<tag k="place" v="locality" />
		<tag k="ssr:stedsnr" v="348493" />
	</node>
	<node lat="60.88241389049647" lon="6.0036388872823245" id="-75553">
		<tag k="name" v="Heidalida" />
		<tag k="natural" v="slope" />
		<tag k="place" v="locality" />
		<tag k="ssr:stedsnr" v="348495" />
	</node>
	<node lat="60.7451861099899" lon="5.716725009229476" id="-75556">
		<tag k="name" v="Fossedalen" />
		<tag k="natural" v="valley" />
		<tag k="place" v="locality" />
		<tag k="ssr:stedsnr" v="370498" />
	</node>
	<node lat="61.00793333445575" lon="5.977563879738509" id="-75557">
		<tag k="name" v="Norddalen" />
		<tag k="natural" v="valley" />
		<tag k="place" v="locality" />
		<tag k="ssr:stedsnr" v="371429" />
	</node>
	<node lat="60.92042499929771" lon="6.151999997473087" id="-75559">
		<tag k="fixme" v="consider natural=peak for the most distinct mountains in the district" />
		<tag k="name" v="Hellesåta" />
		<tag k="natural" v="hill" />
		<tag k="place" v="locality" />
		<tag k="ssr:stedsnr" v="372075" />
	</node>
	<node lat="60.90203333784783" lon="5.994144451040232" id="-75560">
		<tag k="name" v="Kvelven" />
		<tag k="natural" v="valley" />
		<tag k="place" v="locality" />
		<tag k="ssr:stedsnr" v="372078" />
	</node>
	<node lat="60.89277777798018" lon="6.018586103723586" id="-75562">
		<tag k="alt_name" v="Nåmdalsåsen" />
		<tag k="fixme" v="consider natural=peak for the most distinct mountains in the district" />
		<tag k="name" v="Øvrehellandsåsen" />
		<tag k="natural" v="hill" />
		<tag k="place" v="locality" />
		<tag k="ssr:stedsnr" v="372094" />
	</node>
	<node lat="60.86240833423727" lon="6.008133333835194" id="-75564">
		<tag k="name" v="Oksla" />
		<tag k="natural" v="hill" />
		<tag k="place" v="locality" />
		<tag k="ssr:stedsnr" v="372194" />
	</node>
	<node lat="60.925066663180274" lon="6.012574998513503" id="-75567">
		<tag k="name" v="Sauaholene" />
		<tag k="natural" v="valley" />
		<tag k="place" v="locality" />
		<tag k="ssr:stedsnr" v="372129" />
	</node>
	<node lat="60.862536110581416" lon="5.85166945245334" id="-75568">
		<tag k="name" v="Tverrlia" />
		<tag k="natural" v="slope" />
		<tag k="place" v="locality" />
		<tag k="ssr:stedsnr" v="372162" />
	</node>
	<node lat="60.82717500202608" lon="5.817880546501346" id="-75569">
		<tag k="fixme" v="consider natural=peak for the most distinct mountains in the district" />
		<tag k="name" v="Storfjellet" />
		<tag k="natural" v="hill" />
		<tag k="place" v="locality" />
		<tag k="ssr:stedsnr" v="372391" />
	</node>
	<node lat="60.84100833603793" lon="6.010538883848312" id="-75571">
		<tag k="fixme" v="consider natural=saddle" />
		<tag k="name" v="Sørskaret" />
		<tag k="natural" v="valley" />
		<tag k="place" v="locality" />
		<tag k="ssr:stedsnr" v="373120" />
	</node>
	<node lat="60.8102916624978" lon="5.846486110578481" id="-75573">
		<tag k="name" v="Smylmbotnane" />
		<tag k="natural" v="valley" />
		<tag k="place" v="locality" />
		<tag k="ssr:stedsnr" v="373124" />
	</node>
	<node lat="60.8353916700593" lon="5.84626111671863" id="-75575">
		<tag k="name" v="Furehjellen" />
		<tag k="place" v="locality" />
		<tag k="ssr:stedsnr" v="408612" />
	</node>
	<node lat="60.72746666499175" lon="5.7322583326115835" id="-75577">
		<tag k="name" v="Midtnakken" />
		<tag k="natural" v="ridge" />
		<tag k="place" v="locality" />
		<tag k="ssr:stedsnr" v="408581" />
	</node>
	<node lat="60.81744166968806" lon="5.855069444715221" id="-75578">
		<tag k="name" v="Holmabrota" />
		<tag k="natural" v="hill" />
		<tag k="place" v="locality" />
		<tag k="ssr:stedsnr" v="409519" />
	</node>
	<node lat="60.87111944496497" lon="5.982399999287053" id="-75580">
		<tag k="name" v="Rinnane" />
		<tag k="natural" v="hill" />
		<tag k="place" v="locality" />
		<tag k="ssr:stedsnr" v="409533" />
	</node>
	<node lat="60.8572611114001" lon="5.981880552823785" id="-75581">
		<tag k="name" v="Rusta" />
		<tag k="place" v="locality" />
		<tag k="ssr:stedsnr" v="409544" />
	</node>
	<node lat="60.85748055532574" lon="5.999088891821893" id="-75582">
		<tag k="name" v="Tverrdalen" />
		<tag k="natural" v="valley" />
		<tag k="place" v="locality" />
		<tag k="ssr:stedsnr" v="409546" />
	</node>
	<node lat="60.92517500175277" lon="6.00401666799591" id="-75585">
		<tag k="name" v="Kvitavassdalen" />
		<tag k="natural" v="valley" />
		<tag k="place" v="locality" />
		<tag k="ssr:stedsnr" v="433121" />
	</node>
	<node lat="60.7648944475516" lon="5.695969437581872" id="-75589">
		<tag k="fixme" v="consider natural=peak for the most distinct mountains in the district" />
		<tag k="name" v="Berget" />
		<tag k="natural" v="hill" />
		<tag k="place" v="locality" />
		<tag k="ssr:stedsnr" v="433047" />
	</node>
	<node lat="60.90924167010139" lon="6.180113891885423" id="-75591">
		<tag k="fixme" v="consider natural=peak for the most distinct mountains in the district" />
		<tag k="name" v="Askjellfjellet" />
		<tag k="natural" v="hill" />
		<tag k="place" v="locality" />
		<tag k="ssr:stedsnr" v="433084" />
	</node>
	<node lat="60.841705555488076" lon="5.769463893485669" id="-75593">
		<tag k="name" v="Steinabotnen" />
		<tag k="natural" v="valley" />
		<tag k="place" v="locality" />
		<tag k="ssr:stedsnr" v="433377" />
	</node>
	<node lat="60.84646944414127" lon="5.7479694361306635" id="-75594">
		<tag k="fixme" v="consider natural=saddle" />
		<tag k="name" v="Torrisskaret" />
		<tag k="natural" v="valley" />
		<tag k="place" v="locality" />
		<tag k="ssr:stedsnr" v="433382" />
	</node>
	<node lat="60.83653333384248" lon="5.880938880694732" id="-75596">
		<tag k="name" v="Veslaseglet" />
		<tag k="natural" v="ridge" />
		<tag k="place" v="locality" />
		<tag k="ssr:stedsnr" v="434165" />
	</node>
	<node lat="60.85445833692809" lon="6.003683335280376" id="-75598">
		<tag k="name" v="Tveradalen" />
		<tag k="natural" v="valley" />
		<tag k="place" v="locality" />
		<tag k="ssr:stedsnr" v="434169" />
	</node>
	<node lat="60.74383610938504" lon="5.662836118555936" id="-75599">
		<tag k="name" v="Tverrdalen" />
		<tag k="natural" v="valley" />
		<tag k="place" v="locality" />
		<tag k="ssr:stedsnr" v="491466" />
	</node>
	<node lat="60.748099996749374" lon="5.744827784067783" id="-75600">
		<tag k="fixme" v="consider natural=peak for the most distinct mountains in the district" />
		<tag k="name" v="Njuken" />
		<tag k="natural" v="hill" />
		<tag k="place" v="locality" />
		<tag k="ssr:stedsnr" v="491468" />
	</node>
	<node lat="60.78007500103438" lon="5.770527777821196" id="-75601">
		<tag k="name" v="Høgaberget" />
		<tag k="natural" v="hill" />
		<tag k="place" v="locality" />
		<tag k="ssr:stedsnr" v="493426" />
	</node>
	<node lat="60.83807500354562" lon="5.771158326181551" id="-75604">
		<tag k="name" v="Høgahjellane" />
		<tag k="place" v="locality" />
		<tag k="ssr:stedsnr" v="494369" />
	</node>
	<node lat="60.802483329965675" lon="5.7426888971015995" id="-75606">
		<tag k="name" v="Kollhaugen" />
		<tag k="natural" v="hill" />
		<tag k="place" v="locality" />
		<tag k="ssr:stedsnr" v="494437" />
	</node>
	<node lat="60.82547500302681" lon="5.935916674923278" id="-75610">
		<tag k="name" v="Ædnarusta" />
		<tag k="natural" v="slope" />
		<tag k="place" v="locality" />
		<tag k="ssr:stedsnr" v="494132" />
	</node>
	<node lat="60.82159999801719" lon="5.904677780646886" id="-75611">
		<tag k="name" v="Bjørnabotnen" />
		<tag k="natural" v="valley" />
		<tag k="place" v="locality" />
		<tag k="ssr:stedsnr" v="494133" />
	</node>
	<node lat="60.87243055966289" lon="5.887644448073491" id="-75614">
		<tag k="name" v="Nordbotnen" />
		<tag k="natural" v="valley" />
		<tag k="place" v="locality" />
		<tag k="ssr:stedsnr" v="494145" />
	</node>
	<node lat="60.84815555387366" lon="5.85076389773947" id="-75615">
		<tag k="name" v="Hellandsdalen" />
		<tag k="natural" v="valley" />
		<tag k="place" v="locality" />
		<tag k="ssr:stedsnr" v="494149" />
	</node>
	<node lat="60.946444444665445" lon="5.977338883147001" id="-75619">
		<tag k="fixme" v="consider natural=peak for the most distinct mountains in the district" />
		<tag k="name" v="Rusta" />
		<tag k="natural" v="hill" />
		<tag k="place" v="locality" />
		<tag k="ssr:stedsnr" v="494782" />
	</node>
	<node lat="60.75498055146868" lon="5.702522225745618" id="-75623">
		<tag k="name" v="Kjetoa" />
		<tag k="place" v="locality" />
		<tag k="ssr:stedsnr" v="529557" />
	</node>
	<node lat="60.72594688308796" lon="5.700859850989039" id="-75624">
		<tag k="fixme" v="consider natural=saddle" />
		<tag k="name" v="Fagerskaret" />
		<tag k="natural" v="valley" />
		<tag k="place" v="locality" />
		<tag k="ssr:stedsnr" v="529561" />
	</node>
	<node lat="60.777650003208336" lon="5.680558325839337" id="-75625">
		<tag k="name" v="Åsbrekkena" />
		<tag k="natural" v="slope" />
		<tag k="place" v="locality" />
		<tag k="ssr:stedsnr" v="529574" />
	</node>
	<node lat="60.87102222228854" lon="5.9723277715858165" id="-75627">
		<tag k="name" v="Bjørnbakken" />
		<tag k="natural" v="slope" />
		<tag k="place" v="locality" />
		<tag k="ssr:stedsnr" v="530565" />
	</node>
	<node lat="60.912161106873924" lon="5.986988882143014" id="-75630">
		<tag k="fixme" v="consider natural=peak for the most distinct mountains in the district" />
		<tag k="name" v="Holmanesfjellet" />
		<tag k="natural" v="hill" />
		<tag k="place" v="locality" />
		<tag k="ssr:stedsnr" v="554061" />
	</node>
	<node lat="60.89620555277451" lon="6.03474999824185" id="-75632">
		<tag k="fixme" v="consider natural=peak for the most distinct mountains in the district" />
		<tag k="name" v="Knolten" />
		<tag k="natural" v="hill" />
		<tag k="place" v="locality" />
		<tag k="ssr:stedsnr" v="554077" />
	</node>
	<node lat="60.979852778318204" lon="5.917950004366845" id="-75633">
		<tag k="name" v="Vestrebotnen" />
		<tag k="natural" v="valley" />
		<tag k="place" v="locality" />
		<tag k="ssr:stedsnr" v="554009" />
	</node>
	<node lat="60.96226388481585" lon="6.01713889834407" id="-75634">
		<tag k="fixme" v="consider natural=peak for the most distinct mountains in the district" />
		<tag k="name" v="Rusta" />
		<tag k="natural" v="hill" />
		<tag k="place" v="locality" />
		<tag k="ssr:stedsnr" v="554017" />
	</node>
	<node lat="60.93447500305769" lon="5.945219450944646" id="-75637">
		<tag k="name" v="Kvernhusbotnen" />
		<tag k="natural" v="valley" />
		<tag k="place" v="locality" />
		<tag k="ssr:stedsnr" v="554119" />
	</node>
	<node lat="60.82278611465173" lon="5.8620194380317745" id="-75640">
		<tag k="name" v="Modalen" />
		<tag k="natural" v="valley" />
		<tag k="place" v="locality" />
		<tag k="ssr:stedsnr" v="554131" />
	</node>
	<node lat="60.78641388519516" lon="5.7126861093181915" id="-75641">
		<tag k="fixme" v="consider natural=saddle" />
		<tag k="name" v="Beitlaskaret" />
		<tag k="natural" v="valley" />
		<tag k="place" v="locality" />
		<tag k="ssr:stedsnr" v="554473" />
	</node>
	<node lat="60.874833332502625" lon="6.023025004061569" id="-75642">
		<tag k="fixme" v="consider natural=peak for the most distinct mountains in the district" />
		<tag k="name" v="Tverrfjellet" />
		<tag k="natural" v="hill" />
		<tag k="place" v="locality" />
		<tag k="ssr:stedsnr" v="554168" />
	</node>
	<node lat="60.851625000598546" lon="5.86716665969905" id="-75645">
		<tag k="name" v="Tveradalen" />
		<tag k="natural" v="valley" />
		<tag k="place" v="locality" />
		<tag k="ssr:stedsnr" v="554841" />
	</node>
	<node lat="60.82710833584147" lon="5.9492500035659575" id="-75647">
		<tag k="name" v="Flåtane" />
		<tag k="place" v="locality" />
		<tag k="ssr:stedsnr" v="590527" />
	</node>
	<node lat="60.82966388518362" lon="5.912172223201989" id="-75648">
		<tag k="name" v="Hanrane" />
		<tag k="natural" v="ridge" />
		<tag k="place" v="locality" />
		<tag k="ssr:stedsnr" v="590542" />
	</node>
	<node lat="60.832655558155324" lon="5.916358333527316" id="-75649">
		<tag k="fixme" v="consider natural=saddle" />
		<tag k="name" v="Skrena" />
		<tag k="natural" v="valley" />
		<tag k="place" v="locality" />
		<tag k="ssr:stedsnr" v="590543" />
	</node>
	<node lat="60.85620277913298" lon="5.988669450502138" id="-75652">
		<tag k="name" v="Dermannshaugen" />
		<tag k="natural" v="hill" />
		<tag k="place" v="locality" />
		<tag k="ssr:stedsnr" v="590557" />
	</node>
	<node lat="60.92908333266542" lon="6.120636110626679" id="-75654">
		<tag k="name" v="Skorvadalen" />
		<tag k="natural" v="valley" />
		<tag k="place" v="locality" />
		<tag k="ssr:stedsnr" v="614115" />
	</node>
	<node lat="60.86841666447246" lon="5.8353527867673005" id="-75655">
		<tag k="name" v="Bleidalen" />
		<tag k="natural" v="valley" />
		<tag k="place" v="locality" />
		<tag k="ssr:stedsnr" v="614435" />
	</node>
	<node lat="60.78641110864428" lon="5.789322218681681" id="-75657">
		<tag k="name" v="Nyløholene" />
		<tag k="natural" v="valley" />
		<tag k="place" v="locality" />
		<tag k="ssr:stedsnr" v="614460" />
	</node>
	<node lat="60.79119444468686" lon="5.776761113240417" id="-75658">
		<tag k="name" v="Klettadalen" />
		<tag k="natural" v="valley" />
		<tag k="place" v="locality" />
		<tag k="ssr:stedsnr" v="614470" />
	</node>
	<node lat="60.9576305599312" lon="6.003844443276847" id="-75659">
		<tag k="fixme" v="consider natural=peak for the most distinct mountains in the district" />
		<tag k="name" v="Hytteberget" />
		<tag k="natural" v="hill" />
		<tag k="place" v="locality" />
		<tag k="ssr:stedsnr" v="615033" />
	</node>
	<node lat="60.76598332934843" lon="5.672436105437747" id="-75660">
		<tag k="name" v="Storebotnen" />
		<tag k="natural" v="valley" />
		<tag k="place" v="locality" />
		<tag k="ssr:stedsnr" v="615043" />
	</node>
	<node lat="60.83724444791059" lon="5.869013888904029" id="-75662">
		<tag k="name" v="Heimalia" />
		<tag k="natural" v="slope" />
		<tag k="place" v="locality" />
		<tag k="ssr:stedsnr" v="615159" />
	</node>
	<node lat="60.866825001106776" lon="5.951449992809781" id="-75663">
		<tag k="name" v="Kvernhusbotnen" />
		<tag k="natural" v="valley" />
		<tag k="place" v="locality" />
		<tag k="ssr:stedsnr" v="615161" />
	</node>
	<node lat="60.83216944427956" lon="5.931391665459787" id="-75664">
		<tag k="name" v="Klauva" />
		<tag k="natural" v="slope" />
		<tag k="place" v="locality" />
		<tag k="ssr:stedsnr" v="615133" />
	</node>
	<node lat="60.86354999866364" lon="5.845894448383208" id="-75668">
		<tag k="name" v="Storehaugen" />
		<tag k="natural" v="hill" />
		<tag k="place" v="locality" />
		<tag k="ssr:stedsnr" v="615149" />
	</node>
	<node lat="60.8127694447798" lon="5.747069437865028" id="-75670">
		<tag k="fixme" v="consider natural=peak for the most distinct mountains in the district" />
		<tag k="name" v="Botnafjellet" />
		<tag k="natural" v="hill" />
		<tag k="place" v="locality" />
		<tag k="ssr:stedsnr" v="615472" />
	</node>
	<node lat="60.759869442527624" lon="5.687524999632366" id="-75671">
		<tag k="fixme" v="consider natural=peak for the most distinct mountains in the district" />
		<tag k="name" v="Åsen" />
		<tag k="natural" v="hill" />
		<tag k="place" v="locality" />
		<tag k="ssr:stedsnr" v="615788" />
	</node>
	<node lat="60.78265833567145" lon="5.749174991848549" id="-75673">
		<tag k="name" v="Svinhelleren" />
		<tag k="place" v="locality" />
		<tag k="ssr:stedsnr" v="650533" />
	</node>
	<node lat="60.763747220670474" lon="5.69038332689415" id="-75674">
		<tag k="name" v="Krakelia" />
		<tag k="natural" v="slope" />
		<tag k="place" v="locality" />
		<tag k="ssr:stedsnr" v="650551" />
	</node>
	<node lat="60.76339722479739" lon="5.677808333882436" id="-75675">
		<tag k="name" v="Vetlebotnen" />
		<tag k="natural" v="valley" />
		<tag k="place" v="locality" />
		<tag k="ssr:stedsnr" v="650552" />
	</node>
	<node lat="60.83916944096377" lon="5.913911109035667" id="-75676">
		<tag k="name" v="Sollia" />
		<tag k="natural" v="slope" />
		<tag k="place" v="locality" />
		<tag k="ssr:stedsnr" v="650564" />
	</node>
	<node lat="60.83528611231295" lon="5.853991672396361" id="-75677">
		<tag k="name" v="Løype" />
		<tag k="place" v="locality" />
		<tag k="ssr:stedsnr" v="650569" />
	</node>
	<node lat="60.836969441077855" lon="5.85809721436694" id="-75678">
		<tag k="name" v="Legda" />
		<tag k="place" v="locality" />
		<tag k="ssr:stedsnr" v="650570" />
	</node>
	<node lat="60.82113055907993" lon="5.7596277685868245" id="-75679">
		<tag k="name" v="Fallet" />
		<tag k="natural" v="cliff" />
		<tag k="ssr:stedsnr" v="650584" />
	</node>
	<node lat="60.86462777532763" lon="6.004666674428262" id="-75681">
		<tag k="name" v="Tverrlia" />
		<tag k="natural" v="slope" />
		<tag k="place" v="locality" />
		<tag k="ssr:stedsnr" v="651591" />
	</node>
	<node lat="60.84726388512036" lon="5.851947227083564" id="-75682">
		<tag k="name" v="Fitjane" />
		<tag k="place" v="locality" />
		<tag k="ssr:stedsnr" v="651527" />
	</node>
	<node lat="60.91617222112597" lon="5.942825003416184" id="-75683">
		<tag k="name" v="Revabotn" />
		<tag k="natural" v="valley" />
		<tag k="place" v="locality" />
		<tag k="ssr:stedsnr" v="651710" />
	</node>
	<node lat="60.91256388950114" lon="5.958611115079517" id="-75684">
		<tag k="name" v="Slette" />
		<tag k="place" v="locality" />
		<tag k="ssr:stedsnr" v="651712" />
	</node>
	<node lat="60.75494722424035" lon="5.7365750029975375" id="-75688">
		<tag k="name" v="Storlia" />
		<tag k="natural" v="slope" />
		<tag k="place" v="locality" />
		<tag k="ssr:stedsnr" v="711561" />
	</node>
	<node lat="60.77661389182833" lon="5.7239527774282415" id="-75689">
		<tag k="name" v="Sersjantlia" />
		<tag k="natural" v="slope" />
		<tag k="place" v="locality" />
		<tag k="ssr:stedsnr" v="711565" />
	</node>
	<node lat="60.83564721983385" lon="5.940341663201207" id="-75691">
		<tag k="name" v="Timmerlia" />
		<tag k="natural" v="slope" />
		<tag k="place" v="locality" />
		<tag k="ssr:stedsnr" v="712539" />
	</node>
	<node lat="60.835113893148566" lon="5.953591658084447" id="-75692">
		<tag k="name" v="Almane" />
		<tag k="place" v="locality" />
		<tag k="ssr:stedsnr" v="712545" />
	</node>
	<node lat="60.75581944556854" lon="5.744191667184167" id="-75697">
		<tag k="fixme" v="consider natural=peak for the most distinct mountains in the district" />
		<tag k="name" v="Toppfjellet" />
		<tag k="natural" v="hill" />
		<tag k="place" v="locality" />
		<tag k="ssr:stedsnr" v="736058" />
	</node>
	<node lat="60.77253888635632" lon="5.753649992544526" id="-75698">
		<tag k="name" v="Storehaugen" />
		<tag k="natural" v="hill" />
		<tag k="place" v="locality" />
		<tag k="ssr:stedsnr" v="736433" />
	</node>
	<node lat="60.77647777957325" lon="5.769788892801761" id="-75699">
		<tag k="name" v="Fjellbotnen" />
		<tag k="natural" v="valley" />
		<tag k="place" v="locality" />
		<tag k="ssr:stedsnr" v="736434" />
	</node>
	<node lat="60.929908335872305" lon="6.039794441046715" id="-75700">
		<tag k="fixme" v="consider natural=peak for the most distinct mountains in the district" />
		<tag k="name" v="Storfjellet" />
		<tag k="natural" v="hill" />
		<tag k="place" v="locality" />
		<tag k="ssr:stedsnr" v="736129" />
	</node>
	<node lat="60.97350278086555" lon="6.011374991233497" id="-75701">
		<tag k="name" v="Norddalen" />
		<tag k="natural" v="valley" />
		<tag k="place" v="locality" />
		<tag k="ssr:stedsnr" v="737013" />
	</node>
	<node lat="60.866133332021796" lon="5.88031665877496" id="-75703">
		<tag k="fixme" v="consider natural=peak for the most distinct mountains in the district" />
		<tag k="name" v="Seljedalsfjellet" />
		<tag k="natural" v="hill" />
		<tag k="place" v="locality" />
		<tag k="ssr:stedsnr" v="737150" />
	</node>
	<node lat="60.8706305559481" lon="5.907725000450628" id="-75704">
		<tag k="fixme" v="consider natural=peak for the most distinct mountains in the district" />
		<tag k="name" v="Altaret" />
		<tag k="natural" v="hill" />
		<tag k="place" v="locality" />
		<tag k="ssr:stedsnr" v="737154" />
	</node>
	<node lat="60.88132499933555" lon="6.077752785668745" id="-75705">
		<tag k="name" v="Viermyrdalen" />
		<tag k="natural" v="valley" />
		<tag k="place" v="locality" />
		<tag k="ssr:stedsnr" v="737158" />
	</node>
	<node lat="60.867705554714384" lon="5.9052249949567805" id="-75706">
		<tag k="name" v="Dalenden" />
		<tag k="natural" v="valley" />
		<tag k="place" v="locality" />
		<tag k="ssr:stedsnr" v="737162" />
	</node>
	<node lat="60.83196667124124" lon="5.763138893368902" id="-75707">
		<tag k="name" v="Leitet" />
		<tag k="natural" v="hill" />
		<tag k="place" v="locality" />
		<tag k="ssr:stedsnr" v="737363" />
	</node>
	<node lat="60.82969444090058" lon="5.872438898139741" id="-75710">
		<tag k="name" v="Feta" />
		<tag k="place" v="locality" />
		<tag k="ssr:stedsnr" v="772531" />
	</node>
	<node lat="60.811344448247915" lon="5.807736110796663" id="-75714">
		<tag k="name" v="Botnatoa" />
		<tag k="natural" v="valley" />
		<tag k="place" v="locality" />
		<tag k="ssr:stedsnr" v="772594" />
	</node>
	<node lat="60.80891666430518" lon="5.795233336296656" id="-75715">
		<tag k="name" v="Klettane" />
		<tag k="natural" v="hill" />
		<tag k="place" v="locality" />
		<tag k="ssr:stedsnr" v="772597" />
	</node>
	<node lat="60.885283337879116" lon="5.994786119653651" id="-75716">
		<tag k="fixme" v="consider natural=peak for the most distinct mountains in the district" />
		<tag k="name" v="Nåmdalsfjellet" />
		<tag k="natural" v="hill" />
		<tag k="place" v="locality" />
		<tag k="ssr:stedsnr" v="773496" />
	</node>
	<node lat="60.83302221876787" lon="5.944766668740198" id="-75717">
		<tag k="name" v="Skavlen" />
		<tag k="natural" v="hill" />
		<tag k="place" v="locality" />
		<tag k="ssr:stedsnr" v="773540" />
	</node>
	<node lat="60.95871388708083" lon="5.955186117565808" id="-75720">
		<tag k="name" v="Botnelvskavlen" />
		<tag k="place" v="locality" />
		<tag k="ssr:stedsnr" v="773689" />
	</node>
	<node lat="60.766088885558965" lon="5.7618888878344405" id="-75723">
		<tag k="name" v="Grønetørna" />
		<tag k="natural" v="valley" />
		<tag k="place" v="locality" />
		<tag k="ssr:stedsnr" v="797045" />
	</node>
	<node lat="60.752699999257686" lon="5.656736112325171" id="-75724">
		<tag k="fixme" v="consider natural=peak for the most distinct mountains in the district" />
		<tag k="name" v="Nipa" />
		<tag k="natural" v="hill" />
		<tag k="place" v="locality" />
		<tag k="ssr:stedsnr" v="797058" />
	</node>
	<node lat="60.90745277986143" lon="6.039608328786168" id="-75726">
		<tag k="name" v="Kvanndalen" />
		<tag k="natural" v="valley" />
		<tag k="place" v="locality" />
		<tag k="ssr:stedsnr" v="797084" />
	</node>
	<node lat="60.88643333602664" lon="5.869980560968114" id="-75727">
		<tag k="fixme" v="consider natural=peak for the most distinct mountains in the district" />
		<tag k="name" v="Nordbotnfjellet" />
		<tag k="natural" v="hill" />
		<tag k="place" v="locality" />
		<tag k="ssr:stedsnr" v="797087" />
	</node>
	<node lat="60.88046389335367" lon="5.852536109084576" id="-75729">
		<tag k="name" v="Trollegilsbotnen" />
		<tag k="natural" v="valley" />
		<tag k="place" v="locality" />
		<tag k="ssr:stedsnr" v="797093" />
	</node>
	<node lat="60.88833333041799" lon="6.097283341145635" id="-75730">
		<tag k="fixme" v="consider natural=peak for the most distinct mountains in the district" />
		<tag k="name" v="Flatafjellet" />
		<tag k="natural" v="hill" />
		<tag k="place" v="locality" />
		<tag k="ssr:stedsnr" v="797096" />
	</node>
	<node lat="60.99527500159683" lon="6.083213893302377" id="-75731">
		<tag k="name" v="Blådalen" />
		<tag k="natural" v="valley" />
		<tag k="place" v="locality" />
		<tag k="ssr:stedsnr" v="797002" />
	</node>
	<node lat="60.94481389321881" lon="6.050838888377746" id="-75732">
		<tag k="fixme" v="consider natural=saddle" />
		<tag k="name" v="Sygnaskaret" />
		<tag k="natural" v="valley" />
		<tag k="place" v="locality" />
		<tag k="ssr:stedsnr" v="797118" />
	</node>
	<node lat="60.83343055370463" lon="5.7457055572716635" id="-75734">
		<tag k="name" v="Trollholene" />
		<tag k="natural" v="valley" />
		<tag k="place" v="locality" />
		<tag k="ssr:stedsnr" v="797377" />
	</node>
	<node lat="60.83268610946934" lon="5.808991668244424" id="-75735">
		<tag k="fixme" v="consider natural=peak for the most distinct mountains in the district" />
		<tag k="name" v="Austraberget" />
		<tag k="natural" v="hill" />
		<tag k="place" v="locality" />
		<tag k="ssr:stedsnr" v="797380" />
	</node>
	<node lat="60.81172777791487" lon="5.808819449556224" id="-75736">
		<tag k="fixme" v="consider natural=peak for the most distinct mountains in the district" />
		<tag k="name" v="Husafjellet" />
		<tag k="natural" v="hill" />
		<tag k="place" v="locality" />
		<tag k="ssr:stedsnr" v="797822" />
	</node>
	<node lat="60.96343055521739" lon="6.05460277513365" id="-75738">
		<tag k="fixme" v="consider natural=peak for the most distinct mountains in the district" />
		<tag k="name" v="Skålebotnnova" />
		<tag k="natural" v="hill" />
		<tag k="place" v="locality" />
		<tag k="ssr:stedsnr" v="798035" />
	</node>
	<node lat="60.79613610755462" lon="5.81246666407537" id="-75739">
		<tag k="name" v="Botnen" />
		<tag k="natural" v="valley" />
		<tag k="place" v="locality" />
		<tag k="ssr:stedsnr" v="797455" />
	</node>
	<node lat="60.795466664154134" lon="5.723891675738572" id="-75740">
		<tag k="fixme" v="consider natural=peak for the most distinct mountains in the district" />
		<tag k="name" v="Beitlafjellet" />
		<tag k="natural" v="hill" />
		<tag k="place" v="locality" />
		<tag k="ssr:stedsnr" v="797458" />
	</node>
	<node lat="60.816055556345326" lon="5.733561110995738" id="-75741">
		<tag k="fixme" v="consider natural=peak for the most distinct mountains in the district" />
		<tag k="name" v="Stølsfjellet" />
		<tag k="natural" v="hill" />
		<tag k="place" v="locality" />
		<tag k="ssr:stedsnr" v="797489" />
	</node>
	<node lat="60.77725000272659" lon="5.735255563801686" id="-75742">
		<tag k="name" v="Skjerjadalen" />
		<tag k="natural" v="valley" />
		<tag k="place" v="locality" />
		<tag k="ssr:stedsnr" v="797440" />
	</node>
	<node lat="60.8455694466112" lon="5.991149999652506" id="-75743">
		<tag k="alt_name" v="Skålbotn" />
		<tag k="name" v="Skålbotnen" />
		<tag k="natural" v="valley" />
		<tag k="place" v="locality" />
		<tag k="ssr:stedsnr" v="798132" />
	</node>
	<node lat="60.826486112244986" lon="5.900633328564887" id="-75744">
		<tag k="fixme" v="consider natural=peak for the most distinct mountains in the district" />
		<tag k="name" v="Middagsfjellet" />
		<tag k="natural" v="hill" />
		<tag k="place" v="locality" />
		<tag k="ssr:stedsnr" v="798142" />
	</node>
	<node lat="60.814299997214206" lon="5.765350006042636" id="-75745">
		<tag k="fixme" v="consider natural=peak for the most distinct mountains in the district" />
		<tag k="name" v="Haugane" />
		<tag k="natural" v="hill" />
		<tag k="place" v="locality" />
		<tag k="ssr:stedsnr" v="798445" />
	</node>
	<node lat="60.76218611081092" lon="5.729041660214968" id="-75749">
		<tag k="name" v="Nova" />
		<tag k="place" v="locality" />
		<tag k="ssr:stedsnr" v="833628" />
	</node>
	<node lat="60.7501888851347" lon="5.726916673110859" id="-75750">
		<tag k="fixme" v="consider natural=peak for the most distinct mountains in the district" />
		<tag k="name" v="Skredfjellet" />
		<tag k="natural" v="hill" />
		<tag k="place" v="locality" />
		<tag k="ssr:stedsnr" v="833574" />
	</node>
	<node lat="60.883680556625684" lon="6.020772213939263" id="-75753">
		<tag k="fixme" v="consider natural=saddle" />
		<tag k="name" v="Åsskaret" />
		<tag k="natural" v="valley" />
		<tag k="place" v="locality" />
		<tag k="ssr:stedsnr" v="834523" />
	</node>
	<node lat="60.84665555323736" lon="5.859261102214393" id="-75754">
		<tag k="name" v="Kleivane" />
		<tag k="natural" v="slope" />
		<tag k="place" v="locality" />
		<tag k="ssr:stedsnr" v="834525" />
	</node>
	<node lat="60.870888887542655" lon="5.967988893760146" id="-75755">
		<tag k="name" v="Godhola" />
		<tag k="natural" v="valley" />
		<tag k="place" v="locality" />
		<tag k="ssr:stedsnr" v="834555" />
	</node>
	<node lat="60.83765833638438" lon="5.966194452222177" id="-75757">
		<tag k="fixme" v="consider natural=peak for the most distinct mountains in the district" />
		<tag k="name" v="Kuldeåsen" />
		<tag k="natural" v="hill" />
		<tag k="place" v="locality" />
		<tag k="ssr:stedsnr" v="834567" />
	</node>
	<node lat="60.89855833227873" lon="6.085213892773426" id="-75760">
		<tag k="fixme" v="consider natural=peak for the most distinct mountains in the district" />
		<tag k="name" v="Saufjellet" />
		<tag k="natural" v="hill" />
		<tag k="place" v="locality" />
		<tag k="ssr:stedsnr" v="858080" />
	</node>
	<node lat="60.82811388943577" lon="5.778177784743997" id="-75761">
		<tag k="name" v="Øvstebotnen" />
		<tag k="natural" v="valley" />
		<tag k="place" v="locality" />
		<tag k="ssr:stedsnr" v="858392" />
	</node>
	<node lat="60.87288889047458" lon="5.990658330969849" id="-75769">
		<tag k="fixme" v="consider natural=peak for the most distinct mountains in the district" />
		<tag k="name" v="Stimma" />
		<tag k="natural" v="hill" />
		<tag k="place" v="locality" />
		<tag k="ssr:stedsnr" v="858162" />
	</node>
	<node lat="60.8682499966805" lon="6.07970555850445" id="-75771">
		<tag k="fixme" v="consider natural=peak for the most distinct mountains in the district" />
		<tag k="name" v="Reinsnova" />
		<tag k="natural" v="hill" />
		<tag k="place" v="locality" />
		<tag k="ssr:stedsnr" v="858169" />
	</node>
	<node lat="60.792713889749535" lon="5.708030563452196" id="-75773">
		<tag k="fixme" v="consider natural=peak for the most distinct mountains in the district" />
		<tag k="name" v="Tverrfjellet" />
		<tag k="natural" v="hill" />
		<tag k="place" v="locality" />
		<tag k="ssr:stedsnr" v="918521" />
	</node>
	<node lat="60.80768333472829" lon="5.8717388836151345" id="-75774">
		<tag k="fixme" v="consider natural=peak for the most distinct mountains in the district" />
		<tag k="name" v="Lågfjellet" />
		<tag k="natural" v="hill" />
		<tag k="place" v="locality" />
		<tag k="ssr:stedsnr" v="919130" />
	</node>
	<node lat="60.82527499707191" lon="5.974763893835647" id="-75775">
		<tag k="name" v="Daurmålsbotnen" />
		<tag k="natural" v="valley" />
		<tag k="place" v="locality" />
		<tag k="ssr:stedsnr" v="919139" />
	</node>
	<node lat="60.88613889183396" lon="6.061641661006953" id="-75777">
		<tag k="fixme" v="consider natural=peak for the most distinct mountains in the district" />
		<tag k="name" v="Daurmålshaugen" />
		<tag k="natural" v="hill" />
		<tag k="place" v="locality" />
		<tag k="ssr:stedsnr" v="919086" />
	</node>
	<node lat="60.83911111196579" lon="5.824886106032446" id="-75781">
		<tag k="name" v="Kollebotnen" />
		<tag k="natural" v="valley" />
		<tag k="place" v="locality" />
		<tag k="ssr:stedsnr" v="919391" />
	</node>
	<node lat="60.82892777981961" lon="5.919313886976687" id="-75783">
		<tag k="name" v="Midttoa" />
		<tag k="place" v="locality" />
		<tag k="ssr:stedsnr" v="954515" />
	</node>
	<node lat="60.81520277514651" lon="5.8972916731334735" id="-75787">
		<tag k="name" v="Jobotten" />
		<tag k="natural" v="valley" />
		<tag k="place" v="locality" />
		<tag k="ssr:stedsnr" v="955539" />
	</node>
	<node lat="60.8327055568055" lon="5.9667499958520684" id="-75788">
		<tag k="name" v="Sæskarberget" />
		<tag k="natural" v="hill" />
		<tag k="place" v="locality" />
		<tag k="ssr:stedsnr" v="955567" />
	</node>
</osm>
