<?xml version="1.0" encoding="UTF-8"?>
<osm version="0.6" generator="osmapis">
	<node lat="60.90942500323111" lon="6.004094451912596" id="-71703">
		<tag k="historic" v="shieling" />
		<tag k="name" v="Nystølen" />
		<tag k="place" v="isolated_dwelling" />
		<tag k="ssr:stedsnr" v="9039" />
	</node>
	<node lat="60.957330553729165" lon="6.026433340903494" id="-71737">
		<tag k="historic" v="shieling" />
		<tag k="name" v="Heimrestølen" />
		<tag k="place" v="isolated_dwelling" />
		<tag k="ssr:stedsnr" v="251102" />
	</node>
	<node lat="60.93733889042791" lon="5.972330563466558" id="-71740">
		<tag k="fixme" v="consider place=hamlet" />
		<tag k="name" v="Steinsland" />
		<tag k="place" v="farm" />
		<tag k="ssr:stedsnr" v="251122" />
	</node>
	<node lat="60.82578055284764" lon="5.845255557010404" id="-71749">
		<tag k="name" v="Granheim" />
		<tag k="place" v="farm" />
		<tag k="ssr:stedsnr" v="130103" />
	</node>
	<node lat="60.82019166470345" lon="5.763391672093819" id="-71770">
		<tag k="historic" v="shieling" />
		<tag k="name" v="Otterstadstølen" />
		<tag k="place" v="isolated_dwelling" />
		<tag k="ssr:stedsnr" v="190512" />
	</node>
	<node lat="60.88853333655096" lon="6.031130560635628" id="-71774">
		<tag k="name" v="Liland" />
		<tag k="place" v="farm" />
		<tag k="ssr:stedsnr" v="191073" />
	</node>
	<node lat="60.86190833400141" lon="5.815297223055156" id="-71783">
		<tag k="fixme" v="consider tourism=alpine_hut or tourism=chalet" />
		<tag k="name" v="Skavlabu" />
		<tag k="ssr:stedsnr" v="282115" />
		<tag k="tourism" v="wilderness_hut" />
	</node>
	<node lat="60.7758499968989" lon="5.682900007977385" id="-71793">
		<tag k="historic" v="shieling" />
		<tag k="name" v="Nottveitsætra" />
		<tag k="place" v="isolated_dwelling" />
		<tag k="ssr:stedsnr" v="311487" />
	</node>
	<node lat="60.982575002249646" lon="6.108286106575135" id="-71795">
		<tag k="historic" v="shieling" />
		<tag k="name" v="Steinslandsstølen" />
		<tag k="place" v="isolated_dwelling" />
		<tag k="ssr:stedsnr" v="312017" />
	</node>
	<node lat="60.82355277660299" lon="5.8449944464662815" id="-71797">
		<tag k="alt_name" v="Nesheim" />
		<tag k="name" v="Nesjane" />
		<tag k="place" v="farm" />
		<tag k="ssr:stedsnr" v="312110" />
	</node>
	<node lat="60.85617777815375" lon="5.873386120203067" id="-71798">
		<tag k="historic" v="shieling" />
		<tag k="name" v="Tveradalsstølen" />
		<tag k="place" v="isolated_dwelling" />
		<tag k="ssr:stedsnr" v="312167" />
	</node>
	<node lat="60.760005559696715" lon="5.6941055539296315" id="-71833">
		<tag k="fixme" v="consider place=hamlet" />
		<tag k="name" v="Nottveit" />
		<tag k="place" v="farm" />
		<tag k="ssr:stedsnr" v="372056" />
	</node>
	<node lat="60.758074997340266" lon="5.754027769682929" id="-71834">
		<tag k="historic" v="shieling" />
		<tag k="name" v="Fagerstølen" />
		<tag k="place" v="isolated_dwelling" />
		<tag k="ssr:stedsnr" v="372059" />
	</node>
	<node lat="60.74109999587514" lon="5.720025000125143" id="-71843">
		<tag k="historic" v="shieling" />
		<tag k="name" v="Mostraumstølen" />
		<tag k="place" v="isolated_dwelling" />
		<tag k="ssr:stedsnr" v="491320" />
	</node>
	<node lat="60.798774997673156" lon="5.807500009332181" id="-71857">
		<tag k="historic" v="shieling" />
		<tag k="name" v="Mostølen" />
		<tag k="place" v="isolated_dwelling" />
		<tag k="ssr:stedsnr" v="493449" />
	</node>
	<node lat="60.89324444326769" lon="6.062352772123765" id="-71858">
		<tag k="historic" v="shieling" />
		<tag k="name" v="Krosstølen" />
		<tag k="place" v="isolated_dwelling" />
		<tag k="ssr:stedsnr" v="494090" />
	</node>
	<node lat="60.85539444269647" lon="5.85555832446846" id="-71869">
		<tag k="historic" v="shieling" />
		<tag k="name" v="Sørstølen" />
		<tag k="place" v="isolated_dwelling" />
		<tag k="ssr:stedsnr" v="494158" />
	</node>
	<node lat="60.8606361130196" lon="6.010475008403092" id="-71895">
		<tag k="name" v="Kroken" />
		<tag k="place" v="isolated_dwelling" />
		<tag k="ssr:stedsnr" v="494162" />
	</node>
	<node lat="60.8188922556359" lon="5.811092531169635" id="-71897">
		<tag k="fixme" v="consider place=hamlet" />
		<tag k="name" v="Otterstad" />
		<tag k="place" v="farm" />
		<tag k="ssr:stedsnr" v="494461" />
	</node>
	<node lat="60.764838892503775" lon="5.727163885598606" id="-71900">
		<tag k="name" v="Mostraum" />
		<tag k="place" v="farm" />
		<tag k="ssr:stedsnr" v="529607" />
	</node>
	<node lat="60.826466665642094" lon="5.8439527738963" id="-71918">
		<tag k="name" v="Hugnadstad" />
		<tag k="place" v="farm" />
		<tag k="ssr:stedsnr" v="554135" />
	</node>
	<node lat="60.839024996210696" lon="5.904299997685085" id="-71919">
		<tag k="fixme" v="consider place=hamlet" />
		<tag k="name" v="Almelii" />
		<tag k="place" v="farm" />
		<tag k="ssr:stedsnr" v="554138" />
	</node>
	<node lat="60.75569444389841" lon="5.7165138888820595" id="-71952">
		<tag k="name" v="Mostraumshaugen" />
		<tag k="place" v="farm" />
		<tag k="ssr:stedsnr" v="676057" />
	</node>
	<node lat="60.83351630377094" lon="5.871730909367764" id="-71954">
		<tag k="alt_name" v="Nedrehelland;Helland" />
		<tag k="fixme" v="consider place=hamlet" />
		<tag k="name" v="Nedre Helland" />
		<tag k="place" v="farm" />
		<tag k="ssr:stedsnr" v="676143" />
	</node>
	<node lat="60.90781110960582" lon="5.849197219328594" id="-71981">
		<tag k="alt_name" v="Skjerjavasshytta Th" />
		<tag k="name" v="Skjerjavasshytta" />
		<tag k="place" v="isolated_dwelling" />
		<tag k="ssr:stedsnr" v="737064" />
	</node>
	<node lat="60.863741404935396" lon="5.979958408972614" id="-71995">
		<tag k="fixme" v="consider place=hamlet" />
		<tag k="name" v="Namdal" />
		<tag k="place" v="farm" />
		<tag k="ssr:stedsnr" v="773516" />
	</node>
	<node lat="60.75491944778378" lon="5.721605555300843" id="-72003">
		<tag k="name" v="Mostraumsviki" />
		<tag k="place" v="farm" />
		<tag k="ssr:stedsnr" v="797059" />
	</node>
	<node lat="60.865527773783974" lon="5.974419451579513" id="-72017">
		<tag k="name" v="Nygard" />
		<tag k="place" v="farm" />
		<tag k="ssr:stedsnr" v="919167" />
	</node>
	<node lat="60.836844442834526" lon="5.893541666160021" id="-72070">
		<tag k="name" v="Almelineset" />
		<tag k="place" v="farm" />
		<tag k="ssr:stedsnr" v="9113" />
	</node>
	<node lat="60.815013891299124" lon="5.8028666573140155" id="-72075">
		<tag k="fixme" v="consider place=hamlet" />
		<tag k="name" v="Mo" />
		<tag k="place" v="village" />
		<tag k="ssr:stedsnr" v="9483" />
	</node>
	<node lat="60.9431750040441" lon="5.971627770772334" id="-72090">
		<tag k="name" v="Heimdal" />
		<tag k="place" v="farm" />
		<tag k="ssr:stedsnr" v="69101" />
	</node>
	<node lat="60.83213333196632" lon="5.863000004327886" id="-72093">
		<tag k="name" v="Krossdal" />
		<tag k="place" v="farm" />
		<tag k="ssr:stedsnr" v="69143" />
	</node>
	<node lat="60.91224166726513" lon="5.966555554518578" id="-72094">
		<tag k="historic" v="shieling" />
		<tag k="name" v="Straumsstølen" />
		<tag k="place" v="isolated_dwelling" />
		<tag k="ssr:stedsnr" v="69122" />
	</node>
	<node lat="60.9644805578114" lon="6.014124994289592" id="-72135">
		<tag k="alt_name" v="Straumsstølen" />
		<tag k="historic" v="shieling" />
		<tag k="name" v="Fjellstølen" />
		<tag k="place" v="isolated_dwelling" />
		<tag k="ssr:stedsnr" v="191023" />
	</node>
	<node lat="60.821699999376854" lon="5.948091658174269" id="-72138">
		<tag k="historic" v="shieling" />
		<tag k="name" v="Todeilsstølen" />
		<tag k="place" v="isolated_dwelling" />
		<tag k="ssr:stedsnr" v="191118" />
	</node>
	<node lat="60.87626388933334" lon="5.975227782577138" id="-72139">
		<tag k="name" v="Heimdal" />
		<tag k="place" v="farm" />
		<tag k="ssr:stedsnr" v="191133" />
	</node>
	<node lat="60.88121389009565" lon="6.107849996911855" id="-72140">
		<tag k="name" v="Skjerjabotnen" />
		<tag k="place" v="isolated_dwelling" />
		<tag k="ssr:stedsnr" v="191137" />
	</node>
	<node lat="60.83931944280218" lon="5.927041666145302" id="-72175">
		<tag k="name" v="Øyjordi" />
		<tag k="place" v="farm" />
		<tag k="ssr:stedsnr" v="287640" />
	</node>
	<node lat="60.853405559250106" lon="6.007299995495459" id="-72191">
		<tag k="historic" v="shieling" />
		<tag k="name" v="Tveradalsstølen" />
		<tag k="place" v="isolated_dwelling" />
		<tag k="ssr:stedsnr" v="312159" />
	</node>
	<node lat="61.01511111085671" lon="5.9965166752926695" id="-72194">
		<tag k="fixme" v="consider tourism=alpine_hut or tourism=chalet" />
		<tag k="name" v="Norddalshytten" />
		<tag k="old_name" v="Norddalen" />
		<tag k="ssr:stedsnr" v="312349" />
		<tag k="tourism" v="wilderness_hut" />
	</node>
	<node lat="60.8653611122481" lon="5.972836107415801" id="-72205">
		<tag k="name" v="Straume" />
		<tag k="place" v="farm" />
		<tag k="ssr:stedsnr" v="348550" />
	</node>
	<node lat="60.821583334206586" lon="5.8891861169207" id="-72239">
		<tag k="historic" v="shieling" />
		<tag k="name" v="Almelistølen" />
		<tag k="place" v="isolated_dwelling" />
		<tag k="ssr:stedsnr" v="434110" />
	</node>
	<node lat="60.8603638861238" lon="5.845286103481001" id="-72244">
		<tag k="historic" v="shieling" />
		<tag k="name" v="Bleidalsstølen" />
		<tag k="place" v="isolated_dwelling" />
		<tag k="ssr:stedsnr" v="434144" />
	</node>
	<node lat="60.844874996266824" lon="5.920413884937619" id="-72247">
		<tag k="alt_name" v="Sollistølen" />
		<tag k="historic" v="shieling" />
		<tag k="name" v="Tringsstølen" />
		<tag k="place" v="isolated_dwelling" />
		<tag k="ssr:stedsnr" v="434166" />
	</node>
	<node lat="60.891824997086964" lon="6.035916663373764" id="-72256">
		<tag k="name" v="Krossen" />
		<tag k="place" v="farm" />
		<tag k="ssr:stedsnr" v="544757" />
	</node>
	<node lat="60.76896944519726" lon="5.756527783937774" id="-72258">
		<tag k="fixme" v="consider place=hamlet" />
		<tag k="name" v="Langedalen" />
		<tag k="place" v="farm" />
		<tag k="ssr:stedsnr" v="554034" />
	</node>
	<node lat="60.89149829649605" lon="6.036153830804429" id="-72260">
		<tag k="alt_name" v="Nygård" />
		<tag k="fixme" v="consider place=hamlet" />
		<tag k="name" v="Nygard" />
		<tag k="place" v="farm" />
		<tag k="ssr:stedsnr" v="554084" />
	</node>
	<node lat="60.861413888141826" lon="5.97910555680398" id="-72266">
		<tag k="amenity" v="nursing_home" />
		<tag k="name" v="Modalen aldersheim" />
		<tag k="ssr:stedsnr" v="554192" />
	</node>
	<node lat="60.90044444378043" lon="6.030241658633725" id="-72288">
		<tag k="name" v="Sundet" />
		<tag k="place" v="isolated_dwelling" />
		<tag k="ssr:stedsnr" v="615074" />
	</node>
	<node lat="60.81356666927546" lon="5.781536113117576" id="-72297">
		<tag k="name" v="Grønhaug" />
		<tag k="place" v="farm" />
		<tag k="ssr:stedsnr" v="615470" />
	</node>
	<node lat="60.813327781734586" lon="5.8891083309532455" id="-72328">
		<tag k="name" v="Jobotnen" />
		<tag k="place" v="farm" />
		<tag k="ssr:stedsnr" v="737136" />
	</node>
	<node lat="60.8655638871989" lon="5.983911109401063" id="-72350">
		<tag k="name" v="Haugane" />
		<tag k="place" v="farm" />
		<tag k="ssr:stedsnr" v="773555" />
	</node>
	<node lat="60.76579999999324" lon="5.728574996818289" id="-72353">
		<tag k="name" v="Straumen" />
		<tag k="place" v="farm" />
		<tag k="ssr:stedsnr" v="797044" />
	</node>
	<node lat="60.86008055660432" lon="5.978586110542635" id="-72393">
		<tag k="name" v="Balane" />
		<tag k="place" v="quarter" />
		<tag k="ssr:stedsnr" v="844535" />
	</node>
	<node lat="60.870943806690136" lon="5.9775090250264435" id="-72398">
		<tag k="fixme" v="consider place=hamlet" />
		<tag k="name" v="Straume" />
		<tag k="place" v="farm" />
		<tag k="ssr:stedsnr" v="858163" />
	</node>
	<node lat="60.94689324896156" lon="5.889892715642662" id="-72403">
		<tag k="fixme" v="consider tourism=alpine_hut or tourism=chalet" />
		<tag k="name" v="Vardadalsbu" />
		<tag k="ssr:stedsnr" v="938728" />
		<tag k="tourism" v="wilderness_hut" />
	</node>
	<node lat="60.81497768725951" lon="5.804345369880247" id="-72413">
		<tag k="fixme" v="consider place=hamlet" />
		<tag k="name" v="Mo" />
		<tag k="place" v="farm" />
		<tag k="ssr:stedsnr" v="989189" />
	</node>
</osm>
