<?xml version="1.0" encoding="UTF-8"?>
<osm version="0.6" generator="osmapis">
	<node lat="60.74689275992608" lon="5.693374486205491" id="-71438">
		<tag k="bay" v="fjord" />
		<tag k="name" v="Mofjorden" />
		<tag k="natural" v="bay" />
		<tag k="ssr:stedsnr" v="69490" />
	</node>
	<node lat="60.81307500222414" lon="5.802249995077666" id="-71465">
		<tag k="name" v="Movika" />
		<tag k="natural" v="bay" />
		<tag k="ssr:stedsnr" v="165125" />
	</node>
	<node lat="60.7901583360207" lon="5.756005562825042" id="-71466">
		<tag k="name" v="Beitleneset" />
		<tag k="natural" v="cape" />
		<tag k="ssr:stedsnr" v="165127" />
	</node>
	<node lat="60.758972224427005" lon="5.697613887945449" id="-71467">
		<tag k="name" v="Fleo" />
		<tag k="natural" v="cape" />
		<tag k="ssr:stedsnr" v="165130" />
	</node>
	<node lat="60.77142222413237" lon="5.741916667095581" id="-71468">
		<tag k="name" v="Storaneset" />
		<tag k="natural" v="cape" />
		<tag k="ssr:stedsnr" v="165131" />
	</node>
	<node lat="60.77695000290265" lon="5.757891663947892" id="-71518">
		<tag k="name" v="Langedalsvika" />
		<tag k="natural" v="bay" />
		<tag k="ssr:stedsnr" v="469159" />
	</node>
	<node lat="60.773730553427065" lon="5.743111108178618" id="-71532">
		<tag k="name" v="Storevika" />
		<tag k="natural" v="bay" />
		<tag k="ssr:stedsnr" v="347566" />
	</node>
	<node lat="60.80662777903124" lon="5.766233336613176" id="-71584">
		<tag k="name" v="Klubbane" />
		<tag k="natural" v="cape" />
		<tag k="ssr:stedsnr" v="494434" />
	</node>
	<node lat="60.76467499744589" lon="5.721838891361913" id="-71612">
		<tag k="name" v="Seljaneset" />
		<tag k="natural" v="cape" />
		<tag k="ssr:stedsnr" v="529606" />
	</node>
	<node lat="60.890830556661676" lon="5.967855564090929" id="-71623">
		<tag k="name" v="Godstrand" />
		<tag k="natural" v="beach" />
		<tag k="ssr:stedsnr" v="530696" />
	</node>
	<node lat="60.75037222214794" lon="5.688877783410718" id="-71670">
		<tag k="name" v="Fagrevikneset" />
		<tag k="natural" v="cape" />
		<tag k="ssr:stedsnr" v="894157" />
	</node>
	<node lat="60.74775555479491" lon="5.702874997105476" id="-71689">
		<tag k="fixme" v="multiple name tags, choose one and add the other to alt_name" />
		<tag k="name" v="Mosurbukta;Mosurvika" />
		<tag k="natural" v="bay" />
		<tag k="ssr:stedsnr" v="734482" />
	</node>
	<node lat="60.809811113680176" lon="5.774833324861693" id="-71732">
		<tag k="name" v="Grunkeneset" />
		<tag k="natural" v="cape" />
		<tag k="ssr:stedsnr" v="919481" />
	</node>
	<node lat="60.78478610811212" lon="5.752358335977771" id="-71734">
		<tag k="name" v="Mattisvikneset" />
		<tag k="natural" v="cape" />
		<tag k="ssr:stedsnr" v="833134" />
	</node>
	<node lat="60.788361110619135" lon="5.754163887489891" id="-71735">
		<tag k="name" v="Mattisvika" />
		<tag k="natural" v="bay" />
		<tag k="ssr:stedsnr" v="833583" />
	</node>
	<node lat="60.75961666366842" lon="5.70971944803679" id="-71770">
		<tag k="name" v="Hauganeset" />
		<tag k="natural" v="cape" />
		<tag k="ssr:stedsnr" v="8065" />
	</node>
	<node lat="60.7576694465728" lon="5.692936114546477" id="-71792">
		<tag k="name" v="Kamullbukta" />
		<tag k="natural" v="bay" />
		<tag k="ssr:stedsnr" v="44152" />
	</node>
	<node lat="60.784369440120486" lon="5.76714165941469" id="-71793">
		<tag k="name" v="Bjørnatoa" />
		<tag k="natural" v="cape" />
		<tag k="ssr:stedsnr" v="44153" />
	</node>
	<node lat="60.81058333106024" lon="5.7909805513273644" id="-71827">
		<tag k="name" v="Moneset" />
		<tag k="natural" v="cape" />
		<tag k="ssr:stedsnr" v="130445" />
	</node>
	<node lat="60.75757222591227" lon="5.722275001186486" id="-71831">
		<tag k="name" v="Mostraumsvika" />
		<tag k="natural" v="bay" />
		<tag k="ssr:stedsnr" v="165140" />
	</node>
	<node lat="60.7435916666823" lon="5.697030556760578" id="-71863">
		<tag k="name" v="Mosurneset" />
		<tag k="natural" v="cape" />
		<tag k="ssr:stedsnr" v="226168" />
	</node>
	<node lat="60.74486110816387" lon="5.690416660493945" id="-71869">
		<tag k="bay" v="fjord" />
		<tag k="name" v="Romerheimsfjorden" />
		<tag k="natural" v="bay" />
		<tag k="ssr:stedsnr" v="226627" />
	</node>
	<node lat="60.76666388652784" lon="5.728950002979322" id="-71895">
		<tag k="name" v="Mostraumen" />
		<tag k="natural" v="strait" />
		<tag k="ssr:stedsnr" v="312045" />
	</node>
	<node lat="60.797688887076" lon="5.769438894015784" id="-71909">
		<tag k="name" v="Grimsneset" />
		<tag k="natural" v="cape" />
		<tag k="ssr:stedsnr" v="347149" />
	</node>
	<node lat="60.73886110706078" lon="5.672052780274727" id="-71942">
		<tag k="name" v="Bjørnstø" />
		<tag k="natural" v="bay" />
		<tag k="ssr:stedsnr" v="431334" />
	</node>
	<node lat="60.78069166811987" lon="5.74778888371567" id="-71994">
		<tag k="name" v="Skjeggevika" />
		<tag k="natural" v="bay" />
		<tag k="ssr:stedsnr" v="614440" />
	</node>
	<node lat="60.75258055612184" lon="5.688936119349355" id="-72057">
		<tag k="name" v="Fagervika" />
		<tag k="natural" v="bay" />
		<tag k="ssr:stedsnr" v="772587" />
	</node>
	<node lat="60.80282222203449" lon="5.775136117638959" id="-72086">
		<tag k="name" v="Kjetoa" />
		<tag k="natural" v="cape" />
		<tag k="ssr:stedsnr" v="833141" />
	</node>
	<node lat="60.75013055194377" lon="5.683463884477797" id="-72091">
		<tag k="name" v="Høgeneset" />
		<tag k="natural" v="cape" />
		<tag k="ssr:stedsnr" v="833612" />
	</node>
	<node lat="60.805505552263064" lon="5.762869448242808" id="-72113">
		<tag k="name" v="Stokkevika" />
		<tag k="natural" v="bay" />
		<tag k="ssr:stedsnr" v="858499" />
	</node>
	<node lat="60.81060833028509" lon="5.7937222191416184" id="-72117">
		<tag k="name" v="Nesvika" />
		<tag k="natural" v="bay" />
		<tag k="ssr:stedsnr" v="954136" />
	</node>
	<node lat="60.77721388432076" lon="5.754858325771579" id="-72118">
		<tag k="name" v="Langedalsneset" />
		<tag k="natural" v="cape" />
		<tag k="ssr:stedsnr" v="954559" />
	</node>
</osm>
